House number,Street name,Postal code,Latitude,Longitude
27,Ridge Street,44308,41.0892910,-81.5134250
404,South Arlington Street,44306,41.0611671,-81.4912260
1767,Goodyear Boulevard,44305,41.0742228,-81.4640024
450,Dennison Avenue,44312,41.0450563,-81.4287232
844,Garth Avenue,44320,41.0807933,-81.5517929
1580,Brown Street,44301,41.0384421,-81.5108139
1129,Andrus Street,44301,41.0561185,-81.5213388
1007,S Hawkins,44320,41.0819999,-81.5690084
595,Copley Road,44320,41.0842224,-81.5434512
415,Storer Avenue,44320,41.0911667,-81.5559519
1187,Copley Road,44320,41.0835855,-81.5650550
264,South Arlington,44306,41.0704891,-81.4916191
825,West Market Street,44303,41.0969622,-81.5438491
837,West Market Street,44303,41.0970568,-81.5440889
835,West Market Street,44303,41.0970159,-81.5439845
750,White Pond Drive,44320,41.0963163,-81.5904400
440,Vernon Odom Boulevard,44307,41.0726113,-81.5396607
2380,Manchester Road,44314,41.0341211,-81.5458053
80,Westgate Circle,44313,41.1090159,-81.5705869
371,South Main Street,44311,41.0757779,-81.5224174
1075,West Market Street,44313,41.1016674,-81.5513053
21,Furnace Street,44308,41.0887162,-81.5154915
105,North Main Street,44308,41.0878905,-81.5153713
111,North Main Street,44308,41.0880462,-81.5152882
10,North Main Street,44308,41.0853831,-81.5170165
10,North Main Street,44308,41.0857435,-81.5168614
730,Perkins Park Drive,44320,41.0772366,-81.5465391
2693,Nesbitt Avenue,44319,41.0253483,-81.5468337
17,Maiden Lane,44308,41.0854969,-81.5157896
57,East Market Street,44308,41.0850497,-81.5158145
30,North High Street,44308,41.0857310,-81.5154172
22,North High Street,44308,41.0854207,-81.5155142
492,West Market Street,44303,41.0919189,-81.5335835
641,Portage Trail Extension W,44223,41.1399866,-81.5281220
1562,Akron Peninsula Road,44313,41.1376869,-81.5480042
31,Furnace Street,44308,41.0888222,-81.5151401
1530,West Market Street,44313,41.1070878,-81.5649003
272,East Exchange Street,44304,41.0729190,-81.5134550
2129,South Main Street,44301,41.0291206,-81.5265477
600,Chapel Hill Mall,44310,41.1152917,-81.4708085
1906,Buchholzer Boulevard,44310,41.1150588,-81.4720119
510,Howe Avenue,44221,41.1168192,-81.4756285
1971,West Market Street,44313,41.1138063,-81.5783940
118,West Market Street,44303,41.0868921,-81.5215016
110,North Main Street,44308,41.0882168,-81.5159098
43,Furnace Street,44308,41.0885518,-81.5147709
43,Furnace Street,44308,41.0886371,-81.5146797
30,North High Street,44308,41.0856971,-81.5154314
30,North High Street,44308,41.0856632,-81.5154462
20,North High Street,44308,41.0853984,-81.5155233
57,East Market Street,44308,41.0850536,-81.5157562
5,North Main Street,44308,41.0853574,-81.5163552
302,Buchetel Common,44325,41.0769275,-81.5106743
1604,Home Avenue,44310,41.1144924,-81.4860855
1677,Home Avenue,44310,41.1156085,-81.4821766
303,Carroll Street,44325,41.0755961,-81.5130660
303,Carroll Street,44325,41.0756547,-81.5129801
440,East Waterloo Road,44319,41.0276030,-81.5107870
484,East Waterloo Road,44319,41.0277859,-81.5094540
282,East Exchange Street,44304,41.0728076,-81.5131479
1940,West Market Street,44313,41.1129906,-81.5777675
1,North Hawkins Avenue,44313,41.1101952,-81.5687410
2068,East Market Street,44312,41.0602321,-81.4546648
34,North Hawkins Avenue,44313,41.1107511,-81.5695730
9,North Hawkins Avenue,44313,41.1100432,-81.5687413
1,North Hawkins Avenue,44313,41.1099790,-81.5687428
1,North Hawkins Avenue,44313,41.1098548,-81.5687178
1751,West Exchange Street,44313,41.1090691,-81.5689199
2695,Gilchrist Road,44305,41.0644687,-81.4293203
727,Kipling Street,44306,41.0575387,-81.5025484
430,White Pond Drive,44320,41.1046659,-81.5863351
41,South Case Avenue,44305,41.0690068,-81.4887002
1813,South Main Street,44301,41.0375682,-81.5264197
1811,South Main Street,44301,41.0376237,-81.5264370
1809,South Main Street,44301,41.0376842,-81.5264386
426,East Waterloo Road,44319,41.0275843,-81.5117125
1115,Brown Street,44301,41.0513434,-81.5097481
1890,West Market Street,44313,41.1100709,-81.5762730
1694,West Market Street,44313,41.1097079,-81.5703809
1712,West Market Street,44313,41.1098426,-81.5706236
800,Copley Road,44320,41.0846228,-81.5508374
1374,Copley Road,44320,41.0840828,-81.5712843
315,S Maple,44302,41.0846795,-81.5333455
1040,Copley Road,44320,41.0857816,-81.5592237
183,South Portage Path,44302,41.0924294,-81.5434331
1323,Copley Road,44320,41.0835757,-81.5700075
1342,Copley Road,44320,41.0841232,-81.5703945
1392,Copley Road,44320,41.0840155,-81.5722486
1609,Copley Road,44320,41.0835298,-81.5802274
1260,Copley Road,44320,41.0841889,-81.5674333
1303,Copley Road,44320,41.0832225,-81.5690105
1281,Copley Road,44320,41.0837431,-81.5676432
964,Delia Avenue,44320,41.0920866,-81.5508032
950,Copley Road,44320,41.0844558,-81.5560125
815,Copley Road,44320,41.0839099,-81.5513293
901,Copley Road,44320,41.0841080,-81.5541886
970,Copley Road,44320,41.0845750,-81.5568681
1040,Copley Road,44322,41.0865664,-81.5607278
530,Nome Avenue,44320,41.0951804,-81.5716672
1040,Copley Road,44320,41.0859942,-81.5602771
2420,Wedgewood Drive,44312-2432,41.0481719,-81.4415440
1058,Princeton Street,44301,41.0579594,-81.5352662
529,Grant Street,44311,41.0688802,-81.5173820
995,Treaty Line Road,44313,41.1273531,-81.5471623
1690,Cuyahoga Street,44313,41.1363818,-81.5283305
620,North Howard Street,44310,41.1023465,-81.5156005
1212,Weathervane Lane,44313,41.1354838,-81.5532891
11,East Exchange Street,44308,41.0764845,-81.5215486
338,Howe Avenue,44221,41.1171005,-81.4817070
964,Kenmore Boulevard,44314,41.0432750,-81.5585508
904,Tallmadge Avenue,44310,41.1018891,-81.4820987
330,Howe Avenue,44221,41.1170975,-81.4821360
434,Howe Avenue,44221,41.1167877,-81.4793622
400,Howe Avenue,44221,41.1169343,-81.4803031
412,Howe Avenue,44221,41.1169098,-81.4800630
458,Howe Avenue,44221,41.1167913,-81.4787164
540,South Main Street,44311,41.0705309,-81.5268090
1011,East Waterloo Road,44306,41.0310200,-81.4908307
1600,Home Avenue,44310,41.1146817,-81.4860990
2147,East Avenue,44314,41.0454518,-81.5708512
1164,Grant Street,44301,41.0511033,-81.5189237
1376,North Portage Path,44313,41.1325528,-81.5493878
1885,West Market Street,44313,41.1126763,-81.5758135
1203,East Market Street,44305,41.0653687,-81.4813624
835,Brittain Ridge,44305,41.0855013,-81.4666259
1167,Brittain Road,44305,41.0947268,-81.4664681
1900,Buchholzer Boulevard,44310,41.1147586,-81.4720341
1902,Buchholzer Boulevard,44310,41.1148243,-81.4720321
1208,Massillon Rd,44306,41.0284579,-81.4697520
1745,Goodyear Boulevard,44305,41.0734209,-81.4636944
1749,Goodyear Boulevard,44305,41.0735005,-81.4636985
1763,Goodyear Boulevard,44305,41.0739433,-81.4637042
1774,Goodyear Boulevard,44305,41.0741153,-81.4630770
1772,Goodyear Boulevard,44305,41.0740688,-81.4630770
1768,Goodyear Boulevard,44305,41.0739666,-81.4630816
1760,Goodyear Boulevard,44305,41.0737692,-81.4630801
1750,Goodyear Boulevard,44305,41.0736562,-81.4630765
1750,Goodyear Boulevard,44305,41.0735965,-81.4630765
1744,Goodyear Boulevard,44305,41.0733605,-81.4630684
1730,Goodyear Boulevard,44305,41.0730885,-81.4630796
21,West North Street,44304,41.0912898,-81.5169545
1033,Kenmore Boulevard,44314,41.0432590,-81.5610733
399,East Cuyahoga Falls Avenue,44310,41.1117175,-81.5037009
1289,George Washington Boulevard,44312,41.0281236,-81.4616682
1288,George Washington Boulevard,44306,41.0276083,-81.4628382
1467,South Arlington Road,44306,41.0323142,-81.4908984
1395,South Arlington Street,46305,41.0342515,-81.4909481
1333,South Arlington Street,44306,41.0360794,-81.4906088
1860,Newton Street,44305,41.0725749,-81.4561941
1854,Newton Street,44305,41.0725601,-81.4563387
260,East Cuyahoga Falls Avenue,44310-2256,41.1089626,-81.5076133
275,East Market Street,44308,41.0823354,-81.5085632
1596,West Market Street,44313,41.1078212,-81.5668009
1592,West Market Street,44313-7155,41.1079182,-81.5667272
1200,South Arlington Street,44306,41.0392659,-81.4917929
1175,South Arlington Street,44306,41.0403300,-81.4909185
2091,Eastwood Avenue,44305,41.0847672,-81.4420994
179,South Portage Path,44302,41.0925714,-81.5434591
1607,South Hawkins Avenue,44320,41.0657376,-81.5680213
1324,Vernon Odom Boulevard,44333,41.0646790,-81.5688448
1977,Buchholzer Boulevard,44310,41.1158379,-81.4687361
1954,Buchholzer Boulevard,44310,41.1159528,-81.4731694
1916,Buchholzer Boulevard,44310,41.1148461,-81.4731457
1930,Buchholzer Boulevard,44310,41.1151948,-81.4732075
1936,Buchholzer Boulevard,44310,41.1152566,-81.4732077
1938,Buchholzer Boulevard,44310,41.1153122,-81.4732039
1886,Buchholzer Boulevard,44310,41.1135948,-81.4730845
1886,Buchholzer Boulevard,44310,41.1140378,-81.4730693
1850,Buchholzer Boulevard,44310,41.1129038,-81.4729695
1860,Buchholzer Boulevard,44310,41.1130459,-81.4729629
2400,Romig Road,44320,41.0481962,-81.5853677
2488,Romig Road,44320,41.0467944,-81.5817290
1681,Home Avenue,44310,41.1165564,-81.4846462
1677,Home Avenue,44310,41.1159395,-81.4839378
278,Howe Avenue,44221,41.1171673,-81.4825418
354,Howe Avenue,44221,41.1170632,-81.4813701
392,Howe Avenue,44221,41.1170842,-81.4815550
370,Howe Avenue,44221,41.1169308,-81.4809855
396,Howe Avenue,44221,41.1169465,-81.4804048
404,Howe Avenue,44221,41.1169256,-81.4801856
442,Howe Avenue,44221,41.1167870,-81.4792420
446,Howe Avenue,44221,41.1167858,-81.4790672
458,Howe Avenue,44221,41.1167918,-81.4786012
470,Howe Avenue,44221,41.1166721,-81.4781907
490,Howe Avenue,44221,41.1167718,-81.4777784
498,Howe Avenue,44221,41.1165080,-81.4769539
1684,Home Avenue,44310,41.1168783,-81.4856848
2500,Romig Road,44320,41.0457920,-81.5826115
2345,Romig Road,44320,41.0506083,-81.5800755
2301,Romig Road,44320,41.0519229,-81.5788150
2337,Romig Road,44320,41.0505130,-81.5788149
2375,Romig Road,44320,41.0499360,-81.5778962
2375,Romig Road,44320,41.0497175,-81.5778974
2405,Romig Road,44320,41.0488699,-81.5780626
2419,Romig Road,44320,41.0484211,-81.5802398
2421,Romig Road,44320,41.0482191,-81.5793141
2455,Romig Road,44320,41.0475483,-81.5802865
2481,Romig Road,44320,41.0468878,-81.5803053
2495,Romig Road,44320,41.0463437,-81.5804003
2495,Romig Road,44320,41.0463898,-81.5803967
2493,Romig Road,44320,41.0465319,-81.5795863
2511,Romig Road,44320,41.0460395,-81.5803828
2529,Romig Road,44320,41.0456554,-81.5801229
2533,Romig Road,44320,41.0455096,-81.5801787
2213,Romig Road,44320,41.0541357,-81.5798609
2193,Romig Road,44320,41.0555133,-81.5801947
2185,Romig Road,44320,41.0558089,-81.5797764
2168,Romig Road,44320,41.0551651,-81.5813469
2170,Romig Road,44320,41.0555640,-81.5824819
2196,Romig Road,44320,41.0547094,-81.5822660
2202,Romig Road,44320,41.0543979,-81.5819689
2166,Romig Road,44320,41.0560104,-81.5825215
2100,Romig Road,44320,41.0562903,-81.5826335
46,South Valley Street,44303,41.0894171,-81.5298250
60,South Maple Street,44303,41.0866929,-81.5246994
101A,Bittman Street,44303,41.0869570,-81.5280081
101B,Bittman Street,44303,41.0869033,-81.5279331
765,Darrow Road,44305,41.0845233,-81.4409228
765,Darrow Road,44305,41.0845618,-81.4412125
2129,South Main Street,44301,41.0293505,-81.5265443
511,West Exchange Street,44302,41.0853575,-81.5364716
509,West Exchange Street,44302,41.0853351,-81.5364408
58,West Exchange Street,44308,41.0771416,-81.5240535
80,West Bowery Street,44308,41.0813816,-81.5206234
47,North Main Street,44308,41.0864497,-81.5160080
75,Arch Street,44304,41.0805362,-81.4994346
141,North Forge Street,44304,41.0807423,-81.5013298
1600,Triplett Boulevard,44306,41.0404962,-81.4674807
44,South Summit Street,44308,41.0828945,-81.5144356
46,South Summit Street,44308,41.0828679,-81.5143582
80,South Summit Street,44308,41.0819093,-81.5147294
80,South Summit Street,44308,41.0819797,-81.5147823
80,South Summit Street,44308,41.0820836,-81.5146969
225,South Main Street,44325,41.0787641,-81.5193359
123-125,Rhodes Avenue,44302,41.0905684,-81.5384786
127,Rhodes Avenue,44302,41.0905281,-81.5384780
677,West Exchange Street,44302,41.0886697,-81.5408238
675,West Exchange Street,44302,41.0885654,-81.5407618
16,Rhodes Avenue,44302,41.0933647,-81.5370604
608,West Market Street,44302,41.0936294,-81.5369530
612,West Market Street,44302,41.0937198,-81.5371652
610,West Market Street,44302,41.0935624,-81.5371410
23,South Main Street,44308,41.0843604,-81.5168548
27,Ridge Street,44308,41.0894879,-81.5149699
1250,East Tallmadge Avenue,44310,41.1016572,-81.4696146
752,West Market Street,44303,41.0954834,-81.5418182
764,West Market Street,44303,41.0954283,-81.5419815
764,West Market Street,44303,41.0954697,-81.5421252
764,West Market Street,44303,41.0954526,-81.5420451
786,West Market Street,44303,41.0960817,-81.5427631
782,West Market Street,44303,41.0960421,-81.5426679
784,West Market Street,44303,41.0960530,-81.5426938
824,West Market Street,44303,41.0966175,-81.5439738
822,West Market Street,44303,41.0966080,-81.5439495
814,West Market Street,44303,41.0965116,-81.5437000
812,West Market Street,44303,41.0964777,-81.5436200
812,West Market Street,44303,41.0964482,-81.5435505
810,West Market Street,44303,41.0964375,-81.5435254
808,West Market Street,44303,41.0964009,-81.5434389
804,West Market Street,44303,41.0963955,-81.5434262
806,West Market Street,44303,41.0963787,-81.5433864
313,West North Street,44303,41.0911661,-81.5276032
313,West North Street,44303,41.0912384,-81.5273868
55,East Exchange Street,44308,41.0759066,-81.5201110
57,East Exchange Street,44308,41.0758825,-81.5200491
50,Charlotte Street,44303,41.0949685,-81.5357009
50 1/2,Charlotte Street,44303,41.0949915,-81.5356837
27,Neal Court,44303,41.0960707,-81.5356255
25,Neal Court,44303,41.0960403,-81.5355495
23,Neal Court,44303,41.0960123,-81.5355005
21,Neal Court,44303,41.0959687,-81.5355317
19,Neal Court,44303,41.0958727,-81.5356044
17,Neal Court,44303,41.0958208,-81.5356413
15,Neal Court,44303,41.0958125,-81.5357137
13,Neal Court,44303,41.0958449,-81.5357910
200,East Market Street,44308,41.0829159,-81.5117741
45,East Market Street,44308,41.0851513,-81.5161533
43,East Market Street,44308,41.0851743,-81.5162616
39,East Market Street,44308,41.0851790,-81.5163155
39,East Market Street,44308,41.0851851,-81.5163344
39,East Market Street,44308,41.0852128,-81.5164081
9,North Main Street,44308,41.0854489,-81.5164115
59,East Market Street,44308,41.0850568,-81.5157852
18,North High Street,44308,41.0853449,-81.5155517
109,East Market Street,44308,41.0843541,-81.5140953
113,East Market Street,44308,41.0843119,-81.5139947
120,East Market Street,44308,41.0842077,-81.5137465
2,North Summit Street,44308,41.0843280,-81.5135704
15,North Broadway Street,44308,41.0847003,-81.5142245
17,North Broadway Street,44308,41.0848360,-81.5141677
105,East Market Street,44308,41.0843760,-81.5141478
2081,East Market Street,44312,41.0604264,-81.4537492
894,West Wilbeth Road,44314,41.0387582,-81.5584097
790,North Main Street,44310,41.1067403,-81.5109643
1662,Brittain Road,44310,41.1080821,-81.4667050
135,Fir Hill,44304,41.0775736,-81.5057002
135,Fir Hill,44304,41.0774497,-81.5067996
135,Fir Hill,44304,41.0775242,-81.5060414
135,Fir Hill,44304,41.0768634,-81.5067685
1079,South Arlington Street,44306,41.0427210,-81.4907819
33,West Mapledale Avenue,44301,41.0458024,-81.5287171
450,East Buchtel Avenue,44325,41.0759492,-81.5054078
302,Buchtel Common,44325,41.0769270,-81.5102330
207,East Exchange Street,44325,41.0747122,-81.5150780
2677,Riverview Road,44313,41.1538953,-81.5705763
77,East Mill Street,44308,41.0826284,-81.5158377
1212,Cuyahoga Street,44313,41.1244576,-81.5307508
259,South Broadway Street,44325,41.0776566,-81.5176952
2108,Akron Peninsula Road,44313,41.1461080,-81.5631673
499,Memorial Parkway,44310,41.1051390,-81.5302626
2108,Akron Peninsula Road,44313,41.1458212,-81.5624763
225,South Main Street,44308,41.0788962,-81.5196921
275,South High Street,44308,41.0774785,-81.5191674
290,Spicer Street,44325,41.0729857,-81.5067382
375,East Exchange Street,44304,41.0725143,-81.5084941
200,Innovation Way,44316,41.0588386,-81.4776222
826,West Market Street,44303,41.0963987,-81.5441854
645,North Main Street,44310,41.1028456,-81.5105178
150,Glendale Avenue,44302,41.0836245,-81.5290808
2620,Harrington Road,44319,41.0163382,-81.5175136
1368,Sweitzer Avenue,44301,41.0491398,-81.5265246
246,East Exchange Street,44304,41.0730533,-81.5142067
2021,East Market Street,44305,41.0611695,-81.4549733
2060,Mogadore Road,44312,41.0615602,-81.4543579
452,East Warner Road,44319,41.0078001,-81.5078126
275,Wolf Ledges Parkway,44325,41.0760251,-81.5163451
433,Grant Street,44311,41.0712475,-81.5169965
240,North Portage Path,44303,41.1085460,-81.5530255
1260,Jefferson Avenue,44320,41.1006488,-81.5687175
263,South Main Street,44308,41.0784287,-81.5203385
44,University Avenue,44308,41.0782292,-81.5184607
199,South Broadway Street,44308,41.0788081,-81.5167079
333,South Broadway Street,44308,41.0761542,-81.5187788
204,South College Street,44325,41.0771066,-81.5117111
77,West Market Street,44308,41.0866441,-81.5202394
11,West Market Street,44303,41.0875086,-81.5209581
390,West Market Street,44303,41.0903102,-81.5298428
440,West Market Street,44302,41.0912680,-81.5320524
40,South Hawkins Avenue,44313,41.1086463,-81.5696827
1720,West Exchange Street,44313-7662,41.1082871,-81.5687822
1636,West Market Street,44313,41.1086215,-81.5679464
1655,West Market Street,44313,41.1094574,-81.5682832
1693,West Market Street,44313,41.1102792,-81.5697119
1795,West Market Street,44313,41.1116327,-81.5727880
1835,West Market Street,44313,41.1130669,-81.5742257
2091,Eastwood Avenue,44305,41.0847572,-81.4420926
333-337,South Main Street,44308,41.0766336,-81.5217175
271,South Main Street,44308,41.0781270,-81.5205767
21,Furnace Street,44308,41.0888556,-81.5157914
92,North Main Street,44308,41.0878302,-81.5161533
10,North Main Street,44308,41.0856816,-81.5170471
47,North Main Street,44308,41.0864041,-81.5158344
17,South Main Street,44308,41.0847709,-81.5166160
484,West Market Street,44302,41.0918683,-81.5330726
474,West Market Street,44302,41.0918219,-81.5329729
501,West Market Street,44303,41.0929677,-81.5330395
62,North Balch Street,44303,41.0938039,-81.5322539
66,North Balch Street,44303,41.0939011,-81.5321779
68,North Balch Street,44303,41.0940042,-81.5321028
112,Aqueduct Street,44303,41.0941224,-81.5321274
87,Hurlburt Avenue,44303,41.0943687,-81.5321929
83,Hurlburt Avenue,44303,41.0943368,-81.5323250
79,Hurlburt Avenue,44303,41.0942933,-81.5324566
75,Hurlburt Avenue,44303,41.0942615,-81.5325675
67,Hurlburt Avenue,44303,41.0941987,-81.5326788
63,Hurlburt Avenue,44303,41.0940972,-81.5327512
59,Hurlburt Avenue,44303,41.0939991,-81.5328257
53,Hurlburt Avenue,44303,41.0938867,-81.5328992
63,North Balch Street,44303,41.0936168,-81.5318389
61,North Balch Street,44303,41.0935362,-81.5319073
55,North Balch Street,44303,41.0934391,-81.5319626
49,North Balch Street,44303,41.0933482,-81.5320253
45,North Balch Street,44303,41.0932380,-81.5321024
39,North Balch Street,44303,41.0931451,-81.5321873
78,Aqueduct Street,44303,41.0929292,-81.5317224
80,Aqueduct Street,44303,41.0930616,-81.5315710
84,Aqueduct Street,44303,41.0931643,-81.5316274
86,Aqueduct Street,44303,41.0932451,-81.5316649
90,Aqueduct Street,44303,41.0934655,-81.5317404
481,West Market Street,44303,41.0923221,-81.5328023
475,West Market Street,44303,41.0922465,-81.5326839
467,West Market Street,44303,41.0921771,-81.5324934
463,West Market Street,44303,41.0921055,-81.5322957
461,West Market Street,44303,41.0920258,-81.5321424
11,North Balch Street,44303,41.0924565,-81.5327109
15,North Balch Street,44303,41.0925425,-81.5326406
19,North Balch Street,44303,41.0926884,-81.5325596
476,Fairfield Avenue,44303,41.0927650,-81.5322232
470,Fairfield Avenue,44303,41.0927117,-81.5320472
34,Oakdale Cut,44303,41.0926918,-81.5316027
30,Oakdale Cut,44303,41.0926221,-81.5316526
70,Aqueduct Street,44303,41.0928441,-81.5314537
62,Aqueduct Street,44303,41.0925661,-81.5313652
58,Aqueduct Street,44303,41.0924848,-81.5313243
56,Aqueduct Street,44303,41.0923721,-81.5312652
425,West Market Street,44303,41.0915205,-81.5309179
400,West Market Street,44303,41.0905308,-81.5314947
349,West Market Street,44303,41.0905516,-81.5286514
347,West Market Street,44303,41.0904750,-81.5286060
341,West Market Street,44303,41.0904062,-81.5284310
339,West Market Street,44303,41.0903907,-81.5283427
335,West Market Street,44303,41.0903532,-81.5282158
323,West Market Street,44303,41.0904021,-81.5277961
321,West Market Street,44303,41.0903488,-81.5273803
396,East Market,44304,41.0802323,-81.5054257
578,East Market Street,44304-1660,41.0776597,-81.4996347
671,East Market Street,44304-1668,41.0771335,-81.4962579
716,East Market Street,44305,41.0758105,-81.4954250
340,South Broadway Street,44308,41.0760042,-81.5197537
313,South High Street,44308,41.0768097,-81.5200215
217,South High Street,44308,41.0791469,-81.5182502
131,South High Street,44308,41.0813716,-81.5167375
139,South High Street,44308,41.0809976,-81.5169336
80,South Summit Street,44308,41.0820507,-81.5147481
103,Aqueduct Street,44303,41.0937739,-81.5314724
99,Aqueduct Street,44303,41.0936741,-81.5314487
97,Aqueduct Street,44303,41.0935993,-81.5314010
93,Aqueduct Street,44303,41.0935149,-81.5313615
89,Aqueduct Street,44303,41.0934376,-81.5313159
85,Aqueduct Street,44303,41.0933553,-81.5312874
415,Silver Street,44303,41.0931488,-81.5310956
409,Silver Street,44303,41.0931600,-81.5308546
405,Silver Street,44303,41.0931725,-81.5307057
399,Silver Street,44303,41.0932097,-81.5305282
395,Silver Street,44303,41.0931974,-81.5303994
391,Silver Street,44303,41.0932193,-81.5302158
385,Silver Street,44303,41.0932258,-81.5299888
381,Silver Street,44303,41.0932155,-81.5297991
375,Silver Street,44303,41.0932274,-81.5295600
359,Silver Street,44303,41.0932326,-81.5291288
124,North Valley Street,44303,41.0938371,-81.5292036
366,Doyle Street,44303,41.0938406,-81.5293723
372,Doyle Street,44303,41.0938063,-81.5295349
378,Doyle Street,44303,41.0938043,-81.5297816
384,Doyle Street,44303,41.0938015,-81.5299952
390,Doyle Street,44303,41.0937896,-81.5302213
396,Doyle Street,44303,41.0938015,-81.5304361
404,Doyle Street,44303,41.0938171,-81.5306597
416,Doyle Street,44303,41.0938494,-81.5307993
418,Doyle Street,44303,41.0938455,-81.5309246
420,Doyle Street,44303,41.0938412,-81.5310423
422,Doyle Street,44303,41.0938424,-81.5311690
424,Doyle Street,44303,41.0938181,-81.5313109
421,Doyle Street,44303,41.0941146,-81.5311289
407,Doyle Street,44303,41.0941495,-81.5309853
405,Doyle Street,44303,41.0941643,-81.5308492
403,Doyle Street,44303,41.0941988,-81.5306781
395,Doyle Street,44303,41.0942102,-81.5305111
393,Doyle Street,44303,41.0942149,-81.5303256
379,Doyle Street,44303,41.0941775,-81.5298426
375,Doyle Street,44303,41.0941809,-81.5297084
156,Doyle Court,44303,41.0946734,-81.5297252
160,Doyle Court,44303,41.0948036,-81.5297192
160,North Valley Street,44303,41.0948404,-81.5294088
149,Doyle Court,44303,41.0945271,-81.5294795
136,North Valley Street,44303,41.0941634,-81.5291850
142,North Valley Street,44303,41.0943483,-81.5291687
111,North Valley Street,44303,41.0934891,-81.5286779
107,North Valley Street,44303,41.0933929,-81.5287163
341,Silver Street,44303,41.0931854,-81.5284097
329,Silver Street,44303,41.0933762,-81.5279176
309,Silver Street,44303,41.0932768,-81.5275161
295,Silver Street,44303,41.0934798,-81.5266860
69,Aqueduct Street,44303,41.0929134,-81.5309601
63,Aqueduct Street,44303,41.0926850,-81.5308873
59,Aqueduct Street,44303,41.0925854,-81.5308249
55,Aqueduct Street,44303,41.0924805,-81.5307689
25,Aqueduct Street,44303,41.0917666,-81.5304285
375,West North Street,44303,41.0913257,-81.5298072
58,North Valley Street,44303,41.0920183,-81.5291667
72,North Valley Street,44303,41.0923399,-81.5291632
76,North Valley Street,44303,41.0925180,-81.5291553
80,North Valley Street,44303,41.0926789,-81.5292028
376,Silver Street,44303,41.0928220,-81.5296803
382,Silver Street,44303,41.0928221,-81.5298808
386,Silver Street,44303,41.0928179,-81.5300542
392,Silver Street,44303,41.0928134,-81.5302657
396,Silver Street,44303,41.0928530,-81.5304081
328,West Market Street,44303,41.0895273,-81.5286383
300,West Market Street,44303,41.0894430,-81.5276258
301,West Market Street,44303,41.0902653,-81.5270510
17,Bittman Street,44303,41.0891045,-81.5271530
23,Bittman Street,44303,41.0889033,-81.5273089
291,Crosby Street,44303,41.0886156,-81.5276322
289,Crosby Street,44303,41.0884101,-81.5276918
283,Crosby Street,44303,41.0883326,-81.5275204
277,Crosby Street,44303,41.0882571,-81.5273160
265,Crosby Street,44303,41.0880790,-81.5269696
255,Crosby Street,44303,41.0879630,-81.5266509
249,Crosby Street,44303,41.0879148,-81.5264964
239,Crosby Street,44303,41.0877372,-81.5261197
233,Crosby Street,44303,41.0876680,-81.5259624
225,Crosby Street,44303,41.0875955,-81.5258003
223,Crosby Street,44303,41.0875198,-81.5256380
219,Crosby Street,44303,41.0874662,-81.5254717
215,Crosby Street,44303,41.0873951,-81.5253606
207,Crosby Street,44303,41.0872686,-81.5251273
203,Crosby Street,44303,41.0872187,-81.5250283
199,Crosby Street,44303,41.0871787,-81.5248834
193,Crosby Street,44303,41.0870831,-81.5247047
36,South Maple Street,44303,41.0872284,-81.5243140
194,Myrtle Place,44303,41.0873460,-81.5245504
204,Myrtle Place,44303,41.0874452,-81.5248477
206,Myrtle Place,44303,41.0874956,-81.5249491
212,Myrtle Place,44303,41.0875521,-81.5250739
216,Myrtle Place,44303,41.0876195,-81.5252013
218,Myrtle Place,44303,41.0876499,-81.5253228
272,West Market Street,44303,41.0889684,-81.5267027
264,West Market Street,44303,41.0888952,-81.5263726
285,West Market Street,44303,41.0888821,-81.5260418
275,West Market Street,44303,41.0896666,-81.5264165
265,West Market Street,44303,41.0898186,-81.5259450
259,West Market Street,44303,41.0893977,-81.5258831
26,West Street,44303,41.0898518,-81.5255993
1000,Diagonal Road,44320,41.0770700,-81.5523974
1810,Merriman Road,44313-5284,41.1348334,-81.5544775
469,Morgan Avenue,44311,41.0556524,-81.5119539
1025,Canton Road,44312,41.0399501,-81.4272491
70,North Broadway Street,44308,41.0863669,-81.5140124
1,Canal Square Plaza,44308,41.0802876,-81.5231093
389,Fountain Street,44306,41.0693530,-81.5031354
964,Hazel Street,44305,41.0785548,-81.4850433
2051,Hillside Terrace,44305,41.0835923,-81.4646166
51,East Market Street,44308,41.0855600,-81.5156483
75,East Market Street,44308,41.0849743,-81.5151629
37,North High Street,44308,41.0856645,-81.5148832
25,Green Street,44303,41.0871922,-81.5200387
77,Wood Street,44303,41.0874585,-81.5195999
143,West Market Street,44303,41.0877028,-81.5221365
40,Hurlburt Avenue,44303,41.0937460,-81.5336361
46,Hurlburt Avenue,44303,41.0938667,-81.5335530
52,Hurlburt Avenue,44303,41.0939830,-81.5334394
56,Hurlburt Avenue,44303,41.0940888,-81.5333404
60,Hurlburt Avenue,44303,41.0941960,-81.5332511
64,Hurlburt Avenue,44303,41.0942973,-81.5331748
68,Hurlburt Avenue,44303,41.0943891,-81.5331041
537,Fairfield Avenue,44303,41.0939111,-81.5339817
541,Fairfield Avenue,44303,41.0939665,-81.5341313
547,Fairfield Avenue,44303,41.0940323,-81.5342773
41,Mount View Avenue,44303,41.0941515,-81.5345815
47,Mount View Avenue,44303,41.0943399,-81.5346356
49,Mount View Avenue,44303,41.0944470,-81.5345473
55,Mount View Avenue,44303,41.0945734,-81.5344417
59,Mount View Avenue,44303,41.0946760,-81.5343496
65,Mount View Avenue,44303,41.0948159,-81.5342426
550,Stratford Avenue,44303,41.0946853,-81.5340140
544,Stratford Avenue,44303,41.0946154,-81.5339170
542,Stratford Avenue,44303,41.0945791,-81.5337419
540,Stratford Avenue,44303,41.0945077,-81.5336272
538,Stratford Avenue,44303,41.0944497,-81.5335003
533,West Market Street,44303,41.0931189,-81.5344544
545,West Market Street,44303,41.0931935,-81.5348565
549,West Market Street,44303,41.0932140,-81.5349799
9,Merriman Road,44303,41.0934647,-81.5353255
548,Fairfield Avenue,44303,41.0937444,-81.5345578
532,West Market Street,44303,41.0923715,-81.5348942
382,East Buchtel Avenue,44325,41.0770933,-81.5078879
126,Fir Hill,44325,41.0778329,-81.5082048
76,Hurlburt Avenue,44303,41.0945897,-81.5328697
80,Hurlburt Avenue,44303,41.0946563,-81.5327099
86,Hurlburt Avenue,44303,41.0946681,-81.5325466
90,Hurlburt Avenue,44303,41.0947102,-81.5324002
152,Aqueduct Street,44303,41.0949092,-81.5325168
156,Aqueduct Street,44303,41.0950106,-81.5325947
160,Aqueduct Street,44303,41.0951017,-81.5326496
546,Weber Avenue,44303,41.0954331,-81.5331051
550,Weber Avenue,44303,41.0954948,-81.5332463
554,Weber Avenue,44303,41.0955653,-81.5333657
101,Mount View Avenue,44303,41.0957133,-81.5335888
97,Mount View Avenue,44303,41.0955956,-81.5336887
91,Mount View Avenue,44303,41.0954670,-81.5337727
81,Mount View Avenue,44303,41.0952204,-81.5339673
85,Mount View Avenue,44303,41.0953584,-81.5338644
75,Mount View Avenue,44303,41.0950969,-81.5340715
553,Stratford Avenue,44303,41.0949875,-81.5337998
545,Stratford Avenue,44303,41.0949602,-81.5336478
543,Stratford Avenue,44303,41.0948990,-81.5335037
539,Stratford Avenue,44303,41.0948429,-81.5333916
535,Stratford Avenue,44303,41.0947779,-81.5332678
529,Stratford Avenue,44303,41.0947385,-81.5331340
525,Stratford Avenue,44303,41.0946872,-81.5330321
1391,Vernon Odom Boulevard,44320,41.0646544,-81.5717552
545,Weber Avenue,44303,41.0957385,-81.5329647
557,Weber Avenue,44303,41.0959146,-81.5331736
196,Aqueduct Street,44303,41.0961421,-81.5332631
210,Aqueduct Street,44303,41.0963645,-81.5333137
216,Aqueduct Street,44303,41.0965037,-81.5334440
222,Aqueduct Street,44303,41.0966102,-81.5335573
230,Aqueduct Street,44303,41.0967541,-81.5337104
569,Weber Avenue,44303,41.0961078,-81.5336593
575,Weber Avenue,44303,41.0961912,-81.5338128
579,Weber Avenue,44303,41.0962354,-81.5339960
583,Weber Avenue,44303,41.0963728,-81.5342007
21,Merriman Road,44303,41.0937446,-81.5355483
22,Mount View Avenue,44303,41.0938967,-81.5354829
24,Mount View Avenue,44303,41.0939759,-81.5353884
28,Mount View Avenue,44303,41.0940880,-81.5353319
32,Mount View Avenue,44303,41.0941783,-81.5352636
40,Mount View Avenue,44303,41.0943626,-81.5351419
46,Mount View Avenue,44303,41.0945126,-81.5350162
52,Mount View Avenue,44303,41.0946524,-81.5348989
58,Mount View Avenue,44303,41.0947961,-81.5348041
64,Mount View Avenue,44303,41.0949504,-81.5347130
68,Mount View Avenue,44303,41.0950711,-81.5345996
72,Mount View Avenue,44303,41.0951871,-81.5345176
76,Mount View Avenue,44303,41.0952875,-81.5344422
80,Mount View Avenue,44303,41.0953950,-81.5343944
86,Mount View Avenue,44303,41.0955194,-81.5343050
90,Mount View Avenue,44303,41.0956171,-81.5342070
94,Mount View Avenue,44303,41.0957214,-81.5341394
98,Mount View Avenue,44303,41.0958098,-81.5340902
102,Mount View Avenue,44303,41.0959026,-81.5340012
590,Weber Avenue,44303,41.0959821,-81.5345289
89,Charlotte Street,44303,41.0958551,-81.5346446
83,Charlotte Street,44303,41.0956999,-81.5347958
79,Charlotte Street,44303,41.0955742,-81.5348596
73,Charlotte Street,44303,41.0954236,-81.5349645
67,Charlotte Street,44303,41.0952934,-81.5350916
61,Charlotte Street,44303,41.0951383,-81.5351539
57,Charlotte Street,44303,41.0949895,-81.5352877
49,Charlotte Street,44303,41.0948470,-81.5353866
41,Charlotte Street,44303,41.0946728,-81.5354932
23,Charlotte Street,44303,41.0942769,-81.5358542
35,Merriman Road,44303,41.0940949,-81.5357552
29,Merriman Road,44303,41.0940437,-81.5355959
14,Stewart Way,44303,41.0924215,-81.5323367
451,West Market Street,44303,41.0919041,-81.5319301
572,West Market Street,44303,41.0927006,-81.5361854
578,West Market Street,44303,41.0931510,-81.5362558
582,West Market Street,44303,41.0932241,-81.5364245
594,West Market Street,44303,41.0933926,-81.5365806
17,Rhodes Avenue,44302,41.0930974,-81.5368228
23,Rhodes Avenue,44302,41.0929034,-81.5368515
473,Fairfield Avenue,44303,41.0930178,-81.5319566
264,South Arlington Street,44306,41.0647622,-81.4936323
890,Copley Road,44320,41.0846294,-81.5542696
2460,Akron-Peninsula Road,44313,41.1564773,-81.5687602
2092,Theiss Road,44313,41.1509470,-81.5504898
361,West North Street,44303,41.0912634,-81.5292827
342,Silver Street,44303,41.0928915,-81.5285506
334,Silver Street,44303,41.0929052,-81.5282198
330,Silver Street,44303,41.0929158,-81.5280545
1600,Triplett Boulevard,44306,41.0361994,-81.4678885
2092,Theiss Road,44313,41.1536328,-81.5547722
73,North Valley Street,44303,41.0924694,-81.5286552
90,Nickel Street,44303,41.0929268,-81.5278451
82,Nickel Street,44303,41.0926979,-81.5279155
78,Nickel Street,44303,41.0925802,-81.5278948
74,Nickel Street,44303,41.0924521,-81.5278328
341,Gold Street,44303,41.0924818,-81.5284009
63,North Valley Street,44303,41.0922179,-81.5286373
338,Gold Street,44303,41.0921721,-81.5282991
336,Gold Street,44303,41.0921582,-81.5281006
330,Gold Street,44303,41.0921872,-81.5279346
324,Gold Street,44303,41.0922197,-81.5277673
49,North Valley Street,44303,41.0918789,-81.5286493
47,North Valley Street,44303,41.0917059,-81.5286931
43,North Valley Street,44303,41.0916177,-81.5286987
35,North Valley Street,44303,41.0914260,-81.5287081
337,West North Street,44303,41.0911858,-81.5286440
335,West North Street,44303,41.0911773,-81.5284064
327,West North Street,44303,41.0912340,-81.5280668
313,West North Street,44303,41.0913930,-81.5275185
272,South High Street,44308,41.0780023,-81.5198390
1,Perkins Square,44308,41.0792611,-81.5253274
414,East Exchange Street,44304,41.0709231,-81.5088280
975,Treaty Line Road,44313,41.1286745,-81.5425692
714,North Portage Path,44303,41.1195542,-81.5503030
900,Derby Downs,44306,41.0372037,-81.4616601
1000,Derby Downs,44306,41.0362504,-81.4618956
1,Akron General Avenue,44307,41.0783919,-81.5318896
55,Furnace Street,44308,41.0884706,-81.5144236
100,North High Street,44308,41.0874500,-81.5148735
27,Ridge Street,44308,41.0894855,-81.5149354
1615,South Arlington Street,44306,41.0285657,-81.4906032
1000,East Waterloo Road,44306,41.0291185,-81.4910416
1060,East Waterloo Road,44306,41.0290547,-81.4896242
946,East Waterloo Road,44306,41.0291554,-81.4928658
980,East Waterloo Road,44306,41.0292847,-81.4919142
60,Goodyear Boulevard,44305,41.0666469,-81.4812701
941,East Waterloo Road,44306,41.0299417,-81.4932036
951,East Waterloo Road,44306,41.0301743,-81.4928438
1520,South Arlington Street,44306,41.0304243,-81.4919765
1529,South Arlington Street,44306,41.0302473,-81.4911222
1521,South Arlington Street,44306,41.0306337,-81.4909049
1506,South Arlington Street,44306,41.0308948,-81.4918706
937,East Waterloo Road,44306,41.0308025,-81.4944006
1600,South Arlington Street,44306,41.0282368,-81.4928375
243,West North Street,44303,41.0912603,-81.5250584
239,West North Street,44303,41.0912667,-81.5249020
227,West North Street,44303,41.0912903,-81.5245169
65,Nickel Street,44303,41.0922871,-81.5273516
89,Nickel Street,44303,41.0929302,-81.5274639
85,Nickel Street,44303,41.0928066,-81.5274639
308,Silver Street,44303,41.0928482,-81.5271713
294,Silver Street,44303,41.0928570,-81.5266222
288,Silver Street,44303,41.0928143,-81.5264382
276,Silver Street,44303,41.0928069,-81.5259941
343,West Market Street,44303,41.0904126,-81.5285602
331,West Market Street,44303,41.0904435,-81.5279379
294,West North Street,44303,41.0905919,-81.5271943
30,West Street,44303,41.0899802,-81.5253594
36;32,West Street,44303,41.0901056,-81.5252562
46,West Street,44303,41.0903535,-81.5252349
2370,Manchester Road,44314,41.0335830,-81.5464424
1222,West Waterloo Road,44314,41.0309537,-81.5699329
2081,9th Street Southwest,44314,41.0469533,-81.5526383
2140,13th Street Southwest,44314,41.0457820,-81.5588878
1999,East Avenue,44314,41.0493661,-81.5676270
2324,Manchester Road,44314,41.0354656,-81.5479954
2360,Manchester Road,44314,41.0342938,-81.5459394
2380,Manchester Road,44314,41.0340844,-81.5457531
860,Ardmore Avenue,44302,41.0954517,-81.5494345
821,Brittain Road,44305-1340,41.0850123,-81.4662730
1990,Buchholzer Boulevard,44310,41.1165788,-81.4729716
1210,Independence Avenue,44310,41.1099205,-81.4713733
1662,Brittain Road,44310,41.1080888,-81.4667084
1620,Brittain Road,44310,41.1069385,-81.4674180
2168,Romig Road,44320,41.0551683,-81.5813655
1035,Old South Main Street,44311,41.0585606,-81.5285463
70,Howard Street,44308,41.0874319,-81.5173472
41,Furnace Street,44308,41.0888011,-81.5150565
106,North Main Street,44308,41.0881081,-81.5159070
109,Howard Street,44308,41.0882645,-81.5163084
111,Howard Street,44308,41.0883205,-81.5162878
113,Howard Street,44308,41.0883741,-81.5162645
115,Howard Street,44308,41.0884279,-81.5162413
117,Howard Street,44308,41.0884831,-81.5162174
119,Furnace Street,44308,41.0885377,-81.5161939
121,Howard Street,44308,41.0885916,-81.5161705
43,South Bates Street,44303,41.0865395,-81.5214273
23,Christie Street,44303,41.0863083,-81.5216964
44,South Bates Street,44303,41.0862067,-81.5215316
50,South Bates Street,44303,41.0861477,-81.5214314
28,Christie Street,44303,41.0863553,-81.5219942
26,Christie Street,44303,41.0864562,-81.5219858
15,South Walnut Street,44303,41.0870790,-81.5223422
21,South Walnut Street,44303,41.0868797,-81.5222878
37,South Walnut Street,44303,41.0865575,-81.5225310
41,South Walnut Street,44303,41.0864459,-81.5225445
45,South Walnut Street,44303,41.0863019,-81.5226117
51,South Walnut Street,44303,41.0861394,-81.5227196
57,South Walnut Street,44303,41.0860260,-81.5227802
17,South Maple Street,44303,41.0872829,-81.5232331
444,North Main Street,44308,41.0969630,-81.5138741
525,East Market Street,44304,41.0807227,-81.4996651
159,Walnut Terrace,44303,41.0863768,-81.5233791
160,Walnut Terrace,44303,41.0862327,-81.5235656
107,Botzum Court,44303,41.0861447,-81.5236893
62,South Walnut Street,44303,41.0860522,-81.5233863
113,Botzum Court,44303,41.0860331,-81.5237347
61,South Maple Street,44303,41.0863856,-81.5241302
67,South Maple Street,44303,41.0862106,-81.5243845
69,South Maple Street,44303,41.0860684,-81.5243607
71,South Maple Street,44303,41.0860654,-81.5247143
73,South Maple Street,44303,41.0862574,-81.5247959
75,South Maple Street,44303,41.0862234,-81.5249718
83,South Maple Street,44303,41.0862143,-81.5252833
79,South Maple Street,44303,41.0858954,-81.5249468
90,Oviatt Place,44303,41.0859078,-81.5252515
89,South Maple Street,44303,41.0862150,-81.5254334
95,South Maple Street,44303,41.0861787,-81.5256385
119,South Maple Street,44303,41.0860489,-81.5264525
215,Glendale Avenue,44303,41.0858559,-81.5262614
209,Glendale Avenue,44303,41.0858155,-81.5261175
205,Glendale Avenue,44303,41.0858054,-81.5260080
130,Oviatt Place,44303,41.0859149,-81.5259512
106,Oviatt Place,44303,41.0857934,-81.5257902
98,Oviatt Place,44303,41.0858291,-81.5255257
185,Glendale Avenue,44303,41.0855523,-81.5253303
173,Glendale Avenue,44303,41.0855657,-81.5251612
169,Glendale Avenue,44303,41.0855762,-81.5250203
161,Glendale Avenue,44303,41.0856905,-81.5247708
125,Locust Street,44302,41.0841102,-81.5247904
159,Oak Park Drive,44302,41.0840814,-81.5243765
165,Oak Park Drive,44302,41.0838701,-81.5244034
171,Oak Park Drive,44302,41.0837718,-81.5244016
175,Oak Park Drive,44302,41.0835758,-81.5243393
139,Wills Avenue,44302,41.0834537,-81.5246741
1,North Hawkins Avenue,44313,41.1100101,-81.5686587
146,King Drive,44302,41.0842114,-81.5226456
103,Dawes Avenue,44302,41.0837392,-81.5230811
107,Dawes Avenue,44302,41.0838523,-81.5231336
111,Dawes Avenue,44302,41.0839779,-81.5231083
115,Dawes Avenue,44302,41.0840798,-81.5231384
119,Dawes Avenue,44302,41.0841818,-81.5230983
127,Dawes Avenue,44302,41.0843638,-81.5230095
117,Oak Park Drive,44302,41.0846653,-81.5230142
129,Oak Park Drive,44302,41.0847263,-81.5235351
149,Oak Park Drive,44302,41.0844185,-81.5242487
158,Oak Park Drive,44302,41.0841357,-81.5240223
154,Oak Park Drive,44302,41.0842403,-81.5240200
130,Dawes Avenue,44302,41.0844497,-81.5235245
124,Dawes Avenue,44302,41.0843292,-81.5235899
122,Dawes Avenue,44302,41.0842141,-81.5235871
104,Dawes Avenue,44302,41.0837030,-81.5235687
107,Wills Avenue,44302,41.0836040,-81.5235866
1711,West Market Street,44313,41.1102879,-81.5702224
46,North Hawkins Avenue,44313,41.1111047,-81.5695720
34,North Hawkins Avenue,44313,41.1106824,-81.5695841
1745,West Market Street,44313,41.1110125,-81.5713323
211,West Market Street,44303,41.0887342,-81.5242298
197,Smith Street,44303,41.0893251,-81.5231619
192,Division Street,44303,41.0899526,-81.5225287
156,West North Street,44303,41.0908718,-81.5215711
50,South Maple Street,44303,41.0870805,-81.5244465
210,West Market Street,44303,41.0880966,-81.5246360
207,Myrtle Place,44303,41.0877611,-81.5247488
200,West Market Street,44303,41.0880308,-81.5241901
701,East Market Street,44305,41.0764550,-81.4952313
730,East Market Street,44305,41.0755869,-81.4951148
1809,Triplett Boulevard,44312,41.0436520,-81.4622791
1675,Merriman Road,44313,41.1342023,-81.5501873
1121,Exeter Road,44306,41.0301720,-81.4884799
119,West Waterloo Road,44301,41.0290890,-81.5313390
205,East Crosier Street,44311,41.0603833,-81.5210415
310,East South Street,44301,41.0615290,-81.5162036
1040,Copley,44320,41.0862406,-81.5601722
1225,Lawton Street,44320,41.0818132,-81.5650149
415,Storer Avenue,44320,41.0909724,-81.5558262
354,S Maple Street;S Maple,44302,41.0852305,-81.5348767
315,South Maple Street,44302,41.0846094,-81.5334629
394,W Exchange St;West Exchange Street,44302,41.0827886,-81.5338766
480,West Exchange Street,44302,41.0844780,-81.5360207
550,Copley Road,44320,41.0853025,-81.5416151
853,Copley Road,44320,41.0839623,-81.5527090
550,Copley Road,44320,41.0840502,-81.5424559
670,W Exchange Street;West Exchange Street,44302,41.0881106,-81.5419473
98,Dodge Avenue,44302,41.0931605,-81.5431063
530,Nome Avenue,44320,41.0951093,-81.5717437
464,South Hawkins Avenue,44320,41.0968080,-81.5701561
1765,West Market Street,44313,41.1112471,-81.5718434
435,North Firestone Boulevard,44301,41.0456731,-81.5117503
381,West Wilbeth Road,44301,41.0409882,-81.5381740
2065,Manchester Road,44314,41.0440139,-81.5444059
1150,Damar Drive,44305,41.0953339,-81.4787295
805,Memorial Parkway,44303,41.1062441,-81.5411651
805,Memorial Parkway,44303,41.1061603,-81.5410938
989,North Portage Path,44313,41.1242345,-81.5482430
1720,Shatto Avenue,44313,41.1159448,-81.5745150
1730,Shatto Avenue,44313,41.1158574,-81.5748969
260,Greenwood Avenue,44313,41.1000619,-81.5669654
1501,Sand Run Parkway,44313,41.1392974,-81.5646995
1040,Copley Road,44320,41.0861986,-81.5601623
891,East Exchange Street,44306,41.0713992,-81.4917644
656,West Market Street,44303,41.0941686,-81.5387014
670,West Market Street,44303,41.0942623,-81.5392535
682,West Market Street,44303,41.0945366,-81.5395232
686,West Market Street,44303,41.0945669,-81.5398042
670,Treeside Drive,44313,41.1276300,-81.5679370
37,North Broadway Street,44308,41.0854146,-81.5136839
44,University Avenue,44325,41.0787826,-81.5187519
2665,Manchester Road,44319,41.0262487,-81.5473245
2488,Romig Road,44320,41.0468166,-81.5817228
2272,Romig Road,44320,41.0528717,-81.5814912
2330,Romig Road,44320,41.0510659,-81.5840200
2345,Romig Road,44320,41.0506172,-81.5800766
2279,Romig Road,44320,41.0527417,-81.5793925
123,South Forge Street,44308,41.0790796,-81.5102470
10,Chapel Hill Mall,44310,41.1113633,-81.4705038
600,Chapel Hill Mall,44310,41.1152757,-81.4709094
750,White Pond Drive,44320,41.0969698,-81.5899287
1150,West Market Street,44313,41.1009978,-81.5548254
2000,Brittain Road,44310,41.1139043,-81.4688004
300,Locust Street,44308,41.0801267,-81.5259922
1307,East Market Street,44305,41.0649778,-81.4800536
1900,East Avenue,44314,41.0517230,-81.5665777
263,East Mill Street,44308,41.0805062,-81.5099240
33,Conger Avenue,44303,41.0977337,-81.5437071
37,Conger Avenue,44303,41.0978644,-81.5436089
41,Conger Avenue,44303,41.0979837,-81.5435279
47,Conger Avenue,44303,41.0980895,-81.5434295
76,Edgerton Road,44303,41.0982342,-81.5432792
80,Edgerton Road,44303,41.0983128,-81.5430491
25,North Highland Avenue,44303,41.0971312,-81.5427833
27,North Highland Avenue,44303,41.0972117,-81.5427274
33,North Highland Avenue,44303,41.0973098,-81.5426624
36,North Highland Avenue,44303,41.0975299,-81.5430957
40,North Highland Avenue,44303,41.0976601,-81.5429999
44,North Highland Avenue,44303,41.0977814,-81.5429094
82,North Highland Avenue,44303,41.0984414,-81.5427673
62,North Highland Avenue,44303,41.0982932,-81.5426583
58,North Highland Avenue,44303,41.0981298,-81.5426196
56,North Highland Avenue,44303,41.0980102,-81.5427562
46,North Highland Avenue,44303,41.0978924,-81.5428083
834,West Market Street,44303,41.0964668,-81.5446152
55,South Portage Path,44303,41.0953859,-81.5444362
820,West Market Street,44303,41.0965039,-81.5439439
861,West Market Street,44303,41.0964666,-81.5438886
12-14,South Highland Avenue,44303,41.0960612,-81.5435964
798,West Market Street,44303,41.0960041,-81.5431947
792,West Market Street,44303,41.0960352,-81.5429410
780,West Market Street,44303,41.0958942,-81.5425848
230,West Market Street,44303,41.0885875,-81.5251349
222,West Market Street,44303,41.0884896,-81.5248498
19,Ambrose Court,44303,41.0883103,-81.5255365
25,Ambrose Court,44303,41.0881188,-81.5256853
35,Ambrose Court,44303,41.0880222,-81.5257607
444,West Exchange Street,44302,41.0836913,-81.5350828
424,West Exchange Street,44302,41.0833163,-81.5346068
406,West Exchange Street,44302,41.0829953,-81.5341005
348,Bonnie Brae Avenue,44302,41.0827700,-81.5344308
445,West Cedar Street,44302,41.0831696,-81.5353029
437,West Cedar Street,44302,41.0828225,-81.5350203
1690,Hillside Terrace,44305,41.0732454,-81.4643353
436,Crosby Street,44303,41.0894190,-81.5328694
190,North Union Street,44304,41.0862501,-81.5049548
1562,Akron Peninsula Road,44313,41.1377535,-81.5477327
37,Byers Avenue,44302,41.0938142,-81.5400714
117,Western Avenue,44313,41.1154640,-81.5763429
637,Canton Road,44312,41.0464267,-81.4367050
470,North Arlington Street,44305,41.0846822,-81.4928933
75,Arch Street,44304,41.0804749,-81.4994037
17,Manor Road,44313,41.1109291,-81.5735399
1796,West Market Street,44313,41.1109455,-81.5733603
1790,West Market Street,44313,41.1108294,-81.5731853
1784,West Market Street,44313,41.1107688,-81.5729602
1772,West Market Street,44313,41.1106073,-81.5725571
947,East Market Street,44305,41.0704432,-81.4889070
37,North Highland Avenue,44303,41.0974448,-81.5425747
41,North Highland Avenue,44303,41.0975594,-81.5424757
45,North Highland Avenue,44303,41.0976718,-81.5424022
51,North Highland Avenue,44303,41.0978039,-81.5422914
57,North Highland Avenue,44303,41.0979330,-81.5422112
59,North Highland Avenue,44303,41.0980381,-81.5421308
69,North Highland Avenue,44303,41.0981580,-81.5420378
71,North Highland Avenue,44303,41.0982893,-81.5419791
77,North Highland Avenue,44303,41.0984088,-81.5418874
85,North Highland Avenue,44303,41.0985860,-81.5417445
122,Edgerton Road,44303,41.0987256,-81.5415732
132,Edgerton Road,44303,41.0987690,-81.5414241
136,Edgerton Road,44303,41.0987929,-81.5412586
140,Edgerton Road,44303,41.0988560,-81.5411077
750,West Market Street,44303,41.0954402,-81.5415451
24-26,Dodge Avenue,44302,41.0949773,-81.5416659
28,Dodge Avenue,44302,41.0948713,-81.5417686
34,Dodge Avenue,44302,41.0947498,-81.5418586
38,Dodge Avenue,44302,41.0946298,-81.5419527
42,Dodge Avenue,44302,41.0945138,-81.5420533
48-50,Dodge Avenue,44302,41.0943971,-81.5421281
54,Dodge Avenue,44302,41.0942696,-81.5422076
58,Dodge Avenue,44302,41.0941508,-81.5423110
62,Dodge Avenue,44302,41.0940346,-81.5423916
68,Dodge Avenue,44302,41.0939165,-81.5424847
72,Dodge Avenue,44302,41.0937777,-81.5425755
76,Dodge Avenue,44302,41.0936695,-81.5426548
82,Dodge Avenue,44302,41.0935461,-81.5427532
88,Dodge Avenue,44302,41.0934380,-81.5428440
96,Dodge Avenue,44302,41.0932902,-81.5429226
714,West Market Street,44303,41.0948623,-81.5403873
730,West Market Street,44303,41.0950574,-81.5409569
29,Dodge Avenue,44302,41.0946582,-81.5412448
622,South Avenue,44278,41.0848406,-81.4438040
1349,East Tallmadge Avenue,44310,41.1024599,-81.4659544
17,South Highland Avenue,44303,41.0958252,-81.5433060
21,South Highland Avenue,44303,41.0956536,-81.5432675
23-25,South Highland Avenue,44303,41.0955625,-81.5434686
37,South Highland Avenue,44303,41.0954031,-81.5434895
73,South Highland Avenue,44303,41.0944924,-81.5442169
103,South Portage Path,44303,41.0943245,-81.5441857
71,South Highland Avenue,44303,41.0946257,-81.5441890
61,South Highland Avenue,44303,41.0947374,-81.5440855
59,South Highland Avenue,44303,41.0948525,-81.5439885
45,South Highland Avenue,44303,41.0952164,-81.5437453
47,South Highland Avenue,44303,41.0950998,-81.5438321
53,South Highland Avenue,44303,41.0949491,-81.5438841
105-107,South Portage Path,44303,41.0941380,-81.5441248
129,South Portage Path,44303,41.0939876,-81.5440977
82,Grand Avenue,44303,41.0939903,-81.5438274
24,Grand Avenue,44303,41.0954342,-81.5427763
28,Grand Avenue,44303,41.0953022,-81.5428479
34,Grand Avenue,44303,41.0951976,-81.5429423
1034,Brown Street,44301,41.0534186,-81.5105143
42,Grand Avenue,44303,41.0949476,-81.5431307
48,Grand Avenue,44303,41.0948304,-81.5432057
52,Grand Avenue,44303,41.0947312,-81.5432874
58,Grand Avenue,44303,41.0945957,-81.5433760
64,Grand Avenue,44303,41.0944765,-81.5434604
68,Grand Avenue,44303,41.0943531,-81.5435567
74,Grand Avenue,44303,41.0942444,-81.5436595
78,Grand Avenue,44303,41.0940959,-81.5437509
133,Dodge Avenue,44302,41.0921016,-81.5432102
161,South Portage Path,44302,41.0928005,-81.5435567
151,South Portage Path,44302,41.0932029,-81.5437231
105,Grand Avenue,44302,41.0933447,-81.5437539
99,Grand Avenue,44303,41.0934503,-81.5436583
116,Dodge Avenue,44302,41.0927139,-81.5433134
112,Dodge Avenue,44302,41.0928145,-81.5432393
108,Dodge Avenue,44302,41.0929490,-81.5431809
65,Byers Avenue,44302,41.0933966,-81.5403829
691,Payne Avenue,44302,41.0928290,-81.5411268
42,Beck Avenue,44302,41.0933992,-81.5392538
46,Beck Avenue,44302,41.0932760,-81.5393724
56,Beck Avenue,44302,41.0930352,-81.5395177
62,Beck Avenue,44302,41.0929190,-81.5396148
86,Beck Avenue,44302,41.0923529,-81.5400463
80,Beck Avenue,44302,41.0924883,-81.5399266
72-74,Beck Avenue,44302,41.0926453,-81.5398268
301,South Broadway Street,44308,41.0767064,-81.5185029
1305,East Tallmadge Avenue,44310,41.1023292,-81.4678393
1293,South Main Street,44301,41.0517133,-81.5260181
1267,South Main Street,44301,41.0525145,-81.5268329
1295,Curtis Street,44301,41.0516123,-81.5235712
200,Cole Avenue,44301,41.0505552,-81.5214705
1300,Atwood Avenue,44301,41.0473337,-81.5156094
935,Hammel Street,44306,41.0522335,-81.5018896
627,West Market Street,44303,41.0944569,-81.5372766
1886,Buchholzer Boulevard,44310,41.1137852,-81.4731111
2400,Romig Road,44320,41.0482144,-81.5853389
2520,Romig Road,44320,41.0457214,-81.5818765
2530,Romig Road,44320,41.0455239,-81.5819036
2546,Romig Road,44320,41.0452142,-81.5818813
1681,Home Avenue,44310,41.1165552,-81.4846375
1677,Home Avenue,44310,41.1156655,-81.4820532
230,Howe Avenue,44221,41.1172838,-81.4833987
278,Howe Avenue,44221,41.1171954,-81.4825439
330,Howe Avenue,44221,41.1170978,-81.4821400
370,Howe Avenue,44221,41.1169517,-81.4809829
430,Howe Avenue,44221,41.1167748,-81.4797307
470,Howe Avenue,44221,41.1166956,-81.4782687
490,Howe Avenue,44221,41.1167932,-81.4777784
498,Howe Avenue,44221,41.1165147,-81.4769560
510,Howe Avenue,44221,41.1168339,-81.4756549
1684,Home Avenue,44310,41.1168829,-81.4856882
1120,Main Street,44221,41.1176463,-81.4857504
2500,Romig Road,44320,41.0458005,-81.5826096
2000,South Hawkins Avenue,44314,41.0531514,-81.5733568
2409,Romig Road,44320,41.0489920,-81.5802788
2329,Romig Road,44320,41.0512064,-81.5800915
2301,Romig Road,44320,41.0519301,-81.5787726
2337,Romig Road,44320,41.0508111,-81.5787404
2419,Romig Road,44320,41.0484246,-81.5802362
2421,Romig Road,44320,41.0482272,-81.5792608
2455,Romig Road,44320,41.0475554,-81.5802841
2465,Romig Road,44320,41.0472257,-81.5802841
2481,Romig Road,44320,41.0468916,-81.5803103
2493,Romig Road,44320,41.0465186,-81.5795951
2511,Romig Road,44320,41.0460479,-81.5803960
2529,Romig Road,44320,41.0456619,-81.5801027
2551,Romig Road,44320,41.0450032,-81.5806204
2213,Romig Road,44320,41.0541584,-81.5798593
2193,Romig Road,44320,41.0555409,-81.5801722
2185,Romig Road,44320,41.0558168,-81.5797720
2171,Romig Road,44320,41.0563871,-81.5802854
2170,Romig Road,44320,41.0555495,-81.5824679
2166,Romig Road,44320,41.0560134,-81.5825255
2100,Romig Road,44320,41.0563118,-81.5826319
2330,East Avenue,44314,41.0405207,-81.5752193
734,Grant Street,44311,41.0632162,-81.5185648
825,East Buchtel Avenue,44305,41.0769655,-81.4918732
833,Carroll Street,44305,41.0758946,-81.4926221
48,West Bowery Street,44308,41.0818555,-81.5210048
1600,West Market Street,44313,41.1082916,-81.5672731
115,Massillon Road,44312,41.0587177,-81.4622624
175,West Market Street,44303,41.0881566,-81.5229647
361,Crosby Street,44303,41.0895346,-81.5299193
367,Crosby Street,44303,41.0893703,-81.5302212
45,Richmond Place,44303,41.0895085,-81.5301616
41,Richmond Place,44303,41.0896196,-81.5301417
37,Richmond Place,44303,41.0897201,-81.5300420
33,Richmond Place,44303,41.0898056,-81.5299955
48,Richmond Place,44303,41.0895594,-81.5304673
377,Crosby Street,44303,41.0894032,-81.5306221
381,Crosby Street,44303,41.0893594,-81.5308002
60,South Maple Street,44303,41.0867428,-81.5248015
198,Crosby Street,44303,41.0868592,-81.5250334
202,Crosby Street,44303,41.0869060,-81.5251591
212,Crosby Street,44303,41.0868771,-81.5255998
222,Crosby Street,44303,41.0871768,-81.5257993
240,Crosby Street,44303,41.0873146,-81.5263296
244,Crosby Street,44303,41.0874701,-81.5265467
250,Crosby Street,44303,41.0875615,-81.5267114
256,Crosby Street,44303,41.0876175,-81.5268681
260,Crosby Street,44303,41.0876933,-81.5270573
268,Crosby Street,44303,41.0877824,-81.5272447
278,Crosby Street,44303,41.0878834,-81.5274835
280,Crosby Street,44303,41.0879554,-81.5276794
284,Crosby Street,44303,41.0880224,-81.5278996
75,Bittman Street,44303,41.0876664,-81.5279003
70,Bittman Street,44303,41.0875621,-81.5278902
81,Bittman Street,44303,41.0874637,-81.5277843
87,Bittman Street,44303,41.0873400,-81.5278815
91,Bittman Street,44303,41.0872498,-81.5278880
281,Rockwell Court,44303,41.0871366,-81.5276750
283,Rockwell Court,44303,41.0871370,-81.5277205
279,Rockwell Court,44303,41.0871297,-81.5275626
259,Rockwell Court,44303,41.0871611,-81.5268094
101,Bittman Street,44303,41.0869354,-81.5279167
105-109,Bittman Street,44303,41.0867673,-81.5279008
280,Bittman Street,44303,41.0867336,-81.5275777
274,Rockwell Court,44303,41.0868435,-81.5273505
119,Bittman Street,44303,41.0864807,-81.5279781
154-156,South Maple Street,44303,41.0863323,-81.5277592
150-152,South Maple Street,44303,41.0863949,-81.5275976
146,South Maple Street,44303,41.0863439,-81.5274409
140,South Maple Street,44303,41.0863497,-81.5272639
130-132,South Maple Street,44303,41.0864255,-81.5268364
124-126,South Maple Street,44303,41.0864546,-81.5266685
108,South Maple Street,44303,41.0865491,-81.5260913
106-108,Bittman Street,44303,41.0868725,-81.5283618
100,Bittman Street,44303,41.0870046,-81.5283675
84,Bittman Street,44303,41.0874522,-81.5283549
74,Bittman Street,44303,41.0877045,-81.5283378
105,Hall Street,44303,41.0873262,-81.5290624
103,Hall Street,44303,41.0874021,-81.5290680
99,Hall Street,44303,41.0875408,-81.5290590
95,Hall Street,44303,41.0876600,-81.5290117
91,Hall Street,44303,41.0877955,-81.5290289
85,Hall Street,44303,41.0879243,-81.5290236
300,Crosby Street,44303,41.0882070,-81.5283156
306-308,Crosby Street,44303,41.0882804,-81.5284573
310,Crosby Street,44303,41.0883281,-81.5286421
314,Crosby Street,44303,41.0884046,-81.5287450
318,Crosby Street,44303,41.0884504,-81.5288591
320,Crosby Street,44303,41.0884817,-81.5289547
324,Crosby Street,44303,41.0885447,-81.5291231
124,Hall Street,44303,41.0868477,-81.5295886
120,Hall Street,44303,41.0869664,-81.5295816
116,Hall Street,44303,41.0870640,-81.5295910
108,Hall Street,44303,41.0872769,-81.5295832
104,Hall Street,44303,41.0873895,-81.5295936
100,Hall Street,44303,41.0874962,-81.5295870
96,Hall Street,44303,41.0876123,-81.5295832
92,Hall Street,44303,41.0877177,-81.5295778
90,Hall Street,44303,41.0878339,-81.5295952
82,Hall Street,44303,41.0879517,-81.5295719
80,Hall Street,44303,41.0880602,-81.5295613
325,Cloverdale Avenue,44302,41.0869827,-81.5299627
329,Cloverdale Avenue,44302,41.0870122,-81.5300886
333,Cloverdale Avenue,44302,41.0870872,-81.5302013
337,Cloverdale Avenue,44302,41.0871513,-81.5303040
341,Cloverdale Avenue,44302,41.0872260,-81.5304066
345,Cloverdale Avenue,44302,41.0873170,-81.5305206
349,Cloverdale Avenue,44302,41.0874208,-81.5306045
353,Cloverdale Avenue,44302,41.0875020,-81.5306981
357,Cloverdale Avenue,44302,41.0875762,-81.5308082
365,Cloverdale Avenue,44302,41.0876920,-81.5309076
371,Cloverdale Avenue,44302,41.0877951,-81.5310053
346,Crestwood Avenue,44302,41.0878673,-81.5307765
344,Crestwood Avenue,44302,41.0878946,-81.5306254
342,Crestwood Avenue,44302,41.0879455,-81.5305157
334,Crestwood Avenue,44302,41.0879571,-81.5303783
330,Crestwood Avenue,44302,41.0879903,-81.5302434
322,Crestwood Avenue,44302,41.0880035,-81.5300762
136,Hall Street,44303,41.0865378,-81.5295802
140,Hall Street,44303,41.0864055,-81.5295786
144,Hall Street,44303,41.0862814,-81.5295895
150-152,Hall Street,44303,41.0861438,-81.5295378
210,South Maple Street,44302,41.0859370,-81.5297657
216,South Maple Street,44302,41.0859066,-81.5300315
224-226,South Maple Street,44302,41.0858530,-81.5303594
238,South Maple Street,44302,41.0857951,-81.5307333
242-244,South Maple Street,44302,41.0857138,-81.5309613
251,Oakdale Avenue,44302,41.0859623,-81.5309080
245-247,Oakdale Avenue,44302,41.0861147,-81.5310502
237,Oakdale Avenue,44302,41.0862507,-81.5311187
346,Crown Street,44302,41.0863535,-81.5308122
340,Crown Street,44302,41.0863837,-81.5306949
336,Crown Street,44302,41.0864095,-81.5305480
332,Crown Street,44302,41.0864611,-81.5303078
328,Crown Street,44302,41.0864875,-81.5301710
318,Crown Street,44302,41.0865333,-81.5298337
227,Oakdale Avenue,44302,41.0865515,-81.5313261
223,Oakdale Avenue,44302,41.0866803,-81.5314222
217,Oakdale Avenue,44302,41.0867728,-81.5315239
213,Oakdale Avenue,44302,41.0868640,-81.5316280
209,Oakdale Avenue,44302,41.0869520,-81.5317132
205,Oakdale Avenue,44302,41.0870392,-81.5318319
394,Crestwood Avenue,44302,41.0871549,-81.5319308
386-388,Crestwood Avenue,44302,41.0873115,-81.5317276
380-382,Crestwood Avenue,44302,41.0873903,-81.5316238
372-374,Cloverdale Avenue,44302,41.0875511,-81.5314245
364,Cloverdale Avenue,44302,41.0874587,-81.5312840
360,Cloverdale Avenue,44302,41.0873589,-81.5311916
350,Cloverdale Avenue,44302,41.0871849,-81.5310118
346,Cloverdale Avenue,44302,41.0870820,-81.5309069
342,Cloverdale Avenue,44302,41.0869995,-81.5308215
338,Cloverdale Avenue,44302,41.0869292,-81.5307145
334,Cloverdale Avenue,44302,41.0868646,-81.5306256
330,Cloverdale Avenue,44302,41.0867738,-81.5305058
345,Crown Street,44302,41.0867139,-81.5309417
347,Crown Street,44302,41.0866743,-81.5310705
66,Hall Street,44303,41.0884198,-81.5295309
315,Crestwood Avenue,44302,41.0883839,-81.5297084
319,Crestwood Avenue,44302,41.0883828,-81.5298374
325,Crestwood Avenue,44302,41.0883970,-81.5300107
329,Crestwood Avenue,44302,41.0883711,-81.5301823
331,Crestwood Avenue,44302,41.0883644,-81.5303477
333,Crestwood Avenue,44302,41.0883351,-81.5304673
339,Crestwood Avenue,44302,41.0883093,-81.5306176
343,Crestwood Avenue,44302,41.0882761,-81.5307732
347,Crestwood Avenue,44302,41.0882190,-81.5309113
351,Crestwood Avenue,44302,41.0881745,-81.5310748
335,Crestwood Avenue,44302,41.0880857,-81.5312945
393,Cloverdale Avenue,44302,41.0881838,-81.5314228
397,Cloverdale Avenue,44302,41.0882975,-81.5315479
401,Cloverdale Avenue,44302,41.0883841,-81.5316189
406,Woodland Avenue,44302,41.0885770,-81.5318179
402,Woodland Avenue,44302,41.0886879,-81.5316928
402,Crosby Street,44302,41.0889274,-81.5315843
396,Crosby Street,44302,41.0889513,-81.5313766
390,Crosby Street,44302,41.0889356,-81.5311649
384,Crosby Street,44302,41.0889309,-81.5309530
374,Crosby Street,44302,41.0889713,-81.5305566
366,Crosby Street,44302,41.0889796,-81.5303591
356,Crosby Street,44302,41.0889441,-81.5300591
352,Crosby Street,44302,41.0888837,-81.5298868
340,Crosby Street,44303,41.0887149,-81.5295445
84,West Bowery Street,44308,41.0813730,-81.5218100
388,Cloverdale Avenue,44303,41.0878547,-81.5317233
392,Cloverdale Avenue,44303,41.0879443,-81.5318476
396,Cloverdale Avenue,44302,41.0880616,-81.5319081
400,Cloverdale Avenue,44302,41.0881403,-81.5320305
418,Cloverdale Avenue,44302,41.0883513,-81.5321791
422,Woodland Avenue,44302,41.0883080,-81.5323267
430,Woodland Avenue,44302,41.0882338,-81.5326207
147,Oakdale Avenue,44302,41.0881426,-81.5331015
155,Oakdale Avenue,44302,41.0880116,-81.5330158
159,Oakdale Avenue,44302,41.0879034,-81.5329217
163,Oakdale Avenue,44302,41.0878098,-81.5327773
167,Oakdale Avenue,44302,41.0877307,-81.5326328
177,Oakdale Avenue,44302,41.0876379,-81.5325478
179,Oakdale Avenue,44302,41.0875113,-81.5324286
183,Oakdale Avenue,44302,41.0874028,-81.5322465
381,Crestwood Avenue,44302,41.0876136,-81.5320442
379,Crestwood Avenue,44302,41.0876887,-81.5319643
131,Oakdale Avenue,44302,41.0884585,-81.5333198
433,Woodland Avenue,44302,41.0886055,-81.5328641
421,Woodland Avenue,44302,41.0887071,-81.5324794
407,Woodland Avenue,44302,41.0887982,-81.5322709
397,Woodland Avenue,44302,41.0889868,-81.5321537
393,Woodland Avenue,44302,41.0891147,-81.5320593
426,Crosby Street,44302,41.0892381,-81.5324619
430,Crosby Street,44302,41.0892979,-81.5325763
436-438,Crosby Street,44302,41.0893365,-81.5327245
83,Oakdale Avenue,44302,41.0896132,-81.5333278
87,Oakdale Avenue,44302,41.0895012,-81.5333947
93,Oakdale Avenue,44302,41.0893504,-81.5334237
101,Oakdale Avenue,44302,41.0892175,-81.5334855
109,Oakdale Avenue,44302,41.0890516,-81.5334874
115,Oakdale Avenue,44302,41.0889114,-81.5334850
119,Oakdale Avenue,44302,41.0887611,-81.5334654
125,Oakdale Avenue,44302,41.0886105,-81.5334154
69,Oakdale Avenue,44302,41.0898933,-81.5331099
65,Oakdale Avenue,44302,41.0899760,-81.5330216
61,Oakdale Avenue,44302,41.0901207,-81.5329565
55-57,Oakdale Avenue,44302,41.0902241,-81.5328497
51,Oakdale Avenue,44302,41.0903389,-81.5327712
45,Oakdale Avenue,44302,41.0904872,-81.5326726
41,Oakdale Avenue,44302,41.0905948,-81.5325929
35,Oakdale Avenue,44302,41.0907068,-81.5324852
25,Oakdale Avenue,44302,41.0907976,-81.5323021
175,South Balch Street,44302,41.0878922,-81.5343145
181,South Balch Street,44302,41.0877410,-81.5342812
185,South Balch Street,44302,41.0876150,-81.5342445
191,South Balch Street,44302,41.0874869,-81.5342168
195,South Balch Street,44302,41.0873869,-81.5341845
199,South Balch Street,44302,41.0872830,-81.5340982
203,South Balch Street,44302,41.0871581,-81.5340735
209,South Balch Street,44302,41.0869655,-81.5339716
309,Grove Street,44302,41.0869996,-81.5337591
307,Grove Street,44302,41.0869950,-81.5335916
303,Grove Street,44302,41.0869290,-81.5334445
299,Grove Street,44302,41.0868922,-81.5333232
295,Grove Street,44302,41.0868478,-81.5331826
291,Grove Street,44302,41.0867953,-81.5330428
279-281,Grove Street,44302,41.0865582,-81.5328171
421,Crestwood Avenue,44302,41.0866572,-81.5327543
417,Crestwood Avenue,44302,41.0867378,-81.5327129
413,Crestwood Avenue,44302,41.0868358,-81.5326341
194,Oakdale Avenue,44302,41.0870386,-81.5325428
190,Oakdale Avenue,44302,41.0871108,-81.5326836
184,Oakdale Avenue,44302,41.0871759,-81.5328030
176,Oakdale Avenue,44302,41.0872747,-81.5329199
172,Oakdale Avenue,44302,41.0873770,-81.5330638
166,Oakdale Avenue,44302,41.0874650,-81.5332174
160,Oakdale Avenue,44302,41.0876164,-81.5333771
152,Oakdale Avenue,44302,41.0878087,-81.5335547
146,Oakdale Avenue,44302,41.0879671,-81.5337691
212,Oakdale Avenue,44302,41.0867346,-81.5321809
418,Crestwood Avenue,44302,41.0865774,-81.5322452
428,Crestwood Avenue,44302,41.0864531,-81.5322890
436,Crestwood Avenue,44302,41.0862509,-81.5323006
438,Crestwood Avenue,44302,41.0861499,-81.5323039
444,Crestwood Avenue,44302,41.0860470,-81.5322902
446,Crestwood Avenue,44302,41.0859397,-81.5323112
450,Crestwood Avenue,44302,41.0858283,-81.5322818
454,Crestwood Avenue,44302,41.0857191,-81.5322403
458,Crestwood Avenue,44302,41.0856178,-81.5322297
464,Crestwood Avenue,44302,41.0855149,-81.5321874
266,South Maple Street,44302,41.0855997,-81.5318095
260,Oakdale Avenue,44302,41.0856268,-81.5314448
256,Oakdale Avenue,44302,41.0857273,-81.5314566
250,Oakdale Avenue,44302,41.0858461,-81.5315056
246,Oakdale Avenue,44302,41.0859519,-81.5315097
238,Oakdale Avenue,44302,41.0861615,-81.5316222
228,Oakdale Avenue,44302,41.0863463,-81.5317330
224,Oakdale Avenue,44302,41.0864359,-81.5318332
220,Oakdale Avenue,44302,41.0865196,-81.5318960
216,Oakdale Avenue,44302,41.0866098,-81.5319723
223,South Balch Street,44302,41.0866012,-81.5339296
227,South Balch Street,44302,41.0864965,-81.5338960
235,South Balch Street,44302,41.0862568,-81.5338013
243,South Balch Street,44302,41.0860563,-81.5337229
247,South Balch Street,44302,41.0859394,-81.5336893
251,South Balch Street,44302,41.0858317,-81.5336534
255,South Balch Street,44302,41.0857428,-81.5336260
259,South Balch Street,44302,41.0856360,-81.5335699
263,South Balch Street,44302,41.0855284,-81.5335228
267,South Balch Street,44302,41.0854228,-81.5334900
302,South Maple Street,44302,41.0854054,-81.5330905
463,South Maple Street,44302,41.0854151,-81.5326934
453,South Maple Street,44302,41.0856687,-81.5327415
449,Crestwood Avenue,44302,41.0857698,-81.5327667
445,Crestwood Avenue,44302,41.0858887,-81.5327929
441,Crestwood Avenue,44302,41.0859920,-81.5328475
439,Crestwood Avenue,44302,41.0860954,-81.5329170
276-280,Grove Street,44302,41.0861863,-81.5329937
282,Grove Street,44302,41.0862814,-81.5330773
286,Grove Street,44302,41.0863646,-81.5331928
290,Grove Street,44302,41.0864378,-81.5332874
294,Grove Street,44302,41.0865085,-81.5333958
134,Oakdale Avenue,44302,41.0883314,-81.5338845
128,Oakdale Avenue,44302,41.0884999,-81.5339040
124,Oakdale Avenue,44302,41.0886397,-81.5339590
116,Oakdale Avenue,44302,41.0888212,-81.5340331
110,Oakdale Avenue,44302,41.0889872,-81.5340302
104,Oakdale Avenue,44302,41.0891650,-81.5339965
100,Oakdale Avenue,44302,41.0893285,-81.5339773
92,Oakdale Avenue,44302,41.0895000,-81.5339233
82,Oakdale Avenue,44302,41.0898197,-81.5337569
83,South Balch Street,44302,41.0899979,-81.5344552
89,South Balch Street,44302,41.0899076,-81.5345305
93,South Balch Street,44302,41.0897820,-81.5346226
101,South Balch Street,44302,41.0896693,-81.5347230
105,South Balch Street,44302,41.0895579,-81.5347769
117,South Balch Street,44302,41.0894495,-81.5348902
123,South Balch Street,44302,41.0892796,-81.5348870
127,South Balch Street,44302,41.0891652,-81.5348599
131,South Balch Street,44302,41.0890525,-81.5348104
135,South Balch Street,44302,41.0889495,-81.5347632
141,South Balch Street,44302,41.0888617,-81.5347468
145,South Balch Street,44302,41.0887531,-81.5347035
149,South Balch Street,44302,41.0886531,-81.5346656
153,South Balch Street,44302,41.0885343,-81.5346220
157,South Balch Street,44302,41.0884233,-81.5345854
161,South Balch Street,44302,41.0883169,-81.5345449
445,Woodland Avenue,44302,41.0882277,-81.5344645
53-55,South Balch Street,44302,41.0907109,-81.5338888
49,South Balch Street,44302,41.0908417,-81.5338809
45,South Balch Street,44302,41.0909471,-81.5337760
39,South Balch Street,44302,41.0910614,-81.5336832
35,South Balch Street,44302,41.0911937,-81.5335971
29,South Balch Street,44302,41.0913397,-81.5334867
23,South Balch Street,44302,41.0914760,-81.5333497
15,South Balch Street,44302,41.0916557,-81.5333021
11,South Balch Street,44302,41.0917670,-81.5332339
50,Oakdale Avenue,44302,41.0906027,-81.5332286
44,Oakdale Avenue,44302,41.0907451,-81.5331231
38,Oakdale Avenue,44302,41.0908757,-81.5330351
28,Oakdale Avenue,44302,41.0911142,-81.5328522
24,Oakdale Avenue,44302,41.0912230,-81.5327639
18,Oakdale Avenue,44302,41.0913297,-81.5326569
470-472,Woodland Avenue,44302,41.0877350,-81.5352292
466,Woodland Avenue,44302,41.0877721,-81.5350852
176,South Balch Street,44302,41.0877933,-81.5349313
180,South Balch Street,44302,41.0876856,-81.5348632
182,South Balch Street,44302,41.0875795,-81.5348528
194 1/2,South Balch Street,44302,41.0872368,-81.5350124
194,South Balch Street,44302,41.0872904,-81.5347542
210,South Balch Street,44302,41.0869030,-81.5345972
218,South Balch Street,44302,41.0867630,-81.5345449
476,Woodland Avenue,44302,41.0877003,-81.5354412
480,Woodland Avenue,44302,41.0876665,-81.5355931
484,Woodland Avenue,44302,41.0876421,-81.5357149
486,Woodland Avenue,44302,41.0876160,-81.5358410
203,Westwood Avenue,44302,41.0874582,-81.5357210
207,Westwood Avenue,44302,41.0873519,-81.5356836
209-211,Westwood Avenue,44302,41.0872726,-81.5356145
215,Westwood Avenue,44302,41.0871430,-81.5355816
221,Westwood Avenue,44302,41.0870156,-81.5354733
225,Westwood Avenue,44302,41.0868332,-81.5355004
229,Westwood Avenue,44302,41.0867651,-81.5354382
233,Westwood Avenue,44302,41.0866663,-81.5354142
235,Westwood Avenue,44302,41.0865675,-81.5353726
253,Westwood Avenue,44302,41.0861523,-81.5351965
255,Westwood Avenue,44302,41.0860734,-81.5351524
346,South Maple Street,44302,41.0853951,-81.5345535
330,South Maple Street,44302,41.0852727,-81.5340174
268,South Balch Street,44302,41.0853899,-81.5340538
198-200,Westwood Avenue,44302,41.0874762,-81.5361725
202,Westwood Avenue,44302,41.0873705,-81.5361634
206,Westwood Avenue,44302,41.0872856,-81.5361559
210,Westwood Avenue,44302,41.0871832,-81.5361243
212,Westwood Avenue,44302,41.0870956,-81.5360776
218,Westwood Avenue,44302,41.0869595,-81.5360591
224,Westwood Avenue,44302,41.0868272,-81.5359927
226,Westwood Avenue,44302,41.0867265,-81.5359544
234,Westwood Avenue,44302,41.0865502,-81.5358627
238,Westwood Avenue,44302,41.0864443,-81.5358371
240,Westwood Avenue,44302,41.0863603,-81.5357787
246,Westwood Avenue,44302,41.0862611,-81.5357621
373,Westwood Place,44302,41.0861536,-81.5359604
377,Westwood Place,44302,41.0861207,-81.5360821
506,Woodland Avenue,44302,41.0874629,-81.5366087
203,Gale Street,44302,41.0874087,-81.5368081
213,Gale Street,44302,41.0871576,-81.5368079
221,Gale Street,44302,41.0869464,-81.5367963
225,Gale Street,44302,41.0867545,-81.5367994
223,Gale Street,44302,41.0868515,-81.5368082
231,Gale Street,44302,41.0866573,-81.5368246
239,Gale Street,44302,41.0864064,-81.5368089
385,Westwood Place,44302,41.0860677,-81.5363711
387,Westwood Place,44302,41.0861136,-81.5365307
393,Westwood Place,44302,41.0860070,-81.5366066
254,Westwood Avenue,44302,41.0859687,-81.5356558
256,Westwood Avenue,44302,41.0858996,-81.5356239
262,Westwood Avenue,44302,41.0858035,-81.5356079
489,West Exchange Street,44302,41.0850540,-81.5356614
495,West Exchange Stree,44302,41.0851203,-81.5359844
505,West Exchange Street,44302,41.0854035,-81.5361410
515,West Exchange Street,44302,41.0854822,-81.5364412
517-519,West Exchange Street,44302,41.0855502,-81.5365619
701,White Pond Drive,44320,41.0972823,-81.5875074
164,South Balch Street,44302,41.0881066,-81.5350962
160,South Balch Street,44302,41.0882063,-81.5350847
158,South Balch Street,44302,41.0882855,-81.5351150
152,South Balch Street,44302,41.0884134,-81.5352135
146,South Balch Street,44302,41.0885935,-81.5353198
134,South Balch Street,44302,41.0888907,-81.5353737
130-132,South Balch Street,44302,41.0890035,-81.5354395
126,South Balch Street,44302,41.0891011,-81.5354694
122,South Balch Street,44302,41.0892442,-81.5354547
116,South Balch Street,44302,41.0894801,-81.5355162
112,South Balch Street,44302,41.0895752,-81.5354346
108-110,South Balch Street,44302,41.0897149,-81.5353592
102,South Balch Street,44302,41.0897780,-81.5353089
94,South Balch Street,44302,41.0900131,-81.5351293
90,South Balch Street,44302,41.0901099,-81.5350332
506,Crosby Street,44302,41.0903314,-81.5348909
512,Crosby Street,44302,41.0904352,-81.5351365
44-46,South Summit Street,44308,41.0829055,-81.5144187
60,South Summit Street,44308,41.0825240,-81.5145880
1212,Cuyahoga Street,44313,41.1227571,-81.5249424
473,Woodland Avenue,44302,41.0880038,-81.5355741
479,Woodland Avenue,44302,41.0879635,-81.5357413
177,Westwood Avenue,44302,41.0880681,-81.5359615
171-173,Westwood Avenue,44302,41.0882477,-81.5359385
165,Westwood Avenue,44302,41.0884115,-81.5358556
159,Westwood Avenue,44302,41.0885825,-81.5358755
157,Westwood Avenue,44302,41.0886734,-81.5359194
151,Westwood Avenue,44302,41.0888205,-81.5359078
145,Westwood Avenue,44302,41.0889739,-81.5359198
135,Westwood Avenue,44302,41.0891857,-81.5359324
127,Westwood Avenue,44302,41.0894328,-81.5359594
121,Westwood Avenue,44302,41.0895546,-81.5359428
119,Westwood Avenue,44302,41.0896420,-81.5359434
109,Westwood Avenue,44302,41.0897818,-81.5359213
105,Westwood Avenue,44302,41.0899160,-81.5358506
99,Westwood Avenue,44302,41.0900196,-81.5357878
91,Westwood Avenue,44302,41.0902109,-81.5356654
89,Westwood Avenue,44302,41.0903112,-81.5355886
524,Crosby Street,44302,41.0905120,-81.5354852
77-91,Gale Street,44302,41.0907517,-81.5369762
95,Gale Street,44302,41.0903846,-81.5369185
101,Gale Street,44302,41.0902421,-81.5369046
107,Gale Street,44302,41.0900893,-81.5369095
109,Gale Street,44302,41.0899748,-81.5369026
115,Gale Street,44302,41.0898147,-81.5368989
123,Gale Street,44302,41.0896003,-81.5368959
125-127,Gale Street,44302,41.0894884,-81.5369075
133,Gale Street,44302,41.0893423,-81.5367016
139,Gale Street,44302,41.0891736,-81.5369075
143,Gale Street,44302,41.0890347,-81.5369192
147,Gale Street,44302,41.0889266,-81.5369030
151,Gale Street,44302,41.0888055,-81.5368919
155,Gale Street,44302,41.0887004,-81.5368911
159,Gale Street,44302,41.0885903,-81.5368789
165,Gale Street,44302,41.0884524,-81.5368955
169,Gale Street,44302,41.0883132,-81.5369016
175,Gale Street,44302,41.0881772,-81.5368938
179,Gale Street,44302,41.0880637,-81.5369024
183,Gale Street,44302,41.0879763,-81.5368835
187,Gale Street,44302,41.0878619,-81.5368783
191,Gale Street,44302,41.0877448,-81.5368769
182,Westwood Avenue,44302,41.0879482,-81.5363578
178,Westwood Avenue,44302,41.0880548,-81.5363658
174-176,Westwood Avenue,44302,41.0881605,-81.5364232
170,Westwood Avenue,44302,41.0882639,-81.5364085
168,Westwood Avenue,44302,41.0883620,-81.5364345
162-164,Westwood Avenue,44302,41.0884373,-81.5364015
160,Westwood Avenue,44302,41.0885300,-81.5364168
156,Westwood Avenue,44302,41.0886875,-81.5363835
150,Westwood Avenue,44302,41.0888017,-81.5363823
142,Westwood Avenue,44302,41.0890203,-81.5364089
138,Westwood Avenue,44302,41.0891326,-81.5363839
136,Westwood Avenue,44302,41.0892295,-81.5364146
132,Westwood Avenue,44302,41.0893172,-81.5364338
126,Westwood Avenue,44302,41.0894593,-81.5364103
124,Westwood Avenue,44302,41.0895575,-81.5364112
120,Westwood Avenue,44302,41.0897396,-81.5364146
112,Westwood Avenue,44302,41.0899589,-81.5363335
108,Westwood Avenue,44302,41.0900987,-81.5362578
98,Westwood Avenue,44302,41.0902437,-81.5361462
532,Crosby Street,44302,41.0906380,-81.5358329
540,Crosby Street,44302,41.0907122,-81.5359921
548,Crosby Street,44302,41.0908062,-81.5361951
554,Crosby Street,44302,41.0907710,-81.5364141
560,Crosby Street,44302,41.0907929,-81.5366204
566,Crosby Street,44302,41.0907723,-81.5367978
588,Crosby Street,44302,41.0907391,-81.5375543
594,Crosby Street,44302,41.0907414,-81.5377989
598,Crosby Street,44302,41.0907325,-81.5379789
606,Crosby Street,44302,41.0907433,-81.5381977
610,Crosby Street,44302,41.0907519,-81.5383897
121,Rhodes Avenue,44302,41.0905652,-81.5383883
595,Colfax Place,44302,41.0904730,-81.5378144
585-587,Colfax Place,44302,41.0905017,-81.5375043
90,Gale Street,44302,41.0904940,-81.5373276
86,Gale Street,44302,41.0906008,-81.5373310
96,Gale Street,44302,41.0903108,-81.5373796
586,Colfax Place,44302,41.0903226,-81.5377682
106,Gale Street,44302,41.0900529,-81.5373570
112,Gale Street,44302,41.0898971,-81.5374580
118,Gale Street,44302,41.0897747,-81.5373852
124,Gale Street,44302,41.0896266,-81.5373590
128,Gale Street,44302,41.0894797,-81.5373609
132,Gale Street,44302,41.0893492,-81.5373619
136,Gale Street,44302,41.0892285,-81.5373636
140,Gale Street,44302,41.0890771,-81.5373645
152,Gale Street,44302,41.0887925,-81.5373602
158,Gale Street,44302,41.0886634,-81.5373337
164-166,Gale Street,44302,41.0885378,-81.5377145
162,Gale Street,44302,41.0885380,-81.5373157
168,Gale Street,44302,41.0883858,-81.5373583
172,Gale Street,44302,41.0882608,-81.5373459
178,Gale Street,44302,41.0881128,-81.5373570
184,Gale Street,44302,41.0879898,-81.5373449
598,Colfax Place,44302,41.0902965,-81.5380493
135,Rhodes Avenue,44302,41.0903215,-81.5383781
141,Rhodes Avenue,44302,41.0901729,-81.5383350
149,Rhodes Avenue,44302,41.0899007,-81.5383149
155,Rhodes Avenue,44302,41.0897556,-81.5383336
159,Rhodes Avenue,44302,41.0896195,-81.5383367
145-147,Rhodes Avenue,44302,41.0900246,-81.5383136
163,Rhodes Avenue,44302,41.0894866,-81.5383407
169,Rhodes Avenue,44302,41.0893447,-81.5383391
173,Rhodes Avenue,44302,41.0892207,-81.5383296
177,Rhodes Avenue,44302,41.0890766,-81.5383268
185,Rhodes Avenue,44302,41.0889361,-81.5383251
191,Rhodes Avenue,44302,41.0888090,-81.5383178
195,Rhodes Avenue,44302,41.0886609,-81.5382992
199,Rhodes Avenue,44302,41.0885356,-81.5383193
207,Rhodes Avenue,44302,41.0883879,-81.5383130
219,Rhodes Avenue,44302,41.0881181,-81.5382890
223,Rhodes Avenue,44302,41.0879713,-81.5383136
227,Rhodes Avenue,44302,41.0878450,-81.5383209
235,Rhodes Avenue,44302,41.0877124,-81.5382834
241,Rhodes Avenue,44302,41.0875481,-81.5383207
247,Rhodes Avenue,44302,41.0874264,-81.5383126
255,Rhodes Avenue,44302,41.0871568,-81.5382710
261,Rhodes Avenue,44302,41.0870208,-81.5382585
208,Gale Street,44302,41.0872895,-81.5373182
212,Gale Street,44302,41.0871820,-81.5373222
220,Gale Street,44302,41.0869598,-81.5373262
224,Gale Street,44302,41.0868464,-81.5373196
228,Gale Street,44302,41.0867254,-81.5373218
238,Gale Street,44302,41.0864174,-81.5373063
585,West Exchange Street,44302,41.0868451,-81.5382886
577,West Exchange Street,44302,41.0870156,-81.5378306
573,West Exchange Street,44302,41.0865971,-81.5379499
569,West Exchange Street,44302,41.0865012,-81.5377938
565,West Exchange Street,44302,41.0864095,-81.5376770
549,West Exchange Street,44302,41.0862092,-81.5374027
652,Crosby Street,44302,41.0907376,-81.5399596
652,Crosby Street,44302,41.0907485,-81.5396900
630,Crosby Street,44302,41.0907648,-81.5390697
622,Crosby Street,44302,41.0907619,-81.5388407
130,Rhodes Avenue,44302,41.0904675,-81.5388435
151,Beck Avenue,44302,41.0904665,-81.5398725
140,Rhodes Avenue,44302,41.0901501,-81.5388665
146,Rhodes Avenue,44302,41.0900206,-81.5388765
150,Rhodes Avenue,44302,41.0898900,-81.5388623
156,Rhodes Avenue,44302,41.0897720,-81.5388627
160,Rhodes Avenue,44302,41.0896132,-81.5388579
166,Rhodes Avenue,44302,41.0894612,-81.5388563
170,Rhodes Avenue,44302,41.0893464,-81.5388459
176,Rhodes Avenue,44302,41.0892109,-81.5388448
180,Rhodes Avenue,44302,41.0890673,-81.5388444
186,Rhodes Avenue,44302,41.0889244,-81.5388416
190,Rhodes Avenue,44302,41.0887942,-81.5388441
200,Burt Court,44302,41.0885255,-81.5388314
219,Beck Avenue,44302,41.0886392,-81.5398372
203,Beck Avenue,44302,41.0890620,-81.5398539
199,Beck Avenue,44302,41.0892032,-81.5398478
191,Beck Avenue,44302,41.0893513,-81.5398392
187,Beck Avenue,44302,41.0894746,-81.5398554
175-177,Beck Avenue,44302,41.0897410,-81.5398583
181,Beck Avenue,44302,41.0896051,-81.5398359
167,Beck Avenue,44302,41.0900245,-81.5398462
163,Beck Avenue,44302,41.0901583,-81.5398555
157,Beck Avenue,44302,41.0902960,-81.5398734
227-229,Beck Avenue,44302,41.0883445,-81.5398055
214,Rhodes Avenue,44302,41.0881976,-81.5388315
218,Rhodes Avenue,44302,41.0880865,-81.5388485
222,Rhodes Avenue,44302,41.0879567,-81.5388349
226,Rhodes Avenue,44302,41.0878572,-81.5388093
238,Rhodes Avenue,44302,41.0875221,-81.5388250
601,West Exchange Street,44302,41.0873512,-81.5389406
621,West Exchange Street,44302,41.0875629,-81.5391573
631,West Exchange Street,44302,41.0877739,-81.5394338
643,West Exchange Street,44302,41.0879339,-81.5396884
694,Crosby Street,44302,41.0907172,-81.5414615
690,Crosby Street,44302,41.0907062,-81.5413209
688,Crosby Street,44302,41.0907198,-81.5411772
680-682,Crosby Street,44302,41.0906593,-81.5410463
678,Crosby Street,44302,41.0907012,-81.5408098
670,Crosby Street,44302,41.0907095,-81.5405655
668,Crosby Street,44302,41.0907166,-81.5403697
150,Beck Avenue,44302,41.0905765,-81.5403898
154,Beck Avenue,44302,41.0904651,-81.5404023
155,Hyde Avenue,44302,41.0904367,-81.5414162
157,Hyde Avenue,44302,41.0902873,-81.5413741
163,Hyde Avenue,44302,41.0901444,-81.5413932
167,Hyde Avenue,44302,41.0899784,-81.5413859
173,Hyde Avenue,44302,41.0898715,-81.5413545
183-185,Hyde Avenue,44302,41.0895983,-81.5413326
189,Hyde Avenue,44302,41.0894662,-81.5413837
193,Hyde Avenue,44302,41.0893475,-81.5413970
699,West Exchange Street,44302,41.0891415,-81.5413846
665,West Exchange Street,44302,41.0885123,-81.5405016
220,Beck Avenue,44302,41.0886391,-81.5403910
216,Beck Avenue,44302,41.0887728,-81.5403855
210,Beck Avenue,44302,41.0889152,-81.5403764
206,Beck Avenue,44302,41.0890589,-81.5404030
200,Beck Avenue,44302,41.0892007,-81.5403831
194,Beck Avenue,44302,41.0893287,-81.5404022
190,Beck Avenue,44302,41.0894653,-81.5403735
180,Beck Avenue,44302,41.0897432,-81.5403928
174,Beck Avenue,44302,41.0898952,-81.5404177
170,Beck Avenue,44302,41.0900151,-81.5404410
164,Beck Avenue,44302,41.0901500,-81.5404120
160,Beck Avenue,44302,41.0902864,-81.5404146
724,Crosby Street,44302,41.0907095,-81.5425425
730,Crosby Street,44302,41.0906528,-81.5426970
267,South Portage Path,44302,41.0904321,-81.5426978
154,Vivian Place,44302,41.0904254,-81.5425230
153,Vivian Place,44302,41.0904285,-81.5422794
718,Crosby Street,44302,41.0906768,-81.5422934
156,Hyde Avenue,44302,41.0904472,-81.5418705
712,Crosby Street,44302,41.0907057,-81.5421096
706,Crosby Street,44302,41.0906977,-81.5418479
269,South Portage Path,44302,41.0903450,-81.5426270
273,South Portage Path,44302,41.0902615,-81.5426427
279,South Portage Path,44302,41.0901597,-81.5426417
158,Hyde Avenue,44302,41.0903574,-81.5418896
160,Hyde Avenue,44302,41.0902778,-81.5419014
164-166,Hyde Avenue,44302,41.0901511,-81.5419181
174,Hyde Avenue,44302,41.0898403,-81.5419184
741,West Exchange Street,44302,41.0898830,-81.5424360
739,West Exchange Street,44302,41.0897908,-81.5423173
735,West Exchange Street,44302,41.0897108,-81.5422047
731,West Exchange Street,44302,41.0896085,-81.5420793
178,Hyde Avenue,44302,41.0896657,-81.5418644
184,Hyde Avenue,44302,41.0895666,-81.5418507
717,West Exchange Street,44302,41.0894329,-81.5418572
24,South Balch Street,44302,41.0917001,-81.5338792
28,South Balch Street,44302,41.0915796,-81.5339427
40,South Balch Street,44302,41.0912766,-81.5340986
44,South Balch Street,44302,41.0911919,-81.5341619
495,Elmwood Court,44302,41.0913048,-81.5342318
502,Elmwood Court,44302,41.0911881,-81.5346822
50,South Balch Street,44302,41.0910834,-81.5343831
56,South Balch Street,44302,41.0909202,-81.5344335
60-62,South Balch Street,44302,41.0907960,-81.5345543
509,Crosby Street,44302,41.0906413,-81.5346903
519,Crosby Street,44302,41.0908660,-81.5351494
525,Crosby Street,44302,41.0908901,-81.5353583
529,Crosby Street,44302,41.0909621,-81.5354946
535,Crosby Street,44302,41.0909963,-81.5356867
553,Crosby Street,44302,41.0911581,-81.5362681
557,Crosby Street,44302,41.0911580,-81.5364485
561-563,Crosby Street,44302,41.0912144,-81.5366461
567,Crosby Street,44302,41.0911579,-81.5368874
575,Crosby Street,44302,41.0911623,-81.5371384
589,Crosby Street,44302,41.0912847,-81.5373972
593,Crosby Street,44302,41.0911430,-81.5376256
595,Crosby Street,44302,41.0911473,-81.5377543
99,Rhodes Avenue,44302,41.0911036,-81.5382067
95,Rhodes Avenue,44302,41.0912034,-81.5381231
83,Rhodes Avenue,44302,41.0914967,-81.5378983
77,Rhodes Avenue,44302,41.0916285,-81.5378123
73,Rhodes Avenue,44302,41.0917752,-81.5376851
65-67,Rhodes Avenue,44302,41.0919191,-81.5375720
59,Rhodes Avenue,44302,41.0920591,-81.5374456
53,Rhodes Avenue,44302,41.0922059,-81.5373372
45-47,Rhodes Avenue,44302,41.0923131,-81.5372079
39,Rhodes Avenue,44302,41.0924361,-81.5370860
35,Rhodes Avenue,44302,41.0926042,-81.5370409
22,Rhodes Avenue,44302,41.0932313,-81.5375221
36,Rhodes Avenue,44302,41.0928897,-81.5377159
40,Rhodes Avenue,44302,41.0927504,-81.5378027
60,Rhodes Avenue,44302,41.0923035,-81.5380176
72,Rhodes Avenue,44302,41.0920105,-81.5382162
80,Rhodes Avenue,44302,41.0918422,-81.5383135
84,Rhodes Avenue,44302,41.0917145,-81.5384331
88-90,Rhodes Avenue,44302,41.0916088,-81.5385106
94,Rhodes Avenue,44302,41.0914921,-81.5385717
100,Rhodes Avenue,44302,41.0913980,-81.5386565
104,Rhodes Avenue,44302,41.0912870,-81.5387363
627,Crosby Street,44302,41.0911428,-81.5390055
629,Crosby Street,44302,41.0911438,-81.5391341
641,Crosby Street,44302,41.0911697,-81.5395836
647,Crosby Street,44302,41.0911677,-81.5397684
131,Crosby Street,44302,41.0910560,-81.5399304
129,Beck Avenue,44302,41.0911607,-81.5399410
119,Beck Avenue,44302,41.0913894,-81.5399412
109-111,Beck Avenue,44302,41.0915078,-81.5398878
105-107,Beck Avenue,44302,41.0916482,-81.5398821
99,Beck Avenue,44302,41.0917865,-81.5398681
95,Beck Avenue,44302,41.0919061,-81.5397874
632,Payne Avenue,44302,41.0917805,-81.5394797
628,Payne Avenue,44302,41.0916705,-81.5393593
622,Payne Avenue,44302,41.0915878,-81.5392567
619,Payne Avenue,44302,41.0917181,-81.5388681
81,Belvidere Way,44302,41.0919773,-81.5389583
77,Belvidere Way,44302,41.0920808,-81.5388901
73,Belvidere Way,44302,41.0921771,-81.5388223
69,Belvidere Way,44302,41.0922664,-81.5387458
57,Belvidere Way,44302,41.0925563,-81.5385232
53,Belvidere Way,44302,41.0926533,-81.5384563
49,Belvidere Way,44302,41.0927488,-81.5383856
45,Belvidere Way,44302,41.0928431,-81.5383183
41,Belvidere Way,44302,41.0929474,-81.5382577
37,Belvidere Way,44302,41.0930433,-81.5381841
35,Belvidere Way,44302,41.0931377,-81.5381065
614,West Market Street,44303,41.0936130,-81.5374862
628,West Market Street,44303,41.0937246,-81.5376196
32,Belvidere Way,44302,41.0933310,-81.5382823
36,Belvidere Way,44302,41.0932382,-81.5383406
38,Belvidere Way,44302,41.0931330,-81.5384028
42,Belvidere Way,44302,41.0930357,-81.5384774
50,Belvidere Way,44302,41.0928433,-81.5386136
54,Belvidere Way,44302,41.0927546,-81.5386932
64,Belvidere Way,44302,41.0925618,-81.5388297
68,Belvidere Way,44302,41.0924679,-81.5388995
74,Belvidere Way,44302,41.0922765,-81.5390360
78,Belvidere Way,44302,41.0921751,-81.5391116
82,Belvidere Way,44302,41.0920800,-81.5391871
86,Belvidere Way,44302,41.0919945,-81.5392582
88,Belvidere Way,44302,41.0919197,-81.5393007
83,Beck Avenue,44302,41.0921488,-81.5395361
79,Beck Avenue,44302,41.0923052,-81.5394721
73,Beck Avenue,44302,41.0924318,-81.5393946
69,Beck Avenue,44302,41.0925242,-81.5393055
59,Beck Avenue,44302,41.0926737,-81.5391959
57,Beck Avenue,44302,41.0927806,-81.5391407
53,Beck Avenue,44302,41.0928826,-81.5390359
49,Beck Avenue,44302,41.0930046,-81.5389508
45,Beck Avenue,44302,41.0931560,-81.5388569
35,Beck Avenue,44302,41.0933130,-81.5386970
29,Beck Avenue,44302,41.0935119,-81.5385945
630,West Market Street,44303,41.0938211,-81.5379536
640,West Market Street,44303,41.0940190,-81.5381246
96,Beck Avenue,44302,41.0920915,-81.5401988
98,Beck Avenue,44302,41.0919775,-81.5402624
104,Beck Avenue,44302,41.0918494,-81.5403558
110,Beck Avenue,44302,41.0917326,-81.5404582
114,Beck Avenue,44302,41.0916096,-81.5404290
120,Beck Avenue,44302,41.0914360,-81.5403478
124,Beck Avenue,44302,41.0912924,-81.5403611
128,Beck Avenue,44302,41.0911775,-81.5403510
132,Beck Avenue,44302,41.0910643,-81.5403654
675,Crosby Street,44302,41.0911267,-81.5407724
687,Crosby Street,44302,41.0911102,-81.5412353
125,Westmoreland Terrace,44302,41.0912675,-81.5414254
121,Westmoreland Terrace,44302,41.0913840,-81.5414297
117,Westmoreland Terrace,44302,41.0915589,-81.5414224
113-115,Westmoreland Terrace,44302,41.0916423,-81.5415862
107,Westmoreland Terrace,44302,41.0916181,-81.5418657
135,Westmoreland Terrace,44302,41.0916761,-81.5420597
127,Byers Avenue,44302,41.0917538,-81.5419467
123,Byers Avenue,44302,41.0918725,-81.5418748
119,Byers Avenue,44302,41.0919649,-81.5418216
115,Byers Avenue,44302,41.0920984,-81.5417264
109,Byers Avenue,44302,41.0922219,-81.5416297
105,Byers Avenue,44302,41.0923315,-81.5415427
99,Byers Avenue,44302,41.0924793,-81.5414445
690-692,Payne Avenue,44302,41.0925577,-81.5413629
684,Payne Avenue,44302,41.0924597,-81.5411378
678,Payne Avenue,44302,41.0923049,-81.5410393
674,Payne Avenue,44302,41.0922439,-81.5408480
662,Payne Avenue,44302,41.0921574,-81.5404976
717,Crosby Street,44302,41.0910976,-81.5423998
713,Crosby Street,44302,41.0911096,-81.5422216
709,Crosby Street,44302,41.0911100,-81.5420319
705,Crosby Street,44302,41.0911066,-81.5418720
701,Crosby Street,44302,41.0910792,-81.5417224
697,Crosby Street,44302,41.0911095,-81.5416127
126,Westmoreland Terrace,44302,41.0912476,-81.5416602
122,Westmoreland Terrace,44302,41.0913433,-81.5416684
112,Westmoreland Terrace,44302,41.0914206,-81.5417862
106,Westmoreland Terrace,44302,41.0914640,-81.5420102
141,Byers Avenue,44302,41.0915428,-81.5421630
145,Westmoreland Terrace,44302,41.0914728,-81.5422249
151,Byers Avenue,44302,41.0913678,-81.5423096
35,Dodge Avenue,44302,41.0945507,-81.5413771
1650,Copley Road,44320-2537,41.0842097,-81.5813880
331,South Main Street,44308,41.0767285,-81.5216527
11,East Exchange Street,44308,41.0765685,-81.5214837
1522,South Main Street,44301,41.0454765,-81.5275858
44,Byers Avenue,44302,41.0940524,-81.5409270
48,Byers Avenue,44302,41.0939321,-81.5410338
54-56,Byers Avenue,44302,41.0938218,-81.5411467
60,Byers Avenue,44302,41.0936887,-81.5412012
64,Byers Avenue,44302,41.0935680,-81.5412956
68,Byers Avenue,44302,41.0934362,-81.5413905
74,Byers Avenue,44302,41.0933239,-81.5414974
80,Byers Avenue,44302,41.0931893,-81.5415641
711,Payne Avenue,44302,41.0931535,-81.5419332
715,Payne Avenue,44302,41.0932098,-81.5420584
83,Dodge Avenue,44302,41.0933076,-81.5422876
79,Dodge Avenue,44302,41.0934277,-81.5421739
75,Dodge Avenue,44302,41.0935607,-81.5421031
71,Dodge Avenue,44302,41.0936546,-81.5420268
65,Dodge Avenue,44302,41.0937593,-81.5419601
61,Dodge Avenue,44302,41.0938431,-81.5418886
57,Dodge Avenue,44302,41.0939518,-81.5418163
53,Dodge Avenue,44302,41.0940631,-81.5417256
47,Dodge Avenue,44302,41.0941819,-81.5416345
41,Dodge Avenue,44302,41.0942960,-81.5415534
39,Dodge Avenue,44302,41.0944249,-81.5414386
96,Byers Avenue,44302,41.0927830,-81.5418479
100,Byers Avenue,44302,41.0926679,-81.5419646
104,Byers Avenue,44302,41.0925366,-81.5420213
110,Byers Avenue,44302,41.0924230,-81.5421171
116,Byers Avenue,44302,41.0922966,-81.5422105
120,Byers Avenue,44302,41.0921636,-81.5423011
124,Byers Avenue,44302,41.0920588,-81.5423833
130,Byers Avenue,44302,41.0919364,-81.5424634
138,Byers Avenue,44302,41.0918155,-81.5425313
142,Byers Avenue,44302,41.0917009,-81.5426259
146,Byers Avenue,44302,41.0915788,-81.5427071
150,Byers Avenue,44302,41.0914644,-81.5427577
158,Byers Avenue,44302,41.0913058,-81.5428690
221,South Portage Path,44302,41.0914384,-81.5429414
217,South Portage Path,44302,41.0915423,-81.5429855
129,Dodge Avenue,44302,41.0922170,-81.5431269
125,Dodge Avenue,44302,41.0923089,-81.5430395
121,Dodge Avenue,44302,41.0924107,-81.5429811
117,Dodge Avenue,44302,41.0925017,-81.5429126
115,Dodge Avenue,44302,41.0925863,-81.5428502
109,Dodge Avenue,44302,41.0926853,-81.5427580
105,Dodge Avenue,44302,41.0928145,-81.5426556
728,Payne Avenue,44302,41.0930686,-81.5426145
724,Payne Avenue,44302,41.0930226,-81.5424790
720,Payne Avenue,44302,41.0929756,-81.5423569
716,Payne Avenue,44302,41.0929304,-81.5422349
33,Grand Avenue,44303,41.0949999,-81.5425137
37,Grand Avenue,44303,41.0948837,-81.5426041
43,Grand Avenue,44303,41.0947795,-81.5426840
47,Grand Avenue,44303,41.0946495,-81.5427410
53,Grand Avenue,44303,41.0945295,-81.5428747
57,Grand Avenue,44303,41.0943973,-81.5429430
63,Grand Avenue,44303,41.0942954,-81.5430344
67,Grand Avenue,44303,41.0941700,-81.5431071
73,Grand Avenue,44303,41.0940506,-81.5431959
77,Grand Avenue,44303,41.0939360,-81.5432980
83,Grand Avenue,44303,41.0938059,-81.5433709
93,Grand Avenue,44303,41.0935650,-81.5435435
38,Grand Avenue,44303,41.0950743,-81.5430252
62,West Street,44303,41.0907200,-81.5248153
68-70,West Street,44303,41.0908375,-81.5246738
238,West North Street,44303,41.0908704,-81.5248966
242,West North Street,44303,41.0908647,-81.5250473
254,West North Street,44303,41.0908713,-81.5254801
51,Goodwin Avenue,44303,41.0907506,-81.5256949
45,Goodwin Avenue,44303,41.0906603,-81.5257710
305,West North Street,44303,41.0915004,-81.5262376
384,Albert Place,44303,41.0920834,-81.5299566
387,Albert Place,44303,41.0923435,-81.5301085
265,South Main Street,44308,41.0782339,-81.5204765
400,East Wilbeth Road,44301,41.0396362,-81.5121266
49-55,Merriman Road,44303,41.0945315,-81.5361188
32,Charlotte Street,44303,41.0946308,-81.5359781
38,Charlotte Street,44303,41.0947247,-81.5359088
42,Charlotte Street,44303,41.0948172,-81.5358616
48,Charlotte Street,44303,41.0950114,-81.5359718
46,Charlotte Street,44303,41.0949498,-81.5360251
44,Charlotte Street,44303,41.0948884,-81.5360678
56,Charlotte Street,44303,41.0951648,-81.5356158
60,Charlotte Street,44303,41.0952345,-81.5355637
62,Charlotte Street,44303,41.0953110,-81.5355094
68,Charlotte Street,44303,41.0954739,-81.5354078
76,Charlotte Street,44303,41.0956323,-81.5353507
80,Charlotte Street,44303,41.0957072,-81.5351974
90,Charlotte Street,44303,41.0960169,-81.5350385
94-96,Charlotte Street,44303,41.0961273,-81.5349762
606,Weber Avenue,44303,41.0961968,-81.5351069
610,Weber Avenue,44303,41.0962772,-81.5352446
616,Weber Avenue,44303,41.0963239,-81.5353769
620,Weber Avenue,44303,41.0964011,-81.5355501
626,Weber Avenue,44303,41.0964607,-81.5357118
630,Weber Avenue,44303,41.0965126,-81.5358386
91,Merriman Road,44303,41.0954342,-81.5365963
5,Neal Court,44303,41.0953567,-81.5360711
7,Neal Court,44303,41.0954490,-81.5360211
9,Neal Court,44303,41.0955667,-81.5359285
11,Neal Court,44303,41.0956993,-81.5358551
89,Morningside Drive,44303,41.0962224,-81.5360027
83,Morningside Drive,44303,41.0961555,-81.5360966
77,Morningside Drive,44303,41.0960148,-81.5362159
71,Morningside Drive,44303,41.0958681,-81.5362619
67,Morningside Drive,44303,41.0957440,-81.5363304
63,Morningside Drive,44303,41.0956442,-81.5364234
3,Neal Court,44303,41.0952612,-81.5361852
75,Merriman Road,44303,41.0950683,-81.5363696
73,Merriman Road,44303,41.0948984,-81.5363009
61,Merriman Road,44303,41.0947032,-81.5361920
484,East Exchange Street,44304,41.0709402,-81.5063168
601,Charlotte Street,44303,41.0965344,-81.5346591
607,Weber Avenue,44303,41.0966171,-81.5348216
617,Weber Avenue,44303,41.0967256,-81.5351600
621,Weber Avenue,44303,41.0968079,-81.5353275
625,Weber Avenue,44303,41.0968793,-81.5354636
126,Charlotte Street,44303,41.0968228,-81.5344409
130,Charlotte Street,44303,41.0969346,-81.5343428
246,Aqueduct Street,44303,41.0971340,-81.5341538
152,Morningside Drive,44303,41.0974331,-81.5343754
146,Morningside Drive,44303,41.0973078,-81.5345846
140,Morningside Drive,44303,41.0972412,-81.5347079
134,Morningside Drive,44303,41.0971634,-81.5348616
130,Morningside Drive,44303,41.0970638,-81.5350193
270,Aqueduct Street,44303,41.0976742,-81.5347316
137,Morningside Drive,44303,41.0974792,-81.5350262
135,Morningside Drive,44303,41.0974184,-81.5351802
131,Morningside Drive,44303,41.0973623,-81.5353231
125,Sherwood Drive,44303,41.0976608,-81.5355637
139,Sherwood Drive,44303,41.0981381,-81.5355137
143,Sherwood Drive,44303,41.0982752,-81.5356168
159,Sherwood Drive,44303,41.0986655,-81.5358903
160,Sherwood Drive,44303,41.0984527,-81.5365269
705,Weber Avenue,44303,41.0983051,-81.5370600
699,Weber Avenue,44303,41.0981976,-81.5369925
695,Weber Avenue,44303,41.0980836,-81.5369278
675,Weber Avenue,44303,41.0976453,-81.5366176
669,Weber Avenue,44303,41.0974610,-81.5365269
661,Weber Avenue,44303,41.0973160,-81.5363878
655,Weber Avenue,44303,41.0972133,-81.5362597
643,Weber Avenue,44303,41.0970426,-81.5359318
125,Morningside Drive,44303,41.0971573,-81.5357757
130,Sherwood Drive,44303,41.0977159,-81.5361747
101,Merriman Road,44303,41.0958535,-81.5367452
74,Morningside Drive,44303,41.0961408,-81.5366028
82-84,Morningside Drive,44303,41.0962411,-81.5365536
88,Morningside Drive,44303,41.0964019,-81.5364429
644,Weber Avenue,44303,41.0967162,-81.5363310
648,Weber Avenue,44303,41.0967802,-81.5364675
650,Weber Avenue,44303,41.0968488,-81.5366450
662,Weber Avenue,44303,41.0969912,-81.5369068
666,Weber Avenue,44303,41.0971414,-81.5371096
672,Weber Avenue,44303,41.0972752,-81.5371461
678,Weber Avenue,44303,41.0974115,-81.5371950
696,Weber Avenue,44303,41.0978626,-81.5374137
700,Weber Avenue,44303,41.0980211,-81.5375262
200,Sillars Avenue,44303,41.0980887,-81.5378140
193,Merriman Road,44303,41.0979662,-81.5382367
189,Merriman Road,44303,41.0977384,-81.5380433
175,Merriman Road,44303,41.0974673,-81.5379506
133,Merriman Road,44303,41.0966808,-81.5371924
123,Merriman Road,44303,41.0962374,-81.5371863
121,Merriman Road,44303,41.0961559,-81.5371490
119,Merriman Road,44303,41.0960458,-81.5370881
25,East Thornton Street,44311,41.0662945,-81.5254423
209,Merriman Road,44303,41.0987142,-81.5374556
362,Aqueduct Street,44303,41.0996419,-81.5367531
231,Pasadena Avenue,44303,41.0995535,-81.5370252
223,Pasadena Avenue,44303,41.0994968,-81.5372273
211,Pasadena Avenue,44303,41.0993793,-81.5376199
205,Pasadena Avenue,44303,41.0993244,-81.5378171
201,Pasadena Avenue,44303,41.0992631,-81.5379783
195,Pasadena Avenue,44303,41.0992228,-81.5381590
189,Pasadena Avenue,44303,41.0991756,-81.5383260
183,Pasadena Avenue,44303,41.0991092,-81.5385469
241,Merriman Road,44303,41.0990053,-81.5390040
245,Merriman Road,44303,41.0991790,-81.5391268
255,Merriman Road,44303,41.0994068,-81.5392772
206,Edgerton Road,44303,41.0995176,-81.5388422
210,Edgerton Road,44303,41.0995640,-81.5386721
222,Edgerton Road,44303,41.0996582,-81.5383133
228,Edgerton Road,44303,41.0997128,-81.5381540
230,Edgerton Road,44303,41.0997653,-81.5379907
238,Edgerton Road,44303,41.0998151,-81.5378233
244,Edgerton Road,44303,41.0998647,-81.5376416
250,Edgerton Road,44303,41.0999494,-81.5374031
260,Edgerton Road,44303,41.0999948,-81.5372107
372,Aqueduct Street,44303,41.0998762,-81.5370228
366,Aqueduct Street,44303,41.0997658,-81.5368961
611,West Market Street,44303,41.0941627,-81.5369311
633,West Market Street,44303,41.0943980,-81.5376025
641,West Market Street,44303,41.0945086,-81.5378209
90,Merriman Road,44303,41.0951016,-81.5371130
92-96,Merriman Road,44303,41.0952678,-81.5372531
102,Merriman Road,44303,41.0954309,-81.5373755
110,Merriman Road,44303,41.0955925,-81.5375859
124,Merriman Road,44303,41.0959335,-81.5375968
59,Marshall Avenue,44303,41.0961492,-81.5377448
55,Marshall Avenue,44303,41.0960173,-81.5378219
45,Marshall Avenue,44303,41.0958572,-81.5379095
41,Marshall Avenue,44303,41.0957025,-81.5379954
37,Marshall Avenue,44303,41.0955951,-81.5381124
665,West Market Street,44303,41.0949203,-81.5385538
661,West Market Street,44303,41.0948192,-81.5384122
655,West Market Street,44303,41.0947134,-81.5382360
653,West Market Street,44303,41.0946674,-81.5380147
17,West Rosewood Avenue,44301,41.0373247,-81.5276373
772,South Main Street,44311,41.0653243,-81.5274329
22,E Exchange St,44308,41.0762596,-81.5196648
768,East North Street,44305,41.0869183,-81.4897730
943,Hazel Street,44305,41.0811360,-81.4872312
1001,Eastwood Avenue,44305,41.0865148,-81.4812555
737,East North Street,44305,41.0879755,-81.4911647
921,Hazel Street,44305,41.0792549,-81.4872550
990,Hazel Street,44305,41.0785839,-81.4842106
888,Hazel Street,44305,41.0780133,-81.4874869
465,North Case Avenue,44305,41.0722110,-81.4834224
1750,Sand Run Parkway,44313,41.1337133,-81.5706888
2003,Buchholzer Boulevard,44310,41.1166237,-81.4701195
1322,East Tallmadge Avenue,44310,41.1015033,-81.4672029
1337,Merriman Road,44313,41.1278251,-81.5401048
135,Fir Hill,44304,41.0772711,-81.5061171
1870,Akron Peninsula Road,44313,41.1426320,-81.5556984
1147,Old Main Street,44301,41.0556992,-81.5286819
411,Ira Avenue,44301,41.0544194,-81.5433884
340,East Waterloo Road,44319,41.0285439,-81.5147636
170,North Rose Boulevard,44303,41.1027445,-81.5479740
141,North Rose Boulevard,44303,41.1026099,-81.5479358
911,5th Avenue,44306,41.0615722,-81.4971148
384,South Arlington Street,44306,41.0616864,-81.4912016
364,South Arlington Street,44306,41.0623920,-81.4911553
340,South Arlington Street,44306,41.0630580,-81.4910785
1645,Preston Avenue,44305,41.0685913,-81.4640603
1365,Vernon Odom Boulevard,44320,41.0649268,-81.5709693
1690,West Exchange Street,44313,41.1077099,-81.5677516
1390,Vernon Odom Boulevard,44320-4036,41.0638974,-81.5714479
1591,Copley Road,44320,41.0833389,-81.5795176
1655,Brittain Road,44310,41.1080142,-81.4654036
927,North Portage Path,44303,41.1226770,-81.5476666
1340,East Tallmadge Avenue,44310,41.1015467,-81.4667982
1390,Brittain Road,44310,41.1007083,-81.4668605
42,North High Street,44308,41.0859543,-81.5154852
57,West North Street,44304,41.0899256,-81.5178110
80,East Exchange Street,44308,41.0744962,-81.5199234
