House number,Street name,Postal code,Latitude,Longitude
174,South Main Street,43402,41.3737273,-83.6506386
1616,East Wooster Street,43402,41.3738512,-83.6223616
1508,East Wooster Street,43402,41.3741867,-83.6284404
148,South Main Street,43402,41.3740871,-83.6506479
136,South Main Street,43402,41.3742060,-83.6506431
143,East Wooster Street,43402,41.3749975,-83.6495358
140,East Wooster Street,43402,41.3745325,-83.6495989
130,East Wooster Street,43402,41.3747700,-83.6499985
102,North Main Street,43402,41.3749948,-83.6502832
113,North Main Street,43402,41.3751345,-83.6506412
109,North Main Street,43402,41.3750941,-83.6506449
104,South Main Street,43402,41.3747217,-83.6506717
159,North Main Street,43402,41.3758275,-83.6506324
163,North Main Street,43402,41.3758741,-83.6506160
149,North Main Street,43402,41.3756121,-83.6506405
135,North Main Street,43402,41.3754813,-83.6506405
123,North Main Street,43402,41.3753404,-83.6502650
135,East Court Street,43402,41.3762135,-83.6489809
131,West Gypsy Lane,43402,41.3545113,-83.6529206
1616,East Wooster Street,43402,41.3739494,-83.6223611
123,South Main Street,43402,41.3744548,-83.6502538
181,South Main Street,43402,41.3735023,-83.6501932
181,South Main Street,43402,41.3734577,-83.6501901
182,South Main Street,43402,41.3735077,-83.6506528
176,South Main Street,43402,41.3736215,-83.6506446
1094,North Main Street,43402,41.3920509,-83.6491141
1020,North Main Street,43402,41.3869466,-83.6500798
1020,North Main Street,43402,41.3869997,-83.6500826
1045,North Main Street,43402,41.3890268,-83.6508980
1045,North Main Street,43402,41.3890337,-83.6510916
1064,North Main Street,43402,41.3902783,-83.6495956
834,South Main Street,43402,41.3628732,-83.6511247
246,South Main Street,43402,41.3723245,-83.6502389
248,South Main Street,43402,41.3724795,-83.6506238
1068,North Main Street,43402,41.3904053,-83.6496162
1070,North Main Street,43402,41.3904918,-83.6496082
1216,North Main Street,43402,41.3971567,-83.6499986
1216,North Main Street,43402,41.3972546,-83.6500078
1045,North Main Street,43402,41.3893387,-83.6509141
141,West Wooster Street,43402,41.3748298,-83.6513103
110,West Wooster Street,43402,41.3750148,-83.6508997
188,South Main Street,43402,41.3733766,-83.6507813
194,South Main Street,43402,41.3733202,-83.6509852
1011,South Main Street,43402,41.3595822,-83.6501108
111,South Main Street,43402,41.3745454,-83.6502426
1616,East Wooster Street,43402,41.3730098,-83.6223332
921,East Wooster Street,43403,41.3749277,-83.6376973
14,College Park,43403,41.3830249,-83.6408771
816,East Poe Road,43403,41.3847708,-83.6390257
215,East Wooster Street,43402,41.3751658,-83.6483444
1001,East Wooster Street,43403,41.3759375,-83.6345707
141 1/2,South Main Street,43402,41.3739803,-83.6499708
203,South Mercer Road,43402,41.3727669,-83.6293117
425,East Wooster Street,43402,41.3749429,-83.6452150
1220,West Wooster Street,43402,41.3726375,-83.6722866
130,South Main Street,43402,41.3742937,-83.6510118
130,South Main Street,43402,41.3744809,-83.6510359
426,East Wooster Street,43402,41.3746604,-83.6450998
121,South Main Street,43402,41.3745127,-83.6502425
419,Gould Street,43402,41.3713651,-83.6453430
419,Lehman Avenue,43402,41.3702279,-83.6452567
178,South Main Street,43402,41.3735560,-83.6506427
139,West Wooster Street,43402,41.3748265,-83.6512471
131,West Wooster Street,43402,41.3748354,-83.6510828
175,West Wooster Street,43402,41.3746240,-83.6516647
136,North Main Street,43402,41.3753814,-83.6503012
1039,Haskins Road,43402,41.3871386,-83.6705664
1039,Haskins Road,43402,41.3874691,-83.6703681
1072,North Main Street,43402,41.3905835,-83.6496110
1058,North Main Street,43402,41.3899859,-83.6494233
1616,East Wooster Street,43402,41.3730176,-83.6227146
133,West Wooster Street,43402,41.3748253,-83.6511594
309,South Main Street,43402,41.3708982,-83.6497012
101,North Main Street,43402,41.3750139,-83.6506450
186,South Main Street,43402,41.3734095,-83.6506438
108,South Main Street,43402,41.3746624,-83.6506167
123,North Summit Street,43402,41.3755373,-83.6477179
100,South Main Street,43402,41.3748072,-83.6506304
1616,East Wooster Street,43402,41.3734949,-83.6223676
153,North Main Street,43402,41.3757126,-83.6506322
993,South Main Street,43402,41.3604625,-83.6498756
838,South Main Street,43402,41.3625982,-83.6511742
315,North Grove Street,43402,41.3772833,-83.6535528
1180,North Main Street,43402,41.3959517,-83.6500376
1180,North Main Street,43402,41.3960040,-83.6500366
1216,North Main Street,43402,41.3970727,-83.6500154
1526,East Wooster Street,43402,41.3735505,-83.6273463
1616,East Wooster Street,43402,41.3733739,-83.6223700
1180,North Main Street,43402,41.3962053,-83.6500325
1180,North Main Street,43402,41.3961378,-83.6500338
1180,North Main Street,43402,41.3962551,-83.6500315
1045,North Main Street,43402,41.3892420,-83.6509100
157,North Main Street,43402,41.3757876,-83.6506349
113,North Main Street,43402,41.3751385,-83.6506687
242,South Main Street,43402,41.3726383,-83.6506314
473,South Summit Street,43402,41.3678608,-83.6461288
136 1/2,South Main Street,43402,41.3742394,-83.6507060
188,South Main Street,43402,41.3733678,-83.6507317
249,South Main Street,43402,41.3722235,-83.6502408
181 1/2,South Main Street,43402,41.3734173,-83.6501911
123 1/2,South Main Street,43402,41.3744036,-83.6502652
107,South Main Street,43402,41.3746196,-83.6502527
125,East Court Street,43402,41.3761296,-83.6491964
115,North Main Street,43402,41.3751989,-83.6506493
445,East Wooster Street,43402,41.3752218,-83.6446526
143,East Wooster Street,43402,41.3751261,-83.6495497
143,East Wooster Street,43402,41.3752344,-83.6495434
1616,East Wooster Street,43402,41.3737269,-83.6223623
131,East Court Street,43402,41.3761086,-83.6490385
119,East Court Street,43402,41.3760960,-83.6496457
1180,North Main Street,43402,41.3960795,-83.6500350
1180,North Main Street,43402,41.3959005,-83.6500387
145,South Main Street,43402,41.3740119,-83.6501978
133,East Wooster Street,43402,41.3750059,-83.6497546
705,West Newton Road,43402,41.4001341,-83.6607836
1394,Bellard Drive,43402,41.4048251,-83.6614965
870,Miller Drive,43402,41.4058932,-83.6639232
735,West Newton Road,43402,41.4003288,-83.6625640
1045,North Main Street,43402,41.3890248,-83.6512333
1045,North Main Street,43402,41.3890230,-83.6511905
1045,North Main Street,43402,41.3890268,-83.6513401
1085,North Main Street,43402,41.3917618,-83.6510965
1089,North Main Street,43402,41.3919481,-83.6512044
1058,North Main Street,43402,41.3895706,-83.6491722
1080,South Main Street,43402,41.3587297,-83.6523087
419,Lehman Avenue,43402,41.3702328,-83.6451677
428,South Summit Street,43402,41.3693156,-83.6475658
426,South Summit Street,43402,41.3693613,-83.6475654
424,South Summit Street,43402,41.3693998,-83.6475660
422,South Summit Street,43402,41.3694492,-83.6475691
406,Dunbridge Road,43402,41.3782985,-83.6098804
419,Gould Street,43402,41.3713688,-83.6451949
419,Gould Street,43402,41.3713792,-83.6452597
245,South Prospect Street,43402,41.3718469,-83.6485005
247,South Prospect Street,43402,41.3717964,-83.6485025
264,South College Drive,43402,41.3710735,-83.6392817
555,South College Drive,43402,41.3670244,-83.6383801
849,6th Street,43402,41.3670943,-83.6395530
849,6th Street,43402,41.3670916,-83.6394687
1600,North Main Street,43402,41.3901392,-83.6494628
1600,North Main Street,43402,41.3901436,-83.6495881
588,South Wintergarden Road,43402,41.3683113,-83.6750541
520,South Wintergarden Road,43402,41.3677319,-83.6750725
615,South Wintergarden Road,43402,41.3655515,-83.6744915
832,South Main Street,43402,41.3629630,-83.6511311
840,South Main Street,43402,41.3624521,-83.6513441
826,South Main Street,43402,41.3631213,-83.6511329
453,South Enterprise Street,43402,41.3685723,-83.6457628
328 1/2,Clough Street,43402,41.3729444,-83.6463637
1520,Clough Street,43402,41.3726089,-83.6264566
1520,Clough Street,43402,41.3725125,-83.6265228
1520,Clough Street,43402,41.3725146,-83.6266064
224,Georgia Avenue,43402,41.3666274,-83.6475321
222,Georgia Avenue,43402,41.3666243,-83.6476122
522,North Prospect Street,43402,41.3781159,-83.6485040
328,North Prospect Street,43402,41.3782497,-83.6485756
326,North Prospect Street,43402,41.3782956,-83.6485795
136 1/2,South Main Street,43402,41.3742421,-83.6506878
228,Clough Street,43402,41.3729435,-83.6477755
202,South Church Street,43402,41.3730344,-83.6523018
204,South Church Street,43402,41.3729560,-83.6522881
216,South Church Street,43402,41.3726470,-83.6522595
222,South Church Street,43402,41.3725618,-83.6522709
241,West Washington Street,43402,41.3720168,-83.6516821
815,East Poe Road,43402,41.3870174,-83.6413743
532,West Wooster Street,43402,41.3752558,-83.6573094
532,West Wooster Street,43402,41.3752562,-83.6572428
510,West Wooster Street,43402,41.3752260,-83.6565472
503,West Wooster Street,43402,41.3752314,-83.6564533
516,West Wooster Street,43402,41.3752220,-83.6566439
514,West Wooster Street,43402,41.3752247,-83.6567284
425,East Wooster Street,43402,41.3751334,-83.6451382
169,South Main Street,43402,41.3737475,-83.6500090
121,South Church Street,43402,41.3741727,-83.6514961
121,East Court Street,43402,41.3761256,-83.6495538
127,East Oak Street,43402,41.3771132,-83.6493656
140,East Wooster Street,43402,41.3747718,-83.6495925
1670,East Wooster Street,43402,41.3740848,-83.6198353
192,South Main Street,43402,41.3733012,-83.6506112
194,South Main Street,43402,41.3732765,-83.6506111
313,North Main Street,43402,41.3774157,-83.6511017
313,North Main Street,43402,41.3774394,-83.6511025
313,North Main Street,43402,41.3774690,-83.6511017
313,North Main Street,43402,41.3774940,-83.6511034
313,North Main Street,43402,41.3773946,-83.6513509
313,North Main Street,43402,41.3774236,-83.6513509
313,North Main Street,43402,41.3774565,-83.6513517
313,North Main Street,43402,41.3774887,-83.6513517
313,North Main Street,43402,41.3775243,-83.6513526
1039,Haskins Road,43402,41.3875065,-83.6702355
1039,Haskins Road,43402,41.3874073,-83.6704488
1039,Haskins Road,43402,41.3873796,-83.6705110
725,Haskins Road,43402,41.3838893,-83.6671256
725,Haskins Road,43402,41.3838752,-83.6672446
725,Haskins Road,43402,41.3837741,-83.6673386
300,North Main Street,43402,41.3770669,-83.6502088
251,North Main Street,43402,41.3764851,-83.6510522
175,West Wooster Street,43402,41.3746195,-83.6516622
1301,East Wooster Street,43403,41.3757878,-83.6334054
921,East Wooster Street,43403,41.3750764,-83.6376318
1101,East Wooster Street,42403-4403,41.3752652,-83.6363021
1416,Ridge Street,43403,41.3770575,-83.6315685
1418,Ridge Street,43403,41.3775629,-83.6315567
325,North Mercer Road,43403,41.3775570,-83.6303572
311,North Mercer Road,43403,41.3770518,-83.6303672
1505,East Wooster Street,43402,41.3748640,-83.6288886
1535,East Wooster Street,43403,41.3752381,-83.6264353
1480,East Wooster Street,43402,41.3742732,-83.6297474
707,East Wooster Street,43403,41.3751584,-83.6420481
131,State Street,43402,41.3734476,-83.6316049
121,State Street,43402,41.3738093,-83.6316177
1470,East Wooster Street,43402-3260,41.3741079,-83.6301541
1220,East Merry Avenue,43402,41.3795354,-83.6372839
705,Ridge Street,43403,41.3785958,-83.6421122
707,Ridge Street,43403,41.3790885,-83.6417541
704,East Merry Avenue,43403,41.3805568,-83.6421266
522,Thurstin Avenue,43403,41.3802476,-83.6425475
1,Courthouse Square,43402,41.3769754,-83.6477915
1,Courthouse Square,43402,41.3764720,-83.6480921
1013,North Main Street,43402,41.3869923,-83.6512372
1602,East Wooster Street,43402,41.3741736,-83.6232576
200,Campbell Hill Road,43402,41.3715880,-83.6238670
142,Campbell Hill Road,43402,41.3727864,-83.6245849
1602,East Wooster Street,43402-3455,41.3739675,-83.6232791
1028,North Main Street,43402,41.3877580,-83.6499485
1020,North Main Street,43402,41.3869853,-83.6500865
1019,North Main Street,43402,41.3874549,-83.6510346
1026,North Main Street,43402,41.3875793,-83.6500554
316,Campbell Hill Road,43402,41.3703311,-83.6241030
305,Campbell Hill Road,43402,41.3710952,-83.6230101
323,Campbell Hill Road,43402,41.3703000,-83.6229968
324,Campbell Hill Road,43402,41.3699542,-83.6236732
319,Campbell Hill Road,43402,41.3706464,-83.6229924
1470,Clough Street,43402,41.3726240,-83.6301136
1490,Clough Street,43402,41.3726181,-83.6296906
216,South Mercer Road,43402,41.3719092,-83.6298460
216,South Mercer Road,43402,41.3723095,-83.6298356
156,North Main Street,43402,41.3757597,-83.6500874
305,N Main Street,43402,41.3769743,-83.6508124
305,N Church Street,43402,41.3769551,-83.6516405
134,North Main Street,43402,41.3753373,-83.6501176
434,East Wooster Street,43402,41.3743673,-83.6448451
121,South Enterprise Street,43402,41.3740844,-83.6458472
137,Clough Street,43402,41.3733189,-83.6496085
181,South Main Street,43402,41.3734616,-83.6500930
480,Lehman Avenue,43402,41.3698855,-83.6451316
413,South Enterprise Street,43402,41.3696172,-83.6458105
425,South Enterprise Street,43402,41.3693296,-83.6458208
431,South Enterprise Street,43402,41.3691883,-83.6458243
437,South Enterprise Street,43402,41.3690365,-83.6458311
401,South Enterprise Street,43402,41.3699163,-83.6458013
331,South Enterprise Street,43402,41.3702514,-83.6459276
407,South Enterprise Street,43402,41.3697763,-83.6458043
419,South Enterprise Street,43402,41.3694854,-83.6458156
455,South Enterprise Street,43402,41.3685843,-83.6457684
449,South Enterprise Street,43402,41.3687374,-83.6457630
2151,Alumni Drive,43403,41.3760848,-83.6236669
913,East Wooster Street,43403,41.3755431,-83.6373512
325,Ridge Street,43403,41.3773116,-83.6309620
1411,Ridge Street,43403-0146,41.3791490,-83.6313131
801,North Mercer Road,43403-0028,41.3819634,-83.6315295
707,East Merry Avenue,43403,41.3813447,-83.6420363
816,East Poe Road,43403,41.3845320,-83.6389354
815,East Poe Road,43402,41.3865453,-83.6403697
500,Pike Street,43403,41.3771129,-83.6441619
552,East Court Street,43402,41.3756725,-83.6437132
425,East Court Street,43402,41.3761648,-83.6448870
1261,East Poe Road,43402,41.3897609,-83.6291678
451,Thurstin Avenue,43402-1908,41.3798259,-83.6435113
1033,Conneaut Avenue,43402,41.3785293,-83.6683335
950,West Wooster Street,43402,41.3774765,-83.6680934
950,West Wooster Street,43402,41.3756649,-83.6668743
1064,West Wooster Street,43402,41.3730380,-83.6706822
1236,West Wooster Street,43402,41.3729471,-83.6738584
1240,West Wooster Street,43402,41.3729582,-83.6742405
1254,Ridgewood Drive,43402,41.3739363,-83.6741747
1226,West Wooster Street,43402,41.3726824,-83.6732871
224,Syracuse Avenue,43402,41.3752907,-83.6699834
109,Larchwood Drive,43402,41.3734700,-83.6685162
507,East Merry Avenue,43402,41.3811060,-83.6441478
521,East Merry Avenue,43402,41.3811032,-83.6438276
517,East Reed Avenue,43402,41.3819607,-83.6434885
812,N. College Drive,43403,41.3840755,-83.6406465
600,East Poe Road,43402,41.3851402,-83.6425674
937,Conneaut Avenue,43402,41.3785756,-83.6662316
1021,West Wooster Street,43402,41.3721529,-83.6690706
1610,Stadium Drive,43403,41.3787398,-83.6224066
1039,Haskins Road,43402,41.3872904,-83.6703485
1100,Haskins Road,43402,41.3916667,-83.6711244
755,Haskins Road,43402,41.3844584,-83.6678308
735,Haskins Road,43402,41.3840601,-83.6675240
725,Haskins Road,43402,41.3838285,-83.6672121
745,Haskins Road,43402,41.3842840,-83.6683337
320,Elm Street,43402,41.3707964,-83.6424989
123,Manville Avenue,43402,41.3741369,-83.6429435
516,East Wooster Street,43402,41.3744870,-83.6438667
606,Clough Street,43402,41.3728980,-83.6427404
920,East Wooster Street,43402,41.3743359,-83.6382602
710,Scott Hamilton Avenue,43402,41.3707950,-83.6419461
1504,East Wooster Street,43402,41.3741917,-83.6289178
207,Manville Avenue,43402,41.3727676,-83.6429100
926,East Wooster Street,43402,41.3744042,-83.6381167
125,South College Drive,43402,41.3739512,-83.6387742
215,Manville Avenue,43402,41.3726424,-83.6429031
505,Lehman Avenue,43402,41.3703050,-83.6439845
343,Palmer Avenue,43402,41.3687029,-83.6453666
338,Palmer Avenue,43402,41.3685676,-83.6449430
1720,East Wooster Street,43402,41.3737479,-83.6192925
1740,East Wooster Street,43402,41.3727481,-83.6178474
1740,East Wooster Street,43402,41.3730196,-83.6186170
1726,East Wooster Street,43402,41.3734278,-83.6183164
1724,East Wooster Street,43402-3457,41.3725381,-83.6188524
1616,East Wooster Street,43402,41.3734072,-83.6226882
1650,East Wooster Street,43402-3455,41.3740073,-83.6204000
1471,Scott Hamilton Drive,43402,41.3706425,-83.6299820
337,Campbell Hill Road,43402,41.3697846,-83.6229847
1474,Scott Hamilton Drive,43402,41.3701304,-83.6299331
1443,Scott Hamilton Drive,43402,41.3706385,-83.6311151
1449,Scott Hamilton Drive,43402,41.3706362,-83.6307992
1457,Scott Hamilton Drive,43402,41.3706495,-83.6304840
1570,East Wooster Street,43402,41.3738008,-83.6238379
1465,Scott Hamilton Drive,43402,41.3706307,-83.6302249
1460,Scott Hamilton Drive,43402,41.3701550,-83.6303863
1479,Scott Hamilton Drive,43402,41.3706289,-83.6297049
1468,Scott Hamilton Drive,43402,41.3701376,-83.6301524
1480,Scott Hamilton Drive,43402,41.3701198,-83.6297064
274,State Street,43402,41.3714778,-83.6321694
258,State Street,43402,41.3716675,-83.6321457
273,State Street,43402,41.3714093,-83.6315163
1306,Clough Street,43402,41.3727100,-83.6329603
1430,Clough Street,43402,41.3726258,-83.6312399
244,State Street,43402,41.3718610,-83.6321439
1432,Clough Street,43402,41.3726109,-83.6308893
276,State Street,43402,41.3712843,-83.6321880
289,State Street,43402,41.3711136,-83.6314714
288,State Street,43402,41.3710887,-83.6321964
227,State Street,43402,41.3722424,-83.6315180
1374,Clough Street,43402,41.3726326,-83.6321364
203,Crim Street,43402,41.3726765,-83.6373849
1016,Clough Street,43402,41.3727286,-83.6370713
202,Biddle Street,43402,41.3726583,-83.6365986
219,Crim Street,43402,41.3723690,-83.6373127
214,Biddle Street,43402,41.3723062,-83.6366416
1526,East Wooster Street,43402,41.3735702,-83.6275914
1318,East Wooster Street,43402,41.3743767,-83.6328766
1030,East Wooster Street,43402,41.3743775,-83.6365891
533,South College Drive,43402,41.3672727,-83.6388815
139,South College Drive,43402,41.3735026,-83.6387707
919,Clough Street,43402,41.3731030,-83.6381292
151,Clough Street,43402,41.3731455,-83.6387352
1367,Clough Street,43402,41.3730463,-83.6324734
235,South College Drive,43402,41.3718456,-83.6387434
158,State Street,43402,41.3733613,-83.6321614
211,South College Drive,43402,41.3725325,-83.6387492
1236,East Wooster Street,43402,41.3743513,-83.6339629
138,Biddle Street,43402,41.3731738,-83.6365120
1010,East Wooster Street,43402,41.3743939,-83.6373464
1366,East Wooster Street,43402,41.3743577,-83.6327063
133,South College Drive,43402,41.3736275,-83.6387823
517,South College Drive,43402,41.3681086,-83.6388491
719,South College Drive,43402,41.3650655,-83.6389992
1014,East Wooster Street,43402,41.3744112,-83.6369400
1312,East Wooster Street,43402,41.3743723,-83.6330886
207,South College Drive,43402,41.3726746,-83.6387812
206,Crim Street,43402,41.3727866,-83.6378845
227,South College Drive,43402,41.3721213,-83.6387697
1548,East Wooster Street,43402,41.3741746,-83.6253203
233,South College Drive,43402,41.3719466,-83.6387480
239,South College Drive,43402,41.3716988,-83.6387105
221,South College Drive,43402,41.3722623,-83.6387568
247,South College Drive,43402,41.3715599,-83.6387281
1370,East Wooster Street,43402,41.3743333,-83.6323972
1204,East Wooster Street,43402,41.3744133,-83.6348661
629,South College Drive,43402,41.3663037,-83.6389191
186,State Street,43402,41.3730721,-83.6321456
1027,Clough Street,43402,41.3731383,-83.6366805
521,South College Drive,43402,41.3678898,-83.6388173
1240,East Wooster Street,43402,41.3743833,-83.6337263
221,Campbell Hill Road,43402,41.3717353,-83.6230781
511,South College Drive,43402,41.3683408,-83.6388639
1304,East Wooster Street,43402,41.3743526,-83.6332691
137,Baldwin Avenue,43402,41.3736927,-83.6330944
1045,Clough Street,43402,41.3731029,-83.6371458
1023,Clough Street,43402,41.3731638,-83.6368692
635,South College Drive,43402,41.3660621,-83.6388529
129,South College Drive,43402,41.3737756,-83.6387859
259,South College Drive,43402,41.3711951,-83.6387276
251,South College Drive,43402,41.3714109,-83.6388041
1502,East Wooster Street,43402,41.3741495,-83.6292791
317,Manville Avenue,43402,41.3707913,-83.6428501
403,High Street,43402,41.3699635,-83.6408202
808,East Wooster Street,43402,41.3743891,-83.6406470
149,Troup Avenue,43402,41.3732668,-83.6417619
721,Clough Street,43402,41.3734469,-83.6407782
802,East Wooster Street,43402,41.3743815,-83.6408085
117,Manville Avenue,43402,41.3739970,-83.6429558
248,Troup Avenue,43402,41.3716519,-83.6422427
505,Clough Street,43402,41.3732577,-83.6440336
704,2nd Street,43402,41.3700180,-83.6420731
843,3rd Street,43402,41.3695804,-83.6393345
263,Manville Avenue,43402,41.3711611,-83.6429467
246,Troup Avenue,43402,41.3718087,-83.6422652
845,South College Drive,43402,41.3695728,-83.6391961
257,Manville Avenue,43402,41.3712718,-83.6429588
156,South College Drive,43402,41.3731360,-83.6393795
236,Troup Avenue,43402,41.3720756,-83.6422082
824,Scott Hamilton Avenue,43402,41.3707615,-83.6405281
830,Scott Hamilton Avenue,43402,41.3707783,-83.6402349
146,South College Drive,43402,41.3733669,-83.6393369
119,Troup Avenue,43402,41.3741332,-83.6417348
222,South College Drive,43402,41.3722647,-83.6393744
402,High Street,43402,41.3696050,-83.6414036
747,Clough Street,43402,41.3733034,-83.6401499
612,East Wooster Street,43402,41.3745261,-83.6425416
1,University Lane,43402,41.3733701,-83.6412221
601,3rd Street,43402,41.3696449,-83.6430184
812,Scott Hamilton Avenue,43402,41.3707671,-83.6408339
608,East Wooster Street,43402,41.3744937,-83.6427035
201,Troup Avenue,43402,41.3729151,-83.6417170
402,South College Drive,43402,41.3700817,-83.6392566
806,Scott Hamilton Avenue,43402,41.3707773,-83.6409810
836,Scott Hamilton Avenue,43402,41.3707568,-83.6394581
262,Troup Avenue,43402,41.3712616,-83.6421977
216,Troup Avenue,43402,41.3725115,-83.6422223
850,Scott Hamilton Avenue,43402,41.3707576,-83.6392451
258,Troup Avenue,43402,41.3713820,-83.6422013
826,Scott Hamilton Avenue,43402,41.3707583,-83.6403758
212,Troup Avenue,43402,41.3726289,-83.6421955
250,Troup Avenue,43402,41.3715272,-83.6421984
154,Manville Avenue,43402,41.3732032,-83.6434292
145,Troup Avenue,43402,41.3733798,-83.6417678
234,South College Drive,43402,41.3719422,-83.6393448
208,Troup Avenue,43402,41.3727265,-83.6422173
255,Manville Avenue,43402,41.3714056,-83.6429199
141,Troup Avenue,43402,41.3734968,-83.6417053
603,Clough Street,43402,41.3731793,-83.6429520
128,South College Drive,43402,41.3734954,-83.6393276
818,Scott Hamilton Avenue,43402,41.3707634,-83.6406787
127,Troup Avenue,43402,41.3738286,-83.6418041
216,South College Drive,43402,41.3724002,-83.6393255
126,South College Drive,43402,41.3736132,-83.6393288
811,3rd Street,43402,41.3695711,-83.6410111
124,South College Drive,43402,41.3737286,-83.6393312
202,Troup Avenue,43402,41.3728869,-83.6422400
812,East Wooster Street,43402,41.3743766,-83.6405151
153,Troup Avenue,43402,41.3731513,-83.6417721
832,Scott Hamilton Avenue,43402,41.3708155,-83.6399076
703,2nd Street,43402,41.3703834,-83.6420824
220,Troup Avenue,43402,41.3724151,-83.6422203
622,East Wooster Street,43402,41.3744727,-83.6422326
507,Lehman Avenue,43402,41.3708400,-83.6439864
152,Troup Avenue,43402,41.3732244,-83.6422395
706,2nd Street,43402,41.3700262,-83.6419235
253,Manville Avenue,43402,41.3715449,-83.6428789
611,4th Street,43402,41.3687922,-83.6430063
849,Fifth Street,43402,41.3679723,-83.6392444
702,4th Street,43402,41.3683764,-83.6420245
725,9th Street,43402,41.3644042,-83.6418576
610,4th Street,43402,41.3684348,-83.6430468
818,7th Street,43402,41.3660147,-83.6408330
741,High Street,43402,41.3644610,-83.6410790
428,South College Drive,43402,41.3688808,-83.6393150
612,3rd Street,43402,41.3692636,-83.6429618
802,6th Street,43402,41.3668011,-83.6407643
849,6th Street,43402,41.3671549,-83.6395100
845,5th Street,43402,41.3679781,-83.6393814
843,6th Street,43402,41.3672225,-83.6400750
731,High Street,43402,41.3648165,-83.6410678
432,South College Drive,43402,41.3687144,-83.6393226
641,3rd Street,43402,41.3692224,-83.6418867
702,4th Street,43402,41.3684145,-83.6408909
424,South College Drive,43402,41.3690821,-83.6392757
725,Seventh Street,43402,41.3664451,-83.6414206
825,6th Street,43402,41.3667913,-83.6403487
825,6th Street,43402,41.3671882,-83.6403490
721,High Street,43402,41.3651694,-83.6410590
614,4th Street,43402,41.3684442,-83.6427485
710,Seventh Street,43402,41.3660248,-83.6416277
615,4th Street,43402,41.3688149,-83.6426723
513,Napoleon Road,43402,41.3643230,-83.6442589
829,Klotz Road,43402,41.3625091,-83.6398846
837,Klotz Road,43402,41.3622875,-83.6398894
911,Klotz Road,43402,41.3605963,-83.6399351
813,Klotz Road,43402,41.3629412,-83.6398730
913,Klotz Road,43402,41.3603857,-83.6399294
853,Klotz Road,43402,41.3616802,-83.6399147
912,Klotz Road,43402,41.3608267,-83.6408689
1109,Klotz Road,43402,41.3594864,-83.6395611
845,Klotz Road,43402,41.3620686,-83.6398873
515,East Gypsy Lane Road,43402,41.3577733,-83.6445512
706,Napoleon Road,43402,41.3626508,-83.6420041
428,Clough Street,43402,41.3725750,-83.6447915
150,South Enterprise Street,43402,41.3733675,-83.6465681
217,Clough Street,43402,41.3733089,-83.6481102
239,South Prospect Street,43402,41.3721146,-83.6484407
205,Lehman Avenue,43402,41.3703386,-83.6484124
247,South Enterprise Street,43402,41.3717610,-83.6459061
353,South Enterprise Street,43402,41.3716475,-83.6458962
254,South Enterprise Street,43402,41.3715318,-83.6464097
267,South Enterprise Street,43402,41.3712714,-83.6458954
220,Clough Street,43402,41.3729754,-83.6481053
424,Clough Street,43402,41.3728804,-83.6452091
155,South Prospect Street,43402,41.3732435,-83.6484796
211,Lehman Avenue,43402,41.3703117,-83.6481889
201,Lehman Avenue,43402,41.3703493,-83.6486151
223,Lehman Avenue,43402,41.3702816,-83.6479559
218,South Enterprise Street,43402,41.3723786,-83.6464558
420,Clough Street,43402,41.3728670,-83.6453678
426,Clough Street,43402,41.3728793,-83.6450530
402,East Wooster Street,43402,41.3744729,-83.6458220
211,South Enterprise Street,43402,41.3726738,-83.6459418
225,Lehman Avenue,43402,41.3702855,-83.6478226
203,South Enterprise Street,43402,41.3729361,-83.6459455
303,South Prospect Street,43402,41.3711210,-83.6484835
328,Lehman Avenue,43402,41.3703235,-83.6476397
217,South Enterprise Street,43402,41.3725307,-83.6458980
205,South Enterprise Street,43402,41.3728128,-83.6459374
242,South Enterprise Street,43402,41.3718796,-83.6463895
423,Clough Street,43402,41.3732007,-83.6452414
321,South Enterprise Street,43402,41.3705552,-83.6458520
221,South Enterprise Street,43402,41.3723965,-83.6458965
419,Lehman Avenue,43402,41.3702336,-83.6452171
270,South Enterprise Street,43402,41.3712758,-83.6463882
416,Clough Street,43402,41.3728664,-83.6455830
250,South Enterprise Street,43402,41.3716470,-83.6463882
246,South Enterprise Street,43402,41.3717606,-83.6463662
312,Clough Street,43402,41.3729574,-83.6468912
419,Gould Street,43402,41.3713740,-83.6450349
223,South Prospect Street,43402,41.3725162,-83.6484823
324,Clough Street,43402,41.3729374,-83.6464934
306,South Enterprise Street,43402,41.3709120,-83.6464720
211,South Prospect Street,43402,41.3727543,-83.6484577
239,South Enterprise Street,43402,41.3719988,-83.6458993
311,South Prospect Street,43402,41.3708355,-83.6484957
145,South Enterprise Street,43402,41.3734362,-83.6459377
149,South Enterprise Street,43402,41.3733236,-83.6459332
141,South Enterprise Street,43402,41.3735751,-83.6459445
401,Clough Street,43402,41.3732192,-83.6458714
210,South Enterprise Street,43402,41.3726726,-83.6463839
259,South Prospect Street,43402,41.3713265,-83.6484975
328,Clough Street,43402,41.3729031,-83.6463354
315,South Enterprise Street,43402,41.3707118,-83.6458703
243,South Prospect Street,43402,41.3719295,-83.6484971
425,Grant Street,43402,41.3736963,-83.6453033
255,South Prospect Street,43402,41.3714323,-83.6484971
260,South Enterprise Street,43402,41.3714123,-83.6463634
305,South Enterprise Street,43402,41.3709691,-83.6458768
263,South Enterprise Street,43402,41.3714181,-83.6458928
311,South Enterprise Street,43402,41.3708512,-83.6458688
224,Clough Street,43402,41.3729734,-83.6479008
231,South Prospect Street,43402,41.3723267,-83.6484283
427,Clough Street,43402,41.3733455,-83.6449619
225,South Enterprise Street,43402,41.3722536,-83.6458384
176,East Wooster Street,43402,41.3746905,-83.6490791
229,South Main Street,43402,41.3726764,-83.6501164
421,South Main Street,43402,41.3692697,-83.6501386
432,South Enterprise Street,43402,41.3691639,-83.6464862
343,South Main Street,43402,41.3700107,-83.6500920
465,South Summit Street,43402,41.3681001,-83.6453895
309,South Main Street,43402,41.3708543,-83.6499095
239,South Main Street,43402,41.3725491,-83.6500306
438,South Enterprise Street,43402,41.3690123,-83.6464984
403,South Main Street,43402,41.3698414,-83.6501314
130,East Washington Street,43402,41.3719433,-83.6494192
414,South Enterprise Street,43402,41.3695989,-83.6464899
212,South Prospect Street,43402,41.3725979,-83.6491042
133,Lehman Avenue,43402,41.3703423,-83.6490680
139,Lehman Avenue,43402,41.3703426,-83.6489006
439,South Prospect Street,43402,41.3689636,-83.6485662
469,South Summit Street,43402,41.3674663,-83.6455427
453,South Prospect Street,43402,41.3686112,-83.6484999
126,South Prospect Street,43402,41.3740813,-83.6491535
471,South Summit Street,43402,41.3674789,-83.6462877
127,Lehman Avenue,43402,41.3703661,-83.6493030
463,South Summit Street,43402,41.3681123,-83.6461298
444,South Enterprise Street,43402,41.3688740,-83.6465013
409,South Main Street,43402,41.3696918,-83.6501131
461,South Summit Street,43402,41.3681269,-83.6468573
403,South Summit Street,43402,41.3699695,-83.6471594
450,South Enterprise Street,43402,41.3687317,-83.6465012
415,South Main Street,43402,41.3694494,-83.6501544
459,South Summit Street,43402,41.3683035,-83.6471285
420,South Enterprise Street,43402,41.3694598,-83.6464792
435,South Summit Street,43402,41.3690811,-83.6470946
467,South Summit Street,43402,41.3677453,-83.6450069
275,South Main Street,43402,41.3717505,-83.6500705
426,South Enterprise Street,43402,41.3693071,-83.6464812
318,Palmer Avenue,43402,41.3682784,-83.6458533
429,South Summit Street,43402,41.3692232,-83.6470975
303,South Main Street,43402,41.3712787,-83.6500951
117,Lehman Avenue,43402,41.3703124,-83.6497613
121,Lehman Avenue,43402,41.3703825,-83.6494955
611,South Main Street,43402,41.3664889,-83.6500902
605,South Main Street,43402,41.3666658,-83.6501477
521,South Prospect Street,43402,41.3671224,-83.6486490
615,South Main Street,43402,41.3663218,-83.6501224
455,South Main Street,43402,41.3683219,-83.6501596
460,South Summit Street,43402,41.3682946,-83.6475520
635,South Main Street,43402,41.3658308,-83.6501116
651,South Main Street,43402,41.3655123,-83.6502043
203,Byall Avenue,43402,41.3677854,-83.6486096
719,South Main Street,43402,41.3645522,-83.6500803
220,Napoleon Road,43402,41.3635979,-83.6477499
737,South Main Street,43402,41.3640639,-83.6498187
713,South Main Street,43402,41.3648209,-83.6501337
735,South Main Street,43402,41.3642356,-83.6500003
945,South Main Street,43402,41.3612822,-83.6500933
893,South Main Street,43402,41.3618674,-83.6497847
1033,Devlac Grove Drive,43402,41.3572241,-83.6526884
892,South Main Street,43402,41.3620195,-83.6511363
1084,South Main Street,43402,41.3575868,-83.6509945
1094,South Main Street,43402,41.3571181,-83.6510530
1050,South Main Street,43402,41.3578824,-83.6510691
1010,South Main Street,43402,41.3599057,-83.6518538
1021,South Main Street,43402,41.3591134,-83.6498511
1099,South Main Street,43402,41.3568442,-83.6498828
1011,South Main Street,43402,41.3595833,-83.6498905
1169,South Main Street,43402,41.3531963,-83.6480820
1145,South Main Street,43402,41.3545293,-83.6497734
131,West Gypsy Lane Road,43402,41.3540835,-83.6523390
1130,South Main Street,43402,41.3551196,-83.6508725
205,Sand Ridge Road,43402,41.3667860,-83.6523816
123,Sand Ridge Road,43402,41.3668866,-83.6514894
530,South Maple Street,43402,41.3675302,-83.6564182
520,South Maple Street,43402,41.3679513,-83.6564361
530,Sand Ridge Road,43402,41.3668974,-83.6566686
540,South Maple Street,43402,41.3671466,-83.6563764
130,South Main Street,43402,41.3743743,-83.6509266
221,South Main Street,43402,41.3728553,-83.6509975
252,South Main Street,43402,41.3723284,-83.6507685
230,South Church Street,43402,41.3723716,-83.6523215
519,Ordway Avenue,43402,41.3694945,-83.6569546
210,South Church Street,43402,41.3728045,-83.6523409
158,South Church Street,43402,41.3732453,-83.6523615
222,South Church Street,43402,41.3725369,-83.6523365
16,Arlington Court,43402,41.3706595,-83.6687663
611,West Wooster Street,43402,41.3748940,-83.6588306
845,West Wooster Street,43402,41.3740426,-83.6617974
707,West Wooster Street,43402,41.3748514,-83.6598367
625,West Wooster Street,43402,41.3748415,-83.6591369
402,West Wooster Street,43402,41.3748000,-83.6549184
429,South Maple Street,43402,41.3747697,-83.6558792
110,Gorrell Avenue,43402,41.3748313,-83.6583209
607,West Wooster Street,43402,41.3748785,-83.6586536
605,West Wooster Street,43402,41.3748624,-83.6584876
501,West Wooster Street,43402,41.3747845,-83.6562622
409,West Wooster Street,43402,41.3748087,-83.6551603
541,West Wooster Street,43402,41.3747351,-83.6577042
315,West Wooster Street,43402,41.3746737,-83.6538143
333,West Wooster Street,43402,41.3747344,-83.6544732
307,West Wooster Street,43402,41.3745978,-83.6535267
333,Van Camp Road,43402,41.3955824,-83.6546333
1175,North Main Street,43402,41.3954987,-83.6520949
427,Van Camp Road,43402,41.3962785,-83.6564131
420,Industrial Parkway,43402,41.3940549,-83.6448637
1216,North Main Street,43402,41.3972392,-83.6499117
1272,North Main Street,43402,41.3998465,-83.6500579
1232,North Main Street,43402,41.3977681,-83.6499122
1094,North Main Street,43402,41.3915702,-83.6486341
1168,North Main Street,43402,41.3952340,-83.6497941
1180,North Main Street,43402,41.3960795,-83.6499728
400,East Poe Road,43403,41.3851953,-83.6457166
317,East Poe Road,43402,41.3859242,-83.6467126
1024,North Main Street,43402,41.3873022,-83.6499783
440,East Poe Road,43402,41.3852059,-83.6449992
441,Frazee Avenue,43402,41.3838174,-83.6456584
242,Frazee Avenue,43402,41.3833879,-83.6452739
1079,North Main Street,43402,41.3913823,-83.6512671
1099,North Main Street,43402,41.3925003,-83.6512149
1059,North Main Street,43402,41.3906926,-83.6511220
1095,North Main Street,43402,41.3924745,-83.6523943
1089,North Main Street,43402,41.3918775,-83.6513164
1051,North Main Street,43402,41.3902988,-83.6511699
1027,North Main Street,43402,41.3883269,-83.6509434
1037,North Main Street,43402,41.3884345,-83.6510496
1045,North Main Street,43402,41.3891829,-83.6512361
801,Van Camp Road,43402,41.3962243,-83.6615661
400,Van Camp Road,43402,41.3981997,-83.6576893
1550,East Wooster Street,43402,41.3734434,-83.6249384
1540,East Wooster Street,43402,41.3740945,-83.6256903
1530,East Wooster Street,43402,41.3741978,-83.6264373
1508,East Wooster Street,43402,41.3741798,-83.6284555
320,East Wooster Street,43402,41.3745893,-83.6465662
124,East Court Street,43402,41.3758026,-83.6494395
165,North Main Street,43402,41.3759538,-83.6508518
2111,East Wooster Street,43402,41.3770828,-83.6074710
838,East Wooster Street,43403,41.3743604,-83.6395763
440,East Court Street,43402,41.3756657,-83.6449999
100,South Main Street,43402,41.3747935,-83.6508036
143,East Wooster Street,43402,41.3751250,-83.6495431
103,East Wooster Street,43402,41.3753078,-83.6492240
501,East Poe Road,43402,41.3862491,-83.6430330
445,East Wooster Street,43402,41.3751400,-83.6446478
425,East Wooster Street,43402,41.3750484,-83.6451464
435,East Wooster Street,43402,41.3750385,-83.6449903
405,East Wooster Street,43402,41.3750026,-83.6457661
215,East Wooster Street,43402,41.3751354,-83.6482826
315,East Wooster Street,43402,41.3750316,-83.6468610
319,East Wooster Street,43402,41.3749913,-83.6466337
329,East Wooster Street,43402,41.3749983,-83.6463096
325,East Wooster Street,43402,41.3749743,-83.6464684
130,East Court Street,43402,41.3758564,-83.6491755
135.5,East Court Street,43402,41.3761684,-83.6489326
123,East Court Street,43402,41.3762461,-83.6494104
406,Dunbridge Road,43402,41.3782182,-83.6098808
1616,East Wooster Street,43402,41.3741143,-83.6222197
224,East Wooster Street,43402,41.3746119,-83.6476154
806,Ridge Street,43403,41.3769224,-83.6411847
605,North Main Street,43402,41.3811852,-83.6507486
956,North Main Street,43402,41.3853145,-83.6501854
920,North Main Street,43402,41.3843281,-83.6501261
1006,North Main Street,43402,41.3860806,-83.6500135
1005,North Main Street,43402,41.3861594,-83.6508716
408,West Wooster Street,43402,41.3754941,-83.6550715
1860,East Gypsy Lane Road,43402,41.3531690,-83.6163456
702,East Wooster Street,43402,41.3744306,-83.6418001
414,East Wooster Street,43402,41.3745469,-83.6453858
1225,North Main Street,43402,41.3972339,-83.6513276
1155,North Main Street,43402,41.3935549,-83.6511902
1051,North Main Street,43402,41.3900740,-83.6514202
225,East Wooster Street,43402,41.3750277,-83.6476719
115,East Oak Street,43402,41.3772036,-83.6495388
914,East Wooster Street,43402,41.3744116,-83.6385289
722,Clough Street,43402,41.3731371,-83.6407262
315,North Main Street,43402,41.3775033,-83.6508130
322,North Main Street,43402,41.3776419,-83.6500526
334,North Main Street,43402,41.3779913,-83.6501214
325,North Main Street,43402,41.3777613,-83.6508853
347,North Main Street,43402,41.3782996,-83.6507731
406,North Main Street,43402,41.3786971,-83.6501250
402,North Main Street,43402,41.3785273,-83.6501406
318,North Main Street,43402,41.3775011,-83.6501808
314,North Main Street,43402,41.3773839,-83.6501603
326,North Main Street,43402,41.3777989,-83.6500466
829,West Newton Road,43402,41.4001876,-83.6641293
121,East Wooster Street,43402,41.3751139,-83.6499240
957,North Prospect Street,43402,41.3854412,-83.6490313
216,East Poe Road,43402,41.3853981,-83.6476702
210,East Poe Road,43402,41.3853962,-83.6479742
1040,N. College Drive,43402,41.3881560,-83.6415780
120,State Street,43402,41.3737861,-83.6321542
120,State Street,43402,41.3739432,-83.6321448
211,State Street,43402,41.3725785,-83.6315692
1372,Clough Street,43402,41.3726352,-83.6324630
175,State Street,43402,41.3731059,-83.6314621
151,State Street,43402,41.3732801,-83.6316011
513,Ridge Street,43402,41.3785019,-83.6442782
502,Ridge Street,43402,41.3781748,-83.6441893
347,North Maple Street,43402,41.3784344,-83.6563200
345,North Maple Street,43402,41.3781623,-83.6565560
308,West Wooster Street,43402,41.3752453,-83.6535752
338,West Wooster Street,43402,41.3753787,-83.6546235
324,West Wooster Street,43402,41.3753062,-83.6540186
226,West Wooster Street,43402,41.3752506,-83.6531174
216,West Wooster Street,43402,41.3752334,-83.6527353
210,West Wooster Street,43402,41.3751963,-83.6525360
750,North College Drive,43403,41.3818153,-83.6406925
227,North Prospect Street,43402,41.3768329,-83.6490252
521,North Main Street,43402,41.3802790,-83.6508329
222,West Wooster Street,43402,41.3752432,-83.6529176
133,North Prospect Street,43402,41.3758570,-83.6489325
134,East Court Street,43402,41.3758545,-83.6490422
129,South Main Street,43402,41.3742955,-83.6501348
1275,North Main Street,43402,41.3997178,-83.6515001
241,State Street,43402,41.3719530,-83.6314482
518,West Wooster Street,43402,41.3752954,-83.6568482
502,West Wooster Street,43402,41.3752803,-83.6562921
514,West Wooster Street,43402,41.3752913,-83.6566870
510,West Wooster Street,43402,41.3752973,-83.6564980
430,West Wooster Street,43402,41.3752722,-83.6558763
422,West Wooster Street,43402,41.3752867,-83.6556453
550,West Wooster Street,43402,41.3753264,-83.6579182
540,West Wooster Street,43402,41.3753648,-83.6576039
602,West Wooster Street,43402,41.3753535,-83.6583726
552,West Wooster Street,43402,41.3753484,-83.6580979
614,West Wooster Street,43402,41.3754181,-83.6588861
718,West Wooster Street,43402,41.3753699,-83.6601606
804,West Wooster Street,43402,41.3751850,-83.6606068
838,West Wooster Street,43402,41.3749110,-83.6618827
812,West Wooster Street,43402,41.3751109,-83.6609878
824,West Wooster Street,43402,41.3750530,-83.6614050
702,West Wooster Street,43402,41.3753745,-83.6595509
818,West Wooster Street,43402,41.3750728,-83.6611403
834,West Wooster Street,43402,41.3749807,-83.6617098
630,West Wooster Street,43402,41.3753753,-83.6593514
714,West Wooster Street,43402,41.3754074,-83.6599723
708,West Wooster Street,43402,41.3754031,-83.6597323
622,West Wooster Street,43402,41.3753949,-83.6591154
415,East Court Street,43402,41.3761468,-83.6454851
416,East Court Street,43402,41.3757705,-83.6454463
412,East Court Street,43402,41.3757879,-83.6456216
309,Ridge Street,43402,41.3785455,-83.6469265
714,North Main Street,43402,41.3822473,-83.6502115
910,North Main Street,43402,41.3839715,-83.6501651
824,North Main Street,43402,41.3835434,-83.6501666
905,North Main Street,43402,41.3837487,-83.6508317
816,North Main Street,43402,41.3833144,-83.6502115
823,North Main Street,43402,41.3834708,-83.6507988
822,North Main Street,43402,41.3834360,-83.6502254
801,North Main Street,43402,41.3828118,-83.6507341
807,North Main Street,43402,41.3829428,-83.6507791
811,North Main Street,43402,41.3830757,-83.6507736
817,North Main Street,43402,41.3831975,-83.6507861
821,North Main Street,43402,41.3833245,-83.6507827
802,North Main Street,43402,41.3829245,-83.6502181
810,North Main Street,43402,41.3831620,-83.6501859
808,North Main Street,43402,41.3830401,-83.6501545
620,Flanders Avenue,43402,41.3823397,-83.6723836
909,Klotz Road,43402,41.3608232,-83.6399448
907,Klotz Road,43402,41.3610348,-83.6399454
624,North Main Street,43402,41.3817612,-83.6502110
617,North Main Street,43402,41.3815584,-83.6507830
620,North Main Street,43402,41.3816395,-83.6501746
721,North Main Street,43402,41.3825247,-83.6507413
715,North Main Street,43402,41.3823092,-83.6507533
716,North Main Street,43402,41.3824153,-83.6501961
418,North Main Street,43402,41.3788987,-83.6501277
422,North Main Street,43402,41.3790434,-83.6501698
426,North Main Street,43402,41.3791753,-83.6501966
720,North Main Street,43402,41.3825326,-83.6501820
724,North Main Street,43402,41.3826519,-83.6501639
928,North Main Street,43402,41.3845892,-83.6501846
942,North Main Street,43402,41.3848959,-83.6501745
952,North Main Street,43402,41.3851836,-83.6501885
512,North Main Street,43402,41.3804008,-83.6501620
444,North Main Street,43402,41.3796818,-83.6501700
440,North Main Street,43402,41.3795289,-83.6502066
432,North Main Street,43402,41.3793935,-83.6501651
121,North Prospect Street,43402,41.3755058,-83.6490114
123,North Prospect Street,43402,41.3755823,-83.6490072
115,Ridge Street,43402,41.3785477,-83.6496895
132,Baldwin Avenue,43402,41.3737845,-83.6336794
126,Baldwin Avenue,43402,41.3739950,-83.6336968
905,East Poe Road,43402,41.3861636,-83.6386735
434,East Wooster Street,43402,41.3744798,-83.6448173
307,North Church Street,43402,41.3768783,-83.6523745
309,North Church Street,43402,41.3771517,-83.6522407
315,North Church Street,43402,41.3773635,-83.6523199
100,South Main Street,43402,41.3563559,-83.6480017
132,East Wooster Street,43402,41.3747068,-83.6497366
140,East Wooster Street,43402,41.3747076,-83.6496250
1424,East Wooster Street,43402,41.3742185,-83.6313708
308,North Prospect Street,43402,41.3778154,-83.6485007
412,Ridge Street,43402,41.3781750,-83.6454272
410,Ridge Street,43402,41.3781946,-83.6455760
118,East Oak Street,43402,41.3768211,-83.6494987
223,North Prospect Street,43402,41.3766976,-83.6490236
311,Ridge Street,43402,41.3785345,-83.6467067
319,Ridge Street,43402,41.3785220,-83.6463133
315,Ridge Street,43402,41.3785346,-83.6465138
316,East Merry Avenue,43402,41.3807006,-83.6467926
524,East Wooster Street,43402,41.3744604,-83.6435990
518,East Wooster Street,43402,41.3745034,-83.6437719
522,East Wooster Street,43402,41.3745015,-83.6436892
111,Railroad Street,43402,41.3741994,-83.6440218
323,North Church Street,43402,41.3775218,-83.6522947
331,North Church Street,43402,41.3776720,-83.6522988
330,North Church Street,43402,41.3776211,-83.6518199
134,West Wooster Street,43402,41.3750944,-83.6512260
128,West Wooster Street,43402,41.3750781,-83.6511577
126,West Wooster Street,43402,41.3750769,-83.6511046
160,West Wooster Street,43402,41.3752803,-83.6516405
124,West Wooster Street,43402,41.3750867,-83.6510343
124,West Wooster Street,43402,41.3750867,-83.6510343
1544,East Wooster Street,43402,41.3732174,-83.6257649
739,Conneaut Avenue,43402,41.3785673,-83.6624843
733,Conneaut Avenue,43402,41.3785675,-83.6621589
725,Conneaut Avenue,43402,41.3785483,-83.6615996
318,North Church Street,43402,41.3774721,-83.6516650
313,North Main Street,43402,41.3774590,-83.6513511
520,North Prospect Street,43402,41.3781316,-83.6484770
220,South Mercer Road,43402,41.3715698,-83.6298960
719,Clough Street,43402,41.3733743,-83.6409788
312,Clough Street,43402,41.3729697,-83.6470403
1181,South Main Street,43402,41.3526155,-83.6498857
1121,South Main Street,43402,41.3554221,-83.6497266
137,Leroy Avenue,43402,41.3829848,-83.6489637
215,East Poe Road,43402,41.3873001,-83.6476684
325,Ridge Street,43403,41.3774873,-83.6309755
1330,Brim Road,43402,41.4023442,-83.6637314
1040,North Main Street,43402,41.3884992,-83.6493801
1038,North Main Street,43402,41.3882373,-83.6493335
1358,Bellard Drive,43402,41.4031198,-83.6611527
1450,Clough Street,43402,41.3726107,-83.6305128
323,West Wooster Street,43402,41.3747409,-83.6539697
327,West Wooster Street,43402,41.3747358,-83.6542106
133,Troup Avenue,43402,41.3737144,-83.6417334
137,Troup Avenue,43402,41.3736208,-83.6417707
400,Napoleon Road,43402,41.3629239,-83.6460254
192,Klotz Road,43402,41.3608378,-83.6419892
123,North Summit Street,43402,41.3755144,-83.6477318
120,North Prospect Street,43402,41.3754709,-83.6484786
325,Ridge Street,43403,41.3771012,-83.6310893
507,West Wooster Street,43402,41.3748023,-83.6564875
725,Clough Street,43402,41.3734504,-83.6405295
1135,South Main Street,43402,41.3547444,-83.6480792
421,West Wooster Street,43402,41.3747801,-83.6553822
1002,East Wooster Street,43402,41.3743733,-83.6375282
1,Courthouse Square,43402,41.3768135,-83.6480625
111,West Washington Street,43402-9998,41.3716973,-83.6510162
1021,Klotz Road,43402,41.3588079,-83.6396625
421,Clough Street,43402,41.3732344,-83.6454011
425,Clough Street,43402,41.3732364,-83.6450591
1740,East Gypsy Lane,43402,41.3536502,-83.6178342
1036,North Main Street,43402,41.3880500,-83.6493390
995,South Main Street,43402,41.3599669,-83.6488432
1234,North Main,43402,41.3982217,-83.6466534
1240,North Main Street,43402,41.3984996,-83.6499042
1558,East Wooster Street,43402,41.3739447,-83.6246229
1560,East Wooster Street,43402,41.3739468,-83.6244612
461-473,South Enterprise Street,43402,41.3677819,-83.6459812
816,South Main Street,43402,41.3636259,-83.6513573
818,South Main Street,43402,41.3633801,-83.6513291
854,South Main Street,43402,41.3622258,-83.6513672
852,South Main Street,43402,41.3623175,-83.6513676
1420,East Wooster Street,43402,41.3742169,-83.6314787
1432,East Wooster Street,43402,41.3742192,-83.6312684
806,Ridge Street,43403,41.3772630,-83.6408287
1107,South Main Street,43402,41.3562378,-83.6498273
619,4th Street,43402,41.3687974,-83.6424492
835,Clough Street,43402,41.3731316,-83.6396295
325,Ridge Street,43403,41.3774627,-83.6310138
325,Ridge Street,43403,41.3774624,-83.6309289
325,Ridge Street,43403,41.3774837,-83.6308600
203,North Main Street,43402,41.3761085,-83.6508263
175,North Main Street,43402,41.3760406,-83.6508394
206,North Main Street,43402,41.3761636,-83.6501090
146,North Main Street,43402,41.3756688,-83.6501167
215,East Wooster Street,43402,41.3751402,-83.6485681
215,East Wooster Street,43402,41.3751372,-83.6483839
215,East Wooster Street,43402,41.3751387,-83.6484751
215,East Wooster Street,43402,41.3751303,-83.6479863
215,East Wooster Street,43402,41.3751315,-83.6480740
215,East Wooster Street,43402,41.3751337,-83.6481914
113,Railroad Street,43402,41.3741327,-83.6440254
115,Railroad Street,43402,41.3740736,-83.6440291
115,Railroad Street,43402,41.3740042,-83.6440336
412,East Wooster Street,43402,41.3745914,-83.6455424
241,South Main Street,43402,41.3724974,-83.6501133
225,South Main Street,43402,41.3727632,-83.6501070
715,North Grove Street,43402,41.3816224,-83.6536966
510,East Wooster Street,43402,41.3745131,-83.6441641
1630,East Wooster Street,43402,41.3734569,-83.6205468
1616,East Wooster Street,43402,41.3729750,-83.6231169
639,South Main Street,43402,41.3656916,-83.6501460
120,East Poe Road,43402,41.3854304,-83.6494728
1240,West Wooster Street,43402,41.3730928,-83.6742360
519,Ridge Street,43402,41.3786411,-83.6437061
207,Clough Street,43402,41.3729566,-83.6482464
1302,Brim Road,43402,41.4010258,-83.6639853
760,West Newton Road,43402,41.4013705,-83.6632511
605,Clough Street,43402,41.3731877,-83.6427901
149,Manville Avenue,43402,41.3732982,-83.6429342
1052,West Wooster Street,43402,41.3730441,-83.6700369
1060,West Wooster Street,43402,41.3732217,-83.6703554
228,South Enterprise Street,43402,41.3722495,-83.6463751
320,Clough Street,43402,41.3729496,-83.6466389
250,South College Drive,43402,41.3720871,-83.6392883
217,South College Drive,43402,41.3724014,-83.6387665
914,Clough Street,43402,41.3727848,-83.6382196
404,South College Drive,43402,41.3699856,-83.6393198
527,South College Drive,43402,41.3675818,-83.6388185
125,Baldwin Avenue,43402,41.3739828,-83.6331364
232,Troup Avenue,43402,41.3722085,-83.6422034
240,Troup Avenue,43402,41.3719488,-83.6422365
266,Troup Avenue,43402,41.3711344,-83.6421796
613,4th Street,43402,41.3688005,-83.6428468
455,South Summit Street,43402,41.3685613,-83.6470929
449,South Summit Street,43402,41.3687116,-83.6471113
445,South Summit Street,43402,41.3688197,-83.6470965
462,South Summit Street,43402,41.3681093,-83.6475224
152,Troup Avenue,43402,41.3731911,-83.6424116
447,South Prospect Street,43402,41.3687284,-83.6485873
441,South Prospect Street,43402,41.3688407,-83.6486063
420,Pearl Street,43402,41.3715637,-83.6553802
411,South Summit Street,43402,41.3695913,-83.6470930
425,South Summit Street,43402,41.3693988,-83.6470829
705,Ridge Street,43402,41.3582603,-83.6497424
1111,South Main Street,43402,41.3561447,-83.6479916
907,North Enterprise Street,43402,41.3839196,-83.6464842
903,North Enterprise Street,43402,41.3838166,-83.6464891
125,West Gypsy Lane Road,43402,41.3564030,-83.6530863
305,North Main Street,43402,41.3769808,-83.6509291
313,North Main Street,43402,41.3774578,-83.6510920
519,Ordway Avenue,43402,41.3695656,-83.6571014
315,South College Drive,43402,41.3703780,-83.6380800
1450,East Wooster Street,43402,41.3738585,-83.6308131
1840,East Gypsy Lane Road,43402,41.3554324,-83.6162482
138,North Main Street,43402,41.3755082,-83.6501169
1001,East Wooster Street,43403-0001,41.3835785,-83.6313981
