House number,Street name,Postal code,Latitude,Longitude
1737,Section Road,45216,39.1971031,-84.4584371
3501,Cheviot Avenue,45211,39.1520532,-84.6068126
5818,Madison Road,45227,39.1611207,-84.3934759
2345,Symmes Street,45206,39.1251088,-84.4988936
414,Walnut Street,45202,39.1006371,-84.5109365
171,Pedretti Avenue,45238,39.0806153,-84.6018889
216,East 6th Street,45202,39.1031756,-84.5093860
4579,Hamilton Avenue,45223,39.1727999,-84.5432394
4187,Hamilton Avenue,45223,39.1632077,-84.5401532
21,East 5th Street,45202,39.1008837,-84.5127421
511,Walnut Street,45202,39.1014923,-84.5118525
401,Vine Street,45202,39.1000664,-84.5129052
610,Main Street,45202,39.1032493,-84.5099868
254,East 4th Street,45202,39.1007927,-84.5080187
232,East 6th Street,45202,39.1032770,-84.5088211
4795,Red Bank Road,45227,39.1584934,-84.4063574
3760,Paxton Avenue,45209,39.1446868,-84.4295123
3880,Paxton Avenue,45209,39.1471568,-84.4277955
1071,Celestial Street,45202,39.1065918,-84.4999068
262,Wilmar Avenue,45236,39.1039344,-84.4291729
2701,Spring Grove Avenue,45225,39.1311743,-84.5374443
234,Calhoun Street,45219,39.1280480,-84.5171405
336,Ludlow Avenue,45220,39.1438590,-84.5209075
347,Calhoun Street,45219,39.1284543,-84.5203890
313,Calhoun Street,45219,39.1283843,-84.5188269
101,West Daniels Street,45219,39.1318583,-84.5132829
290,Ludlow Avenue,45220,39.1435640,-84.5190419
325,Ludlow Avenue,45220,39.1435289,-84.5203542
344,Ludlow Avenue,45220,39.1438969,-84.5213215
308,Ludlow Avenue,45220,39.1437241,-84.5196964
324,Ludlow Avenue,45220,39.1437629,-84.5204142
342,Ludlow Avenue,45220,39.1438833,-84.5212440
325,Ludlow Avenue,45220,39.1435269,-84.5203220
307,Ludlow Avenue,45220,39.1434157,-84.5196883
358,Ludlow Avenue,45220,39.1439604,-84.5217548
323,Ludlow Avenue,45220,39.1435172,-84.5202824
354,Ludlow Avenue,45220,39.1439708,-84.5218608
332,Ludlow Avenue,45220,39.1438434,-84.5207295
316,Ludlow Avenue,45220,39.1437096,-84.5200678
314,Ludlow Avenue,45220,39.1436815,-84.5198800
3401,Clifton Avenue,45220,39.1435973,-84.5193262
221,East 4th Street,45202,39.1004150,-84.5082284
1329,Main Street,45202,39.1106983,-84.5121703
110,East Central Parkway,45202,39.1077479,-84.5125170
205,West McMillan Avenue,45219,39.1276983,-84.5196699
201,West McMillan Avenue,45219,39.1276858,-84.5194473
211,West McMillan Avenue,45219,39.1277525,-84.5198725
5555,Glenway Avenue,45238,39.1310775,-84.6106205
4122 A,Hamilton Avenue,45223,39.1609508,-84.5391646
1323,Main Street,45202,39.1104968,-84.5121358
1345,Main Street,45202,39.1110977,-84.5122838
1336,Main Street,45202,39.1108461,-84.5119272
1320,Main Street,45202,39.1104372,-84.5118011
1150,Main Street,45202,39.1091052,-84.5114524
1134,Main Street,45202,39.1088415,-84.5114010
917,Race Street,45202,39.1057408,-84.5160383
4125,Hamilton Avenue,45223,39.1611117,-84.5395467
4163,Hamilton Avenue,45223,39.1624396,-84.5398363
120,East Fourth Street,45202,39.1010009,-84.5106505
1211,Main Street,45202,39.1091768,-84.5117887
151,West 5th Street,45202,39.1006136,-84.5156392
3036,Madison Road,45209,39.1517762,-84.4328744
3040,Madison Road,45209,39.1519091,-84.4324782
580,Walnut Street,45202,39.1027139,-84.5106791
221,East 4th Street,45202,39.1007461,-84.5105457
2604,Backstage Drive,45221,39.1306383,-84.5179474
329,Ludlow Avenue,45220,39.1435581,-84.5205901
3800,Victory Parkway,45207,39.1498980,-84.4746463
2734,Erie Avenue,45208,39.1397961,-84.4419505
4181,Hamilton avenue,45223,39.1630945,-84.5401165
6128,Hamilton avenue,45224,39.2028316,-84.5474681
936,Hatch Street,45202,39.1093778,-84.4976227
1309,Vine Street,45202,39.1098088,-84.5152974
301,East 4th Street,45202,39.0997828,-84.5061464
3181,Linwood Avenue,45208,39.1295181,-84.4305117
208,East 12th Street,45202,39.1093695,-84.5111952
1118,Saint Gregory Street,45202,39.1082855,-84.4975614
4037,Hamilton Avenue,45223,39.1597841,-84.5397121
2704,Erie Avenue,45208,39.1399067,-84.4430163
3500,Michigan Avenue,45208,39.1399733,-84.4415343
1550,Blue Rock Street,45223,39.1605614,-84.5372969
4114,Hamilton Avenue,45223,39.1607388,-84.5391876
4154,Hamilton Avenue,45223,39.1620710,-84.5393787
4156,Hamilton Avenue,45223,39.1621427,-84.5394095
4165,Hamilton Avenue,45223,39.1625064,-84.5398459
4160,Hamilton Avenue,45223,39.1622997,-84.5394779
114,West Elder Street,45202,39.1155542,-84.5189664
1213,Vine Street,45202,39.1086855,-84.5150404
1233,Vine Street,45202,39.1091932,-84.5151517
1201,Vine Street,45202,39.1083869,-84.5149583
1237,Vine Street,45202,39.1093292,-84.5151881
1400,Vine Street,45202,39.1110605,-84.5153401
1342,Vine Street,45202,39.1107110,-84.5152423
1332,Vine Street,45202,39.1105593,-84.5152089
1400,Race Street,45202,39.1104562,-84.5168277
3235,Madison Road,45209,39.1546830,-84.4263395
8428,Vine Street,45216-1132,39.2166761,-84.4732616
2929,Spring Grove Avenue,45225,39.1350269,-84.5386400
161,Joe Nuxhall Way,45202,39.0975783,-84.5090142
175,Joe Nuxhall Way,45202,39.0981570,-84.5091698
2652,Erie Avenue,45208,39.1398852,-84.4435237
2639,Erie Avenue,45208-9998,39.1395052,-84.4439474
2648,Erie Avenue,45208,39.1398731,-84.4437578
2645,Erie Avenue,45208,39.1394613,-84.4434968
2444,Madison Road,45208,39.1404519,-84.4543137
5555,Glenway Avenue,45238,39.1314421,-84.6115656
5555,Glenway Avenue,45238,39.1309928,-84.6101454
1401,Vine Street,45202,39.1106464,-84.5155306
258,Stetson Street,45219,39.1350868,-84.5026857
3500,Michigan Avenue,45208,39.1399207,-84.4415448
3510,Edwards Road,45208,39.1401517,-84.4431313
2030,Madison Road,45208,39.1323703,-84.4616097
1420,Sycamore Street,45202,39.1121594,-84.5105569
1209,Main Street,45202,39.1091041,-84.5118054
2725,Erie Avenue,45208,39.1391939,-84.4423633
2650,Erie Avenue,45208-2017,39.1398563,-84.4435779
2718,Observatory Avenue,45208,39.1377383,-84.4426191
3437,Michigan Avenue,45208-2101,39.1387638,-84.4419315
3500,Michigan Avenue,45208,39.1397282,-84.4415459
1206,Main Street,45202,39.1094671,-84.5115722
1116,Main Street,45202,39.1084135,-84.5112722
1307,Main Street,45202,39.1101447,-84.5120641
1311,Main Street,45202,39.1102042,-84.5120839
1319,Main Street,45202,39.1104336,-84.5121066
1305,Main Street,45202,39.1100948,-84.5120594
1313,Main Street,45202,39.1102648,-84.5120793
1333,Main Street,45202,39.1108189,-84.5122023
1327,Main Street,45202,39.1106478,-84.5121546
1317,Main Street,45202,39.1103645,-84.5121016
1409,Main Street,45202,39.1116374,-84.5124170
1410,Main Street,45202,39.1115202,-84.5120896
1420,Main Street,45202,39.1117814,-84.5121536
1338,Main Street,45202,39.1109291,-84.5119406
2836,Observatory Avenue,45208,39.1372788,-84.4372908
3346,Erie Avenue,45208,39.1416715,-84.4228160
1527,Vine Street,45202,39.1125675,-84.5160061
1601,Race Street,45202,39.1131693,-84.5178698
3195,Linwood Avenue,45208,39.1288464,-84.4305803
3195,Linwood Avenue,45208,39.1286925,-84.4306656
3197,Linwood Avenue,45208,39.1286537,-84.4307027
3181,Linwood Avenue,45208,39.1294807,-84.4305172
1018,Delta Avenue,45208,39.1290320,-84.4299666
345,Ludlow Avenue,45220,39.1436511,-84.5211452
343,Ludlow Avenue,45220,39.1436283,-84.5210442
1001,Vine Street,45202,39.1063932,-84.5144875
174,West McMillan Avenue,45219,39.1279601,-84.5188472
249,Calhoun Street,45219,39.1282591,-84.5172290
345,Calhoun Street,45219,39.1284478,-84.5202654
1600,Main Street,45202,39.1127822,-84.5123712
1602,Main Street,45202,39.1128280,-84.5123658
1606,Main Street,45202,39.1129574,-84.5123766
3646,Edwards Road,45208,39.1442889,-84.4426772
1207,Vine Street,45202,39.1085441,-84.5149999
1209,Vine Street,45202,39.1085867,-84.5150052
2210,Beechmont Avenue,45230,39.0944071,-84.3869533
1326,Vine Street,45202,39.1104111,-84.5151481
1324,Vine Street,45202,39.1101357,-84.5150940
107,East 12th Street,45202,39.1084907,-84.5129353
1216,Vine Street,45202,39.1088747,-84.5147770
1401,Republic Street,45202,39.1105338,-84.5163010
1400,Republic Street,45202,39.1105652,-84.5160429
1403,Vine Street,45202,39.1107167,-84.5155438
1331,Vine Street,45202,39.1104655,-84.5154866
1232,Vine Street,45202,39.1093678,-84.5148915
18,East 13th Street,45202,39.1096754,-84.5143584
2504,Calhoun Street,45219,39.1281020,-84.5189750
1220,Vine Street,45202,39.1090279,-84.5148029
1214,Vine Street,45202,39.1088047,-84.5147634
1300,Main Street,45202,39.1099213,-84.5116711
1218,Vine Street,45202,39.1089378,-84.5147913
1227,Vine Street,45202,39.1091160,-84.5151329
1200,Broadway Street,45202,39.1097757,-84.5082760
1113,Vine Street,45202,39.1076464,-84.5147940
1407,Vine Street,45202,39.1108190,-84.5155582
1426,Race Street,45202,39.1110795,-84.5170022
1607,Race Street,45202,39.1133041,-84.5178510
3200,Madison Road,45209,39.1549647,-84.4273959
3014,Madison Road,45209,39.1511233,-84.4338763
6104,Montgomery Road,45213,39.1822152,-84.4268544
3806,Paxton Avenue,45209,39.1462585,-84.4287118
3786,Paxton Road,45209,39.1459078,-84.4291008
3435,Michigan Avenue,45208-2101,39.1387176,-84.4419998
3449,Michigan Avenue,45208,39.1389787,-84.4419099
3439,Michigan Avenue,45208,39.1389729,-84.4420199
3433,Michigan Avenue,45208,39.1386538,-84.4420191
2730,Observatory Avenue,45208,39.1376746,-84.4420550
2730,Observatory Avenue,45208,39.1377432,-84.4420496
2730,Observatory Avenue,45208,39.1376839,-84.4421180
2730,Observatory Avenue,45208,39.1377484,-84.4421126
1350,Michigan Avenue,45208,39.1373532,-84.4417830
128,West McMillan Avenue,45219,39.1278167,-84.5170242
358,Wilmer Avenue,45226,39.1052568,-84.4277916
286,Ludlow Avenue,45220,39.1434995,-84.5189149
100,West 5th Street,45202,39.1016823,-84.5151244
3754,Beechmont Court,45226,39.1191633,-84.4145476
1330,Monmouth Street,45225,39.1435390,-84.5398550
11,E 7th St,45202,39.1036172,-84.5131858
643,Vine Street,45202,39.1035148,-84.5137986
151,Goodman Drive,45219,39.1368843,-84.5070383
1427,Main Street,45202,39.1121140,-84.5125342
338,Ludlow Avenue,45220,39.1438283,-84.5209110
1130,Broadway Street,45202,39.1096285,-84.5082894
3300,Spring Grove Avenue,45225,39.1446202,-84.5412439
119,E 12th Street,45202,39.1085390,-84.5124497
4920,Glenway Avenue,45238,39.1190395,-84.5993255
4990,Glenway Avenue,45238,39.1214412,-84.6009399
5000,Glenway Avenue,45238,39.1219395,-84.6012773
111,East 12th Street,45202,39.1085275,-84.5126641
1405,Clay Street,45202,39.1113753,-84.5131298
4905,Charlemar Drive,45227,39.1588960,-84.4107192
4747,Beechmont Circle,45226,39.1190614,-84.4155995
4749,Beechmont Circle,45226,39.1190464,-84.4155660
161,East Freedom Way,45202,39.0971190,-84.5096574
3301,Madison Road,45209,39.1563247,-84.4239769
580,Walnut Street,45202,39.1024478,-84.5110963
2637,Erie Avenue,45208,39.1395071,-84.4440150
3520,Edwards Road,45208,39.1404263,-84.4429579
3516,Edwards Road,45208,39.1402890,-84.4430424
16,West Freedom Way,45202,39.0970715,-84.5121669
2845,Vine Street,45219,39.1322978,-84.5095305
650,Walnut Street,45202,39.1038374,-84.5116431
6095,Montgomery Road,45213,39.1822755,-84.4276285
3664,Edwards Road,45208,39.1442658,-84.4420275
2724b,Erie Avenue,45208,39.1398268,-84.4421881
3538,Columbia Parkway,45226,39.1166398,-84.4375273
3543,Columbia Parkway,45226,39.1155295,-84.4375951
3500,Eastern Avenue,45226,39.1165486,-84.4395243
545,Race Street,45202,39.1015708,-84.5151056
501,Race Street,45202,39.1011461,-84.5149044
1313,Vine Street,45202,39.1099900,-84.5153573
3922,Edwards Road,45209,39.1507579,-84.4421107
1500,Race Street,45202,39.1116475,-84.5170692
3506,Erie Avenue,45208,39.1412917,-84.4188516
3514,Erie Avenue,45208,39.1413027,-84.4185642
1000,Broadway Street,45202,39.1084316,-84.5060795
2737,Madison Road,45208,39.1454590,-84.4413099
2715,Madison Road,45208,39.1450763,-84.4420019
4100,Hamilton Avenue,45223,39.1602043,-84.5391940
3929,Spring Grove Avenue,45223,39.1578050,-84.5401995
1632,Hoffner Street,45223,39.1588356,-84.5412443
278,Ludlow Avenue,45220,39.1434283,-84.5184721
272,Ludlow Avenue,45220,39.1433265,-84.5183391
268,Ludlow Avenue,45220,39.1432328,-84.5180928
270,Ludlow Avenue,45220,39.1432867,-84.5182710
371,Ludlow Avenue,45220,39.1438156,-84.5223362
369,Ludlow Avenue,45220,39.1437898,-84.5221370
404,Ludlow Avenue,45220,39.1441364,-84.5227372
341,Ludlow Avenue,45220,39.1436265,-84.5209711
337,Ludlow Avenue,45220,39.1436230,-84.5208648
364,Ludlow Avenue,45220,39.1439924,-84.5219967
339,Ludlow Avenue,45220,39.1436265,-84.5209228
326,Ludlow Avenue,45220,39.1437697,-84.5204767
116,E 13th Street,45202,39.1099355,-84.5125759
1233,Clay Street,45202,39.1096956,-84.5127973
1218,Main Street,45202,39.1097373,-84.5115810
114,E 13th Street,45202,39.1098910,-84.5127648
1205,Elm Street,45202,39.1079187,-84.5182411
1100,Race Street,45202,39.1072111,-84.5159922
1106,Race Street,45202,39.1073834,-84.5160522
1110,Race Street,45202,39.1074595,-84.5160687
1325,Vine Street,45202,39.1102483,-84.5154180
1321,Vine Street,45202,39.1101652,-84.5153986
2135,Dana Avenue,45207,39.1454214,-84.4599286
4831,Spring Grove Avenue,45232,39.1681213,-84.5127071
4424,W Mitchell Avenue,45232,39.1673957,-84.5133517
4460,W Mitchell Avenue,45232,39.1690906,-84.5134434
3651,Vine Street,45220,39.1502369,-84.5109498
2062,Riverside Drive,45202,39.1217775,-84.4751191
41,East 6th Street,45202,39.1024091,-84.5119087
700,Race Street,45202,39.1036003,-84.5151206
580,Walnut Street,45202,39.1025685,-84.5114530
3543,Columbia Parkway,45229,39.1155295,-84.4377023
1408,Main Street,45202,39.1114630,-84.5120778
3215,Jefferson Avenue,45220,39.1386398,-84.5123034
414,Central Avenue,45202,39.0995473,-84.5189960
403,Oregon Street,45202,39.1060896,-84.5010581
640,Main Street,45202,39.1039354,-84.5100858
627,Main Street,45202,39.1036482,-84.5104560
709,Main Street,45202,39.1043198,-84.5106674
100,East 8th Street,45202,39.1048591,-84.5120760
1910,Elm Street,45202,39.1168636,-84.5199853
1801,Elm Street,45202,39.1152549,-84.5201448
1814,Race Street,45202,39.1159412,-84.5181743
3701,Montgomery Road,45207,39.1467085,-84.4678426
1926,Dunlap Street,45202,39.1172029,-84.5211766
3384,Erie Avenue,45208,39.1415077,-84.4210608
3816,Paxton Avenue,45209,39.1461703,-84.4279859
2733,Madison Road,45208,39.1453264,-84.4415415
3212a,Madison Road,45209,39.1552799,-84.4269883
3210,Madison Road,45209,39.1551468,-84.4272118
4176,Hamilton Avenue,45223,39.1630344,-84.5396173
1036,Delta Avenue,45208,39.1297005,-84.4293832
2437,Gilbert Avenue,45206,39.1253435,-84.4909502
2942,Wasson Road,45209,39.1445632,-84.4337331
"2912, 2328",Wasson Road,45209,39.1445456,-84.4349200
2910,Wasson Road,45209,39.1445560,-84.4350567
2900,Wasson Road,45209,39.1445352,-84.4354027
5070,Crookshank Road,45238,39.1281825,-84.6081688
5120,Crookshank Road,45238,39.1283698,-84.6095797
4011,Allston Street,45209,39.1520441,-84.4330775
3059,Madison Road,45209,39.1518389,-84.4319005
3235,Madison Road,45209,39.1546832,-84.4261936
3355,Madison Road,45209,39.1569586,-84.4230983
3510,Erie Avenue,45208,39.1412901,-84.4187775
1028,Delta Avenue,45208,39.1293811,-84.4297220
3210,Linwood Avenue,45208,39.1282003,-84.4299379
1004,Delta Avenue,45208,39.1285573,-84.4300762
1000,Delta Avenue,45208,39.1284707,-84.4300841
3209,Linwood Avenue,45208,39.1280043,-84.4303502
3200,Linwood Avenue,45208,39.1283620,-84.4299711
3166,Linwood Avenue,45208,39.1302002,-84.4301602
2826,Short Vine Street,45219,39.1325602,-84.5089690
2801,Short Vine Street,45219,39.1320286,-84.5095617
2733,Short Vine Street,45219,39.1314476,-84.5095520
13,West Charlton Street,45219,39.1302861,-84.5101546
2634,Vine Street,45219,39.1302396,-84.5092919
2618,Vine Street,45219,39.1298388,-84.5093338
2608,Vine Street,45219,39.1294972,-84.5093385
2607,Vine Street,45219,39.1294520,-84.5097942
2601,Vine Street,45219,39.1293332,-84.5098461
6,West Corry Street,45219,39.1292925,-84.5098468
2605,Vine Street,45219,39.1293876,-84.5098021
2912,Vine Street,45219,39.1334446,-84.5089322
10,West 7th Street,45202,39.1037284,-84.5141712
35,West 5th Street,45202,39.1008550,-84.5143692
35,West 5th Street,45202,39.1008807,-84.5142801
441,Vine Street,45202,39.1009500,-84.5130975
101,East Freedom Way,45202,39.0969657,-84.5099891
100,East Freedom Way,45202,39.0974081,-84.5101335
160,East Freedom Way,45202,39.0975053,-84.5096138
191,East Freedom Way,45202,39.0971760,-84.5093324
24,West 3rd Street,45202,39.0988026,-84.5134409
25,West Ogden Place,45202,39.0992003,-84.5135462
975,East McMillan Street,45206,39.1256798,-84.4881857
965,East McMillan Street,45206,39.1257024,-84.4884843
29,East 12th Street,45202,39.1083881,-84.5135842
6227,Montgomery Road,45213,39.1840681,-84.4242499
6111,Montgomery Road,45213,39.1825774,-84.4268248
6083,Montgomery Road,45213,39.1821803,-84.4280452
6032,Montgomery Road,45213,39.1812675,-84.4300918
6063,Montgomery Road,45213,39.1819287,-84.4288687
32,West Court Street,45202,39.1062724,-84.5153353
1000,Elm Street,45202,39.1059487,-84.5173684
525,Race Street,45202,39.1018325,-84.5151463
5207,Madison Road,45227,39.1611376,-84.4053928
4042,Hamilton Avenue,45223,39.1598123,-84.5392119
4124,Hamilton Avenue,45223,39.1610007,-84.5392262
4029,Hamilton Avenue,45223,39.1595149,-84.5396759
3936,Spring Grove Avenue,45223,39.1577013,-84.5397430
3934,Spring Grove Avenue,45223,39.1576722,-84.5398744
3937,Spring Grove Avenue,45223,39.1577616,-84.5396625
609,Walnut Street,45202,39.1030210,-84.5120077
1346,Main Street,45202,39.1111104,-84.5119874
580,Walnut Street,45202,39.1025992,-84.5113300
1131,Broadway Street,45202,39.1095478,-84.5084924
3010,Madison Road,45209,39.1510631,-84.4340297
3217,Madison Road,45208,39.1321432,-84.4631399
2733,Woodburn Avenue,45206,39.1288177,-84.4775453
1544,Madison Road,45206,39.1299787,-84.4769793
2800,Woodburn Avenue,45206,39.1289592,-84.4768398
118,West 15th Street,45202,39.1114756,-84.5181715
1205,Elm Street,45202,39.1079009,-84.5181780
214,East 6th Street,45202,39.1031499,-84.5095233
701,Broadway Street,45202,39.1050744,-84.5073487
5209,Glenway Avenue,45238,39.1237338,-84.6030327
210,West 14th Street,45202,39.1101737,-84.5192065
3531,Columbia Parkway,45226,39.1157361,-84.4381687
812,Race Street,45202,39.1049754,-84.5153086
1526,Madison Road,45206,39.1299164,-84.4777696
2835,Woodburn Avenue,45206,39.1298903,-84.4769724
575,Race Street,45202,39.1019787,-84.5151776
15,West 14th Street,45202,39.1103960,-84.5162658
18,West 13th Street,45202,39.1094369,-84.5160001
8,East 4th Street,45202,39.1002230,-84.5124206
435,Elm Street,45202,39.1002407,-84.5163334
1211,Main Street,45202,39.1091979,-84.5117929
2328,Florence Avenue,45206,39.1183800,-84.4986527
250,East 5th Street,45202,39.1020541,-84.5086788
3000,Reading Road,45229,39.1330146,-84.4968416
1047,East McMillan Street,45206,39.1255358,-84.4864210
1210,Main Street,45202,39.1095919,-84.5116089
101,West Central Parkway,45202,39.1066153,-84.5162388
7703,Montgomery Road,45236,39.1442914,-84.4697801
3673,Paxton Avenue,45208,39.1441441,-84.4336935
615,Elsinore Place,45202,39.1127477,-84.5020936
1509,Race Street,45202,39.1117533,-84.5174664
3402,Glenmore Avenue,45211,39.1494892,-84.6125850
3210,Jefferson Avenue,45220,39.1387725,-84.5120073
4729,Red Bank Road,45227,39.1588730,-84.4041405
4790,Red Bank Road,45227,39.1584001,-84.4054777
617,Vine Street,45202,39.1029406,-84.5136341
356,Ludlow Avenue,45220,39.1442454,-84.5217294
362,Ludlow Avenue,45220,39.1439980,-84.5220450
2721,Erie Avenue,45208,39.1392801,-84.4423240
9,East Seymour Avenue,45216,39.1943152,-84.4798558
311,Elm Street,45202,39.0985800,-84.5160886
4140,Hamilton Avenue,48223,39.1616443,-84.5392292
2041,Madison Road,45208,39.1320724,-84.4613561
2940,Highland Avenue,45212,39.1687824,-84.4336261
1536,Race Street,45202,39.1127410,-84.5174071
1203,Main Street,45202,39.1089580,-84.5117736
1200,Main Street,45202,39.1092872,-84.5114310
2014,Elm Street,45202,39.1180358,-84.5203284
2014,Elm Street,45202,39.1181138,-84.5203494
131,West Elder Street,45202,39.1150136,-84.5195291
111,West McMicken Avenue,45202,39.1182007,-84.5195652
107,West Elder Street,45202,39.1151650,-84.5185538
1132,Race Street,45202,39.1079839,-84.5162554
1200,Race Street,45202,39.1081999,-84.5162648
300,East 7th Street,45202,39.1045878,-84.5086748
1218,Broadway Street,45202,39.1102298,-84.5084009
331,East 13th Street,45202,39.1102017,-84.5086476
1211,Broadway Street,45202,39.1100315,-84.5085652
1727,Logan Street,45202,39.1146980,-84.5209826
1438,Race Street,45202,39.1114435,-84.5170181
220,West 12th Street,45202,39.1077870,-84.5189862
1401,Walnut Street,45202,39.1112457,-84.5139988
1819,Elm Street,45202,39.1157812,-84.5201930
1822,Campbell Alley,45202,39.1158020,-84.5204988
227,Stark Street,45202,39.1186224,-84.5223385
12057,Sheraton Lane,45246,39.1281777,-84.6082675
237,Calhoun Street,45219,39.1279281,-84.5168697
125,East Court Street,45202,39.1063685,-84.5116958
222,Calhoun Street,45219,39.1284714,-84.5159897
216,Calhoun Street,45219,39.1284700,-84.5157169
200,Calhoun Street,45219,39.1283632,-84.5147499
120,Calhoun Street,45219,39.1283364,-84.5140794
165,West McMillan Avenue,45219,39.1276811,-84.5184925
349,Calhoun Street,45219,39.1284665,-84.5205142
170,West McMillan Avenue,45219,39.1278933,-84.5180392
204,West McMillan Avenue,45219,39.1279968,-84.5195895
208,West McMillan Avenue,45219,39.1280103,-84.5196954
212,West McMillan Avenue,45219,39.1280187,-84.5197920
144,West McMillan Avenue,45219,39.1278517,-84.5175778
140,West McMillan Avenue,45219,39.1278454,-84.5174437
209,West McMillan Avenue,45219,39.1277312,-84.5197501
165,West McMillan Avenue,45219,39.1276826,-84.5190919
1437,Vine Street,45202,39.1116005,-84.5157710
235,West McMillan Avenue,45219,39.1278323,-84.5207741
251,Calhoun Street,45219,39.1282704,-84.5174970
1115,Straight Street,45214,39.1304368,-84.5352814
2911,Woodside Drive,45221,39.1339418,-84.5155713
2906,Woodside Drive,45221,39.1335915,-84.5141905
425,Walnut Street,45202,39.1006993,-84.5130369
1,Fountain Square Plaza,45202,39.1019407,-84.5129173
301,East 3rd Street,45202,39.0996862,-84.5071204
28,West Freedom Way,45202,39.0970200,-84.5128640
121,East Freedom Way,45202,39.0974321,-84.5098602
195,East Freedom Way,45202,39.0972499,-84.5088761
51,West Corry Street,45221,39.1291562,-84.5124404
2701,Bearcat Way,45221,39.1319006,-84.5174611
600,Vine Street,45202,39.1027341,-84.5127648
713,Vine Street,45202,39.1041273,-84.5138771
133,West Elder Street,45202,39.1150082,-84.5196049
135,West Elder Street,45202,39.1149997,-84.5196725
100,West Elder Street,45202,39.1156160,-84.5185242
4609,Kellogg Avenue,45226,39.0858701,-84.4291896
1000,Sycamore Street,45202,39.1064519,-84.5085307
512,East 13th Street,45202,39.1107988,-84.5063638
512,East 13th Street,45202,39.1108748,-84.5063786
1800,Race Street,45202,39.1155861,-84.5180901
1201,Broadway Street,45202,39.1097396,-84.5085414
335,Calhoun Street,45219,39.1284039,-84.5198569
22,East 14th Street,45202,39.1111585,-84.5145564
1828,Race Street,45202,39.1163979,-84.5183407
1834,Race Street,45202,39.1165289,-84.5183081
1826,Race Street,45202,39.1164608,-84.5183409
1324,Main Street,45202,39.1106332,-84.5118553
511,Walnut Street,45202,39.1015237,-84.5117125
100,East Court Street,45202,39.1067620,-84.5122832
100,East Court Street,45202,39.1069929,-84.5125440
39,East 13th Street,45202,39.1095768,-84.5135779
1339,Walnut Street,45202,39.1107456,-84.5138609
1355,Walnut St,45202,39.1110378,-84.5139470
446,Morgan Street,45206,39.1251652,-84.4996090
221,East 4th Street,45202,39.1002825,-84.5081361
221,East 4th Street,45202,39.1000369,-84.5080824
171,East Freedom Way,45202,39.0971371,-84.5094834
28,West 4th,45202,39.0999503,-84.5136008
425,Walnut Street,45202,39.1007320,-84.5118826
3329,Vandercar Way,45209,39.1579142,-84.4242368
308,Reading Road,45202,39.1086694,-84.5092604
1123,Sycamore Street,45202,39.1084868,-84.5100283
1208,Main Street,45202,39.1095538,-84.5116000
1200,Main Street,45202,39.1092916,-84.5115374
898,Walnut Street,45202,39.1053990,-84.5121929
14,East 4th Street,45202,39.1001802,-84.5121535
441,Vine Street,45202,39.1010521,-84.5131459
1133,Clifton Hills Avenue,45220-1405,39.1458794,-84.5359143
112,W 15th Street,45202,39.1115118,-84.5180160
1109,Vine Street,45202,39.1075417,-84.5150809
20,East Central Parkway,45202,39.1075303,-84.5136145
2417,Gilbert Avenue,45206,39.1248997,-84.4911441
2429,Gilbert Avenue,45206,39.1252224,-84.4909985
975,East McMillan Street,45206,39.1256723,-84.4880645
648,East McMillan Street,45206,39.1264185,-84.4960569
650,East McMillan Street,45206,39.1264226,-84.4959628
212,East 8th Street,45202,39.1052320,-84.5099931
214,East 8th Street,45202,39.1052413,-84.5099052
212,East 8th Street,45202,39.1051098,-84.5099774
214,East 8th Street,45202,39.1051275,-84.5098571
721,Main Street,45202,39.1047607,-84.5108212
3321,Alamo Avenue,45209,39.1613122,-84.4227803
705,East McMillan Street,45206,39.1261105,-84.4948066
705,East McMillan Street,45206,39.1261112,-84.4947367
711,East McMillan Street,45206,39.1260946,-84.4945731
918,East McMillan Street,45206,39.1260609,-84.4897364
660,East McMillan Street,45206,39.1263988,-84.4954293
1005,East McMillan Street,45206,39.1256319,-84.4876267
1006,East McMillan Street,45206,39.1258748,-84.4876224
1000,East McMillan Street,45206,39.1258816,-84.4877568
1010,East McMillan Street,45206,39.1258665,-84.4875386
1012,East McMillan Street,45206,39.1258574,-84.4874549
1014,East McMillan Street,45206,39.1258584,-84.4873654
1016,East McMillan Street,45206,39.1258525,-84.4872835
1022,East McMillan Street,45206,39.1258455,-84.4871580
2124,Madison Road,45208,39.1330297,-84.4599996
801,Mount Hope Avenue,45204,39.1056320,-84.5581349
4016,Allston Street,45209,39.1522439,-84.4329297
3493,Burnet Avenue,45229,39.1447738,-84.5001386
237,East McMillan Street,45206,39.1260145,-84.4933380
231,East McMillan Street,45206,39.1260344,-84.4935199
735,East McMillan Street,45206,39.1260284,-84.4933970
772,East McMillan Street,45206,39.1261317,-84.4918193
212,West 8th Street,45202,39.1042640,-84.5176694
698,Wilmer Avenue,45226,39.1147391,-84.4170241
410,Race Street,45202,39.1000884,-84.5142625
700,Elm Street,45202,39.1034090,-84.5167281
28,West 4th Street,45202,39.0998524,-84.5138500
418,Race Street,45202,39.1003803,-84.5143364
601,Elm Street,45202,39.1023957,-84.5168161
2307,West 8th Street,45204,39.1051938,-84.5536134
5045,Wooden Shoe Lane,45232,39.1842137,-84.5190693
4021,Eastern Avenue,45226,39.1088137,-84.4325651
4015,Eastern Avenue,45226,39.1089436,-84.4326928
4015,Eastern Avenue,45226,39.1089665,-84.4327381
126,East 13th Street,45202,39.1099952,-84.5122497
1208,Sycamore Street,45202,39.1097371,-84.5099205
1210,Sycamore Street,45202,39.1098099,-84.5099860
1212,Sycamore Street,45202,39.1098843,-84.5100062
1218,Sycamore Street,45202,39.1100076,-84.5100283
1209,Sycamore Street,45202,39.1097403,-84.5104286
16,East 13th Street,45202,39.1096739,-84.5144156
117,East 12th Street,45202,39.1085148,-84.5125564
56,East 12th Street,45202,39.1086519,-84.5134046
109,East 12th Street,45202,39.1085022,-84.5127378
3018,Harrison Avenue,45211,39.1486808,-84.5981403
3022,Harrison Avenue,45211,39.1487525,-84.5982141
3034,Harrison Avenue,45211,39.1489274,-84.5983980
3016,Harrison Avenue,45211,39.1484518,-84.5979980
2998,Harrison Avenue,45211,39.1481456,-84.5977401
2651,Observatory Avenue,45208,39.1374429,-84.4437093
2651,Observatory Avenue,45208,39.1372385,-84.4437055
3153,Madison Road,45209,39.1538611,-84.4285426
141,West McMillan Avenue,45219,39.1274265,-84.5174262
3208,Vandercar Way,45209,39.1585424,-84.4274175
3161,Madison Road,45209,39.1540347,-84.4280930
3363,Madison Road,45209,39.1572927,-84.4229565
2519,Burnet Avenue,45219,39.1276082,-84.5020918
2600,Clifton Avenue,45221,39.1318365,-84.5174689
2701,Bearcat Way,45221,39.1316445,-84.5174922
4212,Airport Road,45226,39.1076738,-84.4320148
2161,Grandin Road,45208,39.1290237,-84.4602310
1432,Vine Street,45202,39.1118381,-84.5155277
200,West 4th Street,45202,39.0995901,-84.5161377
700,Walnut Street,45202,39.1041991,-84.5118092
3701,Montgomery Road,45207,39.1465736,-84.4679176
898,Walnut Street,45202,39.1054582,-84.5122117
1314,Republic Street,45202,39.1098028,-84.5158879
5905,Hamilton Avenue,45224,39.1990214,-84.5470084
5915,Hamilton Avenue,45224,39.1991500,-84.5470881
5917,Hamilton Avenue,45224,39.1992805,-84.5471564
5903,Hamilton Avenue,45224,39.1988791,-84.5470007
1608,Cedar Avenue,45224,39.1988573,-84.5472103
5932,Hamilton Avenue,45224,39.1999416,-84.5470855
5930,Hamilton Avenue,45224,39.1998223,-84.5469847
5924,Hamilton Avenue,45224,39.1997587,-84.5469953
5922,Hamilton Avenue,45224,39.1995828,-84.5468513
5837,Hamilton Avenue,45224,39.1981775,-84.5473816
5851,Hamilton Avenue,45224,39.1986045,-84.5468448
5841,Hamilton Avenue,45224,39.1983381,-84.5466955
5854,Hamilton Avenue,45224,39.1985895,-84.5463880
5846,Hamilton Avenue,45224,39.1984030,-84.5462998
5842,Hamilton Avenue,45224,39.1982228,-84.5461843
5830,Hamilton Avenue,45224,39.1979549,-84.5460320
244,Southern Avenue,45219,39.1204273,-84.5070113
3044,Harrison Avenue,45211,39.1496015,-84.5988430
3122,Harrison Avenue,45211,39.1512950,-84.6005573
3077,Harrison Avenue,45211,39.1500842,-84.5999344
1612,Cedar Avenue,45224,39.1988667,-84.5472956
2245,Gilbert Avenue,45206,39.1223128,-84.4929294
3235,Madison Road,45209,39.1546958,-84.4266769
4998,Glenway Avenue,45238,39.1216972,-84.6012355
7760,Reading Road,45237,39.2030398,-84.4548188
400,New Street,45202,39.1044746,-84.5067161
5935,Ridge Road,45213,39.1803434,-84.4275973
3231,Bishop St,45220,39.1392808,-84.5137360
101,West Elder Street,45202,39.1152068,-84.5183460
1379,Elm Street,45202,39.1150168,-84.5199741
3601,Columbia Parkway,45226,39.1144258,-84.4361255
3601,Columbia Parkway,45226,39.1146797,-84.4362288
124,East Galbraith Road,45216,39.2125834,-84.4687444
124,East Galbraith Road,45216,39.2125501,-84.4684722
3505,Michigan Avenue,45208,39.1399875,-84.4418214
3443,Edwards Road,45208,39.1388428,-84.4435668
2801,Woodburn Avenue,45206,39.1290299,-84.4772858
2716,Erie Avenue,45208,39.1398462,-84.4424689
6100,Glenway Avenue,45211,39.1448894,-84.6200144
4825,Marburg Avenue,45209,39.1618243,-84.4252914
1014,Vine Street,45202,39.1067183,-84.5138995
3,East 4th Street,45202,39.0998000,-84.5119363
35,East 13th Street,45202,39.1095682,-84.5136522
56,East Court Street,45202,39.1066933,-84.5129005
121,East Court Street,45202,39.1063841,-84.5119544
1150,Vine Street,45202,39.1081941,-84.5145754
1501,Vine Street,45202,39.1118450,-84.5158294
7,West 7th Street,45202,39.1034242,-84.5145492
132,West 7th Street,45202,39.1033977,-84.5163363
125,East 9th Street,45202,39.1056774,-84.5112418
4800,Kennedy Avenue,45209,39.1612011,-84.4184665
3939,Red Bank Road,45227,39.1463083,-84.4052462
1102,Egan Hills Drive,45229,39.1643935,-84.4803334
2637,Erie Avenue,45208,39.1394665,-84.4440523
2637,Erie Avenue,45208,39.1394753,-84.4440315
2637,Erie Avenue,45208,39.1394857,-84.4440503
3451,Edwards Road,45208,39.1392997,-84.4434831
3438,Edwards Road,45208,39.1390437,-84.4432263
3443,Edwards Road,45208,39.1391309,-84.4435114
3443,Edwards Road,45208,39.1389772,-84.4436083
3433,Edwards Road,45208,39.1389451,-84.4435299
3431,Edwards Road,45208,39.1389088,-84.4435364
2200,Victory Pkwy,45206,39.1203621,-84.4870281
25,Race Street,45202,39.0953702,-84.5136698
1677,Blue Rock Street,45223,39.1603986,-84.5432227
2446,Kipling Avenue,45239,39.2043077,-84.5716399
2155,Dana Avenue,45207,39.1447609,-84.4590688
120,West 7th Street,45202,39.1034301,-84.5159980
4944,Gray Road,45232,39.1822512,-84.5267975
1126,Main Street,45202,39.1086026,-84.5113472
1106,Bates Avenue,45225-1399,39.1410126,-84.5329275
3975,Erie Avenue,45208,39.1495827,-84.4064745
1014,Vine Street,45202,39.1065670,-84.5138352
32,East 13th Street,45202,39.1097455,-84.5139256
5015,Glenway Avenue,45238-3903,39.1220471,-84.6021345
5119,Glenway Avenue,45238,39.1231125,-84.6028211
2310,Ferguson Road,45238,39.1265250,-84.5973387
5555,Glenway Avenue,45238,39.1310650,-84.6103340
5615,Glenway Avenue,45238,39.1317256,-84.6116375
5555,Glenway Avenue,45238,39.1312076,-84.6110515
5991,Glenway Avenue,45238,39.1410030,-84.6184012
6011,Glenway Avenue,45211,39.1415716,-84.6187795
6243,Glenway Avenue,45211,39.1450056,-84.6243963
201,East 5th Street,45202,39.1014378,-84.5092502
3812,Paxton Avenue,45209-2399,39.1461833,-84.4281699
3822,Paxton Avenue,45209,39.1461542,-84.4277564
3751,Eastern Avenue,45226,39.1116887,-84.4359988
1005,Walnut Street,45202,39.1068115,-84.5131478
720,Sycamore Street,45202,39.1050288,-84.5087295
1810,Logan Street,45202,39.1155076,-84.5206060
1530,John Street,45214,39.1119994,-84.5238540
5729,Glenway Avenue,45238,39.1350855,-84.6129414
4919,Whetsel Avenue,45227,39.1604355,-84.3935193
550,Main Street,45202-3222,39.1028580,-84.5093446
5201,Delhi Road,45238,39.1310375,-84.6103996
6225,Glenway Avenue,45211,39.1446290,-84.6239150
6180,Glenway Avenue,45211,39.1447147,-84.6218101
1836,Seymour Avenue,45237,39.1904922,-84.4600599
8240,Vine Street,45216,39.2109601,-84.4740147
2040,Beechmont Avenue,45230,39.0910615,-84.3857409
2244,Beechmont Avenue,45230,39.0958767,-84.3869668
3945,Red Bank Road,45227,39.1472512,-84.4051433
4820,Ridge Avenue,45209,39.1618242,-84.4203026
2700,Madison Road,45209,39.1463060,-84.4422620
2700,Madison Road,45209,39.1463220,-84.4423930
295,East Martin Luther King Jr Drive,45219,39.1350926,-84.5028622
2707,Vine Street,45219,39.1306667,-84.5097529
901,West 8th Street,45203,39.1029508,-84.5303211
3410,Telford Street,45220,39.1440840,-84.5204170
4231,Spring Grove Avenue,45223,39.1598168,-84.5325436
4108,Hamilton Avenue,45223,39.1604792,-84.5392267
1301,Vine Street,45202,39.1096347,-84.5152782
1201,Main Street,45202,39.1088842,-84.5117425
44,East 6th Street,45202,39.1028292,-84.5121375
1409,Vine Street,45202,39.1108639,-84.5155766
1411,Vine Street,45202,39.1109257,-84.5155928
1413,Vine Street,45202,39.1109824,-84.5156083
1417,Vine Street,45202,39.1110873,-84.5156368
1419,Vine Street,45202,39.1111317,-84.5156460
1421,Vine Street,45202,39.1111854,-84.5156573
1344,Vine Street,45202,39.1108814,-84.5152694
52,East Court Street,45202,39.1066784,-84.5130221
40,East Court Street,45202,39.1066359,-84.5133300
1423,Vine Street,45202,39.1112490,-84.5156791
1425,Vine Street,45202,39.1113194,-84.5156970
1429,Vine Street,45202,39.1113897,-84.5157135
1433,Vine Street,45202,39.1114568,-84.5157293
1435,Vine Street,45202,39.1115201,-84.5157469
6,West 14th Street,45202,39.1106066,-84.5157199
1235,Vine Street,45202,39.1092684,-84.5151666
1505,Vine Street,45202,39.1119347,-84.5158452
3808,Paxton Avenue,45209,39.1462303,-84.4284659
3802,Paxton Avenue,45209,39.1462133,-84.4288980
3802,Paxton Avenue,45209,39.1461737,-84.4289850
3880,Paxton Avenue,45209,39.1470426,-84.4268095
3880,Paxton Avenue,45209,39.1470698,-84.4269932
3872,Paxton Avenue,45209,39.1469145,-84.4250514
1410,Central Parkway,45202,39.1103833,-84.5199998
1508,John Street,45214,39.1111042,-84.5233453
1425B,Linn Street,45214,39.1111288,-84.5286226
1133,Vine Street,45202,39.1081838,-84.5148907
4907,Eastern Avenue,45208,39.1237641,-84.4143246
1406,Elm Street,45202,39.1103759,-84.5185058
1408,Elm Street,45202,39.1104396,-84.5185269
1400,Elm Street,45202,39.1102305,-84.5184686
1331,Main Street,45202,39.1107626,-84.5121834
1425,Main Street,45202,39.1120438,-84.5125200
1519,Vine Street,45202,39.1123392,-84.5159372
1524,Republic Street,45202,39.1123939,-84.5164852
1526,Republic Street,45202,39.1124441,-84.5164962
301,Milton Street,45202,39.1134161,-84.5106796
1542,Pleasant Street,45202,39.1125276,-84.5182746
1516,Pleasant Street,45202,39.1120323,-84.5181702
1514,Pleasant Street,45202,39.1119733,-84.5181550
1512,Pleasant Street,45202,39.1119127,-84.5181406
1510,Pleasant Street,45202,39.1118561,-84.5181262
1407,Elm Street,45202,39.1103198,-84.5187696
1405,Elm Street,45202,39.1102568,-84.5187532
1421,Elm Street,45202,39.1108143,-84.5188687
202,Magnolia Street,45202,39.1107780,-84.5189988
204,Magnolia Street,45202,39.1107745,-84.5190211
1431,Elm Street,45202,39.1110912,-84.5189390
1433,Elm Street,45202,39.1111080,-84.5189431
1435,Elm Street,45202,39.1111842,-84.5189618
114,West 14th Street,45202,39.1103283,-84.5177197
3340,Erie Avenue,45208,39.1416496,-84.4229960
100,East Court Street,45202,39.1067651,-84.5125374
28,West Court Street,45202,39.1062807,-84.5152439
32,West Court Street,45202,39.1062188,-84.5153184
30,West Court Street,45202,39.1062262,-84.5152728
28,West Court Street,45202,39.1062338,-84.5152274
26,West Court Street,45202,39.1062352,-84.5151964
24,West Court Street,45202,39.1062443,-84.5151400
22,West Court Street,45202,39.1062537,-84.5150832
26,West Court Street,45202,39.1062825,-84.5151985
703,Betton Street,45214,39.1104818,-84.5261036
705,Betton Street,45214,39.1104828,-84.5261219
711,Betton Street,45214,39.1104933,-84.5263041
713,Betton Street,45214,39.1104941,-84.5263164
715,Betton Street,45214,39.1104953,-84.5263344
717,Betton Street,45214,39.1104977,-84.5263700
719,Betton Street,45214,39.1104989,-84.5263901
721,Betton Street,45214,39.1105009,-84.5264235
723,Betton Street,45214,39.1105022,-84.5264478
725,Betton Street,45214,39.1105039,-84.5264817
733,Betton Street,45214,39.1105205,-84.5267037
735,Betton Street,45214,39.1105214,-84.5267189
737,Betton Street,45214,39.1105257,-84.5267876
741,Betton Street,45214,39.1105333,-84.5268959
743,Betton Street,45214,39.1105342,-84.5269110
745,Betton Street,45214,39.1105352,-84.5269272
747,Betton Street,45214,39.1105362,-84.5269434
520,David Street,45214,39.1117787,-84.5241231
522,David Street,45214,39.1117794,-84.5241394
524,David Street,45214,39.1117806,-84.5241624
526,David Street,45214,39.1117816,-84.5241785
532,David Street,45214,39.1117927,-84.5243530
534,David Street,45214,39.1117934,-84.5243656
536,David Street,45214,39.1117946,-84.5243877
538,David Street,45214,39.1117955,-84.5244044
548,David Street,45214,39.1118016,-84.5246138
550,David Street,45214,39.1118033,-84.5246499
544,David Street,45214,39.1118072,-84.5245764
546,David Street,45214,39.1118078,-84.5245920
736,Betton Street,45214,39.1106736,-84.5267984
734,Betton Street,45214,39.1106729,-84.5267845
728,Betton Street,45214,39.1106635,-84.5266086
726,Betton Street,45214,39.1106626,-84.5265931
718,Betton Street,45214,39.1106442,-84.5263947
716,Betton Street,45214,39.1106433,-84.5263763
714,Betton Street,45214,39.1106360,-84.5262964
712,Betton Street,45214,39.1106349,-84.5262764
710,Betton Street,45214,39.1106294,-84.5261952
708,Betton Street,45214,39.1106284,-84.5261793
706,Betton Street,45214,39.1106277,-84.5261643
704,Betton Street,45214,39.1106270,-84.5261490
515,David Street,45214,39.1116110,-84.5239748
517,David Street,45214,39.1116122,-84.5239931
523,David Street,45214,39.1116232,-84.5241669
525,David Street,45214,39.1116242,-84.5241844
527,David Street,45214,39.1116306,-84.5242030
529,David Street,45214,39.1116328,-84.5242369
531,David Street,45214,39.1116342,-84.5242614
533,David Street,45214,39.1116363,-84.5242980
535,David Street,45214,39.1116386,-84.5243407
537,David Street,45214,39.1116398,-84.5243601
543,David Street,45214,39.1116504,-84.5245342
545,David Street,45214,39.1116516,-84.5245480
547,David Street,45214,39.1116534,-84.5245708
549,David Street,45214,39.1116543,-84.5245869
1430,Race Street,45202,39.1112107,-84.5170462
1428,Race Street,45202,39.1111491,-84.5170238
229,West 12th Street,45202,39.1075576,-84.5188611
229,West 12th Street,45202,39.1076095,-84.5188762
227,West 12th Street,45202,39.1076232,-84.5187857
231,West 12th Street,45202,39.1075962,-84.5189648
233-A,West 12th Street,45202,39.1075783,-84.5190836
233-B,West 12th Street,45202,39.1075624,-84.5191890
235,West 12th Street,45202,39.1075442,-84.5193097
713,Ezzard Charles Drive,45203,39.1090006,-84.5259401
707,Ezzard Charles Drive,45203,39.1089828,-84.5257560
715,Ezzard Charles Drive,45203,39.1090025,-84.5259697
717,Ezzard Charles Drive,45203,39.1090006,-84.5260367
703,Ezzard Charles Drive,45203,39.1089897,-84.5256646
705,Ezzard Charles Drive,45203,39.1089915,-84.5256923
701,Ezzard Charles Drive,45203,39.1089729,-84.5255983
1309,Cutter Street,45203,39.1086800,-84.5255758
1307,Cutter Street,45203,39.1086498,-84.5255790
1305,Cutter Street,45203,39.1085603,-84.5255976
1303,Cutter Street,45203,39.1085293,-84.5256009
729,Genevaview Street,45214,39.1099072,-84.5270207
731,Genevaview Street,45214,39.1099092,-84.5270508
1376,Linn Street,45214,39.1099048,-84.5274353
1374,Linn Street,45214,39.1098586,-84.5274365
1372,Linn Street,45214,39.1098453,-84.5274376
1370,Linn Street,45214,39.1098009,-84.5274455
1531,Linn Street,45214,39.1121195,-84.5279602
1525,Linn Street,45214,39.1120285,-84.5279695
1535,Linn Street,45214,39.1122433,-84.5279104
1510,Linn Street,45214,39.1115411,-84.5272425
1512,Linn Street,45214,39.1115909,-84.5272408
1524,Linn Street,45214,39.1117409,-84.5272306
1528,Linn Street,45214,39.1123020,-84.5272053
1540,Linn Street,45214,39.1122209,-84.5272112
708,Hopkins Street,45203,39.1085130,-84.5259907
710,Hopkins Street,45203,39.1085164,-84.5260542
712,Hopkins Street,45203,39.1085261,-84.5260793
714,Hopkins Street,45203,39.1085293,-84.5261395
716,Hopkins Street,45203,39.1085278,-84.5261577
718,Hopkins Street,45203,39.1085312,-84.5262096
720,Hopkins Street,45203,39.1085324,-84.5262327
722,Hopkins Street,45203,39.1085348,-84.5263003
1217,Cutter Street,45203,39.1082977,-84.5256102
1215,Cutter Street,45203,39.1082386,-84.5256112
1213,Cutter Street,45203,39.1082108,-84.5256141
1211,Cutter Street,45203,39.1081176,-84.5256322
1209,Cutter Street,45203,39.1080882,-84.5256353
1207,Cutter Street,45203,39.1079985,-84.5256407
1205,Cutter Street,45203,39.1079682,-84.5256439
1203,Cutter Street,45203,39.1078767,-84.5256610
1201,Cutter Street,45203,39.1078479,-84.5256640
1315,Main Street,45202,39.1103138,-84.5120874
"1317, 1319",Main Street,45202,39.1104058,-84.5120704
1333,Main Street,45202,39.1109062,-84.5122221
1339,Main Street,45202,39.1109713,-84.5122452
1341,Main Street,45202,39.1110294,-84.5122586
1347,Main Street,45202,39.1111852,-84.5123033
1351,Main Street,45202,39.1112375,-84.5123139
1344,Main Street,45202,39.1110545,-84.5119702
1342,Main Street,45202,39.1109963,-84.5119475
1338,Main Street,45202,39.1109044,-84.5119339
1338,Main Street,45202,39.1109558,-84.5119865
1334,Main Street,45202,39.1108151,-84.5119217
1332,Main Street,45202,39.1107659,-84.5119010
1312,Main Street,45202,39.1102278,-84.5117661
1316,Main Street,45202,39.1103097,-84.5117869
1306,Main Street,45202,39.1100995,-84.5117282
1411,Main Street,45202,39.1117441,-84.5124319
1411,Main Street,45202,39.1116963,-84.5124221
1415,Main Street,45202,39.1117964,-84.5124456
1417,Main Street,45202,39.1118761,-84.5124798
1431,Main Street,45202,39.1122493,-84.5125727
1418,Main Street,45202,39.1117321,-84.5121414
1416,Main Street,45202,39.1116816,-84.5121243
1414,Main Street,45202,39.1116307,-84.5121114
1412,Main Street,45202,39.1115760,-84.5120993
704,David Street,45214,39.1118902,-84.5259427
706,David Street,45214,39.1118915,-84.5259605
710,David Street,45214,39.1118978,-84.5260602
712,David Street,45214,39.1118989,-84.5260795
716,David Street,45214,39.1119038,-84.5261749
718,David Street,45214,39.1119047,-84.5261931
722,David Street,45214,39.1119120,-84.5262929
724,David Street,45214,39.1119128,-84.5263115
728,David Street,45214,39.1119198,-84.5264103
730,David Street,45214,39.1119206,-84.5264286
705,David Street,45214,39.1117332,-84.5259535
707,David Street,45214,39.1117342,-84.5259717
711,David Street,45214,39.1117454,-84.5260709
713,David Street,45214,39.1117464,-84.5260875
717,David Street,45214,39.1117549,-84.5261850
719,David Street,45214,39.1117555,-84.5261998
725,David Street,45214,39.1117610,-84.5263651
727,David Street,45214,39.1117619,-84.5263804
731,David Street,45214,39.1117690,-84.5264803
733,David Street,45214,39.1117699,-84.5264940
739,David Street,45214,39.1117798,-84.5266718
741,David Street,45214,39.1117809,-84.5266890
708,Derrick Turnbow Avenue,45214,39.1112730,-84.5262298
710,Derrick Turnbow Avenue,45214,39.1112740,-84.5262478
718,Derrick Turnbow Avenue,45214,39.1112885,-84.5264424
720,Derrick Turnbow Avenue,45214,39.1112896,-84.5264594
1434,Linn Street,45214,39.1109338,-84.5272972
1432,Linn Street,45214,39.1108953,-84.5273036
520,Ezzard Charles Drive,45214,39.1093260,-84.5242211
518,Ezzard Charles Drive,45214,39.1093243,-84.5241935
516,Ezzard Charles Drive,45214,39.1093188,-84.5240341
514,Ezzard Charles Drive,45214,39.1093106,-84.5239656
512,Ezzard Charles Drive,45214,39.1093088,-84.5239374
510,Ezzard Charles Drive,45214,39.1093059,-84.5237768
508,Ezzard Charles Drive,45214,39.1092867,-84.5237095
506,Ezzard Charles Drive,45214,39.1092853,-84.5236846
504,Ezzard Charles Drive,45214,39.1092712,-84.5235296
502,Ezzard Charles Drive,45214,39.1092696,-84.5234999
108,East 13th Street,45202,39.1098644,-84.5129995
1330,Walnut Street,45202,39.1106554,-84.5135733
1342,Walnut Street,45202,39.1109692,-84.5136447
1332,Vine Street,45202,39.1106267,-84.5152317
124,West Elder Street,45202,39.1154730,-84.5194233
1712,Elm Street,45202,39.1145142,-84.5195417
1706,Elm Street,45202,39.1142782,-84.5195218
1708,Elm Street,45202,39.1143610,-84.5195432
1640,Race Street,45202,39.1140912,-84.5177649
33,Green Street,45202,39.1142155,-84.5175686
29,Green Street,45202,39.1142258,-84.5175027
25,Green Street,45202,39.1142339,-84.5174511
19,West Elder Street,45202,39.1153539,-84.5175177
1712,Republic Street,45202,39.1148517,-84.5169838
1710,Republic Street,45202,39.1147804,-84.5169658
1434,Vine Street,45202,39.1119106,-84.5155438
1511,Vine Street,45202,39.1120954,-84.5158792
1513,Vine Street,45202,39.1121504,-84.5158939
1515,Vine Street,45202,39.1122022,-84.5159118
1529,Vine Street,45202,39.1126213,-84.5160190
1213,Vine Street,45202,39.1087243,-84.5150009
1150,Vine Street,45202,39.1079424,-84.5145108
1150,Vine Street,45202,39.1077403,-84.5145138
1115,Vine Street,45202,39.1077025,-84.5147829
1203,Vine Street,45202,39.1084394,-84.5149764
18,West 13th Street,45202,39.1095549,-84.5159798
1505,Race Street,45202,39.1115918,-84.5174414
1509,Race Street,45202,39.1118726,-84.5174941
1513,Race Street,45202,39.1119774,-84.5175233
1515,Race Street,45202,39.1120880,-84.5175519
1523,Race Street,45202,39.1121858,-84.5175766
1525,Race Street,45202,39.1122315,-84.5175892
1531,Race Street,45202,39.1124292,-84.5176304
1537,Race Street,45202,39.1125960,-84.5176834
1537,Race Street,45202,39.1126214,-84.5176909
1539,Race Street,45202,39.1126489,-84.5176897
1126,Race Street,45202,39.1078334,-84.5162219
1128,Race Street,45202,39.1078765,-84.5162325
1124,Race Street,45202,39.1078048,-84.5162150
1122,Race Street,45202,39.1077726,-84.5162075
1120,Race Street,45202,39.1077178,-84.5161943
1118,Race Street,45202,39.1076780,-84.5161846
1142,Main Street,45202,39.1089846,-84.5114202
1327,Vine Street,45202,39.1103068,-84.5154418
1329,Vine Street,45202,39.1103618,-84.5154538
"1327,1329",Vine Street,45202,39.1103396,-84.5154069
1331,Vine Street,45202,39.1104042,-84.5154274
16,East 14th Street,45202,39.1111011,-84.5146907
18,East 14th Street,45202,39.1111051,-84.5146663
26,East 14th Street,45202,39.1111514,-84.5143699
34,East 14th Street,45202,39.1111826,-84.5141648
1404,Vine Street,45202,39.1110605,-84.5151148
1400,Vine Street,45202,39.1110798,-84.5152125
15,East 14th Street,45202,39.1109368,-84.5147672
15,East 14th Street,45202,39.1109437,-84.5147069
1331,Walnut Street,45202,39.1103570,-84.5137743
1301,Walnut Street,45202,39.1097886,-84.5136576
1307,Walnut Street,45202,39.1098918,-84.5136621
1313A,Walnut Street,45202,39.1101522,-84.5137151
1333,Walnut Street,45202,39.1106060,-84.5138325
1345,Walnut Street,45202,39.1109295,-84.5139076
1412,Walnut Street,45202,39.1115903,-84.5137912
1416,Walnut Street,45202,39.1116925,-84.5138101
1414,Walnut Street,45202,39.1116462,-84.5137987
1418,Walnut Street,45202,39.1117486,-84.5138239
1420,Walnut Street,45202,39.1118034,-84.5138373
524,West Liberty Street,45214,39.1136122,-84.5254850
1230,Vine Street,45202,39.1093039,-84.5148793
1300,Vine Street,45202,39.1095939,-84.5149556
33,East 13th Street,45202,39.1095635,-84.5137456
124,East 13th Street,45202,39.1099639,-84.5123725
21,West 13th Street,45202,39.1092350,-84.5159750
1200,Race Street,45202,39.1083474,-84.5163130
32,West 12th Street,45202,39.1082229,-84.5160206
1224,Race Street,45202,39.1089730,-84.5165211
1222,Race Street,45202,39.1089122,-84.5165055
1218,Race Street,45202,39.1088223,-84.5164184
1323,Vine Street,45202,39.1102038,-84.5154056
1405,Vine Street,45202,39.1107803,-84.5155489
217,Orchard Street,45202,39.1119085,-84.5115372
219,Orchard Street,45202,39.1119190,-84.5114610
1207,Main Street,45202,39.1090356,-84.5117747
1207,Main Street,45202,39.1090552,-84.5117638
1124,Main Street,45202,39.1084760,-84.5113066
1112,Race Street,45202,39.1075320,-84.5160746
125,West Central Parkway,45202,39.1065313,-84.5171359
130,West Court Street,45202,39.1059958,-84.5169378
138,West Court Street,45202,39.1059601,-84.5172239
1010,Elm Street,45202,39.1062062,-84.5174796
1008,Elm Street,45202,39.1061838,-84.5174740
5,East Liberty Street,45202,39.1126313,-84.5154219
1517,Vine Street,45202,39.1122731,-84.5159172
1521,Vine Street,45202,39.1124589,-84.5159632
1502,Vine Street,45202,39.1121076,-84.5154187
1410,Vine Street,45202,39.1112666,-84.5153007
1429,Race Street,45202,39.1113398,-84.5174276
1410,Race Street,45202,39.1107050,-84.5169429
1410,Race Street,45202,39.1107092,-84.5168939
1404,Race Street,45202,39.1105252,-84.5168972
1404,Race Street,45202,39.1105322,-84.5168593
1401,Central Parkway,45202,39.1099280,-84.5204652
1403,Central Parkway,45202,39.1100591,-84.5204979
1401,Central Parkway,45202,39.1099171,-84.5205693
219,Odeon Street,45202,39.1118970,-84.5197093
1215,Elm Street,45202,39.1083015,-84.5182885
920,Elm Street,45202,39.1056035,-84.5172934
927,Race Street,45202,39.1058888,-84.5160173
903,Race Street,45202,39.1053106,-84.5158726
901,Race Street,45202,39.1052242,-84.5158470
108,West 9th Street,45202,39.1051575,-84.5161053
909,Race Street,45202,39.1054290,-84.5158905
1228,Central Parkway,45202,39.1085356,-84.5195087
420,Chestnut Street,45203,39.1070711,-84.5219169
422,Chestnut Street,45203,39.1070654,-84.5219633
424,Chestnut Street,45203,39.1070594,-84.5220082
426,Chestnut Street,45203,39.1070533,-84.5220478
428,Chestnut Street,45203,39.1070293,-84.5221011
430,Chestnut Street,45203,39.1070199,-84.5221678
432,Chestnut Street,45203,39.1070113,-84.5222317
434,Chestnut Street,45203,39.1069976,-84.5223010
414,Chestnut Street,45203,39.1071048,-84.5217526
412,Chestnut Street,45203,39.1071109,-84.5216955
425,Ezzard Charles Drive,45202,39.1088485,-84.5223285
1025,Central Avenue,45203,39.1065931,-84.5210903
1025,Central Avenue,45203,39.1065080,-84.5210715
406,Old Court Street,45203,39.1058476,-84.5209251
408,Old Court Street,45203,39.1058557,-84.5210057
410,Old Court Street,45203,39.1058317,-84.5211507
412,Old Court Street,45203,39.1058083,-84.5212273
414,Old Court Street,45203,39.1057953,-84.5213001
416,Old Court Street,45203,39.1057953,-84.5213833
418,Old Court Street,45203,39.1057908,-84.5214676
420,Old Court Street,45203,39.1057623,-84.5216930
422,Old Court Street,45203,39.1057371,-84.5217710
424,Old Court Street,45203,39.1057043,-84.5218399
426,Old Court Street,45203,39.1056991,-84.5219180
1001,John Street,45203,39.1055201,-84.5225085
1003,John Street,45203,39.1055817,-84.5225028
1005,John Street,45203,39.1056395,-84.5225382
1007,John Street,45203,39.1056923,-84.5225722
1002,John Street,45203,39.1056169,-84.5221626
1004,John Street,45203,39.1056829,-84.5221597
1006,John Street,45203,39.1057462,-84.5221845
1008,John Street,45203,39.1057979,-84.5222171
415,Old Court Street,45203,39.1053932,-84.5212902
417,Old Court Street,45203,39.1054618,-84.5212860
419,Old Court Street,45203,39.1055205,-84.5213199
409,Old Court Street,45203,39.1055618,-84.5210118
411,Old Court Street,45203,39.1055022,-84.5210131
413,Old Court Street,45203,39.1054439,-84.5209707
830,Reedy Street,45202,39.1068766,-84.5051604
514,Elizabeth Street,45203,39.1062790,-84.5229765
512,Elizabeth Street,45203,39.1062868,-84.5229216
510,Elizabeth Street,45203,39.1062913,-84.5228626
508,Elizabeth Street,45203,39.1063042,-84.5228110
506,Elizabeth Street,45203,39.1063119,-84.5227578
504,Elizabeth Street,45203,39.1063210,-84.5226980
502,Elizabeth Street,45203,39.1063248,-84.5226398
1013,John Street,45203,39.1060244,-84.5226184
1011,John Street,45203,39.1059647,-84.5226145
1009,John Street,45203,39.1058983,-84.5226155
1010,John Street,45203,39.1059020,-84.5222416
1012,John Street,45203,39.1059602,-84.5222416
425,Elizabeth Street,45203,39.1061031,-84.5219698
423,Elizabeth Street,45203,39.1061152,-84.5218899
421,Elizabeth Street,45203,39.1061099,-84.5218099
419,Elizabeth Street,45203,39.1061091,-84.5217261
417,Elizabeth Street,45203,39.1061235,-84.5215964
415,Elizabeth Street,45203,39.1061500,-84.5215204
413,Elizabeth Street,45203,39.1061802,-84.5214424
411,Elizabeth Street,45203,39.1061939,-84.5213624
409,Elizabeth Street,45203,39.1062045,-84.5212493
407,Elizabeth Street,45203,39.1062166,-84.5211772
405,Elizabeth Street,45203,39.1062158,-84.5210953
403,Elizabeth Street,45203,39.1062445,-84.5210183
422,Elizabeth Street,45203,39.1064311,-84.5218665
418,Elizabeth Street,45203,39.1064534,-84.5217280
416,Elizabeth Street,45203,39.1064678,-84.5216467
414,Elizabeth Street,45203,39.1064762,-84.5215930
420,Elizabeth Street,45203,39.1064393,-84.5218140
525,Elizabeth Street,45203,39.1059499,-84.5234663
523,Elizabeth Street,45203,39.1059378,-84.5233889
521,Elizabeth Street,45203,39.1059438,-84.5233080
519,Elizabeth Street,45203,39.1059257,-84.5232342
517,Elizabeth Street,45203,39.1059174,-84.5230795
515,Elizabeth Street,45203,39.1059433,-84.5230049
513,Elizabeth Street,45203,39.1059455,-84.5229297
511,Elizabeth Street,45203,39.1059659,-84.5228523
532,West Court Street,45203,39.1055699,-84.5235070
530,West Court Street,45203,39.1055732,-84.5234264
528,West Court Street,45203,39.1055603,-84.5233491
526,West Court Street,45203,39.1055628,-84.5232759
524,West Court Street,45203,39.1055499,-84.5231945
522,West Court Street,45203,39.1055583,-84.5230781
520,West Court Street,45203,39.1055628,-84.5230008
518,West Court Street,45203,39.1055474,-84.5229226
516,West Court Street,45203,39.1055616,-84.5228428
514,West Court Street,45203,39.1055422,-84.5227597
1049,Central Avenue,45203,39.1069833,-84.5212397
1047,Central Avenue,45203,39.1069359,-84.5212277
1045,Central Avenue,45203,39.1068924,-84.5212166
1043,Central Avenue,45203,39.1068489,-84.5212055
1041,Central Avenue,45203,39.1068095,-84.5211955
1039,Central Avenue,45203,39.1067631,-84.5211837
1037,Central Avenue,45203,39.1067184,-84.5211723
1035,Central Avenue,45203,39.1066731,-84.5211607
424,Hopkins Street,45203,39.1083906,-84.5224070
422,Hopkins Street,45203,39.1083967,-84.5223514
433,Hopkins Street,45203,39.1080493,-84.5226516
435,Hopkins Street,45203,39.1080413,-84.5227106
231,West 12th Street,45202,39.1075387,-84.5189474
413,East 13th Street,45202,39.1102727,-84.5078963
411,East 13th Street,45202,39.1102634,-84.5079656
1833,Sycamore Street,45219,39.1179634,-84.5092429
41,East Court Street,45202,39.1062549,-84.5127825
39,East Court Street,45202,39.1062468,-84.5128674
33,East Court Street,45202,39.1062284,-84.5130068
39,East Court Street,45202,39.1062973,-84.5129115
33,East Court Street,45202,39.1062712,-84.5131185
31,East Court Street,45202,39.1062136,-84.5131275
27,East Court Street,45202,39.1062460,-84.5132442
25,East Court Street,45202,39.1061858,-84.5132790
25,East Court Street,45202,39.1062337,-84.5133268
21,East Court Street,45202,39.1061727,-84.5134055
19,East Court Street,45202,39.1061580,-84.5134951
17,East Court Street,45202,39.1061947,-84.5135767
15,East Court Street,45202,39.1061527,-84.5136149
7,East Court Street,45202,39.1061143,-84.5138508
9,East Court Street,45202,39.1061255,-84.5137513
4820,Ridge Avenue,45209,39.1617219,-84.4203130
3075,Madison Road,45209,39.1522239,-84.4312642
4631,Ridge Avenue,45209,39.1599068,-84.4213057
1212,Jackson Street,45202,39.1091787,-84.5140312
1107,Vine Street,45202,39.1074887,-84.5147401
1045,Saint Gregory Street,45202,39.1073671,-84.4978481
2459,Gilbert Avenue,45206,39.1258081,-84.4906808
1301,Western Avenue,45203,39.1099230,-84.5376169
2,Procter & Gamble Plaza,45202,39.1030266,-84.5056881
1,Procter & Gamble Plaza,45202,39.1030427,-84.5075819
250,East 5th Street,45202,39.1021966,-84.5086900
550,Main Street,45202,39.1023767,-84.5094937
221,East 4th Street,45202,39.1001532,-84.5081026
38,Fountain Square Plaza,45202,39.1017027,-84.5118174
255,East 5th Street,45202,39.1004458,-84.5106921
414,Walnut Street,45202,39.1006457,-84.5109496
800,Vine Street,45202,39.1049863,-84.5132999
302,West 3rd Street,45202,39.0982446,-84.5176664
312,Plum Street,45202,39.0983526,-84.5168536
311,Elm Street,45202,39.0985897,-84.5160541
3740,Erie Avenue,45208,39.1488248,-84.4156550
2348,Grandin Road,45208,39.1334169,-84.4524293
151,West Galbraith Road,45216,39.2120522,-84.4811953
325,West 8th Street,45202,39.1034226,-84.5194701
801,Plum Street,45202,39.1041358,-84.5197018
805,Central Avenue,45202,39.1034214,-84.5209532
705,Central Avenue,45202,39.1030609,-84.5204231
100,Joe Nuxhall Way,45202,39.0973805,-84.5084197
435,East Mehring Way,45202,39.0968838,-84.5032389
2700,OVarsity Way,45221,39.1311654,-84.5141109
6201,Kellogg Avenue,45230,39.0555143,-84.4215490
5050,Kingsley Drive,45227,39.1695332,-84.4066793
650,Walnut Street,45202,39.1034594,-84.5111941
1014,Vine Street,45202,39.1067696,-84.5139092
6015,Winton Road,45224,39.1998528,-84.5225771
1906,Highland Avenue,45202,39.1160522,-84.5024700
270,Calhoun Street,45221,39.1286466,-84.5179440
2901,Woodside Drive,45221,39.1332510,-84.5155421
45,West Daniels Street,45219,39.1314123,-84.5117840
26,West Martin Luther King Drive,45268,39.1365641,-84.5109608
476,Riddle View Lane,45220,39.1364444,-84.5235064
7131,Reading Road,45237,39.1906303,-84.4629614
7142,Reading Road,45237-3807,39.1899827,-84.4622951
4550,Este Avenue,45232-1763,39.1722158,-84.5114452
4777,Kenard Avenue,45232,39.1644106,-84.5148193
255,West Mitchell Avenue,45232-1907,39.1649109,-84.5129011
4535,Este Avenue,45232,39.1726454,-84.5121457
5701,Este Avenue,45232,39.1860985,-84.5015499
2503,Spring Grove Avenue,45214,39.1280409,-84.5370458
3131,Queen City Avenue,45238,39.1348758,-84.6065852
1133,Clifton Hills Avenue,45220-1405,39.1460076,-84.5356379
304,McFarland Street,45202,39.0986872,-84.5177616
231,West 4th Street,45202,39.0989756,-84.5169848
201,West 4th Street,45202,39.0990843,-84.5161662
151,West 5th Street,45202,39.1003700,-84.5156342
229,West 7th Street,45202,39.1026943,-84.5178996
1,East 4th Street,45202,39.0996649,-84.5122254
315,East 5th Street,45202,39.1016350,-84.5072371
333,East 8th Street,45202,39.1050566,-84.5074771
114,East 6th Street,45202,39.1029937,-84.5112218
636,Race Street,45202,39.1032822,-84.5149356
600,Vine Street,45202,39.1028817,-84.5129275
44,East 6th Street,45202,39.1028352,-84.5121258
625,Walnut Street,45202,39.1033903,-84.5123039
605,Race Street,45202,39.1023708,-84.5153246
126,West 6th Street,45202,39.1022607,-84.5157251
655,Plum Street,45202,39.1025989,-84.5188711
255,East 5th Street,45202,39.1008767,-84.5106978
6,East 4th Street,45202,39.1002024,-84.5125291
14,East 4th Street,45202,39.1002758,-84.5121606
312,West 4th Street,45202,39.0993842,-84.5179623
309,Perry Street,45202,39.0996231,-84.5180219
415,Plum Street,45202,39.0996526,-84.5178406
"314,315,316",West 4th Street,45202,39.0994833,-84.5181025
"318,319,320,321,322,323,324,325,326",West 4th Street,45202,39.0994561,-84.5182816
"328,329,330,331,332",West 4th Street,45202,39.0994278,-84.5184669
"338,339,340,341,342,343,344",West 4th Street,45202,39.0992460,-84.5187346
412,Central Avenue,45202,39.0995120,-84.5187897
414,Central Avenue,45202,39.0995372,-84.5189797
"346,347,348,349,350",West 4th Street,45202,39.0992685,-84.5189168
337,West 5th Street,45202,39.0999893,-84.5187307
400,West 9th Street,45202,39.1046651,-84.5208721
416,West 9th Street,45202,39.1044166,-84.5214387
917,Plum Street,45202,39.1052654,-84.5192597
315,West Court Street,45202,39.1052169,-84.5195766
250,West Court Street,45202,39.1061282,-84.5187140
717,Elm Street,45202,39.1038520,-84.5173791
901,Elm Street,45202,39.1051118,-84.5176052
2,Garfield Place,45202,39.1049571,-84.5141934
140,West 9th Street,45202,39.1052233,-84.5170680
908,Race Street,45202,39.1055306,-84.5154884
917,Race Street,45202,39.1057359,-84.5161063
24,West 9th Street,45202,39.1054135,-84.5152202
22,West 9th Street,45202,39.1054801,-84.5151451
20,West 9th Street,45202,39.1054239,-84.5150365
18,West 9th Street,45202,39.1055110,-84.5149620
8,West 9th Street,45202,39.1055757,-84.5146549
23,West Court Street,45202,39.1058982,-84.5150566
125,West Central Parkway,45202,39.1064379,-84.5171136
121,West Central Parkway,45202,39.1064706,-84.5168910
12,West Court Street,45202,39.1064669,-84.5148386
3,East Court Street,45202,39.1060403,-84.5140313
41,East Court Street,45202,39.1062126,-84.5127707
1029,Main Street,45202,39.1073688,-84.5114513
119,East Court Street,45202,39.1063103,-84.5119348
898,Walnut Street,45202,39.1054138,-84.5121031
212;214,East 8th Street,45202,39.1052768,-84.5099567
29,East 8th Street,45202,39.1044149,-84.5123874
700,Walnut Street,45202,39.1042343,-84.5116339
726,Main Street,45202,39.1048026,-84.5102153
329,East 9th Street,45202-2209,39.1061104,-84.5077247
800,Broadway Street,45202,39.1057924,-84.5065862
925,Riverside Drive,45202,39.1039376,-84.4946543
580,Reading Road,45202,39.1099760,-84.5050194
231,West 12th Street,45202,39.1074565,-84.5190060
"217, 219",West 12th Street,45202,39.1075071,-84.5186408
1132,Race Street,45202,39.1079964,-84.5160689
"1114,1116",Race Street,45202,39.1076285,-84.5159728
1112,Race Street,45202,39.1075517,-84.5159537
1110,Race Street,45202,39.1074828,-84.5159414
1106,Race Street,45202,39.1074038,-84.5159207
1104,Race Street,45202,39.1073164,-84.5158988
1102,Race Street,45202,39.1072006,-84.5159710
1133,Vine Street,45202,39.1081312,-84.5150740
1127,Vine Street,45202,39.1079920,-84.5150362
1115,Vine Street,45202,39.1076774,-84.5149550
1113,Vine Street,45202,39.1076259,-84.5149477
1109,Vine Street,45202,39.1075699,-84.5149229
1107,Vine Street,45202,39.1074894,-84.5148443
1228,Central Parkway,45202,39.1085568,-84.5193686
1205,Elm Street,45202,39.1079333,-84.5183173
1216,Central Parkway,45202,39.1081108,-84.5193000
222,West 12th Street,45202,39.1078627,-84.5191337
220,West 12th Street,45202,39.1078745,-84.5190145
218,West 12th Street,45202,39.1078944,-84.5188959
216,West 12th Street,45202,39.1078267,-84.5188204
212,West 12th Street,45202,39.1078959,-84.5187197
210,West 12th Street,45202,39.1079146,-84.5185918
1217,Elm Street,45202,39.1083537,-84.5183709
1215,Elm Street,45202,39.1082959,-84.5183693
1213,Elm Street,45202,39.1082366,-84.5183842
1211,Elm Street,45202,39.1082004,-84.5183350
1209,Elm Street,45202,39.1081339,-84.5183846
1207,Elm Street,45202,39.1080805,-84.5183397
362,Mount Adams Circle,45202,39.1115058,-84.4977643
2335,Grandview Avenue,45206,39.1215601,-84.4814820
717,Linn Street,45203,39.1025657,-84.5304211
1250,West 8th Street,45203,39.1044451,-84.5385168
1011,West 8th Street,45203,39.1033319,-84.5334895
1001,Gest Street,45203,39.1060497,-84.5329426
1015,Gest Street,45203,39.1063172,-84.5335381
425,Ezzard Charles Drive,45202,39.1085365,-84.5220973
544,West Liberty Street,45214,39.1138688,-84.5261639
1425,Linn Street,45214,39.1109705,-84.5283655
820,Ezzard Charles Drive,45214,39.1105211,-84.5292712
1413,Linn Street,45214,39.1103531,-84.5280688
1202,Linn Street,45203,39.1081749,-84.5274481
745,Ezzard Charles Drive,45214,39.1089205,-84.5274115
821,Ezzard Charles Drive,45203,39.1090302,-84.5287265
1201,Linn Street,45203,39.1080692,-84.5281849
1027,Linn Street,45203,39.1071144,-84.5284583
1212,Jackson Street,45202,39.1089123,-84.5138684
1133,Sycamore Street,45202,39.1090564,-84.5109054
1217,Clay Street,45202,39.1092352,-84.5127370
1200,Walnut Street,45202,39.1087815,-84.5129462
106,East 13th Street,45202,39.1098820,-84.5131628
5,East Liberty Street,45202,39.1125577,-84.5155300
1220,Harrison Avenue,45214,39.1235114,-84.5374453
2701,Spring Grove Avenue,45225,39.1310185,-84.5376572
2929,Spring Grove Avenue,45225,39.1354455,-84.5386202
3001,Spring Grove Avenue,45225-2118,39.1358660,-84.5411473
3738,Warsaw Avenue,45205,39.1128995,-84.5745128
2322,Ferguson Road,45238,39.1283117,-84.5971755
2301,Ferguson Road,45238,39.1273755,-84.6016932
501,Chestnut Street,45203,39.1066464,-84.5227816
433,Elizabeth Street,45203,39.1061134,-84.5222503
1024,Mound Street,45203,39.1062199,-84.5233913
1026,Mound Street,45203,39.1063039,-84.5233829
1028,Mound Street,45203,39.1063818,-84.5233692
1030,Mound Street,45203,39.1064640,-84.5233612
1032,Mound Street,45203,39.1065415,-84.5233531
1034,Mound Street,45203,39.1066278,-84.5233441
1036,Mound Street,45203,39.1067045,-84.5233484
503,Clark Street,45203,39.1074168,-84.5231423
1056,Mound Street,45203,39.1072965,-84.5232702
1054,Mound Street,45203,39.1072201,-84.5232794
1052,Mound Street,45203,39.1071446,-84.5232864
1050,Mound Street,45203,39.1070661,-84.5233007
1048,Mound Street,45203,39.1069897,-84.5233040
1046,Mound Street,45203,39.1069046,-84.5233179
428,Elizabeth Street,45203,39.1064698,-84.5219541
432,Elizabeth Street,45203,39.1064639,-84.5220840
434,Elizabeth Street,45203,39.1064381,-84.5221786
438,Elizabeth Street,45203,39.1064441,-84.5223926
440,Chestnut Street,45203,39.1070203,-84.5224611
411,Clark Street,45203,39.1074385,-84.5216737
419,Clark Street,45203,39.1073975,-84.5219289
421,Clark Street,45203,39.1073823,-84.5220323
423,Clark Street,45203,39.1073655,-84.5221150
427,Clark Street,45203,39.1073556,-84.5222261
429,Clark Street,45203,39.1073060,-84.5223376
433,Clark Street,45203,39.1073234,-84.5224503
435,Clark Street,45203,39.1072707,-84.5225380
429,Hopkins Street,45203,39.1080340,-84.5224094
423,Hopkins Street,45203,39.1080817,-84.5222707
417,Hopkins Street,45203,39.1081056,-84.5220364
422,Clark Street,45203,39.1077669,-84.5223766
420,Clark Street,45203,39.1077924,-84.5222920
414,Clark Street,45203,39.1078014,-84.5220530
437,Hopkins Street,45203,39.1079945,-84.5227646
426,Clark Street,45203,39.1077450,-84.5225480
430,Clark Street,45203,39.1076407,-84.5226415
432,Clark Street,45203,39.1076264,-84.5227456
527,Clark Street,45203,39.1073988,-84.5241937
805,Ezzard Charles Drive,45203,39.1090888,-84.5281144
1071,Clark Street,45203,39.1077739,-84.5298652
865,Ezzard Charles Drive,45203,39.1076727,-84.5304751
861,Ezzard Charles Drive,45203,39.1078450,-84.5302651
832,Ezzard Charles Drive,45203,39.1081132,-84.5292530
838,Ezzard Charles Drive,45203,39.1083014,-84.5294805
826,Ezzard Charles Drive,45203,39.1084577,-84.5292160
831,Ezzard Charles Drive,45203,39.1087017,-84.5291942
839,Ezzard Charles Drive,45203,39.1088963,-84.5293924
845,Ezzard Charles Drive,45203,39.1091573,-84.5296022
851,Ezzard Charles Drive,45203,39.1089035,-84.5298715
842,Ezzard Charles Drive,45203,39.1086202,-84.5296082
850,Ezzard Charles Drive,45203,39.1084422,-84.5298498
862,Ezzard Charles Drive,45203,39.1084744,-84.5303324
870,Ezzard Charles Drive,45203,39.1082976,-84.5305711
864,Ezzard Charles Drive,45203,39.1081016,-84.5303721
856,Ezzard Charles Drive,45203,39.1081791,-84.5300482
846,Ezzard Charles Drive,45203,39.1080581,-84.5297438
877,Ezzard Charles Drive,45203,39.1087634,-84.5304418
871,Ezzard Charles Drive,45203,39.1089220,-84.5301945
879,Ezzard Charles Drive,45203,39.1091696,-84.5304510
885,Ezzard Charles Drive,45203,39.1090053,-84.5307037
440,Hopkins Street,45203,39.1083424,-84.5229131
438,Hopkins Street,45203,39.1083558,-84.5228187
432,Hopkins Street,45203,39.1083659,-84.5227101
430,Hopkins Street,45203,39.1083992,-84.5226244
420,Hopkins Street,45203,39.1084293,-84.5222871
1417,Central Parkway,45202,39.1104756,-84.5209085
1419,Elm Street,45202,39.1106173,-84.5189855
1522,Central Parkway,45202,39.1116692,-84.5201800
222,West 15th Street,45202,39.1114277,-84.5198470
1525,Elm Street,45202,39.1121310,-84.5196633
1541,Elm Street,45202,39.1128825,-84.5195622
213,West 15th Street,45202,39.1111249,-84.5194216
1429,Race Street,45202,39.1113225,-84.5175050
800,West 8th Street,45203,39.1035758,-84.5287479
210,Magnolia Street,45202,39.1107827,-84.5192899
208,Magnolia Street,45202,39.1107863,-84.5192230
227,Magnolia Street,45202,39.1104423,-84.5197050
225,Magnolia Street,45202,39.1105001,-84.5196641
223,Magnolia Street,45202,39.1104888,-84.5196063
217,Magnolia Street,45202,39.1105135,-84.5194552
215,Magnolia Street,45202,39.1105180,-84.5193968
224,West 14th Street,45202,39.1101400,-84.5196839
220,West 14th Street,45202,39.1101355,-84.5195993
216,West 14th Street,45202,39.1101652,-84.5194379
210,West 14th Street,45202,39.1101982,-84.5192525
208,West 14th Street,45202,39.1101959,-84.5191157
1401,Elm Street,45202,39.1101845,-84.5188716
1411,Elm Street,45202,39.1103471,-84.5189297
217,Odeon Street,45202,39.1117900,-84.5199137
213,Odeon Street,45202,39.1118123,-84.5197362
211,Odeon Street,45202,39.1118412,-84.5196500
209,Odeon Street,45202,39.1118334,-84.5195510
1508,Elm Street,45202,39.1115832,-84.5187110
1500,Elm Street,45202,39.1114587,-84.5186369
1524,Elm Street,45202,39.1119291,-84.5188003
1536,Elm Street,45202,39.1122648,-84.5188517
1542,Elm Street,45202,39.1124339,-84.5189080
1537,Pleasant Street,45202,39.1123327,-84.5184251
1533,Pleasant Street,45202,39.1122495,-84.5184850
1420,Elm Street,45202,39.1108772,-84.5184711
1418,Elm Street,45202,39.1108045,-84.5184745
1416,Elm Street,45202,39.1107195,-84.5184591
1414,Elm Street,45202,39.1106609,-84.5184275
1412,Elm Street,45202,39.1106061,-84.5183911
1410,Elm Street,45202,39.1105414,-84.5184124
1408,Elm Street,45202,39.1104607,-84.5183876
1406,Elm Street,45202,39.1103980,-84.5184081
1400,Elm Street,45202,39.1102794,-84.5184299
116,West 14th Street,45202,39.1103665,-84.5178901
1411,Pleasant Street,45202,39.1106082,-84.5180352
1425,Pleasant Street,45202,39.1109559,-84.5181071
114,West 14th Street,45202,39.1104133,-84.5176656
108,West 14th Street,45202,39.1104246,-84.5175439
1420,Pleasant Street,45202,39.1109002,-84.5177881
1422,Pleasant Street,45202,39.1109605,-84.5178314
1440,Pleasant Street,45202,39.1112607,-84.5179034
1419,Race Street,45202,39.1110346,-84.5174052
1413,Race Street,45202,39.1108756,-84.5174891
1415,Race Street,45202,39.1109140,-84.5173012
1407,Race Street,45202,39.1106340,-84.5172880
1405,Race Street,45202,39.1105718,-84.5172662
1401,Race Street,45202,39.1104225,-84.5172341
1418,Race Street,45202,39.1108773,-84.5168223
1428,Race Street,45202,39.1111709,-84.5168937
1430,Race Street,45202,39.1112252,-84.5169466
1401,Republic Street,45202,39.1105357,-84.5163977
1407,Republic Street,45202,39.1106619,-84.5164285
1423,Republic Street,45202,39.1111468,-84.5165190
1427,Republic Street,45202,39.1112529,-84.5165661
1431,Republic Street,45202,39.1113476,-84.5165775
1433,Republic Street,45202,39.1114143,-84.5165941
1207,Republic Street,45202,39.1085004,-84.5158347
22,West 12th Street,45202,39.1083945,-84.5155261
1201,Vine Street,45202,39.1083707,-84.5150938
1227,Walnut Street,45202,39.1093372,-84.5136194
35,East 13th Street,45202,39.1095646,-84.5136217
1209,Clay Street,45202,39.1090313,-84.5126851
1207,Clay Street,45202,39.1089739,-84.5126701
1309,Vine Street,45202,39.1097863,-84.5154605
1307,Vine Street,45202,39.1097195,-84.5154297
1301,Vine Street,45202,39.1095957,-84.5152875
1400,Republic Street,45202,39.1106159,-84.5159766
1404,Republic Street,45202,39.1107139,-84.5160314
1406,Republic Street,45202,39.1107846,-84.5160357
1408,Republic Street,45202,39.1108541,-84.5160417
1412,Republic Street,45202,39.1109755,-84.5160932
1401,Vine Street,45202,39.1106389,-84.5156516
1403,Vine Street,45202,39.1107123,-84.5156228
1407,Vine Street,45202,39.1107799,-84.5156828
1409,Vine Street,45202,39.1108533,-84.5156742
1411,Vine Street,45202,39.1109071,-84.5157160
1413,Vine Street,45202,39.1109710,-84.5156791
1415,Vine Street,45202,39.1110249,-84.5157198
1417,Vine Street,45202,39.1110752,-84.5157040
1419,Vine Street,45202,39.1111260,-84.5157224
1421,Vine Street,45202,39.1111729,-84.5157751
1423,Vine Street,45202,39.1112375,-84.5157815
1526,Pleasant Street,45202,39.1122018,-84.5180688
1530,Pleasant Street,45202,39.1122759,-84.5181247
1542,Pleasant Street,45202,39.1125435,-84.5182053
1537,Race Street,45202,39.1125945,-84.5178784
1535,Race Street,45202,39.1125395,-84.5177646
1533,Race Street,45202,39.1124777,-84.5177499
1529,Race Street,45202,39.1123413,-84.5177312
"1523,1525",Race Street,45202,39.1121881,-84.5176862
1528,Race Street,45202,39.1124085,-84.5172039
1538,Race Street,45202,39.1127578,-84.5172972
1501,Republic Street,45202,39.1117206,-84.5166991
1505,Republic Street,45202,39.1118080,-84.5166936
"1513,1515",Republic Street,45202,39.1120248,-84.5167721
1521,Republic Street,45202,39.1122142,-84.5167840
1529,Republic Street,45202,39.1124587,-84.5168196
1531,Republic Street,45202,39.1125558,-84.5168896
1535,Republic Street,45202,39.1126368,-84.5169100
1506,Republic Street,45202,39.1119424,-84.5163053
1522,Republic Street,45202,39.1123656,-84.5164080
1532,Republic Street,45202,39.1126120,-84.5165029
1534,Republic Street,45202,39.1126664,-84.5165296
1536,Republic Street,45202,39.1127202,-84.5165660
1501,Vine Street,45202,39.1118309,-84.5159489
1511,Vine Street,45202,39.1120760,-84.5160116
1517,Vine Street,45202,39.1122543,-84.5160547
1529,Vine Street,45202,39.1126189,-84.5160872
1531,Vine Street,45202,39.1126747,-84.5161566
1502,Vine Street,45202,39.1121240,-84.5154679
26,East 15th Street,45202,39.1122994,-84.5146513
1437,Walnut Street,45202,39.1122897,-84.5143493
1439,Walnut Street,45202,39.1123635,-84.5143420
1445,Walnut Street,45202,39.1125200,-84.5143926
1508,Moore Street,45202,39.1124503,-84.5148056
1512,Moore Street,45202,39.1125648,-84.5148150
1434,Vine Street,45202,39.1119297,-84.5154177
1435,Walnut Street,45202,39.1121072,-84.5142803
1400,Clay Street,45202,39.1114809,-84.5129704
1405,Main Street,45202,39.1115585,-84.5125005
1409,Main Street,45202,39.1116203,-84.5125655
1411,Main Street,45202,39.1116969,-84.5125848
1415,Main Street,45202,39.1117869,-84.5125696
1417,Main Street,45202,39.1118498,-84.5126201
108,East 13th Street,45202,39.1099845,-84.5130310
110,East 13th Street,45202,39.1099837,-84.5129603
112,East 13th Street,45202,39.1099844,-84.5128849
114,East 13th Street,45202,39.1100127,-84.5128143
1120,Walnut Street,45202,39.1083621,-84.5128835
107,East 12th Street,45202,39.1084687,-84.5129115
109,East 12th Street,45202,39.1084319,-84.5127192
118,East 12th Street,45202,39.1088405,-84.5122277
1204,Clay Street,45202,39.1089582,-84.5122626
1206,Clay Street,45202,39.1090328,-84.5122416
1201,Main Street,45202,39.1088637,-84.5118675
1203,Main Street,45202,39.1089589,-84.5118456
1207,Main Street,45202,39.1090378,-84.5118952
1140,Main Street,45202,39.1089182,-84.5113095
1440,Main Street,45202,39.1124303,-84.5121860
1434,Main Street,45202,39.1123147,-84.5121579
1424,Main Street,45202,39.1120261,-84.5121202
218,Orchard Street,45202,39.1121464,-84.5114624
212,Orchard Street,45202,39.1121093,-84.5117048
210,Orchard Street,45202,39.1121351,-84.5118052
1406,Sycamore Street,45202,39.1117224,-84.5104400
1200,Main Street,45202,39.1093009,-84.5114203
1206,Main Street,45202,39.1094827,-84.5114736
1218,Main Street,45202,39.1097320,-84.5115735
208,East 12th Street,45202,39.1094324,-84.5112016
1201,Broadway Street,45202,39.1097764,-84.5085433
410,Reading Road,45202,39.1088934,-84.5076996
1122,Broadway Street,45202,39.1094550,-84.5081385
1218,Broadway Street,45202,39.1102452,-84.5082783
409,Broadway Street,45202,39.1102231,-84.5080451
415,Broadway Street,45202,39.1102693,-84.5078193
1207,Spring Street,45202,39.1101151,-84.5078512
412,East 12th Street,45202,39.1098441,-84.5078699
414,East 13th Street,45202,39.1105349,-84.5079617
416,East 13th Street,45202,39.1106043,-84.5076677
1306,Spring Street,45202,39.1107231,-84.5077214
1400,Reading Road,45202,39.1113452,-84.5030512
151,Goodman Drive,45219,39.1366778,-84.5073273
311,Albert Sabin Way,45229,39.1391455,-84.5024073
321,Albert Sabin Way,45219,39.1387270,-84.5020913
3159,Eden Avenue,45219,39.1372953,-84.5058597
234,Goodman Street,45219-2364,39.1378416,-84.5034234
3113,Clifton Avenue,45220,39.1381251,-84.5214022
3219,Clifton Avenue,45220-3027,39.1404323,-84.5199994
375,Dixmyth Avenue,45220,39.1387888,-84.5218439
2843,Clifton Avenue,45220,39.1342630,-84.5207760
938,Hatch Street,45202,39.1094334,-84.4974558
564,West Liberty Street,45214-2592,39.1138524,-84.5270838
526,West Liberty Street,45214,39.1137303,-84.5255727
524,West Liberty Street,45214,39.1136566,-84.5254788
522,West Liberty Street,45214,39.1136330,-84.5253895
518,West Liberty Street,45214,39.1136732,-84.5252062
510,West Liberty Street,45214,39.1136428,-84.5248864
502,West Liberty Street,45214,39.1136097,-84.5245809
1604,John Street,45214,39.1136978,-84.5241781
1602,John Street,45214,39.1136284,-84.5241605
412,West Liberty Street,45214,39.1138221,-84.5233394
1605,Central Avenue,45214,39.1135511,-84.5229508
1607,Central Avenue,45214,39.1134863,-84.5228930
430,Oliver Street,45214,39.1142220,-84.5239868
514,Oliver Street,45214,39.1142795,-84.5252352
408,Poplar Street,45214,39.1149339,-84.5237561
2147,Central Avenue,45214,39.1211189,-84.5307068
2134,Central Avenue,45214,39.1210955,-84.5306047
1600,Central Parkway,45202,39.1134394,-84.5206721
224,West Liberty Street,45202,39.1134290,-84.5202805
133,West Elder Street,45202,39.1149404,-84.5195840
109,West Elder Street,45202,39.1150749,-84.5186120
101,West Elder Street,45202,39.1151443,-84.5183279
1712,Elm Street,45202,39.1144982,-84.5194411
1704,Elm Street,45202,39.1142533,-84.5193786
1702,Elm Street,45202,39.1141717,-84.5193792
1730,Race Street,45202,39.1152917,-84.5178843
28,West Liberty Street,45202,39.1132421,-84.5172902
1609,Pleasant Street,45202,39.1134451,-84.5187052
1629,Pleasant Street,45202,39.1139839,-84.5188719
1625,Pleasant Street,45202,39.1138759,-84.5188504
1606,Pleasant Street,45202,39.1134384,-84.5183910
1610,Pleasant Street,45202,39.1134842,-84.5184671
1612,Pleasant Street,45202,39.1135359,-84.5184674
1601,Race Street,45202,39.1132053,-84.5179326
1607,Race Street,45202,39.1133005,-84.5178919
1611,Race Street,45202,39.1134279,-84.5180122
1615,Race Street,45202,39.1135273,-84.5179818
1621,Race Street,45202,39.1136982,-84.5180548
1622,Pleasant Street,45202,39.1138069,-84.5184933
1624,Pleasant Street,45202,39.1138643,-84.5185506
1631,Race Street,45202,39.1139760,-84.5181702
1629,Race Street,45202,39.1139023,-84.5180554
1623,Race Street,45202,39.1138205,-84.5180928
23,Green Street,45202,39.1141871,-84.5173069
19,Green Street,45202,39.1141805,-84.5171449
131,East McMicken Avenue,45202,39.1138668,-84.5138752
34,Green Street,45202,39.1144045,-84.5176273
1716,Race Street,45202,39.1148529,-84.5178766
1726,Race Street,45202,39.1150706,-84.5179106
"1713,1715",Vine Street,45202,39.1148664,-84.5166823
1731,Vine Street,45202,39.1153427,-84.5167764
1733,Vine Street,45202,39.1154250,-84.5167732
1818,Race Street,45202,39.1161172,-84.5181302
1834,Race Street,45202,39.1165398,-84.5182181
1905,Elm Street,45202,39.1164914,-84.5205113
2017,Branch Street,45202,39.1175351,-84.5223558
2017,Elm Street,45202,39.1180104,-84.5208578
2019,Elm Street,45202,39.1181171,-84.5208823
2681,Sidney Avenue,45225,39.1342726,-84.5350174
1246,Hopple Street,45225,39.1376021,-84.5369096
2131,State Avenue,45214-1613,39.1250083,-84.5446121
2101,West 8th Street,45204-2003,39.1048467,-84.5511864
309,Milton Street,45202,39.1133760,-84.5102599
301,Milton Street,45202,39.1134093,-84.5105959
1618,Sycamore Street,45202,39.1132290,-84.5106110
308,Milton Street,45202,39.1135741,-84.5103855
312,Milton Street,45202,39.1135684,-84.5101755
210,East Liberty Street,45202,39.1128415,-84.5119301
1641,Sycamore Street,45202,39.1137530,-84.5110178
222,East Liberty Street,45202,39.1128170,-84.5113905
218,East Liberty Street,45202,39.1127936,-84.5115498
216,East Liberty Street,45202,39.1127963,-84.5116133
1618,Hughes Street,45202,39.1133052,-84.5115172
1600,Main Street,45202,39.1127808,-84.5122504
1602,Main Street,45202,39.1128358,-84.5122944
1606,Main Street,45202,39.1129573,-84.5122613
1610,Main Street,45202,39.1130735,-84.5122587
810,Matson Place,45204,39.1060007,-84.5565708
3021,Warsaw Avenue,45204,39.1095749,-84.5615988
977,Hawthorne Avenue,45205,39.1096470,-84.5624016
3640,Warsaw Avenue,45205,39.1108070,-84.5720889
2401,Observatory Avenue,45208,39.1384913,-84.4541173
2501,Madison Road,45208,39.1412137,-84.4495960
2444,Madison Road,45208,39.1406766,-84.4540437
2161,Grandin Road,45208,39.1292625,-84.4596260
906,Nassau Street,45206,39.1208297,-84.4934870
2511,Essex Place,45206,39.1272186,-84.4990006
648-650,East McMillan Street,45206,39.1264475,-84.4960134
2139,Auburn Avenue,45219,39.1208258,-84.5110966
3333,Burnet Avenue,45229-3026,39.1408055,-84.5022945
6168,Glenway Avenue,45211,39.1432717,-84.6199687
6165,Glenway Avenue,45211,39.1427384,-84.6228328
3653,River Road,45204,39.0789603,-84.5932293
1833,Sycamore Street,45219,39.1179606,-84.5093033
1814,Vine Street,45202,39.1161033,-84.5165597
1901,Vine Street,45202,39.1171703,-84.5171970
320,Mohawk Street,45214,39.1213535,-84.5253180
322,Mohawk Street,45214,39.1214112,-84.5253866
233,Gilman Avenue,45219,39.1214304,-84.5068409
2222,Chickasaw Street,45219,39.1244772,-84.5215024
2410,Ohio Avenue,45219,39.1261013,-84.5151558
625,Probasco Street,45220,39.1339849,-84.5278549
2329,West Clifton Avenue,45219,39.1246663,-84.5200271
3101,Price Avenue,45205,39.1068028,-84.5624946
2857,River Road,45204,39.0893078,-84.5642836
2857,River Road,45204,39.0891112,-84.5645702
3195,Geier Drive,45209,39.1616219,-84.4278032
3245,Geier Drive,45209-5009,39.1615269,-84.4255594
3401,Alamo Avenue,45209,39.1619553,-84.4217211
4855,Ridge Avenue,45209,39.1618742,-84.4211444
4611,Ridge Avenue,45209,39.1593094,-84.4216611
3500,Madison Road,45209,39.1594043,-84.4233476
4642,Ridge Avenue,45209,39.1604802,-84.4205471
3301,Madison Road,45209,39.1563774,-84.4237990
324,West McMillan Avenue,45219,39.1283323,-84.5237547
322,West McMillan Avenue,45219,39.1283285,-84.5236638
320,West McMillan Avenue,45219,39.1283304,-84.5235575
318,West McMillan Avenue,45219,39.1283238,-84.5234435
316;314,West McMillan Avenue,45219,39.1282996,-84.5232908
312,West McMillan Avenue,45219,39.1282707,-84.5231663
321,Calhoun Street,45219,39.1283239,-84.5194889
2507,West Clifton Avenue,45219,39.1281219,-84.5194018
224,West McMillan Avenue,45219,39.1281007,-84.5201999
239,West McMillan Avenue,45219,39.1277381,-84.5208866
241,West McMillan Avenue,45219,39.1277472,-84.5209818
243,West McMillan Avenue,45219,39.1277555,-84.5210794
2320,Chickasaw St,45219,39.1256864,-84.5220075
462,Conroy Street,45214,39.1228611,-84.5281935
417,Warner,45219,39.1249540,-84.5266011
316,Joselin Avenue,45220,39.1332467,-84.5213457
2717,Clifton Avenue,45220,39.1324357,-84.5207610
2811,Swiss Chalet Court,45220,39.1335840,-84.5209580
688,Riddle Road,45220,39.1372430,-84.5287699
494,Riddle Road,45220,39.1359269,-84.5245635
607,Foulke Street,45220,39.1365399,-84.5267046
411,Ludlow Avenue,45220,39.1437598,-84.5228316
415,Ludlow Avenue,45220,39.1438385,-84.5231190
3414,Telford Street,45220,39.1442891,-84.5202645
3433,Clifton Avenue,45220,39.1445817,-84.5194919
3411,Clifton Avenue,45220,39.1442547,-84.5194945
3407,Clifton Avenue,45220,39.1439710,-84.5195811
320,Ludlow Avenue,45220,39.1439266,-84.5201556
301,Ludlow Avenue,45220-2002,39.1432824,-84.5195078
3317,Clifton Avenue,45220,39.1419176,-84.5196557
3301,Stanton Avenue,45206,39.1329135,-84.4923612
2900,Reading Road,45206,39.1323847,-84.4970039
1000,East McMillan Street,45206,39.1261439,-84.4874578
1404-1406,East McMillan Street,45206,39.1253991,-84.4797417
2488,Madison Road,45208,39.1422256,-84.4525369
1012,Ludlow Avenue,45223,39.1539430,-84.5371315
320,Resor Avenue,45220,39.1479798,-84.5199373
3325,Clifton Avenue,45220,39.1423411,-84.5196721
351,Ludlow Avenue,45220,39.1436324,-84.5213194
320,McAlpin Avenue,45220,39.1503393,-84.5195504
650,Forest Avenue,45229-2600,39.1459948,-84.4928115
130-134,William Howard Taft Road,45219,39.1283446,-84.5066030
425,Oak Street,45206,39.1301600,-84.5003960
3003,Reading Road,45206,39.1331134,-84.4974969
536,Linton Street,45219,39.1320178,-84.4981567
413,Martin Luther King Drive East,45229-3361,39.1348423,-84.5000236
3020,Burnet Avenue,45219,39.1341814,-84.5008955
302,East University Avenue,45219,39.1328302,-84.5025863
2839,Highland Avenue,45219,39.1323425,-84.5030572
2710,Euclid Avenue,45219,39.1308768,-84.5075847
2814,Short Vine Street,45219-2062,39.1322695,-84.5088119
2802,Short Vine Street,45219,39.1319319,-84.5088207
2621,Vine Street,45219,39.1299772,-84.5099972
2701,Short Vine Street,45219,39.1305246,-84.5097825
2900,Jefferson Avenue,45219,39.1331145,-84.5106676
23,East Rochelle Street,45219,39.1339081,-84.5079281
21,East Rochelle Street,45219,39.1338764,-84.5080231
19,East Rochelle Street,45219,39.1338973,-84.5081070
15,East Rochelle Street,45219,39.1339137,-84.5082403
1600,Madison Road,45206,39.1299946,-84.4763021
1602,Madison Road,45206,39.1299231,-84.4759055
4721,Red Bank Road,45227,39.1586889,-84.4043457
4850,Red Bank Expressway,45227,39.1595729,-84.4045303
791,East McMillan Street,45206,39.1256898,-84.4910999
773,East McMillan Street,45206,39.1258201,-84.4918148
771,East McMillan Street,45206,39.1258704,-84.4918881
644-646,East McMillan Street,45206,39.1266054,-84.4957073
719,East McMillan Street,45206,39.1260137,-84.4940287
717,East McMillan Street,45206,39.1260194,-84.4943117
715,East McMillan Street,45206,39.1260280,-84.4944048
713,East McMillan Street,45206,39.1260267,-84.4944938
709-711,East McMillan Street,45206,39.1260111,-84.4946150
705-707,East McMillan Street,45206,39.1260774,-84.4947750
701,East McMillan Street,45206,39.1259797,-84.4949314
659,East McMillan Street,45206,39.1260357,-84.4954915
645,East McMillan Street,45206,39.1261609,-84.4959486
660,East McMillan Street,45206,39.1264335,-84.4953440
700,East McMillan Street,45206,39.1264554,-84.4949120
855,William Howard Taft Road,45206,39.1272213,-84.4900872
2501,East McMillan Street,45206,39.1261983,-84.4905047
782-784,East McMillan Street,45206,39.1262274,-84.4914202
732-734,East McMillan Street,45206,39.1263120,-84.4935910
736,East McMillan Street,45206,39.1263109,-84.4933196
911-923,East McMillan Street,45206,39.1255833,-84.4897088
903-907,East McMillan Street,45206,39.1257668,-84.4901359
2386,Kemper Lane,45206,39.1253260,-84.4876713
1047,East McMillan Street,45206,39.1254962,-84.4864209
1037,East McMillan Street,45206,39.1254529,-84.4867780
1001,East McMillan Street,45206,39.1255898,-84.4877454
1026,East McMillan Street,45206,39.1259424,-84.4869891
2261,Victory Parkway,45056,39.1224349,-84.4853126
1126,East McMillan Street,45206-2002,39.1259347,-84.4849312
1050,East McMillan Street,45206,39.1258934,-84.4864481
2400,Grandview Avenue,45206,39.1240898,-84.4795454
2950,Gilbert Avenue,45206,39.1331351,-84.4873312
2727,Erie Avenue,45208,39.1392485,-84.4421137
2731,Erie Avenue,45208,39.1391974,-84.4419393
3425,Michigan Avenue,45208,39.1384334,-84.4420803
3401,Edwards Road,45208,39.1381276,-84.4443256
3550,Shaw Avenue,45208,39.1416243,-84.4393712
2853,Erie Avenue,45208,39.1387662,-84.4380484
2845,Erie Avenue,45208,39.1386414,-84.4384560
3900,Paxton Avenue,45209,39.1489136,-84.4261350
3235,Madison Road,45209,39.1546528,-84.4266808
1841,William Howard Taft Road,45206,39.1264557,-84.4690675
1843,William Howard Taft Road,45206,39.1264917,-84.4689128
1845,William Howard Taft Road,45206,39.1264932,-84.4687272
1885,William Howard Taft Road,45206,39.1257472,-84.4669184
5001,Kingsley Drive,45227,39.1669807,-84.4111458
801,Mount Hope Avenue,45204,39.1056447,-84.5582418
3028,Price Avenue,45205,39.1071343,-84.5620623
3489,Observatory Place,45208,39.1392772,-84.4230247
9000,Montgomery Rd.,45242,39.1820822,-84.4284922
5917,Prentice Street,45227-2340,39.1594517,-84.3926601
5021,Whetsel Ave,45227,39.1614779,-84.3932820
6130,Madison Road,45227,39.1607194,-84.3890164
3630-3634,Brookstone Drive,45209,39.1572855,-84.4165195
1621,Dana Avenue,45207,39.1462859,-84.4722963
3558,Evanston Avenue,45207,39.1445693,-84.4616352
571,Purcell Avenue,45205,39.1033855,-84.5655340
564,Elberon Avenue,45205,39.1029673,-84.5660194
311,Pike Street,45202,39.1011884,-84.5031662
311,Pike Street,45202,39.1013847,-84.5033041
5500,Verulam Avenue,45216,39.1732540,-84.4300239
3181,Linwood Avenue,45208,39.1294801,-84.4306262
50,Thornton Avenue,45233,39.1185691,-84.7008142
2700,Erie Avenue,45208,39.1396072,-84.4425045
710,Tusculum Avenue,45266,39.1120188,-84.4298064
8241,Vine Street,45216,39.2103106,-84.4754539
5641,Belmont Avenue,45224,39.1907645,-84.5510165
1628-1632,Linden Drive,45224,39.1957850,-84.5470219
5545,Belmont Avenue,45224,39.1912324,-84.5483947
4254,Georgia Avenue,45223,39.1668329,-84.5482516
1655,Chase Avenue,45223,39.1631945,-84.5425988
4980,Glenway Avenue,45238,39.1211114,-84.6006765
1826,William Howard Taft Road,45206,39.1268919,-84.4699183
1830,William Howard Taft Road,45206,39.1268690,-84.4695466
1858,William Howard Taft Road,45206,39.1273240,-84.4678980
1880,William Howard Taft Road,45206,39.1269593,-84.4671710
1882,William Howard Taft Road,45206,39.1268207,-84.4669180
407,Heather Hill Lane,45206,39.1264876,-84.4665587
415,Heather Hill Lane,45206,39.1266588,-84.4665079
423,Heather Hill Lane,45206,39.1268565,-84.4665126
427,Heather Hill Lane,45206,39.1270473,-84.4664720
431,Heather Hill Lane,45206,39.1271636,-84.4662648
430,Heather Hill Lane,45206,39.1271338,-84.4660175
426,Heather Hill Lane,45206,39.1269789,-84.4658577
422,Heather Hill Lane,45206,39.1267821,-84.4659280
414,Heather Hill Lane,45206,39.1265770,-84.4659422
406,Heather Hill Lane,45206,39.1263879,-84.4659812
3400,Brookline Avenue,45220,39.1424975,-84.5149315
265,Hosea Avenue,45220,39.1436018,-84.5184541
3440,Telford Street,45220,39.1451656,-84.5200858
3426,Telford Street,45220,39.1445250,-84.5202228
310,Bryant Avenue,45220,39.1456128,-84.5194125
4033,Gilmore Avenue,45209,39.1524513,-84.4304669
3105,Madison Road,45209,39.1528770,-84.4296831
3056,Madison Road,45209,39.1522169,-84.4320685
3021,Madison Road,45209,39.1509504,-84.4329185
3882,Paxton Avenue,45209,39.1476014,-84.4251964
4401,Marburg Avenue,45209-1331,39.1543992,-84.4255668
3120,Madison Road,45209,39.1537295,-84.4295360
351,West 4th Street,45202,39.0986968,-84.5187012
321,West 4th Street,45202,39.0989125,-84.5180859
1150,Vine Street,45202,39.1078493,-84.5144645
310,Lilienthal Street,45204-1121,39.0825644,-84.5846098
100,East 5th Street,45202,39.1018938,-84.5106692
6558,Parkland Avenue,45233-1250,39.1123218,-84.6908205
416,Clark Street,45203,39.1077657,-84.5221508
316,Pike Street,45202,39.1022384,-84.5025836
1906,Highland Avenue,45202,39.1163101,-84.5018833
3101,Riverside Drive,45226,39.1194608,-84.4462115
4343,Kellogg Avenue,45226,39.1002611,-84.4332783
520,Vine Street,45202,39.1017919,-84.5128147
341,West 4th Street,45202,39.0988333,-84.5185391
327,West 4th Street,45202,39.0988344,-84.5183155
313,West 4th Street,45202,39.0989347,-84.5179190
329,Plum Street,45202,39.0987206,-84.5175741
319,West Fourth Street,45202,39.0989230,-84.5179915
305,West 4th Street,45202,39.0989699,-84.5177152
333,West 4th Street,45202,39.0988501,-84.5184348
302,West 4th Street,45202,39.0993768,-84.5178540
412,Central Avenue,45202,39.0994669,-84.5189626
318,West 3rd Street,45202,39.0980737,-84.5181542
300,West 4th Street,45202,39.0994151,-84.5177360
317,McFarland Street,45202,39.0983370,-84.5181058
317,McFarland Street,45202,39.0983042,-84.5182139
211,West 4th Street,45202,39.0991925,-84.5164696
4618,Eastern Avenue,45226,39.1182792,-84.4190814
3751,Eastern Avenue,45226,39.1120376,-84.4364979
4003,Eastern Avenue,45226,39.1091267,-84.4331381
311,Delta Avenue,45226,39.1170883,-84.4396595
3923,Eastern Avenue,45226,39.1095175,-84.4334666
2120,Beechmont Avenue,45230,39.0935686,-84.3864863
115,Joe Nuxhall Way,45202,39.0963735,-84.5087018
1101,Summit Road,45237,39.1952599,-84.4700196
2114,Madison Road,45208,39.1328545,-84.4606079
900,East McMillan Street,45206,39.1261530,-84.4897793
2030,Madison Road,45208,39.1325831,-84.4614931
2038,Madison Road,45208,39.1324822,-84.4613100
2011,Madison Road,45208,39.1318828,-84.4623646
1993,Madison Road,45208,39.1316450,-84.4631308
2116,Madison Road,45208,39.1329839,-84.4603972
3183,Linwood Avenue,45208,39.1292722,-84.4307544
1020,Delta Avenue,45208,39.1292298,-84.4298004
3204,Linwood Avenue,45226,39.1283362,-84.4299721
1626,Chase Avenue,45223,39.1635655,-84.5409641
4120,Hamilton Ave,45223,39.1609467,-84.5391163
4227,Spring Grove Avenue,45223,39.1598695,-84.5326547
4157,Hamilton Avenue,45223,39.1622683,-84.5399819
3719,Spring Grove Avenue,45223,39.1556657,-84.5406785
3719,Spring Grove Avenue,45223,39.1547209,-84.5420980
1708,Blue Rock Street,45223,39.1610726,-84.5444178
1668,Blue Rock Street,45223-2553,39.1608042,-84.5427948
4147,Hamilton Avenue,45223,39.1618577,-84.5397476
1641,Blue Rock Street,45223,39.1599439,-84.5414074
5057,Wooster Pike,45226,39.1201042,-84.4038499
350,Ludlow Avenue,45220,39.1440015,-84.5214550
3442,Burnet Avenue,45219,39.1391392,-84.4999366
3024,Short Vine Street,45219,39.1344465,-84.5085710
519,Evanswood Place,45220,39.1473508,-84.5252724
3722,Clifton Avenue,45220,39.1505133,-84.5179297
130,West Mitchell Avenue,45217,39.1626098,-84.5073711
5341,North Glenway Avenue,45238-3754,39.1269815,-84.6059064
3200,Vine Street,45220,39.1388765,-84.5082410
3239,Burnet Avenue,45229-3018,39.1376714,-84.5012246
5461,Belmont Avenue,45224,39.1919396,-84.5507664
6000,Oakwood Avenue,45224,39.2006229,-84.5531239
6000,Oakwood Avenue,45224,39.2006457,-84.5532415
5801,Hamilton Avenue,45224,39.1970765,-84.5464936
6114,Hamilton Avenue,45224,39.2023481,-84.5474364
6106,Hamilton Avenue,45224,39.2020757,-84.5474391
6127,Hamilton Avenue,45224,39.2025188,-84.5482477
6041,Hamilton Avenue,45224,39.2015695,-84.5481430
6033,Hamilton Avenue,45224,39.2011236,-84.5479835
6118,Hamilton Avenue,45224,39.2024727,-84.5474391
6110,Hamilton Avenue,45224,39.2022130,-84.5474364
1406,Pleasant Street,45202,39.1105456,-84.5176842
1431,Pleasant Street,45202,39.1110959,-84.5181299
725,Circle Avenue,45232-1807,39.1695282,-84.5176283
3652,Middleton Avenue,45220,39.1495362,-84.5215800
1317,Vine Street,45202,39.1100433,-84.5156624
5505,Ridge Avenue,45213,39.1720742,-84.4278554
5427,Ridge Avenue,45213,39.1710719,-84.4269249
525,Vine Street,45202,39.1019044,-84.5136694
800,Vine Street,45202,39.1052684,-84.5131783
4630,Ridge Avenue,45209,39.1597151,-84.4205630
563,East 13th Street,45202,39.1108419,-84.5041916
557,East 13th Street,45202,39.1108100,-84.5043433
555,East 13th Street,45202,39.1107504,-84.5044652
18,East McMicken Avenue,45202,39.1165201,-84.5161888
8,East McMicken Avenue,45202-6519,39.1167568,-84.5165344
3,West Corry Street,45219,39.1287765,-84.5108550
8222,Monon Avenue,45216,39.2107334,-84.4703146
8372,Vine Street,45216,39.2150788,-84.4734232
1305,Spring Street,45202,39.1106213,-84.5080894
412,East 13th Street,45202,39.1104943,-84.5080212
3435,Epworth Avenue,45211-5716,39.1497609,-84.5999365
6300,Glenway Avenue,45211,39.1472479,-84.6233077
3207,Montana Avenue,45211,39.1485991,-84.6072099
3017,Harrison Avenue,45211,39.1489423,-84.5993737
5560,Glenway Avenue,45238,39.1317182,-84.6091876
1400,Vine Street,45202,39.1114855,-84.5147998
110,Woolper Avenue,45220,39.1499135,-84.5114474
1512,Republic Street,45202,39.1121817,-84.5163862
1521,Vine Street,45202,39.1124513,-84.5160982
4998,Glenway Avenue,45238,39.1216931,-84.6011921
1,Paycor Stadium,45202,39.0954220,-84.5160327
1318,Main Street,45202,39.1103785,-84.5117286
1320,Main Street,45202,39.1104492,-84.5117557
1300,Main Street,45202,39.1099401,-84.5115647
1302,Main Street,45202,39.1099821,-84.5116589
1304,Main Street,45202,39.1100492,-84.5115914
1306,Main Street,45202,39.1101401,-84.5116570
1344,Main Street,45202,39.1110634,-84.5119051
1332,Main Street,45202,39.1107819,-84.5117891
1342,Main Street,45202,39.1110080,-84.5118913
1346,Main Street,45202,39.1111272,-84.5118988
1329,Main Street,45202,39.1106965,-84.5122901
1327,Main Street,45202,39.1106398,-84.5122239
1305,Main Street,45202,39.1100993,-84.5120970
1311,Main Street,45202,39.1101983,-84.5121686
1319,Main Street,45202,39.1104171,-84.5122382
"1313, 1315",Main Street,45202,39.1102893,-84.5122024
1301,Main Street,45202,39.1100217,-84.5121393
"1335,1339",Main Street,45202,39.1109084,-84.5123803
1347,Main Street,45202,39.1111710,-84.5124433
1325,Main Street,45202,39.1105646,-84.5122791
1341,Main Street,45202,39.1110194,-84.5123327
1333,Main Street,45202,39.1108213,-84.5122693
1323,Main Street,45202,39.1104825,-84.5122557
1307,Main Street,45202,39.1101421,-84.5121243
1345,Main Street,45202,39.1110838,-84.5124220
118,East 13th Street,45202,39.1099865,-84.5125877
1346,Walnut Street,45202,39.1110630,-84.5135600
1330,Walnut Street,45202,39.1106771,-84.5134318
1350,Walnut Street,45202,39.1111346,-84.5136365
1342,Walnut Street,45202,39.1109896,-84.5135256
1340,Walnut Street,45202,39.1108818,-84.5135555
1405,Clay Street,45202,39.1114399,-84.5131586
114,East 14th Street,45202,39.1114140,-84.5132291
112,East 14th Street,45202,39.1114091,-84.5133102
1412,Walnut Street,45202,39.1116021,-84.5137024
1410,Walnut Street,45202,39.1115538,-84.5136658
1431,Main Street,45202,39.1122438,-84.5126926
1404,Walnut Street,45202,39.1114153,-84.5136483
221,Orchard Street,45202,39.1118394,-84.5113743
209,Orchard Street,45202,39.1117842,-84.5117982
223,Orchard Street,45202,39.1118420,-84.5113124
211,Orchard Street,45202,39.1118242,-84.5117350
225,Orchard Street,45202,39.1118838,-84.5112527
1404,Main Street,45202,39.1113693,-84.5119200
1333,Walnut Street,45202,39.1105973,-84.5139058
1339,Walnut Street,45202,39.1107220,-84.5140193
1410,Vine Street,45202,39.1112719,-84.5152358
14,East 14th Street,45202,39.1111490,-84.5148033
24,East 14th Street,45202,39.1112068,-84.5144472
1400,Vine Street,45202,39.1110825,-84.5152272
1344,Vine Street,45202,39.1108660,-84.5151846
1342,Vine Street,45202,39.1106989,-84.5151905
1326,Vine Street,45202,39.1105524,-84.5150225
13,West 15th Street,45202,39.1115454,-84.5162142
1418,Republic Street,45202,39.1111733,-84.5161204
"1426,1428",Republic Street,45202,39.1114596,-84.5161910
1331,Vine Street,45202,39.1104440,-84.5156180
1320,Republic Street,45202,39.1101357,-84.5158869
1424,Republic Street,45202,39.1113423,-84.5161739
1500,Race Street,45202,39.1116440,-84.5170715
1508,Race Street,45202,39.1118653,-84.5170732
1504,Race Street,45202,39.1117210,-84.5170893
"24,26",West 15th Street,45202,39.1117021,-84.5169245
1216,Race Street,45202,39.1087565,-84.5162834
1215,Republic Street,45202,39.1086954,-84.5158752
1212,Race Street,45202,39.1086235,-84.5163072
1208,Race Street,45202,39.1085001,-84.5162156
21,West 13th Street,45202,39.1091608,-84.5160387
1214,Race Street,45202,39.1086890,-84.5162963
1200,Race Street,45202,39.1082868,-84.5161643
1211,Republic Street,45202,39.1086080,-84.5158185
24,West 12th Street,45202,39.1083474,-84.5157688
31,West 13th Street,45202,39.1091189,-84.5163794
"1218,1220",Race Street,45202,39.1088573,-84.5163086
1232,Vine Street,45202,39.1093577,-84.5147600
1211,Jackson Street,45202,39.1087974,-84.5142871
1221,Jackson Street,45202,39.1090969,-84.5143372
1223,Jackson Street,45202,39.1091575,-84.5143638
1235,Vine Street,45202,39.1092562,-84.5152971
1237,Vine Street,45202,39.1093180,-84.5153394
1233,Vine Street,45202,39.1091911,-84.5152779
1227,Vine Street,45202,39.1090992,-84.5152556
1222,Republic Street,45202,39.1091152,-84.5156361
520,East 13th Street,45202,39.1108645,-84.5059914
524,East 13th Street,45202,39.1109552,-84.5058014
544,East 13th Street,45202,39.1110614,-84.5049872
528,East 13th Street,45202,39.1109536,-84.5056706
532,East 13th Street,45202,39.1109845,-84.5054980
538,East 13th Street,45202,39.1110382,-84.5051918
516,East 13th Street,45202,39.1108562,-84.5061803
518,East 13th Street,45202,39.1108644,-84.5060948
548,East 13th Street,45202,39.1110729,-84.5048024
536,East 13th Street,45202,39.1110301,-84.5053151
522,East 13th Street,45202,39.1109334,-84.5059214
514,East 13th Street,45202,39.1108603,-84.5062726
546,East 13th Street,45202,39.1110638,-84.5048954
542,East 13th Street,45202,39.1110503,-84.5050678
530,East 13th Street,45202,39.1109637,-84.5055811
512,East 13th Street,45202,39.1108539,-84.5063772
510,East 13th Street,45202,39.1108282,-84.5065513
504,East 13th Street,45202,39.1108067,-84.5066969
502,East 13th Street,45202,39.1107940,-84.5067824
500,East 13th Street,45202,39.1107815,-84.5068676
1329,Spring Street,45202,39.1113197,-84.5081941
1337,Spring Street,45202,39.1115775,-84.5082316
1332,Spring Street,45202,39.1114216,-84.5079123
1322,Spring Street,45202,39.1111705,-84.5078091
1334,Spring Street,45202,39.1114872,-84.5078937
1320,Spring Street,45202,39.1111035,-84.5078008
1325,Spring Street,45202,39.1112335,-84.5081295
1316,Spring Street,45202,39.1109951,-84.5077357
1312,Spring Street,45202,39.1108862,-84.5077572
1314,Spring Street,45202,39.1109392,-84.5077589
1319,Spring Street,45202,39.1109884,-84.5080945
1345,Broadway Street,45202,39.1120250,-84.5086644
1342,Broadway Street,45202,39.1118187,-84.5085626
1317,Spring Street,45202,39.1109003,-84.5081017
1336,Broadway Street,45202,39.1116877,-84.5085634
1315,Spring Street,45202,39.1108615,-84.5080917
1344,Broadway Street,45202,39.1119312,-84.5086474
1313,Spring Street,45202,39.1107877,-84.5080649
1309,Spring Street,45202,39.1106945,-84.5081732
1311,Spring Street,45202,39.1107404,-84.5081081
1345,Broadway Street,45202,39.1119062,-84.5091786
1341,Broadway Street,45202,39.1117641,-84.5091436
1343,Broadway Street,45202,39.1118359,-84.5091593
1349,Broadway Street,45202,39.1120394,-84.5092039
1353,Broadway Street,45202,39.1121500,-84.5092535
1347,Broadway Street,45202,39.1119692,-84.5092106
1351,Broadway Street,45202,39.1121007,-84.5092243
1400,Sycamore Street,45202,39.1115703,-84.5103807
1404,Sycamore Street,45202,39.1116593,-84.5104200
306,East 14th Street,45202,39.1116550,-84.5102466
212,East 14th Street,45202,39.1113942,-84.5115147
533,East 13th Street,45202,39.1106082,-84.5054011
521,East 13th Street,45202,39.1105484,-84.5059244
541,East 13th Street,45202,39.1106602,-84.5050400
539,East 13th Street,45202,39.1106461,-84.5051419
505,East 13th Street,45202,39.1104169,-84.5065770
501,East 13th Street,45202,39.1103997,-84.5067789
511,East 13th Street,45202,39.1104616,-84.5063529
545,East 13th Street,45202,39.1106872,-84.5048194
519,East 13th Street,45202,39.1105333,-84.5060083
537,East 13th Street,45202,39.1106362,-84.5052276
535,East 13th Street,45202,39.1106427,-84.5053174
517,East 13th Street,45202,39.1105044,-84.5060791
525,East 13th Street,45202,39.1105484,-84.5057089
527,East 13th Street,45202,39.1105749,-84.5056420
529,East 13th Street,45202,39.1105934,-84.5055405
531,East 13th Street,45202,39.1105990,-84.5054702
543,East 13th Street,45202,39.1106599,-84.5049501
509,East 13th Street,45202,39.1104515,-84.5064352
503,East 13th Street,45202,39.1104002,-84.5066930
513; 515,East 13th Street,45202,39.1104729,-84.5062191
551,East 13th Street,45202,39.1107191,-84.5046043
507,East 13th Street,45202,39.1104582,-84.5065065
549,East 13th Street,45202,39.1107061,-84.5047037
1212,Sycamore Street,45202,39.1098779,-84.5099867
1210,Sycamore Street,45202,39.1098070,-84.5099718
1200,Broadway Street,45202,39.1098146,-84.5082469
1219,Sycamore Street,45202,39.1099430,-84.5103955
404,East 12th Street,45202,39.1098408,-84.5080713
1218,Sycamore Street,45202,39.1100056,-84.5100130
1209,Sycamore Street,45202,39.1097332,-84.5104280
1216,Sycamore Street,45202,39.1099513,-84.5100142
1341,Clay Street,45202,39.1111286,-84.5131709
1335,Clay Street,45202,39.1109938,-84.5131083
1329,Clay Street,45202,39.1108097,-84.5130675
1323,Clay Street,45202,39.1106315,-84.5130344
1325,Clay Street,45202,39.1106848,-84.5130553
1345,Clay Street,45202,39.1112301,-84.5131693
1301,Walnut Street,45202,39.1098725,-84.5138022
1343,Clay Street,45202,39.1111855,-84.5131313
1313A,Walnut Street,45202,39.1101283,-84.5138683
1313,Walnut Street,45202,39.1100714,-84.5138486
1310,Race Street,45202,39.1097203,-84.5165517
15,West 14th Street,45202,39.1103774,-84.5162686
21,West 14th Street,45202,39.1103552,-84.5164127
1307,Republic Street,45202,39.1096103,-84.5161428
1324,Race Street,45202,39.1101096,-84.5166361
1308,Race Street,45202,39.1096297,-84.5164701
1317,Republic Street,45202,39.1098919,-84.5162026
1316,Race Street,45202,39.1099300,-84.5165810
1329,Republic Street,45202,39.1103053,-84.5162461
1314,Republic Street,45202,39.1098446,-84.5157885
1319,Republic Street,45202,39.1099820,-84.5162446
26,West 13th Street,45202,39.1094403,-84.5163129
310,Ezzard Charles Drive,45214,39.1095816,-84.5208320
1195,Elm Street,45202,39.1075612,-84.5183111
18,West 13th Street,45202,39.1094849,-84.5160123
1328,Race Street,45202,39.1102327,-84.5166732
20,West 13th Street,45202,39.1094300,-84.5160745
1320,Race Street,45202,39.1100414,-84.5166086
1430,Central Parkway,45202,39.1110704,-84.5200743
1427,Elm Street,45202,39.1109165,-84.5189989
1425,Elm Street,45202,39.1108739,-84.5190089
212,Magnolia Street,45202,39.1108160,-84.5193823
223,West 15th Street,45202,39.1110974,-84.5197957
214,Magnolia Street,45202,39.1107960,-84.5194552
3609,Warsaw Avenue,45205,39.1093596,-84.5715142
1660,Blue Rock Street,45223,39.1607528,-84.5419380
3924,Isabella Avenue,45209,39.1513591,-84.4320269
2974,Madison Road,45209,39.1506955,-84.4345191
2327,Rohs Street,45219,39.1257733,-84.5208239
2357,Rohs Street,45219,39.1268351,-84.5207447
2319,Rohs Street,45219,39.1254921,-84.5208445
2335,Rohs Street,45219,39.1260491,-84.5207958
2381,Rohs Street,45219,39.1275787,-84.5206146
2349,Rohs Street,45219,39.1265225,-84.5207635
2341,Rohs Street,45219,39.1262450,-84.5207688
2313,Rohs Street,45219,39.1252346,-84.5208677
2333,Rohs Street,45219,39.1259742,-84.5207950
2323,Rohs Street,45219,39.1256087,-84.5208286
2377,Rohs Street,45219,39.1274191,-84.5206458
2367,Rohs Street,45219,39.1271008,-84.5206835
2331,Rohs Street,45219,39.1259064,-84.5208180
2434,Rohs Street,45219,39.1263355,-84.5207364
2355,Rohs Street,45219,39.1267270,-84.5207567
2359,Rohs Street,45219,39.1269769,-84.5206768
2379,Rohs Street,45219,39.1275308,-84.5206098
2315,Rohs Street,45219,39.1253896,-84.5208507
2351,Rohs Street,45219,39.1265856,-84.5207677
2371,Rohs Street,45219,39.1272592,-84.5206331
2369,Rohs Street,45219,39.1271907,-84.5206474
2313,Rohs Street,45219,39.1253076,-84.5208605
2337,Rohs Street,45219,39.1261114,-84.5207748
2373,Rohs Street,45219,39.1273235,-84.5206080
"2382,2384",Rohs Street,45219,39.1273918,-84.5202036
2328,Rohs Street,45219,39.1258219,-84.5203701
2320,Wheeler Street,45219,39.1257425,-84.5204030
2344,Rohs Street,45219,39.1262034,-84.5203361
2358,Rohs Street,45219,39.1266694,-84.5202571
2330,Rohs Street,45219,39.1258845,-84.5203728
2352,Rohs Street,45219,39.1264733,-84.5202708
2350,Rohs Street,45219,39.1264053,-84.5203018
2348,Rohs Street,45219,39.1263391,-84.5202917
"2332,2334,2336,2338,2340",Rohs Street,45219,39.1260186,-84.5203451
1025,East McMillan Street,45206,39.1255632,-84.4873029
1005,East McMillan Street,45206,39.1255951,-84.4876240
1009,East McMillan Street,45206,39.1255880,-84.4875093
2111,Dana Avenue,45207,39.1434972,-84.4619363
2238,Beechmont Avenue,45230,39.0953334,-84.3868143
5571,Colerain Avenue,45239,39.1926906,-84.5724104
5571,Colerain Avenue,45239,39.1928872,-84.5726540
5500,Colerain Avenue,45239,39.1911987,-84.5709286
307,Sycamore Street,45202,39.0996164,-84.5078143
5727,Madison Road,45227,39.1604251,-84.3945640
3655,Edwards Road,45208,39.1443454,-84.4431855
1250,West 8th Street,45203,39.1045501,-84.5383810
2335,Grandview Avenue,45208,39.1224712,-84.4810846
3378,Erie Avenue,45208,39.1414101,-84.4215948
3295,Erie Avenue,45208,39.1408948,-84.4245563
3316,Erie Avenue,45208,39.1416864,-84.4241560
3501,Erie Avenue,45208,39.1407970,-84.4192332
3331,Erie Avenue,45208,39.1411760,-84.4237083
3407,Erie Avenue,45208,39.1408652,-84.4203423
2700,Observatory Avenue,45208,39.1377861,-84.4432870
2712,Observatory Avenue,45208,39.1377619,-84.4429140
2701,Observatory Avenue,45208,39.1373804,-84.4432432
2726,Observatory Avenue,45208,39.1377401,-84.4422578
2724,Observatory Avenue,45208,39.1377425,-84.4424355
2716,Observatory Avenue,45208,39.1378054,-84.4427485
3400,Michigan Avenue,45208,39.1380195,-84.4413845
2718,Observatory Avenue,45208,39.1377597,-84.4426136
3409,Michigan Avenue,45208,39.1380617,-84.4421017
3411,Michigan Avenue,45208,39.1381854,-84.4421480
2747,Erie Avenue,45208,39.1391411,-84.4411346
3424,Edwards Road,45208,39.1384290,-84.4431612
2767,Erie Avenue,45208,39.1391083,-84.4403713
3009,Lavinia Avenue,45208,39.1331172,-84.4605387
810,Delta Avenue,45266,39.1275909,-84.4316543
2753,Erie Avenue,45208,39.1391074,-84.4407923
3014,Alpine Terrace,45208,39.1293127,-84.4340692
2801,Erie Avenue,45208,39.1390154,-84.4398202
6150,Glenway Avenue,45211-6319,39.1451773,-84.6200168
6030,Glenway Avenue,45211-6318,39.1438066,-84.6181297
812,Delta Avenue,45266,39.1276565,-84.4314962
814,Delta Avenue,45266,39.1277361,-84.4313934
816,Delta Avenue,45266,39.1278119,-84.4312739
3442,Edwards Road,45208,39.1391979,-84.4431134
2709,Woodburn Avenue,45206,39.1282076,-84.4783718
3025,Disney Street,45209,39.1606082,-84.4303460
2818,Erie Avenue,45208,39.1396090,-84.4391619
2820,Erie Avenue,45208,39.1400062,-84.4390858
1116,Main Street,45202,39.1084270,-84.5111849
1124,Main Street,45202,39.1085348,-84.5112071
1126,Main Street,45202,39.1086223,-84.5112596
1142,Main Street,45202,39.1089975,-84.5113563
3720,Sachem Avenue,45226,39.1142820,-84.4330794
3568,Columbia Parkway,45226,39.1157230,-84.4364528
3520,Eastern Avenue,45226,39.1160720,-84.4389844
2845,Erie Avenue,45208,39.1386758,-84.4378502
2860,Observatory Avenue,45208,39.1373796,-84.4359439
3313,Riverside Drive,45226,39.1178112,-84.4426188
4855,Kellogg Avenue,45226,39.0852834,-84.4277305
124,East 13th Street,45202,39.1099909,-84.5123778
120,East 13th Street,45202,39.1099647,-84.5124776
95,East Freedom Way,45202,39.0968377,-84.5105451
319,Ludlow,45220,39.1431956,-84.5200018
3689,Clifton Avenue,45220,39.1491886,-84.5195801
737,Ezzard Charles Drive,45214,39.1089570,-84.5267654
1030,Cutter Street,45203,39.1065788,-84.5245547
326,East 8th Street,45202,39.1055453,-84.5077216
100,West 5th Street,45202,39.1015319,-84.5152307
4370,Beech Hill Avenue,45223-1806,39.1681135,-84.5357966
3725,Paxton Avenue,45209,39.1453232,-84.4318579
2428,Boone Street,45206,39.1261474,-84.4963583
1443,Walnut Street,45202,39.1124688,-84.5143959
1517,Elm Street,45202,39.1119224,-84.5192667
10,West 9th Street,45202,39.1055516,-84.5147209
919,Vine Street,45202,39.1059140,-84.5144597
1211,Vine Street,45202,39.1086187,-84.5151465
1310,Vine Street,45202,39.1101072,-84.5145451
1300,Vine Street,45202,39.1096300,-84.5148858
28,East 13th Street,45202,39.1097566,-84.5140499
3906,Middleton Avenue,45220-1129,39.1570141,-84.5211561
1910,Elm Street,45202,39.1172254,-84.5199229
5000,Colerain Avenue,45223,39.1772205,-84.5612970
124,West Elder Street,45202,39.1155339,-84.5194243
3923,Isabella Avenue,45209,39.1510349,-84.4324376
3081,Madison Road,45209,39.1522581,-84.4309135
3098,Madison Road,45209,39.1534702,-84.4299424
30,East Central Parkway,45202,39.1076500,-84.5132366
20,East Central Parkway,45202,39.1076939,-84.5135644
111,East 12th Street,45202,39.1084430,-84.5126442
117,East 12th Street,45202,39.1084582,-84.5125421
119,East 12th Street,45202,39.1084745,-84.5124372
191,Rosa Parks Street,45202,39.0973862,-84.5123763
60,West Charlton Street,45219,39.1310013,-84.5125477
801,Matson Place,45204,39.1057234,-84.5574133
200,West McMillan Avenue,45219,39.1279914,-84.5193662
135,Joe Nuxhall Way,45202,39.0969285,-84.5090445
1702,Carll Street,45225,39.1351700,-84.5512566
2726,Johnstone Place,45206,39.1286916,-84.4723316
4613,Marburg Avenue,45209,39.1602989,-84.4272436
5490,Beechmont Avenue,45230,39.1045455,-84.3901049
2911,Scioto Lane,45219,39.1336528,-84.5121702
1,West Corry Street,45219,39.1285289,-84.5091570
2517,Foxcove Court,45211,39.1500180,-84.5797142
1701,Mercy Health Place,45237,39.1690621,-84.4644968
435,East Martin Luther King Drive,45229,39.1347703,-84.4992946
101,East Corry Street,45219,39.1285721,-84.5071776
3083,Madison Road,45209,39.1524423,-84.4307611
3089,Madison Road,45209,39.1525381,-84.4306666
5110,Herringbone Drive,45227,39.1593477,-84.4068334
4775,Red Bank Expressway,45208,39.1574772,-84.4071362
600,Walnut Street,45202,39.1029816,-84.5113973
3113,Werk Road,45211,39.1403038,-84.6047104
3047,Boudinot Avenue,45238,39.1400508,-84.6046825
3043,Boudinot Avenue,45238,39.1399063,-84.6046690
3039,Boudinot Avenue,45238,39.1397693,-84.6046673
3141,Werk Road,45211,39.1398624,-84.6055299
3035,Boudinot Avenue,45238,39.1395684,-84.6046670
3029,Boudinot Avenue,45238,39.1393752,-84.6046812
3121,Werk Road,45211,39.1403187,-84.6052466
3125,Werk Road,45211,39.1403349,-84.6054433
3129,Werk Road,45211,39.1403380,-84.6056322
3108,Westbrook Drive,45238,39.1394842,-84.6050939
3112,Westbrook Drive,45238,39.1394928,-84.6052638
3116,Westbrook Drive,45238,39.1395021,-84.6054491
3120,Westbrook Drive,45238,39.1394837,-84.6056410
4017,Reading Road,45229-1708,39.1640165,-84.4725954
3759,Ferdinand Place,45209,39.1465168,-84.4304240
2770,Observatory Avenue,45208,39.1378096,-84.4405877
2872,Erie Avenue,45208,39.1392673,-84.4365743
2666,Madison Road,45208,39.1444095,-84.4449972
2901,Short Vine Street,45219,39.1330404,-84.5094766
1501,Elm Street,45202,39.1114368,-84.5191246
210,West 15th Street,45202,39.1114657,-84.5194407
2500,South Market Street,45219,39.1278070,-84.5162053
819,Delta Avenue,45266,39.1282545,-84.4314552
3195,Linwood Avenue,45208,39.1288513,-84.4307407
3199,Linwood Avenue,45208,39.1284845,-84.4310816
1915,Mears Avenue,45230,39.0883321,-84.3865143
3417,Duncan Avenue,45208,39.1378051,-84.4360013
3400,Duncan Avenue,45208,39.1373819,-84.4355241
2723,Montana Avenue,45238,39.1509320,-84.5869851
26,West Martin Luther King Drive West,45268,39.1367924,-84.5112532
35,West Mitchell Avenue,45217,39.1606065,-84.5060130
235,Calhoun Street,45219,39.1280713,-84.5162980
2625,Reading Road,45206,39.1296708,-84.5000403
7631,Daly Road,45224,39.2127311,-84.5322444
3958,Warwick Avenue,45229,39.1587643,-84.4918498
5345,Medpace Way,45227,39.1585389,-84.4031832
2366,Kipling Avenue,45239,39.2028950,-84.5704828
2360,Kipling Avenue,45239,39.2033894,-84.5689295
1612,Ross Avenue,45205,39.1175883,-84.5706722
1769,Carll Street,45225,39.1346581,-84.5531666
3159,Montana Avenue,45211,39.1482885,-84.6051733
1884,Hawkins Avenue,45225,39.1505732,-84.5604003
6124,Campus Lane,45230,39.0921975,-84.3883835
2444,Madison Road,45208,39.1405745,-84.4541035
5945;5959,Kellogg Avenue,45230,39.0636189,-84.4231783
171,Pedretti Avenue,45238,39.0802457,-84.6013100
1735,Blue Rock Street,45223,39.1610575,-84.5458288
3668,Clifton Avenue,45220,39.1493504,-84.5180318
3434,Telford Street,45220,39.1449088,-84.5201459
2500,Highland Avenue,45219,39.1270473,-84.5030716
4150,Reading Road,45229,39.1587162,-84.4735532
4381,Reading Road,45229,39.1643010,-84.4721046
6018,Hamilton Avenue,45224,39.2005505,-84.5473614
6014,Hamilton Avenue,45224,39.2003598,-84.5470582
1538,Cedar Avenue,45224,39.1988321,-84.5458203
5045,Wooden Shoe Lane,45232,39.1841127,-84.5191418
793,East McMillan Street,45206,39.1258329,-84.4908880
1622,Sycamore Street,45202,39.1133589,-84.5106044
1608,Pleasant Street,45202,39.1135113,-84.5182758
4526,Glenway Avenue,45205-1572,39.1134581,-84.5900139
6217,Roxbury Street,45230,39.0959370,-84.3862562
2058,Sutton Avenue,45230-1640,39.0922450,-84.3891849
2090,Autumnhill Court,45230,39.0907816,-84.3755732
6831 B,Buckingham Place,45227,39.1553438,-84.3790936
1344,Spring Street,45202,39.1117788,-84.5080344
1342,Spring Street,45202,39.1117275,-84.5080227
1340,Spring Street,45202,39.1116756,-84.5080104
1338,Spring Street,45202,39.1116229,-84.5079983
1336,Spring Street,45202,39.1115624,-84.5079846
15,East 14th Street,45202,39.1108785,-84.5145763
3980,Erie Avenue,45208,39.1498959,-84.4076101
5320,Stewart Avenue,45227,39.1651639,-84.3955884
3922,Odin Avenue,45213,39.1875100,-84.4035282
3250,Brotherton Road,45209,39.1540901,-84.4255016
2918-2920,Observatory Avenue,45208,39.1374505,-84.4348046
5901,Montgomery Road,45213-1609,39.1797937,-84.4345160
6112,Montgomery Road,45213,39.1822159,-84.4265612
4141-3,Hamilton Avenue,45223,39.1614795,-84.5396418
311,Straight Street,45219-1018,39.1293989,-84.5222428
203,Fairfax Avenue,45207,39.1354602,-84.4618584
2145,Dana Avenue,45207,39.1443054,-84.4596508
1428,Elm Street,45202,39.1110781,-84.5185417
1424,Elm Street,45202,39.1110060,-84.5185175
2726,Cypress Way,45212,39.1732182,-84.4392256
202,West McMillan Avenue,45219,39.1279985,-84.5194721
551,West Water Street,45202,39.0936052,-84.5194508
2061,Mistyoak Lane,45237,39.1782128,-84.4574351
476,Riddle View Lane,45220,39.1364355,-84.5234779
6009,Hamilton Avenue,45224,39.2004602,-84.5476809
4150,Reading Road,45229,39.1586187,-84.4735532
5642,Hamilton Avenue,45224,39.1932076,-84.5435439
116,West 15th Street,45202,39.1115726,-84.5178835
1425-1437,Vine Street,45202,39.1114664,-84.5158727
1419,Pleasant Street,45202,39.1108555,-84.5180995
118,East 6th Street,45202,39.1030104,-84.5111090
1830,Race Street,45202,39.1164257,-84.5181933
1832,Race Street,45202,39.1164840,-84.5182243
4900,Charlemar Drive,45227,39.1581469,-84.4107351
30,East 15th Street,45202,39.1122904,-84.5145132
4695,Marburg Avenue,45209,39.1605814,-84.4252901
4605,Factory Colony Lane,45209,39.1588281,-84.4297294
4615,Factory Colony Lane,45209,39.1593606,-84.4295326
1405,Walnut Street,45202,39.1113087,-84.5140435
740;746;752,Wayne Street,45206,39.1254995,-84.4928768
718;722;728;734,Wayne Street,45206,39.1255477,-84.4937391
739;749;757;767,East McMillan Street,45206,39.1259124,-84.4925827
931;939;957,East McMillan Street,45206,39.1256242,-84.4889821
1430,Vine Street,45202,39.1118622,-84.5153993
1430,Vine Street,45202,39.1118055,-84.5154037
1428,Vine Street,45202,39.1117464,-84.5154294
1422,Race Street,45202,39.1109981,-84.5168986
1420,Race Street,45202,39.1109314,-84.5168819
3191,River Road,45204,39.0850961,-84.5749857
1708,Race Street,45202,39.1145531,-84.5177623
1714,Race Street,45202,39.1147436,-84.5178538
718,East McMillan Street,45206,39.1264240,-84.4942726
722,East McMillan Street,45206,39.1264101,-84.4940510
724,East McMillan Street,45206,39.1263037,-84.4940270
726-730,East McMillan Street,45206,39.1263953,-84.4939090
959,East McMillan Street,45206,39.1255874,-84.4884936
975,East McMillan Street,45206,39.1255927,-84.4881467
210,East 8th Street,45202,39.1051585,-84.5101058
3653,River Road,45204,39.0789982,-84.5932408
213,Magnolia Street,45202,39.1105242,-84.5193207
2601,West 8th Street,45204,39.1053263,-84.5566147
3365,Vandercar Way,45209,39.1578697,-84.4239327
3046,Madison Road,45209,39.1520569,-84.4323253
209,West 7th Street,45202,39.1028019,-84.5172695
6015,Winton Road,45224,39.2000276,-84.5226385
1526,Elm Street,45202,39.1120195,-84.5188007
1530,Elm Street,45202,39.1121012,-84.5188707
1540,Elm Street,45202,39.1123749,-84.5188735
1611,Pleasant Street,45202,39.1135180,-84.5187299
1417,Pleasant Street,45202,39.1107918,-84.5180877
1415,Pleasant Street,45202,39.1107219,-84.5180654
1413,Pleasant Street,45202,39.1106600,-84.5180527
1408,Pleasant Street,45202,39.1106092,-84.5176965
1412,Pleasant Street,45202,39.1106782,-84.5177154
1414,Pleasant Street,45202,39.1107408,-84.5177350
1416,Pleasant Street,45202,39.1108033,-84.5177475
2222,Chickasaw Street,45219,39.1242104,-84.5216227
1233,Walnut Street,45202,39.1094947,-84.5136489
33,East 13th Street,45202,39.1095420,-84.5137822
14,East 13th Street,45202,39.1097069,-84.5144868
1208,Clay Street,45202,39.1090974,-84.5122676
2512,Foxcove Court,45211,39.1495544,-84.5794503
2516,Foxcove Court,45211,39.1496857,-84.5793563
2520,Foxcove Court,45211,39.1497730,-84.5792127
2524,Foxcove Court,45211,39.1497678,-84.5789959
2528,Foxcove Court,45211,39.1497310,-84.5787566
2532,Foxcove Court,45211,39.1498486,-84.5785091
2509,Foxcove Court,45211,39.1493175,-84.5799351
2485,Deercove Court,45211,39.1492549,-84.5802543
2489,Deercove Court,45211,39.1492112,-84.5804600
2493,Deercove Court,45211,39.1491280,-84.5806388
2497,Deercove Court,45211,39.1490488,-84.5808492
2501,Deercove Court,45211,39.1490793,-84.5811138
3301,Madison Road,45209,39.1563317,-84.4240942
1537,Republic Street,45202,39.1126910,-84.5169327
1801,Gilbert Avenue,45202,39.1156752,-84.4992321
1503,Elm Street,45202,39.1115039,-84.5191430
1505,Elm Street,45202,39.1115721,-84.5191603
1507,Elm Street,45202,39.1116398,-84.5191776
1509,Elm Street,45202,39.1117060,-84.5191943
1511,Elm Street,45202,39.1117728,-84.5192097
1513,Elm Street,45202,39.1118393,-84.5192253
2347,Reading Road,45202,39.1246675,-84.5021998
1701,Vine Street,45202,39.1145314,-84.5165799
1301,Western Avenue,45203,39.1098497,-84.5353250
218,West 15th Street,45202,39.1114360,-84.5197261
214,West 15th Street,45202,39.1114504,-84.5195854
212,West 15th Street,45202,39.1114717,-84.5195149
1036,West Liberty Street,45214,39.1143694,-84.5333682
2918,Werk Road,45211,39.1423109,-84.5981489
4050,Paul Road,45238,39.0911811,-84.5820131
138,West Court Street,45202,39.1061052,-84.5172564
1875,William Howard Taft Road,45206,39.1257484,-84.4676286
1580,Summit Road,45237,39.2026746,-84.4651002
3,East 4th Street,45202,39.0997143,-84.5119210
358,Gest Street,45203,39.0980696,-84.5230334
2700,OVarsity Way,45221,39.1311549,-84.5140928
3401,Reading Road,45229,39.1412653,-84.4936318
3387,Erie Avenue,45208,39.1409137,-84.4210676
3397,Erie Avenue,45208,39.1408899,-84.4207100
3417,Erie Avenue,45208,39.1408396,-84.4199928
3412,Clifton Avenue,45220,39.1441438,-84.5187477
1118,Sycamore Street,45202,39.1091516,-84.5095201
1409,Republic Street,45202,39.1108022,-84.5163959
113,West 4th Street,45202,39.0993657,-84.5146907
470,Lafayette Avenue,45220,39.1567165,-84.5256582
1429,Vine Street,45202,39.1113920,-84.5157052
1425,Vine Street,45202,39.1113231,-84.5156900
1435,Vine Street,45202,39.1115243,-84.5157357
1209,Jackson Street,45202,39.1087406,-84.5142748
1505,Vine Street,45202,39.1119676,-84.5159799
222,West 12th Street,45202,39.1079242,-84.5193195
524,Wade Street,45214,39.1121281,-84.5241889
528,Wade Street,45214,39.1121298,-84.5243029
530,Wade Street,45214,39.1121332,-84.5243609
532,Wade Street,45214,39.1121368,-84.5244273
534,Wade Street,45214,39.1121399,-84.5244864
536,Wade Street,45214,39.1121492,-84.5245421
538,Wade Street,45214,39.1121539,-84.5246017
518,David Street,45214,39.1118283,-84.5240601
528,David Street,45214,39.1118377,-84.5242349
530,David Street,45214,39.1118411,-84.5242904
540,David Street,45214,39.1118503,-84.5244575
542,David Street,45214,39.1118544,-84.5245139
519,David Street,45214,39.1115651,-84.5240596
521,David Street,45214,39.1115680,-84.5241135
539,David Street,45214,39.1115921,-84.5244235
541,David Street,45214,39.1115951,-84.5244798
551,David Street,45214,39.1116057,-84.5246523
708,David Street,45214,39.1119481,-84.5260169
714,David Street,45214,39.1119543,-84.5261306
720,David Street,45214,39.1119606,-84.5262404
726,David Street,45214,39.1119690,-84.5263696
732,David Street,45214,39.1119745,-84.5264815
734,David Street,45214,39.1119798,-84.5265391
736,David Street,45214,39.1119822,-84.5265936
738,David Street,45214,39.1119849,-84.5266532
709,David Street,45214,39.1116763,-84.5260406
715,David Street,45214,39.1116898,-84.5261530
721,David Street,45214,39.1117014,-84.5262673
723,David Street,45214,39.1116976,-84.5263296
729,David Street,45214,39.1117096,-84.5264518
735,David Street,45214,39.1117149,-84.5265644
737,David Street,45214,39.1117175,-84.5266203
700,Derrick Turnbow Avenue,45214,39.1113175,-84.5260149
706,Derrick Turnbow Avenue,45214,39.1113329,-84.5261857
722,Derrick Turnbow Avenue,45214,39.1113522,-84.5264916
724,Derrick Turnbow Avenue,45214,39.1113546,-84.5265447
726,Derrick Turnbow Avenue,45214,39.1113532,-84.5266035
728,Derrick Turnbow Avenue,45214,39.1113577,-84.5266639
1618,Pleasant Street,45202,39.1137384,-84.5185201
1616,Pleasant Street,45202,39.1136437,-84.5185044
1614,Pleasant Street,45202,39.1135925,-84.5184887
1604,Pleasant Street,45202,39.1133785,-84.5183712
1617,Race Street,45202,39.1136217,-84.5180767
1600,Pleasant Street,45202,39.1132967,-84.5184589
1633,Race Street,45202,39.1140484,-84.5181223
1432,Elm Street,45202,39.1111698,-84.5186798
131,West 15th Street,45202,39.1111868,-84.5185566
127,West 15th Street,45202,39.1111942,-84.5184450
1409,Race Street,45202,39.1107006,-84.5173052
1411,Race Street,45202,39.1107551,-84.5173228
1523,Republic Street,45202,39.1122929,-84.5168371
1519,Republic Street,45202,39.1121640,-84.5168087
1507,Republic Street,45202,39.1118710,-84.5166983
1509,Republic Street,45202,39.1119372,-84.5166897
1525,Republic Street,45202,39.1123630,-84.5168574
120,East 14th Street,45202,39.1114702,-84.5128889
1425,Main Street,45202,39.1120377,-84.5126284
1519,Vine Street,45202,39.1123222,-84.5160628
1510,Republic Street,45202,39.1120181,-84.5163932
214,East Liberty Street,45202,39.1128355,-84.5118190
1639,Sycamore Street,45202,39.1136504,-84.5110103
314,Milton Street,45202,39.1135747,-84.5100734
1328,Republic Street,45202,39.1103659,-84.5159352
1311,Vine Street,45202,39.1098959,-84.5156207
1621,Logan Street,45202,39.1139221,-84.5208542
1433,Pleasant Street,45202,39.1111443,-84.5181702
1435,Pleasant Street,45202,39.1112073,-84.5181910
1437,Pleasant Street,45202,39.1112699,-84.5182029
120,West 14th Street,45202,39.1103480,-84.5180062
118,West 14th Street,45202,39.1103574,-84.5179536
724,Betton Street,45214,39.1107124,-84.5265481
732,Betton Street,45214,39.1107221,-84.5267190
730,Betton Street,45214,39.1107189,-84.5266633
722,Betton Street,45214,39.1107085,-84.5264936
720,Betton Street,45214,39.1107049,-84.5264346
702,Betton Street,45214,39.1106801,-84.5260796
1008,Race Street,45202,39.1064622,-84.5157411
36,West Court Street,45202,39.1063412,-84.5154685
34,West Court Street,45202,39.1063498,-84.5154071
749,Betton Street,45214,39.1104865,-84.5270111
739,Betton Street,45214,39.1104758,-84.5268406
731,Betton Street,45214,39.1104654,-84.5266688
727,Betton Street,45214,39.1104311,-84.5265313
709,Betton Street,45214,39.1104371,-84.5262455
707,Betton Street,45214,39.1104338,-84.5261891
729,Betton Street,45214,39.1104352,-84.5265957
1426,Race Street,45202,39.1111124,-84.5168757
522,Wade Street,45214,39.1121253,-84.5241319
526,Wade Street,45214,39.1121268,-84.5242456
830,Ezzard Charles Drive,45214-2525,39.1101730,-84.5299901
1515,Linn Street,45214,39.1117565,-84.5281722
1425,Linn Street,45214,39.1109740,-84.5286140
1317,Main Street,45202,39.1103634,-84.5121203
702,Derrick Turnbow Avenue,45214,39.1113204,-84.5260757
704,Derrick Turnbow Avenue,45214,39.1113302,-84.5261315
712,Derrick Turnbow Avenue,45214,39.1113354,-84.5263077
716,Derrick Turnbow Avenue,45214,39.1113404,-84.5263726
1324,Walnut Street,45202,39.1105030,-84.5134914
1302,Walnut Street,45202,39.1099498,-84.5133371
1801,Race Street,45202,39.1153664,-84.5189819
1700,Elm Street,45202,39.1141100,-84.5193114
1631,Republic Street,45202,39.1139777,-84.5169847
1623,Republic Street,45202,39.1138139,-84.5169208
"1619,1621",Republic Street,45202,39.1137192,-84.5168721
17,Green Street,45202,39.1142198,-84.5170849
1706,Republic Street,45202,39.1147285,-84.5168595
1808,Vine Street,45202,39.1159404,-84.5164709
1816,Vine Street,45202,39.1161977,-84.5165205
1409,Clay Street,45202,39.1116523,-84.5132670
1325A,Republic Street,45202,39.1101077,-84.5162179
1325B,Republic Street,45202,39.1101584,-84.5162370
1325C,Republic Street,45202,39.1102107,-84.5162434
1527,Race Street,45202,39.1122785,-84.5177057
1531,Race Street,45202,39.1124200,-84.5177242
1134,Main Street,45202,39.1088517,-84.5112927
132,West Court Street,45202,39.1061356,-84.5170490
130,West Court Street,45202,39.1061339,-84.5169724
1510,Moore Street,45202,39.1125172,-84.5148137
24,East 15th Street,45202,39.1122872,-84.5147328
28,East 15th Street,45202,39.1122924,-84.5145876
1447,Walnut Street,45202,39.1125767,-84.5144058
221,Magnolia Street,45202,39.1104948,-84.5195575
219,Magnolia Street,45202,39.1105061,-84.5195040
1415,Central Parkway,45202,39.1103227,-84.5207437
216,West 15th Street,45202,39.1114228,-84.5196506
215,Odeon Street,45202,39.1117815,-84.5198051
219,Odeon Street,45202,39.1117598,-84.5197417
140,West 9th Street,45202,39.1054099,-84.5168806
920,Elm Street,45202,39.1056215,-84.5171683
103,West Court Street,45202,39.1058721,-84.5161358
911,Race Street,45202,39.1054910,-84.5160383
909,Race Street,45202,39.1054101,-84.5160194
907,Race Street,45202,39.1053431,-84.5160007
104,West 9th Street,45202,39.1052489,-84.5159823
4460,Berwick Street,45227,39.1542750,-84.3732631
419,Hopkins Street,45203,39.1080979,-84.5221039
421,Hopkins Street,45203,39.1080891,-84.5221538
601,East Pete Rose Way,45202,39.1003429,-84.5008169
1408,Sycamore Street,45202,39.1118045,-84.5104053
13,East Court Street,45202,39.1060835,-84.5136674
4916,Barrow Avenue,45209,39.1628130,-84.4203454
3939,Erie Avenue,45208,39.1482977,-84.4074224
4430,Red Bank Expressway,45227,39.1540882,-84.4032940
1225,Jackson Street,45202,39.1092069,-84.5144095
1227,Jackson Street,45202,39.1093500,-84.5144300
2800,Clifton Avenue,45221,39.1331313,-84.5196692
1331,Spring Street,45202,39.1113606,-84.5082040
3401,Rosenthal Way,45204,39.0841166,-84.5794942
3080,Exploration Avenue,45206,39.1341633,-84.4947185
660,Lincoln Avenue,45206,39.1329521,-84.4932539
100,East Central Parkway,45202,39.1079745,-84.5125994
200,Albert Sabin Way,45221,39.1402890,-84.5047539
195,East McMillan Street,45219,39.1264534,-84.5040886
953,Eden Park Drive,45202,39.1139744,-84.4970925
1338,Main Street,45202,39.1109414,-84.5118416
250,East 5th Street,45202,39.1021966,-84.5086900
221,East 4th Street,45202,39.1001532,-84.5081026
35,West 5th Street,45202,39.1006786,-84.5139536
550,Main Street,45202,39.1023767,-84.5094937
1014,Vine Street,45202,39.1067696,-84.5139092
7,West 7th Street,45202,39.1032644,-84.5141455
325,West Eighth Street,45202,39.1034226,-84.5194701
801,Plum Street,45202,39.1041358,-84.5197018
800,Vine Street,45202,39.1049863,-84.5132999
610,Eden Park Drive,45202,39.1181287,-84.4979666
5090,Observatory Circle,45208,39.1343703,-84.4124429
151,West 5th Street,45202,39.1003985,-84.5156342
478,Wilmer Avenue,45226-1834,39.1075629,-84.4223935
5642,Hamilton Avenue,45224,39.1925078,-84.5432193
424,Straight Street,45219,39.1303583,-84.5230461
209,West 7th Street,45202,39.1028019,-84.5172695
1213,Vine Street,45202,39.1087015,-84.5151506
1501,Central Parkway,45214,39.1111350,-84.5222860
1311,Vine Street,45202,39.1098959,-84.5156207
"1514, 1516",Elm Street,45202,39.1117972,-84.5187627
1223,Republic Street,45202,39.1088663,-84.5159322
