House number,Street name,Postal code,Latitude,Longitude
23777,US Route 23,43113,39.5842178,-82.9540086
1300,S Court St,43113,39.5867151,-82.9519755
23455,US 23 South,43113,39.5888257,-82.9559538
23401,US 23 South,43113,39.5887862,-82.9546148
24001,US 23 S,43113,39.5817539,-82.9543949
23501,US 23 South,43113,39.5881889,-82.9545590
460,Lancaster Pike,43113,39.6028527,-82.9259847
23865,US-23,43113,39.5835014,-82.9540603
23911,US-23,43113,39.5826663,-82.9546987
23897,US-23,43113,39.5839521,-82.9542105
24061,US 23 S,43113,39.5798020,-82.9548820
111,N Court St,43113,39.6022538,-82.9451066
175,Lancaster Pike,43113,39.5981350,-82.9314430
301,North Court Street,43113,39.6044341,-82.9443380
1641,South Court Street,43113,39.5795238,-82.9521741
1395,South Court Street,43113,39.5870635,-82.9529013
23601,US 23,43113,39.5874380,-82.9544496
23367,US 23,43113,39.5894690,-82.9557341
1520,South Court Street,43113,39.5808074,-82.9506037
507,South Scioto Street,43113,39.5983485,-82.9501894
370,Faye Avenue,43113,39.5942136,-82.9309628
372,Faye Avenue,43113,39.5940306,-82.9309702
369,Brown Street,43113,39.5940179,-82.9306349
367,Brown Street,43113,39.5941994,-82.9306292
23735,US 23 Access Rd,43113,39.5850556,-82.9548633
100,Tiger Drive,43113,39.6124639,-82.9218746
380,Clark Drive,43113,39.6079175,-82.9229380
360,Clark Drive,43113,39.6079505,-82.9245777
663,Island Road,43113,39.6101990,-82.9556780
600,North Pickaway Street,43113,39.6101599,-82.9365132
1160,North Court Street,43113,39.6191705,-82.9385653
23923,US 23 South,43113,39.5827843,-82.9538245
21955,Hassle Dr,43113,39.6097659,-82.9549987
224,South Court Street,43113,39.5999549,-82.9457427
1399,Stoutsville Pike,43113,39.5977110,-82.9110426
23625,US Highway 23 South,43113,39.5866602,-82.9557908
415,Lancaster Pike,43113,39.5992886,-82.9261710
151,East Franklin Street,43113,39.6000489,-82.9438922
310,East Main Street,43113,39.6006950,-82.9400480
407,E Main St,43113,39.5993196,-82.9377418
124,E Main St,43113,39.6018079,-82.9440441
134,West Mound Street,43113,39.6005548,-82.9474030
134,West Mound Street,43113,39.6005046,-82.9471700
24191,US Highway 23 South,43113,39.5794120,-82.9537115
300,West Main Street,43113,39.6034630,-82.9488425
339,Victor Drive,43113,39.6275016,-82.9343092
133,West Main Street,43113,39.6020151,-82.9467418
160,Lancaster Pike,43113,39.5990792,-82.9333893
204,Lancaster Pike,43113,39.5997931,-82.9309614
224,Lancaster Pike,43113,39.6003717,-82.9295047
600,Island Road,43113,39.6117030,-82.9518903
122,West Franklin Street,43113,39.6013063,-82.9464572
124,West Franklin Street,43113,39.6013612,-82.9466466
116,West Franklin Street,43113,39.6012525,-82.9463164
219,South Court Street,43113,39.6003448,-82.9462656
225,South Court Street,43113,39.6001503,-82.9463717
139,West Franklin Street,43113,39.6010567,-82.9470896
143,West Franklin Street,43113,39.6011523,-82.9473880
149,West Franklin Street,43113,39.6012162,-82.9475128
151,West Franklin Street,43113,39.6012480,-82.9476596
155,West Franklin Street,43113,39.6013341,-82.9478498
161,West Franklin Street,43113,39.6013971,-82.9480287
163,West Franklin Street,43113,39.6014309,-82.9481957
212,South Scioto Street,43113,39.6013150,-82.9482198
212,South Scioto Street,43113,39.6012568,-82.9482791
214,South Scioto Street,43113,39.6011535,-82.9482114
180,West Franklin Street,43113,39.6017625,-82.9480564
130,West Franklin Street,43113,39.6013973,-82.9469128
220;218,South Scioto Street,43113,39.6009786,-82.9483996
168,West Mound Street,43113,39.6007359,-82.9484722
154,West Mound Street,43113,39.6006235,-82.9480182
150,West Mound Street,43113,39.6005612,-82.9479010
146,West Mound Street,43113,39.6005235,-82.9478001
144,West Mound Street,43113,39.6005157,-82.9476610
117,East Franklin Street,43113,39.6004859,-82.9450896
119,East Franklin Street,43113,39.6003201,-82.9450044
121,East Franklin Street,43113,39.6002749,-82.9448335
215,West Mound Street,43113,39.6006084,-82.9495203
313,South Western Avenue,43113,39.6003688,-82.9496628
317,South Western Avenue,43113,39.6002380,-82.9497346
319,South Western Avenue,43113,39.6001370,-82.9496937
319,South Scioto Street,43113,39.6000853,-82.9493823
321,South Scioto Street,43113,39.5999407,-82.9494320
327,South Scioto Street,43113,39.5998055,-82.9494512
210,West Union Street,43113,39.5998081,-82.9495959
215,West Union Street,43113,39.5996067,-82.9498381
403,South Scioto Street,43113,39.5995078,-82.9496513
407,South Scioto Street,43113,39.5993943,-82.9496587
417,South Scioto Street,43113,39.5992351,-82.9497793
423,South Scioto Street,43113,39.5990448,-82.9498483
429,South Scioto Street,43113,39.5989175,-82.9499275
433,South Scioto Street,43113,39.5988133,-82.9499890
162,West Union Street,43113,39.5997698,-82.9490318
158,West Union Street,43113,39.5996811,-82.9489051
150,West Union Street,43113,39.5995944,-82.9485560
146,West Union Street,43113,39.5995668,-82.9483727
138,West Union Street,43113,39.5994748,-82.9481031
128,West Union Street,43113,39.5993940,-82.9476385
132,West Union Street,43113,39.5994239,-82.9478675
133,West Mound Street,43113,39.5999977,-82.9476475
145,West Mound Street,43113,39.6000023,-82.9479020
157,West Mound Street,43113,39.6002287,-82.9484615
149,West Mound Street,43113,39.6001639,-82.9481479
163,West Mound Street,43113,39.6002572,-82.9486802
163,West Union Street,43113,39.5993722,-82.9492241
161,West Union Street,43113,39.5993370,-82.9490647
149,West Union Street,43113,39.5992258,-82.9488011
143,West Union Street,43113,39.5991430,-82.9485630
137,West Union Street,43113,39.5990620,-82.9483039
131,West Union Street,43113,39.5989511,-82.9480950
127,West Union Street,43113,39.5988947,-82.9478623
119,West Union Street,43113,39.5988934,-82.9476125
117,West Union Street,43113,39.5988327,-82.9474153
403,South Court Street,43113,39.5987304,-82.9470094
407,South Court Street,43113,39.5986069,-82.9471216
411,South Court Street,43113,39.5985082,-82.9471555
413;415,South Court Street,43113,39.5984206,-82.9471775
421,South Court Street,43113,39.5983204,-82.9472517
423,South Court Street,43113,39.5981916,-82.9472863
114,West Mill Street,43113,39.5980524,-82.9475880
116,West Mill Street,43113,39.5981185,-82.9477625
122,West Mill Street,43113,39.5982485,-82.9480168
118,West Mill Street,43113,39.5982540,-82.9478843
428,South Court Street,43113,39.5978552,-82.9468349
424,South Court Street,43113,39.5979826,-82.9467454
420,South Court Street,43113,39.5980948,-82.9467035
416,South Court Street,43113,39.5982454,-82.9466133
414,South Court Street,43113,39.5983998,-82.9465010
410,South Court Street,43113,39.5985559,-82.9464186
127,West Mound Street,43113,39.5998430,-82.9469017
105,West Mound Street,43113,39.5997238,-82.9464763
313,South Court Street,43113,39.5994388,-82.9466844
307,South Court Street,43113,39.5995713,-82.9466029
122,West Union Street,43113,39.5992767,-82.9474958
325,South Court Street,43113,39.5990923,-82.9468662
317,South Court Street,43113,39.5992595,-82.9468248
136,West Mill Street,43113,39.5983874,-82.9484952
140,West Mill Street,43113,39.5984160,-82.9486588
132,West Mill Street,43113,39.5983355,-82.9483872
206,West Mill Street,43113,39.5985168,-82.9489114
216,West Mill Street,43113,39.5985793,-82.9491608
434,South Scioto Street,43113,39.5989452,-82.9493630
324,South Court Street,43113,39.5989223,-82.9462640
318,South Court Street,43113,39.5991260,-82.9460784
316,South Court Street,43113,39.5992972,-82.9461198
304,South Court Street,43113,39.5995406,-82.9459659
503,South Scioto Street,43113,39.5985201,-82.9501496
511,South Scioto Street,43113,39.5982752,-82.9502298
517,South Scioto Street,43113,39.5981431,-82.9503113
523,South Scioto Street,43113,39.5980215,-82.9504128
527,South Scioto Street,43113,39.5978962,-82.9504887
531,South Scioto Street,43113,39.5977745,-82.9504927
535,South Scioto Street,43113,39.5976814,-82.9505908
543,South Scioto Street,43113,39.5974404,-82.9506961
224,West Corwin Street,43113,39.5973718,-82.9502753
220,West Corwin Street,43113,39.5973244,-82.9501098
214,West Corwin Street,43113,39.5972812,-82.9499340
531,Elm Avenue,43113,39.5971256,-82.9494225
529,Elm Avenue,43113,39.5972883,-82.9493574
525,Elm Avenue,43113,39.5974088,-82.9492746
521,Elm Avenue,43113,39.5975653,-82.9491773
517,Elm Avenue,43113,39.5977037,-82.9491262
534,South Scioto Street,43113,39.5975685,-82.9501796
532,South Scioto Street,43113,39.5976557,-82.9501166
526,South Scioto Street,43113,39.5977628,-82.9500686
522,South Scioto Street,43113,39.5978726,-82.9500065
518,South Scioto Street,43113,39.5980361,-82.9499383
514,South Scioto Street,43113,39.5981355,-82.9498816
510,South Scioto Street,43113,39.5982479,-82.9498128
221,West Mill Street,43113,39.5983352,-82.9495762
217,West Mill Street,43113,39.5982989,-82.9494054
215,West Mill Street,43113,39.5982215,-82.9492389
207,West Mill Street,43113,39.5981489,-82.9490613
509,Elm Avenue,43113,39.5978545,-82.9490233
514,Elm Avenue,43113,39.5977211,-82.9486517
128,West Corwin Street,43113,39.5970108,-82.9489875
520,Elm Avenue,43113,39.5974320,-82.9487319
518,Elm Avenue,43113,39.5975665,-82.9487053
129,West Mill Street,43113,39.5979402,-82.9484676
123,West Mill Street,43113,39.5978974,-82.9482908
117,West Mill Street,43113,39.5978734,-82.9481083
115,West Mill Street,43113,39.5977993,-82.9479077
507,South Court Street,43113,39.5976942,-82.9475843
513,South Court Street,43113,39.5975275,-82.9476914
517,South Court Street,43113,39.5973481,-82.9477413
523,South Court Street,43113,39.5971779,-82.9478077
531,South Court Street,43113,39.5970314,-82.9479169
533,South Court Street,43113,39.5969393,-82.9479662
535,South Court Street,43113,39.5968059,-82.9480851
543,South Court Street,43113,39.5966947,-82.9480747
118,West Corwin Street,43113,39.5967944,-82.9484426
120,West Corwin Street,43113,39.5969172,-82.9486151
124,West Corwin Street,43113,39.5969859,-82.9487769
603,South Court Street,43113,39.5964108,-82.9482706
121,West Corwin Street,43113,39.5965154,-82.9487871
125;123,West Corwin Street,43113,39.5965911,-82.9489700
129,West Corwin Street,43113,39.5966831,-82.9491871
620,Elm Avenue,43113,39.5962902,-82.9493127
622,Elm Avenue,43113,39.5961760,-82.9493940
615,South Court Street,43113,39.5960819,-82.9483698
621,South Court Street,43113,39.5959575,-82.9484561
623,South Court Street,43113,39.5958588,-82.9484868
627,South Court Street,43113,39.5957800,-82.9485155
124,West Ohio Street,43113,39.5956275,-82.9494342
120,West Ohio Street,43113,39.5955926,-82.9493291
118,West Ohio Street,43113,39.5955648,-82.9492495
637,South Court Street,43113,39.5954671,-82.9486665
639,South Court Street,43113,39.5953711,-82.9487310
629,South Court Street,43113,39.5955742,-82.9486128
116,West Ohio Street,43113,39.5954967,-82.9490761
128,West Ohio Street,43113,39.5957149,-82.9496536
636,Elm Avenue,43113,39.5959338,-82.9495432
632,Elm Avenue,43113,39.5960396,-82.9494422
601,Elm Avenue,43113,39.5967712,-82.9495582
207,West Corwin Street,43113,39.5968169,-82.9497168
213,West Corwin Street,43113,39.5969093,-82.9498782
215,West Corwin Street,43113,39.5969733,-82.9500724
604,South Scioto Street,43113,39.5970596,-82.9504055
608,South Scioto Street,43113,39.5969400,-82.9504852
614,South Scioto Street,43113,39.5968189,-82.9505602
618,South Scioto Street,43113,39.5966959,-82.9505443
620,South Scioto Street,43113,39.5966187,-82.9506198
624,South Scioto Street,43113,39.5965325,-82.9506751
628,South Scioto Street,43113,39.5964624,-82.9508140
642,South Scioto Street,43113,39.5961865,-82.9509183
621,South Scioto Street,43113,39.5967574,-82.9510733
615,South Scioto Street,43113,39.5968862,-82.9509588
611,South Scioto Street,43113,39.5970205,-82.9509064
607,South Scioto Street,43113,39.5971453,-82.9509102
601,South Scioto Street,43113,39.5972657,-82.9508041
214,West Ohio Street,43113,39.5959152,-82.9503951
208,West Ohio Street,43113,39.5958652,-82.9502251
623,Elm Avenue,43113,39.5963134,-82.9497978
213,West Ohio Street,43113,39.5955371,-82.9505169
207,West Ohio Street,43113,39.5954725,-82.9503494
129,West Ohio Street,43113,39.5953113,-82.9498691
121,West Ohio Street,43113,39.5952696,-82.9496626
119,West Ohio Street,43113,39.5951929,-82.9494739
705,South Court Street,43113,39.5950103,-82.9489187
715,South Court Street,43113,39.5948194,-82.9490103
717,South Court Street,43113,39.5946084,-82.9490599
119,East Ohio Street,43113,39.5946969,-82.9476666
117,East Ohio Street,43113,39.5947265,-82.9478013
702,South Court Street,43113,39.5948631,-82.9484402
724,South Darby Creek Road,43146,39.5944813,-82.9485909
720,South Darby Creek Road,43146,39.5945673,-82.9485390
640,South Court Street,43113,39.5951916,-82.9482046
634,South Court Street,43113,39.5953440,-82.9481170
624,South Court Street,43113,39.5955275,-82.9478940
620,South Court Street,43113,39.5958241,-82.9477969
616,South Court Street,43113,39.5959551,-82.9476956
610,South Court Street,43113,39.5961217,-82.9476174
701,South Pickaway Street,43113,39.5954857,-82.9454715
139,East Ohio Street,43113,39.5944080,-82.9469274
809,South Pickaway Street,43113,39.5938544,-82.9463627
807,South Pickaway Street,43113,39.5939787,-82.9462840
805,South Pickaway Street,43113,39.5941558,-82.9462323
811,South Pickaway Street,43113,39.5936269,-82.9464606
830,South Pickaway Street,43113,39.5933493,-82.9460160
818,South Pickaway Street,43113,39.5936796,-82.9458782
220,Barnes Avenue,43113,39.5935035,-82.9451586
225,East Ohio Street,43113,39.5938122,-82.9449754
231,East Ohio Street,43113,39.5937709,-82.9447119
239,East Ohio Street,43113,39.5937049,-82.9444965
819,South Washington Street,43113,39.5933283,-82.9446797
817,South Washington Street,43113,39.5934442,-82.9446559
802,South Washington Street,43113,39.5936020,-82.9440300
818,South Washington Street,43113,39.5928445,-82.9443807
816,South Washington Street,43113,39.5929642,-82.9443172
305,Barnes Avenue,43113,39.5928708,-82.9440062
307,Barnes Avenue,43113,39.5928403,-82.9438678
319,Barnes Avenue,43113,39.5928048,-82.9436989
321,Barnes Avenue,43113,39.5927275,-82.9435102
329,Barnes Avenue,43113,39.5925814,-82.9429631
345,Barnes Avenue,43113,39.5925135,-82.9427669
349,Barnes Avenue,43113,39.5924405,-82.9425360
351,Barnes Avenue,43113,39.5924019,-82.9423869
357,Barnes Avenue,43113,39.5923150,-82.9420276
359,Barnes Avenue,43113,39.5922531,-82.9418359
725,Clinton Street,43113,39.5922079,-82.9416526
729,Clinton Street,43113,39.5920403,-82.9417218
708,Clinton Street,43113,39.5922306,-82.9411601
706,Clinton Street,43113,39.5924175,-82.9411515
704,Clinton Street,43113,39.5925038,-82.9411233
401,East Ohio Street,43113,39.5926654,-82.9409887
407,East Ohio Street,43113,39.5926872,-82.9408036
411,East Ohio Street,43113,39.5926434,-82.9404512
413,East Ohio Street,43113,39.5926363,-82.9403132
415,East Ohio Street,43113,39.5926262,-82.9401655
417,East Ohio Street,43113,39.5926185,-82.9399138
419,East Ohio Street,43113,39.5926127,-82.9397178
421,East Ohio Street,43113,39.5926088,-82.9395407
443,East Ohio Street,43113,39.5925901,-82.9393092
447,East Ohio Street,43113,39.5925666,-82.9391416
451,East Ohio Street,43113,39.5925786,-82.9389776
453,East Ohio Street,43113,39.5925814,-82.9387838
455,East Ohio Street,43113,39.5925648,-82.9385884
438,East Ohio Street,43113,39.5930102,-82.9393650
446,East Ohio Street,43113,39.5929998,-82.9390451
450,East Ohio Street,43113,39.5929490,-82.9389213
452,East Ohio Street,43113,39.5930446,-82.9387860
454,East Ohio Street,43113,39.5929844,-82.9386439
456,East Ohio Street,43113,39.5929915,-82.9385070
460,East Ohio Street,43113,39.5929740,-82.9383229
464,East Ohio Street,43113,39.5929557,-82.9381680
468,East Ohio Street,43113,39.5929331,-82.9380237
470,East Ohio Street,43113,39.5929471,-82.9378962
472,East Ohio Street,43113,39.5929420,-82.9377592
474,East Ohio Street,43113,39.5929412,-82.9376278
478,East Ohio Street,43113,39.5929319,-82.9374715
480,East Ohio Street,43113,39.5929255,-82.9373346
617,Renick Avenue,43113,39.5933763,-82.9372919
479,Half Avenue,43113,39.5935798,-82.9372795
477,Half Avenue,43113,39.5936176,-82.9374359
475,Half Avenue,43113,39.5936100,-82.9375764
469,Half Avenue,43113,39.5935796,-82.9379915
471,Half Avenue,43113,39.5936112,-82.9378635
463,Half Avenue,43113,39.5936123,-82.9381567
459,Half Avenue,43113,39.5936516,-82.9382837
619,Clinton Street,43113,39.5935878,-82.9410037
623,Clinton Street,43113,39.5935164,-82.9410345
627,Clinton Street,43113,39.5933754,-82.9410770
637,Clinton Street,43113,39.5931450,-82.9411973
360,East Ohio Street,43113,39.5932581,-82.9415728
361,East Ohio Street,43113,39.5928114,-82.9415790
375,East Ohio Street,43113,39.5927639,-82.9413601
705,Clinton Street,43113,39.5924135,-82.9415743
357,East Ohio Street,43113,39.5929279,-82.9418979
350,Barnes Avenue,43113,39.5926337,-82.9422895
348,Barnes Avenue,43113,39.5927273,-82.9425279
346,Barnes Avenue,43113,39.5927633,-82.9426348
335,East Ohio Street,43113,39.5932420,-82.9429163
333,East Ohio Street,43113,39.5932562,-82.9430652
329,East Ohio Street,43113,39.5933117,-82.9432437
324,Barnes Avenue,43113,39.5929529,-82.9432847
322,Barnes Avenue,43113,39.5929855,-82.9433902
321,East Ohio Street,43113,39.5933668,-82.9433716
317,East Ohio Street,43113,39.5934454,-82.9435365
808,South Washington Street,43113,39.5934509,-82.9441063
814,South Washington Street,43113,39.5933079,-82.9442103
343,East Ohio Street,43113,39.5931484,-82.9425866
351,East Ohio Street,43113,39.5930488,-82.9422776
355,East Ohio Street,43113,39.5929938,-82.9421038
614,Clinton Street,43113,39.5935028,-82.9405543
608,Clinton Street,43113,39.5936240,-82.9405171
602,Clinton Street,43113,39.5937263,-82.9404717
417,Half Avenue,43113,39.5936798,-82.9400868
435,Half Avenue,43113,39.5936564,-82.9391387
445,Half Avenue,43113,39.5936515,-82.9388772
447,Half Avenue,43113,39.5936261,-82.9387537
455,Half Avenue,43113,39.5936258,-82.9386111
457,Half Avenue,43113,39.5936429,-82.9384716
612,Renick Avenue,43113,39.5935631,-82.9368014
614,Renick Avenue,43113,39.5934375,-82.9368682
618,Renick Avenue,43113,39.5932859,-82.9368540
622,Renick Avenue,43113,39.5931480,-82.9368776
502,East Ohio Street,43113,39.5929408,-82.9368982
522,East Ohio Street,43113,39.5929421,-82.9363355
528,East Ohio Street,43113,39.5928978,-82.9360647
534,East Ohio Street,43113,39.5928835,-82.9358885
540,East Ohio Street,43113,39.5928885,-82.9357361
501,East Ohio Street,43113,39.5924889,-82.9369142
546,East Ohio Street,43113,39.5928847,-82.9356062
552,East Ohio Street,43113,39.5929015,-82.9354795
558,East Ohio Street,43113,39.5929595,-82.9353099
600,Renick Avenue,43113,39.5938019,-82.9368287
596,Renick Avenue,43113,39.5939906,-82.9367174
594,Renick Avenue,43113,39.5941749,-82.9367259
480,Half Avenue,43113,39.5939561,-82.9372395
478,Half Avenue,43113,39.5939463,-82.9373613
476,Half Avenue,43113,39.5939603,-82.9375036
474,Half Avenue,43113,39.5939843,-82.9376568
472,Half Avenue,43113,39.5940131,-82.9378181
470,Half Avenue,43113,39.5939816,-82.9379659
575,Renick Avenue,43113,39.5943280,-82.9373061
571,Renick Avenue,43113,39.5944440,-82.9372345
567,Renick Avenue,43113,39.5945794,-82.9372442
471,Dearborn Avenue,43113,39.5944281,-82.9377769
457,Dearborn Avenue,43113,39.5945140,-82.9383074
459,Dearborn Avenue,43113,39.5945138,-82.9382011
461,Dearborn Avenue,43113,39.5944896,-82.9380715
465,Dearborn Avenue,43113,39.5944501,-82.9379184
458,Dearborn Avenue,43113,39.5948076,-82.9383338
460,Dearborn Avenue,43113,39.5948642,-82.9381450
466,Dearborn Avenue,43113,39.5950305,-82.9379174
476,Dearborn Avenue,43113,39.5948068,-82.9377429
478,Dearborn Avenue,43113,39.5948230,-82.9375080
480,Dearborn Avenue,43113,39.5948631,-82.9372142
480,Dearborn Avenue,43113,39.5950060,-82.9372202
500,Renick Avenue,43113,39.5949572,-82.9366966
508,Renick Avenue,43113,39.5947118,-82.9367052
415,Ray Avenue,43113,39.5935706,-82.9321470
410,Ray Avenue,43113,39.5935590,-82.9316971
430,Ray Avenue,43113,39.5932400,-82.9317644
660,East Ohio Street,43113,39.5928137,-82.9316850
450,Ray Avenue,43113,39.5929830,-82.9316632
440,Ray Avenue,43113,39.5930774,-82.9316587
678,East Ohio Street,43113,39.5924715,-82.9310854
682,East Ohio Street,43113,39.5923887,-82.9308611
690,East Ohio Street,43113,39.5923282,-82.9306916
453,Brown Street,43113,39.5927792,-82.9307113
445,Brown Street,43113,39.5930103,-82.9306601
450,Faye Avenue,43113,39.5928184,-82.9310443
420,Faye Avenue,43113,39.5929826,-82.9310291
416,Faye Avenue,43113,39.5932243,-82.9310102
410,Faye Avenue,43113,39.5935521,-82.9310211
409,Faye Avenue,43113,39.5936008,-82.9314003
419,Faye Avenue,43113,39.5934225,-82.9313838
429,Faye Avenue,43113,39.5932338,-82.9313821
435,Brown Street,43113,39.5931915,-82.9306868
415,Brown Street,43113,39.5934685,-82.9306618
391,Ray Avenue,43113,39.5938968,-82.9320999
371,Ray Avenue,43113,39.5940867,-82.9320981
351,Ray Avenue,43113,39.5942378,-82.9320892
341,Ray Avenue,43113,39.5944542,-82.9321579
325,Ray Avenue,43113,39.5945757,-82.9320801
310,Ray Avenue,43113,39.5948176,-82.9320486
330,Ray Avenue,43113,39.5944591,-82.9317010
350,Ray Avenue,43113,39.5942768,-82.9317115
390,Ray Avenue,43113,39.5940232,-82.9317030
371,Faye Avenue,43113,39.5941031,-82.9313810
331,Faye Avenue,43113,39.5944365,-82.9313704
320,Faye Avenue,43113,39.5947351,-82.9308968
580,Lincoln Avenue,43113,39.5946495,-82.9325227
580,Lincoln Avenue,43113,39.5948059,-82.9329597
580,Lincoln Avenue,43113,39.5945723,-82.9332977
580,Lincoln Avenue,43113,39.5940868,-82.9325884
590,East Ohio Street,43113,39.5940222,-82.9331868
590,East Ohio Street,43113,39.5938440,-82.9331897
590,East Ohio Street,43113,39.5936010,-82.9331840
590,East Ohio Street,43113,39.5934390,-82.9332156
590,East Ohio Street,43113,39.5934712,-82.9326478
590,East Ohio Street,43113,39.5931696,-82.9332713
590,East Ohio Street,43113,39.5929898,-82.9326764
590,East Ohio Street,43113,39.5928891,-82.9332476
580,Lincoln Avenue,43113,39.5943343,-82.9329526
319,Sumpter Avenue,43113,39.5939927,-82.9337250
309,Sumpter Avenue,43113,39.5945833,-82.9339380
365,Brown Street,43113,39.5943767,-82.9307210
705,East Mound Street,43113,39.5946048,-82.9302033
707,East Mound Street,43113,39.5946301,-82.9300631
711,East Mound Street,43113,39.5945551,-82.9298631
325,John Street,43113,39.5943609,-82.9298278
512,South Court Street,43113,39.5973652,-82.9470790
508,South Court Street,43113,39.5974995,-82.9470900
504,South Court Street,43113,39.5975931,-82.9470431
115,East Mill Street,43113,39.5975409,-82.9468850
119,East Mill Street,43113,39.5974990,-82.9467282
512,South Court Street,43113,39.5972240,-82.9467832
137,East Mill Street,43113,39.5972451,-82.9459777
141,East Mill Street,43113,39.5971415,-82.9458271
141,East Mill Street,43113,39.5969194,-82.9459143
157,East Mill Street,43113,39.5970190,-82.9452919
159,East Mill Street,43113,39.5970065,-82.9451103
161,East Mill Street,43113,39.5969187,-82.9449980
505,South Pickaway Street,43113,39.5967264,-82.9448725
513,South Pickaway Street,43113,39.5965992,-82.9449198
608,South Pickaway Street,43113,39.5960951,-82.9446711
606,South Pickaway Street,43113,39.5962156,-82.9445653
212,Pearl Street,43113,39.5963928,-82.9442224
210,Pearl Street,43113,39.5964135,-82.9443798
215,Pearl Street,43113,39.5961489,-82.9442437
219,Pearl Street,43113,39.5960984,-82.9440849
225,Pearl Street,43113,39.5960346,-82.9438845
239,Pearl Street,43113,39.5959770,-82.9436511
609,South Washington Street,43113,39.5958752,-82.9433224
611,South Washington Street,43113,39.5957304,-82.9433969
613,South Washington Street,43113,39.5956575,-82.9439050
234,Pearl Street,43113,39.5961995,-82.9434203
230,Pearl Street,43113,39.5962945,-82.9436929
501,South Washington Street,43113,39.5963270,-82.9430683
237,East Mill Street,43113,39.5963952,-82.9431821
231,East Mill Street,43113,39.5964499,-82.9433655
229,East Mill Street,43113,39.5965169,-82.9434816
225,East Mill Street,43113,39.5965271,-82.9435742
223,East Mill Street,43113,39.5965440,-82.9436794
219,East Mill Street,43113,39.5965912,-82.9437941
215,East Mill Street,43113,39.5966249,-82.9439230
213,East Mill Street,43113,39.5966791,-82.9440321
209,East Mill Street,43113,39.5967045,-82.9441181
207,East Mill Street,43113,39.5967356,-82.9442060
201,East Mill Street,43113,39.5967577,-82.9443989
430,South Washington Street,43113,39.5965526,-82.9424318
320;318,East Mill Street,43113,39.5964126,-82.9419903
322,East Mill Street,43113,39.5963638,-82.9418116
328,East Mill Street,43113,39.5963092,-82.9415584
338,East Mill Street,43113,39.5962417,-82.9412398
344,East Mill Street,43113,39.5961535,-82.9409712
350,East Mill Street,43113,39.5961052,-82.9408196
352,East Mill Street,43113,39.5960087,-82.9406557
417,Clinton Street,43113,39.5961354,-82.9396209
377,East Union Street,43113,39.5964046,-82.9394957
373,East Union Street,43113,39.5964672,-82.9396128
369,East Union Street,43113,39.5965008,-82.9397604
363,East Union Street,43113,39.5965417,-82.9399293
359,East Union Street,43113,39.5965831,-82.9401143
353,East Union Street,43113,39.5966456,-82.9402957
349,East Union Street,43113,39.5967270,-82.9405009
345,East Union Street,43113,39.5967656,-82.9406172
343,East Union Street,43113,39.5967919,-82.9407164
339,East Union Street,43113,39.5968350,-82.9408318
335,East Union Street,43113,39.5968563,-82.9409709
327,East Union Street,43113,39.5969310,-82.9412515
321,East Union Street,43113,39.5970070,-82.9414824
422,South Washington Street,43113,39.5967861,-82.9424013
412,South Washington Street,43113,39.5970013,-82.9422917
408,South Washington Street,43113,39.5971239,-82.9421945
404,South Washington Street,43113,39.5972317,-82.9420832
311,East Union Street,43113,39.5971787,-82.9418568
316,East Union Street,43113,39.5975509,-82.9413480
324,South Washington Street,43113,39.5976358,-82.9417916
301,East Mound Street,43113,39.5981760,-82.9417192
307,East Mound Street,43113,39.5981245,-82.9415464
313,East Mound Street,43113,39.5981300,-82.9413502
317,East Mound Street,43113,39.5980738,-82.9412121
325,East Mound Street,43113,39.5979787,-82.9410146
326,East Union Street,43113,39.5973070,-82.9411076
330,East Union Street,43113,39.5972684,-82.9409929
332,East Union Street,43113,39.5972637,-82.9408955
336,East Union Street,43113,39.5971814,-82.9407640
340,East Union Street,43113,39.5971605,-82.9406355
344,East Union Street,43113,39.5971018,-82.9405008
350,East Union Street,43113,39.5970943,-82.9403083
354,East Union Street,43113,39.5970324,-82.9401208
360,East Union Street,43113,39.5969205,-82.9399277
364,East Union Street,43113,39.5968898,-82.9397242
370,East Union Street,43113,39.5968290,-82.9395889
374,East Union Street,43113,39.5967603,-82.9394576
317,Clinton Street,43113,39.5969841,-82.9391706
311,Clinton Street,43113,39.5971574,-82.9391081
377,East Mound Street,43113,39.5974130,-82.9389826
365,East Mound Street,43113,39.5974732,-82.9392070
359,East Mound Street,43113,39.5975556,-82.9395471
357,East Mound Street,43113,39.5975816,-82.9396426
353,East Mound Street,43113,39.5976323,-82.9398130
345,East Mound Street,43113,39.5977440,-82.9401309
341,East Mound Street,43113,39.5977838,-82.9403402
335,East Mound Street,43113,39.5978635,-82.9405528
327,East Mound Street,43113,39.5978757,-82.9408004
304,East Mound Street,43113,39.5986447,-82.9414855
306,East Mound Street,43113,39.5985687,-82.9413275
314,East Mound Street,43113,39.5985197,-82.9411640
316,East Mound Street,43113,39.5984626,-82.9409972
324,East Mound Street,43113,39.5984126,-82.9408905
326,East Mound Street,43113,39.5983456,-82.9407851
216,South Washington Street,43113,39.5989619,-82.9412854
303,East Franklin Street,43113,39.5992733,-82.9411438
305,East Franklin Street,43113,39.5992473,-82.9410607
307,East Franklin Street,43113,39.5992231,-82.9409701
309,East Franklin Street,43113,39.5991962,-82.9408497
315,East Franklin Street,43113,39.5991495,-82.9406850
302,East Franklin Street,43113,39.5996551,-82.9409953
304,East Franklin Street,43113,39.5996013,-82.9408917
310,East Franklin Street,43113,39.5996103,-82.9407423
316,East Franklin Street,43113,39.5995255,-82.9405550
118,South Washington Street,43113,39.5998990,-82.9408252
122,South Washington Street,43113,39.5997939,-82.9409210
114,South Washington Street,43113,39.6000634,-82.9407607
311,East Main Street,43113,39.6001525,-82.9403687
315,East Main Street,43113,39.6001500,-82.9402335
317;319,East Main Street,43113,39.6001224,-82.9400603
114,North Washington Street,43113,39.6009746,-82.9402748
118,North Washington Street,43113,39.6011275,-82.9402109
120,North Washington Street,43113,39.6013061,-82.9401082
303,Watt Street,43113,39.6014540,-82.9400793
309,Watt Street,43113,39.6014348,-82.9398559
313,Watt Street,43113,39.6013900,-82.9397378
315,Watt Street,43113,39.6013193,-82.9396027
325,Watt Street,43113,39.6012577,-82.9393386
302,Watt Street,43113,39.6018042,-82.9398882
310,Watt Street,43113,39.6017358,-82.9396749
316,Watt Street,43113,39.6017234,-82.9394747
318,Watt Street,43113,39.6016618,-82.9393630
320,Watt Street,43113,39.6016088,-82.9391782
216,North Washington Street,43113,39.6021653,-82.9397180
301,East High Street,43113,39.6025310,-82.9395560
307,East High Street,43113,39.6024188,-82.9393776
311,East High Street,43113,39.6023715,-82.9392520
317,East High Street,43113,39.6023321,-82.9389906
323,East High Street,43113,39.6023166,-82.9388090
456,Clinton Street,43113,39.5956146,-82.9394079
410,East Mill Street,43113,39.5955417,-82.9392213
444,Clinton Street,43113,39.5957178,-82.9390777
422,Clinton Street,43113,39.5959138,-82.9393128
424,East Mill Street,43113,39.5955058,-82.9387277
428,East Mill Street,43113,39.5954986,-82.9385511
432,East Mill Street,43113,39.5954940,-82.9383766
421,Abernathy Avenue,43113,39.5954693,-82.9379761
433,Abernathy Avenue,43113,39.5954109,-82.9376865
420,Abernathy Avenue,43113,39.5955786,-82.9376223
408,Abernathy Avenue,43113,39.5956856,-82.9374814
404,Abernathy Avenue,43113,39.5958000,-82.9374133
521,East Union Street,43113,39.5956695,-82.9369745
523,East Union Street,43113,39.5956289,-82.9367930
527,East Union Street,43113,39.5955991,-82.9366711
531,East Union Street,43113,39.5954176,-82.9365462
535,East Union Street,43113,39.5954811,-82.9363527
539,East Union Street,43113,39.5954457,-82.9362189
541,East Union Street,43113,39.5953958,-82.9361503
543,East Union Street,43113,39.5953992,-82.9360363
549,East Union Street,43113,39.5953452,-82.9358060
547;545,East Union Street,43113,39.5953652,-82.9359444
557,East Union Street,43113,39.5952862,-82.9355729
518,East Mound Street,43113,39.5970162,-82.9362576
526,East Mound Street,43113,39.5969212,-82.9359770
534,East Mound Street,43113,39.5968218,-82.9356138
540,East Mound Street,43113,39.5967498,-82.9354415
544,East Mound Street,43113,39.5966880,-82.9353040
548,East Mound Street,43113,39.5966581,-82.9350783
558,East Mound Street,43113,39.5965965,-82.9349426
560,East Mound Street,43113,39.5965314,-82.9347692
223,Mingo Street,43113,39.5966937,-82.9347460
217,Mingo Street,43113,39.5968104,-82.9346599
499,East Franklin Street,43113,39.5972208,-82.9343734
495,East Franklin Street,43113,39.5973110,-82.9345598
489,East Franklin Street,43113,39.5973465,-82.9347106
487,East Franklin Street,43113,39.5973731,-82.9349616
481,East Franklin Street,43113,39.5974258,-82.9351224
471,East Franklin Street,43113,39.5974886,-82.9352916
469,East Franklin Street,43113,39.5975521,-82.9354275
455,East Franklin Street,43113,39.5976425,-82.9359483
463,East Franklin Street,43113,39.5976205,-82.9356747
451,East Franklin Street,43113,39.5977873,-82.9361591
445,East Franklin Street,43113,39.5978148,-82.9362658
443,East Franklin Street,43113,39.5978415,-82.9363550
439,East Franklin Street,43113,39.5978437,-82.9365054
420,East Mound Street,43113,39.5973752,-82.9375671
414,East Mound Street,43113,39.5974402,-82.9376762
412,East Mound Street,43113,39.5974599,-82.9378244
410,East Mound Street,43113,39.5975638,-82.9379428
408,East Mound Street,43113,39.5975400,-82.9380778
404,East Mound Street,43113,39.5975795,-82.9381797
402,East Mound Street,43113,39.5975887,-82.9382811
423,East Franklin Street,43113,39.5980552,-82.9371914
419,East Franklin Street,43113,39.5980795,-82.9372968
415,East Franklin Street,43113,39.5981555,-82.9374203
407,East Franklin Street,43113,39.5982533,-82.9377151
411,East Franklin Street,43113,39.5982394,-82.9376011
385,East Franklin Street,43113,39.5983567,-82.9381122
381,East Franklin Street,43113,39.5983684,-82.9382375
379,East Franklin Street,43113,39.5984289,-82.9383049
375,East Franklin Street,43113,39.5984316,-82.9384345
369,East Franklin Street,43113,39.5984860,-82.9386449
363,East Franklin Street,43113,39.5985903,-82.9388125
398,East Mound Street,43113,39.5977023,-82.9384379
382,East Mound Street,43113,39.5976618,-82.9385879
378,East Mound Street,43113,39.5977143,-82.9387306
370,East Mound Street,43113,39.5978296,-82.9389981
366;364,East Mound Street,43113,39.5978751,-82.9391619
360,East Mound Street,43113,39.5979467,-82.9393650
358,East Mound Street,43113,39.5979916,-82.9395034
354,East Mound Street,43113,39.5980298,-82.9396293
357;359,East Franklin Street,43113,39.5986547,-82.9390639
355,East Franklin Street,43113,39.5986866,-82.9391915
351,East Franklin Street,43113,39.5987173,-82.9393070
349,East Franklin Street,43113,39.5987501,-82.9395147
345,East Franklin Street,43113,39.5988002,-82.9395937
343,East Franklin Street,43113,39.5988249,-82.9396875
341,East Franklin Street,43113,39.5988145,-82.9398198
350,East Mound Street,43113,39.5981314,-82.9399286
342,East Mound Street,43113,39.5982131,-82.9400839
338;336,East Mound Street,43113,39.5982243,-82.9403320
328,East Mound Street,43113,39.5983017,-82.9405799
329;327,East Franklin Street,43113,39.5989699,-82.9402098
333,East Franklin Street,43113,39.5989400,-82.9400632
337,East Franklin Street,43113,39.5988949,-82.9399490
224,Mingo Street,43113,39.5964041,-82.9343477
612,East Mound Street,43113,39.5963149,-82.9340531
222,Mingo Street,43113,39.5965700,-82.9342604
218,Mingo Street,43113,39.5966847,-82.9342269
214,Mingo Street,43113,39.5968395,-82.9340993
212,Mingo Street,43113,39.5969956,-82.9340517
501,East Franklin Street,43113,39.5971383,-82.9339844
513,East Franklin Street,43113,39.5970402,-82.9336642
616,East Mound Street,43113,39.5962896,-82.9338508
624,East Mound Street,43113,39.5962248,-82.9336769
626,East Mound Street,43113,39.5961700,-82.9335011
628,East Mound Street,43113,39.5961544,-82.9333312
642,East Mound Street,43113,39.5960032,-82.9330310
650,East Mound Street,43113,39.5959531,-82.9327799
654,East Mound Street,43113,39.5958916,-82.9325764
658,East Mound Street,43113,39.5958446,-82.9323767
662,East Mound Street,43113,39.5957741,-82.9321614
666,East Mound Street,43113,39.5957219,-82.9319800
670,East Mound Street,43113,39.5956712,-82.9317480
676,East Mound Street,43113,39.5955700,-82.9316211
682,East Mound Street,43113,39.5955346,-82.9313992
684,East Mound Street,43113,39.5954663,-82.9311800
215,Eastmoor Avenue,43113,39.5956638,-82.9309043
698,East Mound Street,43113,39.5954371,-82.9308586
232,Eastmoor Avenue,43113,39.5952456,-82.9305763
226,Eastmoor Avenue,43113,39.5953678,-82.9305268
220,Eastmoor Avenue,43113,39.5955125,-82.9304685
214,Eastmoor Avenue,43113,39.5956568,-82.9303565
208,Eastmoor Avenue,43113,39.5957837,-82.9302918
202,Eastmoor Avenue,43113,39.5959415,-82.9301934
593,East Main Street,43113,39.5956052,-82.9298229
587,East Franklin Street,43113,39.5960378,-82.9305063
585,East Franklin Street,43113,39.5960887,-82.9306449
583,East Franklin Street,43113,39.5961323,-82.9307692
579,East Franklin Street,43113,39.5961598,-82.9309278
577,East Franklin Street,43113,39.5962409,-82.9311779
575,East Franklin Street,43113,39.5962992,-82.9313130
573,East Franklin Street,43113,39.5963962,-82.9315384
565,East Franklin Street,43113,39.5964755,-82.9317966
557,East Franklin Street,43113,39.5965003,-82.9320638
549,East Franklin Street,43113,39.5966324,-82.9323143
547,East Franklin Street,43113,39.5966285,-82.9324548
543,East Franklin Street,43113,39.5967242,-82.9326351
537,East Franklin Street,43113,39.5967527,-82.9327716
535,East Franklin Street,43113,39.5967682,-82.9328627
531,East Franklin Street,43113,39.5968354,-82.9329856
527,East Franklin Street,43113,39.5968724,-82.9331501
525,East Franklin Street,43113,39.5969130,-82.9333329
517,East Franklin Street,43113,39.5969672,-82.9334774
597,East Main Street,43113,39.5951138,-82.9293353
597,East Main Street,43113,39.5952120,-82.9293027
574,East Main Street,43113,39.5971368,-82.9310483
586,East Franklin Street,43113,39.5967139,-82.9313261
581,East Main Street,43113,39.5969237,-82.9315563
560,East Franklin Street,43113,39.5968687,-82.9319039
552,East Franklin Street,43113,39.5969728,-82.9321397
544,East Franklin Street,43113,39.5970172,-82.9322914
542,East Franklin Street,43113,39.5970560,-82.9324407
540,East Franklin Street,43113,39.5971112,-82.9325822
538,East Franklin Street,43113,39.5971574,-82.9327718
526,East Franklin Street,43113,39.5971853,-82.9329625
541,East Main Street,43113,39.5976364,-82.9327134
547,East Main Street,43113,39.5975638,-82.9325744
524,East Franklin Street,43113,39.5972577,-82.9331464
518,East Franklin Street,43113,39.5973135,-82.9333195
537,East Main Street,43113,39.5977605,-82.9328685
529,East Main Street,43113,39.5978803,-82.9330543
