House number,Street name,Postal code,Latitude,Longitude
640,Lakeview Road,44108,41.5397028,-81.6090557
3690,West 159 Street,44111,41.4531046,-81.8120798
13501,Terminal Avenue,44135,41.4386962,-81.7849770
4940,Broadview Road,44109,41.4222722,-81.6983993
12826,Lorain Avenue,44111,41.4593581,-81.7776572
8809,Madison Avenue,44102,41.4769851,-81.7450457
17200,Valleyview Ave.,44135,41.4414380,-81.8176355
4906,Fleet Avenue,44105,41.4556076,-81.6562394
891,East 185th Street,44119,41.5833827,-81.5495665
4505,Broadview Road,44109,41.4331295,-81.6969725
2002,West Schaaf Road,44109,41.4288610,-81.6964041
4004,Cypress Avenue,44109,41.4308226,-81.6966372
4542,Pearl Road,44109,41.4319961,-81.7131863
14000,Kinsman Road,44120,41.4641667,-81.5844444
18621,Neff Road,44119,41.5811368,-81.5478605
13116,Shaker Square,44120,41.4832627,-81.5913782
230,West Huron Road,44113,41.4969221,-81.6934307
17125,Lorain Avenue,44111,41.4497469,-81.8164547
17007,Lorain Avenue,44111,41.4501058,-81.8158209
17015,Lorain Avenue,44111,41.4500817,-81.8159662
17119,Lorain Avenue,44111,41.4499805,-81.8163449
3766,Rocky River Drive,44111,41.4518489,-81.8175689
4280,West 150th Street,44135,41.4376293,-81.8016579
1677,East 115th Street,44106,41.5124201,-81.6045163
1689,East 115th Street,44106,41.5120859,-81.6042938
3312,Broadview Road,44109,41.4409743,-81.7035152
4370,Pearl Road,44109,41.4368408,-81.7089011
2529,West 10th Street,44113,41.4772984,-81.6873066
4256,Pearl Road,44109,41.4397823,-81.7065720
4227,Fulton Road,44109,41.4415278,-81.7228930
4896,Pearl Road,44109,41.4247068,-81.7214942
1848,West 25th Street,44113,41.4859624,-81.7050191
1836,West 25th Street,44113,41.4860761,-81.7050999
1352,West 6th Street,44113,41.4993538,-81.6986116
700,West Saint Clair Avenue,44113,41.4996691,-81.6989344
1378,West 6th Street,44113,41.4990713,-81.6983849
15520,Munn Road,44111,41.4590804,-81.8051474
8324,Detroit Avenue,44102,41.4810523,-81.7422744
6425,Detroit Avenue,44102,41.4839919,-81.7300947
10815,Kinsman,44104,41.4697388,-81.6083491
4457,Broadview Road,44109,41.4345088,-81.6968691
2202,Broadview Road,44109,41.4385975,-81.6997628
11446,Euclid Avenue,44106,41.5096603,-81.6040725
11490,Euclid Avenue,44106,41.5098436,-81.6037784
11452,Euclid Avenue,44106,41.5097560,-81.6038819
5920,Engel,44127,41.4653441,-81.6481167
5841,Broadway Ave,44127,41.4660646,-81.6491083
18200,Lorain Avenue,44111,41.4512901,-81.8231917
3038,West 117th Street,44111,41.4689690,-81.7713985
1801,East 12th Street,44114,41.5020189,-81.6847610
1281,West 9th Street,44113,41.4995197,-81.7006758
4016,Woodbine Avenue,44113,41.4845272,-81.7153049
2044,Broadview Road,44109,41.4360975,-81.6976945
3034,West 25th Street,44113,41.4706758,-81.7001366
4207,Pearl Road,44109,41.4408966,-81.7051694
3434,Memphis Avenue,44109,41.4408616,-81.7062468
614,Frankfort Avenue,44113,41.4986499,-81.6983157
1230,West 3rd Street,44113,41.5015871,-81.6982990
408,West St Clair Avenue,44113,41.5001197,-81.6979684
1229,West 6th Street,44113,41.5009754,-81.6994404
500,West Saint Clair Avenue,44113,41.4998806,-81.6984737
3471,Steelyard Drive,44109,41.4600746,-81.6903488
3273,Steelyard Drive,44109,41.4644913,-81.6871444
3465,Steelyard Drive,44109,41.4600861,-81.6904415
3485,Steelyard Drive,44109,41.4597706,-81.6885021
3257,Steelyard Drive,44109,41.4647065,-81.6869854
3443,Steelyard Drive,44109,41.4599934,-81.6886769
3535,Steelyard Drive,44109,41.4582224,-81.6887876
3553,Steelyard Drive,44109,41.4576021,-81.6893434
4478,Broadview Road,44109,41.4339905,-81.6973365
4848,Broadview Road,44109,41.4241269,-81.6973336
2141,Broadview Road,44109,41.4376640,-81.6992764
4199,Pearl Road,44109,41.4409876,-81.7051115
3327,Broadview Road,44109,41.4411196,-81.7042845
4123,Pearl Road,44109,41.4430379,-81.7034048
3085,West 25th Street,44113,41.4701844,-81.6995389
116254,Euclid Avenue,44106,41.5111417,-81.6027461
1300,West 9th Street,44113,41.4987336,-81.7006491
3425,Steelyard Drive,44109,41.4601612,-81.6886371
3435,Steelyard Drive,44109,41.4601011,-81.6886478
3521,Steelyard Drive,44109,41.4589634,-81.6888744
3555,Steelyard Drive,44109,41.4575519,-81.6893521
3573,Steelyard Drive,44109,41.4574684,-81.6893416
11302,Euclid Avenue,44106,41.5081901,-81.6059449
11324,Euclid Avenue,44106,41.5084540,-81.6054063
11302,Euclid Ave,44106,41.5081621,-81.6059739
15711,Waterloo Road,44110,41.5712802,-81.5704543
2118,Broadview Road,44109,41.4374010,-81.6986097
4603,Pearl Road,44109,41.4301905,-81.7144809
11309,Euclid Avenue,44106,41.5086470,-81.6059520
4250,Pearl Road,44109,41.4400079,-81.7064887
6551,Broadway Avenue,44105,41.4622486,-81.6435666
2500,Denison Avenue,44109-2600,41.4509955,-81.7023400
3850,Pearl Road,44109,41.4501673,-81.7021307
4334,Pearl Road,44109,41.4378151,-81.7083183
4348,Pearl Road,44109,41.4372459,-81.7085603
4873,Broadview Road,44109,41.4233864,-81.6962373
2023,Broadview Road,44109,41.4355366,-81.6978003
2075,West 25th Street,44113,41.4835222,-81.7023742
1958,West 25th Street,44113,41.4846456,-81.7039710
882,East 185th Street,44119,41.5834217,-81.5500327
4261,Fulton Road,44109,41.4407827,-81.7228918
7250,Brookpark Road,44129,41.4192224,-81.7337740
4951,Ridge Road,44136,41.4194912,-81.7335156
15710,Waterloo Road,44110,41.5709856,-81.5704299
15801,Waterloo Road,44110,41.5712388,-81.5699406
2079,East 4th Street,44115,41.4984506,-81.6899108
1515,West 3rd Street,44113,41.4972635,-81.6946924
1455,West 29th Street,44113-2960,41.4892131,-81.7103921
1091,West 10th Street,44113,41.5007471,-81.7042386
5393,Saint Clair Avenue,44114,41.5219864,-81.6530398
4140,Lee Road,44128,41.4472970,-81.5652720
1001,Lakeside Ave,44114,41.5070127,-81.6910207
1417,East 9th Street,44114,41.5029352,-81.6887940
812,Huron Road East,44115,41.4981748,-81.6860353
13225,Shaker Square,44120,41.4841342,-81.5895040
1540,East 55th Street,44103-1347,41.5167813,-81.6524343
1549,East 55 Street,44103,41.5167842,-81.6514576
9101,Kinsman Avenue,44104-5141,41.4726969,-81.6226608
2013,Ontario Street,44115,41.4986021,-81.6924722
840,Huron Road East,44115,41.4987246,-81.6856600
748,Prospect Avenue East,44115,41.4985869,-81.6871680
2217,East 9th Street,44115,41.4978625,-81.6842764
5815,Saint Clair Avenue,44103,41.5229748,-81.6510123
900,Literary Road,44113,41.4816614,-81.6870145
2720,Van Aken Boulevard,44120,41.4833665,-81.5888568
4830,Memphis Avenue,44144,41.4400603,-81.7200348
4795,Broadview Road,44109,41.4258335,-81.6966237
4280,Fulton Road,44144,41.4402127,-81.7238035
7201,Kinsman Road,44104,41.4798381,-81.6378644
2310,Superior Avenue East,44114,41.5079187,-81.6756764
2310,Superior Avenue East,44114,41.5081501,-81.6757756
2247,Professor Avenue,44113-4466,41.4815536,-81.6861762
2523,Market Avenue,44113,41.4841506,-81.7043068
906,College Avenue,44113,41.4805638,-81.6860309
11434,Euclid Avenue,44106,41.5093261,-81.6038055
552,East 152nd Street,44110,41.5664214,-81.5758937
3494,West 25th Street,44109,41.4592804,-81.7010101
3764,Pearl Road,44109,41.4525477,-81.7016830
2120,East 4th Street,44115,41.4978055,-81.6899418
1212;1214,West 6th Street,44113,41.5009429,-81.7000337
612,Prospect Avenue East,44115,41.4983696,-81.6885627
2063,East 4th Street,44115,41.4988059,-81.6899593
10427,Clifton Boulevard,44012,41.4851425,-81.7572794
2161,Murray Hill Road,44106,41.5045684,-81.5999544
1280,West 6th Street,44113,41.5001362,-81.6993488
11526,Clifton Boulevard,44102,41.4874216,-81.7670804
4512,Broadview Road,44109,41.4331119,-81.6974920
2140,Broadview Road,44109,41.4379466,-81.6990960
1400,East 9th Street,44114,41.5031422,-81.6895996
1240,Huron Road,44115,41.5004657,-81.6822859
1406,West 6th Street,44113,41.4987425,-81.6980667
1835,Fulton Road,44113,41.4840300,-81.7098074
3993,East 93rd Street,44105,41.4499580,-81.6210250
6500,Detroit Avenue,44102,41.4841310,-81.7304466
5002,Fleet Avenue,44105,41.4556839,-81.6553499
4901,Fleet Avenue,44105,41.4560789,-81.6557563
6501,Fleet Avenue,44105,41.4563043,-81.6447967
6405,Fleet Avenue,44105,41.4562116,-81.6452616
6557,Broadway Avenue,44105,41.4623640,-81.6439172
6567,Broadway Avenue,44105,41.4621884,-81.6434179
6210,Broadway Avenue,44127,41.4633504,-81.6471944
6140,Broadway Avenue,44127,41.4637122,-81.6475860
15149,Lorain Avenue,44111,41.4523085,-81.8030241
1374,West 6th Street,44113,41.4991230,-81.6984194
1948,West 25th Street,44113,41.4848135,-81.7040597
3800,Lorain Avenue,44113,41.4809296,-81.7123335
2621,West 14th Street,44113,41.4765282,-81.6910271
1879,Fulton Road,44113,41.4833211,-81.7101815
6800,Detroit Avenue,44102,41.4837525,-81.7319321
8302,Detroit Avenue,44102,41.4811846,-81.7417343
7120,Cedar Avenue,44103,41.5001193,-81.6388937
7710,Euclid Avenue,44103,41.5035540,-81.6350052
10411,Saint Clair Avenue,44108-1956,41.5388858,-81.6162552
11327,Shaker Boulevard,44104,41.4850258,-81.6051378
11327,Shaker Boulevard,44104,41.4852016,-81.6050745
1400,Euclid Avenue,44115,41.5007647,-81.6815112
1867,West 25th Street,44113,41.4857785,-81.7043989
1870,West 25th Street,44113,41.4856793,-81.7047846
224,Euclid Avenue,44114,41.4993652,-81.6916601
226,Euclid Ave,44114,41.4994083,-81.6915535
410,Superior Avenue East,44114,41.5005684,-81.6909269
420,Superior Avenue East,44114,41.5007579,-81.6907516
3006,Broadview Road,44109,41.4403772,-81.7023778
6220,Memphis Avenue,44144,41.4402564,-81.7305127
4728,Pearl Road,44109,41.4281268,-81.7175202
2422,Broadview Road,44109,41.4399633,-81.7019861
4824,Memphis Avenue,44109,41.4400624,-81.7198978
4180,Pearl Road,44109,41.4416419,-81.7051564
4163,Pearl Road,44109,41.4420203,-81.7044251
4116,Lorain Avenue,44113,41.4802981,-81.7139481
234,Euclid Avenue,44114,41.4994277,-81.6913774
816,Huron Road East,44115,41.4984921,-81.6861643
1700,East 9th Street,44114,41.5015049,-81.6881942
777,Saint Clair Avenue Northeast,44114,41.5032894,-81.6917083
1300,West 9th Street,44113,41.4990563,-81.7009134
3409,Walton Ave.,44113,41.4707908,-81.7059473
2124,Chester Avenue,44115,41.5031447,-81.6758457
410,Superior Avenue East,44114,41.5006887,-81.6909172
1301,East 9th Street,44114,41.5045535,-81.6901671
3447,West 117th Street,44111,41.4587169,-81.7686592
552,East 152nd Street,44110,41.5661825,-81.5758965
1,West Saint Clair Avenue,44114,41.5018165,-81.6946183
230,Euclid Avenue,44114,41.4994218,-81.6914600
4175,River Ridge Drive,44109,41.4408727,-81.6820008
4177,River Ridge Drive,44109,41.4408074,-81.6818906
4179,River Ridge Drive,44109,41.4408086,-81.6818205
4181,River Ridge Drive,44109,41.4408091,-81.6817651
4183,River Ridge Drive,44109,41.4408097,-81.6816942
4185,River Ridge Drive,44109,41.4408351,-81.6816187
1111,Superior Avenue East,44114,41.5034751,-81.6869303
6304,Lorain Avenue,44102,41.4751379,-81.7291081
1600,Merwin Avenue,44113,41.4940562,-81.7025789
761,Starkweather Avenue,44113,41.4774455,-81.6824075
900,Euclid Avenue,44115,41.5001439,-81.6861379
170,Euclid Avenue,44115,41.4992691,-81.6922185
170,Euclid Avenue,44113,41.4991983,-81.6923111
1800,Euclid Avenue,44115,41.5010875,-81.6785679
1701,Superior Avenue East,44114,41.5060458,-81.6816828
11623,Clifton Boulevard,44102,41.4871961,-81.7681232
3501,Rocky River Drive,44111,41.4578885,-81.8140079
3430,Rocky River Drive,44111,41.4598216,-81.8180890
3644,Rocky River Drive,44111,41.4541694,-81.8170819
3730,Rocky River Drive,44111,41.4517925,-81.8166507
503,Prospect Avenue,44114,41.4985779,-81.6893268
401,Euclid Avenue,44114,41.4999071,-81.6902734
3301,Euclid Avenue,44115,41.5037499,-81.6640758
200,West Prospect Avenue,44115,41.4977913,-81.6932889
13101,Shaker Square,44120,41.4842322,-81.5914224
13113,Shaker Boulevard,44120,41.4844553,-81.5913856
13900,Shaker Boulevard,44120,41.4830421,-81.5850483
13800,Shaker Boulevard,44120,41.4831061,-81.5855431
13201,Shaker Square,44120,41.4846083,-81.5901199
3307,Broadview Road,44109,41.4407045,-81.7036366
4241,Fulton Road,44144,41.4412789,-81.7228988
4221,Fulton Road,44144,41.4416740,-81.7228898
2901,Van Aken Boulevard,44120,41.4804416,-81.5856962
2895,Van Aken Boulevard,44120,41.4805079,-81.5857599
2911,Van Aken Boulevard,44120,41.4801798,-81.5853691
2917,Van Aken Boulevard,44120,41.4801124,-81.5852942
13415,Shaker Boulevard,44120,41.4841574,-81.5881550
13301,Shaker Boulevard,44120,41.4841421,-81.5890442
13515,Shaker Boulevard,44120,41.4839769,-81.5873728
13605,Shaker Boulevard,44120,41.4840695,-81.5870297
13609,Shaker Boulevard,44120,41.4840422,-81.5868051
13615,Shaker Boulevard,44120,41.4840131,-81.5865791
13705,Shaker Boulevard,44120,41.4838318,-81.5862930
13801,Shaker Boulevard,44120,41.4837579,-81.5857556
13815,Shaker Boulevard,44120,41.4837308,-81.5855316
13915,Shaker Boulevard,44120,41.4837182,-81.5849314
4394,Pearl Road,44109,41.4361860,-81.7094467
11308,Euclid Avenue,44106,41.5082642,-81.6058665
631,Huron Road East,44115,41.4980080,-81.6879100
25,West Prospect Avenue,44115,41.4975822,-81.6924044
45,West Prospect Avenue,44115,41.4975516,-81.6924654
101,West Prospect Avenue,44115,41.4975169,-81.6925338
123,West Prospect Avenue,44115,41.4974663,-81.6927251
1660,West 2nd Street,44113,41.4971520,-81.6933239
1361,East 55th Street,44103,41.5214479,-81.6516143
1840,Columbus Road,44113,41.4898250,-81.7008245
1810,West 25th Street,44113,41.4863909,-81.7053838
1393,West 29th Street,44113-2960,41.4894645,-81.7109624
1404,West 29th Street,44113-2960,41.4896041,-81.7110804
1434,West 29th Street,44113-2960,41.4893462,-81.7108832
3500,Brookpark Road,44134,41.4191775,-81.7105782
603,Prospect Avenue East,44115,41.4986689,-81.6887944
557,East 140th Street,44110,41.5658497,-81.5850038
14002,Lake Shore Boulevard,44110,41.5689568,-81.5849360
2211,Chester Avenue,44114,41.5040481,-81.6745053
3223,Lorain Avenue,44113,41.4816805,-81.7093118
1515,West 3rd Street,44113,41.4972531,-81.6947379
614,Frankfort Avenue,44113,41.4985886,-81.6982161
620,Frankfort Avenue,44113,41.4985094,-81.6983784
620,Frankfort Avenue,44113,41.4986027,-81.6984253
740,West Superior Avenue,44113,41.4974626,-81.6984205
820,West Superior Avenue,44113,41.4973170,-81.6987043
1406,West 6th Street,44113,41.4988070,-81.6980125
1400,West 6th Street,44113,41.4988554,-81.6980635
1396,West 6th Street,44113,41.4989232,-81.6981226
1392,West 6th Street,44113,41.4989240,-81.6982513
1392,West 6th Street,44113,41.4989662,-81.6981598
1400,West 6th Street,44113,41.4988248,-81.6981464
1388,West 6th Street,44113,41.4989704,-81.6982800
1388,West 6th Street,44113,41.4990091,-81.6981981
1384,West 6th Street,44113,41.4990587,-81.6982424
1378,West 6th Street,44113,41.4991133,-81.6982902
1374,West 6th Street,44113,41.4991486,-81.6983223
1370,West 6th Street,44113,41.4991793,-81.6983498
1352,West 6th Street,44113,41.4994047,-81.6985556
1415,West 9th Street,44113,41.4980637,-81.6994874
1419,West 9th Street,44113,41.4979997,-81.6994294
1350,West 3rd Street,44113,41.5000778,-81.6968422
408,West Saint Clair Avenue,44113,41.5000344,-81.6980365
410,West Saint Clair Avenue,44113,41.4999596,-81.6982635
500,West Saint Clair Avenue,44113,41.4998100,-81.6984885
1313,West 6th Street,44113,41.5000150,-81.6986721
1303,West 6th Street,44113,41.5001359,-81.6987030
1303,West 6th Street,44113,41.5001143,-81.6987605
1277,West 6th Street,44113,41.5004346,-81.6990436
1281,West 6th Street,44113,41.5003728,-81.6989885
1265,West 6th Street,44113,41.5005101,-81.6990429
1265,West 6th Street,44113,41.5004885,-81.6990916
1261,West 6th Street,44113,41.5005947,-81.6991515
1261,West 6th Street,44113,41.5005839,-81.6991960
1235,West 6th Street,44113,41.5008830,-81.6994518
1237,West 6th Street,44113,41.5008342,-81.6994069
1229,West 6th Street,44113,41.5009450,-81.6995076
1223,West 6th Street,44113,41.5010000,-81.6995567
1223,West 6th Street,44113,41.5010256,-81.6994766
1213,West 6th Street,44113,41.5011798,-81.6997203
1213,West 6th Street,44113,41.5012113,-81.6996490
425,West Lakeside Avenue,44113,41.5013676,-81.6994736
1260,West 4th Street,44113,41.5009806,-81.6986581
1278,West 4th Street,44113,41.5008023,-81.6984962
323,West Lakeside Avenue,44113,41.5017357,-81.6987255
1200,West 3rd Street,44113,41.5018563,-81.6984049
1230,West 3rd Street,44113,41.5016198,-81.6981910
1264,West 3rd Street,44113,41.5012247,-81.6979765
1264,West 3rd Street,44113,41.5012519,-81.6978828
1276,West 3rd Street,44113,41.5010968,-81.6977246
1280,West 3rd Street,44113,41.5010274,-81.6977103
310,West Lakeside Avenue,44113,41.5020129,-81.6988190
1150,West 3rd Street,44113,41.5025702,-81.6990502
700,West Saint Clair Avenue,44113,41.4995892,-81.6989169
1296,West 6th Street,44113,41.4999926,-81.6992267
1290,West 6th Street,44113,41.5000639,-81.6992790
1290,West 6th Street,44113,41.5001155,-81.6991958
1280,West 6th Street,44113,41.5001966,-81.6992660
1266,West 6th Street,44113,41.5003240,-81.6995258
1265,West 9th Street,44113,41.4996764,-81.7009304
1267,West 9th Street,44113,41.4996131,-81.7008729
1273,West 9th Street,44113,41.4995808,-81.7008439
1273,West 9th Street,44113,41.4995727,-81.7007107
1275,West 9th Street,44113,41.4995177,-81.7007872
1273,West 9th Street,44113,41.4996177,-81.7007479
1281,West 9th Street,44113,41.4994822,-81.7007557
1283,West 9th Street,44113,41.4994634,-81.7007385
1279,West 9th Street,44113,41.4994986,-81.7007704
1285,West 9th Street,44113,41.4994659,-81.7006434
1285,West 9th Street,44113,41.4994182,-81.7006968
1291,West 9th Street,44113,41.4993734,-81.7006547
1299,West 9th Street,44113,41.4993349,-81.7005304
850,West Saint Clair Avenue,44113,41.4992224,-81.6998370
850,West Saint Clair Avenue,44113,41.4991549,-81.6997741
844,West Saint Clair Avenue,44113,41.4991998,-81.6996873
1211,West 9th Street,44113,41.5001959,-81.7014037
701,West Lakeside Avenue,44113,41.5006252,-81.7009630
635,West Lakeside Avenue,44113,41.5008035,-81.7005721
1220,West 6th Street,44113,41.5009668,-81.6999472
527,Prospect Avenue East,44115,41.4986443,-81.6889612
2077,East 4th Street,44115,41.4986005,-81.6899531
1163,Front Avenue,44113,41.5000990,-81.7062096
1278,West 9th Street,44113,41.4992970,-81.7010298
1300,West 9th Street,44113,41.4989251,-81.7006877
1300,West 9th Street,44113,41.4989520,-81.7008162
1300,West 9th Street,44113,41.4990017,-81.7008692
1360,West 9th Street,44113,41.4984247,-81.7003132
1360,West 9th Street,44113,41.4984943,-81.7002995
1370,West 9th Street,44113,41.4983795,-81.7002529
1370,West 9th Street,44113,41.4984063,-81.7002197
1374,West 9th Street,44113,41.4983659,-81.7001824
1390,West 9th Street,44113,41.4981624,-81.7000917
1390,West 9th Street,44113,41.4981962,-81.7000299
1380,West 9th Street,44113,41.4982531,-81.7000807
1468,West 9th Street,44113,41.4975030,-81.6994127
959,West Saint Clair Avenue,44113,41.4981096,-81.7014189
955,West Saint Clair Avenue,44113,41.4980856,-81.7010664
200,Public Square,44114,41.4997123,-81.6920859
150,Euclid Avenue,44113,41.4992066,-81.6923941
180,Euclid Avenue,44113,41.4992612,-81.6921151
224,Euclid Avenue,44114,41.4994359,-81.6916956
230,Euclid Avenue,44114,41.4994555,-81.6915450
180,Euclid Avenue,44115,41.4993112,-81.6921007
240,Euclid Avenue,44114,41.4994919,-81.6912837
234,Euclid Avenue,44114,41.4994725,-81.6914226
248,Euclid Avenue,44114,41.4994968,-81.6912475
226,Euclid Avenue,44114,41.4994486,-81.6915977
2047,Ontario Street,44115,41.4984015,-81.6922530
2047,Ontario Street,44115,41.4983765,-81.6923056
2013,Ontario Street,44115,41.4988116,-81.6927004
2033,Ontario Street,44115,41.4987970,-81.6926535
2033,Ontario Street,44115,41.4988700,-81.6927090
2033,Ontario Street,44115,41.4985642,-81.6924757
2025,Ontario Street,44115,41.4985935,-81.6925025
2061,East 4th Street,44115,41.4988958,-81.6899816
2061,East 4th Street,44115,41.4988489,-81.6900201
2043,East 4th Street,44115,41.4991445,-81.6901004
828,Huron Road East,44115,41.4986327,-81.6858940
236,Euclid Avenue,44114,41.4994412,-81.6913010
236,Euclid Avenue,44114,41.4994792,-81.6913747
512,Euclid Avenue,44115,41.4997004,-81.6894130
530,Euclid Avenue,44115,41.4997122,-81.6893003
1900,East 6th Street,44114,41.5006403,-81.6897881
1900,East 6th Street,44114,41.5006601,-81.6897646
1906,East 6th Street,44114,41.5006064,-81.6897594
1906,East 6th Street,44114,41.5006279,-81.6897318
1940,East 6th Street,44114,41.5003855,-81.6895054
1852,East 6th Street,44114,41.5008464,-81.6899228
629,Euclid Avenue,44114,41.5001109,-81.6887151
629,Euclid Avenue,44114,41.5001502,-81.6887230
601,Euclid Avenue,44114,41.5000619,-81.6891115
680,Vincent Avenue,44114,41.5009199,-81.6883317
1900,East 9th Street,44114,41.5007820,-81.6875317
600,Superior Avenue East,44114,41.5014347,-81.6897566
800,Superior Avenue East,44114,41.5018598,-81.6888529
1015,Euclid Avenue,44115,41.5005276,-81.6857070
1021,Euclid Avenue,44115,41.5005616,-81.6854727
1110,Euclid Avenue,44114,41.5003246,-81.6851514
1104,Euclid Avenue,44114,41.5003107,-81.6852618
1106,Euclid Avenue,44114,41.5003134,-81.6852402
1112,Euclid Avenue,44114,41.5003349,-81.6850770
1148,Euclid Avenue,44114,41.5004214,-81.6844724
1140,Euclid Avenue,44114,41.5004153,-81.6845138
1122,Euclid Avenue,44114,41.5003626,-81.6848748
1260,Euclid Avenue,44115,41.5005658,-81.6834171
1228,Euclid Avenue,44115,41.5004573,-81.6842105
1001,Huron Road East,44115,41.4995451,-81.6848406
921,Huron Road East,44115,41.4995055,-81.6849221
1275,Euclid Avenue,44114,41.5009168,-81.6832551
1275,Euclid Avenue,44114,41.5008433,-81.6833842
1255,Euclid Avenue,44114,41.5008008,-81.6836956
1901,East 13th Street,44115,41.5018157,-81.6831540
1305,Euclid Avenue,44114,41.5009633,-81.6828884
1305,Euclid Avenue,44114,41.5009189,-81.6828363
1307,Euclid Avenue,44115,41.5009334,-81.6827241
1317,Euclid Avenue,44115,41.5009584,-81.6825343
1331,Euclid Avenue,44115,41.5010000,-81.6822332
1361,Euclid Avenue,44115,41.5010143,-81.6821188
1375,Euclid Avenue,44115,41.5011820,-81.6818417
1375,Euclid Avenue,44115,41.5010458,-81.6818122
1501,Euclid Avenue,44115,41.5014061,-81.6811352
1401,Euclid Avenue,44115,41.5011826,-81.6815524
1415,Euclid Avenue,44115,41.5012028,-81.6812826
1425,Euclid Avenue,44115,41.5012118,-81.6811748
1501,Euclid Avenue,44115,41.5011372,-81.6810711
1505,Euclid Avenue,44115,41.5012253,-81.6810489
1507,Euclid Avenue,44115,41.5012343,-81.6809710
1511,Euclid Avenue,44115,41.5011599,-81.6808592
1519,Euclid Avenue,44115,41.5011803,-81.6806696
1615,Euclid Avenue,44115,41.5012125,-81.6803696
1631,Euclid Avenue,44115,41.5012307,-81.6801997
1438,Euclid Avenue,44115,41.5008506,-81.6809737
1400,Euclid Avenue,44115,41.5007906,-81.6815785
2033,East 14th Street,44115,41.5004077,-81.6812310
1350,Euclid Avenue,44115,41.5005996,-81.6820947
2188,Murray Hill Road,44106,41.5040984,-81.6007495
12200,Mayfield Road,44106,41.5085451,-81.5977622
1226,Huron Road East,44115,41.5003601,-81.6826008
1220,Huron Road East,44115,41.5001970,-81.6829443
1100,Prospect Avenue East,44115,41.4991864,-81.6836151
1104,Prospect Avenue East,44115,41.4992091,-81.6834505
1122,Prospect Avenue East,44115,41.4992022,-81.6830821
1148,Prospect Avenue East,44115,41.4993151,-81.6826820
1222,Prospect Avenue East,44115,41.4993905,-81.6821647
1213,Prospect Avenue East,44115,41.4995841,-81.6823868
2150,West 117th Street,44111,41.4733205,-81.7694142
3100,West 117th Street,44111-1747,41.4678153,-81.7713672
1120,Chester Avenue,44115,41.5018804,-81.6854306
1124,Chester Avenue,44114,41.5018474,-81.6853358
1124,Chester Avenue,44114,41.5019058,-81.6853799
1100,Chester Avenue,44114,41.5016015,-81.6859838
1111,Chester Avenue,44115,41.5017946,-81.6861147
1717,East 9th Street,44114,41.5020457,-81.6881399
1701,East 12th Street,44114,41.5029340,-81.6855561
1802,East 13th Street,44114,41.5025610,-81.6835858
1085,Old River Road,44113,41.4995265,-81.7059592
618,Prospect Avenue East,44115,41.4983539,-81.6884683
624,Prospect Avenue East,44115,41.4983943,-81.6883963
624,Prospect Avenue East,44115,41.4984437,-81.6883863
618,Prospect Avenue East,44115,41.4984268,-81.6884866
612,Prospect Avenue East,44115,41.4984129,-81.6885685
700,Prospect Avenue East,44115,41.4985405,-81.6878820
724,Prospect Avenue East,44115,41.4985906,-81.6874897
728,Prospect Avenue East,44115,41.4986127,-81.6873754
750,Prospect Avenue East,44115,41.4986591,-81.6870936
740,Prospect Avenue East,44115,41.4985753,-81.6872552
651,Huron Road,44115,41.4981743,-81.6876063
631,Huron Road East,44115,41.4979792,-81.6878749
651,Huron Road East,44115,41.4981331,-81.6875744
700,Huron Road East,44115,41.4980529,-81.6871047
727,Bolivar Road,44115,41.4973411,-81.6859178
737,Bolivar Road,44115,41.4974536,-81.6856971
2056,East 4th Street,44114,41.4988746,-81.6901839
2120,East 4th Street,44115,41.4978231,-81.6898767
211,High Street,44114,41.4976296,-81.6903802
2121,East 2nd Street,44115,41.4977804,-81.6906378
2121,East 2nd Street,44114,41.4977602,-81.6906912
2217,East 9th Street,44115,41.4978522,-81.6843854
1234,Bolivar Road,44115,41.4991698,-81.6818973
100,Public Square,44113,41.4981227,-81.6926485
1301,East 9th Street,44114,41.5043594,-81.6901770
1501,North Marginal Road,44114,41.5113986,-81.6902994
1309,Euclid Avenue,44115,41.5009396,-81.6826757
1156,West 11th Street,44113,41.4995136,-81.7052343
1086,West 11th Street,44113,41.5000589,-81.7057454
3350,Steelyard Drive,44109,41.4635111,-81.6920285
1151,North Marginal Road,44114,41.5106233,-81.6917339
1151,North Marginal Road,44114,41.5106505,-81.6917860
2203,Chester Avenue,44114,41.5040149,-81.6747985
4125,Lorain Avenue,44113,41.4799605,-81.7140045
6902,Detroit Avenue,44102,41.4837236,-81.7325526
3789,East 131st Street,44105,41.4557369,-81.5909926
412,Superior Avenue East,44114,41.5006652,-81.6910994
7301,Clark Avenue,44102,41.4694483,-81.7364944
4276,Pearl Road,44109,41.4392184,-81.7070346
4284,Pearl Road,44109,41.4391017,-81.7071160
3415,Steelyard Drive,44109,41.4602314,-81.6886231
3505,Steelyard Drive,44109,41.4591472,-81.6888120
4007,Saint Clair Avenue,44114,41.5166656,-81.6641949
2505,Professor Avenue,44113,41.4779136,-81.6826931
6610,Detroit Avenue,44102,41.4839273,-81.7312553
6600,Detroit Avenue,44102,41.4839564,-81.7311302
11616,Detroit Avenue,44107,41.4835416,-81.7679437
3650,West 117th Street,44111,41.4537605,-81.7693239
7917,Euclid Avenue,44103,41.5042134,-81.6329755
11217,Detroit Avenue,44102,41.4826979,-81.7656912
11330,Euclid Avenue,44106,41.5084745,-81.6052887
2765,East 55th Street,44104,41.4831398,-81.6508310
3407,Payne Avenue,44114,41.5095788,-81.6642028
1948,West 25th Street,44113,41.4847641,-81.7040758
2000,East 9th Street,44115,41.4999150,-81.6867041
3300,Clark Avenue,44109,41.4702244,-81.7053288
5300,Riverside Drive,44135,41.4106032,-81.8387945
5300,Riverside Drive,44135,41.4074635,-81.8419801
11610,Euclid Avenue,44106,41.5098384,-81.6022082
11610,Euclid Avenue,44106,41.5105259,-81.6025265
7050,Denison Avenue,44102,41.4620353,-81.7366564
1020,Euclid Avenue,44114,41.5002811,-81.6854920
11205,Euclid Avenue,44106,41.5079750,-81.6072269
1923,West 25th Street,44113,41.4852293,-81.7039940
7134,Denison Avenue,44102,41.4624640,-81.7373289
836,West St Clair Avenue,44113,41.4992719,-81.6996090
1948,West 25th Street,44113,41.4847866,-81.7040366
101,West Prospect Avenue,44115,41.4970498,-81.6930651
1148,Main Avenue,44113,41.4982697,-81.7063013
1530,Saint Clair Avenue,44114,41.5069119,-81.6838545
216,East 130th Street,44120,41.4710024,-81.5918082
3000,Bridge Avenue,44113,41.4841884,-81.7089063
557,East 140th Street,44110,41.5663157,-81.5850087
601,Erieside Avenue,44104,41.5076358,-81.6969554
6301,Lorain Avenue,44102,41.4744020,-81.7288874
772,East 185th Street,44119,41.5866659,-81.5500899
4525,Turney Road,44105,41.4364751,-81.6197689
8111,Quincy Avenue,44104,41.4937396,-81.6317740
4500,Turney Road,44105,41.4368544,-81.6209439
17585,Lake Shore Boulevard,44110,41.5834063,-81.5578115
2504,East 40th Street,44104,41.4920879,-81.6584423
808,East 185th Street,44119,41.5853152,-81.5500643
13705,Lorain Road,44111,41.4553306,-81.7869980
3354,Warren Road,44111,41.4626125,-81.8028812
5614,Fleet Avenue,44105,41.4556604,-81.6497995
14959,Saint Clair Avenue,44110,41.5531020,-81.5768752
14909,Saint Clair Avenue,44110,41.5529226,-81.5776186
12721,Larchmere Boulevard,44120,41.4877383,-81.5936186
1501,North Marginal Road,44114,41.5115797,-81.6901205
1745,West 25th Street,44113,41.4873778,-81.7054551
1575,East Boulevard,44106,41.5137259,-81.6166535
10701,East Boulevard,44106,41.5127593,-81.6132225
1938,Euclid Avenue,44115,41.5013151,-81.6767191
2011,West 25th Street,44113,41.4840827,-81.7029632
2215,Chester Avenue,44114,41.5040683,-81.6744108
1938,Euclid Avenue,44115,41.5013064,-81.6768181
10614,Lorain Avenue,44111,41.4653847,-81.7603391
11607,Euclid Avenue,44106,41.5107462,-81.6032508
6604,Detroit Avenue,44102,41.4840087,-81.7309315
983,Front Avenue,44113,41.5014368,-81.7032126
19000,Brookpark Road,44135,41.4191824,-81.8326392
14747,Lorain Avenue,44111,41.4530179,-81.7995779
2135,Columbus Road,44113,41.4833504,-81.7002245
7121,Saint Clair Avenue,44103,41.5282771,-81.6390851
2700,Henninger Road,44109,41.4416041,-81.7019251
3636,Euclid Avenue,44115,41.5030680,-81.6608903
10334,Saint Clair Avenue,44108,41.5373677,-81.6164211
944,East 152 Street,44110,41.5537751,-81.5759892
6514,Detroit Avenue,44102,41.4840470,-81.7308150
6512,Detroit Avenue,44102,41.4840637,-81.7307479
6508,Detroit Avenue,44102,41.4840804,-81.7306846
12201,Euclid Avenue,44106,41.5141406,-81.5990607
1300,East 9th Street,44114,41.5041341,-81.6906312
1001,Huron Road East,44115,41.4996375,-81.6847712
9803,Quebec Avenue,44106,41.4945503,-81.6191092
2306,East 100th Street,44106,41.4952339,-81.6184421
4201,Detroit Avenue,44113,41.4874656,-81.7163649
11602,Detroit Avenue,44107,41.4834641,-81.7676254
11500,Euclid Avenue,44106,41.5101312,-81.6032904
11472,Euclid Avenue,44106,41.5100331,-81.6035367
6706,Detroit Avenue,44102,41.4838245,-81.7316134
3344,Steelyard Drive,44109,41.4628581,-81.6919604
1144,Prospect Avenue East,44103,41.4992517,-81.6829394
2605,Detroit Avenue,44113,41.4907735,-81.7084968
10616,Lorain Avenue,44111,41.4654738,-81.7603328
4138,Pearl Road,44109,41.4426947,-81.7044953
1260,Euclid Avenue,44115,41.5005104,-81.6833820
1261,Superior Avenue East,44114,41.5041432,-81.6853889
6602,Detroit Avenue,44102,41.4840267,-81.7308733
9511,Buckeye Road,44104,41.4838367,-81.6194135
1816,East 12th Street,44114,41.5017076,-81.6849616
6511,Detroit Avenue,44102,41.4837997,-81.7308414
1701,East 12th Street,44114,41.5028701,-81.6852605
4017,Saint Clair Avenue,44103,41.5167482,-81.6640112
4225,Fulton Road,44109,41.4415868,-81.7228941
4193,Pearl Road,44109,41.4411535,-81.7050125
4272,Pearl Road,44109,41.4393851,-81.7068806
3430,Memphis Avenue,44109,41.4408625,-81.7062047
11322,Euclid Avenue,44106,41.5084463,-81.6055193
12715,Lorain Avenue,44111-2603,41.4589037,-81.7769618
10831,Magnolia Drive,44106,41.5147826,-81.6107513
1909,East 101st Street,44106,41.5059495,-81.6165636
1855,Ansel Road,44106,41.5079298,-81.6157687
13500,Shaker Boulevard,44120,41.4833599,-81.5877247
13600,Shaker Boulevard,44120,41.4832207,-81.5872502
13610,Shaker Boulevard,44120,41.4832034,-81.5871002
13700,Shaker Boulevard,44120,41.4831400,-81.5865879
13720,Shaker Boulevard,44120,41.4830760,-81.5861073
13710,Shaker Boulevard,44120,41.4831361,-81.5863340
14902,Puritas Avenue,44135,41.4339252,-81.8003744
1215,Old River Road,44113,41.4985841,-81.7036286
2242,Euclid Avenue,44115,41.5016693,-81.6736090
3141,Superior Avenue East,44114,41.5112932,-81.6692884
4960,State Road,44134,41.4194576,-81.7104844
1501,North Marginal Road,44114,41.5111698,-81.6905232
1501,North Marginal Road,44114,41.5113446,-81.6906519
1501,North Marginal Road,44114,41.5113285,-81.6901450
1501,North Marginal Road,44114,41.5114349,-81.6904400
1501,North Marginal Road,44114,41.5112863,-81.6906277
19424,South Waterloo Road,44119,41.5785153,-81.5439669
1865,West 25th Street,44113,41.4859410,-81.7045460
7925,Euclid Avenue,44103,41.5042149,-81.6329005
6501,Detroit Avenue,44102,41.4838932,-81.7304652
10435,Clifton Boulevard,44012,41.4851735,-81.7574538
12204,Mayfield Road,44106,41.5085482,-81.5976658
2017,Murray Hill Road,44106,41.5081334,-81.5977845
2015,Murray Hill Road,44106,41.5081786,-81.5977838
2013,Murray Hill Road,44106,41.5082404,-81.5977838
2027,Murray Hill Road,44106,41.5078823,-81.5977704
2025,Murray Hill Road,44106,41.5079426,-81.5977697
2021,Murray Hill Road,44106,41.5080209,-81.5977670
12108,Mayfield Road,44106,41.5085467,-81.5981761
12112,Mayfield Road,44106,41.5085416,-81.5980694
5620,Broadway Avenue,44127,41.4666995,-81.6511623
11312,Euclid Avenue,44106,41.5083152,-81.6057996
11431,Euclid Avenue,44106,41.5096577,-81.6046955
11435,Euclid Avenue,44106,41.5097923,-81.6045178
1893,East 55th Street,44103,41.5072124,-81.6510747
410,Superior Avenue East,44114,41.5005220,-81.6905753
627,Prospect Avenue East,44115,41.4987205,-81.6883132
740,Prospect Avenue East,44115,41.4985647,-81.6874842
2173,Professor Avenue,44113,41.4823094,-81.6872028
13507,Lakewood Heights Boulevard,44107,41.4703447,-81.7848184
3100,West 117th Street,44111,41.4677143,-81.7713502
1404,East 9th Street,44114,41.5029682,-81.6894544
4896,Pearl Road,44109,41.4249095,-81.7212787
8310,Detroit Avenue,44102,41.4811280,-81.7419366
3205,Lorain Avenue,44113,41.4817872,-81.7097298
2136,Mulberry Avenue,44113,41.4948552,-81.7080797
1437,Saint Clair Avenue,44114,41.5064514,-81.6857585
200,Euclid Avenue,44113,41.4993474,-81.6920042
2030,West Schaaf Road,44109,41.4294820,-81.6966628
4860,Broadview Road,44109,41.4237603,-81.6971147
2010,West Schaaf Road,44109,41.4292834,-81.6962101
2028,West Schaaf Road,44109,41.4294629,-81.6966158
2032,West Schaaf Road,44109,41.4295011,-81.6967057
610,Superior Avenue,44114,41.5012835,-81.6896962
3348,Steelyard Drive,44109,41.4629819,-81.6919371
3563,Steelyard Drive,44109,41.4574875,-81.6890404
11637,Clifton Boulevard,44107,41.4872721,-81.7685529
526,Superior Avenue East,44114,41.5010188,-81.6905214
3428,Memphis Avenue,44109,41.4408623,-81.7061581
3426,Memphis Avenue,44109,41.4408651,-81.7060799
4239,Fulton Road,44144,41.4413390,-81.7228961
4235,Fulton Road,44109,41.4414677,-81.7228894
4237,Fulton Road,44144,41.4414014,-81.7228881
4259,Fulton Road,44109,41.4408424,-81.7228921
3337,Broadview Road,44109,41.4413320,-81.7045739
2101,Adelbert Road,44106,41.5048613,-81.6057479
1240,West 6th Street,44113,41.5006369,-81.6997277
55,Erieview Plaza,44114,41.5054574,-81.6897922
1844,Columbus Road,44113,41.4895629,-81.7008861
323,West Lakeside Avenue,44113,41.5017030,-81.6985543
7308,Detroit Avenue,44102,41.4828939,-81.7351890
4181,Rocky River Drive,44135,41.4409459,-81.8191147
4127,East 131st Street,44105,41.4466540,-81.5900570
1350,Euclid Avenue,44115,41.5006394,-81.6819290
10510,Park Lane,44106,41.5067029,-81.6148600
7210,Memphis Road,44144,41.4406330,-81.7348352
10205,Madison Avenue,44102,41.4769644,-81.7560358
2676,West 14th Street,44113,41.4757331,-81.6915001
2600,Detroit Avenue,44113,41.4910770,-81.7084625
1012,Prospect Avenue,44115,41.4991417,-81.6835586
2201,West 93rd Street,44102,41.4715106,-81.7457074
3269,Steelyard Drive,44109,41.4645943,-81.6870702
2929,Detroit Avenue,44113,41.4894789,-81.7115302
2339,Broadview Road,44109,41.4392669,-81.7016460
2424,Broadview Road,44109,41.4399909,-81.7020190
6705,Detroit Avenue,44102,41.4835622,-81.7315982
3802,Pearl Road,44109,41.4514790,-81.7018208
4197,Pearl Road,44109,41.4410584,-81.7050721
2202,Broadview Road,44109,41.4387438,-81.6995114
10001,Lorain Avenue,44111,41.4668716,-81.7532574
11026,Lorain Avenue,44111,41.4637441,-81.7636415
3030,Euclid Avenue,44115,41.5024059,-81.6668200
3200,Carnegie Avenue,44115,41.5003333,-81.6657312
4260,Fulton Road,44109,41.4406267,-81.7237819
2020,West Schaaf Road,44109,41.4293705,-81.6963659
4196,Pearl Road,44109,41.4413820,-81.7053438
1220,West 3rd Street,44113,41.5016673,-81.6983595
4912,Pearl Road,44109,41.4241994,-81.7221226
950,Main Avenue,44113,41.5008686,-81.7035273
3120,Superior Avenue East,44114,41.5108289,-81.6692439
11607,Euclid Avenue,44106,41.5108028,-81.6031808
620,East 185th Street,44119,41.5906546,-81.5501255
640,East 185th Street,44119,41.5901382,-81.5500940
670,East 185th Street,44119,41.5893916,-81.5500687
702,East 185th Street,44119,41.5884228,-81.5500645
3780,Rocky River Drive,44111-4050,41.4518656,-81.8184969
3312,Saint Clair Avenue Northeast,44114,41.5137866,-81.6692931
11536,Buckeye Road,44104,41.4808690,-81.6030453
14031,Puritas Avenue,44135,41.4329467,-81.7914248
2209,Chester Avenue,44114,41.5040340,-81.6745952
2155,Broadview Road,44109,41.4381207,-81.6997569
200,South Marginal Road,44114,41.5057496,-81.6962779
3211,Payne Avenue,44114,41.5087705,-81.6661745
4274,Pearl Road,44109,41.4393432,-81.7069192
12635,Larchmere Boulevard,44120,41.4877981,-81.5944033
13209,Shaker Square,44120,41.4845990,-81.5899238
12502,Larchmere Boulevard,44120,41.4876427,-81.5959785
12706,Larchmere Boulevard,44120,41.4874301,-81.5941838
4988,Pearl Road,44109,41.4245395,-81.7216704
1464,East 105th Street,44106,41.5171303,-81.6156693
966,East 105th Street,44108,41.5305769,-81.6156925
968,East 105th Street,44108,41.5305267,-81.6157003
1055,East 9th Street,44114,41.5098485,-81.6932397
1055,East 9th Street,44114,41.5097038,-81.6926794
1240,East Ninth Street,44199,41.5049205,-81.6921658
1240,East Ninth Street,44199,41.5045781,-81.6914309
11409,Euclid Avenue,44106,41.5092100,-81.6053480
1240,East 9th Street,44199,41.5051223,-81.6918680
13905,Kinsman Road,44120,41.4646454,-81.5855609
4071,Lee Road,44128,41.4479825,-81.5638970
4464,Broadview Road,44109,41.4343596,-81.6972971
3980,Lee Road,44128,41.4509271,-81.5652363
17322,Harvard Avenue,44120,41.4496518,-81.5581936
15619,Waterloo Road,44110,41.5712320,-81.5710933
1220,West 6th Street,44113,41.5007808,-81.7000665
602,East 185th Street,44119,41.5910875,-81.5501147
608,East 185th Street,44119,41.5909005,-81.5501157
624,East 185th Street,44119,41.5905360,-81.5501105
630,East 185th Street,44119,41.5904601,-81.5501126
646,East 185th Street,44119,41.5899353,-81.5500769
658,East 185th Street,44119,41.5895722,-81.5500850
676,East 185th Street,44119,41.5892263,-81.5500716
687,East 185th Street,44119,41.5888683,-81.5497350
691,East 185th Street,44119,41.5887572,-81.5497262
695,East 185th Street,44119,41.5886979,-81.5497290
693,East 185th Street,44119,41.5888168,-81.5497318
696,East 185th Street,44119,41.5886861,-81.5500538
750,East 185th Street,44119,41.5873202,-81.5500584
752,East 185th Street,44119,41.5870135,-81.5500602
777,East 185th Street,44119,41.5863435,-81.5496984
798,East 185th Street,44119,41.5856518,-81.5500618
9801,Walford Avenue,44102,41.4546496,-81.7523989
4160,Lorain Avenue,44113,41.4800394,-81.7146066
6401,St. Clair Avenue,44103,41.5251101,-81.6461447
16115,Waterloo Road,44110,41.5708765,-81.5687479
3335,Broadview Road,44109,41.4412784,-81.7045071
2151,Broadview Road,44109,41.4380446,-81.6996318
2121,Broadview Road,44109,41.4375437,-81.6991727
4764,Broadview Road,44109,41.4267772,-81.6971885
2708,Bridge Avenue,44113,41.4852665,-81.7065992
3806,Franklin Boulevard,44113,41.4862971,-81.7142234
11433,Mayfield Road,44106,41.5089123,-81.6036416
1428;1410,West 29th Street,44113,41.4895553,-81.7110331
2515,Jay Avenue,44113,41.4862892,-81.7058173
2515,Jay Avenue,44113,41.4862216,-81.7059436
16700,Lorain Ave,44111,41.4508225,-81.8140915
16820,Lorain Avenue,44111,41.4506125,-81.8151731
17004,Lorain Avenue,44111,41.4505201,-81.8157129
5000,Euclid Avenue,44103,41.5038261,-81.6541605
6200,Euclid Avenue,44103,41.5037787,-81.6483849
1633,Auburn Avenue,44113,41.4758613,-81.6951859
17025,Lorain Avenue,44111,41.4500668,-81.8160492
16612,Lorain Avenue,44111,41.4508740,-81.8137962
1400,East 105th Street,44106,41.5188273,-81.6156118
2400,Broadway Avenue,44101,41.4893692,-81.6730565
1309,Euclid Avenue,44115,41.5009885,-81.6827120
7100,Euclid Avenue,44103,41.5034595,-81.6391759
11728,Lorain Avenue,44111,41.4618007,-81.7695911
13115,Lorain Avenue,44111,41.4577919,-81.7805668
12845,Lorain Avenue,44111,41.4586838,-81.7783964
3710,Payne Avenue,44114,41.5093688,-81.6622636
3709,Payne Avenue,44114,41.5097967,-81.6625028
5634,Broadway Avenue,44127,41.4665782,-81.6510132
3408,Bridge Avenue,44113,41.4832890,-81.7108370
1215,West 10th Street,44113,41.4999297,-81.7034521
13510,Lorain Avenue,44111-3434,41.4568063,-81.7852668
3341,Broadview Road,44109,41.4413757,-81.7046363
3343,Broadview Road,44109,41.4414139,-81.7047020
2024,West Schaaf Road,44109,41.4294207,-81.6964756
4760,Grayton Road,44135,41.4265093,-81.8443177
7250,Brookpark Road,44129,41.4189708,-81.7337131
6770,Brookpark Road,44136,41.4202965,-81.7318968
6750,Brookpark Road,44136,41.4200244,-81.7305120
6204,Brookpark Road,44136,41.4188859,-81.7293629
6208,Brookpark Road,44136,41.4192473,-81.7294742
5100,Pearl Road,44136,41.4200947,-81.7272849
5100,Pearl Road,44136,41.4200300,-81.7271731
5140,Pearl Road,44136,41.4196862,-81.7280564
5120,Pearl Road,44136,41.4200931,-81.7276281
5126,Pearl Road,44136,41.4200065,-81.7277123
5151,Pearl Road,44136,41.4189538,-81.7271467
6000,Brookpark Road,44136,41.4189779,-81.7260295
10744,Lorain Avenue,44111,41.4664947,-81.7605047
3401,Steelyard Drive,44109,41.4614582,-81.6898449
3420,Steelyard Drive,44109,41.4599203,-81.6915676
3340,Steelyard Drive,44109,41.4634991,-81.6902806
3356,Steelyard Drive,44109,41.4627462,-81.6906562
3266,Steelyard Drive,44109,41.4649899,-81.6878540
3294,Steelyard Drive,44109,41.4643761,-81.6883527
3314,Steelyard Drive,44109,41.4638546,-81.6888990
3299,Steelyard Drive,44109,41.4638542,-81.6874389
3244,Steelyard Drive,44109,41.4655221,-81.6874981
3586,Steelyard Drive,44109,41.4558352,-81.6897844
3606,Steelyard Drive,44109,41.4554123,-81.6894457
11473,Euclid Avenue,44106,41.5104162,-81.6039503
11365,Euclid Avenue,44106,41.5088425,-81.6056956
7500,Cedar Avenue,44103,41.5001376,-81.6363197
10514,Lorain Avenue,44111,41.4651722,-81.7593607
3308,Lorain Avenue,44113,41.4816405,-81.7102106
10001,Chester Avenue,44106,41.5058540,-81.6182975
11038,Bellflower Road,44106,41.5080487,-81.6087490
11407,Euclid Avenue,44106,41.5092698,-81.6054704
11111,Euclid Avenue,44106,41.5075209,-81.6083089
2083,Martin Luther King Junior Boulevard,44106,41.5027434,-81.6082728
1909,East 101st Street,44106,41.5058378,-81.6167111
11111,Euclid Avenue,44106,41.5075236,-81.6082048
2275,Professor Avenue,44113,41.4812070,-81.6860508
11917,Mayfield Road,44106,41.5088019,-81.5996303
12117,Mayfield Road,44106,41.5088169,-81.5979086
11321,Euclid Avenue,44106,41.5088036,-81.6057559
11417,Euclid Avenue,44106,41.5093374,-81.6050813
11421,Euclid Avenue,44106,41.5094860,-81.6049276
6105,Memphis Avenue,44144,41.4397817,-81.7292315
2937,West 25th Street,44113,41.4721071,-81.6989828
1951,Randall Road,44113,41.4811065,-81.7136767
1953,Randall Road,44113,41.4810834,-81.7137357
1949,Randall Road,44113,41.4811291,-81.7136351
1947,Randall Road,44113,41.4811502,-81.7135841
1945,Randall Road,44113,41.4811783,-81.7135258
16848,Lorain Avenue,44111,41.4506481,-81.8149905
9807,Lorain Avenue,44102,41.4675316,-81.7512373
9815,Lorain Avenue,44102,41.4674954,-81.7513982
16204,Lorain Avenue,44111,41.4512591,-81.8120542
16204,Lorain Avenue,44111,41.4512258,-81.8120929
3202,Lorain Avenue,44113,41.4820216,-81.7091305
3204,Lorain Avenue,44113,41.4820013,-81.7091920
15803,Waterloo Road,44110,41.5712332,-81.5698238
200,Public Square,44114,41.4999689,-81.6914861
10950,Lorain Avenue,44111,41.4661667,-81.7624596
9705,Denison Avenue,44102,41.4655631,-81.7500863
9701,Denison Avenue,44102,41.4655450,-81.7499944
1880,West 25th Street,44113,41.4855694,-81.7046898
14804,Saint Clair Avenue,44110,41.5523607,-81.5786710
1776,East 17th Street,44114,41.5036205,-81.6806292
7919,Kinsman Road,44104,41.4770550,-81.6319190
3311,Broadview Road,44109,41.4407650,-81.7037290
2323,Broadview Road,44109,41.4386648,-81.7013030
4240,Pearl Road,44109,41.4404020,-81.7062389
4265,State Road,44109,41.4380696,-81.7064863
15520,Munn Road,44111,41.4592071,-81.8052909
4280,West 150th Street,44135,41.4376313,-81.8019288
4321,Bridge Avenue,44113,41.4804390,-81.7161857
11601,Euclid Avenue,44106,41.5106221,-81.6034298
7200,Flowerdale Avenue,44144,41.4237118,-81.7340156
2173,Professor Avenue,44113,41.4823791,-81.6872678
1048,Old River Road,44113,41.4996907,-81.7077286
87,West Saint Clair Avenue,44113,41.5009206,-81.6955723
9308,Clifton Blvd,44102,41.4847296,-81.7477405
4917,Broadview Road,44109,41.4219397,-81.6956221
4919,Broadview Road,44109,41.4220679,-81.6954004
4921,Broadview Road,44109,41.4219930,-81.6951061
4923,Broadview Road,44109,41.4218319,-81.6949456
4927,Broadview Road,44109,41.4216105,-81.6949799
2001,Pleasantdale Road,44109,41.4225893,-81.6955851
2000,Pleasantdale Road,44109,41.4229086,-81.6956666
4901,Broadview Road,44109,41.4223721,-81.6957668
1908,Pleasantdale Road,44109,41.4229861,-81.6952080
1904,Pleasantdale Road,44109,41.4230717,-81.6949330
1900,Pleasantdale Road,44109,41.4229954,-81.6946834
1812,Pleasantdale Road,44109,41.4231663,-81.6934261
1824,Pleasantdale Road,44109,41.4228670,-81.6939790
1820,Pleasantdale Road,44109,41.4230654,-81.6939769
1816,Pleasantdale Road,44109,41.4231853,-81.6937926
1127,Old River Road,44113,41.4994593,-81.7055346
2400,Broadview Road,44109,41.4397199,-81.7013513
2258,Professor Avenue,44113,41.4812794,-81.6865920
610,East 185th Street,44119,41.5908069,-81.5501109
14901,Lorain Avenue,44111,41.4521696,-81.7996529
14901,Lorain Avenue,44111,41.4521736,-81.8002671
14901,Lorain Avenue,44111-3107,41.4521958,-81.8007847
12800,Larchmere Boulevard,44120,41.4874000,-81.5930396
205,West Saint Clair Avenue,44113,41.5006763,-81.6959460
1,Saint Clair Avenue Northeast,44114,41.5017698,-81.6947313
7,West Saint Clair Avenue,44114,41.5017037,-81.6948659
1121,West 10th Street,44113,41.5003009,-81.7038775
1800,East 63rd Street,44103,41.5071753,-81.6481808
4497,Broadview Road,44109,41.4335113,-81.6969706
1430,West 28th Street,44113,41.4900478,-81.7094128
7905,Euclid Avenue,44103,41.5044305,-81.6332055
7933,Euclid Avenue,44103,41.5042166,-81.6328277
8069,Euclid Avenue,44103,41.5040491,-81.6319743
8053,Euclid Avenue,44103,41.5041478,-81.6320539
8043,Euclid Avenue,44103,41.5042720,-81.6320552
8045,Euclid Avenue,44103,41.5042073,-81.6320545
8037,Euclid Avenue,44103,41.5043956,-81.6320565
8035,Euclid Avenue,44103,41.5044587,-81.6320571
8013,Euclid Avenue,44103,41.5046289,-81.6320555
7993,Euclid Avenue,44103,41.5050000,-81.6320273
7981,Euclid Avenue,44103,41.5051909,-81.6324163
7957,Euclid Avenue,44103,41.5051659,-81.6332744
7949,Euclid Avenue,44103,41.5051647,-81.6333722
1701,West 25th Street,44113,41.4878554,-81.7059272
616,East 185th Street,44119,41.5907377,-81.5501118
1501,Lakeside Avenue,44114,41.5088614,-81.6864940
13311,Enterprise Avenue,44135,41.4228343,-81.7842948
3441,Steelyard Drive,44109,41.4600363,-81.6886689
6507,Detroit Avenue,44102,41.4838162,-81.7307694
2019,Broadview Road,44109,41.4354344,-81.6977131
65,Erieview Plaza,44113,41.5056565,-81.6890955
6001,Broadway Avenue,44127,41.4648476,-81.6482214
4800,Broadway Avenue,44127,41.4730091,-81.6580551
2054,Fulton Road,44113,41.4803721,-81.7107249
2307,West 14th Street,44113,41.4806953,-81.6908685
1031,Spring Road,44109,41.4345547,-81.6873662
4392,Pearl Road,44109,41.4362247,-81.7094180
9713,Denison Avenue,44102,41.4655948,-81.7503686
2125,Superior Avenue East,44114,41.5078372,-81.6781873
2915,Detroit Avenue,44113,41.4895593,-81.7113730
2912,Church Avenue,44113,41.4892026,-81.7112551
2715,Detroit Avenue,44113,41.4904694,-81.7091812
2700,Carroll Avenue,44113,41.4849871,-81.7061598
3746,Prospect Avenue East,44115,41.5018134,-81.6602435
4298,Pearl Road,44109,41.4386793,-81.7074311
7550,Bittern Road,44103,41.5338253,-81.6364310
3600,Biddulph Avenue,44109,41.4302477,-81.7085235
3133,Payne Avenue,44114,41.5088083,-81.6667709
4190,Pearl Road,44109,41.4415230,-81.7052724
2718,Lorain Avenue,44113,41.4834894,-81.7052287
3303,Broadview Road,44109,41.4406546,-81.7035530
1690,Columbus Road,44114,41.4939966,-81.7006611
1301,East 9th Street,44114,41.5049302,-81.6895719
55,Erieview Plaza,44114,41.5056240,-81.6892798
11100,Euclid Avenue,44106,41.5048002,-81.6054134
4133,Lorain Avenue,44113,41.4799575,-81.7141660
4194,Pearl Road,44109,41.4414260,-81.7053089
2136,Broadview Road,44109,41.4377469,-81.6989695
3010,Broadview Road,44109,41.4403970,-81.7025878
4326,Pearl Road,44109,41.4379640,-81.7079602
4380,Pearl Road,44109,41.4365394,-81.7091310
4378,Pearl Road,44109,41.4365836,-81.7091001
4316,Pearl Road,44109,41.4381183,-81.7078107
710,Jefferson Avenue,44113,41.4806354,-81.6835825
910,Literary Road,44113,41.4815242,-81.6872115
4193,West 150th Street,44135,41.4405335,-81.8004409
10510,Buckeye Road,44104,41.4809238,-81.6117744
3126,Saint Clair Avenue Northeast,44114,41.5130177,-81.6709193
1658,Saint Clair Avenue Northeast,44114,41.5072801,-81.6831387
17219,Lorain Avenue,44111,41.4499725,-81.8172848
4403,Saint Clair Avenue,44103,41.5179400,-81.6616934
1300,East 9th Street,44114,41.5039263,-81.6909217
14102,Saint Clair Avenue,44110,41.5503172,-81.5834084
4890,Pearl Road,44109,41.4247462,-81.7214355
3312,West 105th Street,44111,41.4624124,-81.7590787
2630,North Moreland Boulevard,44120,41.4863613,-81.5903501
2636,North Moreland Boulevard,44120,41.4861983,-81.5904198
2642,North Moreland Boulevard,44120,41.4860341,-81.5906506
2646,North Moreland Boulevard,44120,41.4859569,-81.5906812
2654,North Moreland Boulevard,44120,41.4857320,-81.5905866
2666,North Moreland Boulevard,44120,41.4853967,-81.5906627
2680,North Moreland Boulevard,44120,41.4849919,-81.5907219
13302,Cormere Avenue,44120,41.4850029,-81.5897918
2661,North Moreland Boulevard,44120,41.4853680,-81.5899754
2653,North Moreland Boulevard,44120,41.4856056,-81.5899218
2641,North Moreland Boulevard,44120,41.4858675,-81.5898377
2635,North Moreland Boulevard,44120,41.4861068,-81.5897473
1422,Euclid Avenue,44115,41.5007062,-81.6813071
401,Euclid Avenue,44114,41.5003320,-81.6903643
1101,Euclid Avenue,44115,41.5005792,-81.6855667
1317,Euclid Avenue,44115,41.5010046,-81.6825777
24,Public Square,44113,41.4986538,-81.6945114
2702,Bridge Avenue,44113,41.4854958,-81.7065976
1370,West 6th Street,44113,41.4992481,-81.6985710
11804,Lorain Avenue,44111,41.4617054,-81.7699108
11555,Lorain Avenue,44111,41.4619981,-81.7678941
3497,Steelyard Drive,44109,41.4593956,-81.6887513
3501,Steelyard Drive,44109,41.4592993,-81.6887745
3569,Steelyard Drive,44109,41.4574751,-81.6889368
13334,Lorain Avenue,44111,41.4576144,-81.7828019
1470,Lakeside Avenue East,44114,41.5079035,-81.6864287
3922,St Clair Ave,44114,41.5157646,-81.6648068
1,Center Court,44115,41.4966845,-81.6885436
2401,Ontario Street,44115,41.4960317,-81.6853512
1,IX Center Drive,44135,41.3984730,-81.8531684
4700,Broadview Road,44109,41.4295631,-81.7028896
1979,West 25th Street,44113,41.4846469,-81.7030159
2675,East 30th Street,44115,41.4888628,-81.6673976
3355,Steelyard Drive,44109,41.4622675,-81.6879710
3586,Steelyard Drive,44109,41.4558794,-81.6897914
4240,Pearl Road,44109,41.4403423,-81.7063475
1260,Euclid Avenue,44115,41.5004123,-81.6833570
2144,Broadview Road,44109,41.4382851,-81.6992020
4172,Pearl Road,44109,41.4420827,-81.7054241
4265,State Road,44109,41.4381643,-81.7065583
4175,Pearl Road,44109,41.4417040,-81.7044355
4314,State Road,44109,41.4370259,-81.7072658
4303,Pearl Road,44109,41.4383602,-81.7072072
310,Prospect Avenue East,44115,41.4980295,-81.6902276
206,Prospect Avenue East,44115,41.4979594,-81.6906716
2218,Broadview Road,44109,41.4387612,-81.7001147
4221,Pearl Road,44109,41.4405541,-81.7051170
4150,Pearl Road,44109,41.4424267,-81.7049054
2145,Broadview Road,44109,41.4377401,-81.6993832
4274,Pearl Road,44109,41.4393401,-81.7070251
601,Erieside Avenue,44114,41.5075234,-81.6967535
1215,West 10th Street,44113,41.4999487,-81.7025936
2030,Broadview Road,44109,41.4356125,-81.6973637
16803,Lorain Avenue,44111,41.4500384,-81.8151710
17400,Lorain Avenue,44111,41.4504566,-81.8189953
812,Huron Road East,44115,41.4982288,-81.6860303
1020,Bolivar Road,44115,41.4980458,-81.6835243
14301,Kinsman Road,44120,41.4648494,-81.5819973
12503,Union Avenue,44120,41.4638615,-81.5954635
4910,Memphis Avenue,44144,41.4402110,-81.7205800
3706,Pearl Road,44109,41.4542387,-81.7017335
1900,Fulton Road,44113,41.4824483,-81.7113154
3030,East 63rd Street,44127,41.4761993,-81.6471660
4680,State Road,44109,41.4271007,-81.7093517
4674,State Road,44109,41.4272379,-81.7092236
1644,East 115th Street,44106,41.5150496,-81.6062642
1630,East 118th Street,44106,41.5133421,-81.6026803
11201,Euclid Avenue,44106,41.5079351,-81.6079050
11111,Euclid Avenue,44106,41.5074232,-81.6083546
11055,Euclid Avenue,44106,41.5073561,-81.6095779
11150,East Boulevard,44114,41.5090215,-81.6119301
11021,East Boulevard,44106,41.5123919,-81.6086064
1903,Ford Drive,44106,41.5108028,-81.6076101
2215,Adelbert Road,44106,41.5018969,-81.6030782
2225,Murray Hill Road,44106,41.5029155,-81.6013344
1001,Lakeside Avenue,44114,41.5067123,-81.6912515
1212,Huron Road East,44115,41.4997527,-81.6832643
614,West Superior Avenue,44113,41.4980240,-81.6977261
1621,East 118th Street,44106,41.5147658,-81.6007635
740,West Superior Avenue,44113,41.4975758,-81.6985270
1220,West 6th Street,44113,41.5008010,-81.7001322
1211,West 9th Street,44113,41.5003569,-81.7012576
323,West Lakeside Avenue,44113,41.5015978,-81.6986050
7224,Broadway Avenue,44105,41.4570839,-81.6380152
668,Euclid Avenue,44114,41.4989859,-81.6885219
750,Prospect Avenue East,44115,41.4984831,-81.6871594
700,Prospect Avenue East,44115,41.4984494,-81.6878672
2077,East 4th Street,44115,41.4985475,-81.6898261
334,Euclid Avenue,44114,41.4993780,-81.6905984
724,Prospect Avenue East,44115,41.4983989,-81.6874330
2057,East 4th Street,44115,41.4990445,-81.6898692
2050,East 4th Street,44114,41.4989241,-81.6903346
728,Prospect Avenue East,44115,41.4984377,-81.6873296
1150,West 3rd Street,44113,41.5024492,-81.6992178
127,Public Square,44115,41.5010498,-81.6938543
1360,West Mall Drive,44114,41.5013399,-81.6943772
1444,West 10th Street,44113,41.4971823,-81.7001995
310,West Lakeside Avenue,44113,41.5021453,-81.6989427
205,West Saint Clair Avenue,44114,41.5005454,-81.6958413
13013,Corlett Avenue,44105,41.4563219,-81.5919436
3830,East 131st Street,44120,41.4545698,-81.5915557
5701,Memphis Avenue,44144,41.4395860,-81.7262802
3121,Oak Park Avenue,44109,41.4260124,-81.7057531
1100,Superior Avenue East,44114,41.5029086,-81.6864479
1717,East 9th Street,44114,41.5021408,-81.6879510
530,Euclid Avenue,44115,41.4991545,-81.6891435
7910,Detroit Avenue,44102,41.4819743,-81.7397756
7600,Wade Park Avenue,44103,41.5152623,-81.6346945
1120,Chester Avenue,44115,41.5017514,-81.6852557
727,Bolivar Road,44115,41.4974362,-81.6860552
1001,Huron Road East,44115,41.4994485,-81.6842633
737,Bolivar Road,44115,41.4976010,-81.6859492
750,Huron Road East,44115,41.4980836,-81.6865545
3506,Steelyard Drive,44109,41.4593013,-81.6921048
3400,Steelyard Drive,44109,41.4615529,-81.6927544
1126,Ansel Road,44108,41.5240678,-81.6282074
200,Cleveland Memorial Shoreway,44114,41.5056478,-81.6964517
1501,North Marginal Road,44114,41.5189452,-81.6801760
1468,West 9th Street,44113,41.4974108,-81.6995826
614,Frankfort Avenue,44113,41.4986872,-81.6983376
1415-19,West 9th Street,44113,41.4981124,-81.6993046
1901,East 13th Street,44115,41.5018640,-81.6826965
5515,Ira Avenue,44109,41.4276060,-81.7245383
2008,West 30th Street,44113,41.4820220,-81.7073138
1301,East 9th Street,44114,41.5048746,-81.6894063
1201,Lakeside Avenue East,44114,41.5074126,-81.6893007
1900,East 9th Street,44114,41.5006923,-81.6877068
1814,East 40th Street,44103,41.5086825,-81.6596364
18300,Woda Avenue,44122,41.4544199,-81.5509650
101,West Prospect Avenue,44115,41.4972280,-81.6924052
1689,East 115th Street,44106,41.5121031,-81.6041477
11424,Bellflower Road,44106,41.5114876,-81.6048937
100,Public Square,44113,41.4982959,-81.6929497
4222,West 150 Street,44135,41.4398865,-81.8042338
3805,West 157th Street,44111,41.4514038,-81.8075494
16415,Lorain Avenue,44111,41.4506195,-81.8126951
16515,Lorain Avenue,44111,41.4502353,-81.8132169
2937,Lorain Avenue,44113,41.4825355,-81.7066708
543,W. 3rd St.,44114,41.5044825,-81.7010408
1375,East 9th Street,44114,41.5036781,-81.6891679
1089,East 9th Street,44114,41.5100788,-81.6916298
2926,Chester Avenue,44114,41.5042167,-81.6681322
1900,E. 30th St.,44114,41.5037097,-81.6679799
1900,E. 30th St.,44114,41.5034062,-81.6683299
2925,Euclid Ave.,44115,41.5027777,-81.6678364
2077,East 30th Street,44115,41.5002841,-81.6664665
2930,Carnegie Avenue,44115,41.4993399,-81.6671293
16800,Lorain Avenue,44111,41.4508312,-81.8146085
3853,West 168th Street,44111,41.4497882,-81.8140791
16420,Lorain Avenue,44111,41.4511901,-81.8128257
3776,West 150th Street,44111,41.4518695,-81.8017978
3838,West 150th,44111,41.4505078,-81.8017753
16729,Lorain Avenue,44111,41.4502588,-81.8140689
13027,Lorain Avenue,44111,41.4579351,-81.7801955
3527,West 130th Street,44111,41.4579243,-81.7791187
13820,Lorain Avenue,44111,41.4570656,-81.7884483
13630,Lorain Avenue,44111,41.4566695,-81.7868515
14015,Lorain Avenue,44111,41.4547089,-81.7906662
14021,Lake Shore Boulevard,44110,41.5705676,-81.5861178
3511,Steelyard Drive,44109,41.4590584,-81.6904107
3401,Steelyard Drive,44109,41.4614627,-81.6898509
3299,Steelyard Drive,44109,41.4638434,-81.6874395
668,Euclid Avenue,44115,41.4995882,-81.6883969
11901,Carlton Road,44106,41.5011122,-81.6011764
1278,West 9th Street,44113,41.4989218,-81.7017474
600,Erieside Avenue,44114,41.5060998,-81.7040205
5300,Riverside Drive,44135,41.4064683,-81.8547518
3255,West 117th Street,44111,41.4641027,-81.7685413
1380,East 6th Street,44114,41.5022025,-81.6919644
700,West Saint Clair Avenue,44113,41.4997429,-81.6990687
1300,Ontario Street,44113,41.5018334,-81.6971250
1801,East 12th Street,44114,41.5019632,-81.6844110
45,Bethel Court,44114,41.5054920,-81.6898829
1111,Chester Avenue,44115,41.5021063,-81.6863113
1255,Euclid Avenue,44115,41.5012067,-81.6835287
1211,Euclid Avenue,44115,41.5010322,-81.6843464
2121,Euclid Avenue,44115,41.5025276,-81.6751536
1701,East 12th Street,44114,41.5029849,-81.6852853
800,Superior Avenue East,44114,41.5017125,-81.6887232
777,Saint Clair Avenue Northeast,44114,41.5035395,-81.6914761
1305,Euclid Avenue,44115,41.5011743,-81.6828586
1260,West 4th Street,44113,41.5010286,-81.6988186
3294,Steelyard Drive,44109,41.4643786,-81.6883489
3266,Steelyard Drive,44109,41.4650287,-81.6878519
1012,Prospect Avenue East,44115,41.4988036,-81.6838583
1300,West 9th Street,44113,41.4987170,-81.7011744
701,West Lakeside Avenue,44113,41.5003822,-81.7006592
1360,West 9th Street,44113,41.4984762,-81.7005332
1104,Prospect Avenue East,44115,41.4990888,-81.6835534
600,Superior Avenue East,44114,41.5012990,-81.6895488
1276,West 3rd Street,44113,41.5010071,-81.6980809
629,Euclid Avenue,44114,41.5002117,-81.6887324
11610,Euclid Avenue,44106,41.5104772,-81.6021629
11501,Mayfield Road,44106,41.5090505,-81.6028412
2355,East 89th Street,44106,41.4937894,-81.6238036
1127,Euclid Avenue,44115,41.5010919,-81.6849826
2022,East 105th Street,44106,41.5032378,-81.6167119
10515,East 105th Street,44106,41.5057728,-81.6148687
1950,East 101st Street,44106,41.5046878,-81.6175176
2121,Seymour Avenue,44113,41.4725153,-81.6975791
2203,Seymour Avenue,44113,41.4725282,-81.6977740
1795,West 25th Street,44113,41.4870574,-81.7050537
5906,Woodland Avenue,44104,41.4877039,-81.6486762
6001,Woodland Avenue,44104,41.4886642,-81.6482854
11027,Magnolia Drive,44106,41.5149539,-81.6086885
3711,Chester Avenue,44114,41.5056072,-81.6615497
2079,East 9th Street,44115,41.4994936,-81.6854384
5715,Woodland Avenue,44104-2740,41.4883463,-81.6495536
4744,Broadview Road,44109,41.4272042,-81.6972794
10701,East Boulevard,44106,41.5134847,-81.6137128
13200,Kinsman Road,44120,41.4649070,-81.5906675
16975,Wildwood Drive,44119,41.5883681,-81.5644245
8022,Broadway Avenue,44105,41.4514377,-81.6318935
8109,Broadway Avenue,44105,41.4511785,-81.6309578
7422,Harvard Avenue,44105,41.4484125,-81.6348852
7525,Harvard Avenue,44105,41.4490411,-81.6345814
7945,Broadway Avenue,44105,41.4514824,-81.6305003
7816,Broadway Avenue,44105,41.4529850,-81.6331555
2310,Superior Avenue East,44114,41.5080768,-81.6756041
2247,Professor Avenue,44113-4466,41.4815623,-81.6862244
1900,Superior Avenue East,44114,41.5066962,-81.6789636
850,Jefferson Avenue,44113,41.4792540,-81.6855581
635,West Lakeside Avenue,44113,41.5005063,-81.7002946
16300,Lake Shore Boulevard,44110,41.5794157,-81.5663476
3330,Broadview Road,44109,41.4414839,-81.7038847
4200,Pearl Road,44109,41.4413421,-81.7059002
1220,Huron Road East,44115,41.5000212,-81.6829220
1111,Lakeside Avenue East,44114,41.5068655,-81.6899696
1919,East 55th Street,44103,41.5065634,-81.6513968
5109,Memphis Avenue,44144,41.4396181,-81.7215686
5501,Memphis Avenue,44144-2211,41.4396289,-81.7239814
4555,State Road,44109,41.4302505,-81.7074640
4103,Memphis Avenue,44109,41.4394638,-81.7136565
6330,Brookpark Road,44136,41.4189581,-81.7307498
4140,Fulton Road,44109,41.4439268,-81.7236421
1213,Fairfield Avenue,44113,41.4820946,-81.6906472
2180,West 11th Street,44113,41.4823900,-81.6896254
18240,Harvard Avenue,44128-1743,41.4490836,-81.5509888
7415,Broadway Avenue,44105,41.4565713,-81.6349794
7345,Broadway Avenue,44105,41.4568267,-81.6360823
2704,Clark Avenue,44109,41.4702176,-81.7006211
7500,Euclid Avenue,44103,41.5036292,-81.6365631
11311,Shaker Boulevard,44104,41.4851045,-81.6058159
2730,East 116th Street,44104,41.4852216,-81.6039897
11535,Shaker Boulevard,44104,41.4848090,-81.6032962
11301-11501,Buckeye Road,44101,41.4821425,-81.6052215
11201,Shaker Boulevard,44104,41.4845293,-81.6081273
2816,East 116th Street,44120,41.4826449,-81.6033009
11420,Buckeye Road,44104,41.4809128,-81.6047384
11216,Stokes Boulevard,44104,41.4938897,-81.6074761
15700,Lotus Drive,44128,41.4455085,-81.5705207
14311,Woodworth Road,44112,41.5456516,-81.5823812
17900,Harvard Avenue East,44128,41.4486081,-81.5531680
8912,Morris Court,44106,41.5170330,-81.6251327
9803,Quebec Avenue,44106,41.4950202,-81.6190007
5500,Clark Avenue,44102,41.4704201,-81.7239557
2121,West 67th Street,44102,41.4732173,-81.7312808
5004,Glazier Avenue,44127,41.4751431,-81.6560856
2075,Stokes Blvd,44106,41.5019972,-81.6116057
11815,Moulton Avenue,44106,41.5204279,-81.6028754
1000,East 92nd Street,44108,41.5294427,-81.6243923
11901,Durant Avenue,44108,41.5342584,-81.6019250
3500,East 147th Street,44120,41.4633360,-81.5794047
1401,Larchmont Road,44104,41.5696330,-81.5524236
410,East 152nd Street,44110,41.5710063,-81.5763013
18400,Schenely Avenue,44119,41.5871837,-81.5519062
4315,West 140th Street,44135,41.4365313,-81.7900292
3800,West 140th Street,44111,41.4500187,-81.7923400
1281,West 9th Street,44113,41.4995742,-81.7005716
1007,Superior Avenue East,44114,41.5030098,-81.6879579
1291,West 9th Street,44113,41.4994641,-81.7004743
1273,West 9th Street,44113,41.4996293,-81.7006649
1266,West 6th Street,44113,41.5002401,-81.6995557
1267,West 9th Street,44113,41.4997381,-81.7007155
1802,East 13th Street,44114,41.5025268,-81.6837732
1331,Euclid Avenue,44115,41.5012228,-81.6822226
802,West Saint Clair Avenue,44113,41.4993494,-81.6998919
2501,East 59th Street,44104,41.4904194,-81.6485757
2551,Park Midway Street,44104,41.4894378,-81.6470489
2581,Park Midway Street,44104,41.4883818,-81.6470334
2551,East 59th Street,44104,41.4894135,-81.6479762
6151,Haltnorth Walk,44104,41.4891261,-81.6475412
2548,Park Midway Street,44104,41.4896887,-81.6475882
2580,Park Midway Street,44104,41.4883761,-81.6474063
2550,Park Midway Street,44104,41.4894431,-81.6474221
6201,Haltnorth Walk,44104,41.4891286,-81.6469871
4693,State Road,44109,41.4267640,-81.7088076
4682,State Road,44109,41.4269776,-81.7093495
3159,West 11th Street,44109,41.4687293,-81.6874124
1103,Rowley Avenue,44109,41.4687260,-81.6878985
91,Public Square,44113,41.5004133,-81.6947522
525,Superior Avenue East,44114,41.5015712,-81.6910111
1460,East Ninth Street,44114,41.5024486,-81.6890478
775,Erieside Avenue,44114,41.5033592,-81.7039065
13051,Shaker Boulevard,44120,41.4838578,-81.5915614
13710,Shaker Boulevard,44120,41.4830369,-81.5863609
13600,Shaker Boulevard,44120,41.4831515,-81.5871899
13302,Cormere Avenue,44120,41.4849130,-81.5897995
2680,North Moreland Boulevard,44120,41.4850045,-81.5909340
2672,North Moreland Boulevard,44120,41.4852412,-81.5908620
2666,North Moreland Boulevard,44120,41.4854252,-81.5908788
2661,North Moreland Boulevard,44120,41.4853578,-81.5897493
2641,North Moreland Boulevard,44120,41.4858181,-81.5896089
2635,North Moreland Boulevard,44120,41.4860501,-81.5895238
2621,North Moreland Boulevard,44120,41.4864171,-81.5893593
2646,North Moreland Boulevard,44120,41.4859053,-81.5906978
2642,North Moreland Boulevard,44120,41.4860839,-81.5906328
2630-2636,North Moreland Boulevard,44120,41.4863474,-81.5906725
2622,North Moreland Boulevard,44120,41.4866664,-81.5904822
13000,Shaker Boulevard,44120,41.4835186,-81.5920846
5000,Euclid Avenue,44115,41.5035799,-81.6538336
2830,Van Aken Boulevard,44120,41.4812371,-81.5880720
2860,Van Aken Boulevard,44120,41.4806597,-81.5873974
2890,Van Aken Boulevard,44120,41.4800800,-81.5867353
2920,Van Aken Boulevard,44120,41.4795713,-81.5860618
12925,Shaker Boulevard,44120,41.4844609,-81.5921493
12805,Shaker Boulevard,44120,41.4844681,-81.5929043
12701,Shaker Boulevard,44120,41.4844448,-81.5937220
12800,Shaker Boulevard,44120,41.4835244,-81.5928387
12730,Shaker Boulevard,44120,41.4835908,-81.5936364
3213,Montclair Avenue,44109,41.4351983,-81.7051979
4162,Pearl Road,44109,41.4420892,-81.7049396
2021,Cornell Road,44106,41.5079767,-81.6052946
1717,Euclid Avenue,44114,41.5016134,-81.6797239
1860,East 18th Street,44115,41.5022271,-81.6795227
1899,East 22nd Street,44115-2214,41.5028886,-81.6744453
2121,Euclid Avenue,44115-2214,41.5032052,-81.6755211
1983,East 24th Street,44115,41.5023839,-81.6721131
4930,State Road,44134,41.4197449,-81.7116477
820,West Superior Avenue,44113,41.4974302,-81.6988123
1400,West 6th Street,44113,41.4988314,-81.6982103
408,West Saint Clair Avenue,44113,41.5001486,-81.6981306
500,West Saint Clair Avenue,44113,41.4999607,-81.6984042
1315,West 6th Street,44113,41.5000716,-81.6985026
1303,West 6th Street,44113,41.5001719,-81.6985748
1265,West 6th Street,44113,41.5005455,-81.6989779
1278,West 4th Street,44113,41.5006987,-81.6986763
1264,West 3rd Street,44113,41.5012054,-81.6980089
1280,West 3rd Street,44113,41.5009251,-81.6978720
1280,West 6th Street,44113,41.5001008,-81.6994350
1285,West 9th Street,44113,41.4995230,-81.7005283
1299,West 9th Street,44113,41.4993951,-81.7004127
800,West Saint Clair Avenue,44113,41.4995375,-81.6993881
3727,Ridge Road,44144,41.4562536,-81.7335822
1050,West 10th Street,44113,41.5008395,-81.7046969
1360,West 9th Street,44113,41.4983791,-81.7004445
1382,West 9th Street,44113,41.4982006,-81.7003006
1468,West 9th Street,44113,41.4972455,-81.6993787
955,West Saint Clair Avenue,44113,41.4980174,-81.7010301
1401,West 10th Street,44113,41.4978275,-81.7009595
1403,West 10th Street,44113,41.4977976,-81.7008944
1405,West 10th Street,44113,41.4977690,-81.7008264
1407,West 10th Street,44113,41.4977394,-81.7007595
1409,West 10th Street,44113,41.4977090,-81.7006932
1411,West 10th Street,44113,41.4976648,-81.7006620
959,West Saint Clair Avenue,44113,41.4980182,-81.7014328
2056,East 4th Street,44114,41.4987994,-81.6902999
2025,Ontario Street,44114,41.4987396,-81.6923435
2043,East 4th Street,44115,41.4991682,-81.6899872
1010,Euclid Avenue,44115,41.5000923,-81.6857572
1020,Euclid Avenue,44114,41.5000684,-81.6853617
1110,Euclid Avenue,44114,41.5001446,-81.6851101
1228,Euclid Avenue,44115,41.5001414,-81.6840837
1025,Huron Road East,44115,41.4998513,-81.6845871
1001,Huron Road East,44115,41.4997481,-81.6848068
921,Huron Road East,44115,41.4996763,-81.6850781
1375,Euclid Avenue,44115,41.5016571,-81.6819062
1501,Euclid Avenue,44115,41.5017036,-81.6813924
1631,Euclid Avenue,44115,41.5016213,-81.6804346
1350,Euclid Avenue,44115,41.5004153,-81.6818614
1240,Huron Road East,44115,41.5003142,-81.6822374
1226,Huron Road East,44115,41.5001820,-81.6825248
1224,Huron Road East,44115,41.5001031,-81.6826785
1122,Prospect Avenue East,44115,41.4990772,-81.6829896
1148,Prospect Avenue East,44115,41.4991907,-81.6826181
1213,Prospect Avenue East,44115,41.4997717,-81.6824257
1303,Prospect Avenue East,44115,41.4998643,-81.6818052
11901,Berea Road,44111,41.4720832,-81.7711115
1150,Front Avenue,44113,41.5006195,-81.7064150
222,Prospect Avenue East,44115,41.4979855,-81.6905326
300,Prospect Avenue East,44115,41.4980018,-81.6903855
700,Huron Road East,44115,41.4978083,-81.6867669
1301,East 9th Street,44114,41.5053197,-81.6886455
1601,North Marginal Road,44114,41.5132647,-81.6859020
3471,Steelyard Drive,44109,41.4600863,-81.6903430
1531,West 117th Street,44107,41.4799734,-81.7683801
4159,Lee Road,44128-2462,41.4465239,-81.5642967
1151,North Marginal Road,44114,41.5106174,-81.6917166
3036,Clark Avenue,44109,41.4701022,-81.7031422
2903,Clark Avenue,44109,41.4696743,-81.7016519
5401,Saint Clair Avenue,44103,41.5222205,-81.6526286
16511,Harvard Road,44128-2201,41.4501169,-81.5645429
5400,Prospect Avenue,44103,41.5025136,-81.6521586
2580,East 66th Street,44104,41.4883946,-81.6446278
4415,Euclid Avenue,44103,41.5042139,-81.6559410
1893,East 55th Street,44103,41.5072172,-81.6509560
7015,Detroit Avenue,44102-3025,41.4828013,-81.7337209
325,Superior Avenue East,44114,41.5011745,-81.6918045
9500,Euclid Avenue,44195,41.5024111,-81.6197250
3495,East 98th Street,44104,41.4640641,-81.6163898
2351,East 22nd Street,44115,41.4962137,-81.6743078
2900,Community College Avenue,44115,41.4933420,-81.6683001
5618,Woodland Avenue,44104,41.4876900,-81.6503592
1331,West 117th Street,44107,41.4855870,-81.7684255
3922,Saint Clair Avenue,44114,41.5164852,-81.6649151
7412,Detroit Avenue,44102,41.4827984,-81.7362409
700,Erieside Avenue,44114,41.5049090,-81.7053573
1930,East 79th Street,44103,41.5056713,-81.6339172
6025,Saint Clair Avenue,44103,41.5236271,-81.6498466
1860,West 22nd Street,44113,41.4865941,-81.7021986
2516,Market Avenue,44113,41.4843939,-81.7044872
1730,West 25th Street,44113,41.4871277,-81.7069005
8484,Madison Avenue,44102,41.4775973,-81.7428444
3305,Clark Avenue,44109,41.4695714,-81.7058163
3211,Clark Avenue,44109-1147,41.4695201,-81.7048460
6105,Detroit Avenue,44102,41.4842877,-81.7281385
2159,West 29th Street,44113,41.4810110,-81.7040325
10001,Chester Avenue,44106,41.5060575,-81.6186352
11100,Euclid Avenue,44106,41.5059308,-81.6060490
11021,East Boulevard,44106,41.5124616,-81.6087603
11205,Euclid Avenue,44106,41.5082890,-81.6073121
6710,Denison Avenue,44102,41.4610585,-81.7340249
1800,Euclid Avenue,44115,41.5009131,-81.6783648
6311,Woodland Avenue,44104,41.4883093,-81.6460421
1421,West 117 Street,44107,41.4828361,-81.7683362
1925,Saint Clair Ave NE Ste,44114,41.5087268,-81.6811795
1470,Lakeside Avenue East,44114,41.5078045,-81.6863953
1440,Lakeside Avenue,44114,41.5073051,-81.6865143
4501,Memphis Avenue,44144,41.4396238,-81.7167034
100,Lakeside Avenue East,44114,41.5027381,-81.6956676
1427,Aspinwall Avenue,44110,41.5582050,-81.5796638
3095,Scranton Road,44113,41.4701769,-81.6964085
3409,Woodland Avenue,44115,41.4916305,-81.6671311
4460,East 158th Street,44128,41.4384633,-81.5709830
3155,Martin Luther King Jr Drive,44104,41.4722625,-81.6089410
3096,Scranton Road,44113,41.4702116,-81.6972280
8613,Nevada Avenue,44104,41.4893956,-81.6267114
4576,West 130th Street,44135,41.4296961,-81.7803259
11602,Lorain Avenue,44111,41.4624369,-81.7679763
11601,Shaker Boulevard,44120,41.4844717,-81.6024972
12901,Shaw Ave,44108,41.5412187,-81.5932647
9300,Quincy Avenue,44106,41.4923537,-81.6200623
3552,East 131st Street,44120,41.4622746,-81.5916469
564,East 185th Street,44119,41.5919276,-81.5505945
4433,W 130th st,44135,41.4352512,-81.7721494
15325,Edgecliff Avenue,44111,41.4635121,-81.8037887
13501,Lorain Avenue,44111,41.4564649,-81.7849335
4380,East 71st Street,44105,41.4395423,-81.6402354
3625,West 138th Street,44111,41.4549788,-81.7874384
13422,Kinsman Road,44120,41.4647940,-81.5890964
13407,Kinsman Road,44120,41.4655075,-81.5893488
15105,Saint Clair Avenue,44110,41.5533433,-81.5762618
15322,Saint Clair Avenue,44110,41.5547639,-81.5731361
4851,North Marginal Road,44114,41.5248081,-81.6637028
14601,Saint Clair Avenue,44110,41.5523772,-81.5801140
3250,Superior Avenue East,44114,41.5113422,-81.6678068
4342,West 130th Street,44135,41.4362856,-81.7803633
3545,Ridge Road,44102,41.4608379,-81.7368638
7510,Superior Avenue,44103,41.5191461,-81.6360397
4215,Robert Avenue,44109,41.4649203,-81.7143189
10701,East Boulevard,44106,41.5137121,-81.6144861
1575,East Boulevard,44106,41.5138977,-81.6165180
10825,East Boulevard,44106,41.5135175,-81.6105060
3240,Superior Avenue,44114,41.5112989,-81.6679359
2999,Payne Avenue,44114,41.5086330,-81.6698799
3507,Payne Avenue,44114,41.5095457,-81.6637154
101,West Superior Avenue,44113,41.4991296,-81.6936714
310,Carnegie Avenue,44115,41.4931962,-81.6870565
12921,Lorain Avenue,44111,41.4584896,-81.7787338
11611,Euclid Avenue,44106,41.5110385,-81.6031772
1901,Train Avenue,44113,41.4803616,-81.6975075
11002,Lorain Avenue,44111,41.4641611,-81.7631252
11702,Lorain Avenue,44111,41.4624477,-81.7695562
8210,Euclid Avenue,44103,41.5031098,-81.6300490
8515,Euclid Avenue,44106,41.5039173,-81.6274623
11517,Clifton Boulevard,44102,41.4868043,-81.7667607
1100,Carnegie Avenue,44115,41.4960961,-81.6813034
12201,Euclid Avenue,44106,41.5142280,-81.5992043
3356,Steelyard Drive,44109,41.4627554,-81.6906582
3340,Steelyard Drive,44109,41.4635081,-81.6902800
1621,East 118th Street,44106,41.5140083,-81.6020121
11125,Magnolia Drive,44106,41.5151063,-81.6075142
12310,Arlington Avenue,44108,41.5320365,-81.5989113
2306,East 100th Street,44106,41.4952527,-81.6186975
1962,Stokes Boulevard,44106,41.5045516,-81.6134474
7710,Superior Avenue,44103,41.5194514,-81.6347645
11900,Saint Clair Avenue,44108,41.5410428,-81.6024913
1566,Crawford Road,44106,41.5141707,-81.6231969
2306,West 17th Street,44113,41.4803042,-81.6960407
10800,Lorain Avenue,44111,41.4646044,-81.7617443
11005,Parkhurst Drive,44111,41.4602177,-81.7639238
17109,Lake Shore Boulevard,44110,41.5829387,-81.5618536
18901,Lakeshore Boulevard,44119,41.5980605,-81.5483746
11900,Fairhill Road,44120,41.4906406,-81.5992677
12000,Fairhill Road,44120,41.4925073,-81.5992303
12200,Fairhill Road,44120,41.4920635,-81.5975117
2500,MetroHealth Drive,44109,41.4604078,-81.6978933
1991,Barber Ave.,44109,41.4749917,-81.6966355
3904,Chester Avenue,44114,41.5048601,-81.6593798
16151,Lake Shore Boulevard,44110,41.5805475,-81.5671585
3202,West 30th Street.,44109,41.4667540,-81.7023983
2211,West 65th Street,44102,41.4711669,-81.7281001
4909,Lorain Avenue,44102,41.4770286,-81.7201305
1525,Rockwell Avenue,44114,41.5063555,-81.6835890
1299,Superior Avenue East,44114,41.5044209,-81.6853860
2160,West 32nd Street,44113,41.4799206,-81.7075297
2162,West 32nd Street,44113,41.4798307,-81.7077391
5401,North Marginal Road,44114,41.5280552,-81.6572075
19820,South Waterloo Road,44119,41.5799278,-81.5411378
2013,Columbus Road,44113,41.4850972,-81.6999521
1114,Center Street,44113,41.4943295,-81.7018374
1785,Merwin Avenue,44113,41.4893829,-81.7024956
6815,Euclid Avenue,44103,41.5047675,-81.6423250
6850,Brookpark Road,44136,41.4190794,-81.7322927
7100,Brookpark Road,44136,41.4205106,-81.7330340
6770,Brookpark Road,44136,41.4202699,-81.7318806
7250,Brookpark Road,44136,41.4192297,-81.7337742
4951,Ridge Road,44136,41.4194984,-81.7335250
9333,Kinsman Road,44104,41.4721081,-81.6200414
12202,Mayfield Road,44106,41.5084926,-81.5977197
2023,Murray Hill Road,44106,41.5079577,-81.5976174
2029,Murray Hill Road,44106,41.5077986,-81.5976218
12020,Mayfield Road,44106,41.5083528,-81.5985035
12024,Mayfield Road,44106,41.5084798,-81.5983818
12110,Mayfield Road,44106,41.5084841,-81.5981440
12207,Mayfield Road,44106,41.5088821,-81.5976603
12113,Mayfield Road,44106,41.5088475,-81.5980732
12009,Mayfield Road,44106,41.5089048,-81.5991168
3463,East 93rd Street,44104,41.4644446,-81.6209104
3701,Lorain Avenue,44113,41.4807677,-81.7115271
20920,Brookpark Road,44135,41.4196354,-81.8476036
4364,West 130th Street,44135,41.4356111,-81.7801873
3900,Euclid Avenue,44115,41.5032235,-81.6585919
18101,Lorain Avenue,44111,41.4502879,-81.8238625
8000,Carnegie Avenue,44103,41.5011619,-81.6326830
1800,Brookpark Road,44109,41.4197409,-81.6921211
6300,Brookpark Road,44136,41.4190356,-81.7301509
6210,Brookpark Road,44136,41.4189269,-81.7295775
5105,Pearl Road,44129,41.4200895,-81.7258831
6000,Brookpark Road,44136,41.4190014,-81.7260461
6407,Parkland Avenue,44142,41.3934985,-81.8630170
6415,Parkland Avenue,44142,41.3933044,-81.8629998
6415,Parkland Avenue,44142,41.3932351,-81.8628529
6433,Parkland Avenue,44142,41.3929590,-81.8629772
6441,Parkland Avenue,44142,41.3927989,-81.8629856
6449,Parkland Avenue,44142,41.3926303,-81.8630233
65457,Parkland Avenue,44142,41.3924623,-81.8630007
6467,Parkland Avenue,44142,41.3923119,-81.8630362
6467,Parkland Avenue,44142,41.3922642,-81.8628119
21810,Forestview Circle,44142,41.3918180,-81.8626677
21782,Forestview Circle,44142,41.3918010,-81.8624727
21766,Forestview Circle,44142,41.3917816,-81.8622491
21738,Forestview Circle,44142,41.3917992,-81.8620233
21718,Forestview Circle,44142,41.3918803,-81.8617612
21966,Forestview Circle,44142,41.3918827,-81.8615531
21684,Forestview Circle,44142,41.3918283,-81.8613368
6520,Christene Boulevard,44142,41.3918906,-81.8588454
6514,Christene Boulevard,44142,41.3920221,-81.8586350
6508,Christene Boulevard,44142,41.3920978,-81.8584855
6494,Christene Boulevard,44142,41.3922053,-81.8583048
6494,Christene Boulevard,44142,41.3922841,-81.8582015
6488,Christene Boulevard,44142,41.3923567,-81.8579326
6488,Christene Boulevard,44142,41.3925720,-81.8580592
6482,Christene Boulevard,44142,41.3924848,-81.8577621
6476,Christene Boulevard,44142,41.3926930,-81.8576336
6470,Christene Boulevard,44142,41.3926434,-81.8573964
6464,Christene Boulevard,44142,41.3928655,-81.8572473
6458,Christene Boulevard,44142,41.3928604,-81.8570155
21132,North Vancey Drive,44142,41.3926453,-81.8561443
21110,North Vancey Drive,44142,41.3926857,-81.8559025
21090,North Vancey Drive,44142,41.3926548,-81.8556818
21060,North Vancey Drive,44142,41.3926474,-81.8554554
21030,North Vancey Drive,44142,41.3926359,-81.8552414
21020,North Vancey Drive,44142,41.3926455,-81.8550067
6459,East Vancey Drive,44142,41.3923846,-81.8546748
6489,Grayfriar Drive,44142,41.3915654,-81.8534143
2271,Professor Avenue,44113,41.4813116,-81.6860659
2393,Professor Avenue,44113,41.4799962,-81.6846890
3637,West 130th Street,44111,41.4549129,-81.7792552
3633,West 130th Street,44111,41.4550258,-81.7792527
2592,West 14th Street,44113,41.4769423,-81.6919126
3606,Steelyard Drive,44109,41.4554114,-81.6894343
4330,Jennings Road,44109,41.4361342,-81.6852003
12910,Buckeye Road,44120,41.4795915,-81.5922955
6955,Euclid Avenue,44103,41.5044748,-81.6416454
4515,Superior Avenue,44103,41.5157897,-81.6587014
1303,West 65th Street,44102,41.4867021,-81.7300293
6513,Guthrie Avenue,44102,41.4764397,-81.7310714
2222,West 40th Street,44113,41.4771781,-81.7126037
2216,West 40th Street,44113-3840,41.4772833,-81.7126331
3314,Steelyard Drive,44109,41.4638676,-81.6889024
11213,Detroit Avenue,44102,41.4826109,-81.7655720
3244,Steelyard Drive,44109,41.4655279,-81.6874917
8216,Lorain Avenue,44102,41.4711482,-81.7415551
11620,Clifton Boulevard,44102,41.4877072,-81.7678542
2801,Martin Luther King Junior Drive,44104,41.4826793,-81.6081193
1785,Merwin Avenue,44113,41.4905412,-81.7019433
2100,Lakeside Avenue East,44114,41.5109740,-81.6795834
6019,Memphis Avenue,44144,41.4396708,-81.7288890
6212,Memphis Avenue,44144,41.4402074,-81.7302057
10510,Park Lane,44106,41.5065115,-81.6148674
1890,East 107th Street,44106,41.5064452,-81.6135413
6332,Broadway Avenue,44105,41.4626049,-81.6465612
6542,Broadway Avenue,44105,41.4616824,-81.6441864
16918,Harvard Avenue,44128,41.4495737,-81.5616404
5920,Fullerton Avenue,44105,41.4546523,-81.6484511
10660,Carnegie Avenue,44106,41.5006751,-81.6129664
17914,Euclid Avenue,44112,41.5538827,-81.5526641
15210,Saint Clair Avenue,44110,41.5532900,-81.5740991
10200,Superior Avenue,44106,41.5212659,-81.6172145
3545,Fulton Road,44109,41.4579388,-81.7127469
6901,Superior Avenue,44103,41.5191778,-81.6426158
856,East 152nd Street,44110,41.5559808,-81.5758441
5085,Pearl Road,44129,41.4205863,-81.7251890
4660,Hinckley Industrial Parkway,44109,41.4262053,-81.6815083
4640,Hinckley Industrial Parkway,44109,41.4268148,-81.6812814
4620,Hinckley Industrial Parkway,44109,41.4275043,-81.6809634
4600,Hinckley Industrial Parkway,44109,41.4281519,-81.6808591
10500,Cedar Avenue,44104,41.4988752,-81.6147721
651,Erieside Avenue,44114,41.5044737,-81.7035690
625,Erieside Avenue,44114,41.5047369,-81.7032147
6029,Superior Avenue,44103,41.5186376,-81.6477379
5151,Pearl Road,44136,41.4189703,-81.7271478
4925,State Road,44134,41.4203570,-81.7090193
5805,Euclid Avenue,44103,41.5047762,-81.6498352
3538,West 105th,44111-3838,41.4561052,-81.7592717
300,Lakeside Avenue East,44113,41.5030338,-81.6941217
3845,East 131st Street,44120,41.4539501,-81.5906737
6500,Cleveland Memorial Shoreway,44102,41.4887834,-81.7381787
3747,Euclid Avenue,44115,41.5039541,-81.6610023
5100,Biddulph Ave.,44144,41.4305067,-81.7214778
7007,Broadway Avenue,44105,41.4596330,-81.6396805
5316,Fleet,44105,41.4556332,-81.6524949
392,East 147th Street,44110,41.5717606,-81.5798952
4300,Brookpark Road,44134,41.4195662,-81.7149369
4200,Brookpark Road,44134,41.4191945,-81.7142370
5840,Memphis Avenue,44144,41.4402845,-81.7272639
6000,Memphis Avenue,44144,41.4402650,-81.7284742
701,East 185th Street,44119,41.5882570,-81.5495170
5415,Broadway Avenue,44127,41.4680470,-81.6519740
3470,Rocky River Drive,44111,41.4593544,-81.8171838
11905,Mayfield Road,44106,41.5088774,-81.5999279
14235,Puritas Road,44135-2825,41.4332310,-81.7934525
13920,West Parkway Road,44199,41.4310525,-81.7903965
14129,Puritas Avenue,44135,41.4332335,-81.7926190
3050,Carnegie Avenue,44115,41.4996335,-81.6654105
2200,East 30th Street,44115,41.4975453,-81.6667276
5616,Memphis Avenue,44144-2240,41.4402193,-81.7250254
3746,Prospect Avenue East,44115,41.5017619,-81.6602966
4110,Lee Road,44128,41.4476075,-81.5651515
6401,Woodland Avenue,44104,41.4883091,-81.6454242
6501,Woodland Avenue,44104,41.4884991,-81.6450453
6402,Haltnorth Walk,44104,41.4886607,-81.6455603
2573,Bundy Drive,44104,41.4888408,-81.6461835
6502,Haltnorth Walk,44104,41.4888505,-81.6451360
6401,Haltnorth Walk,44104,41.4894839,-81.6457243
2530,Bundy Drive,44104,41.4897309,-81.6464417
2541,Park Midway Street,44104,41.4896908,-81.6469007
650,East 113th Street,44108,41.5390406,-81.6066087
10803,Lorain Avenue,44111,41.4641648,-81.7612319
10710,Lorain Avenue,44111,41.4649013,-81.7609382
1338,East 125th Street,44108,41.5219170,-81.5982940
18120,Puritas Avenue,44135,41.4347258,-81.8243942
797,East 185th Street,44119,41.5857130,-81.5495580
727,East 185th Street,44119,41.5877695,-81.5495630
12314,Mayfield Road,44106,41.5084626,-81.5969894
1055,East 9th Street,44114,41.5093134,-81.6935031
1020,East 9th Street,44114,41.5104794,-81.6943031
1055,East 9th Street,44114,41.5092459,-81.6937567
1055,East 9th Street,44052,41.5093206,-81.6927012
1020,East 9th Street,44114,41.5098340,-81.6947323
2580,East 93rd Street,44104,41.4884574,-81.6218932
10810,Madison Avenue,44102,41.4761226,-81.7613440
2905,Lorain Avenue,44113,41.4827057,-81.7062537
2817,Murray Hill Road,44106,41.5038815,-81.6005129
3420,Steelyard Drive,44109,41.4599304,-81.6915628
3805,Franklin Boulevard,44113,41.4858323,-81.7140141
7225,Broadway Avenue,44105,41.4575330,-81.6371849
3595,Bosworth Road,44111,41.4542550,-81.7638155
8819,Quincy Avenue,44106,41.4936211,-81.6249482
2228,West 40th Street,44113,41.4770786,-81.7125786
2258,East 80th Street,44103,41.4973391,-81.6327880
6530,Lexington Avenue,44103,41.5107394,-81.6447787
13049,Triskett Road,44111,41.4650799,-81.7826028
11901,Durant Avenue,44108,41.5343080,-81.6014130
7200,Brookpark Road,44136,41.4205187,-81.7336285
6770,Brookpark Road,44136,41.4196122,-81.7322252
6770,Brookpark Road,44136,41.4200893,-81.7323583
6400,Brookpark Road,44136,41.4190088,-81.7313933
6208,Brookpark Road,44136,41.4191933,-81.7294926
6204,Brookpark Road,44136,41.4189293,-81.7293633
12223,Saint Clair Avenue,44108,41.5416520,-81.6002741
1990,Fulton Road,44113,41.4813446,-81.7114870
4321,Bridge Avenue,44113,41.4804416,-81.7161762
1765,Crawford Road,44106,41.5087475,-81.6272786
3735,Pearl Road,44109,41.4532940,-81.7010790
308,Euclid Avenue,44114,41.4993225,-81.6905292
2014,Sycamore Street,44113,41.4963061,-81.7030861
3465,Steelyard Drive,44109,41.4600981,-81.6904408
3535,Steelyard Drive,44109,41.4582223,-81.6888635
3553,Steelyard Drive,44109,41.4576100,-81.6893405
3495,Steelyard Drive,44109,41.4595245,-81.6887305
3485,Steelyard Drive,44109,41.4597724,-81.6884723
3379,Steelyard Drive,44109,41.4612001,-81.6883162
3373,Steelyard Drive,44109,41.4614804,-81.6881844
1588,Hazel Drive,44106,41.5142251,-81.6086947
11310,Juniper Road,44106,41.5114647,-81.6067170
10940,Euclid Avenue,44106,41.5050356,-81.6095456
3737,Burten Court,44115,41.4943555,-81.6604250
10501,Euclid Avenue,44106,41.5040564,-81.6147934
2194,East 82nd Street,44103,41.4990956,-81.6310134
2165,E 89th Street,44106,41.4991252,-81.6242491
2315,Murray Hill Road,44106,41.5010793,-81.6027502
2572,Martin Luther King Jr Drive,44104,41.4890822,-81.6025745
2429,Martin Luther King Junior Drive,44120,41.4926409,-81.6005250
1716,East 115th Street,44106,41.5110474,-81.6046487
11920,Carlton Road,44106,41.5011951,-81.5997764
1750,Ansel Road,44106,41.5102193,-81.6195008
2130,East 107th Street,44106,41.5001719,-81.6128875
11101,Magnolia Drive,44106,41.5149496,-81.6083567
2529,Bundy Drive,44104,41.4897403,-81.6453592
2530,East 66th Street,44104,41.4897453,-81.6447852
4716,State Road,44109,41.4260835,-81.7097680
1520,East 82nd Street,44103,41.5152073,-81.6308275
1524,East 82nd Street,44103,41.5150705,-81.6308312
3350,Steelyard Drive,44109,41.4634504,-81.6915993
991,East 185th Street,44119,41.5804224,-81.5495140
15110,Saint Clair,44110,41.5527146,-81.5758616
2615,Detroit Avenue,44113,41.4905379,-81.7088088
3160,W. 33 Street,44109,41.4679416,-81.7060826
5004,Glazier Avenue,44127,41.4753223,-81.6561969
8701,Detroit Avenue,44102,41.4800326,-81.7443738
19101,Puritas Avenue,44135,41.4329660,-81.8313232
7202,Flowerdale Avenue,44144,41.4236942,-81.7338659
7112,Flowerdale Avenue,44144,41.4237053,-81.7337395
7108,Flowerdale Avenue,44144,41.4237345,-81.7336320
7104,Flowerdale Avenue,44144,41.4237788,-81.7335037
7010,Flowerdale Avenue,44144,41.4237646,-81.7332368
7200,Flowerdale Avenue,44144,41.4237139,-81.7340134
2190,E. 105th Street,44106,41.4988066,-81.6157807
3078,Nursery Avenue,44127,41.4746923,-81.6570071
3064,Nursery Avenue,44127,41.4750621,-81.6569875
3058,Nursery Avenue,44127,41.4752447,-81.6570335
5115,Broadway Avenue,44127,41.4708432,-81.6539206
18101,Lorain Avenue,44111,41.4502174,-81.8226885
14911,Lorain Avenue,44111,41.4528380,-81.8007081
11890,Fairhill Road,44120,41.4912279,-81.5997603
4800,Broadway Avenue,44127,41.4729493,-81.6581580
4935,State Road,44134,41.4199900,-81.7096645
14000,Puritas Avenue,44135,41.4338202,-81.7901894
1571,N Marginal Rd,44114,41.5121222,-81.6873472
3387,Steelyard Drive,44109,41.4609589,-81.6883314
3393,Steelyard Drive,44109,41.4606819,-81.6883744
3399,Steelyard Drive,44109,41.4603846,-81.6884170
3415,Steelyard Drive,44109,41.4602360,-81.6886159
3443,Steelyard Drive,44109,41.4600029,-81.6886696
3441,Steelyard Drive,44109,41.4600446,-81.6886569
3425,Steelyard Drive,44109,41.4601675,-81.6886300
3435,Steelyard Drive,44109,41.4601036,-81.6886432
6709,Euclid Avenue,44103,41.5052374,-81.6428201
250,Erieside Avenue,44114,41.5061244,-81.7017992
601,West Erieside Avenue,44114,41.5037976,-81.7004503
15724,Montrose Avenue,44111,41.4676756,-81.8073066
15800,Montrose Avenue,44111,41.4677206,-81.8080969
4050,Superior Avenue,44103,41.5136295,-81.6611635
11731,Mount Overlook Avenue,44112,41.4894677,-81.6008025
3531,East 78th Street,44105,41.4624516,-81.6330374
3563,East 80th Street,44105,41.4614532,-81.6317839
9511,Buckeye Road,44104,41.4840739,-81.6193712
4900,Emerald Court Southwest,44135,41.4248589,-81.8466954
2929,Rockefeller Avenue,44115,41.4827425,-81.6704182
2929,Rockefeller Avenue,44115,41.4819988,-81.6705935
2275,Murray Hill Road,44106,41.5018822,-81.6023456
2275,Murray Hill Road,44106,41.5015691,-81.6018145
6315,Haltnorth Walk,44104,41.4892274,-81.6460424
6411,Haltnorth Walk,44104,41.4892332,-81.6454416
3249,East 80th Street,44104,41.4706317,-81.6307268
1533,East 80th Place,44103,41.5147920,-81.6329375
1512,East 81st Street,44103,41.5154151,-81.6322426
1514,East 81st Street,44103,41.5153138,-81.6322289
1518,East 81st Street,44103,41.5152359,-81.6322665
1522,East 81st Street,44103,41.5151288,-81.6322608
1526,East 81st Street,44103,41.5150422,-81.6322737
1511,East 81st Street,44103,41.5153959,-81.6317490
1515,East 81st Street,44103,41.5153274,-81.6317507
1925,Saint Clair Avenue Northeast,44114,41.5088339,-81.6812990
1937,Westburn Avenue,44112,41.5459625,-81.5586948
16906,Hillsboro Road,44112,41.5460197,-81.5586363
1938,Westburn Avenue,44112,41.5456420,-81.5590878
1942,Westburn Avenue,44112,41.5455882,-81.5589631
1946,Westburn Avenue,44112,41.5455268,-81.5588547
1950,Westburn Avenue,44112,41.5454321,-81.5587643
1954,Westburn Avenue,44112,41.5453619,-81.5586570
1958,Westburn Avenue,44112,41.5452729,-81.5585694
2429,Martin Luther King Junior Drive,44120,41.4926773,-81.6007670
3497,Steelyard Drive,44109,41.4594042,-81.6887556
3501,Steelyard Drive,44109,41.4593066,-81.6887765
3505,Steelyard Drive,44109,41.4591505,-81.6888117
3521,Steelyard Drive,44109,41.4589735,-81.6888708
3555,Steelyard Drive,44109,41.4575569,-81.6893519
3573,Steelyard Drive,44109,41.4574745,-81.6893427
3561,Steelyard Drive,44109,41.4575055,-81.6891366
3563,Steelyard Drive,44109,41.4574918,-81.6890422
3565,Steelyard Drive,44109,41.4574848,-81.6889867
3569,Steelyard Drive,44109,41.4574789,-81.6889369
2311,Seymour Avenue,44113,41.4725185,-81.6985280
1,Wade Oval Drive,44106,41.5116816,-81.6131027
4524,East 49th Street,44125,41.4432544,-81.6749423
3900,Wildlife Way,44109,41.4473571,-81.7122797
900,Euclid Avenue,44115,41.5009807,-81.6864827
10900,Euclid Avenue,44106,41.5077251,-81.6043342
9803,Quebec Avenue,44106,41.4947441,-81.6191100
10820,East Boulevard,44106,41.5108275,-81.6115412
10201,Carnegie Avenue,44195,41.5017054,-81.6163165
5115,Broadway Avenue,44127,41.4705145,-81.6544641
1701,Castle Avenue,44113,41.4709692,-81.6946172
4308,Franklin Boulevard,44113,41.4858452,-81.7166004
