House number,Street name,Postal code,Latitude,Longitude
211,Buffalo Street,44030,41.9427292,-80.5575973
272,East Main Road,44030,41.9398417,-80.5432677
641,Mill Street,44030,41.9532368,-80.5588010
294,Main Street,44030,41.9428143,-80.5569517
353,Liberty Street,44030,41.9406019,-80.5586156
264,Sandusky Street,44030,41.9437724,-80.5585508
392,Middle Road,44030,41.9392958,-80.5423292
199,Gateway Avenue,44030,41.9221174,-80.5705736
199,Gateway Avenue,44030,41.9219285,-80.5706262
382,West Main Road,44030,41.9321236,-80.6043839
384,West Main Road,44030,41.9318992,-80.6049451
350,West Main Road,44030,41.9338868,-80.6042203
364,West Main Road,44030,41.9333285,-80.6048926
362,West Main Road,44030,41.9334208,-80.6047542
354,West Main Road,44030,41.9336498,-80.6044150
2,Loves Drive,44030,41.9138063,-80.5706606
780,State Route 7,44030,41.9145762,-80.5674678
100,Hawthorne Drive,44030,41.9312743,-80.6090569
280,Cedar Road,44030,41.9320048,-80.6059741
432,West Main Road,44030,41.9297285,-80.6080931
381,State Street,44030,41.9435058,-80.5610652
381,State Street,44030,41.9435237,-80.5607237
364,Main Street,44030,41.9421538,-80.5596200
305,Main Street,44030,41.9421313,-80.5575413
328,Main Street,44030,41.9423710,-80.5584504
110,Gateway Avenue,44030,41.9252350,-80.5676456
110,Gateway Avenue,44030,41.9238850,-80.5674878
455,East Main Road,44030,41.9401271,-80.5283164
388,East Main Road,44030,41.9409480,-80.5341955
312,State Street,44030,41.9442396,-80.5578417
380,State Street,44030,41.9442840,-80.5608698
370,State Street,44030,41.9441256,-80.5600897
362,State Street,44030,41.9441420,-80.5596201
339,State Street,44030,41.9436907,-80.5592424
367,State Street,44030,41.9435529,-80.5600077
346,State Street,44030,41.9440762,-80.5593440
480,State Street,44030,41.9439354,-80.5640754
304,Buffalo Street,44030,41.9452342,-80.5566976
283,Buffalo Street,44030,41.9449922,-80.5578850
268,State Street,44030,41.9442844,-80.5564796
246,State Street,44030,41.9443486,-80.5555401
224,State Street,44030,41.9443630,-80.5547669
220,State Street,44030,41.9444055,-80.5543512
215,State Street,44030,41.9439230,-80.5549240
241,State Street,44030,41.9438060,-80.5554857
251,State Street,44030,41.9438844,-80.5558908
226,Broad Street,44030,41.9435334,-80.5558688
248,Buffalo Street,44030,41.9438484,-80.5569607
237,Broad Street,44030,41.9438851,-80.5564399
231,Broad Street,44030,41.9436769,-80.5564449
229,Broad Street,44030,41.9436236,-80.5564405
225,Broad Street,44030,41.9435314,-80.5564383
223,Broad Street,44030,41.9434688,-80.5564409
227,Broad Street,44030,41.9435732,-80.5564382
236,Main Street,44030,41.9432989,-80.5554177
213,Washington Street,44030,41.9435222,-80.5554374
290,Main Street,44030,41.9429752,-80.5566409
294,Main Street,44030,41.9428665,-80.5569800
294,Main Street,44030,41.9429837,-80.5570308
345,Main Street,44030,41.9416474,-80.5588551
236,Buffalo Street,44030,41.9432575,-80.5570104
309,State Street,44030,41.9435615,-80.5576429
600,Days Boulevard,44030,41.9194380,-80.5667871
263,Main Street,44030,41.9425977,-80.5561364
265,Main Street,44030,41.9424928,-80.5562933
275,Main Street,44030,41.9424283,-80.5564713
281,Main Street,44030,41.9422862,-80.5566860
245,Main Street,44030,41.9427977,-80.5553918
187,Broad Street,44030,41.9424457,-80.5560530
243,Main Street,44030,41.9428273,-80.5552770
235,Main Street,44030,41.9428743,-80.5551198
221,Main Street,44030,41.9429807,-80.5546073
216,Main Street,44030,41.9434937,-80.5548149
216,Main Street,44030,41.9435056,-80.5547609
216,Main Street,44030,41.9435200,-80.5546916
214,Main Street,44030,41.9435434,-80.5546138
212,Main Street,44030,41.9435712,-80.5544714
228,Harbor Street,44030,41.9440817,-80.5534598
272,Broad Street,44030,41.9447691,-80.5557137
191,Main Street,44030,41.9433643,-80.5536105
228,Harbor Street,44030,41.9442135,-80.5534960
232,Harbor Street,44030,41.9444745,-80.5533097
494,East Main Road,44030,41.9427165,-80.5269771
512,West Main Road,44030,41.9275952,-80.6149172
512,West Main Road,44030,41.9274635,-80.6150052
554,West Main Road,44030,41.9270597,-80.6181214
348,West Main Road,44030,41.9334575,-80.6024053
229,Main Street,44030,41.9430059,-80.5548517
666,Main Street,44030,41.9425219,-80.5705722
199,Gateway Avenue,44030,41.9215625,-80.5707106
240,Stadium Avenue,44030,41.9410962,-80.5759880
255,Main Street,44030,41.9426112,-80.5558527
256,Liberty Street,44030,41.9422959,-80.5554837
348,West Main Road,44030,41.9338995,-80.6031965
280,West Main Road,44030,41.9373240,-80.5973442
314,Mill Street,44030,41.9450876,-80.5598474
245,East Main Road,44030,41.9393148,-80.5448516
158,West Main Road,44030,41.9381555,-80.5864992
298,Park Avenue,44030,41.9656363,-80.5553672
381,Mill Street,44030,41.9469728,-80.5619389
501,Thompson Road,44030,41.9458080,-80.5383344
215,State Street,44030,41.9439328,-80.5549273
220,State Street,44030,41.9445384,-80.5543527
224,State Street,44030,41.9444165,-80.5547537
236,Main Street,44030,41.9433080,-80.5554351
213,Washington Street,44030,41.9435271,-80.5554469
219,Washington Street,44030,41.9436786,-80.5554919
241,State Street,44030,41.9438075,-80.5555444
251,State Street,44030,41.9438945,-80.5558891
226,Broad Street,44030,41.9435363,-80.5558638
242,Main Street,44030,41.9432537,-80.5556141
248,Main Street,44030,41.9432182,-80.5557096
230,State Street,44030,41.9444212,-80.5552462
246,State Street,44030,41.9443568,-80.5555418
268,State Street,44030,41.9443307,-80.5564871
282,State Street,44030,41.9442638,-80.5570254
304,Buffalo Street,44030,41.9452950,-80.5567642
312,State Street,44030,41.9442289,-80.5578486
380,State Street,44030,41.9442966,-80.5609001
322,State Street,44030,41.9441785,-80.5583586
370,State Street,44030,41.9441271,-80.5600598
362,State Street,44030,41.9441536,-80.5595900
346,State Street,44030,41.9440946,-80.5593406
367,State Street,44030,41.9435582,-80.5600113
339,State Street,44030,41.9436538,-80.5592575
366,West Main Road,44030,41.9332190,-80.6053620
348,West Main Road,44030,41.9340447,-80.6033819
348,West Main Road,44030,41.9334587,-80.6024044
382,West Main Road,44030,41.9321410,-80.6044022
384,West Main Road,44030,41.9318965,-80.6049436
2,Loves Drive,44030,41.9139545,-80.5706527
780,State Route 7,44030,41.9144302,-80.5679791
780,OH-7,44030,41.9144193,-80.5673848
780,State Route 7,44030,41.9137601,-80.5673514
335,West Main Road,44030,41.9347982,-80.5993289
305,West Main Road,44030,41.9351994,-80.5986625
100,Hawthorne Drive,44030,41.9312909,-80.6090515
309,Oakland Boulevard,44030,41.9312060,-80.6082093
296,Highland Avenue,44030,41.9307056,-80.6079792
295,Oakland Boulevard,44030,41.9303981,-80.6075934
418,West Main Road,44030,41.9303584,-80.6070436
420,West Main Road,44030,41.9301847,-80.6071624
116,Oakland Boulevard,44030,41.9315335,-80.6076766
200,Oakland Boulevard,44030,41.9312108,-80.6072486
296,Oakland Boulevard,44030,41.9310098,-80.6070292
404,West Main Road,44030,41.9307987,-80.6062051
406,West Main Road,44030,41.9306478,-80.6064450
430,West Main Road,44030,41.9298382,-80.6074759
294,Highland Avenue,44030,41.9304764,-80.6081528
308,Highland Avenue,44030,41.9308575,-80.6086026
307,Cedar Road,44030,41.9318470,-80.6073638
303,Cedar Road,44030,41.9317243,-80.6071257
165,Cedar Road,44030,41.9313202,-80.6066333
143,Cedar Road,44030,41.9311576,-80.6063853
398,West Main Road,44030,41.9311850,-80.6056936
280,Cedar Road,44030,41.9320103,-80.6059656
167,Oakland Boulevard,44030,41.9318861,-80.6081588
50,Oakland Boulevard,44030,41.9322301,-80.6086956
40,Oakland Boulevard,44030,41.9323699,-80.6089061
30,Oakland Boulevard,44030,41.9324193,-80.6090272
432,West Main Road,44030,41.9297240,-80.6081014
446,West Main Road,44030,41.9291286,-80.6087572
444,West Main Road,44030,41.9293446,-80.6088691
442,West Main Road,44030,41.9297119,-80.6090420
440,West Main Road,44030,41.9300025,-80.6089449
438,West Main Road,44030,41.9302278,-80.6091293
436,West Main Road,44030,41.9304445,-80.6092433
434,West Main Road,44030,41.9307242,-80.6093361
600,Days Boulevard,44030,41.9192853,-80.5666914
381,State Street,44030,41.9435167,-80.5610607
364,Main Street,44030,41.9421631,-80.5596544
305,Main Street,44030,41.9421360,-80.5575540
328,Main Street,44030,41.9424074,-80.5584875
107,West Main Road,44030,41.9367172,-80.5823367
703,Center Road,44030,41.9162758,-80.5783916
110,Gateway Avenue,44030,41.9253090,-80.5675360
110,Gateway Avenue,44030,41.9238892,-80.5674833
14983,West Ridge Road,16443,41.9436511,-80.5190664
388,East Main Road,44030,41.9409582,-80.5341968
755,Chestnut Street,44030,41.9565946,-80.5663689
709,Harbor Street,44030,41.9575641,-80.5530138
471,Madison Street,44030,41.9441260,-80.5645879
480,State Street,44030,41.9439563,-80.5640846
400,Mill Street,44030,41.9474060,-80.5594699
381,Mill Street,44030,41.9469359,-80.5615043
344,State Street,44030,41.9440970,-80.5592542
755,Chestnut Street,44030,41.9565305,-80.5663723
480,State Street,44030,41.9438899,-80.5642991
471,Madison Street,44030,41.9443435,-80.5645605
158,West Main Road,44030,41.9376779,-80.5866932
641,Mill Street,44030,41.9532193,-80.5588524
342,Depot Street,44030,41.9497612,-80.5586860
264,Sandusky Street,44030,41.9437833,-80.5585555
283,Buffalo Street,44030,41.9449400,-80.5580164
248,Buffalo Street,44030,41.9438540,-80.5569720
237,Broad Street,44030,41.9438879,-80.5564469
231,Broad Street,44030,41.9436812,-80.5564476
229,Broad Street,44030,41.9436246,-80.5564466
227,Broad Street,44030,41.9435781,-80.5564475
225,Broad Street,44030,41.9435374,-80.5564475
223,Broad Street,44030,41.9434683,-80.5564475
221,Broad Street,44030,41.9433852,-80.5564418
250,Main Street,44030,41.9431880,-80.5557907
256,Broad Street,44030,41.9431423,-80.5558917
290,Main Street,44030,41.9429928,-80.5566674
294,Main Street,44030,41.9428889,-80.5569823
211,Buffalo Street,44030,41.9427727,-80.5575960
236,Buffalo Street,44030,41.9432495,-80.5570295
238,Buffalo Street,44030,41.9434320,-80.5571179
240,Buffalo Street,44030,41.9434398,-80.5569358
309,State Street,44030,41.9435693,-80.5576382
353,Liberty Street,44030,41.9406081,-80.5586291
541,East Main Road,44030,41.9420417,-80.5209854
392,Middle Road,44030,41.9392702,-80.5422483
272,East Main Road,44030,41.9398466,-80.5432884
263,Main Street,44030,41.9425962,-80.5561340
265,Main Street,44030,41.9424400,-80.5562932
275,Main Street,44030,41.9424570,-80.5564831
277,Main Street,44030,41.9424573,-80.5566016
281,Main Street,44030,41.9422776,-80.5566448
287,Main Street,44030,41.9423123,-80.5569291
255,Main Street,44030,41.9426329,-80.5558568
247,Main Street,44030,41.9427805,-80.5555243
245,Main Street,44030,41.9428176,-80.5554030
243,Main Street,44030,41.9428517,-80.5552881
239,Main Street,44030,41.9428228,-80.5551728
235,Main Street,44030,41.9429030,-80.5551325
187,Broad Street,44030,41.9424510,-80.5560519
229,Main Street,44030,41.9429775,-80.5548530
223,Main Street,44030,41.9430653,-80.5547399
221,Main Street,44030,41.9429754,-80.5545997
219,Main Street,44030,41.9430347,-80.5545569
217,Main Street,44030,41.9430840,-80.5545015
211,Main Street,44030,41.9431413,-80.5543440
216,Main Street,44030,41.9435250,-80.5547734
214,Main Street,44030,41.9435618,-80.5546266
212,Main Street,44030,41.9435894,-80.5544974
214,Washington Street,44030,41.9435555,-80.5551047
191,Main Street,44030,41.9433822,-80.5536171
189,Main Street,44030,41.9434051,-80.5535476
228,Harbor Street,44030,41.9441544,-80.5536010
232,Harbor Street,44030,41.9444800,-80.5533238
272,Broad Street,44030,41.9447710,-80.5557234
230,Gateway Avenue,44030,41.9263909,-80.5572583
230,Gateway Avenue,44030,41.9260354,-80.5575061
229,Gateway Avenue,44030,41.9249570,-80.5572606
229,Gateway Avenue,44030,41.9248894,-80.5571717
494,East Main Road,44030,41.9427441,-80.5269839
512,West Main Road,44030,41.9275973,-80.6149132
554,West Main Road,44030,41.9270648,-80.6181121
364,West Main Road,44030,41.9333335,-80.6048845
362,West Main Road,44030,41.9334261,-80.6047499
360,West Main Road,44030,41.9335098,-80.6046298
358,West Main Road,44030,41.9335564,-80.6045641
354,West Main Road,44030,41.9336608,-80.6044131
350,West Main Road,44030,41.9339138,-80.6042398
348,West Main Road,44030,41.9340038,-80.6033334
348,West Main Road,44030,41.9339677,-80.6032864
348,West Main Road,44030,41.9339038,-80.6032036
348,West Main Road,44030,41.9338244,-80.6031123
348,West Main Road,44030,41.9337440,-80.6029699
183,Gateway Avenue,44030,41.9232576,-80.5695195
199,Gateway Avenue,44030,41.9215981,-80.5707654
199,Gateway Avenue,44030,41.9219439,-80.5706264
199,Gateway Avenue,44030,41.9221275,-80.5705673
199,Gateway Avenue,44030,41.9222474,-80.5705652
199,Gateway Avenue,44030,41.9226788,-80.5707908
666,Main Street,44030,41.9425231,-80.5705735
240,Stadium Avenue,44030,41.9412205,-80.5760095
226,Wrights Avenue,44030,41.9426378,-80.5614454
182,Broad Street,44030,41.9423788,-80.5556230
256,Liberty Street,44030,41.9422988,-80.5554820
280,West Main Road,44030,41.9373296,-80.5973396
314,Mill Street,44030,41.9450996,-80.5598481
245,East Main Road,44030,41.9393304,-80.5448521
1009,West Street,44030,41.9371490,-80.5808148
2,Loves Drive,44030,41.9141532,-80.5702501
