House number,Street name,Postal code,Latitude,Longitude
7100,Hospital Drive,43016,40.1029665,-83.1642895
6850,Hospital Drive,43016-8457,40.1037379,-83.1606267
6850,Hospital Drive,43016,40.1037379,-83.1607340
6776,Perimeter Loop Road,43017,40.1039861,-83.1573628
299,West Bridge Street,43017,40.0978921,-83.1225112
7625,Sawmill Road,43016,40.1217727,-83.0922646
7245,Tullymore Drive,43016,40.1165852,-83.1654256
6695,Avery-Muirfield Drive,43016,40.1059098,-83.1610412
6190,Shamrock Court,43016,40.0940910,-83.1384696
5605,Blazer Parkway,43017,40.0793826,-83.1323331
5615,Woerner Temple Road,43016,40.0829712,-83.1421278
16,East Bridge Street,43017,40.0997469,-83.1132908
5691,Woerner Temple Rd,43016,40.0839979,-83.1428510
6805,Bobcat Way,43016,40.1078777,-83.1860590
19 Unit 101,East Bridge Street,43017,40.0993163,-83.1143970
8,East Bridge Street,43017,40.0997378,-83.1135890
65,East Bridge Street,43017,40.0991972,-83.1151919
1,West Bridge Street,43017,40.0993995,-83.1139613
3,High Street,43017,40.0998347,-83.1140808
23,High Street,43017,40.0999196,-83.1141162
35,North High Street,43017,40.1002560,-83.1144616
45,North High Street,43017,40.1004514,-83.1144313
22,High Street,43017,40.0990740,-83.1135423
27,High Street,43017,40.0989514,-83.1138939
24,High Street,43017,40.0989690,-83.1135206
6355,Sawmill Road,43017,40.0965801,-83.0931461
6395,Perimeter Drive,43016,40.1045456,-83.1619575
5650,Blazer Pkwy,43017,40.0805131,-83.1296813
6739,Dublin Center Drive,43017,40.1059074,-83.0963141
4305,West Dublin Granville Road,43017,40.0988519,-83.1052634
6560,Perimeter Drive,43016,40.1057672,-83.1633290
4140,Tuller Road,43017,40.1080396,-83.1010835
7090,Hospital Drive,43016,40.1034698,-83.1641844
8462,Hospital Drive,43016,40.1035785,-83.1641951
7056,Hospital Drive,43016,40.1036688,-83.1641951
7048,Hospital Drive,43016,40.1038313,-83.1641957
7044,Hospital Drive,43016,40.1039826,-83.1641944
7042,Hospital Drive,43016,40.1040952,-83.1641972
7038,Hospital Drive,43016,40.1042316,-83.1641934
7036,Hospital Drive,43016,40.1042924,-83.1641924
7040,Hospital Drive,43016,40.1041831,-83.1641934
7034,Hospital Drive,43016,40.1043733,-83.1641934
7030,Hospital Drive,43016,40.1044426,-83.1641770
7020,Hospital Drive,43016,40.1045030,-83.1641786
7000,Hospital Drive,43016,40.1045723,-83.1641720
6553,Perimeter Drive,43016,40.1046780,-83.1632250
6549,Perimeter Drive,43016,40.1046780,-83.1630576
6545,Perimeter Drive,43016,40.1047273,-83.1629516
6525,Perimeter Drive,43016,40.1046725,-83.1628386
6495,Perimeter Drive,43016,40.1047240,-83.1627498
6485,Perimeter Drive,43016,40.1046298,-83.1625866
6475,Perimeter Drive,43016,40.1046802,-83.1625251
6465,Perimeter Drive,43016,40.1046449,-83.1623862
6455,Perimeter Drive,43016,40.1046143,-83.1622803
6415,Perimeter Drive,43016,40.1045266,-83.1620859
6435,Perimeter Drive,43016,40.1045838,-83.1621665
6385,Perimeter Drive,43016,40.1045167,-83.1617831
6375,Perimeter Drive,43016,40.1045579,-83.1617241
6365,Perimeter Drive,43016,40.1045216,-83.1616548
6355,Perimeter Drive,43016,40.1045702,-83.1615837
6345,Perimeter Drive,43016,40.1045245,-83.1615079
6335,Perimeter Drive,43016,40.1045397,-83.1613865
41,West Bridge Street,43017,40.0993807,-83.1140638
5890,Sawmill Rd,43017,40.0808107,-83.1293343
2974,Glenlock Circle,43017,40.0959609,-83.0961015
565,Metro Place South,43017,40.0931996,-83.1340962
4587,Bridge Park Avenue,43017,40.1021865,-83.1097617
6632,Longshore Street,43017,40.1025505,-83.1095015
5620,Dublinshire Drive,43017,40.1233743,-83.1423068
6605,Longshore Street,43017,40.1021278,-83.1097940
7625,Sawmill Road,43016,40.1212729,-83.0923469
7493,Sawmill Road,43016-9616,40.1195266,-83.0910487
7679,Plain City â€“ Dublin Road,43016,40.1061303,-83.1945502
6608,Longshore Street,43017,40.1022200,-83.1094686
4537,Bridge Park Avenue,43017,40.1022928,-83.1087305
4540,Bridge Park Avenue,43017,40.1025594,-83.1087878
94,North High Street,43017,40.1019580,-83.1140435
165,Marion Street,43017,40.0925166,-83.1179571
167,Marion Street,43017,40.0925229,-83.1180374
6605,Longshore Street,43017,40.1019159,-83.1098732
6805,Avery-Muirfield Drive,43016,40.1044272,-83.1594043
6711,Dublin Center Drive,43017,40.1059228,-83.0967928
5885,Frantz Road,43016,40.0884650,-83.1237324
3864,Hard Rd,43016,40.1196309,-83.0927982
6895,Deardorff Street,43017,40.1068673,-83.1038347
6909,Deardorff Street,43017,40.1070824,-83.1038182
6896,Watson Street,43017,40.1069101,-83.1048069
6910,Watson Street,43017,40.1071282,-83.1047938
4259,Tuller Road,43017,40.1074407,-83.1038434
4263,Tuller Road,43017,40.1074468,-83.1040008
4267,Tuller Road,43017,40.1074528,-83.1041584
4269,Tuller Road,43017,40.1074658,-83.1043967
4275,Tuller Road,43017,40.1074786,-83.1045528
4281,Tuller Road,43017,40.1074792,-83.1047096
4301,Tuller Road,43017,40.1074937,-83.1050986
4317,Tuller Road,43017,40.1074996,-83.1052531
6909,Watson Street,43017,40.1071355,-83.1050679
6895,Watson Street,43017,40.1069209,-83.1050834
6859,Watson Street,43017,40.1065341,-83.1051125
6845,Watson Street,43017,40.1063195,-83.1051281
4298,John Shields Parkway,43017,40.1059706,-83.1052067
4304,John Shields Parkway,43017,40.1059764,-83.1053612
4389,John Shields Parkway,43017,40.1056974,-83.1073235
4391,John Shields Parkway,43017,40.1057092,-83.1074797
4395,John Shields Parkway,43017,40.1057087,-83.1076365
4379,John Shields Parkway,43017,40.1056734,-83.1069103
4385,John Shields Parkway,43017,40.1056795,-83.1070648
4359,John Shields Parkway,43017,40.1056559,-83.1063332
4365,John Shields Parkway,43017,40.1056676,-83.1064894
4371,John Shields Parkway,43017,40.1056671,-83.1066462
4319,John Shields Parkway,43017,40.1054962,-83.1056405
4327,John Shields Parkway,43017,40.1055068,-83.1059210
4279,John Shields Parkway,43017,40.1054711,-83.1048580
4273,John Shields Parkway,43017,40.1054716,-83.1047012
4269,John Shields Parkway,43017,40.1054598,-83.1045451
4257,John Shields Parkway,43017,40.1054372,-83.1039888
4261,John Shields Parkway,43017,40.1054435,-83.1041462
4265,John Shields Parkway,43017,40.1054497,-83.1043038
4223,Tuller Road,43017,40.1073891,-83.1025122
4227,Tuller Road,43017,40.1073951,-83.1026696
4229,Tuller Road,43017,40.1074012,-83.1028272
4241,Tuller Road,43017,40.1074134,-83.1031224
4243,Tuller Road,43017,40.1074263,-83.1032784
4245,Tuller Road,43017,40.1074269,-83.1034352
4226,Mccune Avenue,43017,40.1067320,-83.1025735
4230,Mccune Avenue,43017,40.1067437,-83.1028585
4240,Mccune Avenue,43017,40.1067612,-83.1031787
4250,Mccune Avenue,43017,40.1067717,-83.1034600
4225,Mccune Avenue,43017,40.1065132,-83.1025934
4229,Mccune Avenue,43017,40.1065232,-83.1028748
4239,Mccune Avenue,43017,40.1065379,-83.1031932
4249,Mccune Avenue,43017,40.1065490,-83.1034783
4222,John Shields Parkway,43017,40.1058913,-83.1026067
4228,John Shields Parkway,43017,40.1058868,-83.1027644
4234,John Shields Parkway,43017,40.1058822,-83.1029219
4225,John Shields Parkway,43017,40.1053743,-83.1026819
4233,John Shields Parkway,43017,40.1053849,-83.1029624
4239,John Shields Parkway,43017,40.1053973,-83.1032883
4251,John Shields Parkway,43017,40.1054078,-83.1035689
4240,John Shields Parkway,43017,40.1058938,-83.1032390
4246,John Shields Parkway,43017,40.1058933,-83.1033958
4252,John Shields Parkway,43017,40.1059050,-83.1035519
55,West Bridge Street,43017,40.0992437,-83.1150350
6175,Shamrock Court,43016,40.0937926,-83.1395548
16,East Bridge Street,43017,40.0997717,-83.1132940
4548,Bridge Park Avenue,43017,40.1025422,-83.1090941
4546,Bridge Park Avenue,43017,40.1025508,-83.1089439
4544,Bridge Park Avenue,43017,40.1025536,-83.1088805
4595,Bridge Park Avenue,43017,40.1021745,-83.1099618
4549,Bridge Park Avenue,43017,40.1022611,-83.1092081
4545,Bridge Park Avenue,43017,40.1022728,-83.1091031
6631,Dale Drive,43017,40.1032877,-83.1078306
6791,Longshore St,43017,40.1052687,-83.1102826
3805,Emerald Parkway,43016,40.1231051,-83.0917311
6591,Sawmill Road,43017,40.1014808,-83.0929780
6615,Dublin Center Drive,43017,40.1034357,-83.0956458
6561,Dublin Center Drive,43017,40.1025726,-83.0956919
6685,Sawmill Road,43017,40.1029376,-83.0921487
6807,Dublin Center Drive,43017,40.1069541,-83.0947661
6635,Dublin Center Drive,43017,40.1039403,-83.0955754
6743,Dublin Center Drive,43017,40.1059516,-83.0961280
6825,Dublin Center Drive,43017,40.1068406,-83.0937525
6791,Dublin Center Drive,43017,40.1069873,-83.0951778
6599,Dublin Center Drive,43017,40.1031823,-83.0955998
6811,Dublin Center Drive,43017,40.1069530,-83.0947104
6719,Dublin Center Drive,43017,40.1059359,-83.0966179
6815,Dublin Center Drive,43017,40.1069514,-83.0946316
6677,Dublin Center Drive,43017,40.1050223,-83.0965733
6751,Dublin Center Drive,43017,40.1061932,-83.0960525
6659,Dublin Center Drive,43017,40.1049998,-83.0961317
6655,Sawmill Road,43017,40.1023459,-83.0921680
6625,Dublin Center Drive,43017,40.1036067,-83.0955780
6795,Dublin Center Drive,43017,40.1069843,-83.0950748
6665,Dublin Center Drive,43017,40.1050186,-83.0964571
6627,Dublin Center Drive,43017,40.1037005,-83.0955735
6765,Dublin Center Drive,43017,40.1069384,-83.0959472
6727,Dublin Center Drive,43017,40.1059327,-83.0964915
6645,Dublin Center Drive,43017,40.1042672,-83.0955435
6693,Sawmill Road,43017,40.1030419,-83.0921414
6665,Sawmill Road,43017,40.1024144,-83.0921630
6755,Dublin Center Drive,43017,40.1066953,-83.0960249
6799,Dublin Center Drive,43017,40.1069568,-83.0948982
6689,Dublin Center Drive,43017,40.1050519,-83.0968650
6685,Dublin Center Drive,43017,40.1050467,-83.0966993
6771,Dublin Center Drive,43017,40.1069802,-83.0956218
6731,Dublin Center Drive,43017,40.1059315,-83.0964460
6567,Dublin Center Drive,43017,40.1028427,-83.0956187
6655,Dublin Center Drive,43017,40.1047406,-83.0958858
6579,Dublin Center Drive,43017,40.1028873,-83.0956162
6641,Dublin Center Drive,43017,40.1041326,-83.0955506
6767,Dublin Center Drive,43017,40.1069747,-83.0958959
6585,Dublin Center Drive,43017,40.1029531,-83.0956126
6649,Dublin Center Drive,43017,40.1045356,-83.0955776
6595,Dublin Center Drive,43017,40.1030061,-83.0956096
4370,Tuller Road,43017,40.1081191,-83.1061465
4374,Tuller Road,43017,40.1081258,-83.1063243
4378,Tuller Road,43017,40.1081339,-83.1065401
4384,Tuller Road,43017,40.1081454,-83.1068053
4390,Tuller Road,43017,40.1081556,-83.1070716
4388,Tuller Road,43017,40.1081512,-83.1069583
4400,Tuller Road,43017,40.1081258,-83.1074497
4406,Tuller Road,43017,40.1081391,-83.1077797
4432,Tuller Road,43017,40.1081727,-83.1082253
4430,Tuller Road,43017,40.1083074,-83.1082153
4420,Tuller Road,43017,40.1087027,-83.1081579
4418,Tuller Road,43017,40.1087109,-83.1079406
4416,Tuller Road,43017,40.1087078,-83.1078642
4412,Tuller Road,43017,40.1087194,-83.1076476
4362,Tuller Road,43017,40.1086688,-83.1073640
4360,Tuller Road,43017,40.1086754,-83.1072507
4356,Tuller Road,43017,40.1087182,-83.1069980
4354,Tuller Road,43017,40.1087220,-83.1069287
4348,Tuller Road,43017,40.1087253,-83.1067130
4342,Tuller Road,43017,40.1087250,-83.1064244
4344,Tuller Road,43017,40.1087212,-83.1064956
4338,Tuller Road,43017,40.1087190,-83.1062149
4340,Tuller Road,43017,40.1087151,-83.1062786
4330,Tuller Road,43017,40.1088074,-83.1057901
4328,Tuller Road,43017,40.1088033,-83.1056928
4320,Tuller Road,43017,40.1085360,-83.1056401
4312,Tuller Road,43017,40.1082547,-83.1056854
4140,Tuller Road,43017,40.1080979,-83.1018328
4140,Tuller Road,43017,40.1080449,-83.1015707
4140,Tuller Road,43017,40.1080385,-83.1003445
4140,Tuller Road,43017,40.1080385,-83.1002909
4140,Tuller Road,43017,40.1080385,-83.1001434
4140,Tuller Road,43017,40.1080637,-83.0999402
4140,Tuller Road,43017,40.1080351,-83.0997410
4140,Tuller Road,43017,40.1080341,-83.0996043
4140,Tuller Road,43017,40.1081022,-83.0994014
4150,Tuller Road,43017,40.1085449,-83.0993985
4150,Tuller Road,43017,40.1086143,-83.0994534
4150,Tuller Road,43017,40.1086688,-83.0999724
4150,Tuller Road,43017,40.1086686,-83.0997545
4150,Tuller Road,43017,40.1087275,-83.1006154
4150,Tuller Road,43017,40.1087268,-83.1002476
4150,Tuller Road,43017,40.1087272,-83.1004341
4150,Tuller Road,43017,40.1087822,-83.1011123
4150,Tuller Road,43017,40.1087817,-83.1009544
4150,Tuller Road,43017,40.1087831,-83.1014255
4150,Tuller Road,43017,40.1086209,-83.1019750
4140,Tuller Road,43017,40.1082850,-83.1020016
4353,Tuller Road,43017,40.1071908,-83.1064365
4353,Tuller Road,43017,40.1071920,-83.1064709
4353,Tuller Road,43017,40.1072203,-83.1063848
4353,Tuller Road,43017,40.1073348,-83.1062618
4353,Tuller Road,43017,40.1073165,-83.1062169
4353,Tuller Road,43017,40.1073127,-83.1061088
4353,Tuller Road,43017,40.1073203,-83.1059318
4353,Tuller Road,43017,40.1070728,-83.1057810
4333,Tuller Road,43017,40.1068470,-83.1059052
4333,Tuller Road,43017,40.1066634,-83.1057808
4333,Tuller Road,43017,40.1065775,-83.1057859
4333,Tuller Road,43017,40.1065295,-83.1057887
4333,Tuller Road,43017,40.1064003,-83.1057763
4333,Tuller Road,43017,40.1063226,-83.1058011
4393,Tuller Road,43017,40.1065963,-83.1074261
4393,Tuller Road,43017,40.1068558,-83.1071765
4393,Tuller Road,43017,40.1070926,-83.1074535
4393,Tuller Road,43017,40.1073294,-83.1072762
4260,Hobbs Landing Drive West,43017,40.1039965,-83.1021850
4252,Hobbs Landing Drive West,43017,40.1038266,-83.1021987
4236,Hobbs Landing Drive West,43017,40.1033551,-83.1021181
4228,Hobbs Landing Drive West,43017,40.1032025,-83.1019381
4212,Hobbs Landing Drive West,43017,40.1028958,-83.1015790
4204,Hobbs Landing Drive West,43017,40.1027199,-83.1013808
4196,Hobbs Landing Drive West,43017,40.1026664,-83.1010617
4235,Tuller Ridge Drive,43017,40.1039843,-83.1015136
4227,Tuller Ridge Drive,43017,40.1038121,-83.1015264
4219,Tuller Ridge Drive,43017,40.1036539,-83.1015205
4211,Tuller Ridge Drive,43017,40.1035107,-83.1013999
6723,Cooperstone Drive,43017,40.1033364,-83.1011942
6715,Cooperstone Drive,43017,40.1032187,-83.1010372
6707,Cooperstone Drive,43017,40.1031706,-83.1008243
6677,Hobbs Landing Drive East,43017,40.1026603,-83.0994384
6685,Hobbs Landing Drive East,43017,40.1028103,-83.0994109
6693,Hobbs Landing Drive East,43017,40.1029850,-83.0993981
6701,Hobbs Landing Drive East,43017,40.1031526,-83.0993949
6709,Hobbs Landing Drive East,43017,40.1033232,-83.0993810
6717,Hobbs Landing Drive East,43017,40.1034936,-83.0993706
6725,Hobbs Landing Drive East,43017,40.1036651,-83.0993668
6733,Hobbs Landing Drive East,43017,40.1038338,-83.0993588
6676,Cooperstone Drive,43017,40.1026626,-83.1001383
6684,Cooperstone Drive,43017,40.1028353,-83.1001469
6692,Cooperstone Drive,43017,40.1030041,-83.1001439
6700,Cooperstone Drive,43017,40.1031741,-83.1001280
6708,Cooperstone Drive,43017,40.1033435,-83.1001095
6716,Cooperstone Drive,43017,40.1035137,-83.1001212
6724,Cooperstone Drive,43017,40.1036858,-83.1001651
6732,Cooperstone Drive,43017,40.1038767,-83.1001225
6740,Cooperstone Drive,43017,40.1041474,-83.0999753
6748,Cooperstone Drive,43017,40.1042717,-83.0998167
6756,Cooperstone Drive,43017,40.1043903,-83.0996626
6755,Cooperstone Drive,43017,40.1045776,-83.0999982
6739,Cooperstone Drive,43017,40.1043350,-83.1003111
4214,Tuller Ridge Drive,43017,40.1042143,-83.1009063
4222,Tuller Ridge Drive,43017,40.1042274,-83.1011265
4230,Tuller Ridge Drive,43017,40.1042373,-83.1013456
4238,Tuller Ridge Drive,43017,40.1042466,-83.1015674
4246,Tuller Ridge Drive,43017,40.1042569,-83.1017896
4254,Tuller Ridge Drive,43017,40.1042675,-83.1020093
4203,Troutbrook Drive,43017,40.1047684,-83.1006339
4211,Troutbrook Drive,43017,40.1047756,-83.1008493
4227,Troutbrook Drive,43017,40.1047904,-83.1012861
4235,Troutbrook Drive,43017,40.1047996,-83.1015028
4243,Troutbrook Drive,43017,40.1048153,-83.1017250
6695,Cooperstone Drive,43017,40.1031635,-83.1004812
6699,Cooperstone Drive,43017,40.1031654,-83.1006061
6703,Cooperstone Drive,43017,40.1031679,-83.1006987
6711,Cooperstone Drive,43017,40.1031850,-83.1009182
6719,Cooperstone Drive,43017,40.1032628,-83.1011081
4207,Tuller Ridge Drive,43017,40.1034541,-83.1013283
4215,Tuller Ridge Drive,43017,40.1035705,-83.1014603
4223,Tuller Ridge Drive,43017,40.1037333,-83.1015311
4231,Tuller Ridge Drive,43017,40.1038882,-83.1015196
4256,Hobbs Landing Drive West,43017,40.1039023,-83.1021919
4248,Hobbs Landing Drive West,43017,40.1037332,-83.1022040
4244,Hobbs Landing Drive West,43017,40.1036428,-83.1022092
4240,Hobbs Landing Drive West,43017,40.1035462,-83.1022178
4232,Hobbs Landing Drive West,43017,40.1032817,-83.1020320
4224,Hobbs Landing Drive West,43017,40.1031303,-83.1018570
4220,Hobbs Landing Drive West,43017,40.1030201,-83.1017339
4216,Hobbs Landing Drive West,43017,40.1029476,-83.1016499
4208,Hobbs Landing Drive West,43017,40.1028227,-83.1014970
4200,Hobbs Landing Drive West,43017,40.1026807,-83.1012651
4192,Hobbs Landing Drive West,43017,40.1026631,-83.1009377
4188,Hobbs Landing Drive West,43017,40.1026615,-83.1008425
4184,Hobbs Landing Drive West,43017,40.1026575,-83.1007188
4180,Hobbs Landing Drive West,43017,40.1026543,-83.1006193
4176,Hobbs Landing Drive West,43017,40.1026505,-83.1005006
6737,Hobbs Landing Drive East,43017,40.1039300,-83.0993533
6729,Hobbs Landing Drive East,43017,40.1037598,-83.0993629
6721,Hobbs Landing Drive East,43017,40.1035904,-83.0993661
6713,Hobbs Landing Drive East,43017,40.1034225,-83.0993787
6705,Hobbs Landing Drive East,43017,40.1032499,-83.0993899
6697,Hobbs Landing Drive East,43017,40.1030805,-83.0993934
6689,Hobbs Landing Drive East,43017,40.1029106,-83.0994050
6681,Hobbs Landing Drive East,43017,40.1027422,-83.0994338
6680,Cooperstone Drive,43017,40.1027579,-83.1001350
6688,Cooperstone Drive,43017,40.1029325,-83.1001434
6696,Cooperstone Drive,43017,40.1031020,-83.1001386
6704,Cooperstone Drive,43017,40.1032709,-83.1001214
6712,Cooperstone Drive,43017,40.1034396,-83.1001048
6720,Cooperstone Drive,43017,40.1036133,-83.1001165
6728,Cooperstone Drive,43017,40.1037821,-83.1001602
6736,Cooperstone Drive,43017,40.1039709,-83.1001045
6744,Cooperstone Drive,43017,40.1042179,-83.0998834
6752,Cooperstone Drive,43017,40.1043355,-83.0997252
6760,Cooperstone Drive,43017,40.1044577,-83.0995726
4258,Tuller Ridge Drive,43017,40.1042741,-83.1021373
4250,Tuller Ridge Drive,43017,40.1042640,-83.1019160
4242,Tuller Ridge Drive,43017,40.1042503,-83.1016944
4234,Tuller Ridge Drive,43017,40.1042409,-83.1014725
4226,Tuller Ridge Drive,43017,40.1042322,-83.1012510
4218,Tuller Ridge Drive,43017,40.1042190,-83.1010307
4210,Tuller Ridge Drive,43017,40.1042148,-83.1008111
4206,Tuller Ridge Drive,43017,40.1042101,-83.1006828
6735,Cooperstone Drive,43017,40.1042626,-83.1003980
6743,Cooperstone Drive,43017,40.1043853,-83.1002431
6747,Cooperstone Drive,43017,40.1044524,-83.1001526
6751,Cooperstone Drive,43017,40.1045052,-83.1000913
4207,Troutbrook Drive,43017,40.1047713,-83.1007581
4215,Troutbrook Drive,43017,40.1047809,-83.1009736
4219,Troutbrook Drive,43017,40.1047821,-83.1010673
4223,Troutbrook Drive,43017,40.1047860,-83.1011952
4231,Troutbrook Drive,43017,40.1047924,-83.1014126
4239,Troutbrook Drive,43017,40.1048044,-83.1016301
4247,Troutbrook Drive,43017,40.1048196,-83.1018517
4251,Troutbrook Drive,43017,40.1048002,-83.1019502
4255,Troutbrook Drive,43017,40.1048031,-83.1020784
4250,Troutbrook Drive,43017,40.1050517,-83.1019874
4246,Troutbrook Drive,43017,40.1050471,-83.1018704
4242,Troutbrook Drive,43017,40.1050446,-83.1017703
4238,Troutbrook Drive,43017,40.1050409,-83.1016450
4234,Troutbrook Drive,43017,40.1050296,-83.1015489
4230,Troutbrook Drive,43017,40.1050246,-83.1014235
4226,Troutbrook Drive,43017,40.1050213,-83.1013255
4222,Troutbrook Drive,43017,40.1050178,-83.1012023
4218,Troutbrook Drive,43017,40.1050111,-83.1011045
4214,Troutbrook Drive,43017,40.1050053,-83.1009812
4210,Troutbrook Drive,43017,40.1050037,-83.1008848
4206,Troutbrook Drive,43017,40.1049981,-83.1007596
4202,Troutbrook Drive,43017,40.1049901,-83.1006636
4198,Troutbrook Drive,43017,40.1049855,-83.1005398
4194,Troutbrook Drive,43017,40.1049788,-83.1004498
4190,Troutbrook Drive,43017,40.1049755,-83.1003198
4182,Troutbrook Drive,43017,40.1049644,-83.1001034
4178,Troutbrook Drive,43017,40.1049602,-83.1000133
4174,Troutbrook Drive,43017,40.1049553,-83.0998887
4254,Troutbrook Drive,43017,40.1050558,-83.1020909
4258,Troutbrook Drive,43017,40.1050595,-83.1022160
4186,Troutbrook Drive,43017,40.1049685,-83.1002145
4373,North Oval Street,43017,40.1032222,-83.1050892
4369,North Oval Street,43017,40.1032209,-83.1050517
4365,North Oval Street,43017,40.1032172,-83.1049437
4361,North Oval Street,43017,40.1032159,-83.1049061
4357,North Oval Street,43017,40.1031811,-83.1047987
4377,North Oval Street,43017,40.1031949,-83.1052004
4278,Clark Street,43017,40.1039091,-83.1030853
4282,Clark Street,43017,40.1039078,-83.1030477
4286,Clark Street,43017,40.1039041,-83.1029397
4290,Clark Street,43017,40.1039028,-83.1029021
4294,Clark Street,43017,40.1039301,-83.1027910
4274,Clark Street,43017,40.1039440,-83.1031927
4374,North Oval Street,43017,40.1035504,-83.1050715
4370,North Oval Street,43017,40.1035491,-83.1050339
4366,North Oval Street,43017,40.1035453,-83.1049259
4362,North Oval Street,43017,40.1035440,-83.1048883
4358,North Oval Street,43017,40.1035714,-83.1047772
4378,North Oval Street,43017,40.1035852,-83.1051789
4326,North Oval Street,43017,40.1035132,-83.1040256
4322,North Oval Street,43017,40.1035119,-83.1039881
4318,North Oval Street,43017,40.1035082,-83.1038801
4314,North Oval Street,43017,40.1035069,-83.1038425
4310,North Oval Street,43017,40.1035342,-83.1037314
4330,North Oval Street,43017,40.1035480,-83.1041331
4274,South Oval Street,43017,40.1028416,-83.1051132
4270,South Oval Street,43017,40.1028403,-83.1050757
4266,South Oval Street,43017,40.1028365,-83.1049677
4262,South Oval Street,43017,40.1028351,-83.1049301
4258,South Oval Street,43017,40.1028623,-83.1048190
4278,South Oval Street,43017,40.1028766,-83.1052207
6590,Egg Court,43017,40.1028797,-83.1060378
6586,Egg Court,43017,40.1028781,-83.1060002
6582,Egg Court,43017,40.1028734,-83.1058923
6578,Egg Court,43017,40.1028717,-83.1058547
6574,Egg Court,43017,40.1028981,-83.1057432
6594,Egg Court,43017,40.1029155,-83.1061447
6617,Division Street,43017,40.1034095,-83.1056276
6613,Division Street,43017,40.1033807,-83.1056298
6609,Division Street,43017,40.1032982,-83.1056358
6605,Division Street,43017,40.1032695,-83.1056379
6601,Division Street,43017,40.1031877,-83.1056846
6621,Division Street,43017,40.1034947,-83.1056622
6618,Egg Court,43017,40.1034355,-83.1061810
6614,Egg Court,43017,40.1034068,-83.1061831
6610,Egg Court,43017,40.1033242,-83.1061891
6606,Egg Court,43017,40.1032955,-83.1061912
6602,Egg Court,43017,40.1032102,-83.1061567
6622,Egg Court,43017,40.1035173,-83.1061342
4267,Clark Street,43017,40.1039433,-83.1036152
4263,Clark Street,43017,40.1039145,-83.1036171
4259,Clark Street,43017,40.1038320,-83.1036225
4255,Clark Street,43017,40.1038032,-83.1036243
4251,Clark Street,43017,40.1037212,-83.1036704
4271,Clark Street,43017,40.1040284,-83.1036505
6670,Division Street,43017,40.1043210,-83.1051255
6666,Division Street,43017,40.1042923,-83.1051276
6662,Division Street,43017,40.1042097,-83.1051337
6658,Division Street,43017,40.1041810,-83.1051358
6654,Division Street,43017,40.1040957,-83.1051013
6674,Division Street,43017,40.1044028,-83.1050788
6657,Division Street,43017,40.1041593,-83.1055700
6653,Division Street,43017,40.1041306,-83.1055721
6649,Division Street,43017,40.1040480,-83.1055781
6645,Division Street,43017,40.1040193,-83.1055802
6641,Division Street,43017,40.1039375,-83.1056270
6661,Division Street,43017,40.1042446,-83.1056045
4104,Clark Street,43017,40.1026037,-83.1030335
4108,Clark Street,43017,40.1026872,-83.1030285
4112,Clark Street,43017,40.1027160,-83.1030268
4116,Clark Street,43017,40.1027986,-83.1030218
4120,Clark Street,43017,40.1028273,-83.1030200
4124,Clark Street,43017,40.1029108,-83.1030150
4128,Clark Street,43017,40.1030015,-83.1030086
4132,Clark Street,43017,40.1030850,-83.1030035
4136,Clark Street,43017,40.1031137,-83.1030018
4140,Clark Street,43017,40.1031963,-83.1029968
4144,Clark Street,43017,40.1032250,-83.1029950
4148,Clark Street,43017,40.1033086,-83.1029900
6665,Division Street,43017,40.1043236,-83.1055562
6669,Division Street,43017,40.1044070,-83.1055501
6673,Division Street,43017,40.1044357,-83.1055480
6677,Division Street,43017,40.1045183,-83.1055419
6681,Division Street,43017,40.1045470,-83.1055398
6685,Division Street,43017,40.1046305,-83.1055337
4353,Clark Street,43017,40.1045716,-83.1047125
4357,Clark Street,43017,40.1045732,-83.1047501
4361,Clark Street,43017,40.1045780,-83.1048580
4365,Clark Street,43017,40.1045797,-83.1048955
4349,Clark Street,43017,40.1045667,-83.1046034
4369,Clark Street,43017,40.1045845,-83.1050046
4329,Clark Street,43017,40.1045482,-83.1041908
4333,Clark Street,43017,40.1045499,-83.1042284
4337,Clark Street,43017,40.1045547,-83.1043363
4341,Clark Street,43017,40.1045563,-83.1043738
4325,Clark Street,43017,40.1045434,-83.1040817
4345,Clark Street,43017,40.1045612,-83.1044830
4305,Clark Street,43017,40.1045260,-83.1036697
4309,Clark Street,43017,40.1045277,-83.1037072
4313,Clark Street,43017,40.1045325,-83.1038151
4317,Clark Street,43017,40.1045341,-83.1038527
4301,Clark Street,43017,40.1045212,-83.1035606
4321,Clark Street,43017,40.1045390,-83.1039618
4266,Clark Street,43017,40.1035745,-83.1029212
4262,Clark Street,43017,40.1035758,-83.1029588
4258,Clark Street,43017,40.1035795,-83.1030668
4254,Clark Street,43017,40.1035808,-83.1031044
4270,Clark Street,43017,40.1035707,-83.1028121
4250,Clark Street,43017,40.1035845,-83.1032136
4313,North Oval Street,43017,40.1031788,-83.1038637
4317,North Oval Street,43017,40.1031801,-83.1039013
4321,North Oval Street,43017,40.1031838,-83.1040093
4325,North Oval Street,43017,40.1031851,-83.1040468
4309,North Oval Street,43017,40.1031750,-83.1037545
4329,North Oval Street,43017,40.1031888,-83.1041560
4337,North Oval Street,43017,40.1031965,-83.1043854
4341,North Oval Street,43017,40.1031978,-83.1044230
4345,North Oval Street,43017,40.1032015,-83.1045310
4349,North Oval Street,43017,40.1032028,-83.1045685
4333,North Oval Street,43017,40.1031927,-83.1042762
4353,North Oval Street,43017,40.1032065,-83.1046777
4334,North Oval Street,43017,40.1035217,-83.1042548
4338,North Oval Street,43017,40.1035255,-83.1043639
4342,North Oval Street,43017,40.1035268,-83.1044015
4346,North Oval Street,43017,40.1035305,-83.1045095
4350,North Oval Street,43017,40.1035318,-83.1045471
4354,North Oval Street,43017,40.1035356,-83.1046563
4210,South Oval Street,43017,40.1027944,-83.1037737
4214,South Oval Street,43017,40.1027982,-83.1038828
4218,South Oval Street,43017,40.1027995,-83.1039204
4222,South Oval Street,43017,40.1028032,-83.1040284
4226,South Oval Street,43017,40.1028045,-83.1040659
4230,South Oval Street,43017,40.1028083,-83.1041751
4234,South Oval Street,43017,40.1028128,-83.1042995
4238,South Oval Street,43017,40.1028166,-83.1044087
4242,South Oval Street,43017,40.1028179,-83.1044463
4246,South Oval Street,43017,40.1028216,-83.1045543
4250,South Oval Street,43017,40.1028229,-83.1045918
4254,South Oval Street,43017,40.1028267,-83.1047010
4137,Clark Street,43017,40.1031106,-83.1034207
4127,Clark Street,43017,40.1029702,-83.1034296
4117,Clark Street,43017,40.1028298,-83.1034385
6729,Rush Street,43017,40.1052674,-83.1074176
6739,Rush Street,43017,40.1052753,-83.1076011
6719,Rush Street,43017,40.1052594,-83.1072341
4306,Clark Street,43017,40.1048440,-83.1036870
4316,Clark Street,43017,40.1048519,-83.1038705
4296,Clark Street,43017,40.1048361,-83.1035035
4342,Clark Street,43017,40.1048753,-83.1043847
4352,Clark Street,43017,40.1048832,-83.1045682
4332,Clark Street,43017,40.1048673,-83.1042012
4372,Clark Street,43017,40.1049068,-83.1050818
4382,Clark Street,43017,40.1049147,-83.1052653
4362,Clark Street,43017,40.1048989,-83.1048983
4402,Clark Street,43017,40.1049383,-83.1057788
4412,Clark Street,43017,40.1049463,-83.1059623
4392,Clark Street,43017,40.1049304,-83.1055953
6636,Egg Court,43017,40.1035861,-83.1069723
6646,Egg Court,43017,40.1035940,-83.1071558
6626,Egg Court,43017,40.1035782,-83.1067888
6665,Egg Court,43017,40.1031017,-83.1068045
6675,Egg Court,43017,40.1029613,-83.1068149
6655,Egg Court,43017,40.1032421,-83.1067941
6656,Egg Court,43017,40.1032590,-83.1071991
6666,Egg Court,43017,40.1031186,-83.1072095
6676,Egg Court,43017,40.1029783,-83.1072199
6673,Rush Street,43017,40.1044665,-83.1065189
6683,Rush Street,43017,40.1046069,-83.1065085
6663,Rush Street,43017,40.1043261,-83.1065293
6652,Rush Street,43017,40.1041369,-83.1061252
6656,Rush Street,43017,40.1041656,-83.1061231
6644,Rush Street,43017,40.1040256,-83.1061334
6648,Rush Street,43017,40.1040543,-83.1061313
6640,Rush Street,43017,40.1039403,-83.1060989
6660,Rush Street,43017,40.1042474,-83.1060764
6668,Rush Street,43017,40.1044203,-83.1061034
6672,Rush Street,43017,40.1044490,-83.1061013
6676,Rush Street,43017,40.1045316,-83.1060952
6680,Rush Street,43017,40.1045603,-83.1060931
6664,Rush Street,43017,40.1043369,-83.1061095
6684,Rush Street,43017,40.1046438,-83.1060870
6700,Perimeter Loop Road,43017,40.1029705,-83.1562181
63,South High Street,43017,40.0982536,-83.1137606
5700,Perimeter Drive,43017,40.1035011,-83.1437271
6562,Riverside Drive,43017,40.1014492,-83.1095780
5515,Parkcenter Circle,43017,40.0813988,-83.1309850
5170,Tuttle Crossing Boulevard,43016,40.0769598,-83.1300829
5150,Tuttle Crossing Boulevard,43016,40.0770807,-83.1288354
655,Metro Place South,43017,40.0948523,-83.1352318
6255,Frantz Road,43017,40.0943996,-83.1257779
5100,Upper Metro Place,43017,40.0982942,-83.1270966
500,Metro Place North,43017,40.0968109,-83.1296509
450,Metro Place North,43017,40.0966206,-83.1282950
3825,Hard Road,43016,40.1170003,-83.0929062
50,West Bridge Street,43017,40.0997511,-83.1152400
8300,Hyland-Croy Road,43016,40.1342828,-83.1774392
6805,Bobcat Way,43016,40.1085867,-83.1856503
6601,Dublin Center Drive,43017,40.1025149,-83.0944847
6500,Emerald Parkway,43016,40.0798751,-83.1405419
7175,Avery Road,43017,40.1171353,-83.1601227
7575,Avery Road,43017,40.1179740,-83.1585094
6285,Sawmill Road,43017,40.0950497,-83.0930559
3750,West Dublin Granville Road,43017,40.0978200,-83.0921315
3750,West Dublin Granville Road,43017,40.0977060,-83.0919933
6451,Sawmill Road,43017,40.0983365,-83.0919312
6465,Sawmill Road,43017,40.0986971,-83.0918196
6477,Sawmill Road,43017,40.0989438,-83.0919133
6495,Sawmill Road,43017,40.0993031,-83.0917357
3800,West Dublin Granville Road,43017,40.0987580,-83.0931517
6515,Sawmill Road,43017,40.0999793,-83.0920486
6525,Sawmill Road,43017,40.1002784,-83.0933653
6547,Sawmill Road,43017,40.1006869,-83.0933175
6569,Sawmill Road,43017,40.1012478,-83.0932890
6611,Sawmill Road,43017,40.1014419,-83.0918210
6608,Dublin Center Drive,43017,40.1029316,-83.0932044
6671,Village Parkway,43017,40.1038335,-83.0976922
6715,Sawmill Road,43017,40.1038505,-83.0922652
6755,Sawmill Road,43017,40.1047400,-83.0921726
3850,Tuller Road,43017,40.1074841,-83.0922027
3830,Tuller Road,43017,40.1069825,-83.0920772
3800,Tuller Road,43017,40.1062975,-83.0920708
3890,Tuller Road,43017,40.1081820,-83.0944721
3920,Tuller Road,43017,40.1082431,-83.0961011
3950,Tuller Road,43017,40.1083293,-83.0972987
6669,Dublin Center Drive,43017,40.1049068,-83.0943884
6505,Dublin Center Drive,43017,40.0993940,-83.0949818
6555,Dublin Center Drive,43017,40.1009180,-83.0963572
6500,Shamrock Boulevard,43017,40.1010455,-83.0998515
6700,Village Parkway,43017,40.1054297,-83.0977995
4270,Tuller Road,43017,40.1083145,-83.1036495
4236,Tuller Road,43017,40.1088661,-83.1029327
4242,Tuller Road,43017,40.1086275,-83.1029317
4260,Tuller Road,43017,40.1082032,-83.1029642
4230,Tuller Road,43017,40.1088674,-83.1024860
4266,Tuller Road,43017,40.1080021,-83.1029395
4248,Tuller Road,43017,40.1084104,-83.1029498
4254,Tuller Road,43017,40.1082143,-83.1026772
4300,Tuller Road,43017,40.1085188,-83.1045891
4444,Tuller Road,43017,40.1082648,-83.1089623
6924,Riverside Drive,43017,40.1081853,-83.1100435
4555,West Dublin Granville Road,43017,40.0990892,-83.1076314
4370,Dale Drive,43017,40.1015982,-83.1059972
1,Dave Thomas Boulevard,43017,40.1007281,-83.1039467
4070,West Dublin Granville Road,43017,40.0995798,-83.0988550
4056,West Dublin Granville Road,43017,40.0996131,-83.0985117
4387,Clark Street,43017,40.1047490,-83.1065760
4375,Clark Street,43017,40.1047232,-83.1060059
4371,Clark Street,43017,40.1047049,-83.1055976
6652,Egg Court,43017,40.1033990,-83.1072265
6651,Egg Court,43017,40.1033756,-83.1066910
4206,Oval Street,43017,40.1026925,-83.1035397
4305,Oval Street,43017,40.1032583,-83.1035062
6678,Division Street,43017,40.1045556,-83.1052289
4281,Clark Street,43017,40.1044771,-83.1034643
6715,Rush Street,43017,40.1051964,-83.1070658
4246,Clark Street,43017,40.1035900,-83.1033225
4272,Clark Street,43017,40.1039165,-83.1033020
6600,Egg Court,43017,40.1028172,-83.1067312
32,West Bridge Street,43017,40.0996521,-83.1146969
45,High Street,43017,40.1004532,-83.1143598
52,High Street,43017,40.1006017,-83.1144196
40,High Street,43017,40.1005258,-83.1137365
4260,Tuller Ridge Drive,43017,40.1047316,-83.1028812
4075,West Dublin Granville Road,43017,40.0987834,-83.0995748
55,High Street,43017,40.0984232,-83.1139428
4497,Hard Road,43016,40.1203751,-83.1083598
6707,Sawmill Road,43017,40.1034398,-83.0919330
7001,Dublin Park Drive,43016,40.1006106,-83.1873731
5200,Emerald Parkway,43017,40.1047574,-83.1339345
6036,Glenfinnan Court,43017,40.1390480,-83.1509280
5160,Tuttle Crossing Boulevard,43016,40.0770704,-83.1293541
6077,Frantz Road,43017,40.0914090,-83.1262248
6400,Emerald Parkway,43016,40.0817698,-83.1406253
5555,Perimeter Drive,43017,40.1018702,-83.1390592
6665,Perimeter Loop Road,43017,40.1014194,-83.1584115
6830,Perimeter Loop Road,43017,40.1038087,-83.1593059
6271,Perimeter Drive,43017,40.1043494,-83.1594074
6315,Perimeter Drive,43016-9359,40.1044165,-83.1606263
260,Cramer Creek Court,43017,40.0851347,-83.1210443
6300,Frantz Road,43017,40.0951435,-83.1242916
6400,Post Road,43016,40.1080137,-83.1625700
7135,Coffman Road,43017,40.1141321,-83.1335787
7195,Coffman Road,43017,40.1162966,-83.1327220
6321,Perimeter Loop Road,43017,40.1019966,-83.1509702
25,"North Street, Ste 117C",43017,40.1340867,-83.1586358
8391,Nemain Loop,43016,40.1370318,-83.1837886
7454,Barrister Drive,43016,40.1196925,-83.1751306
5400,Avery Road,43016,40.0761255,-83.1562551
7625,Hospital Drive,43016,40.1037851,-83.1711630
5500,Tuttle Crossing Boulevard,43016,40.0755292,-83.1437390
337,West Bridge Street,43017-2124,40.0986920,-83.1235813
5000,Upper Metro Place,43017,40.0984967,-83.1253669
435,Metro Place South,43017,40.0926831,-83.1260847
5950,Sells Mill Drive,43017,40.1160240,-83.1501494
4450,Dale Drive,43017,40.1015043,-83.1067762
6555,Shier Rings Road,43016,40.0938209,-83.1675120
7592,Coventry Woods Drive North,43017,40.1224007,-83.1237013
4270,John Shields Parkway,43017,40.1062662,-83.1043607
6100,Emerald Parkway,43106,40.0902287,-83.1394660
7575,Riverside Drive,43016,40.1205613,-83.1118026
7809`,Holliston Court,43016,40.1282727,-83.1105279
7801,Holliston Court,43016,40.1279913,-83.1104804
7817,Holliston Court,43016,40.1285758,-83.1106153
6397,Emerald Parkway,43016,40.0815355,-83.1425300
4475,Bridge Park Avenue,43017,40.1022084,-83.1081239
8670,Muirfield Drive,43017,40.1393705,-83.1515102
6450,Eiterman Road,43016,40.1009184,-83.1734977
5825,Brand Road,43017,40.1260663,-83.1474560
4400,Emerald Parkway,43016,40.1120550,-83.1080329
4303,Bright,43016,40.1111743,-83.1025795
116,Longview Drive,43017,40.0917406,-83.1169772
141,Marion Street,43017,40.0924206,-83.1173747
38,Marion Street,43017,40.0928251,-83.1141369
345,South High Street,43017,40.0923224,-83.1136810
367,South High Street,43017,40.0919356,-83.1138707
32,Marion Street,43017,40.0928635,-83.1137866
355,South High Street,43017,40.0921453,-83.1137432
265,Franklin Street,43017,40.0938112,-83.1155408
310,Franklin Street,43017,40.0932972,-83.1145163
280,Franklin Street,43017,40.0935870,-83.1145329
250,Franklin Street,43017,40.0938302,-83.1145418
166,Marion Street,43017,40.0940930,-83.1179757
178,Marion Street,43017,40.0939477,-83.1187316
154,Marion Street,43017,40.0941497,-83.1172691
190,Marion Street,43017,40.0932475,-83.1182637
140,Marion Street,43017,40.0931722,-83.1173136
200,Marion Street,43017,40.0931863,-83.1187754
303,Monsarrat Drive,43017,40.0914271,-83.1201736
325,Monsarrat Drive,43017,40.0911125,-83.1201944
64,Longview Drive,43017,40.0916724,-83.1157950
15,Grandview Drive,43017,40.0901801,-83.1148411
122,Grandview Drive,43017,40.0907037,-83.1174381
129,Longview Drive,43017,40.0911815,-83.1173263
93,Grandview Drive,43017,40.0901965,-83.1166513
106,Marion Street,43017,40.0929166,-83.1160282
177,Longview Drive,43017,40.0912919,-83.1186842
125,Marion Street,43017,40.0923326,-83.1167941
141,Grandview Drive,43017,40.0902342,-83.1179156
95,Longview Drive,43017,40.0911283,-83.1163485
162,Longview Drive,43017,40.0918037,-83.1182174
74,Grandview Drive,43017,40.0906806,-83.1161209
30,Longview Drive,43017,40.0916120,-83.1147412
37,Longview Drive,43017,40.0910739,-83.1148170
278,Monsarrat Drive,43017,40.0918518,-83.1196027
54,Grandview Drive,43017,40.0907191,-83.1155950
89,Marion Street,43017,40.0924079,-83.1158559
147,Longview Drive,43017,40.0912377,-83.1177680
253,Monsarrat Drive,43017,40.0925125,-83.1200563
120,Marion Street,43017,40.0929637,-83.1165263
163,Longview Drive,43017,40.0912244,-83.1182797
113,Longview Drive,43017,40.0911678,-83.1168521
199,Marion Street,43017,40.0924925,-83.1186785
187,Grandview Drive,43017,40.0902734,-83.1192113
191,Longview Drive,43017,40.0913122,-83.1191068
134,Grandview Drive,43017,40.0907457,-83.1178333
34,Grandview Drive,43017,40.0907086,-83.1151428
148,Longview Drive,43017,40.0918144,-83.1178075
57,Longview Drive,43017,40.0911014,-83.1153790
20,Grandview Drive,43017,40.0906546,-83.1145151
287,Monsarrat Drive,43017,40.0918102,-83.1201235
86,Longview Drive,43017,40.0916845,-83.1161619
160,Grandview Drive,43017,40.0907213,-83.1182854
194,Longview Drive,43017,40.0918745,-83.1190116
207,Marion Street,43017,40.0925016,-83.1190267
181,Marion Street,43017,40.0925022,-83.1183338
39,Grandview Drive,43017,40.0901796,-83.1153628
50,Marion Street,43017,40.0928939,-83.1145497
155,Marion Street,43017,40.0924265,-83.1176955
316,Monsarrat Drive,43017,40.0913107,-83.1196299
35,Marion Street,43017,40.0922440,-83.1144160
59,Grandview Drive,43017,40.0901599,-83.1157846
338,Monsarrat Drive,43017,40.0909618,-83.1196788
252,Monsarrat Drive,43017,40.0924846,-83.1194730
75,Marion Street,43017,40.0923906,-83.1155203
98,Grandview Drive,43017,40.0907316,-83.1165225
74,Marion Street,43017,40.0929253,-83.1151489
121,Grandview Drive,43017,40.0902257,-83.1174605
100,Longview Drive,43017,40.0917333,-83.1165869
173,Grandview Drive,43017,40.0902653,-83.1187780
110,Grandview Drive,43017,40.0907248,-83.1169656
111,Grandview Drive,43017,40.0902174,-83.1171095
75,Longview Drive,43017,40.0911158,-83.1158997
75,Grandview Drive,43017,40.0901890,-83.1162346
164,Grandview Drive,43017,40.0907384,-83.1187615
225,Monsarrat Drive,43017,40.0930566,-83.1194938
155,Grandview Drive,43017,40.0902433,-83.1183508
50,Longview Drive,43017,40.0916296,-83.1152048
55,Marion Street,43017,40.0923552,-83.1148500
105,Marion Street,43017,40.0923205,-83.1161568
65,Marion Street,43017,40.0923140,-83.1152020
192,Grandview Drive,43017,40.0907725,-83.1191547
20,Longview Drive,43017,40.0915867,-83.1142083
363,Monsarrat Drive,43017,40.0903526,-83.1198388
271,Monsarrat Drive,43017,40.0921473,-83.1200952
15,Longview Drive,43017,40.0910435,-83.1143599
178,Longview Drive,43017,40.0918405,-83.1186251
138,Longview Drive,43017,40.0917808,-83.1174075
76,Marion Street,43017,40.0928841,-83.1154771
247,Monsarrat Drive,43017,40.0928509,-83.1198665
5610,Loch More Court West,43017-9621,40.1497989,-83.1435381
5602,Loch More Court West,43017,40.1499046,-83.1433164
5618,Loch More Court West,43017,40.1496542,-83.1437905
8015,Riverside Drive,43016,40.1323634,-83.1142471
7462,Barrister Drive,43016,40.1199341,-83.1751645
6364,Frantz Road,43017,40.0972096,-83.1235786
6314,Angeles Drive,43016,40.1167093,-83.1614858
6700,Sycamore Ridge Boulevard,43017,40.1050025,-83.1067576
4272,Mccune Avenue,43017,40.1068868,-83.1043217
4299,John Shields Parkway,43017,40.1054285,-83.1053161
6906,Deardorff Street,43017,40.1070426,-83.1025323
6908,Deardorff Street,43017,40.1070816,-83.1034743
6846,Deardorff Street,43017,40.1062068,-83.1025858
6848,Deardorff Street,43017,40.1062457,-83.1035258
4128,John Shields Parkway,43017,40.1063460,-83.1005880
4132,John Shields Parkway,43017,40.1063431,-83.1006674
4136,John Shields Parkway,43017,40.1063294,-83.1007446
4148,John Shields Parkway,43017,40.1063100,-83.1009799
4144,John Shields Parkway,43017,40.1063128,-83.1009014
4140,John Shields Parkway,43017,40.1063265,-83.1008238
226,Monterey Drive,43017,40.0935993,-83.1197610
6645,Village Parkway,43017,40.1027476,-83.0975533
4216,John Shields Parkway,43017,40.1060064,-83.1020520
4212,John Shields Parkway,43017,40.1060331,-83.1019807
4208,John Shields Parkway,43017,40.1060491,-83.1019043
4204,John Shields Parkway,43017,40.1060759,-83.1018327
4200,John Shields Parkway,43017,40.1060921,-83.1017560
4196,John Shields Parkway,43017,40.1061188,-83.1016847
4192,John Shields Parkway,43017,40.1061349,-83.1016082
4180,John Shields Parkway,43017,40.1061756,-83.1014868
4176,John Shields Parkway,43017,40.1061922,-83.1014105
4172,John Shields Parkway,43017,40.1062186,-83.1013392
4168,John Shields Parkway,43017,40.1062400,-83.1012655
4164,John Shields Parkway,43017,40.1062565,-83.1011890
4160,John Shields Parkway,43017,40.1062828,-83.1011180
6848,Holcomb Street,43017,40.1062436,-83.1021601
6852,Holcomb Street,43017,40.1063042,-83.1021640
6856,Holcomb Street,43017,40.1063643,-83.1021537
6860,Holcomb Street,43017,40.1064251,-83.1021576
6864,Holcomb Street,43017,40.1064848,-83.1021472
4193,McCune Avenue,43017,40.1065090,-83.1017138
4197,McCune Avenue,43017,40.1065057,-83.1017931
4201,McCune Avenue,43017,40.1064923,-83.1018703
4157,McCune Avenue,43017,40.1065780,-83.1010604
4153,McCune Avenue,43017,40.1065918,-83.1009830
4161,McCune Avenue,43017,40.1065697,-83.1011388
4165,McCune Avenue,43017,40.1065668,-83.1012173
4185,McCune Avenue,43017,40.1065229,-83.1015823
4181,McCune Avenue,43017,40.1065362,-83.1015051
4173,McCune Avenue,43017,40.1065528,-83.1013485
4177,McCune Avenue,43017,40.1065396,-83.1014257
4080,West Dublin Granville Road,43017,40.0995182,-83.0993754
7121,Muirfield Drive,43017,40.1138093,-83.1551145
5754,Rushwood Drive,43017,40.1296328,-83.1309574
8715,Muirfield Drive,43017,40.1398090,-83.1550578
5750,Memorial Drive,43017,40.1442738,-83.1414161
6780,Coffman Road,43017,40.1072326,-83.1305262
5175,Post Road,43017,40.1007983,-83.1304155
8300,Hyland-Croy Road,43016,40.1347523,-83.1760204
7500,Hospital Drive,43016,40.1021278,-83.1667042
