House number,Street name,Postal code,Latitude,Longitude
132,East Crawford Street,45840,41.0378991,-83.6486431
700,Trenton Avenue,45840,41.0590394,-83.6622741
321,South Main Street,45840,41.0383685,-83.6500312
1050,Interstate Court,45840-1900,41.0600976,-83.6706594
1932,Tiffin Avenue,45840,41.0539758,-83.6095250
2021,Broad Avenue,45840,41.0643019,-83.6636138
1045,Tiffin Avenue,45840,41.0483453,-83.6309925
437,East Sandusky Street,45840,41.0367464,-83.6426355
214,South Main Street,45840,41.0399558,-83.6506912
219,Broadway Street,45840,41.0397709,-83.6509544
1803,Tiffin Avenue,45840,41.0527576,-83.6140642
1813,Tiffin Avenue,45840,41.0521245,-83.6136055
608,South Main Street,45840,41.0352864,-83.6504279
1901,South Main Street,45840,41.0169592,-83.6496839
101,6th Street,45840,41.0222979,-83.6498185
516,South Main Street,45840,41.0364445,-83.6504702
229,South Main Street,45840,41.0395866,-83.6500186
201,East Crawford Street,45840,41.0376084,-83.6483065
1925,Tiffin Avenue,45840,41.0519654,-83.6103682
1926,Tiffin Avenue,45840,41.0547591,-83.6098651
1016,North Blanchard Street,45840,41.0532283,-83.6403610
1016,North Blanchard Street,45840,41.0531009,-83.6405930
7519,Patriot Drive,45840,41.0580098,-83.5897075
7450,Timberstone Drive,45840,41.0601065,-83.5964283
15085,Flag City Drive,45840,41.0584106,-83.5911799
20320,Tiffin Avenue,45840,41.0571476,-83.5966898
507,South Main Street,45840,41.0367839,-83.6500802
1215,West Main Cross Street,45840,41.0406771,-83.6691916
1161,Trenton Avenue,45840,41.0560927,-83.6723981
136,North Main Street,45840,41.0426737,-83.6504777
110,East Sandusky Street,45840,41.0371572,-83.6495308
2500,Tiffin Avenue,45840,41.0570165,-83.5950597
116,East Sandusky Street,45840,41.0371392,-83.6492308
118,East Sandusky Street,45840,41.0371405,-83.6491438
114,East Sandusky Street,45840,41.0371493,-83.6494292
203,East Crawford Street,45840,41.0375683,-83.6483067
1733,South Main Street,45840,41.0187166,-83.6499820
410,East Sandusky Street,45840,41.0370883,-83.6434830
439,East Sandusky Street,45840,41.0367262,-83.6425697
441,East Sandusky Street,45840,41.0367191,-83.6423900
625,Mount Blanchard Road,45840,41.0353878,-83.6410127
1757,Tiffin Avenue,45840,41.0519952,-83.6145224
2415,North Main Street,45839,41.0696464,-83.6482937
2515,North Main Street,45840,41.0689607,-83.6494516
2602A,North Main Street,45840,41.0702064,-83.6502724
504,East Sandusky Street,45840,41.0370526,-83.6408667
117,West Sandusky Street,45840,41.0369312,-83.6512618
119,West Sandusky Street,45840,41.0369284,-83.6513460
123,West Sandusky Street,45840,41.0369274,-83.6514345
423,North Main Street,45840,41.0463148,-83.6499284
2703,North Main Street,45840,41.0715431,-83.6493431
3900,Ventura Drive,45840,41.0873694,-83.6543349
2542,Tiffin Avenue,45840,41.0562444,-83.5933306
1042,Interstate Court,45840,41.0600922,-83.6702847
510,South Main Street,45840,41.0367140,-83.6504863
111,East Sandusky Street,45840,41.0369449,-83.6494619
1208,Tiffin Avenue,45840,41.0498502,-83.6282741
1051,Tiffin Avenue,45840,41.0484337,-83.6307674
1212,Tiffin Avenue,45840,41.0498718,-83.6282012
1200,Tiffin Avenue,45840,41.0498087,-83.6285030
316,West Sandusky Street,45840,41.0372702,-83.6547145
540,South Main Street,45840,41.0359092,-83.6504928
513,South Main Street,45840,41.0366226,-83.6500789
406,South Main Street,45840,41.0375227,-83.6504793
404,South Main Street,45840,41.0375975,-83.6504917
328,South Main Street,45840,41.0381477,-83.6504775
407,South Main Street,45840,41.0374936,-83.6500398
113,West Crawford Street,45840,41.0376820,-83.6507836
117,West Crawford Street,45840,41.0376728,-83.6509816
403,South Main Street,45840,41.0376242,-83.6499818
1926,Tiffin Avenue,45840,41.0547378,-83.6100315
1922,Tiffin Avenue,45840,41.0546873,-83.6104259
1924,Tiffin Avenue,45840,41.0547151,-83.6102089
1996,Tiffin Avenue,45840,41.0553385,-83.6068221
125,West Sandusky Street,45840,41.0369347,-83.6515660
122,East Sandusky Street,45840,41.0371396,-83.6490150
316,East Sandusky Street,45840,41.0371108,-83.6460198
106,South Main Street,45840,41.0408545,-83.6504910
340,Glessner Avenue,45840,41.0393739,-83.6667236
1207,West Main Cross Street,45840-2424,41.0406722,-83.6690783
807,West Sandusky Street,45840,41.0366397,-83.6619902
809,West Sandusky Street,45840,41.0365498,-83.6619880
811,West Sandusky Street,45840,41.0364565,-83.6619880
730,West Main Cross Street,45840,41.0402601,-83.6612588
621,Bright Road,45840,41.0476313,-83.6057645
2215,North Main Street,45840,41.0663625,-83.6494572
1702,Romick Parkway,45840,41.0646255,-83.6178185
117,East Crawford Street,45840,41.0376617,-83.6494347
213,East Crawford Street,45840,41.0376319,-83.6478561
119,East Crawford Street,45840,41.0376620,-83.6492415
317,South Main Street,45840,41.0385853,-83.6500290
319,South Main Street,45840,41.0384872,-83.6500346
111,West Crawford Street,45840,41.0376810,-83.6508765
129,East Crawford Street,45840,41.0372552,-83.6486333
124,East Sandusky Street,45840,41.0371390,-83.6489592
120,East Sandusky Street,45840,41.0371400,-83.6490747
1801,Tiffin Avenue,45840,41.0527194,-83.6141635
1819,Tiffin Avenue,45840,41.0528470,-83.6129290
1815,Tiffin Avenue,45840,41.0528358,-83.6130507
1926,Tiffin Avenue,45840,41.0547469,-83.6099605
1987,Tiffin Avenue,45839,41.0604547,-83.5959562
2200,Tiffin Avenue,45840,41.0565478,-83.5996646
1818,Chapel Drive,45840,41.0175031,-83.6541320
1818,Chapel Drive,45840,41.0175688,-83.6538727
322,South Main Street,45840,41.0382822,-83.6504702
408,South Main Street,45840,41.0373986,-83.6504836
720 1/2,West Main Cross Street,45840,41.0402871,-83.6609517
728 1/2,West Main Cross Street,45840,41.0402543,-83.6612136
728,West Main Cross Street,45840,41.0402476,-83.6611635
613,Bright Road,45840,41.0478372,-83.6057227
811,Wyandot Street,45840,41.0329019,-83.6371666
809,Wyandot Street,45840,41.0329030,-83.6372027
805,Wyandot Street,45840,41.0329082,-83.6373637
807,Wyandot Street,45840,41.0329068,-83.6373196
1207,Tiffin Avenue,45840,41.0491322,-83.6278047
1203,Tiffin Avenue,45840,41.0490942,-83.6279497
122,East Sandusky Street,45840,41.0371734,-83.6490159
109,East Sandusky Street,45840,41.0369369,-83.6496305
2018,Tiffin Avenue,45840,41.0546639,-83.6047149
2028,Tiffin Avenue,45840,41.0548531,-83.6033649
1500,North Main Street,45840,41.0592540,-83.6507863
530 1/2,Hull Avenue,45840,41.0540594,-83.6392619
1645,Tiffin Avenue,45840,41.0518465,-83.6181865
1637,Tiffin Avenue,45840,41.0517515,-83.6188195
1815,Tiffin Avenue,45840,41.0526839,-83.6135852
1819,Tiffin Avenue,45840,41.0527183,-83.6133840
105,East Sandusky Street,45840,41.0369404,-83.6497622
216,Clifton Avenue,45840,41.0617004,-83.6537490
220,Clifton Avenue,45840,41.0617081,-83.6538467
208,Clifton Avenue,45840,41.0617103,-83.6533475
212,Clifton Avenue,45840,41.0617119,-83.6534420
3730,Speedway Drive,45840,41.0870366,-83.6570297
540,South Main Street,45840,41.0358462,-83.6511387
524,South Main Street,45840,41.0362367,-83.6504683
520,South Main Street,45840,41.0362910,-83.6504716
520,South Main Street,45840,41.0363342,-83.6504767
119 1/2,West Sandusky Street,45840,41.0369334,-83.6513017
1301,East Sandusky Street,45840,41.0363718,-83.6253686
618,South Main Street,45840,41.0349515,-83.6506399
129.5,West Sandusky Street,45840,41.0369219,-83.6516909
508,West Trenton Avenue,45840,41.0591116,-83.6588436
616,North Blanchard Street,45840,41.0482339,-83.6420794
208,East Sandusky Street,45840,41.0371360,-83.6481470
3200,Bright Road,45840,41.0780853,-83.6198869
750,Bright Road,45840,41.0497393,-83.6074992
1105,Bernard Avenue,45840,41.0544773,-83.6321972
1950,Tiffin Avenue,45840,41.0551827,-83.6090512
1996,Tiffin Avenue,45840,41.0555563,-83.6067867
1971,Tiffin Avenue,45840,41.0533820,-83.6084058
3430,North Main Street,45840,41.0823895,-83.6529376
15000,Country Club Drive,45840,41.0429889,-83.6199390
1200-1216,Tiffin Avenue,45840,41.0499062,-83.6283672
1115,Tiffin Avenue,45840,41.0489643,-83.6290309
1217,Tiffin Avenue,45840,41.0491171,-83.6275292
1132,Tiffin Avenue,45840,41.0495721,-83.6289613
500,Tiffin Avenue,45840,41.0459241,-83.6410259
800,West Trenton Avenue,45840,41.0593494,-83.6652131
1103,West Trenton Avenue,45840-1919,41.0582106,-83.6718317
753,West Trenton Avenue,45840,41.0583793,-83.6640704
740,West Trenton Avenue,45840,41.0589862,-83.6635179
731,West Trenton Avenue,45840,41.0581981,-83.6633785
717,West Trenton Avenue,45840,41.0583254,-83.6625880
536,West Trenton Avenue,45840,41.0590855,-83.6593063
1801,Broad Avenue,45840,41.0618958,-83.6639546
2021,Broad Avenue,45840,41.0644415,-83.6635416
903,Interstate Drive,45840,41.0630659,-83.6683249
906,Interstate Drive,45840,41.0650118,-83.6674155
1161,West Trenton Avenue,45840,41.0556774,-83.6727011
2200,Tiffin Avenue,45840,41.0570412,-83.5998070
15080,Flag City Drive,45840,41.0594678,-83.5914546
3500,North Main Street,45840,41.0828709,-83.6504954
3480,North Main Street,45840,41.0824379,-83.6503758
3441,North Main Street,45840,41.0828171,-83.6483236
1801,Production Drive,45840,41.0686281,-83.6161801
2738,North Main Street,45840,41.0730115,-83.6505285
2720,North Main Street,45840,41.0724047,-83.6505741
2727,North Main Street,45840,41.0727785,-83.6494839
2000,Tiffin Avenue,45839,41.0547680,-83.6050762
2018,Tiffin Avenue,45840,41.0548470,-83.6046255
1978,Tiffin Avenue,45840,41.0542385,-83.6073376
1920,Tiffin Avenue,45840,41.0538761,-83.6103361
1921,Tiffin Avenue,45840,41.0531674,-83.6101987
806,Bright Road,45840,41.0514186,-83.6080534
2220,Tiffin Avenue,45840,41.0554895,-83.5988897
1155,Croy Drive,45840,41.0555736,-83.6104084
1077,Bright Road,45840,41.0576317,-83.6039450
1700,Tiffin Avenue,45840-6834,41.0529767,-83.6171701
1735,Tiffin Avenue,45840,41.0524719,-83.6155279
1970,Tiffin Avenue,45840,41.0542059,-83.6077922
1231,Fostoria Avenue,45840,41.0504547,-83.6279361
1016,Tiffin Avenue,45840,41.0490323,-83.6316434
950,North Main Street,45840,41.0524779,-83.6507117
1001,North Cory Street,45840,41.0532967,-83.6523023
514,North Main Street,45840,41.0473112,-83.6505401
401,North Main Street,45840,41.0455942,-83.6498120
206,Broadway Street,45840,41.0400367,-83.6516186
200,South Main Street,45840,41.0401889,-83.6506886
471,East Main Cross Street,45840,41.0393385,-83.6415482
339,South Blanchard Street,45840,41.0381448,-83.6408695
452,East Sandusky Street,45840,41.0371030,-83.6418173
510,Mount Blanchard Road,45840,41.0364155,-83.6416531
400,West Main Cross Street,45840,41.0398266,-83.6553052
1220,Tiffin Avenue,45840,41.0501800,-83.6277975
318,Dorney Plaza,45840,41.0384343,-83.6516768
229,West Main Cross Street,45840,41.0387980,-83.6531869
200,West Crawford Street,45840,41.0381630,-83.6524302
301,West Main Cross Street,45840,41.0388510,-83.6541337
617,West Main Cross Street,45840,41.0394882,-83.6595841
600,South Main Street,45840,41.0355818,-83.6505944
101,West Sandusky Street,45840,41.0368189,-83.6508235
101,South Main Street,45840,41.0368922,-83.6499151
101,6th Street,45840,41.0220233,-83.6487712
418,South Main Street,45840,41.0372136,-83.6507346
414,South Main Street,45840,41.0373130,-83.6507390
331,South Main Street,45840,41.0381114,-83.6498146
330,South Main Street,45840,41.0381365,-83.6506707
200,East Main Cross Street,45840,41.0393902,-83.6480114
124,West Front Street,45840,41.0407376,-83.6514461
123,East Main Cross Street,45840,41.0388973,-83.6488389
213,East Crawford Street,45840,41.0375325,-83.6478621
612,South Main Street,45840,41.0351218,-83.6507000
121,West Hardin Street,45840,41.0352877,-83.6514365
317,West Main Cross Street,45840,41.0388313,-83.6548293
1100,Broad Avenue,45840,41.0531719,-83.6656781
1637,Tiffin Avenue,45840,41.0516366,-83.6188056
2500,Tiffin Avenue,45840,41.0574591,-83.5943332
2330,Tiffin Avenue,45840,41.0572944,-83.5964595
2310,Tiffin Avenue,45840,41.0575261,-83.5975249
1400,Manor Hill Road,45840,41.0590311,-83.6067325
1450,Manor Hill Road,45840,41.0601958,-83.6065977
2121,Tiffin Avenue,45840,41.0540825,-83.6008533
330,North Cory Street,45840,41.0450920,-83.6524072
408,North Main Street,45840,41.0459154,-83.6505479
427,Tiffin Avenue,45840,41.0442815,-83.6432751
417,North Main Street,45840,41.0460221,-83.6495901
1619,West Main Cross Street,45840,41.0418144,-83.6765355
316,Emma Street,45840,41.0410973,-83.6749221
1107,Trenton Avenue,45840,41.0580077,-83.6709149
1111,West Trenton Avenue,45840,41.0572798,-83.6702574
806,West Trenton Avenue,45840,41.0591803,-83.6659805
1600,Broad Avenue,45840,41.0598342,-83.6652297
129,West Sandusky Street,45840,41.0368624,-83.6516935
2001,Tiffin Avenue,45840,41.0535893,-83.6052570
1995,Tiffin Avenue,45840,41.0536224,-83.6062415
1909,Tiffin Avenue,45840,41.0529875,-83.6116964
1905,Tiffin Avenue,45840,41.0529197,-83.6120788
1701,Tiffin Avenue,45840,41.0515319,-83.6168535
316,West Trenton Avenue,45840,41.0589844,-83.6547192
15110,Flag City Drive,45840,41.0595177,-83.5896533
14601,County Road 212,45840,41.0788513,-83.6035693
12000,Township Highway 99,45840,41.0889776,-83.6523652
708,Lima Avenue,45840,41.0275369,-83.6603952
800,Western Avenue,45840,41.0297061,-83.6606674
700,South Main Street,45840,41.0340121,-83.6507332
634,Rockwell Avenue,45840,41.0613294,-83.6612202
1951,Broad Avenue,45840,41.0630351,-83.6634545
2000,Broad Avenue,45840,41.0635313,-83.6650466
1051,Interstate Court,45840,41.0592831,-83.6707774
1700,Fostoria Avenue,45840,41.0588856,-83.6196813
1110,West Main Cross Street,45840,41.0417010,-83.6670860
1800,East Sandusky Street,45840,41.0374450,-83.6141431
1800,East Sandusky Street,45840,41.0374714,-83.6145874
1300,East Main Cross Street,45840,41.0420206,-83.6277360
5500,Fostoria Avenue,45840,41.0681261,-83.6001116
910,North Main Street,45840,41.0517323,-83.6504082
412,Lester Avenue,45840,41.0643930,-83.6571058
1225,Tiffin Avenue,45840,41.0493433,-83.6272908
1201,Tiffin Avenue,45840,41.0489237,-83.6279916
1016,North Blanchard Street,45840,41.0532083,-83.6405546
1800,North Blanchard Street,45840,41.0616624,-83.6427657
2225,Keith Parkway,45840,41.0661983,-83.6202651
1720,East Melrose Avenue,45840,41.0662013,-83.6196351
1328,Countryside Drive,45840,41.0561722,-83.6250725
1335,Countryside Drive,45840,41.0556486,-83.6251447
1366,Countryside Drive,45840,41.0556583,-83.6243992
1610,Fostoria Avenue,45840,41.0560138,-83.6215031
4500,Fostoria Avenue,45840,41.0657407,-83.6049995
524,West Melrose Avenue,45840,41.0662483,-83.6593757
516,Clifton Avenue,45840,41.0617064,-83.6586607
524,Clifton Avenue,45840,41.0617049,-83.6590724
528,Clifton Avenue,45840,41.0617032,-83.6592732
520,Clifton Avenue,45840,41.0617306,-83.6588670
508,Clifton Avenue,45840,41.0617083,-83.6582413
512,Clifton Avenue,45840,41.0617536,-83.6584495
1415,South Main Street,45840,41.0227594,-83.6498205
1415,South Main Street,45840,41.0227488,-83.6495714
3401,Technology Drive,45840,41.0816013,-83.6690004
1309,Broad Avenue,45840,41.0570625,-83.6641002
1220,Tiffin Avenue,45840,41.0499163,-83.6276782
920,Plaza Street,45840,41.0534885,-83.6167812
820,North Main Street,45840,41.0511417,-83.6506141
1020,Interstate Court,45840,41.0601880,-83.6695175
1424,East Main Cross Street,45840,41.0417479,-83.6232533
730,Hull Avenue,45840,41.0522043,-83.6350149
604,Balsley Avenue,45840,41.0513481,-83.6356059
2501,Tiffin Avenue,45840,41.0542038,-83.5941943
1200,Croy Drive,45840,41.0567961,-83.6107114
11814,SR 12,45840,41.0692859,-83.5936169
701,North Main Street,45840,41.0492625,-83.6494618
835,Western Avenue,45840,41.0317744,-83.6594152
1035,Western Avenue,45840,41.0291309,-83.6595107
1007,Western Avenue,45840,41.0298677,-83.6593167
1400,South Main Street,45840,41.0230678,-83.6508654
1960,Tiffin Avenue,45840,41.0552245,-83.6081996
510,West Main Cross Street,45840,41.0399862,-83.6573212
700,East Melrose Avenue,45840,41.0661339,-83.6392651
1245,Countryside Drive,45840,41.0559547,-83.6261671
1242,Countryside Drive,45840,41.0561930,-83.6265628
1252,Countryside Drive,45840,41.0563696,-83.6261916
1248,Countryside Drive,45840,41.0562692,-83.6264230
1300,Countryside Drive,45840,41.0564513,-83.6260275
1316,Countryside Drive,45840,41.0565593,-83.6252966
1219,West Trenton Avenue,45840,41.0582390,-83.6740379
1201,West Trenton Avenue,45840,41.0583170,-83.6734761
200,East Pearl Street,45840,41.0189384,-83.6541559
1818,Chapel Drive,45840,41.0175074,-83.6538681
207,East Crawford Street,45840,41.0375376,-83.6481132
316,East Sandusky Street,45840,41.0372161,-83.6460484
328,East Sandusky Street,45840,41.0372591,-83.6454767
214,West Sandusky Street,45840,41.0372805,-83.6527430
1800,Tiffin Avenue,45840,41.0542103,-83.6155500
408,Clifton Avenue,45840,41.0617185,-83.6565739
410,West Sandusky Street,45840,41.0372975,-83.6556212
1900,Manor Hill Road,45840,41.0630151,-83.6069218
2141,Bright Road,45840,41.0654273,-83.6166283
2414,North Main Street,45840,41.0683691,-83.6506323
921,Interstate Drive,45840,41.0611568,-83.6680620
520,West Bigelow Avenue,45840,41.0736391,-83.6591798
1331,North Main Street,45840,41.0577885,-83.6497269
1319,North Main Street,45840,41.0574639,-83.6495974
806,North Main Street,45840,41.0506431,-83.6505181
300,Davis Street,45840,41.0558283,-83.6542245
531,West Trenton Avenue,45840,41.0585130,-83.6588358
517,West Trenton Avenue,45840,41.0585500,-83.6587169
509,West Trenton Avenue,45840,41.0584968,-83.6582161
505,West Trenton Avenue,45840,41.0584736,-83.6580364
1039,North Main Street,45840,41.0540907,-83.6496999
1201,North Main Street,45840,41.0560321,-83.6496657
625,North Main Street,45840,41.0477982,-83.6497613
501,North Main Street,45840,41.0469766,-83.6498413
901,North Main Street,45840,41.0514516,-83.6497433
2113,Tiffin Avenue,45840,41.0540272,-83.6016135
301,West Wallace Street,45840,41.0167210,-83.6548731
1809,South Main Street,45840,41.0180582,-83.6497728
100,West Pearl Street,45840,41.0189886,-83.6508496
1222,North Cory Street,45840,41.0564852,-83.6530759
163,Frazer Street,45840,41.0526567,-83.6538013
235,Frazer Street,45840,41.0526304,-83.6535697
328-D,Defiance Avenue,45840,41.0496883,-83.6555620
2330,South Main Street,45840,41.0107766,-83.6517019
207,East Foulke Avenue,45840,41.0575471,-83.6471995
1315,Morey Avenue,45840,41.0574560,-83.6558345
1240,Countryside Drive,45840,41.0560566,-83.6266926
1304,Countryside Drive,45840,41.0565437,-83.6258786
1308,Countryside Drive,45840,41.0566108,-83.6256873
1312,Countryside Drive,45840,41.0566290,-83.6254629
1400,Countryside Drive,45840,41.0558680,-83.6242461
1320,Countryside Drive,45840,41.0564369,-83.6251375
1332,Countryside Drive,45840,41.0560363,-83.6249666
1324,Countryside Drive,45840,41.0562956,-83.6251084
1249,Countryside Drive,45840,41.0560242,-83.6259648
1329,Countryside Drive,45840,41.0558637,-83.6253795
1301,Countryside Drive,45840,41.0560179,-83.6257479
1315,Countryside Drive,45840,41.0559751,-83.6255323
1331,Countryside Drive,45840,41.0557467,-83.6252789
1334,Countryside Drive,45840,41.0559291,-83.6248768
1336,Countryside Drive,45840,41.0558059,-83.6247661
1346,Countryside Drive,45840,41.0557125,-83.6246176
445,East Main Cross Street,45840,41.0390013,-83.6426531
535,6th Street,45840,41.0221488,-83.6429397
709,Glessner Avenue,45840,41.0343862,-83.6676365
1977,South Main Street,45840,41.0161815,-83.6498412
"637,643,649,655",West Trenton Avenue,45840,41.0583899,-83.6615039
119,East Crawford Street,45840,41.0375512,-83.6492416
1211,Broad Avenue,45840,41.0557735,-83.6642449
126,Clifton Avenue,45840,41.0617558,-83.6513972
1918,North Main Street,45840,41.0632092,-83.6504523
1050,Interstate Drive West,45840,41.0645711,-83.6703585
300,Clifton Avenue,45840,41.0617637,-83.6549754
613,Bright Road,45840,41.0477447,-83.6057323
118,Clifton Avenue,45840,41.0617592,-83.6511005
342,West Trenton Avenue,45840,41.0589729,-83.6554572
1604,North Main Street,45840,41.0600233,-83.6502943
1620,North Main Street,45840,41.0605057,-83.6502909
1616,North Main Street,45840,41.0603848,-83.6503003
605,Balsley Avenue,45840,41.0509386,-83.6354726
754,Balsley Avenue,45840,41.0511758,-83.6363593
1147,Countryside Drive,45840,41.0550414,-83.6273615
1135,Countryside Drive,45840,41.0550813,-83.6275753
1149,Countryside Drive,45840,41.0549872,-83.6270775
1125,Countryside Drive,45840,41.0550212,-83.6279431
1131,Countryside Drive,45840,41.0550621,-83.6277616
1900,Soldier Drive,45840,41.0617932,-83.6134994
403,East Lincoln Street,45840,41.0339805,-83.6442474
1350,North Blanchard Street,45840,41.0576114,-83.6417895
1400,North Blanchard Street,45840,41.0580515,-83.6418716
911,East Sandusky Street,45840,41.0365283,-83.6319200
1205,East Sandusky Street,45840,41.0360811,-83.6262505
741,Timberview Drive,45840,41.0493134,-83.5902959
737,Timberview Drive,45840,41.0490640,-83.5902746
1303,Morey Avenue,45840,41.0569350,-83.6558153
1315,North Blanchard Street,45840,41.0571369,-83.6412845
1701,Mount Blanchard Road,45840,41.0248927,-83.6279199
706,West Main Cross Street,45840,41.0402701,-83.6601313
136,West Trenton Avenue,45840,41.0590199,-83.6519141
148,West Trenton Avenue,45840,41.0589768,-83.6523312
122,West Trenton Avenue,45840,41.0590075,-83.6514971
118,West Trenton Avenue,45840,41.0589897,-83.6510506
132,West Trenton Avenue,45840,41.0590133,-83.6516807
150,West Trenton Avenue,45840,41.0589933,-83.6525174
218,West Trenton Avenue,45840,41.0590375,-83.6535873
214,West Trenton Avenue,45840,41.0590009,-83.6533711
222,West Trenton Avenue,45840,41.0590582,-83.6537692
300,West Trenton Avenue,45840,41.0589921,-83.6540033
334,West Trenton Avenue,45840,41.0589820,-83.6550131
601,Tiffin Avenue,45840,41.0462282,-83.6386510
607,Tiffin Avenue,45840,41.0463781,-83.6382797
817,Harmon Street,45840,41.0586459,-83.6360056
5000,Fostoria Avenue,45840,41.0670492,-83.6023488
2012,North Main Street,45840,41.0648177,-83.6503513
1930,North Main Street,45840,41.0636271,-83.6504038
1804,North Main Street,45840,41.0618850,-83.6503847
1806,North Main Street,45840,41.0620715,-83.6504005
1820,North Main Street,45840,41.0623097,-83.6503944
232,West Sandusky Street,45840,41.0373136,-83.6534965
1820,Chapel Drive,45840,41.0174933,-83.6533198
305,West Hardin Street,45840,41.0354662,-83.6540427
127,West Hardin Street,45840,41.0354361,-83.6517200
3700,Speedway Drive,45840,41.0859334,-83.6573687
1701,East Sandusky Street,45840,41.0379987,-83.6171416
1201,Countryside Drive,45840,41.0549841,-83.6268848
1209,Countryside Drive,45840,41.0549480,-83.6264726
1205,Countryside Drive,45840,41.0549540,-83.6266823
1213,Countryside Drive,45840,41.0550162,-83.6262507
1235,Countryside Drive,45840,41.0557955,-83.6263314
1225,Countryside Drive,45840,41.0554814,-83.6262785
1229,Countryside Drive,45840,41.0556463,-83.6262934
1217,Countryside Drive,45840,41.0551635,-83.6261797
1221,Countryside Drive,45840,41.0553395,-83.6261866
1339,Countryside Drive,45840,41.0554776,-83.6251515
1367,Countryside Drive,45840,41.0553615,-83.6243270
1347,Countryside Drive,45840,41.0551563,-83.6251056
1343,Countryside Drive,45840,41.0553267,-83.6251617
1359,Countryside Drive,45840,41.0550614,-83.6244789
1363,Countryside Drive,45840,41.0551834,-83.6243671
1355,Countryside Drive,45840,41.0550285,-83.6247252
1351,Countryside Drive,45840,41.0550625,-83.6249737
1901,Broad Avenue,45840,41.0620962,-83.6634667
2414,North Main Street,45840,41.0682028,-83.6503699
142,Clifton Avenue,45840,41.0617716,-83.6523005
138,Clifton Avenue,45840,41.0617505,-83.6521090
130,Clifton Avenue,45840,41.0617558,-83.6516446
134,Clifton Avenue,45840,41.0617423,-83.6519026
146,Clifton Avenue,45840,41.0618084,-83.6525203
204,Clifton Avenue,45840,41.0617673,-83.6531180
308,Clifton Avenue,45840,41.0617060,-83.6551922
234,Clifton Avenue,45840,41.0617755,-83.6547025
312,Clifton Avenue,45840,41.0617286,-83.6554321
316,Clifton Avenue,45840,41.0617429,-83.6556159
228,Clifton Avenue,45840,41.0617316,-83.6542978
224,Clifton Avenue,45840,41.0617526,-83.6540946
232,Clifton Avenue,45840,41.0617297,-83.6544921
500,Clifton Avenue,45840,41.0617300,-83.6578224
504,Clifton Avenue,45840,41.0617276,-83.6580337
428,Clifton Avenue,45840,41.0617255,-83.6576088
424,Clifton Avenue,45840,41.0617181,-83.6574046
412,Clifton Avenue,45840,41.0617361,-83.6567826
416,Clifton Avenue,45840,41.0617359,-83.6569863
420,Clifton Avenue,45840,41.0617262,-83.6571946
421,Clifton Avenue,45840,41.0612674,-83.6571799
417,Clifton Avenue,45840,41.0612634,-83.6569739
529,Clifton Avenue,45840,41.0612574,-83.6592614
533,Clifton Avenue,45840,41.0612778,-83.6594576
525,Clifton Avenue,45840,41.0612714,-83.6590587
530,Monroe Avenue,45840,41.0608526,-83.6594556
521,Clifton Avenue,45840,41.0612724,-83.6588481
519,Clifton Avenue,45840,41.0612780,-83.6584210
509,Clifton Avenue,45840,41.0612785,-83.6582179
425,Clifton Avenue,45840,41.0612696,-83.6573821
429,Clifton Avenue,45840,41.0612710,-83.6575910
413,Clifton Avenue,45840,41.0612881,-83.6567567
2633,Greenacre Drive,45840,41.0715321,-83.6585307
1221,Broad Avenue,45840,41.0562259,-83.6641889
1215,Broad Avenue,45840,41.0559581,-83.6642066
320,Clifton Avenue,45840,41.0616985,-83.6558089
623,Balsley Avenue,45840,41.0509743,-83.6351025
608,Balsley Avenue,45840,41.0513052,-83.6353064
740,Hull Avenue,45840,41.0520692,-83.6346592
742,Hull Avenue,45840,41.0520294,-83.6343782
700,Balsley Avenue,45840,41.0513196,-83.6341760
1401,Tiffin Avenue,45840,41.0502021,-83.6247140
1445,Tiffin Avenue,45840,41.0505918,-83.6229924
1509,Tiffin Avenue,45840,41.0507929,-83.6222069
1415,Tiffin Avenue,45840,41.0503338,-83.6241519
1439,Tiffin Avenue,45840,41.0505152,-83.6232756
1521,Tiffin Avenue,45840,41.0508753,-83.6218764
2216,North Main Street,45840,41.0663280,-83.6503886
2400,North Main Street,45840,41.0677673,-83.6503310
2321,North Main Street,45840,41.0674339,-83.6496020
2308,North Main Street,45840,41.0670466,-83.6503457
2300,North Main Street,45840,41.0667601,-83.6502825
2224,North Main Street,45840,41.0666517,-83.6503561
2601,Greenacre Drive,45840,41.0702326,-83.6585245
2215,Greenacre Drive,45840,41.0665436,-83.6586729
1815,Mount Blanchard Road,45840,41.0238414,-83.6258053
2730,Lakeview Parkway,45840,41.0470117,-83.5895740
1900,Chapel Drive,45840,41.0169733,-83.6531858
197,West Wallace Street,45840,41.0169870,-83.6534152
535,Bright Road,45840,41.0461194,-83.6060942
346,East Melrose Avenue,45840,41.0659148,-83.6413595
2206,North Main Street,45840,41.0655888,-83.6503143
950,East Sandusky Street,45840,41.0370276,-83.6311424
926,East Sandusky Street,45840,41.0370813,-83.6312990
901,East Sandusky Street,45840,41.0364943,-83.6323234
752,Trenton Avenue,45840,41.0595328,-83.6638416
752,Trenton Avenue,45840,41.0593681,-83.6641695
2727,Greenacre Drive,45840,41.0729069,-83.6580668
2723,Greenacre Drive,45840,41.0727209,-83.6580934
340-D,Defiance Avenue,45840,41.0498089,-83.6558724
325,Defiance Avenue,45840,41.0495379,-83.6552849
312-D,Defiance Avenue,45840,41.0489863,-83.6542292
15067,East Route 224,45840,41.0555261,-83.5909918
1215,Tiffin Avenue,45840,41.0491155,-83.6275737
319,North Blanchard Street,45840,41.0451737,-83.6411361
1205,East Sandusky Street,45840,41.0362016,-83.6262949
1310,Avalon Terrace,45840,41.0470066,-83.6262167
314,West Hardin Street,45840,41.0360223,-83.6544248
310,West Hardin Street,45840,41.0361676,-83.6542132
304,West Hardin Street,45840,41.0359297,-83.6540796
300,West Hardin Street,45840,41.0359428,-83.6539585
220,West Hardin Street,45840,41.0359496,-83.6529856
420,West Trenton Avenue,45840,41.0592561,-83.6575318
1611,North Main Street,45840,41.0601504,-83.6492497
444,Cherry Street,45840,41.0456160,-83.6417688
1433,East Sandusky Street,45840,41.0365463,-83.6227275
1121,Broad Avenue,45840,41.0549215,-83.6642531
1115,Broad Avenue,45840,41.0546054,-83.6642007
912,Interstate Drive,45840,41.0650226,-83.6662577
919,Washington Avenue,45840,41.0296433,-83.6453802
223,West Wallace Street,45840,41.0169479,-83.6539618
815,West Sandusky Street,45840,41.0365178,-83.6621466
1121,West Main Cross Street,45840,41.0408954,-83.6680114
1331,Broad Avenue,45840,41.0574989,-83.6641408
1648,Hilton Avenue,45840,41.0555193,-83.6178410
627,Balsley Avenue,45840,41.0509431,-83.6348556
616,McManness Avenue,45840,41.0490741,-83.6328980
2617,Greenacre Drive,45840,41.0708687,-83.6584933
2613,Greenacre Drive,45840,41.0707100,-83.6584874
2531,Greenacre Drive,45840,41.0696965,-83.6585400
405,West Bigelow Avenue,45840,41.0730166,-83.6564639
401,West Bigelow Avenue,45840,41.0730397,-83.6562682
323,West Bigelow Avenue,45840,41.0730239,-83.6560585
1125,Broad Avenue,45840,41.0550530,-83.6642715
2415,Greenacre Drive,45840,41.0685002,-83.6585793
2405,Greenacre Drive,45840,41.0680034,-83.6585903
2325,Greenacre Drive,45840,41.0677444,-83.6585450
2319,Greenacre Drive,45840,41.0675531,-83.6585411
2311,Greenacre Drive,45840,41.0673435,-83.6585238
2219,Greenacre Drive,45840,41.0667602,-83.6586196
2301,Greenacre Drive,45840,41.0669223,-83.6585668
525,West Melrose Avenue,45840,41.0657382,-83.6593754
132,Lester Avenue,45840,41.0644378,-83.6517716
222,Lester Avenue,45840,41.0643760,-83.6537312
332,Lester Avenue,45840,41.0643851,-83.6555962
336,Lester Avenue,45840,41.0643992,-83.6557851
441,Bright Road,45840,41.0430765,-83.6070956
510,Monroe Avenue,45840,41.0607932,-83.6582314
506,Monroe Avenue,45840,41.0607951,-83.6580153
522,Monroe Avenue,45840,41.0608471,-83.6587825
1900,South Main Street,45840,41.0172368,-83.6516141
3730,Speedway Drive,45840,41.0870358,-83.6574215
1843,Tiffin Avenue,45840,41.0529097,-83.6127034
1931,Tiffin Avenue,45840,41.0533302,-83.6093826
1780,Tiffin Avenue,45840,41.0531968,-83.6145708
2227,Tiffin Avenue,45840,41.0544862,-83.5976542
2500,North Main Street,45840,41.0687007,-83.6503149
2416,North Main Street,45840,41.0685741,-83.6503096
1133,East Sandusky Street,45840,41.0365861,-83.6270986
1125,East Sandusky Street,45840,41.0366069,-83.6274284
1117,East Sandusky Street,45840,41.0365644,-83.6276760
124,East Sandusky Street,45840,41.0372162,-83.6489606
400,1st Street,45840,41.0292343,-83.6453057
1128,Homestead Dr.,45840,41.0279960,-83.6229230
1134,Homestead Dr.,45840,41.0277760,-83.6229015
1437,East Sandusky Street,45840,41.0365585,-83.6221480
1421,East Sandusky Street,45840,41.0365950,-83.6237929
1427,East Sandusky Street,45840,41.0365730,-83.6233980
1109,East Sandusky Street,45840,41.0365390,-83.6286145
1103,East Sandusky Street,45840,41.0365580,-83.6289325
341,Bright Road,45840,41.0414251,-83.6094870
815,Bright Road,45840,41.0513015,-83.6053750
711,Deer Valley Court,45840,41.0472503,-83.5882627
2705,Lakeview Parkway,45840,41.0471266,-83.5907288
1038,Selby Street,45840,41.0290585,-83.6351935
1030,Selby Street,45840,41.0292970,-83.6351835
1026,Selby Street,45840,41.0294485,-83.6351930
1024,Selby Street,45840,41.0297565,-83.6353035
1002,Selby Street,45840,41.0305105,-83.6351970
1020,Selby Street,45840,41.0299825,-83.6351940
924,Selby Street,45840,41.0309795,-83.6351660
916,Selby Street,45840,41.0314785,-83.6352295
904,Selby Street,45840,41.0316505,-83.6351880
900,Selby Street,45840,41.0318005,-83.6351850
830,Selby Street,45840,41.0320410,-83.6352095
820,Selby Street,45840,41.0324067,-83.6351586
804,Selby Street,45840,41.0329365,-83.6351567
810,Selby Street,45840,41.0328116,-83.6351636
818,Selby Street,45840,41.0326174,-83.6351933
637,East Lincoln Street,45840,41.0343048,-83.6377049
633,East Lincoln Street,45840,41.0343079,-83.6380724
635,East Lincoln Street,45840,41.0343130,-83.6379035
623,East Lincoln Street,45840,41.0343143,-83.6384418
619,East Lincoln Street,45840,41.0343212,-83.6386187
521,East Lincoln Street,45840,41.0342970,-83.6401466
529,East Lincoln Street,45840,41.0342909,-83.6398526
700,Hull Avenue,45840,41.0526808,-83.6362145
704,Hull Avenue,45840,41.0526262,-83.6360284
708,Hull Avenue,45840,41.0525967,-83.6357708
624,Hull Avenue,45840,41.0530144,-83.6369324
626,Hull Avenue,45840,41.0530043,-83.6367514
630,Hull Avenue,45840,41.0528568,-83.6364806
628,Hull Avenue,45840,41.0528800,-83.6366614
620,Hull Avenue,45840,41.0531826,-83.6372970
618,Hull Avenue,45840,41.0532544,-83.6374723
608,Hull Avenue,45840,41.0534278,-83.6378733
616,Hull Avenue,45840,41.0533315,-83.6376638
622,Hull Avenue,45840,41.0530963,-83.6371630
602,Hull Avenue,45840,41.0536690,-83.6382728
606,Hull Avenue,45840,41.0535048,-83.6379871
544,Hull Avenue,45840,41.0538845,-83.6387186
315,North Blanchard Street,45840,41.0447948,-83.6411031
1311,Tiffin Avenue,45840,41.0496195,-83.6264720
1301,Tiffin Avenue,45840,41.0495360,-83.6267850
300,Lester Avenue,45840,41.0644170,-83.6544705
232,Lester Avenue,45840,41.0644625,-83.6542570
342,Lester Avenue,45840,41.0643785,-83.6561399
308,Lester Avenue,45840,41.0643985,-83.6548998
404,Lester Avenue,45840,41.0643645,-83.6568170
500,Lester Avenue,45840,41.0644715,-83.6583135
514,Lester Avenue,45840,41.0644335,-83.6588185
1912,Bolton Street,45840,41.0628830,-83.6599275
1906,Bolton Street,45840,41.0627120,-83.6598975
520,Edith Avenue,45840,41.0653071,-83.6593788
519,West Melrose Avenue,45840,41.0657549,-83.6591277
718,West Main Cross Street,45840,41.0403264,-83.6607437
720,West Main Cross Street,45840,41.0403344,-83.6609359
722,West Main Cross Street,45840,41.0403325,-83.6610735
806,West Main Cross Street,45840,41.0404430,-83.6617500
810,West Main Cross Street,45840,41.0404798,-83.6618988
812,West Main Cross Street,45840,41.0405033,-83.6620779
816,West Main Cross Street,45840,41.0405528,-83.6623055
826,West Main Cross Street,45840,41.0405694,-83.6627606
824,West Main Cross Street,45840,41.0405653,-83.6625443
900,West Main Cross Street,45840,41.0406420,-83.6631624
916,West Main Cross Street,45840,41.0407576,-83.6638721
918,West Main Cross Street,45840,41.0407675,-83.6640444
922,West Main Cross Street,45840,41.0407929,-83.6641972
932,West Main Cross Street,45840,41.0408653,-83.6643441
1020,West Main Cross Street,45840,41.0410242,-83.6654811
1016,West Main Cross Street,45840,41.0409516,-83.6653045
1012,West Main Cross Street,45840,41.0409215,-83.6650975
1000,West Main Cross Street,45840,41.0408888,-83.6647789
1032,West Main Cross Street,45840,41.0410990,-83.6662503
430,Garfield Avenue,45840,41.0550152,-83.6406228
428,Garfield Avenue,45840,41.0550519,-83.6408369
422,Garfield Avenue,45840,41.0550728,-83.6412708
424,Garfield Avenue,45840,41.0551523,-83.6411515
725,Crystal Avenue,45840,41.0547809,-83.6402006
723,Crystal Avenue,45840,41.0546563,-83.6403236
721,Crystal Avenue,45840,41.0545568,-83.6403459
514,Hull Avenue,45840,41.0543527,-83.6399416
524,Hull Avenue,45840,41.0542116,-83.6395739
528,Hull Avenue,45840,41.0541719,-83.6394141
530,Hull Avenue,45840,41.0541035,-83.6392778
540,Hull Avenue,45840,41.0539373,-83.6389432
604,Hull Avenue,45840,41.0535847,-83.6381507
304,West Trenton Avenue,45840,41.0590028,-83.6541611
310,West Trenton Avenue,45840,41.0589923,-83.6544048
514,Monroe Avenue,45840,41.0608035,-83.6584035
424,Monroe Avenue,45840,41.0607745,-83.6573980
428,Monroe Avenue,45840,41.0608085,-83.6575855
528,Monroe Avenue,45840,41.0608200,-83.6591721
124,Lester Avenue,45840,41.0644405,-83.6512705
128,Lester Avenue,45840,41.0644465,-83.6515200
200,Lester Avenue,45840,41.0644537,-83.6525063
2535,Greenacre Drive,45840,41.0698620,-83.6585215
2621,Greenacre Drive,45840,41.0710385,-83.6585255
2625,Greenacre Drive,45840,41.0712045,-83.6584935
2701,Greenacre Drive,45840,41.0716927,-83.6584726
501,West Bigelow Avenue,45840,41.0730323,-83.6577737
423,West Bigelow Avenue,45840,41.0730353,-83.6573080
1648,Cherry Lane,45840,41.0562525,-83.6187960
620,West Main Cross Street,45840,41.0400690,-83.6594094
618,West Main Cross Street,45840,41.0400784,-83.6592335
612,West Main Cross Street,45840,41.0400635,-83.6590180
608,West Main Cross Street,45840,41.0400398,-83.6587370
612,McManness Avenue,45840,41.0489195,-83.6328995
714,McManness Avenue,45840,41.0498273,-83.6329280
718,McManness Avenue,45840,41.0500110,-83.6331890
724,McManness Avenue,45840,41.0502615,-83.6329550
730,McManness Avenue,45840,41.0504225,-83.6329535
412,1st Street,45840,41.0292707,-83.6449286
416,1st Street,45840,41.0293622,-83.6446920
420,1st Street,45840,41.0292637,-83.6444953
430,1st Street,45840,41.0292562,-83.6442293
915,Park Street,45840,41.0295820,-83.6435752
913,Park Street,45840,41.0297765,-83.6436906
911,Park Street,45840,41.0298969,-83.6437041
929,Park Street,45840,41.0293077,-83.6436479
903,Park Street,45840,41.0300865,-83.6437075
901,Park Street,45840,41.0302015,-83.6437025
851,Park Street,45840,41.0312775,-83.6436535
853,Park Street,45840,41.0311891,-83.6437218
855,Park Street,45840,41.0311104,-83.6437124
865,Park Street,45840,41.0306311,-83.6436392
845,Park Street,45840,41.0314189,-83.6436530
837,Park Street,45840,41.0316094,-83.6436929
835,Park Street,45840,41.0317230,-83.6436519
825,Park Street,45840,41.0319588,-83.6436439
819,Park Street,45840,41.0322551,-83.6437138
815,Park Street,45840,41.0324282,-83.6436850
811,Park Street,45840,41.0325931,-83.6436943
1300,Fishlock Avenue,45840,41.0268490,-83.6284557
1316,Fishlock Avenue,45840,41.0262892,-83.6284972
1306,Fishlock Avenue,45840,41.0266085,-83.6284849
1312,Fishlock Avenue,45840,41.0264406,-83.6284603
718,Morse Street,45840,41.0337663,-83.6378035
601,East Lincoln Street,45840,41.0343062,-83.6394353
611,East Lincoln Street,45840,41.0342918,-83.6390729
731,East Sandusky Street,45840,41.0366221,-83.6363850
727,East Sandusky Street,45840,41.0366690,-83.6366210
717,East Sandusky Street,45840,41.0366705,-83.6370720
711,East Sandusky Street,45840,41.0366170,-83.6372625
707,East Sandusky Street,45840,41.0366365,-83.6374890
701,East Sandusky Street,45840,41.0366460,-83.6377300
627,East Sandusky Street,45840,41.0366215,-83.6383305
623,East Sandusky Street,45840,41.0366790,-83.6385050
619,East Sandusky Street,45840,41.0366975,-83.6386775
515,East Sandusky Street,45840,41.0366935,-83.6404690
607,East Sandusky Street,45840,41.0366584,-83.6393265
1790,Tiffin Avenue,45840,41.0532213,-83.6144087
1940,Tiffin Avenue,45840,41.0549299,-83.6097180
1950,Tiffin Avenue,45840,41.0551938,-83.6088919
1991,Tiffin Avenue,45840,41.0520493,-83.6071494
207,East Foulke Avenue,45840,41.0575493,-83.6474278
714,West Main Cross Street,45840,41.0403009,-83.6604400
716,West Main Cross Street,45840,41.0402873,-83.6605905
413,East Lincoln Street,45840,41.0340520,-83.6437327
502,East Lima Street,45840,41.0332076,-83.6442695
506,East Lima Street,45840,41.0332021,-83.6440780
863,Park Street,45840,41.0307864,-83.6437116
605,East Lincoln Street,45840,41.0343204,-83.6392633
1624,Fishlock Avenue,45840,41.0257781,-83.6284906
416,West Trenton Avenue,45840,41.0591772,-83.6569245
112,Meeks Avenue,45840,41.0435125,-83.6510176
518,Hull Avenue,45840,41.0543291,-83.6397841
200,West Trenton Avenue,45840,41.0590244,-83.6527319
315,East Sandusky Street,45840,41.0367009,-83.6458815
327,East Sandusky Street,45840,41.0367307,-83.6455149
329,East Sandusky Street,45840,41.0367234,-83.6453257
341,East Sandusky Street,45840,41.0366920,-83.6448092
439,East Sandusky Street,45840,41.0366818,-83.6425773
615,East Sandusky Street,45840,41.0366488,-83.6389062
1421,East Sandusky Street,45840,41.0364767,-83.6238402
701,West Trenton Avenue,45840,41.0584223,-83.6620727
725,South Street,45840,41.0352550,-83.6365947
