House number,Street name,Postal code,Latitude,Longitude
790,Arlington Ridge,44312,40.9827344,-81.4939681
3950,South Main Street,44319,40.9791826,-81.5226175
3570,Executive Drive,44685,40.9647473,-81.4680300
790,Arlington Ridge,44312,40.9828305,-81.4954613
1840,Town Park Boulevard,44685,40.9496174,-81.4669801
5926,Mayfair Road,44720,40.9094436,-81.4240998
5353,Lauby Road,44720,40.9182047,-81.4284745
4195,Massillon Road,44685,40.9479242,-81.4648761
4195,Massillon Road,44685,40.9481869,-81.4643901
3651,Massillon Road,44685,40.9620222,-81.4643717
1840,Town Park Boulevard,44685,40.9495143,-81.4661270
1840,Town Park Boulevard,44685,40.9496640,-81.4661152
3465,South Arlington Road,44312,40.9765450,-81.4928431
3465,South Arlington Road,44312,40.9764951,-81.4928472
3465,South Arlington Road,44312,40.9763923,-81.4928462
3465,South Arlington Road,44312,40.9763394,-81.4928553
3465,South Arlington Road,44312,40.9762388,-81.4928543
3465,South Arlington Road,44312,40.9761276,-81.4928614
3421,South Arlington Road,44312,40.9778339,-81.4926743
3421,South Arlington Road,44312,40.9778412,-81.4928483
3875,Massillon Road,44685,40.9568883,-81.4640327
3875,Massillon Road,44685,40.9561767,-81.4640335
3875,Massillon Road,44685,40.9562456,-81.4640309
3875,Massillon Road,44685,40.9563873,-81.4640181
3875,Massillon Road,44685,40.9563236,-81.4640240
3875,Massillon Road,44685,40.9558585,-81.4644833
3875,Massillon Road,44685,40.9558722,-81.4649658
3875,Massillon Road,44685,40.9558624,-81.4646119
3875,Massillon Road,44685,40.9558661,-81.4647286
3875,Massillon Road,44685,40.9558690,-81.4648467
3875,Massillon Road,44685,40.9577749,-81.4646916
3875,Massillon Road,44685,40.9578637,-81.4646866
3875,Massillon Road,44685,40.9581266,-81.4646697
3875,Massillon Road,44685,40.9579224,-81.4646824
3875,U,44685,40.9579923,-81.4646777
3875,Massillon Road,44685,40.9580511,-81.4646745
3800,Massillon Road,44685,40.9574426,-81.4669389
3838,Massillon Road,44685,40.9568196,-81.4665092
3944,Massillon Road,44685,40.9539590,-81.4663360
3939,Massillon Road,44685,40.9542586,-81.4650775
3939,Massillon Road,44685,40.9537965,-81.4651114
3939,Massillon Road,44685,40.9538555,-81.4651027
3939,Massillon Road,44685,40.9539121,-81.4651038
3939,Massillon Road,44685,40.9539588,-81.4651006
3939,Massillon Road,44685,40.9540170,-81.4650984
3939,Massillon Road,44685,40.9540646,-81.4650941
3939,Massillon Road,44685,40.9541244,-81.4650897
3939,Massillon Road,44685,40.9541679,-81.4650854
3939,Massillon Road,44685,40.9542171,-81.4650831
1840,Town Park Boulevard,44685,40.9496736,-81.4663076
1840,Town Park Boulevard,44685,40.9500215,-81.4669684
1840,Town Park Boulevard,44685,40.9496780,-81.4664087
1840,Town Park Boulevard,44685,40.9496888,-81.4666175
1840,Town Park Boulevard,44685,40.9496964,-81.4667496
1840,Town Park Boulevard,44685,40.9499132,-81.4668447
1840,Town Park Boulevard,44685,40.9498202,-81.4668504
1790,Town Park Boulevard,44685,40.9500121,-81.4681039
1790,Town Park Boulevard,44685,40.9500407,-81.4683428
2699,Raber Road,44685,40.9655085,-81.4253720
2701,Raber Road,44685,40.9655042,-81.4252495
2709,Raber Road,44685,40.9654915,-81.4249979
2711,Raber Road,44685,40.9654882,-81.4248577
2719,Raber Road,44685,40.9654828,-81.4246297
2721,Raber Road,44685,40.9654758,-81.4244779
3634,Massillon Road,44685,40.9624747,-81.4656356
3761,Massillon Road,44685,40.9596133,-81.4643179
1622,East Turkeyfoot Lake Road,44312,40.9730973,-81.4655508
567,East Turkeyfoot Lake Road,44319,40.9754917,-81.5037716
3944,Massillon Road,44685,40.9540143,-81.4663341
2000,Tabs Drive,44685,40.9648447,-81.4770897
3532,Massillon Road,44685,40.9655328,-81.4657830
3532,Massillon Road,44685,40.9659594,-81.4657210
1623,Raber Road,44685,40.9666766,-81.4639654
1623,Massillon Road,44685,40.9666732,-81.4638224
3459,Massillon Road,44685,40.9673672,-81.4643958
3467,Massillon Road,44685,40.9672002,-81.4644092
3463,Massillon Road,44685,40.9672969,-81.4644025
3471,Massillon Road,44685,40.9670949,-81.4644189
3473,Massillon Road,44685,40.9670348,-81.4644173
3475,Massillon Road,44685,40.9669793,-81.4644199
3481,Massillon Road,44685,40.9668149,-81.4644291
3483,Massillon Road,44685,40.9667608,-81.4644331
3485,Massillon Road,44685,40.9667203,-81.4644351
3479,Massillon Road,44685,40.9668706,-81.4644284
3477,Massillon Road,44685,40.9669344,-81.4644217
1700,Corporate Woods Parkway,44685,40.9623895,-81.4688657
3663,South Arlington Road,44312,40.9711997,-81.4917847
4031,Massillon Road,44685,40.9516985,-81.4650699
2022,Graybill Road,44685,40.9539055,-81.4582413
2020,Graybill Road,44685,40.9539109,-81.4583643
2409,Graybill Road,44685,40.9569655,-81.4448444
2413,Graybill Road,44685,40.9569432,-81.4446674
2362,Graybill Road,44685,40.9555348,-81.4463389
3264,Graybill Road,44685,40.9555369,-81.4462061
1248,Boettler Road,44685,40.9594399,-81.4830208
1244,Boettler Road,44685,40.9594440,-81.4832188
3203,Grey Village Drive,44319,40.9881006,-81.4971218
3285,Grey Village Drive,44319,40.9880991,-81.4970131
3204,Grey Village Drive,44319,40.9881536,-81.4973861
3200,Grey Village Drive,44319,40.9880508,-81.4973841
3192,Grey Village Drive,44319,40.9882671,-81.4973851
3188,Grey Village Drive,44319,40.9883722,-81.4973475
3216,Grey Village Drive,44319,40.9879065,-81.4973891
3212,Grey Village Drive,44319,40.9877930,-81.4973871
3219,Grey Village Drive,44319,40.9877117,-81.4971483
3269,Grey Village Drive,44319,40.9877155,-81.4970050
3372,Grey Village Drive,44319,40.9877976,-81.4967305
3276,Grey Village Drive,44319,40.9878912,-81.4967346
3284,Grey Village Drive,44319,40.9880316,-81.4967366
3288,Grey Village Drive,44319,40.9881336,-81.4967285
3296,Grey Village Drive,44319,40.9882617,-81.4967407
3300,Grey Village Drive,44319,40.9883646,-81.4967671
3577,South Arlington Road,44312,40.9739100,-81.4925020
3577,South Arlington Road,44312,40.9739254,-81.4931488
880,East Turkeyfoot Lake Road,44312,40.9743405,-81.4918815
4195,Massillon Road,44685,40.9483768,-81.4646387
4195,Massillon Road,44685,40.9482977,-81.4646439
4195,Massillon Road,44685,40.9482296,-81.4645213
4195,Massillon Road,44685,40.9481685,-81.4639344
4195,Massillon Road,44685,40.9481714,-81.4640224
4195,Massillon Road,44685,40.9481666,-81.4638557
4195,Massillon Road,44685,40.9481637,-81.4637739
4195,Massillon Road,44685,40.9481610,-81.4636329
4195,Massillon Road,44685,40.9481585,-81.4635601
4195,Massillon Road,44685,40.9481565,-81.4634779
4195,Massillon Road,44685,40.9481525,-81.4633664
4195,Massillon Road,44685,40.9481486,-81.4632777
4195,Massillon Road,44685,40.9481435,-81.4631382
4195,Massillon Road,44685,40.9481417,-81.4630313
4195,Massillon Road,44685,40.9481398,-81.4629194
4195,Massillon Road,44685,40.9479207,-81.4647181
2392,East Turkeyfoot Lake Road,44685,40.9755343,-81.4372985
3944,Massillon Road,44685,40.9541295,-81.4663293
3944,Massillon Road,44685,40.9540735,-81.4663323
3944,Massillon Road,44685,40.9538555,-81.4663415
3944,Massillon Road,44685,40.9539107,-81.4663384
4215,Mayfair Road,44685,40.9543532,-81.4365667
4199,Mayfair Road,44685,40.9548365,-81.4365318
4185,Mayfair Road,44685,40.9552106,-81.4364429
4169,Mayfair Road,44685,40.9555821,-81.4364186
4141,Mayfair Road,44685,40.9559673,-81.4363294
4125,Mayfair Road,44685,40.9563161,-81.4362508
4123,Mayfair Road,44685,40.9568685,-81.4363348
2467,Country Club Drive,44685,40.9538557,-81.4431859
4231,Mayfair Road,44685,40.9539768,-81.4365149
4247,Mayfair Road,44685,40.9535196,-81.4365550
4267,Mayfair Road,44685,40.9532310,-81.4364848
4289,Mayfair Road,44685,40.9530385,-81.4365573
4299,Mayfair Road,44685,40.9527937,-81.4365535
4282,Mayfair Road,44685,40.9526124,-81.4375307
4309,Mayfair Road,44685,40.9525384,-81.4366794
2654,Graybill Road,44685,40.9563853,-81.4359437
2660,Graybill Road,44685,40.9563702,-81.4355986
2670,Graybill Road,44685,40.9563550,-81.4352535
2682,Graybill Road,44685,40.9561539,-81.4347973
2675,Graybill Road,44685,40.9569890,-81.4352958
2665,Graybill Road,44685,40.9568623,-81.4358038
4311,Mayfair Road,44685,40.9521774,-81.4363612
4315,Mayfair Road,44685,40.9517433,-81.4365223
4310,Mayfair Road,44685,40.9518725,-81.4375143
4320,Mayfair Road,44685,40.9515639,-81.4374941
4325,Mayfair Road,44685,40.9512994,-81.4363375
4330,Mayfair Road,44685,40.9512857,-81.4376538
2711,Graybill Road,44685,40.9568503,-81.4336278
2706,Graybill Road,44685,40.9560902,-81.4338477
2718,Graybill Road,44685,40.9556435,-81.4332961
2735,Graybill Road,44685,40.9568054,-81.4328370
2743,Graybill Road,44685,40.9567559,-81.4324949
2732,Graybill Road,44685,40.9561578,-81.4327287
2765,Graybill Road,44685,40.9578419,-81.4319177
2760,Graybill Road,44685,40.9562728,-81.4319651
2770,Graybill Road,44685,40.9562467,-81.4315510
790,Arlington Ridge,44312,40.9827273,-81.4937795
3395,Miller Park Road,44312,40.9713042,-81.4664449
3642,Tabs Drive,44685,40.9637604,-81.4787346
790,Arlington Ridge,44319,40.9827052,-81.4951835
790,Arlington Ridge,44319,40.9827032,-81.4950905
790,Arlington Ridge,44319,40.9827009,-81.4949949
790,Arlington Ridge,44319,40.9827039,-81.4949169
790,Arlington Ridge,44319,40.9827096,-81.4948219
790,Arlington Ridge,44319,40.9827037,-81.4947146
790,Arlington Ridge,44319,40.9827062,-81.4946307
790,Arlington Ridge,44319,40.9827017,-81.4945270
790,Arlington Ridge,44319,40.9826981,-81.4944037
790,Arlington Ridge,44319,40.9826914,-81.4942871
790,Arlington Ridge,44319,40.9826915,-81.4941809
790,Arlington Ridge,44319,40.9826869,-81.4940931
790,Arlington Ridge,44319,40.9826880,-81.4940094
790,Arlington Ridge,44319,40.9826859,-81.4939411
790,Arlington Ridge,44319,40.9826821,-81.4938512
790,Arlington Ridge,44319,40.9826852,-81.4937713
880,Arlington Ridge East,44312,40.9831083,-81.4916329
3225,Arlington Road,44312-5215,40.9836606,-81.4924650
3217,South Arlington Road,44312,40.9842915,-81.4923488
3239,South Arlington Road,44312,40.9831729,-81.4926246
940,Interstate Parkway,44312,40.9779781,-81.4903383
5400,Lauby Road,44720,40.9150819,-81.4484779
4,Arlington Ridge,44312,40.9840581,-81.4959027
790,Arlington Ridge,44319,40.9826205,-81.4935955
3180,South Arlington Road,44312-5214,40.9843906,-81.4935774
1025,Interstate Parkway,44312,40.9793325,-81.4854070
5251,Landmark Boulevard,44720,40.9110658,-81.4288059
294,West Turkeyfoot Lake Road,44319,40.9781584,-81.5311061
4046,Massillon Road,44685,40.9511632,-81.4667152
4498,Massillon Road,44685,40.9393327,-81.4669096
4350,Mayfair Road,44685,40.9486676,-81.4425735
6194,Christman Road,44319,40.9330242,-81.5172300
5510,Christman Road,44319,40.9444290,-81.5160181
5034,Christman Road,44319,40.9503885,-81.5244651
5550,Christman Road,44319,40.9434033,-81.5228944
5531,South Main Street,44319,40.9395837,-81.5326699
897,Arlington Ridge East,44312,40.9839093,-81.4906522
3433,Massillon Road,44685,40.9676864,-81.4645396
4359,Buckingham Circle,44685,40.9576380,-81.5046775
4224,Massillon Road,44685,40.9463444,-81.4665174
4224,Massillon Road,44685,40.9465227,-81.4664997
4019-4030,Massillon Road,44685,40.9518765,-81.4666982
3761,Massillon Road,44685,40.9595235,-81.4645090
1700,Boettler Road,44685,40.9582850,-81.4670702
4712,Bali Drive,44319,40.9612633,-81.5294937
4465,Sunnyview Drive,44685,40.9418682,-81.4751319
4493,Sunnyview Drive,44685,40.9418184,-81.4747491
4499,Sunnyview Drive,44685,40.9415487,-81.4745948
4500,Sunnyview Drive,44685,40.9413085,-81.4748168
4492,Sunnyview Drive,44685,40.9413035,-81.4751605
4484,Sunnyview Drive,44685,40.9413461,-81.4754491
4476,Sunnyview Drive,44685,40.9414754,-81.4757671
4470,Sunnyview Drive,44685,40.9417232,-81.4758706
4462,Sunnyview Drive,44685,40.9419724,-81.4757985
4452,Sunnyview Drive,44685,40.9422292,-81.4757966
4442,Sunnyview Drive,44685,40.9424354,-81.4757513
1642,Melanie Drive,44685,40.9423417,-81.4751087
1652,Melanie Drive,44685,40.9422636,-81.4746878
1662,Melanie Drive,44685,40.9422360,-81.4743589
1663,Melanie Drive,44685,40.9427828,-81.4742352
1655,Melanie Drive,44685,40.9428086,-81.4745281
1647,Melanie Drive,44685,40.9428397,-81.4747903
1639,Melanie Drive,44685,40.9429337,-81.4750779
4426,Sunnyview Drive,44685,40.9429552,-81.4757551
4418,Sunnyview Drive,44685,40.9431786,-81.4757191
4410,Sunnyview Drive,44685,40.9434031,-81.4756954
4415,Sunnyview Drive,44685,40.9433068,-81.4750867
4407,Sunnyview Drive,44685,40.9435879,-81.4750997
4402,Sunnyview Drive,44685,40.9436189,-81.4756886
4450,Shriver Road,44685,40.9432254,-81.4741129
4440,Shriver Road,44685,40.9435147,-81.4740703
1670,Amaryllis Drive,44685,40.9438765,-81.4739525
1660,Amaryllis Drive,44685,40.9439233,-81.4742773
1640,Amaryllis Drive,44685,40.9439835,-81.4750189
4394,Sunnyview Drive,44685,40.9438671,-81.4756895
4384,Sunnyview Drive,44685,40.9441157,-81.4756734
4374,Sunnyview Drive,44685,40.9444022,-81.4756505
1641,Amaryllis Drive,44685,40.9444759,-81.4749793
1654,Amaryllis Drive,44685,40.9444587,-81.4746949
1659,Amaryllis Drive,44685,40.9444072,-81.4743479
1667,Amaryllis Drive,44685,40.9444059,-81.4740863
1675,Amaryllis Drive,44685,40.9443810,-81.4738079
3672,Massillon Road,44685,40.9615866,-81.4659592
1700,Corporate Woods Parkway,44685,40.9620469,-81.4691699
1711,Steese Road,44685,40.9488944,-81.4746086
1640,Cloverview Drive,44685,40.9449620,-81.4749514
1650,Cloverview Drive,44685,40.9449666,-81.4746136
1658,Cloverview Drive,44685,40.9449793,-81.4743455
1666,Cloverview Drive,44685,40.9450505,-81.4739825
1674,Cloverview Drive,44685,40.9451419,-81.4736757
1682,Cloverview Drive,44685,40.9452894,-81.4734141
1690,Cloverview Drive,44685,40.9455200,-81.4733018
1698,Cloverview Drive,44685,40.9458305,-81.4732222
1695,Cloverview Drive,44685,40.9460247,-81.4734596
1687,Cloverview Drive,44685,40.9459380,-81.4738426
1679,Cloverview Drive,44685,40.9456643,-81.4740458
1661,Cloverview Drive,44685,40.9455200,-81.4742669
1651,Cloverview Drive,44685,40.9454821,-81.4746070
1641,Cloverview Drive,44685,40.9455132,-81.4749339
4366,Sunnyview Drive,44685,40.9446461,-81.4756281
4358,Sunnyview Drive,44685,40.9448861,-81.4756221
4350,Sunnyview Drive,44685,40.9451099,-81.4755907
4342,Sunnyview Drive,44685,40.9453460,-81.4756282
4334,Sunnyview Drive,44685,40.9455737,-81.4756051
4326,Sunnyview Drive,44685,40.9458189,-81.4755732
4321,Sunnyview Drive,44685,40.9458786,-81.4748793
4318,Sunnyview Drive,44685,40.9460559,-81.4755256
4311,Sunnyview Drive,44685,40.9461203,-81.4747928
4295,Sunnyview Drive,44685,40.9462870,-81.4745172
4281,Sunnyview Drive,44685,40.9463953,-81.4742560
4267,Sunnyview Drive,44685,40.9464157,-81.4739316
4259,Sunnyview Drive,44685,40.9464153,-81.4736615
4249,Sunnyview Drive,44685,40.9464035,-81.4732926
4239,Sunnyview Drive,44685,40.9463521,-81.4729257
4227,Sunnyview Drive,44685,40.9462183,-81.4725906
4226,Sunnyview Drive,44685,40.9466295,-81.4721239
4230,Sunnyview Drive,44685,40.9467295,-81.4723783
4238,Sunnyview Drive,44685,40.9468309,-81.4726322
4246,Sunnyview Drive,44685,40.9468901,-81.4730536
4254,Sunnyview Drive,44685,40.9469357,-81.4733772
4262,Sunnyview Drive,44685,40.9469239,-81.4736702
4270,Sunnyview Drive,44685,40.9469115,-81.4739957
4278,Sunnyview Drive,44685,40.9469036,-81.4742796
4286,Sunnyview Drive,44685,40.9468330,-81.4746425
4294,Sunnyview Drive,44685,40.9467506,-81.4748529
1625,Sunnyview Circle,44685,40.9469050,-81.4752206
1620,Sunnyview Circle,44685,40.9468213,-81.4756266
1626,Sunnyview Circle,44685,40.9465355,-81.4757132
1630,Sunnyview Circle,44685,40.9463431,-81.4754312
4208,Sunnyview Drive,44685,40.9463186,-81.4716600
4209,Sunnyview Drive,44685,40.9459320,-81.4720818
4195,Sunnyview Drive,44685,40.9456835,-81.4717998
4175,Sunnyview Drive,44685,40.9454058,-81.4717638
4167,Sunnyview Drive,44685,40.9451306,-81.4714608
4166,Sunnyview Drive,44685,40.9451450,-81.4710484
4174,Sunnyview Drive,44685,40.9454808,-81.4709282
4182,Sunnyview Drive,44685,40.9457094,-81.4710754
4190,Sunnyview Drive,44685,40.9459364,-81.4711748
4198,Sunnyview Drive,44685,40.9461424,-81.4713962
4285-4289,Shriver Road,44685,40.9466264,-81.4712561
4255-4259,Shriver Road,44685,40.9469646,-81.4710586
2250,Graybill Road,44685,40.9551022,-81.4504091
2350,Graybill Road,44685,40.9556408,-81.4472437
1587,Boettler Road,44685,40.9601616,-81.4708345
1605,Corporate Woods Parkway,44685-7891,40.9633435,-81.4672143
1687,Sandy Knoll Drive,44685,40.9632463,-81.4665512
3656,Massillon Road,44685,40.9622976,-81.4669495
1620,Corporate Woods Circle,44685,40.9610813,-81.4696680
1475,Boettler Road,44685,40.9605410,-81.4750250
1410,Boettler Road,44685,40.9590944,-81.4765812
1402,Boettler Road,44685,40.9592339,-81.4774154
1243,Boettler Road,44685,40.9600144,-81.4784628
3440,South Arlington Road,44312,40.9767816,-81.4937123
1128,Springbury Drive,44685,40.9602858,-81.4869999
1140,Springbury Drive,44685,40.9602587,-81.4866198
1127,Springbury Drive,44685,40.9607865,-81.4870463
1141,Springbury Drive,44685,40.9608052,-81.4865914
1152,Springbury Drive,44685,40.9602624,-81.4861729
1162,Springbury Drive,44685,40.9603249,-81.4857402
1170,Springbury Drive,44685,40.9604818,-81.4853937
1155,Springbury Drive,44685,40.9607816,-81.4861966
1171,Springbury Drive,44685,40.9609538,-81.4857717
1098,Brigantine Avenue,44685,40.9612359,-81.4855171
1086,Brigantine Avenue,44685,40.9613560,-81.4859334
3885,Kenway Boulevard,44685,40.9611608,-81.4870612
3877,Kenway Boulevard,44685,40.9614341,-81.4871555
3869,Kenway Boulevard,44685,40.9616715,-81.4873449
3861,Kenway Boulevard,44685,40.9618643,-81.4875571
3853,Kenway Boulevard,44685,40.9620140,-81.4879114
3845,Kenway Boulevard,44685,40.9621032,-81.4882745
3837,Kenway Boulevard,44685,40.9621209,-81.4886102
3827,Kenway Boulevard,44685,40.9621182,-81.4889314
3811,Kenway Boulevard,44685,40.9621889,-81.4892853
3818,Larabee Circle,44685,40.9616545,-81.4894809
3900,Larabee Circle,44685,40.9613316,-81.4894003
3908,Larabee Circle,44685,40.9610586,-81.4893542
3916,Larabee Circle,44685,40.9608166,-81.4893089
3924,Larabee Circle,44685,40.9605508,-81.4892824
3932,Larabee Circle,44685,40.9603772,-81.4890092
3931,Larabee Circle,44685,40.9605191,-81.4885952
1180,Springbury Drive,44685,40.9606179,-81.4850453
3923,Larabee Circle,44685,40.9607754,-81.4884797
3913,Larabee Circle,44685,40.9610034,-81.4886665
3903,Larabee Circle,44685,40.9612187,-81.4887102
3918,Kenway Boulevard,44685,40.9602741,-81.4878326
3906,Kenway Boulevard,44685,40.9605658,-81.4877705
3898,Kenway Boulevard,44685,40.9607974,-81.4877551
3888,Kenway Boulevard,44685,40.9610455,-81.4877274
3874,Kenway Boulevard,44685,40.9612731,-81.4877817
3858,Kenway Boulevard,44685,40.9614900,-81.4880235
3846,Kenway Boulevard,44685,40.9616161,-81.4883814
3834,Kenway Boulevard,44685,40.9616175,-81.4887088
1076,Brigantine Avenue,44685,40.9614914,-81.4862907
1066,Brigantine Avenue,44685,40.9616737,-81.4866217
1056,Brigantine Avenue,44685,40.9619417,-81.4868946
1044,Brigantine Avenue,44685,40.9621964,-81.4870697
1032,Brigantine Avenue,44685,40.9625049,-81.4872471
1024,Brigantine Avenue,44685,40.9628285,-81.4873056
1012,Brigantine Avenue,44685,40.9630971,-81.4873826
1000,Brigantine Avenue,44685,40.9634311,-81.4874676
980,Brigantine Avenue,44685,40.9640157,-81.4875307
970,Brigantine Avenue,44685,40.9643454,-81.4874518
950,Brigantine Avenue,44685,40.9646402,-81.4872961
960,Brigantine Avenue,44685,40.9648999,-81.4871084
990,Brigantine Avenue,44685,40.9637244,-81.4874571
1200,Springbury Drive,44685,40.9612677,-81.4848018
1210,Springbury Drive,44685,40.9615738,-81.4847790
1220,Springbury Drive,44685,40.9619082,-81.4847562
1232,Springbury Drive,44685,40.9621858,-81.4847388
1244,Springbury Drive,44685,40.9625102,-81.4847112
1254,Springbury Drive,44685,40.9628031,-81.4847024
1264,Springbury Drive,44685,40.9630602,-81.4846782
1274,Springbury Drive,44685,40.9633970,-81.4846840
1286,Springbury Drive,44685,40.9637441,-81.4848303
1296,Springbury Drive,44685,40.9640029,-81.4850874
1306,Springbury Drive,44685,40.9641798,-81.4853976
1316,Springbury Drive,44685,40.9643154,-81.4858348
1326,Springbury Drive,44685,40.9643774,-81.4862379
1338,Brigantine Avenue,44685,40.9645018,-81.4866441
1337,Springbury Drive,44685,40.9639719,-81.4867752
999,Brigantine Avenue,44685,40.9635640,-81.4867162
1075,Mornington Circle,44685,40.9632665,-81.4866076
1085,Mornington Circle,44685,40.9633369,-81.4861373
1092,Mornington Circle,44685,40.9630067,-81.4859073
1084,Mornington Circle,44685,40.9626928,-81.4860701
1074,Mornington Circle,44685,40.9626571,-81.4865110
1323,Springbury Drive,44685,40.9638311,-81.4863005
1063,Brigantine Avenue,44685,40.9621984,-81.4862290
1077,Brigantine Avenue,44685,40.9619570,-81.4859499
1215,Springbury Drive,44685,40.9617795,-81.4854832
1227,Springbury Drive,44685,40.9620594,-81.4854458
1239,Springbury Drive,44685,40.9624023,-81.4854099
1251,Springbury Drive,44685,40.9626906,-81.4854008
1293,Springbury Drive,44685,40.9635588,-81.4855482
1273,Springbury Drive,44685,40.9633140,-81.4853868
3808,Kenway Boulevard,44685,40.9618839,-81.4898637
3800,Kenway Boulevard,44685,40.9620687,-81.4901013
3792,Kenway Boulevard,44685,40.9623138,-81.4902650
3784,Kenway Boulevard,44685,40.9625773,-81.4903411
3776,Kenway Boulevard,44685,40.9628615,-81.4903187
3768,Kenway Boulevard,44685,40.9631093,-81.4903164
3760,Kenway Boulevard,44685,40.9633402,-81.4903003
3752,Kenway Boulevard,44685,40.9635617,-81.4902791
3744,Kenway Boulevard,44685,40.9638068,-81.4902857
3736,Kenway Boulevard,44685,40.9640322,-81.4902638
3728,Kenway Boulevard,44685,40.9642644,-81.4902490
3720,Kenway Boulevard,44685,40.9644954,-81.4902338
3712,Kenway Boulevard,44685,40.9647441,-81.4902288
3704,Kenway Boulevard,44685,40.9649638,-81.4902010
3696,Kenway Boulevard,44685,40.9651986,-81.4901993
3688,Kenway Boulevard,44685,40.9654312,-81.4902026
857,Somerby Circle,44685,40.9652045,-81.4895342
867,Somerby Circle,44685,40.9651810,-81.4892283
878,Somerby Circle,44685,40.9651748,-81.4889098
883,Somerby Circle,44685,40.9651984,-81.4885991
891,Somerby Circle,44685,40.9652366,-81.4882837
898,Somerby Circle,44685,40.9647825,-81.4879829
890,Somerby Circle,44685,40.9646109,-81.4882908
882,Somerby Circle,44685,40.9646445,-81.4886086
874,Somerby Circle,44685,40.9646950,-81.4889342
866,Somerby Circle,44685,40.9647034,-81.4892411
856,Somerby Circle,44685,40.9647162,-81.4895738
937,Montford Circle,44685,40.9641915,-81.4895728
947,Montford Circle,44685,40.9641771,-81.4892642
955,Montford Circle,44685,40.9641704,-81.4889660
963,Montford Circle,44685,40.9642186,-81.4886422
971,Montford Circle,44685,40.9640578,-81.4882936
970,Montford Circle,44685,40.9637642,-81.4883058
962,Montford Circle,44685,40.9636043,-81.4886803
954,Montford Circle,44685,40.9636550,-81.4889769
946,Montford Circle,44685,40.9636718,-81.4892996
936,Montford Circle,44685,40.9636914,-81.4896168
3787,Kenway Boulevard,44685,40.9626824,-81.4896397
992,Dalby Circle,44685,40.9626729,-81.4893637
1000,Dalby Circle,44685,40.9626487,-81.4890490
1008,Dalby Circle,44685,40.9625897,-81.4887076
1016,Dalby Circle,44685,40.9625939,-81.4882997
1024,Dalby Circle,44685,40.9628608,-81.4881893
1017,Dalby Circle,44685,40.9631551,-81.4883354
1009,Dalby Circle,44685,40.9631988,-81.4886993
1001,Dalby Circle,44685,40.9631729,-81.4890266
993,Dalby Circle,44685,40.9631607,-81.4893397
983,Dalby Circle,44685,40.9631584,-81.4896119
1009,Boettler Road,44685,40.9604793,-81.4916391
1840,Franks Parkway,44685,40.9586093,-81.4637824
3903,Massillon Road,44685,40.9551437,-81.4650535
4055,Massillon Road,44685,40.9512065,-81.4646008
1801,Town Park Boulevard,44685,40.9511495,-81.4679615
4086,Massillon Road,44685,40.9502232,-81.4662204
4200,Town Park Boulevard,44685,40.9492080,-81.4687094
4000,Massillon Road,44685,40.9523779,-81.4673327
3154,Graybill Road,44685,40.9594652,-81.4216657
3132,Graybill Road,44685,40.9595848,-81.4225392
3049,Graybill Road,44685,40.9604700,-81.4256305
3039,Graybill Road,44685,40.9604926,-81.4260725
3059,Graybill Road,44685,40.9604936,-81.4251834
3069,Graybill Road,44685,40.9604844,-81.4247702
2961,Graybill Road,44685,40.9591280,-81.4273199
2876,Graybill Road,44685,40.9557810,-81.4276330
2665,Raber Road,44685,40.9657980,-81.4263957
3634,Massillon Road,44685,40.9624120,-81.4659717
1622,East Turkeyfoot Lake Road,44312,40.9730850,-81.4654402
4344,South Arlington Road,44685,40.9531346,-81.4949903
1960,Burgess Drive,44685,40.9520430,-81.4622660
4466,Rayel Circle,44685,40.9419548,-81.4773669
4474,Rayel Circle,44685,40.9415339,-81.4772182
4479,Rayel Circle,44685,40.9415298,-81.4766517
4471,Rayel Circle,44685,40.9417963,-81.4764924
4461,Rayel Circle,44685,40.9420768,-81.4765547
4449,Rayel Circle,44685,40.9424099,-81.4765301
1572,Melanie Drive,44685,40.9424485,-81.4772325
1562,Melanie Drive,44685,40.9424224,-81.4775799
1552,Melanie Drive,44685,40.9424682,-81.4779563
1542,Melanie Drive,44685,40.9424588,-81.4782298
1526,Melanie Drive,44685,40.9424614,-81.4789368
1516,Melanie Drive,44685,40.9425000,-81.4792683
4460,Jolly Circle,44685,40.9420042,-81.4790454
4468,Jolly Circle,44685,40.9417182,-81.4790163
4459,Jolly Circle,44685,40.9419612,-81.4782095
1506,Melanie Drive,44685,40.9425188,-81.4796916
1496,Melanie Drive,44685,40.9425232,-81.4801073
1486,Melanie Drive,44685,40.9425228,-81.4804899
1476,Melanie Drive,44685,40.9425528,-81.4808829
4441,Olean Avenue,44685,40.9425759,-81.4812278
4454,Olean Avenue,44685,40.9421124,-81.4820417
4440,Olean Avenue,44685,40.9425644,-81.4819542
1438,Melanie Drive,44685,40.9425890,-81.4822863
1426,Melanie Drive,44685,40.9426067,-81.4826276
1414,Melanie Drive,44685,40.9425685,-81.4829788
1404,Melanie Drive,44685,40.9425253,-81.4833646
1360,Melanie Drive,44685,40.9423902,-81.4839089
3673,Massillon Road,44685,40.9612699,-81.4645972
3749,Fortuna Drive,44312,40.9700446,-81.4868406
944,East Turkeyfoot Lake Road,44312,40.9741342,-81.4897074
1041,East Turkeyfoot Lake Road,44312,40.9750046,-81.4863965
1019,East Turkeyfoot Lake Road,44312,40.9750129,-81.4869533
1651,East Turkeyfoot Lake Road,44312,40.9745023,-81.4637264
3535,Massillon Road,44685,40.9652732,-81.4641613
3891,South Arlington Road,44685,40.9651073,-81.4911203
560,Ohio Drive,44216,40.9260580,-81.5150247
4015,Massillon Road,44685,40.9520543,-81.4652136
3995,Massillon Road,44685,40.9527954,-81.4653843
4005,Massillon Road,44685,40.9524299,-81.4654159
1650,Amaryllis Drive,44685,40.9439554,-81.4746315
4431,Rayel Circle,44685,40.9429530,-81.4765030
1565,Melanie Drive,44685,40.9429748,-81.4772593
4420,Rayel Circle,44685,40.9432306,-81.4772095
4421,Rayel Circle,44685,40.9432107,-81.4764950
4410,Rayel Circle,44685,40.9435158,-81.4772245
4411,Rayel Circle,44685,40.9434969,-81.4764678
4400,Rayel Circle,44685,40.9437890,-81.4771729
4401,Rayel Circle,44685,40.9437958,-81.4764599
4383,Rayel Circle,44685,40.9440415,-81.4764694
1591,High Tower Drive,44685,40.9442959,-81.4764006
4391,Rayel Circle,44685,40.9446664,-81.4766097
1581,High Tower Drive,44685,40.9445543,-81.4770202
1571,High Tower Drive,44685,40.9446540,-81.4774076
1576,High Tower Drive,44685,40.9440548,-81.4772320
1561,High Tower Drive,44685,40.9445977,-81.4777672
1554,High Tower Drive,44685,40.9440189,-81.4780233
1551,High Tower Drive,44685,40.9446048,-81.4781426
1540,High Tower Drive,44685,40.9440529,-81.4785412
1541,High Tower Drive,44685,40.9446204,-81.4784785
1531,High Tower Drive,44685,40.9446436,-81.4788585
1530,High Tower Drive,44685,40.9440635,-81.4788731
1524,High Tower Drive,44685,40.9441449,-81.4794707
1521,High Tower Drive,44685,40.9446339,-81.4791949
4365,Royce Avenue,44685,40.9446500,-81.4795161
4395,Royce Avenue,44685,40.9438544,-81.4795738
4405,Royce Avenue,44685,40.9435859,-81.4795862
4415,Royce Avenue,44685,40.9433074,-81.4795388
1511,Melanie Drive,44685,40.9430429,-81.4795113
1525,Melanie Drive,44685,40.9430606,-81.4789319
1535,Melanie Drive,44685,40.9430390,-81.4785793
2549,Melanie Drive,44685,40.9430356,-81.4781349
4420,Royce Avenue,44685,40.9430931,-81.4803311
4416,Royce Avenue,44685,40.9433363,-81.4802837
4406,Royce Avenue,44685,40.9436414,-81.4802805
4396,Royce Avenue,44685,40.9438751,-81.4802485
1490,High Tower Drive,44685,40.9441681,-81.4802389
4419,Olean Avenue,44685,40.9431056,-81.4812283
4409,Olean Avenue,44685,40.9433649,-81.4812215
4399,Olean Avenue,44685,40.9436553,-81.4811689
4389,Olean Avenue,44685,40.9439113,-81.4811778
1472,High Tower Drive,44685,40.9441894,-81.4811153
1495,High Tower Drive,44685,40.9447384,-81.4801988
1485,High Tower Drive,44685,40.9446662,-81.4805506
1475,High Tower Drive,44685,40.9446976,-81.4809224
1465,High Tower Drive,44685,40.9447184,-81.4812624
1455,High Tower Drive,44685,40.9447039,-81.4816405
1446,High Tower Drive,44685,40.9441863,-81.4818958
4390,Olean Avenue,44685,40.9439318,-81.4818658
4440,Olean Avenue,44685,40.9436587,-81.4818715
4410,Olean Avenue,44685,40.9433899,-81.4818692
4420,Olean Avenue,44685,40.9431479,-81.4819138
1435,High Tower Drive,44685,40.9447283,-81.4823069
1445,High Tower Drive,44685,40.9447162,-81.4820143
1425,High Tower Drive,44685,40.9447234,-81.4827245
1432,High Tower Drive,44685,40.9442251,-81.4825053
1420,High Tower Drive,44685,40.9442327,-81.4828888
1415,High Tower Drive,44685,40.9447440,-81.4830664
1410,High Tower Drive,44685,40.9441835,-81.4832937
1405,High Tower Drive,44685,40.9447794,-81.4834289
1398,High Tower Drive,44685,40.9442244,-81.4837318
1935,High Tower Drive,44685,40.9447584,-81.4837954
1385,High Tower Drive,44685,40.9447670,-81.4841518
1375,High Tower Drive,44685,40.9448350,-81.4845008
1365,High Tower Drive,44685,40.9448434,-81.4848743
4430,Speedo Lane,44685,40.9445644,-81.4851647
4438,Speedo Lane,44685,40.9442578,-81.4850989
1382,High Tower Drive,44685,40.9442972,-81.4843268
444,Speedo Lane,44685,40.9440062,-81.4842821
4453,Speedo Lane,44685,40.9437365,-81.4843969
4463,Speedo Lane,44685,40.9434784,-81.4844289
4448,Speedo Lane,44685,40.9439960,-81.4850972
4458,Speedo Lane,44685,40.9437056,-81.4850957
1520,Applewood Way,44685,40.9451698,-81.4794885
4362,Royce Avenue,44685,40.9451999,-81.4804428
4360,Royce Avenue,44685,40.9459075,-81.4807242
4335,Massillon Road,44685,40.9433055,-81.4640061
1900,Graybill Road,44685,40.9544670,-81.4622473
1890,Graybill Road,44685,40.9545236,-81.4626268
1880,Graybill Road,44685,40.9546191,-81.4629657
1970,Graybill Road,44685,40.9540002,-81.4597304
2074,Graybill Road,44685,40.9543740,-81.4562744
2040,Graybill Road,44685,40.9536729,-81.4569886
2032,Graybill Road,44685,40.9533581,-81.4579328
1950,Graybill Road,44685,40.9542053,-81.4608137
1870,Graybill Road,44685,40.9546966,-81.4633290
1910,Graybill Road,44685,40.9544115,-81.4618890
1920,Graybill Road,44685,40.9543638,-81.4615888
1955,Burgess Drive,44685,40.9532707,-81.4625736
2036,Graybill Road,44685,40.9530005,-81.4570091
2181,Graybill Road,44685,40.9562546,-81.4534025
2201,Graybill Road,44685,40.9560933,-81.4524162
2235,Graybill Road,44685,40.9562586,-81.4510101
2243,Graybill Road,44685,40.9562438,-81.4506380
2271,Graybill Road,44685,40.9564576,-81.4492252
2311,Graybill Road,44685,40.9563984,-81.4482247
2333,Graybill Road,44685,40.9564959,-81.4474551
2353,Graybill Road,44685,40.9564819,-81.4467966
2281,Graybill Road,44685,40.9582022,-81.4501798
2291,Graybill Road,44685,40.9580026,-81.4492287
2275,Graybill Road,44685,40.9574900,-81.4502380
2219,Graybill Road,44685,40.9561876,-81.4514094
2251,Graybill Road,44685,40.9562544,-81.4502610
2261,Graybill Road,44685,40.9562446,-81.4499091
2369,Graybill Road,44685,40.9566528,-81.4462094
2383,Graybill Road,44685,40.9566943,-81.4457186
2433,Graybill Road,44685,40.9568144,-81.4436850
2397,Graybill Road,44685,40.9567931,-81.4452389
2370,Graybill Road,44685,40.9557767,-81.4459424
1429,Melanie Drive,44685,40.9431729,-81.4825572
1419,Melanie Drive,44685,40.9431630,-81.4829335
1409,Melanie Drive,44685,40.9431737,-81.4832881
1399,Melanie Drive,44685,40.9430829,-81.4836509
1389,Melanie Drive,44685,40.9430016,-81.4840238
4469,Speedo Lane,44685,40.9429701,-81.4843376
4468,Speedo Lane,44685,40.9434315,-81.4851342
4476,Speedo Lane,44685,40.9431410,-81.4851030
4488,Speedo Lane,44685,40.9427511,-81.4850155
1521,Applewood Way,44685,40.9456615,-81.4794266
1531,Applewood Way,44685,40.9456646,-81.4791225
1541,Applewood Way,44685,40.9456984,-81.4787998
1531,Applewood Way,44685,40.9456847,-81.4784771
1561,Applewood Way,44685,40.9457042,-81.4781526
1571,Applewood Way,44685,40.9456686,-81.4778353
1581,Applewood Way,44685,40.9456597,-81.4775142
1591,Applewood Way,44685,40.9456507,-81.4771858
1605,Applewood Way,44685,40.9456395,-81.4768749
1580,Applewood Way,44685,40.9451408,-81.4774718
1570,Applewood Way,44685,40.9451628,-81.4777869
1560,Applewood Way,44685,40.9451765,-81.4781340
1550,Applewood Way,44685,40.9451821,-81.4784634
1540,Applewood Way,44685,40.9451927,-81.4787836
1530,Applewood Way,44685,40.9451691,-81.4791655
4357,Maplewood Drive,44685,40.9451785,-81.4762467
4341,Maplewood Drive,44685,40.9455086,-81.4761783
4331,Maplewood Drive,44685,40.9457508,-81.4761673
4321,Maplewood Drive,44685,40.9459814,-81.4761912
1605,Briarwood Way,44685,40.9465306,-81.4762030
1597,Briarwood Way,44685,40.9466728,-81.4765582
1589,Briarwood Way,44685,40.9466649,-81.4768448
1581,Briarwood Way,44685,40.9466281,-81.4771762
1592,Briarwood Way,44685,40.9461037,-81.4768716
1584,Briarwood Way,44685,40.9461246,-81.4771569
1576,Briarwood Way,44685,40.9461361,-81.4774950
1568,Briarwood Way,44685,40.9461409,-81.4778367
1560,Briarwood Way,44685,40.9461257,-81.4781380
1557,Briarwood Way,44685,40.9466329,-81.4774993
1565,Briarwood Way,44685,40.9466420,-81.4777924
1557,Briarwood Way,44685,40.9466451,-81.4780955
1552,Briarwood Way,44685,40.9461306,-81.4784742
1544,Briarwood Way,44685,40.9461431,-81.4787860
1578,Boettler Road,44685,40.9590003,-81.4709676
1554,Boettler Road,44685,40.9590731,-81.4717644
1594,Boettler Road,44685,40.9589776,-81.4703658
1618,Boettler Road,44685,40.9589471,-81.4694650
1614,Boettler Road,44685,40.9587367,-81.4696512
1630,Boettler Road,44685,40.9588997,-81.4690691
1650,Boettler Road,44685,40.9589125,-81.4680052
1450,Boettler Road,44685,40.9591967,-81.4754013
1388,Boettler Road,44685,40.9589535,-81.4783746
1340,Boettler Road,44685,40.9593238,-81.4795551
1365,Boettler Road,44685,40.9600337,-81.4789653
1345,Boettler Road,44685,40.9599980,-81.4795177
1325,Boettler Road,44685,40.9599687,-81.4799613
1225,Boettler Road,44685,40.9600392,-81.4837141
1180,Boettler Road,44685,40.9593229,-81.4851640
1264,Boettler Road,44685,40.9591853,-81.4821727
1040,Boettler Road,44685,40.9597446,-81.4915819
978,Boettler Road,44685,40.9597969,-81.4925961
899,Somerby Circle,44685,40.9650421,-81.4879667
1190,Springbury Drive,44685,40.9609433,-81.4848337
1311,Springbury Drive,44685,40.9637721,-81.4859144
2940,Chenowith Road,44312,40.9886863,-81.4906150
3540,South Arlington Road,44312,40.9744182,-81.4938042
816,East Turkeyfoot Lake Road,44312,40.9744882,-81.4943279
810,East Turkeyfoot Lake Road,44312,40.9745023,-81.4945546
4178,Massillon Road,44685,40.9477226,-81.4662986
1837,Steese Road,44685,40.9477331,-81.4683372
4148,Massillon Road,44685,40.9487661,-81.4659676
4126,Massillon Road,44685,40.9491407,-81.4659617
1848,Steese Road,44685,40.9471609,-81.4679329
1800,Steese Road,44685,40.9468412,-81.4695058
4199,Massillon Road,44685,40.9471935,-81.4648980
3795,Mayfair Road,44685,40.9658400,-81.4352930
2361,East Turkeyfoot Lake Road,44685,40.9760787,-81.4388792
3392,Mayfair Road,44685,40.9764071,-81.4391191
2520,Wise Road,44685,40.9430619,-81.4385317
2455,Greenview Drive,44685,40.9565063,-81.4414836
2443,Greenview Drive,44685,40.9565087,-81.4418472
2431,Greenview Drive,44685,40.9564828,-81.4421808
2423,Greenview Drive,44685,40.9564424,-81.4425045
2415,Greenview Drive,44685,40.9563786,-81.4428220
2405,Greenview Drive,44685,40.9562672,-81.4431629
2393,Greenview Drive,44685,40.9561585,-81.4435184
2381,Greenview Drive,44685,40.9560305,-81.4438224
3969,Cobworth Court,44685,40.9560042,-81.4442086
3964,Cobworth Court,44685,40.9559079,-81.4446267
3968,Cobworth Court,44685,40.9556526,-81.4447890
2361,Greenview Drive,44685,40.9553727,-81.4446066
2351,Greenview Drive,44685,40.9550348,-81.4447446
2339,Greenview Drive,44685,40.9547408,-81.4447579
2331,Greenview Drive,44685,40.9544318,-81.4447646
2319,Greenview Drive,44685,40.9541762,-81.4448017
2309,Greenview Drive,44685,40.9538465,-81.4448223
2301,Greenview Drive,44685,40.9535475,-81.4448918
2310,Greenview Drive,44685,40.9538930,-81.4440594
2320,Greenview Drive,44685,40.9541417,-81.4440288
2332,Greenview Drive,44685,40.9544864,-81.4440293
2340,Greenview Drive,44685,40.9547530,-81.4440138
2356,Greenview Drive,44685,40.9550602,-81.4439110
2370,Greenview Drive,44685,40.9553741,-81.4437942
2382,Greenview Drive,44685,40.9555333,-81.4435275
2394,Greenview Drive,44685,40.9556641,-81.4432209
2410,Greenview Drive,44685,40.9557619,-81.4428642
3956,Carmelle Court,44685,40.9555488,-81.4425176
3959,Carmelle Court,44685,40.9556429,-81.4420913
2444,Greenview Drive,44685,40.9559716,-81.4419360
3912,Raintree Circle,44685,40.9559043,-81.4414182
3924,Raintree Circle,44685,40.9556062,-81.4413574
3936,Raintree Circle,44685,40.9553379,-81.4414806
3950,Raintree Circle,44685,40.9551491,-81.4417196
3964,Raintree Circle,44685,40.9550994,-81.4420769
3972,Raintree Circle,44685,40.9550711,-81.4424021
3984,Raintree Circle,44685,40.9551524,-81.4427592
3996,Raintree Circle,44685,40.9549923,-81.4431964
3997,Raintree Circle,44685,40.9546150,-81.4431973
3985,Raintree Circle,44685,40.9544617,-81.4428531
3973,Raintree Circle,44685,40.9545188,-81.4424228
3965,Raintree Circle,44685,40.9545083,-81.4420159
3959,Raintree Circle,44685,40.9545420,-81.4415705
3976,Marjess Drive,44685,40.9541777,-81.4414135
2521,Country Club Drive,44685,40.9537670,-81.4414355
2513,Country Club Drive,44685,40.9537836,-81.4418008
2501,Country Club Drive,44685,40.9538249,-81.4421290
2489,Country Club Drive,44685,40.9538601,-81.4425027
2477,Country Club Drive,44685,40.9538314,-81.4428577
2455,Country Club Drive,44685,40.9538540,-81.4436362
2436,Country Club Drive,44685,40.9532141,-81.4445955
2444,Country Club Drive,44685,40.9532527,-81.4441805
2454,Country Club Drive,44685,40.9532667,-81.4437976
2468,Country Club Drive,44685,40.9532367,-81.4433997
2480,Country Club Drive,44685,40.9532496,-81.4429169
2492,Country Club Drive,44685,40.9532701,-81.4425452
2504,Country Club Drive,44685,40.9532423,-81.4420946
2516,Country Club Drive,44685,40.9532188,-81.4416616
2524,Country Club Drive,44685,40.9531956,-81.4413006
2530,Country Club Drive,44685,40.9530090,-81.4402841
3995,Marjess Drive,44685,40.9534753,-81.4404312
3985,Marjess Drive,44685,40.9538459,-81.4406324
3963,Marjess Drive,44685,40.9545088,-81.4407432
3942,Raintree Circle,44685,40.9548998,-81.4409328
3931,Raintree Circle,44685,40.9552290,-81.4407584
3921,Raintree Circle,44685,40.9556061,-81.4406929
2474,Greenview Drive,44685,40.9559302,-81.4406582
2551,Spyglass Way,44685,40.9545556,-81.4403384
2562,Spyglass Way,44685,40.9542000,-81.4396640
2548,Spyglass Way,44685,40.9538606,-81.4401494
2575,Spyglass Way,44685,40.9549054,-81.4398005
2585,Spyglass Way,44685,40.9550930,-81.4394936
2589,Spyglass Way,44685,40.9551515,-81.4391686
2574,Spyglass Way,44685,40.9544341,-81.4394774
2586,Spyglass Way,44685,40.9545853,-81.4391933
2594,Spyglass Way,44685,40.9546290,-81.4388652
2602,Spyglass Way,44685,40.9546434,-81.4385059
2580,Greenview Drive,44685,40.9545659,-81.4381613
2605,Spyglass Way,44685,40.9551306,-81.4384320
2615,Spyglass Way,44685,40.9551519,-81.4381247
2594,Greenview Drive,44685,40.9542139,-81.4381202
2606,Greenview Drive,44685,40.9538023,-81.4381372
2571,Arbor Court,44685,40.9538000,-81.4384905
2563,Arbor Court,44685,40.9538786,-81.4388237
2559,Arbor Court,44685,40.9537692,-81.4392087
2554,Arbor Court,44685,40.9534783,-81.4393784
2558,Arbor Court,44685,40.9532304,-81.4391279
2566,Arbor Court,44685,40.9532132,-81.4387212
2574,Arbor Court,44685,40.9532503,-81.4383787
2582,Arbor Court,44685,40.9532095,-81.4380177
2594,Arbor Court,44685,40.9531830,-81.4376914
2619,Greenview Drive,44685,40.9533715,-81.4374007
2613,Greenview Drive,44685,40.9536455,-81.4374153
2603,Greenview Drive,44685,40.9538953,-81.4374437
2595,Greenview Drive,44685,40.9541722,-81.4374265
2583,Greenview Drive,44685,40.9544179,-81.4373542
2571,Greenview Drive,44685,40.9547620,-81.4374370
2563,Greenview Drive,44685,40.9550487,-81.4374165
2551,Greenview Drive,44685,40.9553753,-81.4373762
2489,Greenview Drive,44685,40.9564777,-81.4400685
2488,Greenview Drive,44685,40.9559651,-81.4401195
2497,Greenview Drive,44685,40.9564732,-81.4396963
2504,Greenview Drive,44685,40.9558649,-81.4394215
2496,Greenview Drive,44685,40.9559256,-81.4397306
2505,Greenview Drive,44685,40.9564235,-81.4393700
2513,Greenview Drive,44685,40.9563665,-81.4390169
2512,Greenview Drive,44685,40.9558435,-81.4390985
2521,Greenview Drive,44685,40.9563169,-81.4386449
2529,Greenview Drive,44685,40.9562632,-81.4381970
3870,Garden Court,44685,40.9562758,-81.4376876
3875,Garden Court,44685,40.9559773,-81.4374794
2543,Greenview Drive,44685,40.9556915,-81.4375042
2536,Greenview Drive,44685,40.9555721,-81.4383869
2524,Greenview Drive,44685,40.9557595,-81.4387260
3245,Pickle Road,44312,40.9755828,-81.4731534
3458,Massillon Road,44685,40.9679651,-81.4673456
3375,Massillon Road,44312,40.9697178,-81.4643520
1600,Stein Road,44312,40.9696680,-81.4632881
1595,Stein Road,44312,40.9701102,-81.4631631
3330,Massillon Road,44312,40.9709182,-81.4662712
3405,Massillon Road,44312,40.9689144,-81.4641558
2614,Sweitzer Road,44685,40.9853745,-81.4287078
3011,Myersville Road,44685,40.9844782,-81.4272441
3007,Myersville Road,44685,40.9843750,-81.4280494
3003,Myersville Road,44685,40.9847419,-81.4294049
6225,Mount Pleasant Street Northwest,44720,40.9080183,-81.4649831
5650,Massillon Road,44720,40.9079002,-81.4644000
5588,Massillon Road,44720,40.9096664,-81.4646485
4780,Winning Way Drive South,44720,40.9268996,-81.4324725
3140,Winning Way Drive South,44720,40.9271396,-81.4327727
5250,Mayfair Road,44720,40.9276276,-81.4286956
1721,Boettler Road,44685,40.9597173,-81.4658828
951,East Turkeyfoot Lake Road,44312,40.9750653,-81.4901018
3021,Myersville Road,44685,40.9838963,-81.4267187
2669,Superior Drive,44685,40.9834024,-81.4272872
2677,Superior Drive,44685,40.9834818,-81.4270001
2685,Superior Drive,44685,40.9834996,-81.4266390
2685,Superior Drive,44685,40.9834254,-81.4262679
3075,Brookline Road,44720,40.9126956,-81.4253150
3060,Brookline Road,44720,40.9109011,-81.4256240
5600,Mayfair Road,44720,40.9168101,-81.4243670
2260,International Parkway,44720,40.9175843,-81.4541218
3390,Ponderosa Trail,44685,40.9712694,-81.4777407
2045,Franks Parkway,44685,40.9555489,-81.4573477
1737,Steese Road,44685,40.9486401,-81.4720675
1474,Boettler Road,44685,40.9577202,-81.4732978
670,Jarvis Road,44319,40.9876931,-81.4986618
4401,Shriver Road,44685,40.9433099,-81.4715376
2300,Graybill Road,44685,40.9546085,-81.4488529
3813,Fortuna Drive,44312,40.9683214,-81.4874731
