House number,Street name,Postal code,Latitude,Longitude
4009,Broadway,43123,39.8825319,-83.0938373
3094,Southwest Boulevard,43123-2335,39.8909247,-83.0846868
2578,London Groveport Road,43123,39.8397015,-83.0749252
3065,London-Groveport Road,43123,39.8395805,-83.0883274
1623,Gateway Circle,43123,39.8848906,-83.0470237
5965,Hoover Road,43123,39.8409418,-83.0749894
2474,Stringtown Road,43123,39.8828146,-83.0686903
3462,Broadway,43123-1941,39.8932857,-83.0835107
3946,Broadway,43123,39.8837412,-83.0920191
3554,Broadway,43123,39.8912788,-83.0851498
3200,Broadway,43123,39.8987118,-83.0794877
1732,Stringtown Road,43123,39.8791462,-83.0411824
4750,Big Run South Road,43123,39.8946834,-83.1178693
1728,Stringtown Road,43123,39.8791430,-83.0410530
4144,Buckeye Parkway,43123,39.8766949,-83.0372931
1693,Stringtown Road,43123,39.8757076,-83.0428830
4144,Buckeye Parkway,43123,39.8766789,-83.0372104
4144,Buckeye Parkway,43123,39.8770289,-83.0370532
3065,London Groveport Road,43123-8514,39.8396367,-83.0882143
1910,Stringtown Road,43123,39.8786206,-83.0538627
1910,Stringtown Road,43123,39.8788812,-83.0538819
1895,Stringtown Road,43123,39.8779482,-83.0537560
1895,Stringtown Road,43123,39.8777763,-83.0537645
3575,Broadway,43123,39.8907293,-83.0871573
3612,Broadway,43123,39.8903123,-83.0860747
3612,Broadway,43123,39.8901902,-83.0862036
3135,Broadway,43123,39.9002987,-83.0796621
3135,Broadway,43123,39.9001536,-83.0793850
1722,Stringtown Road,43123,39.8791377,-83.0408367
1726,Stringtown Road,43123,39.8791404,-83.0409754
1730,Stringtown Road,43123,39.8791473,-83.0411169
5919,Blue Star Drive,43123,39.8480946,-83.0529416
4170,McDowell Rd,43123-3902,39.8777293,-83.0596799
4110,Buckeye Pkwy,43123,39.8773131,-83.0390029
2398,Stringtown Road,43123,39.8799865,-83.0674427
3929,Hoover Road,43123,39.8836908,-83.0703883
4144,Buckeye Parkway,43123,39.8768802,-83.0366936
1693,Stringtown Road,43123,39.8752121,-83.0426099
3903,Broadway,43123,39.8845510,-83.0919406
4197,Marlane Drive,43123,39.8767273,-83.0538847
1947,Stringtown Rd,43123,39.8779585,-83.0546806
3220,Columbus Street,43123,39.8822280,-83.0885210
4330,Dudley Avenue,43123,39.8762175,-83.0925121
4055,Jackpot Road,43123,39.8800931,-83.0468903
4026,Jackpot Road,43123-9700,39.8797376,-83.0452003
3360,Park Street,43123,39.8818602,-83.0922786
1623,Gateway Circle,43123,39.8850028,-83.0463148
2173,Stringtown Road,43123,39.8765891,-83.0614719
4436,Haughn Road,43123,39.8734489,-83.0846511
1801,Gateway Circle,43215,39.8884345,-83.0474816
2811,London - Groveport Road,43123,39.8366163,-83.0807434
1604,Gateway Circle,43123,39.8858811,-83.0462488
5300,North Meadows Drive,43123,39.8525029,-83.0763013
2191,Stringtown Road,43123,39.8783787,-83.0612771
3370,Broadway,43123-1942,39.8949976,-83.0819833
3445,Broadway,43123,39.8939197,-83.0841716
3555,Broadway,43123,39.8917297,-83.0861906
1920,Stringtown Road,43123,39.8786164,-83.0543729
1970,Stringtown Road,43123,39.8786501,-83.0554329
2071,Stringtown Road,43123,39.8780929,-83.0584041
2111,Stringtown Road,43123-2930,39.8781593,-83.0592623
2453,Stringtown Road,43123,39.8806347,-83.0682433
2408,Stringtown Road,43123,39.8814321,-83.0676236
2536,Columbus Street,43123,39.8815137,-83.0702611
1799,Stringtown Road,43123,39.8782822,-83.0446398
1779,Stringtown Road,43123-9125,39.8783504,-83.0441038
1760,Stringtown Road,43123,39.8792879,-83.0430641
1742,Stringtown Road,43123,39.8792081,-83.0418460
1710,Stringtown Road,43123,39.8790503,-83.0401324
1696,Stringtown Road,43123,39.8790429,-83.0395218
1635,Stringtown Road,43123,39.8780289,-83.0409896
1657,Stringtown Road,43123,39.8781716,-83.0417782
1671,Stringtown Road,43213,39.8782468,-83.0423351
3088,Broadway,43123,39.9004820,-83.0777469
1849,Stringtown Road,43123,39.8770890,-83.0525590
1668,Buckeye Place,43123,39.8762981,-83.0477486
4017,Jackpot Road,43123,39.8801078,-83.0462807
3928,Jackpot Road,43123,39.8815350,-83.0450350
1989,Stringtown Road,43123-2933,39.8776457,-83.0561823
2596,West London-Groveport Road,43123,39.8396822,-83.0754861
2986,London Groveport Road,43123,39.8403200,-83.0851986
2321,Stringtown Road,43123,39.8782245,-83.0643871
2787,London Groveport Road,43123,39.8391185,-83.0800832
4200,Gantz Road,43123,39.8768650,-83.0551288
1680,Stringtown Road,43123,39.8808927,-83.0408788
1722,Buckeye Place,43123,39.8757756,-83.0496150
4581,Haughn Road,43123,39.8707304,-83.0867339
5445,Demorest Drive,43123,39.8634981,-83.0913953
4654,Grand Strand Drive,43123,39.8717680,-83.0696800
2600,Cameron Street,43123,39.8978524,-83.0711570
3065,Broadway,43123,39.9015850,-83.0790443
2815,London Groveport Road,43123,39.8391663,-83.0807195
4770,Hoover Road,43123,39.8659420,-83.0689614
4750,Hoover Road,43123,39.8645986,-83.0681031
3575,Broadway,43123,39.8907150,-83.0869679
3959,Broadway,43123,39.8836426,-83.0931338
4210,Buckeye Parkway,43123,39.8743425,-83.0379223
4192,Buckeye Parkway,43123,39.8748886,-83.0372684
1711,Stringtown Road,43123,39.8760230,-83.0445376
1739,Stringtown Road,43123,39.8769518,-83.0449249
1743,Stringtown Road,43123,39.8772572,-83.0448045
1751,Stringtown Road,43123,39.8777963,-83.0445505
1656,Stringtown Road,43123,39.8808089,-83.0394807
1632,Stringtown Road,43123,39.8806409,-83.0387396
1614,Stringtown Road,43123,39.8805357,-83.0381976
1548,Stringtown Road,43123,39.8802125,-83.0362089
1766,Stringtown Road,43123,39.8794758,-83.0434003
1770,Stringtown Road,43123,39.8794724,-83.0435243
1778,Stringtown Road,43123,39.8794702,-83.0437027
1776,Stringtown Road,43123,39.8794711,-83.0436141
1782,Stringtown Road,43123,39.8794688,-83.0438217
1784,Stringtown Road,43123,39.8794685,-83.0439315
1786,Stringtown Road,43123,39.8794683,-83.0440578
1790,Stringtown Road,43123,39.8794639,-83.0442411
3019,Meadow Pond Court,43123,39.8406304,-83.0862203
3015,Meadow Pond Court,43123,39.8406219,-83.0860995
2814,London Groveport Road,43123,39.8401444,-83.0806010
2811,London Groveport Road,43123,39.8390536,-83.0793593
1500,Pinnacle Club Dr,43123,39.8633451,-83.0399951
