House number,Street name,Postal code,Latitude,Longitude
6131,Highland Road,44143,41.5526709,-81.4584014
6345,Wilson Mills Road Alpha Place,44143,41.5395817,-81.4515601
793,Bishop Road,44143,41.5395668,-81.4781509
6267,Wilson Mills Road,44143,41.5392845,-81.4533880
797,Bishop Road,44143,41.5394934,-81.4781433
675,Alpha Drive,44143,41.5460151,-81.4527388
5335,"Avion Park Drive, Unit C",44143,41.5601173,-81.4870689
675,Alpha Drive,44143,41.5457662,-81.4528512
6237,Wilson Mills Road,44143,41.5395335,-81.4545354
675,"Alpha Dr, #E",44143,41.5460064,-81.4527158
6235,Wilson Mills Road,44143,41.5406509,-81.4547889
5612,Wilson Mills Road,44143,41.5378263,-81.4774641
342,Glasgow Drive,44143,41.5640009,-81.4667968
346,Glasgow Drive,44143,41.5637761,-81.4665113
354,Glasgow Drive,44143,41.5635106,-81.4657329
220,Skye Road,44143,41.5677683,-81.4658712
226,Skye Road,44143,41.5676618,-81.4656395
792,Miner Road,44143,41.5396954,-81.4586988
788,Miner Road,44143,41.5400008,-81.4587475
749,Miner Road,44143,41.5423564,-81.4570032
729,Miner Road,44143,41.5429515,-81.4570658
5351,Wilson Mills Road,44143,41.5395802,-81.4866779
5323,Wilson Mills Road,44143,41.5393537,-81.4877227
775,Cheriton Drive,44143,41.5400738,-81.4863241
5363,Wilson Mills Road,44143,41.5395222,-81.4861559
777,Cheriton Drive,44143,41.5400194,-81.4866401
5348,Wilson Mills Road,44143,41.5386705,-81.4869093
786,Radford Drive,44143,41.5401318,-81.4873706
5340,Wilson Mills Road,44143,41.5386558,-81.4871809
5324,Wilson Mills Road,44143,41.5386419,-81.4877417
5332,Wilson Mills Road,44143,41.5386515,-81.4874600
5827,Highland Road,44143,41.5542246,-81.4702154
5827,Highland Road,44143,41.5532276,-81.4700656
773,Alpha Drive,44143,41.5404154,-81.4513336
6018,Aberdeen Boulevard,44143,41.5631211,-81.4625680
5596,Highland Road,44143,41.5522378,-81.4779634
6151,Wilson Mills Road,44143,41.5394790,-81.4575110
6139,Wilson Mills Road,44143,41.5393708,-81.4580173
5564,Wilson Mills Road,44143,41.5386196,-81.4790452
950,Millridge Road,44143,41.5350929,-81.4762985
653,Miner Road,44143,41.5474963,-81.4569439
685,Miner Road,44143,41.5453513,-81.4570542
699,Miner Road,44143,41.5445845,-81.4569798
707,Miner Road,44143,41.5438901,-81.4570474
5360,Wilson Mills Road,44143,41.5380181,-81.4863203
5437,Wilson Mills Road,44143,41.5393739,-81.4836526
5433,Wilson Mills Road,44143,41.5393081,-81.4838940
5415,Wilson Mills Road,44143,41.5393716,-81.4843680
5411,Wilson Mills Road,44143,41.5394069,-81.4845579
5407,Wilson Mills Road,44143,41.5393610,-81.4847239
5401,Wilson Mills Road,44143,41.5393469,-81.4849455
5387,Wilson Mills Road,44143,41.5393557,-81.4853035
5383,Wilson Mills Road,44143,41.5393262,-81.4856176
5375,Wilson Mills Road,44143,41.5393241,-81.4858844
5432,Wilson Mills Road,44143,41.5385768,-81.4837869
5444,Wilson Mills Road,44143,41.5386186,-81.4834091
5456,Wilson Mills Road,44143,41.5386519,-81.4830818
782,Radford Drive,44143,41.5403398,-81.4873735
778,Radford Drive,44143,41.5405839,-81.4874527
774,Radford Drive,44143,41.5407894,-81.4876046
770,Radford Drive,44143,41.5409936,-81.4878498
765,Radford Drive,44143,41.5416652,-81.4876177
769,Radford Drive,44143,41.5415337,-81.4874295
771,Radford Drive,44143,41.5413954,-81.4872036
773,Radford Drive,44143,41.5412132,-81.4869607
777,Radford Drive,44143,41.5410369,-81.4867964
776,Cheriton Drive,44143,41.5406849,-81.4867376
770,Cheriton Drive,44143,41.5407881,-81.4863991
764,Cheriton Drive,44143,41.5410249,-81.4862729
758,Cheriton Drive,44143,41.5412810,-81.4862403
754,Cheriton Drive,44143,41.5414956,-81.4862526
750,Cheriton Drive,44143,41.5417380,-81.4862434
746,Cheriton Drive,44143,41.5419432,-81.4862535
742,Cheriton Drive,44143,41.5421694,-81.4862532
738,Cheriton Drive,44143,41.5423968,-81.4862538
734,Cheriton Drive,44143,41.5426344,-81.4862500
730,Cheriton Drive,44143,41.5428664,-81.4862245
726,Cheriton Drive,44143,41.5430772,-81.4862548
722,Cheriton Drive,44143,41.5432965,-81.4862510
718,Cheriton Drive,44143,41.5435244,-81.4862531
714,Cheriton Drive,44143,41.5437410,-81.4862366
685,Kenbridge Drive,44143,41.5441764,-81.4860699
691,Kenbridge Drive,44143,41.5441849,-81.4863770
701,Kenbridge Drive,44143,41.5440928,-81.4866695
709,Kenbridge Drive,44143,41.5439387,-81.4868638
717,Kenbridge Drive,44143,41.5436885,-81.4869675
723,Kenbridge Drive,44143,41.5434720,-81.4869670
727,Kenbridge Drive,44143,41.5432289,-81.4869684
731,Kenbridge Drive,44143,41.5429549,-81.4869717
735,Kenbridge Drive,44143,41.5427102,-81.4869842
739,Kenbridge Drive,44143,41.5424950,-81.4869666
741,Kenbridge Drive,44143,41.5422677,-81.4870943
743,Kenbridge Drive,44143,41.5420437,-81.4871790
773,Cheriton Drive,44143,41.5401813,-81.4860509
771,Cheriton Drive,44143,41.5403409,-81.4857435
769,Cheriton Drive,44143,41.5405412,-81.4855991
767,Cheriton Drive,44143,41.5407580,-81.4854711
763,Cheriton Drive,44143,41.5409775,-81.4854327
759,Cheriton Drive,44143,41.5412141,-81.4854107
755,Cheriton Drive,44143,41.5414555,-81.4854027
751,Cheriton Drive,44143,41.5416944,-81.4854087
747,Cheriton Drive,44143,41.5419156,-81.4854409
741,Cheriton Drive,44143,41.5421605,-81.4854021
737,Cheriton Drive,44143,41.5423940,-81.4854008
733,Cheriton Drive,44143,41.5426200,-81.4854368
729,Cheriton Drive,44143,41.5428754,-81.4854056
725,Cheriton Drive,44143,41.5431121,-81.4853900
721,Cheriton Drive,44143,41.5433388,-81.4854050
717,Cheriton Drive,44143,41.5435741,-81.4854016
713,Cheriton Drive,44143,41.5437994,-81.4853795
709,Cheriton Drive,44143,41.5440477,-81.4854049
705,Cheriton Drive,44143,41.5442984,-81.4853681
702,Franklin Boulevard,44143,41.5442799,-81.4845263
708,Franklin Boulevard,44143,41.5440585,-81.4845338
712,Franklin Boulevard,44143,41.5438477,-81.4845389
716,Franklin Boulevard,44143,41.5436520,-81.4845141
722,Franklin Boulevard,44143,41.5434405,-81.4845398
724,Franklin Boulevard,44143,41.5432653,-81.4845178
732,Franklin Boulevard,44143,41.5428615,-81.4844541
736,Franklin Boulevard,44143,41.5427225,-81.4844162
738,Franklin Boulevard,44143,41.5425907,-81.4843784
742,Franklin Boulevard,44143,41.5423496,-81.4844897
746,Franklin Boulevard,44143,41.5421650,-81.4844970
750,Franklin Boulevard,44143,41.5419891,-81.4844797
760,Franklin Boulevard,44143,41.5416453,-81.4844198
762,Franklin Boulevard,44143,41.5413528,-81.4843961
762A,Franklin Boulevard,44143,41.5412161,-81.4844282
764,Franklin Boulevard,44143,41.5410409,-81.4844387
772,Franklin Boulevard,44143,41.5408329,-81.4843834
774,Franklin Boulevard,44143,41.5406763,-81.4843888
776,Franklin Boulevard,44143,41.5405255,-81.4844322
780,Franklin Boulevard,44143,41.5403849,-81.4844447
782,Franklin Boulevard,44143,41.5402031,-81.4844327
790,Franklin Boulevard,44143,41.5399995,-81.4844327
794,Franklin Boulevard,44143,41.5398185,-81.4843922
789,Franklin Boulevard,44143,41.5398412,-81.4838476
783,Franklin Boulevard,44143,41.5400462,-81.4838436
781,Franklin Boulevard,44143,41.5402555,-81.4838112
775,Franklin Boulevard,44143,41.5404196,-81.4838325
773,Franklin Boulevard,44143,41.5406449,-81.4838201
771,Franklin Boulevard,44143,41.5408186,-81.4837944
765,Franklin Boulevard,44143,41.5410229,-81.4838305
763,Franklin Boulevard,44143,41.5412488,-81.4838101
759,Franklin Boulevard,44143,41.5414563,-81.4837927
755,Franklin Boulevard,44143,41.5415991,-81.4838164
753,Franklin Boulevard,44143,41.5417654,-81.4838020
747,Franklin Boulevard,44143,41.5420419,-81.4837578
745,Franklin Boulevard,44143,41.5422770,-81.4837415
739,Franklin Boulevard,44143,41.5424340,-81.4837417
737,Franklin Boulevard,44143,41.5425675,-81.4837887
735,Franklin Boulevard,44143,41.5427525,-81.4837893
733,Franklin Boulevard,44143,41.5429631,-81.4837702
727,Franklin Boulevard,44143,41.5431135,-81.4837236
723,Franklin Boulevard,44143,41.5433006,-81.4837658
713,Franklin Boulevard,44143,41.5438457,-81.4836858
709,Franklin Boulevard,44143,41.5440641,-81.4836684
703,Franklin Boulevard,44143,41.5442719,-81.4836299
5444,Kenbridge Drive,44143,41.5441761,-81.4830828
5452,Kenbridge Drive,44143,41.5441733,-81.4828033
5462,Kenbridge Drive,44143,41.5441526,-81.4825057
718,Esther Road,44143,41.5436009,-81.4826417
722,Esther Road,44143,41.5433676,-81.4826400
726,Esther Road,44143,41.5431349,-81.4826465
730,Esther Road,44143,41.5428998,-81.4826616
734,Esther Road,44143,41.5426738,-81.4826899
738,Esther Road,44143,41.5424378,-81.4827102
742,Esther Road,44143,41.5422014,-81.4826848
746,Esther Road,44143,41.5419694,-81.4826803
750,Esther Road,44143,41.5417364,-81.4826750
754,Esther Road,44143,41.5415021,-81.4826867
758,Esther Road,44143,41.5412717,-81.4827278
5452,Renee Drive,44143,41.5410325,-81.4826767
5460,Renee Drive,44143,41.5407859,-81.4825537
5468,Renee Drive,44143,41.5406064,-81.4823930
5476,Renee Drive,44143,41.5404786,-81.4820718
5484,Renee Drive,44143,41.5403771,-81.4817493
5492,Renee Drive,44143,41.5404645,-81.4814150
5500,Renee Drive,44143,41.5405940,-81.4811104
5508,Renee Drive,44143,41.5407786,-81.4809260
5516,Renee Drive,44143,41.5409730,-81.4807394
5524,Renee Drive,44143,41.5411003,-81.4804722
5532,Renee Drive,44143,41.5411011,-81.4801626
5540,Renee Drive,44143,41.5411143,-81.4798494
5548,Renee Drive,44143,41.5411042,-81.4795503
762,Bishop Road,44143,41.5412076,-81.4789014
766,Bishop Road,44143,41.5409930,-81.4789168
770,Bishop Road,44143,41.5407917,-81.4789218
776,Bishop Road,44143,41.5405777,-81.4789373
780,Bishop Road,44143,41.5403611,-81.4789485
784,Bishop Road,44143,41.5401530,-81.4789282
756,Bishop Road,44143,41.5415888,-81.4789433
5547,Renee Drive,44143,41.5416806,-81.4795481
5539,Renee Drive,44143,41.5417219,-81.4798390
5531,Renee Drive,44143,41.5417327,-81.4801597
5523,Renee Drive,44143,41.5417254,-81.4804563
5515,Renee Drive,44143,41.5416373,-81.4807936
5507,Renee Drive,44143,41.5415481,-81.4811172
5499,Renee Drive,44143,41.5413469,-81.4813940
5491,Renee Drive,44143,41.5410730,-81.4816699
757,Esther Road,44143,41.5413011,-81.4819004
753,Esther Road,44143,41.5415691,-81.4818436
749,Esther Road,44143,41.5418019,-81.4818480
745,Esther Road,44143,41.5420398,-81.4818637
741,Esther Road,44143,41.5422714,-81.4819030
752,Bishop Road,44143,41.5417917,-81.4788957
748,Bishop Road,44143,41.5419922,-81.4788487
742,Bishop Road,44143,41.5421934,-81.4788626
736,Bishop Road,44143,41.5424047,-81.4788674
734,Bishop Road,44143,41.5426183,-81.4788539
730,Bishop Road,44143,41.5428236,-81.4788758
5548,Roy Road,44143,41.5427211,-81.4795440
5540,Roy Road,44143,41.5427361,-81.4798252
5532,Roy Road,44143,41.5427112,-81.4801444
5524,Roy Road,44143,41.5427038,-81.4804623
5516,Roy Road,44143,41.5427279,-81.4807556
5508,Roy Road,44143,41.5427404,-81.4810808
5500,Roy Road,44143,41.5427308,-81.4813751
5492,Roy Road,44143,41.5427282,-81.4816861
5484,Roy Road,44143,41.5427154,-81.4819974
5483,Roy Road,44143,41.5433321,-81.4819932
5491,Roy Road,44143,41.5433019,-81.4817149
5499,Roy Road,44143,41.5433205,-81.4813907
5507,Roy Road,44143,41.5433290,-81.4810636
5515,Roy Road,44143,41.5433480,-81.4807656
5523,Roy Road,44143,41.5433412,-81.4804366
5531,Roy Road,44143,41.5432965,-81.4801461
5539,Roy Road,44143,41.5433070,-81.4798282
5547,Roy Road,44143,41.5432858,-81.4795356
726,Bishop Road,44143,41.5432008,-81.4788984
722,Bishop Road,44143,41.5434058,-81.4789138
718,Bishop Road,44143,41.5436177,-81.4788757
714,Bishop Road,44143,41.5438339,-81.4789332
706,Bishop Road,44143,41.5442937,-81.4788975
5532,Kenbridge Drive,44143,41.5441601,-81.4799641
5524,Kenbridge Drive,44143,41.5441447,-81.4802512
5516,Kenbridge Drive,44143,41.5441333,-81.4805585
5508,Kenbridge Drive,44143,41.5441373,-81.4808495
5500,Kenbridge Drive,44143,41.5441462,-81.4811419
5492,Kenbridge Drive,44143,41.5441467,-81.4814362
5484,Kenbridge Drive,44143,41.5441520,-81.4817263
5476,Kenbridge Drive,44143,41.5441323,-81.4819934
710,Kenbridge Drive,44143,41.5441718,-81.4876407
706,Kenbridge Drive,44143,41.5443609,-81.4875013
702,Kenbridge Drive,44143,41.5445385,-81.4872731
698,Kenbridge Drive,44143,41.5446884,-81.4870361
694,Kenbridge Drive,44143,41.5447631,-81.4867565
690,Kenbridge Drive,44143,41.5448025,-81.4864418
686,Kenbridge Drive,44143,41.5448188,-81.4861285
682,Kenbridge Drive,44143,41.5448057,-81.4858522
674,Kenbridge Drive,44143,41.5448284,-81.4855447
666,Kenbridge Drive,44143,41.5447847,-81.4852644
696,Franklin Boulevard,44143,41.5446729,-81.4846012
692,Franklin Boulevard,44143,41.5448765,-81.4846395
688,Franklin Boulevard,44143,41.5450932,-81.4846807
684,Franklin Boulevard,44143,41.5453179,-81.4847357
680,Franklin Boulevard,44143,41.5455251,-81.4848077
663,Radford Drive,44143,41.5454122,-81.4853747
667,Radford Drive,44143,41.5454198,-81.4856635
669,Radford Drive,44143,41.5454186,-81.4859576
671,Radford Drive,44143,41.5454190,-81.4862564
673,Radford Drive,44143,41.5454266,-81.4865506
675,Radford Drive,44143,41.5453784,-81.4868287
677,Radford Drive,44143,41.5453005,-81.4871274
679,Radford Drive,44143,41.5452278,-81.4873774
678,Radford Drive,44143,41.5459276,-81.4873736
676,Radford Drive,44143,41.5459767,-81.4870911
674,Radford Drive,44143,41.5460329,-81.4867980
672,Radford Drive,44143,41.5460386,-81.4864939
670,Radford Drive,44143,41.5460363,-81.4861915
668,Radford Drive,44143,41.5460337,-81.4858864
666,Radford Drive,44143,41.5460578,-81.4855848
664,Radford Drive,44143,41.5460296,-81.4852772
662,Radford Drive,44143,41.5460266,-81.4849698
660,Radford Drive,44143,41.5460442,-81.4846881
666,Strumbly Drive,44143,41.5465030,-81.4848509
662,Strumbly Drive,44143,41.5467515,-81.4848501
658,Strumbly Drive,44143,41.5470006,-81.4848491
654,Strumbly Drive,44143,41.5472449,-81.4848469
650,Strumbly Drive,44143,41.5474914,-81.4848426
644,Strumbly Drive,44143,41.5477415,-81.4848384
638,Strumbly Drive,44143,41.5479866,-81.4848355
632,Strumbly Drive,44143,41.5482356,-81.4848362
626,Strumbly Drive,44143,41.5484844,-81.4848390
620,Strumbly Drive,44143,41.5487277,-81.4848310
614,Strumbly Drive,44143,41.5489751,-81.4848440
608,Strumbly Drive,44143,41.5492198,-81.4848259
604,Strumbly Drive,44143,41.5494664,-81.4848225
600,Strumbly Drive,44143,41.5497144,-81.4848276
596,Strumbly Drive,44143,41.5499610,-81.4848306
592,Strumbly Drive,44143,41.5502092,-81.4848215
588,Strumbly Drive,44143,41.5504584,-81.4848319
584,Strumbly Drive,44143,41.5507081,-81.4848265
580,Strumbly Drive,44143,41.5509568,-81.4848221
576,Strumbly Drive,44143,41.5511933,-81.4848150
572,Strumbly Drive,44143,41.5514656,-81.4848093
568,Strumbly Drive,44143,41.5517135,-81.4847840
5410,Highland Road,44143,41.5522658,-81.4847373
5400,Highland Road,44143,41.5522522,-81.4850116
5388,Highland Road,44143,41.5522300,-81.4853742
5380,Highland Road,44143,41.5522718,-81.4861748
5319,Sebastian Court,44143,41.5488045,-81.4860015
5327,Sebastian Court,44143,41.5485961,-81.4857411
5335,Sebastian Court,44143,41.5482542,-81.4856488
5338,Sebastian Court,44143,41.5479457,-81.4858854
5332,Sebastian Court,44143,41.5479267,-81.4863505
5326,Sebastian Court,44143,41.5479513,-81.4867038
5325,Charles Place,44143,41.5473413,-81.4866854
5333,Charles Place,44143,41.5473702,-81.4862686
5341,Charles Place,44143,41.5472805,-81.4858411
5349,Charles Place,44143,41.5470227,-81.4856422
5342,Charles Place,44143,41.5466888,-81.4858189
5336,Charles Place,44143,41.5466119,-81.4862619
5330,Charles Place,44143,41.5466785,-81.4867179
5324,Charles Place,44143,41.5467058,-81.4871732
664,Charles Place,44143,41.5469685,-81.4873842
658,Charles Place,44143,41.5472420,-81.4875259
652,Charles Place,44143,41.5475211,-81.4875076
646,Charles Place,44143,41.5478406,-81.4874940
640,Charles Place,44143,41.5481287,-81.4874921
634,Charles Place,44143,41.5484316,-81.4874876
628,Charles Place,44143,41.5487362,-81.4875114
622,Charles Place,44143,41.5490397,-81.4874612
616,Charles Place,44143,41.5493596,-81.4874992
610,Charles Place,44143,41.5496391,-81.4875277
604,Charles Place,44143,41.5499403,-81.4874921
598,Charles Place,44143,41.5502416,-81.4874813
592,Charles Place,44143,41.5505475,-81.4874963
586,Charles Place,44143,41.5508509,-81.4874621
580,Charles Place,44143,41.5511431,-81.4874073
574,Charles Place,44143,41.5514177,-81.4873072
568,Charles Place,44143,41.5516927,-81.4872340
629,Charles Place,44143,41.5485894,-81.4866568
623,Charles Place,44143,41.5489542,-81.4866478
617,Charles Place,44143,41.5492734,-81.4866781
611,Charles Place,44143,41.5495949,-81.4866612
5334,Brentwood Court,44143,41.5494137,-81.4860656
5340,Brentwood Court,44143,41.5495867,-81.4857123
5347,Brentwood Court,44143,41.5499475,-81.4856243
5339,Brentwood Court,44143,41.5502326,-81.4858110
5331,Brentwood Court,44143,41.5502497,-81.4863338
5323,Brentwood Court,44143,41.5502606,-81.4866921
587,Charles Place,44143,41.5507328,-81.4866065
581,Charles Place,44143,41.5509959,-81.4865666
575,Charles Place,44143,41.5512732,-81.4864240
569,Charles Place,44143,41.5515265,-81.4864115
5420,Highland Road,44143,41.5522552,-81.4840532
569,Strumbly Drive,44143,41.5516435,-81.4839721
573,Strumbly Drive,44143,41.5513861,-81.4839741
581,Strumbly Drive,44143,41.5509339,-81.4839828
585,Strumbly Drive,44143,41.5506991,-81.4839828
589,Strumbly Drive,44143,41.5504557,-81.4839515
593,Strumbly Drive,44143,41.5502132,-81.4839642
597,Strumbly Drive,44143,41.5499582,-81.4839719
601,Strumbly Drive,44143,41.5497120,-81.4839929
605,Strumbly Drive,44143,41.5494655,-81.4839764
609,Strumbly Drive,44143,41.5492198,-81.4839788
615,Strumbly Drive,44143,41.5489756,-81.4839902
621,Strumbly Drive,44143,41.5487254,-81.4839903
627,Strumbly Drive,44143,41.5484796,-81.4839951
633,Strumbly Drive,44143,41.5482282,-81.4839985
639,Strumbly Drive,44143,41.5479831,-81.4839937
645,Strumbly Drive,44143,41.5477384,-81.4839978
651,Strumbly Drive,44143,41.5474882,-81.4840004
655,Strumbly Drive,44143,41.5472429,-81.4839976
659,Strumbly Drive,44143,41.5469944,-81.4840094
663,Strumbly Drive,44143,41.5467481,-81.4840049
667,Strumbly Drive,44143,41.5465011,-81.4840128
658,Radford Drive,44143,41.5460455,-81.4841093
656,Radford Drive,44143,41.5460276,-81.4838069
654,Radford Drive,44143,41.5460308,-81.4834900
648,Radford Drive,44143,41.5460365,-81.4831715
646,Radford Drive,44143,41.5460341,-81.4828799
644,Radford Drive,44143,41.5460375,-81.4825905
642,Radford Drive,44143,41.5460224,-81.4822995
640,Radford Drive,44143,41.5460356,-81.4820086
638,Radford Drive,44143,41.5460324,-81.4817127
636,Radford Drive,44143,41.5460135,-81.4814178
634,Radford Drive,44143,41.5460719,-81.4811426
5496,Clinton Lane,44143,41.5467298,-81.4812181
5480,Clinton Lane,44143,41.5467501,-81.4815797
5474,Clinton Lane,44143,41.5467213,-81.4819954
5468,Clinton Lane,44143,41.5466995,-81.4823828
5452,Clinton Lane,44143,41.5466370,-81.4828021
658,Clinton Lane,44143,41.5467610,-81.4831580
654,Clinton Lane,44143,41.5470963,-81.4832430
650,Clinton Lane,44143,41.5474102,-81.4830618
644,Clinton Lane,44143,41.5476821,-81.4830532
608,Clinton Lane,44143,41.5495214,-81.4830309
604,Clinton Lane,44143,41.5498245,-81.4830368
600,Clinton Lane,44143,41.5501274,-81.4830422
596,Clinton Lane,44143,41.5504251,-81.4830254
592,Clinton Lane,44143,41.5507073,-81.4830643
584,Clinton Lane,44143,41.5510477,-81.4831992
582,Clinton Lane,44143,41.5513774,-81.4831138
581,Clinton Lane,44143,41.5514787,-81.4826867
585,Clinton Lane,44143,41.5513464,-81.4823233
589,Clinton Lane,44143,41.5510140,-81.4821898
593,Clinton Lane,44143,41.5506788,-81.4822044
597,Clinton Lane,44143,41.5503576,-81.4822137
601,Clinton Lane,44143,41.5500878,-81.4822074
585,Dewitt Drive,44143,41.5501266,-81.4815517
589,Dewitt Drive,44143,41.5501070,-81.4811911
593,Dewitt Drive,44143,41.5503446,-81.4807766
597,Dewitt Drive,44143,41.5502231,-81.4804056
601,Dewitt Drive,44143,41.5499026,-81.4802473
605,Dewitt Drive,44143,41.5495932,-81.4803232
609,Dewitt Drive,44143,41.5493241,-81.4803966
615,Dewitt Drive,44143,41.5490538,-81.4803810
621,Dewitt Drive,44143,41.5487755,-81.4803906
627,Dewitt Drive,44143,41.5485092,-81.4803740
651,Clinton Lane,44143,41.5473344,-81.4821997
645,Clinton Lane,44143,41.5476057,-81.4822154
639,Clinton Lane,44143,41.5478805,-81.4822387
605,Clinton Lane,44143,41.5495259,-81.4822147
604,Dewitt Drive,44143,41.5495309,-81.4812315
608,Dewitt Drive,44143,41.5492500,-81.4812347
614,Dewitt Drive,44143,41.5489812,-81.4812295
620,Dewitt Drive,44143,41.5487012,-81.4812358
626,Dewitt Drive,44143,41.5484268,-81.4812316
632,Dewitt Drive,44143,41.5481451,-81.4812376
638,Dewitt Drive,44143,41.5478816,-81.4812161
644,Dewitt Drive,44143,41.5476120,-81.4812510
650,Dewitt Drive,44143,41.5473358,-81.4812905
5436,Highland Road,44143,41.5522175,-81.4837378
5444,Highland Road,44143,41.5522317,-81.4833973
5452,Highland Road,44143,41.5520550,-81.4830683
5460,Highland Road,44143,41.5522347,-81.4827543
5472,Highland Road,44143,41.5523413,-81.4824392
5480,Highland Road,44143,41.5522778,-81.4820942
5488,Highland Road,44143,41.5522665,-81.4818046
5504,Highland Road,44143,41.5520391,-81.4812899
5516,Highland Road,44143,41.5523091,-81.4808685
5520,Highland Road,44143,41.5515274,-81.4806032
5528,Highland Road,44143,41.5523086,-81.4803266
5540,Highland Road,44143,41.5522873,-81.4800490
5544,Highland Road,44143,41.5522747,-81.4796834
5552,Highland Road,44143,41.5522822,-81.4793985
697,Franklin Boulevard,44143,41.5446728,-81.4837368
693,Franklin Boulevard,44143,41.5448775,-81.4837894
689,Franklin Boulevard,44143,41.5450922,-81.4838416
685,Franklin Boulevard,44143,41.5453152,-81.4838896
681,Franklin Boulevard,44143,41.5455173,-81.4839393
653,Radford Drive,44143,41.5453923,-81.4831682
651,Radford Drive,44143,41.5453932,-81.4828759
649,Radford Drive,44143,41.5454027,-81.4825671
647,Radford Drive,44143,41.5453954,-81.4822710
645,Radford Drive,44143,41.5453838,-81.4819791
643,Radford Drive,44143,41.5454103,-81.4816500
641,Radford Drive,44143,41.5454072,-81.4813482
639,Radford Drive,44143,41.5453110,-81.4810063
637,Radford Drive,44143,41.5453693,-81.4806802
635,Radford Drive,44143,41.5455420,-81.4804531
675,Dewitt Drive,44143,41.5457940,-81.4803854
671,Dewitt Drive,44143,41.5460206,-81.4804366
667,Dewitt Drive,44143,41.5462286,-81.4804695
663,Dewitt Drive,44143,41.5464781,-81.4804501
659,Dewitt Drive,44143,41.5468048,-81.4803891
655,Dewitt Drive,44143,41.5470880,-81.4804008
651,Dewitt Drive,44143,41.5473781,-81.4804361
645,Dewitt Drive,44143,41.5476664,-81.4804121
639,Dewitt Drive,44143,41.5479513,-81.4803596
5445,Kenbridge Drive,44143,41.5447961,-81.4831898
5453,Kenbridge Drive,44143,41.5447949,-81.4828873
5461,Kenbridge Drive,44143,41.5447687,-81.4826086
5469,Kenbridge Drive,44143,41.5447657,-81.4823153
5477,Kenbridge Drive,44143,41.5447706,-81.4820220
5485,Kenbridge Drive,44143,41.5447870,-81.4817100
5493,Kenbridge Drive,44143,41.5447631,-81.4814338
5501,Kenbridge Drive,44143,41.5447810,-81.4811501
5509,Kenbridge Drive,44143,41.5447832,-81.4808732
5517,Kenbridge Drive,44143,41.5447523,-81.4805750
5525,Kenbridge Drive,44143,41.5447606,-81.4802797
5533,Kenbridge Drive,44143,41.5447839,-81.4799703
5541,Kenbridge Drive,44143,41.5447747,-81.4796954
5549,Kenbridge Drive,44143,41.5447783,-81.4794250
700,Bishop Road,44143,41.5446553,-81.4788571
696,Bishop Road,44143,41.5448915,-81.4789939
690,Bishop Road,44143,41.5452008,-81.4789595
5411,Highland Road,44143,41.5530543,-81.4845476
5427,Highland Road,44143,41.5531133,-81.4841291
5439,Highland Road,44143,41.5530396,-81.4837194
5451,Highland Road,44143,41.5529361,-81.4831414
5463,Highland Road,44143,41.5529308,-81.4827397
836,Colony Drive,44143,41.5375068,-81.4845955
840,Colony Drive,44143,41.5372286,-81.4846218
850,Colony Drive,44143,41.5369560,-81.4846059
860,Colony Drive,44143,41.5366844,-81.4846221
870,Colony Drive,44143,41.5364333,-81.4845895
880,Colony Drive,44143,41.5361326,-81.4845864
890,Colony Drive,44143,41.5358605,-81.4845707
900,Colony Drive,44143,41.5356214,-81.4845795
910,Colony Drive,44143,41.5353145,-81.4846204
920,Colony Drive,44143,41.5350367,-81.4845782
930,Colony Drive,44143,41.5347500,-81.4845764
5395,West Mill Drive,44143,41.5348678,-81.4850268
5387,West Mill Drive,44143,41.5348635,-81.4853195
5379,West Mill Drive,44143,41.5348319,-81.4856223
5371,West Mill Drive,44143,41.5348556,-81.4859062
5363,West Mill Drive,44143,41.5348544,-81.4861803
5355,West Mill Drive,44143,41.5348560,-81.4864891
5347,West Mill Drive,44143,41.5348781,-81.4868153
5339,West Mill Drive,44143,41.5347766,-81.4871476
942,West Mill Drive,44143,41.5346032,-81.4874279
950,West Mill Drive,44143,41.5343450,-81.4875660
958,West Mill Drive,44143,41.5340654,-81.4875535
968,West Mill Drive,44143,41.5338041,-81.4875178
978,West Mill Drive,44143,41.5335184,-81.4875387
986,West Mill Drive,44143,41.5332676,-81.4875508
994,West Mill Drive,44143,41.5329963,-81.4875124
1002,West Mill Drive,44143,41.5327468,-81.4875182
1012,West Mill Drive,44143,41.5324692,-81.4875335
1022,West Mill Drive,44143,41.5321906,-81.4875232
1032,West Mill Drive,44143,41.5319174,-81.4875248
1040,West Mill Drive,44143,41.5316573,-81.4875109
1048,West Mill Drive,44143,41.5313888,-81.4875039
1058,West Mill Drive,44143,41.5311244,-81.4875104
1068,West Mill Drive,44143,41.5308889,-81.4875493
1071,West Mill Drive,44143,41.5308763,-81.4866901
1061,West Mill Drive,44143,41.5311184,-81.4867086
1051,West Mill Drive,44143,41.5314109,-81.4867190
1041,West Mill Drive,44143,41.5316640,-81.4867313
1031,West Mill Drive,44143,41.5319324,-81.4867282
1023,West Mill Drive,44143,41.5321996,-81.4867291
1013,West Mill Drive,44143,41.5324675,-81.4866618
1005,West Mill Drive,44143,41.5327019,-81.4866875
995,West Mill Drive,44143,41.5329991,-81.4867301
987,West Mill Drive,44143,41.5332679,-81.4867231
977,West Mill Drive,44143,41.5335233,-81.4867299
969,West Mill Drive,44143,41.5338046,-81.4867244
959,West Mill Drive,44143,41.5340727,-81.4867308
951,West Mill Drive,44143,41.5343126,-81.4866933
946,Oakview Drive,44143,41.5343096,-81.4860763
958,Oakview Drive,44143,41.5340796,-81.4860852
966,Oakview Drive,44143,41.5338052,-81.4860494
976,Oakview Drive,44143,41.5335393,-81.4860495
986,Oakview Drive,44143,41.5332734,-81.4860340
994,Oakview Drive,44143,41.5330024,-81.4860453
1002,Oakview Drive,44143,41.5327327,-81.4860450
1012,Oakview Drive,44143,41.5324619,-81.4860310
1022,Oakview Drive,44143,41.5321970,-81.4860465
1036,Oakview Drive,44143,41.5319314,-81.4860431
1040,Oakview Drive,44143,41.5316612,-81.4860786
1048,Oakview Drive,44143,41.5313916,-81.4860506
1058,Oakview Drive,44143,41.5311276,-81.4860430
1076,Oakview Drive,44143,41.5308847,-81.4860774
1075,Oakview Drive,44143,41.5308938,-81.4852135
1061,Oakview Drive,44143,41.5311286,-81.4852509
1051,Oakview Drive,44143,41.5313994,-81.4852427
1041,Oakview Drive,44143,41.5316644,-81.4852626
1031,Oakview Drive,44143,41.5319284,-81.4852643
1023,Oakview Drive,44143,41.5322058,-81.4852432
1013,Oakview Drive,44143,41.5324663,-81.4852580
1005,Oakview Drive,44143,41.5327341,-81.4852398
995,Oakview Drive,44143,41.5330024,-81.4852728
987,Oakview Drive,44143,41.5332699,-81.4852688
977,Oakview Drive,44143,41.5335512,-81.4852270
969,Oakview Drive,44143,41.5338031,-81.4852212
955,Oakview Drive,44143,41.5340745,-81.4852723
951,Oakview Drive,44143,41.5343266,-81.4852708
950,Colony Drive,44143,41.5343196,-81.4846263
958,Colony Drive,44143,41.5340806,-81.4845988
968,Colony Drive,44143,41.5338089,-81.4845787
978,Colony Drive,44143,41.5335418,-81.4845630
886,Colony Drive,44143,41.5332672,-81.4845949
894,Colony Drive,44143,41.5330032,-81.4845720
1002,Colony Drive,44143,41.5327380,-81.4845601
1012,Colony Drive,44143,41.5324796,-81.4845928
1022,Colony Drive,44143,41.5321994,-81.4845386
1032,Colony Drive,44143,41.5319404,-81.4845522
1040,Colony Drive,44143,41.5316775,-81.4845481
1048,Colony Drive,44143,41.5314011,-81.4845572
1058,Colony Drive,44143,41.5311305,-81.4845623
1076,Colony Drive,44143,41.5308865,-81.4845950
1075,Colony Drive,44143,41.5309171,-81.4837712
1065,Colony Drive,44143,41.5311553,-81.4837836
1055,Colony Drive,44143,41.5314498,-81.4837781
1045,Colony Drive,44143,41.5316951,-81.4837530
1035,Colony Drive,44143,41.5319669,-81.4837878
1025,Colony Drive,44143,41.5322266,-81.4837687
1015,Colony Drive,44143,41.5325119,-81.4837557
1005,Colony Drive,44143,41.5327810,-81.4837688
995,Colony Drive,44143,41.5330590,-81.4837804
985,Colony Drive,44143,41.5332976,-81.4837819
975,Colony Drive,44143,41.5336056,-81.4837887
965,Colony Drive,44143,41.5338725,-81.4837802
955,Colony Drive,44143,41.5341521,-81.4837975
945,Colony Drive,44143,41.5344208,-81.4837797
925,Colony Drive,44143,41.5349715,-81.4837986
915,Colony Drive,44143,41.5352445,-81.4838086
905,Colony Drive,44143,41.5355158,-81.4838048
895,Colony Drive,44143,41.5357860,-81.4837945
885,Colony Drive,44143,41.5360778,-81.4837969
875,Colony Drive,44143,41.5363253,-81.4838069
865,Colony Drive,44143,41.5365967,-81.4837912
855,Colony Drive,44143,41.5368625,-81.4837968
845,Colony Drive,44143,41.5371235,-81.4838011
846,Eastlawn Drive,44143,41.5371358,-81.4832659
856,Eastlawn Drive,44143,41.5368736,-81.4832350
866,Eastlawn Drive,44143,41.5366341,-81.4832988
876,Eastlawn Drive,44143,41.5363307,-81.4832646
886,Eastlawn Drive,44143,41.5360498,-81.4832330
896,Eastlawn Drive,44143,41.5358189,-81.4832572
926,Eastlawn Drive,44143,41.5349715,-81.4832234
946,Eastlawn Drive,44143,41.5344238,-81.4832343
996,Eastlawn Drive,44143,41.5330622,-81.4832481
1026,Eastlawn Drive,44143,41.5322423,-81.4832035
1046,Eastlawn Drive,44143,41.5316801,-81.4831920
1055,Eastlawn Drive,44143,41.5314251,-81.4824295
1025,Eastlawn Drive,44143,41.5322320,-81.4824361
985,Eastlawn Drive,44143,41.5333119,-81.4824008
975,Eastlawn Drive,44143,41.5335810,-81.4824184
945,Eastlawn Drive,44143,41.5344197,-81.4824361
895,Eastlawn Drive,44143,41.5357851,-81.4824238
885,Eastlawn Drive,44143,41.5360807,-81.4824220
875,Eastlawn Drive,44143,41.5363646,-81.4824153
865,Eastlawn Drive,44143,41.5366218,-81.4824249
853,Eastlawn Drive,44143,41.5368651,-81.4824437
847,Eastlawn Drive,44143,41.5372135,-81.4824651
841,Eastlawn Drive,44143,41.5374712,-81.4826737
837,Eastlawn Drive,44143,41.5376330,-81.4830293
835,Eastlawn Drive,44143,41.5376703,-81.4833969
833,Colony Drive,44143,41.5376231,-81.4837505
823,Colony Drive,44143,41.5378611,-81.4838024
817,Colony Drive,44143,41.5381417,-81.4838096
872,Ford Road,44143,41.5365211,-81.4800282
888,Ford Road,44143,41.5361646,-81.4800105
996,Ford Road,44143,41.5340149,-81.4800104
1060,Ford Road,44143,41.5315181,-81.4800087
1025,Ford Road,44143,41.5323544,-81.4789851
951,Ford Road,44143,41.5343695,-81.4789751
911,Ford Road,44143,41.5353446,-81.4790431
867,Ford Road,44143,41.5364390,-81.4790974
859,Ford Road,44143,41.5367098,-81.4790701
1026,Brainard Road,44143,41.5323828,-81.4783992
966,Brainard Road,44143,41.5339953,-81.4784403
956,Brainard Road,44143,41.5342960,-81.4784574
936,Brainard Road,44143,41.5348439,-81.4784613
924,Brainard Road,44143,41.5350990,-81.4784388
884,Brainard Road,44143,41.5361901,-81.4785452
5525,Turnberry Lane,44143,41.5537055,-81.4800544
5513,Turnberry Lane,44143,41.5536723,-81.4805104
5501,Turnberry Lane,44143,41.5536695,-81.4809577
5489,Turnberry Lane,44143,41.5537684,-81.4814250
5477,Turnberry Lane,44143,41.5537390,-81.4819195
5464,Turnberry Lane,44143,41.5534096,-81.4821424
5476,Turnberry Lane,44143,41.5530557,-81.4819551
5488,Turnberry Lane,44143,41.5529695,-81.4814651
5500,Turnberry Lane,44143,41.5530550,-81.4809958
5512,Turnberry Lane,44143,41.5530528,-81.4805247
5524,Turnberry Lane,44143,41.5530190,-81.4801098
5536,Turnberry Lane,44143,41.5530605,-81.4796318
5548,Turnberry Lane,44143,41.5531417,-81.4791537
5560,Turnberry Lane,44143,41.5534224,-81.4788529
5572,Turnberry Lane,44143,41.5537868,-81.4789114
5584,Turnberry Lane,44143,41.5541355,-81.4788568
5596,Turnberry Lane,44143,41.5544719,-81.4789054
5608,Turnberry Lane,44143,41.5548255,-81.4788511
5620,Turnberry Lane,44143,41.5551603,-81.4788320
5632,Turnberry Lane,44143,41.5555058,-81.4788839
5644,Turnberry Lane,44143,41.5558199,-81.4788114
5536,Strathaven Drive,44143,41.5557713,-81.4796593
5537,Prestwick Lane,44143,41.5550465,-81.4796597
5525,Prestwick Lane,44143,41.5550535,-81.4800542
5513,Prestwick Lane,44143,41.5550693,-81.4804989
5501,Prestwick Lane,44143,41.5550437,-81.4809695
5489,Prestwick Lane,44143,41.5551662,-81.4814286
5477,Prestwick Lane,44143,41.5551057,-81.4819028
5464,Prestwick Lane,44143,41.5547258,-81.4820993
5476,Prestwick Lane,44143,41.5543489,-81.4819112
5488,Prestwick Lane,44143,41.5543534,-81.4814080
5500,Prestwick Lane,44143,41.5544200,-81.4809641
5512,Prestwick Lane,44143,41.5544003,-81.4805305
5524,Prestwick Lane,44143,41.5544226,-81.4800635
5536,Prestwick Lane,44143,41.5543797,-81.4796709
5537,Turnberry Lane,44143,41.5537157,-81.4796794
5524,Strathaven Drive,44143,41.5557880,-81.4800647
5512,Strathaven Drive,44143,41.5557923,-81.4804921
5500,Strathaven Drive,44143,41.5557876,-81.4809576
5488,Strathaven Drive,44143,41.5557290,-81.4814095
5476,Strathaven Drive,44143,41.5557881,-81.4819391
5464,Strathaven Drive,44143,41.5561377,-81.4821558
5477,Strathaven Drive,44143,41.5565091,-81.4819272
5489,Strathaven Drive,44143,41.5565111,-81.4813992
5501,Strathaven Drive,44143,41.5564236,-81.4809465
5513,Strathaven Drive,44143,41.5564689,-81.4805056
5525,Strathaven Drive,44143,41.5564206,-81.4800376
5537,Strathaven Drive,44143,41.5564315,-81.4796164
5549,Strathaven Drive,44143,41.5565022,-81.4791321
5561,Strathaven Drive,44143,41.5565060,-81.4787444
450,West Glengary Circle,44143,41.5583284,-81.4704780
446,West Glengary Circle,44143,41.5584679,-81.4705816
442,West Glengary Circle,44143,41.5586063,-81.4706901
438,West Glengary Circle,44143,41.5587496,-81.4707952
434,West Glengary Circle,44143,41.5588915,-81.4708959
430,West Glengary Circle,44143,41.5590274,-81.4710034
426,West Glengary Circle,44143,41.5592010,-81.4710297
422,West Glengary Circle,44143,41.5593657,-81.4710241
418,West Glengary Circle,44143,41.5595264,-81.4710237
414,West Glengary Circle,44143,41.5596865,-81.4710246
410,West Glengary Circle,44143,41.5598501,-81.4710209
406,West Glengary Circle,44143,41.5600077,-81.4710174
402,West Glengary Circle,44143,41.5601696,-81.4710221
398,West Glengary Circle,44143,41.5603335,-81.4710180
394,West Glengary Circle,44143,41.5604931,-81.4710161
390,West Glengary Circle,44143,41.5606527,-81.4710111
386,West Glengary Circle,44143,41.5608152,-81.4710104
382,West Glengary Circle,44143,41.5609730,-81.4710079
378,West Glengary Circle,44143,41.5611421,-81.4710134
374,West Glengary Circle,44143,41.5613030,-81.4709836
370,West Glengary Circle,44143,41.5614725,-81.4708428
366,East Glengary,44143,41.5615116,-81.4705168
359,East Glengary,44143,41.5615061,-81.4702955
363,East Glengary,44143,41.5614965,-81.4700792
367,East Glengary,44143,41.5614132,-81.4698586
371,East Glengary,44143,41.5612606,-81.4697518
375,East Glengary,44143,41.5610808,-81.4696661
379,East Glengary,44143,41.5609258,-81.4696051
383,East Glengary,44143,41.5607737,-81.4695408
387,East Glengary,44143,41.5606173,-81.4694771
391,East Glengary,44143,41.5604644,-81.4694090
395,East Glengary,44143,41.5603115,-81.4693461
399,East Glengary,44143,41.5601348,-81.4692943
403,East Glengary,44143,41.5599758,-81.4692581
407,East Glengary,44143,41.5598189,-81.4692201
411,East Glengary,44143,41.5596573,-81.4691892
415,East Glengary,44143,41.5595012,-81.4691436
431,East Glengary,44143,41.5592927,-81.4689278
435,East Glengary,44143,41.5592691,-81.4687141
439,East Glengary,44143,41.5592443,-81.4684923
443,East Glengary,44143,41.5592224,-81.4682770
440,East Glengary,44143,41.5587924,-81.4687516
436,East Glengary,44143,41.5588125,-81.4689662
432,East Glengary,44143,41.5588379,-81.4691749
428,East Glengary,44143,41.5588747,-81.4694073
424,East Glengary,44143,41.5589961,-81.4695917
420,East Glengary,44143,41.5591467,-81.4697186
416,East Glengary,44143,41.5593217,-81.4697459
412,East Glengary,44143,41.5594758,-81.4697878
408,East Glengary,44143,41.5596274,-81.4698278
404,East Glengary,44143,41.5597924,-81.4698650
400,East Glengary,44143,41.5599481,-81.4699054
396,East Glengary,44143,41.5601080,-81.4699430
445,West Glengary Circle,44143,41.5585462,-81.4698982
441,West Glengary Circle,44143,41.5586837,-81.4699998
437,West Glengary Circle,44143,41.5588305,-81.4701054
433,West Glengary Circle,44143,41.5589693,-81.4702124
429,West Glengary Circle,44143,41.5591081,-81.4703181
425,West Glengary Circle,44143,41.5592841,-81.4703897
421,West Glengary Circle,44143,41.5594464,-81.4703895
417,West Glengary Circle,44143,41.5596041,-81.4703904
413,West Glengary Circle,44143,41.5597657,-81.4703815
409,West Glengary Circle,44143,41.5599231,-81.4703863
405,West Glengary Circle,44143,41.5600878,-81.4703820
401,West Glengary Circle,44143,41.5602515,-81.4703827
397,West Glengary Circle,44143,41.5604105,-81.4703780
393,West Glengary Circle,44143,41.5605748,-81.4703745
389,West Glengary Circle,44143,41.5607311,-81.4703700
385,West Glengary Circle,44143,41.5608934,-81.4703727
381,West Glengary Circle,44143,41.5610542,-81.4703746
307,Perth Drive,44143,41.5657825,-81.4673625
315,Perth Drive,44143,41.5656501,-81.4664967
308,Perth Drive,44143,41.5661428,-81.4668628
312,Perth Drive,44143,41.5660797,-81.4663394
304,Perth Drive,44143,41.5662599,-81.4672932
327,Glasgow Drive,44143,41.5654469,-81.4670125
331,Glasgow Drive,44143,41.5652513,-81.4665982
335,Glasgow Drive,44143,41.5648398,-81.4664145
343,Glasgow Drive,44143,41.5641359,-81.4661976
360,East Edinburgh Drive,44143,41.5636443,-81.4652950
350,Glasgow Drive,44143,41.5635077,-81.4662311
338,Glasgow Drive,44143,41.5642989,-81.4670129
334,Glasgow Drive,44143,41.5646694,-81.4669685
330,Glasgow Drive,44143,41.5649886,-81.4670237
300,Gretna Green Drive,44143,41.5667913,-81.4637178
296,Gretna Green Drive,44143,41.5667337,-81.4634463
286,Skye Road,44143,41.5670835,-81.4634892
171,Burwick Road,44143,41.5684467,-81.4677937
181,Burwick Road,44143,41.5689977,-81.4665974
185,Burwick Road,44143,41.5689662,-81.4663458
237,Burwick Road,44143,41.5689479,-81.4634942
241,Burwick Road,44143,41.5689454,-81.4632014
245,Burwick Road,44143,41.5689206,-81.4628489
249,Burwick Road,44143,41.5686171,-81.4628716
253,Burwick Road,44143,41.5684514,-81.4628821
257,Burwick Road,44143,41.5682934,-81.4628862
261,Burwick Road,44143,41.5681266,-81.4628921
265,Burwick Road,44143,41.5679585,-81.4628977
269,Burwick Road,44143,41.5677890,-81.4629068
273,Burwick Road,44143,41.5676313,-81.4629155
277,Burwick Road,44143,41.5674483,-81.4629188
281,Burwick Road,44143,41.5672332,-81.4629115
285,Burwick Road,44143,41.5670721,-81.4628957
289,Burwick Road,44143,41.5669087,-81.4628754
293,Burwick Road,44143,41.5667451,-81.4628589
297,Burwick Road,44143,41.5665965,-81.4626447
301,Burwick Road,44143,41.5664582,-81.4624042
305,Burwick Road,44143,41.5662035,-81.4623921
309,Burwick Road,44143,41.5660458,-81.4624442
313,Burwick Road,44143,41.5658862,-81.4624950
317,Burwick Road,44143,41.5657258,-81.4625398
321,Burwick Road,44143,41.5655689,-81.4625942
325,Burwick Road,44143,41.5654075,-81.4626401
329,Burwick Road,44143,41.5652506,-81.4626953
333,Burwick Road,44143,41.5650854,-81.4627382
337,Burwick Road,44143,41.5649219,-81.4627858
341,Burwick Road,44143,41.5647625,-81.4628391
345,Burwick Road,44143,41.5645975,-81.4628820
349,Burwick Road,44143,41.5644415,-81.4629364
353,Burwick Road,44143,41.5642806,-81.4629925
357,Burwick Road,44143,41.5641236,-81.4630346
319,Gretna Green Drive,44143,41.5659498,-81.4634010
315,Gretna Green Drive,44143,41.5661548,-81.4634546
310,Burwick Road,44143,41.5662124,-81.4630298
314,Burwick Road,44143,41.5660092,-81.4630643
318,Burwick Road,44143,41.5658071,-81.4631284
322,Burwick Road,44143,41.5656054,-81.4632004
279,Skye Road,44143,41.5675019,-81.4635378
268,Alden Road,44143,41.5677997,-81.4634818
180,Burwick Road,44143,41.5685334,-81.4663944
186,Burwick Road,44143,41.5685304,-81.4661180
192,Burwick Road,44143,41.5685335,-81.4658364
240,Burwick Road,44143,41.5685233,-81.4636478
263,Alden Road,44143,41.5682223,-81.4634667
314,East Legend Court,44143,41.5659759,-81.4602327
317,West Legend Court,44143,41.5656992,-81.4603773
320,East Legend Court,44143,41.5654127,-81.4602412
312,West Legend Court,44143,41.5661142,-81.4610640
316,West Legend Court,44143,41.5658442,-81.4610671
318,West Legend Court,44143,41.5655557,-81.4610514
322,West Legend Court,44143,41.5652896,-81.4610428
324,West Legend Court,44143,41.5649648,-81.4610477
328,West Legend Court,44143,41.5646477,-81.4606510
334,West Legend Court,44143,41.5645126,-81.4609804
340,West Legend Court,44143,41.5642235,-81.4611631
346,West Legend Court,44143,41.5639647,-81.4613102
352,West Legend Court,44143,41.5637010,-81.4614371
358,West Legend Court,44143,41.5634201,-81.4615823
364,West Legend Court,44143,41.5631085,-81.4616305
365,West Legend Court,44143,41.5632504,-81.4608698
359,West Legend Court,44143,41.5635502,-81.4607709
353,West Legend Court,44143,41.5639393,-81.4605896
350,East Legend Court,44143,41.5639403,-81.4602187
356,East Legend Court,44143,41.5635646,-81.4602364
362,East Legend Court,44143,41.5632708,-81.4602529
313,East Legend Court,44143,41.5661178,-81.4595549
315,East Legend Court,44143,41.5658425,-81.4595226
321,East Legend Court,44143,41.5655742,-81.4595274
327,East Legend Court,44143,41.5652879,-81.4595453
333,East Legend Court,44143,41.5649674,-81.4595538
339,East Legend Court,44143,41.5645934,-81.4599037
345,East Legend Court,44143,41.5646041,-81.4595360
351,East Legend Court,44143,41.5641493,-81.4595364
357,East Legend Court,44143,41.5637668,-81.4595503
363,East Legend Court,44143,41.5634050,-81.4595516
361,East Legend Court,44143,41.5634137,-81.4591736
379,East St Andrews Drive,44143,41.5626853,-81.4593278
383,East St Andrews Drive,44143,41.5624665,-81.4594020
387,East St Andrews Drive,44143,41.5622448,-81.4593045
391,East St Andrews Drive,44143,41.5618861,-81.4592173
395,St Andrews Drive,44143,41.5617323,-81.4596387
400,St Andrews Drive,44143,41.5617401,-81.4600496
396,St Andrews Drive,44143,41.5617335,-81.4604260
392,West St Andrews Drive,44143,41.5617576,-81.4607758
388,West St Andrews Drive,44143,41.5617633,-81.4612214
384,West St Andrews Drive,44143,41.5619892,-81.4613342
380,West St Andrews Drive,44143,41.5622635,-81.4611838
376,West St Andrews Drive,44143,41.5624880,-81.4612216
377,West St Andrews Drive,44143,41.5625808,-81.4605244
381,West St Andrews Drive,44143,41.5623559,-81.4605740
385,West St Andrews Drive,44143,41.5621482,-81.4606326
386,East St Andrews Drive,44143,41.5621364,-81.4600062
382,East St Andrews Drive,44143,41.5623517,-81.4599610
378,East St Andrews Drive,44143,41.5626170,-81.4600002
374,East Kilbridge Drive,44143,41.5624111,-81.4622500
378,East Kilbridge Drive,44143,41.5621632,-81.4622710
375,Sutherland Drive,44143,41.5621573,-81.4626075
371,Sutherland Drive,44143,41.5624179,-81.4626142
370,Sutherland Drive,44143,41.5624227,-81.4632309
374,Sutherland Drive,44143,41.5621702,-81.4632569
369,West Kilbridge Drive,44143,41.5621675,-81.4636197
365,West Kilbridge Drive,44143,41.5624610,-81.4635134
375,East Kilbridge Drive,44143,41.5624527,-81.4616655
379,East Kilbridge Drive,44143,41.5621391,-81.4616594
383,East Kilbridge Drive,44143,41.5618119,-81.4617272
396,Kilbridge Drive,44143,41.5617462,-81.4621142
392,Kilbridge Drive,44143,41.5617726,-81.4624868
388,Kilbridge Drive,44143,41.5617690,-81.4628271
384,Kilbridge Drive,44143,41.5617697,-81.4632941
380,Kilbridge Drive,44143,41.5617746,-81.4636723
376,West Kilbridge Drive,44143,41.5617941,-81.4640614
372,West Kilbridge Drive,44143,41.5619861,-81.4642932
368,West Kilbridge Drive,44143,41.5622657,-81.4642190
364,West Kilbridge Drive,44143,41.5625909,-81.4640780
372,East Glen Eagle Drive,44143,41.5626310,-81.4650635
376,East Glen Eagle Drive,44143,41.5623348,-81.4651450
369,West Glen Eagle Drive,44143,41.5623924,-81.4654242
365,West Glen Eagle Drive,44143,41.5626726,-81.4653572
363,East Glen Eagle Drive,44143,41.5626509,-81.4644899
367,East Glen Eagle Drive,44143,41.5624419,-81.4645831
371,East Glen Eagle Drive,44143,41.5621489,-81.4645977
375,East Glen Eagle Drive,44143,41.5618256,-81.4647051
379,East Glen Eagle Drive,44143,41.5618176,-81.4650702
386,West Glen Eagle Drive,44143,41.5618743,-81.4654375
382,West Glen Eagle Drive,44143,41.5618799,-81.4657929
378,West Glen Eagle Drive,44143,41.5621733,-81.4660071
374,West Glen Eagle Drive,44143,41.5624194,-81.4659642
370,West Glen Eagle Drive,44143,41.5626868,-81.4658852
367,Shetland Court,44143,41.5627224,-81.4662638
371,Shetland Court,44143,41.5624386,-81.4663077
370,Shetland Court,44143,41.5623604,-81.4669774
373,Kirkshire Court,44143,41.5620709,-81.4672557
377,Kirkshire Court,44143,41.5620018,-81.4669476
381,Kirkshire Court,44143,41.5619618,-81.4666392
385,Kirkshire Court,44143,41.5617707,-81.4662185
386,Kirkshire Court,44143,41.5614348,-81.4663094
382,Kirkshire Court,44143,41.5613954,-81.4667989
378,Kirkshire Court,44143,41.5615483,-81.4671174
374,Kirkshire Court,44143,41.5616204,-81.4674021
384,North Stoneheaven Drive,44143,41.5604638,-81.4669735
390,South Stoneheaven Drive,44143,41.5602480,-81.4669876
405,South Stoneheaven Drive,44143,41.5600132,-81.4670254
401,South Stoneheaven Drive,44143,41.5601454,-81.4673724
378,North Stoneheaven Drive,44143,41.5605335,-81.4674155
375,North Stoneheaven Drive,44143,41.5610385,-81.4673820
379,North Stoneheaven Drive,44143,41.5609575,-81.4670732
383,North Stoneheaven Drive,44143,41.5609402,-81.4667476
387,North Stoneheaven Drive,44143,41.5607640,-81.4664687
391,North Stoneheaven Drive,44143,41.5604573,-81.4664226
396,South Stoneheaven Drive,44143,41.5601082,-81.4664582
400,South Stoneheaven Drive,44143,41.5598059,-81.4664319
404,South Stoneheaven Drive,44143,41.5594018,-81.4665576
408,South Stoneheaven Drive,44143,41.5594605,-81.4669987
412,South Stoneheaven Drive,44143,41.5596540,-81.4673508
429,Augustus Drive,44143,41.5585935,-81.4671235
433,Augustus Drive,44143,41.5584257,-81.4671776
437,Augustus Drive,44143,41.5582558,-81.4672401
441,Augustus Drive,44143,41.5580987,-81.4672968
445,Augustus Drive,44143,41.5579260,-81.4673608
449,Augustus Drive,44143,41.5577594,-81.4674175
453,Augustus Drive,44143,41.5576009,-81.4674784
457,Augustus Drive,44143,41.5574106,-81.4675715
282,Miner Road,44143,41.5673804,-81.4580246
288,Miner Road,44143,41.5671123,-81.4583060
294,Miner Road,44143,41.5666558,-81.4580809
306,Miner Road,44143,41.5660533,-81.4583420
312,Miner Road,44143,41.5658634,-81.4583528
318,Miner Road,44143,41.5654950,-81.4580803
322,Miner Road,44143,41.5652567,-81.4583378
324,Miner Road,44143,41.5649868,-81.4582606
330,Miner Road,44143,41.5647162,-81.4582607
336,Miner Road,44143,41.5644365,-81.4583914
342,Miner Road,44143,41.5641425,-81.4583285
346,Miner Road,44143,41.5638773,-81.4582721
356,Miner Road,44143,41.5635115,-81.4583832
378,Miner Road,44143,41.5622943,-81.4582786
380,Miner Road,44143,41.5620010,-81.4582484
384,Miner Road,44143,41.5617444,-81.4582381
388,Miner Road,44143,41.5614150,-81.4582582
392,Miner Road,44143,41.5611931,-81.4582856
6107,Castlehill Drive,44143,41.5612206,-81.4587914
6099,Castlehill Drive,44143,41.5612521,-81.4591660
6091,Castlehill Drive,44143,41.5612684,-81.4595285
6083,Castlehill Drive,44143,41.5612613,-81.4598988
6075,Castlehill Drive,44143,41.5612331,-81.4602638
6059,Castlehill Drive,44143,41.5612717,-81.4609840
6067,Castlehill Drive,44143,41.5612373,-81.4606249
6051,Castlehill Drive,44143,41.5612517,-81.4613522
6043,Castlehill Drive,44143,41.5612862,-81.4617154
6035,Castlehill Drive,44143,41.5612886,-81.4620879
6027,Castlehill Drive,44143,41.5612865,-81.4624491
6019,Castlehill Drive,44143,41.5612944,-81.4628158
6011,Castlehill Drive,44143,41.5612851,-81.4631782
6003,Castlehill Drive,44143,41.5612934,-81.4635552
5995,Castlehill Drive,44143,41.5612934,-81.4639134
5987,Castlehill Drive,44143,41.5613128,-81.4642793
5979,Castlehill Drive,44143,41.5613099,-81.4646254
5971,Castlehill Drive,44143,41.5613142,-81.4650155
5963,Castlehill Drive,44143,41.5613427,-81.4654096
5955,Castlehill Drive,44143,41.5613608,-81.4657378
385,Sandhurst Drive,44143,41.5606643,-81.4649291
5986,Castlehill Drive,44143,41.5606227,-81.4644318
5994,Castlehill Drive,44143,41.5606451,-81.4640649
6201,Maypine Farm Boulevard,44143,41.5681596,-81.4558538
6211,Maypine Farm Boulevard,44143,41.5681560,-81.4553966
6221,Maypine Farm Boulevard,44143,41.5681356,-81.4549457
6231,Maypine Farm Boulevard,44143,41.5681340,-81.4544834
6241,Maypine Farm Boulevard,44143,41.5681357,-81.4540321
6251,Maypine Farm Boulevard,44143,41.5681383,-81.4535860
6261,Maypine Farm Boulevard,44143,41.5681853,-81.4530673
6271,Maypine Farm Boulevard,44143,41.5681631,-81.4525696
6291,Maypine Farm Boulevard,44143,41.5681566,-81.4514744
246,Legacy Drive,44143,41.5687089,-81.4514545
234,Legacy Drive,44143,41.5695343,-81.4514571
219,Legacy Drive,44143,41.5695939,-81.4508560
231,Legacy Drive,44143,41.5687222,-81.4505705
237,Legacy Drive,44143,41.5683316,-81.4506069
32700,White Road,44143,41.5683398,-81.4490888
237,Miner Road,44143,41.5698560,-81.4572779
247,Miner Road,44143,41.5691660,-81.4572759
251,Miner Road,44143,41.5689518,-81.4572783
257,Miner Road,44143,41.5687155,-81.4572654
279,Legacy Drive,44143,41.5657420,-81.4506186
6301,Ox Ridge Trail,44143,41.5658168,-81.4514343
6270,Maypine Farm Boulevard,44143,41.5674426,-81.4527949
285,Halton Trail,44143,41.5665712,-81.4526612
276,Halton Trail,44143,41.5667715,-81.4537686
264,Halton Trail,44143,41.5675250,-81.4538027
267,Old Salem Trail,44143,41.5675386,-81.4549128
280,Old Salem Trail,44143,41.5665985,-81.4559258
274,Old Salem Trail,44143,41.5671362,-81.4559928
285,Miner Road,44143,41.5672263,-81.4573413
299,Miner Road,44143,41.5664778,-81.4573601
305,Miner Road,44143,41.5660774,-81.4569983
309,Miner Road,44143,41.5656190,-81.4556238
311,Miner Road,44143,41.5654966,-81.4570753
317,Miner Road,44143,41.5651590,-81.4573109
331,Miner Road,44143,41.5645405,-81.4573039
339,Miner Road,44143,41.5641738,-81.4574154
345,Miner Road,44143,41.5638247,-81.4574528
351,Miner Road,44143,41.5635280,-81.4573475
357,Miner Road,44143,41.5632741,-81.4573479
6173,Coldstream Drive,44143,41.5633026,-81.4567904
326,Kenarden Drive,44143,41.5632688,-81.4563508
320,Kenarden Drive,44143,41.5635448,-81.4563201
314,Kenarden Drive,44143,41.5638337,-81.4562962
308,Kenarden Drive,44143,41.5641433,-81.4561490
6197,Kenarden Drive,44143,41.5644020,-81.4559019
6205,Kenarden Drive,44143,41.5644054,-81.4554511
6213,Kenarden Drive,44143,41.5644009,-81.4550824
6221,Kenarden Drive,44143,41.5643970,-81.4547170
6229,Kenarden Drive,44143,41.5644161,-81.4543582
6237,Kenarden Drive,44143,41.5644084,-81.4539898
6245,Kenarden Drive,44143,41.5643810,-81.4535916
6253,Kenarden Drive,44143,41.5644039,-81.4532290
6261,Kenarden Drive,44143,41.5643813,-81.4528873
6269,Kenarden Drive,44143,41.5643836,-81.4525294
6277,Kenarden Drive,44143,41.5643704,-81.4521972
6285,Kenarden Drive,44143,41.5643738,-81.4517915
6293,Kenarden Drive,44143,41.5643729,-81.4514281
6301,Kenarden Drive,44143,41.5643826,-81.4510628
6309,Kenarden Drive,44143,41.5643762,-81.4507332
6317,Kenarden Drive,44143,41.5643772,-81.4503287
6325,Kenarden Drive,44143,41.5643778,-81.4499898
6324,Kenarden Drive,44143,41.5637417,-81.4499924
6316,Kenarden Drive,44143,41.5637579,-81.4503352
6308,Kenarden Drive,44143,41.5637505,-81.4506896
6300,Kenarden Drive,44143,41.5637591,-81.4510583
6292,Kenarden Drive,44143,41.5637640,-81.4514391
6284,Kenarden Drive,44143,41.5637483,-81.4518058
6276,Kenarden Drive,44143,41.5637486,-81.4521639
6268,Kenarden Drive,44143,41.5637756,-81.4525363
6260,Kenarden Drive,44143,41.5637815,-81.4529040
6252,Kenarden Drive,44143,41.5637844,-81.4532629
6244,Kenarden Drive,44143,41.5637725,-81.4536384
6236,Kenarden Drive,44143,41.5637709,-81.4539590
6228,Kenarden Drive,44143,41.5637653,-81.4543657
6220,Kenarden Drive,44143,41.5637919,-81.4547298
6212,Kenarden Drive,44143,41.5637821,-81.4550976
6204,Kenarden Drive,44143,41.5637470,-81.4554422
6205,Coldstream Drive,44143,41.5632851,-81.4555018
6213,Coldstream Drive,44143,41.5632729,-81.4551037
6221,Coldstream Drive,44143,41.5632941,-81.4547389
6229,Coldstream Drive,44143,41.5632670,-81.4543672
6237,Coldstream Drive,44143,41.5632645,-81.4539974
6245,Coldstream Drive,44143,41.5632899,-81.4536408
6253,Coldstream Drive,44143,41.5632611,-81.4532772
6261,Coldstream Drive,44143,41.5632714,-81.4529070
6269,Coldstream Drive,44143,41.5632471,-81.4525503
6277,Coldstream Drive,44143,41.5632420,-81.4521807
6285,Coldstream Drive,44143,41.5632440,-81.4518140
6293,Coldstream Drive,44143,41.5632361,-81.4514468
6301,Coldstream Drive,44143,41.5632408,-81.4510857
6309,Coldstream Drive,44143,41.5632341,-81.4507275
6317,Coldstream Drive,44143,41.5632404,-81.4503478
6325,Coldstream Drive,44143,41.5632554,-81.4500137
332,Longspur Road,44143,41.5626501,-81.4500818
6308,Coldstream Drive,44143,41.5626311,-81.4506332
6300,Coldstream Drive,44143,41.5626344,-81.4509970
6292,Coldstream Drive,44143,41.5626496,-81.4513711
6284,Coldstream Drive,44143,41.5626270,-81.4517360
6276,Coldstream Drive,44143,41.5626160,-81.4520997
6268,Coldstream Drive,44143,41.5626529,-81.4524663
6260,Coldstream Drive,44143,41.5626355,-81.4528404
6252,Coldstream Drive,44143,41.5626431,-81.4531951
6244,Coldstream Drive,44143,41.5626556,-81.4535570
6236,Coldstream Drive,44143,41.5626503,-81.4539305
6228,Coldstream Drive,44143,41.5626500,-81.4542949
6220,Coldstream Drive,44143,41.5626628,-81.4546574
6212,Coldstream Drive,44143,41.5626595,-81.4550287
6204,Coldstream Drive,44143,41.5626726,-81.4553894
6196,Coldstream Drive,44143,41.5626746,-81.4557566
6188,Coldstream Drive,44143,41.5626937,-81.4561176
6180,Coldstream Drive,44143,41.5626737,-81.4564843
785,Miner Road,44143,41.5402983,-81.4577291
775,Miner Road,44143,41.5405590,-81.4577167
771,Miner Road,44143,41.5408027,-81.4576807
765,Miner Road,44143,41.5411482,-81.4577219
755,Miner Road,44143,41.5416063,-81.4577132
537,Miner Road,44143,41.5534569,-81.4575953
533,Miner Road,44143,41.5536896,-81.4575618
527,Miner Road,44143,41.5539294,-81.4575631
523,Miner Road,44143,41.5542255,-81.4575521
513,Miner Road,44143,41.5544780,-81.4575195
505,Miner Road,44143,41.5547848,-81.4575376
501,Miner Road,44143,41.5550721,-81.4575459
497,Miner Road,44143,41.5553371,-81.4574153
485,Miner Road,44143,41.5562850,-81.4573165
479,Miner Road,44143,41.5566141,-81.4573020
471,Miner Road,44143,41.5569960,-81.4572926
465,Miner Road,44143,41.5573655,-81.4572668
455,Miner Road,44143,41.5576654,-81.4572665
447,Miner Road,44143,41.5581664,-81.4575333
443,Miner Road,44143,41.5586045,-81.4572615
433,Miner Road,44143,41.5590308,-81.4572266
427,Miner Road,44143,41.5594353,-81.4571572
419,Miner Road,44143,41.5598526,-81.4572376
6164,Diana Court,44143,41.5601922,-81.4572458
401,Miner Road,44143,41.5608135,-81.4572212
395,Miner Road,44143,41.5611393,-81.4571885
6164,Tourelle Drive,44143,41.5615634,-81.4572867
375,Miner Road,44143,41.5621503,-81.4573626
369,Miner Road,44143,41.5624348,-81.4573440
363,Miner Road,44143,41.5627236,-81.4573348
6172,Coldstream Drive,44143,41.5626892,-81.4568536
6173,Tourelle Drive,44143,41.5621671,-81.4568538
6181,Tourelle Drive,44143,41.5621836,-81.4564520
6189,Tourelle Drive,44143,41.5621581,-81.4561161
6197,Tourelle Drive,44143,41.5621680,-81.4557654
6205,Tourelle Drive,44143,41.5621569,-81.4553974
6213,Tourelle Drive,44143,41.5621524,-81.4550297
6221,Tourelle Drive,44143,41.5621599,-81.4546691
6229,Tourelle Drive,44143,41.5621381,-81.4542987
6237,Tourelle Drive,44143,41.5621407,-81.4539342
6245,Tourelle Drive,44143,41.5621307,-81.4535708
6253,Tourelle Drive,44143,41.5621555,-81.4531971
6261,Tourelle Drive,44143,41.5621411,-81.4528402
6269,Tourelle Drive,44143,41.5621144,-81.4524737
6277,Tourelle Drive,44143,41.5621204,-81.4520734
6285,Tourelle Drive,44143,41.5621123,-81.4517419
6293,Tourelle Drive,44143,41.5621105,-81.4513522
6301,Tourelle Drive,44143,41.5621117,-81.4509993
6309,Tourelle Drive,44143,41.5620975,-81.4506459
344,Longspur Road,44143,41.5620847,-81.4501499
338,Longspur Road,44143,41.5623784,-81.4500426
423,Diana Court,44143,41.5593847,-81.4553662
425,Diana Court,44143,41.5594153,-81.4558629
427,Diana Court,44143,41.5592348,-81.4563002
428,Diana Court,44143,41.5587482,-81.4562143
426,Diana Court,44143,41.5586182,-81.4557472
422,Diana Court,44143,41.5586826,-81.4548306
414,Diana Court,44143,41.5593020,-81.4541531
406,Diana Court,44143,41.5596607,-81.4541458
398,Diana Court,44143,41.5600053,-81.4541686
390,Diana Court,44143,41.5603841,-81.4541071
6221,Diana Court,44143,41.5606410,-81.4544670
6213,Diana Court,44143,41.5606578,-81.4549499
6205,Diana Court,44143,41.5606549,-81.4554097
6197,Diana Court,44143,41.5606504,-81.4558710
6189,Diana Court,44143,41.5606876,-81.4563051
6188,Diana Court,44143,41.5600073,-81.4563751
6196,Diana Court,44143,41.5600203,-81.4559261
6204,Diana Court,44143,41.5600166,-81.4554734
6212,Diana Court,44143,41.5599943,-81.4549981
421,Diana Court,44143,41.5593727,-81.4549955
6172,Tourelle Drive,44143,41.5615667,-81.4568615
6180,Tourelle Drive,44143,41.5615562,-81.4564638
6188,Tourelle Drive,44143,41.5615590,-81.4561070
6196,Tourelle Drive,44143,41.5615298,-81.4557294
6204,Tourelle Drive,44143,41.5615274,-81.4553997
6212,Tourelle Drive,44143,41.5615490,-81.4550075
6220,Tourelle Drive,44143,41.5615359,-81.4546414
6228,Tourelle Drive,44143,41.5615214,-81.4542753
6236,Tourelle Drive,44143,41.5615174,-81.4539124
362,Leverett Lane,44143,41.5615489,-81.4534077
368,Leverett Lane,44143,41.5612950,-81.4534008
374,Leverett Lane,44143,41.5610229,-81.4533882
380,Leverett Lane,44143,41.5607621,-81.4534268
386,Leverett Lane,44143,41.5605031,-81.4534145
392,Leverett Lane,44143,41.5602005,-81.4534604
398,Leverett Lane,44143,41.5599274,-81.4533996
404,Leverett Lane,44143,41.5596472,-81.4534171
410,Leverett Lane,44143,41.5593779,-81.4534181
416,Leverett Lane,44143,41.5590786,-81.4534529
422,Leverett Lane,44143,41.5588166,-81.4534322
428,Leverett Lane,44143,41.5585084,-81.4534719
434,Leverett Lane,44143,41.5582327,-81.4534647
440,Leverett Lane,44143,41.5579463,-81.4534675
446,Leverett Lane,44143,41.5576498,-81.4534580
452,Leverett Lane,44143,41.5573993,-81.4534676
458,Leverett Lane,44143,41.5571228,-81.4534529
464,Leverett Lane,44143,41.5568509,-81.4534545
470,Leverett Lane,44143,41.5565744,-81.4534939
476,Leverett Lane,44143,41.5562949,-81.4534794
482,Leverett Lane,44143,41.5560273,-81.4534919
6002,Castlehill Drive,44143,41.5606416,-81.4636380
6010,Castlehill Drive,44143,41.5606262,-81.4632050
6018,Castlehill Drive,44143,41.5605922,-81.4628618
6026,Castlehill Drive,44143,41.5605980,-81.4625097
6034,Castlehill Drive,44143,41.5605872,-81.4621337
6042,Castlehill Drive,44143,41.5606192,-81.4617484
6050,Castlehill Drive,44143,41.5605774,-81.4614016
6058,Castlehill Drive,44143,41.5605749,-81.4610424
6066,Castlehill Drive,44143,41.5605896,-81.4606835
6074,Castlehill Drive,44143,41.5605925,-81.4603075
400,Lynden Drive,44143,41.5605982,-81.4598316
297,Longspur Road,44143,41.5644695,-81.4491986
303,Longspur Road,44143,41.5641944,-81.4491861
309,Longspur Road,44143,41.5639140,-81.4492209
315,Longspur Road,44143,41.5636392,-81.4492325
321,Longspur Road,44143,41.5633701,-81.4492246
327,Longspur Road,44143,41.5630926,-81.4492154
333,Longspur Road,44143,41.5628173,-81.4492271
339,Longspur Road,44143,41.5625426,-81.4492353
345,Longspur Road,44143,41.5622669,-81.4492472
351,Longspur Road,44143,41.5619782,-81.4493217
357,Longspur Road,44143,41.5617083,-81.4494774
363,Longspur Road,44143,41.5614389,-81.4495746
375,Longspur Road,44143,41.5609975,-81.4495821
381,Longspur Road,44143,41.5607172,-81.4495815
387,Longspur Road,44143,41.5604432,-81.4495715
393,Longspur Road,44143,41.5601920,-81.4495682
399,Longspur Road,44143,41.5598887,-81.4496083
405,Longspur Road,44143,41.5596178,-81.4496090
411,Longspur Road,44143,41.5593434,-81.4496146
417,Longspur Road,44143,41.5590643,-81.4496174
423,Longspur Road,44143,41.5587847,-81.4496018
429,Longspur Road,44143,41.5584559,-81.4496254
435,Longspur Road,44143,41.5581846,-81.4496262
441,Longspur Road,44143,41.5579129,-81.4496347
447,Longspur Road,44143,41.5576344,-81.4496445
453,Longspur Road,44143,41.5573843,-81.4496352
459,Longspur Road,44143,41.5570842,-81.4496492
465,Longspur Road,44143,41.5568179,-81.4496489
471,Longspur Road,44143,41.5565488,-81.4496634
477,Longspur Road,44143,41.5562681,-81.4496689
483,Longspur Road,44143,41.5559892,-81.4496702
489,Longspur Road,44143,41.5557164,-81.4496779
495,Longspur Road,44143,41.5554529,-81.4496731
501,Longspur Road,44143,41.5551689,-81.4496716
507,Longspur Road,44143,41.5548867,-81.4496917
513,Longspur Road,44143,41.5546233,-81.4496656
519,Longspur Road,44143,41.5543383,-81.4497381
6320,Longspur Road,44143,41.5540728,-81.4500172
6312,Longspur Road,44143,41.5539604,-81.4503883
6304,Longspur Road,44143,41.5539066,-81.4508535
6294,South Applecross Road,44143,41.5539285,-81.4516570
6284,South Applecross Road,44143,41.5539349,-81.4520178
6276,South Applecross Road,44143,41.5539606,-81.4523854
6268,South Applecross Road,44143,41.5539732,-81.4527520
6260,South Applecross Road,44143,41.5539715,-81.4531140
6252,South Applecross Road,44143,41.5539550,-81.4534552
6244,South Applecross Road,44143,41.5539940,-81.4538406
6236,South Applecross Road,44143,41.5539742,-81.4541772
6228,South Applecross Road,44143,41.5539882,-81.4546069
6220,South Applecross Road,44143,41.5540187,-81.4549395
6212,South Applecross Road,44143,41.5540017,-81.4553100
6204,South Applecross Road,44143,41.5540718,-81.4557440
6196,South Applecross Road,44143,41.5542705,-81.4560265
508,South Applecross Road,44143,41.5545186,-81.4561887
502,South Applecross Road,44143,41.5548190,-81.4562566
496,North Applecross Road,44143,41.5550982,-81.4562203
490,North Applecross Road,44143,41.5554743,-81.4562022
6207,North Applecross Road,44143,41.5556333,-81.4558197
6213,North Applecross Road,44143,41.5557331,-81.4555048
6215,North Applecross Road,44143,41.5557680,-81.4551046
6221,North Applecross Road,44143,41.5557734,-81.4547640
6229,North Applecross Road,44143,41.5557685,-81.4543750
6237,North Applecross Road,44143,41.5557446,-81.4540041
488,Leverett Lane,44143,41.5557369,-81.4535296
496,Longspur Road,44143,41.5550838,-81.4505327
6300,North Applecross Road,44143,41.5550753,-81.4511090
6292,North Applecross Road,44143,41.5550827,-81.4514344
6284,North Applecross Road,44143,41.5550892,-81.4518439
6276,North Applecross Road,44143,41.5550794,-81.4522087
6268,North Applecross Road,44143,41.5550860,-81.4525791
6260,North Applecross Road,44143,41.5551100,-81.4529384
6252,North Applecross Road,44143,41.5551186,-81.4532969
6244,North Applecross Road,44143,41.5550931,-81.4536246
6236,North Applecross Road,44143,41.5551094,-81.4540319
6228,North Applecross Road,44143,41.5551355,-81.4543986
6220,North Applecross Road,44143,41.5551289,-81.4547645
497,North Applecross Road,44143,41.5551418,-81.4553122
503,South Applecross Road,44143,41.5548934,-81.4554126
509,South Applecross Road,44143,41.5546101,-81.4552685
6221,South Applecross Road,44143,41.5546464,-81.4548158
6229,South Applecross Road,44143,41.5546246,-81.4544128
6237,South Applecross Road,44143,41.5546069,-81.4540465
6245,South Applecross Road,44143,41.5546170,-81.4536892
6253,South Applecross Road,44143,41.5545904,-81.4533216
6261,South Applecross Road,44143,41.5546070,-81.4529495
6267,South Applecross Road,44143,41.5545798,-81.4525890
6277,South Applecross Road,44143,41.5545787,-81.4522235
6285,South Applecross Road,44143,41.5545628,-81.4518550
6293,South Applecross Road,44143,41.5545577,-81.4514870
6301,Longspur Road,44143,41.5545577,-81.4511290
508,Longspur Road,44143,41.5545277,-81.4506095
502,Longspur Road,44143,41.5548077,-81.4505141
368,Longspur Road,44143,41.5612651,-81.4503773
374,Longspur Road,44143,41.5610019,-81.4503794
380,Longspur Road,44143,41.5607227,-81.4504353
386,Longspur Road,44143,41.5604458,-81.4503941
392,Longspur Road,44143,41.5601737,-81.4503969
398,Longspur Road,44143,41.5598930,-81.4504299
404,Longspur Road,44143,41.5596208,-81.4504279
410,Longspur Road,44143,41.5593497,-81.4504565
416,Longspur Road,44143,41.5590751,-81.4504390
422,Longspur Road,44143,41.5587862,-81.4504242
428,Longspur Road,44143,41.5584887,-81.4504224
434,Longspur Road,44143,41.5581805,-81.4504509
440,Longspur Road,44143,41.5579173,-81.4504187
446,Longspur Road,44143,41.5576745,-81.4504757
452,Longspur Road,44143,41.5573710,-81.4504753
458,Longspur Road,44143,41.5570931,-81.4504740
464,Longspur Road,44143,41.5568237,-81.4504757
470,Longspur Road,44143,41.5565484,-81.4504666
476,Longspur Road,44143,41.5563066,-81.4505109
482,Longspur Road,44143,41.5560009,-81.4504630
488,Longspur Road,44143,41.5556622,-81.4505130
489,Medway Road,44143,41.5556749,-81.4511356
483,Medway Road,44143,41.5559987,-81.4511445
477,Medway Road,44143,41.5562794,-81.4511643
471,Medway Road,44143,41.5565527,-81.4511548
465,Medway Road,44143,41.5568547,-81.4511566
459,Medway Road,44143,41.5571008,-81.4511413
453,Medway Road,44143,41.5573784,-81.4511335
447,Medway Road,44143,41.5576633,-81.4511119
435,Medway Road,44143,41.5582010,-81.4511188
429,Medway Road,44143,41.5584822,-81.4511184
423,Medway Road,44143,41.5587903,-81.4511114
417,Medway Road,44143,41.5590813,-81.4511198
411,Medway Road,44143,41.5593537,-81.4511068
405,Medway Road,44143,41.5596269,-81.4511107
399,Medway Road,44143,41.5598983,-81.4511081
393,Medway Road,44143,41.5601786,-81.4510929
387,Medway Road,44143,41.5604565,-81.4510676
381,Medway Road,44143,41.5607081,-81.4510834
375,Medway Road,44143,41.5609992,-81.4510741
369,Medway Road,44143,41.5612712,-81.4510756
363,Medway Road,44143,41.5615256,-81.4510560
362,Longspur Road,44143,41.5615155,-81.4503997
362,Medway Road,44143,41.5615380,-81.4519235
368,Medway Road,44143,41.5612746,-81.4518810
374,Medway Road,44143,41.5610090,-81.4519143
380,Medway Road,44143,41.5607340,-81.4518964
386,Medway Road,44143,41.5604397,-81.4518951
392,Medway Road,44143,41.5601894,-81.4518963
398,Medway Road,44143,41.5599115,-81.4519080
404,Medway Road,44143,41.5596310,-81.4519229
410,Medway Road,44143,41.5593573,-81.4519352
416,Medway Road,44143,41.5590643,-81.4519688
422,Medway Road,44143,41.5588346,-81.4519274
428,Medway Road,44143,41.5585043,-81.4519588
434,Medway Road,44143,41.5582106,-81.4519296
440,Medway Road,44143,41.5579325,-81.4519461
446,Medway Road,44143,41.5576887,-81.4519560
452,Medway Road,44143,41.5573864,-81.4519694
458,Medway Road,44143,41.5571151,-81.4519473
464,Medway Road,44143,41.5568337,-81.4519599
470,Medway Road,44143,41.5565603,-81.4519653
476,Medway Road,44143,41.5563061,-81.4520212
482,Medway Road,44143,41.5560130,-81.4519865
488,Medway Road,44143,41.5557021,-81.4519894
489,Leverett Lane,44143,41.5557203,-81.4526501
483,Leverett Lane,44143,41.5560562,-81.4526670
477,Leverett Lane,44143,41.5562798,-81.4526596
471,Leverett Lane,44143,41.5565648,-81.4526436
465,Leverett Lane,44143,41.5568407,-81.4526521
459,Leverett Lane,44143,41.5571116,-81.4526455
453,Leverett Lane,44143,41.5573899,-81.4526338
447,Leverett Lane,44143,41.5576636,-81.4526456
441,Leverett Lane,44143,41.5579428,-81.4525953
435,Leverett Lane,44143,41.5582206,-81.4526025
429,Leverett Lane,44143,41.5584757,-81.4526345
423,Leverett Lane,44143,41.5588081,-81.4525988
417,Leverett Lane,44143,41.5590929,-81.4526146
411,Leverett Lane,44143,41.5593706,-81.4525894
405,Leverett Lane,44143,41.5596424,-81.4525904
399,Leverett Lane,44143,41.5599134,-81.4525960
393,Leverett Lane,44143,41.5601913,-81.4525953
387,Leverett Lane,44143,41.5604654,-81.4525965
381,Leverett Lane,44143,41.5607403,-81.4525871
375,Leverett Lane,44143,41.5610151,-81.4525921
369,Leverett Lane,44143,41.5612843,-81.4525582
363,Leverett Lane,44143,41.5615418,-81.4525503
414,Miner Road,44143,41.5605220,-81.4583229
418,Miner Road,44143,41.5602476,-81.4583244
422,Miner Road,44143,41.5599970,-81.4583439
426,Miner Road,44143,41.5597198,-81.4582843
430,Miner Road,44143,41.5594563,-81.4582875
434,Miner Road,44143,41.5591843,-81.4582927
438,Miner Road,44143,41.5589223,-81.4583141
442,Miner Road,44143,41.5586293,-81.4583499
446,Miner Road,44143,41.5583662,-81.4583276
450,Miner Road,44143,41.5580361,-81.4583318
462,Miner Road,44143,41.5574910,-81.4583483
472,Miner Road,44143,41.5569438,-81.4583346
476,Miner Road,44143,41.5566612,-81.4583738
480,Miner Road,44143,41.5564145,-81.4583918
484,Miner Road,44143,41.5561244,-81.4583945
488,Miner Road,44143,41.5558463,-81.4583882
492,Miner Road,44143,41.5555680,-81.4583995
496,Miner Road,44143,41.5552920,-81.4583598
500,Miner Road,44143,41.5550305,-81.4583790
504,Miner Road,44143,41.5547701,-81.4584041
515,Lynden Drive,44143,41.5547959,-81.4590378
509,Lynden Drive,44143,41.5550344,-81.4590601
503,Lynden Drive,44143,41.5553258,-81.4590438
497,Lynden Drive,44143,41.5555696,-81.4590818
491,Lynden Drive,44143,41.5558544,-81.4590256
485,Lynden Drive,44143,41.5561265,-81.4590440
479,Lynden Drive,44143,41.5563974,-81.4590458
473,Lynden Drive,44143,41.5566818,-81.4590041
467,Lynden Drive,44143,41.5569579,-81.4590347
455,Lynden Drive,44143,41.5581019,-81.4589991
449,Lynden Drive,44143,41.5583573,-81.4590238
443,Lynden Drive,44143,41.5586395,-81.4590266
437,Lynden Drive,44143,41.5589126,-81.4590260
431,Lynden Drive,44143,41.5591827,-81.4589806
425,Lynden Drive,44143,41.5594616,-81.4589809
419,Lynden Drive,44143,41.5597339,-81.4589670
413,Lynden Drive,44143,41.5600095,-81.4590030
407,Lynden Drive,44143,41.5602831,-81.4589640
401,Lynden Drive,44143,41.5605410,-81.4589731
534,Miner Road,44143,41.5536867,-81.4583874
528,Miner Road,44143,41.5539600,-81.4584225
524,Miner Road,44143,41.5542246,-81.4583901
6108,Whiteford Drive,44143,41.5541897,-81.4589189
6100,Whiteford Drive,44143,41.5540858,-81.4592810
6092,Whiteford Drive,44143,41.5541106,-81.4596624
6084,Whiteford Drive,44143,41.5540896,-81.4600268
6076,Whiteford Drive,44143,41.5541225,-81.4603916
6068,Whiteford Drive,44143,41.5541002,-81.4607487
6060,Whiteford Drive,44143,41.5541111,-81.4610653
6052,Whiteford Drive,44143,41.5541125,-81.4614563
6044,Whiteford Drive,44143,41.5541281,-81.4618621
6036,Whiteford Drive,44143,41.5541224,-81.4622596
6028,Whiteford Drive,44143,41.5541703,-81.4625913
6020,Whiteford Drive,44143,41.5541687,-81.4629528
6012,Whiteford Drive,44143,41.5541838,-81.4633158
6004,Whiteford Drive,44143,41.5541780,-81.4636811
5996,Whiteford Drive,44143,41.5541969,-81.4640495
5988,Whiteford Drive,44143,41.5541599,-81.4644137
5980,Whiteford Drive,44143,41.5542022,-81.4647803
5972,Whiteford Drive,44143,41.5541950,-81.4651367
5964,Whiteford Drive,44143,41.5542260,-81.4655050
5956,Whiteford Drive,44143,41.5541935,-81.4658380
510,Sandhurst Drive,44143,41.5548407,-81.4658854
504,Sandhurst Drive,44143,41.5552289,-81.4659011
498,Sandhurst Drive,44143,41.5555083,-81.4658527
492,Sandhurst Drive,44143,41.5557840,-81.4658495
486,Sandhurst Drive,44143,41.5560395,-81.4658441
480,Sandhurst Drive,44143,41.5563384,-81.4658643
474,Sandhurst Drive,44143,41.5566012,-81.4658386
468,Sandhurst Drive,44143,41.5568655,-81.4658395
462,Sandhurst Drive,44143,41.5571355,-81.4658740
456,Sandhurst Drive,44143,41.5574123,-81.4658509
450,Sandhurst Drive,44143,41.5577268,-81.4658422
444,Sandhurst Drive,44143,41.5579721,-81.4658158
438,Sandhurst Drive,44143,41.5582568,-81.4658171
432,Sandhurst Drive,44143,41.5585320,-81.4658503
426,Sandhurst Drive,44143,41.5588102,-81.4658091
420,Sandhurst Drive,44143,41.5590707,-81.4657984
414,Sandhurst Drive,44143,41.5593571,-81.4658353
408,Sandhurst Drive,44143,41.5596234,-81.4657820
402,Sandhurst Drive,44143,41.5598946,-81.4658251
396,Sandhurst Drive,44143,41.5601647,-81.4658086
390,Sandhurst Drive,44143,41.5604520,-81.4658043
384,Sandhurst Drive,44143,41.5607075,-81.4658122
409,Sandhurst Drive,44143,41.5595867,-81.4649385
415,Sandhurst Drive,44143,41.5593335,-81.4649985
421,Sandhurst Drive,44143,41.5590593,-81.4650098
427,Sandhurst Drive,44143,41.5587786,-81.4649875
433,Sandhurst Drive,44143,41.5585194,-81.4649955
439,Sandhurst Drive,44143,41.5582369,-81.4649759
445,Sandhurst Drive,44143,41.5579544,-81.4650117
451,Sandhurst Drive,44143,41.5576839,-81.4650301
457,Sandhurst Drive,44143,41.5574066,-81.4650074
463,Sandhurst Drive,44143,41.5571349,-81.4650398
469,Sandhurst Drive,44143,41.5568495,-81.4650340
475,Sandhurst Drive,44143,41.5565809,-81.4650369
481,Sandhurst Drive,44143,41.5563165,-81.4650173
487,Sandhurst Drive,44143,41.5560325,-81.4650362
493,Sandhurst Drive,44143,41.5557695,-81.4650715
499,Sandhurst Drive,44143,41.5554994,-81.4650456
505,Sandhurst Drive,44143,41.5552150,-81.4650281
5971,Whiteford Drive,44143,41.5548192,-81.4651092
5979,Whiteford Drive,44143,41.5548060,-81.4647348
5987,Whiteford Drive,44143,41.5548352,-81.4643480
504,Lassiter Drive,44143,41.5552090,-81.4643871
498,Lassiter Drive,44143,41.5554786,-81.4643647
492,Lassiter Drive,44143,41.5557531,-81.4643666
486,Lassiter Drive,44143,41.5560459,-81.4643540
480,Lassiter Drive,44143,41.5563056,-81.4643411
474,Lassiter Drive,44143,41.5565761,-81.4643410
468,Lassiter Drive,44143,41.5568526,-81.4643649
460,Lassiter Drive,44143,41.5571332,-81.4643382
454,Lassiter Drive,44143,41.5573999,-81.4643170
448,Lassiter Drive,44143,41.5576642,-81.4643339
442,Lassiter Drive,44143,41.5579451,-81.4643383
430,Lassiter Drive,44143,41.5584992,-81.4643046
424,Lassiter Drive,44143,41.5587761,-81.4642923
418,Lassiter Drive,44143,41.5590518,-81.4643058
412,Lassiter Drive,44143,41.5593181,-81.4642922
406,Lassiter Drive,44143,41.5595798,-81.4643038
436,Lassiter Drive,44143,41.5582265,-81.4643181
415,Lassiter Drive,44143,41.5592993,-81.4634501
421,Lassiter Drive,44143,41.5590202,-81.4635177
427,Lassiter Drive,44143,41.5587477,-81.4634961
433,Lassiter Drive,44143,41.5584936,-81.4634854
439,Lassiter Drive,44143,41.5581973,-81.4635084
445,Lassiter Drive,44143,41.5579261,-81.4635275
451,Lassiter Drive,44143,41.5576539,-81.4634816
457,Lassiter Drive,44143,41.5573780,-81.4635316
463,Lassiter Drive,44143,41.5571015,-81.4635104
469,Lassiter Drive,44143,41.5568300,-81.4635292
475,Lassiter Drive,44143,41.5565641,-81.4635378
481,Lassiter Drive,44143,41.5562776,-81.4635282
487,Lassiter Drive,44143,41.5560243,-81.4635091
493,Lassiter Drive,44143,41.5557096,-81.4635172
499,Lassiter Drive,44143,41.5554567,-81.4635421
505,Lassiter Drive,44143,41.5551795,-81.4635580
6005,Whiteford Drive,44143,41.5548170,-81.4636021
414,Lowell Drive,44143,41.5594139,-81.4628459
420,Lowell Drive,44143,41.5590168,-81.4628383
426,Lowell Drive,44143,41.5587422,-81.4628395
432,Lowell Drive,44143,41.5584695,-81.4628650
438,Lowell Drive,44143,41.5581995,-81.4628211
444,Lowell Drive,44143,41.5579211,-81.4628455
450,Lowell Drive,44143,41.5576442,-81.4628379
456,Lowell Drive,44143,41.5573715,-81.4628219
462,Lowell Drive,44143,41.5570953,-81.4628145
468,Lowell Drive,44143,41.5568284,-81.4628446
474,Lowell Drive,44143,41.5565638,-81.4628687
480,Lowell Drive,44143,41.5562716,-81.4628671
486,Lowell Drive,44143,41.5559936,-81.4628771
492,Lowell Drive,44143,41.5557222,-81.4628541
498,Lowell Drive,44143,41.5554742,-81.4628809
504,Lowell Drive,44143,41.5551600,-81.4628889
6021,Whiteford Drive,44143,41.5547805,-81.4628477
6013,Whiteford Drive,44143,41.5547684,-81.4632204
6037,Whiteford Drive,44143,41.5547913,-81.4620889
505,Lowell Drive,44143,41.5551796,-81.4620450
499,Lowell Drive,44143,41.5554296,-81.4620630
493,Lowell Drive,44143,41.5556805,-81.4620273
487,Lowell Drive,44143,41.5559514,-81.4620290
481,Lowell Drive,44143,41.5562523,-81.4620443
475,Lowell Drive,44143,41.5565219,-81.4620551
469,Lowell Drive,44143,41.5568039,-81.4620073
463,Lowell Drive,44143,41.5570753,-81.4620345
457,Lowell Drive,44143,41.5573452,-81.4620386
451,Lowell Drive,44143,41.5576229,-81.4620276
445,Lowell Drive,44143,41.5578966,-81.4620194
439,Lowell Drive,44143,41.5581722,-81.4619805
433,Lowell Drive,44143,41.5584707,-81.4619979
427,Lowell Drive,44143,41.5587231,-81.4620018
421,Lowell Drive,44143,41.5589971,-81.4619890
415,Lowell Drive,44143,41.5592699,-81.4619858
409,Lowell Drive,44143,41.5595526,-81.4620010
403,Lowell Drive,44143,41.5598357,-81.4620900
397,Lowell Drive,44143,41.5600524,-81.4623717
391,Lowell Drive,44143,41.5601414,-81.4628318
385,Lowell Drive,44143,41.5601555,-81.4632515
379,Lowell Drive,44143,41.5601470,-81.4636487
373,Lowell Drive,44143,41.5601699,-81.4640768
367,Lowell Drive,44143,41.5601660,-81.4644297
397,Sandhurst Drive,44143,41.5601395,-81.4649318
391,Sandhurst Drive,44143,41.5604126,-81.4649380
510,Locklie Drive,44143,41.5547880,-81.4613763
504,Locklie Drive,44143,41.5551415,-81.4613752
498,Locklie Drive,44143,41.5554257,-81.4614107
492,Locklie Drive,44143,41.5556900,-81.4613467
486,Locklie Drive,44143,41.5559481,-81.4613591
480,Locklie Drive,44143,41.5562295,-81.4613451
474,Locklie Drive,44143,41.5565146,-81.4613561
468,Locklie Drive,44143,41.5567705,-81.4613667
462,Locklie Drive,44143,41.5570684,-81.4613523
458,Locklie Drive,44143,41.5573500,-81.4613672
456,Locklie Drive,44143,41.5576191,-81.4613210
454,Locklie Drive,44143,41.5578804,-81.4613121
452,Locklie Drive,44143,41.5581643,-81.4613530
446,Locklie Drive,44143,41.5584476,-81.4613422
440,Locklie Drive,44143,41.5587107,-81.4613484
434,Locklie Drive,44143,41.5589922,-81.4613184
428,Locklie Drive,44143,41.5592362,-81.4613334
424,Locklie Drive,44143,41.5595350,-81.4612614
6055,Locklie Drive,44143,41.5598270,-81.4610931
6063,Locklie Drive,44143,41.5600552,-81.4607368
6071,Locklie Drive,44143,41.5600604,-81.4603202
412,Lynden Drive,44143,41.5600374,-81.4598238
406,Lynden Drive,44143,41.5603173,-81.4597864
6084,Locklie Drive,44143,41.5594193,-81.4597672
436,Lynden Drive,44143,41.5589469,-81.4597885
442,Lynden Drive,44143,41.5586847,-81.4597912
448,Lynden Drive,44143,41.5584131,-81.4598224
454,Lynden Drive,44143,41.5581350,-81.4598730
456,Lynden Drive,44143,41.5578600,-81.4598050
458,Lynden Drive,44143,41.5575698,-81.4598603
460,Lynden Drive,44143,41.5573090,-81.4598596
464,Lynden Drive,44143,41.5570364,-81.4598589
470,Lynden Drive,44143,41.5567708,-81.4598625
476,Lynden Drive,44143,41.5564872,-81.4598771
482,Lynden Drive,44143,41.5562123,-81.4598927
488,Lynden Drive,44143,41.5559486,-81.4598608
494,Lynden Drive,44143,41.5556639,-81.4598740
500,Lynden Drive,44143,41.5553915,-81.4598810
506,Lynden Drive,44143,41.5551158,-81.4598533
6087,Whiteford Drive,44143,41.5547349,-81.4598645
6079,Whiteford Drive,44143,41.5547388,-81.4602140
6071,Whiteford Drive,44143,41.5547184,-81.4606040
505,Locklie Drive,44143,41.5551185,-81.4605207
499,Locklie Drive,44143,41.5554044,-81.4605803
493,Locklie Drive,44143,41.5556799,-81.4605390
487,Locklie Drive,44143,41.5559517,-81.4605197
481,Locklie Drive,44143,41.5562207,-81.4605083
475,Locklie Drive,44143,41.5564854,-81.4605561
469,Locklie Drive,44143,41.5567963,-81.4605048
463,Locklie Drive,44143,41.5570368,-81.4605313
459,Locklie Drive,44143,41.5573116,-81.4604852
457,Locklie Drive,44143,41.5575870,-81.4605070
455,Locklie Drive,44143,41.5578607,-81.4604815
453,Locklie Drive,44143,41.5581331,-81.4604845
447,Locklie Drive,44143,41.5584068,-81.4605184
441,Locklie Drive,44143,41.5587288,-81.4604874
435,Locklie Drive,44143,41.5589749,-81.4605031
6068,Locklie Drive,44143,41.5594009,-81.4604780
6076,Locklie Drive,44143,41.5594638,-81.4601094
528,Pinehurst Road,44143,41.5517338,-81.4715492
572,Pinehurst Road,44143,41.5514670,-81.4715585
576,Pinehurst Road,44143,41.5512087,-81.4714996
582,Pinehurst Road,44143,41.5509461,-81.4715239
586,Pinehurst Road,44143,41.5506986,-81.4715167
592,Pinehurst Road,44143,41.5504401,-81.4715430
5743,Williamsburg Drive,44143,41.5507124,-81.4721375
5735,Williamsburg Drive,44143,41.5507967,-81.4724729
5719,Williamsburg Drive,44143,41.5508666,-81.4728552
5703,Williamsburg Drive,44143,41.5508949,-81.4732164
5685,Williamsburg Drive,44143,41.5509063,-81.4735921
5665,Williamsburg Drive,44143,41.5508544,-81.4739819
5645,Williamsburg Drive,44143,41.5506800,-81.4743534
580,Williamsburg Drive,44143,41.5504020,-81.4744785
584,Williamsburg Drive,44143,41.5501176,-81.4744212
588,Williamsburg Drive,44143,41.5498463,-81.4744065
592,Williamsburg Drive,44143,41.5495517,-81.4743739
596,Williamsburg Drive,44143,41.5492931,-81.4743415
600,Williamsburg Drive,44143,41.5490234,-81.4742973
604,Williamsburg Drive,44143,41.5487497,-81.4742701
5667,Ashley Circle,44143,41.5483711,-81.4741968
5651,Ashley Circle,44143,41.5483360,-81.4745439
5635,Ashley Circle,44143,41.5483146,-81.4749505
5619,Ashley Circle,44143,41.5480661,-81.4752467
5618,Ashley Circle,44143,41.5477389,-81.4751742
5634,Ashley Circle,44143,41.5475571,-81.4747905
5650,Ashley Circle,44143,41.5475856,-81.4743986
5666,Ashley Circle,44143,41.5477016,-81.4740522
5667,Blair Drive,44143,41.5472065,-81.4738773
5651,Blair Drive,44143,41.5471924,-81.4742500
5635,Blair Drive,44143,41.5470601,-81.4746424
5619,Blair Drive,44143,41.5467357,-81.4747267
5700,Blair Drive,44143,41.5464942,-81.4744611
5710,Blair Drive,44143,41.5464827,-81.4738356
5720,Blair Drive,44143,41.5464888,-81.4734754
5730,Blair Drive,44143,41.5464987,-81.4730851
5740,Blair Drive,44143,41.5464805,-81.4727498
5750,Blair Drive,44143,41.5464748,-81.4723962
5760,Blair Drive,44143,41.5464479,-81.4720159
5770,Blair Drive,44143,41.5464745,-81.4716529
5790,Blair Drive,44143,41.5464451,-81.4709365
5800,Blair Drive,44143,41.5464433,-81.4705576
5810,Blair Drive,44143,41.5464157,-81.4702098
5820,Blair Drive,44143,41.5463893,-81.4698057
5830,Blair Drive,44143,41.5464123,-81.4694623
5840,Blair Drive,44143,41.5463933,-81.4691155
5850,Blair Drive,44143,41.5464153,-81.4687276
5860,Blair Drive,44143,41.5463870,-81.4683731
5870,Blair Drive,44143,41.5463699,-81.4679432
5880,Blair Drive,44143,41.5464201,-81.4675947
5890,Blair Drive,44143,41.5464580,-81.4672094
630,Gloucester Drive,44143,41.5467448,-81.4667347
634,Gloucester Drive,44143,41.5465544,-81.4666193
640,Gloucester Drive,44143,41.5464181,-81.4663371
646,Gloucester Drive,44143,41.5462282,-81.4661811
652,Gloucester Drive,44143,41.5460875,-81.4659894
658,Gloucester Drive,44143,41.5459415,-81.4657357
664,Gloucester Drive,44143,41.5457956,-81.4655452
670,Gloucester Drive,44143,41.5456404,-81.4653410
5947,Blakely Drive,44143,41.5452417,-81.4651505
5937,Blakely Drive,44143,41.5452447,-81.4654906
5927,Blakely Drive,44143,41.5452539,-81.4657889
5919,Blakely Drive,44143,41.5452495,-81.4660935
5911,Blakely Drive,44143,41.5452440,-81.4663866
5903,Blakely Drive,44143,41.5452405,-81.4666924
5904,Blakely Drive,44143,41.5446049,-81.4667001
5912,Blakely Drive,44143,41.5445786,-81.4663661
5920,Blakely Drive,44143,41.5445852,-81.4660659
5928,Blakely Drive,44143,41.5445543,-81.4657675
5936,Blakely Drive,44143,41.5446048,-81.4654814
5944,Blakely Drive,44143,41.5445734,-81.4651806
5952,Blakely Drive,44143,41.5445737,-81.4648815
5960,Blakely Drive,44143,41.5446113,-81.4645941
5968,Blakely Drive,44143,41.5445713,-81.4642990
5976,Blakely Drive,44143,41.5446007,-81.4640067
5984,Blakely Drive,44143,41.5445529,-81.4637154
5992,Blakely Drive,44143,41.5445722,-81.4634274
5995,Woodside Road,44143,41.5435728,-81.4633797
5987,Woodside Road,44143,41.5435172,-81.4636416
5979,Woodside Road,44143,41.5434953,-81.4639132
5971,Woodside Road,44143,41.5434855,-81.4641897
5963,Woodside Road,44143,41.5434964,-81.4644620
5955,Woodside Road,44143,41.5434949,-81.4647359
5947,Woodside Road,44143,41.5435236,-81.4650013
5939,Woodside Road,44143,41.5435261,-81.4652839
5931,Woodside Road,44143,41.5435211,-81.4655593
5923,Woodside Road,44143,41.5435265,-81.4658295
5915,Woodside Road,44143,41.5435016,-81.4661092
5907,Woodside Road,44143,41.5434997,-81.4664018
5916,Woodside Road,44143,41.5427930,-81.4661794
5924,Woodside Road,44143,41.5427725,-81.4658462
5932,Woodside Road,44143,41.5428001,-81.4655744
5940,Woodside Road,44143,41.5427776,-81.4652957
5948,Woodside Road,44143,41.5428019,-81.4650218
5956,Woodside Road,44143,41.5427784,-81.4647514
5964,Woodside Road,44143,41.5427703,-81.4644694
724,Lander Road,44143,41.5429170,-81.4635774
728,Lander Road,44143,41.5427198,-81.4635484
732,Lander Road,44143,41.5424584,-81.4635713
750,Lander Road,44143,41.5421890,-81.4636193
754,Lander Road,44143,41.5419212,-81.4636047
751,Lander Road,44143,41.5419340,-81.4627644
747,Lander Road,44143,41.5422092,-81.4626867
743,Lander Road,44143,41.5424579,-81.4627505
739,Lander Road,44143,41.5427749,-81.4627161
723,Lander Road,44143,41.5430415,-81.4627258
721,Lander Road,44143,41.5432948,-81.4627387
715,Lander Road,44143,41.5435492,-81.4627204
711,Lander Road,44143,41.5438169,-81.4627191
705,Lander Road,44143,41.5440855,-81.4626644
6008,Blakely Drive,44143,41.5445916,-81.4627466
6016,Blakely Drive,44143,41.5445650,-81.4624698
6024,Blakely Drive,44143,41.5445698,-81.4621747
6032,Blakely Drive,44143,41.5445698,-81.4618854
6040,Blakely Drive,44143,41.5445654,-81.4615936
6048,Blakely Drive,44143,41.5445641,-81.4613020
6056,Blakely Drive,44143,41.5445506,-81.4610060
6064,Blakely Drive,44143,41.5445347,-81.4607195
711,Davidson Drive,44143,41.5445235,-81.4603659
709,Davidson Drive,44143,41.5445372,-81.4599381
703,Davidson Drive,44143,41.5447879,-81.4595203
697,Davidson Drive,44143,41.5451033,-81.4593378
691,Davidson Drive,44143,41.5453474,-81.4593651
679,Davidson Drive,44143,41.5459363,-81.4593532
667,Davidson Drive,44143,41.5465104,-81.4593364
661,Davidson Drive,44143,41.5467623,-81.4593125
660,Miner Road,44143,41.5467795,-81.4585507
650,Miner Road,44143,41.5473114,-81.4585719
651,Davidson Drive,44143,41.5473554,-81.4593461
647,Davidson Drive,44143,41.5475926,-81.4594644
643,Davidson Drive,44143,41.5478224,-81.4596608
643,Davidson Drive,44143,41.5481134,-81.4600402
637,Davidson Drive,44143,41.5482450,-81.4602898
633,Davidson Drive,44143,41.5484362,-81.4606112
629,Davidson Drive,44143,41.5486215,-81.4608495
625,Davidson Drive,44143,41.5488079,-81.4610705
621,Davidson Drive,44143,41.5490166,-81.4613935
617,Davidson Drive,44143,41.5491628,-81.4616888
609,Davidson Drive,44143,41.5494097,-81.4619407
603,Davidson Drive,44143,41.5496352,-81.4619344
6060,Williamsburg Drive,44143,41.5495980,-81.4611975
6070,Williamsburg Drive,44143,41.5493707,-81.4610237
6082,Williamsburg Drive,44143,41.5491600,-81.4606255
6088,Williamsburg Drive,44143,41.5493232,-81.4601952
6090,Williamsburg Drive,44143,41.5496317,-81.4601090
6087,Williamsburg Drive,44143,41.5499609,-81.4601677
6081,Williamsburg Drive,44143,41.5501450,-81.4604705
6069,Williamsburg Drive,44143,41.5501934,-81.4608731
6057,Williamsburg Drive,44143,41.5501983,-81.4612773
6033,Williamsburg Drive,44143,41.5502334,-81.4620732
6021,Williamsburg Drive,44143,41.5502174,-81.4624638
6009,Williamsburg Drive,44143,41.5502207,-81.4628357
5997,Williamsburg Drive,44143,41.5502005,-81.4632511
5985,Williamsburg Drive,44143,41.5501596,-81.4636127
5973,Williamsburg Drive,44143,41.5501603,-81.4639459
5965,Williamsburg Drive,44143,41.5501687,-81.4642363
5957,Williamsburg Drive,44143,41.5501745,-81.4645278
5949,Williamsburg Drive,44143,41.5501833,-81.4648263
5941,Williamsburg Drive,44143,41.5501857,-81.4651184
5933,Williamsburg Drive,44143,41.5501890,-81.4654060
5925,Williamsburg Drive,44143,41.5502020,-81.4657030
5917,Williamsburg Drive,44143,41.5501895,-81.4659909
5909,Williamsburg Drive,44143,41.5502032,-81.4662877
5901,Williamsburg Drive,44143,41.5502166,-81.4665773
5893,Williamsburg Drive,44143,41.5502003,-81.4668705
5885,Williamsburg Drive,44143,41.5501910,-81.4671625
5877,Williamsburg Drive,44143,41.5502178,-81.4674622
5869,Williamsburg Drive,44143,41.5502143,-81.4677465
5861,Williamsburg Drive,44143,41.5502119,-81.4680694
5853,Williamsburg Drive,44143,41.5502200,-81.4684062
5845,Williamsburg Drive,44143,41.5502443,-81.4686987
5837,Williamsburg Drive,44143,41.5502484,-81.4689913
5829,Williamsburg Drive,44143,41.5502514,-81.4692821
5821,Williamsburg Drive,44143,41.5502592,-81.4695793
5813,Williamsburg Drive,44143,41.5502563,-81.4698627
5805,Williamsburg Drive,44143,41.5502751,-81.4701659
5797,Williamsburg Drive,44143,41.5502669,-81.4704677
5789,Williamsburg Drive,44143,41.5503203,-81.4707528
5792,Pinehurst Court,44143,41.5509095,-81.4707104
5800,Pinehurst Court,44143,41.5508795,-81.4703301
5808,Pinehurst Court,44143,41.5508383,-81.4697981
5816,Pinehurst Court,44143,41.5510673,-81.4695046
5813,Pinehurst Court,44143,41.5513963,-81.4694832
5805,Pinehurst Court,44143,41.5516755,-81.4698200
5797,Pinehurst Court,44143,41.5516443,-81.4703338
5789,Pinehurst Court,44143,41.5516018,-81.4707183
584,Hanford Drive,44143,41.5498389,-81.4726136
588,Hanford Drive,44143,41.5495636,-81.4726244
592,Hanford Drive,44143,41.5492912,-81.4726180
596,Hanford Drive,44143,41.5490097,-81.4726402
600,Hanford Drive,44143,41.5487270,-81.4726084
604,Hanford Drive,44143,41.5484504,-81.4725524
608,Hanford Drive,44143,41.5481697,-81.4725084
612,Hanford Drive,44143,41.5478943,-81.4724481
616,Hanford Drive,44143,41.5476164,-81.4723654
620,Hanford Drive,44143,41.5473446,-81.4722699
624,Hanford Drive,44143,41.5470756,-81.4721732
629,Williamsburg Drive,44143,41.5470837,-81.4729983
625,Williamsburg Drive,44143,41.5473033,-81.4731436
621,Williamsburg Drive,44143,41.5475825,-81.4731695
617,Williamsburg Drive,44143,41.5478368,-81.4732970
613,Williamsburg Drive,44143,41.5481077,-81.4733521
609,Williamsburg Drive,44143,41.5483942,-81.4733813
605,Williamsburg Drive,44143,41.5486519,-81.4734113
601,Williamsburg Drive,44143,41.5489213,-81.4734154
597,Williamsburg Drive,44143,41.5491962,-81.4734683
593,Williamsburg Drive,44143,41.5494684,-81.4735037
589,Williamsburg Drive,44143,41.5497429,-81.4735404
585,Williamsburg Drive,44143,41.5500211,-81.4735692
581,Williamsburg Drive,44143,41.5503070,-81.4734513
580,Hanford Drive,44143,41.5501224,-81.4726380
585,Hanford Drive,44143,41.5498775,-81.4717443
589,Hanford Drive,44143,41.5496213,-81.4718156
593,Hanford Drive,44143,41.5493666,-81.4718235
597,Hanford Drive,44143,41.5491092,-81.4717506
601,Hanford Drive,44143,41.5488291,-81.4717692
605,Hanford Drive,44143,41.5485432,-81.4717270
609,Hanford Drive,44143,41.5482593,-81.4716678
613,Hanford Drive,44143,41.5479706,-81.4715863
617,Hanford Drive,44143,41.5476582,-81.4714735
621,Hanford Drive,44143,41.5473661,-81.4714264
625,Hanford Drive,44143,41.5470875,-81.4712598
624,Rutland Drive,44143,41.5470427,-81.4704726
620,Rutland Drive,44143,41.5472979,-81.4706402
616,Rutland Drive,44143,41.5475264,-81.4707283
612,Rutland Drive,44143,41.5478243,-81.4707853
608,Rutland Drive,44143,41.5481042,-81.4708854
604,Rutland Drive,44143,41.5483251,-81.4709965
600,Rutland Drive,44143,41.5486343,-81.4710329
596,Rutland Drive,44143,41.5489199,-81.4710928
592,Rutland Drive,44143,41.5491945,-81.4710749
588,Rutland Drive,44143,41.5494750,-81.4710790
584,Rutland Drive,44143,41.5497086,-81.4711106
585,Rutland Drive,44143,41.5496485,-81.4702439
589,Rutland Drive,44143,41.5493758,-81.4702724
593,Rutland Drive,44143,41.5491312,-81.4702498
597,Rutland Drive,44143,41.5488635,-81.4701917
601,Rutland Drive,44143,41.5485865,-81.4701446
605,Rutland Drive,44143,41.5482993,-81.4700762
609,Rutland Drive,44143,41.5480267,-81.4699847
613,Rutland Drive,44143,41.5477767,-81.4699150
617,Rutland Drive,44143,41.5475105,-81.4698415
621,Rutland Drive,44143,41.5472530,-81.4697025
625,Rutland Drive,44143,41.5470518,-81.4695713
620,Sturbridge Drive,44143,41.5469742,-81.4688064
616,Sturbridge Drive,44143,41.5472014,-81.4689198
612,Sturbridge Drive,44143,41.5474500,-81.4690447
608,Sturbridge Drive,44143,41.5477053,-81.4691656
604,Sturbridge Drive,44143,41.5479963,-81.4692543
602,Sturbridge Drive,44143,41.5482872,-81.4694028
598,Sturbridge Drive,44143,41.5485685,-81.4694660
594,Sturbridge Drive,44143,41.5488525,-81.4695165
590,Sturbridge Drive,44143,41.5491164,-81.4695558
586,Sturbridge Drive,44143,41.5493870,-81.4695297
582,Sturbridge Drive,44143,41.5496586,-81.4695908
583,Sturbridge Drive,44143,41.5496368,-81.4687099
587,Sturbridge Drive,44143,41.5493818,-81.4687095
591,Sturbridge Drive,44143,41.5491220,-81.4686472
595,Sturbridge Drive,44143,41.5488445,-81.4686451
599,Sturbridge Drive,44143,41.5485817,-81.4685827
603,Sturbridge Drive,44143,41.5483168,-81.4685111
607,Sturbridge Drive,44143,41.5480549,-81.4684022
611,Sturbridge Drive,44143,41.5477795,-81.4683030
615,Sturbridge Drive,44143,41.5475041,-81.4681818
619,Sturbridge Drive,44143,41.5472446,-81.4680252
623,Sturbridge Drive,44143,41.5470180,-81.4678584
582,Gloucester Drive,44143,41.5496282,-81.4679004
586,Gloucester Drive,44143,41.5494273,-81.4679196
590,Gloucester Drive,44143,41.5492209,-81.4679232
594,Gloucester Drive,44143,41.5489670,-81.4679066
598,Gloucester Drive,44143,41.5487430,-81.4678689
602,Gloucester Drive,44143,41.5485013,-81.4678655
606,Gloucester Drive,44143,41.5482602,-81.4677885
610,Gloucester Drive,44143,41.5480364,-81.4676909
614,Gloucester Drive,44143,41.5478364,-81.4676478
618,Gloucester Drive,44143,41.5476167,-81.4674945
622,Gloucester Drive,44143,41.5474077,-81.4673480
626,Gloucester Drive,44143,41.5471824,-81.4671807
625,Gloucester Drive,44143,41.5475536,-81.4663605
621,Gloucester Drive,44143,41.5477255,-81.4665504
617,Gloucester Drive,44143,41.5479149,-81.4666544
613,Gloucester Drive,44143,41.5481103,-81.4667400
609,Gloucester Drive,44143,41.5483262,-81.4668749
605,Gloucester Drive,44143,41.5485594,-81.4669226
601,Gloucester Drive,44143,41.5487588,-81.4669828
595,Gloucester Drive,44143,41.5489707,-81.4670122
591,Gloucester Drive,44143,41.5491871,-81.4669956
585,Gloucester Drive,44143,41.5494089,-81.4670295
581,Gloucester Drive,44143,41.5496136,-81.4670110
588,Lander Drive,44143,41.5496018,-81.4662211
592,Lander Drive,44143,41.5493871,-81.4662575
596,Lander Drive,44143,41.5491801,-81.4662368
600,Lander Drive,44143,41.5489646,-81.4662163
604,Lander Drive,44143,41.5487258,-81.4661541
608,Lander Drive,44143,41.5485138,-81.4660771
612,Lander Drive,44143,41.5483053,-81.4660319
616,Lander Drive,44143,41.5480885,-81.4659130
617,Lander Drive,44143,41.5478753,-81.4657690
631,Gloucester Drive,44143,41.5471302,-81.4660615
635,Gloucester Drive,44143,41.5469657,-81.4658340
641,Gloucester Drive,44143,41.5468056,-81.4656383
647,Gloucester Drive,44143,41.5466730,-81.4654404
653,Gloucester Drive,44143,41.5465060,-81.4652067
659,Gloucester Drive,44143,41.5463625,-81.4650061
665,Gloucester Drive,44143,41.5462217,-81.4647849
669,Gloucester Drive,44143,41.5460368,-81.4645300
675,Gloucester Drive,44143,41.5458290,-81.4644003
681,Gloucester Drive,44143,41.5455823,-81.4643371
5965,Blakely Drive,44143,41.5452144,-81.4644342
5975,Blakely Drive,44143,41.5452117,-81.4640993
5991,Blakely Drive,44143,41.5451593,-81.4635510
684,Lander Drive,44143,41.5453786,-81.4634883
680,Lander Drive,44143,41.5455799,-81.4635402
676,Lander Drive,44143,41.5458073,-81.4635249
672,Lander Drive,44143,41.5460315,-81.4635433
660,Lander Drive,44143,41.5462227,-81.4636588
656,Lander Drive,44143,41.5463927,-81.4638645
652,Lander Drive,44143,41.5465652,-81.4640958
648,Lander Drive,44143,41.5466958,-81.4642949
644,Lander Drive,44143,41.5468548,-81.4645321
640,Lander Drive,44143,41.5469995,-81.4647503
636,Lander Drive,44143,41.5471399,-81.4649749
632,Lander Drive,44143,41.5472778,-81.4651492
628,Lander Drive,44143,41.5474421,-81.4653583
689,Lander Drive,44143,41.5451711,-81.4626319
685,Lander Drive,44143,41.5453928,-81.4626574
681,Lander Drive,44143,41.5456271,-81.4626473
677,Lander Drive,44143,41.5458570,-81.4626196
673,Lander Drive,44143,41.5460798,-81.4626601
669,Lander Drive,44143,41.5463086,-81.4627408
665,Lander Drive,44143,41.5465121,-81.4628670
661,Lander Drive,44143,41.5467124,-81.4629967
657,Lander Drive,44143,41.5468824,-81.4632666
649,Lander Drive,44143,41.5471659,-81.4636900
645,Lander Drive,44143,41.5473187,-81.4639013
641,Lander Drive,44143,41.5474494,-81.4641098
637,Lander Drive,44143,41.5476291,-81.4643451
633,Lander Drive,44143,41.5477894,-81.4645557
629,Lander Drive,44143,41.5479335,-81.4647584
623,Lander Drive,44143,41.5480973,-81.4649304
619,Lander Drive,44143,41.5483047,-81.4650598
615,Lander Drive,44143,41.5485215,-81.4651445
688,Jefferson Drive,44143,41.5451752,-81.4618483
684,Jefferson Drive,44143,41.5453816,-81.4618536
680,Jefferson Drive,44143,41.5456150,-81.4618047
676,Jefferson Drive,44143,41.5458432,-81.4617976
672,Jefferson Drive,44143,41.5460691,-81.4618550
668,Jefferson Drive,44143,41.5462898,-81.4618240
662,Jefferson Drive,44143,41.5465227,-81.4618526
656,Jefferson Drive,44143,41.5467303,-81.4619924
648,Jefferson Drive,44143,41.5469026,-81.4621665
644,Jefferson Drive,44143,41.5470451,-81.4623295
640,Jefferson Drive,44143,41.5471993,-81.4625378
636,Jefferson Drive,44143,41.5473576,-81.4628089
632,Jefferson Drive,44143,41.5474720,-81.4629910
628,Jefferson Drive,44143,41.5476532,-81.4631836
624,Jefferson Drive,44143,41.5477899,-81.4634142
620,Jefferson Drive,44143,41.5479358,-81.4636490
616,Jefferson Drive,44143,41.5481033,-81.4638329
612,Jefferson Drive,44143,41.5482984,-81.4640269
608,Jefferson Drive,44143,41.5485049,-81.4641801
604,Jefferson Drive,44143,41.5486949,-81.4643041
600,Jefferson Drive,44143,41.5489075,-81.4643943
596,Jefferson Drive,44143,41.5491385,-81.4644779
592,Jefferson Drive,44143,41.5493583,-81.4645335
588,Jefferson Drive,44143,41.5495738,-81.4645557
589,Jefferson Drive,44143,41.5495615,-81.4636305
595,Jefferson Drive,44143,41.5493527,-81.4636183
601,Jefferson Drive,44143,41.5491354,-81.4635430
607,Jefferson Drive,44143,41.5489242,-81.4634349
611,Jefferson Drive,44143,41.5487194,-81.4632939
615,Jefferson Drive,44143,41.5485677,-81.4631469
621,Jefferson Drive,44143,41.5483977,-81.4629518
625,Jefferson Drive,44143,41.5482400,-81.4627435
629,Jefferson Drive,44143,41.5480870,-81.4625307
633,Jefferson Drive,44143,41.5479435,-81.4623026
637,Jefferson Drive,44143,41.5477836,-81.4620819
641,Jefferson Drive,44143,41.5476357,-81.4618798
645,Jefferson Drive,44143,41.5474959,-81.4616078
649,Jefferson Drive,44143,41.5473302,-81.4614450
653,Jefferson Drive,44143,41.5471559,-81.4612471
657,Jefferson Drive,44143,41.5469388,-81.4611302
661,Jefferson Drive,44143,41.5467356,-81.4609894
665,Jefferson Drive,44143,41.5465029,-81.4609507
669,Jefferson Drive,44143,41.5462760,-81.4609311
673,Jefferson Drive,44143,41.5460527,-81.4609277
677,Jefferson Drive,44143,41.5458538,-81.4609388
681,Jefferson Drive,44143,41.5456161,-81.4609790
685,Jefferson Drive,44143,41.5453955,-81.4609360
689,Jefferson Drive,44143,41.5451573,-81.4609814
696,Davidson Drive,44143,41.5451422,-81.4602210
692,Davidson Drive,44143,41.5453842,-81.4601880
686,Davidson Drive,44143,41.5456605,-81.4601850
680,Davidson Drive,44143,41.5459368,-81.4602093
674,Davidson Drive,44143,41.5462133,-81.4602054
668,Davidson Drive,44143,41.5464894,-81.4601897
662,Davidson Drive,44143,41.5467647,-81.4601574
658,Davidson Drive,44143,41.5470263,-81.4601517
652,Davidson Drive,44143,41.5472922,-81.4602277
644,Davidson Drive,44143,41.5475001,-81.4604965
640,Davidson Drive,44143,41.5477190,-81.4607496
636,Davidson Drive,44143,41.5478817,-81.4610656
632,Davidson Drive,44143,41.5480844,-81.4613413
628,Davidson Drive,44143,41.5482662,-81.4615768
624,Davidson Drive,44143,41.5484490,-81.4618529
620,Davidson Drive,44143,41.5486227,-81.4621202
616,Davidson Drive,44143,41.5488277,-81.4623776
612,Davidson Drive,44143,41.5490231,-81.4626217
608,Davidson Drive,44143,41.5493292,-81.4628032
604,Davidson Drive,44143,41.5496105,-81.4628180
605,Lander Drive,44143,41.5487225,-81.4652638
601,Lander Drive,44143,41.5489301,-81.4653056
597,Lander Drive,44143,41.5491683,-81.4653584
593,Lander Drive,44143,41.5493856,-81.4652942
589,Lander Drive,44143,41.5495868,-81.4653164
644,Miner Road,44143,41.5475680,-81.4585795
638,Miner Road,44143,41.5478580,-81.4585631
632,Miner Road,44143,41.5481677,-81.4586096
628,Miner Road,44143,41.5483966,-81.4586164
624,Miner Road,44143,41.5486681,-81.4586258
620,Miner Road,44143,41.5489375,-81.4586211
614,Miner Road,44143,41.5492002,-81.4586107
604,Miner Road,44143,41.5494840,-81.4586099
602,Miner Road,44143,41.5497381,-81.4586068
600,Miner Road,44143,41.5499784,-81.4585455
596,Miner Road,44143,41.5502266,-81.4584769
588,Miner Road,44143,41.5504828,-81.4584591
584,Miner Road,44143,41.5507742,-81.4584581
580,Miner Road,44143,41.5510475,-81.4584208
576,Miner Road,44143,41.5513150,-81.4584392
664,Miner Road,44143,41.5465166,-81.4585333
670,Miner Road,44143,41.5462244,-81.4585414
676,Miner Road,44143,41.5459406,-81.4586008
682,Miner Road,44143,41.5456530,-81.4585920
692,Miner Road,44143,41.5450769,-81.4585902
698,Miner Road,44143,41.5447927,-81.4586002
704,Miner Road,44143,41.5444534,-81.4586125
710,Miner Road,44143,41.5441172,-81.4586881
720,Miner Road,44143,41.5435422,-81.4587430
724,Miner Road,44143,41.5432752,-81.4587733
730,Miner Road,44143,41.5430127,-81.4587330
734,Miner Road,44143,41.5427325,-81.4587501
740,Miner Road,44143,41.5424526,-81.4587455
746,Miner Road,44143,41.5421975,-81.4587734
752,Miner Road,44143,41.5418935,-81.4588069
756,Miner Road,44143,41.5416516,-81.4587379
762,Miner Road,44143,41.5414078,-81.4587066
766,Miner Road,44143,41.5411199,-81.4587425
772,Miner Road,44143,41.5407972,-81.4587779
776,Miner Road,44143,41.5405379,-81.4588238
780,Miner Road,44143,41.5402637,-81.4587782
875,Brainard Road,44143,41.5365739,-81.4776711
891,Brainard Road,44143,41.5361375,-81.4776003
907,Brainard Road,44143,41.5356963,-81.4775880
1013,Brainard Road,44143,41.5328237,-81.4774943
1045,Brainard Road,44143,41.5318609,-81.4774808
1077,Brainard Road,44143,41.5309801,-81.4774587
5641,Ridgebury Boulevard,44143,41.5310240,-81.4759938
5661,Ridgebury Boulevard,44143,41.5310567,-81.4753520
5677,Ridgebury Boulevard,44143,41.5310436,-81.4750109
1006,Millridge Road,44143,41.5324229,-81.4762828
1002,Millridge Road,44143,41.5329447,-81.4766804
994,Millridge Road,44143,41.5335925,-81.4762180
988,Millridge Road,44143,41.5338026,-81.4760726
882,Millridge Road,44143,41.5366077,-81.4760059
854,Millridge Road,44143,41.5373105,-81.4759740
844,Millridge Road,44143,41.5375430,-81.4759982
835,Millridge Road,44143,41.5378201,-81.4751976
863,Millridge Road,44143,41.5371533,-81.4751767
885,Millridge Road,44143,41.5365003,-81.4751936
957,Millridge Road,44143,41.5344407,-81.4751908
983,Millridge Road,44143,41.5335521,-81.4752630
1017,Millridge Road,44143,41.5326238,-81.4752311
1004,Cranbrook Drive,44143,41.5329696,-81.4744189
988,Cranbrook Drive,44143,41.5334088,-81.4744389
956,Cranbrook Drive,44143,41.5342874,-81.4743984
916,Cranbrook Drive,44143,41.5353807,-81.4743669
906,Cranbrook Drive,44143,41.5356001,-81.4743821
898,Cranbrook Drive,44143,41.5358228,-81.4743936
874,Cranbrook Drive,44143,41.5364986,-81.4743847
866,Cranbrook Drive,44143,41.5367193,-81.4743642
842,Cranbrook Drive,44143,41.5378496,-81.4742428
845,Stanwell Drive,44143,41.5374106,-81.4718899
901,Stanwell Drive,44143,41.5358729,-81.4718974
933,Stanwell Drive,44143,41.5350082,-81.4718898
920,Rose Boulevard,44143,41.5352147,-81.4708485
880,Rose Boulevard,44143,41.5363082,-81.4708978
872,Rose Boulevard,44143,41.5365242,-81.4708892
832,Rose Boulevard,44143,41.5376368,-81.4708265
840,Stanwell Drive,44143,41.5374972,-81.4727800
896,Stanwell Drive,44143,41.5359537,-81.4727324
944,Stanwell Drive,44143,41.5346348,-81.4727623
952,Stanwell Drive,44143,41.5344200,-81.4727543
960,Stanwell Drive,44143,41.5341966,-81.4727280
976,Stanwell Drive,44143,41.5337559,-81.4727813
1080,Stanwell Drive,44143,41.5309136,-81.4727542
1031,Cranbrook Drive,44143,41.5322223,-81.4735741
999,Cranbrook Drive,44143,41.5331095,-81.4735565
991,Cranbrook Drive,44143,41.5333282,-81.4735506
959,Cranbrook Drive,44143,41.5341971,-81.4735527
943,Cranbrook Drive,44143,41.5346358,-81.4735506
935,Cranbrook Drive,44143,41.5348408,-81.4735490
903,Cranbrook Drive,44143,41.5357291,-81.4735471
879,Cranbrook Drive,44143,41.5363911,-81.4735335
863,Cranbrook Drive,44143,41.5368313,-81.4735629
843,Rose Boulevard,44143,41.5373391,-81.4700183
849,Rose Boulevard,44143,41.5371250,-81.4699939
1063,Stanwell Drive,44143,41.5313383,-81.4719310
1015,Stanwell Drive,44143,41.5326581,-81.4719087
975,Stanwell Drive,44143,41.5337570,-81.4719250
956,Rose Boulevard,44143,41.5342014,-81.4708946
972,Rose Boulevard,44143,41.5337564,-81.4708963
990,Rose Boulevard,44143,41.5333196,-81.4708642
1008,Rose Boulevard,44143,41.5328818,-81.4709175
1032,Rose Boulevard,44143,41.5322242,-81.4710443
1056,Rose Boulevard,44143,41.5315616,-81.4710530
889,Rose Boulevard,44143,41.5360793,-81.4699726
897,Rose Boulevard,44143,41.5358519,-81.4700142
929,Rose Boulevard,44143,41.5349761,-81.4699472
951,Rose Boulevard,44143,41.5343086,-81.4700121
975,Rose Boulevard,44143,41.5336528,-81.4700093
1003,Rose Boulevard,44143,41.5329933,-81.4700439
1011,Rose Boulevard,44143,41.5327762,-81.4700786
1025,Rose Boulevard,44143,41.5323348,-81.4701575
5823,Ridgebury Boulevard,44143,41.5310259,-81.4698182
252,East Legend Court,44143,41.5664403,-81.4601186
305,West Legend Court,44143,41.5664207,-81.4604619
301,West Legend Court,44143,41.5666139,-81.4604715
297,West Legend Court,44143,41.5668079,-81.4604995
275,West Legend Court,44143,41.5667887,-81.4601142
308,West Legend Court,44143,41.5664023,-81.4610513
304,West Legend Court,44143,41.5665960,-81.4610588
300,West Legend Court,44143,41.5667863,-81.4610643
278,Legend Lane,44143,41.5672302,-81.4604935
289,West Legend Court,44143,41.5674694,-81.4605164
285,West Legend Court,44143,41.5676584,-81.4605313
265,West Legend Court,44143,41.5676682,-81.4600971
296,West Legend Court,44143,41.5669828,-81.4610709
292,West Legend Court,44143,41.5671754,-81.4610774
288,West Legend Court,44143,41.5673666,-81.4610908
284,West Legend Court,44143,41.5675615,-81.4610857
284,West Legend Court,44143,41.5677479,-81.4611020
276,West Legend Court,44143,41.5680694,-81.4612208
272,West Legend Court,44143,41.5680703,-81.4607865
268,West Legend Court,44143,41.5680856,-81.4604563
264,West Legend Court,44143,41.5680601,-81.4601033
240,East Legend Court,44143,41.5683523,-81.4581096
248,East Legend Court,44143,41.5683563,-81.4586929
279,East Legend Court,44143,41.5677057,-81.4595418
283,East Legend Court,44143,41.5675184,-81.4595422
287,East Legend Court,44143,41.5673280,-81.4595841
291,East Legend Court,44143,41.5671383,-81.4595475
295,East Legend Court,44143,41.5669428,-81.4595537
299,East Legend Court,44143,41.5667531,-81.4595678
303,East Legend Court,44143,41.5665571,-81.4595619
307,East Legend Court,44143,41.5663600,-81.4595620
6191,Maypine Farm Boulevard,44143,41.5681548,-81.4563571
6281,Maypine Farm Boulevard,44143,41.5681673,-81.4520036
6290,Ox Ridge Trail,44143,41.5651440,-81.4517869
270,Halton Trail,44143,41.5671584,-81.4538098
268,Old Salem Trail,44143,41.5675504,-81.4559689
214,Skye Road,44143,41.5677754,-81.4660780
208,Skye Road,44143,41.5678720,-81.4662651
193,Burwick Road,44143,41.5689629,-81.4659041
189,Burwick Road,44143,41.5689555,-81.4661253
178,Skye Road,44143,41.5684801,-81.4671252
177,Burwick Road,44143,41.5690481,-81.4668038
173,Burwick Road,44143,41.5690956,-81.4670133
311,Perth Drive,44143,41.5657404,-81.4669380
323,West Edinburgh Drive,44143,41.5655285,-81.4674030
339,Glasgow Drive,44143,41.5645308,-81.4663672
291,Miner Road,44143,41.5668228,-81.4572590
441,Medway Road,44143,41.5579295,-81.4511414
457,Lynden Drive,44143,41.5577704,-81.4590113
463,Lynden Drive,44143,41.5572392,-81.4589949
409,Lassiter Drive,44143,41.5595612,-81.4634463
6245,Wilson Mills Road,44143,41.5411164,-81.4537271
6199,Wilson Mills Road,44143,41.5409788,-81.4559379
26300,Curtiss Wright Parkway,44143,41.5640172,-81.4896393
299,Old Salem Trail,44143,41.5667989,-81.4549304
6280,Maypine Farm Boulevard,44143,41.5674964,-81.4523732
675,Miner Road,44143,41.5461979,-81.4570748
424,Diana Court,44143,41.5587295,-81.4552881
348,Gretna Green Drive,44143,41.5647138,-81.4636105
352,Gretna Green Drive,44143,41.5645684,-81.4635492
340,Gretna Green Drive,44143,41.5650278,-81.4637079
344,Gretna Green Drive,44143,41.5648825,-81.4636476
332,Gretna Green Drive,44143,41.5653458,-81.4638092
336,Gretna Green Drive,44143,41.5652005,-81.4637506
324,Gretna Green Drive,44143,41.5656760,-81.4639071
328,Gretna Green Drive,44143,41.5655306,-81.4638484
316,Gretna Green Drive,44143,41.5660662,-81.4640216
320,Gretna Green Drive,44143,41.5659211,-81.4639717
308,Gretna Green Drive,44143,41.5663889,-81.4641086
312,Gretna Green Drive,44143,41.5662427,-81.4640517
460,Augustus Drive,44143,41.5575152,-81.4681812
452,Augustus Drive,44143,41.5578315,-81.4679679
454,Dornach Lane,44143,41.5580723,-81.4686868
450,Dornach Lane,44143,41.5581442,-81.4685456
446,Dornach Lane,44143,41.5582371,-81.4683526
434,Dornach Lane,44143,41.5583590,-81.4679193
432,Augustus Drive,44143,41.5585605,-81.4677117
428,Augustus Drive,44143,41.5586763,-81.4676545
421,Augustus Drive,44143,41.5589126,-81.4671556
425,Augustus Drive,44143,41.5588027,-81.4670728
413,Augustus Drive,44143,41.5590975,-81.4675515
417,Augustus Drive,44143,41.5590531,-81.4673972
469,Augustus Drive,44143,41.5570785,-81.4680566
461,Augustus Drive,44143,41.5572703,-81.4677190
468,Augustus Drive,44143,41.5573750,-81.4685413
464,Augustus Drive,44143,41.5574527,-81.4684046
465,Augustus Drive,44143,41.5571807,-81.4678402
473,Augustus Drive,44143,41.5570209,-81.4682080
463,Dornach Lane,44143,41.5575674,-81.4687286
459,Dornach Lane,44143,41.5576461,-81.4685983
456,Augustus Drive,44143,41.5576147,-81.4680633
438,Dornach Lane,44143,41.5583246,-81.4677637
442,Dornach Lane,44143,41.5583185,-81.4682145
653,Lander Drive,44143,41.5470304,-81.4634907
714,Miner Road,44143,41.5438539,-81.4587320
681,Radford Drive,44143,41.5451142,-81.4876494
682,Radford Drive,44143,41.5457219,-81.4879459
680,Radford Drive,44143,41.5458362,-81.4876637
719,Franklin Boulevard,44143,41.5436069,-81.4837605
742,Radford Drive,44143,41.5423894,-81.4878937
738,Radford Drive,44143,41.5426312,-81.4878350
734,Kenbridge Drive,44143,41.5428429,-81.4877774
730,Kenbridge Drive,44143,41.5430762,-81.4878000
726,Kenbridge Drive,44143,41.5432788,-81.4877752
722,Kenbridge Drive,44143,41.5435028,-81.4877713
718,Kenbridge Drive,44143,41.5437211,-81.4877677
714,Kenbridge Drive,44143,41.5439508,-81.4877399
935,Colony Drive,44143,41.5346694,-81.4837864
209,Burwick Road,44143,41.5689544,-81.4650289
205,Burwick Road,44143,41.5689549,-81.4652485
201,Burwick Road,44143,41.5689504,-81.4654682
197,Burwick Road,44143,41.5689585,-81.4656875
216,Burwick Road,44143,41.5685239,-81.4647499
210,Burwick Road,44143,41.5685065,-81.4650233
204,Burwick Road,44143,41.5685227,-81.4652982
198,Burwick Road,44143,41.5685387,-81.4655721
169,Burwick Road,44143,41.5691318,-81.4672271
165,Burwick Road,44143,41.5691883,-81.4674403
161,Burwick Road,44143,41.5692133,-81.4676555
157,Burwick Road,44143,41.5692578,-81.4678656
153,Burwick Road,44143,41.5693257,-81.4680960
149,Burwick Road,44143,41.5693861,-81.4684280
152,Burwick Road,44143,41.5691894,-81.4685098
156,Burwick Road,44143,41.5688988,-81.4684990
160,Burwick Road,44143,41.5687161,-81.4685119
164,Burwick Road,44143,41.5684683,-81.4684634
168,Burwick Road,44143,41.5684416,-81.4681410
167,Burwick Road,44143,41.5686300,-81.4676604
163,Burwick Road,44143,41.5688028,-81.4676498
172,Skye Road,44143,41.5686762,-81.4671213
184,Skye Road,44143,41.5682793,-81.4670016
190,Skye Road,44143,41.5681506,-81.4668162
196,Skye Road,44143,41.5680685,-81.4666373
202,Skye Road,44143,41.5679941,-81.4664362
319,Perth Drive,44143,41.5655814,-81.4661222
351,Glasgow Drive,44143,41.5640771,-81.4656498
347,Glasgow Drive,44143,41.5639551,-81.4659598
