House number,Street name,Postal code,Latitude,Longitude
2494,Walker Road,43026,40.0004092,-83.2014782
2800,Walker Road,43026,40.0056588,-83.2019686
6639,Scioto Darby Creek Road,43026,40.0321547,-83.1898972
3900,Main Street,43026-1421,40.0312596,-83.1611536
5383,Cemetery Road,43026,40.0293275,-83.1601523
3690,Main Street,43026,40.0274187,-83.1603969
3760,Main Street,43026,40.0280525,-83.1605987
5390,Cemetery Road,43026,40.0303247,-83.1604024
3730,Main Street,43026,40.0277807,-83.1601450
3880,Lattimer Street,43026,40.0310077,-83.1594835
3840,Lattimer Street,43026,40.0306134,-83.1594164
3844,Lattimer Street,43026,40.0306789,-83.1593014
3848,Lattimer Street,43026,40.0306870,-83.1592207
3856,Lattimer Street,43026,40.0307140,-83.1591750
3858,Lattimer Street,43026,40.0307458,-83.1591805
3860,Lattimer Street,43026,40.0308157,-83.1591925
3864,Lattimer Street,43026,40.0309235,-83.1592110
3868,Lattimer Street,43026,40.0309414,-83.1592463
3872,Lattimer Street,43026,40.0309372,-83.1592879
4154,Ivy Crest Court,43026,40.0345380,-83.1902288
4090,Weaver Court S,43026,40.0360533,-83.1443066
3185,Hilliard – Rome Road,43026,40.0167780,-83.1576138
3195,Hilliard – Rome Road,43026,40.0168491,-83.1578703
4235,Main Street,43026,40.0247078,-83.1613460
3436,Heritage Club Drive S.,43026,40.0228238,-83.1613571
4004,Main Street,43026,40.0334064,-83.1600362
3959,Britton Parkway,43026,40.0338332,-83.1331780
4232,Cemetery Road,43026,40.0329314,-83.1298558
4490,Cemetery Road,43026,40.0325075,-83.1367573
4504,Cemetery Road,43026,40.0324673,-83.1371834
3673,Fishinger Boulevard,43026,40.0296608,-83.1191373
4211,Trueman Boulevard,43026,40.0381100,-83.1234644
4211,Trueman Boulevard,43026,40.0387425,-83.1237032
4211,Trueman Boulevard,43026,40.0385556,-83.1236576
4232,Cemetery Road,43026,40.0331163,-83.1298862
3883,Park Mill Run Drive,43026,40.0326275,-83.1172707
5445,Scioto Darby Road,43026,40.0281691,-83.1620283
3760,Main Street,43026,40.0280789,-83.1603361
5460,Franklin Street,43026,40.0356026,-83.1630531
3249,Hilliard – Rome Road,43026,40.0176582,-83.1590730
4680,Library Way,43026,40.0485450,-83.1372660
3399,Mill Run Drive,43026,40.0219187,-83.1176163
4000,Leap Road,43026,40.0346998,-83.1386011
4787,Tremont Club Drive,43026,40.0477002,-83.1475848
5038,Cemetery Rd,43026,40.0308824,-83.1511721
3654,Lagoon Lane,43026,40.0487979,-83.1158052
3767,Park Mill Run Drive,43026,40.0314985,-83.1216919
3950,Lyman Drive,43026,40.0341771,-83.1273642
3831,Park Mill Run Drive,43026-8110,40.0320699,-83.1197090
4101,Trueman Boulevard,43026,40.0357035,-83.1219757
3883,Park Mill Run Drive,43026,40.0324824,-83.1171432
4245,Cemetery Road,43026,40.0321891,-83.1299060
3939,Trueman Boulevard,43026,40.0343120,-83.1179410
4211,Trueman Boulevard,43026,40.0384022,-83.1239098
3195,Hilliard – Rome Road,43026,40.0172069,-83.1580943
3859,Main Street,43026,40.0304505,-83.1624092
4656,Cemetery Road,43026,40.0335597,-83.1405307
5445,Scioto Darby Road South Sidewalk,43026,40.0281799,-83.1619954
3859,Main Street,43026,40.0308367,-83.1625767
5600,Scioto Darby Road,43026,40.0314987,-83.1643239
5462,Center Street,43026,40.0372215,-83.1637330
5491,Scioto Darby Road,43026,40.0295175,-83.1632709
3606,Main Street,43026,40.0252571,-83.1596699
5657,Scioto Darby Road,43026,40.0312123,-83.1675809
5515,Scioto Darby Road,43026,40.0297690,-83.1638243
4599,Avery Road,43026,40.0460920,-83.1604530
4199,Parkway Lane,43026,40.0317962,-83.1316355
5171,Northwest Parkway,43026,40.0369775,-83.1548084
4081,Trueman Boulevard,43026,40.0343907,-83.1200235
2494,Walker Road,43026,40.0005873,-83.2013044
4020,Cyber Avenue,43221,40.0561082,-83.1283093
3340,Hilliard – Rome Road,43026,40.0196708,-83.1565189
3850,Lyman Drive,43026-1234,40.0321151,-83.1285951
3340,Hilliard – Rome Road,43026,40.0201582,-83.1569466
3340,Hilliard – Rome Road,43026,40.0193204,-83.1569322
3342,Hilliard – Rome Road,43026,40.0189324,-83.1581584
5380,Scioto Darby Road,43026,40.0286260,-83.1583074
4790,Cemetery Road,43026,40.0333595,-83.1454610
5000,Britton Road,43026,40.0549023,-83.1323127
4100,Columbia Street,43026,40.0360362,-83.1546904
4811,Northwest Parkway,43026,40.0378372,-83.1466884
4199,Weaver Court South,43026,40.0379003,-83.1456675
4039,Lyman Drive,43026,40.0350982,-83.1294800
4280,Cemetery Road,43026,40.0330453,-83.1309566
4000,Leap Road,43026,40.0347479,-83.1385536
4652,Cemetery Road,43026,40.0319933,-83.1413336
4750,Cemetery Road,43026,40.0319851,-83.1428016
4772,Cemetery Road,43026,40.0319475,-83.1437577
5323,Cemetery Road,43026,40.0296958,-83.1585806
5383,Cemetery Road,43026,40.0294731,-83.1602527
4144,Main Street,43026,40.0364311,-83.1564295
4144,Main Street,43026,40.0362415,-83.1563833
3685,Main Street,43026,40.0268122,-83.1612818
5498,Taylor Lane Avenue,43026,40.0436877,-83.1658331
4130,Weaver Court S,43026,40.0366935,-83.1444447
3677,Main Street,43026,40.0262623,-83.1612482
3430,Leap Road,43026,40.0226496,-83.1382204
3426,Leap Road,43026,40.0224695,-83.1381964
3416,Leap Road,43026,40.0222928,-83.1381709
3410,Leap Road,43026,40.0221138,-83.1381172
4489,Cemetery Road,43026,40.0308406,-83.1354532
5171-5181,Northwest Parkway,43026,40.0369325,-83.1547738
4621,Lyman Drive,43026,40.0470536,-83.1291695
4601,Lyman Drive,43026,40.0463975,-83.1289468
4577,Lyman Drive,43026,40.0454452,-83.1289296
4555,Lyman Drive,43026,40.0442199,-83.1287206
4121,Main Street,43026,40.0359854,-83.1576992
4065,Main Street,43026,40.0349353,-83.1588450
4279,Cemetery Road,43026,40.0319721,-83.1304091
4279,Cemetery Road,43026,40.0320139,-83.1307795
4079,Lyman Drive,43026,40.0363433,-83.1286234
4237,Dublin Road,43026,40.0439333,-83.1062708
4100,Columbia Street,43026,40.0353804,-83.1549009
3690,Main Street,43026,40.0274000,-83.1604536
4055,Columbia Street,43026,40.0347242,-83.1574251
4940,Scioto Darby Road,43026,40.0222894,-83.1461139
4515,Cosgray Road,43026,40.0428962,-83.1813157
4200,Leppert Road,43026,40.0354727,-83.1678019
5670,Scioto Darby Road,43026,40.0328802,-83.1671800
5600,Scioto Darby Road,43026,40.0313472,-83.1645197
2800,Walker Road,43026,40.0059776,-83.2014746
2800,Walker Road,43026,40.0066462,-83.2004778
3525,Heritage Club Drive,43026,40.0221356,-83.1734212
4500,Hickory Chase Way,43026,40.0456496,-83.1366326
2900,Walker Road,43026,40.0080378,-83.2044754
