House number,Street name,Postal code,Latitude,Longitude
48,Park Lane,44236,41.2406848,-81.4429207
2500,Hudson Aurora Road,44236,41.2567921,-81.4151533
118,West Streetsboro Street,44236,41.2388845,-81.4464880
5,Atterbury Boulevard,44236,41.2402590,-81.4454207
8035,Stow Road,44236,41.2726075,-81.4025736
68,Ravenna Street,44236,41.2373542,-81.4380632
85,South Main Street,44236,41.2364162,-81.4399885
41,Village Way,44236,41.2414553,-81.4424262
51,South Main Street,44236,41.2378519,-81.4401224
51,South Main Street,44326,41.2378874,-81.4399913
51,South Main Street,44326,41.2378893,-81.4398726
51,South Main Street,44326,41.2378814,-81.4397406
10,West Streetsboro Street,44236,41.2392718,-81.4413992
34,Park Lane,44236,41.2406856,-81.4422303
115,Executive Parkway,44236,41.2531534,-81.4803806
5603,Darrow Road,44236,41.2178695,-81.4387439
331,Barlow Road,44236,41.2197691,-81.4802945
5133,Darrow Road,44236,41.2047733,-81.4389839
46,Ravenna Street,44236,41.2380631,-81.4387760
6260,Hudson Crossing Parkway,44236,41.2363415,-81.4879655
1595,Georgetown Road,44236,41.2088941,-81.4352255
2155,Middleton,44236,41.2748924,-81.4312607
2600,Hudson Aurora Road,44236,41.2597677,-81.4118117
280,North Hayden Parkway,44236,41.2473051,-81.4249270
96,Library Street,44236,41.2416222,-81.4436250
47,Aurora Street,44236,41.2430625,-81.4384853
21,Aurora Street,44236,41.2425648,-81.4393924
340,North Main Street,44236,41.2469755,-81.4417768
10,West Streetsboro Street,44326,41.2390844,-81.4412665
1738,Middleton Road,44236,41.2683028,-81.4492967
5,East Main Street,44236,41.2398024,-81.4394492
26,East Streetsboro Street,44236,41.2398347,-81.4390487
6888,St Regis Boulevard,44236,41.2451320,-81.3933910
6904,St Regis Boulevard,44236,41.2454826,-81.3934096
6872,St Regis Boulevard,44236,41.2446793,-81.3933540
6899,St Regis Boulevard,44236,41.2451715,-81.3926057
6885,St Regis Boulevard,44236,41.2447727,-81.3925988
51,South Main Street,44236,41.2378464,-81.4399121
30,Ravenna Street,44236,41.2386031,-81.4392154
34,Ravenna Street,44236,41.2384246,-81.4390337
2583,Victoria Parkway,44236,41.2516794,-81.4115954
2567,Victoria Parkway,44236,41.2516739,-81.4121021
2551,Victoria Parkway,44236,41.2516657,-81.4125383
2535,Victoria Parkway,44236,41.2516731,-81.4130560
2523,Victoria Parkway,44236,41.2516748,-81.4135549
2513,Victoria Parkway,44236,41.2516001,-81.4139718
2503,Victoria Parkway,44236,41.2514292,-81.4143087
2493,Victoria Parkway,44236,41.2512616,-81.4146478
2483,Victoria Parkway,44236,41.2510637,-81.4148945
2473,Victoria Parkway,44236,41.2509095,-81.4151485
2463,Victoria Parkway,44236,41.2507064,-81.4154516
2453,Victoria Parkway,44236,41.2505243,-81.4157198
2443,Victoria Parkway,44236,41.2503401,-81.4159858
2433,Victoria Parkway,44236,41.2501620,-81.4163044
2417,Victoria Parkway,44236,41.2498896,-81.4166521
2405,Victoria Parkway,44236,41.2495098,-81.4167811
2393,Victoria Parkway,44236,41.2492091,-81.4167765
2381,Victoria Parkway,44236,41.2488647,-81.4167400
2371,Victoria Parkway,44236,41.2485602,-81.4167435
2359,Victoria Parkway,44236,41.2482566,-81.4167468
2345,Victoria Parkway,44236,41.2479685,-81.4167426
2331,Victoria Parkway,44236,41.2476726,-81.4167645
2313,Victoria Parkway,44236,41.2473232,-81.4168095
2279,Victoria Parkway,44236,41.2471654,-81.4172544
2267,Victoria Parkway,44236,41.2472502,-81.4176536
2457,Glen Echo Drive,44236,41.2476957,-81.4176774
2445,Glen Echo Drive,44236,41.2480231,-81.4176787
2433,Glen Echo Drive,44236,41.2483493,-81.4176837
2421,Glen Echo Drive,44236,41.2487243,-81.4176722
2409,Glen Echo Drive,44236,41.2490053,-81.4176724
2397,Glen Echo Drive,44236,41.2493621,-81.4176793
2385,Glen Echo Drive,44236,41.2496925,-81.4176681
2373,Glen Echo Drive,44236,41.2500466,-81.4176765
2361,Glen Echo Drive,44236,41.2504424,-81.4178137
2349,Glen Echo Drive,44236,41.2507487,-81.4181354
2339,Glen Echo Drive,44236,41.2510275,-81.4184397
2380,Tyre Drive,44236,41.2514476,-81.4177459
2394,Tyre Drive,44236,41.2514630,-81.4172768
2404,Tyre Drive,44236,41.2513730,-81.4169149
2414,Tyre Drive,44236,41.2512721,-81.4165561
2420,Tyre Drive,44236,41.2512907,-81.4161340
2428,Tyre Drive,44236,41.2514324,-81.4157480
2429,Tyre Drive,44236,41.2518271,-81.4156100
2421,Tyre Drive,44236,41.2520392,-81.4160305
2415,Tyre Drive,44236,41.2519925,-81.4165011
2405,Tyre Drive,44236,41.2519792,-81.4168625
2395,Tyre Drive,44236,41.2520008,-81.4172195
2385,Tyre Drive,44236,41.2520103,-81.4176391
2379,Tyre Drive,44236,41.2519234,-81.4180641
2371,Tyre Drive,44236,41.2517779,-81.4184442
2319,Glen Echo Drive,44236,41.2514071,-81.4189946
2309,Glen Echo Drive,44236,41.2515966,-81.4192565
2299,Glen Echo Drive,44236,41.2518273,-81.4195784
2289,Glen Echo Drive,44236,41.2519863,-81.4199877
2279,Glen Echo Drive,44236,41.2520465,-81.4203998
2263,Glen Echo Drive,44236,41.2519406,-81.4211164
2243,Glen Echo Drive,44236,41.2520036,-81.4218074
2225,Glen Echo Drive,44236,41.2522438,-81.4221063
2600,Hudson Aurora Road,44236,41.2594402,-81.4126090
2566,Hudson Aurora Road,44236,41.2587775,-81.4135244
2440,Hudson Aurora Road,44236,41.2563517,-81.4167391
2400,Hudson Aurora Road,44236,41.2557260,-81.4175319
2386,Hudson Aurora Road,44236,41.2553459,-81.4180418
2712,Hudson Aurora Road,44236,41.2612033,-81.4096495
2736,Hudson Aurora Road,44236,41.2611151,-81.4087376
2756,Hudson Aurora Road,44236,41.2611070,-81.4080580
7460,Dillman Drive,44236,41.2610998,-81.4073813
7440,Dillman Drive,44236,41.2605755,-81.4073596
7415,Stow Road,44236,41.2599680,-81.4105713
7399,Stow Road,44236,41.2594989,-81.4106254
2673,Stonebridge Court,44236,41.2590611,-81.4104691
7370,Stoneyledge Circle,44236,41.2589940,-81.4099230
7384,Stoneyledge Circle,44236,41.2593857,-81.4095299
7387,Stoneyledge Circle,44236,41.2593331,-81.4087789
7379,Stoneyledge Circle,44236,41.2587701,-81.4088109
2693,Stonebridge Court,44236,41.2584576,-81.4091248
2717,Stonebridge Court,44236,41.2579843,-81.4089795
2731,Stonebridge Court,44236,41.2575983,-81.4088151
2745,Stonebridge Court,44236,41.2571947,-81.4087702
2761,Stonebridge Court,44236,41.2568431,-81.4085971
7264,Dillman Drive,44236,41.2568272,-81.4079636
7280,Dillman Drive,44236,41.2571597,-81.4078793
7296,Dillman Drive,44236,41.2576094,-81.4078999
7312,Dillman Drive,44236,41.2580126,-81.4078566
7328,Dillman Drive,44236,41.2584213,-81.4078866
7344,Dillman Drive,44236,41.2588113,-81.4079358
7360,Dillman Drive,44236,41.2593000,-81.4079665
7461,Dillman Drive,44236,41.2611708,-81.4063821
7441,Dillman Drive,44236,41.2607836,-81.4064009
2870,Blaikley Drive,44236,41.2602803,-81.4057402
2828,Hudson Aurora Road,44236,41.2612884,-81.4056612
2850,Hudson Aurora Road,44236,41.2613198,-81.4048429
2870,Hudson Aurora Road,44236,41.2613557,-81.4040088
7444,Huntington Road,44236,41.2609492,-81.4040088
2881,Blaikley Drive,44236,41.2607301,-81.4047760
2871,Blaikley Drive,44236,41.2608348,-81.4056241
2895,Blaikley Drive,44236,41.2605066,-81.4042173
2880,Blaikley Drive,44236,41.2601066,-81.4052004
2894,Blaikley Drive,44236,41.2598996,-81.4046701
3210,Hudson Aurora Road,44236,41.2628228,-81.3921509
9962,Hudson Aurora Road,44236,41.2613488,-81.3921682
2727,Hudson Aurora Road,44236,41.2617912,-81.4091289
2801,Hudson Aurora Road,44236,41.2623100,-81.4079371
2815,Hudson Aurora Road,44236,41.2623110,-81.4070705
2823,Hudson Aurora Road,44236,41.2620020,-81.4062675
2827,Hudson Aurora Road,44236,41.2620176,-81.4054851
2855,Hudson Aurora Road,44236,41.2620721,-81.4044772
2871,Hudson Aurora Road,44236,41.2620603,-81.4039542
2950,Woodbridge Road,44236,41.2630899,-81.4040875
2922,Woodbridge Road,44236,41.2631940,-81.4047011
2900,Woodbridge Road,44236,41.2631548,-81.4055964
2880,Woodbridge Road,44236,41.2631578,-81.4061990
2860,Woodbridge Road,44236,41.2632086,-81.4070261
2838,Woodbridge Road,44236,41.2632342,-81.4076902
2816,Woodbridge Road,44236,41.2635523,-81.4085905
2796,Woodbridge Road,44236,41.2634590,-81.4093453
7543,Stow Road,44236,41.2631959,-81.4101744
7523,Stow Road,44236,41.2624899,-81.4104680
7095,Stow Road,44224,41.2489844,-81.4026062
2302,Victoria Parkway,44236,41.2481597,-81.4139548
7303,Darrow Road,44236,41.2636031,-81.4352633
7063,St Ives Boulevard,44236,41.2494404,-81.3944786
7046,St Ives Boulevard,44236,41.2492331,-81.3950123
7030,St Ives Boulevard,44236,41.2488175,-81.3950454
7015,St Ives Boulevard,44236,41.2485106,-81.3939848
7014,St Ives Boulevard,44236,41.2484079,-81.3947615
6998,St Ives Boulevard,44236,41.2479891,-81.3947728
6999,St Ives Boulevard,44236,41.2480358,-81.3939929
6982,St Ives Boulevard,44236,41.2475752,-81.3948465
6985,St Ives Boulevard,44236,41.2476114,-81.3940704
6727,St Regis Boulevard,44236,41.2401907,-81.3940846
6726,St Regis Boulevard,44236,41.2402438,-81.3948923
6742,St Regis Boulevard,44236,41.2406582,-81.3948162
6741,St Regis Boulevard,44236,41.2406120,-81.3940117
6759,St Regis Boulevard,44236,41.2408107,-81.3935957
6758,St Regis Boulevard,44236,41.2410749,-81.3944666
6766,St Regis Boulevard,44236,41.2413290,-81.3939140
6769,St Regis Boulevard,44236,41.2410229,-81.3931154
6779,St Regis Boulevard,44236,41.2413561,-81.3927474
6776,St Regis Boulevard,44236,41.2416006,-81.3934481
6792,St Regis Boulevard,44236,41.2420854,-81.3933943
6808,St Regis Boulevard,44236,41.2425588,-81.3933752
6824,St Regis Boulevard,44236,41.2430232,-81.3933445
6840,St Regis Boulevard,44236,41.2434980,-81.3933105
6789,St Regis Boulevard,44236,41.2417483,-81.3926125
6799,St Regis Boulevard,44236,41.2421783,-81.3925945
6809,St Regis Boulevard,44236,41.2426158,-81.3926105
6823,St Regis Boulevard,44236,41.2430126,-81.3925662
6837,St Regis Boulevard,44236,41.2434345,-81.3925349
6853,St Regis Boulevard,44236,41.2438760,-81.3925249
6869,St Regis Boulevard,44236,41.2443057,-81.3925714
6917,St Regis Boulevard,44236,41.2455979,-81.3926015
6933,St Regis Boulevard,44236,41.2460028,-81.3925730
6947,St Regis Boulevard,44236,41.2464202,-81.3926270
6957,St Regis Boulevard,44236,41.2468313,-81.3926895
6967,St Regis Boulevard,44236,41.2472473,-81.3928755
6977,St Regis Boulevard,44236,41.2475465,-81.3933669
6856,St Regis Boulevard,44236,41.2442040,-81.3933114
6920,St Regis Boulevard,44236,41.2460583,-81.3933804
6934,St Regis Boulevard,44236,41.2464430,-81.3933694
6952,St Regis Boulevard,44236,41.2469134,-81.3934854
6968,St Regis Boulevard,44236,41.2469962,-81.3941273
6935,St Ives Boulevard,44236,41.2464557,-81.3941817
6919,St Ives Boulevard,44236,41.2459778,-81.3941665
6903,St Ives Boulevard,44236,41.2455643,-81.3941621
6887,St Ives Boulevard,44236,41.2451171,-81.3941660
6871,St Ives Boulevard,44236,41.2446699,-81.3941703
6855,St Ives Boulevard,44236,41.2441998,-81.3941522
2842,Middleton Road,44236,41.2692797,-81.4097867
2862,Middleton Road,44236,41.2692840,-81.4088957
2882,Middleton Road,44236,41.2692995,-81.4083054
2902,Middleton Road,44236,41.2693151,-81.4075672
7766,Red Fox Trail,44236,41.2692709,-81.4067694
7753,Red Fox Trail,44236,41.2693134,-81.4056710
2972,Middleton Road,44236,41.2693050,-81.4049390
2994,Middleton Road,44236,41.2693012,-81.4041938
3014,Middleton Road,44236,41.2693175,-81.4036507
7739,Huntington Road,44236,41.2690011,-81.4025093
3056,Middleton Road,44236,41.2692407,-81.4019349
7709,Huntington Road,44236,41.2682732,-81.4022356
7691,Huntington Road,44236,41.2678013,-81.4023140
7671,Huntington Road,44236,41.2671466,-81.4026335
7651,Huntington Road,44236,41.2667447,-81.4025329
7631,Huntington Road,44236,41.2661448,-81.4025019
7613,Huntington Road,44236,41.2655521,-81.4023778
7593,Huntington Road,44236,41.2649442,-81.4023748
7569,Huntington Road,44236,41.2645300,-81.4023832
7555,Huntington Road,44236,41.2638531,-81.4025940
7537,Huntington Road,44236,41.2634051,-81.4026889
2891,Hudson Aurora Road,44236,41.2621121,-81.4031608
2909,Hudson Aurora Road,44236,41.2621427,-81.4024981
2933,Hudson Aurora Road,44236,41.2623991,-81.4017226
3221,Hudson Aurora Road,44236,41.2639143,-81.3924438
3193,Hudson Aurora Road,44236,41.2628340,-81.3933509
1101,Barlow Rd,44236,41.2259612,-81.4551392
84,Village Way,44236,41.2410942,-81.4442411
2670,Stonebridge Court,44236,41.2583833,-81.4106799
2694,Stonebridge Court,44236,41.2582472,-81.4102040
2718,Stonebridge Court,44236,41.2578491,-81.4098999
7339,Stow Road,44236,41.2577917,-81.4104409
7321,Stow Road,44236,41.2574261,-81.4104961
7307,Stow Road,44236,41.2570022,-81.4105026
7291,Stow Road,44236,41.2566592,-81.4105073
7261,Stow Road,44236,41.2557864,-81.4105194
7245,Stow Road,44236,41.2553896,-81.4104959
7231,Stow Road,44236,41.2549710,-81.4105613
2736,Stonebridge Court,44236,41.2574442,-81.4097580
2752,Stonebridge Court,44236,41.2570089,-81.4096406
2766,Stonebridge Court,44236,41.2566154,-81.4096746
2782,Stonebridge Court,44236,41.2561513,-81.4096857
2796,Stonebridge Court,44236,41.2558009,-81.4096872
2810,Stonebridge Court,44236,41.2553234,-81.4097316
2821,Stonebridge Court,44236,41.2549312,-81.4093075
2811,Stonebridge Court,44236,41.2552116,-81.4086136
2795,Stonebridge Court,44236,41.2558294,-81.4086429
2781,Stonebridge Court,44236,41.2561739,-81.4086512
7234,Dillman Drive,44236,41.2561624,-81.4079942
7218,Dillman Drive,44236,41.2558137,-81.4079124
7206,Dillman Drive,44236,41.2553277,-81.4078281
7196,Dillman Drive,44236,41.2549552,-81.4074871
7205,Dillman Drive,44236,41.2553794,-81.4065399
7215,Dillman Drive,44236,41.2557319,-81.4067363
7231,Dillman Drive,44236,41.2561454,-81.4070770
7261,Dillman Drive,44236,41.2568459,-81.4070584
7283,Dillman Drive,44236,41.2573146,-81.4070227
7299,Dillman Drive,44236,41.2577046,-81.4069648
7373,Dillman Drive,44236,41.2582652,-81.4066763
2960,Hudson Aurora Road,44236,41.2615623,-81.4000402
2963,Hudson Aurora Road,44236,41.2622506,-81.3998413
3007,Hudson Aurora Road,44236,41.2622614,-81.3989024
3022,Hudson Aurora Road,44236,41.2611780,-81.3979790
3139,Hudson Aurora Road,44236,41.2618980,-81.3948176
3087,Hudson Aurora Road,44236,41.2620042,-81.3961783
2940,Hudson Aurora Road,44236,41.2602564,-81.4018963
7461,Huntington Road,44236,41.2613037,-81.4031794
7441,Huntington Road,44236,41.2608041,-81.4031870
7421,Huntington Road,44236,41.2601951,-81.4031961
7397,Huntington Road,44236,41.2592495,-81.4037859
7383,Huntington Road,44236,41.2588776,-81.4036270
7367,Huntington Road,44236,41.2584371,-81.4034598
7347,Huntington Road,44236,41.2581206,-81.4032687
7331,Huntington Road,44236,41.2577389,-81.4028135
7315,Huntington Road,44236,41.2574738,-81.4024503
7299,Huntington Road,44236,41.2570903,-81.4021353
7283,Huntington Road,44236,41.2567358,-81.4018301
7271,Huntington Road,44236,41.2563855,-81.4017284
7251,Huntington Road,44236,41.2559410,-81.4022427
7239,Huntington Road,44236,41.2556357,-81.4026730
7211,Huntington Road,44236,41.2552805,-81.4029936
7181,Huntington Road,44236,41.2544456,-81.4038041
7169,Huntington Road,44236,41.2542584,-81.4043824
7151,Huntington Road,44236,41.2541941,-81.4048345
7141,Huntington Road,44236,41.2541759,-81.4053873
7216,Hayward Road,44236,41.2545265,-81.4056859
7225,Hayward Road,44236,41.2548850,-81.4048197
7232,Hayward Road,44236,41.2549685,-81.4056511
7249,Hayward Road,44236,41.2553405,-81.4047697
7248,Hayward Road,44236,41.2553769,-81.4056536
7262,Hayward Road,44236,41.2557671,-81.4056594
7278,Hayward Road,44236,41.2561358,-81.4057769
2740,Ashton Drive,44236,41.2561762,-81.4063463
2741,Ashton Drive,44236,41.2567511,-81.4064577
7298,Hayward Road,44236,41.2568225,-81.4057811
7364,Hayward Road,44236,41.2588241,-81.4048358
7350,Hayward Road,44236,41.2585265,-81.4052370
7340,Hayward Road,44236,41.2580859,-81.4056519
7326,Hayward Road,44236,41.2575768,-81.4057116
7312,Hayward Road,44236,41.2572181,-81.4056772
7365,Hayward Road,44236,41.2582183,-81.4043757
7345,Hayward Road,44236,41.2579585,-81.4047262
7327,Hayward Road,44236,41.2575273,-81.4047938
7307,Hayward Road,44236,41.2570756,-81.4048475
7291,Hayward Road,44236,41.2565670,-81.4046668
7277,Hayward Road,44236,41.2561732,-81.4046805
7261,Hayward Road,44236,41.2557074,-81.4046929
7348,Huntington Road,44236,41.2577732,-81.4040360
7330,Huntington Road,44236,41.2574442,-81.4037297
2855,Chippendale Drive,44236,41.2570224,-81.4042687
2850,Chippendale Drive,44236,41.2565150,-81.4041527
2858,Chippendale Drive,44236,41.2565198,-81.4035169
2880,Chippendale Drive,44236,41.2570227,-81.4030659
7286,Huntington Road,44236,41.2566722,-81.4027915
7248,Huntington Road,44236,41.2563082,-81.4030249
7226,Huntington Road,44236,41.2558881,-81.4034311
7208,Huntington Road,44236,41.2556065,-81.4038436
7178,Huntington Road,44236,41.2549923,-81.4043613
3071,Mayapple Drive,44236,41.2613034,-81.3991982
3072,Mayapple Drive,44236,41.2612459,-81.3986359
3060,Mayapple Drive,44236,41.2607389,-81.3986094
3048,Mayapple Drive,44236,41.2603578,-81.3986096
3059,Mayapple Drive,44236,41.2608855,-81.3993483
3047,Mayapple Drive,44236,41.2604504,-81.3992990
3025,Mayapple Drive,44236,41.2599338,-81.3995348
3034,Mayapple Drive,44236,41.2599211,-81.3987231
3020,Mayapple Drive,44236,41.2595911,-81.3990279
3001,Mayapple Drive,44236,41.2597803,-81.4002274
3006,Mayapple Drive,44236,41.2593489,-81.3994814
7467,West Firelands Drive,44236,41.2613784,-81.4008704
7451,West Firelands Drive,44236,41.2610401,-81.4005794
7444,West Firelands Drive,44236,41.2607623,-81.4011786
7435,West Firelands Drive,44236,41.2606623,-81.4002785
7424,West Firelands Drive,44236,41.2602423,-81.4010201
7419,West Firelands Drive,44236,41.2602091,-81.4003005
7410,West Firelands Drive,44236,41.2598847,-81.4010062
7394,West Firelands Drive,44236,41.2594758,-81.4010037
7383,West Firelands Drive,44236,41.2592073,-81.4003113
7378,West Firelands Drive,44236,41.2590158,-81.4009831
7364,West Firelands Drive,44236,41.2586386,-81.4009504
7367,West Firelands Drive,44236,41.2588423,-81.4002349
7349,East Firelands Drive,44236,41.2584444,-81.4000424
7354,East Firelands Drive,44236,41.2581726,-81.4007106
7325,East Firelands Drive,44236,41.2583348,-81.3994388
7344,East Firelands Drive,44236,41.2579420,-81.4003612
7332,East Firelands Drive,44236,41.2577691,-81.3995441
7318,East Firelands Drive,44236,41.2578516,-81.3990125
7305,East Firelands Drive,44236,41.2584170,-81.3988688
7304,East Firelands Drive,44236,41.2579904,-81.3984841
7290,East Firelands Drive,44236,41.2582453,-81.3980630
7287,East Firelands Drive,44236,41.2586808,-81.3984943
7276,East Firelands Drive,44236,41.2585979,-81.3977340
7262,East Firelands Drive,44236,41.2589289,-81.3974826
7248,East Firelands Drive,44236,41.2592917,-81.3972395
7271,East Firelands Drive,44236,41.2590376,-81.3982228
7255,East Firelands Drive,44236,41.2593912,-81.3979461
7241,East Firelands Drive,44236,41.2597413,-81.3976682
7232,East Firelands Drive,44236,41.2596766,-81.3969766
7214,East Firelands Drive,44236,41.2600995,-81.3966550
7198,East Firelands Drive,44236,41.2607754,-81.3960065
7197,East Firelands Drive,44236,41.2607771,-81.3969730
7211,East Firelands Drive,44236,41.2604247,-81.3971965
7225,East Firelands Drive,44236,41.2601078,-81.3974080
2500,Hudson Aurora Road,44236,41.2560047,-81.4155186
7524,Crown Point Drive,44236,41.2633538,-81.4001460
7538,Crown Point Drive,44236,41.2632981,-81.3995879
7552,Crown Point Drive,44236,41.2634078,-81.3989145
7547,Crown Point Drive,44236,41.2631162,-81.3985391
7511,Crown Point Drive,44236,41.2627040,-81.3997995
7708,Huntington Road,44236,41.2682602,-81.4034664
7690,Huntington Road,44236,41.2676598,-81.4035046
7670,Huntington Road,44236,41.2672446,-81.4035741
7650,Huntington Road,44236,41.2667003,-81.4035174
7630,Huntington Road,44236,41.2661267,-81.4034970
7612,Huntington Road,44236,41.2655715,-81.4035529
7592,Huntington Road,44236,41.2650869,-81.4033475
7566,Huntington Road,44236,41.2645356,-81.4034229
2949,Woodbridge Road,44236,41.2638806,-81.4037001
7713,Red Fox Trail,44236,41.2683038,-81.4046552
7663,Red Fox Trail,44236,41.2676066,-81.4047769
7653,Red Fox Trail,44236,41.2672041,-81.4047214
7643,Red Fox Trail,44236,41.2666929,-81.4047523
7623,Red Fox Trail,44236,41.2660645,-81.4048212
7603,Red Fox Trail,44236,41.2655581,-81.4048569
7583,Red Fox Trail,44236,41.2650505,-81.4048815
7563,Red Fox Trail,44236,41.2644379,-81.4048677
7543,Red Fox Trail,44236,41.2638630,-81.4048350
3033,Middleton Road,44236,41.2710579,-81.4035099
2895,Pioneer Trail,44236,41.2685543,-81.4066970
2885,Pioneer Trail,44236,41.2685910,-81.4073702
2875,Pioneer Trail,44236,41.2685941,-81.4080333
2839,Pioneer Trail,44236,41.2686190,-81.4088181
2819,Pioneer Trail,44236,41.2685447,-81.4097407
2799,Pioneer Trail,44236,41.2683145,-81.4105341
7745,Stow Road,44236,41.2687082,-81.4106178
7686,Deer Path Trail,44236,41.2677141,-81.4096162
2797,Pioneer Trail,44236,41.2676853,-81.4103915
7666,Deer Path Trail,44236,41.2671256,-81.4095989
7646,Deer Path Trail,44236,41.2666005,-81.4095812
7626,Deer Path Trail,44236,41.2660467,-81.4096186
7606,Deer Path Trail,44236,41.2654442,-81.4096548
7586,Deer Path Trail,44236,41.2650238,-81.4096877
7568,Deer Path Trail,44236,41.2645249,-81.4097220
2753,Woodbridge Road,44236,41.2645404,-81.4104914
7605,Stow Road,44236,41.2649663,-81.4104830
7625,Stow Road,44236,41.2654744,-81.4105644
7645,Stow Road,44236,41.2660899,-81.4105331
7665,Stow Road,44236,41.2665639,-81.4105885
7685,Stow Road,44236,41.2671553,-81.4106101
7685,Deer Path Trail,44236,41.2677532,-81.4085755
7665,Deer Path Trail,44236,41.2671960,-81.4085943
7645,Deer Path Trail,44236,41.2666691,-81.4085809
7625,Deer Path Trail,44236,41.2660836,-81.4085070
7605,Deer Path Trail,44236,41.2656555,-81.4084595
7585,Deer Path Trail,44236,41.2650335,-81.4086052
7565,Deer Path Trail,44236,41.2644999,-81.4086829
7680,Sugarbush Trail,44236,41.2677215,-81.4077236
7654,Sugarbush Trail,44236,41.2672055,-81.4076730
7632,Sugarbush Trail,44236,41.2667488,-81.4077515
7622,Sugarbush Trail,44236,41.2661376,-81.4076646
7602,Sugarbush Trail,44236,41.2655945,-81.4077042
7582,Sugarbush Trail,44236,41.2650510,-81.4077404
7562,Sugarbush Trail,44236,41.2644040,-81.4077601
2821,Woodbridge Road,44236,41.2642067,-81.4082317
2841,Woodbridge Road,44236,41.2639604,-81.4075919
7690,Red Fox Trail,44236,41.2676799,-81.4059201
7650,Red Fox Trail,44236,41.2667850,-81.4058074
7624,Red Fox Trail,44236,41.2660513,-81.4059055
7602,Red Fox Trail,44236,41.2654704,-81.4059756
7580,Red Fox Trail,44236,41.2650097,-81.4058946
7562,Red Fox Trail,44236,41.2644577,-81.4059478
7542,Red Fox Trail,44236,41.2639847,-81.4058720
7543,Sugarbush Trail,44236,41.2639172,-81.4064518
7563,Sugarbush Trail,44236,41.2644696,-81.4067424
7583,Sugarbush Trail,44236,41.2650152,-81.4067724
7603,Sugarbush Trail,44236,41.2655713,-81.4066861
7627,Sugarbush Trail,44236,41.2662900,-81.4066638
7651,Sugarbush Trail,44236,41.2670119,-81.4066996
7679,Sugarbush Trail,44236,41.2675617,-81.4067335
7750,Stow Road,44236,41.2682332,-81.4124606
1965,Barlow Road,44236,41.2177852,-81.4246876
134,West Streetsboro Street,44326,41.2397517,-81.4490869
136,West Streetsboro Street,44326,41.2396210,-81.4497499
21,Bard Drive,44236,41.2356929,-81.4389616
190,West Streetsboro Street,44326,41.2393972,-81.4504010
65,South Main Street,44236,41.2370338,-81.4401964
75,South Main Street,44236,41.2370320,-81.4398957
7,Bard Drive,44236,41.2356828,-81.4400550
15,Bard Drive,44236,41.2356078,-81.4394568
49,Bard Drive,44236,41.2354337,-81.4374780
2200,Barlow Road,44236,41.2093128,-81.4153003
5999,Willow Lake Drive,44236,41.2237700,-81.4226311
6004,Willow Lake Drive,44236,41.2239218,-81.4230367
6014,Willow Lake Drive,44236,41.2242536,-81.4231103
6024,Willow Lake Drive,44236,41.2245690,-81.4229156
6040,Willow Lake Drive,44236,41.2249439,-81.4229182
6005,Willow Lake Drive,44236,41.2238636,-81.4222828
6013,Willow Lake Drive,44236,41.2241325,-81.4220244
6021,Willow Lake Drive,44236,41.2244149,-81.4220730
6031,Willow Lake Drive,44236,41.2246897,-81.4222373
6041,Willow Lake Drive,44236,41.2249668,-81.4222334
6051,Willow Lake Drive,44236,41.2252510,-81.4222402
6061,Willow Lake Drive,44236,41.2255160,-81.4222250
6071,Willow Lake Drive,44236,41.2257867,-81.4222335
6081,Willow Lake Drive,44236,41.2260663,-81.4222271
6091,Willow Lake Drive,44236,41.2263455,-81.4222491
6101,Willow Lake Drive,44236,41.2266451,-81.4223132
6111,Willow Lake Drive,44236,41.2269196,-81.4224794
6121,Willow Lake Drive,44236,41.2271674,-81.4226813
6131,Willow Lake Drive,44236,41.2273940,-81.4229622
6141,Willow Lake Drive,44236,41.2275486,-81.4232595
6151,Willow Lake Drive,44236,41.2276865,-81.4235847
6161,Willow Lake Drive,44236,41.2278297,-81.4239115
6106,Eastham Way,44236,41.2278647,-81.4242469
6098,Eastham Way,44236,41.2277079,-81.4245664
6090,Eastham Way,44236,41.2274670,-81.4247064
6082,Eastham Way,44236,41.2272144,-81.4249330
6074,Eastham Way,44236,41.2269712,-81.4251465
6066,Eastham Way,44236,41.2267297,-81.4253062
1769,Mayflower Lane,44236,41.2264053,-81.4254044
6064,Willow Lake Drive,44236,41.2255839,-81.4229622
6080,Willow Lake Drive,44236,41.2260171,-81.4229119
6092,Willow Lake Drive,44236,41.2262838,-81.4229299
6104,Willow Lake Drive,44236,41.2265439,-81.4229959
6118,Willow Lake Drive,44236,41.2267734,-81.4231746
6134,Willow Lake Drive,44236,41.2269989,-81.4234184
6144,Willow Lake Drive,44236,41.2271484,-81.4236920
6099,Eastham Way,44236,41.2272193,-81.4240500
6081,Eastham Way,44236,41.2269266,-81.4243479
6073,Eastham Way,44236,41.2266950,-81.4245679
6065,Eastham Way,44236,41.2264400,-81.4246723
6053,Eastham Way,44236,41.2261515,-81.4246970
6043,Eastham Way,44236,41.2258646,-81.4247101
6031,Eastham Way,44236,41.2255993,-81.4246831
1811,Miles Standish Lane,44236,41.2255778,-81.4240441
1821,Miles Standish Lane,44236,41.2255793,-81.4236806
1831,Miles Standish Lane,44236,41.2255862,-81.4233115
1832,Miles Standish Lane,44236,41.2250542,-81.4232511
1820,Miles Standish Lane,44236,41.2250729,-81.4236499
1810,Miles Standish Lane,44236,41.2250424,-81.4240233
6015,Eastham Way,44236,41.2250357,-81.4247182
6001,Eastham Way,44236,41.2247714,-81.4246907
5991,Eastham Way,44236,41.2244975,-81.4246883
5981,Eastham Way,44236,41.2242131,-81.4247032
5971,Eastham Way,44236,41.2239581,-81.4246751
5961,Eastham Way,44236,41.2236757,-81.4247185
5951,Eastham Way,44236,41.2234145,-81.4247231
5941,Eastham Way,44236,41.2231492,-81.4247003
5931,Eastham Way,44236,41.2228620,-81.4247152
1801,Carver Lane,44236,41.2225715,-81.4246821
1815,Carver Lane,44236,41.2225699,-81.4238010
5960,Chatham Way,44236,41.2228271,-81.4237904
5970,Chatham Way,44236,41.2230876,-81.4239270
5978,Chatham Way,44236,41.2233976,-81.4237982
5986,Chatham Way,44236,41.2235367,-81.4234298
5979,Chatham Way,44236,41.2233847,-81.4230558
5971,Chatham Way,44236,41.2230996,-81.4229083
5961,Chatham Way,44236,41.2228166,-81.4230495
1841,Chatham Way,44236,41.2225432,-81.4230446
1857,Carver Lane,44236,41.2226513,-81.4224029
1865,Carver Lane,44236,41.2225246,-81.4220956
1862,Carver Lane,44236,41.2221609,-81.4220815
1856,Carver Lane,44236,41.2219420,-81.4224320
5933,Chatham Way,44236,41.2220207,-81.4230945
5923,Chatham Way,44236,41.2217533,-81.4230811
5913,Chatham Way,44236,41.2214821,-81.4230989
5903,Chatham Way,44236,41.2212057,-81.4230913
5893,Chatham Way,44236,41.2209309,-81.4230960
5892,Chatham Way,44236,41.2209306,-81.4237696
5902,Chatham Way,44236,41.2211973,-81.4237753
5912,Chatham Way,44236,41.2214737,-81.4237668
5922,Chatham Way,44236,41.2217532,-81.4237863
5932,Chatham Way,44236,41.2220085,-81.4237876
1800,Carver Lane,44236,41.2220275,-81.4247116
5891,Eastham Way,44236,41.2217524,-81.4247443
5881,Eastham Way,44236,41.2214762,-81.4247482
5871,Eastham Way,44236,41.2212090,-81.4247486
5861,Eastham Way,44236,41.2209350,-81.4247367
5860,Eastham Way,44236,41.2209378,-81.4254378
5870,Eastham Way,44236,41.2212175,-81.4254183
5880,Eastham Way,44236,41.2214846,-81.4254481
5890,Eastham Way,44236,41.2217581,-81.4254638
1776,Carver Lane,44236,41.2220484,-81.4254874
1775,Carver Lane,44236,41.2225637,-81.4254625
5930,Eastham Way,44236,41.2228555,-81.4254422
5940,Eastham Way,44236,41.2231302,-81.4254418
5950,Eastham Way,44236,41.2234141,-81.4254198
5960,Eastham Way,44236,41.2236773,-81.4254075
5970,Eastham Way,44236,41.2239706,-81.4253966
5980,Eastham Way,44236,41.2242305,-81.4254034
5990,Eastham Way,44236,41.2245029,-81.4254276
6000,Eastham Way,44236,41.2247744,-81.4253843
6010,Eastham Way,44236,41.2250458,-81.4253853
6020,Eastham Way,44236,41.2253034,-81.4253940
6030,Eastham Way,44236,41.2256031,-81.4253843
6042,Eastham Way,44236,41.2258675,-81.4254050
1757,Mayflower Lane,44236,41.2264034,-81.4258442
1747,Mayflower Lane,44236,41.2264021,-81.4262115
1727,Mayflower Lane,44236,41.2264062,-81.4269261
1717,Mayflower Lane,44236,41.2264128,-81.4273028
1701,Mayflower Lane,44236,41.2264229,-81.4279020
6011,Brewster Drive,44236,41.2258708,-81.4263231
1716,Mayflower Lane,44236,41.2258980,-81.4271215
5987,Ogilby Drive,44236,41.2258745,-81.4279443
5999,Brewster Drive,44236,41.2256088,-81.4263304
5989,Brewster Drive,44236,41.2253355,-81.4263416
5979,Brewster Drive,44236,41.2250516,-81.4263496
5969,Brewster Drive,44236,41.2247944,-81.4263415
5959,Brewster Drive,44236,41.2245106,-81.4263287
5949,Brewster Drive,44236,41.2242313,-81.4263653
5939,Brewster Drive,44236,41.2239577,-81.4263426
5929,Brewster Drive,44236,41.2236855,-81.4263538
5919,Brewster Drive,44236,41.2234193,-81.4263519
5909,Brewster Drive,44236,41.2231352,-81.4263651
5899,Brewster Drive,44236,41.2228594,-81.4263425
5887,Brewster Drive,44236,41.2225978,-81.4263516
5871,Brewster Drive,44236,41.2220441,-81.4264437
5861,Brewster Drive,44236,41.2217792,-81.4264718
5851,Brewster Drive,44236,41.2215020,-81.4264810
5841,Brewster Drive,44236,41.2212212,-81.4265058
5831,Brewster Drive,44236,41.2209313,-81.4264801
5830,Brewster Drive,44236,41.2209428,-81.4272027
5850,Brewster Drive,44236,41.2215180,-81.4271713
5860,Brewster Drive,44236,41.2217714,-81.4271909
5870,Brewster Drive,44236,41.2220430,-81.4271794
5880,Brewster Drive,44236,41.2223206,-81.4270642
5890,Brewster Drive,44236,41.2225689,-81.4270591
5900,Brewster Drive,44236,41.2228726,-81.4270598
5910,Brewster Drive,44236,41.2231186,-81.4270394
5920,Brewster Drive,44236,41.2234117,-81.4270298
5930,Brewster Drive,44236,41.2236843,-81.4270378
5940,Brewster Drive,44236,41.2239732,-81.4270488
5950,Brewster Drive,44236,41.2242337,-81.4270456
5960,Brewster Drive,44236,41.2245237,-81.4270326
5970,Brewster Drive,44236,41.2247895,-81.4270462
5980,Brewster Drive,44236,41.2250497,-81.4270376
5990,Brewster Drive,44236,41.2253400,-81.4270398
6000,Brewster Drive,44236,41.2256083,-81.4270621
130,Lynn Drive,44236,41.2327238,-81.4552388
6011,Ogilby Drive,44236,41.2267177,-81.4279451
6021,Ogilby Drive,44236,41.2270084,-81.4279570
6031,Ogilby Drive,44236,41.2272943,-81.4279285
6041,Ogilby Drive,44236,41.2275568,-81.4279214
6045,Ogilby Drive,44236,41.2278263,-81.4279303
6055,Ogilby Drive,44236,41.2281252,-81.4279622
6065,Ogilby Drive,44236,41.2284080,-81.4279095
2080,Stoney Hill Drive,44236,41.2279046,-81.4287476
6040,Ogilby Drive,44236,41.2275655,-81.4287126
6030,Ogilby Drive,44236,41.2272674,-81.4286858
6020,Ogilby Drive,44236,41.2269790,-81.4286934
6010,Ogilby Drive,44236,41.2267274,-81.4286781
1681,Mayflower Lane,44236,41.2264262,-81.4287291
1680,Mayflower Lane,44236,41.2259013,-81.4287173
5976,Ogilby Drive,44236,41.2256091,-81.4287171
5966,Ogilby Drive,44236,41.2253337,-81.4287035
5956,Ogilby Drive,44236,41.2250724,-81.4287217
5946,Ogilby Drive,44236,41.2247732,-81.4287099
5936,Ogilby Drive,44236,41.2244919,-81.4287237
5926,Ogilby Drive,44236,41.2242403,-81.4287196
5916,Ogilby Drive,44236,41.2239867,-81.4287039
5906,Ogilby Drive,44236,41.2236815,-81.4287513
5896,Ogilby Drive,44236,41.2233897,-81.4287330
5886,Ogilby Drive,44236,41.2231308,-81.4287206
5876,Ogilby Drive,44236,41.2228612,-81.4287256
5866,Ogilby Drive,44236,41.2225169,-81.4287329
5977,Ogilby Drive,44236,41.2256166,-81.4279576
5967,Ogilby Drive,44236,41.2253338,-81.4279749
5957,Ogilby Drive,44236,41.2250564,-81.4279955
5947,Ogilby Drive,44236,41.2247766,-81.4280107
5937,Ogilby Drive,44236,41.2245083,-81.4280048
5927,Ogilby Drive,44236,41.2242292,-81.4280107
5917,Ogilby Drive,44236,41.2239553,-81.4280269
5907,Ogilby Drive,44236,41.2236702,-81.4280100
5897,Ogilby Drive,44236,41.2234113,-81.4279510
5887,Ogilby Drive,44236,41.2231347,-81.4279880
5877,Ogilby Drive,44236,41.2228755,-81.4280194
5865,Ogilby Drive,44236,41.2225413,-81.4280131
5853,Ogilby Drive,44236,41.2222054,-81.4279741
5841,Ogilby Drive,44236,41.2218489,-81.4279770
5835,Ogilby Drive,44236,41.2215078,-81.4279648
5850,Ogilby Drive,44236,41.2219523,-81.4286984
5838,Ogilby Drive,44236,41.2216025,-81.4286786
5828,Ogilby Drive,44236,41.2213185,-81.4287138
5818,Ogilby Drive,44236,41.2210387,-81.4287005
5808,Ogilby Drive,44236,41.2207454,-81.4287318
5784,Ogilby Drive,44236,41.2202568,-81.4288139
5817,Ogilby Drive,44236,41.2209522,-81.4280023
5801,Ogilby Drive,44236,41.2206302,-81.4280479
5787,Ogilby Drive,44236,41.2203245,-81.4280600
5775,Ogilby Drive,44236,41.2200300,-81.4281369
5765,Ogilby Drive,44236,41.2197351,-81.4281456
5755,Ogilby Drive,44236,41.2194719,-81.4281946
5745,Ogilby Drive,44236,41.2191977,-81.4282177
5735,Ogilby Drive,44236,41.2189228,-81.4282316
1795,Barlow Road,44236,41.2184851,-81.4284227
1807,Barlow Road,44236,41.2183161,-81.4281346
1819,Barlow Road,44236,41.2181756,-81.4278220
1775,Barlow Road,44236,41.2187985,-81.4290970
5748,Ogilby Drive,44236,41.2192577,-81.4289295
5758,Ogilby Drive,44236,41.2196871,-81.4288916
5675,Hudson Industrial Parkway,44236,41.2163223,-81.4273663
5640,Hudson Industrial Parkway,44236,41.2146818,-81.4292636
5633,Hudson Industrial Parkway,44236,41.2145959,-81.4275715
5600,Hudson Industrial Parkway,44236,41.2133099,-81.4291898
5581,Hudson Industrial Parkway,44236,41.2130592,-81.4267766
5445,Hudson Industrial Parkway,44236,41.2111321,-81.4311106
1600,Terex Road,44236,41.2158758,-81.4322203
5601,Darrow Road,44236,41.2180802,-81.4396320
5603,Darrow Road,44236,41.2178951,-81.4387947
5700,Darrow Road,44236,41.2184082,-81.4415360
5778,Darrow Road,44236,41.2224724,-81.4410616
5758,Darrow Road,44236,41.2218435,-81.4407534
5746,Darrow Road,44236,41.2213445,-81.4410549
5714,Darrow Road,44236,41.2208033,-81.4410991
5790,Hudson Drive,44236,41.2200106,-81.4417177
5611,Darrow Road,44236,41.2188951,-81.4395499
5657,Darrow Road,44236,41.2193457,-81.4394283
5697,Darrow Road,44236,41.2197880,-81.4399073
5701,Darrow Road,44236,41.2200750,-81.4399197
5715,Darrow Road,44236,41.2208828,-81.4395047
5715,Darrow Road,44236,41.2212657,-81.4395325
5751,Darrow Road,44236,41.2216298,-81.4397364
5783,Darrow Road,44236,41.2225901,-81.4396778
5789,Darrow Road,44236,41.2230759,-81.4394651
5812,Darrow Road,44236,41.2232073,-81.4412032
5824,Darrow Road,44236-3864,41.2239094,-81.4414986
5854,Darrow Road,44236,41.2250282,-81.4410273
5876,Darrow Road,44236,41.2253832,-81.4411596
5915,Darrow Road,44236,41.2262403,-81.4399110
5929,Darrow Road,44236,41.2266465,-81.4394470
5939,Darrow Road,44236,41.2272081,-81.4396981
5951,Darrow Road,44236,41.2275449,-81.4398367
5980,Darrow Road,44236,41.2280386,-81.4410066
92,South Main Street,44236,41.2362921,-81.4406665
77,Milford Drive,44236,41.2371866,-81.4482500
75,Milford Drive,44236,41.2372875,-81.4478248
55,Atterbury Boulevard,44236,41.2415036,-81.4471498
36,South Oviatt Street,44236,41.2385340,-81.4361634
41,South Oviatt Street,44236,41.2375470,-81.4343646
37,South Oviatt Street,44236,41.2380260,-81.4346921
35,South Oviatt Street,44236,41.2381734,-81.4344962
33,South Oviatt Street,44236,41.2385611,-81.4348430
1931,Barlow Road,44236,41.2170638,-81.4246061
1931,Barlow Road,44236,41.2167400,-81.4252010
2250,Barlow Road,44236,41.2096207,-81.4159417
1818,Barlow Road,44236,41.2177939,-81.4284144
1800,Barlow Road,44236,41.2179412,-81.4287105
1790,Barlow Road,44236,41.2180814,-81.4290079
1674,Carriage Hill Drive,44236,41.2182618,-81.4295410
1654,Carriage Hill Drive,44236,41.2180881,-81.4298169
1644,Carriage Hill Drive,44236,41.2179384,-81.4301723
1624,Carriage Hill Drive,44236,41.2179445,-81.4306361
1618,Carriage Hill Drive,44236,41.2179525,-81.4310157
1612,Carriage Hill Drive,44236,41.2179555,-81.4314074
1604,Carriage Hill Drive,44236,41.2179577,-81.4317873
1594,Carriage Hill Drive,44236,41.2179691,-81.4321909
1584,Carriage Hill Drive,44236,41.2179565,-81.4325614
1574,Carriage Hill Drive,44236,41.2179697,-81.4329504
1564,Carriage Hill Drive,44236,41.2179898,-81.4332996
1554,Carriage Hill Drive,44236,41.2180026,-81.4336921
1544,Carriage Hill Drive,44236,41.2179874,-81.4340924
1534,Carriage Hill Drive,44236,41.2180001,-81.4344569
1524,Carriage Hill Drive,44236,41.2179665,-81.4348456
1514,Carriage Hill Drive,44236,41.2179973,-81.4351898
1504,Carriage Hill Drive,44236,41.2179979,-81.4355584
1494,Carriage Hill Drive,44236,41.2180156,-81.4359293
505,Boston Mills Road,44236,41.2484271,-81.4740542
5423,Darrow Road,44236,41.2127556,-81.4394611
1140,Terex Road,44236,41.2166053,-81.4486103
5611,Hudson Drive,44236,41.2144793,-81.4453253
5601,Hudson Drive,44236,41.2140201,-81.4458506
5285,Hudson Drive,44236,41.2079217,-81.4500762
5369,Hudson Drive,44236,41.2089751,-81.4490275
1297,Hudson Gate Drive,44236,41.2089390,-81.4451820
5270,Hudson Drive,44236,41.2075032,-81.4528402
934,Farmham Way,44236,41.2712045,-81.4754113
6062,Independence Drive,44236,41.2327389,-81.4652164
6072,Independence Drive,44236,41.2330068,-81.4651379
790,Patriot Court,44236,41.2332421,-81.4649693
735,Jamestown Court,44236,41.2323818,-81.4654601
751,Jamestown Court,44236,41.2322480,-81.4646575
6065,Independence Drive,44236,41.2326295,-81.4644921
6079,Independence Drive,44236,41.2328855,-81.4643892
6087,Independence Drive,44236,41.2331548,-81.4642387
6093,Independence Drive,44236,41.2333751,-81.4640720
7965,Princewood Drive,44236,41.2730825,-81.4186947
6400,Elmcrest Drive,44236,41.2343494,-81.4179300
6431,Elmcrest Drive,44236,41.2350323,-81.4185943
6164,Elmcrest Drive,44236,41.2343708,-81.4185732
6388,Elmcrest Drive,44236,41.2343557,-81.4173543
6403,Elmcrest Drive,44236,41.2351727,-81.4180169
6495 Elmcrest Dr,Elmcrest Drive,44236,41.2355722,-81.4186519
6477,Elmcrest Drive,44236,41.2360214,-81.4185056
6335,Elmcrest Drive,44236,41.2356178,-81.4173845
6375,Elmcrest Drive,44236,41.2352094,-81.4173490
6311,Elmcrest Drive,44236,41.2357882,-81.4179649
6306,Elmcrest Drive,44236,41.2366800,-81.4181852
6316,Elmcrest Drive,44236,41.2364369,-81.4176105
6330,Elmcrest Drive,44236,41.2360141,-81.4164511
6366,Elmcrest Drive,44236,41.2350640,-81.4164707
6354,Elmcrest Drive,44236,41.2354624,-81.4164537
6367,e,44236,41.2345808,-81.4167571
6330,Elmcrest Drive,44236,41.2364062,-81.4170205
6426,Elmcrest Drive,44236,41.2345272,-81.4190289
6602,Elmcrest Drive,44236,41.2394750,-81.4189159
6586,Elmcrest Drive,44236,41.2390460,-81.4189622
6568,Elmcrest Drive,44236,41.2386081,-81.4189632
6568,Elmcrest Drive,44236,41.2385125,-81.4193150
6554,Elmcrest Drive,44236,41.2381744,-81.4189927
6540,Elmcrest Drive,44236,41.2377933,-81.4189932
6526,Elmcrest Drive,44236,41.2373544,-81.4190162
6508,Elmcrest Drive,44236,41.2369676,-81.4190669
6492,Elmcrest Drive,44236,41.2366126,-81.4191999
6476,Elmcrest Drive,44236,41.2363309,-81.4196075
6476,Elmcrest Drive,44236,41.2361387,-81.4194767
6462,Elmcrest Drive,44236,41.2357329,-81.4194702
6448,Elmcrest Drive,44236,41.2353944,-81.4195098
6436,Elmcrest Drive,44236,41.2348528,-81.4194770
2030,East Streetsboro Street,44236,41.2395861,-81.4220635
2030,East Streetsboro Street,44236,41.2391389,-81.4222063
2200,Fairfield Lane,44236,41.2331712,-81.4174302
2200,Fairfield Lane,44236,41.2328837,-81.4177930
6400,Elmcrest Drive,44236,41.2341029,-81.4177489
2140,East Streetsboro Street,44236,41.2369322,-81.4172468
6513,Elmcrest Drive,44236,41.2370690,-81.4182462
6529,Elmcrest Drive,44236,41.2374880,-81.4182762
6605,Elmcrest Drive,44236,41.2395060,-81.4182225
6589,Elmcrest Drive,44236,41.2391398,-81.4182099
6573,Elmcrest Drive,44236,41.2387175,-81.4182554
6559,Elmcrest Drive,44236,41.2382699,-81.4182550
6543,Elmcrest Drive,44236,41.2378722,-81.4182462
2174,East Streetsboro Street,44236,41.2374741,-81.4174521
2643,East Streetsboro Street,44236,41.2402537,-81.3997888
6794,Dana Avenue,44236,41.2426922,-81.4026051
83,North Oviatt Street,44236,41.2435373,-81.4301579
6075,Ogilby Drive,44236,41.2292381,-81.4278231
120,North Hayden Parkway,44236,41.2454825,-81.4260331
76,North Hayden Parkway,44236,41.2430789,-81.4265643
55,Veterans Way,44326,41.2367021,-81.4436484
