House number,Street name,Postal code,Latitude,Longitude
5280,Bigger Road,45440,39.6654803,-84.1261532
530,East Stroop Road,45429,39.6884401,-84.1645245
3204,Woodman Drive,45420,39.6975257,-84.1231880
2950,Far Hills Ave,45419,39.7048752,-84.1699632
5819,Kentshire Drive,45440,39.6595395,-84.1316635
2553,California Avenue,45419,39.7098056,-84.1553609
5819,Kentshire Drive,45440,39.6596241,-84.1315750
4738,Gateway Circle,45440,39.6754942,-84.1338274
4716,Wilmington Pike,45440,39.6747371,-84.1157270
912,East Dorothy Lane,45419,39.7035202,-84.1518722
4329,Far Hills Avenue,45429,39.6847548,-84.1682165
1615,West Dorothy Lane,45439,39.7093116,-84.2013674
328,East Stroop Road,45429,39.6884835,-84.1649379
100,East Stroop Road,45429,39.6884805,-84.1674145
300,East Stroop Road,45429,39.6884952,-84.1659179
1191,East Stroop Road,45429,39.6898222,-84.1463724
1211,East Stroop Road,45429,39.6898761,-84.1455705
1349,East Stroop Road,45429,39.6889756,-84.1427269
2824,Wilmington Pike,45429,39.7059798,-84.1394920
530,East Stroop Road,45429,39.6882753,-84.1621613
417,Shaw Farm Lane,45429,39.6820960,-84.1634795
421,Shaw Farm Lane,45429,39.6820723,-84.1633131
433,Shaw Farm Lane,45429,39.6820723,-84.1631221
437,Shaw Farm Lane,45429,39.6820699,-84.1630111
441,Shaw Farm Lane,45429,39.6820580,-84.1629126
445,Shaw Farm Lane,45429,39.6820509,-84.1627924
448,Shaw Farm Lane,45429,39.6816123,-84.1628324
444,Shaw Farm Lane,45429,39.6816123,-84.1629773
404,Shaw Farm Lane,45429,39.6818043,-84.1637105
408,Shaw Farm Lane,45429,39.6817261,-84.1637105
412,Shaw Farm Lane,45429,39.6816454,-84.1637167
416,Shaw Farm Lane,45429,39.6815530,-84.1637352
436,Shaw Farm Lane,45429,39.6815174,-84.1632546
432,Shaw Farm Lane,45429,39.6816265,-84.1632546
428,Shaw Farm Lane,45429,39.6817237,-84.1632391
424,Shaw Farm Lane,45429,39.6818138,-84.1632268
5501,Bigger Road,45440,39.6625573,-84.1271377
5575,Bigger Road,45440,39.6613613,-84.1271290
5575,Bigger Road,45440,39.6614790,-84.1273194
1020,East Dorothy Lane,45419,39.7033538,-84.1487243
1020,East Dorothy Lane,45419,39.7035488,-84.1487297
2841,Wilmington Pike,45419,39.7059678,-84.1427645
1201,East Stroop Road,45429,39.6898350,-84.1461963
2640,Galewood Street,45420,39.7080074,-84.1182096
1221,East Stroop Road,45429,39.6897215,-84.1447412
28,East Rahn Road,45429,39.6686260,-84.1614727
901,East Stroop Road,45429,39.6896310,-84.1537493
1625,Calvary Drive,45409-2038,39.7225723,-84.2040344
530,East Stroop Road,45429,39.6881148,-84.1624001
4075,Wilmington Pike,45440,39.6854684,-84.1325825
2917,Berkley Street,45409,39.7104411,-84.1875825
1701,West Dorothy Lane,45439,39.7113739,-84.2018900
2115,East Dorothy Lane,45420,39.7045883,-84.1247663
1970,East Dorothy Lane,45420,39.7024016,-84.1285087
4701,Far Hills Avenue,45429,39.6787594,-84.1671432
3001,Far Hills Avenue,45429,39.7041469,-84.1710269
2900,College Drive,45420,39.7237214,-84.1161711
2900,Acosta Street,45420,39.7041515,-84.1212544
2200,Woodman Drive,45420,39.7149563,-84.1236544
1880,East Dorothy Lane,45429,39.7027208,-84.1297845
2109,East Dorothy Lane,45420,39.7031462,-84.1252242
2101,East Dorothy Lane,45420,39.7032101,-84.1259888
1940,East Dorothy Lane,45420,39.7022479,-84.1294828
1314,East Dorothy Lane,45419,39.7033792,-84.1434153
1330,East Dorothy Lane,45419,39.7033868,-84.1428803
3120,Wilmington Pike,45429,39.7007869,-84.1410816
3501,Wilmington Pike,45429,39.6959222,-84.1407256
2901,Wilmington Pike,45429,39.7047346,-84.1425047
3316,Wilmington Pike,45429,39.6974239,-84.1401337
3851,Far Hills Avenue,45429,39.6919609,-84.1690038
2316,Springmill Road,45440,39.6658294,-84.1233903
2890,Wilmington Pike,45419,39.7057394,-84.1416531
1724,Woodman Drive,45420,39.7268230,-84.1202857
1308,Cloverfield Avenue,45429,39.6903366,-84.1433583
401,Orangewood Drive,45429,39.6800906,-84.1635906
4318,Shroyer Road,45429,39.6840873,-84.1649513
4408,Lesher Drive,45429,39.6835183,-84.1660719
3535,Sharewood Court,45429,39.6957308,-84.1529406
3535,Southern Boulevard,45429,39.6961500,-84.1910456
4435,Dogwood Trail,45429,39.6763949,-84.1936582
2935,Greencrest Drive,45432,39.7334909,-84.1078299
4090,North Marshall Road,45429,39.6869982,-84.1436054
695,Lincoln Park Boulevard,45429,39.6971055,-84.1584228
5501,Bigger Road,45440,39.6625580,-84.1269191
1864,East Stroop Road,45429,39.6880219,-84.1335337
1872,East Stroop Road,45429-5061,39.6881150,-84.1326637
3043,Fountain Circle,45420,39.6988541,-84.1070534
714,Residenz Parkway,45429,39.6961141,-84.1574916
1851,Doris Drive,45429,39.6922898,-84.1317787
813,East Stroop Road,45429,39.6894449,-84.1562311
817,East Stroop Road,45429,39.6894316,-84.1559367
821,East Stroop Road,45429,39.6894338,-84.1556830
1377,East Stroop Road,45429,39.6889481,-84.1420012
4110,Far Hills Avenue,45429,39.6877870,-84.1671551
480,East Stroop Road,45429,39.6891903,-84.1637330
4120,Far Hills Avenue,45429,39.6877013,-84.1681408
4201,Shroyer Road,45429,39.6866716,-84.1640311
5207,Shroyer Road,45429,39.6864457,-84.1640453
4213,Shroyer Road,45429,39.6861877,-84.1640641
4201,Pennlyn Avenue,45429,39.6866955,-84.1649546
4209,Pennlyn Avenue,45429,39.6864477,-84.1649680
4217,Pennlyn Avenue,45429,39.6861877,-84.1649814
4201,Brenau Avenue,45429,39.6867182,-84.1658719
4209,Brenau Avenue,45429,39.6864849,-84.1658880
4217,Brenau Avenue,45429,39.6862579,-84.1659094
4200,Pennlyn Avenue,45429,39.6866830,-84.1643437
4208,Pennlyn Avenue,45429,39.6864437,-84.1643644
4216,Pennlyn Avenue,45429,39.6861918,-84.1643887
4200,Brenau Avenue,45429,39.6867078,-84.1652711
4208,Brenau Avenue,45429,39.6864333,-84.1652898
4216,Brenau Avenue,45429,39.6861691,-84.1653140
4224,Brenau Avenue,45429,39.6858992,-84.1653764
4224,Pennlyn Avenue,45429,39.6859258,-84.1644193
4232,Pennlyn Avenue,45429,39.6856582,-84.1644970
804,East Stroop Road,45429,39.6889207,-84.1567819
4000,East Stroop Road,45429,39.6888694,-84.1570713
728,East Stroop Road,45429,39.6889073,-84.1575486
724,East Stroop Road,45429,39.6889379,-84.1577664
809,East Stroop Road,45429,39.6894611,-84.1564790
805,East Stroop Road,45429,39.6894682,-84.1567526
729,East Stroop Road,45429,39.6895100,-84.1575102
725,East Stroop Road,45429,39.6895186,-84.1577365
721,East Stroop Road,45429,39.6895291,-84.1579460
717,East Stroop Road,45429,39.6895382,-84.1581606
709,East Stroop Road,45429,39.6897787,-84.1585342
701,East Stroop Road,45429,39.6895716,-84.1590652
621,East Stroop Road,45429,39.6896016,-84.1595495
617,East Stroop Road,45429,39.6895784,-84.1598331
609,East Stroop Road,45429,39.6895816,-84.1601214
601,East Stroop Road,45429,39.6895978,-84.1605208
541,East Stroop Road,45429,39.6896055,-84.1608566
4000,Royal Oak Drive,45429,39.6889830,-84.1605889
"601,4010",Royal Oak Drive,45429,39.6886794,-84.1606155
604,East Stroop Road,45429,39.6890566,-84.1603810
608,East Stroop Road,45429,39.6890415,-84.1601784
612,East Stroop Road,45429,39.6890331,-84.1599542
616,East Stroop Road,45429,39.6890073,-84.1597694
620,East Stroop Road,45429,39.6890130,-84.1595708
613,Wedgewood Avenue,45429,39.6885886,-84.1599935
617,Wedgewood Avenue,45429,39.6885812,-84.1597785
609,Wedgewood Avenue,45429,39.6885922,-84.1602050
605,Wedgewood Avenue,45429,39.6885976,-84.1604230
704,East Stroop Road,45429,39.6889970,-84.1588465
716,East Stroop Road,45429,39.6889680,-84.1581983
712,East Stroop Road,45429,39.6889803,-84.1584124
720,East Stroop Road,45429,39.6889625,-84.1579867
708,East Stroop Road,45429,39.6889914,-84.1586429
801,East Stroop Road,45429,39.6895062,-84.1570495
825,East Stroop Road,45429,39.6894084,-84.1554029
829,East Stroop Road,45429,39.6894151,-84.1551106
604,Wedgewood Avenue,45429,39.6882119,-84.1603953
608,Wedgewood Avenue,45429,39.6881939,-84.1601566
612,Wedgewood Avenue,45429,39.6881808,-84.1599427
616,Wedgewood Avenue,45429,39.6881683,-84.1597102
"4009,4013",Royal Oak Drive,45429,39.6887079,-84.1611272
"4017,4021",Royal Oak Drive,45429,39.6884249,-84.1611537
"4051,4055",Royal Oak Drive,45429,39.6881374,-84.1611713
4054,Royal Oak Drive,45429,39.6881572,-84.1606355
601,Royal Oak Drive,45429,39.6878590,-84.1606507
4059,Royal Oak Drive,45429,39.6878612,-84.1611890
709,Lefevre Circle,45429,39.6884899,-84.1585728
715,Lefevre Circle,45429,39.6885241,-84.1582566
721,Lefevre Circle,45429,39.6884434,-84.1580923
716,Lefevre Circle,45429,39.6882111,-84.1580371
708,Lefevre Circle,45429,39.6880030,-84.1581606
705,Lefevre Circle,45429,39.6883093,-84.1586785
4200,Far Hills Avenue,45429,39.6867615,-84.1678446
4208,Castle Drive,45429,39.6865111,-84.1677710
4216,Far Hills Avenue,45429,39.6862665,-84.1677034
4224,Far Hills Avenue,45429,39.6860248,-84.1676324
4232,Far Hills Avenue,45429,39.6857646,-84.1675648
4240,Far Hills Avenue,45429,39.6855202,-84.1675074
4300,Far Hills Avenue,45429,39.6852758,-84.1674364
4308,Far Hills Avenue,45429,39.6850235,-84.1673553
4316,Far Hills Avenue,45429,39.6847843,-84.1673046
4324,Far Hills Avenue,45429,39.6845355,-84.1672369
4332,Far Hills Avenue,45429,39.6842884,-84.1671759
4340,Far Hills Avenue,45429,39.6840505,-84.1671027
4333,Lesher Drive,45429,39.6841161,-84.1667620
4325,Lesher Drive,45429,39.6843916,-84.1668385
4317,Lesher Drive,45429,39.6846544,-84.1669157
4309,Lesher Drive,45429,39.6849203,-84.1669889
4301,Lesher Drive,45429,39.6851769,-84.1670539
4241,Lesher Drive,45429,39.6854428,-84.1671352
4233,Lesher Drive,45429,39.6857087,-84.1672003
4225,Lesher Drive,45429,39.6859747,-84.1672694
4217,Lesher Drive,45429,39.6862312,-84.1673548
4209,Lesher Drive,45429,39.6864940,-84.1674279
4201,Lesher Drive,45429,39.6867506,-84.1674889
4200,Lesher Drive,45429,39.6867363,-84.1668899
4210,Lesher Drive,45429,39.6864471,-84.1668059
4234,Lesher Drive,45429,39.6858683,-84.1666352
4218,Lesher Drive,45429,39.6863386,-84.1664733
4226,Lesher Drive,45429,39.6860865,-84.1664028
4325,Pennlyn Avenue,45429,39.6848911,-84.1663727
4331,Shroyer Road,45429,39.6842074,-84.1661844
4325,Shroyer Road,45429,39.6842740,-84.1658685
4317,Pennlyn Avenue,45429,39.6849635,-84.1660609
4241,Brenau Avenue,45429,39.6856761,-84.1662520
4309,Pennlyn Avenue,45429,39.6850813,-84.1657608
4313,Shroyer Road,45429,39.6844791,-84.1652842
4319,Shroyer Road,45429,39.6843542,-84.1655704
4256,Brenau Avenue,45429,39.6851323,-84.1664492
4332,Pennlyn Avenue,45429,39.6844519,-84.1662668
4324,Pennlyn Avenue,45429,39.6845121,-84.1659121
4316,Pennlyn Avenue,45429,39.6846273,-84.1656105
4248,Brenau Avenue,45429,39.6852307,-84.1661021
4240,Brenau Avenue,45429,39.6853960,-84.1657816
4232,Brenau Avenue,45429,39.6856257,-84.1655411
4248,Pennlyn Avenue,45429,39.6851668,-84.1648262
4240,Pennlyn Avenue,45429,39.6853986,-84.1646362
4300,Pennlyn Avenue,45429,39.6849522,-84.1650525
4308,Pennlyn Avenue,45429,39.6847744,-84.1653190
4301,Pennlyn Avenue,45429,39.6852374,-84.1654697
4233,Brenau Avenue,45429,39.6858362,-84.1660452
4307,Shroyer Road,45429,39.6846292,-84.1650126
4301,Shroyer Road,45429,39.6848096,-84.1647546
4243,Shroyer Road,45429,39.6850028,-84.1645393
4237,Shroyer Road,45429,39.6852100,-84.1643647
4241,Pennlyn Avenue,45429,39.6854394,-84.1652716
4233,Pennlyn Avenue,45429,39.6856790,-84.1651136
4225,Pennlyn Avenue,45429,39.6859190,-84.1650240
4225,Brenau Avenue,45429,39.6860276,-84.1659432
4225,Shroyer Road,45429,39.6856790,-84.1641604
4219,Shroyer Road,45429,39.6859215,-84.1640909
4231,Shroyer Road,45429,39.6854336,-84.1642456
500,Lamont Drive,45429,39.6875055,-84.1632608
508,Lamont Drive,45429,39.6874911,-84.1628845
516,Lamont Drive,45429,39.6874793,-84.1625131
522,Lamont Drive,45429,39.6874694,-84.1621367
530,Lamont Drive,45429,39.6874497,-84.1617320
538,Lamont Drive,45429,39.6874339,-84.1614220
523,Mossoak Drive,45429,39.6871042,-84.1621554
515,Mossoak Drive,45429,39.6871220,-84.1625292
507,Mossoak Drive,45429,39.6871338,-84.1629075
501,Mossoak Drive,45429,39.6871455,-84.1632845
500-506,Mossoak Drive,45429,39.6867386,-84.1633049
508-514,Mossoak Drive,45429,39.6867302,-84.1629291
516-522,Mossoak Drive,45429,39.6867121,-84.1625526
524-530,Mossoak Drive,45429,39.6866962,-84.1621789
600-606,Mossoak Drive,45429,39.6866827,-84.1618053
608-614,Mossoak Drive,45429,39.6866713,-84.1614405
616-622,Mossoak Drive,45429,39.6866600,-84.1610610
617-623,Mossoak Drive,45429,39.6870654,-84.1610315
609-615,Mossoak Drive,45429,39.6870857,-84.1614199
601-607,Mossoak Drive,45429,39.6870902,-84.1617818
546,Lamont Drive,45429,39.6874349,-84.1610073
600,Lamont Drive,45429,39.6873836,-84.1607070
606,Lamont Drive,45429,39.6873442,-84.1604686
605,Lamont Drive,45429,39.6877535,-84.1604050
609,Lamont Drive,45429,39.6877100,-84.1601756
613,Lamont Drive,45429,39.6876221,-84.1599670
614,Lamont Drive,45429,39.6872577,-84.1602284
620,Lamont Drive,45429,39.6871468,-84.1600166
627,Mossoak Drive,45429,39.6870268,-84.1607345
631,Mossoak Drive,45429,39.6869340,-84.1604638
617,Lamont Drive,45429,39.6874863,-84.1597843
635,Mossoak Drive,45429,39.6867529,-84.1602520
630,Mossoak Drive,45429,39.6865853,-84.1607226
626,Lamont Drive,45429,39.6870129,-84.1598822
621,Lamont Drive,45429,39.6873719,-84.1595932
625,Lamont Drive,45429,39.6872211,-84.1594357
629,Lamont Drive,45429,39.6870603,-84.1593051
630,Lamont Drive,45429,39.6868498,-84.1597770
634,Lamont Drive,45429,39.6866940,-84.1596871
644,Lamont Drive,45429,39.6862661,-84.1596430
643,Mossoak Drive,45429,39.6863000,-84.1602108
633,Lamont Drive,45429,39.6868541,-84.1592439
637,Lamont Drive,45429,39.6866638,-84.1591609
638,Lamont Drive,45429,39.6865155,-84.1596704
641,Lamont Drive,45429,39.6864954,-84.1591498
645,Lamont Drive,45429,39.6862735,-84.1591818
639,Mossoak Drive,45429,39.6865561,-84.1601484
642,Mossoak Drive,45429,39.6863242,-84.1606408
507-509,Hollendale Drive,45429,39.6863630,-84.1629521
507-509,Hollendale Drive,45429,39.6863630,-84.1625772
513-515,Hollendale Drive,45429,39.6863441,-84.1622055
529-531,Hollendale Drive,45429,39.6863413,-84.1618304
601-603,Hollendale Drive,45429,39.6863249,-84.1614588
534-536,Hollendale Drive,45429,39.6859283,-84.1618859
524-530,Hollendale Drive,45429,39.6859491,-84.1622551
516-522,Hollendale Drive,45429,39.6859491,-84.1626232
508-514,Hollendale Drive,45429,39.6859763,-84.1629948
500-506,Hollendale Drive,45429,39.6859791,-84.1633734
600;604,Hollendale Drive,45429,39.6859110,-84.1612995
607-609,Hollendale Drive,45429,39.6863175,-84.1610948
4213,Sunray Road,45429,39.6856076,-84.1618673
4217,Sunray Road,45429,39.6854104,-84.1618941
4301,Sunray Road,45429,39.6852205,-84.1618941
4305,Sunray Road,45429,39.6850306,-84.1619209
4309,Sunray Road,45429,39.6848448,-84.1619290
4313,Sunray Road,45429,39.6846446,-84.1619639
4317,Sunray Road,45429,39.6844485,-84.1619532
4321,Sunray Road,45429,39.6842545,-84.1619907
4325,Sunray Road,45429,39.6840769,-84.1619800
4329,Sunray Road,45429,39.6838788,-84.1620229
4333,Sunray Road,45429,39.6836889,-84.1620121
4337,Sunray Road,45429,39.6834866,-84.1620443
4401,Sunray Road,45429,39.6833049,-84.1620550
4405,Sunray Road,45429,39.6831027,-84.1620765
4409,Sunray Road,45429,39.6829169,-84.1620765
4413,Sunray Road,45429,39.6827311,-84.1621033
4417,Sunray Road,45429,39.6825040,-84.1621033
4421,Sunray Road,45429,39.6821903,-84.1621248
4425,Sunray Road,45429,39.6818600,-84.1621516
4429,Sunray Road,45429,39.6815297,-84.1621811
442,Grayson Street,45429,39.6824111,-84.1637529
4416,Grayson Street,45429,39.6825949,-84.1637609
4412,Grayson Street,45429,39.6827910,-84.1637234
4408,Grayson Street,45429,39.6829829,-84.1637180
4404,Grayson Street,45429,39.6831770,-84.1637234
4400,Grayson Street,45429,39.6833958,-84.1636966
4403,Grayson Street,45429,39.6832699,-84.1641606
4409,Grayson Street,45429,39.6830325,-84.1641794
4417,Grayson Street,45429,39.6826114,-84.1642143
4421,Grayson Street,45429,39.6823306,-84.1642384
530,Ives Lane,45429,39.6824545,-84.1627417
526,Ives Lane,45429,39.6826588,-84.1626184
520,Ives Lane,45429,39.6828426,-84.1625138
518,Ives Lane,45429,39.6830387,-84.1624735
514,Ives Lane,45429,39.6832492,-84.1625030
5324,Frieda Lane,45429,39.6834185,-84.1627069
534,Ives Lane,45429,39.6823967,-84.1630099
523,Ives Lane,45429,39.6824752,-84.1632621
521,Ives Lane,45429,39.6826774,-84.1633479
517,Ives Lane,45429,39.6828797,-84.1632406
513,Ives Lane,45429,39.6829994,-84.1630233
500,Ives Lane,45429,39.6832265,-84.1631682
408,Ives Lane,45429,39.6833628,-84.1634016
401,Ives Lane,45429,39.6837798,-84.1636268
405,Ives Lane,45429,39.6837487,-84.1633318
5317,Frieda Lane,45429,39.6836786,-84.1630582
320,Ives Lane,45429,39.6834309,-84.1641901
316,Ives Lane,45429,39.6833462,-84.1645119
308,Ives Lane,45429,39.6834866,-84.1647211
300,Ives Lane,45429,39.6836889,-84.1647775
301,Ives Lane,45429,39.6838602,-84.1646381
309,Ives Lane,45429,39.6838788,-84.1643644
4321,Grayson Street,45429,39.6838354,-84.1641150
4320,Grayson Street,45429,39.6839841,-84.1635973
4316,Grayson Street,45429,39.6841678,-84.1635544
4317,Grayson Street,45429,39.6841017,-84.1641016
4305,Grayson Street,45429,39.6843432,-84.1641257
4312,Grayson Street,45429,39.6843659,-84.1635196
4308,Grayson Street,45429,39.6845641,-84.1635705
4304,Grayson Street,45429,39.6847272,-84.1637073
5320,Frieda Lane,45429,39.6835568,-84.1624949
4316,Frieda Lane,45429,39.6837487,-84.1624332
4312,Frieda Lane,45429,39.6839427,-84.1624360
4308,Frieda Lane,45429,39.6841492,-84.1624172
4304,Frieda Lane,45429,39.6843453,-84.1624064
4300,Frieda Lane,45429,39.6845372,-84.1623823
4222,Frieda Lane,45429,39.6847396,-84.1624010
4218,Frieda Lane,45429,39.6849026,-84.1625513
4313,Frieda Lane,45429,39.6839262,-84.1629590
4309,Frieda Lane,45429,39.6841203,-84.1628946
4305,Frieda Lane,45429,39.6843205,-84.1628946
4301,Frieda Lane,45429,39.6845084,-84.1629267
4217,Frieda Lane,45429,39.6847003,-84.1630126
4213,Frieda Lane,45429,39.6848717,-84.1631119
4209,Frieda Lane,45429,39.6850388,-84.1632594
4205,Frieda Lane,45429,39.6851813,-84.1634445
4212,Frieda Lane,45429,39.6850884,-84.1627310
4204,Frieda Lane,45429,39.6855838,-84.1632058
501,Chee Court,45429,39.6854228,-84.1630394
505,Chee Court,45429,39.6855859,-84.1628303
509,Chee Court,45429,39.6855756,-84.1625485
512,Chee Court,45429,39.6855074,-84.1622857
508,Chee Court,45429,39.6852844,-84.1623098
504,Chee Court,45429,39.6850802,-84.1623876
4200,Shroyer Road,45429,39.6856618,-84.1634929
4324,Shroyer Road,45429,39.6839637,-84.1652107
4330,Shroyer Road,45429,39.6837975,-84.1657364
4336,Shroyer Road,45429,39.6837408,-84.1660978
4312,Shroyer Road,45429,39.6842094,-84.1647165
4306,Shroyer Road,45429,39.6843269,-84.1645288
4300,Shroyer Road,45429,39.6844880,-84.1643047
4242,Shroyer Road,45429,39.6848468,-84.1639593
4236,Shroyer Road,45429,39.6850412,-84.1638112
4230,Shroyer Road,45429,39.6852538,-84.1636852
4405,Primrose Lane,45429,39.6836163,-84.1656392
4404,Primrose Lane,45429,39.6837359,-84.1651993
4408,Primrose Lane,45429,39.6835316,-84.1651537
4412,Primrose Lane,45429,39.6833314,-84.1651028
4409,Primrose Lane,45429,39.6834181,-84.1656043
4413,Primrose Lane,45429,39.6832137,-84.1655265
4417,Primrose Lane,45429,39.6830176,-84.1654487
4418,Primrose Lane,45429,39.6831312,-84.1649660
4421,Primrose Lane,45429,39.6828277,-84.1652744
300,Primrose Lane,45429,39.6827121,-84.1650465
301,Primrose Lane,45429,39.6830197,-84.1647487
304,Primrose Lane,45429,39.6826729,-84.1647541
308,Primrose Lane,45429,39.6826420,-84.1644885
305,Primrose Lane,45429,39.6830176,-84.1644563
"4401,4403",Lesher Drive,45429,39.6836266,-84.1665699
"4407,4409",Lesher Drive,45429,39.6834160,-84.1665189
"4413,4415",Lesher Drive,45429,39.6832034,-84.1664600
4414,Lesher Drive,45429,39.6833045,-84.1659959
4420,Lesher Drive,45429,39.6830795,-84.1659504
"4419,4421",Lesher Drive,45429,39.6829949,-84.1664009
"4425,4427",Lesher Drive,45429,39.6827782,-84.1663258
4426,Lesher Drive,45429,39.6828752,-84.1658618
"4429,4431",Lesher Drive,45429,39.6825718,-84.1661944
4432,Lesher Drive,45429,39.6826956,-84.1657357
4438,Lesher Drive,45429,39.6825436,-84.1655681
4444,Lesher Drive,45429,39.6824321,-84.1653482
301,Lesher Drive,45429,39.6823567,-84.1651184
305,Lesher Drive,45429,39.6823280,-84.1648582
309,Lesher Drive,45429,39.6823098,-84.1645676
4451,Lesher Drive,45429,39.6819327,-84.1643006
306-308,Lesher Drive,45429,39.6819457,-84.1645946
"300,302",Lesher Drive,45429,39.6819613,-84.1649021
"206,208",Lesher Drive,45429,39.6819977,-84.1652096
202,Lesher Drive,45429,39.6820940,-84.1655341
4435,Lesher Drive,45429,39.6823957,-84.1660376
"4437,4439",Darwin Court,45429,39.6821031,-84.1661390
"4441,4443",Lesher Drive,45429,39.6819550,-84.1658599
4402-4404,Far Hills Avenue,45429,39.6835499,-84.1670228
4406-4408,Far Hills Avenue,45429,39.6833389,-84.1669641
4412-4414,Far Hills Avenue,45429,39.6831421,-84.1669088
4418-4420,Far Hills Avenue,45429,39.6829169,-84.1668502
4424-4426,Far Hills Avenue,45429,39.6827129,-84.1667916
4430-4432,Far Hills Avenue,45429,39.6824948,-84.1667269
4436-4438,Far Hills Avenue,45429,39.6822885,-84.1666714
4442-4444,Far Hills Avenue,45429,39.6820751,-84.1666161
4448-4450,Far Hills Avenue,45429,39.6818617,-84.1665605
4454-4456,Far Hills Avenue,45429,39.6816483,-84.1665112
4504,Far Hills Avenue,45429,39.6809725,-84.1662678
4508,Far Hills Avenue,45429,39.6807804,-84.1662154
4512,Far Hills Avenue,45429,39.6806002,-84.1661507
4516,Far Hills Avenue,45429,39.6804058,-84.1661139
4600,Far Hills Avenue,45429,39.6802137,-84.1660491
4120,Maricarr Drive,45429,39.6864687,-84.1570758
829,Hollendale Drive,45429,39.6860854,-84.1552669
1224,East Stroop Road,45429,39.6884784,-84.1448245
1224,East Stroop Road,45429,39.6882597,-84.1448225
1320,East Stroop Road,45429,39.6882385,-84.1437225
57,West Wren Circle,45420,39.7164521,-84.1316513
1745,East Stroop Road,45429,39.6885313,-84.1351348
1355,East Dorothy Lane,45429,39.7040947,-84.1425153
832,Hollendale Drive,45429,39.6856979,-84.1550938
820,Hollendale Drive,45429,39.6857234,-84.1558952
812,Hollendale Drive,45429,39.6857218,-84.1564481
808,Hollendale Drive,45429,39.6857250,-84.1567022
816,Hollendale Drive,45429,39.6857344,-84.1561717
824,Hollendale Drive,45429,39.6857013,-84.1556390
828,Hollendale Drive,45429,39.6856873,-84.1553783
804,Hollendale Drive,45429,39.6857485,-84.1569573
728,Hollendale Drive,45429,39.6857907,-84.1576190
716,Hollendale Drive,45429,39.6858079,-84.1581516
720,Hollendale Drive,45429,39.6857828,-84.1578873
721,Hollendale Drive,45429,39.6861968,-84.1579234
609,Larriwood Drive,45429,39.6855075,-84.1609768
617,Larriwood Drive,45429,39.6855133,-84.1606690
633,Larriwood Drive,45429,39.6854904,-84.1601091
709,Larriwood Drive,45429,39.6854561,-84.1589011
641,Larriwood Drive,45429,39.6854997,-84.1597869
616,Larriwood Drive,45429,39.6851264,-84.1608386
626,Larriwood Drive,45429,39.6851403,-84.1602747
642,Larriwood Drive,45429,39.6851044,-84.1598007
700,Larriwood Drive,45429,39.6850817,-84.1591757
625,Larriwood Drive,45429,39.6855069,-84.1604086
4328,Sunray Road,45429,39.6851196,-84.1613840
4336,Sunray Road,45429,39.6848822,-84.1613589
4344,Sunray Road,45429,39.6846731,-84.1614252
4350,Sunray Road,45429,39.6844593,-84.1614541
4352,Sunray Road,45429,39.6841924,-84.1614668
4354,Sunray Road,45429,39.6839677,-84.1615247
4356,Sunray Road,45429,39.6838007,-84.1615280
4358,Sunray Road,45429,39.6835832,-84.1613080
4404,Sunray Road,45429,39.6833637,-84.1615541
4416,Sunray Road,45429,39.6831951,-84.1615627
4428,Sunray Road,45429,39.6830299,-84.1615763
4440,Sunray Road,45429,39.6828668,-84.1615790
4452,Sunray Road,45429,39.6826996,-84.1616005
4464,Sunray Road,45429,39.6825386,-84.1616005
4476,Sunray Road,45429,39.6823632,-84.1616165
4488,Sunray Road,45429,39.6822063,-84.1616380
4492,Sunray Road,45429,39.6820431,-84.1616286
4496,Sunray Road,45429,39.6818481,-84.1616621
601,East David Road,45429,39.6814363,-84.1616246
605,East David Road,45429,39.6813269,-84.1612249
4341-4347,Maxlin Road,45429,39.6820776,-84.1604642
4339,Maxlin Road,45429,39.6820900,-84.1610367
4333,Maxlin Road,45429,39.6823260,-84.1610399
4329,Maxlin Road,45429,39.6825324,-84.1610158
4325,Maxlin Road,45429,39.6827306,-84.1609916
4321,Maxlin Road,45429,39.6829349,-84.1609675
4324,Maxlin Road,45429,39.6827182,-84.1605168
4330,Maxlin Road,45429,39.6824746,-84.1604551
4316,Maxlin Road,45429,39.6831401,-84.1604584
4312,Maxlin Road,45429,39.6833581,-84.1604444
4308,Maxlin Road,45429,39.6835872,-84.1604283
4304,Maxlin Road,45429,39.6838060,-84.1604363
4305,Maxlin Road,45429,39.6838211,-84.1609225
4317,Maxlin Road,45429,39.6831497,-84.1609698
4320,Maxlin Road,45429,39.6829321,-84.1604722
4313,Maxlin Road,45429,39.6833756,-84.1609758
4309,Maxlin Road,45429,39.6835887,-84.1609331
4301,Maxlin Road,45429,39.6840269,-84.1609031
4263,Maxlin Road,45429,39.6844727,-84.1608655
4313,Lamont Drive,45429,39.6835815,-84.1598621
4567,Maxlin Road,45429,39.6842601,-84.1608763
4255,Maxlin Road,45429,39.6849062,-84.1608226
4300,Maxlin Road,45429,39.6840207,-84.1603935
4266,Maxlin Road,45429,39.6842361,-84.1603712
4262,Maxlin Road,45429,39.6844540,-84.1603564
4258,Maxlin Road,45429,39.6846740,-84.1603474
4254,Maxlin Road,45429,39.6848959,-84.1603138
4259,Maxlin Road,45429,39.6846935,-84.1608368
717,East David Road,45429,39.6812837,-84.1592883
800,East David Road,45429,39.6812025,-84.1575626
101-103,East David Road,45429,39.6816169,-84.1660742
112,East David Road,45429,39.6811820,-84.1660037
107-109,East David Road,45429,39.6816110,-84.1657847
201-203,East David Road,45429,39.6816112,-84.1654922
301-303,East David Road,45429,39.6816028,-84.1649102
307-309,East David Road,45429,39.6815956,-84.1646230
208,East David Road,45429,39.6811491,-84.1647287
207-209,East David Road,45429,39.6816041,-84.1651939
4455,East David Road,45429,39.6815927,-84.1643376
300,East David Road,45429,39.6811249,-84.1644673
204,East David Road,45429,39.6811406,-84.1650030
304,East David Road,45429,39.6811448,-84.1642116
404,East David Road,45429,39.6811063,-84.1636092
500,East David Road,45429,39.6810750,-84.1630514
400,East David Road,45429,39.6811150,-84.1638835
408,East David Road,45429,39.6810778,-84.1633257
504,East David Road,45429,39.6810422,-84.1627734
600,East David Road,45429,39.6810093,-84.1617374
505,East David Road,45429,39.6810379,-84.1625010
604,East David Road,45429,39.6809823,-84.1613871
612,East David Road,45429,39.6809466,-84.1607867
608,East David Road,45429,39.6809638,-84.1610906
616,East David Road,45429,39.6809253,-84.1604939
4085,Wilmington Pike,45440,39.6867332,-84.1303597
1950,East Stroop Road,45429-4325,39.6875867,-84.1289953
4025,Wilmington Pike,45440,39.6877665,-84.1315272
4003,Wilmington Pike,45440,39.6881149,-84.1320053
4100,Benfield Drive,45429,39.6871442,-84.1464378
2920,Shroyer Road,45419,39.7045220,-84.1619754
2920,Shroyer Road,45419,39.7042627,-84.1619499
717,Larriwood Drive,45429,39.6854229,-84.1585754
725,Larriwood Drive,45429,39.6853899,-84.1582589
733,Larriwood Drive,45429,39.6853796,-84.1579316
4231,Maricarr Drive,45429,39.6854013,-84.1576434
704,Larriwood Drive,45429,39.6850452,-84.1588163
714,Larriwood Drive,45429,39.6850227,-84.1584602
724,Larriwood Drive,45429,39.6850055,-84.1580896
734,Larriwood Drive,45429,39.6849885,-84.1577425
4230,Maricarr Drive,45429,39.6854141,-84.1571682
805,Larriwood Drive,45429,39.6853512,-84.1568204
809,Larriwood Drive,45429,39.6853576,-84.1564738
813,Larriwood Drive,45429,39.6853333,-84.1561459
817,Larriwood Drive,45429,39.6853218,-84.1558045
821,Larriwood Drive,45429,39.6853094,-84.1554774
4211,Ackerman Boulevard,45429,39.6853417,-84.1551606
804,Larriwood Drive,45429,39.6849733,-84.1568111
816,Larriwood Drive,45429,39.6849461,-84.1558099
820,Larriwood Drive,45429,39.6849378,-84.1554881
812,Larriwood Drive,45429,39.6849553,-84.1561653
808,Larriwood Drive,45429,39.6849551,-84.1564905
4250,Maricarr Drive,45429,39.6849280,-84.1571982
4231,Ackerman Boulevard,45429,39.6849018,-84.1552033
4241,Ackerman Boulevard,45429,39.6845394,-84.1552374
829,Willowdale Avenue,45429,39.6840565,-84.1554023
821,Willowdale Avenue,45429,39.6844899,-84.1555336
817,Willowdale Avenue,45429,39.6845023,-84.1558610
813,Willowdale Avenue,45429,39.6845064,-84.1562043
809,Willowdale Avenue,45429,39.6845147,-84.1565314
805,Willowdale Avenue,45429,39.6845230,-84.1568560
804,Willowdale Avenue,45429,39.6841509,-84.1568548
808,Willowdale Avenue,45429,39.6841514,-84.1565073
812,Willowdale Avenue,45429,39.6841439,-84.1561347
816,Willowdale Avenue,45429,39.6841176,-84.1557753
4270,Maricarr Drive,45429,39.6845720,-84.1572148
4271,Maricarr Drive,45429,39.6845995,-84.1576915
796,Willowdale Avenue,45429,39.6841721,-84.1575481
792,Willowdale Avenue,45429,39.6841821,-84.1579057
800,Willowdale Avenue,45429,39.6841542,-84.1572058
788,Willowdale Avenue,45429,39.6841243,-84.1582486
791,Willowdale Avenue,45429,39.6845745,-84.1579826
787,Willowdale Avenue,45429,39.6845787,-84.1582498
783,Willowdale Avenue,45429,39.6844907,-84.1585460
779,Willowdale Avenue,45429,39.6843223,-84.1587340
775,Willowdale Avenue,45429,39.6840875,-84.1588194
772,Lovetta Drive,45429,39.6838252,-84.1588436
776,Lovetta Drive,45429,39.6835631,-84.1587443
781,Lovetta Drive,45429,39.6837902,-84.1583044
785,Lovetta Drive,45429,39.6837283,-84.1581087
789,Lovetta Drive,45429,39.6837179,-84.1578403
793,Lovetta Drive,45429,39.6837200,-84.1575829
797,Lovetta Drive,45429,39.6837159,-84.1573120
801,Lovetta Drive,45429,39.6837014,-84.1570518
805,Lovetta Drive,45429,39.6837014,-84.1567970
809,Lovetta Drive,45429,39.6836911,-84.1565180
813,Lovetta Drive,45429,39.6836787,-84.1562391
812,Lovetta Drive,45429,39.6833196,-84.1563705
808,Lovetta Drive,45429,39.6833237,-84.1566414
804,Lovetta Drive,45429,39.6833196,-84.1569123
796,Lovetta Drive,45429,39.6833402,-84.1574461
784,Lovetta Drive,45429,39.6833691,-84.1582588
788,Lovetta Drive,45429,39.6833464,-84.1579852
780,Lovetta Drive,45429,39.6833974,-84.1585181
792,Lovetta Drive,45429,39.6833063,-84.1577274
800,Lovetta Drive,45429,39.6833017,-84.1571823
816,Lovetta Drive,45429,39.6833113,-84.1560889
817,Lovetta Drive,45429,39.6836954,-84.1559788
821,Lovetta Drive,45429,39.6836832,-84.1557006
825,Willowdale Avenue,45429,39.6837159,-84.1554907
824,Lovetta Drive,45429,39.6833030,-84.1555498
830,Lovetta Drive,45429,39.6833051,-84.1552896
820,Lovetta Drive,45429,39.6833206,-84.1558278
4325,Lamont Drive,45429,39.6830490,-84.1599010
4319,Lamont Drive,45429,39.6833195,-84.1598788
4318,Lamont Drive,45429,39.6833077,-84.1593953
4312,Lamont Drive,45429,39.6835631,-84.1593639
4324,Lamont Drive,45429,39.6830367,-84.1593987
4306,Lamont Drive,45429,39.6838273,-84.1593397
4268,Lamont Drive,45429,39.6843537,-84.1593022
4300,Lamont Drive,45429,39.6840854,-84.1593263
4307,Lamont Drive,45429,39.6838452,-84.1598753
4257,Lamont Drive,45429,39.6848785,-84.1597762
4263,Lamont Drive,45429,39.6846261,-84.1597742
4269,Lamont Drive,45429,39.6843640,-84.1598011
4301,Lamont Drive,45429,39.6841060,-84.1598199
4256,Lamont Drive,45429,39.6848646,-84.1592687
4262,Lamont Drive,45429,39.6846170,-84.1592709
509,Henrich Drive,45429,39.6806936,-84.1624623
505,Henrich Drive,45429,39.6807198,-84.1627178
501,Henrich Drive,45429,39.6807263,-84.1629690
409,Henrich Drive,45429,39.6807591,-84.1632159
405,Henrich Drive,45429,39.6807624,-84.1634586
401,Henrich Drive,45429,39.6807846,-84.1636999
313,Henrich Drive,45429,39.6807951,-84.1639568
309,Henrich Drive,45429,39.6808246,-84.1642037
305,Henrich Drive,45429,39.6807984,-84.1644421
301,Henrich Drive,45429,39.6808181,-84.1647019
209,Henrich Drive,45429,39.6807951,-84.1649360
205,Winchester Drive,45429,39.6808738,-84.1652170
4506,Winchester Drive,45429,39.6811228,-84.1652809
4501,Sunray Road,45429,39.6809918,-84.1622324
4509,Henrich Drive,45429,39.6807029,-84.1622116
304,Henrich Drive,45429,39.6804183,-84.1639568
308,Henrich Drive,45429,39.6804150,-84.1637098
400,Henrich Drive,45429,39.6803954,-84.1634586
404,Henrich Drive,45429,39.6803855,-84.1631947
408,Henrich Drive,45429,39.6803692,-84.1629264
500,Henrich Drive,45429,39.6803429,-84.1626496
504,Henrich Drive,45429,39.6803331,-84.1623899
508,Henrich Drive,45429,39.6803299,-84.1621132
300,Henrich Drive,45429,39.6804183,-84.1642761
210,Henrich Drive,45429,39.6804216,-84.1648551
4504,Sunray Road,45429,39.6807722,-84.1616959
4508,Sunray Road,45429,39.6806477,-84.1615086
4512,Sunray Road,45429,39.6805068,-84.1612872
4509,Sunray Road,45429,39.6803659,-84.1618151
4501,Winchester Drive,45429,39.6811228,-84.1657620
4505,Winchester Drive,45429,39.6808672,-84.1657578
4509,Winchester Drive,45429,39.6806706,-84.1657153
4517,Winchester Drive,45429,39.6804805,-84.1657493
4000,Ackerman Boulevard,45429,39.6888383,-84.1541613
4008,Ackerman Boulevard,45429,39.6886442,-84.1541818
4016,Ackerman Boulevard,45429,39.6884392,-84.1541818
4058,Ackerman Boulevard,45429,39.6878638,-84.1542253
4066,Ackerman Boulevard,45429,39.6876647,-84.1542176
4100,Ackerman Boulevard,45429,39.6872626,-84.1542561
4108,Ackerman Boulevard,45429,39.6870636,-84.1542791
4150,Ackerman Boulevard,45429,39.6865117,-84.1543149
4166,Ackerman Boulevard,45429,39.6860749,-84.1543320
4210,Ackerman Boulevard,45429,39.6853586,-84.1544653
4230,Ackerman Boulevard,45429,39.6848562,-84.1545352
4240,Ackerman Boulevard,45429,39.6845315,-84.1545399
4300,Ackerman Boulevard,45429,39.6840299,-84.1546081
4316,Ackerman Boulevard,45429,39.6835376,-84.1544763
4322,Ackerman Boulevard,45429,39.6831296,-84.1542893
4331,Ackerman Boulevard,45429,39.6832065,-84.1550218
4308,Ackerman Boulevard,45429,39.6837426,-84.1545326
4324,Ackerman Boulevard,45429,39.6833346,-84.1543176
904,East Stroop Road,45429,39.6888176,-84.1537925
908,East Stroop Road,45429,39.6888077,-84.1535236
912,East Stroop Road,45429,39.6888018,-84.1532726
916,East Stroop Road,45429,39.6887881,-84.1530165
920,East Stroop Road,45429,39.6887841,-84.1527604
924,East Stroop Road,45429,39.6887546,-84.1524914
928,East Stroop Road,45429,39.6887428,-84.1522303
932,East Stroop Road,45429,39.6887506,-84.1519793
929,East Stroop Road,45429,39.6892808,-84.1523070
933,East Stroop Road,45429,39.6892590,-84.1520407
937,East Stroop Road,45429,39.6892590,-84.1517513
941,East Stroop Road,45429,39.6892473,-84.1514824
945,East Stroop Road,45429,39.6892393,-84.1512160
940,East Stroop Road,45429,39.6887309,-84.1514619
944,East Stroop Road,45429,39.6887013,-84.1512058
948,East Stroop Road,45429,39.6887131,-84.1509318
952,East Stroop Road,45429,39.6886836,-84.1506449
936,East Stroop Road,45429,39.6886965,-84.1517202
949,East Stroop Road,45429,39.6892483,-84.1509582
1004,East Stroop Road,45429,39.6886226,-84.1498177
1008,East Stroop Road,45429,39.6886343,-84.1495667
1012,East Stroop Road,45429,39.6886126,-84.1493004
1016,East Stroop Road,45429,39.6886206,-84.1490519
1020,East Stroop Road,45429,39.6885949,-84.1487779
1024,East Stroop Road,45429,39.6885811,-84.1485090
1009,East Stroop Road,45429,39.6891823,-84.1494822
1005,East Stroop Road,45429,39.6891803,-84.1497562
1001,East Stroop Road,45429,39.6891954,-84.1500501
1000,East Stroop Road,45429,39.6886416,-84.1501009
1032,East Stroop Road,45429,39.6885791,-84.1479865
1100,East Stroop Road,45429,39.6885436,-84.1477073
1108,East Stroop Road,45429,39.6885402,-84.1470127
1104,East Stroop Road,45429,39.6885319,-84.1473949
1028,East Stroop Road,45429,39.6885647,-84.1482490
1101,East Stroop Road,45429,39.6890915,-84.1475204
1029,East Stroop Road,45429,39.6891094,-84.1480941
1021,East Stroop Road,45429,39.6891468,-84.1486805
1013,East Stroop Road,45429,39.6891793,-84.1492249
1017,East Stroop Road,45429,39.6891612,-84.1489591
1045,Greenridge Drive,45429,39.6882263,-84.1482606
1041,Greenridge Drive,45429,39.6882501,-84.1485269
1037,Greenridge Drive,45429,39.6882401,-84.1487933
1033,Greenridge Drive,45429,39.6882520,-84.1490647
1029,Greenridge Drive,45429,39.6882795,-84.1493336
1032,Greenridge Drive,45429,39.6878735,-84.1490878
1036,Greenridge Drive,45429,39.6878735,-84.1488188
1040,Greenridge Drive,45429,39.6878420,-84.1485422
1044,Greenridge Drive,45429,39.6878244,-84.1483015
1100,Greenridge Drive,45429,39.6878164,-84.1480351
1101,Greenridge Drive,45429,39.6882441,-84.1479968
1105,Greenridge Drive,45429,39.6882225,-84.1477163
1104,Greenridge Drive,45429,39.6878224,-84.1477432
1408,Greenridge Drive,45429,39.6877928,-84.1474282
1112,Greenridge Drive,45429,39.6877948,-84.1470594
1113,Greenridge Drive,45429,39.6882007,-84.1470287
1109,Greenridge Drive,45429,39.6882106,-84.1474154
1025,Greenridge Drive,45429,39.6882756,-84.1495949
1021,Greenridge Drive,45429,39.6883013,-84.1498689
1024,Greenridge Drive,45429,39.6878993,-84.1496154
1028,Greenridge Drive,45429,39.6878696,-84.1493516
1016,Greenridge Drive,45429,39.6879170,-84.1501301
1020,Greenridge Drive,45429,39.6878564,-84.1498777
4023,Mengel Drive,45429,39.6883505,-84.1506219
1009,Greenridge Drive,45429,39.6883268,-84.1508806
1005,Greenridge Drive,45429,39.6882504,-84.1511522
1012,Greenridge Drive,45429,39.6878683,-84.1505380
1000,Greenridge Drive,45429,39.6879153,-84.1509489
963,Renwood Drive,45429,39.6881392,-84.1514520
957,Renwood Drive,45429,39.6882441,-84.1517513
951,Renwood Drive,45429,39.6883150,-84.1520074
945,Renwood Drive,45429,39.6883505,-84.1522609
939,Renwood Drive,45429,39.6883781,-84.1525171
933,Renwood Drive,45429,39.6883919,-84.1527783
4108,Renwood Drive,45429,39.6876824,-84.1507524
4117,Renwood Drive,45429,39.6875327,-84.1505655
4140,Renwood Drive,45429,39.6868966,-84.1501433
4160,Renwood Drive,45429,39.6861471,-84.1499893
4165,Renwood Drive,45429,39.6860216,-84.1504903
4157,Renwood Drive,45429,39.6862611,-84.1505462
4149,Renwood Drive,45429,39.6864687,-84.1505543
4141,Renwood Drive,45429,39.6866816,-84.1506079
4133,Renwood Drive,45429,39.6868843,-84.1506603
4125,Renwood Drive,45429,39.6870956,-84.1507926
4116,Renwood Drive,45429,39.6872823,-84.1509343
4109,Renwood Drive,45429,39.6874341,-84.1511008
4101,Renwood Drive,45429,39.6875701,-84.1513108
966,Renwood Drive,45429,39.6877100,-84.1515234
962,Renwood Drive,45429,39.6878027,-84.1517539
956,Renwood Drive,45429,39.6878962,-84.1520177
948,Renwood Drive,45429,39.6879485,-84.1522866
940,Renwood Drive,45429,39.6879898,-84.1525376
932,Renwood Drive,45429,39.6880155,-84.1528474
927,Renwood Drive,45429,39.6884116,-84.1530498
921,Renwood Drive,45429,39.6884096,-84.1533084
924,Renwood Drive,45429,39.6880686,-84.1531638
915,Renwood Drive,45429,39.6884235,-84.1535595
909,Renwood Drive,45429,39.6884333,-84.1538181
906,Renwood Drive,45429,39.6880904,-84.1537840
900,Renwood Drive,45429,39.6881042,-84.1541587
4075,Ackerman Boulevard,45429,39.6872488,-84.1537694
4109,Vinita Drive,45429,39.6870498,-84.1537873
4108,Vinita Drive,45429,39.6870557,-84.1532829
4100,Vinita Drive,45429,39.6872528,-84.1532701
4066,Vinita Drive,45429,39.6876213,-84.1532495
4058,Vinita Drive,45429,39.6878321,-84.1532201
4059,Vinita Drive,45429,39.6876483,-84.1537784
4116,Ackerman Boulevard,45429,39.6868330,-84.1533007
955,Kimberly Drive,45429,39.6876359,-84.1528427
959,Kimberly Drive,45429,39.6876172,-84.1525717
954,Kimberly Drive,45429,39.6872176,-84.1528889
963,Kimberly Drive,45429,39.6875524,-84.1523020
958,Kimberly Drive,45429,39.6871956,-84.1526042
962,Kimberly Drive,45429,39.6871700,-84.1523634
966,Kimberly Drive,45429,39.6870852,-84.1521381
967,Kimberly Drive,45429,39.6874972,-84.1520509
971,Kimberly Drive,45429,39.6873769,-84.1518282
4100,Kimberly Drive,45429,39.6872429,-84.1515976
4104,Kimberly Drive,45429,39.6870912,-84.1514082
4108,Kimberly Drive,45429,39.6869296,-84.1512672
4101,Kimberly Drive,45429,39.6869690,-84.1519408
4112,Kimberly Drive,45429,39.6867108,-84.1511392
4116,Kimberly Drive,45429,39.6865059,-84.1510496
4120,Kimberly Drive,45429,39.6862850,-84.1510137
4117,Kimberly Drive,45429,39.6863009,-84.1515285
4105,Kimberly Drive,45429,39.6868036,-84.1517913
4109,Kimberly Drive,45429,39.6866721,-84.1516899
4121,Kimberly Drive,45429,39.6860499,-84.1515130
4124,Kimberly Drive,45429,39.6860367,-84.1510573
956,Hollendale Drive,45429,39.6860142,-84.1507756
941,Hollendale Drive,45429,39.6860092,-84.1517974
957,Hollendale Drive,45429,39.6855854,-84.1507730
952,Hollendale Drive,45429,39.6855932,-84.1510598
948,Hollendale Drive,45429,39.6856150,-84.1512929
944,Hollendale Drive,45429,39.6856189,-84.1515387
940,Hollendale Drive,45429,39.6856248,-84.1517872
936,Hollendale Drive,45429,39.6856229,-84.1520381
932,Hollendale Drive,45429,39.6856346,-84.1523199
928,Hollendale Drive,45429,39.6856425,-84.1525709
924,Hollendale Drive,45429,39.6856504,-84.1528193
925,Hollendale Drive,45429,39.6860111,-84.1525888
921,Hollendale Drive,45429,39.6860367,-84.1529397
920,Hollendale Drive,45429,39.6856366,-84.1530856
916,Hollendale Drive,45429,39.6856643,-84.1533597
917,Hollendale Drive,45429,39.6860387,-84.1531958
913,Hollendale Drive,45429,39.6860427,-84.1534493
909,Hollendale Drive,45429,39.6860506,-84.1537208
905,Hollendale Drive,45429,39.6860604,-84.1539641
912,Hollendale Drive,45429,39.6856485,-84.1536132
908,Hollendale Drive,45429,39.6856781,-84.1538642
904,Hollendale Drive,45429,39.6856859,-84.1541306
900,Hollendale Drive,45429,39.6856760,-84.1543918
904,Fairacres Drive,45429,39.6864920,-84.1539487
901,Fairacres Drive,45429,39.6868370,-84.1542304
907,Fairacres Drive,45429,39.6868133,-84.1538488
912,Fairacres Drive,45429,39.6864801,-84.1536875
916,Fairacres Drive,45429,39.6864724,-84.1534186
920,Fairacres Drive,45429,39.6864664,-84.1531676
924,Fairacres Drive,45429,39.6864487,-84.1529038
931,Fairacres Drive,45429,39.6868310,-84.1529038
935,Fairacres Drive,45429,39.6868054,-84.1526323
939,Fairacres Drive,45429,39.6867246,-84.1522865
932,Fairacres Drive,45429,39.6862004,-84.1525580
947,Fairacres Drive,45429,39.6863521,-84.1520535
951,Fairacres Drive,45429,39.6860466,-84.1520587
928,Fairacres Drive,45429,39.6863667,-84.1526413
943,Fairacres Drive,45429,39.6865603,-84.1520996
"3900,3914",Benfield Drive,45429,39.6904811,-84.1464919
3942,Benfield Drive,45429,39.6901673,-84.1464913
1107,Kenosha Road,45429,39.6898145,-84.1470659
1081,Kenosha Road,45429,39.6898477,-84.1480394
1071,Kenosha Road,45429,39.6898714,-84.1483476
1061,Kenosha Road,45429,39.6898832,-84.1486003
1051,Kenosha Road,45429,39.6898999,-84.1488559
1021,Kenosha Road,45429,39.6899140,-84.1496478
1132,Cloverfield Avenue,45429,39.6911398,-84.1469919
3915,Benfield Drive,45429,39.6904428,-84.1469549
3929,Benfield Drive,45429,39.6902389,-84.1469920
3943,Benfield Drive,45429,39.6900089,-84.1470011
3901,Benfield Drive,45429,39.6906632,-84.1469751
1024,Gardner Road,45429,39.6919056,-84.1487204
1030,Gardner Road,45429,39.6919056,-84.1484339
1036,Gardner Road,45429,39.6918867,-84.1481812
1042,Gardner Road,45429,39.6919009,-84.1478638
1100,Gardner Road,45429,39.6918676,-84.1472969
1106,Gardner Road,45429,39.6918487,-84.1469857
1001,Kenosha Road,45429,39.6899330,-84.1499867
991,Kenosha Road,45429,39.6899592,-84.1505998
971,Kenosha Road,45429,39.6899686,-84.1509419
3846,Traine Drive,45429,39.6911730,-84.1509049
962,East Stroop Road,45429,39.6896130,-84.1514317
956,East Stroop Road,45429,39.6896200,-84.1517029
950,East Stroop Road,45429,39.6896366,-84.1519493
944,Kenosha Road,45429,39.6896390,-84.1522359
934,East Stroop Road,45429,39.6896462,-84.1524978
961,Kenosha Road,45429,39.6899971,-84.1515334
951,Kenosha Road,45429,39.6900137,-84.1519370
933,Kenosha Road,45429,39.6900730,-84.1527258
925,Kenosha Road,45429,39.6900397,-84.1530708
911,Kenosha Road,45429,39.6900587,-84.1536531
504,East Dorothy Lane,45419,39.7036408,-84.1618544
1005,Chateau Drive,45429,39.6874983,-84.1501820
1009,Chateau Drive,45429,39.6875344,-84.1499135
1013,Chateau Drive,45429,39.6875234,-84.1496392
1017,Chateau Drive,45429,39.6875000,-84.1493810
1021,Chateau Drive,45429,39.6874843,-84.1491249
1025,Chateau Drive,45429,39.6874671,-84.1488464
1022,Chateau Drive,45429,39.6870991,-84.1489324
1014,Chateau Drive,45429,39.6871010,-84.1495477
1029,Chateau Drive,45429,39.6874530,-84.1485578
1030,Chateau Drive,45429,39.6869916,-84.1483098
1033,Chateau Drive,45429,39.6874014,-84.1482731
1037,Chateau Drive,45429,39.6873138,-84.1480211
1108,Chateau Drive,45429,39.6865428,-84.1474293
1028,Swango Drive,45429,39.6865895,-84.1480374
1024,Swango Drive,45429,39.6864346,-84.1482529
1020,Swango Drive,45429,39.6863345,-84.1484947
1016,Swango Drive,45429,39.6862511,-84.1488423
1012,Swango Drive,45429,39.6862688,-84.1491250
1008,Swango Drive,45429,39.6862735,-84.1493871
1004,Swango Drive,45429,39.6862860,-84.1496452
1013,Swango Drive,45429,39.6866803,-84.1491026
1009,Swango Drive,45429,39.6866958,-84.1493667
1001,Hollendale Drive,45429,39.6859563,-84.1499608
1009,Hollendale Drive,45429,39.6859575,-84.1494013
1013,Hollendale Drive,45429,39.6859403,-84.1491411
1005,Hollendale Drive,45429,39.6859748,-84.1496717
1004,Hollendale Drive,45429,39.6855586,-84.1496778
1008,Hollendale Drive,45429,39.6855696,-84.1494095
1017,Hollendale Drive,45429,39.6859357,-84.1488586
1021,Hollendale Drive,45429,39.6859559,-84.1485719
1101,Hollendale Drive,45429,39.6860029,-84.1483077
1107,Hollendale Drive,45429,39.6860952,-84.1480638
1113,Hollendale Drive,45429,39.6861953,-84.1478381
1117,Hollendale Drive,45429,39.6863283,-84.1475861
1020,Hollendale Drive,45429,39.6855701,-84.1486059
1100,Hollendale Drive,45429,39.6855884,-84.1483281
1104,Hollendale Drive,45429,39.6856384,-84.1480598
1108,Hollendale Drive,45429,39.6857495,-84.1478097
1200,Hollendale Drive,45429,39.6862993,-84.1468154
1217,Larriwood Drive,45429,39.6850824,-84.1454316
1113,Larriwood Drive,45429,39.6851333,-84.1474100
1116,Larriwood Drive,45429,39.6847310,-84.1471729
1120,Larriwood Drive,45429,39.6847214,-84.1469163
1124,Larriwood Drive,45429,39.6847092,-84.1466668
1200,Larriwood Drive,45429,39.6847092,-84.1464102
1204,Larriwood Drive,45429,39.6846997,-84.1461766
1208,Larriwood Drive,45429,39.6846969,-84.1459165
1216,Larriwood Drive,45429,39.6846902,-84.1454493
1220,Larriwood Drive,45429,39.6846793,-84.1452316
1112,Larriwood Drive,45429,39.6847269,-84.1474152
1108,Larriwood Drive,45429,39.6847351,-84.1476789
1104,Larriwood Drive,45429,39.6847460,-84.1479355
1109,Larriwood Drive,45429,39.6851396,-84.1476578
1105,Larriwood Drive,45429,39.6851450,-84.1479231
1101,Larriwood Drive,45429,39.6851491,-84.1481816
1025,Larriwood Drive,45429,39.6851559,-84.1484346
1021,Larriwood Drive,45429,39.6851722,-84.1487018
1016,Larriwood Drive,45429,39.6847596,-84.1489601
1012,Larriwood Drive,45429,39.6847691,-84.1492186
1274,Westcliff Court,45409,39.7057208,-84.1981420
605,Orangewood Drive,45429,39.6806215,-84.1610715
609,Orangewood Drive,45429,39.6806646,-84.1608006
608,Orangewood Drive,45429,39.6805173,-84.1606278
604,Orangewood Drive,45429,39.6803159,-84.1606465
505,Orangewood Drive,45429,39.6800500,-84.1618841
501,Orangewood Drive,45429,39.6800177,-84.1621502
417,Orangewood Drive,45429,39.6800356,-84.1624445
413,Orangewood Drive,45429,39.6800536,-84.1627153
409,Orangewood Drive,45429,39.6800499,-84.1630143
405,Orangewood Drive,45429,39.6800715,-84.1633131
321,Orangewood Drive,45429,39.6800859,-84.1638922
504,Orangewood Drive,45429,39.6796690,-84.1619495
500,Orangewood Drive,45429,39.6796761,-84.1622390
416,Orangewood Drive,45429,39.6796870,-84.1625566
412,Orangewood Drive,45429,39.6797014,-84.1628507
408,Orangewood Drive,45429,39.6797229,-84.1631684
404,Orangewood Drive,45429,39.6797229,-84.1634672
400,Orangewood Drive,45429,39.6797301,-84.1637661
320,Orangewood Drive,45429,39.6797445,-84.1640837
505,Orangewood Drive,45429,39.6796547,-84.1616880
512,Orangewood Drive,45429,39.6797912,-84.1614872
316,Orangewood Drive,45429,39.6797625,-84.1643965
312,Orangewood Drive,45429,39.6798596,-84.1646114
308,Orangewood Drive,45429,39.6800320,-84.1647514
304,Orangewood Drive,45429,39.6802333,-84.1648075
311,Orangewood Drive,45429,39.6801902,-84.1642331
4401,Wing View Lane,45429,39.6829046,-84.1550092
4400,Wing View Lane,45429,39.6825254,-84.1550588
4409,Wing View Lane,45429,39.6829171,-84.1553222
4417,Wing View Lane,45429,39.6828733,-84.1555946
4408,Wing View Lane,45429,39.6824571,-84.1553791
4425,Wing View Lane,45429,39.6827294,-84.1558222
4433,Wing View Lane,45429,39.6825729,-84.1560052
4441,Wing View Lane,45429,39.6823351,-84.1560215
4449,Wing View Lane,45429,39.6821380,-84.1560255
4473,Wing View Lane,45429,39.6814155,-84.1560902
841,East David Road,45429,39.6809471,-84.1561964
4481,Wing View Lane,45429,39.6812059,-84.1561080
4448,Wing View Lane,45429,39.6813529,-84.1556125
4440,Wing View Lane,45429,39.6815708,-84.1555594
4456,Wing View Lane,45429,39.6811567,-84.1556231
4409,Ackerman Boulevard,45429,39.6823008,-84.1550108
4417,Ackerman Boulevard,45429,39.6821128,-84.1550179
4433,Ackerman Boulevard,45429,39.6817178,-84.1550533
4441,Ackerman Boulevard,45429,39.6815187,-84.1550754
4449,Ackerman Boulevard,45429,39.6813066,-84.1551134
855,East David Road,45429,39.6809198,-84.1551523
851,East David Road,45429,39.6809432,-84.1555749
4456,Ackerman Boulevard,45429,39.6809583,-84.1544138
4432,Ackerman Boulevard,45429,39.6816715,-84.1543596
4424,Ackerman Boulevard,45429,39.6818677,-84.1543419
4416,Ackerman Boulevard,45429,39.6820529,-84.1543277
4408,Ackerman Boulevard,45429,39.6822708,-84.1543065
4440,Ackerman Boulevard,45429,39.6814864,-84.1543631
909,Larriwood Drive,45429,39.6852830,-84.1538079
917,Larriwood Drive,45429,39.6852712,-84.1532656
921,Larriwood Drive,45429,39.6852617,-84.1529544
925,Larriwood Drive,45429,39.6852748,-84.1526819
929,Larriwood Drive,45429,39.6852569,-84.1524245
932,Larriwood Drive,45429,39.6848397,-84.1520794
904,Larriwood Drive,45429,39.6848729,-84.1541252
908,Larriwood Drive,45429,39.6848895,-84.1538233
912,Larriwood Drive,45429,39.6848776,-84.1535460
913,Larriwood Drive,45429,39.6852831,-84.1535460
916,Larriwood Drive,45429,39.6848823,-84.1532872
920,Larriwood Drive,45429,39.6848658,-84.1529729
936,Larriwood Drive,45429,39.6848349,-84.1518206
940,Larriwood Drive,45429,39.6848160,-84.1515525
944,Larriwood Drive,45429,39.6848160,-84.1512691
948,Larriwood Drive,45429,39.6848136,-84.1509702
928,Larriwood Drive,45429,39.6848468,-84.1524060
924,Larriwood Drive,45429,39.6848516,-84.1527172
933,Larriwood Drive,45429,39.6852475,-84.1521287
967,Willowdale Avenue,45429,39.6843868,-84.1506251
937,Larriwood Drive,45429,39.6852452,-84.1517929
941,Larriwood Drive,45429,39.6852332,-84.1515340
945,Larriwood Drive,45429,39.6852191,-84.1512475
949,Larriwood Drive,45429,39.6852143,-84.1509579
937,Willowdale Avenue,45429,39.6844390,-84.1521133
931,Willowdale Avenue,45429,39.6844342,-84.1524122
925,Willowdale Avenue,45429,39.6844508,-84.1526925
921,Willowdale Avenue,45429,39.6844555,-84.1529883
917,Willowdale Avenue,45429,39.6844603,-84.1532656
913,Willowdale Avenue,45429,39.6844579,-84.1535460
909,Willowdale Avenue,45429,39.6844674,-84.1538294
943,Willowdale Avenue,45429,39.6844413,-84.1518267
949,Willowdale Avenue,45429,39.6844057,-84.1515341
955,Willowdale Avenue,45429,39.6844224,-84.1512568
961,Willowdale Avenue,45429,39.6844152,-84.1509487
960,Willowdale Avenue,45429,39.6839908,-84.1509856
954,Willowdale Avenue,45429,39.6839813,-84.1512660
948,Willowdale Avenue,45429,39.6839932,-84.1515587
942,Willowdale Avenue,45429,39.6839979,-84.1518360
936,Willowdale Avenue,45429,39.6840027,-84.1521318
930,Willowdale Avenue,45429,39.6840264,-84.1524399
924,Willowdale Avenue,45429,39.6840216,-84.1527203
920,Willowdale Avenue,45429,39.6840335,-84.1530068
916,Willowdale Avenue,45429,39.6840382,-84.1532872
912,Willowdale Avenue,45429,39.6840501,-84.1535737
908,Willowdale Avenue,45429,39.6840501,-84.1538695
905,Willowdale Avenue,45429,39.6844911,-84.1541345
904,Willowdale Avenue,45429,39.6840744,-84.1541352
955,Rio Lane,45429,39.6835765,-84.1506844
951,Rio Lane,45429,39.6835617,-84.1509394
947,Rio Lane,45429,39.6835545,-84.1512290
948,Rio Lane,45429,39.6832036,-84.1512044
944,Rio Lane,45429,39.6832108,-84.1514632
952,Rio Lane,45429,39.6831935,-84.1509418
943,Rio Lane,45429,39.6835711,-84.1515002
939,Rio Lane,45429,39.6835996,-84.1517928
935,Rio Lane,45429,39.6836067,-84.1521318
940,Rio Lane,45429,39.6832036,-84.1517682
936,Rio Lane,45429,39.6832131,-84.1520640
924,Rio Lane,45429,39.6832155,-84.1528835
931,Rio Lane,45429,39.6835925,-84.1524121
932,Rio Lane,45429,39.6832084,-84.1523413
928,Rio Lane,45429,39.6832416,-84.1526001
927,Rio Lane,45429,39.6836280,-84.1527079
923,Rio Lane,45429,39.6836257,-84.1529821
924,Malone Avenue,45429,39.6817382,-84.1530030
925,Lawnwood Avenue,45429,39.6828645,-84.1526987
929,Lawnwood Avenue,45429,39.6828622,-84.1523937
941,Lawnwood Avenue,45429,39.6828254,-84.1515848
933,Lawnwood Avenue,45429,39.6828621,-84.1521103
926,Lawnwood Avenue,45429,39.6824448,-84.1526401
930,Lawnwood Avenue,45429,39.6824662,-84.1523782
938,Lawnwood Avenue,45429,39.6824496,-84.1518360
942,Lawnwood Avenue,45429,39.6824424,-84.1515710
946,Lawnwood Avenue,45429,39.6824306,-84.1512876
950,Lawnwood Avenue,45429,39.6824324,-84.1510141
921,Malone Avenue,45429,39.6821076,-84.1530706
925,Malone Avenue,45429,39.6821034,-84.1527480
929,Malone Avenue,45429,39.6821058,-84.1524429
933,Malone Avenue,45429,39.6821058,-84.1521379
937,Malone Avenue,45429,39.6821010,-84.1518329
928,Malone Avenue,45429,39.6817288,-84.1527080
936,Malone Avenue,45429,39.6817074,-84.1521595
940,Malone Avenue,45429,39.6817074,-84.1518637
956,Malone Avenue,45429,39.6816788,-84.1507739
932,Malone Avenue,45429,39.6817311,-84.1524306
948,Malone Avenue,45429,39.6817003,-84.1513030
952,Malone Avenue,45429,39.6816932,-84.1510411
949,Malone Avenue,45429,39.6820750,-84.1510164
953,Malone Avenue,45429,39.6820631,-84.1507515
941,Malone Avenue,45429,39.6820891,-84.1515680
945,Malone Avenue,45429,39.6820968,-84.1512956
905,East David Road,45429,39.6808882,-84.1540571
909,East David Road,45429,39.6808846,-84.1537815
913,East David Road,45429,39.6808952,-84.1534543
917,East David Road,45429,39.6810045,-84.1531745
921,East David Road,45429,39.6810391,-84.1528568
925,East David Road,45429,39.6811865,-84.1525206
929,East David Road,45429,39.6812476,-84.1521423
933,East David Road,45429,39.6812967,-84.1517874
937,East David Road,45429,39.6813087,-84.1514698
941,East David Road,45429,39.6813482,-84.1511103
945,East David Road,45429,39.6813806,-84.1508068
"1013,1021",East David Road,45429,39.6814236,-84.1498634
4440,Renwood Drive,45429,39.6814308,-84.1502603
"1029,1035",East David Road,45429,39.6814792,-84.1495238
"1041,1047",East David Road,45429,39.6814883,-84.1492143
"1053,1059",East David Road,45429,39.6815135,-84.1488967
"1065,1071",East David Road,45429,39.6815351,-84.1485885
"1077,1083",East David Road,45429,39.6815603,-84.1482709
"1089,1095",East David Road,45429,39.6815745,-84.1479441
"1101,1107",East David Road,45429,39.6816070,-84.1476265
"1113,1119",East David Road,45429,39.6816429,-84.1473276
"1125,1131",East David Road,45429,39.6816573,-84.1470054
"1137,1143",East David Road,45429,39.6816788,-84.1466878
"1149,1155",East David Road,45429,39.6817003,-84.1463562
"1161,1167",East David Road,45429,39.6817363,-84.1460387
"1173,1179",East David Road,45429,39.6817471,-84.1457211
"1185,1191",East David Road,45429,39.6817364,-84.1453802
4508,Renwood Drive,45429,39.6808910,-84.1501598
4524,Renwood Drive,45429,39.6804245,-84.1500876
4516,Renwood Drive,45429,39.6806689,-84.1501389
4532,Renwood Drive,45429,39.6801369,-84.1500225
4540,Renwood Drive,45429,39.6798746,-84.1500736
4608,Renwood Drive,45429,39.6793211,-84.1499989
4600,Renwood Drive,45429,39.6796040,-84.1500084
4650,Renwood Drive,45429,39.6786225,-84.1499341
4717,Renwood Drive,45429,39.6778721,-84.1505871
4716,Renwood Drive,45429,39.6778654,-84.1499708
4724,Renwood Drive,45429,39.6776426,-84.1499849
4725,Renwood Drive,45429,39.6776569,-84.1505452
4708,Renwood Drive,45429,39.6780915,-84.1499184
1075,Pepper Hill Drive,45429,39.6774228,-84.1499511
1059,Pepper Hill Drive,45429,39.6774377,-84.1505966
850,East David Road,45429,39.6804420,-84.1556298
4600,Sunray Road,45429,39.6801945,-84.1608543
4604,Sunray Road,45429,39.6799860,-84.1607118
4608,Sunray Road,45429,39.6797703,-84.1606932
4612,Sunray Road,45429,39.6795483,-84.1607275
4616,Sunray Road,45429,39.6793290,-84.1607508
4620,Sunray Road,45429,39.6790954,-84.1607788
4624,Sunray Road,45429,39.6788726,-84.1608069
4628,Sunray Road,45429,39.6785347,-84.1607089
4625,Sunray Road,45429,39.6784485,-84.1612226
4621,Sunray Road,45429,39.6790163,-84.1612085
4613,Sunray Road,45429,39.6793039,-84.1611805
4609,Sunray Road,45429,39.6795304,-84.1611665
4605,Sunray Road,45429,39.6797172,-84.1611384
4601,Sunray Road,45429,39.6799695,-84.1612181
1001,Rio Lane,45429,39.6835922,-84.1501638
1005,Rio Lane,45429,39.6835742,-84.1498602
1009,Rio Lane,45429,39.6835850,-84.1495427
1000,Rio Lane,45429,39.6831969,-84.1501871
1004,Rio Lane,45429,39.6832077,-84.1499163
1008,Rio Lane,45429,39.6831753,-84.1496315
1013,Rio Lane,45429,39.6835492,-84.1492581
1017,Rio Lane,45429,39.6835563,-84.1489356
1021,Rio Lane,45429,39.6835347,-84.1486368
1025,Rio Lane,45429,39.6835347,-84.1483425
1016,Rio Lane,45429,39.6831358,-84.1491224
1020,Rio Lane,45429,39.6831789,-84.1487908
1024,Rio Lane,45429,39.6831538,-84.1484827
1050,Rio Lane,45429,39.6831466,-84.1481978
1100,Rio Lane,45429,39.6831502,-84.1479316
1108,Rio Lane,45429,39.6831286,-84.1474319
1104,Rio Lane,45429,39.6831430,-84.1476794
4351,Carlo Drive,45429,39.6830854,-84.1471657
1005,Willowdale Avenue,45429,39.6843757,-84.1497809
1009,Willowdale Avenue,45429,39.6843649,-84.1495007
1013,Willowdale Avenue,45429,39.6843568,-84.1491795
1004,Willowdale Avenue,45429,39.6839660,-84.1498883
1012,Willowdale Avenue,45429,39.6839588,-84.1493233
1020,Willowdale Avenue,45429,39.6839588,-84.1488002
1017,Willowdale Avenue,45429,39.6843577,-84.1488983
1105,Willowdale Avenue,45429,39.6843254,-84.1477307
1109,Willowdale Avenue,45429,39.6843146,-84.1474740
1113,Willowdale Avenue,45429,39.6843146,-84.1472217
1117,Willowdale Avenue,45429,39.6843074,-84.1469603
1121,Willowdale Avenue,45429,39.6842966,-84.1467081
1125,Willowdale Avenue,45429,39.6842894,-84.1464606
1129,Willowdale Avenue,45429,39.6842859,-84.1462036
1008,Willowdale Avenue,45429,39.6839552,-84.1496035
1016,Willowdale Avenue,45429,39.6839408,-84.1490851
1108,Willowdale Avenue,45429,39.6839265,-84.1474599
1024,Willowdale Avenue,45429,39.6839444,-84.1485340
1112,Willowdale Avenue,45429,39.6839157,-84.1471891
1116,Willowdale Avenue,45429,39.6839229,-84.1469322
1120,Willowdale Avenue,45429,39.6839085,-84.1466801
1133,Willowdale Avenue,45429,39.6842750,-84.1459701
1201,Willowdale Avenue,45429,39.6842750,-84.1457367
1200,Willowdale Avenue,45429,39.6838653,-84.1456292
1208,Willowdale Avenue,45429,39.6838761,-84.1453490
1124,Willowdale Avenue,45429,39.6838798,-84.1464238
4329,Karen Drive,45429,39.6838222,-84.1461453
1205,Willowdale Avenue,45429,39.6842711,-84.1455244
1209,Willowdale Avenue,45429,39.6842786,-84.1453070
4364,Renwood Drive,45429,39.6826270,-84.1501865
4408,Renwood Drive,45429,39.6821309,-84.1502292
4400,Renwood Drive,45429,39.6823744,-84.1502130
4358,Renwood Drive,45429,39.6828657,-84.1501916
4416,Renwood Drive,45429,39.6819045,-84.1502501
4424,Renwood Drive,45429,39.6816678,-84.1502543
4359,Sunnydale Place,45429,39.6828865,-84.1496619
4367,Sunnydale Place,45429,39.6826810,-84.1496534
4401,Sunnydale Place,45429,39.6824531,-84.1496895
4409,Sunnydale Place,45429,39.6822228,-84.1498017
4417,Sunnydale Place,45429,39.6819276,-84.1498094
4424,Sunnydale Place,45429,39.6817897,-84.1495942
4416,Sunnydale Place,45429,39.6818836,-84.1492439
4408,Sunnydale Place,45429,39.6821171,-84.1491764
4400,Sunnydale Place,45429,39.6823920,-84.1491789
1017,Carlo Drive,45429,39.6827800,-84.1491373
1021,Carlo Drive,45429,39.6827978,-84.1488523
1109,Carlo Drive,45429,39.6827310,-84.1472474
1037,Carlo Drive,45429,39.6827337,-84.1475660
1033,Carlo Drive,45429,39.6827773,-84.1478809
4401,Vera Place,45429,39.6823660,-84.1476367
1024,Carlo Drive,45429,39.6823932,-84.1486029
1020,Carlo Drive,45429,39.6823987,-84.1489002
4416,Vera Place,45429,39.6819929,-84.1470598
1025,Carlo Drive,45429,39.6827855,-84.1485263
1029,Carlo Drive,45429,39.6827803,-84.1482136
4350,Carlo Drive,45429,39.6830600,-84.1466629
4358,Carlo Drive,45429,39.6828201,-84.1466659
4366,Carlo Drive,45429,39.6825928,-84.1467401
4334,Miriam Drive,45429,39.6835501,-84.1475182
1109,Rio Lane,45429,39.6834882,-84.1472226
1113,Rio Lane,45429,39.6834855,-84.1469466
1117,Rio Lane,45429,39.6834801,-84.1466953
1121,Rio Lane,45429,39.6834772,-84.1464405
1124,Rio Lane,45429,39.6830959,-84.1464051
4337,Karen Drive,45429,39.6835072,-84.1461535
4329,North Marshall Road,45429,39.6838178,-84.1450991
4342,Karen Drive,45429,39.6833520,-84.1456477
4346,Karen Drive,45429,39.6831477,-84.1456654
4350,Karen Drive,45429,39.6829598,-84.1456725
4367,Karen Drive,45429,39.6825703,-84.1461750
4359,Karen Drive,45429,39.6827875,-84.1461564
4401,Karen Drive,45429,39.6823189,-84.1463846
4409,Karen Drive,45429,39.6820936,-84.1462112
4416,Karen Drive,45429,39.6821182,-84.1458353
4400,Karen Drive,45429,39.6823374,-84.1456955
4366,Karen Drive,45429,39.6825542,-84.1456644
4354,Karen Drive,45429,39.6827643,-84.1456806
4338,Karen Drive,45429,39.6835552,-84.1456260
4337,North Marshall Road,45429,39.6835253,-84.1451584
4343,North Marshall Road,45429,39.6833183,-84.1451747
4353,North Marshall Road,45429,39.6830932,-84.1451947
4361,North Marshall Road,45429,39.6828699,-84.1452265
4377,North Marshall Road,45429,39.6824395,-84.1452513
4369,North Marshall Road,45429,39.6826461,-84.1452403
4409,North Marshall Road,45429,39.6819943,-84.1453286
4330,North Marshall Road,45429,39.6832623,-84.1445331
4332,North Marshall Road,45429,39.6831555,-84.1445812
4301,North Marshall Road,45429,39.6846555,-84.1450105
4319,North Marshall Road,45429,39.6843075,-84.1450755
5,Marchester Drive,45429,39.6856170,-84.1685960
9,Marchester Drive,45429,39.6856210,-84.1688570
15,Marchester Drive,45429,39.6856275,-84.1691315
21,Marchester Drive,45429,39.6856335,-84.1693975
25,Marchester Drive,45429,39.6856810,-84.1696850
4266,Breckenridge Road,45429,39.6857080,-84.1699475
28,Marchester Drive,45429,39.6851860,-84.1699340
4267,Breckenridge Road,45429,39.6857545,-84.1705145
32,Breckenridge Road,45429,39.6861175,-84.1699550
4233,Breckenridge Road,45429,39.6861425,-84.1705035
274,Marchester Drive,45429,39.6854765,-84.1742695
286,Marchester Drive,45429,39.6854190,-84.1745405
215,Marchester Drive,45429,39.6859530,-84.1729545
227,Marchester Drive,45429,39.6859625,-84.1732595
239,Marchester Drive,45429,39.6859660,-84.1735970
251,Marchester Drive,45429,39.6859555,-84.1739100
275,Marchester Drive,45429,39.6859605,-84.1742215
287,Marchester Drive,45429,39.6859030,-84.1745070
27,Breckenridge Road,45429,39.6866075,-84.1699500
4066,Breckenridge Road,45429,39.6884250,-84.1697335
4050,Breckenridge Road,45429,39.6885865,-84.1695305
33,Breckenridge Road,45429,39.6881780,-84.1698175
4101,Breckenridge Road,45429,39.6877150,-84.1702865
4100,Breckenridge Road,45429,39.6876900,-84.1697400
4124,Breckenridge Road,45429,39.6874150,-84.1697910
4125,Breckenridge Road,45429,39.6874425,-84.1703825
4201,Breckenridge Road,45429,39.6869390,-84.1704910
100,Breckenridge Road,45429,39.6884755,-84.1703080
142,Balmoral Drive,45429,39.6886595,-84.1717447
10,Sherbrooke Drive,45429,39.6876975,-84.1691475
2,Sherbrooke Drive,45429,39.6877340,-84.1688405
18,Sherbrooke Drive,45429,39.6877270,-84.1694455
108,Sherbrooke Drive,45429,39.6877705,-84.1706540
132,Sherbrooke Drive,45429,39.6878373,-84.1711878
148,Sherbrooke Drive,45429,39.6878741,-84.1717493
140,Sherbrooke Drive,45429,39.6878612,-84.1714759
101,Sherbrooke Drive,45429,39.6882370,-84.1703740
109,Sherbrooke Drive,45429,39.6882220,-84.1705945
125,Sherbrooke Drive,45429,39.6882405,-84.1711285
133,Sherbrooke Drive,45429,39.6882685,-84.1713525
141,Sherbrooke Drive,45429,39.6882980,-84.1715615
149,Sherbrooke Drive,45429,39.6883080,-84.1718205
225,Sherbrooke Drive,45429,39.6883730,-84.1727755
233,Sherbrooke Drive,45429,39.6883585,-84.1730315
241,Sherbrooke Drive,45429,39.6883355,-84.1732765
249,Sherbrooke Drive,45429,39.6883180,-84.1735935
257,Sherbrooke Drive,45429,39.6882945,-84.1738825
265,Sherbrooke Drive,45429,39.6882825,-84.1741675
281,Sherbrooke Drive,45429,39.6882080,-84.1745805
272,Sherbrooke Drive,45429,39.6878260,-84.1742685
264,Sherbrooke Drive,45429,39.6878510,-84.1739245
256,Sherbrooke Drive,45429,39.6878460,-84.1736240
240,Sherbrooke Drive,45429,39.6878740,-84.1732590
232,Sherbrooke Drive,45429,39.6878700,-84.1729365
224,Sherbrooke Drive,45429,39.6879245,-84.1727255
15,Sherbrooke Drive,45429,39.6881635,-84.1690745
19,Sherbrooke Drive,45429,39.6881951,-84.1693130
23,Sherbrooke Drive,45429,39.6881580,-84.1695410
110,Balmoral Drive,45429,39.6885210,-84.1705895
118,Balmoral Drive,45429,39.6886014,-84.1708807
126,Balmoral Drive,45429,39.6886245,-84.1711705
134,Balmoral Drive,45429,39.6886406,-84.1714712
224,Balmoral Drive,45429,39.6887000,-84.1730070
240,Balmoral Drive,45429,39.6886559,-84.1732711
248,Balmoral Drive,45429,39.6886385,-84.1735336
256,Balmoral Drive,45429,39.6886255,-84.1738350
264,Balmoral Drive,45429,39.6885850,-84.1741273
265,Balmoral Drive,45429,39.6890509,-84.1740942
257,Balmoral Drive,45429,39.6890850,-84.1738065
249,Balmoral Drive,45429,39.6890885,-84.1735445
241,Balmoral Drive,45429,39.6891260,-84.1731570
233,Balmoral Drive,45429,39.6891090,-84.1728890
225,Balmoral Drive,45429,39.6891355,-84.1726385
149,Balmoral Drive,45429,39.6890725,-84.1716560
141,Balmoral Drive,45429,39.6890795,-84.1713750
133,Balmoral Drive,45429,39.6890210,-84.1710680
125,Balmoral Drive,45429,39.6889870,-84.1706760
117,Balmoral Drive,45429,39.6889820,-84.1703230
101,Balmoral Drive,45429,39.6889675,-84.1700010
4024,Hempstead Station Drive,45429,39.6870076,-84.1353916
1341,East David Road,45429,39.6814554,-84.1413281
1357,East David Road,45429,39.6814389,-84.1410921
1401,East David Road,45429,39.6814265,-84.1408639
1417,East David Road,45429,39.6814203,-84.1406362
4455,East David Road,45429,39.6814197,-84.1404213
1000,Chateau Drive,45429,39.6871005,-84.1501770
3860,Kenosha Road,45429,39.6901162,-84.1540199
1101,Kenosha Road,45429,39.6898263,-84.1474523
3860,Traine Drive,45429,39.6909801,-84.1509150
3876,Traine Drive,45429,39.6907737,-84.1509204
3890,Traine Drive,45429,39.6905735,-84.1509471
3904,Traine Drive,45429,39.6903624,-84.1509531
3918,Traine Drive,45429,39.6901580,-84.1509582
3917,Traine Drive,45429,39.6901710,-84.1514676
3903,Traine Drive,45429,39.6903743,-84.1514675
3889,Traine Drive,45429,39.6905900,-84.1514514
3875,Traine Drive,45429,39.6907964,-84.1514246
3859,Traine Drive,45429,39.6909917,-84.1514069
3845,Traine Drive,45429,39.6912174,-84.1514059
3831,Traine Drive,45429,39.6914053,-84.1513763
3817,Traine Drive,45429,39.6916034,-84.1513576
3801,Traine Drive,45429,39.6918077,-84.1513441
3818,Traine Drive,45429,39.6915741,-84.1508499
3802,Traine Drive,45429,39.6917849,-84.1508478
970,Gardner Road,45429,39.6919894,-84.1507675
1007,Gardner Road,45429,39.6923258,-84.1494800
1013,Gardner Road,45429,39.6923106,-84.1491975
1019,Gardner Road,45429,39.6922915,-84.1489143
1025,Gardner Road,45429,39.6922942,-84.1486489
1031,Gardner Road,45429,39.6922779,-84.1483657
1037,Gardner Road,45429,39.6922588,-84.1480897
1112,Gardner Road,45429,39.6918421,-84.1467095
1118,Gardner Road,45429,39.6918312,-84.1464440
1124,Gardner Road,45429,39.6918176,-84.1461786
1130,Gardner Road,45429,39.6918122,-84.1459095
3773,Maryknoll Drive,45429,39.6923008,-84.1478173
1136,Gardner Road,45429,39.6918176,-84.1456194
1001,Gardner Road,45429,39.6923215,-84.1497957
977,Gardner Road,45429,39.6923603,-84.1505909
971,Gardner Road,45429,39.6923686,-84.1508457
965,Gardner Road,45429,39.6923768,-84.1510970
959,Gardner Road,45429,39.6923850,-84.1513412
953,Gardner Road,45429,39.6923850,-84.1515890
947,Gardner Road,45429,39.6924013,-84.1518332
941,Gardner Road,45429,39.6924278,-84.1520842
935,Gardner Road,45429,39.6924231,-84.1523322
929,Gardner Road,45429,39.6924531,-84.1527321
923,Gardner Road,45429,39.6924531,-84.1529692
917,Gardner Road,45429,39.6924667,-84.1532382
911,Gardner Road,45429,39.6924870,-84.1535265
901,Gardner Road,45429,39.6924994,-84.1538257
900,South Gardner Road,45429,39.6920881,-84.1538541
910,Gardner Road,45429,39.6920936,-84.1535072
930,Gardner Road,45429,39.6920527,-84.1528985
936,Gardner Road,45429,39.6920119,-84.1525728
3802,Villanova Drive,45429,39.6918212,-84.1517907
3818,Villanova Drive,45429,39.6916197,-84.1518154
3832,Villanova Drive,45429,39.6914155,-84.1518296
3846,Villanova Drive,45429,39.6912139,-84.1518367
3805,Villanova Drive,45429,39.6920391,-84.1522756
3809,Villanova Drive,45429,39.6918185,-84.1523039
3817,Villanova Drive,45429,39.6916279,-84.1523003
3831,Villanova Drive,45429,39.6914236,-84.1523251
3845,Villanova Drive,45429,39.6912194,-84.1523428
3859,Villanova Drive,45429,39.6910260,-84.1523605
3875,Villanova Drive,45429,39.6908190,-84.1523676
3889,Villanova Drive,45429,39.6906366,-84.1523888
3903,Villanova Drive,45429,39.6904459,-84.1523994
3917,Villanova Drive,45429,39.6902308,-84.1524171
3918,Villanova Drive,45429,39.6902090,-84.1519287
3904,Villanova Drive,45429,39.6904133,-84.1519075
3876,Villanova Drive,45429,39.6908245,-84.1518685
3860,Villanova Drive,45429,39.6910233,-84.1518438
3850,Longridge Drive,45429,39.6904525,-84.1530448
3844,Longridge Drive,45429,39.6906284,-84.1530542
3838,Longridge Drive,45429,39.6908763,-84.1530152
3832,Longridge Drive,45429,39.6910833,-84.1530046
3833,Longridge Drive,45429,39.6911023,-84.1535356
3839,Longridge Drive,45429,39.6908981,-84.1535638
3842,Ackerman Boulevard,45429,39.6907264,-84.1540133
3836,Ackerman Boulevard,45429,39.6909199,-84.1539744
3830,Ackerman Boulevard,45429,39.6911105,-84.1539779
3848,Ackerman Boulevard,45429,39.6904950,-84.1540133
3854,Ackerman Boulevard,45429,39.6903233,-84.1540487
3851,Longridge Drive,45429,39.6906529,-84.1535603
3820,Longridge Drive,45429,39.6914754,-84.1529976
3814,Longridge Drive,45429,39.6916769,-84.1529763
3806,Longridge Drive,45429,39.6918784,-84.1529586
3807,Longridge Drive,45429,39.6919002,-84.1534648
3821,Longridge Drive,45429,39.6914999,-84.1535143
3826,Longridge Drive,45429,39.6912650,-84.1529838
3827,Longridge Drive,45429,39.6912938,-84.1535467
3815,Longridge Drive,45429,39.6916918,-84.1535296
3806,Ackerman Boulevard,45429,39.6919375,-84.1539261
3814,Ackerman Boulevard,45429,39.6917194,-84.1539322
3820,Ackerman Boulevard,45429,39.6915321,-84.1539416
3807,Ackerman Boulevard,45429,39.6919470,-84.1546193
3811,Ackerman Boulevard,45429,39.6917574,-84.1546379
3817,Ackerman Boulevard,45429,39.6915416,-84.1546379
3823,Ackerman Boulevard,45429,39.6913567,-84.1546594
3829,Ackerman Boulevard,45429,39.6911457,-84.1546809
3835,Ackerman Boulevard,45429,39.6909347,-84.1546902
3826,Ackerman Boulevard,45429,39.6913216,-84.1539708
3841,Ackerman Boulevard,45429,39.6907379,-84.1547054
3847,Ackerman Boulevard,45429,39.6905324,-84.1547183
3853,Ackerman Boulevard,45429,39.6903254,-84.1547300
3901,Ackerman Boulevard,45429,39.6896900,-84.1547702
833,Kenosha Road,45429,39.6901263,-84.1548009
816,Kenosha Road,45429,39.6897683,-84.1559994
829,Kenosha Road,45429,39.6901358,-84.1550936
825,Kenosha Road,45429,39.6901475,-84.1553678
817,Kenosha Road,45429,39.6901690,-84.1559163
813,Kenosha Road,45429,39.6901666,-84.1562213
820,Kenosha Road,45429,39.6897540,-84.1557437
828,Kenosha Road,45429,39.6897375,-84.1552446
832,Kenosha Road,45429,39.6897232,-84.1549858
824,Kenosha Road,45429,39.6897469,-84.1554880
821,Kenosha Road,45429,39.6901547,-84.1556513
808,Kenosha Road,45429,39.6897896,-84.1564955
804,Kenosha Road,45429,39.6897896,-84.1567420
812,Kenosha Road,45429,39.6897595,-84.1562507
3970,Maricarr Drive,45429,39.6897303,-84.1570008
3930,Milford Drive,45429,39.6902282,-84.1564801
3924,Milford Drive,45429,39.6904060,-84.1564709
3923,Milford Drive,45429,39.6903704,-84.1569916
3917,Milford Drive,45429,39.6905672,-84.1569700
3909,Milford Drive,45429,39.6907782,-84.1569515
754,Talbott Drive,45429,39.6909561,-84.1570070
3908,Milford Drive,45429,39.6908636,-84.1564247
801,Kenosha Road,45429,39.6901761,-84.1570809
3960,Maricarr Drive,45429,39.6902224,-84.1574214
3965,Maricarr Drive,45429,39.6898109,-84.1575888
3957,Maricarr Drive,45429,39.6899861,-84.1578021
3951,Maricarr Drive,45429,39.6901973,-84.1580399
716,Maricarr Drive,45429,39.6904523,-84.1577817
3950,Lefevre Drive,45429,39.6899978,-84.1590638
620,Oakview Drive,45429,39.6899648,-84.1595107
704,Oakview Drive,45429,39.6900526,-84.1588584
705,Oakview Drive,45429,39.6904869,-84.1588638
709,Oakview Drive,45429,39.6905307,-84.1586260
713,Oakview Drive,45429,39.6905964,-84.1584247
3910,Lefevre Drive,45429,39.6904978,-84.1591227
3900,Lefevre Drive,45429,39.6907911,-84.1594468
616,Oakview Drive,45429,39.6899960,-84.1597140
612,Oakview Drive,45429,39.6899989,-84.1599371
608,Oakview Drive,45429,39.6900036,-84.1601627
604,Oakview Drive,45429,39.6900161,-84.1603985
600,Oakview Drive,45429,39.6900096,-84.1606058
536,Oakview Drive,45429,39.6900177,-84.1608233
532,Oakview Drive,45429,39.6900317,-84.1610551
528,Oakview Drive,45429,39.6900395,-84.1612746
524,Oakview Drive,45429,39.6900458,-84.1615043
520,Oakview Drive,45429,39.6900505,-84.1617299
525,Oakview Drive,45429,39.6904383,-84.1617071
529,Oakview Drive,45429,39.6904322,-84.1614677
613,Oakview Drive,45429,39.6903821,-84.1600692
609,Oakview Drive,45429,39.6903818,-84.1603298
621,Oakview Drive,45429,39.6903839,-84.1598094
601,Oakview Drive,45429,39.6904212,-84.1605884
533,Oakview Drive,45429,39.6904250,-84.1612100
521,Oakview Drive,45429,39.6904431,-84.1619374
517,Oakview Drive,45429,39.6904597,-84.1621706
513,Oakview Drive,45429,39.6904576,-84.1623896
509,Oakview Drive,45429,39.6904686,-84.1626128
505,Oakview Drive,45429,39.6905088,-84.1628155
1340,Wheatland Avenue,45429,39.6893195,-84.1423115
3854,Saranac Drive,45429,39.6904639,-84.1561899
3850,Saranac Drive,45429,39.6905245,-84.1559382
3827,Saranac Drive,45429,39.6914286,-84.1555788
3826,Saranac Drive,45429,39.6913563,-84.1550611
3832,Saranac Drive,45429,39.6911541,-84.1551470
3838,Saranac Circle,45429,39.6909085,-84.1552141
3840,Saranac Circle,45429,39.6906939,-84.1550639
3842,Saranac Circle,45429,39.6905184,-84.1551712
3846,Saranac Circle,45429,39.6905721,-84.1556754
3851,Saranac Drive,45429,39.6908848,-84.1562199
3844,Saranac Circle,45429,39.6904268,-84.1554229
3845,Saranac Drive,45429,39.6909488,-84.1559905
3839,Saranac Drive,45429,39.6910754,-84.1558041
3833,Saranac Drive,45429,39.6912470,-84.1556566
3820,Saranac Drive,45429,39.6915690,-84.1550343
3814,Saranac Drive,45429,39.6917691,-84.1550236
3806,Saranac Drive,45429,39.6919693,-84.1550102
3800,Saranac Drive,45429,39.6921674,-84.1549860
3807,Saranac Drive,45429,39.6920064,-84.1555252
3815,Saranac Drive,45429,39.6918062,-84.1555306
3821,Saranac Drive,45429,39.6916246,-84.1555520
3755,Saranac Drive,45429,39.6923924,-84.1554930
3749,Saranac Drive,45429,39.6925844,-84.1554769
3801,Saranac Drive,45429,39.6921885,-84.1555623
860,South Gardner Road,45429,39.6921448,-84.1546589
861,South Gardner Road,45429,39.6925370,-84.1546187
851,South Gardner Road,45429,39.6925460,-84.1549204
3743,Saranac Drive,45429,39.6927742,-84.1554635
3737,Saranac Drive,45429,39.6929621,-84.1554501
3731,Saranac Drive,45429,39.6931499,-84.1554340
3725,Saranac Drive,45429,39.6933480,-84.1554232
3742,Saranac Drive,45429,39.6927391,-84.1549539
3736,Saranac Drive,45429,39.6929415,-84.1549404
3732,Saranac Drive,45429,39.6931354,-84.1549164
3724,Saranac Drive,45429,39.6933418,-84.1548976
3743,Ackerman Boulevard,45429,39.6927309,-84.1545543
3719,Saranac Drive,45429,39.6935441,-84.1553964
3711,Saranac Drive,45429,39.6937360,-84.1553911
3707,Saranac Drive,45429,39.6939198,-84.1553750
3706,Saranac Drive,45429,39.6939383,-84.1548627
3712,Saranac Drive,45429,39.6937422,-84.1548761
3718,Saranac Drive,45429,39.6935256,-84.1548868
3744,Ackerman Boulevard,45429,39.6927123,-84.1538649
3736,Ackerman Boulevard,45429,39.6929209,-84.1538488
3730,Ackerman Boulevard,45429,39.6931230,-84.1538327
3724,Ackerman Boulevard,45429,39.6933233,-84.1538274
3718,Ackerman Boulevard,45429,39.6935172,-84.1538032
3737,Ackerman Boulevard,45429,39.6929229,-84.1545435
3729,Ackerman Boulevard,45429,39.6931272,-84.1545248
3723,Ackerman Boulevard,45429,39.6933253,-84.1545060
3717,Ackerman Boulevard,45429,39.6935275,-84.1544871
3711,Ackerman Boulevard,45429,39.6937339,-84.1544684
3707,Ackerman Boulevard,45429,39.6939363,-84.1544684
3712,Ackerman Boulevard,45429,39.6937382,-84.1537898
3706,Ackerman Boulevard,45429,39.6939424,-84.1537656
3700,Ackerman Boulevard,45429,39.6941612,-84.1537496
3666,Ackerman Boulevard,45429,39.6945451,-84.1537362
3670,Ackerman Boulevard,45429,39.6943581,-84.1537211
3667,Ackerman Boulevard,45429,39.6945307,-84.1543638
856,Brookfield Road,45429,39.6941054,-84.1544925
850,Brookfield Road,45429,39.6941158,-84.1548144
855,Brookfield Road,45429,39.6945080,-84.1546267
849,Brookfield Road,45429,39.6945161,-84.1548681
843,Brookfield Road,45429,39.6945161,-84.1550960
837,Brookfield Road,45429,39.6945265,-84.1553616
831,Brookfield Road,45429,39.6945265,-84.1555976
825,Brookfield Road,45429,39.6945348,-84.1558310
817,Brookfield Road,45429,39.6945183,-84.1560750
840,Brookfield Road,45429,39.6941303,-84.1554018
820,Brookfield Road,45429,39.6941323,-84.1557076
800,Brookfield Road,45429,39.6940374,-84.1566383
801,Brookfield Road,45429,39.6944419,-84.1565873
811,Brookfield Road,45429,39.6944915,-84.1563165
810,Brookfield Road,45429,39.6940753,-84.1563395
3708,Milford Drive,45429,39.6939445,-84.1557692
3709,Milford Drive,45429,39.6939198,-84.1562842
3715,Milford Drive,45429,39.6937133,-84.1563004
3712,Milford Drive,45429,39.6937628,-84.1557934
3716,Milford Drive,45429,39.6935627,-84.1557961
3720,Milford Drive,45429,39.6933686,-84.1558229
3725,Milford Drive,45429,39.6933274,-84.1563379
3723,Milford Drive,45429,39.6935315,-84.1563497
3727,Milford Drive,45429,39.6931354,-84.1563460
3724,Milford Drive,45429,39.6931768,-84.1558283
3732,Milford Drive,45429,39.6929909,-84.1558390
3806,Milford Drive,45429,39.6927888,-84.1558578
3810,Milford Drive,45429,39.6926153,-84.1558685
3814,Milford Drive,45429,39.6924130,-84.1558820
3737,Milford Drive,45429,39.6927371,-84.1563781
3803,Milford Drive,45429,39.6925349,-84.1564022
3733,Milford Drive,45429,39.6929349,-84.1563778
3809,Milford Drive,45429,39.6923305,-84.1564157
3815,Milford Drive,45429,39.6921344,-84.1564184
3818,Milford Drive,45429,39.6922108,-84.1559061
3822,Milford Drive,45429,39.6920250,-84.1559114
3830,Milford Drive,45429,39.6918393,-84.1559302
3836,Milford Drive,45429,39.6916308,-84.1559650
3821,Milford Drive,45429,39.6919333,-84.1564603
751,Milford Drive,45429,39.6913745,-84.1570275
3837,Milford Drive,45429,39.6917278,-84.1564747
3842,Milford Drive,45429,39.6914286,-84.1560616
3848,Milford Drive,45429,39.6912593,-84.1562199
3833,Milford Drive,45429,39.6915720,-84.1566134
755,Milford Drive,45429,39.6914604,-84.1567751
3854,Milford Drive,45429,39.6910934,-84.1564125
717,Oakview Drive,45429,39.6906987,-84.1582431
721,Oakview Drive,45429,39.6908434,-84.1580805
720,Oakview Drive,45429,39.6906480,-84.1575989
728,Oakview Drive,45429,39.6910014,-84.1573838
724,Oakview Drive,45429,39.6908338,-84.1575156
720,Talbott Drive,45429,39.6910078,-84.1580601
721,Schuyler Drive,45429,39.6913897,-84.1575010
720,Schuyler Drive,45429,39.6913598,-84.1580278
709,Talbott Drive,45429,39.6914121,-84.1589538
713,Talbott Drive,45429,39.6914085,-84.1587174
717,Talbott Drive,45429,39.6913805,-84.1584186
704,Talbott Drive,45429,39.6909804,-84.1592404
708,Talbott Drive,45429,39.6910161,-84.1589454
712,Talbott Drive,45429,39.6910235,-84.1586890
716,Talbott Drive,45429,39.6910252,-84.1584441
3901,Lefevre Drive,45429,39.6906398,-84.1599608
3825,Lefevre Drive,45429,39.6908031,-84.1601306
3821,Lefevre Drive,45429,39.6909503,-84.1602958
3824,Lefevre Drive,45429,39.6911226,-84.1598345
3817,Lefevre Drive,45429,39.6911232,-84.1605186
3813,Lefevre Drive,45429,39.6912521,-84.1606819
3831,Storms Road,45429,39.6913272,-84.1596676
3821,Storms Road,45429,39.6915127,-84.1596213
3815,Storms Road,45429,39.6917324,-84.1596117
3860,Storms Road,45429,39.6915621,-84.1591545
3800,Storms Road,45429,39.6919037,-84.1590948
3807,Storms Road,45429,39.6919107,-84.1596069
3708,California Avenue,45429,39.6938576,-84.1566942
3716,California Avenue,45429,39.6936537,-84.1567003
3722,California Avenue,45429,39.6934617,-84.1567127
3728,California Avenue,45429,39.6932625,-84.1567342
3734,California Avenue,45429,39.6930728,-84.1567589
3740,California Avenue,45429,39.6928855,-84.1567682
3746,California Avenue,45429,39.6926912,-84.1567743
3808,California Avenue,45429,39.6922928,-84.1568174
3814,California Avenue,45429,39.6920913,-84.1568883
3820,California Avenue,45429,39.6918827,-84.1570362
3826,California Avenue,45429,39.6917476,-84.1571780
3823,California Avenue,45429,39.6920320,-84.1575568
3666,California Avenue,45429,39.6946257,-84.1566325
3661,California Avenue,45429,39.6945268,-84.1571522
931,Lincoln Park Boulevard,45429,39.6967351,-84.1531696
937,Lincoln Park Boulevard,45429,39.6967320,-84.1528969
943,Lincoln Park Boulevard,45429,39.6967267,-84.1526190
949,Lincoln Park Boulevard,45429,39.6967105,-84.1523459
955,Lincoln Park Boulevard,45429,39.6967195,-84.1520773
961,Lincoln Park Boulevard,45429,39.6967069,-84.1518135
967,Lincoln Park Boulevard,45429,39.6966980,-84.1515286
973,Lincoln Park Boulevard,45429,39.6967016,-84.1512554
979,Lincoln Park Boulevard,45429,39.6966853,-84.1509659
3354,Waltham Avenue,45429,39.6967033,-84.1504312
3717,California Avenue,45429,39.6937735,-84.1572365
3719,California Avenue,45429,39.6936080,-84.1572695
3725,California Avenue,45429,39.6933995,-84.1572575
3731,California Avenue,45429,39.6932225,-84.1572775
3737,California Avenue,45429,39.6930365,-84.1572785
3743,California Avenue,45429,39.6928590,-84.1572925
3749,California Avenue,45429,39.6926825,-84.1573110
3811,California Avenue,45429,39.6923290,-84.1573880
3817,California Avenue,45429,39.6921670,-84.1574230
3829,California Avenue,45429,39.6919245,-84.1577710
3744,Wenzler Drive,45429,39.6920580,-84.1579710
3740,Wenzler Drive,45429,39.6923187,-84.1578440
3736,Wenzler Drive,45429,39.6925290,-84.1578266
3732,Wenzler Drive,45429,39.6927083,-84.1578100
3728,Wenzler Drive,45429,39.6928877,-84.1577995
3724,Wenzler Drive,45429,39.6930649,-84.1577691
3720,Wenzler Drive,45429,39.6932415,-84.1577753
3716,Wenzler Drive,45429,39.6934194,-84.1577370
3712,Wenzler Drive,45429,39.6936105,-84.1577360
3710,Wenzler Drive,45429,39.6937860,-84.1577215
3705,Wenzler Drive,45429,39.6940414,-84.1577468
3701,Wenzler Drive,45429,39.6939976,-84.1582480
3713,Wenzler Drive,45429,39.6936457,-84.1582829
3717,Wenzler Drive,45429,39.6934437,-84.1582709
3721,Wenzler Drive,45429,39.6932635,-84.1583155
3725,Wenzler Drive,45429,39.6930880,-84.1583320
3729,Wenzler Drive,45429,39.6929100,-84.1583230
3733,Wenzler Drive,45429,39.6927285,-84.1583188
3737,Wenzler Drive,45429,39.6924979,-84.1583376
3830,California Avenue,45429,39.6915815,-84.1575220
3741,Wenzler Drive,45429,39.6922450,-84.1584328
601,Brookfield Road,45429,39.6945410,-84.1608310
607,Brookfield Road,45429,39.6945495,-84.1605120
613,Brookfield Road,45429,39.6945420,-84.1602640
619,Brookfield Road,45429,39.6945250,-84.1600355
625,Brookfield Road,45429,39.6945215,-84.1597955
639,Brookfield Road,45429,39.6944940,-84.1593410
701,Brookfield Road,45429,39.6945005,-84.1588630
707,Brookfield Road,45429,39.6944880,-84.1586075
713,Brookfield Road,45429,39.6944885,-84.1583650
717,Brookfield Road,45429,39.6944790,-84.1580805
723,Brookfield Road,45429,39.6944730,-84.1577840
729,Brookfield Road,45429,39.6944845,-84.1574560
706,Brookfield Road,45429,39.6940890,-84.1584765
702,Brookfield Road,45429,39.6940845,-84.1587275
646,Brookfield Road,45429,39.6940784,-84.1589506
640,Brookfield Road,45429,39.6941075,-84.1592300
634,Brookfield Road,45429,39.6941114,-84.1594548
626,Brookfield Road,45429,39.6941205,-84.1596905
620,Brookfield Road,45429,39.6941285,-84.1599350
616,Brookfield Road,45429,39.6941300,-84.1601930
612,Brookfield Road,45429,39.6941070,-84.1604390
608,Brookfield Road,45429,39.6941440,-84.1606785
604,Brookfield Road,45429,39.6941205,-84.1609235
608,Sumner Avenue,45429,39.6950543,-84.1606014
3606,Aerial Avenue,45429,39.6950625,-84.1608429
3612,Aerial Avenue,45429,39.6947389,-84.1608571
3611,Aerial Avenue,45429,39.6947558,-84.1613523
3617,Aerial Avenue,45429,39.6945936,-84.1614411
3623,Aerial Avenue,45429,39.6944265,-84.1614965
3630,Aerial Avenue,45429,39.6941036,-84.1611550
3636,Aerial Avenue,45429,39.6939425,-84.1613545
704,Storms Circle,45429,39.6932170,-84.1588475
708,Storms Circle,45429,39.6934075,-84.1587520
709,Storms Circle,45429,39.6936470,-84.1588835
705,Storms Circle,45429,39.6936577,-84.1591802
701,Storms Circle,45429,39.6934250,-84.1593805
716,Schuyler Drive,45429,39.6915709,-84.1581266
712,Schuyler Drive,45429,39.6917184,-84.1583565
708,Schuyler Drive,45429,39.6918089,-84.1585458
3950,Shroyer Road,45429,39.6900448,-84.1630586
3912,Shroyer Road,45429,39.6905245,-84.1630375
516,Oakview Drive,45429,39.6900728,-84.1619989
512,Oakview Drive,45429,39.6900890,-84.1622535
508,Oakview Drive,45429,39.6901050,-84.1626015
504,Oakview Drive,45429,39.6900614,-84.1628778
541,Carrlands Drive,45429,39.6907240,-84.1607765
537,Carrlands Drive,45429,39.6909030,-84.1609055
533,Carrlands Drive,45429,39.6910260,-84.1610700
529,Carrlands Drive,45429,39.6911775,-84.1613250
525,Carrlands Drive,45429,39.6912327,-84.1615799
521,Carrlands Drive,45429,39.6912985,-84.1618735
517,Carrlands Drive,45429,39.6912580,-84.1620750
513,Carrlands Drive,45429,39.6912680,-84.1623525
509,Carrlands Drive,45429,39.6912700,-84.1625570
505,Carrlands Drive,45429,39.6912860,-84.1627835
3900-3902,Shroyer Road,45429,39.6908835,-84.1630265
504,Carrlands Drive,45429,39.6908780,-84.1626390
508,Carrlands Drive,45429,39.6908885,-84.1623690
512,Carrlands Drive,45429,39.6908830,-84.1621550
516,Carrlands Drive,45429,39.6908705,-84.1619395
520,Carrlands Drive,45429,39.6908385,-84.1616380
524,Carrlands Drive,45429,39.6907455,-84.1614100
3801,Lefevre Drive,45429,39.6916995,-84.1612535
3800,Lefevre Drive,45429,39.6920075,-84.1608700
3804,Lefevre Drive,45429,39.6918500,-84.1606730
3808,Lefevre Drive,45429,39.6917365,-84.1605575
3812,Lefevre Drive,45429,39.6916260,-84.1604080
3816,Lefevre Drive,45429,39.6914670,-84.1602500
3820,Lefevre Drive,45429,39.6913510,-84.1601035
3809,Lefevre Drive,45429,39.6914051,-84.1608690
3805,Lefevre Drive,45429,39.6915570,-84.1610273
505,Schuyler Drive,45429,39.6928875,-84.1627255
509,Schuyler Drive,45429,39.6928855,-84.1624995
3737,Aerial Avenue,45429,39.6928930,-84.1622645
504,Schuyler Drive,45429,39.6924565,-84.1627400
508,Schuyler Drive,45429,39.6924590,-84.1624810
512,Schuyler Drive,45429,39.6924630,-84.1622395
600,Schuyler Drive,45429,39.6924530,-84.1619980
604,Schuyler Drive,45429,39.6924350,-84.1617665
608,Schuyler Drive,45429,39.6923990,-84.1613970
605,Schuyler Drive,45429,39.6928265,-84.1616025
609,Schuyler Drive,45429,39.6928200,-84.1613650
613,Schuyler Drive,45429,39.6928085,-84.1611270
617,Schuyler Drive,45429,39.6927830,-84.1608720
620,Schuyler Drive,45429,39.6923370,-84.1607230
624,Schuyler Drive,45429,39.6922890,-84.1605160
628,Schuyler Drive,45429,39.6922325,-84.1603105
632,Schuyler Drive,45429,39.6921980,-84.1601135
636,Schuyler Drive,45429,39.6921305,-84.1599105
640,Schuyler Drive,45429,39.6920785,-84.1595580
641,Schuyler Drive,45429,39.6924240,-84.1594255
637,Schuyler Drive,45429,39.6925235,-84.1597640
633,Schuyler Drive,45429,39.6925910,-84.1599640
629,Schuyler Drive,45429,39.6926280,-84.1601775
625,Schuyler Drive,45429,39.6927040,-84.1604125
621,Schuyler Drive,45429,39.6927365,-84.1606390
3780,Storms Road,45429,39.6923383,-84.1588962
705,Schuyler Drive,45429,39.6922681,-84.1586899
3762,Storms Road,45429,39.6925952,-84.1588156
606,Storms Road,45429,39.6935195,-84.1615395
607,Storms Road,45429,39.6937930,-84.1612295
611,Storms Road,45429,39.6937065,-84.1610225
615,Storms Road,45429,39.6936490,-84.1608010
619,Storms Road,45429,39.6936040,-84.1605680
625,Storms Road,45429,39.6935525,-84.1603605
629,Storms Road,45429,39.6935210,-84.1601115
633,Storms Road,45429,39.6935130,-84.1598775
639,Storms Road,45429,39.6934795,-84.1596505
610,Storms Road,45429,39.6933595,-84.1613060
616,Storms Road,45429,39.6932785,-84.1610285
620,Storms Road,45429,39.6931990,-84.1607705
624,Storms Road,45429,39.6931760,-84.1605000
628,Storms Road,45429,39.6931425,-84.1602365
634,Storms Road,45429,39.6931195,-84.1599830
644,Storms Road,45429,39.6930645,-84.1597175
3757,Storms Road,45429,39.6927650,-84.1593405
3761,Storms Road,45429,39.6925795,-84.1593720
3758,Storms Road,45429,39.6928040,-84.1588375
3750,Storms Road,45429,39.6930760,-84.1589600
616,Earnshaw Drive,45429,39.6923340,-84.1609315
525,Earnshaw Drive,45429,39.6921922,-84.1614934
521,Earnshaw Drive,45429,39.6920886,-84.1617414
517,Earnshaw Drive,45429,39.6920832,-84.1619889
513,Earnshaw Drive,45429,39.6920681,-84.1622565
509,Earnshaw Drive,45429,39.6921080,-84.1625005
505,Earnshaw Drive,45429,39.6920999,-84.1627425
3812,Earnshaw Drive,45429,39.6921423,-84.1629894
504,Earnshaw Drive,45429,39.6917096,-84.1628172
508,Earnshaw Drive,45429,39.6916976,-84.1625784
512,Earnshaw Drive,45429,39.6916666,-84.1622819
516,Earnshaw Drive,45429,39.6916716,-84.1620647
520,Earnshaw Drive,45429,39.6916760,-84.1618550
524,Earnshaw Drive,45429,39.6917035,-84.1615675
3726,Aerial Avenue,45429,39.6928618,-84.1618280
3718,Aerial Avenue,45429,39.6931365,-84.1617607
3710,Aerial Avenue,45429,39.6933291,-84.1617240
3711,Aerial Avenue,45429,39.6933320,-84.1622880
3710,Aerial Avenue,45429,39.6935255,-84.1622813
525,Storms Road,45429,39.6943000,-84.1616455
521,Storms Road,45429,39.6944269,-84.1618663
515,Storms Road,45429,39.6945234,-84.1620629
509,Storms Road,45429,39.6945935,-84.1623122
500,Storms Road,45429,39.6942531,-84.1627227
508,Storms Road,45429,39.6942174,-84.1623515
514,Storms Road,45429,39.6941124,-84.1621332
3710,Aerial Avenue,45429,39.6939251,-84.1620058
3710,Aerial Avenue,45429,39.6937358,-84.1621919
3710,Aerial Avenue,45429,39.6935417,-84.1617245
412,Oakview Drive,45429,39.6901255,-84.1636475
408,Oakview Drive,45429,39.6901315,-84.1639535
404,Oakview Drive,45429,39.6901380,-84.1642350
400,Oakview Drive,45429,39.6901450,-84.1645090
312,Oakview Drive,45429,39.6901515,-84.1647475
308,Oakview Drive,45429,39.6901525,-84.1650470
304,Oakview Drive,45429,39.6901660,-84.1652970
208,Oakview Drive,45429,39.6901830,-84.1660250
204,Oakview Drive,45429,39.6901825,-84.1662860
200,Oakview Drive,45429,39.6901879,-84.1665224
112,Oakview Drive,45429,39.6901980,-84.1667784
113,Oakview Drive,45429,39.6905965,-84.1668130
201,Oakview Drive,45429,39.6906085,-84.1665580
205,Oakview Drive,45429,39.6905902,-84.1662350
3854,Shroyer Road,45429,39.6913373,-84.1630517
3850,Shroyer Road,45429,39.6916466,-84.1630444
3796,Shroyer Road,45429,39.6929165,-84.1629155
3790,Shroyer Road,45429,39.6931715,-84.1628540
3784,Shroyer Road,45429,39.6933550,-84.1628295
3778,Shroyer Road,45429,39.6935415,-84.1628215
3712,Shroyer Road,45429,39.6938155,-84.1627810
3607,Shroyer Road,45429,39.6940790,-84.1627465
500,Schuyler Drive,45429,39.6924725,-84.1629890
109,Oakview Drive,45429,39.6906032,-84.1670977
104,Carrlands Drive,45429,39.6910265,-84.1678680
108,Carrlands Drive,45429,39.6910180,-84.1675495
112,Carrlands Drive,45429,39.6909970,-84.1673135
116,Carrlands Drive,45429,39.6910070,-84.1670605
200,Carrlands Drive,45429,39.6909960,-84.1667840
204,Carrlands Drive,45429,39.6909759,-84.1665020
208,Carrlands Drive,45429,39.6909745,-84.1659840
209,Oakview Drive,45429,39.6905750,-84.1659890
3910,Oakview Drive,45429,39.6905930,-84.1655175
305,Oakview Drive,45429,39.6905540,-84.1652850
309,Oakview Drive,45429,39.6905475,-84.1650435
313,Oakview Drive,45429,39.6905550,-84.1647400
401,Oakview Drive,45429,39.6905720,-84.1644905
405,Oakview Drive,45429,39.6905480,-84.1642245
409,Oakview Drive,45429,39.6905435,-84.1639465
412,Carrlands Drive,45429,39.6909125,-84.1636535
408,Carrlands Drive,45429,39.6909325,-84.1639215
404,Carrlands Drive,45429,39.6909390,-84.1641865
400,Carrlands Drive,45429,39.6909515,-84.1644415
312,Carrlands Drive,45429,39.6909635,-84.1647105
308,Carrlands Drive,45429,39.6909670,-84.1649765
304,Carrlands Drive,45429,39.6909735,-84.1652400
3900,Oakview Drive,45429,39.6909265,-84.1654865
413,Carrlands Drive,45429,39.6913175,-84.1635885
409,Carrlands Drive,45429,39.6913245,-84.1638865
405,Carrlands Drive,45429,39.6913265,-84.1641590
401,Carrlands Drive,45429,39.6913485,-84.1644225
313,Carrlands Drive,45429,39.6913365,-84.1646515
309,Carrlands Drive,45429,39.6913423,-84.1649476
305,Carrlands Drive,45429,39.6913570,-84.1652040
301,Carrlands Drive,45429,39.6913545,-84.1654830
213,Carrlands Drive,45429,39.6913725,-84.1659170
209,Carrlands Drive,45429,39.6914020,-84.1661820
205,Carrlands Drive,45429,39.6913735,-84.1664380
201,Carrlands Drive,45429,39.6913800,-84.1667110
115-117,Carrlands Drive,45429,39.6913880,-84.1669465
113,Carrlands Drive,45429,39.6913990,-84.1672225
109,Carrlands Drive,45429,39.6913950,-84.1674755
105,Carrlands Drive,45429,39.6913985,-84.1676915
101,Carrlands Drive,45429,39.6914205,-84.1679645
11,Carrlands Drive,45429,39.6913925,-84.1683245
3600,Shroyer Road,45429,39.6961828,-84.1617096
3851,Shroyer Road,45429,39.6916690,-84.1635795
416,Shroyer Road,45429,39.6924530,-84.1634935
404,Earnshaw Drive,45429,39.6917305,-84.1641200
312,Earnshaw Drive,45429,39.6917410,-84.1646545
400,Earnshaw Drive,45429,39.6917480,-84.1644445
308,Earnshaw Drive,45429,39.6917425,-84.1649225
304,Earnshaw Drive,45429,39.6917600,-84.1652210
300,Earnshaw Drive,45429,39.6917735,-84.1654490
301,Earnshaw Drive,45429,39.6921735,-84.1654385
305,Earnshaw Drive,45429,39.6921445,-84.1651630
309,Earnshaw Drive,45429,39.6921430,-84.1648565
313,Earnshaw Drive,45429,39.6921385,-84.1646445
401,Earnshaw Drive,45429,39.6921560,-84.1643135
405,Earnshaw Drive,45429,39.6921270,-84.1640795
409,Earnshaw Drive,45429,39.6921200,-84.1638225
413,Earnshaw Drive,45429,39.6921100,-84.1635421
213,Earnshaw Drive,45429,39.6921810,-84.1658975
209,Earnshaw Drive,45429,39.6921870,-84.1661365
205,Earnshaw Drive,45429,39.6921600,-84.1663565
201,Earnshaw Drive,45429,39.6921995,-84.1666510
117,Earnshaw Drive,45429,39.6921865,-84.1668695
113,Earnshaw Drive,45429,39.6921830,-84.1671625
109,Earnshaw Drive,45429,39.6922045,-84.1674290
105,Earnshaw Drive,45429,39.6922200,-84.1676790
101,Earnshaw Drive,45429,39.6921860,-84.1679465
5,Earnshaw Drive,45429,39.6921795,-84.1682975
100,Earnshaw Drive,45429,39.6918430,-84.1679610
104,Earnshaw Drive,45429,39.6918205,-84.1677175
3850,Earnshaw Drive,45429,39.6918820,-84.1683100
108,Earnshaw Drive,45429,39.6918045,-84.1674640
112,Earnshaw Drive,45429,39.6917990,-84.1671890
116,Earnshaw Drive,45429,39.6918085,-84.1669500
200,Earnshaw Drive,45429,39.6917755,-84.1666805
204,Earnshaw Drive,45429,39.6917885,-84.1664275
208,Earnshaw Drive,45429,39.6917820,-84.1661480
3905,Far Hills Avenue,45429,39.6910185,-84.1690000
3871,Far Hills Avenue,45429,39.6912905,-84.1689960
3861,Far Hills Avenue,45429,39.6916215,-84.1690215
3857,Far Hills Avenue,45429,39.6918100,-84.1690285
3817,Far Hills Avenue,45429,39.6921210,-84.1690210
3813,Far Hills Avenue,45429,39.6922985,-84.1690880
412,Schuyler Drive,45429,39.6924731,-84.1636960
408,Schuyler Drive,45429,39.6924935,-84.1639004
404,Schuyler Drive,45429,39.6924805,-84.1641651
400,Schuyler Drive,45429,39.6924986,-84.1643549
316,Schuyler Drive,45429,39.6925040,-84.1645690
312,Schuyler Drive,45429,39.6925135,-84.1647813
300,Schuyler Drive,45429,39.6925108,-84.1654184
220,Schuyler Drive,45429,39.6925163,-84.1658219
212,Schuyler Drive,45429,39.6925367,-84.1661599
216,Schuyler Drive,45429,39.6925424,-84.1659753
204,Schuyler Drive,45429,39.6925530,-84.1666182
200,Schuyler Drive,45429,39.6925544,-84.1668341
116,Schuyler Drive,45429,39.6925626,-84.1670482
104,Schuyler Drive,45429,39.6925871,-84.1676888
100,Schuyler Drive,45429,39.6926129,-84.1679047
112,Schuyler Drive,45429,39.6925476,-84.1672942
3812,Far Hills Avenue,45429,39.6923027,-84.1683134
3808,Far Hills Avenue,45429,39.6925518,-84.1683194
108,Schuyler Drive,45429,39.6925759,-84.1674766
208,Schuyler Drive,45429,39.6925447,-84.1664004
304,Schuyler Drive,45429,39.6925272,-84.1651928
308,Schuyler Drive,45429,39.6925134,-84.1649934
3809,Far Hills Avenue,45429,39.6924765,-84.1690930
3866,Far Hills Avenue,45429,39.6915427,-84.1683560
3858,Far Hills Avenue,45429,39.6917250,-84.1683339
3820,Stoneyridge Drive,45429,39.6924094,-84.1735959
3830,Stoneyridge Drive,45429,39.6919089,-84.1734812
3840,Stoneyridge Drive,45429,39.6913547,-84.1734293
3850,Stoneyridge Drive,45429,39.6908177,-84.1737149
3839,Stoneyridge Drive,45429,39.6913898,-84.1741579
3829,Stoneyridge Drive,45429,39.6919457,-84.1742595
3810,Stoneyridge Drive,45429,39.6925823,-84.1745351
211,Glenridge Road,45429,39.6919811,-84.1748571
201,Glenridge Road,45429,39.6912326,-84.1746342
3900,Stonehaven Road,45429,39.6906415,-84.1745612
3800,Stoneyridge Drive,45429,39.6926435,-84.1753619
103,West Stroop Road,45429,39.6899315,-84.1701383
3949,Lenox Drive,45429,39.6902525,-84.1728910
3946,Lenox Drive,45429,39.6904271,-84.1722289
3945,Lenox Drive,45429,39.6904606,-84.1728594
301,Glenridge Road,45429,39.6928608,-84.1759498
3657,Wenbrook Drive,45429,39.6947747,-84.1532385
3651,Wenbrook Drive,45429,39.6950026,-84.1532178
3663,Wenbrook Drive,45429,39.6945616,-84.1532584
3669,Wenbrook Drive,45429,39.6943457,-84.1532706
3675,Wenbrook Drive,45429,39.6941267,-84.1532828
3701,Wenbrook Drive,45429,39.6939078,-84.1533072
3707,Wenbrook Drive,45429,39.6936919,-84.1533194
3713,Wenbrook Drive,45429,39.6934761,-84.1533438
3717,Wenbrook Drive,45429,39.6932696,-84.1533764
920,Wenbrook Drive,45429,39.6930584,-84.1533182
926,Wenbrook Drive,45429,39.6929075,-84.1531182
932,Wenbrook Drive,45429,39.6928499,-84.1528696
3650,Wenbrook Drive,45429,39.6948896,-84.1527259
3700,Wenbrook Drive,45429,39.6939728,-84.1528050
3662,Wenbrook Drive,45429,39.6944489,-84.1527462
3656,Wenbrook Drive,45429,39.6946760,-84.1527319
3712,Wenbrook Drive,45429,39.6934949,-84.1528316
3706,Wenbrook Drive,45429,39.6937409,-84.1527753
933,Wenbrook Drive,45429,39.6932439,-84.1527865
945,Wenbrook Drive,45429,39.6932225,-84.1521230
951,Wenbrook Drive,45429,39.6932070,-84.1518356
957,Wenbrook Drive,45429,39.6932070,-84.1515550
969,Wenbrook Drive,45429,39.6931820,-84.1509655
975,Wenbrook Drive,45429,39.6931726,-84.1506891
939,Wenbrook Drive,45429,39.6932317,-84.1524222
3668,Wenbrook Drive,45429,39.6942153,-84.1528127
981,Wenbrook Drive,45429,39.6931382,-84.1503250
950,Wenbrook Drive,45429,39.6928254,-84.1519778
956,Wenbrook Drive,45429,39.6928129,-84.1516933
962,Wenbrook Drive,45429,39.6928034,-84.1514087
968,Wenbrook Drive,45429,39.6928004,-84.1511320
974,Wenbrook Drive,45429,39.6927878,-84.1508517
944,Wenbrook Drive,45429,39.6928313,-84.1522814
938,Wenbrook Drive,45429,39.6928372,-84.1525673
963,Wenbrook Drive,45429,39.6931970,-84.1512667
980,Wenbrook Drive,45429,39.6927816,-84.1505671
1006,Wenbrook Drive,45429,39.6927410,-84.1495142
1024,Wenbrook Drive,45429,39.6927127,-84.1486239
1030,Wenbrook Drive,45429,39.6927190,-84.1483271
1036,Wenbrook Drive,45429,39.6927065,-84.1480140
1035,Wenbrook Drive,45429,39.6930788,-84.1482336
1029,Wenbrook Drive,45429,39.6930976,-84.1484856
1023,Wenbrook Drive,45429,39.6930913,-84.1487499
1017,Wenbrook Drive,45429,39.6931101,-84.1490223
1011,Wenbrook Drive,45429,39.6931131,-84.1492784
1019,Sharewood Court,45429,39.6938952,-84.1488921
3724,Mengel Drive,45429,39.6931716,-84.1498050
1012,Wenbrook Drive,45429,39.6927315,-84.1492011
1018,Wenbrook Drive,45429,39.6927159,-84.1489165
1005,Wenbrook Drive,45429,39.6931585,-84.1495433
3749,Maryknoll Drive,45429,39.6926596,-84.1477539
3729,Maryknoll Drive,45429,39.6931101,-84.1477172
3750,Maryknoll Drive,45429,39.6926305,-84.1472996
3710,Maryknoll Drive,45429,39.6938639,-84.1472090
3700,Maryknoll Drive,45429,39.6941580,-84.1471887
3625,Maryknoll Drive,45429,39.6941862,-84.1476562
3613,Maryknoll Drive,45429,39.6946616,-84.1476034
3609,Maryknoll Drive,45429,39.6948869,-84.1475871
3605,Maryknoll Drive,45429,39.6951215,-84.1475709
3606,Maryknoll Drive,45429,39.6948926,-84.1471184
3610,Maryknoll Drive,45429,39.6946210,-84.1471521
3600,Stoneview Court,45429,39.6952967,-84.1482335
3604,Stoneview Court,45429,39.6950527,-84.1481197
3608,Stoneview Court,45429,39.6948462,-84.1482376
3617,Stoneview Court,45429,39.6947775,-84.1485628
3609,Stoneview Court,45429,39.6949276,-84.1487824
3605,Stoneview Court,45429,39.6951340,-84.1487783
1013,Sharewood Court,45429,39.6939015,-84.1491889
1007,Sharewood Court,45429,39.6939109,-84.1494776
1001,Sharewood Court,45429,39.6939234,-84.1497622
1024,Sharewood Court,45429,39.6934542,-84.1486279
1018,Sharewood Court,45429,39.6934917,-84.1489368
1012,Sharewood Court,45429,39.6934979,-84.1492214
1006,Sharewood Court,45429,39.6935042,-84.1494938
1025,Sharewood Court,45429,39.6940583,-84.1485680
3709,Maryknoll Drive,45429,39.6938702,-84.1479396
3719,Maryknoll Drive,45429,39.6934170,-84.1478015
1041,Wenbrook Drive,45429,39.6930940,-84.1479718
1106,Wenbrook Drive,45429,39.6926552,-84.1470326
1124,Wenbrook Drive,45429,39.6926225,-84.1462186
1112,Wenbrook Drive,45429,39.6926578,-84.1467459
1118,Wenbrook Drive,45429,39.6926405,-84.1464732
1136,Wenbrook Drive,45429,39.6926088,-84.1457231
1137,Wenbrook Drive,45429,39.6930021,-84.1456743
1119,Wenbrook Drive,45429,39.6930391,-84.1464486
1113,Wenbrook Drive,45429,39.6930337,-84.1467034
1131,Wenbrook Drive,45429,39.6930038,-84.1459318
1130,Wenbrook Drive,45429,39.6926307,-84.1459495
1142,Wenbrook Drive,45429,39.6926252,-84.1454258
1143,Wenbrook Drive,45429,39.6929819,-84.1453868
1107,Wenbrook Drive,45429,39.6930364,-84.1469936
1137,Gardner Road,45429,39.6922058,-84.1457549
1131,Gardner Road,45429,39.6922167,-84.1459814
1119,Gardner Road,45429,39.6922330,-84.1464557
1125,Wenbrook Drive,45429,39.6930280,-84.1461914
1116,Cloverfield Avenue,45429,39.6914024,-84.1469229
1117,Cloverfield Avenue,45429,39.6914549,-84.1466229
1133,Cloverfield Avenue,45429,39.6913752,-84.1463849
1148,Cloverfield Avenue,45429,39.6909343,-84.1468267
3979,Maryknoll Drive,45429,39.6892966,-84.1480430
3980,Maryknoll Drive,45429,39.6892761,-84.1475529
956,Lincoln Park Boulevard,45429,39.6961424,-84.1513991
962,Lincoln Park Boulevard,45429,39.6961330,-84.1511227
968,Lincoln Park Boulevard,45429,39.6961266,-84.1508462
1000,Lincoln Park Boulevard,45429,39.6961266,-84.1505535
1006,Lincoln Park Boulevard,45429,39.6961141,-84.1502486
1012,Lincoln Park Boulevard,45429,39.6961079,-84.1499843
1018,Lincoln Park Boulevard,45429,39.6961204,-84.1496876
1015,Lincoln Park Boulevard,45429,39.6966616,-84.1499721
1024,Lincoln Park Boulevard,45429,39.6960953,-84.1494030
1025,Lincoln Park Boulevard,45429,39.6966022,-84.1494396
957,Benfield Drive,45429,39.6958076,-84.1514194
963,Benfield Drive,45429,39.6957857,-84.1511308
969,Benfield Drive,45429,39.6957951,-84.1508665
1001,Benfield Drive,45429,39.6957857,-84.1505698
1007,Benfield Drive,45429,39.6957857,-84.1502689
1013,Benfield Drive,45429,39.6957639,-84.1499884
1019,Benfield Drive,45429,39.6957639,-84.1497201
1023,Benfield Drive,45429,39.6957513,-84.1494355
950,Benfield Drive,45429,39.6954104,-84.1516918
956,Benfield Drive,45429,39.6953915,-84.1513381
962,Benfield Drive,45429,39.6954040,-84.1510048
1006,Benfield Drive,45429,39.6953790,-84.1504315
1012,Benfield Drive,45429,39.6953728,-84.1501104
1024,Benfield Drive,45429,39.6953790,-84.1497567
1030,Benfield Drive,45429,39.6953697,-84.1491834
3524,Sharewood Court,45429,39.6958264,-84.1517081
3624,Sharewood Court,45429,39.6951914,-84.1517325
3650,Sharewood Court,45429,39.6949724,-84.1517528
3656,Sharewood Court,45429,39.6947564,-84.1517708
3662,Sharewood Court,45429,39.6945344,-84.1517812
3606,Twinbrook Lane,45429,39.6951663,-84.1504762
3612,Sinton Place,45429,39.6949130,-84.1492363
3501,Oakmont Avenue,45429,39.6960766,-84.1491428
3525,Oakmont Avenue,45429,39.6957607,-84.1491509
3524,Oakmont Avenue,45429,39.6957607,-84.1486712
3500,Oakmont Avenue,45429,39.6960476,-84.1486905
1100,Benfield Drive,45429,39.6953696,-84.1487687
1107,Benfield Drive,45429,39.6957115,-84.1483956
1113,Benfield Drive,45429,39.6956950,-84.1480817
1119,Benfield Drive,45429,39.6956981,-84.1477280
1118,Benfield Drive,45429,39.6953477,-84.1479150
1124,Benfield Drive,45429,39.6953352,-84.1475410
1125,Benfield Drive,45429,39.6956856,-84.1474434
1131,Benfield Drive,45429,39.6956261,-84.1471466
1201,Benfield Drive,45429,39.6955073,-84.1468823
1200,Benfield Drive,45429,39.6951132,-84.1469881
1212,Benfield Drive,45429,39.6950036,-84.1466994
1213,Benfield Drive,45429,39.6953446,-84.1464961
1218,Benfield Drive,45429,39.6949473,-84.1464067
1224,Benfield Drive,45429,39.6949317,-84.1461140
1230,Benfield Drive,45429,39.6949286,-84.1458538
1236,Benfield Drive,45429,39.6949067,-84.1455489
1231,Benfield Drive,45429,39.6952633,-84.1454351
1225,Benfield Drive,45429,39.6952790,-84.1457684
3508,Bentwood Court,45429,39.6955261,-84.1458050
3509,Bentwood Court,45429,39.6956700,-84.1460937
3517,Bentwood Court,45429,39.6955762,-84.1463823
3601,Benfield Drive,45429,39.6947596,-84.1453010
3611,Benfield Drive,45429,39.6944719,-84.1452481
3608,Benfield Drive,45429,39.6946064,-84.1447561
3604,Benfield Drive,45429,39.6948285,-84.1448131
3524,Ascot Court,45429,39.6950913,-84.1449024
3516,Ascot Court,45429,39.6952758,-84.1446830
3508,Ascot Court,45429,39.6955198,-84.1447317
3509,Ascot Court,45429,39.6956136,-84.1449879
3517,Ascot Court,45429,39.6954857,-84.1452945
1106,Lincoln Park Boulevard,45429,39.6960891,-84.1483784
1112,Lincoln Park Boulevard,45429,39.6960860,-84.1480370
1118,Lincoln Park Boulevard,45429,39.6960954,-84.1477402
1124,Lincoln Park Boulevard,45429,39.6960829,-84.1474474
1132,Lincoln Park Boulevard,45429,39.6960829,-84.1471751
1140,Lincoln Park Boulevard,45429,39.6960672,-84.1468946
1200,Lincoln Park Boulevard,45429,39.6960610,-84.1466018
1208,Lincoln Park Boulevard,45429,39.6960579,-84.1463294
1216,Lincoln Park Boulevard,45429,39.6960547,-84.1460368
1224,Lincoln Park Boulevard,45429,39.6960453,-84.1457684
1232,Lincoln Park Boulevard,45429,39.6960359,-84.1454879
1240,Lincoln Park Boulevard,45429,39.6960297,-84.1451992
1142,Claybourne Road,45429,39.6940589,-84.1453131
987,Sharewood Court,45429,39.6939307,-84.1500494
981,Sharewood Court,45429,39.6939401,-84.1503137
975,Sharewood Court,45429,39.6939463,-84.1506064
980,Sharewood Court,45429,39.6935365,-84.1503015
974,Sharewood Court,45429,39.6935490,-84.1506673
968,Sharewood Court,45429,39.6935522,-84.1509600
962,Sharewood Court,45429,39.6935834,-84.1512283
3667,Sharewood Court,45429,39.6941747,-84.1523423
3657,Sharewood Court,45429,39.6946502,-84.1522651
3663,Sharewood Court,45429,39.6944187,-84.1523301
3668,Sharewood Court,45429,39.6942997,-84.1518258
3672,Sharewood Court,45429,39.6940464,-84.1518179
969,Sharewood Court,45429,39.6939502,-84.1508994
963,Sharewood Court,45429,39.6939677,-84.1511950
957,Sharewood Court,45429,39.6939713,-84.1514764
956,Sharewood Court,45429,39.6935701,-84.1515520
950,Sharewood Court,45429,39.6935773,-84.1518794
3673,Sharewood Court,45429,39.6939231,-84.1523389
944,Sharewood Court,45429,39.6937023,-84.1521704
3651,Sharewood Court,45429,39.6948739,-84.1523058
3818,Benfield Drive,45429,39.6913254,-84.1453896
3800,Benfield Drive,45429,39.6918595,-84.1449855
3830,Benfield Drive,45429,39.6910205,-84.1458365
1112,Claybourne Road,45429,39.6942115,-84.1466645
1107,Claybourne Road,45429,39.6946210,-84.1468865
3712,Benfield Drive,45429,39.6936450,-84.1448305
3813,Benfield Drive,45429,39.6913990,-84.1459665
3625,Sinton Place,45429,39.6944984,-84.1499688
3730,Benfield Drive,45429,39.6929995,-84.1448735
3613,Twinbrook Lane,45429,39.6949546,-84.1510490
3836,Benfield Drive,45429,39.6909100,-84.1460285
1266-1268,Lincoln Park Boulevard,45429,39.6959911,-84.1443714
3806,Benfield Drive,45429,39.6916700,-84.1451010
1137,Sharewood Court,45429,39.6937885,-84.1456245
3631,Sinton Place,45429,39.6943199,-84.1496763
3607,Sinton Place,45429,39.6951589,-84.1497781
3706,Benfield Drive,45429,39.6938440,-84.1448250
3618,Twinbrook Lane,45429,39.6947244,-84.1504202
1131,Sharewood Court,45429,39.6937805,-84.1459110
"3525,3533",North Marshall Road,45429,39.6956867,-84.1442074
3632,Twinbrook Lane,45429,39.6943381,-84.1506332
3736,Benfield Drive,45429,39.6927850,-84.1448665
1107,Sharewood Court,45429,39.6938270,-84.1469435
1143,Sharewood Court,45429,39.6937635,-84.1453405
1119,Sharewood Court,45429,39.6938285,-84.1464235
3742,Benfield Drive,45429,39.6925695,-84.1448950
1106,Sharewood Court,45429,39.6934355,-84.1469605
"3557,3565",North Marshall Road,45429,39.6954518,-84.1442158
3612,Twinbrook Lane,45429,39.6949450,-84.1504800
1143,Gardner Road,45429,39.6921855,-84.1454705
3754,Benfield Drive,45429,39.6921115,-84.1449590
1113,Claybourne Road,45429,39.6946000,-84.1466345
3613,Sinton Place,45429,39.6949284,-84.1497735
1256-1258,Lincoln Park Boulevard,45429,39.6959956,-84.1446664
1211,Claybourne Road,45429,39.6943891,-84.1442983
3807,Benfield Drive,45429,39.6915545,-84.1457840
3624,Twinbrook Lane,45429,39.6944990,-84.1504271
3618,Sinton Place,45429,39.6946985,-84.1491891
1118,Claybourne Road,45429,39.6941775,-84.1464090
3725,Benfield Drive,45429,39.6933605,-84.1453180
1112,Sharewood Court,45429,39.6934215,-84.1467130
1130,Sharewood Court,45429,39.6933995,-84.1459460
3835,Benfield Drive,45429,39.6912095,-84.1462680
1124,Sharewood Court,45429,39.6934285,-84.1462115
3812,Benfield Drive,45429,39.6915100,-84.1452385
3619,Sinton Place,45429,39.6947113,-84.1498385
3729,Benfield Drive,45429,39.6923925,-84.1454205
3624,Sinton Place,45429,39.6944474,-84.1490728
3625,Twinbrook Lane,45429,39.6945132,-84.1511850
1137,Claybourne Road,45429,39.6945210,-84.1455795
3631,Twinbrook Lane,45429,39.6943107,-84.1509323
1119,Claybourne Road,45429,39.6945775,-84.1463770
1201,Claybourne Road,45429,39.6944170,-84.1447330
1248,Lincoln Park Boulevard,45429,39.6959995,-84.1449540
3606,Sinton Place,45429,39.6951489,-84.1492407
3721,Mengel Drive,45429,39.6933363,-84.1503312
"3609,3617",North Marshall Road,45429,39.6950270,-84.1442660
3619,Twinbrook Lane,45429,39.6947356,-84.1510960
1136,Claybourne Road,45429,39.6941290,-84.1456165
1130,Claybourne Road,45429,39.6941715,-84.1458820
"3657,3665",North Marshall Road,45429,39.6945949,-84.1442857
3607,Twinbrook Lane,45429,39.6951876,-84.1510155
1125,Sharewood Court,45429,39.6938205,-84.1461710
3820,Benfield Drive,45429,39.6911670,-84.1456190
1118,Sharewood Court,45429,39.6934245,-84.1464610
1136,Sharewood Court,45429,39.6934110,-84.1456820
3726,Benfield Drive,45429,39.6932165,-84.1448605
1200,Claybourne Road,45429,39.6940525,-84.1447630
1113,Sharewood Court,45429,39.6938290,-84.1466800
1106,Claybourne Road,45429,39.6941990,-84.1469530
1125,Claybourne Road,45429,39.6945810,-84.1461020
3632,Sinton Place,45429,39.6942890,-84.1493750
3718,Benfield Drive,45429,39.6934375,-84.1448430
1124,Claybourne Road,45429,39.6941810,-84.1461515
3721,Benfield Drive,45429,39.6931710,-84.1453650
3748,Benfield Drive,45429,39.6923435,-84.1449200
1131,Claybourne Road,45429,39.6945465,-84.1458500
"3733,3737",North Marshall Road,45429,39.6929285,-84.1444090
1340,Cloverfield Avenue,45429,39.6902056,-84.1418898
3732,North Marshall Road,45429,39.6930590,-84.1437410
1500,East Stroop Road,45429,39.6880910,-84.1390916
1410,Cloverfield Avenue,45429,39.6901843,-84.1410633
1416,Wheatland Avenue,45429,39.6892362,-84.1409206
3732,Claybourne Road,45429,39.6926127,-84.1420435
1337,Cloverfield Avenue,45429,39.6906313,-84.1420610
1333,Wheatland Avenue,45429,39.6897872,-84.1425689
"3709,3713",North Marshall Road,45429,39.6937875,-84.1443405
3560,North Marshall Road,45429,39.6949391,-84.1433134
"3741,3745",North Marshall Road,45429,39.6926410,-84.1444325
3771,Claybourne Road,45429,39.6918859,-84.1421096
1332,Cloverfield Avenue,45429,39.6901825,-84.1420817
3725,Claybourne Road,45429,39.6926750,-84.1426974
1401,Cloverfield Avenue,45429,39.6905555,-84.1411947
3608,Claybourne Road,45429,39.6938588,-84.1429635
1301,Cloverfield Avenue,45429,39.6907368,-84.1439321
3709,Claybourne Road,45429,39.6928350,-84.1428654
1217,Cloverfield Avenue,45429,39.6908055,-84.1455210
3716,Claybourne Road,45429,39.6927797,-84.1421718
3624,Claybourne Road,45429,39.6934283,-84.1426190
3612,Claybourne Road,45429,39.6943475,-84.1436965
1315,Cloverfield Avenue,45429,39.6907277,-84.1431278
3908,North Marshall Road,45429,39.6901730,-84.1440160
1316,Cloverfield Avenue,45429,39.6902283,-84.1431401
1430,Wheatland Avenue,45429,39.6892452,-84.1404816
3740,Claybourne Road,45429,39.6924961,-84.1419350
1332,Urban Avenue,45429,39.6921054,-84.1423135
"3809,3813",North Marshall Road,45429,39.6920665,-84.1444925
"3801,3805",North Marshall Road,45429,39.6923535,-84.1444575
1415,Claybourne Road,45429,39.6905324,-84.1408931
1463,East Stroop Road,45429,39.6886944,-84.1395754
1304,Cloverfield Avenue,45429,39.6903347,-84.1435676
1425,Wheatland Avenue,45429,39.6896572,-84.1407306
"3825,3829",North Marshall Road,45429,39.6914920,-84.1445185
1265,Cloverfield Avenue,45429,39.6907625,-84.1446275
3900,Cloverfield Avenue,45429,39.6904140,-84.1440060
1317,Wheatland Avenue,45429,39.6897845,-84.1431858
"3725,3729",North Marshall Road,45429,39.6932165,-84.1444005
3764,Claybourne Road,45429,39.6920875,-84.1414990
1319,Cloverfield Avenue,45429,39.6907757,-84.1429083
3700,Claybourne Road,45429,39.6929966,-84.1422899
1210,Claybourne Road,45429,39.6940210,-84.1443430
1233,Cloverfield Avenue,45429,39.6907855,-84.1452470
1341,Wheatland Avenue,45429,39.6897343,-84.1423330
1344,Cloverfield Avenue,45429,39.6901771,-84.1416816
3900,Claybourne Road,45429,39.6896001,-84.1394456
1309,Wheatland Avenue,45429,39.6898319,-84.1434097
1311,Cloverfield Avenue,45429,39.6906817,-84.1433205
3781,Claybourne Road,45429,39.6915363,-84.1417093
"3717,3721",North Marshall Road,45429,39.6935050,-84.1443680
1472,East Stroop Road,45429,39.6881340,-84.1393859
3609,Claybourne Road,45429,39.6937112,-84.1434387
3828,North Marshall Road,45429,39.6909972,-84.1438562
1325,Cloverfield Avenue,45429,39.6906384,-84.1426566
1420,Wheatland Avenue,45429,39.6892337,-84.1406898
3724,North Marshall Road,45429,39.6932798,-84.1437618
3848,Claybourne Road,45429,39.6906252,-84.1400724
1353,Wheatland Avenue,45429,39.6897520,-84.1418445
"3817,3821",North Marshall Road,45429,39.6917815,-84.1445020
3908,Claybourne Road,45429,39.6894243,-84.1393020
1309,Cloverfield Avenue,45429,39.6906891,-84.1435793
3748,Claybourne Road,45429,39.6923699,-84.1417170
3816,North Marshall Road,45429,39.6916335,-84.1439410
1420,Cloverfield Avenue,45429,39.6901512,-84.1405645
1466,East Stroop Road,45429,39.6881284,-84.1397583
"3808,3812",North Marshall Road,45429,39.6919129,-84.1438054
3916,Claybourne Road,45429,39.6892886,-84.1391816
3701,Claybourne Road,45429,39.6930284,-84.1430546
3616,Claybourne Road,45429,39.6936885,-84.1428350
1324,Cloverfield Avenue,45429,39.6902670,-84.1425055
1416,Cloverfield Avenue,45429,39.6901257,-84.1408265
3600,Claybourne Road,45429,39.6940503,-84.1430946
1316,Wheatland Avenue,45429,39.6894167,-84.1434675
3700,North Marshall Road,45429,39.6939985,-84.1436925
3625,Claybourne Road,45429,39.6932539,-84.1430376
3617,Claybourne Road,45429,39.6934569,-84.1431918
1345,Wheatland Avenue,45429,39.6897413,-84.1420949
"3833,3837",North Marshall Road,45429,39.6912010,-84.1445490
1325,Wheatland Avenue,45429,39.6897467,-84.1429420
3805,Claybourne Road,45429,39.6908163,-84.1411722
1328,Cloverfield Avenue,45429,39.6902036,-84.1423055
1424,East Stroop Road,45429,39.6882358,-84.1409494
1490,Wheatland Avenue,45429,39.6891660,-84.1398395
1333,Cloverfield Avenue,45429,39.6906553,-84.1422608
1249,Cloverfield Avenue,45429,39.6908015,-84.1449800
1431,Wheatland Avenue,45429,39.6896129,-84.1404279
"3841,3845",North Marshall Road,45429,39.6909605,-84.1445770
1440,Wheatland Avenue,45429,39.6892081,-84.1402695
1409,Wheatland Avenue,45429,39.6896682,-84.1410781
3200,North Marshall Road,45429,39.6993746,-84.1442524
3019,Kettering Boulevard,45439,39.7080775,-84.2020536
1211,Kim Lane,45420,39.7187802,-84.1433828
1216,Kim Lane,45420,39.7184245,-84.1430278
1208,Kim Lane,45420,39.7183925,-84.1434448
1209,Kim Lane,45420,39.7187824,-84.1435799
1221,Kim Lane,45420,39.7187873,-84.1427975
1213,Kim Lane,45420,39.7187875,-84.1431807
1205,Kim Lane,45420,39.7186874,-84.1437504
1220,Kim Lane,45420,39.7183954,-84.1428246
1204,Kim Lane,45420,39.7183258,-84.1436456
1212,Kim Lane,45420,39.7184216,-84.1432415
3001,Shroyer Road,45429,39.7036029,-84.1626481
436,East Dorothy Lane,45419,39.7036068,-84.1628097
432,East Dorothy Lane,45419,39.7035731,-84.1630339
3007,Shroyer Road,45429,39.7032262,-84.1626831
441,Lewiston Road,45429,39.7030324,-84.1626713
437,Lewiston Road,45429,39.7030137,-84.1628643
433,Lewiston Road,45429,39.7030277,-84.1630943
429,Lewiston Road,45429,39.7030473,-84.1632858
425,Lewiston Road,45429,39.7030510,-84.1635184
428,East Dorothy Lane,45419,39.7035642,-84.1632325
424,East Dorothy Lane,45419,39.7035880,-84.1634301
420,East Dorothy Lane,45419,39.7036052,-84.1636273
416,East Dorothy Lane,45419,39.7036105,-84.1638281
412,East Dorothy Lane,45419,39.7036100,-84.1640282
408,East Dorothy Lane,45419,39.7036314,-84.1642308
404,East Dorothy Lane,45419,39.7036353,-84.1644424
3000,Delaine Avenue,45419,39.7035877,-84.1646021
3024,Delaine Avenue,45419,39.7031493,-84.1646764
3001,Delaine Avenue,45419,39.7036390,-84.1650308
340,East Dorothy Lane,45419,39.7037065,-84.1651865
336,East Dorothy Lane,45419,39.7037009,-84.1653974
332,East Dorothy Lane,45419,39.7037181,-84.1655704
328,East Dorothy Lane,45419,39.7037216,-84.1657900
324,East Dorothy Lane,45419,39.7037403,-84.1659589
320,East Dorothy Lane,45419,39.7037356,-84.1661754
316,East Dorothy Lane,45419,39.7037501,-84.1663492
312,East Dorothy Lane,45419,39.7037667,-84.1665680
308,East Dorothy Lane,45419,39.7037856,-84.1667401
304,East Dorothy Lane,45419,39.7037818,-84.1669331
3000,Hathaway Road,45419,39.7037382,-84.1671111
3024,Hathaway Road,45429,39.7033380,-84.1671176
305,Lewiston Road,45429,39.7033147,-84.1669404
309,Lewiston Road,45429,39.7033024,-84.1667099
313,Lewiston Road,45429,39.7032888,-84.1665166
317,Lewiston Road,45429,39.7032742,-84.1663065
321,Lewiston Road,45429,39.7033070,-84.1660966
325,Lewiston Road,45419,39.7032553,-84.1658915
329,Lewiston Road,45429,39.7032433,-84.1656806
333,Lewiston Road,45429,39.7032316,-84.1654690
337,Lewiston Road,45429,39.7032157,-84.1652585
341,Lewiston Road,45429,39.7031994,-84.1650666
509,Orangewood Drive,45429,39.6802030,-84.1616086
609,Stoneybrook Drive,45429,39.6784835,-84.1603351
617,Stoneybrook Drive,45429,39.6784797,-84.1599822
625,Stoneybrook Drive,45429,39.6784559,-84.1595821
633,Stoneybrook Drive,45429,39.6784525,-84.1592458
641,Stoneybrook Drive,45429,39.6784594,-84.1588302
146,Wyngate Drive,45429,39.6935227,-84.1725832
138,Wyngate Drive,45429,39.6935413,-84.1723266
130,Wyngate Drive,45429,39.6935494,-84.1720777
122,Wyngate Drive,45429,39.6936042,-84.1718195
116,Wyngate Drive,45429,39.6936464,-84.1715707
108,Wyngate Drive,45429,39.6936715,-84.1713381
100,Wyngate Drive,45429,39.6937708,-84.1710098
109,Wyngate Drive,45429,39.6940900,-84.1714781
117,Wyngate Drive,45429,39.6940477,-84.1717206
123,Wyngate Drive,45429,39.6940137,-84.1719652
131,Wyngate Drive,45429,39.6939606,-84.1721946
139,Wyngate Drive,45429,39.6939552,-84.1724478
147,Wyngate Drive,45429,39.6939332,-84.1726868
18,Wyngate Drive,45429,39.6939505,-84.1701767
10,Wyngate Drive,45429,39.6940138,-84.1698811
2,Wyngate Drive,45429,39.6941389,-84.1695931
1,Wyngate Drive,45429,39.6943786,-84.1695841
9,Wyngate Drive,45429,39.6943134,-84.1701667
17,Wyngate Drive,45429,39.6942644,-84.1704670
3617,Far Hills Avenue,45429,39.6940363,-84.1691517
3609,Far Hills Avenue,45429,39.6942393,-84.1691982
3601,Far Hills Avenue,45429,39.6944396,-84.1692194
187,Cross Ridge Drive,45429,39.6945522,-84.1700112
5030,Polen Drive,45440,39.6712882,-84.1302426
3313,Wilmington Pike,45429,39.6975303,-84.1422077
