House number,Street name,Postal code,Latitude,Longitude
350,State Route 664 North,43138,39.5454070,-82.4275580
84,East Main Street,43138,39.5401819,-82.4072393
389,West Front Street,43138,39.5378126,-82.4164459
12910,SR 664,43138,39.5388570,-82.4368443
2,West Hunter Street,43138,39.5416350,-82.4088786
12900,SR 664,43138,39.5402667,-82.4372406
31550,Chieftain Drive,43138,39.5461682,-82.4339102
162,South Mulberry Street,43138,39.5382960,-82.4069343
160,South Mulberry Street,43138,39.5383455,-82.4069311
4,East Main Street,43138,39.5403424,-82.4084570
12910,SR 664 South,43138,39.5383051,-82.4370841
12904,SR 664,43138,39.5405890,-82.4388794
12916,SR 664,43138,39.5390536,-82.4397590
31550,Chieftain Drive,43138,39.5463032,-82.4341112
31640,Chieftain Drive,43138,39.5456199,-82.4328695
31480,Chieftain Drive,43138,39.5461303,-82.4354413
31490,Chieftain Drive,43138,39.5462828,-82.4350141
31500,Chieftain Drive,43138,39.5457662,-82.4349397
21,Hocking Mall,43138,39.5445009,-82.4293356
609,SR 664,43138,39.5486326,-82.4297211
601,State Route 664 North,43138,39.5482737,-82.4300617
450,SR 664,43138,39.5464667,-82.4275608
30750,Lake Logan Road,43138,39.5408070,-82.4455504
12790,Grey Street,43138,39.5431212,-82.4475873
201,South Walnut Street,43138,39.5365036,-82.4038070
975,East Main Street,43138,39.5387434,-82.3924552
641,East Front Street,43138,39.5364828,-82.3989629
225,East Main Street,43138,39.5396238,-82.4052707
297,East Main Street,43138,39.5395276,-82.4046386
65,South Orchard Street,43138,39.5391935,-82.4045202
57,South Walnut Street,43138,39.5392935,-82.4058742
53,East Main Street,43138,39.5397479,-82.4078281
95,East Main Street,43138,39.5397004,-82.4071991
75,East Main Street,43138,39.5397185,-82.4074893
61,North Market Street,43138,39.5407712,-82.4090947
35,North Market Street,43138,39.5404487,-82.4089755
98,West Main Street,43138,39.5404398,-82.4104846
80,North Market Street,43138,39.5409131,-82.4084192
40,North Market Street,43138,39.5404264,-82.4085731
4,East Main Street,43138,39.5404164,-82.4084465
230,East Main Street,43138,39.5402102,-82.4050748
50,South High Street,43138,39.5397063,-82.4117141
188,West Main Street,43138,39.5406268,-82.4117940
57,West Hunter Street,43138,39.5409495,-82.4098594
"54,58;58",West Main Street,43138,39.5403911,-82.4099007
48,West Main Street,43138,39.5404918,-82.4096598
38,West Main Street,43138,39.5404830,-82.4095184
58,West 2nd Street,43138,39.5394289,-82.4100248
105,West Hunter Street,43138,39.5410486,-82.4110510
156,West Main Street,43138,39.5406136,-82.4114602
93,West Hunter Street,43138,39.5410327,-82.4103873
302,East Front Street,43138,39.5379629,-82.4041060
2195,East Front Street;Front Street,43138,39.5249436,-82.3732853
870,Homer Street,43138,39.5366162,-82.4227594
201,Hocking Avenue,43138,39.5409750,-82.4175019
273,Wood Street,43138,39.5432500,-82.4159472
150,Hocking Mall Street,43138,39.5458221,-82.4320920
1301,West Hunter Street,43138,39.5429318,-82.4264095
198,South Mulberry Street,43138,39.5381428,-82.4067046
851,Smead Road,43138,39.5268768,-82.3786587
1011,East Front Street,43138,39.5339956,-82.3921003
1120,C I C Drive,43138,39.5337026,-82.3897861
1,West Front Street,43138,39.5369179,-82.4094852
503,West Hunter Street,43138,39.5414794,-82.4161294
527,East Main Street,43138,39.5394056,-82.4006070
531,East Main Street,43138,39.5393914,-82.4004724
541,East Main Street,43138,39.5393656,-82.4002475
551,East Main Street,43138,39.5393507,-82.3998469
559,East Main Street,43138,39.5393470,-82.3997231
525,East Front Street,43138,39.5374113,-82.4009668
"444,446",East 2nd Street,43138,39.5389440,-82.4022908
460,East 2nd Street,43138,39.5388272,-82.4020657
"476,478",East 2nd Street,43138,39.5388300,-82.4018301
51,Depot Street,43138,39.5390031,-82.4015529
579,East Main Street,43138,39.5393174,-82.3994757
585,East Main Street,43138,39.5392816,-82.3993336
595,East Main Street,43138,39.5392889,-82.3991922
580,East 2nd Street,43138,39.5386749,-82.3997580
564,East 2nd Street,43138,39.5386542,-82.3999072
84,South Culver Street,43138,39.5389479,-82.4028306
90,South Culver Street,43138,39.5388259,-82.4028432
355,East 2nd Street,43138,39.5385076,-82.4035539
339,East 2nd Street,43138,39.5385568,-82.4038987
507,West Front Street,43138,39.5394231,-82.4175582
325,Friesner Avenue,43138,39.5393207,-82.4177035
349,Friesner Avenue,43138,39.5391969,-82.4178163
375,Friesner Avenue,43138,39.5391151,-82.4179490
377,West Front Street,43138,39.5377625,-82.4154893
358,Barton Street,43138,39.5377522,-82.4150042
346,Barton Street,43138,39.5377968,-82.4147498
332,Barton Street,43138,39.5377466,-82.4145155
363,Barton Street,43138,39.5375433,-82.4151176
351,Barton Street,43138,39.5373586,-82.4149623
359,Barton Street,43138,39.5373194,-82.4147288
327,Barton Street,43138,39.5373252,-82.4145022
315,Barton Street,43138,39.5373204,-82.4142698
303,Barton Street,43138,39.5373271,-82.4140412
291,Barton Street,43138,39.5373147,-82.4138170
279,Barton Street,43138,39.5373063,-82.4135944
318,Barton Street,43138,39.5377278,-82.4142980
650,Walhonding Avenue,43138,39.5322960,-82.4053274
14470,SR 328,43138,39.5146320,-82.3734325
14946,SR 328,43138,39.5158824,-82.3735315
14470,SR 328,43138,39.5170462,-82.3755820
501,East Main Street,43138,39.5390430,-82.4007032
830,Walhonding Avenue,43138,39.5307428,-82.4050852
470,North Market Street,43138,39.5446196,-82.4076637
12819,State Route 664 South,43138,39.5424189,-82.4383983
445,North Market Street,43138,39.5446972,-82.4092644
13495,Maysville-Williams Road,43138,39.5301630,-82.3698099
1,Middle School Drive,43138,39.5284873,-82.3700513
"158,160",East Main Street,43138,39.5401580,-82.4061383
251,North Market Street,43138,39.5434689,-82.4089066
321,North Market Street,43138,39.5429709,-82.4088720
2,West Hunter Street,43138,39.5414916,-82.4089360
72,West 2nd Street,43138,39.5393750,-82.4105379
75,West 2nd Street,43138,39.5389480,-82.4104133
141,South Spring Street,43138,39.5389350,-82.4111557
55,South Spring Street,43138,39.5394284,-82.4110695
53,South Spring Street,43138,39.5396059,-82.4111427
117,West Main Street,43138,39.5400141,-82.4109469
79,West Main Street,43138,39.5399016,-82.4102835
82,East Main Street,43138,39.5402895,-82.4073167
72,East Main Street,43138,39.5403577,-82.4074720
66,East Main Street,43138,39.5403562,-82.4075715
54,E Main Street,43138,39.5403105,-82.4077556
48,East Main Street,43138,39.5403794,-82.4078923
16,East Main Street,43138,39.5403280,-82.4080788
32,East Main Street,43138,39.5403982,-82.4081903
12,East Main Street,43138,39.5403595,-82.4083242
63,East Hunter Street,43138,39.5409387,-82.4075140
73,East Hunter Street,43138,39.5409514,-82.4073876
85,North Mulberry Street,43138,39.5408925,-82.4071532
44,East Front Street,43138,39.5381433,-82.4082686
88,South Market Street,43138,39.5392288,-82.4086116
53,South Market Street,43138,39.5395288,-82.4091040
"89,91",South Market Street,43138,39.5392470,-82.4091292
312,West Main Street,43138,39.5410994,-82.4136965
96,West Hunter Street,43138,39.5416043,-82.4104276
170,East Bowen Street,43138,39.5371778,-82.4064237
1205,West Hunter Street,43138,39.5426994,-82.4251446
31843,Chieftain Drive,43138,39.5437365,-82.4297692
215,West Main Street,43138,39.5399883,-82.4124807
701,East Front Street,43138,39.5369972,-82.3968155
890,West Hunter Street,43138,39.5422949,-82.4208460
1201,West Hunter Street,43138,39.5425817,-82.4245372
12451,SR 664,43138,39.5434372,-82.4302936
297,Riff Avenue,43138,39.5445153,-82.4250995
1321,3rd Street,43138,39.5448872,-82.4270292
999,Church Street,43138,39.5430272,-82.4220208
109,South Mulberry Street,43138,39.5393841,-82.4072100
95,South Mulberry Street,43138,39.5391156,-82.4072979
52,East Second Street,43138,39.5393018,-82.4077693
9,East 2nd Street,43138,39.5387979,-82.4086676
55,East 2nd Street,43138,39.5387721,-82.4078985
12830,Grey Street,43138,39.5422703,-82.4472119
975,West Hunter Street,43138,39.5418636,-82.4219931
899,West Hunter Street,43138,39.5417684,-82.4213498
196,North Market Street,43138,39.5415928,-82.4084227
48,East Hunter Street,43138,39.5413513,-82.4078447
60,East Hunter Street,43138,39.5413094,-82.4075885
143,North Mulberry Street,43138,39.5414899,-82.4069683
100,East Hunter Street,43138,39.5412169,-82.4065351
101,East Hunter Street,43138,39.5408446,-82.4066162
137,East Hunter Street,43138,39.5408746,-82.4062622
156,East 2nd Street,43138,39.5390900,-82.4062541
172,East 2nd Street,43138,39.5390590,-82.4061080
148,East 2nd Street,43138,39.5391013,-82.4064332
147,East 2nd Street,43138,39.5387053,-82.4064882
109,South Mulberry Street,43138,39.5387870,-82.4073217
137,South Mulberry Street,43138,39.5385724,-82.4073404
150,South Mulberry Street,43138,39.5384999,-82.4068834
199,South Walnut Street,43138,39.5379828,-82.4060210
172,East Front Street,43138,39.5379859,-82.4062289
33,West 2nd Street,43138,39.5388310,-82.4097372
130,West 2nd Street,43138,39.5393935,-82.4112874
142,West 2nd Street,43138,39.5394101,-82.4114033
93,South High Street,43138,39.5394349,-82.4123696
55,South High Street,43138,39.5397229,-82.4123716
"142,144",Spring Hill Place,43138,39.5417976,-82.4117037
125,Warner Avenue,43138,39.5418561,-82.4149071
416,West Hunter Street,43138,39.5420070,-82.4151432
392,West Hunter Street,43138,39.5417836,-82.4144593
301,West Hunter Street,43138,39.5416724,-82.4136257
344,West Hunter Street,43138,39.5417305,-82.4139961
322,West Hunter Street,43138,39.5417067,-82.4138704
137,Fountain Street,43138,39.5419285,-82.4136114
45,North High Street,43138,39.5408142,-82.4122888
232,West Main Street,43138,39.5405481,-82.4126587
145,West Main Street,43138,39.5399664,-82.4113672
1266,West Hunter Street,43138,39.5434852,-82.4260753
1210,West Hunter Street,43138,39.5432683,-82.4250943
1027,West Hunter Street,43138,39.5423070,-82.4232033
999,West Hunter Street,43138,39.5421711,-82.4224674
885,W Hunter St,43138,39.5418033,-82.4209284
811,West Hunter Street,43138,39.5417306,-82.4201100
593,West Hunter Street,43138,39.5415076,-82.4170117
655,West Hunter Street,43138,39.5415916,-82.4178163
758,West Hunter Street,43138,39.5414749,-82.4184724
598,Church Street,43138,39.5428072,-82.4168623
490,Church Street,43138,39.5427503,-82.4156406
240,Warner Avenue,43138,39.5426892,-82.4144013
42,West Hunter Street,43138,39.5414699,-82.4094674
321,East Hunter Street,43138,39.5406723,-82.4039147
322,Midland Place,43138,39.5430090,-82.4073663
256,North Market Street,43138,39.5423297,-82.4082249
286,North Market Street,43138,39.5425729,-82.4083218
271,North Market Street,43138,39.5425022,-82.4088509
183,North Market Street,43138,39.5418446,-82.4089628
8,East Hunter Street,43138,39.5413574,-82.4082406
97,North High Street,43138,39.5412674,-82.4122495
73,North High Street,43138,39.5410246,-82.4122840
77,North High Street,43138,39.5411661,-82.4122669
253,West Hunter Street,43138,39.5412777,-82.4127240
257,West Hunter Street,43138,39.5412431,-82.4128716
"301,303",West Hunter Street,43138,39.5413098,-82.4136084
204,West Hunter Street,43138,39.5416510,-82.4120739
218,West Hunter Street,43138,39.5415965,-82.4122572
"230,232",West Hunter Street,43138,39.5416181,-82.4123820
236,West Hunter Street,43138,39.5416664,-82.4125446
55,North Walnut Street,43138,39.5405275,-82.4057469
211,East Hunter Street,43138,39.5407752,-82.4052459
212,East Hunter Street,43138,39.5411469,-82.4052339
230,East Hunter Street,43138,39.5411527,-82.4050126
196,East Hunter Street,43138,39.5411738,-82.4056282
308,North Mulberry Street,43138,39.5427375,-82.4063738
309,North Mulberry Street,43138,39.5427655,-82.4068479
374,North Mulberry Street,43138,39.5433999,-82.4062940
520,North Mulberry Street,43138,39.5453003,-82.4063149
516,North Mulberry Street,43138,39.5450841,-82.4060811
18,West Jennison Avenue,43138,39.5458116,-82.4089239
650,Walhonding Avenue,43138,39.5315573,-82.4049663
150,North Homer Avenue,43138,39.5412096,-82.3946545
935,East Main Street,43138,39.5386893,-82.3931037
297,Riff Avenue,43138,39.5443809,-82.4249504
823,East Main Street,43138,39.5388021,-82.3950425
1320,West Hunter Street,43138,39.5437609,-82.4273013
937,Church Street,43138,39.5430211,-82.4217535
922,W Hunter St,43138,39.5425237,-82.4214860
"333,335",East Main Street,43138,39.5396186,-82.4038156
345,East Main Street,43138,39.5395881,-82.4036755
111,East 2nd Street,43138,39.5387334,-82.4068572
21,West 2nd Street,43138,39.5389225,-82.4094006
27,West 2nd Street,43138,39.5389509,-82.4095306
57,West 2nd Street,43138,39.5389447,-82.4100279
119,West Main Street,43138,39.5399547,-82.4111712
65,East Main Street,43138,39.5398256,-82.4076516
81,East Main Street,43138,39.5397115,-82.4073875
107,South Market Street,43138,39.5389076,-82.4091857
133,South Market Street,43138,39.5387085,-82.4092478
67,East Front Street,43138,39.5376958,-82.4077316
196,North Market Street,43138,39.5419225,-82.4082745
2019,East Front Street,43138,39.5266683,-82.3756267
523,West Hunter Street,43138,39.5414978,-82.4163148
703,West Hunter Street,43138,39.5415562,-82.4190030
1395,West Hunter Street,43138,39.5427151,-82.4287134
385,West Main Street,43138,39.5411977,-82.4147105
373,West Main Street,43138,39.5411201,-82.4145771
185,Falls Street,43138,39.5331973,-82.4100427
50,Hill Street,43138,39.5428698,-82.4098458
284,North Mulberry Street,43138,39.5425345,-82.4063473
128,East Hunter Street,43138,39.5413181,-82.4063126
209,North Market Street,43138,39.5420610,-82.4089302
615,Walhonding Avenue,43138,39.5328333,-82.4081529
246,North Mulberry Street,43138,39.5422449,-82.4064399
111,Falls Street,43138,39.5331104,-82.4093106
260,North Mulberry Street,43138,39.5423399,-82.4063880
12815,SR 664,43138,39.5423567,-82.4371388
12791,SR 664,43138,39.5431716,-82.4365896
170,South Spring Street,43138,39.5385405,-82.4106908
188,South Spring Street,43138,39.5383424,-82.4106965
44,West Front Street,43138,39.5382832,-82.4099102
56,West Front Street,43138,39.5383121,-82.4100969
185,South High Street,43138,39.5384937,-82.4124858
201,South High Street,43138,39.5379864,-82.4125513
175,West Front Street,43138,39.5380394,-82.4120023
201,East 2nd Street,43138,39.5386710,-82.4055440
221,East 2nd Street,43138,39.5386649,-82.4054248
288,East 2nd Street,43138,39.5389747,-82.4046488
262,East 2nd Street,43138,39.5389830,-82.4047768
258,East 2nd Street,43138,39.5390023,-82.4049030
64,North Culver Street,43138,39.5404545,-82.4026305
137,Midland Place,43138,39.5415713,-82.4078443
406,Church Street,43138,39.5427315,-82.4147401
627,Church Street,43138,39.5425788,-82.4175421
273,Warner Avenue,43138,39.5430564,-82.4147597
275,Warner Avenue,43138,39.5431471,-82.4147507
197,Midland Place,43138,39.5420224,-82.4078099
86,West Hunter Street,43138,39.5415028,-82.4102572
175,Midland Place,43138,39.5417936,-82.4078650
442,Church Street,43138,39.5426914,-82.4151052
311,Warner Avenue,43138,39.5435792,-82.4147157
163,East Hunter Street,43138,39.5408391,-82.4060154
56,North Walnut Street,43138,39.5405159,-82.4052925
143,North Walnut Street,43138,39.5414043,-82.4055949
176,East Hunter Street,43138,39.5411862,-82.4058457
168,East Hunter Street,43138,39.5411975,-82.4059410
160,East Hunter Street,43138,39.5412089,-82.4060321
"356,358",West Hunter Street,43138,39.5417687,-82.4141593
"206,208",Spring Hill Place,43138,39.5420378,-82.4120917
340,East Hunter Street,43138,39.5410487,-82.4035539
322,East Hunter Street,43138,39.5410694,-82.4038168
364,East Hunter Street,43138,39.5410497,-82.4033071
384,East Hunter Street,43138,39.5410518,-82.4030442
98,North Culver Street,43138,39.5405973,-82.4026104
30,North Culver Street,43138,39.5399514,-82.4026874
59,North Culver Street,43138,39.5403817,-82.4031341
370,East Main Street,43138,39.5399979,-82.4031247
370,East Main Street,43138,39.5400010,-82.4032682
360,East Main Street,43138,39.5400031,-82.4034252
483,East Hunter Street,43138,39.5405171,-82.4015637
1375,West Hunter Street,43138,39.5431035,-82.4278613
1593,East Front Street,43138,39.5309780,-82.3832782
1945,East Front Street,43138,39.5278857,-82.3773714
12531,SR 664,43138,39.5426922,-82.4324988
316,East Main Street,43138,39.5400665,-82.4039481
336,East Main Street,43138,39.5400738,-82.4037282
56,North Orchard Street,43138,39.5404456,-82.4037892
279,East Hunter Street,43138,39.5407206,-82.4044255
61,North Orchard Street,43138,39.5405057,-82.4044450
66,South Orchard Street,43138,39.5391383,-82.4041346
84,South Orchard Street,43138,39.5390219,-82.4041426
342,East 2nd Street,43138,39.5388833,-82.4037819
306,East 2nd Street,43138,39.5389201,-82.4040983
"287,289",East 2nd Street,43138,39.5386614,-82.4045945
152,South Walnut Street,43138,39.5384060,-82.4055078
77,South Culver Street,43138,39.5390453,-82.4032397
55,South Culver Street,43138,39.5391466,-82.4032947
91,South Culver Street,43138,39.5388814,-82.4032678
360,East 2nd Street,43138,39.5388803,-82.4035388
421,East 2nd Street,43138,39.5385148,-82.4026429
441,East 2nd Street,43138,39.5384733,-82.4024075
461,East 2nd Street,43138,39.5384061,-82.4021078
149,South Depot Street,43138,39.5382505,-82.4016250
441,East Front Street,43138,39.5376087,-82.4025168
471,East Front Street,43138,39.5375772,-82.4020709
2251,East Front Street,43138,39.5232824,-82.3728011
2217,E Front St,43138,39.5236353,-82.3730453
35107,Hocking Drive,43138,39.5220143,-82.3708692
493,Church Street,43138,39.5424766,-82.4155468
676,East Main Street,43138,39.5396138,-82.3977820
522,East Main Street,43138,39.5398448,-82.4004226
133,East Street,43138,39.5413468,-82.4021222
38,South Culver Street,43138,39.5392603,-82.4027985
538,East Main Street,43138,39.5397992,-82.4002373
36,South Culver Street,43138,39.5393818,-82.4027930
"18,20",South Culver Street,43138,39.5395119,-82.4027972
470,East Hunter Street,43138,39.5409150,-82.4017043
670,East Main Street,43138,39.5396678,-82.3979067
432,East Main Street,43138,39.5399804,-82.4022497
443,East Main Street,43138,39.5394548,-82.4021799
490,East Main Street,43138,39.5398985,-82.4014852
474,East Main Street,43138,39.5399148,-82.4016708
534,West 2nd Street,43138,39.5407248,-82.4157528
235,West 2nd Street,43138,39.5391417,-82.4127583
177,Furnace Street,43138,39.5424317,-82.4173092
295,West 2nd Street,43138,39.5391956,-82.4135258
163,Furnace Street,43138,39.5423364,-82.4173384
253,West 2nd Street,43138,39.5391530,-82.4129569
217,Wood Street,43138,39.5428095,-82.4160366
252,West Front Street,43138,39.5384754,-82.4130470
522,West 2nd Street,43138,39.5406340,-82.4156591
525,West 2nd Street,43138,39.5405167,-82.4159662
195,Furnace Street,43138,39.5425769,-82.4172880
105,West 2nd Street,43138,39.5391910,-82.4137826
278,West Front Street,43138,39.5385623,-82.4133540
296,Weis Street,43138,39.5385392,-82.4135447
510,West 2nd Street,43138,39.5405195,-82.4155729
460,West 2nd Street,43138,39.5401330,-82.4151246
450,West 2nd Street,43138,39.5400112,-82.4150164
956,Ohio Avenue,43138,39.5456312,-82.3936992
327,Midland Place,43138,39.5431873,-82.4077618
700,Ohio Avenue,43138,39.5450134,-82.3962160
936,Ohio Avenue,43138,39.5455706,-82.3941493
101,East Street,43138,39.5410492,-82.4025172
694,East Hunter Street,43138,39.5405900,-82.3970719
690,East Hunter Street,43138,39.5405781,-82.3971953
686,East Hunter Street,43138,39.5405880,-82.3973187
"697,699",East Hunter Street,43138,39.5402502,-82.3969170
691,East Hunter Street,43138,39.5402445,-82.3971095
687,East Hunter Street,43138,39.5402404,-82.3973180
586,East Main Street,43138,39.5396633,-82.3991459
656,East Main Street,43138,39.5396312,-82.3980422
49,North Homer Avenue,43138,39.5398237,-82.3969492
692,East Main Street,43138,39.5395992,-82.3972119
684,East Main Street,43138,39.5395867,-82.3975903
688,East Main Street,43138,39.5395863,-82.3973945
695,East Main Street,43138,39.5391379,-82.3970840
677,East Main Street,43138,39.5392059,-82.3977831
685,East Main Street,43138,39.5391969,-82.3975836
691,East Main Street,43138,39.5391783,-82.3973925
53,Homer Avenue,43138,39.5386994,-82.3970873
57,Homer Avenue,43138,39.5384890,-82.3970946
714,East 2nd Street,43138,39.5384618,-82.3967406
704,East 2nd Street,43138,39.5381466,-82.3967856
684,East Front Street,43138,39.5377117,-82.3977216
688,East Front Street,43138,39.5376631,-82.3975487
583,East 2nd Street,43138,39.5383038,-82.3995436
573,East 2nd Street,43138,39.5382975,-82.3997501
555,East 2nd Street,43138,39.5383224,-82.4001129
563,East 2nd Street,43138,39.5382876,-82.3999252
742,East 2nd Street,43138,39.5385287,-82.3962155
650,East 2nd Street,43138,39.5385609,-82.3981321
794,East Front Street,43138,39.5375919,-82.3955940
798,East 2nd Street,43138,39.5383763,-82.3955010
620,East 2nd Street,43138,39.5386025,-82.3987580
745,East Main Street,43138,39.5389043,-82.3962700
"631,633",East Main Street,43138,39.5392409,-82.3984860
756,East 2nd Street,43138,39.5384705,-82.3960257
701,East Main Street,43138,39.5389689,-82.3967251
726,East 2nd Street,43138,39.5384081,-82.3964153
660,East 2nd Street,43138,39.5385690,-82.3979183
702,East Front Street,43138,39.5376363,-82.3968593
769,East Main Street,43138,39.5388662,-82.3960084
630,East 2nd Street,43138,39.5385955,-82.3985435
794,East 2nd Street,43138,39.5383978,-82.3956725
582,West Front Street,43138,39.5400702,-82.4177279
725,Church Street,43138,39.5426911,-82.4190496
309,Lincoln Avenue,43138,39.5414228,-82.4196466
945,Church Street,43138,39.5429910,-82.4215747
373,Lincoln Avenue,43138,39.5409791,-82.4199507
668,West Front Street,43138,39.5408093,-82.4184583
337,Lincoln Avenue,43138,39.5411482,-82.4199107
581,West Front Street,43138,39.5398833,-82.4180215
297,Friesner Avenue,43138,39.5395238,-82.4172545
702,Weldy Avenue,43138,39.5407575,-82.4196626
293,Hocking Avenue,43138,39.5403745,-82.4180863
956,Church Street,43138,39.5433540,-82.4217223
506,North Mulberry Street,43138,39.5448728,-82.4060992
205,North Street,43138,39.5437853,-82.4123362
167,Mound Street,43138,39.5425618,-82.4119757
179,North Street,43138,39.5437586,-82.4119099
160,North Street,43138,39.5440736,-82.4116664
353,North Spring Street,43138,39.5431522,-82.4111843
500,North Mulberry Street,43138,39.5446210,-82.4061544
502,North Mulberry Street,43138,39.5447410,-82.4061323
39,North Street,43138,39.5435337,-82.4094167
172,Mound Street,43138,39.5428652,-82.4118981
156,Mound Street,43138,39.5428202,-82.4117028
530,North Mulberry Street,43138,39.5452702,-82.4060683
112,Mound Street,43138,39.5427715,-82.4112343
172,North Mulberry Street,43138,39.5416621,-82.4064818
186,Midland Place,43138,39.5418320,-82.4074916
161,Iron Street,43138,39.5423048,-82.4201508
468,West Hunter Street,43138,39.5418003,-82.4155086
125,West Hunter Street,43138,39.5418011,-82.4153976
532,West Hunter Street,43138,39.5418921,-82.4163220
598,Zanesville Avenue,43138,39.5447826,-82.3972595
598,Zanesville Avenue,43138,39.5446668,-82.3974278
560,Zanesville Avenue,43138,39.5441735,-82.3978456
62,Depot Street,43138,39.5403390,-82.4009355
50,Depot Street,43138,39.5402314,-82.4009067
496,Depot Street,43138,39.5388079,-82.4015258
179,South Walnut Street,43138,39.5381754,-82.4060213
"63,65",North Street,43138,39.5435885,-82.4100353
473,North Spring Street,43138,39.5447038,-82.4110259
23,Wilson Avenue,43138,39.5317220,-82.4081302
11,Wilson Avenue,43138,39.5316588,-82.4079985
453,East Main Street,43138,39.5394773,-82.4020110
"237,239",West Angle Avenue,43138,39.5448003,-82.4124896
694,Walhonding Avenue,43138,39.5318655,-82.4073135
420,Church Street,43138,39.5426766,-82.4148814
78,Walhonding Avenue,43138,39.5307840,-82.4081475
49,North Street,43138,39.5435911,-82.4097198
104,North Street,43138,39.5440496,-82.4110738
240,North Street,43138,39.5442136,-82.4124937
469,North Spring Street,43138,39.5445550,-82.4110307
519,East Hunter Street,43138,39.5404850,-82.4006625
45,North Street,43138,39.5435729,-82.4095641
733,Walhonding Avenue,43138,39.5313682,-82.4081216
"211,213",West Angle Avenue,43138,39.5447506,-82.4121889
691,Walhonding Avenue,43138,39.5320919,-82.4081082
57,North Street,43138,39.5435774,-82.4098868
71,North Street,43138,39.5435921,-82.4101897
696,3rd Street,43138,39.5438492,-82.4182992
103,Mound Street,43138,39.5424672,-82.4112442
283,Weis Street,43138,39.5380609,-82.4135580
556,Church Street,43138,39.5427978,-82.4165273
311,West Front Street,43138,39.5381486,-82.4141551
727,3rd Street,43138,39.5435809,-82.4188626
307,Weis Street,43138,39.5381050,-82.4139592
194,Mound Street,43138,39.5428970,-82.4121295
556,3rd Street,43138,39.5436936,-82.4164095
686,3rd Street,43138,39.5438320,-82.4181430
123,Mound Street,43138,39.5424895,-82.4114877
272,West Street,43138,39.5434226,-82.4183393
243,Wood Street,43138,39.5430030,-82.4159906
1020,Ohio Avenue,43138,39.5457776,-82.3924843
229,West Street,43138,39.5430905,-82.4187036
697,Church Street,43138,39.5426606,-82.4184629
259,Wood Street,43138,39.5431407,-82.4160198
379,West 2nd Street,43138,39.5392240,-82.4145589
598,3rd Street,43138,39.5437360,-82.4168611
658,3rd Street,43138,39.5438006,-82.4178178
1041,Ohio Avenue,43138,39.5454358,-82.3918164
653,Church Street,43138,39.5425669,-82.4180641
612,Church Street,43138,39.5428806,-82.4173593
155,Mound Street,43138,39.5425271,-82.4117714
580,3rd Street,43138,39.5437268,-82.4166700
747,3rd Street,43138,39.5435774,-82.4190383
355,West 2nd Street,43138,39.5392643,-82.4143343
1034,Ohio Avenue,43138,39.5457666,-82.3920455
199,North Street,43138,39.5437566,-82.4121815
697,3rd Street,43138,39.5435588,-82.4182890
1020,Ohio Avenue,43138,39.5458020,-82.3922358
968,Ohio Avenue,43138,39.5456411,-82.3933301
730,3rd Street,43138,39.5438699,-82.4188226
"763,765",3rd Street,43138,39.5435820,-82.4192162
649,Church Street,43138,39.5425846,-82.4177818
341,West Front Street,43138,39.5381736,-82.4148010
337,West 2nd Street,43138,39.5392187,-82.4141395
706,3rd Street,43138,39.5438538,-82.4186012
647,3rd Street,43138,39.5435099,-82.4177132
330,West Front Street,43138,39.5385684,-82.4144242
217,West Street,43138,39.5430087,-82.4188444
506,3rd Street,43138,39.5436314,-82.4158841
242,Weis Street,43138,39.5377263,-82.4136016
116,Gallagher Avenue,43138,39.5392045,-82.4149721
562,Church Street,43138,39.5428248,-82.4166456
243,Weis Street,43138,39.5378045,-82.4140012
329,West 2nd Street,43138,39.5392264,-82.4140442
649,Church Street,43138,39.5425844,-82.4179194
1334,Kansas Avenue,43138,39.5462967,-82.3904701
690,Church Street,43138,39.5429270,-82.4182733
"707,709",3rd Street,43138,39.5435725,-82.4186653
672,3rd Street,43138,39.5438259,-82.4179717
333,West Front Street,43138,39.5381665,-82.4145874
345,West 2nd Street,43138,39.5392236,-82.4142219
354,West Front Street,43138,39.5385727,-82.4149401
1258,Kansas Avenue,43138,39.5452701,-82.3902231
342,West Front Street,43138,39.5386232,-82.4147595
1138,Ohio Avenue,43138,39.5461193,-82.3898069
798,3rd Street,43138,39.5439424,-82.4195883
"832,834",3rd Street,43138,39.5439319,-82.4201538
824,3rd Street,43138,39.5439487,-82.4199522
764,3rd Street,43138,39.5438639,-82.4192198
744,3rd Street,43138,39.5438767,-82.4189871
778,3rd Street,43138,39.5439173,-82.4193459
1186,West Hunter Street,43138,39.5431153,-82.4248042
"385,387,389",South High Street,43138,39.5368689,-82.4128799
270,Barton Street,43138,39.5376655,-82.4133327
876,James Road,43138,39.5367554,-82.3945100
225,West Front Street,43138,39.5380451,-82.4129352
560,East Front Street,43138,39.5378249,-82.4004363
891,James Road,43138,39.5363970,-82.3942703
"371,373",South High Street,43138,39.5370748,-82.4122806
871,James Road,43138,39.5364617,-82.3946514
240,Barton Street,43138,39.5376816,-82.4128553
221,West Front Street,43138,39.5380311,-82.4127235
251,Barton Street,43138,39.5372553,-82.4130908
239,Barton Street,43138,39.5372010,-82.4128825
228,Barton Street,43138,39.5376059,-82.4126205
265,Barton Street,43138,39.5372667,-82.4133418
890,James Road,43138,39.5367409,-82.3941332
"295,299",West Angle Avenue,43138,39.5448619,-82.4130349
835,East Front Street,43138,39.5371800,-82.3947466
"330,332",South High Street,43138,39.5372541,-82.4116976
"368,370",South High Street,43138,39.5367799,-82.4118854
220,Barton Street,43138,39.5374295,-82.4125534
885,James Road,43138,39.5364477,-82.3944610
"384,388",South High Street,43138,39.5367260,-82.4125541
895,James Road,43138,39.5364106,-82.3941185
254,Barton Street,43138,39.5376541,-82.4130924
"271,279",West Angle Avenue,43138,39.5448228,-82.4127673
351,Norwood Avenue,43138,39.5360930,-82.3942353
"372,376,378",South High Street,43138,39.5367059,-82.4122333
"360,362,366",South High Street,43138,39.5370212,-82.4117360
325,West Angle Avenue,43138,39.5449251,-82.4133961
253,West Front Street,43138,39.5380641,-82.4131223
"319,331",South High Street,43138,39.5372731,-82.4121773
227,Barton Street,43138,39.5372634,-82.4126547
956,East Front Street,43138,39.5375271,-82.3924597
950,East Front Street,43138,39.5374788,-82.3928147
826,East Front Street,43138,39.5375589,-82.3948957
833,James Road,43138,39.5364495,-82.3950695
874,East Front Street,43138,39.5375030,-82.3941957
860,East Front Street,43138,39.5375338,-82.3945844
755,East 2nd Street,43138,39.5380908,-82.3960050
799,East Front Street,43138,39.5372070,-82.3954463
844,East 2nd Street,43138,39.5383817,-82.3948619
802,East 2nd Street,43138,39.5384454,-82.3951972
152,Arlington Avenue,43138,39.5376862,-82.3952774
810,East Main Street,43138,39.5392274,-82.3951134
855,East 2nd Street,43138,39.5380797,-82.3947059
770,East Main Street,43138,39.5392308,-82.3958574
833,East 2nd Street,43138,39.5380495,-82.3950300
824,East Main Street,43138,39.5391497,-82.3949394
795,East Front Street,43138,39.5372074,-82.3956320
803,East 2nd Street,43138,39.5380932,-82.3952018
735,East 2nd Street,43138,39.5381131,-82.3962409
820,East Front Street,43138,39.5375610,-82.3951047
850,East 2nd Street,43138,39.5383728,-82.3946779
792,East Main Street,43138,39.5391985,-82.3956251
836,East Main Street,43138,39.5391454,-82.3947921
725,East 2nd Street,43138,39.5380972,-82.3964293
845,East 2nd Street,43138,39.5380657,-82.3948877
798,East Main Street,43138,39.5392128,-82.3954598
31543,Chieftain Drive,43138,39.5450566,-82.4350506
70,North Walnut Street,43138,39.5415545,-82.4052083
215,North Walnut Street,43138,39.5419495,-82.4056274
193,North Walnut Street,43138,39.5418136,-82.4056119
165,North Walnut Street,43138,39.5416300,-82.4056140
189,North Walnut Street,43138,39.5417194,-82.4056179
290,North Walnut Street,43138,39.5419656,-82.4051124
"235,237",North Walnut Street,43138,39.5421109,-82.4058165
239,North Walnut Street,43138,39.5421228,-82.4055972
291,North Walnut Street,43138,39.5425126,-82.4054972
347,North Walnut Street,43138,39.5430540,-82.4054484
362,North Mulberry Street,43138,39.5432925,-82.4063187
349,North Mulberry Street,43138,39.5431518,-82.4067914
345,North Mulberry Street,43138,39.5430638,-82.4068055
325,North Mulberry Street,43138,39.5429542,-82.4068223
340,North Mulberry Street,43138,39.5430029,-82.4063167
306,North Mulberry Street,43138,39.5428927,-82.4063146
331,North Walnut Street,43138,39.5429041,-82.4054296
350,North Walnut Street,43138,39.5430220,-82.4050400
370,North Walnut Street,43138,39.5432066,-82.4050473
240,North Walnut Street,43138,39.5420975,-82.4051778
260,North Walnut Street,43138,39.5422426,-82.4051050
270,North Walnut Street,43138,39.5423458,-82.4051439
"308,310",North Walnut Street,43138,39.5426504,-82.4051187
328,North Walnut Street,43138,39.5428515,-82.4050179
377,North Walnut Street,43138,39.5433158,-82.4054510
269,North Mulberry Street,43138,39.5424531,-82.4068481
"253,257",North Mulberry Street,43138,39.5423466,-82.4068521
245,North Mulberry Street,43138,39.5422240,-82.4069065
207,North Mulberry Street,43138,39.5419908,-82.4070406
200,Midland Place,43138,39.5420689,-82.4074831
257,Midland Place,43138,39.5422803,-82.4078063
273,Midland Place,43138,39.5425436,-82.4078117
288,Midland Place,43138,39.5424950,-82.4073859
265,Midland Place,43138,39.5424169,-82.4078037
40,Hill Street,43138,39.5429510,-82.4095411
48,Hill Street,43138,39.5428921,-82.4097087
68,Hill Street,43138,39.5428678,-82.4101606
72,Hill Street,43138,39.5428425,-82.4102894
50,Hill Street,43138,39.5428708,-82.4104658
51,Hill Street,43138,39.5425482,-82.4098274
35,Hill Street,43138,39.5425021,-82.4095102
212,North Spring Street,43138,39.5425688,-82.4106843
90,Hill Street,43138,39.5428522,-82.4106602
96,Hill Street,43138,39.5428621,-82.4108292
132,Mound Street,43138,39.5428067,-82.4114729
351,North Spring Street,43138,39.5432510,-82.4111772
390,North Street,43138,39.5444387,-82.4141947
368,North Street,43138,39.5444133,-82.4139727
348,North Street,43138,39.5443782,-82.4137380
324,North Street,43138,39.5443301,-82.4135248
322,North Street,43138,39.5443084,-82.4133658
304,North Street,43138,39.5442846,-82.4132183
288,North Street,43138,39.5442443,-82.4130507
266,North Street,43138,39.5442541,-82.4128261
312,Mound Street,43138,39.5432731,-82.4133444
379,North Street,43138,39.5440809,-82.4141625
363,North Street,43138,39.5440229,-82.4139794
363,North Street,43138,39.5440239,-82.4138199
241,North Street,43138,39.5438559,-82.4126309
320,Warner Avenue,43138,39.5436216,-82.4141135
352,Mound Street,43138,39.5434800,-82.4138044
134,North Street,43138,39.5440695,-82.4113496
180,North Street,43138,39.5440845,-82.4118873
30140,Iles Road,43138,39.5585382,-82.4582615
30381,Chieftain Drive,43138,39.5544192,-82.4550938
31085,Chieftain Drive,43138,39.5496325,-82.4442973
31251,Chieftain Drive,43138,39.5484849,-82.4387405
1395,3rd Street,43138,39.5451459,-82.4276687
1390,Church Street,43138,39.5446890,-82.4280727
250,SR 664,43138,39.5449956,-82.4276921
12791,SR 664,43138,39.5429932,-82.4376801
333,West Grogan Avenue,43138,39.5465404,-82.4130723
302,West Angle Avenue,43138,39.5452480,-82.4130315
597,North Walnut Street,43138,39.5451671,-82.4052061
663,Miller Place,43138,39.5412676,-82.4183680
271,North Orchard Street,43138,39.5422494,-82.4042543
46,Furnace Street,43138,39.5411732,-82.4170157
310,West Angle Avenue,43138,39.5452966,-82.4131785
388,North Mulberry Street,43138,39.5435215,-82.4063056
280,West 2nd Street,43138,39.5396004,-82.4130482
203,North Orchard Street,43138,39.5418979,-82.4043066
653,Miller Place,43138,39.5412316,-82.4179711
582,North Walnut Street,43138,39.5450093,-82.4047700
44,Furnace Street,43138,39.5410226,-82.4170571
186,West Jennison Avenue,43138,39.5460689,-82.4128183
320,West Angle Avenue,43138,39.5453043,-82.4133145
231,West Main Street,43138,39.5401679,-82.4128529
191,North Orchard Street,43138,39.5417547,-82.4043070
260,West Angle Avenue,43138,39.5452089,-82.4125667
179,West Jennison Avenue,43138,39.5457433,-82.4128412
218,West Angle Avenue,43138,39.5451973,-82.4122349
137,West Jennison Avenue,43138,39.5454500,-82.4117753
42,Furnace Street,43138,39.5409010,-82.4170812
192,West Jennison Avenue,43138,39.5461602,-82.4130955
165,West Jennison Avenue,43138,39.5456733,-82.4123881
635,North Walnut Street,43138,39.5455468,-82.4052754
205,West Jennison Avenue,43138,39.5457714,-82.4131383
178,West Jennison Avenue,43138,39.5460251,-82.4125112
33,Furnace Street,43138,39.5411147,-82.4173924
647,West Front Street,43138,39.5403686,-82.4184758
596,North Walnut Street,43138,39.5451446,-82.4048072
133,West Jennison Avenue,43138,39.5455754,-82.4114603
241,West Jennison Avenue,43138,39.5457820,-82.4132767
428,North Mulberry Street,43138,39.5438325,-82.4061988
566,Henrietta Avenue,43138,39.5404591,-82.4167755
267,North Walnut Street,43138,39.5423359,-82.4054910
196,West Jennison Avenue,43138,39.5462024,-82.4133054
570,Henrietta Avenue,43138,39.5406192,-82.4169627
229,West Main Street,43138,39.5401070,-82.4127041
294,West 2nd Street,43138,39.5395390,-82.4134146
176,West Jennison Avenue,43138,39.5460321,-82.4123398
319,North Orchard Street,43138,39.5426228,-82.4041683
175,West Jennison Avenue,43138,39.5457324,-82.4126739
635,North Walnut Street,43138,39.5453906,-82.4051816
268,West Angle Avenue,43138,39.5452246,-82.4127078
181,North Orchard Street,43138,39.5416383,-82.4042721
189,West Jennison Avenue,43138,39.5457437,-82.4129996
180,West Angle Avenue,43138,39.5450982,-82.4116967
255,North Orchard Street,43138,39.5421245,-82.4042200
238,West Angle Avenue,43138,39.5452127,-82.4124125
145,West Jennison Avenue,43138,39.5455974,-82.4119319
"649,651",West Front Street,43138,39.5405062,-82.4186127
235,North Orchard Street,43138,39.5420013,-82.4042529
280,West Angle Avenue,43138,39.5452377,-82.4128778
657,Miller Place,43138,39.5412480,-82.4181237
190,West Jennison Avenue,43138,39.5460506,-82.4129373
49,Furnace Street,43138,39.5412274,-82.4174024
1160,West Hunter Street,43138,39.5430401,-82.4244741
1138,West Hunter Street,43138,39.5429627,-82.4241569
1130,West Hunter Street,43138,39.5429165,-82.4239946
1124,West Hunter Street,43138,39.5429113,-82.4238155
1098,West Hunter Street,43138,39.5428425,-82.4234751
1070,West Hunter Street,43138,39.5427808,-82.4233268
1070,West Hunter Street,43138,39.5427370,-82.4231335
1020,West Hunter Street,43138,39.5427218,-82.4228333
1020,West Hunter Street,43138,39.5427425,-82.4226900
990,West Hunter Street,43138,39.5425558,-82.4221295
974,West Hunter Street,43138,39.5424962,-82.4219514
798,West Hunter Street,43138,39.5421453,-82.4198200
810,Church Street,43138,39.5430427,-82.4200715
"840,842",Church Street,43138,39.5430610,-82.4203501
235,Iron Street,43138,39.5432273,-82.4200477
916,Church Street,43138,39.5432184,-82.4212005
926,Church Street,43138,39.5433075,-82.4213386
936,Church Street,43138,39.5433096,-82.4214622
946,Church Street,43138,39.5433376,-82.4215996
568,North Market Street,43138,39.5449951,-82.4080699
578,North Market Street,43138,39.5450795,-82.4080507
588,North Market Street,43138,39.5451947,-82.4080492
594,North Market Street,43138,39.5454200,-82.4079967
595,North Market Street,43138,39.5452112,-82.4085005
595,North Market Street,43138,39.5454043,-82.4084761
600,East Jennison Avenue,43138,39.5456872,-82.4078736
159,East Street,43138,39.5414971,-82.4024600
309,East Street,43138,39.5424983,-82.4023762
"281,283",North Culver Street,43138,39.5426982,-82.4029534
184,North Orchard Street,43138,39.5415989,-82.4038266
167,North Culver Street,43138,39.5414153,-82.4030200
147,North Culver Street,43138,39.5412702,-82.4030274
179,North Culver Street,43138,39.5415651,-82.4030245
175,North Culver Street,43138,39.5417091,-82.4029764
198,North Orchard Street,43138,39.5417228,-82.4038212
582,East Main Street,43138,39.5397461,-82.3993721
480,East Front Street,43138,39.5379021,-82.4019165
512,East Front Street,43138,39.5379236,-82.4010201
95,West Front Street,43138,39.5379336,-82.4107714
67,West Front Street,43138,39.5379325,-82.4104104
265,West 2nd Street,43138,39.5391381,-82.4131331
167,Gallagher Avenue,43138,39.5392727,-82.4154626
117,West Front Street,43138,39.5379963,-82.4112433
76,West Front Street,43138,39.5382885,-82.4103657
99,West Front Street,43138,39.5379381,-82.4109956
217,Gallagher Avenue,43138,39.5390139,-82.4158998
27,West Front Street,43138,39.5378347,-82.4096768
311,West 2nd Street,43138,39.5392133,-82.4138692
59,West Front Street,43138,39.5379301,-82.4102185
391,West 2nd Street,43138,39.5392920,-82.4147072
82,West Front Street,43138,39.5383128,-82.4104930
428,West Front Street,43138,39.5388581,-82.4165839
321,West 2nd Street,43138,39.5392179,-82.4139560
205,West 2nd Street,43138,39.5390629,-82.4123807
81,West Front Street,43138,39.5379386,-82.4105228
131,Gallagher Avenue,43138,39.5394364,-82.4152079
340,West Main Street,43138,39.5411562,-82.4138079
685,North Walnut Street,43138,39.5461142,-82.4055200
323,Belva Court,43138,39.5456979,-82.4005995
471,East Main Street,43138,39.5394523,-82.4017750
620,Edgehill Drive,43138,39.5453476,-82.4008079
504,Angle Avenue,43138,39.5443081,-82.3998033
294,Vine Street,43138,39.5452999,-82.4013618
539,Angle Avenue,43138,39.5442999,-82.3993294
503,East 2nd Street,43138,39.5383884,-82.4011524
718,Edgehill Drive,43138,39.5460786,-82.4007145
330,Vine Street,43138,39.5448701,-82.4005149
541,North Walnut Street,43138,39.5447016,-82.4052876
699,North Walnut Street,43138,39.5468661,-82.4059714
344,West Main Street,43138,39.5412723,-82.4140012
380,Vine Street,43138,39.5449125,-82.4012657
441,North Walnut Street,43138,39.5439055,-82.4049486
417,North Orchard Street,43138,39.5435163,-82.4040232
347,Belva Court,43138,39.5456734,-82.4001483
320,Vine Street,43138,39.5452443,-82.4006203
218,North Orchard Street,43138,39.5418692,-82.4037474
425,East Main Street,43138,39.5394580,-82.4025218
620,North Mulberry Street,43138,39.5456695,-82.4060475
302,West Main Street,43138,39.5411199,-82.4135950
697,North Walnut Street,43138,39.5467299,-82.4058963
272,North Orchard Street,43138,39.5422704,-82.4037417
570,East Street,43138,39.5446290,-82.4018023
250,Vine Street,43138,39.5456809,-82.4017112
651,Edgehill Drive,43138,39.5459118,-82.4012239
687,North Walnut Street,43138,39.5463135,-82.4056087
648,Edgehill Drive,43138,39.5456174,-82.4008326
166,North Orchard Street,43138,39.5414780,-82.4038140
323,West Hunter Street,43138,39.5413741,-82.4138159
274,West Main Street,43138,39.5407994,-82.4131580
508,Angle Avenue East,43138,39.5446776,-82.3996264
330,Belva Court,43138,39.5460949,-82.4003225
235,West Main Street,43138,39.5401688,-82.4129568
318,Belva Court,43138,39.5460750,-82.4005316
337,Vine Street,43138,39.5448517,-82.3999426
585,North Walnut Street,43138,39.5450442,-82.4052430
342,Belva Court,43138,39.5460729,-82.4001321
244,West Main Street,43138,39.5406117,-82.4128094
335,Vine Street,43138,39.5448562,-82.4002680
506,Angle Avenue,43138,39.5446650,-82.3994737
516,East Street,43138,39.5441646,-82.4018046
695,North Walnut Street,43138,39.5466083,-82.4058230
256,North Orchard Street,43138,39.5421338,-82.4037668
292,West Main Street,43138,39.5409012,-82.4133621
529,North Walnut Street,43138,39.5446008,-82.4052962
335,Belva Court,43138,39.5456817,-82.4003647
707,Edgehill Drive,43138,39.5460923,-82.4012200
1,Angle Place,43138,39.5443950,-82.4005735
354,Belva Court,43138,39.5460458,-82.3999152
450,North Walnut Street,43138,39.5440147,-82.4049728
590,East Street,43138,39.5449048,-82.4017741
698,North Walnut Street,43138,39.5468181,-82.4055740
234,North Orchard Street,43138,39.5419931,-82.4038005
606,3rd Street,43138,39.5437347,-82.4171228
627,Edgehill Drive,43138,39.5454972,-82.4012723
198,Riff Avenue,43138,39.5436632,-82.4247216
1177,Church Street,43138,39.5436176,-82.4245694
1165,Church Street,43138,39.5435923,-82.4244078
1149,Church Street,43138,39.5435654,-82.4242354
1131,Church Street,43138,39.5435217,-82.4240534
1101,Central Avenue,43138,39.5434528,-82.4237110
1108,Church Street,43138,39.5437457,-82.4237080
1124,Church Street,43138,39.5438004,-82.4238904
1140,Church Street,43138,39.5437967,-82.4240493
1150,Church Street,43138,39.5438563,-82.4242216
1162,Church Street,43138,39.5438708,-82.4243792
"1174,1176",Church Street,43138,39.5439117,-82.4245562
240,Riff Avenue,43138,39.5440727,-82.4246665
1208,Church Street,43138,39.5440321,-82.4250009
1207,Church Street,43138,39.5436709,-82.4251161
1211,Church Street,43138,39.5437521,-82.4253658
1223,Church Street,43138,39.5438058,-82.4256434
1241,Church Street,43138,39.5438714,-82.4258368
1255,Church Street,43138,39.5438803,-82.4260383
1269,Church Street,43138,39.5439054,-82.4262519
1210,Church Street,43138,39.5440571,-82.4251786
1234,Church Street,43138,39.5441769,-82.4256079
1212,Church Street,43138,39.5441081,-82.4254092
1258,Church Street,43138,39.5442420,-82.4259744
1270,Church Street,43138,39.5443046,-82.4261819
1288,Church Street,43138,39.5443527,-82.4264050
1296,Church Street,43138,39.5444012,-82.4266375
1277,Church Street,43138,39.5439906,-82.4264022
1283,Church Street,43138,39.5440358,-82.4265777
1295,Church Street,43138,39.5440637,-82.4267775
199,Betty Avenue,43138,39.5440967,-82.4270877
1321,Church Street,43138,39.5441657,-82.4272465
225,Betty Avenue,43138,39.5445048,-82.4269420
1324,Church Street,43138,39.5445201,-82.4271201
195,Elm Street,43138,39.5428560,-82.4212074
1050,Church Street,43138,39.5435667,-82.4228636
1026,Church Street,43138,39.5434904,-82.4225493
1002,Church Street,43138,39.5434865,-82.4223786
1033,Church Street,43138,39.5431971,-82.4227262
996,Church Street,43138,39.5433512,-82.4219001
240,Eulalia Avenue,43138,39.5433765,-82.4220475
248,Eulalia Avenue,43138,39.5435860,-82.4220100
151,West Street,43138,39.5426327,-82.4187584
875,Church Street,43138,39.5428116,-82.4206227
195,Elm Street,43138,39.5428393,-82.4208539
166,Elm Street,43138,39.5426856,-82.4207872
168,Iron Street,43138,39.5424887,-82.4197250
170,Iron Street,43138,39.5425779,-82.4197503
769,Church Street,43138,39.5427114,-82.4193107
220,Iron Street,43138,39.5429898,-82.4195885
691,Church Street,43138,39.5426102,-82.4183076
685,Church Street,43138,39.5426187,-82.4181868
596,Church Street,43138,39.5425327,-82.4168974
557,Church Street,43138,39.5424988,-82.4167222
555,Church Street,43138,39.5425192,-82.4165701
168,Furnace Street,43138,39.5423708,-82.4169251
519,Church Street,43138,39.5424794,-82.4161543
503,Church Street,43138,39.5424979,-82.4160217
170,Wood Street,43138,39.5423722,-82.4156326
150,Wood Street,43138,39.5421971,-82.4156651
447,Church Street,43138,39.5424035,-82.4151578
352,Church Street,43138,39.5426192,-82.4140020
328,Church Street,43138,39.5426079,-82.4137365
168,Fountain Street,43138,39.5420257,-82.4131887
153,Fountain Street,43138,39.5420525,-82.4136338
192,Fountain Street,43138,39.5424137,-82.4131386
166,Warner Avenue,43138,39.5421452,-82.4144486
140,Warner Avenue,43138,39.5419857,-82.4144177
159,Warner Avenue,43138,39.5421460,-82.4148671
293,Warner Avenue,43138,39.5433079,-82.4147564
313,Warner Avenue,43138,39.5437419,-82.4146995
345,Warner Avenue,43138,39.5438920,-82.4146940
397,Warner Avenue,43138,39.5440143,-82.4146827
397,Warner Avenue,43138,39.5441779,-82.4146653
401,Warner Avenue,43138,39.5443230,-82.4147278
395,Mound Street,43138,39.5432723,-82.4143467
272,Warner Avenue,43138,39.5430995,-82.4143468
468,Church Street,43138,39.5427253,-82.4153381
107,Wood Street,43138,39.5418789,-82.4160907
454,West Hunter Street,43138,39.5418858,-82.4155949
140,Wood Street,43138,39.5420762,-82.4157208
"129,131",Wood Street,43138,39.5420225,-82.4160773
536,Church Street,43138,39.5427995,-82.4162171
209,Furnace Street,43138,39.5428593,-82.4172388
662,Church Street,43138,39.5428972,-82.4178909
684,Church Street,43138,39.5429357,-82.4180745
636,Church Street,43138,39.5428730,-82.4175709
1047,Church Street,43138,39.5431725,-82.4229033
1063,Church Street,43138,39.5432856,-82.4230697
1067,Church Street,43138,39.5433324,-82.4232171
1080,Church Street,43138,39.5436743,-82.4232091
1096,Church Street,43138,39.5436864,-82.4233794
1336,Church Street,43138,39.5445406,-82.4274697
1346,Church Street,43138,39.5446531,-82.4276191
141,West Street,43138,39.5422109,-82.4188265
273,West Hunter Street,43138,39.5412827,-82.4130058
"104,106",West Hunter Street,43138,39.5415113,-82.4108478
615,East 2nd Street,43138,39.5381820,-82.3989563
625,East 2nd Street,43138,39.5382004,-82.3987955
667,East 2nd Street,43138,39.5381773,-82.3979297
683,East 2nd Street,43138,39.5381858,-82.3976933
"639,641,643,645",East 2nd Street,43138,39.5380270,-82.3983973
167,North Spring Street,43138,39.5418739,-82.4108097
135,North Spring Street,43138,39.5416956,-82.4107562
229,North Spring Street,43138,39.5422066,-82.4111576
274,Spring Hill Place,43138,39.5420961,-82.4129022
256,Warner Avenue,43138,39.5429968,-82.4143523
280,Warner Avenue,43138,39.5431643,-82.4143477
531,West Hunter Street,43138,39.5415173,-82.4164996
551,West Hunter Street,43138,39.5415225,-82.4166623
544,Vine Street,43138,39.5451199,-82.3985156
546,Vine Street,43138,39.5451043,-82.3983420
550,Vine Street,43138,39.5450695,-82.3979608
560,Angle Avenue,43138,39.5446950,-82.3993399
540,View Avenue,43138,39.5445770,-82.3986552
548,Vine Street,43138,39.5450876,-82.3981218
183,Mound Street,43138,39.5425757,-82.4121389
224,Mound Street,43138,39.5429134,-82.4124953
264,Mound Street,43138,39.5430294,-82.4129580
244,Mound Street,43138,39.5429946,-82.4127314
282,Mound Street,43138,39.5430837,-82.4131542
285,West Hunter Street,43138,39.5413193,-82.4131609
297,West Hunter Street,43138,39.5413378,-82.4132891
272,West Main Street,43138,39.5407437,-82.4130214
262,West Main Street,43138,39.5406727,-82.4129374
264,Midland Place,43138,39.5423562,-82.4074193
398,Midland Place,43138,39.5426215,-82.4073923
295,Midland Place,43138,39.5426468,-82.4077725
321,Midland Place,43138,39.5431531,-82.4073080
360,North Market Street,43138,39.5432295,-82.4082542
324,North Market Street,43138,39.5428518,-82.4082592
311,Midland Place,43138,39.5427931,-82.4077607
310,Midland Place,43138,39.5427739,-82.4073789
320,Midland Place,43138,39.5429000,-82.4073544
432,North Mulberry Street,43138,39.5441342,-82.4061980
494,North Mulberry Street,43138,39.5443530,-82.4061292
498,North Mulberry Street,43138,39.5444918,-82.4061873
96,Keynes Drive,43138,39.5449811,-82.4068053
56,Keynes Drive,43138,39.5450383,-82.4072986
88,Keynes Drive,43138,39.5450326,-82.4070629
185,California Avenue,43138,39.5413019,-82.3968593
165,North Homer Avenue,43138,39.5410351,-82.3968835
786,Mohican Avenue,43138,39.5313348,-82.4106025
780,Mohican Avenue,43138,39.5316396,-82.4106501
47,Wilson Avenue,43138,39.5317588,-82.4084519
776,Mohican Avenue,43138,39.5319401,-82.4105644
711,Mohican Avenue,43138,39.5322784,-82.4109186
82,Wilson Avenue,43138,39.5323045,-82.4089868
130,Wilson Avenue,43138,39.5324040,-82.4095372
852,Mohican Avenue,43138,39.5305430,-82.4104046
695,Mohican Avenue,43138,39.5325207,-82.4106938
707,Wyandotte Avenue,43138,39.5319393,-82.4094619
550,Kerlin Avenue,43138,39.5439975,-82.3989090
538,Kerlin Avenue,43138,39.5440392,-82.3990188
782,Mohican Avenue,43138,39.5314815,-82.4106443
195,Wilson Avenue,43138,39.5321781,-82.4104172
800,Mohican Avenue,43138,39.5310245,-82.4105307
778,Mohican Avenue,43138,39.5317960,-82.4105951
655,Mohican Avenue,43138,39.5328354,-82.4105617
675,Mohican Avenue,43138,39.5326849,-82.4105845
110,Wilson Avenue,43138,39.5323842,-82.4093290
721,Mohican Avenue,43138,39.5321366,-82.4109542
1155,Ohio Avenue,43138,39.5457414,-82.3893466
1258,Missouri Avenue,43138,39.5453450,-82.3892029
420,Norwood Avenue,43138,39.5347964,-82.3933064
807,3rd Street,43138,39.5436554,-82.4200163
825,3rd Street,43138,39.5436513,-82.4201235
278,Wood Street,43138,39.5432436,-82.4155716
869,3rd Street,43138,39.5436656,-82.4205248
296,Wood Street,43138,39.5433888,-82.4155380
"260,262,264",Wood Street,43138,39.5431257,-82.4155881
585,3rd Street,43138,39.5434331,-82.4168118
258,Wood Street,43138,39.5430795,-82.4152337
837,3rd Street,43138,39.5436396,-82.4202418
857,3rd Street,43138,39.5436642,-82.4204192
669,3rd Street,43138,39.5435068,-82.4179711
12789,SR 664,43138,39.5437855,-82.4362488
12845,SR 664,43138,39.5430896,-82.4393809
2171,Linton Road,43138,39.5256992,-82.3724553
2211,Linton Road,43138,39.5255027,-82.3722239
2196,Linton Road,43138,39.5257048,-82.3718155
1060,3rd Street,43138,39.5444112,-82.4229466
1130,3rd Street,43138,39.5446016,-82.4237540
1110,3rd Street,43138,39.5445539,-82.4235691
1096,3rd Street,43138,39.5444782,-82.4232610
1137,3rd Street,43138,39.5443185,-82.4239896
1127,4th Street,43138,39.5451701,-82.4238748
1050,3rd Street,43138,39.5444167,-82.4227602
1051,3rd Street,43138,39.5440902,-82.4228294
1057,3rd Street,43138,39.5441481,-82.4229472
1087,3rd Street,43138,39.5442484,-82.4233101
1160,3rd Street,43138,39.5448073,-82.4242641
1150,3rd Street,43138,39.5447267,-82.4241162
1140,3rd Street,43138,39.5446586,-82.4239477
1077,3rd Street,43138,39.5441887,-82.4231597
1078,3rd Street,43138,39.5444684,-82.4231271
606,Wyandotte Avenue,43138,39.5330561,-82.4088449
980,Walhonding Avenue,43138,39.5281633,-82.4078257
899,Walhonding Avenue,43138,39.5294903,-82.4084464
825,Walhonding Avenue,43138,39.5300602,-82.4082255
910,Walhonding Avenue,43138,39.5289696,-82.4077534
837,Walhonding Avenue,43138,39.5299301,-82.4082706
851,Walhonding Avenue,43138,39.5297957,-82.4083745
850,3rd Street,43138,39.5439924,-82.4203305
987,3rd Street,43138,39.5438403,-82.4219787
349,North Orchard Street,43138,39.5429628,-82.4041478
996,3rd Street,43138,39.5441900,-82.4219677
193,East Street,43138,39.5417665,-82.4024466
323,North Orchard Street,43138,39.5428647,-82.4041355
870,3rd Street,43138,39.5440181,-82.4205448
328,North Orchard Street,43138,39.5427213,-82.4037230
940,3rd Street,43138,39.5441048,-82.4214127
243,North Culver Street,43138,39.5419436,-82.4029607
946,3rd Street,43138,39.5441256,-82.4216205
1021,3rd Street,43138,39.5440321,-82.4224650
1030,3rd Street,43138,39.5444373,-82.4225941
330,Elm Street,43138,39.5445442,-82.4205580
215,East Street,43138,39.5418853,-82.4023724
256,Elm Street,43138,39.5434607,-82.4207849
910,3rd Street,43138,39.5440552,-82.4210837
211,North Culver Street,43138,39.5418088,-82.4029585
365,North Orchard Street,43138,39.5431522,-82.4041050
924,3rd Street,43138,39.5440779,-82.4212600
255,Elm Street,43138,39.5435784,-82.4211780
258,Elm Street,43138,39.5435878,-82.4207715
1003,3rd Street,43138,39.5440284,-82.4222760
255,North Culver Street,43138,39.5420794,-82.4029203
253,East Street,43138,39.5421685,-82.4024407
987,3rd Street,43138,39.5439598,-82.4219727
1020,3rd Street,43138,39.5442970,-82.4224503
1010,3rd Street,43138,39.5443114,-82.4222580
898,3rd Street,43138,39.5440354,-82.4207393
13580,Maysville-Williams Road,43138,39.5284476,-82.3649659
89,Florence Avenue,43138,39.5274874,-82.4073248
666,Wood Street,43138,39.5460248,-82.4149570
715,Wood Street,43138,39.5465358,-82.4153644
55,Florence Avenue,43138,39.5275045,-82.4076126
955,Betty Avenue,43138,39.5285094,-82.4067819
50,Bowers Court,43138,39.5293156,-82.4059843
962,Betty Avenue,43138,39.5281739,-82.4065763
31,Florence Avenue,43138,39.5274886,-82.4078253
1183,Cross Street,43138,39.5446920,-82.3885321
941,Betty Avenue,43138,39.5287217,-82.4063274
725,Wood Street,43138,39.5468937,-82.4157471
716,Wood Street,43138,39.5465183,-82.4149518
720,Wood Street,43138,39.5467542,-82.4149027
65,Mae Street,43138,39.5257222,-82.4079104
704,Wood Street,43138,39.5462920,-82.4149822
40,Bowers Court,43138,39.5294823,-82.4061996
894,Betty Avenue,43138,39.5290452,-82.4058850
30,Bowers Court,43138,39.5294643,-82.4065224
1117,3rd Street,43138,39.5443196,-82.4237462
1151,3rd Street,43138,39.5443715,-82.4241413
1153,3rd Street,43138,39.5444354,-82.4243022
1177,3rd Street,43138,39.5444428,-82.4244587
1199,3rd Street,43138,39.5444916,-82.4246292
255,Riff Avenue,43138,39.5442387,-82.4249761
1247,3rd Street,43138,39.5446586,-82.4255393
1255,3rd Street,43138,39.5446984,-82.4256950
1224,3rd Street,43138,39.5448968,-82.4251278
1240,3rd Street,43138,39.5449480,-82.4253064
1256,3rd Street,43138,39.5449572,-82.4255081
1264,3rd Street,43138,39.5450426,-82.4257234
1274,3rd Street,43138,39.5450747,-82.4259971
1269,3rd Street,43138,39.5447635,-82.4260015
1273,3rd Street,43138,39.5448010,-82.4261323
1282,3rd Street,43138,39.5448149,-82.4262743
1297,3rd Street,43138,39.5448585,-82.4264333
1286,3rd Street,43138,39.5451137,-82.4261578
1298,3rd Street,43138,39.5451510,-82.4263500
1109,4th Street,43138,39.5451064,-82.4236749
1082,4th Street,43138,39.5450091,-82.4231957
1008,4th Street,43138,39.5451479,-82.4221487
1028,4th Street,43138,39.5451832,-82.4223066
1032,4th Street,43138,39.5451831,-82.4224762
1005,4th Street,43138,39.5448250,-82.4221554
1027,4th Street,43138,39.5448688,-82.4223373
1035,4th Street,43138,39.5448727,-82.4225172
1065,4th Street,43138,39.5449129,-82.4228496
1077,4th Street,43138,39.5449656,-82.4230144
1031,3rd Street,43138,39.5440502,-82.4225691
973,3rd Street,43138,39.5438936,-82.4218002
953,3rd Street,43138,39.5438473,-82.4216210
881,3rd Street,43138,39.5436614,-82.4206085
923,3rd Street,43138,39.5437985,-82.4212693
941,3rd Street,43138,39.5438108,-82.4214378
795,3rd Street,43138,39.5435870,-82.4195673
624,3rd Street,43138,39.5437274,-82.4173717
648,3rd Street,43138,39.5437662,-82.4176773
791,Church Street,43138,39.5427269,-82.4196686
1025,Church Street,43138,39.5431970,-82.4225537
1005,Church Street,43138,39.5431755,-82.4223689
1383,4th Street,43138,39.5457861,-82.4271035
1360,3rd Street,43138,39.5453170,-82.4270723
1300,3rd Street,43138,39.5452230,-82.4266626
1325,3rd Street,43138,39.5449721,-82.4272205
1335,3rd Street,43138,39.5449098,-82.4274260
295,Betty Avenue,43138,39.5449454,-82.4267722
285,Betty Avenue,43138,39.5447813,-82.4268336
1392,4th Street,43138,39.5461315,-82.4268920
1378,4th Street,43138,39.5460652,-82.4267990
1375,4th Street,43138,39.5457555,-82.4268872
1375,4th Street,43138,39.5456917,-82.4267821
1367,4th Street,43138,39.5456904,-82.4266295
1303,4th Street,43138,39.5457045,-82.4264780
1324,4th Street,43138,39.5460149,-82.4264958
1320,4th Street,43138,39.5459901,-82.4263617
761,Edgehill Drive,43138,39.5465676,-82.4011464
775,Edgehill Drive,43138,39.5470138,-82.4011608
778,Edgehill Drive,43138,39.5472020,-82.4005685
150,Vine Street,43138,39.5454539,-82.4035591
694,Walnut Hills Drive,43138,39.5462797,-82.4033690
656,North Market Street,43138,39.5461336,-82.4079334
728,West Jennison Avenue,43138,39.5466958,-82.4162879
729,West Jennison Avenue,43138,39.5464042,-82.4167821
737,West Jennison Avenue,43138,39.5466607,-82.4168212
440,West Street,43138,39.5451913,-82.4181396
1066,4th Street,43138,39.5452371,-82.4228452
1086,4th Street,43138,39.5453516,-82.4231884
1080,4th Street,43138,39.5453325,-82.4230179
1104,4th Street,43138,39.5453918,-82.4234992
1110,4th Street,43138,39.5454050,-82.4236652
1148,4th Street,43138,39.5454475,-82.4238557
1152,4th Street,43138,39.5454873,-82.4240124
"1180,1182",4th Street,43138,39.5455209,-82.4242198
1216,4th Street,43138,39.5457198,-82.4250191
1216,4th Street,43138,39.5457562,-82.4252264
1264,4th Street,43138,39.5458323,-82.4254970
1153,4th Street,43138,39.5451802,-82.4240189
1195,4th Street,43138,39.5453065,-82.4245159
1103,4th Street,43138,39.5450896,-82.4235190
167,4th Street,43138,39.5452398,-82.4242349
1207,4th Street,43138,39.5453332,-82.4249018
1257,4th Street,43138,39.5454855,-82.4255166
1267,4th Street,43138,39.5455217,-82.4257479
1293,4th Street,43138,39.5456087,-82.4260963
1299,4th Street,43138,39.5456190,-82.4262364
586,East Hunter Street,43138,39.5407381,-82.3992697
101,Florence Avenue,43138,39.5274414,-82.4070789
121,Florence Avenue,43138,39.5273287,-82.4066371
560,Wood Street,43138,39.5453757,-82.4150281
419,Warner Avenue,43138,39.5444722,-82.4147197
455,Warner Avenue,43138,39.5447235,-82.4146919
765,Glenwood Drive,43138,39.5475995,-82.4167820
733,Wood Street,43138,39.5471149,-82.4156005
493,Warner Avenue,43138,39.5449429,-82.4145028
713,Warner Avenue,43138,39.5462299,-82.4142749
732,Wood Street,43138,39.5470247,-82.4148830
582,Wood Street,43138,39.5455228,-82.4150458
597,Warner Avenue,43138,39.5456971,-82.4143028
539,Warner Avenue,43138,39.5452133,-82.4143825
879,Warner Avenue,43138,39.5474932,-82.4141378
474,Poplar Street,43138,39.5450615,-82.4151118
616,Warner Avenue,43138,39.5456887,-82.4138875
584,Warner Avenue,43138,39.5454619,-82.4139188
747,Wood Street,43138,39.5475401,-82.4155928
750,Glenwood Drive,43138,39.5472043,-82.4162379
494,Warner Avenue,43138,39.5448766,-82.4140452
655,Warner Avenue,43138,39.5458195,-82.4143132
709,West Jennison Avenue,43138,39.5460545,-82.4163490
751,Glenwood Drive,43138,39.5471902,-82.4167920
801,Warner Avenue,43138,39.5466138,-82.4142180
500,Warner Avenue,43138,39.5449818,-82.4140321
740,Wood Street,43138,39.5473091,-82.4149628
748,Wood Street,43138,39.5475614,-82.4149553
581,Warner Avenue,43138,39.5454578,-82.4143325
538,Warner Avenue,43138,39.5450936,-82.4139468
655,Warner Avenue,43138,39.5459684,-82.4142959
433,Warner Avenue,43138,39.5446085,-82.4147043
454,Warner Avenue,43138,39.5446713,-82.4141859
525,Wood Street,43138,39.5452030,-82.4154917
743,Glenwood Drive,43138,39.5469404,-82.4168040
744,Glenwood Drive,43138,39.5469663,-82.4162799
538,Wood Street,43138,39.5452423,-82.4150274
615,Wood Street,43138,39.5457459,-82.4154472
597,Warner Avenue,43138,39.5455789,-82.4142932
769,Warner Avenue,43138,39.5464829,-82.4142456
849,Warner Avenue,43138,39.5473657,-82.4141474
452,Poplar Street,43138,39.5450425,-82.4148000
606,Wood Street,43138,39.5457404,-82.4149647
764,Glenwood Drive,43138,39.5475199,-82.4161926
711,Wood Street,43138,39.5463260,-82.4154334
801,Warner Avenue,43138,39.5469110,-82.4142509
825,Warner Avenue,43138,39.5471642,-82.4142078
468,Poplar Street,43138,39.5450508,-82.4149570
674,Warner Avenue,43138,39.5453371,-82.4139219
523,Warner Avenue,43138,39.5450568,-82.4144225
719,Warner Avenue,43138,39.5463578,-82.4142504
594,Warner Avenue,43138,39.5455743,-82.4139097
864,Betty Avenue,43138,39.5291010,-82.4049155
798,Betty Avenue,43138,39.5287101,-82.4036354
184,Florence Avenue,43138,39.5275747,-82.4055659
222,Florence Avenue,43138,39.5275230,-82.4047508
971,Louise Avenue,43138,39.5277517,-82.4041492
934,Louise Avenue,43138,39.5281416,-82.4035868
952,Louise Avenue,43138,39.5279569,-82.4036211
966,Louise Avenue,43138,39.5277429,-82.4036441
741,Huntley Avenue,43138,39.5309556,-82.4021841
703,Huntley Avenue,43138,39.5310940,-82.4010542
100,Mae Street,43138,39.5257698,-82.4072216
112,Mae Street,43138,39.5257119,-82.4069581
134,Mae Street,43138,39.5255675,-82.4065791
111,Mae Street,43138,39.5253355,-82.4071569
928,Mohican Avenue,43138,39.5298433,-82.4094442
968,Mohican Avenue,43138,39.5296182,-82.4089033
975,Mohican Avenue,43138,39.5291632,-82.4089098
871,Mohican Avenue,43138,39.5300723,-82.4105365
855,Mohican Avenue,43138,39.5301895,-82.4106417
381,Mae Street,43138,39.5241666,-82.4080813
354,Mae Street,43138,39.5239946,-82.4074730
390,Mae Street,43138,39.5237592,-82.4079521
335,Mae Street,43138,39.5245192,-82.4072589
322,Mae Street,43138,39.5241259,-82.4069020
288,Mae Street,43138,39.5240783,-82.4061282
264,Mae Street,43138,39.5240940,-82.4057819
279,Mae Street,43138,39.5245659,-82.4060631
251,Mae Street,43138,39.5245713,-82.4056437
203,Mae Street,43138,39.5247939,-82.4056286
192,Mae Street,43138,39.5252591,-82.4055750
183,Mae Street,43138,39.5249236,-82.4059540
162,Mae Street,43138,39.5254438,-82.4061230
141,Mae Street,43138,39.5251684,-82.4066971
984,Marla Avenue,43138,39.5274100,-82.4025005
1083,Marla Avenue,43138,39.5267151,-82.4008800
1022,Marla Avenue,43138,39.5273615,-82.4019593
1062,Marla Avenue,43138,39.5271755,-82.4012300
965,Marla Avenue,43138,39.5277406,-82.4030633
12684,College Prospect Drive,43138,39.5445266,-82.4494665
980,3rd Street,43138,39.5441804,-82.4217923
475,West Street,43138,39.5453467,-82.4185718
439,West Street,43138,39.5448925,-82.4186048
415,West Street,43138,39.5446589,-82.4186276
291,North Mulberry Street,43138,39.5426039,-82.4068165
238,North Mulberry Street,43138,39.5419885,-82.4064564
762,East Main Street,43138,39.5392512,-82.3961519
752,East Main Street,43138,39.5392521,-82.3963529
715,East Main Street,43138,39.5389502,-82.3965673
775,East Main Street,43138,39.5389218,-82.3958343
791,East Main Street,43138,39.5389211,-82.3956829
845,East Main Street,43138,39.5388767,-82.3948020
863,East Main Street,43138,39.5388537,-82.3946275
881,East Main Street,43138,39.5388310,-82.3944796
883,East Main Street,43138,39.5388111,-82.3942856
60,Norwood Avenue,43138,39.5384143,-82.3935048
48,Norwood Avenue,43138,39.5387109,-82.3935666
910,East Main Street,43138,39.5390862,-82.3935575
920,East Main Street,43138,39.5390740,-82.3933615
930,East Main Street,43138,39.5391003,-82.3931453
950,East Main Street,43138,39.5391706,-82.3929810
898,East Main Street,43138,39.5391154,-82.3938717
892,East Main Street,43138,39.5391243,-82.3940712
886,East Main Street,43138,39.5391402,-82.3942482
882,East Main Street,43138,39.5391188,-82.3944205
860,East Main Street,43138,39.5391405,-82.3946061
705,East 2nd Street,43138,39.5381268,-82.3966025
772,East Front Street,43138,39.5376071,-82.3959193
784,East Front Street,43138,39.5375983,-82.3957537
455,East Hunter Street,43138,39.5405637,-82.4019601
467,East Hunter Street,43138,39.5405423,-82.4018320
65,North Culver Street,43138,39.5404969,-82.4031362
229,East Street,43138,39.5420311,-82.4024086
"232,234",East Street,43138,39.5420295,-82.4021237
12892,SR 664,43138,39.5403416,-82.4377392
1255,Missouri Avenue,43138,39.5452347,-82.3895459
1204,Cross Street,43138,39.5446467,-82.3889893
1241,Missouri Avenue,43138,39.5450092,-82.3896348
1156,Ohio Avenue,43138,39.5460664,-82.3893996
1137,Ohio Avenue,43138,39.5457052,-82.3898153
1216,Illinois Avenue,43138,39.5448688,-82.3880161
31550,Chieftain Drive,43138,39.5452449,-82.4336960
1057,Ohio Avenue,43138,39.5454637,-82.3914509
846,Elizabeth Avenue,43138,39.5291099,-82.3998424
819,Elizabeth Avenue,43138,39.5295253,-82.4003307
933,Elizabeth Avenue,43138,39.5277933,-82.4006694
885,Elizabeth Avenue,43138,39.5286131,-82.4005357
763,Hobart Avenue,43138,39.5305314,-82.4012947
836,Huntley Avenue,43138,39.5293839,-82.4018305
20,Bowers Court,43138,39.5292346,-82.4066964
838,Walhonding Avenue,43138,39.5297279,-82.4070672
802,Huntley Avenue,43138,39.5297790,-82.4017941
825,Betty Avenue,43138,39.5284873,-82.4043179
783,Betty Avenue,43138,39.5283007,-82.4030681
766,Huntley Avenue,43138,39.5305507,-82.4017154
927,Hobart Avenue,43138,39.5293497,-82.4024022
896,Huntley Avenue,43138,39.5285497,-82.4023828
10,Bowers Court,43138,39.5290144,-82.4065460
816,Huntley Avenue,43138,39.5295847,-82.4018085
733,Mohican Avenue,43138,39.5319797,-82.4110320
850,Baird Street,43138,39.5306918,-82.4084729
787,Mohican Avenue,43138,39.5311664,-82.4110709
81,Wilson Avenue,43138,39.5318684,-82.4090188
903,Mohican Avenue,43138,39.5291908,-82.4084772
837,Mohican Avenue,43138,39.5304528,-82.4107804
895,Mohican Avenue,43138,39.5299158,-82.4104634
67,Wilson Avenue,43138,39.5318477,-82.4088401
793,Mohican Avenue,43138,39.5309979,-82.4110571
813,Mohican Avenue,43138,39.5307217,-82.4109655
933,Mohican Avenue,43138,39.5295278,-82.4097750
761,Wyandotte Avenue,43138,39.5311943,-82.4096171
765,Mohican Avenue,43138,39.5316228,-82.4111407
949,Mohican Avenue,43138,39.5293960,-82.4095388
861,Baird Street,43138,39.5303821,-82.4084562
825,Mohican Avenue,43138,39.5305859,-82.4108651
159,North Street,43138,39.5437353,-82.4116993
131,North Street,43138,39.5436823,-82.4114168
115,North Street,43138,39.5436701,-82.4111581
87,North Street,43138,39.5436642,-82.4106251
362,North Spring Street,43138,39.5433460,-82.4106943
468,North Spring Street,43138,39.5445394,-82.4106120
472,North Spring Street,43138,39.5446516,-82.4106724
476,North Spring Street,43138,39.5447779,-82.4106359
51,North Spring Street,43138,39.5450153,-82.4105991
516,North Spring Street,43138,39.5452096,-82.4105690
590,North Spring Street,43138,39.5454539,-82.4105635
71,Cemetery Street,43138,39.5455512,-82.4101723
98,Cemetery Street,43138,39.5455877,-82.4105115
565,North Spring Street,43138,39.5449739,-82.4109666
132,West Angle Avenue,43138,39.5449651,-82.4112123
519,North Spring Street,43138,39.5450930,-82.4109160
527,North Spring Street,43138,39.5452126,-82.4109082
531,North Spring Street,43138,39.5453208,-82.4109058
101,West Jennison Avenue,43138,39.5455064,-82.4108715
145,West Jennison Avenue,43138,39.5456020,-82.4116125
200,North Street,43138,39.5441372,-82.4121170
323,North Street,43138,39.5439597,-82.4135108
337,North Street,43138,39.5440137,-82.4136854
303,North Street,43138,39.5439817,-82.4132758
263,North Street,43138,39.5438882,-82.4128611
277,North Street,43138,39.5438730,-82.4130543
332,West Angle Avenue,43138,39.5453212,-82.4134846
712,Warner Avenue,43138,39.5461823,-82.4138543
733,Warner Avenue,43138,39.5464081,-82.4138169
742,Warner Avenue,43138,39.5465338,-82.4137827
790,Warner Avenue,43138,39.5467679,-82.4138325
800,Warner Avenue,43138,39.5470892,-82.4137607
342,West Grogan Avenue,43138,39.5470065,-82.4133033
872,Warner Avenue,43138,39.5473112,-82.4136937
886,Warner Avenue,43138,39.5475199,-82.4136918
15,Mae Street,43138,39.5258173,-82.4085964
13,Mae Street,43138,39.5257395,-82.4088914
13912,Nickel Plate Road,43138,39.5245497,-82.4085357
13846,Nickel Plate Road,43138,39.5257137,-82.4092222
702,North Market Street,43138,39.5467358,-82.4079482
30609,Chieftain Drive,43138,39.5525465,-82.4513495
772,North Market Street,43138,39.5471936,-82.4079642
41,East Jennison Avenue,43138,39.5453656,-82.4075181
30601,Chieftain Drive,43138,39.5530116,-82.4519744
666,North Market Street,43138,39.5462553,-82.4079771
30705,Chieftain Drive,43138,39.5517668,-82.4497015
732,North Market Street,43138,39.5470892,-82.4079834
30677,Chieftain Drive,43138,39.5519318,-82.4507081
680,North Market Street,43138,39.5463982,-82.4079650
30605,Chieftain Drive,43138,39.5527817,-82.4516572
30613,Chieftain Drive,43138,39.5523406,-82.4510217
30607,Chieftain Drive,43138,39.5523550,-82.4521242
387,West Street,43138,39.5444339,-82.4186322
246,Iron Street,43138,39.5432571,-82.4196017
1045,4th Street,43138,39.5448878,-82.4226729
392,West Street,43138,39.5445018,-82.4182270
373,West Street,43138,39.5443350,-82.4186472
363,West Street,43138,39.5442082,-82.4186408
366,West Street,43138,39.5442384,-82.4182041
224,Iron Street,43138,39.5431244,-82.4196147
141,West Street,43138,39.5425240,-82.4187741
151,West Street,43138,39.5424003,-82.4187970
354,West Street,43138,39.5441418,-82.4182137
1,Radio Lane,43138,39.5294266,-82.3848564
649,Radio Lane,43138,39.5294466,-82.3863813
721,Weldy Avenue,43138,39.5408771,-82.4207603
847,Weldy Avenue,43138,39.5413062,-82.4212792
331,Short Street,43138,39.5410083,-82.4192801
699,Weldy Avenue,43138,39.5404521,-82.4199390
705,Weldy Avenue,43138,39.5405799,-82.4201288
698,Motherwell Avenue,43138,39.5403903,-82.4197828
698,Motherwell Avenue,43138,39.5405351,-82.4195206
664,Motherwell Avenue,43138,39.5403256,-82.4192945
650,Motherwell Avenue,43138,39.5402218,-82.4192004
631,Motherwell Avenue,43138,39.5398871,-82.4193882
535,Henrietta Avenue,43138,39.5402292,-82.4171104
535,Henrietta Avenue,43138,39.5401293,-82.4170130
275,Hocking Avenue,43138,39.5404420,-82.4179683
267,Hocking Avenue,43138,39.5404934,-82.4178737
597,Henrietta Avenue,43138,39.5405054,-82.4172989
201,Hocking Avenue,43138,39.5407287,-82.4174673
235,Hocking Avenue,43138,39.5405978,-82.4176969
209,Friesner Avenue,43138,39.5398800,-82.4167187
251,Friesner Avenue,43138,39.5396992,-82.4169866
271,Friesner Avenue,43138,39.5396348,-82.4171386
564,West Front Street,43138,39.5399647,-82.4176236
548,West Front Street,43138,39.5398510,-82.4174946
167,Friesner Avenue,43138,39.5401307,-82.4163012
127,Friesner Avenue,43138,39.5403019,-82.4160131
147,Friesner Avenue,43138,39.5402170,-82.4161483
189,Friesner Avenue,43138,39.5400415,-82.4164052
532,Henrietta Avenue,43138,39.5401504,-82.4165491
238,Friesner Avenue,43138,39.5395490,-82.4166959
262,Friesner Avenue,43138,39.5394094,-82.4168103
496,West Front Street,43138,39.5393441,-82.4169979
498,Motherwell Avenue,43138,39.5388502,-82.4178748
482,Motherwell Avenue,43138,39.5387437,-82.4177600
470,Motherwell Avenue,43138,39.5386657,-82.4175907
363,Gallagher Ave,43138,39.5383011,-82.4171252
448,Motherwell Avenue,43138,39.5384972,-82.4175968
465,West Front Street,43138,39.5389438,-82.4170707
481,West Front Street,43138,39.5390396,-82.4171583
446,West Front Street,43138,39.5390154,-82.4166891
466,West Front Street,43138,39.5391297,-82.4168138
243,Gallagher Avenue,43138,39.5388888,-82.4161811
231,Gallagher Avenue,43138,39.5389318,-82.4160449
497,Henrietta Avenue,43138,39.5396183,-82.4164837
457,Henrietta Avenue,43138,39.5394476,-82.4162744
451,Henrietta Avenue,43138,39.5393200,-82.4161598
450,Henrietta Avenue,43138,39.5394996,-82.4158503
464,Henrietta Avenue,43138,39.5395929,-82.4160009
152,Gallagher Avenue,43138,39.5390903,-82.4151283
180,Gallagher Avenue,43138,39.5390003,-82.4152614
192,Gallagher Avenue,43138,39.5389342,-82.4153960
356,West Front Street,43138,39.5385615,-82.4150991
334,West Front Street,43138,39.5385821,-82.4145847
360,West Front Street,43138,39.5385876,-82.4154760
220,Gallagher Avenue,43138,39.5387550,-82.4157071
480,Henrietta Avenue,43138,39.5397235,-82.4160812
498,Henrietta Avenue,43138,39.5398552,-82.4161810
193,West 2nd Street,43138,39.5390776,-82.4120490
179,West 2nd Street,43138,39.5390694,-82.4119135
153,West 2nd Street,43138,39.5390669,-82.4116413
226,West Front Street,43138,39.5384594,-82.4126902
163,West Front Street,43138,39.5380136,-82.4117151
143,West Front Street,43138,39.5379863,-82.4114977
207,Falls Street,43138,39.5332790,-82.4105158
"114,116",South Culver Street,43138,39.5384884,-82.4028784
678,East Front Street,43138,39.5377295,-82.3983026
797,East 2nd Street,43138,39.5380609,-82.3955395
883,East 2nd Street,43138,39.5380308,-82.3942152
869,East 2nd Street,43138,39.5380505,-82.3945267
110,Norwood Avenue,43138,39.5379107,-82.3935960
1405,East Front Street,43138,39.5329800,-82.3859838
1449,East Front Street,43138,39.5326139,-82.3853214
1545,East Front Street,43138,39.5318682,-82.3838098
1810,Linton Road,43138,39.5294778,-82.3783009
1812,Linton Road,43138,39.5297729,-82.3780241
1818,Linton Road,43138,39.5299135,-82.3776333
1830,Linton Road,43138,39.5295794,-82.3776692
1828,Linton Road,43138,39.5292831,-82.3779544
1846,Linton Road,43138,39.5291701,-82.3777398
1856,Linton Road,43138,39.5293657,-82.3772925
1866,Linton Road,43138,39.5289737,-82.3773929
1880,Linton Road,43138,39.5288649,-82.3772235
1700,East Front Street,43138,39.5302158,-82.3795401
13783,Linton Road,43138,39.5254069,-82.3710188
13779,Linton Road,43138,39.5255220,-82.3708154
13741,Linton Road,43138,39.5258237,-82.3702463
13705,Maysville-Williams Road,43138,39.5263468,-82.3695034
13687,Maysville-Williams Road,43138,39.5266363,-82.3693368
13675,Maysville-Williams Road,43138,39.5268633,-82.3693332
13654,Maysville-Williams Road,43138,39.5271601,-82.3686651
67,North Market Street,43138,39.5407937,-82.4094168
783,Edgehill Drive,43138,39.5472636,-82.4011890
788,Edgehill Drive,43138,39.5474395,-82.4005906
789,Edgehill Drive,43138,39.5474903,-82.4010988
404,Oak Street,43138,39.5424904,-82.4020870
372,Orchard Place,43138,39.5430590,-82.4030104
420,Milton Avenue,43138,39.5428998,-82.4018637
266,East Street,43138,39.5422836,-82.4020388
340,North Culver Street,43138,39.5429962,-82.4025377
324,East Street,43138,39.5426073,-82.4020182
434,East Street,43138,39.5427224,-82.4020086
246,East Street,43138,39.5422079,-82.4020646
1302,West Hunter Street,43138,39.5427861,-82.4269964
1303,West Hunter Street,43138,39.5428937,-82.4269776
1249,4th Street,43138,39.5454278,-82.4252917
1204,4th Street,43138,39.5457386,-82.4247846
1196,4th Street,43138,39.5457444,-82.4245055
490,North Walnut Street,43138,39.5443064,-82.4048786
473,North Walnut Street,43138,39.5441416,-82.4047610
473,North Walnut Street,43138,39.5441433,-82.4054845
534,North Walnut Street,43138,39.5446259,-82.4047927
521,Radio Lane,43138,39.5319310,-82.3856090
580,Radio Lane,43138,39.5302609,-82.3845512
1742,East Front Street,43138,39.5300175,-82.3785233
13580,Maysville-Williams Road,43138,39.5290128,-82.3671941
587,Gateway Drive,43138,39.5338703,-82.3819829
570,Gateway Drive,43138,39.5340206,-82.3825227
596,Gateway Drive,43138,39.5343261,-82.3820025
603,Gateway Drive,43138,39.5340741,-82.3816073
600,Wyandotte Drive,43138,39.5342105,-82.3811741
541,Highland Drive,43138,39.5335301,-82.3816709
503,Highland Drive,43138,39.5333338,-82.3825391
93,Highland Drive,43138,39.5331715,-82.3828721
1605,Valley View Drive,43138,39.5319107,-82.3818033
1625,Valley View Drive,43138,39.5317586,-82.3815238
1643,Valley View Drive,43138,39.5315908,-82.3812521
1622,Valley View Drive,43138,39.5319229,-82.3809397
1584,Valley View Drive,43138,39.5324142,-82.3818018
554,Highland Drive,43138,39.5333422,-82.3808979
483,Gateway Drive,43138,39.5332337,-82.3844392
1400,Dannie Drive,43138,39.5338469,-82.3853477
1350,Dannie Drive,43138,39.5349016,-82.3853128
1300,Dannie Drive,43138,39.5344124,-82.3864186
1250,Dannie Drive,43138,39.5346349,-82.3869866
42,Hocking Mall,43138,39.5453453,-82.4306041
92,Hocking Mall Street,43138,39.5454002,-82.4310281
52,Hocking Mall,43138,39.5453679,-82.4307102
28,Hocking Mall,43138,39.5453016,-82.4297337
62,Hocking Mall Street,43138,39.5453557,-82.4308250
104,Hocking Mall Street,43138,39.5455160,-82.4313505
1389,West Hunter Street,43138,39.5430773,-82.4286498
1383,West Hunter Street,43138,39.5430746,-82.4283316
1381,West Hunter Street,43138,39.5430381,-82.4281441
1383,West Hunter Street,43138,39.5430842,-82.4284894
775,East Front Street,43138,39.5372258,-82.3958019
252,Arlington Avenue,43138,39.5368602,-82.3950980
251,Arlington Avenue,43138,39.5369079,-82.3954438
190,Jennifer Drive,43138,39.5475673,-82.4045762
823,North Walnut Street,43138,39.5473435,-82.4063298
49,East Hunter Street,43138,39.5407082,-82.4074213
49,East Hunter Street,43138,39.5408286,-82.4076642
498,East Front Street,43138,39.5379028,-82.4016754
884,East 2nd Street,43138,39.5383227,-82.3942647
870,East Front Street,43138,39.5375209,-82.3943458
675,East Main Street,43138,39.5391602,-82.3979442
12906,SR 664,43138,39.5391051,-82.4364720
12906,SR 664,43138,39.5391388,-82.4364279
12906,SR 664,43138,39.5391745,-82.4363824
12906,SR 664,43138,39.5392190,-82.4363258
12906,SR 664,43138,39.5393053,-82.4362143
12906,SR 664,43138,39.5403031,-82.4371140
12906,SR 664,43138,39.5402794,-82.4370837
12906,SR 664,43138,39.5401945,-82.4369749
12906,SR 664,43138,39.5401378,-82.4369024
12906,SR 664,43138,39.5401109,-82.4368681
12906,SR 664,43138,39.5400849,-82.4368347
52,Grogan Avenue,43138,39.5468799,-82.4075653
648,North Mulberry Street,43138,39.5459515,-82.4062043
100,Cushing Avenue,43138,39.5462406,-82.4062076
511,East Front Street,43138,39.5373328,-82.4014824
515,East Front Street,43138,39.5372951,-82.4013535
519,East Front Street,43138,39.5372924,-82.4012685
12906,SR 664,43138,39.5396722,-82.4363067
12906,SR 664,43138,39.5398165,-82.4364912
12906,SR 664,43138,39.5395389,-82.4361361
12906,SR 664,43138,39.5399615,-82.4366768
1323,West Hunter Street,43138,39.5427873,-82.4274121
1321,West Hunter Street,43138,39.5429048,-82.4273822
1319,West Hunter Street,43138,39.5430013,-82.4273728
1311,West Hunter Street,43138,39.5431887,-82.4273547
1317,Betty Avenue,43138,39.5431006,-82.4273632
37,West Front Street,43138,39.5379052,-82.4098460
600,SR 664,43138,39.5479615,-82.4283318
460,West Street,43138,39.5447262,-82.4191293
206,Jennifer Drive,43138,39.5474439,-82.4043549
238,Jennifer Road,43138,39.5472895,-82.4040519
799,Walnut Hills Drive,43138,39.5472698,-82.4037150
790,Walnut Hills Drive,43138,39.5471784,-82.4032509
738,Walnut Hills Drive,43138,39.5468147,-82.4032964
733,Jennifer Road,43138,39.5468648,-82.4037245
278,Walnut Hills Drive,43138,39.5465911,-82.4038201
218,Michelle Street,43138,39.5466100,-82.4044582
248,Michelle Street,43138,39.5465998,-82.4041102
279,Michelle Street,43138,39.5462060,-82.4038858
125,Kellyn Court,43138,39.5460506,-82.4044032
239,Michelle Street,43138,39.5462706,-82.4042824
495,East Street,43138,39.5438872,-82.4024312
281,West 2nd Street,43138,39.5391773,-82.4133538
280,West 2nd Street,43138,39.5394787,-82.4132575
411,East Front Street,43138,39.5376149,-82.4028197
1310,4th Street,43138,39.5459494,-82.4262415
270,West Hunter Street,43138,39.5416381,-82.4128215
260,West Hunter Street,43138,39.5416541,-82.4126984
290,West Hunter Street,43138,39.5416787,-82.4130985
278,West Hunter Street,43138,39.5416649,-82.4129384
426,North Orchard Street,43138,39.5436458,-82.4035540
420,North Orchard Street,43138,39.5435024,-82.4036275
425,North Orchard Street,43138,39.5436743,-82.4040068
428,North Orchard Street,43138,39.5437891,-82.4035731
427,North Orchard Street,43138,39.5438161,-82.4039844
485,North Orchard Street,43138,39.5441613,-82.4039199
433,North Orchard Street,43138,39.5440755,-82.4039319
431,North Orchard Street,43138,39.5439801,-82.4039534
487,North Orchard Street,43138,39.5442480,-82.4039092
504,North Orchard Street,43138,39.5443793,-82.4036623
395,North Orchard Street,43138,39.5433880,-82.4040342
396,North Orchard Street,43138,39.5433718,-82.4036329
876,West Hunter Street,43138,39.5422493,-82.4206213
870,West Hunter Street,43138,39.5422159,-82.4205101
1135,West Hunter Street,43138,39.5425175,-82.4241016
1111,West Hunter Street,43138,39.5425070,-82.4237481
1203,West Hunter Street,43138,39.5426271,-82.4248604
1203,West Hunter Street,43138,39.5426090,-82.4247726
597,West Front Street,43138,39.5400102,-82.4181458
565,West Front Street,43138,39.5397861,-82.4179532
547,West Front Street,43138,39.5396428,-82.4178457
583,Henrietta Avenue,43138,39.5404094,-82.4171851
573,Henrietta Avenue,43138,39.5403223,-82.4171456
138,Friesner Avenue,43138,39.5400275,-82.4158541
107,Friesner Avenue,43138,39.5403444,-82.4158772
478,West 2nd Street,43138,39.5402139,-82.4152510
16,Friesner Avenue,43138,39.5405502,-82.4149205
8,Friesner Avenue,43138,39.5405842,-82.4148211
359,West Main Street,43138,39.5410303,-82.4144194
325,West Main Street,43138,39.5408317,-82.4140215
323,West Front Street,43138,39.5381053,-82.4143515
267,West Front Street,43138,39.5380742,-82.4133190
141,West 2nd Street,43138,39.5390118,-82.4114728
642,Wyandotte Avenue,43138,39.5327922,-82.4088531
54,West Main Street,43138,39.5403868,-82.4098245
684,East Hunter Street,43138,39.5406220,-82.3974786
47,West Main Street,43138,39.5399601,-82.4097373
45,West Main Street,43138,39.5398613,-82.4096521
202,East 2nd Street,43138,39.5390225,-82.4054782
186,South Walnut Street,43138,39.5380944,-82.4055963
180,South Market Street,43138,39.5382331,-82.4088007
736,West Front Street,43138,39.5413056,-82.4185623
802,West Hunter Street,43138,39.5421671,-82.4201325
740,Wyandotte Avenue,43138,39.5315581,-82.4092520
733,Wyandotte Avenue,43138,39.5315069,-82.4094438
790,Mohican Avenue,43138,39.5311519,-82.4105969
955,Mohican Avenue,43138,39.5292111,-82.4091312
251,California Avenue,43138,39.5425573,-82.3964720
1309,West Hunter Street,43138,39.5431365,-82.4270231
44,East Main Street,43138,39.5403830,-82.4079768
62,East Main Street,43138,39.5402852,-82.4076517
750,West Hunter Street,43138,39.5420463,-82.4188773
51,South Spring Street,43138,39.5396686,-82.4111345
30603,Chieftain Drive,43138,39.5525461,-82.4516391
78,West Main Street,43138,39.5404273,-82.4102945
598,West Front Street,43138,39.5401538,-82.4178531
692,North Walnut Street,43138,39.5466597,-82.4054804
698,North Walnut Street,43138,39.5469450,-82.4055195
665,North Walnut Street,43138,39.5459975,-82.4054659
641,North Walnut Street,43138,39.5458474,-82.4054149
639,North Walnut Street,43138,39.5457227,-82.4053785
562,East Main Street,43138,39.5397272,-82.3997746
574,East Main Street,43138,39.5397543,-82.3995808
659,East Main Street,43138,39.5392172,-82.3980929
832,West Hunter Street,43138,39.5422225,-82.4204058
830,West Hunter Street,43138,39.5422173,-82.4203160
802,West Hunter Street,43138,39.5420891,-82.4201480
827,West Front Street,43138,39.5418411,-82.4206790
821,West Hunter Street,43138,39.5418197,-82.4205762
1023,West Hunter Street,43138,39.5422324,-82.4229701
1228,West Hunter Street,43138,39.5433460,-82.4254011
1222,West Hunter Street,43138,39.5433516,-82.4254625
162,Iron Street,43138,39.5423529,-82.4197263
357,West Front Street,43138,39.5381948,-82.4150475
12762,Grey Street,43138,39.5438521,-82.4488106
"30,34",West Main Street,43138,39.5404751,-82.4094008
104,East Main Street,43138,39.5402713,-82.4067499
110,East Main Street,43138,39.5402670,-82.4066924
35255,Hocking Drive,43138,39.5128223,-82.3624582
