House number,Street name,Postal code,Latitude,Longitude
126,South Lebanon Road,45140-9301,39.2700010,-84.2846660
10689,Loveland Madeira Road,45140,39.2550591,-84.2955577
10655,Loveland Madeira Road,45140,39.2541372,-84.2965554
330,Loveland–Madeira Road,45140,39.2663906,-84.2676144
126,South Lebanon Road,45140-9301,39.2701913,-84.2846733
10663,Loveland Madeira Road,45140,39.2543211,-84.2963932
10675,Loveland Madeira Road,45140,39.2546907,-84.2960188
10649,Loveland Madeira Road,45140,39.2539483,-84.2966467
10649,Loveland Madeira Road,45140,39.2542182,-84.2964803
10659,Loveland Madeira Road,45140,39.2538446,-84.2966844
10665,Loveland Madeira Road,45140,39.2543679,-84.2963381
204,West Loveland Avenue,45140,39.2681765,-84.2587984
910,Loveland Madeira Road,45140,39.2628811,-84.2697070
920,Loveland–Madeira Road,45140,39.2624859,-84.2701252
910,Loveland Madeira Road,45140,39.2627740,-84.2694169
675,Loveland Madeira Road,45140,39.2632460,-84.2683809
305,West Loveland Avenue,45140,39.2681738,-84.2595839
515,Loveland Madeira Road,45140,39.2645894,-84.2673726
116,Karl Brown Way,45140,39.2678107,-84.2591274
10685,Loveland Madeira Road,45140,39.2550128,-84.2956071
641,Loveland Madeira Road,45140,39.2637228,-84.2677914
106,Railroad Avenue,45140,39.2681792,-84.2581121
10551,Loveland Madeira,45140,39.2510588,-84.2973420
201,West Loveland Avenue,45140,39.2676885,-84.2588149
547,Loveland Madeira Road,45140,39.2636682,-84.2678639
910,Loveland Madeira Road,45140,39.2628073,-84.2697897
910,Loveland Madeira Road,45140,39.2629266,-84.2696118
910,Loveland Madeira Road,45140,39.2627174,-84.2693503
910,Loveland Madeira Road,45140,39.2628363,-84.2694893
700,Loveland Madeira Road,45140,39.2622532,-84.2717264
700,Loveland Madeira Road,45140,39.2622076,-84.2717800
420,West Loveland Avenue,45140,39.2691432,-84.2625954
118,Karl Brown Way,45140,39.2676333,-84.2592333
209,Railroad Avenue,45140,39.2692499,-84.2580876
209,Railroad Avenue,45140,39.2692225,-84.2580126
211,Railroad Avenue,45140,39.2692650,-84.2579872
10567,Loveland Madeira Road,45140,39.2513388,-84.2972651
1120,Cottonwood Drive,45140,39.2558546,-84.2956084
1120,Cottonwood Drive,45140,39.2558648,-84.2956691
10653,Loveland Madeira Road,45140,39.2540807,-84.2965902
10651,Loveland Madeira Road,45140,39.2540184,-84.2966143
243,Wall Street,45140,39.2719632,-84.2639640
226,Loveland Madeira Road,45140,39.2667984,-84.2666546
112,South Riverside Drive,45140,39.2682885,-84.2619338
131,East Broadway Street,45140,39.2661825,-84.2589887
111,South 2nd Street,45140,39.2668143,-84.2569137
20,Grear Militzer Place,45140,39.2683186,-84.2570101
757,South Lebanon Road,45140,39.2638820,-84.2849656
126,South Lebanon Road,45140-9301,39.2700685,-84.2847895
126,South Lebanon Road,45140-9301,39.2702201,-84.2845132
126,South Lebanon Road,45140-9301,39.2700051,-84.2847908
113,Karl Brown Way,45140,39.2677821,-84.2595528
113,Karl Brown Way,45140,39.2678788,-84.2596985
123,South 2nd Street,45140,39.2665146,-84.2571980
700,Loveland Madeira Road,45140,39.2623016,-84.2716695
400,Loveland–Madeira Road,45140,39.2656735,-84.2678066
800,Loveland Madeira Road,45140,39.2611828,-84.2733861
894,Oakland Road,45140,39.2591623,-84.2468684
896,Oakland Road,45140,39.2593862,-84.2459890
1,Tiger Trail,45140,39.2796702,-84.2751378
910,Loveland Madeira Road,45140,39.2627784,-84.2695879
700,Loveland Madeira Road,45140,39.2622430,-84.2717348
650,Loveland Madeira Road,45140-2703,39.2626674,-84.2709603
200,Loveland Madeira Road,45140,39.2677209,-84.2664721
20,Grear Militzer Place,45140,39.2682425,-84.2569860
131,East Broadway Street,45140,39.2660891,-84.2590786
1200,Cottonwood Drive,45140,39.2554296,-84.2955473
10575,Loveland Madeira Road,45140,39.2518735,-84.2969214
10601,Loveland Madeira Road,45140,39.2528433,-84.2966439
10975,South Lebanon Road,45140,39.2601988,-84.2884315
11020,South Lebanon Road,45140,39.2609565,-84.2852615
111,South 2nd Street,45140,39.2668047,-84.2569163
100,East Loveland Avenue,45140-2922,39.2671670,-84.2567583
111,South 3rd Street,45140,39.2667069,-84.2559911
529,Main Street,45140,39.2675052,-84.2652649
501,Loveland Madeira Road,45140,39.2652217,-84.2667866
111,Loveland Madeira Road,45140,39.2687535,-84.2662118
1555,Loveland Madeira Road,45140,39.2556888,-84.2803437
1120,Cottonwood Drive,45140,39.2558573,-84.2956523
1007,Cottonwood Drive,45140,39.2556752,-84.2938279
420,West Loveland Avenue,45140,39.2691014,-84.2625544
9501,Union Cemetery Road,45140,39.2838969,-84.2971500
100,Northeast Drive,45140,39.2839687,-84.2984307
118,Northeast Drive,45140,39.2804110,-84.2979041
100,Commerce Drive,45140,39.2838854,-84.3016523
154,Commerce Drive,45140,39.2796726,-84.3008956
185,Commerce Drive,45140,39.2785490,-84.2993238
1301,Mattec Drive,45140,39.2824745,-84.3043427
1555,Loveland Madeira Road,45140,39.2555941,-84.2808006
123,South 2nd Street,45140,39.2665146,-84.2571980
309,West Loveland Avenue,45140,39.2680362,-84.2600547
245,South 2nd Street,45140,39.2645665,-84.2587522
320C,Hanna Avenue,45140,39.2647135,-84.2577646
320B,Hanna Avenue,45140,39.2644021,-84.2577750
320A,Hanna Avenue,45140,39.2642020,-84.2574015
401,West Loveland Avenue,45140,39.2685154,-84.2621123
112,South Riverside Drive,45140,39.2682815,-84.2619815
611,West Loveland Avenue,45140,39.2689352,-84.2664855
615,West Loveland Avenue,45140,39.2688341,-84.2670237
243,Wall Street,45140,39.2719711,-84.2640096
101,Brecker Street,45140,39.2724374,-84.2641488
103,Brecker Street,45140,39.2723902,-84.2643025
107,Brecker Street,45140,39.2723894,-84.2645247
295,Wilson Avenue,45140,39.2723868,-84.2649806
301,Wall Street,45140,39.2727488,-84.2639538
120,Wilson Avenue,45140,39.2727497,-84.2644655
104,Brecker Street,45140,39.2727138,-84.2642374
227,East Loveland Avenue,45140,39.2670370,-84.2541785
661,River Road,45140,39.2610933,-84.2655099
1566,West Loveland Avenue,45140,39.2720340,-84.2836547
126;130,South Lebanon Road,45140-9301,39.2701096,-84.2846829
102,Oak Street,45140,39.2643224,-84.2592041
609,Hanna Avenue,45140,39.2599991,-84.2607837
859,Cedar Drive,45140,39.2558000,-84.2551284
101,Cedarwoods Drive,45140,39.2570806,-84.2539063
107,Cedarwoods Drive,45140,39.2568806,-84.2535915
865,Cedar Drive,45140,39.2566153,-84.2543511
112,Cedarwoods Drive,45140,39.2561699,-84.2534649
118,Cedarwoods Drive,45140,39.2558554,-84.2537488
124,Cedarwoods Drive,45140,39.2556221,-84.2539841
1824,West Loveland Avenue,45140,39.2686307,-84.2918102
1818,West Loveland Avenue,45140,39.2687097,-84.2912334
205,Highland Street,45140,39.2689188,-84.2698828
112,Englage Road,45140,39.2695153,-84.2708437
113,Rich Road,45140,39.2719222,-84.2739561
117,Rich Road,45140,39.2725702,-84.2742439
11592,Rich Road,45140,39.2732262,-84.2730560
11596,Rich Road,45140,39.2735863,-84.2730461
11587,Rich Road,45140,39.2733231,-84.2740203
11591,Rich Road,45140,39.2738045,-84.2746441
1205,West Loveland Avenue,45140,39.2708467,-84.2751331
1213,West Loveland Avenue,45140,39.2705997,-84.2758131
106,Osage Drive,45140,39.2704476,-84.2751878
106,North Lebanon Road,45140,39.2726620,-84.2836434
108,North Lebanon Road,45140,39.2729866,-84.2836300
110,North Lebanon Road,45140,39.2732285,-84.2836871
112,North Lebanon Road,45140,39.2734945,-84.2836703
114,North Lebanon Road,45140,39.2738306,-84.2836922
1600,West Loveland Avenue,45140,39.2721356,-84.2844711
1606,West Loveland Avenue,45140,39.2722368,-84.2851011
1607,West Loveland Avenue,45140,39.2715165,-84.2849802
1614,West Loveland Avenue,45140,39.2714985,-84.2855358
118,South Lebanon Road,45140,39.2705157,-84.2846777
112,South Lebanon Road,45140,39.2707934,-84.2846832
106,South Lebanon Road,45140,39.2710745,-84.2846615
1619,West Loveland Avenue,45140,39.2709921,-84.2862472
1625,West Loveland Avenue,45140,39.2707441,-84.2866972
105,North Lebanon Road,45140,39.2725032,-84.2844392
107,North Lebanon Road,45140,39.2727585,-84.2844391
109,North Lebanon Road,45140,39.2729858,-84.2844334
111,North Lebanon Road,45140,39.2731895,-84.2844937
113,North Lebanon Road,45140,39.2734243,-84.2844149
115,North Lebanon Road,45140,39.2736484,-84.2843966
117,North Lebanon Road,45140,39.2738634,-84.2843936
119,North Lebanon Road,45140,39.2740814,-84.2843936
200,South Lebanon Road,45140,39.2694811,-84.2847567
1627,West Loveland Avenue,45140,39.2696457,-84.2861033
1631,West Loveland Avenue,45140,39.2698109,-84.2870582
1701,West Loveland Avenue,45140,39.2700354,-84.2874999
1000,Valley View Lane,45140,39.2659088,-84.2693259
1005,Valley View Lane,45140,39.2654743,-84.2699056
1913,West Loveland Avenue,45140,39.2674909,-84.2952221
2057,West Loveland Avenue,45140,39.2674212,-84.2979074
2006,West Loveland Avenue,45140,39.2681132,-84.2978231
2106,West Loveland Avenue,45140,39.2677870,-84.2995360
9526,East Kemper Road,45140,39.2526891,-84.3015146
9534,East Kemper Road,45140,39.2524741,-84.3013701
9542,East Kemper Road,45140,39.2523075,-84.3011351
9548,East Kemper Road,45140,39.2522186,-84.3008372
9554,East Kemper Road,45140,39.2522201,-84.3005093
9562,East Kemper Road,45140,39.2520482,-84.3002201
9568,East Kemper Road,45140,39.2519258,-84.2998989
9576,East Kemper Road,45140,39.2518064,-84.2996014
9584,East Kemper Road,45140,39.2518629,-84.2992376
9598,East Kemper Road,45140,39.2514485,-84.2986937
9606,East Kemper Road,45140,39.2514390,-84.2983421
11050,South Lebanon Road,45140,39.2616271,-84.2852992
4,Highridge Circle,45140,39.2625914,-84.2761488
5,Highridge Circle,45140,39.2627728,-84.2759946
7,Highridge Circle,45140,39.2629954,-84.2761404
9,Highridge Circle,45140,39.2629967,-84.2766118
10,Highridge Circle,45140,39.2630183,-84.2768096
63,Highridge Drive,45140,39.2631406,-84.2771819
59,Highridge Drive,45140,39.2631118,-84.2774682
11007,South Lebanon Road,45140,39.2607145,-84.2872474
1731,Birddog Court,45140,39.2609848,-84.2872749
1724,Birddog Court,45140,39.2609403,-84.2876442
1718,Birddog Court,45140,39.2610614,-84.2879612
1712,Birddog Court,45140,39.2612703,-84.2880987
1706,Birddog Court,45140,39.2614819,-84.2878247
1700,Birddog Court,45140,39.2616311,-84.2874326
1730,Birddog Court,45140,39.2614378,-84.2869762
11045,South Lebanon Road,45140,39.2616820,-84.2869075
11055,South Lebanon Road,45140,39.2619875,-84.2867851
515,Mohican Drive,45140,39.2636555,-84.2787260
511,Mohican Drive,45140,39.2638477,-84.2787192
507,Mohican Drive,45140,39.2640534,-84.2787919
505,Mohican Drive,45140,39.2642268,-84.2788530
3,Comanche Court,45140,39.2642441,-84.2791455
5,Comanche Court,45140,39.2642033,-84.2794187
7,Comanche Court,45140,39.2642553,-84.2796823
9,Comanche Court,45140,39.2643321,-84.2800268
10,Comanche Court,45140,39.2646054,-84.2800347
8,Comanche Court,45140,39.2647324,-84.2798652
6,Comanche Court,45140,39.2646930,-84.2795605
4,Comanche Court,45140,39.2646920,-84.2792497
503,Mohican Drive,45140,39.2646921,-84.2789720
501,Mohican Drive,45140,39.2648742,-84.2790072
1501,Bellwood Drive,45140,39.2651293,-84.2789560
1,Iroquois Drive,45140,39.2637009,-84.2781404
3,Iroquois Drive,45140,39.2637303,-84.2777981
7,Iroquois Drive,45140,39.2638051,-84.2772739
9,Iroquois Drive,45140,39.2638244,-84.2770063
11,Iroquois Drive,45140,39.2638377,-84.2767898
13,Iroquois Drive,45140,39.2638021,-84.2765471
15,Iroquois Drive,45140,39.2637007,-84.2762862
17,Iroquois Drive,45140,39.2636157,-84.2761086
19,Iroquois Drive,45140,39.2635101,-84.2758923
26,Iroquois Drive,45140,39.2635764,-84.2754071
24,Iroquois Drive,45140,39.2637965,-84.2754274
22,Iroquois Drive,45140,39.2639001,-84.2757017
20,Iroquois Drive,45140,39.2639661,-84.2758998
18,Iroquois Drive,45140,39.2640566,-84.2760921
16,Iroquois Drive,45140,39.2641379,-84.2762849
14,Iroquois Drive,45140,39.2642058,-84.2764981
12,Iroquois Drive,45140,39.2642190,-84.2767087
10,Iroquois Drive,45140,39.2642108,-84.2769895
8,Iroquois Drive,45140,39.2641742,-84.2773278
6,Iroquois Drive,45140,39.2641429,-84.2776041
4,Iroquois Drive,45140,39.2641194,-84.2778291
2,Iroquois Drive,45140,39.2640889,-84.2782460
508,Mohican Drive,45140,39.2642975,-84.2783334
504,Mohican Drive,45140,39.2646113,-84.2784566
500,Mohican Drive,45140,39.2647893,-84.2784558
1415,Bellwood Drive,45140,39.2650433,-84.2784922
1503,Bellwood Drive,45140,39.2651475,-84.2792392
1507,Bellwood Drive,45140,39.2651484,-84.2795143
1509,Bellwood Drive,45140,39.2651802,-84.2797764
1512,Bellwood Drive,45140,39.2656305,-84.2800115
1510,Bellwood Drive,45140,39.2655771,-84.2797478
1508,Bellwood Drive,45140,39.2655585,-84.2794742
429,Mohican Drive,45140,39.2655434,-84.2789655
421,Mohican Drive,45140,39.2657714,-84.2790196
415,Mohican Drive,45140,39.2659809,-84.2792174
411,Mohican Drive,45140,39.2660468,-84.2794401
409,Mohican Drive,45140,39.2661348,-84.2796814
402,Mohican Drive,45140,39.2663369,-84.2798110
408,Mohican Drive,45140,39.2665095,-84.2793343
404,Mohican Drive,45140,39.2665410,-84.2795933
416,Mohican Drive,45140,39.2663612,-84.2790779
420,Mohican Drive,45140,39.2662330,-84.2788466
424,Mohican Drive,45140,39.2660782,-84.2786463
432,Mohican Drive,45140,39.2655411,-84.2784485
1413,Bellwood Drive,45140,39.2651041,-84.2780242
1411,Bellwood Drive,45140,39.2651074,-84.2777708
1409,Bellwood Drive,45140,39.2651285,-84.2775366
1407,Bellwood Drive,45140,39.2651156,-84.2772772
1405,Bellwood Drive,45140,39.2652019,-84.2770340
1414,Bellwood Drive,45140,39.2654893,-84.2781509
1412,Bellwood Drive,45140,39.2654912,-84.2778931
1408,Bellwood Drive,45140,39.2655218,-84.2776339
1404,Bellwood Drive,45140,39.2655423,-84.2773249
1400,Bellwood Drive,45140,39.2655809,-84.2770846
1312,Bellwood Drive,45140,39.2657176,-84.2764428
1300,Bellwood Drive,45140,39.2657570,-84.2760680
415,Navaho Drive,45140,39.2661412,-84.2761676
411,Navaho Drive,45140,39.2662238,-84.2764586
407,Navaho Drive,45140,39.2663074,-84.2766836
1301,Bellwood Drive,45140,39.2653374,-84.2759226
505,Navaho Drive,45140,39.2650541,-84.2757913
509,Navaho Drive,45140,39.2648944,-84.2756484
511,Navaho Drive,45140,39.2647063,-84.2754598
513,Navaho Drive,45140,39.2645618,-84.2751822
512,Navaho Drive,45140,39.2647335,-84.2749556
510,Navaho Drive,45140,39.2649475,-84.2750303
508,Navaho Drive,45140,39.2651283,-84.2752669
500,Navaho Drive,45140,39.2654703,-84.2754020
405,Navaho Drive,45140,39.2666871,-84.2772739
1208,Bellwood Drive,45140,39.2659295,-84.2755976
1204,Bellwood Drive,45140,39.2658894,-84.2753052
1112,Bellwood Drive,45140,39.2659613,-84.2748816
1108,Bellwood Drive,45140,39.2660183,-84.2747059
1104,Bellwood Drive,45140,39.2660944,-84.2745130
1100,Bellwood Drive,45140,39.2661327,-84.2742978
1024,Bellwood Drive,45140,39.2661171,-84.2740850
1020,Bellwood Drive,45140,39.2661359,-84.2738562
1016,Bellwood Drive,45140,39.2661265,-84.2736517
1012,Bellwood Drive,45140,39.2661346,-84.2734387
1008,Bellwood Drive,45140,39.2661357,-84.2732242
1004,Bellwood Drive,45140,39.2661042,-84.2730037
1017,Bellwood Drive,45140,39.2657394,-84.2736677
1013,Bellwood Drive,45140,39.2657247,-84.2734397
1009,Bellwood Drive,45140,39.2657239,-84.2732056
1005,Bellwood Drive,45140,39.2657032,-84.2729951
1003,Bellwood Drive,45140,39.2657036,-84.2727836
1001,Bellwood Drive,45140,39.2656842,-84.2725849
933,Bellwood Drive,45140,39.2656460,-84.2723679
929,Bellwood Drive,45140,39.2656542,-84.2721044
923,Bellwood Drive,45140,39.2656204,-84.2718520
919,Bellwood Drive,45140,39.2655802,-84.2716251
915,Bellwood Drive,45140,39.2656176,-84.2713684
911,Bellwood Drive,45140,39.2655712,-84.2711245
909,Bellwood Drive,45140,39.2655812,-84.2708792
907,Bellwood Drive,45140,39.2656160,-84.2706206
903,Bellwood Drive,45140,39.2657347,-84.2704111
932,Bellwood Drive,45140,39.2660465,-84.2723005
928,Bellwood Drive,45140,39.2660309,-84.2720501
922,Bellwood Drive,45140,39.2660193,-84.2718115
918,Bellwood Drive,45140,39.2659949,-84.2715314
914,Bellwood Drive,45140,39.2659804,-84.2713160
910,Bellwood Drive,45140,39.2660336,-84.2710579
904,Bellwood Drive,45140,39.2660494,-84.2707128
1305,Sunrise Drive,45140,39.2669758,-84.2768061
404,Navaho Drive,45140,39.2667397,-84.2766362
408,Navaho Drive,45140,39.2666591,-84.2764495
412,Navaho Drive,45140,39.2666089,-84.2762518
416,Navaho Drive,45140,39.2666294,-84.2760086
420,Navaho Drive,45140,39.2666400,-84.2757771
424,Navaho Drive,45140,39.2665558,-84.2755221
428,Navaho Drive,45140,39.2663735,-84.2755061
432,Navaho Drive,45140,39.2661718,-84.2756118
1,Potomac Court,45140,39.2655914,-84.2744215
3,Potomac Court,45140,39.2653773,-84.2742750
5,Potomac Court,45140,39.2652388,-84.2741514
7,Potomac Court,45140,39.2651444,-84.2739195
8,Potomac Court,45140,39.2651850,-84.2737146
6,Potomac Court,45140,39.2653562,-84.2736110
4,Potomac Court,45140,39.2657087,-84.2739319
401,Bellwood Drive,45140,39.2664768,-84.2704978
400,Bellwood Drive,45140,39.2664450,-84.2699870
813,Sunrise Drive,45140,39.2664763,-84.2697856
809,Sunrise Drive,45140,39.2664462,-84.2695466
805,Sunrise Drive,45140,39.2664023,-84.2693225
803,Sunrise Drive,45140,39.2663828,-84.2691023
801,Sunrise Drive,45140,39.2665355,-84.2689412
800,Sunrise Drive,45140,39.2667291,-84.2689402
802,Sunrise Drive,45140,39.2668971,-84.2690750
804,Sunrise Drive,45140,39.2668633,-84.2693769
808,Sunrise Drive,45140,39.2668471,-84.2696021
812,Sunrise Drive,45140,39.2668678,-84.2698482
816,Sunrise Drive,45140,39.2668994,-84.2700868
900,Sunrise Drive,45140,39.2669114,-84.2702971
904,Sunrise Drive,45140,39.2669123,-84.2705466
908,Sunrise Drive,45140,39.2669415,-84.2707789
912,Sunrise Drive,45140,39.2669427,-84.2710280
916,Sunrise Drive,45140,39.2669966,-84.2712321
920,Sunrise Drive,45140,39.2669821,-84.2714633
924,Sunrise Drive,45140,39.2669709,-84.2717294
928,Sunrise Drive,45140,39.2669905,-84.2719875
907,Sunrise Drive,45140,39.2665216,-84.2707735
911,Sunrise Drive,45140,39.2665430,-84.2710254
915,Sunrise Drive,45140,39.2665597,-84.2712524
919,Sunrise Drive,45140,39.2665893,-84.2714993
923,Sunrise Drive,45140,39.2666148,-84.2717471
927,Sunrise Drive,45140,39.2666165,-84.2720418
1000,Bellwood Drive,45140,39.2660745,-84.2727714
409,Cherokee Drive,45140,39.2662910,-84.2727305
405,Cherokee Drive,45140,39.2664425,-84.2727072
401,Cherokee Drive,45140,39.2666492,-84.2726688
400,Cherokee Drive,45140,39.2666141,-84.2722057
318,Cherokee Drive,45140,39.2670313,-84.2721692
1000,Sunrise Drive,45140,39.2670487,-84.2726410
317,Cherokee Drive,45140,39.2672543,-84.2726049
313,Cherokee Drive,45140,39.2674647,-84.2726016
309,Cherokee Drive,45140,39.2677337,-84.2725547
310,Cherokee Drive,45140,39.2676511,-84.2720642
306,Cherokee Drive,45140,39.2678179,-84.2720605
302,Cherokee Drive,45140,39.2679477,-84.2720111
1004,Sunrise Drive,45140,39.2670792,-84.2728701
1008,Sunrise Drive,45140,39.2670794,-84.2730830
1012,Sunrise Drive,45140,39.2670808,-84.2732959
1016,Sunrise Drive,45140,39.2670940,-84.2735066
1020,Sunrise Drive,45140,39.2671826,-84.2737173
1024,Sunrise Drive,45140,39.2671518,-84.2739258
1100,Sunrise Drive,45140,39.2671892,-84.2741333
1104,Sunrise Drive,45140,39.2672029,-84.2743373
1108,Sunrise Drive,45140,39.2672305,-84.2745440
1116,Sunrise Drive,45140,39.2672349,-84.2747574
1120,Sunrise Drive,45140,39.2672729,-84.2749483
1204,Sunrise Drive,45140,39.2672735,-84.2751707
1208,Sunrise Drive,45140,39.2673263,-84.2754862
1212,Sunrise Drive,45140,39.2673617,-84.2756932
1216,Sunrise Drive,45140,39.2674108,-84.2758968
1220,Sunrise Drive,45140,39.2674148,-84.2761210
1224,Sunrise Drive,45140,39.2674331,-84.2763443
1300,Sunrise Drive,45140,39.2674169,-84.2765573
1304,Sunrise Drive,45140,39.2673711,-84.2769027
1301,Sunrise Drive,45140,39.2669950,-84.2765773
1225,Sunrise Drive,45140,39.2669930,-84.2763657
1221,Sunrise Drive,45140,39.2669954,-84.2761533
1217,Sunrise Drive,45140,39.2669860,-84.2759355
1209,Sunrise Drive,45140,39.2669496,-84.2757451
1205,Sunrise Drive,45140,39.2669096,-84.2755189
1121,Sunrise Drive,45140,39.2668745,-84.2750737
1117,Sunrise Drive,45140,39.2668401,-84.2748677
1109,Sunrise Drive,45140,39.2668185,-84.2746411
1105,Sunrise Drive,45140,39.2667768,-84.2744340
1101,Sunrise Drive,45140,39.2667327,-84.2742220
1025,Sunrise Drive,45140,39.2667318,-84.2740111
1021,Sunrise Drive,45140,39.2667439,-84.2737934
1017,Sunrise Drive,45140,39.2667284,-84.2735850
1013,Sunrise Drive,45140,39.2666989,-84.2733758
1009,Sunrise Drive,45140,39.2666541,-84.2731682
1005,Sunrise Drive,45140,39.2666727,-84.2729722
1401,Sunrise Drive,45140,39.2668899,-84.2774089
1405,Sunrise Drive,45140,39.2668663,-84.2776312
1409,Sunrise Drive,45140,39.2669239,-84.2778867
1413,Sunrise Drive,45140,39.2669118,-84.2781221
1417,Sunrise Drive,45140,39.2670346,-84.2783779
1421,Sunrise Drive,45140,39.2670848,-84.2786031
1429,Sunrise Drive,45140,39.2672182,-84.2790915
1433,Sunrise Drive,45140,39.2669671,-84.2796210
1437,Sunrise Drive,45140,39.2671873,-84.2798465
1438,Sunrise Drive,45140,39.2676170,-84.2795541
1436,Sunrise Drive,45140,39.2677101,-84.2793513
1432,Sunrise Drive,45140,39.2676986,-84.2791050
1428,Sunrise Drive,45140,39.2676044,-84.2789353
1424,Sunrise Drive,45140,39.2675528,-84.2787293
1420,Sunrise Drive,45140,39.2674922,-84.2785351
1416,Sunrise Drive,45140,39.2674589,-84.2783073
1412,Sunrise Drive,45140,39.2673869,-84.2781125
1408,Sunrise Drive,45140,39.2673358,-84.2779069
1404,Sunrise Drive,45140,39.2672818,-84.2776774
1400,Sunrise Drive,45140,39.2672972,-84.2774357
303,Navaho Drive,45140,39.2675335,-84.2775712
308,Navaho Drive,45140,39.2675741,-84.2769471
300,Navaho Drive,45140,39.2678458,-84.2769216
204,Highland Street,45140,39.2683205,-84.2692020
1001,West Main Street,45140,39.2679600,-84.2725592
1003,West Main Street,45140,39.2679618,-84.2728060
1005,West Main Street,45140,39.2679028,-84.2730558
1013,West Main Street,45140,39.2678271,-84.2732802
1015,West Main Street,45140,39.2677575,-84.2735469
1019,West Main Street,45140,39.2676730,-84.2737793
1021,West Main Street,45140,39.2676927,-84.2741218
1025,West Main Street,45140,39.2677062,-84.2743805
1111,West Main Street,45140,39.2676850,-84.2746410
1115,West Main Street,45140,39.2676982,-84.2748409
1119,West Main Street,45140,39.2677578,-84.2751722
1125,West Main Street,45140,39.2677638,-84.2754101
1129,West Main Street,45140,39.2677813,-84.2757169
1201,West Main Street,45140,39.2678036,-84.2759522
1205,West Main Street,45140,39.2678126,-84.2762020
1209,West Main Street,45140,39.2678369,-84.2764849
1301,West Main Street,45140,39.2678726,-84.2767157
1309,West Main Street,45140,39.2679314,-84.2776451
1313,West Main Street,45140,39.2679451,-84.2779264
1317,West Main Street,45140,39.2679502,-84.2781851
1321,West Main Street,45140,39.2679485,-84.2784487
1401,West Main Street,45140,39.2679924,-84.2787091
1405,West Main Street,45140,39.2680139,-84.2789554
1409,West Main Street,45140,39.2680445,-84.2792458
1501,West Main Street,45140,39.2680638,-84.2795104
1505,West Main Street,45140,39.2680861,-84.2797855
1500,West Main Street,45140,39.2684413,-84.2796268
1404,West Main Street,45140,39.2683905,-84.2788673
234,Seminole Drive,45140,39.2683751,-84.2781389
1314,West Main Street,45140,39.2683333,-84.2778459
1310,West Main Street,45140,39.2683467,-84.2776454
1300,West Main Street,45140,39.2682254,-84.2765771
1208,West Main Street,45140,39.2682248,-84.2763259
1124,West Main Street,45140,39.2681511,-84.2752605
1120,West Main Street,45140,39.2681272,-84.2750451
1020,West Main Street,45140,39.2680932,-84.2740160
1016,West Main Street,45140,39.2681349,-84.2737712
1012,West Main Street,45140,39.2681786,-84.2735795
1008,West Main Street,45140,39.2682617,-84.2732728
1004,West Main Street,45140,39.2683105,-84.2730025
1000,West Main Street,45140,39.2683342,-84.2727683
230,Cherokee Drive,45140,39.2682957,-84.2719988
226,Cherokee Drive,45140,39.2684558,-84.2719680
222,Cherokee Drive,45140,39.2686182,-84.2719369
218,Cherokee Drive,45140,39.2687894,-84.2719657
214,Cherokee Drive,45140,39.2689929,-84.2719750
210,Cherokee Drive,45140,39.2691832,-84.2719782
206,Cherokee Drive,45140,39.2693890,-84.2720454
202,Cherokee Drive,45140,39.2695959,-84.2721820
118,Cherokee Drive,45140,39.2698358,-84.2723032
114,Cherokee Drive,45140,39.2700232,-84.2723374
110,Cherokee Drive,45140,39.2702106,-84.2723499
115,Cherokee Drive,45140,39.2699915,-84.2728525
203,Cherokee Drive,45140,39.2693579,-84.2726232
207,Cherokee Drive,45140,39.2692239,-84.2725332
211,Cherokee Drive,45140,39.2690545,-84.2724769
215,Cherokee Drive,45140,39.2688668,-84.2725416
219,Cherokee Drive,45140,39.2687167,-84.2725102
223,Cherokee Drive,45140,39.2685127,-84.2724915
227,Cherokee Drive,45140,39.2683528,-84.2725037
1004,Tuscarora Drive,45140,39.2699444,-84.2731160
1008,Tuscarora Drive,45140,39.2699477,-84.2733331
1100,Tuscarora Drive,45140,39.2699642,-84.2736004
1104,Tuscarora Drive,45140,39.2699884,-84.2738659
1108,Tuscarora Drive,45140,39.2700055,-84.2741612
1112,Tuscarora Drive,45140,39.2700176,-84.2744101
1116,Tuscarora Drive,45140,39.2700296,-84.2746975
1200,Tuscarora Drive,45140,39.2700471,-84.2749412
1204,Tuscarora Drive,45140,39.2700672,-84.2752644
1218,Tuscarora Drive,45140,39.2701219,-84.2759729
1300,Tuscarora Drive,45140,39.2701495,-84.2762063
1304,Tuscarora Drive,45140,39.2701619,-84.2764150
1308,Tuscarora Drive,45140,39.2701802,-84.2766292
1312,Tuscarora Drive,45140,39.2702000,-84.2768356
1316,Tuscarora Drive,45140,39.2701997,-84.2770271
1320,Tuscarora Drive,45140,39.2702065,-84.2772407
1400,Tuscarora Drive,45140,39.2702498,-84.2774704
1404,Tuscarora Drive,45140,39.2702844,-84.2776579
1408,Tuscarora Drive,45140,39.2702553,-84.2778967
1412,Tuscarora Drive,45140,39.2702905,-84.2781246
1416,Tuscarora Drive,45140,39.2702837,-84.2783847
1420,Tuscarora Drive,45140,39.2703145,-84.2786531
1424,Tuscarora Drive,45140,39.2703471,-84.2788788
1428,Tuscarora Drive,45140,39.2703787,-84.2791595
1419,Tuscarora Drive,45140,39.2699333,-84.2786329
1415,Tuscarora Drive,45140,39.2699006,-84.2783689
1411,Tuscarora Drive,45140,39.2698830,-84.2781665
1407,Tuscarora Drive,45140,39.2698876,-84.2779365
1401,Tuscarora Drive,45140,39.2698672,-84.2776826
1315,Tuscarora Drive,45140,39.2698341,-84.2771030
1311,Tuscarora Drive,45140,39.2697946,-84.2768517
1309,Tuscarora Drive,45140,39.2697860,-84.2766580
1213,Tuscarora Drive,45140,39.2697376,-84.2758084
1209,Tuscarora Drive,45140,39.2697321,-84.2755501
1205,Tuscarora Drive,45140,39.2696939,-84.2753423
1113,Tuscarora Drive,45140,39.2696377,-84.2744816
1109,Tuscarora Drive,45140,39.2696244,-84.2742367
1105,Tuscarora Drive,45140,39.2696190,-84.2740254
1005,Tuscarora Drive,45140,39.2695312,-84.2730424
1001,Tuscarora Drive,45140,39.2695340,-84.2728230
1214,Tuscarora Drive,45140,39.2701440,-84.2757423
1432,Tuscarora Drive,45140,39.2702996,-84.2793768
201,Tuscarora Drive,45140,39.2701301,-84.2794467
205,Tuscarora Drive,45140,39.2699446,-84.2794263
215,Tuscarora Drive,45140,39.2692038,-84.2794898
219,Tuscarora Drive,45140,39.2690390,-84.2795198
223,Tuscarora Drive,45140,39.2688101,-84.2795488
227,Tuscarora Drive,45140,39.2686148,-84.2795666
232,Tuscarora Drive,45140,39.2684618,-84.2790970
228,Tuscarora Drive,45140,39.2686923,-84.2790801
222,Tuscarora Drive,45140,39.2688901,-84.2790306
218,Tuscarora Drive,45140,39.2690849,-84.2790169
214,Tuscarora Drive,45140,39.2692730,-84.2789658
206,Tuscarora Drive,45140,39.2696933,-84.2789573
204,Tuscarora Drive,45140,39.2699136,-84.2789261
1500,Durango Drive,45140,39.2697748,-84.2794679
1501,Durango Drive,45140,39.2694123,-84.2795156
1506,Durango Drive,45140,39.2699284,-84.2798715
1512,Durango Drive,45140,39.2699587,-84.2801886
1507,Durango Drive,45140,39.2693134,-84.2799517
1513,Durango Drive,45140,39.2693131,-84.2802941
1519,Durango Drive,45140,39.2693946,-84.2806593
1525,Durango Drive,45140,39.2693893,-84.2809877
1518,Durango Drive,45140,39.2699956,-84.2805707
1524,Durango Drive,45140,39.2700004,-84.2809073
1530,Durango Drive,45140,39.2700370,-84.2812667
1531,Durango Drive,45140,39.2694072,-84.2813239
1536,Durango Drive,45140,39.2700814,-84.2816402
1537,Durango Drive,45140,39.2694403,-84.2817283
1543,Durango Drive,45140,39.2694444,-84.2820468
1542,Durango Drive,45140,39.2700819,-84.2819739
1548,Durango Drive,45140,39.2701056,-84.2823243
1549,Durango Drive,45140,39.2694799,-84.2824006
1554,Durango Drive,45140,39.2701291,-84.2826770
1555,Durango Drive,45140,39.2695073,-84.2827467
1561,Durango Drive,45140,39.2695358,-84.2831118
201,South Lebanon Road,45140,39.2695966,-84.2836097
237,Seminole Drive,45140,39.2684253,-84.2786311
229,Seminole Drive,45140,39.2687269,-84.2785121
225,Seminole Drive,45140,39.2689199,-84.2783640
207,Seminole Drive,45140,39.2695284,-84.2778127
203,Seminole Drive,45140,39.2696549,-84.2777401
204,Seminole Drive,45140,39.2695971,-84.2772222
206,Seminole Drive,45140,39.2694068,-84.2773201
208,Seminole Drive,45140,39.2692640,-84.2774506
212,Seminole Drive,45140,39.2691075,-84.2775597
216,Seminole Drive,45140,39.2689912,-84.2776894
220,Seminole Drive,45140,39.2688471,-84.2777954
224,Seminole Drive,45140,39.2687386,-84.2779318
228,Seminole Drive,45140,39.2685668,-84.2780522
1,Apache Court,45140,39.2690921,-84.2782726
3,Apache Court,45140,39.2691339,-84.2784651
5,Apache Court,45140,39.2692868,-84.2786058
7,Apache Court,45140,39.2694963,-84.2785751
6,Apache Court,45140,39.2695770,-84.2783626
4,Apache Court,45140,39.2695194,-84.2781416
2,Apache Court,45140,39.2693812,-84.2779876
237,Navaho Drive,45140,39.2683292,-84.2773345
233,Navaho Drive,45140,39.2685383,-84.2772550
229,Navaho Drive,45140,39.2687149,-84.2771866
225,Navaho Drive,45140,39.2688639,-84.2770561
221,Navaho Drive,45140,39.2689795,-84.2769387
217,Navaho Drive,45140,39.2691434,-84.2768049
213,Navaho Drive,45140,39.2692396,-84.2766843
209,Navaho Drive,45140,39.2693883,-84.2765496
205,Navaho Drive,45140,39.2695523,-84.2764496
201,Navaho Drive,45140,39.2697248,-84.2763788
238,Navaho Drive,45140,39.2682792,-84.2768368
230,Navaho Drive,45140,39.2684702,-84.2767654
226,Navaho Drive,45140,39.2686344,-84.2766263
222,Navaho Drive,45140,39.2687457,-84.2764877
218,Navaho Drive,45140,39.2688770,-84.2763858
214,Navaho Drive,45140,39.2690171,-84.2762666
210,Navaho Drive,45140,39.2691707,-84.2761753
206,Navaho Drive,45140,39.2693177,-84.2760365
204,Navaho Drive,45140,39.2694986,-84.2759254
241,Oneida Drive,45140,39.2682450,-84.2760539
237,Oneida Drive,45140,39.2684448,-84.2759841
233,Oneida Drive,45140,39.2686064,-84.2758869
229,Oneida Drive,45140,39.2687564,-84.2757759
225,Oneida Drive,45140,39.2688943,-84.2756272
221,Oneida Drive,45140,39.2690492,-84.2754940
217,Oneida Drive,45140,39.2691603,-84.2754040
213,Oneida Drive,45140,39.2692923,-84.2752831
209,Oneida Drive,45140,39.2694534,-84.2751586
204,Oneida Drive,45140,39.2694078,-84.2746181
210,Oneida Drive,45140,39.2692539,-84.2747258
214,Oneida Drive,45140,39.2690664,-84.2748282
218,Oneida Drive,45140,39.2689567,-84.2749626
222,Oneida Drive,45140,39.2688193,-84.2750813
226,Oneida Drive,45140,39.2686810,-84.2752130
230,Oneida Drive,45140,39.2685299,-84.2753614
236,Oneida Drive,45140,39.2683842,-84.2754600
240,Oneida Drive,45140,39.2682525,-84.2755432
237,Sioux Drive,45140,39.2681516,-84.2747496
233,Sioux Drive,45140,39.2683208,-84.2746958
229,Sioux Drive,45140,39.2685078,-84.2746149
225,Sioux Drive,45140,39.2686582,-84.2744551
221,Sioux Drive,45140,39.2687929,-84.2743426
217,Sioux Drive,45140,39.2689271,-84.2742186
213,Sioux Drive,45140,39.2690623,-84.2740933
209,Sioux Drive,45140,39.2691971,-84.2739753
205,Sioux Drive,45140,39.2693569,-84.2738527
201,Sioux Drive,45140,39.2695511,-84.2737609
236,Sioux Drive,45140,39.2681068,-84.2742451
230,Sioux Drive,45140,39.2683172,-84.2741481
226,Sioux Drive,45140,39.2684747,-84.2740043
222,Sioux Drive,45140,39.2686176,-84.2739215
218,Sioux Drive,45140,39.2687489,-84.2737953
210,Sioux Drive,45140,39.2691119,-84.2734780
206,Sioux Drive,45140,39.2693152,-84.2733465
202,Sioux Drive,45140,39.2695303,-84.2732808
1,Pueblo Court,45140,39.2686635,-84.2736332
3,Pueblo Court,45140,39.2685439,-84.2734345
5,Pueblo Court,45140,39.2685990,-84.2731900
6,Pueblo Court,45140,39.2687435,-84.2730476
4,Pueblo Court,45140,39.2689065,-84.2730794
2,Pueblo Court,45140,39.2690303,-84.2732447
11349,South Lebanon Road,45140,39.2688168,-84.2845259
11337,South Lebanon Road,45140,39.2685790,-84.2846182
11325,South Lebanon Road,45140,39.2682209,-84.2847118
11313,South Lebanon Road,45140,39.2679342,-84.2847989
11301,South Lebanon Road,45140,39.2675928,-84.2849441
11275,South Lebanon Road,45140,39.2670366,-84.2850817
11263,South Lebanon Road,45140,39.2667141,-84.2852114
100,Cannonade Drive,45140,39.2687117,-84.2837420
106,Cannonade Drive,45140,39.2686769,-84.2835420
112,Cannonade Drive,45140,39.2686507,-84.2833433
118,Cannonade Drive,45140,39.2686122,-84.2831544
124,Cannonade Drive,45140,39.2685859,-84.2829698
101,Cannonade Drive,45140,39.2682729,-84.2838547
107,Cannonade Drive,45140,39.2682893,-84.2836276
113,Cannonade Drive,45140,39.2682523,-84.2834308
119,Cannonade Drive,45140,39.2682298,-84.2832155
130,Cannonade Drive,45140,39.2685542,-84.2827719
136,Cannonade Drive,45140,39.2685596,-84.2825811
142,Cannonade Drive,45140,39.2685072,-84.2823888
148,Cannonade Drive,45140,39.2684845,-84.2821942
154,Cannonade Drive,45140,39.2684597,-84.2819809
160,Cannonade Drive,45140,39.2684365,-84.2817818
166,Cannonade Drive,45140,39.2684284,-84.2815848
172,Cannonade Drive,45140,39.2683644,-84.2813901
178,Cannonade Drive,45140,39.2682949,-84.2812011
184,Cannonade Drive,45140,39.2681719,-84.2810560
190,Cannonade Drive,45140,39.2680550,-84.2808967
131,Cannonade Drive,45140,39.2681423,-84.2825304
196,Cannonade Drive,45140,39.2679004,-84.2807979
202,Cannonade Drive,45140,39.2677719,-84.2806894
208,Cannonade Drive,45140,39.2676499,-84.2805841
214,Cannonade Drive,45140,39.2675354,-84.2804055
220,Cannonade Drive,45140,39.2673576,-84.2803392
226,Cannonade Drive,45140,39.2671646,-84.2804800
185,Cannonade Drive,45140,39.2671597,-84.2807342
179,Cannonade Drive,45140,39.2672829,-84.2809171
173,Cannonade Drive,45140,39.2674508,-84.2809859
167,Cannonade Drive,45140,39.2675812,-84.2811104
161,Cannonade Drive,45140,39.2677071,-84.2812216
155,Cannonade Drive,45140,39.2678515,-84.2813776
149,Cannonade Drive,45140,39.2679884,-84.2815272
154,Thorobred Road,45140,39.2680527,-84.2818274
200,Pincay Court,45140,39.2678557,-84.2832913
206,Pincay Court,45140,39.2678639,-84.2834989
212,Pincay Court,45140,39.2679261,-84.2836919
218,Pincay Court,45140,39.2678966,-84.2839240
225,Pincay Court,45140,39.2677353,-84.2840326
219,Pincay Court,45140,39.2675440,-84.2839970
213,Pincay Court,45140,39.2674567,-84.2837614
207,Pincay Court,45140,39.2674928,-84.2835488
201,Pincay Court,45140,39.2674852,-84.2833406
137,Cannonade Drive,45140,39.2681031,-84.2823303
137,Thorobred Road,45140,39.2678888,-84.2823373
131,Thorobred Road,45140,39.2677432,-84.2823705
125,Thorobred Road,45140,39.2675898,-84.2823849
119,Thorobred Road,45140,39.2674411,-84.2824154
113,Thorobred Road,45140,39.2672917,-84.2824304
107,Thorobred Road,45140,39.2671304,-84.2825353
178,Shoemaker Drive,45140,39.2670773,-84.2828640
148,Thorobred Road,45140,39.2678924,-84.2818601
142,Thorobred Road,45140,39.2677439,-84.2818907
136,Thorobred Road,45140,39.2675489,-84.2819176
130,Thorobred Road,45140,39.2674107,-84.2819082
100,Citation Court,45140,39.2672173,-84.2819358
101,Citation Court,45140,39.2668651,-84.2820917
112,Thorobred Road,45140,39.2666963,-84.2823828
106,Thorobred Road,45140,39.2666710,-84.2826185
200,Thorobred Road,45140,39.2670412,-84.2833566
206,Thorobred Road,45140,39.2670313,-84.2835707
212,Thorobred Road,45140,39.2671089,-84.2837794
218,Thorobred Road,45140,39.2671069,-84.2840184
224,Thorobred Road,45140,39.2669748,-84.2842432
225,Thorobred Road,45140,39.2667768,-84.2842102
219,Thorobred Road,45140,39.2666581,-84.2840216
213,Thorobred Road,45140,39.2666644,-84.2837726
207,Thorobred Road,45140,39.2666464,-84.2835560
201,Thorobred Road,45140,39.2666467,-84.2833329
106,Citation Court,45140,39.2671419,-84.2816662
112,Citation Court,45140,39.2671088,-84.2814753
118,Citation Court,45140,39.2670531,-84.2812268
124,Citation Court,45140,39.2668779,-84.2811373
125,Citation Court,45140,39.2666897,-84.2812248
119,Citation Court,45140,39.2666445,-84.2814496
113,Citation Court,45140,39.2667177,-84.2816725
107,Citation Court,45140,39.2667850,-84.2818643
125,Cannonade Drive,45140,39.2681655,-84.2827322
208,Shoemaker Drive,45140,39.2679290,-84.2827834
202,Shoemaker Drive,45140,39.2677626,-84.2828091
196,Shoemaker Drive,45140,39.2675960,-84.2828315
190,Shoemaker Drive,45140,39.2674266,-84.2828250
184,Shoemaker Drive,45140,39.2672559,-84.2828631
100,Thorobred Road,45140,39.2666472,-84.2828289
166,Shoemaker Drive,45140,39.2663343,-84.2827137
160,Shoemaker Drive,45140,39.2661689,-84.2826401
154,Shoemaker Drive,45140,39.2660118,-84.2825646
200,Cordero Trail,45140,39.2658631,-84.2823954
173,Shoemaker Drive,45140,39.2659185,-84.2830222
167,Shoemaker Drive,45140,39.2657379,-84.2829096
161,Shoemaker Drive,45140,39.2655947,-84.2827817
155,Shoemaker Drive,45140,39.2654556,-84.2826338
149,Shoemaker Drive,45140,39.2652984,-84.2825228
143,Shoemaker Drive,45140,39.2651527,-84.2823958
137,Shoemaker Drive,45140,39.2649830,-84.2822571
201,Cordero Trail,45140,39.2655395,-84.2820951
136,Shoemaker Drive,45140,39.2653990,-84.2820206
130,Shoemaker Drive,45140,39.2652021,-84.2818303
131,Shoemaker Drive,45140,39.2647934,-84.2822228
125,Shoemaker Drive,45140,39.2645948,-84.2822350
119,Shoemaker Drive,45140,39.2644238,-84.2822957
113,Shoemaker Drive,45140,39.2642491,-84.2823653
107,Shoemaker Drive,45140,39.2640464,-84.2822771
101,Shoemaker Drive,45140,39.2639641,-84.2820426
100,Shoemaker Drive,45140,39.2640789,-84.2817861
106,Shoemaker Drive,45140,39.2642628,-84.2817202
112,Shoemaker Drive,45140,39.2644411,-84.2817525
118,Shoemaker Drive,45140,39.2646088,-84.2817153
206,Riva Ridge Court,45140,39.2652247,-84.2815649
212,Riva Ridge Court,45140,39.2652058,-84.2813423
218,Riva Ridge Court,45140,39.2651685,-84.2811353
224,Riva Ridge Court,45140,39.2650627,-84.2809206
230,Riva Ridge Court,45140,39.2649084,-84.2808254
236,Riva Ridge Court,45140,39.2647264,-84.2807592
242,Riva Ridge Court,45140,39.2645481,-84.2807336
248,Riva Ridge Court,45140,39.2643850,-84.2807746
254,Riva Ridge Court,45140,39.2642118,-84.2807649
260,Riva Ridge Court,45140,39.2640317,-84.2807944
266,Riva Ridge Court,45140,39.2638446,-84.2809593
237,Riva Ridge Court,45140,39.2638751,-84.2812703
231,Riva Ridge Court,45140,39.2640729,-84.2814259
225,Riva Ridge Court,45140,39.2642625,-84.2813674
219,Riva Ridge Court,45140,39.2644156,-84.2812872
213,Riva Ridge Court,45140,39.2645866,-84.2812464
207,Riva Ridge Court,45140,39.2647860,-84.2813894
124,Shoemaker Drive,45140,39.2648145,-84.2816766
124,Arcaro Drive,45140,39.2662727,-84.2832322
118,Arcaro Drive,45140,39.2662509,-84.2834356
112,Arcaro Drive,45140,39.2661950,-84.2836432
106,Arcaro Drive,45140,39.2662076,-84.2838371
101,Arcaro Drive,45140,39.2658862,-84.2846506
107,Arcaro Drive,45140,39.2658248,-84.2844138
113,Arcaro Drive,45140,39.2658077,-84.2841934
119,Arcaro Drive,45140,39.2658107,-84.2839502
206,Cordero Trail,45140,39.2660003,-84.2821263
212,Cordero Trail,45140,39.2660767,-84.2819309
218,Cordero Trail,45140,39.2661345,-84.2817200
224,Cordero Trail,45140,39.2661664,-84.2814941
230,Cordero Trail,45140,39.2661999,-84.2812700
236,Cordero Trail,45140,39.2661957,-84.2810501
242,Cordero Trail,45140,39.2661827,-84.2807945
248,Cordero Trail,45140,39.2660676,-84.2805593
254,Cordero Trail,45140,39.2658285,-84.2805703
237,Cordero Trail,45140,39.2656776,-84.2807602
231,Cordero Trail,45140,39.2657033,-84.2810089
225,Cordero Trail,45140,39.2657634,-84.2812214
219,Cordero Trail,45140,39.2657710,-84.2814344
213,Cordero Trail,45140,39.2657272,-84.2816403
207,Cordero Trail,45140,39.2656585,-84.2818494
200,Whirlaway Terrace,45140,39.2657987,-84.2834132
206,Whirlaway Terrace,45140,39.2656161,-84.2833732
212,Whirlaway Terrace,45140,39.2654770,-84.2832406
218,Whirlaway Terrace,45140,39.2653304,-84.2831191
224,Whirlaway Terrace,45140,39.2651994,-84.2829835
230,Whirlaway Terrace,45140,39.2650764,-84.2828655
236,Whirlaway Terrace,45140,39.2649550,-84.2827062
242,Whirlaway Terrace,45140,39.2647451,-84.2827202
243,Whirlaway Terrace,45140,39.2645751,-84.2828558
237,Whirlaway Terrace,45140,39.2645500,-84.2831455
231,Whirlaway Terrace,45140,39.2646866,-84.2833247
225,Whirlaway Terrace,45140,39.2648688,-84.2833552
201,Bold Forbes Road,45140,39.2650405,-84.2834930
207,Bold Forbes Road,45140,39.2650023,-84.2837277
213,Bold Forbes Road,45140,39.2649694,-84.2839493
219,Bold Forbes Road,45140,39.2649890,-84.2841864
225,Bold Forbes Road,45140,39.2649834,-84.2844283
231,Bold Forbes Road,45140,39.2650219,-84.2846600
237,Bold Forbes Road,45140,39.2652105,-84.2847962
224,Bold Forbes Road,45140,39.2654199,-84.2846966
218,Bold Forbes Road,45140,39.2654730,-84.2844535
212,Bold Forbes Road,45140,39.2653979,-84.2842748
206,Bold Forbes Road,45140,39.2653601,-84.2840426
200,Bold Forbes Road,45140,39.2653990,-84.2838072
100,Preakness Lane,45140,39.2664639,-84.2853344
106,Preakness Lane,45140,39.2664277,-84.2856468
112,Preakness Lane,45140,39.2663790,-84.2859742
142,Churchill Court,45140,39.2659624,-84.2855076
143,Churchill Court,45140,39.2658433,-84.2860972
137,Churchill Court,45140,39.2655929,-84.2861372
131,Churchill Court,45140,39.2653607,-84.2862027
125,Churchill Court,45140,39.2651240,-84.2862822
119,Churchill Court,45140,39.2648817,-84.2864618
113,Churchill Court,45140,39.2646797,-84.2866840
107,Churchill Court,45140,39.2645028,-84.2868530
101,Churchill Court,45140,39.2642212,-84.2868231
100,Churchill Court,45140,39.2641182,-84.2864320
106,Churchill Court,45140,39.2643153,-84.2861364
112,Churchill Court,45140,39.2646098,-84.2859825
118,Churchill Court,45140,39.2648665,-84.2857779
124,Churchill Court,45140,39.2651336,-84.2857094
130,Churchill Court,45140,39.2653941,-84.2856135
136,Churchill Court,45140,39.2656638,-84.2855455
124,Preakness Lane,45140,39.2662633,-84.2867860
119,Preakness Lane,45140,39.2657778,-84.2868180
106,Lexington Drive,45140,39.2654517,-84.2868421
100,Lexington Drive,45140,39.2650169,-84.2872273
101,Lexington Drive,45140,39.2651151,-84.2875021
107,Lexington Drive,45140,39.2654030,-84.2875414
113,Lexington Drive,45140,39.2656814,-84.2874379
119,Lexington Drive,45140,39.2659486,-84.2874223
137,Lexington Drive,45140,39.2669191,-84.2872155
143,Lexington Drive,45140,39.2671653,-84.2870789
149,Lexington Drive,45140,39.2673087,-84.2868223
130,Lexington Drive,45140,39.2667506,-84.2866403
136,Lexington Drive,45140,39.2669540,-84.2864817
142,Lexington Drive,45140,39.2671397,-84.2862881
148,Lexington Drive,45140,39.2673336,-84.2860669
154,Lexington Drive,45140,39.2675253,-84.2858570
160,Lexington Drive,45140,39.2677715,-84.2856866
166,Lexington Drive,45140,39.2680447,-84.2855464
172,Lexington Drive,45140,39.2683025,-84.2855172
178,Lexington Drive,45140,39.2685579,-84.2855119
167,Lexington Drive,45140,39.2684938,-84.2861051
173,Lexington Drive,45140,39.2685625,-84.2864156
179,Lexington Drive,45140,39.2685327,-84.2867334
185,Lexington Drive,45140,39.2686072,-84.2871142
191,Lexington Drive,45140,39.2688519,-84.2872172
184,Lexington Drive,45140,39.2688571,-84.2856687
190,Lexington Drive,45140,39.2689653,-84.2859783
196,Lexington Drive,45140,39.2690132,-84.2863215
202,Lexington Drive,45140,39.2690803,-84.2866710
208,Lexington Drive,45140,39.2691040,-84.2870413
200,Belmont Court,45140,39.2681036,-84.2861958
206,Belmont Court,45140,39.2681522,-84.2865148
212,Belmont Court,45140,39.2681962,-84.2867753
218,Belmont Court,45140,39.2682073,-84.2872128
219,Belmont Court,45140,39.2679785,-84.2873379
213,Belmont Court,45140,39.2677015,-84.2872365
207,Belmont Court,45140,39.2676811,-84.2868768
155,Lexington Drive,45140,39.2676562,-84.2864800
100,Nimrod Boulevard,45140,39.2666844,-84.2873719
125,Lexington Drive,45140,39.2661753,-84.2873863
488,Pintail Drive,45140,39.2668544,-84.2881001
482,Pintail Drive,45140,39.2662296,-84.2881415
469,Nimrod Boulevard,45140,39.2669125,-84.2887473
1706,Nimrod Boulevard,45140,39.2670464,-84.2893302
1714,Nimrod Boulevard,45140,39.2671311,-84.2896971
1720,Nimrod Boulevard,45140,39.2672241,-84.2900275
1726,Nimrod Boulevard,45140,39.2672687,-84.2904367
709,Quailwoods Drive,45140,39.2667219,-84.2907607
1725,Nimrod Boulevard,45140,39.2666868,-84.2903870
1719,Nimrod Boulevard,45140,39.2666356,-84.2900535
1713,Nimrod Boulevard,45140,39.2665221,-84.2897427
1705,Nimrod Boulevard,45140,39.2664756,-84.2893591
712,Quailwoods Drive,45140,39.2669635,-84.2915235
1800,Nimrod Boulevard,45140,39.2674655,-84.2914096
475,Pintail Drive,45140,39.2671830,-84.2887431
481,Pintail Drive,45140,39.2674587,-84.2887312
487,Pintail Drive,45140,39.2677544,-84.2887058
493,Pintail Drive,45140,39.2680492,-84.2887535
1701,Falcon Lane,45140,39.2685820,-84.2888767
535,Pintail Drive,45140,39.2690734,-84.2893349
600,Pintail Drive,45140,39.2693878,-84.2888246
524,Pintail Drive,45140,39.2685027,-84.2879539
518,Pintail Drive,45140,39.2681852,-84.2879254
512,Pintail Drive,45140,39.2679176,-84.2880224
506,Pintail Drive,45140,39.2676197,-84.2879879
500,Pintail Drive,45140,39.2673685,-84.2880188
494,Pintail Drive,45140,39.2670956,-84.2880822
463,Pintail Drive,45140,39.2663063,-84.2888686
457,Pintail Drive,45140,39.2658414,-84.2888654
476,Pintail Drive,45140,39.2659533,-84.2881184
470,Pintail Drive,45140,39.2656770,-84.2882302
464,Pintail Drive,45140,39.2654086,-84.2881896
458,Pintail Drive,45140,39.2651329,-84.2882484
452,Pintail Drive,45140,39.2648969,-84.2882918
446,Pintail Drive,45140,39.2645346,-84.2881184
445,Pintail Drive,45140,39.2649529,-84.2891484
385,Pintail Drive,45140,39.2641314,-84.2886236
391,Pintail Drive,45140,39.2640770,-84.2890694
439,Pintail Drive,45140,39.2645737,-84.2890882
433,Pintail Drive,45140,39.2645960,-84.2894863
427,Pintail Drive,45140,39.2646639,-84.2898496
421,Pintail Drive,45140,39.2645954,-84.2903024
415,Pintail Drive,45140,39.2641802,-84.2904267
409,Pintail Drive,45140,39.2640466,-84.2900504
403,Pintail Drive,45140,39.2640894,-84.2896987
397,Pintail Drive,45140,39.2640568,-84.2893907
1688,Falcon Lane,45140,39.2696052,-84.2885447
1682,Falcon Lane,45140,39.2698855,-84.2882779
1681,Falcon Lane,45140,39.2697156,-84.2878928
1687,Falcon Lane,45140,39.2693359,-84.2877605
1693,Falcon Lane,45140,39.2690783,-84.2880360
530,Pintail Drive,45140,39.2688564,-84.2882789
1706,Falcon Lane,45140,39.2688598,-84.2895469
1714,Falcon Lane,45140,39.2687065,-84.2898574
1720,Falcon Lane,45140,39.2685395,-84.2900915
1726,Falcon Lane,45140,39.2683315,-84.2903850
1732,Falcon Lane,45140,39.2682101,-84.2907460
1738,Falcon Lane,45140,39.2680802,-84.2910059
1744,Falcon Lane,45140,39.2679191,-84.2913373
1750,Falcon Lane,45140,39.2677381,-84.2915460
1743,Falcon Lane,45140,39.2675436,-84.2906341
1731,Falcon Lane,45140,39.2677587,-84.2902507
1725,Falcon Lane,45140,39.2679326,-84.2899877
1719,Falcon Lane,45140,39.2681305,-84.2896965
1713,Falcon Lane,45140,39.2682987,-84.2894213
1707,Falcon Lane,45140,39.2684361,-84.2891600
716,Quailwoods Drive,45140,39.2666358,-84.2914265
722,Quailwoods Drive,45140,39.2663391,-84.2914173
728,Quailwoods Drive,45140,39.2660640,-84.2914100
715,Quailwoods Drive,45140,39.2662920,-84.2907593
721,Quailwoods Drive,45140,39.2660142,-84.2907601
1706,Tanglewood Drive,45140,39.2657801,-84.2894366
1714,Tanglewood Drive,45140,39.2657477,-84.2897362
1720,Tanglewood Drive,45140,39.2657247,-84.2900890
1726,Tanglewood Drive,45140,39.2657763,-84.2906210
1800,Tanglewood Drive,45140,39.2657542,-84.2914679
1725,Tanglewood Drive,45140,39.2652054,-84.2906182
1719,Tanglewood Drive,45140,39.2652615,-84.2900959
1713,Tanglewood Drive,45140,39.2652506,-84.2897424
1705,Tanglewood Drive,45140,39.2652243,-84.2893777
740,Quailwoods Drive,45140,39.2651991,-84.2915787
739,Quailwoods Drive,45140,39.2649731,-84.2908585
745,Quailwoods Drive,45140,39.2647944,-84.2911055
751,Quailwoods Drive,45140,39.2645770,-84.2914213
757,Quailwoods Drive,45140,39.2644667,-84.2916616
746,Quailwoods Drive,45140,39.2649195,-84.2921157
752,Quailwoods Drive,45140,39.2647006,-84.2925196
758,Quailwoods Drive,45140,39.2644489,-84.2928697
763,Quailwoods Drive,45140,39.2643774,-84.2919883
769,Quailwoods Drive,45140,39.2641751,-84.2923600
764,Quailwoods Drive,45140,39.2641933,-84.2930643
770,Quailwoods Drive,45140,39.2639088,-84.2931046
776,Quailwoods Drive,45140,39.2636489,-84.2931661
775,Quailwoods Drive,45140,39.2636626,-84.2924583
800,Quailwoods Drive,45140,39.2633834,-84.2931530
806,Quailwoods Drive,45140,39.2631126,-84.2931656
812,Quailwoods Drive,45140,39.2627719,-84.2933497
818,Quailwoods Drive,45140,39.2625446,-84.2932350
824,Quailwoods Drive,45140,39.2622635,-84.2932824
830,Quailwoods Drive,45140,39.2619996,-84.2933400
836,Quailwoods Drive,45140,39.2617034,-84.2933182
842,Quailwoods Drive,45140,39.2614584,-84.2933578
848,Quailwoods Drive,45140,39.2611917,-84.2933939
854,Quailwoods Drive,45140,39.2608885,-84.2934532
860,Quailwoods Drive,45140,39.2606764,-84.2937579
862,Quailwoods Drive,45140,39.2611696,-84.2941677
864,Quailwoods Drive,45140,39.2610306,-84.2945788
876,Quailwoods Drive,45140,39.2602698,-84.2943466
882,Quailwoods Drive,45140,39.2599731,-84.2945772
888,Quailwoods Drive,45140,39.2596476,-84.2946706
894,Quailwoods Drive,45140,39.2593151,-84.2947327
900,Quailwoods Drive,45140,39.2590335,-84.2948169
906,Quailwoods Drive,45140,39.2586522,-84.2948864
891,Quailwoods Drive,45140,39.2584849,-84.2943006
870,Oak Canyon Drive,45140,39.2590674,-84.2941096
879,Quailwoods Drive,45140,39.2598799,-84.2938357
873,Quailwoods Drive,45140,39.2601044,-84.2935726
867,Quailwoods Drive,45140,39.2602478,-84.2933035
861,Quailwoods Drive,45140,39.2604527,-84.2930482
855,Quailwoods Drive,45140,39.2607298,-84.2928272
849,Quailwoods Drive,45140,39.2609927,-84.2927136
843,Quailwoods Drive,45140,39.2612392,-84.2926939
837,Quailwoods Drive,45140,39.2614884,-84.2926457
831,Quailwoods Drive,45140,39.2618038,-84.2926509
825,Quailwoods Drive,45140,39.2620438,-84.2926317
819,Quailwoods Drive,45140,39.2623253,-84.2925618
813,Quailwoods Drive,45140,39.2626247,-84.2925894
1855,Pheasant Hills Drive,45140,39.2630669,-84.2924934
1849,Pheasant Hills Drive,45140,39.2630528,-84.2922407
1852,Pheasant Hills Drive,45140,39.2636033,-84.2920558
1843,Pheasant Hills Drive,45140,39.2630843,-84.2918303
1846,Pheasant Hills Drive,45140,39.2635901,-84.2917091
1840,Pheasant Hills Drive,45140,39.2635794,-84.2914543
1834,Pheasant Hills Drive,45140,39.2635337,-84.2910614
1824,Pheasant Hills Drive,45140,39.2635054,-84.2906598
1825,Pheasant Hills Drive,45140,39.2629759,-84.2904890
1819,Pheasant Hills Drive,45140,39.2629118,-84.2902455
1818,Pheasant Hills Drive,45140,39.2635085,-84.2900327
1812,Pheasant Hills Drive,45140,39.2634260,-84.2897708
1806,Pheasant Hills Drive,45140,39.2633740,-84.2893463
1800,Pheasant Hills Drive,45140,39.2633761,-84.2890303
1813,Pheasant Hills Drive,45140,39.2628772,-84.2897267
1807,Pheasant Hills Drive,45140,39.2628681,-84.2894103
1801,Pheasant Hills Drive,45140,39.2628220,-84.2890809
1731,Pheasant Hills Drive,45140,39.2628186,-84.2886685
1724,Pheasant Hills Drive,45140,39.2633202,-84.2886891
1718,Pheasant Hills Drive,45140,39.2634058,-84.2883700
1712,Pheasant Hills Drive,45140,39.2632222,-84.2880229
1706,Pheasant Hills Drive,45140,39.2633540,-84.2877255
1713,Pheasant Hills Drive,45140,39.2627797,-84.2883315
1725,Pheasant Hills Drive,45140,39.2622466,-84.2887347
1719,Pheasant Hills Drive,45140,39.2622222,-84.2884138
1707,Pheasant Hills Drive,45140,39.2625765,-84.2876499
1701,Pheasant Hills Drive,45140,39.2625826,-84.2873137
1700,Pheasant Hills Drive,45140,39.2631575,-84.2871532
1694,Pheasant Hills Drive,45140,39.2629671,-84.2865335
11107,South Lebanon Road,45140,39.2631724,-84.2864230
11115,South Lebanon Road,45140,39.2634144,-84.2863536
1837,Pheasant Hills Drive,45140,39.2630113,-84.2915495
1831,Pheasant Hills Drive,45140,39.2629626,-84.2908591
789,Oak Canyon Drive,45140,39.2625326,-84.2915949
795,Oak Canyon Drive,45140,39.2623115,-84.2916539
801,Oak Canyon Drive,45140,39.2619955,-84.2916311
807,Oak Canyon Drive,45140,39.2617099,-84.2917501
813,Oak Canyon Drive,45140,39.2614344,-84.2917069
819,Oak Canyon Drive,45140,39.2611189,-84.2917775
825,Oak Canyon Drive,45140,39.2609362,-84.2918318
831,Oak Canyon Drive,45140,39.2606225,-84.2919115
837,Oak Canyon Drive,45140,39.2603704,-84.2920500
839,Oak Canyon Drive,45140,39.2601421,-84.2923040
843,Oak Canyon Drive,45140,39.2598462,-84.2925278
849,Oak Canyon Drive,45140,39.2595030,-84.2927799
855,Oak Canyon Drive,45140,39.2594833,-84.2932158
859,Oak Canyon Drive,45140,39.2595563,-84.2939309
864,Oak Canyon Drive,45140,39.2590541,-84.2937639
858,Oak Canyon Drive,45140,39.2589520,-84.2933239
852,Oak Canyon Drive,45140,39.2589932,-84.2928376
846,Oak Canyon Drive,45140,39.2589297,-84.2923992
838,Oak Canyon Drive,45140,39.2593348,-84.2920879
832,Oak Canyon Drive,45140,39.2595875,-84.2918698
828,Oak Canyon Drive,45140,39.2599040,-84.2916663
826,Oak Canyon Drive,45140,39.2601833,-84.2914365
820,Oak Canyon Drive,45140,39.2604514,-84.2912606
814,Oak Canyon Drive,45140,39.2606952,-84.2912581
808,Oak Canyon Drive,45140,39.2610307,-84.2911187
802,Oak Canyon Drive,45140,39.2612636,-84.2910193
796,Oak Canyon Drive,45140,39.2617253,-84.2910188
790,Oak Canyon Drive,45140,39.2623192,-84.2909278
1693,Fawn Court,45140,39.2622352,-84.2906987
1687,Fawn Court,45140,39.2622750,-84.2903146
1681,Fawn Court,45140,39.2623449,-84.2899895
1675,Fawn Court,45140,39.2621854,-84.2896105
1682,Fawn Court,45140,39.2617743,-84.2897875
1688,Fawn Court,45140,39.2616534,-84.2900526
1694,Fawn Court,45140,39.2617218,-84.2904520
1700,Fawn Court,45140,39.2617309,-84.2907192
142,Dogwood Drive,45140,39.2584060,-84.2939482
136,Dogwood Drive,45140,39.2583522,-84.2936244
130,Dogwood Drive,45140,39.2582418,-84.2931236
124,Dogwood Drive,45140,39.2581886,-84.2927649
118,Dogwood Drive,45140,39.2582727,-84.2923339
112,Dogwood Drive,45140,39.2581280,-84.2919603
106,Dogwood Drive,45140,39.2580897,-84.2915958
100,Dogwood Drive,45140,39.2578256,-84.2913384
101,Dogwood Drive,45140,39.2575244,-84.2912678
107,Dogwood Drive,45140,39.2575171,-84.2921937
111,Dogwood Drive,45140,39.2569078,-84.2916763
119,Dogwood Drive,45140,39.2576524,-84.2925272
125,Dogwood Drive,45140,39.2574091,-84.2929945
131,Dogwood Drive,45140,39.2576675,-84.2932580
137,Dogwood Drive,45140,39.2577811,-84.2935755
1001,Cottonwood Drive,45140,39.2578530,-84.2939493
1000,Cottonwood Drive,45140,39.2579473,-84.2945370
155,Dogwood Drive,45140,39.2580576,-84.2949127
173,Dogwood Drive,45140,39.2580804,-84.2958813
167,Dogwood Drive,45140,39.2576986,-84.2959669
161,Dogwood Drive,45140,39.2576873,-84.2956673
160,Dogwood Drive,45140,39.2586648,-84.2952745
166,Dogwood Drive,45140,39.2586737,-84.2956836
172,Dogwood Drive,45140,39.2587904,-84.2963192
179,Dogwood Drive,45140,39.2582709,-84.2962367
178,Dogwood Drive,45140,39.2588239,-84.2967278
184,Dogwood Drive,45140,39.2588870,-84.2970926
185,Dogwood Drive,45140,39.2583128,-84.2966326
190,Dogwood Drive,45140,39.2589578,-84.2974889
196,Dogwood Drive,45140,39.2590069,-84.2978276
202,Dogwood Drive,45140,39.2590256,-84.2987255
208,Dogwood Drive,45140,39.2587348,-84.2986088
214,Dogwood Drive,45140,39.2585736,-84.2983070
220,Dogwood Drive,45140,39.2585040,-84.2976637
1001,Hickory Ridge Lane,45140,39.2581992,-84.2970911
1006,Hickory Ridge Lane,45140,39.2582391,-84.2977443
1012,Hickory Ridge Lane,45140,39.2579667,-84.2978014
1007,Hickory Ridge Lane,45140,39.2579294,-84.2971752
1013,Hickory Ridge Lane,45140,39.2576341,-84.2972585
1019,Hickory Ridge Lane,45140,39.2573552,-84.2973364
1025,Hickory Ridge Lane,45140,39.2570681,-84.2973990
1030,Hickory Ridge Lane,45140,39.2570097,-84.2980916
1036,Hickory Ridge Lane,45140,39.2567133,-84.2980931
1031,Hickory Ridge Lane,45140,39.2567982,-84.2974351
1037,Hickory Ridge Lane,45140,39.2565103,-84.2975480
1043,Hickory Ridge Lane,45140,39.2562444,-84.2976169
1049,Hickory Ridge Lane,45140,39.2559211,-84.2977104
1055,Hickory Ridge Lane,45140,39.2556426,-84.2976473
1054,Hickory Ridge Lane,45140,39.2557094,-84.2983785
1060,Hickory Ridge Lane,45140,39.2554248,-84.2998350
1066,Hickory Ridge Lane,45140,39.2552597,-84.2984709
1061,Hickory Ridge Lane,45140,39.2553410,-84.2978800
1067,Hickory Ridge Lane,45140,39.2550788,-84.2979477
1072,Hickory Ridge Lane,45140,39.2550048,-84.2985812
1078,Hickory Ridge Lane,45140,39.2548029,-84.2995414
1084,Hickory Ridge Lane,45140,39.2546233,-84.2986458
1073,Hickory Ridge Lane,45140,39.2548087,-84.2980217
1079,Hickory Ridge Lane,45140,39.2545415,-84.2980582
1090,Hickory Ridge Lane,45140,39.2543532,-84.2987308
1085,Hickory Ridge Lane,45140,39.2542722,-84.2981642
1097,Hickory Ridge Lane,45140,39.2537359,-84.2983019
1096,Hickory Ridge Lane,45140,39.2538683,-84.2988519
1103,Hickory Ridge Lane,45140,39.2534498,-84.2983663
1104,Hickory Ridge Lane,45140,39.2531467,-84.2983758
1115,Hickory Ridge Lane,45140,39.2529047,-84.2987742
1102,Hickory Ridge Lane,45140,39.2532377,-84.2991081
202,Shadow Wood Court,45140,39.2539873,-84.2992751
280,Shadow Wood Court,45140,39.2534138,-84.2994247
274,Shadow Wood Court,45140,39.2534545,-84.2997615
208,Shadow Wood Court,45140,39.2540032,-84.2996184
268,Shadow Wood Court,45140,39.2534945,-84.3001537
262,Shadow Wood Court,45140,39.2537483,-84.3003436
214,Shadow Wood Court,45140,39.2541139,-84.3000236
220,Shadow Wood Court,45140,39.2544483,-84.3006479
226,Shadow Wood Court,45140,39.2545829,-84.3012351
232,Shadow Wood Court,45140,39.2545265,-84.3017010
238,Shadow Wood Court,45140,39.2543256,-84.3018368
244,Shadow Wood Court,45140,39.2540143,-84.3018468
250,Shadow Wood Court,45140,39.2537282,-84.3016114
256,Shadow Wood Court,45140,39.2540668,-84.3010034
196,Cardinal Court,45140,39.2564563,-84.2983135
202,Cardinal Court,45140,39.2566130,-84.2987921
208,Cardinal Court,45140,39.2563308,-84.2992438
220,Cardinal Court,45140,39.2560464,-84.2986013
214,Cardinal Court,45140,39.2558399,-84.2992900
220,Redbud Court,45140,39.2572814,-84.2981208
196,Redbud Court,45140,39.2577280,-84.2980165
214,Redbud Court,45140,39.2572131,-84.2990745
208,Redbud Court,45140,39.2577359,-84.2988732
202,Redbud Court,45140,39.2579157,-84.2984712
1006,Cottonwood Drive,45140,39.2575231,-84.2948263
1012,Cottonwood Drive,45140,39.2572712,-84.2949006
1024,Cottonwood Drive,45140,39.2567568,-84.2950817
1030,Cottonwood Drive,45140,39.2564514,-84.2949788
218,Wildwood Court,45140,39.2572533,-84.2935487
212,Wildwood Court,45140,39.2570734,-84.2932913
206,Wildwood Court,45140,39.2567987,-84.2929717
200,Wildwood Court,45140,39.2561961,-84.2928718
201,Wildwood Court,45140,39.2564268,-84.2934403
207,Wildwood Court,45140,39.2565867,-84.2937544
213,Wildwood Court,45140,39.2568100,-84.2938824
1806,Tanglewood Drive,45140,39.2658091,-84.2922541
1807,Tanglewood Drive,45140,39.2652994,-84.2921183
1813,Tanglewood Drive,45140,39.2653362,-84.2926066
100,Pheasantlake Drive,45140,39.2675992,-84.2922351
106,Pheasantlake Drive,45140,39.2672303,-84.2921872
112,Pheasantlake Drive,45140,39.2669424,-84.2922141
118,Pheasantlake Drive,45140,39.2666845,-84.2922197
124,Pheasantlake Drive,45140,39.2664179,-84.2922765
130,Pheasantlake Drive,45140,39.2661191,-84.2922338
113,Pheasantlake Drive,45140,39.2668082,-84.2928606
119,Pheasantlake Drive,45140,39.2664377,-84.2929117
125,Pheasantlake Drive,45140,39.2661748,-84.2928810
131,Pheasantlake Drive,45140,39.2659177,-84.2929347
137,Pheasantlake Drive,45140,39.2656878,-84.2931356
143,Pheasantlake Drive,45140,39.2655271,-84.2934049
149,Pheasantlake Drive,45140,39.2653624,-84.2936974
172,Pheasantlake Drive,45140,39.2646864,-84.2940309
166,Pheasantlake Drive,45140,39.2647714,-84.2935975
160,Pheasantlake Drive,45140,39.2649448,-84.2932735
154,Pheasantlake Drive,45140,39.2651218,-84.2930082
100,Lakeview Court,45140,39.2673354,-84.2928936
106,Lakeview Court,45140,39.2673398,-84.2931782
112,Lakeview Court,45140,39.2673465,-84.2935219
118,Lakeview Court,45140,39.2673449,-84.2938372
124,Lakeview Court,45140,39.2673205,-84.2941625
130,Lakeview Court,45140,39.2672762,-84.2944811
107,Lakeview Court,45140,39.2668786,-84.2931674
113,Lakeview Court,45140,39.2668651,-84.2934705
119,Lakeview Court,45140,39.2668309,-84.2937829
125,Lakeview Court,45140,39.2668585,-84.2941107
131,Lakeview Court,45140,39.2667938,-84.2944430
137,Lakeview Court,45140,39.2665823,-84.2947126
148,Lakeview Court,45140,39.2667998,-84.2952436
154,Lakeview Court,45140,39.2665807,-84.2954556
143,Lakeview Court,45140,39.2663628,-84.2948487
160,Lakeview Court,45140,39.2663247,-84.2954982
166,Lakeview Court,45140,39.2660814,-84.2956636
172,Lakeview Court,45140,39.2658189,-84.2957876
178,Lakeview Court,45140,39.2656322,-84.2959439
184,Lakeview Court,45140,39.2653567,-84.2958271
190,Lakeview Court,45140,39.2652339,-84.2954881
100,Apgar Drive,45140,39.2661086,-84.2949868
196,Lakeview Court,45140,39.2656002,-84.2951520
107,Apgar Drive,45140,39.2652224,-84.2946872
118,Apgar Drive,45140,39.2655938,-84.2941147
124,Apgar Drive,45140,39.2652111,-84.2940128
113,Apgar Drive,45140,39.2648574,-84.2947371
119,Apgar Drive,45140,39.2645478,-84.2948546
142,Apgar Drive,45140,39.2643945,-84.2941115
148,Apgar Drive,45140,39.2641409,-84.2941487
154,Apgar Drive,45140,39.2638618,-84.2941579
137,Apgar Drive,45140,39.2636744,-84.2949810
143,Apgar Drive,45140,39.2635797,-84.2953892
149,Apgar Drive,45140,39.2631854,-84.2954771
101,Southbend Court,45140,39.2631801,-84.2947721
100,Southbend Court,45140,39.2635260,-84.2942892
106,Southbend Court,45140,39.2631894,-84.2941746
107,Southbend Court,45140,39.2625524,-84.2949290
113,Southbend Court,45140,39.2623058,-84.2947876
119,Southbend Court,45140,39.2621004,-84.2945130
125,Southbend Court,45140,39.2616300,-84.2940739
118,Southbend Court,45140,39.2621547,-84.2940623
112,Southbend Court,45140,39.2625530,-84.2941912
106,Meadview Place,45140,39.2644783,-84.2954603
107,Meadview Place,45140,39.2640997,-84.2953495
131,Apgar Drive,45140,39.2640303,-84.2948090
100,Pheasant Woods Court,45140,39.2675620,-84.2966854
106,Pheasant Woods Court,45140,39.2672873,-84.2965986
112,Pheasant Woods Court,45140,39.2670341,-84.2964677
118,Pheasant Woods Court,45140,39.2668163,-84.2966773
119,Pheasant Woods Court,45140,39.2664746,-84.2967334
113,Pheasant Woods Court,45140,39.2669668,-84.2970911
107,Pheasant Woods Court,45140,39.2673092,-84.2972056
101,Pheasant Woods Court,45140,39.2675846,-84.2972838
100,Shingleoak Drive,45140,39.2664956,-84.2984247
106,Shingleoak Drive,45140,39.2661140,-84.2983383
101,Shingleoak Drive,45140,39.2656780,-84.2988792
112,Shingleoak Drive,45140,39.2658407,-84.2982929
118,Shingleoak Drive,45140,39.2655386,-84.2980603
100,Fallenoak Court,45140,39.2652038,-84.2985059
124,Shingleoak Drive,45140,39.2653414,-84.2978549
130,Shingleoak Drive,45140,39.2651488,-84.2976007
136,Shingleoak Drive,45140,39.2649114,-84.2974137
142,Shingleoak Drive,45140,39.2646373,-84.2973657
148,Shingleoak Drive,45140,39.2643752,-84.2973779
154,Shingleoak Drive,45140,39.2641103,-84.2973266
160,Shingleoak Drive,45140,39.2637790,-84.2974090
166,Shingleoak Drive,45140,39.2633725,-84.2974871
143,Shingleoak Drive,45140,39.2636315,-84.2980669
137,Shingleoak Drive,45140,39.2640038,-84.2982291
131,Shingleoak Drive,45140,39.2642431,-84.2981417
125,Shingleoak Drive,45140,39.2644935,-84.2980140
101,Fallenoak Court,45140,39.2648466,-84.2980796
107,Fallenoak Court,45140,39.2646102,-84.2988001
106,Fallenoak Court,45140,39.2650818,-84.2989367
112,Fallenoak Court,45140,39.2651039,-84.2993288
125,Fallenoak Court,45140,39.2646724,-84.3000465
118,Fallenoak Court,45140,39.2651197,-84.2996743
124,Fallenoak Court,45140,39.2651367,-84.3000117
130,Fallenoak Court,45140,39.2651601,-84.3003439
131,Fallenoak Court,45140,39.2646908,-84.3004038
136,Fallenoak Court,45140,39.2651738,-84.3006774
142,Fallenoak Court,45140,39.2652513,-84.3010110
137,Fallenoak Court,45140,39.2647161,-84.3007252
143,Fallenoak Court,45140,39.2646454,-84.3010693
149,Fallenoak Court,45140,39.2646699,-84.3014228
154,Fallenoak Court,45140,39.2649729,-84.3015757
148,Fallenoak Court,45140,39.2652734,-84.3014504
106,Ravinewood Terrace,45140,39.2642414,-84.2994217
107,Ravinewood Terrace,45140,39.2641559,-84.2999781
113,Ravinewood Terrace,45140,39.2638864,-84.2999420
112,Ravinewood Terrace,45140,39.2639524,-84.2992641
119,Ravinewood Terrace,45140,39.2636569,-84.2997510
118,Ravinewood Terrace,45140,39.2636996,-84.2990985
228,Woodcrest Drive,45140,39.2633498,-84.2996269
124,Ravinewood Terrace,45140,39.2633788,-84.2989936
246,Woodcrest Drive,45140,39.2631561,-84.2984747
252,Woodcrest Drive,45140,39.2629558,-84.2982141
258,Woodcrest Drive,45140,39.2630987,-84.2975527
264,Woodcrest Drive,45140,39.2628090,-84.2975982
270,Woodcrest Drive,45140,39.2624817,-84.2976721
275,Woodcrest Drive,45140,39.2621706,-84.2978196
257,Woodcrest Drive,45140,39.2627830,-84.2989651
251,Woodcrest Drive,45140,39.2628207,-84.2993244
245,Woodcrest Drive,45140,39.2627897,-84.2998623
222,Woodcrest Drive,45140,39.2632135,-84.3002854
216,Woodcrest Drive,45140,39.2629879,-84.3006266
239,Woodcrest Drive,45140,39.2625534,-84.3003350
233,Woodcrest Drive,45140,39.2624734,-84.3007325
227,Woodcrest Drive,45140,39.2625204,-84.3011722
221,Woodcrest Drive,45140,39.2625436,-84.3016055
215,Woodcrest Drive,45140,39.2625689,-84.3019953
209,Woodcrest Drive,45140,39.2626560,-84.3023997
203,Woodcrest Drive,45140,39.2628045,-84.3026908
197,Woodcrest Drive,45140,39.2625270,-84.3032880
191,Woodcrest Drive,45140,39.2628068,-84.3035550
185,Woodcrest Drive,45140,39.2630889,-84.3034289
192,Woodcrest Drive,45140,39.2631231,-84.3022189
179,Woodcrest Drive,45140,39.2633905,-84.3032094
186,Woodcrest Drive,45140,39.2633881,-84.3025108
173,Woodcrest Drive,45140,39.2637015,-84.3032036
180,Woodcrest Drive,45140,39.2636753,-84.3025836
167,Woodcrest Drive,45140,39.2639596,-84.3032078
174,Woodcrest Drive,45140,39.2639529,-84.3025496
161,Woodcrest Drive,45140,39.2642196,-84.3032126
168,Woodcrest Drive,45140,39.2641995,-84.3024888
155,Woodcrest Drive,45140,39.2644619,-84.3031293
162,Woodcrest Drive,45140,39.2644561,-84.3025057
149,Woodcrest Drive,45140,39.2647137,-84.3030775
156,Woodcrest Drive,45140,39.2646999,-84.3024437
143,Woodcrest Drive,45140,39.2649575,-84.3030625
150,Woodcrest Drive,45140,39.2649517,-84.3024487
137,Woodcrest Drive,45140,39.2652113,-84.3030829
144,Woodcrest Drive,45140,39.2652031,-84.3024021
135,Woodcrest Drive,45140,39.2654606,-84.3030018
138,Woodcrest Drive,45140,39.2654665,-84.3023845
132,Woodcrest Drive,45140,39.2657007,-84.3023450
131,Woodcrest Drive,45140,39.2659550,-84.3029442
126,Woodcrest Drive,45140,39.2659403,-84.3022474
125,Woodcrest Drive,45140,39.2662055,-84.3028786
120,Woodcrest Drive,45140,39.2661814,-84.3022372
119,Woodcrest Drive,45140,39.2664573,-84.3028206
114,Woodcrest Drive,45140,39.2664317,-84.3021938
113,Woodcrest Drive,45140,39.2667029,-84.3027735
108,Woodcrest Drive,45140,39.2666778,-84.3021491
9433,Woodcrest Drive,45140,39.2669381,-84.3020511
100,Fallswood Court,45140,39.2630324,-84.3017666
106,Fallswood Court,45140,39.2635425,-84.3017061
112,Fallswood Court,45140,39.2638731,-84.3016544
118,Fallswood Court,45140,39.2640853,-84.3013837
119,Fallswood Court,45140,39.2639810,-84.3009839
113,Fallswood Court,45140,39.2636741,-84.3008854
107,Fallswood Court,45140,39.2633802,-84.3010285
101,Fallswood Court,45140,39.2630252,-84.3010885
100,Heartwood Court,45140,39.2623310,-84.2983099
107,Heartwood Court,45140,39.2621743,-84.2989352
113,Heartwood Court,45140,39.2619050,-84.2989261
106,Heartwood Court,45140,39.2615985,-84.2983567
119,Heartwood Court,45140,39.2615304,-84.2990455
125,Heartwood Court,45140,39.2613006,-84.2988523
112,Heartwood Court,45140,39.2613159,-84.2984546
1930,West Loveland Avenue,45140,39.2681067,-84.2961011
1924,West Loveland Avenue,45140,39.2680821,-84.2957963
1916,West Loveland Avenue,45140,39.2680654,-84.2955105
1908,West Loveland Avenue,45140,39.2680525,-84.2952354
1900,West Loveland Avenue,45140,39.2680395,-84.2949489
1894,West Loveland Avenue,45140,39.2680395,-84.2946759
1888,West Loveland Avenue,45140,39.2680275,-84.2944049
1880,West Loveland Avenue,45140,39.2680229,-84.2940953
1872,West Loveland Avenue,45140,39.2679852,-84.2938096
1864,West Loveland Avenue,45140,39.2679912,-84.2935404
1856,West Loveland Avenue,45140,39.2679769,-84.2932368
1848,West Loveland Avenue,45140,39.2680208,-84.2929484
1840,West Loveland Avenue,45140,39.2681161,-84.2926645
1832,West Loveland Avenue,45140,39.2682556,-84.2923957
1812,West Loveland Avenue,45140,39.2688333,-84.2910332
1806,West Loveland Avenue,45140,39.2689522,-84.2908370
1772,West Loveland Avenue,45140,39.2694290,-84.2900678
1766,West Loveland Avenue,45140,39.2695549,-84.2898467
1760,West Loveland Avenue,45140,39.2696847,-84.2896377
1754,West Loveland Avenue,45140,39.2698117,-84.2894321
1748,West Loveland Avenue,45140,39.2699315,-84.2892384
1742,West Loveland Avenue,45140,39.2700610,-84.2890262
1736,West Loveland Avenue,45140,39.2701870,-84.2888175
1730,West Loveland Avenue,45140,39.2703247,-84.2886185
1724,West Loveland Avenue,45140,39.2704701,-84.2884117
1718,West Loveland Avenue,45140,39.2705731,-84.2881952
1712,West Loveland Avenue,45140,39.2707091,-84.2880079
1706,West Loveland Avenue,45140,39.2708460,-84.2878034
1678,West Loveland Avenue,45140,39.2712048,-84.2871297
101,Glen Lake Road,45140,39.2681898,-84.2972792
102,Glen Lake Road,45140,39.2681903,-84.2966139
113,Glen Lake Road,45140,39.2684807,-84.2972785
114,Glen Lake Road,45140,39.2684692,-84.2965703
119,Glen Lake Road,45140,39.2687511,-84.2972866
120,Glen Lake Road,45140,39.2688131,-84.2966144
125,Glen Lake Road,45140,39.2689526,-84.2973207
131,Glen Lake Road,45140,39.2691428,-84.2973655
130,Glen Lake Road,45140,39.2692984,-84.2967445
137,Glen Lake Road,45140,39.2693252,-84.2974782
143,Glen Lake Road,45140,39.2695053,-84.2975694
136,Glen Lake Road,45140,39.2695513,-84.2968755
149,Glen Lake Road,45140,39.2696732,-84.2977161
155,Glen Lake Road,45140,39.2698332,-84.2978529
161,Glen Lake Road,45140,39.2699948,-84.2979993
142,Glen Lake Road,45140,39.2697271,-84.2969774
148,Glen Lake Road,45140,39.2699346,-84.2970630
154,Glen Lake Road,45140,39.2700630,-84.2972476
167,Glen Lake Road,45140,39.2701693,-84.2981570
173,Glen Lake Road,45140,39.2703379,-84.2982735
179,Glen Lake Road,45140,39.2705025,-84.2983899
185,Glen Lake Road,45140,39.2706255,-84.2985389
160,Glen Lake Road,45140,39.2702206,-84.2973803
166,Glen Lake Road,45140,39.2703878,-84.2975259
172,Glen Lake Road,45140,39.2705426,-84.2976555
178,Glen Lake Road,45140,39.2707255,-84.2977547
191,Glen Lake Road,45140,39.2708061,-84.2986341
197,Glen Lake Road,45140,39.2709621,-84.2987764
203,Glen Lake Road,45140,39.2711616,-84.2988518
209,Glen Lake Road,45140,39.2713444,-84.2989822
184,Glen Lake Road,45140,39.2708579,-84.2979356
190,Glen Lake Road,45140,39.2710321,-84.2980508
196,Glen Lake Road,45140,39.2712178,-84.2981210
202,Glen Lake Road,45140,39.2713808,-84.2982569
208,Glen Lake Road,45140,39.2715595,-84.2983680
214,Glen Lake Road,45140,39.2717471,-84.2984417
220,Glen Lake Road,45140,39.2725221,-84.2986383
226,Glen Lake Road,45140,39.2721666,-84.2989281
215,Glen Lake Road,45140,39.2717497,-84.2997025
232,Glen Lake Road,45140,39.2722507,-84.2992704
221,Glen Lake Road,45140,39.2718544,-84.3000560
227,Glen Lake Road,45140,39.2720966,-84.3002920
238,Glen Lake Road,45140,39.2723497,-84.2996601
233,Glen Lake Road,45140,39.2723389,-84.3003919
239,Glen Lake Road,45140,39.2726245,-84.3002806
245,Glen Lake Road,45140,39.2728410,-84.3001383
244,Glen Lake Road,45140,39.2726631,-84.2994865
250,Glen Lake Road,45140,39.2728629,-84.2993488
251,Glen Lake Road,45140,39.2730673,-84.2999959
257,Glen Lake Road,45140,39.2732679,-84.2998526
263,Glen Lake Road,45140,39.2734919,-84.2996910
269,Glen Lake Road,45140,39.2736884,-84.2995052
256,Glen Lake Road,45140,39.2730842,-84.2991964
262,Glen Lake Road,45140,39.2733131,-84.2990602
268,Glen Lake Road,45140,39.2735348,-84.2988802
274,Glen Lake Road,45140,39.2737464,-84.2987336
275,Glen Lake Road,45140,39.2739119,-84.2993945
280,Glen Lake Road,45140,39.2739885,-84.2986013
286,Glen Lake Road,45140,39.2742313,-84.2985814
101,Woodridge Court,45140,39.2742932,-84.2992494
292,Glen Lake Road,45140,39.2745024,-84.2985532
298,Glen Lake Road,45140,39.2747437,-84.2985430
304,Glen Lake Road,45140,39.2749927,-84.2985250
310,Glen Lake Road,45140,39.2752362,-84.2985013
316,Glen Lake Road,45140,39.2754815,-84.2984747
293,Glen Lake Road,45140,39.2751046,-84.2991700
299,Glen Lake Road,45140,39.2753374,-84.2991331
305,Glen Lake Road,45140,39.2755935,-84.2992723
311,Glen Lake Road,45140,39.2758909,-84.2991535
317,Glen Lake Road,45140,39.2761022,-84.2990889
323,Glen Lake Road,45140,39.2763198,-84.2989764
334,Glen Lake Road,45140,39.2763435,-84.2984340
328,Glen Lake Road,45140,39.2760215,-84.2984978
322,Glen Lake Road,45140,39.2757625,-84.2984436
107,Woodridge Court,45140,39.2742791,-84.2995749
113,Woodridge Court,45140,39.2742789,-84.2998611
119,Woodridge Court,45140,39.2744693,-84.3001387
118,Woodridge Court,45140,39.2747334,-84.3001549
112,Woodridge Court,45140,39.2748999,-84.2998310
106,Woodridge Court,45140,39.2748936,-84.2995216
100,Woodridge Court,45140,39.2748041,-84.2992057
1943,Poplar Drive,45140,39.2688648,-84.2962361
1937,Poplar Drive,45140,39.2688571,-84.2959860
1944,Poplar Drive,45140,39.2693204,-84.2963482
1931,Poplar Drive,45140,39.2688201,-84.2957395
1925,Poplar Drive,45140,39.2688346,-84.2954904
1919,Poplar Drive,45140,39.2688134,-84.2952422
1906,Poplar Drive,45140,39.2692610,-84.2948389
1913,Poplar Drive,45140,39.2688169,-84.2949968
1907,Poplar Drive,45140,39.2687779,-84.2947504
1901,Poplar Drive,45140,39.2687959,-84.2945011
1873,Poplar Drive,45140,39.2687848,-84.2942592
1867,Poplar Drive,45140,39.2687706,-84.2940027
1861,Poplar Drive,45140,39.2687335,-84.2937647
1855,Poplar Drive,45140,39.2687342,-84.2935170
1849,Poplar Drive,45140,39.2687208,-84.2932704
1854,Poplar Drive,45140,39.2692100,-84.2935538
1848,Poplar Drive,45140,39.2692175,-84.2933125
1842,Poplar Drive,45140,39.2692115,-84.2930522
1843,Poplar Drive,45140,39.2687396,-84.2930203
1837,Poplar Drive,45140,39.2687757,-84.2927607
1836,Poplar Drive,45140,39.2692641,-84.2927973
1830,Poplar Drive,45140,39.2693709,-84.2925729
1831,Poplar Drive,45140,39.2688486,-84.2925015
1825,Poplar Drive,45140,39.2690042,-84.2922342
140,Cedarbrook Drive,45140,39.2692017,-84.2919615
137,Cedarbrook Drive,45140,39.2695454,-84.2923990
146,Cedarbrook Drive,45140,39.2693709,-84.2918339
152,Cedarbrook Drive,45140,39.2695571,-84.2917470
143,Cedarbrook Drive,45140,39.2697300,-84.2923175
149,Cedarbrook Drive,45140,39.2699255,-84.2922879
158,Cedarbrook Drive,45140,39.2697568,-84.2917062
155,Cedarbrook Drive,45140,39.2701183,-84.2922705
161,Cedarbrook Drive,45140,39.2703102,-84.2922487
167,Cedarbrook Drive,45140,39.2705018,-84.2922514
164,Cedarbrook Drive,45140,39.2699491,-84.2916872
170,Cedarbrook Drive,45140,39.2701437,-84.2916670
176,Cedarbrook Drive,45140,39.2703330,-84.2916542
173,Cedarbrook Drive,45140,39.2706948,-84.2922084
179,Cedarbrook Drive,45140,39.2708870,-84.2921912
185,Cedarbrook Drive,45140,39.2710772,-84.2921940
191,Cedarbrook Drive,45140,39.2712686,-84.2921597
186,Cedarbrook Drive,45140,39.2710729,-84.2915775
192,Cedarbrook Drive,45140,39.2712624,-84.2915470
198,Cedarbrook Drive,45140,39.2714535,-84.2914746
204,Cedarbrook Drive,45140,39.2716472,-84.2914525
210,Cedarbrook Drive,45140,39.2718304,-84.2914321
1800,Timberidge Drive,45140,39.2720591,-84.2915420
1938,Poplar Drive,45140,39.2693048,-84.2958392
130,Brushwood Drive,45140,39.2693035,-84.2951944
137,Brushwood Drive,45140,39.2695544,-84.2959156
136,Brushwood Drive,45140,39.2695533,-84.2952868
142,Brushwood Drive,45140,39.2697204,-84.2953868
143,Brushwood Drive,45140,39.2697318,-84.2960392
148,Brushwood Drive,45140,39.2698995,-84.2954816
149,Brushwood Drive,45140,39.2699099,-84.2961101
154,Brushwood Drive,45140,39.2700814,-84.2955798
155,Brushwood Drive,45140,39.2700872,-84.2962246
161,Brushwood Drive,45140,39.2702848,-84.2963110
167,Brushwood Drive,45140,39.2704599,-84.2964203
173,Brushwood Drive,45140,39.2706194,-84.2964862
179,Brushwood Drive,45140,39.2708121,-84.2965865
185,Brushwood Drive,45140,39.2710202,-84.2966769
160,Brushwood Drive,45140,39.2702504,-84.2956786
166,Brushwood Drive,45140,39.2704529,-84.2957434
172,Brushwood Drive,45140,39.2706158,-84.2958431
178,Brushwood Drive,45140,39.2707891,-84.2959566
184,Brushwood Drive,45140,39.2709945,-84.2959901
190,Brushwood Drive,45140,39.2711855,-84.2960228
196,Brushwood Drive,45140,39.2713781,-84.2960830
202,Brushwood Drive,45140,39.2715785,-84.2960193
1937,Mellowwood Lane,45140,39.2709787,-84.2969803
1943,Mellowwood Lane,45140,39.2709610,-84.2972563
1949,Mellowwood Lane,45140,39.2711113,-84.2974998
1948,Mellowwood Lane,45140,39.2713428,-84.2975129
1942,Mellowwood Lane,45140,39.2714984,-84.2973166
1936,Mellowwood Lane,45140,39.2715147,-84.2970081
1930,Mellowwood Lane,45140,39.2715210,-84.2966823
131,Albright Drive,45140,39.2692615,-84.2944954
130,Albright Drive,45140,39.2692346,-84.2938900
136,Albright Drive,45140,39.2695117,-84.2939092
137,Albright Drive,45140,39.2695191,-84.2945873
143,Albright Drive,45140,39.2697263,-84.2946381
149,Albright Drive,45140,39.2699006,-84.2947731
155,Albright Drive,45140,39.2700730,-84.2948810
161,Albright Drive,45140,39.2702414,-84.2949806
167,Albright Drive,45140,39.2704347,-84.2950381
166,Albright Drive,45140,39.2704753,-84.2944340
173,Albright Drive,45140,39.2706038,-84.2951922
179,Albright Drive,45140,39.2707910,-84.2952501
185,Albright Drive,45140,39.2709711,-84.2953385
191,Albright Drive,45140,39.2711681,-84.2953787
197,Albright Drive,45140,39.2713650,-84.2953871
203,Albright Drive,45140,39.2715670,-84.2954029
198,Albright Drive,45140,39.2712250,-84.2947374
204,Albright Drive,45140,39.2714869,-84.2947770
1873,Timberidge Drive,45140,39.2717842,-84.2947450
1872,Timberidge Drive,45140,39.2722744,-84.2946881
142,Albright Drive,45140,39.2697323,-84.2940144
1849,Lemontree Lane,45140,39.2696808,-84.2935114
1843,Lemontree Lane,45140,39.2696448,-84.2932542
1837,Lemontree Lane,45140,39.2696769,-84.2929521
1830,Lemontree Lane,45140,39.2699001,-84.2928168
1836,Lemontree Lane,45140,39.2701381,-84.2928949
1842,Lemontree Lane,45140,39.2702473,-84.2931638
1848,Lemontree Lane,45140,39.2701902,-84.2934173
1854,Lemontree Lane,45140,39.2702324,-84.2936638
1860,Lemontree Lane,45140,39.2702247,-84.2939052
1866,Lemontree Lane,45140,39.2702202,-84.2942182
172,Albright Drive,45140,39.2707322,-84.2945538
1861,Willow Run Lane,45140,39.2707422,-84.2941955
1855,Willow Run Lane,45140,39.2707209,-84.2939463
1849,Willow Run Lane,45140,39.2707257,-84.2936933
1843,Willow Run Lane,45140,39.2706944,-84.2934501
1837,Willow Run Lane,45140,39.2706437,-84.2932057
1831,Willow Run Lane,45140,39.2706833,-84.2929253
1825,Willow Run Lane,45140,39.2709111,-84.2927913
1830,Willow Run Lane,45140,39.2711104,-84.2929132
1836,Willow Run Lane,45140,39.2712067,-84.2931490
1842,Willow Run Lane,45140,39.2711866,-84.2934004
1848,Willow Run Lane,45140,39.2711829,-84.2936515
1854,Willow Run Lane,45140,39.2711984,-84.2938918
1860,Willow Run Lane,45140,39.2712190,-84.2941424
1866,Willow Run Lane,45140,39.2712326,-84.2943877
180,Cedarbrook Drive,45140,39.2708424,-84.2915704
1931,Timberidge Drive,45140,39.2719023,-84.2966396
1937,Timberidge Drive,45140,39.2719076,-84.2969107
1943,Timberidge Drive,45140,39.2719211,-84.2971588
1949,Timberidge Drive,45140,39.2719306,-84.2974042
1955,Timberidge Drive,45140,39.2718792,-84.2976739
1961,Timberidge Drive,45140,39.2719970,-84.2979407
1966,Timberidge Drive,45140,39.2722482,-84.2980693
1960,Timberidge Drive,45140,39.2724348,-84.2979071
1954,Timberidge Drive,45140,39.2724822,-84.2976008
1948,Timberidge Drive,45140,39.2724014,-84.2973645
1942,Timberidge Drive,45140,39.2723847,-84.2971014
1936,Timberidge Drive,45140,39.2723668,-84.2968591
1930,Timberidge Drive,45140,39.2723889,-84.2966184
1924,Timberidge Drive,45140,39.2723383,-84.2963644
1918,Timberidge Drive,45140,39.2723450,-84.2961293
1912,Timberidge Drive,45140,39.2723404,-84.2958755
1906,Timberidge Drive,45140,39.2723386,-84.2956323
1900,Timberidge Drive,45140,39.2723026,-84.2953305
1913,Timberidge Drive,45140,39.2718626,-84.2960128
1907,Timberidge Drive,45140,39.2718438,-84.2956870
1901,Timberidge Drive,45140,39.2718239,-84.2953738
1866,Timberidge Drive,45140,39.2722300,-84.2943891
1860,Timberidge Drive,45140,39.2722305,-84.2941323
1854,Timberidge Drive,45140,39.2721942,-84.2938745
1848,Timberidge Drive,45140,39.2721691,-84.2936170
1842,Timberidge Drive,45140,39.2721652,-84.2933550
1836,Timberidge Drive,45140,39.2721430,-84.2930941
1830,Timberidge Drive,45140,39.2721581,-84.2928358
1824,Timberidge Drive,45140,39.2721059,-84.2925677
1818,Timberidge Drive,45140,39.2721090,-84.2923217
1812,Timberidge Drive,45140,39.2720797,-84.2920638
1806,Timberidge Drive,45140,39.2721236,-84.2918016
1867,Timberidge Drive,45140,39.2717319,-84.2944406
1861,Timberidge Drive,45140,39.2717519,-84.2941829
1855,Timberidge Drive,45140,39.2717349,-84.2939303
1849,Timberidge Drive,45140,39.2717217,-84.2936864
1843,Timberidge Drive,45140,39.2716821,-84.2934389
1837,Timberidge Drive,45140,39.2716767,-84.2931975
1831,Timberidge Drive,45140,39.2716556,-84.2929503
1825,Timberidge Drive,45140,39.2716512,-84.2927015
1819,Timberidge Drive,45140,39.2716226,-84.2924487
1813,Timberidge Drive,45140,39.2715861,-84.2921567
5035;5037;5039;5041;5043;5045,Bristol Court,45140,39.2723850,-84.3043014
5047;5049;5051;5053;5055;5057,Bristol Court,45140,39.2725280,-84.3036013
5059;5061;5063;5065;5067;5069,Bristol Court,45140,39.2724869,-84.3029366
5071;5073;5075;5077;5079;5081,Bristol Court,45140,39.2725935,-84.3023218
5027;5029;5031;5033,Bristol Court,45140,39.2727908,-84.3043334
5019;5021;5023;5025,Bristol Court,45140,39.2731569,-84.3042880
5011;5013;5015;5017,Bristol Court,45140,39.2735543,-84.3042434
5010;5012;5014;5016;5018;5020;5022;5024,Bristol Court,45140,39.2730355,-84.3038224
5083;5085;5087;5089,Bristol Court,45140,39.2728664,-84.3034910
5034;5036;5038;5040;5042;5044,Bristol Court,45140,39.2728229,-84.3029297
5026;5028;5030;5032,White Chapel Lane,45140,39.2732536,-84.3025627
3046;3048;3050;3052;3054;3056,Stratford Court,45140,39.2738358,-84.3019824
3034;3036;3038;3040;3042;3044,Stratford Court,45140,39.2743666,-84.3017759
1083;1085;1087;1089;1091;1095,Stratford Court,45140,39.2762375,-84.3056113
1800,West Loveland Avenue,45140,39.2690760,-84.2906852
107,Brandenberg Drive,45140,39.2693517,-84.2909182
113,Brandenberg Drive,45140,39.2695341,-84.2910449
119,Brandenberg Drive,45140,39.2697369,-84.2910675
125,Brandenberg Drive,45140,39.2699482,-84.2910519
131,Brandenberg Drive,45140,39.2701520,-84.2910388
1801,Wittenberg Drive,45140,39.2703439,-84.2910244
102,Brandenberg Drive,45140,39.2693161,-84.2902679
106,Brandenberg Drive,45140,39.2696394,-84.2904774
112,Brandenberg Drive,45140,39.2698428,-84.2905133
118,Brandenberg Drive,45140,39.2700315,-84.2904835
1800,Wittenberg Drive,45140,39.2707415,-84.2909844
1767,Wittenberg Drive,45140,39.2702650,-84.2904312
1761,Wittenberg Drive,45140,39.2702678,-84.2901652
1755,Wittenberg Drive,45140,39.2702843,-84.2898850
1748,Wittenberg Drive,45140,39.2707325,-84.2901739
1742,Wittenberg Drive,45140,39.2707769,-84.2898606
1736,Wittenberg Drive,45140,39.2709088,-84.2895940
1730,Wittenberg Drive,45140,39.2710537,-84.2893564
1724,Wittenberg Drive,45140,39.2711598,-84.2891128
1718,Wittenberg Drive,45140,39.2713196,-84.2889210
1712,Wittenberg Drive,45140,39.2714093,-84.2886903
1706,Wittenberg Drive,45140,39.2715368,-84.2884800
1749,Wittenberg Drive,45140,39.2703638,-84.2896424
1743,Wittenberg Drive,45140,39.2704681,-84.2894215
1737,Wittenberg Drive,45140,39.2705901,-84.2892128
1731,Wittenberg Drive,45140,39.2707111,-84.2890004
1725,Wittenberg Drive,45140,39.2708181,-84.2887590
1719,Wittenberg Drive,45140,39.2709293,-84.2885637
1713,Wittenberg Drive,45140,39.2710915,-84.2883730
1707,Wittenberg Drive,45140,39.2712028,-84.2881359
200,Brandenberg Drive,45140,39.2707408,-84.2904118
207,Brandenberg Drive,45140,39.2709313,-84.2909666
213,Brandenberg Drive,45140,39.2711351,-84.2909576
219,Brandenberg Drive,45140,39.2713397,-84.2909050
206,Brandenberg Drive,45140,39.2710615,-84.2903399
212,Brandenberg Drive,45140,39.2712676,-84.2903242
218,Brandenberg Drive,45140,39.2714720,-84.2903096
225,Brandenberg Drive,45140,39.2715460,-84.2909053
224,Brandenberg Drive,45140,39.2716738,-84.2902919
230,Brandenberg Drive,45140,39.2718790,-84.2902734
231,Brandenberg Drive,45140,39.2717500,-84.2909058
237,Brandenberg Drive,45140,39.2719509,-84.2908330
243,Brandenberg Drive,45140,39.2721709,-84.2908470
236,Brandenberg Drive,45140,39.2720874,-84.2902921
242,Brandenberg Drive,45140,39.2722926,-84.2902478
249,Brandenberg Drive,45140,39.2724925,-84.2907912
107,Heidelberg Drive,45140,39.2713071,-84.2879434
101,Heidelberg Drive,45140,39.2709790,-84.2876275
106,Heidelberg Drive,45140,39.2713609,-84.2872948
112,Heidelberg Drive,45140,39.2715187,-84.2874618
201,Heidelberg Drive,45140,39.2716804,-84.2883145
200,Heidelberg Drive,45140,39.2721237,-84.2880580
207,Heidelberg Drive,45140,39.2720273,-84.2886813
206,Heidelberg Drive,45140,39.2722747,-84.2882121
212,Heidelberg Drive,45140,39.2724169,-84.2883821
218,Heidelberg Drive,45140,39.2725836,-84.2885245
213,Heidelberg Drive,45140,39.2723815,-84.2890417
219,Heidelberg Drive,45140,39.2727439,-84.2893715
224,Heidelberg Drive,45140,39.2727190,-84.2886938
230,Heidelberg Drive,45140,39.2728765,-84.2888368
236,Heidelberg Drive,45140,39.2730463,-84.2889730
242,Heidelberg Drive,45140,39.2731834,-84.2891433
248,Heidelberg Drive,45140,39.2733394,-84.2892574
254,Heidelberg Drive,45140,39.2734827,-84.2894221
260,Heidelberg Drive,45140,39.2736403,-84.2895686
231,Heidelberg Drive,45140,39.2732750,-84.2898889
237,Heidelberg Drive,45140,39.2734692,-84.2900419
243,Heidelberg Drive,45140,39.2736333,-84.2901878
266,Heidelberg Drive,45140,39.2738092,-84.2896602
272,Heidelberg Drive,45140,39.2739769,-84.2897746
278,Heidelberg Drive,45140,39.2741388,-84.2899046
284,Heidelberg Drive,45140,39.2743149,-84.2899973
255,Heidelberg Drive,45140,39.2742582,-84.2905317
261,Heidelberg Drive,45140,39.2744770,-84.2906560
290,Heidelberg Drive,45140,39.2746189,-84.2901633
1706,Scranton Court,45140,39.2722884,-84.2891859
1712,Scranton Court,45140,39.2721233,-84.2893921
1718,Scranton Court,45140,39.2720030,-84.2896057
1724,Scranton Court,45140,39.2718488,-84.2897861
1731,Scranton Court,45140,39.2715936,-84.2897932
1725,Scranton Court,45140,39.2714651,-84.2895470
1719,Scranton Court,45140,39.2715664,-84.2892569
1713,Scranton Court,45140,39.2717793,-84.2890488
1707,Scranton Court,45140,39.2719424,-84.2888708
1700,Stockton Drive,45140,39.2730620,-84.2897602
1707,Stockton Drive,45140,39.2726128,-84.2895795
1713,Stockton Drive,45140,39.2725502,-84.2898153
1719,Stockton Drive,45140,39.2724929,-84.2901916
1706,Stockton Drive,45140,39.2729283,-84.2900655
1712,Stockton Drive,45140,39.2729110,-84.2903546
1800,Stockton Drive,45140,39.2729219,-84.2905942
1806,Stockton Drive,45140,39.2729581,-84.2908531
1812,Stockton Drive,45140,39.2729523,-84.2910857
1807,Stockton Drive,45140,39.2725160,-84.2910148
1813,Stockton Drive,45140,39.2725349,-84.2912813
1818,Stockton Drive,45140,39.2729784,-84.2913296
1824,Stockton Drive,45140,39.2729724,-84.2915785
1819,Stockton Drive,45140,39.2725481,-84.2915419
1825,Stockton Drive,45140,39.2725872,-84.2918072
1830,Stockton Drive,45140,39.2729987,-84.2918213
1836,Stockton Drive,45140,39.2730215,-84.2920755
1842,Stockton Drive,45140,39.2730148,-84.2923168
1831,Stockton Drive,45140,39.2725690,-84.2920683
1837,Stockton Drive,45140,39.2725957,-84.2923347
1843,Stockton Drive,45140,39.2726165,-84.2925934
1848,Stockton Drive,45140,39.2730314,-84.2925633
1854,Stockton Drive,45140,39.2730873,-84.2928139
1860,Stockton Drive,45140,39.2730593,-84.2930729
1849,Stockton Drive,45140,39.2726311,-84.2928611
1855,Stockton Drive,45140,39.2726388,-84.2931246
1861,Stockton Drive,45140,39.2726613,-84.2933876
1867,Stockton Drive,45140,39.2726788,-84.2936520
1873,Stockton Drive,45140,39.2726959,-84.2939220
1878,Stockton Drive,45140,39.2731905,-84.2941523
1884,Stockton Drive,45140,39.2731586,-84.2944088
1879,Stockton Drive,45140,39.2727135,-84.2942105
1885,Stockton Drive,45140,39.2727272,-84.2944485
1900,Stockton Drive,45140,39.2731960,-84.2952421
1906,Stockton Drive,45140,39.2732256,-84.2955955
1913,Stockton Drive,45140,39.2728129,-84.2957249
1907,Stockton Drive,45140,39.2727694,-84.2954779
1912,Stockton Drive,45140,39.2732327,-84.2958484
1918,Stockton Drive,45140,39.2732426,-84.2960992
1919,Stockton Drive,45140,39.2728003,-84.2959972
1925,Stockton Drive,45140,39.2728447,-84.2962542
1931,Stockton Drive,45140,39.2728613,-84.2965164
1937,Stockton Drive,45140,39.2728777,-84.2967814
1943,Stockton Drive,45140,39.2729039,-84.2970439
1936,Stockton Drive,45140,39.2733033,-84.2970925
1942,Stockton Drive,45140,39.2733978,-84.2973874
254,Stockton Drive,45140,39.2736363,-84.2974918
1949,Stockton Drive,45140,39.2729095,-84.2973044
1955,Stockton Drive,45140,39.2729339,-84.2975761
1961,Stockton Drive,45140,39.2730279,-84.2978604
1967,Stockton Drive,45140,39.2732557,-84.2979542
253,Stockton Drive,45140,39.2734785,-84.2980132
259,Stockton Drive,45140,39.2736820,-84.2979949
265,Stockton Drive,45140,39.2738814,-84.2979954
260,Stockton Drive,45140,39.2738445,-84.2974057
266,Stockton Drive,45140,39.2740573,-84.2974136
271,Stockton Drive,45140,39.2740848,-84.2979644
277,Stockton Drive,45140,39.2742885,-84.2980125
272,Stockton Drive,45140,39.2742616,-84.2974215
278,Stockton Drive,45140,39.2744488,-84.2974053
247,Sinclair Court,45140,39.2733181,-84.2968027
1924,Stockton Drive,45140,39.2732910,-84.2963714
254,Sinclair Court,45140,39.2736137,-84.2963027
253,Sinclair Court,45140,39.2736460,-84.2968053
239,Sinclair Court,45140,39.2738516,-84.2968549
265,Sinclair Court,45140,39.2740464,-84.2967543
272,Sinclair Court,45140,39.2741203,-84.2964901
266,Sinclair Court,45140,39.2740266,-84.2962287
260,Sinclair Court,45140,39.2738091,-84.2961261
241,Albright Drive,45140,39.2727342,-84.2952203
242,Albright Drive,45140,39.2727297,-84.2946880
248,Albright Drive,45140,39.2731864,-84.2946568
253,Albright Drive,45140,39.2733985,-84.2952030
259,Albright Drive,45140,39.2735984,-84.2952653
254,Albright Drive,45140,39.2734980,-84.2946608
260,Albright Drive,45140,39.2736999,-84.2947256
265,Albright Drive,45140,39.2738097,-84.2954538
271,Albright Drive,45140,39.2739764,-84.2955575
277,Albright Drive,45140,39.2741228,-84.2957088
283,Albright Drive,45140,39.2743191,-84.2958641
289,Albright Drive,45140,39.2744797,-84.2959843
276,Albright Drive,45140,39.2743466,-84.2951884
280,Albright Drive,45140,39.2744837,-84.2953276
286,Albright Drive,45140,39.2746777,-84.2954917
307,Albright Drive,45140,39.2752112,-84.2965119
313,Albright Drive,45140,39.2753816,-84.2967692
319,Albright Drive,45140,39.2756028,-84.2967360
318,Albright Drive,45140,39.2756992,-84.2964798
312,Albright Drive,45140,39.2756265,-84.2961802
306,Albright Drive,45140,39.2754906,-84.2959770
1930,Rollins Drive,45140,39.2752291,-84.2957459
247,Wheaton Court,45140,39.2731687,-84.2939155
248,Wheaton Court,45140,39.2731165,-84.2933668
254,Wheaton Court,45140,39.2733443,-84.2933479
253,Wheaton Court,45140,39.2734518,-84.2938856
259,Wheaton Court,45140,39.2736553,-84.2939268
265,Wheaton Court,45140,39.2738565,-84.2938789
1872,Vanderbilt Drive,45140,39.2739892,-84.2936560
1867,Vanderbilt Drive,45140,39.2735567,-84.2932622
1866,Vanderbilt Drive,45140,39.2739906,-84.2933712
1860,Vanderbilt Drive,45140,39.2739997,-84.2930932
1854,Vanderbilt Drive,45140,39.2739943,-84.2928433
1861,Vanderbilt Drive,45140,39.2735773,-84.2928681
1855,Vanderbilt Drive,45140,39.2735770,-84.2925991
1849,Vanderbilt Drive,45140,39.2735660,-84.2923446
1843,Vanderbilt Drive,45140,39.2735227,-84.2920847
1837,Vanderbilt Drive,45140,39.2735361,-84.2918410
1831,Vanderbilt Drive,45140,39.2735122,-84.2915962
1825,Vanderbilt Drive,45140,39.2734913,-84.2913580
1819,Vanderbilt Drive,45140,39.2734811,-84.2910955
1813,Vanderbilt Drive,45140,39.2735231,-84.2908424
1807,Vanderbilt Drive,45140,39.2735467,-84.2905928
1848,Vanderbilt Drive,45140,39.2739966,-84.2926019
1842,Vanderbilt Drive,45140,39.2739888,-84.2923579
1836,Vanderbilt Drive,45140,39.2739867,-84.2921123
1830,Vanderbilt Drive,45140,39.2739451,-84.2918676
1824,Vanderbilt Drive,45140,39.2739440,-84.2916188
1818,Vanderbilt Drive,45140,39.2739263,-84.2913750
1812,Vanderbilt Drive,45140,39.2739273,-84.2911185
1806,Vanderbilt Drive,45140,39.2739552,-84.2908216
1800,Vanderbilt Drive,45140,39.2740204,-84.2904766
307,Stockton Drive,45140,39.2750726,-84.2978751
313,Stockton Drive,45140,39.2752918,-84.2978760
319,Stockton Drive,45140,39.2754856,-84.2978388
325,Stockton Drive,45140,39.2756899,-84.2978375
331,Stockton Drive,45140,39.2758963,-84.2978187
337,Stockton Drive,45140,39.2760937,-84.2977796
343,Stockton Drive,45140,39.2763117,-84.2978152
300,Stockton Drive,45140,39.2748821,-84.2973799
306,Stockton Drive,45140,39.2751153,-84.2973244
314,Stockton Drive,45140,39.2753374,-84.2973191
320,Stockton Drive,45140,39.2755395,-84.2973164
326,Stockton Drive,45140,39.2757457,-84.2972544
332,Stockton Drive,45140,39.2759625,-84.2972530
338,Stockton Drive,45140,39.2761677,-84.2971965
1972,Heidelberg Drive,45140,39.2765199,-84.2977787
266,Albright Drive,45140,39.2739761,-84.2949241
1897,Lindenhall Drive,45140,39.2740935,-84.2947238
1891,Lindenhall Drive,45140,39.2742014,-84.2945064
1890,Lindenhall Drive,45140,39.2745482,-84.2948242
1886,Lindenhall Drive,45140,39.2746111,-84.2945692
1878,Lindenhall Drive,45140,39.2747059,-84.2943320
1885,Lindenhall Drive,45140,39.2742880,-84.2942712
1879,Lindenhall Drive,45140,39.2743436,-84.2940257
1873,Lindenhall Drive,45140,39.2744242,-84.2937754
1867,Lindenhall Drive,45140,39.2744600,-84.2935213
1861,Lindenhall Drive,45140,39.2745110,-84.2932775
1855,Lindenhall Drive,45140,39.2745240,-84.2930178
1872,Lindenhall Drive,45140,39.2747624,-84.2940843
1866,Lindenhall Drive,45140,39.2748343,-84.2938420
1860,Lindenhall Drive,45140,39.2748669,-84.2935966
1854,Lindenhall Drive,45140,39.2749157,-84.2933505
1848,Lindenhall Drive,45140,39.2749600,-84.2931087
1842,Lindenhall Drive,45140,39.2749553,-84.2928509
1836,Lindenhall Drive,45140,39.2749606,-84.2926004
1830,Lindenhall Drive,45140,39.2749520,-84.2923468
1824,Lindenhall Drive,45140,39.2749374,-84.2920893
1818,Lindenhall Drive,45140,39.2749203,-84.2918239
1812,Lindenhall Drive,45140,39.2749063,-84.2915591
1806,Lindenhall Drive,45140,39.2749011,-84.2912980
1849,Lindenhall Drive,45140,39.2745326,-84.2927556
1843,Lindenhall Drive,45140,39.2745203,-84.2925044
1837,Lindenhall Drive,45140,39.2745245,-84.2922444
1831,Lindenhall Drive,45140,39.2745113,-84.2919942
1825,Lindenhall Drive,45140,39.2744967,-84.2917461
1819,Lindenhall Drive,45140,39.2744807,-84.2915033
1813,Lindenhall Drive,45140,39.2744652,-84.2912580
1807,Lindenhall Drive,45140,39.2744227,-84.2909952
1760,Lindenhall Drive,45140,39.2751606,-84.2899505
1754,Lindenhall Drive,45140,39.2752414,-84.2897465
1748,Lindenhall Drive,45140,39.2752948,-84.2895153
1742,Lindenhall Drive,45140,39.2753614,-84.2892821
1736,Lindenhall Drive,45140,39.2754006,-84.2890153
1730,Lindenhall Drive,45140,39.2754548,-84.2887569
1724,Lindenhall Drive,45140,39.2754116,-84.2884911
1718,Lindenhall Drive,45140,39.2753654,-84.2882293
1712,Lindenhall Drive,45140,39.2753321,-84.2879506
1706,Lindenhall Drive,45140,39.2753002,-84.2876704
1700,Lindenhall Drive,45140,39.2752559,-84.2873893
1694,Lindenhall Drive,45140,39.2752289,-84.2871141
1755,Lindenhall Drive,45140,39.2747109,-84.2899627
1749,Lindenhall Drive,45140,39.2747873,-84.2896917
1743,Lindenhall Drive,45140,39.2748604,-84.2894218
1737,Lindenhall Drive,45140,39.2749235,-84.2891666
1731,Lindenhall Drive,45140,39.2749932,-84.2888921
1725,Lindenhall Drive,45140,39.2749558,-84.2886253
1719,Lindenhall Drive,45140,39.2749284,-84.2880151
1713,Lindenhall Drive,45140,39.2748699,-84.2876253
1707,Lindenhall Drive,45140,39.2748216,-84.2873652
1701,Lindenhall Drive,45140,39.2748055,-84.2871034
1695,Lindenhall Drive,45140,39.2747463,-84.2868414
1689,Lindenhall Drive,45140,39.2747381,-84.2865857
1688,Lindenhall Drive,45140,39.2751817,-84.2868379
1682,Lindenhall Drive,45140,39.2751476,-84.2865571
1676,Lindenhall Drive,45140,39.2751042,-84.2862777
1670,Lindenhall Drive,45140,39.2751047,-84.2859908
1664,Lindenhall Drive,45140,39.2750549,-84.2857268
1658,Lindenhall Drive,45140,39.2749946,-84.2854516
1652,Lindenhall Drive,45140,39.2749772,-84.2851651
1646,Lindenhall Drive,45140,39.2749264,-84.2848986
1640,Lindenhall Drive,45140,39.2749260,-84.2846095
1634,Lindenhall Drive,45140,39.2749004,-84.2843239
1653,Lindenhall Drive,45140,39.2745166,-84.2851997
1647,Lindenhall Drive,45140,39.2744701,-84.2849513
1641,Lindenhall Drive,45140,39.2744713,-84.2846948
1633,Lindenhall Drive,45140,39.2744800,-84.2843404
123,North Lebanon Road,45140,39.2742942,-84.2843307
336,Lycoming Street,45140,39.2745902,-84.2855987
335,Lycoming Street,45140,39.2746824,-84.2861917
329,Lycoming Street,45140,39.2744905,-84.2861781
330,Lycoming Street,45140,39.2743667,-84.2856583
324,Lycoming Street,45140,39.2741651,-84.2856580
323,Lycoming Street,45140,39.2742839,-84.2862001
317,Lycoming Street,45140,39.2740780,-84.2862273
318,Lycoming Street,45140,39.2739531,-84.2856910
311,Lycoming Street,45140,39.2738776,-84.2862353
312,Lycoming Street,45140,39.2737465,-84.2856930
306,Lycoming Street,45140,39.2735471,-84.2857198
300,Lycoming Street,45140,39.2733413,-84.2856830
1670,Wilmington Drive,45140,39.2735499,-84.2862480
1671,Wilmington Drive,45140,39.2731443,-84.2857707
1677,Wilmington Drive,45140,39.2730623,-84.2860227
1676,Wilmington Drive,45140,39.2735267,-84.2864902
1689,Wilmington Drive,45140,39.2731040,-84.2865713
1683,Wilmington Drive,45140,39.2731021,-84.2862887
1695,Wilmington Drive,45140,39.2731455,-84.2868344
1682,Wilmington Drive,45140,39.2735457,-84.2867543
1688,Wilmington Drive,45140,39.2735532,-84.2870190
300,Rutgers Court,45140,39.2736185,-84.2873010
1701,Wilmington Drive,45140,39.2731405,-84.2871172
1707,Wilmington Drive,45140,39.2731711,-84.2873826
1713,Wilmington Drive,45140,39.2732114,-84.2876381
1719,Wilmington Drive,45140,39.2732683,-84.2878561
1725,Wilmington Drive,45140,39.2733901,-84.2880823
301,Rutgers Court,45140,39.2737714,-84.2877864
301,Wilmington Drive,45140,39.2735207,-84.2882742
306,Wilmington Drive,45140,39.2739235,-84.2880447
307,Wilmington Drive,45140,39.2736578,-84.2884455
311,Wilmington Drive,45140,39.2738054,-84.2886217
313,Wilmington Drive,45140,39.2739920,-84.2887152
317,Wilmington Drive,45140,39.2741928,-84.2887828
319,Wilmington Drive,45140,39.2743897,-84.2887296
323,Wilmington Drive,45140,39.2745978,-84.2887165
330,Wilmington Drive,45140,39.2747443,-84.2881047
324,Wilmington Drive,45140,39.2745440,-84.2881662
318,Wilmington Drive,45140,39.2743399,-84.2881886
312,Wilmington Drive,45140,39.2741238,-84.2881940
307,Rutgers Court,45140,39.2740866,-84.2876403
313,Rutgers Court,45140,39.2743234,-84.2875680
319,Rutgers Court,45140,39.2743893,-84.2872803
318,Rutgers Court,45140,39.2742902,-84.2870118
312,Rutgers Court,45140,39.2741143,-84.2868044
306,Rutgers Court,45140,39.2739064,-84.2870645
1800,Heidelberg Drive,45140,39.2750815,-84.2903525
1806,Heidelberg Drive,45140,39.2752274,-84.2904524
1807,Heidelberg Drive,45140,39.2750962,-84.2909473
1813,Heidelberg Drive,45140,39.2752921,-84.2910907
1812,Heidelberg Drive,45140,39.2754231,-84.2905570
1818,Heidelberg Drive,45140,39.2755963,-84.2906931
1824,Heidelberg Drive,45140,39.2757107,-84.2909128
1830,Heidelberg Drive,45140,39.2757704,-84.2911557
1819,Heidelberg Drive,45140,39.2753458,-84.2913679
1825,Heidelberg Drive,45140,39.2754054,-84.2916230
1800,Lindenhall Drive,45140,39.2749024,-84.2908882
1831,Heidelberg Drive,45140,39.2754217,-84.2918661
1836,Heidelberg Drive,45140,39.2758149,-84.2914045
1842,Heidelberg Drive,45140,39.2758388,-84.2916721
1848,Heidelberg Drive,45140,39.2758774,-84.2919318
1854,Heidelberg Drive,45140,39.2759281,-84.2921599
1837,Heidelberg Drive,45140,39.2754881,-84.2921161
1843,Heidelberg Drive,45140,39.2754888,-84.2923526
1849,Heidelberg Drive,45140,39.2755544,-84.2925924
1855,Heidelberg Drive,45140,39.2755751,-84.2928410
1861,Heidelberg Drive,45140,39.2755941,-84.2931028
1866,Heidelberg Drive,45140,39.2760453,-84.2929156
1872,Heidelberg Drive,45140,39.2760548,-84.2931714
1878,Heidelberg Drive,45140,39.2760911,-84.2934238
1884,Heidelberg Drive,45140,39.2761295,-84.2937030
1867,Heidelberg Drive,45140,39.2756547,-84.2933201
1873,Heidelberg Drive,45140,39.2756777,-84.2935694
1890,Heidelberg Drive,45140,39.2761814,-84.2939380
1896,Heidelberg Drive,45140,39.2761880,-84.2942191
1902,Heidelberg Drive,45140,39.2762518,-84.2944804
1906,Heidelberg Drive,45140,39.2762588,-84.2947429
1914,Heidelberg Drive,45140,39.2762937,-84.2950020
1895,Heidelberg Drive,45140,39.2757804,-84.2943503
1901,Heidelberg Drive,45140,39.2758235,-84.2946766
1907,Heidelberg Drive,45140,39.2758606,-84.2950271
1913,Heidelberg Drive,45140,39.2759257,-84.2952971
1919,Heidelberg Drive,45140,39.2759427,-84.2955573
1925,Heidelberg Drive,45140,39.2759943,-84.2958112
1931,Heidelberg Drive,45140,39.2760133,-84.2960776
1937,Heidelberg Drive,45140,39.2760572,-84.2963443
1943,Heidelberg Drive,45140,39.2760710,-84.2966075
1949,Heidelberg Drive,45140,39.2761089,-84.2968652
1966,Heidelberg Drive,45140,39.2766603,-84.2975758
1960,Heidelberg Drive,45140,39.2766770,-84.2972961
1954,Heidelberg Drive,45140,39.2765874,-84.2970347
1948,Heidelberg Drive,45140,39.2765365,-84.2967754
1942,Heidelberg Drive,45140,39.2765184,-84.2965110
1936,Heidelberg Drive,45140,39.2764708,-84.2962581
1930,Heidelberg Drive,45140,39.2764471,-84.2959971
301,Thistlehill Drive,45140,39.2764301,-84.2957282
300,Thistlehill Drive,45140,39.2763793,-84.2952129
301,Heidelberg Drive,45140,39.2760064,-84.2926667
1901,Rollins Drive,45140,39.2756823,-84.2937994
1907,Rollins Drive,45140,39.2754122,-84.2939698
1913,Rollins Drive,45140,39.2752930,-84.2941920
1906,Rollins Drive,45140,39.2755600,-84.2946664
1912,Rollins Drive,45140,39.2754882,-84.2950350
1918,Rollins Drive,45140,39.2753919,-84.2952726
1919,Rollins Drive,45140,39.2751955,-84.2944212
1925,Rollins Drive,45140,39.2751236,-84.2946730
1931,Rollins Drive,45140,39.2749984,-84.2949086
1937,Rollins Drive,45140,39.2749869,-84.2951635
1924,Rollins Drive,45140,39.2752985,-84.2955413
1936,Rollins Drive,45140,39.2750858,-84.2963039
1949,Rollins Drive,45140,39.2746827,-84.2961510
1942,Rollins Drive,45140,39.2749556,-84.2967316
1948,Rollins Drive,45140,39.2748727,-84.2970018
1955,Rollins Drive,45140,39.2745940,-84.2964367
1961,Rollins Drive,45140,39.2744982,-84.2966810
1967,Rollins Drive,45140,39.2744596,-84.2969445
201,Rollins Drive,45140,39.2748838,-84.2979574
202,Rollins Drive,45140,39.2744924,-84.2979818
1,Tiger Trail,45140,39.2784849,-84.2758884
556,O’Bannonville Road,45140,39.2655423,-84.2449734
940,O’Bannonville Road,45140,39.2654941,-84.2424335
11400,Enyart Road,45140,39.2742626,-84.3056545
130,Cedarwoods Drive,45140,39.2554493,-84.2543081
166,Cedarwoods Drive,45140,39.2559010,-84.2529330
160,Cedarwoods Drive,45140,39.2556257,-84.2531815
119,Cedarwoods Drive,45140,39.2566294,-84.2528628
113,Cedarwoods Drive,45140,39.2566909,-84.2532463
172,Cedarwoods Drive,45140,39.2560836,-84.2526503
124,Tall Timber Drive,45140,39.2588491,-84.2554392
130,Tall Timber Drive,45140,39.2590357,-84.2557364
118,Tall Timber Drive,45140,39.2586923,-84.2551068
113,Tall Timber Drive,45140,39.2581732,-84.2554588
106,Ridgewood Drive,45140,39.2595257,-84.2562973
112,Ridgewood Drive,45140,39.2597703,-84.2560314
112,Tall Timber Drive,45140,39.2585278,-84.2547876
136,Tall Timber Drive,45140,39.2592358,-84.2560452
894,Oakland Road,45140,39.2589630,-84.2465789
136,Cedarwoods Drive,45140,39.2551023,-84.2542860
148,Cedarwoods Drive,45140,39.2550575,-84.2535573
154,Cedarwoods Drive,45140,39.2553516,-84.2534151
106,Cedarwoods Drive,45140,39.2561390,-84.2543852
142,Cedarwoods Drive,45140,39.2549205,-84.2538701
125,Cedarwoods Drive,45140,39.2563743,-84.2525818
95,Cedarwoods Drive,45140,39.2572198,-84.2542009
107,Ridgewood Drive,45140,39.2597136,-84.2569865
118,Ridgewood Drive,45140,39.2600362,-84.2559034
113,Ridgewood Drive,45140,39.2600381,-84.2567037
113,South 3rd Street,45140,39.2665447,-84.2560884
119,Tall Timber Drive,45140,39.2583382,-84.2557748
125,Tall Timber Drive,45140,39.2584731,-84.2560706
131,Tall Timber Drive,45140,39.2586281,-84.2563611
137,Tall Timber Drive,45140,39.2588964,-84.2567940
173,Tall Timber Drive,45140,39.2601472,-84.2572995
130,Ridgewood Drive,45140,39.2605468,-84.2556741
124,Ridgewood Drive,45140,39.2602586,-84.2556857
101,South 3rd Street,45140,39.2667851,-84.2555830
110 S,West Loveland Avenue,45140,39.2672184,-84.2574307
167,Tall Timber Drive,45140,39.2598793,-84.2574743
1271,Ridgewood Drive,45140,39.2585364,-84.2588060
107,Tall Timber Drive,45140,39.2579855,-84.2551616
106,Tall Timber Drive,45140,39.2583518,-84.2545052
100,Ravinewood Terrace,45140,39.2646356,-84.2992829
201,Oneida Drive,45140,39.2696499,-84.2750784
204,West Loveland Avenue,45140,39.2682142,-84.2587762
1919,West Loveland Avenue,45140,39.2674753,-84.2958198
161,Tall Timber Drive,45140,39.2596189,-84.2577574
1277,Ridgewood Drive,45140,39.2588261,-84.2577027
1273,Ridgewood Drive,45140,39.2586220,-84.2584693
101,Ash Street,45140,39.2604410,-84.2602381
110;112;114;116,East Broadway Street,45140,39.2664355,-84.2587662
"120,122,124,126",East Broadway Street,45140,39.2666076,-84.2586292
113,Karl Brown Way,45140,39.2678642,-84.2596402
224,1st Street,45140,39.2696028,-84.2568716
872,Cedar Drive,45140,39.2577217,-84.2546651
863,Cedar Drive,45140,39.2563533,-84.2549810
897,Loveland Madeira Road,45140,39.2599187,-84.2725454
700,Loveland Madeira Road,45140,39.2622852,-84.2717111
136,Walnut Street,45140,39.2610617,-84.2548239
1014,O’Bannonville Road,45140,39.2617450,-84.2371972
106,West Loveland Avenue,45140,39.2677939,-84.2569761
10980,Loveland–Madeira Road,45140,39.2552261,-84.2824138
12050,Montgomery Road,45140,39.2866698,-84.3035125
101;1561,South Lebanon Road;West Loveland Avenue,45140,39.2710137,-84.2833892
