House number,Street name,Postal code,Latitude,Longitude
755,East Aurora Road,44056,41.3142119,-81.5117863
8282,Lakeview Drive,44056,41.3110755,-81.5117693
785,Hollow Wood Drive,44056,41.3095321,-81.5114030
8210,Macedonia Commons Boulevard,44056,41.3129745,-81.5179377
265,East Highland Road,44056,41.2998038,-81.5167305
957,Aurora Road,44056,41.3149158,-81.5037844
463,East Aurora Road,44056,41.3143959,-81.5219294
463,East Aurora Road,44056,41.3144042,-81.5217557
545,East Aurora Road,44056,41.3143327,-81.5193325
663,East Aurora Road,44056,41.3145950,-81.5155090
1021,East Aurora Road,44056,41.3141899,-81.5021376
755,East Aurora Road,44056,41.3144488,-81.5117922
265,East Highland Road,44056,41.2998327,-81.5162641
317,Highland Road East,44056,41.2995733,-81.5134632
317,Highland Road East,44056,41.2994312,-81.5135705
1011,East Aurora Road,44056,41.3141473,-81.5030279
8210,Macedonia Commons Boulevard,44056,41.3107445,-81.5189753
8210,Macedonia Commons Boulevard,44056,41.3109577,-81.5189519
8210,Macedonia Commons Boulevard,44056,41.3114357,-81.5189377
8210,Macedonia Commons Boulevard,44056,41.3115487,-81.5189112
8210,Macedonia Commons Boulevard,44056,41.3116425,-81.5187689
8210,Macedonia Commons Boulevard,44056,41.3117175,-81.5186552
8210,Macedonia Commons Boulevard,44056,41.3119124,-81.5183868
8210,Macedonia Commons Boulevard,44056,41.3120317,-81.5183518
8210,Macedonia Commons Boulevard,44056,41.3121162,-81.5182271
8210,Macedonia Commons Boulevard,44056,41.3121882,-81.5179367
8210,Macedonia Commons Boulevard,44056,41.3122861,-81.5177951
8210,Macedonia Commons Boulevard,44056,41.3123507,-81.5176943
8210,Macedonia Commons Boulevard,44056,41.3124508,-81.5177043
8210,Macedonia Commons Boulevard,44056,41.3125803,-81.5178104
8210,Macedonia Commons Boulevard,44056,41.3133841,-81.5176402
8210,Macedonia Commons Boulevard,44056,41.3133871,-81.5177655
8210,Macedonia Commons Boulevard,44056,41.3133889,-81.5178628
8210,Macedonia Commons Boulevard,44056,41.3133884,-81.5179742
8210,Macedonia Commons Boulevard,44056,41.3133913,-81.5180603
8210,Macedonia Commons Boulevard,44056,41.3133912,-81.5181435
8210,Macedonia Commons Boulevard,44056,41.3133913,-81.5182531
8210,Macedonia Commons Boulevard,44056,41.3133939,-81.5183627
470,East Aurora Road,44056,41.3134732,-81.5216718
524,East Aurora Road,44056,41.3135761,-81.5200779
500,East Aurora Road,44056,41.3125389,-81.5204601
500,East Aurora Road,44056,41.3125333,-81.5195523
500,East Aurora Road,44056,41.3125313,-81.5191443
8160,Macedonia Commons Boulevard,44056,41.3098954,-81.5194138
8211,Macedonia Commons Boulevard,44056,41.3115602,-81.5152097
8100,Macedonia Commons Boulevard,44056,41.3080430,-81.5186217
500,East Aurora Road,44056,41.3125626,-81.5205553
500,East Aurora Road,44056,41.3125491,-81.5195497
371,East Aurora Road,44067,41.3149780,-81.5252531
8213,Golden Link Boulevard,44067,41.3134264,-81.5234923
8195,Golden Link Boulevard,44067,41.3125263,-81.5230725
470,East Aurora Road,44056,41.3135061,-81.5217476
8555,Primrose Lane,44056,41.3267821,-81.5217209
7820,Capital Boulevard,44056,41.2979526,-81.5135222
307,Highland Road East,44056,41.2995100,-81.5145202
440,East Highland Road,44056,41.2987126,-81.5094742
1511,East Aurora Road,44087,41.3135891,-81.4823490
524,East Aurora Road,44056,41.3135866,-81.5201157
660,East Aurora Road,44056,41.3135161,-81.5148519
557,Aurora Road,44056,41.3142929,-81.5187671
683,East Aurora Road,44056,41.3143234,-81.5144030
663,East Aurora Road,44056,41.3144600,-81.5154010
6876,Macedonia Commons Boulevard,44056,41.3072581,-81.5170753
6400,Macedonia Commons Boulevard,44067,41.3059626,-81.5179227
8650,Lawton Drive,44056,41.3197732,-81.5071904
8210,Macedonia Commons Boulevard,44056,41.3107560,-81.5189679
6792,West Sherri Drive,44056,41.3162082,-81.4945154
268,East Highland Road,44056,41.2988420,-81.5169072
8210,Macedonia Commons Boulevard,44056,41.3108965,-81.5189687
8210,Macedonia Commons Boulevard,44056,41.3109625,-81.5189063
8210,Macedonia Commons Boulevard,44056,41.3110476,-81.5189388
8210,Macedonia Commons Boulevard,44056,41.3112586,-81.5190794
8210,Macedonia Commons Boulevard,44056,41.3114446,-81.5189120
8210,Macedonia Commons Boulevard,44056,41.3115846,-81.5188721
8210,Macedonia Commons Boulevard,44056,41.3116431,-81.5187580
8210,Macedonia Commons Boulevard,44056,41.3117240,-81.5186546
8210,Macedonia Commons Boulevard,44056,41.3118280,-81.5185048
8210,Macedonia Commons Boulevard,44056,41.3119161,-81.5183794
8210,Macedonia Commons Boulevard,44056,41.3120603,-81.5183815
8210,Macedonia Commons Boulevard,44056,41.3121483,-81.5182367
8210,Macedonia Commons Boulevard,44056,41.3122020,-81.5179717
8210,Macedonia Commons Boulevard,44056,41.3123008,-81.5178000
8210,Macedonia Commons Boulevard,44056,41.3123417,-81.5176916
8210,Macedonia Commons Boulevard,44056,41.3124606,-81.5176877
8210,Macedonia Commons Boulevard,44056,41.3125899,-81.5177774
8210,Macedonia Commons Boulevard,44056,41.3130001,-81.5180050
8210,Macedonia Commons Boulevard,44056,41.3133998,-81.5176125
8210,Macedonia Commons Boulevard,44056,41.3134000,-81.5177702
8210,Macedonia Commons Boulevard,44056,41.3134008,-81.5178685
8210,Macedonia Commons Boulevard,44056,41.3134025,-81.5179791
8210,Macedonia Commons Boulevard,44056,41.3134035,-81.5180611
8210,Macedonia Commons Boulevard,44056,41.3134046,-81.5181486
8210,Macedonia Commons Boulevard,44056,41.3134060,-81.5182518
8210,Macedonia Commons Boulevard,44056,41.3134105,-81.5183777
8143,Golden Link Boulevard,44056,41.3114680,-81.5224963
500,East Aurora Road,44056,41.3125907,-81.5191393
240,East Highland Road,44056,41.2983368,-81.5168014
9691,Valley View Road,44056,41.3117620,-81.5039402
