House number,Street name,Postal code,Latitude,Longitude
702,Main Street,45150,39.1771764,-84.2863932
991,Lila Avenue,45150,39.1748087,-84.2761362
985,Lila Avenue,45150,39.1750531,-84.2769553
790,North Main Street,45150,39.1773835,-84.2811935
226,Main Street,45150,39.1746801,-84.2952027
204,Chamber Drive,45150,39.1604251,-84.2773539
200,Chamber Drive,45150,39.1605274,-84.2774775
19,Water Street,45150,39.1725456,-84.2974693
759,US 50,45150,39.1686489,-84.2671768
761,US 50,45150,39.1686368,-84.2671366
763,US 50,45150,39.1686209,-84.2670688
765,US 50,45150,39.1686031,-84.2669909
767,US 50,45150,39.1685826,-84.2669238
769,US 50,45150,39.1685645,-84.2668538
771,US 50,45150,39.1685453,-84.2667842
773,US 50,45150,39.1685263,-84.2667099
409,Garfield Avenue,45150,39.1728375,-84.2949896
578,Main Street,45150,39.1763694,-84.2891874
578,Main Street,45150,39.1763779,-84.2891394
710,Lila Avenue,45150,39.1765470,-84.2865025
1020,Main Street,45150,39.1804109,-84.2762120
814,Main Street,45150,39.1768208,-84.2809554
822,Main Street,45150,39.1765735,-84.2808516
790,Main Street,45150,39.1774821,-84.2812329
1005,Lila Avenue,45150,39.1746077,-84.2745134
1003,Lila Avenue,45150,39.1744827,-84.2749498
1001,Lila Avenue,45150,39.1745929,-84.2753779
999,Lila Avenue,45150,39.1746688,-84.2755850
997,Lila Avenue,45150,39.1747066,-84.2757168
989,Lila Avenue,45150,39.1749901,-84.2765828
989,Lila Avenue,45150,39.1750130,-84.2767618
2,Crestview Drive,45150,39.1803844,-84.2761717
820,Main Street,45150,39.1766197,-84.2808711
818,Main Street,45150,39.1767034,-84.2809061
816,Main Street,45150,39.1767623,-84.2809309
810,Main Street,45150,39.1768750,-84.2809781
808,Main Street,45150,39.1769340,-84.2810029
804,Main Street,45150,39.1770382,-84.2810466
800,Main Street,45150,39.1771342,-84.2810869
798,Main Street,45150,39.1772159,-84.2811212
796,Main Street,45150,39.1772871,-84.2811511
794,Main Street,45150,39.1774024,-84.2811983
792,Main Street,45150,39.1774542,-84.2812212
951,Lila Avenue,45150,39.1751808,-84.2783460
973,Lila Avenue,45150,39.1751465,-84.2775055
967,Lila Avenue,45150,39.1751739,-84.2776698
953,Lila Avenue,45150,39.1751737,-84.2782511
955,Lila Avenue,45150,39.1751677,-84.2781545
957,Lila Avenue,45150,39.1751687,-84.2780605
959,Lila Avenue,45150,39.1751648,-84.2780058
963,Lila Avenue,45150,39.1751595,-84.2779193
965,Lila Avenue,45150,39.1751491,-84.2778220
975,Lila Avenue,45150,39.1751324,-84.2774395
977,Lila Avenue,45150,39.1751260,-84.2773923
979,Lila Avenue,45150,39.1751104,-84.2772993
981,Lila Avenue,45150,39.1750924,-84.2771818
983,Lila Avenue,45150,39.1750698,-84.2770500
993,Lila Avenue,45150,39.1747703,-84.2759477
995,Lila Avenue,45150,39.1747396,-84.2758366
1007,Lila Avenue,45150,39.1744316,-84.2748200
1009,Lila Avenue,45150,39.1744091,-84.2747363
1011,Lila Avenue,45150,39.1743873,-84.2746561
1013,Lila Avenue,45150,39.1743683,-84.2745760
707,State Route 28,45150,39.1837170,-84.2666697
707,State Route 28,45150,39.1831873,-84.2667035
707,State Route 28,45150,39.1828637,-84.2668365
707,State Route 28,45150,39.1828643,-84.2670615
707,State Route 28,45150,39.1831881,-84.2669179
707,State Route 28,45150,39.1838077,-84.2668603
707,State Route 28,45150,39.1838374,-84.2673108
707,State Route 28,45150,39.1836265,-84.2672979
707,State Route 28,45150,39.1834823,-84.2662547
707,State Route 28,45150,39.1825754,-84.2665207
707,State Route 28,45150,39.1824971,-84.2665867
707,State Route 28,45150,39.1823934,-84.2667097
707,State Route 28,45150,39.1833154,-84.2673762
707,State Route 28,45150,39.1832052,-84.2673943
707,State Route 28,45150,39.1822306,-84.2691115
707,State Route 28,45150,39.1825342,-84.2689570
707,State Route 28,45150,39.1822988,-84.2694479
707,State Route 28,45150,39.1820787,-84.2686214
707,State Route 28,45150,39.1821195,-84.2681254
707,State Route 28,45150,39.1817661,-84.2690589
1015,Lila Avenue,45150,39.1743504,-84.2744984
1126,Main Street,45150,39.1819393,-84.2729240
1151,Main Street,45150,39.1826356,-84.2735823
1147,Main Street,45150,39.1826011,-84.2736537
1145,Main Street,45150,39.1825556,-84.2737483
1143,Main Street,45150,39.1825280,-84.2738054
1141,Main Street,45150,39.1824914,-84.2738814
1137,Main Street,45150,39.1824364,-84.2739954
1135,Main Street,45150,39.1824146,-84.2740408
1133,Main Street,45150,39.1823835,-84.2741053
1131,Main Street,45150,39.1823587,-84.2741567
1129,Main Street,45150,39.1823223,-84.2742323
1127,Main Street,45150,39.1822944,-84.2742902
1125,Main Street,45150,39.1822716,-84.2743375
1123,Main Street,45150,39.1822338,-84.2744158
1117,Main Street,45150,39.1821659,-84.2745567
1121,Main Street,45150,39.1822130,-84.2744590
1139,Main Street,45150,39.1824679,-84.2739303
223,Main Street,45150,39.1744709,-84.2956783
215,Main Street,45150,39.1742763,-84.2957510
207,Main Street,45150,39.1740778,-84.2958432
220,Main Street,45150,39.1744922,-84.2952766
126,Main Street,45150,39.1735782,-84.2956470
104,Main Street,45150,39.1729771,-84.2959769
102,Main Street,45150,39.1729384,-84.2959938
137,Main Street,45150,39.1737896,-84.2959390
137,Main Street,45150,39.1737621,-84.2959500
115,Main Street,45150,39.1732987,-84.2962120
107,Main Street,45150,39.1731523,-84.2962887
107,Main Street,45150,39.1731289,-84.2963002
10,Main Street,45150,39.1719807,-84.2964033
8,Main Street,45150,39.1719403,-84.2964212
6,Main Street,45150,39.1720837,-84.2963809
4,Main Street,45150,39.1720085,-84.2964144
210,Locust Street,45150,39.1747407,-84.2956544
200,Locust Street,45150,39.1749114,-84.2960129
228,Water Street,45150,39.1748633,-84.2960111
103,High Street,45150,39.1727939,-84.2956668
305,Garfield Avenue,45150,39.1728392,-84.2958513
209,Elm Street,45150,39.1739779,-84.2959664
210,Elm Street,45150,39.1738172,-84.2960641
208,Elm Street,45150,39.1738357,-84.2961299
233,Main Street,45150,39.1747087,-84.2955397
204,Main Street,45150,39.1739184,-84.2955189
3,Main Street,45150,39.1721182,-84.2967080
209,Main Street,45150,39.1741136,-84.2958293
206,Elm Street,45150,39.1738473,-84.2961771
215,Main Street,45150,39.1742528,-84.2957591
2,Main Street,45150,39.1718842,-84.2964777
101,High Street,45150,39.1728128,-84.2957380
120,Main Street,45150,39.1734486,-84.2956632
122,Main Street,45150,39.1734898,-84.2956415
124,Main Street,45150,39.1735476,-84.2956630
202,Main Street,45150,39.1738972,-84.2955279
205,Main Street,45150,39.1740559,-84.2958546
217,Main Street,45150,39.1743028,-84.2957074
218,Main Street,45150,39.1744608,-84.2952923
223,Main Street,45150,39.1743954,-84.2957235
226,Main Street,45150,39.1746670,-84.2951548
235,Main Street,45150,39.1747820,-84.2955174
202,Locust Street,45150,39.1748954,-84.2959588
819,Main Street,45150,39.1782559,-84.2821928
815,Main Street,45150,39.1781094,-84.2824526
813,Main Street,45150,39.1780079,-84.2828202
807,Main Street,45150,39.1779480,-84.2829009
401,Milford Parkway,45150,39.1678750,-84.2782110
5341,South Milford Road,45150,39.1577243,-84.2953553
100,Rivers Edge,45150,39.1627524,-84.2750094
500,Rivers Edge Drive,45150,39.1634854,-84.2703750
475,Rivers Edge Drive,45150,39.1621138,-84.2696477
440,Milford Parkway,45150,39.1676155,-84.2751461
301,Milford Parkway,45150,39.1689336,-84.2753886
300,Milford Parkway,45150,39.1678603,-84.2739766
201,Milford Parkway,45150,39.1691718,-84.2741849
691,US 50,45150,39.1704492,-84.2719598
755,US 50,45150,39.1690286,-84.2688783
687,U.S. Route 50,45140,39.1718970,-84.2734806
301,Old Bank Road,45150,39.1840047,-84.2655261
824,Main Street,45150,39.1761169,-84.2805523
825,Main Street,45150,39.1785238,-84.2815457
5330,South Milford Road,45140,39.1589125,-84.2918006
5363,South Milford Road,45150,39.1636740,-84.2980354
5365,South Milford Road,45150,39.1638301,-84.2973283
5367,South Milford Road,45150,39.1645702,-84.2982691
5361,South Milford Road,45150,39.1606915,-84.2982462
203,Mound Street,45150,39.1642559,-84.2965443
201,Mounta Avenue;Mound Street,45150,39.1644566,-84.2947932
910,Lila Avenue,45150,39.1736545,-84.2821500
605,Brooklyn Avenue,45150,39.1827332,-84.2749276
200,Castleberry Court,45150,39.1838163,-84.2735273
100,Castleberry Court,45150,39.1834932,-84.2719881
151,Castleberry Court,45150,39.1846742,-84.2721829
731,State Route 28,45150,39.1831465,-84.2693074
749,State Route 28,45150,39.1834996,-84.2683773
201,Castleberry Court,45150,39.1847365,-84.2741141
525,Beech Street,45150,39.1771832,-84.2907574
636,Main Street,45150,39.1766849,-84.2872589
632,Main Street,45150,39.1765790,-84.2874247
626,Main Street,45150,39.1765547,-84.2876129
622,Main Street,45150,39.1765460,-84.2877676
604,Main Street,45150,39.1764250,-84.2883014
906,Main Street,45150,39.1770848,-84.2795114
701,Chamber Drive,45150,39.1568939,-84.2715018
575,Chamber Drive,45150,39.1575203,-84.2736698
553,Chamber Drive,45150,39.1575213,-84.2745508
555,Main Street,45150,39.1766988,-84.2900278
541,Main Street,45150,39.1768302,-84.2909451
729,Lila Avenue,45150,39.1767410,-84.2855744
740,Main Street,45150,39.1769842,-84.2847179
750,Main Street,45150,39.1769877,-84.2841853
760,Main Street,45150,39.1769928,-84.2833041
782,Main Street,45150,39.1771149,-84.2830438
865,Lila Avenue,45150,39.1766962,-84.2827513
861,Lila Avenue,45150,39.1764710,-84.2827634
735,Lila Avenue,45150,39.1764265,-84.2843185
745,Center Street,45150,39.1774869,-84.2869232
779,US 50,45150,39.1682564,-84.2670224
200,Olympic Drive,45150,39.1693894,-84.2640290
932,Lila Avenue,45150,39.1739997,-84.2791737
791,US 50,45150,39.1679845,-84.2657288
809,US 50,45150,39.1668755,-84.2647477
921,Lila Avenue,45150,39.1753447,-84.2799759
803,US 50,45150,39.1671965,-84.2636318
100,Olympic Drive,45150,39.1690072,-84.2655575
805,US 50,45150,39.1671912,-84.2666768
930,Lila Avenue,45150,39.1739292,-84.2798959
950,Lila Avenue,45150,39.1740492,-84.2785432
821,US 50,45150,39.1664284,-84.2635326
805,US 50,45150,39.1676251,-84.2660733
600,Chamber Drive,45150,39.1587831,-84.2725962
201,Chamber Drive,45150,39.1593091,-84.2802344
45,Rivers Edge Drive,45150,39.1609866,-84.2758868
100,Chamber Drive,45150,39.1609239,-84.2776336
245,Rivers Edge Drive,45150,39.1605099,-84.2731135
1140,State Route 28,45150,39.1821536,-84.2720646
730,Lila Avenue,45150,39.1761384,-84.2852926
737,US 50,45150,39.1689236,-84.2697693
731,US 50,45150,39.1694866,-84.2699267
85,Rivers Edge Drive,45150,39.1600747,-84.2752177
75,Rivers Edge,45150,39.1604565,-84.2755411
590,Chamber Drive,45150,39.1585906,-84.2736643
505,Chamber Drive,45150,39.1575734,-84.2753284
793,US 50,45150,39.1682047,-84.2653625
795,US 50,45150,39.1680356,-84.2650450
785,US 50,45150,39.1685110,-84.2663534
820,US 50,45150,39.1667791,-84.2620099
914,Lila Avenue,45150,39.1748121,-84.2810394
2100,Oak Brook Place,45150,39.1837255,-84.2778849
8,Kenny Court,45150,39.1748338,-84.2834486
901,Edgecombe Road,45150,39.1812585,-84.2715788
900,Valley Brook Drive,45150,39.1801482,-84.2791533
37-48,Concord Woods Drive,45150,39.1833036,-84.2770486
741,Main Street,45150,39.1774413,-84.2851451
838,Lila Avenue,45150,39.1752405,-84.2820023
716,Main Street,45150,39.1768599,-84.2858130
401,Edgecombe Road,45150,39.1813925,-84.2707570
755,State Route 28,45150,39.1839375,-84.2677973
30,Susan Circle,45150,39.1753389,-84.2853284
6,Robbie Ridge,45150,39.1754382,-84.2843389
744,State Route 28,45150,39.1846953,-84.2688900
1039,Main Street,45150,39.1812169,-84.2762595
301,Edgecombe Road,45150,39.1816923,-84.2703844
201,Old Bank Road,45150,39.1842368,-84.2660340
600,Valley Brook Drive,45150,39.1797189,-84.2792135
100,Doublegate Drive,45150,39.1736417,-84.2697310
1004,Main Street,45150,39.1798555,-84.2769440
1101,Edgecombe Road,45150,39.1809140,-84.2709185
501,Edgecombe Road,45150,39.1819586,-84.2709311
400,Valley Brook Drive,45150,39.1792710,-84.2794457
714,Lila Avenue,45150,39.1764654,-84.2862057
741,Lila Avenue,45150,39.1762380,-84.2834810
916,Lila Avenue,45150,39.1748748,-84.2806808
726,Lila Avenue,45150,39.1762618,-84.2857341
1059,Main Street,45150,39.1816514,-84.2753400
1099,Main Street,45150,39.1817339,-84.2747155
200,Valley Brook Drive,45150,39.1786976,-84.2797482
818,Walnut Street,45150,39.1779955,-84.2834512
10,Robbie Ridge,45150,39.1752824,-84.2843932
601,Edgecombe Road,45150,39.1816553,-84.2711063
205,Castleberry Court,45150,39.1839225,-84.2739831
500,Valley Brook Drive,45150,39.1794141,-84.2791152
1106,Main Street,45150,39.1809634,-84.2743387
900,Main Street,45150,39.1776615,-84.2802356
702,Main Street,45150,39.1773559,-84.2861067
1049,Main Street,45150,39.1814109,-84.2758441
800,Valley Brook Drive,45150,39.1800382,-84.2788546
813,Main Street,45150,39.1779817,-84.2828904
801,Edgecombe Road,45150,39.1814586,-84.2719420
150,Gateway Drive,45150,39.1741527,-84.2701646
5,Robbie Ridge,45150,39.1753401,-84.2835714
700,Valley Brook Drive,45150,39.1798321,-84.2786552
1001,Edgecombe Road,45150,39.1811691,-84.2714284
11,Robbie Ridge,45150,39.1748648,-84.2838750
20,Susan Circle,45150,39.1752368,-84.2849747
101,Edgecombe Road,45150,39.1811026,-84.2704124
905,Main Street,45150,39.1783184,-84.2803279
26,Susan Circle,45150,39.1755558,-84.2848248
25-36,Concord Woods Drive,45150,39.1836090,-84.2771776
201,Edgecombe Road,45150,39.1814455,-84.2698816
100,Postoak Lane,45150,39.1742675,-84.2688985
1800,Oak Brook Place,45150,39.1836958,-84.2796273
527,Baker Drive,45150,39.1765235,-84.2835619
100,Valley Brook Drive,45150,39.1785495,-84.2799401
805,Walnut Street,45150,39.1775475,-84.2846685
701,Edgecombe Road,45150,39.1817550,-84.2712846
151,Old Bank Road,45150,39.1848639,-84.2657689
250,Postoak Lane,45150,39.1747871,-84.2688327
1900,Oak Brook Place,45150,39.1837892,-84.2790440
732,Lila Avenue,45150,39.1759637,-84.2848300
748,State Route 28,45150,39.1856639,-84.2694176
300,Valley Brook Drive,45150,39.1790069,-84.2794330
800,Lila Avenue,45150,39.1746231,-84.2830032
10,Susan Circle,45150,39.1750494,-84.2846337
746,State Route 28,45150,39.1853720,-84.2697199
777,Main Street,45150,39.1775748,-84.2835818
751,Main Street,45150,39.1775790,-84.2838402
734,Main Street,45150,39.1768742,-84.2852348
101,Old Bank Road,45150,39.1844048,-84.2667759
840,Garfield Avenue,45150,39.1699457,-84.2850172
250,Chamber Drive,45150,39.1595777,-84.2767575
603,Brooklyn Avenue,45150,39.1828743,-84.2745643
601,Brooklyn Avenue,45150,39.1831086,-84.2741393
300,Chamber Drive,45150,39.1592426,-84.2760530
960,Lila Avenue,45150,39.1735894,-84.2780181
970,Lila Avenue,45150,39.1734778,-84.2777904
1025,Lila Avenue,45150,39.1737498,-84.2745595
789,US 50,45150,39.1682646,-84.2661064
"3101-3110,3201-3210,3301-3310,3401-3409",Water Street,45150,39.1730851,-84.2977913
137,Water Street,45150,39.1739194,-84.2968676
731,Lila Avenue,45150,39.1767303,-84.2851364
453,Main Street,45150,39.1769376,-84.2930932
439,Main Street,45150,39.1766820,-84.2939375
427,Main Street,45150,39.1763878,-84.2946783
314,Chamber Drive,45150,39.1590558,-84.2757156
5,Glendale Milford Road,45150,39.1718411,-84.2996569
768,US 50,45150,39.1696425,-84.2666550
801,Lila Avenue,45150,39.1759647,-84.2827681
300,Main Street,45150,39.1749146,-84.2949044
25,Main Street,45150,39.1727265,-84.2964920
203,Mill Street,45150,39.1723048,-84.2971084
3,High Street,45150,39.1718130,-84.2961246
220,Mill Street,45150,39.1717532,-84.2969170
29,High Street,45150,39.1725507,-84.2958235
32,Main Street,45150,39.1726586,-84.2961066
24,Main Street,45150,39.1725568,-84.2961698
18,Main Street,45150,39.1722535,-84.2962582
131,Main Street,45150,39.1736524,-84.2960584
137,Main Street,45150,39.1737537,-84.2959932
202,Elm Street,45150,39.1738651,-84.2963965
130,Water Street,45150,39.1738833,-84.2964889
127,Main Street,45150,39.1735786,-84.2960873
125,Main Street,45150,39.1735218,-84.2961929
123,Main Street,45150,39.1734602,-84.2962297
109,Main Street,45150,39.1731411,-84.2963377
211,Garfield Avenue,45150,39.1731209,-84.2966414
101,Main Street,45150,39.1730161,-84.2963872
405,Garfield Avenue,45150,39.1728806,-84.2952338
301,Main Street,45150,39.1750975,-84.2954859
311,Water Street,45150,39.1755711,-84.2959332
318,Water Street,45150,39.1755812,-84.2955453
317,Main Street,45150,39.1754586,-84.2953003
313,Main Street,45150,39.1753966,-84.2954377
320,Victor Stier Drive,45150,39.1763031,-84.2951143
450,Victor Stier Drive,45150,39.1769982,-84.2952245
201,High Street,45150,39.1737978,-84.2952534
231,High Street,45150,39.1744612,-84.2948950
212,Main Street,45150,39.1741965,-84.2953873
312,Main Street,45150,39.1752618,-84.2948363
310,Main Street,45150,39.1751922,-84.2949198
133,High Street,45150,39.1735956,-84.2953404
110,Main Street,45150,39.1731049,-84.2959070
114,Main Street,45150,39.1731870,-84.2958709
116,Main Street,45150,39.1732399,-84.2957752
118,Main Street,45150,39.1733342,-84.2956865
128,Main Street,45150,39.1736571,-84.2956031
211,Main Street,45150,39.1741564,-84.2958507
203,Main Street,45150,39.1740121,-84.2959020
201,Main Street,45150,39.1739747,-84.2959555
18,Locust Street,45150,39.1749490,-84.2971947
222,Polk Street,45150,39.1750560,-84.2966301
227,Water Street,45150,39.1749181,-84.2964312
208,Locust Street,45150,39.1747755,-84.2957435
231,Main Street,45150,39.1746566,-84.2956418
227,Main Street,45150,39.1745544,-84.2956626
218,Water Street,45150,39.1746148,-84.2961935
222,Water Street,45150,39.1746911,-84.2961257
224,Water Street,45150,39.1747762,-84.2960899
204,Locust Street,45150,39.1748594,-84.2958450
313,Polk Street,45150,39.1756533,-84.2966788
217,Cash Street,45150,39.1748221,-84.2979605
10,Elm Street,45150,39.1743121,-84.2979497
14,Elm Street,45150,39.1741777,-84.2977331
19,Water Street,45150,39.1725379,-84.2975299
425,Victor Stier Drive,45150,39.1764593,-84.2954731
208,Mill Street,45150,39.1717990,-84.2976221
32,Water Street,45150,39.1726167,-84.2969041
107,Race Street,45150,39.1774565,-84.2932586
101,Race Street,45150,39.1772635,-84.2929551
511,Main Street,45150,39.1767644,-84.2926532
741,US 50,45150,39.1683762,-84.2697187
745,US 50,45150,39.1679650,-84.2689514
850,Garfield Avenue,45150,39.1699806,-84.2852159
951,Chamber Drive,45150,39.1554183,-84.2690329
560,Main Street,45150,39.1757702,-84.2898787
506,Main Street,45150,39.1761489,-84.2925867
502,Main Street,45150,39.1764102,-84.2928540
442,High Street,45150,39.1761514,-84.2931120
436,High Street,45150,39.1760072,-84.2932205
424,High Street,45150,39.1757511,-84.2934558
416,High Street,45150,39.1756438,-84.2937848
320,High Street,45150,39.1750097,-84.2940641
324,High Street,45150,39.1752380,-84.2942574
406,High Street,45150,39.1754160,-84.2940026
412,High Street,45150,39.1755705,-84.2938349
423,High Street,45150,39.1758887,-84.2939560
444,Main Street,45150,39.1763874,-84.2932949
440,Main Street,45150,39.1762748,-84.2936293
438,Main Street,45150,39.1761282,-84.2939171
420,Main Street,45150,39.1760221,-84.2942836
424,Main Street,45150,39.1761007,-84.2941205
414,Main Street,45150,39.1758741,-84.2943690
412,Main Street,45150,39.1757634,-84.2944628
406,Main Street,45150,39.1756636,-84.2946048
400,Main Street,45150,39.1755146,-84.2947204
14,Locust Street,45150,39.1752664,-84.2974013
214,Cash Street,45150,39.1748671,-84.2976373
25,Elm Street,45150,39.1743850,-84.2972824
19,Elm Street,45150,39.1744420,-84.2974246
103,Elm Street,45150,39.1743739,-84.2969179
101,Elm Street,45150,39.1743932,-84.2969909
"5101-5110,5201-5210,5301-5310,5401-5409",Water Street,45150,39.1736259,-84.2979822
435,Main Street,45150,39.1764735,-84.2941194
411,Main Street,45150,39.1759175,-84.2950142
443,Club Drive,45150,39.1594424,-84.2986315
5341,South Milford Road,45150,39.1575204,-84.2928564
228,Mill Street,45150,39.1716484,-84.2965442
1,Main Street,45150,39.1721074,-84.2967256
5,Main Street,45150,39.1722267,-84.2966695
27,Water Street,45150,39.1726417,-84.2974609
16,Main Street,45150,39.1721584,-84.2962644
100,Main Street,45150,39.1728669,-84.2959438
106,Main Street,45150,39.1730114,-84.2958678
111,Main Street,45150,39.1732704,-84.2963182
119,Main Street,45150,39.1733823,-84.2961871
117,Main Street,45150,39.1733481,-84.2962933
135,Main Street,45150,39.1737207,-84.2960110
137,Main Street,45150,39.1737813,-84.2959699
122,Water Street,45150,39.1736633,-84.2965630
35,Cleveland Avenue,45150,39.1702469,-84.2938319
707,US-50,45150,39.1693854,-84.2709300
210,Elm Street,45150,39.1738261,-84.2961186
790,Garfield Avenue,45150,39.1686201,-84.2871156
780,Garfield Avenue,45150,39.1683356,-84.2881127
548,Round Bottom Road,45150,39.1574836,-84.2868944
220,Chamber Drive,45150,39.1599652,-84.2768952
401,Chamber Drive,45150,39.1579253,-84.2763839
401,Rivers Edge Drive,45150,39.1612425,-84.2703332
544,Round Bottom Road,45150,39.1560735,-84.2872768
630,Round Bottom Road,45150,39.1571278,-84.2835613
121,Mound Avenue,45150,39.1684372,-84.2945499
21,Cleveland Avenue,45150,39.1706399,-84.2939703
204,Laurel Avenue,45150,39.1680559,-84.2907441
145,Laurel Avenue,45150,39.1683474,-84.2915013
12,High Street,45150,39.1719976,-84.2955815
25,Laurel Avenue,45150,39.1708409,-84.2925532
141,Gatch Street,45150,39.1695180,-84.2904061
102,Laurel Avenue,45150,39.1698961,-84.2915388
119,Laurel Avenue,45150,39.1692534,-84.2918643
5,Laurel Avenue,45150,39.1714642,-84.2927216
520,Garfield Avenue,45150,39.1718166,-84.2932517
30,Laurel Avenue,45150,39.1703582,-84.2917602
117,Mound Avenue,45150,39.1685803,-84.2945548
32,Cleveland Avenue,45150,39.1704759,-84.2933258
129,Mound Avenue,45150,39.1681928,-84.2943722
103,Mound Avenue,45150,39.1690999,-84.2947789
42,Cleveland Avenue,45150,39.1701728,-84.2931593
34,Mound Avenue,45150,39.1705909,-84.2948449
110,Mound Avenue,45150,39.1689322,-84.2941852
111,Gatch Street,45150,39.1702072,-84.2904566
121,Laurel Avenue,45150,39.1691384,-84.2918185
132,Mound Avenue,45150,39.1683917,-84.2939757
145,Gatch Street,45150,39.1693976,-84.2903910
105,Cleveland Avenue,45150,39.1693392,-84.2934505
508,Garfield Avenue,45150,39.1719490,-84.2936821
35,Mound Avenue,45150,39.1703474,-84.2953504
8,Cleveland Avenue,45150,39.1711543,-84.2935574
26,Laurel Avenue,45150,39.1705003,-84.2918165
210,Laurel Avenue,45150,39.1676283,-84.2905745
72,Mound Avenue,45150,39.1696554,-84.2944520
83,Gatch Street,45150,39.1704296,-84.2904820
125,Gatch Street,45150,39.1696301,-84.2904079
109,Mound Avenue,45150,39.1688637,-84.2946340
219,Laurel Avenue,45150,39.1674372,-84.2911383
60,Mound Avenue,45150,39.1699126,-84.2945655
515,Garfield Avenue,45150,39.1717377,-84.2930270
128,Cleveland Avenue,45150,39.1687635,-84.2925744
145,Cleveland Avenue,45150,39.1682947,-84.2929537
5440,South Milford Road,45150,39.1660636,-84.2914300
616,Garfield Avenue,45150,39.1708929,-84.2908793
404,Mill Street,45150,39.1712907,-84.2957212
209,Laurel Avenue,45150,39.1676410,-84.2912137
54,Mound Avenue,45150,39.1700438,-84.2946134
133,Cleveland Avenue,45150,39.1686505,-84.2931611
111,Cleveland Avenue,45150,39.1691332,-84.2933659
35,Laurel Avenue,45150,39.1705580,-84.2924496
131,Gatch Street,45150,39.1697472,-84.2904199
161,Gatch Street,45150,39.1690503,-84.2903667
115,Laurel Avenue,45150,39.1693965,-84.2918802
39,Mound Avenue,45150,39.1702284,-84.2952841
144,Cleveland Avenue,45150,39.1682939,-84.2923932
133,Mound Avenue,45150,39.1680760,-84.2943144
121,Gatch Street,45150,39.1699763,-84.2904312
115,Gatch Street,45150,39.1700922,-84.2904424
120,Cleveland Avenue,45150,39.1689989,-84.2927211
51,Cleveland Avenue,45150,39.1698088,-84.2935859
11,Laurel Avenue,45150,39.1712690,-84.2926387
125,Cleveland Avenue,45150,39.1688228,-84.2932072
137,Laurel Avenue,45150,39.1686040,-84.2916022
146,Cleveland Avenue,45150,39.1681614,-84.2922959
59,Mound Avenue,45150,39.1695923,-84.2950522
149,Laurel Avenue,45150,39.1682409,-84.2914461
418,Mill Street,45150,39.1711962,-84.2949705
49,Mound Avenue,45150,39.1699691,-84.2951538
232,Laurel Avenue,45150,39.1671869,-84.2903737
45,Cleveland Avenue,45150,39.1699505,-84.2936536
425,Mill Street,45150,39.1717610,-84.2947765
227,Laurel Avenue,45150,39.1671578,-84.2910260
612,Garfield Avenue,45150,39.1710494,-84.2913518
148,Mound Avenue,45150,39.1678749,-84.2937652
39,Cleveland Avenue,45150,39.1700652,-84.2937627
11,Mound Avenue,45150,39.1706519,-84.2955729
73,Gatch Street,45150,39.1705472,-84.2904743
116,Laurel Avenue,45150,39.1695622,-84.2914086
65,Mound Avenue,45150,39.1693462,-84.2949010
116,Mound Avenue,45150,39.1687776,-84.2940861
151,Gatch Street,45150,39.1692819,-84.2903821
14,Cleveland Avenue,45150,39.1710042,-84.2934538
147,Cleveland Avenue,45150,39.1681938,-84.2929185
115,Hickory Street,45150,39.1678419,-84.2930463
125,Gatch Street,45150,39.1698610,-84.2904238
108,Mound Avenue,45150,39.1690582,-84.2942628
152,Mound Avenue,45150,39.1677839,-84.2937113
8,Garfield Avenue,45150,39.1712317,-84.2919964
22,Laurel Avenue,45150,39.1706693,-84.2918824
208,Laurel Avenue,45150,39.1678345,-84.2906760
113,Mound Avenue,45150,39.1687110,-84.2946137
212,Laurel Avenue,45150,39.1675053,-84.2905420
128,Mound Avenue,45150,39.1684981,-84.2940076
234,Cleveland Avenue,45150,39.1665197,-84.2916565
206,Cleveland Avenue,45150,39.1677093,-84.2919945
514,Mill Street,45150,39.1714097,-84.2931129
201,Laurel Avenue,45150,39.1679707,-84.2913449
103,Laurel Avenue,45150,39.1696999,-84.2921245
47,Laurel Avenue,45150,39.1703694,-84.2923577
119,Cleveland Avenue,45150,39.1689833,-84.2933375
139,Laurel Avenue,45150,39.1684942,-84.2915493
55,Mound Avenue,45150,39.1697693,-84.2950340
48,Cleveland Avenue,45150,39.1699564,-84.2931017
15,Cleveland Avenue,45150,39.1707931,-84.2940622
148,Cleveland Avenue,45150,39.1680239,-84.2922686
145,Mound Avenue,45150,39.1678098,-84.2942209
155,Gatch Street,45150,39.1691638,-84.2903914
140,Mound Avenue,45150,39.1681723,-84.2938472
238,Cleveland Avenue,45150,39.1662506,-84.2915301
138,Cleveland Avenue,45150,39.1684445,-84.2924873
24,Mound Avenue,45150,39.1709591,-84.2949127
128,Laurel Avenue,45150,39.1690552,-84.2912204
139,Cleveland Avenue,45150,39.1683976,-84.2930336
610,Garfield Avenue,45150,39.1711380,-84.2915503
122,Mound Avenue,45150,39.1686251,-84.2940430
223,Laurel Avenue,45150,39.1672944,-84.2910484
135,Cleveland Avenue,45150,39.1685380,-84.2930653
134,Cleveland Avenue,45150,39.1686204,-84.2924833
236,Laurel Avenue,45150,39.1669710,-84.2903145
405,Mill Street,45150,39.1718658,-84.2956487
108,Cleveland Avenue,45150,39.1693082,-84.2928110
233,Laurel Avenue,45150,39.1669897,-84.2909217
226,Cleveland Avenue,45150,39.1669401,-84.2917687
136,Mound Avenue,45150,39.1682714,-84.2939008
434,Mill Street,45150,39.1711040,-84.2942337
43,Mound Avenue,45150,39.1700467,-84.2959706
34,Laurel Avenue,45150,39.1701834,-84.2916115
51,Laurel Avenue,45150,39.1701780,-84.2922660
429,Mill Street,45150,39.1718185,-84.2942135
69,Mound Avenue,45150,39.1692142,-84.2948326
17,Laurel Avenue,45150,39.1710157,-84.2925684
27,Cleveland Avenue,45150,39.1704341,-84.2939113
102,Mound Avenue,45150,39.1692113,-84.2942550
31,Laurel Avenue,45150,39.1706959,-84.2925039
240,Laurel Avenue,45150,39.1668674,-84.2902733
205,Laurel Avenue,45150,39.1678444,-84.2912745
55,Cleveland Avenue,45150,39.1696861,-84.2935328
415,Mill Street,45150,39.1717773,-84.2951571
109,Laurel Avenue,45150,39.1695290,-84.2919384
510,Garfield Avenue,45150,39.1718631,-84.2935037
155,Cleveland Avenue,45150,39.1680227,-84.2928570
154,Mound Avenue,45150,39.1676600,-84.2936980
171,Gatch Street,45150,39.1688183,-84.2903393
55,Laurel Avenue,45150,39.1700602,-84.2922139
151,Mound Avenue,45150,39.1675558,-84.2941105
136,Laurel Avenue,45150,39.1688532,-84.2910843
32,Mound Avenue,45150,39.1707756,-84.2949155
110,Laurel Avenue,45150,39.1696903,-84.2914530
226,Laurel Avenue,45150,39.1673610,-84.2904494
22,Cleveland Avenue,45150,39.1707348,-84.2934015
150,Laurel Avenue,45150,39.1683893,-84.2909323
147,Mound Avenue,45150,39.1676623,-84.2941495
102,Cleveland Avenue,45150,39.1695205,-84.2928902
244,Laurel Avenue,45150,39.1665711,-84.2901423
31,Mound Avenue,45150,39.1705000,-84.2954067
13,Laurel Avenue,45150,39.1711643,-84.2926124
63,Gatch Street,45150,39.1707746,-84.2904968
66,Mound Avenue,45150,39.1697894,-84.2945093
125,Mound Avenue,45150,39.1683214,-84.2944251
122,Laurel Avenue,45150,39.1692970,-84.2912755
614,Garfield Avenue,45150,39.1709791,-84.2911223
139,Mound Avenue,45150,39.1679224,-84.2943034
54,Cleveland Avenue,45150,39.1698181,-84.2930242
118,Laurel Avenue,45150,39.1694463,-84.2913738
165,Gatch Street,45150,39.1689343,-84.2903747
142,Laurel Avenue,45150,39.1686454,-84.2910235
222,Cleveland Avenue,45150,39.1671527,-84.2918561
4,Cleveland Avenue,45150,39.1712823,-84.2936241
129,Laurel Avenue,45150,39.1688883,-84.2917602
410,Garfield Avenue,45150,39.1721308,-84.2947963
230,Cleveland Avenue,45150,39.1667324,-84.2917237
506,Garfield Avenue,45150,39.1720208,-84.2938637
114,Cleveland Avenue,45150,39.1691867,-84.2927446
212,Cleveland Avenue,45150,39.1675119,-84.2920043
48,Mound Avenue,45150,39.1702207,-84.2947435
42,Mound Avenue,45150,39.1704113,-84.2947847
22,High Street,45150,39.1722809,-84.2954486
310,Mill Street,45150,39.1706997,-84.2971845
5617,Happy Hollow Road,45150,39.1770465,-84.2714912
5615,Happy Hollow Road,45150,39.1768103,-84.2717234
5613,Happy Hollow Road,45150,39.1765073,-84.2718925
5605,Happy Hollow Road,45150,39.1760891,-84.2721126
681,Lila Avenue,45150,39.1733013,-84.2757256
687,Lila Avenue,45150,39.1730284,-84.2751655
431,Garfield Avenue,45150,39.1726092,-84.2940700
525,Garfield Avenue,45150,39.1720980,-84.2927543
437,Garfield Avenue,45150,39.1725220,-84.2938928
505,Garfield Avenue,45150,39.1723667,-84.2934866
515,Garfield Avenue,45150,39.1722761,-84.2931310
541,Garfield Avenue,45150,39.1718770,-84.2920873
547,Garfield Avenue,45150,39.1717643,-84.2917667
601,Garfield Avenue,45150,39.1716365,-84.2914821
603,Garfield Avenue,45150,39.1715789,-84.2912733
605,Garfield Avenue,45150,39.1715042,-84.2910473
607,Garfield Avenue,45150,39.1714053,-84.2908125
609,Garfield Avenue,45150,39.1713334,-84.2905834
611,Garfield Avenue,45150,39.1714980,-84.2905311
613,Garfield Avenue,45150,39.1712553,-84.2902927
5633,Happy Hollow Road,45150,39.1781848,-84.2711513
1,Lakefield Drive,45150,39.1766036,-84.2603781
3,Lakefield Drive,45150,39.1763459,-84.2604339
5,Lakefield Drive,45150,39.1760743,-84.2604316
7,Lakefield Drive,45150,39.1758261,-84.2604349
9,Lakefield Drive,45150,39.1755333,-84.2604736
11,Lakefield Drive,45150,39.1753168,-84.2604551
13,Lakefield Drive,45150,39.1750929,-84.2604883
15,Lakefield Drive,45150,39.1748513,-84.2604644
2,Lakefield Drive,45150,39.1766020,-84.2597256
4,Lakefield Drive,45150,39.1763658,-84.2597523
6,Lakefield Drive,45150,39.1761324,-84.2597774
8,Lakefield Drive,45150,39.1758997,-84.2598203
10,Lakefield Drive,45150,39.1755894,-84.2598487
12,Lakefield Drive,45150,39.1753517,-84.2598373
14,Lakefield Drive,45150,39.1751096,-84.2598320
18,Lakefield Drive,45150,39.1748697,-84.2598525
98,Lakefield Drive,45150,39.1745577,-84.2599457
100,Lakefield Drive,45150,39.1743025,-84.2599912
1,Paisley Drive,45150,39.1743828,-84.2605554
102,Lakefield Drive,45150,39.1740884,-84.2600187
103,Lakefield Drive,45150,39.1741172,-84.2605512
105,Lakefield Drive,45150,39.1738984,-84.2605531
104,Lakefield Drive,45150,39.1738688,-84.2600426
107,Lakefield Drive,45150,39.1736808,-84.2605978
106,Lakefield Drive,45150,39.1736486,-84.2600680
108,Lakefield Drive,45150,39.1734351,-84.2600860
109,Lakefield Drive,45150,39.1734599,-84.2606214
111,Lakefield Drive,45150,39.1732409,-84.2606339
110,Lakefield Drive,45150,39.1732090,-84.2601226
113,Lakefield Drive,45150,39.1730217,-84.2606603
115,Lakefield Drive,45150,39.1728054,-84.2607069
114,Lakefield Drive,45150,39.1727736,-84.2601708
117,Lakefield Drive,45150,39.1723956,-84.2607384
116,Lakefield Drive,45150,39.1725543,-84.2601873
118,Lakefield Drive,45150,39.1723072,-84.2600451
120,Lakefield Drive,45150,39.1720506,-84.2601068
122,Lakefield Drive,45150,39.1718406,-84.2603334
124,Lakefield Drive,45150,39.1718599,-84.2607280
3,Paisley Drive,45150,39.1744743,-84.2610093
4,Paisley Drive,45150,39.1749083,-84.2610261
6,Paisley Drive,45150,39.1750464,-84.2613200
5,Paisley Drive,45150,39.1745423,-84.2616128
7,Paisley Drive,45150,39.1746204,-84.2620046
9,Paisley Drive,45150,39.1748841,-84.2620435
10,Paisley Drive,45150,39.1751113,-84.2618942
8,Paisley Drive,45150,39.1751446,-84.2615717
102,Bradford Drive,45150,39.1742282,-84.2611435
103,Bradford Drive,45150,39.1742041,-84.2617841
104,Bradford Drive,45150,39.1739994,-84.2611996
105,Bradford Drive,45150,39.1739869,-84.2617405
107,Bradford Drive,45150,39.1737688,-84.2617771
106,Bradford Drive,45150,39.1737876,-84.2612671
109,Bradford Drive,45150,39.1735322,-84.2618156
108,Bradford Drive,45150,39.1735716,-84.2612667
110,Bradford Drive,45150,39.1733459,-84.2613436
111,Bradford Drive,45150,39.1733311,-84.2619245
113,Bradford Drive,45150,39.1731290,-84.2620808
115,Bradford Drive,45150,39.1729387,-84.2622208
117,Bradford Drive,45150,39.1727476,-84.2623837
119,Bradford Drive,45150,39.1725646,-84.2625033
121,Bradford Drive,45150,39.1724076,-84.2627122
201,Bradford Drive,45150,39.1721775,-84.2627982
203,Bradford Drive,45150,39.1719938,-84.2629401
205,Bradford Drive,45150,39.1718045,-84.2631176
207,Bradford Drive,45150,39.1716228,-84.2632382
209,Bradford Drive,45150,39.1714419,-84.2633776
211,Bradford Drive,45150,39.1712368,-84.2634982
213,Bradford Drive,45150,39.1710517,-84.2636376
215,Bradford Drive,45150,39.1708714,-84.2638030
112,Lakefield Drive,45150,39.1729939,-84.2601475
217,Bradford Drive,45150,39.1706224,-84.2637937
219,Bradford Drive,45150,39.1703706,-84.2634284
218,Bradford Drive,45150,39.1705700,-84.2631396
216,Bradford Drive,45150,39.1707948,-84.2630749
214,Bradford Drive,45150,39.1704412,-84.2625252
212,Bradford Drive,45150,39.1707166,-84.2623650
210,Bradford Drive,45150,39.1710166,-84.2623539
208,Bradford Drive,45150,39.1711677,-84.2629149
206,Bradford Drive,45150,39.1713726,-84.2628070
204,Bradford Drive,45150,39.1715635,-84.2626402
202,Bradford Drive,45150,39.1717584,-84.2625029
200,Bradford Drive,45150,39.1719554,-84.2623584
134,Lakefield Drive,45150,39.1718281,-84.2619409
132,Lakefield Drive,45150,39.1713388,-84.2619220
130,Lakefield Drive,45150,39.1717984,-84.2615751
128,Lakefield Drive,45150,39.1718258,-84.2612969
126,Lakefield Drive,45150,39.1718615,-84.2610148
125,Lakefield Drive,45150,39.1723047,-84.2610827
127,Lakefield Drive,45150,39.1722840,-84.2613535
129,Lakefield Drive,45150,39.1722592,-84.2616428
120,Bradford Drive,45150,39.1723954,-84.2620346
118,Bradford Drive,45150,39.1725722,-84.2619003
116,Bradford Drive,45150,39.1727654,-84.2617554
114,Bradford Drive,45150,39.1729527,-84.2616174
112,Bradford Drive,45150,39.1731408,-84.2614731
116,McCormick Point,45150,39.1695367,-84.2611147
112,McCormick Point,45150,39.1701116,-84.2602760
115,McCormick Point,45150,39.1703633,-84.2608328
110,McCormick Point,45150,39.1705518,-84.2598923
108,McCormick Point,45150,39.1707750,-84.2594754
106,McCormick Point,45150,39.1709393,-84.2591927
105,McCormick Point,45150,39.1715162,-84.2591975
103,McCormick Point,45150,39.1718786,-84.2590529
41,McCormick Trail,45150,39.1726654,-84.2586680
42,McCormick Trail,45150,39.1723256,-84.2582256
40,McCormick Trail,45150,39.1725081,-84.2580498
39,McCormick Trail,45150,39.1728694,-84.2585309
37,McCormick Trail,45150,39.1730994,-84.2584401
36,McCormick Trail,45150,39.1729833,-84.2578259
35,McCormick Trail,45150,39.1733176,-84.2583580
33,McCormick Trail,45150,39.1734896,-84.2581766
34,McCormick Trail,45150,39.1732167,-84.2577515
32,McCormick Trail,45150,39.1733976,-84.2575774
31,McCormick Trail,45150,39.1736556,-84.2580034
29,McCormick Trail,45150,39.1738195,-84.2578255
27,McCormick Trail,45150,39.1740228,-84.2577046
23,McCormick Trail,45150,39.1742377,-84.2576534
30,McCormick Trail,45150,39.1735873,-84.2574091
28,McCormick Trail,45150,39.1737986,-84.2572392
26,McCormick Trail,45150,39.1739857,-84.2570998
24,McCormick Trail,45150,39.1741953,-84.2569932
22,McCormick Trail,45150,39.1740815,-84.2566117
20,McCormick Trail,45150,39.1744596,-84.2563661
19,McCormick Trail,45150,39.1744694,-84.2575288
18,McCormick Trail,45150,39.1744852,-84.2569384
15,McCormick Trail,45150,39.1747395,-84.2575016
16,McCormick Trail,45150,39.1747098,-84.2569002
14,McCormick Trail,45150,39.1749311,-84.2568289
13,McCormick Trail,45150,39.1749608,-84.2574811
11,McCormick Trail,45150,39.1751592,-84.2575304
10,McCormick Trail,45150,39.1754324,-84.2568900
8,McCormick Trail,45150,39.1756267,-84.2569380
6,McCormick Trail,45150,39.1758635,-84.2569766
101,McCormick Point,45150,39.1723596,-84.2588828
9,McCormick Trail,45150,39.1754176,-84.2575771
12,Curry Lane,45150,39.1752829,-84.2584164
14,Curry Lane,45150,39.1750802,-84.2583280
16,Curry Lane,45150,39.1748565,-84.2583473
18,Curry Lane,45150,39.1746202,-84.2583161
20,Curry Lane,45150,39.1743288,-84.2583680
21,Curry Lane,45150,39.1742052,-84.2586163
19,Curry Lane,45150,39.1743051,-84.2589151
17,Curry Lane,45150,39.1746747,-84.2589978
15,Curry Lane,45150,39.1749153,-84.2589704
13,Curry Lane,45150,39.1751669,-84.2590047
11,Curry Lane,45150,39.1753786,-84.2590407
9,Curry Lane,45150,39.1755922,-84.2590758
7,Curry Lane,45150,39.1758333,-84.2591302
5,Curry Lane,45150,39.1760298,-84.2591333
3,Curry Lane,45150,39.1762870,-84.2591511
1,Curry Lane,45150,39.1764835,-84.2589347
2,Curry Lane,45150,39.1764673,-84.2585940
4,Curry Lane,45150,39.1762478,-84.2584403
6,Curry Lane,45150,39.1760174,-84.2584318
8,Curry Lane,45150,39.1757762,-84.2585208
5,McCormick Trail,45150,39.1758801,-84.2577069
3,McCormick Trail,45150,39.1761605,-84.2576725
1,McCormick Trail,45150,39.1765073,-84.2576400
2,McCormick Trail,45150,39.1764023,-84.2568252
750,US 50,45150,39.1706392,-84.2687796
816,US 50,45150,39.1675832,-84.2621305
1005,Main Street,45150,39.1801750,-84.2779545
1007,Main Street,45150,39.1804624,-84.2774547
1019,Main Street,45150,39.1809674,-84.2766894
1016,Main Street,45150,39.1802800,-84.2763957
4,Crestview Drive,45150,39.1802446,-84.2757670
1110,Main Street,45150,39.1813593,-84.2743570
1034,Main Street,45150,39.1808771,-84.2751315
1030,Main Street,45150,39.1807430,-84.2754087
1102,Main Street,45150,39.1810181,-84.2748653
1008,Main Street,45150,39.1800676,-84.2768712
1012,Main Street,45150,39.1801581,-84.2766357
1,Crestview Drive,45150,39.1807114,-84.2757608
5,Crestview Drive,45150,39.1805475,-84.2755798
9,Crestview Drive,45150,39.1804608,-84.2752239
13,Crestview Drive,45150,39.1803816,-84.2749152
21,Crestview Drive,45150,39.1803213,-84.2745933
33,Crestview Drive,45150,39.1801953,-84.2741345
37,Crestview Drive,45150,39.1801634,-84.2738552
41,Crestview Drive,45150,39.1802549,-84.2736191
45,Crestview Drive,45150,39.1802478,-84.2732557
49,Crestview Drive,45150,39.1801625,-84.2730279
961,Mohawk Trail,45150,39.1797776,-84.2732392
5609,Happy Hollow Road,45150,39.1762821,-84.2723294
703,State Route 28,45150,39.1827881,-84.2711349
2,Edgecombe Road,45150,39.1814445,-84.2740520
6,Edgecombe Road,45150,39.1812533,-84.2739197
1,Edgecombe Road,45150,39.1816090,-84.2736178
5,Edgecombe Road,45150,39.1814605,-84.2734846
9,Edgecombe Road,45150,39.1813203,-84.2733277
13,Edgecombe Road,45150,39.1812396,-84.2731018
17,Edgecombe Road,45150,39.1811518,-84.2728866
21,Edgecombe Road,45150,39.1810687,-84.2726468
25,Edgecombe Road,45150,39.1809820,-84.2724017
29,Edgecombe Road,45150,39.1808856,-84.2721547
33,Edgecombe Road,45150,39.1808072,-84.2719278
37,Edgecombe Road,45150,39.1807205,-84.2716872
41,Edgecombe Road,45150,39.1806471,-84.2714474
45,Edgecombe Road,45150,39.1805116,-84.2711002
10,Edgecombe Road,45150,39.1810948,-84.2737779
14,Edgecombe Road,45150,39.1809651,-84.2735600
18,Edgecombe Road,45150,39.1808784,-84.2733097
22,Edgecombe Road,45150,39.1807755,-84.2730896
26,Edgecombe Road,45150,39.1807068,-84.2728386
30,Edgecombe Road,45150,39.1806208,-84.2726057
34,Edgecombe Road,45150,39.1805356,-84.2723735
38,Edgecombe Road,45150,39.1804348,-84.2721296
42,Edgecombe Road,45150,39.1803599,-84.2718960
46,Edgecombe Road,45150,39.1802620,-84.2716574
50,Edgecombe Road,45150,39.1802036,-84.2714041
54,Edgecombe Road,45150,39.1800798,-84.2711925
58,Edgecombe Road,45150,39.1800291,-84.2709428
62,Edgecombe Road,45150,39.1801547,-84.2707405
66,Edgecombe Road,45150,39.1803284,-84.2706547
70,Edgecombe Road,45150,39.1804728,-84.2705299
57,Crestview Drive,45150,39.1799072,-84.2722483
53,Crestview Drive,45150,39.1800457,-84.2726310
50,Crestview Drive,45150,39.1797538,-84.2728613
54,Crestview Drive,45150,39.1796163,-84.2724805
959,Mohawk Trail,45150,39.1793073,-84.2728167
957,Mohawk Trail,45150,39.1791376,-84.2726823
22,Crestview Drive,45150,39.1800017,-84.2750616
26,Crestview Drive,45150,39.1799566,-84.2748112
30,Crestview Drive,45150,39.1799036,-84.2745631
34,Crestview Drive,45150,39.1798323,-84.2743208
741,Center Street,45150,39.1771586,-84.2872415
610,Lila Avenue,45150,39.1772495,-84.2876892
606,Lila Avenue,45150,39.1773012,-84.2879215
602,Lila Avenue,45150,39.1773630,-84.2880531
740,Forest Avenue,45150,39.1776232,-84.2877792
741,Forest Avenue,45150,39.1779335,-84.2879505
733,Forest Avenue,45150,39.1777206,-84.2881733
729,Forest Avenue,45150,39.1776158,-84.2882985
556,Lila Avenue,45150,39.1774384,-84.2884494
548,Lila Avenue,45150,39.1775380,-84.2888588
544,Lila Avenue,45150,39.1775568,-84.2890575
540,Lila Avenue,45150,39.1775932,-84.2892057
757,Forest Avenue,45150,39.1783222,-84.2874393
552,George Street,45150,39.1784553,-84.2876909
548,George Street,45150,39.1785533,-84.2878827
769,Forest Avenue,45150,39.1785425,-84.2872733
749,Forest Avenue,45150,39.1781589,-84.2877716
745,Forest Avenue,45150,39.1780395,-84.2878449
740,Elizabeth Street,45150,39.1783068,-84.2885255
552,Lila Avenue,45150,39.1775054,-84.2887056
536,Lila Avenue,45150,39.1776584,-84.2893883
532,Lila Avenue,45150,39.1777011,-84.2896518
528,Lila Avenue,45150,39.1777321,-84.2898296
524,Lila Avenue,45150,39.1778189,-84.2899126
520,Lila Avenue,45150,39.1778988,-84.2903135
519,Beech Street,45150,39.1773903,-84.2914428
605,Maple Street,45150,39.1774810,-84.2912430
611,Maple Street,45150,39.1776424,-84.2911771
412,Lila Avenue,45150,39.1777407,-84.2912972
511,Beech Street,45150,39.1775414,-84.2916996
406,Lila Avenue,45150,39.1778288,-84.2915270
612,High Street,45150,39.1778577,-84.2918245
2,Chateau Place,45150,39.1780758,-84.2910746
6,Chateau Place,45150,39.1782838,-84.2908513
10,Chateau Place,45150,39.1784368,-84.2907260
14,Chateau Place,45150,39.1787416,-84.2904639
18,Chateau Place,45150,39.1788938,-84.2903345
22,Chateau Place,45150,39.1792122,-84.2900618
26,Chateau Place,45150,39.1793636,-84.2899260
30,Chateau Place,45150,39.1796850,-84.2896533
505,Hudson Avenue,45150,39.1799788,-84.2893939
509,Hudson Avenue,45150,39.1798770,-84.2892086
513,Hudson Avenue,45150,39.1797611,-84.2889802
517,Hudson Avenue,45150,39.1796496,-84.2888358
521,Hudson Avenue,45150,39.1795503,-84.2886808
755,Pasadena Avenue,45150,39.1793249,-84.2889395
751,Pasadena Avenue,45150,39.1792266,-84.2890798
747,Pasadena Avenue,45150,39.1791019,-84.2891567
743,Pasadena Avenue,45150,39.1789902,-84.2892686
739,Pasadena Avenue,45150,39.1788782,-84.2893900
735,Pasadena Avenue,45150,39.1787517,-84.2895072
731,Pasadena Avenue,45150,39.1786329,-84.2896145
727,Pasadena Avenue,45150,39.1785263,-84.2897377
723,Pasadena Avenue,45150,39.1784025,-84.2898373
719,Pasadena Avenue,45150,39.1783011,-84.2899471
724,Pasadena Avenue,45150,39.1781444,-84.2894998
720,Pasadena Avenue,45150,39.1780672,-84.2895674
728,Pasadena Avenue,45150,39.1782630,-84.2894151
732,Pasadena Avenue,45150,39.1783712,-84.2892643
736,Pasadena Avenue,45150,39.1785152,-84.2891992
740,Pasadena Avenue,45150,39.1786247,-84.2890905
744,Pasadena Avenue,45150,39.1787252,-84.2889850
748,Pasadena Avenue,45150,39.1788373,-84.2888752
752,Pasadena Avenue,45150,39.1789426,-84.2887894
760,Pasadena Avenue,45150,39.1790735,-84.2886030
525,Hudson Avenue,45150,39.1793694,-84.2884102
738,Elizabeth Street,45150,39.1782335,-84.2886903
734,Elizabeth Street,45150,39.1781237,-84.2888234
730,Elizabeth Street,45150,39.1779937,-84.2888914
750,Elizabeth Street,45150,39.1785701,-84.2883692
5543,Main Street,45150,39.1766834,-84.2906431
552,Main Street,45150,39.1761768,-84.2902997
548,Main Street,45150,39.1761820,-84.2904962
618,Main Street,45150,39.1765285,-84.2879307
516,Lila Avenue,45150,39.1779216,-84.2905091
514,Lila Avenue,45150,39.1779786,-84.2906561
715,Pasadena Avenue,45150,39.1781994,-84.2900543
759,Riverside Drive,45150,39.1802217,-84.2898876
761,Riverside Drive,45150,39.1802960,-84.2897320
801,Riverside Drive,45150,39.1804506,-84.2894037
805,Riverside Drive,45150,39.1806016,-84.2891902
809,Riverside Drive,45150,39.1807785,-84.2889896
817,Riverside Drive,45150,39.1809161,-84.2887721
823,Riverside Drive,45150,39.1810999,-84.2885626
833,Riverside Drive,45150,39.1813346,-84.2882077
841,Riverside Drive,45150,39.1816277,-84.2877642
505,Brandon Avenue,45150,39.1806334,-84.2885329
810,Riverside Drive,45150,39.1805273,-84.2886572
504,Hudson Avenue,45150,39.1801842,-84.2889234
500,Hudson Avenue,45150,39.1802733,-84.2890548
806,Riverside Drive,45150,39.1803759,-84.2888749
508,Hudson Avenue,45150,39.1801059,-84.2887906
514,Hudson Avenue,45150,39.1800345,-84.2886390
516,Hudson Avenue,45150,39.1799506,-84.2885419
518,Hudson Avenue,45150,39.1799011,-84.2884094
520,Hudson Avenue,45150,39.1798202,-84.2883090
524,Hudson Avenue,45150,39.1796430,-84.2880717
513,Brandon Avenue,45150,39.1804125,-84.2881577
517,Brandon Avenue,45150,39.1803252,-84.2880088
500,Brandon Avenue,45150,39.1809365,-84.2882226
504,Brandon Avenue,45150,39.1808626,-84.2881157
506,Brandon Avenue,45150,39.1807849,-84.2880201
510,Brandon Avenue,45150,39.1807155,-84.2878668
514,Brandon Avenue,45150,39.1806403,-84.2877682
513,Clark Avenue,45150,39.1811284,-84.2873823
518,Brandon Avenue,45150,39.1805703,-84.2876787
522,Brandon Avenue,45150,39.1804756,-84.2875834
519,Clark Avenue,45150,39.1810172,-84.2871479
521,Clark Avenue,45150,39.1809652,-84.2870390
523,Clark Avenue,45150,39.1808949,-84.2869244
530,Brandon Avenue,45150,39.1803884,-84.2872641
527,Clark Avenue,45150,39.1807820,-84.2867577
1,Bridgestone Drive,45150,39.1762601,-84.2552129
3,Bridgestone Drive,45150,39.1762698,-84.2557939
5,Bridgestone Drive,45150,39.1760333,-84.2558626
7,Bridgestone Drive,45150,39.1759234,-84.2552422
9,Bridgestone Drive,45150,39.1757219,-84.2552675
11,Bridgestone Drive,45150,39.1754949,-84.2553164
13,Bridgestone Drive,45150,39.1752956,-84.2554039
15,Bridgestone Drive,45150,39.1750928,-84.2554924
17,Bridgestone Drive,45150,39.1748518,-84.2555177
19,Bridgestone Drive,45150,39.1746198,-84.2554799
201,West Stoneridge Drive,45150,39.1743002,-84.2552099
2,Pebblestone Court,45150,39.1760989,-84.2546568
4,Pebblestone Court,45150,39.1760735,-84.2543207
6,Pebblestone Court,45150,39.1761551,-84.2539963
8,Pebblestone Court,45150,39.1760422,-84.2536928
9,Pebblestone Court,45150,39.1758042,-84.2535918
7,Pebblestone Court,45150,39.1756144,-84.2537510
5,Pebblestone Court,45150,39.1755299,-84.2540805
3,Pebblestone Court,45150,39.1756378,-84.2543475
1,Pebblestone Court,45150,39.1756546,-84.2547172
12,Bridgestone Drive,45150,39.1753103,-84.2547953
14,Bridgestone Drive,45150,39.1751132,-84.2549015
16,Bridgestone Drive,45150,39.1748609,-84.2549903
109,West Stoneridge Drive,45150,39.1745933,-84.2547468
107,West Stoneridge Drive,45150,39.1747800,-84.2543826
105,West Stoneridge Drive,45150,39.1749201,-84.2541477
103,West Stoneridge Drive,45150,39.1750483,-84.2539287
101,West Stoneridge Drive,45150,39.1751972,-84.2537413
100,West Stoneridge Drive,45150,39.1749776,-84.2531407
102,West Stoneridge Drive,45150,39.1747300,-84.2535942
302,East Stoneridge Drive,45150,39.1749602,-84.2526925
104,West Stoneridge Drive,45150,39.1746078,-84.2538246
106,West Stoneridge Drive,45150,39.1744574,-84.2540360
108,West Stoneridge Drive,45150,39.1743431,-84.2542805
110,West Stoneridge Drive,45150,39.1741867,-84.2544734
200,West Stoneridge Drive,45150,39.1740391,-84.2547177
202,West Stoneridge Drive,45150,39.1738869,-84.2549607
203,West Stoneridge Drive,45150,39.1740507,-84.2554131
205,West Stoneridge Drive,45150,39.1738502,-84.2555855
207,West Stoneridge Drive,45150,39.1736671,-84.2557182
204,West Stoneridge Drive,45150,39.1736744,-84.2550968
206,West Stoneridge Drive,45150,39.1734879,-84.2552570
209,West Stoneridge Drive,45150,39.1734560,-84.2558681
208,West Stoneridge Drive,45150,39.1732897,-84.2553760
306,East Stoneridge Drive,45150,39.1749210,-84.2523200
211,West Stoneridge Drive,45150,39.1732677,-84.2559713
213,West Stoneridge Drive,45150,39.1730859,-84.2561186
215,West Stoneridge Drive,45150,39.1728823,-84.2562494
217,West Stoneridge Drive,45150,39.1726912,-84.2563731
219,West Stoneridge Drive,45150,39.1725056,-84.2565167
221,West Stoneridge Drive,45150,39.1723122,-84.2566504
223,West Stoneridge Drive,45150,39.1721074,-84.2567763
225,West Stoneridge Drive,45150,39.1719222,-84.2569128
227,West Stoneridge Drive,45150,39.1717324,-84.2571387
229,West Stoneridge Drive,45150,39.1714534,-84.2572621
231,West Stoneridge Drive,45150,39.1712494,-84.2571188
230,West Stoneridge Drive,45150,39.1708815,-84.2574549
224,West Stoneridge Drive,45150,39.1717338,-84.2564190
222,West Stoneridge Drive,45150,39.1719330,-84.2563104
220,West Stoneridge Drive,45150,39.1721288,-84.2561862
218,West Stoneridge Drive,45150,39.1723221,-84.2560529
216,West Stoneridge Drive,45150,39.1725181,-84.2559308
214,West Stoneridge Drive,45150,39.1727022,-84.2557630
212,West Stoneridge Drive,45150,39.1729042,-84.2556547
210,West Stoneridge Drive,45150,39.1731228,-84.2555125
1,Cobblestone Drive,45150,39.1753972,-84.2527748
3,Cobblestone Drive,45150,39.1756688,-84.2528163
5,Cobblestone Drive,45150,39.1759216,-84.2526894
6,Cobblestone Drive,45150,39.1759953,-84.2523586
4,Cobblestone Drive,45150,39.1758584,-84.2520985
2,Cobblestone Drive,45150,39.1753588,-84.2521881
305,East Stoneridge Drive,45150,39.1752245,-84.2518424
307,East Stoneridge Drive,45150,39.1750432,-84.2516826
309,East Stoneridge Drive,45150,39.1747949,-84.2516654
311,East Stoneridge Drive,45150,39.1745757,-84.2516856
313,East Stoneridge Drive,45150,39.1743572,-84.2517220
312,East Stoneridge Drive,45150,39.1745701,-84.2522510
2,Sandstone Court,45150,39.1743163,-84.2523293
315,East Stoneridge Drive,45150,39.1741455,-84.2518100
317,East Stoneridge Drive,45150,39.1739340,-84.2518759
4,Sandstone Court,45150,39.1744720,-84.2528300
6,Sandstone Court,45150,39.1743845,-84.2531747
7,Sandstone Court,45150,39.1741174,-84.2532672
3,Sandstone Court,45150,39.1738843,-84.2529141
1,Sandstone Court,45150,39.1738590,-84.2524741
5,Sandstone Court,45150,39.1738146,-84.2537971
319,East Stoneridge Drive,45150,39.1737090,-84.2519370
321,East Stoneridge Drive,45150,39.1734512,-84.2519664
323,East Stoneridge Drive,45150,39.1732157,-84.2520375
2,Ridgeview Court,45150,39.1733654,-84.2525912
4,Ridgeview Court,45150,39.1733483,-84.2529533
6,Ridgeview Court,45150,39.1733178,-84.2532394
8,Ridgeview Court,45150,39.1732948,-84.2535493
10,Ridgeview Court,45150,39.1733568,-84.2537964
12,Ridgeview Court,45150,39.1735832,-84.2540719
15,Ridgeview Court,45150,39.1733859,-84.2545794
13,Ridgeview Court,45150,39.1731299,-84.2545324
1,Stonevalley Drive,45150,39.1729522,-84.2540654
5,Stonevalley Drive,45150,39.1727060,-84.2542177
7,Stonevalley Drive,45150,39.1725300,-84.2544420
9,Stonevalley Drive,45150,39.1723810,-84.2546392
11,Stonevalley Drive,45150,39.1722513,-84.2548594
13,Stonevalley Drive,45150,39.1721019,-84.2550814
15,Stonevalley Drive,45150,39.1719345,-84.2552661
17,Stonevalley Drive,45150,39.1718339,-84.2555641
19,Stonevalley Drive,45150,39.1716551,-84.2557786
21,Stonevalley Drive,45150,39.1713964,-84.2557838
22,Stonevalley Drive,45150,39.1708172,-84.2559299
20,Stonevalley Drive,45150,39.1712511,-84.2554076
18,Stonevalley Drive,45150,39.1713549,-84.2550857
16,Stonevalley Drive,45150,39.1715906,-84.2549672
14,Stonevalley Drive,45150,39.1717361,-84.2547550
12,Stonevalley Drive,45150,39.1718822,-84.2545517
10,Stonevalley Drive,45150,39.1720372,-84.2543324
8,Stonevalley Drive,45150,39.1721794,-84.2541343
6,Stonevalley Drive,45150,39.1723371,-84.2539153
4,Stonevalley Drive,45150,39.1725278,-84.2537353
2,Stonevalley Drive,45150,39.1727508,-84.2535695
5,Ridgeview Court,45150,39.1728868,-84.2532524
3,Ridgeview Court,45150,39.1729239,-84.2529021
1,Ridgeview Court,45150,39.1729406,-84.2525698
401,East Stoneridge Drive,45150,39.1729821,-84.2519693
403,East Stoneridge Drive,45150,39.1727663,-84.2519798
405,East Stoneridge Drive,45150,39.1725414,-84.2519611
410,East Stoneridge Drive,45150,39.1725055,-84.2525428
407,East Stoneridge Drive,45150,39.1723264,-84.2519635
409,East Stoneridge Drive,45150,39.1721204,-84.2517601
411,East Stoneridge Drive,45150,39.1719267,-84.2519839
415,East Stoneridge Drive,45150,39.1719976,-84.2523835
417,East Stoneridge Drive,45150,39.1719059,-84.2526654
419,East Stoneridge Drive,45150,39.1717322,-84.2528439
421,East Stoneridge Drive,45150,39.1715367,-84.2529503
423,East Stoneridge Drive,45150,39.1712668,-84.2530285
425,East Stoneridge Drive,45150,39.1711081,-84.2532214
426,East Stoneridge Drive,45150,39.1711877,-84.2535695
424,East Stoneridge Drive,45150,39.1713951,-84.2537253
422,East Stoneridge Drive,45150,39.1716423,-84.2535596
420,East Stoneridge Drive,45150,39.1718472,-84.2533085
414,East Stoneridge Drive,45150,39.1723156,-84.2528303
416,East Stoneridge Drive,45150,39.1721539,-84.2530639
14,Ridgeview Court,45150,39.1735702,-84.2543900
413,East Stoneridge Drive,45150,39.1715748,-84.2521968
830,US 50,45150,39.1658042,-84.2612238
533,Hudson Avenue,45150,39.1791060,-84.2880236
529,Hudson Avenue,45150,39.1792471,-84.2882130
602,Main Street,45150,39.1764254,-84.2884970
614,Main Street,45150,39.1765001,-84.2880719
776,Forest Avenue,45150,39.1784400,-84.2867804
772,Forest Avenue,45150,39.1783390,-84.2868837
768,Forest Avenue,45150,39.1782654,-84.2869669
764,Forest Avenue,45150,39.1781828,-84.2870430
777,Center Street,45150,39.1781771,-84.2862550
613,Pike Street,45150,39.1783107,-84.2864012
780,Forest Avenue,45150,39.1785363,-84.2866504
804,Forest Avenue,45150,39.1787408,-84.2864442
806,Forest Avenue,45150,39.1788453,-84.2863466
810,Forest Avenue,45150,39.1789244,-84.2862008
819,Forest Avenue,45150,39.1795657,-84.2861521
554,Brandon Avenue,45150,39.1798469,-84.2864720
539,Brandon Avenue,45150,39.1796146,-84.2870219
813,Forest Avenue,45150,39.1792464,-84.2865046
543,Brandon Avenue,45150,39.1795183,-84.2868639
817,Forest Avenue,45150,39.1793678,-84.2864433
809,Forest Avenue,45150,39.1790831,-84.2866695
805,Forest Avenue,45150,39.1789381,-84.2868127
801,Forest Avenue,45150,39.1788360,-84.2869423
540,Hudson Avenue,45150,39.1791806,-84.2873400
541,Hudson Avenue,45150,39.1788448,-84.2875928
773,Forest Avenue,45150,39.1786259,-84.2871756
527,Lila Avenue,45150,39.1771079,-84.2890053
527,Lila Avenue,45150,39.1771709,-84.2895019
816,Walnut Street,45150,39.1777585,-84.2837556
833,Walnut Street,45150,39.1783672,-84.2837062
825,Walnut Street,45150,39.1782148,-84.2839019
813,Walnut Street,45150,39.1778839,-84.2841693
809,Walnut Street,45150,39.1778005,-84.2842797
807,Walnut Street,45150,39.1777021,-84.2843675
536,George Street,45150,39.1788268,-84.2882333
535,Hudson Avenue,45150,39.1790306,-84.2878878
539,Hudson Avenue,45150,39.1789739,-84.2877718
828,Center Street,45150,39.1786291,-84.2846572
822,Center Street,45150,39.1784435,-84.2848455
832,Center Street,45150,39.1787299,-84.2845142
836,Center Street,45150,39.1788641,-84.2843596
844,Center Street,45150,39.1790692,-84.2841565
814,Center Street,45150,39.1782787,-84.2850068
804,Center Street,45150,39.1781081,-84.2852386
802,Center Street,45150,39.1780053,-84.2853589
712,Pike Street,45150,39.1777176,-84.2848958
707,Pike Street,45150,39.1776303,-84.2854037
776,Center Street,45150,39.1777303,-84.2857661
772,Center Street,45150,39.1776509,-84.2858801
768,Center Street,45150,39.1775163,-84.2860169
845,Center Street,45150,39.1795155,-84.2846026
839,Center Street,45150,39.1793967,-84.2847742
835,Center Street,45150,39.1792039,-84.2849714
823,Center Street,45150,39.1789658,-84.2851840
815,Center Street,45150,39.1788291,-84.2853971
811,Center Street,45150,39.1786568,-84.2855455
803,Center Street,45150,39.1783801,-84.2858340
615,Pike Street,45150,39.1785208,-84.2860716
840,Forest Avenue,45150,39.1796658,-84.2853755
836,Forest Avenue,45150,39.1795772,-84.2855128
830,Forest Avenue,45150,39.1794587,-84.2856374
824,Forest Avenue,45150,39.1793488,-84.2857575
820,Forest Avenue,45150,39.1792454,-84.2858430
816,Forest Avenue,45150,39.1791625,-84.2859831
812,Forest Avenue,45150,39.1790410,-84.2861028
771,Center Street,45150,39.1779413,-84.2862826
767,Center Street,45150,39.1778532,-84.2863678
543,Clark Avenue,45150,39.1802883,-84.2861010
539,Clark Avenue,45150,39.1803942,-84.2861959
537,Clark Avenue,45150,39.1804455,-84.2862861
535,Clark Avenue,45150,39.1805095,-84.2863747
531,Clark Avenue,45150,39.1805729,-84.2865540
837,Forest Avenue,45150,39.1800480,-84.2856358
833,Forest Avenue,45150,39.1799515,-84.2857599
829,Forest Avenue,45150,39.1798767,-84.2858570
827,Forest Avenue,45150,39.1797581,-84.2859428
823,Forest Avenue,45150,39.1796798,-84.2860658
550,Brandon Avenue,45150,39.1799661,-84.2866037
546,Brandon Avenue,45150,39.1800460,-84.2867473
542,Brandon Avenue,45150,39.1801320,-84.2868707
538,Brandon Avenue,45150,39.1802693,-84.2871203
509,Clark Avenue,45150,39.1812351,-84.2876560
840,Riverside Drive,45150,39.1811938,-84.2878374
828,Riverside Drive,45150,39.1810928,-84.2879566
535,Brandon Avenue,45150,39.1797624,-84.2872167
531,Brandon Avenue,45150,39.1798331,-84.2873896
525,Brandon Avenue,45150,39.1801010,-84.2876237
523,Brandon Avenue,45150,39.1801504,-84.2877585
519,Brandon Avenue,45150,39.1802088,-84.2878658
528,Hudson Avenue,45150,39.1795233,-84.2878745
536,Hudson Avenue,45150,39.1792897,-84.2875222
532,Hudson Avenue,45150,39.1793735,-84.2876605
5330,South Milford Road,45140,39.1587074,-84.2920912
5392,South Milford Road,45150,39.1623303,-84.2931359
5388,South Milford Road,45150,39.1613937,-84.2927031
5380,South Milford Road,45150,39.1612986,-84.2934600
5384,South Milford Road,45150,39.1607584,-84.2922264
5338,South Milford Road,45150,39.1592534,-84.2938731
5342,South Milford Road,45150,39.1602417,-84.2930226
5366,South Milford Road,45150,39.1608621,-84.2950657
5374,South Milford Road,45150,39.1614687,-84.2942649
5372,South Milford Road,45150,39.1610706,-84.2948104
5364,South Milford Road,45150,39.1605539,-84.2954383
5360,South Milford Road,45150,39.1602956,-84.2949781
5362,South Milford Road,45150,39.1604332,-84.2951699
110,Olympic Drive,45150,39.1689447,-84.2654297
120,Olympic Drive,45150,39.1688549,-84.2652500
130,Olympic Drive,45150,39.1687924,-84.2651221
140,Olympic Drive,45150,39.1687043,-84.2649450
150,Olympic Drive,45150,39.1686419,-84.2648171
160,Olympic Drive,45150,39.1685538,-84.2646384
170,Olympic Drive,45150,39.1684914,-84.2645105
200,Postoak Lane,45150,39.1747007,-84.2690833
200,Logsby Place,45150,39.1739392,-84.2691164
250,Logsby Place,45150,39.1739233,-84.2688289
150,Logsby Place,45150,39.1733126,-84.2688749
100,Logsby Place,45150,39.1733295,-84.2691699
200,Doublegate Drive,45150,39.1728618,-84.2693730
250,Doublegate Drive,45150,39.1728738,-84.2690774
300,Doublegate Drive,45150,39.1725697,-84.2692134
350,Doublegate Drive,45150,39.1724155,-84.2690650
809,US 50,45150,39.1670369,-84.2648897
100,Gateway Drive,45150,39.1742385,-84.2699081
250,Gateway Drive,45150,39.1737384,-84.2706237
200,Gateway Drive,45150,39.1739089,-84.2704694
350,Fencerail Way,45150,39.1734998,-84.2712202
300,Fencerail Way,45150,39.1734052,-84.2709736
250,Gateway Drive,45150,39.1732475,-84.2706238
200,Gateway Drive,45150,39.1731719,-84.2703705
150,Fencerail Way,45150,39.1731619,-84.2699535
100,Fencerail Way,45150,39.1732063,-84.2696752
38,McCormick Trail,45150,39.1727287,-84.2580096
198,Aerie Lane,45150,39.1709345,-84.2881297
200,Aerie Lane,45150,39.1710891,-84.2880969
201,Aerie Lane,45150,39.1714908,-84.2883603
202,Aerie Lane,45150,39.1712588,-84.2879375
213,Aerie Lane,45150,39.1720271,-84.2874555
205,Aerie Lane,45150,39.1716529,-84.2880985
207,Aerie Lane,45150,39.1717905,-84.2878805
209,Aerie Lane,45150,39.1718721,-84.2877363
1,Apple Lane Drive,45150,39.1713800,-84.2860711
29,Cemetery Road,45150,39.1718019,-84.2780639
31,Powhatton Drive,45150,39.1725481,-84.2800809
881,Garfield Avenue,45150,39.1704681,-84.2822437
24,Apple Lane Drive,45150,39.1722600,-84.2861397
18,Apple Lane Drive,45150,39.1731199,-84.2853580
17,Apple Lane Drive,45150,39.1732543,-84.2852405
36,Winnebago Drive,45150,39.1724849,-84.2782573
7,Apple Lane Drive,45150,39.1723571,-84.2854263
19,Potowatomie Trail,45150,39.1718934,-84.2828282
18,Powhatton Drive,45150,39.1712161,-84.2799696
37,Clertoma Drive,45150,39.1730489,-84.2840547
27,Winnebago Drive,45150,39.1717127,-84.2792415
3,Cemetery Road,45150,39.1699392,-84.2787417
33,Powhatton Drive,45150,39.1727169,-84.2800536
15,Cemetery Road,45150,39.1706988,-84.2784461
9,Choctaw Lane,45150,39.1710163,-84.2837434
37,Potowatomie Trail,45150,39.1716650,-84.2814748
4,Choctaw Lane,45150,39.1703958,-84.2834769
29,Powhatton Drive,45150,39.1723901,-84.2801200
36,Powhatton Drive,45150,39.1726448,-84.2794550
35,Clertoma Drive,45150,39.1729557,-84.2842720
67,Powhatton Drive,45150,39.1727586,-84.2779373
6,Powhatton Drive,45150,39.1703060,-84.2803054
25,Cemetery Road,45150,39.1714851,-84.2781809
3,Powhatton Drive,45150,39.1702471,-84.2809007
21,Potowatomie Trail,45150,39.1718286,-84.2826382
25,Potowatomie Trail,45150,39.1716763,-84.2822414
31,Apple Lane Drive,45150,39.1712455,-84.2866340
45,Powhatton Drive,45150,39.1733002,-84.2791017
47,Powhatton Drive,45150,39.1732508,-84.2788923
24,Potowatomie Trail,45150,39.1712278,-84.2823260
63,Clertoma Drive,45150,39.1723112,-84.2814312
41,Powhatton Drive,45150,39.1732747,-84.2795737
57,Clertoma Drive,45150,39.1724989,-84.2820211
25,Apple Lane Drive,45150,39.1721349,-84.2862406
8,Apple Lane Drive,45150,39.1725254,-84.2852929
28,Apple Lane Drive,45150,39.1717359,-84.2867820
35,Winnebago Drive,45150,39.1723460,-84.2790001
32,Apple Lane Drive,45150,39.1711105,-84.2864319
30,Apple Lane Drive,45150,39.1713632,-84.2868723
51,Clertoma Drive,45150,39.1727185,-84.2825806
20,Apple Lane Drive,45150,39.1728215,-84.2856187
15,Winnebago Drive,45150,39.1707688,-84.2795539
6,Clertoma Drive,45150,39.1708722,-84.2851318
2,Clertoma Drive,45150,39.1707192,-84.2851700
3,Apple Lane Drive,45150,39.1717756,-84.2859269
47,Clertoma Drive,45150,39.1728523,-84.2829799
3,Winnebago Drive,45150,39.1700465,-84.2798330
29,Potowatomie Trail,45150,39.1715401,-84.2818764
35,Cemetery Road,45150,39.1722855,-84.2779005
4,Winnebago Drive,45150,39.1700017,-84.2792750
17,Winnebago Drive,45150,39.1709150,-84.2795115
17,Potowatomie Trail,45150,39.1719668,-84.2830127
1,Powhatton Drive,45150,39.1700824,-84.2809602
10,Choctaw Lane,45150,39.1709175,-84.2832004
1,Cemetery Road,45150,39.1697703,-84.2787966
6,Potowatomie Trail,45150,39.1718710,-84.2840691
44,Powhatton Drive,45150,39.1728198,-84.2789742
21,Cemetery Road,45150,39.1711713,-84.2783097
871,Garfield Avenue,45150,39.1704701,-84.2828566
24,Clertoma Drive,45150,39.1723164,-84.2841061
29,Clertoma Drive,45150,39.1725019,-84.2846262
15,Choctaw Lane,45150,39.1713082,-84.2835358
7,Cemetery Road,45150,39.1702550,-84.2786120
19,Apple Lane Drive,45150,39.1729692,-84.2854961
23,Powhatton Drive,45150,39.1719135,-84.2803087
860,Garfield Avenue,45150,39.1700273,-84.2838402
7,Potowatomie Trail,45150,39.1722287,-84.2837937
33,Cemetery Road,45150,39.1721345,-84.2779508
16,Clertoma Drive,45150,39.1715994,-84.2847129
31,Clertoma Drive,45150,39.1726531,-84.2845111
21,Winnebago Drive,45150,39.1712347,-84.2794162
9,Apple Lane Drive,45150,39.1726750,-84.2851662
9,Potowatomie Trail,45150,39.1721496,-84.2836124
34,Winnebago Drive,45150,39.1723698,-84.2783933
831,Garfield Avenue,45150,39.1708528,-84.2846027
10,Apple Lane Drive,45150,39.1727978,-84.2850548
25,Powhatton Drive,45150,39.1720752,-84.2802501
864,Garfield Avenue,45150,39.1699879,-84.2833319
55,Powhatton Drive,45150,39.1731388,-84.2784606
5,Winnebago Drive,45150,39.1701844,-84.2797948
26,Powhatton Drive,45150,39.1718578,-84.2797743
3,Choctaw Lane,45150,39.1705620,-84.2839957
14,Apple Lane Drive,45150,39.1734141,-84.2846798
29,Winnebago Drive,45150,39.1718700,-84.2792184
15,Apple Lane Drive,45150,39.1734684,-84.2849009
18,Winnebago Drive,45150,39.1711196,-84.2788616
23,Winnebago Drive,45150,39.1714216,-84.2794139
52,Clertoma Drive,45150,39.1722345,-84.2825944
17,Cemetery Road,45150,39.1708482,-84.2784182
27,Apple Lane Drive,45150,39.1718264,-84.2865274
71,Clertoma Drive,45150,39.1720446,-84.2806696
31,Winnebago Drive,45150,39.1720275,-84.2791305
891,Garfield Avenue,45150,39.1702068,-84.2817998
8,Potowatomie Trail,45150,39.1717929,-84.2838832
22,Clertoma Drive,45150,39.1720017,-84.2843659
5,Powhatton Drive,45150,39.1704086,-84.2808432
53,Clertoma Drive,45150,39.1726401,-84.2824087
54,Clertoma Drive,45150,39.1721763,-84.2823997
67,Clertoma Drive,45150,39.1721684,-84.2810532
31,Cemetery Road,45150,39.1719670,-84.2780051
1,Clertoma Drive,45150,39.1705800,-84.2857225
729,Garfield Avenue,45150,39.1708836,-84.2873067
7,Clertoma Drive,45150,39.1710642,-84.2856570
28,Winnebago Drive,45150,39.1719360,-84.2785986
37,Winnebago Drive,45150,39.1725249,-84.2789356
9,Cemetery Road,45150,39.1703984,-84.2785632
32,Winnebago Drive,45150,39.1722380,-84.2784889
28,Potowatomie Trail,45150,39.1711002,-84.2818970
39,Potowatomie Trail,45150,39.1718372,-84.2814200
45,Clertoma Drive,45150,39.1729194,-84.2831617
11,Potowatomie Trail,45150,39.1720891,-84.2834193
9,Clertoma Drive,45150,39.1712356,-84.2855892
28,Powhatton Drive,45150,39.1720173,-84.2797109
8,Powhatton Drive,45150,39.1704610,-84.2802584
22,Apple Lane Drive,45150,39.1725518,-84.2858758
15,Potowatomie Trail,45150,39.1720177,-84.2832179
18,Clertoma Drive,45150,39.1717378,-84.2846346
30,Powhatton Drive,45150,39.1721762,-84.2796598
16,Powhatton Drive,45150,39.1710642,-84.2800473
11,Powhatton Drive,45150,39.1708746,-84.2806540
11,Clertoma Drive,45150,39.1713941,-84.2855057
43,Clertoma Drive,45150,39.1730049,-84.2833400
8,Winnebago Drive,45150,39.1703351,-84.2791869
6,Winnebago Drive,45150,39.1701777,-84.2791927
12,Choctaw Lane,45150,39.1710657,-84.2830789
10,Powhatton Drive,45150,39.1706075,-84.2802126
6,Choctaw Lane,45150,39.1705685,-84.2833925
13,Apple Lane Drive,45150,39.1732330,-84.2846249
1,Choctaw Lane,45150,39.1704302,-84.2840704
19,Winnebago Drive,45150,39.1710762,-84.2794899
11,Winnebago Drive,45150,39.1706247,-84.2796317
36,Apple Lane Drive,45150,39.1706848,-84.2861986
10,Winnebago Drive,45150,39.1704874,-84.2790830
29,Apple Lane Drive,45150,39.1715678,-84.2869006
60,Clertoma Drive,45150,39.1719795,-84.2818427
27,Potowatomie Trail,45150,39.1716085,-84.2820557
33,Winnebago Drive,45150,39.1721871,-84.2790624
7,Powhatton Drive,45150,39.1705613,-84.2807812
8,Clertoma Drive,45150,39.1710233,-84.2851131
14,Powhatton Drive,45150,39.1709132,-84.2800956
11,Apple Lane Drive,45150,39.1729427,-84.2849141
19,Clertoma Drive,45150,39.1718094,-84.2851991
20,Winnebago Drive,45150,39.1712799,-84.2788238
16,Apple Lane Drive,45150,39.1734496,-84.2851355
42,Clertoma Drive,45150,39.1725981,-84.2835489
20,Clertoma Drive,45150,39.1718792,-84.2845079
21,Powhatton Drive,45150,39.1715001,-84.2804775
50,Clertoma Drive,45150,39.1722818,-84.2827931
58,Clertoma Drive,45150,39.1720422,-84.2820313
59,Powhatton Drive,45150,39.1730174,-84.2782517
31,Potowatomie Trail,45150,39.1715011,-84.2815948
9,Powhatton Drive,45150,39.1707200,-84.2807259
2,Winnebago Drive,45150,39.1698301,-84.2793254
35,Powhatton Drive,45150,39.1728630,-84.2799648
12,Winnebago Drive,45150,39.1706581,-84.2790448
72,Clertoma Drive,45150,39.1716867,-84.2808661
39,Powhatton Drive,45150,39.1731640,-84.2797748
11,Choctaw Lane,45150,39.1711581,-84.2836336
12,Powhatton Drive,45150,39.1707624,-84.2801712
62,Clertoma Drive,45150,39.1719189,-84.2816395
16,Winnebago Drive,45150,39.1709774,-84.2789527
9,Winnebago Drive,45150,39.1704850,-84.2796609
16,Choctaw Lane,45150,39.1713673,-84.2829489
893,Garfield Avenue,45150,39.1701852,-84.2815792
36,Potowatomie Trail,45150,39.1713929,-84.2810570
32,Potowatomie Trail,45150,39.1710894,-84.2813695
24,Winnebago Drive,45150,39.1715993,-84.2787249
15,Powhatton Drive,45150,39.1710349,-84.2806040
49,Clertoma Drive,45150,39.1727708,-84.2827958
19,Powhatton Drive,45150,39.1713585,-84.2805150
27,Cemetery Road,45150,39.1716542,-84.2781183
14,Potowatomie Trail,45150,39.1716014,-84.2833358
14,Winnebago Drive,45150,39.1708078,-84.2790129
735,Garfield Avenue,45150,39.1707555,-84.2866384
10,Clertoma Drive,45150,39.1711571,-84.2850629
48,Clertoma Drive,45150,39.1723904,-84.2829684
5,Choctaw Lane,45150,39.1707121,-84.2839094
25,Winnebago Drive,45150,39.1715722,-84.2793029
30,Clertoma Drive,45150,39.1726604,-84.2838574
32,Powhatton Drive,45150,39.1723333,-84.2796035
7,Winnebago Drive,45150,39.1703354,-84.2797264
18,Potowatomie Trail,45150,39.1714810,-84.2828399
27,Clertoma Drive,45150,39.1723668,-84.2847575
12,Clertoma Drive,45150,39.1713000,-84.2849207
26,Apple Lane Drive,45150,39.1719349,-84.2863844
63,Powhatton Drive,45150,39.1728919,-84.2780951
4,Powhatton Drive,45150,39.1701481,-84.2803421
5,Clertoma Drive,45150,39.1708866,-84.2856646
14,Clertoma Drive,45150,39.1714355,-84.2848270
10,Potowatomie Trail,45150,39.1717419,-84.2836840
20,Powhatton Drive,45150,39.1713767,-84.2799176
17,Clertoma Drive,45150,39.1716576,-84.2852955
24,Powhatton Drive,45150,39.1716960,-84.2798236
23,Potowatomie Trail,45150,39.1717450,-84.2824595
4,Apple Lane Drive,45150,39.1719291,-84.2857990
56,Clertoma Drive,45150,39.1721144,-84.2822027
14,Choctaw Lane,45150,39.1712112,-84.2830131
65,Clertoma Drive,45150,39.1722504,-84.2812377
43,Powhatton Drive,45150,39.1733133,-84.2793345
12,Potowatomie Trail,45150,39.1716675,-84.2834921
1,Winnebago Drive,45150,39.1699070,-84.2798789
22,Potowatomie Trail,45150,39.1713085,-84.2824901
23,Apple Lane Drive,45150,39.1723991,-84.2860289
7,Choctaw Lane,45150,39.1708700,-84.2838317
41,Clertoma Drive,45150,39.1730592,-84.2835853
26,Potowatomie Trail,45150,39.1711683,-84.2821247
28,Clertoma Drive,45150,39.1724907,-84.2840250
17,Powhatton Drive,45150,39.1711940,-84.2805604
895,Garfield Avenue,45150,39.1701470,-84.2813573
22,Powhatton Drive,45150,39.1715356,-84.2798609
38,Potowatomie Trail,45150,39.1715430,-84.2809685
30,Potowatomie Trail,45150,39.1710379,-84.2816281
40,Powhatton Drive,45150,39.1728980,-84.2793875
21,Apple Lane Drive,45150,39.1726805,-84.2857517
46,Powhatton Drive,45150,39.1728046,-84.2788054
44,Clertoma Drive,45150,39.1725227,-84.2833743
83,Powhatton Drive,45150,39.1728717,-84.2776015
33,Clertoma Drive,45150,39.1727891,-84.2843976
27,Powhatton Drive,45150,39.1722345,-84.2801951
2,Powhatton Drive,45150,39.1699964,-84.2803650
11,Cemetery Road,45150,39.1705543,-84.2784954
19,Cemetery Road,45150,39.1710091,-84.2783614
46,Clertoma Drive,45150,39.1724575,-84.2831623
6,Apple Lane Drive,45150,39.1721785,-84.2854953
37,Powhatton Drive,45150,39.1730098,-84.2799026
22,Winnebago Drive,45150,39.1714378,-84.2787534
23,Cemetery Road,45150,39.1713408,-84.2782390
33,Apple Lane Drive,45150,39.1709355,-84.2865249
23,Clertoma Drive,45150,39.1720876,-84.2849716
3,Clertoma Drive,45150,39.1707201,-84.2857150
55,Clertoma Drive,45150,39.1725700,-84.2822086
69,Clertoma Drive,45150,39.1720987,-84.2808594
5,Cemetery Road,45150,39.1700854,-84.2786785
34,Powhatton Drive,45150,39.1724906,-84.2795253
30,Winnebago Drive,45150,39.1720782,-84.2785550
51,Powhatton Drive,45150,39.1731958,-84.2786708
48,Powhatton Drive,45150,39.1727030,-84.2786305
42,Powhatton Drive,45150,39.1728755,-84.2791783
101,Apple Lane Drive,45150,39.1709243,-84.2860452
12,Apple Lane Drive,45150,39.1730831,-84.2847534
34,Potowatomie Trail,45150,39.1712227,-84.2811626
61,Clertoma Drive,45150,39.1723680,-84.2816387
39,Clertoma Drive,45150,39.1731025,-84.2838126
21,Clertoma Drive,45150,39.1719493,-84.2850877
2,Apple Lane Drive,45150,39.1715952,-84.2860292
8,Choctaw Lane,45150,39.1707211,-84.2832820
59,Clertoma Drive,45150,39.1724435,-84.2818314
5,Apple Lane Drive,45150,39.1720771,-84.2856801
26,Winnebago Drive,45150,39.1717773,-84.2786633
25,Clertoma Drive,45150,39.1722310,-84.2848699
15,Clertoma Drive,45150,39.1715384,-84.2853880
889,Garfield Avenue,45150,39.1705218,-84.2814676
102,Apple Lane Drive,45150,39.1709749,-84.2860048
34,Apple Lane Drive,45150,39.1707392,-84.2861765
75,Powhatton Drive,45150,39.1727037,-84.2776792
73,Powhatton Drive,45150,39.1726397,-84.2777268
71,Powhatton Drive,45150,39.1725880,-84.2777578
77,Powhatton Drive,45150,39.1727549,-84.2776496
690,Wallace Avenue,45150,39.1744346,-84.2888078
413,Garfield Avenue,45150,39.1728041,-84.2947238
118,High Street,45150,39.1731806,-84.2949722
910,Wallace Avenue,45150,39.1739562,-84.2929246
38,Robbie Ridge,45150,39.1739985,-84.2857417
20,Wallace Grove Lane,45150,39.1731651,-84.2874686
641,Tyler Avenue,45150,39.1751926,-84.2862123
623,Lewis Avenue,45150,39.1760226,-84.2883523
884,Wallace Avenue,45150,39.1751673,-84.2920982
627,Lewis Avenue,45150,39.1757065,-84.2885102
671,Wallace Avenue,45150,39.1745067,-84.2877341
624,Wallace Avenue,45150,39.1759250,-84.2876840
890,Wallace Avenue,45150,39.1748971,-84.2928269
880,Wallace Avenue,45150,39.1747472,-84.2923313
999,Wallace Avenue,45150,39.1732870,-84.2930790
805,Wallace Avenue,45150,39.1732876,-84.2904588
14,Wallace Grove Lane,45150,39.1737435,-84.2873961
617,Tyler Avenue,45150,39.1760458,-84.2859101
673,Wallace Avenue,45150,39.1742842,-84.2876654
736,Lila Avenue,45150,39.1757599,-84.2839507
633,Tyler Avenue,45150,39.1755883,-84.2860783
616,Wallace Avenue,45150,39.1761994,-84.2875449
2,Hogan Drive,45150,39.1729683,-84.2898215
5,Hogan Drive,45150,39.1729547,-84.2904564
520,Main Street,45150,39.1763241,-84.2920869
15,Wallace Grove Lane,45150,39.1729994,-84.2883267
33,Wallace Grove Lane,45150,39.1734351,-84.2862165
686,Tyler Avenue,45150,39.1741947,-84.2870176
4,Wallace Grove Lane,45150,39.1735233,-84.2887590
625,Wallace Avenue,45150,39.1758600,-84.2871210
28,Wallace Grove Lane,45150,39.1733575,-84.2869931
900,Wallace Avenue,45150,39.1742378,-84.2928677
524,Main Street,45150,39.1761912,-84.2918610
29,Robbie Ridge,45150,39.1743075,-84.2852589
746,Lila Avenue,45150,39.1755285,-84.2829314
620,Wallace Avenue,45150,39.1760536,-84.2876033
10,Hogan Drive,45150,39.1725631,-84.2900607
700,Wallace Avenue,45150,39.1742778,-84.2891122
21,Wallace Grove Lane,45150,39.1726698,-84.2875061
32,Wallace Grove Lane,45150,39.1736400,-84.2868760
34,Wallace Grove Lane,45150,39.1736718,-84.2865104
645,Tyler Avenue,45150,39.1750192,-84.2862871
649,Wallace Avenue,45150,39.1750106,-84.2875360
625,Lewis Avenue,45150,39.1758270,-84.2883930
626,Lewis Avenue,45150,39.1756358,-84.2890771
582,Main Street,45150,39.1763916,-84.2890073
36,Robbie Ridge,45150,39.1741637,-84.2858903
536,Main Street,45150,39.1761189,-84.2912597
21,Robbie Ridge,45150,39.1745467,-84.2846916
29,Wallace Grove Lane,45150,39.1729875,-84.2865271
620,Tyler Avenue,45150,39.1760266,-84.2864785
11,Hogan Drive,45150,39.1723498,-84.2909286
578,Main Street,45150,39.1763589,-84.2891665
905,Wallace Avenue,45150,39.1736329,-84.2922178
634,Tyler Avenue,45150,39.1756946,-84.2865602
980,Wallace Avenue,45150,39.1738355,-84.2941197
660,Wallace Avenue,45150,39.1748443,-84.2881278
621,Wallace Avenue,45150,39.1761371,-84.2869669
865,Wallace Avenue,45150,39.1739759,-84.2922066
23,Wallace Grove Lane,45150,39.1726015,-84.2871861
24,Wallace Grove Lane,45150,39.1730610,-84.2872349
860,Wallace Avenue,45150,39.1749020,-84.2914021
8,Wallace Grove Lane,45150,39.1738236,-84.2883265
19,Wallace Grove Lane,45150,39.1728214,-84.2877674
815,Wallace Avenue,45150,39.1733003,-84.2909092
817,Wallace Avenue,45150,39.1727405,-84.2915024
648,Tyler Avenue,45150,39.1752045,-84.2867188
17,Wallace Grove Lane,45150,39.1729282,-84.2880294
800,Wallace Avenue,45150,39.1737315,-84.2899305
633,Lewis Avenue,45150,39.1755366,-84.2885383
990,Wallace Avenue,45150,39.1735885,-84.2934452
3,Susan Circle,45150,39.1749194,-84.2853560
7,Susan Circle,45150,39.1751074,-84.2855588
27,Wallace Grove Lane,45150,39.1728179,-84.2866656
738,Lila Avenue,45150,39.1756861,-84.2834005
616,Lewis Avenue,45150,39.1759927,-84.2888873
623,Wallace Avenue,45150,39.1760091,-84.2870472
626,Tyler Avenue,45150,39.1758766,-84.2865033
6,Hogan Drive,45150,39.1727865,-84.2899391
646,Wallace Avenue,45150,39.1752943,-84.2881560
28,Robbie Ridge,45150,39.1745556,-84.2856965
639,Tyler Avenue,45150,39.1753161,-84.2861831
614,Tyler Avenue,45150,39.1761839,-84.2864159
22,Robbie Ridge,45150,39.1748690,-84.2851533
644,Tyler Avenue,45150,39.1753742,-84.2866587
656,Tyler Avenue,45150,39.1750640,-84.2867563
801,Wallace Avenue,45150,39.1731587,-84.2894355
656,Wallace Avenue,45150,39.1750017,-84.2880856
637,Lewis Avenue,45150,39.1753995,-84.2886220
636,Wallace Avenue,45150,39.1755561,-84.2878065
568,Main Street,45150,39.1763241,-84.2896100
657,Wallace Avenue,45150,39.1746670,-84.2876834
637,Tyler Avenue,45150,39.1754514,-84.2861367
33,Robbie Ridge,45150,39.1740871,-84.2853383
564,Main Street,45150,39.1762995,-84.2898743
668,Tyler Avenue,45150,39.1747405,-84.2868484
28,Susan Circle,45150,39.1755318,-84.2851142
645,Lewis Avenue,45150,39.1751405,-84.2887159
790,Lila Avenue,45150,39.1754205,-84.2825203
627,Wallace Avenue,45150,39.1756830,-84.2872129
740,Lila Avenue,45150,39.1756150,-84.2831476
18,Wallace Grove Lane,45150,39.1733040,-84.2877576
16,Wallace Grove Lane,45150,39.1734108,-84.2880348
683,Tyler Avenue,45150,39.1741672,-84.2865493
634,Wallace Avenue,45150,39.1756789,-84.2877831
13,Kenny Court,45150,39.1750405,-84.2828904
618,Lewis Avenue,45150,39.1758877,-84.2889260
665,Tyler Avenue,45150,39.1747262,-84.2863304
514,Main Street,45150,39.1763823,-84.2923303
653,Wallace Avenue,45150,39.1748838,-84.2876152
674,Tyler Avenue,45150,39.1745900,-84.2868939
666,Wallace Avenue,45150,39.1746710,-84.2882515
31,Wallace Grove Lane,45150,39.1731722,-84.2863270
920,Wallace Avenue,45150,39.1743636,-84.2935221
680,Tyler Avenue,45150,39.1744132,-84.2869501
623,Tyler Avenue,45150,39.1759418,-84.2859617
620,Lewis Avenue,45150,39.1757850,-84.2889746
639,Wallace Avenue,45150,39.1754584,-84.2872837
7,Hogan Drive,45150,39.1727514,-84.2906252
615,Wallace Avenue,45150,39.1762843,-84.2869242
681,Tyler Avenue,45150,39.1743266,-84.2864866
538,Main Street,45150,39.1760737,-84.2909968
660,Tyler Avenue,45150,39.1749190,-84.2868484
647,Wallace Avenue,45150,39.1751394,-84.2874449
574,Main Street,45150,39.1763548,-84.2893913
586,Main Street,45150,39.1764345,-84.2888236
7,Kenny Court,45150,39.1752846,-84.2832557
2,Wallace Grove Lane,45150,39.1736214,-84.2891421
12,Hogan Drive,45150,39.1720471,-84.2905563
6,Wallace Grove Lane,45150,39.1735838,-84.2884960
32,Robbie Ridge,45150,39.1743571,-84.2858301
12,Wallace Grove Lane,45150,39.1738410,-84.2877278
650,Wallace Avenue,45150,39.1751582,-84.2879919
627,Tyler Avenue,45150,39.1757801,-84.2859979
10,Wallace Grove Lane,45150,39.1739147,-84.2880396
640,Wallace Avenue,45150,39.1754491,-84.2878258
886,Wallace Avenue,45150,39.1751383,-84.2924857
689,Tyler Avenue,45150,39.1739818,-84.2866346
25,Wallace Grove Lane,45150,39.1726738,-84.2869115
645,Wallace Avenue,45150,39.1752937,-84.2873632
24,Robbie Ridge,45150,39.1746998,-84.2854576
25,Robbie Ridge,45150,39.1743762,-84.2849906
820,Wallace Avenue,45150,39.1740672,-84.2904549
828,Lila Avenue,45150,39.1741796,-84.2838835
7,Tabaleen Lane,45150,39.1742350,-84.2837830
8,Tabaleen Lane,45150,39.1742615,-84.2837117
1,Tabaleen Lane,45150,39.1741629,-84.2837384
2,Tabaleen Lane,45150,39.1741894,-84.2836673
9,Tabaleen Lane,45150,39.1742881,-84.2836395
10,Tabaleen Lane,45150,39.1743148,-84.2835673
4,Tabaleen Lane,45150,39.1742429,-84.2835230
3,Tabaleen Lane,45150,39.1742160,-84.2835951
11,Tabaleen Lane,45150,39.1743414,-84.2834961
12,Tabaleen Lane,45150,39.1743679,-84.2834248
6,Tabaleen Lane,45150,39.1742960,-84.2833804
5,Tabaleen Lane,45150,39.1742694,-84.2834515
36,Tabaleen Lane,45150,39.1735341,-84.2839403
35,Tabaleen Lane,45150,39.1735717,-84.2838780
34,Tabaleen Lane,45150,39.1736097,-84.2838149
33,Tabaleen Lane,45150,39.1736477,-84.2837517
32,Tabaleen Lane,45150,39.1736855,-84.2836892
31,Tabaleen Lane,45150,39.1737232,-84.2836269
25,Tabaleen Lane,45150,39.1737861,-84.2836901
26,Tabaleen Lane,45150,39.1737484,-84.2837525
27,Tabaleen Lane,45150,39.1737107,-84.2838148
28,Tabaleen Lane,45150,39.1736727,-84.2838780
29,Tabaleen Lane,45150,39.1736348,-84.2839412
30,Tabaleen Lane,45150,39.1735973,-84.2840036
24,Tabaleen Lane,45150,39.1738150,-84.2834371
23,Tabaleen Lane,45150,39.1738531,-84.2833754
22,Tabaleen Lane,45150,39.1738914,-84.2833127
21,Tabaleen Lane,45150,39.1739300,-84.2832500
20,Tabaleen Lane,45150,39.1739688,-84.2831879
19,Tabaleen Lane,45150,39.1740210,-84.2831122
13,Tabaleen Lane,45150,39.1740721,-84.2831662
14,Tabaleen Lane,45150,39.1740305,-84.2832520
15,Tabaleen Lane,45150,39.1739925,-84.2833138
16,Tabaleen Lane,45150,39.1739540,-84.2833765
17,Tabaleen Lane,45150,39.1739156,-84.2834392
18,Tabaleen Lane,45150,39.1738776,-84.2835013
42,Tabaleen Lane,45150,39.1736635,-84.2844095
41,Tabaleen Lane,45150,39.1737061,-84.2843530
40,Tabaleen Lane,45150,39.1737491,-84.2842955
39,Tabaleen Lane,45150,39.1737923,-84.2842381
38,Tabaleen Lane,45150,39.1738352,-84.2841813
37,Tabaleen Lane,45150,39.1738778,-84.2841247
43,Tabaleen Lane,45150,39.1739351,-84.2841964
44,Tabaleen Lane,45150,39.1738924,-84.2842531
45,Tabaleen Lane,45150,39.1738495,-84.2843097
46,Tabaleen Lane,45150,39.1738065,-84.2843672
47,Tabaleen Lane,45150,39.1737635,-84.2844246
48,Tabaleen Lane,45150,39.1737208,-84.2844814
54,Tabaleen Lane,45150,39.1737646,-84.2847225
53,Tabaleen Lane,45150,39.1738068,-84.2846470
52,Tabaleen Lane,45150,39.1738499,-84.2845895
51,Tabaleen Lane,45150,39.1738926,-84.2845310
50,Tabaleen Lane,45150,39.1739350,-84.2844736
49,Tabaleen Lane,45150,39.1739913,-84.2844152
55,Tabaleen Lane,45150,39.1740348,-84.2844688
56,Tabaleen Lane,45150,39.1739926,-84.2845449
57,Tabaleen Lane,45150,39.1739504,-84.2846019
58,Tabaleen Lane,45150,39.1739077,-84.2846598
59,Tabaleen Lane,45150,39.1738641,-84.2847190
60,Tabaleen Lane,45150,39.1738088,-84.2847757
23,Robbie Ridge,45150,39.1745138,-84.2847952
19,Robbie Ridge,45150,39.1745804,-84.2844310
15,Robbie Ridge,45150,39.1746864,-84.2841658
828,Lila Avenue,45150,39.1738942,-84.2839178
306,High Street,45150,39.1748155,-84.2943337
308,High Street,45150,39.1749226,-84.2942844
302,High Street,45150,39.1746118,-84.2944308
304,High Street,45150,39.1747189,-84.2943815
500,Main Street,45150,39.1764110,-84.2929035
510,Main Street,45150,39.1763890,-84.2923885
522,Main Street,45150,39.1763170,-84.2920325
28,Susan Circle,45150,39.1753165,-84.2848459
615,Tyler Avenue,45150,39.1760980,-84.2858989
657,Wallace Avenue,45150,39.1747547,-84.2876511
743,US 50,45150,39.1681741,-84.2697113
420,Milford Parkway,45150,39.1677162,-84.2749058
400,Milford Parkway,45150,39.1677550,-84.2746235
480,Milford Parkway,45150,39.1673406,-84.2756079
460,Milford Parkway,45150,39.1675074,-84.2754006
5401,South Milford Road,45150,39.1642079,-84.2930264
707,State Route 28,45150,39.1821757,-84.2683833
707,State Route 28,45150,39.1822253,-84.2682602
707,State Route 28,45150,39.1820485,-84.2682210
707,State Route 28,45150,39.1820005,-84.2683393
707,State Route 28,45150,39.1818935,-84.2685809
707,State Route 28,45150,39.1822065,-84.2701230
707,State Route 28,45150,39.1823457,-84.2693128
707,State Route 28,45150,39.1829245,-84.2675545
707,State Route 28,45150,39.1829647,-84.2667436
707,State Route 28,45150,39.1827581,-84.2671708
707,State Route 28,45150,39.1833388,-84.2662375
25,Valley View Cirlce,45150,39.1791220,-84.2769723
35,Oakcrest Drive,45150,39.1783451,-84.2770650
956,Seminole Trail,45150,39.1789834,-84.2732628
982,Seminole Trail,45150,39.1777022,-84.2753561
707,State Route 28,45150,39.1817889,-84.2691786
40,Oakcrest Drive,45150,39.1786878,-84.2759759
4,Promont Court,45150,39.1772610,-84.2782081
707,State Route 28,45150,39.1826250,-84.2682296
707,State Route 28,45150,39.1831240,-84.2662529
707,State Route 28,45150,39.1816119,-84.2683052
707,State Route 28,45150,39.1819524,-84.2688677
707,State Route 28,45150,39.1829427,-84.2670065
707,State Route 28,45150,39.1826956,-84.2664659
945,Mohawk Trail,45150,39.1780957,-84.2724007
17,Oakcrest Drive,45150,39.1781357,-84.2779841
707,State Route 28,45150,39.1832881,-84.2666791
707,State Route 28,45150,39.1818030,-84.2679121
707,State Route 28,45150,39.1821630,-84.2679736
13,Valley View Cirlce,45150,39.1790706,-84.2781736
707,State Route 28,45150,39.1826328,-84.2686826
900,Mohawk Trail,45150,39.1760327,-84.2761564
710,Osage Trail,45150,39.1772529,-84.2740218
993,Seminole Trail,45150,39.1770470,-84.2766654
914,Mohawk Trail,45150,39.1764062,-84.2748413
707,State Route 28,45150,39.1816847,-84.2689269
709,Osage Trail,45150,39.1773704,-84.2745622
42,Crestview Drive,45150,39.1796429,-84.2739115
707,State Route 28,45150,39.1821165,-84.2671873
707,State Route 28,45150,39.1822126,-84.2669379
981,Seminole Trail,45150,39.1780524,-84.2756170
951,Mohawk Trail,45150,39.1786352,-84.2724353
20,Valley View Cirlce,45150,39.1786755,-84.2772464
605,Sioux Court,45150,39.1766403,-84.2753840
707,State Route 28,45150,39.1824631,-84.2690434
995,Seminole Trail,45150,39.1768908,-84.2768475
989,Seminole Trail,45150,39.1773616,-84.2763304
997,Seminole Trail,45150,39.1767307,-84.2769995
992,Seminole Trail,45150,39.1768186,-84.2761177
707,State Route 28,45150,39.1830080,-84.2662891
26,Oakcrest Drive,45150,39.1779561,-84.2766834
62,Crestview Drive,45150,39.1792771,-84.2717352
980,Seminole Trail,45150,39.1778397,-84.2751835
928,Mohawk Trail,45150,39.1771813,-84.2736272
707,State Route 28,45150,39.1826766,-84.2681248
707,State Route 28,45150,39.1830255,-84.2675032
966,Seminole Trail,45150,39.1787231,-84.2737728
707,State Route 28,45150,39.1816718,-84.2681643
707,State Route 28,45150,39.1830884,-84.2673891
707,State Route 28,45150,39.1832247,-84.2662476
602,Sioux Court,45150,39.1771050,-84.2753707
34,Oakcrest Drive,45150,39.1784409,-84.2762058
707,State Route 28,45150,39.1815392,-84.2686351
11,Valley View Cirlce,45150,39.1789524,-84.2784973
977,Seminole Trail,45150,39.1783406,-84.2752269
930,Mohawk Trail,45150,39.1773269,-84.2734829
976,Seminole Trail,45150,39.1780021,-84.2748929
707,State Route 28,45150,39.1828388,-84.2677842
707,State Route 28,45150,39.1829018,-84.2663232
1,Promont Court,45150,39.1772940,-84.2774361
950,Mohawk Trail,45150,39.1786478,-84.2729944
991,Seminole Trail,45150,39.1772025,-84.2764959
707,State Route 28,45150,39.1837276,-84.2672764
707,State Route 28,45150,39.1835118,-84.2673161
707,State Route 28,45150,39.1820266,-84.2687504
707,State Route 28,45150,39.1825824,-84.2670893
726,Mohawk Trail,45150,39.1754682,-84.2792439
707,State Route 28,45150,39.1822294,-84.2695190
707,State Route 28,45150,39.1820859,-84.2698660
21,Valley View Cirlce,45150,39.1791482,-84.2773570
970,Seminole Trail,45150,39.1785372,-84.2741436
948,Mohawk Trail,45150,39.1784765,-84.2729490
975,Seminole Trail,45150,39.1784780,-84.2750260
940,Mohawk Trail,45150,39.1779351,-84.2730562
19,Oakcrest Drive,45150,39.1779726,-84.2774429
707,State Route 28,45150,39.1830725,-84.2667132
707,State Route 28,45150,39.1819653,-84.2675688
69,Crestview Drive,45150,39.1794256,-84.2714006
707,State Route 28,45150,39.1819503,-84.2684790
46,Oakcrest Drive,45150,39.1789530,-84.2755841
707,State Route 28,45150,39.1826702,-84.2673432
707,State Route 28,45150,39.1817289,-84.2680369
707,State Route 28,45150,39.1832776,-84.2668799
984,Seminole Trail,45150,39.1775672,-84.2755056
706,Osage Trail,45150,39.1776686,-84.2741346
707,State Route 28,45150,39.1824374,-84.2686297
707,State Route 28,45150,39.1818384,-84.2693171
909,Mohawk Trail,45150,39.1758254,-84.2751407
707,State Route 28,45150,39.1833932,-84.2668893
939,Mohawk Trail,45150,39.1775909,-84.2726877
943,Mohawk Trail,45150,39.1779274,-84.2724886
894,Mohawk Trail,45150,39.1759936,-84.2769101
967,Seminole Trail,45150,39.1789928,-84.2741781
941,Mohawk Trail,45150,39.1777587,-84.2725818
711,Osage Trail,45150,39.1771963,-84.2745034
707,Osage Trail,45150,39.1775444,-84.2746200
603,Sioux Court,45150,39.1766219,-84.2756181
707,State Route 28,45150,39.1823881,-84.2691793
927,Mohawk Trail,45150,39.1765621,-84.2736502
707,State Route 28,45150,39.1816208,-84.2688074
985,Seminole Trail,45150,39.1777101,-84.2759794
965,Seminole Trail,45150,39.1791257,-84.2739323
707,State Route 28,45150,39.1822933,-84.2668063
905,Mohawk Trail,45150,39.1756955,-84.2755567
884,Mohawk Trail,45150,39.1759472,-84.2777179
707,State Route 28,45150,39.1836269,-84.2666852
12,Valley View Cirlce,45150,39.1785675,-84.2783356
707,State Route 28,45150,39.1821456,-84.2699980
32,Oakcrest Drive,45150,39.1782297,-84.2764586
919,Mohawk Trail,45150,39.1762562,-84.2741362
949,Mohawk Trail,45150,39.1784521,-84.2723994
707,State Route 28,45150,39.1823929,-84.2687328
987,Seminole Trail,45150,39.1775506,-84.2761484
845,Milford Vista Lane,45150,39.1758128,-84.2786747
707,State Route 28,45150,39.1835182,-84.2666692
707,State Route 28,45150,39.1830499,-84.2669451
38,Crestview Drive,45150,39.1797467,-84.2740881
954,Mohawk Trail,45150,39.1788229,-84.2730743
800,Milford Vista Lane,45150,39.1761173,-84.2793676
3,Promont Court,45150,39.1769610,-84.2778718
968,Seminole Trail,45150,39.1786325,-84.2739593
936,Mohawk Trail,45150,39.1776277,-84.2732655
896,Mohawk Trail,45150,39.1760402,-84.2764853
969,Seminole Trail,45150,39.1788780,-84.2743746
707,State Route 28,45150,39.1833979,-84.2673071
713,Osage Trail,45150,39.1770258,-84.2744687
913,Mohawk Trail,45150,39.1759553,-84.2747100
707,State Route 28,45150,39.1815481,-84.2684483
999,Seminole Trail,45150,39.1765255,-84.2770115
604,Sioux Court,45150,39.1769877,-84.2751667
65,Crestview Drive,45150,39.1796908,-84.2714621
707,State Route 28,45150,39.1827928,-84.2679047
707,State Route 28,45150,39.1825472,-84.2688408
707,State Route 28,45150,39.1825041,-84.2685048
916,Mohawk Trail,45150,39.1764940,-84.2746526
704,Osage Trail,45150,39.1778659,-84.2742000
707,State Route 28,45150,39.1822777,-84.2681341
707,State Route 28,45150,39.1821245,-84.2685142
707,State Route 28,45150,39.1818437,-84.2677911
707,State Route 28,45150,39.1820424,-84.2672946
923,Mohawk Trail,45150,39.1764028,-84.2738641
907,Mohawk Trail,45150,39.1757644,-84.2753416
707,State Route 28,45150,39.1837154,-84.2668917
707,State Route 28,45150,39.1827904,-84.2664002
998,Seminole Trail,45150,39.1764397,-84.2765224
912,Mohawk Trail,45150,39.1763257,-84.2750344
601,Sioux Court,45150,39.1766841,-84.2758602
910,Mohawk Trail,45150,39.1762499,-84.2752222
606,Sioux Court,45150,39.1767768,-84.2751615
938,Mohawk Trail,45150,39.1777802,-84.2731501
707,State Route 28,45150,39.1825760,-84.2683790
979,Seminole Trail,45150,39.1782039,-84.2754139
61,Crestview Drive,45150,39.1797549,-84.2718271
986,Seminole Trail,45150,39.1774286,-84.2756491
2,Oakcrest Drive,45150,39.1783690,-84.2792144
15,Valley View Cirlce,45150,39.1791049,-84.2778507
947,Mohawk Trail,45150,39.1782714,-84.2724017
707,State Route 28,45150,39.1835948,-84.2668927
707,State Route 28,45150,39.1825152,-84.2672180
953,Mohawk Trail,45150,39.1788022,-84.2724846
904,Mohawk Trail,45150,39.1760970,-84.2757595
911,Mohawk Trail,45150,39.1758972,-84.2749400
29,Valley View Cirlce,45150,39.1790218,-84.2763458
707,State Route 28,45150,39.1839323,-84.2673183
934,Mohawk Trail,45150,39.1774822,-84.2733681
707,State Route 28,45150,39.1820007,-84.2674293
901,Mohawk Trail,45150,39.1755194,-84.2760241
994,Seminole Trail,45150,39.1767345,-84.2763047
707,State Route 28,45150,39.1828792,-84.2676578
990,Seminole Trail,45150,39.1771394,-84.2758594
705,Osage Trail,45150,39.1777273,-84.2746773
996,Seminole Trail,45150,39.1765790,-84.2763954
983,Seminole Trail,45150,39.1778865,-84.2757946
708,Osage Trail,45150,39.1774779,-84.2740787
946,Mohawk Trail,45150,39.1782898,-84.2729465
860,Milford Vista Lane,45150,39.1761996,-84.2783141
58,Crestview Drive,45150,39.1794747,-84.2720539
707,State Route 28,45150,39.1821556,-84.2670472
707,State Route 28,45150,39.1826638,-84.2670008
918,Mohawk Trail,45150,39.1767355,-84.2743948
820,Milford Vista Lane,45150,39.1762162,-84.2789573
707,State Route 28,45150,39.1827520,-84.2668936
707,State Route 28,45150,39.1840548,-84.2674028
892,Mohawk Trail,45150,39.1760347,-84.2774318
961,Seminole Trail,45150,39.1793986,-84.2735444
702,Osage Trail,45150,39.1780652,-84.2743026
707,State Route 28,45150,39.1822871,-84.2689868
926,Mohawk Trail,45150,39.1770495,-84.2739252
963,Seminole Trail,45150,39.1792377,-84.2737317
988,Seminole Trail,45150,39.1772929,-84.2757836
37,Oakcrest Drive,45150,39.1786068,-84.2767901
917,Mohawk Trail,45150,39.1761334,-84.2743774
1000,Seminole Trail,45150,39.1763924,-84.2767979
707,State Route 28,45150,39.1823307,-84.2688644
942,Mohawk Trail,45150,39.1781084,-84.2729906
972,Seminole Trail,45150,39.1783054,-84.2744515
707,State Route 28,45150,39.1821804,-84.2692241
964,Seminole Trail,45150,39.1788277,-84.2735948
707,State Route 28,45150,39.1818951,-84.2676782
973,Seminole Trail,45150,39.1786228,-84.2748239
2,Promont Court,45150,39.1775588,-84.2779077
971,Seminole Trail,45150,39.1787819,-84.2745978
955,Mohawk Trail,45150,39.1789786,-84.2725760
915,Mohawk Trail,45150,39.1760465,-84.2745317
707,State Route 28,45150,39.1834940,-84.2668837
707,State Route 28,45150,39.1833989,-84.2666699
908,Mohawk Trail,45150,39.1761803,-84.2754307
16,Valley View Cirlce,45150,39.1786339,-84.2777517
22,Oakcrest Drive,45150,39.1776548,-84.2770074
707,State Route 28,45150,39.1829004,-84.2684297
830,US 50,45150,39.1659028,-84.2613381
729,State Route 28,45150,39.1831354,-84.2695004
201,Edgecombe Drive,45150,39.1814044,-84.2709473
749,State Route 28,45150,39.1836805,-84.2679556
749,State Route 28,45150,39.1835600,-84.2682258
749,State Route 28,45150,39.1836201,-84.2680958
903,Mohawk Trail,45150,39.1755578,-84.2757818
730,Main Street,45150,39.1769145,-84.2855513
25,Crestview Drive,45150,39.1802934,-84.2744714
733,Lila Avenue,45150,39.1764461,-84.2847994
8,Hickory View Lane,45150,39.1857570,-84.2836109
310,Miami Lakes Drive,45150,39.1882636,-84.2838728
13,Miami Woods Drive,45150,39.1867330,-84.2837613
10,Big Oak Lane,45150,39.1857479,-84.2822440
134,Miami Lakes Drive,45150,39.1900239,-84.2813725
141,Miami Lakes Drive,45150,39.1906017,-84.2811391
135,Miami Lakes Drive,45150,39.1904047,-84.2808413
339,Miami Lakes Drive,45150,39.1861245,-84.2851196
18,Miami Woods Drive,45150,39.1861696,-84.2843666
40,Big Oak Lane,45150,39.1863383,-84.2815138
28,Big Oak Lane,45150,39.1857187,-84.2812363
5,Little Creek Lane,45150,39.1853611,-84.2830953
207,Miami Lakes Drive,45150,39.1910088,-84.2823999
34,Big Oak Lane,45150,39.1860418,-84.2812809
34,Miami Lakes Drive,45150,39.1881958,-84.2829177
22,Miami Lakes Drive,45150,39.1876728,-84.2834637
9,Little Creek Lane,45150,39.1852681,-84.2826503
220,Miami Lakes Drive,45150,39.1897881,-84.2831026
127,Miami Lakes Drive,45150,39.1896954,-84.2810085
20,Big Oak Lane,45150,39.1855288,-84.2816226
35,Miami Lakes Drive,45150,39.1881369,-84.2823882
155,Miami Lakes Drive,45150,39.1911672,-84.2818192
16,Miami Woods Drive,45150,39.1863338,-84.2841474
6,Big Oak Lane,45150,39.1859272,-84.2824472
121,Miami Lakes Drive,45150,39.1893053,-84.2811509
14,Hickory View Lane,45150,39.1856061,-84.2841506
6,Miami Woods Drive,45150,39.1861874,-84.2834751
10,Hickory View Lane,45150,39.1856563,-84.2838024
12,Miami Woods Drive,45150,39.1864183,-84.2838245
129,Miami Lakes Drive,45150,39.1899366,-84.2809046
9,Hickory View Lane,45150,39.1858383,-84.2842913
115,Miami Lakes Drive,45150,39.1888820,-84.2814213
201,Miami Lakes Drive,45150,39.1915642,-84.2820172
320,Miami Lakes Drive,45150,39.1879431,-84.2845659
109,Miami Lakes Drive,45150,39.1886064,-84.2817017
1,Hickory View Lane,45150,39.1860932,-84.2837361
212,Miami Lakes Drive,45150,39.1896165,-84.2823255
29,Miami Lakes Drive,45150,39.1878501,-84.2828160
251,Miami Lakes Drive,45150,39.1891813,-84.2851761
4,Big Oak Lane,45150,39.1860775,-84.2823159
22,Big Oak Lane,45150,39.1854843,-84.2813976
205,Miami Lakes Drive,45150,39.1911723,-84.2823408
229,Miami Lakes Drive,45150,39.1901115,-84.2837950
1,White Water Way,45150,39.1888117,-84.2827580
3,White Water Way,45150,39.1888790,-84.2828948
7,White Water Way,45150,39.1889329,-84.2830958
146,Miami Lakes Drive,45150,39.1906126,-84.2819846
142,Miami Lakes Drive,45150,39.1904869,-84.2817761
140,Miami Lakes Drive,45150,39.1904157,-84.2817202
126,Miami Lakes Drive,45150,39.1895399,-84.2815459
311,Miami Lakes Drive,45150,39.1880077,-84.2850452
333,Miami Lakes Drive,45150,39.1866359,-84.2851460
331,Miami Lakes Drive,45150,39.1867255,-84.2851326
323,Miami Lakes Drive,45150,39.1873105,-84.2850068
245,Miami Lakes Drive,45150,39.1894879,-84.2846796
243,Miami Lakes Drive,45150,39.1895897,-84.2845556
235,Miami Lakes Drive,45150,39.1898536,-84.2841552
215,Miami Lakes Drive,45150,39.1906793,-84.2828870
225,Miami Lakes Drive,45150,39.1902515,-84.2836003
309,Miami Lakes Drive,45150,39.1882400,-84.2850486
202,Miami Lakes Drive,45150,39.1903334,-84.2825637
124,Miami Lakes Drive,45150,39.1894624,-84.2815736
122,Miami Lakes Drive,45150,39.1893645,-84.2816227
120,Miami Lakes Drive,45150,39.1892646,-84.2816229
317,Miami Lakes Drive,45150,39.1877699,-84.2850271
327,Miami Lakes Drive,45150,39.1870908,-84.2850126
249,Miami Lakes Drive,45150,39.1893564,-84.2848873
247,Miami Lakes Drive,45150,39.1894386,-84.2847343
241,Miami Lakes Drive,45150,39.1896634,-84.2843740
239,Miami Lakes Drive,45150,39.1897307,-84.2842828
237,Miami Lakes Drive,45150,39.1897764,-84.2842337
223,Miami Lakes Drive,45150,39.1904600,-84.2833621
231,Miami Lakes Drive,45150,39.1900620,-84.2839025
227,Miami Lakes Drive,45150,39.1901552,-84.2837349
9,White Water Way,45150,39.1889928,-84.2831885
144,Miami Lakes Drive,45150,39.1905707,-84.2818842
128,Miami Lakes Drive,45150,39.1896257,-84.2814786
315,Miami Lakes Drive,45150,39.1878796,-84.2850374
329,Miami Lakes Drive,45150,39.1868713,-84.2850908
221,Miami Lakes Drive,45150,39.1905163,-84.2832270
219,Miami Lakes Drive,45150,39.1905549,-84.2830935
217,Miami Lakes Drive,45150,39.1905855,-84.2830222
233,Miami Lakes Drive,45150,39.1899904,-84.2840447
5,White Water Way,45150,39.1889104,-84.2830211
11,White Water Way,45150,39.1890644,-84.2833211
307,Miami Lakes Drive,45150,39.1883316,-84.2850761
305,Miami Lakes Drive,45150,39.1884225,-84.2850849
303,Miami Lakes Drive,45150,39.1885187,-84.2850891
301,Miami Lakes Drive,45150,39.1886111,-84.2850836
319,Miami Lakes Drive,45150,39.1876439,-84.2850032
335,Miami Lakes Drive,45150,39.1865052,-84.2851650
321,Miami Lakes Drive,45150,39.1874338,-84.2849876
325,Miami Lakes Drive,45150,39.1872171,-84.2850113
42,Big Oak Lane,45150,39.1864197,-84.2815643
38,Big Oak Lane,45150,39.1862328,-84.2813440
36,Big Oak Lane,45150,39.1861320,-84.2813186
30,Big Oak Lane,45150,39.1858248,-84.2812441
32,Big Oak Lane,45150,39.1859184,-84.2812292
7,Little Creek Lane,45150,39.1853086,-84.2827702
3,Little Creek Lane,45150,39.1853416,-84.2832226
1,Little Creek Lane,45150,39.1853138,-84.2833552
11,Miami Woods Drive,45150,39.1867997,-84.2836524
337,Miami Lakes Drive,45150,39.1862069,-84.2852087
2,Big Oak Lane,45150,39.1861776,-84.2822997
33,Miami Lakes Drive,45150,39.1880693,-84.2825256
27,Miami Lakes Drive,45150,39.1877046,-84.2829769
107,Miami Lakes Drive,45150,39.1885075,-84.2817689
111,Miami Lakes Drive,45150,39.1887903,-84.2814953
8,Big Oak Lane,45150,39.1858263,-84.2824165
3,Hickory View Lane,45150,39.1860111,-84.2838630
8,Miami Woods Drive,45150,39.1862906,-84.2834980
16,Big Oak Lane,45150,39.1856160,-84.2818468
18,Big Oak Lane,45150,39.1855598,-84.2817452
14,Big Oak Lane,45150,39.1856415,-84.2820194
12,Big Oak Lane,45150,39.1856985,-84.2821455
26,Big Oak Lane,45150,39.1855671,-84.2811684
24,Big Oak Lane,45150,39.1855433,-84.2813286
10,Miami Woods Drive,45150,39.1864260,-84.2836862
16,Hickory View Lane,45150,39.1856602,-84.2842693
12,Hickory View Lane,45150,39.1856355,-84.2839233
7,Hickory View Lane,45150,39.1859396,-84.2842395
20,Miami Woods Drive,45150,39.1861595,-84.2845141
14,Miami Woods Drive,45150,39.1863277,-84.2840140
2,Hickory View Lane,45150,39.1858651,-84.2832572
4,Hickory View Lane,45150,39.1858401,-84.2833643
6,Hickory View Lane,45150,39.1857952,-84.2834875
275,Rivers Edge Drive,45150,39.1606853,-84.2726725
175,Rivers Edge Drive,45150,39.1601098,-84.2746696
203,Miami Lakes Drive,45150,39.1913330,-84.2822199
210,Miami Lakes Drive,45150,39.1897699,-84.2821978
214,Miami Lakes Drive,45150,39.1895667,-84.2828394
222,Miami Lakes Drive,45150,39.1898403,-84.2832681
216,Miami Lakes Drive,45150,39.1896924,-84.2829301
218,Miami Lakes Drive,45150,39.1897410,-84.2829919
208,Miami Lakes Drive,45150,39.1901010,-84.2822319
206,Miami Lakes Drive,45150,39.1901826,-84.2823822
204,Miami Lakes Drive,45150,39.1902282,-84.2824471
312,Miami Lakes Drive,45150,39.1881106,-84.2837509
131,Miami Lakes Drive,45150,39.1900739,-84.2809015
125,Miami Lakes Drive,45150,39.1895660,-84.2810316
119,Miami Lakes Drive,45150,39.1891829,-84.2811975
133,Miami Lakes Drive,45150,39.1902700,-84.2807868
139,Miami Lakes Drive,45150,39.1905534,-84.2809984
143,Miami Lakes Drive,45150,39.1907146,-84.2813205
145,Miami Lakes Drive,45150,39.1908264,-84.2814374
147,Miami Lakes Drive,45150,39.1908746,-84.2815044
151,Miami Lakes Drive,45150,39.1909993,-84.2816700
149,Miami Lakes Drive,45150,39.1909726,-84.2815518
153,Miami Lakes Drive,45150,39.1910428,-84.2817203
136,Miami Lakes Drive,45150,39.1901219,-84.2813261
132,Miami Lakes Drive,45150,39.1899222,-84.2813484
316,Miami Lakes Drive,45150,39.1879276,-84.2843233
314,Miami Lakes Drive,45150,39.1879374,-84.2841712
318,Miami Lakes Drive,45150,39.1879278,-84.2844172
308,Miami Lakes Drive,45150,39.1883668,-84.2841942
306,Miami Lakes Drive,45150,39.1883764,-84.2843474
304,Miami Lakes Drive,45150,39.1883577,-84.2844424
302,Miami Lakes Drive,45150,39.1883424,-84.2845936
26,Miami Lakes Drive,45150,39.1878164,-84.2833038
24,Miami Lakes Drive,45150,39.1877736,-84.2834050
28,Miami Lakes Drive,45150,39.1879689,-84.2831220
32,Miami Lakes Drive,45150,39.1881578,-84.2830145
30,Miami Lakes Drive,45150,39.1880615,-84.2831022
100,Miami Lakes Drive,45150,39.1884484,-84.2825469
104,Miami Lakes Drive,45150,39.1885755,-84.2823619
102,Miami Lakes Drive,45150,39.1885135,-84.2824890
106,Miami Lakes Drive,45150,39.1885807,-84.2822324
110,Miami Lakes Drive,45150,39.1888295,-84.2819615
114,Miami Lakes Drive,45150,39.1890150,-84.2818452
112,Miami Lakes Drive,45150,39.1889199,-84.2819381
116,Miami Lakes Drive,45150,39.1890485,-84.2817443
23,White Water Way,45150,39.1890681,-84.2842432
21,White Water Way,45150,39.1890655,-84.2840893
19,White Water Way,45150,39.1890630,-84.2839786
17,White Water Way,45150,39.1890680,-84.2838902
15,White Water Way,45150,39.1890885,-84.2837755
13,White Water Way,45150,39.1890815,-84.2836179
213,Miami Lakes Drive,45150,39.1907427,-84.2826782
211,Miami Lakes Drive,45150,39.1908479,-84.2825568
209,Miami Lakes Drive,45150,39.1909095,-84.2825161
257,Miami Lakes Drive,45150,39.1889010,-84.2851384
253,Miami Lakes Drive,45150,39.1890921,-84.2851404
255,Miami Lakes Drive,45150,39.1889939,-84.2851223
950,Walnut Street,45150,39.1800877,-84.2806485
960,Walnut Street,45150,39.1808017,-84.2796455
940,Walnut Street,45150,39.1793057,-84.2804108
520,Miami Avenue,45150,39.1842728,-84.2827828
1102,Center Street,45150,39.1810965,-84.2811437
1922,Oak Brook Place,45150,39.1837138,-84.2793363
1053,Main Street,45150,39.1820108,-84.2755217
748,State Route 28,45150,39.1857210,-84.2692612
748,State Route 28,45150,39.1856238,-84.2695251
2110,Oak Brook Place,45150,39.1838580,-84.2785842
2111,Oak Brook Place,45150,39.1838692,-84.2785186
2112,Oak Brook Place,45150,39.1838800,-84.2784522
2113,Oak Brook Place,45150,39.1838913,-84.2783868
2109,Oak Brook Place,45150,39.1838357,-84.2786472
2108,Oak Brook Place,45150,39.1838241,-84.2787128
2107,Oak Brook Place,45150,39.1838125,-84.2787780
2114,Oak Brook Place,45150,39.1838875,-84.2783184
2115,Oak Brook Place,45150,39.1838986,-84.2782542
2116,Oak Brook Place,45150,39.1839005,-84.2781860
2119,Oak Brook Place,45150,39.1839615,-84.2782034
1701,Oak Brook Place,45150,39.1833668,-84.2799616
1702,Oak Brook Place,45150,39.1834181,-84.2799759
1703,Oak Brook Place,45150,39.1834650,-84.2800203
1704,Oak Brook Place,45150,39.1835169,-84.2800344
1705,Oak Brook Place,45150,39.1835623,-84.2800834
1706,Oak Brook Place,45150,39.1836136,-84.2800978
109,Concord Woods Drive,45150,39.1840674,-84.2762857
107,Concord Woods Drive,45150,39.1840660,-84.2763747
108,Concord Woods Drive,45150,39.1840665,-84.2763293
105,Concord Woods Drive,45150,39.1840804,-84.2764655
106,Concord Woods Drive,45150,39.1840809,-84.2764205
103,Concord Woods Drive,45150,39.1840947,-84.2765562
104,Concord Woods Drive,45150,39.1840954,-84.2765110
101,Concord Woods Drive,45150,39.1840791,-84.2766456
102,Concord Woods Drive,45150,39.1840797,-84.2766009
100,Concord Woods Drive,45150,39.1840356,-84.2767352
50,Concord Woods Drive,45150,39.1834760,-84.2766617
675,Oak Brook Place,45150,39.1832389,-84.2792493
519,Main Street,45150,39.1767947,-84.2919988
100,Race Street,45150,39.1777085,-84.2928859
513,Main Street,45150,39.1767927,-84.2922420
216,Polk Street,45150,39.1746789,-84.2968067
504,Beech Street,45150,39.1772816,-84.2921283
512,High Street,45150,39.1769923,-84.2924411
529,Main Street,45150,39.1768730,-84.2915878
104,Sycamore Street,45150,39.1757140,-84.2961560
312,Polk Street,45150,39.1755211,-84.2964124
551,Main Street,45150,39.1767355,-84.2903884
101,Locust Street,45150,39.1752918,-84.2965248
409,High Street,45150,39.1755452,-84.2942746
500,Beech Street,45150,39.1772931,-84.2922444
225,Water Street,45150,39.1747384,-84.2964757
410,Main Street,45150,39.1756404,-84.2943835
318,Polk Street,45150,39.1756927,-84.2962970
404,Lila Avenue,45150,39.1778449,-84.2915843
201,Water Street,45150,39.1742223,-84.2967894
203,Water Street,45150,39.1742883,-84.2967717
205,Water Street,45150,39.1743498,-84.2967329
207,Water Street,45150,39.1744151,-84.2967106
209,Water Street,45150,39.1744766,-84.2966722
126,Cash Street,45150,39.1741009,-84.2979922
14,Elm Street,45150,39.1741964,-84.2977994
31,Water Street,45150,39.1728310,-84.2974129
33,Water Street,45150,39.1728851,-84.2973667
35,Water Street,45150,39.1729417,-84.2973413
37,Water Street,45150,39.1729985,-84.2973159
39,Water Street,45150,39.1730551,-84.2972905
220,Polk Street,45150,39.1747601,-84.2965962
101,Water Street,45150,39.1732026,-84.2972250
111,Water Street,45150,39.1733902,-84.2971399
113,Water Street,45150,39.1734431,-84.2971160
125,Water Street,45150,39.1736820,-84.2970039
123,Water Street,45150,39.1736288,-84.2970278
143,Water Street,45150,39.1740078,-84.2969197
135,Water Street,45150,39.1738696,-84.2969223
139,Water Street,45150,39.1739852,-84.2968376
141,Water Street,45150,39.1739421,-84.2969498
131,Water Street,45150,39.1737582,-84.2970336
127,Water Street,45150,39.1737358,-84.2969503
129,Water Street,45150,39.1738029,-84.2969199
133,Water Street,45150,39.1738262,-84.2970026
119,Water Street,45150,39.1735176,-84.2971442
115,Water Street,45150,39.1734948,-84.2970596
117,Water Street,45150,39.1735617,-84.2970299
121,Water Street,45150,39.1735845,-84.2971141
107,Water Street,45150,39.1732783,-84.2972488
103,Water Street,45150,39.1732559,-84.2971666
105,Water Street,45150,39.1733227,-84.2971366
109,Water Street,45150,39.1733449,-84.2972190
314,Main Street,45150,39.1753217,-84.2946946
308,Main Street,45150,39.1751141,-84.2949131
404,Main Street,45150,39.1755811,-84.2945621
402,Main Street,45150,39.1755652,-84.2946952
309,Water Street,45150,39.1755081,-84.2959774
313,Water Street,45150,39.1756238,-84.2958962
208,Main Street,45150,39.1739467,-84.2951693
215,Garfield Avenue,45150,39.1730987,-84.2965579
300,Garfield Avenue,45150,39.1726406,-84.2959966
7,Main Street,45150,39.1722610,-84.2966547
922,Forest Avenue,45150,39.1808051,-84.2841089
501,Dot Avenue,45150,39.1836081,-84.2856896
909,Center Street,45150,39.1802285,-84.2838456
904,Walnut Street,45150,39.1789326,-84.2824006
912,Forest Avenue,45150,39.1805526,-84.2844228
948,Forest Avenue,45150,39.1815256,-84.2833140
905,Walnut Street,45150,39.1792234,-84.2827298
900,Walnut Street,45150,39.1787806,-84.2825696
548,Cooper Avenue,45150,39.1813559,-84.2851126
913,Forest Avenue,45150,39.1806041,-84.2849848
529,Belt Avenue,45150,39.1819011,-84.2848514
911,Center Street,45150,39.1803126,-84.2837103
934,Center Street,45150,39.1803643,-84.2827176
935,Riverside Drive,45150,39.1832869,-84.2861344
506,Belt Avenue,45150,39.1829043,-84.2856812
913,Riverside Drive,45150,39.1824053,-84.2864488
545,Miami Avenue,45150,39.1825318,-84.2831933
915,Walnut Street,45150,39.1795652,-84.2823741
514,Belt Avenue,45150,39.1826384,-84.2852446
940,Forest Avenue,45150,39.1813112,-84.2835750
959,Riverside Drive,45150,39.1841806,-84.2859529
532,Belt Avenue,45150,39.1823491,-84.2847843
939,Riverside Drive,45150,39.1834765,-84.2861277
535,Cooper Avenue,45150,39.1811973,-84.2856426
965,May Street,45150,39.1840134,-84.2848989
966,Helen Street,45150,39.1827249,-84.2835143
543,Miami Avenue,45150,39.1826575,-84.2832231
526,Belt Avenue,45150,39.1824206,-84.2849168
960,Forest Avenue,45150,39.1817249,-84.2829925
525,Cooper Avenue,45150,39.1815247,-84.2861355
511,Cooper Avenue,45150,39.1818605,-84.2866257
957,Forest Avenue,45150,39.1821540,-84.2832612
541,Cooper Avenue,45150,39.1810031,-84.2853093
402,Dot Avenue,45150,39.1840364,-84.2855585
534,Cooper Avenue,45150,39.1816103,-84.2854555
550,Belt Avenue,45150,39.1817922,-84.2839735
526,Cooper Avenue,45150,39.1818414,-84.2858670
546,Clark Avenue,45150,39.1807117,-84.2860152
912,Walnut Street,45150,39.1792261,-84.2820535
543,Cooper Avenue,45150,39.1809365,-84.2852042
909,Riverside Drive,45150,39.1822849,-84.2866510
505,Dot Avenue,45150,39.1834492,-84.2854649
540,Clark Avenue,45150,39.1808380,-84.2862457
919,Walnut Street,45150,39.1797557,-84.2821828
539,Cooper Avenue,45150,39.1810677,-84.2854256
923,Center Street,45150,39.1806507,-84.2833965
944,Center Street,45150,39.1807904,-84.2822474
962,Helen Street,45150,39.1825454,-84.2837235
860,Walnut Street,45150,39.1786266,-84.2827344
546,Belt Avenue,45150,39.1819129,-84.2841256
928,Forest Avenue,45150,39.1809977,-84.2838865
921,Forest Avenue,45150,39.1810564,-84.2844702
522,Cooper Avenue,45150,39.1819223,-84.2859744
852,Center Street,45150,39.1793047,-84.2838654
906,Center Street,45150,39.1796409,-84.2835218
932,Forest Avenue,45150,39.1810869,-84.2837606
969,May Street,45150,39.1841598,-84.2847220
506,Clark Avenue,45150,39.1814865,-84.2872129
518,Belt Avenue,45150,39.1825765,-84.2851222
945,Riverside Drive,45150,39.1836988,-84.2860499
530,Dot Avenue,45150,39.1831601,-84.2841222
508,Belt Avenue,45150,39.1828175,-84.2855443
536,Belt Avenue,45150,39.1822174,-84.2846205
531,Cooper Avenue,45150,39.1812997,-84.2859126
513,Belt Avenue,45150,39.1823113,-84.2855258
504,Clark Avenue,45150,39.1815449,-84.2873383
853,Center Street,45150,39.1797045,-84.2844199
966,May Street,45150,39.1837355,-84.2843836
844,Forest Avenue,45150,39.1798129,-84.2852849
957,Riverside Drive,45150,39.1839408,-84.2860250
903,Forest Avenue,45150,39.1803062,-84.2853607
550,Cooper Avenue,45150,39.1812882,-84.2849701
534,Clark Avenue,45150,39.1810012,-84.2864221
514,Cooper Avenue,45150,39.1820864,-84.2862313
920,Center Street,45150,39.1800516,-84.2830599
515,Cooper Avenue,45150,39.1817457,-84.2864508
550,Clark Avenue,45150,39.1806577,-84.2858701
903,Center Street,45150,39.1799869,-84.2840968
502,Belt Avenue,45150,39.1830277,-84.2857985
552,Clark Avenue,45150,39.1805756,-84.2857710
543,Belt Avenue,45150,39.1816390,-84.2844157
532,Dot Avenue,45150,39.1830546,-84.2839956
944,Forest Avenue,45150,39.1814160,-84.2834587
510,Belt Avenue,45150,39.1827191,-84.2853621
531,Dot Avenue,45150,39.1826814,-84.2842365
539,Miami Avenue,45150,39.1828131,-84.2833098
920,Walnut Street,45150,39.1795258,-84.2817041
509,Belt Avenue,45150,39.1823813,-84.2856355
910,Center Street,45150,39.1797842,-84.2833754
525,Belt Avenue,45150,39.1819908,-84.2850252
535,Miami Avenue,45150,39.1831108,-84.2835226
902,Forest Avenue,45150,39.1802969,-84.2846970
929,Riverside Drive,45150,39.1827455,-84.2861039
969,Riverside Drive,45150,39.1845628,-84.2854928
939,Center Street,45150,39.1812300,-84.2827930
970,May Street,45150,39.1839377,-84.2844250
556,Clark Avenue,45150,39.1805053,-84.2856699
525,Dot Avenue,45150,39.1828436,-84.2844562
554,Belt Avenue,45150,39.1816723,-84.2837869
524,Dot Avenue,45150,39.1832427,-84.2842890
515,Miami Avenue,45150,39.1838792,-84.2839275
518,Clark Avenue,45150,39.1812671,-84.2868876
516,Dot Avenue,45150,39.1833684,-84.2844969
547,Miami Avenue,45150,39.1824054,-84.2831262
526,Clark Avenue,45150,39.1811093,-84.2866795
908,Forest Avenue,45150,39.1804314,-84.2845317
530,Cooper Avenue,45150,39.1817851,-84.2857571
540,Belt Avenue,45150,39.1820201,-84.2843270
511,Dot Avenue,45150,39.1832299,-84.2851424
916,Center Street,45150,39.1799589,-84.2831882
903,Walnut Street,45150,39.1790545,-84.2829185
506,Dot Avenue,45150,39.1836257,-84.2849074
940,Center Street,45150,39.1806312,-84.2824092
919,Forest Avenue,45150,39.1809644,-84.2845975
929,Center Street,45150,39.1807729,-84.2831517
919,Riverside Drive,45150,39.1825448,-84.2863000
925,Walnut Street,45150,39.1800066,-84.2819243
961,Riverside Drive,45150,39.1842543,-84.2858150
510,Clark Avenue,45150,39.1813996,-84.2870965
924,Walnut Street,45150,39.1796705,-84.2815646
845,Walnut Street,45150,39.1786879,-84.2833833
907,Center Street,45150,39.1801052,-84.2839477
949,Forest Avenue,45150,39.1819899,-84.2834413
517,Dot Avenue,45150,39.1831235,-84.2848929
527,Miami Avenue,45150,39.1834083,-84.2836228
505,Belt Avenue,45150,39.1824638,-84.2857700
505,Cooper Avenue,45150,39.1819717,-84.2868079
918,Forest Avenue,45150,39.1806976,-84.2842440
852,Forest Avenue,45150,39.1800728,-84.2849578
544,Cooper Avenue,45150,39.1814720,-84.2851922
958,Helen Street,45150,39.1824205,-84.2838587
522,Belt Avenue,45150,39.1824987,-84.2850280
919,Center Street,45150,39.1805491,-84.2834727
537,Belt Avenue,45150,39.1817495,-84.2846064
926,Center Street,45150,39.1801794,-84.2828732
911,Walnut Street,45150,39.1793871,-84.2825746
528,Clark Avenue,45150,39.1811980,-84.2867720
537,Cooper Avenue,45150,39.1811267,-84.2855345
952,Forest Avenue,45150,39.1816237,-84.2832189
908,Walnut Street,45150,39.1790806,-84.2822265
521,Dot Avenue,45150,39.1829779,-84.2846823
916,Walnut Street,45150,39.1793751,-84.2818948
915,Center Street,45150,39.1804361,-84.2835784
964,Forest Avenue,45150,39.1819318,-84.2828655
544,Clark Avenue,45150,39.1807930,-84.2860979
410,Dot Avenue,45150,39.1838985,-84.2853329
503,Dot Avenue,45150,39.1835145,-84.2855744
909,Forest Avenue,45150,39.1804632,-84.2851579
509,Dot Avenue,45150,39.1833500,-84.2852946
533,Belt Avenue,45150,39.1818296,-84.2847465
406,Dot Avenue,45150,39.1839684,-84.2854498
521,Belt Avenue,45150,39.1822533,-84.2853929
936,Forest Avenue,45150,39.1812231,-84.2836807
965,Riverside Drive,45150,39.1844174,-84.2856579
530,Clark Avenue,45150,39.1810986,-84.2865185
511,Miami Avenue,45150,39.1840276,-84.2839976
931,Forest Avenue,45150,39.1813486,-84.2841793
502,Clark Avenue,45150,39.1816147,-84.2874077
519,Dot Avenue,45150,39.1830384,-84.2847963
523,Dot Avenue,45150,39.1829048,-84.2845750
917,Forest Avenue,45150,39.1807577,-84.2848162
515,Dot Avenue,45150,39.1831548,-84.2850277
954,Helen Street,45150,39.1823122,-84.2839685
519,Miami Avenue,45150,39.1836871,-84.2838158
516,Clark Avenue,45150,39.1813293,-84.2869999
943,Forest Avenue,45150,39.1818358,-84.2836297
970,Craig Lane,45150,39.1842930,-84.2850659
508,Dot Avenue,45150,39.1835509,-84.2847966
853,Walnut Street,45150,39.1788811,-84.2831630
963,May Street,45150,39.1838479,-84.2851175
849,Walnut Street,45150,39.1787659,-84.2832503
841,Walnut Street,45150,39.1785397,-84.2835031
531,Miami Avenue,45150,39.1832937,-84.2835477
512,Dot Avenue,45150,39.1834654,-84.2846468
726,Pasadena Avenue,45150,39.1781873,-84.2894695
730,Pasadena Avenue,45150,39.1783060,-84.2893698
529,Hudson Avenue,45150,39.1791811,-84.2882800
531,Hudson Avenue,45150,39.1791353,-84.2880690
770,Center Street,45150,39.1775545,-84.2859740
955,Riverside Drive,45150,39.1838647,-84.2860544
412,Dot Avenue,45150,39.1837825,-84.2851866
808,Riverside Drive,45150,39.1804022,-84.2888419
533,Clark Avenue,45150,39.1805360,-84.2864148
61-72,Concord Woods Drive,45150,39.1833806,-84.2765054
73-84,Concord Woods Drive,45150,39.1834538,-84.2762558
85-96,Concord Woods Drive,45150,39.1835334,-84.2759818
49-60,Concord Woods Drive,45150,39.1833769,-84.2767743
1-12,Concord Woods Drive,45150,39.1840048,-84.2772917
13-24,Concord Woods Drive,45150,39.1838169,-84.2771839
5,Glendale Milford Road,45150,39.1710545,-84.2996639
930,Lila Avenue,45150,39.1740435,-84.2801428
225,Cleveland Avenue,45150,39.1666196,-84.2927802
5371,South Milford Road,45150,39.1624656,-84.2953781
751,Chamber Drive,45150,39.1564357,-84.2703484
811,Chamber Drive,45150,39.1565268,-84.2693742
700,Lila Avenue,45150,39.1765651,-84.2866136
790,Garfield Avenue,45150,39.1631575,-84.2876326
1099,Lila Avenue,45150,39.1723736,-84.2720128
697,State Route 28,45150,39.1821087,-84.2706111
716,Main Street,45150,39.1768445,-84.2860973
2000,Oak Brook Place,45150,39.1835184,-84.2780377
209,Castleberry Court,45150,39.1840605,-84.2752148
1055,Main Street,45150,39.1818215,-84.2763608
2117,Oak Brook Place,45150,39.1839118,-84.2781200
2118,Oak Brook Place,45150,39.1839728,-84.2781376
751,Main Street,45150,39.1774904,-84.2840631
