House number,Street name,Postal code,Latitude,Longitude
34760,Center Ridge Road,44039,41.3967202,-82.0034452
34800,Center Ridge Road,44039,41.3968308,-82.0041621
32760,Lorain Road,44039,41.3831247,-81.9800640
36066,Maple Drive,44039,41.3861925,-82.0194482
36070,Maple Drive,44039,41.3861914,-82.0196604
8527,Spencer Court,44039,41.3659355,-81.9995199
8523,Spencer Court,44039,41.3660598,-81.9996944
8521,Spencer Court,44039,41.3661294,-81.9997564
8525,Spencer Court,44039,41.3660178,-81.9996001
8529,Spencer Court,44039,41.3658966,-81.9994304
8531,Spencer Court,44039,41.3658257,-81.9993311
8545,Spencer Court,44039,41.3656750,-81.9995175
8549,Spencer Court,44039,41.3656333,-81.9995698
8546,Spencer Court,44039,41.3653131,-81.9999390
8544,Spencer Court,44039,41.3653681,-82.0000083
8542,Spencer Court,44039,41.3654391,-82.0000977
8540,Spencer Court,44039,41.3654919,-82.0001641
8548,Spencer Court,44039,41.3652596,-81.9998717
35111,Center Ridge Road,44039,41.3924496,-82.0069768
35107,Center Ridge Road,44039,41.3925283,-82.0067080
34275,Center Ridge Road,44039,41.3970791,-81.9960240
33760,Center Ridge Road,44039,41.4016041,-81.9908843
35000,Center Ridge Road,44039,41.3945731,-82.0059852
32760,Lorain Road,44039,41.3832846,-81.9802638
35600,Center Ridge Road,44039,41.3915578,-82.0142336
33781,Center Ridge Road,44039,41.3996303,-81.9905028
35066,Center Ridge Road,44039,41.3942613,-82.0070401
35066,Center Ridge Road,44039,41.3940104,-82.0069265
35105,Center Ridge Road,44039,41.3927156,-82.0066125
35095,Center Ridge Road,44039,41.3927668,-82.0064759
35085,Center Ridge Road,44039,41.3927865,-82.0064110
34958,Center Ridge Road,44039,41.3954655,-82.0061206
34960,Center Ridge Road,44039,41.3952080,-82.0057757
34910,Center Ridge Road,44039,41.3950862,-82.0051735
34900,Center Ridge Road,44039,41.3949276,-82.0045607
7000,Ranger Way,44039,41.3901986,-82.0059973
34305,Center Ridge Road,44039,41.3975781,-81.9965950
34325,Center Ridge Road,44039,41.3964099,-81.9973958
34307,Center Ridge Road,44039,41.3965989,-81.9964656
34303,Center Ridge Road,44039,41.3966265,-81.9963964
34301,Center Ridge Road,44039,41.3966541,-81.9963472
34299,Center Ridge Road,44039,41.3966765,-81.9962933
34297,Center Ridge Road,44039,41.3967110,-81.9962174
34295,Center Ridge Road,44039,41.3967644,-81.9961028
34323,Center Ridge Road,44039,41.3978356,-81.9959910
36119,Center Ridge Road,44039,41.3892205,-82.0202234
35900,Center Ridge Road,44039,41.3908341,-82.0180664
38931,Center Ridge Road,44039,41.3799554,-82.0606820
36625,Center Ridge Road,44039,41.3871621,-82.0278183
36591,Center Ridge Road,44039,41.3873598,-82.0269814
36591,Center Ridge Road,44039,41.3872539,-82.0269480
37160,Sugar Ridge Road,44039,41.3744415,-82.0361962
33633,Bagley Road,44039,41.3715706,-81.9907697
33770,Bagley Road,44039,41.3734562,-81.9898900
9479,Saw Mill Drive,44039,41.3532165,-82.0546085
8700,Gatewood Drive,44039,41.3680116,-81.9887328
32415,Center Ridge Road,44039,41.4099949,-81.9755855
6005,Jaycox Road,44039,41.4014279,-82.0085324
32528,Lorain Road,44039,41.3849173,-81.9780750
33806,Center Ridge Road,44039,41.4008757,-81.9915770
34640,Center Ridge Road,44039,41.3961542,-82.0018420
35700,Bainbridge Road,44039,41.3856336,-82.0158794
7307,Avon Belden Road,44039,41.3860078,-82.0177129
36400,Center Ridge Road,44039,41.3898225,-82.0253199
36119,Center Ridge Road,44039,41.3892286,-82.0202218
6160,Emerald Street,44039,41.3990901,-81.9966764
32223,Lorain Road,44039,41.3862926,-81.9746487
32350,Lorain Road,44039,41.3863565,-81.9762900
32121,Lorain Road,44039,41.3866595,-81.9740278
34599,West Point Drive,44039,41.3824267,-82.0008818
7413,Wainwright Drive,44039,41.3831507,-82.0000369
34615,West Point Drive,44039,41.3824267,-82.0011768
34411,West Point Drive,44039,41.3824161,-81.9995239
34367,West Point Drive,44039,41.3824259,-81.9987103
7385,Denny Drive,44039,41.3837669,-81.9987185
7350,West Point Drive,44039,41.3846052,-82.0039078
7340,West Point Drive,44039,41.3848397,-82.0038849
34656,West Point Drive,44039,41.3833252,-82.0020258
34644,West Point Drive,44039,41.3833420,-82.0017425
7361,Wainwright Drive,44039,41.3843810,-82.0000174
34620,West Point Drive,44039,41.3830574,-82.0012072
7394,Denny Drive,44039,41.3835837,-81.9994710
7408,Denny Drive,44039,41.3833773,-81.9994713
34320,West Point Drive,44039,41.3829645,-81.9981492
7355,West Point Drive,44039,41.3843883,-82.0031868
7430,West Point Drive,44039,41.3829965,-82.0037996
34323,Bainbridge Road,44039,41.3848543,-81.9986959
7410,Wainwright Drive,44039,41.3833732,-82.0007759
7421,Wainwright Drive,44039,41.3829672,-82.0000704
34630,West Point Drive,44039,41.3831801,-82.0014861
34598,West Point Drive,44039,41.3829524,-82.0008668
7387,Wainwright Drive,44039,41.3837986,-82.0000102
7411,Denny Drive,44039,41.3831486,-81.9987225
34443,Bainbridge Road,44039,41.3849116,-82.0007684
34701,Bainbridge Road,44039,41.3848796,-82.0031561
7372,Xavier Court,44039,41.3841776,-82.0025125
7384,Xavier Court,44039,41.3839557,-82.0024163
7385,Xavier Court,44039,41.3840779,-82.0015859
7396,Xavier Court,44039,41.3838108,-82.0021261
7397,Xavier Court,44039,41.3838580,-82.0018003
7371,Denny Drive,44039,41.3841807,-81.9987575
7373,Denny Drive,44039,41.3839726,-81.9987184
7370,Wainwright Drive,44039,41.3842570,-82.0007763
7373,Wainwright Drive,44039,41.3842002,-82.0000420
7399,Wainwright Drive,44039,41.3835779,-82.0000364
7341,West Point Drive,44039,41.3845941,-82.0031575
7414,Wainwright Drive,44039,41.3831570,-82.0007783
7437,West Point Drive,44039,41.3835624,-82.0031758
7404,West Point Drive,44039,41.3835649,-82.0038928
7422,West Point Drive,44039,41.3833356,-82.0039221
34675,West Point Drive,44039,41.3827837,-82.0025298
34651,West Point Drive,44039,41.3827338,-82.0019772
34410,West Point Drive,44039,41.3829777,-81.9995086
34677,Bainbridge Road,44039,41.3849285,-82.0024934
7349,Wainwright Drive,44039,41.3845989,-82.0000326
7360,Xavier Court,44039,41.3843958,-82.0024293
7429,West Point Drive,44039,41.3837767,-82.0031841
34672,West Point Drive,44039,41.3833256,-82.0026488
7405,Denny Drive,44039,41.3833575,-81.9987626
7397,Denny Drive,44039,41.3835754,-81.9987272
34409,Bainbridge Road,44039,41.3849091,-81.9994349
34421,Bainbridge Road,44039,41.3849051,-82.0000724
7361,Xavier Court,44039,41.3844983,-82.0016581
7384,Wainwright Drive,44039,41.3838138,-82.0007741
7358,Wainwright Drive,44039,41.3844869,-82.0007763
7370,Denny Drive,44039,41.3839916,-81.9994363
7396,Wainwright Drive,44039,41.3835840,-82.0007854
33988,Lincoln Avenue,44039,41.3969675,-81.9919866
33993,Lincoln Avenue,44039,41.3965938,-81.9922325
33989,Lincoln Avenue,44039,41.3965930,-81.9919805
33992,Lincoln Avenue,44039,41.3969809,-81.9922095
33977,Lincoln Avenue,44039,41.3965788,-81.9915487
33619,Gloria Avenue,44039,41.3942871,-81.9850981
33659,Gloria Avenue,44039,41.3942997,-81.9861264
33651,Gloria Avenue,44039,41.3942953,-81.9859328
33652,Gloria Avenue,44039,41.3946868,-81.9859955
33660,Gloria Avenue,44039,41.3946876,-81.9861960
33628,Gloria Avenue,44039,41.3946722,-81.9853648
6472,Lear Nagle Road,44039,41.3950730,-81.9856401
33644,Gloria Avenue,44039,41.3946792,-81.9857877
33665,Adams Avenue,44039,41.3949681,-81.9865324
33653,Adams Avenue,44039,41.3950402,-81.9860374
33635,Gloria Avenue,44039,41.3942744,-81.9855826
33627,Gloria Avenue,44039,41.3942944,-81.9853778
33636,Gloria Avenue,44039,41.3946847,-81.9855752
5779,Mills Creek Lane,44039,41.4024043,-81.9782292
5761,Mills Creek Lane,44039,41.4026241,-81.9782053
5725,Mills Creek Lane,44039,41.4030598,-81.9782142
5746,Mills Creek Lane,44039,41.4027882,-81.9790689
5782,Mills Creek Lane,44039,41.4023464,-81.9790500
5728,Mills Creek Lane,44039,41.4030087,-81.9790109
5764,Mills Creek Lane,44039,41.4025678,-81.9790476
5908,Bayberry Circle,44039,41.4041292,-81.9738720
5920,Bayberry Circle,44039,41.4039837,-81.9734666
6364,Oakwood Circle,44039,41.3982100,-81.9712308
6328,Oakwood Circle,44039,41.3985018,-81.9717055
6345,Oakwood Circle,44039,41.3987520,-81.9707982
6277,Oakwood Circle,44039,41.3992182,-81.9714326
6382,Oakwood Circle,44039,41.3983001,-81.9709135
32640,Chestnut Ridge Road,44039,41.3904058,-81.9804469
32851,Chestnut Ridge Road,44039,41.3889986,-81.9811397
6970,Lear Nagle Road,44039,41.3903665,-81.9819322
6980,Lear Nagle Road,44039,41.3901161,-81.9817700
6795,Nicoll Drive,44039,41.3868161,-81.9892445
6722,Steinbeck Court,44039,41.3871284,-81.9885171
6715,Steinbeck Court,44039,41.3873440,-81.9877183
6700,Steinbeck Court,44039,41.3873742,-81.9884784
6688,Steinbeck Court,44039,41.3876364,-81.9885092
6794,Nicoll Drive,44039,41.3862636,-81.9888706
6796,Nicoll Drive,44039,41.3862380,-81.9885130
6771,Steinbeck Court,44039,41.3865422,-81.9878168
6749,Steinbeck Court,44039,41.3868152,-81.9877482
6797,Nicoll Drive,44039,41.3867908,-81.9888835
6793,Steinbeck Court,44039,41.3863152,-81.9881579
6737,Steinbeck Court,44039,41.3870765,-81.9877768
6456,Lear Nagle Road,44039,41.3953670,-81.9859346
6482,Lear Nagle Road,44039,41.3948990,-81.9855640
33643,Gloria Avenue,44039,41.3942933,-81.9857499
8629,Hazelwood Run,44039,41.3679659,-81.9749916
8615,Hazelwood Run,44039,41.3682472,-81.9750801
8597,Hazelwood Run,44039,41.3684731,-81.9750954
8581,Hazelwood Run,44039,41.3686924,-81.9750960
8642,Hazelwood Run,44039,41.3677225,-81.9755256
8628,Hazelwood Run,44039,41.3679242,-81.9756560
32111,Cozy Meadow Court,44039,41.3678589,-81.9761381
32127,Cozy Meadow Court,44039,41.3680017,-81.9764140
32126,Cozy Meadow Court,44039,41.3682555,-81.9764690
32110,Cozy Meadow Court,44039,41.3684573,-81.9762513
8600,Hazelwood Run,44039,41.3684164,-81.9757545
8586,Hazelwood Run,44039,41.3686250,-81.9757805
8820,Hazelwood Run,44039,41.3673502,-81.9712358
8812,Hazelwood Run,44039,41.3671348,-81.9713591
8804,Hazelwood Run,44039,41.3669499,-81.9715559
8796,Hazelwood Run,44039,41.3667849,-81.9717855
8788,Hazelwood Run,44039,41.3666106,-81.9720146
8780,Hazelwood Run,44039,41.3664512,-81.9722505
8825,Hazelwood Run,44039,41.3675475,-81.9718182
31800,Suncrest Circle,44039,41.3672620,-81.9720941
8874,Harvest Ridge Way,44039,41.3642186,-81.9745889
8886,Harvest Ridge Way,44039,41.3642023,-81.9742041
8898,Harvest Ridge Way,44039,41.3643175,-81.9739915
8897,Harvest Ridge Way,44039,41.3645598,-81.9739238
8885,Harvest Ridge Way,44039,41.3647151,-81.9740003
8873,Harvest Ridge Way,44039,41.3647996,-81.9742298
32033,Burnt Timber Trail,44039,41.3643704,-81.9749839
32020,Burnt Timber Trail,44039,41.3647550,-81.9751836
32021,Burnt Timber Trail,44039,41.3644535,-81.9748228
8861,Harvest Ridge Way,44039,41.3648314,-81.9744476
8849,Harvest Ridge Way,44039,41.3649098,-81.9746265
8837,Harvest Ridge Way,44039,41.3650299,-81.9747783
8825,Harvest Ridge Way,44039,41.3651721,-81.9748753
8813,Harvest Ridge Way,44039,41.3653501,-81.9749310
8801,Harvest Ridge Way,44039,41.3654999,-81.9749201
8789,Harvest Ridge Way,44039,41.3656615,-81.9748526
8777,Harvest Ridge Way,44039,41.3657816,-81.9747569
32019,Lilac Lane,44039,41.3652366,-81.9754403
32035,Lilac Lane,44039,41.3651157,-81.9756249
32051,Lilac Lane,44039,41.3650847,-81.9758565
32067,Lilac Lane,44039,41.3651486,-81.9760911
32083,Lilac Lane,44039,41.3653269,-81.9762107
32082,Lilac Lane,44039,41.3655088,-81.9761964
32066,Lilac Lane,44039,41.3656483,-81.9760255
32050,Lilac Lane,44039,41.3657191,-81.9758076
32034,Lilac Lane,44039,41.3656576,-81.9755989
32018,Lilac Lane,44039,41.3656652,-81.9754091
32017,Cottonwood Crest,44039,41.3660312,-81.9751956
32033,Cottonwood Crest,44039,41.3660471,-81.9754030
32049,Cottonwood Crest,44039,41.3660583,-81.9756114
32065,Cottonwood Crest,44039,41.3661065,-81.9757995
32081,Cottonwood Crest,44039,41.3661552,-81.9759893
32097,Cottonwood Crest,44039,41.3662259,-81.9761702
32113,Cottonwood Crest,44039,41.3662182,-81.9764034
32129,Cottonwood Crest,44039,41.3662986,-81.9766097
32145,Cottonwood Crest,44039,41.3664507,-81.9767498
32160,Cottonwood Crest,44039,41.3666372,-81.9767202
32144,Cottonwood Crest,44039,41.3667658,-81.9765377
32128,Cottonwood Crest,44039,41.3668102,-81.9762894
32112,Cottonwood Crest,44039,41.3667408,-81.9760871
32080,Cottonwood Crest,44039,41.3665071,-81.9757656
32096,Cottonwood Crest,44039,41.3666009,-81.9759411
32064,Cottonwood Crest,44039,41.3664598,-81.9755886
32048,Cottonwood Crest,44039,41.3664507,-81.9753642
32032,Cottonwood Crest,44039,41.3664196,-81.9751634
32016,Cottonwood Crest,44039,41.3663777,-81.9749673
32000,Cottonwood Crest,44039,41.3663286,-81.9747407
31945,Cottonwood Crest,44039,41.3655687,-81.9744850
31944,Cottonwood Crest,44039,41.3658203,-81.9741061
31958,Cottonwood Crest,44039,41.3659326,-81.9742513
31972,Cottonwood Crest,44039,41.3660342,-81.9743643
8772,Hazelwood Run,44039,41.3663163,-81.9725291
8764,Hazelwood Run,44039,41.3662316,-81.9728152
8756,Hazelwood Run,44039,41.3662059,-81.9731302
8748,Hazelwood Run,44039,41.3662422,-81.9734523
8743,Harvest Ridge Way,44039,41.3663483,-81.9738409
8787,Hazelwood Run,44039,41.3669083,-81.9725322
8771,Hazelwood Run,44039,41.3667617,-81.9727696
8755,Hazelwood Run,44039,41.3667353,-81.9731683
8741,Hazelwood Run,44039,41.3667726,-81.9735080
8727,Hazelwood Run,44039,41.3669926,-81.9737366
8713,Hazelwood Run,44039,41.3671281,-81.9739771
8699,Hazelwood Run,44039,41.3672966,-81.9742028
8726,Harvest Ridge Way,44039,41.3666594,-81.9743036
8712,Hazelwood Run,44039,41.3668215,-81.9744937
8698,Hazelwood Run,44039,41.3669963,-81.9746900
8684,Hazelwood Run,44039,41.3671582,-81.9748913
32079,Dewy Meadow Court,44039,41.3668871,-81.9751971
32095,Dewy Meadow Court,44039,41.3668591,-81.9755353
32094,Dewy Meadow Court,44039,41.3670781,-81.9758008
32078,Dewy Meadow Court,44039,41.3673323,-81.9757519
8656,Hazelwood Run,44039,41.3675408,-81.9753673
6984,Lear Nagle Road,44039,41.3897132,-81.9813680
32842,Chestnut Ridge Road,44039,41.3894826,-81.9815177
32831,Chestnut Ridge Road,44039,41.3892000,-81.9809069
32055,Cook Road,44039,41.3844553,-81.9739170
32135,Cook Road,44039,41.3844702,-81.9744753
31819,Cook Road,44039,41.3843744,-81.9722789
31735,Cook Road,44039,41.3842834,-81.9715824
31615,Cook Road,44039,41.3840685,-81.9707768
31740,Cook Road,44039,41.3850943,-81.9715359
31784,Cook Road,44039,41.3851250,-81.9719386
31856,Cook Road,44039,41.3851942,-81.9724632
31684,Cook Road,44039,41.3851059,-81.9711635
5702,Mills Creek Lane,44039,41.4032100,-81.9790292
5743,Mills Creek Lane,44039,41.4028470,-81.9782444
6799,Nicoll Drive,44039,41.3868013,-81.9885486
6693,Steinbeck Court,44039,41.3876146,-81.9877316
7373,Xavier Court,44039,41.3843088,-82.0015805
7348,Xavier Court,44039,41.3845873,-82.0023999
34689,Bainbridge Road,44039,41.3849164,-82.0028856
34423,West Point Drive,44039,41.3824070,-82.0000701
34555,West Point Drive,44039,41.3824066,-82.0003384
34577,West Point Drive,44039,41.3823956,-82.0006093
34627,West Point Drive,44039,41.3824216,-82.0014434
34639,West Point Drive,44039,41.3825973,-82.0017199
34663,West Point Drive,44039,41.3827835,-82.0022560
34687,West Point Drive,44039,41.3827969,-82.0027884
34699,West Point Drive,44039,41.3828115,-82.0030595
34703,West Point Drive,44039,41.3827976,-82.0033490
34668,West Point Drive,44039,41.3833473,-82.0023172
7443,West Point Drive,44039,41.3833588,-82.0031168
7387,West Point Drive,44039,41.3839988,-82.0031662
7373,West Point Drive,44039,41.3841908,-82.0031968
7398,West Point Drive,44039,41.3837680,-82.0039170
7386,West Point Drive,44039,41.3839576,-82.0038920
7374,West Point Drive,44039,41.3841712,-82.0039079
7362,West Point Drive,44039,41.3843700,-82.0038900
34531,Bainbridge Road,44039,41.3848964,-82.0011643
34559,Bainbridge Road,44039,41.3848857,-82.0014465
34579,Bainbridge Road,44039,41.3849359,-82.0017669
34417,Bainbridge Road,44039,41.3849271,-81.9997648
34419,West Point Drive,44039,41.3824165,-81.9997839
7407,Wainwright Drive,44039,41.3833571,-82.0000682
7375,Wainwright Drive,44039,41.3839752,-82.0000398
7372,Wainwright Drive,44039,41.3840403,-82.0007560
7346,Wainwright Drive,44039,41.3846933,-82.0007590
32801,Lorain Road,44039-3429,41.3807991,-81.9808943
32200,Lorain Road,44039,41.3867444,-81.9757111
7171,Lear Nagle Rd,44039,41.3867906,-81.9772077
8529,Mulberry Chase,44039,41.3696579,-81.9772697
8528,Mulberry Chase,44039,41.3698914,-81.9779021
8514,Mulberry Chase,44039,41.3701326,-81.9779170
8599,Mulberry Chase,44039,41.3685179,-81.9776252
8585,Mulberry Chase,44039,41.3686388,-81.9772294
8571,Mulberry Chase,44039,41.3688785,-81.9771601
8598,Mulberry Chase,44039,41.3686262,-81.9779525
8584,Mulberry Chase,44039,41.3688832,-81.9780274
8570,Mulberry Chase,44039,41.3691244,-81.9779618
8556,Mulberry Chase,44039,41.3693669,-81.9779444
8542,Mulberry Chase,44039,41.3696262,-81.9779286
8557,Mulberry Chase,44039,41.3691552,-81.9772660
8543,Mulberry Chase,44039,41.3693923,-81.9773102
8515,Mulberry Chase,44039,41.3699222,-81.9772352
8501,Mulberry Chase,44039,41.3701595,-81.9772156
32082,Pepper Ridge Run,44039,41.3703722,-81.9755278
32098,Pepper Ridge Run,44039,41.3704833,-81.9757690
32304,Pepper Ridge Run,44039,41.3708180,-81.9774624
32320,Pepper Ridge Run,44039,41.3711947,-81.9776581
32019,Pepper Ridge Run,44039,41.3693825,-81.9747319
8565,Hazelwood Run,44039,41.3689253,-81.9750837
8572,Hazelwood Run,44039,41.3688335,-81.9757692
8558,Hazelwood Run,44039,41.3690769,-81.9756919
8544,Hazelwood Run,44039,41.3693018,-81.9756069
8530,Hazelwood Run,44039,41.3694850,-81.9754406
8516,Hazelwood Run,44039,41.3697047,-81.9753225
32018,Pepper Ridge Run,44039,41.3698987,-81.9744707
32034,Pepper Ridge Run,44039,41.3699699,-81.9747301
8888,Fallen Timber Trail,44039,41.3633288,-81.9757096
9000,Fallen Timber Trail,44039,41.3632793,-81.9754732
9012,Fallen Timber Trail,44039,41.3632949,-81.9752428
9023,Fallen Timber Trail,44039,41.3633862,-81.9750494
9011,Fallen Timber Trail,44039,41.3635466,-81.9749177
32069,Burnt Timber Trail,44039,41.3641297,-81.9755436
32057,Burnt Timber Trail,44039,41.3642014,-81.9753417
32045,Burnt Timber Trail,44039,41.3642795,-81.9751788
32129,Burnt Timber Trail,44039,41.3635776,-81.9762150
32141,Burnt Timber Trail,44039,41.3634295,-81.9763110
32153,Burnt Timber Trail,44039,41.3632951,-81.9764460
32165,Burnt Timber Trail,44039,41.3632596,-81.9766788
32177,Burnt Timber Trail,44039,41.3632911,-81.9769087
32176,Burnt Timber Trail,44039,41.3634316,-81.9770806
32164,Burnt Timber Trail,44039,41.3636013,-81.9771559
32152,Burnt Timber Trail,44039,41.3637703,-81.9771035
32140,Burnt Timber Trail,44039,41.3638776,-81.9769227
32128,Burnt Timber Trail,44039,41.3639500,-81.9767072
32116,Burnt Timber Trail,44039,41.3639923,-81.9764618
32104,Burnt Timber Trail,44039,41.3641125,-81.9763371
32092,Burnt Timber Trail,44039,41.3642240,-81.9761911
32080,Burnt Timber Trail,44039,41.3643278,-81.9760217
32068,Burnt Timber Trail,44039,41.3644119,-81.9758496
32056,Burnt Timber Trail,44039,41.3645089,-81.9756829
32044,Burnt Timber Trail,44039,41.3645698,-81.9755072
32032,Burnt Timber Trail,44039,41.3646445,-81.9753467
31652,Chestnut Ridge Road,44039,41.3971557,-81.9711776
31500,Chestnut Ridge Road,44039,41.3976754,-81.9704852
6361,Oakwood Circle,44039,41.3985072,-81.9707440
6346,Oakwood Circle,44039,41.3983217,-81.9716134
6327,Oakwood Circle,44039,41.3989356,-81.9710350
6310,Oakwood Circle,44039,41.3987049,-81.9719213
6292,Oakwood Circle,44039,41.3989002,-81.9720119
6259,Hickory Trail,44039,41.3993543,-81.9710834
5866,Bayberry Circle,44039,41.4048317,-81.9744883
5830,Bayberry Circle,44039,41.4050885,-81.9745086
5702,Bayberry Circle,44039,41.4053141,-81.9744796
5755,Firecrest Circle,44039,41.4050814,-81.9733621
5743,Firecrest Circle,44039,41.4050419,-81.9730374
5731,Firecrest Circle,44039,41.4052346,-81.9727899
5719,Firecrest Circle,44039,41.4054814,-81.9727457
5734,Firecrest Circle,44039,41.4056875,-81.9728856
5750,Firecrest Circle,44039,41.4057521,-81.9732963
5680,Firecrest Circle,44039,41.4057856,-81.9736387
5866,Bayberry Circle,44039,41.4041428,-81.9748714
5880,Woodland Drive,44039,41.4042527,-81.9745427
5936,Bayberry Circle,44039,41.4040058,-81.9730534
5950,Bayberry Circle,44039,41.4041722,-81.9728903
5945,Bayberry Circle,44039,41.4044543,-81.9728402
5921,Bayberry Circle,44039,41.4046746,-81.9734045
5907,Woodland Drive,44039,41.4048104,-81.9738363
5939,Bayberry Circle,44039,41.4046077,-81.9730696
32583,Center Ridge Road,44039,41.4087033,-81.9772665
32505,Center Ridge Road,44039,41.4089637,-81.9765003
6725,Stoney Ridge Road,44039,41.3946315,-82.0255591
6767,Stoney Ridge Road,44039,41.3935041,-82.0259052
6743,Stoney Ridge Road,44039,41.3940779,-82.0260506
6739,Stoney Ridge Road,44039,41.3943644,-82.0263561
6713,Stoney Ridge Road,44039,41.3948688,-82.0265878
6629,Stoney Ridge Road,44039,41.3958638,-82.0273554
6581,Stoney Ridge Road,44039,41.3961188,-82.0274840
6608,Stoney Ridge Road,44039,41.3959033,-82.0283084
6634,Stoney Ridge Road,44039,41.3956661,-82.0281681
6744,Stoney Ridge Road,44039,41.3936338,-82.0269305
6728,Stoney Ridge Road,44039,41.3939754,-82.0272770
6704,Stoney Ridge Road,44039,41.3942499,-82.0272701
6658,Stoney Ridge Road,44039,41.3951455,-82.0278497
6700,Stoney Ridge Road,44039,41.3948202,-82.0277315
6702,Stoney Ridge Road,44039,41.3945625,-82.0275433
36393,Behm Drive,44039,41.3824576,-82.0246384
36380,Behm Drive,44039,41.3830246,-82.0246224
36375,Behm Drive,44039,41.3824664,-82.0243425
36341,Behm Drive,44039,41.3824723,-82.0239820
36323,Behm Drive,44039,41.3824680,-82.0236209
36360,Behm Drive,44039,41.3830425,-82.0242856
36340,Behm Drive,44039,41.3830265,-82.0239761
36320,Behm Drive,44039,41.3830311,-82.0236442
36303,Behm Drive,44039,41.3824592,-82.0231473
36285,Behm Drive,44039,41.3824751,-82.0222335
36237,Behm Drive,44039,41.3824542,-82.0217961
36219,Behm Drive,44039,41.3824304,-82.0214696
36203,Behm Drive,44039,41.3824166,-82.0211465
36185,Behm Drive,44039,41.3824189,-82.0208426
36171,Behm Drive,44039,41.3823795,-82.0204243
36157,Behm Drive,44039,41.3825743,-82.0200972
36150,Behm Drive,44039,41.3828925,-82.0201281
36168,Behm Drive,44039,41.3830973,-82.0204479
36184,Behm Drive,44039,41.3830567,-82.0208035
36200,Behm Drive,44039,41.3830163,-82.0211088
36218,Behm Drive,44039,41.3830169,-82.0214831
36235,Behm Drive,44039,41.3829765,-82.0217853
36300,Behm Drive,44039,41.3830311,-82.0231607
7480,Noll Drive,44039,41.3833229,-82.0230785
7460,Noll Drive,44039,41.3837029,-82.0231136
36333,Aurensen Road,44039,41.3841060,-82.0231685
36281,Aurensen Road,44039,41.3840968,-82.0223399
36280,Behm Drive,44039,41.3830056,-82.0223151
7495,Noll Drive,44039,41.3831788,-82.0223633
7475,Noll Drive,44039,41.3835808,-82.0223636
36302,Aurensen Road,44039,41.3846475,-82.0231201
36360,Aurensen Road,44039,41.3846324,-82.0237759
36355,Aurensen Road,44039,41.3841072,-82.0237696
36343,Aurensen Road,44039,41.3841053,-82.0234982
36340,Aurensen Road,44039,41.3846293,-82.0234924
36455,Behm Drive,44039,41.3825025,-82.0256218
36435,Behm Drive,44039,41.3824926,-82.0252902
36415,Behm Drive,44039,41.3824537,-82.0249614
36460,Behm Drive,44039,41.3830368,-82.0259341
36440,Behm Drive,44039,41.3830288,-82.0256100
36420,Behm Drive,44039,41.3830430,-82.0252842
36400,Behm Drive,44039,41.3830658,-82.0249572
7327,Avon Belden Road,44039,41.3855946,-82.0175565
7277,Avon Belden Road,44039,41.3863234,-82.0179826
7279,Avon Belden Road,44039,41.3863245,-82.0183768
7340,Avon Belden Road,44039,41.3855513,-82.0190151
7320,Avon Belden Road,44039,41.3857663,-82.0190466
36065,Maple Drive,44039,41.3856621,-82.0195058
36079,Maple Drive,44039,41.3856308,-82.0198229
36099,Maple Drive,44039,41.3856718,-82.0201326
36139,Maple Drive,44039,41.3856323,-82.0204088
36169,Maple Drive,44039,41.3855588,-82.0207494
36199,Maple Drive,44039,41.3856215,-82.0210988
36229,Maple Drive,44039,41.3858336,-82.0213831
36230,Maple Drive,44039,41.3860910,-82.0213572
36200,Maple Drive,44039,41.3862783,-82.0211611
36170,Maple Drive,44039,41.3863741,-82.0208084
36140,Maple Drive,44039,41.3862818,-82.0204814
36100,Maple Drive,44039,41.3862745,-82.0201738
36080,Maple Drive,44039,41.3862462,-82.0198645
7300,Avon Belden Road,44039,41.3861365,-82.0190693
7272,Avon Belden Road,44039,41.3864849,-82.0190463
7280,Avon Belden Road,44039,41.3863362,-82.0190544
34389,West Point Drive,44039,41.3823629,-81.9989971
34407,West Point Drive,44039,41.3824264,-81.9992679
7412,Denny Drive,44039,41.3831724,-81.9994708
7382,Denny Drive,44039,41.3837932,-81.9994778
7368,Denny Drive,44039,41.3841946,-81.9994790
7356,Denny Drive,44039,41.3844041,-81.9994565
7344,Denny Drive,44039,41.3846142,-81.9994754
34350,West Point Drive,44039,41.3829655,-81.9987124
7359,Denny Drive,44039,41.3843854,-81.9987369
7347,Denny Drive,44039,41.3845963,-81.9987594
34319,Bainbridge Road,44039,41.3848488,-81.9984315
7850,Avon Belden Road,44039,41.3784415,-82.0192403
7874,Avon Belden Road,44039,41.3782047,-82.0192195
36095,Westwood Drive,44039,41.3784665,-82.0200050
36127,Westwood Drive,44039,41.3784772,-82.0202177
36149,Westwood Drive,44039,41.3784516,-82.0205635
36175,Westwood Drive,44039,41.3784436,-82.0208838
36221,Westwood Drive,44039,41.3784567,-82.0210747
36231,Westwood Drive,44039,41.3784386,-82.0213799
36241,Westwood Drive,44039,41.3784753,-82.0216782
36251,Westwood Drive,44039,41.3784950,-82.0220373
36090,Westwood Drive,44039,41.3789884,-82.0197481
36110,Westwood Drive,44039,41.3790029,-82.0200538
36144,Westwood Drive,44039,41.3790039,-82.0205107
36200,Westwood Drive,44039,41.3790176,-82.0211082
36230,Westwood Drive,44039,41.3789946,-82.0215783
36260,Westwood Drive,44039,41.3790352,-82.0222373
36254,Westwood Drive,44039,41.3789938,-82.0218658
36261,Westwood Drive,44039,41.3784746,-82.0224381
36269,Westwood Drive,44039,41.3784115,-82.0234570
36268,Westwood Drive,44039,41.3791009,-82.0234559
7915,Avon Belden Road,44039,41.3776021,-82.0184206
7931,Avon Belden Road,44039,41.3773824,-82.0184767
7987,Avon Belden Road,44039,41.3765835,-82.0184545
8037,Avon Belden Road,44039,41.3759396,-82.0184383
7992,Avon Belden Road,44039,41.3766571,-82.0190546
8004,Avon Belden Road,44039,41.3763214,-82.0193366
7960,Avon Belden Road,44039,41.3769769,-82.0190532
8233,Avon Belden Road,44039,41.3719485,-82.0182626
8225,Avon Belden Road,44039,41.3721925,-82.0182688
8195,Avon Belden Road,44039,41.3727863,-82.0182511
8181,Avon Belden Road,44039,41.3730625,-82.0181405
8135,Avon Belden Road,44039,41.3742233,-82.0184767
8117,Avon Belden Road,44039,41.3745833,-82.0185087
8099,Avon Belden Road,44039,41.3748212,-82.0184428
8102,Avon Belden Road,44039,41.3748648,-82.0191592
35600,Center Ridge Road,44039,41.3914860,-82.0144368
35535,Center Ridge Road,44039,41.3912573,-82.0129865
35455,Center Ridge Road,44039,41.3915035,-82.0123720
35423,Center Ridge Road,44039,41.3916229,-82.0119004
32305,Lorain Road,44039,41.3858830,-81.9751004
32323,Lorain Road,44039,41.3855769,-81.9757048
32393,Lorain Road,44039,41.3852041,-81.9758702
37000,Center Ridge Road,44039,41.3870529,-82.0317721
9173,Stonebriar Lane,44039,41.3589797,-82.0066430
9168,Stonebriar Lane,44039,41.3589116,-82.0074236
9158,Stonebriar Lane,44039,41.3591398,-82.0074884
9144,Stonebriar Lane,44039,41.3593683,-82.0075567
9161,Stonebriar Lane,44039,41.3591967,-82.0067231
9149,Stonebriar Lane,44039,41.3594139,-82.0068189
35103,Lorain Road,44039,41.3601331,-82.0079070
9137,Stonebriar Lane,44039,41.3596282,-82.0068570
9125,Stonebriar Lane,44039,41.3598425,-82.0069089
9113,Stonebriar Lane,44039,41.3600699,-82.0070155
9101,Stonebriar Lane,44039,41.3604298,-82.0072781
35001,Lorain Road,44039,41.3607013,-82.0070767
9336,Stonebriar Lane,44039,41.3566631,-82.0068694
9293,Stonebriar Lane,44039,41.3563998,-82.0059286
9305,Stonebriar Lane,44039,41.3561034,-82.0060070
9317,Stonebriar Lane,44039,41.3559990,-82.0063262
9329,Stonebriar Lane,44039,41.3560056,-82.0066249
9353,Stonebriar Lane,44039,41.3559204,-82.0069146
9365,Stonebriar Lane,44039,41.3561220,-82.0075776
9366,Stonebriar Lane,44039,41.3564284,-82.0076021
9354,Stonebriar Lane,44039,41.3566440,-82.0073624
9258,Stonebriar Lane,44039,41.3569759,-82.0069072
9246,Stonebriar Lane,44039,41.3571786,-82.0069677
9234,Stonebriar Lane,44039,41.3574126,-82.0070025
9222,Stonebriar Lane,44039,41.3576168,-82.0070557
9281,Stonebriar Lane,44039,41.3566390,-82.0059968
9269,Stonebriar Lane,44039,41.3568559,-82.0061098
9257,Stonebriar Lane,44039,41.3570896,-82.0061377
9245,Stonebriar Lane,44039,41.3573477,-82.0061905
9233,Stonebriar Lane,44039,41.3575529,-82.0062619
9221,Stonebriar Lane,44039,41.3577873,-82.0063320
9209,Stonebriar Lane,44039,41.3580470,-82.0063831
9197,Stonebriar Lane,44039,41.3582679,-82.0064515
9206,Stonebriar Lane,44039,41.3580257,-82.0072294
9192,Stonebriar Lane,44039,41.3582842,-82.0072505
9184,Stonebriar Lane,44039,41.3584975,-82.0073082
9176,Stonebriar Lane,44039,41.3587065,-82.0073567
9185,Stonebriar Lane,44039,41.3587232,-82.0065730
34887,Lorain Road,44039,41.3612318,-82.0052257
34400,Lorain Road,44039,41.3675970,-81.9991283
34361,Lorain Road,44039,41.3672218,-81.9978884
35135,Lorain Road,44039,41.3598248,-82.0082543
35100,Lorain Road,44039,41.3603707,-82.0088455
35114,Lorain Road,44039,41.3602447,-82.0090944
35090,Lorain Road,44039,41.3605440,-82.0087229
35078,Lorain Road,44039,41.3606817,-82.0083935
35056,Lorain Road,44039,41.3608684,-82.0081746
35004,Lorain Road,44039,41.3611331,-82.0076602
34980,Lorain Road,44039,41.3613575,-82.0073911
34880,Lorain Road,44039,41.3621858,-82.0060880
34892,Lorain Road,44039,41.3620596,-82.0063636
34918,Lorain Road,44039,41.3619137,-82.0066172
34932,Lorain Road,44039,41.3617806,-82.0069203
34954,Lorain Road,44039,41.3615947,-82.0072040
32700,Center Ridge Road,44039,41.4074504,-81.9802654
32800,Center Ridge Road,44039,41.4070271,-81.9813050
32936,Center Ridge Road,44039,41.4065912,-81.9818484
35147,Center Ridge Road,44039,41.3927738,-82.0080310
35233,Center Ridge Road,44039,41.3926542,-82.0090743
35215,Center Ridge Road,44039,41.3918802,-82.0085654
33701,Center Ridge Road,44039,41.4004780,-81.9904431
33760,Center Ridge Road,44039,41.4015456,-81.9909409
33433,Center Ridge Road,44039,41.4024833,-81.9864869
5490,Mills Creek Lane,44039,41.4072338,-81.9829828
5475,Mills Creek Lane,44039,41.4089471,-81.9811035
5463,Mills Creek Lane,44039,41.4094908,-81.9803263
34325,Center Ridge Road,44039,41.3963562,-81.9972894
34160,Center Ridge Road,44039,41.3989036,-81.9958185
34088,Center Ridge Road,44039,41.3990971,-81.9949855
34100,Center Ridge Road,44039,41.3991776,-81.9953285
34015,Center Ridge Road,44039,41.3979376,-81.9937706
34350,Center Ridge Road,44039,41.3978211,-81.9980575
34305,Center Ridge Road,44039,41.3975724,-81.9966121
34011,Center Ridge Road,44039,41.3987745,-81.9937459
34043,Center Ridge Road,44039,41.3986641,-81.9944355
34323,Center Ridge Road,44039,41.3978507,-81.9959966
34085,Center Ridge Road,44039,41.3983176,-81.9948602
34179,Center Ridge Road,44039,41.3980741,-81.9954578
6400,Monroe Lane,44039,41.3965507,-81.9927014
33976,Lincoln Avenue,44039,41.3969630,-81.9915310
33984,Lincoln Avenue,44039,41.3969615,-81.9917580
6382,Monroe Lane,44039,41.3967380,-81.9926777
6364,Monroe Lane,44039,41.3969460,-81.9926669
35070,Center Ridge Road,44039,41.3939438,-82.0074761
6439,Jaycox Road,44039,41.3964249,-82.0057772
6401,Jaycox Road,44039,41.3959135,-82.0058467
34958,Center Ridge Road,44039,41.3954706,-82.0061180
35000,Center Ridge Road,44039,41.3945708,-82.0059710
34900,Center Ridge Road,44039,41.3949435,-82.0045460
34704,Center Ridge Road,44039,41.3960823,-82.0022944
34620,Bainbridge Rd,44039,41.3889044,-82.0042141
33395,Lorain Road,44039,41.3765490,-81.9850549
8888,Wheaton Place,44039,41.3637300,-82.0380086
8880,Wheaton Place,44039,41.3638860,-82.0380037
8872,Wheaton Place,44039,41.3640371,-82.0380130
8881,Wheaton Place,44039,41.3638975,-82.0374975
8873,Wheaton Place,44039,41.3639830,-82.0372967
8865,Wheaton Place,44039,41.3641255,-82.0371218
8857,Wheaton Place,44039,41.3643198,-82.0371174
8849,Wheaton Place,44039,41.3644115,-82.0373575
8841,Wheaton Place,44039,41.3646052,-82.0375155
8833,Wheaton Place,44039,41.3647801,-82.0373183
8825,Wheaton Place,44039,41.3649119,-82.0371650
8817,Wheaton Place,44039,41.3651114,-82.0371559
8809,Wheaton Place,44039,41.3652769,-82.0372976
8800,Wheaton Place,44039,41.3653214,-82.0375325
8808,Wheaton Place,44039,41.3653130,-82.0377664
8816,Wheaton Place,44039,41.3651790,-82.0379647
8824,Wheaton Place,44039,41.3650015,-82.0380227
8832,Wheaton Place,44039,41.3648489,-82.0380280
8840,Wheaton Place,44039,41.3646922,-82.0379921
8848,Wheaton Place,44039,41.3645340,-82.0379954
8856,Wheaton Place,44039,41.3643541,-82.0379784
8864,Wheaton Place,44039,41.3641901,-82.0379839
32533,Lorain Road,44039,41.3834129,-81.9783915
32800,Lorain Road,44039,41.3827983,-81.9818114
35066,Center Ridge Road,44039,41.3942632,-82.0070420
35600,Center Ridge Road,44039,41.3916201,-82.0145065
35900,Center Ridge Road,44039,41.3908350,-82.0180643
37349,Freedom Avenue,44039,41.3985478,-82.0380809
37385,Freedom Avenue,44039,41.3985548,-82.0386963
37350,Tail Feather Drive,44039,41.3981871,-82.0384604
37360,Freedom Avenue,44039,41.3990448,-82.0382894
37372,Freedom Avenue,44039,41.3990284,-82.0384921
37396,Freedom Avenue,44039,41.3990436,-82.0389149
5670,East Breezeway Drive,44039,41.4073136,-82.0411256
5656,East Breezeway Drive,44039,41.4073533,-82.0408918
5642,East Breezeway Drive,44039,41.4074701,-82.0407005
5628,East Breezeway Drive,44039,41.4076194,-82.0405392
5614,East Breezeway Drive,44039,41.4078260,-82.0404666
5600,East Breezeway Drive,44039,41.4079946,-82.0404429
5601,East Breezeway Drive,44039,41.4079921,-82.0397966
5609,East Breezeway Drive,44039,41.4078388,-82.0397863
5617,East Breezeway Drive,44039,41.4076747,-82.0398273
5625,East Breezeway Drive,44039,41.4074908,-82.0398893
5693,Overlook Way,44039,41.4071950,-82.0401374
5657,East Breezeway Drive,44039,41.4068951,-82.0406439
5665,East Breezeway Drive,44039,41.4068654,-82.0408479
5673,East Breezeway Drive,44039,41.4068245,-82.0410557
5681,East Breezeway Drive,44039,41.4068209,-82.0412716
6195,Otten Road,44039,41.3984559,-82.0493866
35111,Center Ridge Road,44039,41.3924304,-82.0069869
35107,Center Ridge Road,44039,41.3925651,-82.0067244
35105,Center Ridge Road,44039,41.3927300,-82.0066153
35095,Center Ridge Road,44039,41.3927783,-82.0064761
35085,Center Ridge Road,44039,41.3928006,-82.0064172
35075,Center Ridge Road,44039,41.3928313,-82.0063755
34910,Center Ridge Road,44039,41.3950902,-82.0051700
34800,Center Ridge Road,44039,41.3969070,-82.0041968
34760,Center Ridge Road,44039,41.3967522,-82.0034399
34750,Center Ridge Road,44039,41.3967918,-82.0031326
34740,Center Ridge Road,44039,41.3968296,-82.0027683
34313,Center Ridge Road,44039,41.3965587,-81.9965581
34307,Center Ridge Road,44039,41.3966128,-81.9964701
34303,Center Ridge Road,44039,41.3966449,-81.9964033
34301,Center Ridge Road,44039,41.3966695,-81.9963552
34299,Center Ridge Road,44039,41.3966973,-81.9963003
34297,Center Ridge Road,44039,41.3967310,-81.9962223
34295,Center Ridge Road,44039,41.3967705,-81.9960808
34275,Center Ridge Road,44039,41.3970467,-81.9960306
34263,Center Ridge Road,44039,41.3974064,-81.9960189
7000,Ranger Way,44039,41.3902016,-82.0060431
38931,Center Ridge Road,44039,41.3799808,-82.0606814
7321,Greenlawn Drive,44039,41.3862746,-82.0268832
7320,Greenlawn Drive,44039,41.3860346,-82.0275065
7332,Greenlawn Drive,44039,41.3858476,-82.0274361
7344,Greenlawn Drive,44039,41.3856387,-82.0273697
36592,Annie Lane,44039,41.3859507,-82.0267712
36625,Center Ridge Road,44039,41.3871553,-82.0277928
36580,Annie Lane,44039,41.3859784,-82.0264887
36568,Annie Lane,44039,41.3860557,-82.0261820
36556,Annie Lane,44039,41.3861167,-82.0259020
36544,Annie Lane,44039,41.3862189,-82.0256080
36532,Annie Lane,44039,41.3861030,-82.0252723
36520,Annie Lane,44039,41.3858956,-82.0251155
36533,Annie Lane,44039,41.3856576,-82.0251246
36545,Annie Lane,44039,41.3854295,-82.0253414
36557,Annie Lane,44039,41.3854287,-82.0257024
36569,Annie Lane,44039,41.3854367,-82.0260192
36581,Annie Lane,44039,41.3854647,-82.0263427
36593,Annie Lane,44039,41.3854381,-82.0266358
7369,Greenlawn Drive,44039,41.3851295,-82.0266455
36591,Center Ridge Road,44039,41.3874782,-82.0270213
36591,Center Ridge Road,44039,41.3874236,-82.0270086
36591,Center Ridge Road,44039,41.3873617,-82.0269905
36591,Center Ridge Road,44039,41.3873089,-82.0269682
36591,Center Ridge Road,44039,41.3872552,-82.0269535
7301,Greenlawn Drive,44039,41.3866413,-82.0269248
7309,Greenlawn Drive,44039,41.3865229,-82.0268745
7440,Greenlawn Drive,44039,41.3836410,-82.0273346
7428,Greenlawn Drive,44039,41.3839228,-82.0272940
7416,Greenlawn Drive,44039,41.3841682,-82.0273029
7404,Greenlawn Drive,44039,41.3844306,-82.0273420
7392,Greenlawn Drive,44039,41.3846929,-82.0273265
7380,Greenlawn Drive,44039,41.3849388,-82.0273337
7368,Greenlawn Drive,44039,41.3851448,-82.0273576
7356,Greenlawn Drive,44039,41.3854274,-82.0273497
7381,Greenlawn Drive,44039,41.3849438,-82.0266591
7393,Greenlawn Drive,44039,41.3847195,-82.0266582
7405,Greenlawn Drive,44039,41.3845037,-82.0266454
7417,Greenlawn Drive,44039,41.3842319,-82.0266134
7429,Greenlawn Drive,44039,41.3839483,-82.0266341
7441,Greenlawn Drive,44039,41.3836967,-82.0266008
37639,Hunter Lake Drive,44039,41.3949620,-82.0439439
37633,Hunter Lake Drive,44039,41.3949428,-82.0436715
37627,Hunter Lake Drive,44039,41.3949810,-82.0434437
37626,Hunter Lake Drive,44039,41.3954483,-82.0434882
37632,Hunter Lake Drive,44039,41.3954334,-82.0436666
37638,Hunter Lake Drive,44039,41.3954254,-82.0439409
37650,Hunter Lake Drive,44039,41.3954391,-82.0442576
37651,Hunter Lake Drive,44039,41.3949409,-82.0442542
37545,Hunter Lake Drive,44039,41.3949582,-82.0416709
37533,Hunter Lake Drive,44039,41.3949791,-82.0414538
37517,Tail Feather Drive,44039,41.3950001,-82.0408738
37513,Tail Feather Drive,44039,41.3953642,-82.0408865
37510,Tail Feather Drive,44039,41.3955261,-82.0415062
37514,Tail Feather Drive,44039,41.3953748,-82.0414547
6316,Meadow Lakes Boulevard,44039,41.3981289,-82.0431402
37601,Sandy Ridge Drive,44039,41.3984195,-82.0431660
6324,Meadow Lakes Boulevard,44039,41.3979619,-82.0430927
6332,Meadow Lakes Boulevard,44039,41.3977979,-82.0430372
7001,Condor Drive,44039,41.3883181,-82.0433127
7007,Condor Drive,44039,41.3883178,-82.0431532
7019,Condor Drive,44039,41.3883088,-82.0427059
7062,Peregrine Way,44039,41.3867352,-82.0432719
4900,Stratton Mill Street,44039,41.4184762,-82.0379457
4908,Stratton Mill Street,44039,41.4182385,-82.0379094
4916,Stratton Mill Street,44039,41.4180274,-82.0377996
4924,Stratton Mill Street,44039,41.4178393,-82.0376816
4901,Stratton Mill Street,44039,41.4184410,-82.0373086
4909,Stratton Mill Street,44039,41.4182331,-82.0371830
36692,Barkhurst Mill Drive,44039,41.4183160,-82.0366489
36701,Barkhurst Mill Drive,44039,41.4178110,-82.0369636
33633,Bagley Road,44039,41.3715756,-81.9907649
33770,Bagley Road,44039,41.3734311,-81.9898144
6401,Majestic Drive,44039,41.3968806,-82.0425653
6413,Majestic Drive,44039,41.3967847,-82.0426785
6425,Majestic Drive,44039,41.3966505,-82.0427236
6437,Majestic Drive,44039,41.3965105,-82.0427543
6449,Majestic Drive,44039,41.3963782,-82.0428136
6461,Majestic Drive,44039,41.3962493,-82.0428541
6473,Majestic Drive,44039,41.3961135,-82.0428991
6485,Majestic Drive,44039,41.3959801,-82.0429367
6497,Majestic Drive,44039,41.3958390,-82.0428999
6509,Majestic Drive,44039,41.3957107,-82.0429034
37614,Hunter Lake Drive,44039,41.3954468,-82.0429224
37608,Hunter Lake Drive,44039,41.3954284,-82.0427331
37602,Hunter Lake Drive,44039,41.3954222,-82.0425129
6424,Majestic Drive,44039,41.3968194,-82.0433499
6436,Majestic Drive,44039,41.3966737,-82.0433776
6448,Majestic Drive,44039,41.3965124,-82.0434247
6460,Majestic Drive,44039,41.3963508,-82.0434870
6472,Majestic Drive,44039,41.3961919,-82.0435085
6484,Majestic Drive,44039,41.3960414,-82.0435360
6496,Majestic Drive,44039,41.3958870,-82.0435645
6508,Majestic Drive,44039,41.3957457,-82.0435545
6545,Majestic Drive,44039,41.3949542,-82.0427736
6408,Amber Way,44039,41.3976014,-82.0444102
6400,Amber Way,44039,41.3975647,-82.0441902
6407,Amber Way,44039,41.3974245,-82.0440153
6416,Amber Way,44039,41.3975478,-82.0447041
6415,Amber Way,44039,41.3972142,-82.0439530
6423,Amber Way,44039,41.3970712,-82.0440429
6435,Amber Way,44039,41.3969652,-82.0441565
6447,Amber Way,44039,41.3968496,-82.0442805
6459,Amber Way,44039,41.3967058,-82.0443279
6467,Amber Way,44039,41.3965474,-82.0443355
6479,Amber Way,44039,41.3963985,-82.0443470
6491,Amber Way,44039,41.3962567,-82.0442996
6499,Amber Way,44039,41.3961228,-82.0442735
6507,Amber Way,44039,41.3959876,-82.0442300
6515,Amber Way,44039,41.3958502,-82.0442028
6523,Amber Way,44039,41.3957018,-82.0441909
6575,Amber Way,44039,41.3946812,-82.0441738
6583,Amber Way,44039,41.3945400,-82.0441726
6591,Amber Way,44039,41.3944047,-82.0441570
6599,Amber Way,44039,41.3942388,-82.0441694
6607,Amber Way,44039,41.3940897,-82.0441378
6615,Amber Way,44039,41.3939503,-82.0442217
6623,Amber Way,44039,41.3938135,-82.0442625
6647,Amber Way,44039,41.3934366,-82.0443819
6655,Amber Way,44039,41.3932872,-82.0443949
6663,Amber Way,44039,41.3931414,-82.0443814
6671,Amber Way,44039,41.3930048,-82.0443971
6679,Amber Way,44039,41.3928669,-82.0444054
6687,Amber Way,44039,41.3927294,-82.0444092
6695,Amber Way,44039,41.3925644,-82.0444068
6703,Amber Way,44039,41.3924264,-82.0444175
6711,Amber Way,44039,41.3922911,-82.0444188
6719,Amber Way,44039,41.3921553,-82.0444411
6727,Amber Way,44039,41.3920162,-82.0444077
6743,Amber Way,44039,41.3918364,-82.0444031
6759,Amber Way,44039,41.3916646,-82.0443094
6775,Amber Way,44039,41.3915104,-82.0441242
6791,Amber Way,44039,41.3914174,-82.0439717
37636,Amber Way,44039,41.3913298,-82.0437747
37630,Amber Way,44039,41.3912350,-82.0436265
37637,Amber Way,44039,41.3909279,-82.0441790
37631,Amber Way,44039,41.3908500,-82.0440560
37625,Amber Way,44039,41.3907823,-82.0438744
37619,Amber Way,44039,41.3906782,-82.0437321
37613,Amber Way,44039,41.3906185,-82.0435835
36248,Atlantic Avenue,44039,41.4030942,-82.0273127
36236,Atlantic Avenue,44039,41.4031026,-82.0270215
36224,Atlantic Avenue,44039,41.4030957,-82.0266976
37276,Freedom Avenue,44039,41.3990211,-82.0368044
37277,Freedom Avenue,44039,41.3985383,-82.0367253
37301,Freedom Avenue,44039,41.3985327,-82.0372364
37313,Freedom Avenue,44039,41.3985328,-82.0374433
37325,Freedom Avenue,44039,41.3985503,-82.0376476
37337,Freedom Avenue,44039,41.3985362,-82.0378479
37361,Freedom Avenue,44039,41.3985501,-82.0382908
37373,Freedom Avenue,44039,41.3985318,-82.0384950
37397,Freedom Avenue,44039,41.3985407,-82.0389018
37409,Freedom Avenue,44039,41.3985327,-82.0391206
37421,Freedom Avenue,44039,41.3985153,-82.0393450
37433,Freedom Avenue,44039,41.3985106,-82.0395644
37445,Freedom Avenue,44039,41.3985134,-82.0397664
37457,Freedom Avenue,44039,41.3984428,-82.0400006
37469,Freedom Avenue,44039,41.3983805,-82.0401835
37481,Freedom Avenue,44039,41.3983161,-82.0403903
37493,Freedom Avenue,44039,41.3982113,-82.0405142
37505,Freedom Avenue,44039,41.3981280,-82.0406914
37517,Freedom Avenue,44039,41.3980589,-82.0408818
37529,Freedom Avenue,44039,41.3979684,-82.0410259
6300,Greenview Trail,44039,41.3984222,-82.0411626
6299,Greenview Trail,44039,41.3986331,-82.0407850
37468,Freedom Avenue,44039,41.3988250,-82.0404563
37456,Freedom Avenue,44039,41.3989070,-82.0402161
37444,Freedom Avenue,44039,41.3989879,-82.0399304
37432,Freedom Avenue,44039,41.3990184,-82.0396387
37420,Freedom Avenue,44039,41.3990416,-82.0393797
37408,Freedom Avenue,44039,41.3990330,-82.0391267
37384,Freedom Avenue,44039,41.3990264,-82.0387125
37348,Freedom Avenue,44039,41.3990264,-82.0380736
37336,Freedom Avenue,44039,41.3990350,-82.0378522
37324,Freedom Avenue,44039,41.3990386,-82.0376352
37312,Freedom Avenue,44039,41.3990512,-82.0374269
37300,Freedom Avenue,44039,41.3990215,-82.0372191
37288,Freedom Avenue,44039,41.3990223,-82.0370007
37342,Tail Feather Drive,44039,41.3981376,-82.0382634
37334,Tail Feather Drive,44039,41.3981190,-82.0380622
37326,Tail Feather Drive,44039,41.3980978,-82.0378668
37318,Tail Feather Drive,44039,41.3980749,-82.0376647
37310,Tail Feather Drive,44039,41.3980561,-82.0374664
37302,Tail Feather Drive,44039,41.3980593,-82.0372484
37263,Freedom Avenue,44039,41.3985355,-82.0365345
37249,Freedom Avenue,44039,41.3985305,-82.0363311
37235,Freedom Avenue,44039,41.3985481,-82.0361185
37221,Freedom Avenue,44039,41.3985310,-82.0358648
37207,Freedom Avenue,44039,41.3985307,-82.0356554
37193,Freedom Avenue,44039,41.3985289,-82.0354562
37179,Freedom Avenue,44039,41.3984628,-82.0352094
37146,Freedom Avenue,44039,41.3980749,-82.0344911
36200,Atlantic Avenue,44039,41.4033043,-82.0260942
37496,White Feather Avenue,44039,41.3913319,-82.0409442
37484,White Feather Avenue,44039,41.3913441,-82.0407615
37497,White Feather Avenue,44039,41.3908761,-82.0409474
37485,White Feather Avenue,44039,41.3908595,-82.0407680
9479,Saw Mill Drive,44039,41.3532106,-82.0545606
37501,Center Ridge Road,44039,41.3815252,-82.0399173
7505,Evergreen Boulevard,44039,41.3817654,-82.0412361
37501,Center Ridge Road,44039,41.3815199,-82.0386044
37501,Center Ridge Road,44039,41.3812905,-82.0391886
37501,Center Ridge Road,44039,41.3809066,-82.0398808
37501,Center Ridge Road,44039,41.3807253,-82.0406416
37501,Center Ridge Road,44039,41.3819785,-82.0386537
37245,Shady Drive,44039,41.3709015,-82.0357970
37257,Shady Drive,44039,41.3708779,-82.0360899
32121,Cook Road,44039,41.3837269,-81.9747819
9345,Saybrook Drive,44039,41.3522947,-82.0404086
9354,Saybrook Drive,44039,41.3522911,-82.0402087
9362,Saybrook Drive,44039,41.3523026,-82.0400025
37164,Bolton Drive,44039,41.3522568,-82.0397004
37156,Bolton Drive,44039,41.3524109,-82.0397183
37148,Bolton Drive,44039,41.3525338,-82.0399761
37140,Bolton Drive,44039,41.3527055,-82.0400605
37132,Bolton Drive,44039,41.3528726,-82.0399293
37124,Bolton Drive,44039,41.3529463,-82.0397245
37116,Bolton Drive,44039,41.3529069,-82.0394568
37108,Bolton Drive,44039,41.3529155,-82.0392572
37100,Bolton Drive,44039,41.3530072,-82.0390577
37137,Bolton Drive,44039,41.3525008,-82.0391815
37109,Bolton Drive,44039,41.3525888,-82.0390106
37101,Bolton Drive,44039,41.3526756,-82.0388319
9374,Saybrook Drive,44039,41.3522617,-82.0392024
9382,Saybrook Drive,44039,41.3522577,-82.0389715
9390,Saybrook Drive,44039,41.3523684,-82.0387926
9398,Saybrook Drive,44039,41.3524210,-82.0386081
9351,Saybrook Drive,44039,41.3518924,-82.0407048
9355,Saybrook Drive,44039,41.3518861,-82.0404769
9359,Saybrook Drive,44039,41.3519004,-82.0402801
9363,Saybrook Drive,44039,41.3519258,-82.0400623
9367,Saybrook Drive,44039,41.3519007,-82.0398651
9371,Saybrook Drive,44039,41.3519025,-82.0396701
9375,Saybrook Drive,44039,41.3519015,-82.0394744
9379,Saybrook Drive,44039,41.3518988,-82.0392814
9395,Saybrook Drive,44039,41.3518954,-82.0384585
9383,Saybrook Drive,44039,41.3518885,-82.0390775
9387,Saybrook Drive,44039,41.3518899,-82.0388619
9391,Saybrook Drive,44039,41.3518786,-82.0386733
9399,Saybrook Drive,44039,41.3519954,-82.0382847
9308,Saybrook Drive,44039,41.3535533,-82.0408997
9319,Saybrook Drive,44039,41.3531113,-82.0401188
9312,Saybrook Drive,44039,41.3533713,-82.0409510
9316,Saybrook Drive,44039,41.3532302,-82.0409573
9323,Saybrook Drive,44039,41.3530954,-82.0404082
9327,Saybrook Drive,44039,41.3529486,-82.0404396
9320,Saybrook Drive,44039,41.3530860,-82.0409301
9324,Saybrook Drive,44039,41.3529160,-82.0409333
9331,Saybrook Drive,44039,41.3528008,-82.0404310
9335,Saybrook Drive,44039,41.3526630,-82.0404469
9328,Saybrook Drive,44039,41.3527582,-82.0409320
9332,Saybrook Drive,44039,41.3526207,-82.0409511
9339,Saybrook Drive,44039,41.3524975,-82.0404689
9336,Saybrook Drive,44039,41.3524762,-82.0409621
9340,Saybrook Drive,44039,41.3523129,-82.0409566
9344,Saybrook Drive,44039,41.3521650,-82.0409521
9348,Saybrook Drive,44039,41.3519612,-82.0408970
9315,Saybrook Drive,44039,41.3532332,-82.0399338
9311,Saybrook Drive,44039,41.3534035,-82.0398915
9307,Saybrook Drive,44039,41.3535846,-82.0399736
9303,Saybrook Drive,44039,41.3536316,-82.0402336
9300,Saybrook Drive,44039,41.3536295,-82.0404319
9304,Saybrook Drive,44039,41.3536234,-82.0406589
9328,Victoria Lane,44039,41.3545063,-82.0394696
9340,Victoria Lane,44039,41.3542846,-82.0394352
9352,Victoria Lane,44039,41.3540974,-82.0394420
9364,Victoria Lane,44039,41.3538657,-82.0394173
9376,Victoria Lane,44039,41.3536621,-82.0393526
9388,Victoria Lane,44039,41.3534447,-82.0393138
9400,Victoria Lane,44039,41.3532611,-82.0392408
9339,Victoria Lane,44039,41.3543564,-82.0387743
9351,Victoria Lane,44039,41.3541130,-82.0387399
9363,Victoria Lane,44039,41.3539090,-82.0386834
9375,Victoria Lane,44039,41.3536840,-82.0386085
9387,Victoria Lane,44039,41.3534535,-82.0386092
9399,Victoria Lane,44039,41.3532393,-82.0384835
9411,Victoria Lane,44039,41.3530492,-82.0383583
37004,Chaddwyck Lane,44039,41.3548112,-82.0380086
37027,Chaddwyck Lane,44039,41.3544596,-82.0368954
37023,Chaddwyck Lane,44039,41.3544481,-82.0370900
37019,Chaddwyck Lane,44039,41.3544505,-82.0372990
37013,Chaddwyck Lane,44039,41.3544253,-82.0375073
37009,Chaddwyck Lane,44039,41.3544235,-82.0377080
37032,Chaddwyck Lane,44039,41.3548426,-82.0365579
37028,Chaddwyck Lane,44039,41.3548318,-82.0367808
37024,Chaddwyck Lane,44039,41.3548251,-82.0369887
37020,Chaddwyck Lane,44039,41.3548288,-82.0371896
37016,Chaddwyck Lane,44039,41.3548420,-82.0373954
37012,Chaddwyck Lane,44039,41.3548268,-82.0375992
37008,Chaddwyck Lane,44039,41.3548347,-82.0378046
37000,Chaddwyck Lane,44039,41.3547684,-82.0382092
9315,Victoria Lane,44039,41.3547903,-82.0387047
9316,Victoria Lane,44039,41.3547107,-82.0394370
37062,Chaddwyck Lane,44039,41.3539746,-82.0368533
37066,Chaddwyck Lane,44039,41.3539846,-82.0370939
37070,Chaddwyck Lane,44039,41.3539931,-82.0372995
37088,Chaddwyck Lane,44039,41.3539364,-82.0381547
37084,Chaddwyck Lane,44039,41.3537702,-82.0381332
37075,Chaddwyck Lane,44039,41.3535564,-82.0374685
37071,Chaddwyck Lane,44039,41.3536168,-82.0372128
37067,Chaddwyck Lane,44039,41.3536194,-82.0370103
37057,Chaddwyck Lane,44039,41.3537629,-82.0364010
37049,Chaddwyck Lane,44039,41.3540728,-82.0364013
37041,Chaddwyck Lane,44039,41.3543739,-82.0364156
37037,Chaddwyck Lane,44039,41.3545420,-82.0364173
37080,Chaddwyck Lane,44039,41.3535959,-82.0380567
37092,Chaddwyck Lane,44039,41.3540977,-82.0381778
37078,Chaddwyck Lane,44039,41.3539850,-82.0377105
37053,Chaddwyck Lane,44039,41.3539093,-82.0364218
37074,Chaddwyck Lane,44039,41.3539758,-82.0375095
37033,Chaddwyck Lane,44039,41.3546912,-82.0364148
37096,Chaddwyck Lane,44039,41.3542569,-82.0381923
37077,Chaddwyck Lane,44039,41.3534541,-82.0376500
37059,Chaddwyck Lane,44039,41.3536038,-82.0365972
37063,Chaddwyck Lane,44039,41.3536072,-82.0368003
37045,Chaddwyck Lane,44039,41.3542260,-82.0364196
37098,Chaddwyck Lane,44039,41.3544087,-82.0381779
37079,Chaddwyck Lane,44039,41.3534624,-82.0379068
9292,Victoria Lane,44039,41.3551266,-82.0394419
9196,Victoria Lane,44039,41.3571454,-82.0391499
9195,Victoria Lane,44039,41.3569828,-82.0384810
9208,Victoria Lane,44039,41.3569593,-82.0392285
9207,Victoria Lane,44039,41.3567647,-82.0385686
9220,Victoria Lane,44039,41.3567721,-82.0392946
9231,Victoria Lane,44039,41.3563310,-82.0386967
9243,Victoria Lane,44039,41.3561113,-82.0387329
9256,Victoria Lane,44039,41.3561940,-82.0393999
9268,Victoria Lane,44039,41.3559970,-82.0394159
9255,Victoria Lane,44039,41.3558829,-82.0387324
9279,Victoria Lane,44039,41.3554477,-82.0387457
9291,Victoria Lane,44039,41.3552273,-82.0387505
9303,Victoria Lane,44039,41.3550080,-82.0387216
9304,Victoria Lane,44039,41.3549103,-82.0394405
9267,Victoria Lane,44039,41.3556625,-82.0387289
9232,Victoria Lane,44039,41.3565815,-82.0393284
9219,Victoria Lane,44039,41.3565543,-82.0386502
9244,Victoria Lane,44039,41.3563870,-82.0393926
9182,Stonegate Circle,44039,41.3569641,-82.0374280
9186,Stonegate Circle,44039,41.3570337,-82.0372508
9190,Stonegate Circle,44039,41.3570253,-82.0370332
9194,Stonegate Circle,44039,41.3570024,-82.0368706
9068,Stonegate Circle,44039,41.3563793,-82.0365578
9064,Stonegate Circle,44039,41.3565215,-82.0365457
9060,Stonegate Circle,44039,41.3566697,-82.0364949
9056,Stonegate Circle,44039,41.3568007,-82.0365086
9052,Stonegate Circle,44039,41.3569584,-82.0364503
9048,Stonegate Circle,44039,41.3571018,-82.0364362
9044,Stonegate Circle,44039,41.3572462,-82.0364345
9040,Stonegate Circle,44039,41.3574000,-82.0364520
9036,Stonegate Circle,44039,41.3575423,-82.0364233
9032,Stonegate Circle,44039,41.3576867,-82.0364199
9028,Stonegate Circle,44039,41.3578605,-82.0365236
9024,Stonegate Circle,44039,41.3579239,-82.0367618
9020,Stonegate Circle,44039,41.3578761,-82.0369858
9041,Stonegate Circle,44039,41.3572503,-82.0369155
9033,Stonegate Circle,44039,41.3573786,-82.0370214
9025,Stonegate Circle,44039,41.3574699,-82.0371564
9017,Stonegate Circle,44039,41.3575097,-82.0373592
9016,Stonegate Circle,44039,41.3578964,-82.0371985
9013,Stonegate Circle,44039,41.3575864,-82.0375341
37057,Danforth Court,44039,41.3572992,-82.0375192
37061,Danforth Court,44039,41.3572080,-82.0377184
37066,Danforth Court,44039,41.3571953,-82.0379494
37062,Danforth Court,44039,41.3573023,-82.0381621
37058,Danforth Court,44039,41.3574690,-82.0382287
37054,Danforth Court,44039,41.3576202,-82.0381369
9012,Stonegate Circle,44039,41.3579206,-82.0373888
9008,Stonegate Circle,44039,41.3579351,-82.0375939
9004,Stonegate Circle,44039,41.3580067,-82.0377594
9000,Stonegate Circle,44039,41.3580591,-82.0379190
37050,Danforth Court,44039,41.3577278,-82.0380324
9170,Stonegate Circle,44039,41.3566614,-82.0378770
9174,Stonegate Circle,44039,41.3568034,-82.0378130
9178,Stonegate Circle,44039,41.3568898,-82.0376143
9067,Stonegate Circle,44039,41.3564335,-82.0370261
9071,Stonegate Circle,44039,41.3562954,-82.0370022
9075,Stonegate Circle,44039,41.3561496,-82.0369874
9079,Stonegate Circle,44039,41.3560169,-82.0369357
9083,Stonegate Circle,44039,41.3558876,-82.0368963
9089,Stonegate Circle,44039,41.3557208,-82.0369075
9113,Stonegate Circle,44039,41.3555344,-82.0372163
9137,Stonegate Circle,44039,41.3556942,-82.0375745
9149,Stonegate Circle,44039,41.3558570,-82.0375844
9171,Stonegate Circle,44039,41.3565277,-82.0374523
9179,Stonegate Circle,44039,41.3566519,-82.0373150
9187,Stonegate Circle,44039,41.3566807,-82.0371272
9195,Stonegate Circle,44039,41.3566803,-82.0369399
9072,Stonegate Circle,44039,41.3562441,-82.0365036
9076,Stonegate Circle,44039,41.3560805,-82.0364756
9080,Stonegate Circle,44039,41.3559424,-82.0364592
9084,Stonegate Circle,44039,41.3557984,-82.0364245
9088,Stonegate Circle,44039,41.3556507,-82.0364435
9092,Stonegate Circle,44039,41.3555062,-82.0364072
9096,Stonegate Circle,44039,41.3553350,-82.0364173
9100,Stonegate Circle,44039,41.3552035,-82.0365386
9106,Stonegate Circle,44039,41.3551635,-82.0367547
9114,Stonegate Circle,44039,41.3551552,-82.0371410
9122,Stonegate Circle,44039,41.3551828,-82.0375396
9126,Stonegate Circle,44039,41.3551626,-82.0377280
9130,Stonegate Circle,44039,41.3551789,-82.0379616
9138,Stonegate Circle,44039,41.3554500,-82.0381140
8850,Oliver Court,44039,41.3638359,-82.0409484
8858,Oliver Court,44039,41.3636705,-82.0411491
8866,Oliver Court,44039,41.3634094,-82.0412241
8874,Oliver Court,44039,41.3631907,-82.0410046
8867,Oliver Court,44039,41.3631259,-82.0406978
8859,Oliver Court,44039,41.3632479,-82.0403972
8851,Oliver Court,44039,41.3634775,-82.0402629
8891,Levi Court,44039,41.3634045,-82.0368614
8895,Levi Court,44039,41.3631627,-82.0367906
8899,Levi Court,44039,41.3629265,-82.0369714
8898,Levi Court,44039,41.3628500,-82.0373154
8894,Levi Court,44039,41.3629997,-82.0376352
8890,Levi Court,44039,41.3632427,-82.0377403
37255,Terrell Drive,44039,41.3633142,-82.0398301
37233,Terrell Drive,44039,41.3632624,-82.0395037
37266,Terrell Drive,44039,41.3638659,-82.0398397
37244,Terrell Drive,44039,41.3637861,-82.0395512
37222,Terrell Drive,44039,41.3637599,-82.0392505
37200,Terrell Drive,44039,41.3637554,-82.0389573
37178,Terrell Drive,44039,41.3637565,-82.0386904
37156,Terrell Drive,44039,41.3637406,-82.0384155
37145,Terrell Drive,44039,41.3632472,-82.0381838
37167,Terrell Drive,44039,41.3632073,-82.0384782
37189,Terrell Drive,44039,41.3632507,-82.0388095
8967,Victoria Lane,44039,41.3615442,-82.0380837
8979,Victoria Lane,44039,41.3613872,-82.0378958
8991,Victoria Lane,44039,41.3611978,-82.0378167
9003,Victoria Lane,44039,41.3609988,-82.0377843
9004,Victoria Lane,44039,41.3608979,-82.0385410
9016,Victoria Lane,44039,41.3607433,-82.0383748
9015,Victoria Lane,44039,41.3608313,-82.0376375
9027,Victoria Lane,44039,41.3606256,-82.0376292
9028,Victoria Lane,44039,41.3605525,-82.0382905
37096,Minott Court,44039,41.3602160,-82.0375440
37088,Minott Court,44039,41.3603040,-82.0372600
37080,Minott Court,44039,41.3603036,-82.0369598
37072,Minott Court,44039,41.3601389,-82.0366985
37073,Minott Court,44039,41.3598841,-82.0366636
37081,Minott Court,44039,41.3596932,-82.0368886
37089,Minott Court,44039,41.3596522,-82.0371906
37097,Minott Court,44039,41.3597122,-82.0374854
37098,Briggs Circle,44039,41.3590672,-82.0375468
37090,Briggs Circle,44039,41.3590571,-82.0372759
37082,Briggs Circle,44039,41.3590558,-82.0369864
37074,Briggs Circle,44039,41.3589381,-82.0366659
37067,Briggs Circle,44039,41.3586749,-82.0366485
37075,Briggs Circle,44039,41.3584647,-82.0368198
37083,Briggs Circle,44039,41.3584105,-82.0371487
37091,Briggs Circle,44039,41.3584707,-82.0374220
37099,Briggs Circle,44039,41.3585565,-82.0376628
9064,Victoria Lane,44039,41.3592894,-82.0381878
9076,Victoria Lane,44039,41.3590921,-82.0382694
9088,Victoria Lane,44039,41.3588997,-82.0382336
9100,Victoria Lane,44039,41.3587084,-82.0383204
9112,Victoria Lane,44039,41.3585213,-82.0383590
9124,Victoria Lane,44039,41.3583280,-82.0384413
9064,Calista Drive,44039,41.3601147,-82.0390611
9065,Calista Drive,44039,41.3596203,-82.0390105
9057,Calista Drive,44039,41.3596340,-82.0387098
9056,Calista Drive,44039,41.3601262,-82.0387679
9048,Calista Drive,44039,41.3601456,-82.0384770
9049,Calista Drive,44039,41.3596719,-82.0384228
9041,Calista Drive,44039,41.3596889,-82.0381288
9040,Calista Drive,44039,41.3601578,-82.0381915
9324,Calista Drive,44039,41.3545733,-82.0408459
9332,Calista Drive,44039,41.3543413,-82.0409059
9340,Calista Drive,44039,41.3541099,-82.0407832
9347,Calista Drive,44039,41.3540274,-82.0404518
9339,Calista Drive,44039,41.3541414,-82.0402165
9331,Calista Drive,44039,41.3543684,-82.0400123
9323,Calista Drive,44039,41.3545753,-82.0401002
9315,Calista Drive,44039,41.3547655,-82.0401537
9316,Calista Drive,44039,41.3547772,-82.0407906
9308,Calista Drive,44039,41.3549671,-82.0407948
9307,Calista Drive,44039,41.3549637,-82.0401848
9299,Calista Drive,44039,41.3551529,-82.0401752
9300,Calista Drive,44039,41.3551592,-82.0407867
9292,Calista Drive,44039,41.3553501,-82.0408005
37113,Elizabeth Lane,44039,41.3555143,-82.0401632
37109,Elizabeth Lane,44039,41.3555359,-82.0399137
37105,Elizabeth Lane,44039,41.3555296,-82.0396549
37101,Elizabeth Lane,44039,41.3555236,-82.0393868
9269,Calista Drive,44039,41.3560040,-82.0401119
9261,Calista Drive,44039,41.3562239,-82.0401427
9262,Calista Drive,44039,41.3562222,-82.0407510
9254,Calista Drive,44039,41.3564588,-82.0407604
9253,Calista Drive,44039,41.3564465,-82.0401012
9245,Calista Drive,44039,41.3566815,-82.0400487
9246,Calista Drive,44039,41.3566987,-82.0407037
9238,Calista Drive,44039,41.3569111,-82.0406119
9237,Calista Drive,44039,41.3568920,-82.0399687
9230,Calista Drive,44039,41.3571115,-82.0405836
9229,Calista Drive,44039,41.3571154,-82.0399160
9221,Calista Drive,44039,41.3573362,-82.0398953
9222,Calista Drive,44039,41.3573482,-82.0405102
9213,Calista Drive,44039,41.3575603,-82.0398156
9214,Calista Drive,44039,41.3575832,-82.0405722
9205,Calista Drive,44039,41.3577744,-82.0398874
9206,Calista Drive,44039,41.3577969,-82.0405763
9197,Calista Drive,44039,41.3579903,-82.0399145
9198,Calista Drive,44039,41.3580317,-82.0405689
9189,Calista Drive,44039,41.3582275,-82.0399550
9181,Calista Drive,44039,41.3584379,-82.0400248
9190,Calista Drive,44039,41.3582543,-82.0406112
9182,Calista Drive,44039,41.3584601,-82.0407187
9174,Calista Drive,44039,41.3587038,-82.0407381
9166,Calista Drive,44039,41.3589254,-82.0407165
9089,Calista Drive,44039,41.3594752,-82.0396263
9096,Calista Drive,44039,41.3597937,-82.0401655
9088,Calista Drive,44039,41.3599096,-82.0399202
9080,Calista Drive,44039,41.3600309,-82.0396405
9072,Calista Drive,44039,41.3600862,-82.0393438
9077,Calista Drive,44039,41.3595802,-82.0393155
8849,Belton Drive,44039,41.3634512,-82.0439374
8829,Belton Drive,44039,41.3634550,-82.0441046
8823,Belton Drive,44039,41.3637417,-82.0441063
8819,Belton Drive,44039,41.3638969,-82.0441049
8899,Belton Drive,44039,41.3641541,-82.0440944
8895,Belton Drive,44039,41.3641755,-82.0439212
8900,Belton Drive,44039,41.3645519,-82.0440842
8896,Belton Drive,44039,41.3645549,-82.0438696
8892,Belton Drive,44039,41.3645423,-82.0436232
8888,Belton Drive,44039,41.3644196,-82.0434624
8884,Belton Drive,44039,41.3642406,-82.0434336
8880,Belton Drive,44039,41.3640832,-82.0434269
8876,Belton Drive,44039,41.3639325,-82.0434369
8872,Belton Drive,44039,41.3637554,-82.0434356
8868,Belton Drive,44039,41.3636028,-82.0434456
8864,Belton Drive,44039,41.3634555,-82.0434413
8860,Belton Drive,44039,41.3632726,-82.0434487
8856,Belton Drive,44039,41.3630978,-82.0435199
8852,Belton Drive,44039,41.3630653,-82.0437859
8848,Belton Drive,44039,41.3630900,-82.0439878
8844,Belton Drive,44039,41.3630909,-82.0441699
8840,Belton Drive,44039,41.3631070,-82.0444324
8836,Belton Drive,44039,41.3632356,-82.0445755
8832,Belton Drive,44039,41.3634041,-82.0446030
8828,Belton Drive,44039,41.3635766,-82.0445908
8824,Belton Drive,44039,41.3637269,-82.0445974
8820,Belton Drive,44039,41.3638770,-82.0445861
8816,Belton Drive,44039,41.3640278,-82.0445871
8812,Belton Drive,44039,41.3641791,-82.0445778
8808,Belton Drive,44039,41.3643306,-82.0445771
8804,Belton Drive,44039,41.3644830,-82.0445735
8800,Belton Drive,44039,41.3646336,-82.0445738
37684,Terrell Drive,44039,41.3651412,-82.0446348
37662,Terrell Drive,44039,41.3651357,-82.0443638
37640,Terrell Drive,44039,41.3651239,-82.0440911
37618,Terrell Drive,44039,41.3651231,-82.0438141
37596,Terrell Drive,44039,41.3651340,-82.0435385
37574,Terrell Drive,44039,41.3651256,-82.0432633
37553,Terrell Drive,44039,41.3645781,-82.0430754
37531,Terrell Drive,44039,41.3645382,-82.0428016
37509,Terrell Drive,44039,41.3645964,-82.0425240
37487,Terrell Drive,44039,41.3645431,-82.0422440
37465,Terrell Drive,44039,41.3645009,-82.0419773
37552,Terrell Drive,44039,41.3651220,-82.0429924
37530,Terrell Drive,44039,41.3651745,-82.0427086
37508,Terrell Drive,44039,41.3651170,-82.0424244
37486,Terrell Drive,44039,41.3650612,-82.0421432
37464,Terrell Drive,44039,41.3650218,-82.0418563
37442,Terrell Drive,44039,41.3649554,-82.0416361
37420,Terrell Drive,44039,41.3648591,-82.0413950
37800,Franklin Drive,44039,41.3637170,-82.0463683
8992,Ichabod Drive,44039,41.3626072,-82.0479529
8985,Franklin Drive,44039,41.3629673,-82.0471988
8990,Franklin Drive,44039,41.3629714,-82.0479300
8982,Franklin Drive,44039,41.3631666,-82.0478508
8974,Franklin Drive,44039,41.3633738,-82.0477990
37841,Winson Circle,44039,41.3639120,-82.0474144
37863,Winson Circle,44039,41.3639671,-82.0477479
37885,Winson Circle,44039,41.3640494,-82.0480495
37907,Winson Circle,44039,41.3642497,-82.0482224
37928,Winson Circle,44039,41.3645140,-82.0482071
37906,Winson Circle,44039,41.3647121,-82.0478976
37884,Winson Circle,44039,41.3647080,-82.0476062
37862,Winson Circle,44039,41.3646045,-82.0473442
37840,Winson Circle,44039,41.3644199,-82.0470896
37839,Terrell Drive,44039,41.3649781,-82.0467392
37838,Terrell Drive,44039,41.3654832,-82.0464596
37816,Terrell Drive,44039,41.3653920,-82.0462127
37794,Terrell Drive,44039,41.3653363,-82.0459606
37772,Terrell Drive,44039,41.3652408,-82.0457170
37795,Terrell Drive,44039,41.3648234,-82.0461543
37773,Terrell Drive,44039,41.3646966,-82.0458719
37751,Terrell Drive,44039,41.3646883,-82.0455820
9006,Franklin Drive,44039,41.3621124,-82.0480103
37843,Elva Lane,44039,41.3593326,-82.0479966
9029,Franklin Drive,44039,41.3614797,-82.0473061
9030,Franklin Drive,44039,41.3614903,-82.0479964
9021,Franklin Drive,44039,41.3616852,-82.0473312
9022,Franklin Drive,44039,41.3616952,-82.0480203
9013,Franklin Drive,44039,41.3618929,-82.0473039
9005,Franklin Drive,44039,41.3621021,-82.0473171
9014,Franklin Drive,44039,41.3618965,-82.0479794
37795,Elva Lane,44039,41.3593171,-82.0464449
37831,Elva Lane,44039,41.3593250,-82.0473219
9092,Wyllys Drive,44039,41.3598221,-82.0466349
9084,Wyllys Drive,44039,41.3600313,-82.0466776
9068,Wyllys Drive,44039,41.3604404,-82.0466568
9051,Wyllys Drive,44039,41.3608481,-82.0459313
9043,Wyllys Drive,44039,41.3610554,-82.0459380
9044,Wyllys Drive,44039,41.3610590,-82.0466354
9035,Wyllys Drive,44039,41.3612566,-82.0459192
9015,Wyllys Drive,44039,41.3618740,-82.0459360
9020,Wyllys Drive,44039,41.3616801,-82.0466246
9011,Wyllys Drive,44039,41.3620942,-82.0458883
9007,Wyllys Drive,44039,41.3623124,-82.0458652
9012,Wyllys Drive,44039,41.3619597,-82.0466901
9003,Wyllys Drive,44039,41.3625465,-82.0460767
8999,Wyllys Drive,44039,41.3626231,-82.0464044
8995,Wyllys Drive,44039,41.3625866,-82.0466809
8991,Wyllys Drive,44039,41.3625934,-82.0469704
8987,Wyllys Drive,44039,41.3626050,-82.0473263
9093,Franklin Drive,44039,41.3598266,-82.0473420
9094,Franklin Drive,44039,41.3598346,-82.0480304
9085,Franklin Drive,44039,41.3600363,-82.0473231
9086,Franklin Drive,44039,41.3600424,-82.0480291
9077,Franklin Drive,44039,41.3602458,-82.0473271
9078,Franklin Drive,44039,41.3602481,-82.0480334
9069,Franklin Drive,44039,41.3604486,-82.0473381
9070,Franklin Drive,44039,41.3604590,-82.0480308
9061,Franklin Drive,44039,41.3606568,-82.0473220
9062,Franklin Drive,44039,41.3606665,-82.0480246
9053,Franklin Drive,44039,41.3608629,-82.0473135
9054,Franklin Drive,44039,41.3608700,-82.0480316
9045,Franklin Drive,44039,41.3610691,-82.0473077
9046,Franklin Drive,44039,41.3610761,-82.0480213
9037,Franklin Drive,44039,41.3612714,-82.0473159
9038,Franklin Drive,44039,41.3612835,-82.0479885
38179,Terrell Drive,44039,41.3652766,-82.0507860
38157,Terrell Drive,44039,41.3653089,-82.0505205
38135,Terrell Drive,44039,41.3652850,-82.0502248
8800,Bauer Circle,44039,41.3653152,-82.0497948
8808,Bauer Circle,44039,41.3651186,-82.0497628
8816,Bauer Circle,44039,41.3649042,-82.0498700
8824,Bauer Circle,44039,41.3647012,-82.0499623
8832,Bauer Circle,44039,41.3644621,-82.0497814
8840,Bauer Circle,44039,41.3643356,-82.0494245
8833,Bauer Circle,44039,41.3644642,-82.0490805
8825,Bauer Circle,44039,41.3647049,-82.0489395
8817,Bauer Circle,44039,41.3649108,-82.0489275
8809,Bauer Circle,44039,41.3651145,-82.0490631
8801,Bauer Circle,44039,41.3653242,-82.0490622
37995,Terrell Drive,44039,41.3653069,-82.0484790
38190,Terrell Drive,44039,41.3657995,-82.0509749
38168,Terrell Drive,44039,41.3658134,-82.0507065
38146,Terrell Drive,44039,41.3658154,-82.0504310
38124,Terrell Drive,44039,41.3658265,-82.0501557
38102,Terrell Drive,44039,41.3658066,-82.0498831
38080,Terrell Drive,44039,41.3657978,-82.0496074
38058,Terrell Drive,44039,41.3658031,-82.0493357
38036,Terrell Drive,44039,41.3658123,-82.0490626
38014,Terrell Drive,44039,41.3658170,-82.0487902
37992,Terrell Drive,44039,41.3658070,-82.0485174
37970,Terrell Drive,44039,41.3658017,-82.0482358
37948,Terrell Drive,44039,41.3657738,-82.0479586
37926,Terrell Drive,44039,41.3657501,-82.0476810
37904,Terrell Drive,44039,41.3657199,-82.0474095
37882,Terrell Drive,44039,41.3656569,-82.0471546
37967,Terrell Drive,44039,41.3652963,-82.0482167
37939,Terrell Drive,44039,41.3652487,-82.0478996
37911,Terrell Drive,44039,41.3652235,-82.0476399
37883,Terrell Drive,44039,41.3651591,-82.0473665
37861,Terrell Drive,44039,41.3651203,-82.0470787
8702,Ashton Place Drive,44039,41.3667788,-82.0474913
8706,Ashton Place Drive,44039,41.3669257,-82.0475982
8710,Ashton Place Drive,44039,41.3670824,-82.0476649
8714,Ashton Place Drive,44039,41.3672479,-82.0477734
8718,Ashton Place Drive,44039,41.3674029,-82.0478764
8756,Ashton Place Drive,44039,41.3672527,-82.0483205
8760,Ashton Place Drive,44039,41.3671020,-82.0482332
8764,Ashton Place Drive,44039,41.3669639,-82.0481500
8768,Ashton Place Drive,44039,41.3668007,-82.0480532
8772,Ashton Place Drive,44039,41.3666511,-82.0479605
8698,Ashton Place Drive,44039,41.3666092,-82.0474048
8691,Ashton Place Drive,44039,41.3665368,-82.0469194
8695,Ashton Place Drive,44039,41.3667148,-82.0469643
8699,Ashton Place Drive,44039,41.3668672,-82.0470446
8703,Ashton Place Drive,44039,41.3670196,-82.0471425
8707,Ashton Place Drive,44039,41.3671689,-82.0472338
8711,Ashton Place Drive,44039,41.3673218,-82.0473238
8715,Ashton Place Drive,44039,41.3674707,-82.0474129
8719,Ashton Place Drive,44039,41.3676188,-82.0474911
8723,Ashton Place Drive,44039,41.3677455,-82.0475563
8727,Ashton Place Drive,44039,41.3678234,-82.0478231
8731,Ashton Place Drive,44039,41.3677586,-82.0479842
8735,Ashton Place Drive,44039,41.3676899,-82.0481913
8739,Ashton Place Drive,44039,41.3676279,-82.0483986
8743,Ashton Place Drive,44039,41.3675539,-82.0485896
8747,Ashton Place Drive,44039,41.3675069,-82.0487605
8751,Ashton Place Drive,44039,41.3673134,-82.0488549
8755,Ashton Place Drive,44039,41.3671819,-82.0487692
8759,Ashton Place Drive,44039,41.3670306,-82.0486844
8763,Ashton Place Drive,44039,41.3668668,-82.0486005
8767,Ashton Place Drive,44039,41.3667085,-82.0485110
8771,Ashton Place Drive,44039,41.3665586,-82.0484024
8775,Ashton Place Drive,44039,41.3664148,-82.0483332
8779,Ashton Place Drive,44039,41.3662864,-82.0481231
8783,Ashton Place Drive,44039,41.3662602,-82.0479126
8787,Ashton Place Drive,44039,41.3662449,-82.0476968
8791,Ashton Place Drive,44039,41.3662219,-82.0474809
8795,Ashton Place Drive,44039,41.3661874,-82.0472610
8799,Ashton Place Drive,44039,41.3661208,-82.0470543
38454,Terrell Drive,44039,41.3649221,-82.0543042
38432,Terrell Drive,44039,41.3650989,-82.0541487
38410,Terrell Drive,44039,41.3652666,-82.0538814
38388,Terrell Drive,44039,41.3654206,-82.0536221
38366,Terrell Drive,44039,41.3655087,-82.0533463
38344,Terrell Drive,44039,41.3655599,-82.0531029
38377,Terrell Drive,44039,41.3649637,-82.0532862
38355,Terrell Drive,44039,41.3650458,-82.0530021
38333,Terrell Drive,44039,41.3650818,-82.0527825
38311,Terrell Drive,44039,41.3651299,-82.0525133
38289,Terrell Drive,44039,41.3651768,-82.0522416
38267,Terrell Drive,44039,41.3652335,-82.0519236
38245,Terrell Drive,44039,41.3652491,-82.0516658
38322,Terrell Drive,44039,41.3656241,-82.0527750
38300,Terrell Drive,44039,41.3656742,-82.0525315
38278,Terrell Drive,44039,41.3657398,-82.0521782
38256,Terrell Drive,44039,41.3658086,-82.0519082
38234,Terrell Drive,44039,41.3657975,-82.0516010
8885,Jordan Court,44039,41.3635824,-82.0527957
8867,Jordan Court,44039,41.3636004,-82.0526241
8853,Jordan Court,44039,41.3638284,-82.0525985
8847,Jordan Court,44039,41.3639750,-82.0525875
8823,Jordan Court,44039,41.3642040,-82.0526476
8815,Jordan Court,44039,41.3642082,-82.0528379
8874,Jordan Court,44039,41.3630866,-82.0524159
8870,Jordan Court,44039,41.3632446,-82.0524920
8866,Jordan Court,44039,41.3632723,-82.0522177
8862,Jordan Court,44039,41.3634471,-82.0520931
8858,Jordan Court,44039,41.3636200,-82.0520892
8854,Jordan Court,44039,41.3637737,-82.0521107
8850,Jordan Court,44039,41.3639219,-82.0521057
8846,Jordan Court,44039,41.3640891,-82.0520738
8842,Jordan Court,44039,41.3642284,-82.0520914
8838,Jordan Court,44039,41.3643816,-82.0520497
8834,Jordan Court,44039,41.3645539,-82.0520288
8830,Jordan Court,44039,41.3647048,-82.0522071
8826,Jordan Court,44039,41.3647062,-82.0524230
8822,Jordan Court,44039,41.3646606,-82.0526233
8818,Jordan Court,44039,41.3645987,-82.0528134
8814,Jordan Court,44039,41.3645626,-82.0530106
8810,Jordan Court,44039,41.3645573,-82.0532832
8806,Jordan Court,44039,41.3646198,-82.0534849
8802,Jordan Court,44039,41.3646710,-82.0536604
38384,Noah Lane,44039,41.3613687,-82.0531826
38388,Noah Lane,44039,41.3613591,-82.0533805
38392,Noah Lane,44039,41.3613670,-82.0535766
38396,Noah Lane,44039,41.3613793,-82.0538031
38584,Terrell Drive,44039,41.3607430,-82.0546263
38580,Terrell Drive,44039,41.3609640,-82.0545597
38576,Terrell Drive,44039,41.3611760,-82.0544637
38572,Terrell Drive,44039,41.3613997,-82.0544149
38568,Terrell Drive,44039,41.3616231,-82.0544084
38564,Terrell Drive,44039,41.3618489,-82.0543968
38560,Terrell Drive,44039,41.3620685,-82.0543569
38367,Humphrey Circle,44039,41.3618020,-82.0522637
38359,Humphrey Circle,44039,41.3617917,-82.0519895
38351,Humphrey Circle,44039,41.3617311,-82.0517158
38343,Humphrey Circle,44039,41.3615779,-82.0514465
38335,Humphrey Circle,44039,41.3616164,-82.0511494
38327,Humphrey Circle,44039,41.3617921,-82.0508825
38326,Humphrey Circle,44039,41.3620382,-82.0508519
38334,Humphrey Circle,44039,41.3622653,-82.0510312
38342,Humphrey Circle,44039,41.3623393,-82.0513634
38350,Humphrey Circle,44039,41.3623104,-82.0516599
38358,Humphrey Circle,44039,41.3623328,-82.0519504
38366,Humphrey Circle,44039,41.3622922,-82.0522409
38375,Humphrey Circle,44039,41.3618214,-82.0528910
38383,Humphrey Circle,44039,41.3618122,-82.0531747
38391,Humphrey Circle,44039,41.3617994,-82.0534410
38399,Humphrey Circle,44039,41.3618235,-82.0537126
38374,Humphrey Circle,44039,41.3623036,-82.0528659
38382,Humphrey Circle,44039,41.3623069,-82.0531570
38390,Humphrey Circle,44039,41.3623273,-82.0534330
38398,Humphrey Circle,44039,41.3623450,-82.0537073
38547,Terrell Drive,44039,41.3627106,-82.0536923
38543,Terrell Drive,44039,41.3629095,-82.0537462
38539,Terrell Drive,44039,41.3631009,-82.0537653
38535,Terrell Drive,44039,41.3633254,-82.0538613
38531,Terrell Drive,44039,41.3635359,-82.0539056
38527,Terrell Drive,44039,41.3637513,-82.0538614
38523,Terrell Drive,44039,41.3639569,-82.0538816
38556,Terrell Drive,44039,41.3622888,-82.0543638
38552,Terrell Drive,44039,41.3625034,-82.0543529
38548,Terrell Drive,44039,41.3627318,-82.0543603
38544,Terrell Drive,44039,41.3629575,-82.0544394
38540,Terrell Drive,44039,41.3631828,-82.0544872
38536,Terrell Drive,44039,41.3633850,-82.0545804
38532,Terrell Drive,44039,41.3636054,-82.0545825
38528,Terrell Drive,44039,41.3638082,-82.0546128
38524,Terrell Drive,44039,41.3640214,-82.0545800
38520,Terrell Drive,44039,41.3642293,-82.0545471
38498,Terrell Drive,44039,41.3644397,-82.0545489
8926,Jordan Court,44039,41.3643184,-82.0538590
8922,Jordan Court,44039,41.3642730,-82.0536552
8918,Jordan Court,44039,41.3642216,-82.0534729
8914,Jordan Court,44039,41.3640289,-82.0532927
8898,Jordan Court,44039,41.3634122,-82.0532805
8910,Jordan Court,44039,41.3638842,-82.0533051
8906,Jordan Court,44039,41.3637467,-82.0533063
8902,Jordan Court,44039,41.3635793,-82.0532861
8894,Jordan Court,44039,41.3632707,-82.0532269
8890,Jordan Court,44039,41.3631254,-82.0531915
8886,Jordan Court,44039,41.3629693,-82.0531611
8882,Jordan Court,44039,41.3628145,-82.0530300
8878,Jordan Court,44039,41.3627811,-82.0528072
9023,Morgan Circle,44039,41.3607806,-82.0513402
9031,Morgan Circle,44039,41.3605054,-82.0513414
9035,Morgan Circle,44039,41.3603689,-82.0513630
9105,Morgan Circle,44039,41.3602090,-82.0518113
9109,Morgan Circle,44039,41.3603470,-82.0518093
9113,Morgan Circle,44039,41.3604845,-82.0517750
9117,Morgan Circle,44039,41.3606232,-82.0517703
9121,Morgan Circle,44039,41.3607621,-82.0517521
9130,Morgan Circle,44039,41.3609800,-82.0522452
9126,Morgan Circle,44039,41.3608435,-82.0522788
9122,Morgan Circle,44039,41.3607064,-82.0522786
9118,Morgan Circle,44039,41.3605675,-82.0522864
9114,Morgan Circle,44039,41.3604293,-82.0522876
9110,Morgan Circle,44039,41.3602927,-82.0522890
9106,Morgan Circle,44039,41.3601551,-82.0523158
38382,Loman Court,44039,41.3598697,-82.0528403
38390,Loman Court,44039,41.3595851,-82.0530330
38402,Loman Court,44039,41.3591543,-82.0529945
38406,Loman Court,44039,41.3590032,-82.0529177
38410,Loman Court,44039,41.3589346,-82.0527053
38405,Loman Court,44039,41.3590901,-82.0523117
9068,Morgan Circle,44039,41.3592386,-82.0510610
9064,Morgan Circle,44039,41.3593253,-82.0508826
9040,Morgan Circle,44039,41.3601795,-82.0508465
9036,Morgan Circle,44039,41.3603164,-82.0508206
9032,Morgan Circle,44039,41.3604543,-82.0508190
9028,Morgan Circle,44039,41.3605936,-82.0508420
9024,Morgan Circle,44039,41.3607293,-82.0508316
9020,Morgan Circle,44039,41.3608682,-82.0507938
9016,Morgan Circle,44039,41.3610207,-82.0508162
9012,Morgan Circle,44039,41.3611516,-82.0510573
9008,Morgan Circle,44039,41.3611506,-82.0512851
9004,Morgan Circle,44039,41.3611375,-82.0514716
9000,Morgan Circle,44039,41.3611693,-82.0516458
38360,Noah Lane,44039,41.3612440,-82.0518324
38364,Noah Lane,44039,41.3613321,-82.0520090
38372,Noah Lane,44039,41.3613479,-82.0523733
38375,Noah Lane,44039,41.3610082,-82.0527400
9001,Lyman Court,44039,41.3610059,-82.0531459
9013,Lyman Court,44039,41.3608628,-82.0530469
9025,Lyman Court,44039,41.3607130,-82.0530239
9037,Lyman Court,44039,41.3605569,-82.0531102
9049,Lyman Court,44039,41.3605040,-82.0533196
9048,Lyman Court,44039,41.3605049,-82.0535539
9036,Lyman Court,44039,41.3605757,-82.0537736
9024,Lyman Court,44039,41.3607280,-82.0538573
9012,Lyman Court,44039,41.3608706,-82.0538543
9000,Lyman Court,44039,41.3610102,-82.0537246
38376,Noah Lane,44039,41.3613673,-82.0527886
38380,Noah Lane,44039,41.3613664,-82.0529918
38619,Terrell Drive,44039,41.3580865,-82.0553525
38615,Terrell Drive,44039,41.3583077,-82.0553389
38611,Terrell Drive,44039,41.3585430,-82.0553221
38607,Terrell Drive,44039,41.3587622,-82.0552218
38603,Terrell Drive,44039,41.3589723,-82.0550729
38599,Terrell Drive,44039,41.3591559,-82.0549334
38620,Terrell Drive,44039,41.3583151,-82.0560269
38616,Terrell Drive,44039,41.3585415,-82.0560035
38612,Terrell Drive,44039,41.3587583,-82.0559286
38608,Terrell Drive,44039,41.3589761,-82.0558183
38604,Terrell Drive,44039,41.3591749,-82.0556721
38600,Terrell Drive,44039,41.3593606,-82.0555336
38596,Terrell Drive,44039,41.3595644,-82.0554058
9056,Colley Circle,44039,41.3595301,-82.0546687
9064,Colley Circle,44039,41.3593193,-82.0543857
9072,Colley Circle,44039,41.3593447,-82.0540554
9080,Colley Circle,44039,41.3595238,-82.0538101
9071,Colley Circle,44039,41.3597749,-82.0537875
9063,Colley Circle,44039,41.3599691,-82.0540018
9055,Colley Circle,44039,41.3601402,-82.0542604
9040,Lydia Circle,44039,41.3598508,-82.0551557
9032,Lydia Circle,44039,41.3599855,-82.0553805
9024,Lydia Circle,44039,41.3600316,-82.0556614
9016,Lydia Circle,44039,41.3600890,-82.0559806
9008,Lydia Circle,44039,41.3603050,-82.0561221
9000,Lydia Circle,44039,41.3605450,-82.0561100
9007,Lydia Circle,44039,41.3607352,-82.0558321
9015,Lydia Circle,44039,41.3607492,-82.0555024
9023,Lydia Circle,44039,41.3605977,-82.0552680
9031,Lydia Circle,44039,41.3604393,-82.0550649
9039,Lydia Circle,44039,41.3603685,-82.0547986
9126,Chatham Circle,44039,41.3587082,-82.0545564
9134,Chatham Circle,44039,41.3584879,-82.0545910
9142,Chatham Circle,44039,41.3582901,-82.0544956
9150,Chatham Circle,44039,41.3580808,-82.0544655
9158,Chatham Circle,44039,41.3578885,-82.0544570
9166,Chatham Circle,44039,41.3576959,-82.0544389
9174,Chatham Circle,44039,41.3575007,-82.0544613
9182,Chatham Circle,44039,41.3573109,-82.0544651
9190,Chatham Circle,44039,41.3570959,-82.0544386
9198,Chatham Circle,44039,41.3569032,-82.0544550
38651,Terrell Drive,44039,41.3569510,-82.0550316
38647,Terrell Drive,44039,41.3571174,-82.0551136
38643,Terrell Drive,44039,41.3572597,-82.0552194
38639,Terrell Drive,44039,41.3573847,-82.0553003
38631,Terrell Drive,44039,41.3575314,-82.0553648
38627,Terrell Drive,44039,41.3576878,-82.0553766
38648,Terrell Drive,44039,41.3568573,-82.0556159
38644,Terrell Drive,44039,41.3569937,-82.0557150
38640,Terrell Drive,44039,41.3571103,-82.0557996
38636,Terrell Drive,44039,41.3572769,-82.0558950
38632,Terrell Drive,44039,41.3574328,-82.0559429
38628,Terrell Drive,44039,41.3576140,-82.0559818
9464,Saw Mill Drive,44039,41.3526103,-82.0559207
9448,Saw Mill Drive,44039,41.3532495,-82.0561303
9440,Saw Mill Drive,44039,41.3533839,-82.0561628
9432,Saw Mill Drive,44039,41.3535241,-82.0561639
9424,Saw Mill Drive,44039,41.3536806,-82.0561527
9431,Saw Mill Drive,44039,41.3534987,-82.0555686
9423,Saw Mill Drive,44039,41.3536409,-82.0555478
9415,Saw Mill Drive,44039,41.3538042,-82.0555564
9416,Saw Mill Drive,44039,41.3538517,-82.0561422
9408,Saw Mill Drive,44039,41.3540386,-82.0561692
9400,Saw Mill Drive,44039,41.3542599,-82.0561630
9355,Asbury Lane,44039,41.3548718,-82.0544496
9349,Asbury Lane,44039,41.3550414,-82.0544751
9343,Asbury Lane,44039,41.3551963,-82.0544529
9337,Asbury Lane,44039,41.3554674,-82.0544458
9331,Asbury Lane,44039,41.3554320,-82.0541843
9325,Asbury Lane,44039,41.3555907,-82.0539129
9319,Asbury Lane,44039,41.3558483,-82.0538566
9320,Asbury Lane,44039,41.3560643,-82.0540396
9324,Asbury Lane,44039,41.3561169,-82.0542755
9328,Asbury Lane,44039,41.3560396,-82.0545986
9332,Asbury Lane,44039,41.3559195,-82.0547514
9336,Asbury Lane,44039,41.3558060,-82.0548946
9340,Asbury Lane,44039,41.3556472,-82.0550290
9344,Asbury Lane,44039,41.3554752,-82.0550790
9348,Asbury Lane,44039,41.3553057,-82.0550719
9352,Asbury Lane,44039,41.3551462,-82.0550711
9356,Asbury Lane,44039,41.3549875,-82.0550702
9360,Asbury Lane,44039,41.3548304,-82.0550866
9364,Asbury Lane,44039,41.3546782,-82.0550691
9359,Asbury Lane,44039,41.3548681,-82.0540530
9363,Asbury Lane,44039,41.3546853,-82.0538714
9367,Asbury Lane,44039,41.3544177,-82.0538980
9371,Asbury Lane,44039,41.3542547,-82.0540894
9375,Asbury Lane,44039,41.3542198,-82.0543550
9379,Asbury Lane,44039,41.3542344,-82.0545542
9383,Asbury Lane,44039,41.3542448,-82.0547629
9387,Asbury Lane,44039,41.3542451,-82.0549688
9391,Asbury Lane,44039,41.3542327,-82.0551663
9395,Asbury Lane,44039,41.3542461,-82.0554068
9399,Asbury Lane,44039,41.3542220,-82.0556172
9394,Saw Mill Drive,44039,41.3544230,-82.0561632
9388,Saw Mill Drive,44039,41.3545617,-82.0561636
9382,Saw Mill Drive,44039,41.3547142,-82.0561417
9376,Saw Mill Drive,44039,41.3548775,-82.0561436
9370,Saw Mill Drive,44039,41.3550287,-82.0561333
9364,Saw Mill Drive,44039,41.3551780,-82.0561563
9358,Saw Mill Drive,44039,41.3553181,-82.0561443
9352,Saw Mill Drive,44039,41.3554702,-82.0561570
9346,Saw Mill Drive,44039,41.3556473,-82.0561613
9340,Saw Mill Drive,44039,41.3558010,-82.0561363
9334,Saw Mill Drive,44039,41.3559533,-82.0560927
9328,Saw Mill Drive,44039,41.3561107,-82.0560462
9322,Saw Mill Drive,44039,41.3562704,-82.0559123
9316,Saw Mill Drive,44039,41.3564033,-82.0557960
9310,Saw Mill Drive,44039,41.3565265,-82.0556691
9304,Saw Mill Drive,44039,41.3566506,-82.0554581
9387,Saw Mill Drive,44039,41.3546860,-82.0555556
9379,Saw Mill Drive,44039,41.3548433,-82.0555631
9371,Saw Mill Drive,44039,41.3549986,-82.0555725
9363,Saw Mill Drive,44039,41.3551482,-82.0555533
9355,Saw Mill Drive,44039,41.3553001,-82.0555684
9347,Saw Mill Drive,44039,41.3554567,-82.0555569
9339,Saw Mill Drive,44039,41.3556440,-82.0555662
9331,Saw Mill Drive,44039,41.3558049,-82.0555189
9323,Saw Mill Drive,44039,41.3559469,-82.0554479
9315,Saw Mill Drive,44039,41.3561057,-82.0553504
9307,Saw Mill Drive,44039,41.3562119,-82.0551997
38495,Revere Drive,44039,41.3563295,-82.0549996
38483,Revere Drive,44039,41.3564163,-82.0548367
38471,Revere Drive,44039,41.3564748,-82.0546278
38459,Revere Drive,44039,41.3564802,-82.0543795
38447,Revere Drive,44039,41.3564822,-82.0541674
38435,Revere Drive,44039,41.3564663,-82.0539679
38423,Revere Drive,44039,41.3564607,-82.0537572
9199,Chatham Circle,44039,41.3569037,-82.0538291
9191,Chatham Circle,44039,41.3571004,-82.0538783
9183,Chatham Circle,44039,41.3573119,-82.0538438
9175,Chatham Circle,44039,41.3575051,-82.0538763
9167,Chatham Circle,44039,41.3576944,-82.0538749
9159,Chatham Circle,44039,41.3578892,-82.0538388
9151,Chatham Circle,44039,41.3580805,-82.0538411
9143,Chatham Circle,44039,41.3582902,-82.0538093
9135,Chatham Circle,44039,41.3584854,-82.0536856
9127,Chatham Circle,44039,41.3587084,-82.0537567
9119,Chatham Circle,44039,41.3588742,-82.0539871
9118,Chatham Circle,44039,41.3588686,-82.0542906
38427,Kingsbury Drive,44039,41.3519905,-82.0537158
38439,Kingsbury Drive,44039,41.3519819,-82.0539660
38463,Kingsbury Drive,44039,41.3519578,-82.0545197
38475,Kingsbury Drive,44039,41.3520043,-82.0547833
38487,Kingsbury Drive,44039,41.3520884,-82.0550698
38355,Kingsbury Drive,44039,41.3521828,-82.0523019
38367,Kingsbury Drive,44039,41.3521025,-82.0524844
38379,Kingsbury Drive,44039,41.3520369,-82.0526594
38391,Kingsbury Drive,44039,41.3519916,-82.0528923
38403,Kingsbury Drive,44039,41.3519754,-82.0531208
38342,Kingsbury Drive,44039,41.3527411,-82.0524595
38360,Kingsbury Drive,44039,41.3525719,-82.0526567
38382,Kingsbury Drive,44039,41.3525064,-82.0528764
38404,Kingsbury Drive,44039,41.3524296,-82.0531811
9476,Drury Way,44039,41.3532467,-82.0518038
9468,Drury Way,44039,41.3534111,-82.0518076
9460,Drury Way,44039,41.3535627,-82.0518029
9452,Drury Way,44039,41.3537103,-82.0517832
9444,Drury Way,44039,41.3538631,-82.0517939
9436,Drury Way,44039,41.3540150,-82.0517984
9428,Drury Way,44039,41.3541647,-82.0518177
9429,Grist Mill Drive,44039,41.3541685,-82.0523004
9437,Grist Mill Drive,44039,41.3540172,-82.0522784
9445,Grist Mill Drive,44039,41.3538631,-82.0523037
9453,Grist Mill Drive,44039,41.3537140,-82.0522834
9461,Grist Mill Drive,44039,41.3535634,-82.0522969
9469,Grist Mill Drive,44039,41.3534146,-82.0522883
9477,Grist Mill Drive,44039,41.3532477,-82.0522678
9485,Grist Mill Drive,44039,41.3530423,-82.0520460
9483,Drury Way,44039,41.3530146,-82.0512415
9479,Drury Way,44039,41.3530295,-82.0509553
9475,Drury Way,44039,41.3531481,-82.0507401
9471,Drury Way,44039,41.3533225,-82.0506628
9467,Drury Way,44039,41.3535277,-82.0507387
9463,Drury Way,44039,41.3536586,-82.0509533
9459,Drury Way,44039,41.3536582,-82.0512112
9443,Drury Way,44039,41.3539656,-82.0512122
9439,Drury Way,44039,41.3541537,-82.0511554
9435,Drury Way,44039,41.3543697,-82.0511405
9431,Drury Way,44039,41.3545603,-82.0512417
9427,Drury Way,44039,41.3546635,-82.0514381
9423,Drury Way,44039,41.3546366,-82.0517242
9419,Drury Way,44039,41.3546145,-82.0519211
9415,Drury Way,44039,41.3546135,-82.0521190
9411,Drury Way,44039,41.3546522,-82.0523448
9406,Grist Mill Drive,44039,41.3546976,-82.0528575
9414,Grist Mill Drive,44039,41.3545058,-82.0528796
9422,Grist Mill Drive,44039,41.3543181,-82.0528825
9430,Grist Mill Drive,44039,41.3541260,-82.0528714
9438,Grist Mill Drive,44039,41.3539270,-82.0528647
9446,Grist Mill Drive,44039,41.3537362,-82.0528963
9454,Grist Mill Drive,44039,41.3535479,-82.0528613
9462,Grist Mill Drive,44039,41.3533577,-82.0529109
9470,Grist Mill Drive,44039,41.3531421,-82.0528866
9478,Grist Mill Drive,44039,41.3529474,-82.0527732
38195,Revere Drive,44039,41.3564457,-82.0506236
38207,Revere Drive,44039,41.3564463,-82.0508265
38196,Revere Drive,44039,41.3569114,-82.0505593
38212,Revere Drive,44039,41.3569115,-82.0508139
38228,Revere Drive,44039,41.3568922,-82.0510736
38244,Revere Drive,44039,41.3569138,-82.0513251
38260,Revere Drive,44039,41.3568944,-82.0515841
38276,Revere Drive,44039,41.3569147,-82.0518335
38292,Revere Drive,44039,41.3569208,-82.0520920
38308,Revere Drive,44039,41.3568973,-82.0523456
38324,Revere Drive,44039,41.3568984,-82.0526012
38340,Revere Drive,44039,41.3569190,-82.0528553
38356,Revere Drive,44039,41.3569209,-82.0531114
9301,Norwich Place,44039,41.3564952,-82.0511495
9309,Norwich Place,44039,41.3563511,-82.0511731
9317,Norwich Place,44039,41.3562171,-82.0511734
9325,Norwich Place,44039,41.3560803,-82.0511966
9337,Norwich Place,44039,41.3558235,-82.0511739
9341,Norwich Place,44039,41.3557778,-82.0509289
9345,Norwich Place,44039,41.3556218,-82.0508113
9349,Norwich Place,44039,41.3554393,-82.0507691
9353,Norwich Place,44039,41.3552895,-82.0508549
9357,Norwich Place,44039,41.3551487,-82.0510445
9361,Norwich Place,44039,41.3551193,-82.0512799
9365,Norwich Place,44039,41.3551914,-82.0514741
9369,Norwich Place,44039,41.3551770,-82.0516514
9373,Norwich Place,44039,41.3551490,-82.0518352
9377,Norwich Place,44039,41.3551360,-82.0520222
9381,Norwich Place,44039,41.3551687,-82.0522097
9385,Norwich Place,44039,41.3551300,-82.0523948
9336,Norwich Place,44039,41.3558738,-82.0517820
9328,Norwich Place,44039,41.3560231,-82.0517814
9320,Norwich Place,44039,41.3561748,-82.0517624
38261,Revere Drive,44039,41.3564586,-82.0517363
38277,Revere Drive,44039,41.3564711,-82.0519307
38293,Revere Drive,44039,41.3564553,-82.0521737
38309,Revere Drive,44039,41.3564555,-82.0523741
9321,Grist Mill Drive,44039,41.3561804,-82.0523685
9329,Grist Mill Drive,44039,41.3560360,-82.0523531
9337,Grist Mill Drive,44039,41.3558749,-82.0523908
9372,Norwich Place,44039,41.3556197,-82.0517916
9376,Norwich Place,44039,41.3555777,-82.0519889
9380,Norwich Place,44039,41.3555641,-82.0521734
9384,Norwich Place,44039,41.3555885,-82.0523672
9358,Grist Mill Drive,44039,41.3555346,-82.0529456
9318,Grist Mill Drive,44039,41.3562268,-82.0529312
9302,Grist Mill Drive,44039,41.3565044,-82.0529640
9310,Grist Mill Drive,44039,41.3563586,-82.0529495
9326,Grist Mill Drive,44039,41.3560861,-82.0529333
9334,Grist Mill Drive,44039,41.3559444,-82.0529351
9342,Grist Mill Drive,44039,41.3558090,-82.0529325
9350,Grist Mill Drive,44039,41.3556712,-82.0529358
9366,Grist Mill Drive,44039,41.3553970,-82.0529538
9374,Grist Mill Drive,44039,41.3552631,-82.0529562
9382,Grist Mill Drive,44039,41.3551235,-82.0529375
9390,Grist Mill Drive,44039,41.3549888,-82.0529539
9412,Harvard Drive,44039,41.3521826,-82.0494504
9418,Harvard Drive,44039,41.3521172,-82.0496366
9424,Harvard Drive,44039,41.3520438,-82.0498377
9430,Harvard Drive,44039,41.3520200,-82.0500576
9436,Harvard Drive,44039,41.3520391,-82.0502805
9442,Harvard Drive,44039,41.3520163,-82.0504766
9454,Harvard Drive,44039,41.3520208,-82.0509029
9460,Harvard Drive,44039,41.3520059,-82.0511075
9466,Harvard Drive,44039,41.3520455,-82.0513409
9472,Harvard Drive,44039,41.3520988,-82.0515597
9478,Harvard Drive,44039,41.3521824,-82.0517740
9484,Harvard Drive,44039,41.3522912,-82.0519439
9490,Harvard Drive,44039,41.3523945,-82.0521375
9405,Harvard Drive,44039,41.3527356,-82.0495486
9411,Harvard Drive,44039,41.3526281,-82.0496936
9419,Harvard Drive,44039,41.3525129,-82.0499180
9431,Harvard Drive,44039,41.3524707,-82.0501205
9437,Harvard Drive,44039,41.3524826,-82.0503431
9443,Harvard Drive,44039,41.3524726,-82.0505457
9449,Harvard Drive,44039,41.3524781,-82.0508330
9457,Harvard Drive,44039,41.3524704,-82.0510363
9469,Harvard Drive,44039,41.3525053,-82.0512870
9481,Harvard Drive,44039,41.3526291,-82.0515001
9489,Harvard Drive,44039,41.3527373,-82.0516534
9197,Prairie Moon,44039,41.3568758,-82.0493699
9189,Prairie Moon,44039,41.3570681,-82.0493692
9181,Prairie Moon,44039,41.3572603,-82.0493389
9173,Prairie Moon,44039,41.3574500,-82.0493422
9165,Prairie Moon,44039,41.3576434,-82.0493452
9157,Prairie Moon,44039,41.3578363,-82.0493365
9149,Prairie Moon,44039,41.3580292,-82.0492920
9141,Prairie Moon,44039,41.3582224,-82.0490658
9133,Prairie Moon,44039,41.3584446,-82.0490760
9125,Prairie Moon,44039,41.3586500,-82.0493281
9124,Prairie Moon,44039,41.3586540,-82.0496555
9132,Prairie Moon,44039,41.3584682,-82.0499206
9140,Prairie Moon,44039,41.3582239,-82.0499521
9148,Prairie Moon,44039,41.3580317,-82.0499217
9156,Prairie Moon,44039,41.3578397,-82.0499233
9164,Prairie Moon,44039,41.3576468,-82.0499550
9172,Prairie Moon,44039,41.3574551,-82.0499577
9180,Prairie Moon,44039,41.3572614,-82.0499304
9188,Prairie Moon,44039,41.3570713,-82.0499569
9196,Prairie Moon,44039,41.3568761,-82.0499492
9134,Vernon Hill,44039,41.3586141,-82.0473516
9130,Vernon Hill,44039,41.3586068,-82.0471469
9126,Vernon Hill,44039,41.3586011,-82.0469448
9122,Vernon Hill,44039,41.3586176,-82.0467437
9118,Vernon Hill,44039,41.3586052,-82.0465458
9114,Vernon Hill,44039,41.3586124,-82.0463419
9110,Vernon Hill,44039,41.3586046,-82.0461234
9106,Vernon Hill,44039,41.3586097,-82.0459202
9102,Vernon Hill,44039,41.3585980,-82.0457045
9098,Vernon Hill,44039,41.3585370,-82.0454426
9094,Vernon Hill,44039,41.3583613,-82.0452892
9095,Vernon Hill,44039,41.3581516,-82.0452898
9099,Vernon Hill,44039,41.3579883,-82.0454967
9103,Vernon Hill,44039,41.3579371,-82.0458120
9107,Vernon Hill,44039,41.3580235,-82.0460229
9111,Vernon Hill,44039,41.3581396,-82.0462390
9115,Vernon Hill,44039,41.3581602,-82.0464501
9119,Vernon Hill,44039,41.3581525,-82.0466334
9123,Vernon Hill,44039,41.3581702,-82.0468168
9127,Vernon Hill,44039,41.3581456,-82.0469954
9131,Vernon Hill,44039,41.3581665,-82.0471781
9135,Vernon Hill,44039,41.3581847,-82.0473597
9139,Vernon Hill,44039,41.3581538,-82.0475469
9145,Vernon Hill,44039,41.3581673,-82.0477451
9153,Vernon Hill,44039,41.3579936,-82.0480125
9161,Vernon Hill,44039,41.3578678,-82.0481099
9167,Vernon Hill,44039,41.3577389,-82.0481596
9173,Vernon Hill,44039,41.3575870,-82.0482380
9179,Vernon Hill,44039,41.3574273,-82.0482883
9183,Vernon Hill,44039,41.3572891,-82.0482550
9187,Vernon Hill,44039,41.3571511,-82.0482741
9191,Vernon Hill,44039,41.3570127,-82.0482550
9195,Vernon Hill,44039,41.3568720,-82.0482578
9142,Vernon Hill,44039,41.3586186,-82.0478457
9146,Vernon Hill,44039,41.3586066,-82.0480823
9150,Vernon Hill,44039,41.3585140,-82.0482909
9154,Vernon Hill,44039,41.3584130,-82.0484587
9158,Vernon Hill,44039,41.3582216,-82.0485251
9162,Vernon Hill,44039,41.3580972,-82.0486291
9166,Vernon Hill,44039,41.3579541,-82.0487031
9170,Vernon Hill,44039,41.3578086,-82.0487853
9174,Vernon Hill,44039,41.3576349,-82.0488419
9178,Vernon Hill,44039,41.3574629,-82.0488475
9182,Vernon Hill,44039,41.3573109,-82.0488587
9186,Vernon Hill,44039,41.3571609,-82.0488629
9190,Vernon Hill,44039,41.3570087,-82.0488569
9194,Vernon Hill,44039,41.3568566,-82.0488749
37993,Revere Drive,44039,41.3565137,-82.0472898
38017,Revere Drive,44039,41.3564935,-82.0477940
38035,Revere Drive,44039,41.3564711,-82.0479902
38057,Revere Drive,44039,41.3564530,-82.0481917
38079,Revere Drive,44039,41.3564481,-82.0483929
38101,Revere Drive,44039,41.3564449,-82.0485920
38123,Revere Drive,44039,41.3564530,-82.0487931
38145,Revere Drive,44039,41.3564423,-82.0489932
38012,Essex Place,44039,41.3561963,-82.0475268
38042,Essex Place,44039,41.3561112,-82.0477681
38060,Essex Place,44039,41.3560684,-82.0480707
38072,Essex Place,44039,41.3560611,-82.0483234
38084,Essex Place,44039,41.3560719,-82.0485822
38096,Essex Place,44039,41.3560891,-82.0488347
38108,Essex Place,44039,41.3560576,-82.0490888
38120,Essex Place,44039,41.3560705,-82.0493431
38168,Essex Place,44039,41.3563423,-82.0493534
38180,Essex Place,44039,41.3564952,-82.0493454
37977,Essex Place,44039,41.3563816,-82.0466284
37989,Essex Place,44039,41.3562263,-82.0467316
38001,Essex Place,44039,41.3560428,-82.0468653
38013,Essex Place,44039,41.3558975,-82.0470757
38025,Essex Place,44039,41.3557768,-82.0473174
38037,Essex Place,44039,41.3556708,-82.0475649
38049,Essex Place,44039,41.3556441,-82.0478557
38061,Essex Place,44039,41.3556366,-82.0481190
38073,Essex Place,44039,41.3555983,-82.0483769
38085,Essex Place,44039,41.3556454,-82.0486322
38097,Essex Place,44039,41.3556389,-82.0488833
38109,Essex Place,44039,41.3556206,-82.0491599
38121,Essex Place,44039,41.3556442,-82.0494293
38133,Essex Place,44039,41.3556552,-82.0498205
38145,Essex Place,44039,41.3558596,-82.0499552
38157,Essex Place,44039,41.3560880,-82.0499722
38169,Essex Place,44039,41.3562870,-82.0499286
38181,Essex Place,44039,41.3564784,-82.0500038
37924,Ashfield Way,44039,41.3577528,-82.0465376
37930,Ashfield Way,44039,41.3577639,-82.0467375
37936,Ashfield Way,44039,41.3577738,-82.0469229
37944,Ashfield Way,44039,41.3577818,-82.0471063
37952,Ashfield Way,44039,41.3577432,-82.0473379
37960,Ashfield Way,44039,41.3576356,-82.0475150
37968,Ashfield Way,44039,41.3575364,-82.0476765
37975,Ashfield Way,44039,41.3573370,-82.0471174
37983,Ashfield Way,44039,41.3572020,-82.0471553
37991,Ashfield Way,44039,41.3570646,-82.0471566
37976,Ashfield Way,44039,41.3573638,-82.0477494
37984,Ashfield Way,44039,41.3572052,-82.0477421
37992,Ashfield Way,44039,41.3570673,-82.0477590
37999,Ashfield Way,44039,41.3569251,-82.0472020
38000,Ashfield Way,44039,41.3569248,-82.0477638
37949,Pilgrim Court,44039,41.3540027,-82.0462234
9298,Unionville Drive,44039,41.3547296,-82.0460023
9312,Unionville Drive,44039,41.3546482,-82.0461267
9326,Unionville Drive,44039,41.3545380,-82.0462621
9340,Unionville Drive,44039,41.3544598,-82.0463980
9354,Unionville Drive,44039,41.3543319,-82.0465061
9368,Unionville Drive,44039,41.3542439,-82.0466394
37941,Pilgrim Court,44039,41.3538516,-82.0460660
37933,Pilgrim Court,44039,41.3537677,-82.0458267
37925,Pilgrim Court,44039,41.3537902,-82.0455051
37932,Pilgrim Court,44039,41.3541703,-82.0453488
37940,Pilgrim Court,44039,41.3543564,-82.0454696
37948,Pilgrim Court,44039,41.3544349,-82.0456430
9289,Unionville Drive,44039,41.3546307,-82.0453917
9281,Unionville Drive,44039,41.3547880,-82.0453279
9269,Unionville Drive,44039,41.3551644,-82.0453210
9261,Unionville Drive,44039,41.3553302,-82.0453442
9253,Unionville Drive,44039,41.3554808,-82.0453274
9245,Unionville Drive,44039,41.3556332,-82.0453428
9237,Unionville Drive,44039,41.3557864,-82.0453579
9229,Unionville Drive,44039,41.3559766,-82.0453768
37840,Ashfield Way,44039,41.3561957,-82.0455268
37846,Ashfield Way,44039,41.3563260,-82.0453810
37852,Ashfield Way,44039,41.3564650,-82.0452994
37858,Ashfield Way,44039,41.3566181,-82.0452987
37864,Ashfield Way,44039,41.3567907,-82.0453026
37870,Ashfield Way,44039,41.3569226,-82.0452909
37876,Ashfield Way,44039,41.3570799,-82.0453034
37882,Ashfield Way,44039,41.3572374,-82.0453509
37888,Ashfield Way,44039,41.3573667,-82.0454931
37894,Ashfield Way,44039,41.3574418,-82.0456752
37900,Ashfield Way,44039,41.3574948,-82.0458589
37906,Ashfield Way,44039,41.3575785,-82.0460003
37912,Ashfield Way,44039,41.3576319,-82.0461722
37918,Ashfield Way,44039,41.3577158,-82.0463357
37926,Revere Drive,44039,41.3565713,-82.0459125
37938,Revere Drive,44039,41.3566692,-82.0461307
37950,Revere Drive,44039,41.3567534,-82.0462706
37962,Revere Drive,44039,41.3568069,-82.0464477
37974,Revere Drive,44039,41.3568420,-82.0466466
37986,Revere Drive,44039,41.3569100,-82.0468167
37877,Ashfield Way,44039,41.3570002,-82.0458934
37895,Ashfield Way,44039,41.3570933,-82.0460230
37903,Ashfield Way,44039,41.3571357,-82.0461976
37911,Ashfield Way,44039,41.3572231,-82.0463769
37923,Ashfield Way,44039,41.3572983,-82.0465664
37931,Ashfield Way,44039,41.3573285,-82.0467812
9401,Foxboro Drive,44039,41.3532819,-82.0487221
9405,Foxboro Drive,44039,41.3534448,-82.0488060
9409,Foxboro Drive,44039,41.3536032,-82.0488577
9413,Foxboro Drive,44039,41.3537800,-82.0488767
9417,Foxboro Drive,44039,41.3539324,-82.0488707
9421,Foxboro Drive,44039,41.3540821,-82.0488691
9425,Foxboro Drive,44039,41.3542341,-82.0488677
9427,Foxboro Drive,44039,41.3543824,-82.0488632
9400,Foxboro Drive,44039,41.3534518,-82.0481709
9404,Foxboro Drive,44039,41.3536457,-82.0482720
9408,Foxboro Drive,44039,41.3538354,-82.0482664
9412,Foxboro Drive,44039,41.3540256,-82.0482745
9420,Foxboro Drive,44039,41.3544100,-82.0482776
9432,Foxboro Drive,44039,41.3550440,-82.0483114
9436,Foxboro Drive,44039,41.3551611,-82.0486384
9433,Foxboro Drive,44039,41.3546549,-82.0488398
9439,Foxboro Drive,44039,41.3546636,-82.0490360
9447,Foxboro Drive,44039,41.3546599,-82.0492345
9453,Foxboro Drive,44039,41.3546402,-82.0494359
9452,Foxboro Drive,44039,41.3551106,-82.0497944
9456,Foxboro Drive,44039,41.3549045,-82.0499937
9460,Foxboro Drive,44039,41.3546695,-82.0499930
9468,Foxboro Drive,44039,41.3542830,-82.0500143
9459,Foxboro Drive,44039,41.3543873,-82.0494020
9463,Foxboro Drive,44039,41.3542388,-82.0493929
9467,Foxboro Drive,44039,41.3540854,-82.0494007
9471,Foxboro Drive,44039,41.3539350,-82.0494054
9475,Foxboro Drive,44039,41.3537858,-82.0494057
9479,Foxboro Drive,44039,41.3536373,-82.0494067
9483,Foxboro Drive,44039,41.3534825,-82.0494094
9487,Foxboro Drive,44039,41.3533097,-82.0493734
9491,Foxboro Drive,44039,41.3531324,-82.0492556
9495,Foxboro Drive,44039,41.3530131,-82.0490978
9472,Foxboro Drive,44039,41.3539559,-82.0500057
9476,Foxboro Drive,44039,41.3537476,-82.0500190
9484,Foxboro Drive,44039,41.3533585,-82.0499943
9492,Foxboro Drive,44039,41.3529503,-82.0498234
9272,Montgomery Drive,44039,41.3555582,-82.0466072
9264,Montgomery Drive,44039,41.3556608,-82.0463735
9248,Montgomery Drive,44039,41.3557127,-82.0459050
9263,Montgomery Drive,44039,41.3552538,-82.0460863
9249,Montgomery Drive,44039,41.3552611,-82.0458862
9320,Montgomery Drive,44039,41.3548688,-82.0474757
9288,Montgomery Drive,44039,41.3553245,-82.0469376
9280,Montgomery Drive,44039,41.3554536,-82.0467836
9323,Montgomery Drive,44039,41.3546463,-82.0469318
9309,Montgomery Drive,44039,41.3547568,-82.0468422
9301,Montgomery Drive,44039,41.3548526,-82.0466966
9293,Montgomery Drive,44039,41.3549552,-82.0466019
9285,Montgomery Drive,44039,41.3550403,-82.0464446
9451,Welesly Drive,44039,41.3530543,-82.0434912
9443,Welesly Drive,44039,41.3532218,-82.0435904
37818,Dakota Drive,44039,41.3533078,-82.0438431
37831,Dakota Drive,44039,41.3528367,-82.0441385
37843,Dakota Drive,44039,41.3528426,-82.0443230
37855,Dakota Drive,44039,41.3528308,-82.0445267
37867,Dakota Drive,44039,41.3528255,-82.0447104
37879,Dakota Drive,44039,41.3528546,-82.0448934
37891,Dakota Drive,44039,41.3528314,-82.0450709
37903,Dakota Drive,44039,41.3528611,-82.0452576
37915,Dakota Drive,44039,41.3528337,-82.0454814
37927,Dakota Drive,44039,41.3528456,-82.0456973
37939,Dakota Drive,44039,41.3528355,-82.0459014
37951,Dakota Drive,44039,41.3528479,-82.0460956
37963,Dakota Drive,44039,41.3528383,-82.0462903
37830,Dakota Drive,44039,41.3532800,-82.0440638
37842,Dakota Drive,44039,41.3532931,-82.0442683
37854,Dakota Drive,44039,41.3532919,-82.0444722
37866,Dakota Drive,44039,41.3532984,-82.0446607
37878,Dakota Drive,44039,41.3532933,-82.0448655
37890,Dakota Drive,44039,41.3532909,-82.0450656
37902,Dakota Drive,44039,41.3533102,-82.0452649
37914,Dakota Drive,44039,41.3533073,-82.0454644
37926,Dakota Drive,44039,41.3533003,-82.0456894
37938,Dakota Drive,44039,41.3533149,-82.0458883
37950,Dakota Drive,44039,41.3533164,-82.0460895
37962,Dakota Drive,44039,41.3533005,-82.0462907
37974,Dakota Drive,44039,41.3533022,-82.0464922
9483,Redington Drive,44039,41.3523906,-82.0466773
9475,Redington Drive,44039,41.3525272,-82.0466800
9469,Redington Drive,44039,41.3527203,-82.0466754
9463,Redington Drive,44039,41.3528558,-82.0466357
37986,Dakota Drive,44039,41.3533375,-82.0467686
37998,Dakota Drive,44039,41.3534892,-82.0468682
9383,Montgomery Drive,44039,41.3539703,-82.0469059
9369,Montgomery Drive,44039,41.3541168,-82.0470815
9337,Montgomery Drive,44039,41.3544610,-82.0470643
9384,Montgomery Drive,44039,41.3536748,-82.0473823
9376,Montgomery Drive,44039,41.3537973,-82.0475031
9368,Montgomery Drive,44039,41.3539443,-82.0476015
9360,Montgomery Drive,44039,41.3541085,-82.0476772
9352,Montgomery Drive,44039,41.3542731,-82.0476860
9344,Montgomery Drive,44039,41.3544404,-82.0476881
9336,Montgomery Drive,44039,41.3546157,-82.0476772
9499,Welesly Drive,44039,41.3520826,-82.0435574
9491,Welesly Drive,44039,41.3522847,-82.0434840
9483,Welesly Drive,44039,41.3524388,-82.0435033
9475,Welesly Drive,44039,41.3525897,-82.0434882
9467,Welesly Drive,44039,41.3527401,-82.0434652
9459,Welesly Drive,44039,41.3528934,-82.0434979
37952,Princeton Drive,44039,41.3524348,-82.0460959
9476,Redington Drive,44039,41.3525075,-82.0472448
9482,Redington Drive,44039,41.3523923,-82.0472606
9464,Redington Drive,44039,41.3528170,-82.0472434
9470,Redington Drive,44039,41.3527040,-82.0472589
9452,Dakota Drive,44039,41.3531661,-82.0473299
9458,Dakota Drive,44039,41.3530694,-82.0472467
37006,Fairfield Lane,44039,41.3526803,-82.0380549
37002,Fairfield Lane,44039,41.3525576,-82.0379582
37017,Fairfield Lane,44039,41.3527865,-82.0375523
37003,Fairfield Lane,44039,41.3526875,-82.0376446
37095,Fairfield Lane,44039,41.3523910,-82.0373817
37099,Fairfield Lane,44039,41.3525201,-82.0374652
37094,Fairfield Lane,44039,41.3522429,-82.0377060
37090,Fairfield Lane,44039,41.3521186,-82.0376062
37083,Fairfield Lane,44039,41.3520723,-82.0372659
37087,Fairfield Lane,44039,41.3519877,-82.0374322
37079,Fairfield Lane,44039,41.3521500,-82.0370910
37075,Fairfield Lane,44039,41.3522380,-82.0369272
37076,Fairfield Lane,44039,41.3524663,-82.0371440
37072,Fairfield Lane,44039,41.3525221,-82.0369896
37054,Fairfield Lane,44039,41.3528168,-82.0367949
37058,Fairfield Lane,44039,41.3526641,-82.0368100
37071,Fairfield Lane,44039,41.3523160,-82.0367435
37067,Fairfield Lane,44039,41.3524075,-82.0365632
37059,Fairfield Lane,44039,41.3526619,-82.0363875
37063,Fairfield Lane,44039,41.3525157,-82.0363778
37055,Fairfield Lane,44039,41.3528151,-82.0363907
37051,Fairfield Lane,44039,41.3529554,-82.0363792
37037,Fairfield Lane,44039,41.3530121,-82.0368055
37033,Fairfield Lane,44039,41.3530071,-82.0369917
37025,Fairfield Lane,44039,41.3529397,-82.0372069
37021,Fairfield Lane,44039,41.3528508,-82.0373647
37047,Fairfield Lane,44039,41.3531384,-82.0364219
37043,Fairfield Lane,44039,41.3532558,-82.0365604
37038,Fairfield Lane,44039,41.3532943,-82.0367782
37034,Fairfield Lane,44039,41.3533021,-82.0369703
37030,Fairfield Lane,44039,41.3532759,-82.0372158
37026,Fairfield Lane,44039,41.3531861,-82.0373864
37022,Fairfield Lane,44039,41.3531060,-82.0375719
37018,Fairfield Lane,44039,41.3530214,-82.0377372
37014,Fairfield Lane,44039,41.3529465,-82.0379170
37010,Fairfield Lane,44039,41.3528613,-82.0380882
36844,Chestnut Ridge Road,44039,41.3544502,-82.0321299
36850,Chestnut Ridge Road,44039,41.3544948,-82.0324492
36875,Chestnut Ridge Road,44039,41.3533236,-82.0328794
36843,Chestnut Ridge Road,44039,41.3537666,-82.0320639
36835,Chestnut Ridge Road,44039,41.3537700,-82.0313675
36825,Chestnut Ridge Road,44039,41.3540790,-82.0309361
36815,Chestnut Ridge Road,44039,41.3543666,-82.0307232
36801,Chestnut Ridge Road,44039,41.3545032,-82.0305043
36785,Chestnut Ridge Road,44039,41.3546785,-82.0302012
36765,Chestnut Ridge Road,44039,41.3548399,-82.0299407
36745,Chestnut Ridge Road,44039,41.3550257,-82.0296583
36695,Chestnut Ridge Road,44039,41.3554254,-82.0290350
36675,Chestnut Ridge Road,44039,41.3555896,-82.0287689
36655,Chestnut Ridge Road,44039,41.3557824,-82.0284553
8684,Wakefield Run,44039,41.3660383,-82.0464223
8774,Wakefield Run,44039,41.3673879,-82.0468777
8772,Wakefield Run,44039,41.3675250,-82.0469572
8764,Wakefield Run,44039,41.3678440,-82.0471445
8768,Wakefield Run,44039,41.3677097,-82.0470746
8752,Wakefield Run,44039,41.3681146,-82.0466307
8748,Wakefield Run,44039,41.3679795,-82.0465547
8688,Wakefield Run,44039,41.3665390,-82.0460585
38727,Carriage Circle,44039,41.3664184,-82.0460188
8794,Wakefield Run,44039,41.3665894,-82.0464520
8798,Wakefield Run,44039,41.3664460,-82.0464894
38755,Carriage Circle,44039,41.3659627,-82.0462912
38751,Carriage Circle,44039,41.3658453,-82.0461205
38747,Carriage Circle,44039,41.3657886,-82.0459383
38091,Princeton Drive,44039,41.3523396,-82.0490523
38099,Princeton Drive,44039,41.3524163,-82.0491527
38027,Princeton Drive,44039,41.3519864,-82.0475988
38035,Princeton Drive,44039,41.3519861,-82.0477471
38083,Princeton Drive,44039,41.3522021,-82.0488616
38075,Princeton Drive,44039,41.3521298,-82.0487430
38067,Princeton Drive,44039,41.3520637,-82.0485183
38059,Princeton Drive,44039,41.3520175,-82.0483786
38051,Princeton Drive,44039,41.3520013,-82.0481299
38043,Princeton Drive,44039,41.3519743,-82.0479835
38011,Princeton Drive,44039,41.3519776,-82.0472264
38019,Princeton Drive,44039,41.3519837,-82.0473785
9477,Berkshire Court,44039,41.3525115,-82.0477819
9483,Berkshire Court,44039,41.3523984,-82.0477753
38100,Princeton Drive,44039,41.3527159,-82.0487343
38084,Princeton Drive,44039,41.3526382,-82.0486356
9472,Berkshire Court,44039,41.3528951,-82.0483409
9466,Berkshire Court,44039,41.3529166,-82.0481887
9471,Berkshire Court,44039,41.3527507,-82.0477556
9465,Berkshire Court,44039,41.3528465,-82.0478392
36896,Chestnut Ridge Road,44039,41.3523948,-82.0357532
36892,Chestnut Ridge Road,44039,41.3526047,-82.0354578
36895,Chestnut Ridge Road,44039,41.3520822,-82.0349121
36893,Chestnut Ridge Road,44039,41.3521110,-82.0346425
36888,Chestnut Ridge Road,44039,41.3527265,-82.0351644
36884,Chestnut Ridge Road,44039,41.3528797,-82.0349314
36891,Chestnut Ridge Road,44039,41.3524025,-82.0343452
36887,Chestnut Ridge Road,44039,41.3526114,-82.0340240
36883,Chestnut Ridge Road,44039,41.3527776,-82.0338248
36879,Chestnut Ridge Road,44039,41.3528268,-82.0334556
36880,Chestnut Ridge Road,44039,41.3533350,-82.0340511
36874,Chestnut Ridge Road,44039,41.3536953,-82.0336729
36868,Chestnut Ridge Road,44039,41.3538752,-82.0333970
36862,Chestnut Ridge Road,44039,41.3540111,-82.0331410
36856,Chestnut Ridge Road,44039,41.3542099,-82.0328353
36906,Chestnut Ridge Road,44039,41.3516953,-82.0367280
36898,Chestnut Ridge Road,44039,41.3521945,-82.0359329
36901,Chestnut Ridge Road,44039,41.3516051,-82.0357395
8700,Gatewood Drive,44039,41.3679874,-81.9887073
5766,Firecrest Circle,44039,41.4051400,-81.9737863
