House number,Street name,Postal code,Latitude,Longitude
55,East College Street,44074,41.2915132,-82.2155786
65,East College Street,44074,41.2914541,-82.2150224
15,South Main Street,44074,41.2912114,-82.2171566
88,South Main Street,44074,41.2891140,-82.2178124
5,S Main St,44074,41.2914923,-82.2171410
600,Kendal Drive,44074,41.3029398,-82.2115230
36,Thomas Street,44074,41.2932442,-82.1958433
500,East Lorain Street,44074,41.2945094,-82.1997121
14910,State Route 58,44074,41.2668440,-82.2191450
23,West College Street,44074,41.2914891,-82.2182163
25,West College Street,44074,41.2914928,-82.2183114
13,West College Street,44074,41.2914826,-82.2178260
224,West Lorain Street,44074,41.2948370,-82.2247417
155,South Main Street,44074,41.2871054,-82.2171986
18,South Main Street,44074,41.2911861,-82.2176127
500,E Lorain St,44074,41.2944648,-82.2000011
265,South Main Street,44074-1772,41.2845207,-82.2171004
52,West Lorain Street,44074,41.2947632,-82.2194286
155,North Professor Street,44074,41.2957237,-82.2193022
87,North Main Street,44074,41.2935639,-82.2164096
200,Woodland Street,44074,41.2976769,-82.2229475
39,South Main Street,44074,41.2906393,-82.2166945
19,East College Street,44074,41.2913169,-82.2167157
169,N Professor St,44074,41.2964044,-82.2193295
55,East College Street,44074,41.2914562,-82.2156455
65,East College Street,44074,41.2912733,-82.2151443
73,South Professor Street,44074,41.2896705,-82.2196842
76,South Professor Street,44074,41.2895956,-82.2206411
534,Morgan Street,44074,41.2885483,-82.2366663
46440,US 20,44074,41.2664372,-82.2238602
331,East Lorain Street,44074,41.2929905,-82.2053857
90,South Main Street,44074,41.2890608,-82.2178757
311,South Main Street,44074,41.2830405,-82.2170009
14920,State Route 58,44074,41.2660092,-82.2178928
247,West Lorain Street,44074,41.2935405,-82.2261966
61,Willard Court,44074,41.2935672,-82.2155171
62,North Pleasant Street,44074,41.2933113,-82.2150901
66,North Pleasant Street,44074,41.2934320,-82.2150484
70,North Pleasant Street,44074,41.2935689,-82.2150496
76,North Pleasant Street,44074,41.2937314,-82.2150274
63,East Lorain Street,44074,41.2939201,-82.2149954
61,East Lorain Street,44074,41.2939294,-82.2151873
55,East Lorain Street,44074,41.2939083,-82.2153548
53,North Pleasant Street,44074,41.2930787,-82.2144512
61,North Pleasant Street,44074,41.2932060,-82.2144214
65,North Pleasant Street,44074,41.2933630,-82.2144466
75,North Pleasant Street,44074,41.2936184,-82.2144555
87,East Lorain Street,44074,41.2938929,-82.2141133
93,East Lorain Street,44074,41.2938733,-82.2139495
99,East Lorain Street,44074,41.2939032,-82.2136959
111,East Lorain Street,44074,41.2935823,-82.2133834
73,North Pleasant Street,44074,41.2935180,-82.2140724
4,Prosser Court,44074,41.2929279,-82.2134779
41,North Pleasant Street,44074,41.2927823,-82.2144671
37,North Pleasant Street,44074,41.2926538,-82.2143793
23,North Pleasant Street,44074,41.2922518,-82.2145302
17,South Pleasant Street,44074,41.2920924,-82.2145879
76,East College Street,44074,41.2919227,-82.2146160
82,East College Street,44074,41.2918962,-82.2143858
90,East College Street,44074,41.2919778,-82.2141143
100,East College Street,44074,41.2919725,-82.2137455
120,East College Street,44074,41.2925030,-82.2135092
124,East College Street,44074,41.2919227,-82.2127592
20,North Park Street,44074,41.2921469,-82.2127908
24,North Park Street,44074,41.2923031,-82.2128084
34,North Park Street,44074,41.2925278,-82.2127253
42,North Park Street,44074,41.2927658,-82.2126649
48,North Park Street,44074,41.2929029,-82.2127234
54,North Park Street,44074,41.2930794,-82.2126487
60,North Park Street,44074,41.2932246,-82.2126076
64,North Park Street,44074,41.2933649,-82.2125920
70,North Park Street,44074,41.2935267,-82.2125780
129,East Lorain Street,44074,41.2939180,-82.2126207
121,East Lorain Street,44074,41.2939489,-82.2128491
140,East College Street,44074,41.2918879,-82.2123017
144,East College Street,44074,41.2919006,-82.2121162
152,East College Street,44074,41.2919020,-82.2118581
160,East College Street,44074,41.2919218,-82.2115518
168,East College Street,44074,41.2919213,-82.2112869
174,East College Street,44074,41.2919222,-82.2110317
182,East College Street,44074,41.2919605,-82.2107587
19,North Park Street,44074,41.2921291,-82.2122535
25,North Park Street,44074,41.2922499,-82.2122344
29,North Park Street,44074,41.2923748,-82.2122133
35,North Park Street,44074,41.2925263,-82.2121881
43,North Park Street,44074,41.2927816,-82.2121637
53,North Park Street,44074,41.2930436,-82.2121803
61,North Park Street,44074,41.2932339,-82.2121804
67,North Park Street,44074,41.2934391,-82.2121546
75,North Park Street,44074,41.2936442,-82.2121827
139,East Lorain Street,44074,41.2938957,-82.2121817
147,East Lorain Street,44074,41.2938386,-82.2119421
161,East Lorain Street,44074,41.2938733,-82.2115238
163,East Lorain Street,44074,41.2938509,-82.2113206
171,East Lorain Street,44074,41.2938425,-82.2110526
181,East Lorain Street,44074,41.2935430,-82.2107640
173,East Lorain Street,44074,41.2938553,-82.2107367
191,East Lorain Street,44074,41.2938326,-82.2104317
199,East Lorain Street,44074,41.2938911,-82.2100463
209,East Lorain Street,44074,41.2937841,-82.2098062
217,East Lorain Street,44074,41.2938156,-82.2094076
229,East Lorain Street,44074,41.2938221,-82.2088667
243,East Lorain Street,44074,41.2938647,-82.2085861
249,East Lorain Street,44074,41.2938515,-82.2083900
251,East Lorain Street,44074,41.2938459,-82.2081998
263,East Lorain Street,44074,41.2938549,-82.2077303
271,East Lorain Street,44074,41.2937810,-82.2074255
279,East Lorain Street,44074,41.2937956,-82.2071677
285,East Lorain Street,44074,41.2936330,-82.2069366
86,Berger Court,44074,41.2938242,-82.2065993
51,Berger Court,44074,41.2936544,-82.2066315
72,Berger Court,44074,41.2934394,-82.2066391
64,Berger Court,44074,41.2932214,-82.2066186
54,Berger Court,44074,41.2929731,-82.2065045
65,Berger Court,44074,41.2932716,-82.2060787
75,Berger Court,44074,41.2935990,-82.2060732
83,Berger Court,44074,41.2937714,-82.2060618
343,East Lorain Street,44074,41.2937977,-82.2047608
355,East Lorain Street,44074,41.2938126,-82.2044264
72,Orchard Street,44074,41.2934492,-82.2045161
64,Orchard Street,44074,41.2932922,-82.2045127
62,Orchard Street,44074,41.2931035,-82.2045746
52,Orchard Street,44074,41.2928834,-82.2045763
44,Orchard Street,44074,41.2927363,-82.2045859
38,Orchard Street,44074,41.2925264,-82.2045473
32,Orchard Street,44074,41.2923792,-82.2045763
26,Orchard Street,44074,41.2922069,-82.2045784
356,East College Street,44074,41.2917790,-82.2044315
348,East College Street,44074,41.2917714,-82.2046529
342,East College Street,44074,41.2917471,-82.2048817
334,East College Street,44074,41.2918413,-82.2051503
320,East College Street,44074,41.2917712,-82.2058166
298,East College Street,44074,41.2917518,-82.2066924
288,East College Street,44074,41.2917702,-82.2068474
284,East College Street,44074,41.2917713,-82.2070388
278,East College Street,44074,41.2917765,-82.2072840
366,East College Street,44074,41.2917200,-82.2040312
23,Orchard Street,44074,41.2921320,-82.2038932
73,Orchard Street,44074,41.2934665,-82.2038383
77,Orchard Street,44074,41.2936204,-82.2034536
408,East Lorain Street,44074,41.2945337,-82.2025838
380,East Lorain Street,44074,41.2944324,-82.2031115
132,Artino Street,44074,41.2955623,-82.2045385
326,East Lorain Street,44074,41.2971195,-82.2064768
264,East Lorain Street,44074,41.2943088,-82.2076094
254,East Lorain Street,44074,41.2943122,-82.2079071
248,East Lorain Street,44074,41.2943203,-82.2082550
244,East Lorain Street,44074,41.2943131,-82.2084635
240,East Lorain Street,44074,41.2943182,-82.2086111
234,East Lorain Street,44074,41.2943514,-82.2087848
216,East Lorain Street,44074,41.2943406,-82.2094322
200,East Lorain Street,44074,41.2943456,-82.2099434
196,East Lorain Street,44074,41.2943698,-82.2101833
190,East Lorain Street,44074,41.2944773,-82.2103853
184,East Lorain Street,44074,41.2943676,-82.2106483
174,East Lorain Street,44074,41.2943632,-82.2109664
164,East Lorain Street,44074,41.2943858,-82.2112434
138,East Lorain Street,44074,41.2943549,-82.2121715
132,East Lorain Street,44074,41.2943809,-82.2124941
126,East Lorain Street,44074,41.2943860,-82.2126906
118,East Lorain Street,44074,41.2944215,-82.2128819
116,East Lorain Street,44074,41.2944231,-82.2132182
108,East Lorain Street,44074,41.2943455,-82.2134089
102,East Lorain Street,44074,41.2943911,-82.2135741
96,East Lorain Street,44074,41.2943971,-82.2137604
94,East Lorain Street,44074,41.2944035,-82.2139085
114,East Lorain Street,44074,41.2949010,-82.2132725
90,East Lorain Street,44074,41.2944087,-82.2140834
82,East Lorain Street,44074,41.2944291,-82.2142925
105,North Pleasant Street,44074,41.2944828,-82.2145061
111,North Pleasant Street,44074,41.2946953,-82.2144672
115,North Pleasant Street,44074,41.2947994,-82.2144718
119,North Pleasant Street,44074,41.2949034,-82.2144661
123,North Pleasant Street,44074,41.2950242,-82.2144622
129,North Pleasant Street,44074,41.2951480,-82.2144303
137,North Pleasant Street,44074,41.2954185,-82.2144459
147,North Pleasant Street,44074,41.2956385,-82.2144440
151,North Pleasant Street,44074,41.2957749,-82.2144531
155,North Pleasant Street,44074,41.2958926,-82.2143372
165,North Pleasant Street,44074,41.2960877,-82.2144332
169,North Pleasant Street,44074,41.2962742,-82.2144155
175,North Pleasant Street,44074,41.2964447,-82.2144122
183,North Pleasant Street,44074,41.2966307,-82.2144053
189,North Pleasant Street,44074,41.2967843,-82.2144110
195,North Pleasant Street,44074,41.2969596,-82.2143253
203,North Pleasant Street,44074,41.2972013,-82.2143252
211,North Pleasant Street,44074,41.2973848,-82.2143579
217,North Pleasant Street,44074,41.2975619,-82.2143402
223,North Pleasant Street,44074,41.2977389,-82.2143373
229,North Pleasant Street,44074,41.2979351,-82.2143249
245,North Pleasant Street,44074,41.2983505,-82.2142573
267,North Pleasant Street,44074,41.2989495,-82.2143328
275,North Pleasant Street,44074,41.2991308,-82.2143341
317,North Pleasant Street,44074,41.3003765,-82.2142781
325,North Pleasant Street,44074,41.3005732,-82.2142808
91,Maple Street,44074,41.3009659,-82.2142216
91,Maple Street,44074,41.3006795,-82.2135397
91,Maple Street,44074,41.3010659,-82.2133276
316,North Pleasant Street,44074,41.3004377,-82.2149122
308,North Pleasant Street,44074,41.3001103,-82.2148889
308,North Pleasant Street,44074,41.3001020,-82.2150918
306,North Pleasant Street,44074,41.2999736,-82.2150610
302,North Pleasant Street,44074,41.2998302,-82.2149962
276,North Pleasant Street,44074,41.2992621,-82.2150489
270,North Pleasant Street,44074,41.2990279,-82.2150042
264,North Pleasant Street,44074,41.2988257,-82.2149786
258,North Pleasant Street,44074,41.2986474,-82.2149888
62,Walnut Street,44074,41.2965507,-82.2149410
56,Walnut Street,44074,41.2965477,-82.2151942
50,Walnut Street,44074,41.2965522,-82.2154056
44,Walnut Street,44074,41.2965742,-82.2156109
38,Walnut Street,44074,41.2965485,-82.2158836
32,Walnut Street,44074,41.2965712,-82.2160987
24,Walnut Street,44074,41.2965795,-82.2163318
22,Walnut Street,44074,41.2965600,-82.2164868
177,North Main Street,44074,41.2965253,-82.2168884
183,North Main Street,44074,41.2967024,-82.2168893
189,North Main Street,44074,41.2968702,-82.2169409
197,North Main Street,44074,41.2970760,-82.2168751
207,North Main Street,44074,41.2973364,-82.2169255
227,North Main Street,44074,41.2979079,-82.2168730
235,North Main Street,44074,41.2981250,-82.2168501
243,North Main Street,44074,41.2983201,-82.2168480
249,North Main Street,44074,41.2984934,-82.2166744
255,North Main Street,44074,41.2986839,-82.2168518
261,North Main Street,44074,41.2988316,-82.2168310
269,North Main Street,44074,41.2990185,-82.2168196
275,North Main Street,44074,41.2992445,-82.2167588
283,North Main Street,44074,41.2994046,-82.2167323
287,North Main Street,44074,41.2995464,-82.2167836
295,North Main Street,44074,41.2997729,-82.2167377
301,North Main Street,44074,41.2999482,-82.2167227
309,North Main Street,44074,41.3001392,-82.2168150
321,North Main Street,44074,41.3004665,-82.2168196
329,North Main Street,44074,41.3007395,-82.2167927
328,North Main Street,44074,41.3009500,-82.2174232
324,North Main Street,44074,41.3008181,-82.2173959
322,North Main Street,44074,41.3005457,-82.2174681
304,North Main Street,44074,41.3000708,-82.2174265
296,North Main Street,44074,41.2999183,-82.2175739
294,North Main Street,44074,41.2997233,-82.2176796
288,North Main Street,44074,41.2995665,-82.2174672
280,North Main Street,44074,41.2993627,-82.2174932
272,North Main Street,44074,41.2990385,-82.2175018
262,North Main Street,44074,41.2988261,-82.2177523
256,North Main Street,44074,41.2986728,-82.2175673
250,North Main Street,44074,41.2985458,-82.2174710
244,North Main Street,44074,41.2983792,-82.2174840
18,Union Street,44074,41.2984168,-82.2177178
22,Union Street,44074,41.2984181,-82.2179062
26,Union Street,44074,41.2984161,-82.2181292
32,Union Street,44074,41.2984215,-82.2183241
40,Union Street,44074,41.2984079,-82.2186029
46,Union Street,44074,41.2984068,-82.2188711
52,Union Street,44074,41.2984396,-82.2190799
245,North Professor Street,44074,41.2984250,-82.2195150
234,North Main Street,44074,41.2980816,-82.2175218
230,North Main Street,44074,41.2979507,-82.2175477
222,North Main Street,44074,41.2977590,-82.2175491
216,North Main Street,44074,41.2976158,-82.2175969
208,North Main Street,44074,41.2974005,-82.2175668
200,North Main Street,44074,41.2971922,-82.2175405
196,North Main Street,44074,41.2970413,-82.2175908
190,North Main Street,44074,41.2968846,-82.2175549
184,North Main Street,44074,41.2967691,-82.2176687
180,North Main Street,44074,41.2966414,-82.2175467
176,North Main Street,44074,41.2964992,-82.2176521
170,North Main Street,44074,41.2963471,-82.2176219
168,North Main Street,44074,41.2962414,-82.2176200
148,North Main Street,44074,41.2956767,-82.2175993
140,North Main Street,44074,41.2955167,-82.2176395
134,North Main Street,44074,41.2953262,-82.2176819
129,North Main Street,44074,41.2952023,-82.2169188
125,North Main Street,44074,41.2950599,-82.2169209
117,North Main Street,44074,41.2948942,-82.2169399
115,North Main Street,44074,41.2947788,-82.2169291
109,North Main Street,44074,41.2946363,-82.2169062
20,East Lorain Street,44074,41.2944162,-82.2165041
30,East Lorain Street,44074,41.2944378,-82.2162594
36,East Lorain Street,44074,41.2944063,-82.2160181
42,East Lorain Street,44074,41.2943877,-82.2158248
44,East Lorain Street,44074,41.2944600,-82.2156322
52,East Lorain Street,44074,41.2944310,-82.2153645
58,East Lorain Street,44074,41.2944282,-82.2151975
64,East Lorain Street,44074,41.2944239,-82.2149962
108,North Pleasant Street,44074,41.2946214,-82.2150135
23,Union Street,44074,41.2980377,-82.2180427
27,Union Street,44074,41.2980453,-82.2182110
35,Union Street,44074,41.2980405,-82.2184080
39,Union Street,44074,41.2980650,-82.2186325
45,Union Street,44074,41.2980630,-82.2188531
51,Union Street,44074,41.2980786,-82.2190544
55,Union Street,44074,41.2980849,-82.2192135
227,North Professor Street,44074,41.2979237,-82.2194866
221,North Professor Street,44074,41.2977604,-82.2195105
211,North Professor Street,44074,41.2974927,-82.2195340
201,North Professor Street,44074,41.2972180,-82.2195247
187,North Professor Street,44074,41.2970718,-82.2194097
176,Woodland Street,44074,41.2966861,-82.2226074
112,Woodland Street,44074,41.2948419,-82.2225667
108,Woodland Street,44074,41.2947041,-82.2225706
152,West Lorain Street,44074,41.2945020,-82.2228176
158,West Lorain Street,44074,41.2945178,-82.2230550
159,West Lorain Street,44074,41.2939775,-82.2230810
153,West Lorain Street,44074,41.2939909,-82.2228576
126,Union Street,44074,41.2985137,-82.2217502
118,Union Street,44074,41.2985171,-82.2213790
110,Union Street,44074,41.2985214,-82.2211714
102,Union Street,44074,41.2985123,-82.2209460
96,Union Street,44074,41.2985139,-82.2206613
268,Union Street,44074,41.2987586,-82.2215504
272,Union Street,44074,41.2988017,-82.2209446
268,Union Street,44074,41.2988385,-82.2212002
276,Union Street,44074,41.2990559,-82.2212303
284,Union Street,44074,41.2992863,-82.2212080
290,Union Street,44074,41.2995001,-82.2212657
244,North Professor Street,44074,41.2984541,-82.2201151
250,North Professor Street,44074,41.2986139,-82.2201193
258,North Professor Street,44074,41.2987896,-82.2201717
270,North Professor Street,44074,41.2991389,-82.2201292
276,North Professor Street,44074,41.2993338,-82.2201193
284,North Professor Street,44074,41.2995015,-82.2201439
255,North Professor Street,44074,41.2986996,-82.2194893
261,North Professor Street,44074,41.2989042,-82.2194765
269,North Professor Street,44074,41.2991303,-82.2194630
277,North Professor Street,44074,41.2992981,-82.2194538
285,North Professor Street,44074,41.2994493,-82.2194822
287,North Professor Street,44074,41.2996012,-82.2192971
299,North Professor Street,44074,41.2999398,-82.2194343
317,North Professor Street,44074,41.3004739,-82.2193999
327,North Professor Street,44074,41.3007224,-82.2193724
333,North Professor Street,44074,41.3008997,-82.2193716
345,North Professor Street,44074,41.3012542,-82.2192724
353,North Professor Street,44074,41.3014450,-82.2192666
244,North Pleasant Street,44074,41.2982867,-82.2150049
218,North Pleasant Street,44074,41.2979034,-82.2153543
218,North Pleasant Street,44074,41.2976553,-82.2153337
262,West Lorain Street,44074,41.2945840,-82.2268544
112,Hollywood Street,44074,41.2948850,-82.2268350
118,Hollywood Street,44074,41.2950384,-82.2268915
122,Hollywood Street,44074,41.2951805,-82.2268482
128,Hollywood Street,44074,41.2953367,-82.2268475
132,Hollywood Street,44074,41.2954728,-82.2268186
138,Hollywood Street,44074,41.2956274,-82.2268425
144,Hollywood Street,44074,41.2957784,-82.2268677
154,Hollywood Street,44074,41.2960366,-82.2268191
162,Hollywood Street,44074,41.2962390,-82.2268023
170,Hollywood Street,44074,41.2964862,-82.2267687
182,Hollywood Street,44074,41.2968454,-82.2268304
192,Hollywood Street,44074,41.2971343,-82.2267743
200,Hollywood Street,44074,41.2974243,-82.2267672
212,Hollywood Street,44074,41.2976412,-82.2267664
220,Hollywood Street,44074,41.2977757,-82.2267673
230,Hollywood Street,44074,41.2981935,-82.2267025
229,North Prospect Street,44074,41.2981156,-82.2277010
219,North Prospect Street,44074,41.2978782,-82.2277395
211,North Prospect Street,44074,41.2976244,-82.2277478
203,North Prospect Street,44074,41.2973950,-82.2277289
195,North Prospect Street,44074,41.2971800,-82.2277830
175,North Prospect Street,44074,41.2968086,-82.2277835
173,North Prospect Street,44074,41.2965937,-82.2278256
165,North Prospect Street,44074,41.2963440,-82.2277984
157,North Prospect Street,44074,41.2961372,-82.2278201
147,North Prospect Street,44074,41.2958898,-82.2278119
139,North Prospect Street,44074,41.2956713,-82.2278671
127,North Prospect Street,44074,41.2953464,-82.2278723
113,North Prospect Street,44074,41.2949007,-82.2278775
290,West Lorain Street,44074,41.2945017,-82.2280324
288,West Lorain Street,44074,41.2945261,-82.2278506
284,West Lorain Street,44074,41.2945302,-82.2276778
280,West Lorain Street,44074,41.2945901,-82.2274485
270,West Lorain Street,44074,41.2945755,-82.2271206
129,Hollywood Street,44074,41.2954034,-82.2263021
141,Hollywood Street,44074,41.2956289,-82.2262536
145,Hollywood Street,44074,41.2958087,-82.2262793
155,Hollywood Street,44074,41.2959850,-82.2262063
165,Hollywood Street,44074,41.2962115,-82.2261765
173,Hollywood Street,44074,41.2964776,-82.2262415
181,Hollywood Street,44074,41.2967692,-82.2262315
191,Hollywood Street,44074,41.2970543,-82.2261295
199,Hollywood Street,44074,41.2973580,-82.2261296
205,Hollywood Street,44074,41.2975751,-82.2261290
225,Hollywood Street,44074,41.2980775,-82.2260866
251,Hollywood Street,44074,41.2986024,-82.2260994
261,Hollywood Street,44074,41.2988937,-82.2261019
275,Hollywood Street,44074,41.2991419,-82.2260783
280,Hollywood Street,44074,41.2994958,-82.2266518
272,Hollywood Street,44074,41.2992942,-82.2266759
264,Hollywood Street,44074,41.2991030,-82.2266415
251,North Prospect Street,44074,41.2985352,-82.2276524
253,North Prospect Street,44074,41.2987593,-82.2277237
267,North Prospect Street,44074,41.2989852,-82.2276891
277,North Prospect Street,44074,41.2992275,-82.2277038
281,North Prospect Street,44074,41.2994488,-82.2276421
295,North Prospect Street,44074,41.2996525,-82.2276896
305,North Prospect Street,44074,41.2998869,-82.2276717
311,North Prospect Street,44074,41.3000996,-82.2276104
319,North Prospect Street,44074,41.3003072,-82.2276223
335,North Prospect Street,44074,41.3006806,-82.2275739
357,North Prospect Street,44074,41.3009260,-82.2276146
367,North Prospect Street,44074,41.3011276,-82.2275934
374,North Prospect Street,44074,41.3013293,-82.2282241
354,North Prospect Street,44074,41.3009494,-82.2282455
328,North Prospect Street,44074,41.3005220,-82.2282925
324,North Prospect Street,44074,41.3003031,-82.2283263
310,North Prospect Street,44074,41.3001020,-82.2283054
302,North Prospect Street,44074,41.2998419,-82.2283226
290,North Prospect Street,44074,41.2995681,-82.2283098
280,North Prospect Street,44074,41.2992925,-82.2283072
264,North Prospect Street,44074,41.2990288,-82.2283729
250,North Prospect Street,44074,41.2987945,-82.2283652
242,North Prospect Street,44074,41.2985532,-82.2284022
251,Eastern Avenue,44074,41.2985856,-82.2293411
259,Eastern Avenue,44074,41.2987749,-82.2293427
275,Eastern Avenue,44074,41.2991440,-82.2293304
283,Eastern Avenue,44074,41.2993360,-82.2293105
291,Eastern Avenue,44074,41.2995615,-82.2292964
299,Eastern Avenue,44074,41.2997388,-82.2292776
307,Eastern Avenue,44074,41.2999441,-82.2292791
315,Eastern Avenue,44074,41.3001798,-82.2293007
331,Eastern Avenue,44074,41.3007042,-82.2292890
340,Eastern Avenue,44074,41.3006830,-82.2298674
316,Eastern Avenue,44074,41.3001508,-82.2298564
308,Eastern Avenue,44074,41.2999643,-82.2298549
300,Eastern Avenue,44074,41.2997467,-82.2298476
292,Eastern Avenue,44074,41.2995669,-82.2298541
284,Eastern Avenue,44074,41.2993227,-82.2298995
232,Eastern Avenue,44074,41.2982052,-82.2299269
224,Eastern Avenue,44074,41.2979861,-82.2299242
216,Eastern Avenue,44074,41.2977876,-82.2299029
208,Eastern Avenue,44074,41.2975945,-82.2299128
200,Eastern Avenue,44074,41.2973825,-82.2299197
199,Eastern Avenue,44074,41.2973706,-82.2293416
207,Eastern Avenue,44074,41.2975931,-82.2293356
215,Eastern Avenue,44074,41.2977867,-82.2293535
223,Eastern Avenue,44074,41.2979745,-82.2293495
231,Eastern Avenue,44074,41.2981778,-82.2293202
226,North Prospect Street,44074,41.2981187,-82.2283988
218,North Prospect Street,44074,41.2978731,-82.2283857
202,North Prospect Street,44074,41.2974082,-82.2283863
192,North Prospect Street,44074,41.2971684,-82.2284784
174,North Prospect Street,44074,41.2968251,-82.2284906
172,North Prospect Street,44074,41.2965815,-82.2284524
164,North Prospect Street,44074,41.2963336,-82.2284719
154,North Prospect Street,44074,41.2961066,-82.2285113
148,North Prospect Street,44074,41.2958977,-82.2285161
140,North Prospect Street,44074,41.2956968,-82.2284831
132,North Prospect Street,44074,41.2954563,-82.2284932
124,North Prospect Street,44074,41.2952764,-82.2285347
116,North Prospect Street,44074,41.2950378,-82.2286247
310,West Lorain Street,44074,41.2945978,-82.2285693
318,West Lorain Street,44074,41.2945194,-82.2289531
326,West Lorain Street,44074,41.2945390,-82.2292093
342,West Lorain Street,44074,41.2945835,-82.2297526
356,West Lorain Street,44074,41.2946023,-82.2302414
366,West Lorain Street,44074,41.2945790,-82.2306233
376,West Lorain Street,44074,41.2946674,-82.2309436
382,West Lorain Street,44074,41.2945868,-82.2312151
410,West Lorain Street,44074,41.2954822,-82.2328931
440,West Lorain Street,44074,41.2948237,-82.2336642
442,West Lorain Street,44074,41.2946470,-82.2341486
450,West Lorain Street,44074,41.2945880,-82.2346122
452,West Lorain Street,44074,41.2946132,-82.2348443
530,West Lorain Street,44074,41.2945322,-82.2366445
542,West Lorain Street,44074,41.2946121,-82.2369465
580,West Lorain Street,44074,41.2945717,-82.2378668
186,West College Street,44074,41.2921146,-82.2241338
190,West College Street,44074,41.2920992,-82.2243275
196,West College Street,44074,41.2920681,-82.2244917
202,West College Street,44074,41.2921143,-82.2246238
21,North Cedar Street,44074,41.2924058,-82.2245189
35,North Cedar Street,44074,41.2927651,-82.2244635
29,North Cedar Street,44074,41.2925448,-82.2244786
39,North Cedar Street,44074,41.2929104,-82.2244519
45,North Cedar Street,44074,41.2930516,-82.2244429
51,North Cedar Street,44074,41.2932212,-82.2244196
61,North Cedar Street,44074,41.2934237,-82.2244664
69,North Cedar Street,44074,41.2937075,-82.2244464
197,West Lorain Street,44074,41.2939903,-82.2244904
215,West Lorain Street,44074,41.2940224,-82.2250385
219,West Lorain Street,44074,41.2940238,-82.2252700
225,West Lorain Street,44074,41.2940191,-82.2254789
231,West Lorain Street,44074,41.2940131,-82.2257952
239,West Lorain Street,44074,41.2940001,-82.2260165
261,West Lorain Street,44074,41.2940130,-82.2268135
267,West Lorain Street,44074,41.2940023,-82.2269877
273,West Lorain Street,44074,41.2940072,-82.2272962
279,West Lorain Street,44074,41.2939949,-82.2274924
285,West Lorain Street,44074,41.2940024,-82.2277091
289,West Lorain Street,44074,41.2940455,-82.2279611
74,North Cedar Street,44074,41.2938326,-82.2250981
68,North Cedar Street,44074,41.2937011,-82.2250906
64,North Cedar Street,44074,41.2935798,-82.2251162
60,North Cedar Street,44074,41.2933701,-82.2251418
48,North Cedar Street,44074,41.2931666,-82.2251836
42,North Cedar Street,44074,41.2929462,-82.2252769
32,North Cedar Street,44074,41.2927170,-82.2252457
26,North Cedar Street,44074,41.2925315,-82.2251871
24,North Cedar Street,44074,41.2923966,-82.2251699
214,West College Street,44074,41.2921161,-82.2251855
224,West College Street,44074,41.2921247,-82.2255527
230,West College Street,44074,41.2921288,-82.2257652
240,West College Street,44074,41.2921440,-82.2260576
246,West College Street,44074,41.2921448,-82.2263274
252,West College Street,44074,41.2921241,-82.2265341
262,West College Street,44074,41.2921339,-82.2269272
278,West College Street,44074,41.2921678,-82.2274953
284,West College Street,44074,41.2921463,-82.2277616
292,West College Street,44074,41.2921290,-82.2280450
25,North Prospect Street,44074,41.2925019,-82.2279959
31,North Prospect Street,44074,41.2926909,-82.2279942
35,North Prospect Street,44074,41.2928199,-82.2280046
41,North Prospect Street,44074,41.2929508,-82.2279666
45,North Prospect Street,44074,41.2931473,-82.2279288
51,North Prospect Street,44074,41.2933217,-82.2279759
59,North Prospect Street,44074,41.2934361,-82.2279480
69,North Prospect Street,44074,41.2936994,-82.2279607
309,West Lorain Street,44074,41.2940301,-82.2286001
319,West Lorain Street,44074,41.2939397,-82.2290357
63,North Prospect Street,44074,41.2935298,-82.2285552
54,North Prospect Street,44074,41.2933808,-82.2285432
48,North Prospect Street,44074,41.2932270,-82.2285586
28,North Prospect Street,44074,41.2928975,-82.2286100
32,North Prospect Street,44074,41.2927088,-82.2286500
20,North Prospect Street,44074,41.2925295,-82.2286251
16,North Prospect Street,44074,41.2923606,-82.2286080
14,North Prospect Street,44074,41.2922193,-82.2285810
310,West College Street,44074,41.2920705,-82.2285915
316,West College Street,44074,41.2920695,-82.2289507
14,South Prospect Street,44074,41.2915840,-82.2287261
325,West College Street,44074,41.2915988,-82.2291987
329,West College Street,44074,41.2915974,-82.2294955
333,West College Street,44074,41.2916103,-82.2296894
339,West College Street,44074,41.2915929,-82.2299273
355,West College Street,44074,41.2916199,-82.2302341
357,West College Street,44074,41.2915749,-82.2304074
365,West College Street,44074,41.2916105,-82.2305965
371,West College Street,44074,41.2915794,-82.2308986
375,West College Street,44074,41.2916122,-82.2311622
389,West College Street,44074,41.2915214,-82.2314925
405,West College Street,44074,41.2915304,-82.2321608
435,West College Street,44074,41.2916477,-82.2331458
445,West College Street,44074,41.2916618,-82.2335922
13,Hawthorne Drive,44074,41.2913523,-82.2336684
15,Hawthorne Drive,44074,41.2910423,-82.2334813
17,Hawthorne Drive,44074,41.2908658,-82.2330573
19,Hawthorne Drive,44074,41.2908918,-82.2326705
21,Hawthorne Drive,44074,41.2908746,-82.2321089
23,Hawthorne Drive,44074,41.2903587,-82.2320151
37,Mulberry Drive,44074,41.2898469,-82.2321199
49,Mulberry Drive,44074,41.2894825,-82.2321436
61,Mulberry Drive,44074,41.2890685,-82.2322852
60,Mulberry Drive,44074,41.2891669,-82.2329225
48,Mulberry Drive,44074,41.2895831,-82.2330644
36,Mulberry Drive,44074,41.2899632,-82.2328752
22,Mulberry Drive,44074,41.2903048,-82.2327628
20,Hawthorne Drive,44074,41.2903675,-82.2331796
23,Colony Street,44074,41.2904097,-82.2335791
25,Colony Street,44074,41.2901349,-82.2336304
27,Colony Street,44074,41.2898665,-82.2336543
29,Colony Street,44074,41.2895848,-82.2336989
31,Colony Street,44074,41.2893244,-82.2337354
33,Colony Street,44074,41.2890517,-82.2337246
35,Colony Street,44074,41.2888090,-82.2337461
37,Colony Street,44074,41.2885306,-82.2337083
39,Colony Street,44074,41.2882668,-82.2337300
43,Colony Street,44074,41.2877526,-82.2337597
45,Colony Street,44074,41.2874377,-82.2337381
436,Morgan Street,44074,41.2876105,-82.2331756
422,Morgan Street,44074,41.2875155,-82.2327167
402,Morgan Street,44074,41.2874306,-82.2323080
396,Morgan Street,44074,41.2874301,-82.2319715
390,Morgan Street,44074,41.2874254,-82.2317527
374,Morgan Street,44074,41.2874699,-82.2312067
344,Morgan Street,44074,41.2873627,-82.2301405
338,Morgan Street,44074,41.2873795,-82.2299260
330,Morgan Street,44074,41.2873680,-82.2295985
322,Morgan Street,44074,41.2873867,-82.2293112
164,South Prospect Street,44074,41.2873495,-82.2288824
158,South Prospect Street,44074,41.2876009,-82.2289348
309,Edgemeer Street,44074,41.2880228,-82.2288348
319,Edgemeer Street,44074,41.2880636,-82.2292062
329,Edgemeer Street,44074,41.2880670,-82.2294581
335,Edgemeer Street,44074,41.2880728,-82.2297298
345,Edgemeer Street,44074,41.2880720,-82.2300845
355,Edgemeer Street,44074,41.2880766,-82.2305280
373,Edgemeer Street,44074,41.2880819,-82.2312836
395,Edgemeer Street,44074,41.2882161,-82.2319878
394,Edgemeer Street,44074,41.2886130,-82.2321486
376,Edgemeer Street,44074,41.2886894,-82.2313207
366,Edgemeer Street,44074,41.2887190,-82.2309777
360,Edgemeer Street,44074,41.2887259,-82.2305573
340,Edgemeer Street,44074,41.2887009,-82.2298604
330,Edgemeer Street,44074,41.2886840,-82.2294635
318,Edgemeer Street,44074,41.2886983,-82.2291451
310,Edgemeer Street,44074,41.2886974,-82.2288169
309,Reamer Street,44074,41.2892185,-82.2288200
319,Reamer Street,44074,41.2891855,-82.2291265
329,Reamer Street,44074,41.2892134,-82.2294992
337,Reamer Street,44074,41.2891973,-82.2297843
347,Reamer Street,44074,41.2891924,-82.2302674
355,Reamer Street,44074,41.2891980,-82.2305785
367,Reamer Street,44074,41.2891739,-82.2310054
373,Reamer Street,44074,41.2893583,-82.2313357
378,Reamer Street,44074,41.2897435,-82.2313247
366,Reamer Street,44074,41.2898928,-82.2310068
356,Reamer Street,44074,41.2898450,-82.2304901
346,Reamer Street,44074,41.2898506,-82.2301776
336,Reamer Street,44074,41.2898048,-82.2297721
328,Reamer Street,44074,41.2898528,-82.2294778
318,Reamer Street,44074,41.2898223,-82.2290859
310,Reamer Street,44074,41.2898273,-82.2287776
317,Elm Street,44074,41.2902763,-82.2289560
323,Elm Street,44074,41.2902875,-82.2292592
329,Elm Street,44074,41.2902836,-82.2295072
343,Elm Street,44074,41.2902566,-82.2299832
351,Elm Street,44074,41.2902735,-82.2302255
353,Elm Street,44074,41.2902312,-82.2305470
383,Elm Street,44074,41.2902879,-82.2313199
382,Elm Street,44074,41.2908406,-82.2313655
372,Elm Street,44074,41.2908360,-82.2309570
36,South Prospect Street,44074,41.2908391,-82.2292390
297,West College Street,44074,41.2915584,-82.2281129
287,West College Street,44074,41.2915797,-82.2278726
283,West College Street,44074,41.2915632,-82.2276712
279,West College Street,44074,41.2915619,-82.2275031
271,West College Street,44074,41.2914744,-82.2272794
265,West College Street,44074,41.2915397,-82.2270494
263,West College Street,44074,41.2915569,-82.2268208
257,West College Street,44074,41.2915496,-82.2266645
249,West College Street,44074,41.2915863,-82.2264966
245,West College Street,44074,41.2915595,-82.2263210
237,West College Street,44074,41.2915811,-82.2260645
229,West College Street,44074,41.2915589,-82.2257491
221,West College Street,44074,41.2915632,-82.2254437
215,West College Street,44074,41.2915612,-82.2252175
209,West College Street,44074,41.2915273,-82.2250494
26,South Cedar Street,44074,41.2911269,-82.2251636
34,South Cedar Street,44074,41.2909551,-82.2251740
42,South Cedar Street,44074,41.2906517,-82.2251798
222,Elm Street,44074,41.2906442,-82.2255184
228,Elm Street,44074,41.2907850,-82.2257338
232,Elm Street,44074,41.2907007,-82.2259348
240,Elm Street,44074,41.2907362,-82.2261810
248,Elm Street,44074,41.2907066,-82.2264808
254,Elm Street,44074,41.2907146,-82.2267028
260,Elm Street,44074,41.2907318,-82.2269778
270,Elm Street,44074,41.2907554,-82.2272445
280,Elm Street,44074,41.2907141,-82.2275809
290,Elm Street,44074,41.2907216,-82.2279903
29,South Prospect Street,44074,41.2910623,-82.2280281
23,South Prospect Street,44074,41.2912009,-82.2280654
291,Elm Street,44074,41.2902277,-82.2280804
71,South Prospect Street,44074,41.2898623,-82.2281367
292,Oak Street,44074,41.2896967,-82.2280689
284,Oak Street,44074,41.2896844,-82.2278079
280,Oak Street,44074,41.2896901,-82.2275909
272,Oak Street,44074,41.2897096,-82.2273685
260,Oak Street,44074,41.2896959,-82.2270807
254,Oak Street,44074,41.2897153,-82.2267825
248,Oak Street,44074,41.2896858,-82.2265328
240,Oak Street,44074,41.2896276,-82.2262408
234,Oak Street,44074,41.2896615,-82.2259759
228,Oak Street,44074,41.2896280,-82.2257978
222,Oak Street,44074,41.2896054,-82.2255536
82,South Cedar Street,44074,41.2895912,-82.2252381
74,South Cedar Street,44074,41.2897529,-82.2251879
70,South Cedar Street,44074,41.2899232,-82.2251811
215,Elm Street,44074,41.2902266,-82.2252070
221,Elm Street,44074,41.2902249,-82.2254935
227,Elm Street,44074,41.2902457,-82.2257426
235,Elm Street,44074,41.2902571,-82.2259721
241,Elm Street,44074,41.2902373,-82.2262131
249,Elm Street,44074,41.2902398,-82.2265040
257,Elm Street,44074,41.2902127,-82.2267952
263,Elm Street,44074,41.2902067,-82.2270068
271,Elm Street,44074,41.2902188,-82.2273201
279,Elm Street,44074,41.2902418,-82.2276387
291,Oak Street,44074,41.2892023,-82.2281529
285,Oak Street,44074,41.2892069,-82.2278625
279,Oak Street,44074,41.2892073,-82.2276703
273,Oak Street,44074,41.2892045,-82.2274113
263,Oak Street,44074,41.2891889,-82.2271171
255,Oak Street,44074,41.2892062,-82.2268323
249,Oak Street,44074,41.2891947,-82.2265735
241,Oak Street,44074,41.2892069,-82.2263385
237,Oak Street,44074,41.2891821,-82.2261011
227,Oak Street,44074,41.2891992,-82.2257515
94,South Cedar Street,44074,41.2892759,-82.2252284
96,South Cedar Street,44074,41.2891548,-82.2252202
100,South Cedar Street,44074,41.2890267,-82.2252297
106,South Cedar Street,44074,41.2888794,-82.2252170
208,Forest Street,44074,41.2885735,-82.2251600
218,Forest Street,44074,41.2885344,-82.2254276
224,Forest Street,44074,41.2885363,-82.2257049
230,Forest Street,44074,41.2885625,-82.2259181
236,Forest Street,44074,41.2885323,-82.2261871
242,Forest Street,44074,41.2885969,-82.2263798
250,Forest Street,44074,41.2886130,-82.2266582
260,Forest Street,44074,41.2886253,-82.2269938
268,Forest Street,44074,41.2886323,-82.2272814
276,Forest Street,44074,41.2886362,-82.2275750
284,Forest Street,44074,41.2886521,-82.2279195
294,Forest Street,44074,41.2886630,-82.2282195
211,Forest Street,44074,41.2880502,-82.2252508
221,Forest Street,44074,41.2880064,-82.2256704
233,Forest Street,44074,41.2880147,-82.2259928
241,Forest Street,44074,41.2879744,-82.2263157
251,Forest Street,44074,41.2879976,-82.2266571
261,Forest Street,44074,41.2880168,-82.2270450
271,Forest Street,44074,41.2880222,-82.2273846
281,Forest Street,44074,41.2879984,-82.2278280
291,Forest Street,44074,41.2880579,-82.2282102
290,Morgan Street,44074,41.2874728,-82.2281692
272,Morgan Street,44074,41.2874274,-82.2276796
268,Morgan Street,44074,41.2874367,-82.2274471
264,Morgan Street,44074,41.2874556,-82.2272244
260,Morgan Street,44074,41.2874295,-82.2270099
252,Morgan Street,44074,41.2874234,-82.2267866
244,Morgan Street,44074,41.2874379,-82.2264916
238,Morgan Street,44074,41.2874460,-82.2262139
230,Morgan Street,44074,41.2874191,-82.2259389
224,Morgan Street,44074,41.2874070,-82.2257038
166,South Cedar Street,44074,41.2872336,-82.2252825
162,South Cedar Street,44074,41.2873627,-82.2252489
158,South Cedar Street,44074,41.2874876,-82.2252220
152,South Cedar Street,44074,41.2876242,-82.2252332
146,South Cedar Street,44074,41.2877613,-82.2252090
142,South Cedar Street,44074,41.2878877,-82.2252107
215,Morgan Street,44074,41.2867734,-82.2254048
217,Morgan Street,44074,41.2868190,-82.2257663
231,Morgan Street,44074,41.2868102,-82.2260499
239,Morgan Street,44074,41.2868317,-82.2262512
245,Morgan Street,44074,41.2868447,-82.2265088
251,Morgan Street,44074,41.2868450,-82.2267470
257,Morgan Street,44074,41.2868463,-82.2271679
271,Morgan Street,44074,41.2868426,-82.2274461
285,Morgan Street,44074,41.2868642,-82.2278917
291,Morgan Street,44074,41.2868322,-82.2282453
75,East College Street,44074,41.2914321,-82.2146443
15,South Pleasant Street,44074,41.2912326,-82.2146578
19,South Pleasant Street,44074,41.2910955,-82.2146355
23,South Pleasant Street,44074,41.2909897,-82.2145749
29,South Pleasant Street,44074,41.2908589,-82.2146409
33,South Pleasant Street,44074,41.2907199,-82.2146202
75,South Pleasant Street,44074,41.2896036,-82.2146245
81,South Pleasant Street,44074,41.2894036,-82.2146870
83,South Pleasant Street,44074,41.2892707,-82.2147221
85,South Pleasant Street,44074,41.2891522,-82.2147337
89,South Pleasant Street,44074,41.2890336,-82.2147248
90,East Vine Street,44074,41.2891702,-82.2142796
98,East Vine Street,44074,41.2890842,-82.2139630
106,East Vine Street,44074,41.2890685,-82.2136246
106,East Vine Street,44074,41.2890374,-82.2134452
118,East Vine Street,44074,41.2890563,-82.2130715
82,South Park Street,44074,41.2893129,-82.2129956
131,East College Street,44074,41.2913481,-82.2126676
123,East College Street,44074,41.2913548,-82.2129895
115,East College Street,44074,41.2913706,-82.2132658
107,East College Street,44074,41.2913791,-82.2134973
103,East College Street,44074,41.2913643,-82.2136396
97,East College Street,44074,41.2913728,-82.2139010
91,East College Street,44074,41.2913247,-82.2140937
87,East College Street,44074,41.2914050,-82.2142716
85,East College Street,44074,41.2913985,-82.2143932
143,East College Street,44074,41.2910304,-82.2119182
171,East College Street,44074,41.2912264,-82.2111540
181,East College Street,44074,41.2913056,-82.2108333
189,East College Street,44074,41.2912933,-82.2105617
193,East College Street,44074,41.2912857,-82.2103484
199,East College Street,44074,41.2912690,-82.2101523
207,East College Street,44074,41.2912547,-82.2098791
217,East College Street,44074,41.2911845,-82.2096061
227,East College Street,44074,41.2911650,-82.2091400
36,South Prospect Street,44074,41.2909210,-82.2295902
200,West Lorain Street,44074,41.2952217,-82.2252378
1,Clark Court,44074,41.2903213,-82.2092383
3 & 5,Clark Court,44074,41.2903261,-82.2095755
17 & 18,Clark Court,44074,41.2905555,-82.2092267
2 & 15,Clark Court,44074,41.2905586,-82.2095753
14,Clark Court,44074,41.2905806,-82.2100989
10 & 11,Clark Court,44074,41.2903744,-82.2103713
16,Clark Court,44074,41.2900687,-82.2103810
7 & 8,Clark Court,44074,41.2898297,-82.2101206
6 & 9,Clark Court,44074,41.2900554,-82.2098428
50,Spring Street,44074,41.2901703,-82.2092013
56,Spring Street,44074,41.2900159,-82.2091956
64,Spring Street,44074,41.2898055,-82.2092050
74,Spring Street,44074,41.2895172,-82.2092375
80,Spring Street,44074,41.2893384,-82.2092542
92,Spring Street,44074,41.2890695,-82.2092484
178,Groveland Street,44074,41.2875899,-82.2109797
164,Groveland Street,44074,41.2876406,-82.2115649
154,Groveland Street,44074,41.2875960,-82.2118903
148,Groveland Street,44074,41.2876083,-82.2122733
143,Groveland Street,44074,41.2872562,-82.2124236
173,South Park Street,44074,41.2868949,-82.2124124
183,South Park Street,44074,41.2864458,-82.2123985
193,South Park Street,44074,41.2862910,-82.2124354
201,South Park Street,44074,41.2861363,-82.2124075
205,South Park Street,44074,41.2859469,-82.2123610
215,South Park Street,44074,41.2857576,-82.2124051
219,South Park Street,44074,41.2855861,-82.2123964
225,South Park Street,44074,41.2853916,-82.2124661
251,South Park Street,44074,41.2847119,-82.2124363
237,South Park Street,44074,41.2849383,-82.2121235
169,Sumner Street,44074,41.2850673,-82.2114546
177,Sumner Street,44074,41.2851109,-82.2111722
187,Sumner Street,44074,41.2850852,-82.2107937
197,Sumner Street,44074,41.2850999,-82.2104820
213,Sumner Street,44074,41.2851104,-82.2100186
217,Sumner Street,44074,41.2851348,-82.2097943
219,Sumner Street,44074,41.2851334,-82.2095729
247,Sumner Street,44074,41.2851587,-82.2083772
267,Sumner Street,44074,41.2850593,-82.2080463
125,Grafton Street,44074,41.2842932,-82.2126101
131,Grafton Street,44074,41.2842834,-82.2123438
163,Grafton Street,44074,41.2843000,-82.2118238
173,Grafton Street,44074,41.2842719,-82.2114991
177,Grafton Street,44074,41.2842398,-82.2112340
185,Grafton Street,44074,41.2842027,-82.2110185
191,Grafton Street,44074,41.2842466,-82.2106586
201,Grafton Street,44074,41.2841555,-82.2103763
213,Grafton Street,44074,41.2842034,-82.2102096
219,Grafton Street,44074,41.2841531,-82.2097237
231,Grafton Street,44074,41.2837998,-82.2094786
247,Grafton Street,44074,41.2839233,-82.2089926
253,Grafton Street,44074,41.2839655,-82.2085177
144,Oberlin Road,44074,41.2873702,-82.1982758
116,Oberlin Road,44074,41.2882136,-82.1984619
563,East College Street,44074,41.2914093,-82.1965023
581,East College Street,44074,41.2916160,-82.1962666
597,East College Street,44074,41.2919019,-82.1957722
615,East College Street,44074,41.2921456,-82.1951462
625,East College Street,44074,41.2922786,-82.1949030
639,East College Street,44074,41.2923639,-82.1946746
645,East College Street,44074,41.2926217,-82.1944407
648,Kimberly Circle,44074,41.2922238,-82.1940278
650,Kimberly Circle,44074,41.2920659,-82.1942273
654,Kimberly Circle,44074,41.2918694,-82.1943462
658,Kimberly Circle,44074,41.2916393,-82.1943892
825,Kimberly Circle,44074,41.2913938,-82.1942867
831,Kimberly Circle,44074,41.2912672,-82.1940362
837,Kimberly Circle,44074,41.2911251,-82.1937788
843,Kimberly Circle,44074,41.2911133,-82.1934330
849,Kimberly Circle,44074,41.2911728,-82.1931809
855,Kimberly Circle,44074,41.2912874,-82.1929478
861,Kimberly Circle,44074,41.2913985,-82.1927400
867,Kimberly Circle,44074,41.2914976,-82.1925569
873,Kimberly Circle,44074,41.2915931,-82.1923410
879,Kimberly Circle,44074,41.2916927,-82.1921292
885,Kimberly Circle,44074,41.2918035,-82.1919366
891,Kimberly Circle,44074,41.2918890,-82.1917232
897,Kimberly Circle,44074,41.2920085,-82.1915161
903,Kimberly Circle,44074,41.2921004,-82.1913236
911,Kimberly Circle,44074,41.2922177,-82.1911060
920,Kimberly Circle,44074,41.2926940,-82.1911956
914,Kimberly Circle,44074,41.2926030,-82.1914068
908,Kimberly Circle,44074,41.2924908,-82.1915898
902,Kimberly Circle,44074,41.2923785,-82.1917721
896,Kimberly Circle,44074,41.2922917,-82.1919694
890,Kimberly Circle,44074,41.2921748,-82.1921610
884,Kimberly Circle,44074,41.2920946,-82.1923526
878,Kimberly Circle,44074,41.2919596,-82.1925447
872,Kimberly Circle,44074,41.2918850,-82.1927516
866,Kimberly Circle,44074,41.2917699,-82.1929358
860,Kimberly Circle,44074,41.2916821,-82.1931429
854,Kimberly Circle,44074,41.2916066,-82.1933148
850,Kimberly Circle,44074,41.2915936,-82.1935487
643,Kimberly Circle,44074,41.2917525,-82.1937794
649,Kimberly Circle,44074,41.2919159,-82.1936403
655,Kimberly Circle,44074,41.2920357,-82.1934854
661,Kimberly Circle,44074,41.2921342,-82.1932876
667,Kimberly Circle,44074,41.2922171,-82.1930706
673,Kimberly Circle,44074,41.2923400,-82.1928961
679,Kimberly Circle,44074,41.2924233,-82.1926965
685,Kimberly Circle,44074,41.2925309,-82.1924988
691,Kimberly Circle,44074,41.2926191,-82.1923023
697,Kimberly Circle,44074,41.2927329,-82.1921165
703,Kimberly Circle,44074,41.2928254,-82.1919166
717,Kimberly Circle,44074,41.2928795,-82.1915991
738,Kimberly Circle,44074,41.2929645,-82.1907561
732,Kimberly Circle,44074,41.2931041,-82.1909421
726,Kimberly Circle,44074,41.2932201,-82.1911472
720,Kimberly Circle,44074,41.2932848,-82.1913882
714,Kimberly Circle,44074,41.2933163,-82.1916252
708,Kimberly Circle,44074,41.2933075,-82.1918706
702,Kimberly Circle,44074,41.2932044,-82.1921198
696,Kimberly Circle,44074,41.2931089,-82.1923242
690,Kimberly Circle,44074,41.2930176,-82.1925415
684,Kimberly Circle,44074,41.2928942,-82.1927531
678,Kimberly Circle,44074,41.2928283,-82.1929508
672,Kimberly Circle,44074,41.2926933,-82.1931556
664,Kimberly Circle,44074,41.2925984,-82.1933269
660,Kimberly Circle,44074,41.2925317,-82.1935915
661,East College Street,44074,41.2928993,-82.1938938
669,East College Street,44074,41.2930193,-82.1937088
677,East College Street,44074,41.2931608,-82.1934282
685,East College Street,44074,41.2932519,-82.1932493
691,East College Street,44074,41.2933039,-82.1928522
705,East College Street,44074,41.2936236,-82.1925239
688,East College Street,44074,41.2937414,-82.1933581
670,East College Street,44074,41.2935859,-82.1938457
664,East College Street,44074,41.2933533,-82.1941834
648,East College Street,44074,41.2931939,-82.1944787
640,East College Street,44074,41.2930512,-82.1947566
19,Thomas Street,44074,41.2928072,-82.1951794
31,Thomas Street,44074,41.2930127,-82.1951842
37,Thomas Street,44074,41.2932009,-82.1951629
45,Thomas Street,44074,41.2933930,-82.1952057
51,Thomas Street,44074,41.2935876,-82.1951444
617,East Lorain Street,44074,41.2937618,-82.1951343
629,East Lorain Street,44074,41.2937334,-82.1947213
635,East Lorain Street,44074,41.2937285,-82.1944496
645,East Lorain Street,44074,41.2937168,-82.1941694
587,East Lorain Street,44074,41.2937736,-82.1958768
50,Thomas Street,44074,41.2935473,-82.1958693
36,Thomas Street,44074,41.2932570,-82.1958984
30,Thomas Street,44074,41.2930137,-82.1958902
22,Thomas Street,44074,41.2928026,-82.1958631
16,Thomas Street,44074,41.2926355,-82.1958642
596,East College Street,44074,41.2923900,-82.1959739
560,East College Street,44074,41.2919940,-82.1969247
131,Oberlin Road,44074,41.2925085,-82.1967646
115,Oberlin Road,44074,41.2927044,-82.1967669
101,Oberlin Road,44074,41.2929080,-82.1967595
85,Oberlin Road,44074,41.2931111,-82.1967430
71,Oberlin Road,44074,41.2933216,-82.1967432
55,Oberlin Road,44074,41.2935282,-82.1967476
41,Oberlin Road,44074,41.2937335,-82.1967216
528,East Lorain Street,44074,41.2951151,-82.1982823
500,East Lorain Street,44074,41.2945857,-82.1998378
495,East College Street,44074,41.2910500,-82.1989131
487,East College Street,44074,41.2911811,-82.1997005
475,East College Street,44074,41.2911953,-82.2000992
461,East College Street,44074,41.2911850,-82.2005443
451,East College Street,44074,41.2911912,-82.2009507
441,East College Street,44074,41.2911579,-82.2012754
433,East College Street,44074,41.2912090,-82.2015374
425,East College Street,44074,41.2911993,-82.2017984
419,East College Street,44074,41.2912053,-82.2020995
413,East College Street,44074,41.2910802,-82.2023808
11,Shipherd Circle,44074,41.2911610,-82.2028722
23,Shipherd Circle,44074,41.2908633,-82.2028703
398,Caskey Drive,44074,41.2906201,-82.2027304
410,Caskey Drive,44074,41.2905792,-82.2024122
418,Caskey Drive,44074,41.2905672,-82.2021568
426,Caskey Drive,44074,41.2905794,-82.2018600
434,Caskey Drive,44074,41.2906271,-82.2015315
442,Caskey Drive,44074,41.2906033,-82.2012499
450,Caskey Drive,44074,41.2905705,-82.2009565
472,Caskey Drive,44074,41.2906797,-82.2002397
482,Caskey Drive,44074,41.2906225,-82.1997321
481,Caskey Drive,44074,41.2901975,-82.1997545
471,Caskey Drive,44074,41.2900047,-82.2002581
256,Shipherd Circle,44074,41.2898002,-82.2005168
248,Shipherd Circle,44074,41.2895743,-82.2004391
242,Shipherd Circle,44074,41.2893849,-82.2004405
234,Shipherd Circle,44074,41.2890997,-82.2005405
228,Shipherd Circle,44074,41.2889151,-82.2005364
220,Shipherd Circle,44074,41.2887015,-82.2007209
214,Shipherd Circle,44074,41.2885305,-82.2009853
206,Shipherd Circle,44074,41.2883365,-82.2012342
198,Shipherd Circle,44074,41.2882850,-82.2015290
190,Shipherd Circle,44074,41.2882012,-82.2018044
182,Shipherd Circle,44074,41.2881712,-82.2021721
172,Shipherd Circle,44074,41.2879971,-82.2025796
152,Shipherd Circle,44074,41.2879489,-82.2033034
144,Shipherd Circle,44074,41.2880346,-82.2035653
136,Shipherd Circle,44074,41.2880436,-82.2038883
128,Shipherd Circle,44074,41.2879943,-82.2042202
116,Shipherd Circle,44074,41.2883901,-82.2046608
110,Shipherd Circle,44074,41.2886543,-82.2047197
102,Shipherd Circle,44074,41.2888620,-82.2047607
94,Shipherd Circle,44074,41.2890879,-82.2047653
84,Shipherd Circle,44074,41.2893160,-82.2047407
78,Shipherd Circle,44074,41.2895436,-82.2046443
70,Shipherd Circle,44074,41.2897767,-82.2046357
62,Shipherd Circle,44074,41.2900043,-82.2045009
56,Shipherd Circle,44074,41.2901618,-82.2043038
48,Shipherd Circle,44074,41.2903629,-82.2041465
40,Shipherd Circle,44074,41.2905051,-82.2039795
26,Shipherd Circle,44074,41.2907625,-82.2037524
12,Shipherd Circle,44074,41.2911920,-82.2035533
41,Shepherd Circle,44074,41.2901681,-82.2030944
4,Stewart Street,44074,41.2900990,-82.2026967
10,Stewart Street,44074,41.2898706,-82.2025493
28,Stewart Street,44074,41.2896961,-82.2026919
36,Stewart Street,44074,41.2896870,-82.2032143
46,Stewart Street,44074,41.2892547,-82.2033551
43,Stewart Street,44074,41.2891968,-82.2024459
31,Stewart Street,44074,41.2892828,-82.2021572
23,Stewart Street,44074,41.2895552,-82.2019565
15,Stewart Street,44074,41.2898092,-82.2019015
5,Stewart Street,44074,41.2900645,-82.2018207
259,Shipherd Circle,44074,41.2900221,-82.2013566
257,Shipherd Circle,44074,41.2897608,-82.2012034
249,Shipherd Circle,44074,41.2895944,-82.2012215
235,Shipherd Circle,44074,41.2893234,-82.2011773
223,Shipherd Circle,44074,41.2890532,-82.2013822
205,Shipherd Circle,44074,41.2888937,-82.2017815
187,Shipherd Circle,44074,41.2887870,-82.2021998
177,Shipherd Circle,44074,41.2886640,-82.2025813
169,Shipherd Circle,44074,41.2885984,-82.2029946
151,Shipherd Circle,44074,41.2885486,-82.2033978
129,Shipherd Circle,44074,41.2886014,-82.2038016
107,Shipherd Circle,44074,41.2888493,-82.2040129
95,Shipherd Circle,44074,41.2891355,-82.2040159
81,Shipherd Circle,44074,41.2894340,-82.2039883
59,Shipherd Circle,44074,41.2897530,-82.2037414
49,Shipherd Circle,44074,41.2900726,-82.2034793
361,East College Street,44074,41.2912985,-82.2042847
355,East College Street,44074,41.2912596,-82.2044567
351,East College Street,44074,41.2911784,-82.2046488
343,East College Street,44074,41.2911992,-82.2049000
335,East College Street,44074,41.2907988,-82.2052045
317,East College Street,44074,41.2905610,-82.2057801
299,East College Street,44074,41.2912206,-82.2065447
293,East College Street,44074,41.2912131,-82.2067784
285,East College Street,44074,41.2911884,-82.2070231
27,King Street,44074,41.2908103,-82.2070546
39,King Street,44074,41.2904493,-82.2070586
45,King Street,44074,41.2902612,-82.2070589
53,King Street,44074,41.2900913,-82.2071032
59,King Street,44074,41.2899354,-82.2071428
67,King Street,44074,41.2897257,-82.2070543
73,King Street,44074,41.2895377,-82.2071193
79,King Street,44074,41.2893720,-82.2070691
83,King Street,44074,41.2891970,-82.2071065
91,King Street,44074,41.2889969,-82.2071215
97,King Street,44074,41.2888468,-82.2070944
101,King Street,44074,41.2885779,-82.2071872
111,King Street,44074,41.2883841,-82.2073156
118,King Street,44074,41.2883439,-82.2076905
108,King Street,44074,41.2886218,-82.2077442
100,King Street,44074,41.2888104,-82.2077517
92,King Street,44074,41.2889871,-82.2078024
84,King Street,44074,41.2891925,-82.2078784
80,King Street,44074,41.2893694,-82.2078202
70,King Street,44074,41.2896320,-82.2078632
62,King Street,44074,41.2899118,-82.2077614
56,King Street,44074,41.2900816,-82.2077761
46,King Street,44074,41.2902602,-82.2077843
40,King Street,44074,41.2904484,-82.2077146
32,King Street,44074,41.2906428,-82.2076981
26,King Street,44074,41.2907833,-82.2076991
22,King Street,44074,41.2909773,-82.2076804
265,East College Street,44074,41.2912463,-82.2077338
257,East College Street,44074,41.2912549,-82.2079128
255,East College Street,44074,41.2912346,-82.2081186
243,East College Street,44074,41.2912634,-82.2085679
237,East College Street,44074,41.2912666,-82.2087418
24,Spring Street,44074,41.2908437,-82.2091466
17,West Vine Street,44074,41.2885412,-82.2181298
289,Morgan Street,44074,41.2850612,-82.2248857
435,West Lorain Street,44074,41.2940044,-82.2333955
14911,State Route 58,44074,41.2667932,-82.2165630
46048,US-20,44074,41.2657598,-82.2195789
30,South Main Street,44074,41.2908330,-82.2177794
10,East College Street,44074,41.2919885,-82.2166000
224,West Lorain Street,44074,41.2947377,-82.2250457
570,Spruce Drive,44074,41.2907554,-82.2394264
20,West Vine Street,44074,41.2896612,-82.2187197
111,Forest Street,44074,41.2879434,-82.2215892
281,North Pleasant Street,44074,41.2993352,-82.2123166
