House number,Street name,Postal code,Latitude,Longitude
255,Richmond Street,44077,41.7262425,-81.2520393
200,Richmond Street,44077,41.7262364,-81.2500080
58,West High Street,44077,41.7213067,-81.2446029
56,West High Street,44077,41.7213392,-81.2445338
54,West High Street,44077,41.7214086,-81.2443902
52,West High Street,44077,41.7214870,-81.2442287
26,West High Street,44077,41.7216516,-81.2438845
59,West High Street,44077,41.7210724,-81.2443798
77,West High Street,44077,41.7208975,-81.2447978
87,West High Street,44077,41.7208241,-81.2449847
95,West High Street,44077,41.7207587,-81.2451436
99,West High Street,44077,41.7206867,-81.2453140
109,West High Street,44077,41.7206195,-81.2454659
117,West High Street,44077,41.7205501,-81.2456082
123,West High Street,44077,41.7204923,-81.2457574
131,West High Street,44077,41.7203988,-81.2459193
126,East South Street,44077,41.7220724,-81.2398758
120,East South Street,44077,41.7220443,-81.2400195
119,East South Street,44077,41.7222752,-81.2402148
107,East South Street,44077,41.7221468,-81.2404706
92,East South Street,44077,41.7216926,-81.2407458
84,East South Street,44077,41.7216573,-81.2408705
61,East South Street,44077,41.7217002,-81.2413939
47,East South Street,44077,41.7215831,-81.2416466
35,East South Street,44077,41.7214913,-81.2418705
21,East South Street,44077,41.7213497,-81.2421309
195,Liberty Street,44077,41.7211677,-81.2424024
8,West South Street,44077,41.7209434,-81.2428872
10,West South Street,44077,41.7209242,-81.2429772
19,West South Street,44077,41.7205915,-81.2428447
22,West South Street,44077,41.7208217,-81.2430930
27,West South Street,44077,41.7205594,-81.2430464
28,West South Street,44077,41.7207389,-81.2432717
31,West South Street,44077,41.7204910,-81.2431619
33,West South Street,44077,41.7198121,-81.2432879
36,West South Street,44077,41.7206415,-81.2434292
47,West South Street,44077,41.7202890,-81.2435385
50,West South Street,44077,41.7205085,-81.2437231
51,West South Street,44077,41.7202102,-81.2436661
71,West South Street,44077,41.7200224,-81.2439943
74,West South Street,44077,41.7202584,-81.2442518
88,West South Street,44077,41.7201081,-81.2445790
94,West South Street,44077,41.7200466,-81.2447415
100,West South Street,44077,41.7199775,-81.2448931
93,West South Street,44077,41.7198101,-81.2444426
105,West South Street,44077,41.7196957,-81.2446786
103,West South Street,44077,41.7196740,-81.2446093
133,West South Street,44077,41.7193959,-81.2452994
183,Wood Street,44077,41.7198428,-81.2454607
175,Wood Street,44077,41.7199524,-81.2455931
167,Wood Street,44077,41.7200723,-81.2456911
161,Wood Street,44077,41.7201794,-81.2457747
344,Willow Drive,44077,41.7196265,-81.2388690
102,Lusard Street,44077,41.7187689,-81.2391902
248,West High Street,44077,41.7191729,-81.2482073
55,West Washington Street,44077,41.7218667,-81.2449732
96,Pearl Street,44077,41.7200840,-81.2396536
286,Liberty Street,44077,41.7192831,-81.2422424
257,Gillett Street,44077,41.7146193,-81.2489654
254,Gillett Street,44077,41.7146914,-81.2493918
236,Luary Drive,44077,41.7151590,-81.2503197
35,West Washington Street,44077,41.7220660,-81.2445735
56,Pearl Street,44077,41.7196163,-81.2404362
224,Liberty Street,44077,41.7205070,-81.2425440
210,Luary Drive,44077,41.7160091,-81.2501905
182,Liberty Street,44077,41.7212177,-81.2428251
21,Lusard Street,44077,41.7187914,-81.2411928
187,Gillett Street,44077,41.7166230,-81.2489068
206,Gillett Street,44077,41.7160369,-81.2493421
128,Pearl Street,44077,41.7204152,-81.2389081
73,Lusard Street,44077,41.7189618,-81.2400015
267,Wickland Street,44077,41.7172433,-81.2481746
186,West Washington Street,44077,41.7208429,-81.2478896
114,Lusard Street,44077,41.7188190,-81.2389337
243,West South Street,44077,41.7184628,-81.2479303
63,Sterling Avenue,44077,41.7227543,-81.2459780
350,Willow Drive,44077,41.7195395,-81.2388055
84,Lusard Street,44077,41.7186926,-81.2396242
254,Wickland Street,44077,41.7174927,-81.2478637
109b,Sterling Avenue,44077,41.7223085,-81.2469291
110,Pearl Street,44077,41.7202334,-81.2393220
48,Lusard Street,44077,41.7185642,-81.2405113
121,Gillett Street,44077,41.7184609,-81.2488147
228,Luary Drive,44077,41.7154439,-81.2502979
32,West Washington Street,44077,41.7223531,-81.2447813
60,Pearl Street,44077,41.7196860,-81.2404108
216,Gillett Street,44077,41.7157941,-81.2494528
177,Liberty Street,44077,41.7214014,-81.2426053
55,Lusard Street,44077,41.7189058,-81.2404299
139,Gillett Street,44077,41.7178939,-81.2488369
142,Gillett Street,44077,41.7178610,-81.2492978
134,Pearl Street,44077,41.7204946,-81.2387680
89,Sterling Avenue,44077,41.7225305,-81.2464728
89,Lusard Street,44077,41.7190393,-81.2395715
254,West High Street,44077,41.7191145,-81.2482746
298,West Washington Street,44077,41.7197891,-81.2502243
194,West Washington Street,44077,41.7207710,-81.2480509
135,Lusard Street,44077,41.7191778,-81.2385271
129,Gillett Street,44077,41.7182447,-81.2488216
59,Sterling Avenue,44077,41.7228206,-81.2458757
330,Willow Drive,44077,41.7198373,-81.2389949
90,Lusard Street,44077,41.7187114,-81.2394719
219,West High Street,44077,41.7195762,-81.2476491
78,Pearl Street,44077,41.7199782,-81.2401117
54,Lusard Street,44077,41.7185855,-81.2403720
163,Gillett Street,44077,41.7172477,-81.2488748
246,Gillett Street,44077,41.7149137,-81.2493713
232,Luary Drive,44077,41.7153009,-81.2503127
25,West Washington Street,44077,41.7221635,-81.2444007
48,Pearl Street,44077,41.7195869,-81.2408044
11,West South Street,44077,41.7207545,-81.2426414
197,Gillett Street,44077,41.7162877,-81.2489221
204,Luary Drive,44077,41.7158066,-81.2498850
187,Liberty Street,44077,41.7212649,-81.2424873
259,Liberty Street,44077,41.7199195,-81.2419645
37,Lusard Street,44077,41.7188592,-81.2408478
241,West South Street,44077,41.7184614,-81.2478470
190,Gillett Street,44077,41.7165482,-81.2493416
27,Pearl Street,44077,41.7202022,-81.2414341
85,Lusard Street,44077,41.7190178,-81.2397026
308,West Washington Street,44077,41.7196384,-81.2504857
42,Wood Street,44077,41.7223662,-81.2467535
121,Lusard Street,44077,41.7191709,-81.2388773
182,Tinker Avenue,44077,41.7180448,-81.2478022
77,Sterling Avenue,44077,41.7225730,-81.2463209
338,Willow Drive,44077,41.7197438,-81.2389323
72,Lusard Street,44077,41.7186494,-81.2399306
207,West High Street,44077,41.7194233,-81.2473683
171,Gillett Street,44077,41.7170345,-81.2488799
55,Wood Street,44077,41.7218048,-81.2471603
86,Pearl Street,44077,41.7200022,-81.2399003
36,Lusard Street,44077,41.7185223,-81.2408036
192,Tinker Avenue,44077,41.7178864,-81.2478047
250,Gillett Street,44077,41.7147911,-81.2493864
88,West Washington Street,44077,41.7218699,-81.2459370
33,West Washington Street,44077,41.7220893,-81.2445105
52,Pearl Street,44077,41.7195975,-81.2406191
157,Gillett Street,44077,41.7175006,-81.2488908
208,Gillett Street,44077,41.7160005,-81.2493439
183,Liberty Street,44077,41.7213315,-81.2425297
22,Pearl Street,44077,41.7199096,-81.2414283
67,Lusard Street,44077,41.7189396,-81.2401461
253,Gillett Street,44077,41.7147643,-81.2489655
130,Gillett Street,44077,41.7182352,-81.2492842
25,Pearl Street,44077,41.7201857,-81.2414929
103,Lusard Street,44077,41.7190995,-81.2393028
223,West High Street,44077,41.7196018,-81.2479153
282,West Washington Street,44077,41.7199599,-81.2499079
180,West Washington Street,44077,41.7209247,-81.2477394
153,Lusard Street,44077,41.7192785,-81.2382002
241,Gillett Street,44077,41.7150595,-81.2489420
75,Sterling Avenue,44077,41.7226624,-81.2461571
144,Lusard Street,44077,41.7189797,-81.2382065
78,Lusard Street,44077,41.7186752,-81.2397803
255,Wickland Street,44077,41.7172465,-81.2478463
211,Gillett Street,44077,41.7158071,-81.2489228
64,Pearl Street,44077,41.7198269,-81.2403985
42,Lusard Street,44077,41.7185386,-81.2406573
263,West South Street,44077,41.7184881,-81.2484239
234,Gillett Street,44077,41.7152934,-81.2493728
94,West Washington Street,44077,41.7217659,-81.2460552
167,Liberty Street,44077,41.7215302,-81.2427223
40,Pearl Street,44077,41.7196535,-81.2410350
43,Wood Street,44077,41.7220025,-81.2473915
99,Gillett Street,44077,41.7190475,-81.2488936
212,Gillett Street,44077,41.7158747,-81.2493782
227,Liberty Street,44077,41.7205020,-81.2420956
277,Liberty Street,44077,41.7195697,-81.2418328
61,Lusard Street,44077,41.7189235,-81.2402833
91,Gillett Street,44077,41.7191891,-81.2489241
136,Gillett Street,44077,41.7180635,-81.2492902
95,Lusard Street,44077,41.7190517,-81.2394029
193,Gillett Street,44077,41.7164637,-81.2488978
292,West Washington Street,44077,41.7198884,-81.2500570
123,Pearl Street,44077,41.7205613,-81.2393195
147,Lusard Street,44077,41.7192516,-81.2383102
273,Gillett Street,44077,41.7141890,-81.2489700
148,Lusard Street,44077,41.7190415,-81.2380603
60,Lusard Street,44077,41.7186132,-81.2402108
135,Gillett Street,44077,41.7180482,-81.2488268
165,Tinker Avenue,44077,41.7181184,-81.2474391
83,Wood Street,44077,41.7214408,-81.2468081
85,Sterling Avenue,44077,41.7224149,-81.2463730
68,Pearl Street,44077,41.7199682,-81.2404056
271,West High Street,44077,41.7187071,-81.2477978
244,Gillett Street,44077,41.7150025,-81.2493661
72,West Washington Street,44077,41.7220002,-81.2455816
19,West Washington Street,44077,41.7222167,-81.2442360
44,Pearl Street,44077,41.7195867,-81.2409926
316,Liberty Street,44077,41.7187358,-81.2420746
263,Gillett Street,44077,41.7144654,-81.2489666
231,Luary Drive,44077,41.7153931,-81.2499492
221,Liberty Street,44077,41.7206527,-81.2421263
262,Liberty Street,44077,41.7197925,-81.2423693
285,Wickland Street,44077,41.7172604,-81.2485861
340,West Washington Street,44077,41.7193736,-81.2510580
115,Lusard Street,44077,41.7191067,-81.2389833
147,Gillett Street,44077,41.7177109,-81.2488731
268,West Washington Street,44077,41.7200894,-81.2495931
121,Pearl Street,44077,41.7205935,-81.2392931
163,Lusard Street,44077,41.7194533,-81.2379349
262,West High Street,44077,41.7189254,-81.2482478
132,Lusard Street,44077,41.7188858,-81.2384760
66,Lusard Street,44077,41.7186306,-81.2400657
227,Gillett Street,44077,41.7154890,-81.2489393
69,Wood Street,44077,41.7215993,-81.2469847
331,Willow Drive,44077,41.7199509,-81.2386655
221,Gillett Street,44077,41.7156313,-81.2489357
224,Gillett Street,44077,41.7155481,-81.2494480
32,Pearl Street,44077,41.7199293,-81.2411118
247,Gillett Street,44077,41.7149082,-81.2489565
227,Luary Drive,44077,41.7155174,-81.2499598
17,Pearl Street,44077,41.7201831,-81.2416587
293,Liberty Street,44077,41.7192592,-81.2417310
268,Liberty Street,44077,41.7196593,-81.2423232
207,Gillett Street,44077,41.7160703,-81.2489297
122,Gillett Street,44077,41.7184297,-81.2492439
61,Pearl Street,44077,41.7203225,-81.2406325
109,Lusard Street,44077,41.7190804,-81.2391380
274,West Washington Street,44077,41.7200218,-81.2497154
131,Pearl Street,44077,41.7206743,-81.2390404
159,Lusard Street,44077,41.7193511,-81.2380801
71,Gillett Street,44077,41.7196628,-81.2489763
220,West Washington Street,44077,41.7205164,-81.2486032
138,Lusard Street,44077,41.7189202,-81.2383403
267,Gillett Street,44077,41.7143217,-81.2489737
106,West Washington Street,44077,41.7216390,-81.2462677
325,Willow Drive,44077,41.7200456,-81.2387517
273,Wickland Street,44077,41.7172531,-81.2483650
230,Gillett Street,44077,41.7154001,-81.2493886
58,West Washington Street,44077,41.7221172,-81.2452531
36,Pearl Street,44077,41.7197894,-81.2410811
296,Liberty Street,44077,41.7191399,-81.2421895
259,West South Street,44077,41.7184779,-81.2482338
239,West Place,44077,41.7151628,-81.2498258
235,Liberty Street,44077,41.7203668,-81.2420728
287,Liberty Street,44077,41.7193849,-81.2417592
238,Liberty Street,44077,41.7201838,-81.2424521
261,Wickland Street,44077,41.7172553,-81.2480261
220,Luary Drive,44077,41.7156685,-81.2502791
59,Pearl Street,44077,41.7203180,-81.2406937
319,Liberty Street,44077,41.7187483,-81.2415902
240,West Washington Street,44077,41.7203448,-81.2490263
127,Pearl Street,44077,41.7206179,-81.2391631
156,Lusard Street,44077,41.7191093,-81.2379027
240,West High Street,44077,41.7193843,-81.2482862
228,West Washington Street,44077,41.7204546,-81.2487827
120,Lusard Street,44077,41.7188384,-81.2387832
183,Gillett Street,44077,41.7167555,-81.2488840
112,West Washington Street,44077,41.7216453,-81.2465163
351,Willow Drive,44077,41.7196272,-81.2384840
231,Gillett Street,44077,41.7153419,-81.2489382
66,West Washington Street,44077,41.7220578,-81.2453743
120,Pearl Street,44077,41.7203632,-81.2391173
306,Liberty Street,44077,41.7189448,-81.2421414
264,West High Street,44077,41.7188753,-81.2482554
235,Luary Drive,44077,41.7153160,-81.2499610
41,West Washington Street,44077,41.7219973,-81.2447078
309,Liberty Street,44077,41.7190044,-81.2416656
248,Liberty Street,44077,41.7200364,-81.2424702
224,Luary Drive,44077,41.7155375,-81.2503023
115,Pearl Street,44077,41.7205002,-81.2393824
311,Liberty Street,44077,41.7188533,-81.2416312
260,West Washington Street,44077,41.7201603,-81.2494677
136,Pearl Street,44077,41.7205174,-81.2387054
164,Lusard Street,44077,41.7191884,-81.2377005
272,West High Street,44077,41.7187657,-81.2482397
208,West Washington Street,44077,41.7206349,-81.2483214
126,Lusard Street,44077,41.7188625,-81.2386258
176,Tinker Avenue,44077,41.7182803,-81.2478093
27,Wood Street,44077,41.7222687,-81.2476180
345,Willow Drive,44077,41.7197497,-81.2385510
96,Lusard Street,44077,41.7187403,-81.2393505
177,Gillett Street,44077,41.7168993,-81.2488882
51,West Washington Street,44077,41.7219196,-81.2448623
324,Willow Drive,44077,41.7199894,-81.2390325
87,Sterling Avenue,44077,41.7224735,-81.2464240
278,Liberty Street,44077,41.7194496,-81.2422485
272,Wickland Street,44077,41.7175045,-81.2482646
242,Luary Drive,44077,41.7150490,-81.2503273
49,West Washington Street,44077,41.7219536,-81.2447905
301,Liberty Street,44077,41.7191512,-81.2416666
216,Liberty Street,44077,41.7206413,-81.2425239
212,Luary Drive,44077,41.7158272,-81.2502476
63,Pearl Street,44077,41.7203285,-81.2405786
29,Lusard Street,44077,41.7188323,-81.2409900
194,Gillett Street,44077,41.7163574,-81.2493313
137,Pearl Street,44077,41.7207149,-81.2389329
79,Lusard Street,44077,41.7189819,-81.2398482
237,Gillett Street,44077,41.7152012,-81.2489367
214,West Washington Street,44077,41.7205475,-81.2484648
106,Lusard Street,44077,41.7187856,-81.2390812
111,Gillett Street,44077,41.7187568,-81.2489006
689,Liberty Street,44077,41.7108156,-81.2395741
331,Trailwood Drive,44077,41.7103259,-81.2471626
456,Liberty Street,44077,41.7160394,-81.2413724
648,Liberty Street,44077,41.7116296,-81.2403428
262,Colonial Drive,44077,41.7069755,-81.2454317
595,Trailwood Drive,44077,41.7121496,-81.2438116
472,Liberty Street,44077,41.7156361,-81.2412461
678,Liberty Street,44077,41.7109772,-81.2401102
181,North Settlers Lane,44077,41.7083101,-81.2439220
560,Trailwood Drive,44077,41.7120692,-81.2446140
500,Trailwood Drive,44077,41.7120783,-81.2459728
487,Liberty Street,44077,41.7153639,-81.2408178
577,Townhall Court,44077,41.7133824,-81.2402675
155,North Settlers Lane,44077,41.7084433,-81.2432912
440,Trailwood Drive,44077,41.7118551,-81.2466088
52,Frederic Street,44077,41.7131330,-81.2421940
381,Trailwood Drive,44077,41.7111580,-81.2472098
71,Frederic Street,44077,41.7129588,-81.2422659
25,Frederic Street,44077,41.7130507,-81.2411314
631,Liberty Street,44077,41.7121859,-81.2399751
196,South Settlers Lane,44077,41.7079251,-81.2440055
164,Colonial Drive,44077,41.7073453,-81.2432086
615,Trailwood Drive,44077,41.7118692,-81.2432718
457,Liberty Street,44077,41.7160200,-81.2409732
653,Liberty Street,44077,41.7116257,-81.2398492
222,South Settlers Lane,44077,41.7078030,-81.2446575
583,Trailwood Drive,44077,41.7122301,-81.2439947
475,Liberty Street,44077,41.7157181,-81.2408352
683,Liberty Street,44077,41.7109558,-81.2396990
173,North Settlers Lane,44077,41.7083702,-81.2437126
555,Trailwood Drive,44077,41.7124115,-81.2446431
495,Trailwood Drive,44077,41.7124025,-81.2461264
493,Liberty Street,44077,41.7152476,-81.2407738
715,Liberty Street,44077,41.7102301,-81.2395135
147,North Settlers Lane,44077,41.7085074,-81.2430753
420,Trailwood Drive,44077,41.7116535,-81.2467318
58,Frederic Street,44077,41.7131130,-81.2423615
95,North Settlers Lane,44077,41.7087397,-81.2417983
371,Trailwood Drive,44077,41.7110070,-81.2471953
59,Frederic Street,44077,41.7129925,-81.2419580
156,Colonial Drive,44077,41.7073838,-81.2429712
337,Townhall Court,44077,41.7111864,-81.2460906
13,Frederic Street,44077,41.7131308,-81.2409130
634,Liberty Street,44077,41.7119711,-81.2404273
609,Trailwood Drive,44077,41.7119595,-81.2434792
321,Trailwood Drive,44077,41.7101756,-81.2470959
664,Liberty Street,44077,41.7113134,-81.2401631
580,Trailwood Drive,44077,41.7119296,-81.2441747
479,Liberty Street,44077,41.7155865,-81.2408635
686,Liberty Street,44077,41.7108165,-81.2400914
550,Trailwood Drive,44077,41.7121118,-81.2448176
498,Liberty Street,44077,41.7150578,-81.2411010
137,North Settlers Lane,44077,41.7085258,-81.2428655
411,Trailwood Drive,44077,41.7115387,-81.2472199
60,Frederic Street,44077,41.7130903,-81.2425115
361,Trailwood Drive,44077,41.7108617,-81.2472084
53,Frederic Street,44077,41.7130033,-81.2418224
104,South Settlers Lane,44077,41.7083271,-81.2418793
339,Townhall Court,44077,41.7113087,-81.2459375
588,Liberty Street,44077,41.7130456,-81.2406282
204,South Settlers Lane,44077,41.7079182,-81.2442342
172,Colonial Drive,44077,41.7072938,-81.2433882
608,Trailwood Drive,44077,41.7117305,-81.2437860
311,Trailwood Drive,44077,41.7100033,-81.2471351
669,Liberty Street,44077,41.7112423,-81.2397803
230,South Settlers Lane,44077,41.7077751,-81.2448824
200,Colonial Drive,44077,41.7071783,-81.2440445
575,Trailwood Drive,44077,41.7123333,-81.2441983
480,Liberty Street,44077,41.7155075,-81.2412157
694,Liberty Street,44077,41.7106403,-81.2400922
605,South Settlers Lane,44077,41.7077343,-81.2452405
551,Trailwood Drive,44077,41.7124394,-81.2448439
504,Liberty Street,44077,41.7149438,-81.2410842
714,Liberty Street,44077,41.7101486,-81.2399289
127,North Settlers Lane,44077,41.7085685,-81.2426399
400,Trailwood Drive,44077,41.7114630,-81.2467637
516,Liberty Street,44077,41.7146821,-81.2410575
351,Trailwood Drive,44077,41.7106791,-81.2472125
47,Frederic Street,44077,41.7130371,-81.2416661
114,South Settlers Lane,44077,41.7083011,-81.2421049
589,Townhall Court,44077,41.7130945,-81.2401948
148,South Settlers Lane,44077,41.7081734,-81.2429657
672,Liberty Street,44077,41.7111444,-81.2401529
570,Trailwood Drive,44077,41.7120101,-81.2443763
437,Liberty Street,44077,41.7165038,-81.2411118
700,Liberty Street,44077,41.7104857,-81.2400166
591,North Settlers Lane,44077,41.7078981,-81.2452883
545,Trailwood Drive,44077,41.7124626,-81.2450527
508,Liberty Street,44077,41.7148191,-81.2411724
570,North Settlers Lane,44077,41.7084291,-81.2453521
119,North Settlers Lane,44077,41.7086042,-81.2424254
380,Trailwood Drive,44077,41.7113021,-81.2467711
521,Liberty Street,44077,41.7146372,-81.2406913
331,Townhall Court,44077,41.7108781,-81.2466739
35,Frederic Street,44077,41.7130508,-81.2415021
120,South Settlers Lane,44077,41.7082565,-81.2423170
595,Liberty Street,44077,41.7129568,-81.2402398
212,South Settlers Lane,44077,41.7078491,-81.2444428
182,Colonial Drive,44077,41.7072854,-81.2436242
32,Frederic Street,44077,41.7132703,-81.2413631
208,Colonial Drive,44077,41.7071187,-81.2442608
565,Trailwood Drive,44077,41.7123625,-81.2444166
442,Liberty Street,44077,41.7163291,-81.2414567
707,Liberty Street,44077,41.7104085,-81.2394438
588,North Settlers Lane,44077,41.7078849,-81.2458170
234,Colonial Drive,44077,41.7070205,-81.2449270
540,Trailwood Drive,44077,41.7121410,-81.2450558
722,Liberty Street,44077,41.7099755,-81.2400516
227,North Settlers Lane,44077,41.7081399,-81.2449819
113,North Settlers Lane,44077,41.7086558,-81.2422138
525,Trailwood Drive,44077,41.7124848,-81.2454807
333,Townhall Court,44077,41.7109435,-81.2464309
130,South Settlers Lane,44077,41.7082132,-81.2425357
600,Liberty Street,44077,41.7127855,-81.2405564
156,South Settlers Lane,44077,41.7081101,-81.2431709
128,Colonial Drive,44077,41.7075264,-81.2423374
614,Liberty Street,44077,41.7124582,-81.2405396
443,Liberty Street,44077,41.7163845,-81.2410612
708,Liberty Street,44077,41.7103531,-81.2399622
581,North Settlers Lane,44077,41.7080626,-81.2453337
535,Trailwood Drive,44077,41.7124872,-81.2452762
460,Liberty Street,44077,41.7159408,-81.2413438
727,Liberty Street,44077,41.7099576,-81.2394575
219,North Settlers Lane,44077,41.7081655,-81.2447850
103,North Settlers Lane,44077,41.7086693,-81.2420004
520,Trailwood Drive,44077,41.7121448,-81.2455266
734,Liberty Street,44077,41.7096936,-81.2397922
98,South Settlers Lane,44077,41.7083968,-81.2416866
335,Townhall Court,44077,41.7110650,-81.2462459
24,Frederic Street,44077,41.7132862,-81.2412239
192,Colonial Drive,44077,41.7072171,-81.2438379
617,Liberty Street,44077,41.7124678,-81.2400896
218,Colonial Drive,44077,41.7070980,-81.2444706
447,Liberty Street,44077,41.7162803,-81.2410283
639,Liberty Street,44077,41.7119561,-81.2399401
582,North Settlers Lane,44077,41.7080439,-81.2458704
530,Trailwood Drive,44077,41.7121516,-81.2453019
463,Liberty Street,44077,41.7159295,-81.2409455
728,Liberty Street,44077,41.7098356,-81.2398136
207,North Settlers Lane,44077,41.7082049,-81.2445532
272,Colonial Drive,44077,41.7070439,-81.2457248
515,Trailwood Drive,44077,41.7124607,-81.2457151
557,Liberty Street,44077,41.7138444,-81.2403857
741,Liberty Street,44077,41.7096491,-81.2393134
480,Trailwood Drive,44077,41.7120356,-81.2461584
36,Frederic Street,44077,41.7132416,-81.2415343
140,South Settlers Lane,44077,41.7081661,-81.2427468
93,Colonial Drive,44077,41.7072657,-81.2413979
82,Frederic Street,44077,41.7130699,-81.2426601
166,South Settlers Lane,44077,41.7080785,-81.2433577
136,Colonial Drive,44077,41.7074641,-81.2425580
620,Liberty Street,44077,41.7123204,-81.2405197
448,Liberty Street,44077,41.7161889,-81.2414824
643,Liberty Street,44077,41.7118635,-81.2399214
578,North Settlers Lane,44077,41.7082262,-81.2458131
244,Colonial Drive,44077,41.7069873,-81.2451601
605,Trailwood Drive,44077,41.7120527,-81.2436198
466,Liberty Street,44077,41.7157987,-81.2412906
735,Liberty Street,44077,41.7097316,-81.2394629
199,North Settlers Lane,44077,41.7082615,-81.2443569
510,Trailwood Drive,44077,41.7121287,-81.2457404
483,Liberty Street,44077,41.7154841,-81.2408431
561,Liberty Street,44077,41.7137188,-81.2403991
740,Liberty Street,44077,41.7095736,-81.2397502
460,Trailwood Drive,44077,41.7119607,-81.2463993
40,Frederic Street,44077,41.7132112,-81.2417166
83,Frederic Street,44077,41.7128929,-81.2426013
747,Liberty Street,44077,41.7094440,-81.2393019
625,Liberty Street,44077,41.7122864,-81.2400254
186,South Settlers Lane,44077,41.7079652,-81.2437996
226,Colonial Drive,44077,41.7070320,-81.2446922
621,Trailwood Drive,44077,41.7116015,-81.2430213
341,Trailwood Drive,44077,41.7105010,-81.2471741
451,Liberty Street,44077,41.7161621,-81.2410044
647,Liberty Street,44077,41.7117561,-81.2398955
574,North Settlers Lane,44077,41.7083816,-81.2456363
600,Trailwood Drive,44077,41.7118391,-81.2439532
469,Liberty Street,44077,41.7158055,-81.2409315
675,Liberty Street,44077,41.7111233,-81.2397616
189,North Settlers Lane,44077,41.7082693,-81.2441365
505,Trailwood Drive,44077,41.7124340,-81.2459124
486,Liberty Street,44077,41.7153562,-81.2411800
745,Liberty Street,44077,41.7095534,-81.2393244
165,North Settlers Lane,44077,41.7084048,-81.2434983
48,Frederic Street,44077,41.7131689,-81.2420410
391,Trailwood Drive,44077,41.7113492,-81.2471975
79,Frederic Street,44077,41.7129123,-81.2424707
176,South Settlers Lane,44077,41.7080204,-81.2435818
146,Colonial Drive,44077,41.7074243,-81.2427563
31,Frederic Street,44077,41.7130712,-81.2413217
626,Liberty Street,44077,41.7121652,-81.2405193
619,Trailwood Drive,44077,41.7117221,-81.2431438
600,Glenwood Drive,44077,41.7053323,-81.2509210
460,Overlook Court,44077,41.7065648,-81.2526451
628,Glenwood Drive,44077,41.7053070,-81.2502786
434,Hawkins Drive,44077,41.7073888,-81.2525527
651,Glenwood Drive,44077,41.7056447,-81.2498276
541,Cedarbrook Drive,44077,41.7078595,-81.2526770
527,Cedarbrook Drive,44077,41.7081161,-81.2521244
499,Glenwood Drive,44077,41.7056486,-81.2527181
457,Hawkins Drive,44077,41.7070099,-81.2519910
527,Malvern Drive,44077,41.7070297,-81.2494190
536,Glenwood Drive,44077,41.7052550,-81.2521281
501,Hawkins Drive,44077,41.7063384,-81.2513057
467,Southington Boulevard,44077,41.7076233,-81.2506556
480,Malvern Drive,44077,41.7079636,-81.2497798
559,Glenwood Drive,44077,41.7056872,-81.2516836
433,Cedarbrook Drive,44077,41.7089913,-81.2501958
448,Southington Boulevard,44077,41.7080739,-81.2510927
443,Glenwood Drive,44077,41.7063479,-81.2536894
469,Glenwood Drive,44077,41.7058597,-81.2534078
491,Cedarbrook Drive,44077,41.7084098,-81.2514040
401,Cedarbrook Drive,44077,41.7091991,-81.2495133
472,Sherwood Court,44077,41.7052625,-81.2539306
465,Malvern Drive,44077,41.7083188,-81.2493958
556,Southington Boulevard,44077,41.7062848,-81.2499517
518,Southington Boulevard,44077,41.7067340,-81.2503708
408,Glenwood Drive,44077,41.7070915,-81.2541690
492,Southington Boulevard,44077,41.7070888,-81.2507668
425,Glenwood Drive,44077,41.7066670,-81.2536550
601,Glenwood Drive,44077,41.7056791,-81.2509334
464,Overlook Court,44077,41.7064106,-81.2526935
618,Glenwood Drive,44077,41.7052934,-81.2504560
440,Hawkins Drive,44077,41.7071970,-81.2525071
648,Glenwood Drive,44077,41.7052972,-81.2497902
519,Cedarbrook Drive,44077,41.7081982,-81.2519519
570,Southington Boulevard,44077,41.7061122,-81.2498588
500,Glenwood Drive,44077,41.7053418,-81.2528908
445,Hawkins Drive,44077,41.7071720,-81.2520664
521,Malvern Drive,44077,41.7072024,-81.2493136
527,Glenwood Drive,44077,41.7056519,-81.2522919
495,Hawkins Drive,44077,41.7065025,-81.2514472
468,Southington Boulevard,44077,41.7075434,-81.2511134
488,Malvern Drive,44077,41.7077690,-81.2497642
560,Glenwood Drive,44077,41.7053320,-81.2517288
480,Overlook Court,44077,41.7063854,-81.2519937
455,Southington Boulevard,44077,41.7079519,-81.2506522
436,Glenwood Drive,44077,41.7064300,-81.2540809
450,Malvern Drive,44077,41.7086359,-81.2498606
457,Cedarbrook Drive,44077,41.7088425,-81.2505464
469,Southington Boulevard,44077,41.7086502,-81.2507456
459,Glenwood Drive,44077,41.7060230,-81.2535314
511,Cedarbrook Drive,44077,41.7082751,-81.2517713
459,Malvern Drive,44077,41.7084909,-81.2493442
565,Southington Boulevard,44077,41.7062963,-81.2494634
530,Southington Boulevard,44077,41.7066005,-81.2502359
405,Glenwood Drive,44077,41.7071742,-81.2535420
499,Southington Boulevard,44077,41.7072158,-81.2503502
424,Glenwood Drive,44077,41.7067582,-81.2541284
479,Southington Boulevard,44077,41.7074981,-81.2505941
468,Overlook Court,44077,41.7062757,-81.2525977
625,Glenwood Drive,44077,41.7056478,-81.2504788
446,Hawkins Drive,44077,41.7070697,-81.2524535
638,Glenwood Drive,44077,41.7052691,-81.2500156
575,Southington Boulevard,44077,41.7060787,-81.2493823
489,Glenwood Drive,44077,41.7057298,-81.2529474
439,Hawkins Drive,44077,41.7073277,-81.2521190
515,Malvern Drive,44077,41.7073679,-81.2492797
524,Glenwood Drive,44077,41.7053341,-81.2524007
483,Hawkins Drive,44077,41.7066711,-81.2515695
500,Malvern Drive,44077,41.7076229,-81.2497498
547,Glenwood Drive,44077,41.7056481,-81.2518515
512,Hawkins Drive,44077,41.7060505,-81.2516297
452,Southington Boulevard,44077,41.7078640,-81.2511185
433,Glenwood Drive,44077,41.7065266,-81.2536062
431,Southington Boulevard,44077,41.7084530,-81.2507110
448,Glenwood Drive,44077,41.7060678,-81.2540466
365,Cedarbrook Drive,44077,41.7093228,-81.2486685
481,Cedarbrook Drive,44077,41.7084848,-81.2512318
460,Sherwood Court,44077,41.7056083,-81.2542753
479,Glenwood Drive,44077,41.7057363,-81.2532321
559,Cedarbrook Drive,44077,41.7076831,-81.2530351
485,Malvern Drive,44077,41.7077591,-81.2493260
542,Southington Boulevard,44077,41.7064406,-81.2500798
500,Southington Boulevard,44077,41.7070029,-81.2506482
419,Glenwood Drive,44077,41.7068676,-81.2536149
476,Southington Boulevard,44077,41.7073720,-81.2510759
472,Overlook Court,44077,41.7062289,-81.2523807
608,Glenwood Drive,44077,41.7052914,-81.2507094
450,Hawkins Drive,44077,41.7067617,-81.2523193
643,Glenwood Drive,44077,41.7056510,-81.2500614
417,Hawkins Drive,44077,41.7078716,-81.2521416
664,Glenwood Drive,44077,41.7053254,-81.2493665
488,Glenwood Drive,44077,41.7053570,-81.2531111
431,Hawkins Drive,44077,41.7075149,-81.2520545
491,Malvern Drive,44077,41.7075586,-81.2493219
511,Glenwood Drive,44077,41.7056915,-81.2525312
471,Hawkins Drive,44077,41.7067695,-81.2517364
510,Malvern Drive,44077,41.7074363,-81.2497644
548,Glenwood Drive,44077,41.7053362,-81.2519286
515,Hawkins Drive,44077,41.7060515,-81.2511562
461,Southington Boulevard,44077,41.7078287,-81.2506570
464,Malvern Drive,44077,41.7082942,-81.2498167
580,Glenwood Drive,44077,41.7052451,-81.2511011
445,Cedarbrook Drive,44077,41.7089192,-81.2503738
439,Southington Boulevard,44077,41.7082858,-81.2506646
449,Glenwood Drive,44077,41.7062114,-81.2536177
456,Sherwood Court,44077,41.7056605,-81.2541060
501,Cedarbrook Drive,44077,41.7083611,-81.2516028
445,Malvern Drive,44077,41.7088173,-81.2494711
480,Sherwood Court,44077,41.7054859,-81.2535980
479,Malvern Drive,44077,41.7079674,-81.2493442
545,Southington Boulevard,44077,41.7065761,-81.2496724
506,Southington Boulevard,44077,41.7068695,-81.2504919
416,Glenwood Drive,44077,41.7069191,-81.2541840
484,Southington Boulevard,44077,41.7072219,-81.2508860
476,Overlook Court,44077,41.7063082,-81.2521654
613,Glenwood Drive,44077,41.7056517,-81.2506752
456,Overlook Court,44077,41.7066456,-81.2524982
635,Glenwood Drive,44077,41.7056491,-81.2502639
654,Glenwood Drive,44077,41.7053252,-81.2495844
425,Hawkins Drive,44077,41.7076850,-81.2520681
512,Glenwood Drive,44077,41.7053372,-81.2526412
465,Hawkins Drive,44077,41.7068942,-81.2518705
535,Malvern Drive,44077,41.7068687,-81.2497178
537,Glenwood Drive,44077,41.7056816,-81.2520655
505,Hawkins Drive,44077,41.7061990,-81.2512301
460,Southington Boulevard,44077,41.7077238,-81.2511494
472,Malvern Drive,44077,41.7081280,-81.2497937
579,Glenwood Drive,44077,41.7056475,-81.2511426
447,Southington Boulevard,44077,41.7081220,-81.2506571
442,Glenwood Drive,44077,41.7062422,-81.2540794
421,Cedarbrook Drive,44077,41.7090595,-81.2500038
452,Sherwood Court,44077,41.7057702,-81.2539397
476,Sherwood Court,44077,41.7053572,-81.2537473
549,Cedarbrook Drive,44077,41.7078078,-81.2528463
473,Malvern Drive,44077,41.7081346,-81.2493581
555,Southington Boulevard,44077,41.7064280,-81.2495665
530,Malvern Drive,44077,41.7070776,-81.2500563
411,Glenwood Drive,44077,41.7070048,-81.2536387
491,Southington Boulevard,44077,41.7073326,-81.2504679
430,Glenwood Drive,44077,41.7065965,-81.2540740
708,Mentor Avenue,44077,41.7142351,-81.2583587
162,Park Boulevard,44077,41.7131800,-81.2542503
564,West Walnut Avenue,44077,41.7140441,-81.2545930
658,Belmont Drive,44077,41.7109585,-81.2562553
185,Tiber Drive,44077,41.7179766,-81.2454678
277,Gillett Street,44077,41.7140713,-81.2489995
92,Hartshorn Drive,44077,41.7118717,-81.2581239
37,Levan Drive,44077,41.7160382,-81.2547152
611,Belmont Drive,44077,41.7109857,-81.2550581
250,Marion Avenue,44077,41.7194143,-81.2437781
171,Ardmore Avenue,44077,41.7134967,-81.2532046
62,Hartshorn Drive,44077,41.7125573,-81.2582260
111,Carroll Avenue,44077,41.7133069,-81.2552287
142,Nelson Street,44077,41.7115273,-81.2569826
125,Tiber Drive,44077,41.7189799,-81.2453478
439,West Walnut Avenue,44077,41.7137357,-81.2515065
484,Belmont Drive,44077,41.7121145,-81.2522539
144,Hartshorn Drive,44077,41.7107378,-81.2579560
571,West Walnut Avenue,44077,41.7137205,-81.2547954
158,Carroll Avenue,44077,41.7121552,-81.2556196
49,King Street,44077,41.7179194,-81.2430808
219,Ardmore Avenue,44077,41.7125434,-81.2527792
74,Nelson Street,44077,41.7130218,-81.2571475
169,West High Street,44077,41.7189563,-81.2461486
193,Park Boulevard,44077,41.7122636,-81.2539187
134,Carroll Avenue,44077,41.7127836,-81.2556178
290,West Walnut Avenue,44077,41.7142452,-81.2480689
565,Belmont Drive,44077,41.7112562,-81.2540779
109,Nelson Street,44077,41.7123155,-81.2567062
64,Levan Drive,44077,41.7154533,-81.2544106
188,Carroll Avenue,44077,41.7114213,-81.2556004
350,Marion Avenue,44077,41.7167562,-81.2439626
435,West Walnut Avenue,44077,41.7136686,-81.2513226
165,Park Boulevard,44077,41.7131291,-81.2538521
563,West Walnut Avenue,44077,41.7137196,-81.2546143
661,Belmont Drive,44077,41.7106635,-81.2561818
177,Tiber Drive,44077,41.7180814,-81.2453437
349,West Walnut Avenue,44077,41.7137366,-81.2494120
101,Hartshorn Drive,44077,41.7118263,-81.2577579
49,Levan Drive,44077,41.7159032,-81.2545191
617,Belmont Drive,44077,41.7109428,-81.2552235
254,Marion Avenue,44077,41.7193255,-81.2437134
191,Ardmore Avenue,44077,41.7132790,-81.2529613
71,Hartshorn Drive,44077,41.7124838,-81.2578433
114,Carroll Avenue,44077,41.7132628,-81.2556270
141,Nelson Street,44077,41.7115755,-81.2566191
123,Tiber Drive,44077,41.7190035,-81.2453472
443,West Walnut Avenue,44077,41.7137398,-81.2516891
491,Belmont Drive,44077,41.7117847,-81.2522601
149,Hartshorn Drive,44077,41.7107579,-81.2575903
570,West Walnut Avenue,44077,41.7140118,-81.2547971
163,Carroll Avenue,44077,41.7120715,-81.2552264
43,King Street,44077,41.7179111,-81.2428880
216,Ardmore Avenue,44077,41.7125430,-81.2531484
67,Nelson Street,44077,41.7132442,-81.2567953
155,West High Street,44077,41.7191080,-81.2458375
192,Park Boulevard,44077,41.7122721,-81.2543176
137,Carroll Avenue,44077,41.7126899,-81.2552279
298,West Walnut Avenue,44077,41.7141619,-81.2482843
577,Belmont Drive,44077,41.7111989,-81.2542713
108,Nelson Street,44077,41.7123734,-81.2570957
179,Hartshorn Drive,44077,41.7101147,-81.2575212
56,Levan Drive,44077,41.7155527,-81.2545411
193,Carroll Avenue,44077,41.7113607,-81.2552170
356,Marion Avenue,44077,41.7165975,-81.2439642
501,Belmont Drive,44077,41.7117107,-81.2525504
732,Mentor Avenue,44077,41.7139218,-81.2588767
158,Park Boulevard,44077,41.7132966,-81.2541728
167,Carroll Avenue,44077,41.7119453,-81.2552200
669,Belmont Drive,44077,41.7106193,-81.2563406
169,Tiber Drive,44077,41.7181777,-81.2452142
357,West Walnut Avenue,44077,41.7137329,-81.2496220
102,Hartshorn Drive,44077,41.7117112,-81.2580970
57,Levan Drive,44077,41.7157967,-81.2543293
625,Belmont Drive,44077,41.7108992,-81.2553827
258,Marion Avenue,44077,41.7192356,-81.2437334
188,Ardmore Avenue,44077,41.7131218,-81.2532669
68,Hartshorn Drive,44077,41.7124298,-81.2581866
117,Carroll Avenue,44077,41.7131865,-81.2552290
135,Nelson Street,44077,41.7117044,-81.2566274
121,Tiber Drive,44077,41.7190757,-81.2453400
453,West Walnut Avenue,44077,41.7137493,-81.2518924
150,Hartshorn Drive,44077,41.7106068,-81.2579394
575,West Walnut Avenue,44077,41.7137169,-81.2549598
164,Carroll Avenue,44077,41.7120367,-81.2555959
39,King Street,44077,41.7178940,-81.2427304
223,Ardmore Avenue,44077,41.7124098,-81.2527879
61,Nelson Street,44077,41.7133565,-81.2568200
149,West High Street,44077,41.7191766,-81.2456755
186,Park Boulevard,44077,41.7123832,-81.2543134
138,Carroll Avenue,44077,41.7126406,-81.2556144
299,West Walnut Avenue,44077,41.7138404,-81.2481171
105,Nelson Street,44077,41.7124436,-81.2567067
176,Hartshorn Drive,44077,41.7101260,-81.2579405
50,Levan Drive,44077,41.7156201,-81.2546697
196,Carroll Avenue,44077,41.7112946,-81.2556130
358,Marion Avenue,44077,41.7164821,-81.2439719
513,Belmont Drive,44077,41.7115912,-81.2528749
47,Hartshorn Drive,44077,41.7130578,-81.2579635
150,Park Boulevard,44077,41.7133960,-81.2540656
168,Carroll Avenue,44077,41.7119120,-81.2556176
675,Belmont Drive,44077,41.7105696,-81.2564987
161,Tiber Drive,44077,41.7182665,-81.2450740
367,West Walnut Avenue,44077,41.7137286,-81.2497893
53,Nelson Street,44077,41.7135778,-81.2569381
107,Hartshorn Drive,44077,41.7116962,-81.2577326
67,Levan Drive,44077,41.7157114,-81.2542101
631,Belmont Drive,44077,41.7108469,-81.2555543
168,Tiber Drive,44077,41.7183650,-81.2454912
197,Ardmore Avenue,44077,41.7131618,-81.2529037
77,Hartshorn Drive,44077,41.7123717,-81.2578362
118,Carroll Avenue,44077,41.7131416,-81.2556082
134,Nelson Street,44077,41.7117099,-81.2570110
119,Tiber Drive,44077,41.7191043,-81.2453396
475,West Walnut Avenue,44077,41.7137299,-81.2525210
158,Hartshorn Drive,44077,41.7104967,-81.2579174
579,West Walnut Avenue,44077,41.7137298,-81.2551560
171,Nelson Street,44077,41.7109678,-81.2565291
310,Marion Avenue,44077,41.7179487,-81.2438516
220,Ardmore Avenue,44077,41.7123903,-81.2531877
62,Nelson Street,44077,41.7132780,-81.2572139
187,Park Boulevard,44077,41.7123810,-81.2539412
143,Carroll Avenue,44077,41.7125799,-81.2552183
307,West Walnut Avenue,44077,41.7138071,-81.2482982
100,Nelson Street,44077,41.7124912,-81.2570944
46,Levan Drive,44077,41.7157149,-81.2548283
600,Belmont Drive,44077,41.7113539,-81.2549323
362,Marion Avenue,44077,41.7163345,-81.2439568
519,Belmont Drive,44077,41.7115466,-81.2530422
53,Hartshorn Drive,44077,41.7129135,-81.2579081
529,West Walnut Avenue,44077,41.7137274,-81.2538606
173,Carroll Avenue,44077,41.7118351,-81.2552259
170,Nelson Street,44077,41.7108560,-81.2569177
153,Tiber Drive,44077,41.7183506,-81.2449363
375,West Walnut Avenue,44077,41.7137259,-81.2500338
52,Nelson Street,44077,41.7134250,-81.2573078
108,Hartshorn Drive,44077,41.7115782,-81.2580777
69,Levan Drive,44077,41.7156221,-81.2540314
636,Belmont Drive,44077,41.7110940,-81.2557960
182,Tiber Drive,44077,41.7182479,-81.2456951
198,Ardmore Avenue,44077,41.7129645,-81.2531900
74,Hartshorn Drive,44077,41.7122928,-81.2581674
123,Carroll Avenue,44077,41.7130660,-81.2552324
131,Nelson Street,44077,41.7118236,-81.2566348
117,Tiber Drive,44077,41.7191755,-81.2453341
483,West Walnut Avenue,44077,41.7137352,-81.2527133
155,Hartshorn Drive,44077,41.7106305,-81.2575856
580,West Walnut Avenue,44077,41.7140642,-81.2550048
162,Nelson Street,44077,41.7110396,-81.2569361
312,Marion Avenue,44077,41.7178415,-81.2438631
227,Ardmore Avenue,44077,41.7122757,-81.2527822
119,Hartshorn Drive,44077,41.7114476,-81.2577164
182,Park Boulevard,44077,41.7125192,-81.2543179
144,Carroll Avenue,44077,41.7125340,-81.2556127
264,Marion Avenue,44077,41.7190727,-81.2437315
584,Belmont Drive,44077,41.7114420,-81.2544891
99,Nelson Street,44077,41.7125639,-81.2567205
209,Park Boulevard,44077,41.7118011,-81.2539545
586,Belmont Drive,44077,41.7113872,-81.2547872
368,Marion Avenue,44077,41.7162109,-81.2440050
521,Belmont Drive,44077,41.7115131,-81.2532095
56,Hartshorn Drive,44077,41.7128226,-81.2582759
130,Levan Drive,44077,41.7140879,-81.2540050
174,Carroll Avenue,44077,41.7117956,-81.2556177
145,Tiber Drive,44077,41.7184187,-81.2447579
381,West Walnut Avenue,44077,41.7137308,-81.2501907
45,Nelson Street,44077,41.7137167,-81.2569546
118,Hartshorn Drive,44077,41.7114486,-81.2580579
83,Levan Drive,44077,41.7154507,-81.2538321
639,Belmont Drive,44077,41.7107992,-81.2556976
192,Tiber Drive,44077,41.7181928,-81.2459568
201,Ardmore Avenue,44077,41.7130193,-81.2528135
83,Hartshorn Drive,44077,41.7122343,-81.2578214
124,Carroll Avenue,44077,41.7130178,-81.2556060
128,Nelson Street,44077,41.7118617,-81.2570599
115,Tiber Drive,44077,41.7191982,-81.2453339
489,West Walnut Avenue,44077,41.7137450,-81.2528859
690,Belmont Drive,44077,41.7107029,-81.2572284
90,Carroll Avenue,44077,41.7137885,-81.2555984
159,Nelson Street,44077,41.7111928,-81.2565557
318,Marion Avenue,44077,41.7176736,-81.2438691
228,Ardmore Avenue,44077,41.7121240,-81.2531895
125,Hartshorn Drive,44077,41.7112873,-81.2576837
183,Park Boulevard,44077,41.7125477,-81.2539360
147,Carroll Avenue,44077,41.7124384,-81.2552556
280,Marion Avenue,44077,41.7187702,-81.2437781
216,Park Boulevard,44077,41.7115939,-81.2543183
93,Nelson Street,44077,41.7126853,-81.2567303
204,West High Street,44077,41.7188022,-81.2470812
206,Park Boulevard,44077,41.7118382,-81.2543254
583,Belmont Drive,44077,41.7111497,-81.2544352
372,Marion Avenue,44077,41.7160597,-81.2440323
535,Belmont Drive,44077,41.7114523,-81.2533964
59,Hartshorn Drive,44077,41.7127986,-81.2578972
120,Levan Drive,44077,41.7144079,-81.2540305
177,Carroll Avenue,44077,41.7117122,-81.2552095
137,Tiber Drive,44077,41.7185058,-81.2445972
391,West Walnut Avenue,44077,41.7137392,-81.2503830
50,Nelson Street,44077,41.7135888,-81.2574042
115,Levan Drive,44077,41.7146162,-81.2536215
642,Belmont Drive,44077,41.7110424,-81.2559390
200,Tiber Drive,44077,41.7180380,-81.2460562
310,West Walnut Avenue,44077,41.7140986,-81.2484814
80,Hartshorn Drive,44077,41.7121421,-81.2581550
36,Levan Drive,44077,41.7158055,-81.2549628
125,Nelson Street,44077,41.7119569,-81.2566536
122,West South Street,44077,41.7197155,-81.2452768
501,West Walnut Avenue,44077,41.7137524,-81.2530632
685,Belmont Drive,44077,41.7104462,-81.2569719
98,Carroll Avenue,44077,41.7136557,-81.2556123
156,Nelson Street,44077,41.7112037,-81.2569660
322,Marion Avenue,44077,41.7175385,-81.2438768
231,Ardmore Avenue,44077,41.7121313,-81.2527444
131,Hartshorn Drive,44077,41.7111611,-81.2576671
178,Park Boulevard,44077,41.7126521,-81.2543304
148,Carroll Avenue,44077,41.7124000,-81.2556194
284,Marion Avenue,44077,41.7186499,-81.2437964
212,Park Boulevard,44077,41.7117012,-81.2543279
90,Nelson Street,44077,41.7126504,-81.2571058
199,West High Street,44077,41.7186144,-81.2468141
205,Chestnut Street,44077,41.7089392,-81.2583716
203,Park Boulevard,44077,41.7119697,-81.2539436
589,Belmont Drive,44077,41.7110815,-81.2546485
380,Marion Avenue,44077,41.7159160,-81.2440360
547,Belmont Drive,44077,41.7113981,-81.2535687
60,Hartshorn Drive,44077,41.7126828,-81.2582414
110,Levan Drive,44077,41.7146170,-81.2540266
178,Carroll Avenue,44077,41.7116667,-81.2556186
131,Tiber Drive,44077,41.7186864,-81.2445590
399,West Walnut Avenue,44077,41.7137343,-81.2505698
39,Nelson Street,44077,41.7137663,-81.2571590
537,West Walnut Avenue,44077,41.7137448,-81.2540658
645,Belmont Drive,44077,41.7107605,-81.2558576
203,Tiber Drive,44077,41.7178691,-81.2459845
319,West Walnut Avenue,44077,41.7137536,-81.2486219
85,Hartshorn Drive,44077,41.7120877,-81.2577875
26,Levan Drive,44077,41.7158674,-81.2551850
120,Nelson Street,44077,41.7120056,-81.2570803
226,Marion Avenue,44077,41.7197982,-81.2438678
695,Belmont Drive,44077,41.7103843,-81.2571936
104,Carroll Avenue,44077,41.7135207,-81.2556200
151,Nelson Street,44077,41.7113322,-81.2565854
136,Tiber Drive,44077,41.7188266,-81.2449028
328,Marion Avenue,44077,41.7174426,-81.2438748
237,Ardmore Avenue,44077,41.7119828,-81.2528006
137,Hartshorn Drive,44077,41.7110356,-81.2576496
174,Park Boulevard,44077,41.7127948,-81.2543173
153,Carroll Avenue,44077,41.7123239,-81.2552364
294,Marion Avenue,44077,41.7183858,-81.2438066
207,Ardmore Avenue,44077,41.7128284,-81.2527878
85,Nelson Street,44077,41.7128003,-81.2567480
193,West High Street,44077,41.7186939,-81.2466444
207,Chestnut Street,44077,41.7088553,-81.2583624
202,Park Boulevard,44077,41.7119761,-81.2543109
127,Carroll Avenue,44077,41.7129378,-81.2552222
384,Marion Avenue,44077,41.7157563,-81.2440039
550,Belmont Drive,44077,41.7116784,-81.2536518
65,Hartshorn Drive,44077,41.7126388,-81.2578895
104,Levan Drive,44077,41.7148367,-81.2539972
181,Carroll Avenue,44077,41.7115731,-81.2552195
130,Tiber Drive,44077,41.7188323,-81.2446853
405,West Walnut Avenue,44077,41.7137256,-81.2507677
48,Nelson Street,44077,41.7136874,-81.2574996
549,West Walnut Avenue,44077,41.7137484,-81.2542546
648,Belmont Drive,44077,41.7109963,-81.2560946
199,Tiber Drive,44077,41.7178075,-81.2457882
329,West Walnut Avenue,44077,41.7137477,-81.2488276
86,Hartshorn Drive,44077,41.7120147,-81.2581427
12,Levan Drive,44077,41.7161343,-81.2553958
119,Nelson Street,44077,41.7120711,-81.2566819
234,Marion Avenue,44077,41.7196643,-81.2438300
505,West Walnut Avenue,44077,41.7137359,-81.2532750
170,Hartshorn Drive,44077,41.7102808,-81.2578598
107,Carroll Avenue,44077,41.7134452,-81.2552408
148,Nelson Street,44077,41.7113661,-81.2569834
144,Tiber Drive,44077,41.7187392,-81.2450513
332,Marion Avenue,44077,41.7172809,-81.2439292
236,Ardmore Avenue,44077,41.7119616,-81.2531900
134,Hartshorn Drive,44077,41.7110001,-81.2579616
175,Park Boulevard,44077,41.7128292,-81.2539435
154,Carroll Avenue,44077,41.7122741,-81.2556246
298,Marion Avenue,44077,41.7182194,-81.2438497
212,Ardmore Avenue,44077,41.7126607,-81.2531895
80,Nelson Street,44077,41.7128514,-81.2571633
187,West High Street,44077,41.7188132,-81.2465098
196,Park Boulevard,44077,41.7121189,-81.2543030
128,Carroll Avenue,44077,41.7129097,-81.2555944
281,West Walnut Avenue,44077,41.7139989,-81.2476952
551,Belmont Drive,44077,41.7113586,-81.2537337
114,Nelson Street,44077,41.7121654,-81.2570608
98,Levan Drive,44077,41.7149915,-81.2540166
340,Marion Avenue,44077,41.7170207,-81.2439442
415,West Walnut Avenue,44077,41.7137146,-81.2509406
44,Nelson Street,44077,41.7137891,-81.2576097
173,Park Boulevard,44077,41.7129673,-81.2539258
556,West Walnut Avenue,44077,41.7140280,-81.2544004
651,Belmont Drive,44077,41.7107260,-81.2560254
193,Tiber Drive,44077,41.7178338,-81.2456003
335,West Walnut Avenue,44077,41.7137506,-81.2490362
91,Hartshorn Drive,44077,41.7119609,-81.2577776
29,Levan Drive,44077,41.7161351,-81.2548800
605,Belmont Drive,44077,41.7110316,-81.2548716
240,Marion Avenue,44077,41.7195657,-81.2437962
168,Ardmore Avenue,44077,41.7132765,-81.2535390
169,Hartshorn Drive,44077,41.7102946,-81.2575284
108,Carroll Avenue,44077,41.7133980,-81.2556123
147,Nelson Street,44077,41.7114686,-81.2565855
152,Tiber Drive,44077,41.7186202,-81.2452519
338,Marion Avenue,44077,41.7171331,-81.2439399
242,Ardmore Avenue,44077,41.7118514,-81.2531827
143,Hartshorn Drive,44077,41.7108844,-81.2576202
170,Park Boulevard,44077,41.7129271,-81.2543080
157,Carroll Avenue,44077,41.7122064,-81.2552260
53,King Street,44077,41.7179367,-81.2433865
211,Ardmore Avenue,44077,41.7126845,-81.2527840
79,Nelson Street,44077,41.7129311,-81.2567694
177,West High Street,44077,41.7188887,-81.2463058
197,Park Boulevard,44077,41.7121144,-81.2539334
133,Carroll Avenue,44077,41.7128133,-81.2552275
291,West Walnut Avenue,44077,41.7139188,-81.2478927
559,Belmont Drive,44077,41.7112978,-81.2539015
115,Nelson Street,44077,41.7122033,-81.2566752
70,Levan Drive,44077,41.7153795,-81.2542761
182,Carroll Avenue,44077,41.7115215,-81.2556057
346,Marion Avenue,44077,41.7168664,-81.2439334
421,West Walnut Avenue,44077,41.7137163,-81.2511029
47,Mentor Avenue,44077,41.7234709,-81.2463086
55,Mentor Avenue,44077,41.7234059,-81.2464432
65,Mentor Avenue,44077,41.7232670,-81.2467330
73,Mentor Avenue,44077,41.7231633,-81.2469503
78,Mentor Avenue,44077,41.7232988,-81.2471140
66,Mentor Avenue,44077,41.7233938,-81.2469146
54,Mentor Avenue,44077,41.7235377,-81.2466139
85,Mentor Avenue,44077,41.7230799,-81.2471254
93,Mentor Avenue,44077,41.7229561,-81.2473853
103,Mentor Avenue,44077,41.7229032,-81.2474987
30,Wood Street,44077,41.7221658,-81.2478404
42,Wood Street,44077,41.7219517,-81.2476549
39,Paige Place,44077,41.7211762,-81.2484839
215,Mentor Avenue,44077,41.7213027,-81.2494767
217,Mentor Avenue,44077,41.7212527,-81.2494096
219,Mentor Avenue,44077,41.7212164,-81.2493578
221,Mentor Avenue,44077,41.7211725,-81.2492910
223,Mentor Avenue,44077,41.7211414,-81.2492451
205,Mentor Avenue,44077,41.7215250,-81.2493555
214,Mentor Avenue,44077,41.7215879,-81.2497628
222,Mentor Avenue,44077,41.7214892,-81.2498791
226,Mentor Avenue,44077,41.7214064,-81.2499767
234,Mentor Avenue,44077,41.7212509,-81.2501598
242,Mentor Avenue,44077,41.7211603,-81.2502664
239,Mentor Avenue,44077,41.7210804,-81.2498798
225,Mentor Avenue,44077,41.7211482,-81.2497999
260,Mentor Avenue,44077,41.7209460,-81.2505201
270,Mentor Avenue,44077,41.7207618,-81.2507383
276,Mentor Avenue,44077,41.7206736,-81.2508409
286,Mentor Avenue,44077,41.7206244,-81.2508990
286,Mentor Avenue,44077,41.7206126,-81.2509090
286,Mentor Avenue,44077,41.7206025,-81.2509185
286,Mentor Avenue,44077,41.7205937,-81.2509273
286,Mentor Avenue,44077,41.7205828,-81.2509394
286,Mentor Avenue,44077,41.7205727,-81.2509522
286,Mentor Avenue,44077,41.7205617,-81.2509635
291,Mentor Avenue,44077,41.7202710,-81.2508302
299,Mentor Avenue,44077,41.7201739,-81.2509428
305,Mentor Avenue,44077,41.7201185,-81.2510077
319,Mentor Avenue,44077,41.7199563,-81.2511984
309,West Washington Street,44077,41.7190146,-81.2499718
391,West Washington Street,44077,41.7185348,-81.2499581
391,West Washington Street,44077,41.7168384,-81.2525564
391,West Washington Street,44077,41.7171830,-81.2530094
391,West Washington Street,44077,41.7171610,-81.2536664
391,West Washington Street,44077,41.7175618,-81.2513814
391,West Washington Street,44077,41.7179582,-81.2519516
391,West Washington Street,44077,41.7170390,-81.2503652
391,West Washington Street,44077,41.7175586,-81.2505354
391,West Washington Street,44077,41.7163360,-81.2514000
391,West Washington Street,44077,41.7163928,-81.2507694
391,West Washington Street,44077,41.7157178,-81.2529310
391,West Washington Street,44077,41.7150847,-81.2530809
391,West Washington Street,44077,41.7141862,-81.2525477
391,West Washington Street,44077,41.7148509,-81.2521423
467,West Walnut Avenue,44077,41.7137379,-81.2522932
255,Richmond Street,44077,41.7262320,-81.2520963
1512,West Jackson Street,44077,41.7045230,-81.2786837
1,Liberty Street,44077,41.7244276,-81.2441860
870,Renaissance Parkway,44060,41.7160008,-81.2720962
800,Renaissance Parkway,44060,41.7168543,-81.2702117
448,Hickory Lane,44077,41.7109143,-81.2501888
434,Hickory Lane,44077,41.7105453,-81.2499713
428,Hickory Lane,44077,41.7103572,-81.2499816
454,Hickory Lane,44077,41.7109949,-81.2504392
458,Hickory Lane,44077,41.7111065,-81.2506358
464,Hickory Lane,44077,41.7111142,-81.2508706
386,Cedarbrook Drive,44077,41.7096995,-81.2491366
396,Cedarbrook Drive,44077,41.7096930,-81.2493587
406,Cedarbrook Drive,44077,41.7095715,-81.2498162
419,Hickory Lane,44077,41.7099293,-81.2503426
423,Hickory Lane,44077,41.7101400,-81.2507505
429,Hickory Lane,44077,41.7102850,-81.2508189
477,Hickory Lane,44077,41.7105445,-81.2511728
483,Hickory Lane,44077,41.7105210,-81.2514075
470,Hickory Lane,44077,41.7110504,-81.2511146
476,Hickory Lane,44077,41.7110030,-81.2513473
482,Hickory Lane,44077,41.7109565,-81.2515268
488,Hickory Lane,44077,41.7108568,-81.2516931
494,Hickory Lane,44077,41.7107960,-81.2519180
500,Hickory Lane,44077,41.7107303,-81.2521481
331,Southington Boulevard,44077,41.7103920,-81.2517655
341,Southington Boulevard,44077,41.7102270,-81.2516920
361,Southington Boulevard,44077,41.7099210,-81.2515195
371,Southington Boulevard,44077,41.7098102,-81.2513506
381,Southington Boulevard,44077,41.7096725,-81.2511380
458,Cedarbrook Drive,44077,41.7092300,-81.2508050
434,Cedarbrook Drive,44077,41.7093835,-81.2504402
422,Cedarbrook Drive,44077,41.7094850,-81.2502576
98,Pearl Street,44077,41.7195105,-81.2396275
39,Pearl Street,44077,41.7205040,-81.2411470
"115,113,111,109,107",West South Street,44077,41.7194208,-81.2446188
"117,121,123,125,127",West South Street,44077,41.7192718,-81.2450211
180,Wood Street,44077,41.7198323,-81.2464034
191,West High Street,44077,41.7191933,-81.2466097
150,West South Street,44077,41.7195191,-81.2458084
25,South St. Clair Street,44077,41.7250943,-81.2417824
47,South State Street,44077,41.7254195,-81.2403995
184,Phelps Street,44077,41.7276740,-81.2428380
3,West Erie Street,44077,41.7245575,-81.2465866
1016,Bank Street,44077,41.7083880,-81.2353445
263,Liberty Street,44077,41.7198644,-81.2418481
505,Liberty Street,44077,41.7151133,-81.2402131
566,Liberty Street,44077,41.7135714,-81.2408575
400,Cedarbrook Drive,44077,41.7096690,-81.2495944
412,Cedarbrook Drive,44077,41.7095216,-81.2500338
446,Cedarbrook Drive,44077,41.7093426,-81.2506515
341,Chestnut Street,44077,41.7047788,-81.2551813
391,Southington Boulevard,44077,41.7095595,-81.2509236
351,Southington Boulevard,44077,41.7100938,-81.2516258
445,Hickory Lane,44077,41.7106306,-81.2508482
435,Hickory Lane,44077,41.7104853,-81.2507476
421,Hickory Lane,44077,41.7099669,-81.2506246
418,Hickory Lane,44077,41.7100018,-81.2500802
422,Hickory Lane,44077,41.7101859,-81.2499288
442,Hickory Lane,44077,41.7107478,-81.2500267
171,Chestnut Street,44077,41.7096569,-81.2583834
185,Chestnut Street,44077,41.7092089,-81.2579616
206,Chestnut Street,44077,41.7088304,-81.2590193
176,Chestnut Street,44077,41.7094558,-81.2590828
220,Chestnut Street,44077,41.7083917,-81.2597397
727,Mentor Avenue,44077,41.7135782,-81.2581535
119,West South Street,44077,41.7195028,-81.2449686
53,Pearl Street,44077,41.7204901,-81.2408980
602,Cedarbrook Drive,44077,41.7079098,-81.2541452
610,Cedarbrook Drive,44077,41.7078810,-81.2543371
618,Cedarbrook Drive,44077,41.7078923,-81.2545340
605,Cedarbrook Drive,44077,41.7074561,-81.2541522
615,Cedarbrook Drive,44077,41.7074207,-81.2543932
621,Cedarbrook Drive,44077,41.7074479,-81.2545995
629,Cedarbrook Drive,44077,41.7074307,-81.2548149
639,Cedarbrook Drive,44077,41.7074403,-81.2550264
400,Lucille Avenue,44077,41.7064406,-81.2555377
405,Lucille Avenue,44077,41.7063137,-81.2549961
411,Lucille Avenue,44077,41.7061525,-81.2550424
673,Lucille Avenue,44077,41.7060176,-81.2552597
677,Lucille Avenue,44077,41.7059877,-81.2554571
681,Lucille Avenue,44077,41.7059631,-81.2556235
695,Lucille Avenue,44077,41.7059956,-81.2560097
687,Lucille Avenue,44077,41.7059951,-81.2558256
684,Lucille Avenue,44077,41.7063801,-81.2557699
692,Lucille Avenue,44077,41.7063816,-81.2559662
700,Lucille Avenue,44077,41.7063713,-81.2561321
703,Lucille Avenue,44077,41.7059958,-81.2561931
709,Lucille Avenue,44077,41.7059993,-81.2563741
715,Lucille Avenue,44077,41.7059994,-81.2565576
725,Lucille Avenue,44077,41.7059916,-81.2567183
735,Lucille Avenue,44077,41.7059811,-81.2569025
741,Lucille Avenue,44077,41.7060019,-81.2571077
749,Lucille Avenue,44077,41.7060014,-81.2572942
757,Lucille Avenue,44077,41.7060053,-81.2574738
765,Lucille Avenue,44077,41.7060024,-81.2576569
706,Lucille Avenue,44077,41.7063693,-81.2563125
712,Lucille Avenue,44077,41.7063718,-81.2564981
722,Lucille Avenue,44077,41.7063723,-81.2566853
730,Lucille Avenue,44077,41.7063738,-81.2568650
738,Lucille Avenue,44077,41.7063749,-81.2570507
746,Lucille Avenue,44077,41.7063930,-81.2572331
754,Lucille Avenue,44077,41.7063759,-81.2574182
762,Lucille Avenue,44077,41.7063773,-81.2576012
768,Lucille Avenue,44077,41.7063924,-81.2577831
397,Lucille Avenue,44077,41.7064742,-81.2549784
390,Lucille Avenue,44077,41.7066185,-81.2554937
393,Lucille Avenue,44077,41.7066226,-81.2550018
385,Lucille Avenue,44077,41.7067605,-81.2549998
382,Lucille Avenue,44077,41.7067899,-81.2555152
379,Lucille Avenue,44077,41.7069012,-81.2550008
376,Lucille Avenue,44077,41.7069290,-81.2554874
373,Lucille Avenue,44077,41.7070359,-81.2550002
369,Lucille Avenue,44077,41.7071745,-81.2549968
370,Lucille Avenue,44077,41.7070634,-81.2554848
366,Lucille Avenue,44077,41.7072011,-81.2554904
311,Miller Court,44077,41.7071687,-81.2570499
315,Miller Court,44077,41.7070214,-81.2569874
319,Miller Court,44077,41.7068759,-81.2570089
321,Miller Court,44077,41.7067555,-81.2572464
320,Miller Court,44077,41.7067596,-81.2574632
318,Miller Court,44077,41.7068711,-81.2576683
314,Miller Court,44077,41.7070383,-81.2576888
310,Miller Court,44077,41.7071948,-81.2575758
657,Cedarbrook Drive,44077,41.7074531,-81.2554587
665,Cedarbrook Drive,44077,41.7074523,-81.2556709
673,Cedarbrook Drive,44077,41.7074684,-81.2558856
681,Cedarbrook Drive,44077,41.7074755,-81.2560699
686,Cedarbrook Drive,44077,41.7078809,-81.2561511
676,Cedarbrook Drive,44077,41.7078797,-81.2559540
670,Cedarbrook Drive,44077,41.7078963,-81.2557548
660,Cedarbrook Drive,44077,41.7078780,-81.2555583
652,Cedarbrook Drive,44077,41.7078784,-81.2553502
644,Cedarbrook Drive,44077,41.7078646,-81.2551417
634,Cedarbrook Drive,44077,41.7079015,-81.2549367
628,Cedarbrook Drive,44077,41.7078740,-81.2547349
335,East Court,44077,41.7071667,-81.2560107
345,East Court,44077,41.7070177,-81.2559523
347,East Court,44077,41.7068566,-81.2560047
349,East Court,44077,41.7067530,-81.2562118
348,East Court,44077,41.7067674,-81.2564556
346,East Court,44077,41.7069005,-81.2566029
344,East Court,44077,41.7070628,-81.2566207
332,East Court,44077,41.7071993,-81.2565522
710,Cedarbrook Drive,44077,41.7078821,-81.2566779
718,Cedarbrook Drive,44077,41.7078843,-81.2569023
705,Cedarbrook Drive,44077,41.7074571,-81.2565109
711,Cedarbrook Drive,44077,41.7074734,-81.2567332
719,Cedarbrook Drive,44077,41.7074744,-81.2569213
725,Cedarbrook Drive,44077,41.7074743,-81.2571047
724,Cedarbrook Drive,44077,41.7078798,-81.2570930
732,Cedarbrook Drive,44077,41.7078745,-81.2572766
740,Cedarbrook Drive,44077,41.7078824,-81.2574600
746,Cedarbrook Drive,44077,41.7078789,-81.2576428
256,Cedarbrook Drive,44077,41.7078834,-81.2578287
741,Cedarbrook Drive,44077,41.7074753,-81.2575856
749,Cedarbrook Drive,44077,41.7074754,-81.2577670
759,Cedarbrook Drive,44077,41.7074765,-81.2579690
249,Chestnut Street,44077,41.7078322,-81.2582113
243,Chestnut Street,44077,41.7079705,-81.2582472
248,Chestnut Street,44077,41.7078467,-81.2588174
240,Chestnut Street,44077,41.7079891,-81.2588367
231,Chestnut Street,44077,41.7082087,-81.2583259
223,Chestnut Street,44077,41.7083877,-81.2582812
219,Chestnut Street,44077,41.7085225,-81.2582881
230,Chestnut Street,44077,41.7082096,-81.2589415
470,Cedarbrook Drive,44077,41.7089611,-81.2513415
480,Cedarbrook Drive,44077,41.7088894,-81.2515174
500,Cedarbrook Drive,44077,41.7087954,-81.2516808
510,Cedarbrook Drive,44077,41.7086425,-81.2520241
518,Cedarbrook Drive,44077,41.7085601,-81.2522011
532,Cedarbrook Drive,44077,41.7083296,-81.2526845
538,Cedarbrook Drive,44077,41.7082518,-81.2528610
546,Cedarbrook Drive,44077,41.7081970,-81.2530302
556,Cedarbrook Drive,44077,41.7081108,-81.2531937
566,Cedarbrook Drive,44077,41.7080523,-81.2533684
576,Cedarbrook Drive,44077,41.7079989,-81.2535569
400,Southington Boulevard,44077,41.7092227,-81.2515229
390,Southington Boulevard,44077,41.7093502,-81.2517001
380,Southington Boulevard,44077,41.7094547,-81.2518826
370,Southington Boulevard,44077,41.7095932,-81.2520172
360,Southington Boulevard,44077,41.7097460,-81.2521233
350,Southington Boulevard,44077,41.7098986,-81.2522027
340,Southington Boulevard,44077,41.7100765,-81.2522333
330,Southington Boulevard,44077,41.7102077,-81.2523599
506,Hickory Lane,44077,41.7106488,-81.2524007
512,Hickory Lane,44077,41.7106009,-81.2526147
518,Hickory Lane,44077,41.7105415,-81.2528212
522,Hickory Lane,44077,41.7104777,-81.2530342
283,Maplewood Court,44077,41.7100361,-81.2530558
291,Maplewood Court,44077,41.7098893,-81.2528822
299,Maplewood Court,44077,41.7097181,-81.2528344
309,Maplewood Court,44077,41.7095619,-81.2528189
317,Maplewood Court,44077,41.7094533,-81.2525810
325,Maplewood Court,44077,41.7092383,-81.2525152
333,Maplewood Court,44077,41.7090146,-81.2526635
334,Maplewood Court,44077,41.7089491,-81.2529115
326,Maplewood Court,44077,41.7090248,-81.2531506
318,Maplewood Court,44077,41.7091847,-81.2533594
308,Maplewood Court,44077,41.7094142,-81.2533663
298,Maplewood Court,44077,41.7095711,-81.2533830
290,Maplewood Court,44077,41.7097264,-81.2534715
282,Maplewood Court,44077,41.7098591,-81.2535836
532,Hickory Lane,44077,41.7104086,-81.2532580
548,Hickory Lane,44077,41.7103519,-81.2534396
554,Hickory Lane,44077,41.7103011,-81.2536304
566,Hickory Lane,44077,41.7102569,-81.2538624
576,Hickory Lane,44077,41.7101808,-81.2540628
586,Hickory Lane,44077,41.7101310,-81.2542595
600,Hickory Lane,44077,41.7100987,-81.2544944
604,Hickory Lane,44077,41.7101017,-81.2547333
608,Hickory Lane,44077,41.7099973,-81.2549532
612,Hickory Lane,44077,41.7098189,-81.2550523
616,Hickory Lane,44077,41.7096445,-81.2550182
283,Hickory Lane,44077,41.7097049,-81.2542378
291,Hickory Lane,44077,41.7095185,-81.2542065
299,Hickory Lane,44077,41.7093926,-81.2540796
309,Hickory Lane,44077,41.7092117,-81.2540136
317,Hickory Lane,44077,41.7090580,-81.2539672
325,Hickory Lane,44077,41.7089344,-81.2538372
333,Hickory Lane,44077,41.7087569,-81.2537748
341,Hickory Lane,44077,41.7086247,-81.2536525
347,Hickory Lane,44077,41.7084317,-81.2535514
245,Colonial Drive,44077,41.7066095,-81.2450299
255,Colonial Drive,44077,41.7065997,-81.2452535
263,Patriot Court,44077,41.7066181,-81.2454752
273,Patriot Court,44077,41.7066013,-81.2456947
281,Patriot Court,44077,41.7065866,-81.2459132
235,Colonial Drive,44077,41.7066362,-81.2448158
227,Colonial Drive,44077,41.7066738,-81.2445977
219,Colonial Drive,44077,41.7067094,-81.2443842
209,Colonial Drive,44077,41.7067567,-81.2441769
201,Colonial Drive,44077,41.7067884,-81.2439530
193,Colonial Drive,44077,41.7068283,-81.2437392
183,Colonial Drive,44077,41.7068715,-81.2435302
175,Colonial Drive,44077,41.7068939,-81.2433150
165,Colonial Drive,44077,41.7069511,-81.2430988
157,Colonial Drive,44077,41.7069797,-81.2428838
147,Colonial Drive,44077,41.7070341,-81.2426775
137,Colonial Drive,44077,41.7070776,-81.2424611
127,Colonial Drive,44077,41.7071155,-81.2422486
119,Colonial Drive,44077,41.7071492,-81.2420413
111,Colonial Drive,44077,41.7071919,-81.2418340
101,Colonial Drive,44077,41.7072414,-81.2416217
93,Colonial Drive,44077,41.7072764,-81.2413993
83,Colonial Drive,44077,41.7073266,-81.2411925
75,Colonial Drive,44077,41.7073953,-81.2409947
291,Patriot Court,44077,41.7065461,-81.2461261
301,Patriot Court,44077,41.7064725,-81.2463345
309,Patriot Court,44077,41.7063917,-81.2465354
319,Patriot Court,44077,41.7063503,-81.2467732
329,Patriot Court,44077,41.7063104,-81.2470259
340,Patriot Court,44077,41.7067065,-81.2474809
332,Patriot Court,44077,41.7067162,-81.2472592
326,Patriot Court,44077,41.7067145,-81.2470120
612,Colonial Drive,44077,41.7068923,-81.2468852
606,Colonial Drive,44077,41.7070970,-81.2468566
600,Colonial Drive,44077,41.7072882,-81.2468604
596,Colonial Drive,44077,41.7074645,-81.2469007
590,Colonial Drive,44077,41.7076323,-81.2469616
584,Colonial Drive,44077,41.7078231,-81.2469657
578,Colonial Drive,44077,41.7079933,-81.2469658
572,Colonial Drive,44077,41.7081732,-81.2469404
566,Colonial Drive,44077,41.7083202,-81.2468753
560,Colonial Drive,44077,41.7084826,-81.2467923
554,Colonial Drive,44077,41.7086762,-81.2467534
546,Colonial Drive,44077,41.7088748,-81.2467219
540,Colonial Drive,44077,41.7090604,-81.2467329
299,Cedarbrook Drive,44077,41.7093253,-81.2468718
311,Cedarbrook Drive,44077,41.7092891,-81.2471556
321,Cedarbrook Drive,44077,41.7092941,-81.2474349
485,Monroe Boulevard,44077,41.7093017,-81.2479239
277,Cedarbrook Drive,44077,41.7094312,-81.2462929
545,Colonial Drive,44077,41.7091312,-81.2462115
551,Colonial Drive,44077,41.7089217,-81.2461555
557,Colonial Drive,44077,41.7087574,-81.2462030
563,Colonial Drive,44077,41.7085982,-81.2462103
569,Colonial Drive,44077,41.7084220,-81.2462929
575,Colonial Drive,44077,41.7082492,-81.2463484
581,Colonial Drive,44077,41.7080590,-81.2463836
587,Colonial Drive,44077,41.7078632,-81.2464277
593,Colonial Drive,44077,41.7076553,-81.2463997
140,Cedarbrook Drive,44077,41.7114407,-81.2435735
152,Cedarbrook Drive,44077,41.7113718,-81.2438298
760,Congress Drive,44077,41.7075477,-81.2419987
754,Congress Drive,44077,41.7077438,-81.2420642
748,Congress Drive,44077,41.7079313,-81.2421280
131,South Settlers Lane,44077,41.7078380,-81.2424637
141,South Settlers Lane,44077,41.7077929,-81.2426713
149,South Settlers Lane,44077,41.7077388,-81.2428858
159,South Settlers Lane,44077,41.7077027,-81.2431048
167,South Settlers Lane,44077,41.7076832,-81.2433197
177,South Settlers Lane,44077,41.7076328,-81.2435243
187,South Settlers Lane,44077,41.7076056,-81.2437357
197,South Settlers Lane,44077,41.7075598,-81.2439567
205,South Settlers Lane,44077,41.7075126,-81.2441680
213,South Settlers Lane,44077,41.7074758,-81.2443844
223,South Settlers Lane,44077,41.7074428,-81.2445929
231,South Settlers Lane,44077,41.7073938,-81.2448100
239,South Settlers Lane,44077,41.7073681,-81.2450267
612,South Settlers Lane,44077,41.7073461,-81.2452691
606,South Settlers Lane,44077,41.7074123,-81.2455114
600,South Settlers Lane,44077,41.7075341,-81.2456862
458,Malvern Drive,44077,41.7084660,-81.2499147
95,Richmond Street,44077-3251,41.7246771,-81.2480156
7,West Jackson Street,44077,41.7250250,-81.2484066
488,Monroe Boulevard,44077,41.7091898,-81.2484909
637,Monroe Boulevard,44077,41.7051187,-81.2479557
631,Monroe Boulevard,44077,41.7052826,-81.2479555
625,Monroe Boulevard,44077,41.7054476,-81.2479314
619,Monroe Boulevard,44077,41.7056094,-81.2479551
613,Monroe Boulevard,44077,41.7057774,-81.2479321
607,Monroe Boulevard,44077,41.7059390,-81.2479552
601,Monroe Boulevard,44077,41.7061060,-81.2479469
589,Monroe Boulevard,44077,41.7062846,-81.2479538
579,Monroe Boulevard,44077,41.7066621,-81.2479494
573,Monroe Boulevard,44077,41.7068465,-81.2479421
567,Monroe Boulevard,44077,41.7070110,-81.2479230
561,Monroe Boulevard,44077,41.7071703,-81.2479455
555,Monroe Boulevard,44077,41.7073197,-81.2479223
365,Cedarbrook Drive,44077,41.7092643,-81.2486751
490,Monroe Boulevard,44077,41.7089693,-81.2484898
496,Monroe Boulevard,44077,41.7088249,-81.2484935
504,Monroe Boulevard,44077,41.7086594,-81.2485401
510,Monroe Boulevard,44077,41.7084767,-81.2485294
516,Monroe Boulevard,44077,41.7083339,-81.2485200
522,Monroe Boulevard,44077,41.7081505,-81.2485011
528,Monroe Boulevard,44077,41.7079861,-81.2484993
534,Monroe Boulevard,44077,41.7078205,-81.2484987
540,Monroe Boulevard,44077,41.7076596,-81.2485226
546,Monroe Boulevard,44077,41.7074904,-81.2485243
552,Monroe Boulevard,44077,41.7073345,-81.2485276
558,Monroe Boulevard,44077,41.7071682,-81.2485124
564,Monroe Boulevard,44077,41.7070040,-81.2485430
570,Monroe Boulevard,44077,41.7068440,-81.2485793
582,Monroe Boulevard,44077,41.7065103,-81.2485116
588,Monroe Boulevard,44077,41.7063311,-81.2485170
594,Monroe Boulevard,44077,41.7061510,-81.2485190
600,Monroe Boulevard,44077,41.7060065,-81.2485166
699,Glenwood Drive,44077,41.7057264,-81.2485636
893,Glenwood Drive,44077,41.7056878,-81.2487740
683,Glenwood Drive,44077,41.7056881,-81.2490174
551,Monroe Boulevard,44077,41.7074834,-81.2479498
549,Monroe Boulevard,44077,41.7076522,-81.2479449
543,Monroe Boulevard,44077,41.7077975,-81.2478993
535,Monroe Boulevard,44077,41.7079798,-81.2479290
527,Monroe Boulevard,44077,41.7081468,-81.2479187
521,Monroe Boulevard,44077,41.7083145,-81.2479257
515,Monroe Boulevard,44077,41.7084849,-81.2479340
509,Monroe Boulevard,44077,41.7086439,-81.2479213
505,Monroe Boulevard,44077,41.7088141,-81.2479253
495,Monroe Boulevard,44077,41.7089693,-81.2479373
489,Monroe Boulevard,44077,41.7091435,-81.2479034
375,Cedarbrook Drive,44077,41.7092490,-81.2488869
385,Cedarbrook Drive,44077,41.7092362,-81.2491149
395,Cedarbrook Drive,44077,41.7091966,-81.2493132
453,Malvern Drive,44077,41.7086719,-81.2493188
684,Glenwood Drive,44077,41.7052512,-81.2489463
694,Glenwood Drive,44077,41.7052954,-81.2487419
700,Glenwood Drive,44077,41.7052794,-81.2485352
585,Cedarbrook Drive,44077,41.7075013,-81.2536276
579,Cedarbrook Drive,44077,41.7075637,-81.2534261
569,Cedarbrook Drive,44077,41.7075872,-81.2532173
274,Cedarbrook Drive,44077,41.7098733,-81.2464026
264,Cedarbrook Drive,44077,41.7099999,-81.2461778
256,Cedarbrook Drive,44077,41.7100936,-81.2459578
246,Cedarbrook Drive,44077,41.7102373,-81.2458049
236,Cedarbrook Drive,44077,41.7103539,-81.2456333
228,Cedarbrook Drive,44077,41.7104726,-81.2454893
220,Cedarbrook Drive,44077,41.7106293,-81.2453547
212,Cedarbrook Drive,44077,41.7107522,-81.2452150
204,Cedarbrook Drive,44077,41.7108615,-81.2450266
196,Cedarbrook Drive,44077,41.7109676,-81.2448359
188,Cedarbrook Drive,44077,41.7110695,-81.2446537
180,Cedarbrook Drive,44077,41.7111819,-81.2444653
172,Cedarbrook Drive,44077,41.7112614,-81.2442650
162,Cedarbrook Drive,44077,41.7113132,-81.2440436
625,Trailwood Drive,44077,41.7115006,-81.2427948
300,Cedarbrook Drive,44077,41.7097807,-81.2470278
310,Cedarbrook Drive,44077,41.7097349,-81.2472326
320,Cedarbrook Drive,44077,41.7097352,-81.2474476
310,Trailwood Drive,44077,41.7101518,-81.2465670
320,Trailwood Drive,44077,41.7103310,-81.2466223
330,Townmill Court,44077,41.7105095,-81.2466597
332,Townmill Court,44077,41.7105798,-81.2462913
334,Townmill Court,44077,41.7106540,-81.2460714
336,Townmill Court,44077,41.7107878,-81.2459256
338,Townmill Court,44077,41.7109114,-81.2457774
340,Townmill Court,44077,41.7110183,-81.2456161
342,Townmill Court,44077,41.7111115,-81.2454326
344,Townmill Court,44077,41.7111986,-81.2452004
346,Townmill Court,44077,41.7113800,-81.2450436
348,Townmill Court,44077,41.7115606,-81.2450932
347,Townmill Court,44077,41.7116875,-81.2452660
345,Townmill Court,44077,41.7117325,-81.2455473
343,Townmill Court,44077,41.7116028,-81.2457221
341,Townmill Court,44077,41.7114534,-81.2458431
487,North Ashwood Lane,44077,41.7018757,-81.2913116
1997,Spruce Lane,44077,41.7019626,-81.2909938
1998,Spruce Lane,44077,41.7015368,-81.2907718
450,North Ashwood Lane,44077,41.7008895,-81.2915191
728,South State Street,44077,41.7135752,-81.2323650
722,South State Street,44077,41.7136993,-81.2324134
720,South State Street,44077,41.7138497,-81.2324137
704,South State Street,44077,41.7139768,-81.2323918
694,South State Street,44077,41.7141259,-81.2325269
686,South State Street,44077,41.7142600,-81.2326378
676,South State Street,44077,41.7143953,-81.2327132
668,South State Street,44077,41.7145427,-81.2328580
34,South Saint Clair Street,44077,41.7246551,-81.2421142
1356,Elizabeth Boulevard,44077,41.7092125,-81.2771700
700,Mentor Avenue,44077,41.7146111,-81.2585372
1353,Elizabeth Boulevard,44077,41.7098420,-81.2771343
1359,Elizabeth Boulevard,44077,41.7097588,-81.2773300
1365,Elizabeth Boulevard,44077,41.7096333,-81.2775605
1371,Elizabeth Boulevard,44077,41.7094876,-81.2777425
1377,Elizabeth Boulevard,44077,41.7093546,-81.2778898
1383,Elizabeth Boulevard,44077,41.7091853,-81.2779975
1380,Elizabeth Boulevard,44077,41.7088603,-81.2773981
1374,Elizabeth Boulevard,44077,41.7090213,-81.2772765
1368,Elizabeth Boulevard,44077,41.7091530,-81.2771233
1362,Elizabeth Boulevard,44077,41.7092896,-81.2769547
1356,Elizabeth Boulevard,44077,41.7093798,-81.2767529
1350,Elizabeth Boulevard,44077,41.7094699,-81.2765584
