House number,Street name,Postal code,Latitude,Longitude
955,Garden Lake Boulevard,43614,41.6206967,-83.5957636
2621,Monroe Street,43620,41.6605831,-83.5624596
2526,Lawrence Avenue,43610,41.6717499,-83.5644257
5501,Airport Highway,43615,41.6151836,-83.6710383
5206,Monroe Street,43623,41.7016393,-83.6499973
30,Main Street,43605,41.6478225,-83.5294770
22,Main Street,43605,41.6479548,-83.5293697
20,Main Street,43605,41.6481952,-83.5291927
3305,West Central Avenue,43606,41.6769431,-83.6233429
3305,West Central Avenue,43606,41.6767688,-83.6233348
3305,West Central Avenue,43606,41.6765805,-83.6233241
3100,Glendale Ave,43614,41.6165791,-83.6186968
4853,Monroe Street,43623,41.6949033,-83.6346568
3160,Markway Road,43606,41.6768197,-83.6208853
2499,Collingwood Boulevard,43620,41.6709460,-83.5554114
4925,Jackman Road,43613,41.7048787,-83.5868212
3544,Rushland Avenue,43606,41.6847340,-83.6068455
3349,Executive Parkway,43606,41.6815584,-83.6293536
316,North Michigan Street,43604,41.6539728,-83.5391197
3143,West Central Avenue,43606,41.6770545,-83.6204258
611,Monroe Street,43604,41.6497549,-83.5396340
1440,Secor Road,43606,41.6538495,-83.6215532
215,North Summit Street,43604,41.6499689,-83.5349989
3829,Woodley Road,43606,41.6889623,-83.6362376
4756,West Bancroft Street,43615,41.6626332,-83.6555285
1450,Secor Road,43607,41.6542489,-83.6214791
619,Monroe Street,43604,41.6499863,-83.5399665
3636,South Detroit Avenue,43614,41.6003288,-83.6101054
303,North Summit Street,43604,41.6510635,-83.5339300
405,Adams Street,43604,41.6527301,-83.5342667
2801,West Bancroft,43606,41.6601296,-83.6149739
2801,West Bancroft Street,43606,41.6608183,-83.6150938
2801,West Bancroft Street,43606,41.6604446,-83.6140787
10,North Byrne Road,43607,41.6384957,-83.6252222
3115,West Bancroft Street,43606,41.6625764,-83.6189921
2503,West Sylvania Avenue,43613,41.6918744,-83.6040566
101,North Summit Street,43604,41.6487280,-83.5361353
1016,Woodward Avenue,43608,41.6818602,-83.5231904
5329,Monroe Street,43623,41.7015650,-83.6572636
5300,Monroe Street,43623-2886,41.7034193,-83.6557455
3420,Secor Road,43606,41.6829852,-83.6215875
3410,Secor Road,43606,41.6826802,-83.6223065
3430,Secor Road,43606,41.6826855,-83.6220843
3410,Secor Road,43606,41.6826901,-83.6219207
3430,Secor Road,43606,41.6832866,-83.6216216
1400,Woodville Road,43605,41.6298606,-83.5111463
4427,Talmadge Road,43623,41.6983919,-83.6466408
2162,West Alexis Road,43613,41.7268070,-83.5978943
3705,Secor Road,43606,41.6873998,-83.6266844
420,Madison Avenue,43604,41.6519231,-83.5351196
3554,Secor Road,43606,41.6851232,-83.6204895
3504,Secor Road,43606,41.6840151,-83.6223816
5001,Monroe Street,43623,41.6930655,-83.6414956
3337,Secor Road,43606,41.6810523,-83.6233268
3330,West Central Avenue,43606,41.6778199,-83.6242584
5235,North Summit Street,43611,41.7172404,-83.4800641
5820,Hagman Road,43612,41.7239201,-83.5081341
1528,Broadway,43609,41.6318146,-83.5568089
49,South Byrne Road,43615,41.6365711,-83.6255847
1638,North Reynolds Road,43615,41.6544933,-83.6652835
1345,North Reynolds Road,43615-4759,41.6530442,-83.6652660
1317,North Reynolds Road,43615,41.6523809,-83.6651614
540,South Reynolds Road,43615,41.6305571,-83.6653499
33,South Reynolds Road,43615-5925,41.6376661,-83.6639350
5,South Reynolds Road,43616,41.6381962,-83.6636771
36,North Reynolds Road,43615-5214,41.6395966,-83.6639161
2001,Consaul Street,43605,41.6596506,-83.5009467
1896,Front Street,43605,41.6593966,-83.5030101
4133,Talmadge Road,43623,41.6940707,-83.6455820
4109,Talmadge Road,43623,41.6933147,-83.6455471
4306,West Sylvania Avenue,43623,41.6916846,-83.6451079
3380,Lagrange Street,43608,41.6844010,-83.5425824
125,Oak Street,43605,41.6466997,-83.5252237
1015,Navarre Avenue,43605,41.6364037,-83.5154822
5200,Monroe Street,43623,41.7015040,-83.6495074
5200,Monroe Street,43623,41.7015521,-83.6496576
5200,Monroe Street,43623,41.7015882,-83.6498051
5208,Monroe Street,43623,41.7016783,-83.6501189
2518,South Reynolds Road,43614,41.5935691,-83.6657676
2510,South Reynolds Road,43614,41.5942844,-83.6655988
2510,South Reynolds Road,43614,41.5942874,-83.6652836
2502,West Alexis Road,43613,41.7217365,-83.6056636
2502,West Alexis Road,43613,41.7215258,-83.6056401
1702,West Laskey Road,43613,41.7071340,-83.5857753
4925,Jackman Road,43613,41.7050737,-83.5900515
4020,Jackman Road,43612,41.6929515,-83.5843290
1708,Tremainsville Road,43613,41.6929820,-83.5851853
1708,Tremainsville Road,43613,41.6931683,-83.5853543
632,Ogden Avenue,43609,41.6280461,-83.5839929
3424,Glendale Avenue,43614,41.6152671,-83.6243122
151,North Michigan Street,43604,41.6520643,-83.5413378
625,Adams Street,43604,41.6538717,-83.5367097
803,Water Street,43604,41.6551717,-83.5278284
5110,Angola Road,43615,41.6246191,-83.6626864
2000,Regency Court,43623,41.7050189,-83.6457576
534,West Laskey Road,43612,41.7074100,-83.5574202
1122,True Street,43607,41.6525786,-83.5731720
5919,Teletowne Drive,43612,41.7242606,-83.5466796
5919,Teletowne Drive,43612,41.7243617,-83.5466831
5919,Teletowne Drive,43612,41.7243334,-83.5458896
130,South Hawley Street,43609,41.6372859,-83.5697117
4441,North Summit Street,43611-3073,41.7030647,-83.4790074
1405,South Byrne Road,43614,41.6138932,-83.6252191
2040,S Reynolds Road,43614,41.6018925,-83.6700368
1244,Broadway,43609,41.6339073,-83.5528746
3506,Dorr Street,43607,41.6531313,-83.6262163
2304,Maplewood Avenue,43620,41.6662983,-83.5632888
828,Virginia Street,43620,41.6662297,-83.5632200
826,Virginia Street,43620,41.6662330,-83.5629970
824,Virginia Street,43620,41.6662513,-83.5629497
2310,Maplewood Avenue,43620,41.6664469,-83.5632855
2308,Maplewood Avenue,43620,41.6664318,-83.5632851
2342,Maplewood Avenue,43620,41.6674028,-83.5633269
2342,Maplewood Avenue,43620,41.6673395,-83.5633265
2491,Glenwood Avenue,43620,41.6707430,-83.5626331
2485,Glenwood Avenue,43620,41.6705782,-83.5626012
2485,Glenwood Avenue,43620,41.6704408,-83.5626388
2475,Glenwood Avenue,43620,41.6703174,-83.5626353
2471,Glenwood Avenue,43620,41.6701748,-83.5626276
2465,Glenwood Avenue,43620,41.6700345,-83.5626204
2461,Glenwood Avenue,43620,41.6699122,-83.5626371
2455,Glenwood Avenue,43620,41.6697860,-83.5626155
2451,Glenwood Avenue,43620,41.6696391,-83.5625953
2441,Glenwood Avenue,43620,41.6694058,-83.5625280
2439,Glenwood Avenue,43620,41.6693610,-83.5625271
2437,Glenwood Avenue,43620,41.6692578,-83.5625858
2435,Glenwood Avenue,43620,41.6691525,-83.5625827
2433,Glenwood Avenue,43620,41.6690588,-83.5625734
2423,Glenwood Avenue,43620,41.6689405,-83.5624853
2421,Glenwood Avenue,43620,41.6688794,-83.5624850
2419,Glenwood Avenue,43620,41.6687919,-83.5624775
2417,Glenwood Avenue,43620,41.6687413,-83.5624775
2415,Glenwood Avenue,43620,41.6686563,-83.5625635
2407,Glenwood Avenue,43620,41.6684998,-83.5626021
2405,Glenwood Avenue,43620,41.6683738,-83.5625935
2373,Glenwood Avenue,43620,41.6682117,-83.5625731
2369,Glenwood Avenue,43620,41.6680745,-83.5625263
2365,Glenwood Avenue,43620,41.6679763,-83.5625298
2351,Glenwood Avenue,43620,41.6676528,-83.5625397
2347,Glenwood Avenue,43620,41.6675325,-83.5625048
2343,Glenwood Avenue,43620,41.6673862,-83.5625039
2337,Glenwood Avenue,43620,41.6672411,-83.5625030
2333,Glenwood Avenue,43620,41.6671068,-83.5625191
2323,Glenwood Avenue,43620,41.6668381,-83.5625057
2317,Glenwood Avenue,43620,41.6667025,-83.5625110
2327,Glenwood Avenue,43620,41.6669598,-83.5625021
2311,Glenwood Avenue,43620,41.6665367,-83.5625110
2273,Glenwood Avenue,43620,41.6659078,-83.5624654
2267,Glenwood Avenue,43620,41.6657741,-83.5624457
2261,Glenwood Avenue,43620,41.6656277,-83.5624323
2255,Glenwood Avenue,43620,41.6654860,-83.5624565
2251,Glenwood Avenue,43620,41.6653570,-83.5624681
2249,Glenwood Avenue,43620,41.6652207,-83.5624243
2245,Glenwood Avenue,43620,41.6650750,-83.5624386
2157,Glenwood Avenue,43620,41.6635786,-83.5624340
2149,Glenwood Avenue,43620,41.6634044,-83.5624082
2139,Glenwood Avenue,43620,41.6632206,-83.5623964
2137,Glenwood Avenue,43620,41.6630834,-83.5623921
2135,Glenwood Avenue,43620,41.6629261,-83.5623856
2127,Glenwood Avenue,43620,41.6628137,-83.5623760
2121,Glenwood Avenue,43620,41.6626821,-83.5623861
2111,Glenwood Avenue,43620,41.6624022,-83.5623883
2117,Glenwood Avenue,43620,41.6625358,-83.5623883
2103,Glenwood Avenue,43620,41.6621276,-83.5623951
2057,Glenwood Avenue,43620,41.6619887,-83.5623929
2053,Glenwood Avenue,43620,41.6618507,-83.5623790
2047,Glenwood Avenue,43620,41.6616934,-83.5623693
2041,Glenwood Avenue,43620,41.6615369,-83.5623714
2025,Glenwood Avenue,43620,41.6611356,-83.5623553
2017,Glenwood Avenue,43620,41.6610232,-83.5623349
2058,Maplewood Avenue,43610,41.6618372,-83.5630516
2110,Maplewood Avenue,43610,41.6622082,-83.5630916
2112,Maplewood Avenue,43610,41.6623037,-83.5630800
2114,Maplewood Avenue,43610,41.6624029,-83.5630813
2118,Maplewood Avenue,43610,41.6625147,-83.5630968
2120,Maplewood Avenue,43610,41.6626448,-83.5630529
2138,Maplewood Avenue,43610,41.6631696,-83.5630579
2142,Maplewood Avenue,43610,41.6631889,-83.5631742
2144,Maplewood Avenue,43610,41.6632484,-83.5631796
2154,Maplewood Avenue,43610,41.6634606,-83.5630780
2490,Glenwood Avenue,43620,41.6707743,-83.5620505
2488,Glenwood Avenue,43620,41.6707058,-83.5620483
2486,Glenwood Avenue,43620,41.6706591,-83.5620472
2484,Glenwood Avenue,43620,41.6705703,-83.5620438
2482,Glenwood Avenue,43620,41.6705244,-83.5620399
2480,Glenwood Avenue,43620,41.6704635,-83.5620438
2476,Glenwood Avenue,43620,41.6703196,-83.5619701
2472,Glenwood Avenue,43620,41.6701899,-83.5619690
2468,Glenwood Avenue,43620,41.6700885,-83.5619863
2464,Glenwood Avenue,43620,41.6700013,-83.5619813
2460,Glenwood Avenue,43620,41.6699112,-83.5619757
2456,Glenwood Avenue,43620,41.6697986,-83.5619668
2452,Glenwood Avenue,43620,41.6696620,-83.5619425
2448,Glenwood Avenue,43620,41.6695105,-83.5619425
2436,Glenwood Avenue,43620,41.6692428,-83.5619071
2430,Glenwood Avenue,43620,41.6691063,-83.5619143
2422,Glenwood Avenue,43620,41.6689006,-83.5619449
2416,Glenwood Avenue,43620,41.6688013,-83.5619409
2414,Glenwood Avenue,43620,41.6686287,-83.5619200
2410,Glenwood Avenue,43620,41.6683864,-83.5619711
2404,Glenwood Avenue,43620,41.6683720,-83.5619703
2376,Glenwood Avenue,43620,41.6682337,-83.5619019
2370,Glenwood Avenue,43620,41.6680725,-83.5618624
2364,Glenwood Avenue,43620,41.6679648,-83.5618793
2360,Glenwood Avenue,43620,41.6678186,-83.5618737
2354,Glenwood Avenue,43620,41.6676785,-83.5618390
2350,Glenwood Avenue,43620,41.6675251,-83.5618688
2344,Glenwood Avenue,43620,41.6673976,-83.5618334
2340,Glenwood Avenue,43620,41.6672502,-83.5618608
2334,Glenwood Avenue,43620,41.6671209,-83.5618576
2328,Glenwood Avenue,43620,41.6669735,-83.5618511
2324,Glenwood Avenue,43620,41.6668340,-83.5618342
2318,Glenwood Avenue,43620,41.6667095,-83.5618221
2310,Glenwood Avenue,43620,41.6664450,-83.5618651
2304,Glenwood Avenue,43620,41.6663077,-83.5618390
2274,Glenwood Avenue,43620,41.6659095,-83.5618217
2270,Glenwood Avenue,43620,41.6657846,-83.5618066
2268,Glenwood Avenue,43620,41.6656432,-83.5618286
2258,Glenwood Avenue,43620,41.6655157,-83.5618147
2254,Glenwood Avenue,43620,41.6653899,-83.5617961
2248,Glenwood Avenue,43620,41.6652321,-83.5617996
2242,Glenwood Avenue,43620,41.6650968,-83.5617973
2238,Glenwood Avenue,43620,41.6649484,-83.5618112
2232,Glenwood Avenue,43620,41.6648045,-83.5618089
2228,Glenwood Avenue,43620,41.6645443,-83.5618054
2202,Glenwood Avenue,43620,41.6640525,-83.5617195
2160,Glenwood Avenue,43620,41.6635205,-83.5617507
2146,Glenwood Avenue,43620,41.6633616,-83.5617390
2140,Glenwood Avenue,43620,41.6632303,-83.5617641
2136,Glenwood Avenue,43620,41.6630765,-83.5617607
2132,Glenwood Avenue,43620,41.6629352,-83.5617607
2126,Glenwood Avenue,43620,41.6627951,-83.5617507
2120,Glenwood Avenue,43620,41.6626525,-83.5617390
2116,Glenwood Avenue,43620,41.6625199,-83.5617373
2110,Glenwood Avenue,43620,41.6623702,-83.5617388
2108,Glenwood Avenue,43620,41.6622306,-83.5617388
2058,Glenwood Avenue,43620,41.6620358,-83.5617221
2152,Glenwood Avenue,43620,41.6618546,-83.5617221
2148,Glenwood Avenue,43620,41.6617296,-83.5617249
2144,Glenwood Avenue,43620,41.6615890,-83.5617179
2040,Glenwood Avenue,43620,41.6614505,-83.5617193
2032,Glenwood Avenue,43620,41.6612817,-83.5617179
2026,Glenwood Avenue,43620,41.6611088,-83.5617137
2024,Glenwood Avenue,43620,41.6610047,-83.5617137
2018,Glenwood Avenue,43620,41.6608776,-83.5617235
721,West Bancroft Street,43620,41.6637043,-83.5615095
723,West Bancroft Street,43620,41.6637040,-83.5615012
721 1/2,West Bancroft Street,43620,41.6637041,-83.5615163
719,West Bancroft Street,43620,41.6637023,-83.5614591
717,West Bancroft Street,43620,41.6637026,-83.5614524
716,West Bancroft Street,43610,41.6640044,-83.5613332
2217,Hollywood Avenue,43606,41.6643408,-83.5660397
2219,Hollywood Avenue,43606,41.6643630,-83.5660390
2223,Hollywood Avenue,43606,41.6644771,-83.5661120
2229,Hollywood Avenue,43606,41.6646413,-83.5661604
2233,Hollywood Avenue,43606,41.6647543,-83.5661500
2245,Hollywood Avenue,43606,41.6651690,-83.5660695
2247,Hollywood Avenue,43606,41.6652107,-83.5660680
2253,Hollywood Avenue,43606,41.6653248,-83.5660643
2252,Rosewood Avenue,43606,41.6653141,-83.5667693
2250,Rosewood Avenue,43606,41.6651785,-83.5667650
2240,Rosewood Avenue,43606,41.6648992,-83.5667478
2224,Rosewood Avenue,43606,41.6644634,-83.5667499
2218,Rosewood Avenue,43606,41.6643607,-83.5667403
2212,Rosewood Avenue,43606,41.6642034,-83.5667327
2210,Rosewood Avenue,43606,41.6641167,-83.5667327
2208,Rosewood Avenue,43606,41.6640140,-83.5667349
2204,Rosewood Avenue,43606,41.6639032,-83.5667295
2229,Rosewood Avenue,43606,41.6646352,-83.5673215
2237,Rosewood Avenue,43606,41.6648551,-83.5673333
2241,Rosewood Avenue,43606,41.6649578,-83.5673258
2245,Rosewood Avenue,43606,41.6650710,-83.5672753
2225,Rosewood Avenue,43606,41.6650541,-83.5672753
2249,Rosewood Avenue,43606,41.6651641,-83.5673354
2253,Rosewood Avenue,43606,41.6652917,-83.5673365
2265,Rosewood Avenue,43606,41.6656223,-83.5673365
2269,Rosewood Avenue,43606,41.6657371,-83.5673612
2271,Rosewood Avenue,43606,41.6658486,-83.5673848
1015,Virginia Street,43606,41.6658196,-83.5677755
2275,Whitney Avenue,43606,41.6658393,-83.5685793
2267,Whitney Avenue,43606,41.6656426,-83.5685695
2265,Whitney Avenue,43606,41.6655700,-83.5685622
2257,Whitney Avenue,43606,41.6653712,-83.5685653
2249,Whitney Avenue,43606,41.6651813,-83.5685989
2245,Whitney Avenue,43606,41.6650829,-83.5685782
2241,Whitney Avenue,43606,41.6649670,-83.5685668
2224,Whitney Avenue,43606,41.6644761,-83.5679629
2232,Whitney Avenue,43606,41.6646543,-83.5679815
2234,Whitney Avenue,43606,41.6647388,-83.5679923
2238,Whitney Avenue,43606,41.6648071,-83.5679892
2242,Whitney Avenue,43606,41.6648997,-83.5680059
2252,Whitney Avenue,43606,41.6652700,-83.5679844
2258,Whitney Avenue,43606,41.6653829,-83.5680113
2228,Hollywood Avenue,43606,41.6646125,-83.5655110
2617,Robinwood Avenue,43610,41.6734185,-83.5611725
2619,Robinwood Avenue,43610,41.6734320,-83.5611725
675,West Delaware Avenue,43610,41.6708519,-83.5604736
673,West Delaware Avenue,43610,41.6708528,-83.5604607
669,West Delaware Avenue,43610,41.6708475,-83.5602891
671,West Delaware Avenue,43610,41.6708474,-83.5603023
665,West Delaware Avenue,43610,41.6708615,-83.5601188
667,West Delaware Avenue,43610,41.6708615,-83.5601286
2418,Robinwood Avenue,43610,41.6687275,-83.5604679
2416,Robinwood Avenue,43610,41.6687024,-83.5604659
2430,Robinwood Avenue,43610,41.6690204,-83.5604520
2428,Robinwood Avenue,43610,41.6690016,-83.5604520
2321,Robinwood Avenue,43610,41.6668470,-83.5609614
2323,Robinwood Avenue,43610,41.6668858,-83.5609590
2427,Robinwood Avenue,43610,41.6689614,-83.5612066
2425,Robinwood Avenue,43610,41.6690247,-83.5610628
2433,Robinwood Avenue,43610,41.6690419,-83.5612181
2477,Robinwood Avenue,43610,41.6703799,-83.5610801
2475,Robinwood Avenue,43610,41.6703416,-83.5612983
723,West Delaware Avenue,43610,41.6708202,-83.5617874
721,West Delaware Avenue,43610,41.6708216,-83.5617069
719,West Delaware Avenue,43610,41.6708237,-83.5616143
2252,Robinwood Avenue,43610,41.6654651,-83.5603186
2256,Robinwood Avenue,43610,41.6654913,-83.5603219
2140,Robinwood Avenue,43620,41.6632105,-83.5603026
2138,Robinwood Avenue,43620,41.6631825,-83.5603026
2117,Robinwood Avenue,43620,41.6625826,-83.5608546
2119,Robinwood Avenue,43620,41.6626125,-83.5608546
2141,Robinwood Avenue,43620,41.6632123,-83.5608669
2143,Robinwood Avenue,43620,41.6632280,-83.5608674
2540,Monroe Street,43610,41.6599504,-83.5602207
2919,Scottwood Avenue,43610,41.6770727,-83.5597714
2921,Scottwood Avenue,43610,41.6771401,-83.5597697
2407,Scottwood Avenue,43620,41.6684423,-83.5595548
2405,Scottwood Avenue,43620,41.6683888,-83.5596087
2373,Scottwood Avenue,43620,41.6683707,-83.5596078
2371,Scottwood Avenue,43620,41.6682353,-83.5596073
2369,Scottwood Avenue,43620,41.6681989,-83.5596057
2367,Scottwood Avenue,43620,41.6681270,-83.5595489
2365,Scottwood Avenue,43620,41.6680298,-83.5595652
2363,Scottwood Avenue,43620,41.6679475,-83.5595638
2357,Scottwood Avenue,43620,41.6678229,-83.5595848
2359,Scottwood Avenue,43620,41.6678644,-83.5595859
2353,Scottwood Avenue,43620,41.6677312,-83.5595807
2351,Scottwood Avenue,43620,41.6676870,-83.5595813
2349,Scottwood Avenue,43620,41.6676185,-83.5595534
2345,Scottwood Avenue,43620,41.6675148,-83.5595499
2335,Scottwood Avenue,43620,41.6674025,-83.5595934
2560,Scottwood Avenue,43620,41.6680127,-83.5590518
2558,Scottwood Avenue,43620,41.6679799,-83.5590497
648,Winthrop Street,43620,41.6678105,-83.5589724
2338,Scottwood Avenue,43620,41.6674350,-83.5589906
2336,Scottwood Avenue,43620,41.6674031,-83.5589887
2158,Scottwood Avenue,43620,41.6633794,-83.5586294
2156,Scottwood Avenue,43620,41.6633787,-83.5585116
2154,Scottwood Avenue,43620,41.6633812,-83.5583994
2152,Scottwood Avenue,43620,41.6634254,-83.5582355
2150,Scottwood Avenue,43620,41.6633192,-83.5583754
2148,Scottwood Avenue,43620,41.6632536,-83.5583723
2146,Scottwood Avenue,43620,41.6631888,-83.5584049
2144,Scottwood Avenue,43620,41.6631889,-83.5585084
2142,Scottwood Avenue,43620,41.6631840,-83.5586294
2402,Rosewood Avenue,43620,41.6682343,-83.5669282
2400,Rosewood Avenue,43620,41.6681965,-83.5669271
2309,Maplewood Avenue,43620,41.6664631,-83.5636454
2307,Maplewood Avenue,43620,41.6664211,-83.5636467
1735,Oakwood Avenue,43607,41.6560425,-83.5851954
1729,Oakwood Avenue,43607,41.6560562,-83.5850150
1723,Oakwood Avenue,43607,41.6560694,-83.5848049
1719,Oakwood Avenue,43607,41.6560504,-83.5846700
1715,Oakwood Avenue,43607,41.6560534,-83.5844577
1705,Oakwood Avenue,43607,41.6560731,-83.5841445
1701,Oakwood Avenue,43607,41.6560629,-83.5840242
2015,Parkside Drive,43606,41.6648953,-83.5941115
3003,Parkwood Avenue,43610,41.6776145,-83.5577107
3005,Parkwood Avenue,43610,41.6776646,-83.5577110
619,Baldwin Place,43610,41.6741152,-83.5583044
617,Baldwin Place,43610,41.6741156,-83.5582593
615,Islington Street,43610,41.6728143,-83.5578092
2530,Parkwood Avenue,43610,41.6721203,-83.5570222
602,Tennyson Place,43620,41.6700056,-83.5576219
2461,Parkwood Avenue,43620,41.6700452,-83.5575034
2421,Parkwood Avenue,43620,41.6689340,-83.5574832
2423,Parkwood Avenue,43620,41.6689493,-83.5574826
2460,Lawrence Avenue,43620,41.6697870,-83.5645872
2462,Lawrence Avenue,43620,41.6698130,-83.5645872
2347,Parkwood Avenue,43620,41.6676015,-83.5574109
2345,Parkwood Avenue,43620,41.6675743,-83.5574109
2341,Parkwood Avenue,43620,41.6674472,-83.5574062
2343,Parkwood Avenue,43620,41.6674741,-83.5574075
623,Acklin Avenue,43620,41.6668745,-83.5581155
621,Acklin Avenue,43620,41.6668720,-83.5581994
2302,Parkwood Avenue,43620,41.6664219,-83.5570549
546,Virginia Street,43620,41.6663817,-83.5569655
2205,Parkwood Avenue,43620,41.6641338,-83.5574627
606,West Bancroft Street,43620,41.6640613,-83.5576221
603,West Bancroft Street,43620,41.6636907,-83.5575408
2149,Parkwood Avenue,43620,41.6636424,-83.5574676
627,West Bancroft Street,43620,41.6637651,-83.5582242
625,West Bancroft Street,43620,41.6637656,-83.5582549
629,West Bancroft Street,43620,41.6637633,-83.5583419
631,West Bancroft Street,43620,41.6637492,-83.5583606
633,West Bancroft Street,43620,41.6637460,-83.5584551
635,West Bancroft Street,43620,41.6637436,-83.5585765
603,Floyd Street,43620,41.6619476,-83.5575110
601,Floyd Street,43620,41.6619485,-83.5574788
532,Collins Street,43610,41.6757885,-83.5566357
534,Collins Street,43610,41.6757885,-83.5566817
510,Islington Street,43610,41.6731753,-83.5559616
512,Islington Street,43610,41.6731753,-83.5559493
518,Islington Street,43610,41.6731661,-83.5560844
516,Islington Street,43610,41.6731661,-83.5560708
2487,Collingwood Boulevard,43620,41.6707389,-83.5553940
513,West Delaware Avenue,43610,41.6708828,-83.5558447
515,West Delaware Avenue,43610,41.6708993,-83.5558903
517,West Delaware Avenue,43610,41.6709111,-83.5560141
519,West Delaware Avenue,43610,41.6709101,-83.5560724
521,West Delaware Avenue,43610,41.6708915,-83.5561935
523,West Delaware Avenue,43610,41.6708800,-83.5562474
2445,Collingwood Boulevard,43620,41.6697179,-83.5555638
2443,Collingwood Boulevard,43620,41.6695772,-83.5555482
531,Winthrop Street,43620,41.6676490,-83.5564558
533,Winthrop Street,43620,41.6676489,-83.5564976
547,Winthrop Street,43620,41.6676289,-83.5570106
549,Winthrop Street,43620,41.6676278,-83.5570800
519,West Bancroft Street,43620,41.6637468,-83.5559551
521,West Bancroft Street,43620,41.6637461,-83.5560411
4329,Clarewood Drive,43623,41.6964630,-83.6473583
4321,Clarewood Drive,43623,41.6962389,-83.6474310
4311,Clarewood Drive,43623,41.6960371,-83.6475843
4311,Garden Estates Drive,43623,41.6955440,-83.6478407
4305,Garden Estates Drive,43623,41.6954161,-83.6476133
4301,Garden Estates Drive,43623,41.6952564,-83.6474262
4241,Garden Estates Drive,43623,41.6950396,-83.6473119
4233,Garden Estates Drive,43623,41.6948564,-83.6472144
4225,Garden Estates Drive,43623,41.6946245,-83.6472067
4217,Garden Estates Drive,43623,41.6944548,-83.6471721
4209,Garden Estates Drive,43623,41.6942143,-83.6471619
4201,Garden Estates Drive,43623,41.6940051,-83.6471490
4145,Garden Estates Drive,43623,41.6938018,-83.6471378
4137,Garden Estates Drive,43623,41.6935895,-83.6471281
4129,Garden Estates Drive,43623,41.6933635,-83.6471025
4121,Garden Estates Drive,43623,41.6931743,-83.6470721
4115,Garden Estates Drive,43623,41.6929691,-83.6470573
4107,Garden Estates Drive,43623,41.6927349,-83.6470446
4002,Rose Garden Drive,43623,41.6925046,-83.6470391
4001,Rose Garden Drive,43623,41.6920631,-83.6469010
4362,West Sylvania Avenue,43623,41.6916694,-83.6469087
4404,West Sylvania Avenue,43623,41.6916594,-83.6471885
4412,West Sylvania Avenue,43623,41.6916672,-83.6474701
4420,West Sylvania Avenue,43623,41.6916338,-83.6477280
4017,Rose Garden Drive,43623,41.6920433,-83.6477588
4336,Rose Garden Drive,43623,41.6969251,-83.6490228
4344,Rose Garden Drive,43623,41.6971288,-83.6490382
4335,Garden Estates Drive,43623,41.6958108,-83.6486302
4327,Garden Estates Drive,43623,41.6957692,-83.6483320
4321,Garden Estates Drive,43623,41.6956697,-83.6480803
4310,Birch Tree Drive,43623,41.6961649,-83.6479044
4320,Birch Tree Drive,43623,41.6964447,-83.6478557
4326,Birch Tree Drive,43623,41.6966766,-83.6478822
4334,Birch Tree Drive,43623,41.6968694,-83.6478701
4342,Birch Tree Drive,43623,41.6971038,-83.6479359
4343,Birch Tree Drive,43623,41.6971359,-83.6484829
4335,Birch Tree Drive,43623,41.6969256,-83.6485064
4329,Birch Tree Drive,43623,41.6967033,-83.6484867
4321,Birch Tree Drive,43623,41.6964843,-83.6484945
4313,Birch Tree Drive,43623,41.6962717,-83.6484816
4240,Rose Garden Drive,43623,41.6949177,-83.6488102
4235,Barbara Drive,43623,41.6948470,-83.6484644
4225,Barbara Drive,43623,41.6946105,-83.6483396
4219,Barbara Drive,43623,41.6944042,-83.6483320
4211,Barbara Drive,43623,41.6942099,-83.6482846
4203,Barbara Drive,43623,41.6940116,-83.6482659
4145,Barbara Drive,43623,41.6937890,-83.6482529
4137,Barbara Drive,43623,41.6935934,-83.6482685
4129,Barbara Drive,43623,41.6934164,-83.6483174
4121,Barbara Drive,43623,41.6931977,-83.6483113
4115,Barbara Drive,43623,41.6929765,-83.6482879
4107,Barbara Drive,43623,41.6927683,-83.6483028
4101,Barbara Drive,43623,41.6925053,-83.6483472
4102,Rose Garden Drive,43623,41.6926091,-83.6487221
4114,Rose Garden Drive,43623,41.6928629,-83.6487941
4122,Rose Garden Drive,43623,41.6931032,-83.6487475
4130,Rose Garden Drive,43623,41.6934167,-83.6487247
4140,Rose Garden Drive,43623,41.6936766,-83.6487667
4150,Rose Garden Drive,43623,41.6939323,-83.6487519
4210,Rose Garden Drive,43623,41.6941915,-83.6487643
4220,Rose Garden Drive,43623,41.6944262,-83.6487877
4230,Rose Garden Drive,43623,41.6947203,-83.6488212
4118,Garden Estates Drive,43623,41.6931149,-83.6464422
4126,Garden Estates Drive,43623,41.6932875,-83.6464858
4134,Garden Estates Drive,43623,41.6934844,-83.6465242
4142,Garden Estates Drive,43623,41.6936871,-83.6465375
4148,Garden Estates Drive,43623,41.6938942,-83.6465576
4204,Garden Estates Drive,43623,41.6940946,-83.6465871
4212,Garden Estates Drive,43623,41.6942956,-83.6465840
4220,Garden Estates Drive,43623,41.6945011,-83.6465817
4228,Garden Estates Drive,43623,41.6947112,-83.6465652
4236,Garden Estates Drive,43623,41.6949094,-83.6465632
4360,Homerdale Avenue,43623,41.6954048,-83.6467420
4306,Garden Estates Drive,43623,41.6956087,-83.6471048
4308,Clarewood Drive,43623,41.6958280,-83.6469256
4314,Clarewood Drive,43623,41.6960357,-83.6468437
4320,Clarewood Drive,43623,41.6962312,-83.6467922
4328,Clarewood Drive,43623,41.6964605,-83.6467902
4336,Clarewood Drive,43623,41.6966875,-83.6467891
4342,Clarewood Drive,43623,41.6968968,-83.6468119
4339,Talmadge Road,43623,41.6968593,-83.6463416
4350,Clarewood Drive,43623,41.6971150,-83.6467830
4358,Clarewood Drive,43623,41.6973313,-83.6467974
4364,Clarewood Drive,43623,41.6975708,-83.6468754
4402,Clarewood Drive,43623,41.6977315,-83.6470585
4406,Clarewood Drive,43623,41.6977919,-83.6473746
4412,Clarewood Drive,43623,41.6977871,-83.6476261
4420,Clarewood Drive,43623,41.6977809,-83.6479179
4428,Clarewood Drive,43623,41.6977719,-83.6482043
4434,Clarewood Drive,43623,41.6977706,-83.6484928
4442,Clarewood Drive,43623,41.6977976,-83.6487981
4452,Clarewood Drive,43623,41.6977659,-83.6490483
4416,Rose Garden Drive,43623,41.6982305,-83.6489648
4418,Rose Garden Drive,43623,41.6982258,-83.6488968
4420,Rose Garden Drive,43623,41.6982297,-83.6488007
4422,Rose Garden Drive,43623,41.6982229,-83.6487223
4424,Rose Garden Drive,43623,41.6982322,-83.6486412
4426,Rose Garden Drive,43623,41.6982368,-83.6485562
4428,Rose Garden Drive,43623,41.6982312,-83.6484896
4430,Rose Garden Drive,43623,41.6982356,-83.6484001
4432,Rose Garden Drive,43623,41.6982351,-83.6483154
4350,Rose Garden Drive,43623,41.6973189,-83.6490525
4351,Birch Tree Drive,43623,41.6973144,-83.6485860
4350,Birch Tree Drive,43623,41.6973302,-83.6479342
4359,Clarewood Drive,43623,41.6973231,-83.6474292
4351,Clarewood Drive,43623,41.6971286,-83.6473878
4343,Clarewood Drive,43623,41.6968938,-83.6473919
4337,Clarewood Drive,43623,41.6966832,-83.6473816
4053,Rose Garden Drive,43623,41.6921265,-83.6489847
4049,Rose Garden Drive,43623,41.6920267,-83.6487198
4043,Rose Garden Drive,43623,41.6920243,-83.6484112
4436,West Sylvania Avenue,43623,41.6916103,-83.6483997
4444,West Sylvania Avenue,43623,41.6916249,-83.6486960
4452,West Sylvania Avenue,43623,41.6915970,-83.6489704
4009,Rose Garden Drive,43623,41.6920380,-83.6474900
4003,Rose Garden Drive,43623,41.6920572,-83.6472069
4032,Garden Estates Drive,43623,41.6922646,-83.6459990
4102,Garden Estates Drive,43623,41.6925885,-83.6460402
4102,Barbara Drive,43623,41.6925307,-83.6476241
4108,Barbara Drive,43623,41.6927566,-83.6476486
4114,Barbara Drive,43623,41.6929490,-83.6475858
4120,Barbara Drive,43623,41.6931568,-83.6476336
4128,Barbara Drive,43623,41.6933662,-83.6476339
4136,Barbara Drive,43623,41.6935718,-83.6476217
4144,Barbara Drive,43623,41.6937795,-83.6476359
4204,Barbara Drive,43623,41.6939609,-83.6476470
4212,Barbara Drive,43623,41.6941906,-83.6476341
4220,Barbara Drive,43623,41.6944515,-83.6476892
4226,Barbara Drive,43623,41.6946405,-83.6477287
4232,Barbara Drive,43623,41.6948457,-83.6478094
4240,Barbara Drive,43623,41.6950261,-83.6478690
4246,Barbara Drive,43623,41.6952055,-83.6480919
4252,Barbara Drive,43623,41.6953644,-83.6482986
4258,Barbara Drive,43623,41.6954281,-83.6485755
4304,Rose Garden Drive,43623,41.6954965,-83.6489031
4268,Rose Garden Drive,43623,41.6957897,-83.6488947
4312,Rose Garden Drive,43623,41.6962781,-83.6489623
4320,Rose Garden Drive,43623,41.6964881,-83.6489882
4328,Rose Garden Drive,43623,41.6967045,-83.6490184
4618,Nantucket Drive,43623,41.6996638,-83.6560068
4618,Nantucket Drive,43623,41.6996656,-83.6559451
4616,Nantucket Drive,43623,41.6996680,-83.6557510
4616,Nantucket Drive,43623,41.6996684,-83.6556823
4614,Nantucket Drive,43623,41.6996718,-83.6554994
4614,Nantucket Drive,43623,41.6996736,-83.6554373
4562,Nantucket Drive,43623,41.6995728,-83.6572276
4564,Nantucket Drive,43623,41.6995946,-83.6571341
4566,Nantucket Drive,43623,41.6995898,-83.6569914
4568,Nantucket Drive,43623,41.6995890,-83.6568868
4612,Nantucket Drive,43623,41.7001403,-83.6554355
4612,Nantucket Drive,43623,41.7001509,-83.6554733
4610,Nantucket Drive,43623,41.7002417,-83.6556857
4610,Nantucket Drive,43623,41.7002559,-83.6557352
4608,Nantucket Drive,43623,41.7003195,-83.6559544
4608,Nantucket Drive,43623,41.7003360,-83.6559957
4606,Nantucket Drive,43623,41.7003161,-83.6562504
4604,Nantucket Drive,43623,41.7001863,-83.6564658
4604,Nantucket Drive,43623,41.7001535,-83.6564799
4602,Nantucket Drive,43623,41.6999758,-83.6566316
4602,Nantucket Drive,43623,41.6999430,-83.6566487
4646,Nantucket Drive,43623,41.7010849,-83.6557654
4646,Nantucket Drive,43623,41.7010152,-83.6557878
4646,Nantucket Drive,43623,41.7009743,-83.6561086
4646,Nantucket Drive,43623,41.7010360,-83.6561797
4621,Nantucket Drive,43623,41.7007897,-83.6570894
4621,Nantucket Drive,43623,41.7007529,-83.6571147
4611,Nantucket Drive,43623,41.7006170,-83.6571913
4611,Nantucket Drive,43623,41.7005777,-83.6572164
4812,Lerado Road,43623,41.7003959,-83.6575702
4812,Lerado Road,43623,41.7003986,-83.6576154
4818,Lerado Road,43623,41.7003907,-83.6577093
4818,Lerado Road,43623,41.7003930,-83.6577624
4553,Nantucket Drive,43623,41.6998491,-83.6576413
4553,Nantucket Drive,43623,41.6998268,-83.6576606
4547,Nantucket Drive,43623,41.6995859,-83.6578196
4547,Nantucket Drive,43623,41.6995396,-83.6578428
733,Secor Road,43607,41.6475810,-83.6250436
739,Secor Road,43607,41.6477054,-83.6250219
743,Secor Road,43607,41.6478609,-83.6250172
747,Secor Road,43607,41.6479908,-83.6250295
803,Secor Road,43607,41.6482021,-83.6250452
809,Secor Road,43607,41.6483736,-83.6250076
815,Secor Road,43607,41.6485066,-83.6250155
817,Secor Road,43607,41.6486534,-83.6250086
825,Secor Road,43607,41.6488451,-83.6250483
829,Secor Road,43607,41.6489613,-83.6250063
834,Secor Road,43607,41.6490612,-83.6243671
828,Secor Road,43607,41.6489419,-83.6243670
824,Secor Road,43607,41.6488325,-83.6244093
822,Secor Road,43607,41.6487176,-83.6243831
818,Secor Road,43607,41.6484752,-83.6243724
804,Secor Road,43607,41.6482291,-83.6243561
750,Secor Road,43607,41.6480485,-83.6244072
744,Secor Road,43607,41.6478946,-83.6243699
738,Secor Road,43607,41.6477366,-83.6243548
732,Secor Road,43607,41.6475705,-83.6243499
724,Secor Road,43607,41.6472679,-83.6244161
716,Secor Road,43607,41.6470614,-83.6243843
710,Secor Road,43607,41.6469177,-83.6243899
704,Secor Road,43607,41.6467614,-83.6243662
634,Secor Road,43607,41.6465908,-83.6243599
628,Secor Road,43607,41.6464291,-83.6243628
622,Secor Road,43607,41.6462942,-83.6243893
614,Secor Road,43607,41.6460207,-83.6243575
606,Secor Road,43607,41.6458567,-83.6243555
602,Secor Road,43607,41.6457514,-83.6243660
609,Cuthbert Road,43607,41.6459188,-83.6237970
615,Cuthbert Road,43607,41.6460664,-83.6237972
3360,Nebraska Avenue,43607,41.6459786,-83.6230266
3340,Nebraska Avenue,43607,41.6458409,-83.6226019
630,Cuthbert Road,43607,41.6465184,-83.6230490
619,Cuthbert Road,43607,41.6462851,-83.6238110
625,Cuthbert Road,43607,41.6463977,-83.6238067
629,Cuthbert Road,43607,41.6464992,-83.6237944
633,Cuthbert Road,43607,41.6466377,-83.6237995
701,Cuthbert Road,43607,41.6467667,-83.6238020
705,Cuthbert Road,43607,41.6469080,-83.6237964
711,Cuthbert Road,43607,41.6470730,-83.6238053
717,Cuthbert Road,43607,41.6472433,-83.6237960
731,Cuthbert Road,43607,41.6475301,-83.6238247
735,Cuthbert Road,43607,41.6477338,-83.6238071
741,Cuthbert Road,43607,41.6478627,-83.6238109
745,Cuthbert Road,43607,41.6479701,-83.6238149
3054,Nebraska Avenue,43607,41.6458117,-83.6162284
3050,Nebraska Avenue,43607,41.6458084,-83.6160784
3042,Nebraska Avenue,43607,41.6458023,-83.6157852
613,Brookley Boulevard,43607,41.6460348,-83.6158678
908,North Byrne Road,43607,41.6495042,-83.6256420
910,North Byrne Road,43607,41.6496547,-83.6256316
918,North Byrne Road,43607,41.6497861,-83.6256410
928,North Byrne Road,43607,41.6500129,-83.6256546
1002,North Byrne Road,43607,41.6502443,-83.6255933
1008,North Byrne Road,43607,41.6504071,-83.6256156
1018,North Byrne Road,43607,41.6505549,-83.6255903
1027,Secor Road,43607,41.6506990,-83.6249354
1025,Secor Road,43607,41.6505478,-83.6249395
1009,Secor Road,43607,41.6503739,-83.6249973
1001,Secor Road,43607,41.6502194,-83.6250009
929,Secor Road,43607,41.6501099,-83.6249911
919,Secor Road,43607,41.6498912,-83.6249778
917,Secor Road,43607,41.6497405,-83.6250012
909,Secor Road,43607,41.6495627,-83.6249839
905,Secor Road,43607,41.6494081,-83.6250691
834,North Byrne Road,43607,41.6490253,-83.6256267
830,North Byrne Road,43607,41.6488722,-83.6256137
822,North Byrne Road,43607,41.6487359,-83.6256237
818,North Byrne Road,43607,41.6486285,-83.6256406
810,North Byrne Road,43607,41.6483938,-83.6256415
806,North Byrne Road,43607,41.6482476,-83.6256434
752,North Byrne Road,43607,41.6480778,-83.6256181
748,North Byrne Road,43607,41.6479546,-83.6256453
744,North Byrne Road,43607,41.6478586,-83.6255920
736,North Byrne Road,43607,41.6477350,-83.6256270
734,North Byrne Road,43607,41.6475615,-83.6256076
3452,Inverness Avenue,43607,41.6510869,-83.6255143
3448,Inverness Avenue,43607,41.6510967,-83.6252914
3440,Inverness Avenue,43607,41.6510894,-83.6250935
3430,Inverness Avenue,43607,41.6510888,-83.6246305
1101,Secor Road,43607,41.6511541,-83.6242729
1117,Secor Road,43607,41.6512562,-83.6240002
1115,Secor Road,43607,41.6513511,-83.6237966
1125,Secor Road,43607,41.6514752,-83.6235647
1135,Secor Road,43607,41.6516139,-83.6233494
3417,Downing Avenue,43607,41.6516368,-83.6240525
3419,Downing Avenue,43607,41.6516019,-83.6242609
3348,Downing Avenue,43607,41.6520615,-83.6229126
3303,Dorr Street,43607,41.6525000,-83.6214260
1206,Secor Road,43607,41.6520649,-83.6217153
1202,Secor Road,43607,41.6518866,-83.6218202
1118,Keil Road,43607,41.6516728,-83.6219435
1114,Keil Road,43607,41.6514919,-83.6220065
1104,Keil Road,43607,41.6511952,-83.6220254
1154,Secor Road,43607,41.6513956,-83.6226271
1138,Secor Road,43607,41.6512295,-83.6229483
1132,Secor Road,43607,41.6511232,-83.6230738
1022,Cuthbert Road,43607,41.6509350,-83.6232126
1018,Cuthbert Road,43607,41.6507921,-83.6232171
1016,Cuthbert Road,43607,41.6506750,-83.6232436
1008,Cuthbert Road,43607,41.6504979,-83.6232435
1004,Cuthbert Road,43607,41.6503319,-83.6232681
934,Cuthbert Road,43607,41.6502209,-83.6232536
930,Cuthbert Road,43607,41.6500954,-83.6232392
926,Cuthbert Road,43607,41.6499884,-83.6232182
922,Cuthbert Road,43607,41.6498712,-83.6232416
918,Cuthbert Road,43607,41.6496914,-83.6232262
902,Cuthbert Road,43607,41.6493688,-83.6232386
901,Cuthbert Road,43607,41.6493305,-83.6238128
905,Cuthbert Road,43607,41.6494477,-83.6238128
909,Cuthbert Road,43607,41.6495457,-83.6238239
911,Cuthbert Road,43607,41.6496516,-83.6238165
917,Cuthbert Road,43607,41.6497645,-83.6238270
925,Cuthbert Road,43607,41.6500345,-83.6237839
931,Cuthbert Road,43607,41.6501723,-83.6238078
1007,Cuthbert Road,43607,41.6504807,-83.6238190
1108,Secor Road,43607,41.6506813,-83.6240016
1020,Secor Road,43607,41.6505883,-83.6241589
1016,Secor Road,43607,41.6504318,-83.6242575
1006,Secor Road,43607,41.6502584,-83.6243495
930,Secor Road,43607,41.6501007,-83.6244121
928,Secor Road,43607,41.6499932,-83.6243791
922,Secor Road,43607,41.6498354,-83.6243789
916,Secor Road,43607,41.6497140,-83.6243967
910,Secor Road,43607,41.6495068,-83.6243933
904,Secor Road,43607,41.6493704,-83.6243911
722,North Byrne Road,43607,41.6472724,-83.6256059
718,North Byrne Road,43607,41.6471746,-83.6255893
714,North Byrne Road,43607,41.6470691,-83.6256164
710,North Byrne Road,43607,41.6469557,-83.6256261
706,North Byrne Road,43607,41.6468510,-83.6256198
702,North Byrne Road,43607,41.6467371,-83.6256206
634,North Byrne Road,43607,41.6465760,-83.6256172
626,North Byrne Road,43607,41.6463763,-83.6256187
620,North Byrne Road,43607,41.6462045,-83.6255954
614,North Byrne Road,43607,41.6460786,-83.6256266
610,North Byrne Road,43607,41.6459304,-83.6255908
602,North Byrne Road,43607,41.6458006,-83.6255933
603,Secor Road,43607,41.6457924,-83.6250447
607,Secor Road,43607,41.6459499,-83.6250420
613,Secor Road,43607,41.6460825,-83.6250277
617,Secor Road,43607,41.6461863,-83.6250334
621,Secor Road,43607,41.6462968,-83.6250243
629,Secor Road,43607,41.6464812,-83.6250361
633,Secor Road,43607,41.6466257,-83.6250591
703,Secor Road,43607,41.6467802,-83.6250636
709,Secor Road,43607,41.6468943,-83.6250683
715,Secor Road,43607,41.6470699,-83.6250274
721,Secor Road,43607,41.6472379,-83.6250292
817,Cuthbert Road,43607,41.6485616,-83.6238106
821,Cuthbert Road,43607,41.6487126,-83.6238106
825,Cuthbert Road,43607,41.6488515,-83.6238226
829,Cuthbert Road,43607,41.6489470,-83.6238172
3407,Avondale Avenue,43607,41.6490575,-83.6238169
834,Cuthbert Road,43607,41.6490246,-83.6232598
830,Cuthbert Road,43607,41.6488960,-83.6232194
824,Cuthbert Road,43607,41.6487628,-83.6232406
820,Cuthbert Road,43607,41.6486223,-83.6232419
814,Cuthbert Road,43607,41.6484816,-83.6232487
810,Cuthbert Road,43607,41.6483494,-83.6232433
802,Cuthbert Road,43607,41.6482125,-83.6232178
748,Cuthbert Road,43607,41.6480478,-83.6232301
744,Cuthbert Road,43607,41.6478957,-83.6232503
738,Cuthbert Road,43607,41.6477596,-83.6232277
730,Cuthbert Road,43607,41.6475509,-83.6231912
3306,Nebraska Avenue,43607,41.6458408,-83.6217462
605,Searles Road,43607,41.6458415,-83.6214249
611,Searles Road,43607,41.6460759,-83.6214047
621,Searles Road,43607,41.6462700,-83.6214231
629,Searles Road,43607,41.6464790,-83.6214384
633,Searles Road,43607,41.6467039,-83.6214357
705,Searles Road,43607,41.6468841,-83.6214214
717,Searles Road,43607,41.6470852,-83.6214267
721,Searles Road,43607,41.6472584,-83.6213546
729,Searles Road,43607,41.6475513,-83.6214416
733,Searles Road,43607,41.6477261,-83.6214190
745,Searles Road,43607,41.6479263,-83.6214189
801,Searles Road,43607,41.6481478,-83.6214444
807,Searles Road,43607,41.6483700,-83.6213693
813,Searles Road,43607,41.6484791,-83.6213961
817,Searles Road,43607,41.6486219,-83.6213919
819,Searles Road,43607,41.6487607,-83.6213898
829,Searles Road,43607,41.6489004,-83.6214076
833,Searles Road,43607,41.6490345,-83.6213768
834,Keil Road,43607,41.6490380,-83.6219805
830,Keil Road,43607,41.6488990,-83.6220115
824,Keil Road,43607,41.6487555,-83.6220186
820,Keil Road,43607,41.6486262,-83.6219979
814,Keil Road,43607,41.6484877,-83.6220025
810,Keil Road,43607,41.6483472,-83.6219938
809,Keil Road,43607,41.6483541,-83.6225959
813,Keil Road,43607,41.6484762,-83.6225939
817,Keil Road,43607,41.6486531,-83.6226101
823,Keil Road,43607,41.6487705,-83.6226033
833,Keil Road,43607,41.6490313,-83.6225920
749,Cuthbert Road,43607,41.6480815,-83.6238321
805,Cuthbert Road,43607,41.6482196,-83.6238334
809,Cuthbert Road,43607,41.6484075,-83.6238508
902,Keil Road,43607,41.6493643,-83.6220253
910,Keil Road,43607,41.6495495,-83.6220039
916,Keil Road,43607,41.6497160,-83.6220112
920,Keil Road,43607,41.6498760,-83.6220218
928,Keil Road,43607,41.6500557,-83.6220300
934,Keil Road,43607,41.6502086,-83.6220507
1004,Keil Road,43607,41.6503510,-83.6220147
1010,Keil Road,43607,41.6505688,-83.6219977
1012,Keil Road,43607,41.6507076,-83.6220285
1020,Keil Road,43607,41.6508789,-83.6220397
1019,Keil Road,43607,41.6508298,-83.6225773
1015,Keil Road,43607,41.6506752,-83.6226140
1001,Keil Road,43607,41.6503353,-83.6225819
931,Keil Road,43607,41.6501630,-83.6226017
925,Keil Road,43607,41.6500123,-83.6225880
921,Keil Road,43607,41.6498391,-83.6225997
915,Keil Road,43607,41.6496947,-83.6226116
909,Keil Road,43607,41.6495117,-83.6225910
903,Keil Road,43607,41.6493804,-83.6225896
1210,Searles Road,43607,41.6522536,-83.6208392
1202,Searles Road,43607,41.6520441,-83.6208780
1126,Searles Road,43607,41.6517885,-83.6208914
1122,Searles Road,43607,41.6516646,-83.6208663
1116,Searles Road,43607,41.6515490,-83.6208679
1106,Searles Road,43607,41.6514209,-83.6208852
1104,Searles Road,43607,41.6512897,-83.6208878
1102,Searles Road,43607,41.6511851,-83.6209083
1028,Searles Road,43607,41.6508757,-83.6208571
1020,Searles Road,43607,41.6507123,-83.6208412
1010,Searles Road,43607,41.6504214,-83.6208494
926,Searles Road,43607,41.6499900,-83.6208605
922,Searles Road,43607,41.6498677,-83.6208562
914,Searles Road,43607,41.6496519,-83.6208848
910,Searles Road,43607,41.6495402,-83.6208875
906,Searles Road,43607,41.6494326,-83.6208710
905,Searles Road,43607,41.6493972,-83.6213889
909,Searles Road,43607,41.6495530,-83.6213662
917,Searles Road,43607,41.6497820,-83.6213702
921,Searles Road,43607,41.6498885,-83.6213791
929,Searles Road,43607,41.6501119,-83.6213748
933,Searles Road,43607,41.6502179,-83.6213634
1003,Searles Road,43607,41.6504209,-83.6214006
1007,Searles Road,43607,41.6505606,-83.6213837
1013,Searles Road,43607,41.6506706,-83.6213948
1017,Searles Road,43607,41.6507791,-83.6214042
1021,Searles Road,43607,41.6508963,-83.6213892
902,Searles Road,43607,41.6493401,-83.6206542
3226,Avondale Avenue,43607,41.6493935,-83.6203288
3222,Avondale Avenue,43607,41.6493836,-83.6201881
1103,Searles Road,43607,41.6512145,-83.6213921
1111,Searles Road,43607,41.6514327,-83.6213733
1115,Searles Road,43607,41.6515884,-83.6213536
1125,Searles Road,43607,41.6518166,-83.6213921
1205,Searles Road,43607,41.6519644,-83.6213403
3232,Downing Avenue,43607,41.6521129,-83.6204964
3226,Downing Avenue,43607,41.6520867,-83.6203180
3222,Downing Avenue,43607,41.6521019,-83.6201595
3218,Downing Avenue,43607,41.6521046,-83.6199901
1205,Moran Avenue,43607,41.6522004,-83.6195464
3217,Downing Avenue,43607,41.6517475,-83.6199941
3221,Downing Avenue,43607,41.6517500,-83.6201676
3225,Downing Avenue,43607,41.6517644,-83.6203138
3231,Downing Avenue,43607,41.6517400,-83.6204939
1115,Moran Avenue,43607,41.6515779,-83.6195645
1111,Moran Avenue,43607,41.6513447,-83.6195286
3204,Inverness Avenue,43607,41.6512074,-83.6195627
3218,Inverness Avenue,43607,41.6512197,-83.6200131
3222,Inverness Avenue,43607,41.6512138,-83.6201825
3236,Inverness Avenue,43607,41.6512038,-83.6203167
3234,Inverness Avenue,43607,41.6512220,-83.6206033
3223,Inverness Avenue,43607,41.6508378,-83.6202739
3219,Inverness Avenue,43607,41.6508318,-83.6200849
3215,Inverness Avenue,43607,41.6508577,-83.6199684
3207,Inverness Avenue,43607,41.6508399,-83.6196497
3203,Inverness Avenue,43607,41.6508081,-83.6195082
3204,Dolores Avenue,43607,41.6502896,-83.6195140
3208,Dolores Avenue,43607,41.6503080,-83.6196496
3212,Dolores Avenue,43607,41.6503180,-83.6197887
3220,Dolores Avenue,43607,41.6503034,-83.6200958
3226,Dolores Avenue,43607,41.6502936,-83.6202918
3229,Dolores Avenue,43607,41.6499236,-83.6204857
3225,Dolores Avenue,43607,41.6499401,-83.6203383
3217,Dolores Avenue,43607,41.6499047,-83.6200817
3213,Dolores Avenue,43607,41.6498951,-83.6198824
3209,Dolores Avenue,43607,41.6499252,-83.6197065
921,Moran Avenue,43607,41.6498802,-83.6194916
3202,Avondale Avenue,43607,41.6494069,-83.6194664
3206,Avondale Avenue,43607,41.6494093,-83.6196202
3214,Avondale Avenue,43607,41.6493894,-83.6199167
3218,Avondale Avenue,43607,41.6493829,-83.6200481
907,Mackow Drive,43607,41.6495258,-83.6183553
915,Mackow Drive,43607,41.6496698,-83.6183591
923,Mackow Drive,43607,41.6498723,-83.6183636
927,Mackow Drive,43607,41.6500020,-83.6183689
931,Mackow Drive,43607,41.6501092,-83.6183625
1001,Mackow Drive,43607,41.6502203,-83.6183560
1005,Mackow Drive,43607,41.6503290,-83.6183550
1009,Mackow Drive,43607,41.6504358,-83.6183814
1015,Mackow Drive,43607,41.6506166,-83.6184133
1023,Mackow Drive,43607,41.6507676,-83.6183977
3145,Inverness Avenue,43607,41.6508840,-83.6183887
1101,Mackow Drive,43607,41.6511755,-83.6183777
1107,Mackow Drive,43607,41.6512744,-83.6184049
1111,Mackow Drive,43607,41.6513832,-83.6183710
1117,Mackow Drive,43607,41.6515678,-83.6183561
1123,Mackow Drive,43607,41.6517781,-83.6183686
1131,Mackow Drive,43607,41.6519313,-83.6183548
1201,Mackow Drive,43607,41.6520376,-83.6183683
1205,Mackow Drive,43607,41.6521774,-83.6183627
1209,Mackow Drive,43607,41.6522626,-83.6183608
1213,Mackow Drive,43607,41.6523647,-83.6183633
3125,Dorr Street,43607,41.6527488,-83.6178911
1210,Mackow Drive,43607,41.6525939,-83.6178328
1210,Mackow Drive,43607,41.6525487,-83.6178450
1202,Mackow Drive,43607,41.6520569,-83.6178579
1204,Mackow Drive,43607,41.6521483,-83.6178244
1132,Mackow Drive,43607,41.6519593,-83.6178672
627,Elysian Avenue,43607,41.6463493,-83.6113969
649,Elysian Avenue,43607,41.6467699,-83.6112460
701,Elysian Avenue,43607,41.6468743,-83.6111795
709,Elysian Avenue,43607,41.6470561,-83.6112071
715,Elysian Avenue,43607,41.6472279,-83.6112150
716,Turner Avenue,43607,41.6472329,-83.6118077
712,Turner Avenue,43607,41.6471134,-83.6117920
708,Turner Avenue,43607,41.6469273,-83.6118366
700,Turner Avenue,43607,41.6467084,-83.6118441
705,Turner Avenue,43607,41.6469228,-83.6122712
711,Turner Avenue,43607,41.6470826,-83.6122867
715,Turner Avenue,43607,41.6472319,-83.6122724
725,Turner Avenue,43607,41.6474709,-83.6125052
729,Turner Avenue,43607,41.6476104,-83.6123014
726,Turner Avenue,43607,41.6474900,-83.6118008
735,Turner Avenue,43607,41.6477484,-83.6122917
739,Turner Avenue,43607,41.6478608,-83.6122824
743,Turner Avenue,43607,41.6479760,-83.6122881
803,Turner Avenue,43607,41.6480945,-83.6122818
809,Turner Avenue,43607,41.6482385,-83.6122916
823,Turner Avenue,43607,41.6486476,-83.6123046
827,Turner Avenue,43607,41.6487840,-83.6122884
833,Turner Avenue,43607,41.6489159,-83.6122793
2901,Avondale Avenue,43607,41.6490351,-83.6123026
903,Turner Avenue,43607,41.6493820,-83.6122787
909,Turner Avenue,43607,41.6495507,-83.6122906
915,Turner Avenue,43607,41.6496427,-83.6122889
919,Turner Avenue,43607,41.6497855,-83.6122859
921,Turner Avenue,43607,41.6498888,-83.6122803
931,Turner Avenue,43607,41.6501173,-83.6122649
1009,Turner Avenue,43607,41.6503820,-83.6123236
1015,Turner Avenue,43607,41.6505818,-83.6122783
1023,Turner Avenue,43607,41.6507774,-83.6122622
1101,Turner Avenue,43607,41.6511622,-83.6122663
1109,Turner Avenue,43607,41.6514003,-83.6122680
1115,Turner Avenue,43607,41.6515275,-83.6122693
1121,Turner Avenue,43607,41.6516524,-83.6122682
1015,Underwood Avenue,43607,41.6505472,-83.6171687
1023,Underwood Avenue,43607,41.6507919,-83.6171257
1101,Underwood Avenue,43607,41.6511650,-83.6171288
1107,Underwood Avenue,43607,41.6512864,-83.6171436
1113,Underwood Avenue,43607,41.6514559,-83.6171326
1117,Underwood Avenue,43607,41.6515535,-83.6171491
1123,Underwood Avenue,43607,41.6517246,-83.6171886
1129,Underwood Avenue,43607,41.6518843,-83.6171654
3229,Avondale Avenue,43607,41.6489941,-83.6204927
3219,Avondale Avenue,43607,41.6489952,-83.6200642
3201,Avondale Avenue,43607,41.6489740,-83.6196104
821,Moran Avenue,43607,41.6487350,-83.6195357
815,Moran Avenue,43607,41.6486082,-83.6195339
811,Moran Avenue,43607,41.6484732,-83.6195546
807,Moran Avenue,43607,41.6483168,-83.6195526
803,Moran Avenue,43607,41.6481938,-83.6195565
741,Moran Avenue,43607,41.6480587,-83.6195569
737,Moran Avenue,43607,41.6479302,-83.6195573
731,Moran Avenue,43607,41.6477822,-83.6195518
727,Moran Avenue,43607,41.6476402,-83.6195520
721,Moran Avenue,43607,41.6475169,-83.6195521
834,Mackow Drive,43607,41.6489885,-83.6177698
826,Mackow Drive,43607,41.6488394,-83.6178227
820,Mackow Drive,43607,41.6487068,-83.6178315
816,Mackow Drive,43607,41.6485532,-83.6178369
810,Mackow Drive,43607,41.6483516,-83.6178095
746,Mackow Drive,43607,41.6481291,-83.6177546
736,Mackow Drive,43607,41.6478930,-83.6177910
732,Mackow Drive,43607,41.6477070,-83.6178195
726,Mackow Drive,43607,41.6475440,-83.6178492
3120,Victory Avenue,43607,41.6475197,-83.6177513
714,Mackow Drive,43607,41.6471716,-83.6177733
708,Mackow Drive,43607,41.6470197,-83.6177785
702,Mackow Drive,43607,41.6468514,-83.6178259
642,Mackow Drive,43607,41.6466437,-83.6178076
630,Mackow Drive,43607,41.6464382,-83.6178000
624,Mackow Drive,43607,41.6462413,-83.6178218
602,Mackow Drive,43607,41.6460213,-83.6178694
3118,Nebraska Avenue,43607,41.6457774,-83.6176224
3108,Nebraska Avenue,43607,41.6458092,-83.6172726
3104,Nebraska Avenue,43607,41.6457859,-83.6170932
613,Underwood Avenue,43607,41.6460626,-83.6171711
619,Underwood Avenue,43607,41.6462121,-83.6171572
627,Underwood Avenue,43607,41.6463526,-83.6171750
635,Underwood Avenue,43607,41.6467066,-83.6171648
641,Underwood Avenue,43607,41.6468314,-83.6171605
701,Underwood Avenue,43607,41.6469410,-83.6171566
1210,Moran Avenue,43607,41.6521729,-83.6188508
1202,Moran Avenue,43607,41.6519808,-83.6190603
1126,Moran Avenue,43607,41.6518228,-83.6190341
1124,Moran Avenue,43607,41.6517108,-83.6190477
1110,Moran Avenue,43607,41.6513220,-83.6190458
1104,Moran Avenue,43607,41.6511457,-83.6190463
1026,Moran Avenue,43607,41.6508830,-83.6190362
1022,Moran Avenue,43607,41.6507763,-83.6190316
1014,Moran Avenue,43607,41.6505561,-83.6190458
1010,Moran Avenue,43607,41.6504475,-83.6190401
932,Moran Avenue,43607,41.6500905,-83.6190632
926,Moran Avenue,43607,41.6499847,-83.6190646
922,Moran Avenue,43607,41.6498670,-83.6190742
918,Moran Avenue,43607,41.6497581,-83.6190636
916,Moran Avenue,43607,41.6496576,-83.6190652
910,Moran Avenue,43607,41.6495460,-83.6190677
906,Moran Avenue,43607,41.6494357,-83.6190747
902,Moran Avenue,43607,41.6493263,-83.6190687
3153,Avondale Avenue,43607,41.6489982,-83.6189873
711,Moran Avenue,43607,41.6471936,-83.6196046
705,Moran Avenue,43607,41.6470236,-83.6196194
701,Moran Avenue,43607,41.6468324,-83.6195942
635,Moran Avenue,43607,41.6465497,-83.6196310
625,Moran Avenue,43607,41.6462632,-83.6196294
621,Moran Avenue,43607,41.6459837,-83.6196142
605,Moran Avenue,43607,41.6457400,-83.6195934
3232,Nebraska Avenue,43607,41.6459006,-83.6207759
622,Searles Road,43607,41.6462479,-83.6208163
630,Searles Road,43607,41.6464509,-83.6208369
638,Searles Road,43607,41.6466626,-83.6208408
702,Searles Road,43607,41.6468991,-83.6208705
732,Searles Road,43607,41.6478167,-83.6208723
804,Searles Road,43607,41.6481148,-83.6206251
806,Searles Road,43607,41.6485449,-83.6206172
822,Searles Road,43607,41.6487797,-83.6208407
836,Searles Road,43607,41.6490651,-83.6208651
828,Moran Avenue,43607,41.6488471,-83.6190636
822,Moran Avenue,43607,41.6487160,-83.6190569
816,Moran Avenue,43607,41.6485958,-83.6190653
812,Moran Avenue,43607,41.6484537,-83.6190518
808,Moran Avenue,43607,41.6483259,-83.6190640
804,Moran Avenue,43607,41.6481711,-83.6190604
742,Moran Avenue,43607,41.6480403,-83.6190557
738,Moran Avenue,43607,41.6478997,-83.6190650
732,Moran Avenue,43607,41.6477678,-83.6190653
728,Moran Avenue,43607,41.6476278,-83.6190367
722,Moran Avenue,43607,41.6475145,-83.6190639
712,Moran Avenue,43607,41.6471443,-83.6189994
644,Moran Avenue,43607,41.6468717,-83.6189860
636,Moran Avenue,43607,41.6465639,-83.6190025
628,Moran Avenue,43607,41.6463150,-83.6190041
618,Moran Avenue,43607,41.6460852,-83.6189689
612,Moran Avenue,43607,41.6459512,-83.6189866
606,Moran Avenue,43607,41.6457840,-83.6190000
3144,Nebraska Avenue,43607,41.6457957,-83.6185467
607,Mackow Drive,43607,41.6458374,-83.6183756
623,Mackow Drive,43607,41.6462995,-83.6184015
635,Mackow Drive,43607,41.6465240,-83.6183876
641,Mackow Drive,43607,41.6467605,-83.6183778
705,Mackow Drive,43607,41.6469862,-83.6184160
713,Mackow Drive,43607,41.6471730,-83.6184353
731,Mackow Drive,43607,41.6476277,-83.6183989
739,Mackow Drive,43607,41.6478900,-83.6183951
745,Mackow Drive,43607,41.6481683,-83.6183999
809,Mackow Drive,43607,41.6483912,-83.6184115
815,Mackow Drive,43607,41.6486065,-83.6184125
823,Mackow Drive,43607,41.6488002,-83.6184042
833,Mackow Drive,43607,41.6490017,-83.6183621
1128,Mackow Drive,43607,41.6518371,-83.6178454
1126,Mackow Drive,43607,41.6517282,-83.6178510
1124,Mackow Drive,43607,41.6516164,-83.6178667
1112,Mackow Drive,43607,41.6513765,-83.6178295
1104,Mackow Drive,43607,41.6511781,-83.6178373
1026,Mackow Drive,43607,41.6508894,-83.6178793
3123,Inverness Avenue,43607,41.6509106,-83.6178300
1018,Mackow Drive,43607,41.6506711,-83.6178413
1014,Mackow Drive,43607,41.6505628,-83.6178334
1010,Mackow Drive,43607,41.6504495,-83.6178424
1006,Mackow Drive,43607,41.6503447,-83.6178544
1002,Mackow Drive,43607,41.6502270,-83.6178455
932,Mackow Drive,43607,41.6501219,-83.6178298
928,Mackow Drive,43607,41.6500149,-83.6178378
924,Mackow Drive,43607,41.6499008,-83.6178359
920,Mackow Drive,43607,41.6497904,-83.6178448
916,Mackow Drive,43607,41.6496826,-83.6178429
912,Mackow Drive,43607,41.6495668,-83.6178388
908,Mackow Drive,43607,41.6494590,-83.6178446
904,Mackow Drive,43607,41.6493453,-83.6178405
901,Underwood Avenue,43607,41.6493573,-83.6170931
901,Underwood Avenue,43607,41.6493285,-83.6170951
901,Underwood Avenue,43607,41.6493297,-83.6173210
901,Underwood Avenue,43607,41.6493276,-83.6173572
713,Underwood Avenue,43607,41.6470939,-83.6172126
725,Underwood Avenue,43607,41.6475962,-83.6173527
729,Underwood Avenue,43607,41.6477008,-83.6171550
801,Underwood Avenue,43607,41.6480802,-83.6171360
805,Underwood Avenue,43607,41.6481655,-83.6171074
817,Underwood Avenue,43607,41.6484685,-83.6174079
815,Underwood Avenue,43607,41.6484192,-83.6174074
813,Underwood Avenue,43607,41.6483732,-83.6173390
811,Underwood Avenue,43607,41.6483705,-83.6172527
809,Underwood Avenue,43607,41.6483692,-83.6171535
825,Underwood Avenue,43607,41.6486737,-83.6173755
819,Underwood Avenue,43607,41.6486214,-83.6173817
827,Underwood Avenue,43607,41.6487343,-83.6171205
837,Underwood Avenue,43607,41.6490736,-83.6172212
837,Underwood Avenue,43607,41.6490596,-83.6170907
837,Underwood Avenue,43607,41.6489978,-83.6172101
837,Underwood Avenue,43607,41.6490401,-83.6172213
835,Underwood Avenue,43607,41.6490391,-83.6173963
917,Underwood Avenue,43607,41.6497242,-83.6171528
921,Underwood Avenue,43607,41.6498489,-83.6171434
927,Underwood Avenue,43607,41.6500201,-83.6171336
931,Underwood Avenue,43607,41.6501183,-83.6171327
1009,Underwood Avenue,43607,41.6504098,-83.6171240
3019,Nebraska Avenue,43607,41.6445549,-83.6156034
3019,Nebraska Avenue,43607,41.6444710,-83.6155879
3019,Nebraska Avenue,43607,41.6443685,-83.6155963
3019,Nebraska Avenue,43607,41.6442623,-83.6156170
3019,Nebraska Avenue,43607,41.6441775,-83.6155895
3019,Nebraska Avenue,43607,41.6440841,-83.6155743
3019,Nebraska Avenue,43607,41.6439772,-83.6155795
3019,Nebraska Avenue,43607,41.6438831,-83.6155805
3019,Nebraska Avenue,43607,41.6437836,-83.6155871
3019,Nebraska Avenue,43607,41.6436834,-83.6155748
3019,Nebraska Avenue,43607,41.6435797,-83.6156045
3019,Nebraska Avenue,43607,41.6434800,-83.6155895
3019,Nebraska Avenue,43607,41.6433841,-83.6155871
3019,Nebraska Avenue,43607,41.6432801,-83.6155993
3019,Nebraska Avenue,43607,41.6431740,-83.6156180
3019,Nebraska Avenue,43607,41.6430687,-83.6156165
3019,Nebraska Avenue,43607,41.6429810,-83.6155964
3019,Nebraska Avenue,43607,41.6428746,-83.6155986
3019,Nebraska Avenue,43607,41.6427838,-83.6155979
3019,Nebraska Avenue,43607,41.6426718,-83.6156249
3019,Nebraska Avenue,43607,41.6425991,-83.6155810
634,Brookley Boulevard,43607,41.6465897,-83.6152211
630,Brookley Boulevard,43607,41.6464802,-83.6152094
626,Brookley Boulevard,43607,41.6463713,-83.6152240
622,Brookley Boulevard,43607,41.6462658,-83.6152267
618,Brookley Boulevard,43607,41.6461559,-83.6152159
614,Brookley Boulevard,43607,41.6460535,-83.6151971
3026,Nebraska Avenue,43607,41.6458206,-83.6152323
3020,Nebraska Avenue,43607,41.6458009,-83.6150079
3016,Nebraska Avenue,43607,41.6458069,-83.6148580
1205,Underwood Avenue,43607,41.6521358,-83.6171515
1209,Underwood Avenue,43607,41.6522318,-83.6171313
1213,Underwood Avenue,43607,41.6523269,-83.6171179
3063,Dorr Street,43607,41.6526049,-83.6166734
3059,Dorr Street,43607,41.6526001,-83.6165414
3051,Dorr Street,43607,41.6526250,-83.6161871
3047,Dorr Street,43607,41.6526430,-83.6160706
3043,Dorr Street,43607,41.6526146,-83.6159228
1214,Underwood Avenue,43607,41.6523011,-83.6165989
1206,Underwood Avenue,43607,41.6521605,-83.6166305
1202,Underwood Avenue,43607,41.6520324,-83.6166408
1130,Underwood Avenue,43607,41.6518768,-83.6166162
1124,Underwood Avenue,43607,41.6517159,-83.6166409
1118,Underwood Avenue,43607,41.6515799,-83.6166238
1114,Underwood Avenue,43607,41.6514566,-83.6166408
1110,Underwood Avenue,43607,41.6513614,-83.6166501
1106,Underwood Avenue,43607,41.6512676,-83.6166495
1022,Underwood Avenue,43607,41.6507964,-83.6166229
1018,Underwood Avenue,43607,41.6506446,-83.6166328
1012,Underwood Avenue,43607,41.6505038,-83.6166175
1010,Underwood Avenue,43607,41.6503424,-83.6166197
932,Underwood Avenue,43607,41.6501206,-83.6166288
922,Underwood Avenue,43607,41.6498797,-83.6166053
914,Underwood Avenue,43607,41.6496033,-83.6165601
904,Underwood Avenue,43607,41.6493410,-83.6166001
830,Underwood Avenue,43607,41.6488582,-83.6165958
824,Underwood Avenue,43607,41.6487122,-83.6166232
820,Underwood Avenue,43607,41.6485126,-83.6165958
810,Underwood Avenue,43607,41.6482304,-83.6166030
738,Underwood Avenue,43607,41.6478777,-83.6166622
730,Underwood Avenue,43607,41.6476914,-83.6166414
712,Underwood Avenue,43607,41.6472000,-83.6165890
704,Underwood Avenue,43607,41.6469745,-83.6166172
644,Underwood Avenue,43607,41.6468300,-83.6166071
640,Underwood Avenue,43607,41.6467058,-83.6166226
632,Underwood Avenue,43607,41.6465744,-83.6166212
628,Underwood Avenue,43607,41.6464028,-83.6166099
620,Underwood Avenue,43607,41.6462194,-83.6165922
612,Underwood Avenue,43607,41.6460700,-83.6166096
3066,Nebraska Avenue,43607,41.6457808,-83.6166606
3062,Nebraska Avenue,43607,41.6457798,-83.6165168
3058,Nebraska Avenue,43607,41.6458045,-83.6163705
723,Ranch Drive,43607,41.6475311,-83.6145564
729,Ranch Drive,43607,41.6476422,-83.6145313
617,Brookley Boulevard,43607,41.6461451,-83.6158383
621,Brookley Boulevard,43607,41.6462555,-83.6158413
625,Brookley Boulevard,43607,41.6463655,-83.6158495
629,Brookley Boulevard,43607,41.6464689,-83.6158437
633,Brookley Boulevard,43607,41.6465715,-83.6158537
637,Brookley Boulevard,43607,41.6466807,-83.6158411
641,Brookley Boulevard,43607,41.6467876,-83.6158441
705,Brookley Boulevard,43607,41.6469214,-83.6158490
707,Brookley Boulevard,43607,41.6471083,-83.6158338
3047,Victory Avenue,43607,41.6472381,-83.6158763
723,Brookley Boulevard,43607,41.6475064,-83.6158390
727,Brookley Boulevard,43607,41.6476061,-83.6158550
731,Brookley Boulevard,43607,41.6477196,-83.6158479
735,Brookley Boulevard,43607,41.6478753,-83.6158297
801,Brookley Boulevard,43607,41.6480451,-83.6158243
805,Brookley Boulevard,43607,41.6481608,-83.6158428
809,Brookley Boulevard,43607,41.6482684,-83.6158524
813,Brookley Boulevard,43607,41.6483833,-83.6158304
817,Brookley Boulevard,43607,41.6484987,-83.6158335
821,Brookley Boulevard,43607,41.6485853,-83.6158352
825,Brookley Boulevard,43607,41.6486971,-83.6158324
829,Brookley Boulevard,43607,41.6488041,-83.6158722
833,Brookley Boulevard,43607,41.6489143,-83.6158299
839,Brookley Boulevard,43607,41.6490311,-83.6158407
903,Brookley Boulevard,43607,41.6493511,-83.6158603
907,Brookley Boulevard,43607,41.6494614,-83.6158623
911,Brookley Boulevard,43607,41.6495761,-83.6158417
915,Brookley Boulevard,43607,41.6496862,-83.6158615
919,Brookley Boulevard,43607,41.6497889,-83.6158604
923,Brookley Boulevard,43607,41.6499000,-83.6158807
927,Brookley Boulevard,43607,41.6500118,-83.6158501
931,Brookley Boulevard,43607,41.6501150,-83.6158523
1001,Brookley Boulevard,43607,41.6502240,-83.6159111
1005,Brookley Boulevard,43607,41.6503280,-83.6158404
1009,Brookley Boulevard,43607,41.6504337,-83.6158450
1013,Brookley Boulevard,43607,41.6505845,-83.6158535
1019,Brookley Boulevard,43607,41.6507506,-83.6158501
1025,Brookley Boulevard,43607,41.6508808,-83.6158694
1101,Brookley Boulevard,43607,41.6511707,-83.6158442
1107,Brookley Boulevard,43607,41.6512796,-83.6158451
1111,Brookley Boulevard,43607,41.6513959,-83.6158304
1115,Brookley Boulevard,43607,41.6514998,-83.6158504
1119,Brookley Boulevard,43607,41.6516126,-83.6158325
1123,Brookley Boulevard,43607,41.6517098,-83.6158390
1127,Brookley Boulevard,43607,41.6518208,-83.6158383
1201,Brookley Boulevard,43607,41.6520492,-83.6158360
1205,Brookley Boulevard,43607,41.6521505,-83.6158239
1209,Brookley Boulevard,43607,41.6522591,-83.6158269
1215,Brookley Boulevard,43607,41.6523694,-83.6158283
1210,Brookley Boulevard,43607,41.6522536,-83.6152087
1206,Brookley Boulevard,43607,41.6521458,-83.6152091
1202,Brookley Boulevard,43607,41.6520376,-83.6152084
1132,Brookley Boulevard,43607,41.6519243,-83.6152072
1128,Brookley Boulevard,43607,41.6518154,-83.6152235
1124,Brookley Boulevard,43607,41.6517087,-83.6152029
1120,Brookley Boulevard,43607,41.6515938,-83.6151984
1116,Brookley Boulevard,43607,41.6514903,-83.6152204
1112,Brookley Boulevard,43607,41.6513775,-83.6152185
1106,Brookley Boulevard,43607,41.6512679,-83.6152143
1102,Brookley Boulevard,43607,41.6511724,-83.6152108
1026,Brookley Boulevard,43607,41.6508820,-83.6152038
1022,Brookley Boulevard,43607,41.6507802,-83.6152161
1018,Brookley Boulevard,43607,41.6506746,-83.6151929
1014,Brookley Boulevard,43607,41.6505573,-83.6152040
1010,Brookley Boulevard,43607,41.6504430,-83.6151741
1006,Brookley Boulevard,43607,41.6503290,-83.6151938
1002,Brookley Boulevard,43607,41.6502160,-83.6152225
932,Brookley Boulevard,43607,41.6501079,-83.6152109
928,Brookley Boulevard,43607,41.6500016,-83.6152267
924,Brookley Boulevard,43607,41.6498852,-83.6151649
920,Brookley Boulevard,43607,41.6497770,-83.6152081
916,Brookley Boulevard,43607,41.6496660,-83.6152090
912,Brookley Boulevard,43607,41.6495734,-83.6152199
908,Brookley Boulevard,43607,41.6494648,-83.6152196
904,Brookley Boulevard,43607,41.6493450,-83.6152331
838,Brookley Boulevard,43607,41.6490417,-83.6152120
834,Brookley Boulevard,43607,41.6489413,-83.6152075
830,Brookley Boulevard,43607,41.6488283,-83.6152082
826,Brookley Boulevard,43607,41.6487199,-83.6152109
822,Brookley Boulevard,43607,41.6486079,-83.6152081
818,Brookley Boulevard,43607,41.6484997,-83.6152079
814,Brookley Boulevard,43607,41.6483902,-83.6152086
810,Brookley Boulevard,43607,41.6482792,-83.6152109
806,Brookley Boulevard,43607,41.6481665,-83.6152180
802,Brookley Boulevard,43607,41.6480591,-83.6152124
740,Brookley Boulevard,43607,41.6479503,-83.6152068
736,Brookley Boulevard,43607,41.6478414,-83.6152276
732,Brookley Boulevard,43607,41.6477284,-83.6152200
728,Brookley Boulevard,43607,41.6476161,-83.6152145
724,Brookley Boulevard,43607,41.6475064,-83.6152078
714,Brookley Boulevard,43607,41.6472294,-83.6152346
710,Brookley Boulevard,43607,41.6471103,-83.6152287
706,Brookley Boulevard,43607,41.6470079,-83.6152333
702,Brookley Boulevard,43607,41.6468975,-83.6152186
642,Brookley Boulevard,43607,41.6468055,-83.6152128
638,Brookley Boulevard,43607,41.6466981,-83.6152302
2959,Nebraska Avenue,43607,41.6449964,-83.6142946
603,Ranch Drive,43607,41.6457491,-83.6145366
607,Ranch Drive,43607,41.6458783,-83.6145394
611,Ranch Drive,43607,41.6460138,-83.6145417
615,Ranch Drive,43607,41.6461321,-83.6145674
619,Ranch Drive,43607,41.6462388,-83.6145399
623,Ranch Drive,43607,41.6463535,-83.6145301
627,Ranch Drive,43607,41.6464592,-83.6145545
631,Ranch Drive,43607,41.6465708,-83.6145419
635,Ranch Drive,43607,41.6466794,-83.6145458
639,Ranch Drive,43607,41.6467891,-83.6145428
701,Ranch Drive,43607,41.6469070,-83.6145370
705,Ranch Drive,43607,41.6470053,-83.6145490
709,Ranch Drive,43607,41.6471184,-83.6145514
713,Ranch Drive,43607,41.6472214,-83.6145474
3019,Nebraska Avenue,43607,41.6422218,-83.6150515
3019,Nebraska Avenue,43607,41.6420554,-83.6150345
3019,Nebraska Avenue,43607,41.6419951,-83.6147433
3019,Nebraska Avenue,43607,41.6420998,-83.6147219
3019,Nebraska Avenue,43607,41.6422041,-83.6147403
3019,Nebraska Avenue,43607,41.6423230,-83.6147138
3019,Nebraska Avenue,43607,41.6424390,-83.6147237
3019,Nebraska Avenue,43607,41.6425309,-83.6147377
3019,Nebraska Avenue,43607,41.6426441,-83.6147329
3019,Nebraska Avenue,43607,41.6427574,-83.6147191
3019,Nebraska Avenue,43607,41.6428655,-83.6147242
3019,Nebraska Avenue,43607,41.6429786,-83.6147243
3019,Nebraska Avenue,43607,41.6430880,-83.6147234
3019,Nebraska Avenue,43607,41.6431898,-83.6147050
3019,Nebraska Avenue,43607,41.6432899,-83.6147062
3019,Nebraska Avenue,43607,41.6433909,-83.6147089
3019,Nebraska Avenue,43607,41.6434756,-83.6147070
3019,Nebraska Avenue,43607,41.6435756,-83.6147144
3019,Nebraska Avenue,43607,41.6436726,-83.6147086
3019,Nebraska Avenue,43607,41.6437884,-83.6146843
3019,Nebraska Avenue,43607,41.6438779,-83.6147173
3019,Nebraska Avenue,43607,41.6439746,-83.6147113
3019,Nebraska Avenue,43607,41.6440731,-83.6147113
3019,Nebraska Avenue,43607,41.6441733,-83.6147037
3019,Nebraska Avenue,43607,41.6442706,-83.6146831
3019,Nebraska Avenue,43607,41.6443697,-83.6147027
3019,Nebraska Avenue,43607,41.6444746,-83.6146881
3019,Nebraska Avenue,43607,41.6445750,-83.6146892
3019,Nebraska Avenue,43607,41.6446582,-83.6147195
3019,Nebraska Avenue,43607,41.6447775,-83.6146533
3019,Nebraska Avenue,43607,41.6448592,-83.6146933
3019,Nebraska Avenue,43607,41.6449603,-83.6147062
3019,Nebraska Avenue,43607,41.6450575,-83.6147193
3019,Nebraska Avenue,43607,41.6452614,-83.6151960
3019,Nebraska Avenue,43607,41.6452562,-83.6150530
3019,Nebraska Avenue,43607,41.6451684,-83.6150381
3019,Nebraska Avenue,43607,41.6451395,-83.6152505
3019,Nebraska Avenue,43607,41.6450440,-83.6152344
3019,Nebraska Avenue,43607,41.6450368,-83.6150724
3019,Nebraska Avenue,43607,41.6449500,-83.6150710
3019,Nebraska Avenue,43607,41.6448682,-83.6150447
3019,Nebraska Avenue,43607,41.6447627,-83.6150543
3019,Nebraska Avenue,43607,41.6447507,-83.6152527
3019,Nebraska Avenue,43607,41.6446515,-83.6152591
3019,Nebraska Avenue,43607,41.6446661,-83.6150559
3019,Nebraska Avenue,43607,41.6445691,-83.6150526
3019,Nebraska Avenue,43607,41.6444686,-83.6150574
3019,Nebraska Avenue,43607,41.6444528,-83.6152430
3019,Nebraska Avenue,43607,41.6445541,-83.6152417
3019,Nebraska Avenue,43607,41.6443586,-83.6152584
3019,Nebraska Avenue,43607,41.6442599,-83.6152413
3019,Nebraska Avenue,43607,41.6441591,-83.6152507
3019,Nebraska Avenue,43607,41.6440610,-83.6152451
3019,Nebraska Avenue,43607,41.6439584,-83.6152549
3019,Nebraska Avenue,43607,41.6438626,-83.6152500
3019,Nebraska Avenue,43607,41.6437619,-83.6152548
3019,Nebraska Avenue,43607,41.6436610,-83.6152434
3019,Nebraska Avenue,43607,41.6436173,-83.6151745
3019,Nebraska Avenue,43607,41.6437797,-83.6150464
3019,Nebraska Avenue,43607,41.6438768,-83.6150563
3019,Nebraska Avenue,43607,41.6439731,-83.6150648
3019,Nebraska Avenue,43607,41.6440721,-83.6150540
3019,Nebraska Avenue,43607,41.6441739,-83.6150542
3019,Nebraska Avenue,43607,41.6442567,-83.6150509
3019,Nebraska Avenue,43607,41.6443716,-83.6150576
2903,Dorr Street,43607,41.6526965,-83.6125762
2903,Dorr Street,43607,41.6526935,-83.6124698
2903,Dorr Street,43607,41.6526928,-83.6124005
2903,Dorr Street,43607,41.6526893,-83.6123360
2903,Dorr Street,43607,41.6527004,-83.6122776
2903,Dorr Street,43607,41.6526991,-83.6122242
1130,Broer Avenue,43607,41.6519163,-83.6128283
1126,Broer Avenue,43607,41.6518072,-83.6129778
1122,Broer Avenue,43607,41.6516967,-83.6129435
1118,Broer Avenue,43607,41.6515755,-83.6129570
1110,Broer Avenue,43607,41.6513289,-83.6129648
1102,Broer Avenue,43607,41.6511779,-83.6129590
1028,Broer Avenue,43607,41.6508836,-83.6129816
1024,Broer Avenue,43607,41.6507887,-83.6130058
1016,Broer Avenue,43607,41.6505479,-83.6129929
1012,Broer Avenue,43607,41.6504466,-83.6129924
1006,Broer Avenue,43607,41.6503332,-83.6129941
1002,Broer Avenue,43607,41.6502190,-83.6129832
928,Broer Avenue,43607,41.6501143,-83.6129701
924,Broer Avenue,43607,41.6499576,-83.6129584
920,Broer Avenue,43607,41.6498099,-83.6129985
912,Broer Avenue,43607,41.6496010,-83.6129836
902,Broer Avenue,43607,41.6493824,-83.6129156
2925,Avondale Avenue,43607,41.6490317,-83.6129708
824,Broer Avenue,43607,41.6486522,-83.6130165
820,Broer Avenue,43607,41.6485298,-83.6129993
816,Broer Avenue,43607,41.6484174,-83.6130132
812,Broer Avenue,43607,41.6482895,-83.6129973
810,Broer Avenue,43607,41.6481674,-83.6130251
744,Broer Avenue,43607,41.6479685,-83.6129920
740,Broer Avenue,43607,41.6478266,-83.6130146
732,Broer Avenue,43607,41.6476900,-83.6130061
726,Broer Avenue,43607,41.6474851,-83.6129933
716,Broer Avenue,43607,41.6472030,-83.6129996
710,Broer Avenue,43607,41.6470501,-83.6130302
702,Broer Avenue,43607,41.6468603,-83.6129935
638,Broer Avenue,43607,41.6466521,-83.6130337
632,Broer Avenue,43607,41.6464941,-83.6127101
626,Broer Avenue,43607,41.6463533,-83.6130334
620,Broer Avenue,43607,41.6461920,-83.6130030
616,Broer Avenue,43607,41.6460985,-83.6130004
2922,Nebraska Avenue,43607,41.6457772,-83.6128920
2918,Nebraska Avenue,43607,41.6457683,-83.6127254
2904,Nebraska Avenue,43607,41.6459574,-83.6122298
2848,Nebraska Avenue,43607,41.6459667,-83.6119024
2840,Nebraska Avenue,43607,41.6457299,-83.6115722
2834,Nebraska Avenue,43607,41.6457413,-83.6114120
2830,Nebraska Avenue,43607,41.6457476,-83.6112931
613,Elysian Avenue,43607,41.6460331,-83.6112670
631,Elysian Avenue,43607,41.6465612,-83.6112441
3019,Nebraska Avenue,43607,41.6452818,-83.6155864
3019,Nebraska Avenue,43607,41.6451620,-83.6155819
3019,Nebraska Avenue,43607,41.6450726,-83.6155731
3019,Nebraska Avenue,43607,41.6449718,-83.6155752
3019,Nebraska Avenue,43607,41.6448786,-83.6155611
3019,Nebraska Avenue,43607,41.6446640,-83.6155991
3019,Nebraska Avenue,43607,41.6447741,-83.6155727
3019,Nebraska Avenue,43607,41.6424977,-83.6155792
3019,Nebraska Avenue,43607,41.6424002,-83.6155985
3019,Nebraska Avenue,43607,41.6422925,-83.6155929
3019,Nebraska Avenue,43607,41.6421956,-83.6155863
3019,Nebraska Avenue,43607,41.6420972,-83.6155997
3019,Nebraska Avenue,43607,41.6419721,-83.6155950
3019,Nebraska Avenue,43607,41.6419700,-83.6152792
3019,Nebraska Avenue,43607,41.6420664,-83.6152732
3019,Nebraska Avenue,43607,41.6421669,-83.6152688
3019,Nebraska Avenue,43607,41.6422705,-83.6152591
3019,Nebraska Avenue,43607,41.6423829,-83.6152616
3019,Nebraska Avenue,43607,41.6424791,-83.6152483
3019,Nebraska Avenue,43607,41.6425697,-83.6152664
3019,Nebraska Avenue,43607,41.6426667,-83.6152653
3019,Nebraska Avenue,43607,41.6427675,-83.6152609
3019,Nebraska Avenue,43607,41.6428653,-83.6152528
3019,Nebraska Avenue,43607,41.6429573,-83.6152656
3019,Nebraska Avenue,43607,41.6430627,-83.6152558
3019,Nebraska Avenue,43607,41.6432801,-83.6152837
3019,Nebraska Avenue,43607,41.6434692,-83.6150592
3019,Nebraska Avenue,43607,41.6433846,-83.6150528
3019,Nebraska Avenue,43607,41.6432757,-83.6150527
3019,Nebraska Avenue,43607,41.6431666,-83.6150742
3019,Nebraska Avenue,43607,41.6430792,-83.6150515
3019,Nebraska Avenue,43607,41.6429330,-83.6150347
3019,Nebraska Avenue,43607,41.6427920,-83.6150440
3019,Nebraska Avenue,43607,41.6426560,-83.6150375
3019,Nebraska Avenue,43607,41.6425121,-83.6150509
3019,Nebraska Avenue,43607,41.6423599,-83.6150471
3019,Nebraska Avenue,43607,41.6451580,-83.6147175
3019,Nebraska Avenue,43607,41.6452563,-83.6147021
1012,Turner Avenue,43607,41.6504897,-83.6117752
1010,Turner Avenue,43607,41.6504020,-83.6117974
1006,Turner Avenue,43607,41.6502918,-83.6117957
1002,Turner Avenue,43607,41.6501994,-83.6118084
932,Turner Avenue,43607,41.6501104,-83.6117775
928,Turner Avenue,43607,41.6500067,-83.6118180
924,Turner Avenue,43607,41.6499232,-83.6118056
920,Turner Avenue,43607,41.6498275,-83.6118139
918,Turner Avenue,43607,41.6497356,-83.6118106
914,Turner Avenue,43607,41.6496374,-83.6117982
910,Turner Avenue,43607,41.6495374,-83.6118041
906,Turner Avenue,43607,41.6494402,-83.6118044
902,Turner Avenue,43607,41.6493135,-83.6115337
838,Turner Avenue,43607,41.6490409,-83.6117623
834,Turner Avenue,43607,41.6489361,-83.6118190
830,Turner Avenue,43607,41.6488528,-83.6117978
828,Turner Avenue,43607,41.6487531,-83.6117775
824,Turner Avenue,43607,41.6486553,-83.6118160
820,Turner Avenue,43607,41.6485546,-83.6118213
816,Turner Avenue,43607,41.6484673,-83.6118125
812,Turner Avenue,43607,41.6483696,-83.6118027
808,Turner Avenue,43607,41.6482723,-83.6117971
804,Turner Avenue,43607,41.6481774,-83.6117877
802,Turner Avenue,43607,41.6480762,-83.6117851
740,Turner Avenue,43607,41.6478583,-83.6118168
736,Turner Avenue,43607,41.6477400,-83.6117991
730,Turner Avenue,43607,41.6476076,-83.6118045
2806,Nebraska Avenue,43607,41.6456923,-83.6104359
618,Elysian Avenue,43607,41.6461387,-83.6107308
622,Elysian Avenue,43607,41.6462276,-83.6107233
702,Elysian Avenue,43607,41.6469054,-83.6107296
710,Elysian Avenue,43607,41.6470466,-83.6106703
714,Elysian Avenue,43607,41.6471724,-83.6107276
720,Elysian Avenue,43607,41.6473770,-83.6106872
723,Elysian Avenue,43607,41.6474648,-83.6112150
731,Elysian Avenue,43607,41.6476595,-83.6112218
728,Elysian Avenue,43607,41.6475642,-83.6107448
734,Elysian Avenue,43607,41.6477787,-83.6107114
733,Elysian Avenue,43607,41.6477343,-83.6111877
741,Elysian Avenue,43607,41.6479307,-83.6111754
801,Elysian Avenue,43607,41.6480463,-83.6111831
806,Elysian Avenue,43607,41.6481347,-83.6107386
812,Elysian Avenue,43607,41.6483373,-83.6104706
815,Elysian Avenue,43607,41.6483928,-83.6111730
816,Elysian Avenue,43607,41.6485257,-83.6105374
824,Elysian Avenue,43607,41.6485427,-83.6103713
824,Elysian Avenue,43607,41.6486619,-83.6103681
821,Elysian Avenue,43607,41.6485813,-83.6111862
825,Elysian Avenue,43607,41.6486909,-83.6111702
2825,Avondale Avenue,43607,41.6488790,-83.6106737
624,Ranch Drive,43607,41.6463283,-83.6140010
618,Ranch Drive,43607,41.6461873,-83.6140094
612,Ranch Drive,43607,41.6460280,-83.6139887
2934,Nebraska Avenue,43607,41.6458248,-83.6140097
2946,Nebraska Avenue,43607,41.6457937,-83.6137437
611,Broer Avenue,43607,41.6458867,-83.6134551
617,Broer Avenue,43607,41.6461337,-83.6134616
625,Broer Avenue,43607,41.6462970,-83.6134606
629,Broer Avenue,43607,41.6464689,-83.6134564
637,Broer Avenue,43607,41.6466717,-83.6134440
701,Broer Avenue,43607,41.6468013,-83.6134399
705,Broer Avenue,43607,41.6469436,-83.6134422
711,Broer Avenue,43607,41.6470760,-83.6134383
715,Broer Avenue,43607,41.6472174,-83.6134249
725,Broer Avenue,43607,41.6474977,-83.6134539
727,Broer Avenue,43607,41.6476011,-83.6134517
731,Broer Avenue,43607,41.6477181,-83.6134496
739,Broer Avenue,43607,41.6478596,-83.6134326
805,Broer Avenue,43607,41.6481787,-83.6134275
809,Broer Avenue,43607,41.6483084,-83.6134406
819,Broer Avenue,43607,41.6485544,-83.6134517
823,Broer Avenue,43607,41.6486515,-83.6134485
831,Broer Avenue,43607,41.6488612,-83.6134359
827,Broer Avenue,43607,41.6487416,-83.6136973
837,Broer Avenue,43607,41.6490367,-83.6134230
901,Broer Avenue,43607,41.6493564,-83.6134474
907,Broer Avenue,43607,41.6494831,-83.6134254
913,Broer Avenue,43607,41.6496067,-83.6134490
917,Broer Avenue,43607,41.6497254,-83.6134498
919,Broer Avenue,43607,41.6498050,-83.6134379
923,Broer Avenue,43607,41.6499183,-83.6134214
927,Broer Avenue,43607,41.6500144,-83.6134448
1001,Broer Avenue,43607,41.6501677,-83.6134339
1005,Broer Avenue,43607,41.6502943,-83.6134542
1009,Broer Avenue,43607,41.6503956,-83.6134521
1013,Broer Avenue,43607,41.6505269,-83.6134225
1017,Broer Avenue,43607,41.6506397,-83.6134283
1023,Broer Avenue,43607,41.6507585,-83.6134166
1101,Broer Avenue,43607,41.6511651,-83.6134183
1105,Broer Avenue,43607,41.6512562,-83.6134480
1109,Broer Avenue,43607,41.6513587,-83.6134424
1111,Broer Avenue,43607,41.6514884,-83.6134462
1117,Broer Avenue,43607,41.6515915,-83.6134563
1121,Broer Avenue,43607,41.6516928,-83.6134358
1125,Broer Avenue,43607,41.6518094,-83.6134204
733,Ranch Drive,43607,41.6477821,-83.6145241
739,Ranch Drive,43607,41.6479169,-83.6145258
801,Ranch Drive,43607,41.6480593,-83.6145501
805,Ranch Drive,43607,41.6481660,-83.6145116
811,Ranch Drive,43607,41.6483185,-83.6145222
817,Ranch Drive,43607,41.6484752,-83.6145172
821,Ranch Drive,43607,41.6486147,-83.6145293
827,Ranch Drive,43607,41.6487600,-83.6145189
833,Ranch Drive,43607,41.6489088,-83.6145128
839,Ranch Drive,43607,41.6490336,-83.6145174
3008,Avondale Avenue,43607,41.6493985,-83.6145477
909,Ranch Drive,43607,41.6495373,-83.6145076
915,Ranch Drive,43607,41.6496750,-83.6145064
921,Ranch Drive,43607,41.6498408,-83.6145467
927,Ranch Drive,43607,41.6500089,-83.6145471
933,Ranch Drive,43607,41.6501990,-83.6145477
1005,Ranch Drive,43607,41.6503137,-83.6145551
1011,Ranch Drive,43607,41.6504856,-83.6145459
1017,Ranch Drive,43607,41.6507084,-83.6145532
1023,Ranch Drive,43607,41.6508455,-83.6145332
1024,Ranch Drive,43607,41.6508497,-83.6140905
1018,Ranch Drive,43607,41.6506924,-83.6140837
1012,Ranch Drive,43607,41.6504542,-83.6140912
1006,Ranch Drive,43607,41.6503620,-83.6140843
934,Ranch Drive,43607,41.6501473,-83.6140806
926,Ranch Drive,43607,41.6499980,-83.6140896
920,Ranch Drive,43607,41.6498212,-83.6140610
914,Ranch Drive,43607,41.6495987,-83.6140344
2956,Avondale Avenue,43607,41.6493715,-83.6140045
2951,Avondale Avenue,43607,41.6490338,-83.6139580
834,Ranch Drive,43607,41.6489256,-83.6139495
826,Ranch Drive,43607,41.6486751,-83.6139794
818,Ranch Drive,43607,41.6485222,-83.6139652
814,Ranch Drive,43607,41.6483902,-83.6139916
810,Ranch Drive,43607,41.6482721,-83.6140000
806,Ranch Drive,43607,41.6481699,-83.6139924
802,Ranch Drive,43607,41.6480644,-83.6139800
740,Ranch Drive,43607,41.6479410,-83.6139964
734,Ranch Drive,43607,41.6478211,-83.6139985
728,Ranch Drive,43607,41.6476513,-83.6139894
724,Ranch Drive,43607,41.6474935,-83.6140332
714,Ranch Drive,43607,41.6472133,-83.6139808
708,Ranch Drive,43607,41.6471067,-83.6140023
704,Ranch Drive,43607,41.6469676,-83.6139946
642,Ranch Drive,43607,41.6468444,-83.6139838
636,Ranch Drive,43607,41.6467101,-83.6140130
632,Ranch Drive,43607,41.6465878,-83.6139908
628,Ranch Drive,43607,41.6464556,-83.6139927
1201,Broer Avenue,43607,41.6520220,-83.6134249
2903,Dorr Street,43607,41.6526953,-83.6129902
2903,Dorr Street,43607,41.6526971,-83.6129343
2903,Dorr Street,43607,41.6526941,-83.6128004
2903,Dorr Street,43607,41.6526969,-83.6126359
1125,Turner Avenue,43607,41.6517812,-83.6122852
1129,Turner Avenue,43607,41.6519280,-83.6122670
2841,Dorr Street,43607,41.6525974,-83.6114355
1206,Turner Avenue,43607,41.6521383,-83.6117780
1202,Turner Avenue,43607,41.6520372,-83.6117838
1130,Turner Avenue,43607,41.6519313,-83.6117747
1126,Turner Avenue,43607,41.6518085,-83.6117902
1122,Turner Avenue,43607,41.6516952,-83.6117820
1118,Turner Avenue,43607,41.6515870,-83.6117890
1110,Turner Avenue,43607,41.6513704,-83.6117789
1106,Turner Avenue,43607,41.6512670,-83.6117900
2845,Inverness Avenue,43607,41.6508690,-83.6116643
1016,Turner Avenue,43607,41.6505942,-83.6117914
2815,Avondale Avenue,43607,41.6488802,-83.6104182
2745,Avondale Avenue,43607,41.6489812,-83.6100157
901,Elysian Avenue,43607,41.6493213,-83.6111945
902,Elysian Avenue,43607,41.6493088,-83.6107686
907,Elysian Avenue,43607,41.6495000,-83.6111955
910,Elysian Avenue,43607,41.6494855,-83.6107383
912,Elysian Avenue,43607,41.6496115,-83.6107446
922,Elysian Avenue,43607,41.6498593,-83.6107341
919,Elysian Avenue,43607,41.6497872,-83.6111856
921,Elysian Avenue,43607,41.6498774,-83.6111883
925,Elysian Avenue,43607,41.6499483,-83.6111749
926,Elysian Avenue,43607,41.6499585,-83.6107294
930,Elysian Avenue,43607,41.6500474,-83.6107266
1002,Elysian Avenue,43607,41.6501403,-83.6107236
1005,Elysian Avenue,43607,41.6502609,-83.6111748
1011,Elysian Avenue,43607,41.6504303,-83.6111981
1010,Elysian Avenue,43607,41.6503386,-83.6107146
1012,Elysian Avenue,43607,41.6504339,-83.6107320
1016,Elysian Avenue,43607,41.6505437,-83.6107313
1024,Elysian Avenue,43607,41.6507208,-83.6107142
1028,Elysian Avenue,43607,41.6508338,-83.6107404
1030,Elysian Avenue,43607,41.6509140,-83.6107019
1029,Elysian Avenue,43607,41.6509132,-83.6111975
1027,Elysian Avenue,43607,41.6508181,-83.6111745
1023,Elysian Avenue,43607,41.6507198,-83.6111786
1019,Elysian Avenue,43607,41.6506302,-83.6111824
1105,Elysian Avenue,43607,41.6512459,-83.6111789
1109,Elysian Avenue,43607,41.6513345,-83.6111830
1113,Elysian Avenue,43607,41.6514312,-83.6111713
1123,Elysian Avenue,43607,41.6517219,-83.6111583
1127,Elysian Avenue,43607,41.6518176,-83.6111626
1129,Elysian Avenue,43607,41.6519115,-83.6111743
1213,Elysian Avenue,43607,41.6522983,-83.6111473
1215,Elysian Avenue,43607,41.6523919,-83.6111530
1216,Elysian Avenue,43607,41.6523967,-83.6107410
1212,Elysian Avenue,43607,41.6523005,-83.6107243
1210,Elysian Avenue,43607,41.6522025,-83.6107265
1206,Elysian Avenue,43607,41.6521071,-83.6107473
1119,Bowlus Avenue,43607,41.6516489,-83.6101840
1128,Elysian Avenue,43607,41.6518272,-83.6107202
1124,Elysian Avenue,43607,41.6517209,-83.6107135
1110,Elysian Avenue,43607,41.6513486,-83.6107136
1106,Elysian Avenue,43607,41.6512409,-83.6107187
919,Bowlus Avenue,43607,41.6498538,-83.6102144
1007,Bowlus Avenue,43607,41.6502930,-83.6102191
1023,Bowlus Avenue,43607,41.6506274,-83.6101769
1029,Bowlus Avenue,43607,41.6509210,-83.6102000
1026,Bowlus Avenue,43607,41.6508157,-83.6097809
1010,Bowlus Avenue,43607,41.6504504,-83.6097763
1115,Bowlus Avenue,43607,41.6515448,-83.6101980
1123,Bowlus Avenue,43607,41.6517451,-83.6102460
1129,Bowlus Avenue,43607,41.6519409,-83.6101806
1201,Bowlus Avenue,43607,41.6520292,-83.6101772
1205,Bowlus Avenue,43607,41.6521287,-83.6101805
2801,Dorr Street,43607,41.6527322,-83.6101350
2735,Dorr Street,43607,41.6526064,-83.6096068
3425,Nebraska Avenue,43607,41.6451709,-83.6247675
580,North Byrne Road,43607,41.6452237,-83.6254417
404,North Byrne Road,43607,41.6430599,-83.6253246
302,North Byrne Road,43607,41.6418506,-83.6257296
320,North Byrne Road,43607,41.6425436,-83.6253845
224,North Byrne Road,43607,41.6411991,-83.6250769
140,North Byrne Road,43607,41.6406207,-83.6249717
10,North Byrne Road,43607,41.6387356,-83.6255170
100,North Byrne Road,43607,41.6391238,-83.6243030
3399,Hill Avenue,43607,41.6376277,-83.6234847
3238,Hill Avenue,43607,41.6385224,-83.6199107
3254,Hill Avenue,43607,41.6385313,-83.6209319
3350,Hill Avenue,43607,41.6389548,-83.6221004
20,Arco Drive,43607,41.6376436,-83.6228750
101,Arco Drive,43607,41.6366484,-83.6217697
110,Arco Drive,43607,41.6364845,-83.6228030
112,Arco Drive,43607,41.6362793,-83.6236589
150,Arco Drive,43607,41.6352611,-83.6232125
207,Arco Drive,43607,41.6350320,-83.6213834
133,Arco Drive,43607,41.6357433,-83.6217468
230,Arco Drive,43607,41.6342095,-83.6223329
302,Arco Drive,43607,41.6337037,-83.6224408
322,Arco Drive,43607,41.6334517,-83.6224641
315,Arco Drive,43607,41.6333389,-83.6214674
339,Arco Drive,43607,41.6323189,-83.6222107
333,Arco Drive,43607,41.6328208,-83.6218181
351,Arco Drive,43607,41.6322665,-83.6228400
367,Arco Drive,43607,41.6323435,-83.6232459
411,Arco Drive,43607,41.6322193,-83.6241646
440,Arco Drive,43607,41.6328360,-83.6249332
301,South Byrne Road,43609,41.6340251,-83.6244773
211,South Byrne Road,43607,41.6348802,-83.6254253
135,South Byrne Road,43607,41.6357070,-83.6255477
135,South Byrne Road,43607,41.6357113,-83.6252322
135,South Byrne Road,43607,41.6356913,-83.6247743
135,South Byrne Road,43607,41.6356740,-83.6245565
111,South Byrne Road,43607,41.6361991,-83.6254514
33,South Byrne Road,43607,41.6370250,-83.6253501
3503,Hill Avenue,43607,41.6378799,-83.6265804
50,South Byrne Road,43607,41.6368450,-83.6266035
114,South Byrne Road,43607,41.6362411,-83.6269794
48,South Byrne Road,43607,41.6367419,-83.6273360
40,South Byrne Road,43607,41.6369551,-83.6273409
38,South Byrne Road,43607,41.6370692,-83.6273475
36,South Byrne Road,43607,41.6371626,-83.6273533
34,South Byrne Road,43607,41.6372620,-83.6273583
32,South Byrne Road,43607,41.6373434,-83.6273597
30,South Byrne Road,43607,41.6374808,-83.6273531
3539,Hill Avenue,43607,41.6377313,-83.6275074
3535,Hill Avenue,43607,41.6377360,-83.6272179
3601,Hill Avenue,43607,41.6378087,-83.6303814
3601,Hill Avenue,43607,41.6378307,-83.6305826
3601,Hill Avenue,43607,41.6376454,-83.6305712
3601,Hill Avenue,43607,41.6378559,-83.6307967
3601,Hill Avenue,43607,41.6376605,-83.6310425
3601,Hill Avenue,43607,41.6376529,-83.6312228
3601,Hill Avenue,43607,41.6378355,-83.6312404
3601,Hill Avenue,43607,41.6378406,-83.6314651
3601,Hill Avenue,43607,41.6376491,-83.6314636
3601,Hill Avenue,43607,41.6378268,-83.6316956
3601,Hill Avenue,43607,41.6378392,-83.6318895
3601,Hill Avenue,43607,41.6378428,-83.6320421
3601,Hill Avenue,43607,41.6378031,-83.6322002
3601,Hill Avenue,43607,41.6376530,-83.6321886
3601,Hill Avenue,43607,41.6375422,-83.6319361
3601,Hill Avenue,43607,41.6375210,-83.6321794
3601,Hill Avenue,43607,41.6372002,-83.6322220
3601,Hill Avenue,43607,41.6372068,-83.6319697
3601,Hill Avenue,43607,41.6370456,-83.6321775
3601,Hill Avenue,43607,41.6368808,-83.6319449
3601,Hill Avenue,43607,41.6368742,-83.6321841
3601,Hill Avenue,43607,41.6367128,-83.6321865
3601,Hill Avenue,43607,41.6365432,-83.6322040
3601,Hill Avenue,43607,41.6363975,-83.6321390
3601,Hill Avenue,43607,41.6360538,-83.6321652
3601,Hill Avenue,43607,41.6358928,-83.6319430
3601,Hill Avenue,43607,41.6357118,-83.6319312
3601,Hill Avenue,43607,41.6357176,-83.6321837
3601,Hill Avenue,43607,41.6355524,-83.6321998
3601,Hill Avenue,43607,41.6352402,-83.6319323
3601,Hill Avenue,43607,41.6350683,-83.6321711
3601,Hill Avenue,43607,41.6350547,-83.6319256
3601,Hill Avenue,43607,41.6349275,-83.6321656
3601,Hill Avenue,43607,41.6347829,-83.6321386
3601,Hill Avenue,43607,41.6346568,-83.6314066
3601,Hill Avenue,43607,41.6346571,-83.6312584
3601,Hill Avenue,43607,41.6346468,-83.6311085
3601,Hill Avenue,43607,41.6346468,-83.6309600
3601,Hill Avenue,43607,41.6346457,-83.6308062
3601,Hill Avenue,43607,41.6346416,-83.6306658
3601,Hill Avenue,43607,41.6346293,-83.6305225
3601,Hill Avenue,43607,41.6346382,-83.6300803
3601,Hill Avenue,43607,41.6346191,-83.6298953
3601,Hill Avenue,43607,41.6349296,-83.6299477
3601,Hill Avenue,43607,41.6349279,-83.6301854
3601,Hill Avenue,43607,41.6362625,-83.6303587
3601,Hill Avenue,43607,41.6365179,-83.6303558
3601,Hill Avenue,43607,41.6367698,-83.6303594
3601,Hill Avenue,43607,41.6368959,-83.6303633
3601,Hill Avenue,43607,41.6373730,-83.6303938
3601,Hill Avenue,43607,41.6373984,-83.6306138
3601,Hill Avenue,43607,41.6372866,-83.6306187
3601,Hill Avenue,43607,41.6370396,-83.6306468
3601,Hill Avenue,43607,41.6369044,-83.6306263
3601,Hill Avenue,43607,41.6366598,-83.6306299
3601,Hill Avenue,43607,41.6362681,-83.6306303
3601,Hill Avenue,43607,41.6362176,-83.6309930
3601,Hill Avenue,43607,41.6364142,-83.6310062
3601,Hill Avenue,43607,41.6367433,-83.6310048
3601,Hill Avenue,43607,41.6368950,-83.6310054
3601,Hill Avenue,43607,41.6370748,-83.6309916
3601,Hill Avenue,43607,41.6374165,-83.6310292
3601,Hill Avenue,43607,41.6372388,-83.6312173
3601,Hill Avenue,43607,41.6373370,-83.6315235
3601,Hill Avenue,43607,41.6368977,-83.6315655
3601,Hill Avenue,43607,41.6349268,-83.6307960
3601,Hill Avenue,43607,41.6351172,-83.6308355
3601,Hill Avenue,43607,41.6349375,-83.6310565
3601,Hill Avenue,43607,41.6351255,-83.6312853
3601,Hill Avenue,43607,41.6351248,-83.6314967
3601,Hill Avenue,43607,41.6349562,-83.6315104
3601,Hill Avenue,43607,41.6353217,-83.6314846
3601,Hill Avenue,43607,41.6353120,-83.6312946
3601,Hill Avenue,43607,41.6353250,-83.6311346
3601,Hill Avenue,43607,41.6353187,-83.6307935
3601,Hill Avenue,43607,41.6353145,-83.6306184
3601,Hill Avenue,43607,41.6353138,-83.6304547
3601,Hill Avenue,43607,41.6353247,-83.6299654
3601,Hill Avenue,43607,41.6357536,-83.6302481
3601,Hill Avenue,43607,41.6358108,-83.6314391
3601,Hill Avenue,43607,41.6350909,-83.6295407
3601,Hill Avenue,43607,41.6352085,-83.6295295
3601,Hill Avenue,43607,41.6353163,-83.6295117
3601,Hill Avenue,43607,41.6355395,-83.6295431
3601,Hill Avenue,43607,41.6356445,-83.6295349
3601,Hill Avenue,43607,41.6360372,-83.6295126
3601,Hill Avenue,43607,41.6360613,-83.6293092
3601,Hill Avenue,43607,41.6360786,-83.6291253
3601,Hill Avenue,43607,41.6360784,-83.6284396
3601,Hill Avenue,43607,41.6360930,-83.6280748
3601,Hill Avenue,43607,41.6363654,-83.6283987
3601,Hill Avenue,43607,41.6363704,-83.6281344
3601,Hill Avenue,43607,41.6365206,-83.6281512
3601,Hill Avenue,43607,41.6365337,-83.6283429
3601,Hill Avenue,43607,41.6366852,-83.6281011
3601,Hill Avenue,43607,41.6368687,-83.6283757
3601,Hill Avenue,43607,41.6370301,-83.6281398
3601,Hill Avenue,43607,41.6372022,-83.6283502
3601,Hill Avenue,43607,41.6373541,-83.6281155
3601,Hill Avenue,43607,41.6378215,-83.6283661
3601,Hill Avenue,43607,41.6378323,-83.6290210
3601,Hill Avenue,43607,41.6376555,-83.6290362
3601,Hill Avenue,43607,41.6378182,-83.6292436
3601,Hill Avenue,43607,41.6376386,-83.6294673
3601,Hill Avenue,43607,41.6378367,-83.6294634
3601,Hill Avenue,43607,41.6378441,-83.6296791
3601,Hill Avenue,43607,41.6378099,-83.6299012
3601,Hill Avenue,43607,41.6376421,-83.6299340
3601,Hill Avenue,43607,41.6376385,-83.6296694
3601,Hill Avenue,43607,41.6373583,-83.6288235
3601,Hill Avenue,43607,41.6371544,-83.6287835
3601,Hill Avenue,43607,41.6370458,-83.6287613
3601,Hill Avenue,43607,41.6368186,-83.6287634
3601,Hill Avenue,43607,41.6366872,-83.6287487
3601,Hill Avenue,43607,41.6364547,-83.6287660
3601,Hill Avenue,43607,41.6363634,-83.6290894
3601,Hill Avenue,43607,41.6367163,-83.6291046
3601,Hill Avenue,43607,41.6368296,-83.6291050
3601,Hill Avenue,43607,41.6369330,-83.6291209
3601,Hill Avenue,43607,41.6370531,-83.6291225
3601,Hill Avenue,43607,41.6371645,-83.6291144
3601,Hill Avenue,43607,41.6349453,-83.6303880
3601,Hill Avenue,43607,41.6349608,-83.6306105
3601,Hill Avenue,43607,41.6351080,-83.6304268
3601,Hill Avenue,43607,41.6372690,-83.6290970
3601,Hill Avenue,43607,41.6373658,-83.6291313
3601,Hill Avenue,43607,41.6373728,-83.6294907
3601,Hill Avenue,43607,41.6371569,-83.6295042
3601,Hill Avenue,43607,41.6368241,-83.6294384
3601,Hill Avenue,43607,41.6362752,-83.6297701
3601,Hill Avenue,43607,41.6362170,-83.6300019
3601,Hill Avenue,43607,41.6363859,-83.6297754
3601,Hill Avenue,43607,41.6364042,-83.6300157
3601,Hill Avenue,43607,41.6365436,-83.6299946
3601,Hill Avenue,43607,41.6365599,-83.6297738
3601,Hill Avenue,43607,41.6368668,-83.6300249
3601,Hill Avenue,43607,41.6368860,-83.6297370
3601,Hill Avenue,43607,41.6370440,-83.6297752
3601,Hill Avenue,43607,41.6370519,-83.6299843
3601,Hill Avenue,43607,41.6371986,-83.6300238
3601,Hill Avenue,43607,41.6372196,-83.6297821
3601,Hill Avenue,43607,41.6373759,-83.6297574
3601,Hill Avenue,43607,41.6373717,-83.6300170
3601,Hill Avenue,43607,41.6369247,-83.6312755
3601,Hill Avenue,43607,41.6367871,-83.6315422
3601,Hill Avenue,43607,41.6366741,-83.6315486
3601,Hill Avenue,43607,41.6364531,-83.6315492
3601,Hill Avenue,43607,41.6364007,-83.6312275
3601,Hill Avenue,43607,41.6363391,-83.6315302
3901,Hill Avenue,43607,41.6377611,-83.6328950
732,Main Street,43605,41.6424986,-83.5184000
2801,Bancroft,43606,41.6586353,-83.6135851
4925,Jackman Road,43613,41.7046337,-83.5866209
4925,Jackman Road,43613,41.7062373,-83.5908185
3601,Hill Avenue,43607,41.6362745,-83.6301569
930,South Detroit Avenue,43614,41.6212762,-83.5999501
4865,Monroe Street,43623,41.6941162,-83.6358656
444,North Summit,43604,41.6524052,-83.5313810
26,Main Street,43605,41.6475246,-83.5297775
1039,N Summit Street,43604-1813,41.6579024,-83.5246138
1035,West Alexis Road,43612,41.7189967,-83.5674679
4633,Suder Avenue,43611,41.7056256,-83.5007480
1,Government Center,43604,41.6555573,-83.5347943
1500,East Alexis Road,43612,41.7203858,-83.5105241
635,North Erie Street,43604,41.6578625,-83.5338049
1333,East Manhattan Boulevard,43608,41.6880099,-83.5188997
3570,3570 Expressway Drive South,43608,41.6884806,-83.5178209
1136,West Alexis Road,43612,41.7229307,-83.5705021
3946,West Alexis Road,43623,41.7216149,-83.6387317
5811,Clover Lane,43623,41.7208639,-83.6392714
1935,West Laskey Road,43613,41.7061093,-83.5914794
4444,North Detroit Avenue,43612,41.6998296,-83.5462782
2852,West Sylvania Avenue,43613,41.6921875,-83.6126277
1415,East Alexis Road,43612,41.7251642,-83.5137490
3405,West Central Avenue,43606-1402,41.6757542,-83.6260561
601,West Woodruff Avenue,43604,41.6600213,-83.5558304
4013,Lagrange Street,43612,41.6938007,-83.5469023
2171,Brothan Drive,43614,41.5993170,-83.6765429
2171,Brothan Drive,43614,41.5994182,-83.6771854
3000,West Centennial Drive,43606,41.6614759,-83.6161729
3302,West Central,43606,41.6776503,-83.6230415
3310,West Central Avenue,43606,41.6777296,-83.6234416
3225,Secor Road,43606,41.6793348,-83.6234679
3138,Secor Road,43606-1513,41.6785869,-83.6221628
3214,Secor Road,43606,41.6793175,-83.6221910
3200,Secor Road,43606,41.6799020,-83.6195652
3425,Secor Road,43606,41.6828771,-83.6232389
2445,Monroe Street,43620,41.6584351,-83.5592759
42,South Superior Street,43602,41.6469618,-83.5404123
4032,Creekside Avenue,43612,41.6938403,-83.5413279
2680,Glenwood Avenue,43610,41.6760277,-83.5617395
2125,Parkwood Avenue,43620,41.6629929,-83.5577622
2051,Collingwood Boulevard,43620,41.6617981,-83.5557304
2204,Collingwood Boulevard,43620,41.6642496,-83.5544706
2544,Parkwood Avenue,43610,41.6724135,-83.5569492
1407,East Manhattan Boulevard,43608,41.6877552,-83.5178255
3465,Stickney Avenue,43608,41.6864931,-83.5273162
567,East Manhattan Boulevard,43608-1270,41.6868687,-83.5325320
611,East Manhattan Boulevard,43608,41.6870002,-83.5312938
4949,Stickney Avenue,43612,41.7075076,-83.5283257
812,Matzinger Road,43612,41.7042752,-83.5267983
942,Phillips Avenue,43612,41.6924714,-83.5644799
902,Phillips Avenue,43612-1337,41.6922986,-83.5632751
2555,Glendale Avenue,43614,41.6114765,-83.6064399
1212,Cherry Street,43608,41.6622798,-83.5352636
6400,Jackman Road,48182,41.7325272,-83.5846082
1455,Secor Road,43607,41.6544459,-83.6223800
1441,Secor Road,43607-1122,41.6540621,-83.6226442
4625,North Detroit Avenue,43612,41.7015445,-83.5486154
5057,Monroe Street,43623-3603,41.6981379,-83.6443020
2162,West Alexis Road,43613,41.7301520,-83.5975624
2700,Broadway Street,43609,41.6184557,-83.5800428
2561,Collingwood Boulevard,43610,41.6725591,-83.5561073
2535,Collingwood Boulevard,43610,41.6720519,-83.5562784
2484,Parkwood Avenue,43620,41.6706499,-83.5569540
2460,Parkwood Avenue,43620,41.6701156,-83.5569964
2434,Parkwood Avenue,43620,41.6692237,-83.5567957
2413,Collingwood Boulevard,43620,41.6687424,-83.5562124
2417,Collingwood Boulevard,43620,41.6688960,-83.5566364
3100,West Towerview Boulevard,43606,41.6598272,-83.6183893
2315,Walden Pond Drive,43606,41.6668370,-83.6011155
1205,West Sylvania Avenue,43612-1705,41.6922101,-83.5699689
1119,West Bancroft Street,43606,41.6631945,-83.5702761
2257,North Holland Sylvania Road,43615,41.6625396,-83.6843746
817,West Alexis Road,43612-4303,41.7207409,-83.5602448
833,West Alexis Road,43612,41.7195375,-83.5634240
3910,Heatherdowns Boulevard,43614,41.6036563,-83.6396096
1859,Laskey Road,43613,41.7064852,-83.5899233
1801,West Laskey Road,43613-3525,41.7064672,-83.5880317
1727,West Laskey Road,43613,41.7064586,-83.5867911
1856,West Laskey Road,43613-3526,41.7072871,-83.5897392
1922,West Laskey Road,43613,41.7071729,-83.5910587
1922,West Laskey Road,43613,41.7073532,-83.5910488
2060,West Laskey Road,43613,41.7071960,-83.5942849
4900,Jackman Road,43613,41.7050050,-83.5848564
4900,Jackman Road,43613,41.7047420,-83.5848881
1610,North Westwood Avenue,43606,41.6557565,-83.6061123
1600,North Westwood Avenue,43606,41.6550747,-83.6061338
1510,North Westwood Avenue,43606,41.6544597,-83.6061529
2600,Dorr Street,43606,41.6537800,-83.6061249
1620,North Westwood Avenue,43606,41.6556682,-83.6071342
2450,South Reynolds Road,43614,41.5956877,-83.6655268
2130,South Reynolds Road,43614-1411,41.6010457,-83.6653309
740,Superior Street,43604,41.6565202,-83.5291839
701,Jefferson Avenue,43604,41.6514061,-83.5394462
405,Madison Avenue,43604,41.6511953,-83.5353454
415,Emerald Avenue,43602,41.6380875,-83.5412444
1422,Broadway,43609,41.6320853,-83.5554757
1540,Broadway Street,43609-2855,41.6311989,-83.5566768
1140,West Central Avenue,43610,41.6783046,-83.5704863
1118,West Central Avenue,43610,41.6783808,-83.5693998
1118,West Central Avenue,43610,41.6787791,-83.5693895
3050,West Towerview Boulevard,43606,41.6598456,-83.6176464
5119,North Summit Street,43611,41.7147447,-83.4793667
5145,North Summit Street,43611,41.7155044,-83.4794139
2729,124th Street,43611,41.7168824,-83.4806099
3149,Dorr Street,43607,41.6526443,-83.6188004
2070,Campus Road,43606,41.6614090,-83.6170508
2125,Campus Road,43606,41.6620008,-83.6183047
3350,Cherry Street,43608,41.6833021,-83.5529413
90,Main Street,43605-2032,41.6485703,-83.5241972
2213,Cherry Street,43608,41.6684520,-83.5423672
2142,North Cove Boulevard,43606,41.6737689,-83.5948278
2550,Cherry Street,43608,41.6732096,-83.5440350
3115,Frenchmens Road,43607,41.6334023,-83.6172673
3722,Beechway Boulevard,43614,41.5989383,-83.6076952
300,"M.L. King Drive;M.L. King Drive, Suite 300",43604,41.6381664,-83.5413986
2406,Glendale Avenue,43614,41.6123968,-83.6014854
2143,Fairfax Road,43613,41.6826396,-83.5952921
2303,Brookford Drive,43614,41.6000985,-83.6007142
3016,Collingwood Boulevard,43610,41.6777584,-83.5548399
2740,West Central Avenue,43606,41.6787557,-83.6092047
3404,West Sylvania Avenue,43623,41.6933547,-83.6252724
4827,Harbord Drive,43623,41.7040359,-83.6300491
4828,Hannaford Drive,43623,41.7039450,-83.6305639
4817,Harbord Drive,43623,41.7038451,-83.6300414
1343,Miami Street,43605,41.6261382,-83.5291795
3265,West Laskey Road,43613,41.7060601,-83.6233776
4533,Monroe Street,43613,41.6872810,-83.6214810
4505,Monroe Street,43613,41.6869245,-83.6205387
3351,West Laskey Road,43623,41.7060157,-83.6256959
4933,Secor Road,43623,41.7059560,-83.6242819
3311,West Laskey Road,43623,41.7059540,-83.6246728
4656,Monroe Street,43623,41.6913275,-83.6257385
1430,East Alexis Road,43612,41.7221407,-83.5129714
3044,Jeep Parkway,43610,41.6805568,-83.5660429
3935,North Detroit Avenue,43612,41.6923381,-83.5531005
1933,Spielbusch Avenue,43604,41.6599666,-83.5359574
111,Ottawa Street,43602,41.6404196,-83.5373489
5001,Monroe Street,43623,41.6928829,-83.6382385
4011,Monroe Street,43606,41.6779103,-83.5987246
4010,Monroe Street,43606-2142,41.6784093,-83.5985102
4034,Monroe Street,43606,41.6786145,-83.5990490
4400,Chrysler Drive,43608,41.6962418,-83.5191957
2545,Monroe Street,43620,41.6595711,-83.5612771
3434,Secor road,43606,41.6829204,-83.6202061
3730,Secor Road,43623,41.6876493,-83.6225984
2145,North Cove Boulevard,43606,41.6699378,-83.5956999
2201,North Cove Boulevard,43606,41.6695423,-83.5959884
2201,Ottawa Drive,43606,41.6673548,-83.5921527
1560,East Alexis Road,43612-3952,41.7224856,-83.5092728
1540,East Alexis Road,43612,41.7225408,-83.5102052
1410,East Alexis,43612,41.7223262,-83.5137878
1535,East Alexis Road,43612-3908,41.7234596,-83.5100750
1525,East Alexis Road,43612,41.7233547,-83.5107407
831,West Alexis Road,43612-4303,41.7212064,-83.5625044
1110,West Alexis Road,43612-4204,41.7218912,-83.5690075
1205,West Alexis Road,43612,41.7210901,-83.5708787
1220,West Alexis Road,43612,41.7219098,-83.5719894
4260,West Sylvania Avenue,43623,41.6916353,-83.6439426
4050,Talmadge Road,43623,41.6926952,-83.6440205
3460,Airport Highway,43609,41.6248966,-83.6253687
1615,Cherry Street,43608,41.6646780,-83.5389306
5685,Benore Road,43612,41.7197515,-83.5151733
3265,Glanzman Road,43614,41.6008978,-83.6219565
2605,Broadway,43609,41.6188851,-83.5765866
2925,Glendale Avenue,43614,41.6097649,-83.6128029
2940,Village Loop,43606,41.6557306,-83.6145597
2950,Village Loop,43606,41.6557382,-83.6147582
2960,Village Loop,43606,41.6557215,-83.6150649
2970,Village Loop,43606,41.6557281,-83.6152650
3000,Village Loop,43606,41.6556942,-83.6155765
3010,Village Loop,43606,41.6556805,-83.6157736
3020,Village Loop,43606,41.6556707,-83.6161039
3030,Village Loop,43606,41.6557057,-83.6162948
3050,Village Loop,43606,41.6560352,-83.6161564
3060,Village Loop,43606,41.6560966,-83.6159780
3100,Village Loop,43606,41.6563646,-83.6156002
3110,Village Loop,43606,41.6563142,-83.6154120
3120,Village Loop,43606,41.6563285,-83.6150717
3130,Village Loop,43606,41.6562865,-83.6148846
1120,North Westwood Avenue,43607,41.6517551,-83.6055760
3065,West Bancroft Street,43606,41.6626235,-83.6182635
4002,West Alexis Road,43623,41.7206436,-83.6399393
5248,Monroe Street,43623,41.7020799,-83.6520456
5236,Monroe Street,43623,41.7019865,-83.6516348
5294,Monroe Street,43623,41.7031847,-83.6549438
5300,Monroe Street,43623,41.7034915,-83.6559932
5290,Monroe Street,43623,41.7031251,-83.6544468
3915,Heatherdowns Boulevard,43614,41.5936263,-83.6311674
3100,Glendale Avenue,43614,41.6168627,-83.6193053
3000,Arlington,43614,41.6169478,-83.6162322
3425,Nebraska Avenue,43607,41.6445969,-83.6246290
3530,Dorr Street,43607,41.6532570,-83.6268741
3510,Dorr Street,43607,41.6531285,-83.6266126
3506,Dorr Street,43607,41.6531313,-83.6262163
2323,West Bancroft Street,43607,41.6616712,-83.5977829
3534,Dorr Street,43607,41.6531182,-83.6273864
444,Earl Street,43605,41.6313390,-83.5229700
2330,Monroe Street,43604,41.6580935,-83.5557195
1845,Collingwood Boulevard,43604,41.6586755,-83.5553185
2350,Monroe Street,43604,41.6583334,-83.5560334
1835,Collingwood Boulevard,43604,41.6583730,-83.5552670
1825,Collingwood Boulevard,43604,41.6582030,-83.5552525
2005,Parkwood Avenue,43620,41.6604915,-83.5574340
2001,Collingwood Boulevard,43620,41.6606202,-83.5558152
2023,Collingwood Boulevard,43620,41.6609955,-83.5555625
2024,Parkwood Avenue,43620,41.6610080,-83.5567035
2020,Parkwood Avenue,43620,41.6608165,-83.5567045
2030,Parkwood Avenue,43620,41.6611760,-83.5566905
2040,Parkwood Avenue,43620,41.6613975,-83.5566865
2035,Collingwood Boulevard,43620,41.6614010,-83.5555850
2109,Collingwood Boulevard,43620,41.6624099,-83.5555585
2116,Parkwood Avenue,43620,41.6626111,-83.5566755
2104,Parkwood Avenue,43620,41.6623482,-83.5566463
2107,Parkwood Avenue,43620,41.6623655,-83.5575725
2134,Parkwood Avenue,43620,41.6630957,-83.5567353
2146,Parkwood Avenue,43620,41.6632759,-83.5567384
2150,Parkwood Avenue,43620,41.6634916,-83.5567481
2049,Parkwood Avenue,43620,41.6617497,-83.5575661
625,Floyd Street,43620,41.6618886,-83.5580307
2056,Scottwood Avenue,43620,41.6618295,-83.5585854
2048,Scottwood Avenue,43620,41.6616052,-83.5585836
2040,Scottwood Avenue,43620,41.6613702,-83.5585906
2041,Parkwood Avenue,43620,41.6615280,-83.5575160
2056,Parkwood Avenue,43620,41.6618925,-83.5566800
2033,Parkwood Avenue,43620,41.6612815,-83.5574870
2025,Parkwood Avenue,43620,41.6610813,-83.5574929
2015,Parkwood Avenue,43620,41.6608125,-83.5574675
614,West Woodruff Avenue,43620,41.6604786,-83.5576854
622,West Woodruff Avenue,43620,41.6604927,-83.5580010
2016,Scottwood Avenue,43620,41.6608899,-83.5585340
2030,Scottwood Avenue,43620,41.6611385,-83.5585900
2008,Scottwood Avenue,43620,41.6605554,-83.5585447
2007,Scottwood Avenue,43620,41.6605351,-83.5594740
2015,Scottwood Avenue,43620,41.6607542,-83.5594251
2025,Scottwood Avenue,43620,41.6610545,-83.5594219
2032,Robinwood Avenue,43620,41.6611161,-83.5601530
2036,Robinwood Avenue,43620,41.6612620,-83.5601631
2044,Robinwood Avenue,43620,41.6614893,-83.5601925
2024,Robinwood Avenue,43620,41.6609353,-83.5601727
1931,Scottwood Avenue,43620,41.6600419,-83.5594098
2520,Monroe Street,43620,41.6597346,-83.5595336
2540,Monroe Street,43620,41.6599839,-83.5600437
2007,Robinwood Avenue,43620,41.6605426,-83.5609200
2574,Monroe Street,43620,41.6605357,-83.5612183
2528,Monroe Street,43620,41.6607345,-83.5616003
2621,Monroe Street,43620,41.6606091,-83.5624544
2109,Robinwood Avenue,43620,41.6623650,-83.5609375
2110,Robinwood Avenue,43620,41.6623780,-83.5601825
2106,Robinwood Avenue,43620,41.6622383,-83.5601938
2066,Robinwood Avenue,43620,41.6621087,-83.5602066
2062,Robinwood Avenue,43620,41.6619428,-83.5601477
2052,Robinwood Avenue,43620,41.6616800,-83.5601355
2049,Scottwood Avenue,43620,41.6616118,-83.5595235
2041,Scottwood Avenue,43620,41.6614086,-83.5594176
2055,Scottwood Avenue,43620,41.6618022,-83.5594114
2065,Scottwood Avenue,43620,41.6620910,-83.5594370
2103,Scottwood Avenue,43620,41.6622220,-83.5594465
2109,Scottwood Avenue,43620,41.6623465,-83.5594355
2115,Scottwood Avenue,43620,41.6624765,-83.5594455
2119,Scottwood Avenue,43620,41.6626204,-83.5594700
2125,Scottwood Avenue,43620,41.6627715,-83.5594555
2129,Scottwood Avenue,43620,41.6629170,-83.5594730
2135,Scottwood Avenue,43620,41.6630551,-83.5594815
2137,Scottwood Avenue,43620,41.6631765,-83.5594416
2145,Scottwood Avenue,43620,41.6633311,-83.5594335
2149,Scottwood Avenue,43620,41.6634400,-83.5594845
2159,Scottwood Avenue,43620,41.6636872,-83.5595078
2144,Robinwood Avenue,43620,41.6633255,-83.5601950
2134,Robinwood Avenue,43620,41.6630542,-83.5602207
2160,Scottwood Avenue,43620,41.6636476,-83.5587804
2200,Scottwood Avenue,43620,41.6642223,-83.5585371
2210,Robinwood Avenue,43620,41.6640865,-83.5601350
708,West Bancroft Street,43620,41.6641464,-83.5610862
2125,Robinwood Avenue,43620,41.6628085,-83.5609120
2129,Robinwood Avenue,43620,41.6629370,-83.5609550
2155,Robinwood Avenue,43620,41.6635837,-83.5609737
2145,Robinwood Avenue,43620,41.6633825,-83.5609551
2137,Robinwood Avenue,43620,41.6631150,-83.5609437
2124,Robinwood Avenue,43620,41.6627800,-83.5601922
2118,Robinwood Avenue,43620,41.6626564,-83.5601954
2114,Robinwood Avenue,43620,41.6625153,-83.5602048
2130,Robinwood Avenue,43620,41.6629217,-83.5602257
2130,Scottwood Avenue,43620,41.6629555,-83.5586627
630,Floyd Street,43620,41.6623063,-83.5582967
2110,Scottwood Avenue,43620,41.6623808,-83.5586889
2120,Scottwood Avenue,43620,41.6626510,-83.5587091
2124,Scottwood Avenue,43620,41.6627804,-83.5587012
2116,Scottwood Avenue,43620,41.6625106,-83.5586916
2104,Scottwood Avenue,43620,41.6622370,-83.5586550
2105,Robinwood Avenue,43620,41.6622667,-83.5609350
2061,Robinwood Avenue,43620,41.6619925,-83.5609172
2103,Robinwood Avenue,43620,41.6621450,-83.5609120
2055,Robinwood Avenue,43620,41.6618339,-83.5609083
2045,Robinwood Avenue,43620,41.6615360,-83.5609295
2017,Robinwood Avenue,43620,41.6607964,-83.5608889
2027,Robinwood Avenue,43620,41.6610958,-83.5609326
2035,Robinwood Avenue,43620,41.6612421,-83.5609417
2041,Robinwood Avenue,43620,41.6613985,-83.5609183
2049,Robinwood Avenue,43620,41.6616720,-83.5609080
719,Virginia Street,43620,41.6659277,-83.5615087
2233,Robinwood Avenue,43620,41.6648000,-83.5610695
2223,Robinwood Avenue,43620,41.6645708,-83.5610017
2215,Robinwood Avenue,43620,41.6643899,-83.5610044
2243,Robinwood Avenue,43620,41.6651265,-83.5610295
2251,Robinwood Avenue,43620,41.6653585,-83.5610520
2255,Robinwood Avenue,43620,41.6655355,-83.5610450
2263,Robinwood Avenue,43620,41.6656730,-83.5610555
2267,Robinwood Avenue,43620,41.6658056,-83.5610641
2273,Robinwood Avenue,43620,41.6659603,-83.5610849
2266,Maplewood Avenue,43620,41.6656594,-83.5631587
2258,Maplewood Avenue,43620,41.6655194,-83.5631681
2254,Maplewood Avenue,43620,41.6653480,-83.5631302
2244,Maplewood Avenue,43620,41.6651021,-83.5631484
2307,Lawrence Avenue,43620,41.6663810,-83.5649586
2312,Lawrence Avenue,43620,41.6665011,-83.5643868
2301,Maplewood Avenue,43620,41.6662728,-83.5637487
848,Virginia Street,43620,41.6662586,-83.5639679
2274,Robinwood Avenue,43620,41.6659640,-83.5602480
2268,Robinwood Avenue,43620,41.6657970,-83.5602130
2264,Robinwood Avenue,43620,41.6656815,-83.5602595
2248,Robinwood Avenue,43620,41.6652696,-83.5602431
2242,Robinwood Avenue,43620,41.6650975,-83.5601810
2236,Robinwood Avenue,43620,41.6648630,-83.5601920
2228,Robinwood Avenue,43620,41.6646665,-83.5602160
2220,Robinwood Avenue,43620,41.6643955,-83.5601805
667,Virginia Street,43620,41.6659599,-83.5599623
2271,Scottwood Avenue,43620,41.6659473,-83.5595459
2265,Scottwood Avenue,43620,41.6657183,-83.5594896
2272,Scottwood Avenue,43620,41.6659853,-83.5587661
2268,Scottwood Avenue,43620,41.6658357,-83.5588159
2260,Scottwood Avenue,43620,41.6656450,-83.5587841
2257,Scottwood Avenue,43620,41.6655782,-83.5594966
2251,Scottwood Avenue,43620,41.6654441,-83.5594951
2247,Scottwood Avenue,43620,41.6653050,-83.5594875
2245,Scottwood Avenue,43620,41.6651560,-83.5595120
2243,Scottwood Avenue,43620,41.6650150,-83.5594960
2237,Scottwood Avenue,43620,41.6649006,-83.5594895
2225,Scottwood Avenue,43620,41.6647350,-83.5595120
2221,Scottwood Avenue,43620,41.6645600,-83.5594945
2215,Scottwood Avenue,43620,41.6643833,-83.5595454
2211,Scottwood Avenue,43620,41.6642260,-83.5595120
2200,Parkwood Avenue,43620,41.6641950,-83.5566225
2211,Parkwood Avenue,43620,41.6642915,-83.5575855
620,West Bancroft Street,43620,41.6640910,-83.5579648
2215,Parkwood Avenue,43620,41.6644505,-83.5575845
2221,Parkwood Avenue,43620,41.6645820,-83.5575795
2229,Parkwood Avenue,43620,41.6647790,-83.5575665
2222,Scottwood Avenue,43620,41.6645545,-83.5587220
2228,Scottwood Avenue,43620,41.6647003,-83.5587347
2232,Scottwood Avenue,43620,41.6648535,-83.5587240
2238,Scottwood Avenue,43620,41.6649971,-83.5587280
2244,Scottwood Avenue,43620,41.6651498,-83.5587577
2250,Scottwood Avenue,43620,41.6652893,-83.5587468
2275,Collingwood Boulevard,43620,41.6657700,-83.5557052
2275,Collingwood Boulevard,43620,41.6653682,-83.5557248
2232,Parkwood Avenue,43620,41.6648955,-83.5567315
2222,Parkwood Avenue,43620,41.6646690,-83.5567580
2115,Collingwood Boulevard,43620,41.6626470,-83.5557125
2149,Collingwood Boulevard,43620,41.6636480,-83.5555785
527,West Bancroft Street,43620,41.6636480,-83.5561930
531,West Bancroft Street,43620,41.6636589,-83.5563512
2154,Parkwood Avenue,43620,41.6636845,-83.5567530
540,West Bancroft Street,43620,41.6642070,-83.5561900
2242,Parkwood Avenue,43620,41.6651268,-83.5567921
2248,Parkwood Avenue,43620,41.6652700,-83.5567690
2252,Parkwood Avenue,43620,41.6654130,-83.5567735
2258,Parkwood Avenue,43620,41.6655570,-83.5567965
529,Acklin Avenue,43620,41.6668290,-83.5563720
535,Acklin Avenue,43620,41.6668390,-83.5565360
2306,Parkwood Avenue,43620,41.6668530,-83.5570160
539,Acklin Avenue,43620,41.6668260,-83.5566940
2274,Parkwood Avenue,43620,41.6660125,-83.5568310
535,Virginia Street,43620,41.6660172,-83.5565170
527,Virginia Street,43620,41.6660246,-83.5562240
2262,Parkwood Avenue,43620,41.6657030,-83.5568165
2271,Parkwood Avenue,43620,41.6659475,-83.5576566
617,Virginia Street,43620,41.6659981,-83.5579372
625,Virginia Street,43620,41.6659582,-83.5581197
2263,Parkwood Avenue,43620,41.6657268,-83.5576132
2268,Parkwood Avenue,43620,41.6658710,-83.5568285
2255,Parkwood Avenue,43620,41.6655750,-83.5576130
2247,Parkwood Avenue,43620,41.6652230,-83.5575575
2233,Parkwood Avenue,43620,41.6649330,-83.5575960
629,Virginia Street,43620,41.6659542,-83.5584295
2237,Parkwood Avenue,43620,41.6650785,-83.5576195
2249,Parkwood Avenue,43620,41.6654020,-83.5575820
2301,Parkwood Avenue,43620,41.6664401,-83.5574205
614,Virginia Street,43620,41.6664071,-83.5578534
2335,Collingwood Boulevard,43620,41.6674150,-83.5557600
612,Virginia Street,43620,41.6664615,-83.5577031
620,Virginia Street,43620,41.6664178,-83.5579957
624,Virginia Street,43620,41.6664123,-83.5581519
626,Virginia Street,43620,41.6664053,-83.5582856
630,Virginia Street,43620,41.6664054,-83.5584446
634,Virginia Street,43620,41.6664000,-83.5585585
625,Acklin Avenue,43620,41.6668227,-83.5583166
631,Acklin Avenue,43620,41.6668218,-83.5584560
633,Acklin Avenue,43620,41.6667986,-83.5585717
2320,Scottwood Avenue,43620,41.6668159,-83.5589131
2314,Scottwood Avenue,43620,41.6667063,-83.5588721
2310,Scottwood Avenue,43620,41.6665266,-83.5588828
2304,Scottwood Avenue,43620,41.6663878,-83.5588922
2305,Scottwood Avenue,43620,41.6664334,-83.5595042
2304,Robinwood Avenue,43620,41.6663346,-83.5602474
2308,Robinwood Avenue,43620,41.6664726,-83.5602723
662,Virginia Street,43620,41.6663639,-83.5597856
2317,Scottwood Avenue,43620,41.6667332,-83.5596158
2329,Scottwood Avenue,43620,41.6671255,-83.5596038
2333,Scottwood Avenue,43620,41.6672505,-83.5596084
2335,Scottwood Avenue,43620,41.6674062,-83.5595826
2342,Scottwood Avenue,43620,41.6675530,-83.5589217
2332,Scottwood Avenue,43620,41.6672792,-83.5589193
2330,Scottwood Avenue,43620,41.6671326,-83.5589201
2364,Robinwood Avenue,43620,41.6680540,-83.5602735
2400,Robinwood Avenue,43620,41.6682630,-83.5603120
2410,Robinwood Avenue,43620,41.6685340,-83.5603450
2420,Robinwood Avenue,43620,41.6688185,-83.5603995
2406,Robinwood Avenue,43620,41.6684020,-83.5603490
2413,Scottwood Avenue,43620,41.6687536,-83.5596256
2411,Scottwood Avenue,43620,41.6686001,-83.5596175
2421,Scottwood Avenue,43620,41.6689078,-83.5596721
2425,Scottwood Avenue,43620,41.6690718,-83.5596371
2435,Scottwood Avenue,43620,41.6692328,-83.5596491
2439,Scottwood Avenue,43620,41.6693675,-83.5596226
2445,Scottwood Avenue,43620,41.6695063,-83.5596501
2448,Robinwood Avenue,43620,41.6695580,-83.5604000
2442,Robinwood Avenue,43620,41.6694060,-83.5603875
2436,Robinwood Avenue,43620,41.6692740,-83.5603445
2432,Robinwood Avenue,43620,41.6691210,-83.5604090
608,Acklin Avenue,43620,41.6671884,-83.5577195
616,Acklin Avenue,43620,41.6671865,-83.5578435
615,Winthrop Street,43620,41.6675684,-83.5578749
619,Winthrop Street,43620,41.6675635,-83.5580308
621,Winthrop Street,43620,41.6675238,-83.5581785
625,Winthrop Street,43620,41.6675388,-83.5583206
637,Winthrop Street,43620,41.6675371,-83.5587140
638,Acklin Avenue,43620,41.6671868,-83.5586034
630,Acklin Avenue,43620,41.6671917,-83.5584744
626,Acklin Avenue,43620,41.6671623,-83.5583266
624,Acklin Avenue,43620,41.6671869,-83.5581856
620,Acklin Avenue,43620,41.6671615,-83.5580070
612,Winthrop Street,43620,41.6679039,-83.5577653
614,Winthrop Street,43620,41.6679160,-83.5578942
550,Winthrop Street,43620,41.6679108,-83.5570513
527,Winthrop Street,43620,41.6675945,-83.5562840
535,Winthrop Street,43620,41.6675998,-83.5566235
528,Acklin Avenue,43620,41.6672170,-83.5561385
530,Acklin Avenue,43620,41.6672170,-83.5562595
532,Acklin Avenue,43620,41.6672120,-83.5563900
534,Acklin Avenue,43620,41.6672060,-83.5565025
536,Acklin Avenue,43620,41.6672285,-83.5566125
544,Acklin Avenue,43620,41.6672030,-83.5568460
2330,Parkwood Avenue,43620,41.6672070,-83.5570000
545,Winthrop Street,43620,41.6675782,-83.5569018
539,Winthrop Street,43620,41.6675842,-83.5567616
2308,Robinwood Avenue,43620,41.6666123,-83.5602715
2316,Robinwood Avenue,43620,41.6667555,-83.5602463
2320,Robinwood Avenue,43620,41.6668510,-83.5602910
2326,Robinwood Avenue,43620,41.6670278,-83.5602951
2340,Robinwood Avenue,43620,41.6672900,-83.5602975
2348,Robinwood Avenue,43620,41.6675510,-83.5603235
2354,Robinwood Avenue,43620,41.6677030,-83.5603090
2347,Robinwood Avenue,43620,41.6675405,-83.5610925
2339,Robinwood Avenue,43620,41.6672522,-83.5610429
2333,Robinwood Avenue,43620,41.6671475,-83.5611201
2317,Robinwood Avenue,43620,41.6667350,-83.5610395
2313,Robinwood Avenue,43620,41.6665965,-83.5610433
2309,Robinwood Avenue,43620,41.6664590,-83.5610095
2301,Robinwood Avenue,43620,41.6663130,-83.5610075
716,Virginia Street,43620,41.6663080,-83.5613860
720,Virginia Street,43620,41.6663085,-83.5615531
715,West Delaware Avenue,43610,41.6707475,-83.5615076
711,West Delaware Avenue,43610,41.6707963,-83.5613692
2495,Robinwood Avenue,43620,41.6708095,-83.5611733
2491,Robinwood Avenue,43620,41.6706988,-83.5611593
2485,Robinwood Avenue,43620,41.6705871,-83.5611810
2479,Robinwood Avenue,43620,41.6704788,-83.5611569
2471,Robinwood Avenue,43620,41.6702082,-83.5612264
2467,Robinwood Avenue,43620,41.6700761,-83.5611962
2461,Robinwood Avenue,43620,41.6699337,-83.5612099
720,West Delaware Avenue,43610,41.6711445,-83.5618121
718,West Delaware Avenue,43610,41.6711595,-83.5616539
2528,Glenwood Avenue,43610,41.6717402,-83.5619801
2532,Glenwood Avenue,43610,41.6719105,-83.5619909
2537,Robinwood Avenue,43610,41.6720790,-83.5611935
2543,Robinwood Avenue,43610,41.6722150,-83.5612280
2546,Glenwood Avenue,43610,41.6722805,-83.5619385
2547,Robinwood Avenue,43610,41.6723520,-83.5611830
2553,Robinwood Avenue,43610,41.6724820,-83.5611835
2554,Robinwood Avenue,43610,41.6725050,-83.5605245
2550,Robinwood Avenue,43610,41.6723950,-83.5605215
2544,Robinwood Avenue,43610,41.6722760,-83.5604950
2540,Robinwood Avenue,43610,41.6721385,-83.5604990
2536,Robinwood Avenue,43610,41.6719990,-83.5604965
2532,Robinwood Avenue,43610,41.6718730,-83.5605205
2530,Robinwood Avenue,43610,41.6717430,-83.5604935
2520,Robinwood Avenue,43610,41.6715985,-83.5604845
2512,Robinwood Avenue,43610,41.6713380,-83.5604725
2508,Robinwood Avenue,43610,41.6712280,-83.5604725
2504,Robinwood Avenue,43610,41.6711140,-83.5604705
664,West Delaware Avenue,43610,41.6711680,-83.5601450
662,West Delaware Avenue,43610,41.6711715,-83.5599856
2516,Robinwood Avenue,43610,41.6714660,-83.5604815
2509,Scottwood Avenue,43610,41.6713410,-83.5596835
2515,Scottwood Avenue,43610,41.6714801,-83.5596821
2521,Scottwood Avenue,43610,41.6716050,-83.5597398
2527,Scottwood Avenue,43610,41.6717197,-83.5596952
2531,Scottwood Avenue,43610,41.6718284,-83.5596914
2533,Scottwood Avenue,43610,41.6719337,-83.5596948
2535,Scottwood Avenue,43610,41.6720414,-83.5597104
2539,Scottwood Avenue,43610,41.6721449,-83.5597056
2543,Scottwood Avenue,43610,41.6722474,-83.5597082
2547,Scottwood Avenue,43610,41.6723534,-83.5597037
2555,Scottwood Avenue,43610,41.6725680,-83.5597024
2551,Scottwood Avenue,43610,41.6724530,-83.5597157
665,Islington Street,43610,41.6727525,-83.5602029
2564,Robinwood Avenue,43610,41.6727425,-83.5605270
2557,Robinwood Avenue,43610,41.6726370,-83.5611980
2563,Robinwood Avenue,43610,41.6727365,-83.5612265
2611,Robinwood Avenue,43610,41.6732205,-83.5613609
720,Islington Street,43610,41.6730819,-83.5617105
2604,Glenwood Avenue,43610,41.6730246,-83.5620619
2560,Maplewood Avenue,43610,41.6726370,-83.5634025
2561,Glenwood Avenue,43610,41.6726205,-83.5627175
2545,Glenwood Avenue,43610,41.6722460,-83.5626780
2560,Glenwood Avenue,43610,41.6725960,-83.5619930
717,Islington Street,43610,41.6727175,-83.5617380
711,Islington Street,43610,41.6727215,-83.5615330
2564,Glenwood Avenue,43610,41.6727275,-83.5619955
2608,Glenwood Avenue,43610,41.6731703,-83.5620669
2614,Glenwood Avenue,43610,41.6733045,-83.5620695
2618,Glenwood Avenue,43610,41.6734285,-83.5620724
2617,Glenwood Avenue,43610,41.6734230,-83.5627008
2613,Glenwood Avenue,43610,41.6732935,-83.5626861
2605,Glenwood Avenue,43610,41.6731383,-83.5626869
820,Islington Street,43610,41.6730017,-83.5631340
2626,Maplewood Avenue,43610,41.6735610,-83.5634320
2620,Maplewood Avenue,43610,41.6734610,-83.5634345
2612,Maplewood Avenue,43610,41.6733510,-83.5634360
2610,Maplewood Avenue,43610,41.6732410,-83.5634185
2608,Maplewood Avenue,43610,41.6731380,-83.5634215
2602,Lawrence Avenue,43610,41.6729604,-83.5646323
2604,Lawrence Avenue,43610,41.6730438,-83.5646389
2716,North Detroit Avenue,43610,41.6731444,-83.5646216
2718,North Detroit Avenue,43610,41.6732947,-83.5645259
2641,Maplewood Avenue,43610,41.6741930,-83.5639530
2641,Maplewood Avenue,43610,41.6739780,-83.5639255
2633,Maplewood Avenue,43610,41.6737590,-83.5639510
2629,Maplewood Avenue,43610,41.6735570,-83.5639535
854,Islington Street,43610,41.6730040,-83.5643395
850,Islington Street,43610,41.6729890,-83.5642140
2613,Maplewood Avenue,43610,41.6731360,-83.5639915
851,Islington Street,43610,41.6726047,-83.5641587
2563,Maplewood Avenue,43610,41.6726905,-83.5639350
2559,Maplewood Avenue,43610,41.6725700,-83.5639295
2553,Maplewood Avenue,43610,41.6724340,-83.5639145
2627,Glenwood Avenue,43610,41.6736802,-83.5626985
2630,Maplewood Avenue,43610,41.6737520,-83.5634360
2642,Maplewood Avenue,43610,41.6741354,-83.5634469
2660,Maplewood Avenue,43610,41.6745550,-83.5634600
2711,Glenwood Avenue,43610,41.6745803,-83.5627133
2838,North Detroit Avenue,43610,41.6753850,-83.5631970
811,Collins Street,43610,41.6753331,-83.5629641
2737,Glenwood Avenue,43610,41.6753133,-83.5627703
2729,Glenwood Avenue,43610,41.6750512,-83.5627435
2725,Glenwood Avenue,43610,41.6749333,-83.5627292
2721,Glenwood Avenue,43610,41.6748162,-83.5627123
2742,Glenwood Avenue,43610,41.6753833,-83.5621130
2835,Glenwood Avenue,43610,41.6757850,-83.5626645
2846,North Detroit Avenue,43610,41.6756641,-83.5629935
2730,Glenwood Avenue,43610,41.6752695,-83.5621422
2734,Glenwood Avenue,43610,41.6751654,-83.5621343
719,Collins Street,43610,41.6753602,-83.5617994
715,Collins Street,43610,41.6753651,-83.5616160
2739,Robinwood Avenue,43610,41.6753997,-83.5613025
2737,Robinwood Avenue,43610,41.6752870,-83.5612970
2731,Robinwood Avenue,43610,41.6751698,-83.5613004
2727,Robinwood Avenue,43610,41.6750613,-83.5612948
2721,Robinwood Avenue,43610,41.6749510,-83.5613050
2715,Robinwood Avenue,43610,41.6748190,-83.5613048
2713,Robinwood Avenue,43610,41.6747002,-83.5612840
2711,Robinwood Avenue,43610,41.6746070,-83.5612745
2707,Robinwood Avenue,43610,41.6744905,-83.5612645
2724,Glenwood Avenue,43610,41.6749385,-83.5620924
2716,Glenwood Avenue,43610,41.6747070,-83.5620920
2720,Glenwood Avenue,43610,41.6748176,-83.5620916
2717,Glenwood Avenue,43610,41.6746972,-83.5627122
2703,Glenwood Avenue,43610,41.6743558,-83.5627209
2647,Glenwood Avenue,43610,41.6742433,-83.5626988
2743,Glenwood Avenue,43610,41.6741292,-83.5627163
2635,Glenwood Avenue,43610,41.6739005,-83.5627025
2631,Glenwood Avenue,43610,41.6737935,-83.5627004
2639,Glenwood Avenue,43610,41.6740112,-83.5627095
2636,Glenwood Avenue,43610,41.6739221,-83.5620633
2629,Robinwood Avenue,43610,41.6738125,-83.5613105
2621,Robinwood Avenue,43610,41.6736460,-83.5612583
2624,Glenwood Avenue,43610,41.6735354,-83.5620109
2628,Glenwood Avenue,43610,41.6736557,-83.5620566
2632,Glenwood Avenue,43610,41.6737967,-83.5620532
2640,Glenwood Avenue,43610,41.6741331,-83.5620871
2644,Glenwood Avenue,43610,41.6742572,-83.5621034
2703,Robinwood Avenue,43610,41.6743769,-83.5612800
2647,Robinwood Avenue,43610,41.6742600,-83.5612856
2643,Robinwood Avenue,43610,41.6741510,-83.5612844
2637,Robinwood Avenue,43610,41.6740372,-83.5612974
2933,Robinwood Avenue,43610,41.6739233,-83.5612641
2638,Glenwood Avenue,43610,41.6740309,-83.5620748
2712,Glenwood Avenue,43610,41.6745875,-83.5621079
2708,Glenwood Avenue,43610,41.6744718,-83.5620999
530,West Delaware Avenue,43610,41.6712437,-83.5565522
2502,Parkwood Avenue,43610,41.6712340,-83.5569305
2510,Parkwood Avenue,43610,41.6713830,-83.5569460
2514,Parkwood Avenue,43610,41.6715265,-83.5569665
2520,Parkwood Avenue,43610,41.6716745,-83.5569467
2524,Parkwood Avenue,43610,41.6718040,-83.5569530
2555,Parkwood Avenue,43610,41.6726177,-83.5578011
2551,Parkwood Avenue,43610,41.6724700,-83.5577915
2545,Parkwood Avenue,43610,41.6723350,-83.5577965
2541,Parkwood Avenue,43610,41.6721920,-83.5578115
2535,Parkwood Avenue,43610,41.6720550,-83.5577765
2525,Parkwood Avenue,43610,41.6719210,-83.5578045
2523,Parkwood Avenue,43610,41.6717598,-83.5577840
2521,Parkwood Avenue,43610,41.6715665,-83.5577700
2509,Parkwood Avenue,43610,41.6713885,-83.5577995
2503,Parkwood Avenue,43610,41.6711820,-83.5577280
618,West Delaware Avenue,43610,41.6711770,-83.5578990
620,West Delaware Avenue,43610,41.6711780,-83.5581155
624,West Delaware Avenue,43610,41.6711730,-83.5582670
626,West Delaware Avenue,43610,41.6712200,-83.5584175
632,West Delaware Avenue,43610,41.6712170,-83.5585625
2504,Scottwood Avenue,43610,41.6711472,-83.5589254
2506,Scottwood Avenue,43610,41.6712580,-83.5589604
2510,Scottwood Avenue,43610,41.6713687,-83.5589662
2514,Scottwood Avenue,43610,41.6714950,-83.5589780
2520,Scottwood Avenue,43610,41.6716261,-83.5589825
2524,Scottwood Avenue,43610,41.6717748,-83.5589219
2532,Scottwood Avenue,43610,41.6718956,-83.5590053
2540,Scottwood Avenue,43610,41.6721367,-83.5589998
617,Islington Street,43610,41.6727635,-83.5581791
621,Islington Street,43610,41.6727728,-83.5583361
627,Islington Street,43610,41.6727658,-83.5585637
631,Islington Street,43610,41.6727625,-83.5587380
2562,Scottwood Avenue,43610,41.6727681,-83.5590366
2556,Scottwood Avenue,43610,41.6726270,-83.5590197
2552,Scottwood Avenue,43610,41.6725188,-83.5590211
2548,Scottwood Avenue,43610,41.6724088,-83.5590146
2544,Scottwood Avenue,43610,41.6722988,-83.5590156
2601,Parkwood Avenue,43610,41.6731128,-83.5578385
2607,Parkwood Avenue,43610,41.6732541,-83.5577910
2611,Parkwood Avenue,43610,41.6733854,-83.5578070
2617,Parkwood Avenue,43610,41.6735302,-83.5578138
2621,Parkwood Avenue,43610,41.6736495,-83.5578077
2625,Parkwood Avenue,43610,41.6737758,-83.5578556
2631,Parkwood Avenue,43610,41.6738835,-83.5578090
2635,Parkwood Avenue,43610,41.6740031,-83.5578359
615,Baldwin Place,43610,41.6740540,-83.5581615
627,Baldwin Place,43610,41.6740430,-83.5585713
623,Baldwin Place,43610,41.6740551,-83.5584319
631,Baldwin Place,43610,41.6740499,-83.5587105
2642,Scottwood Avenue,43610,41.6741099,-83.5590631
2636,Scottwood Avenue,43610,41.6739892,-83.5590792
2632,Scottwood Avenue,43610,41.6738803,-83.5590625
2628,Scottwood Avenue,43610,41.6737722,-83.5590675
2624,Scottwood Avenue,43610,41.6736590,-83.5590545
2620,Scottwood Avenue,43610,41.6735525,-83.5590315
2616,Scottwood Avenue,43610,41.6734520,-83.5590610
2612,Scottwood Avenue,43610,41.6733435,-83.5590290
2606,Scottwood Avenue,43610,41.6732240,-83.5590600
2602,Scottwood Avenue,43610,41.6730970,-83.5590440
634,Islington Street,43610,41.6731120,-83.5587706
630,Islington Street,43610,41.6731401,-83.5586593
2560,Robinwood Avenue,43610,41.6726170,-83.5605220
2604,Robinwood Avenue,43610,41.6730560,-83.5605260
670,Islington Street,43610,41.6730570,-83.5602000
662,Islington Street,43610,41.6730682,-83.5600384
2601,Scottwood Avenue,43610,41.6730750,-83.5597120
2607,Scottwood Avenue,43610,41.6731850,-83.5597305
2611,Scottwood Avenue,43610,41.6732965,-83.5597280
624,Islington Street,43610,41.6731110,-83.5584750
622,Islington Street,43610,41.6731190,-83.5583220
618,Islington Street,43610,41.6731340,-83.5581720
2740,Robinwood Avenue,43610,41.6754164,-83.5606139
2736,Robinwood Avenue,43610,41.6753115,-83.5606084
665,Collins Street,43610,41.6753856,-83.5603264
661,Collins Street,43610,41.6753888,-83.5601344
2743,Scottwood Avenue,43610,41.6754350,-83.5597865
2735,Scottwood Avenue,43610,41.6753330,-83.5597765
2727,Scottwood Avenue,43610,41.6750905,-83.5597815
2725,Scottwood Avenue,43610,41.6749820,-83.5597855
2721,Scottwood Avenue,43610,41.6748680,-83.5597630
2711,Scottwood Avenue,43610,41.6746320,-83.5597695
2707,Scottwood Avenue,43610,41.6745240,-83.5597630
2703,Scottwood Avenue,43610,41.6744215,-83.5597305
2647,Scottwood Avenue,43610,41.6742960,-83.5597345
2641,Scottwood Avenue,43610,41.6741820,-83.5597705
2639,Scottwood Avenue,43610,41.6740700,-83.5597465
2635,Scottwood Avenue,43610,41.6739560,-83.5597410
2631,Scottwood Avenue,43610,41.6738405,-83.5597505
2627,Scottwood Avenue,43610,41.6737330,-83.5597360
2623,Scottwood Avenue,43610,41.6736230,-83.5597330
2619,Scottwood Avenue,43610,41.6735150,-83.5597350
2615,Scottwood Avenue,43610,41.6734060,-83.5597345
2608,Robinwood Avenue,43610,41.6731840,-83.5605220
2612,Robinwood Avenue,43610,41.6733165,-83.5605200
2620,Robinwood Avenue,43610,41.6734600,-83.5605350
2626,Robinwood Avenue,43610,41.6737040,-83.5605445
2630,Robinwood Avenue,43610,41.6738190,-83.5605270
2634,Robinwood Avenue,43610,41.6739280,-83.5605135
2624,Robinwood Avenue,43610,41.6736020,-83.5605230
2638,Robinwood Avenue,43610,41.6740490,-83.5605230
2644,Robinwood Avenue,43610,41.6741661,-83.5605441
2702,Scottwood Avenue,43610,41.6744009,-83.5590726
2708,Scottwood Avenue,43610,41.6745211,-83.5590925
2712,Scottwood Avenue,43610,41.6746414,-83.5590732
632,Baldwin Place,43610,41.6744392,-83.5587311
628,Baldwin Place,43610,41.6744754,-83.5585726
620,Baldwin Place,43610,41.6744718,-83.5584279
2716,Scottwood Avenue,43610,41.6747627,-83.5590919
2718,Parkwood Avenue,43610,41.6747969,-83.5570776
2722,Parkwood Avenue,43610,41.6749710,-83.5567427
2744,Parkwood Avenue,43610,41.6754900,-83.5570900
2738,Parkwood Avenue,43610,41.6753825,-83.5570888
2734,Parkwood Avenue,43610,41.6752663,-83.5571024
2737,Parkwood Avenue,43610,41.6753640,-83.5578564
2733,Parkwood Avenue,43610,41.6752440,-83.5578385
2729,Parkwood Avenue,43610,41.6751420,-83.5578450
2731,Scottwood Avenue,43610,41.6752170,-83.5597750
2742,Scottwood Avenue,43610,41.6754535,-83.5591313
2738,Scottwood Avenue,43610,41.6753348,-83.5591252
2734,Scottwood Avenue,43610,41.6752276,-83.5591074
2730,Scottwood Avenue,43610,41.6751111,-83.5591107
2726,Scottwood Avenue,43610,41.6749913,-83.5591130
2720,Scottwood Avenue,43610,41.6748771,-83.5591011
616,Baldwin Place,43610,41.6744468,-83.5581581
2701,Parkwood Avenue,43610,41.6744277,-83.5578472
2707,Parkwood Avenue,43610,41.6745530,-83.5578235
2712,Parkwood Avenue,43610,41.6746264,-83.5570758
2702,Parkwood Avenue,43610,41.6743565,-83.5570676
2711,Parkwood Avenue,43610,41.6746683,-83.5578438
2715,Parkwood Avenue,43610,41.6747796,-83.5578564
2721,Parkwood Avenue,43610,41.6749046,-83.5578539
2725,Parkwood Avenue,43610,41.6750194,-83.5578604
617,Collins Street,43610,41.6754199,-83.5581166
619,Collins Street,43610,41.6754177,-83.5582492
621,Collins Street,43610,41.6754011,-83.5584035
625,Collins Street,43610,41.6754280,-83.5585275
629,Collins Street,43610,41.6753944,-83.5587044
635,Collins Street,43610,41.6753988,-83.5588387
535,Collins Street,43610,41.6754301,-83.5567802
531,Collins Street,43610,41.6754345,-83.5566387
527,Collins Street,43610,41.6754411,-83.5565002
523,Collins Street,43610,41.6754521,-83.5563628
2823,Collingwood Boulevard,43610,41.6755115,-83.5558525
519,Collins Street,43610,41.6754616,-83.5562259
2817,Collingwood Boulevard,43610,41.6753670,-83.5558760
2815,Collingwood Boulevard,43610,41.6752384,-83.5558294
2805,Collingwood Boulevard,43610,41.6750945,-83.5558210
2729,Collingwood Boulevard,43610,41.6749560,-83.5558220
2727,Collingwood Boulevard,43610,41.6748210,-83.5558315
2725,Collingwood Boulevard,43610,41.6746767,-83.5558450
2717,Collingwood Boulevard,43610,41.6744766,-83.5558520
2709,Collingwood Boulevard,43610,41.6742850,-83.5558455
2636,Parkwood Avenue,43610,41.6740580,-83.5570495
2630,Parkwood Avenue,43610,41.6739255,-83.5570510
2628,Parkwood Avenue,43610,41.6737820,-83.5570540
2616,Parkwood Avenue,43610,41.6734436,-83.5570484
2620,Parkwood Avenue,43610,41.6735484,-83.5570257
2608,Parkwood Avenue,43610,41.6733285,-83.5570595
2606,Parkwood Avenue,43610,41.6732210,-83.5570430
2602,Parkwood Avenue,43610,41.6731110,-83.5570295
2624,Parkwood Avenue,43610,41.6736722,-83.5570618
538,Islington Street,43610,41.6732095,-83.5567320
530,Islington Street,43610,41.6732129,-83.5565903
528,Islington Street,43610,41.6732167,-83.5564487
2619,Collingwood Boulevard,43610,41.6735130,-83.5558225
2701,Collingwood Boulevard,43610,41.6739418,-83.5558501
2627,Collingwood Boulevard,43610,41.6738062,-83.5558001
2705,Collingwood Boulevard,43610,41.6741030,-83.5558200
3031,Collingwood Boulevard,43610,41.6781429,-83.5558740
3415,Lagrange Street,43608,41.6852270,-83.5436460
3391,Lagrange Street,43608,41.6845700,-83.5434730
5900,Airport Highway,43615,41.6153105,-83.6820320
1520,Cherry Street,43608-2912,41.6639404,-83.5372140
2105,Warren Street,43620,41.6625130,-83.5470865
890,West Bancroft Street,43610,41.6640220,-83.5653950
2902,Monroe Street,43606,41.6641379,-83.5687407
2232,Hollywood Avenue,43606,41.6647500,-83.5655310
3008,Monroe Street,43606,41.6651910,-83.5705470
2516,North Detroit Avenue,43610,41.6712705,-83.5655775
266,East Alexis Road,43612,41.7216250,-83.5427220
1604,Prosperity Road,43612,41.7134420,-83.5826495
5133,Telegraph Road,43612,41.7099990,-83.5462155
5205,Telegraph Road,43612,41.7109900,-83.5466095
2526,North Detroit Avenue,43610,41.6716260,-83.5656125
2510,Lawrence Avenue,43610,41.6712234,-83.5645732
2516,Lawrence Avenue,43610,41.6713970,-83.5645910
2523,Lawrence Avenue,43610,41.6715485,-83.5650685
2325,Lawrence Avenue,43610,41.6716380,-83.5650725
2531,Lawrence Avenue,43610,41.6718310,-83.5650710
2537,Lawrence Avenue,43610,41.6719440,-83.5650690
2536,Lawrence Avenue,43610,41.6719620,-83.5646070
2541,Lawrence Avenue,43610,41.6720730,-83.5650750
2540,Lawrence Avenue,43610,41.6720705,-83.5646073
2554,Lawrence Avenue,43610,41.6724408,-83.5646168
2552,Lawrence Avenue,43610,41.6723509,-83.5646162
2513,Lawrence Avenue,43610,41.6713670,-83.5650725
2518,Lawrence Avenue,43610,41.6714817,-83.5645945
2524,Lawrence Avenue,43610,41.6716364,-83.5645863
2526,Lawrence Avenue,43610,41.6717465,-83.5644248
2522,Lawrence Avenue,43610,41.6715586,-83.5645989
2515,Maplewood Avenue,43610,41.6713665,-83.5638726
2519,Maplewood Avenue,43610,41.6714860,-83.5639135
2525,Maplewood Avenue,43610,41.6716840,-83.5639015
2529,Maplewood Avenue,43610,41.6717720,-83.5639065
2535,Maplewood Avenue,43610,41.6718710,-83.5639215
2543,Maplewood Avenue,43610,41.6720874,-83.5638970
2547,Maplewood Avenue,43610,41.6722006,-83.5639108
2553,Glenwood Avenue,43610,41.6724480,-83.5626865
2537,Glenwood Avenue,43610,41.6720570,-83.5626905
2533,Glenwood Avenue,43610,41.6719010,-83.5626555
2542,Maplewood Avenue,43610,41.6721477,-83.5633714
2538,Maplewood Avenue,43610,41.6720247,-83.5633798
2534,Maplewood Avenue,43610,41.6719107,-83.5633812
2519,Glenwood Avenue,43610,41.6715740,-83.5626635
2515,Glenwood Avenue,43610,41.6713920,-83.5626675
2507,Glenwood Avenue,43610,41.6712360,-83.5626470
2503,Glenwood Avenue,43610,41.6710825,-83.5626580
2501,Maplewood Avenue,43610,41.6710837,-83.5638841
2510,Maplewood Avenue,43610,41.6712834,-83.5633589
2516,Maplewood Avenue,43610,41.6713750,-83.5633647
2508,Maplewood Avenue,43610,41.6711850,-83.5633715
2520,Maplewood Avenue,43610,41.6714824,-83.5633615
2526,Maplewood Avenue,43610,41.6716921,-83.5633618
2527,Glenwood Avenue,43610,41.6717510,-83.5626825
2524,Maplewood Avenue,43610,41.6715795,-83.5633700
819,West Delaware Avenue,43610,41.6707610,-83.5630698
2490,Maplewood Avenue,43620,41.6706537,-83.5633193
2484,Maplewood Avenue,43620,41.6705395,-83.5633108
2494,Lawrence Avenue,43620,41.6706950,-83.5645250
851,West Delaware Avenue,43620,41.6707050,-83.5643385
2488,Lawrence Avenue,43620,41.6705866,-83.5645406
847,West Delaware Avenue,43620,41.6707460,-83.5641440
2491,Lawrence Avenue,43620,41.6706949,-83.5651283
2487,Lawrence Avenue,43620,41.6705722,-83.5651080
2479,Lawrence Avenue,43620,41.6703662,-83.5650361
915,West Delaware Avenue,43620,41.6706880,-83.5655120
2476,North Detroit Avenue,43620,41.6702418,-83.5664943
2473,Hollywood Avenue,43620,41.6701534,-83.5662399
2466,North Detroit Avenue,43620,41.6698299,-83.5667777
3550,Executive Pkwy,43606,41.6532570,-83.5700115
2481,Lawrence Avenue,43620,41.6704632,-83.5650426
2467,Lawrence Avenue,43620,41.6700631,-83.5650577
2463,Lawrence Avenue,43620,41.6699228,-83.5650413
2459,Lawrence Avenue,43620,41.6697767,-83.5650275
2472,Lawrence Avenue,43620,41.6701706,-83.5645286
2468,Lawrence Avenue,43620,41.6700616,-83.5645348
2469,Maplewood Avenue,43620,41.6701190,-83.5638662
2482,Lawrence Avenue,43620,41.6703931,-83.5645000
2454,Hollywood Avenue,43620,41.6696370,-83.5657225
2445,Hollywood Avenue,43620,41.6694245,-83.5662885
2437,Hollywood Avenue,43620,41.6692160,-83.5662615
2435,Hollywood Avenue,43620,41.6690980,-83.5662430
2434,Hollywood Avenue,43620,41.6691100,-83.5656970
2442,Hollywood Avenue,43620,41.6693265,-83.5657115
2449,Lawrence Avenue,43620,41.6695066,-83.5650284
2439,Lawrence Avenue,43620,41.6692192,-83.5650030
2452,Lawrence Avenue,43620,41.6695786,-83.5645118
2446,Lawrence Avenue,43620,41.6694760,-83.5644915
2442,Lawrence Avenue,43620,41.6693690,-83.5644919
2422,Hollywood Avenue,43620,41.6687785,-83.5657160
2418,Hollywood Avenue,43620,41.6686670,-83.5657080
2414,Hollywood Avenue,43620,41.6685750,-83.5657090
2415,Lawrence Avenue,43620,41.6685980,-83.5649849
2423,Lawrence Avenue,43620,41.6687945,-83.5649758
2437,Maplewood Avenue,43620,41.6692411,-83.5639027
2433,Maplewood Avenue,43620,41.6691120,-83.5638417
2429,Maplewood Avenue,43620,41.6690151,-83.5638164
2434,Lawrence Avenue,43620,41.6691335,-83.5644762
2430,Lawrence Avenue,43620,41.6690252,-83.5644832
2422,Lawrence Avenue,43620,41.6688153,-83.5644726
2412,Lawrence Avenue,43620,41.6684846,-83.5644510
2410,Lawrence Avenue,43620,41.6683740,-83.5644759
2376,Lawrence Avenue,43620,41.6682674,-83.5644540
2372,Lawrence Avenue,43620,41.6681583,-83.5644374
2364,Lawrence Avenue,43620,41.6679374,-83.5644392
2361,Lawrence Avenue,43620,41.6679321,-83.5649660
2369,Lawrence Avenue,43620,41.6680361,-83.5649832
2373,Lawrence Avenue,43620,41.6681445,-83.5649799
2405,Lawrence Avenue,43620,41.6683670,-83.5649860
2369,Maplewood Avenue,43620,41.6680666,-83.5637900
2363,Maplewood Avenue,43620,41.6678910,-83.5637794
2406,Maplewood Avenue,43620,41.6683147,-83.5632279
2372,Maplewood Avenue,43620,41.6681839,-83.5632237
2368,Maplewood Avenue,43620,41.6680599,-83.5632532
2360,Maplewood Avenue,43620,41.6677936,-83.5632549
2356,Maplewood Avenue,43620,41.6676529,-83.5632294
2353,Maplewood Avenue,43620,41.6676286,-83.5638069
2347,Maplewood Avenue,43620,41.6674974,-83.5637529
2348,Maplewood Avenue,43620,41.6675109,-83.5632488
2418,Maplewood Avenue,43620,41.6687480,-83.5632624
2447,Maplewood Avenue,43620,41.6695594,-83.5638638
2446,Maplewood Avenue,43620,41.6694217,-83.5632851
2434,Maplewood Avenue,43620,41.6691420,-83.5633005
2428,Maplewood Avenue,43620,41.6690134,-83.5632889
2459,Maplewood Avenue,43620,41.6698360,-83.5638595
2455,Robinwood Avenue,43620,41.6697119,-83.5611579
2447,Robinwood Avenue,43620,41.6695380,-83.5611930
2445,Robinwood Avenue,43620,41.6694010,-83.5611910
2437,Robinwood Avenue,43620,41.6692635,-83.5611669
2419,Robinwood Avenue,43620,41.6688056,-83.5611625
2401,Robinwood Avenue,43620,41.6685220,-83.5611400
2357,Robinwood Avenue,43620,41.6678194,-83.5611072
2363,Robinwood Avenue,43620,41.6679534,-83.5610903
2369,Robinwood Avenue,43620,41.6680841,-83.5611280
2373,Robinwood Avenue,43620,41.6682356,-83.5611223
2353,Robinwood Avenue,43620,41.6676815,-83.5610795
2328,Maplewood Avenue,43620,41.6668426,-83.5632416
2334,Maplewood Avenue,43620,41.6671159,-83.5632080
2325,Maplewood Avenue,43620,41.6668812,-83.5637613
2335,Maplewood Avenue,43620,41.6672149,-83.5637989
2343,Maplewood Avenue,43620,41.6673505,-83.5637512
2338,Maplewood Avenue,43620,41.6672501,-83.5632137
2329,Lawrence Avenue,43620,41.6669503,-83.5649248
2337,Lawrence Avenue,43620,41.6671700,-83.5649583
2332,Lawrence Avenue,43620,41.6670649,-83.5644086
2346,Lawrence Avenue,43620,41.6673984,-83.5644048
2350,Lawrence Avenue,43620,41.6674961,-83.5644444
2347,Lawrence Avenue,43620,41.6674932,-83.5649561
2343,Lawrence Avenue,43620,41.6673800,-83.5649560
2350,Hollywood Avenue,43620,41.6674950,-83.5656420
2346,Hollywood Avenue,43620,41.6673885,-83.5656315
2338,Hollywood Avenue,43620,41.6671535,-83.5656690
2334,Hollywood Avenue,43620,41.6670530,-83.5656580
2341,Hollywood Avenue,43620,41.6672740,-83.5661735
2349,Hollywood Avenue,43620,41.6674920,-83.5661980
2353,Hollywood Avenue,43620,41.6676100,-83.5662185
2361,Hollywood Avenue,43620,41.6678160,-83.5662335
2355,Hollywood Avenue,43620,41.6677160,-83.5662265
2374,Rosewood Avenue,43620,41.6681116,-83.5668819
2401,Hollywood Avenue,43620,41.6682435,-83.5662150
2410,Rosewood Avenue,43620,41.6685640,-83.5668785
2367,Hollywood Avenue,43620,41.6680190,-83.5662055
2402,Hollywood Avenue,43620,41.6682555,-83.5656930
2372,Hollywood Avenue,43620,41.6681300,-83.5656770
2368,Hollywood Avenue,43620,41.6680370,-83.5656850
2360,Hollywood Avenue,43620,41.6678370,-83.5656740
2356,Hollywood Avenue,43620,41.6677240,-83.5656890
2352,Hollywood Avenue,43620,41.6676110,-83.5656890
619,Acklin Avenue,43620,41.6668124,-83.5580185
617,Acklin Avenue,43620,41.6668106,-83.5579018
613,Acklin Avenue,43620,41.6668095,-83.5577887
605,Acklin Avenue,43620,41.6668131,-83.5575765
609,Acklin Avenue,43620,41.6668157,-83.5576818
2329,Parkwood Avenue,43620,41.6671922,-83.5575071
2337,Parkwood Avenue,43620,41.6673228,-83.5575134
618,Winthrop Street,43620,41.6679182,-83.5580549
624,Winthrop Street,43620,41.6679025,-83.5581803
626,Winthrop Street,43620,41.6679040,-83.5583235
638,Winthrop Street,43620,41.6678949,-83.5587584
628,Winthrop Street,43620,41.6679174,-83.5584780
630,Winthrop Street,43620,41.6679062,-83.5585963
2372,Scottwood Avenue,43620,41.6682474,-83.5590030
639,Stratford Place,43620,41.6682565,-83.5588230
633,Stratford Place,43620,41.6682535,-83.5586525
631,Stratford Place,43620,41.6682466,-83.5584977
625,Stratford Place,43620,41.6682515,-83.5583295
619,Stratford Place,43620,41.6682575,-83.5581545
611,Stratford Place,43620,41.6682510,-83.5578366
601,Stratford Place,43620,41.6682571,-83.5575034
609,Stratford Place,43620,41.6682675,-83.5576720
2370,Parkwood Avenue,43620,41.6681935,-83.5570400
541,Colonial Court,43620,41.6682385,-83.5567615
535,Colonial Court,43620,41.6682395,-83.5566365
545,Colonial Court,43620,41.6682275,-83.5568965
540,Winthrop Street,43620,41.6679190,-83.5567520
532,Winthrop Street,43620,41.6679200,-83.5566245
530,Winthrop Street,43620,41.6679300,-83.5565082
526,Winthrop Street,43620,41.6679587,-83.5561911
533,Colonial Court,43620,41.6682340,-83.5564950
534,Colonial Court,43620,41.6684880,-83.5565114
538,Colonial Court,43620,41.6684874,-83.5566420
544,Colonial Court,43620,41.6684670,-83.5569035
2404,Parkwood Avenue,43620,41.6685040,-83.5570390
542,Colonial Court,43620,41.6684673,-83.5567638
532,Colonial Court,43620,41.6684769,-83.5563642
608,Stratford Place,43620,41.6687030,-83.5576760
604,Stratford Place,43620,41.6687160,-83.5575190
2419,Parkwood Avenue,43620,41.6688590,-83.5575230
2427,Parkwood Avenue,43620,41.6690674,-83.5575775
615,Chatham Court,43620,41.6690460,-83.5580045
623,Chatham Court,43620,41.6690288,-83.5582839
619,Chatham Court,43620,41.6690240,-83.5581410
2428,Scottwood Avenue,43620,41.6691333,-83.5588705
624,Chatham Court,43620,41.6693510,-83.5583133
626,Chatham Court,43620,41.6692346,-83.5584227
625,Chatham Court,43620,41.6691112,-83.5584230
2424,Scottwood Avenue,43620,41.6689378,-83.5588901
2418,Scottwood Avenue,43620,41.6687865,-83.5589621
644,Stratford Place,43620,41.6686809,-83.5589731
636,Stratford Place,43620,41.6686955,-83.5587810
634,Stratford Place,43620,41.6687000,-83.5585985
628,Stratford Place,43620,41.6686950,-83.5584065
614,Stratford Place,43620,41.6687030,-83.5578435
618,Stratford Place,43620,41.6687195,-83.5580300
620,Stratford Place,43620,41.6686990,-83.5582165
2444,Scottwood Avenue,43620,41.6695567,-83.5588726
626,Tennyson Place,43620,41.6699433,-83.5584860
2456,Scottwood Avenue,43620,41.6698724,-83.5589096
625,Tennyson Place,43620,41.6698072,-83.5584812
621,Tennyson Place,43620,41.6696936,-83.5581541
623,Tennyson Place,43620,41.6697003,-83.5582996
617,Tennyson Place,43620,41.6697101,-83.5580181
611,Tennyson Place,43620,41.6697277,-83.5578806
2439,Parkwood Avenue,43620,41.6694230,-83.5575580
2443,Parkwood Avenue,43620,41.6695240,-83.5575660
2449,Parkwood Avenue,43620,41.6697327,-83.5576265
2444,Parkwood Avenue,43620,41.6695410,-83.5570150
2445,Parkwood Avenue,43620,41.6696352,-83.5576066
2437,Parkwood Avenue,43620,41.6693105,-83.5575715
612,Chatham Court,43620,41.6693155,-83.5578881
616,Chatham Court,43620,41.6693200,-83.5580291
620,Chatham Court,43620,41.6693629,-83.5581485
2448,Parkwood Avenue,43620,41.6696340,-83.5569960
2450,Parkwood Avenue,43620,41.6697543,-83.5570106
537,Tennyson Place,43620,41.6697440,-83.5567400
535,Tennyson Place,43620,41.6697520,-83.5565990
531,Tennyson Place,43620,41.6697540,-83.5564755
527,Tennyson Place,43620,41.6697700,-83.5563360
523,Tennyson Place,43620,41.6698545,-83.5561470
2475,Collingwood Boulevard,43620,41.6704444,-83.5556505
524,Islington Street,43610,41.6732325,-83.5563034
2770,West Central Avenue,43606,41.6782023,-83.6104936
821,West Woodruff Avenue,43620,41.6599691,-83.5626960
4235,Douglas Road,43613,41.6962718,-83.6042061
198,Dura Avenue,43612,41.6998108,-83.5438654
2486,Robinwood Avenue,43620,41.6706380,-83.5603750
2480,Robinwood Avenue,43620,41.6705035,-83.5604345
2476,Robinwood Avenue,43620,41.6703610,-83.5604280
2472,Robinwood Avenue,43620,41.6702350,-83.5604440
2487,Scottwood Avenue,43620,41.6708122,-83.5597120
2483,Scottwood Avenue,43620,41.6706537,-83.5597380
2479,Scottwood Avenue,43620,41.6704973,-83.5596931
2465,Scottwood Avenue,43620,41.6703428,-83.5597211
2459,Scottwood Avenue,43620,41.6702080,-83.5597203
2464,Scottwood Avenue,43620,41.6700630,-83.5589135
2468,Scottwood Avenue,43620,41.6702210,-83.5589250
2474,Scottwood Avenue,43620,41.6703598,-83.5589406
2480,Scottwood Avenue,43620,41.6705083,-83.5589415
2484,Scottwood Avenue,43620,41.6706178,-83.5589375
2486,Scottwood Avenue,43620,41.6707413,-83.5589435
2492,Scottwood Avenue,43620,41.6708540,-83.5589516
631,West Delaware Avenue,43610,41.6707904,-83.5586098
627,West Delaware Avenue,43610,41.6707967,-83.5584702
619,West Delaware Avenue,43610,41.6707886,-83.5581676
623,West Delaware Avenue,43610,41.6707956,-83.5583241
2455,Scottwood Avenue,43620,41.6700587,-83.5597225
2451,Scottwood Avenue,43620,41.6698850,-83.5597367
2447,Scottwood Avenue,43620,41.6696748,-83.5597294
2460,Robinwood Avenue,43620,41.6699600,-83.5604295
2458,Robinwood Avenue,43620,41.6698245,-83.5604260
620,Tennyson Place,43620,41.6700439,-83.5581630
616,Tennyson Place,43620,41.6700503,-83.5580232
612,Tennyson Place,43620,41.6700431,-83.5578884
2469,Parkwood Avenue,43620,41.6702582,-83.5576510
2473,Parkwood Avenue,43620,41.6703731,-83.5576223
2465,Parkwood Avenue,43620,41.6701521,-83.5575977
2479,Parkwood Avenue,43620,41.6705194,-83.5576956
2485,Parkwood Avenue,43620,41.6706390,-83.5577200
2487,Parkwood Avenue,43620,41.6707625,-83.5577210
2491,Parkwood Avenue,43620,41.6708788,-83.5576932
663,Islington Street,43610,41.6727494,-83.5600529
2563,Scottwood Avenue,43610,41.6727383,-83.5597453
2648,Robinwood Avenue,43610,41.6742750,-83.5605405
2712,Robinwood Avenue,43610,41.6746034,-83.5605861
2708,Robinwood Avenue,43610,41.6744942,-83.5605605
2704,Robinwood Avenue,43610,41.6743931,-83.5605467
2716,Robinwood Avenue,43610,41.6747320,-83.5605901
2724,Robinwood Avenue,43610,41.6749724,-83.5605840
2720,Robinwood Avenue,43610,41.6748505,-83.5606004
2728,Robinwood Avenue,43610,41.6750884,-83.5605962
2732,Robinwood Avenue,43610,41.6751984,-83.5606079
2833,Scottwood Avenue,43610,41.6758664,-83.5598707
2829,Scottwood Avenue,43610,41.6757383,-83.5597924
662,Collins Street,43610,41.6757550,-83.5601195
2832,Scottwood Avenue,43610,41.6757396,-83.5591534
2836,Scottwood Avenue,43610,41.6758552,-83.5591492
2844,Scottwood Avenue,43610,41.6760775,-83.5591440
2840,Scottwood Avenue,43610,41.6759634,-83.5591545
2833,Rockwood Place,43610,41.6758564,-83.5587369
2829r,Rockwood Place,43610,41.6757559,-83.5587410
2845,Scottwood Avenue,43610,41.6760880,-83.5598325
2839,Scottwood Avenue,43610,41.6759786,-83.5598385
2847,Scottwood Avenue,43610,41.6762187,-83.5598389
2853,Scottwood Avenue,43610,41.6763390,-83.5598352
2859,Scottwood Avenue,43610,41.6765553,-83.5598258
2857,Scottwood Avenue,43610,41.6764435,-83.5598778
2911,Scottwood Avenue,43610,41.6768796,-83.5598468
2901,Scottwood Avenue,43610,41.6767740,-83.5598479
2910,Scottwood Avenue,43610,41.6768335,-83.5592318
2906,Scottwood Avenue,43610,41.6767283,-83.5592146
2902,Scottwood Avenue,43610,41.6766282,-83.5592039
2854,Scottwood Avenue,43610,41.6763642,-83.5591890
2846,Scottwood Avenue,43610,41.6761722,-83.5591713
2850,Scottwood Avenue,43610,41.6762710,-83.5591872
2860,Scottwood Avenue,43610,41.6765371,-83.5592055
2858,Scottwood Avenue,43610,41.6764624,-83.5592039
2841,Rockwood Place,43610,41.6760724,-83.5587178
2849,Rockwood Place,43610,41.6762740,-83.5587090
2845,Rockwood Place,43610,41.6761680,-83.5587055
2830,Rockwood Place,43610,41.6757757,-83.5582280
2840,Rockwood Place,43610,41.6759830,-83.5582405
2838,Rockwood Place,43610,41.6758910,-83.5582445
2844,Rockwood Place,43610,41.6760944,-83.5582609
2848,Rockwood Place,43610,41.6761850,-83.5582335
2854,Rockwood Place,43610,41.6762810,-83.5582430
2856,Rockwood Place,43610,41.6763725,-83.5582515
2858,Rockwood Place,43610,41.6764730,-83.5582555
2902,Rockwood Place,43610,41.6765760,-83.5582595
2905,Rockwood Place,43610,41.6765764,-83.5587146
2855,Rockwood Place,43610,41.6764660,-83.5587165
2853,Rockwood Place,43610,41.6763740,-83.5587125
2907,Rockwood Place,43610,41.6767086,-83.5587356
2914,Scottwood Avenue,43610,41.6769500,-83.5592314
2918,Scottwood Avenue,43610,41.6770500,-83.5592250
2922,Scottwood Avenue,43610,41.6771480,-83.5592170
2926,Scottwood Avenue,43610,41.6772560,-83.5592340
2929,Rockwood Place,43610,41.6772665,-83.5587620
2919,Rockwood Place,43610,41.6770330,-83.5587285
2925,Rockwood Place,43610,41.6771620,-83.5587345
2915,Rockwood Place,43610,41.6769290,-83.5587260
2911,Rockwood Place,43610,41.6768175,-83.5587140
637,Nesslewood Avenue,43610,41.6772566,-83.5590396
2906,Rockwood Place,43610,41.6766800,-83.5582620
2912,Rockwood Place,43610,41.6767911,-83.5582601
2916,Rockwood Place,43610,41.6768969,-83.5582701
2918,Rockwood Place,43610,41.6770066,-83.5582788
2922,Rockwood Place,43610,41.6771052,-83.5582756
2928,Rockwood Place,43610,41.6772006,-83.5582807
2897,Parkwood Avenue,43610,41.6765525,-83.5577900
2901,Parkwood Avenue,43610,41.6766523,-83.5577802
2907,Parkwood Avenue,43610,41.6767514,-83.5577872
2909,Parkwood Avenue,43610,41.6768555,-83.5577780
2913,Parkwood Avenue,43610,41.6769691,-83.5577891
2921,Parkwood Avenue,43610,41.6771894,-83.5578008
2927,Parkwood Avenue,43610,41.6773005,-83.5577947
2925,Scottwood Avenue,43610,41.6772340,-83.5598415
665,Nesslewood Avenue,43610,41.6772254,-83.5600429
667,Nesslewood Avenue,43610,41.6772289,-83.5601722
2856,Robinwood Avenue,43610,41.6764729,-83.5605475
701,West Central Avenue,43610,41.6780207,-83.5598845
3015,Scottwood Avenue,43610,41.6778989,-83.5597742
719,West Central Avenue,43610,41.6780829,-83.5603376
733,West Central Avenue,43610,41.6779637,-83.5609263
745,West Central Avenue,43610,41.6779652,-83.5611782
3024,North Detroit Avenue,43610,41.6778015,-83.5616359
3020,North Detroit Avenue,43610,41.6776929,-83.5616847
3002,North Detroit Avenue,43610,41.6775538,-83.5617063
742,Nesslewood Avenue,43610,41.6775476,-83.5611861
738,Nesslewood Avenue,43610,41.6775507,-83.5610677
734,Nesslewood Avenue,43610,41.6775762,-83.5609499
732,Nesslewood Avenue,43610,41.6775731,-83.5608080
730,Nesslewood Avenue,43610,41.6775817,-83.5606452
668,Nesslewood Avenue,43610,41.6775688,-83.5601849
662,Nesslewood Avenue,43610,41.6775923,-83.5600487
3001,Scottwood Avenue,43610,41.6775685,-83.5597484
640,Nesslewood Avenue,43610,41.6775801,-83.5591115
636,Nesslewood Avenue,43610,41.6776068,-83.5589855
630,Nesslewood Avenue,43610,41.6775864,-83.5588145
626,Nesslewood Avenue,43610,41.6775995,-83.5586441
624,Nesslewood Avenue,43610,41.6776034,-83.5585097
620,Nesslewood Avenue,43610,41.6776156,-83.5583320
614,Nesslewood Avenue,43610,41.6776143,-83.5581991
610,Nesslewood Avenue,43610,41.6776172,-83.5580430
3027,Parkwood Avenue,43610,41.6779396,-83.5577909
3016,Scottwood Avenue,43610,41.6779140,-83.5593645
641,West Central Avenue,43610,41.6780838,-83.5593593
639,West Central Avenue,43610,41.6781100,-83.5592190
637,West Central Avenue,43610,41.6781130,-83.5590935
635,West Central Avenue,43610,41.6781220,-83.5589715
629,West Central Avenue,43610,41.6781150,-83.5588585
623,West Central Avenue,43610,41.6781147,-83.5587530
621,West Central Avenue,43610,41.6781189,-83.5586472
615,West Central Avenue,43610,41.6781364,-83.5584255
609,West Central Avenue,43610,41.6781334,-83.5581904
605,West Central Avenue,43610,41.6781284,-83.5580870
603,West Central Avenue,43610,41.6781281,-83.5579738
3036,Parkwood Avenue,43610,41.6781922,-83.5572801
3032,Parkwood Avenue,43610,41.6780986,-83.5572843
3028,Parkwood Avenue,43610,41.6780027,-83.5572787
3024,Parkwood Avenue,43610,41.6778980,-83.5572735
3020,Parkwood Avenue,43610,41.6777940,-83.5572735
3006,Parkwood Avenue,43610,41.6776930,-83.5572565
3002,Parkwood Avenue,43610,41.6775880,-83.5572605
538,Nesslewood Avenue,43610,41.6776340,-83.5569075
527,West Central Avenue,43610,41.6781890,-83.5564657
529,West Central Avenue,43610,41.6781771,-83.5566027
533,West Central Avenue,43610,41.6781749,-83.5567229
535,West Central Avenue,43610,41.6781743,-83.5568325
537,West Central Avenue,43610,41.6781692,-83.5569452
534,Nesslewood Avenue,43610,41.6776340,-83.5567745
3015,Collingwood Boulevard,43610,41.6776825,-83.5559365
526,Nesslewood Avenue,43610,41.6776300,-83.5564795
530,Nesslewood Avenue,43610,41.6776360,-83.5566340
2924,Parkwood Avenue,43610,41.6771910,-83.5572080
2916,Parkwood Avenue,43610,41.6770660,-83.5571985
2926,Parkwood Avenue,43610,41.6772990,-83.5571675
2912,Parkwood Avenue,43610,41.6769520,-83.5571810
2915,Burnett Place,43610,41.6769953,-83.5567535
2917,Burnett Place,43610,41.6770930,-83.5567585
2921,Burnett Place,43610,41.6772169,-83.5567559
2925,Burnett Place,43610,41.6773253,-83.5567639
2926,Burnett Place,43610,41.6773249,-83.5562910
2922,Burnett Place,43610,41.6772286,-83.5563004
2918,Burnett Place,43610,41.6771186,-83.5563031
2914,Burnett Place,43610,41.6770039,-83.5562824
2910,Burnett Place,43610,41.6768513,-83.5564418
2933,Collingwood Boulevard,43610,41.6770388,-83.5558572
2941,Collingwood Boulevard,43610,41.6772175,-83.5558735
3003,Collingwood Boulevard,43610,41.6773410,-83.5558710
36,Proctor Place,43610,41.6767119,-83.5565862
520,Nottingham Terrace,43610,41.6764500,-83.5562469
2913,Collingwood Boulevard,43610,41.6765150,-83.5558265
2909,Collingwood Boulevard,43610,41.6763949,-83.5558219
512,Nottingham Terrace,43610,41.6764527,-83.5559942
516,Nottingham Terrace,43610,41.6764411,-83.5561130
521,Nottingham Terrace,43610,41.6761487,-83.5563796
2921,Collingwood Boulevard,43610,41.6767078,-83.5558525
519,Nottingham Terrace,43610,41.6760765,-83.5562290
17,Proctor Place,43610,41.6763770,-83.5567800
22,Proctor Place,43610,41.6762442,-83.5565409
18,Proctor Place,43610,41.6761495,-83.5567411
2846,Parkwood Avenue,43610,41.6761410,-83.5571865
2852,Parkwood Avenue,43610,41.6763740,-83.5572095
2860,Parkwood Avenue,43610,41.6764972,-83.5571803
45,Proctor Place,43610,41.6764970,-83.5569810
11,Proctor Place,43610,41.6763650,-83.5569715
41,Proctor Place,43610,41.6765210,-83.5567509
2837,Collins Street,43610,41.6760200,-83.5558080
515,Nottingham Terrace,43610,41.6760842,-83.5560995
511,Nottingham Terrace,43610,41.6760821,-83.5559722
528,Collins Street,43610,41.6758350,-83.5565100
524,Collins Street,43610,41.6758490,-83.5563695
520,Collins Street,43610,41.6758375,-83.5562100
512,Collins Street,43610,41.6758590,-83.5560335
540,Collins Street,43610,41.6758399,-83.5569193
2829,Collins Street,43610,41.6758965,-83.5558031
2830,Parkwood Avenue,43610,41.6757817,-83.5571735
2834,Parkwood Avenue,43610,41.6758928,-83.5571826
2840,Parkwood Avenue,43610,41.6760049,-83.5571879
536,Collins Street,43610,41.6758285,-83.5567700
2831,Parkwood Avenue,43610,41.6757855,-83.5577910
2835,Parkwood Avenue,43610,41.6759040,-83.5577900
2839,Parkwood Avenue,43610,41.6760170,-83.5577980
2841,Parkwood Avenue,43610,41.6761300,-83.5577975
2847,Parkwood Avenue,43610,41.6762445,-83.5578260
2853,Parkwood Avenue,43610,41.6763500,-83.5577980
2857,Parkwood Avenue,43610,41.6764560,-83.5578045
817,East Broadway,43605,41.6357977,-83.5153428
3308,Secor Road,43606,41.6809028,-83.6221094
2541,Orchard Hills Boulevard,43615,41.6678419,-83.6909661
5859,Elmer Drive,43615,41.6687226,-83.6819494
5845,Elmer Drive,43615,41.6686156,-83.6814428
3900,North Summit Street,43611,41.6935574,-83.4728971
3900,North Summit Street,43611,41.6937116,-83.4729387
3900,North Summit Street,43611,41.6939726,-83.4733662
3124,Monroe Street,43606,41.6662477,-83.5729843
3536,Secor Road,43606,41.6845691,-83.6204606
5112,Trimble Road,43613,41.7091405,-83.6094712
14,South Superior Street,43602,41.6475707,-83.5398644
12,South Superior Street,43602,41.6476627,-83.5397893
2040,South Reynolds Road,43614,41.6023756,-83.6678740
3561,Airport Highway,43609,41.6234146,-83.6281135
1526,Cherry Street,43608,41.6642155,-83.5377370
4306,West Sylvania Avenue,43623,41.6916700,-83.6453387
5037,Suder Avenue,43611,41.7124854,-83.5004699
222,Dura Avenue,43612,41.6992746,-83.5410779
3970,Catawba Street,43612,41.6925436,-83.5492890
3934,Concord Street,43612,41.6919787,-83.5477713
3840,Lagrange Street,43612,41.6910421,-83.5449172
3860,Lagrange Street,43612,41.6914922,-83.5453421
3916,Lagrange Street,43612,41.6919028,-83.5454227
3928,Lagrange Street,43612,41.6922636,-83.5457081
3922,Lagrange Street,43612,41.6930237,-83.5459930
3977,Lagrange Street,43612,41.6929282,-83.5464955
4005,Lagrange Street,43612,41.6934172,-83.5467216
4002,Lagrange Street,43612,41.6935227,-83.5459982
4026,Lagrange Street,43612,41.6941133,-83.5452033
4103,Lagrange Street,43612,41.6947439,-83.5474808
4103,Lagrange Street,43612,41.6952247,-83.5474703
4401,Lagrange Street,43612,41.6969397,-83.5487036
25,West Sylvania Avenue,43612,41.6929575,-83.5472641
5124,North Summit Street,43611,41.7148969,-83.4787010
5153,North Summit Street,43611,41.7161210,-83.4797116
5210,North Summit Street,43611,41.7168022,-83.4785262
5300,North Summit Street,43611,41.7180149,-83.4788942
5322,North Summit Street,43611,41.7184445,-83.4786924
5406,North Summit Street,43611,41.7187452,-83.4789017
3907,North Detroit Avenue,43612,41.6914211,-83.5533311
3915,North Detroit Avenue,43612,41.6918606,-83.5531966
4075,North Detroit Avenue,43612,41.6934110,-83.5528207
4093,North Detroit Avenue,43612,41.6948292,-83.5519497
253,Waggoner Boulevard,43612,41.6996679,-83.5511430
253,Waggoner Boulevard,43612,41.7004476,-83.5502369
4665,North Detroit Avenue,43612,41.7031482,-83.5473822
3532,Lagrange Street,43608,41.6867224,-83.5435751
3423,Lagrange Street,43608,41.6854436,-83.5438501
3336,Lagrange Street,43608,41.6832919,-83.5422056
3236,Stickney Avenue,43608,41.6821264,-83.5263832
5452,Telegraph Road,43612,41.7163039,-83.5466728
5500,Telegraph Road,43612,41.7170069,-83.5462884
5600,Telegraph Road,43612,41.7178293,-83.5466961
5070,Telegraph Road,43612,41.7098660,-83.5435876
3345,Jeep Parkway,43610,41.6836982,-83.5672726
1028,West Central Avenue,43610,41.6784222,-83.5681009
3315,Mayo Street,43611,41.6846087,-83.4926649
621,New York Avenue,43611,41.6814300,-83.4997652
3149,North Summit Street,43611,41.6818433,-83.4932163
2936,Lagrange Street,43608,41.6778709,-83.5399316
244,Bronson Avenue,43608,41.6771567,-83.5383762
3015,Lagrange Street,43608,41.6781717,-83.5408507
1001,Berdan Avenue,43612,41.6887975,-83.5657873
5875,Hagman Road,43612,41.7242856,-83.5115605
3700,Dorr Street,43607,41.6539202,-83.6310771
3839,Talmadge Road,43606,41.6893093,-83.6451211
4517,West Bancroft Street,43615,41.6616146,-83.6491740
2126,Char-Ming Avenue,43615,41.6610674,-83.6720374
2860,West Central Avenue,43606,41.6778188,-83.6144972
1114,Washington Street,43604,41.6509962,-83.5450261
5934,Secor Road,43623,41.7235287,-83.6239072
3733,Stickney Avenue,43608,41.6921088,-83.5291168
5077,Monroe Street,43623,41.6986593,-83.6464845
4990,Monroe Street,43623,41.6983897,-83.6409169
3333,Dorr Street,43607,41.6525024,-83.6224882
5901,Skyview Drive,43612,41.7254906,-83.5371876
5928,315th Street,43611,41.7263663,-83.4665391
5556,Edgewater Drive,43611,41.7216741,-83.4695679
3414,Dorr Street,43607,41.6538982,-83.6244246
2649,Maplewood Avenue,43610,41.6742707,-83.5639182
2655,Maplewood Avenue,43610,41.6743837,-83.5639259
715,Virginia Street,43620,41.6659536,-83.5613875
2040,Robinwood Avenue,43620,41.6613845,-83.5601787
2002,Robinwood Avenue,43620,41.6602249,-83.5599012
2520,Monroe Street,43610,41.6601953,-83.5597292
2357,Collingwood Boulevard,43620,41.6679867,-83.5556692
2403,Collingwood Boulevard,43620,41.6685054,-83.5556989
2425,Collingwood Boulevard,43620,41.6691096,-83.5556269
522,Nottingham Terrace,43610,41.6763707,-83.5563810
2743,Parkwood Avenue,43610,41.6754647,-83.5578473
633,Winthrop Street,43620,41.6675455,-83.5585911
627,Virginia Street,43620,41.6659705,-83.5582767
900,North Westwood Avenue,43607,41.6495893,-83.6059870
527,Virginia Street,43620,41.6660310,-83.5563531
3019,Nebraska Avenue,43607,41.6436051,-83.6151679
1171,Woodsdale,43614,41.6151692,-83.5907631
1700,North Westwood Avenue,43607,41.6565180,-83.6062891
1745,Stadium Drive,43606,41.6571744,-83.6136587
2532,Evergreen Road,43606,41.6697415,-83.6304229
2444,Monroe Street,43620,41.6596582,-83.5580700
2860,Glenwood Avenue,43610,41.6764438,-83.5617341
2152,Robinwood Avenue,43610,41.6635830,-83.5601329
