House number,Street name,Postal code,Latitude,Longitude
1555,West Lane Avenue,43221,40.0066484,-83.0525156
3090,Kingsdale Center,43221,40.0203932,-83.0602622
1600,West Lane Avenue,43221,40.0073141,-83.0533360
2090,Tremont Center,43221,40.0141870,-83.0675594
3566,Riverside Drive,43221,40.0262202,-83.0908144
3140,Tremont Road,43221,40.0212067,-83.0592492
2094,Tremont Center,43221,40.0141216,-83.0676832
3600,Tremont Road,43221,40.0313353,-83.0511524
3237,Tremont Road,43221,40.0230103,-83.0595808
3231,Tremont Road,43221,40.0227970,-83.0597773
3241,Tremont Road,43221,40.0230935,-83.0594980
3235,Tremont Road,43221,40.0229646,-83.0596187
2100,Tremont Center,43221,40.0141277,-83.0678325
2124,Tremont Center,43221,40.0143339,-83.0686655
2118,Tremont Center,43221,40.0143267,-83.0685148
2116,Tremont Center,43221,40.0143246,-83.0684300
1800,Zollinger Road,43221,40.0192646,-83.0609681
2812,Fishinger Road,43221,40.0306918,-83.0910569
2049,West Henderson Road,43220,40.0564376,-83.0745432
1750,West Lane Avenue,43221,40.0075303,-83.0565972
1430,West Lane Avenue,43221,40.0071971,-83.0483180
1700,West Lane Avenue,43221,40.0075197,-83.0563018
1645,West Lane Avenue,43221,40.0067255,-83.0545525
1733,West Lane Avenue,43221,40.0065320,-83.0563643
4700,Reed Road,43220,40.0518781,-83.0664123
2124,Arlington Avenue,43221,39.9996617,-83.0618597
1962,North Mallway Drive,43221,39.9994786,-83.0613498
1510,West Lane Avenue,43221,40.0071876,-83.0506588
3061,Kingsdale Center,43221,40.0202263,-83.0577493
3061,Kingsdale Center,43221,40.0203213,-83.0590092
3061,Kingsdale Center,43221,40.0203175,-83.0592827
3061,Kingsdale Center,43221,40.0202962,-83.0585171
2450,Northwest Boulevard,43221,40.0067458,-83.0578760
2448,Northwest Boulevard,43221,40.0066913,-83.0578692
1750,West Lane Avenue,43221,40.0075380,-83.0567530
1700,West Lane Avenue,43221,40.0075164,-83.0561092
1600,West Lane Avenue,43221,40.0072858,-83.0529650
1600,West Lane Avenue,43221,40.0072826,-83.0533505
1600,West Lane Avenue,43221,40.0072882,-83.0534741
1600,West Lane Avenue,43221,40.0072969,-83.0536676
1545,West Lane Avenue,43221,40.0067052,-83.0516529
1541,West Lane Avenue,43221,40.0068900,-83.0516491
3003,Brandon Road,43221,40.0183171,-83.0564094
3009,Brandon Road,43221,40.0185190,-83.0563989
3005,Brandon Road,43221,40.0184024,-83.0564050
3007,Brandon Road,43221,40.0184323,-83.0564034
2995,Brandon Road,43221,40.0182218,-83.0564294
2993,Brandon Road,43221,40.0181117,-83.0564363
2985,Brandon Road,43221,40.0180199,-83.0564327
2983,Brandon Road,43221,40.0179091,-83.0564405
2975,Brandon Road,43221,40.0178022,-83.0564511
2973,Brandon Road,43221,40.0177083,-83.0564557
2963,Brandon Road,43221,40.0175005,-83.0564732
2965,Brandon Road,43221,40.0176096,-83.0564662
2955,Brandon Road,43221,40.0174101,-83.0564901
2953,Brandon Road,43221,40.0173078,-83.0564943
2945,Brandon Road,43221,40.0171915,-83.0564907
2943,Brandon Road,43221,40.0170827,-83.0564959
2935,Brandon Road,43221,40.0169842,-83.0565035
2933,Brandon Road,43221,40.0168766,-83.0565117
2925,Brandon Road,43221,40.0167923,-83.0565235
2923,Brandon Road,43221,40.0166821,-83.0565304
2915,Brandon Road,43221,40.0165713,-83.0565356
2913,Brandon Road,43221,40.0164646,-83.0565419
2903,Brandon Road,43221,40.0163779,-83.0565577
2901,Brandon Road,43221,40.0162717,-83.0565654
2893,Brandon Road,43221,40.0161591,-83.0565634
2891,Brandon Road,43221,40.0160548,-83.0565692
2883,Brandon Road,43221,40.0159647,-83.0565783
2881,Brandon Road,43221,40.0158568,-83.0565860
2873,Brandon Road,43221,40.0157488,-83.0565874
2871,Brandon Road,43221,40.0156408,-83.0565940
2863,Brandon Road,43221,40.0155498,-83.0566036
2861,Brandon Road,43221,40.0154554,-83.0566100
2855,Brandon Road,43221,40.0153384,-83.0566286
2851,Brandon Road,43221,40.0152286,-83.0566351
2843,Brandon Road,43221,40.0151330,-83.0566300
2841,Brandon Road,43221,40.0150340,-83.0566362
2833,Brandon Road,43221,40.0149032,-83.0566648
2831,Brandon Road,43221,40.0148028,-83.0566689
2823,Brandon Road,43221,40.0146726,-83.0566964
2821,Brandon Road,43221,40.0145718,-83.0567029
2988,Northwest Boulevard,43221,40.0181747,-83.0571565
2984,Northwest Boulevard,43221,40.0180680,-83.0571647
2978,Northwest Boulevard,43221,40.0179959,-83.0571547
2974,Northwest Boulevard,43221,40.0178889,-83.0571610
2968,Northwest Boulevard,43221,40.0178023,-83.0571670
2964,Northwest Boulevard,43221,40.0176896,-83.0571756
2956,Northwest Boulevard,43221,40.0175105,-83.0571951
2960,Northwest Boulevard,43221,40.0176137,-83.0571890
2950,Northwest Boulevard,43221,40.0174244,-83.0571987
2946,Northwest Boulevard,43221,40.0173176,-83.0572060
2928,Northwest Boulevard,43221,40.0168686,-83.0572474
2926,Northwest Boulevard,43221,40.0167646,-83.0572528
2936,Northwest Boulevard,43221,40.0170767,-83.0572323
2938,Northwest Boulevard,43221,40.0171742,-83.0572272
2916,Northwest Boulevard,43221,40.0166319,-83.0572635
2912,Northwest Boulevard,43221,40.0165293,-83.0572694
2904,Northwest Boulevard,43221,40.0163949,-83.0572533
2902,Northwest Boulevard,43221,40.0162913,-83.0572599
2894,Northwest Boulevard,43221,40.0160565,-83.0572756
2892,Northwest Boulevard,43221,40.0159572,-83.0572819
2886,Northwest Boulevard,43221,40.0158608,-83.0572976
2882,Northwest Boulevard,43221,40.0157516,-83.0573053
2872,Northwest Boulevard,43221,40.0155317,-83.0573212
2876,Northwest Boulevard,43221,40.0156363,-83.0573145
2864,Northwest Boulevard,43221,40.0153948,-83.0573501
2862,Northwest Boulevard,43221,40.0152922,-83.0573558
2852,Northwest Boulevard,43221,40.0151753,-83.0573483
2850,Northwest Boulevard,43221,40.0150684,-83.0573559
2842,Northwest Boulevard,43221,40.0149564,-83.0573647
2840,Northwest Boulevard,43221,40.0148462,-83.0573724
2832,Northwest Boulevard,43221,40.0147137,-83.0573801
2830,Northwest Boulevard,43221,40.0146014,-83.0573876
2993,Northwest Boulevard,43221,40.0181142,-83.0578089
2995,Northwest Boulevard,43221,40.0181828,-83.0578048
2981,Northwest Boulevard,43221,40.0178753,-83.0577478
2985,Northwest Boulevard,43221,40.0179767,-83.0577408
2971,Northwest Boulevard,43221,40.0175649,-83.0577647
2975,Northwest Boulevard,43221,40.0176756,-83.0577571
2945,Northwest Boulevard,43221,40.0171252,-83.0578228
2941,Northwest Boulevard,43221,40.0170127,-83.0578301
2951,Northwest Boulevard,43221,40.0173535,-83.0578102
2955,Northwest Boulevard,43221,40.0174601,-83.0578032
2933,Northwest Boulevard,43221,40.0168814,-83.0578935
2929,Northwest Boulevard,43221,40.0168140,-83.0578986
2919,Northwest Boulevard,43221,40.0166353,-83.0578553
2915,Northwest Boulevard,43221,40.0165320,-83.0578613
2909,Northwest Boulevard,43221,40.0163035,-83.0578760
2905,Northwest Boulevard,43221,40.0161945,-83.0578822
2893,Northwest Boulevard,43221,40.0159808,-83.0578788
2897,Northwest Boulevard,43221,40.0160822,-83.0578723
2887,Northwest Boulevard,43221,40.0157440,-83.0578931
2883,Northwest Boulevard,43221,40.0156482,-83.0578992
2871,Northwest Boulevard,43221,40.0155093,-83.0579771
2867,Northwest Boulevard,43221,40.0154434,-83.0579816
2847,Northwest Boulevard,43221,40.0149303,-83.0579954
2845,Northwest Boulevard,43221,40.0148708,-83.0580009
2843,Northwest Boulevard,43221,40.0148070,-83.0580069
1742,Ridgeview Road,43221,40.0145980,-83.0581071
1740,Ridgeview Road,43221,40.0145967,-83.0580704
1885,West Henderson Road,43220,40.0544250,-83.0699289
3616,Riverside Drive,43221,40.0272481,-83.0907869
3616,Riverside Drive,43221,40.0274795,-83.0907768
1985,West Henderson Road,43220,40.0545201,-83.0736159
4739,Reed Road,43220,40.0540585,-83.0693984
4737,Reed Road,43220,40.0539259,-83.0694069
4733,Reed Road,43220,40.0538393,-83.0694125
4729,Reed Road,43220,40.0537197,-83.0694202
4727,Reed Road,43220,40.0536124,-83.0694271
4725A,Reed Road,43220,40.0535685,-83.0694299
4725,Reed Road,43220,40.0535285,-83.0694325
4723,Reed Road,43220,40.0534619,-83.0694368
4719,Reed Road,43220,40.0533835,-83.0694418
4717,Reed Road,43220,40.0532921,-83.0694477
4715,Reed Road,43220,40.0532759,-83.0694487
4709,Reed Road,43220,40.0530575,-83.0694536
4713,Reed Road,43220,40.0531680,-83.0694557
1955,West Henderson Road,43220,40.0542490,-83.0723573
3605,Tremont Rd,43221,40.0345888,-83.0567665
1945,Lane Road,43220,40.0466696,-83.0711942
2196,Riverside Drive,43221,40.0032937,-83.0748665
1740,Zollinger Road,43221,40.0191237,-83.0589278
3141,Tremont Road,43221,40.0208898,-83.0616324
3061,Kingsdale Center,43221,40.0200229,-83.0585060
4296,Braunton Road,43220,40.0425757,-83.0809170
4250,Woodbridge Road,43220,40.0439655,-83.0726111
1873,West Henderson Road,43220,40.0543502,-83.0688850
2185,Riverside Drive,43221,39.9992211,-83.0764750
3746,Riverside Drive,43221,40.0298187,-83.0913637
2447,North Star Road,43221,40.0076364,-83.0482719
3000,Northwest Boulevard,43221,40.0184016,-83.0569759
3005,Northwest Boulevard,43221,40.0184367,-83.0579135
1430,West Lane Avenue,43221,40.0074137,-83.0483060
1500,London Drive,43221,40.0277895,-83.0539351
1430,Stoney Gate Lane,43221,40.0279862,-83.0537212
1420,Stoney Gate Lane,43221,40.0282143,-83.0535246
1410,Stoney Gate Lane,43221,40.0284146,-83.0532592
1400,Stoney Gate Lane,43221,40.0285087,-83.0528579
1390,Stoney Gate Lane,43221,40.0285135,-83.0524864
1380,Stoney Gate Lane,43221,40.0284919,-83.0521497
1370,Stoney Gate Lane,43221,40.0284788,-83.0518194
1360,Stoney Gate Lane,43221,40.0284866,-83.0514639
1350,Stoney Gate Lane,43221,40.0284459,-83.0511308
1340,Stoney Gate Lane,43221,40.0284319,-83.0507978
1330,Stoney Gate Lane,43221,40.0284224,-83.0504621
1320,Stoney Gate Lane,43221,40.0284071,-83.0501216
1310,Stoney Gate Lane,43221,40.0283891,-83.0497946
1300,Stoney Gate Lane,43221,40.0283515,-83.0494141
1371,Stoney Gate Lane,43221,40.0279710,-83.0516625
3430,Watergate Court,43221,40.0279232,-83.0520335
3431,Baronsmede Court,43221,40.0279043,-83.0512894
3431,Watergate Court,43221,40.0279529,-83.0525630
1415,Stoney Gate Lane,43221,40.0279570,-83.0529367
3430,Baronsmede Court,43221,40.0278785,-83.0507709
1331,Stoney Gate Lane,43221,40.0279149,-83.0503865
1321,Stoney Gate Lane,43221,40.0279210,-83.0500572
3401,Baronsmede Court,43221,40.0275661,-83.0513718
1427,Stoney Gate Lane,43221,40.0277133,-83.0531299
1444,London Drive,43221,40.0271863,-83.0528128
1430,London Drive,43221,40.0271785,-83.0524731
1414,London Drive,43221,40.0271711,-83.0521449
1390,London Drive,43221,40.0271333,-83.0514601
1378,London Drive,43221,40.0271257,-83.0511319
1364,London Drive,43221,40.0271112,-83.0507871
3370,Stonehenge Court,43221,40.0274492,-83.0500594
3401,Baronsmede Court,43221,40.0275277,-83.0505288
3390,Stonehenge Court,43221,40.0281796,-83.0490859
3430,Stonehenge Court,43221,40.0282826,-83.0476666
3421,Stonehenge Court,43221,40.0280135,-83.0476261
3411,Stonehenge Court,43221,40.0278198,-83.0481379
3391,Stonehenge Court,43221,40.0276947,-83.0488064
3381,Stonehenge Court,43221,40.0275600,-83.0490945
3371,Stonehenge Court,43221,40.0273706,-83.0493582
1439,London Drive,43221,40.0267024,-83.0526679
1427,London Drive,43221,40.0266888,-83.0523269
1375,London Drive,43221,40.0266295,-83.0509863
1327,London Drive,43221,40.0265852,-83.0496512
1315,London Drive,43221,40.0265638,-83.0493148
3364,Abbey Road,43221,40.0263938,-83.0530030
1374,Friar Lane,43221,40.0262549,-83.0506368
1324,Friar Lane,43221,40.0262091,-83.0492780
1284,Friar Lane,43221,40.0261557,-83.0482583
1432,Friar Lane,43221,40.0263123,-83.0523548
1410,Friar Lane,43221,40.0262952,-83.0516752
1420,Friar Lane,43221,40.0263061,-83.0520222
1401,Friar Lane,43221,40.0258081,-83.0513440
1327,Friar Lane,43221,40.0257304,-83.0493087
1291,Friar Lane,43221,40.0256901,-83.0482868
1286,Kingsgate Road,43221,40.0253007,-83.0479784
1291,London Drive,43221,40.0265511,-83.0486228
4605,Sawmill Road,43220,40.0624555,-83.0949066
3650,Reed Road,43220-4800,40.0308890,-83.0645363
3650,Reed Road,43220-4800,40.0305659,-83.0636651
2900,Tremont Road,43221,40.0148231,-83.0644152
2830,Andover Road,43221,40.0144000,-83.0596007
2820,Andover Road,43221,40.0141999,-83.0596394
2812,Andover Road,43221,40.0140438,-83.0596575
2825,Welsford Road,43221,40.0143532,-83.0591439
2817,Welsford Road,43221,40.0141945,-83.0591505
2809,Welsford Road,43221,40.0140381,-83.0591681
2801,Welsford Road,43221,40.0138616,-83.0591784
2793,Welsford Road,43221,40.0136987,-83.0591988
2785,Welsford Road,43221,40.0135360,-83.0592205
2777,Welsford Road,43221,40.0133775,-83.0592638
2769,Welsford Road,43221,40.0132098,-83.0592733
2761,Welsford Road,43221,40.0130459,-83.0592874
1442,West Lane Avenue,43221,40.0073847,-83.0487144
1480,West Lane Avenue,43221,40.0072333,-83.0495409
1500,West Lane Avenue,43221,40.0073347,-83.0501910
1510,West Lane Avenue,43221,40.0071953,-83.0505348
1534,West Lane Avenue,43221,40.0073727,-83.0510589
1550,West Lane Avenue,43221,40.0074035,-83.0516822
1576,West Lane Avenue,43221,40.0074266,-83.0524067
1531,West Lane Avenue,43221,40.0067622,-83.0509719
1515,West Lane Avenue,43221,40.0067468,-83.0502683
1431,West Lane Avenue,43221,40.0067158,-83.0482335
1818,West Lane Avenue,43221,40.0077554,-83.0589749
1776,West Lane Avenue,43221,40.0077092,-83.0577742
1760,West Lane Avenue,43221,40.0077594,-83.0575621
1756,West Lane Avenue,43221,40.0076952,-83.0572964
2468,Northwest Boulevard,43221,40.0070392,-83.0576664
1761,West Lane Avenue,43221,40.0070461,-83.0573475
1745,West Lane Avenue,43221,40.0069872,-83.0566632
2713,Welsford Road,43221,40.0120551,-83.0593742
2745,Welsford Road,43221,40.0127139,-83.0592697
2724,Andover Road,43221,40.0122380,-83.0597458
2748,Andover Road,43221,40.0127248,-83.0597121
1527,Pemberton Drive,43221,40.0259371,-83.0547828
2501,North Star Road,43221,40.0088718,-83.0482114
1457,Osborn Drive,43221,40.0081321,-83.0491788
1465,Osborn Drive,43221,40.0081416,-83.0494106
1473,Osborn Drive,43221,40.0081557,-83.0496514
1481,Osborn Drive,43221,40.0081367,-83.0499022
1491,Osborn Drive,43221,40.0081102,-83.0501689
2490,Vassar Place,43221,40.0082184,-83.0505196
2482,Vassar Place,43221,40.0080555,-83.0505452
2474,Vassar Place,43221,40.0078913,-83.0505502
3650,Riverside Drive,43221,40.0279263,-83.0908504
2731,North Star Road,43221,40.0137445,-83.0479433
2723,North Star Road,43221,40.0135242,-83.0478806
2715,North Star Road,43221,40.0133179,-83.0478960
2707,North Star Road,43221,40.0131196,-83.0478993
2699,North Star Road,43221,40.0129041,-83.0479187
2691,North Star Road,43221,40.0127049,-83.0479328
2683,North Star Road,43221,40.0125020,-83.0479330
2675,North Star Road,43221,40.0122674,-83.0479589
2663,North Star Road,43221,40.0120474,-83.0479806
2651,North Star Road,43221,40.0118416,-83.0479945
2641,North Star Road,43221,40.0116361,-83.0479916
2631,North Star Road,43221,40.0114290,-83.0480237
2619,North Star Road,43221,40.0112499,-83.0479883
2605,North Star Road,43221,40.0110491,-83.0480556
2591,North Star Road,43221,40.0106278,-83.0480570
2587,North Star Road,43221,40.0103822,-83.0480586
2581,North Star Road,43221,40.0100665,-83.0480256
2547,North Star Road,43221,40.0097099,-83.0481143
2537,North Star Road,43221,40.0095822,-83.0481114
2533,North Star Road,43221,40.0094336,-83.0481535
2529,North Star Road,43221,40.0092951,-83.0481365
1385,Ridgeview Road,43221,40.0138009,-83.0482320
2730,Montcalm Road,43221,40.0135680,-83.0483248
2720,Montcalm Road,43221,40.0133609,-83.0483151
2710,Montcalm Road,43221,40.0131583,-83.0483407
2700,Montcalm Road,43221,40.0129517,-83.0483538
2690,Montcalm Road,43221,40.0127386,-83.0483611
2680,Montcalm Road,43221,40.0125295,-83.0483682
2670,Montcalm Road,43221,40.0123233,-83.0483596
2660,Montcalm Road,43221,40.0121170,-83.0484167
2650,Montcalm Road,43221,40.0118952,-83.0484139
1415,Montcalm Road,43221,40.0116705,-83.0485853
1425,Montcalm Road,43221,40.0115569,-83.0488495
1435,Montcalm Road,43221,40.0115385,-83.0491587
1445,Montcalm Road,43221,40.0115840,-83.0494307
1455,Montcalm Road,43221,40.0116304,-83.0496915
1465,Montcalm Road,43221,40.0117188,-83.0499724
1408,Northam Road,43221,40.0111300,-83.0484327
1418,Northam Road,43221,40.0111874,-83.0487081
1426,Northam Road,43221,40.0111680,-83.0489530
1436,Northam Road,43221,40.0111668,-83.0492198
1444,Northam Road,43221,40.0111987,-83.0494942
1454,Northam Road,43221,40.0111921,-83.0497749
1462,Northam Road,43221,40.0112146,-83.0500339
2624,Vassar Place,43221,40.0112730,-83.0503354
2638,Vassar Place,43221,40.0115498,-83.0503152
2650,Vassar Place,43221,40.0117634,-83.0503954
1415,Ridgeview Road,43221,40.0138470,-83.0489442
2731,Montcalm Road,43221,40.0136145,-83.0489304
2721,Montcalm Road,43221,40.0134095,-83.0489137
2711,Montcalm Road,43221,40.0131969,-83.0489291
2701,Montcalm Road,43221,40.0129888,-83.0489580
2691,Montcalm Road,43221,40.0127811,-83.0489625
2681,Montcalm Road,43221,40.0125790,-83.0489628
2671,Montcalm Road,43221,40.0123765,-83.0489988
2661,Montcalm Road,43221,40.0121626,-83.0489901
1430,Montcalm Road,43221,40.0119836,-83.0490835
1440,Montcalm Road,43221,40.0121192,-83.0493988
1450,Montcalm Road,43221,40.0121581,-83.0496606
1460,Montcalm Road,43221,40.0121993,-83.0499342
1470,Montcalm Road,43221,40.0121635,-83.0503170
2680,Vassar Place,43221,40.0123988,-83.0503705
2690,Vassar Place,43221,40.0126074,-83.0503302
2700,Vassar Place,43221,40.0128289,-83.0503279
1435,Harlton Court,43221,40.0128697,-83.0493868
1445,Harlton Court,43221,40.0127112,-83.0496131
1455,Harlton Court,43221,40.0126656,-83.0499342
1430,Harlton Court,43221,40.0131107,-83.0494147
1440,Harlton Court,43221,40.0133527,-83.0495683
1450,Harlton Court,43221,40.0133568,-83.0498712
2720,Vassar Place,43221,40.0132501,-83.0502649
2730,Vassar Place,43221,40.0134632,-83.0502825
2740,Vassar Place,43221,40.0136768,-83.0502549
1461,Ridgeview Road,43221,40.0138813,-83.0502070
1445,Ridgeview Road,43221,40.0138440,-83.0498765
1435,Ridgeview Road,43221,40.0137510,-83.0495394
1425,Ridgeview Road,43221,40.0138129,-83.0492378
1414,Westminster Drive,43221,40.0102807,-83.0484897
1426,Westminster Drive,43221,40.0102849,-83.0487931
1438,Westminster Drive,43221,40.0103095,-83.0490807
1452,Westminster Drive,43221,40.0103334,-83.0493740
1464,Westminster Drive,43221,40.0103271,-83.0496898
1476,Westminster Drive,43221,40.0103266,-83.0500169
1486,Westminster Drive,43221,40.0103687,-83.0503383
2600,Vassar Place,43221,40.0106903,-83.0503343
1465,Northam Road,43221,40.0107276,-83.0500591
1455,Northam Road,43221,40.0107000,-83.0497912
1447,Northam Road,43221,40.0107144,-83.0495206
1437,Northam Road,43221,40.0106828,-83.0492419
1427,Northam Road,43221,40.0106697,-83.0489846
1419,Northam Road,43221,40.0106649,-83.0487227
1409,Northam Road,43221,40.0106591,-83.0484599
1417,Westminster Drive,43221,40.0098016,-83.0485437
1425,Westminster Drive,43221,40.0097982,-83.0487510
1433,Westminster Drive,43221,40.0098031,-83.0489645
1441,Westminster Drive,43221,40.0098261,-83.0491868
1449,Westminster Drive,43221,40.0098259,-83.0493959
1457,Westminster Drive,43221,40.0098508,-83.0496060
1465,Westminster Drive,43221,40.0098545,-83.0498281
1473,Westminster Drive,43221,40.0098688,-83.0500427
1481,Westminster Drive,43221,40.0098910,-83.0502489
1489,Westminster Drive,43221,40.0098768,-83.0504340
1522,College Hill Drive,43221,40.0094979,-83.0504813
1512,College Hill Drive,43221,40.0095092,-83.0502659
1506,College Hill Drive,43221,40.0094834,-83.0500268
1498,College Hill Drive,43221,40.0094565,-83.0498345
1490,College Hill Drive,43221,40.0094665,-83.0496247
1482,College Hill Drive,43221,40.0094474,-83.0494077
1474,College Hill Drive,43221,40.0094258,-83.0491862
1466,College Hill Drive,43221,40.0094097,-83.0489764
1458,College Hill Drive,43221,40.0094196,-83.0487228
1454,Osborn Drive,43221,40.0085885,-83.0491628
1462,Osborn Drive,43221,40.0085821,-83.0493959
1470,Osborn Drive,43221,40.0085976,-83.0496270
1478,Osborn Drive,43221,40.0086108,-83.0498933
1488,Osborn Drive,43221,40.0086151,-83.0501441
2500,Vassar Place,43221,40.0085358,-83.0504363
2510,Vassar Place,43221,40.0087051,-83.0504840
1523,College Hill Drive,43221,40.0090273,-83.0505165
1515,College Hill Drive,43221,40.0090226,-83.0503370
1507,College Hill Drive,43221,40.0089981,-83.0501156
1501,College Hill Drive,43221,40.0089725,-83.0499131
1493,College Hill Drive,43221,40.0090135,-83.0497262
1485,College Hill Drive,43221,40.0089894,-83.0495210
1477,College Hill Drive,43221,40.0089473,-83.0491969
1551,College Hill Drive,43221,40.0090825,-83.0512974
1543,College Hill Drive,43221,40.0090102,-83.0510800
1537,College Hill Drive,43221,40.0090367,-83.0508963
2522,Wellesley Drive,43221,40.0087520,-83.0516242
2514,Wellesley Drive,43221,40.0085828,-83.0516352
2506,Wellesley Drive,43221,40.0084148,-83.0516215
2498,Wellesley Drive,43221,40.0082458,-83.0516564
2490,Wellesley Drive,43221,40.0080740,-83.0516542
2470,Wellesley Drive,43221,40.0078966,-83.0516791
2464,Wellesley Drive,43221,40.0077406,-83.0516673
2509,Vassar Place,43221,40.0087373,-83.0510088
2501,Vassar Place,43221,40.0085470,-83.0510242
2493,Vassar Place,43221,40.0083823,-83.0510636
2485,Vassar Place,43221,40.0082074,-83.0510580
1609,College Hill Drive,43221,40.0091230,-83.0527512
2532,Mount Holyoke Road,43221,40.0088315,-83.0527839
2524,Mount Holyoke Road,43221,40.0086641,-83.0527941
2508,Mount Holyoke Road,43221,40.0083979,-83.0528073
2500,Mount Holyoke Road,43221,40.0082085,-83.0527896
1593,College Hill Drive,43221,40.0091167,-83.0524716
1579,College Hill Drive,43221,40.0091081,-83.0521960
2523,Wellesley Drive,43221,40.0087893,-83.0522147
2517,Wellesley Drive,43221,40.0086324,-83.0522143
2509,Wellesley Drive,43221,40.0084802,-83.0522275
2501,Wellesley Drive,43221,40.0083461,-83.0522263
2493,Wellesley Drive,43221,40.0081723,-83.0522438
2487,Wellesley Drive,43221,40.0080309,-83.0522537
4301,Greensview Drive,43220,40.0460891,-83.0588733
5000,Arlington Centre Boulevard,43220,40.0569854,-83.0781319
1491,Ridgeview Road,43221,40.0139105,-83.0509153
2743,Vassar Place,43221,40.0136990,-83.0508964
2631,Vassar Place,43221,40.0135040,-83.0509123
2721,Vassar Place,43221,40.0132902,-83.0509169
2711,Vassar Place,43221,40.0130828,-83.0509262
2703,Vassar Place,43221,40.0128802,-83.0509173
2693,Vassar Place,43221,40.0126724,-83.0509527
2683,Vassar Place,43221,40.0124656,-83.0509542
2673,Vassar Place,43221,40.0122613,-83.0509715
2665,Vassar Place,43221,40.0120547,-83.0509835
2655,Vassar Place,43221,40.0118500,-83.0510086
2645,Vassar Place,43221,40.0116499,-83.0510047
2635,Vassar Place,43221,40.0114422,-83.0509681
1496,Northam Road,43221,40.0112178,-83.0509426
1514,Northam Road,43221,40.0114115,-83.0513615
1524,Northam Road,43221,40.0115320,-83.0516160
1505,Ridgeview Road,43221,40.0139160,-83.0513954
2746,Wellesley Drive,43221,40.0136507,-83.0514493
2736,Wellesley Drive,43221,40.0134465,-83.0514233
2726,Wellesley Drive,43221,40.0132389,-83.0514727
2716,Wellesley Drive,43221,40.0130372,-83.0514548
2706,Wellesley Drive,43221,40.0128305,-83.0515099
2696,Wellesley Drive,43221,40.0126202,-83.0515338
2686,Wellesley Drive,43221,40.0123938,-83.0515489
2676,Wellesley Drive,43221,40.0122088,-83.0515245
2668,Wellesley Drive,43221,40.0120101,-83.0515323
2660,Wellesley Drive,43221,40.0117940,-83.0515800
2804,Andover Road,43221,40.0138769,-83.0596129
2796,Andover Road,43221,40.0137177,-83.0596560
2756,Andover Road,43221,40.0128907,-83.0597178
2740,Andover Road,43221,40.0125530,-83.0597184
2732,Andover Road,43221,40.0123947,-83.0597299
2716,Andover Road,43221,40.0120791,-83.0597156
2721,Welsford Road,43221,40.0122175,-83.0592985
2729,Welsford Road,43221,40.0123720,-83.0593221
2737,Welsford Road,43221,40.0125459,-83.0592963
2751,Welsford Road,43221,40.0128816,-83.0592989
2601,Vassar Place,43221,40.0107359,-83.0508490
2575,Vassar Place,43221,40.0104065,-83.0508831
1514,Westminster Drive,43221,40.0104069,-83.0512198
2590,Wellesley Drive,43221,40.0104603,-83.0515505
1505,Northam Road,43221,40.0107865,-83.0511653
2763,Wellesley Drive,43221,40.0139493,-83.0520819
1545,Ridgeview Road,43221,40.0139958,-83.0525998
2775,Mount Holyoke Road,43221,40.0140021,-83.0533784
1581,Ridgeview Road,43221,40.0140655,-83.0537477
1609,Ridgeview Road,43221,40.0140662,-83.0544864
2796,Chester Road,43221,40.0141480,-83.0551214
2799,Chester Road,43221,40.0141778,-83.0557953
2804,Brandon Road,43221,40.0141997,-83.0562397
1755,Ridgeview Road,43221,40.0143368,-83.0584966
2817,Northwest Boulevard,43221,40.0142816,-83.0581374
2814,Northwest Boulevard,43221,40.0142515,-83.0572629
2805,Brandon Road,43221,40.0142338,-83.0568555
2561,Vassar Place,43221,40.0098804,-83.0508644
1509,Westminster Drive,43221,40.0099237,-83.0510569
1517,Westminster Drive,43221,40.0099316,-83.0512530
1533,Westminster Drive,43221,40.0099255,-83.0516245
1525,Westminster Drive,43221,40.0099256,-83.0514563
1568,College Hill Drive,43221,40.0095494,-83.0516746
1558,College Hill Drive,43221,40.0095355,-83.0514625
1550,College Hill Drive,43221,40.0095250,-83.0512754
1542,College Hill Drive,43221,40.0095128,-83.0510800
1536,College Hill Drive,43221,40.0095229,-83.0508761
2760,Mount Holyoke Road,43221,40.0137583,-83.0526688
2748,Mount Holyoke Road,43221,40.0135154,-83.0526077
2738,Mount Holyoke Road,43221,40.0133171,-83.0525925
2728,Mount Holyoke Road,43221,40.0130941,-83.0526216
2718,Mount Holyoke Road,43221,40.0128999,-83.0526367
2708,Mount Holyoke Road,43221,40.0126920,-83.0526641
2698,Mount Holyoke Road,43221,40.0124869,-83.0526130
2688,Mount Holyoke Road,43221,40.0122817,-83.0526825
2678,Mount Holyoke Road,43221,40.0120685,-83.0526544
2668,Mount Holyoke Road,43221,40.0118348,-83.0526115
1544,Northam Road,43221,40.0117298,-83.0522578
2667,Wellesley Drive,43221,40.0119498,-83.0521805
2677,Wellesley Drive,43221,40.0121621,-83.0522011
2687,Wellesley Drive,43221,40.0123993,-83.0522234
2697,Wellesley Drive,43221,40.0126051,-83.0521353
2709,Wellesley Drive,43221,40.0128280,-83.0521224
2719,Wellesley Drive,43221,40.0130402,-83.0521086
2729,Wellesley Drive,43221,40.0132696,-83.0520961
2739,Wellesley Drive,43221,40.0134850,-83.0520570
2949,Wellesley Drive,43221,40.0136863,-83.0520626
2774,Westmont Boulevard,43221,40.0138492,-83.0537805
2764,Westmont Boulevard,43221,40.0136281,-83.0537996
2750,Westmont Boulevard,43221,40.0134124,-83.0538078
2738,Westmont Boulevard,43221,40.0131723,-83.0538332
2726,Westmont Boulevard,43221,40.0129324,-83.0538389
2714,Westmont Boulevard,43221,40.0126999,-83.0538421
2704,Westmont Boulevard,43221,40.0124850,-83.0538628
2694,Westmont Boulevard,43221,40.0122719,-83.0538533
2684,Westmont Boulevard,43221,40.0120620,-83.0538839
2674,Westmont Boulevard,43221,40.0118534,-83.0539233
1590,Northam Road,43221,40.0118503,-83.0535349
2671,Mount Holyoke Road,43221,40.0118530,-83.0532275
2683,Mount Holyoke Road,43221,40.0121472,-83.0534230
2693,Mount Holyoke Road,43221,40.0123544,-83.0533894
2703,Mount Holyoke Road,43221,40.0125718,-83.0533226
2711,Mount Holyoke Road,43221,40.0127613,-83.0533659
2723,Mount Holyoke Road,43221,40.0129899,-83.0532822
2733,Mount Holyoke Road,43221,40.0131827,-83.0533114
2743,Mount Holyoke Road,43221,40.0133507,-83.0532663
2753,Mount Holyoke Road,43221,40.0135882,-83.0532667
2763,Mount Holyoke Road,43221,40.0137993,-83.0533417
2786,Chester Road,43221,40.0139983,-83.0551277
2778,Chester Road,43221,40.0138319,-83.0550953
2770,Chester Road,43221,40.0136599,-83.0551655
2760,Chester Road,43221,40.0134798,-83.0551940
2750,Chester Road,43221,40.0132605,-83.0551862
2738,Chester Road,43221,40.0130328,-83.0552210
2726,Chester Road,43221,40.0127718,-83.0552601
2714,Chester Road,43221,40.0125369,-83.0552560
2704,Chester Road,43221,40.0123364,-83.0552816
2696,Chester Road,43221,40.0121247,-83.0552650
2686,Chester Road,43221,40.0119203,-83.0552139
2675,Westmont Boulevard,43221,40.0118731,-83.0545948
2685,Westmont Boulevard,43221,40.0121057,-83.0545576
2695,Westmont Boulevard,43221,40.0123323,-83.0545429
2705,Westmont Boulevard,43221,40.0125458,-83.0544861
2715,Westmont Boulevard,43221,40.0127624,-83.0544721
2727,Westmont Boulevard,43221,40.0130054,-83.0545187
2739,Westmont Boulevard,43221,40.0132481,-83.0544687
2751,Westmont Boulevard,43221,40.0134692,-83.0544905
2763,Westmont Boulevard,43221,40.0136856,-83.0544527
2775,Westmont Boulevard,43221,40.0138885,-83.0544382
2450,Brandon Road,43221,40.0067931,-83.0566806
2438,Brandon Road,43221,40.0066207,-83.0567231
2430,Brandon Road,43221,40.0064720,-83.0567339
2422,Brandon Road,43221,40.0063051,-83.0567487
2406,Brandon Road,43221,40.0059412,-83.0567723
2398,Brandon Road,43221,40.0057872,-83.0567764
2390,Brandon Road,43221,40.0056196,-83.0567178
2401,Beaumont Road,43221,40.0064569,-83.0515961
2393,Beaumont Road,43221,40.0062724,-83.0516060
2385,Beaumont Road,43221,40.0061026,-83.0516276
2375,Beaumont Road,43221,40.0059224,-83.0517048
2365,Beaumont Road,43221,40.0057364,-83.0516464
1564,Berkshire Road,43221,40.0054381,-83.0516564
1572,Berkshire Road,43221,40.0054082,-83.0518671
1580,Berkshire Road,43221,40.0054485,-83.0520817
1588,Berkshire Road,43221,40.0054324,-83.0522902
1650,Berkshire Road,43221,40.0055317,-83.0539995
1644,Berkshire Road,43221,40.0055365,-83.0537880
1636,Berkshire Road,43221,40.0055064,-83.0535761
1628,Berkshire Road,43221,40.0055105,-83.0533486
1620,Berkshire Road,43221,40.0055112,-83.0531278
1612,Berkshire Road,43221,40.0054518,-83.0529225
1604,Berkshire Road,43221,40.0054451,-83.0527143
1596,Berkshire Road,43221,40.0054363,-83.0524951
1666,Berkshire Road,43221,40.0055357,-83.0544149
1674,Berkshire Road,43221,40.0055387,-83.0546451
1682,Berkshire Road,43221,40.0055442,-83.0548413
1690,Berkshire Road,43221,40.0055603,-83.0550401
1698,Berkshire Road,43221,40.0055866,-83.0552742
1706,Berkshire Road,43221,40.0056338,-83.0554703
1736,Berkshire Road,43221,40.0056642,-83.0563507
1728,Berkshire Road,43221,40.0056324,-83.0561365
1722,Berkshire Road,43221,40.0055842,-83.0559061
2460,Northwest Boulevard,43221,40.0069211,-83.0577966
2430,Northwest Boulevard,43221,40.0063560,-83.0577964
2422,Northwest Boulevard,43221,40.0061895,-83.0578620
2414,Northwest Boulevard,43221,40.0059817,-83.0578722
2406,Northwest Boulevard,43221,40.0058296,-83.0578803
2396,Northwest Boulevard,43221,40.0056565,-83.0578554
2443,Brandon Road,43221,40.0067023,-83.0573486
2435,Brandon Road,43221,40.0065053,-83.0573482
2425,Brandon Road,43221,40.0063291,-83.0573469
2415,Brandon Road,43221,40.0061527,-83.0573622
2407,Brandon Road,43221,40.0059717,-83.0573742
2399,Brandon Road,43221,40.0057859,-83.0574125
2453,Brandon Road,43221,40.0068921,-83.0573361
2471,Westmont Boulevard,43221,40.0075762,-83.0547443
1541,Northam Road,43221,40.0111944,-83.0520835
2615,Wellesley Drive,43221,40.0109446,-83.0521241
2605,Wellesley Drive,43221,40.0107168,-83.0520894
2595,Wellesley Drive,43221,40.0104896,-83.0521005
1555,Northam Road,43221,40.0113651,-83.0525656
2632,Mount Holyoke Road,43221,40.0111438,-83.0526210
2622,Mount Holyoke Road,43221,40.0109125,-83.0526245
2614,Mount Holyoke Road,43221,40.0107443,-83.0526260
2600,Mount Holyoke Road,43221,40.0105030,-83.0527100
1560,Westminster Drive,43221,40.0104386,-83.0524106
1551,Westminster Drive,43221,40.0099910,-83.0521332
1561,Westminster Drive,43221,40.0099925,-83.0524281
2590,Mount Holyoke Road,43221,40.0099490,-83.0527221
2570,Mount Holyoke Road,43221,40.0096238,-83.0528242
1600,College Hill Drive,43221,40.0096045,-83.0526435
1592,College Hill Drive,43221,40.0095788,-83.0524416
1586,College Hill Drive,43221,40.0095706,-83.0522459
1578,College Hill Drive,43221,40.0095702,-83.0520442
4646,Reed Road,43220,40.0515441,-83.0660888
4661,Reed Road,43220,40.0519027,-83.0672479
1885,West Henderson Road,43220,40.0544350,-83.0697211
1905,West Henderson Road,43220-2503,40.0548237,-83.0703039
1615,Old Henderson Road,43220,40.0518780,-83.0628404
2011,West Henderson Road,43220,40.0558508,-83.0731737
2021,West Henderson Road,43220,40.0559453,-83.0737096
4770,Burbank Drive,43220,40.0528880,-83.0823683
2001,Northwest Boulevard,43212,39.9977624,-83.0521715
1860,Northam Road,43221,40.0124670,-83.0609937
1880,Northam Road,43221,40.0131949,-83.0608301
3300,Riverside Drive,43221,40.0208689,-83.0917498
1640,West Lane Avenue,43221,40.0074981,-83.0540881
1800,West Lane Avenue,43221,40.0076084,-83.0584561
4740,Reed Road,43220-3073,40.0532179,-83.0656776
4740,Reed Road,43220,40.0532712,-83.0660125
4740,Reed Road,43220,40.0532537,-83.0663741
4740,Reed Road,43220,40.0531999,-83.0663679
4740,Reed Road,43220,40.0529721,-83.0663665
1881,West Henderson Road,43220,40.0526995,-83.0693677
1831,West Henderson Road,43220,40.0528070,-83.0677000
1841,West Henderson Road,43220,40.0526826,-83.0678056
1855,West Henderson Road,43220,40.0527027,-83.0681950
1871,West Henderson Road,43220,40.0526347,-83.0688042
1825,West Henderson Road,43220,40.0527039,-83.0674302
1851,West Henderson Road,43220,40.0538973,-83.0679320
1625,Zollinger Road,43221,40.0173156,-83.0553723
4780,Arlington Centre Boulevard,43220,40.0532803,-83.0785806
3040,Asbury Drive,43221,40.0168087,-83.0754855
2505,Wickliffe Road,43221,40.0220410,-83.0782277
1290,London Drive,43221,40.0271360,-83.0486296
3278,Tremont Road,43221,40.0236481,-83.0581611
3280,Tremont Road,43221,40.0236471,-83.0578220
3282,Tremont Road,43221,40.0236754,-83.0575021
3040,Northwest Boulevard,43221,40.0190658,-83.0569555
1515,Langston Drive,43220,40.0448470,-83.0605800
2551,Edgevale Road,43221,40.0287491,-83.0838478
4401,Carriage Hill Ln,43220,40.0473437,-83.0610795
2008,Beverly Road,43221,40.0030112,-83.0633361
2000,Beverly Road,43221,40.0030850,-83.0631777
2014,Beverly Road,43221,40.0028772,-83.0635418
2747,Edington Rd,43221,40.0138477,-83.0856902
2111,West Henderson Road,43220,40.0570794,-83.0760837
4581,Helston Court,43220,40.0472443,-83.0939249
2025,Northwest Boulevard,43212,39.9982816,-83.0530432
4619,Lanercost Way,43220,40.0497027,-83.0797649
2103,Fontenay Place,43220,40.0502466,-83.0770161
4698 - 4690,Merrifield Place,43220,40.0526266,-83.0706527
4710 - 4718,Merrifield Place,43220,40.0529893,-83.0707040
1989;1991,Mackenzie Drive,43220,40.0519813,-83.0726992
4145,Mountview Road,43220,40.0404561,-83.0714670
1315,West Lane Avenue,43221,40.0063425,-83.0458015
1764,Edgemont Road,43212,39.9976511,-83.0555006
2006,Andover Road,43212,39.9978304,-83.0555808
1742,Edgemont Road,43212,39.9976333,-83.0549854
2009,Andover Road,43212,39.9977550,-83.0561934
2012,Andover Road,43212,39.9979732,-83.0556695
1765,Edgemont Road,43212,39.9972749,-83.0553144
1981,Andover Road,43212,39.9971848,-83.0559940
2005,Wyandotte Road,43212,39.9977887,-83.0550267
2019,Andover Road,43212,39.9979548,-83.0562850
281,West Lane Avenue,43210,40.0326053,-83.0437359
1650,Ridgeview Rd,43221,40.0167384,-83.0547168
1945,Ridgeview Road,43221,40.0153823,-83.0643994
3360,Stonehenge Court,43221,40.0271420,-83.0500988
3401,Stonehenge Court,43221,40.0277713,-83.0484829
3361,Stonehenge Court,43221,40.0271163,-83.0494960
3376,Abbey Road,43221,40.0266684,-83.0529808
1363,London Drive,43221,40.0266226,-83.0506527
1339,London Drive,43221,40.0265918,-83.0499894
1303,London Drive,43221,40.0265257,-83.0489851
1275,London Drive,43221,40.0266656,-83.0483093
1265,London Drive,43221,40.0268451,-83.0480147
1446,Friar Lane,43221,40.0263334,-83.0527002
1396,Friar Lane,43221,40.0263073,-83.0513238
1336,Friar Lane,43221,40.0262230,-83.0496165
1312,Friar Lane,43221,40.0262037,-83.0489451
1276,Friar Lane,43221,40.0261697,-83.0479159
1386,Friar Lane,43221,40.0262726,-83.0509803
1300,Friar Lane,43221,40.0261999,-83.0485887
1260,Friar Lane,43221,40.0261329,-83.0475962
1447,Friar Lane,43221,40.0258372,-83.0527168
3330,Abbey Road,43221,40.0258180,-83.0530353
1433,Friar Lane,43221,40.0258524,-83.0523854
1421,Friar Lane,43221,40.0258112,-83.0520468
1411,Friar Lane,43221,40.0258166,-83.0516870
1387,Friar Lane,43221,40.0257875,-83.0509916
1363,Friar Lane,43221,40.0257554,-83.0503298
1351,Friar Lane,43221,40.0257428,-83.0499861
1339,Friar Lane,43221,40.0257498,-83.0496483
1315,Friar Lane,43221,40.0256998,-83.0489721
1303,Friar Lane,43221,40.0256890,-83.0486365
1279,Friar Lane,43221,40.0256649,-83.0479418
3281,Westbury Drive,43221,40.0256164,-83.0476000
1300,Kingsgate Road,43221,40.0253216,-83.0483086
1353,London Drive,43221,40.0265978,-83.0503207
1389,London Drive,43221,40.0266357,-83.0513212
1401,London Drive,43221,40.0266393,-83.0516550
1411,London Drive,43221,40.0266610,-83.0519858
1360,Friar Lane,43221,40.0262516,-83.0503010
3314,Abbey Road,43221,40.0255304,-83.0530534
1460,Kingsgate Road,43221,40.0254915,-83.0527439
1448,Kingsgate Road,43221,40.0254613,-83.0524109
1434,Kingsgate Road,43221,40.0254753,-83.0520706
1422,Kingsgate Road,43221,40.0254441,-83.0517331
1410,Kingsgate Road,43221,40.0254353,-83.0513920
1388,Kingsgate Road,43221,40.0254272,-83.0506652
1362,Kingsgate Road,43221,40.0253938,-83.0500069
1352,Kingsgate Road,43221,40.0253756,-83.0496613
1338,Kingsgate Road,43221,40.0253529,-83.0493444
1326,Kingsgate Road,43221,40.0253441,-83.0489993
1314,Kingsgate Road,43221,40.0253345,-83.0486569
1456,London Drive,43221,40.0272212,-83.0531606
1470,London Drive,43221,40.0272652,-83.0535268
1441,Stoney Gate Lane,43221,40.0275208,-83.0533745
3600,Tremont Road,43221,40.0312624,-83.0509569
1475,London Drive,43221,40.0267499,-83.0536208
3363,Abbey Road,43221,40.0265141,-83.0535846
3351,Abbey Road,43221,40.0262570,-83.0536049
3341,Abbey Road,43221,40.0259968,-83.0536176
3327,Abbey Road,43221,40.0257504,-83.0536436
3311,Abbey Road,43221,40.0254962,-83.0536556
3299,Abbey Road,43221,40.0251644,-83.0536078
1475,Kingsgate Road,43221,40.0250176,-83.0532140
1465,Kingsgate Road,43221,40.0249925,-83.0528365
1453,Kingsgate Road,43221,40.0249874,-83.0525132
1441,Kingsgate Road,43221,40.0249690,-83.0521863
1435,Kingsgate Road,43221,40.0249714,-83.0518386
1425,Kingsgate Road,43221,40.0249558,-83.0515194
1415,Kingsgate Road,43221,40.0249381,-83.0511661
3273,Chaucer Drive,43221,40.0248838,-83.0508373
3251,Chaucer Drive,43221,40.0245328,-83.0508746
3250,Chaucer Drive,43221,40.0245159,-83.0503229
1375,Kingsgate Road,43221,40.0248968,-83.0502608
1363,Kingsgate Road,43221,40.0248961,-83.0499243
1351,Kingsgate Road,43221,40.0248763,-83.0495496
1337,Kingsgate Road,43221,40.0248632,-83.0491828
1325,Kingsgate Road,43221,40.0248601,-83.0488414
1315,Kingsgate Road,43221,40.0248164,-83.0484891
1299,Kingsgate Road,43221,40.0248258,-83.0481474
1285,Kingsgate Road,43221,40.0247857,-83.0477748
1275,Kingsgate Road,43221,40.0247947,-83.0473336
3254,Westbury Drive,43221,40.0250224,-83.0470960
3266,Westbury Drive,43221,40.0252919,-83.0470298
3280,Westbury Drive,43221,40.0255912,-83.0470101
3296,Westbury Drive,43221,40.0258790,-83.0469950
3312,Westbury Drive,43221,40.0261191,-83.0469767
3324,Westbury Drive,43221,40.0263912,-83.0469510
3336,Westbury Drive,43221,40.0266484,-83.0470711
3348,Westbury Drive,43221,40.0268934,-83.0472364
3360,Westbury Drive,43221,40.0271223,-83.0474129
1220,London Drive,43221,40.0278260,-83.0471771
1234,London Drive,43221,40.0277147,-83.0474535
1248,London Drive,43221,40.0275597,-83.0477495
1262,London Drive,43221,40.0274412,-83.0480291
1278,London Drive,43221,40.0272308,-83.0483541
3420,Stonehenge Court,43221,40.0284180,-83.0480196
1300,London Drive,43221,40.0270749,-83.0491530
2788,Andover Road,43221,40.0135628,-83.0596689
2780,Andover Road,43221,40.0133871,-83.0596790
2772,Andover Road,43221,40.0132193,-83.0596767
2764,Andover Road,43221,40.0130508,-83.0596968
1560,Pemberton Drive,43221,40.0267800,-83.0551044
1552,Pemberton Drive,43221,40.0267549,-83.0547671
1569,Pemberton Drive,43221,40.0263607,-83.0558358
1561,Pemberton Drive,43221,40.0262833,-83.0555341
1553,Pemberton Drive,43221,40.0262629,-83.0551679
1538,Pemberton Drive,43221,40.0264683,-83.0541707
1530,Pemberton Drive,43221,40.0262065,-83.0540948
1522,Pemberton Drive,43221,40.0259151,-83.0541163
1514,Pemberton Drive,43221,40.0256624,-83.0541409
1506,Pemberton Drive,43221,40.0254091,-83.0541471
1498,Pemberton Drive,43221,40.0251478,-83.0541638
1490,Pemberton Drive,43221,40.0248953,-83.0541923
1482,Pemberton Drive,43221,40.0246505,-83.0542067
1545,Pemberton Drive,43221,40.0261993,-83.0547633
1519,Pemberton Drive,43221,40.0256826,-83.0547920
1483,Pemberton Drive,43221,40.0246597,-83.0548673
1491,Pemberton Drive,43221,40.0249178,-83.0548699
1501,Pemberton Drive,43221,40.0251894,-83.0548365
1511,Pemberton Drive,43221,40.0254288,-83.0547904
1600,West Lane Avenue,43221,40.0076299,-83.0532768
