House number,Street name,Postal code,Latitude,Longitude
7,West Auglaize Street,45895,40.5704918,-84.1943693
402,Hamilton Road,45895,40.5773502,-84.2039807
2,Willipie Street,45895,40.5703987,-84.1937959
17,East Auglaize Street,45895,40.5704440,-84.1933913
113,East Auglaize Street,45895,40.5704205,-84.1919981
102,East Auglaize Street,45895,40.5706710,-84.1924305
1246,Bellefontaine Street,45895,40.5658344,-84.1782725
123,West Auglaize Street,45895,40.5705338,-84.1956911
121,West Auglaize Street,45895,40.5705353,-84.1956073
117,West Auglaize Street,45895,40.5705285,-84.1953703
109,West Auglaize Street,45895,40.5705223,-84.1951591
11,West Auglaize Street,45895,40.5704957,-84.1944652
5,West Auglaize Street,45895,40.5704964,-84.1942766
3,West Auglaize Street,45895,40.5704876,-84.1941942
107,East Auglaize Street,45895,40.5704393,-84.1922392
105,East Auglaize Street,45895,40.5704467,-84.1923061
117,East Auglaize Street,45895,40.5704334,-84.1918834
24,East Auglaize Street,45895,40.5706751,-84.1934081
16,East Auglaize Street,45895,40.5706847,-84.1935465
2,East Auglaize Street,45895,40.5706919,-84.1939320
1257,Bellefontaine Street,45895,40.5614892,-84.1776133
1340,Bellefontaine Street,45895,40.5660162,-84.1752220
503,Apollo Drive,45895,40.5639345,-84.1738533
1550,Saturn Drive,45895,40.5622430,-84.1712828
201,Perry Street,45895,40.5686849,-84.1951143
15,Willipie Street,45895,40.5697699,-84.1944222
1051,Dearbaugh Avenue,45895,40.5594881,-84.2086003
1902,Progress Drive,45895,40.5525061,-84.1765370
25,East Auglaize Street,45895,40.5702656,-84.1930214
119,West Auglaize Street,45895,40.5703541,-84.1955387
121,West Auglaize Street,45895,40.5704503,-84.1956091
106,Hamilton Road,45895,40.5722354,-84.2038840
34,East Auglaize Street,45895,40.5707314,-84.1930442
36,East Auglaize Street,45895,40.5708089,-84.1929540
38,East Auglaize Street,45895,40.5708662,-84.1927872
400,West Harrison Street,45895,40.5733315,-84.2011510
10,West Auglaize Street,45895,40.5708131,-84.1940072
1,W. Redskin Trail,45895,40.5830339,-84.1947980
1301,Navajo Trail,45895,40.5865432,-84.1976358
1100,Defiance Street,45895,40.5833494,-84.2051071
504,Glynwood Road,45895,40.5762667,-84.2031936
701,Parlette Court,45895,40.5780531,-84.2028623
13663,Short Road,45895,40.5458814,-84.1893569
520,Commerce Drive,45895,40.5509064,-84.1837766
1400,Lunar Drive,45895,40.5566999,-84.1725815
625,Commerce Drive,45895,40.5492768,-84.1818699
102,Commerce Drive,45895,40.5496319,-84.1873810
505,Bellefontaine Street,45895,40.5689689,-84.1870690
302,East Pearl Street,45895,40.5680887,-84.1893872
209,William Street,45895,40.5653242,-84.1905672
401,Court Street,45895,40.5666813,-84.1994898
618,West Plum Street,45895,40.5640080,-84.2029829
916,West Plum Street,45895,40.5644152,-84.2089281
1010,Lincoln Avenue,45895,40.5812150,-84.2006973
110,Industrial Drive,45895,40.5588263,-84.1925574
300,Industrial Drive,45895,40.5590048,-84.1905443
253,Industrial Drive,45895,40.5575236,-84.1890606
401,Industrial Drive,45895,40.5570575,-84.1880129
1101,Bellefontaine Street,45895,40.5647627,-84.1792691
1239,Bellefontaine Street,45895,40.5646752,-84.1784532
1292,Bellefontaine Street,45895,40.5647548,-84.1770379
1350,Bellefontaine Street,45895,40.5642859,-84.1760091
1376,Bellefontaine Street,45895,40.5636089,-84.1746110
1402,Bellefontaine Street,45895,40.5632397,-84.1738051
1510,Saturn Drive,45895,40.5629263,-84.1709946
1281,Bellefontaine Street,45895,40.5635784,-84.1772418
1301,Bellefontaine Street,45895,40.5627971,-84.1767162
1315,Bellefontaine Street,45895,40.5635060,-84.1761110
1345,Bellefontaine Street,45895,40.5631223,-84.1752564
1381,Bellefontaine Street,45895,40.5629419,-84.1746979
1401,Bellefontaine Street,45895,40.5625114,-84.1738327
1411,Bellefontaine Street,45895,40.5623465,-84.1734866
14097,Cemetery Road,45895,40.5570029,-84.1665417
803,Apollo Drive,45895,40.5618628,-84.1734032
903,Apollo Drive,45895,40.5615537,-84.1729565
905,Apollo Drive,45895,40.5612610,-84.1725723
907,Apollo Drive,45895,40.5608397,-84.1722564
1011,Lunar Drive,45895,40.5601393,-84.1727205
1008,Lunar Drive,45895,40.5598327,-84.1716545
1101,Lunar Drive,45895,40.5593720,-84.1727482
1113,Apollo Drive,45895,40.5583106,-84.1709316
1208,Lunar Drive,45895,40.5577041,-84.1714385
218,Eastown Drive,45895,40.5670909,-84.1754196
815,Ashland Avenue,45895,40.5582456,-84.2064415
901,Bellefontaine Street,45895,40.5666589,-84.1821839
201,South Wagner Avenue,45895,40.5674517,-84.1792047
1108,East Benton Street,45895,40.5668321,-84.1783899
13845,Cemetery Road,45895,40.5537789,-84.1667245
13851,Cemetery Road,45895,40.5536209,-84.1649772
812,Redskin Trail,45895,40.5856667,-84.2071360
1251,Lincoln Avenue,45895,40.5847757,-84.2033901
801,Brewfield Circle,45895,40.5849436,-84.2043101
803,Brewfield Circle,45895,40.5844384,-84.2047084
1302,Defiance Street,45895,40.5844587,-84.2063972
1009,Lincoln Avenue,45895,40.5812097,-84.2034536
1007,Lincoln Avenue,45895,40.5803591,-84.2032129
1102,Magnolia Drive,45895,40.5833551,-84.2071165
801,Defiance Street,45895,40.5794411,-84.2034429
909,North Dixie Highway,45895,40.5755747,-84.1755853
711,Perry Street,45895,40.5627093,-84.1954167
203,South Wood Street,45895,40.5688097,-84.1845307
900,North Blackhoof Street,45895,40.5815071,-84.1954039
13093,Infirmary Road,45895,40.5924546,-84.2014499
251,Industrial Drive,45895,40.5578268,-84.1907961
1311,Bellefontaine Street,45895,40.5635699,-84.1765700
1106,Lunar Drive,45895,40.5591836,-84.1714061
202,Eastown Drive,45895,40.5681121,-84.1757158
1105,Middle Street,45895,40.5691106,-84.1784986
1659,Bellefontaine Street,45895,40.5587934,-84.1677995
13488,Cemetery Road,45895,40.5475374,-84.1625191
13999,Cemetery Road,45895,40.5555178,-84.1671741
13999,Cemetery Road,45895,40.5553543,-84.1659920
217,North Wentz Street,45895,40.5740956,-84.1808524
402,Ashland Avenue,45895,40.5591628,-84.1996187
505,Walnut Street,45895,40.5651749,-84.2038969
903,Magnolia Drive,45895,40.5838077,-84.2104755
