House number,Street name,Postal code,Latitude,Longitude
1320,Mahoning Avenue Northwest,44483,41.2476298,-80.8271655
141,South Street Southeast,44483,41.2347068,-80.8173866
2947,Youngstown Road Southeast,44484,41.2216968,-80.7817315
667,Eastland Avenue Southeast,44484,41.2291944,-80.7768819
231,South Main Street,44481,41.2345641,-80.8195249
206,East Market Street,44481,41.2359893,-80.8160157
106,East Market Street,44481,41.2358871,-80.8177847
468,High Street Northeast,44481,41.2374382,-80.8124149
100,North Park Avenue,44481,41.2362076,-80.8177966
124,North Park Avenue,44481,41.2364886,-80.8178086
136,North Park Avenue,44481,41.2365878,-80.8178150
112,North Park Avenue,44481,41.2363669,-80.8177975
158,North Park Avenue,44481,41.2370250,-80.8178506
168,North Park Avenue,44481,41.2371401,-80.8178595
180,North Park Avenue,44481,41.2373192,-80.8178597
129,East Market Street,44481,41.2362257,-80.8173645
137,East Market Street,44481,41.2362340,-80.8172116
159,East Market Street,44481,41.2362632,-80.8167544
185,East Market Street,44481,41.2362740,-80.8164423
164,High Street Northeast,44481,41.2373792,-80.8167131
162,High Street Northeast,44481,41.2373783,-80.8167604
154,High Street Northeast,44481,41.2373774,-80.8168127
150,High Street Northeast,44481,41.2373756,-80.8169626
4000,East Market Street,44484,41.2366395,-80.7665805
4000,East Market Street,44484,41.2368214,-80.7666128
667,Eastland Avenue Southeast,44484,41.2304093,-80.7775992
193,West Market Street,44481,41.2358672,-80.8197104
151,East Market Street,44481,41.2362694,-80.8168989
159,East Market Street,44481,41.2363444,-80.8167597
112,Pine Avenue Northeast,44481,41.2364043,-80.8161129
116,Pine Avenue Northeast,44481,41.2364767,-80.8161210
153,Pine Avenue Northeast,44481,41.2369661,-80.8163386
185,High Street Northeast,44481,41.2377374,-80.8163685
185,High Street Northeast,44481,41.2377374,-80.8165588
156,High Street Northeast,44481,41.2373759,-80.8168646
152,High Street Northeast,44481,41.2373757,-80.8169184
176,North Park Avenue,44481,41.2372881,-80.8178579
174,North Park Avenue,44481,41.2372529,-80.8178596
170,North Park Avenue,44481,41.2372181,-80.8178582
144,North Park Avenue,44481,41.2368287,-80.8178520
174,North Park Avenue,44481,41.2367898,-80.8178499
2815,Youngstown Road Southeast,44484,41.2224738,-80.7836513
320,High Street Northeast,44481,41.2373468,-80.8149814
5000,East Market Street,44484-2259,41.2375411,-80.7540516
177,Oak Knoll Avenue Southeast,44483,41.2353994,-80.7929401
770,Oak Knoll Avenue Southeast,44484,41.2299823,-80.7935129
881,Oak Knoll Avenue Southeast,44484,41.2285190,-80.7942640
220,South Park Avenue,44481,41.2345019,-80.8190785
4013,East Market Street,44484,41.2378201,-80.7670645
2774,Parkman Road NorthW.,44485,41.2550585,-80.8583392
4422,Youngstown Road Southeast,44484,41.2126067,-80.7648823
300,Martin Luther King Boulevard Southwest,44485,41.2346935,-80.8617986
940,Niles Cortland Road Southeast,44484,41.2282419,-80.7430679
1040,Niles Cortland Road Southeast,44484,41.2261532,-80.7455234
3951,Tod Avenue Northwest,44485,41.2605585,-80.8550953
4257,Tod Avenue Northwest,44485,41.2600542,-80.8603729
4225,Tod Avenue Northwest,44485,41.2611450,-80.8598366
2250,Tod Avenue Northwest,44485,41.2546160,-80.8351843
2219,Tod Avenue Northwest,44485,41.2538055,-80.8361285
1454,Oakdale Drive Northwest,44485,41.2547411,-80.8408760
2487,Parkman Road Northwest,44485,41.2513741,-80.8554945
2553,Parkman Road Northwest,44485,41.2512234,-80.8547449
2365,Parkman Road Northwest,44485,41.2501429,-80.8531254
1996,Coit Drive Northwest,44485,41.2516377,-80.8520582
1995,Coit Drive Northwest,44485,41.2517849,-80.8530935
2050,Oakdale Drive Northwest,44485,41.2549509,-80.8496746
1514,Edgehill Avenue Southeast,44484,41.2218292,-80.7798110
1514,Edgehill Avenue Southeast,44484,41.2219394,-80.7798449
1350,East Market Street,44482,41.2353620,-80.7986739
677,Eastland Avenue Southeast,44484,41.2302602,-80.7767630
1162,Niles Cortland Road Southeast,44484,41.2252182,-80.7413505
4793,East Market Street,44484,41.2383155,-80.7553977
595,South Street Southeast,44483,41.2346854,-80.8101859
473,South Street,44483,41.2344663,-80.8122396
162,North Road Southeast,44484,41.2362609,-80.7662533
3920,East Market Street,44484,41.2366762,-80.7672138
661,Mahoning Avenue Northwest,44484,41.2408314,-80.8248655
185-187,High Street Northeast,44481,41.2379009,-80.8164739
740,West Market Street,44481,41.2342128,-80.8284887
1756,North Road Southeast,44484,41.2141403,-80.7638759
4477,Youngstown Road Southeast,44484,41.2133766,-80.7639648
160,East Market Street,44481,41.2358005,-80.8165488
2741,Parkman Road Northwest,44485,41.2539363,-80.8592453
288,Atlantic Street Northwest,44483,41.2454700,-80.8218025
136,North Park Avenue,44481,41.2366430,-80.8175489
170-180,North Park Avenue,44481,41.2372834,-80.8177051
141-143,East Market Street,44481,41.2362971,-80.8171494
149-151,East Market Street,44481,41.2363375,-80.8169429
153-185,East Market Street,44481,41.2364091,-80.8165708
155,Pine Avenue Northeast,44481,41.2369470,-80.8164606
182,Pine Avenue Northeast,44481,41.2372383,-80.8164813
162-164,High Street Northeast,44481,41.2372287,-80.8168566
5000,East Market Street,44484,41.2366150,-80.7532309
2680,Youngstown Road Southeast,44484,41.2228567,-80.7862579
2737,Youngstown Road Southeast,44484,41.2230443,-80.7846610
640,North River Road Northwest,44483,41.2666347,-80.8254548
1628,West Market Street,44485-2719,41.2351739,-80.8400241
1001,West Market Street,44481,41.2337915,-80.8321381
3900,East Market Street,44484,41.2365725,-80.7682538
1805,Parkman Road Northwest,44485,41.2464607,-80.8467624
1805,Parkman Road Northwest,44485,41.2466113,-80.8473096
1227,Youngstown Road Southeast,44484,41.2306399,-80.8021700
1910,East Market Street,44483,41.2362559,-80.7927876
1924,East Market Street,44483,41.2361688,-80.7925949
1842,East Market Street,44483,41.2362064,-80.7935212
1820,East Market Street,44483,41.2362909,-80.7938248
1806,East Market Street,44483,41.2361475,-80.7941091
1938,East Market Street,44483,41.2362070,-80.7922376
147,Oak Knoll Avenue Southeast,44483,41.2358433,-80.7927529
146,Oak Knoll Avenue Southeast,44483,41.2358655,-80.7933395
157,Oak Knoll Avenue Southeast,44483,41.2357079,-80.7927482
156,Oak Knoll Avenue Southeast,44483,41.2356888,-80.7933755
167,Oak Knoll Avenue Southeast,44483,41.2355731,-80.7927700
166,Oak Knoll Avenue Southeast,44483,41.2355647,-80.7933316
176,Oak Knoll Avenue Southeast,44483,41.2354428,-80.7933642
187,Oak Knoll Avenue Southeast,44483,41.2352937,-80.7927882
186,Oak Knoll Avenue Southeast,44483,41.2352968,-80.7933563
196,Oak Knoll Avenue Southeast,44483,41.2351486,-80.7933718
197,Oak Knoll Avenue Southeast,44483,41.2351588,-80.7928070
207,Oak Knoll Avenue Southeast,44483,41.2350133,-80.7927693
206,Oak Knoll Avenue Southeast,44483,41.2350136,-80.7933413
216,Oak Knoll Avenue Southeast,44483,41.2348745,-80.7933453
217,Oak Knoll Avenue Southeast,44483,41.2348979,-80.7927817
227,Oak Knoll Avenue Southeast,44483,41.2347542,-80.7927568
226,Oak Knoll Avenue Southeast,44483,41.2347566,-80.7933610
236,Oak Knoll Avenue Southeast,44483,41.2346066,-80.7933493
237,Oak Knoll Avenue Southeast,44483,41.2346249,-80.7927649
247,Oak Knoll Avenue Southeast,44483,41.2344990,-80.7927966
248,Oak Knoll Avenue Southeast,44483,41.2344887,-80.7933494
305,Oak Knoll Avenue Southeast,44483,41.2341887,-80.7927595
304,Oak Knoll Avenue Southeast,44483,41.2341925,-80.7933493
314,Oak Knoll Avenue Southeast,44483,41.2340624,-80.7933608
315,Oak Knoll Avenue Southeast,44483,41.2340588,-80.7927756
325,Oak Knoll Avenue Southeast,44483,41.2339282,-80.7927780
324,Oak Knoll Avenue Southeast,44483,41.2339164,-80.7933435
334,Oak Knoll Avenue Southeast,44483,41.2337902,-80.7933604
335,Oak Knoll Avenue Southeast,44483,41.2337860,-80.7927754
344,Oak Knoll Avenue Southeast,44483,41.2336466,-80.7933701
345,Oak Knoll Avenue Southeast,44483,41.2336527,-80.7928018
355,Oak Knoll Avenue Southeast,44483,41.2335139,-80.7927771
354,Oak Knoll Avenue Southeast,44483,41.2335078,-80.7933470
364,Oak Knoll Avenue Southeast,44483,41.2333777,-80.7933908
365,Oak Knoll Avenue Southeast,44483,41.2333928,-80.7927753
375,Oak Knoll Avenue Southeast,44483,41.2332369,-80.7927595
374,Oak Knoll Avenue Southeast,44483,41.2332335,-80.7933600
384,Oak Knoll Avenue Southeast,44483,41.2330972,-80.7933451
385,Oak Knoll Avenue Southeast,44483,41.2331056,-80.7927867
395,Oak Knoll Avenue Southeast,44483,41.2329541,-80.7928082
394,Oak Knoll Avenue Southeast,44483,41.2329552,-80.7933470
404,Oak Knoll Avenue Southeast,44483,41.2328341,-80.7933702
405,Oak Knoll Avenue Southeast,44483,41.2328299,-80.7927995
507,Oak Knoll Avenue Southeast,44483,41.2325447,-80.7928150
506,Oak Knoll Avenue Southeast,44483,41.2325522,-80.7933591
516,Oak Knoll Avenue Southeast,44483,41.2323962,-80.7933278
517,Oak Knoll Avenue Southeast,44483,41.2324045,-80.7927915
527,Oak Knoll Avenue Southeast,44483,41.2322750,-80.7928111
526,Oak Knoll Avenue Southeast,44483,41.2322507,-80.7933335
538,Oak Knoll Avenue Southeast,44483,41.2321162,-80.7933231
537,Oak Knoll Avenue Southeast,44483,41.2321163,-80.7928199
547,Oak Knoll Avenue Southeast,44483,41.2319956,-80.7928045
548,Oak Knoll Avenue Southeast,44483,41.2319870,-80.7933513
558,Oak Knoll Avenue Southeast,44483,41.2318563,-80.7933394
557,Oak Knoll Avenue Southeast,44483,41.2318580,-80.7928361
567,Oak Knoll Avenue Southeast,44483,41.2317171,-80.7928178
568,Oak Knoll Avenue Southeast,44483,41.2317074,-80.7933508
578,Oak Knoll Avenue Southeast,44483,41.2315914,-80.7933570
577,Oak Knoll Avenue Southeast,44483,41.2315877,-80.7927891
587,Oak Knoll Avenue Southeast,44483,41.2314538,-80.7928364
588,Oak Knoll Avenue Southeast,44483,41.2314502,-80.7933437
597,Oak Knoll Avenue Southeast,44483,41.2313100,-80.7928178
598,Oak Knoll Avenue Southeast,44483,41.2313137,-80.7933857
608,Oak Knoll Avenue Southeast,44483,41.2311691,-80.7933589
607,Oak Knoll Avenue Southeast,44483,41.2311653,-80.7928231
617,Oak Knoll Avenue Southeast,44483,41.2310284,-80.7928211
618,Oak Knoll Avenue Southeast,44483,41.2310395,-80.7933426
705,Oak Knoll Avenue Southeast,44484,41.2307239,-80.7928254
706,Oak Knoll Avenue Southeast,44484,41.2307191,-80.7933551
715,Oak Knoll Avenue Southeast,44484,41.2305830,-80.7928178
716,Oak Knoll Avenue Southeast,44484,41.2306043,-80.7933565
728,Oak Knoll Avenue Southeast,44484,41.2304695,-80.7933589
725,Oak Knoll Avenue Southeast,44484,41.2304409,-80.7928357
735,Oak Knoll Avenue Southeast,44484,41.2302979,-80.7928813
743,Oak Knoll Avenue Southeast,44484,41.2301460,-80.7929727
740,Oak Knoll Avenue Southeast,44484,41.2303590,-80.7934417
753,Oak Knoll Avenue Southeast,44484,41.2300496,-80.7930489
750,Oak Knoll Avenue Southeast,44484,41.2302362,-80.7935054
760,Oak Knoll Avenue Southeast,44484,41.2301048,-80.7936102
771,Oak Knoll Avenue Southeast,44484,41.2297998,-80.7931815
781,Oak Knoll Avenue Southeast,44484,41.2296856,-80.7932959
780,Oak Knoll Avenue Southeast,44484,41.2298473,-80.7937734
790,Oak Knoll Avenue Southeast,44484,41.2297406,-80.7938587
791,Oak Knoll Avenue Southeast,44484,41.2295605,-80.7933507
801,Oak Knoll Avenue Southeast,44484,41.2294534,-80.7934872
800,Oak Knoll Avenue Southeast,44484,41.2296269,-80.7939333
810,Oak Knoll Avenue Southeast,44484,41.2295125,-80.7940306
811,Oak Knoll Avenue Southeast,44484,41.2293225,-80.7935490
820,Oak Knoll Avenue Southeast,44484,41.2293753,-80.7940962
830,Oak Knoll Avenue Southeast,44484,41.2292503,-80.7941601
831,Oak Knoll Avenue Southeast,44484,41.2290593,-80.7937366
841,Oak Knoll Avenue Southeast,44484,41.2289363,-80.7938315
840,Oak Knoll Avenue Southeast,44484,41.2291380,-80.7942522
850,Oak Knoll Avenue Southeast,44484,41.2290237,-80.7943575
851,Oak Knoll Avenue Southeast,44484,41.2288075,-80.7939091
861,Oak Knoll Avenue Southeast,44484,41.2286972,-80.7939995
860,Oak Knoll Avenue Southeast,44484,41.2288966,-80.7944344
870,Oak Knoll Avenue Southeast,44484,41.2287898,-80.7945553
871,Oak Knoll Avenue Southeast,44484,41.2285967,-80.7940648
880,Oak Knoll Avenue Southeast,44484,41.2286572,-80.7945970
891,Oak Knoll Avenue Southeast,44484,41.2283511,-80.7942312
890,Oak Knoll Avenue Southeast,44484,41.2285346,-80.7946838
900,Oak Knoll Avenue Southeast,44484,41.2284204,-80.7947855
901,Oak Knoll Avenue Southeast,44484,41.2282305,-80.7943177
911,Oak Knoll Avenue Southeast,44484,41.2281016,-80.7943872
910,Oak Knoll Avenue Southeast,44484,41.2282863,-80.7948586
920,Oak Knoll Avenue Southeast,44484,41.2281641,-80.7949646
921,Oak Knoll Avenue Southeast,44484,41.2279786,-80.7944939
931,Oak Knoll Avenue Southeast,44484,41.2278568,-80.7945699
930,Oak Knoll Avenue Southeast,44484,41.2280471,-80.7950381
940,Oak Knoll Avenue Southeast,44484,41.2279329,-80.7951373
941,Oak Knoll Avenue Southeast,44484,41.2277352,-80.7946648
1825,Youngstown Road Southeast,44484,41.2276109,-80.7952772
1763,Youngstown Road Southeast,44484,41.2279151,-80.7954738
1847,Youngstown Road Southeast,44484,41.2274546,-80.7949314
1861,Youngstown Road Southeast,44484,41.2273423,-80.7946650
1911,Youngstown Road Southeast,44484,41.2272375,-80.7944854
1925,Youngstown Road Southeast,44484,41.2271137,-80.7941622
1755,Youngstown Road Southeast,44484,41.2278130,-80.7958469
1749,Youngstown Road Southeast,44484,41.2278681,-80.7959584
865,Woodbine Avenue Southeast,44484,41.2279260,-80.7960704
