House number,Street name,Postal code,Latitude,Longitude
28400,Euclid Avenue,44092,41.5941281,-81.4833861
29031,Euclid Avenue,44092,41.6034711,-81.4780896
29201,Euclid Avenue,44092,41.6051143,-81.4758359
30500,Euclid Avenue,44092,41.6190854,-81.4555514
30300,Euclid Avenue,44092,41.6171214,-81.4590579
30308,Euclid Avenue,44092,41.6172600,-81.4588748
30310,Euclid Avenue,44092,41.6173185,-81.4587889
30150,Euclid Avenue,44092,41.6149407,-81.4598003
30188,Euclid Avenue,44092,41.6155522,-81.4591248
30184,Euclid Avenue,44092,41.6154975,-81.4591993
30196,Euclid Avenue,44092,41.6156765,-81.4588798
30200,Euclid Avenue,44092,41.6158075,-81.4587130
30240,Euclid Avenue,44092,41.6159586,-81.4584242
30133,Euclid Avenue,44092,41.6162137,-81.4616137
30133,Euclid Avenue,44092,41.6160986,-81.4617031
30133,Euclid Avenue,44092,41.6159734,-81.4618490
29954,Euclid Avenue,44092,41.6134556,-81.4640436
30013,Euclid Avenue,44092,41.6145113,-81.4638600
29435,Euclid Avenue,44092,41.6080499,-81.4718967
29334,Euclid Avenue,44092,41.6064563,-81.4734380
29215,Euclid Avenue,44092,41.6055271,-81.4754934
29239,Euclid Avenue,44092,41.6059682,-81.4749480
29231,Euclid Avenue,44092,41.6058780,-81.4750182
1305,Lloyd Road,44092,41.6081769,-81.4797987
28611,Euclid Avenue,44092,41.5996378,-81.4863826
28611,Euclid Avenue,44092,41.5989453,-81.4849922
29201,Euclid Avenue,44092,41.6051935,-81.4759271
30220,Euclid Avenue,44092,41.6168772,-81.4595965
30160,Euclid Avenue,44092,41.6158791,-81.4606824
30136,Euclid Avenue,44092,41.6157397,-81.4611229
30170,Euclid Avenue,44092,41.6153414,-81.4594483
30180,Euclid Avenue,44092,41.6153836,-81.4593804
30622,Euclid Avenue,44092,41.6207745,-81.4517350
30620,Euclid Avenue,44092,41.6207764,-81.4518138
29933,Euclid Avenue,44092,41.6135573,-81.4650752
30550,Euclid Avenue,44092,41.6200476,-81.4533510
30544,Euclid Avenue,44092,41.6200151,-81.4534617
30182,Euclid Avenue,44092,41.6154470,-81.4592706
1601,Drenik Drive,44092,41.6168704,-81.4587532
1601,Drenik Drive,44092,41.6169662,-81.4588668
30304,Euclid Avenue,44092,41.6171944,-81.4589674
30322,Euclid Avenue,44092,41.6174512,-81.4585854
29935,Euclid Avenue,44092,41.6136345,-81.4649645
29937,Euclid Avenue,44092,41.6136837,-81.4648891
30436,Euclid Avenue,44092,41.6182056,-81.4575427
30011,Euclid Avenue,44092,41.6144185,-81.4640296
30426,Euclid Avenue,44092,41.6179937,-81.4578267
30428,Euclid Avenue,44092,41.6180404,-81.4577637
30430,Euclid Avenue,44092,41.6180796,-81.4577127
30432,Euclid Avenue,44092,41.6181095,-81.4576770
29690,Euclid Avenue,44092,41.6095933,-81.4690509
29670,Euclid Avenue,44092,41.6095492,-81.4691242
29664,Euclid Avenue,44092,41.6094831,-81.4692104
29640,Euclid Avenue,44092,41.6093864,-81.4693383
29630,Euclid Avenue,44092,41.6093472,-81.4693908
29610,Euclid Avenue,44092,41.6092816,-81.4694670
29300,Euclid Avenue,44092,41.6060705,-81.4735579
29300,Euclid Avenue,44092,41.6060515,-81.4735935
29300,Euclid Avenue,44092,41.6060379,-81.4736203
29300,Euclid Avenue,44092,41.6059477,-81.4737343
29300,Euclid Avenue,44092,41.6059276,-81.4737584
29310,Euclid Avenue,44092,41.6061001,-81.4736217
29300,Euclid Avenue,44092,41.6060219,-81.4736438
29324,Euclid Avenue,44092,41.6060083,-81.4737363
29300,Euclid Avenue,44092,41.6059803,-81.4736994
29302,Euclid Avenue,44092,41.6059858,-81.4737752
29227,Euclid Avenue,44092,41.6057353,-81.4752042
29225,Euclid Avenue,44092,41.6056724,-81.4752853
29166,Euclid Avenue,44092,41.6045959,-81.4755911
29340,Euclid Avenue,44092,41.6065058,-81.4733642
30150,Euclid Avenue,44092,41.6149664,-81.4598198
30160,Euclid Avenue,44092,41.6158876,-81.4606768
30220,Euclid Avenue,44092,41.6167200,-81.4595083
30300,Euclid Avenue,44092,41.6171578,-81.4586499
30315,Euclid Avenue,44092,41.6184398,-81.4588972
30310,Palisades Parkway,44092,41.6189185,-81.4595678
30251,Euclid Avenue,44092,41.6173585,-81.4599305
30432,Euclid Avenue,44092,41.6179643,-81.4575435
900,Worden Road,44092,41.6210101,-81.4755098
28910,Lakeland Boulevard,44092,41.6078678,-81.4877206
28960,Lakeland Boulevard,44092,41.6089623,-81.4868604
29100,Lakeland Boulevard,44092,41.6091407,-81.4848473
1140,Lloyd Road,44092,41.6101888,-81.4827927
29930,Lakeland Boulevard,44092,41.6175643,-81.4699816
29950,Lakeland Boulevard,44092,41.6176094,-81.4693652
29980,Lakeland Boulevard,44092,41.6179301,-81.4687307
30006,Lakeland Boulevard,44092,41.6183756,-81.4687959
30020,Lakeland Boulevard,44092,41.6183641,-81.4678081
30054,Lakeland Boulevard,44092,41.6190496,-81.4675175
30060,Lakeland Boulevard,44092,41.6187656,-81.4666712
30100,Lakeland Boulevard,44092,41.6193070,-81.4658852
30120,Lakeland Boulevard,44092,41.6198025,-81.4656519
30130,Lakeland Boulevard,44092,41.6199274,-81.4653055
30240,Lakeland Boulevard,44092,41.6209236,-81.4632858
30240,Lakeland Boulevard,44092,41.6211667,-81.4627512
30202,Lakeland Boulevard,44092,41.6210408,-81.4640356
30396,Lakeland Boulevard,44092,41.6217196,-81.4612922
30400,Lakeland Boulevard,44092,41.6218327,-81.4605022
30440,Lakeland Boulevard,44092,41.6221065,-81.4593783
30325,Palisades Parkway,44092,41.6197297,-81.4599993
30133,Euclid Avenue,44092,41.6161794,-81.4617948
30022,Euclid Avenue,44092,41.6138430,-81.4634794
29303,Euclid Avenue,44092,41.6064176,-81.4745967
1430,Lloyd Road,44092,41.6056230,-81.4768603
1400,Silver Street,44092,41.6071517,-81.4762789
1372,Lloyd Road,44092,41.6065539,-81.4786043
1340,Lloyd Road,44092,41.6071778,-81.4795358
1320,Lloyd Road,44092,41.6074591,-81.4800978
1164,Lloyd Road,44092,41.6095309,-81.4821554
1144,Lloyd Road,44092,41.6098255,-81.4826635
30912,Euclid Avenue,44092,41.6216513,-81.4495750
28730,Ridge Road,44092,41.5956789,-81.4778544
28730,Ridge Road,44092,41.5967598,-81.4772515
28730,Ridge Road,44092,41.5945922,-81.4761487
28730,Ridge Road,44092,41.5962348,-81.4764603
28730,Ridge Road,44092,41.5970215,-81.4765683
28850,Ridge Road,44092,41.5976237,-81.4766196
28930,Ridge Road,44092,41.5976299,-81.4745783
1928,East 300th Street,44092,41.6071425,-81.4629513
29955,Ridge Road,44092,41.6059140,-81.4643904
30365,Bridle Path Trail,44092,41.6009018,-81.4540113
30364,Bridle Path Trail,44092,41.6007075,-81.4539841
30372,Bridle Path Trail,44092,41.6003912,-81.4538346
30380,Bridle Path Trail,44092,41.6004940,-81.4535393
30386,Bridle Path Trail,44092,41.6006381,-81.4532796
30392,Bridle Path Trail,44092,41.6008177,-81.4530489
30371,Bridle Path Trail,44092,41.6011888,-81.4539288
30363,Bridle Path Trail,44092,41.6014229,-81.4537056
30409,Bridle Path Trail,44092,41.6013954,-81.4532396
2269,Country Club Drive,44092,41.6015220,-81.4523343
30481,Bridle Path Trail,44092,41.6015333,-81.4516646
30515,Bridle Path Trail,44092,41.6015516,-81.4513944
2262,Pine Ridge Drive,44092,41.6015928,-81.4510902
2261,Pine Ridge Drive,44092,41.6015056,-81.4503855
30420,Bridle Path Trail,44092,41.6009234,-81.4527260
30440,Bridle Path Trail,44092,41.6009817,-81.4522958
30470,Bridle Path Trail,44092,41.6009686,-81.4517560
30512,Bridle Path Trail,44092,41.6009847,-81.4514097
30518,Bridle Path Trail,44092,41.6010010,-81.4509710
30528,Bridle Path Trail,44092,41.6009821,-81.4506451
30544,Bridle Path Trail,44092,41.6009923,-81.4499723
30536,Bridle Path Trail,44092,41.6009786,-81.4502942
2204,Garden Drive,44092,41.6017621,-81.4558155
2198,Garden Drive,44092,41.6019613,-81.4558416
30270,Meadowview Drive,44092,41.6018656,-81.4565488
30260,Meadowview Drive,44092,41.6018949,-81.4568580
30250,Meadowview Drive,44092,41.6019525,-81.4571100
30240,Meadowview Drive,44092,41.6020813,-81.4573637
30230,Meadowview Drive,44092,41.6021643,-81.4576177
30220,Meadowview Drive,44092,41.6023547,-81.4578057
30210,Meadowview Drive,44092,41.6025180,-81.4580129
30200,Meadowview Drive,44092,41.6027541,-81.4581154
30201,Meadowview Drive,44092,41.6029783,-81.4579154
30205,Meadowview Drive,44092,41.6030705,-81.4575529
30215,Meadowview Drive,44092,41.6028999,-81.4572598
30225,Meadowview Drive,44092,41.6027098,-81.4571796
30245,Meadowview Drive,44092,41.6025070,-81.4569697
30255,Meadowview Drive,44092,41.6024308,-81.4566918
30275,Meadowview Drive,44092,41.6024237,-81.4563908
2186,Garden Drive,44092,41.6023225,-81.4557123
2141,Kimberly Court,44092,41.6040733,-81.4569306
2121,Kimberly Court,44092,41.6045019,-81.4568825
2131,Kimberly Court,44092,41.6042913,-81.4569675
2151,Kimberly Court,44092,41.6038597,-81.4569202
2161,Kimberly Court,44092,41.6035953,-81.4569365
2165,Kimberly Court,44092,41.6034510,-81.4571460
2164,Kimberly Court,44092,41.6034567,-81.4574937
2160,Kimberly Court,44092,41.6036412,-81.4577074
2150,Kimberly Court,44092,41.6038929,-81.4577209
2140,Kimberly Court,44092,41.6041303,-81.4576170
2130,Kimberly Court,44092,41.6043377,-81.4576072
2120,Kimberly Court,44092,41.6045976,-81.4576428
30106,Bonnie View Drive,44092,41.6032863,-81.4592766
30111,Bonnie View Drive,44092,41.6040560,-81.4580644
30151,Bonnie View Drive,44092,41.6044837,-81.4581479
2118,Garden Drive,44092,41.6048839,-81.4559212
2126,Garden Drive,44092,41.6044866,-81.4559084
30201,Bonnie View Drive,44092,41.6044195,-81.4564925
30200,Bonnie View Drive,44092,41.6050127,-81.4567853
30190,Bonnie View Drive,44092,41.6050271,-81.4570573
30180,Bonnie View Drive,44092,41.6050653,-81.4573538
30170,Bonnie View Drive,44092,41.6050704,-81.4575986
30164,Bonnie View Drive,44092,41.6051518,-81.4579883
30150,Bonnie View Drive,44092,41.6050102,-81.4583775
30140,Bonnie View Drive,44092,41.6049018,-81.4587047
30130,Bonnie View Drive,44092,41.6046955,-81.4588414
30120,Bonnie View Drive,44092,41.6044745,-81.4588826
30110,Bonnie View Drive,44092,41.6042151,-81.4589032
30101,Bonnie View Drive,44092,41.6038989,-81.4584407
2210,Garden Drive,44092,41.6015526,-81.4558349
2180,Garden Drive,44092,41.6025207,-81.4557494
2174,Garden Drive,44092,41.6027237,-81.4557074
2168,Garden Drive,44092,41.6029399,-81.4557057
2162,Garden Drive,44092,41.6031442,-81.4557097
2158,Garden Drive,44092,41.6033659,-81.4557789
2150,Garden Drive,44092,41.6036034,-81.4557987
2148,Garden Drive,44092,41.6038398,-81.4558401
2140,Garden Drive,44092,41.6040436,-81.4558913
2138,Garden Drive,44092,41.6042832,-81.4559977
2129,Garden Drive,44092,41.6044473,-81.4551814
2133,Garden Drive,44092,41.6042289,-81.4550962
2141,Garden Drive,44092,41.6040037,-81.4550220
2147,Garden Drive,44092,41.6038353,-81.4549880
2153,Garden Drive,44092,41.6036183,-81.4549677
2159,Garden Drive,44092,41.6034099,-81.4549729
2165,Garden Drive,44092,41.6032134,-81.4549503
2171,Garden Drive,44092,41.6030095,-81.4549781
2177,Garden Drive,44092,41.6027867,-81.4549507
2183,Garden Drive,44092,41.6025823,-81.4549526
2189,Garden Drive,44092,41.6023791,-81.4549786
2195,Garden Drive,44092,41.6022056,-81.4550003
2201,Garden Drive,44092,41.6019674,-81.4549560
2207,Garden Drive,44092,41.6017645,-81.4549235
2213,Garden Drive,44092,41.6015485,-81.4548550
2108,Garden Drive,44092,41.6051056,-81.4559217
2102,Garden Drive,44092,41.6054715,-81.4558149
30306,Ridge Road,44092,41.6055188,-81.4553264
2111,Garden Drive,44092,41.6050740,-81.4551803
2117,Garden Drive,44092,41.6048581,-81.4551766
2125,Garden Drive,44092,41.6046475,-81.4551955
2163,Country Club Drive,44092,41.6033471,-81.4522688
2200,Country Club Drive,44092,41.6033192,-81.4533260
2211,Country Club Drive,44092,41.6031055,-81.4522702
2221,Country Club Drive,44092,41.6028400,-81.4522629
2233,Country Club Drive,44092,41.6025472,-81.4522497
2241,Country Club Drive,44092,41.6022694,-81.4522876
2261,Country Club Drive,44092,41.6020111,-81.4523087
2265,Country Club Drive,44092,41.6017619,-81.4522952
2208,Country Club Drive,44092,41.6030874,-81.4532839
2220,Country Club Drive,44092,41.6028650,-81.4532957
2232,Country Club Drive,44092,41.6025858,-81.4532602
2244,Country Club Drive,44092,41.6023000,-81.4531911
2260,Country Club Drive,44092,41.6020040,-81.4531145
2266,Country Club Drive,44092,41.6017373,-81.4531286
901,Talmadge Avenue,44092,41.6201178,-81.4776686
28611,Euclid Avenue,44092,41.5992930,-81.4856379
30136,Euclid Avenue,44092,41.6157396,-81.4611207
28840,Euclid Avenue,44092,41.6003119,-81.4809795
1514,Harding Drive,44092,41.6205624,-81.4517360
1516,Harding Drive,44092,41.6203706,-81.4517065
1522,Harding Drive,44092,41.6202027,-81.4517289
1528,Harding Drive,44092,41.6200450,-81.4517664
1534,Harding Drive,44092,41.6198775,-81.4517740
1541,Harding Drive,44092,41.6198554,-81.4513342
1529,Harding Drive,44092,41.6200332,-81.4513221
1521,Harding Drive,44092,41.6202248,-81.4512687
30702,Euclid Avenue,44092,41.6207191,-81.4513472
30720,Euclid Avenue,44092,41.6210025,-81.4512558
30730,Euclid Avenue,44092,41.6210766,-81.4510445
1508,Mapledale Road,44092,41.6206703,-81.4510198
1512,Mapledale Road,44092,41.6205564,-81.4509781
30610,Euclid Avenue,44092,41.6205324,-81.4520841
30600,Euclid Avenue,44092,41.6201130,-81.4525206
1540,Harding Drive,44092,41.6197030,-81.4517496
1704,Harding Drive,44092,41.6195303,-81.4517381
1710,Harding Drive,44092,41.6193613,-81.4517513
1639,Harding Drive,44092,41.6193589,-81.4513223
1547,Harding Drive,44092,41.6195228,-81.4513248
1545,Harding Drive,44092,41.6197393,-81.4513275
30560,Euclid Avenue,44092,41.6201043,-81.4530894
28637,Euclid Avenue,44092,41.5992947,-81.4840983
2255,Rockefeller Road,44092,41.5999174,-81.4591535
30914,Roosevelt Road,44092,41.6134330,-81.4461063
30908,Roosevelt Road,44092,41.6134117,-81.4463078
30904,Roosevelt Road,44092,41.6134340,-81.4464518
30900,Roosevelt Road,44092,41.6134266,-81.4466150
30896,Roosevelt Road,44092,41.6134255,-81.4467997
30892,Roosevelt Road,44092,41.6134245,-81.4469852
30888,Roosevelt Road,44092,41.6134233,-81.4471613
30884,Roosevelt Road,44092,41.6134104,-81.4473456
30880,Roosevelt Road,44092,41.6134216,-81.4475284
30876,Roosevelt Road,44092,41.6134211,-81.4477124
30872,Roosevelt Road,44092,41.6134058,-81.4478962
30868,Roosevelt Road,44092,41.6134048,-81.4480774
30864,Roosevelt Road,44092,41.6134088,-81.4482651
30860,Roosevelt Road,44092,41.6134186,-81.4484444
30856,Roosevelt Road,44092,41.6134184,-81.4486259
30852,Roosevelt Road,44092,41.6134048,-81.4488000
30848,Roosevelt Road,44092,41.6134034,-81.4489765
30844,Roosevelt Road,44092,41.6133997,-81.4491571
30840,Roosevelt Road,44092,41.6133993,-81.4493398
30836,Roosevelt Road,44092,41.6133993,-81.4495250
30830,Roosevelt Road,44092,41.6134019,-81.4497070
30835,Roosevelt Road,44092,41.6137992,-81.4495047
30839,Roosevelt Road,44092,41.6137625,-81.4493310
30843,Roosevelt Road,44092,41.6137804,-81.4491514
30847,Roosevelt Road,44092,41.6137649,-81.4489702
30851,Roosevelt Road,44092,41.6137648,-81.4487865
30855,Roosevelt Road,44092,41.6137653,-81.4486027
30859,Roosevelt Road,44092,41.6137662,-81.4484252
30863,Roosevelt Road,44092,41.6137667,-81.4482402
30867,Roosevelt Road,44092,41.6137679,-81.4480583
30871,Roosevelt Road,44092,41.6137679,-81.4478755
30875,Roosevelt Road,44092,41.6137691,-81.4476925
30879,Roosevelt Road,44092,41.6137681,-81.4475031
30883,Roosevelt Road,44092,41.6137813,-81.4473266
30887,Roosevelt Road,44092,41.6137887,-81.4471420
30891,Roosevelt Road,44092,41.6137722,-81.4469600
30895,Roosevelt Road,44092,41.6137928,-81.4467774
30899,Roosevelt Road,44092,41.6137913,-81.4465888
30905,Roosevelt Road,44092,41.6137886,-81.4464056
30911,Roosevelt Road,44092,41.6138128,-81.4462505
30912,Harrison Road,44092,41.6140609,-81.4462874
30906,Harrison Road,44092,41.6140864,-81.4464567
30900,Harrison Road,44092,41.6141047,-81.4466226
30896,Harrison Road,44092,41.6141070,-81.4468007
30892,Harrison Road,44092,41.6140994,-81.4469814
30888,Harrison Road,44092,41.6140920,-81.4471657
30884,Harrison Road,44092,41.6140906,-81.4473443
30880,Harrison Road,44092,41.6140882,-81.4475302
30876,Harrison Road,44092,41.6140874,-81.4477140
30872,Harrison Road,44092,41.6140883,-81.4478959
30868,Harrison Road,44092,41.6141102,-81.4480766
30864,Harrison Road,44092,41.6140856,-81.4482618
30860,Harrison Road,44092,41.6140849,-81.4484437
30856,Harrison Road,44092,41.6140832,-81.4486264
30852,Harrison Road,44092,41.6140944,-81.4488063
30848,Harrison Road,44092,41.6140833,-81.4489925
30844,Harrison Road,44092,41.6140841,-81.4491738
30840,Harrison Road,44092,41.6140849,-81.4493550
30836,Harrison Road,44092,41.6140544,-81.4495164
30915,Harrison Road,44092,41.6144550,-81.4460907
30913,Harrison Road,44092,41.6144794,-81.4462898
30907,Harrison Road,44092,41.6144670,-81.4464529
30899,Harrison Road,44092,41.6144649,-81.4466953
30895,Harrison Road,44092,41.6144869,-81.4468852
30891,Harrison Road,44092,41.6145006,-81.4470300
30887,Harrison Road,44092,41.6144508,-81.4471848
30883,Harrison Road,44092,41.6144680,-81.4473615
30879,Harrison Road,44092,41.6144523,-81.4475446
30875,Harrison Road,44092,41.6144497,-81.4477332
30871,Harrison Road,44092,41.6144482,-81.4479156
30867,Harrison Road,44092,41.6144583,-81.4481004
30863,Harrison Road,44092,41.6144473,-81.4482830
30859,Harrison Road,44092,41.6144640,-81.4484671
30855,Harrison Road,44092,41.6144594,-81.4486473
30851,Harrison Road,44092,41.6144448,-81.4488282
30847,Harrison Road,44092,41.6144436,-81.4490069
30843,Harrison Road,44092,41.6144427,-81.4491930
30839,Harrison Road,44092,41.6144411,-81.4493528
30835,Harrison Road,44092,41.6144821,-81.4495171
30825,Grant Street,44092,41.6150883,-81.4500148
30821,Grant Street,44092,41.6150929,-81.4501656
30811,Grant Street,44092,41.6151117,-81.4503328
30801,Grant Street,44092,41.6151285,-81.4504773
30725,Grant Street,44092,41.6150987,-81.4511457
30705,Grant Street,44092,41.6150909,-81.4513510
30802,Grant Street,44092,41.6147466,-81.4504667
1737,Douglas Road,44092,41.6146880,-81.4494667
1733,Douglas Road,44092,41.6148515,-81.4494577
1729,Douglas Road,44092,41.6149745,-81.4494538
1725,Douglas Road,44092,41.6151461,-81.4494781
1721,Douglas Road,44092,41.6154073,-81.4494603
1717,Douglas Road,44092,41.6155182,-81.4494773
1713,Douglas Road,44092,41.6156270,-81.4494634
1709,Douglas Road,44092,41.6157351,-81.4494826
1705,Douglas Road,44092,41.6158459,-81.4494799
1701,Douglas Road,44092,41.6159555,-81.4494830
1697,Douglas Road,44092,41.6160650,-81.4494546
1693,Douglas Road,44092,41.6162070,-81.4494744
1689,Douglas Road,44092,41.6164057,-81.4494592
1677,Douglas Road,44092,41.6166158,-81.4494629
1673,Douglas Road,44092,41.6167238,-81.4494881
1663,Douglas Road,44092,41.6168366,-81.4494941
1659,Douglas Road,44092,41.6169800,-81.4494636
1657,Douglas Road,44092,41.6171640,-81.4494922
1653,Douglas Road,44092,41.6172725,-81.4494948
1649,Douglas Road,44092,41.6173826,-81.4494955
1645,Douglas Road,44092,41.6174911,-81.4494957
1641,Douglas Road,44092,41.6176385,-81.4494947
1633,Douglas Road,44092,41.6178209,-81.4494978
1629,Douglas Road,44092,41.6179290,-81.4495014
1625,Douglas Road,44092,41.6180730,-81.4495174
1617,Douglas Road,44092,41.6182569,-81.4495059
1613,Douglas Road,44092,41.6183685,-81.4495036
1609,Douglas Road,44092,41.6184804,-81.4494730
1605,Douglas Road,44092,41.6185911,-81.4494775
1601,Douglas Road,44092,41.6186997,-81.4495054
1595,Douglas Road,44092,41.6189131,-81.4495036
1589,Douglas Road,44092,41.6190241,-81.4495000
1581,Douglas Road,44092,41.6192453,-81.4495104
1577,Douglas Road,44092,41.6193557,-81.4495292
1573,Douglas Road,44092,41.6194647,-81.4494724
1569,Douglas Road,44092,41.6195711,-81.4494858
1565,Douglas Road,44092,41.6196820,-81.4494767
1561,Douglas Road,44092,41.6197945,-81.4494718
1559,Douglas Road,44092,41.6199053,-81.4495107
1557,Douglas Road,44092,41.6200146,-81.4495105
1555,Douglas Road,44092,41.6201240,-81.4495113
1551,Douglas Road,44092,41.6202330,-81.4494866
1547,Douglas Road,44092,41.6203445,-81.4495136
1543,Douglas Road,44092,41.6204882,-81.4494883
1539,Douglas Road,44092,41.6206526,-81.4495196
1533,Douglas Road,44092,41.6207855,-81.4495130
1527,Douglas Road,44092,41.6210069,-81.4495445
1523,Douglas Road,44092,41.6211138,-81.4496175
1519,Douglas Road,44092,41.6212582,-81.4495592
1515,Douglas Road,44092,41.6213954,-81.4496011
30902,Euclid Avenue,44092,41.6216083,-81.4498223
1724,Douglas Road,44092,41.6151162,-81.4498837
1716,Douglas Road,44092,41.6152912,-81.4499595
1712,Douglas Road,44092,41.6154047,-81.4499644
1708,Douglas Road,44092,41.6155150,-81.4499540
1704,Douglas Road,44092,41.6156227,-81.4499436
1700,Douglas Road,44092,41.6157271,-81.4499572
1696,Douglas Road,44092,41.6158446,-81.4499343
1692,Douglas Road,44092,41.6159971,-81.4499610
1688,Douglas Road,44092,41.6161739,-81.4499464
1684,Douglas Road,44092,41.6162844,-81.4499470
1680,Douglas Road,44092,41.6163938,-81.4499476
1676,Douglas Road,44092,41.6165018,-81.4499483
1672,Douglas Road,44092,41.6166117,-81.4499475
1705,Mapledale Road,44092,41.6152961,-81.4504038
1697,Mapledale Road,44092,41.6154605,-81.4504255
1693,Mapledale Road,44092,41.6156208,-81.4504218
1689,Mapledale Road,44092,41.6157339,-81.4504121
1685,Mapledale Road,44092,41.6158434,-81.4504163
1681,Mapledale Road,44092,41.6159483,-81.4504258
1677,Mapledale Road,44092,41.6160635,-81.4504332
1671,Mapledale Road,44092,41.6161810,-81.4503967
1669,Mapledale Road,44092,41.6162813,-81.4504292
1665,Mapledale Road,44092,41.6163926,-81.4504167
1661,Mapledale Road,44092,41.6165008,-81.4504331
1657,Mapledale Road,44092,41.6166109,-81.4504342
1400,Lloyd Road,44092,41.6062882,-81.4779537
30040,Ridge Road,44092,41.6045775,-81.4598597
1664,Douglas Road,44092,41.6168338,-81.4499807
1660,Douglas Road,44092,41.6169367,-81.4499465
1656,Douglas Road,44092,41.6170836,-81.4499742
1650,Douglas Road,44092,41.6172641,-81.4499826
1648,Douglas Road,44092,41.6173752,-81.4499514
1644,Douglas Road,44092,41.6174861,-81.4499541
1640,Douglas Road,44092,41.6175947,-81.4499864
1636,Douglas Road,44092,41.6177041,-81.4499852
1632,Douglas Road,44092,41.6178141,-81.4499863
1628,Douglas Road,44092,41.6179239,-81.4499589
1624,Douglas Road,44092,41.6180334,-81.4499556
1620,Douglas Road,44092,41.6181405,-81.4499496
1616,Douglas Road,44092,41.6182551,-81.4499764
1612,Douglas Road,44092,41.6183661,-81.4499875
1606,Douglas Road,44092,41.6185888,-81.4499613
1602,Douglas Road,44092,41.6186950,-81.4499880
1596,Douglas Road,44092,41.6188020,-81.4499822
1594,Douglas Road,44092,41.6189132,-81.4499881
1590,Douglas Road,44092,41.6190226,-81.4499727
1586,Douglas Road,44092,41.6191348,-81.4499811
1582,Douglas Road,44092,41.6192463,-81.4499658
1578,Douglas Road,44092,41.6193560,-81.4499655
1574,Douglas Road,44092,41.6194653,-81.4499622
1570,Douglas Road,44092,41.6195738,-81.4499725
1564,Douglas Road,44092,41.6196829,-81.4499724
1560,Douglas Road,44092,41.6197915,-81.4499695
1558,Douglas Road,44092,41.6199026,-81.4499727
1556,Douglas Road,44092,41.6200115,-81.4499732
1552,Douglas Road,44092,41.6201202,-81.4500056
1550,Douglas Road,44092,41.6202261,-81.4499907
1546,Douglas Road,44092,41.6203282,-81.4499822
1542,Douglas Road,44092,41.6204509,-81.4499696
1540,Douglas Road,44092,41.6205614,-81.4499778
1536,Douglas Road,44092,41.6206670,-81.4499893
1530,Douglas Road,44092,41.6208478,-81.4500473
1526,Douglas Road,44092,41.6210246,-81.4500919
1520,Douglas Road,44092,41.6211283,-81.4501122
30806,Euclid Avenue,44092,41.6214462,-81.4501355
30820,Euclid Avenue,44092,41.6214145,-81.4502929
30810,Euclid Avenue,44092,41.6213295,-81.4504854
30802,Euclid Avenue,44092,41.6212465,-81.4506829
1651,Mapledale Road,44092,41.6168359,-81.4504288
1647,Mapledale Road,44092,41.6169703,-81.4504152
1639,Mapledale Road,44092,41.6171240,-81.4504124
1635,Mapledale Road,44092,41.6172646,-81.4504231
1633,Mapledale Road,44092,41.6173735,-81.4504123
1629,Mapledale Road,44092,41.6174840,-81.4504376
1625,Mapledale Road,44092,41.6175927,-81.4504413
1621,Mapledale Road,44092,41.6177021,-81.4504403
1613,Mapledale Road,44092,41.6178127,-81.4504198
1609,Mapledale Road,44092,41.6179223,-81.4504406
1605,Mapledale Road,44092,41.6180325,-81.4504397
1601,Mapledale Road,44092,41.6181328,-81.4504216
1593,Mapledale Road,44092,41.6182516,-81.4504438
1589,Mapledale Road,44092,41.6183615,-81.4504443
1585,Mapledale Road,44092,41.6185949,-81.4504110
1581,Mapledale Road,44092,41.6186924,-81.4504617
1577,Mapledale Road,44092,41.6188017,-81.4504584
1573,Mapledale Road,44092,41.6189109,-81.4504453
1569,Mapledale Road,44092,41.6190199,-81.4504474
1565,Mapledale Road,44092,41.6191313,-81.4504587
1561,Mapledale Road,44092,41.6192410,-81.4504604
1553,Mapledale Road,44092,41.6193514,-81.4504614
1553,Mapledale Road,44092,41.6194616,-81.4504601
1541,Mapledale Road,44092,41.6196783,-81.4504697
1539,Mapledale Road,44092,41.6197883,-81.4504492
1535,Mapledale Road,44092,41.6199013,-81.4504486
1531,Mapledale Road,44092,41.6200111,-81.4504570
1527,Mapledale Road,44092,41.6201213,-81.4504716
1523,Mapledale Road,44092,41.6202308,-81.4504589
1519,Mapledale Road,44092,41.6203409,-81.4504596
1515,Mapledale Road,44092,41.6204481,-81.4504680
1511,Mapledale Road,44092,41.6205592,-81.4504916
1507,Mapledale Road,44092,41.6206660,-81.4504724
1503,Mapledale Road,44092,41.6207776,-81.4505410
1501,Mapledale Road,44092,41.6208908,-81.4505430
1516,Mapledale Road,44092,41.6204477,-81.4509528
1522,Mapledale Road,44092,41.6203386,-81.4509399
1526,Mapledale Road,44092,41.6202206,-81.4509302
1530,Mapledale Road,44092,41.6201186,-81.4509246
1532,Mapledale Road,44092,41.6200097,-81.4509242
1536,Mapledale Road,44092,41.6198987,-81.4509218
1540,Mapledale Road,44092,41.6197922,-81.4509216
1544,Mapledale Road,44092,41.6196805,-81.4509332
1548,Mapledale Road,44092,41.6195699,-81.4509307
1552,Mapledale Road,44092,41.6194606,-81.4509168
1556,Mapledale Road,44092,41.6193485,-81.4509100
1560,Mapledale Road,44092,41.6192392,-81.4509215
1564,Mapledale Road,44092,41.6191289,-81.4509171
1568,Mapledale Road,44092,41.6190211,-81.4509231
1572,Mapledale Road,44092,41.6189112,-81.4509082
1576,Mapledale Road,44092,41.6188012,-81.4509171
1580,Mapledale Road,44092,41.6186908,-81.4509058
1584,Mapledale Road,44092,41.6185808,-81.4508903
1588,Mapledale Road,44092,41.6184687,-81.4509004
1598,Mapledale Road,44092,41.6183599,-81.4508983
1602,Mapledale Road,44092,41.6181308,-81.4508953
1604,Mapledale Road,44092,41.6180310,-81.4509016
1614,Mapledale Road,44092,41.6178132,-81.4508973
1622,Mapledale Road,44092,41.6175932,-81.4509092
1630,Mapledale Road,44092,41.6174814,-81.4508944
1634,Mapledale Road,44092,41.6173728,-81.4509153
1636,Mapledale Road,44092,41.6172635,-81.4508977
1640,Mapledale Road,44092,41.6171514,-81.4508971
1644,Mapledale Road,44092,41.6170421,-81.4509053
1648,Mapledale Road,44092,41.6169327,-81.4508950
1652,Mapledale Road,44092,41.6168226,-81.4509066
1654,Mapledale Road,44092,41.6167125,-81.4508860
1658,Mapledale Road,44092,41.6165905,-81.4509091
1662,Mapledale Road,44092,41.6164922,-81.4508875
1666,Mapledale Road,44092,41.6163828,-81.4508834
1670,Mapledale Road,44092,41.6162712,-81.4508728
1674,Mapledale Road,44092,41.6161624,-81.4509037
1678,Mapledale Road,44092,41.6160532,-81.4508723
1682,Mapledale Road,44092,41.6159427,-81.4509002
1686,Mapledale Road,44092,41.6158347,-81.4508835
1690,Mapledale Road,44092,41.6157250,-81.4508764
1698,Mapledale Road,44092,41.6155056,-81.4509073
1702,Mapledale Road,44092,41.6153961,-81.4508762
1706,Mapledale Road,44092,41.6152855,-81.4509185
1710,Mapledale Road,44092,41.6150950,-81.4509262
2150,Larchmont Drive,44092,41.5980655,-81.4731355
2154,Larchmont Drive,44092,41.5979453,-81.4729591
2160,Larchmont Drive,44092,41.5978200,-81.4728615
2166,Larchmont Drive,44092,41.5976775,-81.4727873
2200,Larchmont Drive,44092,41.5975445,-81.4727205
2206,Larchmont Drive,44092,41.5974192,-81.4726334
2212,Larchmont Drive,44092,41.5972959,-81.4725585
2224,Larchmont Drive,44092,41.5970269,-81.4724091
2228,Larchmont Drive,44092,41.5969038,-81.4723094
2232,Larchmont Drive,44092,41.5967783,-81.4722336
2242,Larchmont Drive,44092,41.5965074,-81.4720711
2248,Larchmont Drive,44092,41.5963744,-81.4720112
2252,Larchmont Drive,44092,41.5962476,-81.4719343
2258,Larchmont Drive,44092,41.5961207,-81.4718398
2262,Larchmont Drive,44092,41.5959951,-81.4717611
2218,Larchmont Drive,44092,41.5971623,-81.4724906
2266,Larchmont Drive,44092,41.5958603,-81.4716806
2306,Larchmont Drive,44092,41.5956000,-81.4715432
2312,Larchmont Drive,44092,41.5954691,-81.4714527
2300,Larchmont Drive,44092,41.5957329,-81.4716230
2316,Larchmont Drive,44092,41.5953454,-81.4713706
2322,Larchmont Drive,44092,41.5952093,-81.4712896
2328,Larchmont Drive,44092,41.5950806,-81.4712151
2329,Larchmont Drive,44092,41.5952479,-81.4707153
2129,Larchmont Drive,44092,41.5984119,-81.4736133
2125,East 290th Street,44092,41.5986173,-81.4736970
2143,East 290th Street,44092,41.5980787,-81.4734824
2143,Larchmont Drive,44092,41.5984841,-81.4732927
2163,Larchmont Drive,44092,41.5980101,-81.4723697
2167,Larchmont Drive,44092,41.5978848,-81.4722869
2213,Larchmont Drive,44092,41.5974861,-81.4720665
2217,Larchmont Drive,44092,41.5973601,-81.4719845
2229,Larchmont Drive,44092,41.5970945,-81.4718094
2239,Larchmont Drive,44092,41.5968438,-81.4716559
2243,Larchmont Drive,44092,41.5967072,-81.4715739
2249,Larchmont Drive,44092,41.5965706,-81.4715080
2253,Larchmont Drive,44092,41.5964361,-81.4714317
2263,Larchmont Drive,44092,41.5961903,-81.4712858
2301,Larchmont Drive,44092,41.5959226,-81.4711125
2307,Larchmont Drive,44092,41.5957994,-81.4710381
2313,Larchmont Drive,44092,41.5956642,-81.4709590
2317,Larchmont Drive,44092,41.5955374,-81.4708865
2323,Larchmont Drive,44092,41.5954022,-81.4708074
2267,Larchmont Drive,44092,41.5960537,-81.4711935
2223,Larchmont Drive,44092,41.5972213,-81.4719036
2201,Larchmont Drive,44092,41.5977451,-81.4722146
2159,Larchmont Drive,44092,41.5981566,-81.4724743
2155,Larchmont Drive,44092,41.5983101,-81.4726390
2151,Larchmont Drive,44092,41.5984165,-81.4728368
2147,Larchmont Drive,44092,41.5984721,-81.4730591
2238,Larchmont Drive,44092,41.5966478,-81.4721543
2259,Larchmont Drive,44092,41.5963172,-81.4713421
2233,Larchmont Drive,44092,41.5969740,-81.4717184
2207,Larchmont Drive,44092,41.5976144,-81.4721395
30490,Euclid Avenue,44092,41.6189267,-81.4563464
30490,Euclid Avenue,44092,41.6187733,-81.4563220
30335,Palisades Parkway,44092,41.6203799,-81.4589477
1520,Rush Road,44092,41.6184889,-81.4561095
29700,Euclid Avenue,44092,41.6097829,-81.4687550
29280,Euclid Avenue,44092,41.6058282,-81.4738076
29363,Euclid Avenue,44092,41.6072127,-81.4732677
29169,Euclid Avenue,44092,41.6049232,-81.4764029
29348,Euclid Avenue,44092,41.6067090,-81.4731000
28926,Euclid Avenue,44092,41.6016486,-81.4792878
28940,Euclid Avenue,44092,41.6018284,-81.4788554
29325,Euclid Avenue,44092,41.6066314,-81.4741192
29311,Euclid Avenue,44092,41.6064949,-81.4743031
29328,Euclid Avenue,44092,41.6062671,-81.4735074
2255,Rockefeller Road,44092,41.6006526,-81.4624451
