House number,Street name,Postal code,Latitude,Longitude
22,Комсомольская улица,150000,57.6227706,39.8864723
79,улица Свободы,150014,57.6263235,39.8585771
55,улица Стачек,150002,57.6090227,39.8335887
163,Московский проспект,150057,57.5781358,39.8503647
10,улица Курчатова,150023,57.5803167,39.8455858
13,улица Городской Вал,150049,57.6244334,39.8481681
8,улица Щепкина,150010,57.5515548,39.9391945
9,проспект Ленина,150003,57.6410057,39.8792612
54/38,улица Свободы,150014,57.6267796,39.8582399
3,Алмазная улица,150020,57.6561603,39.9245595
7,5-я Портовая улица,150022,57.5986392,39.9093683
56 к2,улица Громова,150063,57.6871020,39.7561120
11 к2,Клубная улица,150008,57.6053743,39.9515699
43,улица Гагарина,150023,57.5840578,39.8402223
95,Ленинградский проспект,150045,57.6876476,39.7763793
14,Комсомольская улица,150000,57.6238862,39.8856901
4,улица Рыкачёва,150023,57.5793957,39.8419751
6,улица Рыкачёва,150023,57.5797983,39.8410364
14,улица Рыкачёва,150023,57.5805173,39.8392447
7,улица Менделеева,150023,57.5815670,39.8434021
40,проспект Машиностроителей,150051,57.6432818,39.9569746
40,проспект Машиностроителей,150051,57.6429189,39.9574295
10/22,улица Белинского,150043,57.6410998,39.8394832
65,улица Ньютона,150035,57.5712831,39.8609994
24,проспект Машиностроителей,150051,57.6486586,39.9501668
10А,улица Щепкина,150010,57.5520890,39.9419295
57,проспект Фрунзе,150006,57.5739615,39.9207829
3 к1,Республиканская улица,150003,57.6394912,39.8834903
13,Спартаковская улица,150034,57.7261421,39.8184853
25 к8,Богоявленская площадь,150000,57.6208757,39.8900318
12,улица Щапова,150054,57.6352094,39.8541814
20 к2,Суздальское шоссе,150030,57.5966641,39.8765468
14/50,улица Урицкого,150042,57.6877347,39.8043029
27/14,Московский проспект,150001,57.6107913,39.8823057
12,улица Папанина,150065,57.6435725,39.9527645
19,Звёздная улица,150010,57.5548251,39.9263255
8 к2,улица 1905 года,150018,57.7136328,39.7765678
12,проезд Кольцова,150019,57.7317655,39.7700529
14,проспект Авиаторов,150007,57.6369089,39.9059611
10,улица Закгейма,150029,57.6045456,39.8178462
57,улица Чкалова,150031,57.6379037,39.8157903
91/1,Тутаевское шоссе,150033,57.6952725,39.7996922
62 к2,улица Колышкина,150036,57.7557476,39.8032643
45,проспект Октября,150040,57.6353236,39.8679829
51А,Тутаевское шоссе,150042,57.6887618,39.8092070
47,улица Урицкого,150044,57.6824824,39.7976891
12,улица Титова,150046,57.5854629,39.8322143
33,улица Жукова,150047,57.6345902,39.8285824
18,улица Слепнёва,150048,57.5794413,39.8600029
61,улица Ньютона,150035,57.5719812,39.8609336
20,улица Туманова,150060,57.6908436,39.7621637
28,улица Громова,150061,57.6774352,39.7711994
104,проспект Авиаторов,150062,57.6577181,39.9512630
11,улица Бабича,150064,57.6996823,39.7692153
23,улица Пожарского,150066,57.5760188,39.8885122
27,Большая Октябрьская улица,150000,57.6223511,39.8857193
1,Южный переулок,150000,57.6221374,39.8833093
38,улица Городской Вал,150049,57.6246337,39.8490730
54А,улица Урицкого,150052,57.6797066,39.7901268
33,проспект Ленина,150040,57.6344500,39.8632076
33,проспект Ленина,150040,57.6344869,39.8633141
21,Советская улица,150028,57.6326292,39.8863669
1,7-й переулок Маяковского,150007,57.6365376,39.9261519
8,улица Елены Колесовой,150042,57.6845846,39.8126392
28/2,улица Батова,150033,57.6959202,39.7931834
64,Тутаевское шоссе,150033,57.6977738,39.7977142
163 к2,Московский проспект,150057,57.5798690,39.8518600
3,2-й Брагинский проезд,150033,57.6966497,39.7909137
30,улица Юности,150031,57.6419427,39.8163554
23,улица Юности,150031,57.6422769,39.8157138
53,улица Чкалова,150031,57.6378800,39.8167144
4/6,Угличская улица,150014,57.6278433,39.8611281
1,улица Серго Орджоникидзе,150051,57.6482289,39.9404713
46,1-я Тормозная улица,150010,57.5535252,39.9395741
46,1-я Тормозная улица,150010,57.5528905,39.9398235
10,улица Щепкина,150010,57.5532316,39.9452368
39Б,Угличская улица,150047,57.6324884,39.8292504
1А,улица Серго Орджоникидзе,150055,57.6480229,39.9405320
1,Привокзальная площадь,150000,57.6252202,39.8367480
1,Тутаевское шоссе,150042,57.6705252,39.8377485
47,проспект Октября,150003,57.6354256,39.8675641
26А,улица Белинского,150043,57.6375606,39.8387869
14,улица Кирова,150000,57.6257394,39.8866546
4,Комсомольская улица,150000,57.6250076,39.8842327
2,улица Гоголя,150030,57.5915894,39.8669865
80А,Московский проспект,150030,57.5928642,39.8619829
108,Московский проспект,150023,57.5768239,39.8433610
149,проспект Авиаторов,150062,57.6562422,39.9440329
13,7-й переулок Маяковского,150007,57.6358093,39.9240733
57,улица Чкалова,150031,57.6379037,39.8156703
57,улица Чкалова,150031,57.6379037,39.8155791
3А,Базовая улица,150044,57.6597004,39.8381493
64,улица Чкалова,150031,57.6388909,39.8198943
70,улица Чкалова,150031,57.6383470,39.8166198
70,улица Чкалова,150031,57.6383427,39.8170168
12 к2,1-я Жилая улица,150031,57.6364438,39.8199098
1,2-я Парковая улица,150007,57.6335683,39.9333295
38А,проспект Ленина,150054,57.6309390,39.8521356
9,Красноборская улица,150055,57.6493837,39.9380425
30/1,улица Батова,150033,57.6963227,39.7941654
28/2,улица Батова,150033,57.6959724,39.7929782
93,Тутаевское шоссе,150033,57.6974137,39.7958010
46,улица Некрасова,150040,57.6326636,39.8727487
18,Коровницкий переулок,150001,57.6106340,39.9061826
1Б,Красноперевальский переулок,150019,57.7249206,39.7515384
1,Южный переулок,150000,57.6216022,39.8834352
18,Коровницкий переулок,150001,57.6106730,39.9061848
57/17,улица Салтыкова-Щедрина,150014,57.6231975,39.8602424
41,улица Собинова,150000,57.6237925,39.8817946
30,улица Чайковского,150000,57.6250700,39.8724238
1 с4,Промышленная улица,150040,57.6528240,39.8280778
5А,улица Кирова,150000,57.6256800,39.8897933
78,1-я Портовая улица,150022,57.6012745,39.9097735
12В,улица Богдановича,150014,57.6296683,39.8559489
12В,улица Богдановича,150014,57.6296769,39.8558523
70,улица Чкалова,150031,57.6383555,39.8163832
24А,улица Трефолева,150000,57.6267532,39.8860554
41А,улица Некрасова,150040,57.6323970,39.8726539
10,улица Елены Колесовой,150042,57.6842964,39.8122101
33Б,Тутаевское шоссе,150042,57.6856774,39.8152016
55Б,Тутаевское шоссе,150042,57.6891637,39.8087382
51А к3,Тутаевское шоссе,150042,57.6890383,39.8090523
3,улица Урицкого,150042,57.6877017,39.8065290
1,4-й Норский переулок,150018,57.7133601,39.7715024
34,улица Свердлова,150040,57.6304658,39.8729996
5А,улица Кирова,150000,57.6257569,39.8893287
63,улица Наумова,150001,57.6076724,39.8653490
10Г,улица Красный Съезд,150003,57.6327093,39.8884608
5А,улица Кирова,150000,57.6257133,39.8890610
5,Депутатская улица,150000,57.6248086,39.8896250
11,улица Андропова,150000,57.6244650,39.8908782
3 к6,Республиканская улица,150003,57.6399002,39.8849411
10/25,улица Кирова,150000,57.6262926,39.8892855
3 к4,Республиканская улица,150003,57.6401839,39.8857545
93А,улица Свободы,150014,57.6266441,39.8480377
19,Кооперативная улица,150000,57.6358402,39.8851013
15,Индустриальный переулок,150010,57.5496280,39.9387047
1,Романовская улица,150019,57.7249261,39.7536238
3,Романовская улица,150019,57.7242756,39.7537534
7,Романовская улица,150019,57.7235176,39.7548849
1Б,Красноперевальский переулок,150019,57.7248177,39.7513893
11/74,проспект Ленина,150003,57.6407865,39.8776590
27,улица Свободы,150000,57.6253444,39.8743645
14/50,улица Урицкого,150042,57.6876838,39.8042120
14/50,улица Урицкого,150042,57.6876373,39.8041073
3,улица Урицкого,150042,57.6873546,39.8056001
7А,улица Урицкого,150044,57.6852324,39.8034679
1,Тутаевское шоссе,150042,57.6707165,39.8379779
11,улица Полушкина Роща,150044,57.6598539,39.8608545
9,2-й Брагинский проезд,150033,57.6988244,39.7870258
7,2-й Брагинский проезд,150033,57.6983342,39.7878188
11,Депутатская улица,150000,57.6244028,39.8886098
3,улица Крылова,150048,57.5844092,39.8730818
3,улица Крылова,150048,57.5843012,39.8729924
3,улица Крылова,150048,57.5842460,39.8729457
24В,улица Труфанова,150063,57.6858200,39.7674628
24В,улица Труфанова,150063,57.6860744,39.7673398
31,улица Носкова,150002,57.6081484,39.8369309
21,улица Полушкина Роща,150999,57.6604587,39.8558200
17А,улица Полушкина Роща,150999,57.6605759,39.8599052
32/29,Рыбинская улица,150014,57.6251617,39.8569406
7,улица Урицкого,150042,57.6860836,39.8050431
7,улица Урицкого,150042,57.6861570,39.8051978
53,Тутаевское шоссе,150042,57.6882839,39.8083491
10,улица Елены Колесовой,150042,57.6843485,39.8122558
10,улица Елены Колесовой,150042,57.6843779,39.8123064
10,улица Елены Колесовой,150042,57.6844305,39.8124201
10,улица Елены Колесовой,150042,57.6843040,39.8121058
10,улица Елены Колесовой,150042,57.6843269,39.8120697
10,улица Елены Колесовой,150042,57.6844056,39.8123687
33Б,Тутаевское шоссе,150042,57.6856888,39.8152186
48/5,улица Блюхера,150042,57.6868864,39.8055761
48/5,улица Урицкого,150042,57.6869545,39.8054512
48/5,улица Блюхера,150042,57.6869204,39.8055181
48/5,улица Блюхера,150042,57.6868483,39.8056394
48/5,улица Блюхера,150042,57.6867316,39.8058637
48/5,улица Блюхера,150042,57.6868143,39.8056895
48/5,улица Блюхера,150042,57.6867797,39.8057538
48/5,улица Блюхера,150042,57.6868236,39.8056612
10,улица Елены Колесовой,150042,57.6856795,39.8151838
3,улица Урицкого,150042,57.6874197,39.8057332
3,улица Урицкого,150042,57.6873361,39.8056762
11В,проспект Машиностроителей,150051,57.6481855,39.9532826
3,улица Урицкого,150042,57.6873846,39.8057349
3,улица Урицкого,150042,57.6873527,39.8057810
3,улица Урицкого,150042,57.6872745,39.8058013
3,улица Урицкого,150042,57.6872977,39.8058677
3,улица Урицкого,150042,57.6877054,39.8067009
53А,Тутаевское шоссе,150042,57.6887689,39.8091383
51А,Тутаевское шоссе,150042,57.6887269,39.8092077
51А,Тутаевское шоссе,150042,57.6887399,39.8097494
30Б,Большая Октябрьская улица,150000,57.6238531,39.8832305
7А,улица Будкина,150002,57.6081543,39.8361931
7А,улица Будкина,150002,57.6082230,39.8361473
30,Зеленцовская улица,150002,57.6083194,39.8434423
37/73,проспект Ленина,150040,57.6332896,39.8604852
34/21,проспект Октября,150040,57.6345985,39.8754377
38,улица Блюхера,150042,57.6858065,39.8100599
40,улица Блюхера,150042,57.6859655,39.8093238
32,улица Блюхера,150042,57.6849609,39.8096600
2,Пионерская улица,150044,57.6876101,39.7982955
9b,улица Полушкина Роща,150003,57.6540932,39.8700347
40А,проспект Дзержинского,150052,57.6774523,39.7751115
40А,проспект Дзержинского,150052,57.6774011,39.7751149
40А,проспект Дзержинского,150052,57.6775272,39.7750939
40А,проспект Дзержинского,150052,57.6774424,39.7749996
40А,проспект Дзержинского,150052,57.6775403,39.7751818
40А,проспект Дзержинского,150052,57.6774849,39.7752050
40А,проспект Дзержинского,150052,57.6774911,39.7753257
40А,проспект Дзержинского,150052,57.6774902,39.7751807
7Б,Зеленцовская улица,150002,57.6093178,39.8437424
135,Большая Фёдоровская улица,150002,57.6068935,39.8474615
103,Большая Фёдоровская улица,150002,57.6080188,39.8583244
2А,проспект Толбухина,150014,57.6168671,39.8600159
69,Большая Октябрьская улица,150014,57.6210144,39.8631967
34,улица Свердлова,150040,57.6303914,39.8733948
103 с1,Большая Фёдоровская улица,150002,57.6075363,39.8583069
39,Большая Октябрьская улица,150000,57.6221622,39.8825653
23,улица Носкова,150002,57.6081122,39.8384108
74,Большая Фёдоровская улица,150001,57.6093220,39.8639186
74,Большая Фёдоровская улица,150001,57.6093421,39.8640393
54,улица Стачек,150002,57.6089528,39.8356883
40А,Ленинградский проспект,150044,57.6808708,39.7945637
21,улица Полушкина Роща,150999,57.6605631,39.8553731
58,Малая Пролетарская улица,150001,57.6109345,39.8615588
1Б,улица Чкалова,150054,57.6372438,39.8503248
24В,улица Труфанова,150063,57.6857368,39.7675830
28,улица Труфанова,150063,57.6872218,39.7648945
28,улица Труфанова,150063,57.6872813,39.7650059
28,улица Труфанова,150063,57.6871825,39.7649757
11,проспект Ленина,150003,57.6407108,39.8774662
40А,Ленинградский проспект,150044,57.6809544,39.7944097
40А,Ленинградский проспект,150044,57.6808378,39.7946304
1,улица Урицкого,150042,57.6878676,39.8070855
3,улица Урицкого,150042,57.6872848,39.8057141
1,улица Урицкого,150042,57.6873301,39.8057342
53,Тутаевское шоссе,150042,57.6887917,39.8087320
54,Тутаевское шоссе,150042,57.6904454,39.8090865
54,Тутаевское шоссе,150042,57.6903909,39.8092018
57,Тутаевское шоссе,150042,57.6903206,39.8093225
57,Тутаевское шоссе,150042,57.6902719,39.8094003
10,улица Елены Колесовой,150042,57.6843813,39.8123873
10,улица Елены Колесовой,150042,57.6843584,39.8123524
10,улица Елены Колесовой,150042,57.6843354,39.8122183
29А,Большая Октябрьская улица,150000,57.6220105,39.8850643
40А,проспект Дзержинского,150052,57.6773322,39.7750413
24В,улица Труфанова,150063,57.6859909,39.7673155
24В,улица Труфанова,150063,57.6859744,39.7674325
24В,улица Труфанова,150063,57.6859398,39.7673986
24В,улица Труфанова,150063,57.6859349,39.7675034
24В,улица Труфанова,150063,57.6858262,39.7676698
24В,улица Труфанова,150063,57.6858970,39.7673863
24В,улица Труфанова,150063,57.6859991,39.7671737
7А,улица Урицкого,150044,57.6852146,39.8033982
7А,улица Урицкого,150044,57.6852042,39.8034283
7А,улица Урицкого,150044,57.6851853,39.8033540
7А,улица Урицкого,150044,57.6851824,39.8034018
7А,улица Урицкого,150044,57.6851711,39.8033133
7А,улица Урицкого,150044,57.6851569,39.8033540
7А,улица Урицкого,150044,57.6851610,39.8032924
7А,улица Урицкого,150044,57.6851456,39.8033126
7А,улица Урицкого,150044,57.6851384,39.8032583
7А,улица Урицкого,150044,57.6851302,39.8032832
89/1,проспект Октября,150044,57.6583497,39.8429395
1/3,1-й Иваньковский переулок,150042,57.6866153,39.8246284
22/1,улица Ушинского,150000,57.6288634,39.8849104
9,Ильинская улица,150006,57.5793192,39.9231416
11,переулок Жуковского,150006,57.5842584,39.9194241
36,улица Свободы,150014,57.6259567,39.8736172
5,улица Терешковой,150003,57.6338470,39.8882301
30/18,проспект Машиностроителей,150065,57.6452194,39.9531001
89/2,Московский проспект,150030,57.6010463,39.8769563
5,улица Маланова,150002,57.6049934,39.8303098
31,улица Носкова,150002,57.6081356,39.8368661
7/8,улица Кирова,150000,57.6255318,39.8880926
18В,улица Добрынина,150031,57.6361563,39.8223250
7А,Республиканская улица,150003,57.6366226,39.8822973
7А,Республиканская улица,150003,57.6365673,39.8822683
48А,Красноборская улица,150065,57.6333827,39.9541818
48А,Красноборская улица,150065,57.6333223,39.9542740
40,проспект Машиностроителей,150051,57.6426856,39.9576577
106/13,улица Свердлова,150054,57.6354416,39.8477691
7,Советская улица,150000,57.6285417,39.8920708
5,Советская улица,150000,57.6282027,39.8925086
7,Советская площадь,150000,57.6268162,39.8944738
5,улица Кирова,150000,57.6259158,39.8896833
2,улица Максимова,150000,57.6279525,39.8917383
8,улица Максимова,150000,57.6276615,39.8904600
8А,улица Максимова,150000,57.6277639,39.8898949
3А,улица Воинова,150003,57.6397312,39.8682250
1,улица Воинова,150003,57.6392942,39.8687823
2А,улица Загородный Сад,150003,57.6400089,39.8669857
3,улица Воинова,150003,57.6399773,39.8677242
6,улица Максимова,150000,57.6278197,39.8907565
55,улица Стачек,150002,57.6092026,39.8332025
28/35,Рыбинская улица,150014,57.6252484,39.8613287
50,Красноборская улица,150065,57.6321650,39.9548024
16,улица Городской Вал,150049,57.6226927,39.8490838
7,улица Будкина,150002,57.6081200,39.8353272
9,улица Будкина,150002,57.6080613,39.8346679
16,Красноперекопская улица,150002,57.6114237,39.8252678
11,проспект Толбухина,150049,57.6220415,39.8566626
5/1,улица Менделеева,150023,57.5812334,39.8441659
3,улица Майорова,150023,57.5807969,39.8432741
3,улица Менделеева,150023,57.5808118,39.8452683
60,улица Стачек,150002,57.6096337,39.8340372
11,улица Семашко,150002,57.6094994,39.8282806
12,Красноперекопская улица,150002,57.6094185,39.8275579
6,улица Калмыковых,150002,57.6130576,39.8262948
16,улица Курчатова,150023,57.5797819,39.8434969
12,улица Курчатова,150023,57.5802608,39.8441656
10,улица Курчатова,150023,57.5803203,39.8455351
14,улица Курчатова,150023,57.5797054,39.8446552
18,улица Курчатова,150023,57.5790662,39.8438007
5,улица Майорова,150023,57.5800873,39.8423608
7,улица Майорова,150023,57.5795494,39.8417945
2,улица Рыкачёва,150023,57.5790635,39.8428470
9,улица Городской Вал,150049,57.6229985,39.8480274
7,улица Городской Вал,150049,57.6224673,39.8470915
6/1а,улица Маланова,150002,57.6056861,39.8302780
63,Овинная улица,150002,57.6075176,39.8318758
61,Овинная улица,150002,57.6072249,39.8323994
52,проспект Машиностроителей,150065,57.6397322,39.9610245
4,улица Маланова,150002,57.6059738,39.8316839
1,Красноперекопская улица,150002,57.6062918,39.8300404
57,улица Стачек,150002,57.6095770,39.8319225
59,улица Стачек,150002,57.6102585,39.8310461
19,Красноперекопская улица,150002,57.6090543,39.8268150
10,улица Носкова,150002,57.6084624,39.8373787
67/1,Большая Фёдоровская улица,150001,57.6086005,39.8667625
61,улица Стачек,150002,57.6100080,39.8304018
15,улица Семашко,150002,57.6110011,39.8269104
64,улица Стачек,150002,57.6104163,39.8328860
83,улица Салтыкова-Щедрина,150049,57.6231018,39.8472360
38/53,улица Городской Вал,150049,57.6247433,39.8492728
13,улица Городской Вал,150049,57.6245315,39.8479573
5,улица Городской Вал,150049,57.6219306,39.8478564
92/11,улица Салтыкова-Щедрина,150049,57.6238975,39.8472088
93А,улица Свободы,150014,57.6265567,39.8478157
51,Рыбинская улица,150049,57.6244390,39.8503771
46,1-я Тормозная улица,150010,57.5528882,39.9398039
12 к2,улица Маланова,150002,57.6057134,39.8253210
46,улица Свердлова,150040,57.6308516,39.8684760
32,проспект Фрунзе,150022,57.5899457,39.8974435
34/21,проспект Октября,150040,57.6350590,39.8752212
7,проспект Ленина,150003,57.6416999,39.8799506
8,улица Фурманова,150003,57.6406157,39.8800270
1,улица Фурманова,150003,57.6394057,39.8805496
9,проспект Ленина,150003,57.6410635,39.8792891
6,улица Фурманова,150003,57.6402122,39.8807367
16,улица Менделеева,150046,57.5848544,39.8379050
6,Угличская улица,150014,57.6280219,39.8602512
6А,Угличская улица,150014,57.6285118,39.8602805
5,улица Богдановича,150014,57.6290912,39.8601770
58/7,проспект Толбухина,150014,57.6288605,39.8590937
3,Угличская улица,150014,57.6275258,39.8607069
7,Угличская улица,150014,57.6276971,39.8591347
8/46,Угличская улица,150014,57.6281910,39.8590881
4А,Угличская улица,150014,57.6286095,39.8612981
5А,улица Богдановича,150014,57.6290009,39.8611166
5,Дружная улица,150006,57.5739775,39.9281498
21А,улица Свердлова,150000,57.6285968,39.8766916
38А,проспект Ленина,150054,57.6309847,39.8521554
55,улица Володарского,150014,57.6285120,39.8628797
4,Угличская улица,150014,57.6278194,39.8616825
53/2,улица Володарского,150014,57.6278692,39.8624496
11,улица Трефолева,150000,57.6285314,39.8892211
13,улица Трефолева,150000,57.6282850,39.8888472
16 к2,проспект Ленина,150003,57.6395093,39.8715833
2,улица Воинова,150003,57.6391375,39.8707892
65А,Советская улица,150003,57.6388267,39.8754273
16,проспект Ленина,150003,57.6393358,39.8721527
15,улица Гагарина,150023,57.5892160,39.8485814
46,Которосльная набережная,150000,57.6201693,39.8750397
59,Большая Октябрьская улица,150000,57.6214597,39.8744651
46В,Которосльная набережная,150000,57.6201960,39.8738374
63,Большая Октябрьская улица,150000,57.6202998,39.8727593
61,Большая Октябрьская улица,150000,57.6213849,39.8732280
63,Большая Октябрьская улица,150000,57.6214361,39.8720455
44,Которосльная набережная,150000,57.6201928,39.8762152
4А,Мукомольный переулок,150000,57.6209780,39.8796142
4,Мукомольный переулок,150000,57.6213799,39.8797213
61,Волгоградская улица,150063,57.6887268,39.7551461
52 к3,улица Громова,150063,57.6852341,39.7591556
25 к5,улица Труфанова,150063,57.6861281,39.7586680
56 к2,улица Громова,150063,57.6869758,39.7557993
63,Волгоградская улица,150063,57.6877081,39.7546440
3А,улица Менделеева,150023,57.5806225,39.8445001
13,улица Громова,150061,57.6778176,39.7589382
27,проспект Дзержинского,150044,57.6855559,39.7881977
8,улица Майорова,150023,57.5802984,39.8417357
7,улица Курчатова,150023,57.5797671,39.8459627
7 к2,улица Курчатова,150023,57.5792867,39.8461385
25,улица Менделеева,150046,57.5840168,39.8369022
4,Тепловой переулок,150008,57.6054689,39.9492150
4 к2,Тепловой переулок,150008,57.6055008,39.9499734
6,Тепловой переулок,150008,57.6059034,39.9491911
5,Тепловой переулок,150008,57.6060894,39.9484038
3,Тепловой переулок,150008,57.6056405,39.9484418
4 к3,Тепловой переулок,150008,57.6055489,39.9507946
8,Тепловой переулок,150008,57.6063117,39.9491786
6,улица Менделеева,150023,57.5822948,39.8426292
9,улица Курчатова,150023,57.5787058,39.8450485
6,улица Курчатова,150023,57.5817753,39.8468111
4,улица Курчатова,150023,57.5818965,39.8476951
2,улица Курчатова,150023,57.5824296,39.8484294
8А,улица Майорова,150023,57.5805360,39.8411215
6,улица Майорова,150023,57.5807745,39.8419971
4,улица Майорова,150023,57.5810187,39.8427588
4А,улица Майорова,150023,57.5812245,39.8422873
2,улица Майорова,150023,57.5814573,39.8433522
9,улица Менделеева,150023,57.5817146,39.8429646
11,улица Менделеева,150023,57.5817696,39.8422758
13,улица Менделеева,150023,57.5820991,39.8419813
12,улица Рыкачёва,150023,57.5803560,39.8396913
10,улица Рыкачёва,150023,57.5803474,39.8403540
8,улица Рыкачёва,150023,57.5800123,39.8405367
10,улица Майорова,150023,57.5798534,39.8411057
1,улица Рыкачёва,150023,57.5784780,39.8423827
4,улица Менделеева,150023,57.5818971,39.8443567
8,улица Курчатова,150023,57.5811785,39.8463747
163,Московский проспект,150057,57.5777918,39.8496616
7,улица 50 лет ВЛКСМ,150034,57.7290447,39.8175295
1,улица 50 лет ВЛКСМ,150034,57.7283867,39.8161588
17,Красноборская улица,150051,57.6468171,39.9407591
8,улица Гагарина,150023,57.5907135,39.8465933
3,улица Большие Полянки,150023,57.5914666,39.8447177
1,улица Большие Полянки,150023,57.5914670,39.8461478
59,Волжская набережная,150003,57.6360819,39.8901778
2,улица Суркова,150003,57.6342308,39.8905228
1,Флотский спуск,150003,57.6346674,39.8906143
16,улица Нефтяников,150023,57.5804574,39.8358867
18,улица Рыкачёва,150023,57.5814183,39.8372379
16,улица Рыкачёва,150023,57.5809293,39.8382845
32,улица Гагарина,150023,57.5833304,39.8376922
51,улица Гагарина,150023,57.5820016,39.8375000
49,улица Гагарина,150023,57.5823070,39.8378699
47,улица Гагарина,150023,57.5825615,39.8382567
45,улица Гагарина,150023,57.5830497,39.8390358
43,улица Гагарина,150023,57.5838516,39.8399922
41,улица Гагарина,150023,57.5842028,39.8410981
39,улица Гагарина,150023,57.5848508,39.8413537
63,улица Ньютона,150035,57.5719445,39.8609673
65,улица Ньютона,150035,57.5713206,39.8612065
31,улица Калинина,150035,57.5707385,39.8623854
20,улица Слепнёва,150038,57.5800727,39.8590449
93,Ленинградский проспект,150045,57.6873117,39.7775819
89,Ленинградский проспект,150045,57.6858074,39.7787755
91,Ленинградский проспект,150045,57.6864710,39.7781361
93А,Ленинградский проспект,150045,57.6875997,39.7763501
2/3,Которосльная набережная,150000,57.6222444,39.9002916
38А,Большая Фёдоровская улица,150002,57.6102710,39.8755583
52,Красноборская улица,150065,57.6314667,39.9550220
54,Красноборская улица,150065,57.6306611,39.9552251
56,Красноборская улица,150065,57.6299497,39.9552614
58,Красноборская улица,150065,57.6294154,39.9551580
9/27,улица Журавлёва,150030,57.5925541,39.8869392
6,улица Носкова,150002,57.6085115,39.8401243
63 к3,улица Ньютона,150035,57.5713864,39.8632395
63 к4,улица Ньютона,150035,57.5713795,39.8640679
63 к2,улица Ньютона,150035,57.5713979,39.8623769
61,улица Ньютона,150035,57.5721888,39.8622718
59,улица Ньютона,150035,57.5728007,39.8620110
55,улица Ньютона,150035,57.5738336,39.8633758
53,улица Ньютона,150035,57.5741335,39.8657577
55А,улица Ньютона,150035,57.5737008,39.8647197
35,улица Слепнёва,150057,57.5799913,39.8553387
35,улица Слепнёва,150057,57.5796686,39.8555260
37,улица Слепнёва,150057,57.5798536,39.8540158
35 к2,улица Слепнёва,150057,57.5794322,39.8549704
33,улица Слепнёва,150057,57.5796057,39.8564035
14А,улица Слепнёва,150048,57.5786417,39.8622021
30А,улица Ньютона,150048,57.5791198,39.8639388
33,улица Калинина,150035,57.5698903,39.8628801
33 к2,улица Калинина,150035,57.5699341,39.8636489
35 к2,улица Калинина,150035,57.5697671,39.8651178
35,улица Калинина,150035,57.5690983,39.8648039
35 к3,улица Калинина,150035,57.5701052,39.8662025
37 к2,улица Калинина,150035,57.5694746,39.8665119
37,улица Калинина,150035,57.5685062,39.8670743
37 к3,улица Калинина,150035,57.5698725,39.8676686
39 к4,улица Калинина,150035,57.5695067,39.8720077
39 к3,улица Калинина,150035,57.5694705,39.8707108
10 к4,улица Доронина,150035,57.5703991,39.8725353
8 к2,улица Доронина,150035,57.5722093,39.8707120
63 к5,улица Ньютона,150035,57.5721616,39.8655170
57А,улица Ньютона,150035,57.5723256,39.8641998
29,улица Панина,150045,57.6859012,39.7740005
27,улица Панина,150045,57.6853362,39.7733277
25,улица Панина,150045,57.6851723,39.7742964
35,улица Панина,150045,57.6848111,39.7705353
24,улица Труфанова,150045,57.6842287,39.7706749
22 к2,улица Труфанова,150045,57.6843006,39.7717443
22,улица Труфанова,150045,57.6836229,39.7715000
19 к2,улица Панина,150045,57.6846094,39.7737870
24,проспект Дзержинского,150045,57.6833100,39.7794997
22,проспект Дзержинского,150045,57.6832672,39.7804969
28,проспект Дзержинского,150045,57.6826538,39.7792096
26,проспект Дзержинского,150045,57.6827263,39.7804633
30,проспект Дзержинского,150045,57.6821393,39.7793569
32,проспект Дзержинского,150045,57.6821849,39.7783498
34,проспект Дзержинского,150045,57.6815929,39.7792743
16,проспект Дзержинского,150045,57.6839328,39.7816531
77,Ленинградский проспект,150045,57.6848075,39.7818974
85А,Ленинградский проспект,150045,57.6868486,39.7805849
30,улица Громова,150061,57.6783158,39.7681910
4А,Архангельский проезд,150061,57.6810789,39.7726267
29,улица Труфанова,150063,57.6897485,39.7585056
27,улица Труфанова,150063,57.6892136,39.7597397
5А,улица Павлика Морозова,150054,57.6272135,39.8336555
16 литР,улица Полушкина Роща,150044,57.6652846,39.8493704
16 с47,улица Полушкина Роща,150044,57.6663519,39.8516836
16 с7,улица Полушкина Роща,150044,57.6646605,39.8476381
16 литВЯ,улица Полушкина Роща,150044,57.6624479,39.8538389
16 литБВ,улица Полушкина Роща,150044,57.6660965,39.8510826
16 с41,улица Полушкина Роща,150044,57.6667420,39.8469616
16 с95,улица Полушкина Роща,150044,57.6622806,39.8580903
16 литАХ,улица Полушкина Роща,150044,57.6680509,39.8520453
16 литАЗ,улица Полушкина Роща,150044,57.6685310,39.8476153
16 с78В,улица Полушкина Роща,150044,57.6647854,39.8556827
16 литНЮ,улица Полушкина Роща,150044,57.6661357,39.8480619
16 с85,улица Полушкина Роща,150044,57.6627665,39.8561847
16 литАТ,улица Полушкина Роща,150044,57.6685032,39.8492346
16 литВР,улица Полушкина Роща,150044,57.6651322,39.8559851
16 литАК,улица Полушкина Роща,150044,57.6691449,39.8483413
16 с68,улица Полушкина Роща,150044,57.6658166,39.8546423
16 литАИ,улица Полушкина Роща,150044,57.6686925,39.8482056
16 с79,улица Полушкина Роща,150044,57.6651817,39.8566700
16 литАС,улица Полушкина Роща,150044,57.6689013,39.8495341
16 с65,улица Полушкина Роща,150044,57.6653162,39.8518512
16 литАЯ,улица Полушкина Роща,150044,57.6653900,39.8501993
16 с51,улица Полушкина Роща,150044,57.6648475,39.8522739
16 литББ,улица Полушкина Роща,150044,57.6661238,39.8504293
9,улица Полушкина Роща,150003,57.6521855,39.8729231
16 с28,улица Полушкина Роща,150044,57.6645414,39.8508409
16 литАЭ,улица Полушкина Роща,150044,57.6672159,39.8491159
16 с87,улица Полушкина Роща,150044,57.6630737,39.8571953
16 литВЖ,улица Полушкина Роща,150044,57.6676600,39.8542426
16 с46А,улица Полушкина Роща,150044,57.6676263,39.8501483
16 литВЛ,улица Полушкина Роща,150044,57.6640368,39.8538146
16 с43,улица Полушкина Роща,150044,57.6670331,39.8485723
16 литВУ,улица Полушкина Роща,150044,57.6630976,39.8580661
16 литАЕ,улица Полушкина Роща,150044,57.6686502,39.8466411
16 с78,улица Полушкина Роща,150044,57.6643643,39.8543475
16 литАЩ,улица Полушкина Роща,150044,57.6673395,39.8497302
16 литГЖ,улица Полушкина Роща,150044,57.6635463,39.8533248
16 с67А,улица Полушкина Роща,150044,57.6657506,39.8540974
16 литАУ,улица Полушкина Роща,150044,57.6679114,39.8506005
16 с87А,улица Полушкина Роща,150044,57.6638972,39.8555609
16 с66А,улица Полушкина Роща,150044,57.6653008,39.8535212
16 литАЖ,улица Полушкина Роща,150044,57.6681273,39.8473542
16 литВО,улица Полушкина Роща,150044,57.6645738,39.8551051
16 с66Б,улица Полушкина Роща,150044,57.6656985,39.8536079
60,улица Свердлова,150040,57.6312988,39.8675026
1,улица Вспольинское Поле,150049,57.6173390,39.8445586
36,улица Городской Вал,150049,57.6241088,39.8493601
1,Охотничья улица,150007,57.6356532,39.9316621
2,Приозёрная улица,150007,57.6361775,39.9311084
9,4-й Парковый проезд,150007,57.6328276,39.9364111
3,Охотничья улица,150007,57.6361930,39.9326305
12,3-й Парковый проезд,150007,57.6334663,39.9355914
5,Охотничья улица,150007,57.6362473,39.9332833
65,Советская улица,150003,57.6390519,39.8766419
19,проспект Ленина,150003,57.6381681,39.8722044
21,проспект Ленина,150003,57.6378885,39.8715480
23,проспект Ленина,150003,57.6377202,39.8702762
34,улица Свердлова,150040,57.6304649,39.8730225
15А,улица Гоголя,150030,57.5934398,39.8739587
28 к4,Суздальское шоссе,150030,57.5946359,39.8737811
107,Московский проспект,150030,57.5981390,39.8742290
36,Большая Октябрьская улица,150000,57.6224739,39.8834437
38,Большая Октябрьская улица,150000,57.6224412,39.8830100
37/1,Большая Октябрьская улица,150000,57.6221527,39.8835318
25,Первомайская улица,150000,57.6264957,39.8854367
15,улица Трефолева,150000,57.6278290,39.8885774
10 к2,улица Доронина,150035,57.5719312,39.8718540
184,Суздальская улица,150035,57.5717743,39.8750034
186,Суздальская улица,150035,57.5713053,39.8761689
182,Суздальская улица,150035,57.5722494,39.8761391
180,Суздальская улица,150035,57.5726885,39.8753665
188,Суздальская улица,150035,57.5708653,39.8750061
190 к2,Суздальская улица,150035,57.5704956,39.8740438
190,Суздальская улица,150035,57.5702022,39.8746546
190,Суздальская улица,150035,57.5702969,39.8762327
7,улица Александра Невского,150052,57.6771417,39.7814482
71,проспект Дзержинского,150052,57.6758877,39.7778464
65,проспект Дзержинского,150052,57.6762104,39.7785426
3 к2,улица Александра Невского,150052,57.6752836,39.7815691
3,улица Александра Невского,150052,57.6749083,39.7828209
5,улица Александра Невского,150052,57.6755531,39.7824375
9,улица Александра Невского,150052,57.6761336,39.7827877
13,улица Александра Невского,150052,57.6775610,39.7830503
11,улица Александра Невского,150052,57.6768328,39.7829325
5 к2,улица Александра Невского,150052,57.6787087,39.7809628
5 к3,улица Александра Невского,150052,57.6757779,39.7803669
5 к2,улица Александра Невского,150052,57.6760016,39.7805066
61Б,проспект Дзержинского,150052,57.6776157,39.7794069
34 к3,улица Труфанова,150060,57.6899305,39.7605899
36 к2,улица Труфанова,150060,57.6913325,39.7599132
60,Красноборская улица,150065,57.6289427,39.9552010
19,улица Победы,150003,57.6358297,39.8765409
15,улица Победы,150003,57.6360420,39.8778083
13/61,улица Победы,150003,57.6365118,39.8788048
69А,улица Урицкого,150052,57.6779084,39.7881598
69 к2,улица Урицкого,150052,57.6771142,39.7870684
69 к3,улица Урицкого,150052,57.6774810,39.7878176
69 к1,улица Урицкого,150052,57.6767318,39.7862794
31,проспект Дзержинского,150052,57.6838327,39.7851330
33,проспект Дзержинского,150052,57.6834869,39.7850222
29/71,проспект Дзержинского,150052,57.6842084,39.7852138
31А,Ленинградский проспект,150052,57.6837742,39.7857283
65,Ленинградский проспект,150052,57.6827251,39.7873730
63,Ленинградский проспект,150052,57.6819259,39.7880830
61,Ленинградский проспект,150052,57.6818180,39.7896904
39,проспект Дзержинского,150052,57.6824079,39.7849324
41,проспект Дзержинского,150052,57.6816595,39.7854637
45,проспект Дзержинского,150052,57.6819506,39.7839512
43,проспект Дзержинского,150052,57.6815958,39.7844737
37,проспект Дзержинского,150052,57.6821262,39.7827805
51,проспект Дзержинского,150052,57.6807592,39.7818324
47,проспект Дзержинского,150052,57.6813730,39.7828796
49,проспект Дзержинского,150052,57.6809288,39.7827518
53,проспект Дзержинского,150052,57.6803274,39.7811028
8 к2,улица Труфанова,150052,57.6803039,39.7832832
6,улица Труфанова,150052,57.6797182,39.7831286
8,улица Труфанова,150052,57.6800657,39.7822164
6 к2,улица Труфанова,150052,57.6799986,39.7842996
64,улица Урицкого,150052,57.6797493,39.7869299
66,улица Урицкого,150052,57.6791525,39.7871614
68,улица Урицкого,150052,57.6791599,39.7883827
62,улица Урицкого,150052,57.6797722,39.7878119
2,улица Труфанова,150052,57.6788900,39.7863937
60,улица Урицкого,150052,57.6798245,39.7889452
58,улица Урицкого,150052,57.6804728,39.7894304
56,улица Урицкого,150052,57.6800168,39.7898670
54/51,улица Урицкого,150052,57.6802213,39.7911669
59,Ленинградский проспект,150052,57.6809341,39.7905543
53,Ленинградский проспект,150052,57.6808704,39.7916580
57,Ленинградский проспект,150052,57.6815772,39.7904370
55,Ленинградский проспект,150052,57.6812137,39.7910643
28,Московский проспект,150016,57.6074311,39.8761544
17,улица Тургенева,150054,57.6319943,39.8489410
9,улица Карла Либкнехта,150043,57.6396417,39.8506031
45,Мельничное шоссе,150022,57.5955505,39.9114437
14,6-й Парковый проезд,150007,57.6337778,39.9416994
12,6-й Парковый проезд,150007,57.6337692,39.9413555
1,6-й Парковый проезд,150007,57.6335856,39.9392971
64,проспект Машиностроителей,150065,57.6348138,39.9663817
8,Гагаринский переулок,150020,57.6537503,39.9331153
10,улица Доронина,150035,57.5733149,39.8726963
38,2-я Мельничная улица,150001,57.6097709,39.8992192
38 к2,2-я Мельничная улица,150001,57.6095749,39.8983109
21,Театральная улица,150006,57.5750844,39.9244322
9А,6-я Железнодорожная улица,150006,57.5729660,39.9239974
5 к2,Красноборская улица,150055,57.6513597,39.9380273
103,Тутаевское шоссе,150018,57.7075547,39.7796882
27,проспект Ленина,150040,57.6362952,39.8673952
5А,улица Папанина,150065,57.6449331,39.9521720
19,улица Ляпидевского,150055,57.6507502,39.9447438
8А,улица Балашова,150018,57.7181117,39.7765945
3,2-й Норский переулок,150018,57.7150746,39.7758616
8 к2,улица 1905 года,150018,57.7135725,39.7766535
12/1,Большая Норская улица,150018,57.7144534,39.7733380
14,улица Куропаткова,150018,57.7181276,39.7732029
6,улица 1905 года,150018,57.7135376,39.7758257
37А,улица Серго Орджоникидзе,150062,57.6538786,39.9576160
8,проезд Доброхотова,150062,57.6536859,39.9487467
32,1-я Шоссейная улица,150008,57.6055835,39.9458149
28,1-я Шоссейная улица,150008,57.6066438,39.9453862
23,Сабанеевская улица,150065,57.6335605,39.9535298
7,проезд Доброхотова,150062,57.6561289,39.9508681
18 к4,улица Серго Орджоникидзе,150051,57.6498435,39.9546830
29А,улица Серго Орджоникидзе,150062,57.6526990,39.9510312
52,3-я Яковлевская улица,150062,57.6597172,39.9611122
8А,Мостецкая улица,150020,57.6420916,39.9305004
37 к5,улица Калинина,150035,57.5689206,39.8682819
7,улица Панфилова,150034,57.7198211,39.8308021
21,улица Панфилова,150034,57.7233285,39.8362410
3,Ранняя улица,150034,57.7244995,39.8242876
19,улица Панфилова,150034,57.7229681,39.8348189
49,Спартаковская улица,150034,57.7190931,39.8282162
15,улица Панфилова,150034,57.7222284,39.8330775
14,Ранняя улица,150034,57.7261110,39.8313452
23,Спартаковская улица,150034,57.7226356,39.8241086
41,Спартаковская улица,150034,57.7208831,39.8280374
4,Ранняя улица,150034,57.7233942,39.8253104
31,Спартаковская улица,150034,57.7227196,39.8270560
25,Спартаковская улица,150034,57.7220976,39.8252277
47,Спартаковская улица,150034,57.7195496,39.8271002
9А,улица Панфилова,150034,57.7220880,39.8302015
12А,Ранняя улица,150034,57.7239761,39.8307844
5,улица Панфилова,150034,57.7196268,39.8301451
9,Ранняя улица,150034,57.7254282,39.8272859
17 к2,улица Панфилова,150034,57.7229121,39.8336864
7,Ранняя улица,150034,57.7252998,39.8262005
15 к3,Ранняя улица,150034,57.7271388,39.8291920
33,Спартаковская улица,150034,57.7229108,39.8277319
13,улица Панфилова,150034,57.7212023,39.8337242
11,Ранняя улица,150034,57.7257693,39.8279843
49 к2,Спартаковская улица,150034,57.7194345,39.8294881
11 к2,улица Панфилова,150034,57.7213263,39.8319641
12,Ранняя улица,150034,57.7247492,39.8296293
27 к2,Спартаковская улица,150034,57.7216956,39.8280108
11,улица Панфилова,150034,57.7207950,39.8322675
9 к2,улица Лебедева,150034,57.7276332,39.8284283
19 к2,улица Панфилова,150034,57.7235458,39.8343251
27,Спартаковская улица,150034,57.7218048,39.8262739
5 к2,Ранняя улица,150034,57.7250268,39.8250042
9,улица Панфилова,150034,57.7201622,39.8319686
13 к2,улица Панфилова,150034,57.7214766,39.8327747
3,улица Панфилова,150034,57.7188230,39.8309312
21 к2,улица Панфилова,150034,57.7235346,39.8353954
13,Ранняя улица,150034,57.7260762,39.8287306
39,Спартаковская улица,150034,57.7201871,39.8279919
5,Ранняя улица,150034,57.7245463,39.8258457
9,улица Лебедева,150034,57.7283582,39.8292788
1,улица Панфилова,150034,57.7176172,39.8289752
45,Спартаковская улица,150034,57.7212642,39.8293539
6А,Ранняя улица,150034,57.7231934,39.8290853
1,улица Лебедева,150034,57.7242777,39.8357426
43,Спартаковская улица,150034,57.7210729,39.8286890
37,Спартаковская улица,150034,57.7205264,39.8268140
29,Спартаковская улица,150034,57.7225369,39.8264020
1,Спартаковская улица,150034,57.7297054,39.8127781
5,Спартаковская улица,150034,57.7283494,39.8150445
6,улица 50 лет ВЛКСМ,150034,57.7274781,39.8191082
12/2,улица 50 лет ВЛКСМ,150034,57.7283557,39.8210831
4,улица 50 лет ВЛКСМ,150034,57.7270581,39.8181765
10,улица 50 лет ВЛКСМ,150034,57.7279322,39.8201179
11,Спартаковская улица,150034,57.7264849,39.8184545
7,Спартаковская улица,150034,57.7276229,39.8171156
3,Спартаковская улица,150034,57.7290226,39.8139172
40,Угличская улица,150047,57.6321521,39.8381222
10,Индустриальный переулок,150010,57.5503153,39.9369040
6,улица Доронина,150035,57.5736708,39.8686861
4,проспект Дзержинского,150045,57.6898527,39.7872377
6 к3,проспект Дзержинского,150045,57.6898000,39.7862253
49,улица Урицкого,150044,57.6818587,39.7973105
57,улица Урицкого,150044,57.6815591,39.7963952
53,улица Урицкого,150044,57.6812515,39.7982729
51,улица Урицкого,150044,57.6815615,39.7978073
55,улица Урицкого,150044,57.6809542,39.7987823
59,улица Урицкого,150044,57.6815743,39.7959594
6,улица Юности,150031,57.6390994,39.8169288
5,улица Юности,150031,57.6393102,39.8145614
22,улица Юности,150031,57.6411729,39.8171000
8,улица Юности,150031,57.6394056,39.8162313
4,улица Юности,150031,57.6388161,39.8162161
72,улица Чкалова,150031,57.6384158,39.8148596
10,улица Юности,150031,57.6399749,39.8163579
20,улица Юности,150031,57.6411968,39.8164293
7,улица Юности,150031,57.6393200,39.8137802
12,улица Юности,150031,57.6399890,39.8170034
74,улица Чкалова,150031,57.6384417,39.8134197
23,улица Юности,150031,57.6425321,39.8157105
3,улица Юности,150031,57.6392901,39.8153449
70,улица Чкалова,150031,57.6383816,39.8167881
9,улица Юности,150031,57.6393381,39.8129934
4 к2,улица Доронина,150035,57.5733329,39.8663167
37 к6,улица Калинина,150035,57.5693596,39.8683352
3,проспект Октября,150000,57.6321240,39.8847593
22А,проспект Машиностроителей,150051,57.6495543,39.9491103
66,Большая Октябрьская улица,150000,57.6222255,39.8726686
64А,Большая Октябрьская улица,150000,57.6221188,39.8736961
1А,улица Салтыкова-Щедрина,150000,57.6226992,39.8758308
36,Шпальная улица,150006,57.5851009,39.9194739
13,переулок Жуковского,150006,57.5841543,39.9191393
85,улица Носкова,150002,57.6090813,39.8407567
49,Тутаевское шоссе,150042,57.6878798,39.8097138
51А,Тутаевское шоссе,150042,57.6887059,39.8095569
35,Тутаевское шоссе,150042,57.6859992,39.8143865
45,Тутаевское шоссе,150042,57.6876320,39.8114422
35 к2,Тутаевское шоссе,150042,57.6868527,39.8129072
49А,Тутаевское шоссе,150042,57.6884353,39.8100454
4,улица Елены Колесовой,150042,57.6851434,39.8140062
47,Тутаевское шоссе,150042,57.6875499,39.8102787
12,улица Елены Колесовой,150042,57.6843346,39.8113863
47А,Тутаевское шоссе,150042,57.6880841,39.8107309
30/16,улица Блюхера,150042,57.6838484,39.8103694
8,улица Елены Колесовой,150042,57.6846605,39.8127511
14,улица Елены Колесовой,150042,57.6840789,39.8108717
10,улица Елены Колесовой,150042,57.6843514,39.8123138
51,Тутаевское шоссе,150042,57.6881721,39.8091283
5,проспект Октября,150000,57.6322693,39.8839016
7,проспект Октября,150000,57.6323316,39.8836159
6,улица Некрасова,150000,57.6315574,39.8841564
11,проспект Октября,150000,57.6325356,39.8825998
22,Республиканская улица,150000,57.6322708,39.8815902
10,улица Некрасова,150000,57.6317013,39.8834042
20,улица Некрасова,150000,57.6318720,39.8812209
44,проспект Октября,150040,57.6355956,39.8687703
105,Тутаевское шоссе,150018,57.7080554,39.7791211
26,улица Закгейма,150029,57.6061042,39.8154700
20,улица 8 Марта,150029,57.6061649,39.8167897
24,улица Закгейма,150029,57.6057358,39.8158951
4,5-я Парковая улица,150007,57.6314411,39.9364859
3,3-й Хуторской переулок,150065,57.6324877,39.9518400
49,улица Маяковского,150007,57.6313213,39.9361578
12,4-й Хуторской переулок,150065,57.6314555,39.9525761
5,Малая Хуторская улица,150065,57.6312034,39.9526096
7,4-й Хуторской переулок,150065,57.6320455,39.9535149
5,4-й Хуторской переулок,150065,57.6322936,39.9534990
9,4-й Хуторской переулок,150065,57.6317860,39.9535270
65,улица Маяковского,150007,57.6252499,39.9438892
32,5-я Парковая улица,150007,57.6331654,39.9419226
36,5-я Парковая улица,150007,57.6331232,39.9427855
30,5-я Парковая улица,150007,57.6332053,39.9414163
31,5-я Парковая улица,150007,57.6334621,39.9412882
20,Охотничья улица,150007,57.6363271,39.9344988
34,5-я Парковая улица,150007,57.6331266,39.9423510
8,5-я Парковая улица,150007,57.6316860,39.9371697
29,5-я Парковая улица,150007,57.6333934,39.9409501
25,5-я Парковая улица,150007,57.6331283,39.9402332
26,5-я Парковая улица,150007,57.6329916,39.9407432
21,5-я Парковая улица,150007,57.6329114,39.9395799
20,5-я Парковая улица,150007,57.6324746,39.9393896
18,Охотничья улица,150007,57.6361433,39.9341835
6,5-я Парковая улица,150007,57.6315287,39.9368140
21,13-я линия,150507,57.6164235,39.8103748
13,13-я линия,150507,57.6168670,39.8117721
12,12-я линия,150507,57.6163258,39.8111748
22,13-я линия,150507,57.6166910,39.8100736
19,13-я линия,150507,57.6165300,39.8109632
10А,12-я линия,150507,57.6164757,39.8116609
38,13-я линия,150507,57.6158148,39.8072410
18,13-я линия,150507,57.6169897,39.8109171
32,13-я линия,150507,57.6161277,39.8082698
14,13-я линия,150507,57.6171232,39.8114957
41,Малая Пролетарская улица,150001,57.6109038,39.8695396
20,улица Гагарина,150046,57.5849878,39.8399180
18,улица Гагарина,150046,57.5853060,39.8402068
16,улица Гагарина,150046,57.5854990,39.8399673
17,улица Павлова,150046,57.5857910,39.8400721
15,улица Павлова,150046,57.5860491,39.8396237
28/2,улица Батова,150033,57.6960448,39.7931564
30/1,улица Батова,150033,57.6963755,39.7939748
109,Тутаевское шоссе,150018,57.7094158,39.7777830
93,Тутаевское шоссе,150033,57.6972249,39.7953910
68,улица Куропаткова,150018,57.7181089,39.7704199
16 к2,улица Балашова,150018,57.7170452,39.7706495
107,Тутаевское шоссе,150018,57.7088124,39.7783017
2А,улица Чкалова,150054,57.6384182,39.8560346
66 к2,Тутаевское шоссе,150033,57.7004953,39.7996754
66А,Тутаевское шоссе,150033,57.6992125,39.7982358
28А,улица Тургенева,150054,57.6308546,39.8452002
10,6-й Парковый проезд,150007,57.6337630,39.9408313
3,2-я Парковая улица,150007,57.6337328,39.9336969
6,2-я Парковая улица,150007,57.6336709,39.9343780
18,1-я Парковая улица,150007,57.6351351,39.9347626
15,5-я Парковая улица,150007,57.6324719,39.9384388
5,2-я Парковая улица,150007,57.6339278,39.9340423
9,3-я Парковая улица,150007,57.6342337,39.9379409
37,улица Маяковского,150007,57.6324509,39.9346869
14,1-я Парковая улица,150007,57.6349466,39.9342070
8,6-й Парковый проезд,150007,57.6336617,39.9405458
24,5-я Парковая улица,150007,57.6328629,39.9403626
33,улица Маяковского,150007,57.6328978,39.9340440
29,улица Маяковского,150007,57.6333119,39.9335418
11,3-я Парковая улица,150007,57.6340729,39.9382899
9,6-й Парковый проезд,150007,57.6342830,39.9406875
11,1-я Парковая улица,150007,57.6351199,39.9337492
4,2-й Парковый проезд,150007,57.6343145,39.9342201
17,1-я Парковая улица,150007,57.6355469,39.9348782
47,улица Маяковского,150007,57.6315580,39.9358692
18,5-я Парковая улица,150007,57.6323713,39.9390341
7,1-я Парковая улица,150007,57.6348724,39.9332086
45,улица Маяковского,150007,57.6317565,39.9355149
12,5-я Парковая улица,150007,57.6320421,39.9380965
11,5-я Парковая улица,150007,57.6321956,39.9376695
5,5-я Парковая улица,150007,57.6318003,39.9364925
3,4-й Парковый проезд,150007,57.6324266,39.9353191
3,1-я Парковая улица,150007,57.6346138,39.9324959
9,5-я Парковая улица,150007,57.6320892,39.9372527
43,улица Маяковского,150007,57.6319198,39.9353195
39,улица Маяковского,150007,57.6322852,39.9348991
10,5-я Парковая улица,150007,57.6318261,39.9375065
3,3-й Парковый проезд,150007,57.6335781,39.9350149
5,6-й Парковый проезд,150007,57.6339406,39.9397119
17,11-й проезд,150507,57.6150910,39.7977602
16,5-я Парковая улица,150007,57.6322050,39.9386920
36,3-я Парковая улица,150007,57.6322791,39.9396452
38,3-я Парковая улица,150007,57.6320858,39.9399064
51,улица Маяковского,150007,57.6310682,39.9365130
14,5-я Парковая улица,150007,57.6321250,39.9384541
30,3-я Парковая улица,150007,57.6329168,39.9388668
17,4-й Парковый проезд,150007,57.6332725,39.9378194
11,4-й Парковый проезд,150007,57.6329056,39.9368668
28,3-я Парковая улица,150007,57.6331128,39.9386931
16,4-й Парковый проезд,150007,57.6326654,39.9380749
13,5-я Парковая улица,150007,57.6323477,39.9381016
15,3-я Парковая улица,150007,57.6334489,39.9389590
12,4-й Парковый проезд,150007,57.6324005,39.9373952
17,5-я Парковая улица,150007,57.6325779,39.9387402
14,4-й Парковый проезд,150007,57.6325253,39.9377031
18,4-й Парковый проезд,150007,57.6327808,39.9383510
20,4-й Парковый проезд,150007,57.6329466,39.9382384
19,5-я Парковая улица,150007,57.6327517,39.9391313
22,улица Победы,150040,57.6355488,39.8731500
36/1,улица Победы,150040,57.6312951,39.8694273
57,Большая Октябрьская улица,150000,57.6215145,39.8756818
54,Большая Октябрьская улица,150000,57.6221213,39.8776244
50,Большая Октябрьская улица,150000,57.6222573,39.8793014
48А,Большая Октябрьская улица,150000,57.6224168,39.8802322
55,Большая Октябрьская улица,150000,57.6216773,39.8765416
52 к2,Большая Октябрьская улица,150000,57.6226400,39.8788464
52,Большая Октябрьская улица,150000,57.6222194,39.8787161
52А,Большая Октябрьская улица,150000,57.6221869,39.8781460
28А,улица Победы,150040,57.6342418,39.8708264
11,Ильинская улица,150006,57.5790791,39.9226230
19,Ильинская улица,150006,57.5785373,39.9197627
13,Ильинская улица,150006,57.5788745,39.9220804
17,Ильинская улица,150006,57.5786078,39.9206873
15,Ильинская улица,150006,57.5786121,39.9211796
15,13-я линия,150507,57.6167546,39.8114204
3А,улица Салтыкова-Щедрина,150000,57.6228672,39.8751058
3,улица Салтыкова-Щедрина,150000,57.6231150,39.8752850
75/37,улица Свободы,150014,57.6258872,39.8614758
37А,Звёздная улица,150010,57.5499548,39.9332824
3 к1,улица Вспольинское Поле,150049,57.6177149,39.8443319
1В,улица Вспольинское Поле,150049,57.6172315,39.8441540
2В,улица Вспольинское Поле,150049,57.6183022,39.8449644
1 к2,улица Вспольинское Поле,150049,57.6178000,39.8439652
1Г,улица Вспольинское Поле,150049,57.6174462,39.8442150
2А,улица Вспольинское Поле,150049,57.6178256,39.8452191
27А,улица Белинского,150047,57.6363154,39.8407730
33,улица Писемского,150048,57.5865799,39.8645709
1А с1,Корабельная улица,150006,57.5786673,39.9257887
23,улица Урицкого,150042,57.6847008,39.8024956
21,улица Урицкого,150042,57.6846881,39.8029474
3 к2,2-й Брагинский проезд,150033,57.6962400,39.7900339
3,2-й Брагинский проезд,150033,57.6965872,39.7907584
119А,Большая Фёдоровская улица,150002,57.6073664,39.8491000
53А,Тутаевское шоссе,150042,57.6887593,39.8090896
38,улица Блюхера,150042,57.6857757,39.8100680
34,улица Блюхера,150042,57.6851209,39.8087651
36,улица Блюхера,150042,57.6855009,39.8077100
44,улица Блюхера,150042,57.6862444,39.8077927
42,улица Блюхера,150042,57.6861059,39.8085496
46,улица Блюхера,150042,57.6864002,39.8070553
40,улица Блюхера,150042,57.6859431,39.8092990
32,улица Блюхера,150042,57.6849530,39.8096281
43,Тутаевское шоссе,150042,57.6868645,39.8115233
35,улица Блюхера,150042,57.6855019,39.8063078
33,улица Блюхера,150042,57.6846835,39.8075165
41,Тутаевское шоссе,150042,57.6865610,39.8121022
35 к2,улица Блюхера,150044,57.6850939,39.8055006
39,Тутаевское шоссе,150042,57.6862515,39.8126903
37,Тутаевское шоссе,150042,57.6859467,39.8132797
4А,улица Елены Колесовой,150042,57.6852960,39.8131197
25А,улица Урицкого,150044,57.6830508,39.8039733
6,улица Елены Колесовой,150042,57.6850349,39.8128893
65А,Ленинградский проспект,150052,57.6823099,39.7887443
64,Большая Октябрьская улица,150000,57.6219969,39.8749306
80,Большая Октябрьская улица,150000,57.6218396,39.8715312
2,улица Доронина,150035,57.5737413,39.8673029
67,Тутаевское шоссе,150033,57.6912994,39.8035638
41 к2,Московский проспект,150001,57.6089874,39.8826980
3,Большая Фёдоровская улица,150001,57.6106384,39.8846808
35А,Московский проспект,150001,57.6095323,39.8831708
3,Нагорная улица,150001,57.6052368,39.8762749
16 литАО,улица Полушкина Роща,150044,57.6699982,39.8494656
16 литК,улица Полушкина Роща,150044,57.6655859,39.8462761
1,Тутаевское шоссе,150042,57.6702079,39.8379916
16 литАП,улица Полушкина Роща,150044,57.6705891,39.8505692
16 с5,улица Полушкина Роща,150044,57.6641522,39.8482149
16 литАМ,улица Полушкина Роща,150044,57.6700467,39.8482563
16 литВВ,улица Полушкина Роща,150044,57.6636168,39.8505667
16 литАВ,улица Полушкина Роща,150044,57.6689406,39.8452528
16 литБЮ,улица Полушкина Роща,150044,57.6636465,39.8492174
16 литБУ,улица Полушкина Роща,150044,57.6644983,39.8492378
16 литАР,улица Полушкина Роща,150044,57.6707184,39.8510347
16 литАН,улица Полушкина Роща,150044,57.6704484,39.8490133
75,Автозаводская улица,150031,57.6423704,39.8176829
68,улица Чкалова,150031,57.6383579,39.8182846
30,улица Юности,150031,57.6417960,39.8163838
32,улица Юности,150031,57.6423958,39.8164224
28,улица Юности,150031,57.6417594,39.8182269
77,Автозаводская улица,150031,57.6428190,39.8176811
18,улица Юности,150031,57.6405619,39.8168218
18А,улица Юности,150031,57.6405389,39.8180492
15,улица Юности,150031,57.6407631,39.8136890
11,улица Юности,150031,57.6400161,39.8150564
7/1,улица Подзеленье,150000,57.6213913,39.9001066
2,Пионерская улица,150044,57.6875675,39.7980712
29,улица Громова,150063,57.6852598,39.7520849
54А,улица Урицкого,150052,57.6797355,39.7901894
1,4-й Парковый проезд,150007,57.6322257,39.9355460
26,Златоустинская улица,150001,57.6087408,39.8982930
69,Мельничная улица,150001,57.6086084,39.8976679
7,Малая Пролетарская улица,150001,57.6120267,39.8843290
21,Ильинский переулок,150006,57.5812025,39.9174655
19/1,Спартаковская улица,150034,57.7249331,39.8209239
15,Спартаковская улица,150034,57.7258193,39.8199269
51,Спартаковская улица,150034,57.7183932,39.8286521
13,Спартаковская улица,150034,57.7260122,39.8188549
9А,Ранняя улица,150034,57.7267465,39.8271771
5,Гражданская улица,150034,57.7257827,39.8224924
7,Гражданская улица,150034,57.7260656,39.8234291
3,Гражданская улица,150034,57.7253728,39.8218853
17,Спартаковская улица,150034,57.7252197,39.8200643
14,Спартаковская улица,150034,57.7255353,39.8183602
9/2,Спартаковская улица,150034,57.7267135,39.8176986
6,Ранняя улица,150034,57.7239043,39.8267589
12,улица Комарова,150034,57.7267633,39.8239896
5,улица Лебедева,150034,57.7259291,39.8322890
10,Ранняя улица,150034,57.7246504,39.8285114
6,улица Комарова,150034,57.7278623,39.8223222
8,улица Комарова,150034,57.7274910,39.8228800
10,улица Комарова,150034,57.7271143,39.8234651
4,улица Комарова,150034,57.7282247,39.8217662
54,13-я линия,150507,57.6143716,39.8026570
15,11-й проезд,150507,57.6148924,39.7979978
11,11-й проезд,150507,57.6145943,39.7983539
5,11-й проезд,150507,57.6141017,39.7988620
3,11-й проезд,150507,57.6139455,39.7990460
13,11-й проезд,150507,57.6147564,39.7981436
69,Ленинградский проспект,150052,57.6841959,39.7859993
36,2-я Мельничная улица,150001,57.6104016,39.8980342
36 к2,2-я Мельничная улица,150001,57.6103758,39.8973240
24,улица Попова,150010,57.5614755,39.9295592
42/58,Светлая улица,150006,57.5668049,39.9267653
40,9-я Железнодорожная улица,150006,57.5664430,39.9257416
29 к2,улица Труфанова,150063,57.6890839,39.7589751
29 к4,улица Труфанова,150063,57.6882528,39.7577432
29 к3,улица Труфанова,150063,57.6885631,39.7592111
33Б,Республиканская улица,150000,57.6303377,39.8808523
31 к2,Республиканская улица,150000,57.6306192,39.8805730
51,Республиканская улица,150000,57.6279856,39.8786017
3,улица Чайковского,150000,57.6210803,39.8700315
85,Союзная улица,150007,57.6332643,39.9192219
79,Союзная улица,150007,57.6338050,39.9189504
81,Союзная улица,150007,57.6336217,39.9190516
87,Союзная улица,150007,57.6330725,39.9193436
11 к4,улица Механизаторов,150023,57.6674170,39.7942855
6 к2,Мукомольный переулок,150000,57.6200927,39.8790375
78,Большая Октябрьская улица,150000,57.6220294,39.8720022
37А,Большая Октябрьская улица,150000,57.6216840,39.8836340
28,улица Космонавтов,150051,57.6507383,39.9633363
94 к2,проспект Авиаторов,150062,57.6551916,39.9474345
3 к2,проезд Доброхотова,150062,57.6546239,39.9471448
3,Южный переулок,150000,57.6215079,39.8838173
192,Суздальская улица,150035,57.5690815,39.8757558
6,Новосёлковская улица,150035,57.5690991,39.8728363
43 к2,улица Калинина,150035,57.5683853,39.8708191
45,улица Блюхера,150044,57.6903297,39.7963357
43 к3,Суздальская улица,150035,57.5688792,39.8723722
43 к3,улица Калинина,150035,57.5689030,39.8717814
18А,Моховая улица,150008,57.6046240,39.9522380
4,Южный переулок,150000,57.6214722,39.8827558
69А,Ленинградский проспект,150052,57.6845116,39.7855096
34,проспект Фрунзе,150022,57.5913594,39.9005174
24,Урочская улица,150007,57.6481868,39.9079433
64А,проспект Авиаторов,150007,57.6415112,39.9151569
16,улица Шевелюха,150007,57.6560832,39.9103812
18,улица Шевелюха,150007,57.6564801,39.9103024
20,улица Шевелюха,150007,57.6568611,39.9104766
12,улица Шевелюха,150007,57.6553861,39.9097952
14,улица Шевелюха,150007,57.6557738,39.9099701
57,улица Гагарина,150023,57.5790457,39.8337506
101,Тутаевское шоссе,150018,57.7068965,39.7806350
10/22,улица Бабича,150018,57.7041471,39.7743097
45/1,Красноборская улица,150065,57.6379900,39.9506200
18,улица Минина,150035,57.5811175,39.8794838
21А,улица Короленко,150048,57.5855501,39.8670966
21,2-й Суздальский переулок,150035,57.5807699,39.8790219
93,улица Достоевского,150035,57.5800556,39.8740847
27,2-й Суздальский переулок,150035,57.5802315,39.8790176
31,2-й Суздальский переулок,150035,57.5798294,39.8790262
19,2-й Суздальский переулок,150035,57.5810476,39.8790245
22,улица Минина,150035,57.5805895,39.8800166
54А,Суздальское шоссе,150048,57.5847760,39.8728948
28,улица Минина,150035,57.5798196,39.8799408
29,2-й Суздальский переулок,150035,57.5800228,39.8790032
24,улица Минина,150035,57.5803133,39.8799272
52,Суздальское шоссе,150048,57.5851736,39.8739861
26,улица Минина,150035,57.5801040,39.8799506
16,улица Минина,150035,57.5812595,39.8799232
64,Московский проспект,150030,57.5965224,39.8639752
12А,Городищенская улица,150001,57.6081665,39.9024271
8,Городищенская улица,150001,57.6085559,39.9019306
6,Городищенская улица,150001,57.6089638,39.9017664
2А,Запрудная улица,150001,57.6079115,39.8835699
10,Городищенская улица,150001,57.6083297,39.9021389
65,Ямская улица,150001,57.6077712,39.8833530
4,Городищенская улица,150001,57.6091078,39.9014952
23,Тропинский проезд,150001,57.6154582,39.8905152
12,Городищенская улица,150001,57.6083109,39.9026487
69,Ямская улица,150001,57.6074617,39.8832408
1,улица Варакина,150001,57.6122389,39.8871970
8,Костромская улица,150001,57.6077188,39.9014984
2,Городищенская улица,150001,57.6092762,39.9012306
24,Городищенская улица,150001,57.6073423,39.9038960
17,Тропинский проезд,150001,57.6146152,39.8896680
15,Тропинский проезд,150001,57.6143898,39.8892201
19,Тропинский проезд,150001,57.6148422,39.8900533
7,1-й Большой Московский проезд,150030,57.6040074,39.8794009
96,Большая Фёдоровская улица,150002,57.6083383,39.8538078
24,Зеленцовская улица,150002,57.6088917,39.8433053
26,Зеленцовская улица,150002,57.6087395,39.8432910
10,Зеленцовская улица,150002,57.6101648,39.8429766
24А,Зеленцовская улица,150002,57.6088745,39.8429553
34,улица Захарова,150002,57.6055274,39.8474049
28,Зеленцовская улица,150002,57.6085554,39.8432756
12,Зеленцовская улица,150002,57.6100230,39.8429449
20,Зеленцовская улица,150002,57.6095040,39.8431734
3,1-й Большой Московский проезд,150030,57.6043667,39.8799477
16,Зеленцовская улица,150002,57.6098837,39.8430803
3,Речной переулок,150002,57.6099356,39.8468872
14,2-я Вокзальная улица,150001,57.6031651,39.8707663
26А,Зеленцовская улица,150002,57.6087070,39.8429398
20,Овинная улица,150002,57.6054869,39.8382612
18,Зеленцовская улица,150002,57.6096888,39.8431166
22,Зеленцовская улица,150002,57.6091482,39.8432370
5,улица Антипина,150002,57.6064315,39.8368793
2,Зеленцовская улица,150002,57.6105918,39.8428593
7,13-й проезд,150507,57.6186623,39.8004372
18,1-й проезд,150507,57.6163961,39.8033922
10,29-я линия,150507,57.6204085,39.8025382
3,28-я линия,150507,57.6190332,39.8033589
25,17-я линия,150507,57.6166436,39.8077938
12,2-й проезд,150507,57.6161162,39.8024950
18,16-я линия,150507,57.6184511,39.8044769
36,20-я линия,150507,57.6150446,39.8012547
4,10-й проезд,150507,57.6145800,39.8003511
11,28-я линия,150507,57.6196513,39.8026617
10,11-й проезд,150507,57.6146956,39.7987533
54,18-я линия,150507,57.6192776,39.8022790
21,25-я линия,150507,57.6185392,39.8034794
8,28-я линия,150507,57.6195854,39.8032643
8,27-я линия,150507,57.6198920,39.8042889
36,18-я линия,150507,57.6167397,39.8049900
5,13-й проезд,150507,57.6184796,39.8006413
20,1-й проезд,150507,57.6165402,39.8031960
8,3-й проезд,150507,57.6154907,39.8019151
14,28-я линия,150507,57.6201050,39.8027074
1,28-я линия,150507,57.6188545,39.8035179
63,18-я линия,150507,57.6195187,39.8007623
20,16-я линия,150507,57.6183150,39.8041113
9,3-й проезд,150507,57.6149984,39.8019374
6,10-й проезд,150507,57.6147420,39.8001701
7,26-я линия,150507,57.6200788,39.8048804
6,11-й проезд,150507,57.6144223,39.7991018
56,18-я линия,150507,57.6194505,39.8022330
34А,18-я линия,150507,57.6165850,39.8056993
12,1-й проезд,150507,57.6158904,39.8039232
43,12-я линия,150507,57.6203051,39.8059931
6,2-й проезд,150507,57.6156026,39.8030663
4,29-я линия,150507,57.6207278,39.8036037
6,27-я линия,150507,57.6197197,39.8044884
38,18-я линия,150507,57.6168174,39.8054016
3,27-я линия,150507,57.6194533,39.8042174
15,1-й проезд,150507,57.6166276,39.8025924
27,18-я линия,150507,57.6153907,39.8052547
7,10-й проезд,150507,57.6147539,39.7995690
60,18-я линия,150507,57.6197880,39.8016614
46,18-я линия,150507,57.6186427,39.8029303
61,18-я линия,150507,57.6193131,39.8009816
22,16-я линия,150507,57.6182228,39.8038243
28,16-я линия,150507,57.6176965,39.8021715
5,26-я линия,150507,57.6198795,39.8051090
4,11-й проезд,150507,57.6142623,39.7992609
3,26-я линия,150507,57.6197019,39.8053297
34Б,18-я линия,150507,57.6166833,39.8059811
39А,16-я линия,150507,57.6171570,39.8055135
14,1-й проезд,150507,57.6160719,39.8037362
7,2-й проезд,150507,57.6156330,39.8024542
6,29-я линия,150507,57.6205975,39.8032432
10,28-я линия,150507,57.6197550,39.8030767
2,28-я линия,150507,57.6190964,39.8040017
81,улица Рылеева,150507,57.6069150,39.7942278
6,1-й проезд,150507,57.6154167,39.8044605
5,10-й проезд,150507,57.6145975,39.7997199
3,25-я линия,150507,57.6194984,39.8064902
30,18-я линия,150507,57.6159919,39.8058336
59,18-я линия,150507,57.6191352,39.8011374
30,16-я линия,150507,57.6175783,39.8018224
13,29-я линия,150507,57.6206045,39.8042813
11,1-й проезд,150507,57.6162722,39.8029873
1,25-я линия,150507,57.6194964,39.8055087
31Б,17-я линия,150507,57.6167942,39.8063753
33В,16-я линия,150507,57.6169994,39.8056609
16,1-й проезд,150507,57.6162410,39.8035804
7,25-я линия,150507,57.6192952,39.8058264
55,16-я линия,150507,57.6163490,39.8017453
13,25-я линия,150507,57.6189521,39.8047602
16,11-й проезд,150507,57.6152328,39.7982796
4,28-я линия,150507,57.6192334,39.8037436
16,13-й проезд,150507,57.6195286,39.8000064
51,18-я линия,150507,57.6183709,39.8020059
39,12-я линия,150507,57.6199904,39.8063585
9,25-я линия,150507,57.6191875,39.8054768
32А,18-я линия,150507,57.6163514,39.8059506
9,13-й проезд,150507,57.6188434,39.8002425
39,16-я линия,150507,57.6174178,39.8051695
5,1-й проезд,150507,57.6157501,39.8034886
10,27-я линия,150507,57.6200852,39.8040878
59,16-я линия,150507,57.6160369,39.8008316
33Б,16-я линия,150507,57.6170714,39.8060856
13,13-й проезд,150507,57.6192174,39.7998082
85,улица Рылеева,150029,57.6071850,39.7939358
11,25-я линия,150507,57.6190795,39.8051658
14,3-й проезд,150507,57.6160057,39.8013681
4,16-я линия,150507,57.6191929,39.8068373
12,16-я линия,150507,57.6187735,39.8055342
14,11-й проезд,150507,57.6150497,39.7983879
45,12-я линия,150507,57.6204389,39.8056593
32Б,18-я линия,150507,57.6164814,39.8063803
14,13-й проезд,150507,57.6193327,39.8002015
26,16-я линия,150507,57.6178420,39.8025937
37,12-я линия,150507,57.6198107,39.8066044
2,27-я линия,150507,57.6193082,39.8049523
32,18-я линия,150507,57.6162195,39.8055802
9,28-я линия,150507,57.6194790,39.8028283
37,16-я линия,150507,57.6175388,39.8055028
3,1-й проезд,150507,57.6155965,39.8036923
4,3-й проезд,150507,57.6151364,39.8023515
17,25-я линия,150507,57.6187511,39.8040633
61,16-я линия,150507,57.6158923,39.8003959
15,13-й проезд,150507,57.6194059,39.7996191
87,улица Рылеева,150029,57.6074057,39.7937697
14,16-я линия,150507,57.6186402,39.8050931
6,13-й проезд,150507,57.6185631,39.8010745
2,16-я линия,150507,57.6192959,39.8071894
10,16-я линия,150507,57.6188851,39.8058645
12,11-й проезд,150507,57.6149270,39.7985843
10,4-й проезд,150507,57.6162644,39.8065784
42,18-я линия,150507,57.6169582,39.8047601
1,12-й проезд,150507,57.6180964,39.8023159
4,27-я линия,150507,57.6195248,39.8047311
34,20-я линия,150507,57.6148769,39.8015192
7,28-я линия,150507,57.6194106,39.8029992
37А,16-я линия,150507,57.6173044,39.8058785
19,13-й проезд,150507,57.6198491,39.7990317
58,18-я линия,150507,57.6196140,39.8018229
32,16-я линия,150507,57.6174757,39.8014748
19,25-я линия,150507,57.6186234,39.8038131
44,20-я линия,150507,57.6156879,39.8005433
55,18-я линия,150507,57.6187433,39.8015941
79,улица Рылеева,150507,57.6065641,39.7946549
1,25-я линия,150507,57.6196122,39.8068559
6,16-я линия,150507,57.6190803,39.8064873
13,1-й проезд,150507,57.6164464,39.8028052
3,4-й проезд,150507,57.6161137,39.8061694
1,4-й проезд,150507,57.6158992,39.8064589
15,28-я линия,150507,57.6199684,39.8023181
43,16-я линия,150507,57.6171792,39.8045120
48,18-я линия,150507,57.6188026,39.8027011
24,16-я линия,150507,57.6181245,39.8034953
42,20-я линия,150507,57.6155247,39.8007165
6,28-я линия,150507,57.6193981,39.8034899
11,13-й проезд,150507,57.6190785,39.7999721
5,13-й проезд,150507,57.6178666,39.8015069
8,13-й проезд,150507,57.6187569,39.8008667
15,25-я линия,150507,57.6188492,39.8044625
16,10-й проезд,150507,57.6155598,39.7992579
8,29-я линия,150507,57.6204879,39.8028645
53,18-я линия,150507,57.6185791,39.8017730
14,2-й проезд,150507,57.6162872,39.8022838
8,10-й проезд,150507,57.6148723,39.8000011
4,1-й проезд,150507,57.6152359,39.8046490
3,10-й проезд,150507,57.6144186,39.7998985
13,28-я линия,150507,57.6197934,39.8024990
41,16-я линия,150507,57.6173320,39.8048550
52,18-я линия,150507,57.6191809,39.8024072
23,25-я линия,150507,57.6184200,39.8031604
19,3-й проезд,150507,57.6158773,39.8009863
9,26-я линия,150507,57.6202815,39.8046736
69,18-я линия,150507,57.6200832,39.8001195
34,18-я линия,150507,57.6164903,39.8053307
5,Революционная улица,150000,57.6242985,39.8963308
4,10-й переулок Маяковского,150007,57.6331627,39.9295646
5,11-й переулок Маяковского,150007,57.6324259,39.9298536
6,10-й переулок Маяковского,150007,57.6330181,39.9291972
4,12-й переулок Маяковского,150007,57.6313498,39.9318502
3,12-й переулок Маяковского,150007,57.6316435,39.9313622
3,11-й переулок Маяковского,150007,57.6325581,39.9302051
11,12-й переулок Маяковского,150007,57.6309105,39.9291291
4,11-й переулок Маяковского,150007,57.6322215,39.9306831
15А,улица Трефолева,150000,57.6280852,39.8886038
5,10-й переулок Маяковского,150007,57.6333225,39.9287987
22,3-й Парковый проезд,150007,57.6339909,39.9368865
2,1-й Парковый проезд,150007,57.6349726,39.9325965
6,1-я Парковая улица,150007,57.6345653,39.9333212
11,1-й Парковый проезд,150007,57.6357454,39.9339923
8,1-й Парковый проезд,150007,57.6353312,39.9335528
24,3-й Парковый проезд,150007,57.6341783,39.9366397
7,3-я Парковая улица,150007,57.6343875,39.9377411
10,4-й Парковый проезд,150007,57.6322708,39.9370388
4,2-я Парковая улица,150007,57.6334966,39.9339532
2,3-й Парковый проезд,150007,57.6332583,39.9343179
6,Охотничья улица,150007,57.6353888,39.9320797
7,5-я Парковая улица,150007,57.6318837,39.9369107
4,3-й Парковый проезд,150007,57.6330140,39.9344432
5,3-й Парковый проезд,150007,57.6337117,39.9354461
5,1-й Парковый проезд,150007,57.6354282,39.9329721
13,1-я Парковая улица,150007,57.6352259,39.9340635
14,2-я Парковая улица,150007,57.6342367,39.9359743
14,3-й Парковый проезд,150007,57.6335898,39.9358955
12,1-й Парковый проезд,150007,57.6355743,39.9342159
19,1-я Парковая улица,150007,57.6356787,39.9353619
8,Охотничья улица,150007,57.6355048,39.9323699
41,улица Маяковского,150007,57.6320737,39.9351502
4,1-й Парковый проезд,150007,57.6351016,39.9329200
6,1-й Парковый проезд,150007,57.6352156,39.9332503
5,1-я Парковая улица,150007,57.6347729,39.9328843
10,Охотничья улица,150007,57.6356311,39.9327268
15,1-я Парковая улица,150007,57.6353650,39.9344602
7,4-й Парковый проезд,150007,57.6326146,39.9360445
20А,Охотничья улица,150007,57.6360971,39.9348442
18А,Охотничья улица,150007,57.6359084,39.9343970
16,2-я Парковая улица,150007,57.6344105,39.9363762
10,1-й Парковый проезд,150007,57.6354518,39.9338923
19,улица Маяковского,150007,57.6345448,39.9320637
20,3-я Парковая улица,150007,57.6338906,39.9377492
18,3-я Парковая улица,150007,57.6340865,39.9374365
17А,1-я Парковая улица,150007,57.6357195,39.9346566
63А,Большая Октябрьская улица,150000,57.6212081,39.8719577
28,Большая Октябрьская улица,150000,57.6226135,39.8855955
29,Большая Октябрьская улица,150000,57.6222029,39.8850087
30,Большая Октябрьская улица,150000,57.6225633,39.8850551
31,Большая Октябрьская улица,150000,57.6221984,39.8847330
32,Большая Октябрьская улица,150000,57.6225138,39.8840968
33,Большая Октябрьская улица,150000,57.6222050,39.8844298
34,Большая Октябрьская улица,150000,57.6224966,39.8837841
35,Большая Октябрьская улица,150000,57.6221826,39.8840254
39,Большая Октябрьская улица,150000,57.6220605,39.8824602
29А,Большая Октябрьская улица,150000,57.6219188,39.8850748
29,Большая Октябрьская улица,150000,57.6221328,39.8850226
29,Большая Октябрьская улица,150000,57.6222361,39.8850004
6 к3,Мукомольный переулок,150000,57.6203089,39.8794037
6,Мукомольный переулок,150000,57.6204348,39.8796071
30,Которосльная набережная,150000,57.6207431,39.8804003
1,Мукомольный переулок,150000,57.6211234,39.8802723
46Г,Которосльная набережная,150000,57.6205547,39.8743623
52 к3,Большая Октябрьская улица,150000,57.6225482,39.8782253
62,Большая Октябрьская улица,150000,57.6220656,39.8753695
51,улица Собинова,150000,57.6227334,39.8826818
16Б,Комсомольская улица,150000,57.6232227,39.8850081
14,Комсомольская улица,150000,57.6231588,39.8846325
49,улица Собинова,150000,57.6227508,39.8824230
40А,улица Собинова,150000,57.6225725,39.8826873
84,Московский проспект,150023,57.5881143,39.8559808
88,Московский проспект,150023,57.5869097,39.8553850
11,3-я Жилая улица,150031,57.6359809,39.8162609
39А,улица Чкалова,150031,57.6377542,39.8207826
48Б,Большая Октябрьская улица,150000,57.6227791,39.8800210
1/2,улица Ушинского,150000,57.6310186,39.8859576
14,улица Некрасова,150000,57.6316912,39.8826887
18,улица Некрасова,150000,57.6317321,39.8820496
8А,улица Некрасова,150000,57.6315011,39.8851220
8,улица Некрасова,150000,57.6315805,39.8836932
9,проспект Октября,150000,57.6323709,39.8832610
5 к2,проспект Октября,150000,57.6319269,39.8838213
5А,Зеленцовская улица,150002,57.6103021,39.8440219
15,Нововоздвиженская набережная,150033,57.7650250,39.7827843
3,улица Городской Вал,150049,57.6214369,39.8480433
78А,Большая Фёдоровская улица,150001,57.6095585,39.8614209
3,улица Антипина,150002,57.6066091,39.8373857
101А,2-я Закоторосльная набережная,150002,57.6106469,39.8439609
28,проспект Фрунзе,150030,57.5956627,39.8931752
30,улица Чкалова,150043,57.6379510,39.8389914
101 к2,Тутаевское шоссе,150018,57.7065729,39.7800481
20,улица Громова,150052,57.6745695,39.7763748
65А,проспект Дзержинского,150052,57.6755315,39.7787723
18,улица Громова,150052,57.6744176,39.7773945
53,Промышленное шоссе,150044,57.6714676,39.8084599
14,7-й переулок Маяковского,150007,57.6353025,39.9236087
4,Приозёрная улица,150007,57.6367112,39.9331014
4,7-й переулок Маяковского,150007,57.6361816,39.9259480
7,8-й переулок Маяковского,150007,57.6354539,39.9259370
8,7-й переулок Маяковского,150007,57.6359555,39.9253982
5,7-й переулок Маяковского,150007,57.6364070,39.9255759
5,8-й переулок Маяковского,150007,57.6355467,39.9262060
8,8-й переулок Маяковского,150007,57.6345738,39.9263268
3,9-й переулок Маяковского,150007,57.6343413,39.9279839
10,1-й Заречный переулок,150007,57.6439849,39.9020389
17,проспект Авиаторов,150007,57.6387374,39.9114783
7,Набережный переулок,150007,57.6361239,39.9062457
32,проспект Авиаторов,150007,57.6376527,39.9094772
14,Набережный переулок,150007,57.6356587,39.9060333
10,Набережный переулок,150007,57.6359353,39.9057150
3,улица Односторонка,150007,57.6384770,39.9091945
54,проспект Авиаторов,150007,57.6392013,39.9125638
6 к3,улица Труфанова,150052,57.6805381,39.7849172
8 к3,улица Труфанова,150052,57.6806178,39.7840901
19,улица Панина,150045,57.6841960,39.7737592
23,улица Панина,150045,57.6840339,39.7763288
21,улица Панина,150045,57.6841142,39.7750413
10,Мурманский проезд,10,57.6807697,39.7659406
4,Архангельский проезд,150061,57.6807046,39.7733135
3,Дядьковский проезд,150006,57.5874676,39.9000492
10,10-й проезд,150507,57.6150563,39.7998083
14,10-й проезд,150507,57.6153744,39.7994386
13,10-й проезд,150507,57.6152359,39.7990351
9,10-й проезд,150507,57.6148925,39.7993995
2,11-й проезд,150507,57.6140671,39.7995016
28,20-я линия,150507,57.6143893,39.8020527
10,2-й проезд,150507,57.6159425,39.8026586
56,13-я линия,150507,57.6141712,39.8022015
5,2-й проезд,150507,57.6155130,39.8026629
10,3-й проезд,150507,57.6156550,39.8017739
30,20-я линия,150507,57.6145592,39.8018313
13,2-й проезд,150507,57.6161652,39.8019259
38,20-я линия,150507,57.6152254,39.8010694
57,16-я линия,150507,57.6161560,39.8011831
40,20-я линия,150507,57.6153899,39.8009410
12,3-й проезд,150507,57.6158082,39.8015903
17,3-й проезд,150507,57.6157143,39.8012040
5,3-й проезд,150507,57.6147790,39.8022653
13,3-й проезд,150507,57.6153729,39.8015509
4,2-й проезд,150507,57.6154393,39.8032104
3,3-й проезд,150507,57.6145264,39.8024910
8,2-й проезд,150507,57.6157743,39.8028621
29,18-я линия,150507,57.6155965,39.8050618
33,18-я линия,150507,57.6158768,39.8047330
37,18-я линия,150507,57.6162247,39.8043521
39,18-я линия,150507,57.6164008,39.8041527
44,13-я линия,150507,57.6150316,39.8048714
41,18-я линия,150507,57.6165609,39.8039978
25,18-я линия,150507,57.6152196,39.8054590
43,18-я линия,150507,57.6167473,39.8037878
47,16-я линия,150507,57.6168924,39.8035998
22,1-й проезд,150507,57.6167625,39.8030430
10,1-й проезд,150507,57.6157370,39.8041113
28,18-я линия,150507,57.6157707,39.8060801
36,13-я линия,150507,57.6159040,39.8076617
34,13-я линия,150507,57.6159767,39.8079073
22,улица 8 Марта,150029,57.6057041,39.8164716
2А,улица Маланова,150002,57.6066099,39.8341352
2,Рыночный переулок,150007,57.6396831,39.9112744
7,улица Односторонка,150007,57.6388345,39.9091139
5,улица Односторонка,150007,57.6386658,39.9090794
28,Тверицкая набережная,150007,57.6358955,39.9039158
59,Большая Любимская улица,150018,57.7206890,39.7767758
65,улица Демьяна Бедного,150018,57.7208914,39.7778710
68/2,Большая Любимская улица,150018,57.7195977,39.7766964
71,Большая Любимская улица,150018,57.7188122,39.7794001
8/6,2-й Норский переулок,150018,57.7162844,39.7755373
45А,1-я Норская набережная,150018,57.7197387,39.7800223
56,Большая Норская улица,150018,57.7193532,39.7598336
50,Большая Норская улица,150018,57.7189389,39.7611935
64,Большая Норская улица,150018,57.7197296,39.7582809
42,Большая Норская улица,150018,57.7186316,39.7628667
1Л,Красноперевальский переулок,150019,57.7248996,39.7513934
34,Большая Норская улица,150018,57.7178939,39.7652520
70,Большая Норская улица,150018,57.7199994,39.7574239
54,Большая Норская улица,150018,57.7193314,39.7602988
46,Большая Норская улица,150018,57.7188154,39.7619874
44,Большая Норская улица,150018,57.7187030,39.7623207
52,Большая Норская улица,150018,57.7190974,39.7607347
62,Большая Норская улица,150018,57.7197191,39.7585294
26,улица Батова,150033,57.6954714,39.7915922
57,улица Куропаткова,150018,57.7187513,39.7692435
63,улица Куропаткова,150018,57.7178703,39.7686993
59,улица Куропаткова,150018,57.7184388,39.7689864
65,улица Куропаткова,150018,57.7175296,39.7683469
61,улица Куропаткова,150018,57.7182052,39.7688459
39А,улица Куропаткова,150018,57.7219247,39.7705200
43Б,улица Куропаткова,150018,57.7211598,39.7703724
47,улица Куропаткова,150018,57.7201623,39.7700320
55,улица Куропаткова,150018,57.7191992,39.7695136
55А,улица Куропаткова,150018,57.7190002,39.7693624
53,улица Куропаткова,150018,57.7194124,39.7696619
51,улица Куропаткова,150018,57.7197150,39.7698373
16 с91,улица Полушкина Роща,150044,57.6614996,39.8570009
38Б,Клубная улица,150008,57.6091390,39.9638751
1 к2,Светлая улица,150006,57.5691911,39.9318770
27 к2,проспект Дзержинского,150044,57.6851881,39.7889459
13Д,улица Елены Колесовой,150042,57.6779618,39.8055061
36,улица Громова,150061,57.6801926,39.7669427
16,16-я линия,150507,57.6185317,39.8047840
8,16-я линия,150507,57.6189838,39.8061917
18,Лунная улица,150025,57.6383843,39.7879925
29,Большая Фёдоровская улица,150002,57.6098643,39.8758122
109,Ленинградский проспект,150060,57.6929425,39.7700746
2В,улица Александра Невского,150052,57.6765546,39.7844182
24,Промышленная улица,150044,57.6642407,39.7876246
15,7-й переулок Маяковского,150007,57.6355566,39.9231977
25А,улица Труфанова,150063,57.6875609,39.7588341
28,улица Труфанова,150063,57.6872410,39.7649749
10,13-й проезд,150507,57.6189884,39.8006003
65,18-я линия,150507,57.6197112,39.8005349
57,18-я линия,150507,57.6189359,39.8013779
48А,Красноборская улица,150065,57.6333325,39.9542064
24,1-я Парковая улица,150007,57.6354329,39.9357259
3А,1-я Парковая улица,150007,57.6348369,39.9322157
15А,улица Маяковского,150007,57.6348981,39.9315626
10,1-я Парковая улица,150007,57.6347770,39.9338857
9,2-й Парковый проезд,150007,57.6344667,39.9338597
4,3-я Парковая улица,150007,57.6352672,39.9359107
4,Охотничья улица,150007,57.6352190,39.9317132
6,1-я Парковая улица,150007,57.6344236,39.9329698
15,2-й Парковый проезд,150007,57.6347504,39.9347370
4А,Охотничья улица,150007,57.6350316,39.9319555
8,1-я Парковая улица,150007,57.6346787,39.9336227
7,1-й Парковый проезд,150007,57.6355361,39.9333054
22,1-я Парковая улица,150007,57.6353175,39.9353388
13А,улица Маяковского,150007,57.6350609,39.9313386
27 к3,Ленинградский проспект,150042,57.6691331,39.8269721
5 к2,Красноборская улица,150055,57.6511269,39.9381664
85Б,проспект Октября,150044,57.6544995,39.8384553
21,улица Салтыкова-Щедрина,150014,57.6232677,39.8672320
26,улица Ляпидевского,150055,57.6503024,39.9467376
40А,проспект Машиностроителей,150051,57.6424236,39.9580985
20,13-й проезд,150507,57.6200288,39.7995376
3,13-й проезд,150507,57.6182677,39.8008461
67,18-я линия,150507,57.6198919,39.8003509
41,улица Победы,150007,57.6272582,39.8710422
59/6,улица Наумова,150001,57.6077367,39.8660991
62А,улица Чкалова,150031,57.6385229,39.8193355
16 с81,улица Полушкина Роща,150044,57.6622879,39.8534306
16 с3,улица Полушкина Роща,150044,57.6636730,39.8474200
16 с4,улица Полушкина Роща,150044,57.6635503,39.8477151
16 с71,улица Полушкина Роща,150044,57.6631968,39.8498224
16 с72 Б,улица Полушкина Роща,150044,57.6627165,39.8524965
16 литГИ,улица Полушкина Роща,150044,57.6638967,39.8518952
16 литГК,улица Полушкина Роща,150044,57.6634969,39.8512023
16 литА,улица Полушкина Роща,150044,57.6642297,39.8525591
16 литВБ,улица Полушкина Роща,150044,57.6637650,39.8509391
16 с92,улица Полушкина Роща,150044,57.6619429,39.8570663
16 литВФ,улица Полушкина Роща,150044,57.6617495,39.8591460
5,переулок Жуковского,150006,57.5845367,39.9206526
7/40,переулок Жуковского,150006,57.5844457,39.9201271
9,переулок Жуковского,150006,57.5843353,39.9197831
56 ст2,улица Леваневского,150030,57.5780252,39.8904597
17 к3,улица Панина,150045,57.6843321,39.7768380
40А,проспект Дзержинского,150052,57.6773857,39.7749745
60,улица Чкалова,150031,57.6382195,39.8218846
4,улица Космонавтов,150062,57.6576227,39.9556123
17А,проспект Машиностроителей,150051,57.6468734,39.9545752
17,проспект Машиностроителей,150051,57.6471394,39.9540478
46 к2,улица Стопани,150007,57.6268445,39.9176875
52 к2,улица Стопани,150007,57.6259626,39.9184230
70 к2,Тверицкая набережная,150007,57.6258495,39.9178174
70 к3,Тверицкая набережная,150007,57.6252726,39.9185624
52,улица Стопани,150007,57.6261316,39.9190174
54,улица Стопани,150007,57.6254793,39.9194835
6,Гражданская улица,150034,57.7256150,39.8243410
35,Большая Фёдоровская улица,150002,57.6097239,39.8750828
16 литГД,улица Полушкина Роща,150044,57.6634973,39.8544200
16 литБА,улица Полушкина Роща,150044,57.6656579,39.8509076
16 с77,улица Полушкина Роща,150044,57.6633314,39.8546292
16 литГЛ1,улица Полушкина Роща,150044,57.6630138,39.8524369
16 с57,улица Полушкина Роща,150044,57.6663779,39.8531480
16 литБЦ,улица Полушкина Роща,150044,57.6649930,39.8506826
16 с58,улица Полушкина Роща,150044,57.6668320,39.8523461
10,1-я Шоссейная улица,150008,57.6099948,39.9428611
11,1-я Шоссейная улица,150008,57.6098304,39.9430088
12,1-я Шоссейная улица,150008,57.6096605,39.9430883
13,1-я Шоссейная улица,150008,57.6093322,39.9432587
14,1-я Шоссейная улица,150008,57.6090832,39.9434572
15,1-я Шоссейная улица,150008,57.6088566,39.9435096
16,1-я Шоссейная улица,150008,57.6086202,39.9435847
17,1-я Шоссейная улица,150008,57.6083991,39.9436520
18,1-я Шоссейная улица,150008,57.6081478,39.9437814
19,1-я Шоссейная улица,150008,57.6079146,39.9437219
2,1-я Шоссейная улица,150008,57.6120538,39.9411882
21,1-я Шоссейная улица,150008,57.6074112,39.9437358
22,1-я Шоссейная улица,150008,57.6086332,39.9448235
23,1-я Шоссейная улица,150008,57.6071625,39.9433775
25,1-я Шоссейная улица,150008,57.6069418,39.9436797
25А,1-я Шоссейная улица,150008,57.6067089,39.9437358
3,1-я Шоссейная улица,150008,57.6118600,39.9413884
3А,1-я Шоссейная улица,150008,57.6115964,39.9415457
4,1-я Шоссейная улица,150008,57.6114077,39.9417467
5,1-я Шоссейная улица,150008,57.6111432,39.9419320
6,1-я Шоссейная улица,150008,57.6109681,39.9420771
7,1-я Шоссейная улица,150008,57.6107739,39.9422142
8,1-я Шоссейная улица,150008,57.6105646,39.9424171
9,1-я Шоссейная улица,150008,57.6102785,39.9426548
1,2-я Шоссейная улица,150008,57.6106540,39.9410038
10,2-я Шоссейная улица,150008,57.6110842,39.9399265
11,2-я Шоссейная улица,150008,57.6117323,39.9400278
12,2-я Шоссейная улица,150008,57.6112639,39.9397030
14,2-я Шоссейная улица,150008,57.6115520,39.9394392
3,2-я Шоссейная улица,150008,57.6108368,39.9408607
4,2-я Шоссейная улица,150008,57.6105135,39.9403497
5,2-я Шоссейная улица,150008,57.6110108,39.9406551
6,2-я Шоссейная улица,150008,57.6106979,39.9402603
7,2-я Шоссейная улица,150008,57.6112119,39.9405597
9,2-я Шоссейная улица,150008,57.6114577,39.9402617
8,Совхозная улица,150020,57.6554700,39.9424510
6,Совхозная улица,150020,57.6554607,39.9419223
11,Набережный переулок,150007,57.6357385,39.9064757
12,Набережный переулок,150007,57.6357755,39.9058790
16,Набережный переулок,150007,57.6354057,39.9061710
18,Набережный переулок,150007,57.6352258,39.9062873
22,Набережный переулок,150007,57.6349383,39.9065856
3,Набережный переулок,150007,57.6364471,39.9058845
6,Набережный переулок,150007,57.6362278,39.9054613
8,Набережный переулок,150007,57.6360916,39.9055807
9,Набережный переулок,150007,57.6359403,39.9063187
34,проспект Авиаторов,150007,57.6377363,39.9097243
9,улица Односторонка,150007,57.6389630,39.9089577
19,проспект Авиаторов,150007,57.6388362,39.9115166
21,проспект Авиаторов,150007,57.6389811,39.9115338
21А,проспект Авиаторов,150007,57.6390545,39.9111739
21Б,проспект Авиаторов,150007,57.6390820,39.9115689
21В,проспект Авиаторов,150007,57.6391756,39.9116229
23,проспект Авиаторов,150007,57.6393737,39.9116537
25,проспект Авиаторов,150007,57.6396103,39.9117976
27,проспект Авиаторов,150007,57.6397408,39.9110841
46,проспект Авиаторов,150007,57.6384163,39.9126220
48,проспект Авиаторов,150007,57.6386024,39.9124641
50,проспект Авиаторов,150007,57.6387489,39.9124047
52,проспект Авиаторов,150007,57.6388724,39.9123854
64,проспект Авиаторов,150007,57.6413814,39.9149478
43,улица Калинина,150035,57.5677714,39.8699242
101Б,Союзная улица,150007,57.6314041,39.9209317
52,Союзная улица,150007,57.6334059,39.9186048
56,Союзная улица,150007,57.6328457,39.9188645
57,Союзная улица,150007,57.6359815,39.9178327
58,Союзная улица,150007,57.6326773,39.9189523
60,Союзная улица,150007,57.6325010,39.9190804
68,Союзная улица,150007,57.6317841,39.9194828
89,Союзная улица,150007,57.6326675,39.9194792
91,Союзная улица,150007,57.6324794,39.9196547
93,Союзная улица,150007,57.6322424,39.9198195
97,Союзная улица,150007,57.6319094,39.9199000
1,улица Панфилова,150034,57.7179493,39.8295296
47,Спартаковская улица,150034,57.7196179,39.8273688
12,11-й переулок Маяковского,150007,57.6314098,39.9284648
13,11-й переулок Маяковского,150007,57.6316102,39.9277280
11,11-й переулок Маяковского,150007,57.6317715,39.9279821
16,9-й переулок Маяковского,150007,57.6329574,39.9254680
6,9-й переулок Маяковского,150007,57.6339086,39.9281327
6,6-й переулок Маяковского,150007,57.6368056,39.9247728
13,10-й переулок Маяковского,150007,57.6325252,39.9265922
18,9-й переулок Маяковского,150007,57.6328306,39.9252068
22,11-й переулок Маяковского,150007,57.6308436,39.9268436
15,11-й переулок Маяковского,150007,57.6313581,39.9271204
15,10-й переулок Маяковского,150007,57.6323936,39.9262478
9,улица Седова,150007,57.6323176,39.9249978
4,9-й переулок Маяковского,150007,57.6340272,39.9284151
13А,10-й переулок Маяковского,150007,57.6318942,39.9263361
18,11-й переулок Маяковского,150007,57.6310291,39.9275914
3,10-й переулок Маяковского,150007,57.6334794,39.9290963
7,улица Седова,150007,57.6326337,39.9246901
20,11-й переулок Маяковского,150007,57.6309526,39.9272127
14,10-й переулок Маяковского,150007,57.6321907,39.9270044
11,улица Седова,150007,57.6320341,39.9252407
14,11-й переулок Маяковского,150007,57.6312640,39.9281529
14,9-й переулок Маяковского,150007,57.6330457,39.9258720
12,10-й переулок Маяковского,150007,57.6323029,39.9273862
13,улица Седова,150007,57.6317276,39.9260198
16,10-й переулок Маяковского,150007,57.6320899,39.9266717
15,4-я Яковлевская улица,150062,57.6576601,39.9622088
7,6-й переулок Маяковского,150007,57.6369650,39.9240523
5,улица Седова,150007,57.6329979,39.9243611
8,5-й переулок Маяковского,150007,57.6377204,39.9240779
18,8-й переулок Маяковского,150007,57.6337091,39.9236841
9,7-й переулок Маяковского,150007,57.6362065,39.9249792
16,8-й переулок Маяковского,150007,57.6338289,39.9243611
6,5-й переулок Маяковского,150007,57.6376089,39.9238057
6,8-й переулок Маяковского,150007,57.6348000,39.9270463
17,9-й переулок Маяковского,150007,57.6331479,39.9247773
3,6-й переулок Маяковского,150007,57.6371872,39.9245695
14,6-й переулок Маяковского,150007,57.6361634,39.9227700
13,9-й переулок Маяковского,150007,57.6334042,39.9254832
12,8-й переулок Маяковского,150007,57.6341083,39.9250476
5 к6,улица Панина,150045,57.6938032,39.7805907
28,улица Закгейма,150029,57.6064648,39.8150895
30,улица Закгейма,150029,57.6068612,39.8146361
27,улица Блюхера,150042,57.6817411,39.8117805
13,4-й Парковый проезд,150007,57.6330212,39.9370970
23,5-я Парковая улица,150007,57.6330438,39.9399974
15,4-й Парковый проезд,150007,57.6331726,39.9374661
1,улица Полушкина Роща,150003,57.6460791,39.8761211
1А,улица Полушкина Роща,150003,57.6453940,39.8765349
3,Тропинский проезд,150001,57.6129181,39.8868029
3А,Тропинский проезд,150001,57.6132530,39.8864884
5,Тропинский проезд,150001,57.6131769,39.8869947
7,Тропинский проезд,150001,57.6131934,39.8872977
9,Тропинский проезд,150001,57.6133650,39.8875546
12,27-я линия,150507,57.6202585,39.8039103
11,26-я линия,150507,57.6204034,39.8045732
14,29-я линия,150507,57.6207142,39.8047353
37,20-я линия,150507,57.6152521,39.8004351
41,20-я линия,150507,57.6155890,39.8000835
5,28-я линия,150507,57.6191942,39.8032050
50,18-я линия,150507,57.6189838,39.8025794
14,27-я линия,150507,57.6204513,39.8037447
13,27-я линия,150507,57.6202737,39.8033192
1А,Врачебная улица,150025,57.6405116,39.7864671
2,Звонкая улица,150025,57.6443712,39.7861804
11,Весенняя улица,150025,57.6411770,39.7846519
62/38,Магистральная улица,150025,57.6413483,39.7828163
9,улица Авиаторов,150025,57.6421157,39.7847228
8А,Весенняя улица,150025,57.6414494,39.7855868
10,Весенняя улица,150025,57.6414791,39.7848592
15,Весенняя улица,150025,57.6413939,39.7841186
12,Звонкая улица,150025,57.6440624,39.7839833
8,Звонкая улица,150025,57.6441815,39.7848748
52А,Магистральная улица,150025,57.6408729,39.7854728
10,Карьерная улица,150025,57.6435191,39.7854085
8,Весенняя улица,150025,57.6413899,39.7851553
19/40,Весенняя улица,150025,57.6416899,39.7834107
17,Весенняя улица,150025,57.6415014,39.7838650
13А,Врачебная улица,150025,57.6413807,39.7871423
10,Звонкая улица,150025,57.6441189,39.7845468
54А,Магистральная улица,150025,57.6408100,39.7847922
12,Сельская улица,150025,57.6437216,39.7842472
3,улица Авиаторов,150025,57.6417892,39.7854826
12,Весенняя улица,150025,57.6415843,39.7846193
56,Магистральная улица,150025,57.6408669,39.7840304
16,Весенняя улица,150025,57.6418084,39.7840786
44,Берёзовая улица,150025,57.6421804,39.7839807
5,улица Авиаторов,150025,57.6419025,39.7852180
14,Весенняя улица,150025,57.6416976,39.7843443
58,Магистральная улица,150025,57.6410017,39.7837678
54,Магистральная улица,150025,57.6405300,39.7844257
60А,Магистральная улица,150025,57.6411922,39.7832301
9,Весенняя улица,150025,57.6409858,39.7850697
4,Звонкая улица,150025,57.6442840,39.7857731
3,Сторожевая улица,150025,57.6428392,39.7860530
10,Сторожевая улица,150025,57.6430941,39.7865894
8,Сторожевая улица,150025,57.6428677,39.7865843
14,Сторожевая улица,150025,57.6435244,39.7864544
9,Сторожевая улица,150025,57.6435190,39.7859950
35,Врачебная улица,150025,57.6438412,39.7873841
2,Сторожевая улица,150025,57.6422155,39.7867403
12,Сторожевая улица,150025,57.6432905,39.7865293
1,Звонкая улица,150025,57.6439018,39.7843986
4,Карьерная улица,150025,57.6428285,39.7854214
6,Сторожевая улица,150025,57.6426462,39.7866325
1,Сторожевая улица,150025,57.6425737,39.7861273
5,Сторожевая улица,150025,57.6430791,39.7860556
7,Сторожевая улица,150025,57.6432788,39.7860076
2,Карьерная улица,150025,57.6425989,39.7854787
95,Магистральная улица,150025,57.6406355,39.7824839
105,Магистральная улица,150025,57.6415616,39.7802276
93,Магистральная улица,150025,57.6404705,39.7828885
97/36,Магистральная улица,150025,57.6408017,39.7820721
99,Магистральная улица,150025,57.6410751,39.7815080
103,Магистральная улица,150025,57.6413935,39.7806867
89,Магистральная улица,150025,57.6402145,39.7835627
101,Магистральная улица,150025,57.6412096,39.7810873
107,Магистральная улица,150025,57.6415462,39.7794848
76,Магистральная улица,150025,57.6422954,39.7804912
2,улица Авиаторов,150025,57.6428658,39.7837163
20А,Весенняя улица,150025,57.6423725,39.7830412
28,Весенняя улица,150025,57.6427010,39.7817767
66,Магистральная улица,150025,57.6416598,39.7820580
8,улица Авиаторов,150025,57.6432664,39.7827430
23,улица Авиаторов,150025,57.6431600,39.7821460
6,улица Авиаторов,150025,57.6431663,39.7830433
24,Весенняя улица,150025,57.6425179,39.7823755
25,улица Авиаторов,150025,57.6432513,39.7819028
74,Магистральная улица,150025,57.6421173,39.7808760
31,Весенняя улица,150025,57.6424803,39.7814641
21,Весенняя улица,150025,57.6419167,39.7828478
2А,улица Авиаторов,150025,57.6427473,39.7838544
33,Весенняя улица,150025,57.6426271,39.7810442
27,Весенняя улица,150025,57.6422552,39.7819965
72,Магистральная улица,150025,57.6419775,39.7812456
21,улица Авиаторов,150025,57.6430363,39.7824198
29,Весенняя улица,150025,57.6423486,39.7817314
16,Сельская улица,150025,57.6438495,39.7828358
30,Весенняя улица,150025,57.6428955,39.7813941
23,Весенняя улица,150025,57.6420296,39.7825198
13,улица Авиаторов,150025,57.6425633,39.7836557
68,Магистральная улица,150025,57.6417632,39.7818446
30А,Весенняя улица,150025,57.6430302,39.7815958
10,улица Авиаторов,150025,57.6433797,39.7825162
22,Весенняя улица,150025,57.6424408,39.7827281
25,Весенняя улица,150025,57.6421464,39.7822506
12,улица Авиаторов,150025,57.6435158,39.7822501
4,улица Авиаторов,150025,57.6430395,39.7833471
25А,Берёзовая улица,150025,57.6416017,39.7823337
17,улица Авиаторов,150025,57.6428253,39.7829667
26,Весенняя улица,150025,57.6426094,39.7820854
78,Магистральная улица,150025,57.6424637,39.7800972
1,Сельская улица,150025,57.6439511,39.7819321
27,улица Авиаторов,150025,57.6434326,39.7814998
14,улица Авиаторов,150025,57.6436761,39.7817488
32,Весенняя улица,150025,57.6430485,39.7809952
35,Весенняя улица,150025,57.6427927,39.7806415
29,проспект Авиаторов,150007,57.6401734,39.9120779
84,Магистральная улица,150025,57.6430191,39.7786472
82,Магистральная улица,150025,57.6426953,39.7794278
1,Дорожная улица,150025,57.6449448,39.7839941
39,Дорожная улица,150025,57.6477759,39.7791190
88,Магистральная улица,150025,57.6435084,39.7778491
38,Весенняя улица,150025,57.6436059,39.7797307
34,Весенняя улица,150025,57.6432100,39.7807334
46,Весенняя улица,150025,57.6444166,39.7775709
70,Сельская улица,150025,57.6471951,39.7792965
25,Сельская улица,150025,57.6464576,39.7774655
59,улица Авиаторов,150025,57.6459259,39.7751205
3,Дорожная улица,150025,57.6450935,39.7837543
33,улица Авиаторов,150025,57.6439211,39.7798544
4,Снежная улица,150025,57.6466005,39.7761749
5,Сельская улица,150025,57.6443129,39.7812662
13,Сельская улица,150025,57.6450669,39.7800067
55,улица Авиаторов,150025,57.6456161,39.7759054
15,Сельская улица,150025,57.6453046,39.7795782
43/14,Дорожная улица,150025,57.6480624,39.7786171
37,улица Авиаторов,150025,57.6445287,39.7787239
1А,Дорожная улица,150025,57.6447680,39.7836719
39Б,Весенняя улица,150025,57.6430900,39.7795743
24,Сельская улица,150025,57.6450951,39.7828717
44,Весенняя улица,150025,57.6439720,39.7775559
2А,Звонкая улица,150025,57.6447591,39.7859272
74,Сельская улица,150025,57.6474691,39.7787426
23,Дорожная улица,150025,57.6465702,39.7812160
2,Приветная улица,150025,57.6434324,39.7785378
37,Дорожная улица,150025,57.6476587,39.7793536
54,Сельская улица,150025,57.6461313,39.7795553
32А,улица Авиаторов,150025,57.6451483,39.7789294
5,Тракторная улица,150025,57.6458506,39.7777502
86,Магистральная улица,150025,57.6431698,39.7781959
3,Приветная улица,150025,57.6441449,39.7786567
3,Сельская улица,150025,57.6441972,39.7815292
8,Приветная улица,150025,57.6454400,39.7813702
44,Сельская улица,150025,57.6462622,39.7808469
11,Тракторная улица,150025,57.6465589,39.7788675
20,Сельская улица,150025,57.6446957,39.7826126
41,улица Авиаторов,150025,57.6447883,39.7780847
46,Сельская улица,150025,57.6463879,39.7806366
47,улица Авиаторов,150025,57.6452357,39.7768749
18,улица Авиаторов,150025,57.6438870,39.7812548
8А,Звонкая улица,150025,57.6446496,39.7849220
17,Сельская улица,150025,57.6454593,39.7793451
40,улица Авиаторов,150025,57.6458265,39.7766288
36,Сельская улица,150025,57.6454934,39.7800316
80,Сельская улица,150025,57.6473540,39.7779990
82,Сельская улица,150025,57.6472036,39.7777263
68,Сельская улица,150025,57.6470803,39.7790280
33,Дорожная улица,150025,57.6473502,39.7798399
46А,улица Авиаторов,150025,57.6463741,39.7752575
21,Дорожная улица,150025,57.6464345,39.7814461
10,Снежная улица,150025,57.6477625,39.7779473
90,Магистральная улица,150025,57.6436272,39.7772023
1/40,Приветная улица,150025,57.6439198,39.7784311
31,улица Авиаторов,150025,57.6437549,39.7806247
62,Сельская улица,150025,57.6466452,39.7781073
32,Сельская улица,150025,57.6451989,39.7818073
42,Весенняя улица,150025,57.6439940,39.7780704
2А,Снежная улица,150025,57.6464201,39.7758168
23/7,Сельская улица,150025,57.6461798,39.7781406
37,Весенняя улица,150025,57.6429359,39.7803135
13,Приветная улица,150025,57.6456419,39.7810415
38,Сельская улица,150025,57.6457033,39.7803094
14,Тракторная улица,150025,57.6465482,39.7795416
34,Сельская улица,150025,57.6453032,39.7803593
22,Сельская улица,150025,57.6448601,39.7829608
20,улица Авиаторов,150025,57.6440125,39.7809157
84,Сельская улица,150025,57.6470387,39.7773907
36,Весенняя улица,150025,57.6432695,39.7804288
30,Сельская улица,150025,57.6453403,39.7820964
18,Сельская улица,150025,57.6444445,39.7830152
20/29,Тракторная улица,150025,57.6470022,39.7804881
12,Снежная улица,150025,57.6479148,39.7783136
12,Приветная улица,150025,57.6457163,39.7819738
45,улица Авиаторов,150025,57.6450614,39.7773107
36,улица Авиаторов,150025,57.6452777,39.7777506
41,Дорожная улица,150025,57.6479320,39.7788669
39,улица Авиаторов,150025,57.6446752,39.7783314
6А,Звонкая улица,150025,57.6446833,39.7852768
13,Тракторная улица,150025,57.6467336,39.7791567
80,Магистральная улица,150025,57.6425956,39.7797397
27,Сельская улица,150025,57.6466690,39.7772636
19,Сельская улица,150025,57.6456385,39.7790348
66,Сельская улица,150025,57.6469422,39.7787441
5,Дорожная улица,150025,57.6452167,39.7835276
31/17,Дорожная улица,150025,57.6472003,39.7801220
30,улица Авиаторов,150025,57.6448596,39.7788350
3,Тракторная улица,150025,57.6457014,39.7774522
19,Дорожная улица,150025,57.6462590,39.7817218
17,Приветная улица,150025,57.6459073,39.7816000
86/8,Сельская улица,150025,57.6472890,39.7769691
49,улица Авиаторов,150025,57.6453854,39.7766313
15,Тракторная улица,150025,57.6470310,39.7797786
78,Сельская улица,150025,57.6475317,39.7783670
17/19,Дорожная улица,150025,57.6461009,39.7820002
27,Дорожная улица,150025,57.6468597,39.7806561
28,Сельская улица,150025,57.6454785,39.7823645
51,улица Авиаторов,150025,57.6455364,39.7762402
57,улица Авиаторов,150025,57.6457895,39.7755873
9,Дорожная улица,150025,57.6455038,39.7830156
10/58,Тракторная улица,150025,57.6462032,39.7788525
35,Дорожная улица,150025,57.6475068,39.7796065
11,Дорожная улица,150025,57.6456298,39.7827887
4,Приветная улица,150025,57.6437548,39.7789545
44,улица Авиаторов,150025,57.6461816,39.7755403
76,Сельская улица,150025,57.6476309,39.7785225
34,улица Авиаторов,150025,57.6451116,39.7781751
48,Сельская улица,150025,57.6465833,39.7804228
7,Дорожная улица,150025,57.6453602,39.7832779
14/15,Приветная улица,150025,57.6458962,39.7823728
40,Сельская улица,150025,57.6458545,39.7806460
42,улица Авиаторов,150025,57.6459201,39.7762486
39,Весенняя улица,150025,57.6431157,39.7793993
18А,Сельская улица,150025,57.6446320,39.7833789
56,Сельская улица,150025,57.6459742,39.7792387
15,Приветная улица,150025,57.6457918,39.7813491
50,Сельская улица,150025,57.6464471,39.7801607
42,Сельская улица,150025,57.6461228,39.7812100
39А,Весенняя улица,150025,57.6433103,39.7795628
9/60,Тракторная улица,150025,57.6463957,39.7784855
29,улица Авиаторов,150025,57.6435832,39.7811104
13,Дорожная улица,150025,57.6457728,39.7825740
28,улица Авиаторов,150025,57.6446675,39.7792922
11,Сельская улица,150025,57.6447804,39.7804691
29,Сельская улица,150025,57.6468466,39.7770134
38,улица Авиаторов,150025,57.6454938,39.7772990
43,улица Авиаторов,150025,57.6449102,39.7776412
5,2-я Пятовская улица,150007,57.6447892,39.7995737
49,1-я Пятовская улица,150007,57.6435719,39.8056077
21,3-я Пятовская улица,150007,57.6468002,39.8052737
9,1-я Пятовская улица,150007,57.6444471,39.7987085
18,1-я Пятовская улица,150007,57.6440088,39.8011034
3,1-я Пятовская улица,150007,57.6444783,39.7977299
1,1-я Пятовская улица,150007,57.6445259,39.7972746
13,2-я Пятовская улица,150007,57.6446309,39.8009092
19,1-я Пятовская улица,150007,57.6444427,39.8008120
7,1-я Пятовская улица,150007,57.6444515,39.7983950
7,2-я Пятовская улица,150007,57.6447378,39.7999104
3,3-я Пятовская улица,150007,57.6450299,39.8029356
20,1-я Пятовская улица,150007,57.6440233,39.8014667
1,2-я Пятовская улица,150007,57.6448134,39.7989561
35,1-я Пятовская улица,150007,57.6440982,39.8031725
55,1-я Пятовская улица,150007,57.6434354,39.8061679
29,1-я Пятовская улица,150007,57.6442060,39.8022908
4,1-я Пятовская улица,150007,57.6440772,39.7983615
39,1-я Пятовская улица,150007,57.6438952,39.8039209
5,3-я Пятовская улица,150007,57.6453337,39.8033192
41,1-я Пятовская улица,150007,57.6439137,39.8043938
26,1-я Пятовская улица,150007,57.6439086,39.8023877
37,1-я Пятовская улица,150007,57.6440397,39.8034700
29,3-я Пятовская улица,150007,57.6474658,39.8061794
32,1-я Пятовская улица,150007,57.6435597,39.8042215
34,1-я Пятовская улица,150007,57.6434502,39.8045010
38,1-я Пятовская улица,150007,57.6433358,39.8050087
30,1-я Пятовская улица,150007,57.6436353,39.8039431
8,1-я Пятовская улица,150007,57.6440784,39.7989562
12,1-я Пятовская улица,150007,57.6440718,39.8000528
27,3-я Пятовская улица,150007,57.6472237,39.8057901
40,1-я Пятовская улица,150007,57.6432772,39.8052476
11,2-я Пятовская улица,150007,57.6446483,39.8005886
3,2-я Пятовская улица,150007,57.6447732,39.7992790
15,2-я Пятовская улица,150007,57.6445583,39.8024107
9,3-я Пятовская улица,150007,57.6456760,39.8037263
9,2-я Пятовская улица,150007,57.6447256,39.8002130
27,1-я Пятовская улица,150007,57.6442586,39.8020518
21,1-я Пятовская улица,150007,57.6442707,39.8011455
6,1-я Пятовская улица,150007,57.6440654,39.7986817
43,1-я Пятовская улица,150007,57.6437790,39.8045964
23,3-я Пятовская улица,150007,57.6470768,39.8056227
44,1-я Пятовская улица,150007,57.6431654,39.8059691
13,3-я Пятовская улица,150007,57.6463098,39.8046828
15,1-я Пятовская улица,150007,57.6443711,39.7997027
53,1-я Пятовская улица,150007,57.6435092,39.8059196
17,3-я Пятовская улица,150007,57.6466610,39.8050961
13,1-я Пятовская улица,150007,57.6443685,39.7994180
28,1-я Пятовская улица,150007,57.6438666,39.8026612
22,1-я Пятовская улица,150007,57.6438064,39.8015831
1,3-я Пятовская улица,150007,57.6448901,39.8026842
5,1-я Пятовская улица,150007,57.6445655,39.7980758
11,1-я Пятовская улица,150007,57.6444089,39.7990689
25,1-я Пятовская улица,150007,57.6442568,39.8017523
35,улица Седова,150007,57.6285963,39.9283844
33,улица Седова,150007,57.6287840,39.9282236
43,улица Седова,150007,57.6283753,39.9285691
10,1-й Промышленный проезд,150044,57.6612906,39.8213996
10 к2,улица Батова,150045,57.6919370,39.7814967
34Б,улица Ньютона,150035,57.5750772,39.8625869
1,4-й Норский переулок,150018,57.7134382,39.7715344
8,Большая Фёдоровская улица,150001,57.6110631,39.8845454
34,2-й Иваньковский переулок,150042,57.6864586,39.8234564
36,2-й Иваньковский переулок,150042,57.6866365,39.8231785
38,2-й Иваньковский переулок,150042,57.6868301,39.8228494
40,2-й Иваньковский переулок,150042,57.6870171,39.8225212
19,1-й Иваньковский переулок,150042,57.6865815,39.8240756
21,1-й Иваньковский переулок,150042,57.6867366,39.8238170
23,1-й Иваньковский переулок,150042,57.6870025,39.8232895
25,1-й Иваньковский переулок,150042,57.6872357,39.8229998
57,2-й Иваньковский переулок,150042,57.6873604,39.8224467
21,4-я Иваньковская улица,150042,57.6870052,39.8255060
29А,3-я Иваньковская улица,150042,57.6862176,39.8245320
23А,3-я Иваньковская улица,150042,57.6858012,39.8233622
25,3-я Иваньковская улица,150042,57.6856483,39.8241045
18,проезд Доброхотова,150062,57.6552612,39.9559192
18,Городищенская улица,150001,57.6079442,39.9034578
21,улица Менделеева,150023,57.5827546,39.8397813
5 к2,улица Павлова,150023,57.5827448,39.8446479
6,2-й Брагинский проезд,150033,57.6975052,39.7909976
4,2-й Брагинский проезд,150033,57.6967438,39.7918559
4 к2,2-й Брагинский проезд,150033,57.6971968,39.7929515
5 к5,улица Панина,150045,57.6930687,39.7798263
3,улица Панина,150045,57.6964304,39.7840158
48,Красноборская улица,150065,57.6343219,39.9530165
1/25,19-я линия,150064,57.6991132,39.7838621
10,19-я линия,150064,57.6983321,39.7819448
10А,19-я линия,150064,57.6983760,39.7813392
11,19-я линия,150064,57.6972384,39.7833815
11А,19-я линия,150064,57.6974012,39.7834089
11Б,19-я линия,150064,57.6976017,39.7834636
12,19-я линия,150064,57.6981547,39.7818784
12А,19-я линия,150064,57.6982194,39.7813158
14,19-я линия,150064,57.6979877,39.7818119
14А,19-я линия,150064,57.6980127,39.7812454
16,19-я линия,150064,57.6977308,39.7817846
16А,19-я линия,150064,57.6978122,39.7811712
18,19-я линия,150064,57.6975701,39.7817260
18А,19-я линия,150064,57.6975784,39.7811399
2,19-я линия,150064,57.6992419,39.7821707
20,19-я линия,150064,57.6973529,39.7817846
2А,19-я линия,150064,57.6991318,39.7818315
3,19-я линия,150064,57.6987729,39.7837761
3А,19-я линия,150064,57.6985788,39.7837410
4,19-я линия,150064,57.6990149,39.7821206
4А,19-я линия,150064,57.6989815,39.7815307
5,19-я линия,150064,57.6983846,39.7836745
6,19-я линия,150064,57.6987163,39.7820112
6А,19-я линия,150064,57.6987790,39.7814642
7,19-я линия,150064,57.6981841,39.7836355
7А,19-я линия,150064,57.6979816,39.7835925
8,19-я линия,150064,57.6985158,39.7819722
8А,19-я линия,150064,57.6985660,39.7814134
9,19-я линия,150064,57.6977728,39.7835456
3А,улица Панина,150033,57.6947100,39.7867220
10,2-й Брагинский проезд,150033,57.6985984,39.7889978
28,Кавказская улица,150008,57.6100325,39.9633211
23А,Кавказская улица,150008,57.6093285,39.9629447
12,улица Доронина,150035,57.5733103,39.8738915
1,улица Урицкого,150042,57.6881443,39.8076371
3,улица Урицкого,150042,57.6875464,39.8063067
7А,улица Урицкого,150044,57.6851325,39.8032744
39,улица Урицкого,150044,57.6836185,39.8001531
5,улица Урицкого,150042,57.6868334,39.8058514
1,улица Урицкого,150042,57.6879293,39.8071156
3,улица Урицкого,150042,57.6873303,39.8057869
28,Мануфактурная улица,150002,57.6031267,39.8570668
12,Романовская улица,150019,57.7224191,39.7557055
8,Романовская улица,150019,57.7230189,39.7542646
6 к2,Романовская улица,150019,57.7231778,39.7533597
10 к2,Романовская улица,150019,57.7225818,39.7548154
14 к2,Романовская улица,150019,57.7218337,39.7559385
6,Романовская улица,150019,57.7235440,39.7539448
28,1-я Приречная улица,150018,57.7189497,39.7703838
116А,Большая Фёдоровская улица,150002,57.6084301,39.8491487
116/1,Большая Фёдоровская улица,150002,57.6080015,39.8493716
30,Зеленцовская улица,150002,57.6083381,39.8433809
13А,проспект Машиностроителей,150051,57.6481390,39.9530951
12,9-й переулок Маяковского,150007,57.6332329,39.9261696
14,8-й переулок Маяковского,150007,57.6339890,39.9246931
3,8-й переулок Маяковского,150007,57.6356907,39.9265604
4,6-й переулок Маяковского,150007,57.6369513,39.9250534
4,8-й переулок Маяковского,150007,57.6349616,39.9274324
5,6-й переулок Маяковского,150007,57.6370890,39.9243094
5,6-й переулок Маяковского,150007,57.6367721,39.9244496
6,7-й переулок Маяковского,150007,57.6360948,39.9256915
7,7-й переулок Маяковского,150007,57.6363397,39.9253004
9,6-й переулок Маяковского,150007,57.6369347,39.9238030
11,10-й переулок Маяковского,150007,57.6326762,39.9269737
6,11-й переулок Маяковского,150007,57.6321509,39.9304082
16,11-й переулок Маяковского,150007,57.6312087,39.9278631
17,11-й переулок Маяковского,150007,57.6312795,39.9267402
17,улица Седова,150007,57.6311010,39.9262235
12,12-й переулок Маяковского,150007,57.6305499,39.9295117
15,улица Седова,150007,57.6313746,39.9259981
25,улица Седова,150007,57.6297950,39.9273204
27,улица Седова,150007,57.6295678,39.9275109
31,улица Седова,150007,57.6291010,39.9279188
6,12-й переулок Маяковского,150007,57.6311577,39.9316110
12,2-й Заречный переулок,150007,57.6441983,39.9018765
14,1-й Заречный переулок,150007,57.6443484,39.9017090
2,2-й Заречный переулок,150007,57.6443824,39.9012518
6,2-й Заречный переулок,150007,57.6445303,39.9016728
7,Карьерная улица,150025,57.6433354,39.7845043
1,1-й Парковый проезд,150007,57.6352084,39.9323263
12,Охотничья улица,150007,57.6357826,39.9329735
14,Охотничья улица,150007,57.6359039,39.9333111
16,1-я Парковая улица,150007,57.6350451,39.9344577
16,Охотничья улица,150007,57.6360177,39.9336440
19А,1-я Парковая улица,150007,57.6358841,39.9350726
20,1-я Парковая улица,150007,57.6352306,39.9350079
3,1-й Парковый проезд,150007,57.6353222,39.9326176
4,1-я Парковая улица,150007,57.6343818,39.9326638
9,1-й Парковый проезд,150007,57.6356712,39.9335885
17А,улица Маяковского,150007,57.6347282,39.9318038
54 к2,улица Стопани,150007,57.6256257,39.9190517
10,2-я Парковая улица,150007,57.6339636,39.9350952
10,3-я Парковая улица,150007,57.6347840,39.9365398
11,2-я Парковая улица,150007,57.6343032,39.9351970
12,2-я Парковая улица,150007,57.6341098,39.9355257
13,2-я Парковая улица,150007,57.6344791,39.9356508
15,2-я Парковая улица,150007,57.6346155,39.9360814
7,2-я Парковая улица,150007,57.6340652,39.9344469
8,2-я Парковая улица,150007,57.6338248,39.9347293
9,2-я Парковая улица,150007,57.6341817,39.9347896
1,2-й Парковый проезд,150007,57.6339748,39.9333823
10,2-й Парковый проезд,150007,57.6347183,39.9353594
11,2-й Парковый проезд,150007,57.6345532,39.9341182
12,3-я Парковая улица,150007,57.6345737,39.9368006
13,2-й Парковый проезд,150007,57.6346769,39.9344883
14,3-я Парковая улица,150007,57.6344301,39.9369940
16,3-я Парковая улица,150007,57.6342490,39.9372521
17,2-й Парковый проезд,150007,57.6348709,39.9350510
19,2-й Парковый проезд,150007,57.6349741,39.9353170
2,2-й Парковый проезд,150007,57.6341363,39.9337405
21,2-й Парковый проезд,150007,57.6350855,39.9356291
22,3-я Парковая улица,150007,57.6349151,39.9377796
23,2-й Парковый проезд,150007,57.6348524,39.9358065
26,1-я Парковая улица,150007,57.6356272,39.9361185
3,2-й Парковый проезд,150007,57.6341727,39.9330571
3,3-я Парковая улица,150007,57.6347562,39.9372814
5,2-й Парковый проезд,150007,57.6342665,39.9332891
5,3-я Парковая улица,150007,57.6345774,39.9375044
5А,3-я Парковая улица,150007,57.6347524,39.9381007
6,2-й Парковый проезд,150007,57.6344418,39.9345615
6,3-я Парковая улица,150007,57.6351214,39.9361129
7,2-й Парковый проезд,150007,57.6343509,39.9335709
7А,3-я Парковая улица,150007,57.6345560,39.9383301
8,2-й Парковый проезд,150007,57.6345759,39.9349508
8,3-я Парковая улица,150007,57.6349987,39.9363030
19,4-й Парковый проезд,150007,57.6331457,39.9379985
2,4-й Парковый проезд,150007,57.6320358,39.9357780
27,5-я Парковая улица,150007,57.6332818,39.9405945
28,5-я Парковая улица,150007,57.6331421,39.9410822
3,5-я Парковая улица,150007,57.6317069,39.9361923
33,5-я Парковая улица,150007,57.6334565,39.9417102
35,5-я Парковая улица,150007,57.6334499,39.9420779
37,5-я Парковая улица,150007,57.6334370,39.9424049
39,5-я Парковая улица,150007,57.6334327,39.9428836
4,4-й Парковый проезд,150007,57.6319562,39.9360619
5,4-й Парковый проезд,150007,57.6325236,39.9356428
6,4-й Парковый проезд,150007,57.6321227,39.9365188
8,4-й Парковый проезд,150007,57.6322110,39.9367486
1,3-й Парковый проезд,150007,57.6334474,39.9346009
10,3-й Парковый проезд,150007,57.6333473,39.9353235
16,3-й Парковый проезд,150007,57.6337207,39.9361648
17,3-я Парковая улица,150007,57.6332681,39.9392019
18,3-й Парковый проезд,150007,57.6338212,39.9365100
20,6-й Парковый проезд,150007,57.6338610,39.9428186
24,3-я Парковая улица,150007,57.6335008,39.9382039
26,3-я Парковая улица,150007,57.6333116,39.9384112
29А,4-я Парковая улица,150007,57.6347605,39.9388330
3,6-й Парковый проезд,150007,57.6337178,39.9395752
35,улица Маяковского,150007,57.6327212,39.9343060
6,3-й Парковый проезд,150007,57.6331279,39.9347339
6,6-й Парковый проезд,150007,57.6335713,39.9402135
7,3-й Парковый проезд,150007,57.6338613,39.9358592
7,6-й Парковый проезд,150007,57.6340785,39.9400936
8,3-й Парковый проезд,150007,57.6332376,39.9350108
9,3-й Парковый проезд,150007,57.6340382,39.9362619
31,улица Маяковского,150007,57.6331376,39.9338027
24,1-я Пятовская улица,150007,57.6429210,39.8043792
37А,3-я Пятовская улица,150007,57.6476368,39.8064008
42,1-я Пятовская улица,150007,57.6432452,39.8056356
45,1-я Пятовская улица,150007,57.6437052,39.8049194
20,1-я Закоторосльная набережная,150001,57.6152823,39.8882697
42,улица Салтыкова-Щедрина,150007,57.6236982,39.8642329
с15,улица 1905 года,150018,57.7113640,39.7843732
32,Кавказская улица,150008,57.6101790,39.9646171
30,Кавказская улица,150008,57.6101510,39.9642054
34,Кавказская улица,150008,57.6101926,39.9649704
39,Ленинградский проспект,150044,57.6760242,39.8047689
2,Прусовская улица,150008,57.5985786,39.9470190
4,Прусовская улица,150008,57.5984788,39.9467190
6,Прусовская улица,150008,57.5983399,39.9464198
8,Прусовская улица,150008,57.5982372,39.9461460
10,Прусовская улица,150008,57.5981570,39.9458719
5,1-й Боровой переулок,150008,57.5986641,39.9460496
12,Прусовская улица,150008,57.5980515,39.9455626
3,1-й Боровой переулок,150008,57.5987399,39.9464221
29,Боровая улица,150008,57.5981339,39.9449625
1,1-й Боровой переулок,150008,57.5988407,39.9468074
13,1-й Боровой переулок,150008,57.5982788,39.9448629
11,1-й Боровой переулок,150008,57.5984005,39.9452394
9,1-й Боровой переулок,150008,57.5984595,39.9455230
7,1-й Боровой переулок,150008,57.5985431,39.9457894
66А,Угличская улица,150031,57.6353812,39.8152086
2,Базовая улица,150044,57.6589735,39.8400903
2 к,Промышленная улица,150044,57.6537316,39.8222770
1Б,улица Полушкина Роща,150003,57.6446303,39.8747525
7,2-й Брагинский проезд,150033,57.6979312,39.7874761
8,2-й Брагинский проезд,150033,57.6983490,39.7905457
11,Новосёлковская улица,150035,57.5690142,39.8743695
16 литГФ,улица Полушкина Роща,150044,57.6689762,39.8428718
16,Романовская улица,150019,57.7216649,39.7568377
4,Романовская улица,150019,57.7237736,39.7531200
14,Романовская улица,150019,57.7221579,39.7565601
2,Романовская улица,150019,57.7242529,39.7528919
10,Романовская улица,150019,57.7229305,39.7554385
2 к2,Романовская улица,150019,57.7238441,39.7523493
16 к2,5-я Вокзальная улица,150001,57.6066711,39.8661678
21А,улица Труфанова,150063,57.6861269,39.7614481
21,Спартаковская улица,150034,57.7234041,39.8232201
11А,Ранняя улица,150034,57.7254548,39.8281941
34А,улица Труфанова,150060,57.6902986,39.7601510
13А,Ранняя улица,150034,57.7258366,39.8290912
5/17,Институтская улица,150023,57.5877402,39.8461036
44,улица Гагарина,150023,57.5794072,39.8325402
18,Коровницкий переулок,150001,57.6105756,39.9060822
58,Большая Норская улица,150018,57.7195074,39.7592133
7,Ильинская улица,150006,57.5795570,39.9237325
5,Романовская улица,150019,57.7238607,39.7544098
13,Романовская улица,150019,57.7225000,39.7569579
68,Большая Норская улица,150018,57.7198477,39.7578060
9,Романовская улица,150019,57.7232443,39.7558506
1 к2,Романовская улица,150019,57.7245018,39.7534489
11Б,Большая Норская улица,150018,57.7127869,39.7726189
22А,Брагинская улица,150033,57.7026128,39.7769404
69,улица Куропаткова,150018,57.7169120,39.7681863
67,улица Куропаткова,150018,57.7172890,39.7684367
13,4-й Норский переулок,150018,57.7139844,39.7716008
32,Большая Норская улица,150018,57.7175979,39.7658929
30,Большая Норская улица,150018,57.7175206,39.7662565
41,улица Куропаткова,150018,57.7215474,39.7709310
43А,улица Куропаткова,150018,57.7207657,39.7704800
27А,улица Белинского,150047,57.6363623,39.8407719
38А,2-я улица Кольцова,150019,57.7374954,39.7580178
15,Большая Норская улица,150018,57.7137671,39.7723256
1А,4-й Норский переулок,150018,57.7141703,39.7743383
9,4-й Норский переулок,150018,57.7138401,39.7708271
7В,улица Урицкого,150044,57.6860540,39.8027099
22А,улица Урицкого,150044,57.6851896,39.8016875
20Б,3-я Шоссейная улица,150008,57.6056508,39.9423711
25,улица Стачек,150002,57.6063262,39.8382467
16 с76А,улица Полушкина Роща,150044,57.6645692,39.8530913
34,Михайловская улица,150019,57.7425371,39.7593456
32,Михайловская улица,150019,57.7423392,39.7591618
30,Михайловская улица,150019,57.7421765,39.7588518
46,1-я Краснохолмская улица,150019,57.7410699,39.7567892
21,Садовая улица,150019,57.7367881,39.7697885
3,1-я Тарная улица,150001,57.6025858,39.8852160
59,Мельничная улица,150001,57.6093161,39.8963361
63,Мельничная улица,150001,57.6088107,39.8970595
5 к2,улица Вишняки,150001,57.6043246,39.9063015
7,улица Вишняки,150001,57.6035062,39.9051324
14 к5,проезд Шавырина,150033,57.6918809,39.8015144
3А,улица Бабича,150033,57.7030198,39.7762066
31,улица Озёрная гривка,150065,57.6344245,39.9522699
93В,Ленинградский проспект,150045,57.6874713,39.7785861
3 к4,улица Батова,150045,57.6899014,39.7844403
56Д,проспект Фрунзе,150006,57.5755404,39.9129673
18,5-я Вокзальная улица,150001,57.6064721,39.8668246
5 к2,улица Полушкина Роща,150003,57.6467998,39.8787188
60,улица Свободы,150014,57.6273633,39.8504188
19А,Угличская улица,150014,57.6281317,39.8497743
62 к2,улица Свободы,150014,57.6276618,39.8497383
5А,улица Урицкого,150042,57.6862880,39.8059016
32А,улица Блюхера,150042,57.6853361,39.8109762
39А,улица Гагарина,150023,57.5843683,39.8420785
24В,Кавказская улица,150008,57.6105518,39.9619330
17А,Кавказская улица,150008,57.6091990,39.9584985
3 к2,улица Короленко,150048,57.5852772,39.8728082
54,Суздальское шоссе,150048,57.5846973,39.8735209
34А,1-я Шоссейная улица,150008,57.6046901,39.9470926
21А,улица Жукова,150043,57.6385894,39.8299219
24 к2,улица Академика Колмогорова,150006,57.5822552,39.9065594
24,улица Академика Колмогорова,150006,57.5829062,39.9058231
24,Кавказская улица,150008,57.6099957,39.9617535
7А,улица Александра Невского,150052,57.6774159,39.7808212
5,Кучерской переулок,150040,57.6313267,39.8682201
14,Чернопрудная улица,150022,57.5872296,39.9076210
5А,улица Академика Колмогорова,150022,57.5871111,39.9115612
8,1-й Боровой переулок,150008,57.5988446,39.9455272
4,1-й Боровой переулок,150008,57.5990147,39.9460756
32,улица Гончарова,150048,57.5866723,39.8667121
30,улица Гончарова,150048,57.5866803,39.8674727
20,улица Минина,150035,57.5808535,39.8799674
23,2-й Суздальский переулок,150035,57.5806349,39.8792459
89,Суздальская улица,150035,57.5725233,39.8787670
89 к2,Суздальская улица,150035,57.5721063,39.8800032
24В,улица Труфанова,150063,57.6859044,39.7675468
56 к3,улица Громова,150063,57.6866380,39.7566631
88В,проспект Октября,150044,57.6585558,39.8451507
70А,проспект Октября,150040,57.6408778,39.8578320
48 к1,Промышленное шоссе,150044,57.6730297,39.8120756
9В,улица Ньютона,150048,57.5875498,39.8665361
2 к7,улица Александра Додонова,150019,57.7244979,39.7578996
2 к5,улица Александра Додонова,150019,57.7248727,39.7573408
2 к6,улица Александра Додонова,150019,57.7249885,39.7582269
10А,улица Бабича,150064,57.7032882,39.7724140
2 к2,улица Закгейма,150029,57.6043305,39.8227064
20Б,улица Чкалова,150054,57.6385940,39.8449914
1,Романовская улица,150019,57.7248198,39.7533988
1 к3,Романовская улица,150019,57.7249857,39.7538885
3,Романовская улица,150019,57.7244601,39.7541488
7,Романовская улица,150019,57.7237266,39.7552518
15,Романовская улица,150019,57.7223126,39.7578755
11,Романовская улица,150019,57.7231112,39.7567155
5 к2,Романовская улица,150019,57.7242581,39.7551033
13 к2,Романовская улица,150019,57.7229095,39.7577238
9 к2,Романовская улица,150019,57.7236355,39.7565573
2 к2,Мологская улица,150019,57.7251640,39.7544761
4,Мологская улица,150019,57.7251329,39.7551711
2,Мологская улица,150019,57.7254808,39.7544197
6 к7,улица Александра Додонова,150019,57.7247934,39.7609850
4 к6,улица Александра Додонова,150019,57.7251545,39.7597254
6 к6,улица Александра Додонова,150019,57.7252859,39.7612298
4 к5,улица Александра Додонова,150019,57.7250396,39.7588617
6 к5,улица Александра Додонова,150019,57.7251665,39.7603821
4 к7,улица Александра Додонова,150019,57.7246588,39.7594921
6 к2,улица Александра Додонова,150019,57.7259982,39.7601257
6 к4,улица Александра Додонова,150019,57.7257471,39.7607357
4 к4,улица Александра Додонова,150019,57.7255799,39.7591624
2 к3,Мологская улица,150019,57.7256494,39.7549841
8 к1,улица Александра Додонова,150019,57.7263352,39.7624629
2 к3,улица Александра Додонова,150019,57.7258535,39.7579003
4 к2,улица Александра Додонова,150019,57.7259246,39.7585694
6 к3,улица Александра Додонова,150019,57.7262053,39.7609639
8 к2,улица Александра Додонова,150019,57.7261569,39.7616360
2 к2,улица Александра Додонова,150019,57.7257112,39.7570538
8 к4,улица Александра Додонова,150019,57.7258348,39.7621792
2 к4,улица Александра Додонова,150019,57.7254191,39.7576142
4 к3,улица Александра Додонова,150019,57.7260475,39.7594100
2,улица Александра Додонова,150019,57.7261871,39.7573433
8,улица Александра Додонова,150019,57.7266374,39.7619191
4,улица Александра Додонова,150019,57.7263736,39.7588990
2А,улица Александра Додонова,150019,57.7238653,39.7589197
48,Большая Норская улица,150018,57.7188413,39.7616680
69,Большая Норская улица,150018,57.7186899,39.7592549
36,Большая Норская улица,150018,57.7182725,39.7642195
38,Большая Норская улица,150018,57.7183593,39.7636566
40,Большая Норская улица,150018,57.7185635,39.7631852
23,улица Куропаткова,150018,57.7237234,39.7709883
31,улица Куропаткова,150018,57.7226349,39.7710622
37,улица Куропаткова,150018,57.7220605,39.7712095
67А,улица Куропаткова,150018,57.7172756,39.7679583
25,улица Куропаткова,150018,57.7235186,39.7712615
33,улица Куропаткова,150018,57.7224198,39.7710354
25А,улица Куропаткова,150018,57.7232131,39.7710626
39,улица Куропаткова,150018,57.7219001,39.7710469
19,улица Куропаткова,150018,57.7241858,39.7710746
59Б,улица Куропаткова,150018,57.7184998,39.7686078
29,улица Куропаткова,150018,57.7228585,39.7713652
35,улица Куропаткова,150018,57.7222650,39.7710393
27,улица Куропаткова,150018,57.7230234,39.7710785
43,улица Куропаткова,150018,57.7213496,39.7708516
12,Пионерская улица,150044,57.6876705,39.7952702
19,Заливная улица,150007,57.6404162,39.9189401
64,Тверицкая набережная,150007,57.6279324,39.9144089
46,1-я Шоссейная улица,150008,57.6027708,39.9464610
39А,улица Куропаткова,150018,57.7165110,39.7663891
28А,Клубная улица,150008,57.6086583,39.9592878
28А,Кавказская улица,150008,57.6105826,39.9635193
5,3-я Сергейцевская улица,150034,57.7388455,39.8294159
8,3-я Сергейцевская улица,150034,57.7390290,39.8299753
4,3-я Сергейцевская улица,150034,57.7385190,39.8302285
9,3-я Сергейцевская улица,150034,57.7393837,39.8291553
7d,улица Панина,150045,57.6889970,39.7776144
180 к2,Суздальская улица,150035,57.5722636,39.8743147
184 к2,Суздальская улица,150035,57.5713761,39.8740062
29,улица Маланова,150029,57.6012334,39.8214282
29 к2,улица Маланова,150029,57.6004381,39.8221078
2,Реактивный проезд,150022,57.5966773,39.8963457
52Б,проспект Фрунзе,150022,57.5832377,39.9077193
36Б,улица Лескова,150006,57.5814028,39.9086309
36,улица Лескова,150006,57.5806738,39.9089554
54Б,проспект Фрунзе,150006,57.5813910,39.9099566
22,улица Академика Колмогорова,150006,57.5828975,39.9071704
54,проспект Фрунзе,150006,57.5827859,39.9082691
44 к2,Городищенская улица,150001,57.6051035,39.9055667
3,1-я Веткинская улица,150001,57.6035504,39.9070678
18,Силикатное шоссе,150030,57.5932745,39.8587396
8Д,Рыночный переулок,150007,57.6404371,39.9100775
46,проспект Авиаторов,150007,57.6381530,39.9123928
11,проспект Авиаторов,150007,57.6373873,39.9061194
36,Тверицкая набережная,150007,57.6341317,39.9058242
26Б,улица Елены Колесовой,150042,57.6831098,39.8048395
19А,проспект Машиностроителей,150051,57.6465102,39.9549016
15А,проспект Машиностроителей,150051,57.6475150,39.9537536
24В стр.2,улица Труфанова,150063,57.6862989,39.7681860
40,улица Лескова,150006,57.5798207,39.9064770
8,Дядьковский проезд,150006,57.5860993,39.8981372
37,Чернопрудная улица,150006,57.5850572,39.8939688
6,Дядьковская улица,150006,57.5863998,39.8948413
42,улица Лескова,150006,57.5803962,39.9057247
38,улица Лескова,150006,57.5805168,39.9074395
56/2,5-я Путевая улица,150066,57.5699946,39.9032756
4,6-я Путевая улица,150066,57.5698792,39.9028404
6,6-я Путевая улица,150066,57.5697911,39.9025216
8,6-я Путевая улица,150066,57.5696884,39.9021762
10,6-я Путевая улица,150066,57.5696026,39.9018599
16,6-я Путевая улица,150066,57.5693198,39.9008387
14,6-я Путевая улица,150066,57.5693932,39.9011444
12,6-я Путевая улица,150066,57.5695166,39.9015705
51,3-я Путевая улица,150066,57.5695573,39.9004757
14А,6-я Путевая улица,150066,57.5697008,39.9009715
10А,6-я Путевая улица,150066,57.5698597,39.9015976
8А,6-я Путевая улица,150066,57.5699431,39.9019072
6А,6-я Путевая улица,150066,57.5700492,39.9023075
4А,6-я Путевая улица,150066,57.5701536,39.9026072
54,5-я Путевая улица,150066,57.5702530,39.9029350
52,5-я Путевая улица,150066,57.5704837,39.9026614
50,5-я Путевая улица,150066,57.5707147,39.9024354
48,5-я Путевая улица,150066,57.5708896,39.9022097
44,5-я Путевая улица,150066,57.5712326,39.9018219
42,5-я Путевая улица,150066,57.5714083,39.9015998
40,5-я Путевая улица,150066,57.5715601,39.9014105
1,5-й Путевой переулок,150066,57.5714044,39.9008784
3,5-й Путевой переулок,150066,57.5711977,39.9011156
7,5-й Путевой переулок,150066,57.5708783,39.9015376
9,5-й Путевой переулок,150066,57.5707177,39.9017391
13,5-й Путевой переулок,150066,57.5703486,39.9021402
13,4-й Путевой переулок,150066,57.5700762,39.9012117
11,4-й Путевой переулок,150066,57.5702735,39.9009412
1,4-й Путевой переулок,150066,57.5711822,39.8999108
5,4-й Путевой переулок,150066,57.5708429,39.9003654
10,2-я Полянская улица,150001,57.6075778,39.8956806
43,Мельничная улица,150001,57.6100323,39.8940407
35А,2-я Мельничная улица,150001,57.6125818,39.8969472
35,2-я Мельничная улица,150001,57.6122599,39.8963341
14 к2,Златоустинская улица,150001,57.6106415,39.9000746
39 к2,2-я Мельничная улица,150001,57.6113377,39.8993764
39,2-я Мельничная улица,150001,57.6110012,39.8987912
37А,2-я Мельничная улица,150001,57.6119495,39.8981178
37,2-я Мельничная улица,150001,57.6115835,39.8974573
6,Реактивный проезд,150022,57.5960018,39.8957504
2А,Реактивный проезд,150022,57.5964166,39.8954051
8,Дядьковская улица,150006,57.5857242,39.8956644
12,Лётная улица,150022,57.5869870,39.9157368
32,Суворовская улица,150006,57.5857875,39.9206025
1,Проектируемая улица,150006,57.5668571,39.9359554
32 к2,улица Калинина,150057,57.5677542,39.8629327
32,улица Калинина,150057,57.5677563,39.8641815
4А,улица Слепнёва,150048,57.5803219,39.8686807
4,улица Слепнёва,150048,57.5799615,39.8686210
70,Суздальское шоссе,150048,57.5791038,39.8685949
13,Институтская улица,150023,57.5894408,39.8401698
10,Лебедевская улица,150006,57.5821067,39.9212828
51 к2,Республиканская улица,150000,57.6279571,39.8791719
51 к3,Республиканская улица,150000,57.6277769,39.8798557
33Б,Тутаевское шоссе,150042,57.6856782,39.8152019
32А,улица Блюхера,150042,57.6851308,39.8110674
10,переулок Докучалова,150007,57.6484431,39.9068428
17,2-й Суздальский переулок,150035,57.5812619,39.8790193
25,2-й Суздальский переулок,150035,57.5804509,39.8790354
4,Пионерская улица,150044,57.6884058,39.7986869
28,улица Гончарова,150048,57.5866485,39.8690713
108,Большая Октябрьская улица,150014,57.6217787,39.8642770
12,Хуторская улица,150065,57.6310548,39.9478498
6,улица Карла Либкнехта,150043,57.6408177,39.8454402
2Б,улица Лисицына,150049,57.6173616,39.8542583
16Б,улица Серго Орджоникидзе,150051,57.6507406,39.9508139
9/1,Автозаводская улица,150054,57.6422342,39.8448489
34В,улица Ньютона,150035,57.5748784,39.8627758
39А,улица Калинина,150035,57.5699804,39.8712028
103,2-я Закоторосльная набережная,150002,57.6106966,39.8436467
99,2-я Закоторосльная набережная,150002,57.6107232,39.8442388
1,Зеленцовская улица,150002,57.6107014,39.8432102
3,Зеленцовская улица,150002,57.6105800,39.8432444
5,Зеленцовская улица,150002,57.6103373,39.8433754
7А,Зеленцовская улица,150002,57.6096268,39.8436366
7,Зеленцовская улица,150002,57.6099176,39.8434582
7Б,Зеленцовская улица,150002,57.6092405,39.8438111
4,Зеленцовская улица,150002,57.6104317,39.8428433
8,Зеленцовская улица,150002,57.6102725,39.8429170
95,2-я Закоторосльная набережная,150002,57.6106262,39.8454041
1,Речной переулок,150002,57.6102849,39.8468673
58,Малая Пролетарская улица,150001,57.6107907,39.8614816
12,улица Труфанова,150045,57.6820908,39.7772182
34,улица Калинина,150057,57.5678717,39.8653711
14,Хуторская улица,150065,57.6304782,39.9491010
15,проспект Машиностроителей,150051,57.6477777,39.9533513
5,Большая Фёдоровская улица,150001,57.6106561,39.8842221
7,улица Варакина,150001,57.6116368,39.8866144
4,Большая Фёдоровская улица,150001,57.6108103,39.8855809
11,Большая Фёдоровская улица,150001,57.6103670,39.8828050
57,Ямская улица,150001,57.6086241,39.8846464
4,Малая Московская улица,150001,57.6084226,39.8858023
4,Гужевая улица,150001,57.6082515,39.8853800
6,Гужевая улица,150001,57.6080523,39.8852855
35,Московский проспект,150001,57.6096182,39.8820456
22А,улица Некрасова,150000,57.6320857,39.8827682
3,Малая Норская улица,150064,57.7095839,39.7614790
4,улица Маргелова,150064,57.7107253,39.7619507
10,улица Стопани,150007,57.6289866,39.9165361
10,Лётная улица,150022,57.5885050,39.9136613
64,Шпальная улица,150006,57.5817542,39.9226860
44,улица Лескова,150006,57.5796547,39.9048894
4,улица Гончарова,150048,57.5866666,39.8752468
9,3-я Жилая улица,150031,57.6358896,39.8154244
11А,3-я Жилая улица,150031,57.6364050,39.8157425
17,улица Жукова,150043,57.6393902,39.8310144
25 к1,улица Строителей,150064,57.7043528,39.7630717
25 к2,улица Строителей,150064,57.7048912,39.7630872
3,Красноперевальский переулок,150019,57.7264633,39.7533890
35,улица Радищева,150047,57.6333110,39.8408591
16,улица Посохова,150001,57.6057916,39.8671901
37/3,улица Наумова,150001,57.6078092,39.8669204
11,2-я улица Новостройка,150001,57.6063171,39.8693454
10,Нагорная улица,150001,57.6070111,39.8692470
61,Мельничная улица,150001,57.6091614,39.8967963
63 к2,Мельничная улица,150001,57.6091507,39.8977605
52,улица Некрасова,150040,57.6334610,39.8727406
4/16,улица Халтурина,150029,57.6001977,39.8134814
10А,Ильинская улица,150006,57.5791577,39.9213591
24,улица Жуковского,150006,57.5837250,39.9194871
8А,3-я Сергейцевская улица,150034,57.7393054,39.8305322
10,3-я Сергейцевская улица,150034,57.7392505,39.8298777
12,3-я Сергейцевская улица,150034,57.7395404,39.8297164
14,3-я Сергейцевская улица,150034,57.7397957,39.8295756
16,3-я Сергейцевская улица,150034,57.7399666,39.8295847
7,3-я Сергейцевская улица,150034,57.7391355,39.8292300
5А,3-я Сергейцевская улица,150034,57.7389740,39.8292936
3,3-я Сергейцевская улица,150034,57.7386957,39.8296361
6,3-я Сергейцевская улица,150034,57.7388210,39.8302002
2,3-я Сергейцевская улица,150034,57.7382703,39.8303567
1,3-я Сергейцевская улица,150034,57.7380593,39.8298150
1Б,3-я Сергейцевская улица,150034,57.7383290,39.8296443
26,улица Калинина,150035,57.5692562,39.8619887
1Г,Преображенская улица,150006,57.5630799,39.9287274
6,улица Александра Додонова,150019,57.7265266,39.7604102
17А,Силикатное шоссе,150030,57.5951642,39.8630896
17,Силикатное шоссе,150030,57.5948013,39.8638903
17,улица Панфилова,150034,57.7225975,39.8348498
15А,улица Попова,150010,57.5574085,39.9261147
3,Тутаевское шоссе,150033,57.6949652,39.8028170
3А,Спасская улица,150033,57.6954702,39.8031691
18 к3,Брагинская улица,150018,57.7058955,39.7715101
10,1-й Боровой переулок,150008,57.5987615,39.9452475
49,1-я Шоссейная улица,150008,57.6027319,39.9444850
25/14,Боровая улица,150008,57.5985186,39.9445039
23,Боровая улица,150008,57.5986706,39.9442760
64,Суздальское шоссе,150048,57.5823904,39.8714198
30,Институтская улица,150023,57.5900525,39.8385299
43,улица Стачек,150002,57.6073998,39.8366722
33,улица Чехова,150054,57.6308623,39.8417993
22,улица Крылова,150048,57.5850391,39.8666413
3,Фабричная улица,150001,57.6076261,39.8705216
4,1-я улица Новостройка,150001,57.6075478,39.8709994
41,Ямская улица,150001,57.6093689,39.8863098
14,Совхозная улица,150020,57.6562265,39.9410961
16А,1-я Приволжская улица,150030,57.5964573,39.8848263
8/22,улица Щорса,150048,57.5816398,39.8694726
6,улица Батова,150045,57.6913675,39.7807974
11,проезд Доброхотова,150062,57.6560308,39.9552860
2Б,улица Академика Колмогорова,150006,57.5820858,39.9034934
24,Овинная улица,150002,57.6057790,39.8375324
17,13-я линия,150507,57.6166338,39.8111849
19Г,Угличская улица,150014,57.6284403,39.8496358
13,Родниковая улица,150048,57.5822068,39.8701899
3,Запрудная улица,150001,57.6080276,39.8845465
29Б,улица Серго Орджоникидзе,150062,57.6518840,39.9526501
70Б,улица Пожарского,150030,57.5618363,39.8943564
3,улица Лебедева,150034,57.7251135,39.8341349
10,улица Саукова,150065,57.6439324,39.9486698
4,Сосновая улица,150065,57.6400487,39.9585309
115,Московский проспект,150030,57.5977804,39.8728562
40,улица Бахвалова,150029,57.6096666,39.8183863
27/2,Тверицкая набережная,150007,57.6360535,39.9038678
117 к2,Ленинградский проспект,150060,57.6944089,39.7665425
35А,улица Калинина,150035,57.5715400,39.8666968
64,Советская улица,150003,57.6383979,39.8790877
11,улица Будкина,150002,57.6076617,39.8336089
23,Республиканская улица,150000,57.6323596,39.8810794
36,улица Громова,150061,57.6801285,39.7664731
3А,улица Лебедева,150034,57.7242940,39.8331842
15,Чернопрудная улица,150022,57.5892264,39.9081149
22,Промышленная улица,150044,57.6637592,39.7892667
11,3-й Норский переулок,150018,57.7176821,39.7810304
66 к4,Ленинградский проспект,150064,57.6957465,39.7753051
10А,1-й Промышленный проезд,150044,57.6612300,39.8197981
96/1,Ленинградский проспект,150064,57.7096712,39.7603969
9,2-й Брагинский проезд,150033,57.6990341,39.7861538
7А,улица Строителей,150064,57.6990497,39.7736964
66В,Ленинградский проспект,150064,57.6950227,39.7725619
93Б,Тутаевское шоссе,150033,57.6991972,39.7905040
5,переулок Коммунаров,150042,57.6757705,39.8312586
7,переулок Коммунаров,150042,57.6756146,39.8303648
7А,Ранняя улица,150034,57.7264040,39.8261075
19,улица Карла Либкнехта,150043,57.6401819,39.8406284
23/11,улица Чехова,150054,57.6332476,39.8447450
57,улица Лисицына,150014,57.6277082,39.8526189
15 к1,улица Городской Вал,150049,57.6255886,39.8465004
58А,Тверицкая набережная,150007,57.6306922,39.9119327
6А,улица Стопани,150007,57.6306760,39.9142480
8,улица Стопани,150007,57.6305711,39.9156151
6,улица Стопани,150007,57.6315624,39.9145906
8А,Сквозной переулок,150007,57.6321574,39.9102549
8Б,Сквозной переулок,150007,57.6323949,39.9115812
8,Сквозной переулок,150007,57.6330246,39.9111253
4,улица Стопани,150007,57.6327554,39.9138478
10,Сквозной переулок,150007,57.6327863,39.9128231
78,Московский проспект,150030,57.5941998,39.8643938
57,Которосльная набережная,150014,57.6165926,39.8616278
5,улица Наумова,150001,57.6080900,39.8818337
14,проспект Фрунзе,150030,57.5974177,39.8839882
16,1-я Приволжская улица,150030,57.5968977,39.8853735
5А,улица Победы,150003,57.6379506,39.8838557
