House number,Street name,Postal code,Latitude,Longitude
33,Коммунальная улица,180016,57.8203540,28.2987090
35,Коммунальная улица,180016,57.8200920,28.2959553
54,Октябрьский проспект,180004,57.8098169,28.3618660
18,Октябрьский проспект,180000,57.8155440,28.3385919
6,набережная реки Великой,180000,57.8167708,28.3314012
40,Рижский проспект,180016,57.8168740,28.3077611
40,Рижский проспект,180016,57.8168209,28.3073640
16,улица Розы Люксембург,180007,57.8148891,28.3208027
1,площадь Ленина,180000,57.8202090,28.3328491
1,площадь Ленина,180000,57.8199927,28.3323714
1,площадь Ленина,180000,57.8200201,28.3327442
1,площадь Ленина,180000,57.8200053,28.3325460
1,площадь Ленина,180000,57.8200342,28.3329436
14А,улица Розы Люксембург,180007,57.8149060,28.3209780
42,улица Свердлова,180000,57.8134492,28.3435342
9,улица Воеводы Шуйского,180000,57.8084259,28.3320605
42,улица Свердлова,180000,57.8134119,28.3434600
42,улица Свердлова,180000,57.8135488,28.3436554
45,улица Свердлова,180000,57.8141729,28.3450243
43,улица Свердлова,180000,57.8135584,28.3441486
6,улица Байкова,180025,57.8179618,28.2746703
7,Чудская улица,180020,57.8320500,28.2951193
10,улица Яна Фабрициуса,180004,57.8070180,28.3475526
54,Октябрьский проспект,180004,57.8107611,28.3600158
4,Чудская улица,180020,57.8307781,28.2911478
19,2-я Береговая улица,180020,57.8290472,28.2880856
5,2-я Береговая улица,180020,57.8282740,28.2896486
9,2-я Береговая улица,180020,57.8284853,28.2892025
13,2-я Береговая улица,180020,57.8287360,28.2887225
17,2-я Береговая улица,180020,57.8289621,28.2882548
3,2-я Береговая улица,180020,57.8281069,28.2899963
7,2-я Береговая улица,180020,57.8283477,28.2895040
11,2-я Береговая улица,180020,57.8285803,28.2890548
1,2-я Береговая улица,180020,57.8280295,28.2901503
15,2-я Береговая улица,180020,57.8288212,28.2885564
15,Гражданская улица,180017,57.8069988,28.3435114
6А,Западная улица,180024,57.8149193,28.2824750
14,2-я Береговая улица,180020,57.8287854,28.2894255
16,2-я Береговая улица,180020,57.8288446,28.2893093
18,Петропавловская улица,180020,57.8290501,28.2901553
20,Петропавловская улица,180020,57.8291540,28.2899194
15,Октябрьский проспект,180000,57.8141156,28.3429570
102,Ипподромная улица,180019,57.8298005,28.3432136
79,улица Белинского,180019,57.8324676,28.3402034
31А,улица Льва Толстого,180004,57.8121805,28.3602574
39А,улица Льва Толстого,180004,57.8119509,28.3636266
41А,улица Льва Толстого,180004,57.8117247,28.3655609
144,Ипподромная улица,180006,57.8321241,28.3263144
144А,Ипподромная улица,180006,57.8321023,28.3261774
3,Торошинская улица,180006,57.8323642,28.3247094
3А,Торошинская улица,180006,57.8324176,28.3246737
50,2-я Песочная улица,180004,57.7908187,28.3555088
10,2-я Береговая улица,180020,57.8285850,28.2901654
22,2-я Береговая улица,180020,57.8291513,28.2887093
22,Петропавловская улица,180020,57.8299022,28.2906924
24,2-я Береговая улица,180020,57.8292121,28.2885980
24,Петропавловская улица,180020,57.8298150,28.2906426
26,Петропавловская улица,180020,57.8297367,28.2905867
28,Петропавловская улица,180020,57.8296441,28.2905266
30,Петропавловская улица,180020,57.8295426,28.2904002
31,2-я Береговая улица,180020,57.8296032,28.2868898
32,Петропавловская улица,180020,57.8294731,28.2902822
33,2-я Береговая улица,180020,57.8296826,28.2867157
34,Петропавловская улица,180020,57.8300048,28.2902034
35,2-я Береговая улица,180020,57.8298569,28.2863594
36,Петропавловская улица,180020,57.8299110,28.2901641
37,2-я Береговая улица,180020,57.8299385,28.2861771
38,Петропавловская улица,180020,57.8298128,28.2900833
4,2-я Береговая улица,180020,57.8282777,28.2904818
40,Петропавловская улица,180020,57.8297367,28.2899528
42,Петропавловская улица,180020,57.8294719,28.2894270
44,Петропавловская улица,180020,57.8295480,28.2893337
46,Петропавловская улица,180020,57.8296331,28.2892065
48,Петропавловская улица,180020,57.8296954,28.2891266
50,Петропавловская улица,180020,57.8301140,28.2897953
52,Петропавловская улица,180020,57.8300356,28.2897062
54,Петропавловская улица,180020,57.8299441,28.2896151
56,Петропавловская улица,180020,57.8298636,28.2895281
58,Петропавловская улица,180020,57.8303098,28.2888362
6,2-я Береговая улица,180020,57.8283572,28.2903178
60,Петропавловская улица,180020,57.8303407,28.2886725
62,Петропавловская улица,180020,57.8303915,28.2877601
64,Петропавловская улица,180020,57.8303297,28.2876606
66,Петропавловская улица,180020,57.8302007,28.2874390
68,Петропавловская улица,180020,57.8301301,28.2873084
70,Петропавловская улица,180020,57.8299988,28.2870743
72,Петропавловская улица,180020,57.8299349,28.2869645
8,2-я Береговая улица,180020,57.8286755,28.2902943
13,Старотекстильная улица,180006,57.8338597,28.3186664
26,Садовый переулок,180006,57.8348439,28.3238500
38,Северная улица,180019,57.8335815,28.3330490
42,улица Белинского,180006,57.8351286,28.3298465
8А,Исторический переулок,180021,57.8247584,28.3481762
30,Октябрьский проспект,180000,57.8155798,28.3405329
10А,Моторный переулок,180021,57.8268690,28.3455599
14/10,Загородный переулок,180021,57.8267881,28.3457118
12,Земельная улица,180021,57.8277143,28.3487979
34,Пионерская улица,180021,57.8277506,28.3488543
81,Коммунальная улица,180025,57.8135740,28.2705175
20,Октябрьский проспект,180000,57.8157671,28.3394053
44А,Советская улица,180000,57.8132356,28.3357361
3,Лагерная улица,180007,57.8129286,28.3247807
29,Октябрьский проспект,180000,57.8110849,28.3545612
9,Сиреневый бульвар,180019,57.8376912,28.3385194
9,Сиреневый бульвар,180019,57.8375234,28.3386245
10,улица Алексея Алёхина,180020,57.8379471,28.2899294
10,улица Яна Фабрициуса,180004,57.8072085,28.3461231
10,улица Яна Фабрициуса,180004,57.8071945,28.3462083
19,Октябрьский проспект,180000,57.8126629,28.3487442
41,Коммунальная улица,180024,57.8203246,28.2891438
11,Гражданская улица,180017,57.8077520,28.3454120
54,Октябрьский проспект,180004,57.8096928,28.3624514
54,Октябрьский проспект,180004,57.8096395,28.3627193
54,Октябрьский проспект,180004,57.8101477,28.3605254
15,Октябрьский проспект,180000,57.8139587,28.3436145
13,Советская улица,180000,57.8165038,28.3338778
13,Советская улица,180000,57.8165085,28.3339750
13,Советская улица,180000,57.8164885,28.3336503
13,Советская улица,180000,57.8164685,28.3338027
13,Советская улица,180000,57.8165853,28.3339999
9,Советская улица,180000,57.8174124,28.3332480
1/3,Советская улица,180000,57.8186482,28.3318798
41,Коммунальная улица,180024,57.8202150,28.2906387
41,Коммунальная улица,180024,57.8202462,28.2887403
28,Боровая улица,181011,57.7559583,28.4076408
41,Коммунальная улица,180024,57.8202237,28.2884741
111,Советская улица,180017,57.8014969,28.3451902
27А,улица Яна Фабрициуса,180004,57.8045808,28.3581903
30А,улица Кузбасской Дивизии,180024,57.8215923,28.2872394
58,улица Яна Райниса,180002,57.7859141,28.3409099
26,Школьная улица,180006,57.8269577,28.3298005
26,Школьная улица,180006,57.8269177,28.3299018
1,улица Ленина,180000,57.8200957,28.3327814
15,Ипподромная улица,180021,57.8176312,28.3630140
17,Ипподромная улица,180021,57.8179852,28.3589797
5,2-й Ипподромный проезд,180021,57.8187939,28.3659672
7,2-й Ипподромный проезд,180021,57.8187729,28.3658585
22,Октябрьский проспект,180000,57.8152449,28.3399826
22,Октябрьский проспект,180000,57.8152839,28.3397935
73,Советская улица,180017,57.8056250,28.3420639
59А,Коммунальная улица,180024,57.8200811,28.2831348
122А,улица Леона Поземского,180020,57.8400526,28.3023758
25,Кузнецкая улица,180017,57.8119375,28.3462676
37,Советская улица,180000,57.8109659,28.3349514
33,Кузнецкая улица,180004,57.8151439,28.3489747
12,Октябрьский проспект,180000,57.8164747,28.3367307
79,улица Николая Васильева,180014,57.8250791,28.4014899
79,улица Николая Васильева,180014,57.8251476,28.4016494
79,улица Николая Васильева,180014,57.8250641,28.4017807
79,улица Николая Васильева,180014,57.8250001,28.4018849
79,улица Николая Васильева,180014,57.8249064,28.4020188
79,улица Николая Васильева,180014,57.8248192,28.4021579
79,улица Николая Васильева,180014,57.8247518,28.4020082
79,улица Николая Васильева,180014,57.8248306,28.4018831
79,улица Николая Васильева,180014,57.8248946,28.4017865
79,улица Николая Васильева,180014,57.8249567,28.4016864
79,улица Николая Васильева,180014,57.8250056,28.4016002
25,Кузнецкая улица,180017,57.8120705,28.3464148
21/33,Пароменская улица,180007,57.8195734,28.3148043
34,Ротная улица,180004,57.8029835,28.3482642
3,улица Некрасова,180000,57.8109039,28.3368690
3,улица Некрасова,180000,57.8108056,28.3372688
4,Кремль,180000,57.8202701,28.3301850
3,Профсоюзная улица,180000,57.8166872,28.3327656
82,Петропавловская улица,180020,57.8306020,28.2865472
84,Петропавловская улица,180020,57.8304112,28.2861638
74,Петропавловская улица,180020,57.8305887,28.2871391
76,Петропавловская улица,180020,57.8304289,28.2868890
80,Петропавловская улица,180020,57.8301892,28.2864639
86,Петропавловская улица,180020,57.8308239,28.2859220
88,Петропавловская улица,180020,57.8306642,28.2856219
90,Петропавловская улица,180020,57.8308595,28.2852634
17,улица Некрасова,180000,57.8144581,28.3399630
16,Рижский проспект,180007,57.8166541,28.3153147
103,Ипподромная улица,180019,57.8294284,28.3420906
6А,улица Ленина,180000,57.8180539,28.3362496
20А,Западная улица,180025,57.8183665,28.2767557
1/3,Советская улица,180000,57.8186843,28.3316572
108,улица Леона Поземского,180000,57.8329649,28.3063851
48,Коммунальная улица,180024,57.8180886,28.2864729
14,Техническая улица,180020,57.8388330,28.2873647
62,Юбилейная улица,180024,57.8179125,28.2906214
5,улица Юрия Гагарина,180004,57.8096193,28.3576335
17,Техническая улица,180020,57.8403132,28.2900504
16А,Красноармейская набережная,180007,57.8092842,28.3267422
16,улица Киселёва,180007,57.8170129,28.3137549
50,улица Труда,180019,57.8397239,28.3484146
41,Коммунальная улица,180024,57.8204807,28.2900010
54,Октябрьский проспект,180004,57.8097736,28.3619688
19,улица Кузбасской Дивизии,180024,57.8235203,28.2897175
19,улица Кузбасской Дивизии,180024,57.8234604,28.2897293
48,улица Белинского,180006,57.8350999,28.3326722
50,улица Белинского,180006,57.8349134,28.3331428
40,Северная улица,180019,57.8348345,28.3334823
25,Народная улица,180016,57.8197009,28.3071271
23,Коммунальная улица,180016,57.8219502,28.3016317
6А,улица Алексея Алёхина,180020,57.8391468,28.2904723
25,Кузнецкая улица,180021,57.8112614,28.3460402
41,Коммунальная улица,180024,57.8205578,28.2899778
23,улица Некрасова,180000,57.8157911,28.3421405
1,площадь Ленина,180000,57.8201846,28.3325331
2,улица Ленина,180000,57.8194471,28.3340842
30А,улица Кузбасской Дивизии,180024,57.8215691,28.2872248
25,Рижский проспект,180007,57.8189117,28.3105418
6,улица Юрия Гагарина,180004,57.8064639,28.3560197
10,Алмазная улица,180022,57.8289469,28.2966084
13,улица Пушкина,180000,57.8170663,28.3397232
54,Октябрьский проспект,180004,57.8100244,28.3620513
20,Советская улица,180000,57.8177901,28.3339891
6,Гдовская улица,180006,57.8321746,28.3333002
20,улица Труда,180006,57.8294606,28.3382680
3,проспект Энтузиастов,180019,57.8365723,28.3449417
17А,Звёздная улица,180019,57.8407639,28.3440500
1,проспект Энтузиастов,180019,57.8373692,28.3467508
5,проспект Энтузиастов,180019,57.8367630,28.3434234
1,Сиреневый бульвар,180019,57.8362966,28.3408971
24,улица Труда,180006,57.8305247,28.3383157
22,улица Труда,180006,57.8302358,28.3390932
145,Ипподромная улица,180006,57.8308254,28.3253889
18,улица Труда,180006,57.8286347,28.3378687
16,улица Труда,180006,57.8291398,28.3366419
14,улица Труда,180006,57.8284300,28.3366723
47,улица Труда,180019,57.8351756,28.3473502
39,улица Труда,180019,57.8339980,28.3453358
133,Ипподромная улица,180006,57.8322682,28.3303564
3,улица Юности,180019,57.8416282,28.3442682
3,Шоссейная улица,180006,57.8382273,28.3175256
1,улица Пушкина,180000,57.8162037,28.3385155
28,Октябрьский проспект,180000,57.8144353,28.3437334
46,улица Свердлова,180000,57.8148080,28.3451684
77А,улица Белинского,180019,57.8322545,28.3387087
32,Октябрьский проспект,180000,57.8142434,28.3446461
20,Октябрьский проспект,180000,57.8157158,28.3394459
2,Иркутский переулок,180004,57.8119477,28.3576444
9/1,Советская улица,180000,57.8171200,28.3334022
19,Советская улица,180000,57.8155466,28.3341281
13,Советская улица,180000,57.8164159,28.3338238
5,Советская улица,180000,57.8180902,28.3324085
6,набережная реки Великой,180000,57.8170339,28.3316941
3,Профсоюзная улица,180000,57.8166843,28.3323197
7,Советская улица,180000,57.8175805,28.3329953
15А,Советская улица,180000,57.8159225,28.3334513
1/3,Советская улица,180000,57.8185632,28.3312958
5,улица Ленина,180000,57.8177448,28.3360398
10,Октябрьский проспект,180000,57.8167633,28.3362395
15,Советская улица,180000,57.8160295,28.3340697
1,улица Карла Маркса,180000,57.8198669,28.3357420
5,улица Леона Поземского,180006,57.8225686,28.3336420
4,Советская набережная,180006,57.8224907,28.3314655
6,улица Леона Поземского,180006,57.8226239,28.3327048
3/2,улица Леона Поземского,180006,57.8223460,28.3333371
1/2,Советская набережная,180006,57.8221835,28.3322365
1,улица Герцена,180006,57.8220081,28.3330913
8,улица Леона Поземского,180006,57.8232316,28.3327763
41,Рижский проспект,180016,57.8165314,28.3010873
18,улица Рокоссовского,180024,57.8109767,28.2709395
49,Рижский проспект,180016,57.8157973,28.2982342
55,Рижский проспект,180024,57.8137241,28.2900124
57,Рижский проспект,180024,57.8133365,28.2884957
65,Рижский проспект,180024,57.8125692,28.2856789
67,Рижский проспект,180024,57.8117895,28.2828537
51,Рижский проспект,180016,57.8151718,28.2959492
68,Рижский проспект,180016,57.8132035,28.2960755
51А,Рижский проспект,180016,57.8150386,28.2946658
53,Рижский проспект,180024,57.8139939,28.2912363
69А,Юбилейная улица,180016,57.8125632,28.2973731
67А,Юбилейная улица,180016,57.8122537,28.2986646
60,Рижский проспект,180016,57.8145837,28.2990706
66,Рижский проспект,180016,57.8134345,28.2970260
64,Рижский проспект,180016,57.8144296,28.2969651
58,Рижский проспект,180016,57.8151370,28.2998605
10,Коммунальная улица,180007,57.8210530,28.3187509
21,улица Максима Горького,180007,57.8208269,28.3199606
20,Рижский проспект,180016,57.8172210,28.3118191
10,Народная улица,180016,57.8159217,28.3089170
12,Народная улица,180016,57.8151608,28.3103263
17,улица Киселёва,180016,57.8164323,28.3116605
42А,Рижский проспект,180016,57.8153987,28.3054872
52,Рижский проспект,180016,57.8153095,28.3019863
29/31,Рижский проспект,180016,57.8182322,28.3066915
31,Рижский проспект,180016,57.8172282,28.3039257
44,Рижский проспект,180016,57.8161020,28.3042947
22,Рижский проспект,180016,57.8169180,28.3101435
50,Рижский проспект,180016,57.8158923,28.3027469
26,Рижский проспект,180016,57.8170839,28.3086180
19,улица Киселёва,180016,57.8162135,28.3109159
40,Рижский проспект,180016,57.8166779,28.3073330
40Б,Рижский проспект,180016,57.8164582,28.3051741
23,улица Киселёва,180016,57.8149553,28.3129415
11,Рижский проспект,180007,57.8183364,28.3167885
14,Рижский проспект,180007,57.8177574,28.3179553
19,Пароменская улица,180007,57.8195259,28.3168792
20,Петровская улица,180007,57.8170778,28.3170756
17,Рижский проспект,180007,57.8181819,28.3146422
15,Рижский проспект,180007,57.8182472,28.3155157
15,улица Киселёва,180016,57.8166818,28.3124510
37,Петровская улица,180007,57.8185998,28.3156680
35,Петровская улица,180007,57.8190216,28.3155569
14/6,улица Максима Горького,180007,57.8179949,28.3219982
5,Конная улица,180007,57.8168895,28.3181520
16,улица Максима Горького,180007,57.8173753,28.3218398
10/10,улица Максима Горького,180007,57.8193716,28.3210466
7/31А,Рижский проспект,180007,57.8184778,28.3205629
25,улица Максима Горького,180007,57.8200647,28.3201481
17,Пароменская улица,180007,57.8196655,28.3184933
10,Профсоюзная улица,180000,57.8154880,28.3317177
12,Профсоюзная улица,180000,57.8150222,28.3319931
3,Конная улица,180007,57.8178890,28.3237245
4,Пароменская улица,180007,57.8195729,28.3236415
16,Профсоюзная улица,180000,57.8159534,28.3306997
76/2,Рижский проспект,180016,57.8128053,28.2909308
34,Юбилейная улица,180016,57.8117141,28.2922348
9,Ольгинская набережная,180007,57.8176030,28.3230310
12,Конная улица,180007,57.8164544,28.3177440
6,Конная улица,180007,57.8167277,28.3203309
8,Конная улица,180007,57.8163818,28.3193153
20,улица Леона Поземского,180006,57.8246465,28.3318601
5,Октябрьский проспект,180000,57.8152912,28.3357097
34,улица Германа,180005,57.7974736,28.3917399
4,Гдовская улица,180006,57.8321352,28.3322097
131,Ипподромная улица,180006,57.8320101,28.3311597
35,Октябрьский проспект,180004,57.8100112,28.3584753
10,улица Ленина,180000,57.8184067,28.3376515
14,Октябрьский проспект,180000,57.8161333,28.3371324
8,улица Гущина,180006,57.8314532,28.3311117
131А,Ипподромная улица,180006,57.8318903,28.3305126
6,улица Гущина,180006,57.8313161,28.3302979
10,улица Гущина,180006,57.8315625,28.3320353
16А,улица Труда,180006,57.8289588,28.3371936
109,Ипподромная улица,180019,57.8311288,28.3376107
23,Вокзальная улица,180004,57.8043785,28.3618377
39,Октябрьский проспект,180004,57.8092477,28.3613327
46,Вокзальная улица,180004,57.8071994,28.3620459
44,Вокзальная улица,180004,57.8064533,28.3613376
41/48,Октябрьский проспект,180004,57.8083307,28.3628491
21,Октябрьский проспект,180000,57.8120830,28.3504426
31,Октябрьский проспект,180004,57.8105511,28.3563770
33,Октябрьский проспект,180004,57.8102602,28.3574927
125,Ипподромная улица,180006,57.8327288,28.3335701
118,Ипподромная улица,180019,57.8332756,28.3354334
26,улица Некрасова,180000,57.8146103,28.3392481
9,Октябрьский проспект,180000,57.8148899,28.3385869
7А,Октябрьский проспект,180000,57.8141596,28.3377876
24,улица Некрасова,180000,57.8139601,28.3383722
21/1,улица Леона Поземского,180006,57.8264007,28.3288360
24,Школьная улица,180006,57.8265280,28.3301175
32,Первомайская улица,180006,57.8266469,28.3338887
9А,улица Волкова,180006,57.8254870,28.3338740
2,улица Олега Кошевого,180006,57.8259055,28.3308113
11,улица Леона Поземского,180006,57.8251551,28.3320650
4,улица Олега Кошевого,180006,57.8263455,28.3314441
26,Школьная улица,180006,57.8269081,28.3298336
3,улица Набат,180006,57.8269548,28.3288897
38,Первомайская улица,180006,57.8276739,28.3309098
8,улица Олега Кошевого,180006,57.8271805,28.3310096
3,улица Волкова,180006,57.8237718,28.3365984
14,улица Герцена,180006,57.8234076,28.3392864
2,улица Волкова,180006,57.8236346,28.3359367
2,Школьная улица,180006,57.8237807,28.3402199
1,улица Волкова,180006,57.8233483,28.3377338
5,улица Труда,180006,57.8228796,28.3343266
6А,улица Герцена,180006,57.8224309,28.3343384
8,улица Герцена,180006,57.8227516,28.3360071
10,улица Герцена,180006,57.8232495,28.3361164
8А,улица Герцена,180006,57.8227821,28.3352245
7,улица Герцена,180006,57.8228465,28.3386782
7,улица Волкова,180006,57.8245439,28.3344946
6,улица Труда,180006,57.8251166,28.3354753
15,улица Труда,180006,57.8247209,28.3359535
5,улица Волкова,180006,57.8242549,28.3360252
8,Школьная улица,180006,57.8247723,28.3370392
19,Школьная улица,180006,57.8258448,28.3348891
9,улица Волкова,180006,57.8249498,28.3340177
6,Школьная улица,180006,57.8244388,28.3382749
3,Верхне-Береговая улица,180006,57.8226884,28.3397627
1,Московская улица,180006,57.8244384,28.3406079
6,Первомайская улица,180006,57.8246917,28.3414703
16,улица Герцена,180006,57.8242560,28.3418840
21,Вокзальная улица,180004,57.8024534,28.3584043
29,улица Яна Фабрициуса,180004,57.8043174,28.3594153
36,Вокзальная улица,180004,57.8037869,28.3584170
3,улица 23 Июля,180004,57.8025331,28.3569845
28,Вокзальная улица,180004,57.8027419,28.3578666
26,Вокзальная улица,180004,57.8024680,28.3574736
24,Вокзальная улица,180004,57.8022010,28.3570903
42,Вокзальная улица,180004,57.8056678,28.3605995
40,Вокзальная улица,180004,57.8051543,28.3601270
12,Бастионная улица,180004,57.8064300,28.3603368
25,Бастионная улица,180004,57.8059671,28.3599176
8,улица Яна Фабрициуса,180017,57.8074801,28.3445206
3,улица Яна Фабрициуса,180017,57.8072428,28.3430404
2,Кузнецкая улица,180000,57.8050480,28.3355548
15,Гражданская улица,180017,57.8069031,28.3438207
17А,Гражданская улица,180017,57.8069049,28.3421895
2/17,улица Яна Фабрициуса,180017,57.8084547,28.3406484
4,улица Яна Фабрициуса,180017,57.8079272,28.3420967
2А,улица Яна Фабрициуса,180017,57.8084573,28.3415488
6,улица Яна Фабрициуса,180017,57.8076891,28.3433415
6А,улица Яна Фабрициуса,180017,57.8080490,28.3441435
11,Гражданская улица,180017,57.8078793,28.3454822
24,Новгородская улица,180014,57.8183760,28.3936565
69,улица Николая Васильева,180014,57.8233086,28.3974700
83,улица Николая Васильева,180014,57.8253111,28.4035308
14,Новгородская улица,180014,57.8164267,28.3941961
32,Новгородская улица,180014,57.8197561,28.3969791
26,Новгородская улица,180014,57.8186391,28.3947146
75,улица Николая Васильева,180014,57.8241147,28.3992682
11,улица Яна Фабрициуса,180004,57.8060085,28.3504926
6,Стахановская улица,180004,57.8052153,28.3497644
7,Гражданская улица,180017,57.8092194,28.3467146
18,улица Металлистов,180004,57.8055638,28.3471925
5,улица Яна Фабрициуса,180004,57.8060799,28.3476922
2,Стахановская улица,180004,57.8055830,28.3481401
21,Бастионная улица,180004,57.8060262,28.3583799
9,Гражданская улица,180017,57.8085978,28.3458129
9А,Гражданская улица,180017,57.8082994,28.3450366
19,улица Яна Фабрициуса,180004,57.8050939,28.3536306
21,улица Яна Фабрициуса,180004,57.8053199,28.3546470
3,Спортивная улица,180017,57.8101905,28.3452005
9,улица Яна Фабрициуса,180004,57.8057886,28.3493682
4,Стахановская улица,180004,57.8051138,28.3488968
7,улица Яна Фабрициуса,180004,57.8063114,28.3487450
11Б,Гражданская улица,180017,57.8090728,28.3441500
16,улица Яна Фабрициуса,180004,57.8069693,28.3509728
15,улица Яна Фабрициуса,180004,57.8057249,28.3521631
14,улица Яна Фабрициуса,180004,57.8067815,28.3493303
19,Бастионная улица,180004,57.8061784,28.3576894
5,Спортивная улица,180017,57.8098176,28.3464774
13,улица Яна Фабрициуса,180004,57.8055029,28.3511272
17,улица Яна Фабрициуса,180004,57.8052339,28.3527838
11А,Гражданская улица,180017,57.8088890,28.3448437
9,Коммунальная улица,180007,57.8222963,28.3181032
8,Петровская улица,180007,57.8226569,28.3156646
8,Петровская улица,180007,57.8231665,28.3155413
6,Петровская улица,180007,57.8238872,28.3154560
12,Петровская улица,180007,57.8221944,28.3167843
10,Петровская улица,180007,57.8220129,28.3158260
19,улица Максима Горького,180007,57.8226989,28.3188598
21А,Западная улица,180024,57.8204359,28.2787737
23,Западная улица,180024,57.8196116,28.2802388
59А,Коммунальная улица,180024,57.8200995,28.2829283
44,Юбилейная улица,180002,57.8147498,28.2917210
46,улица Кузбасской Дивизии,180024,57.8216944,28.2802507
48,улица Кузбасской Дивизии,180024,57.8212113,28.2789930
11,Западная улица,180024,57.8164677,28.2841680
13,Западная улица,180024,57.8177624,28.2818384
13,улица Рокоссовского,180025,57.8186585,28.2704139
38,улица Кузбасской Дивизии,180024,57.8218330,28.2821230
52,Коммунальная улица,180024,57.8172809,28.2842964
25,Западная улица,180024,57.8199220,28.2796362
89,Юбилейная улица,180016,57.8204515,28.2935576
44,Коммунальная улица,180024,57.8190204,28.2883845
2,Западная улица,180024,57.8136934,28.2863125
36,улица Кузбасской Дивизии,180024,57.8218916,28.2841226
52А,Коммунальная улица,180024,57.8174325,28.2855075
44,улица Рокоссовского,180025,57.8169360,28.2696436
42,Коммунальная улица,180024,57.8192764,28.2903654
17,Западная улица,180024,57.8187105,28.2823602
63,Коммунальная улица,180024,57.8179487,28.2831466
61,Коммунальная улица,180024,57.8186864,28.2834554
34,улица Кузбасской Дивизии,180024,57.8211574,28.2848987
59,Коммунальная улица,180024,57.8197783,28.2832765
50,улица Кузбасской Дивизии,180024,57.8215900,28.2779467
32,улица Кузбасской Дивизии,180024,57.8215491,28.2854605
23,Коммунальная улица,180016,57.8217734,28.3001468
40,улица Кузбасской Дивизии,180024,57.8214024,28.2830289
58,Юбилейная улица,180024,57.8171936,28.2905186
65,Коммунальная улица,180024,57.8183537,28.2823807
48,улица Рокоссовского,180025,57.8166358,28.2680257
52,Юбилейная улица,180024,57.8154153,28.2905586
47,Коммунальная улица,180024,57.8205276,28.2861966
30,улица Кузбасской Дивизии,180024,57.8221777,28.2862947
14,улица Байкова,180025,57.8171334,28.2687326
50,Юбилейная улица,180024,57.8162913,28.2912257
15,Западная улица,180024,57.8182683,28.2815228
44,улица Кузбасской Дивизии,180024,57.8213182,28.2813519
42,улица Кузбасской Дивизии,180024,57.8207714,28.2825896
9,улица Максима Горького,180007,57.8246319,28.3181588
5,улица Максима Горького,180007,57.8253646,28.3178410
5А,улица Максима Горького,180007,57.8254043,28.3184477
7,улица Максима Горького,180007,57.8244420,28.3173560
13,улица Максима Горького,180007,57.8238360,28.3175435
4,Петровская улица,180007,57.8242760,28.3164814
15,улица Максима Горького,180007,57.8234056,28.3183254
11,улица Максима Горького,180007,57.8241604,28.3181505
8А,Петровская улица,180007,57.8235934,28.3164541
17,улица Максима Горького,180007,57.8230825,28.3177273
10А,Петровская улица,180007,57.8230131,28.3166196
4/6,улица Максима Горького,180007,57.8227571,28.3203511
4А,улица Максима Горького,180007,57.8224930,28.3203853
4Б,улица Максима Горького,180007,57.8222139,28.3204378
4В,улица Максима Горького,180007,57.8219292,28.3206495
4,Интернациональный переулок,180007,57.8228341,28.3211828
13,Красноармейская улица,180007,57.8139932,28.3202151
19,улица Розы Люксембург,180007,57.8152815,28.3180064
17,Красноармейская улица,180007,57.8138362,28.3187205
16,улица Киселёва,180007,57.8169392,28.3132297
6,улица Комдива Кирсанова,180002,57.8046989,28.3202597
19,Красноармейская улица,180007,57.8139364,28.3179389
3,улица Комдива Кирсанова,180002,57.8072315,28.3185092
35,улица Максима Горького,180007,57.8173618,28.3191619
5,улица Комдива Кирсанова,180002,57.8063832,28.3185647
15,Красноармейская улица,180007,57.8139392,28.3194484
18А,улица Киселёва,180007,57.8159061,28.3136377
10,улица Комдива Кирсанова,180002,57.8040022,28.3196320
37,улица Максима Горького,180007,57.8165245,28.3212353
11,Красноармейская улица,180007,57.8140535,28.3210409
51,Петровская улица,180007,57.8150574,28.3162089
28,Конная улица,180007,57.8160185,28.3151709
8,улица Комдива Кирсанова,180002,57.8040146,28.3203470
30,Конная улица,180007,57.8159507,28.3144776
6,Октябрьский проспект,180000,57.8171036,28.3352613
3,улица Карла Маркса,180000,57.8194364,28.3375410
9,улица Леона Поземского,180006,57.8250644,28.3327327
4,набережная реки Великой,180000,57.8178008,28.3309998
8,улица Ленина,180000,57.8178523,28.3369213
6А,улица Ленина,180000,57.8181059,28.3362222
4/1,Ольгинская набережная,180007,57.8201992,28.3241207
9,Пароменская улица,180007,57.8202876,28.3218164
5А,Рижский проспект,180007,57.8188634,28.3221093
8А,Пароменская улица,180007,57.8194198,28.3217389
6,Пароменская улица,180007,57.8196303,28.3227065
5,Пароменская улица,180007,57.8200734,28.3232035
15,Пароменская улица,180007,57.8198057,28.3195647
23,улица Максима Горького,180007,57.8202430,28.3192519
21А,улица Максима Горького,180007,57.8202516,28.3184903
16,Петровская улица,180007,57.8201907,28.3165351
29,улица Максима Горького,180007,57.8189655,28.3205209
27,улица Максима Горького,180007,57.8194692,28.3203878
14,Пароменская улица,180007,57.8194616,28.3195520
20А,Пароменская улица,180007,57.8192907,28.3172393
31,Петровская улица,180007,57.8199293,28.3153541
16А,Коммунальная улица,180007,57.8200223,28.3132657
21/33,Пароменская улица,180007,57.8195872,28.3151590
23,Пароменская улица,180007,57.8194697,28.3138189
8А,улица Киселёва,180007,57.8193200,28.3128325
31,Петровская улица,180007,57.8198907,28.3148673
29,Петровская улица,180007,57.8203379,28.3152477
7,Коммунальная улица,180007,57.8217648,28.3181800
19А,улица Максима Горького,180007,57.8220088,28.3191466
15,улица Калинина,180000,57.8079846,28.3348824
4,Георгиевская улица,180000,57.8102795,28.3320402
2,улица Воеводы Шуйского,180000,57.8092365,28.3329447
9,улица Некрасова,180000,57.8125378,28.3383998
52,Советская улица,180000,57.8117352,28.3353775
64/18,Советская улица,180000,57.8091904,28.3383932
44,Советская улица,180000,57.8134383,28.3351353
4,улица Воеводы Шуйского,180000,57.8086848,28.3329237
16,набережная реки Великой,180000,57.8111255,28.3324810
6,Музейный переулок,180000,57.8112479,28.3394393
7,Музейный переулок,180000,57.8108785,28.3390793
6,улица Воеводы Шуйского,180000,57.8076974,28.3335140
6А,Георгиевская улица,180000,57.8105077,28.3331824
1,Комсомольский переулок,180000,57.8119878,28.3378518
1Б,Детская улица,180000,57.8119408,28.3317609
11,улица Калинина,180000,57.8089180,28.3345502
3,Детская улица,180000,57.8118182,28.3325707
8А,улица Воеводы Шуйского,180000,57.8082047,28.3330928
1,Георгиевская улица,180000,57.8098570,28.3324519
13,улица Калинина,180000,57.8084915,28.3344640
5,Комсомольский переулок,180000,57.8116706,28.3393712
62,Советская улица,180000,57.8095589,28.3375521
9,улица Воеводы Шуйского,180000,57.8084596,28.3322357
56/2,Советская улица,180000,57.8112241,28.3360244
1/3,улица Калинина,180000,57.8119280,28.3332114
20,улица Свердлова,180000,57.8104924,28.3389377
20А,Петровская улица,180007,57.8171907,28.3179348
56,улица Свердлова,180000,57.8169803,28.3470173
52,улица Свердлова,180000,57.8161094,28.3465450
50,улица Свердлова,180000,57.8156778,28.3460926
1А,Комиссаровский переулок,180000,57.8157272,28.3440174
15,Октябрьский проспект,180000,57.8140979,28.3428942
7А,Комиссаровский переулок,180000,57.8154348,28.3449990
27/39,улица Гоголя,180000,57.8174870,28.3457352
41,улица Карла Маркса,180000,57.8175781,28.3467003
21,улица Гоголя,180000,57.8156013,28.3436599
30А,Октябрьский проспект,180000,57.8144542,28.3445339
30,Октябрьский проспект,180000,57.8148638,28.3442698
43,улица Карла Маркса,180000,57.8174938,28.3472396
21А,улица Гоголя,180000,57.8153212,28.3439226
17,улица Гоголя,180000,57.8150857,28.3428305
17А,улица Гоголя,180000,57.8149644,28.3433990
19,улица Гоголя,180000,57.8153873,28.3432040
2,Комиссаровский переулок,180000,57.8158600,28.3449972
11,Коммунальная улица,180007,57.8216527,28.3166808
13,улица Киселёва,180016,57.8195837,28.3114865
8,Народная улица,180016,57.8202057,28.3086465
8,Народная улица,180016,57.8194127,28.3092381
11,улица Киселёва,180016,57.8202509,28.3111594
11,улица Киселёва,180016,57.8201465,28.3104929
18,Коммунальная улица,180016,57.8203804,28.3098591
11,улица Киселёва,180016,57.8195982,28.3106583
8,Народная улица,180016,57.8200472,28.3093065
8А,Народная улица,180016,57.8190024,28.3086025
21,Рижский проспект,180007,57.8179188,28.3130592
19,Рижский проспект,180007,57.8180837,28.3136429
26,Пароменская улица,180007,57.8188758,28.3141896
23/17,Народная улица,180016,57.8209050,28.3062226
8А,улица Гоголя,180000,57.8136763,28.3398509
3А,Комсомольский переулок,180000,57.8116222,28.3384057
40,улица Свердлова,180000,57.8130690,28.3426435
5,улица Гоголя,180000,57.8127433,28.3401774
60А,Советская улица,180000,57.8100025,28.3372902
1А,улица Некрасова,180000,57.8102636,28.3367037
1,улица Гоголя,180000,57.8120891,28.3394407
6,улица Гоголя,180000,57.8131645,28.3399847
11,улица Некрасова,180000,57.8130903,28.3387221
9А,улица Некрасова,180000,57.8128684,28.3383750
10,улица Гоголя,180000,57.8138244,28.3407239
60,Советская улица,180000,57.8100961,28.3368502
8,улица Гоголя,180000,57.8136075,28.3403863
13,улица Некрасова,180000,57.8135230,28.3390609
7,улица Гоголя,180000,57.8133642,28.3408919
14,улица Гоголя,180000,57.8142413,28.3410685
15А,улица Некрасова,180000,57.8141437,28.3396764
9,улица Гоголя,180000,57.8138874,28.3415517
6,Комсомольский переулок,180000,57.8117953,28.3404862
25,Народная улица,180016,57.8196293,28.3071337
23 к8,Коммунальная улица,180016,57.8204688,28.3023136
21,Народная улица,180016,57.8213837,28.3063040
4,Народная улица,180016,57.8219195,28.3075316
17,Народная улица,180016,57.8221132,28.3056043
6,улица Кузбасской Дивизии,180016,57.8229914,28.3083167
8,улица Кузбасской Дивизии,180016,57.8229333,28.3072811
2,Народная улица,180016,57.8223355,28.3084762
4А,Народная улица,180016,57.8219287,28.3089818
23,Коммунальная улица,180016,57.8211952,28.3015870
23,Коммунальная улица,180016,57.8209136,28.3035188
23,Коммунальная улица,180016,57.8211471,28.3020154
93,Юбилейная улица,180016,57.8216494,28.2935538
93А,Юбилейная улица,180016,57.8222357,28.2939733
25,Коммунальная улица,180016,57.8210342,28.2984210
95,Юбилейная улица,180016,57.8215433,28.2943144
35,Коммунальная улица,180016,57.8202101,28.2968788
89А,Юбилейная улица,180016,57.8206281,28.2946167
39,Коммунальная улица,180016,57.8199179,28.2944716
91,Юбилейная улица,180016,57.8210078,28.2944686
32,Коммунальная улица,180016,57.8196202,28.2990406
26,Коммунальная улица,180016,57.8190683,28.3034021
24,Коммунальная улица,180016,57.8189008,28.3042963
38,Коммунальная улица,180016,57.8194760,28.2972691
27,Народная улица,180016,57.8184993,28.3060989
30,Коммунальная улица,180016,57.8193549,28.3009253
40,Коммунальная улица,180016,57.8193686,28.2955357
29,Народная улица,180016,57.8186782,28.3051612
22А,Коммунальная улица,180016,57.8195776,28.3053233
28,Коммунальная улица,180016,57.8197871,28.3026955
22,Коммунальная улица,180016,57.8199231,28.3044137
20,Коммунальная улица,180016,57.8200513,28.3061633
16,Петровский переулок,180007,57.8184555,28.3142345
53,улица Леона Поземского,180006,57.8274554,28.3253614
2А,улица Максима Горького,180007,57.8238917,28.3199433
1,Интернациональный переулок,180007,57.8231746,28.3213017
2Б,улица Максима Горького,180007,57.8236167,28.3200260
6,улица Максима Горького,180007,57.8204525,28.3209784
6А,улица Максима Горького,180007,57.8208782,28.3211275
2,Ольгинская набережная,180007,57.8212372,28.3237441
3,Ольгинская набережная,180007,57.8207039,28.3238090
3А,Ольгинская набережная,180007,57.8209122,28.3229568
7,Советская набережная,180006,57.8264774,28.3250256
44,улица Леона Поземского,180006,57.8270245,28.3248455
89А,Рижский проспект,180024,57.8081813,28.2808544
73А,Юбилейная улица,180016,57.8178252,28.2961274
33,Рижский проспект,180016,57.8178258,28.3032086
85,Юбилейная улица,180016,57.8178084,28.2937903
83А,Юбилейная улица,180016,57.8186008,28.2957325
47,Рижский проспект,180016,57.8168287,28.2976222
87А,Юбилейная улица,180016,57.8190848,28.2935214
40А,Коммунальная улица,180016,57.8192672,28.2942054
77А,Юбилейная улица,180016,57.8173937,28.2934582
79,Юбилейная улица,180016,57.8181766,28.2958298
45,Рижский проспект,180016,57.8168416,28.2984532
71,Юбилейная улица,180016,57.8166896,28.2949945
77,Юбилейная улица,180016,57.8169162,28.2937956
73,Юбилейная улица,180016,57.8168392,28.2958372
87,Юбилейная улица,180016,57.8186923,28.2937746
81,Юбилейная улица,180016,57.8180577,28.2946817
83,Юбилейная улица,180016,57.8189890,28.2956245
75,Юбилейная улица,180016,57.8168327,28.2967112
36,Коммунальная улица,180016,57.8180833,28.2981997
85А,Юбилейная улица,180016,57.8182945,28.2935273
19,Петровский переулок,180007,57.8183634,28.3136323
5,улица Киселёва,180016,57.8224049,28.3097702
3,улица Киселёва,180016,57.8229754,28.3096331
1,улица Свердлова,180000,57.8053390,28.3340775
19,Кузнецкая улица,180017,57.8091930,28.3416208
23,Кузнецкая улица,180007,57.8107341,28.3430470
23,улица Гоголя,180000,57.8165298,28.3444941
34,Коммунальная улица,180016,57.8188664,28.2983120
71А,Юбилейная улица,180016,57.8156587,28.2954205
43,Рижский проспект,180016,57.8172031,28.2996899
35,Рижский проспект,180016,57.8174740,28.3019877
37,Рижский проспект,180016,57.8175437,28.3011985
49А,Рижский проспект,180016,57.8158338,28.2964765
39,Рижский проспект,180016,57.8174868,28.3004211
2,улица Киселёва,180007,57.8210589,28.3118209
23,улица Розы Люксембург,180007,57.8148302,28.3144485
49,Петровская улица,180007,57.8157939,28.3163793
18,улица Киселёва,180007,57.8151467,28.3136481
19,улица Розы Люксембург,180007,57.8152938,28.3153363
49А,Петровская улица,180007,57.8156241,28.3158697
8А,Конная улица,180007,57.8158183,28.3201130
17,улица Розы Люксембург,180007,57.8154186,28.3196187
24,Петровская улица,180007,57.8159252,28.3175203
13,улица Розы Люксембург,180007,57.8154351,28.3207141
41/9,улица Максима Горького,180007,57.8156078,28.3214926
10,Конная улица,180007,57.8164524,28.3185560
18,улица Максима Горького,180007,57.8165138,28.3219843
5,улица Розы Люксембург,180007,57.8154659,28.3230181
11А,Ольгинская набережная,180007,57.8159251,28.3227189
11,Ольгинская набережная,180007,57.8159625,28.3235151
2,Конная улица,180007,57.8167031,28.3229833
20/7,улица Максима Горького,180007,57.8156636,28.3220590
27,улица Розы Люксембург,180007,57.8145617,28.3117912
14,Народная улица,180016,57.8148058,28.3096019
10А,Народная улица,180016,57.8163328,28.3099783
21,улица Киселёва,180016,57.8156436,28.3121527
77Б,Юбилейная улица,180016,57.8158621,28.2938259
25,Кузнецкая улица,180017,57.8120521,28.3463057
8А,улица Леона Поземского,180006,57.8228949,28.3322007
3,Советская набережная,180006,57.8222397,28.3316377
14Б,Пароменская улица,180007,57.8194481,28.3190094
41,Народная улица,180016,57.8142880,28.3070160
37,Народная улица,180016,57.8146703,28.3085717
43,Народная улица,180016,57.8141044,28.3062628
39,Народная улица,180016,57.8144961,28.3078059
1,Красноармейская улица,180007,57.8141570,28.3253793
22,улица Максима Горького,180007,57.8147042,28.3226092
1,Красноармейская улица,180007,57.8141881,28.3233417
1,Красноармейская улица,180007,57.8141014,28.3244556
13/2,Ольгинская набережная,180007,57.8151096,28.3258905
24/7,улица Максима Горького,180007,57.8140636,28.3225620
6,улица Розы Люксембург,180007,57.8150983,28.3235519
12,улица Розы Люксембург,180007,57.8144839,28.3185104
53,Петровская улица,180007,57.8140980,28.3168471
20,улица Розы Люксембург,180007,57.8148078,28.3198552
21,Красноармейская улица,180007,57.8130859,28.3146243
47/9,улица Максима Горького,180007,57.8139974,28.3218823
43/8,улица Максима Горького,180007,57.8148909,28.3216433
45,улица Максима Горького,180007,57.8144951,28.3217416
24А,улица Киселёва,180016,57.8133334,28.3142053
26,улица Максима Горького,180007,57.8135993,28.3226210
28,улица Максима Горького,180007,57.8128583,28.3230202
26А,улица Максима Горького,180007,57.8133641,28.3227870
46,Рижский проспект,180016,57.8156202,28.3037152
54,Рижский проспект,180016,57.8148224,28.3008127
60А,Рижский проспект,180016,57.8137533,28.2992963
48,Рижский проспект,180016,57.8148181,28.3035875
56,Рижский проспект,180016,57.8140297,28.3006647
52А,Рижский проспект,180016,57.8144805,28.3022060
56А,Рижский проспект,180016,57.8139347,28.2999689
48А,Рижский проспект,180016,57.8146798,28.3028901
33,Народная улица,180016,57.8162303,28.3080169
62А,Рижский проспект,180016,57.8133187,28.2985609
40А,Рижский проспект,180016,57.8150709,28.3062495
44А,Рижский проспект,180016,57.8148140,28.3043733
54А,Рижский проспект,180016,57.8140749,28.3014472
62,Рижский проспект,180016,57.8141454,28.2978923
64А,Рижский проспект,180016,57.8132980,28.2977759
18Б,Пароменская улица,180007,57.8189234,28.3174651
11,Петровская улица,180007,57.8233431,28.3146037
7,Петровская улица,180007,57.8237777,28.3146566
13,Петровская улица,180007,57.8230675,28.3146404
21,Петровская улица,180007,57.8218520,28.3151144
3,Петровская улица,180007,57.8241653,28.3145648
23,Петровская улица,180007,57.8217293,28.3151473
5,Петровская улица,180007,57.8239705,28.3146154
15,Петровская улица,180007,57.8228079,28.3146568
25А,Петровская улица,180007,57.8214888,28.3152021
1,улица Чехова,180016,57.8134476,28.3108580
20,Народная улица,180016,57.8126741,28.3085497
45,Народная улица,180016,57.8137646,28.3082602
24/26,улица Розы Люксембург,180016,57.8141539,28.3118177
4,улица Карла Маркса,180000,57.8196427,28.3381181
9,улица Карла Маркса,180000,57.8187188,28.3393386
5,улица Карла Маркса,180000,57.8191083,28.3382364
8,улица Карла Маркса,180000,57.8192966,28.3387960
63,Юбилейная улица,180016,57.8120512,28.3019625
53,Народная улица,180016,57.8116616,28.3064142
67,Юбилейная улица,180016,57.8124692,28.3004031
47А,Народная улица,180016,57.8132444,28.3063681
47,Народная улица,180016,57.8132351,28.3074112
52Б,Рижский проспект,180016,57.8140155,28.3029508
69,Юбилейная улица,180016,57.8114477,28.3006303
69В,Юбилейная улица,180016,57.8122915,28.2971528
55,Юбилейная улица,180016,57.8107986,28.3045190
56Б,Рижский проспект,180016,57.8132359,28.3022946
49А,Народная улица,180016,57.8129425,28.3074943
61,Юбилейная улица,180016,57.8118237,28.3027344
57А,Юбилейная улица,180016,57.8112415,28.3049715
51,Народная улица,180016,57.8123571,28.3060055
65,Юбилейная улица,180016,57.8122777,28.3011808
65А,Юбилейная улица,180016,57.8131843,28.3012666
49,Народная улица,180016,57.8126968,28.3068884
59,Юбилейная улица,180016,57.8111791,28.3024106
53Б,Народная улица,180016,57.8120245,28.3045968
48Б,Рижский проспект,180016,57.8139839,28.3039395
57,Народная улица,180016,57.8106377,28.3052322
51А,Народная улица,180016,57.8131141,28.3050847
57,Юбилейная улица,180016,57.8113359,28.3035795
32,Старокоммунальная улица,180016,57.8213057,28.3109050
34,Старокоммунальная улица,180016,57.8213041,28.3102052
31,Старокоммунальная улица,180016,57.8215203,28.3098550
5,улица Киселёва,180016,57.8210532,28.3113841
29,Старокоммунальная улица,180016,57.8215452,28.3105000
26А,улица Розы Люксембург,180016,57.8134719,28.3123734
25А,Красноармейская улица,180016,57.8121050,28.3119219
51,Юбилейная улица,180016,57.8099426,28.3066557
11,улица Розы Люксембург,180007,57.8153452,28.3210222
6А,улица Чехова,180016,57.8119312,28.3106766
6,улица Чехова,180016,57.8122716,28.3095725
27А,улица Киселёва,180016,57.8130660,28.3130224
29,Красноармейская улица,180016,57.8111208,28.3103724
4А,улица Чехова,180016,57.8124177,28.3111346
31,Красноармейская улица,180016,57.8112858,28.3083989
25,Красноармейская улица,180016,57.8121407,28.3129099
22,улица Розы Люксембург,180016,57.8141684,28.3127982
27,улица Киселёва,180016,57.8132291,28.3134334
8,улица Чехова,180016,57.8116728,28.3102906
28,улица Розы Люксембург,180016,57.8136082,28.3116087
35,Красноармейская улица,180016,57.8101116,28.3078512
10,улица Чехова,180016,57.8113293,28.3093995
31А,Красноармейская улица,180016,57.8109776,28.3078996
27,Красноармейская улица,180016,57.8116190,28.3115931
25,улица Киселёва,180016,57.8137851,28.3132941
26Б,улица Розы Люксембург,180016,57.8127760,28.3123819
12,улица Чехова,180016,57.8118662,28.3088024
33,Красноармейская улица,180016,57.8106420,28.3091027
29/23,улица Киселёва,180016,57.8127584,28.3134895
4,улица Чехова,180016,57.8127341,28.3108622
18,Красноармейская улица,180007,57.8116928,28.3143677
2,улица Малясова,180007,57.8106207,28.3247315
10,Профсоюзная улица,180000,57.8151864,28.3313270
2,улица Карбышева,180011,57.7541658,28.4038935
65,Ленинградское шоссе,180011,57.7578439,28.3819488
49,Ленинградское шоссе,180011,57.7610037,28.3845115
26,Октябрьский проспект,180000,57.8147334,28.3427425
25А,улица Гоголя,180000,57.8164632,28.3456677
22,улица Гоголя,180000,57.8165649,28.3438109
25,улица Некрасова,180000,57.8168362,28.3425495
10,улица Некрасова,180000,57.8125113,28.3373386
25,улица Гоголя,180000,57.8170372,28.3450406
36,улица Свердлова,180000,57.8122993,28.3412139
38/25,улица Некрасова,180000,57.8176617,28.3425338
4Б,Комсомольский переулок,180000,57.8121336,28.3403557
7,улица Пушкина,180000,57.8179865,28.3403617
34,улица Свердлова,180000,57.8119677,28.3409305
31,улица Карла Маркса,180000,57.8175221,28.3445375
20,улица Гоголя,180000,57.8163146,28.3434945
16,улица Некрасова,180000,57.8132464,28.3367154
3,улица Некрасова,180000,57.8108731,28.3370137
3,улица Некрасова,180000,57.8106905,28.3368415
3,Музейный переулок,180000,57.8109438,28.3382162
7Б,Комиссаровский переулок,180000,57.8152662,28.3449134
7Б,улица Гоголя,180000,57.8130344,28.3411383
32,улица Свердлова,180000,57.8118195,28.3408867
44А,Советская улица,180000,57.8132277,28.3357316
4А,Комсомольский переулок,180000,57.8120166,28.3401034
26,улица Гоголя,180000,57.8169572,28.3442504
3,улица Гоголя,180000,57.8123974,28.3398461
24,улица Гоголя,180000,57.8167658,28.3440332
52А,Советская улица,180000,57.8121614,28.3362618
9,улица Пушкина,180000,57.8174839,28.3412943
6,улица Некрасова,180000,57.8121788,28.3370786
15,улица Карла Маркса,180000,57.8181561,28.3412003
21В,Советская улица,180000,57.8143189,28.3341977
14,улица Некрасова,180000,57.8132760,28.3380971
3,улица Красных Просвещенцев,180000,57.8072421,28.3340094
25,Советская улица,180000,57.8138433,28.3338032
42,Советская улица,180000,57.8141734,28.3351976
8А,улица Свердлова,180000,57.8065305,28.3348229
45,Советская улица,180000,57.8096333,28.3366527
21А,Советская улица,180000,57.8143464,28.3344875
10,улица Воеводы Шуйского,180000,57.8068159,28.3334442
47,Советская улица,180000,57.8092188,28.3373613
43,Советская улица,180000,57.8099197,28.3363143
8,Детская улица,180000,57.8127600,28.3337608
35А,Советская улица,180000,57.8116086,28.3346210
8,улица Свердлова,180000,57.8066758,28.3342841
31,Советская улица,180000,57.8127295,28.3343494
26,улица Калинина,180000,57.8076149,28.3359083
17А,улица Калинина,180000,57.8069065,28.3353781
64А,Советская улица,180000,57.8098426,28.3387050
12,улица Некрасова,180000,57.8127937,28.3375730
33,Советская улица,180000,57.8123753,28.3344535
47А,Советская улица,180000,57.8094227,28.3359502
19,улица Калинина,180000,57.8065789,28.3354707
2,Детская улица,180000,57.8124457,28.3320800
35,Советская улица,180000,57.8120605,28.3340507
6,улица Свердлова,180000,57.8062968,28.3348867
4,Детская улица,180000,57.8125156,28.3326736
40,Советская улица,180000,57.8142659,28.3359023
51,Советская улица,180000,57.8087580,28.3377885
50,Советская улица,180000,57.8123343,28.3353314
39,Советская улица,180000,57.8106055,28.3352749
6,Детская улица,180000,57.8126156,28.3331196
8,улица Воеводы Шуйского,180000,57.8071049,28.3332751
23,Советская улица,180000,57.8140886,28.3344121
14,улица Воеводы Шуйского,180000,57.8062651,28.3336229
37,Советская улица,180000,57.8109718,28.3346914
42А,Советская улица,180000,57.8138533,28.3354524
1,Детская улица,180000,57.8121209,28.3324737
12,улица Калинина,180000,57.8092972,28.3350974
23А,Советская улица,180000,57.8140462,28.3340380
62Б,Советская улица,180000,57.8098750,28.3378125
16/2,улица Воеводы Шуйского,180000,57.8059962,28.3337867
14,улица Калинина,180000,57.8088529,28.3352674
46,Советская улица,180000,57.8129143,28.3350286
10А,улица Воеводы Шуйского,180000,57.8067435,28.3338335
41,Советская улица,180000,57.8101492,28.3357733
4,улица Свердлова,180000,57.8061524,28.3342267
48,Советская улица,180000,57.8125456,28.3349769
20,улица Некрасова,180000,57.8137079,28.3376006
29,Советская улица,180000,57.8132134,28.3343707
49,Советская улица,180000,57.8089662,28.3358772
5,улица Красных Просвещенцев,180000,57.8073627,28.3348115
28,улица Яна Фабрициуса,180004,57.8051036,28.3588374
23,Бастионная улица,180004,57.8058496,28.3590151
24,улица Яна Фабрициуса,180004,57.8056223,28.3569761
10,улица Яна Фабрициуса,180004,57.8071932,28.3467437
23,улица Яна Фабрициуса,180004,57.8050818,28.3560904
27,улица Яна Фабрициуса,180004,57.8047448,28.3584544
14,Стахановская улица,180004,57.8045725,28.3542176
27,Бастионная улица,180004,57.8055103,28.3595733
26,улица Яна Фабрициуса,180004,57.8054173,28.3578677
25,улица Яна Фабрициуса,180004,57.8049034,28.3572554
20,Стахановская улица,180004,57.8042722,28.3564134
27Б,улица Яна Фабрициуса,180004,57.8042595,28.3585292
8,Стахановская улица,180004,57.8047682,28.3507127
16,Стахановская улица,180004,57.8044685,28.3549623
19,Стахановская улица,180004,57.8037080,28.3558703
10,Стахановская улица,180004,57.8048631,28.3518294
18,Стахановская улица,180004,57.8043989,28.3557305
22,Стахановская улица,180004,57.8039803,28.3572751
22,улица Яна Фабрициуса,180004,57.8057068,28.3556636
15,Бастионная улица,180004,57.8062441,28.3568059
17,Бастионная улица,180004,57.8066311,28.3572243
21А,улица Яна Фабрициуса,180004,57.8051016,28.3553905
27А,улица Яна Фабрициуса,180004,57.8045661,28.3581791
43,Юбилейная улица,180016,57.8078726,28.3134833
14,Госпитальная улица,180002,57.8091673,28.3169423
3,Лагерная улица,180007,57.8129757,28.3246086
6,Красноармейская улица,180007,57.8136055,28.3238805
2,улица Малясова,180007,57.8110001,28.3248770
33,Кузнецкая улица,180004,57.8150468,28.3493197
2,улица Льва Толстого,180000,57.8145710,28.3486585
9,Западная улица,180024,57.8162055,28.2853328
54,Юбилейная улица,180024,57.8159641,28.2893248
1А,Западная улица,180024,57.8140296,28.2878143
46,Юбилейная улица,180024,57.8143800,28.2899710
62,Юбилейная улица,180024,57.8182726,28.2903839
44Б,Коммунальная улица,180024,57.8181709,28.2884057
50,Коммунальная улица,180024,57.8168143,28.2858583
61,Рижский проспект,180024,57.8148087,28.2890237
66,Юбилейная улица,180024,57.8177534,28.2889237
3,Западная улица,180024,57.8147249,28.2874128
60,Юбилейная улица,180024,57.8182801,28.2913302
1,Западная улица,180024,57.8139257,28.2871222
7,Западная улица,180024,57.8167296,28.2871432
59,Рижский проспект,180024,57.8141869,28.2885285
64,Юбилейная улица,180024,57.8184019,28.2896712
46,Коммунальная улица,180024,57.8185292,28.2889465
44А,Коммунальная улица,180024,57.8185560,28.2877110
48,Юбилейная улица,180024,57.8148015,28.2904353
9А,Западная улица,180024,57.8164189,28.2858648
56,Юбилейная улица,180024,57.8166864,28.2893601
63,Рижский проспект,180024,57.8143173,28.2892113
6А,Западная улица,180024,57.8149212,28.2825874
2В,Западная улица,180024,57.8135156,28.2831846
1,Печорская улица,180024,57.8120344,28.2806012
69,Рижский проспект,180024,57.8126788,28.2831822
58,Коммунальная улица,180024,57.8150788,28.2790721
8,Западная улица,180024,57.8162198,28.2833259
1Б,Печорская улица,180024,57.8124798,28.2817981
2Б,Западная улица,180024,57.8132208,28.2847348
54А,Коммунальная улица,180024,57.8155276,28.2822981
69А,Рижский проспект,180024,57.8130051,28.2824025
1А,Печорская улица,180024,57.8126235,28.2809054
58А,Коммунальная улица,180024,57.8148817,28.2801727
4А,Западная улица,180024,57.8144656,28.2835911
5А,Печорская улица,180024,57.8143771,28.2807888
54,Коммунальная улица,180024,57.8162398,28.2822446
2А,Западная улица,180024,57.8139035,28.2845422
6,Западная улица,180024,57.8153510,28.2835908
7,Печорская улица,180024,57.8144315,28.2784492
4,Западная улица,180024,57.8150183,28.2849922
5,Печорская улица,180024,57.8140423,28.2795003
26Б,Ленинградское шоссе,180005,57.7938601,28.4164229
62А,Юбилейная улица,180024,57.8178508,28.2904256
56А,Коммунальная улица,180024,57.8146948,28.2816116
25,улица Металлистов,180004,57.8106634,28.3509565
3А,Спортивная улица,180017,57.8098849,28.3441360
5А,Спортивная улица,180017,57.8095469,28.3453429
4А,улица Яна Фабрициуса,180004,57.8084381,28.3432270
7А,Гражданская улица,180017,57.8091515,28.3458394
21,Кузнецкая улица,180017,57.8096827,28.3424836
1,Профсоюзная улица,180000,57.8167820,28.3333702
3,улица Льва Толстого,180000,57.8137254,28.3488954
7,улица Труда,180006,57.8232520,28.3344402
13,улица Труда,180006,57.8244125,28.3353995
11,улица Труда,180006,57.8239861,28.3349863
7А,улица Труда,180006,57.8235439,28.3345007
4,улица Труда,180006,57.8245964,28.3348952
17,улица Труда,180006,57.8250553,28.3363071
13,Школьная улица,180006,57.8252042,28.3370368
19,улица Труда,180006,57.8253575,28.3365184
25,улица Труда,180006,57.8263060,28.3382506
8,улица Труда,180006,57.8255412,28.3358467
27,Первомайская улица,180006,57.8267635,28.3364110
21,улица Труда,180006,57.8256785,28.3368873
10,улица Труда,180006,57.8259563,28.3363449
23,улица Труда,180006,57.8260070,28.3371634
6А,улица Леона Поземского,180006,57.8225673,28.3323238
15А,Звёздная улица,180019,57.8400211,28.3453028
11,Звёздная улица,180019,57.8386568,28.3469149
11А,Звёздная улица,180019,57.8395138,28.3469651
20А,Западная улица,180025,57.8181608,28.2770199
37А,улица Труда,180019,57.8322628,28.3450086
31,улица Труда,180019,57.8311567,28.3417878
31,Первомайская улица,180006,57.8274043,28.3356171
103,Ипподромная улица,180019,57.8295251,28.3419833
74А,улица Белинского,180019,57.8317225,28.3443291
27,улица Труда,180019,57.8287313,28.3399805
76А,улица Белинского,180019,57.8308948,28.3471596
68,улица Леона Поземского,180006,57.8296282,28.3200856
41,Первомайская улица,180006,57.8279658,28.3317951
73А,Ипподромная улица,180021,57.8261962,28.3509616
3,улица Александра Невского,180006,57.8290179,28.3248834
24,Первомайская улица,180006,57.8256857,28.3376105
27/30,Загородный переулок,180021,57.8281257,28.3480433
9,улица Герцена,180006,57.8237315,28.3424099
30,Первомайская улица,180006,57.8264672,28.3355518
25/3,улица Труда,180006,57.8262770,28.3392840
15А,улица Олега Кошевого,180006,57.8280185,28.3343593
10,улица Набат,180006,57.8275900,28.3287850
61,улица Леона Поземского,180006,57.8285876,28.3231207
16А,улица Герцена,180021,57.8247272,28.3442351
22,улица Труда,180006,57.8306893,28.3390732
8,улица Набат,180006,57.8273775,28.3285677
45,Первомайская улица,180006,57.8285799,28.3305290
2,Московская улица,180006,57.8243875,28.3399178
74,улица Белинского,180019,57.8311250,28.3451312
2Б,Восточный переулок,180021,57.8249304,28.3436525
7,Школьная улица,180006,57.8246716,28.3391330
78,улица Белинского,180021,57.8299405,28.3479193
33,улица Герцена,180021,57.8259460,28.3486906
87,улица Белинского,180019,57.8309467,28.3444497
9,Школьная улица,180006,57.8248459,28.3382093
108,Ипподромная улица,180019,57.8314250,28.3383654
16,улица Набат,180006,57.8281889,28.3293982
9,Советская набережная,180006,57.8275198,28.3227979
87А,улица Белинского,180019,57.8308777,28.3439520
106,Ипподромная улица,180019,57.8312044,28.3390034
14,улица Набат,180006,57.8279524,28.3291647
12,улица Набат,180006,57.8277935,28.3289393
26Б,улица Труда,180019,57.8318828,28.3404429
27,улица Труда,180019,57.8282493,28.3392973
108Б,Ипподромная улица,180019,57.8318001,28.3377433
24А,Школьная улица,180006,57.8265004,28.3307937
9,улица Труда,180006,57.8237453,28.3348098
14,Автозаводская улица,180019,57.8282516,28.3425132
29,Школьная улица,180006,57.8271912,28.3302363
9,Верхне-Береговая улица,180006,57.8231025,28.3408888
80,улица Белинского,180021,57.8300453,28.3507199
18,Школьная улица,180006,57.8261436,28.3326546
18,Первомайская улица,180006,57.8252582,28.3395915
3,Застенная улица,180021,57.8249968,28.3432528
61А,улица Леона Поземского,180006,57.8291158,28.3236147
7/25,улица Олега Кошевого,180006,57.8265023,28.3326902
16А,Школьная улица,180006,57.8255776,28.3330527
11,Школьная улица,180006,57.8252270,28.3378972
20,Автозаводская улица,180019,57.8287130,28.3433047
3,Текстильная улица,180019,57.8316210,28.3469357
13/1,улица Леона Поземского,180006,57.8254209,28.3316196
22,улица Леона Поземского,180006,57.8249205,28.3315819
7,Первомайская улица,180006,57.8257205,28.3397352
16,Автозаводская улица,180019,57.8284152,28.3427996
10,Советская набережная,180006,57.8277541,28.3222800
43,Первомайская улица,180006,57.8281511,28.3310143
5,улица Олега Кошевого,180006,57.8261452,28.3322941
63,улица Леона Поземского,180006,57.8292056,28.3222100
11,Верхне-Береговая улица,180006,57.8235442,28.3417493
35,улица Труда,180019,57.8316986,28.3424111
2,Автозаводская улица,180019,57.8270589,28.3402496
9В,Первомайская улица,180006,57.8257465,28.3406016
37Б,улица Труда,180019,57.8319731,28.3431577
6,Верхне-Береговая улица,180006,57.8234405,28.3409274
5,улица Набат,180006,57.8277188,28.3297366
95,Ипподромная улица,180019,57.8281946,28.3445427
21,Школьная улица,180006,57.8260947,28.3341707
62,улица Леона Поземского,180006,57.8283727,28.3220502
12,Моторный переулок,180019,57.8262349,28.3466539
34,Первомайская улица,180006,57.8269314,28.3334979
78,улица Белинского,180021,57.8295862,28.3483084
22,улица Герцена,180021,57.8253122,28.3459935
11,улица Герцена,180006,57.8238173,28.3428506
6А,улица Набат,180006,57.8276863,28.3273563
6,Московская улица,180006,57.8250553,28.3403838
3,улица Олега Кошевого,180006,57.8258522,28.3320126
85А,улица Белинского,180019,57.8314235,28.3432195
66,улица Леона Поземского,180006,57.8292720,28.3206246
3,Первомайская улица,180006,57.8252418,28.3414279
4А,улица Набат,180006,57.8268900,28.3279469
2А,Московская улица,180006,57.8247731,28.3396501
5Б,Восточный переулок,180021,57.8254977,28.3435802
81,улица Белинского,180019,57.8322145,28.3405224
11,Текстильная улица,180019,57.8309269,28.3509509
12А,улица Герцена,180006,57.8234120,28.3384637
1,Автозаводская улица,180019,57.8269366,28.3407389
18А,Первомайская улица,180006,57.8253969,28.3391431
78А,улица Белинского,180021,57.8292001,28.3490260
32,улица Труда,180019,57.8319187,28.3418272
16Б,улица Герцена,180021,57.8248754,28.3446033
16,Школьная улица,180006,57.8258736,28.3333262
4,Московская улица,180006,57.8246602,28.3401875
7,Текстильная улица,180019,57.8306826,28.3499702
64,улица Леона Поземского,180006,57.8288340,28.3212638
33,Первомайская улица,180006,57.8270025,28.3352397
22,улица Леона Поземского,180006,57.8252080,28.3306843
10,Автозаводская улица,180019,57.8280130,28.3420190
8,Автозаводская улица,180019,57.8278741,28.3417460
20,Первомайская улица,180006,57.8255599,28.3386289
3А,улица Олега Кошевого,180006,57.8256717,28.3321779
15,улица Олега Кошевого,180006,57.8278272,28.3339601
1Б,Восточный переулок,180021,57.8251925,28.3440524
19Б,Школьная улица,180006,57.8260329,28.3350595
22,Первомайская улица,180006,57.8256747,28.3381631
60,улица Леона Поземского,180006,57.8279998,28.3227727
21,Земельная улица,180021,57.8288544,28.3506096
19,Земельная улица,180021,57.8286166,28.3503545
20,Пионерская улица,180019,57.8285678,28.3460331
42,улица Некрасова,180000,57.8185542,28.3433814
5,улица Мишарина,180021,57.8238686,28.3537215
1,Аллейная улица,180021,57.8240406,28.3556743
32,Кузнецкая улица,180021,57.8213142,28.3574609
4,переулок Залита,180021,57.8211566,28.3564859
15,улица Красных Партизан,180000,57.8205062,28.3423558
74,улица Свердлова,180000,57.8193995,28.3508431
20,улица Карла Маркса,180000,57.8185890,28.3415952
9,Гремячая улица,180021,57.8237210,28.3499898
7А,улица Воровского,180000,57.8202878,28.3438737
1,Индустриальная улица,180021,57.8230372,28.3604686
6,улица Спегальского,180000,57.8198358,28.3468730
1,Аллейная улица,180021,57.8207395,28.3560991
56,улица Некрасова,180000,57.8206888,28.3458969
36,Кузнецкая улица,180021,57.8215923,28.3579231
13,улица Красных Партизан,180000,57.8202088,28.3425121
7,1-й переулок Хлебной Горки,180021,57.8241236,28.3517218
45,Ипподромная улица,180021,57.8217746,28.3578008
53,улица Гоголя,180000,57.8203642,28.3499413
8,улица Спегальского,180000,57.8191200,28.3490558
2,Индустриальная улица,180021,57.8236734,28.3582986
41А,Ипподромная улица,180021,57.8210681,28.3584093
36,улица Карла Маркса,180000,57.8180593,28.3442797
5,улица Спегальского,180000,57.8190436,28.3482774
9Б,улица Красных Партизан,180000,57.8196399,28.3440805
5,1-й переулок Хлебной Горки,180021,57.8240961,28.3521537
34,Ипподромная улица,180021,57.8224301,28.3584796
23,Гремячая улица,180021,57.8207490,28.3542437
4/2,улица Мишарина,180021,57.8237070,28.3530310
2,улица Карла Маркса,180000,57.8202198,28.3377099
1,улица Мишарина,180021,57.8229910,28.3535748
4А,Аллейный переулок,180021,57.8230360,28.3565186
16,улица Пушкина,180000,57.8184769,28.3401017
4,улица Красных Партизан,180000,57.8189701,28.3419288
11А,Гремячая улица,180021,57.8234336,28.3508073
39,Ипподромная улица,180021,57.8200420,28.3594344
7,улица Воровского,180000,57.8209181,28.3431979
47,улица Гоголя,180000,57.8199963,28.3490823
6,улица Красных Партизан,180000,57.8194018,28.3419479
15,Гремячая улица,180021,57.8227416,28.3523218
22,улица Воровского,180000,57.8205874,28.3482239
15,улица Воровского,180000,57.8210143,28.3451512
3,1-й переулок Хлебной Горки,180021,57.8240555,28.3526621
55/78,улица Гоголя,180000,57.8204066,28.3506866
9А,улица Красных Партизан,180000,57.8196222,28.3434162
37,улица Некрасова,180000,57.8190906,28.3449545
51,улица Гоголя,180000,57.8201567,28.3495090
70,улица Свердлова,180000,57.8190059,28.3500950
48,Кузнецкая улица,180021,57.8209040,28.3574989
17,улица Красных Партизан,180000,57.8209092,28.3422115
46,улица Гоголя,180000,57.8202013,28.3489836
52,улица Некрасова,180000,57.8197932,28.3450257
6,улица Воровского,180000,57.8206713,28.3410615
11А,улица Герцена,180006,57.8238926,28.3431872
7А,1-й переулок Хлебной Горки,180021,57.8242475,28.3514909
5А,улица Мишарина,180021,57.8241170,28.3537050
50,улица Некрасова,180000,57.8194715,28.3445116
7,переулок Залита,180021,57.8220626,28.3562784
10,улица Спегальского,180000,57.8195239,28.3497563
11,улица Красных Партизан,180000,57.8198461,28.3427941
54А,улица Некрасова,180000,57.8206138,28.3448999
30,Ипподромная улица,180021,57.8220772,28.3583498
76,улица Свердлова,180000,57.8199054,28.3501599
35,улица Некрасова,180000,57.8186878,28.3447530
34,Кузнецкая улица,180021,57.8214506,28.3576700
72,улица Свердлова,180000,57.8191050,28.3506950
45,улица Некрасова,180000,57.8205099,28.3467403
44,улица Некрасова,180000,57.8188997,28.3440429
20,улица Воровского,180000,57.8205931,28.3474397
2,Гремячая улица,180021,57.8243467,28.3450526
41,улица Некрасова,180000,57.8200889,28.3460749
8,1-й переулок Хлебной Горки,180021,57.8238709,28.3515642
16,улица Карла Маркса,180000,57.8187551,28.3407492
4,улица Воровского,180000,57.8203811,28.3396829
19,Гремячая улица,180021,57.8216826,28.3533384
2В,Индустриальная улица,180021,57.8241062,28.3581396
4А,Красногорская улица,180021,57.8190276,28.3557886
10,Гремячая улица,180021,57.8239708,28.3494047
33,улица Некрасова,180000,57.8184549,28.3442608
7А,улица Карла Маркса,180000,57.8189272,28.3387430
12,1-й переулок Хлебной Горки,180021,57.8239423,28.3504312
10,1-й переулок Хлебной Горки,180021,57.8238926,28.3510512
2,улица Мишарина,180021,57.8233561,28.3528377
13,улица Воровского,180000,57.8212892,28.3445479
16,Милицейская улица,180000,57.8212768,28.3399712
3,улица Мишарина,180021,57.8236556,28.3536359
6А,Аллейный переулок,180021,57.8227899,28.3566933
9,1-й переулок Хлебной Горки,180021,57.8241518,28.3511268
7,улица Красных Партизан,180000,57.8191480,28.3426261
39А,Ипподромная улица,180021,57.8202652,28.3592046
4,1-й переулок Хлебной Горки,180021,57.8238007,28.3525950
12,улица Воровского,180000,57.8216113,28.3447528
2,Красногорская улица,180021,57.8189349,28.3562292
54,улица Некрасова,180000,57.8202183,28.3454064
47А,Кузнецкая улица,180021,57.8197284,28.3552014
41,Ипподромная улица,180021,57.8208610,28.3586631
9А,Гремячая улица,180021,57.8235600,28.3503870
76А,улица Свердлова,180000,57.8197230,28.3508544
6,1-й переулок Хлебной Горки,180021,57.8238275,28.3521373
48,улица Гоголя,180000,57.8204169,28.3493924
17,Аллейная улица,180021,57.8225018,28.3554662
9,улица Красных Партизан,180000,57.8195454,28.3427278
46,улица Некрасова,180000,57.8190737,28.3442669
10,улица Красных Партизан,180000,57.8200581,28.3419674
39,улица Некрасова,180000,57.8193168,28.3461644
4,улица Некрасова,180000,57.8116562,28.3366380
24,улица Некрасова,180000,57.8142045,28.3388073
8,улица Некрасова,180000,57.8124335,28.3368390
22,улица Некрасова,180000,57.8136144,28.3384138
6,Советская набережная,180006,57.8231121,28.3310722
5,Советская набережная,180006,57.8227565,28.3312338
2,Советская набережная,180006,57.8221963,28.3319534
23А,Октябрьский проспект,180000,57.8113008,28.3504474
23,улица Металлистов,180000,57.8111262,28.3516189
23Б,Октябрьский проспект,180000,57.8114567,28.3509354
10Б,Спортивная улица,180017,57.8098929,28.3482562
40,Октябрьский проспект,180000,57.8126636,28.3512479
5,улица Льва Толстого,180000,57.8137475,28.3498705
36,Октябрьский проспект,180000,57.8136190,28.3479009
1,улица Металлистов,180000,57.8149875,28.3544502
9А,улица Плехановский Посад,180000,57.8160673,28.3504050
9,улица Плехановский Посад,180000,57.8162799,28.3505676
11,улица Плехановский Посад,180000,57.8162283,28.3508170
17В,Красноармейская набережная,180002,57.8088693,28.3262479
17Б,Красноармейская набережная,180002,57.8086351,28.3262554
4,улица Гоголя,180000,57.8127756,28.3394920
11А,улица Некрасова,180000,57.8127604,28.3389519
2,улица Гоголя,180000,57.8126237,28.3393475
42,улица Свердлова,180000,57.8136198,28.3436500
7В,улица Гоголя,180000,57.8131207,28.3416287
19,улица Льва Толстого,180000,57.8129951,28.3557354
8,улица Металлистов,180000,57.8129905,28.3540919
10,улица Металлистов,180000,57.8125678,28.3537458
17,улица Льва Толстого,180000,57.8131109,28.3549070
23,улица Льва Толстого,180000,57.8127880,28.3572316
21,улица Льва Толстого,180000,57.8128883,28.3564650
14,улица Яна Фабрициуса,180004,57.8068534,28.3490953
27,улица Льва Толстого,180004,57.8125953,28.3589707
39,улица Льва Толстого,180004,57.8120018,28.3631488
37,улица Льва Толстого,180004,57.8121189,28.3622954
35,улица Льва Толстого,180004,57.8122227,28.3614571
29,улица Льва Толстого,180004,57.8125235,28.3595517
50 к3,Октябрьский проспект,180004,57.8112409,28.3612454
25,улица Льва Толстого,180004,57.8126743,28.3583200
52,Октябрьский проспект,180004,57.8105575,28.3589525
50,Октябрьский проспект,180004,57.8110771,28.3571574
50А,Октябрьский проспект,180004,57.8108443,28.3578658
31,улица Льва Толстого,180004,57.8124542,28.3600449
50А,Вокзальная улица,180004,57.8105461,28.3641862
42,улица Льва Толстого,180004,57.8119932,28.3684179
43,улица Льва Толстого,180004,57.8112789,28.3673754
6,Малый переулок,180004,57.8099440,28.3706613
2,Малый переулок,180004,57.8105188,28.3701747
47А,улица Льва Толстого,180004,57.8107888,28.3701493
3,Малый переулок,180004,57.8100951,28.3701536
45Б,улица Льва Толстого,180004,57.8109001,28.3696042
43В,улица Льва Толстого,180004,57.8111272,28.3687162
12,Малый переулок,180004,57.8102287,28.3709993
4,Малый переулок,180004,57.8101233,28.3705567
49,улица Льва Толстого,180004,57.8108996,28.3715651
51,улица Льва Толстого,180004,57.8108035,28.3720481
16,Малый переулок,180004,57.8103853,28.3715944
7,Малый переулок,180004,57.8101888,28.3716105
5,Малый переулок,180004,57.8100637,28.3711797
56,Октябрьский проспект,180004,57.8095380,28.3659380
7,улица Ленина,180000,57.8174979,28.3366708
2,Октябрьский проспект,180000,57.8177197,28.3349948
12,Октябрьский проспект,180000,57.8163970,28.3367207
4,Октябрьский проспект,180000,57.8174233,28.3351761
10А,Октябрьский проспект,180000,57.8164421,28.3362114
1,улица Ленина,180000,57.8180345,28.3351451
8,Октябрьский проспект,180000,57.8168566,28.3355429
3,улица Ленина,180000,57.8178777,28.3356702
23,улица Карла Маркса,180000,57.8180236,28.3425915
17,улица Карла Маркса,180000,57.8180858,28.3418928
19,улица Карла Маркса,180000,57.8180757,28.3422530
62А,Советская улица,180000,57.8100894,28.3383878
8,Пароменская улица,180007,57.8196237,28.3222387
36,Старокоммунальная улица,180016,57.8212963,28.3097683
24А,Красноармейская набережная,180002,57.8034964,28.3229569
24В,Красноармейская набережная,180002,57.8033395,28.3229456
17,переулок Олега Зобова,180002,57.8033083,28.3162063
13,переулок Олега Зобова,180002,57.8048549,28.3168031
17,улица Генерала Маргелова,180016,57.8075669,28.3014904
4,Космическая улица,180002,57.8032108,28.3211545
19,2-я Полковая улица,180002,57.8040465,28.3227864
11,переулок Олега Зобова,180002,57.8038331,28.3180269
9,переулок Олега Зобова,180002,57.8048718,28.3179476
4,улица Комдива Кирсанова,180002,57.8047065,28.3195252
9,улица Комдива Кирсанова,180002,57.8043277,28.3186897
11,Мирная улица,180002,57.8041705,28.3214968
28,улица Шестака,180016,57.8071135,28.3010052
1,Космическая улица,180002,57.8035787,28.3204746
11,улица Комдива Кирсанова,180002,57.8036094,28.3188138
11А,переулок Олега Зобова,180002,57.8043316,28.3172760
19,улица Генерала Маргелова,180016,57.8070486,28.3020349
9,улица Генерала Маргелова,180016,57.8081467,28.3030617
17А,переулок Олега Зобова,180002,57.8052232,28.3162631
24,улица Шестака,180016,57.8075787,28.2994476
6,Космическая улица,180002,57.8032816,28.3201411
11А,Мирная улица,180002,57.8045473,28.3208738
24Б,Красноармейская набережная,180002,57.8031547,28.3227538
11,улица Генерала Маргелова,180016,57.8081119,28.3017485
15,переулок Олега Зобова,180002,57.8027678,28.3169815
13,Мирная улица,180002,57.8032790,28.3215314
19,переулок Олега Зобова,180002,57.8042944,28.3161116
15,улица Генерала Маргелова,180016,57.8075455,28.3024962
7,улица Комдива Кирсанова,180002,57.8051211,28.3187036
9,переулок Машиниста,180004,57.7997711,28.3713867
7,переулок Машиниста,180004,57.7996837,28.3732557
1,переулок Машиниста,180004,57.8005584,28.3733526
5,переулок Машиниста,180004,57.8001173,28.3719022
3,переулок Машиниста,180004,57.8004677,28.3725863
69,улица Максима Горького,180002,57.8070115,28.3237925
10,Госпитальная улица,180002,57.8097504,28.3181350
21Б,Красноармейская набережная,180002,57.8055154,28.3244372
12,Госпитальная улица,180002,57.8097233,28.3176712
23,Красноармейская набережная,180002,57.8044946,28.3238288
66,улица Максима Горького,180002,57.8073232,28.3243577
3А,переулок Олега Зобова,180002,57.8066469,28.3172980
15,улица Молодова,180002,57.8078295,28.3164826
6,Мирная улица,180002,57.8058734,28.3227266
64,улица Максима Горького,180002,57.8074835,28.3240180
8,Госпитальная улица,180002,57.8097765,28.3185814
17,улица Малясова,180002,57.8086862,28.3187235
6/13,переулок Дружбы,180002,57.8088080,28.3200074
18А,Красноармейская набережная,180002,57.8081592,28.3257190
14,улица Молодова,180002,57.8072990,28.3158795
13,улица Молодова,180002,57.8078564,28.3169224
4А,Мирная улица,180002,57.8058317,28.3222657
3А,Мирная улица,180002,57.8069253,28.3206316
71,улица Максима Горького,180002,57.8063379,28.3239718
8,Мирная улица,180002,57.8053862,28.3227491
9/22,переулок Дружбы,180002,57.8083441,28.3192635
5,Казарменный переулок,180002,57.8077037,28.3241901
8,улица Малясова,180002,57.8082696,28.3244853
24,улица Малясова,180002,57.8083143,28.3183853
20Б,Красноармейская набережная,180002,57.8065303,28.3250376
1,Казарменный переулок,180002,57.8078445,28.3253315
21В,Красноармейская набережная,180002,57.8053094,28.3243129
12,улица Малясова,180002,57.8082546,28.3238191
15,2-я Полковая улица,180002,57.8048669,28.3233169
20А,Красноармейская набережная,180002,57.8067708,28.3250556
5,переулок Дружбы,180002,57.8090599,28.3191523
2,Мирная улица,180002,57.8069736,28.3221513
17А,улица Малясова,180002,57.8090117,28.3186763
73,улица Максима Горького,180002,57.8060677,28.3245951
61,улица Максима Горького,180002,57.8086632,28.3211087
6/1,улица Молодова,180002,57.8074637,28.3177274
5,переулок Олега Зобова,180002,57.8063786,28.3177532
1,Мирная улица,180002,57.8079006,28.3213553
5,Мирная улица,180002,57.8060893,28.3214057
3,переулок Олега Зобова,180002,57.8069549,28.3177835
3,Мирная улица,180002,57.8069434,28.3213098
4,переулок Дружбы,180002,57.8093011,28.3198437
5,улица Молодова,180002,57.8079080,28.3190840
7,Мирная улица,180002,57.8060723,28.3207023
69А,улица Максима Горького,180002,57.8066968,28.3238891
26,улица Малясова,180002,57.8082727,28.3177118
60,улица Максима Горького,180002,57.8079306,28.3236072
2/4,переулок Дружбы,180002,57.8097902,28.3198242
7,улица Молодова,180002,57.8079922,28.3184888
1/6,переулок Дружбы,180002,57.8097951,28.3190228
4,улица Малясова,180002,57.8082408,28.3248135
19,улица Малясова,180002,57.8086664,28.3183095
22Б,Красноармейская набережная,180002,57.8047196,28.3235928
11,улица Молодова,180002,57.8078842,28.3173752
4А,Казарменный переулок,180002,57.8075586,28.3249017
68,улица Максима Горького,180002,57.8071227,28.3243572
22,Красноармейская набережная,180002,57.8050135,28.3242752
19А,улица Малясова,180002,57.8090378,28.3182277
4,Казарменный переулок,180002,57.8074936,28.3246375
10,улица Молодова,180002,57.8073613,28.3168120
70,улица Максима Горького,180002,57.8069325,28.3245516
19/2,Красноармейская набережная,180002,57.8075689,28.3254489
12,улица Молодова,180002,57.8073495,28.3163183
7А,Мирная улица,180002,57.8054772,28.3207779
8,улица Молодова,180002,57.8074318,28.3171963
17,2-я Полковая улица,180002,57.8046413,28.3231799
10,Мирная улица,180002,57.8049343,28.3224263
7/15,переулок Дружбы,180002,57.8087132,28.3192129
13,2-я Полковая улица,180002,57.8052414,28.3235592
21,улица Малясова,180002,57.8086381,28.3176389
9,Мирная улица,180002,57.8053556,28.3214814
10,переулок Дружбы,180002,57.8080842,28.3199920
60А,улица Максима Горького,180002,57.8079339,28.3244068
20А,Красноармейская набережная,180002,57.8070979,28.3252090
3,переулок Дружбы,180002,57.8094839,28.3191104
12/1,переулок Дружбы,180002,57.8077302,28.3200994
14,улица Малясова,180002,57.8082395,28.3233459
67,улица Максима Горького,180002,57.8077159,28.3225986
20,Мирожская улица,180002,57.7981585,28.3252550
5,2-я Мирожская улица,180002,57.7985558,28.3261817
33/1,улица Яна Райниса,180002,57.7991230,28.3276359
15,Мирожская набережная,180002,57.7987904,28.3247434
21,Мирожская улица,180002,57.7981315,28.3248339
31,улица Яна Райниса,180002,57.7993450,28.3274628
1,2-я Мирожская улица,180002,57.7985753,28.3270863
10,Мирожская улица,180002,57.7988395,28.3261960
5,Мирожская улица,180002,57.7991018,28.3265172
9,2-я Мирожская улица,180002,57.7982834,28.3256929
29,Мирожская улица,180002,57.7972040,28.3247755
3,2-я Мирожская улица,180002,57.7985592,28.3266591
19,Мирожская улица,180002,57.7983165,28.3248182
3,Мирожская улица,180002,57.7991016,28.3268939
25,Мирожская улица,180002,57.7974260,28.3246025
19,Мирожская набережная,180002,57.7987066,28.3243721
12,Мирожская улица,180002,57.7988244,28.3258094
6,Мирожская улица,180002,57.7988444,28.3270635
22,Мирожская улица,180002,57.7978495,28.3252361
7,Мирожская улица,180002,57.7990910,28.3260949
15,Мирожская улица,180002,57.7991134,28.3256207
19,Народная улица,180016,57.8217593,28.3063600
1,Народная улица,180016,57.8230252,28.3059086
1,улица Максима Горького,180007,57.8256781,28.3159619
1,улица Максима Горького,180007,57.8261577,28.3164481
1,улица Максима Горького,180007,57.8264682,28.3122460
50Т,Октябрьский проспект,180004,57.8101139,28.3621039
50 к1,Октябрьский проспект,180004,57.8116067,28.3586781
23,Коммунальная улица,180016,57.8216319,28.3028489
23,Коммунальная улица,180016,57.8215232,28.3019212
23,Коммунальная улица,180016,57.8216994,28.3017794
23,Коммунальная улица,180016,57.8213267,28.3020219
23,Коммунальная улица,180016,57.8219788,28.3016271
37/2,Октябрьский проспект,180004,57.8096218,28.3597817
4,улица Юрия Гагарина,180004,57.8090368,28.3589602
1,улица Петрова,180019,57.8299935,28.3522456
7А,улица Юрия Гагарина,180004,57.8088714,28.3567022
3,улица Юрия Гагарина,180004,57.8096357,28.3583504
11,улица Юрия Гагарина,180004,57.8082611,28.3570711
7,улица Юрия Гагарина,180004,57.8089625,28.3576924
9,улица Юрия Гагарина,180004,57.8085935,28.3573290
2,Заводская улица,180004,57.8090006,28.3556482
28/10,улица Калинина,180000,57.8066066,28.3360901
3В,улица Некрасова,180000,57.8111255,28.3370919
17,улица Воеводы Шуйского,180000,57.8065062,28.3330696
5,улица Свердлова,180000,57.8060146,28.3352517
21/7,улица Калинина,180000,57.8061558,28.3356754
15,улица Воеводы Шуйского,180000,57.8067834,28.3329645
29,Западная улица,180024,57.8205327,28.2809210
19,Западная улица,180024,57.8191625,28.2805640
49,Коммунальная улица,180024,57.8201337,28.2858362
53,Коммунальная улица,180024,57.8200312,28.2849262
27,Западная улица,180024,57.8203489,28.2797762
31,Западная улица,180024,57.8208336,28.2776445
21,Западная улица,180024,57.8196825,28.2788295
25А,Западная улица,180024,57.8201141,28.2801125
55,Коммунальная улица,180024,57.8205017,28.2841051
51,Коммунальная улица,180024,57.8196310,28.2850412
26,Западная улица,180024,57.8201385,28.2757436
11,улица Байкова,180025,57.8192592,28.2722881
73А,Коммунальная улица,180024,57.8159561,28.2761723
24,Западная улица,180024,57.8199642,28.2762654
9,улица Байкова,180025,57.8190100,28.2733738
16А,Западная улица,180024,57.8172723,28.2768529
17,улица Байкова,180025,57.8183194,28.2709581
1,улица Байкова,180024,57.8196401,28.2760184
6,улица Байкова,180024,57.8178351,28.2750235
15,улица Байкова,180025,57.8187686,28.2712837
71,Коммунальная улица,180024,57.8158317,28.2773320
5,улица Байкова,180025,57.8193089,28.2745150
3,улица Байкова,180025,57.8196462,28.2751121
13,улица Байкова,180025,57.8187042,28.2722411
7,улица Байкова,180025,57.8194604,28.2733658
60,Коммунальная улица,180024,57.8145552,28.2772984
4,Печорская улица,180024,57.8139134,28.2779025
71,Рижский проспект,180024,57.8115029,28.2781514
62,Коммунальная улица,180024,57.8141719,28.2757349
4,Алмазная улица,180022,57.8311647,28.3024260
6,Алмазная улица,180022,57.8306203,28.3006401
2,Алмазная улица,180022,57.8308344,28.3027433
4А,Алмазная улица,180022,57.8309364,28.3018418
121,улица Леона Поземского,180006,57.8397728,28.3058912
8А,улица Ижорского Батальона,180020,57.8364807,28.3041599
111,улица Леона Поземского,180006,57.8358451,28.3113954
5,улица Ижорского Батальона,180020,57.8382917,28.3034841
6,улица Ижорского Батальона,180020,57.8378495,28.3057617
10,улица Ижорского Батальона,180020,57.8369093,28.3033237
126,улица Леона Поземского,180006,57.8398694,28.3004781
116,улица Леона Поземского,180006,57.8378625,28.3067288
124,улица Леона Поземского,180006,57.8400511,28.3023786
6А,улица Ижорского Батальона,180020,57.8371317,28.3058469
22А,улица Леона Поземского,180006,57.8250758,28.3311653
33Б,Октябрьский проспект,180004,57.8099364,28.3570443
6,улица Олега Кошевого,180006,57.8268546,28.3320945
20Б,улица Льва Толстого,180000,57.8129707,28.3591508
20А,улица Льва Толстого,180000,57.8132935,28.3585602
67,улица Плехановский Посад,180000,57.8143226,28.3579334
16,улица Льва Толстого,180000,57.8133439,28.3554904
14,улица Льва Толстого,180000,57.8134515,28.3547566
18,улица Льва Толстого,180000,57.8135443,28.3569168
4А,улица Металлистов,180000,57.8137877,28.3558369
69,улица Плехановский Посад,180004,57.8135489,28.3594964
4,улица Металлистов,180000,57.8142369,28.3556872
6,улица Металлистов,180000,57.8139354,28.3550278
2,улица Металлистов,180000,57.8145753,28.3561105
26,улица Льва Толстого,180004,57.8125574,28.3614807
24,улица Льва Толстого,180004,57.8126781,28.3605976
24А,улица Льва Толстого,180004,57.8127707,28.3611209
22,улица Льва Толстого,180000,57.8127518,28.3599242
71,улица Плехановский Посад,180004,57.8131660,28.3608033
30А,улица Льва Толстого,180004,57.8123676,28.3629494
28,улица Льва Толстого,180004,57.8124414,28.3623334
73,улица Плехановский Посад,180004,57.8131097,28.3620396
75,улица Плехановский Посад,180004,57.8128515,28.3629193
15,Узкий переулок,180004,57.8126847,28.3664465
17,Узкий переулок,180004,57.8129306,28.3663838
19,Узкий переулок,180004,57.8131793,28.3664094
40,улица Льва Толстого,180004,57.8119621,28.3662274
76,улица Плехановский Посад,180004,57.8137603,28.3664094
5,Огородная улица,180004,57.8140164,28.3680745
10,Огородная улица,180004,57.8151529,28.3670853
2/13,улица Декабриста Пущина,180004,57.8151344,28.3677810
11,Огородная улица,180004,57.8147474,28.3677085
3,Огородная улица,180004,57.8142423,28.3679850
8,Огородная улица,180004,57.8149295,28.3673271
13,Огородная улица,180004,57.8153725,28.3673953
6А,Огородная улица,180004,57.8144972,28.3672973
2,Огородная улица,180004,57.8137988,28.3674898
2А,Огородная улица,180004,57.8135428,28.3676478
7,Огородная улица,180004,57.8145345,28.3677621
78,улица Плехановский Посад,180004,57.8145314,28.3665551
32,улица Льва Толстого,180004,57.8122195,28.3644008
93,улица Плехановский Посад,180004,57.8131011,28.3649968
53,улица Труда,180019,57.8366656,28.3487505
51,улица Труда,180019,57.8362747,28.3483142
53,улица Труда,180019,57.8369985,28.3495024
7,улица Новосёлов,180019,57.8334227,28.3539053
3А,улица Новосёлов,180019,57.8329250,28.3537580
2А,улица Олега Кошевого,180006,57.8256157,28.3310122
7,Кузнецкая улица,180021,57.8057437,28.3379160
24,Гражданская улица,180017,57.8046826,28.3385355
53/15,Советская улица,180017,57.8070715,28.3395411
13А,Кузнецкая улица,180021,57.8058836,28.3393544
27,Гражданская улица,180017,57.8046375,28.3373613
23,Гражданская улица,180017,57.8052804,28.3389843
9,Кузнецкая улица,180021,57.8056430,28.3382693
13,Кузнецкая улица,180021,57.8065606,28.3390537
23,Коммунальная улица,180016,57.8216857,28.3021279
5,улица Герцена,180006,57.8219769,28.3345838
6,улица Герцена,180006,57.8222405,28.3341310
1А,Ольгинская набережная,180007,57.8245051,28.3205731
1В,Ольгинская набережная,180007,57.8240793,28.3211911
1Б,Ольгинская набережная,180007,57.8243792,28.3203738
2В,улица Максима Горького,180007,57.8232462,28.3202111
11,Рабочая улица,180017,57.8038138,28.3391976
17,Гражданская улица,180017,57.8063834,28.3423244
37,Ротная улица,180004,57.8025912,28.3468926
34,улица Металлистов,180004,57.8041964,28.3456269
12,Вокзальная улица,180004,57.8005282,28.3517481
73А,Советская улица,180017,57.8051900,28.3424342
28,улица Металлистов,180004,57.8052197,28.3468408
3А/13,улица Яна Фабрициуса,180017,57.8069709,28.3445548
16,Гражданская улица,180017,57.8053662,28.3411106
22,Гражданская улица,180017,57.8043034,28.3394975
12,Гражданская улица,180017,57.8058377,28.3434319
20,Гражданская улица,180017,57.8050245,28.3398326
34,Ротная улица,180004,57.8029669,28.3483863
7,Рабочая улица,180017,57.8033937,28.3414583
30,Вокзальная улица,180004,57.8030061,28.3582039
7,Стахановская улица,180004,57.8050674,28.3477168
5,улица 23 Июля,180004,57.8023806,28.3556152
8,улица 23 Июля,180004,57.8029993,28.3507946
7,улица 23 Июля,180004,57.8028872,28.3555267
71/31,Советская улица,180017,57.8061104,28.3413602
77,Советская улица,180017,57.8046545,28.3429315
4,улица 23 Июля,180004,57.8023573,28.3521455
79,Советская улица,180017,57.8044220,28.3430516
77А,Советская улица,180017,57.8042906,28.3417896
75,Советская улица,180017,57.8048975,28.3427087
30А,улица Металлистов,180004,57.8041268,28.3461028
81,Советская улица,180017,57.8040762,28.3434097
14,Гражданская улица,180017,57.8049691,28.3419792
37А,Ротная улица,180017,57.8032211,28.3466815
94,Советская улица,180017,57.8054174,28.3428636
31,Ротная улица,180004,57.8040112,28.3482190
15,Стахановская улица,180004,57.8041745,28.3523111
44,Ротная улица,180004,57.8017844,28.3463220
27,улица Металлистов,180017,57.8051228,28.3455557
22,Вокзальная улица,180004,57.8013089,28.3538061
15А,Гражданская улица,180017,57.8066488,28.3430521
12А,Гражданская улица,180017,57.8058061,28.3426398
32А,улица Металлистов,180004,57.8041378,28.3471154
18,Гражданская улица,180017,57.8046940,28.3409538
32,улица Металлистов,180004,57.8044919,28.3459241
9,Стахановская улица,180004,57.8046303,28.3483632
26,Гражданская улица,180017,57.8040076,28.3383719
30,улица Металлистов,180004,57.8049477,28.3463602
9,улица 23 Июля,180004,57.8032677,28.3539611
11,Стахановская улица,180017,57.8044280,28.3491203
1,Стахановская улица,180017,57.8057015,28.3448759
104,Советская улица,180017,57.8035962,28.3456618
10,улица 23 Июля,180004,57.8031461,28.3501566
100,Советская улица,180017,57.8044172,28.3441110
16А,Вокзальная улица,180004,57.8015104,28.3532543
102,Советская улица,180017,57.8037891,28.3443893
6,улица 23 Июля,180004,57.8028901,28.3514817
13,улица 23 Июля,180004,57.8040173,28.3504020
12,улица 23 Июля,180004,57.8034312,28.3491926
106,Советская улица,180017,57.8027778,28.3455771
20А,Гражданская улица,180017,57.8043388,28.3403941
89,Стахановская улица,180004,57.8030796,28.3564754
11,улица 23 Июля,180004,57.8037443,28.3514678
55,Советская улица,180017,57.8066733,28.3406939
29,улица Металлистов,180017,57.8046247,28.3450836
21,Гражданская улица,180017,57.8056193,28.3401811
108,Советская улица,180017,57.8004935,28.3485836
30А,улица Металлистов,180004,57.8045312,28.3467012
14,Вокзальная улица,180004,57.8007387,28.3527144
33,Ротная улица,180004,57.8036036,28.3478017
36,улица Металлистов,180004,57.8038902,28.3451122
20,Вокзальная улица,180004,57.8016758,28.3556595
13,Стахановская улица,180004,57.8042691,28.3498848
7,Верхне-Береговая улица,180006,57.8228959,28.3403661
5,Верхне-Береговая улица,180006,57.8225371,28.3400028
7,улица Лепешинского,180004,57.7939373,28.3498997
14,1-я Посёлочная улица,180004,57.7975234,28.3491230
12,улица Лепешинского,180004,57.7949081,28.3492083
8,улица Лепешинского,180004,57.7946395,28.3476689
54,улица Советской Армии,180004,57.7906856,28.3496538
9А,Солнечная улица,180004,57.7946635,28.3521479
7,улица Шелгунова,180004,57.7953997,28.3478150
9/2,улица Шелгунова,180004,57.7958773,28.3489270
14,Солнечная улица,180004,57.7946069,28.3534510
7,Солнечная улица,180004,57.7949701,28.3518036
50А,улица Советской Армии,180004,57.7914824,28.3498897
14,улица Лепешинского,180004,57.7944029,28.3498581
4,1-я Посёлочная улица,180004,57.7968278,28.3460750
10,1-я Посёлочная улица,180004,57.7971327,28.3479866
8,1-я Посёлочная улица,180004,57.7971473,28.3471442
15,1-я Посёлочная улица,180004,57.7966486,28.3485547
10,улица Лепешинского,180004,57.7946933,28.3483735
16А,улица Лепешинского,180004,57.7949869,28.3500101
54Б,улица Советской Армии,180004,57.7888746,28.3517571
15,улица Шелгунова,180004,57.7955981,28.3500308
5,Солнечная улица,180004,57.7953335,28.3513108
13,1-я Посёлочная улица,180004,57.7959894,28.3471952
12,1-я Посёлочная улица,180004,57.7974452,28.3486435
91А,Юбилейная улица,180016,57.8211182,28.2935258
39,Коммунальная улица,180016,57.8199123,28.2945823
23,Коммунальная улица,180016,57.8206915,28.3004467
23,Коммунальная улица,180016,57.8215438,28.2998875
23,Коммунальная улица,180016,57.8219649,28.3001950
23,Коммунальная улица,180016,57.8209613,28.2998410
23,Коммунальная улица,180016,57.8209867,28.3002121
30,улица Рокоссовского,180025,57.8145749,28.2717134
81,Коммунальная улица,180025,57.8137359,28.2711754
34,улица Рокоссовского,180025,57.8150000,28.2699837
32,улица Рокоссовского,180025,57.8142213,28.2707092
79,Коммунальная улица,180025,57.8140995,28.2717515
46,улица Рокоссовского,180025,57.8167021,28.2688383
40,улица Рокоссовского,180025,57.8158560,28.2691102
38А,улица Рокоссовского,180025,57.8159082,28.2706120
38,улица Рокоссовского,180025,57.8161967,28.2703377
36А,улица Рокоссовского,180025,57.8151933,28.2712833
36,улица Рокоссовского,180025,57.8154779,28.2709837
4,улица Шестака,180016,57.8122472,28.2916779
1,улица Майора Доставалова,180016,57.8112558,28.2951124
38,Юбилейная улица,180016,57.8119326,28.2951823
12,улица Шестака,180016,57.8099320,28.2931674
7,улица Майора Доставалова,180016,57.8101053,28.2940091
10А,улица Шестака,180016,57.8110227,28.2923037
10,улица Шестака,180016,57.8106021,28.2924377
8,улица Шестака,180016,57.8111520,28.2928650
4,улица Майора Доставалова,180016,57.8103628,28.2962919
2,улица Майора Доставалова,180016,57.8109700,28.2959932
36А,Юбилейная улица,180016,57.8108640,28.2970657
32Б,Юбилейная улица,180016,57.8106721,28.2977424
31Б,улица Леона Поземского,180006,57.8261264,28.3295155
12,улица Олега Кошевого,180006,57.8280077,28.3329338
35,Первомайская улица,180006,57.8272462,28.3341884
19А,Школьная улица,180006,57.8258020,28.3353580
51,улица Леона Поземского,180006,57.8273109,28.3256481
5,Застенная улица,180021,57.8253021,28.3428531
8А,Застенная улица,180006,57.8259409,28.3416670
7,Застенная улица,180006,57.8259749,28.3420763
1Б,улица Воровского,180000,57.8201116,28.3385406
10А,Стахановская улица,180004,57.8046589,28.3522050
16,Застенная улица,180006,57.8291997,28.3325694
121А,улица Военный городок-3,180005,57.7906662,28.4100915
96,Кресты,180005,57.7942474,28.4150100
102,Кресты,180005,57.7950290,28.4141035
98,Кресты,180005,57.7947608,28.4151073
115,Кресты,180005,57.7945247,28.4138814
91,Кресты,180005,57.7937367,28.4142885
103,Кресты,180005,57.7930592,28.4139053
120,Ленинградское шоссе,180005,57.7913450,28.4121471
107,Кресты,180005,57.7923706,28.4131711
136А,улица Военный городок-3,180005,57.7895976,28.4102789
136,улица Военный городок-3,180005,57.7901286,28.4106485
88,Крестовское шоссе,180005,57.7959582,28.4134598
25,Гражданская улица,180017,57.8050264,28.3379685
5,Кузнецкая улица,180021,57.8053293,28.3374542
11,Кузнецкая улица,180021,57.8061792,28.3382729
18,Бутырская улица,180002,57.7970742,28.3191166
10А,1-й Бутырский переулок,180002,57.7969703,28.3211147
2А,Полковая улица,180002,57.8026964,28.3218502
16,1-й Бутырский переулок,180002,57.7971669,28.3218300
12А,1-й Бутырский переулок,180002,57.7970653,28.3214180
18,Нововойсковая улица,180002,57.7982131,28.3150451
25,Красноармейская набережная,180002,57.8028049,28.3224496
16А,1-й Бутырский переулок,180002,57.7973988,28.3215783
6,1-й Бутырский переулок,180002,57.7965052,28.3207278
3,Подвишенская улица,180016,57.8239782,28.2949725
68,Юбилейная улица,180024,57.8216321,28.2913841
34А,Вокзальная улица,180004,57.8034749,28.3586323
21,Красноармейская набережная,180002,57.8059910,28.3248505
14А,Новгородская улица,180014,57.8168792,28.3938693
20,Новгородская улица,180014,57.8178580,28.3945510
14Б,Новгородская улица,180014,57.8165293,28.3934090
18,Новгородская улица,180014,57.8173028,28.3946907
46,улица Николая Васильева,180014,57.8216026,28.3921766
119/33,улица Советской Армии,180004,57.7663424,28.3647434
117,улица Советской Армии,180004,57.7675883,28.3617048
11,улица Шестака,180016,57.8083833,28.2944291
33,улица Шестака,180016,57.8067920,28.2999110
18,улица Шестака,180016,57.8080840,28.2976899
23,улица Генерала Маргелова,180016,57.8061490,28.3001390
115В,улица Леона Поземского,180006,57.8385910,28.3069623
45,улица 23 Июля,180004,57.8037247,28.3491410
111,Советская улица,180017,57.8014775,28.3451255
9,Новгородская улица,180014,57.8163793,28.3960579
69А,улица Николая Васильева,180014,57.8225674,28.3973462
7,Новгородская улица,180014,57.8159154,28.3970432
28,Зональное шоссе,180014,57.8128472,28.3965083
75Б,улица Николая Васильева,180014,57.8235486,28.3995053
73А,улица Николая Васильева,180014,57.8222245,28.3994620
71А,улица Николая Васильева,180014,57.8231937,28.4000950
71Б,улица Николая Васильева,180014,57.8228267,28.4006418
69Б,улица Николая Васильева,180014,57.8220644,28.3983154
71Б,улица Николая Васильева,180014,57.8233606,28.4011536
71,улица Николая Васильева,180014,57.8232260,28.3989243
75А,улица Николая Васильева,180014,57.8238695,28.4003302
77А,улица Николая Васильева,180014,57.8239037,28.4016450
77,улица Николая Васильева,180014,57.8243873,28.4006514
79,улица Николая Васильева,180014,57.8249901,28.4022531
65А,улица Николая Васильева,180014,57.8221268,28.3969133
95,улица Льва Толстого,180014,57.8129917,28.3852727
8,Индустриальная улица,180021,57.8247845,28.3651398
16,Вокзальная улица,180004,57.8009945,28.3534143
118,Советская улица,180004,57.8005166,28.3460249
57,улица Труда,180019,57.8363419,28.3503270
38,улица Новосёлов,180019,57.8341077,28.3523928
34,улица Новосёлов,180019,57.8336647,28.3509071
30,улица Новосёлов,180019,57.8325378,28.3524196
55,улица Труда,180019,57.8353424,28.3506442
36,улица Новосёлов,180019,57.8335180,28.3530533
40,улица Новосёлов,180019,57.8341349,28.3511673
41,улица Труда,180019,57.8337722,28.3467252
2,Текстильная улица,180019,57.8330288,28.3459281
32,улица Новосёлов,180019,57.8331181,28.3517930
8,Текстильная улица,180019,57.8332855,28.3485754
44,улица Новосёлов,180019,57.8348582,28.3524224
10,Текстильная улица,180019,57.8324620,28.3476568
43,улица Труда,180019,57.8345906,28.3477987
4,Текстильная улица,180019,57.8332627,28.3475791
12,Текстильная улица,180019,57.8326829,28.3487362
55,улица Труда,180019,57.8356996,28.3502411
45,улица Труда,180019,57.8350230,28.3486791
6,Текстильная улица,180019,57.8337866,28.3487974
18,Текстильная улица,180019,57.8320831,28.3506203
47,улица Труда,180019,57.8349557,28.3464272
14,Текстильная улица,180019,57.8331178,28.3499763
49,улица Труда,180019,57.8352993,28.3493476
42,улица Новосёлов,180019,57.8343763,28.3534366
49,улица Труда,180019,57.8347970,28.3495623
46,улица Новосёлов,180019,57.8352265,28.3538185
1Б,Текстильная улица,180019,57.8330591,28.3442633
52,улица Новосёлов,180019,57.8350961,28.3510071
1,Текстильная улица,180019,57.8326160,28.3456586
48,улица Новосёлов,180019,57.8360322,28.3531421
16,Текстильная улица,180019,57.8336474,28.3501193
49А,улица Труда,180019,57.8359363,28.3490261
59,улица Труда,180019,57.8365263,28.3514814
50,улица Новосёлов,180019,57.8356291,28.3519943
16А,Текстильная улица,180019,57.8340735,28.3500468
27,2-я Береговая улица,180020,57.8298957,28.2883440
26,2-я Береговая улица,180020,57.8294509,28.2887186
26,Красногорская улица,180021,57.8173486,28.3586455
4,Чудская улица,180020,57.8308735,28.2910229
23,2-я Береговая улица,180020,57.8296021,28.2877849
18А,Петропавловская улица,180020,57.8288524,28.2906140
29,2-я Береговая улица,180020,57.8298587,28.2887847
4,Чудская улица,180020,57.8306334,28.2908133
12,улица Плехановский Посад,180000,57.8174283,28.3523808
25,2-я Береговая улица,180020,57.8298051,28.2879498
21,2-я Береговая улица,180020,57.8293770,28.2878751
19,Подвишенская улица,180016,57.8244304,28.2989541
22,Подвишенская улица,180016,57.8242836,28.2993304
25,Подвишенская улица,180016,57.8242508,28.3002126
25А,Подвишенская улица,180016,57.8242075,28.3007006
21,Подвишенская улица,180016,57.8239164,28.2988437
3,Петропавловская улица,180020,57.8306396,28.2893810
18,2-я Береговая улица,180020,57.8290528,28.2894551
12,2-я Береговая улица,180020,57.8288370,28.2898928
18,улица Яна Райниса,180002,57.7993713,28.3281553
17,Великорецкая улица,180002,57.7993776,28.3284684
65,улица Яна Райниса,180002,57.7816605,28.3447009
54,улица Труда,180019,57.8408821,28.3494793
20,улица Алтаева,180019,57.8328053,28.3572676
22,улица Алтаева,180019,57.8308850,28.3593861
68,Инженерная улица,180019,57.8314303,28.3590570
4,улица Алтаева,180019,57.8311468,28.3558289
5,улица Новосёлов,180019,57.8331078,28.3556472
17,улица Новосёлов,180019,57.8347754,28.3559431
72,Инженерная улица,180019,57.8322425,28.3600436
8,улица Алтаева,180019,57.8306635,28.3568936
16,улица Алтаева,180019,57.8312115,28.3576591
86А,Инженерная улица,180019,57.8344368,28.3575161
3,улица Новосёлов,180019,57.8328352,28.3546439
17,улица Новосёлов,180019,57.8348417,28.3569197
76,Инженерная улица,180019,57.8328219,28.3580573
74,Инженерная улица,180019,57.8326603,28.3590826
9,улица Новосёлов,180019,57.8336312,28.3551250
78,Инженерная улица,180019,57.8331563,28.3598116
15,улица Новосёлов,180019,57.8340443,28.3544969
70,Инженерная улица,180019,57.8320950,28.3588396
90,Инженерная улица,180019,57.8357536,28.3576596
88,Инженерная улица,180019,57.8348431,28.3587833
86,Инженерная улица,180019,57.8349199,28.3576270
15,улица Новосёлов,180019,57.8347116,28.3544883
19,улица Новосёлов,180019,57.8354224,28.3554732
90Б,Инженерная улица,180019,57.8355600,28.3583776
6,улица Алтаева,180019,57.8319636,28.3556144
13,улица Новосёлов,180019,57.8341875,28.3558991
11А,улица Новосёлов,180019,57.8332405,28.3571844
14,улица Алтаева,180019,57.8322886,28.3564618
2,улица Алтаева,180019,57.8312090,28.3541078
11,улица Новосёлов,180019,57.8334403,28.3565759
90А,Инженерная улица,180019,57.8356697,28.3570056
88,Инженерная улица,180019,57.8343126,28.3592435
78,Инженерная улица,180019,57.8336392,28.3595489
80,Инженерная улица,180019,57.8333706,28.3586224
21,улица Новосёлов,180019,57.8353476,28.3567801
84,Инженерная улица,180019,57.8344868,28.3582390
12,улица Алтаева,180019,57.8315902,28.3566328
5А,улица Новосёлов,180019,57.8327285,28.3554841
90В,Инженерная улица,180019,57.8358169,28.3581888
66,Инженерная улица,180019,57.8313445,28.3602974
82,Инженерная улица,180019,57.8338184,28.3579218
18,улица Алтаева,180019,57.8320165,28.3574603
1,Комиссаровский переулок,180000,57.8158395,28.3435596
5,Сиреневый бульвар,180019,57.8369448,28.3405499
8,Звёздная улица,180019,57.8381375,28.3441395
10,Звёздная улица,180019,57.8388221,28.3443059
11,проспект Энтузиастов,180019,57.8354885,28.3407978
11,Сиреневый бульвар,180019,57.8380676,28.3395280
12,Звёздная улица,180019,57.8388720,28.3428813
13,Сиреневый бульвар,180019,57.8379009,28.3404857
16,Звёздная улица,180019,57.8388365,28.3414557
17,Сиреневый бульвар,180019,57.8377034,28.3418524
18,Звёздная улица,180019,57.8395857,28.3415982
2,Звёздная улица,180019,57.8381699,28.3463293
3,Сиреневый бульвар,180019,57.8366208,28.3393584
4,Звёздная улица,180019,57.8380564,28.3451739
48,улица Олега Кошевого,180019,57.8345439,28.3396169
5А,проспект Энтузиастов,180019,57.8361939,28.3434459
7,Сиреневый бульвар,180019,57.8374078,28.3398007
15,Сиреневый бульвар,180019,57.8390627,28.3390964
6,Звёздная улица,180019,57.8374671,28.3452870
20,Звёздная улица,180019,57.8393434,28.3403887
13,Звёздная улица,180019,57.8392185,28.3456658
15,Звёздная улица,180019,57.8396233,28.3443763
9,улица Юности,180019,57.8431939,28.3448559
19,Звёздная улица,180019,57.8400069,28.3429706
21,Звёздная улица,180019,57.8404527,28.3417446
23,улица Декабристов,180004,57.7950303,28.3714315
41А,улица Ижорского Батальона,180020,57.8373478,28.2862001
10,улица Алексея Алёхина,180020,57.8381459,28.2895686
12,улица Алексея Алёхина,180020,57.8396290,28.2896784
15,Техническая улица,180020,57.8394294,28.2916262
24,улица Алексея Алёхина,180020,57.8414194,28.2974316
35,улица Ижорского Батальона,180020,57.8378207,28.2886048
37,улица Ижорского Батальона,180020,57.8374675,28.2879636
39,улица Ижорского Батальона,180020,57.8372018,28.2872890
43,улица Ижорского Батальона,180020,57.8380749,28.2865162
45,улица Ижорского Батальона,180020,57.8387860,28.2865344
47,улица Ижорского Батальона,180020,57.8383569,28.2852896
49,улица Ижорского Батальона,180020,57.8388633,28.2855242
8,улица Алексея Алёхина,180020,57.8384247,28.2902833
20,улица Алексея Алёхина,180020,57.8402789,28.2939092
5,улица Алексея Алёхина,180020,57.8369249,28.2916971
2А,Мирная улица,180002,57.8070200,28.3226848
34А,Бутырская улица,180002,57.7943285,28.3234410
9,улица Молодова,180002,57.8079125,28.3178219
7,Милевский переулок,180021,57.8261976,28.3600483
5,Милевский переулок,180021,57.8256619,28.3591518
10/6,Инженерная улица,180021,57.8243359,28.3626303
14,Инженерная улица,180021,57.8254974,28.3624793
16А,Инженерная улица,180021,57.8252473,28.3619348
2А,Индустриальная улица,180021,57.8241366,28.3588064
2Б,Индустриальная улица,180021,57.8245569,28.3590668
4А,улица Петрова,180019,57.8295098,28.3551044
16,Инженерная улица,180021,57.8255622,28.3615492
1,улица Алтаева,180019,57.8297193,28.3562021
1/14,переулок Залита,180021,57.8213688,28.3569303
11,улица Алтаева,180019,57.8300068,28.3590818
1А,улица Алтаева,180019,57.8301463,28.3563192
28,улица Крупской,180021,57.8281815,28.3588944
3,Индустриальная улица,180021,57.8234588,28.3626328
3А,Индустриальная улица,180021,57.8229128,28.3628193
4,Инженерная улица,180021,57.8226686,28.3641997
4А,Инженерная улица,180021,57.8224314,28.3640798
62,Инженерная улица,180019,57.8295763,28.3607032
62А,Инженерная улица,180019,57.8286497,28.3598944
7,улица Алтаева,180019,57.8291325,28.3579114
8,Инженерная улица,180021,57.8233137,28.3637790
9,улица Алтаева,180019,57.8289755,28.3566897
1А,Индустриальная улица,180021,57.8232246,28.3614717
3,улица Алтаева,180019,57.8298935,28.3570354
1А,Индустриальная улица,180021,57.8229232,28.3617196
5,улица Алтаева,180019,57.8298465,28.3578165
3Б,Алмазная улица,180022,57.8316647,28.3026401
5,Алмазная улица,180022,57.8314038,28.3009942
5А,Алмазная улица,180022,57.8311489,28.3003606
7,Алмазная улица,180022,57.8312953,28.2985205
9 к1,Алмазная улица,180022,57.8302881,28.2963423
1А,Алмазная улица,180022,57.8326064,28.3076317
11А,улица Воровского,180000,57.8213450,28.3440395
12,улица Красных Партизан,180000,57.8202159,28.3412946
5,улица Воровского,180000,57.8208201,28.3428029
8,улица Красных Партизан,180000,57.8197553,28.3421452
9,улица Воровского,180000,57.8212625,28.3435521
33,улица Гоголя,180000,57.8182122,28.3463304
39,улица Гоголя,180000,57.8188719,28.3472827
45,улица Гоголя,180000,57.8198408,28.3488071
22,Октябрьский проспект,180000,57.8155435,28.3400798
25А,улица Некрасова,180000,57.8169338,28.3434773
26А,улица Гоголя,180000,57.8170487,28.3443563
64,улица Свердлова,180000,57.8184184,28.3490568
27А,улица Некрасова,180000,57.8172693,28.3437799
7,Комиссаровский переулок,180000,57.8152582,28.3456371
1,улица Александра Невского,180006,57.8284894,28.3243383
127,Ипподромная улица,180006,57.8328659,28.3330422
129,Ипподромная улица,180006,57.8327032,28.3321898
133Б,Ипподромная улица,180006,57.8316953,28.3290257
4,улица Гущина,180006,57.8311765,28.3293858
6А,Гдовская улица,180006,57.8318711,28.3329639
65,улица Леона Поземского,180006,57.8295928,28.3215944
26Г,улица Труда,180019,57.8307826,28.3403100
129А,Ипподромная улица,180006,57.8325512,28.3314278
8,улица Челнокова,180021,57.8289382,28.3487208
9,Текстильная улица,180019,57.8312804,28.3494825
13,Автозаводская улица,180019,57.8280335,28.3427368
19,Автозаводская улица,180019,57.8285175,28.3437110
1А,Автозаводская улица,180019,57.8267285,28.3403233
26А,улица Труда,180019,57.8317294,28.3408780
3,Автозаводская улица,180019,57.8271930,28.3412054
34,улица Труда,180019,57.8322734,28.3422266
36,улица Труда,180019,57.8325728,28.3425958
38,улица Труда,180019,57.8329093,28.3428229
5,Автозаводская улица,180019,57.8273506,28.3416054
7,Автозаводская улица,180019,57.8275903,28.3419282
70,улица Белинского,180019,57.8324487,28.3416541
72,улица Белинского,180019,57.8332629,28.3398615
72А,улица Белинского,180019,57.8332970,28.3391671
81А,улица Белинского,180019,57.8324444,28.3407757
99,Ипподромная улица,180019,57.8290041,28.3430987
29,улица Труда,180019,57.8304861,28.3417246
27,улица Труда,180019,57.8281915,28.3404234
25Г,улица Труда,180006,57.8275430,28.3384887
25В,улица Труда,180019,57.8272694,28.3383411
27,улица Труда,180019,57.8278863,28.3390106
13,Инженерная улица,180021,57.8254169,28.3641004
13А,Инженерная улица,180021,57.8265485,28.3633118
17,Инженерная улица,180021,57.8274115,28.3628310
75,улица Труда,180019,57.8395125,28.3519572
100,Инженерная улица,180019,57.8394112,28.3557208
5,Звёздная улица,180019,57.8370127,28.3524288
7,Звёздная улица,180019,57.8373342,28.3508309
73,улица Труда,180019,57.8387103,28.3521490
73А,улица Труда,180019,57.8382950,28.3519183
67,улица Труда,180019,57.8379318,28.3498880
1,Подвишенская улица,180016,57.8240508,28.2936416
7А,Подвишенская улица,180016,57.8236839,28.2962710
30,улица Плехановский Посад,180000,57.8156351,28.3538816
10,улица Майора Доставалова,180016,57.8082272,28.2933103
13,улица Шестака,180016,57.8078230,28.2946855
12,улица Майора Доставалова,180016,57.8076345,28.2936879
17,улица Шестака,180016,57.8079860,28.2957874
21,улица Шестака,180016,57.8074858,28.2971731
25,улица Шестака,180016,57.8071769,28.2986134
30А,Юбилейная улица,180016,57.8097766,28.2978502
32А,Юбилейная улица,180016,57.8103354,28.2986120
15,улица Шестака,180016,57.8072669,28.2949155
36,Юбилейная улица,180016,57.8114161,28.2970759
19,улица Шестака,180016,57.8072978,28.2959378
74,Рижский проспект,180016,57.8128065,28.2921185
92,Инженерная улица,180019,57.8363660,28.3568993
44А,улица Рокоссовского,180025,57.8166873,28.2698697
1,улица Некрасова,180000,57.8104419,28.3368895
16,Октябрьский проспект,180000,57.8158467,28.3381327
18А,улица Шестака,180016,57.8090907,28.2985232
16,улица Шестака,180016,57.8086112,28.2979138
20,улица Шестака,180016,57.8081167,28.2989378
26,улица Шестака,180016,57.8079967,28.3000128
23,улица Шестака,180016,57.8068091,28.2976446
31,улица Шестака,180016,57.8060584,28.2991034
27,улица Шестака,180016,57.8063299,28.2981337
32,Юбилейная улица,180016,57.8109294,28.2987446
29,улица Шестака,180016,57.8066347,28.2988820
2,Дачная улица,180002,57.7943869,28.3340204
16,улица Плехановский Посад,180000,57.8162377,28.3516584
18,улица Плехановский Посад,180000,57.8161539,28.3520373
33,улица Льва Толстого,180004,57.8123422,28.3607343
36,улица Плехановский Посад,180000,57.8153750,28.3548379
50А,улица Плехановский Посад,180000,57.8150163,28.3571985
38А,улица Плехановский Посад,180000,57.8152850,28.3552585
38,улица Плехановский Посад,180000,57.8153339,28.3550318
41А,Рижский проспект,180016,57.8168164,28.3022729
70,улица Леона Поземского,180006,57.8299090,28.3195417
34А,улица Рокоссовского,180025,57.8153805,28.2703542
8,улица Киселёва,180007,57.8198800,28.3124014
87,улица Леона Поземского,180006,57.8310312,28.3189298
83А,улица Леона Поземского,180006,57.8309242,28.3207433
93,улица Леона Поземского,180006,57.8317637,28.3178057
89,улица Леона Поземского,180006,57.8314123,28.3187698
83,улица Леона Поземского,180006,57.8306184,28.3196269
81,улица Леона Поземского,180006,57.8306966,28.3202552
91,улица Леона Поземского,180006,57.8315544,28.3180748
18А,улица Белинского,180006,57.8340617,28.3236954
85,улица Леона Поземского,180006,57.8309307,28.3195082
3,Текстильный переулок,180006,57.8323418,28.3182732
7,Текстильный переулок,180006,57.8329088,28.3190431
6,улица Богданова,180006,57.8324446,28.3224873
8,Торошинская улица,180006,57.8329230,28.3237301
70А,Рижский проспект,180016,57.8133975,28.2926506
40А,Юбилейная улица,180016,57.8124154,28.2934279
40,Юбилейная улица,180016,57.8123579,28.2937071
70,Рижский проспект,180016,57.8135062,28.2931297
12,Стахановская улица,180004,57.8046386,28.3529008
3,Травяная улица,180006,57.8305517,28.3223346
3,Застенный переулок,180006,57.8302948,28.3312835
11,улица Александра Матросова,180006,57.8307719,28.3279563
12,Застенный переулок,180006,57.8308117,28.3293163
13,улица Александра Невского,180006,57.8300759,28.3321824
14,улица Александра Невского,180006,57.8299451,28.3327113
14А,улица Александра Невского,180006,57.8297807,28.3322156
15,улица Александра Матросова,180006,57.8312609,28.3277648
15,улица Александра Невского,180006,57.8298257,28.3330696
15,улица Гущина,180006,57.8306826,28.3287214
16,улица Гущина,180006,57.8309610,28.3290075
17,улица Александра Матросова,180006,57.8314340,28.3276722
17,улица Александра Невского,180006,57.8295452,28.3338383
18,улица Александра Невского,180006,57.8293859,28.3343339
19/14,улица Александра Невского,180006,57.8292965,28.3346750
2,Невский переулок,180006,57.8293674,28.3259986
2,улица Александра Матросова,180006,57.8295498,28.3278682
2,улица Александра Невского,180006,57.8290522,28.3257846
23,Ветряная улица,180006,57.8305376,28.3232682
21,улица Гущина,180006,57.8310101,28.3305883
21,Ветряная улица,180006,57.8307532,28.3230506
26,Совхозная улица,180006,57.8290321,28.3275932
2А,улица Александра Матросова,180006,57.8292859,28.3281038
3,Гдовская улица,180006,57.8306154,28.3329695
3,Невский переулок,180006,57.8294401,28.3263446
3,улица Александра Матросова,180006,57.8298942,28.3282624
4,Застенный переулок,180006,57.8302276,28.3305494
4,Невский переулок,180006,57.8295211,28.3267481
4,улица Александра Невского,180006,57.8292333,28.3270414
9,Застенный переулок,180006,57.8306971,28.3303083
5,Невский переулок,180006,57.8299576,28.3271980
5,улица Александра Матросова,180006,57.8301301,28.3281947
5,улица Александра Невского,180006,57.8293944,28.3275435
6,Застенный переулок,180006,57.8303635,28.3302793
6,Невский переулок,180006,57.8294733,28.3254108
7,улица Александра Матросова,180006,57.8303363,28.3281158
8,Застенный переулок,180006,57.8304955,28.3299350
8,Невский переулок,180006,57.8295812,28.3258825
8,улица Александра Матросова,180006,57.8298772,28.3278666
8А,улица Александра Матросова,180006,57.8301314,28.3277657
9,улица Александра Матросова,180006,57.8305512,28.3279908
1,Травяная улица,180006,57.8303470,28.3225954
12,улица Александра Невского,180006,57.8302376,28.3317568
10,улица Белинского,180006,57.8331043,28.3203895
11,улица Белинского,180006,57.8329150,28.3207058
12,Птичья улица,180006,57.8320251,28.3203698
13,Ветряная улица,180006,57.8324698,28.3211964
13,Птичья улица,180006,57.8320683,28.3209273
15,Птичья улица,180006,57.8318215,28.3212774
155,Ипподромная улица,180006,57.8307966,28.3224966
17,Птичья улица,180006,57.8316539,28.3216102
2,Текстильный переулок,180006,57.8322043,28.3172817
20,Ветряная улица,180006,57.8326845,28.3213988
20,Птичья улица,180006,57.8313007,28.3213035
21,Птичья улица,180006,57.8312848,28.3219806
22,Птичья улица,180006,57.8309952,28.3214155
22А,Ветряная улица,180006,57.8324573,28.3215893
26/2,Ветряная улица,180006,57.8321539,28.3218213
28,Ветряная улица,180006,57.8317178,28.3223861
28/1,Ветряная улица,180006,57.8319664,28.3220661
7,Птичья улица,180006,57.8325662,28.3204941
8,Птичья улица,180006,57.8322419,28.3201744
89А,улица Леона Поземского,180006,57.8314783,28.3193548
9,Птичья улица,180006,57.8324025,28.3206478
8,улица Олега Кошевого,180006,57.8272219,28.3319052
1,Ветряная улица,180006,57.8340162,28.3193960
1,Торошинская улица,180006,57.8321703,28.3248219
1,улица Белинского,180006,57.8318557,28.3184061
10,Ветряная улица,180006,57.8335503,28.3204625
10,улица Александра Матросова,180006,57.8300426,28.3308621
10А,улица Александра Матросова,180006,57.8300162,28.3302110
11,Садовый переулок,180006,57.8333871,28.3254583
11,Торошинская улица,180006,57.8333553,28.3239503
11,улица Богданова,180006,57.8328628,28.3252850
11А,Садовый переулок,180006,57.8336069,28.3253708
12,улица Богданова,180006,57.8330020,28.3247169
128,Ипподромная улица,180006,57.8326907,28.3299528
12А,улица Белинского,180006,57.8334754,28.3212796
13,Торошинская улица,180006,57.8335433,28.3238189
13,улица Богданова,180006,57.8329386,28.3257161
130,Ипподромная улица,180006,57.8326208,28.3295629
132,Ипподромная улица,180006,57.8325673,28.3291975
136,Ипподромная улица,180006,57.8324418,28.3283141
138,Ипподромная улица,180006,57.8323321,28.3276857
139,Ипподромная улица,180006,57.8319609,28.3274479
14,Садовый переулок,180006,57.8333399,28.3250066
142,Ипподромная улица,180006,57.8321895,28.3266886
146,Ипподромная улица,180006,57.8320160,28.3256449
14А,Садовый переулок,180006,57.8334949,28.3248093
15,Садовый переулок,180006,57.8336550,28.3257615
15,улица Богданова,180006,57.8330045,28.3261160
16,Садовый переулок,180006,57.8332793,28.3245540
16,улица Богданова,180006,57.8331634,28.3255246
16А,улица Белинского,180006,57.8338657,28.3228651
17,Садовый переулок,180006,57.8338789,28.3256733
17,улица Белинского,180006,57.8333467,28.3217023
17А,Садовый переулок,180006,57.8338093,28.3253118
18,Садовый переулок,180006,57.8334697,28.3244359
18,улица Александра Матросова,180006,57.8324296,28.3267842
18,улица Богданова,180006,57.8332168,28.3259344
19,Застенная улица,180006,57.8285797,28.3285180
19,Садовый переулок,180006,57.8340757,28.3255788
19,улица Белинского,180006,57.8334165,28.3221520
19,улица Богданова,180006,57.8331098,28.3273949
2,улица Белинского,180006,57.8320592,28.3182421
20,Застенная улица,180006,57.8284627,28.3280277
20,Садовый переулок,180006,57.8336232,28.3243067
20,улица Александра Матросова,180006,57.8325968,28.3267285
20,улица Белинского,180006,57.8341476,28.3244368
20А,Садовый переулок,180006,57.8337012,28.3246864
21,улица Александра Матросова,180006,57.8325072,28.3272509
21,улица Белинского,180006,57.8334962,28.3225924
21,улица Богданова,180006,57.8332582,28.3277344
22,улица Белинского,180006,57.8342134,28.3247788
23,улица Александра Матросова,180006,57.8328248,28.3271145
23,улица Белинского,180006,57.8336104,28.3230621
23,улица Богданова,180006,57.8333688,28.3282431
24,Совхозная улица,180006,57.8287948,28.3271846
24,улица Александра Матросова,180006,57.8330679,28.3264580
25,улица Александра Матросова,180006,57.8331609,28.3269976
25/15,улица Белинского,180006,57.8337285,28.3236999
26,улица Александра Матросова,180006,57.8333035,28.3264311
26А,улица Белинского,180006,57.8342942,28.3251815
26Б,улица Белинского,180006,57.8343689,28.3255557
27,улица Александра Матросова,180006,57.8333941,28.3270172
27/22,улица Белинского,180006,57.8338385,28.3241720
28,улица Богданова,180006,57.8335971,28.3281942
3,Подберёзский проезд,180006,57.8330380,28.3277867
3,Пожарный переулок,180006,57.8316449,28.3281262
3,Птичий переулок,180006,57.8318965,28.3198383
3,Садовый переулок,180006,57.8327162,28.3258356
3,Совхозный переулок,180006,57.8300541,28.3294227
30,Совхозная улица,180006,57.8290769,28.3287797
30,улица Александра Матросова,180006,57.8337266,28.3262729
31А,улица Белинского,180006,57.8340225,28.3251753
32,улица Александра Матросова,180006,57.8339539,28.3261358
33,улица Александра Матросова,180006,57.8340453,28.3266021
4,Ветряная улица,180006,57.8341953,28.3197946
4,Птичий переулок,180006,57.8317887,28.3203668
4,Садовый переулок,180006,57.8324119,28.3255106
4,Торошинская улица,180006,57.8321993,28.3243307
4,улица Белинского,180006,57.8323360,28.3187424
5,Ветряная улица,180006,57.8335562,28.3198804
5,Торошинская улица,180006,57.8326720,28.3244465
5,улица Белинского,180006,57.8322086,28.3190051
6,Ветряная улица,180006,57.8339695,28.3200359
6,Садовый переулок,180006,57.8326443,28.3254109
6,Торошинская улица,180006,57.8324413,28.3241424
6,улица Белинского,180006,57.8325885,28.3191842
7,Пожарный переулок,180006,57.8311841,28.3284976
7,Совхозный переулок,180006,57.8302303,28.3290264
7,улица Белинского,180006,57.8323575,28.3193486
8,Ветряная улица,180006,57.8337729,28.3202263
8,Птичья улица,180006,57.8331040,28.3194925
8,Текстильный переулок,180006,57.8335790,28.3192181
8,улица Белинского,180006,57.8328427,28.3197534
9,Торошинская улица,180006,57.8331314,28.3241149
9,улица Александра Матросова,180006,57.8297878,28.3297051
9,улица Белинского,180006,57.8326293,28.3199405
91А,улица Леона Поземского,180006,57.8317155,28.3191186
8,улица Александра Матросова,180006,57.8297472,28.3291455
1,улица Юности,180019,57.8411564,28.3426330
17,Звёздная улица,180019,57.8406657,28.3430698
1,улица Алексея Алёхина,180020,57.8365050,28.2869918
14,Звёздная улица,180019,57.8379917,28.3427943
1А,Сиреневый бульвар,180019,57.8370271,28.3418927
2,улица Алексея Алёхина,180020,57.8370377,28.2898082
4,улица Алексея Алёхина,180020,57.8377370,28.2913910
6,улица Алексея Алёхина,180020,57.8386019,28.2912418
7,проспект Энтузиастов,180019,57.8373401,28.3438296
9,Сиреневый бульвар,180019,57.8376294,28.3386356
107А,улица Леона Поземского,180006,57.8345195,28.3125302
7,улица Экипажа Гудина,"180005, Псков",57.8185929,28.4258119
12,улица Яна Райниса,180002,57.7999588,28.3277076
115Д,улица Леона Поземского,180006,57.8381358,28.3076101
124,улица Леона Поземского,180006,57.8410957,28.3018029
13,улица Юности,180019,57.8428548,28.3458908
69,улица Труда,180019,57.8387273,28.3507523
40В,улица Рокоссовского,180025,57.8162370,28.2694815
54,улица Декабристов,180004,57.7968965,28.3721356
4/2,Рельсовая улица,180004,57.8066944,28.3693067
6,Рельсовая улица,180004,57.8061560,28.3682985
14,Октябрьский проспект,180000,57.8165204,28.3376682
10А,улица Молодова,180002,57.8070358,28.3167135
17,Стахановская улица,180004,57.8039727,28.3538625
12,Инженерная улица,180021,57.8247726,28.3624104
18,Инженерная улица,180021,57.8265559,28.3616868
4,Индустриальная улица,180021,57.8238230,28.3607244
13,Коммунальная улица,180007,57.8216008,28.3126366
30,Новгородская улица,180014,57.8189674,28.3962961
1,Петропавловская улица,180020,57.8310552,28.2895010
39,2-я Береговая улица,180020,57.8301509,28.2857683
4,Отрадная улица,180020,57.8355478,28.2867984
4,улица Ваганова,180020,57.8315961,28.2894315
41,2-я Береговая улица,180020,57.8303439,28.2853753
43,2-я Береговая улица,180020,57.8305356,28.2850010
45,2-я Береговая улица,180020,57.8307271,28.2846100
8,улица Ваганова,180020,57.8314510,28.2884576
2,Профсоюзная улица,180000,57.8162906,28.3328750
83А,улица Николая Васильева,180014,57.8260305,28.4040364
71Г,улица Николая Васильева,180014,57.8215527,28.3993721
32А,Псковская улица,180014,57.8201501,28.3967692
109,улица Леона Поземского,180006,57.8348740,28.3143537
11,Шоссейный переулок,180006,57.8399943,28.3196423
110,улица Леона Поземского,180006,57.8341894,28.3110872
115Б,улица Леона Поземского,180006,57.8375965,28.3082399
17,Шоссейный переулок,180006,57.8411780,28.3195026
19,Шоссейный переулок,180006,57.8408136,28.3207051
2,Шоссейная улица,180006,57.8384309,28.3155136
21,Шоссейный переулок,180006,57.8411205,28.3201092
2А,Шоссейная улица,180006,57.8349083,28.3151608
2Б,Шоссейная улица,180006,57.8352534,28.3146569
7,Шоссейный переулок,180006,57.8399340,28.3185445
9,Шоссейный переулок,180006,57.8402464,28.3187206
19А,Красноармейская набережная,180002,57.8074712,28.3257428
67А,Рижский проспект,180024,57.8114506,28.2814870
7,проезд Механизаторов,180017,57.8228741,28.4049130
21,Милицейская улица,180000,57.8217313,28.3422846
24,Милицейская улица,180000,57.8220987,28.3443290
1,улица Яна Райниса,180002,57.8028554,28.3258563
3,улица Яна Райниса,180002,57.8025875,28.3258509
9,улица Яна Райниса,180002,57.8018493,28.3257562
7,улица Яна Райниса,180002,57.8021745,28.3254920
5,Мирожская набережная,180002,57.8016808,28.3251142
14,улица Плехановский Посад,180000,57.8165224,28.3517108
8,проезд Медвёдово,180022,57.8158681,28.3852192
48,улица Льва Толстого,180004,57.8110989,28.3728545
15,Овальный проезд,180021,57.8328736,28.4032868
115А,улица Леона Поземского,180006,57.8372541,28.3092861
4,улица Карбышева,180011,57.7542082,28.4026954
92Б,Рижский проспект,180024,57.8081122,28.2779820
14,Техническая улица,180020,57.8391831,28.2875898
61А,улица Ижорского Батальона,180020,57.8366683,28.2814735
10,Северный переулок,180006,57.8307527,28.3342738
11,Гдовская улица,180006,57.8314832,28.3337643
11,Северный переулок,180006,57.8305025,28.3350654
110,Ипподромная улица,180019,57.8319535,28.3372029
13,Гдовская улица,180006,57.8317035,28.3338403
135,Ипподромная улица,180006,57.8321426,28.3289199
15,Гдовская улица,180006,57.8319230,28.3338898
16,Северная улица,180019,57.8306450,28.3354892
16,улица Александра Невского,180006,57.8297558,28.3334751
16,улица Олега Кошевого,180006,57.8297435,28.3349662
18,Северная улица,180019,57.8312096,28.3352413
18,улица Олега Кошевого,180006,57.8298874,28.3352799
19/24,Северная улица,180019,57.8310273,28.3359638
20,Северная улица,180019,57.8313945,28.3350730
21,Северная улица,180019,57.8312363,28.3357777
22,Северная улица,180019,57.8315939,28.3348645
24,Северная улица,180019,57.8317383,28.3344805
26,Северная улица,180019,57.8320456,28.3343298
28,улица Олега Кошевого,180019,57.8313562,28.3366515
2А,Гдовский переулок,180019,57.8330440,28.3362429
3,Гдовский переулок,180019,57.8334091,28.3365512
3,Северный переулок,180006,57.8299060,28.3341212
30,улица Олега Кошевого,180019,57.8315197,28.3368542
29,улица Гущина,180006,57.8307487,28.3349930
36,улица Гущина,180006,57.8309936,28.3337309
36,улица Олега Кошевого,180019,57.8329734,28.3381538
31,улица Гущина,180006,57.8308462,28.3346565
38/75,улица Олега Кошевого,180019,57.8331618,28.3383457
4А,Гдовская улица,180006,57.8314226,28.3331918
4,Гдовский переулок,180019,57.8329867,28.3366977
4,Северный переулок,180006,57.8300407,28.3336923
40/88,улица Олега Кошевого,180019,57.8334469,28.3384334
42,улица Олега Кошевого,180019,57.8335717,28.3388005
44,улица Олега Кошевого,180019,57.8337908,28.3389678
46,улица Олега Кошевого,180019,57.8340848,28.3392645
4А,Гдовский переулок,180019,57.8328341,28.3360338
6,Гдовский переулок,180019,57.8332193,28.3369464
67/5,улица Белинского,180019,57.8336594,28.3368597
69/8,улица Белинского,180019,57.8335350,28.3372165
7,Гдовская улица,180006,57.8310616,28.3332571
7,Северный переулок,180006,57.8304550,28.3344467
73,улица Белинского,180019,57.8333304,28.3378658
8,Северный переулок,180006,57.8305394,28.3341328
9,Северный переулок,180006,57.8302362,28.3351556
5,переулок Олега Кошевого,180019,57.8329006,28.3371906
84,улица Белинского,180019,57.8336956,28.3376772
11,Коммунальная улица,180007,57.8220135,28.3131195
87,улица Николая Васильева,180014,57.8273115,28.4071213
89,улица Николая Васильева,180014,57.8271991,28.4092717
13,Узкий переулок,180004,57.8123153,28.3666405
5,улица Яна Райниса,180002,57.8023475,28.3258229
25,улица Яна Райниса,180002,57.7999938,28.3269879
14,улица Яна Райниса,180002,57.7997859,28.3278132
16,улица Яна Райниса,180002,57.7995810,28.3280120
19,улица Яна Райниса,180002,57.8007470,28.3264170
4,улица Яна Райниса,180002,57.8008898,28.3268980
4А,Мирожская набережная,180002,57.8018453,28.3251862
27,улица Яна Райниса,180002,57.7997141,28.3272115
29,улица Яна Райниса,180002,57.7995323,28.3273479
2,Усановская улица,180002,57.8005833,28.3258037
10,Усановская улица,180002,57.7996345,28.3261287
16,Великорецкая улица,180002,57.7995487,28.3286309
1А,Рельсовая улица,180004,57.8054797,28.3662369
44А,Зональное шоссе,180014,57.8068480,28.4162768
8,Рельсовая улица,180004,57.8059260,28.3675223
26,Крутая набережная,180004,57.7935913,28.3447246
2,Крутая набережная,180004,57.7960230,28.3432547
6,Крутая набережная,180004,57.7957119,28.3434614
30,Крутая набережная,180004,57.7930949,28.3453194
4,Крутая набережная,180004,57.7958317,28.3433874
8,Крутая набережная,180004,57.7955300,28.3434953
12,Крутая набережная,180004,57.7949977,28.3437764
10,Крутая набережная,180004,57.7952406,28.3436852
28,Крутая набережная,180004,57.7933704,28.3449206
29Б,1-я Песочная улица,180004,57.7932304,28.3488335
29А,1-я Песочная улица,180004,57.7934649,28.3487416
24,Крутая набережная,180004,57.7937249,28.3444431
79,улица Советской Армии,180004,57.7780174,28.3608675
5,улица Машиниста,180004,57.8004839,28.3613388
6,улица Машиниста,180004,57.8000734,28.3619416
13,улица Машиниста,180004,57.8001025,28.3626937
1,улица Машиниста,180004,57.8005718,28.3599741
3А,улица Машиниста,180004,57.8004711,28.3609285
8,Мирожская набережная,180002,57.8005461,28.3248534
3,Усановская улица,180002,57.7997567,28.3251904
8,улица Яна Райниса,180002,57.8003770,28.3284336
10В,улица Яна Райниса,180002,57.8000866,28.3281482
6А,Мирожская набережная,180002,57.8013457,28.3249305
15,Великорецкая улица,180002,57.7997113,28.3287684
12,Усановская улица,180002,57.7995401,28.3265197
123,Ипподромная улица,180019,57.8323005,28.3349563
74А,Рижский проспект,180016,57.8124881,28.2924124
114,улица Леона Поземского,180006,57.8363523,28.3083532
114А,улица Леона Поземского,180006,57.8367692,28.3077016
153,Ипподромная улица,180006,57.8309205,28.3227894
72,улица Леона Поземского,180006,57.8306061,28.3186871
3/11,улица Молодова,180002,57.8078089,28.3195724
8,переулок Дружбы,180002,57.8083692,28.3199672
30,Старотекстильная улица,180006,57.8354366,28.3209054
1,Подберёзская улица,180006,57.8328954,28.3286749
10,Старотекстильная улица,180006,57.8333885,28.3175731
100,Старотекстильная улица,180019,57.8355799,28.3369928
101,Промышленная улица,180019,57.8359938,28.3375374
102,Старотекстильная улица,180019,57.8354157,28.3374301
103,Промышленная улица,180019,57.8358309,28.3379880
104,Старотекстильная улица,180019,57.8352496,28.3378739
105,Старотекстильная улица,180019,57.8348988,28.3378426
106,Старотекстильная улица,180019,57.8350892,28.3383317
11,Подберёзская улица,180006,57.8335751,28.3300866
12,Старотекстильная улица,180006,57.8336055,28.3178274
12А,Подберёзская улица,180006,57.8338584,28.3290564
14,Подберёзская улица,180006,57.8338665,28.3299948
14,Старотекстильная улица,180006,57.8337942,28.3180048
15,Старотекстильная улица,180006,57.8342035,28.3190973
15А,Старотекстильная улица,180006,57.8340479,28.3189371
16,Старотекстильная улица,180006,57.8339977,28.3182185
17,Подберёзская улица,180006,57.8342690,28.3309723
18,Подберёзская улица,180006,57.8342495,28.3303672
19,Подберёзская улица,180006,57.8346088,28.3312397
19,Старотекстильная улица,180006,57.8344635,28.3193488
19,Торошинская улица,180006,57.8350072,28.3227828
2,Подберёзская улица,180006,57.8328214,28.3279802
20,Подберёзская улица,180006,57.8344802,28.3306681
20,Старотекстильная улица,180006,57.8343854,28.3187439
20,Торошинская улица,180006,57.8341444,28.3229756
21,Старотекстильная улица,180006,57.8346554,28.3195574
21,Торошинская улица,180006,57.8352231,28.3226277
21/49,Подберёзская улица,180006,57.8349913,28.3315779
22,Подберёзская улица,180006,57.8347993,28.3308875
22,Старотекстильная улица,180006,57.8345500,28.3188758
23,Старотекстильная улица,180006,57.8347718,28.3197439
23/42,Подберёзская улица,180006,57.8351808,28.3320100
24,Торошинская улица,180006,57.8345906,28.3226379
24/47,Подберёзская улица,180006,57.8350115,28.3312327
25,Подберёзская улица,180006,57.8354659,28.3321588
25,Старотекстильная улица,180006,57.8348402,28.3201650
26,Торошинская улица,180006,57.8347545,28.3224431
26,улица Белинского,180006,57.8345418,28.3264761
26/40,Подберёзская улица,180006,57.8352150,28.3314218
26А,Садовый переулок,180006,57.8344012,28.3242678
27,Старотекстильная улица,180006,57.8349190,28.3205805
27/1,Подберёзская улица,180006,57.8357977,28.3323595
28,Подберёзская улица,180006,57.8354462,28.3313812
28,Садовый переулок,180006,57.8346510,28.3241270
28,Торошинская улица,180006,57.8348889,28.3224380
28,улица Белинского,180006,57.8346150,28.3269241
29,Подберёзская улица,180006,57.8364171,28.3322881
3,Старотекстильная улица,180006,57.8328568,28.3175725
30,Подберёзская улица,180006,57.8356257,28.3317462
30,улица Белинского,180006,57.8346719,28.3272913
31,Гдовская улица,180019,57.8353401,28.3366378
31,Подберёзская улица,180006,57.8361577,28.3324272
31,Старотекстильная улица,180006,57.8350514,28.3214659
32,Старотекстильная улица,180006,57.8354046,28.3215451
32,улица Белинского,180006,57.8347366,28.3275675
33,Старотекстильная улица,180006,57.8351129,28.3218562
34,Подберёзская улица,180006,57.8361426,28.3320299
34,улица Белинского,180006,57.8348019,28.3279799
35,Старотекстильная улица,180006,57.8351586,28.3222073
35,улица Белинского,180006,57.8343941,28.3271729
36,Гдовская улица,180019,57.8354301,28.3361960
36,улица Белинского,180006,57.8349242,28.3286959
37,Северная улица,180019,57.8340226,28.3333897
37,Старотекстильная улица,180006,57.8352857,28.3231434
37,улица Белинского,180006,57.8344528,28.3275834
38,улица Белинского,180006,57.8349986,28.3290540
39,Старотекстильная улица,180006,57.8353412,28.3235829
39,улица Белинского,180006,57.8345220,28.3279672
39/57,Северная улица,180019,57.8342885,28.3337160
4,Старотекстильная улица,180006,57.8328305,28.3169013
40,улица Белинского,180006,57.8350724,28.3294378
41,Северная улица,180019,57.8346753,28.3338547
41,улица Белинского,180006,57.8346053,28.3283608
42/55,Северная улица,180019,57.8345940,28.3332714
43,улица Белинского,180006,57.8347339,28.3290752
44,улица Белинского,180006,57.8351984,28.3301758
45,улица Белинского,180006,57.8348204,28.3294933
46,улица Белинского,180006,57.8352532,28.3305415
47,Северная улица,180019,57.8354902,28.3342141
47,улица Белинского,180006,57.8348843,28.3298658
48,Северная улица,180019,57.8354550,28.3337400
5,Подберёзская улица,180006,57.8331498,28.3292819
50,Северная улица,180019,57.8358331,28.3339014
51,улица Белинского,180006,57.8348814,28.3322704
53,улица Белинского,180006,57.8346930,28.3327739
55,Северная улица,180019,57.8363315,28.3339051
57,Северная улица,180019,57.8363360,28.3331851
6,Подберёзская улица,180006,57.8332022,28.3287588
6,Старотекстильная улица,180006,57.8329719,28.3170998
7,Старотекстильная улица,180006,57.8332525,28.3180664
8,Подберёзская улица,180006,57.8333246,28.3290012
9,Подберёзская улица,180006,57.8334060,28.3297228
9,Старотекстильная улица,180006,57.8334547,28.3182981
95,Старотекстильная улица,180019,57.8357458,28.3350309
99,Старотекстильная улица,180019,57.8357252,28.3354413
99А,Старотекстильная улица,180019,57.8355842,28.3358995
28,Старотекстильная улица,180006,57.8351315,28.3197620
121,Ипподромная улица,180019,57.8318658,28.3357633
119,Ипподромная улица,180019,57.8318034,28.3364380
108/62,Инженерная улица,180019,57.8417365,28.3517390
1,улица Льва Толстого,180000,57.8141272,28.3477522
24А,улица Ижорского Батальона,180020,57.8352728,28.2914470
10,улица Ваганова,180020,57.8316661,28.2882223
12,улица Ваганова,180020,57.8318710,28.2881079
14,улица Ваганова,180020,57.8320109,28.2875117
16,улица Ваганова,180020,57.8317818,28.2868774
18,улица Ваганова,180020,57.8321615,28.2867609
20,улица Ваганова,180020,57.8322504,28.2863414
22,улица Ваганова,180020,57.8323577,28.2857983
24,улица Ваганова,180020,57.8320653,28.2853205
26,улица Ваганова,180020,57.8324829,28.2854034
6,улица Ваганова,180020,57.8315647,28.2888902
17,Красногорская улица,180021,57.8164972,28.3603248
19,Красногорская улица,180021,57.8162956,28.3606702
28,Красногорская улица,180021,57.8171309,28.3589064
30,Красногорская улица,180021,57.8170702,28.3590247
32,Красногорская улица,180021,57.8171022,28.3594851
34,Красногорская улица,180021,57.8168555,28.3597144
36,Красногорская улица,180021,57.8167852,28.3602453
38,Красногорская улица,180021,57.8165233,28.3607360
42,Красногорская улица,180021,57.8162851,28.3615242
2/29,улица Черняховского,180011,57.7569777,28.4122219
18/2,Красноармейская набережная,180002,57.8083697,28.3258036
6,улица Малясова,180002,57.8082742,28.3250702
7,улица Малясова,180002,57.8085577,28.3241936
9,улица Малясова,180002,57.8085320,28.3237417
5,улица Малясова,180002,57.8085735,28.3245105
15,улица Юрия Гагарина,180004,57.8071741,28.3557054
10/2,улица Крупской,180021,57.8267911,28.3554245
62/2,Ипподромная улица,180021,57.8261708,28.3542867
68,Ипподромная улица,180021,57.8263878,28.3522470
66,Ипподромная улица,180021,57.8262990,28.3532426
64,Ипподромная улица,180021,57.8262456,28.3537095
14/6,улица Крупской,180021,57.8272358,28.3561123
33,Хлебный проезд,180021,57.8272107,28.3547751
3,Кольцевой проезд,180021,57.8273248,28.3590416
69,Ипподромная улица,180021,57.8257878,28.3537360
30,Хлебный проезд,180021,57.8275312,28.3543084
65,Ипподромная улица,180021,57.8255540,28.3549823
16,Кольцевой проезд,180021,57.8285196,28.3571346
5,1-й Филоновский проезд,180021,57.8273687,28.3552872
3,1-й Филоновский проезд,180021,57.8272575,28.3555057
7,3-й Филоновский проезд,180021,57.8285233,28.3565221
5,Кольцевой проезд,180021,57.8271790,28.3594757
7,Кольцевой проезд,180021,57.8275072,28.3595658
9,Кольцевой проезд,180021,57.8277035,28.3599791
18/2,улица Крупской,180021,57.8274559,28.3571525
3,3-й Филоновский проезд,180021,57.8278777,28.3572810
12/1,улица Крупской,180021,57.8270906,28.3557069
5,3-й Филоновский проезд,180021,57.8280708,28.3571044
67,Ипподромная улица,180021,57.8257318,28.3545209
4,Аллейный переулок,180021,57.8230629,28.3569855
16А,Аллейная улица,180021,57.8246180,28.3582547
18,Аллейная улица,180021,57.8248382,28.3585704
20,Аллейная улица,180021,57.8250506,28.3583206
50,Ипподромная улица,180021,57.8252258,28.3573253
48А,Ипподромная улица,180021,57.8247903,28.3580162
50А,Ипподромная улица,180021,57.8250776,28.3575942
31,Ипподромная улица,180021,57.8188983,28.3607430
33,Ипподромная улица,180021,57.8191391,28.3605087
35,Ипподромная улица,180021,57.8193320,28.3602957
15А,улица Герцена,180021,57.8246818,28.3454344
18А,улица Герцена,180021,57.8251643,28.3446984
19,улица Герцена,180021,57.8249428,28.3462018
1А,Восточный переулок,180021,57.8250009,28.3442160
22А,улица Герцена,180021,57.8254608,28.3464066
23,улица Герцена,180021,57.8251231,28.3468172
28,улица Герцена,180021,57.8258566,28.3474395
29,улица Герцена,180021,57.8255037,28.3476542
31,улица Герцена,180021,57.8256546,28.3479386
72,Ипподромная улица,180021,57.8264878,28.3508456
74А,Ипподромная улица,180021,57.8265377,28.3499797
75,Ипподромная улица,180021,57.8262722,28.3500190
76,Ипподромная улица,180021,57.8263897,28.3490166
37,улица Герцена,180021,57.8260982,28.3492928
33,Подберёзская улица,180006,57.8367342,28.3321845
36,Подберёзская улица,180006,57.8367712,28.3312855
37,Подберёзская улица,180006,57.8372711,28.3321592
39,Подберёзская улица,180006,57.8376789,28.3320410
40,Подберёзская улица,180006,57.8371715,28.3316444
11,Пионерская улица,180019,57.8277445,28.3438544
15,Пионерская улица,180019,57.8287536,28.3457374
15А,Пионерская улица,180019,57.8288673,28.3454144
17,Пионерская улица,180019,57.8288927,28.3459476
2,Пионерская улица,180019,57.8263812,28.3418900
29,Пионерская улица,180021,57.8283983,28.3480766
32,Пионерская улица,180021,57.8279564,28.3485445
33,Пионерская улица,180021,57.8281441,28.3486136
4,Пионерская улица,180019,57.8265504,28.3423077
9,Пионерская улица,180019,57.8275605,28.3435331
92,Ипподромная улица,180019,57.8282737,28.3454483
93/16,Ипподромная улица,180019,57.8279804,28.3449368
94,Ипподромная улица,180019,57.8284474,28.3451283
10,Подвишенская улица,180016,57.8238849,28.2973566
11,Подвишенская улица,180016,57.8243083,28.2973908
12,Подвишенская улица,180016,57.8241642,28.2971480
13,Подвишенская улица,180016,57.8245322,28.2967079
14,Подвишенская улица,180016,57.8246331,28.2972683
15,Подвишенская улица,180016,57.8247035,28.2975717
17,Подвишенская улица,180016,57.8246182,28.2980231
18,Подвишенская улица,180016,57.8243696,28.2983119
5,Подвишенская улица,180016,57.8242727,28.2960839
7,Подвишенская улица,180016,57.8233836,28.2962846
8,Подвишенская улица,180016,57.8236203,28.2973338
9,Подвишенская улица,180016,57.8238305,28.2981544
116,Ипподромная улица,180019,57.8324726,28.3367388
20А,Ипподромная улица,180021,57.8179789,28.3632267
20,Ипподромная улица,180021,57.8180454,28.3628420
1,Исторический переулок,180021,57.8243563,28.3487400
10,3-й переулок Хлебной Горки,180021,57.8252989,28.3514978
10,Исторический переулок,180021,57.8250193,28.3478549
12,2-й переулок Хлебной Горки,180021,57.8246944,28.3505607
12,Исторический переулок,180021,57.8245754,28.3487709
13,Гремячая улица,180021,57.8231979,28.3515965
13,улица Мишарина,180021,57.8252767,28.3540945
13Б,Гремячая улица,180021,57.8230657,28.3521073
16,2-й переулок Хлебной Горки,180021,57.8244169,28.3500329
1А,2-й переулок Хлебной Горки,180021,57.8247596,28.3531325
21,Гремячая улица,180021,57.8209630,28.3540400
21,улица Герцена,180021,57.8250913,28.3465695
25,улица Герцена,180021,57.8251946,28.3470127
3,2-й переулок Хлебной Горки,180021,57.8248011,28.3523983
3,3-й переулок Хлебной Горки,180021,57.8254891,28.3531026
3,Исторический переулок,180021,57.8247128,28.3487047
3А,Гремячая улица,180021,57.8242959,28.3465440
3В,Гремячая улица,180021,57.8244342,28.3454788
4,2-й переулок Хлебной Горки,180021,57.8244923,28.3527895
4,3-й переулок Хлебной Горки,180021,57.8251492,28.3527854
4,Исторический переулок,180021,57.8242639,28.3481532
5,3-й переулок Хлебной Горки,180021,57.8255003,28.3524879
5,Гремячая улица,180021,57.8247135,28.3470577
6,2-й переулок Хлебной Горки,180021,57.8244919,28.3522019
60/1,Ипподромная улица,180021,57.8259894,28.3547597
7,2-й переулок Хлебной Горки,180021,57.8248431,28.3520476
7,3-й переулок Хлебной Горки,180021,57.8255520,28.3520138
8,2-й переулок Хлебной Горки,180021,57.8245643,28.3512713
8,3-й переулок Хлебной Горки,180021,57.8252848,28.3519517
8/2,улица Мишарина,180021,57.8244230,28.3532140
9,2-й переулок Хлебной Горки,180021,57.8249039,28.3516542
123,улица Леона Поземского,180006,57.8416721,28.3028733
1,Красногорская набережная,180021,57.8157081,28.3610168
1/4,Красногорский переулок,180021,57.8152439,28.3618497
10,Красногорская набережная,180021,57.8153859,28.3636735
11,Красногорская набережная,180021,57.8154842,28.3639681
12,Красногорская набережная,180021,57.8156680,28.3639811
13,Красногорская набережная,180021,57.8157169,28.3645341
2,Красногорская набережная,180021,57.8155095,28.3610810
23,Красногорская улица,180021,57.8160542,28.3613654
25,Красногорская улица,180021,57.8159287,28.3616897
27/6,Красногорская улица,180021,57.8158716,28.3619365
29/7,Красногорская улица,180021,57.8157719,28.3626123
31,Красногорская улица,180021,57.8157328,28.3630437
33,Красногорская улица,180021,57.8157595,28.3634651
35,Красногорская улица,180021,57.8159011,28.3640665
37,Красногорская улица,180021,57.8161243,28.3643196
4,Красногорский переулок,180021,57.8155956,28.3615198
44,Красногорская улица,180021,57.8161486,28.3620314
46/8,Красногорская улица,180021,57.8160834,28.3622559
48/9,Красногорская улица,180021,57.8160038,28.3626998
5,Красногорская набережная,180021,57.8151649,28.3621305
50,Красногорская улица,180021,57.8160304,28.3631242
6,Красногорская набережная,180021,57.8151180,28.3623953
7,Красногорская набережная,180021,57.8151322,28.3627174
8,Красногорская набережная,180021,57.8151686,28.3630635
9,Красногорская набережная,180021,57.8152935,28.3634158
3/2,Красногорская набережная,180021,57.8153715,28.3614069
5,Красногорский переулок,180021,57.8155764,28.3624593
15,Красногорская улица,180021,57.8172260,28.3576559
18,Красногорская улица,180021,57.8177735,28.3570452
71А,Коммунальная улица,180024,57.8162019,28.2770165
71Б,Коммунальная улица,180024,57.8165053,28.2766991
73,Коммунальная улица,180024,57.8156028,28.2765309
73Б,Коммунальная улица,180024,57.8162843,28.2758939
1,Загородный переулок,180021,57.8257671,28.3434669
1,Красный переулок,180021,57.8266195,28.3512496
10,Земельный переулок,180021,57.8283295,28.3505525
10/13,Загородный переулок,180021,57.8264749,28.3446639
11,Загородный переулок,180021,57.8264801,28.3458749
11,Земельная улица,180021,57.8275326,28.3493587
11,Красный переулок,180021,57.8286291,28.3517869
12,Загородный переулок,180021,57.8266269,28.3452182
12,Красный переулок,180021,57.8287516,28.3521496
12/15,Моторный переулок,180019,57.8264466,28.3463729
12/2,Пионерская улица,180019,57.8275731,28.3441493
13,Земельная улица,180021,57.8277573,28.3495494
13,Красный переулок,180021,57.8290969,28.3522684
14,Красный переулок,180021,57.8269694,28.3512172
14,Моторный переулок,180019,57.8263311,28.3472670
14,Пионерская улица,180019,57.8277327,28.3444777
15,Автозаводская улица,180019,57.8281248,28.3432603
15,Красный переулок,180021,57.8289060,28.3525929
16,Земельная улица,180021,57.8281637,28.3494616
16/7,Загородный переулок,180021,57.8269131,28.3460624
17,Земельная улица,180021,57.8282437,28.3500725
18,Земельная улица,180021,57.8284115,28.3496957
19,Загородный переулок,180021,57.8275292,28.3472248
2,Загородный переулок,180021,57.8257737,28.3424729
20,Земельная улица,180021,57.8286891,28.3499524
20А,Загородный переулок,180021,57.8279352,28.3469261
21,Загородный переулок,180021,57.8277332,28.3473096
22,Загородный переулок,180021,57.8281567,28.3470810
22А,Земельная улица,180021,57.8291516,28.3504497
23,Земельная улица,180021,57.8290058,28.3508829
24,Загородный переулок,180021,57.8283587,28.3472219
24,Земельная улица,180021,57.8293633,28.3506723
25,Автозаводская улица,180019,57.8294226,28.3454093
25,Загородный переулок,180021,57.8281327,28.3475537
25,Земельная улица,180021,57.8292042,28.3509638
26,Загородный переулок,180021,57.8285426,28.3473014
26,Земельная улица,180021,57.8295482,28.3509016
27,Автозаводская улица,180019,57.8296033,28.3456206
27,Земельная улица,180021,57.8293860,28.3512203
28,Загородный переулок,180021,57.8287590,28.3474765
2,Красный переулок,180021,57.8267684,28.3517590
2А,Моторный переулок,180019,57.8279738,28.3434644
3,Загородный переулок,180021,57.8258845,28.3438781
3,Земельная улица,180021,57.8266216,28.3487258
3,Земельный переулок,180021,57.8269861,28.3499574
3,Красный переулок,180021,57.8270693,28.3517427
3,Моторный переулок,180019,57.8276011,28.3448914
30,Загородный переулок,180021,57.8289465,28.3476206
30А,улица Герцена,180021,57.8260230,28.3477875
31,Загородный переулок,180021,57.8287790,28.3480251
32,Загородный переулок,180021,57.8291596,28.3477684
33,Загородный переулок,180021,57.8289633,28.3481802
34,Загородный переулок,180021,57.8293652,28.3478798
35,Загородный переулок,180021,57.8291454,28.3483311
4,Загородный переулок,180021,57.8261505,28.3436136
4,Земельная улица,180021,57.8267672,28.3482638
4,Земельный переулок,180021,57.8272023,28.3501470
4,Красный переулок,180021,57.8272835,28.3518926
4,Моторный переулок,180019,57.8273858,28.3444150
5,Земельная улица,180021,57.8268831,28.3488542
5,Земельный переулок,180021,57.8274448,28.3503215
5,Моторный переулок,180019,57.8273958,28.3451477
5А,Восточный переулок,180021,57.8258178,28.3460266
5А,Моторный переулок,180019,57.8272428,28.3454171
6,Загородный переулок,180021,57.8262288,28.3440335
6,Земельная улица,180021,57.8271408,28.3482782
6,Земельный переулок,180021,57.8276640,28.3505115
6,Красный переулок,180021,57.8277777,28.3523153
7,Земельная улица,180021,57.8271824,28.3490912
7,Красный переулок,180021,57.8279598,28.3524093
70/2,Ипподромная улица,180021,57.8264863,28.3517646
73Б,Ипподромная улица,180021,57.8258654,28.3511318
74,Ипподромная улица,180021,57.8265241,28.3496660
79,Ипподромная улица,180021,57.8263560,28.3479552
7А,Моторный переулок,180019,57.8270875,28.3457248
8,Земельный переулок,180021,57.8281131,28.3509021
8,Моторный переулок,180019,57.8270106,28.3452279
87,Ипподромная улица,180019,57.8272457,28.3462917
9,Загородный переулок,180021,57.8262979,28.3451305
9,Земельный переулок,180021,57.8280960,28.3503503
9,Красный переулок,180021,57.8281595,28.3523061
98/12,Ипподромная улица,180019,57.8288845,28.3443889
9А,Загородный переулок,180021,57.8263939,28.3454464
9А,Моторный переулок,180019,57.8265996,28.3468289
1,Партизанская улица,180014,57.8223239,28.3923328
3,Красногвардейский переулок,180014,57.8222097,28.3925494
4,Красногвардейский переулок,180014,57.8220248,28.3920853
50,улица Николая Васильева,180014,57.8220597,28.3929384
52,улица Николая Васильева,180014,57.8222782,28.3934763
54,улица Николая Васильева,180014,57.8225552,28.3932464
58,улица Николая Васильева,180014,57.8227349,28.3942380
6,Красногвардейский переулок,180014,57.8222823,28.3915919
10,Гремячий переулок,180021,57.8250996,28.3493851
11,Автозаводская улица,180019,57.8278896,28.3424754
11,Фабричный переулок,180019,57.8266345,28.3443998
12,Гремячий переулок,180021,57.8251689,28.3488730
13,Гремячий переулок,180021,57.8247963,28.3492042
14,Гремячий переулок,180021,57.8254805,28.3485402
14,Фабричный переулок,180019,57.8264858,28.3439570
14А,Гремячий переулок,180021,57.8249928,28.3488814
1А,Земельная улица,180021,57.8266428,28.3492012
2,Фабричный переулок,180019,57.8274717,28.3421866
3,Гремячий переулок,180021,57.8260639,28.3498404
35,улица Герцена,180021,57.8256997,28.3489984
4,Гремячий переулок,180021,57.8258496,28.3494829
4,Фабричный переулок,180019,57.8273035,28.3424619
5,Гремячий переулок,180021,57.8259373,28.3499794
5,Исторический переулок,180021,57.8251058,28.3483693
6,Гремячий переулок,180021,57.8256072,28.3495868
7,Гремячий переулок,180021,57.8256337,28.3500485
7/10,Фабричный переулок,180019,57.8269763,28.3436971
8,Фабричный переулок,180019,57.8269095,28.3431659
80,Ипподромная улица,180019,57.8270390,28.3477745
81,Ипподромная улица,180019,57.8266369,28.3475694
81А,Ипподромная улица,180019,57.8265112,28.3477936
82,Ипподромная улица,180019,57.8273703,28.3474725
86,Ипподромная улица,180019,57.8276937,28.3466691
89,Ипподромная улица,180019,57.8275415,28.3458543
9,Фабричный переулок,180019,57.8267715,28.3440936
91,Ипподромная улица,180019,57.8276968,28.3455241
33,Шоссейная улица,180006,57.8436164,28.3194892
42,Шоссейная улица,180006,57.8439482,28.3188650
24,Заводская улица,180004,57.8073143,28.3543317
1,2-й Филоновский проезд,180021,57.8266393,28.3574002
10,2-й Филоновский проезд,180021,57.8276014,28.3557619
10,3-й Филоновский проезд,180021,57.8281983,28.3562217
10,Великолукская улица,180021,57.8278149,28.3545258
11,2-й Филоновский проезд,180021,57.8277601,28.3561331
12,2-й Филоновский проезд,180021,57.8277785,28.3555211
12,3-й Филоновский проезд,180021,57.8284698,28.3561356
12,Великолукская улица,180021,57.8280422,28.3546082
13,2-й Филоновский проезд,180021,57.8278505,28.3559859
13,Великолукская улица,180021,57.8281777,28.3551014
14,3-й Филоновский проезд,180021,57.8284141,28.3558042
14,Великолукская улица,180021,57.8282268,28.3546605
15,Великолукская улица,180021,57.8283808,28.3551662
16,Великолукская улица,180021,57.8284228,28.3547111
17,2-й Филоновский проезд,180021,57.8280216,28.3556976
17,Великолукская улица,180021,57.8285513,28.3552248
2,Милевский переулок,180021,57.8257633,28.3581236
3,2-й Филоновский проезд,180021,57.8267973,28.3572240
4,3-й Филоновский проезд,180021,57.8276982,28.3570085
4,Милевский переулок,180021,57.8260491,28.3586278
58,Ипподромная улица,180021,57.8259218,28.3551992
6,3-й Филоновский проезд,180021,57.8278446,28.3568133
6,Милевский переулок,180021,57.8266708,28.3582861
63,Ипподромная улица,180021,57.8253722,28.3552872
69А,Ипподромная улица,180021,57.8259288,28.3533505
69Б,Ипподромная улица,180021,57.8259995,28.3528126
71,Ипподромная улица,180021,57.8260712,28.3522673
71А,Ипподромная улица,180021,57.8261359,28.3518208
8,2-й Филоновский проезд,180021,57.8274383,28.3559313
8,3-й Филоновский проезд,180021,57.8280656,28.3565889
8,Милевский переулок,180021,57.8264918,28.3586480
9,Великолукская улица,180021,57.8276671,28.3548988
33,Коммунальная улица,180016,57.8203263,28.2987535
4,улица Кузбасской Дивизии,180016,57.8222702,28.2955600
4,улица Кузбасской Дивизии,180016,57.8215426,28.2962227
4,улица Кузбасской Дивизии,180016,57.8220420,28.2964595
10,Профсоюзная улица,180000,57.8152171,28.3316211
1,Луговая улица,180005,57.8178162,28.4337896
10,Луговая улица,180005,57.8157298,28.4315579
12,Луговая улица,180005,57.8167507,28.4299383
12,улица Экипажа Гудина,180005,57.8179145,28.4229753
14,Луговая улица,180005,57.8168376,28.4305309
14,улица Экипажа Гудина,180005,57.8178032,28.4193663
14А,Луговая улица,180005,57.8168534,28.4310154
17,Луговая улица,180005,57.8171948,28.4279308
19,Луговая улица,180005,57.8172770,28.4272520
1А,Луговая улица,180005,57.8179514,28.4345807
1Б,Луговая улица,180005,57.8180631,28.4354728
3,Луговая улица,180005,57.8177394,28.4330130
34,Луговая улица,180005,57.8169253,28.4259258
4,Луговая улица,180005,57.8154823,28.4321676
5,Луговая улица,180005,57.8173214,28.4310621
6,Луговая улица,180005,57.8150107,28.4319859
6,улица Экипажа Гудина,180005,57.8176804,28.4301038
7,Ленинградское шоссе,180005,57.8115255,28.4282622
7А,Пограничная улица,180005,57.8102312,28.4186715
7В,Пограничная улица,180005,57.8096033,28.4179734
8,Луговая улица,180005,57.8151928,28.4313430
9,Луговая улица,180005,57.8171854,28.4301899
5,Рабочая улица,180017,57.8036694,28.3423103
19,улица Кузбасской Дивизии,180016,57.8236006,28.2894138
21Б,Советская улица,180000,57.8144698,28.3344986
13,Мирожская набережная,180002,57.7992083,28.3245570
6,Усановская улица,180002,57.8000567,28.3255450
1,Парковая улица,180021,57.8191680,28.3581243
1,улица Софьи Перовской,180021,57.8175337,28.3589700
10,2-й Ипподромный проезд,180021,57.8183406,28.3662496
10,Ипподромная улица,180021,57.8179790,28.3656819
10,Красногорский проезд,180021,57.8170660,28.3555857
10,Парковая улица,180021,57.8181820,28.3583559
10,улица Софьи Перовской,180021,57.8182216,28.3597068
10А,Ипподромная улица,180021,57.8180675,28.3659525
10А,Парковая улица,180021,57.8179908,28.3584548
11,2-й Ипподромный проезд,180021,57.8182685,28.3658322
11,Красногорский переулок,180021,57.8163278,28.3628783
11,Парковый переулок,180021,57.8193067,28.3586418
11/15,Ипподромная улица,180021,57.8174875,28.3641650
11/20,Красногорская улица,180021,57.8176567,28.3566535
12,2-й Ипподромный проезд,180021,57.8185656,28.3660906
12,Ипподромная улица,180021,57.8182475,28.3653271
12,Красногорская улица,180021,57.8182277,28.3567715
12,улица Софьи Перовской,180021,57.8183479,28.3600088
12А,Ипподромная улица,180021,57.8184959,28.3651092
13,2-й Ипподромный проезд,180021,57.8185313,28.3656396
13,Красногорский переулок,180021,57.8164204,28.3631740
13,Парковый переулок,180021,57.8193476,28.3589750
13/16,Ипподромная улица,180021,57.8175500,28.3634341
14,2-й Ипподромный проезд,180021,57.8186908,28.3666275
14,Ипподромная улица,180021,57.8179347,28.3648715
14,Красногорская набережная,180021,57.8158639,28.3647738
14,Красногорский проезд,180021,57.8174599,28.3551296
14,улица Софьи Перовской,180021,57.8185025,28.3604145
14А,Ипподромная улица,180021,57.8181824,28.3647346
14Б,Ипподромная улица,180021,57.8183682,28.3645838
15,2-й Ипподромный проезд,180021,57.8186846,28.3654635
15,Красногорская набережная,180021,57.8159541,28.3649800
15,Красногорский переулок,180021,57.8166395,28.3631954
15,Парковый переулок,180021,57.8195102,28.3593813
16,2-й Ипподромный проезд,180021,57.8184995,28.3667725
16,Красногорская набережная,180021,57.8160623,28.3653760
16,Красногорский переулок,180021,57.8170817,28.3631981
16,Красногорский проезд,180021,57.8176701,28.3552209
16,Парковая улица,180021,57.8175668,28.3596256
17,Красногорский переулок,180021,57.8167515,28.3633523
17,Парковая улица,180021,57.8175247,28.3606806
17А,Ипподромная улица,180021,57.8174332,28.3624772
17Б,Ипподромная улица,180021,57.8171836,28.3623318
18,Красногорский переулок,180021,57.8173883,28.3633058
18,Красногорский проезд,180021,57.8178872,28.3554027
18,Парковая улица,180021,57.8173748,28.3600239
19,Ипподромная улица,180021,57.8178215,28.3623567
19,Красногорский переулок,180021,57.8169408,28.3634875
19А,Ипподромная улица,180021,57.8175800,28.3621269
19А,Красногорский проезд,180021,57.8174283,28.3557917
19А,Парковая улица,180021,57.8173742,28.3610031
19Б,Ипподромная улица,180021,57.8173089,28.3620317
19Б,Парковая улица,180021,57.8172158,28.3613694
2,Парковая улица,180021,57.8189268,28.3575514
20,Парковая улица,180021,57.8172205,28.3607119
21,Ипподромная улица,180021,57.8179697,28.3620022
21,Красногорская набережная,180021,57.8165019,28.3670172
21А,Ипподромная улица,180021,57.8177289,28.3617470
21А,Красногорский проезд,180021,57.8173716,28.3562359
22,Красногорская улица,180021,57.8176164,28.3573992
22,Парковая улица,180021,57.8170726,28.3610879
23,Ипподромная улица,180021,57.8180995,28.3617821
23,Красногорский переулок,180021,57.8172842,28.3637928
23,Парковая улица,180021,57.8169496,28.3620250
23А,Ипподромная улица,180021,57.8179095,28.3613396
24,Парковая улица,180021,57.8169361,28.3613667
24/2,Красногорская улица,180021,57.8175027,28.3577755
25,Парковая улица,180021,57.8168101,28.3624156
25А,Ипподромная улица,180021,57.8180833,28.3610768
26,Парковая улица,180021,57.8168273,28.3616552
27,Ипподромная улица,180021,57.8184674,28.3612745
27/12,Парковая улица,180021,57.8167120,28.3628057
28,Парковая улица,180021,57.8167169,28.3619646
28А,Ипподромная улица,180021,57.8184490,28.3620930
29/16,Ипподромная улица,180021,57.8187061,28.3609616
3,Ипподромная улица,180021,57.8172237,28.3653605
3,Ипподромный переулок,180021,57.8190733,28.3596546
3,Парковая улица,180021,57.8189076,28.3582782
30,Парковая улица,180021,57.8166107,28.3623670
32,Парковая улица,180021,57.8165222,28.3626297
39,Красногорская улица,180021,57.8162965,28.3644103
3А,Ипподромная улица,180021,57.8171607,28.3649884
4,2-й Ипподромный проезд,180021,57.8176562,28.3668215
4,Ипподромная улица,180021,57.8171714,28.3660500
4,Ипподромный переулок,180021,57.8188864,28.3599646
4,Парковая улица,180021,57.8187784,28.3577547
4,улица Софьи Перовской,180021,57.8177636,28.3583973
41,Красногорская улица,180021,57.8164415,28.3649973
45/2,Красногорская улица,180021,57.8166119,28.3659629
46А,Красногорская улица,180021,57.8165449,28.3618180
47/1,Красногорская улица,180021,57.8167485,28.3665034
49,Красногорская улица,180021,57.8168505,28.3668907
5,Ипподромный переулок,180021,57.8189278,28.3593112
5,Парковая улица,180021,57.8186992,28.3584859
5,Парковый переулок,180021,57.8186953,28.3566169
5/2,Красногорская улица,180021,57.8180715,28.3557189
5/6,1-й Ипподромный проезд,180021,57.8178355,28.3666817
52,Красногорская улица,180021,57.8162359,28.3636220
52А,Красногорская улица,180021,57.8163369,28.3636979
54,Красногорская улица,180021,57.8165208,28.3640514
56,Красногорская улица,180021,57.8165942,28.3644319
58,Красногорская улица,180021,57.8167284,28.3646691
6,Ипподромная улица,180021,57.8173594,28.3659929
6,Ипподромный переулок,180021,57.8187509,28.3595092
60,Красногорская улица,180021,57.8167445,28.3651965
62/5,Красногорская улица,180021,57.8168925,28.3657013
64/6,Красногорская улица,180021,57.8169938,28.3662467
66,Красногорская улица,180021,57.8171342,28.3667976
68,Красногорская улица,180021,57.8172153,28.3671601
7,Ипподромная улица,180021,57.8175856,28.3651414
7,Красногорская улица,180021,57.8179715,28.3559085
7,Парковая улица,180021,57.8184427,28.3586944
8,1-й Ипподромный проезд,180021,57.8182402,28.3667818
8,Ипподромная улица,180021,57.8175946,28.3658253
8,Ипподромный переулок,180021,57.8186338,28.3592484
8,Красногорская улица,180021,57.8185454,28.3561465
8,Парковая улица,180021,57.8183797,28.3581466
8/6,2-й Ипподромный проезд,180021,57.8181535,28.3663793
8А,Ипподромная улица,180021,57.8177510,28.3662872
9,Ипподромная улица,180021,57.8175521,28.3646965
9,Красногорская улица,180021,57.8178573,28.3563269
9,Красногорский проезд,180021,57.8169570,28.3560190
9,улица Софьи Перовской,180021,57.8182314,28.3611040
9А,Красногорская улица,180021,57.8178139,28.3563976
10,Красногорская улица,180021,57.8184041,28.3564074
9А,Ольгинская набережная,180007,57.8175301,28.3223462
24,улица Ижорского Батальона,180020,57.8349211,28.2886934
10,Речная улица,180004,57.8121891,28.3701435
10А,улица Декабриста Пущина,180004,57.8154352,28.3687132
12,Речная улица,180004,57.8119995,28.3704974
12,Ручейный переулок,180004,57.8126547,28.3700546
12,улица Декабриста Пущина,180004,57.8147662,28.3688825
13,Ручейный переулок,180004,57.8126357,28.3706991
14,Малый переулок,180004,57.8103160,28.3712604
14,Речная улица,180004,57.8116938,28.3709408
14,Ручейный переулок,180004,57.8128051,28.3703052
14,улица Декабриста Пущина,180004,57.8144995,28.3690348
14А,Речная улица,180004,57.8119084,28.3713648
15,улица Декабриста Пущина,180004,57.8131492,28.3692505
16,Речная улица,180004,57.8115444,28.3713393
16,улица Декабриста Пущина,180004,57.8141696,28.3691080
17А,Узкий переулок,180004,57.8129838,28.3664598
18,улица Декабриста Пущина,180004,57.8138216,28.3692617
19,Речная улица,180004,57.8116495,28.3704905
22,улица Декабриста Пущина,180004,57.8135865,28.3696475
24/14,улица Декабриста Пущина,180004,57.8131667,28.3700505
45А,улица Льва Толстого,180004,57.8110241,28.3698150
4А,Огородная улица,180004,57.8139483,28.3673746
7А,Малый переулок,180004,57.8099241,28.3710177
8,улица Декабриста Пущина,180004,57.8152210,28.3687409
8А,Речная улица,180004,57.8124753,28.3697428
50,улица Советской Армии,180004,57.7909303,28.3488146
10,Мирожская набережная,180002,57.7999921,28.3247485
11,Великорецкая улица,180002,57.8004533,28.3294787
11,Мирожская набережная,180002,57.7997400,28.3243919
12,Великорецкая улица,180002,57.8002828,28.3292513
12,Мирожская набережная,180002,57.7995459,28.3243894
13,Великорецкая улица,180002,57.8000913,28.3291543
14,Великорецкая улица,180002,57.7999054,28.3289415
16,Мирожская набережная,180002,57.7994118,28.3243694
1,Великорецкая улица,180002,57.8022211,28.3308384
23,Мирожская набережная,180002,57.7990820,28.3249840
23,Мирожская улица,180002,57.7979244,28.3246923
3,Великорецкая улица,180002,57.8024481,28.3301468
2,Великорецкая улица,180002,57.8021169,28.3302907
8,Великорецкая улица,180002,57.8010480,28.3299700
8А,Завеличенская набережная,180002,57.8024087,28.3310655
9,Великорецкая улица,180002,57.8008410,28.3298027
9,Мирожская набережная,180002,57.8001798,28.3248340
9А,Мирожская улица,180002,57.7994956,28.3252930
29,улица Карла Маркса,180000,57.8177318,28.3441056
16Г,Западная улица,180024,57.8173635,28.2757122
16В,Западная улица,180024,57.8167792,28.2762357
16Б,Западная улица,180024,57.8170545,28.2759018
30,улица Богданова,180006,57.8336953,28.3287457
6,Бастионная улица,180004,57.8079476,28.3555197
5,улица Юрия Гагарина,180004,57.8094483,28.3574633
4Б,Народная улица,180016,57.8215888,28.3090132
76,Инженерная улица,180019,57.8332492,28.3579532
10,Застенный переулок,180006,57.8306748,28.3295918
5,Застенный переулок,180006,57.8305551,28.3306520
3А,улица Александра Невского,180006,57.8291945,28.3263922
4А,Петровская улица,180007,57.8245044,28.3165533
15А,Народная улица,180016,57.8231453,28.3045953
124,Ипподромная улица,180006,57.8334292,28.3319219
15,Коммунальная улица,180016,57.8210228,28.3088482
150А,Ипподромная улица,180006,57.8320051,28.3237076
154А,Ипподромная улица,180006,57.8319201,28.3230881
6,улица Плехановский Посад,180000,57.8170141,28.3506247
13В,улица Юрия Гагарина,180004,57.8076584,28.3560508
4,Милицейская улица,180000,57.8210652,28.3355154
9,переулок Залита,180021,57.8223175,28.3566104
8,Аллейный переулок,180021,57.8226589,28.3574037
120,улица Леона Поземского,180006,57.8389863,28.3044615
157,Ипподромная улица,180006,57.8300155,28.3226053
1А,Травяная улица,180006,57.8301948,28.3227498
28,улица Труда,180019,57.8320187,28.3412609
158,улица Советской Армии,180004,57.7561041,28.3778388
8,улица Ижорского Батальона,180020,57.8374170,28.3045634
27,переулок Машиниста,180004,57.8008251,28.3710963
4Б,Петровская улица,180007,57.8244696,28.3157538
24,улица Яна Райниса,180002,57.7982772,28.3300736
20Б,улица Яна Райниса,180002,57.7985678,28.3296723
43,Северная улица,180019,57.8349234,28.3344276
10,улица Малясова,180002,57.8082531,28.3241003
1А,переулок Машиниста,180004,57.7993745,28.3640041
6/2,проезд Медвёдово,180022,57.8159144,28.3857126
3,1-й переулок Мелиораторов,180014,57.8281239,28.4043132
6,Петропавловская улица,180020,57.8296210,28.2910256
8,Петропавловская улица,180020,57.8295330,28.2910020
12,Петропавловская улица,180020,57.8293718,28.2909394
14,Петропавловская улица,180020,57.8293022,28.2908460
16,Петропавловская улица,180020,57.8292257,28.2908179
103,Ипподромная улица,180019,57.8296570,28.3416669
81А,улица Советской Армии,180004,57.7782628,28.3603224
16,Птичий переулок,180006,57.8315913,28.3208428
10,Птичий переулок,180006,57.8311655,28.3203890
58/4,Коммунальная улица,180024,57.8154726,28.2800067
35Б,улица Ижорского Батальона,180020,57.8380882,28.2873123
35А,улица Ижорского Батальона,180020,57.8380231,28.2877393
35А,улица Ижорского Батальона,180020,57.8379647,28.2877516
22,улица Яна Райниса,180002,57.7987745,28.3302642
18,Октябрьский проспект,180000,57.8156646,28.3387953
1,Красноармейская улица,180007,57.8143614,28.3261975
18,улица Розы Люксембург,180007,57.8139339,28.3148615
4,улица Кузбасской Дивизии,180016,57.8234309,28.3084490
5,Западная улица,180024,57.8154668,28.2866290
3,Печорская улица,180024,57.8133701,28.2802348
48,Коммунальная улица,180024,57.8181359,28.2864010
6,Народная улица,180016,57.8196526,28.3084575
7,улица Леона Поземского,180006,57.8231262,28.3336878
5,улица Калинина,180000,57.8099926,28.3338571
64А,Советская улица,180000,57.8096479,28.3385894
18,Советская улица,180000,57.8180665,28.3336242
3А,Георгиевская улица,180000,57.8101064,28.3347406
19,Западная улица,180024,57.8187717,28.2809533
4,Верхне-Береговая улица,180006,57.8231379,28.3401731
1,площадь Победы,180017,57.8073152,28.3412315
2,улица Петрова,180019,57.8295563,28.3545882
21,Советская улица,180000,57.8147427,28.3334958
4,Кремль,180000,57.8202088,28.3301570
6,Кремль,180000,57.8203808,28.3306651
7,Кремль,180000,57.8197229,28.3293202
15Б,Коммунальная улица,180016,57.8209552,28.3077361
11/4,улица Ленина,180000,57.8170374,28.3380627
30А,Новгородская улица,180014,57.8192679,28.3965545
24,Пароменская улица,180007,57.8189828,28.3148863
24,Гдовская улица,180019,57.8347795,28.3353788
