House number,Street name,Postal code,Latitude,Longitude
8,شارع ابو الفوارس,11765,30.0495594,31.3255615
10,شارع ابو الفوارس,11765,30.0495234,31.3253521
12,شارع ابو الفوارس,11765,30.0494887,31.3251505
212,شارع اللواء عبد الشافى ابراهيم,11765,30.0629982,31.3021034
26,امتداد شارع رمسيس,11765,30.0598527,31.3025245
22,شارع اللواء عبد الشافى ابراهيم,11765,30.0605868,31.3024474
124,شارع ممدوح سالم,11765,30.0656371,31.3039201
113,شارع ممدوح سالم,11765,30.0658813,31.3046113
118,شارع ممدوح سالم,11765,30.0658004,31.3043822
19,امتداد شارع رمسيس,11765,30.0604957,31.3021436
252,شارع اللواء عبد الشافى ابراهيم,11765,30.0615589,31.3040668
251,شارع اللواء عبد الشافى ابراهيم,11765,30.0617191,31.3039622
250,شارع اللواء عبد الشافى ابراهيم,11765,30.0618886,31.3038468
241,شارع اللواء عبد الشافى ابراهيم,11765,30.0622716,31.3035759
240,شارع اللواء عبد الشافى ابراهيم,11765,30.0624202,31.3034955
239,شارع اللواء عبد الشافى ابراهيم,11765,30.0625664,31.3034016
21,شارع ابو ذر الغفارى,11765,30.0494508,31.3249068
20,شارع ابو ذر الغفارى,11765,30.0492333,31.3249379
14,شارع ابو القاسم المهدى,11765,30.0493395,31.3255158
16,شارع ابو القاسم المهدى,11765,30.0493183,31.3254005
18,شارع ابو القاسم المهدى,11765,30.0492717,31.3251468
6,شارع ابو الفوارس,11765,30.0495916,31.3257486
17L,شارع ابو القاسم المهدى,11765,30.0492912,31.3252531
21,شارع ابو القاسم المهدى,11765,30.0490886,31.3261628
19,شارع ابو القاسم المهدى,11765,30.0490353,31.3258585
17R,شارع ابو القاسم المهدى,11765,30.0489951,31.3256291
15,شارع ابو القاسم المهدى,11765,30.0489660,31.3254627
13R,شارع ابو القاسم المهدى,11765,30.0489215,31.3252083
22,شارع ابو ذر الغفارى,11765,30.0488864,31.3250079
21,شارع الإمام بن حنبل,11765,30.0486632,31.3250516
19,شارع الإمام بن حنبل,11765,30.0487036,31.3252850
17,شارع الإمام بن حنبل,11765,30.0487409,31.3255012
15,شارع الإمام بن حنبل,11765,30.0487729,31.3256863
13,شارع الإمام بن حنبل,11765,30.0487950,31.3258139
11,شارع الإمام بن حنبل,11765,30.0488450,31.3261033
9,شارع الإمام ابو حنيفه,11765,30.0485620,31.3268578
6,شارع الإمام بن حنبل,11765,30.0485296,31.3266593
8,شارع الإمام بن حنبل,11765,30.0484942,31.3264423
10,شارع الإمام بن حنبل,11765,30.0484571,31.3262148
12,شارع الإمام بن حنبل,11765,30.0484288,31.3260409
9,شارع الاحمص,11765,30.0481983,31.3261119
7,شارع الاحمص,11765,30.0482301,31.3262890
5,شارع الاحمص,11765,30.0482628,31.3264713
3,شارع الاحمص,11765,30.0482974,31.3266640
11,شارع الإمام ابو حنيفه,11765,30.0483399,31.3269004
2,شارع الاحمص,11765,30.0480543,31.3270372
4,شارع الاحمص,11765,30.0480040,31.3267857
6,شارع الاحمص,11765,30.0479731,31.3266310
8,شارع الاحمص,11765,30.0479285,31.3264078
10,شارع الاحمص,11765,30.0478848,31.3261896
9,شارع اللواء صالح حرب,11765,30.0476619,31.3262245
7,شارع اللواء صالح حرب,11765,30.0476936,31.3264153
5,شارع اللواء صالح حرب,11765,30.0477252,31.3266055
3,شارع اللواء صالح حرب,11765,30.0477625,31.3268307
1,شارع اللواء صالح حرب,11765,30.0478012,31.3270640
2,شارع اللواء صالح حرب,11765,30.0473856,31.3271419
4,شارع اللواء صالح حرب,11765,30.0473521,31.3269337
6,شارع اللواء صالح حرب,11765,30.0473272,31.3267785
8,شارع اللواء صالح حرب,11765,30.0472873,31.3265307
10,شارع اللواء صالح حرب,11765,30.0472460,31.3262739
9,شارع عبد الله بن عباس,11765,30.0470302,31.3263527
7,شارع عبد الله بن عباس,11765,30.0470576,31.3265195
5,شارع عبد الله بن عباس,11765,30.0470842,31.3266810
3,شارع عبد الله بن عباس,11765,30.0471194,31.3268945
1,شارع عبد الله بن عباس,11765,30.0471594,31.3271378
24,شارع اللواء صالح حرب,11765,30.0469817,31.3246313
21,شارع عبد الله بن عباس,11765,30.0467752,31.3248030
12,شارع اللواء صالح حرب,11765,30.0471758,31.3258381
14,شارع اللواء صالح حرب,11765,30.0471429,31.3256334
16,شارع اللواء صالح حرب,11765,30.0471112,31.3254362
18,شارع اللواء صالح حرب,11765,30.0470757,31.3252155
20,شارع اللواء صالح حرب,11765,30.0470371,31.3249756
22,شارع اللواء صالح حرب,11765,30.0470039,31.3247691
19,شارع عبد الله بن عباس,11765,30.0468229,31.3250933
17,شارع عبد الله بن عباس,11765,30.0468595,31.3253155
15,شارع عبد الله بن عباس,11765,30.0468966,31.3255410
13,شارع عبد الله بن عباس,11765,30.0469302,31.3257450
5,شارع الخليفه المنتصر,11765,30.0469585,31.3259168
12,شارع عبد الله بن عباس,11765,30.0466110,31.3260332
14,شارع عبد الله بن عباس,11765,30.0465707,31.3257816
16,شارع عبد الله بن عباس,11765,30.0465316,31.3255372
18,شارع عبد الله بن عباس,11765,30.0464913,31.3252857
20,شارع عبد الله بن عباس,11765,30.0464593,31.3250859
21,شارع عباس زعزوع,11765,30.0462751,31.3252482
3,شارع عباس زعزوع,11765,30.0463035,31.3254270
19,شارع عباس زعزوع,11765,30.0463410,31.3256630
17,شارع عباس زعزوع,11765,30.0463678,31.3258315
9,شارع الخليفه المنتصر,11765,30.0464060,31.3260725
15,شارع الإمام ابو حنيفه,11765,30.0468157,31.3273108
4,شارع عبد الله بن عباس,11765,30.0467818,31.3270993
6,شارع عبد الله بن عباس,11765,30.0467470,31.3268817
8,شارع عبد الله بن عباس,11765,30.0467021,31.3266013
10,شارع عبد الله بن عباس,11765,30.0466670,31.3263824
13,شارع عباس زعزوع,11765,30.0464649,31.3264428
11,شارع عباس زعزوع,11765,30.0465036,31.3266862
9,شارع عباس زعزوع,11765,30.0465424,31.3269309
7,شارع عباس زعزوع,11765,30.0465801,31.3271680
5,شارع عباس زعزوع,11765,30.0466149,31.3273871
25,شارع الإمام ابو حنيفه,11765,30.0462434,31.3274361
27,شارع الإمام ابو حنيفه,11765,30.0460353,31.3274819
13,شارع تهامه,11765,30.0452461,31.3263338
29,شارع الإمام ابو حنيفه,11765,30.0457041,31.3275547
4,شارع ابو الفضل ربيع,11765,30.0456760,31.3273878
6,شارع ابو الفضل ربيع,11765,30.0456431,31.3271926
8,شارع ابو الفضل ربيع,11765,30.0456050,31.3269661
36,شارع عباس زعزوع,11765,30.0459503,31.3256999
10,شارع ابو الفضل ربيع,11765,30.0455656,31.3267326
20,شارع عباس زعزوع,11765,30.0459726,31.3258317
12,شارع ابو الفضل ربيع,11765,30.0455301,31.3265215
17,شارع ابو الفضل ربيع,11765,30.0457709,31.3258617
14,شارع ابو الفضل ربيع,11765,30.0454999,31.3263422
15,شارع ابو الفضل ربيع,11765,30.0458048,31.3260696
16,شارع ابو الفضل ربيع,11765,30.0454713,31.3261729
18,شارع عباس زعزوع,11765,30.0460124,31.3260677
11,شارع تهامه,11765,30.0452786,31.3264813
13,شارع ابو الفضل ربيع,11765,30.0458331,31.3262429
9,شارع تهامه,11765,30.0453178,31.3267221
16,شارع عباس زعزوع,11765,30.0460516,31.3262997
7,شارع تهامه,11765,30.0453541,31.3269449
11,شارع ابو الفضل ربيع,11765,30.0458583,31.3263971
5,شارع تهامه,11765,30.0453877,31.3271512
9,شارع ابو الفضل ربيع,11765,30.0458872,31.3265745
3,شارع تهامه,11765,30.0454173,31.3273332
14,شارع عباس زعزوع,11765,30.0460875,31.3265127
1,شارع تهامه,11765,30.0454621,31.3276079
7,شارع ابو الفضل ربيع,11765,30.0459289,31.3268298
12,شارع عباس زعزوع,11765,30.0461333,31.3267835
10,شارع عباس زعزوع,11765,30.0461715,31.3270102
5,شارع ابو الفضل ربيع,11765,30.0459639,31.3270445
3,شارع ابو الفضل ربيع,11765,30.0459999,31.3272652
8,شارع عباس زعزوع,11765,30.0462011,31.3271856
202,شارع اللواء عبد الشافى ابراهيم,11765,30.0634153,31.3019989
201,شارع اللواء عبد الشافى ابراهيم,11765,30.0633093,31.3017842
192,شارع اللواء عبد الشافى ابراهيم,11765,30.0640289,31.3030341
191,شارع اللواء عبد الشافى ابراهيم,11765,30.0639243,31.3031144
190,شارع اللواء عبد الشافى ابراهيم,11765,30.0637881,31.3032190
189,شارع اللواء عبد الشافى ابراهيم,11765,30.0636621,31.3033158
203,شارع اللواء عبد الشافى ابراهيم,11765,30.0636792,31.3025328
204,شارع اللواء عبد الشافى ابراهيم,11765,30.0637666,31.3027096
210,شارع اللواء عبد الشافى ابراهيم,11765,30.0632953,31.3025754
209,شارع اللواء عبد الشافى ابراهيم,11765,30.0634323,31.3028410
211,شارع اللواء عبد الشافى ابراهيم,11765,30.0631491,31.3023556
238,شارع اللواء عبد الشافى ابراهيم,11765,30.0623366,31.3007194
237,شارع اللواء عبد الشافى ابراهيم,11765,30.0624271,31.3009045
236,شارع اللواء عبد الشافى ابراهيم,11765,30.0625246,31.3010922
242,شارع اللواء عبد الشافى ابراهيم,11765,30.0626778,31.3013497
15,امتداد شارع رمسيس,11765,30.0616750,31.3011861
14,امتداد شارع رمسيس,11765,30.0618979,31.3010493
243,امتداد شارع رمسيس,11765,30.0621416,31.3009876
257,شارع اللواء عبد الشافى ابراهيم,11765,30.0606884,31.3026506
255,شارع اللواء عبد الشافى ابراهيم,11765,30.0608254,31.3029054
18,امتداد شارع رمسيس,11765,30.0606582,31.3020256
256,شارع اللواء عبد الشافى ابراهيم,11765,30.0607580,31.3027874
24,امتداد شارع رمسيس,11765,30.0601475,31.3023099
25,امتداد شارع رمسيس,11765,30.0599827,31.3024279
36,امتداد شارع رمسيس,11765,30.0594534,31.3028491
35,امتداد شارع رمسيس,11765,30.0596577,31.3027659
37,طريق النصر,11765,30.0590657,31.3030261
38,طريق النصر,11765,30.0592119,31.3032343
39,طريق النصر,11765,30.0593652,31.3034525
40,طريق النصر,11765,30.0595277,31.3038442
41,طريق النصر,11765,30.0596445,31.3040774
42,طريق النصر,11765,30.0597680,31.3043239
43,طريق النصر,11765,30.0599392,31.3046739
44,طريق النصر,11765,30.0600457,31.3048835
45,طريق النصر,11765,30.0601451,31.3050820
52,طريق النصر,11765,30.0609995,31.3067248
51,طريق النصر,11765,30.0608588,31.3064707
50,طريق النصر,11765,30.0607446,31.3062642
46,طريق النصر,11765,30.0602427,31.3053569
47,طريق النصر,11765,30.0603181,31.3054933
48,طريق النصر,11765,30.0604378,31.3057096
49,طريق النصر,11765,30.0606547,31.3058580
254,شارع اللواء عبد الشافى ابراهيم,11765,30.0610296,31.3033077
253,شارع اللواء عبد الشافى ابراهيم,11765,30.0611434,31.3035169
93,شارع اسماعيل الفنجري,11765,30.0632002,31.3065827
94,شارع اسماعيل الفنجري,11765,30.0633882,31.3064191
95,شارع اسماعيل الفنجري,11765,30.0636853,31.3063976
96,شارع اسماعيل الفنجري,11765,30.0638710,31.3062447
97,شارع اسماعيل الفنجري,11765,30.0646394,31.3059229
99,شارع اسماعيل الفنجري,11765,30.0649133,31.3057861
107,شارع اسماعيل الفنجري,11765,30.0653242,31.3056090
125,شارع ممدوح سالم,11765,30.0655383,31.3036403
171,شارع ممدوح سالم,11765,30.0653611,31.3031389
126,شارع ممدوح سالم,11765,30.0654124,31.3032841
134,شارع ممدوح سالم,11765,30.0652349,31.3027816
135,شارع ممدوح سالم,11765,30.0651693,31.3025960
136,شارع ممدوح سالم,11765,30.0651017,31.3024046
139,شارع ممدوح سالم,11765,30.0648046,31.3015636
1,شارع ممدوح سالم,11765,30.0645718,31.3009047
7,شارع ممدوح سالم,11765,30.0640998,31.2995688
141,شارع ممدوح سالم,11765,30.0646569,31.3011456
2,شارع ممدوح سالم,11765,30.0644976,31.3006948
8,شارع ممدوح سالم,11765,30.0639917,31.2992629
206,شارع اللواء عبد الشافى ابراهيم,11765,30.0630377,31.3012800
207,شارع اللواء عبد الشافى ابراهيم,11765,30.0629239,31.3010627
208,شارع اللواء عبد الشافى ابراهيم,11765,30.0628450,31.3008696
161,امتداد شارع رمسيس,11765,30.0626477,31.3003761
162,امتداد شارع رمسيس,11765,30.0627661,31.3001400
163,امتداد شارع رمسيس,11765,30.0629773,31.3000703
164,امتداد شارع رمسيس,11765,30.0631537,31.2998530
165,امتداد شارع رمسيس,11765,30.0632071,31.2994534
166,امتداد شارع رمسيس,11765,30.0633580,31.2991476
13,امتداد شارع رمسيس,11765,30.0635623,31.2990296
12,امتداد شارع رمسيس,11765,30.0636830,31.2988338
54,شارع الإمام ابو حنيفه,11765,30.0451289,31.3281396
4,شارع عباس زعزوع,11765,30.0463351,31.3278835
44,شارع الإمام ابو حنيفه,11765,30.0461464,31.3279263
46,شارع الإمام ابو حنيفه,11765,30.0459201,31.3279732
48,شارع الإمام ابو حنيفه,11765,30.0457270,31.3280132
50,شارع الإمام ابو حنيفه,11765,30.0454834,31.3280636
52,شارع الإمام ابو حنيفه,11765,30.0453044,31.3281007
56,شارع الإمام ابو حنيفه,11765,30.0448948,31.3281855
58,شارع الإمام ابو حنيفه,11765,30.0446685,31.3282323
60,شارع الإمام ابو حنيفه,11765,30.0444556,31.3282764
59,شارع عبد الله العربى,11765,30.0444690,31.3285230
57,شارع عبد الله العربى,11765,30.0446704,31.3284645
55,شارع عبد الله العربى,11765,30.0448768,31.3283837
49,شارع عبد الله العربى,11765,30.0454826,31.3282699
47,شارع عبد الله العربى,11765,30.0456796,31.3282386
45,شارع عبد الله العربى,11765,30.0459225,31.3281851
43,شارع عبد الله العربى,11765,30.0461215,31.3281384
2,شارع عباس زعزوع,11765,30.0463273,31.3280752
8,شارع الإمام ابو حنيفه,11765,30.0500324,31.3270426
4,شارع الإمام بن حنبل,11765,30.0486405,31.3273393
22,شارع الإمام ابو حنيفه,11765,30.0484588,31.3273809
24,شارع الإمام ابو حنيفه,11765,30.0482668,31.3274249
26,شارع الإمام ابو حنيفه,11765,30.0480747,31.3274689
28,شارع الإمام ابو حنيفه,11765,30.0478791,31.3275137
40,شارع الإمام ابو حنيفه,11765,30.0466868,31.3277869
38,شارع الإمام ابو حنيفه,11765,30.0468670,31.3277456
36,شارع الإمام ابو حنيفه,11765,30.0470943,31.3276935
34,شارع الإمام ابو حنيفه,11765,30.0472721,31.3276528
32,شارع الإمام ابو حنيفه,11765,30.0474606,31.3276096
30,شارع الإمام ابو حنيفه,11765,30.0476781,31.3275598
1,شارع عباس زعزوع,11765,30.0467808,31.3281168
37,شارع عبد الله العربى,11765,30.0470006,31.3280726
35,شارع عبد الله العربى,11765,30.0471645,31.3280318
33,شارع عبد الله العربى,11765,30.0473858,31.3279774
29,شارع عبد الله العربى,11765,30.0477715,31.3278932
31,شارع عبد الله العربى,11765,30.0475549,31.3279424
27,شارع عبد الله العربى,11765,30.0479446,31.3278378
25,شارع عبد الله العربى,11765,30.0481445,31.3277880
23,شارع عبد الله العربى,11765,30.0483382,31.3277399
21,شارع عبد الله العربى,11765,30.0485248,31.3276934
5,شارع عبد الله العربى,11765,30.0503261,31.3272518
7,شارع عبد الله العربى,11765,30.0500890,31.3273101
9,شارع عبد الله العربى,11765,30.0498966,31.3273574
11,شارع عبد الله العربى,11765,30.0497185,31.3274012
13,شارع عبد الله العربى,11765,30.0495036,31.3274541
15,شارع عبد الله العربى,11765,30.0492876,31.3275072
17,شارع عبد الله العربى,11765,30.0491058,31.3275519
19,شارع عبد الله العربى,11765,30.0486930,31.3276610
3,شارع الإمام بن حنبل,11765,30.0490294,31.3272759
16,شارع الإمام ابو حنيفه,11765,30.0491982,31.3272371
14,شارع الإمام ابو حنيفه,11765,30.0494054,31.3271893
12,شارع الإمام ابو حنيفه,11765,30.0496108,31.3271420
10,شارع الإمام ابو حنيفه,11765,30.0498323,31.3270910
6,شارع الإمام ابو حنيفه,11765,30.0502353,31.3269903
4,شارع جعفر الصديق,11765,30.0504322,31.3269449
3,شارع عبد الله العربى,11765,30.0504944,31.3272075
2,شارع الإمام بن حنبل,11765,30.0484954,31.3233612
1,شارع الإمام بن حنبل,11765,30.0484606,31.3231896
1,شارع الخليفه الظافر,11765,30.0437103,31.3278459
2,شارع الخليفه الظافر,11765,30.0437259,31.3279938
3,شارع الخليفه الظافر,11765,30.0437381,31.3281101
4,شارع الخليفه الظافر,11765,30.0437544,31.3282643
1,شارع الخليفه الظافر,11765,30.0437799,31.3285473
2,شارع الخليفه الظافر,11765,30.0438078,31.3287753
2,شارع عبد العزيز الشناوي البخاري,11765,30.0441584,31.3284802
1,شارع عبد العزيز الشناوي البخاري,11765,30.0441839,31.3286760
2,شارع عبد العزيز الشناوي البخاري,11765,30.0440748,31.3278285
1,شارع عبد العزيز الشناوي البخاري,11765,30.0440446,31.3275737
3,شارع الخليفه الظافر,11765,30.0439982,31.3266483
2,شارع الخليفه الظافر,11765,30.0441282,31.3264847
1,شارع الخليفه الظافر,11765,30.0442628,31.3262862
1,شارع الخليفه الظافر,11765,30.0443998,31.3261467
1,شارع الخليفه الظافر,11765,30.0445275,31.3260153
3,شارع عبد العزيز الشناوي البخاري,11765,30.0442211,31.3268119
2,شارع عبد العزيز الشناوي البخاري,11765,30.0443441,31.3266805
1,شارع عبد العزيز الشناوي البخاري,11765,30.0444881,31.3265437
1,شارع عبد العزيز الشناوي البخاري,11765,30.0446111,31.3263586
1,شارع عبد العزيز الشناوي البخاري,11765,30.0447620,31.3262084
1,شارع الخليفه الظافر,11765,30.0449153,31.3257444
1,شارع عبد العزيز الشناوي البخاري,11765,30.0455818,31.3255450
2,شارع عبد العزيز الشناوي البخاري,11765,30.0454698,31.3256551
3,شارع عبد العزيز الشناوي البخاري,11765,30.0453212,31.3258013
4,شارع عبد العزيز الشناوي البخاري,11765,30.0451800,31.3259402
1,شارع الخليفه الظافر,11765,30.0450476,31.3256304
1,شارع الخليفه الظافر,11765,30.0452276,31.3253877
2,شارع الخليفه الظافر,11765,30.0453553,31.3252656
3,شارع الخليفه الظافر,11765,30.0454969,31.3251235
3,شارع عبد العزيز الشناوي البخاري,11765,30.0457093,31.3252844
1,شارع عبد العزيز الشناوي البخاري,11765,30.0458533,31.3251422
1,شارع عبد العزيز الشناوي البخاري,11765,30.0460135,31.3249706
1,شارع عبد العزيز الشناوي البخاري,11765,30.0461679,31.3248485
1,شارع الخليفه الظافر,11765,30.0460425,31.3245495
2,شارع الخليفه الظافر,11765,30.0461622,31.3244309
3,شارع الخليفه الظافر,11765,30.0463351,31.3242598
1,شارع الخليفه الظافر,11765,30.0465788,31.3241310
1,شارع الخليفه الظافر,11765,30.0466926,31.3240077
2,شارع عبد العزيز الشناوي البخاري,11765,30.0466984,31.3244502
3,شارع عبد العزيز الشناوي البخاري,11765,30.0465498,31.3245924
4,شارع عبد العزيز الشناوي البخاري,11765,30.0464070,31.3247332
1,شارع عبد العزيز الشناوي البخاري,11765,30.0468203,31.3243161
1,شارع الخليفه الظافر,11765,30.0474537,31.3232067
2,شارع الخليفه الظافر,11765,30.0473065,31.3233516
3,شارع الخليفه الظافر,11765,30.0471523,31.3235047
2,شارع اللواء صالح حرب,11765,30.0469968,31.3237032
1,شارع اللواء صالح حرب,11765,30.0471047,31.3238601
3,شارع عبد العزيز الشناوي البخاري,11765,30.0473241,31.3237207
2,شارع عبد العزيز الشناوي البخاري,11765,30.0474620,31.3235870
1,شارع عبد العزيز الشناوي البخاري,11765,30.0475993,31.3234538
5,شارع الخليفه الظافر,11765,30.0477966,31.3229173
5,شارع الخليفه الظافر,11765,30.0481286,31.3225646
3,شارع عبد العزيز الشناوي البخاري,11765,30.0479927,31.3230783
2,شارع عبد العزيز الشناوي البخاري,11765,30.0481043,31.3229647
1,شارع عبد العزيز الشناوي البخاري,11765,30.0482636,31.3228026
3,شارع الخليفه الظافر,11765,30.0487357,31.3219370
2,شارع الخليفه الظافر,11765,30.0486080,31.3220590
1,شارع الخليفه الظافر,11765,30.0484792,31.3221972
3,شارع عبد العزيز الشناوي البخاري,11765,30.0486159,31.3224412
2,شارع عبد العزيز الشناوي البخاري,11765,30.0487526,31.3223020
1,شارع عبد العزيز الشناوي البخاري,11765,30.0488832,31.3221690
13,شارع ابو ذر الغفارى,11765,30.0476663,31.3249204
4,شارع لطفى جمعه,11765,30.0476262,31.3247026
6,شارع لطفى جمعه,11765,30.0475895,31.3245075
8,شارع لطفى جمعه,11765,30.0475558,31.3243281
10,شارع لطفى جمعه,11765,30.0475215,31.3241458
12,شارع عبد العزيز الشناوي البخاري,11765,30.0473114,31.3243040
15,شارع اللواء صالح حرب,11765,30.0473671,31.3245515
13,شارع اللواء صالح حرب,11765,30.0474108,31.3247639
12,شارع ابو ذر الغفارى,11765,30.0474541,31.3249800
28,شارع الإمام بن حنبل,11765,30.0480102,31.3236303
26,شارع الإمام بن حنبل,11765,30.0480466,31.3238202
24,شارع الإمام بن حنبل,11765,30.0480857,31.3240244
22,شارع الإمام بن حنبل,11765,30.0481286,31.3242490
20,شارع الإمام بن حنبل,11765,30.0481763,31.3244978
18,شارع الإمام بن حنبل,11765,30.0482109,31.3246788
11,شارع لطفى جمعه,11765,30.0478419,31.3238695
9,شارع لطفى جمعه,11765,30.0478760,31.3240679
7,شارع لطفى جمعه,11765,30.0479110,31.3242716
5,شارع لطفى جمعه,11765,30.0479488,31.3244920
3,شارع لطفى جمعه,11765,30.0479841,31.3246973
1,شارع لطفى جمعه,11765,30.0480060,31.3248249
27,شارع جعفر الصديق,11765,30.0499651,31.3220349
22,شارع داوود بركات,11765,30.0501764,31.3219947
7,شارع جعفر الصديق,11765,30.0503510,31.3242524
9,شارع جعفر الصديق,11765,30.0503081,31.3240059
11,شارع جعفر الصديق,11765,30.0502641,31.3237532
13,شارع جعفر الصديق,11765,30.0502286,31.3235490
15,شارع جعفر الصديق,11765,30.0501920,31.3233391
17,شارع جعفر الصديق,11765,30.0501567,31.3231359
19,شارع جعفر الصديق,11765,30.0501214,31.3229333
21,شارع جعفر الصديق,11765,30.0500771,31.3226785
23,شارع جعفر الصديق,11765,30.0500327,31.3224237
25,شارع جعفر الصديق,11765,30.0499915,31.3221865
20,شارع داوود بركات,11765,30.0501991,31.3221571
18,شارع داوود بركات,11765,30.0502288,31.3223682
16,شارع داوود بركات,11765,30.0502638,31.3225622
14,شارع داوود بركات,11765,30.0503046,31.3228060
12,شارع داوود بركات,11765,30.0503311,31.3229642
10,شارع داوود بركات,11765,30.0503699,31.3231956
8,شارع داوود بركات,11765,30.0504072,31.3234182
6,شارع داوود بركات,11765,30.0504478,31.3236609
4,شارع داوود بركات,11765,30.0504895,31.3239092
2,شارع داوود بركات,11765,30.0505362,31.3241982
5,شارع جعفر الصديق,11765,30.0504189,31.3246503
10,شارع ابو ذر الغفارى,11765,30.0506066,31.3246086
8,شارع ابو ذر الغفارى,11765,30.0508118,31.3245630
6`,شارع ابو ذر الغفارى,11765,30.0509594,31.3245302
4`,شارع ابو ذر الغفارى,11765,30.0511660,31.3244843
6,شارع ابو ذر الغفارى,11765,30.0513859,31.3244355
2,شارع ابو ذر الغفارى,11765,30.0514440,31.3247412
3,شارع الوادى,11765,30.0512148,31.3247971
5,شارع الوادى,11765,30.0510098,31.3248471
7,شارع الوادى,11765,30.0508364,31.3248894
9,شارع الوادى,11765,30.0506608,31.3249322
3,شارع جعفر الصديق,11765,30.0504759,31.3249773
19,شارع ابو الفوارس,11765,30.0499083,31.3251310
6,شارع جعفر الصديق,11765,30.0503807,31.3264284
8,شارع جعفر الصديق,11765,30.0503381,31.3261797
10,شارع جعفر الصديق,11765,30.0503070,31.3259986
12,شارع جعفر الصديق,11765,30.0502602,31.3257257
14,شارع جعفر الصديق,11765,30.0502346,31.3255760
16,شارع جعفر الصديق,11765,30.0501913,31.3253237
18,شارع جعفر الصديق,11765,30.0501699,31.3251988
3,شارع ابو الفوارس,11765,30.0501253,31.3263448
5,شارع ابو الفوارس,11765,30.0501026,31.3262180
7,شارع ابو الفوارس,11765,30.0500762,31.3260701
9,شارع ابو الفوارس,11765,30.0500468,31.3259058
11,شارع ابو الفوارس,11765,30.0500124,31.3257137
13,شارع ابو الفوارس,11765,30.0499880,31.3255768
15,شارع ابو الفوارس,11765,30.0499635,31.3254397
17,شارع ابو الفوارس,11765,30.0499392,31.3253037
21,شارع ابو الفوارس,11765,30.0498819,31.3249832
23,شارع ابو الفوارس,11765,30.0498360,31.3247266
24,شارع جعفر الصديق,11765,30.0500135,31.3242866
26,شارع جعفر الصديق,11765,30.0499784,31.3240821
28,شارع جعفر الصديق,11765,30.0499399,31.3238575
30,شارع جعفر الصديق,11765,30.0499072,31.3236664
32,شارع جعفر الصديق,11765,30.0498738,31.3234715
34,شارع جعفر الصديق,11765,30.0498351,31.3232460
36,شارع جعفر الصديق,11765,30.0497934,31.3230026
38,شارع جعفر الصديق,11765,30.0497490,31.3227436
40,شارع جعفر الصديق,11765,30.0497127,31.3225320
43,شارع ابو الفوارس,11765,30.0494045,31.3223424
41,شارع ابو الفوارس,11765,30.0494528,31.3226093
39,شارع ابو الفوارس,11765,30.0494988,31.3228639
37,شارع ابو الفوارس,11765,30.0495375,31.3230774
35,شارع ابو الفوارس,11765,30.0495747,31.3232828
33,شارع ابو الفوارس,11765,30.0496219,31.3235436
31,شارع ابو الفوارس,11765,30.0496527,31.3237141
29,شارع ابو الفوارس,11765,30.0496878,31.3239080
27,شارع ابو الفوارس,11765,30.0497261,31.3241195
25,شارع ابو الفوارس,11765,30.0497676,31.3243488
8,شارع ابو القاسم المهدى,11765,30.0491311,31.3243498
6,شارع ابو القاسم المهدى,11765,30.0490924,31.3241268
4,شارع ابو القاسم المهدى,11765,30.0490484,31.3238739
2,شارع ابو القاسم المهدى,11765,30.0490121,31.3236649
24,شارع ابو الفوارس,11765,30.0492206,31.3235931
22,شارع ابو الفوارس,11765,30.0492635,31.3238421
20,شارع ابو الفوارس,11765,30.0492901,31.3239970
18,شارع ابو الفوارس,11765,30.0493302,31.3242295
11,شارع ابو ذر الغفارى,11765,30.0493764,31.3244980
23,شارع الإمام بن حنبل,11765,30.0485512,31.3244703
29,شارع الإمام بن حنبل,11765,30.0484374,31.3237649
27,شارع الإمام بن حنبل,11765,30.0484814,31.3240155
25,شارع الإمام بن حنبل,11765,30.0485156,31.3242104
23,شارع ابو ذر الغفارى,11765,30.0486012,31.3246981
9,شارع ابو القاسم المهدى,11765,30.0488256,31.3246607
7,شارع ابو القاسم المهدى,11765,30.0487878,31.3244452
5,شارع ابو القاسم المهدى,11765,30.0487431,31.3241895
3,شارع ابو القاسم المهدى,11765,30.0487040,31.3239662
1,شارع ابو القاسم المهدى,11765,30.0486626,31.3237300
1,شارع بلوك 109,11765,30.0480676,31.3156721
2,شارع بلوك 109,11765,30.0479945,31.3158773
2,شارع جامع ال بدر,11765,30.0483863,31.3161220
1,شارع جامع ال بدر,11765,30.0485337,31.3161770
3,شارع الخليفه القاهر,11765,30.0498275,31.3164800
1,شارع الخليفه القاهر,11765,30.0498670,31.3162226
2,شارع الخليفه القاهر,11765,30.0498432,31.3163520
4,شارع المستشفى,11765,30.0489006,31.3172042
3,شارع المستشفى,11765,30.0489109,31.3173187
2,شارع المستشفى,11765,30.0489260,31.3174865
1,شارع المستشفى,11765,30.0489366,31.3176039
1,شارع الخليفه القاهر,11765,30.0498746,31.3169387
2,شارع الخليفه القاهر,11765,30.0498847,31.3171018
3,شارع الخليفه القاهر,11765,30.0498948,31.3172650
4,شارع الخليفه القاهر,11765,30.0499049,31.3174283
1,شارع الخليفه القاهر,11765,30.0499291,31.3178176
2,شارع الخليفه القاهر,11765,30.0499398,31.3179903
3,شارع الخليفه القاهر,11765,30.0499499,31.3181540
4,شارع الخليفه القاهر,11765,30.0499604,31.3183227
1,شارع المستشفى,11765,30.0493255,31.3195699
2,شارع المستشفى,11765,30.0492854,31.3194054
3,شارع المستشفى,11765,30.0492505,31.3192621
4,شارع المستشفى,11765,30.0492187,31.3191314
3,شارع صديق جوهر,11765,30.0495286,31.3198569
2,شارع صديق جوهر,11765,30.0496679,31.3197939
1,شارع صديق جوهر,11765,30.0498641,31.3197134
1,شارع صفيه زغلول,11765,30.0495646,31.3189879
2,شارع صفيه زغلول,11765,30.0497084,31.3189424
3,شارع صفيه زغلول,11765,30.0498383,31.3188941
4,شارع الخليفه القاهر,11765,30.0502054,31.3193916
3,شارع الخليفه القاهر,11765,30.0501485,31.3191904
2,شارع الخليفه القاهر,11765,30.0500905,31.3189960
1,شارع الخليفه القاهر,11765,30.0500394,31.3188377
1,شارع الخليفه القاهر,11765,30.0504283,31.3200675
2,شارع الخليفه القاهر,11765,30.0504840,31.3202740
1,شارع الخليفه الظافر,11765,30.0502924,31.3204376
2,شارع الخليفه الظافر,11765,30.0501462,31.3205141
3,شارع صديق جوهر,11765,30.0501880,31.3201681
2,شارع صديق جوهر,11765,30.0500312,31.3202392
1,شارع صديق جوهر,11765,30.0498606,31.3203076
3,شارع الخليفه الظافر,11765,30.0495263,31.3208064
2,شارع الخليفه الظافر,11765,30.0496746,31.3207373
1,شارع الخليفه الظافر,11765,30.0498571,31.3206522
3,شارع الخليفه الظافر,11765,30.0488832,31.3210720
2,شارع الخليفه الظافر,11765,30.0490463,31.3209967
1,شارع الخليفه الظافر,11765,30.0492233,31.3209151
1,شارع صديق جوهر,11765,30.0488066,31.3207702
2,شارع صديق جوهر,11765,30.0489869,31.3206906
3,شارع صديق جوهر,11765,30.0491825,31.3206042
4,شارع صديق جوهر,11765,30.0493289,31.3205396
2,شارع صديق جوهر,11765,30.0474669,31.3219303
2,شارع صديق جوهر,11765,30.0476027,31.3217747
2,شارع صديق جوهر,11765,30.0477386,31.3216299
1,شارع صديق جوهر,11765,30.0478883,31.3214676
2,شارع صديق جوهر,11765,30.0480643,31.3213153
3,شارع صديق جوهر,11765,30.0482168,31.3211833
2,شارع ابو الفوارس,11765,30.0484188,31.3210908
1,شارع ابو الفوارس,11765,30.0485314,31.3212530
3,شارع الخليفه الظافر,11765,30.0483550,31.3214757
2,شارع الخليفه الظافر,11765,30.0482256,31.3216017
1,شارع الخليفه الظافر,11765,30.0481185,31.3217061
3,شارع الخليفه الظافر,11765,30.0478965,31.3219223
2,شارع الخليفه الظافر,11765,30.0477813,31.3220346
1,شارع الخليفه الظافر,11765,30.0476805,31.3221328
1,شارع الخليفه الظافر,11765,30.0474692,31.3222803
1,شارع الخليفه الظافر,11765,30.0473415,31.3224587
1,شارع الخليفه الظافر,11765,30.0471964,31.3226183
1,شارع الخليفه الظافر,11765,30.0470374,31.3227524
5,شارع صديق جوهر,11765,30.0469805,31.3222897
4,شارع صديق جوهر,11765,30.0468702,31.3223889
3,شارع صديق جوهر,11765,30.0467855,31.3224788
2,شارع صديق جوهر,11765,30.0466566,31.3226236
1,شارع صديق جوهر,11765,30.0465545,31.3227309
2,شارع الخليفه الظافر,11765,30.0468389,31.3228449
1,شارع الخليفه الظافر,11765,30.0467402,31.3229763
1,شارع اللواء صالح حرب,11765,30.0465487,31.3231038
2,شارع اللواء صالح حرب,11765,30.0464558,31.3229777
3,شارع الخليفه الظافر,11765,30.0460680,31.3237314
2,شارع الخليفه الظافر,11765,30.0461830,31.3236254
1,شارع الخليفه الظافر,11765,30.0462933,31.3235088
3,شارع صديق جوهر,11765,30.0457360,31.3234887
2,شارع صديق جوهر,11765,30.0456536,31.3235785
1,شارع صديق جوهر,11765,30.0455909,31.3236469
1,شارع الخليفه الظافر,11765,30.0458289,31.3239728
2,شارع الخليفه الظافر,11765,30.0457233,31.3240841
3,شارع الخليفه الظافر,11765,30.0456350,31.3241726
1,شارع صديق جوهر,11765,30.0454017,31.3238950
2,شارع الخليفه الظافر,11765,30.0452067,31.3245575
1,شارع الخليفه الظافر,11765,30.0453320,31.3244435
3,شارع صديق جوهر,11765,30.0450964,31.3241793
2,شارع صديق جوهر,11765,30.0449896,31.3242812
1,شارع صديق جوهر,11765,30.0448944,31.3243765
2,شارع الخليفه الظافر,11765,30.0448561,31.3247466
1,شارع الخليفه الظافر,11765,30.0450198,31.3246246
1,شارع الخليفه الظافر,11765,30.0448247,31.3249384
2,شارع الخليفه الظافر,11765,30.0447098,31.3250524
3,شارع صديق جوهر,11765,30.0446982,31.3245441
2,شارع صديق جوهر,11765,30.0445763,31.3246635
1,شارع صديق جوهر,11765,30.0444683,31.3247734
2,شارع تهامه,11765,30.0443755,31.3249719
1,شارع تهامه,11765,30.0444823,31.3251476
1,شارع صديق جوهر,11765,30.0436011,31.3255727
2,شارع صديق جوهر,11765,30.0437013,31.3254823
3,شارع صديق جوهر,11765,30.0438345,31.3253622
1,شارع تهامه,11765,30.0440469,31.3252898
2,شارع تهامه,11765,30.0441131,31.3254024
1,شارع الخليفه الظافر,11765,30.0439900,31.3255700
1,شارع الخليفه الظافر,11765,30.0438577,31.3257135
2,شارع الخليفه الظافر,11765,30.0437973,31.3259281
2,شارع الخليفه الظافر,11765,30.0435617,31.3260287
1,شارع صديق جوهر,11765,30.0434560,31.3258490
6,شارع الخليفه الظافر,11765,30.0429406,31.3269755
5,شارع الخليفه الظافر,11765,30.0429619,31.3271071
4,شارع الخليفه الظافر,11765,30.0429820,31.3272312
3,شارع الخليفه الظافر,11765,30.0429999,31.3273418
2,شارع الخليفه الظافر,11765,30.0430174,31.3274494
1,شارع الخليفه الظافر,11765,30.0430427,31.3276058
1,شارع الخليفه الظافر,11765,30.0430590,31.3278888
1,شارع الخليفه الظافر,11765,30.0431008,31.3280953
1,شارع الخليفه الظافر,11765,30.0431356,31.3283113
1,شارع الخليفه الظافر,11765,30.0431994,31.3285446
1,شارع عبد الله العربى,11765,30.0425040,31.3290878
1,شارع عبد الله العربى,11765,30.0426919,31.3290415
1,شارع عبد الله العربى,11765,30.0428520,31.3290021
1,شارع عبد الله العربى,11765,30.0430209,31.3289605
1,شارع عبد الله العربى,11765,30.0432285,31.3289094
25,شارع ايديال,11765,30.0566765,31.2897943
24,شارع ايديال,11765,30.0568707,31.2897679
23,شارع ايديال,11765,30.0569895,31.2901442
22,شارع ايديال,11765,30.0568002,31.2901728
21,شارع ايديال,11765,30.0565511,31.2902104
34,شارع المهمات,11765,30.0622124,31.2969120
33,شارع المهمات,11765,30.0622089,31.2966438
28,شارع المهمات,11765,30.0618294,31.2957841
27,شارع المهمات,11765,30.0619396,31.2955964
26,شارع المهمات,11765,30.0619048,31.2952906
25,شارع المهمات,11765,30.0623552,31.2956715
24,شارع المهمات,11765,30.0624736,31.2957975
23,شارع المهمات,11765,30.0626361,31.2959611
19,شارع المهمات,11765,30.0628636,31.2961382
20,شارع المهمات,11765,30.0627498,31.2963179
22,شارع المهمات,11765,30.0626593,31.2966585
21,شارع المهمات,11765,30.0628125,31.2968020
16,شارع المهمات,11765,30.0625618,31.2987077
15,شارع المهمات,11765,30.0627243,31.2988472
14,شارع المهمات,11765,30.0626430,31.2983644
13,شارع المهمات,11765,30.0627730,31.2981766
12,امتداد شارع رمسيس,11765,30.0630957,31.2983161
11,امتداد شارع رمسيس,11765,30.0632357,31.2981447
5,امتداد شارع رمسيس,11765,30.0634044,31.2978977
4,امتداد شارع رمسيس,11765,30.0635298,31.2977073
3,امتداد شارع رمسيس,11765,30.0636435,31.2975463
3,طريق النصر,11765,30.0582021,31.3014650
18,طريق النصر,11765,30.0579084,31.3008871
4,امتداد شارع رمسيس,11765,30.0593280,31.3018566
6,امتداد شارع رمسيس,11765,30.0589427,31.3021383
1,امتداد شارع رمسيس,11765,30.0586293,31.3022536
5,شارع الخليفه القاهر,11765,30.0502495,31.3195217
42,شارع الشيني,11765,30.0499378,31.3129529
41,شارع الشيني,11765,30.0499941,31.3130596
43,شارع الشيني,11765,30.0498873,31.3128570
40,شارع البريد,11765,30.0497503,31.3129590
38,شارع البريد,11765,30.0498571,31.3131615
39,شارع البريد,11765,30.0498009,31.3130548
37,شارع البريد,11765,30.0495472,31.3131273
36,شارع البريد,11765,30.0495977,31.3132231
35,شارع البريد,11765,30.0496540,31.3133298
1,شارع الشيني,11765,30.0497341,31.3127008
2,شارع الشيني,11765,30.0499361,31.3125372
2,امتداد شارع المخيم الدائم,11765,30.0487892,31.3128778
1,امتداد شارع المخيم الدائم,11765,30.0489041,31.3127745
25,شارع الشيني,11765,30.0492163,31.3130683
24,شارع الشيني,11765,30.0490991,31.3131581
23,شارع الشيني,11765,30.0489900,31.3132386
32,شارع مدرسه مكرم عبيد,11765,30.0488553,31.3135551
123,شارع مدرسه مكرم عبيد,11765,30.0487775,31.3133781
33,شارع مدرسه مكرم عبيد,11765,30.0489203,31.3136946
34,شارع مدرسه مكرم عبيد,11765,30.0489726,31.3138005
22,شارع على رمضان,11765,30.0492721,31.3140768
21,شارع على رمضان,11765,30.0494161,31.3139634
20,شارع على رمضان,11765,30.0495715,31.3138411
19,شارع على رمضان,11765,30.0497201,31.3137241
10,شارع 12,11765,30.0498264,31.3141948
12,شارع 12,11765,30.0499738,31.3144711
11,شارع 12,11765,30.0499051,31.3143423
8,شارع 12,11765,30.0497089,31.3145206
9,شارع 12,11765,30.0497776,31.3146494
7,شارع 12,11765,30.0496302,31.3143732
6,شارع 6,11765,30.0494996,31.3145301
5,شارع 6,11765,30.0494309,31.3144013
1,شارع 6,11765,30.0490318,31.3142055
4,شارع 6,11765,30.0493522,31.3142538
3,شارع 6,11765,30.0491559,31.3144470
2,شارع 6,11765,30.0490944,31.3143323
2,امتداد شارع المخيم الدائم,11765,30.0483515,31.3133070
1,امتداد شارع المخيم الدائم,11765,30.0484351,31.3132386
3,امتداد شارع المخيم الدائم,11765,30.0482644,31.3133660
4,امتداد شارع المخيم الدائم,11765,30.0481774,31.3134291
1,شارع 16,11765,30.0486353,31.3149780
2,شارع 16,11765,30.0486096,31.3150983
3,شارع 16,11765,30.0485808,31.3152328
2,شارع 16,11765,30.0489160,31.3152137
1,شارع 16,11765,30.0489418,31.3150934
3,شارع 16,11765,30.0488872,31.3153482
3,شارع الخليفه القاهر,11765,30.0498769,31.3157250
2,شارع الخليفه القاهر,11765,30.0499057,31.3155905
1,شارع الخليفه القاهر,11765,30.0499315,31.3154702
9A,امتداد شارع رمسيس,11765,30.0453030,31.3115180
8A,امتداد شارع رمسيس,11765,30.0454195,31.3116316
7A,امتداد شارع رمسيس,11765,30.0455422,31.3117513
6A,امتداد شارع رمسيس,11765,30.0458068,31.3119900
10,امتداد شارع رمسيس,11765,30.0450708,31.3113302
5A,امتداد شارع رمسيس,11765,30.0465405,31.3126498
4B,امتداد شارع رمسيس,11765,30.0467913,31.3128456
3A,امتداد شارع رمسيس,11765,30.0469120,31.3129503
9B,امتداد شارع رمسيس,11765,30.0470281,31.3130870
1,امتداد شارع رمسيس,11765,30.0473114,31.3133338
2,امتداد شارع المخيم الدائم,11765,30.0475382,31.3130076
1,امتداد شارع المخيم الدائم,11765,30.0474379,31.3131447
3,امتداد شارع المخيم الدائم,11765,30.0476399,31.3128684
3,امتداد شارع المخيم الدائم,11765,30.0481913,31.3120249
2,امتداد شارع المخيم الدائم,11765,30.0480896,31.3121640
1,امتداد شارع المخيم الدائم,11765,30.0479893,31.3123012
11,شارع عزبة نصار,11765,30.0564006,31.2953094
13,شارع عزبة نصار,11765,30.0566908,31.2956527
15,شارع جمال عبد الناصر,11765,30.0652778,31.2981525
22,شارع جمال عبد الناصر,11765,30.0646278,31.2985092
21,شارع جمال عبد الناصر,11765,30.0647276,31.2983698
17,امتداد شارع رمسيس,11765,30.0643933,31.2977985
16,امتداد شارع رمسيس,11765,30.0645419,31.2975946
14,شارع جمال عبد الناصر,11765,30.0653834,31.2980117
13,شارع جمال عبد الناصر,11765,30.0654879,31.2978749
12,شارع جمال عبد الناصر,11765,30.0655749,31.2977622
11,شارع جمال عبد الناصر,11765,30.0656422,31.2975651
3,امتداد شارع رمسيس,11765,30.0648200,31.2972247
2,امتداد شارع رمسيس,11765,30.0649541,31.2970386
1,امتداد شارع رمسيس,11765,30.0650781,31.2969857
9,شارع احمد على حسن,11765,30.0467538,31.2946367
3,حارة احمد بطوط,11765,30.0508671,31.2949541
103,شارع ابو زيد خضر,11765,30.0441450,31.2947670
3,شارع صلاح ابو عياد,11765,30.0493634,31.2916069
10,حارة عيد ابو شوره,11765,30.0449473,31.2947805
12,شارع الصاوي,11765,30.0500833,31.2918977
18,حارة عيد ابو شوره,11765,30.0450690,31.2945735
4,شارع التحرير,11765,30.0445412,31.2942400
4,حارة محسن,11765,30.0499019,31.2913518
11,حارة الشويش,11765,30.0506644,31.2934076
6L,حارة أم سلطان,11765,30.0486105,31.2963574
12,شارع جمال ابراهيم,11765,30.0484137,31.2921923
4,شارع الزهور,11765,30.0525139,31.2936927
13L,شارع المساعيد,11765,30.0519778,31.2933134
12,شارع عبد العزيز ابو رحمه,11765,30.0488388,31.2936524
14R,حارة جابر عبد الله,11765,30.0444584,31.2954802
29,شارع عمر بن الخطاب,11765,30.0508401,31.2938686
2R,حارة أم سلطان,11765,30.0481584,31.2959573
28,شارع عبد العزيز ابو رحمه,11765,30.0482027,31.2926918
11,شارع الحاج عبد التواب,11765,30.0480216,31.2928209
6,شارع سيد ابو خلف,11765,30.0498402,31.2919687
21,شارع السلام,11765,30.0504173,31.2918220
24,شارع السلام,11765,30.0501944,31.2931062
3,حارة عبد الكريم,11765,30.0477057,31.2947762
27,شارع السلام,11765,30.0501742,31.2926305
12,شارع جابر ابو خشبه,11765,30.0474475,31.2951190
11,شارع جابر ابو خشبه,11765,30.0472578,31.2951972
11,شارع مسجد الفتح,11765,30.0481467,31.2912503
6,شارع المسابك,11765,30.0480417,31.2931612
14,حارة احمد بطوط,11765,30.0512210,31.2946254
12,شارع عبد الكريم,11765,30.0484150,31.2945843
18,شارع الفرن,11765,30.0479024,31.2934934
12,شارع ام سلطان,11765,30.0482887,31.2964833
24,شارع مسجد الفتح,11765,30.0478505,31.2912887
10,شارع مسجد الفتح,11765,30.0483589,31.2914808
21L,حارة الشويش,11765,30.0506158,31.2926260
20,شارع عامر شومان,11765,30.0480396,31.2963415
14,شارع الزهور,11765,30.0526733,31.2941047
6,حارة السيد جمعه,11765,30.0440225,31.2952823
19,شارع جابر ابو خشبه,11765,30.0475764,31.2953431
6,شارع الوكيل,11765,30.0496906,31.2920349
14,شارع عبد العزيز ابو رحمه,11765,30.0487741,31.2935557
5R,شارع الحاج عبد التواب,11765,30.0479919,31.2929766
20`,شارع محمود عيسى,11765,30.0462504,31.2929178
5,شارع صلاح ابو عياد,11765,30.0493188,31.2917186
22,شارع اسماعيل ابو رحمه,11765,30.0507623,31.2947945
27,شارع فايز مرعى,11765,30.0472600,31.2947368
17,شارع ابو بكر الصديق,11765,30.0520486,31.2919909
5,حارة سلمان العمده,11765,30.0462669,31.2953264
10,شارع ورشة الخشب,11765,30.0467322,31.2927485
6R,حارة أم سلطان,11765,30.0482359,31.2959837
14,شارع عمر بن الخطاب,11765,30.0520143,31.2936318
4,شارع الشيخ صالح,11765,30.0523132,31.2937784
1,حارة مسجد الفتح,11765,30.0476464,31.2915711
5L,شارع الصاوي,11765,30.0499971,31.2915301
4,حارة أم سلطان,11765,30.0486582,31.2963968
5,شارع جابر ابو خشبه,11765,30.0470101,31.2951457
8,شارع ابو زيد خضر,11765,30.0444726,31.2942175
8,حارة السيد جمعه,11765,30.0441037,31.2953258
10,شارع الشيخ صالح,11765,30.0523597,31.2940379
8L,شارع عمر بن الخطاب,11765,30.0524616,31.2933218
11,شارع الصاوي,11765,30.0499533,31.2919286
9,شارع المساعيد,11765,30.0523060,31.2931409
10,شارع عبد العزيز ابو رحمه,11765,30.0489309,31.2937562
1R,شارع جمال ابراهيم,11765,30.0488683,31.2914320
3,شارع المنوفى,11765,30.0504249,31.2945985
9A,شارع محمد ابو الفتوح,11765,30.0519106,31.2922654
21,شارع ابو بكر الصديق,11765,30.0518881,31.2918874
1,شارع عبد الكريم,11765,30.0481017,31.2943336
20,حارة محمد خلاف,11765,30.0480005,31.2944473
6`,شارع التحرير,11765,30.0444626,31.2942803
20,شارع ابو بكر الصديق,11765,30.0520078,31.2921391
5,حارة محمد مصطفى القفاص,11765,30.0454697,31.2946998
1,شارع سالم كمال,11765,30.0503234,31.2916737
32,شارع فايز مرعى,11765,30.0475378,31.2950752
9,حارة سيد حميده,11765,30.0444655,31.2947055
5,حارة السيد جمعه,11765,30.0440001,31.2953811
9A,حارة الانوى,11765,30.0521287,31.2941298
7,شارع مصطفى مرزوق,11765,30.0465647,31.2943594
11,حارة السيد جمعه,11765,30.0442453,31.2955048
10,حارة يوسف ابو جبل,11765,30.0489784,31.2916955
4,حارة سعيد الشامى,11765,30.0527409,31.2936975
7,شارع احمد على حسن,11765,30.0468297,31.2946517
5,شارع فتحي فوده,11765,30.0502494,31.2935512
43`,شارع عمر عامر,11765,30.0510001,31.2917152
4R,حارة الشاويش,11765,30.0503456,31.2934979
14,حارة مسجد الفتح,11765,30.0481767,31.2915642
5,حارة نصر الله,11765,30.0445416,31.2945732
1`,شارع احمد الخشاب,11765,30.0479137,31.2918050
7,شارع عبد الكريم,11765,30.0477254,31.2937247
8,شارع ام عربي,11765,30.0463622,31.2955315
4,حارة الانوى,11765,30.0519664,31.2938364
2,شارع فايز مرعى 2,11765,30.0490348,31.2952246
2,شارع مسجد الفتح,11765,30.0486065,31.2916299
30,شارع عبد العزيز ابو رحمه,11765,30.0481245,31.2926496
12,شارع التحرير,11765,30.0447904,31.2940702
23,شارع عبد العزيز ابو رحمه,11765,30.0486830,31.2930096
6,شارع الجامع,11765,30.0475551,31.2913207
36,شارع عمر بن الخطاب,11765,30.0502992,31.2943879
2,حارة سلمان العمده,11765,30.0463422,31.2952350
9R,حارة جابر عبد الله,11765,30.0440768,31.2952019
16`,شارع ابو بكر الصديق,11765,30.0509237,31.2914521
7,شارع صلاح ابو عياد,11765,30.0492821,31.2918170
12,شارع صلاح ابو عياد,11765,30.0496572,31.2911226
18,شارع صلاح بخيت,11765,30.0494314,31.2910606
7,شارع العقيد صالح السيد,11765,30.0513451,31.2909972
7,شارع جابر ابو خشبه,11765,30.0470269,31.2950803
1,حارة عيد ابو شوره,11765,30.0452736,31.2949180
7,شارع عمرو درويش,11765,30.0511566,31.2907531
11`,شارع عامر شومان,11765,30.0483648,31.2963000
18,شارع عامر شومان,11765,30.0470763,31.2957438
23,شارع ابو بكر الصديق,11765,30.0518192,31.2918497
4,شارع علام,11765,30.0450367,31.2951560
57,حارة السيد جمعه,11765,30.0439387,31.2952373
54,شارع عمر بن الخطاب,11765,30.0496109,31.2944617
3L,شارع الحاج عبد التواب,11765,30.0482682,31.2930664
3,شارع فايز مرعى,11765,30.0484483,31.2952806
34,شارع عمر بن الخطاب,11765,30.0504329,31.2943214
3,شارع عمرو درويش,11765,30.0510166,31.2907601
6,شارع سالم,11765,30.0501674,31.2915397
2,حارة الصعايدة,11765,30.0484023,31.2966596
5,شارع حسن خلاف,11765,30.0495980,31.2962618
8,حارة أم العربى,11765,30.0468710,31.2952066
33,شارع عمر بن الخطاب,11765,30.0506353,31.2939145
8,حارة سعيد الشامى,11765,30.0528041,31.2938332
19`,شارع عبد العزيز ابو رحمه,11765,30.0478385,31.2926397
26,شارع ابو بكر الصديق,11765,30.0517643,31.2919867
10,شارع احمد الخشاب 2,11765,30.0476131,31.2923347
32,شارع ابو رحيم,11765,30.0511321,31.2913498
1,شارع الحاج حسن جمعه,11765,30.0530808,31.2934970
2,حارة يوسف ابو جبل,11765,30.0488474,31.2920908
6,حارة نبيل متولى,11765,30.0450407,31.2950624
17,حارة احمد الخشاب,11765,30.0470028,31.2907027
13R,شارع ورشة الخشب,11765,30.0464092,31.2926023
23,شارع السلام,11765,30.0502251,31.2924298
9,حارة سليمان الصعيدى,11765,30.0495695,31.2917325
7,شارع احمد الخشاب 2,11765,30.0473514,31.2925484
3`,شارع صلاح ابو عياد,11765,30.0492658,31.2930675
4,حارة الشاويش,11765,30.0506681,31.2938374
5,حارة ورشة الخشب,11765,30.0469976,31.2927221
4,شارع عبد المنعم سليمان,11765,30.0510791,31.2928406
3,شارع عبد العزيز ابو رحمه,11765,30.0493674,31.2937446
90,شارع السلام,11765,30.0484078,31.2975357
32,شارع عبد العزيز ابو رحمه,11765,30.0480108,31.2925893
6,شارع ابو بكر الصديق,11765,30.0527557,31.2929500
4,حارة الشيخ مبارك عريان,11765,30.0505183,31.2953643
18,حارة محمد خلاف,11765,30.0478932,31.2944587
82,شارع السلام,11765,30.0486705,31.2972545
5L,حارة أم سلطان,11765,30.0478563,31.2959944
20,شارع فايز مرعى,11765,30.0468851,31.2948028
1,حارة يوسف ابو جبل,11765,30.0490455,31.2921428
27,شارع ابو بكر الصديق,11765,30.0516707,31.2917747
18,شارع مسجد الرحمن,11765,30.0464589,31.2903742
16,شارع مسجد الفتح,11765,30.0481193,31.2913932
2L,حارة كمال عباس,11765,30.0516299,31.2925819
4,حارة جابر عبد الله,11765,30.0440539,31.2950303
9,شارع الحاج عبد التواب,11765,30.0480970,31.2928707
14`,شارع ابو زيد خضر,11765,30.0446777,31.2940339
10,حارة عبده الطويل,11765,30.0502375,31.2956086
2,شارع صلاح ابو عياد,11765,30.0496394,31.2911836
3,حارة الشاويش,11765,30.0507762,31.2937576
88,شارع السلام,11765,30.0484958,31.2974596
14,شارع ورشة الخشب,11765,30.0467977,31.2925991
5`,حارة يوسف ابو جبل,11765,30.0491431,31.2912667
3,حارة الشيخ محمود,11765,30.0464945,31.2954759
7,حارة احمد الخشاب,11765,30.0468544,31.2911996
11,حارة احمد بطوط,11765,30.0511566,31.2946937
15`,شارع عامر شومان,11765,30.0475294,31.2958346
10,شارع السلام,11765,30.0506950,31.2911720
6,حارة أم العربى,11765,30.0468533,31.2952626
17,شارع الحريه,11765,30.0510863,31.2930366
3,شارع السكة الجديدة,11765,30.0526836,31.2943696
6,شارع جابر ابو خشبه,11765,30.0472358,31.2949981
7,حارة أم العربى,11765,30.0469140,31.2955738
17,شارع جابر ابو خشبه,11765,30.0475007,31.2953037
16,شارع عيد ابو شوره,11765,30.0452285,31.2949956
14,شارع فايز مرعى 2,11765,30.0483601,31.2949010
7,شارع محمد حسن خضر,11765,30.0475515,31.2956267
10R,حارة الشويش,11765,30.0507410,31.2926652
10,حارة السعاده,11765,30.0532197,31.2937676
6L,حارة عبد الكريم,11765,30.0476321,31.2946486
16,شارع السلام,11765,30.0506432,31.2915746
10,شارع محمد على,11765,30.0490063,31.2927977
5,شارع احمد الخشاب 2,11765,30.0473727,31.2924628
22,شارع صلاح بخيت,11765,30.0493278,31.2910496
20,شارع كمال عباس,11765,30.0512725,31.2925710
4,شارع عمر بن الخطاب,11765,30.0522658,31.2933944
28,شارع السلام,11765,30.0488015,31.2963331
17,شارع فايز مرعى,11765,30.0478768,31.2951161
6R,شارع ام عربي,11765,30.0465840,31.2958620
2R,شارع علام,11765,30.0451623,31.2952031
7,حارة ورشة الخشب,11765,30.0470597,31.2927705
9,شارع السلام,11765,30.0505158,31.2907195
9R,شارع الصاوي,11765,30.0499572,31.2920682
12,حارة سعيد الشامى,11765,30.0527256,31.2939042
9L,شارع احمد الخشاب,11765,30.0474069,31.2915400
16,شارع اسماعيل ابو رحمه,11765,30.0510911,31.2944825
12,شارع كمال عباس,11765,30.0512972,31.2924239
19L,شارع الفرن,11765,30.0477776,31.2936580
5,شارع على ابو رحمة,11765,30.0497631,31.2947661
15,شارع احمد الخشاب 2,11765,30.0472058,31.2929715
6,شارع صلاح بخيت,11765,30.0502388,31.2911655
146,شارع الطيران,11765,30.0434552,31.2957136
8L,حارة جابر عبد الله,11765,30.0442596,31.2951644
31,شارع فايز مرعى,11765,30.0471218,31.2947094
6R,حارة عبد الكريم,11765,30.0477938,31.2943033
17,حارة جابر عبد الله,11765,30.0443285,31.2953440
1,حارة الشيخ محمود,11765,30.0463983,31.2953971
11,شارع احمد على حسن,11765,30.0466749,31.2946210
12,حارة الحاج اسماعيل السباك,11765,30.0477209,31.2923766
5R,شارع الصاوي,11765,30.0499513,31.2928447
5L,شارع الحاج عبد التواب,11765,30.0482005,31.2929653
11,حارة الحاج اسماعيل السباك,11765,30.0478004,31.2923488
4,شارع الصاوي,11765,30.0497725,31.2929816
2,حارة سعيد الشامى,11765,30.0527175,31.2936244
27,شارع احمد الخشاب,11765,30.0464366,31.2912211
4`,شارع المساعيد,11765,30.0520979,31.2931077
26,شارع عبد العزيز ابو رحمه,11765,30.0482553,31.2927372
11,شارع عبد العزيز ابو رحمه,11765,30.0489860,31.2935840
20,شارع عمر بن الخطاب,11765,30.0511765,31.2939405
1L,شارع الحريه,11765,30.0510366,31.2932623
24,شارع عبد العزيز ابو رحمه,11765,30.0483026,31.2927725
12,شارع مسجد الرحمن,11765,30.0466513,31.2904771
2,حارة مسجد الفتح,11765,30.0477231,31.2913998
12,حارة الشويش,11765,30.0505915,31.2930078
14,شارع الحاج شحات وهبه,11765,30.0510016,31.2921777
7,حارة بدر عاشور,11765,30.0480039,31.2946307
30,شارع عمر بن الخطاب,11765,30.0506143,31.2941927
7,حارة ابو طاقيه,11765,30.0471289,31.2925348
2,شارع محمد ابو خليل,11765,30.0477029,31.2965427
16,شارع احمد الخشاب,11765,30.0470548,31.2916668
1L,شارع اسماعيل ابو رحمه,11765,30.0493542,31.2956638
16`,شارع ابو زيد خضر,11765,30.0447296,31.2939873
25`,شارع عبد العزيز ابو رحمه,11765,30.0481632,31.2925152
8,حارة مسجد الفتح,11765,30.0479778,31.2914829
11,حارة سيد حميده,11765,30.0444183,31.2947820
2`,حارة الشاويش,11765,30.0507160,31.2939276
11`,شارع عمرو درويش,11765,30.0514867,31.2908414
17,شارع عامر شومان,11765,30.0474595,31.2957638
10,حارة عبد الكريم,11765,30.0476710,31.2944683
70,حارة 10,11765,30.0491656,31.2966983
84,شارع السلام,11765,30.0486110,31.2973006
2,شارع ابو بكر الصديق,11765,30.0528828,31.2931004
24,شارع عمر بن الخطاب,11765,30.0509079,31.2940368
6,شارع عبد الحميد,11765,30.0477097,31.2955079
14,شارع الصاوي,11765,30.0500799,31.2920274
2`,شارع جمال ابراهيم,11765,30.0482494,31.2925810
7,شارع الصاوي,11765,30.0498819,31.2925866
11,شارع العقيد صالح السيد,11765,30.0514765,31.2910379
37,شارع عمر بن الخطاب,11765,30.0504019,31.2940861
17,شارع فايز مرعى 2,11765,30.0483507,31.2947467
6,شارع سالم,11765,30.0488550,31.2944282
1,شارع اسماعيل ابو رحمه,11765,30.0513048,31.2939254
3,حارة عبد التواب,11765,30.0477695,31.2927809
54,شارع السلام,11765,30.0494924,31.2949140
6`,شارع جمال ابراهيم,11765,30.0484467,31.2912376
8`,شارع الصاوي,11765,30.0500794,31.2916120
4,شارع صلاح بخيت,11765,30.0503589,31.2911648
6,شارع جمال ابراهيم,11765,30.0483596,31.2923837
3,شارع المساعيد,11765,30.0521464,31.2933200
5R,حارة أم سلطان,11765,30.0484225,31.2961093
20,شارع عبد العزيز ابو رحمه,11765,30.0484130,31.2929100
10,حارة مسجد الفتح,11765,30.0480708,31.2915143
7,حارة يوسف ابو جبل,11765,30.0490901,31.2918890
26`,شارع السلام,11765,30.0487587,31.2964782
3`,حارة أم العربى,11765,30.0469877,31.2952309
13,حارة احمد الخشاب,11765,30.0469493,31.2908819
13,شارع صلاح بخيت,11765,30.0494859,31.2908793
6,شارع كمال عباس,11765,30.0515991,31.2933399
3,حارة بدر عاشور,11765,30.0480696,31.2944508
1,حارة ابو ادهم,11765,30.0504894,31.2951058
43,شارع نصر ابو عواد,11765,30.0513649,31.2915389
34,شارع فايز مرعى,11765,30.0474625,31.2950250
29,شارع العقيد صالح السيد,11765,30.0510768,31.2911180
3,شارع الوكيل,11765,30.0503154,31.2921604
12,شارع عامر شومان,11765,30.0479746,31.2961445
4`,شارع عمر بن الخطاب,11765,30.0528235,31.2934487
16,شارع احمد ابراهيم,11765,30.0511337,31.2924061
35,شارع السلام,11765,30.0499355,31.2930517
13,شارع احمد الخشاب 2,11765,30.0472688,31.2928802
11,حارة الصعايدة,11765,30.0487495,31.2960533
3,شارع المعز لدين الله,11765,30.0485564,31.2943111
19`,شارع ابو بكر الصديق,11765,30.0511067,31.2914944
18,حارة احمد بطوط,11765,30.0510373,31.2947931
47,شارع ابو بكر الصديق,11765,30.0508953,31.2909697
9,شارع سالم,11765,30.0487236,31.2938212
8,شارع الحاج عبد التواب,11765,30.0482753,31.2933412
4,شارع محمود الابيض,11765,30.0518546,31.2932303
10L,حارة الشويش,11765,30.0505808,31.2930806
6,شارع عبد العزيز ابو رحمه,11765,30.0490976,31.2939167
7,حارة نصر الله,11765,30.0445941,31.2946267
15,حارة احمد الخشاب,11765,30.0469775,31.2907874
30,شارع العقيد صالح السيد,11765,30.0511547,31.2911261
7,شارع السلام,11765,30.0508573,31.2904017
17,شارع عمرو درويش,11765,30.0517779,31.2905559
24`,شارع صلاح بخيت,11765,30.0490889,31.2910884
8,شارع التحرير,11765,30.0446805,31.2941351
7,شارع فايز مرعى 2,11765,30.0486672,31.2949068
17,شارع السلام,11765,30.0504668,31.2914728
6`,شارع السلام,11765,30.0507001,31.2909894
29,شارع احمد الخشاب,11765,30.0463438,31.2911877
10,شارع المدارس,11765,30.0438038,31.2958472
11,شارع سالم,11765,30.0486336,31.2937170
29,شارع السلام,11765,30.0501412,31.2927430
5,حارة الشيخ محمود,11765,30.0465292,31.2954276
5`,شارع الصاوي,11765,30.0500364,31.2908294
8,شارع عبد العزيز ابو رحمه,11765,30.0490166,31.2938525
3,حارة السيد على,11765,30.0447081,31.2955890
18L,شارع عبد الكريم,11765,30.0482010,31.2944430
12,حارة الصعايدة,11765,30.0486784,31.2959175
26,شارع مسجد الفتح,11765,30.0477995,31.2912708
148,شارع الطيران,11765,30.0435313,31.2957720
7,شارع اسماعيل ابو رحمه,11765,30.0510168,31.2942671
2,شارع دكتور عبد الله شحاته,11765,30.0479695,31.2938510
10,شارع صلاح بخيت,11765,30.0497712,31.2910979
5`,شارع عبد الكريم,11765,30.0478127,31.2937828
15`,شارع اسماعيل ابو رحمه,11765,30.0501614,31.2951098
18,شارع ام سلطان,11765,30.0481211,31.2963241
3,شارع الحاج شحات وهبه,11765,30.0509477,31.2922917
1,حارة السيد جمعه,11765,30.0438796,31.2953204
8,حارة عامر شومان,11765,30.0472567,31.2958565
13,شارع مسجد الفتح,11765,30.0483067,31.2913282
5`,حارة الشيخ محمود,11765,30.0464367,31.2955817
5,شارع صلاح بخيت,11765,30.0502266,31.2909808
4,حارة عبد الكريم,11765,30.0475999,31.2947337
1,شارع الحاج عبد التواب,11765,30.0483228,31.2931709
8,شارع ابو بكر الصديق,11765,30.0526748,31.2928735
8,شارع السكة الجديدة,11765,30.0531811,31.2940043
4,حارة عامر شومان,11765,30.0475010,31.2964343
10`,شارع الصاوي,11765,30.0500895,31.2917985
8,شارع السلام,11765,30.0506940,31.2910832
48,شارع السلام,11765,30.0495378,31.2947444
12,شارع فايز مرعى 2,11765,30.0484118,31.2949263
8R,حارة الشويش,11765,30.0507066,31.2925071
43,شارع السلام,11765,30.0495766,31.2938160
11,شارع محمد ابو الفتوح,11765,30.0518486,31.2922828
7,حارة الشيخ مبارك عريان,11765,30.0505486,31.2956051
9,حارة ابراهيم,11765,30.0506675,31.2944415
12,شارع الزهور,11765,30.0525965,31.2940809
2L,شارع نصر عبد المجيد,11765,30.0509134,31.2925395
14,شارع عبد الكريم,11765,30.0483589,31.2945470
5R,شارع الوكيل,11765,30.0502236,31.2921446
7,حارة محمد مصطفى القفاص,11765,30.0453338,31.2946282
3,شارع احمد على حسن,11765,30.0469805,31.2946815
14,شارع محمود عيسى,11765,30.0460386,31.2928934
1,حارة المساعيد,11765,30.0527697,31.2931750
12,شارع احمد الخشاب 2,11765,30.0475886,31.2923870
2,شارع عمر بن الخطاب,11765,30.0530270,31.2934041
13,شارع عمرو درويش,11765,30.0515883,31.2907363
7R,شارع احمد الخشاب,11765,30.0474905,31.2915820
14,شارع الفرن,11765,30.0480111,31.2933345
7,حارة 8,11765,30.0482619,31.2966603
4L,حارة الشاويش,11765,30.0502363,31.2933236
5,شارع محمود الابيض,11765,30.0518167,31.2930519
11,شارع فايز مرعى 2,11765,30.0485162,31.2948302
19,شارع فايز مرعى 2,11765,30.0482950,31.2947124
39L,شارع السلام,11765,30.0492208,31.2954821
92,شارع السلام,11765,30.0483287,31.2976123
8,حارة السيد على,11765,30.0448505,31.2954834
18,شارع العقيد صالح السيد,11765,30.0520752,31.2918151
2,حارة الشويش,11765,30.0505324,31.2934421
7,حارة عيد ابو شوره,11765,30.0451143,31.2948401
7,شارع صلاح بخيت,11765,30.0499032,31.2909938
13,شارع جابر ابو خشبه,11765,30.0473291,31.2952253
14R,شارع السلام,11765,30.0484210,31.2971590
13,حارة الشويش,11765,30.0506793,31.2933214
31,شارع احمد الخشاب,11765,30.0462300,31.2911545
5,شارع المدارس,11765,30.0481227,31.2970416
12,شارع الحاج شحات وهبه,11765,30.0508878,31.2921892
4`,شارع محمد ابو الفتوح,11765,30.0517197,31.2924587
8L,شارع المدارس,11765,30.0437067,31.2957732
2L,شارع خالد بن الوليد,11765,30.0514365,31.2935157
4,حارة احمد بطوط,11765,30.0509261,31.2950721
9,حارة عيد ابو شوره,11765,30.0450546,31.2947947
19,حارة جابر عبد الله,11765,30.0443977,31.2953830
19`,شارع الحريه,11765,30.0507462,31.2927913
16,شارع كمال عباس,11765,30.0514791,31.2922362
8,حارة حامد,11765,30.0530253,31.2937465
26,شارع العقيد صالح السيد,11765,30.0514135,31.2911950
14,حارة يوسف ابو جبل,11765,30.0490526,31.2914435
8,شارع بورسعيد,11765,30.0509245,31.2934239
12`,شارع عبد العزيز ابو رحمه,11765,30.0477992,31.2932044
1L,شارع الصاوي,11765,30.0501818,31.2908741
26,شارع محمود عيسى,11765,30.0464436,31.2929710
12,شارع عيد ابو شوره,11765,30.0451949,31.2951160
16`,شارع السلام,11765,30.0484779,31.2970435
14,شارع مسجد الرحمن,11765,30.0465791,31.2904385
14,شارع جابر ابو خشبه,11765,30.0475021,31.2951720
6,شارع علام,11765,30.0449320,31.2951005
10,شارع ام سلطان,11765,30.0483444,31.2965395
3,شارع جمال ابراهيم,11765,30.0483286,31.2911922
5`,شارع صلاح ابو عياد,11765,30.0492561,31.2929541
23,شارع عامر شومان,11765,30.0471433,31.2954812
13,شارع سالم,11765,30.0485753,31.2936456
24`,شارع السلام,11765,30.0487291,31.2965578
23,شارع اسماعيل ابو رحمه,11765,30.0498393,31.2954137
32A,شارع ابو بكر الصديق,11765,30.0509402,31.2915617
14,شارع مسجد الفتح,11765,30.0482073,31.2914316
22,شارع احمد الخشاب,11765,30.0467303,31.2915777
17,شارع المساعيد,11765,30.0525940,31.2927449
19,شارع احمد الخشاب,11765,30.0467978,31.2914160
11,شارع فايز مرعى,11765,30.0481207,31.2953841
5,حارة الزمزمى,11765,30.0483402,31.2939484
7,شارع الحاج عبد التواب,11765,30.0481357,31.2929147
46,شارع عمر بن الخطاب,11765,30.0497354,31.2942231
8,شارع حوض القصارى,11765,30.0501069,31.2925229
26,شارع السلام,11765,30.0501089,31.2932178
3,شارع مصطفى مرزوق,11765,30.0464545,31.2951717
14,حارة السيد على,11765,30.0446713,31.2954186
6,شارع الحاج عبد التواب,11765,30.0483383,31.2932364
13,شارع فايز مرعى 2,11765,30.0484226,31.2947802
1,شارع ابو بكر الصديق,11765,30.0528281,31.2927350
6,حارة عامر شومان,11765,30.0475635,31.2963165
8`,حارة الشاويش,11765,30.0500921,31.2933510
12R,شارع السلام,11765,30.0483665,31.2973293
3,شارع المسابك,11765,30.0479349,31.2932140
6R,حارة كمال عباس,11765,30.0514507,31.2926414
3R,شارع جمال ابراهيم,11765,30.0487266,31.2917486
10L,شارع عبد الكريم,11765,30.0474493,31.2935745
5,حارة مسجد الفتح,11765,30.0478509,31.2916330
2,شارع المعز لدين الله,11765,30.0486345,31.2944263
5,شارع سالم,11765,30.0488280,31.2939821
4L,شارع احمد المندوه,11765,30.0490783,31.2934043
6,شارع مسجد الرحمن,11765,30.0468687,31.2905934
5,حارة جابر عبد الله,11765,30.0445395,31.2956754
15,شارع عمر بن الخطاب,11765,30.0516386,31.2935638
6,حارة عبد التواب,11765,30.0476436,31.2928631
25,شارع احمد الخشاب,11765,30.0464983,31.2912435
2L,شارع عامر شومان,11765,30.0484310,31.2963649
16B,شارع عبد العزيز ابو رحمه,11765,30.0485624,31.2932140
8,حارة كمال عباس,11765,30.0518219,31.2927324
68,حارة 11,11765,30.0493075,31.2965754
3,حارة ابو ادهم,11765,30.0505389,31.2952044
7R,شارع الحريه,11765,30.0512966,31.2934600
6,حارة مسجد الفتح,11765,30.0478898,31.2914580
14,شارع العقيد صالح السيد,11765,30.0517424,31.2914412
10,شارع التحرير,11765,30.0447371,31.2940900
7,حارة احمد بطوط,11765,30.0508467,31.2951444
7,شارع فتحي فوده,11765,30.0503161,31.2936170
18,شارع محمود عيسى,11765,30.0461612,31.2929130
10,حارة ابو ادهم,11765,30.0507491,31.2953510
11,شارع احمد الخشاب,11765,30.0473078,31.2915033
1,حارة عامر شومان,11765,30.0476054,31.2964759
7`,شارع صلاح ابو عياد,11765,30.0492756,31.2927697
8,حارة السعاده,11765,30.0532026,31.2936607
4,شارع سيد ابو خلف,11765,30.0498275,31.2918754
10,شارع كمال عباس,11765,30.0513611,31.2932040
4`,شارع التحرير,11765,30.0444119,31.2943185
15,شارع صلاح بخيت,11765,30.0494054,31.2908586
9,شارع عمر عامر,11765,30.0509468,31.2919789
27`,شارع عبد العزيز ابو رحمه,11765,30.0481081,31.2924998
3,شارع مسجد الفتح,11765,30.0484457,31.2914067
15,شارع فايز مرعى,11765,30.0479495,31.2951957
9R,شارع عبد الكريم,11765,30.0476225,31.2936689
16,شارع المسابك,11765,30.0478586,31.2930370
18`,شارع السلام,11765,30.0506266,31.2916745
13`,شارع عامر شومان,11765,30.0476048,31.2958958
5L,شارع كمال عباس,11765,30.0512932,31.2931594
9`,شارع المدارس,11765,30.0476517,31.2966208
12,حارة المساعيد,11765,30.0524694,31.2931685
1,حارة سلمان العمده,11765,30.0464031,31.2952784
11,شارع جمال ابراهيم,11765,30.0483929,31.2912160
7,شارع فايز مرعى,11765,30.0483506,31.2954917
9,حارة الحاج اسماعيل السباك,11765,30.0478449,31.2924971
7,حارة المساعيد,11765,30.0525262,31.2929759
13,حارة جابر عبد الله,11765,30.0441980,31.2952703
10,حارة أم العربى,11765,30.0469035,31.2950855
6,حارة حامد,11765,30.0530182,31.2936716
10,شارع الجامع,11765,30.0476074,31.2911490
11,شارع الحريه,11765,30.0511891,31.2931828
4,شارع عبد العزيز ابو رحمه,11765,30.0491847,31.2939689
29,شارع فايز مرعى,11765,30.0471916,31.2947232
10,حارة السيد على,11765,30.0447848,31.2954562
7,شارع نصر ابو عواد,11765,30.0515253,31.2917114
5,حارة الشيخ مبارك عريان,11765,30.0505231,31.2955226
11,شارع درويش,11765,30.0520179,31.2928508
5,حارة الحاج سيد الثمنينى,11765,30.0514649,31.2945235
15,شارع صلاح ابو عياد,11765,30.0492005,31.2922235
1,شارع الواجب,11765,30.0505044,31.2929786
4,حارة حامد,11765,30.0530094,31.2935793
6L,شارع ام عربي,11765,30.0463215,31.2954898
8,شارع محمد ابو خليل,11765,30.0478229,31.2963236
8,حارة الحاج اسماعيل السباك,11765,30.0475932,31.2925771
6,حارة بدر عاشور,11765,30.0480920,31.2946238
2,حارة ابو ادهم,11765,30.0505903,31.2950138
2,شارع الحريه,11765,30.0511815,31.2935337
21,شارع الوكيل,11765,30.0502376,31.2922445
5,حارة ابو طاقيه,11765,30.0470816,31.2924978
15,شارع الخشاب,11765,30.0463205,31.2918869
21`,شارع اسماعيل ابو رحمه,11765,30.0498944,31.2953907
4,شارع مسجد الفتح,11765,30.0485455,31.2915945
8,شارع الجامع,11765,30.0475729,31.2912529
9,شارع فايز مرعى 2,11765,30.0486036,31.2948765
9,شارع الصاوي,11765,30.0499544,31.2918092
3,شارع الواجب,11765,30.0503305,31.2929098
15,شارع ابو بكر الصديق,11765,30.0521570,31.2920537
20,شارع مسجد الفتح,11765,30.0479509,31.2913256
6,حارة يوسف ابو جبل,11765,30.0489158,31.2918750
4,حارة عبد التواب,11765,30.0477362,31.2928959
3,عطفه أم سلطان,11765,30.0481644,31.2958135
16,شارع عمرو درويش,11765,30.0516573,31.2904985
13,حارة عيد ابو شوره,11765,30.0451047,31.2946903
10,حارة السيد جمعه,11765,30.0441780,31.2953657
10,حارة سعيد الشامى,11765,30.0528434,31.2939004
4R,شارع الحريه,11765,30.0507698,31.2930825
11,حارة يوسف ابو جبل,11765,30.0491289,31.2917297
72,شارع السلام,11765,30.0489096,31.2968187
9,شارع ابو بكر الصديق,11765,30.0524204,31.2922848
3,شارع الزهور,11765,30.0524041,31.2936426
6,شارع عبد الكريم,11765,30.0486203,31.2947179
11,شارع ابو طاحول,11765,30.0512525,31.2902717
3,شارع احمد ابراهيم,11765,30.0510428,31.2924782
12L,حارة جابر عبد الله,11765,30.0443828,31.2952344
4,حارة الصعايدة,11765,30.0483409,31.2967447
3,حارة السعاده,11765,30.0533583,31.2936361
22,شارع عبد العزيز ابو رحمه,11765,30.0483551,31.2928333
5,حارة احمد الخشاب,11765,30.0468376,31.2912558
15,شارع مسجد البحرى,11765,30.0493986,31.2925055
5,شارع الشيخ صالح,11765,30.0522113,31.2938841
1,شارع الزهور,11765,30.0523941,31.2935707
3,حارة الزمزمى,11765,30.0482821,31.2940289
3,حارة الشيخ مبارك عريان,11765,30.0504197,31.2953789
12,شارع الجامع,11765,30.0476516,31.2910315
7,شارع عبد المقصود,11765,30.0462880,31.2922750
24,شارع صلاح بخيت,11765,30.0492592,31.2910547
4R,شارع السلام,11765,30.0506004,31.2923481
40,شارع مسجد خالد بن الوليد,11765,30.0468958,31.2930308
4,شارع خالد بن الوليد,11765,30.0514740,31.2933598
11,شارع مسجد البحرى,11765,30.0496311,31.2925575
4,شارع سالم,11765,30.0489063,31.2944836
6,حارة ابو ادهم,11765,30.0506889,31.2951842
30,شارع السلام,11765,30.0488288,31.2962508
11,حارة عيد ابو شوره,11765,30.0450868,31.2947382
48,شارع عمر بن الخطاب,11765,30.0501255,31.2944272
7,شارع الواجب,11765,30.0504591,31.2931331
28`,شارع ابو بكر الصديق,11765,30.0512621,31.2917988
9,حارة ورشة الخشب,11765,30.0471255,31.2928194
13,شارع مسجد البحرى,11765,30.0494887,31.2925231
4,حارة السعاده,11765,30.0532030,31.2935030
16,حارة عيد ابو شوره,11765,30.0450565,31.2946098
8,حارة الصعايدة,11765,30.0485707,31.2961450
3,حارة احمد الخشاب,11765,30.0468131,31.2913380
8,شارع سالم,11765,30.0487934,31.2943705
6,حارة سعيد الشامى,11765,30.0527773,31.2937549
11,شارع احمد الخشاب 2,11765,30.0473041,31.2927384
22,شارع ابو زيد خضر,11765,30.0448853,31.2938480
5,حارة عامر شومان,11765,30.0477090,31.2963060
30,شارع اسماعيل ابو رحمه,11765,30.0502501,31.2953643
2R,شارع نصر عبد المجيد,11765,30.0511590,31.2926785
9,شارع احمد الخشاب 2,11765,30.0473288,31.2926393
28,شارع مسجد الفتح,11765,30.0477400,31.2912385
4,شارع دكتور عبد الله شحاته,11765,30.0480242,31.2937838
1R,شارع الحاج عبد التواب,11765,30.0478923,31.2928981
3,شارع اسماعيل ابو رحمه,11765,30.0512319,31.2940372
3,حارة عامر شومان,11765,30.0473350,31.2960950
9,شارع عبد العزيز ابو رحمه,11765,30.0490723,31.2936277
8,شارع صلاح بخيت,11765,30.0498484,31.2911433
31,شارع عبد العزيز ابو رحمه,11765,30.0479507,31.2924591
11,شارع السلام,11765,30.0505004,31.2908558
5,حارة أم العربى,11765,30.0468631,31.2956698
4,شارع المسابك,11765,30.0479730,31.2931118
1,شارع سالم,11765,30.0489534,31.2941353
26,شارع صلاح بخيت,11765,30.0491838,31.2910772
39,شارع مسجد خالد بن الوليد,11765,30.0468055,31.2930720
43`,شارع السلام,11765,30.0491037,31.2958134
13,شارع عبد العزيز ابو رحمه,11765,30.0489444,31.2935170
8,شارع مسجد الرحمن,11765,30.0467965,31.2905547
4,شارع ابو بكر الصديق,11765,30.0528130,31.2930317
2,حارة محسن,11765,30.0499388,31.2912416
7,شارع الشيخ صالح,11765,30.0522313,31.2939416
3R,حارة جابر عبد الله,11765,30.0439553,31.2951333
86,شارع السلام,11765,30.0485554,31.2973777
25,شارع اسماعيل ابو رحمه,11765,30.0497145,31.2954518
24`,شارع ابو زيد خضر,11765,30.0449260,31.2938115
1,حارة كمال عباس,11765,30.0515463,31.2926890
5,شارع جمال ابراهيم,11765,30.0485208,31.2912674
69,شارع كمال عباس,11765,30.0513719,31.2922345
1L,شارع جمال ابراهيم,11765,30.0487129,31.2913284
4,شارع الجامع,11765,30.0475296,31.2914290
4L,شارع كمال عباس,11765,30.0517327,31.2934191
44,شارع ابو بكر الصديق,11765,30.0508453,31.2912845
3,حارة ابو طاقيه,11765,30.0470167,31.2924501
5,شارع الحاج عبد التواب,11765,30.0482406,31.2932780
5,شارع اسماعيل ابو رحمه,11765,30.0511660,31.2941344
23,شارع فايز مرعى 2,11765,30.0481621,31.2948491
8,حارة عبد الكريم,11765,30.0476416,31.2945563
9`,حارة السيد جمعه,11765,30.0441896,31.2954767
5,حارة بدر عاشور,11765,30.0480159,31.2945551
1,حارة الشيخ مبارك عريان,11765,30.0503428,31.2953081
15,شارع الصاوي,11765,30.0498457,31.2927359
3,حارة عبد الرحيم مسلم,11765,30.0515978,31.2930557
95,شارع التحرير,11765,30.0442994,31.2944288
7,شارع ابو بكر الصديق,11765,30.0525004,31.2923755
17,حارة عبد الرحيم مسلم,11765,30.0517217,31.2929009
7,شارع جمال ابراهيم,11765,30.0485199,31.2924067
7R,شارع الحاج عبد التواب,11765,30.0480344,31.2930105
3,شارع المدارس,11765,30.0482274,31.2971818
3`,شارع الصاوي,11765,30.0500089,31.2914152
7R,شارع سالم,11765,30.0487785,31.2938917
17,شارع صلاح ابو عياد,11765,30.0490463,31.2926463
15,حارة أم سلطان,11765,30.0478695,31.2958464
4,شارع ام عربي,11765,30.0462515,31.2954770
1,حارة محسن,11765,30.0498302,31.2912248
21,شارع فايز مرعى 2,11765,30.0482211,31.2946870
16,شارع فايز مرعى 2,11765,30.0482560,31.2949211
3,حارة أم العربى,11765,30.0468142,31.2957617
2,شارع الوكيل,11765,30.0494522,31.2919658
20,شارع السلام,11765,30.0486307,31.2968170
2,حارة عبد الكريم,11765,30.0475675,31.2948382
9L,شارع الصاوي,11765,30.0498188,31.2907824
2,شارع عبد الكريم سالم,11765,30.0483822,31.2941917
11,حارة احمد الخشاب,11765,30.0469216,31.2909747
2,شارع صلاح بخيت,11765,30.0504647,31.2911439
22,شارع عمر عامر,11765,30.0510189,31.2919650
41,شارع ابو بكر الصديق,11765,30.0509160,31.2911509
17,حارة السيد جمعه,11765,30.0442978,31.2955312
2`,شارع عمر بن الخطاب,11765,30.0521637,31.2934293
12,شارع صلاح بخيت,11765,30.0496769,31.2910554
3,حارة سليمان الصعيدى,11765,30.0498407,31.2916501
6R,حارة الصعايدة,11765,30.0486457,31.2959938
8,شارع جابر ابو خشبه,11765,30.0473077,31.2950175
11,حارة نصر الله,11765,30.0447113,31.2947228
8L,حارة الشويش,11765,30.0505614,31.2931856
1R,شارع السلام,11765,30.0494000,31.2950677
4,حارة عبد الرحيم مسلم,11765,30.0514755,31.2929927
7,حارة عامر شومان,11765,30.0474159,31.2959559
3,شارع سالم كمال,11765,30.0502451,31.2916503
1R,حارة السيد على,11765,30.0448648,31.2956296
6,حارة سليمان الصعيدى,11765,30.0497133,31.2918126
6L,حارة كمال عباس,11765,30.0517473,31.2926573
8,شارع عبد الكريم سالم,11765,30.0486044,31.2939872
7,شارع محمد ابو خليل,11765,30.0478841,31.2965023
1,حارة عبد التواب,11765,30.0478344,31.2928110
11,حارة جابر عبد الله,11765,30.0441352,31.2952348
20,شارع صلاح ابو عياد,11765,30.0495006,31.2916593
5,شارع عبد المنعم سليمان,11765,30.0510904,31.2927859
5,حارة عيد ابو شوره,11765,30.0451679,31.2948837
1,شارع مصطفى مرزوق,11765,30.0474786,31.2933921
8,حارة عبد الرحيم مسلم,11765,30.0515895,31.2928427
2,حارة سليمان الصعيدى,11765,30.0498265,31.2917762
8R,شارع عمر بن الخطاب,11765,30.0531941,31.2933854
20`,شارع ابو زيد خضر,11765,30.0448411,31.2938876
16,شارع العقيد صالح السيد,11765,30.0520246,31.2917469
11,شارع عمرو درويش,11765,30.0513885,31.2907998
4,شارع جمال ابراهيم,11765,30.0483182,31.2924461
18,شارع عبد العزيز ابو رحمه,11765,30.0485216,31.2931148
9`,شارع كمال عباس,11765,30.0515802,31.2931842
3,شارع الحاج عبد التواب,11765,30.0481861,31.2932202
1,حارة سليمان الصعيدى,11765,30.0499774,31.2916205
1,حارة عامر شومان,11765,30.0472724,31.2961931
25,شارع السلام,11765,30.0502036,31.2925360
28`,شارع عمر بن الخطاب,11765,30.0507438,31.2941310
5,حارة السيد على,11765,30.0446408,31.2955645
14,حارة عيد ابو شوره,11765,30.0450074,31.2946829
21L,شارع سالم,11765,30.0486189,31.2942190
6`,حارة السيد على,11765,30.0449252,31.2955032
3L,حارة جابر عبد الله,11765,30.0444900,31.2957510
3,شارع الشيخ صالح,11765,30.0521992,31.2937632
22,شارع عمر بن الخطاب,11765,30.0510742,31.2939729
7,حارة أم سلطان,11765,30.0483623,31.2960684
2,حارة حامد,11765,30.0530020,31.2935015
3,شارع محمد حسن خضر,11765,30.0476201,31.2954678
4,حارة عامر شومان,11765,30.0471817,31.2960146
8,شارع كمال عباس,11765,30.0515068,31.2932886
7,حارة السيد جمعه,11765,30.0440671,31.2954149
14,شارع اسماعيل ابو رحمه,11765,30.0511651,31.2943954
15,شارع المساعيد,11765,30.0525516,31.2928072
17,شارع عمر بن الخطاب,11765,30.0515585,31.2936004
6L,حارة جابر عبد الله,11765,30.0442004,31.2951308
7,شارع احمد الخشاب,11765,30.0486974,31.2919886
4,حارة الحاج سيد الثمنينى,11765,30.0514013,31.2944512
13,شارع السكة الجديدة,11765,30.0523307,31.2942807
1,حارة الزمزمى,11765,30.0482356,31.2940950
20,شارع اسماعيل ابو رحمه,11765,30.0508328,31.2947281
45,شارع عمر بن الخطاب,11765,30.0499044,31.2942127
32,شارع السلام,11765,30.0488556,31.2961590
18,شارع مسجد الفتح,11765,30.0480313,31.2913530
9L,شارع عبد الكريم,11765,30.0477544,31.2940090
11R,حارة محمد حامد,11765,30.0529021,31.2941827
29`,شارع عبد العزيز ابو رحمه,11765,30.0480307,31.2924824
12R,حارة جابر عبد الله,11765,30.0444307,31.2955480
7,شارع المساعيد,11765,30.0522369,31.2932019
6,حارة الحاج سيد الثمنينى,11765,30.0515236,31.2945922
21,حارة جابر عبد الله,11765,30.0444715,31.2954144
13,شارع احمد الخشاب,11765,30.0472111,31.2914816
30,شارع الواجب,11765,30.0503921,31.2930861
30,شارع محمود عيسى,11765,30.0465745,31.2930040
4,حارة كمال عباس,11765,30.0514730,31.2928807
21,شارع احمد الخشاب,11765,30.0466393,31.2913066
10,شارع فايز مرعى 2,11765,30.0484755,31.2949710
7,حارة سيد حميده,11765,30.0445005,31.2946339
3,شارع الحريه,11765,30.0509187,31.2928892
6,حارة عبد الرحيم مسلم,11765,30.0515311,31.2929090
30L,شارع فايز مرعى,11765,30.0476048,31.2951060
19,شارع عامر شومان,11765,30.0473732,31.2956646
19,شارع الحريه,11765,30.0510345,31.2930008
1,حارة سيد حميده,11765,30.0444497,31.2945655
1,حارة السعاده,11765,30.0533297,31.2933899
43,شارع ابو بكر الصديق,11765,30.0508992,31.2910587
9,حارة أم سلطان,11765,30.0485483,31.2962104
1`,حارة أم العربى,11765,30.0469460,31.2953720
2`,شارع فايز مرعى,11765,30.0483040,31.2957098
2`,شارع اسماعيل ابو رحمه,11765,30.0491577,31.2961179
15,شارع السلام,11765,30.0504872,31.2913713
3,شارع فايز مرعى 2,11765,30.0489662,31.2950320
12,حارة السيد جمعه,11765,30.0442506,31.2954046
9R,شارع صلاح ابو عياد,11765,30.0492603,31.2919257
13,شارع السلام,11765,30.0504929,31.2909861
5,حارة السعاده,11765,30.0533753,31.2937358
6,شارع مسجد الفتح,11765,30.0484737,31.2915452
7`,حارة أم سلطان,11765,30.0484912,31.2961596
13,شارع بورسعيد,11765,30.0510034,31.2934451
5,حارة الشاويش,11765,30.0507224,31.2936781
1,شارع احمد على حسن,11765,30.0470498,31.2946952
10,شارع سالم,11765,30.0487178,31.2943178
4,شارع صلاح ابو عياد,11765,30.0496218,31.2912439
7,حارة كمال عباس,11765,30.0514256,31.2924503
2,شارع عبد الكريم,11765,30.0487769,31.2948187
6`,حارة الشاويش,11765,30.0504544,31.2935773
5,حارة يوسف ابو جبل,11765,30.0490646,31.2920259
16,حارة السيد على,11765,30.0445983,31.2953797
6,شارع الزهور,11765,30.0525298,31.2937633
9,حارة ابو طاقيه,11765,30.0471980,31.2925933
1,شارع فايز مرعى,11765,30.0482308,31.2956823
2,شارع محمد على,11765,30.0489344,31.2926032
4,شارع مصطفى مرزوق,11765,30.0463833,31.2951490
2,شارع التحرير,11765,30.0443803,31.2943600
7,شارع الزهور,11765,30.0524242,31.2937864
10R,حارة جابر عبد الله,11765,30.0444019,31.2956406
4,شارع السلام,11765,30.0509518,31.2899821
3,شارع محمد ابو خليل,11765,30.0478139,31.2966204
6,شارع الشيخ صالح,11765,30.0523311,31.2939061
19,شارع عمر بن الخطاب,11765,30.0514199,31.2936632
2R,حارة كمال عباس,11765,30.0515016,31.2927974
15,شارع اسماعيل ابو رحمه,11765,30.0506077,31.2946581
11,شارع الزهور,11765,30.0524743,31.2939877
6,شارع الصاوي,11765,30.0500850,31.2915155
11,شارع صلاح ابو عياد,11765,30.0494711,31.2917399
5,حارة عبد التواب,11765,30.0476942,31.2927620
3,حارة المساعيد,11765,30.0526759,31.2930768
3L,حارة 8,11765,30.0481701,31.2965593
45,شارع السلام,11765,30.0494315,31.2940969
13R,شارع المساعيد,11765,30.0524805,31.2928961
4,شارع سالم,11765,30.0502600,31.2915638
3,شارع مهدى,11765,30.0477701,31.2957930
10L,شارع عمر بن الخطاب,11765,30.0525643,31.2933062
9,حارة نصر الله,11765,30.0446450,31.2946680
6L,شارع عمر بن الخطاب,11765,30.0523730,31.2933487
6,حارة الحاج اسماعيل السباك,11765,30.0477663,31.2922766
8,شارع الزهور,11765,30.0525466,31.2938379
5,حارة ابو ادهم,11765,30.0505813,31.2952680
43`,شارع عمر بن الخطاب,11765,30.0499898,31.2942026
10,شارع محمد ابو خليل,11765,30.0478803,31.2962362
2,شارع الشيخ صالح,11765,30.0522962,31.2936792
12,شارع مسجد البحرى,11765,30.0497710,31.2927078
14,حارة السيد جمعه,11765,30.0443286,31.2954464
10,شارع جابر ابو خشبه,11765,30.0473719,31.2950477
28,شارع ابو بكر الصديق,11765,30.0516808,31.2919734
2,شارع احمد المندوه,11765,30.0491739,31.2934546
19,شارع السلام,11765,30.0504458,31.2916644
7,شارع حسن خلاف,11765,30.0494944,31.2963405
9,شارع علام,11765,30.0447890,31.2951617
9L,شارع صلاح ابو عياد,11765,30.0493228,31.2926144
10,حارة بدر عاشور,11765,30.0480670,31.2947314
7R,شارع الصاوي,11765,30.0499640,31.2917336
15,شارع احمد الخشاب,11765,30.0470162,31.2914460
14,حارة الشيخ مبارك عريان,11765,30.0506353,31.2954554
7,حارة مسجد الفتح,11765,30.0479686,31.2916779
28,شارع عمر بن الخطاب,11765,30.0508301,31.2940967
14,شارع احمد الخشاب,11765,30.0471479,31.2916884
43,شارع عمر بن الخطاب,11765,30.0500823,31.2941831
5,شارع عمرو درويش,11765,30.0510824,31.2907627
2,شارع سالم,11765,30.0489862,31.2945284
11L,حارة محمد حامد,11765,30.0529727,31.2939982
2,شارع سالم,11765,30.0503295,31.2915893
1R,شارع فايز مرعى 2,11765,30.0490706,31.2950655
13,شارع صلاح ابو عياد,11765,30.0492236,31.2921084
8,شارع الصاوي,11765,30.0500096,31.2926837
1R,شارع الصاوي,11765,30.0500273,31.2913042
9,شارع الحريه,11765,30.0511952,31.2932632
5,شارع الزهور,11765,30.0524141,31.2937145
14`,شارع عبد العزيز ابو رحمه,11765,30.0478222,31.2931365
6,حارة محسن,11765,30.0498899,31.2914386
10,حارة حامد,11765,30.0530323,31.2938208
18`,شارع عبد العزيز ابو رحمه,11765,30.0484723,31.2930078
4,شارع الوكيل,11765,30.0495698,31.2920005
16,شارع مسجد الرحمن,11765,30.0465194,31.2904066
10,شارع صلاح ابو عياد,11765,30.0495629,31.2914458
8,شارع درويش,11765,30.0520706,31.2927920
13`,شارع عبد العزيز ابو رحمه,11765,30.0476778,31.2934999
3,حارة محمد مصطفى القفاص,11765,30.0454293,31.2948108
5,حارة سليمان الصعيدى,11765,30.0497722,31.2916604
9,حارة محمد خلاف,11765,30.0479583,31.2945676
26,شارع اسماعيل ابو رحمه,11765,30.0504191,31.2951666
3,حارة سلمان العمده,11765,30.0463464,31.2953623
5R,شارع عبد العزيز ابو رحمه,11765,30.0477249,31.2933905
3`,شارع المساعيد,11765,30.0524655,31.2926639
20,شارع احمد الخشاب,11765,30.0468418,31.2916163
3,شارع صلاح بخيت,11765,30.0503785,31.2909756
32,شارع محمود عيسى,11765,30.0466492,31.2930225
2L,شارع مسجد خالد بن الوليد,11765,30.0460601,31.2952034
2,شارع عبد العزيز ابو رحمه,11765,30.0493017,31.2940238
4,شارع سليمان القصير,11765,30.0493275,31.2912084
9,حارة الصعايدة,11765,30.0487218,31.2961164
8,حارة عامر شومان,11765,30.0476060,31.2962364
5,شارع محمد حسن خضر,11765,30.0475857,31.2955494
12,حارة يوسف ابو جبل,11765,30.0490137,31.2915688
21,حارة احمد الخشاب,11765,30.0470726,31.2904689
28,شارع محمود عيسى,11765,30.0465111,31.2929871
16,حارة يوسف ابو جبل,11765,30.0490868,31.2913356
3,حارة الصعايدة,11765,30.0485738,31.2964220
2L,حارة أم العربى,11765,30.0468083,31.2953771
21R,شارع سالم,11765,30.0482054,31.2933917
9,شارع مصطفى مرزوق,11765,30.0465413,31.2944449
12,شارع الوكيل,11765,30.0498175,31.2922125
32,شارع ابو بكر الصديق,11765,30.0511008,31.2916713
4,شارع عبد الكريم,11765,30.0486958,31.2947661
12,شارع مسجد الفتح,11765,30.0482960,31.2914594
2,شارع الخشاب,11765,30.0467500,31.2920643
54`,شارع السلام,11765,30.0492710,31.2953323
10,شارع نصار عواد,11765,30.0514566,31.2914190
19,شارع ابو بكر الصديق,11765,30.0519709,31.2919304
41,شارع عمر بن الخطاب,11765,30.0502010,31.2941545
3,شارع سالم,11765,30.0488818,31.2940435
2,شارع الزهور,11765,30.0524938,31.2936033
3,شارع ابو بكر الصديق,11765,30.0527297,31.2926387
7,حارة الشيخ محمود,11765,30.0465852,31.2953417
52,شارع عمر بن الخطاب,11765,30.0497888,31.2944820
10L,شارع مسجد الرحمن,11765,30.0469131,31.2904008
5,شارع خالد بن الوليد,11765,30.0513660,31.2934814
11`,شارع جمال ابراهيم,11765,30.0484763,31.2913318
13,شارع الحاج عبد التواب,11765,30.0479633,31.2927788
9,شارع عمرو درويش,11765,30.0512586,31.2907805
5,حارة عبد الكريم,11765,30.0477279,31.2946852
8,شارع عامر شومان,11765,30.0476681,31.2961194
3,شارع عبد الكريم,11765,30.0488937,31.2949128
80,شارع السلام,11765,30.0487266,31.2971766
9L,حارة جابر عبد الله,11765,30.0445855,31.2955254
9,شارع صلاح بخيت,11765,30.0497896,31.2909504
16,شارع عمر بن الخطاب,11765,30.0519403,31.2936604
33,شارع السلام,11765,30.0499753,31.2929779
7L,حارة جابر عبد الله,11765,30.0445719,31.2955880
8,شارع عبد الكريم,11765,30.0485604,31.2946803
3,شارع سالم,11765,30.0503017,31.2914560
28,شارع فايز مرعى,11765,30.0477553,31.2952929
2R,شارع السلام,11765,30.0506184,31.2918768
13,شارع ابو بكر الصديق,11765,30.0522540,31.2921253
6,شارع التحرير,11765,30.0446187,31.2941854
8,حارة 8,11765,30.0481050,31.2966635
7,حارة الزمزمى,11765,30.0484843,31.2938529
26,شارع عمر بن الخطاب,11765,30.0509408,31.2941311
18`,شارع ابو زيد خضر,11765,30.0447869,31.2939361
4,حارة بدر عاشور,11765,30.0481265,31.2945278
1,شارع عبد العزيز ابو رحمه,11765,30.0494544,31.2937751
12`,شارع احمد الخشاب,11765,30.0472506,31.2916986
5,شارع فايز مرعى,11765,30.0484139,31.2953934
6,شارع صلاح ابو عياد,11765,30.0496052,31.2913009
8,حارة ابو ادهم,11765,30.0508084,31.2952618
1,حارة الانوى,11765,30.0518220,31.2938920
8,حارة بدر عاشور,11765,30.0480798,31.2946725
14L,حارة جابر عبد الله,11765,30.0444528,31.2952709
1`,حارة السعاده,11765,30.0533548,31.2935300
5,شارع مصطفى مرزوق,11765,30.0465914,31.2942617
1,شارع درويش,11765,30.0523378,31.2927139
7,شارع عبد العزيز ابو رحمه,11765,30.0491718,31.2936755
1,شارع عمرو درويش,11765,30.0509247,31.2907633
6R,حارة جابر عبد الله,11765,30.0443494,31.2957986
1,شارع السلام,11765,30.0510234,31.2897284
22,شارع مسجد الفتح,11765,30.0478988,31.2913066
4,شارع مهدى,11765,30.0476604,31.2957955
15,شارع الحريه,11765,30.0511331,31.2930748
9,شارع مسجد البحرى,11765,30.0496430,31.2924944
7,شارع عامر شومان,11765,30.0478186,31.2960538
18`,شارع اسماعيل ابو رحمه,11765,30.0509203,31.2946581
7,حارة عامر شومان,11765,30.0477784,31.2961987
5,حارة 8,11765,30.0482028,31.2967236
34,شارع السلام,11765,30.0488913,31.2960704
4,شارع فايز مرعى 2,11765,30.0489419,31.2951850
9,حارة يوسف ابو جبل,11765,30.0491019,31.2918050
22R,شارع السلام,11765,30.0486785,31.2966302
6,شارع الحريه,11765,30.0512031,31.2933512
18,شارع صلاح ابو عياد,11765,30.0495302,31.2915578
1L,حارة جابر عبد الله,11765,30.0444559,31.2958432
12,حارة عيد ابو شوره,11765,30.0449695,31.2947386
5,شارع المساعيد,11765,30.0521905,31.2932542
5,شارع فايز مرعى 2,11765,30.0488513,31.2950056
18,شارع السلام,11765,30.0485578,31.2969451
15,شارع عمرو درويش,11765,30.0516259,31.2906403
9,حارة كمال عباس,11765,30.0515617,31.2924843
1,شارع ورشة الخشب,11765,30.0468456,31.2924898
6L,حارة الصعايدة,11765,30.0482975,31.2968326
10,شارع الصاوي,11765,30.0500361,31.2925064
4`,شارع السلام,11765,30.0507272,31.2908331
2,حارة عبد الرحيم مسلم,11765,30.0514009,31.2930912
4,شارع احمد الخشاب 2,11765,30.0477345,31.2922033
32,شارع اسماعيل ابو رحمه,11765,30.0501831,31.2954433
7R,حارة جابر عبد الله,11765,30.0440169,31.2951681
3,حارة السيد جمعه,11765,30.0439401,31.2953509
8,شارع صلاح ابو عياد,11765,30.0495874,31.2913618
10,شارع الزهور,11765,30.0525689,31.2939368
10,شارع ام عربي,11765,30.0474197,31.2963322
2L,حارة أم سلطان,11765,30.0486982,31.2964211
6,حارة عامر شومان,11765,30.0472178,31.2959453
1R,حارة جابر عبد الله,11765,30.0438994,31.2951017
7`,شارع مسجد البحرى,11765,30.0496556,31.2924304
14,شارع ام سلطان,11765,30.0482404,31.2964275
5,حارة عامر شومان,11765,30.0473768,31.2960180
2,شارع جابر ابو خشبه,11765,30.0470119,31.2949650
4L,حارة أم العربى,11765,30.0468291,31.2953254
6,حارة السعاده,11765,30.0532043,31.2935847
13,شارع الحريه,11765,30.0511780,31.2931218
7`,شارع محمد ابو الفتوح,11765,30.0520026,31.2922594
4,شارع الحاج عبد التواب,11765,30.0484016,31.2931980
4`,شارع عبد الكريم,11765,30.0475306,31.2936196
7L,شارع الصاوي,11765,30.0499460,31.2908171
7L,شارع الحريه,11765,30.0512791,31.2932783
11,شارع عبد المقصود,11765,30.0462151,31.2920094
8,شارع مسجد الفتح,11765,30.0484084,31.2915086
38,شارع عمر بن الخطاب,11765,30.0502020,31.2944138
15,حارة جابر عبد الله,11765,30.0442630,31.2953070
8,شارع محمد على,11765,30.0489071,31.2927886
12,حارة السيد على,11765,30.0447257,31.2954278
3L,شارع جمال ابراهيم,11765,30.0486124,31.2913043
6,حارة الشاويش,11765,30.0506013,31.2937420
17,شارع احمد الخشاب,11765,30.0469243,31.2914257
2,حارة الشيخ مبارك عريان,11765,30.0504802,31.2952929
6,شارع فايز مرعى 2,11765,30.0488433,31.2951546
12,حارة عبد الكريم,11765,30.0477773,31.2944212
2R,شارع خالد بن الوليد,11765,30.0513524,31.2933092
2,حارة عبد التواب,11765,30.0477961,31.2929200
3R,حارة 8,11765,30.0481509,31.2967936
6,حارة أم سلطان,11765,30.0484708,31.2962793
13,شارع العقيد صالح السيد,11765,30.0516263,31.2913452
23,شارع احمد الخشاب,11765,30.0465561,31.2912698
6,حارة حسن الخضرى,11765,30.0451662,31.2921383
3,حارة عيد ابو شوره,11765,30.0452172,31.2948978
6,شارع عبد الكريم سالم,11765,30.0484901,31.2940785
9,حارة بدر عاشور,11765,30.0479873,31.2946876
17,شارع الفرن,11765,30.0478587,31.2935644
19,شارع عبد العزيز ابو رحمه,11765,30.0487486,31.2932004
3,حارة هلال,11765,30.0492858,31.2955863
9,شارع جابر ابو خشبه,11765,30.0471751,31.2951742
16,شارع الفرن,11765,30.0479406,31.2934075
6,شارع درويش,11765,30.0521663,31.2928161
1,شارع الحاج شحات وهبه,11765,30.0506912,31.2923500
29,شارع ابو بكر الصديق,11765,30.0515853,31.2917648
22`,شارع محمود عيسى,11765,30.0463093,31.2929347
8,حارة أم سلطان,11765,30.0481275,31.2960768
1R,شارع المدارس,11765,30.0482923,31.2972617
4,حارة السيد على,11765,30.0449940,31.2955212
25,شارع فايز مرعى,11765,30.0473183,31.2947483
10`,شارع ابو زيد خضر,11765,30.0445601,31.2941392
3,حارة عامر شومان,11765,30.0476487,31.2964096
21,شارع عامر شومان,11765,30.0472575,31.2955720
7,شارع عبد الحميد,11765,30.0476695,31.2955907
3,حارة محسن,11765,30.0498043,31.2913521
5,شارع مهدى,11765,30.0476968,31.2957131
3R,شارع الحاج عبد التواب,11765,30.0479467,31.2929395
5,شارع احمد على حسن,11765,30.0469112,31.2946678
24,شارع محمود عيسى,11765,30.0463737,31.2929539
15,حارة عبد الرحيم مسلم,11765,30.0516638,31.2929539
9,شارع عامر شومان,11765,30.0477659,31.2960179
12,حارة ابو ادهم,11765,30.0506968,31.2953954
1,حارة 8,11765,30.0480395,31.2969474
3`,شارع عامر شومان,11765,30.0479197,31.2961057
9,شارع اسماعيل ابو رحمه,11765,30.0509454,31.2943428
4R,شارع احمد المندوه,11765,30.0495300,31.2934858
1L,عطفه أم سلطان,11765,30.0482659,31.2958497
14,شارع عيد ابو شوره,11765,30.0452162,31.2950502
2,حارة الانوى,11765,30.0518655,31.2937114
5,شارع ابو بكر الصديق,11765,30.0525962,31.2924785
5,عطفه أم سلطان,11765,30.0480850,31.2957692
2,شارع كمال عباس,11765,30.0518057,31.2934566
4,حارة ابو ادهم,11765,30.0506444,31.2951262
35,شارع عمر بن الخطاب,11765,30.0505562,31.2939330
31,شارع الواجب,11765,30.0503329,31.2930678
3,شارع عبد المنعم سليمان,11765,30.0510537,31.2929287
9,شارع كمال عباس,11765,30.0513839,31.2928500
13,حارة يوسف ابو جبل,11765,30.0491582,31.2915852
15,حارة يوسف ابو جبل,11765,30.0491858,31.2914782
8R,شارع المدارس,11765,30.0477774,31.2967134
27,شارع اسماعيل ابو رحمه,11765,30.0495620,31.2955377
12`,شارع ابو زيد خضر,11765,30.0446266,31.2940796
3R,شارع عبد العزيز ابو رحمه,11765,30.0477752,31.2932900
12,شارع ورشة الخشب,11765,30.0467608,31.2926833
9,حارة السيد جمعه,11765,30.0441330,31.2954481
9,حارة احمد الخشاب,11765,30.0468890,31.2910839
6,حارة 8,11765,30.0480009,31.2967710
10L,حارة جابر عبد الله,11765,30.0443185,31.2951978
1,شارع سالم,11765,30.0503598,31.2914715
8,حارة يوسف ابو جبل,11765,30.0489500,31.2917671
20,شارع الحريه,11765,30.0505316,31.2928697
4L,شارع الحريه,11765,30.0512035,31.2934115
60,شارع سليمان القصير,11765,30.0493199,31.2912923
8,حارة محسن,11765,30.0498047,31.2915037
6`,حارة محمد مصطفى القفاص,11765,30.0453459,31.2947726
2`,شارع السلام,11765,30.0507317,31.2907475
1,شارع الوكيل,11765,30.0503030,31.2922667
2L,شارع عمر بن الخطاب,11765,30.0512079,31.2937680
21,شارع عبد العزيز ابو رحمه,11765,30.0487209,31.2931187
1L,شارع فايز مرعى 2,11765,30.0485388,31.2950352
8,شارع احمد الخشاب 2,11765,30.0476632,31.2922446
1,حارة الشاويش,11765,30.0508126,31.2938257
22,شارع ورشة الخشب,11765,30.0463983,31.2927766
5,شارع سالم كمال,11765,30.0501567,31.2916312
7,حارة عبد الكريم,11765,30.0477374,31.2946127
6,شارع ام عربي,11765,30.0471425,31.2961058
16,شارع عبد الكريم,11765,30.0482688,31.2944832
11,شارع عامر شومان,11765,30.0477095,31.2959716
8R,شارع عيد ابو شوره,11765,30.0448521,31.2950426
15,شارع عبد العزيز ابو رحمه,11765,30.0488914,31.2934130
8R,حارة جابر عبد الله,11765,30.0443690,31.2957165
10,حارة الصعايدة,11765,30.0486083,31.2960616
8,حارة عبده الطويل,11765,30.0503202,31.2955604
11`,شارع صلاح ابو عياد,11765,30.0492455,31.2919991
58,حارة 10,11765,30.0490740,31.2968051
10,شارع الحاج شحات وهبه,11765,30.0507759,31.2921731
11,شارع مصطفى مرزوق,11765,30.0465148,31.2945417
3,شارع الصاوي,11765,30.0500969,31.2908424
4,شارع جابر ابو خشبه,11765,30.0471161,31.2949686
2`,شارع عبد الكريم,11765,30.0489432,31.2947977
17`,شارع ابو بكر الصديق,11765,30.0510089,31.2912928
1,حارة أم العربى,11765,30.0467753,31.2958404
34,شارع اسماعيل ابو رحمه,11765,30.0500472,31.2955556
12,حارة سليمان الصعيدى,11765,30.0494679,31.2918216
10R,شارع مسجد الرحمن,11765,30.0467264,31.2905172
17`,شارع الحريه,11765,30.0508359,31.2928255
2,شارع مجمع الفردوس,11765,30.0568138,31.3016930
1,شارع مجمع الفردوس,11765,30.0563170,31.3020256
14,شارع سور معهد النقل,11765,30.0584134,31.3044530
13,شارع سور معهد النقل,11765,30.0583576,31.3040936
12,امتداد شارع رمسيس,11765,30.0584203,31.3035116
11,امتداد شارع رمسيس,11765,30.0582834,31.3036054
10,امتداد شارع رمسيس,11765,30.0581696,31.3037583
9,امتداد شارع رمسيس,11765,30.0580210,31.3038817
8,امتداد شارع رمسيس,11765,30.0578121,31.3042223
5,شارع سور معهد النقل,11765,30.0581998,31.3046837
4,شارع سور معهد النقل,11765,30.0587082,31.3043189
3,طريق النصر,11765,30.0587569,31.3041607
2,طريق النصر,11765,30.0586517,31.3039763
1,طريق النصر,11765,30.0585503,31.3037986
10,حارة الحاج اسماعيل السباك,11765,30.0476422,31.2924930
13,شارع فايز مرعى,11765,30.0480462,31.2953066
19,حارة احمد الخشاب,11765,30.0470262,31.2906243
33,شارع ايديال,11765,30.0550088,31.2902105
32,شارع ايديال,11765,30.0551946,31.2900777
31,شارع ايديال,11765,30.0554128,31.2899664
30,شارع ايديال,11765,30.0555971,31.2899413
29,شارع ايديال,11765,30.0558499,31.2899069
28,شارع ايديال,11765,30.0560491,31.2898798
27,شارع ايديال,11765,30.0562378,31.2898541
26,شارع ايديال,11765,30.0564295,31.2898280
20,شارع ايديال,11765,30.0563502,31.2902407
19,شارع ايديال,11765,30.0560949,31.2902793
18,شارع ايديال,11765,30.0559076,31.2903076
17,شارع ايديال,11765,30.0556191,31.2903511
16,شارع ايديال,11765,30.0553466,31.2905082
53,شارع عبد الله العربى,11765,30.0451311,31.3283750
51,شارع عبد الله العربى,11765,30.0453152,31.3283296
9,شارع ابو ذر الغفارى,11765,30.0491594,31.3245127
42,شارع جعفر الصديق,11765,30.0496702,31.3222843
22,شارع جعفر الصديق,11765,30.0500960,31.3247679
20,شارع جعفر الصديق,11765,30.0501326,31.3249815
4,شارع ابو ذر الغفارى,11765,30.0514217,31.3246236
42,شارع السلام,11765,30.0497376,31.2940836
3,شارع ام سلطان,11765,30.0484757,31.2966961
1L,شارع المدارس,11765,30.0443325,31.2960201
21,امتداد شارع المخيم الدائم,11765,30.0478430,31.3125640
6,شارع على رمضان,11765,30.0487828,31.3142470
5,شارع الخليفه الظافر,11765,30.0437567,31.3283730
1,شارع صلاح ابو عياد,11765,30.0495239,31.2911064
14L,شارع السلام,11765,30.0506836,31.2914322
12L,شارع السلام,11765,30.0506906,31.2912512
11,شارع المساعيد,11765,30.0523796,31.2930497
13,شارع كمال عباس,11765,30.0514335,31.2932293
1,شارع الشيخ صالح,11765,30.0521800,31.2936866
2R,شارع عمر بن الخطاب,11765,30.0527023,31.2934814
2,شارع 4,11765,30.0481425,31.2961992
1,حارة أم سلطان,11765,30.0483080,31.2961576
6,شارع محمد ابو خليل,11765,30.0477838,31.2963775
4,شارع محمد ابو خليل,11765,30.0477432,31.2964533
1,حارة عبد الكريم,11765,30.0476572,31.2949017
26,شارع ابو زيد خضر,11765,30.0449733,31.2937590
9,شارع محمود عيسى,11765,30.0458811,31.2930067
12,شارع محمود عيسى,11765,30.0459438,31.2928645
6,شارع عيد ابو شوره,11765,30.0450766,31.2955340
4,شارع عيد ابو شوره,11765,30.0450401,31.2956460
2,شارع عيد ابو شوره,11765,30.0450307,31.2957050
3,شارع ابو شوره,11765,30.0455201,31.2950425
6,حارة محمد مصطفى القفاص,11765,30.0454052,31.2949070
2L,شارع علام,11765,30.0451359,31.2953328
24,حارة نصر الله,11765,30.0447081,31.2945886
12,حارة نصر الله,11765,30.0447899,31.2947944
4,حارة مسجد الفتح,11765,30.0478105,31.2914309
4,حارة يوسف ابو جبل,11765,30.0488816,31.2919829
11R,شارع صلاح بخيت,11765,30.0495866,31.2909025
5,حارة المساعيد,11765,30.0525967,31.2930255
4,شارع 4,11765,30.0481890,31.2961073
4,شارع ابو الفوارس,11765,30.0495425,31.3259536
59,شارع ابو الفوارس,11765,30.0472580,31.3188082
5,شارع صديق جوهر,11765,30.0438171,31.3241458
4,شارع صديق جوهر,11765,30.0441189,31.3238829
3,شارع صديق جوهر,11765,30.0445833,31.3235611
16,شارع عزبة نصار,11765,30.0570530,31.2960926
15,شارع عزبة نصار,11765,30.0569438,31.2959826
14,شارع عزبة نصار,11765,30.0567883,31.2957761
12,شارع عزبة نصار,11765,30.0565027,31.2954596
28,شارع نصر ابو الفرج,11765,30.0546826,31.2887594
26,شارع نصر ابو الفرج,11765,30.0546014,31.2887782
24,شارع نصر ابو الفرج,11765,30.0544900,31.2887809
5,شارع نصر ابو الفرج,11765,30.0542323,31.2887567
2,شارع نصر ابو الفرج,11765,30.0540140,31.2887862
27,شارع نصر ابو الفرج,11765,30.0549776,31.2891998
29,شارع نصر ابو الفرج,11765,30.0550309,31.2891966
25,شارع نصر ابو الفرج,11765,30.0548589,31.2892068
23,شارع نصر ابو الفرج,11765,30.0547658,31.2892124
21,شارع نصر ابو الفرج,11765,30.0546823,31.2892173
19,شارع نصر ابو الفرج,11765,30.0545665,31.2892242
17,شارع نصر ابو الفرج,11765,30.0544075,31.2892337
15,شارع نصر ابو الفرج,11765,30.0543112,31.2892394
13,شارع نصر ابو الفرج,11765,30.0541648,31.2892481
11,شارع نصر ابو الفرج,11765,30.0541042,31.2892517
9,شارع نصر ابو الفرج,11765,30.0539931,31.2892583
4,محور الشهيد,11765,30.0472742,31.3160643
2,شارع الجامع,11765,30.0475122,31.2914953
3,حارة مسجد الفتح,11765,30.0477444,31.2916066
10,حارة نصر الله,11765,30.0447945,31.2946844
17,شارع المدارس,11765,30.0463954,31.2959424
15,شارع المدارس,11765,30.0465417,31.2960041
13,شارع المدارس,11765,30.0466845,31.2960617
11,شارع المدارس,11765,30.0467727,31.2961180
9,شارع المدارس,11765,30.0468783,31.2961690
14,شارع عمرو درويش,11765,30.0516007,31.2904412
21,شارع فايز مرعى,11765,30.0474628,31.2948252
23,شارع فايز مرعى,11765,30.0473851,31.2947977
19R,شارع الفرن,11765,30.0478651,31.2937007
39,شارع عمر بن الخطاب,11765,30.0503215,31.2941191
8,حارة الشاويش,11765,30.0505484,31.2936451
12,شارع ابو طاحول,11765,30.0513105,31.2903285
10,شارع ابو طاحول,11765,30.0512815,31.2904452
8,شارع ابو طاحول,11765,30.0512432,31.2905806
4L,حارة كمال عباس,11765,30.0516831,31.2926124
22,شارع ابو بكر الصديق,11765,30.0519304,31.2920988
13,شارع محمد ابو الفتوح,11765,30.0519025,31.2923951
5,شارع محمد ابو الفتوح,11765,30.0520523,31.2922718
3`,شارع محمد ابو الفتوح,11765,30.0521231,31.2922758
1,شارع محمد ابو الفتوح,11765,30.0521823,31.2922771
12,شارع المساعيد,11765,30.0524145,31.2927492
21R,حارة الشويش,11765,30.0507161,31.2929463
19,حارة الشويش,11765,30.0507057,31.2930858
17,حارة الشويش,11765,30.0506987,31.2931770
15,حارة الشويش,11765,30.0506929,31.2932414
9,حارة الشويش,11765,30.0506465,31.2935284
4,حارة الشويش,11765,30.0505420,31.2933581
6,حارة الشويش,11765,30.0505513,31.2932682
21,شارع عمر بن الخطاب,11765,30.0513047,31.2937134
23,شارع عمر بن الخطاب,11765,30.0511410,31.2937590
25,شارع عمر بن الخطاب,11765,30.0510412,31.2937818
25`,شارع عمر بن الخطاب,11765,30.0509715,31.2937818
27,شارع عمر بن الخطاب,11765,30.0509054,31.2938234
22L,شارع السلام,11765,30.0506279,31.2920330
10,شارع الوكيل,11765,30.0498351,31.2920867
20,شارع صلاح بخيت,11765,30.0493742,31.2910487
36,شارع السلام,11765,30.0499012,31.2931220
39R,شارع السلام,11765,30.0497770,31.2933889
41,شارع السلام,11765,30.0496807,31.2935874
18R,شارع عبد الكريم,11765,30.0483190,31.2942781
4,شارع عبد الكريم سالم,11765,30.0484316,31.2941359
1,شارع المعز لدين الله,11765,30.0485001,31.2943760
16`,شارع عبد العزيز ابو رحمه,11765,30.0486394,31.2933876
16,شارع عبد العزيز ابو رحمه,11765,30.0486951,31.2934546
16A,شارع عبد العزيز ابو رحمه,11765,30.0486057,31.2933004
29,شارع عبد العزيز ابو رحمه,11765,30.0484536,31.2926432
27,شارع عبد العزيز ابو رحمه,11765,30.0485500,31.2927505
25,شارع عبد العزيز ابو رحمه,11765,30.0486452,31.2928887
17,شارع عبد العزيز ابو رحمه,11765,30.0488147,31.2933004
5L,شارع عبد العزيز ابو رحمه,11765,30.0492535,31.2937148
10,شارع فايز مرعى,11765,30.0486870,31.2951900
12,شارع فايز مرعى,11765,30.0486556,31.2952611
2,شارع فايز مرعى,11765,30.0485976,31.2953871
8,شارع فايز مرعى 2,11765,30.0487218,31.2951189
5`,شارع فايز مرعى 2,11765,30.0487566,31.2949553
10R,شارع عبد الكريم,11765,30.0484966,31.2946361
20,حارة عبد الكريم,11765,30.0479069,31.2943652
9,حارة عبد الكريم,11765,30.0477560,31.2945074
19,شارع فايز مرعى,11765,30.0477235,31.2949620
17`,شارع فايز مرعى,11765,30.0478129,31.2950224
9,شارع فايز مرعى,11765,30.0482017,31.2954448
13,شارع اسماعيل ابو رحمه,11765,30.0507080,31.2945691
11,شارع اسماعيل ابو رحمه,11765,30.0508287,31.2944671
21,شارع اسماعيل ابو رحمه,11765,30.0504178,31.2948628
13`,شارع اسماعيل ابو رحمه,11765,30.0502948,31.2949996
17,شارع اسماعيل ابو رحمه,11765,30.0500556,31.2952302
19,شارع اسماعيل ابو رحمه,11765,30.0499802,31.2953295
7,شارع على ابو رحمة,11765,30.0496575,31.2949674
3,شارع على ابو رحمة,11765,30.0498049,31.2946281
50,شارع السلام,11765,30.0495274,31.2946187
32,شارع عمر بن الخطاب,11765,30.0505072,31.2942794
50,شارع عمر بن الخطاب,11765,30.0499837,31.2944524
1,شارع المساعيد,11765,30.0521057,31.2933701
3,شارع عمر بن الخطاب,11765,30.0528463,31.2932253
1,شارع عمر بن الخطاب,11765,30.0529496,31.2932226
25,شارع ابو بكر الصديق,11765,30.0517493,31.2918158
11,شارع ابو بكر الصديق,11765,30.0523343,31.2921993
14,شارع نصر ابو عواد,11765,30.0517713,31.2916991
12,شارع نصر ابو عواد,11765,30.0517110,31.2916133
10,شارع نصر ابو عواد,11765,30.0516413,31.2915851
8,شارع نصر ابو عواد,11765,30.0515299,31.2915596
6,شارع نصر ابو عواد,11765,30.0514475,31.2915395
20,شارع العقيد صالح السيد,11765,30.0521266,31.2918855
22,شارع العقيد صالح السيد,11765,30.0521985,31.2919539
14`,شارع العقيد صالح السيد,11765,30.0519420,31.2916455
12,شارع العقيد صالح السيد,11765,30.0518584,31.2915556
34,شارع ابو بكر الصديق,11765,30.0507835,31.2909830
36,شارع ابو بكر الصديق,11765,30.0507939,31.2910849
38,شارع ابو بكر الصديق,11765,30.0507974,31.2911358
40,شارع ابو بكر الصديق,11765,30.0508032,31.2911814
42,شارع ابو بكر الصديق,11765,30.0508113,31.2912391
1,شارع العقيد صالح السيد,11765,30.0510331,31.2909642
3,شارع العقيد صالح السيد,11765,30.0511201,31.2909682
5,شارع العقيد صالح السيد,11765,30.0511967,31.2909830
5,شارع السلام,11765,30.0509193,31.2901099
6,شارع السلام,11765,30.0508996,31.2902252
3,شارع السلام,11765,30.0509820,31.2898967
2,شارع السلام,11765,30.0510017,31.2898082
11,حارة الشيخ سالم,11765,30.0500057,31.2960094
9,حارة الشيخ سالم,11765,30.0499790,31.2959692
7,حارة الشيخ سالم,11765,30.0499500,31.2959155
5,حارة الشيخ سالم,11765,30.0499152,31.2958673
3,حارة الشيخ سالم,11765,30.0498966,31.2957720
1,حارة الشيخ سالم,11765,30.0498699,31.2956969
148,شارع اسماعيل ابو رحمه,11765,30.0498467,31.2956500
36,شارع اسماعيل ابو رحمه,11765,30.0499500,31.2956245
7,حارة ابو ادهم,11765,30.0506233,31.2953389
3,حارة الحاج سيد الثمنينى,11765,30.0514231,31.2946616
1,حارة الحاج سيد الثمنينى,11765,30.0512234,31.2944524
8,شارع الحاج قمر الدوله,11765,30.0515740,31.2944578
6,شارع الحاج قمر الدوله,11765,30.0515256,31.2944001
4,شارع الحاج قمر الدوله,11765,30.0514773,31.2943424
2,شارع الحاج قمر الدوله,11765,30.0514289,31.2942848
12,شارع اسماعيل ابو رحمه,11765,30.0512559,31.2942982
10,شارع اسماعيل ابو رحمه,11765,30.0513407,31.2942030
18,شارع عمر بن الخطاب,11765,30.0516298,31.2938730
7,حارة الانوى,11765,30.0521219,31.2940514
3,حارة الانوى,11765,30.0518921,31.2940380
6,حارة الانوى,11765,30.0520465,31.2939414
12,شارع عمر بن الخطاب,11765,30.0520732,31.2936062
9,شارع الشيخ صالح,11765,30.0522403,31.2940715
10R,شارع عمر بن الخطاب,11765,30.0521567,31.2936035
9,شارع الزهور,11765,30.0524342,31.2938583
6,شارع عمر بن الخطاب,11765,30.0525491,31.2935901
5,حارة سعيد الشامى,11765,30.0526280,31.2937456
3,حارة سعيد الشامى,11765,30.0525955,31.2936759
11,شارع السكة الجديدة,11765,30.0524725,31.2943169
16,شارع ام سلطان,11765,30.0482029,31.2963662
1,حارة الزعيم,11765,30.0483469,31.2970018
1,شارع مهدى,11765,30.0477525,31.2958713
9,شارع محمد حسن خضر,11765,30.0475041,31.2957117
1,شارع محمد حسن خضر,11765,30.0476619,31.2953845
5,شارع الحاجه ام سيد,11765,30.0459624,31.2927344
18,شارع احمد الخشاب,11765,30.0469608,31.2916441
152,شارع اسماعيل ابو رحمه,11765,30.0493336,31.2959357
150,شارع اسماعيل ابو رحمه,11765,30.0494346,31.2958471
64,شارع اسماعيل ابو رحمه,11765,30.0490689,31.2962468
62,شارع اسماعيل ابو رحمه,11765,30.0491211,31.2961717
66,حارة 11,11765,30.0491316,31.2964506
70,شارع السلام,11765,30.0489563,31.2967122
74,شارع السلام,11765,30.0488600,31.2969375
76,شارع السلام,11765,30.0488263,31.2970461
78,شارع السلام,11765,30.0487799,31.2971105
16,شارع عامر شومان,11765,30.0471987,31.2958203
15,شارع جابر ابو خشبه,11765,30.0473973,31.2952624
8L,شارع عيد ابو شوره,11765,30.0450325,31.2953053
16,حارة نبيل متولى,11765,30.0451289,31.2949781
14,حارة نبيل متولى,11765,30.0450906,31.2950881
4,شارع المدارس,11765,30.0435663,31.2956326
6,شارع المدارس,11765,30.0436209,31.2957117
3`,امتداد شارع رمسيس,11765,30.0529368,31.3063896
3,امتداد شارع رمسيس,11765,30.0541812,31.3063466
1,شارع ابو الفوارس,11765,30.0501531,31.3265008
12,شارع ابو القاسم المهدى,11765,30.0493899,31.3257899
13L,شارع ابو القاسم المهدى,11765,30.0493687,31.3256747
9,شارع الإمام بن حنبل,11765,30.0488646,31.3262165
9`,شارع نصر ابو الفرج,11765,30.0562776,31.2884925
33,شارع نصر ابو الفرج,11765,30.0556090,31.2892368
65,شارع نصر ابو الفرج,11765,30.0561777,31.2886226
7`,شارع نصر ابو الفرج,11765,30.0559386,31.2882847
7,شارع نصر ابو الفرج,11765,30.0553722,31.2885502
2,شارع الصاوي,11765,30.0497526,31.2931086
9`,شارع الصاوي,11765,30.0499001,31.2924421
2,شارع مسجد البحرى,11765,30.0497480,31.2925628
7,شارع مسجد البحرى,11765,30.0498246,31.2925775
10,شارع مسجد البحرى,11765,30.0495866,31.2926660
8,شارع مسجد البحرى,11765,30.0496400,31.2926808
6,شارع مسجد البحرى,11765,30.0496981,31.2926996
5L,شارع الوكيل,11765,30.0495565,31.2921430
6,شارع نصر عبد المجيد,11765,30.0511213,31.2925360
5,حارة الزعيم,11765,30.0481716,31.2969522
3,حارة الزعيم,11765,30.0482284,31.2968865
10,شارع عامر شومان,11765,30.0476016,31.2960416
3,شارع عامر شومان,11765,30.0485396,31.2965137
1,شارع عامر شومان,11765,30.0485953,31.2965740
6,شارع مسجد التوحيد,11765,30.0485860,31.2958646
15,شارع عامر شومان,11765,30.0482760,31.2962428
13,شارع عامر شومان,11765,30.0483213,31.2962790
3,حارة أم سلطان,11765,30.0483944,31.2962200
28,حارة أم سلطان,11765,30.0480439,31.2960550
5,حارة محمد خلاف,11765,30.0478256,31.2945919
7,حارة محمد خلاف,11765,30.0478906,31.2945771
12`,شارع عبد الكريم,11765,30.0475876,31.2938020
11,شارع مسجد خالد بن الوليد,11765,30.0476701,31.2930053
9,شارع عبد المقصود,11765,30.0467588,31.2923267
6,شارع عزت صادق,11765,30.0508020,31.2926151
31,شارع بورسعيد,11765,30.0510667,31.2934801
21,شارع خالد بن الوليد,11765,30.0514231,31.2933393
12,شارع نصار عواد,11765,30.0515496,31.2913585
8,شارع نصار عواد,11765,30.0514684,31.2913102
6,شارع نصار عواد,11765,30.0514777,31.2912056
7,شارع الوكيل,11765,30.0500963,31.2921095
2,شارع سالم كمال,11765,30.0503667,31.2917957
4,شارع سالم كمال,11765,30.0502843,31.2917729
6,شارع سالم كمال,11765,30.0502286,31.2917501
8,شارع سالم كمال,11765,30.0501160,31.2917085
4`,شارع صلاح بخيت,11765,30.0495541,31.2910554
2`,شارع صلاح بخيت,11765,30.0500080,31.2911600
5,حارة كمال عباس,11765,30.0514266,31.2927411
1R,شارع الحريه,11765,30.0512826,31.2935753
3,شارع محمود الابيض,11765,30.0517504,31.2931462
5,شارع ورشة الخشب,11765,30.0520070,31.2930442
3,شارع ورشة الخشب,11765,30.0519281,31.2931596
12,شارع ابو بكر الصديق,11765,30.0524829,31.2925909
14,شارع ابو بكر الصديق,11765,30.0523924,31.2925319
16,شارع ابو بكر الصديق,11765,30.0523007,31.2924340
2,شارع فرج عبد اللطيف,11765,30.0519594,31.2925413
1,شارع فرج عبد اللطيف,11765,30.0519443,31.2926687
6,شارع محمد ابو الفتوح,11765,30.0518038,31.2924689
14,شارع كمال عباس,11765,30.0512339,31.2929691
6`,شارع كمال عباس,11765,30.0512292,31.2928806
9,شارع عبد المنعم سليمان,11765,30.0511004,31.2927224
11,شارع الحاج شحات وهبه,11765,30.0508613,31.2923200
4,شارع نصر عبد المجيد,11765,30.0509588,31.2925293
3,شارع فتحي فوده,11765,30.0501427,31.2936008
1,شارع فتحي فوده,11765,30.0500707,31.2935257
2,حارة الشاويش,11765,30.0501636,31.2933902
13,شارع عبد الكريم,11765,30.0484560,31.2944216
11,شارع عبد الكريم,11765,30.0486011,31.2945168
5,شارع عبد الكريم,11765,30.0487032,31.2945543
14,شارع سالم,11765,30.0485604,31.2938958
26,شارع سالم,11765,30.0480886,31.2933936
8,شارع المسابك,11765,30.0480926,31.2932333
13`,شارع مسجد خالد بن الوليد,11765,30.0462097,31.2942646
15,شارع المسجد القبلى,11765,30.0466415,31.2936491
15,شارع مسجد خالد بن الوليد,11765,30.0463292,31.2937470
13,شارع مسجد خالد بن الوليد,11765,30.0464279,31.2936316
3,شارع مسجد الصفا,11765,30.0461923,31.2927867
13L,شارع ورشة الخشب,11765,30.0464836,31.2927908
5,شارع مسجد الصفا,11765,30.0462085,31.2926687
6,شارع محمد حسن خضر,11765,30.0474599,31.2955333
4,شارع محمد حسن خضر,11765,30.0474263,31.2956326
28,شارع فايز مرعى 2,11765,30.0481762,31.2949942
21,شارع عبد الكريم,11765,30.0480752,31.2941292
22,حارة عبد الكريم,11765,30.0479649,31.2942338
18,شارع جمال ابراهيم,11765,30.0482888,31.2925212
21,شارع مسجد الفتح,11765,30.0480578,31.2912109
4,شارع الشهيد عبد الرؤوف شرف,11765,30.0465754,31.2907858
6,شارع هاشم ابو الهنا,11765,30.0471325,31.2911680
3R,شارع محمد ابو الفتوح,11765,30.0517179,31.2923080
2R,شارع محمد ابو الفتوح,11765,30.0516158,31.2923026
13,شارع درويش,11765,30.0519884,31.2928967
5`,شارع درويش,11765,30.0520848,31.2926392
5,شارع درويش,11765,30.0521846,31.2926526
3,شارع درويش,11765,30.0522589,31.2926915
4L,شارع محمد ابو الفتوح,11765,30.0520174,31.2924005
2L,شارع محمد ابو الفتوح,11765,30.0521335,31.2923817
13,حارة عبد الرحيم مسلم,11765,30.0517516,31.2928659
1,حارة عبد الرحيم مسلم,11765,30.0515287,31.2931475
7,شارع كمال عباس,11765,30.0516762,31.2932333
10,حارة عبد الرحيم مسلم,11765,30.0516518,31.2927733
2`,حارة عبد الرحيم مسلم,11765,30.0514382,31.2930375
13,شارع عمر بن الخطاب,11765,30.0517261,31.2935445
7,شارع المنوفى,11765,30.0502356,31.2945409
5,شارع المنوفى,11765,30.0503482,31.2945664
1,شارع المنوفى,11765,30.0505107,31.2946334
2,شارع على ابو رحمة,11765,30.0499059,31.2948038
4,شارع على ابو رحمة,11765,30.0499674,31.2947005
5,شارع عامر شومان,11765,30.0478697,31.2960725
4,شارع عبد الحميد,11765,30.0477444,31.2954502
30R,شارع فايز مرعى,11765,30.0466833,31.2947796
14,شارع فايز مرعى,11765,30.0467855,31.2948051
12,شارع ام عربي,11765,30.0466288,31.2956969
1,شارع ام عربي,11765,30.0466462,31.2959155
10,شارع العقيد صالح السيد,11765,30.0515415,31.2910406
8,شارع الوكيل,11765,30.0497515,31.2920532
10`,شارع صلاح ابو عياد,11765,30.0494600,31.2918937
14,حارة سليمان الصعيدى,11765,30.0495878,31.2918480
1,شارع ابو رحيم,11765,30.0512316,31.2913451
3,شارع ابو رحيم,11765,30.0512420,31.2912337
32,شارع العقيد صالح السيد,11765,30.0512362,31.2911385
10,شارع عمرو درويش,11765,30.0513372,31.2906262
8,شارع عمرو درويش,11765,30.0513813,31.2906517
2,شارع عمرو درويش,11765,30.0514811,31.2906839
4,شارع عمرو درويش,11765,30.0515148,31.2906115
24,شارع ابو بكر الصديق,11765,30.0518236,31.2920344
21,شارع العقيد صالح السيد,11765,30.0522728,31.2920398
41,شارع نصر ابو عواد,11765,30.0512559,31.2915127
27`,شارع ابو بكر الصديق,11765,30.0512246,31.2916347
5,شارع مسجد الهدي,11765,30.0494346,31.2964882
3,شارع مسجد الهدي,11765,30.0493196,31.2963863
4,شارع مسجد الهدي,11765,30.0494299,31.2963755
2,شارع مسجد الهدي,11765,30.0493754,31.2963045
2,شارع حسن خلاف,11765,30.0493278,31.2961462
4,شارع حسن خلاف,11765,30.0494079,31.2960134
3`,حارة الشيخ مبارك عريان,11765,30.0504700,31.2954569
24,شارع اسماعيل ابو رحمه,11765,30.0506488,31.2949499
1,حارة احمد بطوط,11765,30.0509251,31.2948735
5,حارة احمد بطوط,11765,30.0510214,31.2949888
4,شارع هلال اسماعيل,11765,30.0510957,31.2946281
18,شارع اسماعيل ابو رحمه,11765,30.0510319,31.2945503
2,حارة الحاج سيد الثمنينى,11765,30.0513349,31.2943666
6,شارع ابراهيم القليني,11765,30.0515380,31.2942439
4,شارع ابراهيم القليني,11765,30.0514927,31.2941775
2,شارع ابراهيم القليني,11765,30.0514219,31.2940997
5,حارة ابو سمره,11765,30.0517017,31.2942713
3,حارة ابو سمره,11765,30.0516390,31.2941962
1,حارة ابو سمره,11765,30.0515380,31.2940863
15,شارع الشيخ صالح,11765,30.0522763,31.2941815
13,شارع الشيخ صالح,11765,30.0522566,31.2941279
16,شارع الزهور,11765,30.0528741,31.2940608
11,شارع الحاج صالح مدني,11765,30.0524226,31.2940098
16`,شارع عمر بن الخطاب,11765,30.0517470,31.2937845
5,شارع الحاج حسن جمعه,11765,30.0531016,31.2937993
3,شارع الحاج حسن جمعه,11765,30.0531005,31.2937242
2,حارة حامد محمد,11765,30.0527801,31.2941346
13,حارة محمد حامد,11765,30.0530053,31.2941051
9,حارة حامد,11765,30.0529031,31.2938341
7,حارة حامد,11765,30.0528904,31.2937805
5,حارة حامد,11765,30.0528764,31.2937027
3,حارة حامد,11765,30.0528625,31.2936303
1,حارة حامد,11765,30.0528474,31.2935659
10,شارع السكة الجديدة,11765,30.0531028,31.2940635
6,شارع السكة الجديدة,11765,30.0532839,31.2939401
3,حارة الجهاد,11765,30.0532810,31.2936497
32`,شارع ابو بكر الصديق,11765,30.0507695,31.2908488
9,شارع محمد ابو خليل,11765,30.0479591,31.2964171
3`,شارع مصطفى مرزوق,11765,30.0472371,31.2935230
4,شارع مسجد خالد بن الوليد,11765,30.0460762,31.2951256
4,حارة محمد مصطفى القفاص,11765,30.0453785,31.2949955
4,حارة نبيل متولى,11765,30.0450708,31.2949620
4,حارة عيد ابو شوره,11765,30.0450941,31.2949191
6,حارة عيد ابو شوره,11765,30.0450476,31.2948950
8,حارة عيد ابو شوره,11765,30.0449896,31.2948520
10,حارة محمد مصطفى القفاص,11765,30.0451881,31.2947112
8,حارة محمد مصطفى القفاص,11765,30.0452531,31.2947313
6,حارة سيد حميده,11765,30.0442094,31.2949137
13,شارع التحرير,11765,30.0443255,31.2945463
4,حارة سيد حميده,11765,30.0443325,31.2947032
14,شارع المدارس,11765,30.0438705,31.2959008
54A,امتداد شارع رمسيس,11765,30.0479104,31.3080874
16,شارع الإمام بن حنبل,11765,30.0488727,31.3267100
3,شارع اسماعيل الفنجري,11765,30.0718330,31.3023555
4,شارع صلاح سالم,11765,30.0766888,31.3117808
49,طريق النصر,11765,30.0648435,31.3177864
6,شارع سور معهد النقل,11765,30.0580805,31.3047771
