House number,Street name,Postal code,Latitude,Longitude
165A,Strada Făgetului,900654,44.1941668,28.6396342
1,Piața Victoriei,900910,44.1688936,28.6322812
255,Bulevardul Mamaia,900552,44.2048891,28.6437821
70,Strada Unirii,900562,44.2036208,28.6488934
30,Strada Gheorghe Economu,900554,44.2087560,28.6437551
282,Bulevardul Mamaia,900552,44.2087482,28.6436720
134,Bulevardul Mamaia,900527,44.1957816,28.6491054
95,Bulevardul Aurel Vlaicu,900075,44.1565881,28.6140284
94,Strada Soveja,900402,44.1952192,28.6236416
104,Bulevardul Alexandru Lăpușneanu,900648,44.1950855,28.6325832
150,Strada Mircea cel Bătrân,900627,44.1912212,28.6411796
52A,Strada Mircea cel Bătrân,900658,44.1919106,28.6406377
75,Bulevardul Mamaia,900178,44.1858720,28.6465537
15,Strada Cuza Vodă,900659,44.1794671,28.6511046
2,Strada Vasile Lucaciu,900573,44.1940346,28.6493827
94A,Strada Unirii,900544,44.2067992,28.6471713
16,Strada Căiuți,900546,44.2069832,28.6493459
16bis,Strada Căiuți,900546,44.2069632,28.6492660
18,Strada Căiuți,900546,44.2069456,28.6491961
18A,Strada Căiuți,900546,44.2069265,28.6491200
20,Strada Căiuți,900546,44.2069108,28.6490572
22,Strada Căiuți,900546,44.2068605,28.6488571
24,Strada Căiuți,900546,44.2068397,28.6487740
26,Strada Căiuți,900546,44.2067943,28.6485934
28,Strada Căiuți,900546,44.2067597,28.6484556
30,Strada Căiuți,900546,44.2067334,28.6483509
30A,Strada Căiuți,900546,44.2067127,28.6482682
32,Strada Căiuți,900546,44.2066876,28.6481683
34,Strada Căiuți,900546,44.2066484,28.6480121
36,Strada Căiuți,900546,44.2066169,28.6478868
38,Strada Căiuți,900546,44.2065920,28.6477874
40,Strada Căiuți,900546,44.2065555,28.6476424
310,Bulevardul Tomis,900497,44.1989340,28.6297331
15,Strada Timișana,900524,44.1961857,28.6505248
36B,Strada Nicolae Titulescu,900735,44.1707558,28.6601653
1,Strada Ion Luca Caragiale,900167,44.1798406,28.6354357
235,Bulevardul Tomis,900647,44.1959610,28.6331484
135,Șoseaua Mangaliei,900111,44.1528094,28.6282697
155,Bulevardul Mamaia,900575,44.1934831,28.6496268
173A,Bulevardul Alexandru Lăpușneanu,900419,44.2048815,28.6294148
69,Strada Răchitași,900545,44.2043662,28.6452593
1,Strada Oleg Danovski,900525,44.1932388,28.6505997
120,Bulevardul Mamaia,900527,44.1932139,28.6503936
1-3,Prelungirea Liliacului,900008,44.1499523,28.6229626
255,Bulevardul Mamaia,900552,44.2055160,28.6427610
251-253,Bulevardul Mamaia,900559,44.2045864,28.6442302
116C,Bulevardul Alexandru Lăpușneanu,900419,44.2036669,28.6315041
26,Strada Vârful cu Dor,400227,44.1551756,28.6072928
1,Strada Fulgerului,900218,44.1801280,28.6301787
1A,Strada Fulgerului,900218,44.1801511,28.6301861
1,Strada Dafinului,900384,44.1924355,28.6258938
15,Strada Dafinului,900384,44.1912143,28.6254900
1A,Strada Dafinului,900384,44.1922565,28.6258324
2,Strada Barbu Lăutaru,900649,44.1929198,28.6371667
3,Strada Barbu Lăutaru,900649,44.1927964,28.6373388
4,Strada Barbu Lăutaru,900649,44.1927767,28.6369343
4A,Strada Barbu Lăutaru,900649,44.1926533,28.6367794
6,Strada Barbu Lăutaru,900649,44.1925854,28.6367175
6A,Strada Barbu Lăutaru,900649,44.1925250,28.6366331
99,Bulevardul Aurel Vlaicu,900075,44.1569794,28.6135313
216,Bulevardul Tomis,900652,44.1919247,28.6395315
2,Strada Răchitași,900545,44.2060027,28.6509503
112,Strada Petru Vulcan,900647,44.1914023,28.6389904
112A,Strada Petru Vulcan,900647,44.1913404,28.6388669
114,Strada Petru Vulcan,900647,44.1912696,28.6387249
116,Strada Petru Vulcan,900647,44.1912253,28.6386261
3,Strada Flămânda,900647,44.1916370,28.6386879
5,Strada Flămânda,900647,44.1915200,28.6386064
7,Strada Flămânda,900647,44.1914422,28.6385459
9,Strada Flămânda,900647,44.1913182,28.6384594
1,Strada Sublocotenent Ion Ghiculescu,900308,44.1696741,28.5893903
2D,Bulevardul 1 Decembrie 1918,900716,44.1699610,28.6378829
1,Strada Sabinelor,900685,44.1809019,28.6431463
2,Strada Sabinelor,900685,44.1810774,28.6429574
32,Strada Miron Costin,900682,44.1800674,28.6451959
68A,Strada Traian,900716,44.1684451,28.6389056
22A,Strada Farului,900648,44.1934632,28.6351940
2,Strada Călugăreni,900189,44.1823513,28.6412084
59,Strada Mihai Viteazu,900191,44.1824160,28.6413194
1 Bis,Strada Mugurului,900012,44.1388961,28.6245814
1,Strada Mugurului,900012,44.1390168,28.6246486
4,Strada Griviței,900727,44.1804835,28.6492247
11,Strada Căiuți,900546,44.2067556,28.6495929
12,Strada Zorelelor,900546,44.2063558,28.6498061
26Bis,Strada Soveja,900544,44.2071020,28.6468944
28,Strada Soveja,900553,44.2068967,28.6466923
41,Strada Căiuți,900546,44.2062509,28.6476126
43,Strada Căiuți,900553,44.2060575,28.6469032
48,Strada Soveja,900553,44.2057815,28.6450126
6,Strada Ecaterina Teodoroiu,900554,44.2071237,28.6460274
1,Strada Ion Bănescu,900669,44.1830326,28.6481849
14,Strada Ion Bănescu,900669,44.1842071,28.6471570
20,Strada Călărași,900590,44.1843300,28.6433314
4,Strada Călărași,900590,44.1851610,28.6447016
7,Strada Călărași,900590,44.1846910,28.6444582
9,Strada Călărași,900590,44.1845969,28.6443009
23A,Strada Maior Șofran,900554,44.2066506,28.6445157
97,Bulevardul Aurel Vlaicu,900075,44.1569032,28.6138786
17,Strada Mircea cel Bătrân,900744,44.1761404,28.6566124
18,Strada Callatis,900744,44.1764614,28.6576413
32,Strada Callatis,900744,44.1760834,28.6564542
34,Strada Callatis,900744,44.1760342,28.6562897
35,Strada Ion Adam,900620,44.1913221,28.6453005
2,Strada Zorelelor,900546,44.2065952,28.6507434
1,Strada Zorelelor,900546,44.2062857,28.6505265
3,Strada Zorelelor,900546,44.2062498,28.6503147
4,Strada Zorelelor,900546,44.2065407,28.6505246
2,Strada Timișana,900524,44.1966989,28.6518919
1A,Strada Bicaz,900319,44.1678004,28.5903559
10,Strada Bicaz,900319,44.1671236,28.5899733
11,Strada Bicaz,900319,44.1671517,28.5902401
12,Strada Bicaz,900319,44.1670309,28.5899820
13A,Strada Bicaz,900319,44.1667637,28.5903164
2,Strada Bicaz,900319,44.1677085,28.5898365
3,Strada Bicaz,900319,44.1677418,28.5902731
4,Strada Bicaz,900319,44.1675501,28.5898813
5,Strada Bicaz,900319,44.1676292,28.5901786
6,Strada Bicaz,900319,44.1673302,28.5899390
7,Strada Bicaz,900319,44.1674469,28.5901726
8,Strada Bicaz,900319,44.1672302,28.5899420
9,Strada Bicaz,900319,44.1672568,28.5902147
9B,Strada Bicaz,900319,44.1673411,28.5901992
1,Intrarea Histria,900248,44.1723152,28.6140050
11,Intrarea Histria,900248,44.1717158,28.6140828
12,Strada Alecu Russo,900319,44.1667088,28.5900262
13,Intrarea Histria,900248,44.1716097,28.6140966
2,Intrarea Histria,900248,44.1719870,28.6137094
2,Strada Alecu Russo,900319,44.1667863,28.5910251
26,Strada Alecu Russo,900319,44.1665984,28.5877830
3,Intrarea Histria,900248,44.1721996,28.6140200
4,Intrarea Histria,900248,44.1718540,28.6137267
5,Intrarea Histria,900248,44.1721007,28.6140328
6,Intrarea Histria,900248,44.1717205,28.6137441
7,Intrarea Histria,900248,44.1719833,28.6140481
9,Intrarea Histria,900248,44.1718375,28.6140670
13,Strada Căiuți,900546,44.2066556,28.6493644
13A,Strada Căiuți,900546,44.2066831,28.6494528
15,Strada Căiuți,900546,44.2066187,28.6492282
17,Strada Căiuți,900546,44.2066090,28.6491496
19,Strada Căiuți,900546,44.2065889,28.6490772
21,Strada Căiuți,900546,44.2065594,28.6489044
23,Strada Căiuți,900546,44.2065132,28.6487832
25,Strada Căiuți,900546,44.2064826,28.6485662
25A,Strada Căiuți,900546,44.2064978,28.6486504
27,Strada Căiuți,900546,44.2064465,28.6484411
29,Strada Căiuți,900546,44.2064110,28.6483201
31,Strada Căiuți,900546,44.2063806,28.6482014
33,Strada Căiuți,900546,44.2063369,28.6480533
35,Strada Căiuți,900546,44.2063137,28.6479274
39,Strada Căiuți,900546,44.2062337,28.6477646
41A,Strada Căiuți,900546,44.2062237,28.6475362
92,Strada Unirii,900544,44.2060897,28.6475547
94,Strada Unirii,900544,44.2062101,28.6474133
1,Aleea Cerbului,900364,44.1877461,28.6226104
11,Aleea Cerbului,900364,44.1873551,28.6223122
13,Aleea Cerbului,900364,44.1873094,28.6222905
3,Aleea Cerbului,900364,44.1876293,28.6225328
5,Aleea Cerbului,900364,44.1875534,28.6224823
7,Aleea Cerbului,900364,44.1874798,28.6224334
9,Aleea Cerbului,900364,44.1874328,28.6223800
26,Strada Dionisie cel Mic,900363,44.1869979,28.6213175
60,Strada Steagului,900365,44.1867342,28.6216164
105,Strada Mircea cel Bătrân,900592,44.1831127,28.6489939
82,Bulevardul Aurel Vlaicu,900055,44.1554600,28.6169308
48,Bulevardul Aurel Vlaicu,900055,44.1540228,28.6192830
10,Strada Vasile Lucaciu,900573,44.1938482,28.6490570
10A,Strada Vasile Lucaciu,900573,44.1938036,28.6489329
2A,Strada Vasile Lucaciu,900573,44.1940020,28.6494108
4,Strada Vasile Lucaciu,900573,44.1939713,28.6493420
4A,Strada Vasile Lucaciu,900573,44.1939417,28.6492745
6,Strada Vasile Lucaciu,900573,44.1939134,28.6492058
8,Strada Vasile Lucaciu,900573,44.1938897,28.6491634
85,Bulevardul Mamaia,900663,44.1869950,28.6491083
2,Bulevardul 1 Mai,900130,44.1667488,28.6339589
1,Strada Străjerului,900204,44.1891145,28.6324909
1A,Strada Străjerului,900204,44.1890184,28.6324381
1B,Strada Străjerului,900204,44.1889018,28.6324027
1C,Strada Străjerului,900204,44.1887420,28.6322272
3,Strada Străjerului,900204,44.1886421,28.6321594
10,Intrarea Răsuri,900205,44.1879631,28.6333517
12,Intrarea Răsuri,900205,44.1879372,28.6334237
14,Intrarea Răsuri,900205,44.1878514,28.6335510
1A,Strada Jupiter,900693,44.1757210,28.6438802
2,Intrarea Răsuri,900205,44.1881802,28.6329270
4,Intrarea Răsuri,900205,44.1880935,28.6330465
58,Strada Ștefan cel Mare,900692,44.1768603,28.6448549
6,Intrarea Răsuri,900205,44.1880458,28.6331487
60,Strada Ștefan cel Mare,900692,44.1768024,28.6447608
62,Strada Ștefan cel Mare,900692,44.1767373,28.6446549
8,Intrarea Răsuri,900205,44.1880092,28.6332378
1,Strada Profesor Nicolae Teodoreanu,900317,44.1672701,28.5768679
2 Bis,Strada Profesor Nicolae Teodoreanu,900317,44.1671363,28.5771422
3,Strada Profesor Nicolae Teodoreanu,900317,44.1674334,28.5768255
5,Strada Profesor Nicolae Teodoreanu,900317,44.1675699,28.5768200
7,Strada Profesor Nicolae Teodoreanu,900317,44.1676491,28.5768218
9,Strada Profesor Nicolae Teodoreanu,900317,44.1677686,28.5768110
91,Strada Mureșului,900317,44.1678973,28.5768068
92,Strada Moților,900317,44.1671134,28.5769052
93,Strada Mureșului,900317,44.1678751,28.5765095
94,Strada Moților,900317,44.1670846,28.5766588
94A,Strada Moților,900317,44.1670718,28.5767753
4,Strada Profesor Nicolae Teodoreanu,900317,44.1673854,28.5771141
6,Strada Profesor Nicolae Teodoreanu,900317,44.1675008,28.5770946
6A,Strada Profesor Nicolae Teodoreanu,900317,44.1675720,28.5770871
8,Strada Profesor Nicolae Teodoreanu,900317,44.1676653,28.5770941
8A,Strada Profesor Nicolae Teodoreanu,900317,44.1677736,28.5770843
2,Strada Profesor Nicolae Teodoreanu,900317,44.1672801,28.5771308
10,Strada Vifor Haiducul,900317,44.1675604,28.5869090
12,Strada Vifor Haiducul,900317,44.1675337,28.5867165
14,Strada Vifor Haiducul,900317,44.1674926,28.5864846
16,Strada Vifor Haiducul,900317,44.1674973,28.5860993
18,Strada Vifor Haiducul,900317,44.1674832,28.5859942
2,Strada Vifor Haiducul,900317,44.1677053,28.5880307
20,Strada Vifor Haiducul,900317,44.1674402,28.5856469
22,Strada Vifor Haiducul,900317,44.1673984,28.5855110
24,Strada Vifor Haiducul,900317,44.1673568,28.5852995
26,Strada Vifor Haiducul,900317,44.1673291,28.5850254
28,Strada Vifor Haiducul,900317,44.1672552,28.5848094
30,Strada Vifor Haiducul,900317,44.1672227,28.5845973
4,Strada Vifor Haiducul,900317,44.1676557,28.5875920
6,Strada Vifor Haiducul,900317,44.1676272,28.5873471
8,Strada Vifor Haiducul,900317,44.1675953,28.5871317
10,Strada Luptători,900178,44.1744905,28.6170608
12A,Strada Luptători,900255,44.1744056,28.6168435
14,Strada Luptători,900255,44.1743430,28.6166832
2,Strada Luptători,900255,44.1747615,28.6177477
4,Strada Luptători,900255,44.1746865,28.6175621
6,Strada Luptători,900255,44.1745942,28.6173259
8,Strada Luptători,900255,44.1745493,28.6172112
1,Strada Luptători,900255,44.1746068,28.6180507
11,Strada Luptători,900255,44.1742797,28.6172138
13,Strada Luptători,900255,44.1742151,28.6170484
15,Strada Luptători,900255,44.1741615,28.6169114
3,Strada Luptători,900255,44.1745312,28.6178572
5,Strada Luptători,900255,44.1744868,28.6177437
5A,Strada Luptători,900255,44.1744535,28.6176585
9,Strada Luptători,900255,44.1743442,28.6173787
11,Strada Dragoș Vodă,900658,44.1776594,28.6535656
13,Strada Rubinului,900504,44.2140934,28.6209418
11,Strada Zorelelor,900546,44.2061325,28.6498672
13,Strada Zorelelor,900546,44.2061084,28.6497751
15,Strada Zorelelor,900546,44.2060868,28.6496925
15Bis,Strada Zorelelor,900546,44.2060680,28.6496207
17,Strada Zorelelor,900546,44.2060336,28.6494894
19,Strada Zorelelor,900546,44.2060112,28.6494040
21,Strada Zorelelor,900546,44.2059936,28.6493369
21Bis,Strada Zorelelor,900546,44.2059715,28.6492522
23,Strada Zorelelor,900546,44.2059375,28.6491778
25,Strada Zorelelor,900546,44.2059233,28.6490684
25A,Strada Zorelelor,900546,44.2058768,28.6488908
27,Strada Zorelelor,900546,44.2058160,28.6486586
27A,Strada Zorelelor,900546,44.2057913,28.6485643
29,Strada Zorelelor,900546,44.2057610,28.6484489
31,Strada Zorelelor,900546,44.2057139,28.6482691
33,Strada Zorelelor,900546,44.2056838,28.6481541
35,Strada Zorelelor,900546,44.2056515,28.6480308
37,Strada Zorelelor,900546,44.2056156,28.6478936
37A,Strada Zorelelor,900546,44.2055817,28.6477643
5,Strada Zorelelor,900546,44.2062225,28.6502107
7,Strada Zorelelor,900546,44.2062049,28.6501436
9,Strada Zorelelor,900546,44.2061802,28.6500490
9A,Strada Zorelelor,900546,44.2061493,28.6499310
1,Strada Ștefan Mihăileanu,900693,44.1759706,28.6459098
52,Bulevardul Ferdinand,900693,44.1759043,28.6457502
54,Bulevardul Ferdinand,900693,44.1758033,28.6456962
80,Strada Chiliei,900565,44.1988445,28.6440420
82,Strada Chiliei,900565,44.1989421,28.6440051
84,Strada Chiliei,900565,44.1990657,28.6439585
101,Strada Chiliei,900565,44.1987272,28.6437206
13,Strada Războieni,900538,44.2006107,28.6525472
11,Strada Războieni,900538,44.2006604,28.6527276
15,Strada Războieni,900538,44.2005776,28.6523970
106,Strada Petru Vulcan,900628,44.1920414,28.6405390
2,Strada Radu Calomfirescu,900627,44.1916481,28.6416288
3,Strada Radu Calomfirescu,900627,44.1916388,28.6413894
4,Strada Radu Calomfirescu,900627,44.1917158,28.6414875
5,Strada Radu Calomfirescu,900627,44.1917978,28.6412456
6,Strada Radu Calomfirescu,900627,44.1918293,28.6414134
7,Strada Radu Calomfirescu,900627,44.1918834,28.6411704
8,Strada Radu Calomfirescu,900627,44.1918966,28.6413657
9,Strada Radu Calomfirescu,900627,44.1919510,28.6411236
99,Strada Petru Vulcan,900628,44.1920601,28.6410402
1A,Strada Ciocîrliei,900608,44.1948138,28.6332650
25,Strada Primăverii,900635,44.1953858,28.6378949
1,Strada Farului,900635,44.1954741,28.6377049
2,Strada Docherilor,900628,44.1951619,28.6379528
3,Strada Farului,900635,44.1953526,28.6375600
4,Strada Docherilor,900628,44.1952324,28.6378138
72,Strada Izvor,900365,44.1883599,28.6224250
74,Strada Izvor,900365,44.1883700,28.6222744
76,Strada Izvor,900365,44.1885140,28.6219710
21,Strada Salcâmilor,900607,44.1919086,28.6339067
1,Strada Abrud,900308,44.1699748,28.5900638
10,Strada Abrud,900308,44.1707263,28.5904629
12,Strada Abrud,900308,44.1709339,28.5905299
14,Strada Abrud,900308,44.1710786,28.5905541
16,Strada Abrud,900308,44.1712032,28.5905937
18,Strada Abrud,900308,44.1713865,28.5906437
2,Strada Abrud,900308,44.1697914,28.5902369
20,Strada Abrud,900308,44.1715770,28.5906954
22,Strada Abrud,900308,44.1717434,28.5907279
24,Strada Abrud,900308,44.1718552,28.5907718
26,Strada Abrud,900308,44.1720772,28.5908178
28,Strada Abrud,900308,44.1722388,28.5908627
30,Strada Abrud,900308,44.1724291,28.5909198
32,Strada Abrud,900308,44.1726132,28.5909717
34,Strada Abrud,900308,44.1727598,28.5910054
36,Strada Abrud,900308,44.1729254,28.5910516
38,Strada Abrud,900308,44.1730736,28.5911003
39,Strada Abrud,900308,44.1733064,28.5910364
4,Strada Abrud,900308,44.1701528,28.5903190
40,Strada Abrud,900308,44.1732534,28.5912117
42,Strada Abrud,900308,44.1733921,28.5912354
6,Strada Abrud,900308,44.1702586,28.5903388
8,Strada Abrud,900308,44.1705466,28.5904191
11,Strada Cristea Georgescu,900733,44.1724395,28.6628020
13,Strada Cristea Georgescu,900733,44.1723816,28.6629480
7,Strada Cristea Georgescu,900733,44.1723734,28.6623798
1,Strada A.S. Pușkin,900664,44.1839373,28.6524320
11,Strada A.S. Pușkin,900664,44.1844985,28.6517492
13,Strada A.S. Pușkin,900664,44.1845982,28.6516280
15,Strada A.S. Pușkin,900664,44.1847319,28.6514634
22,Strada Mihai Eminescu,900664,44.1853004,28.6528204
3,Strada A.S. Pușkin,900664,44.1840463,28.6522994
5,Strada A.S. Pușkin,900664,44.1841574,28.6521643
7,Strada A.S. Pușkin,900664,44.1842877,28.6520057
9,Strada A.S. Pușkin,900664,44.1843887,28.6518829
1,Strada Crinului,900348,44.1904982,28.6281970
2,Strada Crinului,900348,44.1904695,28.6279246
24,Strada Portiței,900350,44.1900243,28.6279206
40,Strada Trandafirului,900350,44.1887686,28.6268039
6,Strada Crinului,900348,44.1901191,28.6277003
7,Strada Crinului,900348,44.1898749,28.6277684
8,Strada Crinului,900348,44.1899352,28.6275761
46,Strada Răzoare,900340,44.1868444,28.6286738
130,Strada Ion Lahovari,900598,44.1861451,28.6388272
26,Strada Nicolae Iorga,900587,44.1862041,28.6390227
1,Strada Pictor Nicolae Grigorescu,900636,44.1999825,28.6364128
1C,Strada Tabla Buții,900545,44.2052938,28.6513288
14,Strada Pescăruș,900534,44.2002923,28.6527747
15,Strada Ciprian Porumbescu,900539,44.2016445,28.6519043
21,Strada Pescăruș,900534,44.2000708,28.6529818
8,Strada Grozești,900561,44.2047505,28.6506882
1,Strada Laic Vodă,900628,44.1921132,28.6427861
2,Strada Pictor Ion Andreescu,900630,44.1918780,28.6423162
2,Strada Laic Vodă,900628,44.1921407,28.6430047
1,Strada Belșugului,900206,44.1823393,28.6314049
104,Strada Poporului,900205,44.1825009,28.6316440
106,Strada Poporului,900205,44.1823000,28.6315163
2,Strada Belșugului,900206,44.1825723,28.6314035
4,Strada Sabinelor,900685,44.1810289,28.6428214
6,Strada Sabinelor,900685,44.1809997,28.6427558
8,Strada Sabinelor,900685,44.1809051,28.6426812
114,Șoseaua Mangaliei,900008,44.1415624,28.6221275
56,Strada Theodor Speranția,900016,44.1408018,28.6215193
69,Strada Theodor Speranția,900007,44.1407008,28.6213466
59,Strada Cuza Vodă,900692,44.1759791,28.6451527
70,Strada Cuza Vodă,900692,44.1760357,28.6448689
2,Strada Crișului,900329,44.1733825,28.5930575
201,Bulevardul Mamaia,900565,44.2004937,28.6462885
220,Bulevardul Aurel Vlaicu,900380,44.1995246,28.6095375
138,Bulevardul Tomis,900591,44.1857750,28.6451538
6,Strada Aurora,900119,44.1586601,28.6312716
82,Bulevardul Alexandru Lăpușneanu,900605,44.1889069,28.6343445
104,Strada Soveja,900354,44.1913061,28.6240535
60,Bulevardul Aurel Vlaicu,900055,44.1545309,28.6184304
56,Bulevardul Tomis,900725,44.1778116,28.6526495
57,Strada Cuza Vodă,900692,44.1760988,28.6453549
17,Strada Verde,900328,44.1737272,28.5977982
16,Strada George Enescu,900692,44.1772642,28.6463382
8,Strada George Enescu,900659,44.1768752,28.6468111
3,Strada George Enescu,900692,44.1766044,28.6467204
7,Strada George Enescu,900692,44.1769358,28.6463275
12,Bulevardul 1 Decembrie 1918,900183,44.1795631,28.6364513
204,Bulevardul Mamaia,900540,44.2016410,28.6462306
25,Strada Eroilor,900665,44.1865419,28.6497966
5,Strada Mihai Viteazu,900682,44.1770882,28.6476147
FN10,Bulevardul Aurel Vlaicu,900055,44.1928729,28.6034676
270,Bulevardul Mamaia,900552,44.2079227,28.6437682
62,Șoseaua Mangaliei,900131,44.1624250,28.6298622
66,Șoseaua Mangaliei,900131,44.1621565,28.6297647
42,Strada Viceamiral Ion Murgescu,900567,44.2013375,28.6452936
10,Strada Radu Calomfirescu,900627,44.1919975,28.6412807
85,Strada Nicolae Iorga,900587,44.1865723,28.6414114
93,Șoseaua Mangaliei,900111,44.1548091,28.6286984
93,Șoseaua Mangaliei,900111,44.1548279,28.6288760
32,Bulevardul Aurel Vlaicu,900055,44.1533345,28.6204651
34,Bulevardul Aurel Vlaicu,900055,44.1534436,28.6203440
4,Strada Renașterii,900527,44.1907251,28.6515009
105 Bis,Strada Nicolae Iorga,900198,44.1849597,28.6364164
157,Șoseaua Mangaliei,900111,44.1513586,28.6275726
145,Șoseaua Mangaliei,900111,44.1521752,28.6279385
84,Șoseaua Mangaliei,900008,44.1479916,28.6249835
6,Strada Petru Rareș,900745,44.1743101,28.6567020
9,Strada Mihail Jora,900378,44.1869252,28.6118651
9,Strada Mihail Jora,900378,44.1869652,28.6118358
142,Strada Făgetului,900654,44.1951089,28.6392599
9,Strada Mihail Jora,900378,44.1869622,28.6117699
67,Strada Zorelelor,900553,44.2049861,28.6453546
22,Strada Sulmona,900746,44.1757407,28.6568445
3,Strada Krikor Zambaccian,900746,44.1769131,28.6583810
5,Strada Barbu Lăutaru,900649,44.1927363,28.6372600
5,Strada Primăverii,900635,44.1938725,28.6382049
7,Strada Barbu Lăutaru,900649,44.1927016,28.6372071
7,Strada Primăverii,900635,44.1939551,28.6381887
9,Strada Barbu Lăutaru,900649,44.1926669,28.6371495
9A,Strada Primăverii,900635,44.1941268,28.6382095
1,Strada Ion Alexandrescu,900390,44.1975154,28.6254525
14B,Strada Ion Alexandrescu,900390,44.1965519,28.6258243
14,Strada Ion Alexandrescu,900390,44.1966184,28.6257451
4,Strada Ion Alexandrescu,900390,44.1974226,28.6252056
9,Strada Ion Alexandrescu,900390,44.1966176,28.6261974
2,Intrarea Ștefăniță Vodă,900383,44.1966550,28.6250724
84,Bulevardul Alexandru Lăpușneanu,900605,44.1895209,28.6342501
24,Strada Zorelelor,900546,44.2060799,28.6487918
80,Strada Ștefan cel Mare,900698,44.1753066,28.6423908
118,Bulevardul Ferdinand,900271,44.1698328,28.6326384
1,Prelungirea 8 Martie,900278,44.1799982,28.6223123
1,Strada Înfrățirii,900278,44.1803399,28.6223859
12,Strada Dumitru Marinescu,900277,44.1799088,28.6222964
18,Strada Dumitru Marinescu,900277,44.1792667,28.6220278
2,Prelungirea 8 Martie,900278,44.1801289,28.6223347
2,Strada Ion Roată,900280,44.1798033,28.6222580
2,Strada Nucilor,900277,44.1792828,28.6218679
20,Strada Dumitru Marinescu,900277,44.1790879,28.6219798
6,Strada Nucilor,900277,44.1793126,28.6216409
137,Șoseaua Mangaliei,900111,44.1526771,28.6282064
10,Strada Marcus Aurelius,900744,44.1759612,28.6579384
14A,Strada Marcus Aurelius,900744,44.1763050,28.6579218
21,Strada Marcus Aurelius,900744,44.1761693,28.6576896
25,Strada Marcus Aurelius,900744,44.1766333,28.6576586
8,Strada Marcus Aurelius,900744,44.1756628,28.6580735
68,Strada Poporului,900205,44.1855385,28.6336752
4,Strada Dimitrie Cantemir,900743,44.1754583,28.6577079
8,Bulevardul Tomis,900742,44.1751641,28.6570774
212,Bulevardul Mamaia,900540,44.2020087,28.6460358
1,Strada Artileriei,900600,44.1876433,28.6363643
124,Strada Mihai Viteazu,900600,44.1869481,28.6363511
124bis,Strada Mihai Viteazu,900600,44.1870116,28.6363099
132,Strada Mihai Viteazu,900600,44.1875786,28.6357345
134,Strada Mihai Viteazu,900600,44.1876720,28.6356376
136,Strada Mihai Viteazu,900600,44.1877656,28.6355088
137,Strada Ion Lahovari,900598,44.1874107,28.6369921
139-141,Strada Ion Lahovari,900598,44.1875881,28.6367983
143,Strada Ion Lahovari,900598,44.1877384,28.6366414
143A,Strada Ion Lahovari,900598,44.1877874,28.6365594
2,Strada Artileriei,900600,44.1878770,28.6362940
3,Strada Artileriei,900600,44.1875551,28.6362218
4,Strada Artileriei,900600,44.1878141,28.6361803
5,Strada Artileriei,900600,44.1874991,28.6361223
6,Strada Artileriei,900600,44.1877749,28.6361055
7,Strada Artileriei,900600,44.1874306,28.6360032
7A,Strada Artileriei,900600,44.1873746,28.6358900
8,Strada Artileriei,900199,44.1877145,28.6359841
126,Strada Mihai Viteazu,900600,44.1871314,28.6361697
10,Strada Gheorghe Economu,900554,44.2088946,28.6455052
11,Strada Gheorghe Economu,900554,44.2087252,28.6454152
12,Strada Gheorghe Economu,900554,44.2088852,28.6454020
13,Strada Gheorghe Economu,900554,44.2087037,28.6452970
14,Strada Gheorghe Economu,900554,44.2088744,28.6452726
15,Strada Gheorghe Economu,900554,44.2086943,28.6451826
16,Strada Gheorghe Economu,900554,44.2088610,28.6451038
17,Strada Gheorghe Economu,900554,44.2086714,28.6450025
18,Strada Gheorghe Economu,900554,44.2088516,28.6449463
19,Strada Gheorghe Economu,900554,44.2086862,28.6449031
20,Strada Gheorghe Economu,900554,44.2088408,28.6448093
21,Strada Gheorghe Economu,900554,44.2086469,28.6446853
22,Strada Gheorghe Economu,900554,44.2088287,28.6446518
22A,Strada Gheorghe Economu,900554,44.2088206,28.6445149
23,Strada Gheorghe Economu,900554,44.2086284,28.6444342
24,Strada Gheorghe Economu,900554,44.2088085,28.6443536
24A,Strada Gheorghe Economu,900554,44.2088005,28.6442785
26,Strada Gheorghe Economu,900554,44.2087951,28.6441641
28,Strada Gheorghe Economu,900554,44.2087722,28.6439953
28Bis,Strada Gheorghe Economu,900554,44.2087655,28.6438941
3,Strada Gheorghe Economu,900554,44.2087383,28.6460144
4,Strada Gheorghe Economu,900554,44.2089778,28.6461374
5,Strada Gheorghe Economu,900554,44.2087655,28.6458503
6,Strada Gheorghe Economu,900554,44.2089040,28.6457771
7,Strada Gheorghe Economu,900554,44.2087561,28.6457434
8,Strada Gheorghe Economu,900554,44.2089040,28.6456646
9,Strada Gheorghe Economu,900554,44.2087386,28.6455296
1,Strada Theodor Aman,900554,44.2076708,28.6448852
14,Strada Theodor Aman,900554,44.2080919,28.6451641
14A,Strada Theodor Aman,900554,44.2080347,28.6450518
16,Strada Theodor Aman,900554,44.2079951,28.6449707
18,Strada Theodor Aman,900554,44.2078330,28.6447053
1A,Strada Theodor Aman,900554,44.2076172,28.6447720
1Bis,Strada Theodor Aman,900554,44.2075693,28.6446518
20,Strada Theodor Aman,900554,44.2077698,28.6446284
22,Strada Theodor Aman,900554,44.2077149,28.6445257
24,Strada Theodor Aman,900554,44.2076366,28.6443998
3,Strada Theodor Aman,900554,44.2074692,28.6445472
5,Strada Theodor Aman,900554,44.2074283,28.6444635
7,Strada Theodor Aman,900554,44.2073775,28.6443721
10,Strada Ecaterina Teodoroiu,900554,44.2069224,28.6456982
12A,Strada Ecaterina Teodoroiu,900554,44.2068151,28.6455556
14,Strada Ecaterina Teodoroiu,900554,44.2066753,28.6453140
16,Strada Ecaterina Teodoroiu,900554,44.2066125,28.6451377
20,Strada Ecaterina Teodoroiu,900554,44.2064031,28.6448515
22,Strada Ecaterina Teodoroiu,900554,44.2063411,28.6447541
24,Strada Ecaterina Teodoroiu,900554,44.2063031,28.6446950
25,Strada Ecaterina Teodoroiu,900554,44.2071490,28.6465683
26,Strada Ecaterina Teodoroiu,900554,44.2062394,28.6446146
27A,Strada Ecaterina Teodoroiu,900554,44.2070174,28.6463679
29,Strada Ecaterina Teodoroiu,900554,44.2069202,28.6462615
31,Strada Ecaterina Teodoroiu,900554,44.2068322,28.6460950
33,Strada Ecaterina Teodoroiu,900554,44.2067577,28.6459185
35,Strada Ecaterina Teodoroiu,900554,44.2066468,28.6457821
37,Strada Ecaterina Teodoroiu,900554,44.2065688,28.6456626
39,Strada Ecaterina Teodoroiu,900554,44.2064623,28.6454921
41,Strada Ecaterina Teodoroiu,900554,44.2063725,28.6453390
43,Strada Ecaterina Teodoroiu,900554,44.2062455,28.6451578
45,Strada Ecaterina Teodoroiu,900554,44.2061919,28.6450669
47,Strada Ecaterina Teodoroiu,900554,44.2061082,28.6449529
49,Strada Ecaterina Teodoroiu,900554,44.2060131,28.6447808
8,Strada Ecaterina Teodoroiu,900554,44.2070137,28.6458208
102,Strada Unirii,900544,44.2073052,28.6468189
6,Strada Zorelelor,900546,44.2064998,28.6503438
108A,Strada Poporului,900205,44.1822353,28.6311944
2,Aleea Cerbului,900364,44.1879449,28.6224124
4,Aleea Cerbului,900364,44.1877776,28.6223225
53A,Strada Izvor,900365,44.1880727,28.6224959
64,Strada Steagului,900365,44.1868985,28.6209696
5,Strada Traian,900743,44.1745447,28.6571515
72,Strada Mureșului,900317,44.1681894,28.5783495
74,Strada Mureșului,900317,44.1681759,28.5781751
75,Strada Mureșului,900317,44.1680201,28.5783830
76,Strada Mureșului,900317,44.1681644,28.5780115
76A,Strada Moților,900317,44.1673140,28.5785386
77,Strada Mureșului,900317,44.1680086,28.5781926
78,Strada Moților,900317,44.1672794,28.5782623
78,Strada Mureșului,900317,44.1681490,28.5778399
78A,Strada Moților,900317,44.1672948,28.5783669
79,Strada Mureșului,900317,44.1679970,28.5780451
80,Strada Moților,900317,44.1672813,28.5781416
80,Strada Mureșului,900317,44.1681355,28.5776494
81,Strada Mureșului,900317,44.1679874,28.5778868
82-82A,Strada Moților,900317,44.1672601,28.5780075
82,Strada Mureșului,900317,44.1681355,28.5774858
83,Strada Mureșului,900317,44.1679759,28.5777017
84,Strada Moților,900317,44.1672505,28.5778546
84,Strada Mureșului,900317,44.1681221,28.5773222
85,Strada Mureșului,900317,44.1679605,28.5775489
86,Strada Moților,900317,44.1672332,28.5776964
86,Strada Mureșului,900317,44.1681278,28.5772096
86A,Strada Mureșului,900317,44.1681278,28.5771318
87,Strada Mureșului,900317,44.1679566,28.5774550
88,Strada Moților,900317,44.1672082,28.5775489
88,Strada Mureșului,900317,44.1681144,28.5770137
89,Strada Mureșului,900317,44.1679431,28.5772779
8B,Strada Profesor Nicolae Teodoreanu,900317,44.1678883,28.5770339
90,Strada Moților,900317,44.1671983,28.5773795
90,Strada Mureșului,900317,44.1680990,28.5768582
92,Strada Mureșului,900317,44.1680951,28.5767214
94,Strada Mureșului,900317,44.1680797,28.5765363
94A,Strada Mureșului,900317,44.1682125,28.5765256
11,Strada Gavril Muzicescu,900109,44.1490528,28.6301412
11,Strada Victor Babeș,900109,44.1482488,28.6304657
11A,Strada Victor Babeș,900109,44.1481430,28.6303585
13,Strada Gavril Muzicescu,900109,44.1489228,28.6300841
13,Strada Victor Babeș,900104,44.1478864,28.6302585
13A,Strada Gavril Muzicescu,900109,44.1487086,28.6299962
15,Strada Gavril Muzicescu,900109,44.1485341,28.6299116
16,Strada Gavril Muzicescu,900109,44.1493703,28.6298856
17,Strada Gavril Muzicescu,900109,44.1484120,28.6298514
18,Strada Gavril Muzicescu,900109,44.1492933,28.6298401
19,Strada Gavril Muzicescu,900109,44.1482772,28.6297644
20,Strada Gavril Muzicescu,900109,44.1491662,28.6297918
22,Strada Gavril Muzicescu,900109,44.1490219,28.6297060
24,Strada Gavril Muzicescu,900109,44.1489040,28.6296654
26,Strada Gavril Muzicescu,900109,44.1487621,28.6295853
28,Strada Gavril Muzicescu,900109,44.1486620,28.6295450
30,Strada Gavril Muzicescu,900109,44.1485292,28.6294135
30A,Strada Gavril Muzicescu,900109,44.1483849,28.6293788
5,Strada Iederii,900109,44.1495050,28.6299769
5,Strada Victor Babeș,900109,44.1487685,28.6306695
7,Strada Gavril Muzicescu,900109,44.1494242,28.6303074
7,Strada Victor Babeș,900109,44.1485318,28.6305757
7A,Strada Gavril Muzicescu,900109,44.1493223,28.6302431
9,Strada Gavril Muzicescu,900109,44.1491740,28.6302163
9,Strada Victor Babeș,900109,44.1483970,28.6305382
35,Strada Tabla Buții,900545,44.2044216,28.6477759
37,Strada Tabla Buții,900545,44.2043812,28.6476177
39,Strada Tabla Buții,900545,44.2043562,28.6474996
39A,Strada Tabla Buții,900545,44.2043427,28.6474192
41,Strada Tabla Buții,900545,44.2043158,28.6473199
43,Strada Tabla Buții,900545,44.2042947,28.6472153
43A,Strada Tabla Buții,900545,44.2042735,28.6471402
45,Strada Tabla Buții,900545,44.2042370,28.6469847
45A,Strada Tabla Buții,900545,44.2042524,28.6470785
49,Strada Tabla Buții,900545,44.2042120,28.6468774
51,Strada Tabla Buții,900545,44.2041639,28.6466735
51A,Strada Tabla Buții,900545,44.2041851,28.6467486
53,Strada Tabla Buții,900545,44.2041428,28.6465823
55,Strada Tabla Buții,900545,44.2041082,28.6464563
57,Strada Tabla Buții,900545,44.2040697,28.6463168
59,Strada Tabla Buții,900545,44.2040313,28.6461961
61,Strada Tabla Buții,900545,44.2039928,28.6460539
63,Strada Tabla Buții,900545,44.2039678,28.6459574
63A,Strada Tabla Buții,900545,44.2039447,28.6458849
65,Strada Tabla Buții,900545,44.2039197,28.6457696
67,Strada Tabla Buții,900545,44.2038832,28.6456167
67A,Strada Tabla Buții,900545,44.2038582,28.6455228
67Bis,Strada Tabla Buții,900545,44.2038371,28.6454585
11,Strada Grozești,900561,44.2037034,28.6473106
13,Strada Grozești,900561,44.2036601,28.6471782
15,Strada Grozești,900561,44.2036353,28.6470487
17,Strada Grozești,900561,44.2035879,28.6468588
19,Strada Grozești,900561,44.2035713,28.6467609
19A,Strada Grozești,900561,44.2035487,28.6466890
1A,Strada Grozești,900561,44.2038973,28.6481739
1B,Strada Grozești,900561,44.2038746,28.6480387
21,Strada Grozești,900561,44.2035301,28.6465767
23A,Strada Grozești,900561,44.2034868,28.6464040
25,Strada Grozești,900561,44.2034496,28.6462803
27A,Strada Grozești,900561,44.2034290,28.6462199
27Bis,Strada Grozești,900561,44.2034207,28.6461422
29,Strada Grozești,900561,44.2033960,28.6460645
3,Strada Grozești,900561,44.2038416,28.6479149
31A,Strada Grozești,900561,44.2033589,28.6459263
31Bis,Strada Grozești,900561,44.2033444,28.6458544
33,Strada Grozești,900561,44.2033279,28.6457565
38,Strada Grozești,900561,44.2040685,28.6482085
38A,Strada Grozești,900561,44.2039798,28.6479005
38Bis,Strada Grozești,900561,44.2040397,28.6481020
40,Strada Grozești,900561,44.2039406,28.6477336
40A,Strada Grozești,900561,44.2039221,28.6476444
42,Strada Grozești,900561,44.2038911,28.6475437
44,Strada Grozești,900561,44.2038560,28.6474113
46,Strada Grozești,900561,44.2038169,28.6472530
48,Strada Grozești,900561,44.2037818,28.6471149
5,Strada Grozești,900561,44.2038107,28.6477538
50,Strada Grozești,900561,44.2037467,28.6469624
52,Strada Grozești,900561,44.2037178,28.6468616
54,Strada Grozești,900561,44.2036704,28.6466832
56,Strada Grozești,900561,44.2036497,28.6465595
58,Strada Grozești,900561,44.2036147,28.6463580
60,Strada Grozești,900561,44.2035858,28.6462774
62,Strada Grozești,900561,44.2035425,28.6460875
64,Strada Grozești,900561,44.2035260,28.6460011
64A,Strada Grozești,900561,44.2035074,28.6459321
66,Strada Grozești,900561,44.2034888,28.6458227
68,Strada Grozești,900561,44.2034682,28.6456788
7,Strada Grozești,900561,44.2037715,28.6476128
9,Strada Grozești,900561,44.2037385,28.6474689
10,Strada Onești,900560,44.2032969,28.6477131
12,Strada Onești,900560,44.2032681,28.6476085
12A,Strada Onești,900560,44.2032450,28.6475280
14,Strada Onești,900560,44.2032238,28.6474395
16,Strada Onești,900560,44.2031854,28.6472974
16A,Strada Onești,900560,44.2031527,28.6471901
18,Strada Onești,900560,44.2031392,28.6470962
20,Strada Onești,900560,44.2031142,28.6469996
22,Strada Onești,900560,44.2030912,28.6468682
22B,Strada Onești,900560,44.2030681,28.6467904
24,Strada Onești,900560,44.2030546,28.6467153
24Bis,Strada Onești,900560,44.2030335,28.6466375
26,Strada Onești,900560,44.2030162,28.6465571
26A,Strada Onești,900560,44.2029989,28.6464525
28,Strada Onești,900560,44.2029796,28.6463988
2,Strada Onești,900560,44.2035088,28.6483042
30,Strada Onești,900560,44.2029643,28.6463130
30Bis,Strada Onești,900560,44.2029508,28.6462620
32,Strada Onești,900560,44.2029258,28.6461521
34,Strada Onești,900560,44.2029202,28.6460763
34A,Strada Onești,900560,44.2028836,28.6459905
4,Strada Onești,900560,44.2034777,28.6481703
6,Strada Onești,900560,44.2033700,28.6480001
8,Strada Onești,900560,44.2033354,28.6478606
51,Strada Mureșului,900317,44.1681724,28.5806376
53,Strada Mureșului,900317,44.1681685,28.5804820
54,Strada Mureșului,900317,44.1682859,28.5802379
55,Strada Mureșului,900317,44.1681666,28.5803077
56,Strada Mureșului,900317,44.1682705,28.5799778
57,Strada Mureșului,900317,44.1681532,28.5801119
58,Strada Mureșului,900317,44.1682647,28.5798061
58Bis,Strada Mureșului,900317,44.1682532,28.5796049
59,Strada Mureșului,900317,44.1681320,28.5799483
59Bis,Strada Mureșului,900317,44.1681243,28.5798410
60,Strada Mureșului,900317,44.1682436,28.5794842
61,Strada Mureșului,900317,44.1681204,28.5797042
62,Strada Mureșului,900317,44.1682282,28.5793099
63,Strada Mureșului,900317,44.1681070,28.5795084
64,Strada Mureșului,900317,44.1682166,28.5791356
65,Strada Mureșului,900317,44.1680897,28.5793287
66,Strada Mureșului,900317,44.1682089,28.5789639
67,Strada Mureșului,900317,44.1680781,28.5791463
68,Strada Mureșului,900317,44.1681974,28.5788003
69,Strada Mureșului,900317,44.1680647,28.5789854
70,Strada Mureșului,900317,44.1681897,28.5786420
71,Strada Mureșului,900317,44.1680550,28.5788271
73,Strada Mureșului,900317,44.1680416,28.5786635
31,Strada Moților,900317,44.1678988,28.5841623
32,Strada Munții Tatra,900317,44.1676356,28.5841566
33,Strada Moților,900317,44.1678626,28.5839050
34,Strada Munții Tatra,900317,44.1676087,28.5839421
35,Strada Moților,900317,44.1678366,28.5837201
36,Strada Munții Tatra,900317,44.1675740,28.5837570
37,Strada Moților,900317,44.1678055,28.5834995
38,Strada Munții Tatra,900317,44.1675433,28.5835263
39,Strada Moților,900317,44.1677760,28.5832895
40,Strada Munții Tatra,900317,44.1675106,28.5833198
41,Strada Moților,900317,44.1677406,28.5830381
42,Strada Munții Tatra,900317,44.1674798,28.5830945
43,Strada Moților,900317,44.1677145,28.5828531
44,Strada Munții Tatra,900317,44.1674644,28.5828960
45,Strada Moților,900317,44.1676812,28.5826163
46,Strada Munții Tatra,900317,44.1674259,28.5826788
221,Bulevardul Mamaia,900559,44.2021312,28.6455240
226,Bulevardul Mamaia,900559,44.2030705,28.6455026
228,Bulevardul Mamaia,900559,44.2031926,28.6454489
230,Bulevardul Mamaia,900546,44.2033753,28.6453336
233,Bulevardul Mamaia,900559,44.2031042,28.6450492
234,Bulevardul Mamaia,900546,44.2036041,28.6452370
239,Bulevardul Mamaia,900559,44.2038137,28.6446603
240,Bulevardul Mamaia,900546,44.2040874,28.6452033
241,Bulevardul Mamaia,900559,44.2039309,28.6445316
242,Bulevardul Mamaia,900546,44.2042119,28.6451647
244,Bulevardul Mamaia,900546,44.2042978,28.6450858
1,Strada Theodor Burada,900271,44.1703795,28.6324878
87,Strada Tabla Buții,900561,44.2033046,28.6433584
12,Bulevardul Tomis,900742,44.1752580,28.6568524
6,Bulevardul Tomis,900742,44.1751043,28.6571977
3,Strada Mircea cel Bătrân,900744,44.1750954,28.6574411
5,Strada Mircea cel Bătrân,900744,44.1751905,28.6573393
7,Strada Mircea cel Bătrân,900744,44.1752886,28.6572616
10,Strada Tabla Buții,900545,44.2052644,28.6502731
2A,Strada Tabla Buții,900545,44.2054710,28.6510742
2,Strada Tabla Buții,900545,44.2054175,28.6508669
8,Strada Tabla Buții,900545,44.2053143,28.6504668
8A,Strada Tabla Buții,900545,44.2053002,28.6504119
45,Strada Fulgerului,900371,44.1809798,28.6258529
47,Strada Fulgerului,900371,44.1810214,28.6256154
49,Strada Fulgerului,900371,44.1810543,28.6254280
51,Strada Fulgerului,900371,44.1810988,28.6251745
53,Strada Fulgerului,900371,44.1811205,28.6250504
55,Strada Fulgerului,900371,44.1811487,28.6248897
57,Strada Fulgerului,900371,44.1811659,28.6247918
59,Strada Fulgerului,900371,44.1811959,28.6246207
61,Strada Fulgerului,900371,44.1812341,28.6244026
63,Strada Fulgerului,900371,44.1813276,28.6240360
65,Strada Fulgerului,900371,44.1813752,28.6237651
67,Strada Fulgerului,900371,44.1814548,28.6233006
69,Strada Fulgerului,900371,44.1815918,28.6224612
71,Strada Fulgerului,900371,44.1816423,28.6222649
73,Strada Fulgerului,900371,44.1816742,28.6220538
75,Strada Fulgerului,900371,44.1817140,28.6218797
77,Strada Fulgerului,900371,44.1817459,28.6216612
79,Strada Fulgerului,900371,44.1817937,28.6214649
81,Strada Fulgerului,900371,44.1817855,28.6212940
83,Strada Fulgerului,900371,44.1818237,28.6211503
85,Strada Fulgerului,900371,44.1818457,28.6206888
87,Strada Fulgerului,900371,44.1819094,28.6203793
89BIS,Strada Fulgerului,900371,44.1820086,28.6199368
91,Strada Fulgerului,900371,44.1820777,28.6198589
93,Strada Fulgerului,900371,44.1821105,28.6195836
95,Strada Fulgerului,900371,44.1821579,28.6194584
10,Strada Anghel Saligny,900705,44.1744278,28.6402872
11,Strada Olteniei,900702,44.1768322,28.6399641
12,Strada Anghel Saligny,900705,44.1743702,28.6400960
13,Strada Olteniei,900702,44.1769746,28.6397951
14,Strada Anghel Saligny,900705,44.1742653,28.6399668
15,Strada Olteniei,900702,44.1770515,28.6397066
16,Strada Anghel Saligny,900705,44.1742178,28.6399090
17,Strada Olteniei,900702,44.1771362,28.6395966
18,Strada Anghel Saligny,900705,44.1741025,28.6396389
18A,Strada Anghel Saligny,900705,44.1741573,28.6397271
19,Strada Olteniei,900702,44.1772189,28.6394893
20,Strada Anghel Saligny,900705,44.1739877,28.6394662
21,Strada Olteniei,900702,44.1772997,28.6393928
22,Strada Anghel Saligny,900705,44.1739440,28.6394223
22,Strada Atelierelor,900703,44.1763775,28.6395069
23,Strada Olteniei,900702,44.1773766,28.6392962
24,Strada Anghel Saligny,900705,44.1738544,28.6392149
24,Strada Atelierelor,900703,44.1765588,28.6394871
25,Strada Olteniei,900702,44.1774574,28.6391970
26,Strada Anghel Saligny,900705,44.1737399,28.6391192
26,Strada Atelierelor,900703,44.1765729,28.6393535
27,Strada Olteniei,900702,44.1775575,28.6390763
28,Strada Anghel Saligny,900705,44.1736706,28.6390253
28,Strada Atelierelor,900703,44.1766659,28.6392392
10,Strada Avram Iancu,900705,44.1735957,28.6389209
29,Strada Olteniei,900702,44.1776190,28.6390146
30,Strada Atelierelor,900703,44.1767328,28.6391072
31,Strada Olteniei,900702,44.1777921,28.6387866
32,Strada Atelierelor,900703,44.1768156,28.6389922
34,Strada Atelierelor,900703,44.1769232,28.6389273
4,Strada Anghel Saligny,900705,44.1746479,28.6406346
40,Strada Atelierelor,900703,44.1771788,28.6386161
6,Strada Anghel Saligny,900705,44.1745671,28.6405112
8,Strada Anghel Saligny,900705,44.1744978,28.6403879
10,Strada Dobrogei,900532,44.1969312,28.6508551
11,Strada Dobrogei,900532,44.1968428,28.6509490
12,Strada Dobrogei,900532,44.1968928,28.6506754
13,Strada Dobrogei,900532,44.1967928,28.6507451
14,Strada Dobrogei,900532,44.1968620,28.6505466
15,Strada Dobrogei,900532,44.1967505,28.6505681
16,Strada Dobrogei,900532,44.1968293,28.6503777
17,Strada Dobrogei,900532,44.1967024,28.6503750
18,Strada Dobrogei,900532,44.1967716,28.6501738
19,Strada Dobrogei,900532,44.1966659,28.6502167
2,Strada Dobrogei,900532,44.1971639,28.6517751
20,Strada Dobrogei,900532,44.1967485,28.6500612
21,Strada Dobrogei,900532,44.1965839,28.6500583
22,Strada Dobrogei,900532,44.1967082,28.6499110
24,Strada Dobrogei,900532,44.1967456,28.6496991
26A,Strada Dobrogei,900532,44.1966777,28.6494327
28,Strada Dobrogei,900532,44.1966479,28.6493293
3,Strada Dobrogei,900532,44.1970120,28.6516517
30,Strada Dobrogei,900532,44.1965865,28.6491525
32,Strada Dobrogei,900532,44.1965814,28.6490062
4,Strada Dobrogei,900532,44.1970601,28.6513567
5,Strada Dobrogei,900532,44.1969678,28.6514345
6,Strada Dobrogei,900532,44.1970197,28.6511877
7,Strada Dobrogei,900532,44.1969216,28.6512521
8,Strada Dobrogei,900532,44.1969793,28.6510375
9,Strada Dobrogei,900532,44.1968735,28.6510750
90A,Strada Dezrobirii,900234,44.1794073,28.6164105
1,Strada Trandafirului,900205,44.1860988,28.6339056
3,Strada Trandafirului,900205,44.1861185,28.6338409
3A,Strada Trandafirului,900205,44.1861556,28.6337259
7,Strada Trandafirului,900205,44.1861778,28.6334024
87,Strada Poporului,900205,44.1858271,28.6341387
89,Strada Poporului,900205,44.1857520,28.6340863
91,Strada Poporului,900205,44.1856351,28.6340135
93,Strada Poporului,900205,44.1855287,28.6339262
95,Strada Poporului,900205,44.1854431,28.6338651
109,Strada Poporului,900205,44.1845687,28.6333151
121,Strada Poporului,900205,44.1838674,28.6328581
97,Strada Poporului,900205,44.1853346,28.6338069
1,Strada Topraisar,900589,44.1856816,28.6387949
100,Strada Mihai Viteazu,900588,44.1855387,28.6380563
2A,Strada Topraisar,900589,44.1856424,28.6382318
3,Strada Topraisar,900589,44.1855714,28.6386032
5,Strada Topraisar,900589,44.1855006,28.6384590
91,Strada Nicolae Iorga,900587,44.1859316,28.6387797
93,Strada Nicolae Iorga,900587,44.1858441,28.6385391
10,Strada Castanilor,900190,44.1831068,28.6401520
12,Strada Castanilor,900190,44.1830200,28.6400497
14,Strada Castanilor,900190,44.1829481,28.6398930
16,Strada Castanilor,900190,44.1828837,28.6397635
18,Strada Castanilor,900190,44.1827728,28.6396403
20,Strada Castanilor,900190,44.1826844,28.6394815
87,Strada Bogdan Petriceicu Hașdeu,900382,44.1976369,28.6271925
30,Strada Soveja,900553,44.2067415,28.6464537
32,Strada Soveja,900553,44.2066177,28.6462530
34,Strada Soveja,900553,44.2064921,28.6459225
36Bis,Strada Soveja,900553,44.2063994,28.6457715
38,Strada Soveja,900553,44.2063214,28.6456519
40,Strada Soveja,900553,44.2062233,28.6455348
42,Strada Soveja,900553,44.2061180,28.6453453
44,Strada Soveja,900553,44.2060201,28.6452114
46,Strada Soveja,900553,44.2058652,28.6451052
45,Strada Căiuți,900553,44.2060278,28.6467290
47,Strada Căiuți,900553,44.2059921,28.6465822
49,Strada Căiuți,900553,44.2059546,28.6464354
53,Strada Căiuți,900553,44.2058619,28.6461293
55,Strada Căiuți,900553,44.2058405,28.6459775
61,Strada Căiuți,900553,44.2057192,28.6455135
63,Strada Căiuți,900553,44.2056967,28.6453842
5,Strada Atelierelor,900703,44.1748391,28.6409695
11,Aleea Remus,900190,44.1820189,28.6375720
1A,Aleea Remus,900190,44.1814090,28.6383166
1B,Aleea Remus,900190,44.1814810,28.6382233
5,Aleea Remus,900190,44.1817988,28.6378358
7,Aleea Remus,900190,44.1818542,28.6377819
9,Aleea Remus,900190,44.1819236,28.6376833
10,Strada Bibescu Vodă,900574,44.1921479,28.6489981
14,Strada Bibescu Vodă,900574,44.1919468,28.6486499
2,Strada Bibescu Vodă,900574,44.1924105,28.6497477
4,Strada Bibescu Vodă,900574,44.1923468,28.6495677
6,Strada Bibescu Vodă,900574,44.1922768,28.6493613
8,Strada Bibescu Vodă,900574,44.1922181,28.6491804
11,Strada Tabla Buții,900545,44.2050220,28.6502749
13,Strada Tabla Buții,900545,44.2049820,28.6501200
15,Strada Tabla Buții,900545,44.2049548,28.6500145
17,Strada Tabla Buții,900545,44.2049161,28.6498642
19,Strada Tabla Buții,900545,44.2048804,28.6497260
21,Strada Tabla Buții,900545,44.2048411,28.6495735
23,Strada Tabla Buții,900545,44.2048050,28.6494336
25,Strada Tabla Buții,900545,44.2047632,28.6492714
27,Strada Tabla Buții,900545,44.2047402,28.6491822
29,Strada Tabla Buții,900545,44.2046926,28.6489975
3,Strada Tabla Buții,900545,44.2051808,28.6508908
31,Strada Tabla Buții,900545,44.2046556,28.6488542
33,Strada Tabla Buții,900545,44.2046122,28.6486859
1A,Strada Tabla Buții,900545,44.2052085,28.6509979
7,Strada Tabla Buții,900545,44.2050875,28.6505287
9,Strada Tabla Buții,900545,44.2050507,28.6503861
1,Strada Panait Cerna,900630,44.1987838,28.6435196
101A,Strada Chiliei,900565,44.1988242,28.6436842
104,Strada Maramureș,900629,44.1985281,28.6433509
106,Strada Maramureș,900629,44.1987216,28.6432625
11,Strada Panait Cerna,900630,44.1984119,28.6418925
13,Strada Panait Cerna,900630,44.1983850,28.6417075
15,Strada Panait Cerna,900630,44.1983330,28.6415304
17,Strada Panait Cerna,900630,44.1982773,28.6413346
19,Strada Panait Cerna,900630,44.1982446,28.6411657
1A,Strada Panait Cerna,900630,44.1987541,28.6433988
21,Strada Panait Cerna,900630,44.1982023,28.6410316
23,Strada Panait Cerna,900630,44.1981869,28.6409269
3,Strada Panait Cerna,900630,44.1985965,28.6426114
5,Strada Panait Cerna,900630,44.1985503,28.6424209
56,Strada Pictor Ion Andreescu,900630,44.1978331,28.6406721
7,Strada Panait Cerna,900630,44.1984965,28.6422037
84,Strada Războieni,900566,44.1986300,28.6437580
9,Strada Panait Cerna,900630,44.1984446,28.6420535
155,Bulevardul I. C. Brătianu,900316,44.1691065,28.5848740
29,Strada Petru Vulcan,900572,44.1951711,28.6487076
31,Strada Petru Vulcan,900572,44.1950861,28.6485227
32,Strada Petru Vulcan,900572,44.1953074,28.6485648
33,Strada Petru Vulcan,900572,44.1950018,28.6482594
34,Strada Petru Vulcan,900572,44.1952536,28.6484093
35,Strada Petru Vulcan,900572,44.1949427,28.6481250
36,Strada Petru Vulcan,900572,44.1951901,28.6482725
37,Strada Petru Vulcan,900572,44.1948858,28.6479776
38,Strada Petru Vulcan,900572,44.1951286,28.6481545
39,Strada Petru Vulcan,900572,44.1948299,28.6478481
40,Strada Petru Vulcan,900572,44.1950882,28.6480445
41,Strada Petru Vulcan,900572,44.1947778,28.6477280
42,Strada Petru Vulcan,900572,44.1950478,28.6479238
43,Strada Petru Vulcan,900572,44.1947240,28.6476438
44,Strada Petru Vulcan,900572,44.1950094,28.6478353
45,Strada Petru Vulcan,900572,44.1946666,28.6475039
46,Strada Petru Vulcan,900572,44.1949574,28.6477360
47,Strada Petru Vulcan,900572,44.1946426,28.6473946
48,Strada Petru Vulcan,900572,44.1948824,28.6475483
49,Strada Petru Vulcan,900572,44.1945983,28.6472939
50,Strada Petru Vulcan,900572,44.1948267,28.6473954
51,Strada Petru Vulcan,900572,44.1945498,28.6471948
52,Strada Petru Vulcan,900572,44.1947805,28.6472827
53,Strada Petru Vulcan,900572,44.1945092,28.6470798
54,Strada Petru Vulcan,900572,44.1947190,28.6471325
55,Strada Petru Vulcan,900572,44.1944716,28.6469960
56,Strada Petru Vulcan,900572,44.1946882,28.6470494
58,Strada Petru Vulcan,900572,44.1946478,28.6469394
60,Strada Petru Vulcan,900572,44.1945998,28.6468107
1,Strada Bibescu Vodă,900574,44.1922529,28.6498947
1,Strada Preda Buzescu,900575,44.1917447,28.6499926
10,Strada Preda Buzescu,900575,44.1916109,28.6491089
13A,Strada Bibescu Vodă,900574,44.1918069,28.6488494
11,Strada Preda Buzescu,900575,44.1912793,28.6488071
12A,Strada Preda Buzescu,900575,44.1915307,28.6488791
13,Strada Preda Buzescu,900575,44.1912158,28.6486917
14A,Strada Bibescu Vodă,900574,44.1919467,28.6485026
14,Strada Preda Buzescu,900575,44.1914791,28.6488128
15,Strada Bibescu Vodă,900574,44.1917090,28.6486682
16,Strada Bibescu Vodă,900574,44.1918894,28.6484583
16,Strada Preda Buzescu,900575,44.1914432,28.6487094
17B,Strada Bibescu Vodă,900574,44.1916478,28.6484615
2,Strada Preda Buzescu,900575,44.1918970,28.6499518
3,Strada Bibescu Vodă,900574,44.1921074,28.6495871
3,Strada Preda Buzescu,900575,44.1915774,28.6495983
4,Strada Preda Buzescu,900575,44.1918026,28.6497227
5,Strada Bibescu Vodă,900574,44.1920379,28.6493977
5,Strada Preda Buzescu,900575,44.1914928,28.6493462
6,Strada Preda Buzescu,900575,44.1917462,28.6495871
7,Strada Bibescu Vodă,900574,44.1919495,28.6491768
7,Strada Preda Buzescu,900575,44.1914062,28.6491799
8,Strada Preda Buzescu,900575,44.1916297,28.6492629
9,Strada Bibescu Vodă,900574,44.1918872,28.6490393
9,Strada Preda Buzescu,900575,44.1913351,28.6489868
1,Strada Chiliei,900575,44.1908915,28.6485162
10,Strada 23 August,900574,44.1925608,28.6488246
11,Strada Chiliei,900575,44.1913707,28.6480794
12,Strada 23 August,900574,44.1925185,28.6487361
13,Strada Chiliei,900575,44.1915034,28.6480228
14,Strada 23 August,900574,44.1924839,28.6486261
15,Strada Chiliei,900575,44.1916000,28.6479158
16,Strada 23 August,900574,44.1924474,28.6485028
16,Strada Chiliei,900575,44.1921897,28.6476900
17,Strada Chiliei,900575,44.1916934,28.6478613
18,Strada 23 August,900574,44.1924147,28.6484035
18,Strada Chiliei,900575,44.1923397,28.6475693
19,Strada Chiliei,900575,44.1917854,28.6477549
20,Strada 23 August,900574,44.1923128,28.6481836
20,Strada Chiliei,900575,44.1924922,28.6476086
21,Strada Chiliei,900575,44.1918588,28.6476536
22,Strada 23 August,900574,44.1922301,28.6480039
22,Strada Chiliei,900575,44.1926887,28.6475040
23,Strada Chiliei,900575,44.1919787,28.6475788
24,Strada Chiliei,900575,44.1928285,28.6473457
25,Strada Chiliei,900575,44.1920781,28.6475971
27,Strada Chiliei,900575,44.1921454,28.6475506
29,Strada Chiliei,900575,44.1922147,28.6474406
3,Strada Chiliei,900575,44.1909511,28.6484545
31,Strada Chiliei,900575,44.1923897,28.6473574
33,Strada Chiliei,900575,44.1924553,28.6472951
35,Strada Chiliei,900575,44.1925486,28.6472240
37,Strada Chiliei,900575,44.1926630,28.6471717
4,Strada 23 August,900574,44.1927955,28.6494147
5,Strada Chiliei,900575,44.1910665,28.6483552
6,Strada 23 August,900574,44.1927070,28.6492001
7,Strada Chiliei,900575,44.1911611,28.6482966
8,Strada 23 August,900574,44.1926339,28.6490097
9,Strada Chiliei,900575,44.1912512,28.6481483
11,Strada Abrud,900308,44.1710431,28.5904043
13,Strada Abrud,900308,44.1711604,28.5904472
15,Strada Abrud,900308,44.1713182,28.5904794
17,Strada Abrud,900308,44.1715144,28.5905411
19,Strada Abrud,900308,44.1718934,28.5906430
21,Strada Abrud,900308,44.1720569,28.5906886
23,Strada Abrud,900308,44.1723397,28.5907584
25,Strada Abrud,900308,44.1724590,28.5907959
27,Strada Abrud,900308,44.1725725,28.5908228
29,Strada Abrud,900308,44.1726591,28.5908388
3,Strada Abrud,900308,44.1703870,28.5902219
31,Strada Abrud,900308,44.1727611,28.5908710
33,Strada Abrud,900308,44.1729784,28.5909274
35,Strada Abrud,900308,44.1731266,28.5909891
37,Strada Abrud,900308,44.1732208,28.5910186
5,Strada Abrud,900308,44.1705775,28.5902729
7,Strada Abrud,900308,44.1707430,28.5903185
9,Strada Abrud,900308,44.1709373,28.5903721
1,Intrarea Retezat,900307,44.1699429,28.5914687
10,Intrarea Retezat,900307,44.1703847,28.5918927
11,Intrarea Retezat,900307,44.1708680,28.5918071
12,Intrarea Retezat,900307,44.1705059,28.5919275
13,Intrarea Retezat,900307,44.1709392,28.5918286
14,Intrarea Retezat,900307,44.1706220,28.5919647
15,Intrarea Retezat,900307,44.1710065,28.5918420
16,Intrarea Retezat,900307,44.1706951,28.5919889
17,Intrarea Retezat,900307,44.1710816,28.5918742
18,Intrarea Retezat,900307,44.1707624,28.5920076
19,Intrarea Retezat,900307,44.1711835,28.5918903
2,Intrarea Retezat,900307,44.1699816,28.5917729
20,Intrarea Retezat,900307,44.1708528,28.5920264
21,Intrarea Retezat,900307,44.1712836,28.5919117
22,Intrarea Retezat,900307,44.1709163,28.5920345
23,Intrarea Retezat,900307,44.1713721,28.5919439
24,Intrarea Retezat,900307,44.1709663,28.5920586
25,Intrarea Retezat,900307,44.1714606,28.5919493
26,Intrarea Retezat,900307,44.1710625,28.5920827
27,Intrarea Retezat,900307,44.1715375,28.5919761
28,Intrarea Retezat,900307,44.1711645,28.5921042
29,Intrarea Retezat,900307,44.1716164,28.5920029
3,Intrarea Retezat,900307,44.1705544,28.5917052
30,Intrarea Retezat,900307,44.1712664,28.5921391
31,Intrarea Retezat,900307,44.1716741,28.5920217
32,Intrarea Retezat,900307,44.1713838,28.5921712
33,Intrarea Retezat,900307,44.1717299,28.5920432
34,Intrarea Retezat,900307,44.1714588,28.5922008
35,Intrarea Retezat,900307,44.1717895,28.5920619
36,Intrarea Retezat,900307,44.1715492,28.5922168
37,Intrarea Retezat,900307,44.1718453,28.5920700
38,Intrarea Retezat,900307,44.1716377,28.5922356
39,Intrarea Retezat,900307,44.1718992,28.5920807
4,Intrarea Retezat,900307,44.1700961,28.5918030
40,Intrarea Retezat,900307,44.1717185,28.5922544
41,Intrarea Retezat,900307,44.1719761,28.5921022
42,Intrarea Retezat,900307,44.1718455,28.5922785
43,Intrarea Retezat,900307,44.1720781,28.5921290
44,Intrarea Retezat,900307,44.1718936,28.5922866
45,Intrarea Retezat,900307,44.1721474,28.5921397
46,Intrarea Retezat,900307,44.1719417,28.5923054
47,Intrarea Retezat,900307,44.1722051,28.5921558
48,Intrarea Retezat,900307,44.1719879,28.5923161
49,Intrarea Retezat,900307,44.1722493,28.5921558
5,Intrarea Retezat,900307,44.1706699,28.5917454
50,Intrarea Retezat,900307,44.1720379,28.5923349
51,Intrarea Retezat,900307,44.1723038,28.5921688
52,Intrarea Retezat,900307,44.1720975,28.5923456
53,Intrarea Retezat,900307,44.1723692,28.5921940
54,Intrarea Retezat,900307,44.1721629,28.5923644
56,Intrarea Retezat,900307,44.1722315,28.5923635
6,Intrarea Retezat,900307,44.1701947,28.5918290
7,Intrarea Retezat,900307,44.1707468,28.5917588
8,Intrarea Retezat,900307,44.1702962,28.5918605
9,Intrarea Retezat,900307,44.1708080,28.5917836
4,Strada Eliberării,900299,44.1771758,28.6240343
3,Strada Ion Roată,900280,44.1772209,28.6238453
2D,Strada Eliberării,900299,44.1774855,28.6254063
64,Bulevardul 1 Mai,900117,44.1588945,28.6314254
3A,Strada Soveja,900553,44.2058865,28.6454605
1,Strada Călugăreni,900189,44.1821712,28.6413317
10,Strada Călugăreni,900189,44.1819728,28.6405419
10-10A,Strada Țepeș Vodă,900189,44.1816252,28.6410136
11,Strada Călugăreni,900189,44.1817781,28.6406679
11,Strada Țepeș Vodă,900189,44.1813444,28.6410287
12,Strada Călugăreni,900189,44.1819075,28.6404306
12,Strada Țepeș Vodă,900189,44.1815975,28.6408694
13,Strada Călugăreni,900189,44.1816424,28.6405005
13,Strada Țepeș Vodă,900189,44.1810807,28.6406031
14,Strada Călugăreni,900189,44.1817955,28.6402413
14,Strada Țepeș Vodă,900189,44.1814645,28.6407913
15,Strada Călugăreni,900189,44.1815866,28.6404027
16,Strada Călugăreni,900189,44.1817613,28.6401943
16,Strada Țepeș Vodă,900189,44.1813770,28.6405878
17,Strada Călugăreni,900189,44.1814716,28.6402336
18,Strada Călugăreni,900189,44.1816665,28.6400884
18,Strada Țepeș Vodă,900189,44.1813069,28.6405033
19,Strada Călugăreni,900189,44.1814144,28.6400996
2,Strada Țepeș Vodă,900189,44.1819546,28.6415802
20,Strada Călugăreni,900189,44.1815903,28.6399556
20,Strada Țepeș Vodă,900189,44.1812167,28.6403875
3,Strada Călugăreni,900189,44.1820599,28.6412029
4A,Strada Călugăreni,900189,44.1822018,28.6409194
4,Strada Țepeș Vodă,900189,44.1818883,28.6414438
5,Strada Călugăreni,900189,44.1819990,28.6410889
5,Strada Țepeș Vodă,900189,44.1815714,28.6414167
6,Strada Călugăreni,900189,44.1821476,28.6408565
6,Strada Țepeș Vodă,900189,44.1818151,28.6412642
7,Strada Călugăreni,900189,44.1819254,28.6409400
7,Strada Țepeș Vodă,900189,44.1814849,28.6412713
8,Strada Călugăreni,900189,44.1820604,28.6407092
8,Strada Țepeș Vodă,900189,44.1817226,28.6412026
9A,Strada Călugăreni,900189,44.1818164,28.6407392
9,Strada Țepeș Vodă,900189,44.1813848,28.6411001
1,Strada Profesor Gheorghe Munteanu Murgoci,900132,44.1597427,28.6268880
85,Bulevardul Alexandru Lăpușneanu,900178,44.1886920,28.6336433
3,Strada Jupiter,900698,44.1761605,28.6433688
5,Strada Jupiter,900698,44.1762594,28.6432537
7A,Strada Jupiter,900698,44.1767119,28.6427271
7B,Strada Jupiter,900698,44.1768192,28.6426022
9,Strada Jupiter,900698,44.1769062,28.6425011
11-11A,Strada Jupiter,900698,44.1769844,28.6424100
50,Strada Constantin Brătescu,900698,44.1770266,28.6420914
19A,Strada Jupiter,900698,44.1773717,28.6419593
17,Strada Jupiter,900698,44.1772936,28.6420501
15,Strada Jupiter,900698,44.1772378,28.6421152
13,Strada Jupiter,900698,44.1771724,28.6421913
26,Strada Jupiter,900698,44.1776380,28.6420319
24,Strada Jupiter,900698,44.1775530,28.6421308
22,Strada Jupiter,900698,44.1775555,28.6422831
20,Strada Jupiter,900698,44.1774639,28.6422344
18,Strada Jupiter,900698,44.1773919,28.6423181
16,Strada Jupiter,900698,44.1773302,28.6423899
131,Strada Baba Novac,900366,44.1861035,28.6172873
129,Strada Baba Novac,900366,44.1860679,28.6174093
127,Strada Baba Novac,900366,44.1860371,28.6175139
125,Strada Baba Novac,900366,44.1859996,28.6176225
123,Strada Baba Novac,900366,44.1859630,28.6177298
121,Strada Baba Novac,900366,44.1859227,28.6178411
119,Strada Baba Novac,900366,44.1858967,28.6179457
117,Strada Baba Novac,900366,44.1858599,28.6180544
115,Strada Baba Novac,900366,44.1858253,28.6181643
113,Strada Baba Novac,900366,44.1857945,28.6182716
111,Strada Baba Novac,900366,44.1857599,28.6183923
109,Strada Baba Novac,900366,44.1857233,28.6185211
107,Strada Baba Novac,900366,44.1856868,28.6186311
105,Strada Baba Novac,900366,44.1856118,28.6188403
3A,Strada Iosif Ivanovici,900378,44.1862355,28.6122901
3B,Strada Iosif Ivanovici,900378,44.1862983,28.6121493
96,Bulevardul Ferdinand,900709,44.1723002,28.6398862
18,Strada General Eremia Grigorescu,900178,44.1858008,28.6365536
12,Strada Marcus Aurelius,900744,44.1760647,28.6578668
171,Bulevardul Aurel Vlaicu,900330,44.1836993,28.5972318
3,Bulevardul Tomis,900178,44.1747398,28.6576186
18,Bulevardul Tomis,900178,44.1754772,28.6562593
18,Strada Pescarilor,900533,44.1994989,28.6544106
26,Strada Pescarilor,900552,44.2007120,28.6538046
14,Aleea Zmeurei,900433,44.2016584,28.6233000
14,Aleea Zmeurei,900433,44.2017097,28.6233670
35,Strada Muncel,900534,44.1992356,28.6517821
318,Bulevardul Tomis,900412,44.2005074,28.6274983
4,Strada Zburătorului,900419,44.2014485,28.6302440
4,Strada Zburătorului,900419,44.2015818,28.6302005
29,Strada Duiliu Zamfirescu,900390,44.1950109,28.6295612
2A,Strada Cumpenei,900147,44.1696159,28.6112089
70,Bulevardul Mamaia,900663,44.1877511,28.6507027
80,Strada Unirii,900544,44.2047913,28.6481736
135,Bulevardul Mamaia,900663,44.1897221,28.6507217
21,Strada Dimitrie Bolintineanu,900675,44.1804958,28.6434614
68A,Strada Traian,900716,44.1684903,28.6388142
2B,Bulevardul I. C. Brătianu,900161,44.1726303,28.6353665
116C,Bulevardul Alexandru Lăpușneanu,900419,44.2033208,28.6310749
65C,Strada Pescarilor,900581,44.2137083,28.6466744
21,Strada Călugăreni,900178,44.1811058,28.6395966
11,Piața Ovidiu,900178,44.1735730,28.6589482
82B,Strada Dezrobirii,900234,44.1802194,28.6171514
1,Bulevardul Tomis,900178,44.1745852,28.6577400
30,Bulevardul Tomis,900001,44.1760667,28.6548412
44,Bulevardul Tomis,900178,44.1766251,28.6538095
36,Bulevardul Tomis,900657,44.1763445,28.6541930
243-245,Bulevardul Mamaia,900559,44.2040675,28.6444054
90G,Strada Dezrobirii,900234,44.1796211,28.6167003
9,Strada Maior Șofran,900554,44.2073297,28.6456672
255,Bulevardul Mamaia,900552,44.2066407,28.6426370
251-253,Bulevardul Mamaia,900559,44.2046107,28.6443193
83,Strada Primăverii,900415,44.2024356,28.6359885
27A,Strada Primăverii,900635,44.1955755,28.6378493
7,Strada Amzacea,900178,44.1747304,28.6152224
22,Aleea Daliei,900191,44.1817800,28.6339521
220,Bulevardul Aurel Vlaicu,900498,44.1980908,28.6101996
38,Strada Oborului,900178,44.1743386,28.6340643
152Bis,Strada Mircea cel Bătrân,900627,44.1920462,28.6403593
115,Strada Enăchiță Văcărescu,900327,44.1753992,28.6016916
52,Bulevardul Aurel Vlaicu,900055,44.1551368,28.6201494
51Bis,Intrarea Retezat,900307,44.1723323,28.5919824
55,Intrarea Retezat,900307,44.1724015,28.5920255
55A,Intrarea Retezat,900307,44.1724246,28.5918954
32Bis,Strada Abrud,900308,44.1725034,28.5914429
34A,Strada Abrud,900308,44.1726758,28.5912972
58,Intrarea Retezat,900307,44.1723220,28.5924067
1A,Intrarea Retezat,900307,44.1700239,28.5914823
3,Strada Ion Bănescu,900669,44.1831825,28.6480144
3bis,Strada Ion Bănescu,900669,44.1832486,28.6479540
5,Strada Ion Bănescu,900669,44.1833033,28.6478396
5A,Strada Ion Bănescu,900669,44.1833854,28.6477442
2A,Strada Ion Bănescu,900669,44.1833557,28.6482083
4,Strada Ion Bănescu,900669,44.1835199,28.6480080
6,Strada Ion Bănescu,900669,44.1836735,28.6479345
12,Strada Ion Bănescu,900669,44.1841032,28.6473341
10,Strada Ion Bănescu,900669,44.1839370,28.6475090
8,Strada Ion Bănescu,900669,44.1837638,28.6477506
8A,Strada Ion Bănescu,900669,44.1838035,28.6476981
133,Strada Ion Lahovari,900598,44.1872584,28.6372414
135,Strada Ion Lahovari,900598,44.1873149,28.6371775
4Bis,Strada Docherilor,900628,44.1953174,28.6377245
20-20A,Strada Chiliei,900575,44.1927717,28.6473774
1B,Strada Țepeș Vodă,900189,44.1817454,28.6416557
1A,Strada Țepeș Vodă,900189,44.1818148,28.6417681
1A,Strada Țepeș Vodă,900189,44.1818612,28.6418261
89,Strada Fulgerului,900371,44.1819904,28.6200427
87B,Strada Fulgerului,900371,44.1819989,28.6201931
81B,Strada Fulgerului,900371,44.1816564,28.6213514
68BIS,Strada Fulgerului,900371,44.1821498,28.6208715
68,Strada Fulgerului,900371,44.1820728,28.6209152
66C,Strada Fulgerului,900371,44.1820882,28.6211154
66BIS,Strada Fulgerului,900371,44.1820232,28.6212094
66A,Strada Fulgerului,900371,44.1820911,28.6213165
66,Strada Fulgerului,900371,44.1820773,28.6214596
95A,Strada Fulgerului,900371,44.1820290,28.6193219
5,Strada Cristea Georgescu,900733,44.1723678,28.6622236
13,Strada Marcus Aurelius,900744,44.1751601,28.6581675
7,Strada Traian,900743,44.1745690,28.6570754
3,Strada Traian,900743,44.1745039,28.6572809
6,Strada Traian,900743,44.1746679,28.6573860
4,Strada Traian,900743,44.1746342,28.6575220
8,Strada Traian,900743,44.1747015,28.6572483
18,Strada Traian,900743,44.1749919,28.6564370
10,Bulevardul Tomis,900742,44.1752219,28.6569261
1,Strada Mircea cel Bătrân,900744,44.1750247,28.6575144
21,Strada Mircea cel Bătrân,900744,44.1763466,28.6564469
19,Strada Marcus Aurelius,900744,44.1760654,28.6576881
12,Strada Marcus Aurelius,900744,44.1761312,28.6579174
14,Strada Marcus Aurelius,900744,44.1762126,28.6579198
23,Strada Marcus Aurelius,900744,44.1763011,28.6577085
19,Strada Mircea cel Bătrân,900744,44.1762483,28.6565493
27,Strada Marcus Aurelius,900744,44.1767400,28.6575983
14B,Strada Marcus Aurelius,900744,44.1763715,28.6579185
9,Strada Mircea cel Bătrân,900744,44.1753719,28.6572305
34,Strada Ecaterina Varga,900658,44.1777306,28.6539783
13,Strada Dragoș Vodă,900658,44.1775383,28.6534357
15,Strada Dragoș Vodă,900658,44.1774414,28.6533433
36,Strada Ecaterina Varga,900658,44.1778338,28.6538518
9,Strada Dragoș Vodă,900658,44.1779614,28.6539633
7,Strada Dragoș Vodă,900658,44.1780190,28.6540342
5,Strada Dragoș Vodă,900658,44.1780755,28.6540657
6,Strada Dragoș Vodă,900658,44.1779580,28.6536247
8,Strada Dragoș Vodă,900658,44.1776835,28.6532687
10,Strada Dragoș Vodă,900658,44.1774935,28.6530559
38,Strada Calafatului,900048,44.1495283,28.6115742
208,Bulevardul Mamaia,900540,44.2018215,28.6462838
23,Strada Pescăruș,900534,44.2000213,28.6528756
25,Strada Pescăruș,900534,44.1999992,28.6527114
27,Strada Pescăruș,900534,44.1999834,28.6525576
29A,Strada Pescăruș,900534,44.1999750,28.6523891
29,Strada Pescăruș,900534,44.1999435,28.6524843
18,Strada Pescăruș,900534,44.2001852,28.6524110
16B,Strada Pescăruș,900534,44.2002240,28.6525136
4,Strada Jupiter,900693,44.1758636,28.6440958
2B,Strada Jupiter,900693,44.1757715,28.6442029
2A,Strada Jupiter,900693,44.1756981,28.6442883
5A,Strada Călărași,900590,44.1847326,28.6445303
5,Strada Călărași,900590,44.1848471,28.6447285
3,Strada Călărași,900590,44.1849198,28.6448544
11,Strada Călărași,900590,44.1844876,28.6441271
13,Strada Călărași,900590,44.1844108,28.6440048
15,Strada Călărași,900590,44.1843525,28.6439122
15A,Strada Călărași,900590,44.1843061,28.6438384
20B,Strada Căiuți,900546,44.2068902,28.6489752
26,Strada Soveja,900544,44.2072659,28.6471749
24,Strada Soveja,900544,44.2079584,28.6479445
72,Strada Izvor,900365,44.1883305,28.6225222
53,Strada Izvor,900365,44.1881588,28.6223212
68,Strada Izvor,900365,44.1883034,28.6226705
66,Strada Izvor,900365,44.1882342,28.6227670
26,Bulevardul Aurel Vlaicu,900055,44.1530645,28.6209759
28Bis-28A,Bulevardul Aurel Vlaicu,900055,44.1531092,28.6208326
22,Bulevardul Aurel Vlaicu,900055,44.1528647,28.6211825
38,Bulevardul Aurel Vlaicu,900055,44.1535992,28.6200101
40,Bulevardul Aurel Vlaicu,900055,44.1538094,28.6200911
42,Bulevardul Aurel Vlaicu,900055,44.1539108,28.6200014
42A,Bulevardul Aurel Vlaicu,900055,44.1537872,28.6197412
44,Bulevardul Aurel Vlaicu,900055,44.1538329,28.6195913
46-46A,Bulevardul Aurel Vlaicu,900055,44.1539269,28.6195482
46B,Bulevardul Aurel Vlaicu,900055,44.1541507,28.6197602
46C,Bulevardul Aurel Vlaicu,900055,44.1539121,28.6194465
3,Strada Pictor Nicolae Grigorescu,900636,44.1998444,28.6363282
5,Strada Pictor Nicolae Grigorescu,900636,44.1997728,28.6362742
7,Strada Pictor Nicolae Grigorescu,900636,44.1996566,28.6362145
2,Strada Pictor Nicolae Grigorescu,900636,44.2003668,28.6363451
4A,Strada Pictor Nicolae Grigorescu,900636,44.2001699,28.6362001
6,Strada Pictor Nicolae Grigorescu,900636,44.2001359,28.6360752
9-11,Strada Pictor Nicolae Grigorescu,900636,44.1994878,28.6360993
116c,Bulevardul Alexandru Lăpușneanu,900419,44.2039385,28.6324104
48,Bulevardul I. C. Brătianu,900007,44.1721681,28.6235879
5,Aleea Nalbei,900202,44.1803432,28.6330904
17,Strada Cuza Vodă,900726,44.1792780,28.6507686
25,Strada Unirii,900524,44.2011719,28.6499772
46,Strada Griviței,900178,44.1756274,28.6413127
9,Strada Căiuți,900546,44.2066696,28.6497542
11A,Strada Căiuți,900546,44.2066298,28.6496590
19Bis,Strada Căiuți,900546,44.2065710,28.6489857
18,Strada Mihai Eminescu,900664,44.1845147,28.6528914
61,Strada Mihai Viteazu,900191,44.1825567,28.6411897
63,Strada Mihai Viteazu,900191,44.1826572,28.6411231
20A,Strada Călugăreni,900189,44.1815976,28.6398501
18A,Strada Călugăreni,900189,44.1816386,28.6399938
14A,Strada Călugăreni,900189,44.1818682,28.6403192
8A,Strada Călugăreni,900189,44.1820209,28.6406497
4,Strada Călugăreni,900189,44.1822616,28.6409994
2A,Strada Călugăreni,900189,44.1823163,28.6411015
1A,Strada Călugăreni,900189,44.1821388,28.6412791
5A,Strada Călugăreni,900189,44.1819517,28.6410091
7A-7B,Strada Călugăreni,900189,44.1818722,28.6408695
9,Strada Călugăreni,900189,44.1818553,28.6408043
11A,Strada Călugăreni,900189,44.1817328,28.6405891
15A,Strada Călugăreni,900189,44.1815513,28.6403347
20A,Strada Țepeș Vodă,900189,44.1812398,28.6402408
18A,Strada Țepeș Vodă,900189,44.1812613,28.6404651
14A,Strada Țepeș Vodă,900189,44.1814344,28.6407052
8Bis,Strada Țepeș Vodă,900189,44.1816841,28.6411278
4,Strada Țepeș Vodă,900189,44.1819058,28.6413130
2A,Strada Țepeș Vodă,900189,44.1819255,28.6415061
11B,Strada Țepeș Vodă,900189,44.1812272,28.6409170
11A,Strada Țepeș Vodă,900189,44.1810646,28.6407456
24,Strada Țepeș Vodă,900189,44.1808385,28.6395808
12,Strada Avram Iancu,900705,44.1738100,28.6388770
12B,Strada Avram Iancu,900705,44.1743077,28.6388151
18,Strada Avram Iancu,900705,44.1745854,28.6388017
14,Strada Avram Iancu,900705,44.1743810,28.6388151
16,Strada Avram Iancu,900705,44.1744928,28.6387963
88,Strada Poporului,900178,44.1836436,28.6325077
9Bis,Strada Ion Alexandrescu,900390,44.1964218,28.6262174
9A,Strada Ion Alexandrescu,900390,44.1966756,28.6263486
9B,Strada Ion Alexandrescu,900390,44.1967222,28.6264601
9C,Strada Ion Alexandrescu,900390,44.1966023,28.6265994
9D,Strada Ion Alexandrescu,900390,44.1966636,28.6267332
9E,Strada Ion Alexandrescu,900390,44.1966702,28.6268465
14w,Intrarea Ștefăniță Vodă,900383,44.1972598,28.6250402
4,Intrarea Ștefăniță Vodă,900383,44.1968094,28.6250863
6,Intrarea Ștefăniță Vodă,900383,44.1968664,28.6250615
8,Intrarea Ștefăniță Vodă,900383,44.1969202,28.6250347
10,Intrarea Ștefăniță Vodă,900383,44.1970714,28.6250727
12,Intrarea Ștefăniță Vodă,900383,44.1971293,28.6250411
4A,Strada Ion Alexandrescu,900390,44.1973194,28.6252518
4B,Strada Ion Alexandrescu,900390,44.1972628,28.6252863
4Bis,Strada Ion Alexandrescu,900390,44.1972035,28.6253440
4C,Strada Ion Alexandrescu,900390,44.1971621,28.6253884
6,Strada Ion Alexandrescu,900390,44.1970999,28.6254341
8,Strada Ion Alexandrescu,900390,44.1970407,28.6254700
10,Strada Ion Alexandrescu,900390,44.1969207,28.6255612
10B,Strada Ion Alexandrescu,900390,44.1968590,28.6253277
10A,Strada Ion Alexandrescu,900390,44.1968193,28.6255476
12,Strada Ion Alexandrescu,900390,44.1967645,28.6255821
12B,Strada Ion Alexandrescu,900390,44.1966656,28.6256117
1,Intrarea Răsuri,900205,44.1881141,28.6335348
15B,Strada Luptători,900255,44.1741484,28.6167750
12,Strada Luptători,900255,44.1744434,28.6169402
20,Strada Atelierelor,900703,44.1762069,28.6396986
18,Strada Atelierelor,900703,44.1761335,28.6397849
14Bis,Strada Atelierelor,900703,44.1759272,28.6400675
14,Strada Atelierelor,900703,44.1759770,28.6400029
18Bis,Strada Atelierelor,900703,44.1760869,28.6398377
16,Strada Atelierelor,900703,44.1760380,28.6399107
19,Strada Atelierelor,900703,44.1757246,28.6398867
21,Strada Atelierelor,900703,44.1757899,28.6397144
23,Strada Atelierelor,900703,44.1758817,28.6396162
25,Strada Atelierelor,900703,44.1759410,28.6395480
1A,Strada Sublocotenent Ion Ghiculescu,900308,44.1698099,28.5894174
1Bis,Strada Sublocotenent Ion Ghiculescu,900308,44.1699351,28.5894043
2A,Strada Sublocotenent Ion Ghiculescu,900308,44.1698622,28.5897042
2,Strada Sublocotenent Ion Ghiculescu,900308,44.1699501,28.5897094
222,Bulevardul I. C. Brătianu,900308,44.1696834,28.5892258
224,Bulevardul I. C. Brătianu,900308,44.1697356,28.5889979
226,Bulevardul I. C. Brătianu,900308,44.1696580,28.5886128
3,Strada Sublocotenent Ion Ghiculescu,900308,44.1700048,28.5894656
5,Strada Sublocotenent Ion Ghiculescu,900308,44.1700724,28.5894911
7,Strada Sublocotenent Ion Ghiculescu,900308,44.1701668,28.5894970
9,Strada Sublocotenent Ion Ghiculescu,900308,44.1702711,28.5895206
4,Strada Sublocotenent Ion Ghiculescu,900308,44.1700301,28.5897269
6,Strada Sublocotenent Ion Ghiculescu,900308,44.1701076,28.5897485
8,Strada Sublocotenent Ion Ghiculescu,900308,44.1701725,28.5897603
10,Strada Sublocotenent Ion Ghiculescu,900308,44.1702458,28.5897878
1A,Strada Abrud,900308,44.1700696,28.5900904
1Bis,Strada Abrud,900308,44.1701795,28.5901199
2A,Strada Abrud,900308,44.1698892,28.5902535
228,Bulevardul I. C. Brătianu,900308,44.1695507,28.5882052
230,Bulevardul I. C. Brătianu,900308,44.1695364,28.5879211
3,Strada Secerișului,900205,44.1882714,28.6333286
7,Strada Secerișului,900205,44.1882557,28.6331651
8A,Strada Artileriei,900199,44.1876624,28.6358845
125,Strada Mihai Viteazu,900600,44.1874151,28.6355097
127,Strada Mihai Viteazu,900600,44.1874173,28.6352561
127Bis,Strada Mihai Viteazu,900600,44.1875852,28.6352924
8Bis,Strada Artileriei,900199,44.1873373,28.6354073
10,Strada Artileriei,900199,44.1872822,28.6353083
10A,Strada Artileriei,900199,44.1872178,28.6351987
6,Strada Alecu Russo,900319,44.1667506,28.5906918
8,Strada Alecu Russo,900319,44.1667457,28.5905945
8A,Strada Alecu Russo,900319,44.1668694,28.5905206
13,Strada Bicaz,900319,44.1668973,28.5902622
1A,Strada Bicaz,900319,44.1678453,28.5901263
5B,Strada Bicaz,900319,44.1675403,28.5903892
8Bis,Strada Alecu Russo,900319,44.1668483,28.5904082
4,Strada Alecu Russo,900319,44.1667667,28.5908474
100A,Strada Mihai Viteazu,900588,44.1855970,28.6380226
91A,Strada Nicolae Iorga,900587,44.1858757,28.6386611
95,Strada Nicolae Iorga,900587,44.1857173,28.6383089
2,Strada Topraisar,900589,44.1856694,28.6383780
112B,Strada Poporului,900205,44.1817855,28.6311892
112A,Strada Poporului,900205,44.1818700,28.6312429
112,Strada Poporului,900205,44.1819340,28.6312836
110Bis,Strada Poporului,900205,44.1819898,28.6313190
110,Strada Poporului,900205,44.1820649,28.6313668
108B,Strada Poporului,900205,44.1821220,28.6314031
108,Strada Poporului,900205,44.1821916,28.6314474
1B,Strada Belșugului,900206,44.1823585,28.6312789
161,Strada Poporului,900205,44.1816438,28.6315225
159A,Strada Poporului,900205,44.1817039,28.6315603
159,Strada Poporului,900205,44.1817567,28.6315936
157,Strada Poporului,900205,44.1818342,28.6316423
155B,Strada Poporului,900205,44.1819257,28.6316999
155,Strada Poporului,900205,44.1819907,28.6317408
153,Strada Poporului,900205,44.1821130,28.6318177
147,Strada Poporului,900205,44.1823100,28.6319417
149,Strada Poporului,900205,44.1822320,28.6318926
151,Strada Poporului,900205,44.1821798,28.6318598
145,Strada Poporului,900205,44.1824019,28.6319995
20A,Strada Ecaterina Teodoroiu,900554,44.2064454,28.6449202
18A,Strada Ecaterina Teodoroiu,900554,44.2064875,28.6449681
18,Strada Ecaterina Teodoroiu,900554,44.2065747,28.6450149
16Bis,Strada Ecaterina Teodoroiu,900554,44.2066447,28.6452243
14A,Strada Ecaterina Teodoroiu,900554,44.2067405,28.6453628
12B,Strada Ecaterina Teodoroiu,900554,44.2067798,28.6454478
47A,Strada Ecaterina Teodoroiu,900554,44.2060437,28.6448506
45A,Strada Ecaterina Teodoroiu,900554,44.2061627,28.6450197
36,Strada Soveja,900553,44.2064565,28.6458485
22B,Strada Ecaterina Teodoroiu,900554,44.2064293,28.6446349
10A,Strada Ecaterina Teodoroiu,900554,44.2068935,28.6456212
6Bis,Strada Ecaterina Teodoroiu,900554,44.2070694,28.6459202
25A,Strada Ecaterina Teodoroiu,900554,44.2070963,28.6464881
27,Strada Ecaterina Teodoroiu,900554,44.2070596,28.6464276
40A,Strada Trandafirului,900350,44.1888015,28.6266861
40B,Strada Trandafirului,900350,44.1888546,28.6266142
7,Strada Iederii,900109,44.1495985,28.6296880
4,Strada Victor Babeș,900109,44.1491520,28.6304229
6,Strada Victor Babeș,900109,44.1490192,28.6303505
8,Strada Victor Babeș,900109,44.1488826,28.6302835
10,Strada Victor Babeș,900109,44.1487402,28.6303103
10A,Strada Victor Babeș,900109,44.1487787,28.6301896
12,Strada Victor Babeș,900109,44.1486074,28.6302084
14,Strada Victor Babeș,900109,44.1484592,28.6301306
16,Strada Victor Babeș,900109,44.1483611,28.6300528
18,Strada Victor Babeș,900109,44.1482301,28.6300018
2,Strada Victor Babeș,900109,44.1492419,28.6304880
11B,Strada Victor Babeș,900109,44.1483393,28.6304853
15,Strada Victor Babeș,900104,44.1477946,28.6301983
15A,Strada Victor Babeș,900104,44.1476734,28.6301608
24A,Strada Gavril Muzicescu,900109,44.1488621,28.6295933
2B,Strada Abrud,900308,44.1699706,28.5902621
17,Strada Anghel Saligny,900705,44.1737304,28.6395479
23,Strada Anghel Saligny,900705,44.1733918,28.6390021
5,Strada Anghel Saligny,900705,44.1744176,28.6405816
26,Strada Dobrogei,900532,44.1967076,28.6495309
33A,Strada Dobrogei,900532,44.1962796,28.6490248
33,Strada Dobrogei,900532,44.1963171,28.6491314
31,Strada Dobrogei,900532,44.1963659,28.6493176
29A,Strada Dobrogei,900532,44.1963854,28.6493879
29,Strada Dobrogei,900532,44.1964147,28.6495082
27,Strada Dobrogei,900532,44.1964375,28.6496263
25,Strada Dobrogei,900532,44.1965026,28.6497942
23,Strada Dobrogei,900532,44.1965677,28.6499917
23A,Strada Dobrogei,900532,44.1965449,28.6498714
20A,Strada Vifor Haiducul,900317,44.1674539,28.5857589
10,Strada Pictor Nicolae Grigorescu,900636,44.1999118,28.6355301
10,Strada Pictor Nicolae Grigorescu,900636,44.1997302,28.6355474
4,Strada Pictor Nicolae Grigorescu,900636,44.2002986,28.6362375
12,Strada Traian,900743,44.1747877,28.6569277
14,Strada Traian,900743,44.1748589,28.6567426
54A,Bulevardul Ferdinand,900693,44.1756972,28.6454829
3A,Strada George Enescu,900692,44.1766522,28.6466626
64,Bulevardul Ferdinand,900693,44.1748823,28.6438100
68,Bulevardul Ferdinand,900693,44.1746469,28.6433187
70,Bulevardul Ferdinand,900693,44.1746001,28.6430928
72,Bulevardul Ferdinand,900693,44.1744448,28.6428483
74,Bulevardul Ferdinand,900693,44.1743446,28.6426830
76,Bulevardul Ferdinand,900693,44.1742845,28.6425363
72,Strada Cuza Vodă,900692,44.1758402,28.6445352
74,Strada Cuza Vodă,900692,44.1757971,28.6444616
76,Strada Cuza Vodă,900692,44.1757641,28.6444053
2,Strada Jupiter,900693,44.1755301,28.6445059
2C,Strada Jupiter,900693,44.1754450,28.6446173
18,Strada George Enescu,900692,44.1773204,28.6462685
14,Strada George Enescu,900692,44.1771960,28.6464200
12,Strada George Enescu,900692,44.1771288,28.6465057
11,Strada George Enescu,900692,44.1770802,28.6460851
9,Strada George Enescu,900692,44.1770202,28.6462007
71,Strada Ștefan cel Mare,900692,44.1764067,28.6445682
73,Strada Ștefan cel Mare,900692,44.1763569,28.6444873
6,Strada Jupiter,900698,44.1764015,28.6434700
2,Strada Traian,900743,44.1745578,28.6577066
11,Strada Mircea cel Bătrân,900744,44.1754545,28.6571628
13,Strada Mircea cel Bătrân,900744,44.1755415,28.6570880
2,Strada Mihai Eminescu,900664,44.1838754,28.6529838
4,Strada Mihai Eminescu,900664,44.1840185,28.6529631
6-6Bis,Strada Mihai Eminescu,900664,44.1841541,28.6529435
8,Strada Mihai Eminescu,900664,44.1842750,28.6529260
10B,Strada A.S. Pușkin,900664,44.1848611,28.6518416
10A,Strada A.S. Pușkin,900664,44.1848168,28.6518955
10,Strada A.S. Pușkin,900664,44.1847670,28.6519561
2Bis,Strada A.S. Pușkin,900664,44.1844455,28.6523472
4,Strada A.S. Pușkin,900664,44.1845096,28.6522692
6,Strada A.S. Pușkin,900664,44.1845654,28.6522013
6A,Strada A.S. Pușkin,900664,44.1846186,28.6521367
24A,Strada Mihai Eminescu,900664,44.1856022,28.6528189
26,Strada Mihai Eminescu,900664,44.1860450,28.6528339
24,Strada Mihai Eminescu,900664,44.1858845,28.6528285
8,Strada A.S. Pușkin,900664,44.1846937,28.6520453
43A,Strada Constantin Brătescu,900698,44.1768783,28.6422628
48,Strada Constantin Brătescu,900698,44.1774275,28.6426773
12,Strada Preda Buzescu,900575,44.1915556,28.6490036
7A,Strada Chiliei,900575,44.1912188,28.6482511
16A,Strada Bibescu Vodă,900574,44.1918495,28.6483340
17,Strada 23 August,900574,44.1920575,28.6480609
15,Strada 23 August,900574,44.1921264,28.6481833
12,Strada Bibescu Vodă,900574,44.1920385,28.6487938
17-17A,Strada Bibescu Vodă,900574,44.1916676,28.6486088
13,Strada Bibescu Vodă,900574,44.1917751,28.6487763
13A,Strada Bibescu Vodă,900574,44.1916730,28.6487913
57,Strada Căiuți,900553,44.2057623,28.6458185
2A,Strada Mihai Eminescu,900664,44.1837061,28.6530060
64,Șoseaua Mangaliei,900131,44.1623105,28.6297829
20A,Strada Victor Babeș,900104,44.1476718,28.6297325
7,Strada Luptători,900255,44.1744051,28.6175347
6B,Strada Luptători,900255,44.1746215,28.6173958
28,Strada Jupiter,900698,44.1778288,28.6418096
15Bis,Strada Dafinului,900384,44.1912716,28.6255003
11,Strada Dafinului,900384,44.1914125,28.6255468
9,Strada Dafinului,900384,44.1915173,28.6255814
9A,Strada Dafinului,900384,44.1916118,28.6256126
7,Strada Dafinului,900384,44.1918017,28.6256764
5A,Strada Dafinului,900384,44.1918583,28.6256958
5,Strada Dafinului,900384,44.1919412,28.6257242
3,Strada Dafinului,900384,44.1920288,28.6257542
60,Șoseaua Mangaliei,900131,44.1626426,28.6299940
50,Șoseaua Mangaliei,900131,44.1632769,28.6303340
58,Șoseaua Mangaliei,900131,44.1627953,28.6300759
56F,Șoseaua Mangaliei,900131,44.1629282,28.6301471
52,Șoseaua Mangaliei,900131,44.1631416,28.6302615
54,Șoseaua Mangaliei,900131,44.1630416,28.6302079
54Bis,Șoseaua Mangaliei,900131,44.1630795,28.6300883
2Bis,Strada Ion Bănescu,900669,44.1832315,28.6483659
2,Strada Iosif Ivanovici,900378,44.1857254,28.6126148
4,Strada Iosif Ivanovici,900378,44.1861730,28.6124303
1,Strada Iosif Ivanovici,900378,44.1859997,28.6128186
1A,Strada Iosif Ivanovici,900378,44.1860993,28.6125954
195,Șoseaua Mangaliei,900082,44.1341783,28.6227168
62,Strada Soveja,900420,44.2026958,28.6297844
3,Strada Mugurului,900012,44.1390926,28.6244026
5,Strada Mugurului,900012,44.1392369,28.6239341
7,Strada Mugurului,900012,44.1392960,28.6237420
21A,Strada Gheorghe Economu,900554,44.2086547,28.6445327
8A,Strada Grozești,900561,44.2047691,28.6507578
8C,Strada Grozești,900561,44.2048097,28.6509097
8D,Strada Grozești,900561,44.2048406,28.6510253
57Bis,Strada Cuza Vodă,900692,44.1760412,28.6454225
22Bis,Bulevardul Aurel Vlaicu,900055,44.1530210,28.6213633
6,Strada Renașterii,900527,44.1907422,28.6516652
6A,Strada Grozești,900561,44.2049393,28.6513952
6B,Strada Grozești,900561,44.2048880,28.6512031
1,Strada Căiuți,900546,44.2069077,28.6503585
10-10A,Strada Zorelelor,900546,44.2063795,28.6498884
1,Strada Căiuți,900546,44.2071549,28.6503851
4A,Strada Căiuți,900546,44.2071210,28.6502495
4-6,Strada Căiuți,900546,44.2071025,28.6501352
65,Strada Căiuți,900553,44.2056594,28.6452603
24A,Strada Căiuți,900546,44.2069614,28.6486732
23,Strada Maior Șofran,900554,44.2066800,28.6445696
25,Strada Maior Șofran,900554,44.2066060,28.6444570
9,Strada Primăverii,900635,44.1941006,28.6380306
13,Strada Pictor Nicolae Grigorescu,900636,44.1993674,28.6360275
17,Strada Pictor Nicolae Grigorescu,900636,44.1991627,28.6359058
15,Strada Pictor Nicolae Grigorescu,900636,44.1992704,28.6359463
8A,Intrarea Ștefăniță Vodă,900383,44.1970212,28.6250766
2A,Strada Răchitași,900545,44.2059793,28.6507432
1,Strada Tabla Buții,900545,44.2052473,28.6511487
5,Strada Tabla Buții,900545,44.2051306,28.6506960
21A,Strada Tabla Buții,900545,44.2048216,28.6494980
23A,Strada Tabla Buții,900545,44.2047859,28.6493596
27B,Strada Tabla Buții,900545,44.2047169,28.6490918
6A,Strada Tabla Buții,900545,44.2053329,28.6505390
6,Strada Tabla Buții,900545,44.2053586,28.6506386
2A,Strada Onești,900560,44.2035490,28.6484272
2B,Strada Onești,900560,44.2035852,28.6485613
16,Strada Pescăruș,900534,44.2002501,28.6526208
2,Strada Oleg Danovski,900525,44.1930174,28.6507457
4,Strada Oleg Danovski,900525,44.1930494,28.6510104
6,Strada Oleg Danovski,900525,44.1930733,28.6512081
8,Strada Oleg Danovski,900525,44.1930868,28.6513192
10,Strada Oleg Danovski,900525,44.1931037,28.6514592
12,Strada Oleg Danovski,900525,44.1931403,28.6517615
14,Strada Oleg Danovski,900525,44.1931565,28.6518954
16,Strada Oleg Danovski,900525,44.1931684,28.6519942
2B,Strada Mihai Eminescu,900664,44.1835443,28.6530273
10,Strada Mihai Eminescu,900664,44.1843368,28.6529171
6B,Strada A.S. Pușkin,900664,44.1846822,28.6522583
84A,Strada Războieni,900566,44.1985868,28.6435856
84B,Strada Războieni,900566,44.1985638,28.6434935
104A,Strada Maramureș,900629,44.1986053,28.6433174
13A,Strada Călărași,900590,44.1842750,28.6441880
17,Strada Călărași,900590,44.1842420,28.6437364
17B,Strada Călărași,900590,44.1841905,28.6436546
17C,Strada Călărași,900590,44.1841336,28.6435641
3,Strada Iosif Ivanovici,900378,44.1864609,28.6118011
7,Strada Iosif Ivanovici,900378,44.1866924,28.6113853
9,Strada Iosif Ivanovici,900378,44.1867508,28.6112557
11,Strada Iosif Ivanovici,900378,44.1868058,28.6111335
11B,Strada Iosif Ivanovici,900378,44.1868313,28.6110769
13,Strada Iosif Ivanovici,900378,44.1868858,28.6109558
15,Strada Iosif Ivanovici,900378,44.1869460,28.6108221
17,Strada Iosif Ivanovici,900378,44.1870202,28.6106574
1,Strada Ciocîrliei,900608,44.1949092,28.6332526
3A,Strada Mugurului,900012,44.1391570,28.6241934
9,Strada Mugurului,900012,44.1393578,28.6235415
11,Strada Mugurului,900012,44.1394172,28.6233484
11D,Strada Mugurului,900012,44.1395726,28.6228442
11C,Strada Mugurului,900012,44.1395340,28.6229694
11B,Strada Mugurului,900012,44.1395032,28.6230694
11A,Strada Mugurului,900012,44.1394648,28.6231941
12,Piața Ovidiu,900745,44.1737576,28.6580881
104A,Strada Mircea cel Bătrân,900663,44.1833840,28.6515905
102-104,Bulevardul Tomis,900657,44.1825373,28.6485870
108B,Strada Unirii,900580,44.2106210,28.6465988
69A,Strada Pescarilor,900581,44.2143660,28.6455231
17,Strada Soveja,900562,44.2000812,28.6389370
15,Strada Fulgerului,900218,44.1803653,28.6288775
21,Strada Cișmelei,900511,44.2051844,28.6239951
106,Strada Unirii,900544,44.2085918,28.6467467
61,Strada Unirii,900553,44.2075379,28.6462680
63,Strada Unirii,900553,44.2082431,28.6462684
104,Strada Mircea cel Bătrân,900663,44.1825770,28.6510472
12,Strada Romană,900622,44.1903703,28.6485714
9,Strada Maior Șofran,900554,44.2073391,28.6456688
3,Strada Cașin,900546,44.2071118,28.6483447
197,Bulevardul Mamaia,900540,44.1995247,28.6460891
170,Bulevardul Tomis,900591,44.1880829,28.6431749
3,Strada Ion Roată,900280,44.1787815,28.6236548
316,Bulevardul Tomis,900412,44.2006976,28.6287772
2,Strada Cașin,900546,44.2074162,28.6483166
68,Strada Pescarilor,900545,44.2088907,28.6482290
82,Strada Unirii,900544,44.2050575,28.6482000
47,Strada Unirii,900544,44.2048561,28.6477119
5,Strada Cașin,900546,44.2066266,28.6473097
1A,Strada Soveja,900553,44.2063328,28.6463433
70,Bulevardul Mamaia,900663,44.1878639,28.6507138
150,Strada Mircea cel Bătrân,900627,44.1909550,28.6424625
90-92,Bulevardul Alexandru Lăpușneanu,900605,44.1905655,28.6339427
2,Aleea Magnoliei,900408,44.2000710,28.6340885
2,Aleea Magnoliei,900408,44.1996770,28.6342825
2,Aleea Cameliei,900409,44.1991611,28.6331504
2,Aleea Magnoliei,900408,44.2009623,28.6333386
2,Aleea Magnoliei,900408,44.1997357,28.6335493
19,Aleea Hortensiei,900503,44.2130131,28.6232042
70,Strada Unirii,900562,44.2030699,28.6494329
2,Strada Grozești,900561,44.2044094,28.6504593
1,Strada Grozești,900561,44.2042584,28.6498349
2A,Strada Dragoslavele,900539,44.2038771,28.6508245
11,Aleea Mălinului,900597,44.1895760,28.6391311
1,Bulevardul Regina Elisabeta,900735,44.1709300,28.6632087
6,Aleea Macilor,900653,44.1885458,28.6406325
8,Aleea Macilor,900653,44.1890229,28.6402087
4,Aleea Mălinului,900597,44.1890062,28.6390729
6,Aleea Mălinului,900597,44.1894064,28.6398523
4,Aleea Macilor,900587,44.1880822,28.6410341
147,Bulevardul Tomis,900652,44.1879339,28.6420245
147A,Bulevardul Tomis,900652,44.1877551,28.6425458
172,Strada Mircea cel Bătrân,900627,44.1935507,28.6392333
2,Strada Primăverii,900635,44.1942327,28.6388609
136,Strada Făgetului,900654,44.1948673,28.6401015
11,Strada Mugurului,900012,44.1395928,28.6221932
23,Strada Theodor Speranția,900016,44.1389238,28.6263050
98,Bulevardul Ferdinand,900709,44.1718597,28.6392228
5,Aleea Capidava,900456,44.2052636,28.6266935
175,Bulevardul Alexandru Lăpușneanu,900419,44.2054502,28.6287928
4,Aleea Heracleea,900455,44.2051570,28.6277511
194,Strada Baba Novac,900366,44.1944790,28.6073571
6,Strada Chiliei,900575,44.1942401,28.6468021
5,Strada Chiliei,900575,44.1946408,28.6464849
38,Strada Pescarilor,900559,44.2035135,28.6517867
68,Strada Unirii,900540,44.2029092,28.6496244
1C,Strada Dragoslavele,900539,44.2031448,28.6506424
40,Strada Pescarilor,900559,44.2040497,28.6513106
42,Strada Pescarilor,900559,44.2045644,28.6511924
30,Strada Pescarilor,900538,44.2014800,28.6528550
32-34,Strada Unirii,900532,44.1970607,28.6526317
22,Strada Unirii,900524,44.1969596,28.6522695
266,Bulevardul Mamaia,900552,44.2062786,28.6442286
28A,Strada Nicolae Iorga,900597,44.1875589,28.6418951
2,Aleea Macilor,900587,44.1875758,28.6414671
182,Bulevardul Mamaia,900565,44.1999502,28.6472521
86A,Bulevardul Mamaia,900663,44.1885919,28.6511178
65,Bulevardul Mamaia,900590,44.1847721,28.6450786
65,Bulevardul Mamaia,900590,44.1844136,28.6447328
1C,Strada Ion Rațiu,900525,44.1970475,28.6533439
58,Strada Constantin Brâncuși,900356,44.1894269,28.6217628
1,Strada Bradului,900320,44.1671187,28.5876636
36-40,Strada Ștefan cel Mare,900676,44.1784937,28.6469096
9,Aleea Mălinului,900597,44.1886961,28.6380142
3,Aleea Mălinului,900597,44.1873906,28.6393287
7,Aleea Mălinului,900597,44.1882624,28.6384725
5,Aleea Mălinului,900597,44.1878179,28.6388802
1,Aleea Mălinului,900597,44.1868781,28.6397040
237,Bulevardul Aurel Vlaicu,900498,44.1976951,28.6027274
114,Strada Unirii,900580,44.2117000,28.6464912
8,Strada Cașin,900546,44.2071993,28.6473992
114,Strada Unirii,900580,44.2111546,28.6475507
114,Strada Unirii,900580,44.2108350,28.6480038
70,Strada Pescarilor,900581,44.2094220,28.6481018
10,Strada Cașin,900546,44.2071174,28.6472122
35D,Strada Pescarilor,900545,44.2087746,28.6501225
65,Strada Pescarilor,900581,44.2130934,28.6462740
69,Strada Pescarilor,900581,44.2128812,28.6456042
334,Bulevardul Tomis,900514,44.2040348,28.6228951
1B,Aleea Orhideelor,900513,44.2044613,28.6223634
334,Bulevardul Tomis,900514,44.2040304,28.6232706
334A,Bulevardul Tomis,900514,44.2042495,28.6219542
1A,Aleea Orhideelor,900513,44.2045470,28.6228437
1,Aleea Orhideelor,900513,44.2049345,28.6227082
40,Strada Oleg Danovski,900525,44.1942593,28.6541347
38,Strada Oleg Danovski,900525,44.1935311,28.6541528
44,Strada Oleg Danovski,900525,44.1954877,28.6539840
42,Strada Oleg Danovski,900525,44.1948704,28.6541651
1,Strada Fulgerului,900372,44.1830988,28.6173478
82E,Strada Dezrobirii,900234,44.1821492,28.6176794
14,Strada Dezrobirii,900372,44.1836275,28.6208011
10,Strada Dezrobirii,900372,44.1844707,28.6216614
12,Strada Dezrobirii,900372,44.1840070,28.6210569
97,Strada Soveja,900337,44.1850769,28.6220293
90A,Strada Dezrobirii,900234,44.1794869,28.6162747
90G,Strada Dezrobirii,900234,44.1797165,28.6164565
70,Strada Dezrobirii,900362,44.1855134,28.6213873
120,Strada Soveja,900362,44.1859230,28.6215858
118,Strada Soveja,900362,44.1862886,28.6219838
5,Strada Dreptății,900295,44.1787663,28.6190962
9,Strada Eliberării,900299,44.1774826,28.6179126
95,Bulevardul Aurel Vlaicu,900075,44.1564993,28.6138750
41,Bulevardul Aurel Vlaicu,900075,44.1560851,28.6146029
39,Bulevardul Aurel Vlaicu,900075,44.1556894,28.6147216
99,Bulevardul Aurel Vlaicu,900075,44.1570164,28.6133029
33,Bulevardul Aurel Vlaicu,900055,44.1554268,28.6161196
31,Bulevardul Aurel Vlaicu,900055,44.1549559,28.6162594
29,Bulevardul Aurel Vlaicu,900055,44.1550668,28.6166732
25,Bulevardul Aurel Vlaicu,900055,44.1543462,28.6177887
21,Bulevardul Aurel Vlaicu,900055,44.1540123,28.6183793
17B,Bulevardul Aurel Vlaicu,900055,44.1532310,28.6196854
19,Bulevardul Aurel Vlaicu,900055,44.1536756,28.6189592
27,Bulevardul Aurel Vlaicu,900055,44.1547247,28.6172532
35,Bulevardul Aurel Vlaicu,900055,44.1553862,28.6155174
17A,Bulevardul Aurel Vlaicu,900055,44.1528939,28.6199883
37,Bulevardul Aurel Vlaicu,900075,44.1557715,28.6155298
2,Strada Arcului,900004,44.1459565,28.6229474
4,Strada Arcului,900004,44.1463585,28.6228086
84C,Bulevardul Aurel Vlaicu,900055,44.1563854,28.6162494
23,Aleea Egretei,900140,44.1602462,28.6120111
41B,Bulevardul Aurel Vlaicu,900075,44.1563083,28.6149061
82A,Bulevardul Aurel Vlaicu,900055,44.1560615,28.6168903
114,Strada Soveja,900362,44.1874462,28.6229251
87,Strada Soveja,900544,44.1873344,28.6237067
114,Strada Soveja,900362,44.1878033,28.6230824
116,Strada Soveja,900362,44.1869921,28.6225724
49,Strada Barbu Ștefănescu Delavrancea,900346,44.1904554,28.6264069
75,Strada Soveja,900345,44.1910131,28.6249260
59,Strada Constantin Brâncuși,900356,44.1900691,28.6214650
57,Strada Constantin Brâncuși,900356,44.1895095,28.6212673
63,Strada Constantin Brâncuși,900356,44.1910211,28.6222534
61,Strada Constantin Brâncuși,900356,44.1905829,28.6216151
53B,Strada Dionisie cel Mic,900355,44.1916135,28.6226741
53,Strada Dionisie cel Mic,900363,44.1921153,28.6228133
53A,Strada Dionisie cel Mic,900355,44.1911797,28.6225800
94,Strada Soveja,900402,44.1955249,28.6234668
90,Strada Soveja,900440,44.1970889,28.6237606
7,Aleea Fragilor,900427,44.1995165,28.6181472
9,Aleea Fragilor,900427,44.1993536,28.6178488
2,Aleea Murelor,900427,44.1991205,28.6177169
5,Aleea Fragilor,900427,44.1997859,28.6182693
80,Strada Soveja,900440,44.1985287,28.6239871
20,Aleea Zmeurei,900433,44.2018190,28.6225034
86,Strada Soveja,900440,44.1973941,28.6234783
84,Strada Soveja,900440,44.1978713,28.6233530
277,Bulevardul Tomis,900382,44.1997073,28.6268552
2,Aleea Zmeurei,900439,44.2000890,28.6251515
88,Strada Soveja,900440,44.1972845,28.6229222
283,Bulevardul Tomis,900438,44.2006356,28.6257394
10,Aleea Zmeurei,900426,44.2012977,28.6237109
14,Aleea Zmeurei,900433,44.2016565,28.6233818
12,Aleea Zmeurei,900433,44.2014788,28.6239212
2B,Aleea Zmeurei,900439,44.2002014,28.6253230
6,Aleea Zmeurei,900439,44.2010839,28.6244199
41,Strada Soveja,900383,44.1995606,28.6263084
82,Strada Soveja,900440,44.1977972,28.6239888
2A,Aleea Zmeurei,900439,44.2005208,28.6252631
273,Bulevardul Tomis,900382,44.1991752,28.6267964
269,Bulevardul Tomis,900382,44.1986449,28.6280576
66,Strada Soveja,900462,44.2015921,28.6273189
68,Strada Soveja,900462,44.2011400,28.6267686
324A,Bulevardul Tomis,900433,44.2021156,28.6249648
66A,Strada Soveja,900462,44.2016218,28.6278285
68A,Strada Soveja,900462,44.2012374,28.6272486
64,Strada Soveja,900462,44.2020118,28.6278637
64A,Strada Soveja,900462,44.2019751,28.6283154
94,Bulevardul Alexandru Lăpușneanu,900605,44.1914893,28.6336810
22,Strada Partizanilor,900394,44.1938639,28.6316391
100,Bulevardul Alexandru Lăpușneanu,900605,44.1935278,28.6331635
98,Bulevardul Alexandru Lăpușneanu,900605,44.1929062,28.6332901
105,Bulevardul Alexandru Lăpușneanu,900396,44.1936538,28.6318922
104A,Bulevardul Alexandru Lăpușneanu,900648,44.1952813,28.6330719
104,Bulevardul Alexandru Lăpușneanu,900648,44.1950919,28.6327080
86,Bulevardul Alexandru Lăpușneanu,900605,44.1898256,28.6342285
13,Bulevardul Alexandru Lăpușneanu,900196,44.1836332,28.6349210
2,Strada Eliberării,900299,44.1770562,28.6228592
8,Strada Prieteniei,900303,44.1778945,28.6194595
7,Aleea Berzei,900255,44.1752803,28.6192597
11,Aleea Berzei,900211,44.1749734,28.6184848
5,Strada Prieteniei,900293,44.1774755,28.6189253
55C,Strada Ion Luca Caragiale,900247,44.1722185,28.6147658
2-4,Strada Bravilor,900255,44.1753880,28.6176399
"4, 14",Strada Ion Luca Caragiale,900284,44.1749326,28.6195200
4,Strada Prieteniei,900303,44.1773079,28.6191722
1,Strada Dreptății,900301,44.1783181,28.6214183
2,Strada Prieteniei,900303,44.1768649,28.6191665
1,Strada Eliberării,900292,44.1766686,28.6229936
32,Strada Dumitru Marinescu,900277,44.1775575,28.6214178
3,Strada Dreptății,900301,44.1785823,28.6202410
9,Aleea Berzei,900255,44.1751229,28.6188762
10,Strada Eliberării,900299,44.1767498,28.6203921
61,Strada Ion Luca Caragiale,900247,44.1725732,28.6156511
1,Strada Prieteniei,900293,44.1768348,28.6188309
5,Aleea Berzei,900255,44.1754266,28.6196335
8,Strada Eliberării,900299,44.1767797,28.6212574
6,Bulevardul Aurel Vlaicu,900055,44.1527204,28.6224859
62,Bulevardul Aurel Vlaicu,900055,44.1547299,28.6185020
52,Bulevardul Aurel Vlaicu,900055,44.1551010,28.6202386
13,Strada Progresului,900070,44.1473819,28.6202160
5,Strada Progresului,900070,44.1479700,28.6196880
3,Strada Progresului,900070,44.1482362,28.6194486
11,Strada Progresului,900070,44.1480047,28.6207199
1,Strada Progresului,900070,44.1484409,28.6191585
9,Strada Progresului,900070,44.1481854,28.6204076
5,Strada Badea Cârțan,900507,44.2018068,28.6189057
9,Strada Badea Cârțan,900507,44.2020696,28.6185284
17B,Strada Badea Cârțan,900507,44.2013467,28.6177330
15,Strada Badea Cârțan,900507,44.2021762,28.6179555
3,Strada Badea Cârțan,900427,44.2018501,28.6192872
7,Strada Badea Cârțan,900507,44.2017573,28.6185381
17A,Strada Badea Cârțan,900507,44.2016412,28.6179999
29,Strada Badea Cârțan,900507,44.2000798,28.6162015
13,Strada Badea Cârțan,900507,44.2023429,28.6184493
21,Strada Badea Cârțan,900507,44.2009372,28.6169523
7,Strada Adamclisi,900464,44.2039289,28.6250090
336,Bulevardul Tomis,900514,44.2049341,28.6210495
4,Strada Adamclisi,900455,44.2043125,28.6257725
6,Aleea Orhideelor,900513,44.2054761,28.6215289
4,Aleea Orhideelor,900513,44.2052272,28.6218175
19,Strada Cișmelei,900511,44.2063421,28.6234408
19,Strada Cișmelei,900511,44.2060135,28.6230748
21,Strada Cișmelei,900511,44.2055541,28.6235645
2,Aleea Orhideelor,900513,44.2050137,28.6221484
1A,Strada Suceava,900483,44.2058063,28.6247764
4,Strada Badea Cârțan,900507,44.2041437,28.6190266
20,Strada Cișmelei,900493,44.2072129,28.6218995
2,Aleea Hortensiei,900498,44.2069589,28.6184400
344,Bulevardul Tomis,900519,44.2072284,28.6172826
1,Aleea Hortensiei,900498,44.2070864,28.6178153
309,Bulevardul Tomis,900497,44.2056694,28.6179920
2,Strada Badea Cârțan,900507,44.2044574,28.6191293
1,Aleea Heracleea,900421,44.2039034,28.6287213
4,Aleea Nufărului,900487,44.2091383,28.6255266
3,Strada Suceava,900483,44.2073791,28.6254426
8,Strada Viitorului,900483,44.2069085,28.6236618
62,Strada Soveja,900420,44.2027191,28.6296003
3,Aleea Dealului,900482,44.2074273,28.6239870
163,Bulevardul Alexandru Lăpușneanu,900412,44.2007057,28.6303275
167,Bulevardul Alexandru Lăpușneanu,900412,44.2011750,28.6301420
1,Aleea Dealului,900482,44.2077604,28.6240479
6,Strada Viitorului,900483,44.2068376,28.6241133
4,Strada Viitorului,900483,44.2068724,28.6245260
2,Strada Viitorului,900483,44.2068536,28.6249266
163,Bulevardul Alexandru Lăpușneanu,900412,44.2005208,28.6300179
3,Aleea Brândușelor,900420,44.2016548,28.6332544
1,Aleea Brândușelor,900420,44.2015382,28.6320125
6,Aleea Brândușelor,900414,44.2016933,28.6344086
4,Aleea Brândușelor,900414,44.2016163,28.6340760
177A,Bulevardul Alexandru Lăpușneanu,900419,44.2065545,28.6289294
232,Bulevardul Tomis,900635,44.1950917,28.6357120
12,Strada Farului,900635,44.1949951,28.6371032
189,Bulevardul Alexandru Lăpușneanu,900489,44.2120072,28.6279964
230,Bulevardul Tomis,900635,44.1946130,28.6365766
18,Strada Cișmelei,900493,44.2077259,28.6222315
10,Aleea Hortensiei,900518,44.2101648,28.6197999
8,Strada Dispensarului,900478,44.2128162,28.6260519
2,Strada Dispensarului,900478,44.2133192,28.6272911
16,Aleea Hortensiei,900503,44.2115204,28.6216788
191,Bulevardul Alexandru Lăpușneanu,900489,44.2140644,28.6278321
195,Bulevardul Alexandru Lăpușneanu,900472,44.2151617,28.6277923
18,Aleea Hortensiei,900503,44.2118400,28.6225744
15,Aleea Hortensiei,900503,44.2117344,28.6213700
2,Aleea Melodiei,900478,44.2133284,28.6268773
14,Aleea Hortensiei,900503,44.2107356,28.6212431
6,Strada Dispensarului,900478,44.2128358,28.6264816
20,Aleea Hortensiei,900503,44.2126835,28.6233376
5,Aleea Căprioarei,900470,44.2141440,28.6254131
2,Aleea Căprioarei,900470,44.2143884,28.6257770
3,Aleea Căprioarei,900470,44.2138709,28.6250375
12,Strada Dispensarului,900469,44.2132664,28.6249771
282,Bulevardul Aurel Vlaicu,900498,44.2093090,28.6177656
11,Aleea Hortensiei,900518,44.2102835,28.6192583
2,Aleea Mălinului,900597,44.1872128,28.6405430
220,Bulevardul Tomis,900635,44.1931304,28.6384488
222,Bulevardul Tomis,900635,44.1936288,28.6379385
217,Bulevardul Tomis,900647,44.1937166,28.6364989
216,Bulevardul Tomis,900652,44.1918536,28.6397249
213,Bulevardul Tomis,900647,44.1926860,28.6378536
228,Bulevardul Tomis,900635,44.1943068,28.6368867
181,Strada Mircea cel Bătrân,900634,44.1935424,28.6386715
224,Bulevardul Tomis,900635,44.1938272,28.6374335
226,Bulevardul Tomis,900635,44.1942824,28.6375387
8,Strada Remus Opreanu,900734,44.1727448,28.6618136
10,Strada Remus Opreanu,900734,44.1727668,28.6626940
12,Strada Remus Opreanu,900734,44.1723991,28.6638816
10A,Strada Remus Opreanu,900734,44.1727232,28.6634877
53,Strada Traian,900725,44.1747668,28.6485500
12A,Strada Remus Opreanu,900734,44.1720264,28.6640769
35C,Strada Traian,900743,44.1759279,28.6527972
31,Strada Traian,900743,44.1750819,28.6536982
11-13,Strada Avram Iancu,900178,44.1736111,28.6384868
3,Bulevardul 1 Decembrie 1918,900711,44.1714376,28.6364913
114,Bulevardul Ferdinand,900709,44.1696310,28.6337101
110,Bulevardul Ferdinand,900709,44.1700421,28.6351205
108,Bulevardul Ferdinand,900709,44.1702449,28.6358188
106,Bulevardul Ferdinand,900709,44.1704635,28.6365010
2,Stradela Basarabi,900710,44.1719435,28.6355024
112,Bulevardul Ferdinand,900709,44.1698396,28.6344249
1,Bulevardul 1 Decembrie 1918,900711,44.1708098,28.6367047
87,Strada Nicolae Iorga,900587,44.1859759,28.6405851
22-24,Strada Călărași,900590,44.1846774,28.6434019
20Bis,Strada Nicolae Iorga,900612,44.1893781,28.6456124
141A,Bulevardul Tomis,900591,44.1857961,28.6435437
144A,Strada Mircea cel Bătrân,900642,44.1889603,28.6431466
24,Strada Nicolae Iorga,900612,44.1888893,28.6448400
24A,Strada Nicolae Iorga,900612,44.1886981,28.6443875
22,Strada Nicolae Iorga,900612,44.1891149,28.6453659
7,Aleea Stejarului,900643,44.1901908,28.6437847
152,Strada Mircea cel Bătrân,900627,44.1914756,28.6413739
91,Bulevardul Mamaia,900590,44.1879816,28.6499070
87,Bulevardul Mamaia,900590,44.1875166,28.6496075
68,Bulevardul Mamaia,900663,44.1876299,28.6509871
150A,Strada Mircea cel Bătrân,900627,44.1911726,28.6412890
60,Bulevardul Mamaia,900663,44.1860971,28.6485850
83,Bulevardul Mamaia,900590,44.1868858,28.6486271
79,Bulevardul Mamaia,900590,44.1863392,28.6475075
81,Bulevardul Mamaia,900590,44.1866234,28.6480692
64,Strada Traian,900716,44.1693777,28.6390963
66,Strada Traian,900716,44.1692440,28.6383450
88,Bulevardul Mamaia,900663,44.1889102,28.6512367
62,Strada Traian,900716,44.1703019,28.6395699
70,Strada Traian,900716,44.1696197,28.6387359
10,Bulevardul 1 Mai,900123,44.1642665,28.6323648
2,Bulevardul 1 Mai,900130,44.1667784,28.6337883
6,Bulevardul 1 Mai,900123,44.1653167,28.6330826
11,Șoseaua Mangaliei,900131,44.1644890,28.6318963
9,Șoseaua Mangaliei,900131,44.1646914,28.6316143
7,Șoseaua Mangaliei,900131,44.1651103,28.6318037
2,Strada Narciselor,900064,44.1472033,28.6186450
4,Strada Progresului,900064,44.1477841,28.6187341
33A,Bulevardul 1 Mai,900117,44.1570886,28.6315721
37,Bulevardul 1 Mai,900117,44.1558457,28.6304217
39,Bulevardul 1 Mai,900111,44.1550515,28.6298659
101,Șoseaua Mangaliei,900111,44.1532415,28.6287662
35,Bulevardul 1 Mai,900117,44.1561804,28.6306280
2,Strada Timonei,900118,44.1559512,28.6309546
10,Strada Timonei,900111,44.1545402,28.6296844
33,Bulevardul 1 Mai,900117,44.1566812,28.6310322
12,Strada Timonei,900111,44.1538961,28.6298374
33A,Bulevardul 1 Mai,900117,44.1564870,28.6314035
3,Strada Aurora,900119,44.1586774,28.6298784
6,Strada Aurora,900119,44.1586497,28.6310672
4,Aleea Romaniței,900132,44.1590172,28.6275360
2,Aleea Romaniței,900116,44.1593211,28.6278119
6,Aleea Romaniței,900132,44.1592287,28.6270866
72,Șoseaua Mangaliei,900116,44.1589644,28.6282937
6,Aleea Portului Nou,900125,44.1613880,28.6307399
63,Șoseaua Mangaliei,900131,44.1612421,28.6301693
67,Strada Traian,900716,44.1702775,28.6385903
1P,Strada Theodor Burada,900271,44.1701381,28.6323099
95A,Bulevardul Ferdinand,900717,44.1705226,28.6383678
116,Bulevardul Ferdinand,900160,44.1698349,28.6332673
18,Intrarea 1 Mai,900123,44.1619018,28.6335007
21,Bulevardul 1 Mai,900123,44.1624124,28.6325802
89,Bulevardul Ferdinand,900717,44.1716371,28.6400456
118,Bulevardul Ferdinand,900271,44.1698286,28.6324431
123,Strada Ștefan cel Mare,900705,44.1729261,28.6391818
19A-19B,Bulevardul 1 Mai,900123,44.1628496,28.6327449
17Bis,Bulevardul 1 Mai,900123,44.1631595,28.6330874
84,Bulevardul Ferdinand,900709,44.1730830,28.6405148
4,Aleea Lupeni,900720,44.1759209,28.6475303
33,Bulevardul Ferdinand,900721,44.1755086,28.6459227
50A,Bulevardul Ferdinand,900693,44.1760719,28.6462244
10,Aleea Lupeni,900720,44.1753038,28.6462802
2,Aleea Lupeni,900720,44.1761226,28.6479436
6,Aleea Lupeni,900720,44.1757380,28.6471473
82-84,Bulevardul Tomis,900657,44.1790546,28.6517499
8,Aleea Lupeni,900720,44.1755097,28.6467035
38,Strada Traian,900720,44.1746790,28.6447922
36,Strada Traian,900720,44.1748390,28.6454704
46A,Bulevardul Ferdinand,900693,44.1765485,28.6472086
33B,Bulevardul Ferdinand,900721,44.1756406,28.6461794
15,Strada Cuza Vodă,900659,44.1794491,28.6512161
55,Bulevardul Tomis,900725,44.1780438,28.6520424
30,Strada Traian,900725,44.1751575,28.6477588
15,Strada Ștefan cel Mare,900659,44.1803546,28.6510071
13-15,Strada Ecaterina Varga,900657,44.1775328,28.6538382
15,Strada Ion Bănescu,900669,44.1840878,28.6468736
141,Bulevardul Tomis,900591,44.1852596,28.6448327
2A,Șoseaua Industrială,900147,44.1611155,28.6037446
10,Strada Badea Cârțan,900507,44.2028868,28.6174461
32,Strada Ștefăniță Vodă,900402,44.2012127,28.6138357
31,Strada Badea Cârțan,900507,44.1997681,28.6160364
32,Strada Plantelor,900256,44.1732092,28.6089803
1,Strada Labirint,900710,44.1702978,28.6334520
8,Strada Mugurului,900012,44.1399790,28.6228398
185,Șoseaua Mangaliei,900082,44.1409449,28.6227328
10,Strada Pandurului,900082,44.1409397,28.6256183
187,Șoseaua Mangaliei,900082,44.1402065,28.6222691
171,Bulevardul Aurel Vlaicu,900330,44.1837553,28.5964740
23,Strada Nicolae Filimon,900328,44.1739474,28.6044343
82,Bulevardul Alexandru Lăpușneanu,900605,44.1889786,28.6346307
80,Bulevardul Alexandru Lăpușneanu,900605,44.1889992,28.6351371
70,Bulevardul Aurel Vlaicu,900055,44.1551174,28.6179023
28B,Strada Nicolae Iorga,900597,44.1872033,28.6410060
28C,Strada Nicolae Iorga,900597,44.1868432,28.6401353
45-47,Strada Zorelelor,900553,44.2052516,28.6468815
163C,Bulevardul Alexandru Lăpușneanu,900472,44.2017416,28.6303136
11,Strada Pescarilor,900533,44.2002123,28.6533521
193,Bulevardul Alexandru Lăpușneanu,900472,44.2147801,28.6276542
48,Strada Doctor Gheorghe Marinescu,900038,44.1550448,28.6110259
46,Strada Doctor Gheorghe Marinescu,900038,44.1547585,28.6116635
63,Strada Pescarilor,900581,44.2130044,28.6470848
112,Strada Unirii,900580,44.2121532,28.6466813
96-98,Strada Pescarilor,900581,44.2101031,28.6480307
77,Strada Unirii,900580,44.2122211,28.6455529
4,Aleea Remus,900190,44.1820466,28.6379662
9A,Strada Pandurului,900082,44.1395633,28.6268549
21A,Strada Pandurului,900082,44.1398006,28.6264870
6,Strada Mugurului,900012,44.1393935,28.6246744
38-40,Strada Theodor Speranția,900016,44.1399721,28.6251978
19,Strada Badea Cârțan,900507,44.2013100,28.6172482
18,Aleea Arcașului,900091,44.1393371,28.6335367
14,Aleea Arcașului,900091,44.1390876,28.6332349
5,Aleea Arcașului,900091,44.1396035,28.6332814
3,Aleea Arcașului,900091,44.1399287,28.6330281
7,Aleea Arcașului,900091,44.1400037,28.6335660
15,Strada Zefirului,900095,44.1403454,28.6293675
13,Strada Zefirului,900095,44.1403333,28.6298108
28,Strada Zefirului,900095,44.1407136,28.6300555
26,Strada Zefirului,900095,44.1407006,28.6305810
32,Strada Zefirului,900095,44.1408187,28.6291577
2,Aleea Lirei,900096,44.1415455,28.6310947
22,Strada Zefirului,900095,44.1412611,28.6290453
20,Strada Zefirului,900095,44.1411501,28.6294154
25,Strada Arhiepiscopiei,900732,44.1712888,28.6609960
1E,Strada Brizei,900088,44.1441471,28.6321541
23,Strada Unirii,900532,44.1999484,28.6504879
12,Strada Micșunelelor,900083,44.1409143,28.6270679
12,Strada Micșunelelor,900083,44.1411503,28.6264331
12,Strada Micșunelelor,900083,44.1408990,28.6263208
12,Strada Micșunelelor,900083,44.1406604,28.6270327
5,Strada Pescarilor,900533,44.1993273,28.6535673
2,Strada Cumpenei,900248,44.1693099,28.6117666
7,Strada Delfinului,900347,44.1933351,28.6306790
7,Strada Delfinului,900347,44.1931541,28.6307407
15A,Strada Partizanilor,900388,44.1929478,28.6312886
101,Strada Baba Novac,900366,44.1850947,28.6199049
35-35A,Strada Soveja,900420,44.2011068,28.6291520
165,Bulevardul Alexandru Lăpușneanu,900412,44.2006224,28.6292093
6,Strada Palas,900320,44.1684757,28.5881680
8,Strada Palas,900320,44.1679820,28.5882911
12,Strada Palas,900320,44.1669844,28.5885498
350,Bulevardul Tomis,900519,44.2083551,28.6168436
348,Bulevardul Tomis,900519,44.2080435,28.6167358
346,Bulevardul Tomis,900519,44.2077157,28.6167985
30,Strada Zorelelor,900546,44.2060537,28.6484966
57,Strada Ștefan cel Mare,900683,44.1773774,28.6461493
42,Strada Ștefan cel Mare,900683,44.1779366,28.6463011
44,Strada Ștefan cel Mare,900683,44.1774993,28.6455809
27,Strada Libertății,900526,44.1941656,28.6529854
29,Strada Libertății,900526,44.1940843,28.6534633
31,Strada Libertății,900526,44.1942751,28.6536485
220,Bulevardul Aurel Vlaicu,900498,44.1985688,28.6099801
108,Strada Mircea cel Bătrân,900653,44.1918730,28.6400123
311,Bulevardul Tomis,900497,44.2060389,28.6174205
313,Bulevardul Tomis,900497,44.2062389,28.6172722
315,Bulevardul Tomis,900497,44.2062319,28.6169342
317,Bulevardul Tomis,900497,44.2061533,28.6166476
357,Bulevardul Tomis,900497,44.2063089,28.6160007
319,Bulevardul Tomis,900497,44.2059605,28.6162371
321,Bulevardul Tomis,900497,44.2057908,28.6160149
323,Bulevardul Tomis,900497,44.2055578,28.6158633
325,Bulevardul Tomis,900497,44.2053975,28.6152704
305,Bulevardul Tomis,900497,44.2047025,28.6195113
307,Bulevardul Tomis,900497,44.2050059,28.6192196
307,Bulevardul Tomis,900497,44.2052354,28.6188515
307,Bulevardul Tomis,900497,44.2054738,28.6184632
4D,Strada Spiru Haret,900146,44.1639484,28.6080362
165,Bulevardul Alexandru Lăpușneanu,900412,44.2004851,28.6295094
86,Bulevardul Mamaia,900663,44.1883411,28.6514190
283,Bulevardul Mamaia,900552,44.2117868,28.6425159
32,Strada Farului,900607,44.1927604,28.6338847
1,Strada Ion Luca Caragiale,900167,44.1797535,28.6351529
5,Bulevardul 1 Decembrie 1918,900711,44.1720314,28.6363507
20,Strada Mihai Eminescu,900664,44.1849555,28.6529306
66,Strada Ștefan Mihăileanu,900191,44.1821014,28.6393657
331A,Bulevardul Mamaia,900552,44.2164233,28.6386983
255,Bulevardul Mamaia,900552,44.2069582,28.6429703
26,Strada Arhiepiscopiei,900732,44.1708719,28.6605581
32,Bulevardul Tomis,900742,44.1763793,28.6549507
255,Bulevardul Mamaia,900552,44.2049887,28.6439153
251-253,Bulevardul Mamaia,900559,44.2045922,28.6441967
243-245,Bulevardul Mamaia,900559,44.2041048,28.6444227
250,Bulevardul Mamaia,900546,44.2047243,28.6449261
67-69,Strada Zorelelor,900553,44.2048259,28.6452781
15,Strada Marcus Aurelius,900744,44.1752953,28.6580744
12,Piața Ovidiu,900745,44.1730939,28.6584651
2,Piața Ovidiu,900745,44.1744709,28.6585971
1,Strada Adrian Rădulescu,900745,44.1733476,28.6597437
9,Strada Cristea Georgescu,900733,44.1724088,28.6625930
7,Strada Maior Gheorghe Șonțu,900733,44.1726369,28.6611138
23,Strada Nicolae Titulescu,900735,44.1709875,28.6602187
24,Strada Arhiepiscopiei,900732,44.1710741,28.6605473
21,Strada Nicolae Titulescu,900735,44.1711500,28.6601785
19,Strada Nicolae Titulescu,900735,44.1713694,28.6601906
22,Strada Arhiepiscopiei,900732,44.1712924,28.6604533
20,Strada Arhiepiscopiei,900732,44.1714802,28.6603904
13,Strada Nicolae Titulescu,900735,44.1719237,28.6598904
1,Strada Gheorghe Dumitrașcu,900733,44.1728368,28.6592152
11,Strada Nicolae Titulescu,900735,44.1721395,28.6599040
7-9,Strada Nicolae Titulescu,900735,44.1724062,28.6597213
2,Strada C. A. Rosetti,900743,44.1745083,28.6567526
6,Strada Petru Rareș,900745,44.1742342,28.6566403
6,Strada Timonei,900111,44.1547382,28.6306269
168,Bulevardul Aurel Vlaicu,900330,44.1917953,28.5996768
33,Strada Ion Rațiu,900532,44.1968431,28.6490715
5,Strada Jiului,900534,44.1992967,28.6500031
22,Strada Decebal,900665,44.1839448,28.6497366
109,Strada Mircea cel Bătrân,900663,44.1835206,28.6485024
108,Strada Mircea cel Bătrân,900663,44.1851384,28.6488728
110,Strada Mircea cel Bătrân,900663,44.1839830,28.6490529
265,Bulevardul Aurel Vlaicu,900498,44.2000046,28.6063431
265,Bulevardul Aurel Vlaicu,900498,44.2002399,28.6058968
265,Bulevardul Aurel Vlaicu,900498,44.2004876,28.6054411
207,Bulevardul Aurel Vlaicu,900498,44.1926591,28.6004993
1,Aleea Căprioarei,900470,44.2138288,28.6244625
14,Strada Dispensarului,900469,44.2134462,28.6244223
77,Bulevardul Mamaia,900590,44.1861334,28.6470499
89,Bulevardul Mamaia,900590,44.1877439,28.6498230
102-102A,Strada Mircea cel Bătrân,900663,44.1823183,28.6512963
2,Strada Cuza Vodă,900463,44.1807030,28.6527812
17A,Bulevardul 1 Mai,900123,44.1630494,28.6338037
152,Bulevardul Mamaia,900534,44.1977212,28.6481643
8,Strada Badea Cârțan,900507,44.2030762,28.6177158
60,Strada Theodor Speranția,900007,44.1410394,28.6211720
144B,Strada Mircea cel Bătrân,900642,44.1893065,28.6428052
20,Strada George Enescu,900692,44.1779109,28.6455639
13,Strada George Enescu,900692,44.1777419,28.6453316
175A,Bulevardul Alexandru Lăpușneanu,900457,44.2057325,28.6292083
2A,Aleea Hortensiei,900498,44.2065148,28.6182572
10,Aleea Afinei,900508,44.2017303,28.6142400
25,Strada Badea Cârțan,900507,44.2003965,28.6168019
43,Bulevardul Aurel Vlaicu,900075,44.1556862,28.6139188
8,Strada Zorelelor,900546,44.2064819,28.6501443
23,Strada Ștefan cel Mare,900726,44.1793220,28.6494357
62,Strada Steagului,900365,44.1868075,28.6214411
73A,Strada Unirii,900553,44.2118190,28.6456098
13,Strada Amzacea,900259,44.1748922,28.6147649
13,Strada Amzacea,900259,44.1748112,28.6145165
129A,Strada Dezrobirii,900280,44.1793883,28.6171871
85,Bulevardul Mamaia,900663,44.1871501,28.6491506
49,Strada I. Gh. Duca,900189,44.1788067,28.6391756
12,Strada I. Gh. Duca,900697,44.1765151,28.6424273
5,Strada Negru Vodă,900658,44.1772083,28.6547517
3,Strada Negru Vodă,900658,44.1773172,28.6549778
56,Bulevardul Ferdinand,900693,44.1754759,28.6450574
1,Strada Pescarilor,900533,44.1988063,28.6536564
214,Bulevardul Mamaia,900540,44.2022835,28.6460900
21A - 21B,Strada Soveja,900544,44.2024221,28.6343338
10,Strada Ileana Cosânzeana,900415,44.2021597,28.6357257
87,Strada Străjerului,900218,44.1812523,28.6275627
80A,Șoseaua Mangaliei,900111,44.1519249,28.6272474
37,Bulevardul 1 Mai,900117,44.1555649,28.6302078
27,Strada Atelierelor,900703,44.1760333,28.6394469
39B-41,Strada Mircea cel Bătrân,900658,44.1776626,28.6546106
39,Strada Mircea cel Bătrân,900658,44.1773818,28.6553316
51,Strada Mihai Eminescu,900664,44.1874057,28.6524736
49,Strada Mihai Eminescu,900664,44.1872449,28.6524914
9A,Strada Căpitan Dobrilă Eugeniu,900502,44.2091138,28.6201394
2D,Strada Suceava,900456,44.2040241,28.6241982
18,Strada Ion Lahovari,900675,44.1792572,28.6474828
14-16,Strada Ștefan cel Mare,900726,44.1794161,28.6489495
90,Bulevardul Mamaia,900663,44.1892177,28.6513580
121bis,Strada Poporului,900205,44.1839624,28.6335949
21,Strada Cișmelei,900511,44.2053680,28.6245293
1B,Strada Suceava,900483,44.2062396,28.6250205
2,Strada Cașin,900546,44.2075603,28.6489085
2,Strada Cașin,900546,44.2078766,28.6490060
3,Strada Cașin,900546,44.2069625,28.6476819
4,Aleea Zmeurei,900439,44.2006209,28.6242871
8,Aleea Zmeurei,900426,44.2012230,28.6234185
16,Aleea Zmeurei,900433,44.2020949,28.6229861
18,Aleea Zmeurei,900433,44.2019610,28.6227389
10,Strada Prieteniei,900303,44.1784370,28.6195947
23,Strada Badea Cârțan,900507,44.2006643,28.6170617
11,Strada Badea Cârțan,900507,44.2021181,28.6189872
17,Strada Badea Cârțan,900507,44.2017845,28.6176516
10,Aleea Hortensiei,900518,44.2098092,28.6193139
46,Strada Doctor Gheorghe Marinescu,900038,44.1545062,28.6116241
46,Strada Doctor Gheorghe Marinescu,900038,44.1547743,28.6113013
4,Strada Aurora,900119,44.1586835,28.6306019
20,Strada Nicolae Iorga,900612,44.1892689,28.6460174
90,Strada Dumbrava Roșie,900613,44.1874092,28.6448475
1A,Strada Eliberării,900292,44.1769197,28.6243995
79,Strada Unirii,900580,44.2130074,28.6443569
77,Strada Unirii,900580,44.2126812,28.6452896
79,Strada Unirii,900580,44.2128747,28.6448586
77,Strada Unirii,900580,44.2125212,28.6454426
114,Strada Unirii,900580,44.2115368,28.6477405
114,Strada Unirii,900580,44.2116701,28.6478727
114,Strada Unirii,900580,44.2118998,28.6477221
114,Strada Unirii,900580,44.2115127,28.6474283
112A,Strada Unirii,900580,44.2122131,28.6472997
5,Strada Eliberării,900292,44.1765063,28.6184294
30,Strada Dumitru Marinescu,900277,44.1780621,28.6216578
36,Strada Maior Șofran,900554,44.2071838,28.6446579
36A,Strada Maior Șofran,900554,44.2070621,28.6446450
51,Strada Căiuți,900553,44.2057988,28.6462872
49,Strada Mircea cel Bătrân,900658,44.1790704,28.6534742
12,Bulevardul 1 Decembrie 1918,900183,44.1796879,28.6365106
1,Strada Grozești,900561,44.2039427,28.6483781
36,Strada Răchitași,900545,44.2052023,28.6476472
93,Șoseaua Mangaliei,900111,44.1550669,28.6288492
44,Strada I. Gh. Duca,900189,44.1799859,28.6383568
7,Strada Eliberării,900299,44.1765957,28.6195012
70,Strada Soveja,900440,44.2001447,28.6258817
281,Bulevardul Tomis,900438,44.2003658,28.6261006
30,Strada Zefirului,900095,44.1407465,28.6294891
7,Strada Dreptății,900295,44.1789488,28.6182323
210,Bulevardul Mamaia,900540,44.2019440,28.6462532
208,Bulevardul Mamaia,900540,44.2018214,28.6462839
4,Bulevardul 1 Mai,900123,44.1660928,28.6333812
38,Strada Zorelelor,900546,44.2058198,28.6476782
64,Șoseaua Mangaliei,900131,44.1623430,28.6297591
6,Aleea Albăstrelelor,900132,44.1616528,28.6282681
66,Bulevardul Ferdinand,900704,44.1747180,28.6435513
16A-16B,Bulevardul Mamaia,900673,44.1826990,28.6432776
16,Bulevardul Mamaia,900673,44.1825712,28.6430988
11,Strada Radu Calomfirescu,900627,44.1922751,28.6407222
152Bis,Strada Mircea cel Bătrân,900627,44.1920887,28.6403860
36,Strada Mihail Kogălniceanu,900659,44.1802629,28.6514321
149,Șoseaua Mangaliei,900111,44.1517973,28.6279393
99,Șoseaua Mangaliei,900111,44.1534440,28.6288580
6,Strada Păcii,900673,44.1830440,28.6439222
57,Strada Căiuți,900553,44.2057623,28.6458185
134,Bulevardul Mamaia,900527,44.1958115,28.6491569
65,Strada Căiuți,900553,44.2056106,28.6452823
32,Strada Muncel,900534,44.1994971,28.6520205
1,Strada Callatis,900744,44.1764570,28.6587452
9,Strada Mihai Eminescu,900664,44.1834509,28.6526342
215,Bulevardul Tomis,900647,44.1931956,28.6373262
3,Bulevardul Alexandru Lăpușneanu,900196,44.1821633,28.6340491
43,Strada Soveja,900383,44.1992662,28.6258727
275,Bulevardul Tomis,900382,44.1994479,28.6276630
265,Bulevardul Tomis,900382,44.1983479,28.6286748
88,Bulevardul Alexandru Lăpușneanu,900605,44.1901277,28.6345397
92A,Bulevardul Alexandru Lăpușneanu,900605,44.1909222,28.6342816
84,Bulevardul Alexandru Lăpușneanu,900605,44.1893597,28.6343324
61,Șoseaua Mangaliei,900131,44.1616364,28.6301725
84,Strada Unirii,900544,44.2052559,28.6479710
34,Strada Timișanei,900524,44.1959025,28.6485446
1,Strada Portului,900900,44.1611059,28.6424159
10B,Aleea Orhideelor,900503,44.2064609,28.6204341
2,Strada A.S. Pușkin,900664,44.1843048,28.6525375
2,Strada Ion Bănescu,900669,44.1832162,28.6484209
219,Bulevardul Tomis,900647,44.1940170,28.6357634
221,Bulevardul Tomis,900647,44.1942400,28.6357547
223,Bulevardul Tomis,900647,44.1942876,28.6353588
225,Bulevardul Tomis,900647,44.1946164,28.6350580
227,Bulevardul Tomis,900647,44.1947568,28.6346204
229,Bulevardul Tomis,900647,44.1950828,28.6343197
231,Bulevardul Tomis,900647,44.1952242,28.6338911
233,Bulevardul Tomis,900647,44.1955552,28.6335721
8,Strada Pictor Nicolae Grigorescu,900636,44.1999894,28.6360654
2,Bulevardul Tomis,900742,44.1749798,28.6575026
4,Bulevardul Tomis,900742,44.1750070,28.6573896
97,Strada Mircea cel Bătrân,900592,44.1826240,28.6495838
24,Strada Făgetului,900533,44.1992221,28.6529798
26,Strada Făgetului,900533,44.1991970,28.6528068
30,Strada Făgetului,900533,44.1990923,28.6525745
11,Strada Maior Șofran,900554,44.2072300,28.6454610
1,Strada Timișana,900524,44.1964625,28.6519089
13,Aleea Garofiței,900184,44.1775272,28.6367321
90A,Strada Soveja,900440,44.1968902,28.6231732
133-135,Bulevardul Aurel Vlaicu,900330,44.1740376,28.5942962
1,Șoseaua Mangaliei,900130,44.1670860,28.6332954
11,Strada Mihai Eminescu,900664,44.1836167,28.6525242
30,Strada Lacului,900415,44.2008541,28.6352636
12,Strada Muncel,900534,44.1999306,28.6536532
16,Strada Nicolae Iorga,900622,44.1898196,28.6472563
4,Strada Adamclisi,900455,44.2037378,28.6271520
15,Strada Pescarilor,900538,44.2008103,28.6530874
7,Strada Pescarilor,900533,44.1996485,28.6536099
1,Strada Ion Adam,900620,44.1895404,28.6467515
33,Strada Ion Adam,900620,44.1910776,28.6454030
51,Strada Ion Adam,900620,44.1920799,28.6445441
68,Bulevardul I. C. Brătianu,900263,44.1717106,28.6165607
22,Strada Pescarilor,900533,44.2001011,28.6540850
26,Strada Pescarilor,900552,44.2007844,28.6537606
18,Strada Pescarilor,900533,44.1994137,28.6544072
63A,Strada Primăverii,900415,44.2006423,28.6364302
144,Strada Făgetului,900654,44.1944690,28.6391292
142,Strada Făgetului,900654,44.1949148,28.6392727
68,Strada Unirii,900540,44.2022293,28.6499461
2,Strada Cișmelei,900493,44.2120006,28.6247336
15,Strada Decebal,900665,44.1839894,28.6507638
19,Strada Traian,900743,44.1747062,28.6553044
153,Bulevardul Tomis,900647,44.1900688,28.6395599
153,Bulevardul Tomis,900647,44.1903419,28.6401756
58,Strada Ion Vodă,900573,44.1940448,28.6462291
57,Șoseaua Mangaliei,900178,44.1627910,28.6307882
59,Șoseaua Mangaliei,900178,44.1623966,28.6308067
17,Strada Muncel,900534,44.1995726,28.6532371
22,Strada Făgetului,900533,44.1992584,28.6531124
20,Strada Făgetului,900533,44.1992817,28.6532365
19A,Strada Făgetului,900533,44.1988620,28.6525187
19A,Strada Făgetului,900533,44.1987805,28.6525449
4,Strada Frasinului,900534,44.1991859,28.6525338
13,Strada Pescarilor,900538,44.2004809,28.6530580
82,Bulevardul Ferdinand,900704,44.1733099,28.6411086
1,Strada Frasinului,900534,44.1991330,28.6521390
30,Strada Făgetului,900533,44.1990134,28.6522701
30,Strada Făgetului,900533,44.1989576,28.6521540
32,Strada Făgetului,900533,44.1989794,28.6519817
38,Strada Făgetului,900533,44.1988890,28.6517332
33,Strada Muncel,900534,44.1992282,28.6519552
35,Strada Muncel,900534,44.1991048,28.6517702
35B,Strada Muncel,900534,44.1991455,28.6518358
3,Aleea Capidava,900456,44.2057423,28.6270955
13,Strada Unirii,900524,44.1954049,28.6520036
11,Strada Unirii,900524,44.1953134,28.6519918
1,Strada Ion Vodă,900525,44.1955263,28.6519477
3,Strada Ion Vodă,900525,44.1954930,28.6518285
3A,Strada Ion Vodă,900525,44.1954747,28.6517662
3A,Strada Ion Vodă,900525,44.1954274,28.6516869
5,Strada Ion Vodă,900525,44.1954084,28.6515952
7A,Strada Ion Vodă,900525,44.1953546,28.6514802
7,Strada Ion Vodă,900525,44.1953070,28.6514000
9,Strada Ion Vodă,900525,44.1953168,28.6513234
9A,Strada Ion Vodă,900525,44.1952847,28.6512550
11,Strada Ion Vodă,900525,44.1953040,28.6511217
13,Strada Ion Vodă,900525,44.1952357,28.6509779
15,Strada Ion Vodă,900525,44.1952216,28.6508084
17,Strada Ion Vodă,900525,44.1951460,28.6506920
19,Strada Ion Vodă,900525,44.1950966,28.6505515
19A,Strada Ion Vodă,900525,44.1950402,28.6504993
21,Strada Ion Vodă,900525,44.1951044,28.6503666
21A,Strada Ion Vodă,900525,44.1950375,28.6503044
23,Strada Ion Vodă,900525,44.1950219,28.6502158
23A,Strada Ion Vodă,900525,44.1949669,28.6501289
23B,Strada Ion Vodă,900525,44.1950089,28.6500419
124-126,Bulevardul Mamaia,900527,44.1948762,28.6497505
318,Bulevardul Tomis,900412,44.2005485,28.6276231
4,Strada Zburătorului,900419,44.2016067,28.6297993
55A,Bulevardul Mamaia,900663,44.1834620,28.6437367
6,Strada Căpitan Dobrilă Eugeniu,900494,44.2078025,28.6212554
36,Strada Pescarilor,900559,44.2030020,28.6518439
32,Strada Pescarilor,900539,44.2021159,28.6523584
135,Bulevardul Mamaia,900663,44.1898550,28.6506725
92,Bulevardul Mamaia,900663,44.1892876,28.6522353
1,Strada Cireșilor,900340,44.1862850,28.6298682
145,Bulevardul Tomis,900591,44.1859380,28.6421444
149A,Bulevardul Tomis,900652,44.1883845,28.6420048
149,Bulevardul Tomis,900652,44.1885927,28.6414569
151,Bulevardul Tomis,900652,44.1892464,28.6409052
100,Bulevardul Ferdinand,900709,44.1712047,28.6380516
103,Șoseaua Mangaliei,900111,44.1560736,28.6290487
191,Bulevardul Aurel Vlaicu,900498,44.1889001,28.5985635
10,Strada Războieni,900900,44.2009908,28.6529052
2,Strada Ion Corvin,900160,44.1778408,28.6323074
16,Strada Adamclisi,900455,44.2045160,28.6247667
6-8,Aleea Brândușelor,900414,44.2018734,28.6347233
114,Bulevardul Alexandru Lăpușneanu,900419,44.2016788,28.6312382
27,Strada Soveja,900420,44.2023390,28.6325716
116,Bulevardul Alexandru Lăpușneanu,900419,44.2021723,28.6311669
1,Strada Griviței,900727,44.1801500,28.6491840
6,Șoseaua Industrială,900147,44.1614304,28.5945332
1F,Strada Brizei,900088,44.1444021,28.6320648
1D,Strada Brizei,900088,44.1438963,28.6321039
9Bis,Bulevardul I. C. Brătianu,900711,44.1720767,28.6333396
50,Bulevardul Mamaia,900663,44.1856335,28.6474390
4-6,Bulevardul Aurel Vlaicu,900055,44.1535867,28.6228644
3,Strada Pescarilor,900533,44.1990217,28.6537852
1,Strada Pescarilor,900533,44.1984057,28.6536313
1A,Strada Pescarilor,900533,44.1980657,28.6532008
50,Strada Ioan Borcea,900567,44.2006599,28.6446091
106,Strada Ion Luca Caragiale,900224,44.1718169,28.6117128
24,Strada Ioan Ursu,900057,44.1536564,28.6169859
18,Strada Meșterul Manole,900023,44.1435613,28.6130032
196,Șoseaua Mangaliei,900015,44.1394927,28.6209095
3,Aleea Melodiei,900478,44.2134993,28.6260615
15,Bulevardul Alexandru Lăpușneanu,900196,44.1849030,28.6345424
34,Strada Vifor Haiducul,900317,44.1668015,28.5817760
1,Strada Mihu Copilu,900317,44.1667673,28.5839982
86,Bulevardul Aurel Vlaicu,900137,44.1580333,28.6136415
1,Strada Școlii,900124,44.1666042,28.6333713
51A,Strada Ion Ursu,900057,44.1544290,28.6133907
11Bis,Bulevardul Ferdinand,900726,44.1766502,28.6487437
300,Bulevardul Mamaia,900581,44.2138530,28.6434570
304,Bulevardul Mamaia,900581,44.2146068,28.6440186
300,Bulevardul Mamaia,900581,44.2137954,28.6449801
1B,Strada Dragoslavele,900539,44.2024938,28.6513748
68,Strada Unirii,900540,44.2026321,28.6495397
33,Strada Pescarilor,900545,44.2077522,28.6495695
57,Strada Unirii,900553,44.2064343,28.6468530
66,Strada Pescarilor,900545,44.2084932,28.6488712
104,Strada Unirii,900544,44.2078874,28.6474328
32-34,Strada Unirii,900532,44.1975119,28.6524268
1,Strada Dobrogei,900532,44.1970032,28.6518988
43,Strada Unirii,900562,44.2037513,28.6484945
2A,Strada Onești,900560,44.2035735,28.6484618
2B,Strada Onești,900560,44.2035841,28.6485418
236,Bulevardul Mamaia,900546,44.2037603,28.6452777
238,Bulevardul Mamaia,900546,44.2039889,28.6452587
22F,Strada Unirii,900524,44.1968253,28.6539695
22E,Strada Unirii,900524,44.1963136,28.6539481
100,Strada Petru Vulcan,900628,44.1924817,28.6412749
98A,Strada Petru Vulcan,900628,44.1927151,28.6420896
218,Bulevardul Tomis,900647,44.1924323,28.6391318
140,Bulevardul Mamaia,900534,44.1968306,28.6487062
27,Bulevardul Mamaia,900189,44.1816265,28.6415949
17,Strada Gheorghe Lazăr,900699,44.1780410,28.6426346
48,Bulevardul Mamaia,900663,44.1855743,28.6473101
46,Bulevardul Mamaia,900663,44.1854977,28.6471730
13,Strada Soveja,900562,44.2040686,28.6427456
279,Bulevardul Tomis,900382,44.1999728,28.6268769
112,Bulevardul Tomis,900657,44.1831883,28.6475032
8,Strada Solidarității,900294,44.1783244,28.6184006
82,Strada Dezrobirii,900234,44.1811384,28.6178157
58,Bulevardul Mamaia,900663,44.1858976,28.6480541
52,Bulevardul Mamaia,900663,44.1857366,28.6475931
64,Bulevardul Mamaia,900663,44.1867321,28.6498106
62,Bulevardul Mamaia,900663,44.1864405,28.6491383
62,Bulevardul Mamaia,900663,44.1871595,28.6502036
75,Bulevardul Mamaia,900590,44.1859415,28.6464555
265,Bulevardul Aurel Vlaicu,900498,44.2010039,28.6044480
265A,Bulevardul Aurel Vlaicu,900498,44.2007576,28.6049241
64,Strada Doctor Gheorghe Marinescu,900038,44.1555404,28.6098966
79,Strada Bogdan Vodă,900613,44.1875441,28.6443134
115,Strada Enăchiță Văcărescu,900327,44.1753164,28.6016401
188A,Bulevardul Alexandru Lăpușneanu,900489,44.2140813,28.6293856
9,Piața Ovidiu,900745,44.1741344,28.6592591
193,Bulevardul Mamaia,900565,44.1994759,28.6461868
255,Bulevardul Mamaia,900552,44.2052378,28.6411682
14,Strada Nicolae Iorga,900622,44.1900948,28.6479133
55A,Strada Soveja,900402,44.1971894,28.6244759
13B,Strada Decebal,900665,44.1843829,28.6514457
1,Strada Bravilor,900270,44.1724200,28.6214413
68,Strada Răzoare,900340,44.1854350,28.6276854
96,Bulevardul Alexandru Lăpușneanu,900605,44.1923022,28.6334951
191,Bulevardul Alexandru Lăpușneanu,900489,44.2132919,28.6279070
126-126A,Strada Ștefan cel Mare,900178,44.1728763,28.6378664
128-128A,Strada Ștefan cel Mare,900178,44.1731212,28.6371860
1P,Strada Theodor Burada,900271,44.1703807,28.6322216
15,Strada Vasile Lupu,900614,44.1875458,28.6486576
15,Strada Vasile Lupu,900614,44.1874272,28.6487291
15,Strada Vasile Lupu,900614,44.1875106,28.6487213
7,Strada General Ioan Dragalina,900028,44.1311178,28.6143390
76,Strada Poporului,900205,44.1849481,28.6332376
10A,Aleea Orhideelor,900517,44.2063414,28.6203373
2,Strada General Constantin Hârjeu,900014,44.1351429,28.6115640
1b,Strada Dacia,900178,44.1818579,28.6479039
73,Strada Soveja,900345,44.1917608,28.6247863
69,Strada Soveja,900345,44.1925101,28.6246010
78,Strada Soveja,900440,44.1984834,28.6243726
76,Strada Soveja,900440,44.1988609,28.6246581
1,Strada Dumitru (Tache) Brumărescu,900330,44.1865953,28.5954089
248,Bulevardul I. C. Brătianu,900312,44.1687594,28.5684183
248,Bulevardul I. C. Brătianu,900312,44.1687903,28.5689219
248,Bulevardul I. C. Brătianu,900312,44.1688239,28.5694147
248,Bulevardul I. C. Brătianu,900312,44.1689146,28.5708348
248,Bulevardul I. C. Brătianu,900312,44.1688810,28.5703421
248,Bulevardul I. C. Brătianu,900312,44.1688501,28.5698384
248,Bulevardul I. C. Brătianu,900312,44.1689416,28.5713164
248,Bulevardul I. C. Brătianu,900312,44.1689724,28.5718200
248,Bulevardul I. C. Brătianu,900312,44.1690061,28.5723128
7,Strada General Ioan Dragalina,900028,44.1309780,28.6136478
7,Strada General Ioan Dragalina,900028,44.1308327,28.6129261
7,Strada General Ioan Dragalina,900028,44.1304011,28.6107920
7,Strada General Ioan Dragalina,900028,44.1305463,28.6115137
7,Strada General Ioan Dragalina,900028,44.1306862,28.6122049
1A,Strada Soveja,900553,44.2061740,28.6460982
1A,Strada Soveja,900553,44.2060184,28.6458612
21,Strada Soveja,900415,44.2023405,28.6340208
11A,Strada Pandurului,900082,44.1398032,28.6269694
9,Strada Micșunelelor,900083,44.1402486,28.6249805
29,Strada Traian,900743,44.1752078,28.6542861
33,Strada Traian,900743,44.1753685,28.6532183
17,Strada Cișmelei,900482,44.2071590,28.6231193
11,Strada Cișmelei,900476,44.2096281,28.6243825
187,Bulevardul Alexandru Lăpușneanu,900489,44.2107749,28.6281815
68,Strada Traian,900716,44.1687808,28.6380967
3,Strada Mărțișorului,900102,44.1427607,28.6287423
70,Strada Unirii,900562,44.2035856,28.6491316
1C,Strada Dragoslavele,900539,44.2029083,28.6502580
1,Strada Corbului,900273,44.1730094,28.6236278
108,Strada Unirii,900580,44.2094298,28.6470213
