House number,Street name,Postal code,Latitude,Longitude
1,Aleea Trandafirilor,905600,44.2468909,28.2680732
20,Strada Decebal,905600,44.2455370,28.2707260
7,Strada Republicii,905600,44.2468056,28.2696482
36,Strada Castanilor,905600,44.2453555,28.2896503
8,Strada Porumbeilor,905600,44.2584103,28.2682031
19,Strada Privighetorii,905600,44.2576611,28.2689418
9,Strada Lucian Grigorescu,905600,44.2576393,28.2648109
28,Strada Pescărușului,905600,44.2588604,28.2714220
59,Strada Dunării,905600,44.2579937,28.2716972
43,Strada Vasile Lupu,905600,44.2517407,28.2689491
21,Strada Stejarului,905600,44.2441586,28.2888603
27,Strada Pescărușului,905600,44.2590496,28.2712353
26,Strada Nufărului,905600,44.2565633,28.2694923
26,Strada Frasinului,905600,44.2444461,28.2890823
4,Strada Pescărușului,905600,44.2576101,28.2712570
27,Strada Lucian Grigorescu,905600,44.2575626,28.2670075
11,Strada Borcei,905600,44.2587493,28.2663678
18Bis,Strada Nufărului,905600,44.2558903,28.2694063
48,Strada Rândunelelor,905600,44.2589767,28.2729385
21,Strada Silozului,905600,44.2569186,28.2662970
17,Strada Dunării,905600,44.2581596,28.2678736
22,Strada Privighetorii,905600,44.2574910,28.2696524
20,Strada Rândunelelor,905600,44.2591165,28.2705946
32,Strada Luminii,905600,44.2565151,28.2701590
35,Strada Frasinului,905600,44.2446572,28.2896914
55,Strada Porumbeilor,905600,44.2582759,28.2725097
4,Strada Porumbeilor,905600,44.2584334,28.2679510
10,Strada Rândunelelor,905600,44.2591431,28.2699340
7A,Strada Theodor Aman,905600,44.2578220,28.2673163
16,Strada Alexandru cel Bun,905600,44.2545337,28.2671377
28,Strada Luminii,905600,44.2562323,28.2701731
28,Strada Ana Ipătescu,905600,44.2553598,28.2687876
5,Strada Alexandru Vlahuță,905600,44.2545299,28.2667223
28,Strada Dunării,905600,44.2579555,28.2686169
3F,Strada Libertății,905600,44.2555487,28.2704217
4A,Strada Borcei,905600,44.2589191,28.2669537
33,Strada Porumbeilor,905600,44.2584236,28.2705460
29,Strada Porumbeilor,905600,44.2584398,28.2702876
23,Strada Lucian Grigorescu,905600,44.2575623,28.2667069
44,Strada Rândunelelor,905600,44.2589872,28.2727246
15B,Strada Silozului,905600,44.2569384,28.2658700
34,Strada Dunării,905600,44.2579579,28.2689313
39,Strada Vasile Lupu,905600,44.2516756,28.2694446
14C,Strada Luminii,905600,44.2549172,28.2699733
12,Strada Privighetorii,905600,44.2575611,28.2683727
7,Strada Ioan Roman,905600,44.2549124,28.2710534
25,Strada Stejarului,905600,44.2441813,28.2891156
2,Strada Dunării,905600,44.2582037,28.2673092
32,Strada Pescărușului,905600,44.2590362,28.2714033
11,Strada Frasinului,905600,44.2445587,28.2881676
7,Strada Pescărușului,905600,44.2577982,28.2710906
1,Strada Rândunelelor,905600,44.2593356,28.2688026
8,Strada Constantin Dobrogeanu Gherea,905600,44.2547171,28.2680816
3A,Strada Peșterii,905600,44.2447716,28.2866782
21B,Strada Vasile Lupu,905600,44.2513344,28.2727659
8,Strada Borcei,905600,44.2588855,28.2666342
4,Strada Ana Ipătescu,905600,44.2537616,28.2686100
10,Strada Dunării,905600,44.2582128,28.2667347
58,Strada Cocorilor,905600,44.2595243,28.2732315
10,Strada Lucian Grigorescu,905600,44.2574802,28.2649501
34,Strada Pescărușului,905600,44.2592495,28.2714675
17,Strada Fagului,905600,44.2436791,28.2886328
22,Strada Lebedei,905600,44.2587417,28.2698295
22,Strada Cocorilor,905600,44.2596626,28.2705089
8,Strada Stejarului,905600,44.2439289,28.2879957
1,Strada Lebedei,905600,44.2589729,28.2679190
21,Strada Privighetorii,905600,44.2576113,28.2696661
11,Strada Alexandru cel Bun,905600,44.2543378,28.2670641
38,Strada Ana Ipătescu,905600,44.2561479,28.2689072
14A,Strada Vasile Lupu,905600,44.2516262,28.2720723
18,Strada Ana Ipătescu,905600,44.2546925,28.2687347
25,Strada Porumbeilor,905600,44.2584532,28.2700487
3,Strada Paltinului,905600,44.2451622,28.2865625
5A,Strada Viforului,905600,44.2539498,28.2670924
26,Strada Lucian Grigorescu,905600,44.2574114,28.2666357
36,Strada Pescărușului,905600,44.2592983,28.2714723
20,Strada Pinilor,905600,44.2448686,28.2886408
3,Strada Pinilor,905600,44.2449802,28.2876260
55,Strada Vasile Lupu,905600,44.2518213,28.2681501
31,Strada Cocorilor,905600,44.2597357,28.2710144
18,Strada Stejarului,905600,44.2439669,28.2886325
3,Strada Luminii,905600,44.2536290,28.2695880
23,Strada Frasinului,905600,44.2446116,28.2889179
1,Strada Moldovei,905600,44.2517513,28.2643632
9,Strada Porumbeilor,905600,44.2585342,28.2684206
14,Strada Berzei,905600,44.2571404,28.2684650
16,Strada Constantin Dobrogeanu Gherea,905600,44.2551925,28.2681388
34,Strada Porumbeilor,905600,44.2582942,28.2705851
21,Strada Lebedei,905600,44.2588676,28.2698120
45,Strada Silozului,905600,44.2568718,28.2682507
12,Strada Rândunelelor,905600,44.2591433,28.2701168
8B,Strada Alexandru cel Bun,905600,44.2539263,28.2675921
13,Strada Luminii,905600,44.2556957,28.2697994
9,Strada Vasile Lupu,905600,44.2511882,28.2741269
54,Strada Porumbeilor,905600,44.2581767,28.2724624
4,Strada Crinului,905600,44.2552372,28.2677160
5,Strada Dunării,905600,44.2580428,28.2668502
10,Strada Porumbeilor,905600,44.2584031,28.2683949
45C,Strada Dropiilor,905600,44.2598065,28.2694139
35,Strada Pescărușului,905600,44.2593066,28.2712578
3,Strada Ioan Roman,905600,44.2546523,28.2710405
17,Strada Cocorilor,905600,44.2597815,28.2703317
23,Strada Stejarului,905600,44.2441631,28.2889550
30,Strada Pescărușului,905600,44.2589859,28.2713994
13,Strada Cocorilor,905600,44.2598171,28.2699782
9,Strada Frasinului,905600,44.2445524,28.2880784
6,Strada Pescărușului,905600,44.2577525,28.2713168
10A,Strada Viforului,905600,44.2539830,28.2668813
19,Strada Ana Ipătescu,905600,44.2554997,28.2685951
30,Strada Lucian Grigorescu,905600,44.2574034,28.2669109
12,Strada Nufărului,905600,44.2543101,28.2692547
47,Strada Rândunelelor,905600,44.2591577,28.2725711
21C,Strada Vasile Lupu,905600,44.2513379,28.2717679
99,Strada Vasile Lupu,905600,44.2523315,28.2632585
1,Strada Zorilor,905600,44.2590085,28.2640321
32,Strada Rândunelelor,905600,44.2590301,28.2719766
23A,Strada Silozului,905600,44.2568786,28.2665419
26,Strada Vasile Lupu,905600,44.2524619,28.2637643
52,Strada Porumbeilor,905600,44.2581848,28.2722787
26,Strada Castanilor,905600,44.2453373,28.2889923
30,Strada Lebedei,905600,44.2587168,28.2703349
35,Strada Dropiilor,905600,44.2589768,28.2693025
46,Strada Lebedei,905600,44.2586159,28.2718053
23,Strada Fagului,905600,44.2437048,28.2889849
27,Strada Lebedei,905600,44.2588419,28.2701914
10,Strada Stejarului,905600,44.2439317,28.2881339
11,Strada Pescărușului,905600,44.2580719,28.2711082
47,Strada Silozului,905600,44.2568928,28.2684691
4,Strada Cocorilor,905600,44.2598665,28.2688782
5,Strada Pescărușului,905600,44.2577525,28.2710916
5,Strada Libertății,905600,44.2556742,28.2704102
4,Strada Berzei,905600,44.2571836,28.2678515
61,Bulevardul Independenței,905600,44.2581676,28.2629088
38,Strada Porumbeilor,905600,44.2582832,28.2707896
17,Strada Porumbeilor,905600,44.2585069,28.2689305
3,Strada Theodor Aman,905600,44.2573534,28.2672339
5,Strada Crinului,905600,44.2554541,28.2673774
27A,Strada Silozului,905600,44.2568850,28.2667402
37,Strada Dunării,905600,44.2580923,28.2691778
51,Strada Vasile Lupu,905600,44.2517969,28.2683630
26,Strada Rândunelelor,905600,44.2590945,28.2709293
5A,Strada Libertății,905600,44.2557667,28.2704058
3,Strada Dimitrie Cantemir,905600,44.2544459,28.2661307
22,Strada Theodor Aman,905600,44.2580034,28.2675854
28,Strada Castanilor,905600,44.2453447,28.2891110
23,Strada Pescărușului,905600,44.2588174,28.2712032
9,Strada Fagului,905600,44.2436581,28.2881274
23,Strada Luminii,905600,44.2563317,28.2698765
18,Strada Frasinului,905600,44.2444016,28.2885803
22,Strada Nufărului,905600,44.2562757,28.2694656
31,Strada Luminii,905600,44.2569084,28.2699245
4,Strada Alexandru Vlahuță,905600,44.2550574,28.2671397
9,Strada Crinului,905600,44.2557209,28.2671795
8,Strada Ana Ipătescu,905600,44.2540309,28.2686377
1A,Strada Libertății,905600,44.2535436,28.2702180
16,Strada Porumbeilor,905600,44.2583646,28.2687076
3,Strada Viforului,905600,44.2543187,28.2676475
22A,Strada Lucian Grigorescu,905600,44.2574228,28.2664045
34,Strada Pinilor,905600,44.2449259,28.2895553
63,Strada Dunării,905600,44.2579409,28.2719242
15,Strada Pinilor,905600,44.2450282,28.2883908
1,Strada Porumbeilor,905600,44.2585572,28.2678643
19,Strada Berzei,905600,44.2572762,28.2688672
5,Strada Lucian Grigorescu,905600,44.2576655,28.2643951
2B,Strada Teilor,905600,44.2447721,28.2872794
1B,Strada Licurici,905600,44.2533533,28.2695013
26,Strada Constantin Dobrogeanu Gherea,905600,44.2558922,28.2681822
12,Strada Viforului,905600,44.2538705,28.2667246
13,Strada Lebedei,905600,44.2589307,28.2687162
30,Strada Dunării,905600,44.2579562,28.2686830
5,Strada Ana Ipătescu,905600,44.2545477,28.2685165
7,Strada Cocorilor,905600,44.2599497,28.2691338
12,Strada Luminii,905600,44.2543292,28.2699428
37,Strada Silozului,905600,44.2568491,28.2676898
4B,Strada Nufărului,905600,44.2539419,28.2692214
5,Strada Frasinului,905600,44.2445406,28.2878048
7,Strada Luminii,905600,44.2544239,28.2696745
36,Strada Ana Ipătescu,905600,44.2559485,28.2688586
7,Strada Alexandru Vlahuță,905600,44.2543883,28.2664776
32,Strada Dunării,905600,44.2579399,28.2688413
12,Strada Pinilor,905600,44.2448400,28.2881544
8,Strada Lebedei,905600,44.2588305,28.2682554
97,Strada Vasile Lupu,905600,44.2523204,28.2633492
69,Strada Vasile Lupu,905600,44.2520063,28.2664319
33,Strada Cocorilor,905600,44.2597111,28.2717638
25,Strada Luminii,905600,44.2565119,28.2698805
16,Strada Stejarului,905600,44.2439581,28.2884828
31,Strada Frasinului,905600,44.2446517,28.2894068
28,Strada Pinilor,905600,44.2448968,28.2891557
4,Strada Pinilor,905600,44.2448068,28.2876320
9,Strada Berzei,905600,44.2572784,28.2682868
20,Strada Dropiilor,905600,44.2583300,28.2694961
39,Strada Rândunelelor,905600,44.2591892,28.2692638
45,Strada Dunării,905600,44.2580347,28.2702386
27,Strada Privighetorii,905600,44.2575924,28.2701173
85,Strada Vasile Lupu,905600,44.2522002,28.2646200
33,Strada Rândunelelor,905600,44.2592012,28.2718039
51,Strada Dunării,905600,44.2580191,28.2706037
5,Strada Nufărului,905600,44.2538212,28.2690393
10,Strada Privighetorii,905600,44.2575623,28.2683122
21,Strada Rândunelelor,905600,44.2592755,28.2705351
11,Strada Luminii,905600,44.2555280,28.2697707
31,Strada Dunării,905600,44.2581114,28.2687416
44,Strada Porumbeilor,905600,44.2582324,28.2717056
62,Strada Lebedei,905600,44.2585567,28.2729007
4,Strada Dimitrie Cantemir,905600,44.2544252,28.2659165
8,Strada Vasile Lupu,905600,44.2513838,28.2740540
3,Strada Dunării,905600,44.2580295,28.2669907
1,Strada Theodor Aman,905600,44.2569749,28.2672296
52,Strada Lebedei,905600,44.2586145,28.2722286
40,Strada Dropiilor,905600,44.2593604,28.2695960
25,Strada Fagului,905600,44.2437157,28.2891486
44,Strada Lebedei,905600,44.2586187,28.2717379
47,Strada Vasile Lupu,905600,44.2517691,28.2686531
2,Strada Stejarului,905600,44.2438972,28.2876176
22,Strada Alexandru cel Bun,905600,44.2549398,28.2667973
19,Strada Frasinului,905600,44.2445950,28.2886591
1,Strada Berzei,905600,44.2573050,28.2677856
27,Strada Porumbeilor,905600,44.2584538,28.2701040
30,Strada Porumbeilor,905600,44.2583040,28.2702553
25,Strada Lucian Grigorescu,905600,44.2575583,28.2668444
46,Strada Rândunelelor,905600,44.2589738,28.2727838
17A,Strada Silozului,905600,44.2569243,28.2660446
15,Strada Dunării,905600,44.2580964,28.2662033
16A,Strada Luminii,905600,44.2551601,28.2700346
16,Strada Privighetorii,905600,44.2575450,28.2686249
15,Strada Ioan Roman,905600,44.2554690,28.2711141
19,Strada Rândunelelor,905600,44.2592883,28.2703219
30,Strada Luminii,905600,44.2563194,28.2701794
2,Strada Porumbeilor,905600,44.2584342,28.2679018
15,Strada Rândunelelor,905600,44.2593040,28.2701347
6,Strada Theodor Aman,905600,44.2571856,28.2675094
12,Strada Castanilor,905600,44.2452852,28.2881142
45,Strada Lebedei,905600,44.2587401,28.2719637
1,Strada Privighetorii,905600,44.2577112,28.2677885
38,Strada Dropiilor,905600,44.2591458,28.2695677
4,Strada Lebedei,905600,44.2588386,28.2680508
5,Strada Cocorilor,905600,44.2599447,28.2689957
26,Strada Pescărușului,905600,44.2588079,28.2714139
10,Strada Frasinului,905600,44.2443770,28.2880739
49,Strada Silozului,905600,44.2569262,28.2686416
17B,Strada Nufărului,905600,44.2548354,28.2691465
17,Strada Alexandru cel Bun,905600,44.2549366,28.2665967
22,Strada Luminii,905600,44.2557831,28.2701134
13,Strada Crinului,905600,44.2547956,28.2677287
26,Strada Ana Ipătescu,905600,44.2552282,28.2687716
1B,Strada Libertății,905600,44.2539158,28.2701906
48,Strada Porumbeilor,905600,44.2582118,28.2719566
9,Strada Borcei,905600,44.2587460,28.2665053
8,Strada Viforului,905600,44.2543355,28.2674523
49,Strada Cocorilor,905600,44.2596497,28.2726372
45,Strada Cocorilor,905600,44.2596711,28.2724132
39,Strada Dunării,905600,44.2580320,28.2697698
19A,Strada Silozului,905600,44.2569185,28.2662286
37,Strada Frasinului,905600,44.2446778,28.2898680
12,Strada Libertății,905600,44.2552545,28.2705914
13,Strada Rândunelelor,905600,44.2593064,28.2700696
10,Strada Pinilor,905600,44.2448339,28.2880472
15,Strada Berzei,905600,44.2572627,28.2686523
18,Strada Constantin Dobrogeanu Gherea,905600,44.2554072,28.2681424
30,Strada Dropiilor,905600,44.2587437,28.2695840
19,Strada Fagului,905600,44.2436875,28.2887417
2A,Strada Vasile Lupu,905600,44.2513316,28.2750745
11,Strada Stejarului,905600,44.2441066,28.2882127
37,Strada Privighetorii,905600,44.2575511,28.2706672
23,Strada Privighetorii,905600,44.2576029,28.2698231
12,Strada Alexandru cel Bun,905600,44.2541381,28.2674286
24,Strada Luminii,905600,44.2559524,28.2701403
42,Strada Ana Ipătescu,905600,44.2564056,28.2690219
3A,Strada Libertății,905600,44.2547403,28.2702830
16,Strada Vasile Lupu,905600,44.2518013,28.2716028
58,Strada Lebedei,905600,44.2585839,28.2726764
23,Strada Pinilor,905600,44.2450503,28.2888826
49,Strada Dropiilor,905600,44.2600602,28.2694667
38,Strada Pescărușului,905600,44.2594649,28.2714704
17,Strada Libertății,905600,44.2570437,28.2704205
22,Strada Pinilor,905600,44.2448799,28.2887818
5,Strada Pinilor,905600,44.2449915,28.2877803
57,Strada Vasile Lupu,905600,44.2518433,28.2680135
32A,Strada Cocorilor,905600,44.2596215,28.2711823
20,Strada Stejarului,905600,44.2439738,28.2887798
31,Strada Nufărului,905600,44.2567032,28.2693143
25,Strada Frasinului,905600,44.2446209,28.2890619
16,Strada Berzei,905600,44.2571409,28.2687289
17,Strada Constantin Dobrogeanu Gherea,905600,44.2556347,28.2679764
35,Strada Dunării,905600,44.2580982,28.2689789
26,Strada Privighetorii,905600,44.2574764,28.2699150
53,Strada Rândunelelor,905600,44.2591479,28.2729267
1,Strada Frasinului,905600,44.2445116,28.2875652
14,Strada Rândunelelor,905600,44.2591424,28.2701827
10,Strada Alexandru cel Bun,905600,44.2551941,28.2664108
22,Strada Dunării,905600,44.2579623,28.2681660
42,Theodor Aman,905600,44.2590885,28.2676723
13,Strada Vasile Lupu,905600,44.2512149,28.2738278
49,Strada Porumbeilor,905600,44.2583046,28.2721887
27B,Strada Nufărului,905600,44.2563890,28.2692841
12,Strada Porumbeilor,905600,44.2584030,28.2684532
47,Strada Cocorilor,905600,44.2599501,28.2693442
36,Strada Lebedei,905600,44.2586894,28.2706408
56,Strada Cocorilor,905600,44.2595179,28.2730854
18,Strada Lucian Grigorescu,905600,44.2574350,28.2658228
40,Strada Pescărușului,905600,44.2595740,28.2715037
37,Strada Rândunelelor,905600,44.2591844,28.2720236
25,Strada Privighetorii,905600,44.2576026,28.2699579
34,Strada Rândunelelor,905600,44.2590306,28.2720517
34,Strada Cocorilor,905600,44.2595807,28.2717283
27,Strada Silozului,905600,44.2568752,28.2669408
28,Strada Vasile Lupu,905600,44.2525012,28.2633406
13,Strada Porumbeilor,905600,44.2585231,28.2686621
5,Strada Vasile Lupu,905600,44.2511180,28.2743735
30,Strada Castanilor,905600,44.2453490,28.2892444
50,Strada Lebedei,905600,44.2586202,28.2721606
37,Strada Dropiilor,905600,44.2590936,28.2693438
28,Strada Lebedei,905600,44.2587261,28.2701373
9A,Strada Silozului,905600,44.2569922,28.2647216
12,Strada Stejarului,905600,44.2439366,28.2882357
12,Strada Pescărușului,905600,44.2580595,28.2713368
51,Strada Silozului,905600,44.2569671,28.2687993
9,Strada Pescărușului,905600,44.2580012,28.2711064
5C,Strada Libertății,905600,44.2558417,28.2704559
6,Strada Berzei,905600,44.2571843,28.2680113
16,Strada Ana Ipătescu,905600,44.2545699,28.2687128
6,Strada Peșterii,905600,44.2447822,28.2869811
39A,Strada Porumbeilor,905600,44.2583761,28.2710831
20,Strada Porumbeilor,905600,44.2583523,28.2689586
1,Strada Viforului,905600,44.2544673,28.2678731
42,Strada Cocorilor,905600,44.2595650,28.2722990
7,Strada Crinului,905600,44.2556285,28.2672620
14C,Strada Nufărului,905600,44.2547768,28.2693060
7,Strada Silozului,905600,44.2569888,28.2644447
32,Strada Pinilor,905600,44.2449144,28.2893943
28,Strada Rândunelelor,905600,44.2590465,28.2717314
3,Strada Nufărului,905600,44.2536957,28.2690197
18B,Strada Libertății,905600,44.2560430,28.2706551
7,Strada Libertății,905600,44.2559683,28.2704379
5,Strada Dimitrie Cantemir,905600,44.2542633,28.2662206
5C,Strada Theodor Aman,905600,44.2580106,28.2673212
32,Strada Castanilor,905600,44.2453533,28.2893565
23A,Strada Pescărușului,905600,44.2588672,28.2712013
11,Strada Fagului,905600,44.2436649,28.2882442
3,Strada Stejarului,905600,44.2440745,28.2877127
60,Strada Dunării,905600,44.2577797,28.2717658
20,Strada Frasinului,905600,44.2444103,28.2886863
6A,Strada Alexandru cel Bun,905600,44.2537698,28.2677086
17,Strada Luminii,905600,44.2559654,28.2698220
6,Strada Alexandru Vlahuță,905600,44.2546707,28.2666502
10,Strada Peșterii,905600,44.2444626,28.2870865
11A,Strada Crinului,905600,44.2548870,28.2676837
10,Strada Ana Ipătescu,905600,44.2541748,28.2686458
2B,Strada Libertății,905600,44.2546011,28.2705146
57,Bulevardul Independenței,905600,44.2574872,28.2630440
19,Strada Porumbeilor,905600,44.2585042,28.2689812
20,Strada Lucian Grigorescu,905600,44.2574352,28.2661234
38,Strada Pinilor,905600,44.2449356,28.2898261
9,Strada Lebedei,905600,44.2589355,28.2684411
43,Strada Cocorilor,905600,44.2596788,28.2722950
30,Strada Stejarului,905600,44.2440257,28.2894039
29,Strada Frasinului,905600,44.2446400,28.2893076
17,Strada Pinilor,905600,44.2450352,28.2885300
3,Strada Porumbeilor,905600,44.2585522,28.2679994
5,Strada Rândunelelor,905600,44.2593198,28.2690383
4,Strada Castanilor,905600,44.2452448,28.2876208
22,Strada Lucian Grigorescu,905600,44.2574287,28.2662615
2A,Strada Licurici,905600,44.2533609,28.2692459
16A,Strada Constantin Dobrogeanu Gherea,905600,44.2552724,28.2681375
19,Strada Dropiilor,905600,44.2585719,28.2692959
15,Strada Lebedei,905600,44.2589286,28.2687750
7,Strada Constantin Dobrogeanu Gherea,905600,44.2539196,28.2681304
14,Strada Luminii,905600,44.2550158,28.2699797
7,Strada Frasinului,905600,44.2445467,28.2879054
8,Strada Luminii,905600,44.2540153,28.2699158
22,Strada Vasile Lupu,905600,44.2524129,28.2642125
10,Strada Borcei,905600,44.2589224,28.2665033
6,Strada Ana Ipătescu,905600,44.2539055,28.2686181
24,Strada Nufărului,905600,44.2564191,28.2694862
1A,Strada Paltinului,905600,44.2451897,28.2868521
13,Strada Privighetorii,905600,44.2576755,28.2685791
13,Strada Lucian Grigorescu,905600,44.2575924,28.2659820
19,Strada Pescărușului,905600,44.2584741,28.2711365
14,Strada Cocorilor,905600,44.2596969,28.2700948
1,Strada Pinilor,905600,44.2449778,28.2875161
55,Strada Dunării,905600,44.2579962,28.2709096
79,Strada Vasile Lupu,905600,44.2520914,28.2656725
24,Strada Cocorilor,905600,44.2596602,28.2705798
30,Strada Cocorilor,905600,44.2596204,28.2709167
17,Strada Stejarului,905600,44.2441393,28.2885962
34,Strada Frasinului,905600,44.2444800,28.2895674
6,Strada Pinilor,905600,44.2448189,28.2877981
11,Strada Berzei,905600,44.2572768,28.2683509
24,Strada Dropiilor,905600,44.2585017,28.2695205
41,Strada Rândunelelor,905600,44.2591774,28.2722060
29,Strada Privighetorii,905600,44.2575902,28.2702522
89,Strada Vasile Lupu,905600,44.2522511,28.2640583
35,Strada Rândunelelor,905600,44.2591865,28.2719449
53,Strada Dunării,905600,44.2580032,28.2707605
34,Strada Silozului,905600,44.2568364,28.2690712
23,Strada Rândunelelor,905600,44.2592565,28.2707492
14A,Strada Luminii,905600,44.2547628,28.2699425
7,Strada Dunării,905600,44.2580697,28.2667136
12,Strada Theodor Aman,905600,44.2575044,28.2675407
46,Strada Porumbeilor,905600,44.2582111,28.2718983
6,Strada Dimitrie Cantemir,905600,44.2543068,28.2659600
14,Strada Castanilor,905600,44.2452981,28.2882487
1,Strada Ana Ipătescu,905600,44.2538367,28.2684444
2,Strada Theodor Aman,905600,44.2570552,28.2674813
39,Strada Lebedei,905600,44.2587994,28.2708813
16,Strada Pescărușului,905600,44.2582505,28.2713604
45A,Strada Dropiilor,905600,44.2596274,28.2693787
61,Strada Dunării,905600,44.2579437,28.2718601
1,Strada Ioan Roman,905600,44.2545438,28.2710317
6,Strada Fagului,905600,44.2434957,28.2887476
4,Strada Stejarului,905600,44.2439046,28.2877289
11,Strada Dunării,905600,44.2580742,28.2664084
18A,Strada Nufărului,905600,44.2557199,28.2693842
21,Strada Frasinului,905600,44.2446055,28.2888239
49,Strada Rândunelelor,905600,44.2591572,28.2726307
16,Strada Castanilor,905600,44.2453052,28.2883586
9,Strada Privighetorii,905600,44.2576804,28.2683370
42,Strada Dropiilor,905600,44.2594151,28.2696027
32,Strada Lebedei,905600,44.2587127,28.2703990
8,Strada Cocorilor,905600,44.2598586,28.2691198
6,Strada Lebedei,905600,44.2588311,28.2682033
12,Strada Frasinului,905600,44.2443820,28.2881877
53,Strada Silozului,905600,44.2569883,28.2689480
19,Strada Alexandru cel Bun,905600,44.2550563,28.2665032
13,Strada Ana Ipătescu,905600,44.2550960,28.2685473
1C,Strada Libertății,905600,44.2540163,28.2701991
39,Strada Independenței,905600,44.2561225,28.2624919
9A,Strada Viforului,905600,44.2537780,28.2668071
1,Strada Lucian Grigorescu,905600,44.2576753,28.2640574
12,Strada Lucian Grigorescu,905600,44.2574685,28.2651431
10,Strada Nufărului,905600,44.2541573,28.2692461
15A,Strada Silozului,905600,44.2569376,28.2657895
41,Strada Dunării,905600,44.2580535,28.2699415
21A,Strada Silozului,905600,44.2569151,28.2663756
12,Strada Dunării,905600,44.2583008,28.2665093
2,Fundătura Ilie Dinca,905600,44.2518747,28.2668605
17,Strada Berzei,905600,44.2572520,28.2687896
20,Strada Constantin Dobrogeanu Gherea,905600,44.2555311,28.2681602
65,Bulevardul Independenței,905600,44.2596269,28.2626091
21,Strada Fagului,905600,44.2436987,28.2888844
83,Strada Vasile Lupu,905600,44.2521181,28.2653734
14,Strada Lebedei,905600,44.2588167,28.2687057
3,Strada Vasile Lupu,905600,44.2511700,28.2747522
13,Strada Stejarului,905600,44.2441217,28.2883559
39,Strada Silozului,905600,44.2568417,28.2678591
14,Strada Alexandru cel Bun,905600,44.2543859,28.2672672
46,Strada Ana Ipătescu,905600,44.2567172,28.2689748
3,Strada Alexandru Vlahuță,905600,44.2546524,28.2668107
25,Strada Dunării,905600,44.2581145,28.2684063
3C,Strada Libertății,905600,44.2550283,28.2702888
17,Strada Vasile Lupu,905600,44.2512402,28.2735437
3,Strada Borcei,905600,44.2587089,28.2670617
4,Strada Dunării,905600,44.2582166,28.2671506
60,Strada Lebedei,905600,44.2585767,28.2727494
1,Strada Borcei,905600,44.2587116,28.2673822
15,Strada Porumbeilor,905600,44.2585192,28.2687210
4,Strada Lucian Grigorescu,905600,44.2575044,28.2644283
12A,Strada Libertății,905600,44.2553700,28.2705796
1A,Strada Theodor Aman,905600,44.2572260,28.2672729
24,Strada Pinilor,905600,44.2448854,28.2888884
7,Strada Pinilor,905600,44.2449979,28.2878815
3,Strada Silozului,905600,44.2570307,28.2639335
11,Strada Lebedei,905600,44.2589353,28.2685152
28,Strada Cocorilor,905600,44.2596281,28.2707893
38A,Strada Luminii,905600,44.2570086,28.2701741
22,Strada Stejarului,905600,44.2439841,28.2888835
5,Strada Luminii,905600,44.2539964,28.2696611
27,Strada Frasinului,905600,44.2446273,28.2891499
25,Strada Pinilor,905600,44.2450635,28.2890118
3,Strada Berzei,905600,44.2573017,28.2678440
28,Strada Privighetorii,905600,44.2574677,28.2700648
73,Strada Vasile Lupu,905600,44.2520438,28.2660707
57,Strada Rândunelelor,905600,44.2591176,28.2732838
65,Strada Dunării,905600,44.2579322,28.2720577
13,Strada Nufărului,905600,44.2544231,28.2690857
3,Strada Frasinului,905600,44.2445267,28.2876663
16,Strada Rândunelelor,905600,44.2591341,28.2703466
24,Strada Dunării,905600,44.2579686,28.2683541
2,Strada Lucian Grigorescu,905600,44.2575131,28.2641243
1,Strada Nufărului,905600,44.2536058,28.2690146
38,Strada Lebedei,905600,44.2586883,28.2708146
65,Strada Vasile Lupu,905600,44.2519057,28.2674158
7B,Strada Ioan Roman,905600,44.2551080,28.2710817
21,Strada Cocorilor,905600,44.2597625,28.2705200
27,Strada Stejarului,905600,44.2441881,28.2892221
9,Strada Cocorilor,905600,44.2598251,28.2697031
29,Strada Nufărului,905600,44.2565504,28.2693057
13,Strada Frasinului,905600,44.2445709,28.2883076
13,Strada Pinilor,905600,44.2450225,28.2882725
10,Strada Pescărușului,905600,44.2580032,28.2713376
2,Strada Rândunelelor,905600,44.2592189,28.2688633
11,Strada Constantin Dobrogeanu Gherea,905600,44.2540930,28.2680524
19,Strada Lucian Grigorescu,905600,44.2575811,28.2663697
14B,Strada Nufărului,905600,44.2549382,28.2693277
40,Strada Rândunelelor,905600,44.2590127,28.2724797
13B,Strada Silozului,905600,44.2569653,28.2653029
4,Strada Privighetorii,905600,44.2575807,28.2679183
51,Strada Cocorilor,905600,44.2596412,28.2728584
67C,Strada Vasile Lupu,905600,44.2519439,28.2666193
29,Strada Silozului,905600,44.2568828,28.2670342
4,Strada Nufărului,905600,44.2536633,28.2692058
1,Strada Vasile Lupu,905600,44.2511599,28.2752643
34,Strada Castanilor,905600,44.2453591,28.2895046
32,Strada Dropiilor,905600,44.2588932,28.2695500
14,Strada Pinilor,905600,44.2448493,28.2882889
23,Strada Cocorilor,905600,44.2597558,28.2705972
2,Strada Fagului,905600,44.2434626,28.2884260
14,Strada Stejarului,905600,44.2439525,28.2883658
13,Strada Pescărușului,905600,44.2581923,28.2711439
55,Strada Silozului,905600,44.2569987,28.2690814
27,Strada Nufărului,905600,44.2562182,28.2692745
11A,Strada Alexandru cel Bun,905600,44.2544396,28.2669696
6,Strada Libertății,905600,44.2548880,28.2705366
8,Strada Berzei,905600,44.2571841,28.2680755
20,Strada Ana Ipătescu,905600,44.2548199,28.2687435
41,Strada Porumbeilor,905600,44.2583378,28.2716565
4,Strada Borcei,905600,44.2588575,28.2671041
2,Strada Viforului,905600,44.2545781,28.2677791
44,Strada Cocorilor,905600,44.2595606,28.2723781
16A,Strada Nufărului,905600,44.2553423,28.2693629
11,Strada Silozului,905600,44.2569743,28.2649331
36,Strada Pinilor,905600,44.2449278,28.2896710
52,Strada Cocorilor,905600,44.2595211,28.2728145
59,Strada Vasile Lupu,905600,44.2518563,28.2678765
28,Strada Stejarului,905600,44.2440137,28.2892849
8,Strada Libertății,905600,44.2550507,28.2705637
7,Strada Dimitrie Cantemir,905600,44.2540701,28.2663601
8,Strada Teilor,905600,44.2438332,28.2873640
6,Strada Rândunelelor,905600,44.2591904,28.2690595
25,Strada Constantin Dobrogeanu Gherea,905600,44.2562733,28.2679998
13,Strada Fagului,905600,44.2436598,28.2883687
19,Strada Cocorilor,905600,44.2597788,28.2703985
5Bis,Strada Zorilor,905600,44.2590076,28.2646835
5,Strada Stejarului,905600,44.2440952,28.2878734
22,Strada Frasinului,905600,44.2444235,28.2888301
8A,Strada Alexandru cel Bun,905600,44.2538428,28.2676751
30,Strada Ana Ipătescu,905600,44.2554994,28.2688127
6B,Strada Alexandru Vlahuță,905600,44.2545690,28.2664940
12,Strada Ana Ipătescu,905600,44.2543002,28.2686654
3B,Strada Libertății,905600,44.2548669,28.2703038
21,Strada Porumbeilor,905600,44.2584612,28.2697826
18,Strada Privighetorii,905600,44.2575346,28.2688134
21,Strada Lucian Grigorescu,905600,44.2575682,28.2665067
16,Strada Pinilor,905600,44.2448543,28.2884004
4A,Strada Nufărului,905600,44.2537981,28.2692134
10,Strada Lebedei,905600,44.2588273,28.2684576
38,Strada Cocorilor,905600,44.2595715,28.2719423
32,Strada Frasinului,905600,44.2444713,28.2894386
20,Strada Libertății,905600,44.2561193,28.2706643
19,Strada Pinilor,905600,44.2450413,28.2886358
5,Strada Porumbeilor,905600,44.2585322,28.2681467
53,Strada Vasile Lupu,905600,44.2518094,28.2682496
7,Strada Rândunelelor,905600,44.2593108,28.2692468
8,Strada Castanilor,905600,44.2452650,28.2878633
2B,Strada Licurici,905600,44.2533557,28.2693550
12,Strada Constantin Dobrogeanu Gherea,905600,44.2549495,28.2680996
21,Strada Dropiilor,905600,44.2582861,28.2692353
34A,Strada Dunării,905600,44.2579483,28.2690900
10,Strada Constantin Dobrogeanu Gherea,905600,44.2548626,28.2680941
40,Strada Pinilor,905600,44.2449462,28.2899445
15,Strada Cocorilor,905600,44.2598045,28.2701028
14B,Strada Luminii,905600,44.2548285,28.2700062
55A,Strada Dunării,905600,44.2580026,28.2708166
8,Strada Frasinului,905600,44.2443615,28.2879321
5,Strada Alexandru cel Bun,905600,44.2537947,28.2674720
10,Strada Luminii,905600,44.2542389,28.2699403
23,Strada Dunării,905600,44.2581501,28.2681645
4,Strada Vasile Lupu,905600,44.2513445,28.2743236
50,Strada Porumbeilor,905600,44.2581899,28.2721573
12,Strada Borcei,905600,44.2589389,28.2663680
9,Strada Ana Ipătescu,905600,44.2548173,28.2685317
14,Strada Dunării,905600,44.2582988,28.2663858
45,Strada Porumbeilor,905600,44.2583340,28.2717488
23C,Strada Nufărului,905600,44.2554912,28.2691959
6,Strada Porumbeilor,905600,44.2584120,28.2681447
81,Strada Vasile Lupu,905600,44.2521152,28.2654735
17,Strada Privighetorii,905600,44.2576675,28.2688454
15,Strada Lucian Grigorescu,905600,44.2575939,28.2660583
22,Strada Pescărușului,905600,44.2585789,28.2714067
71,Strada Vasile Lupu,905600,44.2520297,28.2662453
26,Strada Cocorilor,905600,44.2596281,28.2707172
19,Strada Stejarului,905600,44.2441450,28.2887093
36,Strada Frasinului,905600,44.2445079,28.2898445
8,Strada Pinilor,905600,44.2448226,28.2879048
26,Strada Dropiilor,905600,44.2585569,28.2694957
43,Strada Rândunelelor,905600,44.2591696,28.2723780
47,Strada Dunării,905600,44.2580336,28.2703162
19,Strada Vasile Lupu,905600,44.2512633,28.2734047
6,Strada Luminii,905600,44.2539361,28.2699077
31,Strada Privighetorii,905600,44.2575825,28.2704073
93,Strada Vasile Lupu,905600,44.2522961,28.2636037
29,Strada Rândunelelor,905600,44.2592530,28.2709612
41,Strada Cocorilor,905600,44.2596847,28.2721972
36,Strada Silozului,905600,44.2568503,28.2692098
11,Strada Nufărului,905600,44.2542879,28.2690906
22A,Strada Vasile Lupu,905600,44.2523873,28.2644741
25,Strada Rândunelelor,905600,44.2592546,28.2706836
8,Strada Fântânele,905600,44.2581361,28.2648838
1,Strada Alexandru Vlahuță,905600,44.2550472,28.2674091
9,Strada Dunării,905600,44.2580852,28.2665650
8A,Strada Dimitrie Cantemir,905600,44.2540407,28.2661329
18,Strada Castanilor,905600,44.2453142,28.2884907
4,Strada Theodor Aman,905600,44.2571380,28.2675052
46,Strada Dropiilor,905600,44.2600229,28.2696333
48,Strada Lebedei,905600,44.2586277,28.2719839
5,Strada Ioan Roman,905600,44.2548204,28.2710506
7,Strada Stejarului,905600,44.2441009,28.2879728
14,Strada Pescărușului,905600,44.2581520,28.2713519
1,Strada Pescărușului,905600,44.2575642,28.2710341
21,Strada Ana Ipătescu,905600,44.2557690,28.2686228
47,Strada Independenței,905600,44.2558087,28.2627918
51,Strada Rândunelelor,905600,44.2591518,28.2727511
27A,Strada Nufărului,905600,44.2561294,28.2692740
7,Strada Viforului,905600,44.2538719,28.2669740
32,Strada Porumbeilor,905600,44.2583018,28.2703229
20,Strada Nufărului,905600,44.2560157,28.2694259
50,Strada Rândunelelor,905600,44.2588897,28.2730577
23,Strada Silozului,905600,44.2569112,28.2664596
19,Strada Dunării,905600,44.2581580,28.2679282
24,Strada Privighetorii,905600,44.2574828,28.2698045
22,Strada Rândunelelor,905600,44.2591393,28.2706661
33,Strada Silozului,905600,44.2568605,28.2674527
36,Strada Luminii,905600,44.2567533,28.2701859
10,Strada Theodor Aman,905600,44.2574041,28.2675151
20,Strada Castanilor,905600,44.2453186,28.2886004
11,Strada Privighetorii,905600,44.2576779,28.2684019
17,Strada Lebedei,905600,44.2589183,28.2689616
16,Strada Cocorilor,905600,44.2596969,28.2701733
10,Strada Cocorilor,905600,44.2597008,28.2698955
19,Strada Luminii,905600,44.2560727,28.2698304
14,Strada Frasinului,905600,44.2443890,28.2883427
27,Strada Luminii,905600,44.2566606,28.2699102
1A,Strada Alexandru Vlahuță,905600,44.2549556,28.2672735
6A,Strada Crinului,905600,44.2553555,28.2676725
1F,Strada Libertății,905600,44.2545532,28.2702570
41,Strada Independenței,905600,44.2567598,28.2624531
40,Strada Porumbeilor,905600,44.2582795,28.2708545
4B,Strada Lucian Grigorescu,905600,44.2575008,28.2644979
14,Strada Lucian Grigorescu,905600,44.2574387,28.2653845
37,Strada Pescărușului,905600,44.2594375,28.2712779
15C,Strada Silozului,905600,44.2569320,28.2659393
26,Strada Lebedei,905600,44.2587293,28.2700738
37,Strada Cocorilor,905600,44.2596913,28.2719799
13,Strada Dunării,905600,44.2580804,28.2662689
11,Strada Porumbeilor,905600,44.2585315,28.2684845
2,Strada Castanilor,905600,44.2452405,28.2874983
22,Strada Constantin Dobrogeanu Gherea,905600,44.2556731,28.2681710
9,Strada Viforului,905600,44.2538254,28.2668937
16,Strada Lebedei,905600,44.2588142,28.2687662
9,Strada Silozului,905600,44.2570057,28.2646019
5,Strada Lebedei,905600,44.2589554,28.2681695
101,Strada Vasile Lupu,905600,44.2523475,28.2631342
15,Strada Stejarului,905600,44.2441257,28.2884452
7,Strada Lebedei,905600,44.2589457,28.2683205
2,Strada Frasinului,905600,44.2443451,28.2875770
6,Strada Dunării,905600,44.2582112,28.2669939
1,Strada Cocorilor,905600,44.2599567,28.2687474
19,Strada Nufărului,905600,44.2549527,28.2691406
6,Strada Lucian Grigorescu,905600,44.2574900,28.2645576
14,Strada Libertății,905600,44.2554591,28.2706950
31,Strada Pinilor,905600,44.2450885,28.2893889
9,Strada Pinilor,905600,44.2450068,28.2880273
5,Strada Silozului,905600,44.2569925,28.2643197
87,Strada Vasile Lupu,905600,44.2521538,28.2643965
61,Strada Vasile Lupu,905600,44.2518635,28.2677394
36,Strada Cocorilor,905600,44.2595712,28.2718793
2,Strada Nufărului,905600,44.2535760,28.2692044
24,Strada Stejarului,905600,44.2439924,28.2890012
39,Strada Frasinului,905600,44.2446826,28.2899650
28,Strada Frasinului,905600,44.2444511,28.2891811
26,Strada Pinilor,905600,44.2448916,28.2890472
2A,Strada Rândunelelor,905600,44.2591442,28.2687888
1C,Strada Licurici,905600,44.2533489,28.2695995
21,Strada Constantin Dobrogeanu Gherea,905600,44.2559591,28.2679696
59,Strada Independenței,905600,44.2577927,28.2625264
1,Strada Paltinului,905600,44.2452037,28.2869907
36,Strada Rândunelelor,905600,44.2590204,28.2722202
35,Strada Vasile Lupu,905600,44.2516244,28.2699286
30,Strada Privighetorii,905600,44.2574573,28.2701770
2,Strada Cocorilor,905600,44.2598653,28.2687430
77,Strada Vasile Lupu,905600,44.2520755,28.2657868
1B,Strada Zorilor,905600,44.2590240,28.2641207
1,Strada Stejarului,905600,44.2440694,28.2876028
58,Strada Dunării,905600,44.2577813,28.2716612
14A,Strada Nufărului,905600,44.2552345,28.2693569
33,Strada Dunării,905600,44.2581058,28.2688107
3,Strada Privighetorii,905600,44.2577017,28.2679337
6,Strada Frasinului,905600,44.2443579,28.2878401
23,Strada Vasile Lupu,905600,44.2513859,28.2722842
18,Strada Rândunelelor,905600,44.2591321,28.2704223
4,Strada Alexandru cel Bun,905600,44.2536317,28.2678135
15,Strada Luminii,905600,44.2557908,28.2698114
26,Strada Dunării,905600,44.2579620,28.2684208
1,Strada Dimitrie Cantemir,905600,44.2547933,28.2659498
15,Strada Vasile Lupu,905600,44.2512294,28.2736407
53,Strada Porumbeilor,905600,44.2582777,28.2724472
5,Strada Theodor Aman,905600,44.2576085,28.2673253
30,Strada Nufărului,905600,44.2568147,28.2695288
4A,Strada Lucian Grigorescu,905600,44.2575052,28.2643241
2A,Nufărului,905600,44.2531643,28.2692464
40,Strada Lebedei,905600,44.2589767,28.2677239
49,Strada Dunării,905600,44.2580296,28.2704484
65C,Strada Vasile Lupu,905600,44.2519222,28.2672667
13,Strada Ioan Roman,905600,44.2553236,28.2711028
29,Strada Stejarului,905600,44.2442054,28.2894141
30A,Strada Nufărului,905600,44.2569042,28.2695260
15,Strada Frasinului,905600,44.2445757,28.2884113
3,Strada Rândunelelor,905600,44.2593224,28.2689837
14,Strada Constantin Dobrogeanu Gherea,905600,44.2551036,28.2681294
31,Strada Porumbeilor,905600,44.2584352,28.2703459
20Bis,Strada Lucian Grigorescu,905600,44.2574299,28.2659979
42,Strada Rândunelelor,905600,44.2590063,28.2725495
15,Strada Silozului,905600,44.2569310,28.2656669
53,Strada Cocorilor,905600,44.2596301,28.2729995
27,Strada Rândunelelor,905600,44.2592544,28.2709004
22,Strada Porumbeilor,905600,44.2583349,28.2697814
2,Strada Vasile Lupu,905600,44.2513323,28.2761091
41,Strada Lebedei,905600,44.2587450,28.2716713
34,Strada Dropiilor,905600,44.2589373,28.2695465
69,Strada Dunării,905600,44.2579103,28.2724040
15,Strada Pescărușului,905600,44.2582411,28.2711453
13,Strada Alexandru cel Bun,905600,44.2545590,28.2668886
18,Strada Luminii,905600,44.2554953,28.2700846
40B,Strada Ana Ipătescu,905600,44.2563227,28.2690364
10,Strada Crinului,905600,44.2556935,28.2675037
10,Strada Berzei,905600,44.2571716,28.2682567
22,Strada Ana Ipătescu,905600,44.2549678,28.2687499
8,Strada Peșterii,905600,44.2445903,28.2870457
5,Strada Borcei,905600,44.2587226,28.2669151
24,Strada Porumbeilor,905600,44.2583355,28.2698376
4,Strada Viforului,905600,44.2544566,28.2676219
3,Strada Lucian Grigorescu,905600,44.2576634,28.2641569
46,Strada Cocorilor,905600,44.2595422,28.2725165
19,Strada Lebedei,905600,44.2589122,28.2690282
35B,Strada Cocorilor,905600,44.2597033,28.2718571
54,Strada Cocorilor,905600,44.2595319,28.2729819
63,Strada Vasile Lupu,905600,44.2518729,28.2676143
29,Strada Pinilor,905600,44.2450832,28.2892634
9,Strada Dimitrie Cantemir,905600,44.2539069,28.2664010
9,Strada Rândunelelor,905600,44.2593075,28.2698348
10,Strada Castanilor,905600,44.2452795,28.2879984
28,Strada Constantin Dobrogeanu Gherea,905600,44.2560701,28.2682058
20,Strada Cocorilor,905600,44.2596601,28.2703753
6,Strada Stejarului,905600,44.2439214,28.2878841
67,Strada Dunării,905600,44.2579180,28.2722544
6,Strada Cocorilor,905600,44.2598523,28.2690261
14,Strada Theodor Aman,905600,44.2575977,28.2675543
24,Strada Frasinului,905600,44.2444315,28.2889398
9,Strada Alexandru cel Bun,905600,44.2542274,28.2671456
34,Strada Ana Ipătescu,905600,44.2557639,28.2688381
20,Strada Alexandru Vlahuță,905600,44.2547806,28.2670146
11,Strada Vasile Lupu,905600,44.2511937,28.2739394
14,Strada Ana Ipătescu,905600,44.2544437,28.2686860
3D,Strada Libertății,905600,44.2551503,28.2703919
23,Strada Porumbeilor,905600,44.2584560,28.2698506
20,Strada Privighetorii,905600,44.2575342,28.2688761
24,Strada Lucian Grigorescu,905600,44.2574143,28.2665357
18,Strada Pinilor,905600,44.2448641,28.2885379
12,Strada Lebedei,905600,44.2588265,28.2685099
2A,Strada Luminii,905600,44.2535221,28.2698244
33,Strada Frasinului,905600,44.2446550,28.2895874
21,Strada Pinilor,905600,44.2450435,28.2887727
7,Strada Porumbeilor,905600,44.2585304,28.2682187
2A,Strada Teilor,905600,44.2449346,28.2872635
8,Strada Rândunelelor,905600,44.2591473,28.2698607
12,Strada Berzei,905600,44.2571699,28.2683172
15A,Strada Constantin Dobrogeanu Gherea,905600,44.2554917,28.2679433
28,Strada Dropiilor,905600,44.2586625,28.2695455
43,Strada Dunării,905600,44.2580502,28.2700541
3A,Strada Vasile Lupu,905600,44.2511927,28.2745907
11A,Strada Constantin Dobrogeanu Gherea,905600,44.2541566,28.2680310
57,Strada Dunării,905600,44.2579987,28.2716356
41,Strada Silozului,905600,44.2568396,28.2679456
2,Strada Privighetorii,905600,44.2575883,28.2677611
7,Strada Alexandru cel Bun,905600,44.2539609,28.2673310
7,Strada Vasile Lupu,905600,44.2511669,28.2742385
2,Strada Crinului,905600,44.2551091,28.2677839
11,Strada Ana Ipătescu,905600,44.2549342,28.2685382
16,Strada Dunării,905600,44.2579842,28.2678056
47,Strada Porumbeilor,905600,44.2583178,28.2719984
25,Strada Nufărului,905600,44.2556459,28.2692099
45,Strada Rândunelelor,905600,44.2591642,28.2724360
21A,Strada Vasile Lupu,905600,44.2512795,28.2731551
39,Strada Privighetorii,905600,44.2575448,28.2708208
46Bis,Strada Cocorilor,905600,44.2597162,28.2697385
95,Strada Vasile Lupu,905600,44.2523102,28.2634412
31,Strada Rândunelelor,905600,44.2592027,28.2717371
56,Strada Dunării,905600,44.2577841,28.2715990
38,Strada Luminii,905600,44.2569299,28.2701901
24,Strada Vasile Lupu,905600,44.2524446,28.2640515
1,Strada Luminii,905600,44.2535462,28.2695758
2,Strada Alexandru Vlahuță,905600,44.2551889,28.2674034
12,Strada Dimitrie Cantemir,905600,44.2538861,28.2661869
22,Strada Castanilor,905600,44.2453322,28.2887515
29,Strada Dropiilor,905600,44.2587300,28.2693042
29,Strada Fagului,905600,44.2437208,28.2893616
3,Strada Lebedei,905600,44.2589633,28.2680609
37,Strada Vasile Lupu,905600,44.2516617,28.2696545
1,Strada Ion Vodă,905600,44.2520462,28.2643412
9,Strada Stejarului,905600,44.2441001,28.2881227
18,Strada Pescărușului,905600,44.2584009,28.2713804
3,Strada Pescărușului,905600,44.2576542,28.2710366
2,Strada Berzei,905600,44.2571877,28.2677893
24,Strada Ana Ipătescu,905600,44.2551043,28.2687619
53,Bulevardul Independenței,905600,44.2568146,28.2631332
35,Strada Porumbeilor,905600,44.2584225,28.2706058
28,Strada Nufărului,905600,44.2556479,28.2693801
3,Strada Crinului,905600,44.2553620,28.2674474
52,Strada Rândunelelor,905600,44.2589557,28.2732023
25,Strada Silozului,905600,44.2568918,28.2666119
20,Strada Dunării,905600,44.2579652,28.2680957
24,Strada Rândunelelor,905600,44.2590935,28.2708553
38A,Strada Luminii,905600,44.2568519,28.2702196
4,Strada Libertății,905600,44.2547149,28.2705244
1A,Strada Dimitrie Cantemir,905600,44.2545927,28.2660387
18,Strada Theodor Aman,905600,44.2578197,28.2675633
24,Strada Castanilor,905600,44.2453383,28.2888520
32H,Strada Constantin Dobrogeanu Gherea,905600,44.2565605,28.2683417
24,Strada Pescărușului,905600,44.2586239,28.2714041
18,Strada Cocorilor,905600,44.2596626,28.2703085
12,Strada Cocorilor,905600,44.2596727,28.2699857
3,Strada Ion Vodă,905600,44.2518723,28.2643342
21,Strada Luminii,905600,44.2562374,28.2698645
4,Strada Luminii,905600,44.2537195,28.2698745
16,Strada Frasinului,905600,44.2443951,28.2884406
2A,Strada Alexandru Vlahuță,905600,44.2552025,28.2671679
8,Strada Crinului,905600,44.2555666,28.2675341
3,Strada Libertății,905600,44.2556174,28.2704307
45,Strada Independenței,905600,44.2580701,28.2621825
42,Strada Porumbeilor,905600,44.2582337,28.2716497
14,Strada Porumbeilor,905600,44.2583673,28.2686362
1A,Strada Viforului,905600,44.2543911,28.2677427
7,Strada Lucian Grigorescu,905600,44.2576493,28.2646447
17,Strada Lucian Grigorescu,905600,44.2575851,28.2662321
39,Strada Pescărușului,905600,44.2595113,28.2712791
48,Strada Cocorilor,905600,44.2595395,28.2725948
13,Strada Silozului,905600,44.2569677,28.2650963
30,Strada Pinilor,905600,44.2449092,28.2892845
39,Strada Cocorilor,905600,44.2596907,28.2720579
7B,Strada Luminii,905600,44.2541865,28.2696498
6,Strada Castanilor,905600,44.2452589,28.2877480
2,Strada Teilor,905600,44.2452226,28.2872673
24,Strada Constantin Dobrogeanu Gherea,905600,44.2557946,28.2681799
10,Strada Viforului,905600,44.2540606,28.2669984
18,Strada Lebedei,905600,44.2587926,28.2689245
29,Strada Dunării,905600,44.2581245,28.2685444
105,Strada Vasile Lupu,905600,44.2523899,28.2628333
55,Strada Rândunelelor,905600,44.2591317,28.2731092
35,Strada Silozului,905600,44.2568537,28.2676092
4,Strada Frasinului,905600,44.2443552,28.2876816
30,Strada Vasile Lupu,905600,44.2525182,28.2630660
18,Strada Alexandru cel Bun,905600,44.2546542,28.2670193
32,Strada Ana Ipătescu,905600,44.2556337,28.2688262
6A,Strada Alexandru Vlahuță,905600,44.2546098,28.2665740
21,Strada Vasile Lupu,905600,44.2513177,28.2728921
6,Strada Borcei,905600,44.2589158,28.2667704
1A,Strada Ana Ipătescu,905600,44.2540368,28.2684376
21,Strada Nufărului,905600,44.2550961,28.2691612
2,Strada Borcei,905600,44.2589212,28.2672636
55,Strada Cocorilor,905600,44.2596157,28.2731866
8A,Strada Lucian Grigorescu,905600,44.2574922,28.2646659
35,Strada Pinilor,905600,44.2450958,28.2896550
11,Strada Pinilor,905600,44.2450125,28.2881377
8,Strada Fagului,905600,44.2435160,28.2889742
32,Strada Cocorilor,905600,44.2596180,28.2710010
27,Strada Cocorilor,905600,44.2597445,28.2707952
26,Strada Stejarului,905600,44.2439980,28.2891155
30,Strada Frasinului,905600,44.2444647,28.2893242
27,Strada Pinilor,905600,44.2450720,28.2891260
4,Strada Rândunelelor,905600,44.2591928,28.2689903
7,Strada Berzei,905600,44.2572967,28.2680958
23,Strada Constantin Dobrogeanu Gherea,905600,44.2561036,28.2679527
18,Strada Dropiilor,905600,44.2582934,28.2695010
63A,Strada Independenței,905600,44.2584578,28.2624008
38,Strada Rândunelelor,905600,44.2590184,28.2722931
41,Strada Vasile Lupu,905600,44.2517297,28.2691345
5,Strada Zorilor,905600,44.2590099,28.2642953
30,Strada Rândunelelor,905600,44.2590478,28.2717989
20,Strada Vasile Lupu,905600,44.2523173,28.2650655
19A,Strada Rândunelelor,905600,44.2592763,28.2704691
9B,Strada Luminii,905600,44.2551865,28.2697675
2,Strada Dimitrie Cantemir,905600,44.2545992,28.2658136
34,Strada Lebedei,905600,44.2586904,28.2705778
8,Strada Lucian Grigorescu,905600,44.2574817,28.2648582
42,Strada Lebedei,905600,44.2586563,28.2716273
45,Strada Vasile Lupu,905600,44.2517560,28.2688479
4,Strada Fagului,905600,44.2434813,28.2885664
25,Strada Cocorilor,905600,44.2597518,28.2707177
26,Strada Luminii,905600,44.2560515,28.2701477
8,Strada Dunării,905600,44.2582200,28.2668722
15,Strada Nufărului,905600,44.2545572,28.2691183
17,Strada Frasinului,905600,44.2445906,28.2885592
49,Strada Vasile Lupu,905600,44.2517827,28.2685487
26,Strada Porumbeilor,905600,44.2583167,28.2700127
4Bis,Strada Zorilor,905600,44.2588532,28.2642480
75,Strada Vasile Lupu,905600,44.2520561,28.2659587
11,Strada Ioan Roman,905600,44.2552226,28.2710991
17,Strada Rândunelelor,905600,44.2592888,28.2702571
40,Strada Cocorilor,905600,44.2595671,28.2720933
18,Strada Dunării,905600,44.2579758,28.2679632
21,Strada Dunării,905600,44.2581531,28.2681143
5B,Strada Theodor Aman,905600,44.2579309,28.2673116
43,Strada Lebedei,905600,44.2587479,28.2717689
32G,Strada Constantin Dobrogeanu Gherea,905600,44.2564433,28.2683476
36,Strada Dropiilor,905600,44.2590555,28.2695643
35,Strada Lebedei,905600,44.2588162,28.2706485
29,Strada Cocorilor,905600,44.2597369,28.2709406
2,Strada Lebedei,905600,44.2588503,28.2678976
21,Strada Pescărușului,905600,44.2586697,28.2711556
43,Strada Silozului,905600,44.2568357,28.2681090
15,Strada Alexandru cel Bun,905600,44.2548258,28.2666907
20,Strada Luminii,905600,44.2556850,28.2701082
44,Strada Ana Ipătescu,905600,44.2565567,28.2690015
34B,Strada Dunării,905600,44.2579495,28.2691840
11Bis,Strada Crinului,905600,44.2549898,28.2678649
25,Strada Ana Ipătescu,905600,44.2558945,28.2686424
1,Strada Libertății,905600,44.2543051,28.2702441
7,Strada Borcei,905600,44.2587467,28.2666683
6,Strada Viforului,905600,44.2544049,28.2675439
47,Strada Cocorilor,905600,44.2596653,28.2725099
18B,Strada Nufărului,905600,44.2558184,28.2694023
13A,Strada Silozului,905600,44.2569599,28.2651713
20,Strada Lebedei,905600,44.2587912,28.2689827
2,Strada Luminii,905600,44.2536430,28.2698762
51,Strada Porumbeilor,905600,44.2583008,28.2722731
33,Strada Pinilor,905600,44.2450920,28.2895420
10,Strada Libertății,905600,44.2551144,28.2705659
11,Strada Rândunelelor,905600,44.2593049,28.2699009
13,Strada Berzei,905600,44.2572665,28.2684779
32F,Strada Constantin Dobrogeanu Gherea,905600,44.2565155,28.2683391
1D,Strada Licurici,905600,44.2533430,28.2697286
1F,Strada Licurici,905600,44.2533283,28.2699045
7,Strada Fagului,905600,44.2436542,28.2879970
5,Strada Fagului,905600,44.2436463,28.2879022
3,Strada Fagului,905600,44.2436432,28.2877719
1,Strada Fagului,905600,44.2436384,28.2876674
23,Strada Nufărului,905600,44.2552508,28.2691709
18,Strada Porumbeilor,905600,44.2583580,28.2689073
39,Strada Rândunelelor,905600,44.2591790,28.2721499
23,Strada Lebedei,905600,44.2588651,28.2699168
8,Strada Theodor Aman,905600,44.2573214,28.2675038
16,Strada Theodor Aman,905600,44.2577297,28.2675568
14,Strada Privighetorii,905600,44.2575510,28.2685628
69,Bulevardul Independenței,905600,44.2588402,28.2628048
51,Strada Independenței,905600,44.2564704,28.2627287
40,Strada Lebedei,905600,44.2586871,28.2708935
65,Bulevardul Independenței,905600,44.2595914,28.2625200
35,Strada Decebal,905600,44.2455444,28.2714232
37,Strada Decebal,905600,44.2451341,28.2713740
