House number,Street name,Postal code,Latitude,Longitude
21,улица Коминтерна,170002,56.8393467,35.8872143
11 к1,улица Вагжанова,170100,56.8519589,35.9363400
9,проспект Чайковского,170034,56.8485044,35.9048577
24,улица Коминтерна,170002,56.8340861,35.8980017
7,проспект Чайковского,170034,56.8487337,35.9057123
23,Садовая улица,170904,56.8955401,36.0476789
9,Тверской проспект,170100,56.8582342,35.9076131
1,улица Зинаиды Коноплянниковой,170026,56.8675258,35.9051526
49,Октябрьский проспект,170043,56.8288304,35.8992316
31,Советская улица,170100,56.8584326,35.9208319
20,улица Фрунзе,170039,56.8883536,35.8398373
42,проспект Николая Корыткова,170040,56.8451225,35.7995517
42,проспект Николая Корыткова,170040,56.8449938,35.7980746
38,проспект Николая Корыткова,170040,56.8450415,35.7990277
7,проспект Чайковского,170034,56.8488356,35.9059597
9,проспект Чайковского,170034,56.8489016,35.9051760
47/27,площадь Терешковой,170028,56.8397781,35.9329387
29,бульвар Радищева,170100,56.8574857,35.9120153
21 к1,Новоторжская улица,170100,56.8588241,35.9100975
98,проспект Чайковского,170002,56.8378251,35.8952905
9,проспект Чайковского,170034,56.8490190,35.9052378
5 с1,улица Ерофеева,170034,56.8463154,35.9079524
17,улица Вагжанова,170100,56.8515874,35.9371349
37,Хрустальная улица,170021,56.8896540,35.9028094
6 к1,проспект Чайковского,170034,56.8499817,35.9074689
7,улица Ерофеева,170034,56.8454824,35.9083129
61,Петербургское шоссе,170036,56.8750582,35.8418361
12,Тверской проспект,170100,56.8589975,35.9089173
12,улица Красные Горки,170100,56.8528235,35.9487542
7,улица Ерофеева,170034,56.8454118,35.9079865
72А,улица Можайского,170016,56.8136596,35.9118349
70,улица Можайского,170022,56.8131193,35.9138826
71 к1,улица Можайского,170030,56.8204778,35.9024111
30,проспект Николая Корыткова,170040,56.8456721,35.8031464
38,проспект Николая Корыткова,170040,56.8450267,35.7987072
3,улица Дарвина,170034,56.8480497,35.8993374
78,2-я улица Красина,170003,56.8845650,35.8623362
78,2-я улица Красина,170003,56.8844537,35.8622074
17,Сахаровское шоссе,170019,56.8674705,35.9933276
7,улица Жигарева,170100,56.8532792,35.9111601
116 к 2,улица Склизкова,170028,56.8301520,35.9430680
15,2-я улица Лукина,170028,56.8397031,35.9378576
59,проспект Победы,170023,56.8364883,35.9396430
59,проспект Победы,170023,56.8364965,35.9396135
116 к 2,улица Склизкова,170028,56.8301755,35.9431783
81Б,улица Коминтерна,170028,56.8305206,35.9110298
10,2-я улица за линией Октябрьской ж/д,170001,56.8455319,35.8643496
19,улица Коминтерна,170002,56.8379232,35.8910308
6 к1,проспект Чайковского,170034,56.8500714,35.9075206
8,бульвар Цанова,170028,56.8300563,35.9172653
46,Симеоновская улица,170100,56.8551492,35.9115983
2 кор 2,улица Бориса Полевого,170004,56.8453369,35.8419742
30,проспект Ленина,170023,56.8516438,35.8436816
37,Хрустальная улица,170021,56.8899951,35.9029765
12Б/1,Новоторжская улица,170100,56.8581249,35.9105308
5,Гагарина площадь,170100,56.8466346,35.9438974
28/2а,проспект Чайковского,170034,56.8458540,35.9057007
28,улица Брагина,170006,56.8548151,35.8907776
28,улица Брагина,170006,56.8548868,35.8909518
19,улица Арсения Степанова,170001,56.8474456,35.8838199
31/13,бульвар Шмидта,170041,56.8728122,35.9039539
45,проспект Николая Корыткова,170040,56.8416066,35.7964410
17,проспект Николая Корыткова,170040,56.8424226,35.8018960
58А,улица Можайского,170043,56.8206179,35.8969569
31,2-я улица Лазо,170019,56.8665013,35.9589361
8,2-я улица Серова,170019,56.8652320,35.9614447
10,2-я улица Серова,170019,56.8650957,35.9621044
12,2-я улица Серова,170019,56.8648364,35.9631563
6,2-я улица Серова,170019,56.8653404,35.9607041
116 к2,улица Академика Туполева,170019,56.8644797,35.9618469
118,улица Академика Туполева,170019,56.8644253,35.9588191
116 к3,улица Академика Туполева,170019,56.8643273,35.9626600
2,2-я улица Серова,170019,56.8660962,35.9562001
7,1-я Силикатная улица,170019,56.8659008,35.9573214
3,1-я Силикатная улица,170019,56.8664250,35.9572599
35,2-я улица Серова,170019,56.8648975,35.9591112
105,улица Академика Туполева,170019,56.8637568,35.9579722
107,улица Академика Туполева,170019,56.8637299,35.9590983
103,улица Академика Туполева,170019,56.8641917,35.9571241
109,улица Академика Туполева,170019,56.8636018,35.9599202
113,улица Академика Туполева,170019,56.8633392,35.9612314
26,Октябрьский проспект,170043,56.8294604,35.8972425
68 к2,улица Пржевальского,170019,56.8628895,35.9601524
20 к1,улица Коминтерна,170002,56.8347226,35.8970146
122,улица Склизкова,170028,56.8294540,35.9465958
1,улица Брагина,170006,56.8566578,35.8972251
10,улица Колодкина,170002,56.8378837,35.8895989
7,проспект Чайковского,170034,56.8488717,35.9057480
5,Советская улица,170100,56.8614439,35.9017798
3,Советская улица,170100,56.8621945,35.8998237
2/26,Комсомольский проспект,170026,56.8657749,35.9124931
11,улица Королёва,170030,56.8255850,35.9121834
7 к1,улица Громова,170009,56.8421689,35.7690272
33 к1,Петербургское шоссе,170027,56.8716673,35.8557246
5,Комсомольский проспект,170026,56.8684331,35.9123759
1,Краснофлотская набережная,170006,56.8636333,35.8940348
101,улица Академика Туполева,170019,56.8643704,35.9563862
2,набережная Степана Разина,170100,56.8618324,35.9089220
24,набережная Афанасия Никитина,170026,56.8652960,35.9134066
20,набережная Афанасия Никитина,170026,56.8649285,35.9163854
34/93,улица Маяковского,170019,56.8660054,35.9448570
36,улица Маяковского,170019,56.8663051,35.9448845
3,Комсомольский проспект,170026,56.8674450,35.9118292
6,проспект Калинина,170001,56.8561471,35.8768817
42,улица Спартака,170001,56.8512954,35.8804659
8,проспект Калинина,170001,56.8560652,35.8756044
9,проспект Калинина,170001,56.8552395,35.8734374
23,улица Громова,170009,56.8412807,35.7657609
27,улица Громова,170009,56.8409307,35.7643750
25,улица Громова,170009,56.8411171,35.7650424
21,улица Громова,170009,56.8417957,35.7659745
19,улица Громова,170009,56.8416376,35.7666868
48 к1,улица Громова,170009,56.8422196,35.7651566
50 к3,улица Громова,170009,56.8422094,35.7622588
50 к2,улица Громова,170009,56.8424619,35.7633220
50 к1,улица Громова,170009,56.8417408,35.7633254
52,улица Громова,170009,56.8419951,35.7614930
66,улица Громова,170009,56.8435726,35.7648521
64,улица Громова,170009,56.8437089,35.7653708
62,улица Громова,170009,56.8438833,35.7658922
48 к2,улица Громова,170009,56.8429476,35.7651950
48 к3,улица Громова,170009,56.8426896,35.7641787
46,улица Громова,170009,56.8430781,35.7664757
42,улица Громова,170009,56.8433959,35.7676374
56,улица Громова,170009,56.8435030,35.7661548
60,улица Громова,170009,56.8439883,35.7664434
58,улица Громова,170009,56.8441172,35.7669750
9,улица Громова,170009,56.8423060,35.7677942
5,улица Громова,170009,56.8424543,35.7695286
7 к3,улица Громова,170009,56.8410272,35.7703636
3,улица Громова,170009,56.8428139,35.7700002
44,улица Громова,170009,56.8427958,35.7674406
7 к2,улица Громова,170009,56.8416342,35.7701254
11 к1,улица Громова,170009,56.8417960,35.7679415
11 к3,улица Громова,170009,56.8412060,35.7690934
28 к2,улица Громова,170009,56.8443785,35.7724434
32,улица Громова,170009,56.8436268,35.7708290
11 к2,улица Громова,170009,56.8417058,35.7688726
34,улица Громова,170009,56.8439938,35.7700093
30,улица Громова,170009,56.8441648,35.7711597
28 к1,улица Громова,170009,56.8439056,35.7726451
40 к1,улица Громова,170009,56.8435394,35.7682217
36 к1,улица Громова,170009,56.8438371,35.7694161
38,улица Громова,170009,56.8432594,35.7692082
40 к2,улица Громова,170009,56.8440146,35.7680503
36 к2,улица Громова,170009,56.8442155,35.7688513
43Б,улица Спартака,170001,56.8520046,35.8806669
41Б,улица Спартака,170001,56.8522245,35.8797352
39,улица Спартака,170001,56.8518756,35.8773044
46,улица Спартака,170001,56.8508427,35.8834204
42А,улица Спартака,170001,56.8524403,35.8803829
28,Свободный переулок,170100,56.8608486,35.9074988
30,Свободный переулок,170100,56.8615953,35.9074296
15,Тверской проспект,170100,56.8608447,35.9086458
26,Свободный переулок,170100,56.8605840,35.9066355
2,улица Вольного Новгорода,170100,56.8614415,35.9081034
19,улица Спартака,170001,56.8501630,35.8834710
14,проспект Калинина,170001,56.8558231,35.8711366
10,проспект Калинина,170001,56.8559272,35.8738251
11,Советская улица,170100,56.8600692,35.9113985
1А,Баррикадная улица,170001,56.8516635,35.8747540
7,проспект Калинина,170001,56.8553140,35.8754128
32,улица Софьи Перовской,170006,56.8574937,35.8822901
28,улица Софьи Перовской,170006,56.8584195,35.8842051
26,улица Софьи Перовской,170006,56.8587412,35.8849155
30,улица Софьи Перовской,170006,56.8579294,35.8832911
3А,улица Карла Маркса,170001,56.8569580,35.8754223
1 к1,проспект Чайковского,170034,56.8504692,35.9052751
9,проспект Чайковского,170034,56.8487883,35.9046249
150,набережная Афанасия Никитина,170042,56.8694769,35.8808318
146,набережная Афанасия Никитина,170042,56.8696781,35.8826272
148,набережная Афанасия Никитина,170042,56.8693383,35.8819477
45А,улица Спартака,170001,56.8524019,35.8827998
2А,Тверская площадь,170100,56.8581273,35.9010602
64,Советская улица,170100,56.8566670,35.9266219
3/21,улица Нахимова,170026,56.8661898,35.9095869
22 к1,улица Громова,170009,56.8441544,35.7755215
22 к2,улица Громова,170009,56.8446153,35.7755091
26,улица Громова,170009,56.8442176,35.7739932
8,улица Громова,170009,56.8445787,35.7807732
16,улица Громова,170009,56.8454888,35.7778826
18 к2,улица Громова,170009,56.8448394,35.7775898
10,улица Громова,170009,56.8445725,35.7800029
4,улица Громова,170009,56.8445423,35.7816690
18 к1,улица Громова,170009,56.8444154,35.7776085
14,улица Громова,170009,56.8454659,35.7795148
12,улица Громова,170009,56.8445595,35.7792544
6,улица Громова,170009,56.8451355,35.7809111
52,улица Паши Савельевой,170039,56.8863421,35.8396599
1,улица Громова,170009,56.8435137,35.7762238
54,улица Громова,170009,56.8425601,35.7600261
1,Пролетарская набережная,170004,56.8400367,35.8393479
9,проспект Победы,170034,56.8452363,35.9179170
10,улица Дарвина,170034,56.8493829,35.8930144
14,проспект Победы,170034,56.8452279,35.9142907
14,Ржевская улица,170023,56.8577909,35.8446229
26А,проспект Чайковского,170034,56.8466810,35.9073775
24А,проспект Чайковского,170034,56.8472204,35.9073344
1,проезд Швейников,170034,56.8450744,35.9123539
8,Боровой проезд,170023,56.8572516,35.8439786
11,Ржевская улица,170023,56.8566235,35.8445574
9,Ржевская улица,170023,56.8557591,35.8449693
9,улица Кирова,170023,56.8551853,35.8470213
12,Ржевская улица,170023,56.8562776,35.8461355
12А,Ржевская улица,170023,56.8572434,35.8451961
10,Ржевская улица,170023,56.8555921,35.8458534
6,Боровой проезд,170023,56.8573733,35.8444014
7А,улица Кирова,170023,56.8546511,35.8485371
5А,улица Кирова,170023,56.8540247,35.8488351
5,улица Кирова,170023,56.8537192,35.8475853
7 к2,улица Кирова,170023,56.8546865,35.8470562
7,Ржевская улица,170023,56.8546940,35.8450318
8,улица Маршала Будённого,170023,56.8544684,35.8434521
7А,Ржевская улица,170023,56.8542798,35.8444127
12,улица Маршала Будённого,170023,56.8558742,35.8432128
10,улица Маршала Будённого,170023,56.8552723,35.8431329
9 к2,Ржевская улица,170023,56.8555813,35.8443202
8,Ржевская улица,170023,56.8546746,35.8460852
6,Ржевская улица,170023,56.8538889,35.8465941
8,2-я Боровая улица,170023,56.8584534,35.8435079
5,3-я Боровая улица,170023,56.8588163,35.8428473
7,3-я Боровая улица,170023,56.8588784,35.8433532
9,улица Маршала Будённого,170023,56.8566687,35.8425774
17/2,улица Маршала Будённого,170023,56.8582672,35.8418681
19/1,улица Маршала Будённого,170023,56.8586833,35.8417110
4,2-я Боровая улица,170023,56.8583289,35.8423799
6,2-я Боровая улица,170023,56.8583777,35.8429914
13,улица Маршала Будённого,170023,56.8574711,35.8421498
15/1,улица Маршала Будённого,170023,56.8578606,35.8420155
7,2-я Боровая улица,170023,56.8580702,35.8436335
5,2-я Боровая улица,170023,56.8579993,35.8430379
3,2-я Боровая улица,170023,56.8579332,35.8424158
10,Боровой проезд,170023,56.8571970,35.8434005
12,Боровой проезд,170023,56.8571294,35.8428436
7,2-я улица Серова,170019,56.8657057,35.9546462
48,улица Брагина,170006,56.8539539,35.8885175
2/54,улица Брагина,170006,56.8535799,35.8875764
40,улица Брагина,170006,56.8543370,35.8894403
36,улица Брагина,170006,56.8544897,35.8898782
42,улица Брагина,170006,56.8542380,35.8893494
24-26,улица Брагина,170006,56.8551672,35.8916359
46,улица Брагина,170006,56.8540424,35.8886770
44,улица Брагина,170006,56.8541212,35.8889966
26-24,улица Брагина,170006,56.8550527,35.8913417
16А,улица Брагина,170006,56.8557812,35.8929804
18,улица Брагина,170006,56.8555843,35.8921680
54,набережная Афанасия Никитина,170026,56.8665855,35.9019674
8,Тверской проспект,170100,56.8566479,35.9079777
95,улица Академика Туполева,170019,56.8646065,35.9554264
10,Малый Заводской проезд,170019,56.8641753,35.9557225
99,улица Академика Туполева,170019,56.8644845,35.9559614
6,Малый Заводской проезд,170019,56.8640918,35.9551367
6/2,Силикатный проезд,170019,56.8642481,35.9545265
91/2,улица Академика Туполева,170019,56.8647395,35.9547808
97,улица Академика Туполева,170019,56.8645419,35.9557157
8,Малый Заводской проезд,170019,56.8640405,35.9553145
4,Силикатный проезд,170019,56.8644425,35.9545733
93,улица Академика Туполева,170019,56.8646548,35.9551913
4,Малый Заводской проезд,170019,56.8641387,35.9548303
19,Свободный переулок,170100,56.8614419,35.9064936
5,Малый Заводской проезд,170019,56.8637777,35.9554785
52/16,улица Пржевальского,170019,56.8633014,35.9546555
14,Силикатный проезд,170019,56.8634371,35.9546236
8/1,Силикатный проезд,170019,56.8639567,35.9545538
12,Силикатный проезд,170019,56.8635930,35.9545982
56,улица Пржевальского,170019,56.8632979,35.9555563
3,Малый Заводской проезд,170019,56.8638421,35.9551476
54,улица Пржевальского,170019,56.8633146,35.9551020
7,Малый Заводской проезд,170019,56.8636356,35.9559727
10,Силикатный проезд,170019,56.8637803,35.9545855
38,улица Брагина,170006,56.8543901,35.8896701
47 к3,бульвар Гусева,170043,56.8177137,35.9008847
30,2-я улица Осипенко,170019,56.8661758,35.9592640
12,2-я улица Осипенко,170019,56.8655749,35.9620883
16,2-я улица Осипенко,170019,56.8657269,35.9613832
26,2-я улица Осипенко,170019,56.8660443,35.9598627
20,2-я улица Осипенко,170019,56.8658458,35.9608027
14,2-я улица Осипенко,170019,56.8656521,35.9617246
22,2-я улица Осипенко,170019,56.8659083,35.9605087
28,2-я улица Осипенко,170019,56.8661118,35.9595445
24,2-я улица Осипенко,170019,56.8659801,35.9601615
18,2-я улица Осипенко,170019,56.8657899,35.9610687
2,2-я улица Осипенко,170019,56.8652529,35.9637431
10,2-я улица Осипенко,170019,56.8654981,35.9624575
4,2-я улица Осипенко,170019,56.8653223,35.9633484
8,2-я улица Осипенко,170019,56.8654336,35.9627628
6,2-я улица Осипенко,170019,56.8653839,35.9630016
15,2-я улица Лазо,170019,56.8662030,35.9617361
21,2-я улица Лазо,170019,56.8663752,35.9609092
17,2-я улица Лазо,170019,56.8662625,35.9614443
3,2-я улица Лазо,170019,56.8658278,35.9635051
5,2-я улица Лазо,170019,56.8658841,35.9632499
29,2-я улица Лазо,170019,56.8666380,35.9596163
1,2-я улица Лазо,170019,56.8657212,35.9639945
13,2-я улица Лазо,170019,56.8661449,35.9620124
25,2-я улица Лазо,170019,56.8665184,35.9602080
11,2-я улица Лазо,170019,56.8660864,35.9623060
9,2-я улица Лазо,170019,56.8660266,35.9625833
27,2-я улица Лазо,170019,56.8665787,35.9599164
23,2-я улица Лазо,170019,56.8664471,35.9605628
19,2-я улица Лазо,170019,56.8663193,35.9611773
7,2-я улица Лазо,170019,56.8659519,35.9629354
57А,улица Академика Туполева,170019,56.8663388,35.9472834
57,улица Академика Туполева,170019,56.8663995,35.9470200
51А,улица Академика Туполева,170019,56.8666676,35.9457446
51,улица Академика Туполева,170019,56.8666761,35.9455010
53,улица Академика Туполева,170019,56.8666151,35.9459740
55,улица Академика Туполева,170019,56.8665092,35.9465270
59А,улица Академика Туполева,170019,56.8662568,35.9476313
55А,улица Академика Туполева,170019,56.8664454,35.9467904
59/51,улица Академика Туполева,170019,56.8661572,35.9481178
49А,улица Академика Туполева,170019,56.8666851,35.9452442
49/40,улица Академика Туполева,170019,56.8666710,35.9449357
53А,улица Академика Туполева,170019,56.8665532,35.9462493
77,улица Академика Туполева,170019,56.8652007,35.9525247
79/27,улица Академика Туполева,170019,56.8651615,35.9528370
89/1,улица Академика Туполева,170019,56.8648754,35.9543133
75,улица Академика Туполева,170019,56.8652781,35.9522808
87,улица Академика Туполева,170019,56.8649463,35.9539890
120,улица Розы Люксембург,170019,56.8657465,35.9499191
67,улица Академика Туполева,170019,56.8655071,35.9512536
81/28,улица Академика Туполева,170019,56.8651248,35.9531803
65/2,улица Академика Туполева,170019,56.8655497,35.9509434
83,улица Академика Туполева,170019,56.8650605,35.9534696
71,улица Академика Туполева,170019,56.8653891,35.9517949
73,улица Академика Туполева,170019,56.8653363,35.9520282
85,улица Академика Туполева,170019,56.8650010,35.9537363
63/1,улица Академика Туполева,170019,56.8656712,35.9504903
69,улица Академика Туполева,170019,56.8654477,35.9515206
118,улица Розы Люксембург,170019,56.8657456,35.9496965
7,Комсомольский проспект,170026,56.8694419,35.9126277
8,Комсомольский проспект,170026,56.8693024,35.9137133
4,3-я Силикатная улица,170019,56.8651888,35.9507439
6,3-я Силикатная улица,170019,56.8650276,35.9507045
8/2,3-я Силикатная улица,170019,56.8648049,35.9507172
16,улица Брагина,170006,56.8556895,35.8924284
44/5,улица Академика Туполева,170019,56.8670578,35.9462396
54,улица Академика Туполева,170019,56.8666150,35.9481102
48,улица Академика Туполева,170019,56.8669103,35.9469930
50/5,улица Академика Туполева,170019,56.8668147,35.9473632
42,Затверецкая набережная,170007,56.8675526,35.9210392
53/56,улица Котовского,170019,56.8665487,35.9484878
46/6,улица Академика Туполева,170019,56.8669716,35.9465901
2,улица Шишкова,170007,56.8676484,35.9227791
6,2-й проезд Розы Люксембург,170019,56.8639926,35.9490712
14,2-й проезд Розы Люксембург,170019,56.8635662,35.9490756
10,2-й проезд Розы Люксембург,170019,56.8637882,35.9490586
9/2А,3-я Силикатная улица,170019,56.8648639,35.9502475
7,3-я Силикатная улица,170019,56.8650545,35.9502392
3,3-я Силикатная улица,170019,56.8653567,35.9502612
5,3-я Силикатная улица,170019,56.8651815,35.9502200
5,Силикатный проезд,170019,56.8644646,35.9541051
7,Силикатный проезд,170019,56.8643141,35.9541007
13,Силикатный проезд,170019,56.8639030,35.9541193
48,улица Пржевальского,170019,56.8633088,35.9537369
46,улица Пржевальского,170019,56.8632868,35.9534120
32,2-я Силикатная улица,170019,56.8646277,35.9530419
42,2-я Силикатная улица,170019,56.8638483,35.9530637
34,2-я Силикатная улица,170019,56.8644290,35.9530836
3,Силикатный проезд,170019,56.8645849,35.9541463
44,2-я Силикатная улица,170019,56.8637263,35.9530575
11,Силикатный проезд,170019,56.8640346,35.9541055
30,2-я Силикатная улица,170019,56.8647870,35.9530303
50/19,улица Пржевальского,170019,56.8633108,35.9541633
15,Силикатный проезд,170019,56.8637414,35.9541433
17,Силикатный проезд,170019,56.8635964,35.9541383
36,2-я Силикатная улица,170019,56.8643001,35.9530686
46,2-я Силикатная улица,170019,56.8635735,35.9530968
40,2-я Силикатная улица,170019,56.8640078,35.9530427
9,Силикатный проезд,170019,56.8641791,35.9541023
38,2-я Силикатная улица,170019,56.8641360,35.9530228
48/44,2-я Силикатная улица,170019,56.8632998,35.9531084
2,1-й Волжский проезд,170019,56.8645748,35.9518719
35,2-я Силикатная улица,170019,56.8641411,35.9525277
11/31,Большой Заводской проезд,170019,56.8646238,35.9525297
1/10,Большой Заводской проезд,170019,56.8646129,35.9507465
3,Большой Заводской проезд,170019,56.8646016,35.9510723
33,2-я Силикатная улица,170019,56.8643300,35.9525249
9,Большой Заводской проезд,170019,56.8646005,35.9521647
41,2-я Силикатная улица,170019,56.8635529,35.9525804
5/1,Большой Заводской проезд,170019,56.8646066,35.9514799
39,2-я Силикатная улица,170019,56.8637799,35.9525497
37,2-я Силикатная улица,170019,56.8639771,35.9525615
1,улица Чернышевского,170000,56.8544342,35.9209761
5,улица Вагжанова,170100,56.8543435,35.9297600
3,улица Вагжанова,170100,56.8548689,35.9292188
5А,улица Вагжанова,170100,56.8547619,35.9302527
8,1-й Волжский проезд,170019,56.8639169,35.9518838
4,1-й Волжский проезд,170019,56.8643297,35.9518765
6,1-й Волжский проезд,170019,56.8641086,35.9518775
12,1-й Волжский проезд,170019,56.8635683,35.9519076
10,1-й Волжский проезд,170019,56.8637587,35.9519478
8,Трёхсвятская улица,170100,56.8532013,35.9091782
9,1-й Волжский проезд,170019,56.8637260,35.9515123
3,1-й Волжский проезд,170019,56.8642969,35.9514864
7,1-й Волжский проезд,170019,56.8639149,35.9514972
5,1-й Волжский проезд,170019,56.8641198,35.9514934
11,1-й Волжский проезд,170019,56.8635424,35.9515067
22/32,3-я Силикатная улица,170019,56.8632974,35.9507947
64/29,1-я улица Александра Невского,170007,56.8660355,35.9298677
7,2-й проезд Розы Люксембург,170019,56.8639259,35.9494828
9,2-й проезд Розы Люксембург,170019,56.8638404,35.9494862
11,2-й проезд Розы Люксембург,170019,56.8636486,35.9494898
3,2-й проезд Розы Люксембург,170019,56.8642083,35.9494712
5,2-й проезд Розы Люксембург,170019,56.8641228,35.9494746
41/2,улица Серова,170019,56.8675828,35.9470130
45,улица Серова,170019,56.8677107,35.9462666
47,улица Серова,170019,56.8677854,35.9459654
43/1,улица Серова,170019,56.8676634,35.9466443
40,улица Серова,170019,56.8676368,35.9478772
42,улица Серова,170019,56.8677046,35.9475078
44,улица Серова,170019,56.8677980,35.9471793
48,улица Серова,170019,56.8679463,35.9464081
36А,улица Серова,170019,56.8674526,35.9487106
46,улица Серова,170019,56.8678621,35.9467915
10,Тверской проспект,170100,56.8579961,35.9088462
23,бульвар Радищева,170100,56.8573506,35.9098789
6А,Новоторжская улица,170100,56.8583987,35.9071038
9,Тверской проспект,170100,56.8581437,35.9075529
19,бульвар Радищева,170100,56.8575573,35.9086810
21,бульвар Радищева,170100,56.8574590,35.9094140
3,1-й проезд Серова,170019,56.8673693,35.9464659
9,Беляковский переулок,170006,56.8543572,35.8852232
3,2-й проезд Серова,170019,56.8671002,35.9475204
4,1-й проезд Серова,170019,56.8672601,35.9469047
9,Волоколамский проспект,170008,56.8460011,35.9208774
21,улица Вольного Новгорода,170100,56.8594688,35.9165469
3,улица Софьи Перовской,170006,56.8601479,35.8901202
38,улица Склизкова,170033,56.8410812,35.9117945
15,проспект Калинина,170001,56.8547901,35.8686018
13А,проспект Калинина,170001,56.8533748,35.8700946
25,улица Веселова,170003,56.8766381,35.8586397
50/23,проспект Победы,170028,56.8379509,35.9333057
25,улица Лукина,170028,56.8374261,35.9324008
1,Советская улица,170100,56.8620119,35.8969628
20,Свободный переулок,170100,56.8592302,35.9059504
19,Новоторжская улица,170100,56.8588431,35.9092546
22,Свободный переулок,170100,56.8597965,35.9062354
90,проспект Чайковского,170002,56.8390684,35.8969969
8,Новоторжская улица,170100,56.8583875,35.9088955
51,улица Софьи Перовской,170006,56.8560355,35.8814146
84,проспект Победы,170028,56.8325863,35.9450461
82,проспект Победы,170028,56.8329140,35.9443732
109,улица Склизкова,170028,56.8321641,35.9429347
78,проспект Победы,170028,56.8335743,35.9434977
116 к1,улица Склизкова,170028,56.8311188,35.9439744
113,улица Склизкова,170028,56.8316626,35.9451609
86,проспект Победы,170028,56.8322980,35.9457395
114 к1,улица Склизкова,170028,56.8316931,35.9427941
111,улица Склизкова,170028,56.8317772,35.9442260
84,набережная Афанасия Никитина,170042,56.8680337,35.8907758
89,улица Горького,170042,56.8688189,35.8884013
88/2,набережная Афанасия Никитина,170042,56.8684894,35.8877078
53,улица Бебеля,170006,56.8554530,35.8830934
28,Петербургское шоссе,170003,56.8724939,35.8627806
20,Петербургское шоссе,170003,56.8720369,35.8651757
21,улица Хромова,170039,56.8822822,35.8527091
25,улица Хромова,170000,56.8832584,35.8550784
27 к1,улица Хромова,170003,56.8847456,35.8602473
47А,улица Спартака,170001,56.8499772,35.8883683
74,набережная Афанасия Никитина,170026,56.8671355,35.8976047
72,набережная Афанасия Никитина,170026,56.8669753,35.8984377
56/2,набережная Афанасия Никитина,170026,56.8667160,35.9009381
6,улица Дарвина,170034,56.8493214,35.8965415
47Б,улица Спартака,170001,56.8501572,35.8875749
10 с1,улица Дарвина,170034,56.8492778,35.8940097
8,улица Дарвина,170034,56.8493579,35.8949700
80,набережная Афанасия Никитина,170026,56.8675408,35.8937967
92,набережная Афанасия Никитина,170026,56.8674438,35.8953384
82/2,набережная Афанасия Никитина,170026,56.8677748,35.8929563
34А,улица Спартака,170001,56.8508702,35.8778394
36,улица Спартака,170001,56.8511624,35.8767531
34,улица Спартака,170001,56.8511237,35.8779074
9 к1,Комсомольский проспект,170026,56.8701693,35.9125507
10,Комсомольский проспект,170026,56.8699633,35.9143763
16,улица Мусоргского,170041,56.8718690,35.9025953
30,улица Арсения Степанова,170001,56.8485475,35.8799103
28,улица Арсения Степанова,170001,56.8485814,35.8795542
32,улица Арсения Степанова,170001,56.8485209,35.8802979
26,улица Арсения Степанова,170001,56.8486209,35.8792135
12,Петербургское шоссе,170003,56.8716874,35.8673790
5,1-й проезд Танкистов,170003,56.8735631,35.8679503
1/4,1-й проезд Танкистов,170003,56.8736835,35.8670147
6,1-й проезд Танкистов,170003,56.8737477,35.8680811
4,1-й проезд Танкистов,170003,56.8738310,35.8676416
3,1-й проезд Танкистов,170003,56.8736006,35.8676676
114,Петербургское шоссе,170036,56.8772854,35.8348735
4/4,Комсомольский проспект,170026,56.8674788,35.9133615
54,улица Софьи Перовской,170006,56.8571668,35.8811733
3А,улица Дарвина,170034,56.8464925,35.8961377
32,улица Луначарского,170003,56.8820546,35.8567162
52,улица Софьи Перовской,170006,56.8572130,35.8816903
80,2-я улица Красина,170003,56.8844858,35.8613759
76,2-я улица Красина,170003,56.8849529,35.8621572
8,Цветочная улица,170003,56.8858695,35.8642505
1,улица Дарвина,170034,56.8481004,35.9039833
17,проспект Чайковского,170034,56.8478501,35.9049679
16/31,Трёхсвятская улица,170100,56.8548698,35.9099657
33,улица Желябова,170100,56.8546389,35.9114517
29,Трёхсвятская улица,170100,56.8561928,35.9098094
33,Трёхсвятская улица,170100,56.8574344,35.9105128
25,Трёхсвятская улица,170100,56.8553268,35.9094253
15,Трёхсвятская улица,170100,56.8537106,35.9085597
38/26,бульвар Радищева,170100,56.8567265,35.9108003
22,Трёхсвятская улица,170100,56.8559705,35.9104418
24,Трёхсвятская улица,170100,56.8563746,35.9105374
20,Трёхсвятская улица,170100,56.8555366,35.9102058
10,Трёхсвятская улица,170100,56.8536344,35.9092569
28,Трёхсвятская улица,170100,56.8574143,35.9111221
14,Трёхсвятская улица,170100,56.8544174,35.9096895
18,Трёхсвятская улица,170100,56.8552971,35.9100859
23,Новоторжская улица,170100,56.8587818,35.9108809
21,Новоторжская улица,170100,56.8588089,35.9101893
6 к1,проспект Чайковского,170034,56.8499145,35.9075189
24,улица Андрея Дементьева,170100,56.8578773,35.9159575
2,Тверской проспект,170100,56.8529952,35.9079163
6,Трёхсвятская улица,170100,56.8525634,35.9091866
46,набережная Афанасия Никитина,170026,56.8664447,35.9030303
13,Студенческий переулок,170100,56.8548654,35.9124655
5,улица Жигарева,170100,56.8534360,35.9100305
40,улица Желябова,170100,56.8541443,35.9121850
13,улица Жигарева,170100,56.8531717,35.9117075
7,улица Жигарева,170100,56.8532879,35.9111075
46,бульвар Радищева,170100,56.8564335,35.9127014
48,бульвар Радищева,170100,56.8563797,35.9130779
27,улица Андрея Дементьева,170100,56.8570951,35.9164585
45,бульвар Радищева,170100,56.8566558,35.9146629
47,бульвар Радищева,170100,56.8567570,35.9153599
23,улица Андрея Дементьева,170100,56.8564722,35.9161412
39,бульвар Радищева,170100,56.8568534,35.9133821
19,Студенческий переулок,170100,56.8561983,35.9127862
47,Симеоновская улица,170100,56.8555903,35.9128819
25,улица Андрея Дементьева,170100,56.8568349,35.9163943
29,улица Андрея Дементьева,170100,56.8572785,35.9165732
41/30,бульвар Радищева,170100,56.8567597,35.9140611
17,Студенческий переулок,170100,56.8558731,35.9130087
4 к1,улица Дарвина,170034,56.8486989,35.9026676
12,Студенческий переулок,170100,56.8547581,35.9133145
10/15,Студенческий переулок,170100,56.8533105,35.9122169
42,улица Желябова,170100,56.8539647,35.9125931
52,бульвар Радищева,170100,56.8561507,35.9141312
14,Студенческий переулок,170100,56.8536985,35.9123830
50,бульвар Радищева,170100,56.8562804,35.9137161
54,Симеоновская улица,170100,56.8550970,35.9141305
26А,Студенческий переулок,170100,56.8559496,35.9135653
60,бульвар Радищева,170100,56.8560841,35.9149812
21,улица Андрея Дементьева,170100,56.8559707,35.9158614
62,бульвар Радищева,170100,56.8560126,35.9152371
49/22,Симеоновская улица,170100,56.8555126,35.9133226
24,Студенческий переулок,170100,56.8556931,35.9133786
56,бульвар Радищева,170100,56.8561785,35.9145195
28,Симеоновская улица,170100,56.8556006,35.9085183
17,Трёхсвятская улица,170100,56.8539966,35.9087384
22,Симеоновская улица,170100,56.8560065,35.9081223
21,улица Желябова,170100,56.8552646,35.9074863
6,Тверской проспект,170100,56.8558494,35.9075409
3,улица Желябова,170100,56.8549584,35.9087569
27,Симеоновская улица,170100,56.8563769,35.9088306
23,улица Желябова,170100,56.8550725,35.9080558
32,Советская улица,170100,56.8592514,35.9109285
38,Советская улица,170100,56.8589362,35.9138987
4,Советская улица,170100,56.8605373,35.8996095
2,Советская улица,170100,56.8610844,35.8988078
1,Свободный переулок,170100,56.8557371,35.9031917
5,Свободный переулок,170100,56.8571668,35.9039491
3,Свободный переулок,170100,56.8562166,35.9038050
34,Советская улица,170100,56.8589983,35.9123252
2,Свободный переулок,170100,56.8561469,35.9046022
2 к1,Свободный переулок,170100,56.8557421,35.9042154
3,Тверской проспект,170100,56.8560253,35.9066061
4 к2,улица Дарвина,170034,56.8490596,35.9026289
2,улица Дарвина,170034,56.8488947,35.9036452
6 к5,проспект Чайковского,170034,56.8492254,35.9094515
6 к2,проспект Чайковского,170034,56.8495270,35.9080599
5,проспект Победы,170034,56.8480618,35.9079292
3,проспект Победы,170034,56.8483856,35.9074466
7,Советская улица,170100,56.8603825,35.9074272
3А,улица Брагина,170006,56.8560265,35.8959450
40/29,улица Крылова,170100,56.8559068,35.9258143
42,бульвар Радищева,170100,56.8566012,35.9116692
40,бульвар Радищева,170100,56.8566101,35.9113667
44,бульвар Радищева,170100,56.8565218,35.9121742
30,Симеоновская улица,170100,56.8554746,35.9114661
36,улица Желябова,170100,56.8541788,35.9115442
32,улица Желябова,170100,56.8542690,35.9109182
30,улица Желябова,170100,56.8543543,35.9105735
42,Советская улица,170100,56.8587850,35.9159576
40,Советская улица,170100,56.8588618,35.9152716
52 к1,улица Паши Савельевой,170039,56.8863331,35.8411287
22,Новоторжская улица,170100,56.8580608,35.9164526
14,улица Софьи Перовской,170006,56.8591099,35.8857571
35,переулок Трудолюбия,170006,56.8591161,35.8843306
10/32,улица Софьи Перовской,170006,56.8597460,35.8872373
12,улица Софьи Перовской,170006,56.8594515,35.8866909
24,Советская улица,170100,56.8598934,35.9083404
18,Советская улица,170100,56.8599986,35.9067632
8,Советская улица,170100,56.8608403,35.9014979
20,Новоторжская улица,170100,56.8583692,35.9137054
34,улица Андрея Дементьева,170100,56.8565696,35.9173901
5А,Пушкинская улица,170100,56.8564262,35.9189657
33,бульвар Радищева,170100,56.8570002,35.9124626
15 с1,проспект Калинина,170001,56.8537371,35.8656031
19,улица Андрея Дементьева,170100,56.8555873,35.9156798
5,улица Андрея Дементьева,170100,56.8528269,35.9142916
63,Симеоновская улица,170100,56.8552004,35.9154209
38,улица Андрея Дементьева,170100,56.8571018,35.9173478
7,улица Андрея Дементьева,170100,56.8536671,35.9146156
58,Симеоновская улица,170100,56.8550224,35.9148354
1,улица Андрея Дементьева,170100,56.8518996,35.9146718
5А,улица Андрея Дементьева,170100,56.8532134,35.9144582
53,улица Желябова,170100,56.8540187,35.9149130
60,Симеоновская улица,170100,56.8549433,35.9152195
15,улица Андрея Дементьева,170100,56.8543661,35.9150533
17,улица Андрея Дементьева,170100,56.8546993,35.9151789
40,улица Андрея Дементьева,170100,56.8572599,35.9174309
4,улица Крылова,170100,56.8569470,35.9183888
10,улица Крылова,170100,56.8569812,35.9190343
46,улица Жигарева,170100,56.8521336,35.9163880
24,улица Бобкова,170024,56.8508905,35.8304896
24 к2,улица Бобкова,170024,56.8514836,35.8300705
24 к3,улица Бобкова,170024,56.8523822,35.8297374
16,проспект Ленина,170024,56.8501327,35.8324655
22/31,проспект Ленина,170024,56.8507886,35.8367157
26 к6,улица Бобкова,170024,56.8530795,35.8287157
26 к8,улица Бобкова,170024,56.8529958,35.8280403
19,улица Чудова,170024,56.8539850,35.8283826
14,улица Чудова,170024,56.8541680,35.8275941
26 к2,улица Бобкова,170024,56.8514432,35.8293183
26 к5,улица Бобкова,170024,56.8516982,35.8284316
26 к4,улица Бобкова,170024,56.8523027,35.8290261
26 к7,улица Бобкова,170024,56.8523259,35.8282306
26 к1,улица Бобкова,170024,56.8507462,35.8291052
50/34,улица Евгения Пичугина,170024,56.8504090,35.8246649
52,улица Евгения Пичугина,170024,56.8508850,35.8244069
54,улица Евгения Пичугина,170024,56.8513856,35.8242369
56,улица Евгения Пичугина,170024,56.8518793,35.8241767
21 к1,улица Бобкова,170024,56.8498019,35.8251448
10,проспект Ленина,170024,56.8494293,35.8281992
8,проспект Ленина,170024,56.8491301,35.8274040
6,проспект Ленина,170024,56.8492729,35.8266602
142 к1,набережная Афанасия Никитина,170042,56.8689460,35.8854233
144,набережная Афанасия Никитина,170042,56.8694601,35.8832125
142,набережная Афанасия Никитина,170042,56.8687202,35.8861898
12,Академическая улица,170023,56.8491494,35.8392514
1,улица Зои Космодемьянской,170024,56.8485321,35.8316983
20,Академическая улица,170024,56.8479523,35.8350988
10,улица Лизы Чайкиной,170024,56.8484577,35.8347710
1,улица Лизы Чайкиной,170024,56.8483802,35.8339602
18,Академическая улица,170024,56.8482835,35.8361501
4,Новоторжская улица,170100,56.8584242,35.9060604
1А,1-я Лагерная улица,170024,56.8476831,35.8208084
3Г,проспект Николая Корыткова,170024,56.8466904,35.8167916
3,проспект Николая Корыткова,170024,56.8470210,35.8179400
8/22,2-й Академический проезд,170024,56.8468029,35.8273555
71,улица Маршала Конева,170024,56.8451756,35.8315626
72,2-я улица Красина,170003,56.8851817,35.8647490
1,площадь Славы,170100,56.8528499,35.9175807
6,улица Андрея Дементьева,170100,56.8535612,35.9157438
4,улица Андрея Дементьева,170100,56.8532054,35.9152878
17,улица Жигарева,170100,56.8531058,35.9124425
57,улица Желябова,170100,56.8539337,35.9157907
22,улица Андрея Дементьева,170100,56.8547822,35.9162812
74,2-я улица Красина,170003,56.8846461,35.8636057
47,Петербургское шоссе,170020,56.8736830,35.8491468
38,улица Гайдара,170009,56.8415398,35.7794222
30,улица Гайдара,170009,56.8418068,35.7788997
39,улица Гайдара,170009,56.8412912,35.7791162
15,улица Громова,170009,56.8409880,35.7678439
19,улица Вольного Новгорода,170100,56.8597914,35.9157352
32,набережная реки Тьмаки,170006,56.8607380,35.8923391
7,улица Софьи Перовской,170006,56.8594790,35.8894902
19,проспект Калинина,170001,56.8547035,35.8679112
7,улица Дмитрия Донского,170006,56.8560986,35.8931798
116 к1,улица Академика Туполева,170019,56.8643776,35.9607532
5,Молодёжный бульвар,170039,56.8805386,35.8390920
52 к2,улица Паши Савельевой,170039,56.8870272,35.8415399
52 к4,улица Паши Савельевой,170039,56.8875062,35.8400745
48 к1,улица Паши Савельевой,170039,56.8851425,35.8429670
48,улица Паши Савельевой,170039,56.8847056,35.8412306
48 к2,улица Паши Савельевой,170039,56.8843927,35.8422995
87 к2,Октябрьский проспект,170043,56.8217754,35.8919143
87 к1,Октябрьский проспект,170043,56.8218375,35.8909240
56,улица Можайского,170043,56.8209849,35.8932681
54,улица Можайского,170043,56.8223843,35.8917759
91,Октябрьский проспект,170043,56.8207924,35.8913258
95 к2,Октябрьский проспект,170043,56.8198887,35.8903024
95 к1,Октябрьский проспект,170043,56.8202145,35.8893609
97,Октябрьский проспект,170043,56.8195436,35.8878803
89,Октябрьский проспект,170043,56.8215204,35.8902578
93,Октябрьский проспект,170043,56.8208856,35.8894298
42,бульвар Гусева,170043,56.8184586,35.8911496
95 к3,Октябрьский проспект,170043,56.8201986,35.8920162
11,улица Вагжанова,170100,56.8526926,35.9360580
9,улица Королёва,170030,56.8260070,35.9110210
7А,улица Королёва,170030,56.8266395,35.9106067
5,улица Королёва,170030,56.8264203,35.9093878
6,Советская улица,170100,56.8608727,35.9006194
9,улица Софьи Перовской,170006,56.8595107,35.8884817
32,Петербургское шоссе,170003,56.8736141,35.8600803
30,Петербургское шоссе,170003,56.8728293,35.8612077
20,набережная реки Тьмаки,170006,56.8586507,35.8952709
1Б,улица Бебеля,170006,56.8595909,35.8948421
38,набережная Афанасия Никитина,170026,56.8663653,35.9049063
1А,набережная реки Тьмаки,170006,56.8536311,35.9015343
8,улица Софьи Перовской,170006,56.8600162,35.8880498
37А,улица Дмитрия Донского,170006,56.8617465,35.8881282
4,Краснофлотская набережная,170006,56.8625408,35.8895617
40,улица Ефимова,170006,56.8617928,35.8867784
37 с1,улица Дмитрия Донского,170006,56.8621734,35.8858745
2,улица Софьи Перовской,170006,56.8610458,35.8906411
1,Краснофлотская набережная,170006,56.8616617,35.8909210
5,Краснофлотская набережная,170006,56.8630913,35.8842502
19/4,улица Горького,170026,56.8664159,35.9102673
12,улица Дарвина,170034,56.8500341,35.8943609
7 к3,проспект Победы,170034,56.8490882,35.9107856
7 к4,проспект Победы,170034,56.8493506,35.9115816
7 к5,проспект Победы,170034,56.8498407,35.9113528
11А,проспект Победы,170034,56.8480528,35.9101677
7,бульвар Радищева,170100,56.8579241,35.9059304
53/12,улица Михаила Румянцева,170041,56.8791457,35.9067388
18,проспект Победы,170034,56.8445672,35.9169987
6,Новоторжская улица,170100,56.8583201,35.9066932
8,улица Колодкина,170002,56.8369227,35.8905319
36,Затверецкая набережная,170007,56.8669896,35.9211829
1,набережная Афанасия Никитина,170026,56.8648355,35.9170328
22,набережная Афанасия Никитина,170026,56.8655183,35.9149958
39,улица 15 лет Октября,170008,56.8423764,35.9279141
37А,проспект Победы,170008,56.8419214,35.9264284
12А,Озёрная улица,170008,56.8434535,35.9253267
12,Озёрная улица,170008,56.8429912,35.9261386
1,Озёрная улица,170008,56.8455015,35.9213717
23/6,улица Ротмистрова,170008,56.8456906,35.9311356
27,проспект Победы,170008,56.8432401,35.9222782
12,улица 15 лет Октября,170008,56.8444078,35.9294204
12А,улица 15 лет Октября,170008,56.8446977,35.9287950
7,улица 15 лет Октября,170008,56.8444420,35.9304159
37,проспект Победы,170008,56.8421810,35.9251440
13,улица Тамары Ильиной,170008,56.8408474,35.9233462
11 к2,Озёрная улица,170008,56.8441741,35.9263373
46Б,проспект Победы,170028,56.8392174,35.9289931
5,улица Большевиков,170001,56.8511043,35.8687757
62,проспект Калинина,170001,56.8548318,35.8612065
7А/2,2-я улица Лукина,170028,56.8416015,35.9413498
120А,улица Седова,170036,56.8778394,35.8337727
120Б,улица Седова,170036,56.8775857,35.8342712
7 к2,проспект Победы,170034,56.8484568,35.9091636
6,2-я улица Лукина,170023,56.8417975,35.9398194
5,проспект Ленина,170024,56.8485347,35.8286772
54/62,улица 15 лет Октября,170008,56.8378330,35.9209697
43 к3,Зелёный проезд,170028,56.8300934,35.9248672
1,переулок Шевченко,170026,56.8671485,35.9143416
2,площадь Славы,170100,56.8524610,35.9204317
33,улица Жигарева,170100,56.8518343,35.9221625
3,Смоленский переулок,170100,56.8517830,35.9237560
30А,Полевая улица,170027,56.8285688,35.8528608
9Б,улица Лукина,170023,56.8414802,35.9383182
35,улица Склизкова,170033,56.8380880,35.9214398
45 к5,Зелёный проезд,170028,56.8273890,35.9265056
46,улица Фадеева,170028,56.8333299,35.9209429
25 с1,улица Склизкова,170008,56.8396573,35.9175759
37,улица Склизкова,170008,56.8377417,35.9223127
35,бульвар Цанова,170028,56.8309127,35.9193801
21,улица Фадеева,170033,56.8359181,35.9102891
18А,улица Коминтерна,170002,56.8366379,35.8930850
45Б,Петербургское шоссе,170027,56.8704291,35.8532441
45Г,Петербургское шоссе,170003,56.8714879,35.8471105
45В,Петербургское шоссе,170003,56.8715388,35.8480924
47/51,Волоколамское шоссе,170043,56.8272487,35.8819800
46А,проспект Чайковского,170002,56.8430915,35.9030209
68 к2,улица Можайского,170030,56.8127142,35.9123945
68 к1,улица Можайского,170030,56.8132122,35.9114677
68 к3,улица Можайского,170030,56.8127902,35.9109201
72,улица Можайского,170030,56.8140700,35.9125473
42,проспект Чайковского,170002,56.8441981,35.9035588
42А,проспект Чайковского,170002,56.8440145,35.9041658
44,проспект Чайковского,170002,56.8436653,35.9029723
4,улица Ерофеева,170034,56.8455807,35.9063613
40/2,проспект Чайковского,170034,56.8447510,35.9044404
10,бульвар Гусева,170030,56.8257632,35.9022829
8,бульвар Гусева,170030,56.8256761,35.9036370
14,бульвар Гусева,170030,56.8249596,35.9025930
12,бульвар Гусева,170030,56.8248483,35.9040975
5,улица Ерофеева,170034,56.8458723,35.9077958
1А с2,Спортивный переулок,170002,56.8394186,35.8945875
1А к3,Спортивный переулок,170002,56.8393423,35.8944289
1А,Спортивный переулок,170002,56.8401056,35.8952215
27,проспект Чайковского,170002,56.8427028,35.8996868
3А,2-я улица Суворова,170002,56.8425113,35.8983071
29,проспект Чайковского,170002,56.8421592,35.8989694
33,проспект Чайковского,170002,56.8413451,35.8980629
3,2-я улица Суворова,170002,56.8427932,35.8975651
1,1-я улица Суворова,170002,56.8440022,35.8971264
2А,Александровский переулок,170002,56.8397132,35.8938617
23 с2,проспект Чайковского,170002,56.8439495,35.9000925
9А,Александровский переулок,170002,56.8395199,35.8913114
1А с1,Спортивный переулок,170002,56.8395839,35.8948111
1Б,Спортивный переулок,170002,56.8408250,35.8932938
8,улица Гончаровой,170001,56.8446330,35.8766033
1,улица Коробкова,170002,56.8456176,35.9028976
10,улица Гончаровой,170001,56.8442181,35.8781588
19А к1,проспект Чайковского,170034,56.8463749,35.9042861
19А,проспект Чайковского,170034,56.8460661,35.9037093
1 литВ,1-я улица Суворова,170002,56.8438265,35.8965805
19,проспект Чайковского,170002,56.8444922,35.9019598
7,улица Коробкова,170002,56.8456363,35.9009939
5,улица Коробкова,170002,56.8457014,35.9004944
61/115,улица Академика Туполева,170019,56.8659658,35.9487925
61А,улица Академика Туполева,170019,56.8659181,35.9491662
16,улица Салтыкова-Щедрина,170100,56.8537152,35.9204005
30,Октябрьский проспект,170043,56.8286748,35.8945734
34,улица Желябова,170100,56.8542839,35.9111305
1 к1,Московское шоссе,170100,56.8477252,35.9470211
1 к2,Московское шоссе,170100,56.8482046,35.9468636
35,улица Желябова,170100,56.8550288,35.9108804
33 к1,улица Желябова,170100,56.8551106,35.9103838
39,улица Желябова,170100,56.8543737,35.9141484
12/2,Пролетарская набережная,170004,56.8414985,35.8479691
14,Вагжановский переулок,170100,56.8517142,35.9318253
21А,проспект Чайковского,170002,56.8438071,35.9011366
27/32,проспект Чайковского,170002,56.8433787,35.9005790
6,улица Коробкова,170002,56.8450116,35.8989612
11,1-я улица Суворова,170002,56.8454818,35.8928485
9,1-я улица Суворова,170002,56.8451599,35.8919639
18,улица Коробкова,170002,56.8461499,35.8930862
14,улица Коробкова,170002,56.8458920,35.8946977
16,улица Коробкова,170002,56.8459130,35.8938105
20,улица Коробкова,170002,56.8462763,35.8920564
12,улица Коробкова,170002,56.8457759,35.8957508
18А,улица Колодкина,170002,56.8383150,35.8868238
10,1-я улица Суворова,170002,56.8454106,35.8951821
44,улица Гончаровой,170002,56.8414687,35.8834497
23,проспект Чайковского,170002,56.8441809,35.9002009
23 с2,проспект Чайковского,170002,56.8442553,35.8996075
56,улица Софьи Перовской,170006,56.8568432,35.8803073
36 к1,Затверецкая набережная,170007,56.8670948,35.9236234
33,Беляковский переулок,170006,56.8590634,35.8788549
95Г,улица Коминтерна,170028,56.8265757,35.9302124
15,1-я Краснознамённая улица,170004,56.8459525,35.8439912
13,1-я Краснознамённая улица,170004,56.8461255,35.8439223
7,1-я Краснознамённая улица,170004,56.8466919,35.8436481
17,1-я Краснознамённая улица,170004,56.8456542,35.8441356
11,1-я Краснознамённая улица,170004,56.8463043,35.8438622
5,1-я Краснознамённая улица,170004,56.8468738,35.8435762
9,1-я Краснознамённая улица,170004,56.8465280,35.8437219
47В,улица Спартака,170001,56.8511021,35.8871850
47,улица Спартака,170001,56.8503631,35.8882640
5А,улица Серебряковская Пристань,170001,56.8619805,35.8619124
31,бульвар Гусева,170030,56.8223863,35.9026463
112,улица Склизкова,170028,56.8311726,35.9410529
114,улица Склизкова,170028,56.8310917,35.9418663
116 к2,улица Склизкова,170028,56.8303324,35.9431146
116,улица Склизкова,170028,56.8305804,35.9422920
20/27,улица Мусоргского,170041,56.8729802,35.9029995
18,улица Мусоргского,170041,56.8723643,35.9027095
14,улица Мусоргского,170041,56.8713104,35.9024888
29,бульвар Шмидта,170041,56.8729240,35.9034748
20/27А,улица Мусоргского,170041,56.8727399,35.9028838
29,бульвар Гусева,170030,56.8228254,35.9041566
5,улица Серебряковская Пристань,170001,56.8617177,35.8640317
9 к5,Индустриальная улица,170100,56.8519080,35.9548070
75А,проспект Победы,170028,56.8335843,35.9473182
75/1,проспект Победы,170028,56.8334582,35.9464160
38Б,улица Коминтерна,170033,56.8304165,35.9091251
10В,улица Коминтерна,170002,56.8324688,35.9012895
46,улица Коминтерна,170028,56.8270182,35.9177145
41,Волоколамский проспект,170033,56.8346327,35.9070087
43,Волоколамский проспект,170033,56.8343306,35.9061458
45,Волоколамский проспект,170033,56.8335987,35.9052234
101,Октябрьский проспект,170043,56.8158179,35.8863804
1А,бульвар Цанова,170033,56.8348743,35.9078380
72А,улица Можайского,170016,56.8135879,35.9118802
64,улица Можайского,170030,56.8140106,35.9091594
87,улица Левитана,170016,56.8134781,35.9045237
14 к2,бульвар Гусева,170030,56.8247554,35.9017261
14 к3,бульвар Гусева,170030,56.8244135,35.9026419
7,бульвар Гусева,170030,56.8231816,35.9084576
36,улица Левитана,170043,56.8201431,35.9071597
22,улица Левитана,170030,56.8232472,35.9115364
27,бульвар Гусева,170030,56.8214646,35.9058182
24,улица Королёва,170030,56.8246192,35.9111160
22,улица Королёва,170030,56.8239778,35.9101275
20,улица Левитана,170030,56.8226621,35.9124465
5,бульвар Гусева,170030,56.8251450,35.9067381
9,бульвар Гусева,170030,56.8246538,35.9061133
28/18,улица Королёва,170030,56.8238836,35.9129501
25,бульвар Гусева,170030,56.8218826,35.9048294
24,улица Левитана,170030,56.8227090,35.9104502
18,улица Королёва,170030,56.8253284,35.9092656
67,улица Можайского,170030,56.8202486,35.9050037
20,улица Королёва,170030,56.8243007,35.9094951
26,улица Королёва,170030,56.8236631,35.9107109
16/1,улица Королёва,170030,56.8256854,35.9074419
2,бульвар Гусева,170030,56.8248031,35.9068554
26,улица Левитана,170030,56.8219985,35.9103714
61,улица Можайского,170043,56.8218076,35.8983189
71 к1,улица Можайского,170043,56.8203588,35.9019739
37,бульвар Гусева,170030,56.8214120,35.9033650
39,бульвар Гусева,170030,56.8208852,35.9023878
38,улица Левитана,170030,56.8195064,35.9067797
65,улица Можайского,170030,56.8202996,35.9037859
33,бульвар Гусева,170030,56.8222672,35.9037991
69,улица Можайского,170030,56.8201691,35.9058828
34,улица Левитана,170030,56.8193742,35.9084215
35,бульвар Гусева,170030,56.8219272,35.9033631
60 к1,улица Можайского,170043,56.8196003,35.8999920
31 к1,бульвар Гусева,170030,56.8215170,35.9014802
71,улица Можайского,170030,56.8193377,35.9039272
15,бульвар Гусева,170030,56.8231414,35.9047608
21,бульвар Гусева,170030,56.8218874,35.9072196
19,бульвар Гусева,170030,56.8223503,35.9065549
17,бульвар Гусева,170030,56.8227778,35.9057096
32,улица Левитана,170030,56.8201919,35.9087527
73,улица Можайского,170030,56.8190410,35.9058914
75,улица Можайского,170030,56.8183961,35.9063355
28,улица Левитана,170030,56.8214430,35.9109502
9А с1,улица Королёва,170030,56.8254217,35.9141061
34Б,улица Терещенко,170033,56.8365765,35.9138192
22,улица Терещенко,170008,56.8400299,35.9175345
5А/1,улица Богданова,170008,56.8404996,35.9194543
5А,улица Богданова,170008,56.8412019,35.9190067
56,улица Коминтерна,170028,56.8236434,35.9270249
1Б,улица Тамары Ильиной,170008,56.8404245,35.9228768
24,Волоколамский проспект,170033,56.8366791,35.9077681
11,Университетский переулок,170033,56.8356184,35.9056504
22А,Новоторжская улица,170100,56.8580685,35.9160972
50,улица Жигарева,170100,56.8512669,35.9194946
5,Баррикадная улица,170001,56.8501440,35.8720861
18 к2,улица Александра Завидова,170002,56.8350548,35.9031120
18 к1,улица Александра Завидова,170002,56.8350742,35.9022622
6,Университетский переулок,170002,56.8357582,35.9038636
4,проспект Победы,170034,56.8470727,35.9089272
2,улица Ерофеева,170034,56.8461153,35.9066643
20,улица Фрунзе,170039,56.8886149,35.8402813
54,улица Паши Савельевой,170039,56.8878773,35.8385071
3А,1-я Силикатная улица,170019,56.8668715,35.9577016
72,Кольцевая улица,170021,56.8880118,35.9061095
1Б,1-я улица Суворова,170002,56.8433785,35.8940570
7 к1,1-я улица Суворова,170002,56.8430730,35.8925617
1А,1-я улица Суворова,170002,56.8440674,35.8964563
1В,1-я улица Суворова,170002,56.8431604,35.8945183
15А,набережная реки Лазури,170100,56.8446213,35.9429734
10,Смоленский переулок,170100,56.8511827,35.9249946
2,улица Ерофеева,170034,56.8458838,35.9071393
44 к3,проспект Чайковского,170002,56.8433671,35.9038623
46Б,проспект Чайковского,170002,56.8429989,35.9038766
8,улица Склизкова,170002,56.8430166,35.9073377
11,улица Кайкова,170034,56.8419281,35.9117671
84,улица Паши Савельевой,170039,56.9045537,35.8212752
20,улица Коминтерна,170002,56.8357422,35.8956047
24,улица Коминтерна,170002,56.8340770,35.8979882
27,набережная Афанасия Никитина,170026,56.8658391,35.9032263
47А,улица Коминтерна,170002,56.8367119,35.8943611
11 к1,улица Вагжанова,170100,56.8519694,35.9362859
5,проспект Чайковского,170034,56.8501494,35.9041733
46,Беляковский переулок,170006,56.8613181,35.8774638
13Б с8,Индустриальная улица,170100,56.8450314,35.9691519
130,Петербургское шоссе,170036,56.8821092,35.8052496
2А,улица Арсения Степанова,170001,56.8481012,35.8762788
11,улица Арсения Степанова,170001,56.8480722,35.8785739
45Б,Петербургское шоссе,170003,56.8713059,35.8491740
105 к4,Петербургское шоссе,170036,56.8756938,35.8232907
105 к7,Петербургское шоссе,170036,56.8765901,35.8235783
105 к6,Петербургское шоссе,170036,56.8765372,35.8223059
105 к3,Петербургское шоссе,170036,56.8747120,35.8236950
10,1-я улица Трусова,170002,56.8462500,35.8898629
5,улица Макарова,170002,56.8482742,35.8888682
8,Пионерская улица,170002,56.8462641,35.8892849
17,1-я улица Суворова,170002,56.8448075,35.8941618
19,1-я улица Суворова,170002,56.8442284,35.8954176
5А,улица Макарова,170002,56.8486001,35.8888653
3,улица Макарова,170002,56.8489132,35.8890325
39,1-я улица Александра Невского,170007,56.8653247,35.9296149
42А,Затверецкая набережная,170007,56.8677143,35.9210104
36 к1,Затверецкая набережная,170007,56.8667702,35.9232167
30/27,Симеоновская улица,170100,56.8557380,35.9093240
83,1-я улица Александра Невского,170007,56.8689499,35.9283478
81,1-я улица Александра Невского,170007,56.8687195,35.9284069
71,1-я улица Александра Невского,170007,56.8678546,35.9285172
77,1-я улица Александра Невского,170007,56.8682680,35.9285171
73,1-я улица Александра Невского,170007,56.8680771,35.9286234
67,1-я улица Александра Невского,170007,56.8676856,35.9287357
79,1-я улица Александра Невского,170007,56.8684213,35.9284415
46,Затверецкая набережная,170007,56.8692738,35.9207315
100,проспект Чайковского,170002,56.8376398,35.8953528
96,проспект Чайковского,170002,56.8384453,35.8961642
98,проспект Чайковского,170002,56.8380371,35.8959314
1,1-я Соляная улица,170002,56.8419950,35.9023803
6,улица Склизкова,170002,56.8432070,35.9059308
24/2Б,проспект Чайковского,170034,56.8475720,35.9066879
26,проспект Чайковского,170034,56.8466787,35.9058929
27,проспект Ленина,170023,56.8503455,35.8406703
10,Академическая улица,170023,56.8494668,35.8405580
144 к1,набережная Афанасия Никитина,170042,56.8693755,35.8836967
14,улица Вагжанова,170100,56.8501701,35.9383002
10 к2,Молодёжный бульвар,170039,56.8841184,35.8348934
35 к3,улица Паши Савельевой,170039,56.8849781,35.8371535
50,1-я Республиканская улица,170024,56.8436370,35.8238592
5,2-й Академический проезд,170024,56.8464079,35.8271486
44,1-я Республиканская улица,170024,56.8441583,35.8231270
42/13,1-я Республиканская улица,170024,56.8443461,35.8228475
50А,1-я Республиканская улица,170024,56.8436793,35.8242099
21,1-я Республиканская улица,170024,56.8440473,35.8226427
3,2-й Академический проезд,170024,56.8461806,35.8272245
46,1-я Республиканская улица,170024,56.8439725,35.8234126
31,1-я Республиканская улица,170024,56.8433544,35.8236053
46А,1-я Республиканская улица,170024,56.8438774,35.8235623
4,2-й Академический проезд,170024,56.8462433,35.8276832
29,1-я Республиканская улица,170024,56.8434826,35.8233783
25,1-я Республиканская улица,170024,56.8437666,35.8230360
48,1-я Республиканская улица,170024,56.8437103,35.8237290
23,1-я Республиканская улица,170024,56.8438624,35.8228610
52,1-я Республиканская улица,170024,56.8434821,35.8240650
19,1-я Республиканская улица,170024,56.8441986,35.8223445
27,1-я Республиканская улица,170024,56.8436294,35.8232385
10,1-я Лагерная улица,170024,56.8477105,35.8231567
7/24,2-й Академический проезд,170024,56.8466643,35.8269907
17,2-й Академический проезд,170024,56.8474486,35.8266452
11,1-я Лагерная улица,170024,56.8480992,35.8235780
2,2-я Лагерная улица,170024,56.8470375,35.8249791
12,1-я Лагерная улица,170024,56.8477441,35.8234954
13,2-й Академический проезд,170024,56.8471276,35.8264251
2Б,2-я Лагерная улица,170024,56.8473889,35.8250370
5,2-я Лагерная улица,170024,56.8466409,35.8245256
22/2,1-я Республиканская улица,170024,56.8472402,35.8217657
13,1-я Лагерная улица,170024,56.8481437,35.8239228
3,2-я Лагерная улица,170024,56.8465857,35.8249139
18,улица Евгения Пичугина,170024,56.8455909,35.8261885
6,1-я Лагерная улица,170024,56.8476529,35.8224332
4,1-я Лагерная улица,170024,56.8476059,35.8220845
8,1-я Лагерная улица,170024,56.8476926,35.8227764
7А/2,2-я Лагерная улица,170024,56.8465706,35.8238732
24,2-й Академический проезд,170024,56.8479585,35.8263576
15,1-я Лагерная улица,170024,56.8481404,35.8242274
5,1-я Лагерная улица,170024,56.8478957,35.8222622
9,1-я Лагерная улица,170024,56.8480412,35.8231945
11,2-й Академический проезд,170024,56.8470301,35.8267352
7,1-я Лагерная улица,170024,56.8480170,35.8228689
2/22,1-я Лагерная улица,170024,56.8475854,35.8216036
17,1-я Лагерная улица,170024,56.8481052,35.8244719
1/1,2-я Лагерная улица,170024,56.8467268,35.8252785
14,1-я Лагерная улица,170024,56.8475924,35.8237748
2А,2-я Лагерная улица,170024,56.8472526,35.8250271
25,проспект Ленина,170023,56.8498640,35.8388557
1 к2,проспект Чайковского,170034,56.8496589,35.9040749
3,площадь Славы,170100,56.8539725,35.9185748
1,проспект Чайковского,170034,56.8508381,35.9045024
23,2-й проезд Розы Люксембург,170019,56.8622610,35.9495742
26/38,1-й Волжский проезд,170019,56.8616127,35.9519942
25/36,1-й Волжский проезд,170019,56.8616012,35.9515849
22,2-й проезд Розы Люксембург,170019,56.8622294,35.9491065
25,2-й проезд Розы Люксембург,170019,56.8620777,35.9496769
20,2-й проезд Розы Люксембург,170019,56.8624174,35.9491079
17/25,2-й проезд Розы Люксембург,170019,56.8628810,35.9495958
27,2-й проезд Розы Люксембург,170019,56.8619161,35.9496834
19,2-й проезд Розы Люксембург,170019,56.8626201,35.9496198
26,2-й проезд Розы Люксембург,170019,56.8618703,35.9490922
24,2-й проезд Розы Люксембург,170019,56.8620638,35.9490785
18,2-й проезд Розы Люксембург,170019,56.8626102,35.9490793
21,1-й Волжский проезд,170019,56.8621278,35.9515308
20,1-й Волжский проезд,170019,56.8623884,35.9519526
21,1-я Силикатная улица,170019,56.8620381,35.9556892
24,1-й Волжский проезд,170019,56.8619295,35.9520096
9,1-я Силикатная улица,170019,56.8627393,35.9556781
15,1-я Силикатная улица,170019,56.8624427,35.9556786
19,1-й Волжский проезд,170019,56.8623362,35.9513798
17,1-я Силикатная улица,170019,56.8623183,35.9556907
22,1-й Волжский проезд,170019,56.8621395,35.9519736
23,1-я Силикатная улица,170019,56.8619359,35.9556813
17,1-й Волжский проезд,170019,56.8626299,35.9515589
13,1-я Силикатная улица,170019,56.8626163,35.9556647
18,1-й Волжский проезд,170019,56.8625646,35.9519362
19,1-я Силикатная улица,170019,56.8621967,35.9556929
17/6,2-я Лагерная улица,170024,56.8463249,35.8209907
3,1-й проезд Добролюбова,170007,56.8740554,35.9392587
13,набережная реки Тьмаки,170006,56.8545330,35.8975631
9,набережная реки Тьмаки,170006,56.8549164,35.8974575
13 с2,набережная реки Тьмаки,170006,56.8539980,35.8973927
13 с4,набережная реки Тьмаки,170006,56.8537916,35.8986456
32,Смоленский переулок,170100,56.8556741,35.9279970
4,1-й проезд Карпинского,170041,56.8793736,35.9045193
2/60,1-й проезд Карпинского,170041,56.8794983,35.9039851
10,1-й проезд Карпинского,170041,56.8791484,35.9062076
6,1-й проезд Карпинского,170041,56.8793021,35.9050438
8,1-й проезд Карпинского,170041,56.8792125,35.9056671
3,1-я Мукомольная улица,170100,56.8519709,35.9424906
11,1-я Мукомольная улица,170100,56.8512393,35.9416605
2,1-я Мукомольная улица,170100,56.8516711,35.9414566
7,1-я Мукомольная улица,170100,56.8515933,35.9420085
9,1-я Мукомольная улица,170100,56.8514232,35.9418422
38,улица Арсения Степанова,170001,56.8484023,35.8817732
50,улица Арсения Степанова,170001,56.8481776,35.8839099
52,улица Арсения Степанова,170001,56.8481294,35.8843400
40,улица Арсения Степанова,170001,56.8483633,35.8821113
7 к3,Волоколамский проспект,170008,56.8463543,35.9241336
5А,Озёрная улица,170008,56.8458116,35.9238677
46,улица Евгения Пичугина,170024,56.8491227,35.8256710
48,улица Евгения Пичугина,170024,56.8493402,35.8251041
105,улица Коминтерна,170028,56.8219347,35.9417289
52,улица 15 лет Октября,170008,56.8385812,35.9219161
110,набережная Афанасия Никитина,170042,56.8679997,35.8918952
21,улица Вагжанова,170100,56.8504588,35.9399626
2,Университетский переулок,170002,56.8351847,35.9053044
28,1-я Республиканская улица,170024,56.8460633,35.8220633
11,2-я Лагерная улица,170024,56.8465131,35.8229099
30,1-я Республиканская улица,170024,56.8458785,35.8221511
9/1,2-я Лагерная улица,170024,56.8465564,35.8233178
38,1-я Республиканская улица,170024,56.8450805,35.8223950
13А,2-я Лагерная улица,170024,56.8463580,35.8223861
15/26,2-я Лагерная улица,170024,56.8464044,35.8219795
40,1-я Республиканская улица,170024,56.8447481,35.8225577
13,2-я Лагерная улица,170024,56.8464753,35.8225479
32,1-я Республиканская улица,170024,56.8456970,35.8222310
36,1-я Республиканская улица,170024,56.8452923,35.8223457
13,1-я улица Суворова,170002,56.8446270,35.8932914
7,1-я улица Суворова,170002,56.8440685,35.8928664
105,Октябрьский проспект,170043,56.8134908,35.8834434
44,улица Желябова,170100,56.8538861,35.9130907
46,улица Желябова,170100,56.8537980,35.9135868
1А,проспект Чайковского,170034,56.8492548,35.9060164
16,улица Вагжанова,170100,56.8493836,35.9400156
7,Смоленский переулок,170100,56.8521629,35.9245119
58,улица Желябова,170100,56.8531543,35.9164382
17А/1,улица Маршала Захарова,170023,56.8568733,35.8350801
20,улица Семёнова,170011,56.8436392,35.8637911
63/16,2-я Новозаводская улица,170007,56.8688268,35.9363927
3 к2,Свободный переулок,170100,56.8559731,35.9032661
34,Оснабрюкская улица,170027,56.8216492,35.8720023
13,1-я улица Трусова,170002,56.8442685,35.8902789
66,1-я улица Александра Невского,170007,56.8662345,35.9298198
11,1-я улица Александра Невского,170007,56.8624935,35.9305122
9,Смоленский переулок,170100,56.8527305,35.9251816
9 к1,Смоленский переулок,170100,56.8526206,35.9246067
63,Московская улица,170100,56.8508011,35.9338731
9,улица Арсения Степанова,170001,56.8481254,35.8796746
45 к8,Зелёный проезд,170028,56.8277047,35.9279880
45 к7,Зелёный проезд,170028,56.8275055,35.9275614
45 к9,Зелёный проезд,170028,56.8280566,35.9279157
45 к6,Зелёный проезд,170028,56.8273839,35.9272068
20,бульвар Радищева,170100,56.8570943,35.9083492
19,Комсомольский проспект,170041,56.8730018,35.9119381
10,улица Мичурина,170021,56.8768399,35.8960597
24/30,улица Мичурина,170041,56.8760946,35.9010067
52 к1,улица 15 лет Октября,170008,56.8389175,35.9213022
2/3,Баррикадная улица,170001,56.8513637,35.8712765
3А,Баррикадная улица,170001,56.8507180,35.8730870
48 к4,улица Паши Савельевой,170039,56.8842000,35.8435838
2А,улица Арсения Степанова,170001,56.8480065,35.8763512
24 к4,улица Бобкова,170024,56.8529134,35.8295546
11,улица Чернышевского,170000,56.8541908,35.9226484
19,улица Чернышевского,170000,56.8539299,35.9242940
2/16,улица Чернышевского,170000,56.8539472,35.9210214
91 к2,улица Коминтерна,170028,56.8266499,35.9211715
103,Октябрьский проспект,170043,56.8145562,35.8848842
5,площадь Гагарина,170100,56.8466739,35.9444587
5А,Старицкое шоссе,170040,56.8404849,35.8200861
15,Широкая улица,170027,56.8326536,35.8781200
11А,Промышленный проезд,170028,56.8228376,35.9426588
1,1-я улица Трусова,170002,56.8454205,35.8907002
7/16,2-я Колхозная улица,170004,56.8384347,35.8551931
9/15,2-я Колхозная улица,170004,56.8383082,35.8555304
5,2-я Колхозная улица,170004,56.8386123,35.8547803
1,2-я Колхозная улица,170004,56.8387420,35.8543501
3,2-я Колхозная улица,170004,56.8386856,35.8546473
6,2-я Колхозная улица,170004,56.8383984,35.8542813
8,2-я Колхозная улица,170004,56.8382733,35.8545779
26,Тракторная улица,170004,56.8367528,35.8544120
4,2-я Колхозная улица,170004,56.8385022,35.8539751
2А,2-я Колхозная улица,170004,56.8386173,35.8537309
5/22,2-й Желтиковский проезд,170004,56.8346900,35.8476330
3,2-й Желтиковский проезд,170004,56.8349560,35.8473751
4,2-й Желтиковский проезд,170004,56.8348202,35.8469995
9,2-й Желтиковский проезд,170004,56.8341915,35.8482565
10,2-й Желтиковский проезд,170004,56.8340939,35.8478847
19А,2-я Колхозная улица,170004,56.8373608,35.8578162
21,2-я Колхозная улица,170004,56.8372658,35.8580917
38,улица Халтурина,170004,56.8364912,35.8580742
17,2-я Колхозная улица,170004,56.8375386,35.8573923
21А,2-я Колхозная улица,170004,56.8371966,35.8582700
22,2-я Колхозная улица,170004,56.8370318,35.8576176
19,2-я Колхозная улица,170004,56.8374493,35.8576829
20,2-я Колхозная улица,170004,56.8371746,35.8572794
13,2-я Колхозная улица,170004,56.8378064,35.8567242
24,2-я Колхозная улица,170004,56.8369514,35.8579309
18,2-я Колхозная улица,170004,56.8373175,35.8569590
15,2-я Колхозная улица,170004,56.8376274,35.8571790
15,2-й Желтиковский проезд,170004,56.8334133,35.8491881
16,2-й Желтиковский проезд,170004,56.8332451,35.8488195
17,2-й Желтиковский проезд,170004,56.8332576,35.8493355
18/82,2-й Желтиковский проезд,170004,56.8330733,35.8490354
16/22,улица Декабристов,170004,56.8377926,35.8646581
10,улица Декабристов,170004,56.8382204,35.8634939
2,улица Декабристов,170004,56.8385212,35.8623986
8,улица Декабристов,170004,56.8383044,35.8632111
2,улица Декабристов,170004,56.8386964,35.8622535
6,улица Декабристов,170004,56.8384782,35.8629339
12,улица Декабристов,170004,56.8380516,35.8638632
14,улица Декабристов,170004,56.8379150,35.8642658
27,улица Халтурина,170004,56.8385428,35.8617255
7,1-я Колхозная улица,170004,56.8363597,35.8603974
1,1-я Колхозная улица,170004,56.8368146,35.8592237
2/43,1-я Колхозная улица,170004,56.8365515,35.8588939
12,1-я Колхозная улица,170004,56.8357836,35.8608377
5,1-я Колхозная улица,170004,56.8364790,35.8600718
14,1-я Колхозная улица,170004,56.8356890,35.8610626
11,1-я Колхозная улица,170004,56.8360562,35.8611782
6,1-я Колхозная улица,170004,56.8361575,35.8598192
15/32,1-я Колхозная улица,170004,56.8357516,35.8620017
3,1-я Колхозная улица,170004,56.8367224,35.8598492
9,1-я Колхозная улица,170004,56.8362074,35.8607163
13,1-я Колхозная улица,170004,56.8359566,35.8614240
4,1-я Колхозная улица,170004,56.8362969,35.8594608
8,1-я Колхозная улица,170004,56.8360579,35.8600778
16/34,1-я Колхозная улица,170004,56.8354881,35.8616147
10,1-я Колхозная улица,170004,56.8359693,35.8603753
32,Оснабрюкская улица,170027,56.8222851,35.8723966
16/21,улица Декабристов,170004,56.8375860,35.8651039
23,1-я Колхозная улица,170004,56.8350384,35.8636814
5,улица Циолковского,170004,56.8373486,35.8648133
19,1-я Колхозная улица,170004,56.8353131,35.8630365
27/44,1-я Колхозная улица,170004,56.8347806,35.8643235
21,1-я Колхозная улица,170004,56.8352065,35.8633575
20,улица Декабристов,170004,56.8371851,35.8660414
18А,улица Декабристов,170004,56.8373097,35.8657564
22,улица Декабристов,170004,56.8370130,35.8665376
25,1-я Колхозная улица,170004,56.8349693,35.8640297
17/37,1-я Колхозная улица,170004,56.8355516,35.8624262
26/30,улица Декабристов,170004,56.8367185,35.8671934
18,улица Декабристов,170004,56.8374087,35.8655447
24,улица Декабристов,170004,56.8369467,35.8667217
32,Смольная улица,170004,56.8365570,35.8668919
18,1-я Колхозная улица,170004,56.8352321,35.8620495
26/46,1-я Колхозная улица,170004,56.8346705,35.8636271
22,1-я Колхозная улица,170004,56.8349616,35.8629059
20,1-я Колхозная улица,170004,56.8351174,35.8625015
24,1-я Колхозная улица,170004,56.8348053,35.8632533
30,улица Декабристов,170004,56.8362992,35.8682243
28/29,улица Декабристов,170004,56.8365741,35.8676399
45,улица Новостроек,170004,56.8353896,35.8670979
31,Смольная улица,170004,56.8363460,35.8673817
37,Смольная улица,170004,56.8355837,35.8663222
43,Смольная улица,170004,56.8353410,35.8659800
1,Горбухинский переулок,170032,56.7922775,36.0266238
3,Горбухинский переулок,170032,56.7923252,36.0271276
7,Горбухинский переулок,170032,56.7923277,36.0278053
9,Горбухинский переулок,170032,56.7923203,36.0281658
15,Горбухинский переулок,170032,56.7924563,36.0293170
11,Горбухинский переулок,170032,56.7923237,36.0285985
12,Казанская улица,170032,56.7926186,36.0299292
9 к1,1-я улица Суворова,170002,56.8457949,35.8917170
4 к2,улица Макарова,170004,56.8469800,35.8884963
15,1-я улица Суворова,170002,56.8454577,35.8937272
1,набережная Степана Разина,170100,56.8620372,35.9064567
3,Краснофлотская набережная,170006,56.8636004,35.8863304
8,улица Карбышева,170027,56.8358751,35.8725468
28,улица Желябова,170100,56.8542118,35.9101076
1А,улица Тимирязева,170034,56.8498931,35.8932844
44,улица Склизкова,170033,56.8404391,35.9138129
70,2-я улица Красина,170003,56.8847543,35.8648697
78,2-я улица Красина,170003,56.8845429,35.8622378
4 к1,8-я улица Красной Слободы,170001,56.8606336,35.8654073
10,2-я Интернациональная улица,170001,56.8487478,35.8729838
2,2-я Интернациональная улица,170001,56.8495099,35.8734291
4,2-я Интернациональная улица,170001,56.8492733,35.8733262
6,2-я Интернациональная улица,170001,56.8491659,35.8731320
8,2-я Интернациональная улица,170001,56.8489012,35.8731243
30/9,2-я Интернациональная улица,170001,56.8466171,35.8716965
32,1-я Интернациональная улица,170001,56.8472366,35.8709614
64,бульвар Радищева,170100,56.8560040,35.9154611
99,Октябрьский проспект,170043,56.8178666,35.8878034
49,бульвар Радищева,170100,56.8564977,35.9157151
2,1-я улица Трусова,170002,56.8475726,35.8903469
5А,улица Дарвина,170034,56.8483565,35.8963952
10,4-й переулок Пески,170001,56.8497331,35.8748182
37,Хрустальная улица,170021,56.8897006,35.9027871
1А,Баррикадная улица,170001,56.8506889,35.8719099
7,улица Чернышевского,170000,56.8543257,35.9217854
9,улица Чернышевского,170000,56.8542736,35.9220789
38 к1,Бурашевское шоссе,170016,56.8144487,35.9192566
11,2-й проезд Плеханова,170021,56.8891434,35.8861263
3А,2-й проезд Плеханова,170021,56.8881195,35.8855441
5А,2-й проезд Плеханова,170021,56.8883185,35.8856429
9А,2-й проезд Плеханова,170021,56.8888273,35.8860136
2/38,2-й Дачный проезд,170021,56.8914083,35.8871916
1/16,2-й проезд Плеханова,170021,56.8877153,35.8859324
2/6,1-й проезд Плеханова,170021,56.8872439,35.8879735
7А,2-й проезд Плеханова,170021,56.8885899,35.8858873
20,улица Лидии Базановой,170100,56.8511132,35.9122903
1А,Смоленский переулок,170100,56.8499793,35.9219138
1 к2,Смоленский переулок,170100,56.8503195,35.9227842
1 к1,Смоленский переулок,170100,56.8508362,35.9225692
7А,посёлок Лоцманенко,170027,56.8334608,35.8774124
9,Кондукторская улица,170027,56.8341452,35.8765466
25А,Авангардная улица,170027,56.8331931,35.8754805
9,улица Машинистов,170043,56.8360941,35.8767610
94,Волоколамское шоссе,170043,56.8165360,35.8747849
92,Волоколамское шоссе,170043,56.8183425,35.8744214
33А,улица Большевиков,170001,56.8494504,35.8692054
24А,улица Большевиков,170001,56.8493598,35.8696236
33,улица Большевиков,170001,56.8495980,35.8683705
24,улица Большевиков,170001,56.8492265,35.8703201
35А,улица Большевиков,170001,56.8495117,35.8689027
37,улица Большевиков,170001,56.8491372,35.8682835
42,Баррикадная улица,170001,56.8476656,35.8692757
35,улица Большевиков,170001,56.8493443,35.8682848
34,Баррикадная улица,170001,56.8482379,35.8697073
32,Баррикадная улица,170001,56.8484152,35.8698340
45,улица Большевиков,170001,56.8481642,35.8681081
30,Баррикадная улица,170001,56.8486226,35.8699675
40,Баррикадная улица,170001,56.8478240,35.8693952
41,улица Большевиков,170001,56.8487880,35.8680629
47,улица Большевиков,170001,56.8479380,35.8683516
28,Баррикадная улица,170001,56.8487868,35.8701009
39,улица Большевиков,170001,56.8489802,35.8681437
26,Баррикадная улица,170001,56.8490119,35.8702454
38,Баррикадная улица,170001,56.8479524,35.8695342
46,Баррикадная улица,170001,56.8474665,35.8689557
65,1-я Завокзальная улица,170043,56.8309855,35.8923480
63,1-я Завокзальная улица,170043,56.8312445,35.8919107
61,1-я Завокзальная улица,170043,56.8314216,35.8916109
57,1-я Завокзальная улица,170043,56.8316479,35.8912691
51,1-я Завокзальная улица,170043,56.8319316,35.8906750
49,1-я Завокзальная улица,170043,56.8319792,35.8904495
45,1-я Завокзальная улица,170043,56.8321996,35.8901092
55,1-я Завокзальная улица,170043,56.8317410,35.8910737
59,1-я Завокзальная улица,170043,56.8315554,35.8914221
43,1-я Завокзальная улица,170043,56.8323349,35.8898642
53,1-я Завокзальная улица,170043,56.8318154,35.8908437
28,Оснабрюкская улица,170027,56.8221708,35.8694146
30,Оснабрюкская улица,170027,56.8227001,35.8712929
2,Псковская улица,170043,56.8154866,35.8889071
56,бульвар Гусева,170043,56.8134694,35.8880369
58,бульвар Гусева,170043,56.8142004,35.8883485
70,бульвар Гусева,170043,56.8118671,35.8840363
4,Псковская улица,170043,56.8147460,35.8889578
21,улица Коробкова,170001,56.8469897,35.8752481
20,Советская улица,170100,56.8599197,35.9074400
22,Советская улица,170100,56.8598104,35.9079102
13А,1-я улица Трусова,170002,56.8445382,35.8903643
11,1-я улица Трусова,170002,56.8447412,35.8904486
18,2-й проезд Седова,170039,56.8826076,35.8467699
7,2-й проезд Седова,170039,56.8818216,35.8453363
12,2-й проезд Седова,170039,56.8822829,35.8457263
4,2-й проезд Седова,170039,56.8817940,35.8443227
10,2-й проезд Седова,170039,56.8821244,35.8453818
11,2-й проезд Седова,170039,56.8820422,35.8459544
6,2-й проезд Седова,170039,56.8818804,35.8446936
15,2-й проезд Седова,170039,56.8822695,35.8465908
14,2-й проезд Седова,170039,56.8823496,35.8460017
9,2-й проезд Седова,170039,56.8818883,35.8456379
3,2-й проезд Седова,170039,56.8815771,35.8446075
13,2-й проезд Седова,170039,56.8821275,35.8462854
5,2-й проезд Седова,170039,56.8816609,35.8449228
16,2-й проезд Седова,170039,56.8824573,35.8462933
8,2-й проезд Седова,170039,56.8820244,35.8450286
17,2-й проезд Седова,170039,56.8824001,35.8469868
21,улица Благоева,170021,56.8753268,35.8959812
2,улица Арсения Степанова,170001,56.8491220,35.8743629
3,2-я Интернациональная улица,170001,56.8491975,35.8738610
7,2-я Интернациональная улица,170001,56.8489120,35.8736903
2,Староворобьёвская улица,170100,56.8523655,35.9220066
48,улица Желябова,170100,56.8536478,35.9139328
5 к4,улица Благоева,170042,56.8707019,35.8930225
25 к1,Волоколамский проспект,170033,56.8396358,35.9127437
4,2-й Западный проезд,170027,56.8335979,35.8656938
6,2-й Западный проезд,170027,56.8334572,35.8654896
5,2-й Западный проезд,170027,56.8333134,35.8658484
3,2-й Западный проезд,170027,56.8334135,35.8660147
24,улица 26 Июня,170012,56.8917440,35.8677308
52,улица Левитана,170043,56.8130491,35.9002542
56,улица Левитана,170043,56.8126948,35.8996950
13,1-й Паровозный переулок,170027,56.8316808,35.8818645
1,1-й Паровозный переулок,170027,56.8325260,35.8800773
9,1-й Паровозный переулок,170027,56.8319575,35.8812521
5,1-й Паровозный переулок,170027,56.8321969,35.8807509
15,1-й Паровозный переулок,170027,56.8315083,35.8822108
23,1-й Паровозный переулок,170027,56.8307917,35.8837242
17,1-й Паровозный переулок,170027,56.8313795,35.8825321
11,1-й Паровозный переулок,170027,56.8318268,35.8815474
21/15,1-й Паровозный переулок,170027,56.8310402,35.8832959
7,1-й Паровозный переулок,170027,56.8320547,35.8810589
3,1-й Паровозный переулок,170027,56.8323743,35.8803858
25/12,1-й Паровозный переулок,170027,56.8305875,35.8842080
27/13,1-й Паровозный переулок,170027,56.8300606,35.8852262
4,1-й Паровозный переулок,170027,56.8322503,35.8799281
18,1-й Паровозный переулок,170027,56.8315413,35.8814919
6,1-й Паровозный переулок,170027,56.8321689,35.8801525
12,1-й Паровозный переулок,170027,56.8318603,35.8807548
10,1-й Паровозный переулок,170027,56.8319752,35.8806049
36/15,1-й Паровозный переулок,170027,56.8298730,35.8849558
28,1-й Паровозный переулок,170027,56.8305777,35.8834867
16,1-й Паровозный переулок,170027,56.8316573,35.8812550
24/18,1-й Паровозный переулок,170027,56.8310446,35.8825459
8,1-й Паровозный переулок,170027,56.8320750,35.8803790
38,1-й Паровозный переулок,170027,56.8297006,35.8852026
32,1-й Паровозный переулок,170027,56.8302836,35.8841448
20,1-й Паровозный переулок,170027,56.8313791,35.8818275
14,1-й Паровозный переулок,170027,56.8317645,35.8810460
30,1-й Паровозный переулок,170027,56.8304524,35.8838038
2/1,1-й Паровозный переулок,170027,56.8324195,35.8796344
22,1-й Паровозный переулок,170027,56.8312405,35.8821396
34/1,1-й Паровозный переулок,170027,56.8300524,35.8846246
44,1-й переулок Вагонников,170012,56.8873354,35.8532139
32/1,1-й переулок Вагонников,170012,56.8867530,35.8515142
80,1-й переулок Вагонников,170012,56.8893342,35.8590480
34,1-й переулок Вагонников,170012,56.8868546,35.8517909
72,1-й переулок Вагонников,170012,56.8889137,35.8576787
84,1-й переулок Вагонников,170012,56.8896503,35.8599242
61/36,1-й переулок Вагонников,170012,56.8887779,35.8586386
86,1-й переулок Вагонников,170012,56.8897411,35.8602042
38,1-й переулок Вагонников,170012,56.8879513,35.8549383
48,1-й переулок Вагонников,170012,56.8874978,35.8536631
74,1-й переулок Вагонников,170012,56.8889596,35.8580026
30/2,1-й переулок Вагонников,170012,56.8865852,35.8510327
28,1-й переулок Вагонников,170012,56.8865045,35.8507767
40,1-й переулок Вагонников,170012,56.8878594,35.8546600
88,1-й переулок Вагонников,170012,56.8900363,35.8603521
56,1-й переулок Вагонников,170012,56.8870072,35.8522086
51,1-й переулок Вагонников,170012,56.8876812,35.8552583
59,1-й переулок Вагонников,170012,56.8886528,35.8580871
45,1-й переулок Вагонников,170012,56.8871678,35.8538130
36,1-й переулок Вагонников,170012,56.8880248,35.8551642
42/1,1-й переулок Вагонников,170012,56.8872975,35.8529202
58,1-й переулок Вагонников,170012,56.8869282,35.8520233
50/2,1-й переулок Вагонников,170012,56.8875954,35.8539555
82,1-й переулок Вагонников,170012,56.8895784,35.8596534
46,1-й переулок Вагонников,170012,56.8874346,35.8534782
1/73,1-й проезд Грибоедова,170021,56.8812327,35.8939509
4,1-й проезд Грибоедова,170021,56.8814818,35.8936419
6,1-й проезд Грибоедова,170021,56.8815187,35.8932767
5,1-й проезд Грибоедова,170021,56.8813126,35.8931849
2/75,1-й проезд Грибоедова,170021,56.8814359,35.8941014
3,1-й проезд Грибоедова,170021,56.8812718,35.8934913
2/53,1-й проезд Докучаева,170021,56.8782269,35.8923519
6,1-й проезд Докучаева,170021,56.8783504,35.8916403
51/1,улица Скворцова-Степанова,170021,56.8780222,35.8918616
5,1-й проезд Докучаева,170021,56.8781204,35.8915709
4,1-й проезд Докучаева,170021,56.8782832,35.8919813
13,1-й проезд Карпинского,170041,56.8789575,35.9058320
15,1-й проезд Карпинского,170041,56.8789376,35.9060866
5,1-й проезд Карпинского,170041,56.8790951,35.9047549
11,1-й проезд Карпинского,170041,56.8790044,35.9055018
7,1-й проезд Карпинского,170041,56.8790775,35.9049670
3,1-й проезд Карпинского,170041,56.8791403,35.9043951
9,1-й проезд Карпинского,170041,56.8790360,35.9052922
3,1-й проезд Красина,170021,56.8805135,35.8904481
5,1-й проезд Красина,170021,56.8806880,35.8905154
17,1-й проезд Красина,170021,56.8816188,35.8908474
15,1-й проезд Красина,170021,56.8814948,35.8908982
13,1-й проезд Красина,170021,56.8813183,35.8907856
7,1-й проезд Красина,170021,56.8808674,35.8905945
11,1-й проезд Красина,170021,56.8812059,35.8906562
19,1-й проезд Красина,170021,56.8817756,35.8910499
21,1-й проезд Красина,170021,56.8819530,35.8910944
9,1-й проезд Красина,170021,56.8809928,35.8906283
16,1-й проезд Красина,170021,56.8814013,35.8913013
18,1-й проезд Красина,170021,56.8815740,35.8913688
4,1-й проезд Красина,170021,56.8804643,35.8908572
14,1-й проезд Красина,170021,56.8812729,35.8912263
10,1-й проезд Красина,170021,56.8809315,35.8910963
20,1-й проезд Красина,170021,56.8817443,35.8914630
12,1-й проезд Красина,170021,56.8811110,35.8911996
6,1-й проезд Красина,170021,56.8806072,35.8909202
8,1-й проезд Красина,170021,56.8808136,35.8910174
22,1-й проезд Красина,170021,56.8818894,35.8915662
8,1-й проезд Куйбышева,170021,56.8907057,35.8739126
10,1-й проезд Куйбышева,170021,56.8909412,35.8740327
5,1-й проезд Куйбышева,170021,56.8903726,35.8731683
15/75,1-й проезд Куйбышева,170021,56.8913022,35.8735803
6,1-й проезд Куйбышева,170021,56.8905156,35.8737675
11,1-й проезд Куйбышева,170021,56.8909152,35.8734090
7,1-й проезд Куйбышева,170021,56.8905499,35.8732579
9,1-й проезд Куйбышева,170021,56.8907165,35.8733315
13,1-й проезд Куйбышева,170021,56.8910738,35.8734926
3,1-й проезд Куйбышева,170021,56.8899973,35.8729517
4,1-й проезд Куйбышева,170021,56.8902935,35.8738115
11,1-й проезд Льва Толстого,170021,56.8899588,35.8813172
9,1-й проезд Льва Толстого,170021,56.8898187,35.8812973
3,1-й проезд Льва Толстого,170021,56.8892721,35.8810220
1,1-й проезд Льва Толстого,170021,56.8891053,35.8809249
7,1-й проезд Льва Толстого,170021,56.8896189,35.8812012
5,1-й проезд Льва Толстого,170021,56.8894423,35.8811088
6,1-й проезд Льва Толстого,170021,56.8891231,35.8814010
12,1-й проезд Льва Толстого,170021,56.8898415,35.8817918
8,1-й проезд Льва Толстого,170021,56.8893350,35.8814780
4,1-й проезд Льва Толстого,170021,56.8889542,35.8813133
10,1-й проезд Льва Толстого,170021,56.8896503,35.8816694
13,1-й проезд Мичурина,170021,56.8794970,35.8902210
16,1-й проезд Мичурина,170021,56.8794700,35.8906779
14,1-й проезд Мичурина,170021,56.8792567,35.8905740
15,1-й проезд Нестерова,170043,56.8248370,35.8871503
19/26,1-й проезд Нестерова,170043,56.8244043,35.8866027
13,1-й проезд Нестерова,170043,56.8249775,35.8873259
31,1-й проезд Нестерова,170043,56.8233314,35.8852053
9/25,1-й проезд Нестерова,170043,56.8254001,35.8878896
29,1-й проезд Нестерова,170043,56.8234237,35.8853958
7,1-й проезд Нестерова,170043,56.8255927,35.8881401
21,1-й проезд Нестерова,170043,56.8241739,35.8863431
5,1-й проезд Нестерова,170043,56.8257474,35.8882957
23,1-й проезд Нестерова,170043,56.8240901,35.8861843
14,1-й проезд Нестерова,170043,56.8250942,35.8869715
6,1-й проезд Нестерова,170043,56.8257940,35.8879002
26/23,1-й проезд Нестерова,170043,56.8240118,35.8855397
30,1-й проезд Нестерова,170043,56.8235727,35.8849562
33/27,1-й проезд Нестерова,170043,56.8231229,35.8848983
16,1-й проезд Нестерова,170043,56.8249833,35.8868207
24,1-й проезд Нестерова,170043,56.8242387,35.8858307
12/24,1-й проезд Нестерова,170043,56.8253257,35.8872592
18/25,1-й проезд Нестерова,170043,56.8247845,35.8865804
32,1-й проезд Нестерова,170043,56.8234432,35.8848447
4,1-й проезд Нестерова,170043,56.8259666,35.8880727
34/25,1-й проезд Нестерова,170043,56.8232481,35.8845733
22,1-й проезд Нестерова,170043,56.8243595,35.8859692
4,1-й проезд Павлова,170041,56.8794752,35.9000396
7,1-й проезд Павлова,170041,56.8789735,35.9007107
3,1-й проезд Павлова,170041,56.8791923,35.9000029
8А,1-й проезд Павлова,170041,56.8794539,35.9006175
6,1-й проезд Павлова,170041,56.8794326,35.9003135
5,1-й проезд Павлова,170041,56.8790402,35.9003476
8,1-й проезд Павлова,170041,56.8795244,35.9009724
12,1-й проезд Плеханова,170021,56.8881652,35.8883639
7,1-й проезд Плеханова,170021,56.8883150,35.8880001
5,1-й проезд Плеханова,170021,56.8879698,35.8878066
6,1-й проезд Плеханова,170021,56.8876180,35.8880894
3,1-й проезд Плеханова,170021,56.8877146,35.8877048
14,1-й проезд Плеханова,170021,56.8883241,35.8884173
18,1-й проезд Плеханова,170021,56.8886692,35.8885784
9А,1-й проезд Плеханова,170021,56.8885888,35.8876604
8,1-й проезд Плеханова,170021,56.8878193,35.8881553
3А,1-й проезд Плеханова,170021,56.8877773,35.8872774
20,1-й проезд Плеханова,170021,56.8888721,35.8886552
9,1-й проезд Плеханова,170021,56.8885388,35.8881007
16,1-й проезд Плеханова,170021,56.8884981,35.8884901
7А,1-й проезд Плеханова,170021,56.8883630,35.8875933
10,1-й проезд Плеханова,170021,56.8879814,35.8882505
5А,1-й проезд Плеханова,170021,56.8879639,35.8874160
4,1-й проезд Плеханова,170021,56.8874809,35.8880107
22/7,1-й проезд Плеханова,170021,56.8891531,35.8887991
9,1-й проезд Соминка,170021,56.8847525,35.8925949
19,1-й проезд Соминка,170021,56.8849783,35.8908385
5,1-й проезд Соминка,170021,56.8846909,35.8930828
29,1-й проезд Соминка,170021,56.8852235,35.8890594
21,1-й проезд Соминка,170021,56.8850468,35.8906160
7,1-й проезд Соминка,170021,56.8847232,35.8928374
15,1-й проезд Соминка,170021,56.8849273,35.8912937
17,1-й проезд Соминка,170021,56.8847249,35.8909259
3,1-й проезд Соминка,170021,56.8846319,35.8934179
27,1-й проезд Соминка,170021,56.8852119,35.8893494
31,1-й проезд Соминка,170021,56.8852927,35.8888353
24/16,1-й проезд Соминка,170021,56.8853200,35.8903779
6,1-й проезд Соминка,170021,56.8849099,35.8931412
26/15,1-й проезд Соминка,170021,56.8854004,35.8898337
32,1-й проезд Соминка,170021,56.8855110,35.8889286
22,1-й проезд Соминка,170021,56.8852550,35.8907044
20,1-й проезд Соминка,170021,56.8852415,35.8909247
4,1-й проезд Соминка,170021,56.8848617,35.8935312
16,1-й проезд Соминка,170021,56.8851614,35.8913685
30,1-й проезд Соминка,170021,56.8854729,35.8891550
14/15,1-й проезд Соминка,170021,56.8851078,35.8917338
10,1-й проезд Соминка,170021,56.8849919,35.8927374
18,1-й проезд Соминка,170021,56.8851980,35.8911799
28,1-й проезд Соминка,170021,56.8854572,35.8894978
5,1-й проезд Чкалова,170043,56.8288053,35.8916960
18,1-й проезд Чкалова,170043,56.8280895,35.8902576
17,1-й проезд Чкалова,170043,56.8277766,35.8903512
12,1-й проезд Чкалова,170043,56.8285904,35.8908869
24/9,1-й проезд Чкалова,170043,56.8275370,35.8895486
7,1-й проезд Чкалова,170043,56.8286043,35.8914916
15,1-й проезд Чкалова,170043,56.8279407,35.8905796
16,1-й проезд Чкалова,170043,56.8282686,35.8904754
21/11,1-й проезд Чкалова,170043,56.8274454,35.8899064
10,1-й проезд Чкалова,170043,56.8287436,35.8910937
13,1-й проезд Чкалова,170043,56.8280952,35.8907729
8,1-й проезд Чкалова,170043,56.8289139,35.8913163
4,1-й проезд Чкалова,170043,56.8293020,35.8918243
14,1-й проезд Чкалова,170043,56.8284009,35.8906729
22,1-й проезд Чкалова,170043,56.8277382,35.8897572
3,1-й проезд Чкалова,170043,56.8289700,35.8919557
6,1-й проезд Чкалова,170043,56.8290870,35.8915325
20,1-й проезд Чкалова,170043,56.8279173,35.8900048
11,1-й проезд Чкалова,170043,56.8282515,35.8910278
19,1-й проезд Чкалова,170043,56.8275984,35.8901174
9,1-й проезд Чкалова,170043,56.8284501,35.8912221
5,1-я Завокзальная улица,170043,56.8341927,35.8847264
11А,1-я Завокзальная улица,170043,56.8338849,35.8857042
15,1-я Завокзальная улица,170043,56.8338401,35.8866126
11,1-я Завокзальная улица,170043,56.8340624,35.8858143
3,1-я Завокзальная улица,170043,56.8343547,35.8844955
7,1-я Завокзальная улица,170043,56.8342267,35.8852433
31,1-я Завокзальная улица,170043,56.8329624,35.8886542
27Б,1-я Завокзальная улица,170043,56.8331900,35.8882977
35,1-я Завокзальная улица,170043,56.8327578,35.8890566
41,1-я Завокзальная улица,170043,56.8324401,35.8896185
29,1-я Завокзальная улица,170043,56.8330374,35.8885244
28,1-я Завокзальная улица,170043,56.8316963,35.8919183
30А,1-я Завокзальная улица,170043,56.8313569,35.8926441
2,1-я Завокзальная улица,170043,56.8353240,35.8832842
10,1-я Завокзальная улица,170043,56.8327264,35.8897338
15,1-я Интернациональная улица,170001,56.8482492,35.8721650
29,1-я Интернациональная улица,170001,56.8469583,35.8713209
31/7,1-я Интернациональная улица,170001,56.8466940,35.8711441
11,1-я Интернациональная улица,170001,56.8486129,35.8724890
27,1-я Интернациональная улица,170001,56.8471370,35.8714633
17,1-я Интернациональная улица,170001,56.8480975,35.8720328
21,1-я Интернациональная улица,170001,56.8477205,35.8718109
13,1-я Интернациональная улица,170001,56.8484270,35.8722881
19,1-я Интернациональная улица,170001,56.8478870,35.8719317
23,1-я Интернациональная улица,170001,56.8475346,35.8717642
26,1-я Интернациональная улица,170001,56.8477879,35.8713122
18,1-я Интернациональная улица,170001,56.8485429,35.8717248
20,1-я Интернациональная улица,170001,56.8483325,35.8716315
16,1-я Интернациональная улица,170001,56.8487740,35.8716476
36,1-я Интернациональная улица,170001,56.8470261,35.8706483
28,1-я Интернациональная улица,170001,56.8476641,35.8711838
32А,1-я Интернациональная улица,170001,56.8472809,35.8706164
34/5,1-я Интернациональная улица,170001,56.8470151,35.8703220
24,1-я Интернациональная улица,170001,56.8479815,35.8714430
1Б,1-я Лагерная улица,170024,56.8474437,35.8205589
4,1-я Республиканская улица,170024,56.8468511,35.8213114
2,1-я Республиканская улица,170024,56.8472141,35.8211813
3,1-я Республиканская улица,170024,56.8470267,35.8212657
2А,1-я Республиканская улица,170024,56.8473290,35.8211104
5/22,1-я Республиканская улица,170024,56.8466193,35.8212189
1,1-я Республиканская улица,170024,56.8475073,35.8211103
11,1-я Республиканская улица,170024,56.8453649,35.8217653
7,1-я Республиканская улица,170024,56.8460915,35.8215000
10,1-я Республиканская улица,170024,56.8455120,35.8216256
8,1-я Республиканская улица,170024,56.8459085,35.8215733
9,1-я Республиканская улица,170024,56.8457133,35.8216397
15А,1-я Республиканская улица,170024,56.8447599,35.8219042
12,1-я Республиканская улица,170024,56.8451206,35.8217949
15/18,1-я Республиканская улица,170024,56.8446365,35.8219532
13,1-я Республиканская улица,170024,56.8450296,35.8218638
24,1-я Республиканская улица,170024,56.8470645,35.8217631
24/20,1-я Республиканская улица,170024,56.8467122,35.8218698
41,1-я Соляная улица,170002,56.8416739,35.9015605
39,1-я Соляная улица,170002,56.8418573,35.9017487
35,1-я Соляная улица,170002,56.8421374,35.9021613
33,1-я Соляная улица,170002,56.8423383,35.9023926
37,1-я Соляная улица,170002,56.8419839,35.9019510
29,1-я Соляная улица,170002,56.8426432,35.9027597
31,1-я Соляная улица,170002,56.8425036,35.9025296
27,1-я Соляная улица,170002,56.8427894,35.9029736
17,1-я улица Трусова,170002,56.8434503,35.8901248
15А,1-я улица Трусова,170002,56.8436465,35.8906477
31,1-я улица Трусова,170002,56.8419868,35.8898658
25,1-я улица Трусова,170002,56.8426999,35.8899541
27,1-я улица Трусова,170002,56.8424405,35.8902238
27А,1-я улица Трусова,170002,56.8425122,35.8899124
21,1-я улица Трусова,170002,56.8430006,35.8902911
29,1-я улица Трусова,170002,56.8423416,35.8898794
20 к1,улица Коробкова,170002,56.8465432,35.8902322
8,1-я улица Трусова,170002,56.8464733,35.8898930
14,1-я улица Трусова,170002,56.8457975,35.8899531
50,1-я улица Трусова,170002,56.8422088,35.8893265
20,1-я улица Трусова,170002,56.8452773,35.8898516
46,1-я улица Трусова,170002,56.8427078,35.8893774
28,1-я улица Трусова,170002,56.8446869,35.8896923
52,1-я улица Трусова,170002,56.8418849,35.8892089
16,1-я улица Трусова,170002,56.8455809,35.8898897
34,1-я улица Трусова,170002,56.8442121,35.8896394
22,1-я улица Трусова,170002,56.8451103,35.8898287
18,1-я улица Трусова,170002,56.8454416,35.8898668
36,1-я улица Трусова,170002,56.8439583,35.8895767
32,1-я улица Трусова,170002,56.8443830,35.8896291
48,1-я улица Трусова,170002,56.8424210,35.8893218
30,1-я улица Трусова,170002,56.8445314,35.8896580
26,1-я улица Трусова,170002,56.8448314,35.8897228
23,2-й Академический проезд,170024,56.8476407,35.8258091
10/37,2-й Дачный проезд,170021,56.8912445,35.8885923
5,2-й Дачный проезд,170021,56.8911049,35.8877206
7,2-й Дачный проезд,170021,56.8910468,35.8880928
8,2-й Дачный проезд,170021,56.8912928,35.8881773
3,2-й Дачный проезд,170021,56.8911458,35.8874773
9/35,2-й Дачный проезд,170021,56.8909361,35.8883673
4,2-й Дачный проезд,170021,56.8913660,35.8875862
6,2-й Дачный проезд,170021,56.8913488,35.8878508
13,2-й Западный проезд,170027,56.8325260,35.8648795
11,2-й Западный проезд,170027,56.8326385,35.8649869
12,2-й Западный проезд,170027,56.8327662,35.8645734
14,2-й Кольцевой проезд,170012,56.8945391,35.8725625
11,2-й Кольцевой проезд,170012,56.8945771,35.8721475
6,2-й Кольцевой проезд,170012,56.8938616,35.8722420
16,2-й Кольцевой проезд,170012,56.8947223,35.8726765
15,2-й Кольцевой проезд,170012,56.8947554,35.8722267
12,2-й Кольцевой проезд,170012,56.8943438,35.8725446
5,2-й Кольцевой проезд,170012,56.8939218,35.8718347
9,2-й Кольцевой проезд,170012,56.8942214,35.8719622
1/60,2-й Кольцевой проезд,170012,56.8934366,35.8716364
8,2-й Кольцевой проезд,170012,56.8940367,35.8723041
4,2-й Кольцевой проезд,170012,56.8936552,35.8721491
3,2-й Кольцевой проезд,170012,56.8937594,35.8717432
10,2-й Кольцевой проезд,170012,56.8942248,35.8724118
5,2-й Паровозный переулок,170027,56.8318395,35.8796349
17,2-й Паровозный переулок,170027,56.8312139,35.8811062
3,2-й Паровозный переулок,170027,56.8319157,35.8794862
1/5,2-й Паровозный переулок,170027,56.8320610,35.8791453
21,2-й Паровозный переулок,170027,56.8309467,35.8817364
31,2-й Паровозный переулок,170027,56.8300198,35.8839003
9,2-й Паровозный переулок,170027,56.8316271,35.8801285
15,2-й Паровозный переулок,170027,56.8313204,35.8808504
13,2-й Паровозный переулок,170027,56.8314289,35.8805894
11,2-й Паровозный переулок,170027,56.8315404,35.8803365
7,2-й Паровозный переулок,170027,56.8317206,35.8798970
27,2-й Паровозный переулок,170027,56.8303672,35.8831160
19,2-й Паровозный переулок,170027,56.8310811,35.8814184
29,2-й Паровозный переулок,170027,56.8301975,35.8835038
18/14,2-й Паровозный переулок,170027,56.8305871,35.8818207
8,2-й Паровозный переулок,170027,56.8312679,35.8801218
10,2-й Паровозный переулок,170027,56.8311668,35.8804096
4,2-й Паровозный переулок,170027,56.8315575,35.8794217
30,2-й Паровозный переулок,170027,56.8295911,35.8841422
28А,2-й Паровозный переулок,170027,56.8296727,35.8839421
12,2-й Паровозный переулок,170027,56.8310302,35.8807671
22,2-й Паровозный переулок,170027,56.8301117,35.8829176
34,2-й Паровозный переулок,170027,56.8292754,35.8848354
26,2-й Паровозный переулок,170027,56.8298334,35.8835581
16,2-й Паровозный переулок,170027,56.8307690,35.8813120
6,2-й Паровозный переулок,170027,56.8313893,35.8798055
24,2-й Паровозный переулок,170027,56.8299741,35.8832259
30А,2-й Паровозный переулок,170027,56.8295269,35.8842612
28,2-й Паровозный переулок,170027,56.8297246,35.8837678
32,2-й Паровозный переулок,170027,56.8294323,35.8845004
2,2-й Паровозный переулок,170027,56.8317435,35.8790032
14,2-й Паровозный переулок,170027,56.8308935,35.8810273
11А,2-й переулок Вагонников,170012,56.8893523,35.8508293
23А/19,2-й переулок Вагонников,170012,56.8882806,35.8477850
19А/20,2-й переулок Вагонников,170012,56.8885747,35.8487744
3А,2-й переулок Вагонников,170012,56.8898916,35.8527380
15А,2-й переулок Вагонников,170012,56.8889439,35.8497055
9А,2-й переулок Вагонников,170012,56.8894672,35.8511888
21А,2-й переулок Вагонников,170012,56.8884247,35.8483121
7А/20,2-й переулок Вагонников,170012,56.8896304,35.8516521
19/17,2-й переулок Вагонников,170012,56.8887768,35.8492171
13А/20,2-й переулок Вагонников,170012,56.8891158,35.8502040
19,2-й переулок Вагонников,170012,56.8918931,35.8582407
9,2-й переулок Вагонников,170012,56.8909606,35.8555377
29,2-й переулок Вагонников,170012,56.8925771,35.8603229
15,2-й переулок Вагонников,170012,56.8915336,35.8571871
21,2-й переулок Вагонников,170012,56.8920474,35.8586888
27,2-й переулок Вагонников,170012,56.8925084,35.8601448
31,2-й переулок Вагонников,170012,56.8927264,35.8606403
14А,2-й переулок Вагонников,170012,56.8896030,35.8508152
26/19А,2-й переулок Вагонников,170012,56.8920565,35.8579166
30А,2-й переулок Вагонников,170012,56.8886028,35.8478953
28,2-й переулок Вагонников,170012,56.8921591,35.8581966
12А,2-й переулок Вагонников,170012,56.8897125,35.8511077
10/20А,2-й переулок Вагонников,170012,56.8909879,35.8548455
14,2-й переулок Вагонников,170012,56.8911984,35.8554305
20А,2-й переулок Вагонников,170012,56.8892003,35.8496528
22А,2-й переулок Вагонников,170012,56.8891069,35.8493205
6А,2-й переулок Вагонников,170012,56.8901159,35.8522358
20,2-й переулок Вагонников,170012,56.8916484,35.8568032
12,2-й переулок Вагонников,170012,56.8911138,35.8551493
10А/20А,2-й переулок Вагонников,170012,56.8898092,35.8514206
28А,2-й переулок Вагонников,170012,56.8887278,35.8481702
4,2-й переулок Вагонников,170012,56.8906383,35.8537814
30,2-й переулок Вагонников,170012,56.8922744,35.8585665
22,2-й переулок Вагонников,170012,56.8917857,35.8570987
36,2-й переулок Вагонников,170012,56.8926555,35.8596618
38,2-й переулок Вагонников,170012,56.8927623,35.8600318
40,2-й переулок Вагонников,170012,56.8928961,35.8603568
29,2-й переулок Красной Слободы,170001,56.8602805,35.8620578
23А,2-й переулок Красной Слободы,170001,56.8595810,35.8623615
5,2-й проезд Грибоедова,170021,56.8807519,35.8928606
4,2-й проезд Грибоедова,170021,56.8809334,35.8933789
3,2-й проезд Грибоедова,170021,56.8807068,35.8932564
6,2-й проезд Грибоедова,170021,56.8809814,35.8930093
5,2-й проезд Докучаева,170021,56.8787094,35.8919269
4,2-й проезд Докучаева,170021,56.8788798,35.8923040
2/57,2-й проезд Докучаева,170021,56.8788024,35.8927087
3,2-й проезд Докучаева,170021,56.8786529,35.8922139
1/55,2-й проезд Докучаева,170021,56.8785924,35.8925931
6,2-й проезд Докучаева,170021,56.8789405,35.8919623
22,2-й проезд Красина,170021,56.8820568,35.8902114
8,2-й проезд Красина,170021,56.8809957,35.8898148
20,2-й проезд Красина,170021,56.8819069,35.8901384
2/20,2-й проезд Красина,170021,56.8804793,35.8894426
6,2-й проезд Красина,170021,56.8808113,35.8896077
18,2-й проезд Красина,170021,56.8817588,35.8900728
12,2-й проезд Красина,170021,56.8812777,35.8898238
14,2-й проезд Красина,170021,56.8814278,35.8899228
4,2-й проезд Красина,170021,56.8806584,35.8895724
16,2-й проезд Красина,170021,56.8816228,35.8900265
10,2-й проезд Красина,170021,56.8811389,35.8897743
19,2-й проезд Красина,170021,56.8821181,35.8898166
9,2-й проезд Красина,170021,56.8813447,35.8894406
3,2-й проезд Красина,170021,56.8808690,35.8891905
13,2-й проезд Красина,170021,56.8816469,35.8895938
17,2-й проезд Красина,170021,56.8819970,35.8897320
15,2-й проезд Красина,170021,56.8818315,35.8896801
7,2-й проезд Красина,170021,56.8811882,35.8893717
5,2-й проезд Красина,170021,56.8810537,35.8892465
11,2-й проезд Красина,170021,56.8814872,35.8895091
5,2-й проезд Льва Толстого,170021,56.8895577,35.8823826
3,2-й проезд Льва Толстого,170021,56.8891836,35.8821487
8,2-й проезд Льва Толстого,170021,56.8896174,35.8830140
6,2-й проезд Льва Толстого,170021,56.8894506,35.8829388
2,2-й проезд Льва Толстого,170021,56.8890782,35.8826505
4,2-й проезд Льва Толстого,170021,56.8892857,35.8827215
1,2-й проезд Льва Толстого,170021,56.8888127,35.8819817
14,2-й проезд Мичурина,170021,56.8796535,35.8897671
13,2-й проезд Мичурина,170021,56.8797474,35.8893274
7,2-й проезд Павлова,170041,56.8799169,35.9011642
8,2-й проезд Павлова,170041,56.8801934,35.9012841
6,2-й проезд Павлова,170041,56.8802550,35.9009363
3,2-й проезд Павлова,170041,56.8800425,35.9002791
4,2-й проезд Павлова,170041,56.8802903,35.9004628
10/59,2-й проезд Павлова,170041,56.8800927,35.9019328
5,2-й проезд Павлова,170041,56.8799837,35.9007530
1/58,2-й проезд Павлова,170041,56.8801135,35.8996844
3А,2-й проезд Павлова,170041,56.8797668,35.9004529
13/16,2-й проезд Плеханова,170021,56.8896518,35.8868623
15,2-й проезд Плеханова,170021,56.8898891,35.8869718
3,2-й проезд Плеханова,170021,56.8880411,35.8861030
5,2-й проезд Плеханова,170021,56.8882516,35.8861871
9,2-й проезд Плеханова,170021,56.8887658,35.8864199
7,2-й проезд Плеханова,170021,56.8885600,35.8863303
4А,2-й проезд Плеханова,170021,56.8878259,35.8869470
8,2-й проезд Плеханова,170021,56.8884686,35.8867894
6А,2-й проезд Плеханова,170021,56.8880222,35.8870556
10А,2-й проезд Плеханова,170021,56.8886552,35.8873552
4,2-й проезд Плеханова,170021,56.8879185,35.8865527
10,2-й проезд Плеханова,170021,56.8886987,35.8868930
16,2-й проезд Плеханова,170021,56.8898072,35.8874352
6,2-й проезд Плеханова,170021,56.8881129,35.8866360
8А,2-й проезд Плеханова,170021,56.8884198,35.8872315
25,2-й проезд Седова,170039,56.8828743,35.8484682
21,2-й проезд Седова,170039,56.8826820,35.8478108
29,2-й проезд Седова,170039,56.8831439,35.8491902
41,2-й проезд Седова,170039,56.8838708,35.8513148
43,2-й проезд Седова,170039,56.8839829,35.8516068
39,2-й проезд Седова,170039,56.8837649,35.8510137
33,2-й проезд Седова,170039,56.8833902,35.8500115
37,2-й проезд Седова,170039,56.8836455,35.8506353
19,2-й проезд Седова,170039,56.8825090,35.8474314
31,2-й проезд Седова,170039,56.8832627,35.8495557
23,2-й проезд Седова,170039,56.8827971,35.8481399
45,2-й проезд Седова,170039,56.8840974,35.8520288
27,2-й проезд Седова,170039,56.8829717,35.8487164
35,2-й проезд Седова,170039,56.8835195,35.8502775
30,2-й проезд Седова,170039,56.8833459,35.8489548
38,2-й проезд Седова,170039,56.8838359,35.8503889
42,2-й проезд Седова,170039,56.8841970,35.8509144
28,2-й проезд Седова,170039,56.8831904,35.8485041
22,2-й проезд Седова,170039,56.8828908,35.8475588
36,2-й проезд Седова,170039,56.8837503,35.8500151
26,2-й проезд Седова,170039,56.8831038,35.8481806
20,2-й проезд Седова,170039,56.8827593,35.8471595
32,2-й проезд Седова,170039,56.8834482,35.8493168
40,2-й проезд Седова,170039,56.8839462,35.8507182
34,2-й проезд Седова,170039,56.8836270,35.8497195
24,2-й проезд Седова,170039,56.8830989,35.8477678
46,2-й проезд Седова,170039,56.8842987,35.8517332
44,2-й проезд Седова,170039,56.8842401,35.8513332
3,проспект Калинина,170001,56.8555920,35.8781749
9,2-й проезд Соминка,170021,56.8838288,35.8922570
1/47,2-й проезд Соминка,170021,56.8836727,35.8933358
19,2-й проезд Соминка,170021,56.8840760,35.8905765
21,2-й проезд Соминка,170021,56.8838621,35.8902709
5,2-й проезд Соминка,170021,56.8837533,35.8928173
33,2-й проезд Соминка,170021,56.8843955,35.8883813
15/5,2-й проезд Соминка,170021,56.8839990,35.8911736
29,2-й проезд Соминка,170021,56.8843095,35.8889652
3,2-й проезд Соминка,170021,56.8837311,35.8930843
11,2-й проезд Соминка,170021,56.8838047,35.8920310
17,2-й проезд Соминка,170021,56.8840114,35.8908926
7,2-й проезд Соминка,170021,56.8837764,35.8925419
31,2-й проезд Соминка,170021,56.8843574,35.8886415
23,2-й проезд Соминка,170021,56.8841170,35.8901489
8,2-й проезд Соминка,170021,56.8840369,35.8925115
10,2-й проезд Соминка,170021,56.8840772,35.8922276
22,2-й проезд Соминка,170021,56.8843586,35.8902399
2/49,2-й проезд Соминка,170021,56.8839193,35.8934608
20,2-й проезд Соминка,170021,56.8843178,35.8905213
18,2-й проезд Соминка,170021,56.8843018,35.8907544
4,2-й проезд Соминка,170021,56.8839696,35.8930932
28,2-й проезд Соминка,170021,56.8845307,35.8890267
32,2-й проезд Соминка,170021,56.8845945,35.8884649
30,2-й проезд Соминка,170021,56.8845519,35.8887660
6,2-й проезд Соминка,170021,56.8840529,35.8927611
34/8,2-й проезд Соминка,170021,56.8846507,35.8881480
16,2-й проезд Соминка,170021,56.8842440,35.8909877
14,2-й проезд Соминка,170021,56.8842051,35.8913062
19,2-й проезд Чкалова,170043,56.8272842,35.8909478
21,2-й проезд Чкалова,170043,56.8270986,35.8906869
17,2-й проезд Чкалова,170043,56.8274552,35.8911429
13,2-й проезд Чкалова,170043,56.8277870,35.8915743
15,2-й проезд Чкалова,170043,56.8276115,35.8913754
7,2-й проезд Чкалова,170043,56.8282987,35.8922462
11,2-й проезд Чкалова,170043,56.8279542,35.8918033
9,2-й проезд Чкалова,170043,56.8281284,35.8920461
3,2-й проезд Чкалова,170043,56.8286292,35.8926584
5,2-й проезд Чкалова,170043,56.8285005,35.8925163
16,2-й проезд Чкалова,170043,56.8277667,35.8910319
12,2-й проезд Чкалова,170043,56.8281178,35.8914211
4,2-й проезд Чкалова,170043,56.8287718,35.8923998
20,2-й проезд Чкалова,170043,56.8274012,35.8905696
14,2-й проезд Чкалова,170043,56.8279365,35.8911976
18,2-й проезд Чкалова,170043,56.8275934,35.8907957
10,2-й проезд Чкалова,170043,56.8282592,35.8916971
8,2-й проезд Чкалова,170043,56.8284186,35.8919105
6,2-й проезд Чкалова,170043,56.8286093,35.8921694
23,1-й Волжский проезд,170019,56.8619393,35.9515686
2А,1-й проезд Марии Ульяновой,170016,56.8236890,35.9191206
1Б,1-й проезд Марии Ульяновой,170016,56.8232409,35.9193412
1А,1-й проезд Марии Ульяновой,170016,56.8234464,35.9196141
11,1-й проезд Марии Ульяновой,170016,56.8223431,35.9180069
5,1-й проезд Марии Ульяновой,170016,56.8228165,35.9186300
13,1-й проезд Марии Ульяновой,170016,56.8221963,35.9178120
7,1-й проезд Марии Ульяновой,170016,56.8226599,35.9184116
3,1-й проезд Марии Ульяновой,170016,56.8229571,35.9187975
1,1-й проезд Марии Ульяновой,170016,56.8231196,35.9190033
9,1-й проезд Марии Ульяновой,170016,56.8224878,35.9182025
27,1-й проезд Марии Ульяновой,170016,56.8207809,35.9159712
25,1-й проезд Марии Ульяновой,170016,56.8209099,35.9161544
33,1-й проезд Марии Ульяновой,170016,56.8202667,35.9153388
35,1-й проезд Марии Ульяновой,170016,56.8201298,35.9151588
31,1-й проезд Марии Ульяновой,170016,56.8203861,35.9155358
19,1-й проезд Марии Ульяновой,170016,56.8213374,35.9166793
23,1-й проезд Марии Ульяновой,170016,56.8210584,35.9163809
17,1-й проезд Марии Ульяновой,170016,56.8214986,35.9169184
21,1-й проезд Марии Ульяновой,170016,56.8211972,35.9165404
29,1-й проезд Марии Ульяновой,170016,56.8206092,35.9157411
10,1-й проезд Марии Ульяновой,170016,56.8226555,35.9178659
14,1-й проезд Марии Ульяновой,170016,56.8223687,35.9174751
12,1-й проезд Марии Ульяновой,170016,56.8224993,35.9176478
2,1-й проезд Марии Ульяновой,170016,56.8232949,35.9186744
4,1-й проезд Марии Ульяновой,170016,56.8231081,35.9184708
6,1-й проезд Марии Ульяновой,170016,56.8229666,35.9182609
8,1-й проезд Марии Ульяновой,170016,56.8228334,35.9180654
30,1-й проезд Марии Ульяновой,170016,56.8208901,35.9155739
34,1-й проезд Марии Ульяновой,170016,56.8205835,35.9151347
22,1-й проезд Марии Ульяновой,170016,56.8214881,35.9163201
28,1-й проезд Марии Ульяновой,170016,56.8210363,35.9157254
24,1-й проезд Марии Ульяновой,170016,56.8213531,35.9161108
32,1-й проезд Марии Ульяновой,170016,56.8207378,35.9153258
20,1-й проезд Марии Ульяновой,170016,56.8216273,35.9165311
26,1-й проезд Марии Ульяновой,170016,56.8211697,35.9159193
42,1-й проезд Марии Ульяновой,170016,56.8195722,35.9138507
40,1-й проезд Марии Ульяновой,170016,56.8196959,35.9140053
46,1-й проезд Марии Ульяновой,170016,56.8192610,35.9134703
48,1-й проезд Марии Ульяновой,170016,56.8191295,35.9132650
44,1-й проезд Марии Ульяновой,170016,56.8193929,35.9136367
50,1-й проезд Марии Ульяновой,170016,56.8189795,35.9131005
52,1-й проезд Марии Ульяновой,170016,56.8188337,35.9129137
58,1-й проезд Марии Ульяновой,170016,56.8181546,35.9120088
13,проезд Белинского,170019,56.8677614,35.9433077
11,проезд Белинского,170019,56.8677287,35.9429838
19,1-й проезд Белинского,170019,56.8679264,35.9448952
7/51,проезд Белинского,170019,56.8676394,35.9420614
21,1-й проезд Белинского,170019,56.8679710,35.9453051
9/48,проезд Белинского,170019,56.8676526,35.9426176
5,проезд Белинского,170019,56.8675765,35.9416141
3,проезд Белинского,170019,56.8675545,35.9414049
4,1-й проезд Добролюбова,170007,56.8738307,35.9393532
37,2-я улица Серова,170019,56.8646887,35.9595529
31,2-я улица Серова,170019,56.8651454,35.9579300
10 к19,1-я улица Александра Невского,170007,56.8610513,35.9340576
10 к16,1-я улица Александра Невского,170007,56.8615803,35.9342971
10 к14,1-я улица Александра Невского,170007,56.8619293,35.9341034
10 к13,1-я улица Александра Невского,170007,56.8622551,35.9340369
10 к12,1-я улица Александра Невского,170007,56.8625418,35.9340423
10 к10,1-я улица Александра Невского,170007,56.8625177,35.9332276
10 к9,1-я улица Александра Невского,170007,56.8624736,35.9326979
10 к15,1-я улица Александра Невского,170007,56.8618670,35.9335047
10 к11,1-я улица Александра Невского,170007,56.8622569,35.9333604
10 к8,1-я улица Александра Невского,170007,56.8621954,35.9327281
10 к6,1-я улица Александра Невского,170007,56.8618091,35.9328568
10 к5,1-я улица Александра Невского,170007,56.8618061,35.9322795
10 к7,1-я улица Александра Невского,170007,56.8621349,35.9321796
10 к4,1-я улица Александра Невского,170007,56.8619392,35.9317363
6/74,1-я улица Александра Невского,170007,56.8616799,35.9313219
10 к3,1-я улица Александра Невского,170007,56.8622119,35.9311791
10 к2,1-я улица Александра Невского,170007,56.8620459,35.9312320
10 к1,1-я улица Александра Невского,170007,56.8618893,35.9312770
5,1-я улица Александра Невского,170007,56.8620366,35.9307545
7,1-я улица Александра Невского,170007,56.8621893,35.9307088
3/72,1-я улица Александра Невского,170007,56.8618521,35.9308530
15,1-я улица Александра Невского,170007,56.8628124,35.9305252
1/59,1-я улица Александра Невского,170007,56.8608356,35.9310519
13,1-я улица Александра Невского,170007,56.8626778,35.9305193
19,1-я улица Александра Невского,170007,56.8634152,35.9302828
27,1-я улица Александра Невского,170007,56.8641378,35.9300183
23,1-я улица Александра Невского,170007,56.8637587,35.9300659
21,1-я улица Александра Невского,170007,56.8635778,35.9301195
25,1-я улица Александра Невского,170007,56.8639649,35.9300837
17,1-я улица Александра Невского,170007,56.8632400,35.9303170
33,1-я улица Александра Невского,170007,56.8647002,35.9298151
37,1-я улица Александра Невского,170007,56.8650810,35.9296595
35,1-я улица Александра Невского,170007,56.8648932,35.9297861
35А,1-я улица Александра Невского,170007,56.8648237,35.9294911
29,1-я улица Александра Невского,170007,56.8643376,35.9299714
31,1-я улица Александра Невского,170007,56.8645085,35.9299195
39А,1-я улица Александра Невского,170007,56.8652363,35.9296432
41,1-я улица Александра Невского,170007,56.8654913,35.9295819
4/69,1-я улица Александра Невского,170007,56.8613175,35.9314770
10 к17,1-я улица Александра Невского,170007,56.8615275,35.9335810
10 с10,1-я улица Александра Невского,170007,56.8615396,35.9338525
10 с11,1-я улица Александра Невского,170007,56.8615554,35.9340215
10 с12,1-я улица Александра Невского,170007,56.8623639,35.9340430
10 с13,1-я улица Александра Невского,170007,56.8623693,35.9346513
10 с8,1-я улица Александра Невского,170007,56.8615156,35.9324335
10 с9,1-я улица Александра Невского,170007,56.8615644,35.9327552
10 с7,1-я улица Александра Невского,170007,56.8616766,35.9324999
10 с6,1-я улица Александра Невского,170007,56.8617758,35.9318351
10 с5,1-я улица Александра Невского,170007,56.8621028,35.9317001
10 с4,1-я улица Александра Невского,170007,56.8622383,35.9319486
10 с2,1-я улица Александра Невского,170007,56.8624621,35.9323411
10 с3,1-я улица Александра Невского,170007,56.8624741,35.9320986
10А,1-я улица Александра Невского,170007,56.8626976,35.9326238
10 с1,1-я улица Александра Невского,170007,56.8626382,35.9325249
18,1-я улица Александра Невского,170007,56.8627381,35.9310254
12,1-я улица Александра Невского,170007,56.8624184,35.9311327
16,1-я улица Александра Невского,170007,56.8626888,35.9320699
24,1-я улица Александра Невского,170007,56.8634371,35.9308470
32,1-я улица Александра Невского,170007,56.8639920,35.9306166
28,1-я улица Александра Невского,170007,56.8638582,35.9309134
22,1-я улица Александра Невского,170007,56.8633488,35.9314491
26,1-я улица Александра Невского,170007,56.8636587,35.9308012
52,1-я улица Александра Невского,170007,56.8651426,35.9302509
36,1-я улица Александра Невского,170007,56.8642500,35.9305149
50,1-я улица Александра Невского,170007,56.8649896,35.9302867
48,1-я улица Александра Невского,170007,56.8649083,35.9303140
38,1-я улица Александра Невского,170007,56.8644078,35.9304812
34,1-я улица Александра Невского,170007,56.8641715,35.9305420
44,1-я улица Александра Невского,170007,56.8647596,35.9303814
42,1-я улица Александра Невского,170007,56.8646134,35.9307477
58,1-я улица Александра Невского,170007,56.8654623,35.9301308
54,1-я улица Александра Невского,170007,56.8652939,35.9301546
56,1-я улица Александра Невского,170007,56.8654008,35.9304268
60,1-я улица Александра Невского,170007,56.8656103,35.9304687
70,1-я улица Александра Невского,170007,56.8666718,35.9296737
68,1-я улица Александра Невского,170007,56.8664404,35.9298539
86,1-я улица Александра Невского,170007,56.8675601,35.9299261
90А,1-я улица Александра Невского,170007,56.8678874,35.9294536
13,2-й проезд Марии Ульяновой,170016,56.8226138,35.9168547
3,2-й проезд Марии Ульяновой,170016,56.8233569,35.9178072
1,2-й проезд Марии Ульяновой,170016,56.8234884,35.9180174
11,2-й проезд Марии Ульяновой,170016,56.8227782,35.9170517
5,2-й проезд Марии Ульяновой,170016,56.8232131,35.9176267
7,2-й проезд Марии Ульяновой,170016,56.8230605,35.9174234
9,2-й проезд Марии Ульяновой,170016,56.8229019,35.9172174
27,2-й проезд Марии Ульяновой,170016,56.8213003,35.9151162
21,2-й проезд Марии Ульяновой,170016,56.8217305,35.9157174
19,2-й проезд Марии Ульяновой,170016,56.8218947,35.9158841
31,2-й проезд Марии Ульяновой,170016,56.8209808,35.9147123
23,2-й проезд Марии Ульяновой,170016,56.8215630,35.9154525
25,2-й проезд Марии Ульяновой,170016,56.8214188,35.9152710
33,2-й проезд Марии Ульяновой,170016,56.8207978,35.9145128
29,2-й проезд Марии Ульяновой,170016,56.8211194,35.9148912
43,2-й проезд Марии Ульяновой,170016,56.8196662,35.9130371
57,2-й проезд Марии Ульяновой,170016,56.8183636,35.9113679
45,2-й проезд Марии Ульяновой,170016,56.8195202,35.9128030
53,2-й проезд Марии Ульяновой,170016,56.8188521,35.9119881
47,2-й проезд Марии Ульяновой,170016,56.8193705,35.9126146
49,2-й проезд Марии Ульяновой,170016,56.8192218,35.9124757
41,2-й проезд Марии Ульяновой,170016,56.8198068,35.9132086
51,2-й проезд Марии Ульяновой,170016,56.8190783,35.9122715
39,2-й проезд Марии Ульяновой,170016,56.8199637,35.9133853
10,2-й проезд Марии Ульяновой,170016,56.8230925,35.9167963
12,2-й проезд Марии Ульяновой,170016,56.8229264,35.9166142
8,2-й проезд Марии Ульяновой,170016,56.8232491,35.9169632
6,2-й проезд Марии Ульяновой,170016,56.8233839,35.9171068
14,2-й проезд Марии Ульяновой,170016,56.8228000,35.9163719
2,2-й проезд Марии Ульяновой,170016,56.8236829,35.9175228
4,2-й проезд Марии Ульяновой,170016,56.8235325,35.9173567
32,2-й проезд Марии Ульяновой,170016,56.8211127,35.9143321
28,2-й проезд Марии Ульяновой,170016,56.8214239,35.9147364
24,2-й проезд Марии Ульяновой,170016,56.8217148,35.9151064
20,2-й проезд Марии Ульяновой,170016,56.8220800,35.9155021
34,2-й проезд Марии Ульяновой,170016,56.8209725,35.9140993
30,2-й проезд Марии Ульяновой,170016,56.8212668,35.9145277
22,2-й проезд Марии Ульяновой,170016,56.8218784,35.9153145
26,2-й проезд Марии Ульяновой,170016,56.8215962,35.9149479
66,2-й проезд Марии Ульяновой,170016,56.8179782,35.9101147
68,2-й проезд Марии Ульяновой,170016,56.8178392,35.9097960
62,2-й проезд Марии Ульяновой,170016,56.8182908,35.9105197
64,2-й проезд Марии Ульяновой,170016,56.8181307,35.9102977
60,2-й проезд Марии Ульяновой,170016,56.8184368,35.9106628
48,2-й проезд Марии Ульяновой,170016,56.8195740,35.9122067
50,2-й проезд Марии Ульяновой,170016,56.8194127,35.9120143
52,2-й проезд Марии Ульяновой,170016,56.8192726,35.9118388
44,2-й проезд Марии Ульяновой,170016,56.8198184,35.9124948
42,2-й проезд Марии Ульяновой,170016,56.8199480,35.9127213
40,2-й проезд Марии Ульяновой,170016,56.8201145,35.9129392
46,2-й проезд Марии Ульяновой,170016,56.8196828,35.9123696
58,2-й проезд Марии Ульяновой,170016,56.8186776,35.9110101
4,2-й проезд Добролюбова,170007,56.8764983,35.9381882
3,2-й проезд Добролюбова,170007,56.8767662,35.9382416
5,2-й проезд Добролюбова,170007,56.8768099,35.9387680
8/123,2-й проезд Добролюбова,170007,56.8765530,35.9388336
6,2-й проезд Добролюбова,170007,56.8765348,35.9384546
13,2-й проезд Розы Люксембург,170019,56.8635632,35.9495417
21,2-й проезд Розы Люксембург,170019,56.8624322,35.9495589
12,2-й проезд Розы Люксембург,170019,56.8637122,35.9490590
4,2-й проезд Розы Люксембург,170019,56.8642026,35.9488952
3 к1,Краснофлотская набережная,170006,56.8633045,35.8823789
3Б,Краснофлотская набережная,170006,56.8633350,35.8805274
17,2-я Волоколамская улица,170043,56.8290320,35.8888098
11,2-я Волоколамская улица,170043,56.8295583,35.8894952
23,2-я Волоколамская улица,170043,56.8286152,35.8883134
13,2-я Волоколамская улица,170043,56.8293168,35.8892005
19,2-я Волоколамская улица,170043,56.8288846,35.8886550
25,2-я Волоколамская улица,170043,56.8284883,35.8881269
15,2-я Волоколамская улица,170043,56.8291570,35.8889687
21,2-я Волоколамская улица,170043,56.8287672,35.8884589
59/10,2-я Волоколамская улица,170043,56.8245981,35.8831468
65/9,2-я Волоколамская улица,170043,56.8240912,35.8823948
47,2-я Волоколамская улица,170043,56.8258668,35.8846836
33,2-я Волоколамская улица,170043,56.8275469,35.8869215
45,2-я Волоколамская улица,170043,56.8259757,35.8849654
51/10,2-я Волоколамская улица,170043,56.8253649,35.8840285
61,2-я Волоколамская улица,170043,56.8244491,35.8828500
53,2-я Волоколамская улица,170043,56.8252030,35.8838837
63,2-я Волоколамская улица,170043,56.8243214,35.8826725
37,2-я Волоколамская улица,170043,56.8267952,35.8858944
55,2-я Волоколамская улица,170043,56.8250656,35.8837713
39,2-я Волоколамская улица,170043,56.8266638,35.8857476
48 к5,улица Паши Савельевой,170039,56.8843854,35.8441488
8 к1,Оснабрюкская улица,170027,56.8236357,35.8586891
4 к2,Оснабрюкская улица,170027,56.8238670,35.8574145
4 к1,Оснабрюкская улица,170027,56.8241046,35.8563892
2 к1,Индустриальная улица,170100,56.8486207,35.9526166
12,2-я Завокзальная улица,170043,56.8311014,35.8942803
20Б,2-я Завокзальная улица,170043,56.8316832,35.8937227
14,2-я Завокзальная улица,170043,56.8309436,35.8939839
22,2-я Завокзальная улица,170043,56.8319179,35.8924890
20,2-я Завокзальная улица,170043,56.8314845,35.8934144
10,2-я Завокзальная улица,170043,56.8312313,35.8945124
19Б,2-я Завокзальная улица,170043,56.8315749,35.8939302
4,2-я Завокзальная улица,170043,56.8316253,35.8953696
8,2-я Завокзальная улица,170043,56.8313430,35.8947862
6,2-я Завокзальная улица,170043,56.8314807,35.8950356
21Б,2-я Завокзальная улица,170043,56.8317822,35.8935134
15Б,2-я Завокзальная улица,170043,56.8316746,35.8943743
22Б,2-я Завокзальная улица,170043,56.8318736,35.8933111
3,2-я Звеньевая улица,170021,56.8836805,35.8910171
19,2-я Звеньевая улица,170021,56.8855192,35.8918805
8/12,2-я Звеньевая улица,170021,56.8841351,35.8918842
10,2-я Звеньевая улица,170021,56.8843291,35.8919595
11,2-я Звеньевая улица,170021,56.8846176,35.8914752
6/13,2-я Звеньевая улица,170021,56.8838786,35.8917270
14,2-я Звеньевая улица,170021,56.8845892,35.8920975
16/11,2-я Звеньевая улица,170021,56.8848099,35.8922066
9,2-я Звеньевая улица,170021,56.8844797,35.8914023
17,2-я Звеньевая улица,170021,56.8853978,35.8918669
12,2-я Звеньевая улица,170021,56.8844737,35.8920422
4,2-я Звеньевая улица,170021,56.8835886,35.8915867
13/13,2-я Звеньевая улица,170021,56.8848814,35.8916120
20,2-я Звеньевая улица,170021,56.8852601,35.8924021
18/12,2-я Звеньевая улица,170021,56.8850247,35.8922702
22/9,2-я Звеньевая улица,170021,56.8854731,35.8925341
18,2-я Интернациональная улица,170001,56.8479581,35.8725443
14,2-я Интернациональная улица,170001,56.8483452,35.8727509
20А,2-я Интернациональная улица,170001,56.8475173,35.8722507
16,2-я Интернациональная улица,170001,56.8481531,35.8726543
28,2-я Интернациональная улица,170001,56.8467552,35.8717290
24,2-я Интернациональная улица,170001,56.8473398,35.8721518
20,2-я Интернациональная улица,170001,56.8477403,35.8723933
26,2-я Интернациональная улица,170001,56.8469232,35.8718913
13,2-я Интернациональная улица,170001,56.8482206,35.8732983
15,2-я Интернациональная улица,170001,56.8480426,35.8731248
29/11,2-я Интернациональная улица,170001,56.8465596,35.8722392
11,2-я Интернациональная улица,170001,56.8483787,35.8733563
17,2-я Интернациональная улица,170001,56.8478805,35.8730558
27,2-я Интернациональная улица,170001,56.8467524,35.8723209
25,2-я Интернациональная улица,170001,56.8469798,35.8724955
23,2-я Интернациональная улица,170001,56.8472433,35.8726064
19,2-я Интернациональная улица,170001,56.8476878,35.8729151
5,2-я Интернациональная улица,170001,56.8490569,35.8737712
21,2-я Интернациональная улица,170001,56.8475014,35.8728610
9,2-я Интернациональная улица,170001,56.8486034,35.8734863
12,2-я Колхозная улица,170004,56.8379607,35.8551888
7,2-я Лагерная улица,170024,56.8466255,35.8241475
6,2-я Лагерная улица,170024,56.8469501,35.8243019
4,2-я Лагерная улица,170024,56.8469820,35.8246507
6А,2-я Лагерная улица,170024,56.8470511,35.8242756
10,2-я Лагерная улица,170024,56.8468909,35.8235392
8,2-я Лагерная улица,170024,56.8468946,35.8239175
16А,2-я Лагерная улица,170024,56.8470533,35.8225204
12,2-я Лагерная улица,170024,56.8468544,35.8232158
14,2-я Лагерная улица,170024,56.8468126,35.8228754
14А,2-я Лагерная улица,170024,56.8469842,35.8228417
12А,2-я Лагерная улица,170024,56.8471849,35.8231472
16,2-я Лагерная улица,170024,56.8467773,35.8225671
18А,2-я Лагерная улица,170024,56.8471243,35.8221951
18,2-я Лагерная улица,170024,56.8467544,35.8221834
19,2-я Новозаводская улица,170007,56.8637653,35.9369823
15,2-я Новозаводская улица,170007,56.8633946,35.9370027
25/12,2-я Новозаводская улица,170007,56.8644482,35.9371323
29,2-я Новозаводская улица,170007,56.8649621,35.9371807
23,2-я Новозаводская улица,170007,56.8641491,35.9370712
33,2-я Новозаводская улица,170007,56.8653286,35.9371804
31,2-я Новозаводская улица,170007,56.8651474,35.9371490
27/6,2-я Новозаводская улица,170007,56.8647772,35.9371984
13,2-я Новозаводская улица,170007,56.8631664,35.9369954
21,2-я Новозаводская улица,170007,56.8639732,35.9370772
37,2-я Новозаводская улица,170007,56.8656699,35.9372216
47,2-я Новозаводская улица,170007,56.8675389,35.9368746
51,2-я Новозаводская улица,170007,56.8678349,35.9367890
53,2-я Новозаводская улица,170007,56.8679557,35.9366826
49,2-я Новозаводская улица,170007,56.8676542,35.9368262
61,2-я Новозаводская улица,170007,56.8685338,35.9364855
55,2-я Новозаводская улица,170007,56.8680985,35.9365182
57,2-я Новозаводская улица,170007,56.8681554,35.9366751
59,2-я Новозаводская улица,170007,56.8683963,35.9365879
73/37,2-я Новозаводская улица,170007,56.8701295,35.9359781
65/15,2-я Новозаводская улица,170007,56.8690622,35.9363843
69,2-я Новозаводская улица,170007,56.8694830,35.9361936
71/38,2-я Новозаводская улица,170007,56.8697640,35.9360847
67,2-я Новозаводская улица,170007,56.8693159,35.9362535
87,2-я Новозаводская улица,170007,56.8717192,35.9353486
83,2-я Новозаводская улица,170007,56.8713302,35.9355173
85,2-я Новозаводская улица,170007,56.8715135,35.9352479
79,2-я Новозаводская улица,170007,56.8709132,35.9354905
77,2-я Новозаводская улица,170007,56.8706969,35.9357400
81,2-я Новозаводская улица,170007,56.8710988,35.9356066
75,2-я Новозаводская улица,170007,56.8704987,35.9358120
89,2-я Новозаводская улица,170007,56.8720849,35.9352645
91/37,2-я Новозаводская улица,170007,56.8725365,35.9350188
95,2-я Новозаводская улица,170007,56.8731156,35.9348363
93,2-я Новозаводская улица,170007,56.8728825,35.9348141
97,2-я Новозаводская улица,170007,56.8733377,35.9347779
99,2-я Новозаводская улица,170007,56.8735364,35.9346884
105,2-я Новозаводская улица,170007,56.8742138,35.9344971
101,2-я Новозаводская улица,170007,56.8737945,35.9346666
103,2-я Новозаводская улица,170007,56.8740090,35.9343688
107/28,2-я Новозаводская улица,170007,56.8745870,35.9343387
109/29,2-я Новозаводская улица,170007,56.8750737,35.9342278
113,2-я Новозаводская улица,170007,56.8755333,35.9340471
115,2-я Новозаводская улица,170007,56.8757769,35.9339748
117,2-я Новозаводская улица,170007,56.8759624,35.9339078
111,2-я Новозаводская улица,170007,56.8753363,35.9341302
119,2-я Новозаводская улица,170007,56.8762002,35.9338253
123А,2-я Новозаводская улица,170007,56.8767060,35.9336095
127,2-я Новозаводская улица,170007,56.8770554,35.9335055
121,2-я Новозаводская улица,170007,56.8764205,35.9337452
123,2-я Новозаводская улица,170007,56.8766081,35.9336818
125,2-я Новозаводская улица,170007,56.8768587,35.9335784
23,Мамулинская улица,170027,56.8297515,35.8586159
6,Пионерская улица,170002,56.8465444,35.8893719
2 к2,2-я улица Трусова,170002,56.8442328,35.8907249
12А,3-я улица Пухальского,170001,56.8623082,35.8686362
14,3-я Интернациональная улица,170001,56.8473692,35.8732622
10,3-я Интернациональная улица,170001,56.8476938,35.8734990
8,3-я Интернациональная улица,170001,56.8478716,35.8735731
6,3-я Интернациональная улица,170001,56.8480558,35.8737146
4,3-я Интернациональная улица,170001,56.8482402,35.8738239
2,3-я Интернациональная улица,170001,56.8485015,35.8739950
62Б,улица Можайского,170022,56.8149919,35.9062100
73 к1,проспект Победы,170028,56.8341140,35.9458298
51/18,улица Бебеля,170006,56.8560560,35.8840912
4 к1,улица Макарова,170002,56.8473640,35.8890025
54,улица Коминтерна,170028,56.8245055,35.9230163
23А,улица Ефимова,170006,56.8586991,35.8938462
66,бульвар Гусева,170043,56.8128973,35.8854842
6,Псковская улица,170043,56.8149052,35.8903338
44 к1,улица Паши Савельевой,170039,56.8843253,35.8468892
47 кА,улица Орджоникидзе,170028,56.8320696,35.9282970
3/18,Троицкая улица,170006,56.8584547,35.8929409
3А,Тверской проспект,170100,56.8555158,35.9063070
49,2-я улица Красина,170021,56.8817674,35.8797328
26,2-я улица Грибоедова,170021,56.8857998,35.8790300
29,улица Хромова,170003,56.8857086,35.8625419
26,Оснабрюкская улица,170027,56.8231092,35.8701491
1,2-я улица Профинтерна,170001,56.8466611,35.8677205
2,2-я улица Профинтерна,170001,56.8468301,35.8684295
20А,улица Коробкова,170002,56.8466224,35.8913006
12 к2,Псковская улица,170043,56.8114473,35.9002782
5 к1,улица Королёва,170043,56.8270794,35.9083560
4,улица Арсения Степанова,170001,56.8490405,35.8750029
4,Торговая площадь,170001,56.8455507,35.8767585
20А,6-я Пролетарская улица,170001,56.8441455,35.8791297
12,6-я Пролетарская улица,170001,56.8450615,35.8792813
12А,6-я Пролетарская улица,170001,56.8450541,35.8788875
15,7-я Пролетарская улица,170001,56.8446747,35.8782384
16,6-я Пролетарская улица,170001,56.8445939,35.8792262
18,6-я Пролетарская улица,170001,56.8443725,35.8791554
14,6-я Пролетарская улица,170001,56.8447704,35.8792572
17,Сибирская улица,170016,56.8055423,35.9491245
16,проспект Чайковского,170034,56.8486750,35.9070973
46,Беляковский переулок,170006,56.8618359,35.8766814
46А,Беляковский переулок,170006,56.8619835,35.8762753
24,Краснофлотская набережная,170006,56.8629472,35.8772216
39/46,Беляковский переулок,170006,56.8629483,35.8736576
21,улица 1-й Головинский Вал,170006,56.8620128,35.8730868
2,улица Новикова,170001,56.8580570,35.8761305
4,улица Новикова,170001,56.8580178,35.8757409
2А,3-я улица Пухальского,170001,56.8622707,35.8710752
30,улица Достоевского,170006,56.8557656,35.8892382
26,улица Достоевского,170006,56.8560377,35.8898672
26А,улица Достоевского,170006,56.8562658,35.8895366
50 к1,улица Брагина,170006,56.8540134,35.8875988
50,улица Брагина,170006,56.8538537,35.8881222
54,улица Арсения Степанова,170001,56.8480084,35.8848444
54А,улица Арсения Степанова,170001,56.8483552,35.8849608
44,улица Арсения Степанова,170001,56.8482877,35.8827316
28А,улица Арсения Степанова,170001,56.8489025,35.8796952
7А,Тихвинская улица,170001,56.8540357,35.8799767
13Б,Односторонняя улица,170001,56.8552546,35.8800185
5,улица Гончаровой,170001,56.8462446,35.8709499
2А,улица Гончаровой,170001,56.8464251,35.8703343
1А,улица Гончаровой,170001,56.8465260,35.8700602
6,улица Анатолия Маслова,170001,56.8465705,35.8709274
56А,улица Арсения Степанова,170001,56.8483066,35.8853922
36А,улица Арсения Степанова,170001,56.8487786,35.8815207
40А,улица Арсения Степанова,170001,56.8487131,35.8822009
14,улица Арсения Степанова,170001,56.8492741,35.8770562
13,1-я улица Профинтерна,170001,56.8445376,35.8711411
36,Баррикадная улица,170001,56.8480814,35.8696146
30,1-я Интернациональная улица,170001,56.8474791,35.8710879
30Б,1-я Интернациональная улица,170001,56.8476237,35.8707946
46А,Баррикадная улица,170001,56.8471988,35.8689547
2А,2-я улица Трусова,170002,56.8445153,35.8911102
2 к3,2-я улица Трусова,170002,56.8441174,35.8911040
70,2-я Пролетарская улица,170002,56.8407087,35.8858515
1,улица Анатолия Маслова,170001,56.8473294,35.8690592
29А,Баррикадная улица,170001,56.8486097,35.8707041
20,3-я Интернациональная улица,170001,56.8466099,35.8728627
22,3-я Интернациональная улица,170001,56.8464251,35.8727309
18,3-я Интернациональная улица,170001,56.8468768,35.8730417
2А,улица Головлева,170001,56.8456379,35.8751714
2,Торговая площадь,170001,56.8453073,35.8761913
9А,6-я Пролетарская улица,170001,56.8453079,35.8805349
67,3-я Пролетарская улица,170002,56.8406864,35.8846490
13 с6,набережная реки Тьмаки,170006,56.8546798,35.8957897
25,переулок Трудолюбия,170006,56.8572169,35.8875002
15А,улица Советский Вал,170001,56.8625044,35.8683461
10А,2-я улица Пухальского,170001,56.8611710,35.8693353
8А,улица Серебряковская Пристань,170001,56.8623489,35.8617071
6,улица Серебряковская Пристань,170001,56.8631933,35.8641099
3Б,2-я улица Суворова,170002,56.8423606,35.8982553
8,улица Коминтерна,170002,56.8390937,35.8887454
3/1,улица Коминтерна,170002,56.8390001,35.8894061
3,Александровский переулок,170002,56.8388686,35.8898397
5,Александровский переулок,170002,56.8396915,35.8907279
2А с1,Александровский переулок,170002,56.8394288,35.8936443
1А/1,Спортивный переулок,170002,56.8406289,35.8924320
2Б,Университетский переулок,170002,56.8354658,35.9046864
2,улица Александра Попова,170034,56.8448335,35.9133612
3А,Волоколамский проспект,170008,56.8479942,35.9223159
11 к1,Озёрная улица,170008,56.8437731,35.9271018
14А,улица Ротмистрова,170008,56.8451496,35.9342939
9,Гвардейская улица,170008,56.8436229,35.9321054
13,улица Терещенко,170008,56.8428177,35.9200457
3,улица Богданова,170008,56.8399976,35.9205561
57А,проспект Победы,170023,56.8384331,35.9380538
51А,проспект Победы,170028,56.8387252,35.9357571
17А,улица Лукина,170028,56.8397384,35.9368945
11,2-я улица Лукина,170028,56.8400806,35.9385424
7А/1,2-я улица Лукина,170028,56.8420151,35.9420114
58 к5,улица Левитана,170043,56.8128987,35.8960676
58 к4,улица Левитана,170043,56.8127826,35.8968378
58 к2,улица Левитана,170043,56.8122396,35.8983600
58 к1,улица Левитана,170043,56.8116043,35.8984233
27,2-й проезд Седова,170039,56.8830118,35.8488455
2А/1,Спортивный переулок,170002,56.8410869,35.8935697
33,2-я улица Серова,170019,56.8649863,35.9585376
2,1-й переулок Вагонников,170012,56.8852797,35.8465097
48 к3,улица Паши Савельевой,170039,56.8851720,35.8446281
10,улица Карбышева,170027,56.8349477,35.8728954
12,посёлок Лоцманенко,170027,56.8356864,35.8787997
11,посёлок Лоцманенко,170027,56.8353346,35.8787947
8,посёлок Лоцманенко,170027,56.8349661,35.8787608
7,посёлок Лоцманенко,170027,56.8346255,35.8787594
5,посёлок Лоцманенко,170027,56.8341106,35.8789268
3 с1,улица Машинистов,170043,56.8349856,35.8811944
10,посёлок Лоцманенко,170027,56.8343343,35.8797809
6,посёлок Лоцманенко,170027,56.8341917,35.8792696
1,посёлок Лоцманенко,170027,56.8338191,35.8793659
2,посёлок Лоцманенко,170027,56.8339753,35.8797041
3,посёлок Лоцманенко,170027,56.8341446,35.8802624
4,посёлок Лоцманенко,170027,56.8343318,35.8807852
9,Широкая улица,170027,56.8334614,35.8797486
13,Широкая улица,170027,56.8331306,35.8793026
1,Бригадная улица,170027,56.8291504,35.8773903
4,улица Декабристов,170004,56.8386203,35.8626134
2/25,улица Декабристов,170004,56.8388629,35.8619214
25/2,улица Халтурина,170004,56.8387290,35.8617368
1А,1-я улица за линией Октябрьской ж/д,170004,56.8501673,35.8542698
67,Бурашевское шоссе,170016,56.8035007,35.9204542
16А,улица Веселова,170003,56.8793618,35.8597802
34,улица Гончаровой,170001,56.8432084,35.8767088
1,Баррикадная улица,170001,56.8516399,35.8727551
69,1-я улица Александра Невского,170007,56.8678554,35.9287020
13,переулок Шевченко,170026,56.8694351,35.9150834
13,переулок Шевченко,170026,56.8694029,35.9152908
5А,Баррикадная улица,170001,56.8517867,35.8736204
4 к1,2-я улица Металлистов,170003,56.8731214,35.8688221
6,2-я улица Металлистов,170003,56.8735482,35.8692252
82,2-я улица Красина,170003,56.8843424,35.8608292
7,улица Комарова,170003,56.8741579,35.8603355
1,Медовая улица,170019,56.8704097,35.9909916
8,4-й Полевой проезд,170027,56.8295772,35.8642485
93А,улица Левитана,170043,56.8083413,35.8976064
97А,улица Левитана,170043,56.8058792,35.8944351
95А,улица Левитана,170043,56.8071373,35.8961920
27 к2,улица Хромова,170003,56.8851077,35.8597342
112,Черкасская улица,170040,56.8511103,35.7741523
34 к1,улица Гончаровой,170001,56.8434847,35.8758258
15,улица Ефимова,170006,56.8575435,35.8952418
48 к3,улица Левитана,170043,56.8152763,35.9007297
7,Псковская улица,170043,56.8133969,35.8980735
12,Георгиевская улица,170027,56.8271469,35.8533535
12,Георгиевская улица,170027,56.8278141,35.8543509
59,бульвар Гусева,170043,56.8133694,35.8926663
61,бульвар Гусева,170043,56.8131923,35.8908167
10А,1-я Колхозная улица,170004,56.8358855,35.8605458
22,улица Фрунзе,170039,56.8893034,35.8417544
68,бульвар Гусева,170043,56.8110682,35.8849908
13/59,улица Роговик,170006,56.8619159,35.8800695
62,бульвар Гусева,170043,56.8125325,35.8871293
25,улица Жореса,170042,56.8761931,35.8928591
40,улица Луначарского,170003,56.8826095,35.8595033
20,улица Малая Самара,170100,56.8509333,35.9275181
29,Смоленский переулок,170100,56.8556768,35.9250287
61 к1,бульвар Гусева,170043,56.8129664,35.8917547
8 к1,улица С.Я. Лемешева,170043,56.8152272,35.8973460
6,улица С.Я. Лемешева,170043,56.8163869,35.8973744
17Г,проспект Николая Корыткова,170040,56.8445072,35.8003695
6,улица Левитана,170043,56.8103003,35.8982626
35,проспект Чайковского,170002,56.8395268,35.8958839
3,улица Дарвина,170034,56.8480828,35.8990309
21,Беляковский переулок,170006,56.8573689,35.8803171
47,улица Ефимова,170006,56.8614535,35.8899216
8 к1,Смоленский переулок,170100,56.8541331,35.9275050
8 к2,Смоленский переулок,170100,56.8537793,35.9270007
1,Московская улица,170100,56.8529318,35.9282710
11,бульвар Гусева,170030,56.8236419,35.9067514
30,улица Левитана,170030,56.8210502,35.9089852
4,Университетский переулок,170033,56.8356708,35.9042422
23,улица Вагжанова,170100,56.8500332,35.9414632
11,Озёрная улица,170008,56.8435274,35.9268869
48,Беляковский переулок,170006,56.8623130,35.8758721
49,Хрустальная улица,170021,56.8964465,35.9066426
49А,Хрустальная улица,170021,56.8966938,35.9061799
7,Взлётная улица,170022,56.8096543,35.9147671
18,улица Лётное Поле,170022,56.8099456,35.9150066
46,бульвар Гусева,170043,56.8166708,35.8918026
57,бульвар Гусева,170043,56.8138627,35.8931938
40,улица Спартака,170001,56.8516280,35.8788762
10,улица С.Я. Лемешева,170043,56.8154343,35.8991843
8,улица С.Я. Лемешева,170043,56.8160147,35.8984198
11,улица Михаила Румянцева,170026,56.8724696,35.9036629
7,улица Михаила Румянцева,170026,56.8719516,35.9033352
