House number,Street name,Postal code,Latitude,Longitude
305,N 5th Street,83313,43.4679625,-114.2567108
120,N Main Street,83313,43.4656612,-114.2611236
101,E Pine Street,83313,43.4631087,-114.2598420
115,E Pine Street,83313,43.4631683,-114.2593854
201,South Main Street,83313,43.4636939,-114.2602678
101,S Main Street,83313,43.4646692,-114.2607104
104,S Main Street,83313,43.4644960,-114.2612495
218,N Main Street,83313,43.4666648,-114.2615326
401,N Main Street,83313,43.4678522,-114.2628107
766,South Main Street,83313,43.4576673,-114.2584647
110,Honeysuckle,83313,43.4515252,-114.2539705
129,Cowcatcher Loop,83313,43.4709592,-114.2469250
112,Cowcatcher Loop,83313,43.4701381,-114.2481843
319,Spruce Street,83313,43.4712479,-114.2608314
604,Oak Street,83313,43.4651582,-114.2539517
113,Main Street,83313,43.4643711,-114.2604409
1267,Glen Aspen Drive,83313,43.4522722,-114.2586091
230,Tendoy Street,83313,43.4726759,-114.2673011
1311,Main Street,83313,43.4524148,-114.2549381
508,Main Street,83313,43.4603011,-114.2594592
157,Cowcatcher Loop,83313,43.4697026,-114.2469951
117,Main Street,83313,43.4641652,-114.2603473
214,Spruce Street,83313,43.4694181,-114.2649112
32,Gannett Road,83313,43.4517082,-114.2526793
409,Broadford Road,83313,43.4693713,-114.2660502
409,Broadford Road,83313,43.4695884,-114.2666548
441,Pine View Lane,83313,43.4634306,-114.2484071
341,Tendoy Street,83313,43.4752514,-114.2684169
420,Pine View Lane,83313,43.4638824,-114.2490388
521,Walnut Street,83313,43.4624033,-114.2534952
260,Melrose Street,83313,43.4727167,-114.2690000
716,Walnut Street,83313,43.4625681,-114.2509526
216,Glen Aspen Drive,83313,43.4550083,-114.2580432
821,Main Street,83313,43.4579230,-114.2573419
211,Melrose Street,83313,43.4720225,-114.2676646
409,Broadford Road,83313,43.4682831,-114.2657516
404,Elm Street,83313,43.4656014,-114.2570046
605,Walnut Street,83313,43.4625755,-114.2527802
241,Tendoy Street,83313,43.4730171,-114.2664666
30,Gannett Road,83313,43.4518360,-114.2527764
520,Main Street,83313,43.4599089,-114.2592782
149,Cowcatcher Loop,83313,43.4700438,-114.2460599
109,Pine Street,83313,43.4631355,-114.2598747
123,Cowcatcher Loop,83313,43.4708299,-114.2477202
209,Main Street,83313,43.4634615,-114.2600231
110,Clover Street,83313,43.4524371,-114.2542721
135,Cowcatcher Loop,83313,43.4712112,-114.2461209
409,Broadford Road,83313,43.4695664,-114.2661817
201,Main Street,83313,43.4659027,-114.2620107
106,Ash Street,83313,43.4697623,-114.2624378
735,Main Street,83313,43.4719068,-114.2653528
210,Parkside Drive,83313,43.4694090,-114.2486938
119,Sunrise Ranch Road,83313,43.4663493,-114.2492089
160,Sunrise Ranch Road,83313,43.4669395,-114.2478184
200,Parkside Drive,83313,43.4694377,-114.2483130
250,Tendoy Street,83313,43.4731325,-114.2677644
609,East Cottonwood Street,83313,43.4686443,-114.2549660
17,Lower Broadford Road,83313,43.4657755,-114.2658258
130,Cowcatcher Loop,83313,43.4704352,-114.2470168
36,Gannett Road,83313,43.4514956,-114.2525074
509,Main Street,83313,43.4604446,-114.2586521
102,Quarter Horse Road,83313,43.4645200,-114.2461934
201,Melrose Street,83313,43.4716959,-114.2676258
733,Main Street,83313,43.4723529,-114.2651085
37,Lower Broadford Road,83313,43.4626732,-114.2658964
311,Melrose Street,83313,43.4744541,-114.2695416
309,Main Street,83313,43.4671063,-114.2625569
208,Elm Street,83313,43.4650145,-114.2593625
735,Main Street,83313,43.4717717,-114.2652709
120,Slaughterhouse Road,83313,43.4727073,-114.2457486
500,Main Street,83313,43.4605615,-114.2595776
217,Cedar Street,83313,43.4665095,-114.2594726
733,Main Street,83313,43.4721604,-114.2650134
1147,Glen Aspen Drive,83313,43.4535178,-114.2590025
100,Trout Lane,83313,43.4693811,-114.2677785
776,Main Street,83313,43.4555992,-114.2578543
2,Gannett Road,83313,43.4554302,-114.2563982
820,Elm Street,83313,43.4668175,-114.2504969
409,Broadford Road,83313,43.4686274,-114.2650678
408,Poplar Street,83313,43.4626325,-114.2555425
409,Broadford Road,83313,43.4690874,-114.2654065
409,Broadford Road,83313,43.4691047,-114.2662052
105,Martin Lane,83313,43.4651055,-114.2624822
411,Maple Ridge Loop,83313,43.4642759,-114.2502643
231,Sunrise Ranch Road,83313,43.4677837,-114.2483780
200,Spruce Street,83313,43.4692140,-114.2635176
208,Beech Street,83313,43.4689064,-114.2611356
1371,Main Street,83313,43.4520445,-114.2547673
401,Main Street,83313,43.4678341,-114.2628885
409,Ash Street,83313,43.4708939,-114.2593017
680,Main Street,83313,43.4584330,-114.2591297
409,Broadford Road,83313,43.4683266,-114.2653255
609,Pine Street,83313,43.4646835,-114.2537372
220,Parkside Drive,83313,43.4694130,-114.2490720
317,Spruce Street,83313,43.4713729,-114.2603127
281,Tendoy Street,83313,43.4739385,-114.2673130
417,Pine Street,83313,43.4640858,-114.2556277
240,Sunrise Ranch Road,83313,43.4679731,-114.2475562
143,Cowcatcher Loop,83313,43.4705560,-114.2456691
613,Main Street,83313,43.4593039,-114.2581267
409,Broadford Road,83313,43.4685013,-114.2659113
604,Poplar Street,83313,43.4632264,-114.2530758
24,Muldoon Canyon Road,83313,43.4646532,-114.2498185
401,Maple Ridge Loop,83313,43.4642061,-114.2507007
616,Elm Street,83313,43.4662838,-114.2538863
126,Cowcatcher Loop,83313,43.4703878,-114.2475861
316,Ash Street,83313,43.4703180,-114.2598334
410,Broadford Road,83313,43.4668038,-114.2634488
331,Tendoy Street,83313,43.4749787,-114.2683005
391,Tendoy Street,83313,43.4767477,-114.2691197
500,Pine View Lane,83313,43.4626478,-114.2490869
167,Hardwood Street,83313,43.4540534,-114.2551540
139,Cowcatcher Loop,83313,43.4710652,-114.2454665
251,Sunrise Ranch Road,83313,43.4683208,-114.2483664
120,Clover Street,83313,43.4524633,-114.2540455
31,Lower Broadford Road,83313,43.4637464,-114.2654618
616,Riverside Drive,83313,43.4587030,-114.2598052
90,Tendoy Street,83313,43.4703820,-114.2673077
209,Walnut Street,83313,43.4613874,-114.2577132
216,Walnut Street,83313,43.4611080,-114.2570104
410,Chestnut Loop,83313,43.4641930,-114.2480907
1166,Riverview Drive,83313,43.4535904,-114.2580150
308,Main Street,83313,43.4672953,-114.2617707
170,Hardwood Street,83313,43.4533482,-114.2550986
501,Maple Ridge Loop,83313,43.4627647,-114.2500846
1027,Glen Aspen Drive,83313,43.4545882,-114.2594843
421,Poplar Street,83313,43.4631868,-114.2551003
508,Pine Street,83313,43.4639190,-114.2547587
710,Main Street,83313,43.4714819,-114.2635700
1192,Riverview Drive,83313,43.4533077,-114.2579293
155,Cowcatcher Loop,83313,43.4697012,-114.2467084
409,Broadford Road,83313,43.4688029,-114.2660848
137,Cowcatcher Loop,83313,43.4714573,-114.2456388
416,Ash Street,83313,43.4706802,-114.2586294
766,Main Street,83313,43.4575949,-114.2584965
213,Main Street,83313,43.4633311,-114.2599637
1186,Look Out Lane,83313,43.4537248,-114.2565532
216,Beech Street,83313,43.4690503,-114.2606256
136,Cowcatcher Loop,83313,43.4706936,-114.2461979
22,Muldoon Canyon Road,83313,43.4646458,-114.2502140
733,Main Street,83313,43.4722979,-114.2650728
111,Cowcatcher Loop,83313,43.4696943,-114.2482561
1267,Main Street,83313,43.4530744,-114.2553225
407,Broadford Road,83313,43.4677680,-114.2642870
421,Tendoy Street,83313,43.4767094,-114.2705427
509,Elm Street,83313,43.4662942,-114.2558378
290,Melrose Street,83313,43.4735557,-114.2694376
221,Main Street,83313,43.4664616,-114.2622638
409,Broadford Road,83313,43.4685536,-114.2649930
412,Main Street,83313,43.4685610,-114.2619021
604,Ash Street,83313,43.4711496,-114.2566807
717,Poplar Street,83313,43.4639864,-114.2514777
260,Sunrise Ranch Road,83313,43.4684672,-114.2475560
409,Broadford Road,83313,43.4692018,-114.2659118
108,Main Street,83313,43.4653808,-114.2608970
204,Walnut Street,83313,43.4609799,-114.2575222
380,Parkside Drive,83313,43.4694293,-114.2494509
240,Melrose Street,83313,43.4721901,-114.2687464
144,Cowcatcher Loop,83313,43.4701279,-114.2470377
735,Main Street,83313,43.4719532,-114.2653741
409,Broadford Road,83313,43.4693466,-114.2655524
261,Sunrise Ranch Road,83313,43.4685942,-114.2483655
713,Main Street,83313,43.4709816,-114.2642891
34,Gannett Road,83313,43.4516019,-114.2525933
150,Sunrise Ranch Road,83313,43.4667337,-114.2480057
281,Melrose Street,83313,43.4737462,-114.2686657
700,Walnut Street,83313,43.4625341,-114.2513932
231,Melrose Street,83313,43.4725268,-114.2679089
422,Chestnut Street,83313,43.4606160,-114.2543762
612,Main Street,83313,43.4591456,-114.2589268
771,Main Street,83313,43.4758621,-114.2676084
220,Melrose Street,83313,43.4716364,-114.2684924
1111,Glen Aspen Drive,83313,43.4537509,-114.2591142
405,Beech Street,83313,43.4699687,-114.2588813
716,Pine Street,83313,43.4646374,-114.2517727
721,Main Street,83313,43.4712226,-114.2650637
869,Main Street,83313,43.4570882,-114.2569373
413,Main Street,83313,43.4613506,-114.2590646
108,Oak Street,83313,43.4637439,-114.2600528
521,Elm Street,83313,43.4664648,-114.2552212
361,Melrose Street,83313,43.4758390,-114.2701447
417,Ash Street,83313,43.4710187,-114.2587832
153,Cowcatcher Loop,83313,43.4697490,-114.2464133
444,Forbis Lane,83313,43.4683548,-114.2631260
209,Beech Street,83313,43.4693100,-114.2613191
1264,Glen Aspen Drive,83313,43.4520600,-114.2594999
1010,Glen Aspen Drive,83313,43.4543852,-114.2605566
206,Spruce Street,83313,43.4700048,-114.2643962
1241,Riverview Drive,83313,43.4529568,-114.2569381
491,Maple Ridge Loop,83313,43.4628258,-114.2496952
739,Main Street,83313,43.4725729,-114.2656727
25,Lower Broadford Road,83313,43.4643317,-114.2657668
409,Broadford Road,83313,43.4682009,-114.2645463
708,Main Street,83313,43.4711855,-114.2636291
605,Poplar Street,83313,43.4635648,-114.2532296
145,Cowcatcher Loop,83313,43.4703841,-114.2458002
117,Cowcatcher Loop,83313,43.4697241,-114.2491041
209,Elm Street,83313,43.4653537,-114.2595157
405,Chestnut Street,83313,43.4609917,-114.2547966
216,Elm Street,83313,43.4650436,-114.2589402
409,Broadford Road,83313,43.4697241,-114.2657588
409,Broadford Road,83313,43.4686138,-114.2655950
109,Ridgeview Drive,83313,43.4654089,-114.2498667
321,Tendoy Street,83313,43.4746875,-114.2682824
717,Elm Street,83313,43.4669549,-114.2528440
210,Sunrise Ranch Road,83313,43.4671299,-114.2475996
371,Tendoy Street,83313,43.4761041,-114.2685837
408,Broadford Road,83313,43.4668968,-114.2639733
411,Chestnut Loop,83313,43.4645881,-114.2474084
109,Main Street,83313,43.4651233,-114.2616585
117,Chestnut Street,83313,43.4602251,-114.2579774
1136,Riverview Drive,83313,43.4538670,-114.2581285
351,Ridgeview Drive,83313,43.4684269,-114.2495543
901,Main Street,83313,43.4544877,-114.2554269
120,Main Street,83313,43.4638532,-114.2610772
120,Tendoy Street,83313,43.4710112,-114.2665380
312,Main Street,83313,43.4622168,-114.2603308
320,Elm Street,83313,43.4654367,-114.2576103
501,Main Street,83313,43.4606859,-114.2587619
200,Main Street,83313,43.4635322,-114.2609282
309,Cedar Street,83313,43.4667036,-114.2587657
440,Pine View Lane,83313,43.4634394,-114.2490360
521,Main Street,83313,43.4601002,-114.2584953
517,Main Street,83313,43.4602764,-114.2585756
409,Broadford Road,83313,43.4692729,-114.2663639
4,Gannett Road,83313,43.4554442,-114.2560232
509,Birch Street,83313,43.4692765,-114.2571977
222,Forbis Lane,83313,43.4681948,-114.2638621
705,Cedar Street,83313,43.4680460,-114.2540282
26,Muldoon Canyon Road,83313,43.4643564,-114.2494265
316,Walnut Street,83313,43.4613794,-114.2558847
120,Oak Street,83313,43.4637173,-114.2595644
408,Poplar Street,83313,43.4615510,-114.2586522
516,Walnut Street,83313,43.4620647,-114.2533410
220,Elm Street,83313,43.4650954,-114.2587255
417,Chestnut Street,83313,43.4611166,-114.2542784
408,Ash Street,83313,43.4705553,-114.2591479
331,Chestnut Loop,83313,43.4648006,-114.2478399
280,Melrose Street,83313,43.4732863,-114.2693128
112,Main Street,83313,43.4641784,-114.2612267
251,Tendoy Street,83313,43.4733093,-114.2666501
351,Tendoy Street,83313,43.4755100,-114.2684810
270,Melrose Street,83313,43.4730426,-114.2691963
409,Broadford Road,83313,43.4689330,-114.2652861
409,Broadford Road,83313,43.4693575,-114.2664243
706,Main Street,83313,43.4582790,-114.2588101
340,Tendoy Street,83313,43.4755231,-114.2694450
401,Pine View Lane,83313,43.4641590,-114.2484174
712,Main Street,83313,43.4718575,-114.2637685
716,Elm Street,83313,43.4665623,-114.2526432
1215,Main Street,83313,43.4535690,-114.2555487
86,Martin Lane,83313,43.4664916,-114.2634526
461,Maple Ridge Loop,83313,43.4633762,-114.2494455
158,Riverview Drive,83313,43.4549314,-114.2572936
714,Main Street,83313,43.4723015,-114.2640131
209,Oak Street,83313,43.4643623,-114.2590671
411,Broadford Road,83313,43.4674028,-114.2637182
127,Cowcatcher Loop,83313,43.4708944,-114.2471848
811,Riverside Drive,83313,43.4568591,-114.2592270
1242,Riverview Drive,83313,43.4527664,-114.2578274
340,Pine View Lane,83313,43.4646103,-114.2490433
417,Walnut Street,83313,43.4621062,-114.2547284
130,Sunrise Ranch Road,83313,43.4663218,-114.2483803
205,Chestnut Street,83313,43.4603974,-114.2572626
122,Cowcatcher Loop,83313,43.4703922,-114.2481831
618,Walnut Street,83313,43.4623618,-114.2521080
1331,Main Street,83313,43.4522784,-114.2548749
216,Poplar Street,83313,43.4620981,-114.2574609
1210,Look Out Lane,83313,43.4535036,-114.2564525
91,Martin Lane,83313,43.4658041,-114.2628003
717,Walnut Street,83313,43.4629973,-114.2510286
430,Chestnut Loop,83313,43.4638099,-114.2480805
209,Ridgeview Drive,83313,43.4660834,-114.2501746
409,Broadford Road,83313,43.4684681,-114.2649113
118,Main Street,83313,43.4639528,-114.2611242
718,Main Street,83313,43.4728660,-114.2642361
210,Tendoy Street,83313,43.4721737,-114.2670441
621,Chestnut Street,83313,43.4617110,-114.2518124
504,Main Street,83313,43.4690779,-114.2625826
317,Main Street,83313,43.4622108,-114.2594557
341,Melrose Street,83313,43.4752676,-114.2699310
201,Parkside Drive,83313,43.4688355,-114.2483647
120,Spruce Street,83313,43.4710656,-114.2633927
417,Elm Street,83313,43.4660755,-114.2565317
620,Main Street,83313,43.4589767,-114.2588499
100,Martin Lane,83313,43.4643357,-114.2636219
300,Sunrise Ranch Road,83313,43.4694523,-114.2475562
309,Chestnut Street,83313,43.4606946,-114.2560296
301,Melrose Street,83313,43.4741393,-114.2693886
184,Glen Aspen Drive,83313,43.4550137,-114.2577237
217,East Cottonwood Street,83313,43.4674561,-114.2599000
409,Broadford Road,83313,43.4696627,-114.2667363
104,Main Street,83313,43.4644602,-114.2613553
311,Ridgeview Drive,83313,43.4674564,-114.2502037
409,Broadford Road,83313,43.4682779,-114.2646620
700,Riverside Drive,83313,43.4585274,-114.2612135
261,Tendoy Street,83313,43.4734343,-114.2670431
159,Cowcatcher Loop,83313,43.4697058,-114.2473647
270,Tendoy Street,83313,43.4736318,-114.2680801
38,Gannett Road,83313,43.4513697,-114.2524056
700,Cedar Street,83313,43.4674590,-114.2534827
210,Ridgeview Drive,83313,43.4666377,-114.2496316
409,Broadford Road,83313,43.4687035,-114.2660182
819,Elm Street,83313,43.4672445,-114.2503850
320,Main Street,83313,43.4620033,-114.2601839
111,Ridgeview Drive,83313,43.4656466,-114.2499753
621,Walnut Street,83313,43.4627332,-114.2522768
604,Pine Street,83313,43.4642153,-114.2535250
200,Melrose Street,83313,43.4710518,-114.2682239
23,Lower Broadford Road,83313,43.4646964,-114.2657538
201,Tendoy Street,83313,43.4720123,-114.2659506
501,Pine View Lane,83313,43.4631108,-114.2484130
321,Ash Street,83313,43.4707218,-114.2600169
137,Hardwood Street,83313,43.4539981,-114.2556815
704,Elm Street,83313,43.4664989,-114.2531895
409,Broadford Road,83313,43.4689119,-114.2656961
409,Broadford Road,83313,43.4682344,-114.2652152
617,Pine Street,83313,43.4646776,-114.2531597
234,Hardwood Street,83313,43.4533856,-114.2540041
240,Tendoy Street,83313,43.4729003,-114.2674798
148,Cowcatcher Loop,83313,43.4701318,-114.2475464
120,Poplar Street,83313,43.4618903,-114.2588279
391,Parkside Drive,83313,43.4690109,-114.2502613
1108,Riverview Drive,83313,43.4540966,-114.2582614
201,Ridgeview Drive,83313,43.4658928,-114.2500876
351,Melrose Street,83313,43.4755245,-114.2700268
540,Chestnut Loop,83313,43.4630433,-114.2480897
853,Main Street,83313,43.4575656,-114.2573042
1115,Riverview Drive,83313,43.4542705,-114.2574642
21,Lower Broadford Road,83313,43.4653261,-114.2659670
767,Main Street,83313,43.4584853,-114.2575992
40,Gannett Road,83313,43.4509509,-114.2520676
100,Amber Street,83313,43.4712693,-114.2667091
722,Main Street,83313,43.4739108,-114.2649069
409,Broadford Road,83313,43.4695269,-114.2665698
147,Cowcatcher Loop,83313,43.4702138,-114.2459302
146,Cowcatcher Loop,83313,43.4701295,-114.2472922
390,Parkside Drive,83313,43.4693970,-114.2498307
733,Main Street,83313,43.4722865,-114.2650663
117,Honeysuckle Street,83313,43.4521243,-114.2538316
403,Chestnut Loop,83313,43.4647067,-114.2475475
121,Cowcatcher Loop,83313,43.4708341,-114.2482219
10,Muldoon Canyon Road,83313,43.4645816,-114.2510081
1217,Riverview Drive,83313,43.4531742,-114.2570072
211,Parkside Drive,83313,43.4688414,-114.2488535
403,Chestnut Street,83313,43.4577501,-114.2555170
301,Tendoy Street,83313,43.4744052,-114.2677029
316,Birch Street,83313,43.4684039,-114.2589623
617,Ash Street,83313,43.4716062,-114.2563188
110,Honeysuckle Street,83313,43.4515009,-114.2535135
608,Walnut Street,83313,43.4621718,-114.2525967
209,East Cottonwood Street,83313,43.4673314,-114.2604190
280,Sunrise Ranch Road,83313,43.4689612,-114.2475557
409,Broadford Road,83313,43.4696369,-114.2657090
508,Walnut Street,83313,43.4618746,-114.2538297
431,Chestnut Loop,83313,43.4636633,-114.2474550
200,Ridgeview Drive,83313,43.4663142,-114.2494981
651,Tower Street,83313,43.4590435,-114.2575464
100,Tendoy Street,83313,43.4705072,-114.2661685
360,Melrose Street,83313,43.4752628,-114.2709795
1228,Look Out Lane,83313,43.4532825,-114.2563516
408,Main Street,83313,43.4613309,-114.2599280
124,Cowcatcher Loop,83313,43.4703891,-114.2478670
26,Gannett Road,83313,43.4522913,-114.2531643
131,Cowcatcher Loop,83313,43.4710459,-114.2466775
110,Ridgeview Drive,83313,43.4655767,-114.2492135
139,Sunrise Ranch Road,83313,43.4669289,-114.2489129
308,Walnut Street,83313,43.4612803,-114.2562959
211,Tendoy Street,83313,43.4722501,-114.2660752
130,Clover Street,83313,43.4525283,-114.2538157
1160,Look Out Lane,83313,43.4543215,-114.2566659
400,Pine View Lane,83313,43.4642622,-114.2490411
308,Pine Street,83313,43.4632602,-114.2571956
409,Broadford Road,83313,43.4681997,-114.2656630
24,Gannett Road,83313,43.4523976,-114.2532511
110,Tendoy Street,83313,43.4707663,-114.2663589
409,Broadford Road,83313,43.4692620,-114.2655202
508,Oak Street,83313,43.4649086,-114.2552066
221,Melrose Street,83313,43.4722753,-114.2677871
111,Summit Lane,83313,43.4675170,-114.2483895
541,Chestnut Loop,83313,43.4625959,-114.2474651
380,Melrose Street,83313,43.4764695,-114.2713268
1241,Main Street,83313,43.4533349,-114.2554416
118,Cowcatcher Loop,83313,43.4704036,-114.2486848
518,Elm Street,83313,43.4660293,-114.2551002
409,Broadford Road,83313,43.4686104,-114.2659780
121,Honeysuckle Street,83313,43.4521897,-114.2535607
1241,Glen Aspen Drive,83313,43.4525305,-114.2586822
330,Melrose Street,83313,43.4732689,-114.2708611
81,Martin Lane,83313,43.4664563,-114.2627536
117,Poplar Street,83313,43.4621789,-114.2589383
417,Poplar Street,83313,43.4631352,-114.2553148
416,Main Street,83313,43.4609660,-114.2597624
409,Broadford Road,83313,43.4687524,-114.2650990
409,Broadford Road,83313,43.4684009,-114.2654211
131,Tendoy Street,83313,43.4714104,-114.2658176
735,Main Street,83313,43.4718126,-114.2652958
409,Broadford Road,83313,43.4683470,-114.2647393
271,Tendoy Street,83313,43.4736907,-114.2671840
409,Broadford Road,83313,43.4691908,-114.2662577
416,Poplar Street,83313,43.4627572,-114.2550239
220,Main Street,83313,43.4628480,-114.2606167
300,Main Street,83313,43.4625423,-114.2604784
119,Cowcatcher Loop,83313,43.4707965,-114.2485026
705,Elm Street,83313,43.4668402,-114.2533188
460,Maple Ridge Loop,83313,43.4633521,-114.2501591
321,Ridgeview Drive,83313,43.4676752,-114.2500152
481,Maple Ridge Loop,83313,43.4627207,-114.2493171
408,Oak Street,83313,43.4645477,-114.2564113
261,Melrose Street,83313,43.4732744,-114.2684413
120,Poplar Street,83313,43.4615406,-114.2585759
720,Walnut Street,83313,43.4626197,-114.2507381
117,Clover Street,83313,43.4529837,-114.2541926
509,Ash Street,83313,43.4712370,-114.2580890
37,Muldoon Canyon Road,83313,43.4657206,-114.2454216
409,Broadford Road,83313,43.4690365,-114.2661399
117,Ash Street,83313,43.4703858,-114.2626105
1052,Riverview Drive,83313,43.4546533,-114.2584019
331,Melrose Street,83313,43.4749339,-114.2697743
409,Broadford Road,83313,43.4695367,-114.2656732
920,Riverside Drive,83313,43.4554384,-114.2607782
120,Amber Street,83313,43.4710969,-114.2675724
743,Main Street,83313,43.4587462,-114.2577180
409,Main Street,83313,43.4680294,-114.2629776
715,Cedar Street,83313,43.4684605,-114.2535880
1073,Glen Aspen Drive,83313,43.4542962,-114.2593684
750,Riverside Drive,83313,43.4581132,-114.2610751
409,Broadford Road,83313,43.4697678,-114.2668462
35,Muldoon Canyon Road,83313,43.4656789,-114.2459200
411,Tendoy Street,83313,43.4767246,-114.2700676
208,Cedar Street,83313,43.4660824,-114.2596695
180,Spruce Street,83313,43.4709303,-114.2646427
605,Beech Street,83313,43.4706885,-114.2558961
401,Tendoy Street,83313,43.4767250,-114.2695908
141,Tendoy Street,83313,43.4717032,-114.2658222
431,Maple Ridge Loop,83313,43.4641374,-114.2496381
720,Main Street,83313,43.4731735,-114.2644234
1142,Glen Aspen Drive,83313,43.4532960,-114.2600629
417,Main Street,83313,43.4611553,-114.2589760
321,Main Street,83313,43.4620806,-114.2593966
409,Broadford Road,83313,43.4692917,-114.2659827
416,Elm Street,83313,43.4657343,-114.2563760
522,Chestnut Street,83313,43.4610598,-114.2525515
230,Sunrise Ranch Road,83313,43.4677242,-114.2475563
310,Ridgeview Drive,83313,43.4671725,-114.2494180
308,East Cottonwood Street,83313,43.4672896,-114.2590310
733,Main Street,83313,43.4724194,-114.2651389
612,Lewis Lane,83313,43.4590777,-114.2595267
417,East Cottonwood Street,83313,43.4680498,-114.2574320
116,Birch Street,83313,43.4677451,-114.2614007
509,Poplar Street,83313,43.4632680,-114.2544630
608,East Cottonwood Street,83313,43.4682407,-114.2547830
241,Sunrise Ranch Road,83313,43.4680486,-114.2483674
417,Oak Street,83313,43.4650792,-114.2560776
114,Cowcatcher Loop,83313,43.4701405,-114.2484345
350,Melrose Street,83313,43.4743516,-114.2712689
508,Poplar Street,83313,43.4629294,-114.2543092
1167,Riverview Drive,83313,43.4537496,-114.2572386
421,Maple Ridge Loop,83313,43.4642439,-114.2498922
409,East Cottonwood Street,83313,43.4679711,-114.2579720
110,Amber Street,83313,43.4711950,-114.2671599
735,Main Street,83313,43.4718590,-114.2653172
331,Ridgeview Drive,83313,43.4678694,-114.2498486
745,Main Street,83313,43.4731119,-114.2655846
517,Elm Street,83313,43.4664129,-114.2554356
403,Broadford Road,83313,43.4689119,-114.2667368
39,Lower Broadford Road,83313,43.4626461,-114.2660318
340,Melrose Street,83313,43.4735935,-114.2716572
120,Sunrise Ranch Road,83313,43.4661050,-114.2485775
115,Cowcatcher Loop,83313,43.4697218,-114.2487973
208,Poplar Street,83313,43.4619923,-114.2579880
151,Cowcatcher Loop,83313,43.4697781,-114.2461821
216,Oak Street,83313,43.4641450,-114.2583903
88,Martin Lane,83313,43.4665477,-114.2642588
317,Pine Street,83313,43.4638548,-114.2568907
196,Hardwood Street,83313,43.4532908,-114.2547637
421,Pine View Lane,83313,43.4638088,-114.2484088
600,Riverside Drive,83313,43.4593880,-114.2598666
1191,Riverview Drive,83313,43.4535180,-114.2571339
609,Chestnut Street,83313,43.4615861,-114.2523306
451,Maple Ridge Loop,83313,43.4635975,-114.2494967
820,Riverside Drive,83313,43.4569686,-114.2609653
220,Sunrise Ranch Road,83313,43.4674128,-114.2475705
204,Spruce Street,83313,43.4701953,-114.2645523
416,Oak Street,83313,43.4647372,-114.2559220
204,Main Street,83313,43.4661432,-114.2612476
705,Chestnut Street,83313,43.4619483,-114.2511271
117,Pine Street,83313,43.4632604,-114.2593563
220,Tendoy Street,83313,43.4724261,-114.2671733
406,Broadford Road,83313,43.4670584,-114.2644291
311,Chestnut Loop,83313,43.4647411,-114.2483347
310,Tendoy Street,83313,43.4745554,-114.2690270
100,Ridgeview Drive,83313,43.4652280,-114.2491155
134,Cowcatcher Loop,83313,43.4705564,-114.2465048
109,Cedar Street,83313,43.4660455,-114.2612033
120,Cowcatcher Loop,83313,43.4703952,-114.2484310
621,Main Street,83313,43.4702684,-114.2639969
733,Main Street,83313,43.4722214,-114.2650122
209,Hardwood Street,83313,43.4537130,-114.2545970
106,Quarter Horse Road,83313,43.4633247,-114.2461669
109,Clover Street,83313,43.4529574,-114.2544526
107,Martin Lane,83313,43.4649423,-114.2624079
1287,Main Street,83313,43.4527667,-114.2551016
270,Sunrise Ranch Road,83313,43.4687142,-114.2475558
531,Chestnut Loop,83313,43.4629108,-114.2474740
150,Cowcatcher Loop,83313,43.4701346,-114.2478399
1217,Glen Aspen Drive,83313,43.4527880,-114.2587574
161,Cowcatcher Loop,83313,43.4696895,-114.2476656
517,Pine Street,83313,43.4643818,-114.2543936
512,Main Street,83313,43.4601059,-114.2593705
313,Main Street,83313,43.4624061,-114.2595443
100,Main Street,83313,43.4645562,-114.2614000
102,Bay Horse Road,83313,43.4601412,-114.2563267
510,Chestnut Loop,83313,43.4634317,-114.2480799
128,Cowcatcher Loop,83313,43.4703929,-114.2472964
317,Poplar Street,83313,43.4627991,-114.2564115
409,Oak Street,83313,43.4649578,-114.2565985
561,Chestnut Loop,83313,43.4624752,-114.2480769
516,Oak Street,83313,43.4650331,-114.2546880
1250,Look Out Lane,83313,43.4530646,-114.2562521
116,Martin Lane,83313,43.4638246,-114.2618956
130,Riverview Drive,83313,43.4549979,-114.2569557
350,Ridgeview Drive,83313,43.4683518,-114.2488475
350,Tendoy Street,83313,43.4758266,-114.2695046
140,Cowcatcher Loop,83313,43.4702055,-114.2464947
301,Main Street,83313,43.4627316,-114.2596916
111,Jasper Street,83313,43.4742681,-114.2688312
1171,Glen Aspen Drive,83313,43.4532768,-114.2589198
211,Ridgeview Drive,83313,43.4663295,-114.2502869
101,Summit Lane,83313,43.4677374,-114.2488764
600,Main Street,83313,43.4701981,-114.2630925
737,Main Street,83313,43.4723306,-114.2654847
1270,Riverview Drive,83313,43.4525047,-114.2577896
748,Main Street,83313,43.4579831,-114.2586797
604,East Cottonwood Street,83313,43.4681158,-114.2553010
471,Maple Ridge Loop,83313,43.4631009,-114.2494234
1192,Glen Aspen Drive,83313,43.4527231,-114.2598037
731,Main Street,83313,43.4719521,-114.2648322
735,Main Street,83313,43.4719948,-114.2653992
409,Broadford Road,83313,43.4690789,-114.2657649
757,Main Street,83313,43.4743236,-114.2664169
212,Hardwood Street,83313,43.4532989,-114.2543558
517,Chestnut Street,83313,43.4614789,-114.2530749
141,Cowcatcher Loop,83313,43.4707596,-114.2454959
117,Walnut Street,83313,43.4612938,-114.2585532
110,Summit Lane,83313,43.4671409,-114.2487279
1411,Main Street,83313,43.4513334,-114.2544413
800,Riverside Drive,83313,43.4575107,-114.2609658
132,Cowcatcher Loop,83313,43.4705218,-114.2467541
921,Riverside Drive,83313,43.4553228,-114.2593550
402,Broadford Road,83313,43.4671414,-114.2653328
623,Main Street,83313,43.4593636,-114.2575782
116,Cowcatcher Loop,83313,43.4701419,-114.2486909
370,Melrose Street,83313,43.4755562,-114.2714414
109,Honeysuckle Street,83313,43.4521134,-114.2542235
741,Main Street,83313,43.4728242,-114.2652291
381,Tendoy Street,83313,43.4764887,-114.2688405
409,Broadford Road,83313,43.4687037,-114.2656731
604,Beech Street,83313,43.4702974,-114.2556727
421,Chestnut Loop,83313,43.4640395,-114.2474549
747,Main Street,83313,43.4733842,-114.2657467
509,Walnut Street,83313,43.4622784,-114.2540135
618,Lewis Lane,83313,43.4589256,-114.2593444
12,Gannett Road,83313,43.4539126,-114.2543870
116,Pine Street,83313,43.4627262,-114.2591145
621,Birch Street,83313,43.4696798,-114.2554362
101,Ridgeview Drive,83313,43.4651622,-114.2497692
408,East Cottonwood Street,83313,43.4675214,-114.2577680
317,Birch Street,83313,43.4687760,-114.2591328
138,Cowcatcher Loop,83313,43.4704684,-114.2463372
409,Broadford Road,83313,43.4691746,-114.2654598
250,Melrose Street,83313,43.4724673,-114.2688740
1351,Main Street,83313,43.4521613,-114.2548210
1141,Riverview Drive,83313,43.4540099,-114.2573569
610,Poplar Street,83313,43.4633513,-114.2525574
811,Chestnut Street,83313,43.4622052,-114.2497951
311,Tendoy Street,83313,43.4746140,-114.2679317
341,Ridgeview Drive,83313,43.4680957,-114.2496962
305,Main Street,83313,43.4669399,-114.2624872
100,Summit Lane,83313,43.4673841,-114.2492265
400,Broadford Road,83313,43.4673084,-114.2664219
1218,Riverview Drive,83313,43.4530381,-114.2578743
988,Glen Aspen Drive,83313,43.4547434,-114.2606751
901,Riverside Drive,83313,43.4563919,-114.2592312
761,Main Street,83313,43.4750870,-114.2671406
117,Walnut Street,83313,43.4615512,-114.2583836
516,Main Street,83313,43.4694682,-114.2627603
409,Broadford Road,83313,43.4684958,-114.2655098
1080,Riverview Drive,83313,43.4544068,-114.2583510
33,Lower Broadford Road,83313,43.4629183,-114.2668229
420,Main Street,83313,43.4686394,-114.2623581
251,Melrose Street,83313,43.4730375,-114.2682804
705,Poplar Street,83313,43.4638616,-114.2519961
509,Pine Street,83313,43.4643036,-114.2549332
33,Muldoon Canyon Road,83313,43.4656375,-114.2464524
417,Birch Street,83313,43.4690848,-114.2579039
211,Hardwood Street,83313,43.4537504,-114.2542564
621,Cedar Street,83313,43.4677200,-114.2545463
125,Cowcatcher Loop,83313,43.4708523,-114.2474533
311,Oak Street,83313,43.4649154,-114.2573733
717,Main Street,83313,43.4711965,-114.2643868
409,Broadford Road,83313,43.4689186,-114.2660941
218,Main Street,83313,43.4666467,-114.2614815
320,Tendoy Street,83313,43.4748157,-114.2691763
205,Main Street,83313,43.4660194,-114.2620636
108,Ash Street,83313,43.4698142,-114.2622234
260,Tendoy Street,83313,43.4733607,-114.2679597
129,Sunrise Ranch Road,83313,43.4667502,-114.2491163
109,Elm Street,83313,43.4651012,-114.2607695
760,Main Street,83313,43.4578161,-114.2583649
309,Beech Street,83313,43.4696067,-114.2600852
1101,Glen Aspen Drive,83313,43.4539840,-114.2592259
1391,Main Street,83313,43.4519864,-114.2545819
121,Clover Street,83313,43.4531007,-114.2538006
907,Riverside Drive,83313,43.4560289,-114.2592692
113,Martin Lane,83313,43.4647678,-114.2620803
159,Riverview Drive,83313,43.4542709,-114.2570195
160,Hardwood Street,83313,43.4536416,-114.2552169
361,Tendoy Street,83313,43.4757257,-114.2685310
200,Trout Lane,83313,43.4705581,-114.2694641
8,Gannett Road,83313,43.4542722,-114.2546771
110,Sunrise Ranch Road,83313,43.4657955,-114.2487377
409,Broadford Road,83313,43.4688401,-114.2657471
441,Maple Ridge Loop,83313,43.4637989,-114.2495433
409,Broadford Road,83313,43.4694508,-114.2661317
316,Elm Street,83313,43.4652723,-114.2579921
221,Oak Street,83313,43.4645526,-114.2585775
704,Poplar Street,83313,43.4635233,-114.2518424
140,Sunrise Ranch Road,83313,43.4665277,-114.2481930
117,Walnut Street,83313,43.4613949,-114.2585990
117,East Cottonwood Street,83313,43.4672057,-114.2611540
601,Main Street,83313,43.4596292,-114.2582749
900,Riverside Drive,83313,43.4560108,-114.2608516
1267,Riverview Drive,83313,43.4527230,-114.2568635
116,Chestnut Street,83313,43.4597541,-114.2577561
717,Chestnut Street,83313,43.4620732,-114.2506089
400,Main Street,83313,43.4681996,-114.2618949
208,Main Street,83313,43.4633560,-114.2608479
733,Main Street,83313,43.4722228,-114.2650158
250,Sunrise Ranch Road,83313,43.4682202,-114.2475561
440,Maple Ridge Loop,83313,43.4637211,-114.2503276
10,Gannett Road,83313,43.4540869,-114.2545277
113,Cowcatcher Loop,83313,43.4697174,-114.2485271
733,Main Street,83313,43.4720915,-114.2649863
102,Clover Street,83313,43.4523478,-114.2544698
217,Chestnut Street,83313,43.4605223,-114.2567444
409,Birch Street,83313,43.4689140,-114.2584011
101,Clover Street,83313,43.4529657,-114.2547256
230,Melrose Street,83313,43.4719133,-114.2686194
1068,Glen Aspen Drive,83313,43.4540959,-114.2604254
409,Broadford Road,83313,43.4688131,-114.2651997
705,Walnut Street,83313,43.4628724,-114.2515469
271,Melrose Street,83313,43.4735169,-114.2685538
360,Ridgeview Drive,83313,43.4685993,-114.2488505
133,Cowcatcher Loop,83313,43.4711465,-114.2464309
317,Cedar Street,83313,43.4667650,-114.2582168
571,Chestnut Loop,83313,43.4624827,-114.2485375
205,Poplar Street,83313,43.4623774,-114.2581632
793,Main Street,83313,43.4582249,-114.2574802
221,Tendoy Street,83313,43.4725187,-114.2662127
551,Chestnut Loop,83313,43.4624947,-114.2476876
320,Melrose Street,83313,43.4723909,-114.2701161
321,Chestnut Street,83313,43.4608846,-114.2555410
291,Tendoy Street,83313,43.4742778,-114.2673917
330,Tendoy Street,83313,43.4751697,-114.2693621
142,Cowcatcher Loop,83313,43.4701813,-114.2467601
300,Ridgeview Drive,83313,43.4670147,-114.2496501
1240,Glen Aspen Drive,83313,43.4523529,-114.2596339
516,Pine Street,83313,43.4640438,-114.2542399
217,Walnut Street,83313,43.4615772,-114.2572244
110,Jasper Street,83313,43.4738756,-114.2682129
212,Main Street,83313,43.4665014,-114.2614098
20,Gannett Road,83313,43.4526342,-114.2534318
22,Gannett Road,83313,43.4525039,-114.2533379
27,Lower Broadford Road,83313,43.4639179,-114.2667400
749,Main Street,83313,43.4735956,-114.2659762
360,Tendoy Street,83313,43.4760958,-114.2695898
409,Broadford Road,83313,43.4683567,-114.2658754
616,Main Street,83313,43.4705235,-114.2632405
608,Riverside Drive,83313,43.4591826,-114.2599711
28,Gannett Road,83313,43.4521660,-114.2530620
409,Broadford Road,83313,43.4694494,-114.2656092
29,Muldoon Canyon Road,83313,43.4660248,-114.2477914
911,Riverside Drive,83313,43.4556733,-114.2593018
111,Amber Street,83313,43.4717974,-114.2672063
121,Tendoy Street,83313,43.4710966,-114.2656415
361,Ridgeview Drive,83313,43.4688325,-114.2495679
511,Chestnut Loop,83313,43.4633247,-114.2474551
290,Sunrise Ranch Road,83313,43.4692083,-114.2475559
880,Riverside Drive,83313,43.4565572,-114.2609170
1090,Glen Aspen Drive,83313,43.4536539,-114.2602251
381,Parkside Drive,83313,43.4689730,-114.2499179
116,Main Street,83313,43.4640447,-114.2611659
321,Melrose Street,83313,43.4747429,-114.2696817
304,Main Street,83313,43.4624121,-114.2604194
711,Main Street,83313,43.4708057,-114.2642221
109,Martin Lane,83313,43.4648118,-114.2623483
309,East Cottonwood Street,83313,43.4676283,-114.2591850
409,Broadford Road,83313,43.4694345,-114.2665094
883,Main Street,83313,43.4548889,-114.2556793
1272,Look Out Lane,83313,43.4528492,-114.2561536
215,Ridgeview Drive,83313,43.4665764,-114.2503996
120,Poplar Street,83313,43.4617871,-114.2587895
231,Tendoy Street,83313,43.4727608,-114.2663022
1193,Glen Aspen Drive,83313,43.4530358,-114.2588398
111,Tendoy Street,83313,43.4707467,-114.2654335
187,Hardwood Street,83313,43.4539152,-114.2548309
100,Bluegrass Street,83313,43.4507767,-114.2541936
480,Pine View Lane,83313,43.4631361,-114.2490341
241,Melrose Street,83313,43.4727920,-114.2680629
31,Muldoon Canyon Road,83313,43.4656033,-114.2470030
121,Main Street,83313,43.4640483,-114.2602938
716,Poplar Street,83313,43.4636482,-114.2513241
704,Pine Street,83313,43.4645116,-114.2522913
340,Ridgeview Drive,83313,43.4680429,-114.2488595
1277,Main Street,83313,43.4528969,-114.2551615
105,Main Street,83313,43.4645206,-114.2605088
318,Cedar Street,83313,43.4660400,-114.2581721
608,Lewis Lane,83313,43.4592468,-114.2596037
20,Muldoon Canyon Road,83313,43.4646360,-114.2506140
710,Cedar Street,83313,43.4679645,-114.2529035
958,Glen Aspen Drive,83313,43.4550247,-114.2607044
111,Forbis Lane,83313,43.4679125,-114.2635592
1168,Glen Aspen Drive,83313,43.4530484,-114.2599513
1166,Look Out Lane,83313,43.4539460,-114.2566537
791,Main Street,83313,43.4766208,-114.2682879
716,Main Street,83313,43.4725737,-114.2641697
320,Walnut Street,83313,43.4614311,-114.2556703
210,Melrose Street,83313,43.4713596,-114.2683654
508,Elm Street,83313,43.4658991,-114.2556561
116,Walnut Street,83313,43.4608759,-114.2582731
417,Cedar Street,83313,43.4671254,-114.2570127
420,Beech Street,83313,43.4696900,-114.2581792
101,Martin Lane,83313,43.4653014,-114.2625714
1267,Main Street,83313,43.4531060,-114.2553202
721,North Main Street,83313,43.4722824,-114.2650370
