House number,Street name,Postal code,Latitude,Longitude
7169,Plaza Street,83805-8598,48.6972116,-116.3082990
7186,First Street,83805,48.6969368,-116.3136600
6536,Main Street,83805,48.6793805,-116.3286520
6577,Main Street,83805,48.6797018,-116.3258171
6485,Tamarack Lane,83805,48.6772649,-116.3236874
6762,Wilson Street,83805,48.6828239,-116.3277912
6969,South Main Street,83805,48.6852659,-116.3189820
6433,Main Street,83805,48.6762038,-116.3318558
6557,Comanche Street,83805,48.7019846,-116.3186252
6690,Main Street,83805,48.6836529,-116.3223651
6801,North River Drive,83805,48.6969070,-116.3276701
6556,Navaho Street,83805,48.7006023,-116.3177767
6612,Comanche Street,83805,48.7012322,-116.3194727
7530,Wildhorse Lane,83805,48.7065434,-116.3336749
380,Waterfront Lane,83805,48.6935748,-116.2880383
6748,Kaniksu Street,83805,48.7029079,-116.3259861
6634,Alderson Lane,83805,48.6821875,-116.3216051
6884,Westview Drive,83805,48.7056069,-116.3316489
6485,Tannenbaum Lane,83805,48.6797290,-116.3157204
6688,Denver Street,83805,48.6832967,-116.3186858
139,Pine Island Road,83805,48.6769827,-116.3363904
7533,Main Street,83805,48.7068975,-116.3096184
6409,Arizona Street,83805,48.6949375,-116.3141527
6438,Washington Street,83805,48.6925057,-116.3132225
6674,Main Street,83805,48.6830051,-116.3233059
6883,Palmer Street,83805,48.7038537,-116.3316110
6343,Mc Call Street,83805,48.6741302,-116.3305137
6365,Main Street,83805,48.6744901,-116.3347097
7107,Second Street,83805,48.6950321,-116.3147163
6465,Bonner Street,83805,48.6974806,-116.3145514
7549,Wildhorse Lane,83805,48.7068545,-116.3324725
6447,Railroad Street,83805,48.6955099,-116.3141353
6783,Cody Street,83805,48.6859759,-116.3195812
7128,Third Street,83805,48.6951724,-116.3154290
7151,First Street,83805,48.6959929,-116.3128953
7319,Blaine Street,83805,48.7009177,-116.3157431
6871,Kaniksu Street,83805,48.7034637,-116.3311159
7570,Wildhorse Lane,83805,48.7077687,-116.3327935
6521,Alderson Lane,83805,48.6792886,-116.3204492
6354,Main Street,83805,48.6745902,-116.3359202
7470,Sundance Lane,83805,48.7051805,-116.3310691
7326,Olympic Way,83805,48.7003173,-116.3323080
6640,Apache Court,83805,48.7003269,-116.3211854
6650,Apache Court,83805,48.7003391,-116.3216583
5968,Swede Island Lane,83805,48.6911527,-116.2940424
6051,Swede Island Lane,83805,48.6925487,-116.2960998
7480,Sundance Lane,83805,48.7050572,-116.3305521
6637,Garden Court,83805,48.6819970,-116.3223576
6927,Fresno Street,83805,48.6899211,-116.3141866
7542,Wildhorse Lane,83805,48.7069403,-116.3336784
7404,Olympic Way,83805,48.7029654,-116.3310585
7130,Ash Street,83805,48.6948318,-116.3076204
6472,Riverside Street,83805,48.6975613,-116.3148006
6691,North River Drive,83805,48.6979310,-116.3244625
6377,Mc Call Street,83805,48.6749620,-116.3302912
6355,Main Street,83805,48.6742004,-116.3338662
6733,Spokane Street,83805,48.6981282,-116.3253397
6725,Spokane Street,83805,48.6982294,-116.3250665
6719,Spokane Street,83805,48.6983038,-116.3248455
7076,Third Street,83805,48.6942209,-116.3178556
7536,Deer Run Road,83805,48.7067976,-116.3317659
6854,Kaniksu Street,83805,48.7030383,-116.3303052
6442,Main Street,83805,48.6766492,-116.3327936
6201,Hemlock Street,83805,48.6897937,-116.3034072
6452,Main Street,83805,48.6773521,-116.3336413
7507,Latah Street,83805,48.7061541,-116.3115506
7503,Latah Street,83805,48.7061326,-116.3112560
6651,Lincoln Street,83805,48.6848772,-116.3217206
6423,Bonner Street,83805,48.6972817,-116.3128574
6531,Lincoln Street,83805,48.6847951,-116.3170157
6675,Chippewa Drive,83805,48.7063539,-116.3227432
6777,Chippewa Drive,83805,48.7063915,-116.3271656
6434,Arizona Street,83805,48.6927575,-116.3199292
6550,Kootenai Street,83805,48.6946760,-116.3182643
7090,Third Street,83805,48.6946947,-116.3161808
7161,Main Street,83805,48.6962161,-116.3114892
6422,Kootenai Street,83805,48.6961551,-116.3126532
6416,Kootenai Street,83805,48.6961696,-116.3123239
6393,Kootenai Street,83805,48.6964040,-116.3114675
6416,Bonner Street,83805,48.6971047,-116.3126228
7217,Main Street,83805,48.6974162,-116.3118020
6445,Main Street,83805,48.6764497,-116.3319058
7421,Colville Street,83805,48.7034927,-116.3209543
6655,Garden Lane,83805,48.6810794,-116.3222901
6611,Garden Court,83805,48.6812504,-116.3223546
6609,Garden Court,83805,48.6812118,-116.3223534
6585,Alderson Lane,83805,48.6808413,-116.3211045
6822,Cody Street,83805,48.6870198,-116.3204309
6731,Ivy Lane,83805,48.6994973,-116.3247317
7068,Maple Street,83805,48.6937456,-116.3055399
7541,Latah Street,83805,48.7065420,-116.3120500
7538,Latah Street,83805,48.7061919,-116.3127535
7534,Latah Street,83805,48.7060201,-116.3127183
6677,Kaniksu Street,83805,48.7034737,-116.3229954
6885,North River Drive,83805,48.6968906,-116.3309849
6739,Spokane Street,83805,48.6975537,-116.3255800
6716,Ivy Lane,83805,48.6992009,-116.3240535
6726,Ivy Lane,83805,48.6988895,-116.3246485
6778,Ivy Lane,83805,48.6995708,-116.3269510
6779,Ivy Lane,83805,48.7001307,-116.3271021
6773,Ivy Lane,83805,48.7005606,-116.3259059
7318,Blaine Street,83805,48.7007587,-116.3162110
7313,Blaine Street,83805,48.7007669,-116.3156453
6892,Kaniksu Street,83805,48.7030028,-116.3320521
7464,Sundance Lane,83805,48.7051516,-116.3316578
7458,Sundance Lane,83805,48.7050263,-116.3321393
6903,Westview Drive,83805,48.7060109,-116.3321880
6697,Nez Perce Street,83805,48.7044784,-116.3238711
6687,Nez Perce Street,83805,48.7047217,-116.3238594
6644,Nez Perce Street,83805,48.7045568,-116.3214034
6447,Comanche Street,83805,48.7042094,-116.3135619
6191,Alder Street,83805,48.6921569,-116.3034463
6955,Apple Alley,83805,48.6930738,-116.3016640
7114,Ash Street,83805,48.6946075,-116.3069880
7120,Ash Street,83805,48.6946577,-116.3072340
7144,Ash Street,83805,48.6949440,-116.3080960
7152,Ash Street,83805,48.6950417,-116.3084079
7160,Ash Street,83805,48.6950434,-116.3087044
7166,Ash Street,83805,48.6950701,-116.3089626
7168,Oak Street,83805,48.6957292,-116.3062537
7215,Main Street,83805,48.6973833,-116.3117956
7178,Main Street,83805,48.6965287,-116.3120102
7189,Main Street,83805,48.6968300,-116.3116249
7168,Main Street,83805,48.6964050,-116.3120058
6571,Tannenbaum Circle,83805,48.6799356,-116.3187024
6556,Tannenbaum Circle,83805,48.6801885,-116.3178268
6547,Tannenbaum Circle,83805,48.6806859,-116.3178391
6536,Tannenbaum Circle,83805,48.6802797,-116.3172742
6531,Tannenbaum Circle,83805,48.6806902,-116.3172377
6511,Tannenbaum Circle,83805,48.6806596,-116.3163160
6486,Tannenbaum Circle,83805,48.6802434,-116.3152293
6485,Tannenbaum Circle,83805,48.6807209,-116.3148606
6464,Tannenbaum Lane,83805,48.6800773,-116.3165925
6505,Tannenbaum Lane,83805,48.6794518,-116.3173057
6570,Paradise Valley Road,83805,48.6806239,-116.3201215
6561,Alderson Lane,83805,48.6802211,-116.3209397
6655,Garden Lane,83805,48.6810846,-116.3221877
6606,Garden Court,83805,48.6810873,-116.3229197
6616,Garden Court,83805,48.6813816,-116.3229110
6619,Garden Court,83805,48.6814552,-116.3223253
6625,Garden Court,83805,48.6816204,-116.3223207
6622,Garden Court,83805,48.6815960,-116.3229841
6631,Garden Court,83805,48.6818031,-116.3223349
6602,Alderson Lane,83805,48.6812054,-116.3215919
6606,Alderson Lane,83805,48.6814396,-116.3215507
6613,Alderson Lane,83805,48.6816016,-116.3209829
6612,Alderson Lane,83805,48.6816080,-116.3215461
6620,Alderson Lane,83805,48.6818218,-116.3215076
6623,Alderson Lane,83805,48.6818770,-116.3209816
6628,Alderson Lane,83805,48.6819953,-116.3215647
6633,Alderson Lane,83805,48.6821478,-116.3210112
6642,Alderson Lane,83805,48.6823525,-116.3215599
6641,Alderson Lane,83805,48.6823479,-116.3210394
6645,Alderson Lane,83805,48.6823378,-116.3203979
6647,Alderson Lane,83805,48.6826485,-116.3202439
6648,Alderson Lane,83805,48.6825539,-116.3215548
6652,Alderson Lane,83805,48.6826955,-116.3215458
6653,Alderson Lane,83805,48.6826763,-116.3209661
6667,Alderson Lane,83805,48.6830193,-116.3209425
6675,Alderson Lane,83805,48.6832682,-116.3209867
6681,Alderson Lane,83805,48.6834321,-116.3210272
6791,Main Street,83805,48.6858953,-116.3173409
6811,Main Street,83805,48.6863924,-116.3172985
6885,Bauman Street,83805,48.6783351,-116.3310652
6708,Fry Street,83805,48.6839514,-116.3242241
6737,Augusta Street,83805,48.6847796,-116.3251020
6830,Cody Street,83805,48.6873551,-116.3201473
6872,Main Street,83805,48.6881426,-116.3173271
6498,Madison Street,83805,48.6911081,-116.3156354
6904,Kaniksu Street,83805,48.7029267,-116.3326241
7531,Wildhorse Lane,83805,48.7066279,-116.3326610
7365,Comanche Court,83805,48.7021277,-116.3241907
7395,Comanche Court,83805,48.7020933,-116.3258512
6606,Van Buren Street,83805,48.6885180,-116.3200487
6883,Fresno Street,83805,48.6890312,-116.3135821
6373,Bonner Street,83805,48.6974686,-116.3106775
6654,Apache Court,83805,48.7003655,-116.3221572
6945,Main Street,83805,48.6902689,-116.3159805
6910,Main Street,83805,48.6893444,-116.3166905
6878,Main Street,83805,48.6884134,-116.3165462
6803,Main Street,83805,48.6862377,-116.3174647
6778,Main Street,83805,48.6859730,-116.3192984
6775,Main Street,83805,48.6854537,-116.3184972
6745,Main Street,83805,48.6847089,-116.3199750
6714,Main Street,83805,48.6844787,-116.3215622
6679,Main Street,83805,48.6830199,-116.3222948
6665,Main Street,83805,48.6825686,-116.3229877
6657,Main Street,83805,48.6822899,-116.3232244
6495,Main Street,83805,48.6777331,-116.3298398
6476,Main Street,83805,48.6781247,-116.3314152
6987,Kennedy Street,83805,48.6765291,-116.3360843
6985,Kennedy Street,83805,48.6765444,-116.3357229
6964,Kennedy Street,83805,48.6763623,-116.3350994
6413,Main Street,83805,48.6753566,-116.3325413
6348,Main Street,83805,48.6743901,-116.3360872
6342,Main Street,83805,48.6744423,-116.3368983
6334,Main Street,83805,48.6739309,-116.3367537
6594,Lincoln Street,83805,48.6844354,-116.3196586
6869,Palmer Street,83805,48.7038326,-116.3310435
6316,Mc Call Street,83805,48.6738667,-116.3320494
6568,Sacramento Street,83805,48.6800630,-116.3296900
6833,Eisenhower Street,83805,48.6796829,-116.3296299
6823,Eisenhower Street,83805,48.6797456,-116.3292237
6786,Badger Street,83805,48.6779806,-116.3274790
6757,Hillside Alley,83805,48.6853586,-116.3153382
6737,Cody Street,83805,48.6847916,-116.3195250
6703,Cody Street,83805,48.6837426,-116.3196346
6782,Augusta Street,83805,48.6859279,-116.3267833
6677,Augusta Street,83805,48.6830345,-116.3251301
6719,Black Street,83805,48.6872730,-116.3248621
6723,Buchanan Street,83805,48.6864459,-116.3250834
6693,Buchanan Street,83805,48.6863784,-116.3237764
6670,Buchanan Street,83805,48.6859987,-116.3227510
6617,Buchanan Street,83805,48.6864079,-116.3205816
6495,Lincoln Street,83805,48.6846879,-116.3153433
6522,Grant Street,83805,48.6836393,-116.3164917
6723,El Paso Street,83805,48.6843872,-116.3158667
6813,El Paso Street,83805,48.6869221,-116.3158828
6781,El Paso Street,83805,48.6859667,-116.3159952
6767,El Paso Street,83805,48.6855841,-116.3159999
6490,Polk Street,83805,48.6855635,-116.3152334
6487,Polk Street,83805,48.6859662,-116.3151909
6490,Tyler Street,83805,48.6865527,-116.3153496
6491,Tyler Street,83805,48.6869100,-116.3153587
6392,Tyler Street,83805,48.6852533,-116.3140790
6402,Tyler Street,83805,48.6859365,-116.3140697
6821,Denver Street,83805,48.6869411,-116.3177273
6745,Denver Street,83805,48.6850586,-116.3178277
6875,Cody Street,83805,48.6885075,-116.3193705
6644,Clara Street,83805,48.6872473,-116.3219839
6645,Clara Street,83805,48.6875541,-116.3219996
6636,Clara Street,83805,48.6872570,-116.3215785
6628,Clara Street,83805,48.6872270,-116.3212757
6619,Clara Street,83805,48.6875951,-116.3209219
6618,Clara Street,83805,48.6872067,-116.3209058
6613,Clara Street,83805,48.6876909,-116.3205656
6861,Alice Street,83805,48.6879684,-116.3213448
6850,Alice Street,83805,48.6876964,-116.3217163
6849,Alice Street,83805,48.6876490,-116.3211512
6670,Pierce Street,83805,48.6881366,-116.3231161
6662,Pierce Street,83805,48.6879851,-116.3223899
6654,Pierce Street,83805,48.6880020,-116.3220432
6649,Pierce Street,83805,48.6883268,-116.3218338
6646,Pierce Street,83805,48.6880568,-116.3217156
6631,Pierce Street,83805,48.6883537,-116.3210749
6628,Pierce Street,83805,48.6880724,-116.3209353
6624,Pierce Street,83805,48.6880399,-116.3207346
6617,Pierce Street,83805,48.6883562,-116.3204866
6943,Atlanta Street,83805,48.6902382,-116.3211765
6933,Atlanta Street,83805,48.6899532,-116.3214530
6921,Atlanta Street,83805,48.6897557,-116.3215864
6907,Atlanta Street,83805,48.6892873,-116.3219564
6877,Atlanta Street,83805,48.6885832,-116.3223794
6883,Atlanta Street,83805,48.6887493,-116.3222512
6954,Boise Street,83805,48.6907131,-116.3211433
7016,Adams Street,83805,48.6920449,-116.3180018
6487,Jefferson Street,83805,48.6920710,-116.3151675
6537,Jefferson Street,83805,48.6919456,-116.3171878
6624,Monroe Street,83805,48.6902828,-116.3208194
6620,Monroe Street,83805,48.6902820,-116.3206916
6574,Monroe Street,83805,48.6902685,-116.3188290
6584,Monroe Street,83805,48.6902691,-116.3192238
6618,Jackson Street,83805,48.6893457,-116.3206095
6632,Jackson Street,83805,48.6892978,-116.3212237
6593,Jackson Street,83805,48.6897781,-116.3196255
6567,Van Buren Street,83805,48.6889131,-116.3186173
6477,Van Buren Street,83805,48.6888939,-116.3149458
6525,Madison Street,83805,48.6915325,-116.3167997
6531,Jackson Street,83805,48.6897388,-116.3170909
6492,Jackson Street,83805,48.6894570,-116.3154195
6885,Fresno Street,83805,48.6888013,-116.3142218
6484,Madison Street,83805,48.6911815,-116.3150383
6473,Madison Street,83805,48.6916177,-116.3146883
6459,Madison Street,83805,48.6917091,-116.3140550
6454,Madison Street,83805,48.6912496,-116.3137623
6442,Madison Street,83805,48.6912500,-116.3133570
6443,Madison Street,83805,48.6916219,-116.3134092
6437,Madison Street,83805,48.6916121,-116.3131233
6436,Madison Street,83805,48.6911279,-116.3128630
6431,Madison Street,83805,48.6916244,-116.3128250
6530,Washington Street,83805,48.6915562,-116.3153680
7083,Helena Street,83805,48.6941147,-116.3107811
6913,Hazel Street,83805,48.6907016,-116.3019864
6214,Fir Street,83805,48.6889972,-116.3043816
6193,Alder Street,83805,48.6922482,-116.3038182
6266,Alder Street,83805,48.6897098,-116.3044636
6246,Alder Street,83805,48.6902684,-116.3035177
6234,Alder Street,83805,48.6906020,-116.3031909
6231,Alder Street,83805,48.6910785,-116.3040342
6227,Alder Street,83805,48.6915753,-116.3039467
6210,Alder Street,83805,48.6909340,-116.3028900
6143,Louisiana Street,83805,48.6926732,-116.3014246
6208,Florida Street,83805,48.6943119,-116.3034132
6203,Florida Street,83805,48.6948216,-116.3035390
6204,Dakota Street,83805,48.6953064,-116.3036904
6252,Colorado Street,83805,48.6959536,-116.3049565
7169,Plaza Street,83805,48.6970607,-116.3087954
6491,Bonner Street,83805,48.6971800,-116.3155058
6414,Bonner Street,83805,48.6971228,-116.3124614
6536,Riverside Street,83805,48.6970963,-116.3171091
7128,Second Street,83805,48.6955539,-116.3155319
7404,Blaine Street,83805,48.7027401,-116.3174627
6531,Comanche Street,83805,48.7023407,-116.3172953
6521,Comanche Street,83805,48.7025038,-116.3166396
6463,Comanche Street,83805,48.7037821,-116.3143020
6427,Comanche Street,83805,48.7047631,-116.3126347
6595,Chinook Street,83805,48.7023400,-116.3194047
6589,Chinook Street,83805,48.7021178,-116.3192158
7370,Bingham Street,83805,48.7018272,-116.3154643
6528,North River Drive,83805,48.6994182,-116.3174853
7324,Camas Street,83805,48.7003163,-116.3187357
7292,Birch Street,83805,48.6998572,-116.3239713
7320,Birch Street,83805,48.7008069,-116.3247297
7353,Comanche Court,83805,48.7017845,-116.3241283
7356,Comanche Court,83805,48.7018859,-116.3247217
7346,Comanche Court,83805,48.7015265,-116.3247237
6699,Comanche Street,83805,48.7015436,-116.3234427
6696,Comanche Street,83805,48.7011507,-116.3233416
7323,Apache Street,83805,48.7003708,-116.3204736
7389,Vista Drive,83805,48.7022494,-116.3270447
7387,Vista Drive,83805,48.7021912,-116.3275782
6821,Chippewa Drive,83805,48.7064644,-116.3291560
6733,Chippewa Drive,83805,48.7066180,-116.3251249
6678,Chippewa Drive,83805,48.7059564,-116.3228396
6670,Chippewa Drive,83805,48.7056646,-116.3228764
6648,Chippewa Drive,83805,48.7056424,-116.3224032
6655,Chippewa Drive,83805,48.7062479,-116.3215024
6652,Chippewa Drive,83805,48.7058998,-116.3218953
6645,Chippewa Drive,83805,48.7058212,-116.3212008
7496,Crow Street,83805,48.7053729,-116.3193553
6590,Chippewa Drive,83805,48.7043826,-116.3196884
6564,Chippewa Drive,83805,48.7043055,-116.3181186
6792,Browne Street,83805,48.7070803,-116.3276709
7482,Wells Street,83805,48.7052869,-116.3255468
7422,Wells Street,83805,48.7034232,-116.3247832
6702,Pine Street,83805,48.7020936,-116.3234588
6829,Kaniksu Street,83805,48.7036012,-116.3290004
6897,Palmer Street,83805,48.7038660,-116.3321288
7492,Sundance Lane,83805,48.7043308,-116.3303505
7450,Sundance Lane,83805,48.7048939,-116.3326260
7449,Sundance Lane,83805,48.7043845,-116.3322697
6885,Kaniksu Street,83805,48.7035501,-116.3316508
6880,Kaniksu Street,83805,48.7029283,-116.3315848
6815,Marx Court,83805,48.7053878,-116.3288860
7555,Deer Run Road,83805,48.7070642,-116.3310097
7597,Wildhorse Lane,83805,48.7079120,-116.3310824
6352,District Two Road,83805,48.7067619,-116.3095135
6955,Kaniksu Street,83805,48.7034010,-116.3344094
6938,Kaniksu Street,83805,48.7027464,-116.3341112
6920,Kaniksu Street,83805,48.7028634,-116.3330773
6851,Kaniksu Street,83805,48.7034994,-116.3303437
6826,Kaniksu Street,83805,48.7029882,-116.3288438
7583,Main Street,83805,48.7076007,-116.3092651
6977,Main Street,83805,48.6911912,-116.3159088
6967,Main Street,83805,48.6910007,-116.3153500
6963,Main Street,83805,48.6908017,-116.3159530
6931,Main Street,83805,48.6899107,-116.3159549
6940,Main Street,83805,48.6902220,-116.3166002
6926,Main Street,83805,48.6897526,-116.3165045
6913,Main Street,83805,48.6894073,-116.3159934
6905,Main Street,83805,48.6892110,-116.3158257
6902,Main Street,83805,48.6890007,-116.3165977
6891,Main Street,83805,48.6888954,-116.3160806
6892,Main Street,83805,48.6888273,-116.3165501
6873,Main Street,83805,48.6884462,-116.3159682
6865,Main Street,83805,48.6880680,-116.3156490
6843,Main Street,83805,48.6874603,-116.3158950
6856,Main Street,83805,48.6878749,-116.3168269
6831,Main Street,83805,48.6868601,-116.3165268
6838,Main Street,83805,48.6873318,-116.3170030
6821,Main Street,83805,48.6865802,-116.3167645
6802,Main Street,83805,48.6864869,-116.3178415
6791,Main Street,83805,48.6857376,-116.3172765
6789,Main Street,83805,48.6854591,-116.3177212
6788,Main Street,83805,48.6860512,-116.3186112
6769,Main Street,83805,48.6852754,-116.3189608
6764,Main Street,83805,48.6857166,-116.3194574
6759,Main Street,83805,48.6849923,-116.3192545
6750,Main Street,83805,48.6851660,-116.3202640
6723,Main Street,83805,48.6840344,-116.3205311
6720,Main Street,83805,48.6844953,-116.3212631
6708,Main Street,83805,48.6840689,-116.3218015
6697,Main Street,83805,48.6832487,-116.3216564
6696,Main Street,83805,48.6840673,-116.3222215
6686,Main Street,83805,48.6834492,-116.3226497
6677,Main Street,83805,48.6828278,-116.3223687
6673,Main Street,83805,48.6822533,-116.3223526
6664,Main Street,83805,48.6826286,-116.3237228
6653,Main Street,83805,48.6822257,-116.3235414
6627,Main Street,83805,48.6814918,-116.3245351
6632,Main Street,83805,48.6820260,-116.3249098
6607,Main Street,83805,48.6810898,-116.3249540
6606,Main Street,83805,48.6812416,-116.3258765
6586,Main Street,83805,48.6807372,-116.3265979
6566,Main Street,83805,48.6802601,-116.3275366
6541,Main Street,83805,48.6790793,-116.3278922
6536,Main Street,83805,48.6793640,-116.3285657
6526,Main Street,83805,48.6790707,-116.3290092
6514,Main Street,83805,48.6789085,-116.3295271
6519,Main Street,83805,48.6777415,-116.3288415
6506,Main Street,83805,48.6785745,-116.3300116
6483,Main Street,83805,48.6776172,-116.3302073
6486,Main Street,83805,48.6779817,-116.3306302
6466,Main Street,83805,48.6775049,-116.3314659
6453,Main Street,83805,48.6767201,-116.3311930
6431,Main Street,83805,48.6758237,-116.3321824
6438,Main Street,83805,48.6766611,-116.3331162
6421,Main Street,83805,48.6760667,-116.3326343
6410,Main Street,83805,48.6760706,-116.3338019
6409,Main Street,83805,48.6756788,-116.3331029
6398,Main Street,83805,48.6756969,-116.3341238
6378,Main Street,83805,48.6754822,-116.3346584
6368,Main Street,83805,48.6749772,-116.3354872
6451,Mc Call Street,83805,48.6772258,-116.3303977
6443,Mc Call Street,83805,48.6767710,-116.3303435
6427,Mc Call Street,83805,48.6765054,-116.3303346
6421,Mc Call Street,83805,48.6761336,-116.3303962
6418,Mc Call Street,83805,48.6760004,-116.3313315
6413,Mc Call Street,83805,48.6758779,-116.3304252
6402,Mc Call Street,83805,48.6754774,-116.3313840
6391,Mc Call Street,83805,48.6753337,-116.3304918
6359,Mc Call Street,83805,48.6744270,-116.3303565
6348,Mc Call Street,83805,48.6741449,-116.3312090
6967,Bauman Street,83805,48.6776724,-116.3348430
6957,Bauman Street,83805,48.6782067,-116.3344320
6953,Bauman Street,83805,48.6784689,-116.3343264
6935,Bauman Street,83805,48.6788060,-116.3332929
6916,Bauman Street,83805,48.6779340,-116.3324441
6544,Solomon Street,83805,48.6793287,-116.3311518
6528,Solomon Street,83805,48.6790505,-116.3312221
6523,Solomon Street,83805,48.6786294,-116.3313227
6518,Solomon Street,83805,48.6788492,-116.3317832
6513,Solomon Street,83805,48.6784566,-116.3316553
6514,Solomon Street,83805,48.6786791,-116.3320350
6507,Solomon Street,83805,48.6782701,-116.3318012
6510,Solomon Street,83805,48.6785560,-116.3322339
6504,Solomon Street,83805,48.6783795,-116.3324715
6849,Eisenhower Street,83805,48.6797172,-116.3303171
6848,Eisenhower Street,83805,48.6793422,-116.3302200
6841,Eisenhower Street,83805,48.6796866,-116.3299182
6832,Eisenhower Street,83805,48.6793292,-116.3296071
6818,Eisenhower Street,83805,48.6793590,-116.3290506
6814,Eisenhower Street,83805,48.6793527,-116.3287845
6811,Eisenhower Street,83805,48.6796936,-116.3286873
6797,Eisenhower Street,83805,48.6797017,-116.3281714
6567,Sacramento Street,83805,48.6800489,-116.3291507
6521,Walker Lane,83805,48.6789086,-116.3279229
6511,Walker Lane,83805,48.6786238,-116.3279339
6501,Walker Lane,83805,48.6784161,-116.3279366
6487,Walker Lane,83805,48.6779896,-116.3279470
6477,Walker Lane,83805,48.6777269,-116.3279553
6471,Walker Lane,83805,48.6774593,-116.3279541
6787,Badger Street,83805,48.6783613,-116.3274430
6543,Main Street,83805,48.6788569,-116.3274317
6528,Tamarack Lane,83805,48.6786600,-116.3273987
6498,Tamarack Lane,83805,48.6777904,-116.3275148
6488,Tamarack Lane,83805,48.6775086,-116.3274972
6713,Fry Street,83805,48.6841300,-116.3235220
6699,Fry Street,83805,48.6837566,-116.3237514
6680,Fry Street,83805,48.6832617,-116.3243488
6676,Fry Street,83805,48.6830849,-116.3243045
6670,Fry Street,83805,48.6829368,-116.3243523
6662,Fry Street,83805,48.6827073,-116.3243316
6637,Fry Street,83805,48.6819513,-116.3235294
6633,Fry Street,83805,48.6817685,-116.3236877
6632,Fry Street,83805,48.6817917,-116.3242518
6628,Fry Street,83805,48.6817010,-116.3242310
6626,Fry Street,83805,48.6816295,-116.3242144
6624,Fry Street,83805,48.6815574,-116.3242053
6623,Fry Street,83805,48.6815920,-116.3236425
6620,Fry Street,83805,48.6814681,-116.3242502
6616,Fry Street,83805,48.6814100,-116.3242772
6612,Fry Street,83805,48.6813376,-116.3242757
6608,Fry Street,83805,48.6812529,-116.3243125
6602,Fry Street,83805,48.6811784,-116.3243755
6605,Fry Street,83805,48.6810687,-116.3237707
6718,Lincoln Street,83805,48.6843778,-116.3245102
6715,Lincoln Street,83805,48.6847653,-116.3243512
6703,Lincoln Street,83805,48.6847957,-116.3238166
6698,Lincoln Street,83805,48.6844222,-116.3236710
6695,Lincoln Street,83805,48.6848076,-116.3235168
6687,Lincoln Street,83805,48.6847872,-116.3232539
6688,Lincoln Street,83805,48.6844185,-116.3232161
6679,Lincoln Street,83805,48.6847914,-116.3229099
6680,Lincoln Street,83805,48.6841270,-116.3229014
6671,Lincoln Street,83805,48.6847924,-116.3225326
6661,Lincoln Street,83805,48.6847869,-116.3221363
6647,Lincoln Street,83805,48.6848675,-116.3213886
6635,Lincoln Street,83805,48.6849269,-116.3209487
6606,Lincoln Street,83805,48.6843397,-116.3201751
6568,Lincoln Street,83805,48.6843315,-116.3186010
6552,Lincoln Street,83805,48.6843977,-116.3179137
6541,Lincoln Street,83805,48.6848150,-116.3174785
6792,Augusta Street,83805,48.6863732,-116.3262155
6777,Augusta Street,83805,48.6858890,-116.3250872
6750,Augusta Street,83805,48.6850822,-116.3257428
6730,Augusta Street,83805,48.6844697,-116.3256528
6725,Augusta Street,83805,48.6843940,-116.3250712
6713,Augusta Street,83805,48.6840918,-116.3250297
6716,Augusta Street,83805,48.6841774,-116.3257256
6705,Augusta Street,83805,48.6838246,-116.3250723
6702,Augusta Street,83805,48.6837476,-116.3256981
6689,Augusta Street,83805,48.6834006,-116.3250396
6686,Augusta Street,83805,48.6833957,-116.3256874
6671,Augusta Street,83805,48.6829440,-116.3250101
6659,Augusta Street,83805,48.6826321,-116.3249453
6628,Augusta Street,83805,48.6817820,-116.3255082
6832,Augusta Street,83805,48.6868863,-116.3256496
6725,Purcell Street,83805,48.6867742,-116.3251508
6711,Purcell Street,83805,48.6868614,-116.3245087
6695,Purcell Street,83805,48.6867652,-116.3237917
6779,Spalding Street,83805,48.6859098,-116.3244002
6749,Spalding Street,83805,48.6849721,-116.3243173
6715,Buchanan Street,83805,48.6864259,-116.3247127
6709,Buchanan Street,83805,48.6863771,-116.3244612
6708,Buchanan Street,83805,48.6860956,-116.3244190
6703,Buchanan Street,83805,48.6864026,-116.3241534
6692,Buchanan Street,83805,48.6860633,-116.3237457
6689,Buchanan Street,83805,48.6863782,-116.3235703
6686,Buchanan Street,83805,48.6860668,-116.3234461
6678,Buchanan Street,83805,48.6860555,-116.3231244
6669,Buchanan Street,83805,48.6863851,-116.3227712
6655,Buchanan Street,83805,48.6863925,-116.3222480
6662,Buchanan Street,83805,48.6860334,-116.3224145
6645,Buchanan Street,83805,48.6863928,-116.3217739
6644,Buchanan Street,83805,48.6860420,-116.3217390
6633,Buchanan Street,83805,48.6863891,-116.3213095
6634,Buchanan Street,83805,48.6860063,-116.3213105
6623,Buchanan Street,83805,48.6864172,-116.3209581
6616,Buchanan Street,83805,48.6860519,-116.3205563
6605,Buchanan Street,83805,48.6865128,-116.3201149
6725,Stephens Street,83805,48.6855723,-116.3250427
6711,Stephens Street,83805,48.6855741,-116.3244530
6708,Stephens Street,83805,48.6852626,-116.3243113
6705,Stephens Street,83805,48.6855892,-116.3241595
6697,Stephens Street,83805,48.6855990,-116.3238629
6694,Stephens Street,83805,48.6852403,-116.3237314
6689,Stephens Street,83805,48.6856076,-116.3235473
6683,Stephens Street,83805,48.6856257,-116.3232205
6680,Stephens Street,83805,48.6852125,-116.3231103
6675,Stephens Street,83805,48.6856301,-116.3229066
6672,Stephens Street,83805,48.6852409,-116.3227707
6667,Stephens Street,83805,48.6856598,-116.3226002
6653,Stephens Street,83805,48.6856156,-116.3220252
6654,Stephens Street,83805,48.6852450,-116.3220335
6643,Stephens Street,83805,48.6856038,-116.3216530
6625,Stephens Street,83805,48.6856054,-116.3208476
6762,Wilson Street,83805,48.6827359,-116.3274188
6980,Cody Street,83805,48.6913206,-116.3200797
6605,Monroe Street,83805,48.6906431,-116.3201135
6595,Monroe Street,83805,48.6906577,-116.3196172
6594,Monroe Street,83805,48.6902764,-116.3196849
6938,Cody Street,83805,48.6902189,-116.3200660
6906,Cody Street,83805,48.6893658,-116.3200561
6902,Cody Street,83805,48.6892052,-116.3200416
6893,Cody Street,83805,48.6889684,-116.3193864
6892,Cody Street,83805,48.6890376,-116.3201155
6867,Cody Street,83805,48.6883004,-116.3194721
6870,Cody Street,83805,48.6883762,-116.3200179
6858,Cody Street,83805,48.6880501,-116.3200429
6863,Cody Street,83805,48.6881333,-116.3194784
6853,Cody Street,83805,48.6879383,-116.3195025
6854,Cody Street,83805,48.6878911,-116.3200450
6847,Cody Street,83805,48.6877448,-116.3195122
6839,Cody Street,83805,48.6875639,-116.3195289
6844,Cody Street,83805,48.6876061,-116.3200203
6807,Cody Street,83805,48.6866094,-116.3194236
6791,Cody Street,83805,48.6862174,-116.3194640
6784,Cody Street,83805,48.6859626,-116.3201970
6593,Madison Street,83805,48.6915040,-116.3196311
6596,Madison Street,83805,48.6911753,-116.3196692
6588,Madison Street,83805,48.6911897,-116.3194294
6580,Madison Street,83805,48.6911956,-116.3190888
6564,Madison Street,83805,48.6911733,-116.3184506
6574,Madison Street,83805,48.6911965,-116.3188560
6552,Madison Street,83805,48.6912057,-116.3179197
6551,Madison Street,83805,48.6915349,-116.3179108
6545,Madison Street,83805,48.6915167,-116.3175263
6542,Madison Street,83805,48.6911669,-116.3174450
6537,Madison Street,83805,48.6915322,-116.3171794
6532,Madison Street,83805,48.6911951,-116.3170812
6528,Madison Street,83805,48.6912056,-116.3169053
6859,Truman Street,83805,48.6804636,-116.3306594
6845,Truman Street,83805,48.6804829,-116.3300533
6856,Truman Street,83805,48.6800685,-116.3306335
6852,Truman Street,83805,48.6800668,-116.3303340
6853,Truman Street,83805,48.6804861,-116.3304478
6849,Truman Street,83805,48.6804823,-116.3302433
6846,Truman Street,83805,48.6800574,-116.3300680
6821,Truman Street,83805,48.6804387,-116.3290719
6812,Truman Street,83805,48.6800556,-116.3286848
6804,Truman Street,83805,48.6800457,-116.3283332
6799,Truman Street,83805,48.6804570,-116.3281519
6881,Eisenhower Street,83805,48.6799006,-116.3317305
6878,Eisenhower Street,83805,48.6793528,-116.3315128
6856,Eisenhower Street,83805,48.6793395,-116.3305671
6855,Eisenhower Street,83805,48.6796843,-116.3306085
6635,Monroe Street,83805,48.6905366,-116.3213804
6613,Monroe Street,83805,48.6906148,-116.3204416
6614,Monroe Street,83805,48.6902931,-116.3204074
6583,Monroe Street,83805,48.6906631,-116.3192451
6573,Monroe Street,83805,48.6906712,-116.3189184
6565,Monroe Street,83805,48.6906932,-116.3185258
6566,Monroe Street,83805,48.6902777,-116.3184906
6556,Monroe Street,83805,48.6902784,-116.3178405
6545,Monroe Street,83805,48.6906832,-116.3177043
6542,Monroe Street,83805,48.6903179,-116.3175083
6531,Monroe Street,83805,48.6906693,-116.3170390
6526,Monroe Street,83805,48.6903078,-116.3168810
6519,Monroe Street,83805,48.6906764,-116.3166348
6497,Monroe Street,83805,48.6906178,-116.3156300
6496,Monroe Street,83805,48.6902084,-116.3155715
6492,Monroe Street,83805,48.6902718,-116.3153810
6487,Monroe Street,83805,48.6906449,-116.3151989
6481,Monroe Street,83805,48.6906444,-116.3149766
6482,Monroe Street,83805,48.6902608,-116.3149883
6476,Monroe Street,83805,48.6902418,-116.3147592
6473,Monroe Street,83805,48.6906284,-116.3146447
6472,Monroe Street,83805,48.6902870,-116.3145763
6913,Atlanta Street,83805,48.6894987,-116.3217634
6897,Atlanta Street,83805,48.6891068,-116.3220349
6891,Atlanta Street,83805,48.6888997,-116.3221494
6873,Atlanta Street,83805,48.6883856,-116.3225033
6619,Monroe Street,83805,48.6905946,-116.3206963
6929,Boise Street,83805,48.6899168,-116.3208878
6879,Boise Street,83805,48.6884901,-116.3218078
6865,Denver Street,83805,48.6881332,-116.3178621
6864,Denver Street,83805,48.6881396,-116.3184087
6850,Denver Street,83805,48.6877463,-116.3187040
6851,Denver Street,83805,48.6877237,-116.3178153
6844,Denver Street,83805,48.6874945,-116.3184412
6841,Denver Street,83805,48.6875179,-116.3176089
6836,Denver Street,83805,48.6873912,-116.3190606
6828,Denver Street,83805,48.6871306,-116.3183843
6818,Denver Street,83805,48.6868307,-116.3184882
6813,Denver Street,83805,48.6867147,-116.3178787
6804,Denver Street,83805,48.6863157,-116.3185624
6750,Denver Street,83805,48.6851069,-116.3184585
6739,Denver Street,83805,48.6848266,-116.3178738
6738,Denver Street,83805,48.6848266,-116.3185384
6706,Denver Street,83805,48.6838684,-116.3188535
6626,Jackson Street,83805,48.6893544,-116.3209291
6625,Jackson Street,83805,48.6897131,-116.3208258
6615,Jackson Street,83805,48.6897172,-116.3205509
6609,Jackson Street,83805,48.6898038,-116.3202871
6586,Jackson Street,83805,48.6893013,-116.3192914
6587,Jackson Street,83805,48.6897950,-116.3193816
6577,Jackson Street,83805,48.6897378,-116.3189969
6576,Jackson Street,83805,48.6893870,-116.3188613
6566,Jackson Street,83805,48.6893856,-116.3184573
6565,Jackson Street,83805,48.6897769,-116.3184451
6553,Jackson Street,83805,48.6897476,-116.3179425
6552,Jackson Street,83805,48.6893482,-116.3179479
6543,Jackson Street,83805,48.6897180,-116.3175219
6540,Jackson Street,83805,48.6893626,-116.3174684
6537,Jackson Street,83805,48.6897858,-116.3173048
6532,Jackson Street,83805,48.6894234,-116.3171105
6525,Jackson Street,83805,48.6897048,-116.3168231
6503,Jackson Street,83805,48.6897165,-116.3159003
6497,Jackson Street,83805,48.6897250,-116.3156212
6491,Jackson Street,83805,48.6897379,-116.3153881
6486,Jackson Street,83805,48.6893632,-116.3151801
6483,Jackson Street,83805,48.6897431,-116.3150707
6480,Jackson Street,83805,48.6894502,-116.3149613
6473,Jackson Street,83805,48.6897720,-116.3146488
6472,Jackson Street,83805,48.6894561,-116.3145964
6638,Van Buren Street,83805,48.6884875,-116.3215391
6637,Van Buren Street,83805,48.6888946,-116.3214727
6629,Van Buren Street,83805,48.6888594,-116.3211456
6628,Van Buren Street,83805,48.6885177,-116.3210875
6623,Van Buren Street,83805,48.6888859,-116.3208834
6622,Van Buren Street,83805,48.6884884,-116.3207193
6615,Van Buren Street,83805,48.6888732,-116.3205756
6614,Van Buren Street,83805,48.6885117,-116.3204853
6577,Van Buren Street,83805,48.6888729,-116.3189820
6550,Van Buren Street,83805,48.6885263,-116.3178653
6549,Van Buren Street,83805,48.6889413,-116.3177698
6542,Van Buren Street,83805,48.6884910,-116.3175215
6537,Van Buren Street,83805,48.6888591,-116.3173443
6534,Van Buren Street,83805,48.6884688,-116.3171789
6531,Van Buren Street,83805,48.6888404,-116.3170703
6525,Van Buren Street,83805,48.6889025,-116.3168379
6528,Van Buren Street,83805,48.6884894,-116.3169075
6499,Van Buren Street,83805,48.6888487,-116.3157615
6493,Van Buren Street,83805,48.6888749,-116.3155768
6491,Van Buren Street,83805,48.6889177,-116.3153785
6490,Van Buren Street,83805,48.6885308,-116.3153849
6487,Van Buren Street,83805,48.6888901,-116.3151984
6478,Van Buren Street,83805,48.6884885,-116.3150670
6475,Van Buren Street,83805,48.6888329,-116.3148003
6503,Harrison Street,83805,48.6878538,-116.3158780
6486,Harrison Street,83805,48.6875097,-116.3151656
6485,Harrison Street,83805,48.6879550,-116.3151086
6476,Harrison Street,83805,48.6875444,-116.3146710
6473,Harrison Street,83805,48.6879129,-116.3145264
6470,Harrison Street,83805,48.6875470,-116.3144715
6757,El Paso Street,83805,48.6853069,-116.3160060
6745,El Paso Street,83805,48.6850171,-116.3159546
6490,Fillmore Street,83805,48.6849983,-116.3153100
6484,Fillmore Street,83805,48.6848451,-116.3149525
6542,Sherman Alley,83805,48.6832720,-116.3175659
6534,Sherman Alley,83805,48.6832650,-116.3172446
6482,Grant Street,83805,48.6836465,-116.3153814
6526,Grant Street,83805,48.6836325,-116.3169106
6534,Grant Street,83805,48.6836319,-116.3172244
6542,Grant Street,83805,48.6836349,-116.3175939
6550,Grant Street,83805,48.6836309,-116.3179052
6833,El Paso Street,83805,48.6873128,-116.3158327
6823,El Paso Street,83805,48.6871042,-116.3156893
6796,El Paso Street,83805,48.6863629,-116.3166181
6799,El Paso Street,83805,48.6864573,-116.3159865
6786,El Paso Street,83805,48.6860785,-116.3165680
6778,El Paso Street,83805,48.6859413,-116.3166380
6772,El Paso Street,83805,48.6856907,-116.3165829
6758,El Paso Street,83805,48.6853444,-116.3165625
6750,El Paso Street,83805,48.6851580,-116.3165593
6740,El Paso Street,83805,48.6848298,-116.3165735
6737,El Paso Street,83805,48.6847845,-116.3159920
6711,El Paso Street,83805,48.6841283,-116.3158755
6684,El Paso Street,83805,48.6832625,-116.3167801
6665,El Paso Street,83805,48.6830910,-116.3161646
6967,Fresno Street,83805,48.6910457,-116.3141550
6959,Fresno Street,83805,48.6908181,-116.3141700
6949,Fresno Street,83805,48.6905397,-116.3140564
6921,Fresno Street,83805,48.6897817,-116.3136961
6911,Fresno Street,83805,48.6894959,-116.3142275
6900,Fresno Street,83805,48.6892276,-116.3146938
6892,Fresno Street,83805,48.6889500,-116.3145600
6881,Fresno Street,83805,48.6883472,-116.3139407
6873,Hillside Alley,83805,48.6883232,-116.3154065
6605,Ford Street,83805,48.6839917,-116.3200756
6711,Cody Street,83805,48.6840148,-116.3196115
6482,Polk Street,83805,48.6854343,-116.3148646
6483,Polk Street,83805,48.6859570,-116.3149717
6504,Tyler Street,83805,48.6865803,-116.3158754
6486,Tyler Street,83805,48.6865603,-116.3151501
6480,Tyler Street,83805,48.6865572,-116.3149525
6483,Tyler Street,83805,48.6869198,-116.3150545
6471,Tyler Street,83805,48.6869607,-116.3145530
6791,Hillside Alley,83805,48.6861839,-116.3153618
6792,Hillside Alley,83805,48.6862126,-116.3156211
6453,Baxter Street,83805,48.6919574,-116.3139401
6449,Baxter Street,83805,48.6921372,-116.3136791
6441,Baxter Street,83805,48.6922797,-116.3132633
6434,Baxter Street,83805,48.6919491,-116.3128814
6431,Baxter Street,83805,48.6922951,-116.3128006
7079,Helena Street,83805,48.6940553,-116.3112082
7069,Helena Street,83805,48.6937328,-116.3109270
7066,Helena Street,83805,48.6937686,-116.3118904
7055,Helena Street,83805,48.6934096,-116.3111559
7054,Helena Street,83805,48.6934209,-116.3117848
7045,Helena Street,83805,48.6931762,-116.3112228
7040,Helena Street,83805,48.6930841,-116.3119235
6998,Helena Street,83805,48.6920001,-116.3119431
7001,Helena Street,83805,48.6920619,-116.3113471
6530,Washington Street,83805,48.6917181,-116.3155406
6518,Washington Street,83805,48.6920175,-116.3156094
6503,Washington Street,83805,48.6924640,-116.3160072
6491,Washington Street,83805,48.6929126,-116.3154877
6502,Washington Street,83805,48.6924660,-116.3154038
6483,Washington Street,83805,48.6929257,-116.3150672
6480,Washington Street,83805,48.6924450,-116.3148553
6475,Washington Street,83805,48.6930076,-116.3147484
6472,Washington Street,83805,48.6924635,-116.3146524
6461,Washington Street,83805,48.6931029,-116.3141612
6464,Washington Street,83805,48.6925154,-116.3142653
6451,Washington Street,83805,48.6932361,-116.3135842
6404,Washington Street,83805,48.6924903,-116.3119079
6394,Washington Street,83805,48.6925230,-116.3113905
6386,Washington Street,83805,48.6925232,-116.3110334
6378,Washington Street,83805,48.6925087,-116.3107957
6372,Washington Street,83805,48.6924865,-116.3104461
6362,Washington Street,83805,48.6927308,-116.3093867
6134,Montana Street,83805,48.6915627,-116.3003045
6911,Apple Alley,83805,48.6914867,-116.2999560
6905,Apple Alley,83805,48.6913123,-116.2998695
6902,Apple Alley,83805,48.6910512,-116.3001792
6889,Apple Alley,83805,48.6908441,-116.2993699
6895,Apple Alley,83805,48.6910646,-116.2996743
6928,Cemetery Road,83805,48.6896469,-116.3021048
6172,Hemlock Street,83805,48.6902104,-116.3021728
6175,Hemlock Street,83805,48.6903708,-116.3025288
6181,Hemlock Street,83805,48.6902758,-116.3027510
6194,Hemlock Street,83805,48.6898727,-116.3026682
6207,Hemlock Street,83805,48.6895935,-116.3034961
6221,Hemlock Street,83805,48.6892517,-116.3035660
6228,Hemlock Street,83805,48.6890163,-116.3030308
6255,Hemlock Street,83805,48.6878772,-116.3039776
6268,Hemlock Street,83805,48.6885278,-116.3024918
6914,Hazel Street,83805,48.6905145,-116.3023786
6905,Hazel Street,83805,48.6905104,-116.3017552
6901,Hazel Street,83805,48.6903498,-116.3016367
6893,Hazel Street,83805,48.6901945,-116.3015558
6885,Hazel Street,83805,48.6900064,-116.3013043
6872,Hazel Street,83805,48.6896160,-116.3015031
6868,Hazel Street,83805,48.6894671,-116.3013175
6858,Hazel Street,83805,48.6892533,-116.3011444
6857,Hazel Street,83805,48.6895548,-116.3007434
6841,Hazel Street,83805,48.6890624,-116.3002795
6139,Louisiana Street,83805,48.6927475,-116.3010264
6142,Louisiana Street,83805,48.6923764,-116.3010585
6156,Louisiana Street,83805,48.6921285,-116.3015254
7098,Ash Street,83805,48.6944940,-116.3063576
7084,Ash Street,83805,48.6942973,-116.3058850
7076,Ash Street,83805,48.6942216,-116.3055575
7066,Ash Street,83805,48.6941054,-116.3052121
7062,Ash Street,83805,48.6940290,-116.3049849
7054,Oak Street,83805,48.6939593,-116.3047656
7048,Oak Street,83805,48.6938927,-116.3045536
7042,Oak Street,83805,48.6937488,-116.3042903
7022,Oak Street,83805,48.6933383,-116.3037038
7003,Oak Street,83805,48.6933019,-116.3029487
7001,Oak Street,83805,48.6931889,-116.3028458
6993,Oak Street,83805,48.6931183,-116.3026052
6982,Oak Street,83805,48.6925618,-116.3028020
6972,Oak Street,83805,48.6923835,-116.3026448
6965,Oak Street,83805,48.6924692,-116.3019645
6962,Oak Street,83805,48.6920956,-116.3025084
6952,Oak Street,83805,48.6919232,-116.3021568
6948,Oak Street,83805,48.6918141,-116.3020586
6942,Oak Street,83805,48.6917331,-116.3018900
6938,Oak Street,83805,48.6916471,-116.3017945
6324,Arizona Street,83805,48.6957993,-116.3077626
6299,Arizona Street,83805,48.6964716,-116.3072218
6291,Arizona Street,83805,48.6965787,-116.3068997
6447,Kootenai Street,83805,48.6955266,-116.3141285
7182,Fourth Street,83805,48.6971403,-116.3167281
7178,Fourth Street,83805,48.6969969,-116.3168342
7168,Fourth Street,83805,48.6967640,-116.3165711
7164,Fourth Street,83805,48.6966230,-116.3166776
7154,Fourth Street,83805,48.6963936,-116.3164762
7184,Fifth Street,83805,48.6970020,-116.3176995
7180,Fifth Street,83805,48.6967305,-116.3178199
7171,Fifth Street,83805,48.6967050,-116.3171597
6726,Riverside Street,83805,48.6952144,-116.3245697
6821,Riverside Street,83805,48.6940491,-116.3289002
7229,Main Street,83805,48.6977395,-116.3118387
7232,Main Street,83805,48.6977512,-116.3122377
7225,Main Street,83805,48.6976176,-116.3118183
7224,Main Street,83805,48.6975854,-116.3122073
7223,Main Street,83805,48.6975745,-116.3118077
7222,Main Street,83805,48.6974968,-116.3121927
7218,Main Street,83805,48.6974092,-116.3121808
7219,Main Street,83805,48.6974640,-116.3118081
7214,Main Street,83805,48.6973382,-116.3121700
7211,Main Street,83805,48.6973437,-116.3117883
7206,Main Street,83805,48.6971397,-116.3121400
7202,Main Street,83805,48.6970658,-116.3121245
7197,Main Street,83805,48.6970393,-116.3116752
7196,Main Street,83805,48.6969610,-116.3121156
7195,Main Street,83805,48.6969608,-116.3116566
7192,Main Street,83805,48.6968665,-116.3121145
7193,Main Street,83805,48.6968843,-116.3116348
7183,Main Street,83805,48.6967505,-116.3116215
7184,Main Street,83805,48.6966636,-116.3120493
7177,Main Street,83805,48.6966210,-116.3115900
7180,Main Street,83805,48.6965921,-116.3120291
7169,Main Street,83805,48.6964321,-116.3115688
7174,Main Street,83805,48.6964664,-116.3119962
7160,Main Street,83805,48.6961816,-116.3119527
7156,Main Street,83805,48.6960757,-116.3119755
7161,Main Street,83805,48.6960950,-116.3114649
7141,Main Street,83805,48.6958998,-116.3114992
6476,Kootenai Street,83805,48.6959730,-116.3148154
7168,First Street,83805,48.6964060,-116.3140559
6452,Kootenai Street,83805,48.6958903,-116.3139270
6430,Kootenai Street,83805,48.6961268,-116.3129019
6428,Kootenai Street,83805,48.6961293,-116.3128645
6426,Kootenai Street,83805,48.6961422,-116.3127469
6424,Kootenai Street,83805,48.6961502,-116.3126972
6420,Kootenai Street,83805,48.6961367,-116.3124382
6418,Kootenai Street,83805,48.6961559,-116.3123976
6415,Kootenai Street,83805,48.6963487,-116.3123640
6414,Kootenai Street,83805,48.6961647,-116.3122631
6412,Kootenai Street,83805,48.6961637,-116.3122146
6410,Kootenai Street,83805,48.6961753,-116.3121649
6408,Kootenai Street,83805,48.6961798,-116.3120145
6389,Kootenai Street,83805,48.6964324,-116.3113549
6387,Kootenai Street,83805,48.6964379,-116.3112241
6379,Kootenai Street,83805,48.6968739,-116.3109709
6370,Kootenai Street,83805,48.6961326,-116.3106647
7170,Second Street,83805,48.6966923,-116.3153667
7167,Second Street,83805,48.6966572,-116.3147538
7166,Second Street,83805,48.6966026,-116.3153584
7165,Second Street,83805,48.6965926,-116.3147428
7159,Second Street,83805,48.6964230,-116.3147055
7162,Second Street,83805,48.6964594,-116.3153651
7158,Second Street,83805,48.6963760,-116.3153686
7153,Second Street,83805,48.6963007,-116.3147180
7152,Second Street,83805,48.6962465,-116.3155629
7142,Second Street,83805,48.6959907,-116.3152546
7135,Second Street,83805,48.6957823,-116.3147633
7131,Second Street,83805,48.6956687,-116.3147197
7119,Second Street,83805,48.6952880,-116.3147534
6485,Bonner Street,83805,48.6971516,-116.3153153
6471,Bonner Street,83805,48.6972495,-116.3148528
6437,Bonner Street,83805,48.6974078,-116.3139312
6507,Riverside Street,83805,48.6975306,-116.3159879
6568,Riverside Street,83805,48.6966657,-116.3183292
6429,Bonner Street,83805,48.6973054,-116.3131332
6426,Bonner Street,83805,48.6969730,-116.3128191
6415,Bonner Street,83805,48.6972732,-116.3124700
6395,Bonner Street,83805,48.6973253,-116.3117063
6389,Bonner Street,83805,48.6973456,-116.3114772
6387,Bonner Street,83805,48.6973497,-116.3114129
6380,Bonner Street,83805,48.6972050,-116.3110235
6683,Chippewa Drive,83805,48.7064174,-116.3232046
6653,Chippewa Drive,83805,48.7061123,-116.3210973
6646,Chippewa Drive,83805,48.7056397,-116.3217984
6641,Chippewa Drive,83805,48.7055966,-116.3210487
6625,Chippewa Drive,83805,48.7051616,-116.3207672
6608,Chippewa Drive,83805,48.7045811,-116.3202867
6589,Chippewa Drive,83805,48.7049399,-116.3196782
6585,Chippewa Drive,83805,48.7049729,-116.3193852
6572,Chippewa Drive,83805,48.7045658,-116.3188578
6563,Chippewa Drive,83805,48.7050335,-116.3180649
6923,Westview Drive,83805,48.7059164,-116.3330294
6924,Westview Drive,83805,48.7054463,-116.3332720
6914,Westview Drive,83805,48.7054618,-116.3327080
6915,Westview Drive,83805,48.7059158,-116.3326071
6872,Westview Drive,83805,48.7056688,-116.3310364
6858,Westview Drive,83805,48.7056032,-116.3305134
6857,Westview Drive,83805,48.7060330,-116.3305473
6846,Westview Drive,83805,48.7055887,-116.3300673
6845,Westview Drive,83805,48.7060513,-116.3300361
6827,Westview Drive,83805,48.7060424,-116.3295108
6828,Westview Drive,83805,48.7056366,-116.3293058
6810,Westview Drive,83805,48.7056581,-116.3288450
6815,Westview Drive,83805,48.7060534,-116.3290256
6808,Westview Drive,83805,48.7056594,-116.3283313
6804,Westview Drive,83805,48.7059812,-116.3283423
7492,Vista Drive,83805,48.7050754,-116.3301052
7556,Yakima Street,83805,48.7071026,-116.3269930
7538,Yakima Street,83805,48.7065702,-116.3271366
7554,Wells Street,83805,48.7071072,-116.3249959
7544,Wells Street,83805,48.7068136,-116.3246054
7524,Wells Street,83805,48.7063370,-116.3247133
7516,Wells Street,83805,48.7060296,-116.3246239
7517,Wells Street,83805,48.7059937,-116.3242109
7503,Wells Street,83805,48.7055985,-116.3241943
7494,Wells Street,83805,48.7053690,-116.3246561
7489,Wells Street,83805,48.7052696,-116.3241888
7477,Wells Street,83805,48.7049903,-116.3242009
7467,Wells Street,83805,48.7046809,-116.3241995
7458,Wells Street,83805,48.7044280,-116.3247837
7451,Wells Street,83805,48.7041935,-116.3241120
7448,Wells Street,83805,48.7041200,-116.3248272
7441,Wells Street,83805,48.7038987,-116.3241482
7434,Wells Street,83805,48.7037946,-116.3247698
7421,Wells Street,83805,48.7033824,-116.3241579
7563,Yakima Street,83805,48.7075185,-116.3267543
7564,Yakima Street,83805,48.7076781,-116.3275740
6819,Kalispell Street,83805,48.7069055,-116.3290970
6809,Kalispell Street,83805,48.7069956,-116.3287222
6797,Kalispell Street,83805,48.7069488,-116.3282671
6787,Kalispell Street,83805,48.7069135,-116.3278233
6777,Kalispell Street,83805,48.7069259,-116.3273269
6749,Kalispell Street,83805,48.7068921,-116.3263100
6731,Kalispell Street,83805,48.7069459,-116.3255134
6828,Marx Court,83805,48.7048113,-116.3293111
6827,Marx Court,83805,48.7053184,-116.3293114
6818,Marx Court,83805,48.7048079,-116.3288452
6808,Marx Court,83805,48.7049257,-116.3282829
7486,Sundance Lane,83805,48.7046169,-116.3303116
7473,Sundance Lane,83805,48.7046120,-116.3311922
7446,Sundance Lane,83805,48.7045728,-116.3330746
7438,Sundance Lane,83805,48.7042656,-116.3334895
6907,Kaniksu Street,83805,48.7034760,-116.3326056
6707,Nez Perce Street,83805,48.7041806,-116.3234429
6705,Nez Perce Street,83805,48.7042535,-116.3238460
6685,Nez Perce Street,83805,48.7053624,-116.3232519
6698,Nez Perce Street,83805,48.7044422,-116.3230830
6674,Nez Perce Street,83805,48.7045084,-116.3227073
6695,Nez Perce Street,83805,48.7045827,-116.3234202
6664,Nez Perce Street,83805,48.7045420,-116.3223633
6677,Nez Perce Street,83805,48.7051392,-116.3228033
6656,Nez Perce Street,83805,48.7043846,-116.3218127
6651,Nez Perce Street,83805,48.7050364,-116.3218361
6635,Nez Perce Street,83805,48.7049274,-116.3212000
7459,Colville Street,83805,48.7045316,-116.3206642
7449,Colville Street,83805,48.7042086,-116.3207719
7437,Colville Street,83805,48.7038295,-116.3210207
6601,Chippewa Drive,83805,48.7049958,-116.3201120
7448,Caribou Street,83805,48.7042472,-116.3202882
7437,Caribou Street,83805,48.7038294,-116.3195670
7438,Caribou Street,83805,48.7039100,-116.3201770
7428,Caribou Street,83805,48.7036537,-116.3201387
7425,Caribou Street,83805,48.7035591,-116.3196106
7420,Caribou Street,83805,48.7034172,-116.3201649
7411,Caribou Street,83805,48.7031741,-116.3197027
7402,Caribou Street,83805,48.7027795,-116.3201857
7441,Caribou Street,83805,48.7035558,-116.3185758
6806,Kaniksu Street,83805,48.7030096,-116.3277991
7431,Vista Drive,83805,48.7035068,-116.3275298
6782,Kaniksu Street,83805,48.7029395,-116.3267762
6777,Kaniksu Street,83805,48.7043498,-116.3277997
6755,Kaniksu Street,83805,48.7035755,-116.3257296
6732,Kaniksu Street,83805,48.7029676,-116.3247235
6701,Kaniksu Street,83805,48.7031485,-116.3238692
6687,Kaniksu Street,83805,48.7030663,-116.3234662
6640,Kaniksu Street,83805,48.7024178,-116.3215189
6619,Kaniksu Street,83805,48.7032009,-116.3207957
6597,Kaniksu Street,83805,48.7028619,-116.3196718
6579,Kaniksu Street,83805,48.7030007,-116.3189297
6671,Kaniksu Street,83805,48.7028794,-116.3226860
6718,Pine Street,83805,48.7024847,-116.3242841
6706,Pine Street,83805,48.7020187,-116.3238932
6694,Pine Street,83805,48.7023945,-116.3234114
7387,Canyon Street,83805,48.7023274,-116.3181839
7386,Canyon Street,83805,48.7022497,-116.3186287
7397,Canyon Street,83805,48.7027558,-116.3182657
6558,Chinook Street,83805,48.7010479,-116.3192061
6545,Chinook Street,83805,48.7011068,-116.3183501
6525,Chinook Street,83805,48.7011264,-116.3173594
6513,Chinook Street,83805,48.7012861,-116.3168867
6509,Chinook Street,83805,48.7013471,-116.3166185
6495,Chinook Street,83805,48.7015256,-116.3159194
6488,Chinook Street,83805,48.7013237,-116.3150853
6577,Comanche Street,83805,48.7017977,-116.3189995
6568,Comanche Street,83805,48.7013658,-116.3188243
6560,Comanche Street,83805,48.7014767,-116.3183546
6554,Comanche Street,83805,48.7011233,-116.3177571
6545,Comanche Street,83805,48.7020781,-116.3179864
6546,Comanche Street,83805,48.7016971,-116.3176951
6541,Comanche Street,83805,48.7022208,-116.3177750
6511,Comanche Street,83805,48.7025159,-116.3163241
6512,Comanche Street,83805,48.7022137,-116.3159695
6497,Comanche Street,83805,48.7029806,-116.3154837
6471,Comanche Street,83805,48.7040567,-116.3152645
6468,Comanche Street,83805,48.7033145,-116.3139962
6448,Comanche Street,83805,48.7038632,-116.3131906
6442,Comanche Street,83805,48.7039987,-116.3129900
6436,Comanche Street,83805,48.7040832,-116.3128290
6413,Comanche Street,83805,48.7049498,-116.3120960
6739,Comanche Street,83805,48.7015517,-116.3251293
6736,Comanche Street,83805,48.7011115,-116.3248903
6720,Comanche Street,83805,48.7011128,-116.3245962
6719,Comanche Street,83805,48.7015823,-116.3242016
6707,Comanche Street,83805,48.7014404,-116.3237754
6692,Comanche Street,83805,48.7011052,-116.3231172
6689,Comanche Street,83805,48.7014816,-116.3230051
6684,Comanche Street,83805,48.7011084,-116.3228644
6676,Comanche Street,83805,48.7011084,-116.3224925
6675,Comanche Street,83805,48.7014831,-116.3224212
6668,Comanche Street,83805,48.7009966,-116.3221274
6658,Comanche Street,83805,48.7011365,-116.3217424
6632,Comanche Street,83805,48.7011393,-116.3206573
6629,Comanche Street,83805,48.7015039,-116.3205008
6616,Comanche Street,83805,48.7010417,-116.3200124
6615,Comanche Street,83805,48.7017718,-116.3198983
6732,Spokane Street,83805,48.6977273,-116.3251222
6730,Spokane Street,83805,48.6977897,-116.3249449
6724,Spokane Street,83805,48.6978480,-116.3247943
6720,Spokane Street,83805,48.6978971,-116.3246315
6713,Spokane Street,83805,48.6983527,-116.3246159
6687,North River Drive,83805,48.6979563,-116.3242899
6707,Spokane Street,83805,48.6984178,-116.3243918
6701,Spokane Street,83805,48.6985006,-116.3241511
6704,Spokane Street,83805,48.6980664,-116.3240512
6731,North River Drive,83805,48.6972065,-116.3259075
7186,First Street,83805,48.6969685,-116.3136072
7167,First Street,83805,48.6964714,-116.3128830
6438,Kootenai Street,83805,48.6958884,-116.3132951
6994,Kennedy Street,83805,48.6760478,-116.3366705
6973,Kennedy Street,83805,48.6766878,-116.3354929
6961,Kennedy Street,83805,48.6766676,-116.3349978
7451,Wildhorse Lane,83805,48.7045666,-116.3340805
7482,Wildhorse Lane,83805,48.7054073,-116.3343168
7481,Wildhorse Lane,83805,48.7049983,-116.3335613
7508,Wildhorse Lane,83805,48.7058419,-116.3338971
7522,Wildhorse Lane,83805,48.7062226,-116.3335882
7584,Wildhorse Lane,83805,48.7079863,-116.3322630
7596,Wildhorse Lane,83805,48.7083690,-116.3311924
7599,Wildhorse Lane,83805,48.7080554,-116.3304857
7612,Wildhorse Lane,83805,48.7085524,-116.3305782
7623,Wildhorse Lane,83805,48.7080378,-116.3301024
7624,Wildhorse Lane,83805,48.7085072,-116.3299435
7627,Wildhorse Lane,83805,48.7080241,-116.3295582
7628,Wildhorse Lane,83805,48.7084959,-116.3294047
7636,Wildhorse Lane,83805,48.7085884,-116.3285757
6894,Wild Rose Lane,83805,48.7071350,-116.3322994
6892,Wild Rose Lane,83805,48.7071019,-116.3318070
6845,Wild Rose Lane,83805,48.7075957,-116.3300210
6835,Wild Rose Lane,83805,48.7075584,-116.3296045
6825,Wild Rose Lane,83805,48.7076971,-116.3290581
7633,Wildhorse Lane,83805,48.7080175,-116.3291516
7537,Deer Run Road,83805,48.7066837,-116.3304824
7523,Deer Run Road,83805,48.7065274,-116.3310141
7501,Crow Street,83805,48.7057060,-116.3190160
7495,Crow Street,83805,48.7053134,-116.3183811
7491,Crow Street,83805,48.7052262,-116.3188666
6571,Chippewa Drive,83805,48.7049183,-116.3188637
6807,Chippewa Drive,83805,48.7063832,-116.3285119
6797,Chippewa Drive,83805,48.7063277,-116.3278088
6788,Chippewa Drive,83805,48.7060112,-116.3275866
6787,Chippewa Drive,83805,48.7064026,-116.3275836
6773,Chippewa Drive,83805,48.7063497,-116.3269681
6757,Chippewa Drive,83805,48.7063720,-116.3263340
6751,Chippewa Drive,83805,48.7065436,-116.3259316
6749,Chippewa Drive,83805,48.7065962,-116.3257700
6741,Chippewa Drive,83805,48.7063571,-116.3256139
6731,Chippewa Drive,83805,48.7063276,-116.3250109
6707,Chippewa Drive,83805,48.7064001,-116.3240948
6702,Chippewa Drive,83805,48.7060371,-116.3238001
6697,Chippewa Drive,83805,48.7064230,-116.3235611
6694,Chippewa Drive,83805,48.7059858,-116.3233852
6684,Chippewa Drive,83805,48.7059817,-116.3230928
7217,Larch Street,83805,48.6979117,-116.3274572
7215,Larch Street,83805,48.6984598,-116.3266659
6745,North River Drive,83805,48.6970035,-116.3264376
7326,Birch Street,83805,48.7008221,-116.3239932
7310,Birch Street,83805,48.7003603,-116.3239710
7305,Birch Street,83805,48.7003277,-116.3233415
6932,Oak Street,83805,48.6915119,-116.3016351
6933,Oak Street,83805,48.6917766,-116.3012170
6926,Oak Street,83805,48.6913446,-116.3015407
6927,Oak Street,83805,48.6915784,-116.3010736
6918,Oak Street,83805,48.6911703,-116.3013027
6914,Oak Street,83805,48.6910987,-116.3012313
6913,Oak Street,83805,48.6912928,-116.3007636
6908,Oak Street,83805,48.6909357,-116.3010627
6869,Oak Street,83805,48.6904262,-116.2998445
6856,Oak Street,83805,48.6898010,-116.2999130
6849,Oak Street,83805,48.6897844,-116.2992516
6839,Oak Street,83805,48.6895609,-116.2989734
6820,Oak Street,83805,48.6889137,-116.2992544
6320,Arizona Street,83805,48.6958644,-116.3075934
7193,Oak Street,83805,48.6965522,-116.3063581
7188,Oak Street,83805,48.6962190,-116.3067329
7185,Oak Street,83805,48.6963557,-116.3061139
7179,Oak Street,83805,48.6962378,-116.3060250
7175,Oak Street,83805,48.6961062,-116.3058986
7169,Oak Street,83805,48.6960238,-116.3058110
7165,Oak Street,83805,48.6959365,-116.3056377
7157,Oak Street,83805,48.6957438,-116.3054093
7147,Oak Street,83805,48.6956103,-116.3052988
7145,Oak Street,83805,48.6955029,-116.3051976
7141,Oak Street,83805,48.6953861,-116.3050979
7122,Oak Street,83805,48.6947242,-116.3050036
7117,Oak Street,83805,48.6948157,-116.3045079
7111,Oak Street,83805,48.6947108,-116.3043655
7103,Oak Street,83805,48.6945304,-116.3042016
6209,Florida Street,83805,48.6944631,-116.3039440
6187,Florida Street,83805,48.6948933,-116.3034621
6212,Dakota Street,83805,48.6951781,-116.3040305
6216,Dakota Street,83805,48.6951046,-116.3041336
6217,Dakota Street,83805,48.6953604,-116.3043861
7157,Cedar Street,83805,48.6961123,-116.3046037
7156,Cedar Street,83805,48.6958928,-116.3048848
7150,Cedar Street,83805,48.6957953,-116.3048353
7146,Cedar Street,83805,48.6956835,-116.3047966
7147,Cedar Street,83805,48.6958981,-116.3043647
7142,Cedar Street,83805,48.6955773,-116.3046826
7137,Cedar Street,83805,48.6956392,-116.3040864
7133,Cedar Street,83805,48.6955758,-116.3040043
6243,Colorado Street,83805,48.6963065,-116.3049958
6249,Colorado Street,83805,48.6962177,-116.3051710
6257,Colorado Street,83805,48.6961339,-116.3053745
6266,Arizona Alley,83805,48.6966483,-116.3057217
7137,First Street,83805,48.6956644,-116.3126776
6330,Arizona Street,83805,48.6957144,-116.3079871
7448,Mohawk Street,83805,48.7041318,-116.3140206
7436,Mohawk Street,83805,48.7038600,-116.3139629
7532,Ada Street,83805,48.7064688,-116.3112113
7540,Ada Street,83805,48.7067739,-116.3113092
7599,Mohawk Street,83805,48.7079516,-116.3102517
7515,Latah Street,83805,48.7060867,-116.3118275
7512,Latah Street,83805,48.7057069,-116.3118553
7516,Benewah Street,83805,48.7058565,-116.3126236
7513,Benewah Street,83805,48.7056962,-116.3121538
7498,Benewah Street,83805,48.7052864,-116.3126343
7497,Benewah Street,83805,48.7054008,-116.3118330
7306,Birch Street,83805,48.7001830,-116.3239662
7298,Birch Street,83805,48.7000451,-116.3239634
7285,Birch Street,83805,48.6996935,-116.3233642
7286,Birch Street,83805,48.6996978,-116.3239427
7278,Birch Street,83805,48.6995781,-116.3239989
7275,Birch Street,83805,48.6995799,-116.3217285
6743,Ivy Lane,83805,48.6994459,-116.3251707
7241,Birch Street,83805,48.6984988,-116.3228000
7223,Birch Street,83805,48.6980914,-116.3234507
6659,Apache Court,83805,48.7006789,-116.3225231
6658,Apache Court,83805,48.7004223,-116.3226227
6655,Apache Court,83805,48.7007602,-116.3222240
6645,Apache Court,83805,48.7007334,-116.3217443
7330,Apache Street,83805,48.7006514,-116.3213182
7331,Apache Street,83805,48.7007500,-116.3205923
7334,Apache Street,83805,48.7010595,-116.3211260
7310,Arapaho Alley,83805,48.7002268,-116.3181533
7310,Blaine Street,83805,48.7005372,-116.3161435
7323,Blaine Street,83805,48.7009880,-116.3157760
7326,Blaine Street,83805,48.7009505,-116.3163069
7355,Blaine Street,83805,48.7018140,-116.3163338
7361,Blaine Street,83805,48.7019535,-116.3163848
7358,Blaine Street,83805,48.7016662,-116.3170536
7317,Boundary Street,83805,48.7005813,-116.3169875
7312,Boundary Street,83805,48.7002712,-116.3173021
7307,Boundary Street,83805,48.7002658,-116.3167685
7306,Boundary Street,83805,48.6999369,-116.3173481
7385,Bingham Street,83805,48.7023576,-116.3151067
7378,Bingham Street,83805,48.7020205,-116.3156294
7377,Bingham Street,83805,48.7021810,-116.3150637
7364,Bingham Street,83805,48.7016601,-116.3153998
7488,Cassia Street,83805,48.7048546,-116.3174155
7470,Cassia Street,83805,48.7041879,-116.3174368
7448,Cassia Street,83805,48.7036161,-116.3172448
7437,Cassia Street,83805,48.7034698,-116.3168175
7417,Cassia Street,83805,48.7034065,-116.3161122
7412,Cassia Street,83805,48.7032027,-116.3161676
7402,Cassia Street,83805,48.7029548,-116.3162217
7394,Cassia Street,83805,48.7026795,-116.3163376
7596,Mohawk Street,83805,48.7079758,-116.3111354
7576,Mohawk Street,83805,48.7072730,-116.3120705
7556,Mohawk Street,83805,48.7068076,-116.3123954
7530,Mohawk Street,83805,48.7066393,-116.3127504
7507,Mohawk Street,83805,48.7057082,-116.3135281
7516,Mohawk Street,83805,48.7058454,-116.3139133
7492,Mohawk Street,83805,48.7053426,-116.3140504
7491,Mohawk Street,83805,48.7054265,-116.3134545
7482,Mohawk Street,83805,48.7050481,-116.3139911
7481,Mohawk Street,83805,48.7051229,-116.3134803
7476,Mohawk Street,83805,48.7048554,-116.3140194
7475,Mohawk Street,83805,48.7047793,-116.3132905
7464,Mohawk Street,83805,48.7046154,-116.3140603
7460,Mohawk Street,83805,48.7044399,-116.3140139
6549,Van Buren Street,83805,48.6889811,-116.3177642
6519,South Main Street,83805,48.6777267,-116.3288984
7188,Oak Street,83805,48.6961896,-116.3068789
6438,Kootenai Street,83805,48.6957993,-116.3134024
6370,Kootenai Street,83805,48.6961402,-116.3107148
7177,Main Street,83805,48.6966533,-116.3116056
6452,Kootenai Street,83503,48.6958681,-116.3138704
7197,Main Street,83805,48.6970242,-116.3115626
7183,Main Street,83805,48.6968141,-116.3115739
7189,Main Street,83805,48.6968842,-116.3115514
7195,Main Street,83805,48.6969553,-116.3115510
7169,Main Street,83805,48.6964143,-116.3115934
7229,Main Street,83805,48.6977105,-116.3117422
7186,First Street,83805,48.6969054,-116.3136628
7192,Main Street,83805,48.6968418,-116.3122847
6429,Bonner Street,83805,48.6972761,-116.3131407
6416,Kootenai Street,83805,48.6960357,-116.3123934
6426,Bonner Street,83805,48.6969008,-116.3128265
7180,Main Street,83805,48.6965588,-116.3122723
7174,Main Street,83805,48.6964301,-116.3122356
7168,Main Street,83805,48.6963621,-116.3122396
7232,Main Street,83805,48.6977619,-116.3122634
7178,Main Street,83805,48.6964931,-116.3122558
7141,Main Street,83805,48.6958226,-116.3113859
6426,Kootenai Street,83805,48.6960887,-116.3121184
6373,Bonner Street,83805,48.6974651,-116.3107112
7161,Main Street,83805,48.6961202,-116.3115015
6424,Riverside Street,83805,48.6977192,-116.3131369
6568,Alderson Lane,83805,48.6803899,-116.3219435
6750,Augusta Street,83805,48.6853053,-116.3265839
6750,Main Street,83805,48.6851608,-116.3202761
6606,Main Street,83805,48.6813822,-116.3259915
6804,Denver Street,83805,48.6863733,-116.3186746
6530,Washington Street,83805,48.6917194,-116.3155550
7211,Main Street,83805,48.6973814,-116.3116141
6723,Main Street,83805,48.6840169,-116.3205462
6720,El Paso Street,83805,48.6842912,-116.3167734
6777,South Main Street,83805,48.6854175,-116.3185380
6759,South Main Street,83805,48.6849534,-116.3192859
6712,El Paso Street,83805,48.6840935,-116.3167932
6409,Main Street,83805,48.6755999,-116.3330363
6640,Kaniksu Street,83805,48.7019197,-116.3212044
6497,Comanche Street,83805,48.7029980,-116.3154916
7222,Main Street,83805,48.6974798,-116.3123740
7196,Main Street,83805,48.6969190,-116.3122766
7202,Main Street,83805,48.6970209,-116.3122934
6865,Main Street,83805,48.6881672,-116.3156470
