House number,Street name,Postal code,Latitude,Longitude
722,Victor Lane,83202,42.9194077,-112.4821161
720,Redman,83202,42.9152341,-112.4812970
4335,Yellowstone Avenue,83202-2416,42.9114993,-112.4677066
4640,Yellowstone Avenue,83202,42.9176150,-112.4658927
830,Gloria Street,83202,42.9229761,-112.4843553
828,Gloria Street,83202,42.9229760,-112.4842883
826,Gloria Street,83202,42.9229743,-112.4842264
824,Gloria Street,83202,42.9229743,-112.4841610
916,Boyd Street,83202,42.9238758,-112.4860460
914,Boyd Street,83202,42.9238738,-112.4859213
756,Boyd Street,83202,42.9238631,-112.4822981
754,Boyd Street,83202,42.9238602,-112.4821506
4946,Cole Street,83202,42.9231743,-112.4853835
4946,Cole Street,83202,42.9231110,-112.4853826
4946,Cole Street,83202,42.9230462,-112.4853770
4946,Cole Street,83202,42.9229696,-112.4853746
4968,Cole Street,83202,42.9235257,-112.4853887
4968,Cole Street,83202,42.9234926,-112.4853915
4968,Cole Street,83202,42.9234570,-112.4853940
4968,Cole Street,83202,42.9234220,-112.4853940
4895,Trent Street,83202,42.9223189,-112.4836630
4885,Trent Street,83202,42.9221672,-112.4836559
4888,Cole Street,83202,42.9221917,-112.4854540
4890,Cole Street,83202,42.9223268,-112.4854616
4935,Dorian Street,83202,42.9229924,-112.4820913
4937,Dorian Street,83202,42.9231501,-112.4820954
4955,Dorian Street,83202,42.9233649,-112.4820839
4965,Dorian Street,83202,42.9235029,-112.4820980
819,Boyd Street,83202,42.9235349,-112.4840538
815,Boyd Street,83202,42.9235315,-112.4839239
813,Boyd Street,83202,42.9235305,-112.4838597
817,Boyd Street,83202,42.9235306,-112.4839991
864,Boyd Street,83202,42.9238908,-112.4854460
854,Boyd Street,83202,42.9238895,-112.4852743
836,Boyd Street,83202,42.9238973,-112.4850160
834,Boyd Street,83202,42.9238986,-112.4848019
925,Boyd Street,83202,42.9235773,-112.4860901
923,Boyd Street,83202,42.9235729,-112.4859031
4170,Hawthorne Road,83202,42.9088588,-112.4743088
190,Bullock Street,83202,42.9116701,-112.4637641
4155,Yellowstone Highway,83202,42.9088277,-112.4701897
4240,Yellowstone Avenue,83202,42.9100137,-112.4635696
5122,Hawthorne Road,83202,42.9265995,-112.4759131
5150,Dorian Street,83202,42.9269271,-112.4816699
716,Bonanza Avenue,83202,42.9167559,-112.4817361
4340,Hawthorne Road,83202,42.9119711,-112.4747547
4260,Yellowstone Avenue,83202-2400,42.9110048,-112.4657020
4501,Yellowstone Avenue,83202,42.9147564,-112.4668314
4519,Yellowstone Avenue,83202,42.9151653,-112.4668549
4508,North Yellowstone,83202-2412,42.9155134,-112.4659753
110,Knudson Boulevard,83202,42.9166339,-112.4669852
4727,Yellowstone Avenue,83202,42.9195785,-112.4668349
4845,Yellowstone Avenue,83202,42.9216868,-112.4679905
5160,Yellowstone Avenue,83202,42.9271725,-112.4657870
820,West Chubbuck Road,83202,42.9209423,-112.4845431
4165,Yellowstone Avenue,83202,42.9085851,-112.4667872
4165,Yellowstone Avenue,83202,42.9085010,-112.4667884
4165,Yellowstone Avenue,83202,42.9084040,-112.4667897
5626,Sorrel Street,83202,42.9357736,-112.4742292
4846,Hawthorne Road,83202,42.9220891,-112.4749204
4170,Hawthorne Road,83202,42.9076121,-112.4740880
4170,Hawthorne Road,83202,42.9082897,-112.4740898
4170,Hawthorne Road,83202,42.9087930,-112.4749356
4170,Hawthorne Road,83202,42.9091002,-112.4752700
4170,Hawthorne Road,83202,42.9092206,-112.4740929
4170,Hawthorne Road,83202,42.9089942,-112.4758226
5103,Redfish Avenue,83202,42.9260422,-112.4869675
5011,Hawthorne Road,83202,42.9248199,-112.4771065
5130,Hawthorne Road,83202,42.9268139,-112.4760538
916,Ryan Street,83202,42.9221052,-112.4865694
698,Canal Street,83202,42.9275034,-112.4811022
820,Todd Street,83202,42.9221955,-112.4839816
444,East Chubbuck Road,83202,42.9210975,-112.4571863
4080,Hawthorne Road,83202,42.9079762,-112.4750775
