House number,Street name,Postal code,Latitude,Longitude
1250,Fox Acres Road,83333,43.5171970,-114.2940476
900,North 2nd Avenue,83333,43.5285758,-114.3167200
219,South Main Street,83333,43.5177583,-114.3142899
801,S Main Street,83333,43.5132750,-114.3071802
817,South 3rd Avenue,83333,43.5135209,-114.3064057
817,South 3rd Avenue,83333,43.5134528,-114.3066096
209,South Main Street,83333,43.5180025,-114.3144713
14,West Croy Street,83333,43.5182405,-114.3152584
202,South Main Street,83333,43.5210401,-114.3159163
4320,Glenbrook Drive,83333,43.4873418,-114.2739970
3131,Snow Bank Drive,83333,43.4950489,-114.2797253
250,Chestnut Street,83333,43.5135876,-114.3141250
1120,Broadford Road,83333,43.5101206,-114.3072107
670,Con Virginia Lane,83333,43.5265005,-114.3090986
211,Main Street,83333,43.5209695,-114.3168745
820,Fox Acres Road,83333,43.5143628,-114.2987878
310,Croy Street,83333,43.5168387,-114.3189547
261,Carbonate Drive,83333,43.5201428,-114.3208126
510,Calumet Way,83333,43.5228574,-114.3203236
1260,Woodside Boulevard,83333,43.5125543,-114.2957234
400,Main Street,83333,43.5167808,-114.3126676
731,CD Olena Drive,83333,43.5303458,-114.3098041
541,Northstar Drive,83333,43.5230313,-114.3219097
211,Alder Street,83333,43.5155679,-114.3157643
990,Foxmoor Drive,83333,43.5157193,-114.2994225
1451,Aviation Drive,83333,43.5072369,-114.3045610
2920,Woodside Boulevard,83333,43.4975389,-114.2821134
861,Countryside Boulevard,83333,43.5001301,-114.2867400
671,CD Olena Drive,83333,43.5291659,-114.3090104
310,Pocahontas Drive,83333,43.5208059,-114.3059439
829,Countryside Boulevard,83333,43.4998626,-114.2872610
440,Calumet Court,83333,43.5225267,-114.3201672
1431,Heroic Road,83333,43.5355050,-114.3187394
3350,Mountain Ash Drive,83333,43.4927764,-114.2798976
331,Pocahontas Drive,83333,43.5201454,-114.3061110
1850,Copper Ranch Lane,83333,43.5077102,-114.2899544
1830,Northridge Drive,83333,43.5391159,-114.3215742
2439,Winterhaven Drive,83333,43.5024328,-114.2854271
3740,Glenbrook Drive,83333,43.4892938,-114.2777226
1920,Heroic Road,83333,43.5403717,-114.3211939
228,Carbonate Drive,83333,43.5201279,-114.3194281
119,Myrtle Street,83333,43.5256110,-114.3171463
107,Main Street,83333,43.5191210,-114.3154691
4151,Black Oak Drive,83333,43.4859172,-114.2728282
625,Docs Hickory Drive,83333,43.5295165,-114.3079958
2528,Woodside Boulevard,83333,43.5010640,-114.2856588
2464,Windmill Way,83333,43.5007902,-114.2879466
360,Pocahontas Drive,83333,43.5199386,-114.3053181
160,San Badger Drive,83333,43.5239130,-114.3037220
116,Main Street,83333,43.5193091,-114.3146644
140,Havilland Way,83333,43.5020541,-114.2983342
820,Buckhorn Drive,83333,43.5179360,-114.2972256
710,Myrtle Street,83333,43.5277997,-114.3102109
419,Main Street,83333,43.5157855,-114.3129312
3910,Woodside Boulevard,83333,43.4885286,-114.2739098
232,Galena Drive,83333,43.5205672,-114.3186303
1250,Queen Of The Hills Drive,83333,43.5080533,-114.3071625
711,West Meadow Drive,83333,43.5419502,-114.3209430
1030,Triumph Drive,83333,43.5085835,-114.3132539
1030,Forest Bend Drive,83333,43.4895731,-114.2764146
1210,Wolftone Drive,83333,43.5075291,-114.3102793
1921,Electra Lane,83333,43.5019672,-114.3021305
551,Mother Lode Loop,83333,43.5273808,-114.3106890
631,Croy Street,83333,43.5222097,-114.3069057
2941,Woodside Boulevard,83333,43.4970120,-114.2824330
1411,Northridge Drive,83333,43.5344373,-114.3192383
821,Antelope Drive,83333,43.5118766,-114.2954843
416,Main Street,83333,43.5162884,-114.3124493
2150,Winterhaven Drive,83333,43.5048368,-114.2878015
3141,Shenandoah Drive,83333,43.4953356,-114.2802486
631,Deertrail Drive,83333,43.5188292,-114.3000189
110,San Badger Drive,83333,43.5228773,-114.3032338
131,Poulson Drive,83333,43.5183036,-114.3209196
1520,Blue Lake Drive,83333,43.5108970,-114.2925226
621,Croy Street,83333,43.5219816,-114.3072420
125,Walaneut Street,83333,43.5170791,-114.3164489
621,River Street,83333,43.5245126,-114.3213336
1150,Blue Lake Drive,83333,43.5142686,-114.2947075
960,CD Olena Drive,83333,43.5326046,-114.3101568
2448,Winterhaven Drive,83333,43.5022379,-114.2842934
2033,Briarwood Drive,83333,43.5040797,-114.2927873
2630,Woodside Boulevard,83333,43.5001642,-114.2843735
650,Kintail Drive,83333,43.5402583,-114.3198118
2820,Woodside Boulevard,83333,43.4981680,-114.2827086
109,Chestnut Street,83333,43.5140539,-114.3137527
440,Buckhorn Drive,83333,43.5222512,-114.2972700
2970,Beaver Brook Drive,83333,43.4966296,-114.2825238
1910,Winterhaven Drive,83333,43.5077224,-114.2884644
1031,CD Olena Drive,83333,43.5332873,-114.3115110
1341,Blue Lake Drive,83333,43.5125344,-114.2939038
1021,Foxmoor Drive,83333,43.5162129,-114.3003645
521,Docs Hickory Drive,83333,43.5284122,-114.3074569
251,Cedar Street,83333,43.5113298,-114.3137989
1441,Woodside Boulevard,83333,43.5105986,-114.2960670
260,Cedar Street,83333,43.5108329,-114.3132475
3031,Butterfly Drive,83333,43.4966772,-114.2807021
1921,Topolev Way,83333,43.5027154,-114.3001454
1010,Antler Drive,83333,43.5199110,-114.2997801
2424,Woodside Boulevard,83333,43.5021601,-114.2862001
1310,Baldy View Drive,83333,43.5113455,-114.2979996
740,Red Ash Drive,83333,43.5062864,-114.2922669
4311,Glenbrook Drive,83333,43.4870983,-114.2724630
303,Main Street,83333,43.5216059,-114.3173581
610,Docs Hickory Drive,83333,43.5293639,-114.3072499
1150,CD Olena Drive,83333,43.5347387,-114.3125594
111,Gulf Stream Lane,83333,43.5045732,-114.3040255
861,Silverstone Drive,83333,43.5085697,-114.2928104
1911,Copper Ranch Lane,83333,43.5072209,-114.2901266
941,Countryside Boulevard,83333,43.5004488,-114.2861191
520,Ivy Street,83333,43.5142358,-114.3151823
240,Chestnut Street,83333,43.5136645,-114.3139421
1721,Heroic Road,83333,43.5381468,-114.3200611
220,Alder Street,83333,43.5150670,-114.3156846
2160,Winterhaven Drive,83333,43.5046666,-114.2876428
119,Kintail Road,83333,43.5398352,-114.3205973
218,Walaneut Street,83333,43.5187982,-114.3104932
615,River Street,83333,43.5243613,-114.3208916
531,Willow Street,83333,43.5141634,-114.3147404
362,Little Indio Lane,83333,43.5199585,-114.3216262
1031,Silver Star Drive,83333,43.5091109,-114.3117042
395,Mother Lode Loop,83333,43.5261219,-114.3080885
520,Bullion Street,83333,43.5219942,-114.3086880
331,Sawmill Drive,83333,43.5162907,-114.3186418
940,Snowflake Drive,83333,43.4902831,-114.2777538
3110,Berrycreek Drive,83333,43.4968608,-114.2787143
320,Cranbrook Road,83333,43.5333621,-114.3189691
782,Main Street,83333,43.5136044,-114.3083568
1930,Heroic Road,83333,43.5406526,-114.3213307
91,Croy Street,83333,43.5196456,-114.3138018
1111,Red Elephant Drive,83333,43.5079044,-114.3124904
2476,Shenandoah Drive,83333,43.4999307,-114.2875749
1311,Aspen Valley Drive,83333,43.5125981,-114.2952533
1220,Airport Way,83333,43.5101966,-114.3045478
620,West Meadow Drive,83333,43.5410787,-114.3219919
4271,Glenbrook Drive,83333,43.4855440,-114.2715508
1875,Ridgerock Lane,83333,43.5055969,-114.2933137
651,Angela Drive,83333,43.5237713,-114.3235910
112,Main Street,83333,43.5194088,-114.3147402
1941,Winterhaven Drive,83333,43.5067557,-114.2892408
131,San Badger Drive,83333,43.5228904,-114.3039784
1221,Silver Star Drive,83333,43.5078118,-114.3099255
241,Eureka Drive,83333,43.5205112,-114.3075040
111,San Badger Drive,83333,43.5223933,-114.3037388
2523,Woodside Boulevard,83333,43.5010017,-114.2862911
3121,Glenbrook Drive,83333,43.4946228,-114.2836227
541,Willow Street,83333,43.5139739,-114.3145964
1511,Aspen Valley Drive,83333,43.5106387,-114.2942972
622,Main Street,83333,43.5255004,-114.3193740
1321,Snowfly Drive,83333,43.5061585,-114.3097258
3011,Woodside Boulevard,83333,43.4966650,-114.2820724
2940,Berrycreek Drive,83333,43.4983842,-114.2808889
1514,Quigley Farm Road,83333,43.5216942,-114.2935713
1151,Echo Hill Drive,83333,43.4965221,-114.2790975
1321,Blue Lake Drive,83333,43.5128994,-114.2942384
1999,Electra Lane,83333,43.5025192,-114.3002626
2529,Grange Way,83333,43.5007504,-114.2865088
1020,CD Olena Drive,83333,43.5334632,-114.3105423
1930,Copper Ranch Lane,83333,43.5068226,-114.2897411
421,Della Vista Drive,83333,43.5094194,-114.3142826
16,Croy Street,83333,43.5180765,-114.3155286
541,Mother Lode Loop,83333,43.5271540,-114.3108377
840,Jack Pine Drive,83333,43.5092256,-114.2939025
1310,Aspen Valley Drive,83333,43.5128995,-114.2947822
1340,Shadybrook Drive,83333,43.5111468,-114.2967754
210,Cranbrook Road,83333,43.5317747,-114.3200149
2660,Woodside Boulevard,83333,43.4998861,-114.2839716
1351,Blue Lake Drive,83333,43.5123273,-114.2937505
1939,Briarwood Drive,83333,43.5048807,-114.2935634
841,Eastridge Drive,83333,43.5160464,-114.3015624
731,Red Ash Drive,83333,43.5066963,-114.2942565
211,Galena Drive,83333,43.5198840,-114.3188343
3310,Woodside Boulevard,83333,43.4938460,-114.2796412
3051,Berrycreek Drive,83333,43.4968253,-114.2795607
12,Bullion Street,83333,43.5191509,-114.3159487
921,Foxmoor Drive,83333,43.5166368,-114.2981100
820,Quigley Road,83333,43.5215934,-114.3037039
621,Elm Street,83333,43.5188536,-114.3048004
441,Angela Drive,83333,43.5215304,-114.3224976
2950,Glenbrook Drive,83333,43.4962665,-114.2845698
140,Havilland Way,83333,43.5019381,-114.2992467
119,Pine Street,83333,43.5178501,-114.3111760
241,Cedar Street,83333,43.5114606,-114.3135420
3130,Shenandoah Drive,83333,43.4957874,-114.2802688
1761,Laurelwood Drive,83333,43.5087176,-114.2897035
721,Carbonate Street,83333,43.5242797,-114.3076326
181,Cranbrook Road,83333,43.5315450,-114.3216969
207,Carbonate Street,83333,43.5219006,-114.3134834
116,River Street,83333,43.5186031,-114.3157044
2321,Moonlight Drive,83333,43.5035607,-114.2861449
711,Whitetail Drive,83333,43.5189204,-114.2982706
1131,Echo Hill Drive,83333,43.4964556,-114.2797654
401,River Street,83333,43.5159588,-114.3146399
3261,Glenbrook Drive,83333,43.4932108,-114.2822546
921,Meadow Mountain Drive,83333,43.4885213,-114.2765893
302,Winterberry Loop,83333,43.5308424,-114.3183177
101,Bullion Street,83333,43.5205428,-114.3139818
450,Buckhorn Drive,83333,43.5219691,-114.2972674
2030,Briarwood Drive,83333,43.5049437,-114.2923736
3730,Woodside Boulevard,83333,43.4901414,-114.2748229
1821,Briarwood Drive,83333,43.5061642,-114.2948069
911,Antelope Drive,83333,43.5118608,-114.2951885
851,Winter Fox Lane,83333,43.4983042,-114.2853360
631,Croy Street,83333,43.5221178,-114.3067899
1120,Broadford Road,83333,43.5100611,-114.3076592
2010,Winterhaven Drive,83333,43.5064926,-114.2883088
750,Robin Hood Drive,83333,43.5120096,-114.3132046
841,Main Street,83333,43.5269985,-114.3216248
1011,Red Elephant Drive,83333,43.5092488,-114.3130707
3220,Woodside Boulevard,83333,43.4946117,-114.2804086
1780,Laurelwood Drive,83333,43.5091166,-114.2892536
306,Bluebird Court,83333,43.5209329,-114.3204087
1241,Blue Lake Drive,83333,43.5134469,-114.2947404
720,Deertrail Drive,83333,43.5186121,-114.2985834
140,Havilland Way,83333,43.5019391,-114.2993666
16,Croy Street,83333,43.5181726,-114.3154954
920,War Eagle Drive,83333,43.5089412,-114.3154694
520,McKercher Boulevard,83333,43.5321969,-114.3163997
3040,Shenandoah Drive,83333,43.4960209,-114.2830550
3111,Snow Bank Drive,83333,43.4949752,-114.2805520
1511,Baldy View Drive,83333,43.5091253,-114.2974134
920,Buckhorn Drive,83333,43.5160429,-114.2973811
611,Angela Drive,83333,43.5228827,-114.3231708
741,Doeskin Drive,83333,43.5176180,-114.3002469
3150,Glenbrook Drive,83333,43.4944056,-114.2826746
1531,Baldy View Drive,83333,43.5088932,-114.2969079
3230,Mountain Ash Drive,83333,43.4941891,-114.2812661
1550,Colibri Lane,83333,43.5061729,-114.3028485
860,Eastridge Drive,83333,43.5158370,-114.3006580
416,Main Street,83333,43.5162211,-114.3123981
821,Queen Of The Hills Drive,83333,43.5116838,-114.3117785
117,Chestnut Street,83333,43.5138278,-114.3134007
140,San Badger Drive,83333,43.5234746,-114.3035316
811,Chestnut Street,83333,43.5188780,-114.3021119
750,Buckhorn Drive,83333,43.5184845,-114.2972319
251,Elm Street,83333,43.5145547,-114.3161775
1120,Broadford Road,83333,43.5101663,-114.3074354
1311,Shadybrook Drive,83333,43.5108061,-114.2972764
411,War Eagle Drive,83333,43.5079093,-114.3129631
306,River Street,83333,43.5170790,-114.3145448
235,Walaneut Street,83333,43.5167458,-114.3174583
831,Winterhaven Drive,83333,43.5084191,-114.2933654
2820,Shenandoah Drive,83333,43.4976664,-114.2854650
403,River Street,83333,43.5222604,-114.3194326
140,Havilland Way,83333,43.5019387,-114.2993068
981,Silverstone Drive,83333,43.5090724,-114.2921044
4301,Glenbrook Drive,83333,43.4865385,-114.2712592
520,Shoshone Drive,83333,43.5189852,-114.3038427
911,War Eagle Drive,83333,43.5087920,-114.3163456
2430,Woodside Boulevard,83333,43.5017567,-114.2858092
103,Chestnut Street,83333,43.5143609,-114.3138988
630,Bonanza Lane,83333,43.5242982,-114.3084035
1930,Copper Ranch Lane,83333,43.5068720,-114.2896226
1921,Electra Lane,83333,43.5019689,-114.3015957
384,Mother Lode Loop,83333,43.5256610,-114.3084607
850,Shenandoah Drive,83333,43.5021108,-114.2879617
661,Con Virginia Lane,83333,43.5267848,-114.3096550
350,Grays Starlight Drive,83333,43.5277360,-114.3025081
520,Fox Acres Road,83333,43.5130597,-114.3016854
731,Bonanza Lane,83333,43.5250075,-114.3079638
611,Whitetail Drive,83333,43.5196947,-114.2995484
4301,Glenbrook Drive,83333,43.4866389,-114.2713830
140,Havilland Way,83333,43.5019372,-114.2986096
3120,Berrycreek Drive,83333,43.4967098,-114.2785384
191,Cranbrook Road,83333,43.5317483,-114.3215859
865,Heartland Way,83333,43.5003333,-114.2869013
1120,Antler Drive,83333,43.5207774,-114.2981747
620,Elm Street,83333,43.5183331,-114.3044746
250,Alder Street,83333,43.5147944,-114.3163601
640,Robin Hood Drive,83333,43.5132630,-114.3137514
2320,Winterhaven Drive,83333,43.5034773,-114.2863802
711,River Street,83333,43.5127784,-114.3124846
3041,Berrycreek Drive,83333,43.4969727,-114.2797296
751,Wintergreen Drive,83333,43.5119600,-114.2971691
1221,Snowfly Drive,83333,43.5073054,-114.3114731
1031,Sunrise Drive,83333,43.5147620,-114.2948333
4316,Glenbrook Drive,83333,43.4869567,-114.2732568
3241,Mountain Ash Drive,83333,43.4937793,-114.2816067
211,Sunbeam Street,83333,43.5258097,-114.3031092
330,Mother Lode Loop,83333,43.5249246,-114.3101742
740,Red Ash Drive,83333,43.5059799,-114.2927689
3750,Glenbrook Drive,83333,43.4892265,-114.2775422
3141,Snow Bank Drive,83333,43.4950471,-114.2794614
540,Angela Drive,83333,43.5228691,-114.3225211
1360,Queen Of The Hills Drive,83333,43.5068899,-114.3068373
750,Sunrise Drive,83333,43.5123564,-114.2973101
3260,Berrycreek Drive,83333,43.4949821,-114.2773875
409,River Street,83333,43.5157154,-114.3144545
810,Quigley Road,83333,43.5214969,-114.3040427
310,Main Street,83333,43.5222935,-114.3169337
2940,Butterfly Drive,83333,43.4975412,-114.2808850
128,Carbonate Street,83333,43.5193150,-114.3184552
641,River Street,83333,43.5133135,-114.3128382
1030,CD Olena Drive,83333,43.5337138,-114.3107008
830,CD Olena Drive,83333,43.5315021,-114.3094036
1540,Appaloosa Road,83333,43.5207888,-114.2920037
1030,Cherry Hill Drive,83333,43.4888615,-114.2758079
2181,Laurelwood Drive,83333,43.5056717,-114.2894328
1170,Aspen Valley Drive,83333,43.5139742,-114.2958150
411,Eureka Drive,83333,43.5192916,-114.3065759
200,Carbonate Drive,83333,43.5195518,-114.3189911
2030,Briarwood Drive,83333,43.5042525,-114.2918512
2910,Woodside Boulevard,83333,43.4976958,-114.2822654
307,Main Street,83333,43.5218460,-114.3175405
3021,Butterfly Drive,83333,43.4967557,-114.2808934
2473,Grange Way,83333,43.5011390,-114.2868850
1111,Queen Of The Hills Drive,83333,43.5090314,-114.3097164
13,Carbonate Street,83333,43.5204515,-114.3171098
3721,Woodside Boulevard,83333,43.4901548,-114.2757907
419,River Street,83333,43.5226926,-114.3197612
3420,Mountain Ash Drive,83333,43.4926195,-114.2797456
1921,Electra Lane,83333,43.5019572,-114.3010201
1811,Lear Lane,83333,43.5032890,-114.3020781
2140,Woodside Boulevard,83333,43.5045227,-114.2888583
3031,Berrycreek Drive,83333,43.4971203,-114.2798985
1420,Blue Lake Drive,83333,43.5118275,-114.2925249
360,Grays Starlight Drive,83333,43.5277721,-114.3030087
811,Buckhorn Drive,83333,43.5179427,-114.2979311
1141,Airport Way,83333,43.5097116,-114.3057032
1720,Northridge Drive,83333,43.5380027,-114.3205765
330,Walaneut Street,83333,43.5157328,-114.3179584
850,Shenandoah Drive,83333,43.5018630,-114.2890380
530,Fox Acres Road,83333,43.5131184,-114.3013729
1921,Electra Lane,83333,43.5019601,-114.3021947
1211,Creekside Drive,83333,43.5117065,-114.3003158
741,Willow Drive,83333,43.5086613,-114.2959980
870,Deerfield Drive,83333,43.5169242,-114.2986152
450,Mother Lode Loop,83333,43.5261419,-114.3106729
306,Main Street,83333,43.5176020,-114.3133656
4304,Glenbrook Drive,83333,43.4864385,-114.2722158
221,River Street,83333,43.5207428,-114.3182792
2861,Glenbrook Drive,83333,43.4976511,-114.2846813
1160,Echo Hill Drive,83333,43.4960878,-114.2787451
550,Shoshone Drive,83333,43.5183824,-114.3034874
2527,Winterhaven Drive,83333,43.5011675,-114.2848062
1311,Snowfly Drive,83333,43.5061557,-114.3102576
1720,Winterhaven Drive,83333,43.5087171,-114.2906557
850,Shenandoah Drive,83333,43.5018014,-114.2884785
613,Willow Drive,83333,43.5083733,-114.2965665
1040,Forest Bend Drive,83333,43.4895736,-114.2761886
4181,Glenbrook Drive,83333,43.4853183,-114.2729404
871,Eastridge Drive,83333,43.5155344,-114.3012780
3021,Woodside Boulevard,83333,43.4964684,-114.2819080
850,Shenandoah Drive,83333,43.5015928,-114.2888544
921,Cherry Hill Drive,83333,43.4892328,-114.2772689
3551,Glenbrook Drive,83333,43.4907454,-114.2798663
550,Eastridge Drive,83333,43.5193377,-114.3010912
770,Northstar Drive,83333,43.5253536,-114.3232685
100,Main Street,83333,43.5199537,-114.3151545
1960,Winterhaven Drive,83333,43.5066712,-114.2883194
710,Deerfield Drive,83333,43.5174538,-114.3017191
330,Cranbrook Road,83333,43.5335408,-114.3191141
631,Bonanza Lane,83333,43.5246743,-114.3087529
12,Galena Street,83333,43.5210278,-114.3175478
440,Eastridge Drive,83333,43.5199368,-114.3026935
41,Comet Lane,83333,43.5098642,-114.3068057
3150,Mountain Ash Drive,83333,43.4950150,-114.2824995
3341,Glenbrook Drive,83333,43.4925832,-114.2816466
531,Northstar Drive,83333,43.5227660,-114.3218624
1560,Baldy View Drive,83333,43.5096846,-114.2959326
3170,Glenbrook Drive,83333,43.4940919,-114.2823706
1930,Electra Lane,83333,43.5022564,-114.3015726
2911,Butterfly Drive,83333,43.4978539,-114.2819576
1860,Ridgerock Lane,83333,43.5059817,-114.2931340
1943,Briarwood Drive,83333,43.5046885,-114.2933773
421,Aspen Drive,83333,43.5144366,-114.3176339
2449,Grange Way,83333,43.5013947,-114.2871330
610,Bonanza Lane,83333,43.5240409,-114.3089650
441,Winterberry Loop,83333,43.5296284,-114.3188685
540,Whitetail Drive,83333,43.5202003,-114.2992689
233,Galena Drive,83333,43.5203321,-114.3191744
380,Mother Lode Loop,83333,43.5255176,-114.3087392
1021,Cherry Creek Drive,83333,43.4914416,-114.2779305
410,Eureka Drive,83333,43.5195501,-114.3060782
240,San Badger Drive,83333,43.5260811,-114.3036325
711,Myrtle Street,83333,43.5283685,-114.3106466
720,Robin Hood Drive,83333,43.5125736,-114.3134492
1431,Woodside Boulevard,83333,43.5108506,-114.2961868
1921,Copper Ranch Lane,83333,43.5068842,-114.2901721
941,Forest Bend Drive,83333,43.4900095,-114.2774551
441,Whitetail Drive,83333,43.5205376,-114.3006918
1750,Heroic Road,83333,43.5391717,-114.3192287
1141,Northridge Drive,83333,43.5324586,-114.3173792
51,Cobblestone Lane,83333,43.5280269,-114.3204676
220,Cranbrook Road,83333,43.5319049,-114.3196651
810,Chestnut Street,83333,43.5184366,-114.3019005
831,Winterhaven Drive,83333,43.5081546,-114.2934064
220,Poulson Drive,83333,43.5192234,-114.3211454
621,Angela Drive,83333,43.5231537,-114.3232915
850,Shenandoah Drive,83333,43.5020779,-114.2879616
16,Bullion Street,83333,43.5198139,-114.3143336
931,Buckskin Drive,83333,43.5216518,-114.3018234
5,Galena Street,83333,43.5219156,-114.3166465
950,CD Olena Drive,83333,43.5323348,-114.3100359
1511,Northridge Drive,83333,43.5356090,-114.3203168
2340,Moonlight Drive,83333,43.5026948,-114.2867930
890,Deerfield Drive,83333,43.5168957,-114.2978616
1221,Wolftone Drive,83333,43.5070398,-114.3101735
1241,Queen Of The Hills Drive,83333,43.5077297,-114.3078144
3021,Berrycreek Drive,83333,43.4972677,-114.2800674
311,Bullion Street,83333,43.5214533,-114.3115672
410,Willow Street,83333,43.5157348,-114.3152341
1830,Copper Ranch Lane,83333,43.5079346,-114.2906251
1141,Airport Way,83333,43.5099825,-114.3054833
227,Galena Drive,83333,43.5202145,-114.3190852
1130,Silver Star Drive,83333,43.5084961,-114.3097729
621,Northstar Drive,83333,43.5237180,-114.3223584
2851,Glenbrook Drive,83333,43.4978191,-114.2843587
951,Foxmoor Drive,83333,43.5166404,-114.2989579
1330,Blue Lake Drive,83333,43.5129072,-114.2934074
1921,Laurelwood Drive,83333,43.5075009,-114.2880060
1521,Woodside Boulevard,83333,43.5100061,-114.2957145
930,White Cloud Lane,83333,43.5076098,-114.2908539
850,Shenandoah Drive,83333,43.5022683,-114.2875125
3331,Glenbrook Drive,83333,43.4927401,-114.2817986
2507,Winterhaven Drive,83333,43.5015779,-114.2850970
3020,Butterfly Drive,83333,43.4970781,-114.2804044
3341,Mountain Ash Drive,83333,43.4926804,-114.2805419
861,Jack Pine Drive,83333,43.5094868,-114.2938222
101,Bullion Street,83333,43.5204347,-114.3139713
300,Bullion Street,83333,43.5177391,-114.3191685
2841,Butterfly Drive,83333,43.4981677,-114.2822616
921,White Cloud Lane,83333,43.5073898,-114.2913727
1231,Woodside Boulevard,83333,43.5126100,-114.2967115
851,Silverstone Drive,83333,43.5084991,-114.2927498
721,Whitetail Drive,83333,43.5188682,-114.2978925
203,River Street,83333,43.5177465,-114.3160008
711,Angela Drive,83333,43.5240000,-114.3237446
1011,Antelope Drive,83333,43.5121581,-114.2941024
431,Golconda Drive,83333,43.5258836,-114.3104767
641,Bonanza Lane,83333,43.5247818,-114.3084859
2940,Glenbrook Drive,83333,43.4964979,-114.2847557
510,Willow Street,83333,43.5148024,-114.3142298
520,Docs Hickory Drive,83333,43.5285149,-114.3068280
541,Robin Hood Drive,83333,43.5115325,-114.3143047
720,Angela Drive,83333,43.5242959,-114.3232026
1430,Northridge Drive,83333,43.5347909,-114.3187466
516,Main Street,83333,43.5242731,-114.3186026
241,Cranbrook Road,83333,43.5323907,-114.3197126
1820,Lear Lane,83333,43.5033008,-114.3015133
150,Merlin Loop,83333,43.5044507,-114.3029203
410,Pine Street,83333,43.5188663,-114.3074903
1431,Baldy View Drive,83333,43.5098409,-114.2977523
1450,Shadybrook Drive,83333,43.5100971,-114.2961796
260,Sunbeam Street,83333,43.5259734,-114.3024918
441,Deertrail Drive,83333,43.5202084,-114.3022065
3340,Mountain Ash Drive,83333,43.4929333,-114.2800496
611,Carbonate Street,83333,43.5238129,-114.3087917
540,Mother Lode Loop,83333,43.5267154,-114.3104668
510,San Badger Drive,83333,43.5291754,-114.3047953
1231,Buckskin Drive,83333,43.5223722,-114.2979136
1920,Winterhaven Drive,83333,43.5074895,-114.2884616
855,Countryside Boulevard,83333,43.5000214,-114.2869516
2950,Butterfly Drive,83333,43.4973864,-114.2807241
340,Primrose Lane,83333,43.5326965,-114.3197454
1010,Silver Star Drive,83333,43.5099714,-114.3112735
631,Myrtle Street,83333,43.5281488,-114.3111324
821,Aspen Valley Drive,83333,43.5141006,-114.2983859
230,Myrtle Street,83333,43.5229558,-114.3222128
840,Aspen Valley Drive,83333,43.5139463,-114.2968523
1730,Lear Lane,83333,43.5040273,-114.3033322
1060,Forest Bend Drive,83333,43.4896388,-114.2756856
1561,Baldy View Drive,83333,43.5093072,-114.2956759
431,Della Vista Drive,83333,43.5092998,-114.3145794
2220,Woodside Boulevard,83333,43.5038827,-114.2882383
2251,Winterhaven Drive,83333,43.5035858,-114.2874437
1611,Briarwood Drive,83333,43.5077358,-114.2963299
1250,Snowfly Drive,83333,43.5068039,-114.3105741
1040,Silver Star Drive,83333,43.5092723,-114.3107832
2444,Winterhaven Drive,83333,43.5026151,-114.2843910
1520,Heroic Road,83333,43.5363279,-114.3184273
341,Cranbrook Road,83333,43.5333808,-114.3201261
1820,Winterhaven Drive,83333,43.5083893,-114.2895765
660,Kintail Drive,83333,43.5405457,-114.3199443
940,Eastridge Drive,83333,43.5152676,-114.3003284
811,White Cloud Lane,83333,43.5068922,-114.2920103
2750;2780;2790;2760;2770,Serenity Place,83333,43.5001934,-114.2825281
2031,Winterhaven Drive,83333,43.5058862,-114.2893279
641,Whitetail Drive,83333,43.5191286,-114.2988835
850,Shenandoah Drive,83333,43.5021105,-114.2880446
1830,Copper Ranch Lane,83333,43.5079020,-114.2905068
1411,Baldy View Drive,83333,43.5102430,-114.2979939
3671,Woodside Boulevard,83333,43.4904031,-114.2760889
1121,Woodside Boulevard,83333,43.5135491,-114.2990842
2545,Woodside Boulevard,83333,43.5008337,-114.2861283
3311,Flowing Wells Drive,83333,43.4941812,-114.2788092
910,Ponderosa Drive,83333,43.5090682,-114.2932288
2931,Glenbrook Drive,83333,43.4965764,-114.2854650
1141,Broadford Road,83333,43.5089428,-114.3079136
360,West Meadow Drive,83333,43.5390826,-114.3248263
1710,Laurelwood Drive,83333,43.5093173,-114.2917477
1550,Baldy View Drive,83333,43.5095192,-114.2964896
1921,Heroic Road,83333,43.5399630,-114.3217591
351,Eastridge Drive,83333,43.5205408,-114.3042693
404,Bluebird Court,83333,43.5215282,-114.3204099
1151,War Eagle Drive,83333,43.5069284,-114.3134099
750,Bonanza Lane,83333,43.5252578,-114.3075172
40,Comet Lane,83333,43.5095684,-114.3064224
951,Eastridge Drive,83333,43.5147167,-114.2997856
1031,Cherry Creek Drive,83333,43.4914528,-114.2776474
931,Eastridge Drive,83333,43.5147001,-114.3006590
311,Cedar Street,83333,43.5148361,-114.3062134
351,Robin Hood Drive,83333,43.5125037,-114.3160135
830,Winter Fox Lane,83333,43.4978281,-114.2853450
12,Elm Street,83333,43.5153034,-114.3131934
321,Grays Starlight Drive,83333,43.5267769,-114.3038829
261,Cranbrook Road,83333,43.5325440,-114.3191288
204,Carbonate Drive,83333,43.5196405,-114.3190585
2525,Woodside Boulevard,83333,43.5009487,-114.2862399
1410,Blue Lake Drive,83333,43.5122096,-114.2927687
220,War Eagle Drive,83333,43.5082416,-114.3110139
830,Silver Star Drive,83333,43.5112254,-114.3121236
1311,Silver Star Drive,83333,43.5070564,-114.3087275
610,Main Street,83333,43.5252057,-114.3191505
540,Buckhorn Drive,83333,43.5209279,-114.2972580
1261,Snowfly Drive,83333,43.5062093,-114.3107665
3091,Shenandoah Drive,83333,43.4954198,-114.2815926
891,Silverstone Drive,83333,43.5088593,-114.2929172
3144,Snow Bank Drive,83333,43.4940904,-114.2792230
2845,Shenandoah Drive,83333,43.4970319,-114.2851833
1331,Northridge Drive,83333,43.5338689,-114.3189052
415,Galena Street,83333,43.5240490,-114.3114417
231,Pocahontas Drive,83333,43.5210238,-114.3068008
430,Eureka Drive,83333,43.5191359,-114.3057632
416,Silver Street,83333,43.5245288,-114.3118063
1030,Woodside Boulevard,83333,43.5141912,-114.2994467
560,River Trail,83333,43.5223185,-114.3234296
231,Elm Street,83333,43.5147373,-114.3157246
859,Countryside Boulevard,83333,43.5000720,-114.2868531
850,Ponderosa Drive,83333,43.5089082,-114.2934076
2030,Briarwood Drive,83333,43.5046122,-114.2919916
1040,CD Olena Drive,83333,43.5339637,-114.3109198
840,Ponderosa Drive,83333,43.5088282,-114.2934978
941,Cherry Creek Drive,83333,43.4914323,-114.2788517
300,Chestnut Street,83333,43.5132477,-114.3150685
820,Silver Star Drive,83333,43.5114848,-114.3122685
701,River Street,83333,43.5246486,-114.3214593
741,Willow Drive,83333,43.5089547,-114.2954201
651,Con Virginia Lane,83333,43.5266938,-114.3099419
1141,Baldy View Drive,83333,43.5126767,-114.2994578
1923,Briarwood Drive,83333,43.5053081,-114.2939772
2601,Winterhaven Drive,83333,43.5008316,-114.2838873
3221,Woodside Boulevard,83333,43.4945041,-114.2811102
1930,Copper Ranch Lane,83333,43.5067806,-114.2896521
2930,Shenandoah Drive,83333,43.4970886,-114.2841619
851,Countryside Boulevard,83333,43.4999564,-114.2870782
720,Northstar Drive,83333,43.5247018,-114.3221724
811,Quigley Road,83333,43.5222488,-114.3043288
503,Main Street,83333,43.5235061,-114.3188013
1921,Electra Lane,83333,43.5019588,-114.3012116
3431,Woodside Boulevard,83333,43.4925402,-114.2793256
3421,Glenbrook Drive,83333,43.4919555,-114.2810387
415,Elm Street,83333,43.5182664,-114.3070334
16,Croy Street,83333,43.5180436,-114.3154941
541,Buckhorn Drive,83333,43.5204782,-114.2978783
3160,Woodside Boulevard,83333,43.4953498,-114.2810025
1221,Aspen Valley Drive,83333,43.5135406,-114.2960486
2550,Woodside Boulevard,83333,43.5007257,-114.2852139
531,Calumet Way,83333,43.5229901,-114.3208596
420,Robin Hood Drive,83333,43.5118297,-114.3159212
1210,Creekside Drive,83333,43.5119367,-114.2997916
510,McKercher Boulevard,83333,43.5318971,-114.3164771
16,Croy Street,83333,43.5179211,-114.3153765
921,Buckskin Drive,83333,43.5215798,-114.3022072
740,Red Ash Drive,83333,43.5064294,-114.2930506
610,Croy Street,83333,43.5214118,-114.3071065
1530,Blue Lake Drive,83333,43.5105816,-114.2925244
950,Eastridge Drive,83333,43.5150723,-114.3002146
610,Eastridge Drive,83333,43.5190378,-114.3009480
1940,Copper Ranch Lane,83333,43.5066243,-114.2897040
1120,Broadford Road,83333,43.5102654,-114.3066507
3080,Shenandoah Drive,83333,43.4958529,-114.2819458
3671,Glenbrook Drive,83333,43.4894005,-114.2785638
131,Gulf Stream Lane,83333,43.5045881,-114.3034145
710,River Street,83333,43.5133071,-114.3118043
1020,Airport Way,83333,43.5120628,-114.3058465
1551,Colibri Lane,83333,43.5060998,-114.3032503
315,Bullion Street,83333,43.5216771,-114.3111087
126,Main Street,83333,43.5190298,-114.3144517
2221,Winterhaven Drive,83333,43.5040565,-114.2878996
220,Sunbeam Street,83333,43.5250270,-114.3023347
201,Sunbeam Street,83333,43.5256277,-114.3030642
1740,Northridge Drive,83333,43.5384847,-114.3208345
920,White Cloud Lane,83333,43.5072676,-114.2909882
1120,Broadford Road,83333,43.5102240,-114.3066084
960,Main Street,83333,43.5129398,-114.3059427
231,Walaneut Street,83333,43.5167791,-114.3172677
1050,Cherry Hill Drive,83333,43.4888626,-114.2753559
1110,Echo Hill Drive,83333,43.4960404,-114.2801673
811,CD Olena Drive,83333,43.5306196,-114.3099341
2230,Winterhaven Drive,83333,43.5043437,-114.2873400
1420,Heroic Road,83333,43.5353393,-114.3177235
1010,Antelope Drive,83333,43.5118291,-114.2937887
417,Main Street,83333,43.5231246,-114.3185124
1910,Copper Ranch Lane,83333,43.5073232,-114.2896330
610,Myrtle Street,83333,43.5274272,-114.3112939
341,Eureka Drive,83333,43.5195158,-114.3067465
3360,Flowing Wells Drive,83333,43.4934519,-114.2782151
101,Bullion Street,83333,43.5205042,-114.3141252
218,Carbonate Drive,83333,43.5199252,-114.3192744
3060,Berrycreek Drive,83333,43.4970064,-114.2788863
731,Wintergreen Drive,83333,43.5114157,-114.2974329
1420,Aspen Valley Drive,83333,43.5116471,-114.2936964
3250,Woodside Boulevard,83333,43.4941598,-114.2799461
2522,Windmill Way,83333,43.5003451,-114.2875154
823,Countryside Boulevard,83333,43.4997866,-114.2874089
1330,Queen Of The Hills Drive,83333,43.5075307,-114.3063662
1040,Airport Way,83333,43.5113300,-114.3055365
1931,Winterhaven Drive,83333,43.5069758,-114.2892137
517,Pine Street,83333,43.5193455,-114.3078572
1631,Northridge Drive,83333,43.5371255,-114.3211391
921,Queen Of The Hills Drive,83333,43.5107107,-114.3113179
1040,Snowflake Drive,83333,43.4902856,-114.2767466
2650,Woodside Boulevard,83333,43.5000992,-114.2840703
920,Silver Star Drive,83333,43.5105523,-114.3117119
341,Cedar Street,83333,43.5108064,-114.3150050
1041,Queen Of The Hills Drive,83333,43.5093720,-114.3102358
541,Aspen Drive,83333,43.5130054,-114.3167561
160,Sunbeam Street,83333,43.5234888,-114.3023672
100,Hiawatha Drive,83333,43.5279047,-114.3127429
516,River Street,83333,43.5149074,-114.3128923
309,Main Street,83333,43.5170570,-114.3138992
921,White Cloud Lane,83333,43.5074504,-114.2914554
1131,Silver Star Drive,83333,43.5080314,-114.3101730
641,Croy Street,83333,43.5223375,-114.3064369
4171,Glenbrook Drive,83333,43.4853467,-114.2731909
811,White Cloud Lane,83333,43.5067965,-114.2919929
2250,Winterhaven Drive,83333,43.5040264,-114.2870428
208,Croy Street,83333,43.5170946,-114.3173241
710,Sunrise Drive,83333,43.5115792,-114.2981381
650,Con Virginia Lane,83333,43.5262618,-114.3096921
212,Carbonate Drive,83333,43.5197973,-114.3191774
1010,Buckskin Drive,83333,43.5213740,-114.3008721
315,River Street,83333,43.5163625,-114.3148824
400,Main Street,83333,43.5167281,-114.3127999
2030,Briarwood Drive,83333,43.5047924,-114.2920324
961,Cherry Creek Drive,83333,43.4914335,-114.2783997
451,Deertrail Drive,83333,43.5201013,-114.3019008
770,Eastridge Drive,83333,43.5162871,-114.3007909
751,Angela Drive,83333,43.5249552,-114.3244112
1020,Cutters Drive,83333,43.5301523,-114.3065411
330,Pocahontas Drive,83333,43.5203619,-114.3056248
830,Fox Acres Road,83333,43.5144292,-114.2985007
1061,Mountain Drive,83333,43.4869109,-114.2744764
909,Countryside Boulevard,83333,43.5003550,-114.2863020
721,Hailey Drive,83333,43.5201151,-114.3040226
710,Kintail Drive,83333,43.5417118,-114.3204654
921,Buckhorn Drive,83333,43.5161473,-114.2979535
120,Havilland Way,83333,43.5019594,-114.2996321
221,Alder Street,83333,43.5154507,-114.3159770
1141,Airport Way,83333,43.5097605,-114.3057599
940,Myrtle Street,83333,43.5278792,-114.3060411
510,Ivy Street,83333,43.5144262,-114.3153257
16,Croy Street,83333,43.5180845,-114.3155088
300,Sunbeam Street,83333,43.5267688,-114.3027056
3310,Flowing Wells Drive,83333,43.4944127,-114.2782031
3030,Beaver Brook Drive,83333,43.4962654,-114.2821709
221,War Eagle Drive,83333,43.5086764,-114.3113585
721,Angela Drive,83333,43.5242066,-114.3239026
1130,CD Olena Drive,83333,43.5346005,-114.3116389
941,Foxmoor Drive,83333,43.5166391,-114.2986756
3161,Shenandoah Drive,83333,43.4953235,-114.2797212
550,Mother Lode Loop,83333,43.5269720,-114.3102718
1030,Airport Way,83333,43.5117661,-114.3055789
1010,Business Park Drive,83333,43.5110029,-114.3082146
1885,Ridgerock Lane,83333,43.5054745,-114.2934867
827,Countryside Boulevard,83333,43.4998372,-114.2873103
3260,Flowing Wells Drive,83333,43.4945965,-114.2782124
2971,Berrycreek Drive,83333,43.4977140,-114.2805805
140,Havilland Way,83333,43.5020730,-114.2984271
761,Sunrise Drive,83333,43.5127665,-114.2976965
1321,Aspen Valley Drive,83333,43.5124155,-114.2950863
234,Carbonate Drive,83333,43.5202454,-114.3195173
1531,Colibri Lane,83333,43.5063800,-114.3033466
2210,Woodside Boulevard,83333,43.5040396,-114.2883903
211,Silver Street,83333,43.5233424,-114.3161556
1140,Creekside Drive,83333,43.5123301,-114.3000610
1041,Forest Bend Drive,83333,43.4900122,-114.2763249
1621,Heroic Road,83333,43.5373700,-114.3197297
640,Shoshone Drive,83333,43.5176739,-114.3032190
1021,Sunrise Drive,83333,43.5147665,-114.2952102
1141,Airport Way,83333,43.5101109,-114.3052404
821,Silver Star Drive,83333,43.5109736,-114.3128234
201,Cranbrook Road,83333,43.5317802,-114.3211149
621,West Meadow Drive,83333,43.5420302,-114.3228030
1131,Broadford Road,83333,43.5091706,-114.3081260
2581,Winterhaven Drive,83333,43.5009318,-114.2839982
2891,Beaver Brook Drive,83333,43.4972734,-114.2838852
970,Myrtle Street,83333,43.5276310,-114.3059216
581,Aspen Drive,83333,43.5129912,-114.3158873
2465,Winterhaven Drive,83333,43.5017602,-114.2852256
3010,Glenbrook Drive,83333,43.4958854,-114.2842005
863,Heartland Way,83333,43.5002392,-114.2869715
330,Cottonwood Street,83333,43.5151213,-114.3174925
740,Buckhorn Drive,83333,43.5187040,-114.2972345
101,Bullion Street,83333,43.5203963,-114.3140256
161,Cranbrook Road,83333,43.5309592,-114.3216062
1610,Heroic Road,83333,43.5370917,-114.3188503
4151,Glenbrook Drive,83333,43.4854685,-114.2736526
940,CD Olena Drive,83333,43.5329932,-114.3096496
831,Winter Fox Lane,83333,43.4981334,-114.2856685
730,Buckhorn Drive,83333,43.5189234,-114.2972370
741,Willow Drive,83333,43.5085405,-114.2962267
111,River Street,83333,43.5186276,-114.3167088
1230,Airport Way,83333,43.5103301,-114.3042463
911,Cherry Creek Drive,83333,43.4913835,-114.2796310
3230,Glenbrook Drive,83333,43.4939350,-114.2822186
2811,Glenbrook Drive,83333,43.4986968,-114.2826498
531,Deertrail Drive,83333,43.5197395,-114.3009578
416,Main Street,83333,43.5163011,-114.3124164
3191,Mountain Ash Drive,83333,43.4942499,-114.2820628
3240,Woodside Boulevard,83333,43.4943166,-114.2800986
320,Willow Street,83333,43.5162628,-114.3156356
1850,Copper Ranch Lane,83333,43.5076994,-114.2899455
1631,Heroic Road,83333,43.5376142,-114.3198376
1510,Northridge Drive,83333,43.5357400,-114.3193586
3331,Flowing Wells Drive,83333,43.4938403,-114.2788136
1010,Quigley Road,83333,43.5220088,-114.3014999
140,Havilland Way,83333,43.5019321,-114.2987064
630,Buckhorn Drive,83333,43.5201453,-114.2972504
1141,Airport Way,83333,43.5101624,-114.3052918
1821,Heroic Road,83333,43.5392406,-114.3210166
330,War Eagle Drive,83333,43.5075865,-114.3117239
920,White Cloud Lane,83333,43.5073605,-114.2909430
921,Silverstone Drive,83333,43.5090220,-114.2926344
2474,Shenandoah Drive,83333,43.5000371,-114.2876781
2670,Woodside Boulevard,83333,43.4997373,-114.2842612
704,River Street,83333,43.5251493,-114.3209016
1640,Northridge Drive,83333,43.5374894,-114.3203346
610,CD Olena Drive,83333,43.5289279,-114.3081660
1810,Copper Ranch Lane,83333,43.5079663,-114.2912527
4305,Glenbrook Drive,83333,43.4868203,-114.2719050
515,River Street,83333,43.5236319,-114.3203634
1030,Business Park Drive,83333,43.5103783,-114.3073449
380,Little Indio Lane,83333,43.5196197,-114.3210923
1630,Aviation Drive,83333,43.5056384,-114.3027395
1920,Copper Ranch Lane,83333,43.5071125,-114.2896740
2476,Windmill Way,83333,43.5007266,-114.2878850
1730,Lear Lane,83333,43.5040302,-114.3032128
1261,Blue Lake Drive,83333,43.5130819,-114.2944057
320,Eastridge Drive,83333,43.5212582,-114.3039137
905,Countryside Boulevard,83333,43.5003044,-114.2864005
211,Poulson Drive,83333,43.5188603,-114.3210451
340,Cedar Street,83333,43.5102930,-114.3146993
202,Carbonate Drive,83333,43.5196059,-114.3190173
108,Hiawatha Drive,83333,43.5286557,-114.3108098
550,Calumet Way,83333,43.5234820,-114.3207415
930,Cherry Creek Drive,83333,43.4909939,-114.2786967
731,Carbonate Street,83333,43.5243930,-114.3073507
1210,Quigley Road,83333,43.5225417,-114.2986698
520,San Badger Drive,83333,43.5295289,-114.3048796
451,Robin Hood Drive,83333,43.5114641,-114.3167816
1230,Queen Of The Hills Drive,83333,43.5083472,-114.3078216
1931,Copper Ranch Lane,83333,43.5067460,-114.2902251
3030,Glenbrook Drive,83333,43.4955778,-114.2837468
621,River Trail,83333,43.5223619,-114.3243885
237,Galena Drive,83333,43.5204209,-114.3192417
216,Spruce Street,83333,43.5245492,-114.3148688
1921,Electra Lane,83333,43.5019635,-114.3017462
16,Croy Street,83333,43.5179190,-114.3153743
3520,Berrycreek Drive,83333,43.4919675,-114.2771868
4160,Glenbrook Drive,83333,43.4857334,-114.2728753
230,Sunbeam Street,83333,43.5252590,-114.3023196
504,Main Street,83333,43.5156341,-114.3118680
631,Elm Street,83333,43.5189227,-114.3044712
961,Foxmoor Drive,83333,43.5166416,-114.2992401
3460,Glenbrook Drive,83333,43.4913835,-114.2798615
212,Galena Drive,83333,43.5201055,-114.3182797
450,Deertrail Drive,83333,43.5204436,-114.3013792
940,Winter Fox Lane,83333,43.4982967,-114.2844156
840,Winter Fox Lane,83333,43.4979173,-114.2851547
831,Winterhaven Drive,83333,43.5085148,-114.2932971
1971,Electra Lane,83333,43.5019644,-114.3003772
1865,Ridgerock Lane,83333,43.5057164,-114.2935172
1311,Queen Of The Hills Drive,83333,43.5075942,-114.3074813
340,War Eagle Drive,83333,43.5074651,-114.3120226
320,Main Street,83333,43.5170982,-114.3129819
511,Deerwood Drive,83333,43.5209349,-114.2995407
1841,Laurelwood Drive,83333,43.5080822,-114.2882331
3041,Butterfly Drive,83333,43.4964615,-114.2806701
821,White Cloud Lane,83333,43.5069702,-114.2918384
104,Walaneut Street,83333,43.5168086,-114.3154483
1050,Triumph Drive,83333,43.5079846,-114.3133894
391,Winterberry Loop,83333,43.5302156,-114.3193945
1620,Northridge Drive,83333,43.5369597,-114.3200673
118,Main Street,83333,43.5204814,-114.3155560
262,Winterberry Loop,83333,43.5300813,-114.3179068
3213,Shenandoah Drive,83333,43.4953163,-114.2786390
2526,Woodside Boulevard,83333,43.5011290,-114.2855379
2511,Grange Way,83333,43.5009477,-114.2866999
851,Ponderosa Drive,83333,43.5092025,-114.2937520
131,Sunbeam Street,83333,43.5235206,-114.3031286
3020,Beaver Brook Drive,83333,43.4964503,-114.2823501
731,Doeskin Drive,83333,43.5178785,-114.3002447
811,Queen Of The Hills Drive,83333,43.5119561,-114.3118850
1040,Sunrise Drive,83333,43.5141783,-114.2943042
2472,Shenandoah Drive,83333,43.5001150,-114.2877536
2459,Woodside Boulevard,83333,43.5014524,-114.2867278
901,Countryside Boulevard,83333,43.5002210,-114.2865629
402,River Street,83333,43.5224085,-114.3185972
313,Main Street,83333,43.5219661,-114.3176318
640,Tyee Street,83333,43.5211531,-114.3057626
3050,Butterfly Drive,83333,43.4965188,-114.2800541
1011,Snowflake Drive,83333,43.4907221,-114.2776922
3851,Glenbrook Drive,83333,43.4880557,-114.2772610
930,Silver Star Drive,83333,43.5103330,-114.3115552
361,West Meadow Drive,83333,43.5399722,-114.3254172
520,CD Olena Drive,83333,43.5285305,-114.3079656
1311,Creekside Drive,83333,43.5108549,-114.2993605
2517,Woodside Boulevard,83333,43.5011093,-114.2863954
690,Kintail Drive,83333,43.5413805,-114.3203336
440,River Trail,83333,43.5207067,-114.3226296
4312,Glenbrook Drive,83333,43.4868071,-114.2729987
540,River Trail,83333,43.5217754,-114.3231768
2512,Woodside Boulevard,83333,43.5014864,-114.2858844
1635,Briarwood Drive,83333,43.5073576,-114.2959633
930,Winter Fox Lane,83333,43.4982019,-114.2846004
2320,Moonlight Drive,83333,43.5029424,-114.2863111
1221,Blue Lake Drive,83333,43.5138124,-114.2950756
3530,Berrycreek Drive,83333,43.4918921,-114.2773412
1510,Quigley Farm Road,83333,43.5216661,-114.2939911
217,Croy Street,83333,43.5176832,-114.3180644
1041,Silver Star Drive,83333,43.5089619,-114.3115020
740,Red Ash Drive,83333,43.5065433,-114.2926497
170,Cranbrook Road,83333,43.5306980,-114.3208742
1251,Aspen Valley Drive,83333,43.5129630,-114.2955880
630,Fox Acres Road,83333,43.5138151,-114.3000224
630,West Meadow Drive,83333,43.5414389,-114.3220852
1011,Foxmoor Drive,83333,43.5165213,-114.3003772
3731,Glenbrook Drive,83333,43.4891316,-114.2783032
1111,CD Olena Drive,83333,43.5338391,-114.3118935
1911,Copper Ranch Lane,83333,43.5072201,-114.2900997
1911,Copper Ranch Lane,83333,43.5071356,-114.2901325
811,Aspen Valley Drive,83333,43.5138168,-114.2984423
620,Myrtle Street,83333,43.5276305,-114.3108883
1851,Copper Ranch Lane,83333,43.5073510,-114.2902357
2350,Moonlight Drive,83333,43.5025477,-114.2870141
671,Con Virginia Lane,83333,43.5269811,-114.3094248
3241,Glenbrook Drive,83333,43.4935245,-114.2825586
630,Northstar Drive,83333,43.5240565,-114.3218235
2121,Winterhaven Drive,83333,43.5050255,-114.2888083
1120,Baldy View Drive,83333,43.5131297,-114.2990480
320,Eureka Drive,83333,43.5202273,-114.3065932
2030,Briarwood Drive,83333,43.5042435,-114.2920776
1730,Lear Lane,83333,43.5040241,-114.3034546
811,Wintergreen Drive,83333,43.5121842,-114.2969980
521,Willow Street,83333,43.5143552,-114.3148860
2450,Shenandoah Drive,83333,43.5008416,-114.2884115
1211,Wolftone Drive,83333,43.5070724,-114.3105255
821,Buckskin Drive,83333,43.5213179,-114.3035938
3430,Flowing Wells Drive,83333,43.4926257,-114.2784228
931,White Cloud Lane,83333,43.5076088,-114.2913723
1541,Appaloosa Road,83333,43.5214072,-114.2928333
1911,Lear Lane,83333,43.5028013,-114.3011611
3741,Glenbrook Drive,83333,43.4889971,-114.2781729
1120,Broadford Road,83333,43.5103115,-114.3067079
821,Ponderosa Drive,83333,43.5088974,-114.2940045
250,Sunbeam Street,83333,43.5257663,-114.3024577
1725,Briarwood Drive,83333,43.5069698,-114.2955876
251,Carbonate Drive,83333,43.5199113,-114.3200800
920,Buckskin Drive,83333,43.5210805,-114.3020855
416,Main Street,83333,43.5162561,-114.3123832
309,Spruce Street,83333,43.5253305,-114.3143867
1961,Electra Lane,83333,43.5019696,-114.3007645
780,Northstar Drive,83333,43.5252871,-114.3236149
3820,Woodside Boulevard,83333,43.4898051,-114.2743426
516,Main Street,83333,43.5243678,-114.3186913
1421,Baldy View Drive,83333,43.5100420,-114.2978731
1331,Blue Lake Drive,83333,43.5127169,-114.2940710
1430,Heroic Road,83333,43.5355590,-114.3180195
1921,Copper Ranch Lane,83333,43.5069334,-114.2900541
2630,Woodside Boulevard,83333,43.5001992,-114.2843052
210,Galena Drive,83333,43.5200665,-114.3182499
1130,Wolftone Drive,83333,43.5078216,-114.3105303
850,Shenandoah Drive,83333,43.5022197,-114.2889242
13,Spruce Street,83333,43.5239725,-114.3175833
630,Deertrail Drive,83333,43.5190682,-114.2994267
551,Robin Hood Drive,83333,43.5116618,-114.3139851
711,Tyee Street,83333,43.5216543,-114.3056407
1911,Copper Ranch Lane,83333,43.5071646,-114.2900203
909,Silverstone Drive,83333,43.5089571,-114.2927155
1500,Appaloosa Road,83333,43.5205357,-114.2945887
1731,Winterhaven Drive,83333,43.5082304,-114.2908481
810,Main Street,83333,43.5118030,-114.3086810
941,Buckskin Drive,83333,43.5217239,-114.3014397
1050,Forest Bend Drive,83333,43.4895742,-114.2759626
1042,Airport Way,83333,43.5115646,-114.3050757
330,Alder Street,83333,43.5144836,-114.3170305
820,Deerfield Drive,83333,43.5169327,-114.3004044
410,Croy Street,83333,43.5206654,-114.3088621
1240,Queen Of The Hills Drive,83333,43.5081973,-114.3075061
111,Croy Street,83333,43.5196959,-114.3129151
541,Shoshone Drive,83333,43.5183331,-114.3041240
709,River Street,83333,43.5128863,-114.3122059
210,Sunbeam Street,83333,43.5247885,-114.3023626
2454,Shenandoah Drive,83333,43.5006956,-114.2883162
1010,Triumph Drive,83333,43.5090480,-114.3135583
421,McKercher Boulevard,83333,43.5321345,-114.3177946
3041,Glenbrook Drive,83333,43.4948015,-114.2837958
1011,Cherry Hill Drive,83333,43.4892986,-114.2765399
1510,Blue Lake Drive,83333,43.5112125,-114.2925209
4050,Black Oak Drive,83333,43.4866919,-114.2734017
111,Empty Saddle Trail,83333,43.5257837,-114.3219779
430,Whitetail Drive,83333,43.5209715,-114.3005465
941,Cherry Hill Drive,83333,43.4892980,-114.2767660
560,Little Lena Drive,83333,43.5294139,-114.3061065
511,San Badger Drive,83333,43.5289548,-114.3053194
105,Empty Saddle Trail,83333,43.5260196,-114.3213367
720,Buckhorn Drive,83333,43.5191428,-114.2972395
330,Eureka Drive,83333,43.5199730,-114.3063997
1720,Laurelwood Drive,83333,43.5093979,-114.2913795
1820,Copper Ranch Lane,83333,43.5079948,-114.2909453
2501,Winterhaven Drive,83333,43.5018683,-114.2850515
101,Bullion Street,83333,43.5204805,-114.3140989
3631,Glenbrook Drive,83333,43.4899384,-114.2790847
1021,Airport Way,83333,43.5114108,-114.3070595
2930,Woodside Boulevard,83333,43.4973820,-114.2819615
503,River Street,83333,43.5149392,-114.3138641
980,Eastridge Drive,83333,43.5153336,-114.2991984
1510,Woodside Boulevard,83333,43.5100313,-114.2949886
2541,Winterhaven Drive,83333,43.5011577,-114.2842050
1030,Echo Hill Drive,83333,43.4960425,-114.2804310
310,Cranbrook Road,83333,43.5331700,-114.3188409
330,Cedar Street,83333,43.5104360,-114.3142835
1921,Electra Lane,83333,43.5019687,-114.3023230
635,River Street,83333,43.5136382,-114.3129804
2960,Beaver Brook Drive,83333,43.4968090,-114.2826976
1611,Baldy View Drive,83333,43.5098073,-114.2926688
621,San Badger Drive,83333,43.5300765,-114.3059798
311,War Eagle Drive,83333,43.5085370,-114.3115739
1565,Baldy View Drive,83333,43.5094434,-114.2953645
970,Winter Fox Lane,83333,43.4985813,-114.2838613
351,Angela Drive,83333,43.5206167,-114.3219182
1031,Broadford Road,83333,43.5101358,-114.3088419
707,Bullion Street,83333,43.5234863,-114.3068110
620,Bullion Street,83333,43.5224611,-114.3076067
311,Alder Street,83333,43.5150883,-114.3168749
1921,Northridge Drive,83333,43.5393112,-114.3230371
2551,Woodside Boulevard,83333,43.5007011,-114.2859999
920,CD Olena Drive,83333,43.5318325,-114.3087027
115,Carbonate Drive,83333,43.5198992,-114.3181234
141,San Badger Drive,83333,43.5231184,-114.3041052
661,Myrtle Court,83333,43.5241838,-114.3215645
1050,Red Elephant Drive,83333,43.5084851,-114.3119887
960,Buckhorn Drive,83333,43.5152531,-114.2975890
731,Deer Ridge Lane,83333,43.5177262,-114.2991088
442,Winterberry Loop,83333,43.5292527,-114.3193217
1151,Creekside Drive,83333,43.5119043,-114.3004877
107,Croy Street,83333,43.5182026,-114.3163478
3351,Flowing Wells Drive,83333,43.4934547,-114.2788299
641,Con Virginia Lane,83333,43.5266406,-114.3102093
3451,Mountain Ash Drive,83333,43.4919410,-114.2797167
1130,Woodside Boulevard,83333,43.5133629,-114.2972696
1110,Buckskin Drive,83333,43.5216967,-114.2992824
850,Shenandoah Drive,83333,43.5015361,-114.2889721
340,Grays Starlight Drive,83333,43.5274761,-114.3027488
750,Northstar Drive,83333,43.5255267,-114.3225346
4211,Glenbrook Drive,83333,43.4853497,-114.2726908
3581,Glenbrook Drive,83333,43.4903419,-114.2794756
4241,Glenbrook Drive,83333,43.4854115,-114.2723479
710,Bullion Street,83333,43.5228416,-114.3064770
1920,Copper Ranch Lane,83333,43.5070333,-114.2895649
1220,Green Valley Drive,83333,43.5142301,-114.2933564
1030,Red Elephant Drive,83333,43.5090561,-114.3120939
3160,Glenbrook Drive,83333,43.4942487,-114.2825226
41,Mercure Lane,83333,43.5028892,-114.3014623
619,River Street,83333,43.5244206,-114.3212081
3361,Berrycreek Drive,83333,43.4938336,-114.2778334
203,Galena Drive,83333,43.5197272,-114.3187155
2310,Moonlight Drive,83333,43.5030681,-114.2860662
102,Main Street,83333,43.5200317,-114.3152140
1411,Aspen Valley Drive,83333,43.5115838,-114.2942744
541,Angela Drive,83333,43.5226600,-114.3230581
331,Primrose Lane,83333,43.5330946,-114.3200113
839,Heartland Way,83333,43.5002037,-114.2871538
431,Mother Lode Loop,83333,43.5255861,-114.3113718
331,Mother Lode Loop,83333,43.5244484,-114.3102860
1740,Winterhaven Drive,83333,43.5085608,-114.2901596
1981,Northridge Drive,83333,43.5398926,-114.3238051
811,Ponderosa Drive,83333,43.5088368,-114.2941233
1817,Briarwood Drive,83333,43.5062741,-114.2949132
510,Willow Street,83333,43.5147639,-114.3145908
3451,Glenbrook Drive,83333,43.4914457,-114.2806128
841,Buckskin Drive,83333,43.5214414,-114.3029466
101,Main Street,83333,43.5193376,-114.3156339
640,Whitetail Drive,83333,43.5194156,-114.2982393
2950,Beaver Brook Drive,83333,43.4969883,-114.2828713
2428,Woodside Boulevard,83333,43.5018911,-114.2859395
109,Croy Street,83333,43.5181887,-114.3168111
1550,Appaloosa Road,83333,43.5212201,-114.2917032
2941,Shenandoah Drive,83333,43.4964246,-114.2842618
950,Winter Fox Lane,83333,43.4983916,-114.2842309
531,Little Lena Drive,83333,43.5289425,-114.3064850
4160,Black Oak Drive,83333,43.4862465,-114.2724780
1850,Northridge Drive,83333,43.5395384,-114.3220572
1250,Aspen Valley Drive,83333,43.5132645,-114.2951169
921,Sunrise Drive,83333,43.5147708,-114.2959639
430,Buckhorn Drive,83333,43.5225324,-114.2972725
310,Robin Hood Drive,83333,43.5124059,-114.3146440
1970,Woodside Boulevard,83333,43.5068584,-114.2909768
1835,Briarwood Drive,83333,43.5057355,-114.2943913
421,Deertrail Drive,83333,43.5204480,-114.3028698
111,Walaneut Street,83333,43.5172192,-114.3161016
560,Mother Lode Loop,83333,43.5270388,-114.3098146
620,Buttercup Road,83333,43.5276286,-114.3126000
1999,Woodside Boulevard,83333,43.5057062,-114.2910723
441,Eastridge Drive,83333,43.5194397,-114.3029980
740,Red Ash Drive,83333,43.5057839,-114.2923158
210,Carbonate Drive,83333,43.5197581,-114.3191476
2809,Glenbrook Drive,83333,43.4989891,-114.2822858
530,River Trail,83333,43.5215303,-114.3230626
3121,Snow Bank Drive,83333,43.4950507,-114.2799893
64,Maple Street,83333,43.5133906,-114.3116096
2840,Woodside Boulevard,83333,43.4978527,-114.2824175
120,Pine Street,83333,43.5157472,-114.3148666
2503,Grange Way,83333,43.5010115,-114.2867617
321,Della Vista Drive,83333,43.5098974,-114.3130955
321,Primrose Lane,83333,43.5329705,-114.3203693
940,Cherry Creek Drive,83333,43.4909945,-114.2784707
1021,Copper Ranch Way,83333,43.5076916,-114.2892280
1011,Silver Star Drive,83333,43.5097292,-114.3118509
111,Elm Street,83333,43.5153076,-114.3146026
920,Forest Bend Drive,83333,43.4895073,-114.2775652
1021,Red Elephant Drive,83333,43.5090089,-114.3128883
1340,Snowfly Drive,83333,43.5067071,-114.3091110
1401,Red Tail Lane,83333,43.5210758,-114.2945394
3011,Butterfly Drive,83333,43.4969126,-114.2810454
1220,Northridge Drive,83333,43.5332194,-114.3169315
761,Eastridge Drive,83333,43.5164837,-114.3018365
810,Deerfield Drive,83333,43.5169066,-114.3007536
151,San Badger Drive,83333,43.5233508,-114.3042497
1935,Briarwood Drive,83333,43.5049876,-114.2936668
111,Della Vista Drive,83333,43.5105036,-114.3111437
1555,Baldy View Drive,83333,43.5091843,-114.2959603
2261,Moonlight Drive,83333,43.5040676,-114.2865047
2550,Winterhaven Drive,83333,43.5013421,-114.2838613
2023,Briarwood Drive,83333,43.5044804,-114.2931756
821,Wintergreen Drive,83333,43.5123467,-114.2968034
1741,Heroic Road,83333,43.5387274,-114.3204116
2030,Briarwood Drive,83333,43.5043190,-114.2917685
1260,Aspen Valley Drive,83333,43.5130820,-114.2949495
621,River Street,83333,43.5245342,-114.3212810
741,Willow Drive,83333,43.5090326,-114.2952489
3340,Glenbrook Drive,83333,43.4926792,-114.2810021
741,Northstar Drive,83333,43.5248518,-114.3233057
1104,Edgewood Lane,83333,43.5027452,-114.2848057
611,Northstar Drive,83333,43.5234679,-114.3221491
3621,Woodside Boulevard,83333,43.4911008,-114.2771369
4309,Glenbrook Drive,83333,43.4870042,-114.2722961
371,Mother Lode Loop,83333,43.5249263,-114.3089443
625,Bullion Street,83333,43.5230958,-114.3074890
215,Galena Drive,83333,43.5199623,-114.3188938
1811,Briarwood Drive,83333,43.5065609,-114.2950978
416,Main Street,83333,43.5162272,-114.3123634
2630,Woodside Boulevard,83333,43.5000391,-114.2846047
341,Mother Lode Loop,83333,43.5244365,-114.3106028
1987,Woodside Boulevard,83333,43.5058520,-114.2913745
231,Robin Hood Drive,83333,43.5129285,-114.3148258
2351,Moonlight Drive,83333,43.5030197,-114.2872756
202,Croy Street,83333,43.5173396,-114.3170474
1820,Copper Ranch Lane,83333,43.5079067,-114.2909001
519,River Street,83333,43.5143907,-114.3134472
31,Comet Lane,83333,43.5097776,-114.3070194
940,Pinon Drive,83333,43.4934837,-114.2802370
850,Shenandoah Drive,83333,43.5024270,-114.2881839
1721,Briarwood Drive,83333,43.5070628,-114.2956777
1811,Merlin Loop,83333,43.5025955,-114.3033449
3341,Woodside Boulevard,83333,43.4932483,-114.2798937
140,Havilland Way,83333,43.5021007,-114.2982711
30,Granite Lane,83333,43.5268284,-114.3220511
2240,Woodside Boulevard,83333,43.5035689,-114.2879344
1520,Northridge Drive,83333,43.5360380,-114.3195019
11,Comet Lane,83333,43.5096155,-114.3074555
1011,Copper Ranch Way,83333,43.5077175,-114.2896052
316,River Street,83333,43.5219522,-114.3182504
1831,Northridge Drive,83333,43.5385970,-114.3223006
1051,Red Elephant Drive,83333,43.5082344,-114.3127335
2446,Winterhaven Drive,83333,43.5023936,-114.2842264
320,Pine Street,83333,43.5183503,-114.3085751
951,Snowflake Drive,83333,43.4907215,-114.2779182
4040,Black Oak Drive,83333,43.4867968,-114.2735730
1910,Copper Ranch Lane,83333,43.5073161,-114.2895948
840,Quigley Road,83333,43.5217320,-114.3029744
741,Bonanza Lane,83333,43.5252525,-114.3081332
1440,Baldy View Drive,83333,43.5096724,-114.2969929
651,Kintail Drive,83333,43.5402578,-114.3205616
1741,Laurelwood Drive,83333,43.5089374,-114.2901967
2920,Glenbrook Drive,83333,43.4968211,-114.2846409
1310,Queen Of The Hills Drive,83333,43.5079783,-114.3068514
321,Angela Drive,83333,43.5208285,-114.3209790
1141,Airport Way,83333,43.5097881,-114.3054019
910,Sunrise Drive,83333,43.5137300,-114.2963163
321,Aspen Drive,83333,43.5154827,-114.3183618
321,Sawmill Drive,83333,43.5163729,-114.3183354
1811,Winterhaven Drive,83333,43.5081512,-114.2904764
731,Deerfield Drive,83333,43.5169089,-114.3014223
2021,Winterhaven Drive,83333,43.5061529,-114.2893516
2501,Grange Way,83333,43.5010752,-114.2868235
810,Main Street,83333,43.5269108,-114.3201221
331,Eureka Drive,83333,43.5197400,-114.3069171
210,Alder Street,83333,43.5151602,-114.3154538
21,Comet Lane,83333,43.5096944,-114.3072869
681,CD Olena Drive,83333,43.5292036,-114.3088783
1141,Airport Way,83333,43.5100070,-114.3051367
1111,Baldy View Drive,83333,43.5132551,-114.2997928
610,Northstar Drive,83333,43.5236449,-114.3216012
3148,Snow Bank Drive,83333,43.4946045,-114.2793300
418,River Street,83333,43.5229127,-114.3189804
841,Heartland Way,83333,43.5002171,-114.2870723
432,Winterberry Loop,83333,43.5295283,-114.3194536
4140,Black Oak Drive,83333,43.4863911,-114.2728930
1921,Electra Lane,83333,43.5019657,-114.3020023
214,Bullion Street,83333,43.5179076,-114.3187525
2481,Woodside Boulevard,83333,43.5012744,-114.2865555
2981,Berrycreek Drive,83333,43.4975649,-114.2804076
4313,Glenbrook Drive,83333,43.4872024,-114.2726380
1841,Northridge Drive,83333,43.5388286,-114.3225668
741,Willow Drive,83333,43.5089730,-114.2953387
1141,Airport Way,83333,43.5098087,-114.3058159
1030,Myrtle Street,83333,43.5278772,-114.3057972
206,Walaneut Street,83333,43.5185992,-114.3109708
1221,Creekside Drive,83333,43.5114855,-114.3001236
930,Foxmoor Drive,83333,43.5161516,-114.2985303
231,Myrtle Street,83333,43.5233919,-114.3224329
1121,Myrtle Street,83333,43.5284208,-114.3037702
1910,Laurelwood Drive,83333,43.5078855,-114.2871872
850,Shenandoah Drive,83333,43.5025008,-114.2883682
870,Maple Leaf Drive,83333,43.5008658,-114.2873203
431,Deerwood Drive,83333,43.5210457,-114.2998961
2721,Winterhaven Drive,83333,43.4997323,-114.2837210
121,Jetstar Lane,83333,43.5039126,-114.3013703
850,Shenandoah Drive,83333,43.5024599,-114.2881841
1120,Queen Of The Hills Drive,83333,43.5089878,-114.3089512
911,Forest Bend Drive,83333,43.4899380,-114.2782314
411,Mother Lode Loop,83333,43.5252024,-114.3110799
2841,Woodside Boulevard,83333,43.4976378,-114.2830545
440,Northstar Drive,83333,43.5222286,-114.3208247
603,Main Street,83333,43.5244925,-114.3198699
121,San Badger Drive,83333,43.5226762,-114.3038712
151,Sunbeam Street,83333,43.5240601,-114.3032356
920,White Cloud Lane,83333,43.5073093,-114.2910376
3640,Glenbrook Drive,83333,43.4901398,-114.2785422
1721,Northridge Drive,83333,43.5377723,-114.3214537
418,Main Street,83333,43.5161474,-114.3123170
3711,Woodside Boulevard,83333,43.4902740,-114.2759344
415,Bullion Street,83333,43.5176764,-114.3211080
821,Countryside Boulevard,83333,43.4997376,-114.2875044
411,Della Vista Drive,83333,43.5095388,-114.3139858
3850,Woodside Boulevard,83333,43.4888025,-114.2739832
2120,Woodside Boulevard,83333,43.5048422,-114.2891676
411,Deertrail Drive,83333,43.5205943,-114.3032511
17,Myrtle Street,83333,43.5249856,-114.3183544
1230,Silver Star Drive,83333,43.5077566,-114.3087182
3250,Berrycreek Drive,83333,43.4951576,-114.2774950
1921,Electra Lane,83333,43.5019571,-114.3018743
17,Bullion Street,83333,43.5194844,-114.3163964
941,Winterhaven Drive,83333,43.5087367,-114.2923913
211,Eureka Drive,83333,43.5210852,-114.3079408
14,Croy Street,83333,43.5181635,-114.3151996
316,Myrtle Street,83333,43.5260543,-114.3144375
4031,Glenbrook Drive,83333,43.4862108,-114.2749639
1106,Edgewood Lane,83333,43.5028448,-114.2846118
226,Galena Drive,83333,43.5204375,-114.3185315
3320,Woodside Boulevard,83333,43.4936103,-114.2795286
1540,Heroic Road,83333,43.5368371,-114.3187119
3150,Snow Bank Drive,83333,43.4946281,-114.2791052
750,River Street,83333,43.5130093,-114.3114488
1999,Electra Lane,83333,43.5024438,-114.3000733
400,Main Street,83333,43.5166434,-114.3128089
3450,Glenbrook Drive,83333,43.4917901,-114.2800631
1989,Woodside Boulevard,83333,43.5058270,-114.2913248
1823,Briarwood Drive,83333,43.5060559,-114.2947019
216,Bullion Street,83333,43.5178412,-114.3189175
212,Croy Street,83333,43.5171876,-114.3176755
3840,Woodside Boulevard,83333,43.4891581,-114.2740916
351,Golconda Drive,83333,43.5254877,-114.3101759
1061,Foxmoor Drive,83333,43.5153844,-114.2999530
2920,Shenandoah Drive,83333,43.4972615,-114.2843541
2111,Winterhaven Drive,83333,43.5051213,-114.2890257
270,Cranbrook Road,83333,43.5325619,-114.3183352
666,Carbonate Street,83333,43.5236037,-114.3078752
3641,Woodside Boulevard,83333,43.4908821,-114.2767993
1611,Northridge Drive,83333,43.5364166,-114.3207074
850,Shenandoah Drive,83333,43.5020448,-114.2880442
831,Winterhaven Drive,83333,43.5082757,-114.2934869
1130,Echo Hill Drive,83333,43.4960363,-114.2796399
740,Red Ash Drive,83333,43.5064775,-114.2929323
850,Eastridge Drive,83333,43.5160387,-114.3007727
322,Winterberry Loop,83333,43.5312653,-114.3185890
16,Croy Street,83333,43.5180273,-114.3154766
2506,Windmill Way,83333,43.5004723,-114.2876386
3121,Shenandoah Drive,83333,43.4953577,-114.2807471
1051,Forest Bend Drive,83333,43.4900758,-114.2760784
3940,Glenbrook Drive,83333,43.4875087,-114.2753929
221,Elm Street,83333,43.5148269,-114.3155022
2941,Glenbrook Drive,83333,43.4962339,-114.2852292
551,West Meadow Drive,83333,43.5411789,-114.3226855
235,Maple Street,83333,43.5132313,-114.3132626
408,Main Street,83333,43.5231928,-114.3176173
680,Kintail Drive,83333,43.5411064,-114.3202026
1121,Queen Of The Hills Drive,83333,43.5087852,-114.3094770
1931,Briarwood Drive,83333,43.5050944,-114.2937702
2831,Glenbrook Drive,83333,43.4980887,-114.2838337
3221,Mountain Ash Drive,83333,43.4940930,-114.2819107
540,Calumet Way,83333,43.5232729,-114.3206126
530,McKercher Boulevard,83333,43.5324916,-114.3161619
4301,Glenbrook Drive,83333,43.4865743,-114.2713104
1831,Laurelwood Drive,83333,43.5080928,-114.2885734
210,Cottonwood Street,83333,43.5157838,-114.3159286
1130,Antler Drive,83333,43.5208666,-114.2978758
820,Jack Pine Drive,83333,43.5091302,-114.2942280
171,Cranbrook Road,83333,43.5311717,-114.3216033
920,Main Street,83333,43.5127058,-114.3065937
630,Eastridge Drive,83333,43.5185495,-114.3006529
781,Eastridge Drive,83333,43.5162958,-114.3014270
128,Bullion Street,83333,43.5182613,-114.3178364
1010,Myrtle Street,83333,43.5276400,-114.3057596
235,Walaneut Street,83333,43.5165109,-114.3172806
531,Eureka Drive,83333,43.5178842,-114.3055050
224,Galena Drive,83333,43.5203945,-114.3184990
101,San Badger Drive,83333,43.5221104,-114.3036067
420,Golconda Drive,83333,43.5258999,-114.3098132
1761,Merlin Loop,83333,43.5035832,-114.3027037
416,Main Street,83333,43.5161897,-114.3124809
565,Mother Lode Loop,83333,43.5274480,-114.3097354
1551,Aviation Drive,83333,43.5063381,-114.3042817
1241,Woodside Boulevard,83333,43.5124669,-114.2964832
1930,Laurelwood Drive,83333,43.5073179,-114.2873470
3361,Glenbrook Drive,83333,43.4922693,-114.2813426
850,Buckhorn Drive,83333,43.5171848,-114.2972164
1020,Echo Hill Drive,83333,43.4960417,-114.2806970
511,Willow Street,83333,43.5145469,-114.3150316
971,Silverstone Drive,83333,43.5091051,-114.2922058
951,Forest Bend Drive,83333,43.4900100,-114.2772291
710,Main Street,83313,43.5260068,-114.3193537
340,Golconda Drive,83333,43.5254920,-114.3095033
1721,Winterhaven Drive,83333,43.5082908,-114.2911593
950,Buckhorn Drive,83333,43.5153401,-114.2973424
3771,Glenbrook Drive,83333,43.4885936,-114.2777821
531,Almond Street,83333,43.5134383,-114.3162714
412,River Street,83333,43.5158554,-114.3136134
540,Docs Hickory Drive,83333,43.5288849,-114.3069679
341,Eastridge Drive,83333,43.5207423,-114.3043888
1141,Airport Way,83333,43.5099435,-114.3055570
220,Galena Drive,83333,43.5203080,-114.3184335
1421,Red Tail Lane,83333,43.5217100,-114.2945464
292,Winterberry Loop,83333,43.5306493,-114.3182393
3481,Mountain Ash Drive,83333,43.4918548,-114.2789340
160,Cranbrook Road,83333,43.5304857,-114.3209147
331,Cedar Street,83333,43.5109237,-114.3146765
620,Little Lena Drive,83333,43.5299182,-114.3064033
140,Havilland Way,83333,43.5019354,-114.2990067
310,Cottonwood Street,83333,43.5153282,-114.3170576
1620,Heroic Road,83333,43.5373489,-114.3189797
541,Calumet Way,83333,43.5231233,-114.3209374
1920,Copper Ranch Lane,83333,43.5070431,-114.2895704
851,Eastridge Drive,83333,43.5158702,-114.3014739
2141,Laurelwood Drive,83333,43.5055046,-114.2874344
117,Spruce Street,83333,43.5245422,-114.3164400
114,Pine Street,83333,43.5173730,-114.3111147
2441,Winterhaven Drive,83333,43.5022242,-114.2853641
118,Bullion Street,83333,43.5184329,-114.3174497
531,West Meadow Drive,83333,43.5408468,-114.3225002
3010,Butterfly Drive,83333,43.4972311,-114.2805632
2931,Beaver Brook Drive,83333,43.4970940,-114.2837115
150,Cranbrook Road,83333,43.5301879,-114.3209569
2940,Shenandoah Drive,83333,43.4968875,-114.2839726
2950,Woodside Boulevard,83333,43.4970683,-114.2816573
540,Robin Hood Drive,83333,43.5120957,-114.3144045
2030,Briarwood Drive,83333,43.5048865,-114.2928022
3851,Woodside Boulevard,83333,43.4887930,-114.2747226
1130,Quigley Road,83333,43.5224707,-114.2990484
1220,Queen Of The Hills Drive,83333,43.5084971,-114.3081371
1460,Shadybrook Drive,83333,43.5098961,-114.2960590
3050,Woodside Boulevard,83333,43.4960509,-114.2809825
3240,Glenbrook Drive,83333,43.4937781,-114.2820666
821,Winter Fox Lane,83333,43.4980233,-114.2858177
631,CD Olena Drive,83333,43.5289669,-114.3088929
661,CD Olena Drive,83333,43.5291272,-114.3091209
2230,Aviation Drive,83333,43.4995405,-114.2941480
61,Jetstar Lane,83333,43.5035552,-114.3018197
130,Little Indio Lane,83333,43.5179641,-114.3213271
2030,Briarwood Drive,83333,43.5042159,-114.2919510
331,Eastridge Drive,83333,43.5209438,-114.3045082
641,Eastridge Drive,83333,43.5180486,-114.3014626
2020,Woodside Boulevard,83333,43.5058021,-114.2899441
4040,Glenbrook Drive,83333,43.4864672,-114.2741692
651,CD Olena Drive,83333,43.5289798,-114.3091734
1410,Shadybrook Drive,83333,43.5109303,-114.2966748
230,Apache Drive,83333,43.5216255,-114.3053146
530,Docs Hickory Drive,83333,43.5287030,-114.3068672
3541,Glenbrook Drive,83333,43.4908798,-114.2799967
731,Northstar Drive,83333,43.5249243,-114.3229605
1940,Copper Ranch Lane,83333,43.5065930,-114.2898024
451,Buckhorn Drive,83333,43.5218123,-114.2979390
641,Myrtle Court,83333,43.5239243,-114.3214178
305,Croy Street,83333,43.5173841,-114.3188434
340,Eureka Drive,83333,43.5197615,-114.3062390
3170,Shenandoah Drive,83333,43.4957582,-114.2791541
218,Silver Street,83333,43.5235902,-114.3141390
1985,Woodside Boulevard,83333,43.5058770,-114.2914241
1995,Woodside Boulevard,83333,43.5057520,-114.2911757
3941,Glenbrook Drive,83333,43.4873750,-114.2764812
2930,Beaver Brook Drive,83333,43.4973470,-114.2832188
710,Buckhorn Drive,83333,43.5193621,-114.2972421
930,White Cloud Lane,83333,43.5075212,-114.2908744
1150,Echo Hill Drive,83333,43.4960330,-114.2790491
310,Chestnut Street,83333,43.5131793,-114.3152582
430,Robin Hood Drive,83333,43.5114711,-114.3158146
1921,Electra Lane,83333,43.5019506,-114.3011477
2630,Woodside Boulevard,83333,43.5005434,-114.2845369
1451,Northridge Drive,83333,43.5352860,-114.3201186
1321,Queen Of The Hills Drive,83333,43.5073620,-114.3072761
1321,Baldy View Drive,83333,43.5108963,-114.2983871
108,Main Street,83333,43.5202655,-114.3153918
620,Kintail Drive,83333,43.5394678,-114.3198647
3081,Shenandoah Drive,83333,43.4954166,-114.2818949
1120,Broadford Road,83333,43.5104021,-114.3068118
1020,Buckskin Drive,83333,43.5212789,-114.3005121
650,River Trail,83333,43.5233451,-114.3239078
350,Mother Lode Loop,83333,43.5253564,-114.3105023
740,Doeskin Drive,83333,43.5176965,-114.2995669
430,Mother Lode Loop,83333,43.5257882,-114.3108304
1711,Briarwood Drive,83333,43.5072646,-114.2958732
1350,Heroic Road,83333,43.5348201,-114.3174617
241,Alder Street,83333,43.5152712,-114.3164218
1060,Cherry Hill Drive,83333,43.4889226,-114.2750960
362,Winterberry Loop,83333,43.5307814,-114.3198168
511,River Street,83333,43.5232496,-114.3201875
111,Main Street,83333,43.5199772,-114.3162255
740,Red Ash Drive,83333,43.5064314,-114.2929344
711,Hailey Drive,83333,43.5199935,-114.3043968
810,Jack Pine Drive,83333,43.5090698,-114.2943490
1120,Echo Hill Drive,83333,43.4960383,-114.2799036
740,Northstar Drive,83333,43.5252442,-114.3223707
331,Cranbrook Road,83333,43.5334129,-114.3197609
2411,Winterhaven Drive,83333,43.5027375,-114.2857226
204,Croy Street,83333,43.5173177,-114.3172462
11,Spruce Street,83333,43.5233290,-114.3192958
641,CD Olena Drive,83333,43.5289175,-114.3089970
850,Shenandoah Drive,83333,43.5018626,-114.2892288
530,CD Olena Drive,83333,43.5287516,-114.3080633
1041,Mountain Drive,83333,43.4867981,-114.2746243
3321,Woodside Boulevard,83333,43.4934052,-114.2800457
1971,Electra Lane,83333,43.5019844,-114.3004356
1940,Northridge Drive,83333,43.5399732,-114.3225500
2140,Laurelwood Drive,83333,43.5049883,-114.2879987
950,Foxmoor Drive,83333,43.5161538,-114.2991320
920,Foxmoor Drive,83333,43.5161499,-114.2982478
361,Mother Lode Loop,83333,43.5250105,-114.3109339
341,Pocahontas Drive,83333,43.5199730,-114.3059798
850,Shenandoah Drive,83333,43.5021813,-114.2889831
611,Myrtle Street,83333,43.5276845,-114.3119830
131,Cranbrook Road,83333,43.5303123,-114.3216095
1220,Silver Star Drive,83333,43.5079218,-114.3090978
850,Shenandoah Drive,83333,43.5015663,-114.2889132
1130,Creekside Drive,83333,43.5125268,-114.3001957
941,Snowflake Drive,83333,43.4907209,-114.2781443
521,Aspen Drive,83333,43.5135042,-114.3175322
1010,Foxmoor Drive,83333,43.5155298,-114.2993123
320,Primrose Lane,83333,43.5325469,-114.3203897
671,Kintail Drive,83333,43.5405096,-114.3207145
4320,Glenbrook Drive,83333,43.4871547,-114.2742091
116,Carbonate Street,83333,43.5195798,-114.3179127
1851,Copper Ranch Lane,83333,43.5073702,-114.2902293
2030,Briarwood Drive,83333,43.5048683,-114.2926822
1221,Green Valley Drive,83333,43.5142175,-114.2940182
1320,Woodside Boulevard,83333,43.5121624,-114.2954252
650,Deerfield Drive,83333,43.5176960,-114.3018167
810,Myrtle Street,83333,43.5278978,-114.3082591
1441,Aspen Valley Drive,83333,43.5108527,-114.2942959
980,Buckhorn Drive,83333,43.5150762,-114.2981546
1230,Aspen Valley Drive,83333,43.5136295,-114.2954516
1351,Heroic Road,83333,43.5345795,-114.3181709
13,Bullion Street,83333,43.5195347,-114.3161976
4190,Glenbrook Drive,83333,43.4860519,-114.2717066
2951,Woodside Boulevard,83333,43.4968360,-114.2822626
921,Cherry Creek Drive,83333,43.4913784,-114.2793507
931,Cherry Creek Drive,83333,43.4914318,-114.2790777
471,Mother Lode Loop,83333,43.5266594,-114.3085520
225,Galena Drive,83333,43.5201755,-114.3190556
1575,Baldy View Drive,83333,43.5097533,-114.2943356
1820,Copper Ranch Lane,83333,43.5079566,-114.2908286
771,Bullion Street,83333,43.5236875,-114.3061951
400,Main Street,83333,43.5166440,-114.3128076
3140,Shenandoah Drive,83333,43.4957730,-114.2799640
3140,Berrycreek Drive,83333,43.4962623,-114.2781714
2681,Winterhaven Drive,83333,43.5000006,-114.2836295
413,Silver Street,83333,43.5249888,-114.3121552
650,Whitetail Drive,83333,43.5193875,-114.2978661
721,Sunrise Drive,83333,43.5121161,-114.2981029
620,Bonanza Lane,83333,43.5241816,-114.3086933
1020,Myrtle Street,83333,43.5277764,-114.3057968
631,West Meadow Drive,83333,43.5420303,-114.3223192
1910,Heroic Road,83333,43.5401393,-114.3210119
2526,Winterhaven Drive,83333,43.5016961,-114.2841136
713,River Street,83333,43.5126361,-114.3128710
1120,Broadford Road,83333,43.5103577,-114.3067606
416,Main Street,83333,43.5162523,-114.3125313
3830,Woodside Boulevard,83333,43.4894119,-114.2742143
1941,Northridge Drive,83333,43.5395560,-114.3232641
303,River Street,83333,43.5211198,-114.3185657
620,Croy Street,83333,43.5215181,-114.3068427
2260,Winterhaven Drive,83333,43.5038585,-114.2869125
1760,Lear Lane,83333,43.5039406,-114.3024297
116,Silver Street,83333,43.5218104,-114.3197173
422,Winterberry Loop,83333,43.5296137,-114.3196693
825,Countryside Boulevard,83333,43.4998120,-114.2873596
931,Cherry Hill Drive,83333,43.4892975,-114.2769920
215,Silver Street,83333,43.5241294,-114.3145497
721,Deerfield Drive,83333,43.5169568,-114.3018465
531,Ivy Street,83333,43.5138510,-114.3155352
3071,Shenandoah Drive,83333,43.4954273,-114.2825022
3371,Woodside Boulevard,83333,43.4927776,-114.2794378
311,Della Vista Drive,83333,43.5100170,-114.3127987
104,Hiawatha Drive,83333,43.5282577,-114.3117936
230,Walaneut Street,83333,43.5162243,-114.3168572
140,Havilland Way,83333,43.5021444,-114.2983326
219,Galena Drive,83333,43.5200510,-114.3189612
1121,Antler Drive,83333,43.5213436,-114.2986930
1581,Baldy View Drive,83333,43.5098044,-114.2940138
140,Havilland Way,83333,43.5019231,-114.2988568
441,Calumet Court,83333,43.5223861,-114.3205281
3461,Berrycreek Drive,83333,43.4927012,-114.2778478
631,Carbonate Street,83333,43.5240463,-114.3082122
1180,Green Valley Drive,83333,43.5148061,-114.2933433
102,Empty Saddle Trail,83333,43.5266248,-114.3211758
3031,Shenandoah Drive,83333,43.4957638,-114.2837339
1021,Meadow Mountain Drive,83333,43.4885870,-114.2758698
1140,CD Olena Drive,83333,43.5346897,-114.3120787
110,Porphyry Drive,83333,43.5081985,-114.3087682
700,River Street,83333,43.5250956,-114.3203842
720,Eastridge Drive,83333,43.5176201,-114.3007001
531,Eastridge Drive,83333,43.5191200,-114.3020963
210,Croy Street,83333,43.5170080,-114.3175385
211,Eastridge Drive,83333,43.5221513,-114.3052717
720,CD Olena Drive,83333,43.5304086,-114.3088140
103,Main Street,83333,43.5192298,-114.3155518
1940,Laurelwood Drive,83333,43.5070519,-114.2873505
1340,Baldy View Drive,83333,43.5105132,-114.2974981
4110,Glenbrook Drive,83333,43.4861622,-114.2740968
1520,Quigley Farm Road,83333,43.5217503,-114.2929861
1011,War Eagle Drive,83333,43.5080204,-114.3157581
16,Croy Street,83333,43.5179718,-114.3154150
911,Queen Of The Hills Drive,83333,43.5110771,-114.3115865
2516,Woodside Boulevard,83333,43.5015274,-114.2855763
440,Eureka Drive,83333,43.5188986,-114.3055828
1051,Meadow Mountain Drive,83333,43.4885887,-114.2751917
140,Havilland Way,83333,43.5019328,-114.2987664
1121,Broadford Road,83333,43.5093932,-114.3083514
3960,Woodside Boulevard,83333,43.4872943,-114.2745473
507,Main Street,83333,43.5152814,-114.3125476
871,Silverstone Drive,83333,43.5085973,-114.2929289
561,West Meadow Drive,83333,43.5414334,-114.3227970
350,Little Indio Lane,83333,43.5198615,-114.3223812
331,Angela Drive,83333,43.5206700,-114.3211663
311,Pocahontas Drive,83333,43.5205683,-114.3064327
1120,CD Olena Drive,83333,43.5345159,-114.3112531
831,Winterhaven Drive,83333,43.5084559,-114.2930173
710,Bonanza Lane,83333,43.5245314,-114.3078238
2943,Woodside Boulevard,83333,43.4969223,-114.2823462
639,River Street,83333,43.5134117,-114.3125918
307,River Street,83333,43.5165202,-114.3150672
760,River Street,83333,43.5129334,-114.3113911
1750,Northridge Drive,83333,43.5386892,-114.3210939
1751,Laurelwood Drive,83333,43.5088368,-114.2899553
971,Winter Fox Lane,83333,43.4989043,-114.2841673
921,Antelope Drive,83333,43.5118979,-114.2948968
660,El Dorado Lane,83333,43.5257574,-114.3089214
321,Pocahontas Drive,83333,43.5203568,-114.3062719
106,Hiawatha Drive,83333,43.5284413,-114.3113527
571,Aspen Drive,83333,43.5129574,-114.3161299
440,Cedar Street,83333,43.5097284,-114.3156928
2540,Winterhaven Drive,83333,43.5015850,-114.2839322
1030,Business Park Drive,83333,43.5103234,-114.3075076
1150,Creekside Drive,83333,43.5121333,-114.2999263
516,Main Street,83333,43.5244690,-114.3184486
930,Buckhorn Drive,83333,43.5158281,-114.2972885
3041,Woodside Boulevard,83333,43.4961859,-114.2816805
1811,Heroic Road,83333,43.5389799,-114.3207062
919,Eastridge Drive,83333,43.5150435,-114.3009917
841,Silverstone Drive,83333,43.5084185,-114.2926763
3260,Glenbrook Drive,83333,43.4934643,-114.2817626
921,Jack Pine Drive,83333,43.5094850,-114.2933969
101,Bullion Street,83333,43.5204637,-114.3141420
1851,Northridge Drive,83333,43.5390759,-114.3228069
2452,Shenandoah Drive,83333,43.5007592,-114.2883778
1551,Appaloosa Road,83333,43.5213396,-114.2925085
3041,Beaver Brook Drive,83333,43.4959359,-114.2825127
631,Eastridge Drive,83333,43.5182722,-114.3015179
511,Calumet Way,83333,43.5227140,-114.3206798
2050,Winterhaven Drive,83333,43.5057325,-114.2882841
1921,Copper Ranch Lane,83333,43.5069772,-114.2901197
415,Carbonate Street,83333,43.5231324,-114.3107408
1631,Briarwood Drive,83333,43.5074349,-114.2960383
611,Little Lena Drive,83333,43.5294971,-114.3068116
416,Main Street,83333,43.5161663,-114.3124906
1851,Copper Ranch Lane,83333,43.5074309,-114.2903147
1251,Snowfly Drive,83333,43.5062464,-114.3111759
641,West Meadow Drive,83333,43.5420128,-114.3218289
2850,Glenbrook Drive,83333,43.4974576,-114.2840637
1061,Cherry Hill Drive,83333,43.4893662,-114.2753902
2494,Windmill Way,83333,43.5005358,-114.2877002
2813,Glenbrook Drive,83333,43.4985861,-114.2828653
401,Bullion Street,83333,43.5180620,-114.3204803
1855,Ridgerock Lane,83333,43.5058167,-114.2936585
1564,Baldy View Drive,83333,43.5097934,-114.2955870
2492,Windmill Way,83333,43.5005995,-114.2877618
431,Calumet Court,83333,43.5222577,-114.3204646
1121,Baldy View Drive,83333,43.5130682,-114.2996932
430,Golconda Drive,83333,43.5261158,-114.3099772
210,Eureka Drive,83333,43.5213009,-114.3074092
1341,Northridge Drive,83333,43.5342099,-114.3190434
1230,Green Valley Drive,83333,43.5138899,-114.2933747
16,Croy Street,83333,43.5179920,-114.3154611
850,Shenandoah Drive,83333,43.5021434,-114.2880447
850,Deerfield Drive,83333,43.5169276,-114.2993668
950,Buckskin Drive,83333,43.5212649,-114.3012342
903,Countryside Boulevard,83333,43.5002791,-114.2864498
101,Bullion Street,83333,43.5204083,-114.3141244
220,Pike Street,83333,43.5215787,-114.3059394
316,Main Street,83333,43.5172421,-114.3130916
1121,Wolftone Drive,83333,43.5076468,-114.3112768
425,Bullion Street,83333,43.5174866,-114.3217095
1220,Aspen Valley Drive,83333,43.5139030,-114.2955913
1061,Creekside Drive,83333,43.5128334,-114.3012948
1311,Northridge Drive,83333,43.5335501,-114.3184290
4141,Black Oak Drive,83333,43.4860348,-114.2731717
640,Eastridge Drive,83333,43.5181524,-114.3006953
1920,Laurelwood Drive,83333,43.5075912,-114.2872250
1611,Aviation Drive,83333,43.5052043,-114.3039252
3061,Shenandoah Drive,83333,43.4954343,-114.2828490
623,Willow Drive,83333,43.5078859,-114.2964611
3161,Snow Bank Drive,83333,43.4950436,-114.2789334
315,Carbonate Street,83333,43.5226860,-114.3117468
2311,Moonlight Drive,83333,43.5037393,-114.2862290
2509,Winterhaven Drive,83333,43.5015383,-114.2847311
1360,Snowfly Drive,83333,43.5067228,-114.3082997
120,Carbonate Street,83333,43.5194211,-114.3181907
1102,Edgewood Lane,83333,43.5026369,-114.2850164
3641,Glenbrook Drive,83333,43.4898040,-114.2789544
308,Bluebird Court,83333,43.5206788,-114.3204645
2040,Winterhaven Drive,83333,43.5059268,-114.2882324
1430,Blue Lake Drive,83333,43.5115312,-114.2925711
1421,Shadybrook Drive,83333,43.5103739,-114.2970031
140,Havilland Way,83333,43.5020971,-114.2983953
2330,Moonlight Drive,83333,43.5028182,-114.2865529
3341,Berrycreek Drive,83333,43.4942179,-114.2778285
440,Angela Drive,83333,43.5217638,-114.3218586
2141,Winterhaven Drive,83333,43.5046962,-114.2885185
2271,Moonlight Drive,83333,43.5039036,-114.2863663
1841,Heroic Road,83333,43.5398665,-114.3214760
2830,Woodside Boulevard,83333,43.4980096,-114.2825696
1041,Triumph Drive,83333,43.5083865,-114.3140977
1270,Snowfly Drive,83333,43.5067096,-114.3096427
821,CD Olena Drive,83333,43.5308757,-114.3100710
140,Havilland Way,83333,43.5019375,-114.2991866
311,Carbonate Street,83333,43.5225966,-114.3119372
611,West Meadow Drive,83333,43.5417805,-114.3228044
540,Shoshone Drive,83333,43.5185814,-114.3036051
2440,Winterhaven Drive,83333,43.5024011,-114.2847923
3311,Mountain Ash Drive,83333,43.4930727,-114.2810375
1440,Aspen Valley Drive,83333,43.5111525,-114.2936816
510,Eastridge Drive,83333,43.5198297,-114.3023880
204,Galena Drive,83333,43.5199487,-114.3181610
1921,Electra Lane,83333,43.5019652,-114.3019383
921,White Cloud Lane,83333,43.5073632,-114.2914854
312,Winterberry Loop,83333,43.5312140,-114.3183244
2520,Woodside Boulevard,83333,43.5013750,-114.2854286
1621,Baldy View Drive,83333,43.5098062,-114.2923297
741,Eastridge Drive,83333,43.5166841,-114.3014053
2025,Briarwood Drive,83333,43.5043803,-114.2930785
710,Northstar Drive,83333,43.5245072,-114.3220672
232,Carbonate Drive,83333,43.5202063,-114.3194876
851,Aspen Valley Drive,83333,43.5143913,-114.2973413
821,Deerfield Drive,83333,43.5173844,-114.3002489
2821,Glenbrook Drive,83333,43.4982455,-114.2835936
1221,Buckskin Drive,83333,43.5223110,-114.2982563
1551,Colibri Lane,83333,43.5061084,-114.3033109
710,Wintergreen Drive,83333,43.5107407,-114.2976330
721,Buckhorn Drive,83333,43.5186072,-114.2978698
3146,Snow Bank Drive,83333,43.4944010,-114.2792193
1595,Baldy View Drive,83333,43.5098082,-114.2930080
1140,Airport Way,83333,43.5107095,-114.3048174
400,Main Street,83333,43.5166992,-114.3126147
3521,Glenbrook Drive,83333,43.4911824,-114.2802692
130,Gulf Stream Lane,83333,43.5042513,-114.3033850
1711,Winterhaven Drive,83333,43.5086363,-114.2912401
3950,Woodside Boulevard,83333,43.4873588,-114.2743732
751,Eastridge Drive,83333,43.5167132,-114.3017978
1350,Blue Lake Drive,83333,43.5124507,-114.2929895
4130,Black Oak Drive,83333,43.4864847,-114.2730627
411,Eastridge Drive,83333,43.5203392,-114.3041499
421,Deerwood Drive,83333,43.5211621,-114.3002214
3440,Berrycreek Drive,83333,43.4930492,-114.2772492
1231,Queen Of The Hills Drive,83333,43.5078743,-114.3081121
720,Chestnut Street,83333,43.5183065,-114.3022172
950,Cherry Creek Drive,83333,43.4909950,-114.2782448
1110,Silver Star Drive,83333,43.5089766,-114.3101469
241,Pocahontas Drive,83333,43.5207722,-114.3065878
821,White Cloud Lane,83333,43.5069708,-114.2917197
831,Sunrise Drive,83333,43.5135586,-114.2971295
515,River Street,83333,43.5236040,-114.3205217
331,Robin Hood Drive,83333,43.5126210,-114.3156853
3460,Woodside Boulevard,83333,43.4925165,-114.2781961
4281,Glenbrook Drive,83333,43.4856439,-114.2711845
1140,Silver Star Drive,83333,43.5082779,-114.3095608
1111,Alturas Elementary Lane,83333,43.4932401,-114.2758170
929,Eastridge Drive,83333,43.5148802,-114.3008966
540,Northstar Drive,83333,43.5232707,-114.3213822
911,Buckskin Drive,83333,43.5215080,-114.3025907
2831,Woodside Boulevard,83333,43.4977382,-114.2831204
4131,Glenbrook Drive,83333,43.4856189,-114.2740992
330,Robin Hood Drive,83333,43.5122680,-114.3150130
980,Foxmoor Drive,83333,43.5159190,-114.2995385
620,CD Olena Drive,83333,43.5291043,-114.3082699
850,Shenandoah Drive,83333,43.5018628,-114.2891560
2011,Woodside Boulevard,83333,43.5048710,-114.2912029
613,San Badger Drive,83333,43.5299133,-114.3058837
610,Fox Acres Road,83333,43.5132788,-114.3008668
410,Robin Hood Drive,83333,43.5120321,-114.3158272
621,River Street,83333,43.5245557,-114.3212285
720,Main Street,83333,43.5265147,-114.3198237
1133,Airport Way,83333,43.5101127,-114.3059471
502,Main Street,83333,43.5239594,-114.3182010
440,Deertrail Drive,83333,43.5205567,-114.3017018
711,Sunrise Drive,83333,43.5120609,-114.2983185
720,Sunrise Drive,83333,43.5116748,-114.2977886
1630,Heroic Road,83333,43.5376110,-114.3190979
208,Carbonate Drive,83333,43.5197189,-114.3191178
960,Myrtle Street,83333,43.5276308,-114.3060820
2041,Winterhaven Drive,83333,43.5056661,-114.2890398
1131,Queen Of The Hills Drive,83333,43.5085095,-114.3092205
3420,Berrycreek Drive,83333,43.4934335,-114.2772444
841,Ponderosa Drive,83333,43.5090491,-114.2937935
617,Willow Drive,83333,43.5081891,-114.2967318
319,Croy Street,83333,43.5206737,-114.3103451
1921,Winterhaven Drive,83333,43.5072446,-114.2891588
2511,Winterhaven Drive,83333,43.5016192,-114.2845880
2519,Woodside Boulevard,83333,43.5010734,-114.2863607
660,Ironside Drive,83333,43.5201652,-114.3048335
1461,Woodside Boulevard,83333,43.5102070,-114.2958352
304,Bluebird Court,83333,43.5211483,-114.3203814
4030,Glenbrook Drive,83333,43.4866909,-114.2748004
1551,Baldy View Drive,83333,43.5090678,-114.2962424
1751,Northridge Drive,83333,43.5383244,-114.3219839
510,Shoshone Drive,83333,43.5191870,-114.3039616
400,Main Street,83333,43.5167056,-114.3126063
3170,Snow Bank Drive,83333,43.4946710,-114.2778840
1650,Heroic Road,83333,43.5368924,-114.3182490
2010,Laurelwood Drive,83333,43.5067887,-114.2873419
1831,Copper Ranch Lane,83333,43.5075078,-114.2906069
913,Heartland Way,83333,43.5004582,-114.2865451
1850,Copper Ranch Lane,83333,43.5076644,-114.2900053
2037,Briarwood Drive,83333,43.5038871,-114.2926007
930,White Cloud Lane,83333,43.5075212,-114.2908745
4120,Glenbrook Drive,83333,43.4860461,-114.2739082
510,Angela Drive,83333,43.5221985,-114.3220351
720,Myrtle Street,83333,43.5278649,-114.3097375
511,Angela Drive,83333,43.5220143,-114.3227026
740,Red Ash Drive,83333,43.5063097,-114.2922112
20,Comet Lane,83333,43.5092876,-114.3070027
630,Whitetail Drive,83333,43.5195164,-114.2985826
320,Chestnut Street,83333,43.5131105,-114.3154473
3650,Glenbrook Drive,83333,43.4900053,-114.2784118
2455,Winterhaven Drive,83333,43.5018994,-114.2855458
830,Buckskin Drive,83333,43.5210090,-114.3027312
120,Jetstar Lane,83333,43.5036741,-114.3010261
3450,Berrycreek Drive,83333,43.4928570,-114.2772517
2741,Winterhaven Drive,83333,43.4996526,-114.2839167
219,Main Street,83333,43.5177290,-114.3144102
3871,Glenbrook Drive,83333,43.4876749,-114.2770263
911,Eastridge Drive,83333,43.5152071,-114.3010871
413,Bullion Street,83333,43.5179831,-114.3209828
611,Elm Street,83333,43.5187555,-114.3050751
1051,Cherry Hill Drive,83333,43.4893007,-114.2756358
351,Deertrail Drive,83333,43.5208865,-114.3032894
1031,Snowflake Drive,83333,43.4907233,-114.2772408
871,Foxmoor Drive,83333,43.5176053,-114.2965641
1120,Woodside Boulevard,83333,43.5136580,-114.2979081
140,Havilland Way,83333,43.5019570,-114.2984631
2921,Woodside Boulevard,83333,43.4973739,-114.2827838
310,Apache Drive,83333,43.5211397,-114.3051006
930,Forest Bend Drive,83333,43.4895710,-114.2773187
831,Queen Of The Hills Drive,83333,43.5114124,-114.3116655
210,Main Street,83333,43.5183461,-114.3139317
1120,Myrtle Street,83333,43.5277370,-114.3036934
208,River Street,83333,43.5207049,-114.3173023
321,Apache Drive,83333,43.5207164,-114.3054846
2941,Butterfly Drive,83333,43.4973832,-114.2815015
1140,Queen Of The Hills Drive,83333,43.5086860,-114.3084568
740,Red Ash Drive,83333,43.5065856,-114.2926452
1030,Business Park Drive,83333,43.5104628,-114.3071740
541,Deerwood Drive,83333,43.5201591,-114.2987197
1920,Copper Ranch Lane,83333,43.5071375,-114.2895950
320,Cottonwood Street,83333,43.5152383,-114.3172801
235,Galena Drive,83333,43.5203712,-114.3192042
451,Mother Lode Loop,83333,43.5261846,-114.3115187
911,Snowflake Drive,83333,43.4906496,-114.2789202
4121,Black Oak Drive,83333,43.4862534,-114.2735541
240,Apache Drive,83333,43.5213349,-114.3052009
3351,Woodside Boulevard,83333,43.4930914,-114.2797417
931,Buckhorn Drive,83333,43.5158928,-114.2979982
831,Main Street,83333,43.5268473,-114.3213434
304,River Street,83333,43.5215561,-114.3179493
931,White Cloud Lane,83333,43.5076599,-114.2912775
21,Jetstar Lane,83333,43.5030443,-114.3023779
2422,Woodside Boulevard,83333,43.5020083,-114.2865256
640,CD Olena Drive,83333,43.5295480,-114.3085311
311,Angela Drive,83333,43.5212518,-114.3210534
3571,Glenbrook Drive,83333,43.4904764,-114.2796058
1654,Aviation Drive,83333,43.5032674,-114.2999118
101,Bullion Street,83333,43.5204734,-114.3138713
3351,Glenbrook Drive,83333,43.4924262,-114.2814946
2030,Briarwood Drive,83333,43.5045742,-114.2924996
853,Countryside Boulevard,83333,43.4999961,-114.2870009
721,Deer Ridge Lane,83333,43.5179027,-114.2990904
4317,Glenbrook Drive,83333,43.4873930,-114.2730127
4051,Glenbrook Drive,83333,43.4859474,-114.2746799
511,Della Vista Drive,83333,43.5090608,-114.3151727
4301,Glenbrook Drive,83333,43.4865813,-114.2713195
3251,Mountain Ash Drive,83333,43.4936224,-114.2814547
420,Northstar Drive,83333,43.5217377,-114.3206262
1361,Bluff Drive,83333,43.5338901,-114.3203343
1240,Northridge Drive,83333,43.5338110,-114.3172327
960,Winter Fox Lane,83333,43.4984865,-114.2840461
2030,Briarwood Drive,83333,43.5045284,-114.2922531
821,Jack Pine Drive,83333,43.5094115,-114.2944335
618,Main Street,83333,43.5142177,-114.3107902
810,Ponderosa Drive,83333,43.5085800,-114.2938376
521,San Badger Drive,83333,43.5291722,-114.3054474
406,Main Street,83333,43.5230729,-114.3175261
229,Galena Drive,83333,43.5202538,-114.3191149
520,Whitetail Drive,83333,43.5207817,-114.2998572
3320,Mountain Ash Drive,83333,43.4932471,-114.2803536
901,Silverstone Drive,83333,43.5088903,-114.2927873
491,Robin Hood Drive,83333,43.5110325,-114.3155960
871,Jack Pine Drive,83333,43.5094862,-114.2936792
704,River Street,83333,43.5253200,-114.3210334
15,Bullion,83333,43.5201549,-114.3147328
1321,Heroic Road,83333,43.5341698,-114.3181478
620,Northstar Drive,83333,43.5238676,-114.3217213
270,Chestnut Street,83333,43.5134521,-114.3145014
2031,Briarwood Drive,83333,43.5041877,-114.2928920
621,Docs Hickory Drive,83333,43.5293903,-114.3079216
1011,Sunrise Drive,83333,43.5147707,-114.2955870
730,Angela Drive,83333,43.5245212,-114.3233613
1231,Wolftone Drive,83333,43.5070393,-114.3097954
1011,Queen Of The Hills Drive,83333,43.5101560,-114.3108165
2960,Berrycreek Drive,83333,43.4981607,-114.2803035
351,Cranbrook Road,83333,43.5333485,-114.3204349
1720,Heroic Road,83333,43.5382053,-114.3191170
600,Main Street,83333,43.5249179,-114.3189314
961,Silverstone Drive,83333,43.5092656,-114.2922356
2461,Grange Way,83333,43.5013308,-114.2870711
861,Deerfield Drive,83333,43.5174192,-114.2990421
510,Northstar Drive,83333,43.5226222,-114.3210483
707,Main Street,83333,43.5131449,-114.3109234
991,Eastridge Drive,83333,43.5149781,-114.2987039
3320,Glenbrook Drive,83333,43.4929987,-114.2812990
610,Whitetail Drive,83333,43.5199814,-114.2990429
3350,Woodside Boulevard,83333,43.4933754,-114.2791838
1440,Shadybrook Drive,83333,43.5102981,-114.2963004
2641,Winterhaven Drive,83333,43.5004139,-114.2837153
1310,Woodside Boulevard,83333,43.5123574,-114.2955581
3420,Flowing Wells Drive,83333,43.4927879,-114.2782476
206,Croy Street,83333,43.5172743,-114.3174610
897,Heartland Way,83333,43.5003997,-114.2867719
941,Eastridge Drive,83333,43.5146217,-114.3000463
615,Main Street,83333,43.5248523,-114.3201440
2930,Butterfly Drive,83333,43.4976940,-114.2810435
1031,Foxmoor Drive,83333,43.5159522,-114.3002832
4307,Glenbrook Drive,83333,43.4869255,-114.2721352
841,Jack Pine Drive,83333,43.5094778,-114.2941163
441,Aspen Drive,83333,43.5139749,-114.3177830
1111,Forest Bend Drive,83333,43.4900216,-114.2756453
511,Robin Hood Drive,83333,43.5111435,-114.3152626
931,CD Olena Drive,83333,43.5321172,-114.3109038
206,Carbonate Drive,83333,43.5196798,-114.3190881
611,Chestnut Street,83333,43.5178487,-114.3042013
620,Hailey Drive,83333,43.5192519,-114.3049524
101,Bullion Street,83333,43.5205054,-114.3140558
114,Croy Street,83333,43.5174528,-114.3167672
751,Sunrise Drive,83333,43.5125718,-114.2978358
2514,Woodside Boulevard,83333,43.5017104,-114.2856185
811,White Cloud Lane,83333,43.5068678,-114.2919954
2241,Moonlight Drive,83333,43.5043954,-114.2867812
860,Deerfield Drive,83333,43.5169260,-114.2989912
230,Eureka Drive,83333,43.5208674,-114.3070799
410,Eastridge Drive,83333,43.5202276,-114.3032746
1130,Baldy View Drive,83333,43.5128504,-114.2988347
1811,Laurelwood Drive,83333,43.5086889,-114.2894286
430,Deertrail Drive,83333,43.5206697,-114.3020244
1230,Northridge Drive,83333,43.5334558,-114.3171839
3170,Mountain Ash Drive,83333,43.4949703,-114.2818912
421,Golconda Drive,83333,43.5256916,-114.3103309
319,Main Street,83333,43.5221821,-114.3177960
631,Croy Street,83333,43.5223626,-114.3069983
220,Della Vista Drive,83333,43.5095413,-114.3123455
431,Shoshone Drive,83333,43.5193643,-114.3046790
393,Mother Lode Loop,83333,43.5258433,-114.3079116
720,Croy Street,83333,43.5219923,-114.3056623
431,San Badger Drive,83333,43.5284919,-114.3052036
520,Calumet Way,83333,43.5229853,-114.3204215
1131,Airport Way,83333,43.5103734,-114.3055780
741,Willow Drive,83333,43.5085841,-114.2960961
330,Golconda Drive,83333,43.5252762,-114.3093393
111,Main Street,83333,43.5189771,-114.3153597
1880,Ridgerock Lane,83333,43.5054079,-114.2927126
2011,Winterhaven Drive,83333,43.5063373,-114.2892998
1450,Bluff Drive,83333,43.5342382,-114.3197638
217,Galena Drive,83333,43.5200015,-114.3189236
981,Foxmoor Drive,83333,43.5166567,-114.2998119
530,San Badger Drive,83333,43.5298077,-114.3049426
1421,Northridge Drive,83333,43.5346512,-114.3194189
721,Doeskin Drive,83333,43.5181566,-114.3002236
3420,Glenbrook Drive,83333,43.4922086,-114.2805455
631,Northstar Drive,83333,43.5239590,-114.3224886
1921,Copper Ranch Lane,83333,43.5068813,-114.2901458
2211,Winterhaven Drive,83333,43.5042135,-114.2880516
1840,Copper Ranch Lane,83333,43.5077700,-114.2902600
2030,Briarwood Drive,83333,43.5049047,-114.2929223
4310,Glenbrook Drive,83333,43.4867012,-114.2728256
941,Winter Fox Lane,83333,43.4986458,-114.2846708
3721,Glenbrook Drive,83333,43.4892661,-114.2784334
519,Main Street,83333,43.5149213,-114.3122738
3160,Mountain Ash Drive,83333,43.4949690,-114.2821723
400,Main Street,83333,43.5167697,-114.3126960
431,Robin Hood Drive,83333,43.5122673,-114.3166984
631,Hailey Drive,83333,43.5197950,-114.3048964
361,Little Indio Lane,83333,43.5194185,-114.3219665
280,San Badger Drive,83333,43.5270097,-114.3044051
115,Main Street,83333,43.5187971,-114.3152228
1250,Woodside Boulevard,83333,43.5127710,-114.2958972
230,Chestnut Street,83333,43.5137362,-114.3137579
3461,Mountain Ash Drive,83333,43.4918538,-114.2794773
2970,Berrycreek Drive,83333,43.4980252,-114.2800934
921,Winter Fox Lane,83333,43.4984750,-114.2850033
910,War Eagle Drive,83333,43.5096593,-114.3150489
130,Sunbeam Street,83333,43.5226288,-114.3021632
308,Willow Street,83333,43.5166728,-114.3158622
2471,Grange Way,83333,43.5012025,-114.2869473
420,Willow Street,83333,43.5155188,-114.3150699
1260,Snowfly Drive,83333,43.5067108,-114.3101941
2711,Shenandoah Drive,83333,43.4984062,-114.2870578
392,Winterberry Loop,83333,43.5301847,-114.3200785
921,White Cloud Lane,83333,43.5074504,-114.2914555
506,Buttercup Road,83333,43.5267556,-114.3118216
891,Foxmoor Drive,83333,43.5165760,-114.2970293
441,San Badger Drive,83333,43.5287462,-114.3052203
3441,Berrycreek Drive,83333,43.4930650,-114.2778431
1400,Fox Acres Road,83333,43.5209413,-114.2949765
1915,Briarwood Drive,83333,43.5055217,-114.2941842
1461,Bluff Drive,83333,43.5344192,-114.3202950
921,Forest Bend Drive,83333,43.4899443,-114.2779579
102,Hiawatha Drive,83333,43.5280601,-114.3122255
3211,Shenandoah Drive,83333,43.4953176,-114.2789299
931,Forest Bend Drive,83333,43.4900089,-114.2776811
2951,Beaver Brook Drive,83333,43.4967353,-114.2833640
1010,Forest Bend Drive,83333,43.4895720,-114.2768667
3510,Berrycreek Drive,83333,43.4922944,-114.2772588
311,Pine Street,83333,43.5187669,-114.3090000
2161,Winterhaven Drive,83333,43.5043764,-114.2882094
1050,Woodside Boulevard,83333,43.5139371,-114.2987180
1040,Queen Of The Hills Drive,83333,43.5096485,-114.3094564
1941,Briarwood Drive,83333,43.5047810,-114.2934669
121,Sunbeam Street,83333,43.5232962,-114.3030532
712,Cutters Drive,83333,43.5289889,-114.3099254
3261,Flowing Wells Drive,83333,43.4945994,-114.2788039
300,San Badger Drive,83333,43.5274661,-114.3044761
731,River Street,83333,43.5253466,-114.3217172
2448,Windmill Way,83333,43.5009173,-114.2880699
2442,Winterhaven Drive,83333,43.5025399,-114.2846130
331,Elm Street,83333,43.5142586,-114.3169352
541,San Badger Drive,83333,43.5296228,-114.3057127
721,Myrtle Street,83333,43.5285477,-114.3096882
311,River Street,83333,43.5214439,-114.3188121
931,Main Street,83333,43.5281754,-114.3224570
540,Ivy Street,83333,43.5138344,-114.3148773
861,Winter Fox Lane,83333,43.4983897,-114.2851697
331,Alder Street,83333,43.5149055,-114.3173280
641,Angela Drive,83333,43.5235802,-114.3234848
411,Aspen Drive,83333,43.5147046,-114.3177624
430,Calumet Court,83333,43.5223913,-114.3200765
1594,Baldy View Drive,83333,43.5102936,-114.2925260
740,Sunrise Drive,83333,43.5121607,-114.2974502
540,Little Lena Drive,83333,43.5290105,-114.3058689
2231,Winterhaven Drive,83333,43.5038996,-114.2877476
1241,Green Valley Drive,83333,43.5137354,-114.2942687
1030,Snowflake Drive,83333,43.4902849,-114.2770165
2250,Woodside Boulevard,83333,43.5034120,-114.2877823
970,Foxmoor Drive,83333,43.5161400,-114.2997143
501,Main Street,83333,43.5154854,-114.3127028
641,Carbonate Street,83333,43.5241630,-114.3079224
619,River Street,83333,43.5243822,-114.3211786
21,Mc Kercher Boulevard,83333,43.5287325,-114.3210312
1020,Fox Acres Road,83333,43.5150690,-114.2954486
2455,Woodside Boulevard,83333,43.5015355,-114.2868085
3220,Berrycreek Drive,83333,43.4956820,-114.2778176
1831,Copper Ranch Lane,83333,43.5075719,-114.2905859
530,Northstar Drive,83333,43.5230534,-114.3212814
540,Eureka Drive,83333,43.5179089,-114.3048308
3151,Shenandoah Drive,83333,43.4953277,-114.2799850
1021,Broadford Road,83333,43.5103510,-114.3090857
841,Aspen Valley Drive,83333,43.5143366,-114.2976554
226,Carbonate Drive,83333,43.5200887,-114.3193984
416,Main Street,83333,43.5162635,-114.3125277
1770,Lear Lane,83333,43.5037722,-114.3020992
740,Red Ash Drive,83333,43.5063603,-114.2922975
3930,Woodside Boulevard,83333,43.4879665,-114.2739544
311,Winterberry Loop,83333,43.5307503,-114.3189999
4111,Glenbrook Drive,83333,43.4858163,-114.2745109
1919,Briarwood Drive,83333,43.5054150,-114.2940807
4161,Glenbrook Drive,83333,43.4854037,-114.2734277
1120,Broadford Road,83333,43.5101200,-114.3075120
1221,Woodside Boulevard,83333,43.5127565,-114.2970237
140,Havilland Way,83333,43.5019348,-114.2989467
2961,Butterfly Drive,83333,43.4970695,-114.2811974
3350,Glenbrook Drive,83333,43.4925223,-114.2808498
621,Bonanza Lane,83333,43.5245655,-114.3090233
1921,Electra Lane,83333,43.5019594,-114.3013398
305,Myrtle Street,83333,43.5262504,-114.3152149
221,Della Vista Drive,83333,43.5101364,-114.3125019
3040,Woodside Boulevard,83333,43.4964179,-114.2810847
411,River Lane,83333,43.5221626,-114.3199541
241,Myrtle Street,83333,43.5232834,-114.3227041
1921,Electra Lane,83333,43.5019659,-114.3020664
920,Quigley Road,83333,43.5218704,-114.3022371
481,Robin Hood Drive,83333,43.5109267,-114.3159932
811,White Cloud Lane,83333,43.5068101,-114.2920989
1580,Baldy View Drive,83333,43.5102123,-114.2942995
201,Main Street,83333,43.5183410,-114.3148757
215,Galena Street,83333,43.5231704,-114.3138200
660,West Meadow Drive,83333,43.5413479,-114.3213452
219,Walaneut Street,83333,43.5169678,-114.3167642
1760,Heroic Road,83333,43.5391497,-114.3197321
2241,Winterhaven Drive,83333,43.5037427,-114.2875957
940,Forest Bend Drive,83333,43.4895714,-114.2770927
180,San Badger Drive,83333,43.5243864,-114.3037507
210,Pike Street,83333,43.5218400,-114.3060520
121,Cranbrook Road,83333,43.5300481,-114.3215674
3331,Mountain Ash Drive,83333,43.4928373,-114.2806940
850,Shenandoah Drive,83333,43.5015006,-114.2890309
930,White Cloud Lane,83333,43.5076083,-114.2908443
2410,Woodside Boulevard,83333,43.5022945,-114.2865263
232,Winterberry Loop,83333,43.5294385,-114.3182613
1921,Electra Lane,83333,43.5019604,-114.3022591
3931,Glenbrook Drive,83333,43.4875008,-114.2767306
510,Deertrail Drive,83333,43.5203276,-114.3010529
241,Winterberry Loop,83333,43.5298692,-114.3185614
731,Angela Drive,83333,43.5244164,-114.3240630
150,Sunbeam Street,83333,43.5232994,-114.3023370
945,Countryside Boulevard,83333,43.5005138,-114.2859925
1981,Woodside Boulevard,83333,43.5059270,-114.2915235
220,Walaneut Street,83333,43.5163140,-114.3166348
740,Red Ash Drive,83333,43.5064790,-114.2925608
2951,Butterfly Drive,83333,43.4972263,-114.2813495
2531,Winterhaven Drive,83333,43.5013554,-114.2844341
220,Cottonwood Street,83333,43.5156906,-114.3161597
1921,Electra Lane,83333,43.5019535,-114.3014680
1031,Queen Of The Hills Drive,83333,43.5096897,-114.3104147
511,Deertrail Drive,83333,43.5199943,-114.3015952
3030,Shenandoah Drive,83333,43.4961018,-114.2832841
2030,Briarwood Drive,83333,43.5042800,-114.2923179
521,Eastridge Drive,83333,43.5192286,-114.3024087
3331,Berrycreek Drive,83333,43.4944134,-114.2778270
530,Buckhorn Drive,83333,43.5214260,-114.2972625
711,Deerfield Drive,83333,43.5170110,-114.3021970
3560,Glenbrook Drive,83333,43.4907168,-114.2791006
1120,Quigley Road,83333,43.5223997,-114.2994269
101,Sunbeam Street,83333,43.5228728,-114.3028867
503,Croy Street,83333,43.5216347,-114.3084145
512,Main Street,83333,43.5241393,-114.3183377
2831,Butterfly Drive,83333,43.4982461,-114.2824529
811,Deerfield Drive,83333,43.5173870,-114.3007022
1741,Lear Lane,83333,43.5036723,-114.3036360
521,Whitetail Drive,83333,43.5203954,-114.3003749
1831,Heroic Road,83333,43.5394927,-114.3213062
1111,Cherry Hill Drive,83333,43.4893352,-114.2749567
111,Sunbeam Street,83333,43.5231045,-114.3029766
280,Sunbeam Street,83333,43.5263315,-114.3025517
2458,Shenandoah Drive,83333,43.5005685,-114.2881929
409,River Lane,83333,43.5220034,-114.3198489
20,Jetstar Lane,83333,43.5028261,-114.3020949
314,River Street,83333,43.5167281,-114.3142776
2462,Shenandoah Drive,83333,43.5004413,-114.2880697
1911,Briarwood Drive,83333,43.5056286,-114.2942878
911,Main Street,83333,43.5276146,-114.3222325
310,River Street,83333,43.5217362,-114.3180862
310,Cedar Street,83333,43.5106901,-114.3135839
403,Main Street,83333,43.5226023,-114.3181154
206,Main Street,83333,43.5212977,-114.3161765
1011,Copper Ranch Way,83333,43.5076667,-114.2895520
4041,Woodside Boulevard,83333,43.4870748,-114.2760897
1161,Blue Lake Drive,83333,43.5140038,-114.2952502
410,Deerwood Drive,83333,43.5215528,-114.2998733
740,Red Ash Drive,83333,43.5063804,-114.2930493
4306,Glenbrook Drive,83333,43.4865134,-114.2724506
1310,Citation Way,83333,43.5081128,-114.3054438
1815,Briarwood Drive,83333,43.5063950,-114.2950176
835,Heartland Way,83333,43.5001531,-114.2872522
831,Winterhaven Drive,83333,43.5082550,-114.2930696
106,Main Street,83333,43.5194807,-114.3147949
2432,Woodside Boulevard,83333,43.5016721,-114.2861121
381,Mother Lode Loop,83333,43.5251438,-114.3084035
541,Eastridge Drive,83333,43.5189915,-114.3017934
230,Galena Drive,83333,43.5205240,-114.3185975
531,Mother Lode Loop,83333,43.5269098,-114.3110092
1030,Business Park Drive,83333,43.5104153,-114.3072656
3020,Glenbrook Drive,83333,43.4956895,-114.2840108
810,CD Olena Drive,83333,43.5309764,-114.3090469
1940,Copper Ranch Lane,83333,43.5065229,-114.2897101
460,River Trail,83333,43.5212711,-114.3229419
101,Bullion Street,83333,43.5204733,-114.3138551
3120,Shenandoah Drive,83333,43.4958000,-114.2806000
810,Buckskin Drive,83333,43.5207769,-114.3036204
504,River Street,83333,43.5151594,-114.3130840
1450,Aviation Drive,83333,43.5075874,-114.3035851
2505,Winterhaven Drive,83333,43.5016618,-114.2851813
430,San Badger Drive,83333,43.5287491,-114.3045501
1331,Queen Of The Hills Drive,83333,43.5071781,-114.3077421
203,Bullion Street,83333,43.5210574,-114.3128421
2661,Winterhaven Drive,83333,43.5001834,-114.2836791
1526,Quigley Farm Road,83333,43.5217431,-114.2923790
1231,Aspen Valley Drive,83333,43.5134118,-114.2958861
1151,Woodside Boulevard,83333,43.5131204,-114.2983300
441,West Meadow Drive,83333,43.5408393,-114.3252804
1321,Creekside Drive,83333,43.5108526,-114.2990619
491,Mother Lode Loop,83333,43.5270104,-114.3086950
3010,Berrycreek Drive,83333,43.4977343,-114.2797462
320,Apache Drive,83333,43.5208961,-114.3049578
3181,Mountain Ash Drive,83333,43.4944634,-114.2821966
310,Eureka Drive,83333,43.5204387,-114.3067540
1831,Briarwood Drive,83333,43.5058423,-114.2944948
620,Fox Acres Road,83333,43.5134075,-114.3006145
850,Winter Fox Lane,83333,43.4980121,-114.2849699
331,Golconda Drive,83333,43.5250588,-114.3098503
640,Ironside Drive,83333,43.5200655,-114.3050808
510,Almond Street,83333,43.5141078,-114.3161160
1840,Copper Ranch Lane,83333,43.5078271,-114.2903069
1120,Broadford Road,83333,43.5103181,-114.3070168
4303,Glenbrook Drive,83333,43.4866914,-114.2715843
3430,Mountain Ash Drive,83333,43.4924076,-114.2796063
971,Foxmoor Drive,83333,43.5166428,-114.2995228
1999,Electra Lane,83333,43.5024406,-114.3002493
741,Carbonate Street,83333,43.5245022,-114.3070728
4060,Black Oak Drive,83333,43.4865881,-114.2732320
2830,Butterfly Drive,83333,43.4984252,-114.2818886
1520,Appaloosa Road,83333,43.5205135,-114.2931486
200,Main Street,83333,43.5185980,-114.3141236
870,Eastridge Drive,83333,43.5156458,-114.3005487
1020,Snowflake Drive,83333,43.4902843,-114.2772640
1220,Blue Lake Drive,83333,43.5140978,-114.2945996
2950,Shenandoah Drive,83333,43.4967082,-114.2837989
1940,Copper Ranch Lane,83333,43.5066191,-114.2896821
2030,Briarwood Drive,83333,43.5045559,-114.2923796
1440,Northridge Drive,83333,43.5353134,-114.3191374
3030,Berrycreek Drive,83333,43.4974431,-114.2794023
1820,Laurelwood Drive,83333,43.5086175,-114.2887059
2730,Winterhaven Drive,83333,43.4991162,-114.2832400
361,Winterberry Loop,83333,43.5305083,-114.3192894
1111,Wolftone Drive,83333,43.5077385,-114.3115578
1830,Lear Lane,83333,43.5029740,-114.3009520
950,Ponderosa Drive,83333,43.5094037,-114.2928614
2310,Woodside Boulevard,83333,43.5030981,-114.2874783
1121,Silver Star Drive,83333,43.5082503,-114.3104006
411,Croy Street,83333,43.5211724,-114.3092507
1231,Baldy View Drive,83333,43.5115608,-114.2986767
571,Mother Lode Loop,83333,43.5274461,-114.3093615
1021,War Eagle Drive,83333,43.5075608,-114.3156690
213,Galena Drive,83333,43.5199231,-114.3188641
430,Eastridge Drive,83333,43.5200607,-114.3029878
516,Main Street,83333,43.5244170,-114.3185702
191,Sunbeam Street,83333,43.5254308,-114.3030404
851,Shenandoah Drive,83333,43.5041056,-114.2902342
416,Main Street,83333,43.5234337,-114.3177998
2415,Winterhaven Drive,83333,43.5025277,-114.2857601
1211,Broadford Road,83333,43.5086305,-114.3075908
305,Elm Street,83333,43.5175863,-114.3086224
831,Jack Pine Drive,83333,43.5094563,-114.2942847
350,Cranbrook Road,83333,43.5339981,-114.3195085
3821,Woodside Boulevard,83333,43.4894690,-114.2750748
951,Silverstone Drive,83333,43.5092504,-114.2923554
240,Cedar Street,83333,43.5113486,-114.3129502
1030,Business Park Drive,83333,43.5102840,-114.3076152
515,River Street,83333,43.5236327,-114.3203665
4130,Glenbrook Drive,83333,43.4859139,-114.2735774
340,West Meadow Drive,83333,43.5390811,-114.3255808
140,Havilland Way,83333,43.5019367,-114.2991267
1931,Copper Ranch Lane,83333,43.5067388,-114.2902272
770,River Street,83333,43.5128575,-114.3113334
2483,Woodside Boulevard,83333,43.5012272,-114.2865097
2841,Glenbrook Drive,83333,43.4979543,-114.2840954
1331,Snowfly Drive,83333,43.5061621,-114.3093488
410,Pocahontas Drive,83333,43.5196953,-114.3051437
9,Elm Street,83333,43.5161814,-114.3121121
720,River Street,83333,43.5132351,-114.3116265
261,Winterberry Loop,83333,43.5300931,-114.3186998
1840,Ridgerock Lane,83333,43.5061204,-114.2934037
1911,Electra Lane,83333,43.5019842,-114.3026117
721,River Street,83333,43.5131065,-114.3124541
1010,Cutters Drive,83333,43.5300087,-114.3071128
3215,Shenandoah Drive,83333,43.4953546,-114.2783107
947,Countryside Boulevard,83333,43.5005392,-114.2859433
1630,Northridge Drive,83333,43.5372236,-114.3201877
205,Galena Drive,83333,43.5197664,-114.3187452
2810,Shenandoah Drive,83333,43.4977807,-114.2855757
740,Fox Acres Road,83333,43.5142965,-114.2990749
318,Spruce Street,83333,43.5249447,-114.3135938
2833,Shenandoah Drive,83333,43.4971933,-114.2855864
1840,Copper Ranch Lane,83333,43.5078581,-114.2903051
315,Main Street,83333,43.5220741,-114.3177139
4321,Glenbrook Drive,83333,43.4877088,-114.2732747
1021,Antler Drive,83333,43.5206303,-114.2996067
620,Deertrail Drive,83333,43.5192845,-114.2996585
1011,Copper Ranch Way,83333,43.5077189,-114.2894858
621,Willow Drive,83333,43.5079819,-114.2966368
2630,Woodside Boulevard,83333,43.5002343,-114.2842369
740,Wintergreen Drive,83333,43.5116940,-114.2964381
1431,Aspen Valley Drive,83333,43.5110666,-114.2942946
641,Deerfield Drive,83333,43.5175779,-114.3024943
740,Red Ash Drive,83333,43.5057968,-114.2924390
351,Mother Lode Loop,83333,43.5248246,-114.3107925
341,Aspen Drive,83333,43.5149853,-114.3179779
1851,Copper Ranch Lane,83333,43.5074495,-114.2902172
630,Kintail Drive,83333,43.5396462,-114.3195658
17,Carbonate Street,83333,43.5210955,-114.3153942
220,Robin Hood Drive,83333,43.5125437,-114.3142749
407,Bullion Street,83333,43.5179758,-114.3206960
840,CD Olena Drive,83333,43.5317540,-114.3096213
1530,Northridge Drive,83333,43.5363750,-114.3196636
919,Heartland Way,83333,43.5005799,-114.2864210
1060,Snowflake Drive,83333,43.4905027,-114.2762893
910,Main Street,83333,43.5280286,-114.3212391
831,Countryside Boulevard,83333,43.4999022,-114.2871837
1320,Queen Of The Hills Drive,83333,43.5075303,-114.3067275
421,Whitetail Drive,83333,43.5207606,-114.3013286
450,River Trail,83333,43.5210102,-114.3228204
461,West Meadow Drive,83333,43.5408702,-114.3236429
15,Bullion Street,83333,43.5195309,-114.3162809
851,Foxmoor Drive,83333,43.5174762,-114.2958077
420,Cedar Street,83333,43.5100888,-114.3151652
13,Elm Street,83333,43.5163143,-114.3117564
607,River Street,83333,43.5138136,-114.3130075
941,Silverstone Drive,83333,43.5092043,-114.2924603
1521,Appaloosa Road,83333,43.5212680,-114.2935522
4315,Glenbrook Drive,83333,43.4872983,-114.2728200
350,Robin Hood Drive,83333,43.5121301,-114.3153821
1141,Airport Way,83333,43.5100339,-114.3055346
218,Main Street,83333,43.5180642,-114.3137170
1821,Laurelwood Drive,83333,43.5083398,-114.2892429
3360,Glenbrook Drive,83333,43.4923654,-114.2806976
430,Deerwood Drive,83333,43.5213436,-114.2991072
1041,Daybreak Lane,83333,43.5008232,-114.2844295
1230,Woodside Boulevard,83333,43.5130857,-114.2963560
516,Main Street,83333,43.5244005,-114.3186108
1120,Broadford Road,83333,43.5100912,-114.3075843
516,Main Street,83333,43.5244042,-114.3186072
931,Snowflake Drive,83333,43.4907204,-114.2783701
16,Croy Street,83333,43.5179770,-114.3154183
910,Silver Star Drive,83333,43.5108703,-114.3119854
521,Northstar Drive,83333,43.5225425,-114.3217379
1141,Airport Way,83333,43.5099556,-114.3050854
308,River Street,83333,43.5169440,-114.3144420
1921,Copper Ranch Lane,83333,43.5069775,-114.2901577
541,Deertrail Drive,83333,43.5194780,-114.3007145
1531,Blue Lake Drive,83333,43.5104726,-114.2933089
521,Robin Hood Drive,83333,43.5112735,-114.3149435
1940,Heroic Road,83333,43.5408484,-114.3214703
18,Chestnut Street,83333,43.5143536,-114.3124708
31,McKercher Boulevard,83333,43.5293303,-114.3217847
2457,Woodside Boulevard,83333,43.5014996,-114.2867738
1020,Business Park Drive,83333,43.5107245,-114.3076149
850,Shenandoah Drive,83333,43.5024276,-114.2879391
412,Winterberry Loop,83333,43.5297596,-114.3198920
850,Fox Acres Road,83333,43.5145622,-114.2979261
400,Main Street,83333,43.5166493,-114.3127937
403,Silver Street,83333,43.5248486,-114.3125713
260,Chestnut Street,83333,43.5135200,-114.3143130
1730,Heroic Road,83333,43.5384278,-114.3192151
3330,Flowing Wells Drive,83333,43.4940284,-114.2782078
250,Cranbrook Road,83333,43.5321522,-114.3187053
511,Northstar Drive,83333,43.5223192,-114.3216135
619,Main Street,83333,43.5139010,-114.3114978
613,River Street,83333,43.5241015,-114.3208353
205,Myrtle Street,83333,43.5257637,-114.3164221
631,Croy Street,83333,43.5221486,-114.3068287
111,Spruce Street,83333,43.5242701,-114.3168617
2170,Laurelwood Drive,83333,43.5050411,-114.2893577
1041,Cherry Hill Drive,83333,43.4893002,-114.2758618
1010,CD Olena Drive,83333,43.5331648,-114.3104081
3130,Snow Bank Drive,83333,43.4946097,-114.2797089
404,Bullion Street,83333,43.5171866,-114.3202721
1021,Copper Ranch Way,83333,43.5076295,-114.2892270
1120,Silver Star Drive,83333,43.5086976,-114.3099688
2940,Woodside Boulevard,83333,43.4972251,-114.2818094
1641,Northridge Drive,83333,43.5374562,-114.3213000
3040,Glenbrook Drive,83333,43.4950190,-114.2832955
311,Eureka Drive,83333,43.5201884,-114.3072584
510,Little Lena Drive,83333,43.5284740,-114.3056948
640,Kintail Drive,83333,43.5400173,-114.3197013
3620,Woodside Boulevard,83333,43.4912700,-114.2764503
1993,Woodside Boulevard,83333,43.5057770,-114.2912254
1441,Blue Lake Drive,83333,43.5111514,-114.2933051
113,Bullion Street,83333,43.5192002,-114.3175702
1770,Laurelwood Drive,83333,43.5093277,-114.2895219
1810,Copper Ranch Lane,83333,43.5080155,-114.2911502
1141,Echo Hill Drive,83333,43.4964531,-114.2794490
206,Galena Drive,83333,43.5199881,-114.3181905
3630,Woodside Boulevard,83333,43.4912981,-114.2759822
1010,Sunrise Drive,83333,43.5142156,-114.2953157
19,Bullion Street,83333,43.5194474,-114.3165406
2920,Berrycreek Drive,83333,43.4982683,-114.2815061
3210,Shenandoah Drive,83333,43.4958111,-114.2785763
3261,Woodside Boulevard,83333,43.4938712,-114.2805099
520,Northstar Drive,83333,43.5228202,-114.3211554
1141,Buckskin Drive,83333,43.5222542,-114.2986214
1030,Business Park Drive,83333,43.5103547,-114.3074141
530,Aspen Drive,83333,43.5134951,-114.3166872
531,Robin Hood Drive,83333,43.5114031,-114.3146242
911,Jack Pine Drive,83333,43.5094856,-114.2935380
330,Grays Starlight Drive,83333,43.5270474,-114.3025021
511,Eastridge Drive,83333,43.5193358,-114.3027153
104,Main Street,83333,43.5200922,-114.3152599
610,West Meadow Drive,83333,43.5409393,-114.3217414
2030,Briarwood Drive,83333,43.5051046,-114.2923350
211,River Street,83333,43.5176206,-114.3159050
3321,Flowing Wells Drive,83333,43.4940741,-114.2788106
1661,Woodside Boulevard,83333,43.5083587,-114.2947146
2161,Moonlight Drive,83333,43.5047233,-114.2870578
720,Doeskin Drive,83333,43.5180505,-114.2995323
171,San Badger Drive,83333,43.5237580,-114.3044944
530,Almond Street,83333,43.5137316,-114.3158315
2931,Shenandoah Drive,83333,43.4966151,-114.2844465
930,White Cloud Lane,83333,43.5075819,-114.2909571
223,Croy Street,83333,43.5176034,-114.3182623
1341,Aspen Valley Drive,83333,43.5120235,-114.2946553
451,Angela Drive,83333,43.5217754,-114.3225942
650,El Dorado Lane,83333,43.5256380,-114.3092181
1220,Aviation Drive,83333,43.5093003,-114.3061919
516,Main Street,83333,43.5152141,-114.3115482
620,Whitetail Drive,83333,43.5197683,-114.2987937
910,Antelope Drive,83333,43.5113860,-114.2948259
2630,Woodside Boulevard,83333,43.5003565,-114.2849140
1011,Daybreak Lane,83333,43.5002853,-114.2839193
640,Bullion Street,83333,43.5227152,-114.3067868
1240,Aspen Valley Drive,83333,43.5134469,-114.2952842
207,River Street,83333,43.5203035,-114.3179452
190,Cranbrook Road,83333,43.5312242,-114.3208546
740,Red Ash Drive,83333,43.5065183,-114.2925398
851,Jack Pine Drive,83333,43.5094855,-114.2939606
1,Carbonate Street,83333,43.5206455,-114.3166280
3430,Berrycreek Drive,83333,43.4932413,-114.2772468
3241,Woodside Boulevard,83333,43.4941903,-114.2808062
1530,Heroic Road,83333,43.5365825,-114.3185696
730,Sunrise Drive,83333,43.5119434,-114.2976073
141,Cranbrook Road,83333,43.5305939,-114.3216061
1730,Northridge Drive,83333,43.5383825,-114.3205455
101,Bullion Street,83333,43.5204206,-114.3140793
1441,Shadybrook Drive,83333,43.5099278,-114.2967351
3190,Mountain Ash Drive,83333,43.4945029,-114.2815701
1020,Cherry Hill Drive,83333,43.4888610,-114.2760339
4150,Glenbrook Drive,83333,43.4857939,-114.2732230
1041,Snowflake Drive,83333,43.4907795,-114.2770502
3751,Woodside Boulevard,83333,43.4895778,-114.2752318
640,River Trail,83333,43.5230884,-114.3237882
1110,Queen Of The Hills Drive,83333,43.5093932,-114.3091216
3451,Woodside Boulevard,83333,43.4923766,-114.2791700
2740,Winterhaven Drive,83333,43.4997447,-114.2828589
231,Galena Drive,83333,43.5202929,-114.3191446
910,Snowflake Drive,83333,43.4902731,-114.2786875
130,Gulf Stream Lane,83333,43.5042537,-114.3032890
510,Myrtle Street,83333,43.5269357,-114.3121862
1571,Baldy View Drive,83333,43.5096709,-114.2947109
521,Ivy Street,83333,43.5140367,-114.3156763
2518,Woodside Boulevard,83333,43.5014709,-114.2854966
1311,Baldy View Drive,83333,43.5110532,-114.2984818
640,Angela Drive,83333,43.5238371,-114.3229110
1731,Laurelwood Drive,83333,43.5090288,-114.2905236
551,Little Lena Drive,83333,43.5292954,-114.3066928
711,Doeskin Drive,83333,43.5185212,-114.3001833
3150,Berrycreek Drive,83333,43.4959452,-114.2779779
1430,Aspen Valley Drive,83333,43.5113720,-114.2936804
620,Docs Hickory Drive,83333,43.5296161,-114.3073983
331,Aspen Drive,83333,43.5152413,-114.3182087
3471,Mountain Ash Drive,83333,43.4918520,-114.2792057
1030,Antler Drive,83333,43.5203779,-114.2989541
3371,Berrycreek Drive,83333,43.4936414,-114.2778358
3621,Glenbrook Drive,83333,43.4900729,-114.2792150
217,Spruce Street,83333,43.5250784,-114.3151472
421,River Street,83333,43.5154627,-114.3142763
1120,Broadford Road,83333,43.5102567,-114.3071698
711,Croy Street,83333,43.5224938,-114.3061772
2521,Woodside Boulevard,83333,43.5010375,-114.2863259
3431,Glenbrook Drive,83333,43.4917986,-114.2808867
1020,Silver Star Drive,83333,43.5097315,-114.3110930
1430,Shadybrook Drive,83333,43.5104992,-114.2964212
3581,Woodside Boulevard,83333,43.4912048,-114.2773443
521,West Meadow Drive,83333,43.5408228,-114.3230138
3631,Woodside Boulevard,83333,43.4909914,-114.2769682
2527,Grange Way,83333,43.5008200,-114.2865762
2030,Briarwood Drive,83333,43.5042618,-114.2921978
621,Little Lena Drive,83333,43.5297493,-114.3069600
520,Willow Street,83333,43.5142580,-114.3141981
2911,Woodside Boulevard,83333,43.4975051,-114.2829108
210,Primrose Lane,83333,43.5325375,-114.3208122
640,Bonanza Lane,83333,43.5244148,-114.3081137
151,Cranbrook Road,83333,43.5307534,-114.3216089
314,Main Street,83333,43.5224379,-114.3170432
530,Little Lena Drive,83333,43.5288659,-114.3057838
1510,Appaloosa Road,83333,43.5205476,-114.2937900
1560,Appaloosa Road,83333,43.5216345,-114.2911302
1735,Briarwood Drive,83333,43.5068026,-114.2954037
2524,Winterhaven Drive,83333,43.5018123,-114.2839055
272,Winterberry Loop,83333,43.5302579,-114.3179956
2030,Briarwood Drive,83333,43.5048406,-114.2925557
710,Ironside Drive,83333,43.5202681,-114.3045714
830,Aspen Valley Drive,83333,43.5139026,-114.2977163
420,Buckhorn Drive,83333,43.5227706,-114.2972746
216,Carbonate Street,83333,43.5191095,-114.3188494
110,Dornier Way,83333,43.5048545,-114.3042535
1351,Aviation Drive,83333,43.5079231,-114.3049630
931,Jack Pine Drive,83333,43.5095362,-114.2932150
740,Bonanza Lane,83333,43.5249243,-114.3073510
1021,Daybreak Lane,83333,43.5004446,-114.2840654
311,Apache Drive,83333,43.5209348,-114.3056236
541,Docs Hickory Drive,83333,43.5288108,-114.3075803
721,CD Olena Drive,83333,43.5300714,-114.3096602
361,Cranbrook Road,83333,43.5333053,-114.3208123
317,River Street,83333,43.5216601,-114.3189764
510,Willow Street,83333,43.5147999,-114.3145007
1341,Silver Star Drive,83333,43.5065930,-114.3072201
1521,Baldy View Drive,83333,43.5088165,-114.2972394
1421,Blue Lake Drive,83333,43.5115863,-114.2933025
2524,Woodside Boulevard,83333,43.5012155,-114.2852255
3151,Glenbrook Drive,83333,43.4941521,-114.2831667
221,Eureka Drive,83333,43.5207610,-114.3076940
2931,Woodside Boulevard,83333,43.4972026,-114.2825945
1021,Cherry Hill Drive,83333,43.4892991,-114.2763139
1031,Red Elephant Drive,83333,43.5088187,-114.3127149
621,River Street,83333,43.5245773,-114.3211759
2030,Laurelwood Drive,83333,43.5062304,-114.2872936
850,Shenandoah Drive,83333,43.5023834,-114.2887053
1020,Woodside Boulevard,83333,43.4916101,-114.2788893
2468,Shenandoah Drive,83333,43.5002505,-114.2878848
1983,Woodside Boulevard,83333,43.5059020,-114.2914738
1760,Lear Lane,83333,43.5039693,-114.3026282
730,Robin Hood Drive,83333,43.5123575,-114.3132851
1640,Heroic Road,83333,43.5378948,-114.3192230
2621,Winterhaven Drive,83333,43.5006518,-114.2838108
2630,Woodside Boulevard,83333,43.5004042,-114.2848213
402,Galena Street,83333,43.5234680,-114.3115232
961,Winter Fox Lane,83333,43.4988166,-114.2843382
3730,Glenbrook Drive,83333,43.4894283,-114.2778529
460,Mother Lode Loop,83333,43.5262846,-114.3089346
1340,Queen Of The Hills Drive,83333,43.5072238,-114.3062131
651,Eastridge Drive,83333,43.5177900,-114.3014158
520,Robin Hood Drive,83333,43.5118068,-114.3151325
3370,Flowing Wells Drive,83333,43.4932597,-114.2782175
117,Walaneut,83333,43.5190269,-114.3122437
2453,Woodside Boulevard,83333,43.5015715,-114.2868432
1730,Winterhaven Drive,83333,43.5086517,-114.2904177
3710,Woodside Boulevard,83333,43.4907413,-114.2751850
930,Quigley Road,83333,43.5219396,-114.3018685
910,Cherry Creek Drive,83333,43.4909846,-114.2793762
2451,Woodside Boulevard,83333,43.5016229,-114.2868932
531,Angela Drive,83333,43.5224538,-114.3229419
615,Willow Drive,83333,43.5082478,-114.2967178
730,Northstar Drive,83333,43.5249401,-114.3223023
115,Pine Street,83333,43.5177969,-114.3113078
1131,Creekside Drive,83333,43.5122760,-114.3008109
561,Calumet Way,83333,43.5234089,-114.3210796
920,Cherry Creek Drive,83333,43.4909303,-114.2789432
1310,Silver Star Drive,83333,43.5074495,-114.3080060
1841,Winterhaven Drive,83333,43.5079600,-114.2894595
2030,Briarwood Drive,83333,43.5045650,-114.2921536
109,Spruce Street,83333,43.5230335,-114.3200234
2035,Briarwood Drive,83333,43.5039793,-114.2926901
1221,Baldy View Drive,83333,43.5118673,-114.2990772
520,River Street,83333,43.5236882,-114.3195710
861,Eastridge Drive,83333,43.5157150,-114.3013833
301,Winterberry Loop,83333,43.5305202,-114.3188806
3131,Mountain Ash Drive,83333,43.4945614,-114.2828236
830,Deerfield Drive,83333,43.5169321,-114.3000654
1911,Laurelwood Drive,83333,43.5079406,-114.2878615
704,River Street,83333,43.5252120,-114.3209483
741,Angela Drive,83333,43.5246107,-114.3242117
3340,Woodside Boulevard,83333,43.4935323,-114.2793362
1051,Triumph Drive,83333,43.5080065,-114.3140690
1541,Heroic Road,83333,43.5367904,-114.3194196
372,Winterberry Loop,83333,43.5305854,-114.3199042
510,Willow Drive,83333,43.5146432,-114.3142759
1524,Quigley Farm Road,83333,43.5218012,-114.2925788
1011,Broadford Road,83333,43.5106184,-114.3091998
1331,Aspen Valley Drive,83333,43.5122299,-114.2949251
215,Bullion Street,83333,43.5186893,-114.3185300
3251,Woodside Boulevard,83333,43.4940334,-114.2806542
650,West Meadow Drive,83333,43.5415139,-114.3216519
2270,Winterhaven Drive,83333,43.5037091,-114.2867456
1131,Woodside Boulevard,83333,43.5131847,-114.2987013
710,Robin Hood Drive,83333,43.5127900,-114.3136134
505,Croy Street,83333,43.5217993,-114.3080782
1021,CD Olena Drive,83333,43.5330173,-114.3113709
1510,Baldy View Drive,83333,43.5094473,-114.2968469
141,Citation Way,83333,43.5094084,-114.3049456
540,Almond Street,83333,43.5135349,-114.3156820
4041,Glenbrook Drive,83333,43.4860803,-114.2748262
3720,Woodside Boulevard,83333,43.4903655,-114.2750393
2464,Shenandoah Drive,83333,43.5003777,-114.2880081
511,Main Street,83333,43.5236581,-114.3189178
741,Willow Drive,83333,43.5086183,-114.2960555
302,Walaneut Street,83333,43.5191339,-114.3098009
2475,Woodside Boulevard,83333,43.5013935,-114.2866708
400,Little Indio Lane,83333,43.5190420,-114.3216034
933,Eastridge Drive,83333,43.5146334,-114.3009118
205,Main Street,83333,43.5181970,-114.3147661
3340,Flowing Wells Drive,83333,43.4938362,-114.2782102
521,Buckhorn Drive,83333,43.5214646,-114.2979300
1121,CD Olena Drive,83333,43.5341547,-114.3120985
3650,Woodside Boulevard,83333,43.4910470,-114.2753920
3180,Mountain Ash Drive,83333,43.4947486,-114.2816923
530,Angela Drive,83333,43.5226391,-114.3223078
621,Carbonate Street,83333,43.5239296,-114.3085019
1930,Topolev Way,83333,43.5024850,-114.2996378
1020,Quigley Road,83333,43.5220780,-114.3011314
510,Elm Street,83333,43.5182668,-114.3057961
2931,Berrycreek Drive,83333,43.4978712,-114.2807848
2131,Winterhaven Drive,83333,43.5048562,-114.2886644
308,Main Street,83333,43.5221989,-114.3168617
214,Galena Drive,83333,43.5201445,-114.3183093
831,Aspen Valley Drive,83333,43.5142521,-114.2979965
140,Havilland Way,83333,43.5020783,-114.2983021
1030,Business Park Drive,83333,43.5102333,-114.3076952
260 1/2,Little Indio Lane,83333,43.5190329,-114.3218214
1020,Triumph Drive,83333,43.5088098,-114.3133829
2150,Woodside Boulevard,83333,43.5043658,-114.2887063
3351,Mountain Ash Drive,83333,43.4925235,-114.2803897
290,Chestnut Street,83333,43.5133160,-114.3148791
3410,Flowing Wells Drive,83333,43.4930922,-114.2782196
1940,Copper Ranch Lane,83333,43.5065300,-114.2897079
620,River Street,83333,43.5142174,-114.3123673
430,Northstar Drive,83333,43.5219902,-114.3207067
210,War Eagle Drive,83333,43.5085750,-114.3106045
3231,Glenbrook Drive,83333,43.4936814,-114.2827106
308,Bullion Street,83333,43.5172741,-114.3192779
3150,Shenandoah Drive,83333,43.4957644,-114.2796853
1997,Woodside Boulevard,83333,43.5057270,-114.2911260
2921,Butterfly Drive,83333,43.4976970,-114.2818056
1574,Baldy View Drive,83333,43.5101298,-114.2946725
16,Croy Street,83333,43.5181156,-114.3154030
2431,Winterhaven Drive,83333,43.5024328,-114.2857856
215,Main Street,83333,43.5212217,-114.3170661
321,Cedar Street,83333,43.5110360,-114.3143637
619,River Street,83333,43.5244693,-114.3211151
1051,Broadford Road,83333,43.5098962,-114.3086417
2525,Winterhaven Drive,83333,43.5013343,-114.2849248
3161,Glenbrook Drive,83333,43.4939952,-114.2830147
115,Croy Street,83333,43.5180488,-114.3171573
1410,Fox Acres Road,83333,43.5212922,-114.2949967
236,Galena Drive,83333,43.5206549,-114.3186930
850,Shenandoah Drive,83333,43.5024934,-114.2879394
321,Alder Street,83333,43.5149986,-114.3170973
2543,Woodside Boulevard,83333,43.5008827,-114.2861758
161,Sunbeam Street,83333,43.5243287,-114.3032335
113,Chestnut Street,83333,43.5138028,-114.3136113
1021,Forest Bend Drive,83333,43.4900111,-114.2767770
2940,Beaver Brook Drive,83333,43.4971677,-114.2830450
4300,Glenbrook Drive,83333,43.4863060,-114.2717400
1041,Red Elephant Drive,83333,43.5085170,-114.3127026
1231,Northridge Drive,83333,43.5331208,-114.3179968
4170,Black Oak Drive,83333,43.4861767,-114.2722638
3491,Mountain Ash Drive,83333,43.4919272,-114.2787005
704,River Street,83333,43.5253372,-114.3210420
821,Pinon Drive,83333,43.4933859,-114.2815714
2961,Shenandoah Drive,83333,43.4960435,-114.2838926
131,Citation Way,83333,43.5096298,-114.3053614
1810,Heroic Road,83333,43.5392727,-114.3201871
30,Comet Lane,83333,43.5094657,-114.3066742
1591,Baldy View Drive,83333,43.5098093,-114.2933471
1921,Electra Lane,83333,43.5019591,-114.3012757
821,White Cloud Lane,83333,43.5070337,-114.2917423
3470,Berrycreek Drive,83333,43.4924727,-114.2772566
3340,Berrycreek Drive,83333,43.4942022,-114.2772346
517,River Street,83333,43.5145346,-114.3135570
530,Willow Street,83333,43.5140302,-114.3140242
430,Shoshone Drive,83333,43.5195901,-114.3041978
2445,Winterhaven Drive,83333,43.5022203,-114.2851538
1230,Blue Lake Drive,83333,43.5139110,-114.2944297
1340,Woodside Boulevard,83333,43.5113854,-114.2954593
3120,Snow Bank Drive,83333,43.4945528,-114.2799694
931,Foxmoor Drive,83333,43.5166379,-114.2983934
530,Shoshone Drive,83333,43.5187835,-114.3037238
1840,Northridge Drive,83333,43.5393274,-114.3218161
940,Cherry Hill Drive,83333,43.4888598,-114.2764860
2463,Grange Way,83333,43.5012669,-114.2870092
321,Cottonwood Street,83333,43.5156220,-114.3175724
1331,Baldy View Drive,83333,43.5107406,-114.2982932
101,Bullion Street,83333,43.5204562,-114.3139662
270,San Badger Drive,83333,43.5269020,-114.3041788
40,Aero Lane,83333,43.5034072,-114.3024785
430,Cedar Street,83333,43.5099775,-114.3155652
224,Carbonate Drive,83333,43.5200392,-114.3193608
711,Northstar Drive,83333,43.5244243,-114.3227522
710,Deertrail Drive,83333,43.5187353,-114.2988857
704,River Street,83333,43.5252746,-114.3209952
1020,War Eagle Drive,83333,43.5082087,-114.3148353
360,Little Indio Lane,83333,43.5200928,-114.3219806
2820,Glenbrook Drive,83333,43.4979042,-114.2831960
101,Bullion Street,83333,43.5203963,-114.3141319
3170,Woodside Boulevard,83333,43.4951122,-114.2809028
760,Bonanza Lane,83333,43.5255819,-114.3077344
881,Deerfield Drive,83333,43.5173680,-114.2981718
3191,Woodside Boulevard,83333,43.4946609,-114.2812623
1950,Electra Lane,83333,43.5022884,-114.3007142
920,Winter Fox Lane,83333,43.4981070,-114.2847852
1031,Meadow Mountain Drive,83333,43.4885876,-114.2756438
3011,Berrycreek Drive,83333,43.4974152,-114.2802363
211,Cedar Street,83333,43.5121708,-114.3129592
416,Main Street,83333,43.5162549,-114.3125322
215,Elm Street,83333,43.5173238,-114.3093706
1014,Business Park Drive,83333,43.5111658,-114.3077436
1291,Citation Way,83333,43.5082783,-114.3060877
951,Countryside Boulevard,83333,43.5006184,-114.2858049
1241,Creekside Drive,83333,43.5108653,-114.2996143
841,Sunrise Drive,83333,43.5137531,-114.2969902
630,Deerfield Drive,83333,43.5181163,-114.3020138
170,Sunbeam Street,83333,43.5237513,-114.3023954
881,Eastridge Drive,83333,43.5153708,-114.3011826
740,Red Ash Drive,83333,43.5060687,-114.2928336
1921,Electra Lane,83333,43.5019537,-114.3015321
3421,Berrycreek Drive,83333,43.4934493,-114.2778383
3861,Glenbrook Drive,83333,43.4879216,-114.2771284
3140,Mountain Ash Drive,83333,43.4949656,-114.2828161
318,Croy Street,83333,43.5202415,-114.3100158
2121,Laurelwood Drive,83333,43.5054946,-114.2865380
2478,Windmill Way,83333,43.5006630,-114.2878234
202,Winterberry Loop,83333,43.5289260,-114.3188974
421,Pocahontas Drive,83333,43.5193047,-114.3054962
1920,Topolev Way,83333,43.5027330,-114.2996337
531,McKercher Boulevard,83333,43.5329918,-114.3166289
950,Myrtle Street,83333,43.5277787,-114.3060406
127,Bullion Street,83333,43.5189226,-114.3183192
3251,Glenbrook Drive,83333,43.4933677,-114.2824066
1923,Embraer Way,83333,43.5024448,-114.2987602
1741,Northridge Drive,83333,43.5381215,-114.3215908
520,Buckhorn Drive,83333,43.5216861,-114.2972649
937,Eastridge Drive,83333,43.5143109,-114.3004376
921,CD Olena Drive,83333,43.5316962,-114.3106391
530,Robin Hood Drive,83333,43.5119513,-114.3147685
930,CD Olena Drive,83333,43.5331058,-114.3090252
1012,Business Park Drive,83333,43.5110944,-114.3079883
21,Comet Lane,83333,43.5097247,-114.3072115
2840,Butterfly Drive,83333,43.4983467,-114.2816974
4121,Glenbrook Drive,83333,43.4856981,-114.2743252
1041,Buckskin Drive,83333,43.5219795,-114.3000784
641,Northstar Drive,83333,43.5241935,-114.3226156
616,Main Street,83333,43.5143257,-114.3108725
113,Carbonate Street,83333,43.5216116,-114.3143167
180,Sunbeam Street,83333,43.5240589,-114.3024092
1511,Blue Lake Drive,83333,43.5109321,-114.2933063
4050,Glenbrook Drive,83333,43.4862690,-114.2742639
641,Deertrail Drive,83333,43.5186098,-114.2997866
203,Croy Street,83333,43.5178878,-114.3175951
711,Bonanza Lane,83333,43.5248878,-114.3082221
1260,Blue Lake Drive,83333,43.5133578,-114.2938586
231,Eastridge Drive,83333,43.5216626,-114.3049192
4323,Glenbrook Drive,83333,43.4877467,-114.2735889
440,Shoshone Drive,83333,43.5193888,-114.3040805
222,Galena Drive,83333,43.5203512,-114.3184663
900,Foxmoor Drive,83333,43.5160380,-114.2970681
14,Elm Street,83333,43.5159482,-114.3114781
1340,Northridge Drive,83333,43.5345384,-114.3185465
411,Whitetail Drive,83333,43.5208651,-114.3016777
1110,Myrtle Street,83333,43.5277624,-114.3041322
3411,Flowing Wells Drive,83333,43.4930028,-114.2788457
1141,Airport Way,83333,43.5098271,-114.3053282
1610,Northridge Drive,83333,43.5366492,-114.3198448
531,San Badger Drive,83333,43.5293975,-114.3055800
517,Bullion Street,83333,43.5226543,-114.3090715
216,Pine Street,83333,43.5176800,-114.3102709
1430,Baldy View Drive,83333,43.5098786,-114.2971168
3030,Butterfly Drive,83333,43.4969251,-114.2802455
441,Shoshone Drive,83333,43.5191319,-114.3045882
1051,Queen Of The Hills Drive,83333,43.5092601,-114.3099563
1510,Aspen Valley Drive,83333,43.5107069,-114.2936840
16,Croy Street,83333,43.5181800,-114.3154074
850,Shenandoah Drive,83333,43.5016150,-114.2887816
1220,Creekside Drive,83333,43.5116895,-114.2996223
3171,Snow Bank Drive,83333,43.4950418,-114.2786695
631,Croy Street,83333,43.5223297,-114.3069627
110,Main Street,83333,43.5203555,-114.3154602
940,Winterhaven Drive,83333,43.5082034,-114.2919493
1821,Lear Lane,83333,43.5030900,-114.3017716
14,Bullion Street,83333,43.5191071,-114.3160878
1510,Heroic Road,83333,43.5360716,-114.3182899
2020,Winterhaven Drive,83333,43.5062645,-114.2882863
1231,Green Valley Drive,83333,43.5139157,-114.2940447
2430,Winterhaven Drive,83333,43.5028946,-114.2852662
1951,Winterhaven Drive,83333,43.5065538,-114.2892657
1371,Snowfly Drive,83333,43.5063570,-114.3079091
220,Eureka Drive,83333,43.5210852,-114.3072455
1141,Airport Way,83333,43.5098915,-114.3055051
1120,Broadford Road,83333,43.5101938,-114.3073277
910,Buckskin Drive,83333,43.5210608,-114.3024091
411,Angela Drive,83333,43.5206416,-114.3222004
315,Pine Street,83333,43.5188467,-114.3088022
21,Mercure Lane,83333,43.5027817,-114.3017328
390,Little Indio Lane,83333,43.5199083,-114.3210047
840,Sunrise Drive,83333,43.5135474,-114.2964471
1111,Broadford Road,83333,43.5095674,-114.3084970
282,Winterberry Loop,83333,43.5304599,-114.3181282
1381,Snowfly Drive,83333,43.5064914,-114.3076209
228,Galena Drive,83333,43.5204805,-114.3185646
911,Silver Star Drive,83333,43.5106338,-114.3126251
1621,Northridge Drive,83333,43.5366000,-114.3211034
980,Cutters Drive,83333,43.5297099,-114.3081097
930,Sunrise Drive,83333,43.5141809,-114.2956285
1931,Heroic Road,83333,43.5401878,-114.3219747
931,White Cloud Lane,83333,43.5076124,-114.2913985
3171,Woodside Boulevard,83333,43.4950095,-114.2815787
1320,Baldy View Drive,83333,43.5111271,-114.2978686
631,Croy Street,83333,43.5224278,-114.3070687
720,Bullion Street,83333,43.5229680,-114.3061673
2920,Butterfly Drive,83333,43.4978470,-114.2812062
531,Chestnut Street,83333,43.5180088,-114.3044617
521,Angela Drive,83333,43.5222127,-114.3228041
750,Eastridge Drive,83333,43.5166894,-114.3007162
741,Willow Drive,83333,43.5085588,-114.2961453
621,CD Olena Drive,83333,43.5290082,-114.3087629
619,Willow Drive,83333,43.5080261,-114.2966931
3160,Shenandoah Drive,83333,43.4957602,-114.2794179
1520,Aspen Valley Drive,83333,43.5104738,-114.2936853
3130,Berrycreek Drive,83333,43.4966013,-114.2783110
610,Elm Street,83333,43.5183393,-114.3047801
209,Galena Drive,83333,43.5198447,-114.3188047
281,Winterberry Loop,83333,43.5303095,-114.3187852
150,San Badger Drive,83333,43.5236739,-114.3036364
441,Della Vista Drive,83333,43.5091804,-114.3148761
920,Sunrise Drive,83333,43.5141343,-114.2960621
621,Deerwood Drive,83333,43.5196484,-114.2982660
910,Forest Bend Drive,83333,43.4895615,-114.2779982
1040,Cherry Hill Drive,83333,43.4888621,-114.2755819
771,Eastridge Drive,83333,43.5163115,-114.3017994
637,River Street,83333,43.5135007,-114.3128362
1320,Aspen Valley Drive,83333,43.5127170,-114.2946149
1441,Northridge Drive,83333,43.5349965,-114.3199570
1441,Baldy View Drive,83333,43.5096400,-114.2976315
3430,Glenbrook Drive,83333,43.4920517,-114.2803935
321,Eastridge Drive,83333,43.5211728,-114.3046399
305,Main Street,83333,43.5217380,-114.3174584
631,Croy Street,83333,43.5223949,-114.3070331
730,CD Olena Drive,83333,43.5307070,-114.3089230
939,Eastridge Drive,83333,43.5144395,-114.3002755
1730,Lear Lane,83333,43.5040332,-114.3030904
311,Eastridge Drive,83333,43.5214301,-114.3047721
750,Doeskin Drive,83333,43.5174226,-114.2996445
3371,Glenbrook Drive,83333,43.4921124,-114.2811906
1231,Snowfly Drive,83333,43.5069376,-114.3115603
440,Mother Lode Loop,83333,43.5260487,-114.3109761
611,Main Street,83333,43.5143214,-114.3118173
620,Shoshone Drive,83333,43.5175324,-114.3036004
421,Eureka Drive,83333,43.5190675,-114.3064053
960,Eastridge Drive,83333,43.5152085,-114.2998508
3820,Glenbrook Drive,83333,43.4887169,-114.2771640
117,Bullion Street,83333,43.5190248,-114.3178899
2030,Briarwood Drive,83333,43.5046314,-114.2920710
880,Deerfield Drive,83333,43.5169225,-114.2982392
215,Myrtle Street,83333,43.5259830,-114.3159596
1350,Queen Of The Hills Drive,83333,43.5069031,-114.3063333
161,San Badger Drive,83333,43.5235507,-114.3043800
830,Jack Pine Drive,83333,43.5091751,-114.2940849
2426,Woodside Boulevard,83333,43.5020256,-114.2860697
4180,Black Oak Drive,83333,43.4861315,-114.2720270
2460,Shenandoah Drive,83333,43.5005048,-114.2881313
109,Main Street,83333,43.5190491,-114.3154143
630,River Street,83333,43.5140873,-114.3122683
1518,Quigley Farm Road,83333,43.5217296,-114.2931734
740,Red Ash Drive,83333,43.5059923,-114.2921424
551,Docs Hickory Drive,83333,43.5289998,-114.3076916
920,Myrtle Street,83333,43.5277535,-114.3068713
1931,Copper Ranch Lane,83333,43.5066447,-114.2902322
252,Winterberry Loop,83333,43.5297737,-114.3179097
1141,Airport Way,83333,43.5099305,-114.3054314
417,Myrtle Street,83333,43.5271782,-114.3137858
850,Shenandoah Drive,83333,43.5021437,-114.2879619
230,Cranbrook Road,83333,43.5319769,-114.3193740
1220,Wolftone Drive,83333,43.5074989,-114.3099101
705,Main Street,83333,43.5135047,-114.3111968
1240,Green Valley Drive,83333,43.5134795,-114.2935241
4051,Black Oak Drive,83333,43.4863462,-114.2738135
1060,Silver Star Drive,83333,43.5090950,-114.3104429
4302,Glenbrook Drive,83333,43.4863622,-114.2719757
611,Myrtle Court,83333,43.5236995,-114.3212716
611,San Badger Lane,83333,43.5297858,-114.3058087
441,Mother Lode Loop,83333,43.5257830,-114.3115213
510,Della Vista Drive,83333,43.5084981,-114.3149197
461,Mother Lode Loop,83333,43.5264507,-114.3083935
681,Kintail Drive,83333,43.5407264,-114.3208461
190,Sunbeam Street,83333,43.5242490,-114.3024078
3020,Woodside Boulevard,83333,43.4967545,-114.2813533
1110,Creekside Drive,83333,43.5130212,-114.3003731
2630,Woodside Boulevard,83333,43.5000866,-114.2845120
280,Cranbrook Road,83333,43.5327992,-114.3184864
140,Havilland Way,83333,43.5020250,-114.2984910
340,Mother Lode Loop,83333,43.5251405,-114.3103382
119,Bullion Street,83333,43.5208052,-114.3134684
620,Deerwood Drive,83333,43.5201057,-114.2979175
2508,Windmill Way,83333,43.5004087,-114.2875770
740,Red Ash Drive,83333,43.5060701,-114.2921116
540,Bullion Street,83333,43.5221589,-114.3082084
850,Shenandoah Drive,83333,43.5021604,-114.2877793
120,Citation Way,83333,43.5092872,-114.3056125
416,River Street,83333,43.5156515,-114.3134581
234,Galena Drive,83333,43.5206104,-114.3186631
330,Willow Street,83333,43.5160227,-114.3154531
691,Kintail Drive,83333,43.5410767,-114.3208465
1021,Buckskin Drive,83333,43.5218946,-114.3006814
630,Tyee Street,83333,43.5210232,-114.3060987
4141,Glenbrook Drive,83333,43.4855429,-114.2738752
302,Myrtle Street,83333,43.5258005,-114.3148731
1251,Wolftone Drive,83333,43.5071348,-114.3090454
1410,Baldy View Drive,83333,43.5102995,-114.2973697
409,Main Street,83333,43.5162233,-114.3132645
1931,Copper Ranch Lane,83333,43.5066499,-114.2902532
1041,Airport Way,83333,43.5108362,-114.3064495
1341,Baldy View Drive,83333,43.5104440,-114.2981147
3451,Berrycreek Drive,83333,43.4928466,-114.2778459
1511,Colibri Lane,83333,43.5066585,-114.3034406
943,Countryside Boulevard,83333,43.5004886,-114.2860418
3040,Butterfly Drive,83333,43.4967721,-114.2800412
1450,Aspen Valley Drive,83333,43.5109331,-114.2936828
730,River Street,83333,43.5131611,-114.3115641
311,Aspen Drive,83333,43.5157636,-114.3185162
715,River Street,83333,43.5124392,-114.3123416
1220,Quigley Road,83333,43.5226089,-114.2982905
850,Shenandoah Drive,83333,43.5026253,-114.2878641
420,Deerwood Drive,83333,43.5214235,-114.2994685
231,Cranbrook Road,83333,43.5323223,-114.3199804
242,Winterberry Loop,83333,43.5295830,-114.3180420
1310,Heroic Road,83333,43.5339752,-114.3173781
741,Deertrail Drive,83333,43.5181214,-114.2979240
14,Pine Street,83333,43.5161912,-114.3138690
1921,Electra Lane,83333,43.5019607,-114.3014038
431,Whitetail Drive,83333,43.5206477,-114.3010058
280,Chestnut Street,83333,43.5133842,-114.3146901
4190,Black Oak Drive,83333,43.4860230,-114.2719048
1210,Baldy View Drive,83333,43.5125794,-114.2987074
216,Carbonate Drive,83333,43.5198757,-114.3192367
820,CD Olena Drive,83333,43.5312438,-114.3092080
1320,Heroic Road,83333,43.5343201,-114.3172308
1103,Edgewood Lane,83333,43.5030672,-114.2851179
1120,Airport Way,83333,43.5111671,-114.3051424
3041,Shenandoah Drive,83333,43.4956888,-114.2834871
382,Winterberry Loop,83333,43.5303894,-114.3199917
250,Walaneut Street,83333,43.5160415,-114.3173103
830,Ponderosa Drive,83333,43.5087504,-114.2935901
2240,Winterhaven Drive,83333,43.5041850,-114.2871915
1241,Aspen Valley Drive,83333,43.5131455,-114.2957553
510,Docs Hickory Drive,83333,43.5282677,-114.3068265
2930,Berrycreek Drive,83333,43.4984258,-114.2813024
931,White Cloud Lane,83333,43.5077071,-114.2913792
17,Chestnut Street,83333,43.5153723,-114.3110394
1411,Red Tail Lane,83333,43.5214504,-114.2945452
16,Croy Street,83333,43.5179305,-114.3152674
211,Pike Street,83333,43.5216244,-114.3065789
301,Main Street,83333,43.5173450,-114.3141184
521,River Street,83333,43.5234655,-114.3203516
270,Sunbeam Street,83333,43.5261584,-114.3025227
610,Little Lena Drive,83333,43.5296661,-114.3062549
3180,Shenandoah Drive,83333,43.4957562,-114.2788650
441,Northstar Drive,83333,43.5220957,-114.3214889
231,Sunbeam Street,83333,43.5261864,-114.3032442
730,Myrtle Street,83333,43.5279001,-114.3091819
1451,Baldy View Drive,83333,43.5094328,-114.2975066
3831,Glenbrook Drive,83333,43.4883247,-114.2775216
21,Maple Street,83333,43.5147000,-114.3105281
1120,Broadford Road,83333,43.5102281,-114.3072420
2560,Woodside Boulevard,83333,43.5005488,-114.2850397
1231,Creekside Drive,83333,43.5112449,-114.2999140
207,Spruce Street,83333,43.5247751,-114.3156692
130,San Badger Drive,83333,43.5232700,-114.3034207
1830,Ridgerock Lane,83333,43.5062402,-114.2935198
2980,Berrycreek Drive,83333,43.4978798,-114.2799182
1240,Snowfly Drive,83333,43.5069640,-114.3107927
541,Little Lena Drive,83333,43.5291189,-114.3065889
341,Della Vista Drive,83333,43.5096584,-114.3136890
221,Cranbrook Road,83333,43.5322136,-114.3202390
2030,Briarwood Drive,83333,43.5044802,-114.2917299
214,Croy Street,83333,43.5169466,-114.3180194
3920,Woodside Boulevard,83333,43.4882145,-114.2738503
2260,Woodside Boulevard,83333,43.5032550,-114.2876303
140,Havilland Way,83333,43.5020061,-114.2983978
550,Buckhorn Drive,83333,43.5206828,-114.2972559
140,Havilland Way,83333,43.5019820,-114.2984299
521,Little Lena Drive,83333,43.5287638,-114.3063813
1521,Northridge Drive,83333,43.5358917,-114.3204588
2761,Winterhaven Drive,83333,43.4995331,-114.2841047
610,Hailey Drive,83333,43.5190930,-114.3052917
850,Shenandoah Drive,83333,43.5024928,-114.2881842
820,Sunrise Drive,83333,43.5131552,-114.2967246
301,River Street,83333,43.5168884,-114.3152505
110,River Street,83333,43.5196712,-114.3165167
1551,Colibri Lane,83333,43.5060418,-114.3032871
1230,Quigley Road,83333,43.5226598,-114.2979241
530,Eureka Drive,83333,43.5181093,-114.3049827
2321,Winterhaven Drive,83333,43.5031047,-114.2869914
510,River Street,83333,43.5150394,-114.3129927
921,Heartland Way,83333,43.5006248,-114.2862880
2210,Winterhaven Drive,83333,43.5045023,-114.2874887
140,Havilland Way,83333,43.5019475,-114.2985080
810,Main Street,83333,43.5122145,-114.3079934
1131,Antler Drive,83333,43.5213878,-114.2982945
1512,Quigley Farm Road,83333,43.5216888,-114.2937713
21,Comet Lane,83333,43.5097351,-114.3072065
521,Deertrail Drive,83333,43.5198834,-114.3012904
140,Havilland Way,83333,43.5019361,-114.2990667
641,Buckhorn Drive,83333,43.5196335,-114.2979096
1011,Antler Drive,83333,43.5202466,-114.3001527
631,River Trail,83333,43.5226573,-114.3243513
631,Whitetail Drive,83333,43.5191802,-114.2991400
561,Robin Hood Drive,83333,43.5117909,-114.3136654
2425,Winterhaven Drive,83333,43.5023581,-114.2859310
321,Eureka Drive,83333,43.5199642,-114.3070877
1350,Snowfly Drive,83333,43.5066656,-114.3087074
1110,CD Olena Drive,83333,43.5342222,-114.3111272
2030,Briarwood Drive,83333,43.5048772,-114.2924561
340,Cranbrook Road,83333,43.5338692,-114.3192520
620,Buckhorn Drive,83333,43.5204679,-114.2972539
2961,Glenbrook Drive,83333,43.4957136,-114.2847258
411,Pocahontas Drive,83333,43.5195501,-114.3056582
1835,Ridgerock Lane,83333,43.5060498,-114.2938909
1141,Airport Way,83333,43.5096634,-114.3056472
1011,Buckskin Drive,83333,43.5217959,-114.3010559
660,Con Virginia Lane,83333,43.5263811,-114.3093953
510,Aspen Drive,83333,43.5138646,-114.3169708
760,Eastridge Drive,83333,43.5164798,-114.3007551
1740,Laurelwood Drive,83333,43.5094201,-114.2905902
1120,Buckskin Drive,83333,43.5217123,-114.2987704
201,River Street,83333,43.5201594,-114.3178358
2513,Grange Way,83333,43.5008838,-114.2866381
740,Red Ash Drive,83333,43.5060312,-114.2928600
16,Croy Street,83333,43.5180675,-114.3153666
122,Main Street,83333,43.5191557,-114.3145475
920,Airport Way,83333,43.5123744,-114.3060840
3231,Mountain Ash Drive,83333,43.4939362,-114.2817587
920,White Cloud Lane,83333,43.5072652,-114.2909507
850,Shenandoah Drive,83333,43.5024605,-114.2879393
921,Snowflake Drive,83333,43.4906558,-114.2786468
411,Cedar Street,83333,43.5106890,-114.3153332
290,Sunbeam Street,83333,43.5265719,-114.3026092
1911,Copper Ranch Lane,83333,43.5071338,-114.2900949
711,Kintail Drive,83333,43.5411689,-114.3211224
2950,Berrycreek Drive,83333,43.4983085,-114.2805668
521,Calumet Way,83333,43.5228509,-114.3207694
581,Mother Lode Loop,83333,43.5274189,-114.3090424
1511,Heroic Road,83333,43.5358377,-114.3189162
530,West Meadows Drive,83333,43.5403181,-114.3222960
300,River Street,83333,43.5171870,-114.3146270
821,White Cloud Lane,83333,43.5070123,-114.2918587
311,Walaneut Street,83333,43.5164425,-114.3180254
2515,Woodside Boulevard,83333,43.5011625,-114.2864471
1020,Red Elephant Drive,83333,43.5092774,-114.3122147
101,Bullion Street,83333,43.5204434,-114.3139663
101,Bullion Street,83333,43.5204114,-114.3140336
510,Willow Street,83333,43.5148244,-114.3143285
2851,Butterfly Drive,83333,43.4980108,-114.2821096
2421,Winterhaven Drive,83333,43.5025277,-114.2860955
302,Spruce Street,83333,43.5248710,-114.3141663
3450,Mountain Ash Drive,83333,43.4923176,-114.2789546
2030,Briarwood Drive,83333,43.5049245,-114.2922941
3521,Berrycreek Drive,83333,43.4921992,-114.2778787
121,Empty Saddle Trail,83333,43.5253571,-114.3221769
840,Buckhorn Drive,83333,43.5173874,-114.2972188
3350,Berrycreek Drive,83333,43.4940100,-114.2772370
820,Ponderosa Drive,83333,43.5086852,-114.2937016
1810,Northridge Drive,83333,43.5389033,-114.3213312
2251,Moonlight Drive,83333,43.5042314,-114.2866430
141,Sunbeam Street,83333,43.5238273,-114.3032069
1020,Queen Of The Hills Drive,83333,43.5100707,-114.3097193
620,Eastridge Drive,83333,43.5188046,-114.3007500
3220,Mountain Ash Drive,83333,43.4943460,-114.2814181
2470,Shenandoah Drive,83333,43.5001869,-114.2878232
1730,Lear Lane,83333,43.5040063,-114.3032794
222,Winterberry Loop,83333,43.5292856,-114.3184769
403,Chestnut Street,83333,43.5171131,-114.3066848
1420,Shadybrook Drive,83333,43.5106818,-114.2965309
1810,Copper Ranch Lane,83333,43.5080454,-114.2912698
218,Galena Drive,83333,43.5202641,-114.3184003
115,River Street,83333,43.5183106,-114.3164300
210,San Badger Drive,83333,43.5254677,-114.3034927
440,West Meadow Drive,83333,43.5398550,-114.3242751
949,Countryside Boulevard,83333,43.5005644,-114.2858940
510,Main Street,83333,43.5153941,-114.3116853
311,Cottonwood Street,83333,43.5157119,-114.3173500
2447,Grange Way,83333,43.5014625,-114.2871988
4297,Glenbrook Drive,83333,43.4861303,-114.2709952
15,Chestnut Street,83333,43.5146750,-114.3125865
1120,Broadford Road,83333,43.5102867,-114.3070950
401,Whitetail Drive,83333,43.5211391,-114.3017796
4325,Glenbrook Drive,83333,43.4876934,-114.2739263
881,Foxmoor Drive,83333,43.5168642,-114.2968058
120,Cedar Street,83333,43.5117507,-114.3123899
1131,Wolftone Drive,83333,43.5074429,-114.3110338
3040,Berrycreek Drive,83333,43.4972975,-114.2792303
610,Deertrail Drive,83333,43.5195007,-114.2998903
1600,Appaloosa Road,83333,43.5220966,-114.2915598
320,Pocahontas Drive,83333,43.5205930,-114.3057909
1290,Citation Way,83333,43.5084779,-114.3056088
3441,Glenbrook Drive,83333,43.4916417,-114.2807347
1340,Heroic Road,83333,43.5345688,-114.3173350
915,Heartland Way,83333,43.5005293,-114.2865195
650,Shoshone Drive,83333,43.5180170,-114.3032711
2931,Butterfly Drive,83333,43.4975401,-114.2816536
1650,Aviation Drive,83333,43.5047316,-114.3018924
12,Carbonate Street,83333,43.5199592,-114.3167357
3531,Glenbrook Drive,83333,43.4910143,-114.2801270
605,Bullion Street,83333,43.5229661,-114.3080058
3011,Glenbrook Drive,83333,43.4955020,-114.2845197
350,Primrose Lane,83333,43.5327988,-114.3193675
3261,Mountain Ash Drive,83333,43.4934602,-114.2813104
2570,Woodside Boulevard,83333,43.5010915,-114.2851307
1410,Heroic Road,83333,43.5350751,-114.3175904
511,Almond Street,83333,43.5139225,-114.3166122
850,Shenandoah Drive,83333,43.5026309,-114.2881924
3361,Woodside Boulevard,83333,43.4929345,-114.2795898
370,Little Indio Lane,83333,43.5198990,-114.3213786
1585,Baldy View Drive,83333,43.5098103,-114.2936862
931,Silverstone Drive,83333,43.5091003,-114.2925581
833,Heartland Way,83333,43.5000926,-114.2873699
951,Cherry Creek Drive,83333,43.4914329,-114.2786257
2466,Shenandoah Drive,83333,43.5003141,-114.2879465
530,Ivy Street,83333,43.5140441,-114.3150366
860,Fox Acres Road,83333,43.5146286,-114.2976388
850,Shenandoah Drive,83333,43.5023940,-114.2881838
721,Robin Hood Drive,83333,43.5122640,-114.3140589
2446,Windmill Way,83333,43.5009839,-114.2881344
1411,Heroic Road,83333,43.5349341,-114.3183961
430,Della Vista Drive,83333,43.5086990,-114.3142781
1421,Woodside Boulevard,83333,43.5110679,-114.2962650
3060,Shenandoah Drive,83333,43.4959322,-114.2827811
3131,Shenandoah Drive,83333,43.4953470,-114.2805026
2960,Shenandoah Drive,83333,43.4965289,-114.2836251
520,Eastridge Drive,83333,43.5197225,-114.3020826
2933,Woodside Boulevard,83333,43.4970999,-114.2825330
631,Croy Street,83333,43.5221789,-114.3068669
221,Walaneut Street,83333,43.5168533,-114.3168924
3240,Mountain Ash Drive,83333,43.4940322,-114.2811141
3841,Glenbrook Drive,83333,43.4881902,-114.2773913
3971,Woodside Boulevard,83333,43.4880880,-114.2750856
1620,Briarwood Drive,83333,43.5078371,-114.2953618
1516,Quigley Farm Road,83333,43.5217081,-114.2933687
1030,Cherry Creek Drive,83333,43.4909983,-114.2774479
431,Cedar Street,83333,43.5104242,-114.3159661
1584,Baldy View Drive,83333,43.5102620,-114.2936864
3271,Glenbrook Drive,83333,43.4930539,-114.2821026
1771,Woodside Boulevard,83333,43.5072181,-114.2936092
511,Mother Lode Loop,83333,43.5264215,-114.3113517
421,Angela Drive,83333,43.5210206,-114.3223351
300,Croy Street,83333,43.5168473,-114.3182663
381,West Meadow Drive,83333,43.5404031,-114.3253225
1010,Cherry Hill Drive,83333,43.4888604,-114.2762600
991,Silverstone Drive,83333,43.5090056,-114.2920255
236,Carbonate Drive,83333,43.5202844,-114.3195469
1731,Lear Lane,83333,43.5039985,-114.3039118
3260,Woodside Boulevard,83333,43.4940029,-114.2797937
3550,Glenbrook Drive,83333,43.4908513,-114.2792309
2030,Woodside Boulevard,83333,43.5055669,-114.2898256
921,War Eagle Drive,83333,43.5082582,-114.3159569
3230,Berrycreek Drive,83333,43.4955065,-114.2777108
401,Main Street,83333,43.5164033,-114.3134014
309,Chestnut Street,83333,43.5166258,-114.3078928
304,Elm Street,83333,43.5171963,-114.3083255
2549,Woodside Boulevard,83333,43.5007620,-114.2860588
3611,Glenbrook Drive,83333,43.4902074,-114.2793453
1900,Ridgerock Lane,83333,43.5051707,-114.2931763
219,River Street,83333,43.5175305,-114.3158364
240,Cottonwood Street,83333,43.5155111,-114.3166045
2151,Laurelwood Drive,83333,43.5057379,-114.2877575
2030,Winterhaven Drive,83333,43.5060883,-114.2882573
415,Main Street,83333,43.5159894,-114.3130865
3151,Snow Bank Drive,83333,43.4950453,-114.2791974
981,Eastridge Drive,83333,43.5149139,-114.2989819
211,Cottonwood Street,83333,43.5161916,-114.3162391
1021,Silver Star Drive,83333,43.5094809,-114.3117236
15,Galena Street,83333,43.5221093,-114.3161652
515,River Street,83333,43.5236096,-114.3204610
621,Whitetail Drive,83333,43.5194784,-114.2993166
710,Eastridge Drive,83333,43.5178806,-114.3006978
3821,Glenbrook Drive,83333,43.4884591,-114.2776519
951,Winter Fox Lane,83333,43.4987311,-114.2845045
1431,Shadybrook Drive,83333,43.5101477,-114.2968672
651,El Dorado Lane,83333,43.5260218,-114.3095098
131,Pine Street,83333,43.5161869,-114.3151689
140,Havilland Way,83333,43.5020491,-114.2984589
631,Angela Drive,83333,43.5233471,-114.3233735
1810,Winterhaven Drive,83333,43.5084796,-114.2898789
2151,Winterhaven Drive,83333,43.5045390,-114.2883669
130,Gulf Stream Lane,83333,43.5042490,-114.3034812
1011,CD Olena Drive,83333,43.5327255,-114.3112195
1060,Creekside Drive,83333,43.5131719,-114.3005420
1351,Snowfly Drive,83333,43.5061696,-114.3085838
11,Silver Street,83333,43.5230506,-114.3168809
631,Croy Street,83333,43.5226452,-114.3071541
610,San Badger Drive,83333,43.5300797,-114.3051311
2477,Woodside Boulevard,83333,43.5013462,-114.2866250
917,Heartland Way,83333,43.5005546,-114.2864702
730,Wintergreen Drive,83333,43.5112643,-114.2969998
221,Sunbeam Street,83333,43.5259937,-114.3031693
1430,Fox Acres Road,83333,43.5217308,-114.2949901
850,Shenandoah Drive,83333,43.5023946,-114.2879390
640,Deerfield Drive,83333,43.5179124,-114.3019020
214,Carbonate Drive,83333,43.5198364,-114.3192071
431,Angela Drive,83333,43.5213263,-114.3224275
209,Main Street,83333,43.5179450,-114.3145744
3171,Shenandoah Drive,83333,43.4953215,-114.2794574
630,Elm Street,83333,43.5185670,-114.3042610
1971,Electra Lane,83333,43.5019773,-114.3004943
2131,Laurelwood Drive,83333,43.5054908,-114.2870954
3531,Woodside Boulevard,83333,43.4919051,-114.2782220
331,Della Vista Drive,83333,43.5097779,-114.3133923
1051,Baldy View Drive,83333,43.5137438,-114.2996827
1110,Cherry Hill Drive,83333,43.4889310,-114.2747747
530,Deertrail Drive,83333,43.5201534,-114.3004584
241,Elm Street,83333,43.5146476,-114.3159470
620,Main Street,83333,43.5253497,-114.3192601
2160,Woodside Boulevard,83333,43.5042028,-114.2885484
1110,Quigley Road,83333,43.5222306,-114.3001674
850,Shenandoah Drive,83333,43.5021591,-114.2890557
1921,Electra Lane,83333,43.5019567,-114.3018102
2461,Winterhaven Drive,83333,43.5018228,-114.2854354
3240,Berrycreek Drive,83333,43.4953322,-114.2776026
740,Red Ash Drive,83333,43.5059492,-114.2928072
970,CD Olena Drive,83333,43.5328846,-114.3102824
811,Angela Drive,83333,43.5251052,-114.3243773
1020,Cherry Creek Drive,83333,43.4909962,-114.2777693
1999,Electra Lane,83333,43.5025347,-114.3000738
1710,Northridge Drive,83333,43.5377559,-114.3204590
101,Bullion Street,83333,43.5204598,-114.3138731
1625,Briarwood Drive,83333,43.5075279,-114.2961284
2479,Woodside Boulevard,83333,43.5013103,-114.2865902
407,River Street,83333,43.5158473,-114.3145550
310,Alder Street,83333,43.5147046,-114.3165825
1711,Heroic Road,83333,43.5378838,-114.3199507
1710,Winterhaven Drive,83333,43.5089512,-114.2909906
1131,Buckskin Drive,83333,43.5221860,-114.2989859
141,Poulson Drive,83333,43.5184620,-114.3210058
760,Buckhorn Drive,83333,43.5182651,-114.2972294
935,Eastridge Drive,83333,43.5142245,-114.3006448
521,Elm Street,83333,43.5186561,-114.3053984
2231,Moonlight Drive,83333,43.5045594,-114.2869195
1411,Blue Lake Drive,83333,43.5119392,-114.2933777
309,River Street,83333,43.5212638,-114.3186753
3321,Mountain Ash Drive,83333,43.4929942,-114.2808462
1831,Winterhaven Drive,83333,43.5080277,-114.2898581
1130,Queen Of The Hills Drive,83333,43.5087802,-114.3087315
231,Cottonwood Street,83333,43.5159845,-114.3166745
2890,Beaver Brook Drive,83333,43.4975263,-114.2833925
1221,Queen Of The Hills Drive,83333,43.5080303,-114.3084333
3360,Woodside Boulevard,83333,43.4932186,-114.2790313
451,West Meadow Drive,83333,43.5407497,-114.3242048
461,Robin Hood Drive,83333,43.5111292,-114.3167508
2510,Woodside Boulevard,83333,43.5014358,-114.2860192
830,Buckhorn Drive,83333,43.5176069,-114.2972217
1740,Heroic Road,83333,43.5388423,-114.3191621
991,Foxmoor Drive,83333,43.5166056,-114.3001596
760,Northstar Drive,83333,43.5254024,-114.3229250
2130,Laurelwood Drive,83333,43.5049490,-114.2874438
117,River Street,83333,43.5197391,-114.3175164
611,CD Olena Drive,83333,43.5287099,-114.3088309
15,Chestnut Street,83333,43.5148194,-114.3126963
3751,Glenbrook Drive,83333,43.4888626,-114.2780427
1451,Shadybrook Drive,83333,43.5097143,-114.2966068
530,Calumet Way,83333,43.5231241,-114.3205204
940,Ponderosa Drive,83333,43.5092607,-114.2929015
2840,Shenandoah Drive,83333,43.4974700,-114.2849932
3260,Mountain Ash Drive,83333,43.4937969,-114.2807709
402,Silver Street,83333,43.5244319,-114.3122543
4150,Black Oak Drive,83333,43.4863082,-114.2726880
720,Bonanza Lane,83333,43.5246353,-114.3074349
311,Robin Hood Drive,83333,43.5128110,-114.3151539
1750,Laurelwood Drive,83333,43.5094189,-114.2900822
2951,Shenandoah Drive,83333,43.4962340,-114.2840772
3350,Flowing Wells Drive,83333,43.4936440,-114.2782126
1221,Airport Way,83333,43.5097718,-114.3049548
3130,Mountain Ash Drive,83333,43.4948710,-114.2831408
101,Bullion Street,83333,43.5205405,-114.3139900
210,Eastridge Drive,83333,43.5226873,-114.3046962
1011,Forest Bend Drive,83333,43.4900106,-114.2770030
831,Winterhaven Drive,83333,43.5082979,-114.2929335
3040,Beaver Brook Drive,83333,43.4960813,-114.2820227
3461,Woodside Boulevard,83333,43.4920503,-114.2785002
721,Northstar Drive,83333,43.5246549,-114.3228926
2971,Beaver Brook Drive,83333,43.4963767,-114.2830166
1031,War Eagle Drive,83333,43.5075647,-114.3151867
851,Deerfield Drive,83333,43.5173938,-114.2993435
361,Pocahontas Drive,83333,43.5197615,-114.3058190
206,River Street,83333,43.5205605,-114.3171929
1830,Copper Ranch Lane,83333,43.5078531,-114.2906084
920,Antelope Drive,83333,43.5114760,-114.2945847
811,Jack Pine Drive,83333,43.5093286,-114.2945618
1120,Broadford Road,83333,43.5100298,-114.3077373
2630,Woodside Boulevard,83333,43.5004726,-114.2846742
331,Apache Drive,83333,43.5205020,-114.3053481
1530,Appaloosa Road,83333,43.5205878,-114.2925402
1930,Embraer Way,83333,43.5026173,-114.2991555
3142,Snow Bank Drive,83333,43.4937962,-114.2791822
410,Main Street,83333,43.5233007,-114.3176993
511,Ivy Street,83333,43.5142284,-114.3158220
3330,Glenbrook Drive,83333,43.4928361,-114.2811541
2953,Woodside Boulevard,83333,43.4967472,-114.2821592
510,Robin Hood Drive,83333,43.5117369,-114.3154668
1261,Fox Acres Road,83333,43.5189247,-114.2961881
1845,Ridgerock Lane,83333,43.5059299,-114.2937747
430,Angela Drive,83333,43.5214029,-114.3218151
3431,Berrycreek Drive,83333,43.4932571,-114.2778407
320,Walaneut Street,83333,43.5158619,-114.3177552
4308,Glenbrook Drive,83333,43.4866027,-114.2726508
140,Havilland Way,83333,43.5020302,-114.2983660
720,Deer Ridge Lane,83333,43.5176856,-114.2984256
930,Snowflake Drive,83333,43.4902825,-114.2779986
1927,Briarwood Drive,83333,43.5052012,-114.2938736
3030,Woodside Boulevard,83333,43.4966766,-114.2811617
840,Deerfield Drive,83333,43.5169314,-114.2997253
320,Grays Starlight Drive,83333,43.5269744,-114.3030319
1061,Meadow Mountain Drive,83333,43.4885595,-114.2749656
661,El Dorado Lane,83333,43.5261413,-114.3092131
313,Myrtle Street,83333,43.5264446,-114.3147334
416,Main Street,83333,43.5161882,-114.3124814
1421,Aspen Valley Drive,83333,43.5112878,-114.2942857
2311,Winterhaven Drive,83333,43.5032720,-114.2871397
411,Main Street,83333,43.5229445,-114.3183755
920,Ponderosa Drive,83333,43.5091475,-114.2931399
240,Walaneut Street,83333,43.5161345,-114.3170797
899,Heartland Way,83333,43.5004384,-114.2866481
531,Docs Hickory Drive,83333,43.5286197,-114.3074821
830,Sunrise Drive,83333,43.5133527,-114.2965864
1411,Shadybrook Drive,83333,43.5105875,-114.2971314
3980,Woodside Boulevard,83333,43.4869678,-114.2749371
1850,Ridgerock Lane,83333,43.5060263,-114.2932933
1760,Lear Lane,83333,43.5039357,-114.3025477
212,River Street,83333,43.5208838,-114.3174383
1240,Silver Star Drive,83333,43.5075930,-114.3083813
2020,Laurelwood Drive,83333,43.5065387,-114.2873337
110,Gulf Stream Lane,83333,43.5042914,-114.3040027
1320,Blue Lake Drive,83333,43.5131354,-114.2936164
3561,Glenbrook Drive,83333,43.4906109,-114.2797361
117,Galena Street,83333,43.5226202,-114.3149777
110,Sunbeam Street,83333,43.5224096,-114.3026716
206,Bullion Street,83333,43.5180862,-114.3182700
1041,CD Olena Drive,83333,43.5335524,-114.3116726
921,Airport Way,83333,43.5117677,-114.3074367
551,Shoshone Drive,83333,43.5180118,-114.3039226
1021,Queen Of The Hills Drive,83333,43.5099201,-114.3106134
860,Ponderosa Drive,83333,43.5089883,-114.2933182
420,Whitetail Drive,83333,43.5210964,-114.3009031
316,Bullion Street,83333,43.5172533,-114.3197677
1020,Forest Bend Drive,83333,43.4895725,-114.2766406
3075,Shenandoah Drive,83333,43.4954218,-114.2821962
997,Silverstone Drive,83333,43.5089745,-114.2918996
741,Wintergreen Drive,83333,43.5116553,-114.2972812
2522,Winterhaven Drive,83333,43.5020002,-114.2840697
220,San Badger Drive,83333,43.5257151,-114.3035191
1130,Buckskin Drive,83333,43.5217897,-114.2983606
520,Little Lena Drive,83333,43.5287176,-114.3057156
601,River Street,83333,43.5139935,-114.3131449
1420,Baldy View Drive,83333,43.5100859,-114.2972414
240,Sunbeam Street,83333,43.5255055,-114.3023243
580,River Trail,83333,43.5225689,-114.3235463
641,Hailey Drive,83333,43.5198947,-114.3046492
2434,Woodside Boulevard,83333,43.5016094,-114.2862013
2420,Woodside Boulevard,83333,43.5018944,-114.2864151
16,Croy Street,83333,43.5180141,-114.3153261
1251,Blue Lake Drive,83333,43.5132644,-114.2945731
3441,Mountain Ash Drive,83333,43.4919737,-114.2799608
541,Ivy Street,83333,43.5136745,-114.3154011
230,Cottonwood Street,83333,43.5156008,-114.3163821
530,Deerwood Drive,83333,43.5206429,-114.2984607
3740,Woodside Boulevard,83333,43.4899172,-114.2746063
1030,War Eagle Drive,83333,43.5080675,-114.3145258
3310,Berrycreek Drive,83333,43.4947904,-114.2772932
410,Bullion Street,83333,43.5170799,-114.3207086
621,Deertrail Drive,83333,43.5190455,-114.3002508
1827,Briarwood Drive,83333,43.5059491,-114.2945984
414,Galena Street,83333,43.5236292,-114.3111227
1522,Quigley Farm Road,83333,43.5217711,-114.2927924
4299,Glenbrook Drive,83333,43.4865397,-114.2710018
1341,Snowfly Drive,83333,43.5061658,-114.3089718
850,Shenandoah Drive,83333,43.5020777,-114.2880444
2830,Glenbrook Drive,83333,43.4978251,-114.2833499
2640,Woodside Boulevard,83333,43.4998875,-114.2844068
1111,Buckskin Drive,83333,43.5220486,-114.2997140
1511,Appaloosa Road,83333,43.5213363,-114.2939310
881,Silverstone Drive,83333,43.5087172,-114.2929336
170,San Badger Drive,83333,43.5241712,-114.3037602
1991,Woodside Boulevard,83333,43.5058020,-114.2912751
630,Robin Hood Drive,83333,43.5130820,-114.3141534
1121,Creekside Drive,83333,43.5125575,-114.3008987
3171,Glenbrook Drive,83333,43.4938383,-114.2828626
1930,Copper Ranch Lane,83333,43.5067807,-114.2896903
1420,Fox Acres Road,83333,43.5214504,-114.2949975
1031,Cherry Hill Drive,83333,43.4892996,-114.2760879
3970,Woodside Boulevard,83333,43.4871635,-114.2746924
1340,Blue Lake Drive,83333,43.5127932,-114.2931331
721,Deertrail Drive,83333,43.5181804,-114.2989865
650,Buckhorn Drive,83333,43.5196063,-114.2972449
740,Angela Drive,83333,43.5247630,-114.3236260
940,Foxmoor Drive,83333,43.5161528,-114.2988122
740,Red Ash Drive,83333,43.5059844,-114.2920866
1521,Heroic Road,83333,43.5361575,-114.3190861
201,Galena Drive,83333,43.5196764,-114.3186808
402,Winterberry Loop,83333,43.5298892,-114.3201373
400,Main Street,83333,43.5167007,-114.3126271
207,Galena Drive,83333,43.5198056,-114.3187750
1870,Ridgerock Lane,83333,43.5057039,-114.2929494
1120,Creekside Drive,83333,43.5127235,-114.3003304
3181,Snow Bank Drive,83333,43.4950401,-114.2783973
3341,Flowing Wells Drive,83333,43.4936482,-114.2788160
511,Aspen Drive,83333,43.5137210,-114.3176413
3051,Shenandoah Drive,83333,43.4955482,-114.2831790
321,Elm Street,83333,43.5143753,-114.3166222
2462,Windmill Way,83333,43.5008537,-114.2880083
431,Deertrail Drive,83333,43.5203155,-114.3025121
3471,Berrycreek Drive,83333,43.4924885,-114.2778504
540,Deerwood Drive,83333,43.5204049,-114.2982065
931,Winter Fox Lane,83333,43.4985603,-114.2848371
603,River Street,83333,43.5239343,-114.3207075
3320,Berrycreek Drive,83333,43.4946294,-114.2772531
820,Main Street,83333,43.5118753,-114.3085272
116,Bullion Street,83333,43.5185725,-114.3171033
651,West Meadow Drive,83333,43.5420128,-114.3213496
2230,Woodside Boulevard,83333,43.5037258,-114.2880863
1551,Colibri Lane,83333,43.5061751,-114.3033348
801,Main Street,83333,43.5260781,-114.3207720
241,Cottonwood Street,83333,43.5158948,-114.3168969
837,Heartland Way,83333,43.5001784,-114.2872030
711,Deertrail Drive,83333,43.5183310,-114.2993283
307,Spruce Street,83333,43.5252510,-114.3145845
202,Main Street,83333,43.5210097,-114.3159577
2027,Briarwood Drive,83333,43.5042878,-114.2929892
3181,Woodside Boulevard,83333,43.4948277,-114.2814234
2721,Shenandoah Drive,83333,43.4981148,-114.2867755
221,River Street,83333,43.5174225,-114.3157542
1950,Winterhaven Drive,83333,43.5068794,-114.2883317
403,Carbonate Street,83333,43.5229283,-114.3111130
910,Business Park Drive,83333,43.5114653,-114.3083290
3050,Berrycreek Drive,83333,43.4971520,-114.2790583
1330,Aspen Valley Drive,83333,43.5125345,-114.2944475
1130,Airport Way,83333,43.5109432,-114.3050130
431,Aspen Drive,83333,43.5142155,-114.3176714
630,CD Olena Drive,83333,43.5293226,-114.3083984
1821,Winterhaven Drive,83333,43.5080933,-114.2901854
310,Angela Drive,83333,43.5215023,-114.3214808
130,Airport Circle,83333,43.5065856,-114.3029771
1961,Northridge Drive,83333,43.5397553,-114.3235537
2810,Woodside Boulevard,83333,43.4984739,-114.2830839
2533,Winterhaven Drive,83333,43.5012623,-114.2843535
420,Mother Lode Loop,83333,43.5255723,-114.3106663
3231,Woodside Boulevard,83333,43.4943472,-114.2809582
1141,Airport Way,83333,43.5100590,-114.3051886
112,Croy Street,83333,43.5175930,-114.3164202
1021,Copper Ranch Way,83333,43.5076966,-114.2892275
2941,Beaver Brook Drive,83333,43.4969147,-114.2835378
611,Deertrail Drive,83333,43.5192617,-114.3004827
1221,Northridge Drive,83333,43.5329063,-114.3177781
510,Deerwood Drive,83333,43.5210151,-114.2988382
230,River Street,83333,43.5175709,-114.3149189
1531,Heroic Road,83333,43.5364777,-114.3192384
2450,Winterhaven Drive,83333,43.5021032,-114.2845038
3023,Woodside Boulevard,83333,43.4963701,-114.2818135
220,River Street,83333,43.5177149,-114.3150285
1340,Aspen Valley Drive,83333,43.5123520,-114.2942801
720,Hailey Drive,83333,43.5196617,-114.3038721
431,Eureka Drive,83333,43.5188591,-114.3062456
1211,Baldy View Drive,83333,43.5121239,-114.2992284
550,Little Lena Drive,83333,43.5291870,-114.3059729
1940,Winterhaven Drive,83333,43.5070904,-114.2883442
841,CD Olena Drive,83333,43.5314110,-114.3104258
1105,Edgewood Lane,83333,43.5031541,-114.2849115
741,Willow Drive,83333,43.5089983,-114.2952895
941,CD Olena Drive,83333,43.5324156,-114.3110587
1440,Heroic Road,83333,43.5358153,-114.3181547
810,Main Street,83333,43.5117294,-114.3088186
930,Ponderosa Drive,83333,43.5092261,-114.2930519
3320,Flowing Wells Drive,83333,43.4942205,-114.2782053
1010,Cherry Creek Drive,83333,43.4909955,-114.2780188
3020,Berrycreek Drive,83333,43.4975887,-114.2795742
511,Little Lena Drive,83333,43.5284493,-114.3063259
2630,Woodside Boulevard,83333,43.5005080,-114.2846055
4251,Glenbrook Drive,83333,43.4854810,-114.2719059
1531,Appaloosa Road,83333,43.5212605,-114.2931492
740,Red Ash Drive,83333,43.5063490,-114.2923522
225,Walaneut Street,83333,43.5167868,-114.3170575
1930,Copper Ranch Lane,83333,43.5068749,-114.2896491
421,Calumet Court,83333,43.5220093,-114.3202415
3431,Mountain Ash Drive,83333,43.4922106,-114.2800842
1241,Wolftone Drive,83333,43.5070975,-114.3093807
304,Main Street,83333,43.5220727,-114.3167660
410,Bluebird Court,83333,43.5214455,-114.3206722
3191,Snow Bank Drive,83333,43.4950956,-114.2781208
621,Myrtle Court,83333,43.5237993,-114.3213365
1541,Baldy View Drive,83333,43.5089842,-114.2965455
840,Fox Acres Road,83333,43.5144958,-114.2982134
520,Angela Drive,83333,43.5224187,-114.3221677
1931,Copper Ranch Lane,83333,43.5066757,-114.2901329
1241,Snowfly Drive,83333,43.5066256,-114.3113396
520,Myrtle Street,83333,43.5271840,-114.3117098
830,Broadford Road,83333,43.5121471,-114.3091021
960,Ponderosa Drive,83333,43.5095455,-114.2927783
1040,Red Elephant Drive,83333,43.5087827,-114.3119419
830,Antelope Drive,83333,43.5113927,-114.2951174
212,Bullion Street,83333,43.5179987,-114.3185266
515,River Street,83333,43.5235866,-114.3204938
907,Countryside Boulevard,83333,43.5003297,-114.2863512
1051,Sunrise Drive,83333,43.5147778,-114.2940601
2880,Beaver Brook Drive,83333,43.4977143,-114.2835659
2310,Winterhaven Drive,83333,43.5035505,-114.2865970
420,Deertrail Drive,83333,43.5207536,-114.3024432
341,Golconda Drive,83333,43.5252718,-114.3100118
530,Bullion Street,83333,43.5220867,-114.3084396
1151,Baldy View Drive,83333,43.5124756,-114.2993370
602,Main Street,83333,43.5147217,-114.3111741
440,Whitetail Drive,83333,43.5208526,-114.3002069
3250,Glenbrook Drive,83333,43.4936212,-114.2819146
1521,Blue Lake Drive,83333,43.5107058,-114.2933075
117,Carbonate Street,83333,43.5217046,-114.3141410
311,Elm Street,83333,43.5144649,-114.3163998
241,Sunbeam Street,83333,43.5263998,-114.3033369
412,Main Street,83333,43.5164260,-114.3124707
1030,Cutters Drive,83333,43.5303108,-114.3061177
1731,Heroic Road,83333,43.5384182,-114.3201529
2524,Windmill Way,83333,43.5002732,-114.2874457
520,Eureka Drive,83333,43.5182882,-114.3051188
3250,Mountain Ash Drive,83333,43.4938753,-114.2809621
741,Willow Drive,83333,43.5090755,-114.2951914
312,Main Street,83333,43.5173860,-114.3132012
721,Wintergreen Drive,83333,43.5114038,-114.2976699
540,Eastridge Drive,83333,43.5194427,-114.3014505
3440,Mountain Ash Drive,83333,43.4923766,-114.2793845
245,Walaneut Street,83333,43.5165222,-114.3177201
1621,Briarwood Drive,83333,43.5076317,-114.2962154
2923,Woodside Boulevard,83333,43.4972856,-114.2826797
2520,Winterhaven Drive,83333,43.5018905,-114.2842906
210,Walaneut Street,83333,43.5164074,-114.3164035
2471,Winterhaven Drive,83333,43.5019605,-114.2849189
111,Pine Street,83333,43.5177438,-114.3114397
1240,Woodside Boulevard,83333,43.5129218,-114.2961261
1840,Copper Ranch Lane,83333,43.5078199,-114.2901884
109,Pine Street,83333,43.5175848,-114.3117754
3141,Glenbrook Drive,83333,43.4943090,-114.2833187
1011,Copper Ranch Way,83333,43.5077493,-114.2896063
1010,Snowflake Drive,83333,43.4902837,-114.2775089
1041,Foxmoor Drive,83333,43.5157630,-114.3001733
1715,Briarwood Drive,83333,43.5071558,-114.2957679
521,Almond Street,83333,43.5136507,-114.3164038
930,Myrtle Street,83333,43.5277551,-114.3063933
3321,Glenbrook Drive,83333,43.4928970,-114.2819506
820,Deer Ridge Lane,83333,43.5173968,-114.2985008
241,Walaneut Street,83333,43.5166727,-114.3176185
3271,Flowing Wells Drive,83333,43.4943922,-114.2788066
3661,Glenbrook Drive,83333,43.4895350,-114.2786940
1241,Northridge Drive,83333,43.5333380,-114.3182162
1730,Laurelwood Drive,83333,43.5094196,-114.2909689
1131,Baldy View Drive,83333,43.5128776,-114.2995787
3061,Berrycreek Drive,83333,43.4967568,-114.2793402
208,Galena Drive,83333,43.5200272,-114.3182202
471,Robin Hood Drive,83333,43.5106944,-114.3165953
1061,Baldy View Drive,83333,43.5135499,-114.2998837
1210,Green Valley Drive,83333,43.5145180,-114.2933498
1611,Heroic Road,83333,43.5370716,-114.3195853
1920,Northridge Drive,83333,43.5397492,-114.3222985
630,River Trail,83333,43.5228287,-114.3236672
1141,Airport Way,83333,43.5099949,-114.3056083
211,Elm Street,83333,43.5149439,-114.3152898
374,Mother Lode Loop,83333,43.5253983,-114.3090360
1110,Baldy View Drive,83333,43.5133429,-114.2991445
721,Croy Street,83333,43.5226136,-114.3058838
551,Aspen Drive,83333,43.5130054,-114.3165130
1041,Meadow Mountain Drive,83333,43.4885881,-114.2754178
841,Winter Fox Lane,83333,43.4982189,-114.2855022
1141,Airport Way,83333,43.5098786,-114.3053795
1321,Northridge Drive,83333,43.5337465,-114.3186673
3021,Beaver Brook Drive,83333,43.4962869,-114.2828144
831,Buckskin Drive,83333,43.5213798,-114.3032750
320,Alder Street,83333,43.5146149,-114.3168050
821,Buckhorn Drive,83333,43.5176480,-114.2979429
611,Docs Hickory Drive,83333,43.5292016,-114.3078104
811,White Cloud Lane,83333,43.5068398,-114.2920788
317,Silver Street,83333,43.5246644,-114.3132515
1231,Blue Lake Drive,83333,43.5136294,-114.2949077
3360,Berrycreek Drive,83333,43.4938178,-114.2772395
400,Main Street,83333,43.5167025,-114.3128496
550,Docs Hickory Drive,83333,43.5291118,-114.3071015
16,Croy Street,83333,43.5179000,-114.3152393
971,Eastridge Drive,83333,43.5148510,-114.2992513
3640,Woodside Boulevard,83333,43.4910815,-114.2757567
1230,Creekside Drive,83333,43.5114134,-114.2994333
1528,Quigley Farm Road,83333,43.5216884,-114.2921456
3131,Glenbrook Drive,83333,43.4944659,-114.2834707
1731,Briarwood Drive,83333,43.5068768,-114.2954974
251,Cottonwood Street,83333,43.5158017,-114.3171276
2420,Winterhaven Drive,83333,43.5030087,-114.2853770
3090,Shenandoah Drive,83333,43.4958423,-114.2815980
2547,Woodside Boulevard,83333,43.5007978,-114.2860936
251,Alder Street,83333,43.5151781,-114.3166525
310,Walaneut Street,83333,43.5159516,-114.3175327
531,Aspen Drive,83333,43.5133354,-114.3174293
522,River Street,83333,43.5145992,-114.3127873
375,Mother Lode Loop,83333,43.5250350,-114.3086739
1820,Copper Ranch Lane,83333,43.5079637,-114.2909471
1020,Meadow Mountain Drive,83333,43.4880999,-114.2761834
1051,Foxmoor Drive,83333,43.5155739,-114.3000632
3310,Mountain Ash Drive,83333,43.4934097,-114.2804985
1030,Silver Star Drive,83333,43.5095034,-114.3109192
301,Croy Street,83333,43.5175136,-114.3184850
911,Buckhorn Drive,83333,43.5166559,-114.2978198
230,Carbonate Drive,83333,43.5201670,-114.3194579
619,River Street,83333,43.5243437,-114.3211491
290,Cranbrook Road,83333,43.5329851,-114.3186792
400,Main Street,83333,43.5228929,-114.3173894
217,River Street,83333,43.5205196,-114.3181094
3830,Glenbrook Drive,83333,43.4885824,-114.2770337
640,Buckhorn Drive,83333,43.5199290,-114.2972479
1851,Copper Ranch Lane,83333,43.5074154,-114.2902997
441,Robin Hood Drive,83333,43.5119406,-114.3166788
3140,Snow Bank Drive,83333,43.4942391,-114.2796868
910,Quigley Road,83333,43.5218012,-114.3026058
1321,Silver Star Drive,83333,43.5068602,-114.3084919
640,Northstar Drive,83333,43.5242906,-114.3219500
417,River Street,83333,43.5225845,-114.3196790
400,Main Street,83333,43.5167458,-114.3127483
332,Winterberry Loop,83333,43.5313455,-114.3189294
2151,Moonlight Drive,83333,43.5048878,-114.2871952
310,Willow Street,83333,43.5164935,-114.3157248
3421,Mountain Ash Drive,83333,43.4923666,-114.2802377
931,Meadow Mountain Drive,83333,43.4885860,-114.2763219
200,Cranbrook Road,83333,43.5314060,-114.3206126
611,Deerwood Drive,83333,43.5199539,-114.2984637
740,Red Ash Drive,83333,43.5060689,-114.2921740
421,Cedar Street,83333,43.5105674,-114.3156576
860,Buckhorn Drive,83333,43.5169235,-114.2972136
1890,Ridgerock Lane,83333,43.5053050,-114.2929317
940,Buckhorn Drive,83333,43.5156182,-114.2973218
420,Eureka Drive,83333,43.5193370,-114.3059161
1910,Electra Lane,83333,43.5023742,-114.3024337
1011,Cherry Creek Drive,83333,43.4914340,-114.2781736
1040,Woodside Boulevard,83333,43.5140627,-114.2990302
240,Alder Street,83333,43.5148875,-114.3161294
911,Countryside Boulevard,83333,43.5003947,-114.2862246
421,Mother Lode Loop,83333,43.5253942,-114.3112258
1011,Cutters Drive,83333,43.5308167,-114.3071965
3161,Mountain Ash Drive,83333,43.4944847,-114.2824206
621,Tyee Street,83333,43.5212918,-114.3067594
930,Eastridge Drive,83333,43.5154568,-114.3004386
2961,Beaver Brook Drive,83333,43.4965560,-114.2831903
741,Sunrise Drive,83333,43.5122738,-114.2979428
369,Mother Lode Loop,83333,43.5248175,-114.3092147
2529,Winterhaven Drive,83333,43.5011867,-114.2845968
920,Cherry Hill Drive,83333,43.4887959,-114.2769174
1051,Daybreak Lane,83333,43.5010810,-114.2844408
3031,Glenbrook Drive,83333,43.4950112,-114.2840035
290,San Badger Drive,83333,43.5272336,-114.3044671
970,Buckhorn Drive,83333,43.5151665,-114.2978881
3460,Berrycreek Drive,83333,43.4926649,-114.2772541
821,White Cloud Lane,83333,43.5070348,-114.2917653
1831,Copper Ranch Lane,83333,43.5075062,-114.2906078
2021,Briarwood Drive,83333,43.5045884,-114.2932803
101,Empty Saddle Trail,83333,43.5266516,-114.3226107
530,Eastridge Drive,83333,43.5196153,-114.3017771
1451,Woodside Boulevard,83333,43.5104082,-114.2959561
621,Deerfield Drive,83333,43.5181408,-114.3028382
710,Angela Drive,83333,43.5240666,-114.3230537
550,River Trail,83333,43.5220784,-114.3233179
910,CD Olena Drive,83333,43.5319966,-114.3098297
830,Quigley Road,83333,43.5216629,-114.3033431
420,Walaneut Street,83333,43.5196753,-114.3081084
431,Northstar Drive,83333,43.5218519,-114.3213794
131,Jetstar Lane,83333,43.5041752,-114.3010335
3230,Woodside Boulevard,83333,43.4944735,-114.2802511
3440,Glenbrook Drive,83333,43.4918948,-114.2802415
1521,Aspen Valley Drive,83333,43.5104440,-114.2942982
400,Main Street,83333,43.5167029,-114.3126215
630,Angela Drive,83333,43.5236009,-114.3227778
1999,Electra Lane,83333,43.5024350,-114.3002619
931,White Cloud Lane,83333,43.5077045,-114.2913416
910,Cherry Hill Drive,83333,43.4888501,-114.2773093
941,Buckhorn Drive,83333,43.5156181,-114.2980128
1810,Laurelwood Drive,83333,43.5089411,-114.2890654
740,Red Ash Drive,83333,43.5058391,-114.2924630
342,Winterberry Loop,83333,43.5313372,-114.3193511
2522,Woodside Boulevard,83333,43.5013187,-114.2853489
1031,Forest Bend Drive,83333,43.4900116,-114.2765510
520,Deertrail Drive,83333,43.5202139,-114.3007415
513,Main Street,83333,43.5239906,-114.3191726
1921,Electra Lane,83333,43.5019503,-114.3010837
120,Sunbeam Street,83333,43.5224376,-114.3022637
341,Angela Drive,83333,43.5206158,-114.3215525
304,Croy Street,83333,43.5166551,-114.3185679
541,Fox Acres Road,83333,43.5139797,-114.3014786
1111,Myrtle Street,83333,43.5283049,-114.3041399
1531,Northridge Drive,83333,43.5361225,-114.3205577
450,Angela Drive,83333,43.5219751,-114.3219137
3410,Berrycreek Drive,83333,43.4936257,-114.2772419
920,Fox Acres Road,83333,43.5146973,-114.2973416
1110,Forest Bend Drive,83333,43.4896451,-114.2754122
3115,Snow Bank Drive,83333,43.4950518,-114.2802834
520,West Meadow Drive,83333,43.5401544,-114.3228236
331,Cottonwood Street,83333,43.5155289,-114.3178031
731,Deertrail Drive,83333,43.5181278,-114.2983582
320,Cedar Street,83333,43.5102569,-114.3135654
251,Cranbrook Road,83333,43.5324570,-114.3194404
2030,Briarwood Drive,83333,43.5045924,-114.2926196
670,Kintail Drive,83333,43.5408332,-114.3200767
120,San Badger Drive,83333,43.5230721,-114.3033215
810,Sunrise Drive,83333,43.5125509,-114.2971708
561,Mother Lode Loop,83333,43.5274675,-114.3100729
930,Cherry Hill Drive,83333,43.4888593,-114.2767121
330,Primrose Lane,83333,43.5326147,-114.3200591
551,Calumet Way,83333,43.5232714,-114.3210116
951,Broadford Road,83333,43.5108075,-114.3095087
831,Winterhaven Drive,83333,43.5085770,-114.2930979
3761,Glenbrook Drive,83333,43.4887281,-114.2779124
1050,Snowflake Drive,83333,43.4903055,-114.2764232
1111,Creekside Drive,83333,43.5127448,-114.3010494
2130,Woodside Boulevard,83333,43.5046796,-114.2890102
960,Foxmoor Drive,83333,43.5161557,-114.2994147
2951,Glenbrook Drive,83333,43.4959603,-114.2849648
260,Cranbrook Road,83333,43.5322459,-114.3183350
921,Silver Star Drive,83333,43.5102502,-114.3122019
611,Willow Drive,83333,43.5084060,-114.2964811
831,CD Olena Drive,83333,43.5311363,-114.3102313
1140,Echo Hill Drive,83333,43.4960341,-114.2793648
561,Aspen Drive,83333,43.5129311,-114.3163279
2970,Shenandoah Drive,83333,43.4963495,-114.2834514
3010,Woodside Boulevard,83333,43.4969114,-114.2815054
250,Cottonwood Street,83333,43.5154179,-114.3168352
231,Alder Street,83333,43.5153610,-114.3161994
704,River Street,83333,43.5253783,-114.3210674
1041,Sunrise Drive,83333,43.5147575,-114.2944563
221,Robin Hood Drive,83333,43.5130294,-114.3144917
1051,Snowflake Drive,83333,43.4907737,-114.2765964
1261,Aspen Valley Drive,83333,43.5127805,-114.2954206
200,Sunbeam Street,83333,43.5245082,-114.3023932
3013,Woodside Boulevard,83333,43.4965621,-114.2820114
891,Deerfield Drive,83333,43.5173935,-114.2978451
2456,Shenandoah Drive,83333,43.5006320,-114.2882545
651,Whitetail Drive,83333,43.5190109,-114.2985969
850,Shenandoah Drive,83333,43.5022199,-114.2888514
1011,Meadow Mountain Drive,83333,43.4885865,-114.2760959
421,Eastridge Drive,83333,43.5196563,-114.3036038
140,Havilland Way,83333,43.5019908,-114.2985363
430,Willow Street,83333,43.5152067,-114.3148927
2451,Winterhaven Drive,83333,43.5021009,-114.2855575
221,Cottonwood Street,83333,43.5160743,-114.3164521
3651,Glenbrook Drive,83333,43.4896695,-114.2788242
240,Cranbrook Road,83333,43.5320331,-114.3190617
2960,Glenbrook Drive,83333,43.4960759,-114.2843852
1060,Mountain Drive,83333,43.4870120,-114.2736617
420,San Badger Drive,83333,43.5283308,-114.3045583
211,Croy Street,83333,43.5202023,-114.3115625
850,Shenandoah Drive,83333,43.5018629,-114.2890970
1141,Creekside Drive,83333,43.5120901,-114.3006493
1930,Winterhaven Drive,83333,43.5073011,-114.2883993
1120,Wolftone Drive,83333,43.5080297,-114.3107759
4021,Glenbrook Drive,83333,43.4864834,-114.2754911
857,Countryside Boulevard,83333,43.5000467,-114.2869024
1021,Snowflake Drive,83333,43.4907226,-114.2774662
850,Shenandoah Drive,83333,43.5018801,-114.2889753
411,Robin Hood Drive,83333,43.5123653,-114.3163640
521,Eureka Drive,83333,43.5180730,-114.3056487
3330,Berrycreek Drive,83333,43.4944093,-114.2772325
640,Deertrail Drive,83333,43.5188181,-114.2992099
2781,Winterhaven Drive,83333,43.4988918,-114.2854074
861,Ponderosa Drive,83333,43.5091581,-114.2935206
421,Winterberry Loop,83333,43.5299670,-114.3192156
1141,Airport Way,83333,43.5098396,-114.3054532
130,Gulf Stream Lane,83333,43.5042896,-114.3034008
1040,Triumph Drive,83333,43.5082326,-114.3132875
920,White Cloud Lane,83333,43.5073570,-114.2909167
311,Silver Street,83333,43.5245652,-114.3134343
740,Red Ash Drive,83333,43.5058220,-114.2923383
1431,Blue Lake Drive,83333,43.5113708,-114.2933039
431,Winterberry Loop,83333,43.5298040,-114.3190389
1541,Blue Lake Drive,83333,43.5102603,-114.2933099
520,Almond Street,83333,43.5139173,-114.3159726
515,River Street,83333,43.5235385,-114.3206006
2921,Glenbrook Drive,83333,43.4968992,-114.2856161
730,Deertrail Drive,83333,43.5185818,-114.2982206
921,White Cloud Lane,83333,43.5073618,-114.2914758
221,Eastridge Drive,83333,43.5219042,-114.3051024
441,Eureka Drive,83333,43.5186379,-114.3060785
920,Snowflake Drive,83333,43.4902188,-114.2782545
140,Havilland Way,83333,43.5021211,-114.2983635
2030,Briarwood Drive,83333,43.5042998,-114.2916890
3140,Woodside Boulevard,83333,43.4958341,-114.2809481
540,Deertrail Drive,83333,43.5197189,-114.3001114
1211,Northridge Drive,83333,43.5326972,-114.3175624
631,Deerfield Drive,83333,43.5178775,-114.3026793
521,Mother Lode Loop,83333,43.5266656,-114.3111804
230,Alder Street,83333,43.5149773,-114.3159070
850,Shenandoah Drive,83333,43.5019349,-114.2881509
831,Ponderosa Drive,83333,43.5089807,-114.2938993
820,Chestnut Street,83333,43.5185833,-114.3015568
811,Sunrise Drive,83333,43.5129691,-114.2975527
230,San Badger Drive,83333,43.5258952,-114.3035636
1760,Lear Lane,83333,43.5040747,-114.3024700
2261,Winterhaven Drive,83333,43.5034289,-114.2872917
541,Eureka Drive,83333,43.5176496,-114.3053241
1920,Copper Ranch Lane,83333,43.5071357,-114.2895577
1010,Queen Of The Hills Drive,83333,43.5104779,-114.3101574
3181,Shenandoah Drive,83333,43.4953196,-114.2791937
212,Winterberry Loop,83333,43.5292126,-114.3187075
740,River Street,83333,43.5130852,-114.3115064
352,Winterberry Loop,83333,43.5310053,-114.3197144
1910,Copper Ranch Lane,83333,43.5072969,-114.2897066
520,Aspen Drive,83333,43.5136706,-114.3168751
850,Shenandoah Drive,83333,43.5014854,-114.2891036
111,Myrtle Street,83333,43.5255150,-114.3173314
151,Poulson Drive,83333,43.5186183,-114.3210844
3940,Woodside Boulevard,83333,43.4878027,-114.2742120
216,Main Street,83333,43.5214776,-114.3163132
1231,Silver Star Drive,83333,43.5075798,-114.3095240
21,Cedar Street,83333,43.5127593,-114.3112587
3330,Mountain Ash Drive,83333,43.4930902,-114.2802016
180,Cranbrook Road,83333,43.5309583,-114.3208245
221,Pike Street,83333,43.5214083,-114.3064153
200,Bullion Street,83333,43.5181680,-114.3180673
408,River Street,83333,43.5159934,-114.3137183
3180,Woodside Boulevard,83333,43.4948882,-114.2807575
1121,Buckskin Drive,83333,43.5221176,-114.2993500
1031,Daybreak Lane,83333,43.5006184,-114.2842315
621,Myrtle Street,83333,43.5279393,-114.3115593
961,Eastridge Drive,83333,43.5147886,-114.2995202
2521,Winterhaven Drive,83333,43.5015383,-114.2849460
3351,Berrycreek Drive,83333,43.4940258,-114.2778309
1361,Snowfly Drive,83333,43.5062602,-114.3082196
120,Main Street,83333,43.5192192,-114.3145959
510,CD Olena Drive,83333,43.5283098,-114.3079579
140,Sunbeam Street,83333,43.5230297,-114.3022798
400,Main Street,83333,43.5167776,-114.3126775
651,Myrtle Court,83333,43.5240566,-114.3214995
416,South Main Street,83333,43.5162301,-114.3125570
400,South Main Street,83333,43.5166941,-114.3127383
103,South Main Street,83333,43.5192598,-114.3154720
202,South Main Street,83333,43.5210689,-114.3159533
603,North Main Street,83333,43.5244641,-114.3196892
801,Main Street North,83333,43.5262128,-114.3208134
911,North Main Street,83333,43.5273312,-114.3219208
720,Main Street North,83333,43.5266131,-114.3198957
155,Galena Street,83333,43.5210422,-114.3193774
821,Broadford Road,83333,43.5122908,-114.3104389
4320,Glenbrook Drive,83333,43.4873392,-114.2740757
960,South 4th Avenue,83333,43.5136698,-114.3035526
311,1st Avenue South,83333,43.5174825,-114.3126700
313,1st Avenue South,83333,43.5173125,-114.3125258
320,South Main Street,83333,43.5170975,-114.3130381
781,South Main Street,83333,43.5134964,-114.3079820
310,North Main Street,83333,43.5222821,-114.3169858
416,North Main Street,83333,43.5234268,-114.3178411
51,Cobblestone Lane,83333,43.5280390,-114.3204022
1616,Airport Circle,83333,43.5049923,-114.3001395
2731,Shenandoah Drive,83333,43.4978027,-114.2862784
2037,Briarwood Drive,83333,43.5029238,-114.2916384
