House number,Street name,Postal code,Latitude,Longitude
700,2nd Avenue,83340,43.6811700,-114.3697650
200,Main St N,83340,43.6800633,-114.3635300
251,1st Avenue North,83340,43.6792624,-114.3652940
900,3rd Avenue,83340,43.6812864,-114.3716060
131,Rivers Street East,83340,43.6786254,-114.3635047
811,East Avenue,83340,43.6842852,-114.3664412
571,5th Street East,83340,43.6834917,-114.3635886
900,3rd Avenue,83340,43.6817531,-114.3707180
1177,Warm Springs Road,83340,43.6865715,-114.3722522
491,Sun Valley Road,83340,43.6816967,-114.3630480
650,North Main Street,83340,43.6832402,-114.3668060
340,North Main Street,83340,43.6809978,-114.3645100
340,River Street,83340,43.6755621,-114.3658145
1523,Warm Springs Road,83340,43.6897377,-114.3809433
2422,Warm Springs Road,83340,43.6908366,-114.3956477
318,Bald Mountain Road,83340,43.6904812,-114.3893265
231,Northwood Way,83340,43.6897548,-114.3697405
201,Canyon Run Boulevard,83340,43.6888601,-114.3762096
2818,Warm Springs Road,83340,43.6890169,-114.4005995
131,Four Seasons Way,83340,43.6916569,-114.3838101
125,Valleywood Drive,83340,43.6931880,-114.3647288
240,Hillside Drive,83340,43.6924124,-114.3886595
111,Emerald Street,83340,43.6748263,-114.3600523
108,Sage Road,83340,43.6908273,-114.3992538
125,Holliday Lane,83340,43.6862448,-114.3769344
2001,Warm Springs Road,83340,43.6908783,-114.3872947
151,Main Street,83340,43.6790816,-114.3629633
211,Bird Drive,83340,43.6768821,-114.3695460
631,East Avenue,83340,43.6834477,-114.3654658
206,Canyon Run Boulevard,83340,43.6893021,-114.3754186
108,Pinewood Lane,83340,43.6855795,-114.3716230
601,Leadville Avenue,83340,43.6777035,-114.3603536
150,Graduate Drive,83340,43.6931967,-114.3687900
680,Spruce Avenue,83340,43.6854418,-114.3618061
201,Skiway Drive,83340,43.6879251,-114.4011748
215,Bird Drive,83340,43.6769693,-114.3692785
210,Broadway Boulevard,83340,43.6868934,-114.3744812
403,Huffman Drive,83340,43.6933377,-114.3934158
129,Dollar Drive,83340,43.6893943,-114.3772015
111,Turf Lane,83340,43.6914236,-114.3916190
113,Boulder View Lane,83340,43.6995231,-114.3705840
700,Sun Valley Road,83340,43.6832938,-114.3599470
121,River Glen Lane,83340,43.6636862,-114.3562663
207,Hillside Drive,83340,43.6922412,-114.3918024
530,Wood River Drive,83340,43.6744894,-114.3727700
401,Lewis Street,83340,43.6892229,-114.3707496
209,Picabo Street,83340,43.6836928,-114.4026341
700,Leadville Avenue,83340,43.6836067,-114.3664709
505,Evergreen Lane,83340,43.6784962,-114.3727613
250,Bald Mountain Road,83340,43.6908918,-114.3869393
226,Aspen Drive,83340,43.6877096,-114.3975634
140,Sun Valley Road,83340,43.6790797,-114.3661279
215,Raven Road,83340,43.6934642,-114.3652972
311,Andora Lane,83340,43.6771650,-114.3625760
202,Picabo Street,83340,43.6843499,-114.4028240
120,Spur Lane,83340,43.6913476,-114.3613888
331,Shady Lane,83340,43.6874086,-114.3970155
150,Wood River Drive,83340,43.6741134,-114.3664477
469,Wood River Drive,83340,43.6748350,-114.3700235
711,East Avenue,83340,43.6837387,-114.3659949
340,River Street,83340,43.6754115,-114.3659727
110,Lindsay Circle,83340,43.6906508,-114.3704455
404,Broadway Boulevard,83340,43.6848270,-114.3757102
127,Saddle Road,83340,43.6914455,-114.3641798
100,Thunder Trail,83340,43.6929819,-114.3657547
301,Bell Drive,83340,43.6868011,-114.3685261
204,Jade Street,83340,43.6756161,-114.3599420
420,East Avenue,83340,43.6827133,-114.3631999
235,Spur Lane,83340,43.6899671,-114.3634894
227,Parkway Drive,83340,43.6847213,-114.3739102
125,Howard Drive,83340,43.6845149,-114.4033764
233,Lloyd Court,83340,43.6835185,-114.4058441
120,Ritchie Drive,83340,43.6859397,-114.4027818
491,Main Street,83340,43.6813765,-114.3656548
340,River Street,83340,43.6751385,-114.3665379
104,Sunnyside Drive,83340,43.6852607,-114.3758674
301,Sage Road,83340,43.6880430,-114.4021809
3001,Warm Springs Road,83340,43.6875727,-114.4015059
114,Pinewood Lane,83340,43.6852687,-114.3714268
234,Cedar Drive,83340,43.6891412,-114.3968012
980,Warm Springs Road,83340,43.6844770,-114.3689880
110,Latigo Lane,83340,43.6938913,-114.3613308
451,River Street,83340,43.6799490,-114.3607773
114,Latigo Lane,83340,43.6941889,-114.3616979
109,Fir Drive,83340,43.6886924,-114.3971979
340,River Street,83340,43.6747620,-114.3657411
304,Georginia Road,83340,43.6884570,-114.4002809
106,Neils Way,83340,43.6661438,-114.3556473
113,Townhouse Lane,83340,43.6885394,-114.3806684
563,Wood River Drive,83340,43.6759373,-114.3730181
110,Lewis Street,83340,43.6861684,-114.3694315
127,Saddle Road,83340,43.6915583,-114.3642443
220,River Street,83340,43.6783592,-114.3623980
115,Badger Lane,83340,43.6801680,-114.3751556
299,Wood River Drive,83340,43.6740438,-114.3683686
119,Picabo Street,83340,43.6839746,-114.4009743
401,Lewis Street,83340,43.6891112,-114.3708073
333,Main Street,83340,43.6765201,-114.3617753
401,Lewis Street,83340,43.6891989,-114.3707486
1401,Warm Springs Road,83340,43.6889110,-114.3785016
1210,Canyon Run Boulevard,83340,43.6910961,-114.3806539
360,Eagles Wing Drive,83340,43.6851144,-114.3999324
479,Wood River Drive,83340,43.6750105,-114.3702641
100,Main Street,83340,43.6800973,-114.3624620
406,Bald Mountain Road,83340,43.6904584,-114.3919593
123,Saddle Road,83340,43.6922876,-114.3653504
230,Picabo Street Lane,83340,43.6839842,-114.4051537
225,Picabo Street Lane,83340,43.6834301,-114.4047822
323,Lewis Street,83340,43.6879396,-114.3703979
100,Thunder Trail,83340,43.6933305,-114.3656575
208,Broadway Boulevard,83340,43.6871302,-114.3743547
127,Saddle Road,83340,43.6919539,-114.3648923
237,Lloyd Court,83340,43.6834054,-114.4064224
1908,Warm Springs Road,83340,43.6910617,-114.3851638
171,Valleywood Drive,83340,43.6941410,-114.3642655
3215,Warm Springs Road,83340,43.6850145,-114.4041556
140,Bordeaux Street,83340,43.6758059,-114.3723018
108,Aspen Drive,83340,43.6896337,-114.3971741
400,East Avenue,83340,43.6826091,-114.3633185
130,River Rock Road,83340,43.7055115,-114.3733927
311,Andora Lane,83340,43.6772834,-114.3630423
100,Blue Grouse Lane,83340,43.6941873,-114.3721861
114,Lewis Street,83340,43.6861855,-114.3690816
119,Picabo Street,83340,43.6843206,-114.4013558
127,Saddle Road,83340,43.6924510,-114.3644780
411,Bald Mountain Road,83370,43.6897976,-114.3928236
3011,Warm Springs Road,83340,43.6870785,-114.4020001
2327,Warm Springs Road,83340,43.6904398,-114.3939906
331,Leadville Avenue,83340,43.6812142,-114.3639154
2909,Warm Springs Road,83340,43.6882007,-114.4006238
522,Broadway Boulevard,83340,43.6860274,-114.3778733
314,Canyon Run Boulevard,83340,43.6918284,-114.3754478
191,Sun Valley Road,83340,43.6800724,-114.3654463
125,Howard Drive,83340,43.6845098,-114.4029311
171,Valleywood Drive,83340,43.6944073,-114.3642214
225,Raven Road,83340,43.6939907,-114.3654442
214,Glade Court,83340,43.6646291,-114.3547438
230,Sabala Street,83340,43.6773212,-114.3723408
1908,Warm Springs Road,83340,43.6913432,-114.3847672
231,Northwood Way,83340,43.6896852,-114.3697394
1900,Warm Springs Road,83340,43.6911781,-114.3844545
139,Bird Drive,83340,43.6748683,-114.3685183
218,Glade Court,83340,43.6644414,-114.3552626
270,Northwood Way,83340,43.6915760,-114.3685777
125,Picabo Street,83340,43.6832876,-114.4008334
229,Pinewood Lane,83340,43.6843902,-114.3717575
220,Skiway Drive,83340,43.6860887,-114.4012620
415,Sage Road,83340,43.6863453,-114.4040022
420,Spruce Avenue,83340,43.6843338,-114.3612583
340,River Street,83340,43.6755517,-114.3664466
150,Flower Drive,83340,43.6908591,-114.3834610
100,Spur Lane,83340,43.6922899,-114.3613859
720,Walnut Avenue,83340,43.6852182,-114.3645010
500,Bell Drive,83340,43.6878107,-114.3683224
331,Leadville Avenue,83340,43.6811551,-114.3638690
318,River Run Drive,83340,43.6881515,-114.3789990
1,Blue Canyon Road,83340,43.7119178,-114.3688749
140,Dollar Drive,83340,43.6901511,-114.3779845
101,Emerald Street,83340,43.6745349,-114.3605807
190,Graduate Drive,83340,43.6942872,-114.3690162
333,Main Street,83340,43.6767548,-114.3616986
302,Broadway Boulevard,83340,43.6860327,-114.3749839
1908,Warm Springs Road,83340,43.6912940,-114.3848680
235,Spur Lane,83340,43.6909317,-114.3642480
102,Neils Way,83340,43.6666955,-114.3557882
114,Pinewood Lane,83340,43.6852675,-114.3715398
210,Sun Valley Road,83340,43.6800306,-114.3646519
3119,Warm Springs Road,83340,43.6854808,-114.4037972
477,Wood River Drive,83340,43.6750112,-114.3701442
780,Main Street,83340,43.6837734,-114.3670146
161,Bordeaux Street,83340,43.6763961,-114.3721349
150,Thunder Trail,83340,43.6949713,-114.3655899
135,Bird Drive,83340,43.6747606,-114.3689335
311,Lewis Street,83340,43.6876644,-114.3705078
322,Broadway Boulevard,83340,43.6852925,-114.3755644
215,Picabo Street,83340,43.6838069,-114.4032965
146,Irene Street,83340,43.6894705,-114.3905280
305,Broadway Boulevard,83340,43.6854102,-114.3749883
300,Wood River Drive,83340,43.6733721,-114.3676775
120,Galena Court,83340,43.6986257,-114.3664720
400,Huffman Drive,83340,43.6919354,-114.3934088
3001,Warm Springs Road,83340,43.6875310,-114.4016322
411,Sun Valley Road,83340,43.6814689,-114.3634122
103,Garnet Street,83340,43.6736283,-114.3607586
171,Valleywood Drive,83340,43.6944720,-114.3642174
124,Belmont Drive,83340,43.6915756,-114.3893917
229,River Run Drive,83340,43.6872682,-114.3775923
200,Garnet Street,83340,43.6732654,-114.3592647
213,Bird Drive,83340,43.6768159,-114.3692248
235,Spur Lane,83340,43.6909544,-114.3642204
171,Bordeaux Street,83340,43.6768916,-114.3723297
150,Wood River Drive,83340,43.6733983,-114.3664568
140,Stoneridge Road,83340,43.7012346,-114.3666706
114,Lodge Lane,83340,43.6766501,-114.3706667
136,Bird Drive,83340,43.6743622,-114.3691974
110,Lindsay Circle,83340,43.6908532,-114.3704735
380,Leadville Avenue,83340,43.6783997,-114.3594744
2001,Warm Springs Road,83340,43.6909858,-114.3871945
321,Leadville Avenue,83340,43.6782696,-114.3608019
315,Skiway Drive,83340,43.6866290,-114.3995744
291,Sun Valley Road,83340,43.6785421,-114.3682412
3015,Warm Springs Road,83340,43.6868879,-114.4021884
491,Main Street,83340,43.6814346,-114.3658154
409,Main Street,83340,43.6757198,-114.3620456
231,Edelweiss Avenue,83340,43.6767606,-114.3686737
303,Georginia Road,83340,43.6885443,-114.3994655
314,River Run Drive,83340,43.6880096,-114.3787180
620,Leadville Avenue,83340,43.6832334,-114.3658191
2108,Warm Springs Road,83340,43.6912886,-114.3887500
340,River Street,83340,43.6749154,-114.3655195
235,Spur Lane,83340,43.6898538,-114.3641652
201,Garnet Street,83340,43.6736283,-114.3596987
880,Warm Springs Road,83340,43.6839843,-114.3683173
105,Sheep Meadow Lane,83340,43.6970964,-114.3731857
130,Spur Lane,83340,43.6911263,-114.3613992
202,Buss Elle Road,83340,43.6788381,-114.3745375
221,Parkway Drive,83340,43.6854162,-114.3740834
211,Skiway Drive,83340,43.6874112,-114.4006683
111,Spur Lane,83340,43.6921654,-114.3621419
210,Lewis Street,83340,43.6867215,-114.3695623
127,Saddle Road,83340,43.6915263,-114.3642832
171,Sun Valley Road,83340,43.6791784,-114.3667534
411,Onyx Drive,83340,43.6789485,-114.3599347
131,East Avenue,83340,43.6802763,-114.3611509
405,Sage Road,83340,43.6867759,-114.4036108
248,Hillside Drive,83340,43.6924491,-114.3881059
141,Four Seasons Way,83340,43.6917168,-114.3840334
320,Leadville Avenue,83340,43.6815179,-114.3635668
141,Belmont Drive,83340,43.6921383,-114.3882250
204,Ritchie Drive,83340,43.6852471,-114.4035361
227,Hillside Drive,83340,43.6934009,-114.3902044
150,Bird Drive,83340,43.6753740,-114.3703763
127,Saddle Road,83340,43.6919817,-114.3648821
101,Williams Street,83340,43.6751539,-114.3709623
127,Saddle Road,83340,43.6924953,-114.3644956
217,Skiway Drive,83340,43.6872664,-114.4004690
122,Pinewood Lane,83340,43.6851176,-114.3712766
675,Sun Valley Road,83340,43.6836690,-114.3611711
1135,Canyon Run Boulevard,83340,43.6918747,-114.3796562
425,Bigwood Drive,83340,43.7058137,-114.3678054
511,Leadville Avenue,83340,43.6823070,-114.3654016
140,Red Fox Lane,83340,43.6910508,-114.3713887
140,Flower Drive,83340,43.6909975,-114.3828919
409,Main Street,83340,43.6758052,-114.3618528
610,Leadville Avenue,83340,43.6770505,-114.3599678
131,Bird Drive,83340,43.6742691,-114.3685634
141,Spur Lane,83340,43.6908414,-114.3623038
124,Short Swing Lane,83340,43.6919250,-114.3853368
2005,Warm Springs Road,83340,43.6908920,-114.3877111
120,River Street,83340,43.6777516,-114.3632355
140,Short Swing Lane,83340,43.6926534,-114.3857683
533,Wood River Drive,83340,43.6751267,-114.3722660
780,Warm Springs Road,83340,43.6833584,-114.3675193
225,Picabo Street Lane,83340,43.6834445,-114.4046222
170,Telemark Road,83340,43.7037031,-114.3642639
180,Main Street,83340,43.6801648,-114.3631757
132;136,Valleywood Drive,83340,43.6936192,-114.3638894
525,Broadway Boulevard,83340,43.6861016,-114.3785034
315,Skiway Drive,83340,43.6862035,-114.4002345
540,Onyx Drive,83340,43.6800068,-114.3583572
601,Leadville Avenue,83340,43.6777328,-114.3607657
220,Northwood Way,83340,43.6900349,-114.3685123
159,Belmont Drive,83340,43.6921877,-114.3874309
235,Skiway Drive,83340,43.6867952,-114.4003633
341,Leadville Avenue,83340,43.6785267,-114.3600568
406,Evergreen Lane,83340,43.6782314,-114.3717755
116,Howard Drive,83340,43.6851293,-114.4026611
100,Thunder Trail,83340,43.6929936,-114.3655783
130,Stoneridge Road,83340,43.7008514,-114.3667196
460,Sun Valley Road,83340,43.6814221,-114.3627111
311,Andora Lane,83340,43.6771803,-114.3627900
520,Leadville Avenue,83340,43.6826632,-114.3651245
161,Bird Drive,83340,43.6759854,-114.3694186
223,Hillside Drive,83340,43.6933770,-114.3905796
209,Sage Road,83340,43.6891221,-114.4010575
401,Lewis Street,83340,43.6891875,-114.3708672
315,Skiway Drive,83340,43.6861442,-114.3997256
1313,Warm Springs Road,83340,43.6887003,-114.3778740
251,Northwood Way,83340,43.6905091,-114.3698831
130,Bird Drive,83340,43.6741756,-114.3691157
114,Short Swing Lane,83340,43.6913998,-114.3854398
251,Washington Avenue,83340,43.6797526,-114.3648862
1908,Warm Springs Road,83340,43.6916218,-114.3850643
300,Lloyd Court,83340,43.6840067,-114.4066253
180,Main Street,83340,43.6801585,-114.3631162
235,Raven Road,83340,43.6943187,-114.3647428
138;142,Valleywood Drive,83340,43.6936414,-114.3637046
215,Raven Road,83340,43.6934532,-114.3651624
140,Flower Drive,83340,43.6910528,-114.3830803
205,Sage Road,83340,43.6892820,-114.4008041
171,Bordeaux Street,83340,43.6766008,-114.3721719
300,Wood River Drive,83340,43.6730934,-114.3674582
209,Sabala Street,83340,43.6777503,-114.3724833
190,Ramona Lane,83340,43.6892676,-114.3749032
415,Lewis Street,83340,43.6894514,-114.3705079
1908,Warm Springs Road,83340,43.6911239,-114.3848131
201,Broadway Boulevard,83340,43.6873461,-114.3735080
371,River Street,83340,43.6759603,-114.3668323
815,Rocking Horse Road,83340,43.6798895,-114.3736460
215,Clubhouse Drive,83340,43.6995697,-114.3668036
200,Ramona Lane,83340,43.6886649,-114.3740989
280,Sun Valley Road,83340,43.6779407,-114.3677384
151,Main Street,83340,43.6791632,-114.3630383
151,Neils Way,83340,43.6666311,-114.3585479
480,Walaneut Avenue,83340,43.6837525,-114.3624735
225,Raven Road,83340,43.6939971,-114.3654140
120,Ritchie Drive,83340,43.6860548,-114.4027037
331,Leadville Avenue,83340,43.6811316,-114.3639508
2319,Warm Springs Road,83340,43.6905568,-114.3925901
190,River Rock Road,83340,43.7082050,-114.3728078
314,Broadway Boulevard,83340,43.6857526,-114.3754864
119,Picabo Street,83340,43.6839788,-114.4010878
100,Leadville Avenue,83340,43.6800348,-114.3615069
315,Skiway Drive,83340,43.6865802,-114.4002830
371,Washington Avenue,83340,43.6802403,-114.3655805
188;192,Valleywood Drive,83340,43.6942558,-114.3637090
200,Lava Street,83340,43.6779765,-114.3591118
125,Belmont Drive,83340,43.6920801,-114.3893064
511,River Street,83340,43.6804768,-114.3604276
311,Andora Lane,83340,43.6776658,-114.3628310
280,Lloyd Court,83340,43.6840659,-114.4063137
220,Lewis Street,83340,43.6870935,-114.3696457
110,Wood River Drive,83340,43.6749289,-114.3666511
140,Red Fox Lane,83340,43.6908766,-114.3713975
371,River Street,83340,43.6758405,-114.3669999
147,Exhibition Boulevard,83340,43.6859971,-114.3756384
251,Northwood Way,83340,43.6905063,-114.3697631
107,Corrock Drive,83340,43.6875268,-114.3751459
105,Valleywood Drive,83340,43.6929928,-114.3645458
202,Picabo Street,83340,43.6846512,-114.4020264
171,Bird Drive,83340,43.6760605,-114.3691259
219,Cedar Drive,83340,43.6881630,-114.3962093
110,Wood River Drive,83340,43.6748458,-114.3666466
1908,Warm Springs Road,83340,43.6916062,-114.3848966
225,Raven Road,83340,43.6939755,-114.3651704
315,Skiway Drive,83340,43.6874923,-114.4000507
110,Flower Drive,83340,43.6906823,-114.3826409
220,Cottonwood Street,83340,43.6758393,-114.3637102
227,Pinewood Lane,83340,43.6846071,-114.3719181
2419,Warm Springs Road,83340,43.6903609,-114.3951416
162,Irene Street,83340,43.6899274,-114.3894295
130,Dollar Drive,83340,43.6900976,-114.3774826
203,Williams Street,83340,43.6766482,-114.3709431
631,Warm Springs Road,83340,43.6824362,-114.3671676
511,Wood River Drive,83340,43.6750095,-114.3715905
211,Bird Drive,83340,43.6767691,-114.3695263
127,Saddle Road,83340,43.6919220,-114.3637096
220,Bird Drive,83340,43.6772307,-114.3700556
601,Leadville Avenue,83340,43.6774648,-114.3605899
315,Skiway Drive,83340,43.6859489,-114.3996869
329,Bald Mountain Road,83340,43.6903374,-114.3908343
122,Sage Road,83340,43.6904035,-114.4002643
156;160,Valleywood Drive,83340,43.6936427,-114.3631206
631,Alpine Lane,83340,43.6839394,-114.3647797
220,Picabo Street,83340,43.6841885,-114.4040208
205,Raven Road,83340,43.6929753,-114.3651894
258,Northwood Way,83340,43.6906224,-114.3685858
2005,Warm Springs Road,83340,43.6908707,-114.3879339
222,Pinewood Lane,83340,43.6845402,-114.3708479
125,Picabo Street,83340,43.6833248,-114.4006179
165,Simpson Drive,83340,43.6909185,-114.3947258
101,Williams Street,83340,43.6752463,-114.3706185
318,Bald Mountain Road,83340,43.6904822,-114.3894707
2116,Warm Springs Road,83340,43.6912373,-114.3894990
280,Sun Valley Road,83340,43.6779847,-114.3672736
131,Bird Drive,83340,43.6743655,-114.3686807
144,Short Swing Lane,83340,43.6926939,-114.3860518
210,Skiway Drive,83340,43.6871532,-114.4014797
141,Red Fox Lane,83340,43.6907804,-114.3719784
340,River Street,83340,43.6754830,-114.3658724
601,Leadville Avenue,83340,43.6774622,-114.3605615
120,River Run Drive,83340,43.6877146,-114.3765659
202,Garnet Street,83340,43.6732664,-114.3589818
524,Wood River Drive,83340,43.6741510,-114.3718794
220,Sabala Street,83340,43.6773136,-114.3717696
143,Exhibition Boulevard,83340,43.6861788,-114.3755056
215,Bald Mountain Road,83340,43.6903964,-114.3863648
2600,Warm Springs Road,83340,43.6928055,-114.3972940
154,Irene Street,83340,43.6895965,-114.3899228
460,Clubhouse Drive,83340,43.6955759,-114.3667107
3110,Warm Springs Road,83340,43.6858644,-114.4040852
151,Main Street,83340,43.6790544,-114.3627195
171,Valleywood Drive,83340,43.6943739,-114.3642231
2706,Warm Springs Road,83340,43.6898219,-114.3995365
119,Picabo Street,83340,43.6839503,-114.4010821
161,Belmont Drive,83340,43.6921752,-114.3871053
107,Pinevue Lane,83340,43.6849927,-114.3724615
301,Bald Mountain Road,83340,43.6903839,-114.3882369
202,Picabo Street,83340,43.6846072,-114.4019153
105,Georginia Road,83340,43.6900054,-114.3971008
440,East Avenue,83340,43.6827463,-114.3634293
301,Bell Drive,83340,43.6867850,-114.3688551
113,Sheep Meadow Lane,83340,43.6989515,-114.3737823
219,Skiway Drive,83340,43.6871054,-114.4004082
315,Skiway Drive,83340,43.6868403,-114.3997044
223,Broadway Boulevard,83340,43.6858747,-114.3743941
178,Bordeaux Street,83340,43.6771690,-114.3729546
530,Northwood Way,83340,43.6953039,-114.3722980
101,Red Fox Lane,83340,43.6897587,-114.3723906
2702,Warm Springs Road,83340,43.6899984,-114.3992447
404,Skiway Court,83340,43.6837202,-114.4004225
717,Wood River Drive,83340,43.6801857,-114.3738590
409,Main Street,83340,43.6755337,-114.3617911
418,Broadway Boulevard,83340,43.6845902,-114.3760947
920,Rocking Horse Road,83340,43.6809179,-114.3729960
297,Wood River Drive,83340,43.6738912,-114.3679129
110,Wood River Drive,83340,43.6744014,-114.3664904
1515,Warm Springs Road,83340,43.6895683,-114.3805198
215,River Ridge Lane,83340,43.6755345,-114.3675670
2005,Warm Springs Road,83340,43.6908855,-114.3877850
315,Skiway Drive,83340,43.6864756,-114.4001742
210,Skiway Drive,83340,43.6871767,-114.4013123
220,Gem Street,83340,43.6766861,-114.3591683
301,Bell Drive,83340,43.6868313,-114.3685299
145,Bird Drive,83340,43.6754433,-114.3692933
503,Main Street,83340,43.6745136,-114.3615594
119,Williams Street,83340,43.6757718,-114.3705993
115,Townhouse Lane,83340,43.6882641,-114.3806486
127,Saddle Road,83340,43.6924924,-114.3637388
305,Bald Mountain Road,83340,43.6902847,-114.3886467
311,Canyon Run Boulevard,83340,43.6914021,-114.3762295
110,Buss Elle Road,83340,43.6788759,-114.3735216
106,Buss Elle Road,83340,43.6788996,-114.3724760
120,Ritchie Drive,83340,43.6856015,-114.4026649
315,Skiway Drive,83340,43.6863136,-114.4002173
360,Sun Valley Road,83340,43.6809076,-114.3635734
201,Emerald Street,83340,43.6748518,-114.3582790
125,Howard Drive,83340,43.6844971,-114.4031529
331,Leadville Avenue,83340,43.6812240,-114.3640355
601,Leadville Avenue,83340,43.6775161,-114.3605041
119,Picabo Street,83340,43.6845257,-114.4011710
160,Flower Drive,83340,43.6911668,-114.3832444
315,Skiway Drive,83340,43.6868399,-114.3997825
260,Crystal Court,83340,43.6797075,-114.3578064
3022,Warm Springs Road,83340,43.6866272,-114.4032548
145,Bird Drive,83340,43.6755247,-114.3689291
245,Raven Road,83340,43.6949513,-114.3648520
115,Latigo Lane,83340,43.6936695,-114.3626128
2213,Warm Springs Road,83340,43.6906471,-114.3914262
301,Williams Street,83340,43.6774918,-114.3709369
235,Cedar Drive,83340,43.6892396,-114.3962077
111,East Avenue,83340,43.6806074,-114.3616025
225,River Ridge Lane,83340,43.6757329,-114.3676675
2100,Warm Springs Road,83340,43.6913401,-114.3883006
315,Huffman Drive,83340,43.6931526,-114.3940966
139,Dollar Drive,83340,43.6894059,-114.3776176
239,Skiway Drive,83340,43.6866722,-114.4008258
130,Saddle Road,83340,43.6931013,-114.3624783
300,Clubhouse Drive,83340,43.6988923,-114.3660541
420,Huffman Drive,83340,43.6919318,-114.3927223
520,Onyx Drive,83340,43.6796511,-114.3584746
591,Washington Avenue,83340,43.6814572,-114.3673241
205,Clubhouse Drive,83340,43.6994811,-114.3673540
455,Wood River Drive,83340,43.6743159,-114.3694164
311,Andora Lane,83340,43.6771617,-114.3628744
315,Skiway Drive,83340,43.6858874,-114.3996889
631,Washington Avenue,83340,43.6817625,-114.3677389
340,River Street,83340,43.6749917,-114.3653507
620,Spruce Avenue,83340,43.6852164,-114.3626886
700,Leadville Avenue,83340,43.6837660,-114.3663800
527,Broadway Court,83340,43.6864184,-114.3787588
380,Main Street,83340,43.6812708,-114.3646297
122,Pinewood Lane,83340,43.6851557,-114.3713029
675,Sun Valley Road,83340,43.6831711,-114.3609842
131,Bird Drive,83340,43.6745539,-114.3682800
119,Picabo Street,83340,43.6844933,-114.4012092
180,River Rock Road,83340,43.7082050,-114.3733861
601,Leadville Avenue,83340,43.6774924,-114.3604211
311,Andora Lane,83340,43.6774334,-114.3629677
12700,State Highway 75,83340,43.6630036,-114.3538648
1908,Warm Springs Road,83340,43.6913121,-114.3850065
151,Four Seasons Way,83340,43.6917981,-114.3846188
315,Skiway Drive,83340,43.6862486,-114.3997231
575,Wood River Drive,83340,43.6763304,-114.3733494
3014,Warm Springs Road,83340,43.6873998,-114.4024149
221,Sage Road,83340,43.6884442,-114.4018091
202,Picabo Street,83340,43.6843913,-114.4027010
213,Parkway Drive,83340,43.6856079,-114.3732033
220,Picabo Street,83340,43.6844719,-114.4042591
121,Ritchie Drive,83340,43.6853165,-114.4022336
315,Skiway Drive,83340,43.6874350,-114.3996253
200,Spruce Avenue,83340,43.6831795,-114.3597358
235,Bigwood Drive,83340,43.7028667,-114.3652852
280,Sun Valley Road,83340,43.6780231,-114.3673259
131,Edelweiss Avenue,83340,43.6763303,-114.3680201
520,Leadville Avenue,83340,43.6827635,-114.3652638
233,Pinewood Lane,83340,43.6841947,-114.3716308
110,Latigo Lane,83340,43.6936987,-114.3614189
215,Raven Road,83340,43.6934576,-114.3652978
210,Picabo Street,83340,43.6842400,-114.4032631
200,Aspen Drive,83340,43.6894344,-114.3979349
405,Clubhouse Drive,83340,43.6973092,-114.3656545
675,Sun Valley Road,83340,43.6833387,-114.3607501
202,Picabo Street,83340,43.6846151,-114.4018958
220,Picabo Street,83340,43.6849404,-114.4039104
250,Crystal Court,83340,43.6790431,-114.3583283
243,Skiway Drive,83340,43.6861822,-114.4008054
811,Walnut Avenue,83340,43.6851845,-114.3656780
226,Pinewood Lane,83340,43.6840993,-114.3706809
566,Wood River Drive,83340,43.6758437,-114.3737737
220,Sage Road,83340,43.6892969,-114.4034687
160,Stoneridge Road,83340,43.7020125,-114.3665807
12720,State Highway 75,83340,43.6650522,-114.3553269
151,Main Street,83340,43.6789627,-114.3624151
115,Northwood Way,83340,43.6892701,-114.3700362
117,Ritchie Drive,83340,43.6856979,-114.4018101
202,Picabo Street,83340,43.6842542,-114.4028624
507,Evergreen Lane,83340,43.6787509,-114.3727441
2716,Warm Springs Road,83340,43.6893758,-114.4001465
128,Saddle Road,83340,43.6931536,-114.3638698
360,East Avenue,83340,43.6823117,-114.3628406
323,Lewis Street,83340,43.6879899,-114.3706031
409,Main Street,83340,43.6753973,-114.3615344
1510,Warm Springs Road,83340,43.6898188,-114.3796661
600,Main Street,83340,43.6830343,-114.3664700
335,Lewis Street,83340,43.6885292,-114.3706122
160,Leadville Avenue,83340,43.6798784,-114.3613114
911,Main Street,83340,43.6850971,-114.3678203
500,River Street,83340,43.6798385,-114.3601158
406,Sage Road,83340,43.6874355,-114.4058882
402,Sage Road,83340,43.6879293,-114.4057741
117,Townhouse Lane,83340,43.6880891,-114.3805237
304,Canyon Run Boulevard,83340,43.6906489,-114.3751817
115,Pine Drive,83340,43.6881167,-114.3975889
449,Wood River Drive,83340,43.6741366,-114.3693401
126,Bird Drive,83340,43.6740512,-114.3690434
135,Graduate Drive,83340,43.6936424,-114.3699578
127,Sage Road,83340,43.6896962,-114.4002947
235,Spur Lane,83340,43.6905857,-114.3641720
520,Clubhouse Drive,83340,43.6958415,-114.3654435
119,Picabo Street,83340,43.6836694,-114.4015300
128,Short Swing Lane,83340,43.6921850,-114.3852740
341,Eagles Wing Drive,83340,43.6857074,-114.3999876
360,East Avenue,83340,43.6822348,-114.3626149
127,Saddle Road,83340,43.6925452,-114.3645408
216,Parkway Drive,83340,43.6849197,-114.3727768
479,Wood River Drive,83340,43.6750102,-114.3703774
2107,Warm Springs Road,83340,43.6907575,-114.3890057
119,Townhouse Lane,83340,43.6876132,-114.3803445
123,Saddle Road,83340,43.6923288,-114.3654277
255,Hillside Drive,83340,43.6929687,-114.3875961
202,Picabo Street,83340,43.6846830,-114.4019484
315,Skiway Drive,83340,43.6868326,-114.3998905
1242,Canyon Run Boulevard,83340,43.6900680,-114.3804476
239,Pinewood Lane,83340,43.6839043,-114.3707762
110,Lindsay Circle,83340,43.6905029,-114.3704279
415,Huffman Drive,83340,43.6933166,-114.3924594
291,Washington Avenue,83340,43.6798360,-114.3650349
500,Wood River Drive,83340,43.6741710,-114.3715218
106,Sheep Meadow Lane,83340,43.6964777,-114.3709840
150,Bird Drive,83340,43.6756602,-114.3699148
225,Raven Road,83340,43.6940489,-114.3651511
109,Belmont Drive,83340,43.6914893,-114.3904800
471,Northwood Way,83340,43.6939466,-114.3737492
131,Four Seasons Way,83340,43.6915939,-114.3838403
3119,Warm Springs Road,83340,43.6855944,-114.4036793
417,River Run Drive,83340,43.6881011,-114.3800663
560,Washington Avenue,83340,43.6816580,-114.3667474
221,Picabo Street,83340,43.6833502,-114.4035686
1803,Warm Springs Road,83340,43.6894001,-114.3824058
101,Emerald Street,83340,43.6748137,-114.3605558
110,Lindsay Circle,83340,43.6902613,-114.3706385
116,Howard Drive,83340,43.6851131,-114.4026570
171,River Street,83340,43.6775339,-114.3645012
420,Sage Road,83340,43.6860158,-114.4047037
127,Saddle Road,83340,43.6925301,-114.3645301
280,River Street,83340,43.6787025,-114.3619562
530,Broadway Boulevard,83340,43.6865095,-114.3781256
215,Sage Road,83340,43.6889219,-114.4012408
204,Ritchie Drive,83340,43.6853993,-114.4034460
150,Wood River Drive,83340,43.6733813,-114.3663056
645,Sun Valley Road,83340,43.6831690,-114.3616088
224,Pinewood Lane,83340,43.6843770,-114.3706526
260,Four Seasons Way,83340,43.6925369,-114.3848389
331,Lewis Street,83340,43.6883265,-114.3707408
331,Leadville Avenue,83340,43.6812029,-114.3637208
590,Wood River Drive,83340,43.6768839,-114.3752701
225,Picabo Street Lane,83340,43.6834217,-114.4044087
115,Valleywood Drive,83340,43.6929685,-114.3647574
2112,Warm Springs Road,83340,43.6912704,-114.3890213
808,Warm Springs Road,83340,43.6836327,-114.3678392
100,Lindsay Circle,83340,43.6915122,-114.3704506
101,Spur Lane,83340,43.6924485,-114.3621272
594,Wood River Drive,83340,43.6773764,-114.3745038
115,Thunder Trail,83340,43.6955555,-114.3677322
113,Howard Drive,83340,43.6848548,-114.4023053
131,Topaz Street,83340,43.6742990,-114.3601235
130,Flower Drive,83340,43.6907866,-114.3830907
151,Blue Grouse Lane,83340,43.6948571,-114.3708677
121,Red Fox Lane,83340,43.6903224,-114.3719628
702,Main Street,83340,43.6733080,-114.3608126
490,Wood River Drive,83340,43.6740368,-114.3709091
104,Saddle Road,83340,43.6886287,-114.3723610
3011,Warm Springs Road,83340,43.6870724,-114.4020563
305,Andora Lane,83340,43.6774500,-114.3618567
220,Picabo Street,83340,43.6846245,-114.4041095
310,Huffman Drive,83340,43.6916637,-114.3944477
161,Four Seasons Way,83340,43.6920405,-114.3849637
105,Buss Elle Road,83340,43.6792971,-114.3723995
440,East Avenue,83340,43.6828411,-114.3632207
520,River Street,83340,43.6801696,-114.3597295
127,Saddle Road,83340,43.6919338,-114.3648241
400,Canyon Run Boulevard,83340,43.6909154,-114.3744459
228,Aspen Drive,83340,43.6877880,-114.3974702
601,Leadville Avenue,83340,43.6774157,-114.3604935
120,Ritchie Drive,83340,43.6856961,-114.4027429
1908,Warm Springs Road,83340,43.6916164,-114.3849747
131,Belmont Drive,83340,43.6920851,-114.3890114
168;164,Valleywood Drive,83340,43.6938210,-114.3632234
360,Sun Valley Road,83340,43.6809538,-114.3635134
215,Picabo Street,83340,43.6837526,-114.4035511
120,Ritchie Drive,83340,43.6860111,-114.4027015
140,River Street,83340,43.6781969,-114.3627430
1904,Warm Springs Road,83340,43.6915294,-114.3842841
101,Saddle Road,83340,43.6866465,-114.3709882
142,Bird Drive,83340,43.6747460,-114.3695020
118,Hillside Drive,83340,43.6917094,-114.3920004
235,Spur Lane,83340,43.6902709,-114.3640526
300,Wood River Drive,83340,43.6732006,-114.3678751
206,Williams Street,83340,43.6766598,-114.3716543
321,Leadville Avenue,83340,43.6784288,-114.3607248
108,Pinewood Lane,83340,43.6853978,-114.3716051
118,Latigo Lane,83340,43.6945682,-114.3616211
235,Spur Lane,83340,43.6910934,-114.3642386
330,Lewis Street,83340,43.6885099,-114.3685213
531,Washington Avenue,83340,43.6812423,-114.3670321
3019,Warm Springs Road,83340,43.6866246,-114.4024991
101,Emerald Street,83340,43.6746699,-114.3608480
119,Picabo Street,83340,43.6839359,-114.4009539
431,Walnut Avenue,83340,43.6831327,-114.3628900
144;140,Valleywood Drive,83340,43.6936287,-114.3636323
220,Picabo Street,83340,43.6845674,-114.4040167
251,Penny Drive,83340,43.6911799,-114.3797278
712,Wood River Drive,83340,43.6799474,-114.3743537
110,Lindsay Circle,83340,43.6909986,-114.3705493
1908,Warm Springs Road,83340,43.6910287,-114.3842572
409,Main Street,83340,43.6759517,-114.3617833
150,Irene Street,83340,43.6895280,-114.3902265
414,Sage Road,83340,43.6863560,-114.4046276
401,Sage Road,83340,43.6870500,-114.4033265
119,Picabo Street,83340,43.6843090,-114.4012372
104,Short Swing Lane,83340,43.6912413,-114.3861866
509,Broadway Boulevard,83340,43.6852872,-114.3780098
341,Leadville Avenue,83340,43.6784974,-114.3603532
100,Thunder Trail,83340,43.6929460,-114.3655936
177,Exhibition Boulevard,83340,43.6862541,-114.3779145
120,Bordeaux Street,83340,43.6754923,-114.3720185
110,Wood River Drive,83340,43.6744002,-114.3663977
215,Bald Mountain Road,83340,43.6904289,-114.3865368
511,Main Street,83340,43.6816743,-114.3661324
145,Bird Drive,83340,43.6753283,-114.3690349
631,Washington Avenue,83340,43.6818727,-114.3677506
110,River Ranch Road,83340,43.6614931,-114.3549312
1908,Warm Springs Road,83340,43.6915849,-114.3847330
520,River Street,83340,43.6801630,-114.3599237
104,Howard Drive,83340,43.6856553,-114.4013276
511,Leadville Avenue,83340,43.6823361,-114.3653822
675,Sun Valley Road,83340,43.6833845,-114.3607957
570,Northwood Way,83340,43.6954390,-114.3710100
224,Parkway Drive,83340,43.6844337,-114.3731420
210,Lava Street,83340,43.6779943,-114.3583871
3026,Warm Springs Road,83340,43.6861466,-114.4038461
148,Bird Drive,83340,43.6752057,-114.3696220
3025,Warm Springs Road,83340,43.6863723,-114.4029521
252,Hillside Drive,83340,43.6924700,-114.3877894
420,Canyon Run Boulevard,83340,43.6921096,-114.3760596
323,Lewis Street,83340,43.6879372,-114.3703976
112,Latigo Lane,83340,43.6943227,-114.3612672
270,Northwood Way,83340,43.6916442,-114.3686132
120,Flower Drive,83340,43.6910156,-114.3824511
135,Belmont Drive,83340,43.6920517,-114.3886688
421,River Run Drive,83340,43.6884321,-114.3802083
270,Northwood Way,83340,43.6914707,-114.3686729
110,Lindsay Circle,83340,43.6911172,-114.3706648
207,Broadway Boulevard,83340,43.6866145,-114.3736394
410,River Run Drive,83340,43.6883766,-114.3791276
105,Telemark Road,83340,43.7040641,-114.3652870
110,Wood River Drive,83340,43.6746840,-114.3664420
110,Lindsay Circle,83340,43.6903278,-114.3703752
470,Clubhouse Drive,83340,43.6952493,-114.3664925
140,Telemark Road,83340,43.7053553,-114.3623285
270,Cottonwood Street,83340,43.6748018,-114.3632119
220,Picabo Street,83340,43.6844872,-114.4040038
116,Howard Drive,83340,43.6851966,-114.4025208
210,Skiway Drive,83340,43.6870373,-114.4013488
401,Sabala Street,83340,43.6777472,-114.3751413
104,Jane Lane,83340,43.6855306,-114.4031366
235,Corrock Drive,83340,43.6866126,-114.3775562
404,Evergreen Lane,83340,43.6782502,-114.3714960
791,Alpine Lane,83340,43.6846713,-114.3659375
100,Topaz Street,83340,43.6738549,-114.3607645
500,Onyx Drive,83340,43.6795137,-114.3586534
130,Simpson Drive,83340,43.6915884,-114.3934083
333,Main Street,83340,43.6764533,-114.3618163
116,Ritchie Drive,83340,43.6859026,-114.4022629
208,Canyon Run Boulevard,83340,43.6897231,-114.3751432
312,Sage Road,83340,43.6884968,-114.4051940
235,Spur Lane,83340,43.6901175,-114.3635654
215,Aspen Drive,83340,43.6881146,-114.3981637
680,Sun Valley Road,83340,43.6829037,-114.3601725
221,Picabo Street,83340,43.6833375,-114.4038119
122,Pinewood Lane,83340,43.6851224,-114.3713935
100,Georginia Road,83340,43.6902092,-114.3962381
200,Williams Street,83340,43.6761282,-114.3715239
119,Williams Street,83340,43.6755969,-114.3706167
603,Wood River Drive,83340,43.6780661,-114.3737126
601,Leadville Avenue,83340,43.6776635,-114.3606987
229,Bald Mountain Road,83340,43.6904690,-114.3869799
711,Main Street,83340,43.6831734,-114.3673582
130,Red Fox Lane,83340,43.6905932,-114.3713554
2810,Warm Springs Road,83340,43.6892824,-114.4002906
151,Emerald Street,83340,43.6745967,-114.3595429
2107,Warm Springs Road,83340,43.6907208,-114.3893448
180,Spur Lane,83340,43.6892405,-114.3615802
111,Townhouse Lane,83340,43.6886764,-114.3810982
160,Bordeaux Street,83340,43.6760442,-114.3723613
206,Pine Drive,83340,43.6884695,-114.3972443
207,Fox Run Road,83340,43.6962198,-114.3650662
204,Ritchie Drive,83340,43.6852687,-114.4035797
418,Bald Mountain Road,83340,43.6901228,-114.3929909
127,Saddle Road,83340,43.6920254,-114.3637655
119,Picabo Street,83340,43.6842442,-114.4013144
208,Georginia Road,83340,43.6893405,-114.3991564
230,Spur Lane,83340,43.6910922,-114.3632202
211,Williams Street,83340,43.6771849,-114.3708200
780,Main Street,83340,43.6836859,-114.3669362
412,Evergreen Lane,83340,43.6781415,-114.3723783
360,East Avenue,83340,43.6822287,-114.3626373
201,Gem Street,83340,43.6760206,-114.3602063
300,Wood River Drive,83340,43.6732788,-114.3676268
1301,Warm Springs Road,83340,43.6885600,-114.3771964
113,Frenchmans Court,83340,43.6776503,-114.3709264
1005,Hideaway Lane,83340,43.6820786,-114.3739066
161,Belmont Drive,83340,43.6921579,-114.3869542
2209,Warm Springs Road,83340,43.6907169,-114.3909623
123,Stirrup Lane,83340,43.6895107,-114.3657018
215,Raven Road,83340,43.6932970,-114.3653392
110,Stirrup Lane,83340,43.6905924,-114.3662714
303,Walnut Avenue,83340,43.6824790,-114.3620020
204,Ritchie Drive,83340,43.6853048,-114.4035154
100,Leadville Avenue,83340,43.6803761,-114.3619252
12724,State Highway 75,83340,43.6652988,-114.3554984
340,River Street,83340,43.6746305,-114.3658505
200,Bald Mountain Road,83340,43.6907173,-114.3850672
114,Wanderers Way,83340,43.6922489,-114.3861354
206,Skiway Drive,83340,43.6874902,-114.4013316
101,Lewis Street,83340,43.6855225,-114.3702536
270,Northwood Way,83340,43.6916577,-114.3685787
120,Topaz Street,83340,43.6738968,-114.3601726
225,Pinewood Lane,83340,43.6846875,-114.3717618
119,Picabo Street,83340,43.6837732,-114.4008589
119,Picabo Street,83340,43.6842057,-114.4015428
311,Andora Lane,83340,43.6774238,-114.3628230
113,Belmont Drive,83340,43.6918128,-114.3903988
203,Fox Run Road,83340,43.6954816,-114.3648818
221,Picabo Street,83340,43.6835949,-114.4032102
1281,Warm Springs Road,83340,43.6882121,-114.3771800
114,Stirrup Lane,83340,43.6902174,-114.3663048
110,Lindsay Circle,83340,43.6907633,-114.3704507
303,Broadway Boulevard,83340,43.6855755,-114.3747392
145,Bird Drive,83340,43.6755444,-114.3690549
105,Buss Elle Road,83340,43.6792565,-114.3725350
244,Hillside Drive,83340,43.6924334,-114.3883431
310,Broadway Boulevard,83340,43.6859351,-114.3753393
101,Emerald Street,83340,43.6748659,-114.3605570
225,Raven Road,83340,43.6939819,-114.3654259
330,Topaz Street,83340,43.6737722,-114.3582114
900,Warm Springs Road,83340,43.6842084,-114.3686225
221,Northwood Way,83340,43.6896280,-114.3692931
315,Skiway Drive,83340,43.6864510,-114.4002553
202,Picabo Street,83340,43.6845557,-114.4022602
571,Onyx Drive,83340,43.6801868,-114.3587956
405,Broadway Boulevard,83340,43.6848613,-114.3751397
202,Picabo Street,83340,43.6843719,-114.4027384
119,Townhouse Lane,83340,43.6875455,-114.3803229
400,Sabala Street,83340,43.6773007,-114.3749617
229,Cedar Drive,83340,43.6886903,-114.3962083
127,River Run Drive,83340,43.6868585,-114.3763779
221,Northwood Way,83340,43.6900680,-114.3693378
215,Raven Road,83340,43.6934625,-114.3653126
423,Broadway Boulevard,83340,43.6835126,-114.3760625
220,Picabo Street,83340,43.6842455,-114.4041136
172,Bordeaux Street,83340,43.6768449,-114.3729582
127,Saddle Road,83340,43.6920768,-114.3637708
305,Andora Lane,83340,43.6774189,-114.3621947
116,Ritchie Drive,83340,43.6863277,-114.4020803
140,Bird Drive,83340,43.6746178,-114.3693953
301,Skiway Drive,83340,43.6861624,-114.4006176
101,Emerald Street,83340,43.6745773,-114.3605816
119,Picabo Street,83340,43.6837810,-114.4011647
310,Williams Street,83340,43.6781116,-114.3714909
124,Latigo Lane,83340,43.6941804,-114.3626457
191,Sun Valley Road,83340,43.6791418,-114.3671014
131,Bordeaux Street,83340,43.6758306,-114.3716750
218,Aspen Drive,83340,43.6884255,-114.3988865
214,Pinewood Lane,83340,43.6850105,-114.3710240
500,Serenade Drive,83340,43.6694534,-114.3662356
160,Leadville Avenue,83340,43.6798547,-114.3612574
327,Shady Lane,83340,43.6873683,-114.3976339
333,Main Street,83340,43.6763409,-114.3617698
291,Sun Valley Road,83340,43.6782269,-114.3679291
591,East Avenue,83340,43.6830877,-114.3649762
703,Main Street,83340,43.6732444,-114.3616321
140,Bigwood Drive,83340,43.7010591,-114.3685480
311,Andora Lane,83340,43.6772272,-114.3630121
113,Simpson Drive,83340,43.6909589,-114.3932198
671,Washington Avenue,83340,43.6819585,-114.3679207
131,Spur Lane,83340,43.6912252,-114.3622559
119,Stirrup Lane,83340,43.6899027,-114.3656290
506,Evergreen Lane,83340,43.6785957,-114.3731932
351,Leadville Avenue,83340,43.6815050,-114.3643106
200,Bigwood Drive,83340,43.7029474,-114.3676628
150,Wood River Drive,83340,43.6734431,-114.3663517
116,Sunnyside Drive,83340,43.6852650,-114.3767164
305,Andora Lane,83340,43.6772656,-114.3621646
409,Main Street,83340,43.6759746,-114.3616758
150,Flower Drive,83340,43.6908747,-114.3835662
315,Skiway Drive,83340,43.6867850,-114.3996759
151,Four Seasons Way,83340,43.6917911,-114.3845590
140,Blue Grouse Lane,83340,43.6941254,-114.3707647
221,Skiway Drive,83340,43.6869698,-114.4006160
400,Onyx Drive,83340,43.6786320,-114.3593392
203,Sabala Street,83340,43.6776698,-114.3717730
591,River Street,83340,43.6810800,-114.3600637
3120,Warm Springs Road,83340,43.6856469,-114.4043404
1908,Warm Springs Road,83340,43.6913216,-114.3850799
465,Wood River Drive,83340,43.6743843,-114.3695472
101,Emerald Street,83340,43.6749111,-114.3605580
101,Four Seasons Way,83340,43.6909629,-114.3839857
510,Evergreen Lane,83340,43.6788779,-114.3731968
333,Main Street,83340,43.6767280,-114.3616996
104,Jane Lane,83340,43.6853715,-114.4030811
1026,Main Street,83340,43.6872701,-114.3665875
500,Washington Avenue,83340,43.6813923,-114.3665017
409,Main Street,83340,43.6758965,-114.3622507
220,Picabo Street,83340,43.6847490,-114.4039712
128,Sage Road,83340,43.6902387,-114.4011240
309,Andora Lane,83340,43.6777737,-114.3623310
251,Northwood Way,83340,43.6903442,-114.3697223
660,Main Street,83340,43.6832362,-114.3667998
105,Sage Road,83340,43.6904570,-114.3989007
400,Wood River Drive,83340,43.6733567,-114.3683146
214,Williams Street,83340,43.6770509,-114.3715299
340,River Street,83340,43.6749121,-114.3662211
431,Canyon Run Boulevard,83340,43.6936250,-114.3778777
205,Raven Road,83340,43.6929407,-114.3652802
101,Exhibition Boulevard,83340,43.6874921,-114.3744548
240,Four Seasons Way,83340,43.6924627,-114.3844731
220,Pinewood Lane,83340,43.6846299,-114.3705677
128,Saddle Road,83340,43.6931278,-114.3631474
210,Williams Street,83340,43.6768443,-114.3716344
2107,Warm Springs Road,83340,43.6907181,-114.3894048
831,Rocking Horse Road,83340,43.6801451,-114.3735476
150,Thunder Trail,83340,43.6947768,-114.3656145
127,Saddle Road,83340,43.6923980,-114.3644363
101,Nordic Court,83340,43.6877721,-114.3965998
113,Lodge Lane,83340,43.6765465,-114.3702830
331,Leadville Avenue,83340,43.6811780,-114.3639934
225,River Run Drive,83340,43.6871648,-114.3773731
215,Raven Road,83340,43.6932775,-114.3653208
150,Wood River Drive,83340,43.6740261,-114.3667560
220,Picabo Street,83340,43.6848032,-114.4038047
139,Bird Drive,83340,43.6746847,-114.3685359
110,Sawtooth Lane,83340,43.6974381,-114.3670539
331,Leadville Avenue,83340,43.6813608,-114.3639350
150,Wood River Drive,83340,43.6733365,-114.3664106
305,Andora Lane,83340,43.6777335,-114.3620104
200,Crystal Court,83340,43.6786749,-114.3588865
475,Wood River Drive,83340,43.6751645,-114.3700390
191,Emerald Street,83340,43.6746344,-114.3588281
240,Leadville Avenue,83340,43.6810298,-114.3628147
680,Leadville Avenue,83340,43.6833764,-114.3660052
411,Main Street,83340,43.6811814,-114.3654645
108,Buss Elle Road,83340,43.6788823,-114.3727468
125,Howard Drive,83340,43.6845018,-114.4030770
675,Sun Valley Road,83340,43.6836283,-114.3611967
300,Main Street,83340,43.6809293,-114.3641650
221,Northwood Way,83340,43.6899331,-114.3693149
106,River Run Drive,83340,43.6882031,-114.3758547
235,Spur Lane,83340,43.6910898,-114.3642020
127,Saddle Road,83340,43.6924474,-114.3637115
315,Skiway Drive,83340,43.6873648,-114.4002326
431,Northwood Way,83340,43.6929825,-114.3728323
112,Sunnyside Drive,83340,43.6852635,-114.3764331
300,Wood River Drive,83340,43.6735625,-114.3678166
225,Raven Road,83340,43.6937081,-114.3650872
104,Jane Lane,83340,43.6854543,-114.4030656
103,Hillside Drive,83340,43.6909507,-114.3928016
206,Pine Drive,83340,43.6883338,-114.3970552
235,Spur Lane,83340,43.6897947,-114.3639055
119,Picabo Street,83340,43.6837912,-114.4011317
511,Leadville Avenue,83340,43.6823108,-114.3653853
201,Aspen Drive,83340,43.6890850,-114.3977069
414,Bald Mountain Road,83340,43.6902125,-114.3926572
260,Lloyd Court,83340,43.6841026,-114.4060009
100,Northwood Way,83340,43.6888095,-114.3699846
340,River Ridge Lane,83340,43.6760918,-114.3681104
402,Evergreen Lane,83340,43.6784605,-114.3714888
109,Georginia Road,83340,43.6899457,-114.3974985
603,Main Street,83340,43.6740620,-114.3615204
520,Leadville Avenue,83340,43.6827915,-114.3652498
1519,Warm Springs Road,83340,43.6892104,-114.3807688
280,Main Street,83340,43.6780338,-114.3610406
235,Spur Lane,83340,43.6907445,-114.3641807
223,Cedar Drive,83340,43.6884157,-114.3962086
200,Williams Street,83340,43.6763194,-114.3714422
495,Bigwood Drive,83340,43.7062503,-114.3693905
203,Sabala Street,83340,43.6776652,-114.3714839
146,Belmont Drive,83340,43.6916647,-114.3880582
121,Spur Lane,83340,43.6916196,-114.3621726
220,Lewis Street,83340,43.6872523,-114.3697409
110,Frenchmans Court,83340,43.6776970,-114.3704571
211,River Street,83340,43.6769490,-114.3652019
215,Picabo Street,83340,43.6837448,-114.4034612
119,Williams Street,83340,43.6758006,-114.3709628
202,Bird Drive,83340,43.6763677,-114.3699142
485,Clubhouse Drive,83340,43.6953583,-114.3656234
231,Hillside Drive,83340,43.6934124,-114.3898279
12710,State Highway 75,83340,43.6638404,-114.3551707
2206,Warm Springs Road,83340,43.6911267,-114.3905851
206,Bird Drive,83340,43.6767996,-114.3703468
340,River Street,83340,43.6751232,-114.3655321
150,Wood River Drive,83340,43.6737599,-114.3664384
326,Bald Mountain Road,83340,43.6907785,-114.3905291
270,Northwood Way,83340,43.6914268,-114.3686157
130,Latigo Lane,83340,43.6943991,-114.3632423
109,Exhibition Boulevard,83340,43.6873077,-114.3746802
201,Williams Street,83340,43.6763823,-114.3710106
231,Walnut Avenue,83340,43.6821121,-114.3613050
410,Evergreen Lane,83340,43.6781415,-114.3721725
218,Skiway Drive,83340,43.6863342,-114.4013689
119,Williams Street,83340,43.6756958,-114.3709785
328,Georginia Road,83340,43.6877641,-114.4006790
145,Graduate Drive,83340,43.6941512,-114.3700635
297,Wood River Drive,83340,43.6739494,-114.3679520
321,Leadville Avenue,83340,43.6781840,-114.3606541
524,Wood River Drive,83340,43.6743387,-114.3720535
227,Pinewood Lane,83340,43.6845651,-114.3720079
1523,Warm Springs Road,83340,43.6896354,-114.3809586
320,Lewis Street,83340,43.6877527,-114.3693431
191,River Street,83340,43.6773222,-114.3646479
690,Spruce Avenue,83340,43.6863106,-114.3624442
491,Main Street,83340,43.6812835,-114.3657674
309,Andora Lane,83340,43.6777700,-114.3626246
333,Main Street,83340,43.6762482,-114.3617469
160,Flower Drive,83340,43.6911389,-114.3834724
210,Bald Mountain Road,83340,43.6907639,-114.3855501
213,Bird Drive,83340,43.6767448,-114.3692115
130,Saddle Road,83340,43.6931230,-114.3626584
219,Sage Road,83340,43.6886551,-114.4016152
191,River Street,83340,43.6773416,-114.3647404
12730,State Highway 75,83340,43.6659087,-114.3554288
115,Buss Elle Road,83340,43.6793797,-114.3738337
508,Evergreen Lane,83340,43.6787238,-114.3731952
550,Northwood Way,83340,43.6954399,-114.3716242
116,Ritchie Drive,83340,43.6862172,-114.4026039
245,Skiway Drive,83340,43.6860168,-114.4007930
560,Onyx Drive,83340,43.6801368,-114.3583899
103,Picabo Street Lane,83340,43.6844731,-114.4008018
113,Corrock Drive,83340,43.6868237,-114.3756282
215,Bird Drive,83340,43.6769929,-114.3693871
175,Stoneridge Road,83340,43.7020733,-114.3657394
605,Main Street,83340,43.6737589,-114.3614938
120,Short Swing Lane,83340,43.6916544,-114.3854020
101,Emerald Street,83340,43.6748100,-114.3608620
323,Lewis Street,83340,43.6879342,-114.3707009
1130,Canyon Run Boulevard,83340,43.6918749,-114.3806545
491,Main Street,83340,43.6813236,-114.3657614
111,Townhouse Lane,83340,43.6887663,-114.3810971
265,Hillside Drive,83340,43.6928290,-114.3865635
430,Broadway Boulevard,83340,43.6846070,-114.3766892
230,Graduate Drive,83340,43.6953709,-114.3692983
231,Pinewood Lane,83340,43.6843733,-114.3713768
331,Lewis Street,83340,43.6882269,-114.3706765
251,Northwood Way,83340,43.6905502,-114.3694735
125,Howard Drive,83340,43.6846469,-114.4029873
215,Skiway Drive,83340,43.6871832,-114.4008168
351,Leadville Avenue,83340,43.6814940,-114.3642808
101,Emerald Street,83340,43.6747712,-114.3605548
340,River Street,83340,43.6750738,-114.3664396
221,Bald Mountain Road,83340,43.6904544,-114.3868043
318,Broadway Boulevard,83340,43.6854585,-114.3756517
505,Broadway Boulevard,83340,43.6851117,-114.3778590
221,Picabo Street,83340,43.6833304,-114.4033284
210,Skiway Drive,83340,43.6871934,-114.4016263
119,Townhouse Lane,83340,43.6876936,-114.3804007
601,Main Street,83340,43.6742863,-114.3615232
351,Leadville Avenue,83340,43.6813460,-114.3641592
114,Lewis Street,83340,43.6861929,-114.3689639
231,Northwood Way,83340,43.6898346,-114.3697470
216,Aspen Drive,83340,43.6886350,-114.3986744
323,Lewis Street,83340,43.6880034,-114.3707043
660,Bell Drive,83340,43.6872071,-114.3692510
201,Picabo Street,83340,43.6837551,-114.4020292
760,Washington Avenue,83340,43.6827521,-114.3682339
225,Raven Road,83340,43.6937442,-114.3651548
200,Main Street,83340,43.6803829,-114.3634215
231,Pinewood Lane,83340,43.6843061,-114.3713419
190,Bigwood Drive,83340,43.7027373,-114.3679774
418,River Run Drive,83340,43.6885846,-114.3791932
121,Sun Valley Road,83340,43.6794364,-114.3662418
529,Broadway Court,83340,43.6867461,-114.3786391
300,Wood River Drive,83340,43.6731104,-114.3673159
370,Eagles Wing Drive,83340,43.6848052,-114.4001030
120,Flower Drive,83340,43.6909877,-114.3826790
315,Skiway Drive,83340,43.6874141,-114.4000532
112,Adams Rib Lane,83340,43.7016072,-114.3711116
100,Emerald Street,83340,43.6742990,-114.3607133
111,Main Street,83340,43.6795436,-114.3631979
524,Wood River Drive,83340,43.6741458,-114.3717812
221,Washington Avenue,83340,43.6795410,-114.3646239
280,Leadville Avenue,83340,43.6792613,-114.3603429
1908,Warm Springs Road,83340,43.6912237,-114.3851301
228,Aspen Drive,83340,43.6878452,-114.3974464
420,Wood River Drive,83340,43.6733556,-114.3687087
251,Northwood Way,83340,43.6905120,-114.3700054
605,Main Street,83340,43.6737561,-114.3615272
166,Bordeaux Street,83340,43.6763304,-114.3727481
200,Centennial Lane,83340,43.6766764,-114.3623187
111,Hillside Drive,83340,43.6915894,-114.3927444
270,Cottonwood Street,83340,43.6747678,-114.3632828
151,Bird Drive,83340,43.6756997,-114.3691585
107,Fir Drive,83340,43.6887519,-114.3971027
231,Main Street,83340,43.6800614,-114.3639428
116,Ritchie Drive,83340,43.6862860,-114.4025205
309,Sabala Street,83340,43.6777591,-114.3732159
110,Lindsay Circle,83340,43.6912091,-114.3705803
312,Canyon Run Boulevard,83340,43.6912795,-114.3752231
320,Garnet Street,83340,43.6742722,-114.3565544
160,Sun Valley Road,83340,43.6797611,-114.3651580
1908,Warm Springs Road,83340,43.6912810,-114.3847955
12732,State Highway 75,83340,43.6657361,-114.3558449
315,Skiway Drive,83340,43.6873993,-114.4001404
675,Sun Valley Road,83340,43.6834505,-114.3610587
225,Raven Road,83340,43.6937592,-114.3654289
202,Picabo Street,83340,43.6842308,-114.4029223
119,Picabo Street,83340,43.6840916,-114.4015008
112,Lodge Lane,83340,43.6765069,-114.3706670
315,Skiway Drive,83340,43.6871812,-114.3996210
202,Picabo Street,83340,43.6843361,-114.4028650
108,Turf Lane,83340,43.6913677,-114.3909786
333,Main Street,83340,43.6764267,-114.3618006
105,Lewis Street,83340,43.6860533,-114.3702376
409,Sage Road,83340,43.6866044,-114.4038110
110,Sheep Meadow Lane,83340,43.6964673,-114.3719747
135,Simpson Drive,83340,43.6909774,-114.3938613
330,Eagles Wing Drive,83340,43.6851445,-114.4004723
318,Bald Mountain Road,83340,43.6904829,-114.3896029
333,Main Street,83340,43.6764277,-114.3617186
305,Andora Lane,83340,43.6777335,-114.3619384
206,Wild Rose Circle,83340,43.6781393,-114.3755927
1007,Warm Springs Road,83340,43.6843705,-114.3700693
631,Washington Avenue,83340,43.6816624,-114.3677505
291,Sun Valley Road,83340,43.6784760,-114.3683114
333,Main Street,83340,43.6766360,-114.3617549
320,Main Street,83340,43.6810074,-114.3642713
511,Walnut Avenue,83340,43.6837015,-114.3634620
1908,Warm Springs Road,83340,43.6914771,-114.3850544
119,Williams Street,83340,43.6756671,-114.3706157
120,Griffin Court,83340,43.7044650,-114.3662536
119,Picabo Street,83340,43.6842739,-114.4014833
410,Sabala Street,83340,43.6771940,-114.3757207
420,Spruce Avenue,83340,43.6843084,-114.3611955
120,Dollar Drive,83340,43.6902132,-114.3769805
200,Canyon Run Boulevard,83340,43.6886783,-114.3754731
104,Badger Lane,83340,43.6793829,-114.3744716
114,Lewis Street,83340,43.6862003,-114.3688451
131,Four Seasons Way,83340,43.6916150,-114.3839139
209,Parkway Drive,83340,43.6857617,-114.3728313
104,Short Swing Lane,83340,43.6912231,-114.3860377
226,Hillside Drive,83340,43.6924007,-114.3897198
2211,Warm Springs Road,83340,43.6906812,-114.3911877
127,Short Swing Lane,83340,43.6921722,-114.3858278
291,Sun Valley Road,83340,43.6785833,-114.3681796
120,Ritchie Drive,83340,43.6856472,-114.4025272
130,Bordeaux Street,83340,43.6756127,-114.3721310
361,Leadville Avenue,83340,43.6781413,-114.3602721
700,Leadville Avenue,83340,43.6839133,-114.3665725
301,Sabala Street,83340,43.6777565,-114.3729326
700,Leadville Avenue,83340,43.6839627,-114.3667987
110,Wood River Drive,83340,43.6743910,-114.3662912
122,Pinewood Lane,83340,43.6850784,-114.3713634
101,Rember Street,83340,43.6763711,-114.3701178
148,Bird Drive,83340,43.6751434,-114.3695258
425,River Run Drive,83340,43.6888539,-114.3801837
321,Georginia Road,83340,43.6878337,-114.3996322
212,Glade Court,83340,43.6642826,-114.3545120
1908,Warm Springs Road,83340,43.6911783,-114.3847809
460,Main Street,83340,43.6817439,-114.3652737
221,Washington Avenue,83340,43.6795701,-114.3648332
206,Fox Run Road,83340,43.6960737,-114.3638562
411,Leadville Avenue,83340,43.6817605,-114.3646590
413,Broadway Boulevard,83340,43.6842486,-114.3750297
105,Howard Drive,83340,43.6850599,-114.4017016
480,Spruce Avenue,83340,43.6844932,-114.3616286
126,Bird Drive,83340,43.6737802,-114.3688500
2107,Warm Springs Road,83340,43.6907134,-114.3895488
231,Bald Mountain Road,83340,43.6905207,-114.3873414
429,Broadway Boulevard,83340,43.6841642,-114.3767221
209,Sage Road,83340,43.6890665,-114.4011209
309,Sage Road,83340,43.6876465,-114.4026962
225,River Ridge Lane,83340,43.6758565,-114.3677580
408,Bald Mountain Road,83340,43.6904041,-114.3921402
105,Holliday Lane,83340,43.6862640,-114.3762294
350,Bigwood Drive,83340,43.7042723,-114.3675214
2004,Warm Springs Road,83340,43.6913317,-114.3875463
237,Pinewood Lane,83340,43.6838956,-114.3711339
390,Wood River Drive,83340,43.6730944,-114.3683010
225,Pinewood Lane,83340,43.6846269,-114.3717282
105,Lewis Street,83340,43.6860260,-114.3702675
115,Howard Drive,83340,43.6846814,-114.4026096
150,Bird Drive,83340,43.6756541,-114.3703360
471,Onyx Drive,83340,43.6794625,-114.3597698
202,Picabo Street,83340,43.6843996,-114.4026564
110,Ritchie Drive,83340,43.6865463,-114.4019515
3001,Warm Springs Road,83340,43.6875396,-114.4015546
222,Pinewood Lane,83340,43.6845625,-114.3707500
300,Wood River Drive,83340,43.6731816,-114.3678298
110,Lindsay Circle,83340,43.6904627,-114.3704232
340,Leadville Avenue,83340,43.6779241,-114.3596483
526,Wood River Drive,83340,43.6742042,-114.3724386
134,Latigo Lane,83340,43.6946723,-114.3634362
105,Short Swing Lane,83340,43.6916921,-114.3858736
298,Northwood Way,83340,43.6919751,-114.3700751
210,Aspen Drive,83340,43.6891350,-114.3982607
215,Raven Road,83340,43.6933918,-114.3651782
2005,Warm Springs Road,83340,43.6908762,-114.3878580
1908,Warm Springs Road,83340,43.6913801,-114.3850784
231,Northwood Way,83340,43.6896158,-114.3697386
120,Flower Drive,83340,43.6909324,-114.3824905
201,Jade Street,83340,43.6751790,-114.3602903
131,Four Seasons Way,83340,43.6916179,-114.3837636
620,Crossbuck Lane,83340,43.6802679,-114.3698984
911,Warm Springs Road,83340,43.6838083,-114.3694936
202,Picabo Street,83340,43.6843443,-114.4028204
671,Washington Avenue,83340,43.6819759,-114.3679338
100,Park Circle,83340,43.6901141,-114.3733107
260,Leadville Avenue,83340,43.6811371,-114.3629600
171,Leadville Avenue,83340,43.6802824,-114.3626474
117,River Run Drive,83340,43.6872953,-114.3758501
2712,Warm Springs Road,83340,43.6896681,-114.3998274
605,Main Street,83340,43.6738493,-114.3614860
159,Belmont Drive,83340,43.6921888,-114.3872646
511,Onyx Drive,83340,43.6798940,-114.3594968
310,Main Street,83340,43.6767419,-114.3607410
491,Main Street,83340,43.6813439,-114.3657116
1908,Warm Springs Road,83340,43.6910179,-114.3844153
130,Red Fox Lane,83340,43.6907328,-114.3713744
305,Sage Road,83340,43.6878618,-114.4024662
226,River Run Drive,83340,43.6877186,-114.3777692
222,Pinewood Lane,83340,43.6844936,-114.3707217
235,Spur Lane,83340,43.6902618,-114.3640483
256,Hillside Drive,83340,43.6924882,-114.3874654
1317,Warm Springs Road,83340,43.6887352,-114.3782427
140,River Street,83340,43.6773691,-114.3638662
101,Emerald Street,83340,43.6746747,-114.3605838
124,Sage Road,83340,43.6903918,-114.4006972
204,Lava Street,83340,43.6783622,-114.3590087
160,Leadville Avenue,83340,43.6798140,-114.3612014
110,Lewis Street,83340,43.6861563,-114.3695687
481,Bell Drive,83340,43.6873053,-114.3686283
291,Leadville Avenue,83340,43.6789506,-114.3607700
207,Williams Street,83340,43.6768085,-114.3708191
200,Washington Avenue,83340,43.6798328,-114.3642693
503,Main Street,83340,43.6745013,-114.3615517
119,Picabo Street,83340,43.6840794,-114.4010764
100,Thunder Trail,83340,43.6934787,-114.3657431
105,Latigo Lane,83340,43.6934087,-114.3621549
331,Leadville Avenue,83340,43.6812885,-114.3638752
128,Short Swing Lane,83340,43.6923210,-114.3852555
228,River Run Drive,83340,43.6878954,-114.3775738
291,Sun Valley Road,83340,43.6783562,-114.3683455
340,River Street,83340,43.6749607,-114.3662841
321,Leadville Avenue,83340,43.6783481,-114.3608592
110,Lindsay Circle,83340,43.6906371,-114.3705907
224,River Run Drive,83340,43.6877728,-114.3769305
920,Leadville Avenue,83340,43.6848549,-114.3680152
121,Belmont Drive,83340,43.6920288,-114.3897316
675,Sun Valley Road,83340,43.6833999,-114.3611587
880,Walnut Avenue,83340,43.6860081,-114.3655780
380,Washington Avenue,83340,43.6805642,-114.3652631
300,Wood River Drive,83340,43.6734145,-114.3677269
202,Picabo Street,83340,43.6846004,-114.4021410
500,Washington Avenue,83340,43.6813419,-114.3665172
119,Picabo Street,83340,43.6841280,-114.4014731
202,Picabo Street,83340,43.6845369,-114.4022968
400,River Street,83340,43.6794515,-114.3608302
151,Belmont Drive,83340,43.6921540,-114.3879886
2922,Warm Springs Road,83340,43.6881972,-114.4015812
176,Bordeaux Street,83340,43.6772042,-114.3732741
200,Graduate Drive,83340,43.6948402,-114.3691563
331,Leadville Avenue,83340,43.6811020,-114.3638603
471,Leadville Avenue,83340,43.6819215,-114.3648781
430,Clubhouse Drive,83340,43.6967143,-114.3669209
203,Garnet Street,83340,43.6735814,-114.3591191
315,Skiway Drive,83340,43.6870518,-114.3997203
150,Stoneridge Road,83340,43.7016237,-114.3665980
215,Picabo Street,83340,43.6837760,-114.4034262
130,Bear Lane,83340,43.6813840,-114.3751514
235,Spur Lane,83340,43.6900072,-114.3641614
160,Bigwood Drive,83340,43.7015709,-114.3685263
251,Edelweiss Avenue,83340,43.6770366,-114.3686794
602,Wood River Drive,83340,43.6777090,-114.3745066
425,Clubhouse Drive,83340,43.6962846,-114.3660827
202,Picabo Street,83340,43.6843637,-114.4027830
140,Flower Drive,83340,43.6910807,-114.3828524
321,Georginia Road,83340,43.6877249,-114.3998647
333,Main Street,83340,43.6763574,-114.3617689
131,River Glen Lane,83340,43.6645203,-114.3566326
2107,Warm Springs Road,83340,43.6908301,-114.3887437
305,Andora Lane,83340,43.6777335,-114.3618666
221,Canyon Run Boulevard,83340,43.6905527,-114.3762982
119,Turf Lane,83340,43.6917884,-114.3915186
110,Lindsay Circle,83340,43.6904730,-114.3705127
333,Main Street,83340,43.6762974,-114.3617223
780,Main Street,83340,43.6836596,-114.3669002
216,Pinewood Lane,83340,43.6848851,-114.3706518
645,Sun Valley Road,83340,43.6830518,-114.3616983
225,Picabo Street Lane,83340,43.6834243,-114.4041531
140,River Rock Road,83340,43.7060697,-114.3730924
235,Pinewood Lane,83340,43.6840518,-114.3712181
405,Bald Mountain Road,83340,43.6900729,-114.3919666
112,Short Swing Lane,83340,43.6911604,-114.3855155
1523,Warm Springs Road,83340,43.6897041,-114.3809403
315,Skiway Drive,83340,43.6870577,-114.3996339
680,Sun Valley Road,83340,43.6829827,-114.3605209
315,Skiway Drive,83340,43.6865740,-114.3996515
215,River Ridge Lane,83340,43.6756295,-114.3676102
305,Andora Lane,83340,43.6777313,-114.3620818
119,Picabo Street,83340,43.6838605,-114.4016045
360,East Avenue,83340,43.6822808,-114.3629195
113,Holliday Lane,83340,43.6859733,-114.3764403
120,Sunnyside Drive,83340,43.6852666,-114.3770005
109,Buss Elle Road,83340,43.6792955,-114.3732124
105,River Run Court,83340,43.6871181,-114.3789524
251,Northwood Way,83340,43.6903445,-114.3698427
315,Skiway Drive,83340,43.6862110,-114.3996384
191,Bird Drive,83340,43.6763115,-114.3695333
203,Broadway Boulevard,83340,43.6870501,-114.3737620
391,Northwood Way,83340,43.6919995,-114.3714259
225,Raven Road,83340,43.6937583,-114.3653023
111,Huffman Drive,83340,43.6908607,-114.3965540
1900,Warm Springs Road,83340,43.6912751,-114.3844921
414,Sage Road,83340,43.6862814,-114.4046780
109,Latigo Lane,83340,43.6933931,-114.3625572
645,Sun Valley Road,83340,43.6832584,-114.3616932
300,Georginia Road,83340,43.6887026,-114.4001104
204,Georginia Road,83340,43.6895533,-114.3988316
261,Hillside Drive,83340,43.6929274,-114.3868868
300,Huffman Drive,83340,43.6915740,-114.3950587
124,Stirrup Lane,83340,43.6893673,-114.3665729
110,Lindsay Circle,83340,43.6908138,-114.3705275
105,Boulder View Lane,83340,43.6973324,-114.3700291
118,Irene Street,83340,43.6891948,-114.3926145
680,Washington Avenue,83340,43.6822319,-114.3675272
445,Broadway Boulevard,83340,43.6847104,-114.3774942
440,Clubhouse Drive,83340,43.6962220,-114.3669342
127,Irene Street,83340,43.6897614,-114.3919610
160,Leadville Avenue,83340,43.6799561,-114.3613610
1167,Warm Springs Road,83340,43.6861983,-114.3719632
104,Hillside Drive,83340,43.6911087,-114.3921527
105,Lewis Street,83340,43.6861895,-114.3702453
305,Williams Street,83340,43.6778295,-114.3709295
151,Four Seasons Way,83340,43.6917833,-114.3844919
125,Picabo Street,83340,43.6832936,-114.4007525
145,Bird Drive,83340,43.6754149,-114.3687964
340,River Street,83340,43.6757109,-114.3655798
107,Townhouse Lane,83340,43.6889156,-114.3809382
335,Bigwood Drive,83340,43.7042004,-114.3659386
520,Leadville Avenue,83340,43.6828693,-114.3653770
2005,Warm Springs Road,83340,43.6908708,-114.3878442
101,Williams Street,83340,43.6751496,-114.3706102
145,Northwood Way,83340,43.6892761,-114.3693235
220,Pinewood Lane,83340,43.6846381,-114.3706573
120,Short Swing Lane,83340,43.6917714,-114.3853738
121,Red Fox Lane,83340,43.6901623,-114.3719720
319,Parkway Drive,83340,43.6836878,-114.3739954
410,Broadway Boulevard,83340,43.6845735,-114.3758042
171 1/2,Leadville Avenue,83340,43.6801634,-114.3627788
1207,Warm Springs Road,83340,43.6876161,-114.3742059
333,Main Street,83340,43.6765175,-114.3616791
204,Bird Drive,83340,43.6766394,-114.3700164
231,Cedar Drive,83340,43.6889650,-114.3962080
123,Saddle Road,83340,43.6922160,-114.3652131
170,Lindsay Circle,83340,43.6898344,-114.3705729
631,Washington Avenue,83340,43.6817980,-114.3676136
100,Leadville Avenue,83340,43.6800895,-114.3615249
231,Northwood Way,83340,43.6894782,-114.3697372
142,Irene Street,83340,43.6894347,-114.3908357
202,Picabo Street,83340,43.6843029,-114.4027192
221,Washington Avenue,83340,43.6796837,-114.3650073
271,Edelweiss Avenue,83340,43.6772367,-114.3687449
135,River Ridge Lane,83340,43.6751933,-114.3673728
214,Pinewood Lane,83340,43.6849674,-114.3709004
340,Lewis Street,83340,43.6884323,-114.3697494
229,Penny Drive,83340,43.6907699,-114.3779405
239,Lloyd Court,83340,43.6833657,-114.4067080
211,Sun Valley Road,83340,43.6802840,-114.3650820
205,Garnet Street,83340,43.6736713,-114.3587293
111,Badger Lane,83340,43.6799922,-114.3751563
315,Skiway Drive,83340,43.6873597,-114.3996336
320,Sage Road,83340,43.6874412,-114.4036185
131,Red Fox Lane,83340,43.6905771,-114.3720707
127,Saddle Road,83340,43.6918662,-114.3646859
1919,Warm Springs Road,83340,43.6908214,-114.3865848
100,Pinewood Lane,83340,43.6855537,-114.3713980
101,River Rock Road,83340,43.7039141,-114.3718713
231,East Avenue,83340,43.6812611,-114.3624920
920,Rocking Horse Road,83340,43.6811072,-114.3730972
2813,Warm Springs Road,83340,43.6890372,-114.3998941
340,River Street,83340,43.6752587,-114.3657078
480,Onyx Drive,83340,43.6794302,-114.3591089
221,Picabo Street,83340,43.6833551,-114.4036678
223,Skiway Drive,83340,43.6869754,-114.4008245
110,Wood River Drive,83340,43.6744037,-114.3666768
341,Lewis Street,83340,43.6887138,-114.3706512
136,Belmont Drive,83340,43.6916389,-114.3883974
791,Washington Avenue,83340,43.6825513,-114.3688107
1900,Warm Springs Road,83340,43.6911797,-114.3843770
120,River Ridge Lane,83340,43.6744745,-114.3672376
210,River Ridge Lane,83340,43.6752241,-114.3677002
125,Howard Drive,83340,43.6845087,-114.4032300
105,Fir Drive,83340,43.6890452,-114.3971512
501,Broadway Boulevard,83340,43.6849397,-114.3776959
251,Hillside Drive,83340,43.6929543,-114.3878505
139,Bird Drive,83340,43.6749436,-114.3685635
2001,Warm Springs Road,83340,43.6908749,-114.3872022
166;162,Valleywood Drive,83340,43.6937693,-114.3632089
119,Williams Street,83340,43.6760538,-114.3709628
117,Sunnyside Drive,83340,43.6848359,-114.3769047
271,Leadville Avenue,83340,43.6808288,-114.3633909
311,Andora Lane,83340,43.6771332,-114.3625000
133,Saddle Road,83340,43.6923952,-114.3626864
130,Irene Street,83340,43.6892804,-114.3917404
119,Picabo Street,83340,43.6837569,-114.4009672
171,Valleywood Drive,83340,43.6947280,-114.3642268
151,Main Street,83340,43.6789913,-114.3623848
117,Corrock Drive,83340,43.6864030,-114.3759505
333,Main Street,83340,43.6762345,-114.3617899
321,Leadville Avenue,83340,43.6786453,-114.3606585
815,Rocking Horse Road,83340,43.6798067,-114.3735210
220,Raven Road,83340,43.6935609,-114.3647604
202,Picabo Street,83340,43.6844272,-114.4025744
1950,Warm Springs Road,83340,43.6913409,-114.3868728
159,Dollar Drive,83340,43.6895264,-114.3784206
297,Wood River Drive,83340,43.6740592,-114.3680253
119,Townhouse Lane,83340,43.6877055,-114.3804370
403,Evergreen Lane,83340,43.6786076,-114.3719232
226,Pinewood Lane,83340,43.6841401,-114.3705542
231,Picabo Street,83340,43.6834158,-114.4053456
226,Aspen Drive,83340,43.6876842,-114.3976381
115,Stirrup Lane,83340,43.6902730,-114.3655820
211,Edelweiss Avenue,83340,43.6766121,-114.3684673
271,Sun Valley Road,83340,43.6804822,-114.3647193
108,Ritchie Drive,83340,43.6868112,-114.4017221
102,Adams Rib Lane,83340,43.7033884,-114.3721773
108,Pinewood Lane,83340,43.6855320,-114.3716036
511,Leadville Avenue,83340,43.6823665,-114.3653114
320,Georginia Road,83340,43.6879706,-114.4004266
3015,Warm Springs Road,83340,43.6869552,-114.4021163
991,Rocking Horse Road,83340,43.6815772,-114.3734804
300,Centennial Lane,83340,43.6764293,-114.3624137
440,East Avenue,83340,43.6828805,-114.3633274
101,Four Seasons Way,83340,43.6910193,-114.3841269
235,Spur Lane,83340,43.6902593,-114.3640471
150,Wood River Drive,83340,43.6740511,-114.3664009
108,Park Circle West,83340,43.6892056,-114.3731310
235,Spur Lane,83340,43.6899686,-114.3634903
675,Sun Valley Road,83340,43.6836533,-114.3612193
216,Pinewood Lane,83340,43.6848623,-114.3707816
206,Williams Street,83340,43.6766227,-114.3713786
100,Dollar Drive,83340,43.6899465,-114.3762988
371,Edelweiss Avenue,83340,43.6781760,-114.3688955
711,Washington Avenue,83340,43.6822289,-114.3683727
125,Picabo Street,83340,43.6833178,-114.4007035
307,Williams Street,83340,43.6779816,-114.3709277
315,Skiway Drive,83340,43.6864917,-114.3997171
1240,Canyon Run Boulevard,83340,43.6903788,-114.3805503
116,Sage Road,83340,43.6906617,-114.3998962
102,Irene Street,83340,43.6901826,-114.3935245
600,East Avenue,83340,43.6837411,-114.3649088
333,Main Street,83340,43.6765265,-114.3617663
101,Emerald Street,83340,43.6748966,-114.3608641
241,Lloyd Court,83340,43.6833530,-114.4070124
319,Sage Road,83340,43.6871588,-114.4032118
170;174,Valleywood Drive,83340,43.6939722,-114.3633303
110,Neils Way,83340,43.6657625,-114.3571557
12704,State Highway 75,83340,43.6632423,-114.3541514
311,Edelweiss Avenue,83340,43.6776376,-114.3688724
426,Broadway Boulevard,83340,43.6845462,-114.3763816
208,Georginia Road,83340,43.6894276,-114.3990419
135,Bird Drive,83340,43.6746958,-114.3688869
671,Alpine Lane,83340,43.6840717,-114.3651194
333,Main Street,83340,43.6766081,-114.3617744
210,River Ridge Lane,83340,43.6753533,-114.3677630
226,Aspen Drive,83340,43.6876607,-114.3977166
111,Neils Way,83340,43.6660419,-114.3566865
225,Raven Road,83340,43.6939647,-114.3654010
220,Spur Lane,83340,43.6915662,-114.3629907
297,Wood River Drive,83340,43.6740043,-114.3679887
680,Sun Valley Road,83340,43.6829184,-114.3604564
394,Sage Road,83340,43.6880766,-114.4056862
125,Picabo Street,83340,43.6832933,-114.4007523
140,Bird Drive,83340,43.6745262,-114.3693424
401,Evergreen Lane,83340,43.6787344,-114.3718173
160,Leadville Avenue,83340,43.6798983,-114.3611219
171,Valleywood Drive,83340,43.6946789,-114.3642318
414,Bald Mountain Road,83340,43.6901903,-114.3927324
236,Hillside Drive,83340,43.6924011,-114.3889962
251,Main Street,83340,43.6801416,-114.3640528
111,Main Street,83340,43.6795647,-114.3632603
221,Northwood Way,83340,43.6899990,-114.3693259
221,Northwood Way,83340,43.6895583,-114.3692917
204,Williams Street,83340,43.6764586,-114.3718363
3027,Warm Springs Road,83340,43.6860194,-114.4030747
148,Bird Drive,83340,43.6752053,-114.3698412
301,Lewis Street,83340,43.6874106,-114.3704780
700,Leadville Avenue,83340,43.6838186,-114.3664476
141,Red Fox Lane,83340,43.6907804,-114.3722328
139,Bird Drive,83340,43.6746847,-114.3684266
471,Washington Avenue,83340,43.6808019,-114.3664355
110,Belmont Drive,83340,43.6914988,-114.3898216
101,Red Fox Lane,83340,43.6898126,-114.3721908
680,Sun Valley Road,83340,43.6830144,-114.3603224
202,Picabo Street,83340,43.6844696,-114.4022465
601,Leadville Avenue,83340,43.6774979,-114.3604119
101,Georginia Road,83340,43.6900275,-114.3967345
520,River Street,83340,43.6802100,-114.3598429
109,Buss Elle Road,83340,43.6792964,-114.3731023
112,Rember Street,83340,43.6759692,-114.3703838
233,Pinewood Lane,83340,43.6842493,-114.3716217
310,Sage Road,83340,43.6887398,-114.4046374
222,Pinewood Lane,83340,43.6844714,-114.3708197
315,River Run Drive,83340,43.6874473,-114.3791323
329,Shady Lane,83340,43.6876970,-114.3970694
1405,Warm Springs Road,83340,43.6889873,-114.3787870
601,Leadville Avenue,83340,43.6776663,-114.3602766
215,Raven Road,83340,43.6934649,-114.3651600
240,Edelweiss Avenue,83340,43.6771138,-114.3680165
315,Skiway Drive,83340,43.6862840,-114.4003074
251,Hillside Drive,83340,43.6929434,-114.3880200
491,Washington Avenue,83340,43.6809092,-114.3665812
675,Sun Valley Road,83340,43.6835587,-114.3612269
204,Ritchie Drive,83340,43.6853471,-114.4034716
100,Neils Way,83340,43.6671811,-114.3558989
511,Leadville Avenue,83340,43.6823554,-114.3655255
521,Northwood Way,83340,43.6951043,-114.3735268
225,Picabo Street Lane,83340,43.6834644,-114.4041832
120,Aspen Drive,83340,43.6895662,-114.3975843
220,Main Street,83340,43.6805076,-114.3635914
111,Frenchmans Court,83340,43.6779286,-114.3706380
361,Leadville Avenue,83340,43.6782139,-114.3603180
315,Skiway Drive,83340,43.6865976,-114.4002072
420,River Street,83340,43.6793901,-114.3602114
245,Corrock Drive,83340,43.6868932,-114.3779314
102,Sheep Meadow Lane,83340,43.6963875,-114.3697898
119,Williams Street,83340,43.6758065,-114.3706139
675,Sun Valley Road,83340,43.6835142,-114.3609571
119,Williams Street,83340,43.6757016,-114.3706002
811,Alpine Lane,83334,43.6849281,-114.3662868
202,Picabo Street,83340,43.6843050,-114.4027212
173,Exhibition Boulevard,83340,43.6860912,-114.3776371
218,Skiway Drive,83340,43.6863342,-114.4014481
333,Main Street,83340,43.6765228,-114.3618142
660,Sun Valley Road,83340,43.6826752,-114.3606965
127,Saddle Road,83340,43.6920705,-114.3649931
491,Northwood Way,83340,43.6943829,-114.3734904
491,Main Street,83340,43.6814291,-114.3658326
101,Emerald Street,83340,43.6745286,-114.3608449
101,Stirrup Lane,83340,43.6914007,-114.3659518
430,Canyon Run Boulevard,83340,43.6925363,-114.3770254
110,Lindsay Circle,83340,43.6912302,-114.3706326
239,Pinewood Lane,83340,43.6838822,-114.3707049
110,Flower Drive,83340,43.6906986,-114.3828455
121,Walnut Avenue,83340,43.6817226,-114.3606790
202,Broadway Boulevard,83340,43.6873863,-114.3742181
420,Onyx Drive,83340,43.6788556,-114.3591525
159,Exhibition Boulevard,83340,43.6855232,-114.3762537
202,Picabo Street,83340,43.6845300,-114.4021138
216,Canyon Run Boulevard,83340,43.6901893,-114.3751932
860,Walnut Avenue,83340,43.6858717,-114.3653920
160,Dollar Drive,83340,43.6903595,-114.3790022
551,Wood River Drive,83340,43.6753833,-114.3724793
100,Centennial Lane,83340,43.6768236,-114.3623254
205,Ramona Lane,83340,43.6881297,-114.3745352
260,Northwood Way,83340,43.6908436,-114.3686135
115,Lodge Lane,83340,43.6766424,-114.3702876
2917,Warm Springs Road,83340,43.6880863,-114.4007769
117,Belmont Drive,83340,43.6920169,-114.3901774
208,Buss Elle Road,83340,43.6788399,-114.3751406
675,Sun Valley Road,83340,43.6835897,-114.3610559
128,Saddle Road,83340,43.6930438,-114.3638583
207,Jade Street,83340,43.6752373,-114.3585652
2207,Warm Springs Road,83340,43.6907517,-114.3907496
132,Short Swing Lane,83340,43.6925973,-114.3851690
119,Picabo Street,83340,43.6840582,-114.4015366
108,Park Circle West,83340,43.6892056,-114.3726520
218,Skiway Drive,83340,43.6864942,-114.4012804
415,Spruce Avenue,83340,43.6838463,-114.3618067
520,Leadville Avenue,83340,43.6826320,-114.3650350
2614,Warm Springs Road,83340,43.6903186,-114.3986516
3016,Warm Springs Road,83340,43.6873081,-114.4025267
336,Lewis Street,83340,43.6885032,-114.3692705
310,Sage Road,83340,43.6886520,-114.4048500
109,Sheep Meadow Lane,83340,43.6980736,-114.3730967
351,Leadville Avenue,83340,43.6815662,-114.3642201
202,Picabo Street,83340,43.6843324,-114.4026384
202,Picabo Street,83340,43.6843085,-114.4029470
409,Main Street,83340,43.6756611,-114.3619774
200,Flower Drive,83340,43.6929559,-114.3842954
333,Main Street,83340,43.6767043,-114.3617885
206,East Avenue,83340,43.6815878,-114.3617425
215,Bigwood Drive,83340,43.7027644,-114.3657093
120,Bear Lane,83340,43.6814160,-114.3745580
150,Wood River Drive,83340,43.6739805,-114.3668618
112,Sage Road,83340,43.6907624,-114.3995479
112,Turf Lane,83340,43.6915570,-114.3909238
114,Lewis Street,83340,43.6862077,-114.3687273
301,Bell Drive,83340,43.6867866,-114.3688013
318,Bald Mountain Road,83340,43.6904816,-114.3893986
115,Ritchie Drive,83340,43.6858494,-114.4014686
309,Andora Lane,83340,43.6778020,-114.3622523
235,Raven Road,83340,43.6944393,-114.3647353
119,Picabo Street,83340,43.6842414,-114.4016200
245,Raven Road,83340,43.6947721,-114.3648473
225,Gem Street,83340,43.6765750,-114.3587196
119,Picabo Street,83340,43.6837421,-114.4014642
110,Lindsay Circle,83340,43.6907718,-114.3706276
3027,Warm Springs Road,83340,43.6860942,-114.4031022
120,Graduate Drive,83340,43.6927735,-114.3701606
401,Lewis Street,83340,43.6891242,-114.3708157
116,Howard Drive,83340,43.6851646,-114.4025851
220,Pinewood Lane,83340,43.6847404,-114.3706535
291,Main Street,83340,43.6803561,-114.3643445
206,Jade Street,83340,43.6758037,-114.3588557
113,Howard Drive,83340,43.6848017,-114.4021939
126,Bird Drive,83340,43.6740191,-114.3691703
150,Bird Drive,83340,43.6753724,-114.3700748
119,Picabo Street,83340,43.6837032,-114.4015705
130,Sawtooth Lane,83340,43.6982934,-114.3670980
675,Sun Valley Road,83340,43.6834295,-114.3608674
420,Sage Road,83340,43.6859323,-114.4047186
340,River Street,83340,43.6753516,-114.3662687
323,Lewis Street,83340,43.6879955,-114.3705040
280,Sun Valley Road,83340,43.6776658,-114.3671651
100,Meadow Circle,83340,43.6631170,-114.3557123
271,Bald Mountain Road,83340,43.6904349,-114.3878441
200,Broadway Boulevard,83340,43.6875655,-114.3740380
350,Eagles Wing Drive,83340,43.6853239,-114.3998773
202,Picabo Street,83340,43.6845687,-114.4022189
127,Saddle Road,83340,43.6919459,-114.3636957
409,Main Street,83340,43.6758915,-114.3615258
140,Northwood Way,83340,43.6888754,-114.3691450
181,Bird Drive,83340,43.6762678,-114.3692102
220,Aspen Drive,83340,43.6880120,-114.3992156
280,Sun Valley Road,83340,43.6777600,-114.3671182
110,Bordeaux Street,83340,43.6752763,-114.3718316
202,Picabo Street,83340,43.6845012,-114.4021940
105,Pinevue Lane,83340,43.6851167,-114.3721612
127,Saddle Road,83340,43.6924408,-114.3636805
312,Sage Road,83340,43.6885740,-114.4050210
601,Leadville Avenue,83340,43.6777651,-114.3603396
119,Picabo Street,83340,43.6840409,-114.4010726
116,Howard Drive,83340,43.6851943,-114.4025204
645,Sun Valley Road,83340,43.6829628,-114.3615848
315,Skiway Drive,83340,43.6867783,-114.3998614
119,Williams Street,83340,43.6757304,-114.3709632
1908,Warm Springs Road,83340,43.6910104,-114.3843578
315,Skiway Drive,83340,43.6865468,-114.3997986
560,Wood River Drive,83340,43.6754603,-114.3734355
291,Walnut Avenue,83340,43.6822010,-114.3616240
229,Pinewood Lane,83340,43.6844104,-114.3718884
220,Picabo Street,83340,43.6840541,-114.4041745
420,Sabala Street,83340,43.6774419,-114.3757825
125,Howard Drive,83340,43.6845326,-114.4033084
139,Bird Drive,83340,43.6748164,-114.3685148
333,Main Street,83340,43.6767091,-114.3616974
409,Main Street,83340,43.6755825,-114.3618732
103,River Run Court,83340,43.6870762,-114.3785201
280,Sun Valley Road,83340,43.6779797,-114.3676906
500,Washington Avenue,83340,43.6814879,-114.3664214
170,Graduate Drive,83340,43.6938733,-114.3689201
119,Picabo Street,83340,43.6842604,-114.4016513
340,River Street,83340,43.6750539,-114.3654292
2107,Warm Springs Road,83340,43.6907996,-114.3888097
511,East Avenue,83340,43.6827927,-114.3645754
515,Wood River Drive,83340,43.6748264,-114.3720561
333,Bald Mountain Road,83340,43.6902663,-114.3911401
308,Sage Road,83340,43.6882078,-114.4032976
101,Williams Street,83340,43.6750060,-114.3706281
215,Lewis Street,83340,43.6869750,-114.3704270
123,Exhibition Boulevard,83340,43.6869366,-114.3749256
280,Sun Valley Road,83340,43.6778961,-114.3677802
200,River Street,83340,43.6766310,-114.3647710
460,Spruce Avenue,83340,43.6844460,-114.3614143
311,Andora Lane,83340,43.6776012,-114.3628469
315,Skiway Drive,83340,43.6859072,-114.4006115
111,Townhouse Lane,83340,43.6887189,-114.3810977
421,Broadway Boulevard,83340,43.6841547,-114.3762583
333,Main Street,83340,43.6766220,-114.3618165
139,Bird Drive,83340,43.6750063,-114.3685995
127,Saddle Road,83340,43.6914449,-114.3641591
113,Townhouse Lane,83340,43.6884495,-114.3806623
230,Cedar Drive,83340,43.6888602,-114.3967617
120,East Avenue,83340,43.6811502,-114.3611442
107,Buss Elle Road,83340,43.6792611,-114.3729081
215,Picabo Street,83340,43.6837793,-114.4034637
250,Spur Lane,83340,43.6904907,-114.3630696
122,Latigo Lane,83340,43.6941445,-114.3625579
200,Centennial Lane,83340,43.6766107,-114.3623524
225,Raven Road,83340,43.6939367,-114.3651452
210,Huffman Drive,83340,43.6915287,-114.3956992
110,Wood River Drive,83340,43.6748028,-114.3664903
113,Spring Lane,83340,43.7004052,-114.3721192
360,East Avenue,83340,43.6823831,-114.3627415
235,Spur Lane,83340,43.6899757,-114.3634951
3018,Warm Springs Road,83340,43.6870396,-114.4028382
706,Leadville Avenue,83340,43.6758355,-114.3599646
209,Garnet Street,83340,43.6736758,-114.3583266
3215,Warm Springs Road,83340,43.6850539,-114.4040856
340,River Street,83340,43.6753154,-114.3667935
340,River Street,83340,43.6757728,-114.3654982
230,Raven Road,83340,43.6938180,-114.3647246
422,River Run Drive,83340,43.6887594,-114.3791245
109,Boulder View Lane,83340,43.6983262,-114.3702808
3012,Warm Springs Road,83340,43.6876905,-114.4021413
1900,Warm Springs Road,83340,43.6913069,-114.3844260
114,Adams Rib Lane,83340,43.7006089,-114.3708590
307,Bald Mountain Road,83340,43.6900913,-114.3890306
206,Bird Drive,83340,43.6770412,-114.3702432
111,Red Fox Lane,83340,43.6900360,-114.3719771
675,Sun Valley Road,83340,43.6831750,-114.3610827
1177,Warm Springs Road,83340,43.6870057,-114.3724738
116,Irene Street,83340,43.6892882,-114.3930792
104,Jane Lane,83340,43.6854129,-114.4030733
297,Wood River Drive,83340,43.6741143,-114.3680617
158,Irene Street,83340,43.6897295,-114.3896050
300,Eagles Wing Drive,83340,43.6852400,-114.4008309
202,Picabo Street,83340,43.6845677,-114.4020216
260,Hillside Drive,83340,43.6924723,-114.3870243
465,Wood River Drive,83340,43.6744636,-114.3696219
100,Graduate Drive,83340,43.6925503,-114.3708261
119,Picabo Street,83340,43.6837607,-114.4014893
252,Hillside Drive,83340,43.6924805,-114.3876312
111,Four Seasons Way,83340,43.6911300,-114.3840094
3119,Warm Springs Road,83340,43.6854512,-114.4036955
130,Bigwood Drive,83340,43.7006385,-114.3684784
820,Warm Springs Road,83340,43.6837692,-114.3680253
210,Skiway Drive,83340,43.6871887,-114.4012263
108,Latigo Lane,83340,43.6934861,-114.3614275
221,Northwood Way,83340,43.6897607,-114.3692962
108,Sunnyside Drive,83340,43.6852621,-114.3761504
300,Centennial Lane,83340,43.6763184,-114.3623832
135,River Ridge Lane,83340,43.6750963,-114.3672887
1517,Warm Springs Road,83340,43.6891636,-114.3805830
280,Sun Valley Road,83340,43.6781640,-114.3674729
1221,Warm Springs Road,83340,43.6884465,-114.3768324
600,Leadville Avenue,83340,43.6775880,-114.3597406
105,Sunnyside Drive,83340,43.6848617,-114.3760250
148,Bird Drive,83340,43.6750019,-114.3695470
106,Aspen Drive,83340,43.6896625,-114.3967753
119,Williams Street,83340,43.6758767,-114.3706131
140,Leadville Avenue,83340,43.6805907,-114.3622173
121,Emerald Street,83340,43.6746051,-114.3601385
3015,Warm Springs Road,83340,43.6868135,-114.4022316
116,Ritchie Drive,83340,43.6862355,-114.4025891
433,Broadway Boulevard,83340,43.6841948,-114.3771143
119,Picabo Street,83340,43.6837016,-114.4011927
150,Bird Drive,83340,43.6756616,-114.3702211
130,Four Seasons Way,83340,43.6919139,-114.3838146
360,Lloyd Court,83340,43.6838148,-114.4076676
231,Northwood Way,83340,43.6895465,-114.3697379
119,Williams Street,83340,43.6760589,-114.3706739
101,Latigo Lane,83340,43.6930245,-114.3620202
123,River Run Drive,83340,43.6869612,-114.3761513
2107,Warm Springs Road,83340,43.6907774,-114.3889383
409,Bald Mountain Road,83340,43.6898451,-114.3926080
571,Washington Avenue,83340,43.6813498,-114.3671781
319,Puchner Lane,83340,43.6825209,-114.4030508
205,Parkway Drive,83340,43.6858538,-114.3724077
315,Skiway Drive,83340,43.6858613,-114.4006701
100,Sage Road,83340,43.6905189,-114.3979442
222,Broadway Boulevard,83340,43.6862566,-114.3748925
221,Northwood Way,83340,43.6894898,-114.3692905
1517,Warm Springs Road,83340,43.6891021,-114.3805274
229,Pinewood Lane,83340,43.6844577,-114.3718096
119,Picabo Street,83340,43.6842433,-114.4015114
127,Saddle Road,83340,43.6920068,-114.3637487
3016,Warm Springs Road,83340,43.6871840,-114.4026484
270,Northwood Way,83340,43.6914938,-114.3686271
3111,Warm Springs Road,83340,43.6857250,-114.4034725
207,Sabala Street,83340,43.6777476,-114.3721814
308,Sage Road,83340,43.6882990,-114.4032009
124,Short Swing Lane,83340,43.6920588,-114.3853044
101,Williams Street,83340,43.6754756,-114.3709842
171,Bordeaux Street,83340,43.6766251,-114.3722228
127,Saddle Road,83340,43.6919343,-114.3648236
631,Washington Avenue,83340,43.6816695,-114.3677145
160,Flower Drive,83340,43.6911211,-114.3833801
180,Edelweiss Avenue,83340,43.6768290,-114.3677699
203,Hillside Drive,83340,43.6921732,-114.3922562
110,Lewis Street,83340,43.6861900,-114.3693047
500,Washington Avenue,83340,43.6814179,-114.3665589
110,Galena Court,83340,43.6989558,-114.3665571
437,Broadway Boulevard,83340,43.6841953,-114.3774970
1307,Warm Springs Road,83340,43.6886505,-114.3775137
235,Penny Drive,83340,43.6908750,-114.3785655
100,River Street,83340,43.6775095,-114.3634721
119,Picabo Street,83340,43.6838012,-114.4010985
205,Lava Street,83340,43.6774457,-114.3588567
311,Andora Lane,83340,43.6774459,-114.3630500
202,Fox Run Road,83340,43.6952878,-114.3638760
180,Bigwood Drive,83340,43.7024325,-114.3681940
2418,Warm Springs Road,83340,43.6908929,-114.3951021
100,Gates Road,83340,43.6845911,-114.4047471
460,Onyx Drive,83340,43.6792176,-114.3591635
601,Leadville Avenue,83340,43.6777519,-114.3602718
400,Bell Drive,83340,43.6868285,-114.3680586
460,River Street,83340,43.6796088,-114.3604885
851,Rocking Horse Road,83340,43.6804391,-114.3736900
110,Flower Drive,83340,43.6907094,-114.3827378
404,Bald Mountain Road,83340,43.6904289,-114.3916267
107,Nordic Court,83340,43.6873140,-114.3965680
2000,Warm Springs Road,83340,43.6913298,-114.3873857
220,Lava Street,83340,43.6780981,-114.3570032
401,Lewis Street,83340,43.6891623,-114.3708943
117,Townhouse Lane,83340,43.6880472,-114.3805108
360,Sun Valley Road,83340,43.6809361,-114.3635370
315,Skiway Drive,83340,43.6874508,-114.3998052
150,Red Fox Lane,83340,43.6912727,-114.3713427
1521,Warm Springs Road,83340,43.6894098,-114.3811335
180,Leadville Avenue,83340,43.6806981,-114.3623633
645,Sun Valley Road,83340,43.6831200,-114.3618155
328,Georginia Road,83340,43.6876053,-114.4006783
207,Aspen Drive,83340,43.6885222,-114.3981330
345,Lewis Street,83340,43.6888942,-114.3707022
203,Aspen Drive,83340,43.6888302,-114.3977844
119,Townhouse Lane,83340,43.6876251,-114.3803807
2001,Warm Springs Road,83340,43.6909061,-114.3872928
270,Northwood Way,83340,43.6913785,-114.3685384
120,Latigo Lane,83340,43.6940715,-114.3625314
251,Northwood Way,83340,43.6903485,-114.3699935
128,Saddle Road,83340,43.6930927,-114.3637521
113,Townhouse Lane,83340,43.6885859,-114.3806834
2005,Warm Springs Road,83340,43.6908899,-114.3878396
112,Badger Lane,83340,43.6799484,-114.3746540
1517,Warm Springs Road,83340,43.6890760,-114.3804929
601,Leadville Avenue,83340,43.6775480,-114.3605075
151,Red Fox Lane,83340,43.6908577,-114.3725170
620,Main Street,83340,43.6827017,-114.3664705
126,Latigo Lane,83340,43.6942777,-114.3628354
620,Leadville Avenue,83340,43.6831869,-114.3658335
431,Onyx Drive,83340,43.6791567,-114.3598732
2107,Warm Springs Road,83340,43.6907224,-114.3892728
139,Bird Drive,83340,43.6749465,-114.3686850
202,Picabo Street,83340,43.6846320,-114.4020628
440,Washington Avenue,83340,43.6810031,-114.3658590
235,Spur Lane,83340,43.6909456,-114.3642173
524,Wood River Drive,83340,43.6741527,-114.3722316
331,Lewis Street,83340,43.6882744,-114.3707345
700,Leadville Avenue,83340,43.6839328,-114.3668809
311,River Street,83340,43.6762105,-114.3663752
105,Galena Court,83340,43.6988019,-114.3672983
401,Bald Mountain Road,83340,43.6902258,-114.3913329
220,Leadville Avenue,83340,43.6793993,-114.3606405
871,Warm Springs Road,83340,43.6835302,-114.3686555
141,Four Seasons Way,83340,43.6916920,-114.3842269
231,Leadville Avenue,83340,43.6807215,-114.3632449
491,Main Street,83340,43.6813904,-114.3658773
311,Andora Lane,83340,43.6774198,-114.3628944
323,River Run Drive,83340,43.6878642,-114.3796212
221,Northwood Way,83340,43.6896976,-114.3692946
221,River Run Drive,83340,43.6870349,-114.3771757
477,Wood River Drive,83340,43.6750113,-114.3700308
340,River Street,83340,43.6750299,-114.3663747
340,River Street,83340,43.6753322,-114.3660306
126,Bird Drive,83340,43.6738210,-114.3688574
323,Lewis Street,83340,43.6879730,-114.3706805
311,Andora Lane,83340,43.6771184,-114.3614999
410,Clubhouse Drive,83340,43.6969991,-114.3665473
225,Picabo Street Lane,83340,43.6834609,-114.4045090
2905,Warm Springs Road,83340,43.6885556,-114.4005131
111,Garnet Street,83340,43.6736346,-114.3602255
222,Bird Drive,83340,43.6771849,-114.3703767
220,Picabo Street,83340,43.6844389,-114.4040460
760,Walnut Avenue,83340,43.6853791,-114.3647200
117,Townhouse Lane,83340,43.6879740,-114.3804369
202,Picabo Street,83340,43.6842915,-114.4029860
531,Onyx Drive,83340,43.6802010,-114.3595042
205,River Ridge Lane,83340,43.6753389,-114.3674532
121,Picabo Street Lane,83340,43.6833679,-114.4013064
128,Belmont Drive,83340,43.6916076,-114.3889230
251,Washington Avenue,83340,43.6795980,-114.3648032
160,Flower Drive,83340,43.6910836,-114.3832840
230,Aspen Drive,83340,43.6877477,-114.3991244
126,Bird Drive,83340,43.6740268,-114.3690891
145,Bird Drive,83340,43.6753061,-114.3691925
502,Evergreen Lane,83340,43.6782659,-114.3731703
225,Picabo Street Lane,83340,43.6834360,-114.4043038
104,Saddle Road,83340,43.6887570,-114.3723757
119,Corrock Drive,83340,43.6864414,-114.3763115
480,River Street,83340,43.6795908,-114.3600978
291,River Street,83340,43.6766205,-114.3657105
119,Williams Street,83340,43.6760593,-114.3708907
106,Wanderers Way,83340,43.6916625,-114.3862555
220,East Avenue,83340,43.6816936,-114.3618898
409,Main Street,83340,43.6759191,-114.3619844
204,Ritchie Drive,83340,43.6853642,-114.4033815
201,Parkway Drive,83340,43.6858715,-114.3719455
1519,Warm Springs Road,83340,43.6892609,-114.3808432
113,Sunnyside Drive,83340,43.6848631,-114.3765910
215,Gem Street,83340,43.6761933,-114.3591152
331,Leadville Avenue,83340,43.6812565,-114.3640945
1513,Warm Springs Road,83340,43.6892783,-114.3799759
524,Wood River Drive,83340,43.6741523,-114.3721435
220,Picabo Street,83340,43.6841083,-114.4040079
260,Spur Lane,83340,43.6901924,-114.3629046
120,Stoneridge Road,83340,43.7004136,-114.3666931
332,Shady Lane,83340,43.6871555,-114.3968495
103,Pinevue Lane,83340,43.6850551,-114.3723079
105,Howard Drive,83340,43.6850845,-114.4015915
104,Sage Road,83340,43.6908592,-114.3987052
141,Sun Valley Road,83340,43.6794529,-114.3661994
299,Wood River Drive,83340,43.6739448,-114.3682616
304,Georginia Road,83340,43.6883762,-114.4000700
214,Pinewood Lane,83340,43.6850266,-114.3709188
228,Parkway Drive,83340,43.6841967,-114.3733068
123,Sage Road,83340,43.6898930,-114.4000316
104,Latigo Lane,83340,43.6931211,-114.3613801
441,Broadway Boulevard,83340,43.6843272,-114.3779540
3212,Warm Springs Road,83340,43.6855902,-114.4048862
3009,Warm Springs Road,83340,43.6871777,-114.4019449
237,Skiway Drive,83340,43.6866943,-114.4006126
109,Townhouse Lane,83340,43.6887053,-114.3806816
105,Corrock Drive,83340,43.6878522,-114.3748960
110,River Run Drive,83340,43.6879325,-114.3763688
119,Picabo Street,83340,43.6843452,-114.4013421
110,Griffin Court,83340,43.7041855,-114.3667991
680,Sun Valley Road,83340,43.6829627,-114.3602406
205,Raven Road,83340,43.6929456,-114.3653663
100,Lewis Street,83340,43.6860173,-114.3691602
460,Wood River Drive,83340,43.6741960,-114.3700445
260,River Street,83340,43.6785713,-114.3620708
340,River Street,83340,43.6748665,-114.3655823
340,River Street,83340,43.6753207,-114.3657868
470,Bigwood Drive,83340,43.7047818,-114.3692696
113,Howard Drive,83340,43.6847438,-114.4023301
216,Pinewood Lane,83340,43.6848448,-114.3707150
209,Sabala Street,83340,43.6777492,-114.3723317
675,Sun Valley Road,83340,43.6831784,-114.3611797
220,River Run Drive,83340,43.6875456,-114.3770206
110,Lindsay Circle,83340,43.6906660,-114.3705099
513,Broadway Boulevard,83340,43.6853774,-114.3782187
414,Evergreen Lane,83340,43.6781445,-114.3725813
326,Shady Lane,83340,43.6866952,-114.3976681
333,Main Street,83340,43.6764258,-114.3617972
110,Lindsay Circle,83340,43.6904002,-114.3706064
2001,Warm Springs Road,83340,43.6908506,-114.3872966
440,Wood River Drive,83340,43.6734196,-114.3699764
380,East Avenue,83340,43.6824551,-114.3629232
481,Bell Drive,83340,43.6873394,-114.3689998
333,Main Street,83340,43.6764275,-114.3617160
235,Spur Lane,83340,43.6898624,-114.3641689
209,Williams Street,83340,43.6769932,-114.3708190
202,Picabo Street,83340,43.6846193,-114.4021043
323,Shady Lane,83340,43.6873937,-114.3979731
300,Wood River Drive,83340,43.6731056,-114.3677901
115,Townhouse Lane,83340,43.6881828,-114.3805928
202,Picabo Street,83340,43.6844460,-114.4023043
112,Garnet Street,83340,43.6732790,-114.3596423
301,Bell Drive,83340,43.6867760,-114.3689081
127,Saddle Road,83340,43.6925873,-114.3645700
1919,Warm Springs Road,83340,43.6908267,-114.3866749
220,Buss Elle Road,83340,43.6788224,-114.3758731
231,Northwood Way,83340,43.6898988,-114.3697556
340,River Street,83340,43.6751826,-114.3666027
220,Lewis Street,83340,43.6871479,-114.3696529
127,Stirrup Lane,83340,43.6890638,-114.3658602
281,Northwood Way,83340,43.6913296,-114.3699762
1200,Warm Springs Road,83340,43.6884612,-114.3734529
245,Raven Road,83340,43.6949574,-114.3650300
235,Raven Road,83340,43.6942024,-114.3649275
2210,Warm Springs Road,83340,43.6911056,-114.3910540
171,Bordeaux Street,83340,43.6768426,-114.3722971
280,Northwood Way,83340,43.6918064,-114.3690779
166,Belmont Drive,83340,43.6916734,-114.3869025
127,Saddle Road,83340,43.6923744,-114.3636246
351,Leadville Avenue,83340,43.6814289,-114.3642075
235,Raven Road,83340,43.6944249,-114.3649699
245,Raven Road,83340,43.6947790,-114.3653316
126,Bird Drive,83340,43.6739337,-114.3689042
110,Lindsay Circle,83340,43.6908968,-114.3706063
291,Edelweiss Avenue,83340,43.6774370,-114.3688093
212,Pinewood Lane,83340,43.6848513,-114.3712346
109,Badger Lane,83340,43.6796900,-114.3751623
212,Parkway Drive,83340,43.6852340,-114.3725991
620,Leadville Avenue,83340,43.6831895,-114.3658246
119,Huffman Drive,83340,43.6928738,-114.3965568
111,Pinewood Lane,83340,43.6848087,-114.3719312
180,Telemark Road,83340,43.7032991,-114.3647395
215,Raven Road,83340,43.6932679,-114.3653361
300,Spruce Avenue,83340,43.6838111,-114.3606411
130,Stirrup Lane,83340,43.6891563,-114.3663802
233,Hillside Drive,83340,43.6934229,-114.3894315
300,Wood River Drive,83340,43.6732364,-114.3675773
2001,Warm Springs Road,83340,43.6909893,-114.3872870
321,Leadville Avenue,83340,43.6786336,-114.3607999
709,Wood River Drive,83340,43.6796633,-114.3738070
115,Sage Road,83340,43.6902410,-114.3994743
891,Washington Avenue,83340,43.6830438,-114.3694817
309,Andora Lane,83340,43.6777645,-114.3625443
1908,Warm Springs Road,83340,43.6914331,-114.3847449
400,Centennial Lane,83340,43.6760675,-114.3623174
321,Leadville Avenue,83340,43.6784958,-114.3607378
1163,Warm Springs Road,83340,43.6859950,-114.3717709
407,Bald Mountain Road,83340,43.6899629,-114.3923276
351,Eagles Wing Drive,83340,43.6854757,-114.3996100
225,Raven Road,83340,43.6938656,-114.3653775
1908,Warm Springs Road,83340,43.6913855,-114.3847567
971 1/2,Leadville Avenue,83340,43.6846542,-114.3685914
1908,Warm Springs Road,83340,43.6910238,-114.3844741
200,River Street,83340,43.6781914,-114.3624250
221,Bald Mountain Road,83340,43.6904619,-114.3867161
220,Topaz Street,83340,43.6738780,-114.3587321
3020,Warm Springs Road,83340,43.6868468,-114.4030284
110,Lindsay Circle,83340,43.6910175,-114.3704889
145,Northwood Way,83340,43.6892713,-114.3694757
135,Exhibition Boulevard,83340,43.6865423,-114.3752400
151,Main Street,83340,43.6792951,-114.3627371
115,Huffman Drive,83340,43.6913053,-114.3965546
120,Turf Lane,83340,43.6918421,-114.3908340
202,Picabo Street,83340,43.6843525,-114.4025765
103,Corrock Drive,83340,43.6880355,-114.3752501
208,Sage Road,83340,43.6897880,-114.4021898
202,Picabo Street,83340,43.6845791,-114.4019706
220,Hillside Drive,83340,43.6923527,-114.3904561
125,Griffin Road,83340,43.7052981,-114.3657551
248,Hillside Drive,83340,43.6924595,-114.3879477
220,Picabo Street,83340,43.6844330,-114.4041702
119,Picabo Street,83340,43.6836342,-114.4014971
212,Pinewood Lane,83340,43.6849117,-114.3712667
125,Northwood Way,83340,43.6892914,-114.3696291
127,Saddle Road,83340,43.6916151,-114.3643186
271,Washington Avenue,83340,43.6796573,-114.3648774
191,Bird Drive,83340,43.6763295,-114.3693983
200,Exhibition Boulevard,83340,43.6873473,-114.3778616
151,Spur Lane,83340,43.6905890,-114.3623448
123,Saddle Road,83340,43.6923641,-114.3653895
315,Skiway Drive,83340,43.6873883,-114.3997378
400,Sun Valley Road,83340,43.6812444,-114.3631069
200,Bald Mountain Road,83340,43.6907090,-114.3853842
561,Northwood Way,83340,43.6957739,-114.3736657
176;172,Valleywood Drive,83340,43.6940022,-114.3633953
180,East Avenue,83340,43.6812920,-114.3615372
214,Aspen Drive,83340,43.6888621,-114.3984536
1001,Canyon Run Boulevard,83340,43.6922937,-114.3795439
119,Picabo Street,83340,43.6837452,-114.4010264
600,Sun Valley Road,83340,43.6826279,-114.3610548
125,Northwood Way,83340,43.6892876,-114.3697318
315,Skiway Drive,83340,43.6866051,-114.3998419
125,Northwood Way,83340,43.6892825,-114.3698344
3020,Warm Springs Road,83340,43.6868147,-114.4031216
1000,Canyon Run Boulevard,83340,43.6925471,-114.3806552
150,Wood River Drive,83340,43.6737142,-114.3662972
680,Sun Valley Road,83340,43.6829264,-114.3603146
126,Bird Drive,83340,43.6740700,-114.3689921
100,Pinewood Lane,83340,43.6856449,-114.3714468
171,Bordeaux Street,83340,43.6767587,-114.3720719
333,Main Street,83340,43.6766362,-114.3618226
603,Main Street,83340,43.6739435,-114.3614835
901,Canyon Run Boulevard,83340,43.6926432,-114.3795750
110,Georginia Road,83340,43.6900232,-114.3980612
130,Graduate Drive,83340,43.6929995,-114.3693940
110,Evergreen Court,83340,43.6784962,-114.3725304
360,Sabala Street,83340,43.6773641,-114.3734985
201,Penny Drive,83340,43.6908336,-114.3760863
467,Wood River Drive,83340,43.6745673,-114.3697323
631,Washington Avenue,83340,43.6817272,-114.3678409
3027,Warm Springs Road,83340,43.6859859,-114.4031684
125,Picabo Street,83340,43.6833501,-114.4005695
221,Picabo Street,83340,43.6833297,-114.4034264
106,Spring Lane,83340,43.7024921,-114.3741502
231,Picabo Street,83340,43.6834534,-114.4050829
675,Sun Valley Road,83340,43.6832508,-114.3608895
880,Washington Avenue,83340,43.6833524,-114.3690514
225,Picabo Street Lane,83340,43.6834155,-114.4040269
271,Main Street,83340,43.6802488,-114.3641985
340,River Street,83340,43.6757453,-114.3658455
233,Pinewood Lane,83340,43.6842269,-114.3716928
218,Pinewood Lane,83340,43.6846555,-114.3710972
220,Picabo Street,83340,43.6847570,-114.4038508
671,Washington Avenue,83340,43.6819678,-114.3679140
105,Howard Drive,83340,43.6850498,-114.4017400
315,Skiway Drive,83340,43.6865224,-114.4001856
119,Picabo Street,83340,43.6842701,-114.4012607
614,Leadville Avenue,83340,43.6769140,-114.3599582
150,Four Seasons Way,83340,43.6920928,-114.3845668
340,River Street,83340,43.6748379,-114.3661237
207,Bird Drive,83340,43.6765625,-114.3694459
290,Northwood Way,83340,43.6918356,-114.3697157
691,Spruce Avenue,83340,43.6851793,-114.3634908
256,Hillside Drive,83340,43.6924920,-114.3872912
321,Leadville Avenue,83340,43.6782688,-114.3606964
526,Wood River Drive,83340,43.6742518,-114.3726043
592,Wood River Drive,83340,43.6771624,-114.3745048
2914,Warm Springs Road,83340,43.6886041,-114.4010962
2107,Warm Springs Road,83340,43.6907677,-114.3891803
202,Picabo Street,83340,43.6843167,-114.4029024
500,Walaneut Avenue,83340,43.6839284,-114.3629501
150,River Rock Road,83340,43.7064750,-114.3729804
230,Crystal Court,83340,43.6792501,-114.3586890
101,River Run Court,83340,43.6873273,-114.3784264
202,Picabo Street,83340,43.6843734,-114.4025150
218,Pinewood Lane,83340,43.6846246,-114.3709704
524,Wood River Drive,83340,43.6741514,-114.3719674
223,Parkway Drive,83340,43.6849663,-114.3737894
119,Townhouse Lane,83340,43.6875336,-114.3802867
119,River Run Drive,83340,43.6871072,-114.3759823
111,Main Street,83340,43.6795749,-114.3632310
280,Cottonwood Street,83340,43.6745428,-114.3634419
160,River Rock Road,83340,43.7069387,-114.3730842
128,Saddle Road,83340,43.6929680,-114.3638956
117,Holliday Lane,83340,43.6859739,-114.3767228
150,Bird Drive,83340,43.6753722,-114.3699587
205,Broadway Boulevard,83340,43.6868949,-114.3733153
180 1/2,River Street,83340,43.6770957,-114.3640778
151,Topaz Street,83340,43.6742163,-114.3594319
217,Bird Drive,83340,43.6770613,-114.3694807
291,Sun Valley Road,83340,43.6784454,-114.3684685
128,Saddle Road,83340,43.6930429,-114.3637487
780,Main Street,83340,43.6837899,-114.3670439
108,Gates Road,83340,43.6839809,-114.4047342
121,Short Swing Lane,83340,43.6918771,-114.3858999
1040,Hideaway Lane,83340,43.6828030,-114.3754747
331,Leadville Avenue,83340,43.6813128,-114.3638809
780,Main Street,83340,43.6837068,-114.3669769
320,Lloyd Court,83340,43.6840088,-114.4069701
1025,Hideaway Lane,83340,43.6820578,-114.3746892
595,Wood River Drive,83340,43.6768828,-114.3735585
233,Pinewood Lane,83340,43.6842171,-114.3715597
205,Valleywood Drive,83340,43.6935194,-114.3645929
100,Leadville Avenue,83340,43.6800666,-114.3614923
1908,Warm Springs Road,83340,43.6915951,-114.3848111
101,Williams Street,83340,43.6754900,-114.3706448
3211,Warm Springs Road,83340,43.6852965,-114.4039173
120,Sage Road,83340,43.6906157,-114.4002409
341,Leadville Avenue,83340,43.6785217,-114.3602326
115,Townhouse Lane,83340,43.6882216,-114.3805944
210,Spur Lane,83340,43.6920361,-114.3627715
112,Hillside Drive,83340,43.6914236,-114.3920822
181,Bird Drive,83340,43.6761684,-114.3691744
102,Aspen Drive,83340,43.6896714,-114.3961586
217,Parkway Drive,83340,43.6854763,-114.3736541
100,Thunder Trail,83340,43.6934729,-114.3655600
125,Picabo Street,83340,43.6833571,-114.4004843
620,Leadville Avenue,83340,43.6831740,-114.3657996
130,River Street,83340,43.6779204,-114.3630277
351,Leadville Avenue,83340,43.6814154,-114.3640221
178;182,Valleywood Drive,83340,43.6940618,-114.3635236
110,Wanderers Way,83340,43.6920274,-114.3861894
211,East Avenue,83340,43.6811537,-114.3623461
102,Saddle Road,83340,43.6882687,-114.3730565
1908,Warm Springs Road,83340,43.6915798,-114.3846417
220,Pinewood Lane,83340,43.6847365,-114.3705629
101,Williams Street,83340,43.6754749,-114.3708297
2006,Warm Springs Road,83340,43.6913526,-114.3877408
323,Lewis Street,83340,43.6879417,-114.3704979
218,Skiway Drive,83340,43.6865598,-114.4012320
115,Telemark Road,83340,43.7048335,-114.3648302
110,Wood River Drive,83340,43.6749373,-114.3666131
204,Georginia Road,83340,43.6894887,-114.3988431
305,Andora Lane,83340,43.6775008,-114.3616129
713,Leadville Avenue,83340,43.6751661,-114.3608515
150,Wood River Drive,83340,43.6741588,-114.3663418
105,Short Swing Lane,83340,43.6916840,-114.3860337
700,Leadville Avenue,83340,43.6837523,-114.3668377
216,Cedar Drive,83340,43.6882998,-114.3966780
473,Wood River Drive,83340,43.6751644,-114.3704302
340,Eagles Wing Drive,83340,43.6854406,-114.4001505
119,Dollar Drive,83340,43.6894643,-114.3767652
520,Leadville Avenue,83340,43.6828649,-114.3653681
1521,Warm Springs Road,83340,43.6894463,-114.3811305
520,Leadville Avenue,83340,43.6827762,-114.3651894
121,Four Seasons Way,83340,43.6914620,-114.3838539
259,Hillside Drive,83340,43.6929541,-114.3872398
309,Andora Lane,83340,43.6777665,-114.3624731
125,Picabo Street,83340,43.6833569,-114.4004841
110,Bear Lane,83340,43.6815278,-114.3740523
125,Howard Drive,83340,43.6846427,-114.4032066
212,Parkway Drive,83340,43.6853616,-114.3722515
218,Pinewood Lane,83340,43.6845888,-114.3710597
315,Skiway Drive,83340,43.6867809,-114.3997785
119,Picabo Street,83340,43.6837063,-114.4011326
305,Bald Mountain Road,83340,43.6902466,-114.3887302
205,Raven Road,83340,43.6929519,-114.3651979
900,Rocking Horse Road,83340,43.6806743,-114.3729167
581,Wood River Drive,83340,43.6765160,-114.3736519
491,Main Street,83340,43.6813530,-114.3658398
1305,Warm Springs Road,83340,43.6883608,-114.3776784
460,Washington Avenue,83340,43.6811104,-114.3660048
140,Edelweiss Avenue,83340,43.6766746,-114.3675679
3120,Warm Springs Road,83340,43.6855345,-114.4044181
123,Saddle Road,83340,43.6921698,-114.3652356
1530,Warm Springs Road,83340,43.6902659,-114.3812060
100,Pinewood Lane,83340,43.6855234,-114.3713810
218,Skiway Drive,83340,43.6863342,-114.4012896
90,Meadow Circle,83340,43.6639416,-114.3545655
680,Sun Valley Road,83340,43.6828529,-114.3600888
211,Four Seasons Way,83340,43.6921398,-114.3837217
315,Skiway Drive,83340,43.6873430,-114.4000307
675,Sun Valley Road,83340,43.6837025,-114.3612264
110,Wood River Drive,83340,43.6744033,-114.3665835
1521,Warm Springs Road,83340,43.6895127,-114.3811059
100,Balsam Root Drive,83334,43.6936125,-114.3812515
371,Main Street,83340,43.6808624,-114.3650313
218,Pinewood Lane,83340,43.6846913,-114.3710078
450,Canyon Run Boulevard,83340,43.6935820,-114.3761172
110,Garnet Street,83340,43.6732748,-114.3600195
135,Irene Street,83340,43.6899155,-114.3913813
425,Canyon Run Boulevard,83340,43.6914727,-114.3768693
300,Garnet Street,83340,43.6732990,-114.3579851
210,Skiway Drive,83340,43.6873169,-114.4015101
227,Pinewood Lane,83340,43.6845456,-114.3718769
106,Badger Lane,83340,43.6795341,-114.3744762
309,Andora Lane,83340,43.6777717,-114.3624023
200,Sage Road,83340,43.6900809,-114.4015009
504,Evergreen Lane,83340,43.6784522,-114.3731928
119,Picabo Street,83340,43.6844378,-114.4011946
3019,Warm Springs Road,83340,43.6867409,-114.4023754
601,Leadville Avenue,83340,43.6776130,-114.3607818
119,Picabo Street,83340,43.6837401,-114.4016014
245,Raven Road,83340,43.6945629,-114.3653166
210,Skiway Drive,83340,43.6871651,-114.4013942
170,Spur Lane,83340,43.6892507,-114.3612495
146;150,Valleywood Drive,83340,43.6936453,-114.3634535
126,Latigo Lane,83340,43.6945683,-114.3626967
245,Penny Drive,83340,43.6909968,-114.3791097
110,Lindsay Circle,83340,43.6903232,-114.3705517
3027,Warm Springs Road,83340,43.6860734,-114.4030616
150,Wood River Drive,83340,43.6739637,-114.3667090
329,Bald Mountain Road,83340,43.6903438,-114.3907435
1904,Warm Springs Road,83340,43.6914808,-114.3842957
235,Spur Lane,83340,43.6903814,-114.3641731
360,East Avenue,83340,43.6824444,-114.3626807
270,Northwood Way,83340,43.6915464,-114.3687091
333,Main Street,83340,43.6766628,-114.3617280
291,Sun Valley Road,83340,43.6784153,-114.3680267
473,Wood River Drive,83340,43.6751645,-114.3703159
224,Pinewood Lane,83340,43.6843066,-114.3706329
151,Main Street,83340,43.6790380,-114.3629734
270,Northwood Way,83340,43.6914370,-114.3685761
109,Townhouse Lane,83340,43.6888539,-114.3805434
531,Spruce Avenue,83340,43.6845559,-114.3624079
113,Rember Street,83340,43.6763819,-114.3708269
380,Sabala Street,83340,43.6773488,-114.3738654
200,Leadville Avenue,83340,43.6809225,-114.3626687
100,Bell Drive,83340,43.6866841,-114.3691481
431,Washington Avenue,83340,43.6806946,-114.3662896
469,Wood River Drive,83340,43.6747551,-114.3699073
171,River Street,83340,43.6774790,-114.3645202
117,Townhouse Lane,83340,43.6880156,-114.3804498
207,Buss Elle Road,83340,43.6792307,-114.3744669
160,Spur Lane,83340,43.6898608,-114.3613499
3008,Warm Springs Road,83340,43.6879032,-114.4017881
280,Sun Valley Road,83340,43.6776444,-114.3672419
221,Penny Drive,83340,43.6908302,-114.3771478
104,Neils Way,83340,43.6664193,-114.3557175
103,Nordic Court,83340,43.6878072,-114.3962029
145,Bird Drive,83340,43.6754365,-114.3690434
554,Wood River Drive,83340,43.6750706,-114.3733825
224,Pinewood Lane,83340,43.6843160,-114.3705298
103,Wood River Drive North,83340,43.6804287,-114.3751905
171,Valleywood Drive,83340,43.6947925,-114.3642242
136,Belmont Drive,83340,43.6916389,-114.3882226
401,Sage Road,83340,43.6869406,-114.4034406
201,Bald Mountain Road,83340,43.6903375,-114.3858113
131,River Street,83340,43.6783354,-114.3637161
132,Belmont Drive,83340,43.6916249,-114.3886647
791,Warm Springs Road,83340,43.6830907,-114.3680569
151,East Avenue,83340,43.6801687,-114.3610043
920,Campus Way,83340,43.6829848,-114.3718335
409,Main Street,83340,43.6758442,-114.3619177
141,Four Seasons Way,83340,43.6917082,-114.3841003
1519,Warm Springs Road,83340,43.6892805,-114.3808853
110,Lindsay Circle,83340,43.6911598,-114.3704844
340,Main Street,83340,43.6811342,-114.3644439
524,Wood River Drive,83340,43.6741519,-114.3720554
215,Pine Drive,83340,43.6879587,-114.3970738
351,Edelweiss Avenue,83340,43.6778385,-114.3689335
300,Wood River Drive,83340,43.6731646,-114.3675121
218,River Run Drive,83340,43.6874163,-114.3767361
235,Lloyd Court,83340,43.6834435,-114.4061333
900,Canyon Run Boulevard,83340,43.6936220,-114.3799200
423,River Run Drive,83340,43.6888151,-114.3798298
101,Williams Street,83340,43.6750060,-114.3707946
130,River Ridge Lane,83340,43.6747286,-114.3673928
204,Ritchie Drive,83340,43.6852347,-114.4035086
221,Picabo Street,83340,43.6833394,-114.4030844
315,Skiway Drive,83340,43.6858841,-114.4005247
106,Saddle Road,83340,43.6890383,-114.3724899
101,Sheep Meadow Lane,83340,43.6961918,-114.3735904
119,Picabo Street,83340,43.6840154,-114.4010105
204,Ramona Lane,83340,43.6882145,-114.3740038
324,Georginia Road,83340,43.6877615,-114.4004677
270,Cottonwood Street,83340,43.6748534,-114.3631656
100,Leadville Avenue,83340,43.6801075,-114.3615964
239,Pinewood Lane,83340,43.6839365,-114.3707146
251,Washington Avenue,83340,43.6796679,-114.3650339
318,Bald Mountain Road,83340,43.6904831,-114.3896750
251,Washington Avenue,83340,43.6795560,-114.3648807
305,Georginia Road,83340,43.6882967,-114.3996531
3215,Warm Springs Road,83340,43.6850907,-114.4040698
304,Williams Street,83340,43.6778176,-114.3716287
260,Cottonwood Street,83340,43.6753931,-114.3640592
130,Latigo Lane,83340,43.6943956,-114.3631733
120,Red Fox Lane,83340,43.6902253,-114.3713730
3027,Warm Springs Road,83340,43.6859959,-114.4032026
299,Wood River Drive,83340,43.6740948,-114.3684237
235,Raven Road,83340,43.6942983,-114.3649684
615,Sun Valley Road,83340,43.6830175,-114.3616382
220,Picabo Street,83340,43.6840931,-114.4042631
115,Griffin Court,83340,43.7054214,-114.3669566
119,Picabo Street,83340,43.6841343,-114.4015992
340,River Street,83340,43.6748104,-114.3656773
150,Wood River Drive,83340,43.6737856,-114.3663463
131,Belmont Drive,83340,43.6920963,-114.3888531
149,Dollar Drive,83340,43.6894366,-114.3780156
221,Picabo Street,83340,43.6833308,-114.4031859
490,River Street,83340,43.6798579,-114.3603867
2107,Warm Springs Road,83340,43.6907509,-114.3890778
121,Badger Lane,83340,43.6799957,-114.3758778
309,Garnet Street,83340,43.6757353,-114.3560664
140,Spur Lane,83340,43.6906873,-114.3613537
480,Washington Avenue,83340,43.6812173,-114.3661508
150,Wood River Drive,83340,43.6739182,-114.3668148
235,Spur Lane,83340,43.6905882,-114.3641732
361,Leadville Avenue,83340,43.6782276,-114.3601182
315,Skiway Drive,83340,43.6875330,-114.3995806
380,Sabala Street,83340,43.6773455,-114.3736655
219,Broadway Boulevard,83340,43.6862760,-114.3741721
731,East Avenue,83340,43.6839936,-114.3662099
220,Crystal Court,83340,43.6788108,-114.3585630
520,Leadville Avenue,83340,43.6827146,-114.3651217
225,Buss Elle Road,83340,43.6793921,-114.3758413
131,Red Fox Lane,83340,43.6904472,-114.3719834
480,East Avenue,83340,43.6829464,-114.3635927
202,Picabo Street,83340,43.6845061,-114.4023757
411,Bald Mountain Road,83370,43.6897648,-114.3929641
120,Flower Drive,83340,43.6909653,-114.3825889
940,Leadville Avenue,83340,43.6849622,-114.3681611
201,Washington Avenue,83340,43.6795524,-114.3645800
204,Ritchie Drive,83340,43.6853781,-114.4034071
615,Wood River Drive,83340,43.6788366,-114.3738412
131,Bird Drive,83340,43.6744209,-114.3686068
306,River Run Drive,83340,43.6879226,-114.3780316
12728,State Highway 75,83340,43.6655457,-114.3556672
420,Northwood Way,83340,43.6930101,-114.3715856
601,Canyon Run Boulevard,83340,43.6916886,-114.3785196
111,Red Fox Lane,83340,43.6899173,-114.3720776
120,Leadville Avenue,83340,43.6804834,-114.3620712
204,Canyon Run Boulevard,83340,43.6891229,-114.3756275
109,Dollar Drive,83340,43.6894533,-114.3762102
1020,Hideaway Lane,83340,43.6830511,-114.3736011
400,Centennial Lane,83340,43.6761778,-114.3623570
225,Raven Road,83340,43.6937426,-114.3654414
109,Corrock Drive,83340,43.6872602,-114.3753151
191,River Street,83340,43.6774050,-114.3647361
113,Townhouse Lane,83340,43.6884958,-114.3806772
12698,State Highway 75,83340,43.6626829,-114.3538306
117,Wanderers Way,83340,43.6924281,-114.3866711
227,Pinewood Lane,83340,43.6845036,-114.3719666
700,Leadville Avenue,83340,43.6837160,-114.3663124
235,Raven Road,83340,43.6942995,-114.3649664
268,Northwood Way,83340,43.6912770,-114.3684328
100,Pinewood Lane,83340,43.6856145,-114.3714303
320,Shady Lane,83340,43.6861423,-114.3986414
280,Sun Valley Road,83340,43.6780847,-114.3674321
340,River Street,83340,43.6751853,-114.3656108
491,Main Street,83340,43.6813496,-114.3656914
119,Picabo Street,83340,43.6839118,-114.4010832
320,Sage Road,83340,43.6873765,-114.4036973
110,Wood River Drive,83340,43.6747903,-114.3664271
121,Pinewood Lane,83340,43.6846976,-114.3721799
920,Warm Springs Road,83340,43.6843157,-114.3687683
404,Bald Mountain Road,83340,43.6904363,-114.3917891
140,River Street,83340,43.6772008,-114.3636496
206,Bird Drive,83340,43.6768756,-114.3703935
121,Short Swing Lane,83340,43.6920069,-114.3858680
215,Valleywood Drive,83340,43.6938137,-114.3645868
100,Pinewood Lane,83340,43.6855841,-114.3714139
219,Williams Street,83340,43.6773421,-114.3708226
150,Spur Lane,83340,43.6902931,-114.3613458
131,Bird Drive,83340,43.6743260,-114.3683177
105,Nordic Court,83340,43.6874330,-114.3963004
3019,Warm Springs Road,83340,43.6866835,-114.4024365
291,Sun Valley Road,83340,43.6781578,-114.3680536
360,Sun Valley Road,83340,43.6809851,-114.3634389
216,Sage Road,83340,43.6894431,-114.4029400
450,Bell Drive,83340,43.6872187,-114.3680942
631,Washington Avenue,83340,43.6817534,-114.3678787
163,Exhibition Boulevard,83340,43.6855131,-114.3765839
110,Lindsay Circle,83340,43.6906414,-114.3705197
333,Main Street,83340,43.6767347,-114.3617602
126,Latigo Lane,83340,43.6942837,-114.3629807
100,Thunder Trail,83340,43.6934580,-114.3655434
174,Bordeaux Street,83340,43.6768618,-114.3732772
106,Wanderers Way,83340,43.6917458,-114.3862439
319,Sage Road,83340,43.6872677,-114.4030967
205,Gem Street,83340,43.6761060,-114.3598345
110,Wood River Drive,83340,43.6743938,-114.3667836
130,Four Seasons Way,83340,43.6919031,-114.3837150
119,Picabo Street,83340,43.6837235,-114.4014389
351,Leadville Avenue,83340,43.6813706,-114.3641017
207,Canyon Run Boulevard,83340,43.6892452,-114.3762095
206,Bird Drive,83340,43.6768603,-114.3700451
235,Spur Lane,83340,43.6900074,-114.3641976
300,Edelweiss Avenue,83340,43.6778256,-114.3682943
713,Leadville Avenue,83340,43.6752956,-114.3608552
106,Corrock Drive,83340,43.6876933,-114.3755750
127,Saddle Road,83340,43.6915083,-114.3642339
708,Canyon Run Boulevard,83340,43.6923784,-114.3782599
421,Huffman Drive,83340,43.6933950,-114.3920805
618,Leadville Avenue,83340,43.6766392,-114.3599518
318,Bald Mountain Road,83340,43.6904824,-114.3895428
140,Flower Drive,83340,43.6911192,-114.3830580
675,Sun Valley Road,83340,43.6836076,-114.3612737
130,Four Seasons Way,83340,43.6919554,-114.3837730
141,Belmont Drive,83340,43.6921278,-114.3883832
130,Four Seasons Way,83340,43.6919445,-114.3836734
116,Ritchie Drive,83340,43.6859531,-114.4023944
167,Exhibition Boulevard,83340,43.6854722,-114.3769437
291,Sun Valley Road,83340,43.6782252,-114.3681682
111,Townhouse Lane,83340,43.6886317,-114.3810987
142,Bird Drive,83340,43.6748375,-114.3695550
128,Saddle Road,83340,43.6931529,-114.3639027
202,Picabo Street,83340,43.6844190,-114.4026190
280,Sun Valley Road,83340,43.6779441,-114.3672183
231,Northwood Way,83340,43.6900359,-114.3697747
135,Bird Drive,83340,43.6746818,-114.3687585
141,Bird Drive,83340,43.6751826,-114.3689474
410,Bald Mountain Road,83340,43.6902771,-114.3924288
139,Bird Drive,83340,43.6747529,-114.3684455
180;184,Valleywood Drive,83340,43.6941053,-114.3635778
131,Sun Valley Road,83340,43.6793832,-114.3662903
235,Spur Lane,83340,43.6907363,-114.3642131
100,Sage Road,83340,43.6907171,-114.3981811
108,Corrock Drive,83340,43.6874829,-114.3757202
491,Main Street,83340,43.6814733,-114.3657902
201,Huffman Drive,83340,43.6929568,-114.3960025
311,Andora Lane,83340,43.6771851,-114.3626449
430,River Run Drive,83340,43.6890898,-114.3791653
250,Northwood Way,83340,43.6904015,-114.3685582
307,Garnet Street,83340,43.6751066,-114.3571076
140,River Street,83340,43.6773026,-114.3637748
104,Garnet Street,83340,43.6732711,-114.3603970
220,Lewis Street,83340,43.6872380,-114.3695482
315,Skiway Drive,83340,43.6871520,-114.3997099
162,Bordeaux Street,83340,43.6760795,-114.3726640
119,Williams Street,83340,43.6756256,-114.3709788
2812,Warm Springs Road,83340,43.6892122,-114.4003442
12749,State Highway 75,83340,43.6703414,-114.3571391
235,Pinewood Lane,83340,43.6840847,-114.3712765
213,Hillside Drive,83340,43.6923175,-114.3913976
901,Rocking Horse Road,83340,43.6807708,-114.3743626
465,Wood River Drive,83340,43.6745890,-114.3695659
198,Ramona Lane,83340,43.6891052,-114.3741669
12702,State Highway 75,83340,43.6631163,-114.3540765
119,Williams Street,83340,43.6760534,-114.3706018
116,Ritchie Drive,83340,43.6863289,-114.4022815
202,Picabo Street,83340,43.6845875,-114.4021822
675,Sun Valley Road,83340,43.6833917,-114.3607908
202,Picabo Street,83340,43.6842617,-114.4028673
680,Sun Valley Road,83340,43.6828074,-114.3603034
231,Pinewood Lane,83340,43.6843409,-114.3714687
360,East Avenue,83340,43.6823448,-114.3627940
101,Williams Street,83340,43.6752788,-114.3709618
111,Lodge Lane,83340,43.6763823,-114.3703400
480,Spruce Avenue,83340,43.6845467,-114.3614912
120,Blue Grouse Lane,83340,43.6941157,-114.3714617
1300,Warm Springs Road,83340,43.6888242,-114.3767657
580,Spruce Avenue,83340,43.6849384,-114.3621710
125,Picabo Street,83340,43.6832864,-114.4008328
211,Sun Valley Road,83340,43.6802771,-114.3650725
150,Simpson Drive,83340,43.6915104,-114.3939714
675,Sun Valley Road,83340,43.6831179,-114.3610826
1908,Warm Springs Road,83340,43.6910797,-114.3848204
127,Saddle Road,83340,43.6918840,-114.3646601
605,Main Street,83340,43.6736806,-114.3614768
208,Ritchie Drive,83340,43.6848833,-114.4035434
110,Wood River Drive,83340,43.6746078,-114.3664339
307,Main Street,83340,43.6773517,-114.3615506
171,River Street,83340,43.6774663,-114.3646105
120,Townhouse Lane,83340,43.6882402,-114.3811703
101,Pinevue Lane,83340,43.6851846,-114.3719992
445,Clubhouse Drive,83340,43.6959645,-114.3661080
131,Neils Way,83340,43.6662575,-114.3579610
328,Shady Lane,83340,43.6868518,-114.3974401
430,Wood River Drive,83340,43.6734314,-114.3692965
233,Skiway Drive,83340,43.6869295,-114.4004186
215,Corrock Drive,83340,43.6863502,-114.3772666
309,Andora Lane,83340,43.6777763,-114.3621823
305,Andora Lane,83340,43.6775522,-114.3616204
109,Sage Road,83340,43.6903769,-114.3992001
411,Huffman Drive,83340,43.6932844,-114.3928360
104,Williams Street,83340,43.6754946,-114.3714157
226,Pinewood Lane,83340,43.6840720,-114.3705858
151,Main Street,83340,43.6792888,-114.3627802
119,Picabo Street,83340,43.6837677,-114.4009109
524,Wood River Drive,83340,43.6741533,-114.3723198
110,Lindsay Circle,83340,43.6905770,-114.3704367
235,Spur Lane,83340,43.6901159,-114.3635643
541,Onyx Drive,83340,43.6802008,-114.3591474
221,Northwood Way,83340,43.6898628,-114.3693036
371,Washington Avenue,83340,43.6802914,-114.3656823
1515,Warm Springs Road,83340,43.6895260,-114.3804357
333,Main Street,83340,43.6762497,-114.3617017
229,Bald Mountain Road,83340,43.6905104,-114.3871571
120,Sawtooth Lane,83340,43.6978837,-114.3670947
204,Garnet Street,83340,43.6732687,-114.3587934
110,Lindsay Circle,83340,43.6912259,-114.3705075
331,Walnut Avenue,83340,43.6825864,-114.3621480
202,Wild Rose Circle,83340,43.6780907,-114.3745803
224,Pinewood Lane,83340,43.6843864,-114.3705495
820,Walaneut Avenue,83340,43.6857642,-114.3652458
315,Skiway Drive,83340,43.6873455,-114.4001421
3009,Warm Springs Road,83340,43.6871740,-114.4019633
123,Irene Street,83340,43.6896583,-114.3922292
151,Main Street,83340,43.6789982,-114.3631937
200,Four Seasons Way,83340,43.6923905,-114.3836847
500,Main Street,83340,43.6820790,-114.3657203
101,Williams Street,83340,43.6750490,-114.3709675
231,Huffman Drive,83340,43.6931392,-114.3947109
114,Sheep Meadow Lane,83340,43.6990652,-114.3726272
245,Raven Road,83340,43.6947637,-114.3650942
110,Spur Lane,83340,43.6917789,-114.3613816
225,Raven Road,83340,43.6937628,-114.3651869
145,Bird Drive,83340,43.6755247,-114.3688210
100,Thunder Trail,83340,43.6929728,-114.3657403
2918,Warm Springs Road,83340,43.6883968,-114.4013433
271,Washington Avenue,83340,43.6798259,-114.3650519
323,Lewis Street,83340,43.6880119,-114.3704064
125,Picabo Street,83340,43.6833167,-114.4007029
115,Graduate Drive,83340,43.6933076,-114.3710802
710,Wood River Drive,83340,43.6796858,-114.3744804
601,Leadville Avenue,83340,43.6777011,-114.3603953
170,River Rock Road,83340,43.7075366,-114.3731141
517,Broadway Boulevard,83340,43.6855569,-114.3783109
190;186,Valleywood Drive,83340,43.6942123,-114.3636547
360,East Avenue,83340,43.6822953,-114.3625046
140,River Ridge Lane,83340,43.6751175,-114.3676293
3014,Warm Springs Road,83340,43.6875228,-114.4022920
1235,Canyon Run Boulevard,83340,43.6907546,-114.3798788
900,Leadville Avenue,83340,43.6847475,-114.3678264
101,Emerald Street,83340,43.6746294,-114.3605828
235,Spur Lane,83340,43.6907383,-114.3641777
148;152,Valleywood Drive,83340,43.6936379,-114.3633806
713,Leadville Avenue,83340,43.6752308,-114.3608533
260,Edelweiss Avenue,83340,43.6773699,-114.3681302
110,Lindsay Circle,83340,43.6909270,-114.3704823
116,Howard Drive,83340,43.6850077,-114.4028688
315,Skiway Drive,83340,43.6859153,-114.3997897
220,Lewis Street,83340,43.6869850,-114.3696312
150,Flower Drive,83340,43.6908522,-114.3833623
204,Gem Street,83340,43.6764309,-114.3599470
105,Exhibition Boulevard,83340,43.6873669,-114.3745311
114,Pinewood Lane,83340,43.6853068,-114.3714530
1000,Hideaway Lane,83340,43.6824566,-114.3734050
480,Spruce Avenue,83340,43.6844527,-114.3615972
361,Leadville Avenue,83340,43.6781117,-114.3603906
127,Saddle Road,83340,43.6915165,-114.3642262
931,Rocking Horse Road,83340,43.6810081,-114.3736164
214,Pinewood Lane,83340,43.6849513,-114.3710057
611,Walnut Avenue,83340,43.6842835,-114.3642630
111,Four Seasons Way,83340,43.6911552,-114.3839175
450,Wood River Drive,83340,43.6735471,-114.3703754
218,Skiway Drive,83340,43.6864682,-114.4013275
109,Latigo Lane,83340,43.6933273,-114.3624208
408,Evergreen Lane,83340,43.6781445,-114.3719539
101,Emerald Street,83340,43.6746233,-114.3608469
109,Holliday Lane,83340,43.6860456,-114.3762146
220,Picabo Street,83340,43.6840621,-114.4040541
116,Ritchie Drive,83340,43.6863101,-114.4022965
409,Main Street,83340,43.6758375,-114.3621823
731,Alpine Lane,83340,43.6844765,-114.3656718
220,Bald Mountain Road,83340,43.6908150,-114.3860504
1523,Warm Springs Road,83340,43.6896692,-114.3809616
891,Warm Springs Road,83340,43.6836376,-114.3688018
411,Northwood Way,83340,43.6920953,-114.3728882
680,Sun Valley Road,83340,43.6831227,-114.3604794
115,Galena Court,83340,43.6986937,-114.3670778
121,Irene Street,83340,43.6895484,-114.3925967
311,Sabala Street,83340,43.6779802,-114.3730703
231,Bald Mountain Road,83340,43.6905213,-114.3875407
181,Spur Lane,83340,43.6891506,-114.3619628
169,Exhibition Boulevard,83340,43.6858541,-114.3773823
116,Ritchie Drive,83340,43.6863095,-114.4024756
601,Leadville Avenue,83340,43.6777850,-114.3603470
2700,Warm Springs Road,83340,43.6901739,-114.3989268
105,Badger Lane,83340,43.6795350,-114.3751628
317,Bald Mountain Road,83340,43.6902749,-114.3901461
960,Rocking Horse Road,83340,43.6812344,-114.3729327
131,Bird Drive,83340,43.6743019,-114.3684718
351,Leadville Avenue,83340,43.6814550,-114.3643307
2912,Warm Springs Road,83340,43.6888114,-114.4008492
320,Leadville Avenue,83340,43.6815476,-114.3635112
2321,Warm Springs Road,83340,43.6905302,-114.3929555
330,Shady Lane,83340,43.6870263,-114.3971803
310,Manchester Court,83340,43.6846637,-114.4006414
238,Cedar Drive,83340,43.6892607,-114.3967725
215,Hillside Drive,83340,43.6923929,-114.3910411
203,Wild Rose Circle,83340,43.6785121,-114.3749767
215,Raven Road,83340,43.6933331,-114.3651839
121,Pinewood Lane,83340,43.6846581,-114.3722723
305,Andora Lane,83340,43.6777336,-114.3617946
212,Pinewood Lane,83340,43.6849452,-114.3711703
731,Washington Avenue,83340,43.6823364,-114.3685187
831,Warm Springs Road,83340,43.6834228,-114.3685094
2010,Warm Springs Road,83340,43.6913304,-114.3881154
119,Lewis Street,83340,43.6864842,-114.3703684
126,Bird Drive,83340,43.6738688,-114.3688925
900,Campus Way,83340,43.6829988,-114.3703488
520,East Avenue,83340,43.6833329,-114.3641165
110,Wood River Drive,83340,43.6747596,-114.3666501
130,River Ridge Lane,83340,43.6748409,-114.3674590
603,Main Street,83340,43.6740233,-114.3615350
1908,Warm Springs Road,83340,43.6911198,-114.3851285
322,Shady Lane,83340,43.6864310,-114.3981787
511,Canyon Run Boulevard,83340,43.6915517,-114.3779781
280,Sun Valley Road,83340,43.6777336,-114.3671863
150,Red Fox Lane,83340,43.6913532,-114.3715321
110,Lindsay Circle,83340,43.6902833,-114.3705303
135,Belmont Drive,83340,43.6920572,-114.3885546
108,Fir Drive,83340,43.6885301,-114.3976251
321,Leadville Avenue,83340,43.6786521,-114.3607664
2917,Warm Springs Road,83340,43.6880783,-114.4008782
311,Andora Lane,83340,43.6771913,-114.3627160
1219,Warm Springs Road,83340,43.6881134,-114.3766533
231,Sun Valley Road,83340,43.6803735,-114.3649380
208,Glade Court,83340,43.6641565,-114.3549828
130,Griffin Court,83340,43.7046314,-114.3656422
101,Latigo Lane,83340,43.6931375,-114.3621207
212,Sage Road,83340,43.6896414,-114.4025337
713,Leadville Avenue,83340,43.6751987,-114.3608524
315,Skiway Drive,83340,43.6862796,-114.3996367
201,Sage Road,83340,43.6894866,-114.4005523
127,Saddle Road,83340,43.6919877,-114.3649477
403,Bald Mountain Road,83340,43.6901639,-114.3916032
140,Bear Lane,83340,43.6813693,-114.3758918
409,Main Street,83340,43.6754522,-114.3616096
213,Georginia Road,83340,43.6889732,-114.3989195
111,Four Seasons Way,83340,43.6912119,-114.3840698
119,Williams Street,83340,43.6760593,-114.3708183
117,Sheep Meadow Lane,83340,43.6999585,-114.3743442
134,Irene Street,83340,43.6893407,-114.3914430
205,Aspen Drive,83340,43.6885197,-114.3978305
161,Spur Lane,83340,43.6902071,-114.3623448
831,Walnut Avenue,83340,43.6853209,-114.3658640
340,River Street,83340,43.6755087,-114.3663831
500,Washington Avenue,83340,43.6814631,-114.3664616
360,East Avenue,83340,43.6823597,-114.3628025
320,Leadville Avenue,83340,43.6815958,-114.3635869
171,Bird Drive,83340,43.6759627,-114.3690968
179,Dollar Drive,83340,43.6897465,-114.3792056
340,River Street,83340,43.6747893,-114.3660604
675,Sun Valley Road,83340,43.6832628,-114.3611040
110,Lindsay Circle,83340,43.6910829,-114.3705954
111,Blue Grouse Lane,83340,43.6948589,-114.3722574
580,Wood River Drive,83340,43.6762818,-114.3744479
111,Four Seasons Way,83340,43.6912515,-114.3839926
225,Pinewood Lane,83340,43.6846617,-114.3716328
131,Holliday Lane,83340,43.6864401,-114.3768461
221,Washington Avenue,83340,43.6794729,-114.3647387
210,Raven Road,83340,43.6933056,-114.3648367
100,Thunder Trail,83340,43.6929735,-114.3655810
601,Leadville Avenue,83340,43.6777488,-114.3602292
120,Northwood Way,83340,43.6888363,-114.3696109
319,Shady Lane,83340,43.6871318,-114.3982900
421,Bell Drive,83340,43.6870740,-114.3686861
115,Latigo Lane,83340,43.6936963,-114.3627117
106,Williams Street,83340,43.6757291,-114.3714240
216,Sage Road,83340,43.6895162,-114.4027675
2610,Warm Springs Road,83340,43.6904501,-114.3984317
224,Aspen Drive,83340,43.6876909,-114.3981305
315,Skiway Drive,83340,43.6865887,-114.3997447
631,Washington Avenue,83340,43.6817169,-114.3675562
571,River Street,83340,43.6808827,-114.3598816
751,Walnut Avenue,83340,43.6848276,-114.3651930
691,Walnut Avenue,83340,43.6844373,-114.3646620
301,Bell Drive,83340,43.6868188,-114.3686365
520,Washington Avenue,83340,43.6815506,-114.3666014
305,Clubhouse Drive,83340,43.6994570,-114.3656140
321,Leadville Avenue,83340,43.6784954,-114.3608336
119,Picabo Street,83340,43.6837251,-114.4016013
206,Bird Drive,83340,43.6770397,-114.3701489
102,Spring Lane,83340,43.7035332,-114.3740193
311,Main Street,83340,43.6806483,-114.3647397
315,Skiway Drive,83340,43.6862630,-114.4001799
305,Skiway Drive,83340,43.6865235,-114.4005316
450,Clubhouse Drive,83340,43.6959207,-114.3668856
171,Four Seasons Way,83340,43.6922985,-114.3849348
209,Topaz Street,83340,43.6742210,-114.3588096
202,Picabo Street,83340,43.6842239,-114.4029428
971,Rocking Horse Road,83340,43.6813536,-114.3736283
508,Canyon Run Boulevard,83340,43.6925263,-114.3776393
601,Main Street,83340,43.6743736,-114.3614993
220,Canyon Run Boulevard,83340,43.6904157,-114.3751946
3024,Warm Springs Road,83340,43.6863837,-114.4035217
235,Spur Lane,83340,43.6900147,-114.3641646
491,Main Street,83340,43.6813888,-114.3656475
210,Skiway Drive,83340,43.6870031,-114.4015085
1245,Canyon Run Boulevard,83340,43.6905298,-114.3798756
680,Sun Valley Road,83340,43.6827950,-114.3600302
511,Sun Valley Road,83340,43.6821327,-114.3624861
151,Main Street,83340,43.6788772,-114.3626007
105,Stirrup Lane,83340,43.6910680,-114.3657720
324,Shady Lane,83340,43.6865753,-114.3979367
140,Saddle Road,83340,43.6929254,-114.3613800
12696,State Highway 75,83340,43.6624275,-114.3536923
631,Washington Avenue,83340,43.6818399,-114.3677122
119,Picabo Street,83340,43.6844009,-114.4013501
607,Wood River Drive,83340,43.6782993,-114.3737129
224,Hillside Drive,83340,43.6923631,-114.3900705
812,Rocking Horse Road,83340,43.6803419,-114.3730153
601,Leadville Avenue,83340,43.6776741,-114.3602686
215,Picabo Street,83340,43.6838296,-114.4032723
126,Belmont Drive,83340,43.6915958,-114.3890963
111,Washington Avenue,83340,43.6789505,-114.3639182
107,Simpson Drive,83340,43.6911412,-114.3928012
107,Townhouse Lane,83340,43.6888552,-114.3808179
111,Corrock Drive,83340,43.6870495,-114.3754537
1030,Hideaway Lane,83340,43.6828596,-114.3746121
310,River Run Drive,83340,43.6879282,-114.3783965
218,Broadway Boulevard,83340,43.6864214,-114.3747933
110,Latigo Lane,83340,43.6937742,-114.3614652
119,Picabo Street,83340,43.6838044,-114.4010570
119,Picabo Street,83340,43.6836196,-114.4014352
135,Valleywood Drive,83340,43.6933444,-114.3645694
120,Bigwood Drive,83340,43.7003843,-114.3684090
675,Sun Valley Road,83340,43.6832794,-114.3608228
280,Sun Valley Road,83340,43.6781273,-114.3675239
465,Clubhouse Drive,83340,43.6956420,-114.3659712
127,Saddle Road,83340,43.6923645,-114.3635979
100,Aspen Drive,83340,43.6898468,-114.3986674
219,Sage Road,83340,43.6886838,-114.4015164
300,Georginia Road,83340,43.6885574,-114.4000766
415,River Run Drive,83340,43.6881896,-114.3796355
201,Skiway Drive,83340,43.6877292,-114.4010122
110,Wood River Drive,83340,43.6745314,-114.3664410
311,Andora Lane,83340,43.6774421,-114.3627530
2323,Warm Springs Road,83340,43.6905334,-114.3932644
140,Four Seasons Way,83340,43.6921623,-114.3841347
118,Lewis Street,83340,43.6864084,-114.3692075
780,Alpine Lane,83340,43.6850188,-114.3654530
126,Irene Street,83340,43.6891931,-114.3920688
102,Sage Road,83340,43.6908743,-114.3983954
120,Flower Drive,83340,43.6910540,-114.3826566
141,Four Seasons Way,83340,43.6917006,-114.3841599
110,Lindsay Circle,83340,43.6905263,-114.3705787
611,Wood River Drive,83340,43.6786046,-114.3737131
491,Sun Valley Road,83340,43.6816980,-114.3630266
151,Main Street,83340,43.6791174,-114.3626297
361,Leadville Avenue,83340,43.6779613,-114.3602124
3008,Warm Springs Road,83340,43.6879585,-114.4020192
101,Four Seasons Way,83340,43.6909702,-114.3840430
160,Leadville Avenue,83340,43.6798035,-114.3612003
119,Picabo Street,83340,43.6837082,-114.4010709
401,Lewis Street,83340,43.6891360,-114.3707342
141,Sun Valley Road,83340,43.6793153,-114.3664125
305,Andora Lane,83340,43.6775041,-114.3618310
675,Sun Valley Road,83340,43.6835543,-114.3610089
570,Wood River Drive,83340,43.6761024,-114.3740355
311,Andora Lane,83340,43.6774713,-114.3626752
416,Evergreen Lane,83340,43.6781445,-114.3727922
230,Cedar Drive,83340,43.6887864,-114.3967468
100,Meadow Circle,83340,43.6631586,-114.3555960
130,Flower Drive,83340,43.6907791,-114.3831997
315,Skiway Drive,83340,43.6861574,-114.3996397
119,Ritchie Drive,83340,43.6854289,-114.4019693
202,Picabo Street,83340,43.6842326,-114.4028985
111,Walnut Avenue,83340,43.6814907,-114.3604610
113,Ritchie Drive,83340,43.6861270,-114.4015394
101,Emerald Street,83340,43.6748965,-114.3607723
125,River Ridge Lane,83340,43.6748594,-114.3671418
131,Blue Grouse Lane,83340,43.6948580,-114.3715576
202,Picabo Street,83340,43.6845774,-114.4019692
110,Lindsay Circle,83340,43.6902666,-114.3704000
104,Jane Lane,83340,43.6853302,-114.4030889
467,Wood River Drive,83340,43.6746469,-114.3698312
675,Sun Valley Road,83340,43.6835140,-114.3610768
150,Bird Drive,83340,43.6753736,-114.3702600
601,Main Street,83340,43.6742053,-114.3614920
235,Spur Lane,83340,43.6905968,-114.3641773
333,Main Street,83340,43.6763903,-114.3617715
503,Main Street,83340,43.6745711,-114.3615608
191,Sun Valley Road,83340,43.6800813,-114.3654983
139,Irene Street,83340,43.6899717,-114.3909996
116,Ritchie Drive,83340,43.6862780,-114.4019485
280,Cottonwood Street,83340,43.6746386,-114.3635399
131,Bird Drive,83340,43.6743520,-114.3682219
202,Picabo Street,83340,43.6843802,-114.4024945
3110,Warm Springs Road,83340,43.6859524,-114.4039719
421,Sabala Street,83340,43.6777210,-114.3755838
410,Canyon Run Boulevard,83340,43.6924055,-114.3754973
133,Simpson Drive,83340,43.6909979,-114.3935591
116,Ritchie Drive,83340,43.6863851,-114.4024127
119,Williams Street,83340,43.6760591,-114.3707462
480,Clubhouse Drive,83340,43.6948353,-114.3662539
212,Georginia Road,83340,43.6890509,-114.3993874
170,Bigwood Drive,83340,43.7021310,-114.3683552
127,Saddle Road,83340,43.6919790,-114.3637124
119,Picabo Street,83340,43.6840092,-114.4009969
101,Four Seasons Way,83340,43.6909343,-114.3839317
340,Lloyd Court,83340,43.6839683,-114.4073534
450,Bigwood Drive,83340,43.7047018,-114.3688458
220,River Ridge Lane,83340,43.6756681,-114.3679199
2107,Warm Springs Road,83340,43.6907841,-114.3888663
233,Parkway Drive,83340,43.6845093,-114.3740143
102,Aspen Drive,83340,43.6896585,-114.3964427
120,Galena Court,83340,43.6987305,-114.3668465
580,Main Street,83340,43.6823587,-114.3660683
125,Picabo Street,83340,43.6833490,-114.4005689
340,River Street,83340,43.6752546,-114.3667119
311,Andora Lane,83340,43.6773885,-114.3626325
211,Sabala Street,83340,43.6777512,-114.3726744
515,East Avenue,83340,43.6829266,-114.3647572
191,Main Street,83340,43.6797571,-114.3635302
315,Skiway Drive,83340,43.6862115,-114.3997193
239,Pinewood Lane,83340,43.6839145,-114.3706432
491,Main Street,83340,43.6813443,-114.3658630
3216,Warm Springs Road,83340,43.6852143,-114.4048070
325,River Run Drive,83340,43.6878214,-114.3799566
2215,Warm Springs Road,83340,43.6906206,-114.3917250
243,Lloyd Court,83340,43.6833265,-114.4073393
251,Northwood Way,83340,43.6905127,-114.3696446
100,Thunder Trail,83340,43.6934196,-114.3657207
100,Picabo Street,83340,43.6850783,-114.4012777
3119,Warm Springs Road,83340,43.6855258,-114.4036181
603,Main Street,83340,43.6741117,-114.3614912
400,Wood River Drive,83340,43.6735702,-114.3684264
280,Sun Valley Road,83340,43.6778220,-114.3671331
300,Sabala Street,83340,43.6773588,-114.3730980
105,Wood River Drive North,83340,43.6804528,-114.3759435
341,Leadville Avenue,83340,43.6784810,-114.3602052
119,Picabo Street,83340,43.6837460,-114.4010269
511,Leadville Avenue,83340,43.6822282,-114.3654048
170,Dollar Drive,83340,43.6904863,-114.3794593
102,Wanderers Way,83340,43.6913014,-114.3863882
311,Andora Lane,83340,43.6773045,-114.3631188
100,Buss Elle Road,83340,43.6788684,-114.3722354
615,Sun Valley Road,83340,43.6830825,-114.3616043
120,Stirrup Lane,83340,43.6898269,-114.3664444
111,River Glen Lane,83340,43.6631892,-114.3563947
220,Lewis Street,83340,43.6871973,-114.3697335
700,Washington Avenue,83340,43.6825372,-114.3679419
154;158,Valleywood Drive,83340,43.6936405,-114.3631940
220,Four Seasons Way,83340,43.6924214,-114.3840993
1908,Warm Springs Road,83340,43.6912746,-114.3851817
161,Bird Drive,83340,43.6760857,-114.3694479
280,East Avenue,83340,43.6818550,-114.3621075
185,Bigwood Drive,83340,43.7025681,-114.3672380
105,Latigo Lane,83340,43.6933846,-114.3620553
218,Skiway Drive,83340,43.6863342,-114.4012104
601,Wood River Drive,83340,43.6777657,-114.3737120
451,Northwood Way,83340,43.6933862,-114.3731892
116,Ritchie Drive,83340,43.6861650,-114.4024757
645,Sun Valley Road,83340,43.6828764,-114.3614773
127,Saddle Road,83340,43.6923204,-114.3635651
220,Picabo Street,83340,43.6847880,-114.4040599
300,Wood River Drive,83340,43.6731436,-114.3678099
150,Wood River Drive,83340,43.6736885,-114.3663893
101,Wood River Drive North,83340,43.6803089,-114.3745092
110,Lindsay Circle,83340,43.6910063,-114.3706517
211,Penny Drive,83340,43.6908719,-114.3765086
675,Sun Valley Road,83340,43.6832153,-114.3609375
106,Saddle Road,83340,43.6888936,-114.3724269
308,Canyon Run Boulevard,83340,43.6909159,-114.3751895
116,Howard Drive,83340,43.6851135,-114.4026568
323,Lewis Street,83340,43.6879105,-114.3706983
300,River Street,83340,43.6789548,-114.3613696
180,Main Street,83340,43.6801382,-114.3630638
351,Leadville Avenue,83340,43.6814243,-114.3640361
220,Picabo Street,83340,43.6848834,-114.4038176
127,Saddle Road,83340,43.6923210,-114.3635639
409,Main Street,83340,43.6756442,-114.3616099
231,Pinewood Lane,83340,43.6842738,-114.3714338
240,Spur Lane,83340,43.6909584,-114.3629276
1035,Hideaway Lane,83340,43.6822196,-114.3751503
460,Spruce Avenue,83340,43.6844206,-114.3613516
321,Leadville Avenue,83340,43.6783542,-114.3606750
181,Bordeaux Street,83340,43.6770785,-114.3723416
491,Main Street,83340,43.6814731,-114.3657471
220,Lewis Street,83340,43.6870393,-114.3696385
204,Williams Street,83340,43.6764052,-114.3716931
491,Main Street,83340,43.6813948,-114.3657551
331,Lewis Street,83340,43.6882235,-114.3705709
325,Bald Mountain Road,83340,43.6904558,-114.3905349
1209,Warm Springs Road,83340,43.6876975,-114.3744282
333,Main Street,83340,43.6767236,-114.3617908
1520,Warm Springs Road,83340,43.6901307,-114.3808251
211,Main Street,83340,43.6800083,-114.3638695
2005,Warm Springs Road,83340,43.6908708,-114.3879222
110,Adams Rib Lane,83340,43.7025632,-114.3711889
291,Leadville Avenue,83340,43.6789204,-114.3608609
110,Lindsay Circle,83340,43.6911464,-114.3705668
470,Wood River Drive,83340,43.6746135,-114.3703583
119,Picabo Street,83340,43.6843680,-114.4012601
534,Broadway Boulevard,83340,43.6865563,-114.3783592
118,Spring Lane,83340,43.7016784,-114.3729524
235,Pinewood Lane,83340,43.6840330,-114.3712919
520,Leadville Avenue,83340,43.6828869,-114.3653101
319,River Run Drive,83340,43.6874295,-114.3798298
291,Sun Valley Road,83340,43.6782528,-114.3678761
501,Main Street,83340,43.6747023,-114.3614947
135,Bird Drive,83340,43.6746368,-114.3688597
161,Simpson Drive,83340,43.6909493,-114.3942750
109,Sunnyside Drive,83340,43.6848624,-114.3763084
297,Wood River Drive,83340,43.6742278,-114.3681363
110,Rember Street,83340,43.6759698,-114.3699999
215,Sage Road,83340,43.6888150,-114.4013801
127,Saddle Road,83340,43.6924130,-114.3636395
131,Irene Street,83340,43.6898446,-114.3916757
261,Spur Lane,83340,43.6896216,-114.3627236
1517,Warm Springs Road,83340,43.6891375,-114.3805484
510,River Street,83340,43.6799943,-114.3599831
425,Huffman Drive,83340,43.6933516,-114.3917067
151,Sun Valley Road,83340,43.6793116,-114.3663626
210,Bald Mountain Road,83340,43.6907744,-114.3857234
333,Bald Mountain Road,83340,43.6902887,-114.3910011
147,Irene Street,83340,43.6900221,-114.3905286
500,Wood River Drive,83340,43.6741731,-114.3714194
321,Leadville Avenue,83340,43.6781825,-114.3606472
128,Saddle Road,83340,43.6931430,-114.3639421
331,Leadville Avenue,83340,43.6812582,-114.3638063
101,Emerald Street,83340,43.6745766,-114.3608459
111,Buss Elle Road,83340,43.6792638,-114.3735045
409,Main Street,83340,43.6756611,-114.3614506
280,Sun Valley Road,83340,43.6780690,-114.3675662
303,Skiway Drive,83340,43.6863827,-114.4006367
241,Hillside Drive,83340,43.6936240,-114.3883523
210,Flower Drive,83340,43.6918752,-114.3816261
631,Washington Avenue,83340,43.6817167,-114.3678489
415,Clubhouse Drive,83340,43.6966315,-114.3659583
1908,Warm Springs Road,83340,43.6911633,-114.3851178
291,Sun Valley Road,83340,43.6781993,-114.3681151
711,Main Street,83340,43.6831913,-114.3673279
131,Bird Drive,83340,43.6745227,-114.3683619
311,Andora Lane,83340,43.6772263,-114.3615709
280,Sun Valley Road,83340,43.6780614,-114.3673782
245,Raven Road,83340,43.6942641,-114.3652696
131,Bird Drive,83340,43.6744845,-114.3684444
109,Latigo Lane,83340,43.6935142,-114.3624282
475,Wood River Drive,83340,43.6751874,-114.3701562
2001,Warm Springs Road,83340,43.6908472,-114.3872041
118,Latigo Lane,83340,43.6945672,-114.3618856
291,Sun Valley Road,83340,43.6784192,-114.3684157
612,Wood River Drive,83340,43.6785494,-114.3743941
220,River Street,83340,43.6782341,-114.3622253
241,Skiway Drive,83340,43.6864135,-114.4008082
600,Northwood Way,83340,43.6953366,-114.3703321
160,River Street,83340,43.6772103,-114.3640045
111,Edelweiss Avenue,83340,43.6761726,-114.3678520
130,Latigo Lane,83340,43.6944619,-114.3632644
126,Bird Drive,83340,43.6739862,-114.3692514
675,Sun Valley Road,83340,43.6836384,-114.3611196
631,Washington Avenue,83340,43.6817736,-114.3678552
215,Picabo Street,83340,43.6837355,-114.4035244
235,Raven Road,83340,43.6942187,-114.3647410
315,Skiway Drive,83340,43.6857908,-114.4007529
140,River Ridge Lane,83340,43.6749686,-114.3675269
3022,Warm Springs Road,83340,43.6865972,-114.4033495
371,River Street,83340,43.6757710,-114.3668936
645,Sun Valley Road,83340,43.6830996,-114.3614659
110,Williams Street,83340,43.6759765,-114.3714287
305,Andora Lane,83340,43.6774732,-114.3621704
225,Raven Road,83340,43.6939755,-114.3651673
671,East Avenue,83340,43.6836181,-114.3656978
2000,Warm Springs Road,83340,43.6913271,-114.3872581
107,River Run Court,83340,43.6874107,-114.3787612
271,Bald Mountain Road,83340,43.6904452,-114.3877587
317,Bald Mountain Road,83340,43.6903073,-114.3901445
315,Skiway Drive,83340,43.6871074,-114.3996287
305,Andora Lane,83340,43.6773716,-114.3621934
220,River Ridge Lane,83340,43.6755503,-114.3678671
305,Garnet Street,83340,43.6740029,-114.3579524
101,River Glen Lane,83340,43.6627700,-114.3563265
217,Broadway Boulevard,83340,43.6864072,-114.3739624
115,Northwood Way,83340,43.6892668,-114.3701344
680,Sun Valley Road,83340,43.6829785,-114.3604070
226,Pinewood Lane,83340,43.6841673,-114.3706494
270,Northwood Way,83340,43.6913779,-114.3685341
631,Washington Avenue,83340,43.6818248,-114.3678479
151,Exhibition Boulevard,83340,43.6857174,-114.3757887
140,Flower Drive,83340,43.6910375,-114.3830876
150,Flower Drive,83340,43.6908599,-114.3834606
306,Williams Street,83340,43.6779667,-114.3716297
631,Washington Avenue,83340,43.6818491,-114.3677755
631,Washington Avenue,83340,43.6817298,-114.3676069
280,Sun Valley Road,83340,43.6780284,-114.3676228
215,Raven Road,83340,43.6933295,-114.3651850
315,Skiway Drive,83340,43.6859711,-114.3997643
136,Short Swing Lane,83340,43.6926204,-114.3854696
171,Bordeaux Street,83340,43.6768115,-114.3720921
121,Four Seasons Way,83340,43.6914134,-114.3838658
409,Sage Road,83340,43.6865033,-114.4038436
235,Spur Lane,83340,43.6903882,-114.3641764
106,Howard Drive,83340,43.6856230,-114.4016096
315,Sage Road,83340,43.6874302,-114.4029247
601,Main Street,83340,43.6742833,-114.3615088
1904,Warm Springs Road,83340,43.6914390,-114.3843171
222,River Run Drive,83340,43.6876752,-114.3773549
103,Badger Lane,83340,43.6792743,-114.3751674
120,Main Street,83340,43.6797212,-114.3622141
1200,Canyon Run Boulevard,83340,43.6913469,-114.3806541
205,River Ridge Lane,83340,43.6754324,-114.3675131
514,Broadway Boulevard,83340,43.6856791,-114.3776301
91,Meadow Circle,83340,43.6635105,-114.3540188
217,Bird Drive,83340,43.6771056,-114.3695634
212,Canyon Run Boulevard,83340,43.6899699,-114.3751771
105,Irene Street,83340,43.6899041,-114.3934271
305,Andora Lane,83340,43.6773173,-114.3621660
202,Picabo Street,83340,43.6842772,-114.4028024
104,Wood River Drive North,83340,43.6810599,-114.3752750
150,Dollar Drive,83340,43.6902372,-114.3784951
588,Wood River Drive,83340,43.6766571,-114.3747160
214,Broadway Boulevard,83340,43.6867261,-114.3745707
351,Leadville Avenue,83340,43.6813343,-114.3641056
675,Sun Valley Road,83340,43.6832913,-114.3609883
324,Georginia Road,83340,43.6876932,-114.4002098
2100,Warm Springs Road,83340,43.6913401,-114.3884829
171,Valleywood Drive,83340,43.6942219,-114.3642661
119,Picabo Street,83340,43.6841259,-114.4014748
305,Andora Lane,83340,43.6776058,-114.3616021
171,Blue Grouse Lane,83340,43.6949820,-114.3701898
321,Leadville Avenue,83340,43.6784225,-114.3609091
222,Penny Drive,83340,43.6914946,-114.3774052
460,Northwood Way,83340,43.6934506,-114.3719498
291,Sun Valley Road,83340,43.6783159,-114.3678059
216,Hillside Drive,83340,43.6920728,-114.3906517
502,Broadway Boulevard,83340,43.6853314,-114.3773155
305,Andora Lane,83340,43.6777314,-114.3617232
315,Skiway Drive,83340,43.6865111,-114.4002648
552,Wood River Drive,83340,43.6747223,-114.3730971
251,Northwood Way,83340,43.6903763,-114.3696395
771,Washington Avenue,83340,43.6824438,-114.3686647
225,Raven Road,83340,43.6937516,-114.3654224
108,Pinewood Lane,83340,43.6855422,-114.3717306
520,Walaneut Avenue,83340,43.6840363,-114.3630958
323,Lewis Street,83340,43.6879360,-114.3705969
219,Lewis Street,83340,43.6871929,-114.3704525
207,Sabala Street,83340,43.6777459,-114.3720117
701,Canyon Run Boulevard,83340,43.6919647,-114.3789300
237,Pinewood Lane,83340,43.6838646,-114.3710670
150,Wood River Drive,83340,43.6740965,-114.3662949
321,Leadville Avenue,83340,43.6786455,-114.3606226
811,Warm Springs Road,83340,43.6833154,-114.3683628
210,Skiway Drive,83340,43.6870506,-114.4012669
151,Four Seasons Way,83340,43.6918181,-114.3847196
401,Skiway Court,83340,43.6844887,-114.4003114
148,Bird Drive,83340,43.6750016,-114.3697033
1521,Warm Springs Road,83340,43.6894817,-114.3811089
331,Lewis Street,83340,43.6882117,-114.3704600
171,Valleywood Drive,83340,43.6945086,-114.3642222
3025;3023;3021,Warm Springs Road,83340,43.6864004,-114.4029135
310,Shady Lane,83340,43.6877425,-114.3987547
711,Main Street,83340,43.6831417,-114.3673760
401,Huffman Drive,83340,43.6923810,-114.3936449
151,Bordeaux Street,83340,43.6763242,-114.3719854
325,Clubhouse Drive,83340,43.6983719,-114.3651876
410,Bigwood Drive,83340,43.7044967,-114.3680569
110,Wood River Drive,83340,43.6748234,-114.3664716
106,Belmont Drive,83340,43.6912286,-114.3899187
127,Saddle Road,83340,43.6918724,-114.3636730
161,Sun Valley Road,83340,43.6792419,-114.3664212
100,Centennial Lane,83340,43.6769476,-114.3624032
100,Meadow Circle,83340,43.6632144,-114.3554896
518,Broadway Boulevard,83340,43.6858523,-114.3777680
645,Sun Valley Road,83340,43.6830087,-114.3613249
160,Belmont Drive,83340,43.6917300,-114.3872894
210,Sabala Street,83340,43.6773162,-114.3719723
120,Ritchie Drive,83340,43.6857654,-114.4028508
205,Sabala Street,83340,43.6779715,-114.3722381
93,Meadow Circle,83340,43.6633786,-114.3544656
225,Raven Road,83340,43.6936780,-114.3651751
148,Bird Drive,83340,43.6750013,-114.3698538
560,East Avenue,83340,43.6834950,-114.3643357
1178,Warm Springs Road,83340,43.6875742,-114.3723804
215,Picabo Street,83340,43.6838246,-114.4031611
315,Skiway Drive,83340,43.6858189,-114.4006049
245,Raven Road,83340,43.6949501,-114.3652671
235,Spur Lane,83340,43.6897893,-114.3638799
145,Bird Drive,83340,43.6753483,-114.3692842
119,Sage Road,83340,43.6900728,-114.3997699
271,Northwood Way,83340,43.6909668,-114.3697436
700,Leadville Avenue,83340,43.6838633,-114.3665049
2001,Warm Springs Road,83340,43.6909026,-114.3872003
3003,Warm Springs Road,83340,43.6873627,-114.4018008
100,Thunder Trail,83340,43.6933326,-114.3656575
215,Ramona Lane,83340,43.6887587,-114.3750043
155,Exhibition Boulevard,83340,43.6855055,-114.3759845
521,Broadway Boulevard,83340,43.6858796,-114.3783607
360,Sun Valley Road,83340,43.6809084,-114.3635464
500,East Avenue,83340,43.6832256,-114.3639706
280,Sun Valley Road,83340,43.6776015,-114.3672529
419,Broadway Boulevard,83340,43.6838518,-114.3753536
1515,Warm Springs Road,83340,43.6895541,-114.3804738
150,Telemark Road,83340,43.7043804,-114.3631040
2107,Warm Springs Road,83340,43.6907169,-114.3894768
415,Sage Road,83340,43.6863176,-114.4040101
202,Picabo Street,83340,43.6844384,-114.4023231
206,Bird Drive,83340,43.6767799,-114.3700447
119,Picabo Street,83340,43.6837679,-114.4015360
135,Telemark Road,83340,43.7052865,-114.3641066
225,Pinewood Lane,83340,43.6847224,-114.3716663
531,Main Street,83340,43.6817817,-114.3662784
2008,Warm Springs Road,83340,43.6913423,-114.3879310
105,Lewis Street,83340,43.6858320,-114.3702017
2325,Warm Springs Road,83340,43.6905182,-114.3935467
2114,Warm Springs Road,83340,43.6912579,-114.3892020
291,Sun Valley Road,83340,43.6784568,-114.3680880
217,River Run Drive,83340,43.6869150,-114.3769362
231,Washington Avenue,83340,43.6797052,-114.3648218
800,Walnut Avenue,83340,43.6856567,-114.3650990
601,Leadville Avenue,83340,43.6774349,-114.3604749
800,Canyon Run Boulevard,83340,43.6930136,-114.3788825
105,Howard Drive,83340,43.6850953,-114.4015215
200,Northwood Way,83340,43.6892895,-114.3684546
311,Georginia Road,83340,43.6880460,-114.3997276
191,Edelweiss Avenue,83340,43.6764768,-114.3682202
3026,Warm Springs Road,83340,43.6862074,-114.4037438
361,Leadville Avenue,83340,43.6780284,-114.3602281
409,Main Street,83340,43.6754942,-114.3616989
675,Sun Valley Road,83340,43.6835041,-114.3611316
120,Flower Drive,83340,43.6909723,-114.3826863
561,Wood River Drive,83340,43.6756287,-114.3727199
204,Topaz Street,83340,43.6739559,-114.3591080
12716,State Highway 75,83340,43.6648038,-114.3551557
3216,Warm Springs Road,83340,43.6853646,-114.4047347
891,Walnut Avenue,83340,43.6854819,-114.3660830
315,Skiway Drive,83340,43.6861374,-114.4001798
112,River Run Drive,83340,43.6878831,-114.3760296
341,Leadville Avenue,83340,43.6785419,-114.3600592
107,Buss Elle Road,83340,43.6792601,-114.3727287
645,Sun Valley Road,83340,43.6832213,-114.3618530
221,Picabo Street,83340,43.6833454,-114.4039063
680,Sun Valley Road,83340,43.6828689,-114.3603779
320,Leadville Avenue,83340,43.6815823,-114.3636118
501,Northwood Way,83340,43.6947370,-114.3734908
171,Valleywood Drive,83340,43.6941949,-114.3642458
235,Spur Lane,83340,43.6898676,-114.3641710
115,Corrock Drive,83340,43.6865407,-114.3757841
169,Dollar Drive,83340,43.6896468,-114.3788289
114,Pinewood Lane,83340,43.6852294,-114.3715136
127,Exhibition Boulevard,83340,43.6868133,-114.3750073
122,River Run Drive,83340,43.6875877,-114.3762508
232,Hillside Drive,83340,43.6924153,-114.3893600
194,Ramona Lane,83340,43.6891443,-114.3745136
109,Stirrup Lane,83340,43.6906889,-114.3656292
101,Turf Lane,83340,43.6910928,-114.3916998
127,Saddle Road,83340,43.6919163,-114.3647575
106,Sage Road,83340,43.6908541,-114.3990323
125,Sawtooth Lane,83340,43.6982692,-114.3666226
110,Irene Street,83340,43.6896373,-114.3938803
101,Emerald Street,83340,43.6748113,-114.3607702
2716,Warm Springs Road,83340,43.6894761,-114.4000194
212,Pine Drive,83340,43.6883015,-114.3968680
2107,Warm Springs Road,83340,43.6907122,-114.3896208
100,Edelweiss Avenue,83340,43.6765267,-114.3673708
911,Rocking Horse Road,83340,43.6807246,-114.3735645
409,Main Street,83340,43.6756075,-114.3615294
1251,Canyon Run Boulevard,83340,43.6900156,-114.3798473
601,Leadville Avenue,83340,43.6776996,-114.3608498
170,Exhibition Boulevard,83340,43.6859687,-114.3769715
220,Sun Valley Road,83340,43.6800490,-114.3644103
1908,Warm Springs Road,83340,43.6910162,-114.3848152
204,Sage Road,83340,43.6899345,-114.4018453
237,Pinewood Lane,83340,43.6838918,-114.3710003
301,Sage Road,83340,43.6880489,-114.4022977
119,Picabo Street,83340,43.6841118,-114.4016174
591,Spruce Avenue,83340,43.6847032,-114.3626460
291,Sun Valley Road,83340,43.6783300,-114.3682927
419,River Run Drive,83340,43.6884507,-114.3797611
141,Bordeaux Street,83340,43.6761282,-114.3718381
171,Spur Lane,83340,43.6897176,-114.3621468
1904,Warm Springs Road,83340,43.6913903,-114.3843288
680,Sun Valley Road,83340,43.6830714,-114.3603995
150,Bird Drive,83340,43.6753711,-114.3698006
134;130,Valleywood Drive,83340,43.6936497,-114.3639548
135,Bird Drive,83340,43.6748257,-114.3689579
402,Sage Road,83340,43.6877827,-114.4059293
151,Main Street,83340,43.6792603,-114.3628387
160,Flower Drive,83340,43.6911233,-114.3834797
680,Sun Valley Road,83340,43.6830351,-114.3606021
12694,State Highway 75,83340,43.6622370,-114.3534761
100,Sawtooth Lane,83340,43.6973891,-114.3663888
421,Northwood Way,83340,43.6925519,-114.3726877
151,Irene Street,83340,43.6900384,-114.3901007
251,Northwood Way,83340,43.6903817,-114.3694581
409,Main Street,83340,43.6756808,-114.3616883
180,Northwood Way,83340,43.6889367,-114.3684488
140,Flower Drive,83340,43.6910306,-114.3829903
170,Bordeaux Street,83340,43.6765768,-114.3731169
731,Warm Springs Road,83340,43.6828758,-114.3677649
300,Wood River Drive,83340,43.6734717,-114.3678630
315,Skiway Drive,83340,43.6863262,-114.4001217
119,Picabo Street,83340,43.6841680,-114.4015765
235,Pinewood Lane,83340,43.6840659,-114.3713504
531,River Street,83340,43.6806214,-114.3602254
124,River Run Drive,83340,43.6873199,-114.3764175
216,Broadway Boulevard,83340,43.6865554,-114.3746619
409,Main Street,83340,43.6757786,-114.3621139
360,Leadville Avenue,83340,43.6781924,-114.3595869
195,Bigwood Drive,83340,43.7025476,-114.3665888
311,Andora Lane,83340,43.6771697,-114.3615462
108,Short Swing Lane,83340,43.6911809,-114.3858175
219,Hillside Drive,83340,43.6933771,-114.3911421
220,Lewis Street,83340,43.6872563,-114.3696382
131,Exhibition Boulevard,83340,43.6866855,-114.3750925
150,Bird Drive,83340,43.6756519,-114.3698000
235,Spur Lane,83340,43.6897896,-114.3638683
1519,Warm Springs Road,83340,43.6892298,-114.3808111
900,Walnut Avenue,83340,43.6862281,-114.3658760
305,Andora Lane,83340,43.6773983,-114.3618567
315,Skiway Drive,83340,43.6857728,-114.4006614
361,Leadville Avenue,83340,43.6780946,-114.3602817
1100,Canyon Run Boulevard,83340,43.6921769,-114.3806551
341,Leadville Avenue,83340,43.6784788,-114.3603783
160,Telemark Road,83340,43.7042001,-114.3639939
106,Picabo Street,83340,43.6848494,-114.4017938
119,Picabo Street,83340,43.6838240,-114.4015666
139,Exhibition Boulevard,83340,43.6863606,-114.3753728
125,Picabo Street,83340,43.6833246,-114.4006178
371,River Street,83340,43.6758648,-114.3668615
219,Canyon Run Boulevard,83340,43.6902297,-114.3762985
100,Thunder Trail,83340,43.6929961,-114.3657517
216,Pinewood Lane,83340,43.6849026,-114.3707184
125,Howard Drive,83340,43.6845196,-114.4030022
315,Skiway Drive,83340,43.6871164,-114.3997088
711,Walnut Avenue,83340,43.6846362,-114.3649340
210,Skiway Drive,83340,43.6870689,-114.4016802
220,Bald Mountain Road,83340,43.6908053,-114.3858807
160,Lindsay Circle,83340,43.6900633,-114.3704928
150,Belmont Drive,83340,43.6916934,-114.3876245
111,Evergreen Court,83340,43.6784752,-114.3721458
131,Sun Valley Road,83340,43.6798101,-114.3657245
130,Flower Drive,83340,43.6907851,-114.3829918
138,Irene Street,83340,43.6893932,-114.3911406
127,Saddle Road,83340,43.6924389,-114.3644786
297,Wood River Drive,83340,43.6741693,-114.3680979
119,Exhibition Boulevard,83340,43.6870603,-114.3748438
491,Leadville Avenue,83340,43.6820288,-114.3650241
208,Garnet Street,83340,43.6732721,-114.3585105
280,Leadville Avenue,83340,43.6791601,-114.3604233
304,Sage Road,83340,43.6890382,-114.4039721
1220,Canyon Run Boulevard,83340,43.6907440,-114.3806535
212,Pinewood Lane,83340,43.6848847,-114.3711382
455,Bigwood Drive,83340,43.7058982,-114.3686240
1908,Warm Springs Road,83340,43.6914260,-114.3850670
125,Graduate Drive,83340,43.6935379,-114.3705829
3023,Warm Springs Road,83340,43.6863995,-114.4028285
112,Frenchmans Court,83340,43.6774900,-114.3706506
115,Townhouse Lane,83340,43.6883026,-114.3806502
108,Pinewood Lane,83340,43.6854948,-114.3717112
160,Leadville Avenue,83340,43.6799503,-114.3613711
631,Washington Avenue,83340,43.6818900,-114.3677931
299,Wood River Drive,83340,43.6739958,-114.3683168
280,Sun Valley Road,83340,43.6775565,-114.3673147
135,Bird Drive,83340,43.6748273,-114.3688422
151,Red Fox Lane,83340,43.6909103,-114.3722859
119,Picabo Street,83340,43.6835928,-114.4013871
123,Saddle Road,83340,43.6922768,-114.3652728
315,Shady Lane,83340,43.6874458,-114.3982942
235,Spur Lane,83340,43.6910986,-114.3642051
202,Picabo Street,83340,43.6845621,-114.4020351
536,Broadway Court,83340,43.6867457,-114.3794909
440,East Avenue,83340,43.6827865,-114.3633743
413,Bald Mountain Road,83340,43.6897728,-114.3931627
240,Lloyd Court,83340,43.6841741,-114.4056125
100,Stoneridge Road,83340,43.6997924,-114.3665362
150,Flower Drive,83340,43.6908733,-114.3835636
310,Georginia Road,83340,43.6881605,-114.4002927
209,Ramona Lane,83340,43.6884642,-114.3749322
401,Northwood Way,83340,43.6916554,-114.3725211
101,Park Circle,83340,43.6890616,-114.3712636
531,Broadway Court,83340,43.6866295,-114.3791376
980,Leadville Avenue,83340,43.6850696,-114.3683070
604,Leadville Avenue,83340,43.6773708,-114.3596211
340,River Street,83340,43.6757024,-114.3657834
121,Four Seasons Way,83340,43.6913202,-114.3838770
205,Raven Road,83340,43.6929984,-114.3653636
140,Topaz Street,83340,43.6739255,-114.3597617
280,Sun Valley Road,83340,43.6778600,-114.3670678
130,Flower Drive,83340,43.6907860,-114.3830909
709,Wood River Drive,83340,43.6798474,-114.3738740
131,Washington Avenue,83340,43.6790576,-114.3640641
311,Georginia Road,83340,43.6881569,-114.3997128
104,Irene Street,83340,43.6899980,-114.3939894
104,Jane Lane,83340,43.6855020,-114.4031031
221,Washington Avenue,83340,43.6797713,-114.3651389
101,Aspen Drive,83340,43.6892522,-114.3971510
202,Picabo Street,83340,43.6844466,-114.4025370
120,River Ridge Lane,83340,43.6745936,-114.3673138
202,Picabo Street,83340,43.6843620,-114.4025328
150,Bird Drive,83340,43.6753709,-114.3696845
210,Skiway Drive,83340,43.6870162,-114.4014267
220,Cedar Drive,83340,43.6884959,-114.3967734
205,Jade Street,83340,43.6751809,-114.3597007
116,Short Swing Lane,83340,43.6914832,-114.3854269
270,Cottonwood Street,83340,43.6747161,-114.3633291
119,Picabo Street,83340,43.6843996,-114.4012110
228,Aspen Drive,83340,43.6879050,-114.3974259
300,Wood River Drive,83340,43.6731290,-114.3674852
127,Saddle Road,83340,43.6916140,-114.3643020
371,River Street,83340,43.6758989,-114.3667215
128,Saddle Road,83340,43.6930837,-114.3637520
120,Ritchie Drive,83340,43.6858494,-114.4029413
127,Saddle Road,83340,43.6920332,-114.3650194
1150,Canyon Run Boulevard,83340,43.6915981,-114.3806542
225,Raven Road,83340,43.6938021,-114.3651446
115,Exhibition Boulevard,83340,43.6871840,-114.3747620
113,Evergreen Court,83340,43.6786780,-114.3722047
101,Topaz Street,83340,43.6741022,-114.3607376
315,Skiway Drive,83340,43.6874394,-114.3997145
237,Pinewood Lane,83340,43.6839228,-114.3710672
315,Skiway Drive,83340,43.6859958,-114.3998671
340,River Street,83340,43.6746926,-114.3659292
125,River Ridge Lane,83340,43.6749804,-114.3671920
112,Spring Lane,83340,43.7015984,-114.3742197
360,East Avenue,83340,43.6824111,-114.3626221
150,Thunder Trail,83340,43.6948636,-114.3656768
305,Andora Lane,83340,43.6775249,-114.3621719
225,Raven Road,83340,43.6938140,-114.3653615
3212,Warm Springs Road,83340,43.6857375,-114.4047732
321,Bald Mountain Road,83340,43.6905031,-114.3901984
251,Washington Avenue,83340,43.6796553,-114.3647505
211,River Run Drive,83340,43.6868265,-114.3766407
229,Pinewood Lane,83340,43.6843429,-114.3718364
675,Sun Valley Road,83340,43.6836427,-114.3613130
392,Sage Road,83340,43.6882158,-114.4056271
119,Picabo Street,83340,43.6838187,-114.4008079
234,Cedar Drive,83340,43.6890404,-114.3967432
101,Williams Street,83340,43.6753692,-114.3706093
585,Wood River Drive,83340,43.6769192,-114.3738445
106,Wood River Drive North,83340,43.6810531,-114.3759348
121,Four Seasons Way,83340,43.6913688,-114.3838652
211,Lewis Street,83340,43.6867296,-114.3703982
301,Bell Drive,83340,43.6867941,-114.3686334
251,Washington Avenue,83340,43.6797127,-114.3649595
112,Irene Street,83340,43.6893658,-114.3934080
111,Wanderers Way,83340,43.6921355,-114.3867215
104,Jane Lane,83340,43.6855592,-114.4031702
231,Northwood Way,83340,43.6899674,-114.3697652
160,Flower Drive,83340,43.6912053,-114.3834500
170,Bordeaux Street,83340,43.6766426,-114.3728342
100,Flower Drive,83340,43.6908839,-114.3830063
146,Belmont Drive,83340,43.6916760,-114.3878852
221,Broadway Boulevard,83340,43.6861222,-114.3742888
360,East Avenue,83340,43.6823030,-114.3626083
155,Belmont Drive,83340,43.6921750,-114.3876722
291,Sun Valley Road,83340,43.6783887,-114.3679743
700,Leadville Avenue,83340,43.6837234,-114.3666233
115,Northwood Way,83340,43.6892624,-114.3702328
110,Lodge Lane,83340,43.6763843,-114.3706195
220,Parkway Drive,83340,43.6846466,-114.3729120
222,Williams Street,83340,43.6773101,-114.3715324
112,Evergreen Court,83340,43.6786849,-114.3724948
330,Gates Road,83340,43.6822605,-114.4063848
410,Bald Mountain Road,83340,43.6903259,-114.3922898
325,River Ridge Lane,83340,43.6759149,-114.3678658
315,Skiway Drive,83340,43.6859347,-114.3998703
140,River Street,83340,43.6771638,-114.3637008
100,Thunder Trail,83340,43.6934780,-114.3657426
108,River Run Drive,83340,43.6882720,-114.3761995
160,East Avenue,83340,43.6812388,-114.3613164
111,Pinewood Lane,83340,43.6848458,-114.3718348
591,Walnut Avenue,83340,43.6839168,-114.3637530
631,Washington Avenue,83340,43.6816808,-114.3676301
280,Cottonwood Street,83340,43.6745911,-114.3634902
1000,Warm Springs Road,83340,43.6854611,-114.3690707
180,West 1st Street,83340,43.6776357,-114.3650960
300,Spruce Avenue,83340,43.6839345,-114.3604688
960,Main Street,83340,43.6859578,-114.3668021
291,North Walnut Avenue,83340,43.6822168,-114.3616259
100,2nd Street East,83340,43.6788814,-114.3644614
100 N,Main Street,83340,43.6801172,-114.3624799
191,West 5th Street,83340,43.6811541,-114.3668693
860,Warm Springs Road,83340,43.6839114,-114.3681622
220,Lewis Street,83340,43.6871299,-114.3696407
500,East Avenue,83340,43.6832051,-114.3640120
900,3rd Avenue,83340,43.6816876,-114.3718571
131,2nd Street East,83340,43.6793361,-114.3648838
415,East Sun Valley Road,83340,43.6815355,-114.3633389
491,Sun Valley Road,83340,43.6814363,-114.3634184
100,Saddle Road,83340,43.6881521,-114.3725520
128,Saddle Road,83340,43.6930664,-114.3638315
245,Raven Road,83340,43.6948247,-114.3652212
111,Four Seasons Way,83340,43.6911861,-114.3839509
140,Four Seasons Way,83340,43.6921105,-114.3841118
220,Four Seasons Way,83340,43.6924659,-114.3841554
240,Four Seasons Way,83340,43.6925100,-114.3844518
150,Four Seasons Way,83340,43.6921827,-114.3845015
132,Short Swing Lane,83340,43.6925631,-114.3851596
128,Short Swing Lane,83340,43.6922703,-114.3852320
1908,Warm Springs Road,83340,43.6911018,-114.3847733
1908,Warm Springs Road,83340,43.6911542,-114.3851274
1908,Warm Springs Road,83340,43.6914062,-114.3850509
1908,Warm Springs Road,83340,43.6913762,-114.3847344
1908,Warm Springs Road,83340,43.6916195,-114.3848498
151,Four Seasons Way,83340,43.6918329,-114.3845668
260,Four Seasons Way,83340,43.6925428,-114.3848659
161,Four Seasons Way,83340,43.6919632,-114.3849387
112,Short Swing Lane,83340,43.6911929,-114.3855109
114,Short Swing Lane,83340,43.6914654,-114.3854198
120,Short Swing Lane,83340,43.6917272,-114.3853447
124,Short Swing Lane,83340,43.6919920,-114.3852830
108,Short Swing Lane,83340,43.6912462,-114.3857872
104,Short Swing Lane,83340,43.6912603,-114.3860946
102,Wanderers Way,83340,43.6913079,-114.3863695
105,Short Swing Lane,83340,43.6916783,-114.3859444
121,Short Swing Lane,83340,43.6919498,-114.3858853
140,Short Swing Lane,83340,43.6926684,-114.3857607
200,Warm Springs Road,83340,43.6907134,-114.3852175
210,Bald Mountain Road,83340,43.6907348,-114.3856225
220,Bald Mountain Road,83340,43.6907697,-114.3859739
201,Bald Mountain Road,83340,43.6902984,-114.3857177
215,Bald Mountain Road,83340,43.6903983,-114.3864406
1919,Warm Springs Road,83340,43.6908453,-114.3865989
221,Bald Mountain Road,83340,43.6904749,-114.3867464
250,Bald Mountain Road,83340,43.6908589,-114.3869623
229,Bald Mountain Road,83340,43.6905059,-114.3870576
2001,Warm Springs Road,83340,43.6909238,-114.3872278
2005,Warm Springs Road,83340,43.6908929,-114.3878394
1950,Warm Springs Road,83340,43.6913215,-114.3868791
2000,Warm Springs Road,83340,43.6913670,-114.3872922
166,Belmont Drive,83340,43.6917481,-114.3868939
111,Wanderers Way,83340,43.6921331,-114.3866833
117,Wanderers Way,83340,43.6924416,-114.3866175
261,Hillside Drive,83340,43.6929427,-114.3868696
259,Hillside Drive,83340,43.6929456,-114.3872143
251,Hillside Drive,83340,43.6929577,-114.3879244
256,Hillside Drive,83340,43.6925097,-114.3873631
161,Belmont Drive,83340,43.6921296,-114.3870266
159,Belmont Drive,83340,43.6922052,-114.3873263
160,Belmont Drive,83340,43.6917711,-114.3872801
150,Belmont Drive,83340,43.6917231,-114.3876145
252,Hillside Drive,83340,43.6924938,-114.3877108
155,Belmont Drive,83340,43.6922498,-114.3876743
248,Hillside Drive,83340,43.6924679,-114.3880063
151,Belmont Drive,83340,43.6922056,-114.3879258
141,Belmont Drive,83340,43.6921329,-114.3882919
240,Hillside Drive,83340,43.6924761,-114.3885997
135,Belmont Drive,83340,43.6920757,-114.3886145
136,Belmont Drive,83340,43.6916475,-114.3882892
132,Belmont Drive,83340,43.6916815,-114.3885735
2004,Warm Springs Road,83340,43.6913771,-114.3876367
2008,Warm Springs Road,83340,43.6913593,-114.3880039
2100,Warm Springs Road,83340,43.6913471,-114.3883968
2108,Warm Springs Road,83340,43.6912976,-114.3887581
2107,Warm Springs Road,83340,43.6908246,-114.3891919
231,Bald Mountain Road,83340,43.6905043,-114.3874187
271,Bald Mountain Road,83340,43.6905034,-114.3878028
301,Bald Mountain Road,83340,43.6904165,-114.3882208
305,Bald Mountain Road,83340,43.6902865,-114.3886878
307,Bald Mountain Road,83340,43.6901459,-114.3890568
318,Bald Mountain Road,83340,43.6904841,-114.3894939
233,Hillside Drive,83340,43.6928025,-114.3894509
236,Hillside Drive,83340,43.6924472,-114.3890014
125,Sheep Meadow Lane,83340,43.7004873,-114.3733905
151,Main Street,83340,43.6790691,-114.3628298
120 N,Main Street,83340,43.6797834,-114.3622426
180,South Main Street,83340,43.6795570,-114.3620724
210,Fox Run Road,83340,43.6962690,-114.3644526
151,North Main Street,83340,43.6797402,-114.3634291
251,North Main Street,83340,43.6801353,-114.3640638
320,North Main Street,83340,43.6810639,-114.3643467
300,North Main Street,83340,43.6809117,-114.3641656
480,4th Street East,83340,43.6819773,-114.3634315
380,East Avenue,83340,43.6823995,-114.3630540
