House number,Street name,Postal code,Latitude,Longitude
450,West 4th South,83440,43.8183093,-111.7966230
127,East Main Street,83440,43.8262763,-111.7798705
175,Valley River Drive,83440,43.8337585,-111.7785976
303,North 2nd East,83440,43.8324455,-111.7787946
163,West Main Street,83440,43.8257613,-111.7888059
1490,North 2nd East,83440,43.8568305,-111.7771545
383,South 2nd West,83440,43.8179351,-111.7887770
155,West Main,83440,43.8257011,-111.7886331
138,West Main Street,83440,43.8271499,-111.7885259
155,West Main Street,83440,43.8252182,-111.7886307
383,South 2nd West,83440,43.8180334,-111.7887768
155,West Main Street,83440,43.8253872,-111.7886307
76,West 2nd South,83440,43.8220603,-111.7863470
505,North 2nd East,83440,43.8366870,-111.7783550
10,East 2nd South,83460,43.8202016,-111.7832043
525,South Center Street,83460,43.8185555,-111.7821400
538,South 2nd West,83440,43.8150568,-111.7899113
179,West 2nd South,83440,43.8216871,-111.7891560
49,East Main Street,83440,43.8263639,-111.7820894
944,University Boulevard,83440-5057,43.8048386,-111.8116722
940,South 5th West,83440,43.8066528,-111.8010108
240,East Moody Road,83440,43.8545453,-111.7766313
1218,Bond Avenue,83440,43.8511410,-111.7771503
1586,North 2nd East,83440,43.8589594,-111.7772189
153,North 2nd East,83440,43.8294387,-111.7785503
217,North 2nd East,83440,43.8307911,-111.7784651
345,North 2nd East,83440,43.8330573,-111.7786767
345,North 2nd East,83440,43.8330570,-111.7784791
585,North 2nd East,83440,43.8381539,-111.7787647
400,Airport Road,83440,43.8346471,-111.8069024
885,West Main Street,83440,43.8247429,-111.8090864
280,West Main Street,83440,43.8267163,-111.8092065
450,East Main Street,83440,43.8257390,-111.7706923
490,North 2nd East,83440,43.8364494,-111.7754867
510,North 2nd East,83440,43.8368637,-111.7756590
478,North 2nd East,83440,43.8361362,-111.7775273
500,North 2nd East,83440,43.8367281,-111.7775435
475,North 2nd East Street,83440,43.8361280,-111.7809096
475,East 7th North,83440,43.8409255,-111.7699200
73,North Center Street,83440,43.8279146,-111.7845475
1175,West Main Street,83440,43.8254713,-111.8170776
750,South 2nd East,83440,43.8109063,-111.7790880
575,West 7th South,83440,43.8104335,-111.8010417
1098,Golden Beauty Drive,83440,43.8033523,-111.8116870
1177,South Yellowstone Highway,83440,43.8016683,-111.8093588
819,South Yellowstone Highway,83440,43.8088413,-111.8036688
615,South Yellowstone Highway,83440,43.8133403,-111.8004504
535,South Yellowstone Highway,83440,43.8147221,-111.7993649
460,West 4th South,83440,43.8180367,-111.7973263
215,West Main Street,83440,43.8256877,-111.7905639
202,West Main Street,83440,43.8264897,-111.7898809
250,West Main Street,83440,43.8266295,-111.7910443
279,West Main Street,83440,43.8257451,-111.7921573
163,West Main Street,83440,43.8258068,-111.7888129
155,West Main Street,83440,43.8254243,-111.7883236
149,West Main Street,83440,43.8256635,-111.7881196
117,West Main Street,83440,43.8257747,-111.7874311
111,West Main Street,83440,43.8257976,-111.7872390
135,West Main Street,83440,43.8257467,-111.7876672
22,West Main Street,83440,43.8263610,-111.7845416
5,West Main Street,83440,43.8257532,-111.7840517
2,East Main Street,83440,43.8257093,-111.7835671
10,East Main Street,83440,43.8257852,-111.7834060
16,East Main Street,83440,43.8257246,-111.7831566
20,College Avenue,83440,43.8255884,-111.7825830
26,East Main Street,83440,43.8257321,-111.7827454
48,East Main Street,83440,43.8256878,-111.7821825
54,East Main Street,83440,43.8257401,-111.7818931
64,East Main Street,83440,43.8257040,-111.7817263
80,East Main Street,83440,43.8256884,-111.7811883
72,East Main Street,83440,43.8257502,-111.7813400
52,East Main Street,83440,43.8257565,-111.7820421
110,East Main Street,83440,43.8256665,-111.7804945
124,East Main Street,83440,43.8257221,-111.7800876
134,East Main Street,83440,43.8257208,-111.7797015
130,East Main Street,83440,43.8257215,-111.7799011
164,East Main Street,83440,43.8255227,-111.7788150
159,East Main Street,83440,43.8264858,-111.7787569
145,East Main Street,83440,43.8269222,-111.7791227
77,East Main Street,83440,43.8263750,-111.7812880
59,East Main Street,83440,43.8264295,-111.7817922
41,East Main Street,83440,43.8264231,-111.7823321
47,East Main Street,83440,43.8264143,-111.7822211
49,East Main Street,83440,43.8264236,-111.7820879
35,North 1st East,83440,43.8269031,-111.7814754
26,North Center Street,83440,43.8269944,-111.7834682
25,North Center Street,83440,43.8274175,-111.7844091
19,East Main Street,83440,43.8264315,-111.7831219
39,East Main Street,83440,43.8264324,-111.7827070
25,East Main Street,83440,43.8264331,-111.7829239
39,West Main Street,83440,43.8256901,-111.7851823
31,West Main Street,83440,43.8256950,-111.7849409
42,North 2nd East,83440,43.8269966,-111.7776025
46,North 2nd East,83440,43.8273131,-111.7778096
64,North 2nd East,83440,43.8276809,-111.7777258
80,North 2nd East,83440,43.8279621,-111.7775918
55,North 2nd East,83440,43.8273564,-111.7786980
103,North 2nd East,83440,43.8284235,-111.7784998
117,North 2nd East,83440,43.8287317,-111.7785919
184,East 2nd North,83440,43.8299959,-111.7785423
156,North 2nd East,83440,43.8296164,-111.7773584
146,North 2nd East,83440,43.8293688,-111.7775609
210,North 2nd East,83440,43.8306428,-111.7775516
155,East 2nd North,83440,43.8307381,-111.7790765
224,North 2nd East,83440,43.8308423,-111.7775343
230,North 2nd East,83440,43.8310632,-111.7775760
240,North 2nd East,83440,43.8313992,-111.7775537
279,North 2nd East,83440,43.8319992,-111.7786414
321,North 2nd East,83440,43.8327443,-111.7785533
346,North 2nd East,83440,43.8335019,-111.7776486
404,North 2nd East,83440,43.8346526,-111.7774753
461,North 2nd East,83440,43.8357030,-111.7786453
525,North 2nd East,83440,43.8370471,-111.7790136
565,North 2nd East,83440,43.8377914,-111.7785032
594,North 2nd East,83440,43.8388700,-111.7774260
618,North 2nd East,83440,43.8392278,-111.7765596
650,North 2nd East,83440,43.8396804,-111.7766563
868,N Yellowstone Hwy,83440,43.8439200,-111.7756259
582,North 2nd East,83440,43.8383490,-111.7775011
290,North 1st East,83440,43.8323704,-111.7805133
257,North 2nd East,83440,43.8315439,-111.7788708
314,East 2nd North,83440,43.8297550,-111.7745599
315,Gary Drive,83440,43.8322662,-111.7657450
590,Summerwood Drive,83440,43.8299299,-111.8007086
700,Park Street,83440,43.8220353,-111.8039606
389,Mariah Avenue,83440,43.8175234,-111.8037535
845,West 7th South,83440,43.8110822,-111.8086297
289,West 7th South,83440,43.8107593,-111.7914449
387,South 4th East,83440,43.8176753,-111.7716492
110,West 1st North,83440,43.8285782,-111.7872384
1070,South 2nd East,83440,43.8037645,-111.7799293
134,East Main Street,83440,43.8263893,-111.7795651
101,East Main Street,83440-2017,43.8264314,-111.7806033
121,East Main Street,83440,43.8264270,-111.7800854
131,East Main Street,83440,43.8264588,-111.7797872
133,East Main Street,83440,43.8264588,-111.7797010
48,North 1st East,83440,43.8272703,-111.7805424
19,College Avenue,83440,43.8252286,-111.7820703
23,South 1st East,83440,43.8253065,-111.7805403
30,College Avenue,83440,43.8252238,-111.7826973
25,South Center Street,83440,43.8251486,-111.7830116
38,South Center Street,83440,43.8252523,-111.7842339
65,South Center Street,83440,43.8243502,-111.7834033
49,East 1st South,83440,43.8241565,-111.7821627
166,South 1st East,83440,43.8223090,-111.7814221
129,Princeton Court,83440,43.8231417,-111.7791578
75,South 1st West,83440,43.8249233,-111.7856690
75,West 1st South,83440,43.8244133,-111.7863396
60,West 1st South,83440,43.8242351,-111.7858680
61,North 1st East,83440,43.8276247,-111.7816280
76,East 1st North,83440,43.8279317,-111.7816117
36,East 1st North,83440,43.8277961,-111.7825348
76,East 1st North,83440,43.8280259,-111.7816109
612,South Hidden Valley Road,83440,43.8128561,-111.7616455
242,East Main Street,83440,43.8256373,-111.7767757
450,East Main Street,83440,43.8260977,-111.7707937
1450,North 2nd East,83440,43.8560475,-111.7738220
1420,North 2nd East,83440,43.8552442,-111.7768427
543,Pioneer Road,83440,43.8154948,-111.8075878
543,Pioneer Road,83440,43.8152675,-111.8076013
543,Pioneer Road,83440,43.8150314,-111.8075858
138,West 4th South,83440,43.8181106,-111.7880116
114,West 3rd South,83440,43.8200964,-111.7871766
315,South 3rd West,83440,43.8193263,-111.7920524
313,South 3rd West,83440,43.8195314,-111.7921076
128,West 3rd South,83440,43.8200398,-111.7876332
136,West 3rd South,83440,43.8200501,-111.7880006
109,South 2nd West,83440,43.8236941,-111.7892224
150,West 3rd South,83440,43.8200304,-111.7883020
232,West 3rd South,83440,43.8200011,-111.7907570
545,South 2nd East,83440,43.8140856,-111.7765867
649,South 2nd West,83440,43.8125612,-111.7887289
224,East 2nd South,83440,43.8216040,-111.7772385
2211,West 1000 South,83440,43.8105954,-111.8221292
68,North Center Street,83440,43.8277051,-111.7834861
111,West 7th South,83440,43.8099589,-111.7880321
454,South 12th West,83440,43.8164560,-111.8192065
210,South 12th West,83440,43.8213753,-111.8187842
2332,West 2000 South,83440,43.7977438,-111.8241747
530,North 2nd East,83440,43.8373143,-111.7753523
530,North 2nd East,83440,43.8377856,-111.7753484
673,North 2nd East,83440,43.8399838,-111.7785928
710,North 2nd East,83440,43.8407737,-111.7772811
438,West Main Street,83440,43.8269696,-111.7967602
379,South 2nd East,83440,43.8178589,-111.7775858
408,West Main Street,83440,43.8265180,-111.7957221
407,South 5th West,83440,43.8172055,-111.7973717
859,South Yellowstone Highway,83440,43.8064533,-111.8059426
366,Grand Loop,83440,43.8185830,-111.8004485
600,Handcart Lane,83440,43.8130693,-111.8042091
912,Anne St,83440,43.8187296,-111.8101664
664,North 2nd East,83440,43.8398301,-111.7774894
222,East 7th North,83440,43.8400586,-111.7772433
840,North 2nd East,83440,43.8429579,-111.7777746
901,North 2nd East,83440,43.8443969,-111.7789384
75,South 5th West,83440,43.8244873,-111.7977704
75,South 5th West,83440,43.8244890,-111.7972535
75,South 5th West,83440,43.8241995,-111.7970075
75,South 5th West,83440,43.8242095,-111.7971905
"269, 273",South 5th West,83440,43.8203070,-111.7967692
639,Handcart Lane,83440,43.8132247,-111.8032668
129,Princeton Court,83440,43.8229306,-111.7794345
397,Thomson Farms Road,83440,43.8460558,-111.7726769
870,North 2nd East,83440,43.8439811,-111.7773885
940,North 2nd East,83440,43.8457644,-111.7772059
1195,South Yellowstone Highway,83440,43.8010134,-111.8096881
727,North 2nd East,83440,43.8411163,-111.7785835
280,Lorene Street,83440,43.8381122,-111.7745396
221,North 3rd East,83440,43.8312015,-111.7758061
330,East 1st South,83440,43.8236793,-111.7740296
358,East 2nd South,83440,43.8210734,-111.7734114
250,East 4th South,83440,43.8174652,-111.7761205
465,South 2nd East,83440,43.8159676,-111.7773476
570,South 2nd West,83440,43.8140041,-111.7901895
350,West 6th South,83440,43.8141159,-111.7940912
549,South 4th West,83440,43.8152657,-111.7946145
430,West 2nd South,83440,43.8228714,-111.7967151
850,University Boulevard,83440,43.8040800,-111.8080814
1117,South Yellowstone Highway,83440,43.8024085,-111.8092320
132,South 3rd West,83440,43.8229906,-111.7929802
545,South 2nd East,83440,43.8137383,-111.7765330
