House number,Street name,Postal code,Latitude,Longitude
763,Sun Valley Condo Drive,83353,43.6947826,-114.3558813
2820,Summit 1 Condo Drive,83353,43.6771259,-114.3313322
114,Highlands Drive,83353,43.6764325,-114.3270339
1351,Dollar Meadow Condo Drive,83353,43.6926833,-114.3479233
3600,Ranch Court,83353,43.6721893,-114.3168568
7,Aspen Lane,83353,43.6664873,-114.3233327
4394,Fairway Nine Drive,83353,43.6814731,-114.3300848
101,Arrowleaf Road,83353,43.6732556,-114.3240362
69,Lane Ranch Road,83353,43.6606045,-114.3470011
3694,Upper Ranch Condo Drive,83353,43.6714561,-114.3152897
1466,Cottonwood Condo Drive,83353,43.6914930,-114.3531718
2232,Bonne Vie Condo Drive,83353,43.6798372,-114.3314564
3614,Upper Ranch Condo Drive,83353,43.6719054,-114.3161211
104,Blue Grouse Road,83353,43.6830416,-114.3292426
112,May Leaf,83353,43.6642893,-114.3176649
3528,Lower Ranch Condo Drive,83353,43.6717729,-114.3189166
4313;4314,Fairway Nine Drive,83353,43.6838897,-114.3309212
204,Lupine,83353,43.6665061,-114.3210773
110,Village Way,83353,43.6800801,-114.3327586
115,Highlands Drive,83353,43.6770099,-114.3278066
104,Village Way,83353,43.6790314,-114.3334553
119,Sunrise Drive,83353,43.6622623,-114.3306071
109,Senabi Lane,83353,43.6780422,-114.3341132
327,Juniper Road,83353,43.6639416,-114.3180527
1390,Dollar Meadow Condo Drive,83353,43.6910604,-114.3495454
3568,Lower Ranch Condo Drive,83353,43.6720542,-114.3201803
106,Blue Bell,83353,43.6654076,-114.3210269
206,Independence Creek Road,83353,43.6696032,-114.3130272
205,Sun Peak Drive,83353,43.7074530,-114.3502828
201,Blue Bell,83353,43.6655601,-114.3189768
4135;4136,Bluff Condo Drive,83353,43.6805656,-114.3268058
118,Highlands Drive,83353,43.6776804,-114.3268616
15,Crown Ranch Road,83353,43.6699473,-114.3178159
111,Angani Way,83353,43.6795088,-114.3339888
4386,Fairway Nine Drive,83353,43.6826886,-114.3306783
2248,Bonne Vie Condo Drive,83353,43.6794058,-114.3314125
7,Westlake Road,83353,43.6951968,-114.3511482
1432;1429,Cottonwood Condo Drive,83353,43.6917391,-114.3526946
205,Lupine,83353,43.6672471,-114.3210421
3,Black Birch Drive,83353,43.6658015,-114.3225020
106,Village Way,83353,43.6791967,-114.3331154
747;758,Sun Valley Condo Drive,83353,43.6946029,-114.3557658
3566,Lower Ranch Condo Drive,83353,43.6720734,-114.3202036
501,Wildflower Condo Drive,83353,43.6974707,-114.3503527
1091;1099,Atelier Condo Drive,83353,43.6956769,-114.3474890
105,Dandelion Westreet,83353,43.6755295,-114.3161372
1252,Villager Condo Drive,83353,43.6936769,-114.3468175
117,Highlands Drive,83353,43.6774043,-114.3279649
1296,Creekside Way,83353,43.6950519,-114.3468494
103,Silver Queen Drive,83353,43.6806049,-114.3128952
2415;2412,Indian Springs Condo Drive,83353,43.6801946,-114.3348038
102,Keystone,83353,43.6767264,-114.3094008
100,Bitterroot Drive,83353,43.6853663,-114.3581343
51,Lane Ranch Road,83353,43.6570281,-114.3464748
144,Clos Du Val,83353,43.7018561,-114.3510844
3664,Upper Ranch Condo Drive,83353,43.6711895,-114.3158640
113,Syringa,83353,43.6746996,-114.3188036
102,Skyline Spur,83353,43.6866067,-114.3355429
23,Cloud Nine Drive,83353,43.7072981,-114.3474120
2634,Ridge Lane,83353,43.6807242,-114.3310214
229,Bitterroot Road,83353,43.6810053,-114.3584550
693,Wildflower Condo Drive,83353,43.6953326,-114.3504907
4429,Nine Iron Drive,83353,43.6799872,-114.3289818
1229,Villager Condo Drive,83353,43.6931887,-114.3477846
602,Nez Perce Court,83353,43.6664815,-114.3507333
2448;2451,Indian Springs Condo Drive,83353,43.6796101,-114.3346838
1571,Snow Creek Condo Drive,83353,43.6897258,-114.3483064
307,Juniper Road,83353,43.6650431,-114.3218871
59,Lane Ranch Road,83353,43.6585661,-114.3469692
719,Fairway Road,83353,43.7118512,-114.3375820
106,Saddle Road,83353,43.6927937,-114.3602390
1098,Atelier Condo Drive,83353,43.6957612,-114.3475574
4110;4109,Bluff Condo Drive,83353,43.6798763,-114.3266104
303,Diamond Back Road,83353,43.7052061,-114.3540578
1469,Cottonwood Condo Drive,83353,43.6914696,-114.3528371
2444,Indian Springs Condo Drive,83353,43.6799690,-114.3346830
111,Senabi Lane,83353,43.6780357,-114.3342833
4398,Fairway Nine Drive,83353,43.6810187,-114.3298661
2437;2440,Indian Springs Condo Drive,83353,43.6798800,-114.3343465
207,Independence Creek Road,83353,43.6714570,-114.3115435
106,Village Way,83353,43.6793273,-114.3330716
108,Saddle Road,83353,43.6928094,-114.3608099
130,Lane's Way,83353,43.6602135,-114.3496630
201,Morning Star Road,83353,43.6740439,-114.3228950
117,Fireweed,83353,43.6818746,-114.3200582
4,Lane Creek Road,83353,43.6623170,-114.3456283
202,Independence Creek Road,83353,43.6701581,-114.3144011
45,Lane Ranch Road,83353,43.6561982,-114.3456476
3,Firewood Lane,83353,43.6651157,-114.3254228
500,Fairway Road,83353,43.7025764,-114.3414218
108,Elle Road,83353,43.7026342,-114.3510747
2618,Ridge Lane,83353,43.6810564,-114.3324239
861;869,Lodge Apartments Drive,83353,43.6934807,-114.3552787
3,Willow Road,83353,43.6575402,-114.3494481
3504,Lower Ranch Condo Drive,83353,43.6718051,-114.3177821
47,Lane Ranch Road,83353,43.6564899,-114.3457780
4305;4306,Fairway Nine Drive,83353,43.6835731,-114.3303417
236,Elkhorn Road,83353,43.6687327,-114.3244132
2641,Ridge Lane,83353,43.6811518,-114.3311804
212,Bitterroot Road,83353,43.6845011,-114.3585888
120,May Leaf,83353,43.6637323,-114.3174389
104,Village Way,83353,43.6789633,-114.3335848
108,Elkhorn Road,83353,43.6720704,-114.3222068
117,Skyline Drive,83353,43.6877532,-114.3387113
4621,Arrowwood Condo Drive,83353,43.6728060,-114.3186552
4040;4039,Bluff Condo Drive,83353,43.6794280,-114.3273300
212,Bitterroot Road,83353,43.6847801,-114.3581209
3,Fox Lane,83353,43.6707766,-114.3172918
5,Chateau Court,83353,43.6729380,-114.3223593
1505,Snow Creek Condo Drive,83353,43.6906008,-114.3489989
5,Westlake Road,83353,43.6944123,-114.3515031
12,Fox Lane,83353,43.6712693,-114.3188258
3506,Lower Ranch Condo Drive,83353,43.6717824,-114.3179739
411,Fairway Road,83353,43.7023723,-114.3424295
1333,Creekside Way,83353,43.6963900,-114.3455291
202,Sun Valley Road,83353,43.6853672,-114.3597051
123,Highlands Drive,83353,43.6790036,-114.3289560
511,Fairway Road,83353,43.7043556,-114.3409232
102,Parker Gulch,83353,43.6775695,-114.3108334
204,Sun Valley Road,83353,43.6854504,-114.3604494
2750,Sunburst Condo Drive,83353,43.6824832,-114.3363305
4637,Arrowwood Condo Drive,83353,43.6731969,-114.3183642
114,Syringa,83353,43.6744966,-114.3196566
209,Camas Loop,83353,43.6771479,-114.3189217
12,Chateau Circle,83353,43.6732640,-114.3211732
204,Sun Valley Road,83353,43.6856547,-114.3609634
2767,Sunburst Condo Drive,83353,43.6820031,-114.3349994
418,Fairway Road,83353,43.7021923,-114.3414407
101,Camas Loop,83353,43.6759387,-114.3211786
310,Diamond Back Road,83353,43.7081969,-114.3548139
3648,Upper Ranch Condo Drive,83353,43.6715996,-114.3167263
408,Cayuse Court,83353,43.6674268,-114.3509348
5,Golf Lane,83353,43.7056264,-114.3424773
5,Meadow Road,83353,43.6613697,-114.3502006
519,Juniper Road,83353,43.6561079,-114.3088322
2221,Bonne Vie Condo Drive,83353,43.6801775,-114.3318372
1045,Atelier Condo Drive,83353,43.6952140,-114.3483624
101,Grey Eagle,83353,43.6784315,-114.3136277
1208,Villager Condo Drive,83353,43.6934935,-114.3491854
104,Keystone,83353,43.6766077,-114.3081044
614,Nez Perce Court,83353,43.6667487,-114.3511698
1321,Creekside Way,83353,43.6962757,-114.3462028
105,Saddle Lane,83353,43.6933028,-114.3600112
13,Chateau Circle,83353,43.6734017,-114.3210641
2201,Bonne Vie Condo Drive,83353,43.6801160,-114.3322741
2695,Ridge Lane,83353,43.6824248,-114.3330978
1115,Atelier Condo Drive,83353,43.6960894,-114.3477949
32,Lane Ranch Road,83353,43.6551800,-114.3478715
102,Elkhorn Road,83353,43.6721727,-114.3239797
774,Sun Valley Condo Drive,83353,43.6943099,-114.3563809
3686,Upper Ranch Condo Drive,83353,43.6716910,-114.3157372
4608,Arrowwood Condo Drive,83353,43.6729567,-114.3179678
2778,Sunburst Condo Drive,83353,43.6813649,-114.3357219
8,Buck Lane,83353,43.6762767,-114.3160942
505,Fairway Road,83353,43.7033194,-114.3418355
3582,Lower Ranch Condo Drive,83353,43.6716624,-114.3193836
50,Lane Ranch Road,83353,43.6576735,-114.3452948
2668,Ridge Lane,83353,43.6817906,-114.3313766
780;791,Sun Valley Condo Drive,83353,43.6944915,-114.3562061
723,Fairway Road,83353,43.7121661,-114.3370279
905,Cheyenne Court,83353,43.6654263,-114.3510275
400,Fairway Loop,83353,43.6994682,-114.3426010
712,Sun Valley Condo Drive,83353,43.6950004,-114.3563366
2726,Sunburst Condo Drive,83353,43.6827826,-114.3356503
1579,Snow Creek Condo Drive,83353,43.6899824,-114.3493499
113,Blue Bell,83353,43.6655375,-114.3194241
113,Angani Way,83353,43.6798607,-114.3335860
4115;4116,Bluff Condo Drive,83353,43.6801924,-114.3266084
111,Angani Way,83353,43.6795807,-114.3338526
2676,Ridge Lane,83353,43.6823547,-114.3316538
405,Fairway Loop,83353,43.7003894,-114.3416404
3556,Lower Ranch Condo Drive,83353,43.6722748,-114.3198257
703,Weyyakin Court,83353,43.6667270,-114.3489339
112,Blue Bell,83353,43.6651101,-114.3199682
2670,Ridge Lane,83353,43.6818697,-114.3314453
1,Chateau Court,83353,43.6734812,-114.3227805
204,Sun Valley Road,83353,43.6846059,-114.3607625
212,Bitterroot Road,83353,43.6842655,-114.3593544
1299,Creekside Way,83353,43.6949954,-114.3465417
109,Parker Gulch,83353,43.6802074,-114.3092838
1273,Creekside Way,83353,43.6944554,-114.3457088
4315;4316,Fairway Nine Drive,83353,43.6839003,-114.3310142
1101,Atelier Condo Drive,83353,43.6957917,-114.3476714
98,Elkhorn Road,83353,43.6838325,-114.3325363
16,Villa Court,83353,43.6747862,-114.3204389
1202,Villager Condo Drive,83353,43.6933517,-114.3485753
20,Villa Court,83353,43.6749505,-114.3202304
120,High Country Lane,83353,43.6788454,-114.3263887
1243,Villager Condo Drive,83353,43.6934146,-114.3472365
3512,Lower Ranch Condo Drive,83353,43.6717878,-114.3182601
107,Saddle Lane,83353,43.6933603,-114.3607792
1403,Cottonwood Condo Drive,83353,43.6921121,-114.3522134
2275,Bonne Vie Condo Drive,83353,43.6797143,-114.3310525
730;742,Sun Valley Condo Drive,83353,43.6947055,-114.3563221
4342,Fairway Nine Drive,83353,43.6833437,-114.3319207
242,Elkhorn Road,83353,43.6682579,-114.3246147
2,Willow Road,83353,43.6583690,-114.3487126
8,Coyote Court,83353,43.6706167,-114.3177257
204,Sun Valley Road,83353,43.6846724,-114.3608526
111,Angani Way,83353,43.6795407,-114.3339603
121,Dandelion Westreet,83353,43.6751522,-114.3171759
119,Senabi Lane,83353,43.6784710,-114.3347705
110,Hardrock Lane,83353,43.6952753,-114.3424002
13,Crown Ranch Road,83353,43.6700141,-114.3180695
2680,Ridge Lane,83353,43.6820993,-114.3318777
1546,Snow Creek Condo Drive,83353,43.6906257,-114.3469998
36,Lane Ranch Road,83353,43.6552093,-114.3465584
120,High Country Lane,83353,43.6787744,-114.3263886
115,Fireweed,83353,43.6815955,-114.3208993
1236,Villager Condo Drive,83353,43.6932114,-114.3471869
100,Elkhorn Road,83353,43.6838325,-114.3321311
207,Arrowleaf Road,83353,43.6752587,-114.3260791
704,Sun Valley Condo Drive,83353,43.6950596,-114.3561497
2218,Bonne Vie Condo Drive,83353,43.6802890,-114.3319607
2,Creekside Lane,83353,43.6586373,-114.3476377
20,Chateau Circle,83353,43.6738953,-114.3214706
25,Lane Ranch Road,83353,43.6576293,-114.3478428
118,May Leaf,83353,43.6640987,-114.3175298
2259,Bonne Vie Condo Drive,83353,43.6792583,-114.3312769
710,Morning Star Road,83353,43.6754591,-114.3136625
105,Wedeln Lane,83353,43.6930790,-114.3415490
1456,Cottonwood Condo Drive,83353,43.6920783,-114.3537373
506,Juniper Road,83353,43.6588429,-114.3130784
7,Fox Lane,83353,43.6708555,-114.3177877
765,Sun Valley Condo Drive,83353,43.6948336,-114.3559202
510,Wildflower Condo Drive,83353,43.6972880,-114.3497390
2,Huckleberry Lane,83353,43.6668780,-114.3195623
1,Pete's Lane,83353,43.6646815,-114.3403905
111,Sagewillow Road,83353,43.6808236,-114.3240434
1389,Dollar Meadow Condo Drive,83353,43.6911351,-114.3494603
1336,Creekside Way,83353,43.6961370,-114.3454287
2775,Sunburst Condo Drive,83353,43.6815720,-114.3356446
1022;1010,Atelier Condo Drive,83353,43.6949059,-114.3489541
106,Arapaho Court,83353,43.6688157,-114.3547435
110,May Leaf,83353,43.6643609,-114.3180330
103,Bitterroot Road,83353,43.6871285,-114.3561092
102,Silverweed Way,83353,43.6872739,-114.3550278
115,Senabi Lane,83353,43.6782768,-114.3345213
2,Camp Way,83353,43.6712893,-114.3148851
119,Highlands Drive,83353,43.6778456,-114.3283593
703,Fairway Road,83353,43.7090313,-114.3395140
113,Angani Way,83353,43.6798334,-114.3337250
4348,Fairway Nine Drive,83353,43.6829848,-114.3318828
102,Snowbrush Lane,83353,43.6877675,-114.3539426
4357,Fairway Nine Drive,83353,43.6827961,-114.3312268
526,Juniper Road,83353,43.6546043,-114.3091363
2,Woodruff Court,83353,43.6623655,-114.3498163
4353,Fairway Nine Drive,83353,43.6826659,-114.3314453
100,Camas Loop,83353,43.6760333,-114.3202734
3,Dogwood Lane,83353,43.6615291,-114.3493461
2817;2816;2818,Summit 1 Condo Drive,83353,43.6773177,-114.3313935
224,Bitterroot Road,83353,43.6821857,-114.3587306
4629,Arrowwood Condo Drive,83353,43.6727236,-114.3198481
403,Morning Star Road,83353,43.6773403,-114.3169129
1233,Villager Condo Drive,83353,43.6931514,-114.3472633
2688,Ridge Lane,83353,43.6820651,-114.3326557
115,Angani Way,83353,43.6798733,-114.3329502
1463,Cottonwood Condo Drive,83353,43.6913935,-114.3531855
2768,Sunburst Condo Drive,83353,43.6818684,-114.3351757
17,Crown Ranch Road,83353,43.6698750,-114.3175552
716,Sun Valley Condo Drive,83353,43.6950630,-114.3561531
1224,Villager Condo Drive,83353,43.6940180,-114.3479662
1352,Dollar Meadow Condo Drive,83353,43.6926608,-114.3478653
105,Grey Eagle Drive,83353,43.6781583,-114.3147740
109,Sagewillow Road,83353,43.6809777,-114.3233925
3,Bunchberry Drive,83353,43.6650236,-114.3214932
1430,Cottonwood Condo Drive,83353,43.6916759,-114.3527742
116,Paintbrush,83353,43.6797987,-114.3169485
202,Sun Peak Drive,83353,43.7082787,-114.3488137
906,Cheyenne Court,83353,43.6655271,-114.3507401
3,Coyote Court,83353,43.6701526,-114.3173433
1316,Creekside Way,83353,43.6958440,-114.3460204
3618,Upper Ranch Condo Drive,83353,43.6717493,-114.3163509
4095;4096,Bluff Condo Drive,83353,43.6791597,-114.3264742
1373,Dollar Meadow Condo Drive,83353,43.6919956,-114.3485885
4023;4024,Bluff Condo Drive,83353,43.6798984,-114.3275972
4384,Fairway Nine Drive,83353,43.6826898,-114.3308214
1372,Dollar Meadow Condo Drive,83353,43.6920327,-114.3486235
1362,Dollar Meadow Condo Drive,83353,43.6922209,-114.3475993
2222,Bonne Vie Condo Drive,83353,43.6801744,-114.3316369
104,Village Way,83353,43.6790717,-114.3333996
1231,Villager Condo Drive,83353,43.6932284,-114.3476509
825;815,Sun Valley Condo Drive,83353,43.6939456,-114.3558320
419,Juniper Road,83353,43.6624951,-114.3145902
4137;4138,Bluff Condo Drive,83353,43.6807705,-114.3266444
109,Fairway Road,83353,43.6956893,-114.3443354
105,Sunrise Drive,83353,43.6629810,-114.3291465
204,Sun Valley Road,83353,43.6848887,-114.3605485
8,Crown Ranch Road,83353,43.6701307,-114.3188383
2,Dogwood Road,83353,43.6611755,-114.3487478
4410,Fairway Nine Drive,83353,43.6795415,-114.3296203
325,Juniper Road,83353,43.6640350,-114.3183352
103,Thistle Street,83353,43.6651993,-114.3236185
106,Lupine,83353,43.6654410,-114.3214856
121,May Leaf,83353,43.6636806,-114.3168868
610,Nez Perce Court,83353,43.6662891,-114.3519506
204,Sun Valley Road,83353,43.6846411,-114.3608102
1293,Creekside Way,83353,43.6947955,-114.3466318
4427,Nine Iron Drive,83353,43.6800371,-114.3291152
1112,Atelier Condo Drive,83353,43.6960087,-114.3478186
252,Elkhorn Road,83353,43.6671583,-114.3258374
2252,Bonne Vie Condo Drive,83353,43.6793510,-114.3313972
109,Fireweed,83353,43.6796149,-114.3210455
200,Fairway Road,83353,43.6960281,-114.3434594
1583,Snow Creek Condo Drive,83353,43.6900950,-114.3489557
2759,Sunburst Condo Drive,83353,43.6823458,-114.3354640
207,Bannock Court,83353,43.6681127,-114.3524742
213,Morning Star Road,83353,43.6753158,-114.3219098
1382,Dollar Meadow Condo Drive,83353,43.6913415,-114.3490683
2239,Bonne Vie Condo Drive,83353,43.6797412,-114.3312859
102,Elle Road,83353,43.7027373,-114.3510051
3530,Lower Ranch Condo Drive,83353,43.6719996,-114.3190862
4,Chateau Court,83353,43.6727499,-114.3226840
111,Angani Way,83353,43.6795697,-114.3339242
2754,Sunburst Condo Drive,83353,43.6822933,-114.3359888
812;807,Sun Valley Condo Drive,83353,43.6944439,-114.3557625
2812;2811;2810,Summit 1 Condo Drive,83353,43.6777004,-114.3316696
4012;4013,Bluff Condo Drive,83353,43.6805710,-114.3275813
1391,Dollar Meadow Condo Drive,83353,43.6910419,-114.3494824
4430,Nine Iron Drive,83353,43.6799541,-114.3289214
1569,Snow Creek Condo Drive,83353,43.6896308,-114.3482638
1548,Snow Creek Condo Drive,83353,43.6906369,-114.3471620
1328,Creekside Way,83353,43.6967255,-114.3455855
830;820,Sun Valley Condo Drive,83353,43.6940017,-114.3561542
4097;4098,Bluff Condo Drive,83353,43.6791529,-114.3266222
103,Snowbrush Lane,83353,43.6882321,-114.3545713
4,East Lake Road,83353,43.6926987,-114.3494310
305,Diamond Back Road,83353,43.7058910,-114.3545284
110,Paintbrush,83353,43.6784794,-114.3175748
8,Fox Lane,83353,43.6712307,-114.3180988
1413;1409,Cottonwood Condo Drive,83353,43.6921044,-114.3524392
234,Elkhorn Road,83353,43.6690260,-114.3241658
202,Sagewillow Road,83353,43.6841625,-114.3250368
1443,Cottonwood Condo Drive,83353,43.6917063,-114.3530539
402,Fairway Road,83353,43.7002377,-114.3426305
6,Willow Road,83353,43.6583199,-114.3496259
1420,Cottonwood Condo Drive,83353,43.6919251,-114.3524919
2749,Sunburst Condo Drive,83353,43.6825173,-114.3363812
118,Baldy View Lane,83353,43.6837280,-114.3565843
727;739,Sun Valley Condo Drive,83353,43.6946381,-114.3564449
1080;1072,Atelier Condo Drive,83353,43.6950637,-114.3475279
19,Buck Lane,83353,43.6766079,-114.3156386
730,Morning Star Road,83353,43.6738051,-114.3160981
2610,Ridge Lane,83353,43.6814702,-114.3329147
1424,Cottonwood Condo Drive,83353,43.6918879,-114.3525067
2667,Ridge Lane,83353,43.6817564,-114.3313235
2706,Sunburst Condo Drive,83353,43.6821196,-114.3344063
4001,Bluff Condo Drive,83353,43.6811956,-114.3271587
104,Skyline Spur,83353,43.6861852,-114.3341557
106,Elkhorn Road,83353,43.6720817,-114.3226980
4045,Bluff Condo Drive,83353,43.6791250,-114.3271700
3,Chateau Court,83353,43.6728272,-114.3232878
601;604,Wildflower Condo Drive,83353,43.6969214,-114.3492114
402,Cayuse Court,83353,43.6674055,-114.3519888
2790,Sunburst Condo Drive,83353,43.6811216,-114.3350331
1465,Cottonwood Condo Drive,83353,43.6913985,-114.3531817
2730,Sunburst Condo Drive,83353,43.6830079,-114.3357259
514,Juniper Road,83353,43.6574344,-114.3112502
810;805,Sun Valley Condo Drive,83353,43.6943421,-114.3558792
220,Elkhorn Road,83353,43.6698308,-114.3233105
4421,Nine Iron Drive,83353,43.6806453,-114.3288276
206,Fairway Road,83353,43.6969183,-114.3432767
106,Angani Way,83353,43.6788241,-114.3343414
212,Lupine,83353,43.6682853,-114.3175276
108,Syringa,83353,43.6749590,-114.3195716
1063,Atelier Condo Drive,83353,43.6957599,-114.3484217
213,Independence Creek Road,83353,43.6715267,-114.3094307
507,Fairway Road,83353,43.7038960,-114.3412558
204,Sun Valley Road,83353,43.6852171,-114.3604225
111,Paintbrush,83353,43.6778777,-114.3181843
4128,Bluff Condo Drive,83353,43.6803385,-114.3270624
864;856,Lodge Apartments Drive,83353,43.6935883,-114.3550689
62,Lane Ranch Road,83353,43.6605609,-114.3460842
1545;1544,Snow Creek Condo Drive,83353,43.6908435,-114.3471504
8,Camp Way,83353,43.6711423,-114.3144522
103,Arapaho Court,83353,43.6689756,-114.3540445
3500,Lower Ranch Condo Drive,83353,43.6718300,-114.3176764
3516,Lower Ranch Condo Drive,83353,43.6717903,-114.3183669
113,Camas Loop,83353,43.6776585,-114.3219636
3,Wildrose Lane,83353,43.6566987,-114.3470806
104,Village Way,83353,43.6789427,-114.3333683
4343,Fairway Nine Drive,83353,43.6832844,-114.3319366
2729,Sunburst Condo Drive,83353,43.6829816,-114.3357875
115,Sagewillow Road,83353,43.6809654,-114.3254367
4328,Fairway Nine Drive,83353,43.6839784,-114.3317176
216,Independence Creek Road,83353,43.6698757,-114.3072424
201,Sagewillow Road,83353,43.6841111,-114.3261562
1,Lodge Entry Lane,83353,43.6958565,-114.3538160
7,Willow Road,83353,43.6581524,-114.3504072
1268,Creekside Way,83353,43.6940912,-114.3459264
3,Woodruff Court,83353,43.6621223,-114.3502752
521,Juniper Road,83353,43.6563921,-114.3075042
108,Arapaho Court,83353,43.6692154,-114.3545021
3652,Upper Ranch Condo Drive,83353,43.6713355,-114.3164072
301,Fairway Road,83353,43.6981482,-114.3439814
2289,Bonne Vie Condo Drive,83353,43.6801512,-114.3309516
201,Sun Valley Road,83353,43.6835988,-114.3596424
605,Nez Perce Court,83353,43.6660075,-114.3510373
1223,Villager Condo Drive,83353,43.6939834,-114.3479257
204,Bannock Court,83353,43.6686951,-114.3522095
1209,Villager Condo Drive,83353,43.6935005,-114.3490084
2717,Sunburst Condo Drive,83353,43.6827517,-114.3349182
1076,Atelier Condo Drive,83353,43.6950887,-114.3474590
4634,Arrowwood Condo Drive,83353,43.6731877,-114.3190339
115,Angani Way,83353,43.6798286,-114.3330882
109,Sunrise Drive,83353,43.6628266,-114.3295461
4513,Legends Condo Drive,83353,43.6836341,-114.3347945
4126;4127,Bluff Condo Drive,83353,43.6802699,-114.3270855
211,Snowbrush Lane,83353,43.6861040,-114.3553812
2607,Ridge Lane,83353,43.6817291,-114.3329671
4613,Arrowwood Condo Drive,83353,43.6725084,-114.3177746
3690,Upper Ranch Condo Drive,83353,43.6716001,-114.3155372
104,Village Way,83353,43.6791119,-114.3333548
210,Sun Peak Drive,83353,43.7075958,-114.3512480
111,Angani Way,83353,43.6795363,-114.3339758
109,Defiance Street,83353,43.6791525,-114.3092627
2,Villa Court,83353,43.6744459,-114.3215161
1028;1040,Atelier Condo Drive,83353,43.6953305,-114.3483802
17,Chateau Circle,83353,43.6735926,-114.3207680
109,Angani Way,83353,43.6790341,-114.3339751
4350,Fairway Nine Drive,83353,43.6828350,-114.3317483
517;512;580,Wildflower Condo Drive,83353,43.6972864,-114.3493315
1412,Cottonwood Condo Drive,83353,43.6921485,-114.3525577
2241,Bonne Vie Condo Drive,83353,43.6796323,-114.3313281
212,Blue Bell,83353,43.6651270,-114.3168956
216,Elkhorn Road,83353,43.6698578,-114.3224689
2615,Ridge Lane,83353,43.6811666,-114.3326576
204,Prospector Road,83353,43.6965643,-114.3415124
737,Sun Valley Condo Drive,83353,43.6946467,-114.3566862
7,Old Dollar Road,83353,43.6929382,-114.3490029
17,Buck Lane,83353,43.6768426,-114.3156559
44,Lane Ranch Road,83353,43.6561392,-114.3446323
1239,Villager Condo Drive,83353,43.6931913,-114.3467180
1472,Cottonwood Condo Drive,83353,43.6914694,-114.3528371
5,Mock Orange,83353,43.6661559,-114.3240358
2639,Ridge Lane,83353,43.6809676,-114.3310413
527,Juniper Road,83353,43.6545702,-114.3077548
111,Arrowleaf Road,83353,43.6742279,-114.3259065
108,Sunrise Drive,83353,43.6634790,-114.3300180
752,Sun Valley Condo Drive,83353,43.6947975,-114.3558927
5003,Fairway One,83353,43.6774090,-114.3332027
113,Angani Way,83353,43.6798008,-114.3337658
102,Syringa,83353,43.6751645,-114.3190313
103,Paintbrush,83353,43.6765585,-114.3181693
106,Dandelion Eastreet,83353,43.6757133,-114.3159320
734,Morning Star Road,83353,43.6736772,-114.3163465
240,Elkhorn Road,83353,43.6684460,-114.3243714
1000,Chief Joseph Court,83353,43.6654367,-114.3523727
227,Bitterroot Road,83353,43.6814104,-114.3582469
910,Cheyenne Court,83353,43.6649666,-114.3499857
4,Back Pay Way,83353,43.7007472,-114.3376793
91,Elkhorn Road,83353,43.6850660,-114.3326015
113;115,Dandelion Westreet,83353,43.6755295,-114.3165485
204,Sun Valley Road,83353,43.6848794,-114.3610404
3558,Lower Ranch Condo Drive,83353,43.6722908,-114.3198784
1531;1530,Snow Creek Condo Drive,83353,43.6912786,-114.3475022
205,Sunrise Drive,83353,43.6638440,-114.3278687
3524,Lower Ranch Condo Drive,83353,43.6718004,-114.3188152
303,Kootenai Court,83353,43.6676109,-114.3533954
410,Morning Star Road,83353,43.6770760,-114.3142646
115,Angani Way,83353,43.6800438,-114.3330568
209,Sunrise Drive,83353,43.6641058,-114.3275000
120,Paintbrush,83353,43.6805112,-114.3181580
5005,Fairway One,83353,43.6775335,-114.3334886
205,Camas Loop,83353,43.6780522,-114.3191373
103,Hardrock Lane,83353,43.6951727,-114.3432782
4605,Arrowwood Condo Drive,83353,43.6731843,-114.3175671
104,Saddle Road,83353,43.6928786,-114.3597524
4501,Legends Condo Drive,83353,43.6825829,-114.3336589
1452,Cottonwood Condo Drive,83353,43.6921152,-114.3529921
2713,Sunburst Condo Drive,83353,43.6825495,-114.3345656
4509,Legends Condo Drive,83353,43.6833097,-114.3343457
107,Blue Bell,83353,43.6658940,-114.3206239
211,Bitterroot Road,83353,43.6840437,-114.3569338
99,Blue Grouse Road,83353,43.6845224,-114.3302826
1206,Villager Condo Drive,83353,43.6934094,-114.3484092
6,Fox Lane,83353,43.6712027,-114.3178464
1503,Snow Creek Condo Drive,83353,43.6905382,-114.3491355
6,Monarch Lane,83353,43.7080295,-114.3540259
1302,Creekside Way,83353,43.6950653,-114.3463891
4025;4026,Bluff Condo Drive,83353,43.6799209,-114.3274976
305,Morning Star Road,83353,43.6758259,-114.3180810
1255,Villager Condo Drive,83353,43.6936075,-114.3463302
5001,Fairway One,83353,43.6773901,-114.3329758
3532,Lower Ranch Condo Drive,83353,43.6720404,-114.3189120
4041;4042,Bluff Condo Drive,83353,43.6793451,-114.3273774
4423,Nine Iron Drive,83353,43.6804464,-114.3288447
115,Angani Way,83353,43.6799416,-114.3332617
1504,Snow Creek Condo Drive,83353,43.6905832,-114.3490634
1257,Villager Condo Drive,83353,43.6937030,-114.3462885
204,Fairway Road,83353,43.6967205,-114.3431037
218,Bitterroot Road,83353,43.6831564,-114.3587097
2715,Sunburst Condo Drive,83353,43.6826832,-114.3348165
4,Westlake Road,83353,43.6936978,-114.3514217
782,Sun Valley Condo Drive,83353,43.6942829,-114.3564226
214,Snowbrush Lane,83353,43.6863767,-114.3559417
2638,Ridge Lane,83353,43.6809207,-114.3310290
102,Weyyakin Drive,83353,43.6694429,-114.3539333
4620,Arrowwood Condo Drive,83353,43.6724984,-114.3187250
4607,Arrowwood Condo Drive,83353,43.6730611,-114.3179738
48,Lane Ranch Road,83353,43.6572506,-114.3449975
3592,Lower Ranch Condo Drive,83353,43.6715631,-114.3197701
2475;2472,Indian Springs Condo Drive,83353,43.6794371,-114.3349845
4123,Bluff Condo Drive,83353,43.6801409,-114.3270160
4618,Arrowwood Condo Drive,83353,43.6724856,-114.3182857
2761,Sunburst Condo Drive,83353,43.6823458,-114.3353259
714,Morning Star Road,83353,43.6749431,-114.3143561
71,Lane Ranch Road,83353,43.6610533,-114.3468906
140,Lane's Way,83353,43.6600368,-114.3494158
4124;4125,Bluff Condo Drive,83353,43.6802022,-114.3270314
2243,Bonne Vie Condo Drive,83353,43.6796881,-114.3312841
319,Juniper Road,83353,43.6643331,-114.3193026
109,Village Way,83353,43.6803685,-114.3322883
841;835,Lodge Apartments Drive,83353,43.6940653,-114.3554879
1356,Dollar Meadow Condo Drive,83353,43.6926319,-114.3476484
100,Sage Creek Reservoir Road,83353,43.6680792,-114.3162286
401,Fairway Loop,83353,43.7001719,-114.3423433
103,Blue Bell,83353,43.6661012,-114.3211164
705,Teheya Court,83353,43.6659123,-114.3496475
1339,Creekside Way,83353,43.6958730,-114.3453856
2694,Ridge Lane,83353,43.6823711,-114.3330802
608,Elkhorn Road,83353,43.6628368,-114.3510484
105,Camas Loop,83353,43.6764554,-114.3221778
1284,Creekside Way,83353,43.6953161,-114.3458728
212,Elkhorn Road,83353,43.6702808,-114.3226537
110,Village Way,83353,43.6801973,-114.3328439
3550,Lower Ranch Condo Drive,83353,43.6721130,-114.3197174
1039;1027,Atelier Condo Drive,83353,43.6953838,-114.3484291
2669,Ridge Lane,83353,43.6818355,-114.3313922
2409,Indian Springs Condo Drive,83353,43.6800518,-114.3351251
711,Morning Star Road,83353,43.6740937,-114.3122494
202,Elkhorn Road,83353,43.6710999,-114.3208640
4331,Fairway Nine Drive,83353,43.6837246,-114.3317949
109,Angani Way,83353,43.6792096,-114.3337096
4,Villa Court,83353,43.6744951,-114.3213157
313,Diamond Back Road,83353,43.7083321,-114.3568126
621;624,Wildflower Condo Drive,83353,43.6966592,-114.3486801
30,Lane Ranch Road,83353,43.6551847,-114.3485356
4309;4310,Fairway Nine Drive,83353,43.6838492,-114.3307461
3594,Lower Ranch Condo Drive,83353,43.6715741,-114.3200028
104;106,Village Way,83353,43.6791231,-114.3332446
209,Morning Star Road,83353,43.6753158,-114.3226195
26,Villa Court,83353,43.6753556,-114.3201466
2482,Indian Springs Condo Drive,83353,43.6794210,-114.3355502
1,Community School Drive,83353,43.6894526,-114.3523124
105,Paintbrush,83353,43.6769147,-114.3182465
2647;2646,Ridge Lane,83353,43.6815437,-114.3322581
3526,Lower Ranch Condo Drive,83353,43.6717984,-114.3188691
2606,Ridge Lane,83353,43.6817661,-114.3330053
2678,Ridge Lane,83353,43.6822653,-114.3317080
102,Blue Grouse Road,83353,43.6835808,-114.3293592
2622,Ridge Lane,83353,43.6809419,-114.3320075
1101,Weyyakin Drive,83353,43.6637204,-114.3473660
1368,Dollar Meadow Condo Drive,83353,43.6919423,-114.3478163
1221,Villager Condo Drive,83353,43.6937979,-114.3481866
2764,Sunburst Condo Drive,83353,43.6821514,-114.3350799
1378,Dollar Meadow Condo Drive,83353,43.6916147,-114.3488573
411,Fairway Loop,83353,43.7010313,-114.3417178
205,Bannock Court,83353,43.6684798,-114.3520490
100,Baldy View Lane,83353,43.6805098,-114.3568527
888,Lodge Apartments Drive,83353,43.6932168,-114.3562189
110,Grey Eagle,83353,43.6787914,-114.3163330
110,Village Way,83353,43.6801341,-114.3328665
202,Meadowridge Road,83353,43.6716986,-114.3276517
1562,Snow Creek Condo Drive,83353,43.6899177,-114.3478773
1357,Dollar Meadow Condo Drive,83353,43.6924055,-114.3474916
75,Lane Ranch Road,83353,43.6617997,-114.3467289
206,Sun Valley Road,83353,43.6842732,-114.3601465
404,Fairway Road,83353,43.7004835,-114.3424418
404,Juniper Road,83353,43.6623843,-114.3169965
1421,Cottonwood Condo Drive,83353,43.6918112,-114.3525815
204,Sagewillow Road,83353,43.6847214,-114.3253712
7,Meadow Road,83353,43.6612225,-114.3507169
523,Juniper Road,83353,43.6552810,-114.3072216
4368;4369,Fairway Nine Drive,83353,43.6831808,-114.3308124
7,Black Birch Drive,83353,43.6660271,-114.3231814
2728,Sunburst Condo Drive,83353,43.6827650,-114.3357935
4143;4144,Bluff Condo Drive,83353,43.6808347,-114.3266267
238,Elkhorn Road,83353,43.6685513,-114.3239603
2623,Ridge Lane,83353,43.6809077,-114.3319485
1061,Atelier Condo Drive,83353,43.6957880,-114.3483578
1291,Creekside Way,83353,43.6947019,-114.3465830
721,Fairway Road,83353,43.7123931,-114.3375671
115,Angani Way,83353,43.6798247,-114.3330749
532;529;537,Wildflower Condo Drive,83353,43.6972580,-114.3486769
204,Sun Valley Road,83353,43.6855430,-114.3604648
203,Sun Peak Drive,83353,43.7078293,-114.3496663
107,Arrowleaf Road,83353,43.6736075,-114.3252479
4633,Arrowwood Condo Drive,83353,43.6731082,-114.3191711
1447,Cottonwood Condo Drive,83353,43.6920018,-114.3530803
1377,Dollar Meadow Condo Drive,83353,43.6916306,-114.3487176
6,West Lake Road,83353,43.6947442,-114.3512641
3696,Upper Ranch Condo Drive,83353,43.6714851,-114.3152786
11,Chateau Circle,83353,43.6731878,-114.3213833
111,Angani Way,83353,43.6795038,-114.3340570
2268,Bonne Vie Condo Drive,83353,43.6794873,-114.3310553
301,Horseshoe Road,83353,43.6808810,-114.3262305
104,Village Way,83353,43.6789242,-114.3336336
4601,Arrowwood Condo Drive,83353,43.6734004,-114.3168957
2732,Sunburst Condo Drive,83353,43.6831177,-114.3356788
2774,Sunburst Condo Drive,83353,43.6816273,-114.3356420
509,Shoshone Court,83353,43.6674036,-114.3528569
305,Fairway Road,83353,43.6990485,-114.3437707
113,Sagewillow Road,83353,43.6808238,-114.3247334
170,Lane's Way,83353,43.6589123,-114.3494067
661;665,Wildflower Condo Drive,83353,43.6956928,-114.3493112
120,Skyline Drive,83353,43.6885319,-114.3396683
1539;1538,Snow Creek Condo Drive,83353,43.6910302,-114.3472872
4624,Arrowwood Condo Drive,83353,43.6726456,-114.3190980
2411,Indian Springs Condo Drive,83353,43.6801891,-114.3348957
2685,Ridge Lane,83353,43.6819798,-114.3323348
6,Lane Ranch Road,83353,43.6596861,-114.3486808
3562,Lower Ranch Condo Drive,83353,43.6722645,-114.3202467
2723,Sunburst Condo Drive,83353,43.6830091,-114.3353133
109,Village Way,83353,43.6802549,-114.3324116
180,Lane's Way,83353,43.6587983,-114.3499115
2377;2380,Indian Springs Condo Drive,83353,43.6805104,-114.3351054
109,Angani Way,83353,43.6792182,-114.3336865
1292,Creekside Way,83353,43.6947361,-114.3465356
3654,Upper Ranch Condo Drive,83353,43.6713087,-114.3163675
100,Fairway Road,83353,43.6941248,-114.3447229
108,Paintbrush,83353,43.6781884,-114.3173824
2712,Sunburst Condo Drive,83353,43.6824954,-114.3345489
111,Skyline Drive,83353,43.6871998,-114.3376029
2497,Indian Springs Condo Drive,83353,43.6797589,-114.3358439
1263,Creekside Way,83353,43.6942504,-114.3462891
3,Pete's Lane,83353,43.6682219,-114.3371904
63,Lane Ranch Road,83353,43.6594238,-114.3466505
102,Defiance Street,83353,43.6771617,-114.3073030
2687,Ridge Lane,83353,43.6819940,-114.3324860
3640,Upper Ranch Condo Drive,83353,43.6715098,-114.3170416
101,Weyyakin Drive,83353,43.6695904,-114.3545783
1250,Villager Condo Drive,83353,43.6934631,-114.3466881
109,Village Way,83353,43.6803501,-114.3324122
104,Parker Gulch,83353,43.6779588,-114.3102732
4391,Fairway Nine Drive,83353,43.6817755,-114.3302328
2744,Sunburst Condo Drive,83353,43.6828348,-114.3365933
1210,Villager Condo Drive,83353,43.6935196,-114.3490714
4,Black Birch Drive,83353,43.6661323,-114.3224088
49,Lane Ranch Road,83353,43.6567686,-114.3461065
7,Lane Ranch Road,83353,43.6605262,-114.3478336
103,Fireweed,83353,43.6786901,-114.3213568
1033,Atelier Condo Drive,83353,43.6952446,-114.3483905
1277,Creekside Way,83353,43.6947033,-114.3457168
126,Senabi Lane,83353,43.6787021,-114.3351584
708,Teheya Court,83353,43.6663861,-114.3501205
53,Lane Ranch Road,83353,43.6573025,-114.3467796
507,Juniper Road,83353,43.6607524,-114.3093409
109,Village Way,83353,43.6803868,-114.3322330
4008,Bluff Condo Drive,83353,43.6807904,-114.3272650
3564,Lower Ranch Condo Drive,83353,43.6721839,-114.3203892
3674,Upper Ranch Condo Drive,83353,43.6713728,-114.3155184
1331,Creekside Way,83353,43.6964880,-114.3454868
3692,Upper Ranch Condo Drive,83353,43.6715887,-114.3154813
1371,Dollar Meadow Condo Drive,83353,43.6920642,-114.3484890
209,Snowbrush Lane,83353,43.6863778,-114.3552603
104,Village Way,83353,43.6788914,-114.3336797
226,Bitterroot Road,83353,43.6817892,-114.3587939
14,Cloud Nine Drive,83353,43.7073141,-114.3481981
1249,Villager Condo Drive,83353,43.6934364,-114.3466321
4301;4302,Fairway Nine Drive,83353,43.6835099,-114.3301817
103,Skyline Drive,83353,43.6859740,-114.3362785
104,Village Way,83353,43.6789427,-114.3333677
4046;4047,Bluff Condo Drive,83353,43.6790718,-114.3271267
402,Juniper Road,83353,43.6626540,-114.3176696
2679,Ridge Lane,83353,43.6822505,-114.3317826
38,Lane Ranch Road,83353,43.6552054,-114.3456504
100,Dandelion Westreet,83353,43.6758606,-114.3169531
3,Mock Orange,83353,43.6661009,-114.3244133
201,Diamond Back Road,83353,43.7042879,-114.3529006
2517,Indian Springs Condo Drive,83353,43.6805047,-114.3359087
142,Clos Du Val,83353,43.7018794,-114.3511755
120,Sunrise Drive,83353,43.6625874,-114.3309580
1019;1007,Atelier Condo Drive,83353,43.6948795,-114.3488383
16,Meadow Road,83353,43.6604059,-114.3517617
505,Shoshone Court,83353,43.6667637,-114.3531327
5,Black Birch Drive,83353,43.6658570,-114.3228446
204,Sun Valley Road,83353,43.6855313,-114.3608497
1,Meadow Road,83353,43.6607760,-114.3495542
104,Skyline Drive,83353,43.6869161,-114.3365027
1360,Dollar Meadow Condo Drive,83353,43.6923062,-114.3476155
8,Villa Court,83353,43.6745012,-114.3209917
204,Sun Valley Road,83353,43.6849114,-114.3606003
662;659,Wildflower Condo Drive,83353,43.6957866,-114.3493440
151,Diamond Back Road,83353,43.7033686,-114.3517990
41,Lane Ranch Road,83353,43.6559073,-114.3462912
613,Nez Perce Court,83353,43.6665412,-114.3512626
517,Juniper Road,83353,43.6570817,-114.3083849
4612,Arrowwood Condo Drive,83353,43.6724577,-114.3174689
199,Sun Peak Drive,83353,43.7064493,-114.3499458
2277,Bonne Vie Condo Drive,83353,43.6797867,-114.3310710
109,Village Way,83353,43.6802733,-114.3323563
1554,Snow Creek Condo Drive,83353,43.6902249,-114.3474201
19,Chateau Circle,83353,43.6739984,-114.3208048
1396,Dollar Meadow Condo Drive,83353,43.6910808,-114.3500533
204,Sun Valley Road,83353,43.6852957,-114.3609636
3,Foxtail,83353,43.6661364,-114.3204914
1,Harker Lane,83353,43.6746014,-114.3159456
118,Elkhorn Road,83353,43.6714420,-114.3207347
107,Camas Loop,83353,43.6763603,-114.3212803
4630,Arrowwood Condo Drive,83353,43.6728030,-114.3197108
2,Fox Lane,83353,43.6710994,-114.3172852
2,Firewood Lane,83353,43.6656025,-114.3253462
203,Blue Bell,83353,43.6655733,-114.3186889
4415,Nine Iron Drive,83353,43.6809017,-114.3292401
2737,Sunburst Condo Drive,83353,43.6833638,-114.3364036
10,Fox Lane,83353,43.6712410,-114.3183647
106,Village Way,83353,43.6793986,-114.3329340
3602,Ranch Court,83353,43.6721113,-114.3166200
531;535;540,Wildflower Condo Drive,83353,43.6972379,-114.3485783
2483;2480,Indian Springs Condo Drive,83353,43.6792717,-114.3354062
2797,Sunburst Condo Drive,83353,43.6815134,-114.3347628
109,Village Way,83353,43.6803685,-114.3323569
4514,Legends Condo Drive,83353,43.6836954,-114.3348111
1475,Cottonwood Condo Drive,83353,43.6913968,-114.3527214
4615,Arrowwood Condo Drive,83353,43.6727834,-114.3182086
1559,Snow Creek Condo Drive,83353,43.6899417,-114.3476472
1247,Villager Condo Drive,83353,43.6934032,-114.3467643
109,Camas Loop,83353,43.6768116,-114.3218690
1217,Villager Condo Drive,83353,43.6936556,-114.3482949
2,Crown Point Lane,83353,43.6706570,-114.3182330
9,Old Dollar Drive,83353,43.6930655,-114.3495638
901;904,Lodge Apartments Drive,83353,43.6935564,-114.3561134
740,Morning Star Road,83353,43.6734867,-114.3165834
112,Elkhorn Road,83353,43.6719705,-114.3214587
1549,Snow Creek Condo Drive,83353,43.6906312,-114.3472550
1026,Atelier Condo Drive,83353,43.6953619,-114.3483175
93,Elkhorn Road,83353,43.6848934,-114.3320022
702,Fairway Road,83353,43.7092314,-114.3383189
2519;2516,Indian Springs Condo Drive,83353,43.6804403,-114.3359376
106,Defiance Street,83353,43.6782038,-114.3079085
667,Wildflower Condo Drive,83353,43.6957332,-114.3493255
4520,Legends Condo Drive,83353,43.6840995,-114.3357607
4333,Fairway Nine Drive,83353,43.6836198,-114.3318186
213,Bitterroot Road,83353,43.6837974,-114.3573887
519,Fairway Road,83353,43.7063227,-114.3401685
2809;2808;2807,Summit 1 Condo Drive,83353,43.6778479,-114.3317542
411,Juniper Road,83353,43.6633010,-114.3156160
27,Lane Ranch Road,83353,43.6573158,-114.3476441
3574,Lower Ranch Condo Drive,83353,43.6718543,-114.3198496
110,Dandelion Westreet,83353,43.6755269,-114.3177365
4131;4132,Bluff Condo Drive,83353,43.6804903,-114.3269091
413,Fairway Loop,83353,43.7014421,-114.3417372
1560,Snow Creek Condo Drive,83353,43.6899373,-114.3477153
215,Sunrise Drive,83353,43.6643239,-114.3268335
1271,Creekside Way,83353,43.6944075,-114.3458594
1248,Villager Condo Drive,83353,43.6934234,-114.3468218
107,Blue Grouse Road,83353,43.6830386,-114.3283189
2459;2456,Indian Springs Condo Drive,83353,43.6793172,-114.3346638
164,Proctor View Drive,83353,43.7032648,-114.3523526
3,Boleana Lane,83353,43.6660386,-114.3181390
43,Lane Ranch Road,83353,43.6560621,-114.3458843
222,Bitterroot Road,83353,43.6824906,-114.3587287
4632,Arrowwood Condo Drive,83353,43.6729824,-114.3193636
106,Juniper Road,83353,43.6655055,-114.3246892
204,Sun Valley Road,83353,43.6856894,-114.3607215
102,May Leaf,83353,43.6648938,-114.3195161
4341,Fairway Nine Drive,83353,43.6833884,-114.3319074
118,Sunrise Drive,83353,43.6630712,-114.3312153
57,Lane Ranch Road,83353,43.6580978,-114.3470441
105,Sagewillow Road,83353,43.6818259,-114.3224100
90,Elkhorn Road,83353,43.6847623,-114.3345531
114,Blue Bell,83353,43.6650938,-114.3195505
204,Sun Valley Road,83353,43.6848430,-114.3604503
8,Chateau Circle,83353,43.6730796,-114.3220417
406,Cayuse Court,83353,43.6678217,-114.3513589
2823;2822;2824,Summit 1 Condo Drive,83353,43.6773184,-114.3316112
658;653;649,Wildflower Condo Drive,83353,43.6958737,-114.3493940
9,Willow Road,83353,43.6585695,-114.3506046
2736,Sunburst Condo Drive,83353,43.6834027,-114.3363599
1011,Atelier Condo Drive,83353,43.6948482,-114.3489011
2721,Sunburst Condo Drive,83353,43.6829066,-114.3352503
202,Bannock Court,83353,43.6689492,-114.3527603
108,Wedeln Lane,83353,43.6912300,-114.3421960
601,Nez Perce Court,83353,43.6666764,-114.3506209
110,Dandelion Eastreet,83353,43.6757779,-114.3156429
160,Lane's Way,83353,43.6589957,-114.3489677
708,Fairway Road,83353,43.7105423,-114.3369965
14,Meadow Road,83353,43.6612190,-114.3518061
2831;2828;2825,Summit 2 Condo Drive,83353,43.6771705,-114.3325229
204,Sun Peak Drive,83353,43.7087629,-114.3495678
11,Dogwood Court,83353,43.6628737,-114.3486723
5,Boleana Lane,83353,43.6661979,-114.3183783
4411,Fairway Nine Drive,83353,43.6793779,-114.3296521
2633;2632,Ridge Lane,83353,43.6809217,-114.3313967
2509;2506,Indian Springs Condo Drive,83353,43.6800569,-114.3359686
724,Morning Star Road,83353,43.6740460,-114.3159986
3576,Lower Ranch Condo Drive,83353,43.6718458,-114.3196455
121,Syringa,83353,43.6744198,-114.3196604
4048;4049,Bluff Condo Drive,83353,43.6789921,-114.3270551
3510,Lower Ranch Condo Drive,83353,43.6717965,-114.3180794
611,Nez Perce Court,83353,43.6664213,-114.3517042
58,Lane Ranch Road,83353,43.6595740,-114.3456811
1,Back Pay Way,83353,43.7037096,-114.3400421
302,Juniper Road,83353,43.6647062,-114.3230548
2697,Ridge Lane,83353,43.6823577,-114.3334543
1354,Dollar Meadow Condo Drive,83353,43.6926574,-114.3469922
1259,Villager Condo Drive,83353,43.6945012,-114.3472126
108,Skyline Drive,83353,43.6876266,-114.3371417
2742,Sunburst Condo Drive,83353,43.6830316,-114.3365871
106,Farnlun Place,83353,43.6707813,-114.3550144
113,May Leaf,83353,43.6645910,-114.3173088
1459,Cottonwood Condo Drive,83353,43.6924516,-114.3537383
4352,Fairway Nine Drive,83353,43.6827725,-114.3316290
2653,Ridge Lane,83353,43.6813566,-114.3319317
2225,Bonne Vie Condo Drive,83353,43.6802061,-114.3316764
312,Diamond Back Road,83353,43.7083345,-114.3554989
110,Lane's Way,83353,43.6598430,-114.3510681
13,Buck Lane,83353,43.6766569,-114.3161815
4133;4134,Bluff Condo Drive,83353,43.6805711,-114.3269197
409,Fairway Loop,83353,43.7007624,-114.3417172
1407,Cottonwood Condo Drive,83353,43.6921111,-114.3522162
9,Fox Lane,83353,43.6708524,-114.3180389
2436,Indian Springs Condo Drive,83353,43.6798078,-114.3342945
1555,Snow Creek Condo Drive,83353,43.6901753,-114.3474934
107,Syringa,83353,43.6751133,-114.3185033
1332,Creekside Way,83353,43.6964627,-114.3454335
102,Dandelion Westreet,83353,43.6757850,-114.3174330
1,Rose Court,83353,43.6621753,-114.3524504
1535;1534,Snow Creek Condo Drive,83353,43.6913390,-114.3473021
1254,Villager Condo Drive,83353,43.6937166,-114.3466838
2273,Bonne Vie Condo Drive,83353,43.6798085,-114.3310942
204,Sun Valley Road,83353,43.6851678,-114.3604193
3,Lane Creek Road,83353,43.6627431,-114.3460311
204,Sun Valley Road,83353,43.6851537,-114.3609989
201,Snowbrush Lane,83353,43.6874161,-114.3540856
5,Camp Way,83353,43.6708438,-114.3151171
1,Camp Way,83353,43.6713410,-114.3148745
206,Sun Peak Drive,83353,43.7085480,-114.3503586
260,Elkhorn Road,83353,43.6659565,-114.3270822
104,Silver Queen Drive,83353,43.6793225,-114.3122012
4370;4371,Fairway Nine Drive,83353,43.6831831,-114.3307218
417,Juniper Road,83353,43.6630895,-114.3139296
2403;2406,Indian Springs Condo Drive,83353,43.6800256,-114.3352972
3,East Lake Road,83353,43.6922565,-114.3489798
2648,Ridge Lane,83353,43.6815894,-114.3320532
1374,Dollar Meadow Condo Drive,83353,43.6919507,-114.3485872
2508,Indian Springs Condo Drive,83353,43.6801960,-114.3358851
116,Elkhorn Road,83353,43.6715986,-114.3212899
217,Bitterroot Road,83353,43.6830998,-114.3577177
103,Proctor Mountain Road,83353,43.7090907,-114.3378529
23,Crown Ranch Road,83353,43.6699090,-114.3167400
722,Morning Star Road,83353,43.6740791,-114.3160561
1342,Creekside Way,83353,43.6958452,-114.3455951
1558,Snow Creek Condo Drive,83353,43.6899395,-114.3475539
106,Village Way,83353,43.6792747,-114.3332171
148,Clos Du Val,83353,43.7016779,-114.3509331
4345,Fairway Nine Drive,83353,43.6830950,-114.3320208
513,Juniper Road,83353,43.6587346,-114.3089810
3540,Lower Ranch Condo Drive,83353,43.6722385,-114.3189993
2835,Summit 2 Condo Drive,83353,43.6768354,-114.3320680
108,Dandelion Westreet,83353,43.6754785,-114.3174523
311,Juniper Road,83353,43.6649045,-114.3208781
1392,Dollar Meadow Condo Drive,83353,43.6912089,-114.3502747
1218,Villager Condo Drive,83353,43.6936887,-114.3483419
4360;4361,Fairway Nine Drive,83353,43.6832017,-114.3313050
207,Snowbrush Lane,83353,43.6866385,-114.3549685
208,Bannock Court,83353,43.6682601,-114.3526823
1117;1109,Atelier Condo Drive,83353,43.6961808,-114.3479582
210,Independence Creek Road,83353,43.6691370,-114.3107782
104,Village Way,83353,43.6788466,-114.3334975
4378;4379,Fairway Nine Drive,83353,43.6830638,-114.3302436
215,Morning Star Road,83353,43.6754157,-114.3215752
3688,Upper Ranch Condo Drive,83353,43.6716209,-114.3155827
2251,Bonne Vie Condo Drive,83353,43.6794320,-114.3314212
102,Saddle Lane,83353,43.6937007,-114.3594630
106,Sunrise Drive,83353,43.6635329,-114.3297619
2777,Sunburst Condo Drive,83353,43.6813754,-114.3357907
1335,Creekside Way,83353,43.6961712,-114.3453813
1411,Cottonwood Condo Drive,83353,43.6920573,-114.3525960
707;719,Sun Valley Condo Drive,83353,43.6951071,-114.3560093
2741,Sunburst Condo Drive,83353,43.6830768,-114.3365662
4117;4118,Bluff Condo Drive,83353,43.6801348,-114.3266868
4121;4122,Bluff Condo Drive,83353,43.6802404,-114.3266755
102,Blue Bell,83353,43.6657238,-114.3214552
246,Elkhorn Road,83353,43.6678202,-114.3249917
1577,Snow Creek Condo Drive,83353,43.6899290,-114.3494663
6,Firewood Lane,83353,43.6651318,-114.3258526
3632,Ranch Court,83353,43.6718265,-114.3170383
4426,Nine Iron Drive,83353,43.6803077,-114.3289426
4500,Legends Condo Drive,83353,43.6825233,-114.3336107
111,Sunrise Drive,83353,43.6627479,-114.3297529
3668,Upper Ranch Condo Drive,83353,43.6711242,-114.3156419
641;638,Wildflower Condo Drive,83353,43.6961603,-114.3488897
102,Boulder Court,83353,43.6632210,-114.3501747
2663,Ridge Lane,83353,43.6814974,-114.3312479
1048,Atelier Condo Drive,83353,43.6950805,-114.3482398
1473,Cottonwood Condo Drive,83353,43.6914236,-114.3527000
117,May Leaf,83353,43.6642468,-114.3169061
225,Blue Bell,83353,43.6668921,-114.3157887
1519,Snow Creek Condo Drive,83353,43.6909359,-114.3480052
104,Hardrock Lane,83353,43.6946661,-114.3435253
119,Syringa,83353,43.6743694,-114.3191278
2796,Sunburst Condo Drive,83353,43.6814497,-114.3347854
4376;4377,Fairway Nine Drive,83353,43.6830955,-114.3303235
102,Grey Eagle,83353,43.6793931,-114.3138211
1037,Atelier Condo Drive,83353,43.6953925,-114.3483456
1274,Creekside Way,83353,43.6944288,-114.3456514
3536,Lower Ranch Condo Drive,83353,43.6720641,-114.3188058
1066;1074,Atelier Condo Drive,83353,43.6952050,-114.3475535
1402,Cottonwood Condo Drive,83353,43.6920820,-114.3521504
204,Blue Bell,83353,43.6650874,-114.3184879
2707,Sunburst Condo Drive,83353,43.6821683,-114.3344222
6,Back Pay Way,83353,43.7004592,-114.3369526
3624,Ranch Court,83353,43.6718460,-114.3166818
501,Shoshone Court,83353,43.6669901,-114.3523236
106,May Leaf,83353,43.6645532,-114.3187177
1,Monarch Lane,83353,43.7067752,-114.3535297
117,Sunrise Drive,83353,43.6624447,-114.3304139
2416;2413,Indian Springs Condo Drive,83353,43.6801653,-114.3347095
2784,Sunburst Condo Drive,83353,43.6809311,-114.3357850
102,Angani Way,83353,43.6786204,-114.3341068
1067,Atelier Condo Drive,83353,43.6951209,-114.3474852
504,Fairway Road,83353,43.7032468,-114.3411233
24,Cloud Nine Drive,83353,43.7073908,-114.3476378
2,Chateau Court,83353,43.6732183,-114.3230846
1394,Dollar Meadow Condo Drive,83353,43.6910534,-114.3501689
302,Diamond Back Road,83353,43.7055869,-114.3531753
2696,Ridge Lane,83353,43.6824039,-114.3333848
515,Juniper Road,83353,43.6578896,-114.3085950
210,Bitterroot Road,83353,43.6843536,-114.3580288
11,Crown Ranch Road,83353,43.6701462,-114.3183433
111,Angani Way,83353,43.6797029,-114.3338560
1355,Dollar Meadow Condo Drive,83353,43.6926544,-114.3477064
2765,Sunburst Condo Drive,83353,43.6821045,-114.3350558
3644,Upper Ranch Condo Drive,83353,43.6715229,-114.3169359
4395,Fairway Nine Drive,83353,43.6813209,-114.3299728
3548,Lower Ranch Condo Drive,83353,43.6722587,-114.3193718
113,Fireweed,83353,43.6805868,-114.3214392
20,Larrys Lane,83353,43.6684373,-114.3277479
901,Cheyenne Court,83353,43.6648007,-114.3504601
1219,Villager Condo Drive,83353,43.6937582,-114.3482492
106,Dandelion Westreet,83353,43.6755921,-114.3172465
101,Dandelion Westreet,83353,43.6756149,-114.3164345
209,Sun Peak Drive,83353,43.7068781,-114.3512804
106,Highlands Drive,83353,43.6767046,-114.3288433
1222,Villager Condo Drive,83353,43.6938234,-114.3482485
2780,Sunburst Condo Drive,83353,43.6811317,-114.3358384
244,Elkhorn Road,83353,43.6680264,-114.3247935
306,Juniper Road,83353,43.6640924,-114.3226132
2635,Ridge Lane,83353,43.6807768,-114.3310362
1584,Snow Creek Condo Drive,83353,43.6901114,-114.3488907
4,Lane Ranch Road,83353,43.6600631,-114.3488196
1127;1123,Atelier Condo Drive,83353,43.6963757,-114.3477997
202,Fairway Road,83353,43.6962258,-114.3431867
201,Bannock Court,83353,43.6688389,-114.3530184
111,Defiance Street,83340,43.6796437,-114.3084898
551;555;560,Wildflower Condo Drive,83353,43.6972136,-114.3479771
412,Fairway Loop,83353,43.7010413,-114.3410139
2734,Sunburst Condo Drive,83353,43.6834762,-114.3362571
4351,Fairway Nine Drive,83353,43.6828012,-114.3317029
1075,Atelier Condo Drive,83353,43.6951443,-114.3475042
1323,Creekside Way,83353,43.6965215,-114.3461886
2735,Sunburst Condo Drive,83353,43.6834395,-114.3363120
201,Meadowridge Road,83353,43.6718823,-114.3269811
116;118,Syringa,83353,43.6744299,-114.3196416
1370,Dollar Meadow Condo Drive,83353,43.6921012,-114.3485240
101,Morning Star Road,83353,43.6728935,-114.3241263
109,Blue Grouse Road,83353,43.6824299,-114.3283008
2785,Sunburst Condo Drive,83353,43.6812346,-114.3355234
2619,Ridge Lane,83353,43.6810286,-114.3323735
4311;4312,Fairway Nine Drive,83353,43.6838823,-114.3308310
1329,Creekside Way,83353,43.6966431,-114.3456780
404,Cayuse Court,83353,43.6678187,-114.3519351
4419,Nine Iron Drive,83353,43.6807441,-114.3288768
85,Elkhorn Road,83353,43.6853494,-114.3347010
2651,Ridge Lane,83353,43.6814604,-114.3319811
578,Wildflower Condo Drive,83353,43.6967615,-114.3480931
220,Bitterroot Road,83353,43.6828269,-114.3587440
208,Bitterroot Road,83353,43.6843675,-114.3576139
94,Elkhorn Road,83353,43.6842921,-114.3334698
2384,Indian Springs Condo Drive,83353,43.6804944,-114.3348656
204,Sun Valley Road,83353,43.6854940,-114.3604566
20,Lane Ranch Road,83353,43.6568877,-114.3486466
1215,Villager Condo Drive,83353,43.6936896,-114.3486066
404,Fairway Loop,83353,43.6998195,-114.3416689
1578,Snow Creek Condo Drive,83353,43.6899611,-114.3494113
718,Morning Star Road,83353,43.6744063,-114.3149979
111,Camas Loop,83353,43.6773194,-114.3220590
207,Bitterroot Road,83353,43.6848198,-114.3560555
258,Elkhorn Road,83353,43.6666085,-114.3267206
107,Grey Eagle,83353,43.6778521,-114.3152245
111,Dandelion Westreet,83353,43.6754687,-114.3165513
7,Buck Lane,83353,43.6766182,-114.3166512
605,Fairway Road,83353,43.7080785,-114.3393982
1285,Creekside Way,83353,43.6952482,-114.3459625
1294,Creekside Way,83353,43.6948295,-114.3465896
1401,Cottonwood Condo Drive,83353,43.6921944,-114.3520618
1119,Atelier Condo Drive,83353,43.6960323,-114.3478376
541;544,Wildflower Condo Drive,83353,43.6972631,-114.3483730
100,Fireweed,83353,43.6782317,-114.3201611
112,Skyline Drive,83353,43.6881066,-114.3376385
107,Thistle Street,83353,43.6647309,-114.3243041
705,Fairway Road,83353,43.7094691,-114.3394331
4518,Legends Condo Drive,83353,43.6838815,-114.3351614
200,Arrowleaf Road,83353,43.6773553,-114.3262808
1408,Cottonwood Condo Drive,83353,43.6920832,-114.3521495
715,Fairway Road,83353,43.7112364,-114.3377177
1287,Creekside Way,83353,43.6946771,-114.3469405
4030;4029,Bluff Condo Drive,83353,43.6798260,-114.3275542
46,Lane Ranch Road,83353,43.6567474,-114.3448040
1384,Dollar Meadow Condo Drive,83353,43.6912826,-114.3489577
2220,Bonne Vie Condo Drive,83353,43.6801362,-114.3319376
406,Morning Star Road,83353,43.6767198,-114.3152001
1270,Creekside Way,83353,43.6941390,-114.3457760
110,Fireweed,83353,43.6808006,-114.3198566
4007,Bluff Condo Drive,83353,43.6808475,-114.3273304
407,Cayuse Court,83353,43.6676530,-114.3511178
2762,Sunburst Condo Drive,83353,43.6823521,-114.3352493
113,Arrowleaf Road,83353,43.6739433,-114.3257416
210,Sunrise Drive,83353,43.6636933,-114.3268018
202,Blue Bell,83353,43.6649890,-114.3188142
206,Big Wells Road,83353,43.6970977,-114.3426751
903,Cheyenne Court,83353,43.6649660,-114.3510150
216,Bitterroot Road,83353,43.6835104,-114.3585797
104,Elle Road,83353,43.7028227,-114.3511924
719,Morning Star Road,83353,43.6733550,-114.3145923
108,Fireweed,83353,43.6804968,-114.3198555
204,Sun Valley Road,83353,43.6849901,-114.3609273
111,Fireweed,83353,43.6799444,-114.3211653
2,Lane Ranch Road,83353,43.6604145,-114.3489312
109,Dandelion Westreet,83353,43.6755347,-114.3165509
329,Juniper Road,83353,43.6638000,-114.3177554
2702,Sunburst Condo Drive,83353,43.6818089,-114.3343725
19,Cloud Nine Drive,83353,43.7070269,-114.3473729
1276,Creekside Way,83353,43.6947035,-114.3459047
11,Willow Road,83353,43.6589891,-114.3507444
1580,Snow Creek Condo Drive,83353,43.6900075,-114.3492906
1326,Creekside Way,83353,43.6965159,-114.3459863
4093;4094,Bluff Condo Drive,83353,43.6791014,-114.3265312
106,Fairway Road,83353,43.6948554,-114.3440344
104,Sunrise Drive,83353,43.6635461,-114.3293809
115,Syringa,83353,43.6746275,-114.3189213
109,Angani Way,83353,43.6792712,-114.3339663
206,Blue Bell,83353,43.6652115,-114.3182090
109,Paintbrush,83353,43.6776198,-114.3181728
1107,Atelier Condo Drive,83353,43.6960659,-114.3477758
847;844;838,Lodge Apartments Drive,83353,43.6939268,-114.3553502
106,Camas Loop,83353,43.6770173,-114.3204917
3586,Lower Ranch Condo Drive,83353,43.6716366,-114.3194888
2681,Ridge Lane,83353,43.6820630,-114.3319223
4364;4365,Fairway Nine Drive,83353,43.6831576,-114.3311278
4327,Fairway Nine Drive,83353,43.6840284,-114.3316955
1125;1121,Atelier Condo Drive,83353,43.6964101,-114.3477377
1256,Villager Condo Drive,83353,43.6936301,-114.3463846
2219,Bonne Vie Condo Drive,83353,43.6803357,-114.3318635
209,Meadowridge Road,83353,43.6701604,-114.3276103
1553,Snow Creek Condo Drive,83353,43.6902361,-114.3473530
4638,Arrowwood Condo Drive,83353,43.6731821,-114.3182071
1458,Cottonwood Condo Drive,83353,43.6922450,-114.3536558
2,Pete's Lane,83353,43.6663750,-114.3439404
892;895;898,Lodge Apartments Drive,83353,43.6934081,-114.3561890
2269,Bonne Vie Condo Drive,83353,43.6794160,-114.3311132
784,Sun Valley Condo Drive,83353,43.6943354,-114.3563939
2602,Ridge Lane,83353,43.6819718,-114.3333825
102,Sage Lane,83353,43.6612900,-114.3123764
6,Chateau Circle,83353,43.6733988,-114.3222603
107,Sagewillow Road,83353,43.6809611,-114.3225125
4505,Legends Condo Drive,83353,43.6829954,-114.3338816
203,Prospector Road,83353,43.6965706,-114.3424256
123,May Leaf,83353,43.6634160,-114.3169525
222,Blue Bell,83353,43.6647388,-114.3158296
4347,Fairway Nine Drive,83353,43.6830207,-114.3319412
1312,Creekside Way,83353,43.6958480,-114.3464113
5,Dogwood Lane,83353,43.6620080,-114.3490452
204,Camas Loop,83353,43.6764406,-114.3196763
4009,Bluff Condo Drive,83353,43.6807383,-114.3273388
512,Fairway Road,83353,43.7046133,-114.3397471
1089,Atelier Condo Drive,83353,43.6957933,-114.3475834
111,Angani Way,83353,43.6794449,-114.3340356
1049;1053,Atelier Condo Drive,83353,43.6954262,-114.3486150
700,Fairway Road,83353,43.7087212,-114.3383242
202,Prospector Road,83353,43.6962818,-114.3416320
2739,Sunburst Condo Drive,83353,43.6831824,-114.3365072
1230,Villager Condo Drive,83353,43.6932154,-114.3478405
728,Morning Star Road,83353,43.6738569,-114.3158493
1334,Creekside Way,83353,43.6963667,-114.3454681
106,Village Way,83353,43.6793912,-114.3328906
403,Fairway Road,83353,43.7004187,-114.3434767
1261,Villager Condo Drive,83353,43.6946008,-114.3471725
6,Black Birch Drive,83353,43.6661390,-114.3227212
606,Elkhorn Road,83353,43.6634241,-114.3497490
4400,Fairway Nine Drive,83353,43.6807910,-114.3297166
1275,Creekside Way,83353,43.6947292,-114.3458505
12,Cloud Nine Drive,83353,43.7071317,-114.3485234
311,Diamond Back Road,83353,43.7078379,-114.3567978
110,Thistle Street,83353,43.6646709,-114.3250930
701,Sun Valley Condo Drive,83353,43.6950190,-114.3563557
1116,Atelier Condo Drive,83353,43.6960337,-114.3477497
8,Back Pay Way,83353,43.7005593,-114.3383186
200,Lane's Way,83353,43.6594435,-114.3508887
4401,Fairway Nine Drive,83353,43.6806249,-114.3296037
101,Saddle Lane,83353,43.6929516,-114.3588613
208,Sunrise Drive,83353,43.6635645,-114.3269442
107,Senabi Lane,83353,43.6781031,-114.3338947
207,Blue Bell,83353,43.6658539,-114.3179046
108,Silver Queen Drive,83353,43.6808958,-114.3109969
1550,Snow Creek Condo Drive,83353,43.6904842,-114.3472872
2389;2386,Indian Springs Condo Drive,83353,43.6803639,-114.3349950
1556,Snow Creek Condo Drive,83353,43.6901528,-114.3477658
630;633,Wildflower Condo Drive,83353,43.6964317,-114.3487246
107,Defiance Street,83353,43.6786937,-114.3097135
4002;4003,Bluff Condo Drive,83353,43.6811154,-114.3271954
112,Elle Road,83353,43.7021663,-114.3505633
4372;4373,Fairway Nine Drive,83353,43.6831659,-114.3306299
106,Village Way,83353,43.6791928,-114.3330965
1462,Cottonwood Condo Drive,83353,43.6924134,-114.3522496
138,Clos Du Val,83353,43.7020829,-114.3512995
105,Skyline Spur,83353,43.6874137,-114.3353843
104,Village Way,83353,43.6790245,-114.3332658
12,Back Pay Way,83353,43.6990694,-114.3392800
4510,Legends Condo Drive,83353,43.6834119,-114.3345386
21,Lane Ranch Road,83353,43.6582990,-114.3477932
4397,Fairway Nine Drive,83353,43.6810802,-114.3298806
2747,Sunburst Condo Drive,83353,43.6826962,-114.3364968
502,Juniper Road,83353,43.6602551,-114.3145736
4366;4367,Fairway Nine Drive,83353,43.6831753,-114.3309073
1585,Snow Creek Condo Drive,83353,43.6901577,-114.3488189
1455,Cottonwood Condo Drive,83353,43.6920856,-114.3534748
3,Crown Point Lane,83353,43.6709078,-114.3188474
1,Fox Lane,83353,43.6708238,-114.3170125
108,Angani Way,83353,43.6789706,-114.3344491
110,Village Way,83353,43.6801550,-114.3326758
212,Bitterroot Road,83353,43.6846042,-114.3584223
113,Sunrise Drive,83353,43.6626665,-114.3299607
2,Buck Lane,83353,43.6761888,-114.3165743
1207,Villager Condo Drive,83353,43.6934592,-114.3491446
1506,Snow Creek Condo Drive,83353,43.6906345,-114.3489326
1266,Creekside Way,83353,43.6941270,-114.3462776
212,Bitterroot Road,83353,43.6841509,-114.3586511
608,Nez Perce Court,83353,43.6658623,-114.3518076
103,Camas Loop,83353,43.6759410,-114.3221709
96,Elkhorn Road,83353,43.6841197,-114.3329806
202,Big Wells Road,83353,43.6971355,-114.3419791
1470,Cottonwood Condo Drive,83353,43.6914230,-114.3527004
100,Angani Way,83353,43.6785833,-114.3339831
1338,Creekside Way,83353,43.6961037,-114.3452782
1388,Dollar Meadow Condo Drive,83353,43.6911536,-114.3495233
1016;1004,Atelier Condo Drive,83353,43.6950451,-114.3489926
106,Blue Grouse Road,83353,43.6824434,-114.3291998
1280,Creekside Way,83353,43.6949281,-114.3455530
708,Morning Star Road,83353,43.6756753,-114.3132737
2608,Ridge Lane,83353,43.6815412,-114.3329993
1508;1507,Snow Creek Condo Drive,83353,43.6907206,-114.3487397
66,Lane Ranch Road,83353,43.6616259,-114.3457775
39,Lane Ranch Road,83353,43.6558916,-114.3468455
200,Sun Peak Drive,83353,43.7070105,-114.3489618
4,Foxtail,83353,43.6660594,-114.3198727
786;777,Sun Valley Condo Drive,83353,43.6943911,-114.3563175
408,Morning Star Road,83353,43.6769982,-114.3147635
704,Morning Star Road,83353,43.6760501,-114.3125504
115,Camas Loop,83353,43.6777375,-114.3214927
3634,Upper Ranch Condo Drive,83353,43.6715651,-114.3173361
110,Skyline Drive,83353,43.6881652,-114.3370083
2719,Sunburst Condo Drive,83353,43.6828122,-114.3352063
23,Chateau Circle,83353,43.6742901,-114.3208537
21,Cloud Nine Drive,83353,43.7072563,-114.3471989
1069;1077,Atelier Condo Drive,83353,43.6952357,-114.3476676
2677,Ridge Lane,83353,43.6823109,-114.3316821
2489;2492,Indian Springs Condo Drive,83353,43.6794873,-114.3357871
1226,Villager Condo Drive,83353,43.6940437,-114.3478521
4388,Fairway Nine Drive,83353,43.6821834,-114.3304707
1118;1110,Atelier Condo Drive,83353,43.6961251,-114.3479131
612,Nez Perce Court,83353,43.6664703,-114.3515527
1327,Creekside Way,83353,43.6967370,-114.3456621
306,Elkhorn Road,83353,43.6645337,-114.3284195
1035,Atelier Condo Drive,83353,43.6951030,-114.3482605
18,Chateau Circle,83353,43.6737810,-114.3207364
1366,Dollar Meadow Condo Drive,83353,43.6919345,-114.3479492
111,Syringa,83353,43.6748865,-114.3186686
3662,Upper Ranch Condo Drive,83353,43.6712282,-114.3160337
604,Elkhorn Road,83353,43.6636326,-114.3493194
109,Village Way,83353,43.6802917,-114.3322324
3672,Upper Ranch Condo Drive,83353,43.6713543,-114.3154712
2782,Sunburst Condo Drive,83353,43.6810323,-114.3358223
35,Lane Ranch Road,83353,43.6557672,-114.3479914
115,Angani Way,83353,43.6799485,-114.3332441
1205,Villager Condo Drive,83353,43.6933745,-114.3483692
103,Sage Lane,83353,43.6624938,-114.3126272
1,Woodruff Court,83353,43.6617996,-114.3495524
503,Shoshone Court,83353,43.6665961,-114.3525968
524,Juniper Road,83353,43.6548649,-114.3100825
204,Sun Valley Road,83353,43.6849477,-114.3609622
4602,Arrowwood Condo Drive,83353,43.6733292,-114.3170231
1220,Villager Condo Drive,83353,43.6937672,-114.3477600
103,Meadowridge Road,83353,43.6725342,-114.3288572
1359,Dollar Meadow Condo Drive,83353,43.6923202,-114.3474753
1,Westlake Road,83353,43.6929248,-114.3518790
512,Juniper Road,83353,43.6584868,-114.3116850
10,Villa Court,83353,43.6745012,-114.3207868
2709,Sunburst Condo Drive,83353,43.6822612,-114.3344696
212,Sun Peak Drive,83353,43.7074016,-114.3519598
902,Cheyenne Court,83353,43.6648322,-114.3507452
103,Sunrise Drive,83353,43.6630623,-114.3289423
101,Paintbrush,83353,43.6762621,-114.3180217
204,Bitterroot Road,83353,43.6851994,-114.3574304
256,Elkhorn Road,83353,43.6667192,-114.3263975
1311,Creekside Way,83353,43.6952256,-114.3451202
3554,Lower Ranch Condo Drive,83353,43.6720934,-114.3198215
2645;2644,Ridge Lane,83353,43.6815522,-114.3323376
1376,Dollar Meadow Condo Drive,83353,43.6916711,-114.3487442
18,Meadow Road,83353,43.6604251,-114.3512318
1,Coyote Court,83353,43.6701987,-114.3169924
302,Weyyakin Drive,83353,43.6680183,-114.3532838
2836,Summit 2 Condo Drive,83353,43.6769270,-114.3320927
321,Dollar Road,83353,43.6927412,-114.3529339
340,Diamond Back Road,83353,43.7062286,-114.3533546
10,Chateau Circle,83353,43.6731304,-114.3215800
111,May Leaf,83353,43.6647381,-114.3175192
2421,Indian Springs Condo Drive,83353,43.6801646,-114.3343683
2690,Ridge Lane,83353,43.6821184,-114.3327621
203,Snowbrush Lane,83353,43.6869985,-114.3543114
101,Silverweed Way,83353,43.6878258,-114.3548034
2624,Ridge Lane,83353,43.6809056,-114.3318852
4374;4375,Fairway Nine Drive,83353,43.6831228,-114.3304096
110,Juniper Road,83353,43.6654658,-114.3240525
16,Cloud Nine Drive,83353,43.7072290,-114.3480806
125,Dandelion Westreet,83353,43.6751296,-114.3171163
1431;1428,Cottonwood Condo Drive,83353,43.6918030,-114.3527823
228,Blue Bell,83353,43.6651377,-114.3125733
1,Crown Point Lane,83353,43.6705627,-114.3187796
1380,Dollar Meadow Condo Drive,83353,43.6915296,-114.3488389
117,Syringa,83353,43.6746708,-114.3190512
95,Trail Creek Road,83353,43.6979338,-114.3556667
61,Lane Ranch Road,83353,43.6590961,-114.3467494
104,Sagewillow Road,83353,43.6817232,-114.3238026
5004,Fairway One,83353,43.6775162,-114.3333740
2613,Ridge Lane,83353,43.6812240,-114.3327571
206,Meadowridge Road,83353,43.6705192,-114.3276520
867;859,Lodge Apartments Drive,83353,43.6934388,-114.3550728
4010,Bluff Condo Drive,83353,43.6807953,-114.3274041
120,Highlands Drive,83353,43.6778626,-114.3272316
1305,Creekside Way,83353,43.6953200,-114.3465653
108,Thistle Street,83353,43.6651608,-114.3249864
1286,Creekside Way,83353,43.6952682,-114.3460234
2643,Ridge Lane,83353,43.6812651,-114.3311571
24,Villa Court,83353,43.6752266,-114.3201882
212,Bitterroot Road,83353,43.6841509,-114.3592478
1434,Cottonwood Condo Drive,83353,43.6917133,-114.3528809
321,Juniper Road,83353,43.6642258,-114.3189595
2760,Sunburst Condo Drive,83353,43.6823458,-114.3353950
203,Juniper Road,83353,43.6655625,-114.3229706
738,Morning Star Road,83353,43.6735417,-114.3165152
105,Elle Road,83353,43.7024934,-114.3505627
410,Fairway Road,83353,43.7014419,-114.3421237
1290,Creekside Way,83353,43.6948048,-114.3469471
2491,Indian Springs Condo Drive,83353,43.6796212,-114.3358205
4344,Fairway Nine Drive,83353,43.6831357,-114.3320730
2388;2385,Indian Springs Condo Drive,83353,43.6803966,-114.3349000
6,Dogwood Lane,83353,43.6617361,-114.3482954
1057,Atelier Condo Drive,83353,43.6957740,-114.3483898
110,Angani Way,83353,43.6790634,-114.3344391
1318,Creekside Way,83353,43.6959606,-114.3460507
1397,Dollar Meadow Condo Drive,83353,43.6910515,-114.3500097
15,Chateau Circle,83353,43.6736952,-114.3216767
828;818,Sun Valley Condo Drive,83353,43.6939479,-114.3560434
121,Paintbrush,83353,43.6797479,-114.3188249
9,Meadow Road,83353,43.6608279,-114.3505283
18,Villa Court,83353,43.6748293,-114.3202907
2605,Ridge Lane,83353,43.6817819,-114.3330738
204,Sun Valley Road,83353,43.6852454,-114.3609746
109,Angani Way,83353,43.6792698,-114.3339389
105,Arapaho Court,83353,43.6686166,-114.3544889
106,Snowbrush Lane,83353,43.6881974,-114.3532688
674;670,Wildflower Condo Drive,83353,43.6953737,-114.3496344
3608,Upper Ranch Cndo Drive,83353,43.6720367,-114.3163541
2242,Bonne Vie Condo Drive,83353,43.6797749,-114.3312940
101,Skyline Drive,83353,43.6857176,-114.3360704
1251,Villager Condo Drive,83353,43.6936566,-114.3467601
100,Silverweed Way,83353,43.6866920,-114.3558290
4358;4359,Fairway Nine Drive,83353,43.6832076,-114.3313983
6,Sunflower Lane,83353,43.6659469,-114.3191040
2247,Bonne Vie Condo Drive,83353,43.6795227,-114.3313629
2209,Bonne Vie Condo Drive,83353,43.6799811,-114.3322093
107,Arapaho Court,83353,43.6690469,-114.3548292
1568,Snow Creek Condo Drive,83353,43.6895630,-114.3482573
2758,Sunburst Condo Drive,83353,43.6823519,-114.3355407
3542,Lower Ranch Condo Drive,83353,43.6722704,-114.3190154
113,Senabi Lane,83353,43.6782532,-114.3343648
215,Blue Bell,83353,43.6663197,-114.3169903
120,High Country Lane,83353,43.6783869,-114.3271073
572;576,Wildflower Condo Drive,83353,43.6968624,-114.3479111
2625,Ridge Lane,83353,43.6808849,-114.3318244
2501;2498,Indian Springs Condo Drive,83353,43.6798455,-114.3359103
110,Highlands Drive,83353,43.6761707,-114.3278288
2665,Ridge Lane,83353,43.6815880,-114.3312115
212,Bitterroot Road,83353,43.6838739,-114.3589608
114,Skyline Drive,83353,43.6881727,-114.3380678
1265,Creekside Way,83353,43.6941535,-114.3463351
112,Highlands Drive,83353,43.6760012,-114.3272222
1587,Snow Creek Condo Drive,83353,43.6904131,-114.3484008
2423;2420,Indian Springs Condo Drive,83353,43.6801435,-114.3344628
1264,Creekside Way,83353,43.6942221,-114.3462393
706,Morning Star Road,83353,43.6758806,-114.3128945
214,Blue Bell,83353,43.6655563,-114.3172414
1,Lane Creek Road,83353,43.6624900,-114.3463546
2445,Indian Springs Condo Drive,83353,43.6798870,-114.3347243
215,Independence Creek Road,83353,43.6714920,-114.3074699
100,Proctor Mountain Road,83353,43.7088697,-114.3371277
207,Meadowridge Road,83353,43.6703371,-114.3268678
1282,Creekside Way,83353,43.6950250,-114.3455069
60,Lane Ranch Road,83353,43.6600812,-114.3458636
5008,Fairway One,83353,43.6777578,-114.3337333
1,Buck Lane,83353,43.6762945,-114.3170665
2405;2402,Indian Springs Condo Drive,83353,43.6800797,-114.3353873
3518,Lower Ranch Condo Drive,83353,43.6718216,-114.3185362
1536;1537,Snow Creek Condo Drive,83353,43.6910663,-114.3473180
228,Bitterroot Road,83353,43.6814636,-114.3589184
2693,Ridge Lane,83353,43.6823431,-114.3330192
1234,Villager Condo Drive,83353,43.6931782,-114.3473191
98,Proctor Mountain Road,83353,43.7080177,-114.3382190
2821,Summit 1 Condo Drive,83353,43.6770578,-114.3314147
119,Dandelion Westreet,83353,43.6752164,-114.3171804
2283,Bonne Vie Condo Drive,83353,43.6800290,-114.3309725
4303;4304,Fairway Nine Drive,83353,43.6835373,-114.3302662
4424,Nine Iron Drive,83353,43.6804080,-114.3288788
2766,Sunburst Condo Drive,83353,43.6820610,-114.3350190
107,May Leaf,83353,43.6649010,-114.3181344
4339,Fairway Nine Drive,83353,43.6834810,-114.3318715
2260,Bonne Vie Condo Drive,83353,43.6792447,-114.3311657
110,Village Way,83353,43.6801223,-114.3329267
640;644,Wildflower Condo Drive,83353,43.6962248,-114.3488330
3580,Lower Ranch Condo Drive,83353,43.6718578,-114.3195392
110,Village Way,83353,43.6801382,-114.3327406
603;607,Wildflower Condo Drive,83353,43.6968835,-114.3491334
214,Lupine,83353,43.6687930,-114.3177991
1552,Snow Creek Condo Drive,83353,43.6902699,-114.3472711
223,Bitterroot Road,83353,43.6821506,-114.3579371
1307,Creekside Way,83353,43.6950662,-114.3450640
105,Proctor Mountain Road,83353,43.7097110,-114.3378113
117,Senabi Lane,83353,43.6783771,-114.3346747
204,Sun Valley Road,83353,43.6852610,-114.3604253
81,Elkhorn Road,83353,43.6924826,-114.3456802
220,Blue Bell,83353,43.6649834,-114.3164097
684;687,Wildflower Condo Drive,83353,43.6952549,-114.3502711
2746,Sunburst Condo Drive,83353,43.6827274,-114.3365431
110,Elle Road,83353,43.7022543,-114.3507322
2711,Sunburst Condo Drive,83353,43.6824500,-114.3345180
210,Lupine,83353,43.6672195,-114.3184895
2281,Bonne Vie Condo Drive,83353,43.6799914,-114.3311249
1398,Dollar Meadow Condo Drive,83353,43.6910320,-114.3499490
5,Coyote Court,83353,43.6702620,-114.3176823
2398;2395,Indian Springs Condo Drive,83353,43.6803657,-114.3354333
218,Elkhorn Road,83353,43.6700814,-114.3230086
4414,Fairway Nine Drive,83353,43.6789640,-114.3297197
5006,Fairway One Drive,83353,43.6775819,-114.3335493
109,Weyyakin Drive,83353,43.6687875,-114.3537057
1228,Villager Condo Drive,83353,43.6940894,-114.3477912
1385,Dollar Meadow Condo Drive,83353,43.6912426,-114.3489861
2393,Indian Springs Condo Drive,83353,43.6803013,-114.3352312
11,Lane Ranch Road,83353,43.6598242,-114.3476484
1527;1526,Snow Creek Condo Drive,83353,43.6912502,-114.3476668
1047,Atelier Condo Drive,83353,43.6951336,-114.3482886
1258,Villager Condo Drive,83353,43.6937298,-114.3463444
2502;2499,Indian Springs Condo Drive,83353,43.6799090,-114.3358977
4399,Fairway Nine Drive,83353,43.6808531,-114.3297326
508,Shoshone Court,83353,43.6673331,-114.3530843
2629;2628,Ridge Lane,83353,43.6808828,-114.3315493
726,Morning Star Road,83353,43.6739265,-114.3158474
5,Old Dollar Road,83353,43.6927176,-114.3483927
214,Bitterroot Road,83353,43.6838819,-114.3583876
117,Camas Loop,83353,43.6780505,-114.3213768
1518,Snow Creek Condo Drive,83353,43.6909328,-114.3480732
226,Elkhorn Road,83353,43.6695668,-114.3237932
1379,Dollar Meadow Condo Drive,83353,43.6915742,-114.3488306
1288,Creekside Way,83353,43.6947112,-114.3468983
2664,Ridge Lane,83353,43.6815427,-114.3312148
4631,Arrowwood Condo Drive,83353,43.6729034,-114.3195037
222,Elkhorn Road,83353,43.6695835,-114.3227646
1029;1041,Atelier Condo Drive,83353,43.6952759,-114.3483276
105,Blue Grouse Road,83353,43.6836860,-114.3285355
104,Defiance Street,83353,43.6777254,-114.3076634
201,Arrowleaf Road,83353,43.6770573,-114.3255641
1541;1540,Snow Creek Condo Drive,83353,43.6909412,-114.3472067
522,Fairway Road,83353,43.7067268,-114.3390616
405,Fairway Road,83353,43.7008461,-114.3430661
1353,Dollar Meadow Condo Drive,83353,43.6926897,-114.3469986
2458;2455,Indian Springs Condo Drive,83353,43.6794003,-114.3346186
4611,Arrowwood Condo Drive,83353,43.6725214,-114.3173226
206,Bitterroot Road,83353,43.6846036,-114.3571295
506,Shoshone Court,83353,43.6669828,-114.3532441
1358,Dollar Meadow Condo Drive,83353,43.6923611,-114.3475009
2410,Indian Springs Condo Drive,83353,43.6800588,-114.3350052
102,Camas Loop,83353,43.6763456,-114.3204040
1235,Villager Condo Drive,83353,43.6931912,-114.3471295
102,Silver Queen Drive,83353,43.6786664,-114.3127425
2776,Sunburst Condo Drive,83353,43.6813985,-114.3358578
118,Paintbrush,83353,43.6799575,-114.3174663
2636,Ridge Lane,83353,43.6808253,-114.3310265
4604,Arrowwood Condo Drive,83353,43.6731379,-114.3173131
2698,Ridge Lane,83353,43.6823464,-114.3335160
110,Baldy View Lane,83353,43.6823949,-114.3567475
210,Elkhorn Road,83353,43.6705095,-114.3222471
106,Village Way,83353,43.6793148,-114.3327868
31,Lane Ranch Road,83353,43.6562756,-114.3474345
2772,Sunburst Condo Drive,83353,43.6817224,-114.3355974
405,Cayuse Court,83353,43.6679404,-114.3516787
309,Juniper Road,83353,43.6650221,-114.3211568
202,Sunrise Drive,83353,43.6632575,-114.3275337
1422,Cottonwood Condo Drive,83353,43.6918417,-114.3526452
2833;2830;2827,Summit 2 Condo Drive,83353,43.6770475,-114.3326620
67,Lane Ranch Road,83353,43.6602161,-114.3468719
11,Buck Lane,83353,43.6766019,-114.3162629
632;636,Wildflower Condo Drive,83353,43.6963425,-114.3486914
101,Farnlun Place,83353,43.6700339,-114.3560826
103,Wedeln Lane,83353,43.6937907,-114.3415010
2616,Ridge Lane,83353,43.6810839,-114.3325532
3570,Lower Ranch Condo Drive,83353,43.6720341,-114.3201569
312,Elkhorn Road,83353,43.6646782,-114.3292631
103,Defiance Street,83353,43.6775979,-114.3091608
108,Defiance Street,83353,43.6787478,-114.3080462
4603,Arrowwood Condo Drive,83353,43.6731574,-114.3171579
4628,Arrowwood Condo Drive,83353,43.6726106,-114.3200376
1445,Cottonwood Condo Drive,83353,43.6918055,-114.3531310
2674,Ridge Lane,83353,43.6821520,-114.3315095
304,Elkhorn Road,83353,43.6646016,-114.3280473
105,Sage Lane,83353,43.6626912,-114.3110000
2650,Ridge Lane,83353,43.6815039,-114.3319947
10,Lane Ranch Road,83353,43.6590341,-114.3483980
207,Camas Loop,83353,43.6775935,-114.3190300
123,Syringa,83353,43.6743736,-114.3197069
213,Lupine,83353,43.6686898,-114.3189202
1590,Snow Creek Condo Drive,83353,43.6903363,-114.3481138
12,Meadow Road,83353,43.6616748,-114.3516614
208,Elkhorn Road,83353,43.6702954,-114.3217643
2748,Sunburst Condo Drive,83353,43.6825568,-114.3364372
119,May Leaf,83353,43.6639486,-114.3168586
2722,Sunburst Condo Drive,83353,43.6829673,-114.3352772
1310,Creekside Way,83353,43.6951300,-114.3450865
3620,Upper Ranch Condo Drive,83353,43.6717778,-114.3163871
328,Juniper Road,83353,43.6629007,-114.3184138
212,Sunrise Drive,83353,43.6637111,-114.3265050
204,Sun Valley Road,83353,43.6849102,-114.3609932
312,Juniper Road,83353,43.6636843,-114.3209656
215,Bitterroot Road,83353,43.6834055,-114.3576768
12,Lane Ranch Road,83353,43.6586852,-114.3485946
1467,Cottonwood Condo Drive,83353,43.6913811,-114.3531516
4107;4108,Bluff Condo Drive,83353,43.6798752,-114.3265018
104,Juniper Road,83353,43.6654893,-114.3250138
11,Camp Way,83353,43.6707346,-114.3147129
1586,Snow Creek Condo Drive,83353,43.6903259,-114.3483821
2,Crown Ranch Road,83353,43.6703683,-114.3178989
504,Juniper Road,83353,43.6597207,-114.3137392
103,Blue Grouse Road,83353,43.6842364,-114.3289195
2467;2464,Indian Springs Condo Drive,83353,43.6791908,-114.3348647
1324,Creekside Way,83353,43.6965558,-114.3461412
92,Elkhorn Road,83353,43.6846518,-114.3339699
120,Syringa,83353,43.6744186,-114.3196625
543;547,Wildflower Condo Drive,83353,43.6972412,-114.3482751
4011,Bluff Condo Drive,83353,43.6806258,-114.3275411
2621,Ridge Lane,83353,43.6809439,-114.3320708
155,Diamond Back Road,83353,43.7037392,-114.3519836
106,Village Way,83353,43.6791816,-114.3329547
1375,Dollar Meadow Condo Drive,83353,43.6917157,-114.3487360
3552,Lower Ranch Condo Drive,83353,43.6720908,-114.3197670
4356,Fairway Nine Drive,83353,43.6827627,-114.3312880
2745,Sunburst Condo Drive,83353,43.6827914,-114.3365612
406,Fairway Road,83353,43.7007912,-114.3423158
4383,Fairway Nine Drive,83353,43.6826982,-114.3308854
212,Bitterroot Road,83353,43.6842950,-114.3586069
2401,Indian Springs Condo Drive,83353,43.6801512,-114.3354253
1575,Snow Creek Condo Drive,83353,43.6898683,-114.3496777
101,Fireweed,83353,43.6783646,-114.3213443
706,Teheya Court,83353,43.6659346,-114.3499776
2230,Bonne Vie Condo Drive,83353,43.6798784,-114.3316008
1461,Cottonwood Condo Drive,83353,43.6923433,-114.3525728
750;761,Sun Valley Condo Drive,83353,43.6946961,-114.3558961
101,Blue Bell,83353,43.6661181,-114.3214876
2757,Sunburst Condo Drive,83353,43.6821948,-114.3358247
26,Lane Ranch Road,83353,43.6559222,-114.3491591
4006,Bluff Condo Drive,83353,43.6809869,-114.3271719
111,Angani Way,83353,43.6795387,-114.3339644
1363,Dollar Meadow Condo Drive,83353,43.6921338,-114.3471415
104,Saddle Lane,83353,43.6939149,-114.3599840
204,Sun Valley Road,83353,43.6853918,-114.3608910
25,Buck Lane,83353,43.6761853,-114.3156304
103,Grey Eagle Drive,83353,43.6784002,-114.3142743
100,Sagewillow Road,83353,43.6823976,-114.3251710
119,Paintbrush,83353,43.6792326,-114.3190210
410,Cayuse Court,83353,43.6672013,-114.3514352
124,Dandelion Westreet,83353,43.6751288,-114.3171164
1320,Creekside Way,83353,43.6962032,-114.3462983
33,Lane Ranch Road,83353,43.6561765,-114.3479250
4,Mock Orange,83353,43.6660346,-114.3237203
1238,Villager Condo Drive,83353,43.6931185,-114.3468139
107,Wedeln Lane,83353,43.6917525,-114.3420010
113,Paintbrush,83353,43.6782878,-114.3183254
502;505,Wildflower Condo Drive,83353,43.6974615,-114.3502301
3684,Upper Ranch Condo Drive,83353,43.6714950,-114.3160253
1457,Cottonwood Condo Drive,83353,43.6922401,-114.3538943
2637,Ridge Lane,83353,43.6808723,-114.3310388
2751,Sunburst Condo Drive,83353,43.6824515,-114.3362762
212,Independence Creek Road,83353,43.6683673,-114.3081977
203,Morning Star Road,83353,43.6741216,-114.3223741
226,Blue Bell,83353,43.6643720,-114.3113748
317,Juniper Road,83353,43.6644554,-114.3197751
2,Boleana Lane,83353,43.6662966,-114.3177438
2704,Sunburst Condo Drive,83353,43.6818656,-114.3342523
2447;2450,Indian Springs Condo Drive,83353,43.6796967,-114.3346963
4425,Nine Iron Drive,83353,43.6803446,-114.3288978
14,Chateau Circle,83353,43.6734668,-114.3217546
212,Bitterroot Road,83353,43.6840238,-114.3588557
16,Chateau Circle,83353,43.6735555,-114.3209829
221,Bitterroot Road,83353,43.6824656,-114.3578554
111,Angani Way,83353,43.6796132,-114.3338111
207,Morning Star Road,83353,43.6746383,-114.3229410
208,Blue Bell,83353,43.6654288,-114.3176782
1,Wildrose Lane,83353,43.6569608,-114.3474158
4349,Fairway Nine Drive,83353,43.6828673,-114.3318114
1395,Dollar Meadow Condo Drive,83353,43.6910242,-114.3501253
6,Coyote Court,83353,43.6705414,-114.3174387
210,Blue Bell,83353,43.6652330,-114.3172132
2379;2376,Indian Springs Condo Drive,83353,43.6806007,-114.3351179
113,Angani Way,83353,43.6798091,-114.3335981
3616,Upper Ranch Condo Drive,83353,43.6717169,-114.3163202
307,Fairway Road,83353,43.6997522,-114.3435663
714,Sun Valley Condo Drive,83353,43.6950518,-114.3563745
4,Snowcup Lane,83353,43.6647357,-114.3236533
2763,Sunburst Condo Drive,83353,43.6822053,-114.3350934
112,Fireweed,83353,43.6813684,-114.3201637
1381,Dollar Meadow Condo Drive,83353,43.6913863,-114.3490746
107,Skyline Drive,83353,43.6864734,-114.3370363
4405,Fairway Nine Drive,83353,43.6801271,-114.3295472
105,Skyline Drive,83353,43.6862665,-114.3364378
1212,Villager Condo Drive,83353,43.6935653,-114.3490105
304,Juniper Road,83353,43.6646613,-114.3226878
1044;1032,Atelier Condo Drive,83353,43.6951118,-114.3481770
105,Arrowleaf Road,83353,43.6734918,-114.3249625
108,Juniper Road,83353,43.6655225,-114.3244073
107,Fairway Road,83353,43.6950587,-114.3446988
3626,Ranch Court,83353,43.6718594,-114.3167342
2703,Sunburst Condo Drive,83353,43.6818282,-114.3343073
3680,Upper Ranch Condo Drive,83353,43.6714487,-114.3157753
3630,Ranch Court,83353,43.6718089,-114.3169863
904,Cheyenne Court,83353,43.6651914,-114.3510972
2661;2660,Ridge Lane,83353,43.6813871,-114.3314643
1529;1528,Snow Creek Condo Drive,83353,43.6912740,-114.3475887
4515,Legends Condo Drive,83353,43.6836772,-114.3354397
1272,Creekside Way,83353,43.6943875,-114.3457985
105,Senabi Lane,83353,43.6781734,-114.3337638
104,Village Way,83353,43.6789397,-114.3333712
110,Sunrise Drive,83353,43.6634024,-114.3302178
112,Sunrise Drive,83353,43.6633259,-114.3304176
2476;2473,Indian Springs Condo Drive,83353,43.6794583,-114.3351004
119,Skyline Drive,83353,43.6879471,-114.3391355
10,Dogwood Lane,83353,43.6624391,-114.3481602
110,Weyyakin Drive,83353,43.6685581,-114.3535502
4106,Bluff Condo Drive,83353,43.6796029,-114.3267362
204,Sun Valley Road,83353,43.6856876,-114.3606534
203,Bannock Court,83353,43.6688550,-114.3524386
4402,Fairway Nine Drive,83353,43.6805412,-114.3295927
2226,Bonne Vie Condo Drive,83353,43.6801452,-114.3316117
414,Morning Star Road,83353,43.6777722,-114.3135584
110,Syringa,83353,43.6749082,-114.3197108
4050,Bluff Condo Drive,83353,43.6789608,-114.3269648
95,Elkhorn Road,83353,43.6847451,-114.3314128
510,Fairway Road,83353,43.7042079,-114.3400866
1533;1532,Snow Creek Condo Drive,83353,43.6913293,-114.3473864
101,Senabi Lane,83353,43.6784223,-114.3336321
1203,Villager Condo Drive,83353,43.6933491,-114.3484834
120,Lane's Way,83353,43.6600811,-114.3502933
1103,Atelier Condo Drive,83353,43.6956755,-114.3475769
166,Proctor View Drive,83353,43.7031677,-114.3521875
2422;2419,Indian Springs Condo Drive,83353,43.6801006,-114.3345313
113,Angani Way,83353,43.6798850,-114.3337127
136,Clos Du Val,83353,43.7022255,-114.3515216
518,Fairway Road,83353,43.7057482,-114.3395010
1085;1081,Atelier Condo Drive,83353,43.6954645,-114.3475296
724,Sun Valley Condo Drive,83353,43.6946262,-114.3566534
2684,Ridge Lane,83353,43.6819765,-114.3322712
102,Dandelion Eastreet,83353,43.6759322,-114.3172710
1574,Snow Creek Condo Drive,83353,43.6899235,-114.3483119
108,Highlands Drive,83353,43.6764390,-114.3283541
101,Parker Gulch,83353,43.6782416,-114.3114703
1464,Cottonwood Condo Drive,83353,43.6914928,-114.3531763
3572,Lower Ranch Condo Drive,83353,43.6719175,-114.3200295
5,Buck Lane,83353,43.6764896,-114.3168932
511,Wildflower Condo Drive,83353,43.6972843,-114.3495925
323,Juniper Road,83353,43.6641350,-114.3186471
204,Sun Valley Road,83353,43.6854830,-114.3608640
735,Sun Valley Condo Drive,83353,43.6946073,-114.3566257
2755,Sunburst Condo Drive,83353,43.6822606,-114.3359363
801,Weyyakin Drive,83353,43.6654184,-114.3483620
1386,Dollar Meadow Condo Drive,83353,43.6911980,-114.3489797
1246,Villager Condo Drive,83353,43.6934750,-114.3471624
209,Bannock Court,83353,43.6684578,-114.3528380
112,Dandelion Westreet,83353,43.6754579,-114.3178352
4338,Fairway Nine Drive,83353,43.6833630,-114.3312215
2788,Sunburst Condo Drive,83353,43.6811824,-114.3353233
110,Blue Bell,83353,43.6652064,-114.3202864
205,Arrowleaf Road,83353,43.6758466,-114.3259224
2683,Ridge Lane,83353,43.6819997,-114.3320480
2771,Sunburst Condo Drive,83353,43.6817578,-114.3353312
205,Snowbrush Lane,83353,43.6868785,-114.3546525
103,Skyline Spur,83353,43.6870550,-114.3357411
101,Bitterroot Road,83353,43.6873067,-114.3569086
1201,Villager Condo Drive,83353,43.6933035,-114.3485445
1341,Creekside Way,83353,43.6958283,-114.3455312
710;722,Sun Valley Condo Drive,83353,43.6951800,-114.3558556
1367,Dollar Meadow Condo Drive,83353,43.6919901,-114.3472876
506,Fairway Road,83353,43.7038724,-114.3404593
115,Angani Way,83353,43.6800206,-114.3333615
106,Elle Road,83353,43.7027192,-114.3512497
109,Arrowleaf Road,83353,43.6741540,-114.3250942
717,Morning Star Road,83353,43.6735634,-114.3139694
1301,Creekside Way,83353,43.6950206,-114.3464022
3610,Upper Ranch Condo Drive,83353,43.6719461,-114.3162123
603,Nez Perce Court,83353,43.6663192,-114.3508727
1582,Snow Creek Condo Drive,83353,43.6900573,-114.3490337
2682,Ridge Lane,83353,43.6820451,-114.3319815
308,Juniper Road,83353,43.6638561,-114.3220843
104,Snowbrush Lane,83353,43.6880533,-114.3537723
2446,Indian Springs Condo Drive,83353,43.6797635,-114.3346534
3698,Upper Ranch Condo Drive,83353,43.6715143,-114.3152689
104,Sage Lane,83353,43.6623218,-114.3094839
1211,Villager Condo Drive,83353,43.6935409,-114.3489478
4317;4318,Fairway Nine Drive,83353,43.6839381,-114.3311936
4,Willow Road,83353,43.6583205,-114.3491997
1460,Cottonwood Condo Drive,83353,43.6923916,-114.3533311
909,Cheyenne Court,83353,43.6652287,-114.3500414
2264,Bonne Vie Condo Drive,83353,43.6795752,-114.3310702
4385,Fairway Nine Drive,83353,43.6826825,-114.3307573
100,Syringa,83353,43.6752441,-114.3190057
604,Nez Perce Court,83353,43.6662045,-114.3508928
5,Aspen Lane,83353,43.6665230,-114.3226924
204,Sun Valley Road,83353,43.6852033,-114.3609901
1521;1520,Snow Creek Condo Drive,83353,43.6910356,-114.3477777
2265,Bonne Vie Condo Drive,83353,43.6794629,-114.3310763
3560,Lower Ranch Condo Drive,83353,43.6722803,-114.3199324
102,Hardrock Lane,83353,43.6953546,-114.3438697
1405,Cottonwood Condo Drive,83353,43.6921576,-114.3520674
702,Weyyakin Drive,83353,43.6671237,-114.3490368
117,Dandelion Westreet,83353,43.6752142,-114.3170477
101,Sage Lane,83353,43.6623452,-114.3137854
1576,Snow Creek Condo Drive,83353,43.6899407,-114.3497005
307,Diamond Back Road,83353,43.7070703,-114.3554699
8,Lane Ranch Road,83353,43.6593706,-114.3485135
109,Prospector Road,83353,43.6947786,-114.3425251
2285,Bonne Vie Condo Drive,83353,43.6800105,-114.3310989
1476,Cottonwood Condo Drive,83353,43.6920362,-114.3540441
2691,Ridge Lane,83353,43.6821622,-114.3328041
552;549;557,Wildflower Condo Drive,83353,43.6972374,-114.3480742
140,Clos Du Val,83353,43.7020189,-114.3512460
116,Sunrise Drive,83353,43.6631188,-114.3309061
2438;2441,Indian Springs Condo Drive,83353,43.6799263,-114.3344393
2603,Ridge Lane,83353,43.6819870,-114.3333227
248,Elkhorn Road,83353,43.6676339,-114.3252524
108,Dandelion Eastreet,83353,43.6757457,-114.3157910
2804;2803;2805,Summit 1 Condo Drive,83353,43.6777404,-114.3318684
602,Morning Star Road,83353,43.6773529,-114.3120068
1079;1071,Atelier Condo Drive,83353,43.6951193,-114.3475731
104,Village Way,83353,43.6788466,-114.3334977
5,Lane Ranch Road,83353,43.6609484,-114.3477867
2210,Bonne Vie Condo Drive,83353,43.6799714,-114.3320566
124,Senabi Lane,83353,43.6787279,-114.3349928
23,Buck Lane,83353,43.6763195,-114.3156480
1216,Villager Condo Drive,83353,43.6937122,-114.3486610
125,Highlands Drive,83353,43.6792369,-114.3284993
1567,Snow Creek Condo Drive,83353,43.6895314,-114.3480187
3676,Upper Ranch Condo Drive,83353,43.6713814,-114.3155757
520,Fairway Road,83353,43.7061358,-114.3394404
520,Juniper Road,83353,43.6547438,-114.3121561
1330,Creekside Way,83353,43.6966493,-114.3457523
206,Sunrise Drive,83353,43.6634559,-114.3271064
3,Buck Lane,83353,43.6763665,-114.3170081
1340,Creekside Way,83353,43.6958962,-114.3454467
2692,Ridge Lane,83353,43.6822845,-114.3329830
115,Angani Way,83353,43.6799065,-114.3329693
143,Clos Du Val,83353,43.7020730,-114.3506525
22,Lane Ranch Road,83353,43.6565243,-114.3485873
1013;1001,Atelier Condo Drive,83353,43.6951295,-114.3489787
1289,Creekside Way,83353,43.6947705,-114.3469945
1551,Snow Creek Condo Drive,83353,43.6904171,-114.3472893
106,Village Way,83353,43.6793413,-114.3331068
327,Dollar Road,83353,43.6928276,-114.3532453
1572,Snow Creek Condo Drive,83353,43.6897739,-114.3483137
65,Lane Ranch Road,83353,43.6598670,-114.3467315
204,Elkhorn Road,83353,43.6707383,-114.3211442
4381;4380,Fairway Nine Drive,83353,43.6830194,-114.3301660
107,Elle Road,83353,43.7024616,-114.3503485
4404,Fairway Nine Drive,83353,43.6802834,-114.3295557
713,Morning Star Road,83353,43.6739367,-114.3128095
2290,Bonne Vie Condo Drive,83353,43.6802355,-114.3309422
162,Proctor View Drive,83353,43.7034927,-114.3523809
1453,Cottonwood Condo Drive,83353,43.6920991,-114.3529188
400,Fairway Road,83353,43.6999302,-114.3427446
104,Village Way,83353,43.6788594,-114.3334706
1237,Villager Condo Drive,83353,43.6930918,-114.3467580
101,Keystone,83353,43.6770006,-114.3104763
106,Skyline Drive,83353,43.6873585,-114.3370561
6,Lane Creek Road,83353,43.6632698,-114.3422228
315,Juniper Road,83353,43.6646474,-114.3201973
2673,Ridge Lane,83353,43.6821108,-114.3315519
203,Bitterroot Road,83353,43.6856228,-114.3560073
3538,Lower Ranch Condo Drive,83353,43.6722064,-114.3189819
715,Morning Star Road,83353,43.6737768,-114.3133977
721,Morning Star Road,83353,43.6730434,-114.3153102
1,East Lake Road,83353,43.6914710,-114.3500066
523;527,Wildflower Condo Drive,83353,43.6972363,-114.3489188
2600,Ridge Lane,83353,43.6819416,-114.3335286
89,Elkhorn Road,83353,43.6851490,-114.3332357
22,Chateau Circle,83353,43.6741661,-114.3208187
2614,Ridge Lane,83353,43.6812057,-114.3326880
507,Shoshone Court,83353,43.6672173,-114.3533999
102,Fireweed,83353,43.6788797,-114.3200247
4120;4119,Bluff Condo Drive,83353,43.6801829,-114.3267539
5,Wildrose Lane,83353,43.6563155,-114.3466622
201,Bitterroot Road,83353,43.6858470,-114.3560561
3642,Upper Ranch Condo Drive,83353,43.6715291,-114.3169904
2657;2656,Ridge Lane,83353,43.6813828,-114.3316291
101,Highlands Drive,83353,43.6784613,-114.3292712
1105;1113,Atelier Condo Drive,83353,43.6962057,-114.3478894
709,Morning Star Road,83353,43.6743392,-114.3117501
201,Big Wells Road,83353,43.6979819,-114.3423550
108,Camas Loop,83353,43.6774294,-114.3203968
124,Highlands Drive,83353,43.6786131,-114.3277706
303,Fairway Road,83353,43.6985660,-114.3438808
304,Fairway Road,83353,43.6987671,-114.3431554
1322,Creekside Way,83353,43.6963012,-114.3462560
1018;1006,Atelier Condo Drive,83353,43.6949373,-114.3488913
2787,Sunburst Condo Drive,83353,43.6811955,-114.3353906
1309,Creekside Way,83353,43.6951618,-114.3450977
204,Sun Valley Road,83353,43.6854013,-114.3604411
1365,Dollar Meadow Condo Drive,83353,43.6920402,-114.3472298
216,Blue Bell,83353,43.6655318,-114.3168698
208,Lupine,83353,43.6668747,-114.3199579
4522,Legends Condo Drive,83353,43.6842000,-114.3356740
214,Elkhorn Road,83353,43.6700894,-114.3221902
2620,Ridge Lane,83353,43.6809577,-114.3321579
8,Meadow Road,83353,43.6619055,-114.3507176
122,Senabi Lane,83353,43.6787349,-114.3347997
1111,Atelier Condo Drive,83353,43.6960644,-114.3478637
100,Thistle Street,83353,43.6653109,-114.3241647
2806,Summit 1 Condo Drive,83353,43.6779557,-114.3318160
106,Village Way,83353,43.6793171,-114.3327849
306,Kootenai Court,83353,43.6679523,-114.3541393
101,Sunrise Drive,83353,43.6631574,-114.3286978
213,Camas Loop,83353,43.6765383,-114.3188507
37,Lane Ranch Road,83353,43.6558062,-114.3473765
103,Saddle Road,83353,43.6923018,-114.3598642
213,Sunrise Drive,83353,43.6643380,-114.3271062
890,Lodge Apartments Drive,83353,43.6931391,-114.3566708
4307;4308,Fairway Nine Drive,83353,43.6836228,-114.3304070
509,Juniper Road,83353,43.6600296,-114.3094030
101,Blue Grouse Road,83353,43.6843591,-114.3296129
106,Syringa,83353,43.6750852,-114.3194924
2234,Bonne Vie Condo Drive,83353,43.6798424,-114.3315740
204,Sun Valley Road,83353,43.6849369,-114.3606585
1588,Snow Creek Condo Drive,83353,43.6904704,-114.3481543
1104,Atelier Condo Drive,83353,43.6956197,-114.3475317
2699,Ridge Lane,83353,43.6823119,-114.3335919
1515,Snow Creek Condo Drive,83353,43.6909383,-114.3483050
115,Angani Way,83353,43.6800669,-114.3332238
1313,Creekside Way,83353,43.6952575,-114.3451314
104,Village Way,83353,43.6790241,-114.3332659
109,Grey Eagle,83353,43.6775498,-114.3158580
2,Coyote Court,83353,43.6705465,-114.3168556
307,Kootenai Court,83353,43.6682006,-114.3541996
101,Elle Road,83353,43.7025920,-114.3503433
106,Baldy View Lane,83353,43.6819097,-114.3568191
1214,Villager Condo Drive,83353,43.6936167,-114.3487027
1319,Creekside Way,83353,43.6961799,-114.3462372
101,Skyline Spur,83353,43.6874256,-114.3360890
1573,Snow Creek Condo Drive,83353,43.6899437,-114.3481965
104,Village Way,83353,43.6790466,-114.3334311
1564,Snow Creek Condo Drive,83353,43.6896894,-114.3479075
204,Sun Valley Road,83353,43.6856841,-114.3605249
705,Morning Star Road,83353,43.6748074,-114.3104172
24,Lane Ranch Road,83353,43.6562216,-114.3491096
10,Cloud Nine Drive,83353,43.7070427,-114.3483639
1451,Cottonwood Condo Drive,83353,43.6920388,-114.3530655
211,Lupine,83353,43.6683950,-114.3196387
6,Crown Ranch Road,83353,43.6703604,-114.3187962
712,Morning Star Road,83353,43.6752458,-114.3140548
2454,Indian Springs Condo Drive,83353,43.6794827,-114.3346551
504;508,Wildflower Condo Drive,83353,43.6973964,-114.3501334
2612,Ridge Lane,83353,43.6812521,-114.3328058
2779,Sunburst Condo Drive,83353,43.6813506,-114.3356495
103,Keystone,83353,43.6772998,-114.3098588
4512,Legends Condo Drive,83353,43.6835758,-114.3347748
4409,Fairway Nine Drive,83353,43.6796133,-114.3296155
5009,Fairway One,83353,43.6778316,-114.3338031
2,Snowcup Lane,83353,43.6650824,-114.3232639
1410,Cottonwood Condo Drive,83353,43.6920280,-114.3524936
3514,Lower Ranch Condo Drive,83353,43.6718026,-114.3183131
1213,Villager Condo Drive,83353,43.6935900,-114.3486467
3606,Ranch Court,83353,43.6720821,-114.3165167
2773,Sunburst Condo Drive,83353,43.6816735,-114.3356146
4332,Fairway Nine Drive,83353,43.6836771,-114.3318020
420,Juniper Road,83353,43.6607033,-114.3154616
4016,Bluff Condo Drive,83353,43.6804346,-114.3276494
1300,Creekside Way,83353,43.6950401,-114.3465286
109,Skyline Drive,83353,43.6867556,-114.3373513
28,Villa Court,83353,43.6754782,-114.3202468
1283,Creekside Way,83353,43.6952895,-114.3458154
109,May Leaf,83353,43.6648262,-114.3178053
211,Camas Loop,83353,43.6769135,-114.3189071
111,Angani Way,83353,43.6796569,-114.3339670
111,Angani Way,83353,43.6796704,-114.3338971
2834,Summit 2 Condo Drive,83353,43.6769150,-114.3323352
1298,Creekside Way,83353,43.6951500,-114.3468072
26,Cloud Nine Drive,83353,43.7075107,-114.3479048
42,Lane Ranch Road,83353,43.6552197,-114.3447387
1364,Dollar Meadow Condo Drive,83353,43.6921070,-114.3471673
4362;4363,Fairway Nine Drive,83353,43.6831831,-114.3312176
1267,Creekside Way,83353,43.6941177,-114.3459840
400,Sun Peak Drive,83353,43.7057656,-114.3524979
9,Camp Way,83353,43.6709850,-114.3145597
416,Fairway Loop,83353,43.7018506,-114.3412465
2463,Indian Springs Condo Drive,83353,43.6791519,-114.3347586
1439,Cottonwood Condo Drive,83353,43.6917059,-114.3530129
4004;4005,Bluff Condo Drive,83353,43.6810507,-114.3271915
121,Highlands Drive,83353,43.6782944,-114.3286227
109,Syringa,83353,43.6750932,-114.3185540
201,Fairway Road,83353,43.6963996,-114.3441686
1589,Snow Creek Condo Drive,83353,43.6903899,-114.3481379
2672,Ridge Lane,83353,43.6820312,-114.3315602
1,Villa Court,83353,43.6748500,-114.3211531
1087;1083,Atelier Condo Drive,83353,43.6954302,-114.3475917
880;872,Lodge Apartments Drive,83353,43.6932614,-114.3555922
3646,Upper Ranch Condo Drive,83353,43.6715744,-114.3167739
206,Bannock Court,83353,43.6682350,-114.3521596
2819,Summit 1 Condo Drive,83353,43.6772493,-114.3312783
401,Cayuse Court,83353,43.6673032,-114.3518910
232,Elkhorn Road,83353,43.6688225,-114.3236362
4422,Nine Iron Drive,83353,43.6805902,-114.3288201
2662,Ridge Lane,83353,43.6814370,-114.3312486
2397;2394,Indian Springs Condo Drive,83353,43.6803552,-114.3353151
302,Elkhorn Road,83353,43.6650802,-114.3277597
1240,Villager Condo Drive,83353,43.6932140,-114.3467724
3,Sunflower Lane,83353,43.6659710,-114.3194135
109,Angani Way,83353,43.6791089,-114.3338481
4614,Arrowwood Condo Drive,83353,43.6726023,-114.3178502
3522,Lower Ranch Condo Drive,83353,43.6718270,-114.3186428
87,Elkhorn Road,83353,43.6853459,-114.3339136
4330,Fairway Nine Drive,83353,43.6837693,-114.3317761
306,Fairway Road,83353,43.6992366,-114.3428970
4337,Fairway Nine Drive,83353,43.6834165,-114.3312179
2792,Sunburst Condo Drive,83353,43.6811692,-114.3349051
1441,Cottonwood Condo Drive,83353,43.6918023,-114.3531193
1262,Villager Condo Drive,83353,43.6946235,-114.3472269
1314,Creekside Way,83353,43.6959461,-114.3463690
116,Highlands Drive,83353,43.6769343,-114.3269190
4099;4100,Bluff Condo Drive,83353,43.6792110,-114.3265653
324,Juniper Road,83353,43.6630743,-114.3192627
104,Camas Loop,83353,43.6767061,-114.3205079
208,Sagewillow Road,83353,43.6879086,-114.3260411
10,Back Pay Way,83353,43.6997495,-114.3387674
4336,Fairway Nine Drive,83353,43.6834622,-114.3312142
104,Village Way,83353,43.6789668,-114.3335857
4340,Fairway Nine Drive,83353,43.6834352,-114.3318900
403,Fairway Loop,83353,43.7002203,-114.3420230
103,Saddle Lane,83353,43.6929072,-114.3593096
671;668,Wildflower Condo Drive,83353,43.6953497,-114.3497300
4519,Legends Condo Drive,83353,43.6839522,-114.3351418
1055;1051,Atelier Condo Drive,83353,43.6953857,-114.3486709
203,Camas Loop,83353,43.6779727,-114.3196653
101,Silver Queen,83353,43.6802633,-114.3134841
1025,Atelier Condo Drive,83353,43.6954150,-114.3483663
310,Elkhorn Road,83353,43.6645514,-114.3288374
4,Fox Lane,83353,43.6711538,-114.3175908
4390,Fairway Nine Drive,83353,43.6819558,-114.3303355
7,Camp Way,83353,43.6711967,-114.3144152
3,Lane Ranch Road,83353,43.6612226,-114.3476073
4506,Legends Condo Drive,83353,43.6830841,-114.3340806
4636,Arrowwood Condo Drive,83353,43.6732530,-114.3186161
204,Sun Valley Road,83353,43.6856859,-114.3605929
205,Bitterroot Road,83353,43.6852066,-114.3561255
22,Villa Court,83353,43.6751224,-114.3202513
4101,Bluff Condo Drive,83353,43.6794157,-114.3265768
2791,Sunburst Condo Drive,83353,43.6811486,-114.3349688
412,Fairway Road,83353,43.7019175,-114.3419459
1260,Villager Condo Drive,83353,43.6945279,-114.3472686
4,Pete's Lane,83353,43.6699403,-114.3383699
52,Lane Ranch Road,83353,43.6579341,-114.3457882
4,Huckleberry Lane,83353,43.6668163,-114.3192829
23,Lane Ranch Road,83353,43.6579641,-114.3478878
4511,Legends Condo Drive,83353,43.6834737,-114.3345730
4140;4139,Bluff Condo Drive,83353,43.6807999,-114.3267379
1295,Creekside Way,83353,43.6950286,-114.3467884
5007,Fairway One,83353,43.6776902,-114.3336920
1501,Snow Creek Condo Drive,83353,43.6904694,-114.3493492
1102,Atelier Condo Drive,83353,43.6957361,-114.3476262
707,Teheya Court,83353,43.6661548,-114.3502988
4389,Fairway Nine Drive,83353,43.6820169,-114.3303470
3650,Upper Ranch Condo Drive,83353,43.6716013,-114.3166723
103,Village Way,83353,43.6785720,-114.3330181
2783,Sunburst Condo Drive,83353,43.6809823,-114.3358007
1448,Cottonwood Condo Drive,83353,43.6921053,-114.3529568
101,Wedeln Lane,83353,43.6939406,-114.3419240
4354,Fairway Nine Drive,83353,43.6826997,-114.3313844
2631;2630,Ridge Lane,83353,43.6809104,-114.3314756
1514;1513,Snow Creek Condo Drive,83353,43.6908508,-114.3484967
314,Diamond Back Road,83353,43.7090685,-114.3558005
676;679,Wildflower Condo Drive,83353,43.6951964,-114.3499489
1,Mock Orange,83353,43.6660545,-114.3246999
1477,Cottonwood Condo Drive,83353,43.6917777,-114.3540116
233,Bitterroot Road,83353,43.6806043,-114.3585214
115,Paintbrush,83353,43.6782283,-114.3188099
629,Wildflower Condo Drive,83353,43.6966363,-114.3486675
107,Sunrise Drive,83353,43.6629035,-114.3293452
9,Chateau Circle,83353,43.6730772,-114.3217981
2710,Sunburst Condo Drive,83353,43.6823950,-114.3345113
106,Sage Lane,83353,43.6616788,-114.3086911
1383,Dollar Meadow Condo Drive,83353,43.6913016,-114.3490967
4102;4103,Bluff Condo Drive,83353,43.6794582,-114.3266475
1510;1509,Snow Creek Condo Drive,83353,43.6907662,-114.3486785
1106;1114,Atelier Condo Drive,83353,43.6961502,-114.3478442
117,Paintbrush,83353,43.6785918,-114.3189809
2213,Bonne Vie Condo Drive,83353,43.6799587,-114.3320944
120,High Country Lane,83353,43.6785369,-114.3266003
2689,Ridge Lane,83353,43.6821024,-114.3326937
4610,Arrowwood Condo Drive,83353,43.6727603,-114.3173000
216,Sunrise Drive,83353,43.6642040,-114.3265479
832;822,Sun Valley Condo Drive,83353,43.6940592,-114.3563096
106,Grey Eagle,83353,43.6802115,-114.3160028
2,Black Birch Drive,83353,43.6660929,-114.3220777
1512;1511,Snow Creek Condo Drive,83353,43.6908200,-114.3485697
232,Bitterroot Road,83353,43.6806990,-114.3594007
112,Boulder Court,83353,43.6640110,-114.3501225
9,Buck Lane,83353,43.6766480,-114.3165014
406,Fairway Loop,83353,43.6999803,-114.3411825
2724,Sunburst Condo Drive,83353,43.6828230,-114.3355166
107,Parker Gulch,83353,43.6799912,-114.3098599
2793,Sunburst Condo Drive,83353,43.6811928,-114.3348441
1021;1009,Atelier Condo Drive,83353,43.6949591,-114.3490029
2,Monarch Lane,83353,43.7074002,-114.3527887
113,Angani Way,83353,43.6798931,-114.3335450
1241,Villager Condo Drive,83353,43.6933690,-114.3472976
2794,Sunburst Condo Drive,83353,43.6812279,-114.3347867
2708,Sunburst Condo Drive,83353,43.6822142,-114.3344512
2675,Ridge Lane,83353,43.6821960,-114.3314980
217,Camas Loop,83353,43.6757686,-114.3189462
418,Juniper Road,83353,43.6609568,-114.3162269
6,Camp Way,83353,43.6708026,-114.3151830
211,Sunrise Drive,83353,43.6642295,-114.3273082
4334,Fairway Nine Drive,83353,43.6835717,-114.3311924
1065;1073,Atelier Condo Drive,83353,43.6952606,-114.3475987
513,Fairway Road,83353,43.7048050,-114.3406594
108,May Leaf,83353,43.6644154,-114.3183908
518,Juniper Road,83353,43.6548201,-114.3135406
104,Elkhorn Road,83353,43.6721010,-114.3232146
521;524,Wildflower Condo Drive,83353,43.6972580,-114.3490169
157,Diamond Back Road,83353,43.7039776,-114.3520887
1232,Villager Condo Drive,83353,43.6932487,-114.3477083
4,Buck Lane,83353,43.6762080,-114.3164350
4326,Fairway Nine Drive,83353,43.6840740,-114.3316766
623;627,Wildflower Condo Drive,83353,43.6965892,-114.3486275
2786,Sunburst Condo Drive,83353,43.6812120,-114.3354559
502,Shoshone Court,83353,43.6667968,-114.3524037
410,Fairway Loop,83353,43.7006376,-114.3409474
2493;2490,Indian Springs Condo Drive,83353,43.6795484,-114.3357695
505,Juniper Road,83353,43.6610472,-114.3109761
113,Angani Way,83353,43.6799175,-114.3336718
7,Rose Court,83353,43.6628474,-114.3524400
114,Dandelion Eastreet,83353,43.6760375,-114.3155956
408,Fairway Road,83353,43.7011082,-114.3422222
3502,Lower Ranch Condo Drive,83353,43.6718125,-114.3177243
110,Village Way,83353,43.6802091,-114.3327838
104,Fireweed,83353,43.6794515,-114.3198598
34,Lane Ranch Road,83353,43.6551973,-114.3472044
520;514;515,Wildflower Condo Drive,83353,43.6972544,-114.3492388
104,May Leaf,83353,43.6646270,-114.3191935
1426,Cottonwood Condo Drive,83353,43.6918408,-114.3526477
2666,Ridge Lane,83353,43.6817115,-114.3313078
405,Juniper Road,83353,43.6633097,-114.3163647
515,Fairway Road,83353,43.7052183,-114.3404740
4635,Arrowwood Condo Drive,83353,43.6732529,-114.3187753
116,Skyline Drive,83353,43.6883267,-114.3384678
105,Fireweed,83353,43.6790201,-114.3212571
704,Teheya Court,83353,43.6660392,-114.3493486
110,Defiance Street,83353,43.6798474,-114.3075913
4320;4319,Fairway Nine Drive,83353,43.6839757,-114.3312748
3604,Ranch Court,83353,43.6720917,-114.3165734
2640,Ridge Lane,83353,43.6811071,-114.3311674
215,Camas Loop,83353,43.6761512,-114.3187514
1042;1030,Atelier Condo Drive,83353,43.6952227,-114.3482789
3578,Lower Ranch Condo Drive,83353,43.6718538,-114.3195932
208,Sun Peak Drive,83353,43.7081965,-114.3508624
1414,Cottonwood Condo Drive,83353,43.6920268,-114.3524945
4619,Arrowwood Condo Drive,83353,43.6724888,-114.3185669
2814;2813;2815,Summit 1 Condo Drive,83353,43.6774686,-114.3315261
2655;2654,Ridge Lane,83353,43.6813702,-114.3317076
4504,Legends Condo Drive,83353,43.6829265,-114.3338653
112,Dandelion Eastreet,83353,43.6759325,-114.3156151
112,Baldy View Lane,83353,43.6826544,-114.3567091
2284,Bonne Vie Condo Drive,83353,43.6799573,-114.3311620
201,Juniper Road,83353,43.6656715,-114.3232099
120,Baldy View Lane,83353,43.6833747,-114.3570764
105,Parker Gulch,83353,43.6794629,-114.3104616
2832;2829;2826,Summit 2 Condo Drive,83353,43.6770337,-114.3324413
115,Sunrise Drive,83353,43.6625266,-114.3301586
204,Sun Valley Road,83353,43.6854400,-114.3608767
1095,Atelier Condo Drive,83353,43.6956433,-114.3475508
1308,Creekside Way,83353,43.6950981,-114.3450753
414,Fairway Loop,83353,43.7014455,-114.3410980
2781,Sunburst Condo Drive,83353,43.6810816,-114.3358346
2276;2256,Bonne Vie Condo Drive,83353,43.6792469,-114.3312220
2658;2659,Ridge Lane,83353,43.6813832,-114.3315460
205,Prospector Road,83353,43.6974430,-114.3417237
1547,Snow Creek Condo Drive,83353,43.6906369,-114.3470939
9,Dogwood Court,83353,43.6628209,-114.3492126
1,Willow Road,83353,43.6575567,-114.3488366
1369,Dollar Meadow Condo Drive,83353,43.6921461,-114.3485254
103,Parker Gulch,83353,43.6787493,-114.3108997
104,Wedeln Lane,83353,43.6917250,-114.3432560
701,Morning Star Road,83353,43.6751980,-114.3087382
102,Farnlun Place,83353,43.6704385,-114.3541947
3,Westlake Road,83353,43.6933638,-114.3516475
1015;1003,Atelier Condo Drive,83353,43.6950984,-114.3490415
114,Baldy View Lane,83353,43.6831286,-114.3564786
28,Lane Ranch Road,83353,43.6552438,-114.3490449
230,Bitterroot Road,83353,43.6811022,-114.3591887
209,Bitterroot Road,83353,43.6844534,-114.3563962
4,Camp Way,83353,43.6710436,-114.3150010
4508,Legends Condo Drive,83353,43.6832677,-114.3342809
1581,Snow Creek Condo Drive,83353,43.6900340,-114.3492322
4027;4028,Bluff Condo Drive,83353,43.6798485,-114.3274546
250,Elkhorn Road,83353,43.6674246,-114.3256137
205,Fairway Road,83353,43.6969811,-114.3440425
4335,Fairway Nine Drive,83353,43.6835104,-114.3312057
736,Morning Star Road,83353,43.6736077,-114.3163484
4606,Arrowwood Condo Drive,83353,43.6731648,-114.3177223
2224,Bonne Vie Condo Drive,83353,43.6800686,-114.3315942
3546,Lower Ranch Condo Drive,83353,43.6722693,-114.3193177
214,Independence Creek Road,83353,43.6696868,-114.3085186
655;650;647,Wildflower Condo Drive,83353,43.6959674,-114.3494268
305,Kootenai Court,83353,43.6677094,-114.3539734
254,Elkhorn Road,83353,43.6669648,-114.3261786
303,Horseshoe Road,83353,43.6815910,-114.3261201
3590,Lower Ranch Condo Drive,83353,43.6715838,-114.3197197
97,Elkhorn Road,83353,43.6845831,-114.3308309
202,Camas Loop,83353,43.6769765,-114.3197043
682;678,Wildflower Condo Drive,83353,43.6951781,-114.3500509
101,Saddle Road,83353,43.6923155,-114.3593512
313,Juniper Road,83353,43.6648054,-114.3205694
100,Arrowleaf Road,83353,43.6739206,-114.3236059
4625,Arrowwood Condo Drive,83353,43.6725773,-114.3193533
2601,Ridge Lane,83353,43.6819718,-114.3334491
517,Fairway Road,83353,43.7057552,-114.3403382
2802,Summit 1 Condo Drive,83353,43.6776184,-114.3319717
1557,Snow Creek Condo Drive,83353,43.6900868,-114.3477553
701,Weyyakin Drive,83353,43.6666128,-114.3493444
2617,Ridge Lane,83353,43.6810564,-114.3325025
1361,Dollar Meadow Condo Drive,83353,43.6922653,-114.3475899
707,Fairway Road,83353,43.7099204,-114.3389942
21,Buck Lane,83353,43.6764220,-114.3156715
2,Back Pay Way,83353,43.7015442,-114.3388069
2627;2626,Ridge Lane,83353,43.6808584,-114.3316240
225,Bitterroot Road,83353,43.6818108,-114.3580425
2375,Indian Springs Condo Drive,83353,43.6806457,-114.3352190
4413,Fairway Nine Drive,83353,43.6789944,-114.3298054
2258,Bonne Vie Condo Drive,83353,43.6792706,-114.3310845
105,Defiance Street,83353,43.6780139,-114.3094787
102,Baldy View Lane,83353,43.6811503,-114.3569691
12,Camp Way,83353,43.6707230,-114.3148183
303,Morning Star Road,83353,43.6757956,-114.3185203
1317,Creekside Way,83353,43.6959295,-114.3459799
105,Boulder Court,83353,43.6633325,-114.3515212
230,Elkhorn Road,83353,43.6690599,-114.3233721
106,Thistle Street,83353,43.6651861,-114.3245202
2770,Sunburst Condo Drive,83353,43.6817992,-114.3352827
206,Camas Loop,83353,43.6760023,-114.3195814
1,Arrowleaf Road,83353,43.6774571,-114.3239409
2756,Sunburst Condo Drive,83353,43.6822307,-114.3358801
1269,Creekside Way,83353,43.6941590,-114.3458368
4113;4114,Bluff Condo Drive,83353,43.6799372,-114.3265012
15,Dogwood Court,83353,43.6631136,-114.3475795
2510;2507,Indian Springs Condo Drive,83353,43.6801167,-114.3359680
772,Sun Valley Condo Drive,83353,43.6942129,-114.3565942
4393,Fairway Nine Drive,83353,43.6815643,-114.3300735
203,Meadowridge Road,83353,43.6712337,-114.3267211
109,Thistle Street,83353,43.6646565,-114.3247142
4037;4038,Bluff Condo Drive,83353,43.6794114,-114.3274291
1034,Atelier Condo Drive,83353,43.6951914,-114.3483417
1427,Cottonwood Condo Drive,83353,43.6918125,-114.3525807
1304,Creekside Way,83353,43.6953004,-114.3464389
1,Aspen Lane,83353,43.6665109,-114.3218185
106,Village Way,83353,43.6792721,-114.3332267
107,Paintbrush,83353,43.6772383,-114.3182314
1565,Snow Creek Condo Drive,83353,43.6896469,-114.3479401
204,Sun Valley Road,83353,43.6847076,-114.3609003
2,Mock Orange,83353,43.6658544,-114.3240908
153,Diamond Back Road,83353,43.7035226,-114.3518845
2652,Ridge Lane,83353,43.6814185,-114.3319361
1078;1070,Atelier Condo Drive,83353,43.6951800,-114.3476224
224,Elkhorn Road,83353,43.6693512,-114.3230479
4382,Fairway Nine Drive,83353,43.6827108,-114.3309638
4420,Nine Iron Drive,83353,43.6806958,-114.3288646
415,Juniper Road,83353,43.6632633,-114.3147014
3584,Lower Ranch Condo Drive,83353,43.6716446,-114.3194313
110,Village Way,83353,43.6800683,-114.3328186
104,Grey Eagle,83353,43.6795745,-114.3148852
403,Cayuse Court,83353,43.6676170,-114.3521128
101,Hardrock Lane,83353,43.6957016,-114.3431084
114,Elkhorn Road,83353,43.6717948,-114.3207726
2718,Sunburst Condo Drive,83353,43.6827943,-114.3349640
114,Fireweed,83353,43.6816017,-114.3194064
3622,Ranch Court,83353,43.6718600,-114.3166285
2731,Sunburst Condo Drive,83353,43.6830511,-114.3356909
200,Prospector Road,83353,43.6958964,-114.3416002
205,Blue Bell,83353,43.6656289,-114.3184117
803,Sun Valley Condo Drive,83353,43.6942678,-114.3557599
3660,Upper Ranch Condo Drive,83353,43.6712310,-114.3160931
114,Paintbrush,83353,43.6785897,-114.3169271
504,Shoshone Court,83353,43.6665361,-114.3529628
2727,Sunburst Condo Drive,83353,43.6827716,-114.3357181
204,Meadowridge Road,83353,43.6709198,-114.3276380
402,Fairway Loop,83353,43.6996349,-114.3421208
2716,Sunburst Condo Drive,83353,43.6827186,-114.3348655
2206,Bonne Vie Condo Drive,83353,43.6801900,-114.3321107
109,Angani Way,83353,43.6791533,-114.3340309
5,Lane Creek Road,83353,43.6628609,-114.3456549
49,Larrys Lane,83353,43.6677424,-114.3282061
4617,Arrowwood Condo Drive,83353,43.6724838,-114.3181284
3588,Lower Ranch Condo Drive,83353,43.6715795,-114.3196652
4408,Fairway Nine Drive,83353,43.6797928,-114.3295620
1253,Villager Condo Drive,83353,43.6936898,-114.3466279
409,Cayuse Court,83353,43.6673085,-114.3511681
122,Syringa,83353,43.6743499,-114.3197757
3,Monarch Lane,83353,43.7073872,-114.3542175
105,Thistle Street,83353,43.6647224,-114.3239819
103,Elle Road,83353,43.7026122,-114.3505579
2752,Sunburst Condo Drive,83353,43.6824120,-114.3362258
525,Juniper Road,83353,43.6553917,-114.3082835
1245,Villager Condo Drive,83353,43.6934400,-114.3471224
150,Lane's Way,83353,43.6594779,-114.3492121
4507,Legends Condo Drive,83353,43.6831514,-114.3340993
112,Paintbrush,83353,43.6787840,-114.3176936
309,Diamond Back Road,83353,43.7074813,-114.3561528
103,Syringa,83353,43.6751756,-114.3185047
907,Cheyenne Court,83353,43.6655485,-114.3503790
2233,Bonne Vie Condo Drive,83353,43.6799044,-114.3316261
4392,Fairway Nine Drive,83353,43.6817245,-114.3301876
755;767,Sun Valley Condo Drive,83353,43.6949165,-114.3557544
106,Skyline Spur,83353,43.6863555,-114.3337105
2202,Bonne Vie Condo Drive,83353,43.6801823,-114.3321663
4502,Legends Condo Drive,83353,43.6827299,-114.3337386
5,Fox Lane,83353,43.6708098,-114.3175431
2,East Lake Road,83353,43.6918287,-114.3495391
229,Blue Bell,83353,43.6673609,-114.3134747
106,Paintbrush,83353,43.6778435,-114.3171343
218,Blue Bell,83353,43.6654276,-114.3162347
103,Dandelion Westreet,83353,43.6755561,-114.3165609
113,Angani Way,83353,43.6798693,-114.3335503
4627,Arrowwood Condo Drive,83353,43.6724946,-114.3200836
116,Baldy View Lane,83353,43.6834210,-114.3565528
1337,Creekside Way,83353,43.6961314,-114.3452265
2671,Ridge Lane,83353,43.6819147,-114.3314610
102,Paintbrush,83353,43.6768377,-114.3174572
230,Blue Bell,83353,43.6659883,-114.3127787
106,Saddle Lane,83353,43.6939694,-114.3607254
883;875,Lodge Apartments Drive,83353,43.6932993,-114.3557966
55,Lane Ranch Road,83353,43.6577208,-114.3469483
2427,Indian Springs Condo Drive,83353,43.6800973,-114.3341982
2686,Ridge Lane,83353,43.6819798,-114.3323991
3,Villa Court,83353,43.6749407,-114.3210014
3508,Lower Ranch Condo Drive,83353,43.6718021,-114.3180248
4622,Arrowwood Condo Drive,83353,43.6728849,-114.3187955
406,Juniper Road,83353,43.6619173,-114.3162764
4141;4142,Bluff Condo Drive,83353,43.6808640,-114.3267202
707,Morning Star Road,83353,43.6745588,-114.3111621
2214,Bonne Vie Condo Drive,83353,43.6799965,-114.3319928
2714,Sunburst Condo Drive,83353,43.6826408,-114.3347647
2720,Sunburst Condo Drive,83353,43.6828575,-114.3352271
1393,Dollar Meadow Condo Drive,83353,43.6910730,-114.3502296
104,Village Way,83353,43.6790216,-114.3332694
224,Blue Bell,83353,43.6647158,-114.3144898
3628,Ranch Court,83353,43.6717842,-114.3169442
106,Fireweed,83353,43.6800553,-114.3197474
573;570,Wildflower Condo Drive,83353,43.6968203,-114.3479909
602,Fairway Road,83353,43.7075002,-114.3386317
1516,Snow Creek Condo Drive,83353,43.6909409,-114.3482115
1001,Weyyakin Drive,83353,43.6642218,-114.3472852
1570,Snow Creek Condo Drive,83353,43.6896788,-114.3482711
54,Lane Ranch Road,83353,43.6584879,-114.3454466
5,Villa Court,83353,43.6750123,-114.3208288
4417,Nine Iron Drive,83353,43.6808409,-114.3291157
114,Sunrise Drive,83353,43.6632494,-114.3306174
64,Lane Ranch Road,83353,43.6610996,-114.3459455
146,Clos Du Val,83353,43.7016937,-114.3510529
100,Saddle Lane,83353,43.6934832,-114.3589388
4503,Legends Condo Drive,83353,43.6828007,-114.3337591
4626,Arrowwood Condo Drive,83353,43.6724988,-114.3194940
227,Blue Bell,83353,43.6673209,-114.3146701
4521,Legends Condo Drive,83353,43.6841429,-114.3357150
99,Badeyana Drive,83353,43.6788417,-114.3314090
120,High Country Lane,83353,43.6784080,-114.3269779
732,Morning Star Road,83353,43.6737358,-114.3160998
104,Syringa,83353,43.6751491,-114.3192380
601,Fairway Road,83353,43.7073626,-114.3394876
1387,Dollar Meadow Condo Drive,83353,43.6911763,-114.3495737
212,Bitterroot Road,83353,43.6835420,-114.3590890
7,Boleana Lane,83353,43.6663231,-114.3189477
108,Grey Eagle,83353,43.6795884,-114.3163441
1281,Creekside Way,83353,43.6949967,-114.3454571
101,Defiance Street,83353,43.6772751,-114.3087609
14,Villa Court,83353,43.6746598,-114.3204795
100,Skyline Drive,83353,43.6862406,-114.3355639
4,Sunflower Lane,83353,43.6659445,-114.3187663
204,Independence Creek Road,83353,43.6698353,-114.3137614
713,Fairway Road,83353,43.7105818,-114.3379835
205,Meadowridge Road,83353,43.6707082,-114.3268177
304,Kootenai Court,83353,43.6675563,-114.3537454
3638,Upper Ranch Condo Drive,83353,43.6715260,-114.3172393
1303,Creekside Way,83353,43.6953452,-114.3464258
2769,Sunburst Condo Drive,83353,43.6818258,-114.3352227
1297,Creekside Way,83353,43.6951246,-114.3467539
118,Skyline Drive,83353,43.6884794,-114.3389399
217,Morning Star Road,83353,43.6755758,-114.3211103
308,Kootenai Court,83353,43.6682565,-114.3538121
108,Blue Grouse Road,83353,43.6820092,-114.3288838
15,Buck Lane,83353,43.6768419,-114.3157961
4,Monarch Lane,83353,43.7076595,-114.3532201
702,Morning Star Road,83353,43.6762772,-114.3123040
4111;4112,Bluff Condo Drive,83353,43.6799384,-114.3266097
104,Fairway Road,83353,43.6945414,-114.3442880
3612,Upper Ranch Condo Drive,83353,43.6719184,-114.3161739
4014;4015,Bluff Condo Drive,83353,43.6805048,-114.3276450
4517,Legends Condo Drive,83353,43.6837827,-114.3353345
703,Morning Star Road,83353,43.6751980,-114.3097253
1017;1005,Atelier Condo Drive,83353,43.6949904,-114.3489401
1225,Villager Condo Drive,83353,43.6940245,-114.3477893
3682,Upper Ranch Condo Drive,83353,43.6714489,-114.3158353
141,Clos Du Val,83353,43.7021610,-114.3508214
105,Blue Bell,83353,43.6659961,-114.3208819
107,Saddle Road,83353,43.6922823,-114.3608832
8,Dogwood Lane,83353,43.6620680,-114.3481900
569,Wildflower Condo Drive,83353,43.6971149,-114.3478110
204,Big Wells Road,83353,43.6980756,-114.3415682
2705,Sunburst Condo Drive,83353,43.6820643,-114.3344018
733;745,Sun Valley Condo Drive,83353,43.6947856,-114.3561753
106,Silver Queen Drive,83353,43.6800396,-114.3115122
2205,Bonne Vie Condo Drive,83353,43.6801710,-114.3322212
6,Huckleberry Lane,83353,43.6668581,-114.3189740
115,Skyline Road,83353,43.6875742,-114.3382983
801,Sun Valley Condo Drive,83353,43.6943068,-114.3556965
111,Blue Bell,83353,43.6657154,-114.3198674
115,May Leaf,83353,43.6644345,-114.3170142
120,High Country Lane,83353,43.6785195,-114.3267152
1446;1440,Cottonwood Condo Drive,83353,43.6917506,-114.3531490
407,Juniper Road,83353,43.6641053,-114.3163789
105,Saddle Road,83353,43.6922889,-114.3603667
2725,Sunburst Condo Drive,83353,43.6827959,-114.3355836
204,Sunrise Drive,83353,43.6633439,-114.3272962
612;609;617,Wildflower Condo Drive,83353,43.6967906,-114.3488705
100,Dandelion Eastreet,83353,43.6760359,-114.3172659
1279,Creekside Way,83353,43.6949016,-114.3454955
2431;2428,Indian Springs Condo Drive,83353,43.6800573,-114.3340930
4017-4022,Bluff Condo Drive,83353,43.6800093,-114.3278860
4428,Nine Iron Drive,83353,43.6800080,-114.3290517
1433,Cottonwood Condo Drive,83353,43.6916941,-114.3527956
1502,Snow Creek Condo Drive,83353,43.6903960,-114.3493225
686;691,Wildflower Condo Drive,83353,43.6952705,-114.3503672
7,Villa Court,83353,43.6752426,-114.3208653
7,Chateau Circle,83353,43.6732631,-114.3221864
1,Lane Ranch Road,83353,43.6616269,-114.3473801
716,Morning Star Road,83353,43.6749084,-114.3147604
201,Prospector Road,83353,43.6957116,-114.3423281
2753,Sunburst Condo Drive,83353,43.6823367,-114.3360343
114,Dandelion Westreet,83353,43.6752244,-114.3178319
4406,Fairway Nine Drive,83353,43.6800369,-114.3295597
2795,Sunburst Condo Drive,83353,43.6814080,-114.3348219
4418,Nine Iron Drive,83353,43.6808009,-114.3290629
12,Villa Court,83353,43.6745856,-114.3206227
113,Skyline Drive,83353,43.6873736,-114.3378811
1543;1542,Snow Creek Condo Drive,83353,43.6908704,-114.3471867
120,Senabi Lane,83353,43.6787542,-114.3346366
108,Blue Bell,83353,43.6653144,-114.3206228
1306,Creekside Way,83353,43.6952753,-114.3465784
4,Crown Point Lane,83353,43.6707530,-114.3184698
3544,Lower Ranch Condo Drive,83353,43.6722532,-114.3192651
409,Fairway Road,83353,43.7016152,-114.3427691
1415,Cottonwood Condo Drive,83353,43.6920616,-114.3526109
1227,Villager Condo Drive,83353,43.6940649,-114.3477284
561;564,Wildflower Condo Drive,83353,43.6971266,-114.3478533
2801,Summit 1 Condo Drive,83353,43.6775389,-114.3319395
15,Lane Ranch Road,83353,43.6595137,-114.3475320
2649,Ridge Lane,83353,43.6815459,-114.3320396
1561,Snow Creek Condo Drive,83353,43.6899246,-114.3477838
101,Syringa,83353,43.6751907,-114.3184827
105,Prospector Road,83353,43.6941911,-114.3438179
2798,Sunburst Condo Drive,83353,43.6815586,-114.3347414
2515;2518,Indian Springs Condo Drive,83353,43.6803737,-114.3359323
29,Crown Ranch Road,83353,43.6704113,-114.3163557
1242,Villager Condo Drive,83353,43.6934034,-114.3473372
100,Wedeln Lane,83353,43.6936709,-114.3428950
502,Fairway Road,83353,43.7029407,-114.3412830
2642,Ridge Lane,83353,43.6812021,-114.3311537
232,Blue Bell,83353,43.6671998,-114.3117626
111,Grey Eagle,83353,43.6774585,-114.3164310
2701,Sunburst Condo Drive,83353,43.6817795,-114.3344347
3678,Upper Ranch Condo Drive,83353,43.6714378,-114.3157239
4325,Fairway Nine Drive,83353,43.6841238,-114.3316524
104,Baldy View Lane,83353,43.6815713,-114.3568904
1523;1522,Snow Creek Condo Drive,83353,43.6911139,-114.3478523
709,Fairway Road,83353,43.7102615,-114.3385636
316,Diamond Back Road,83353,43.7090690,-114.3568670
2432;2429,Indian Springs Condo Drive,83353,43.6799715,-114.3340653
1008;1020,Atelier Condo Drive,83353,43.6948263,-114.3487894
3,Snowcup Lane,83353,43.6639353,-114.3233555
111,Angani Way,83353,43.6796243,-114.3340081
17,Cloud Nine Drive,83353,43.7070812,-114.3476820
1244,Villager Condo Drive,83353,43.6934450,-114.3472883
206,Lupine,83353,43.6666032,-114.3205267
1566,Snow Creek Condo Drive,83353,43.6896099,-114.3479990
3520,Lower Ranch Condo Drive,83353,43.6718377,-114.3185888
3596,Lower Ranch Condo Drive,83353,43.6716146,-114.3200019
107,Skyline Spur,83353,43.6873782,-114.3348761
1525;1524,Snow Creek Condo Drive,83353,43.6911566,-114.3478832
4416,Nine Iron Drive,83353,43.6808653,-114.3291839
1097,Atelier Condo Drive,83353,43.6958167,-114.3476025
620;611;615,Wildflower Condo Drive,83353,43.6967206,-114.3488179
18,Lane Ranch Road,83353,43.6572022,-114.3488030
115,Angani Way,83353,43.6800367,-114.3330586
106,Hardrock Lane,83353,43.6946244,-114.3429632
11,Meadow Road,83353,43.6604429,-114.3504609
412,Morning Star Road,83353,43.6776055,-114.3139967
4403,Fairway Nine Drive,83353,43.6803670,-114.3295746
4104;4105,Bluff Condo Drive,83353,43.6795304,-114.3267220
105,Syringa,83353,43.6751133,-114.3183243
108,Village Way,83353,43.6797159,-114.3326448
126,Dandelion Westreet,83353,43.6751274,-114.3171166
4387,Fairway Nine Drive,83353,43.6822492,-114.3305040
3,Camp Way,83353,43.6711034,-114.3149813
104,Paintbrush,83353,43.6773601,-114.3173458
3,Aspen Lane,83353,43.6665592,-114.3222143
516,Fairway Road,83353,43.7051759,-114.3395458
1093,Atelier Condo Drive,83353,43.6957595,-114.3476453
112,Syringa,83353,43.6748057,-114.3197934
19,Crown Ranch Road,83353,43.6698587,-114.3172766
109,Angani Way,83353,43.6793177,-114.3337266
2743,Sunburst Condo Drive,83353,43.6828794,-114.3366216
511,Juniper Road,83353,43.6594097,-114.3091788
205,Morning Star Road,83353,43.6744801,-114.3222598
5002,Fairway One,83353,43.6773654,-114.3331043
219,Bitterroot Road,83353,43.6827809,-114.3577737
99,Morning Star Road,83353,43.6728331,-114.3246127
109,Blue Bell,83353,43.6657310,-114.3202515
9,Lane Ranch Road,83353,43.6602054,-114.3477412
4,Firewood Lane,83353,43.6653684,-114.3256229
211,Morning Star Road,83353,43.6748587,-114.3220419
4,Dogwood Lane,83353,43.6614261,-114.3484890
4412,Fairway Nine Drive,83353,43.6793095,-114.3296776
103,Arrowleaf Road,83353,43.6732912,-114.3247074
56,Lane Ranch Road,83353,43.6592068,-114.3458424
1012,Atelier Condo Drive,83353,43.6947950,-114.3488522
25,Crown Ranch Road,83353,43.6699834,-114.3164988
1471,Cottonwood Condo Drive,83353,43.6913692,-114.3527315
113,Angani Way,83353,43.6797765,-114.3336391
1043;1031,Atelier Condo Drive,83353,43.6951649,-114.3482258
701,Fairway Road,83353,43.7085920,-114.3394759
10,Meadow Road,83353,43.6617467,-114.3511659
301,Diamond Back Road,83353,43.7047098,-114.3534950
1023,Atelier Condo Drive,83353,43.6948176,-114.3488730
4346,Fairway Nine Drive,83353,43.6830564,-114.3319836
314,Elkhorn Road,83353,43.6648740,-114.3296417
2484;2481,Indian Springs Condo Drive,83353,43.6793190,-114.3355057
106,Village Way,83353,43.6791999,-114.3329324
4329,Fairway Nine Drive,83353,43.6838270,-114.3317586
610,Elkhorn Road,83353,43.6621753,-114.3516931
109,Angani Way,83353,43.6793227,-114.3337287
109,Village Way,83353,43.6802733,-114.3322877
609,Nez Perce Court,83353,43.6660289,-114.3520038
204,Sun Valley Road,83353,43.6853103,-114.3604285
217,Blue Bell,83353,43.6663185,-114.3162178
200,Bitterroot Road,83353,43.6853055,-114.3570044
158,Proctor View Drive,83353,43.7040186,-114.3525259
3534,Lower Ranch Condo Drive,83353,43.6720573,-114.3188638
2611,Ridge Lane,83353,43.6814273,-114.3328908
105,Silver Queen Drive,83353,43.6811203,-114.3122492
409,Juniper Road,83353,43.6638016,-114.3157451
2789,Sunburst Condo Drive,83353,43.6811687,-114.3352507
646,Wildflower Condo Drive,83353,43.6960579,-114.3488875
106,Sagewillow Road,83353,43.6817135,-114.3252059
606,Nez Perce Court,83353,43.6657893,-114.3512245
102,Wedeln Lane,83353,43.6932014,-114.3424010
4321;4322,Fairway Nine Drive,83353,43.6839905,-114.3313628
300,Fairway Road,83353,43.6976243,-114.3431657
850;853,Lodge Apartments Drive,83353,43.6938078,-114.3552226
206,Elkhorn Road,83353,43.6707282,-114.3216638
2474,Indian Springs Condo Drive,83353,43.6794187,-114.3352048
108,Baldy View Lane,83353,43.6821239,-114.3567875
73,Lane Ranch Road,83353,43.6613920,-114.3467298
1014;1002,Atelier Condo Drive,83353,43.6950764,-114.3489299
408,Fairway Loop,83353,43.7002026,-114.3409080
4130;4129,Bluff Condo Drive,83353,43.6804848,-114.3267952
104,Angani Way,83353,43.6787761,-114.3342292
413,Juniper Road,83353,43.6625758,-114.3153353
301,Weyyakin Drive,83353,43.6683071,-114.3534736
109,Skyline Spur,83353,43.6869128,-114.3342349
1325,Creekside Way,83353,43.6964882,-114.3460381
4623,Arrowwood Condo Drive,83353,43.6725645,-114.3189584
102,Sagewillow Road,83353,43.6822568,-114.3239134
2733,Sunburst Condo Drive,83353,43.6831583,-114.3356363
21,Chateau Circle,83353,43.6740618,-114.3214203
2609,Ridge Lane,83353,43.6814982,-114.3329754
104,Arapaho Court,83353,43.6687237,-114.3541706
190,Lane's Way,83353,43.6593325,-114.3500798
700,Morning Star Road,83353,43.6765118,-114.3121568
1517,Snow Creek Condo Drive,83353,43.6909353,-114.3481421
103,Senabi Lane,83353,43.6783016,-114.3336345
3666,Upper Ranch Condo Drive,83353,43.6711431,-114.3156889
208,Independence Creek Road,83353,43.6695310,-114.3120449
3636,Upper Ranch Condo Drive,83353,43.6715412,-114.3172931
5,Willow Road,83353,43.6573979,-114.3501823
308,Elkhorn Road,83353,43.6642086,-114.3288424
2604,Ridge Lane,83353,43.6818055,-114.3331353
4,Coyote Court,83353,43.6705313,-114.3171531
4609,Arrowwood Condo Drive,83353,43.6728544,-114.3173756
1315,Creekside Way,83353,43.6958379,-114.3459462
4396,Fairway Nine Drive,83353,43.6812342,-114.3299650
2740,Sunburst Condo Drive,83353,43.6831406,-114.3365435
113,Angani Way,83353,43.6797931,-114.3335876
2738,Sunburst Condo Drive,83353,43.6833136,-114.3364409
103,Sagewillow Road,83353,43.6832334,-114.3242713
720,Morning Star Road,83353,43.6742096,-114.3154101
6,Villa Court,83353,43.6744991,-114.3211514
13,Dogwood Court,83353,43.6630531,-114.3481687
111,Juniper Road,83353,43.6657609,-114.3235607
3670,Upper Ranch Condo Drive,83353,43.6711152,-114.3155849
4,Crown Ranch Road,83353,43.6706395,-114.3179809
1563,Snow Creek Condo Drive,83353,43.6897480,-114.3478889
21,Crown Ranch Road,83353,43.6698607,-114.3169988
4407,Fairway Nine Drive,83353,43.6798839,-114.3295719
209,Lupine,83353,43.6675365,-114.3200580
6,Buck Lane,83353,43.6762253,-114.3162287
4323;4324,Fairway Nine Drive,83353,43.6840092,-114.3314531
2468;2465,Indian Springs Condo Drive,83353,43.6792794,-114.3348959
885;877,Lodge Apartments Drive,83353,43.6934422,-114.3556503
706,Fairway Road,83353,43.7101046,-114.3373038
7,Dogwood Court,83353,43.6623705,-114.3492997
200,Camas Loop,83353,43.6773824,-114.3197546
908,Cheyenne Court,83353,43.6654848,-114.3500533
316,Juniper Road,83353,43.6634312,-114.3200903
4355,Fairway Nine Drive,83353,43.6827326,-114.3313381
4043;4044,Bluff Condo Drive,83353,43.6793617,-114.3272783
113,Angani Way,83353,43.6795972,-114.3338468
3598,Lower Ranch Condo Drive,83353,43.6716553,-114.3199997
3,Meadow Road,83353,43.6608764,-114.3500006
563;567,Wildflower Condo Drive,83353,43.6971027,-114.3477562
104,Dandelion Westreet,83353,43.6756936,-114.3174372
3658,Upper Ranch Condo Drive,83353,43.6712441,-114.3161433
17,Lane Ranch Road,83353,43.6590862,-114.3474704
607,Nez Perce Court,83353,43.6657468,-114.3515514
10,Camp Way,83353,43.6709307,-114.3145966
123,Dandelion Westreet,83353,43.6751274,-114.3171669
207,Sunrise Drive,83353,43.6639771,-114.3276775
770,Sun Valley Condo Drive,83353,43.6941779,-114.3565260
1278,Creekside Way,83353,43.6946723,-114.3457687
4616,Arrowwood Condo Drive,83353,43.6727698,-114.3183658
204,Sun Valley Road,83353,43.6856996,-114.3609201
203,Arrowleaf Road,83353,43.6764074,-114.3256706
201,Sun Peak Drive,83353,43.7070692,-114.3495538
107,Dandelion Westreet,83353,43.6755295,-114.3163057
310,Juniper Road,83353,43.6637931,-114.3215589
3656,Upper Ranch Condo Drive,83353,43.6712915,-114.3163168
122,Highlands Drive,83353,43.6781268,-114.3276184
107,Fireweed,83353,43.6795281,-114.3215403
4516,Legends Condo Drive,83353,43.6837235,-114.3353922
1,Sun Valley Rd,83353,43.6948687,-114.3544567
300,Dollar Road,83353,43.6938548,-114.3526054
1,Eastlake Road,83353,43.6914599,-114.3499680
2,Westlake Road,83353,43.6930293,-114.3514621
1,Westlake Road,83353,43.6926928,-114.3516340
300,Spruce Avenue,83340,43.6839345,-114.3604688
202,East Sun Valley Road,83353,43.6854115,-114.3598492
100,Badeyana Drive,83353,43.6766408,-114.3315587
95,Badeyana Drive,83353,43.6791449,-114.3324720
97,Badeyana Drive,83353,43.6792382,-114.3319545
101,Lupine,83353,43.6654456,-114.3227059
102,Lupine,83353,43.6651299,-114.3222899
103,Lupine,83353,43.6656252,-114.3222935
1,Bunchberry Drive,83353,43.6653601,-114.3217518
107,Lupine,83353,43.6658020,-114.3221307
12,Highlands Court,83353,43.6773922,-114.3300014
10,Highlands Court,83353,43.6779101,-114.3296649
101,Highlands Drive,83353,43.6784989,-114.3292518
121,Highland Road,83353,43.6782506,-114.3286054
123,Highlands Drive,83353,43.6788344,-114.3287235
125,Highlands Drive,83353,43.6790905,-114.3283586
124,Highlands Drive,83353,43.6786201,-114.3278463
126,Highlands Drive,83353,43.6790343,-114.3277846
122,Highlands Drive,83353,43.6781778,-114.3277029
127,Highlands Drive,83353,43.6795781,-114.3281960
4031-4036,Bluff Condo Drive,83353,43.6795140,-114.3277803
14,Highlands Court,83353,43.6770111,-114.3295674
13,Highlands Court,83353,43.6770962,-114.3290126
102,Highlands Drive,83353,43.6775209,-114.3290745
106,Meadowridge Road,83353,43.6732140,-114.3287484
104,Meadowridge Road,83353,43.6728143,-114.3282247
102,Meadowridge Road,83353,43.6725133,-114.3277298
105,Meadowridge Road,83353,43.6728601,-114.3292929
101,Meadowridge Road,83353,43.6721155,-114.3282644
200,Trail Creek Road,83353,43.7058028,-114.3465741
214,Sunrise Drive,83353,43.6639787,-114.3263628
