House number,Street name,Postal code,Latitude,Longitude
3/25,улица Кирова,301650,54.0128023,38.2994080
6А,улица Депо,301654,54.0295046,38.2562526
28А,Комсомольская улица,301650,54.0103081,38.2863371
10А,Московская улица,301650,54.0110647,38.2983378
32А,улица Маяковского,301650,54.0050369,38.3099748
30,улица Маяковского,301650,54.0045134,38.3068581
18А,Шахтёрская улица,301680,54.0623413,38.4814329
8Б,Комсомольская улица,301650,54.0100410,38.2806131
75,Первомайская улица,301650,54.0003051,38.2866662
31,Коммунистическая улица,301650,54.0087839,38.3054639
5,улица Свободы,301651,54.0788510,38.2215829
22/1,улица Калинина,301650,54.0114086,38.3063857
24Б,улица Калинина,301650,54.0133000,38.3073449
28/32,Московская улица,301650,54.0161932,38.2972822
13,Берёзовая улица,301650,54.0127098,38.2848391
8А,улица Дружбы,301665,54.0256213,38.2738039
12,улица Бережного,301650,54.0141806,38.2893471
5,улица Орджоникидзе,301668,54.0334221,38.2686331
35/19,Октябрьская улица,301650,54.0148072,38.2908659
23/16,улица Дружбы,301665,54.0271132,38.2696243
29/31,улица Садовского,301650,54.0166890,38.2951795
13,улица Генерала Белова,301666,54.0315820,38.3149876
12А,улица Чапаева,301662,54.0093323,38.2739920
7А,проспект Победы,301666,54.0304795,38.3104939
8,Коммунистическая улица,301650,54.0082941,38.2988816
12А,Донской проезд,301663,54.0315432,38.2766762
6,улица Мичурина,301657,54.0073904,38.2666955
25,улица Маяковского,301650,54.0048814,38.2986133
5,улица Бережного,301650,54.0148492,38.2814652
32,улица Калинина,301650,54.0182219,38.3048496
47,улица Свердлова,301650,54.0191647,38.2994185
17,улица Дружбы,301665,54.0249125,38.2696423
10,Рудничная улица,301661,54.0422152,38.2489736
6,Профсоюзная улица,301659,54.0071882,38.3164961
7,улица Космонавтов,301657,54.0115771,38.2658810
38/15,Комсомольская улица,301650,54.0103556,38.2945817
9,Рязанское шоссе,301666,54.0271120,38.3162898
6/33,улица Орджоникидзе,301668,54.0320165,38.2664973
18/29,улица Дзержинского,301650,54.0126027,38.2909066
40,улица Трудовые Резервы,301650,54.0138199,38.2878999
10,Октябрьская улица,301650,54.0090638,38.2924065
11,улица Кирова,301650,54.0128721,38.3058553
7,Московская улица,301664,54.0063124,38.2954304
36,улица Мира,301665,54.0241041,38.2613263
5/10,улица Генерала Белова,301666,54.0297680,38.3159028
15А,улица Мира,301654,54.0309318,38.2569086
3А,Олимпийская улица,301661,54.0452151,38.2486160
36/14,Комсомольская улица,301650,54.0103328,38.2925034
4,Профсоюзная улица,301659,54.0066681,38.3172993
14,улица Мира,301662,54.0163086,38.2688094
48/1,улица Мира,301668,54.0341197,38.2625422
32/32,Комсомольская улица,301650,54.0106291,38.2883746
2,Северодонецкая улица,301666,54.0329740,38.3055349
3,Северодонецкая улица,301666,54.0330753,38.3073105
1/24,Северодонецкая улица,301666,54.0323517,38.3046043
22,Парковая улица,301666,54.0319317,38.3051545
20,Парковая улица,301666,54.0315206,38.3056998
20А,Парковая улица,301666,54.0316983,38.3073134
18,Парковая улица,301666,54.0310177,38.3055312
16,Парковая улица,301666,54.0306689,38.3060727
14,Парковая улица,301666,54.0302205,38.3066695
12,Парковая улица,301666,54.0297522,38.3072608
14А,Парковая улица,301666,54.0305989,38.3081172
5А,проспект Победы,301666,54.0303244,38.3090626
5,проспект Победы,301666,54.0296768,38.3091052
10/1,Парковая улица,301666,54.0290563,38.3079863
3,проспект Победы,301666,54.0289697,38.3088408
3А,проспект Победы,301666,54.0291888,38.3092745
7,проспект Победы,301666,54.0298454,38.3103530
4,Северодонецкая улица,301666,54.0334527,38.3098498
4А,Северодонецкая улица,301666,54.0327892,38.3098365
21,улица Генерала Белова,301666,54.0339612,38.3123511
19А,улица Генерала Белова,301666,54.0330761,38.3124400
17А,улица Генерала Белова,301666,54.0325450,38.3127287
15А,улица Генерала Белова,301666,54.0320026,38.3130070
15,улица Генерала Белова,301666,54.0325555,38.3143046
19,улица Генерала Белова,301666,54.0335833,38.3137770
13А,улица Генерала Белова,301666,54.0315083,38.3138771
11,проспект Победы,301666,54.0307799,38.3139597
9,проспект Победы,301666,54.0307393,38.3123822
12/14,проспект Победы,301666,54.0306826,38.3175665
12,улица Генерала Белова,301666,54.0299128,38.3169725
10,улица Генерала Белова,301666,54.0296063,38.3183643
2,улица Генерала Белова,301666,54.0269682,38.3187836
4,улица Генерала Белова,301666,54.0274852,38.3185073
6,улица Генерала Белова,301666,54.0279738,38.3182992
8,улица Генерала Белова,301666,54.0284834,38.3180199
8А,улица Генерала Белова,301666,54.0289707,38.3177819
12А,улица Генерала Белова,301666,54.0301980,38.3186275
4А,проспект Победы,301666,54.0294639,38.3121869
6,проспект Победы,301666,54.0299445,38.3134990
8/9,проспект Победы,301666,54.0302207,38.3150529
5А,улица Генерала Белова,301666,54.0294272,38.3152278
6Б,проспект Победы,301666,54.0292767,38.3144283
6А,проспект Победы,301666,54.0290780,38.3132568
3А,улица Генерала Белова,301666,54.0287382,38.3143005
3Б,улица Генерала Белова,301666,54.0282641,38.3145699
1А,улица Генерала Белова,301666,54.0277979,38.3160460
5А,Рязанское шоссе,301666,54.0273706,38.3139082
7,Рязанское шоссе,301666,54.0268310,38.3147273
3А,Рязанское шоссе,301666,54.0272257,38.3131001
2/8,проспект Победы,301666,54.0285375,38.3096719
6,Парковая улица,301666,54.0277960,38.3096586
4,Парковая улица,301666,54.0267657,38.3110564
1/2,Рязанское шоссе,301666,54.0264476,38.3125859
1А,Рязанское шоссе,301666,54.0259799,38.3132915
9А,Рязанское шоссе,301666,54.0263374,38.3149627
9Б,Рязанское шоссе,301666,54.0265400,38.3161220
9В,Рязанское шоссе,301666,54.0267448,38.3172740
3,улица Генерала Белова,301666,54.0287975,38.3161612
12,Рудничная улица,301661,54.0422380,38.2500944
9,Олимпийская улица,301661,54.0420692,38.2508524
12А,Рудничная улица,301661,54.0418334,38.2495840
11,Олимпийская улица,301661,54.0414174,38.2509105
13,Олимпийская улица,301661,54.0407890,38.2509744
8,Олимпийская улица,301661,54.0417669,38.2486793
10,Олимпийская улица,301661,54.0412036,38.2487183
12,Олимпийская улица,301661,54.0407808,38.2487632
8А,Олимпийская улица,301661,54.0414620,38.2491311
10А,Олимпийская улица,301661,54.0410412,38.2491689
12А,Олимпийская улица,301661,54.0406138,38.2492220
16,Рудничная улица,301661,54.0415626,38.2517890
16А,Рудничная улица,301661,54.0406418,38.2521035
43А,улица Мира,301661,54.0417061,38.2553264
39А,улица Мира,301661,54.0406667,38.2553571
43,улица Мира,301661,54.0416649,38.2559388
39,улица Мира,301661,54.0406923,38.2560048
5Б,Олимпийская улица,301661,54.0439297,38.2518310
5В,Олимпийская улица,301661,54.0448365,38.2517541
5А,Олимпийская улица,301661,54.0443619,38.2507111
3,Стадионная улица,301661,54.0453638,38.2506574
4А,Олимпийская улица,301661,54.0443619,38.2486800
4Б,Олимпийская улица,301661,54.0443465,38.2493848
3Б,Олимпийская улица,301661,54.0452420,38.2493410
1А,Олимпийская улица,301661,54.0460511,38.2485687
1Б,Олимпийская улица,301661,54.0459331,38.2499799
2А,Олимпийская улица,301661,54.0463143,38.2495620
2Б,Олимпийская улица,301661,54.0461885,38.2508809
11,Рудничная улица,301661,54.0426488,38.2459009
7,Олимпийская улица,301661,54.0425913,38.2477327
6,Олимпийская улица,301661,54.0430556,38.2479939
5,Олимпийская улица,301661,54.0436732,38.2479405
4,Олимпийская улица,301661,54.0442578,38.2478354
1,Садовая улица,301661,54.0444094,38.2471127
3,Садовая улица,301661,54.0442021,38.2463560
5,Садовая улица,301661,54.0438666,38.2457737
7,Садовая улица,301661,54.0435036,38.2454703
9/12,Рудничная улица,301661,54.0427903,38.2446309
10,Садовая улица,301661,54.0432183,38.2449599
8,Садовая улица,301661,54.0435561,38.2449340
6,Садовая улица,301661,54.0438775,38.2447430
2,Садовая улица,301661,54.0443918,38.2438255
6,Малая Зелёная улица,301661,54.0442391,38.2432814
1/7,Рудничная улица,301661,54.0439236,38.2427615
5,Рудничная улица,301661,54.0432359,38.2435441
7,Рудничная улица,301661,54.0430157,38.2439557
5А,Малая Зелёная улица,301661,54.0451619,38.2452843
5,Малая Зелёная улица,301661,54.0454203,38.2457355
3А,Малая Зелёная улица,301661,54.0450915,38.2462539
2А,Малая Зелёная улица,301661,54.0449088,38.2465658
1А,Малая Зелёная улица,301661,54.0447807,38.2472026
3,Олимпийская улица,301661,54.0450247,38.2477862
2,Олимпийская улица,301661,54.0455222,38.2475140
1,Олимпийская улица,301661,54.0460679,38.2476834
1,Малая Зелёная улица,301661,54.0462316,38.2472136
2,Малая Зелёная улица,301661,54.0461437,38.2467448
3,Малая Зелёная улица,301661,54.0459237,38.2463490
4,Малая Зелёная улица,301661,54.0457210,38.2459920
4,Гражданская улица,301661,54.0458946,38.2410218
4А,Гражданская улица,301661,54.0458948,38.2404159
1А,Гражданская улица,301661,54.0441260,38.2395949
3А,Гражданская улица,301661,54.0443717,38.2395832
5,Гражданская улица,301661,54.0447548,38.2395375
7,Гражданская улица,301661,54.0453098,38.2397576
11А,Гражданская улица,301661,54.0459167,38.2397390
13,Гражданская улица,301661,54.0461905,38.2397283
13А,Гражданская улица,301661,54.0464514,38.2396970
15,Гражданская улица,301661,54.0468792,38.2397296
19,Гражданская улица,301661,54.0474045,38.2397072
21,Гражданская улица,301661,54.0478321,38.2396904
23,Гражданская улица,301661,54.0482337,38.2396997
13/3,улица Маяковского,301664,54.0049598,38.2909298
7,Октябрьская улица,301664,54.0056331,38.2909004
9,Октябрьская улица,301664,54.0063904,38.2910196
8,Молодёжная улица,301670,54.0375684,38.2772802
8Б,Молодёжная улица,301670,54.0369319,38.2778556
8А,Молодёжная улица,301670,54.0369333,38.2768255
6,Молодёжная улица,301670,54.0372011,38.2754791
4,Молодёжная улица,301670,54.0366621,38.2740547
2,Молодёжная улица,301670,54.0368254,38.2731321
7,Трудовой проезд,301670,54.0338800,38.2791380
9,Трудовой проезд,301670,54.0345337,38.2788314
11,Трудовой проезд,301670,54.0353929,38.2800697
12,Молодёжная улица,301670,54.0374623,38.2802226
10,Молодёжная улица,301670,54.0371373,38.2793616
1,Трудовой проезд,301670,54.0333103,38.2758814
3,Трудовой проезд,301670,54.0335221,38.2780619
5,Трудовой проезд,301670,54.0337009,38.2785887
5Г,улица Орджоникидзе,301668,54.0340208,38.2693121
5Д,улица Орджоникидзе,301668,54.0340110,38.2683552
5Б,улица Орджоникидзе,301668,54.0340774,38.2701428
7А,улица Орджоникидзе,301668,54.0342854,38.2713636
9,улица Орджоникидзе,301668,54.0332724,38.2727401
3В,улица Орджоникидзе,301668,54.0342271,38.2662416
3Г,улица Орджоникидзе,301668,54.0338207,38.2655576
3,улица Орджоникидзе,301668,54.0334405,38.2650838
3Б,улица Орджоникидзе,301668,54.0332660,38.2636361
54В,улица Мира,301668,54.0360729,38.2652298
54Г,улица Мира,301668,54.0357503,38.2638542
48А,улица Мира,301668,54.0340195,38.2629889
3А,улица Орджоникидзе,301668,54.0342246,38.2652460
52,улица Мира,301668,54.0350131,38.2614861
52А,улица Мира,301668,54.0352747,38.2618830
54А,улица Мира,301668,54.0358056,38.2624865
54Б,улица Мира,301668,54.0363332,38.2637311
54,улица Мира,301668,54.0361142,38.2630843
50,улица Мира,301668,54.0347706,38.2609738
7,улица Есенина,301668,54.0305755,38.2651312
29А,улица Дружбы,301668,54.0298685,38.2664192
31А,улица Дружбы,301668,54.0309857,38.2671038
44,улица Мира,301668,54.0310716,38.2612240
44А,улица Мира,301668,54.0308505,38.2620733
7А,улица Есенина,301668,54.0299778,38.2637355
7В,улица Есенина,301668,54.0300714,38.2644079
4,улица Орджоникидзе,301668,54.0324651,38.2635390
14,улица Дёмкина,301665,54.0271802,38.2681726
12,улица Дёмкина,301665,54.0267146,38.2676335
10,улица Дёмкина,301665,54.0262744,38.2670301
21,улица Дружбы,301665,54.0263870,38.2696222
10,Донской проезд,301663,54.0303803,38.2759625
10А,Донской проезд,301663,54.0304638,38.2772820
6,Донской проезд,301663,54.0296777,38.2759571
67,улица Трудовые Резервы,301663,54.0305772,38.2809756
65,улица Трудовые Резервы,301663,54.0301975,38.2814101
63/6,улица Трудовые Резервы,301663,54.0298552,38.2820020
14А,Донской проезд,301663,54.0320376,38.2766814
12,Донской проезд,301663,54.0311230,38.2750510
8,Донской проезд,301663,54.0300326,38.2750435
4,Донской проезд,301663,54.0290138,38.2750292
76,улица Трудовые Резервы,301663,54.0326292,38.2807917
77,улица Трудовые Резервы,301663,54.0324850,38.2762285
72Б,улица Трудовые Резервы,301663,54.0330741,38.2820404
74,улица Трудовые Резервы,301663,54.0325134,38.2817776
72,улица Трудовые Резервы,301663,54.0319983,38.2818554
70,улица Трудовые Резервы,301663,54.0314443,38.2824576
78,улица Трудовые Резервы,301663,54.0333737,38.2806443
8,Донская улица,301663,54.0310403,38.2846371
70А,улица Трудовые Резервы,301663,54.0314720,38.2839769
70Б,улица Трудовые Резервы,301663,54.0318941,38.2833118
72А,улица Трудовые Резервы,301663,54.0324740,38.2831670
13,Донская улица,301663,54.0332836,38.2857607
12,Донская улица,301663,54.0328189,38.2864929
11,Донская улица,301663,54.0321384,38.2872064
10,Донская улица,301663,54.0312309,38.2868576
4,Трудовой проезд,301663,54.0341060,38.2814392
17,Донская улица,301663,54.0337642,38.2833795
16,Донская улица,301663,54.0334508,38.2838515
15,Донская улица,301663,54.0329843,38.2844250
14,Донская улица,301663,54.0326505,38.2847468
8,Трудовой проезд,301663,54.0349702,38.2830743
6,Трудовой проезд,301663,54.0343221,38.2825327
34,улица Мира,301665,54.0235097,38.2622247
56,улица Мира,301668,54.0353372,38.2595972
32,улица Мира,301665,54.0226810,38.2622839
30А,улица Мира,301665,54.0232386,38.2635963
30Б,улица Мира,301665,54.0235619,38.2641397
5,улица Дёмкина,301665,54.0239138,38.2647040
26,улица Мира,301665,54.0211632,38.2639079
28,улица Мира,301665,54.0218963,38.2634059
3А,улица Дружбы,301665,54.0224143,38.2646797
30,улица Мира,301665,54.0225698,38.2637191
1А,улица Дружбы,301665,54.0213305,38.2661502
7/1,улица Дружбы,301665,54.0221853,38.2664782
5,улица Дружбы,301665,54.0219158,38.2657902
3,улица Дружбы,301665,54.0216554,38.2650709
9А,улица Дружбы,301665,54.0226477,38.2683354
7А,улица Дружбы,301665,54.0222922,38.2675703
9В,улица Дружбы,301665,54.0221238,38.2680619
4,улица Дёмкина,301665,54.0232791,38.2665427
9/2,улица Дружбы,301665,54.0230156,38.2675441
13А,улица Дружбы,301665,54.0231416,38.2693952
11А,улица Дружбы,301665,54.0232127,38.2688742
11Б,улица Дружбы,301665,54.0226959,38.2689631
15,улица Дружбы,301665,54.0240428,38.2696382
13,улица Дружбы,301665,54.0239332,38.2688408
11,улица Дружбы,301665,54.0238364,38.2680534
6,улица Дёмкина,301665,54.0241073,38.2659748
19А,улица Дружбы,301665,54.0255977,38.2680357
8,улица Дёмкина,301665,54.0253637,38.2665241
17А,улица Дружбы,301665,54.0246628,38.2683466
5А,улица Есенина,301668,54.0290273,38.2634951
5,улица Есенина,301668,54.0286639,38.2637692
4,улица Есенина,301668,54.0288973,38.2659352
40,улица Мира,301668,54.0288401,38.2608519
38/1,улица Мира,301668,54.0280068,38.2611702
17А,улица Мира,301654,54.0318668,38.2594899
42,улица Мира,301668,54.0296918,38.2609322
6А,Донской проезд,301663,54.0299648,38.2769682
10В,Донской проезд,301663,54.0301009,38.2782845
10Б,Донской проезд,301663,54.0304133,38.2785231
17Д,улица Мира,301654,54.0314893,38.2597150
2,Донская улица,301663,54.0278379,38.2761658
3,Донская улица,301663,54.0279457,38.2778257
3А,Донская улица,301663,54.0284116,38.2778390
3Б,Донская улица,301663,54.0288740,38.2778250
6Б,Донской проезд,301663,54.0295239,38.2774080
1А,Донская улица,301663,54.0284368,38.2761661
43А,улица Свердлова,301650,54.0170294,38.2989986
45А,улица Свердлова,301650,54.0176164,38.2989945
42,улица Свердлова,301650,54.0193470,38.3002552
41/39,улица Свердлова,301650,54.0167137,38.3000183
43,улица Свердлова,301650,54.0173403,38.3000260
45,улица Свердлова,301650,54.0180972,38.3000266
45Б,улица Свердлова,301650,54.0181416,38.2994170
47А,улица Свердлова,301650,54.0186191,38.2992251
34,Московская улица,301650,54.0182244,38.2971165
32,Московская улица,301650,54.0171331,38.2971052
30/31,Московская улица,301650,54.0165917,38.2972788
37,улица Садовского,301650,54.0166181,38.2993103
6А,улица Пашанина,301650,54.0192721,38.2985666
26,улица Садовского,301650,54.0161629,38.2936252
24,улица Садовского,301650,54.0161660,38.2928378
22/28,улица Садовского,301650,54.0160420,38.2920286
28А,улица Садовского,301650,54.0157679,38.2942582
24А,улица Садовского,301650,54.0157741,38.2930128
14,улица Садовского,301650,54.0161676,38.2888541
18,улица Садовского,301650,54.0161722,38.2901065
20/39,улица Садовского,301650,54.0161656,38.2909971
30/29,улица Садовского,301650,54.0160300,38.2952839
28,улица Садовского,301650,54.0161650,38.2944578
14,улица Куйбышева,301650,54.0161717,38.2821404
12,улица Куйбышева,301650,54.0161700,38.2814711
10,улица Куйбышева,301650,54.0161709,38.2807978
46/12,улица Трудовые Резервы,301650,54.0160029,38.2878885
18А,улица Куйбышева,301650,54.0171225,38.2833313
16А,улица Куйбышева,301650,54.0171364,38.2825891
20,улица Куйбышева,301650,54.0177175,38.2842682
18,улица Куйбышева,301650,54.0177173,38.2835397
16,улица Куйбышева,301650,54.0177324,38.2828116
34,Берёзовая улица,301650,54.0173558,38.2853998
20А,улица Куйбышева,301650,54.0171292,38.2840656
21,улица Садовского,301650,54.0165887,38.2904951
35/9,улица Трудовые Резервы,301650,54.0167483,38.2868253
37,улица Трудовые Резервы,301650,54.0173607,38.2869940
7,улица Садовского,301650,54.0165941,38.2860456
32/5,Берёзовая улица,301650,54.0167814,38.2853985
48/11,улица Трудовые Резервы,301650,54.0167725,38.2877419
13,улица Садовского,301650,54.0165970,38.2883265
15,улица Садовского,301650,54.0167771,38.2889131
17,улица Садовского,301650,54.0171727,38.2893855
19,улица Садовского,301650,54.0167713,38.2899055
28,улица Куйбышева,301650,54.0176734,38.2901372
26,улица Куйбышева,301650,54.0178671,38.2894060
24,улица Куйбышева,301650,54.0176764,38.2886900
22/52,улица Куйбышева,301650,54.0178631,38.2880935
50/20,улица Трудовые Резервы,301650,54.0173906,38.2877340
34/34,улица Куйбышева,301650,54.0178548,38.2922518
23/41,улица Садовского,301650,54.0167832,38.2910945
43,Октябрьская улица,301650,54.0173810,38.2910806
30/45,улица Куйбышева,301650,54.0178587,38.2907230
34/35,улица Куйбышева,301650,54.0177549,38.2950284
25/30,улица Садовского,301650,54.0166861,38.2922224
32,Октябрьская улица,301650,54.0172924,38.2918119
33,Московская улица,301650,54.0172925,38.2955917
11,Зелёная улица,301662,54.0140009,38.2740692
11А,Зелёная улица,301662,54.0139976,38.2733870
8А,улица Мира,301662,54.0139972,38.2727255
1,Зелёная улица,301662,54.0117772,38.2765806
3,Зелёная улица,301662,54.0122908,38.2759858
2,улица Мира,301662,54.0118844,38.2738034
1,Комсомольская улица,301662,54.0114270,38.2746652
3,Комсомольская улица,301662,54.0114393,38.2758145
2А,улица Мира,301662,54.0122862,38.2746337
3А,Зелёная улица,301662,54.0122948,38.2753038
17,Зелёная улица,301662,54.0159449,38.2720222
8,улица Мира,301662,54.0136489,38.2718469
6,улица Мира,301662,54.0130611,38.2724915
4,улица Мира,301662,54.0124775,38.2731503
19,Зелёная улица,301662,54.0166730,38.2714397
10,улица Мира,301662,54.0152515,38.2700078
4,улица Куйбышева,301662,54.0172290,38.2691446
6,улица Куйбышева,301662,54.0173845,38.2698063
21/8,Зелёная улица,301662,54.0174821,38.2705271
12,улица Мира,301662,54.0157248,38.2690535
12А,улица Мира,301662,54.0159811,38.2697248
18,улица Мира,301662,54.0173786,38.2672155
2,улица Куйбышева,301662,54.0175559,38.2679579
16,улица Мира,301662,54.0166749,38.2679944
16А,улица Мира,301662,54.0169159,38.2686500
15,улица Бережного,301650,54.0148173,38.2895126
17А,улица Бережного,301650,54.0150068,38.2902476
11/42,улица Бережного,301650,54.0147401,38.2878829
13,улица Бережного,301650,54.0145601,38.2887508
17,улица Бережного,301650,54.0145623,38.2900204
14А,улица Садовского,301650,54.0156553,38.2886709
16,улица Садовского,301650,54.0158707,38.2893868
18А,улица Садовского,301650,54.0156713,38.2901416
37,Октябрьская улица,301650,54.0156218,38.2910837
13А,улица Бережного,301650,54.0150100,38.2887603
44,улица Трудовые Резервы,301650,54.0153699,38.2877266
26,Октябрьская улица,301650,54.0154608,38.2919249
26А,Октябрьская улица,301650,54.0151676,38.2927921
27А,Московская улица,301650,54.0152034,38.2941203
21,улица Бережного,301650,54.0146720,38.2934749
17/26,Комсомольская улица,301650,54.0114657,38.2855915
68/7,улица Трудовые Резервы,301663,54.0308387,38.2833552
15/7,Комсомольская улица,301650,54.0114533,38.2846770
6,Школьная улица,301657,54.0103565,38.2677530
4,Школьная улица,301657,54.0105664,38.2682940
2,Школьная улица,301657,54.0107637,38.2688006
3В,улица Генерала Белова,301666,54.0282610,38.3134517
22А,улица Генерала Белова,301666,54.0338029,38.3158404
22Б,улица Генерала Белова,301666,54.0334105,38.3175629
12,Школьная улица,301657,54.0088067,38.2638026
12А,Школьная улица,301657,54.0091390,38.2634326
18,Школьная улица,301657,54.0082763,38.2613791
21,Школьная улица,301657,54.0071227,38.2611674
19,Школьная улица,301657,54.0074123,38.2616692
17,Школьная улица,301657,54.0076241,38.2622235
17А,улица Космонавтов,301657,54.0103098,38.2625764
19,улица Космонавтов,301657,54.0101920,38.2613224
16,улица Кутузова,301657,54.0098700,38.2632612
24,улица Кутузова,301657,54.0094376,38.2621484
2А,Школьная улица,301657,54.0115252,38.2680968
1,улица Космонавтов,301657,54.0123761,38.2671406
3,улица Вахрушева,301657,54.0111323,38.2663879
11,улица Космонавтов,301657,54.0113318,38.2637172
11А,улица Космонавтов,301657,54.0107210,38.2641673
21,улица Космонавтов,301657,54.0099010,38.2605691
23,улица Космонавтов,301657,54.0096281,38.2598378
1,Аэродромная улица,301657,54.0084843,38.2601116
2,Аэродромная улица,301657,54.0088291,38.2602475
20,улица Кутузова,301657,54.0093986,38.2629685
8,улица Мичурина,301657,54.0069802,38.2655594
10,улица Мичурина,301657,54.0064433,38.2643128
8,Школьная улица,301657,54.0095216,38.2661758
9,Школьная улица,301657,54.0082268,38.2665520
11,Школьная улица,301657,54.0080826,38.2657648
10,Школьная улица,301657,54.0099917,38.2647670
8Б,Школьная улица,301657,54.0102354,38.2654010
8,улица Кутузова,301657,54.0107249,38.2651163
7,улица Мичурина,301657,54.0068552,38.2677305
8А,Школьная улица,301657,54.0105595,38.2659604
7А,улица Мичурина,301657,54.0063784,38.2687001
3,улица Космонавтов,301657,54.0123436,38.2663961
12,улица Мичурина,301657,54.0066297,38.2625367
6,улица Чапаева,301662,54.0092803,38.2761377
8,улица Чапаева,301662,54.0090641,38.2756602
2,улица Чапаева,301662,54.0096954,38.2775531
10,улица Чапаева,301662,54.0088651,38.2751214
12,улица Чапаева,301662,54.0086443,38.2745307
2А,Комсомольская улица,301662,54.0104971,38.2757735
2,Комсомольская улица,301662,54.0104913,38.2750902
6,Комсомольская улица,301662,54.0104135,38.2771502
4,Комсомольская улица,301662,54.0104897,38.2764115
2,Солнечная улица,301664,54.0048711,38.2843493
11,Солнечная улица,301664,54.0080855,38.2779097
1,Берёзовая улица,301664,54.0053475,38.2848052
3,Берёзовая улица,301664,54.0058451,38.2848277
5,Берёзовая улица,301664,54.0064804,38.2848189
2А,улица Дружбы,301665,54.0206991,38.2693936
8,Берёзовая улица,301664,54.0065060,38.2854520
6,Берёзовая улица,301664,54.0058616,38.2854221
4,Берёзовая улица,301664,54.0053437,38.2853797
12,улица Шахтёров,301664,54.0071099,38.2899205
12А,улица Шахтёров,301664,54.0066707,38.2897216
6,Октябрьская улица,301664,54.0064096,38.2917552
8/14,улица Шахтёров,301664,54.0070724,38.2881416
7,улица Маяковского,301664,54.0048805,38.2885607
12,улица Трудовые Резервы,301664,54.0067349,38.2879502
9А,Октябрьская улица,301664,54.0062894,38.2903247
2/15,Октябрьская улица,301664,54.0051207,38.2917224
10,улица Шахтёров,301664,54.0070757,38.2889298
11,улица Маяковского,301664,54.0048990,38.2902401
8,улица Трудовые Резервы,301664,54.0057920,38.2879576
4,Октябрьская улица,301664,54.0058136,38.2917178
5/4,улица Маяковского,301664,54.0049414,38.2878831
24,Московская улица,301650,54.0147713,38.2976951
34,улица Садовского,301650,54.0161511,38.2982678
34А,улица Садовского,301650,54.0156808,38.2982848
36А,улица Садовского,301650,54.0156848,38.2990617
36,улица Садовского,301650,54.0161338,38.2991672
26,Московская улица,301650,54.0151115,38.2977923
28/32,Московская улица,301650,54.0156881,38.2974541
3/25,улица Кирова,301650,54.0128894,38.2993482
21,улица Свердлова,301650,54.0120055,38.3000070
18,Московская улица,301650,54.0135135,38.2977029
38/40,улица Свердлова,301650,54.0157657,38.3008811
23/27,Комсомольская улица,301650,54.0116222,38.2903787
3А,улица Бережного,301650,54.0155087,38.2809850
3,улица Бережного,301650,54.0148352,38.2808223
7,улица Бережного,301650,54.0148478,38.2821322
5/30,улица Кирова,301650,54.0129937,38.3013418
26/24,Комсомольская улица,301650,54.0106701,38.2855783
12,улица Дзержинского,301650,54.0126886,38.2885447
16,улица Дзержинского,301650,54.0126895,38.2900662
38/10,улица Трудовые Резервы,301650,54.0126037,38.2876963
19,Октябрьская улица,301650,54.0088504,38.2909078
26,улица Трудовые Резервы,301650,54.0092610,38.2877345
26А,улица Трудовые Резервы,301650,54.0092752,38.2884233
19А,Октябрьская улица,301650,54.0089428,38.2901832
12,Октябрьская улица,301650,54.0094279,38.2917075
10А,Октябрьская улица,301650,54.0088197,38.2918131
36А,Комсомольская улица,301650,54.0101173,38.2930347
38А,Комсомольская улица,301650,54.0101173,38.2941023
13,Московская улица,301650,54.0096364,38.2950230
11,Московская улица,301650,54.0089945,38.2953763
11А,Московская улица,301650,54.0089885,38.2946757
3,Коммунистическая улица,301650,54.0087924,38.2935688
20,улица Шахтёров,301664,54.0067701,38.2939758
22,улица Шахтёров,301664,54.0067667,38.2946898
3А,Московская улица,301664,54.0059911,38.2944142
1А,Московская улица,301664,54.0053675,38.2947834
18,улица Шахтёров,301664,54.0067593,38.2932561
17,улица Маяковского,301664,54.0048711,38.2923128
1,Московская улица,301664,54.0050068,38.2953655
4А,Октябрьская улица,301664,54.0057899,38.2928993
19А,улица Маяковского,301664,54.0051313,38.2929081
6/28,улица Кирова,301650,54.0123000,38.3011228
27А,улица Космонавтов,301657,54.0080029,38.2591501
29А,улица Космонавтов,301657,54.0073768,38.2581909
31А,улица Космонавтов,301657,54.0072929,38.2568211
31,улица Космонавтов,301657,54.0082370,38.2564369
29,улица Космонавтов,301657,54.0085273,38.2571923
27,улица Космонавтов,301657,54.0088116,38.2579408
15,улица Калинина,301650,54.0094363,38.3038114
22/23,Московская улица,301650,54.0141049,38.2952705
15,Октябрьская улица,301650,54.0081036,38.2910776
17,Октябрьская улица,301650,54.0084471,38.2910614
17А,Октябрьская улица,301650,54.0082077,38.2893573
18,улица Трудовые Резервы,301650,54.0079414,38.2877406
13/15,Октябрьская улица,301650,54.0076373,38.2908384
13,улица Шахтёров,301650,54.0075158,38.2899307
9,улица Шахтёров,301650,54.0075085,38.2885986
11,улица Шахтёров,301650,54.0075126,38.2892638
20,улица Трудовые Резервы,301650,54.0082864,38.2878485
16/7,улица Трудовые Резервы,301650,54.0075894,38.2878527
18А,улица Трудовые Резервы,301650,54.0082256,38.2885361
27/21,улица Дзержинского,301650,54.0133955,38.2953104
25,улица Трудовые Резервы,301650,54.0097748,38.2869372
23,улица Трудовые Резервы,301650,54.0093477,38.2869098
18,Октябрьская улица,301650,54.0121551,38.2917675
20/20,улица Дзержинского,301650,54.0127982,38.2917729
25/16,Комсомольская улица,301650,54.0115888,38.2918010
22,улица Дзержинского,301650,54.0128013,38.2924594
18А,Октябрьская улица,301650,54.0121489,38.2924702
27,Комсомольская улица,301650,54.0115856,38.2924608
19Б,Московская улица,301650,54.0127831,38.2947203
33/17,Комсомольская улица,301650,54.0115765,38.2955090
29,Комсомольская улица,301650,54.0114250,38.2935838
31,Комсомольская улица,301650,54.0115772,38.2948626
35/12,Комсомольская улица,301650,54.0116801,38.2978215
4/23,улица Кирова,301650,54.0124625,38.2992854
2/14,улица Кирова,301650,54.0122605,38.2977244
39/19,Комсомольская улица,301650,54.0114332,38.2995467
25,улица Шахтёров,301650,54.0075057,38.2994434
45,Комсомольская улица,301650,54.0114192,38.3030604
6/6,Московская улица,301650,54.0079181,38.2973773
10,улица Кирова,301650,54.0124264,38.3027945
29,улица Свердлова,301650,54.0139601,38.2996852
11,улица Свердлова,301650,54.0080272,38.3000342
15,Коммунистическая улица,301650,54.0089040,38.2985968
7,улица Кирова,301650,54.0128507,38.3024978
39/38,улица Свердлова,301650,54.0160245,38.2998272
8,улица Кирова,301650,54.0124282,38.3019996
37,улица Свердлова,301650,54.0156188,38.3000119
12/23,улица Кирова,301650,54.0122908,38.3037477
31,улица Свердлова,301650,54.0144025,38.2999549
41/26,Комсомольская улица,301650,54.0116795,38.3013179
21,улица Калинина,301650,54.0115995,38.3040228
9/25,улица Кирова,301650,54.0130020,38.3036838
8/13,Московская улица,301650,54.0089033,38.2973514
9/27,улица Свердлова,301650,54.0075971,38.3000251
33,улица Свердлова,301650,54.0147781,38.3000525
7,Комсомольская улица,301650,54.0115325,38.2800162
11/5,Комсомольская улица,301650,54.0114183,38.2826958
6,улица Присягина,301650,54.0124978,38.2836449
9,Комсомольская улица,301650,54.0113218,38.2813900
8/4,улица Присягина,301650,54.0130126,38.2837959
4,улица Присягина,301650,54.0119232,38.2836715
4А,улица Калинина,301659,54.0056755,38.3053649
41,улица Маяковского,301659,54.0051018,38.3067914
23А,Коммунистическая улица,301650,54.0087211,38.3023946
44,Комсомольская улица,301650,54.0108570,38.3030466
14,улица Свердлова,301650,54.0080320,38.3006820
4,улица Льва Толстого,301659,54.0068216,38.3068464
4,улица Кукунина,301659,54.0101947,38.3056687
42Б,Комсомольская улица,301650,54.0104200,38.3020906
6,улица Льва Толстого,301659,54.0063232,38.3071745
45,улица Маяковского,301659,54.0056662,38.3077802
44Б,Комсомольская улица,301650,54.0104200,38.3033486
11/36,проезд Свердлова,301650,54.0070335,38.3022552
3,проезд Свердлова,301650,54.0053844,38.3022518
2/20,улица Кукунина,301650,54.0099247,38.3047268
31,Коммунистическая улица,301650,54.0088113,38.3056400
26,улица Шахтёров,301650,54.0066736,38.2981377
40/7,улица Шахтёров,301650,54.0069455,38.3038919
32/10,улица Шахтёров,301650,54.0071267,38.3008499
9А,проезд Свердлова,301650,54.0066199,38.3014608
18,улица Калинина,301659,54.0094033,38.3051420
9,проезд Свердлова,301650,54.0066162,38.3022500
31,улица Маяковского,301650,54.0050600,38.3014642
6,улица Свердлова,301650,54.0058350,38.3006824
40/24,Комсомольская улица,301650,54.0106253,38.3007591
16/29,улица Калинина,301659,54.0089064,38.3047239
17,улица Калинина,301650,54.0100545,38.3040582
2/29,улица Свердлова,301650,54.0049468,38.3008298
38,улица Шахтёров,301650,54.0071269,38.3029979
2А,Московская улица,301650,54.0060103,38.2971845
2,улица Льва Толстого,301659,54.0072220,38.3062050
42А,Комсомольская улица,301650,54.0104011,38.3014250
5,проезд Свердлова,301650,54.0057948,38.3022536
4/24,Московская улица,301650,54.0068872,38.2973561
8/47,улица Льва Толстого,301659,54.0061146,38.3080892
33/33,улица Шахтёров,301659,54.0089292,38.3065285
42,Комсомольская улица,301650,54.0108447,38.3016353
39,улица Маяковского,301659,54.0048630,38.3059302
46/19,Комсомольская улица,301650,54.0105923,38.3039347
5,улица Калинина,301650,54.0063384,38.3040517
7,проезд Свердлова,301650,54.0062075,38.3022479
4,улица Свердлова,301650,54.0053481,38.3006890
4,улица Калинина,301659,54.0056740,38.3047011
8,улица Свердлова,301650,54.0066896,38.3006848
28,улица Шахтёров,301650,54.0069487,38.2990943
37/2,улица Маяковского,301659,54.0050559,38.3048723
2/23,Московская улица,301650,54.0051271,38.2971290
25,Коммунистическая улица,301650,54.0089127,38.3032748
33/1,улица Маяковского,301650,54.0049542,38.3021000
12/29,улица Свердлова,301650,54.0075945,38.3006856
44А,Комсомольская улица,301650,54.0104074,38.3027347
35,улица Шахтёров,301659,54.0094041,38.3060754
2,Парковый проезд,301650,54.0190887,38.3051960
28/45,улица Калинина,301650,54.0168678,38.3048153
36/7,улица Калинина,301650,54.0185189,38.3065383
4,Парковый проезд,301650,54.0191777,38.3068543
30,улица Калинина,301650,54.0175483,38.3048134
49/1,улица Садовского,301650,54.0168720,38.3064412
47,улица Садовского,301650,54.0168751,38.3056087
34,улица Калинина,301650,54.0184818,38.3056956
27,улица Мира,301654,54.0342634,38.2576457
25,улица Мира,301654,54.0337622,38.2577849
21,улица Мира,301654,54.0328775,38.2578690
23,улица Мира,301654,54.0332928,38.2578213
19,улица Трудовые Резервы,301650,54.0082898,38.2868937
18,Профсоюзная улица,301659,54.0097126,38.3168495
28А,Комсомольская улица,301650,54.0103678,38.2862722
35,улица Свердлова,301650,54.0152061,38.2999895
37/43,улица Калинина,301650,54.0168056,38.3038375
48/35,улица Садовского,301650,54.0159213,38.3038809
15,Аварийная улица,301652,53.9849081,38.2974769
17,Аварийная улица,301652,53.9852418,38.2959349
36,улица Белинского,301652,53.9812353,38.2869076
35,улица Белинского,301652,53.9815055,38.2872531
40,улица Белинского,301652,53.9811214,38.2847392
34,улица Белинского,301652,53.9818541,38.2868716
39,улица Белинского,301652,53.9806888,38.2852107
38,улица Белинского,301652,53.9807668,38.2857412
37,улица Белинского,301652,53.9809954,38.2863111
37А,улица Белинского,301652,53.9815254,38.2853829
24,улица Белинского,301652,53.9825106,38.2899706
30,улица Белинского,301652,53.9820863,38.2889073
23,улица Белинского,301652,53.9826947,38.2904253
2 к2,улица Дружбы,301665,54.0208063,38.2672735
18А,улица Депо,301654,54.0301184,38.2555598
18,улица Депо,301654,54.0297310,38.2545210
15,улица Депо,301654,54.0301614,38.2532093
11,улица Депо,301654,54.0298303,38.2535980
16,улица Депо,301654,54.0297257,38.2525002
17,улица Депо,301654,54.0300759,38.2526824
13,улица Депо,301654,54.0289090,38.2524614
14,улица Депо,301654,54.0293541,38.2524299
12,улица Депо,301654,54.0285082,38.2528434
10,улица Депо,301654,54.0281525,38.2532275
52,улица Шахтёров,301659,54.0090157,38.3073342
10,улица Кукунина,301650,54.0099592,38.3084464
54,улица Шахтёров,301659,54.0095692,38.3073428
24/20,улица Кукунина,301659,54.0102207,38.3166889
57,улица Маяковского,301659,54.0090132,38.3097880
12/61,улица Кукунина,301650,54.0100733,38.3095242
8/56,улица Кукунина,301659,54.0101093,38.3075580
57А,улица Маяковского,301659,54.0092842,38.3092597
8Б,Комсомольская улица,301650,54.0100734,38.2804304
10,Комсомольская улица,301650,54.0106725,38.2812332
3Д,улица Мира,301650,54.0196698,38.2575990
8,Комсомольская улица,301650,54.0105875,38.2799866
9,улица Депо,301654,54.0278821,38.2535635
1А,Паровозная улица,301654,54.0312148,38.2528415
16,улица Кукунина,301659,54.0100987,38.3116988
32А,Коммунистическая улица,301659,54.0079227,38.3128562
7А,Профсоюзная улица,301659,54.0067705,38.3149875
35,Коммунистическая улица,301659,54.0086881,38.3076938
19А,Профсоюзная улица,301659,54.0097054,38.3152090
17,Профсоюзная улица,301659,54.0092577,38.3157523
20А,улица Кукунина,301659,54.0097090,38.3146729
52А,улица Шахтёров,301659,54.0092935,38.3078669
53,Коммунистическая улица,301659,54.0087255,38.3143090
53А,Коммунистическая улица,301659,54.0090156,38.3141387
36,Коммунистическая улица,301659,54.0083973,38.3150063
38,улица Маяковского,301659,54.0081061,38.3105320
5,Профсоюзная улица,301659,54.0069916,38.3133311
42А,улица Маяковского,301659,54.0092905,38.3110898
28,Коммунистическая улица,301659,54.0083973,38.3111952
39,Коммунистическая улица,301659,54.0087066,38.3093561
55А,Коммунистическая улица,301659,54.0093198,38.3146638
59,улица Маяковского,301659,54.0095348,38.3097889
16А,улица Кукунина,301659,54.0096903,38.3116161
51А,Коммунистическая улица,301659,54.0090446,38.3136826
30,Коммунистическая улица,301659,54.0084006,38.3121502
55,Коммунистическая улица,301659,54.0087252,38.3149362
47А,Коммунистическая улица,301659,54.0090531,38.3126053
49,Коммунистическая улица,301659,54.0089440,38.3131392
37А,Коммунистическая улица,301650,54.0092756,38.3086493
13,Профсоюзная улица,301659,54.0083128,38.3157307
43А,Коммунистическая улица,301659,54.0092869,38.3116420
32/32,Коммунистическая улица,301659,54.0083888,38.3129676
43,Коммунистическая улица,301659,54.0087135,38.3112475
57А,Коммунистическая улица,301659,54.0093194,38.3152053
44А,улица Маяковского,301659,54.0096859,38.3110881
11,Профсоюзная улица,301659,54.0078724,38.3155177
45А,Коммунистическая улица,301659,54.0089998,38.3121184
7,Профсоюзная улица,301659,54.0069997,38.3139865
3А,Профсоюзная улица,301659,54.0073855,38.3128423
3,Профсоюзная улица,301659,54.0069845,38.3126617
51,Коммунистическая улица,301659,54.0087537,38.3136006
47,Коммунистическая улица,301659,54.0087590,38.3126542
22/21,улица Кукунина,301659,54.0100881,38.3155873
20,улица Кукунина,301659,54.0101057,38.3146084
57/15,Коммунистическая улица,301659,54.0088325,38.3155412
3,улица Льва Толстого,301659,54.0070633,38.3075486
43,улица Маяковского,301659,54.0056551,38.3068462
20,Коммунистическая улица,301659,54.0081707,38.3072624
1/46,улица Льва Толстого,301659,54.0074962,38.3068191
24,Коммунистическая улица,301659,54.0080898,38.3090174
22,Коммунистическая улица,301659,54.0080919,38.3080487
53,улица Маяковского,301659,54.0073211,38.3099525
26/55,Коммунистическая улица,301659,54.0081019,38.3099459
5,улица Льва Толстого,301659,54.0069206,38.3084396
13,улица Калинина,301650,54.0090021,38.3041839
7/49,улица Льва Толстого,301659,54.0063967,38.3086861
16А,Профсоюзная улица,301659,54.0092545,38.3169771
51,улица Маяковского,301659,54.0066386,38.3095546
43А,улица Маяковского,301659,54.0052671,38.3059013
42,Коммунистическая улица,301659,54.0084320,38.3169157
12/40,Профсоюзная улица,301659,54.0082845,38.3164012
59/14,Коммунистическая улица,301659,54.0087426,38.3165118
10,Профсоюзная улица,301659,54.0078680,38.3163715
1,Паровозная улица,301654,54.0316430,38.2532623
3,Паровозная улица,301654,54.0320102,38.2531900
5,Паровозная улица,301654,54.0337688,38.2523988
3,улица Мира,301654,54.0232778,38.2582750
19,улица Депо,301654,54.0276176,38.2550310
7А,улица Мира,301654,54.0246317,38.2567940
9,улица Мира,301654,54.0277040,38.2578522
7/1,улица Мира,301654,54.0241677,38.2578626
20,улица Депо,301654,54.0280476,38.2558494
1,улица Мира,301654,54.0228036,38.2590362
9А,улица Мира,301654,54.0272882,38.2566427
11,улица Мира,301654,54.0281865,38.2576249
7Б,улица Мира,301654,54.0240548,38.2570954
5,улица Мира,301654,54.0252967,38.2579609
33,улица Мира,301654,54.0357212,38.2576046
2,улица Депо,301654,54.0289127,38.2546495
7,улица Депо,301654,54.0281686,38.2543742
8,улица Депо,301654,54.0280009,38.2539717
1,улица Депо,301654,54.0283163,38.2547529
35,улица Мира,301654,54.0361285,38.2575781
31,улица Мира,301654,54.0352891,38.2576440
29,улица Мира,301654,54.0348593,38.2576114
19,улица Мира,301654,54.0324758,38.2577268
15,улица Мира,301654,54.0310126,38.2578862
17,улица Мира,301654,54.0321055,38.2577291
37,улица Мира,301654,54.0365398,38.2575146
7Б,Профсоюзная улица,301659,54.0070312,38.3153805
19,Профсоюзная улица,301659,54.0096415,38.3157432
1А,улица Мичурина,301657,54.0078289,38.2724970
2 к1,улица Дружбы,301665,54.0204788,38.2664384
1,улица Мичурина,301657,54.0086018,38.2716093
16/1,Московская улица,301650,54.0131115,38.2975399
25,Шахтёрская улица,301680,54.0645995,38.4788887
16Б,Шахтёрская улица,301680,54.0619591,38.4794579
18,Шахтёрская улица,301680,54.0637371,38.4817084
31,улица Ленина,301680,54.0672130,38.4818296
18А,Шахтёрская улица,301680,54.0626999,38.4815506
4,улица Чкалова,301680,54.0650367,38.4787983
4,Ударная улица,301650,54.0816466,38.2265743
34,улица Вахрушева,301657,54.0011377,38.2766266
3А,улица Свердлова,301650,54.0057869,38.2991394
5А,улица Свердлова,301650,54.0063107,38.2989757
5/30,улица Свердлова,301650,54.0065664,38.2999225
3,улица Свердлова,301650,54.0057845,38.2999332
2Б,Московская улица,301650,54.0059673,38.2978856
14,улица Кирова,301650,54.0123449,38.3070240
4,Пионерская улица,301650,54.0186814,38.3078112
1,посёлок Маклец,301692,54.0700990,38.1434692
1А,посёлок Маклец,301692,54.0693410,38.1423554
2,посёлок Маклец,301692,54.0707457,38.1441746
5,улица Космонавтов,301657,54.0121341,38.2658537
2/10,улица Трудовые Резервы,301664,54.0041461,38.2886227
19Б,улица Маяковского,301664,54.0058648,38.2938093
1,Солнечная улица,301664,54.0044750,38.2832226
6,улица Маяковского,301664,54.0041037,38.2859704
2А,улица Маяковского,301664,54.0035431,38.2845212
1Б,Солнечная улица,301664,54.0039120,38.2819569
1А,Солнечная улица,301664,54.0042132,38.2825584
19А,Московская улица,301650,54.0123463,38.2947114
4,улица Маяковского,301664,54.0041033,38.2851898
23,Шахтёрская улица,301680,54.0649165,38.4778680
8А,улица Маяковского,301664,54.0028013,38.2862882
8,улица Маяковского,301664,54.0037064,38.2868254
18,Советская улица,301680,54.0710156,38.4761835
2/8,улица Ленина,301680,54.0653115,38.4704920
4,улица Ленина,301680,54.0654454,38.4711756
19,улица Ленина,301680,54.0672773,38.4772349
28,улица Ленина,301680,54.0667246,38.4792923
27,улица Ленина,301680,54.0671231,38.4803150
32/11,улица Ленина,301680,54.0665469,38.4811940
25,улица Ленина,301680,54.0672512,38.4797198
20,улица Ленина,301680,54.0666071,38.4754862
12,Советская улица,301680,54.0696621,38.4760469
17,улица Ленина,301680,54.0673060,38.4765939
11,улица Ленина,301680,54.0667527,38.4736321
8,улица Чкалова,301680,54.0662242,38.4789167
1/21,Комсомольская улица,301680,54.0673557,38.4777136
15,Советская улица,301681,54.0714572,38.4752434
6/19,Советская улица,301680,54.0686247,38.4759609
12,улица Ленина,301680,54.0662169,38.4733832
30А,Советская улица,301681,54.0731553,38.4767934
18,улица Ленина,301680,54.0666351,38.4749068
29,улица Ленина,301680,54.0671974,38.4808823
16,Советская улица,301680,54.0705908,38.4762546
8,Советская улица,301680,54.0689708,38.4759932
4,Советская улица,301680,54.0680962,38.4758913
15/1,улица Ленина,301680,54.0673406,38.4759394
21,Советская улица,301681,54.0737547,38.4757269
11,Советская улица,301681,54.0705566,38.4750540
5/8,улица Ленина,301680,54.0663820,38.4720450
22/5,улица Островского,301681,54.0682122,38.4749257
14,улица Ленина,301680,54.0663682,38.4739870
24,улица Ленина,301680,54.0668050,38.4772323
36/11,улица Ленина,301680,54.0665248,38.4838467
10,Советская улица,301680,54.0693092,38.4760089
34/12,улица Ленина,301680,54.0665878,38.4823982
32,Советская улица,301681,54.0734787,38.4763910
30,улица Ленина,301680,54.0665320,38.4801411
34/23,Советская улица,301681,54.0738930,38.4766068
26,Советская улица,301681,54.0724361,38.4764639
22,Советская улица,301680,54.0717207,38.4763875
9,улица Ленина,301680,54.0665926,38.4730883
30,Советская улица,301681,54.0728515,38.4763136
6/8,улица Горького,301680,54.0658327,38.4724633
19,Советская улица,301681,54.0732654,38.4756402
16,улица Ленина,301680,54.0664989,38.4744161
22,улица Ленина,301680,54.0667342,38.4763739
14,Советская улица,301680,54.0700005,38.4760777
3,Советская улица,301681,54.0678740,38.4750298
7,улица Ленина,301680,54.0664297,38.4725423
2,Советская улица,301680,54.0677435,38.4758428
10,улица Ленина,301680,54.0660511,38.4728468
26/5,улица Ленина,301680,54.0665992,38.4780710
41/40,Коммунистическая улица,301659,54.0088317,38.3106806
18,Берёзовая улица,301650,54.0093751,38.2856685
20,Берёзовая улица,301650,54.0097880,38.2854996
12/1,Берёзовая улица,301650,54.0076154,38.2856637
22,Берёзовая улица,301650,54.0102222,38.2854693
16,улица Гагарина,301680,54.0718472,38.4771932
18А,улица Пушкина,301680,54.0698491,38.4770104
17/21,Комсомольская улица,301680,54.0705283,38.4779346
10,улица Мичурина,301680,54.0685997,38.4829616
19,Комсомольская улица,301680,54.0710965,38.4780961
21/18,Комсомольская улица,301680,54.0716625,38.4780445
13,Комсомольская улица,301680,54.0695975,38.4779685
6,улица Мичурина,301680,54.0686518,38.4816565
4,улица Мичурина,301680,54.0682023,38.4809472
3,Комсомольская улица,301680,54.0676794,38.4777522
7,Комсомольская улица,301680,54.0685782,38.4778227
18,улица Пушкина,301680,54.0700660,38.4765872
5,Комсомольская улица,301680,54.0680163,38.4778058
26,улица Островского,301680,54.0681826,38.4764406
11,Комсомольская улица,301680,54.0692581,38.4779352
9,Комсомольская улица,301680,54.0689223,38.4778896
8,улица Мичурина,301680,54.0689528,38.4823562
23,улица Пушкина,301680,54.0703420,38.4790111
28,улица Островского,301680,54.0681401,38.4772962
2,улица Мичурина,301680,54.0677324,38.4802002
26А,улица Островского,301680,54.0679386,38.4768429
20,улица Пушкина,301680,54.0700456,38.4775047
15,Комсомольская улица,301680,54.0699388,38.4780250
4,Комсомольская улица,301680,54.0705860,38.4786615
19,улица Пушкина,301680,54.0704134,38.4770635
34,улица Шахтёров,301650,54.0071323,38.3016612
17А,улица Калинина,301650,54.0099572,38.3030369
29А,Комсомольская улица,301650,54.0120488,38.2942176
27,Шахтёрская улица,301680,54.0645770,38.4796587
4А,улица Чкалова,301680,54.0649894,38.4800646
29,Шахтёрская улица,301680,54.0645599,38.4803284
1/31,Октябрьская улица,301680,54.0645169,38.4810620
20А,Шахтёрская улица,301680,54.0626643,38.4822556
3,улица Чкалова,301680,54.0658057,38.4780523
18,улица Островского,301681,54.0682779,38.4734799
22,улица Гагарина,301680,54.0717624,38.4797979
8,Комсомольская улица,301680,54.0714351,38.4787774
20,улица Гагарина,301680,54.0717868,38.4789703
18А,улица Островского,301681,54.0680874,38.4738517
12,Строительная улица,301681,54.0661482,38.4696981
14,Строительная улица,301681,54.0665181,38.4694019
11А,улица Ленина,301680,54.0673955,38.4734075
16,улица Островского,301681,54.0682874,38.4728204
6,улица Островского,301681,54.0683711,38.4707582
20,Строительная улица,301681,54.0679411,38.4686963
20,улица Островского,301681,54.0682493,38.4742753
4,улица Островского,301681,54.0684270,38.4694942
16,Строительная улица,301681,54.0668878,38.4690717
5,Парковая улица,301680,54.0713581,38.4807326
3,Парковая улица,301680,54.0709016,38.4806813
6,Комсомольская улица,301680,54.0709976,38.4787168
21,улица Гагарина,301680,54.0723833,38.4781189
17,улица Гагарина,301680,54.0723325,38.4770655
19,улица Гагарина,301680,54.0723172,38.4775234
24А,улица Ленина,301680,54.0659894,38.4772193
2Б,улица Маяковского,301664,54.0032358,38.2835273
10,Северная Аварийная улица,301651,54.0769193,38.2291530
14,улица Орджоникидзе,301668,54.0319137,38.2670375
10,улица Орджоникидзе,301668,54.0319024,38.2657744
12,улица Орджоникидзе,301668,54.0319016,38.2663958
16,улица Орджоникидзе,301668,54.0315107,38.2659410
18,улица Орджоникидзе,301668,54.0315145,38.2668880
16А,Шахтёрская улица,301680,54.0623887,38.4801974
4Б,улица Чкалова,301680,54.0654975,38.4794855
24А,Шахтёрская улица,301680,54.0624765,38.4836155
12,Шахтёрская улица,301680,54.0635537,38.4786481
20,Шахтёрская улица,301680,54.0637059,38.4824144
6,улица Чкалова,301680,54.0655811,38.4788359
10,Шахтёрская улица,301680,54.0636128,38.4777152
22,Шахтёрская улица,301680,54.0638045,38.4830574
22А,Шахтёрская улица,301680,54.0625112,38.4829510
14А,Шахтёрская улица,301680,54.0628258,38.4792660
8,Шахтёрская улица,301680,54.0638225,38.4770113
35,Шахтёрская улица,301680,54.0644059,38.4837304
14,Шахтёрская улица,301680,54.0637357,38.4793937
8А,Шахтёрская улица,301680,54.0629113,38.4768862
33/2,Шахтёрская улица,301680,54.0644782,38.4819859
22Б,Шахтёрская улица,301680,54.0632551,38.4829759
19,Шахтёрская улица,301680,54.0647214,38.4767777
21,Шахтёрская улица,301680,54.0647082,38.4773018
3,улица Свободы,301651,54.0781942,38.2208330
1,улица Свободы,301651,54.0779015,38.2216876
5,Донская улица,301663,54.0291170,38.2808846
4,Донская улица,301663,54.0284570,38.2796482
4А,Донская улица,301663,54.0292082,38.2793231
49,улица Трудовые Резервы,301650,54.0209967,38.2868445
5А,Донская улица,301663,54.0295806,38.2805540
18,Электрозаводская улица,301651,54.0712700,38.2145171
3,Октябрьская улица,301680,54.0648164,38.4812865
5,Октябрьская улица,301680,54.0651751,38.4813372
7,Октябрьская улица,301680,54.0657640,38.4814262
47Г,улица Трудовые Резервы,301650,54.0197221,38.2868596
16,Ударная улица,301651,54.0759022,38.2209523
16,Берёзовая улица,301650,54.0082947,38.2856083
14,Ударная улица,301651,54.0763631,38.2215378
13/2,Комсомольская улица,301650,54.0113998,38.2839154
17,улица Трудовые Резервы,301650,54.0078922,38.2869819
5/15,улица Шахтёров,301650,54.0075832,38.2868951
14,Берёзовая улица,301650,54.0079557,38.2854874
3,улица Шахтёров,301650,54.0075125,38.2863088
10,улица Олега Кошевого,301680,54.0663732,38.4761599
7/6,улица Горького,301680,54.0654924,38.4718093
9,улица Олега Кошевого,301680,54.0661565,38.4755765
4,Октябрьская улица,301680,54.0648377,38.4818719
6,Октябрьская улица,301680,54.0652518,38.4819229
10,Октябрьская улица,301680,54.0661721,38.4820318
8,Октябрьская улица,301680,54.0656676,38.4819959
7,улица Олега Кошевого,301680,54.0658445,38.4755467
6,улица Олега Кошевого,301680,54.0653920,38.4760729
4,улица Олега Кошевого,301680,54.0650450,38.4760344
18,посёлок Маклец,301692,54.0692367,38.1437871
14,Комсомольская улица,301650,54.0106622,38.2823756
14,улица Калинина,301650,54.0080856,38.3050849
14А,улица Калинина,301650,54.0081656,38.3061213
33А,улица Шахтёров,301650,54.0078015,38.3021278
7Б,улица Орджоникидзе,301668,54.0334395,38.2718413
7В,улица Орджоникидзе,301668,54.0333780,38.2713832
44,улица Маяковского,301659,54.0096261,38.3105322
14/46,улица Кукунина,301659,54.0100869,38.3107212
42,улица Маяковского,301659,54.0092171,38.3105333
52,Вокзальная улица,301651,54.0789920,38.2267368
54,Вокзальная улица,301651,54.0787342,38.2274362
28,Ударная улица,301651,54.0721370,38.2176037
26,Ударная улица,301651,54.0725640,38.2180307
24,Ударная улица,301651,54.0730522,38.2183847
67А,улица Трудовые Резервы,301663,54.0302862,38.2794352
65А,улица Трудовые Резервы,301663,54.0299269,38.2799854
17,улица Куйбышева,301650,54.0202258,38.2983842
22,улица Калинина,301650,54.0121114,38.3057242
2/1,Строительная улица,301680,54.0643144,38.4712438
6,Строительная улица,301680,54.0648971,38.4707683
4,Строительная улица,301680,54.0646359,38.4709655
1А,улица Свободы,301651,54.0774520,38.2214257
5,посёлок Маклец,301692,54.0683846,38.1416268
7А,улица Маяковского,301664,54.0051479,38.2887152
6А,улица Трудовые Резервы,301664,54.0054179,38.2887239
3А,улица Пионеров,301651,54.0763241,38.2239263
3,улица Пионеров,301651,54.0759457,38.2235842
22,улица Генерала Белова,301666,54.0337751,38.3150518
36,улица Трудовые Резервы,301650,54.0116596,38.2877232
18,Пионерская улица,301650,54.0269679,38.2986818
18А,Пионерская улица,301650,54.0269569,38.2992390
18Г,Пионерская улица,301650,54.0273921,38.2992268
18Б,Пионерская улица,301650,54.0269418,38.2998023
18В,Пионерская улица,301650,54.0273445,38.2985768
8,улица Олега Кошевого,301680,54.0660303,38.4761467
49,улица Горького,301681,54.0736444,38.4720260
47А,улица Горького,301681,54.0732441,38.4719942
47,улица Горького,301681,54.0732101,38.4713793
51А,улица Горького,301681,54.0739855,38.4714762
49А,улица Горького,301681,54.0735612,38.4714300
51,улица Горького,301681,54.0740114,38.4720620
7,Школьная улица,301680,54.0655759,38.4840504
9,Октябрьская улица,301680,54.0661482,38.4814286
5,Школьная улица,301680,54.0651737,38.4840037
9,Школьная улица,301680,54.0660782,38.4840933
7А,Октябрьская улица,301680,54.0657011,38.4808029
3,Школьная улица,301680,54.0647487,38.4839369
5А,Октябрьская улица,301680,54.0652917,38.4807469
6А,улица Чкалова,301680,54.0655224,38.4801107
16,Аварийная улица,301652,53.9840730,38.2931529
17,улица Белинского,301652,53.9833503,38.2920625
19,улица Белинского,301652,53.9834043,38.2913659
14,Аварийная улица,301652,53.9844410,38.2926890
31,улица Белинского,301652,53.9818972,38.2884382
32,улица Белинского,301652,53.9821120,38.2881570
26,улица Белинского,301652,53.9829726,38.2894003
29,улица Белинского,301652,53.9825035,38.2891318
22,улица Белинского,301652,53.9833519,38.2903531
33,улица Белинского,301652,53.9823547,38.2878660
27,улица Белинского,301652,53.9827489,38.2888461
25,улица Белинского,301652,53.9827280,38.2896817
8А,улица Олега Кошевого,301680,54.0657038,38.4765003
6А,улица Олега Кошевого,301680,54.0653717,38.4765364
5,улица Олега Кошевого,301680,54.0654921,38.4754852
1/15,улица Олега Кошевого,301680,54.0647711,38.4752405
10А,улица Олега Кошевого,301680,54.0660224,38.4766112
21А,Шахтёрская улица,301680,54.0653569,38.4771364
3,улица Олега Кошевого,301680,54.0651290,38.4754808
13,улица Пушкина,301681,54.0705216,38.4742017
1,Индустриальная улица,301651,54.0706100,38.2146625
14,Электрозаводская улица,301651,54.0711443,38.2159863
12,Электрозаводская улица,301651,54.0710950,38.2165644
35/10,Ударная улица,301651,54.0710982,38.2174493
8,Электрозаводская улица,301651,54.0709661,38.2179891
30,Ударная улица,301651,54.0716778,38.2171664
33,Ударная улица,301651,54.0714648,38.2177439
19,Электрозаводская улица,301651,54.0706999,38.2155629
17,Электрозаводская улица,301651,54.0706534,38.2163674
17А,Электрозаводская улица,301651,54.0703858,38.2162203
33А,Ударная улица,301651,54.0713803,38.2182490
1,улица Пионеров,301651,54.0756148,38.2246227
5,улица Свободы,301651,54.0788394,38.2216203
58,Вокзальная улица,301651,54.0793563,38.2257128
17,Набережная улица,301651,54.0677335,38.2166441
10,улица Водопьянова,301654,54.0350771,38.2561132
11А,проспект Победы,301666,54.0312383,38.3129222
31,улица Шахтёров,301650,54.0075057,38.3012655
18,улица Кутузова,301657,54.0095814,38.2634328
9Б,улица Дружбы,301665,54.0222679,38.2683348
2 к3,улица Дружбы,301665,54.0211206,38.2680802
14А,улица Дзержинского,301650,54.0125479,38.2892055
1/11,улица Генерала Белова,301666,54.0278319,38.3169032
17,улица Свободы,301670,54.0779797,38.2059746
7,улица Водопьянова,301654,54.0351859,38.2566011
9,улица Водопьянова,301654,54.0349906,38.2570788
33,улица Садовского,301650,54.0169313,38.2981530
9,улица Гагарина,301681,54.0724869,38.4734866
10,улица Гагарина,301681,54.0721439,38.4733585
34,улица Горького,301681,54.0720318,38.4725312
44,улица Горького,301681,54.0725161,38.4726404
2 к5,улица Дружбы,301665,54.0214263,38.2688676
44В,улица Мира,301668,54.0318678,38.2609073
36Б с1,улица Мира,301665,54.0261288,38.2609443
36Б с2,улица Мира,301665,54.0265439,38.2609079
36Б с3,улица Мира,301665,54.0269690,38.2608611
17,Гвардейская улица,301657,54.0023650,38.2787008
7Г,улица Орджоникидзе,301668,54.0333736,38.2710161
2 к2,улица Орджоникидзе,301668,54.0324021,38.2609757
13/8,Гвардейская улица,301657,54.0015001,38.2796788
15,Гвардейская улица,301657,54.0017939,38.2793446
50/26,улица Садовского,301650,54.0159261,38.3059841
62/2,улица Горького,301681,54.0740068,38.4730912
12,Северная Аварийная улица,301651,54.0770400,38.2245678
2,улица Энергетиков,301664,54.0703881,38.2128700
7,улица Энергетиков,301664,54.0698582,38.2126700
2,улица Герцена,301654,54.0437507,38.2777950
4,улица Герцена,301654,54.0435297,38.2780696
4А,улица Пашанина,301650,54.0190176,38.2979870
1,улица Пашанина,301650,54.0205010,38.3003720
36/17,Гвардейская улица,301664,54.0045057,38.2788436
34,Гвардейская улица,301664,54.0040496,38.2792354
32/22,Гвардейская улица,301664,54.0037576,38.2797143
25,улица Пушкина,301680,54.0702750,38.4802182
1,Парковая улица,301680,54.0704791,38.4806471
15,Парковая улица,301680,54.0736692,38.4811257
11,Парковая улица,301680,54.0727084,38.4809996
13,Парковая улица,301680,54.0731925,38.4810731
11,улица Гагарина,301681,54.0724720,38.4743158
29,улица Гагарина,301680,54.0722266,38.4804901
27,улица Гагарина,301680,54.0722396,38.4798960
25,улица Гагарина,301680,54.0722602,38.4793109
20,Комсомольская улица,301681,54.0737851,38.4790045
18,Комсомольская улица,301681,54.0734185,38.4789600
14,Комсомольская улица,301680,54.0727138,38.4788829
12,Комсомольская улица,301680,54.0723536,38.4788354
2,Шахтёрская улица,301680,54.0640422,38.4721265
11А,Шахтёрская улица,301680,54.0650773,38.4742507
13,Шахтёрская улица,301680,54.0647887,38.4746260
11,Шахтёрская улица,301680,54.0648292,38.4737864
3,Шахтёрская улица,301680,54.0643802,38.4717430
5,Шахтёрская улица,301680,54.0645200,38.4722437
5,улица Горького,301680,54.0653189,38.4721471
3,улица Горького,301680,54.0650529,38.4723666
1/7,улица Горького,301681,54.0647268,38.4726303
4,улица Горького,301680,54.0654443,38.4727729
2А,улица Горького,301680,54.0653079,38.4733253
2/9,улица Горького,301680,54.0649597,38.4731988
3,Аварийная улица,301652,53.9858921,38.2948428
1,Аварийная улица,301652,53.9856391,38.2952627
8,Аварийная улица,301652,53.9859808,38.2932857
5,Аварийная улица,301652,53.9857206,38.2937293
6,Аварийная улица,301652,53.9852198,38.2946077
21,Аварийная улица,301652,53.9844366,38.2901416
22,Аварийная улица,301652,53.9841354,38.2904836
23,Аварийная улица,301652,53.9841362,38.2909571
24,Аварийная улица,301652,53.9842687,38.2912789
20,Аварийная улица,301652,53.9847341,38.2897866
19,Аварийная улица,301652,53.9850738,38.2897192
18,Аварийная улица,301652,53.9852987,38.2903980
21,улица Белинского,301652,53.9831094,38.2906312
7,улица Пушкина,301681,54.0706958,38.4705846
8,Строительная улица,301657,54.0021387,38.2593529
38,Техническая улица,301657,54.0014892,38.2614407
57 к1,улица Трудовые Резервы,301663,54.0257167,38.2868462
57 к2,улица Трудовые Резервы,301663,54.0257194,38.2862149
64 к8,улица Трудовые Резервы,301663,54.0261641,38.2892746
64 к6,улица Трудовые Резервы,301663,54.0258262,38.2892827
64 к2,улица Трудовые Резервы,301663,54.0248985,38.2892633
64 к1,улица Трудовые Резервы,301663,54.0246038,38.2891284
64 к3,улица Трудовые Резервы,301663,54.0249288,38.2897635
64 к4,улица Трудовые Резервы,301663,54.0253972,38.2895154
64 к5,улица Трудовые Резервы,301663,54.0259581,38.2897692
64 к7,улица Трудовые Резервы,301663,54.0264425,38.2898098
64 к9,улица Трудовые Резервы,301663,54.0269219,38.2895670
9Б к2,улица Кукунина,301659,54.0111450,38.3100531
9Б к1,улица Кукунина,301659,54.0109118,38.3105233
18В к1,улица Генерала Белова,301666,54.0321528,38.3186100
18В,улица Генерала Белова,301666,54.0321902,38.3173508
2 к4,улица Дружбы,301665,54.0201170,38.2689334
12А,Молодёжная улица,301670,54.0367492,38.2811209
3Ж,улица Мира,301654,54.0220538,38.2606922
1,Клинской проезд,301664,54.0027027,38.2987747
2,Донской проезд,301663,54.0280611,38.2750388
39,улица Горького,301681,54.0716751,38.4715533
35,улица Горького,301681,54.0707458,38.4716555
5А,улица Олега Кошевого,301680,54.0656776,38.4748252
33,Луговая улица,301680,54.0737699,38.4804149
27,Луговая улица,301681,54.0738376,38.4783039
25,Луговая улица,301681,54.0738580,38.4775101
46,Первомайская улица,301664,54.0048451,38.2800722
13,улица Шарова,301664,54.0047388,38.2794180
15,улица Шарова,301664,54.0046206,38.2791031
20,Полевая улица,301664,54.0041722,38.2796659
18,Полевая улица,301664,54.0042850,38.2799238
48,Первомайская улица,301664,54.0045302,38.2804354
50,Первомайская улица,301664,54.0044067,38.2806851
16,Полевая улица,301664,54.0040314,38.2805071
27А,Полевая улица,301664,54.0039034,38.2801633
10 к1,Рязанское шоссе,301666,54.0251596,38.3201698
10 к2,Рязанское шоссе,301666,54.0253046,38.3213005
10 к3,Рязанское шоссе,301666,54.0255647,38.3224395
23,Рудничная улица,301661,54.0440837,38.2524579
19,Рудничная улица,301661,54.0433970,38.2525234
25,Рудничная улица,301661,54.0440959,38.2530955
21,Рудничная улица,301661,54.0434214,38.2531739
27,Рудничная улица,301661,54.0452877,38.2522328
29,Рудничная улица,301661,54.0453581,38.2529756
33,Рудничная улица,301661,54.0460488,38.2529064
31,Рудничная улица,301661,54.0459568,38.2521590
39,Рудничная улица,301661,54.0451559,38.2549128
41,Рудничная улица,301661,54.0451840,38.2556230
35,Рудничная улица,301661,54.0459011,38.2548419
37,Рудничная улица,301661,54.0458866,38.2555506
6А к2,Донская улица,301663,54.0286995,38.2819169
6А к1,Донская улица,301663,54.0294325,38.2831702
75,улица Трудовые Резервы,301663,54.0324133,38.2781333
73,улица Трудовые Резервы,301663,54.0320569,38.2796103
73А,улица Трудовые Резервы,301663,54.0324076,38.2790575
29,улица Дружбы,301668,54.0298400,38.2677282
18Ж к2,Пионерская улица,301650,54.0283223,38.2999037
18Ж к1,Пионерская улица,301650,54.0283449,38.2991150
17,улица Генерала Белова,301666,54.0328420,38.3142415
18Д,Пионерская улица,301650,54.0279037,38.2992333
18Д к2,Пионерская улица,301650,54.0276549,38.3002952
18Д к1,Пионерская улица,301650,54.0270378,38.3005944
17А,улица Куйбышева,301650,54.0204490,38.2987246
