House number,Street name,Postal code,Latitude,Longitude
52,улица Степанова,300001,54.1997034,37.6401716
26,Пролетарская улица,300001,54.2020188,37.6413743
94,улица Болдина,300013,54.1750137,37.5743324
20,Октябрьская улица,300002,54.2070865,37.6192030
43,улица Металлургов,300027,54.1882784,37.6917853
147,Ложевая улица,300040,54.1975460,37.6589469
141,Ложевая улица,300040,54.1979977,37.6570557
33,набережная Дрейера,300000,54.2061782,37.6014669
33,улица Бондаренко,300010,54.2152478,37.6909667
26,Оружейная улица,300028,54.1688991,37.5822258
97,Октябрьская улица,300062,54.2190732,37.6259540
8,улица Фрунзе,300034,54.1956666,37.5901963
86,улица Кутузова,300021,54.1975616,37.6871850
2Г,улица Демонстрации,300041,54.1930926,37.6114075
23,Красноармейский проспект,300041,54.1977660,37.5895981
68,Советская улица,300041,54.1910657,37.6185682
1А,улица Демонстрации,300041,54.1925970,37.6115046
2,Красноармейский проспект,300041,54.1966360,37.6112293
17А,улица Революции,300041,54.1936379,37.6042670
132,Ложевая улица,300040,54.1980757,37.6549774
112,проспект Ленина,300026,54.1557322,37.5842764
127,проспект Ленина,300026,54.1559694,37.5856445
119,проспект Ленина,300026,54.1600733,37.5866664
106,проспект Ленина,300026,54.1583201,37.5844040
129,проспект Ленина,300026,54.1548382,37.5852999
145,проспект Ленина,300026,54.1488611,37.5839185
145,проспект Ленина,300026,54.1492821,37.5839909
141,проспект Ленина,300026,54.1509027,37.5844230
131,проспект Ленина,300026,54.1531835,37.5849809
10,улица Николая Руднева,300012,54.1711632,37.6009528
20,улица Кауля,300007,54.1787216,37.6307567
9,Красноармейский проспект,300041,54.1963070,37.6037112
100,Скуратовская улица,300026,54.1329354,37.5911651
46,улица Демонстрации,300034,54.1910221,37.5866469
4,Рязанская улица,300026,54.1555226,37.5863487
22,улица Макаренко,300028,54.1678352,37.5682897
14,улица Маршала Жукова,300036,54.1958621,37.5340655
61-63,проспект Ленина,300012,54.1819129,37.6072013
38,Рязанская улица,300024,54.1614962,37.6154552
12В,Менделеевская улица,300041,54.1955720,37.6196070
12,улица Максима Горького,300903,54.1209562,37.5467616
13,улица Максима Горького,300903,54.1195347,37.5465291
13,улица Максима Горького,300903,54.1195637,37.5466424
63/1,Одоевское шоссе,300036,54.1916908,37.5424065
6,улица Лейтейзена,300041,54.1952830,37.6006375
33А,улица Мосина,300041,54.2019387,37.5875226
13,улица Фрунзе,300041,54.1944338,37.5922588
2,улица Халтурина,300034,54.1920722,37.5962103
7,улица Фрунзе,300041,54.1953945,37.5913381
35,улица Сойфера,300041,54.1993499,37.5879565
38,Красноармейский проспект,300041,54.1983716,37.5880465
5/2,улица Фёдора Смирнова,300041,54.2001586,37.5855690
23Б,Верхняя Краснослободская улица,300005,54.2051239,37.5682487
15,Нижняя Упская улица,300005,54.2083910,37.5756057
18,улица Лейтейзена,300034,54.1912398,37.6016290
57Б,Пушкинская улица,300034,54.1914547,37.5990665
9,Щёкинское шоссе,300026,54.1343866,37.5797397
7,Пионерская улица,300026,54.1318376,37.5735223
25,улица Фрунзе,300034,54.1881965,37.5929368
13 к1,Первомайская улица,300035,54.1827375,37.5993535
28,Первомайская улица,300034,54.1856572,37.5936800
28,проспект Ленина,300041,54.1894373,37.6126852
12/1,Воздухофлотская улица,300005,54.2027568,37.5632889
8,улица Дзержинского,300041,54.1919977,37.6261774
1А,Калужское шоссе,300026,54.1556900,37.5833261
11,улица Дзержинского,300041,54.1925334,37.6258546
1,улица Лейтейзена,300041,54.1993942,37.6028457
13,улица Фрунзе,300041,54.1947393,37.5914963
13,улица Фрунзе,300041,54.1944391,37.5923351
85,проспект Ленина,300012,54.1755308,37.5992773
31,проспект Ленина,300000,54.1897152,37.6142035
101 к1,улица Тимирязева,300012,54.1709485,37.6072657
9,улица Агеева,300012,54.1713584,37.6030289
125 к4,проспект Ленина,300026,54.1576562,37.5897456
25,улица Николая Руднева,300012,54.1677123,37.5979972
45Б,улица Кутузова,300053,54.2032479,37.6815346
5,Менделеевская улица,300000,54.1916165,37.6234811
2,улица Дзержинского,300041,54.1931400,37.6233300
1,улица 9 Мая,300013,54.1640209,37.5855112
94,улица Болдина,300013,54.1749588,37.5742792
34,10-й Октябрьский проезд,300022,54.2353472,37.6359203
104,улица Тульского Рабочего Полка,300028,54.1737933,37.5867968
12,улица Макаренко,300028,54.1695602,37.5719247
69Б,улица Болотова,300005,54.1957877,37.5641595
12,Одоевское шоссе,300005,54.1954350,37.5649740
47,4-й проезд Мясново,300005,54.1978085,37.5640403
47,4-й проезд Мясново,300005,54.1979123,37.5639294
52,улица Демонстрации,300034,54.1908857,37.5847871
52,улица Демонстрации,300034,54.1908221,37.5848833
4,Красноармейский проспект,300041,54.1965861,37.6089002
7,Красноармейский проспект,300041,54.1962442,37.6050244
8,Советская улица,300041,54.1977894,37.6109681
2Г,Московское шоссе,300901,54.2520828,37.6093254
14Б,Красноармейский проспект,300041,54.1978349,37.6021260
9,улица Ликбеза,300005,54.2078657,37.5709503
4,Павшинский мост,300005,54.2086376,37.5750243
35А,улица Революции,300034,54.1929081,37.5955687
14,улица Революции,300034,54.1936012,37.5973894
304 к1,Октябрьская улица,300022,54.2345425,37.6163333
22,улица Вильямса,300053,54.2063187,37.6876960
8А,Октябрьская улица,300903,54.1196974,37.5515397
8 литБ/6,Хлебная площадь,300041,54.1848636,37.6192601
26,улица Вильямса,300010,54.2076481,37.6905793
120 к1,проспект Ленина,300026,54.1537170,37.5834767
1 оф11,Октябрьская улица,300002,54.2043431,37.6186895
217корп1,Октябрьская улица,300022,54.2338585,37.6248184
5Е,Рязанская улица,300012,54.1623251,37.6145175
1Г,улица Демонстрации,300041,54.1928574,37.6120695
144,улица Степанова,300001,54.2066751,37.6468820
57,Советская улица,300000,54.1901093,37.6228658
16,улица Ликбеза,300005,54.2068869,37.5691807
24В,улица Коминтерна,300041,54.2011894,37.5966105
217 к1,Октябрьская улица,300022,54.2340576,37.6244020
318,Октябрьская улица,300901,54.2461287,37.6138045
2В/1,Московское шоссе,300901,54.2518114,37.6099596
12,улица Каминского,300024,54.1879883,37.6152248
31,проспект Ленина,300000,54.1894208,37.6139033
217 к1,Октябрьская улица,300022,54.2347310,37.6238656
217корп2,Октябрьская,300022,54.2344532,37.6251732
217корп2,Октябрьская улица,300022,54.2345049,37.6251330
217корп2,Октябрьская улица,300022,54.2344547,37.6249720
217корп 2,Октябрьская улица,300022,54.2343340,37.6250713
217 к1,Октябрьская улица,300022,54.2339920,37.6244363
217 к1,Октябрьская улица,300022,54.2339536,37.6244711
217 к1,Октябрьская улица,300022,54.2338957,37.6245273
217 к1,Октябрьская улица,300022,54.2338212,37.6246653
217 к1,Октябрьская улица,300022,54.2343787,37.6241663
217корп2,Октябрьская улица,300022,54.2345845,37.6250777
217корп3,Октябрьская улица,300022,54.2349438,37.6256674
5,Путейская улица,300041,54.1981498,37.5816611
6,Дульная улица,300044,54.2131800,37.5945894
17,проспект Ленина,300041,54.1911339,37.6159641
22А,Пролетарская улица,300001,54.1993597,37.6369270
16,Индустриальная улица,300001,54.2076120,37.6452261
19,проспект Ленина,300041,54.1907850,37.6154361
18,проспект Ленина,300041,54.1910868,37.6148014
34А,проспект Ленина,300041,54.1884760,37.6097535
24,проспект Ленина,300041,54.1900273,37.6136638
54,Советская улица,300041,54.1927946,37.6137563
24,улица Каминского,300041,54.1907079,37.6115817
66,Советская улица,300041,54.1912971,37.6179505
24/24А,улица Каминского,300041,54.1920937,37.6129363
84,улица Металлургов,300021,54.1949316,37.6835581
82,улица Металлургов,300027,54.1942612,37.6847501
80,улица Металлургов,300027,54.1934627,37.6856122
1,Советская улица,300041,54.1996141,37.6149439
7 к1,улица Кауля,300045,54.1788339,37.6350391
5 к2,улица Кауля,300045,54.1792057,37.6365568
5 к1,улица Кауля,300045,54.1796514,37.6358106
64,улица Ф.Энгельса,300012,54.1777243,37.5950164
78,улица Металлургов,300027,54.1936131,37.6865943
60,улица Металлургов,300027,54.1906266,37.6900079
62,улица Металлургов,300027,54.1912543,37.6895766
86,улица Металлургов,300031,54.1964645,37.6775742
1,улица Хворостухина,300010,54.2087293,37.6885051
1А,улица Хворостухина,300010,54.2092765,37.6886224
47А,улица Металлургов,300027,54.1931158,37.6849464
49,улица Металлургов,300027,54.1926739,37.6840109
51,улица Металлургов,300027,54.1935577,37.6830394
55,улица Металлургов,300027,54.1947320,37.6826617
53,улица Металлургов,300027,54.1943577,37.6816544
74,улица Металлургов,300027,54.1936025,37.6877189
76,улица Металлургов,300027,54.1942444,37.6876623
76А,улица Металлургов,300027,54.1944874,37.6887691
96,улица Кутузова,300027,54.1950724,37.6893884
192,улица Марата,300004,54.2157148,37.6681548
3,улица Баженова,300004,54.2148500,37.6689686
1,улица Бондаренко,300053,54.2050593,37.6809117
2,улица Вильямса,300053,54.2040519,37.6809388
52,проспект Ленина,300012,54.1835115,37.6062904
12,улица Шухова,300004,54.2058469,37.6634839
14,улица Шухова,300004,54.2061632,37.6641108
2,улица Маяковского,300004,54.2063886,37.6647771
2А,улица Маяковского,300004,54.2060600,37.6652637
22,улица Вильямса,300053,54.2064794,37.6872793
22,улица Вильямса,300053,54.2063763,37.6876094
22,улица Вильямса,300053,54.2064728,37.6878445
2,улица Хворостухина,300053,54.2081149,37.6864902
24,улица Вильямса,300053,54.2068439,37.6879027
24,улица Вильямса,300053,54.2071763,37.6880500
6,улица Хворостухина,300053,54.2093895,37.6853688
5,улица Бондаренко,300053,54.2069894,37.6820908
7,улица Бондаренко,300053,54.2065449,37.6828156
9,улица Бондаренко,300053,54.2083467,37.6834476
11,улица Бондаренко,300053,54.2070386,37.6840778
15,улица Бондаренко,300053,54.2074418,37.6849250
16,улица Вильямса,300053,54.2066843,37.6861092
18,улица Вильямса,300053,54.2061481,37.6848189
20,улица Вильямса,300053,54.2067583,37.6852244
3 к1,улица Кауля,300045,54.1804552,37.6373859
3 к2,улица Кауля,300045,54.1799946,37.6380635
19,Новомосковская улица,300045,54.1807876,37.6389314
17,Новомосковская улица,300045,54.1801752,37.6403156
15,Новомосковская улица,300045,54.1797565,37.6412954
9 к3,улица Кауля,300045,54.1780564,37.6351513
3 к3,улица Кауля,300045,54.1792120,37.6380578
5 к3,улица Кауля,300045,54.1784969,37.6380369
7 к3,улица Кауля,300045,54.1778586,37.6381419
13 к1,улица Кауля,300045,54.1771528,37.6310898
11 к1,улица Кауля,300045,54.1776914,37.6320596
9,улица Кауля,300045,54.1781554,37.6333264
87,Оборонная улица,300045,54.1765188,37.6313366
7 к4,улица Кауля,300045,54.1770727,37.6381608
11 к2,улица Кауля,300045,54.1767372,37.6345343
13 к3,улица Кауля,300045,54.1767621,37.6319341
13 к2,улица Кауля,300045,54.1767027,37.6327186
11 к3,улица Кауля,300045,54.1768258,37.6336845
89 к1,Оборонная улица,300045,54.1760156,37.6317923
5А,Новомосковская улица,300045,54.1758753,37.6380231
7/1,Новомосковская улица,300045,54.1756151,37.6408957
15А,Новомосковская улица,300045,54.1791541,37.6401101
13А,Новомосковская улица,300045,54.1784862,37.6401819
9А,Новомосковская улица,300045,54.1772163,37.6403844
11А,Новомосковская улица,300045,54.1778106,37.6402435
13,Новомосковская улица,300045,54.1789362,37.6415567
11,Новомосковская улица,300045,54.1778067,37.6416251
7,Новомосковская улица,300045,54.1761266,37.6402657
3,Новомосковская улица,300045,54.1743337,37.6378792
95,Оборонная улица,300045,54.1739902,37.6350836
97,Оборонная улица,300045,54.1735575,37.6356682
91 к1,Оборонная улица,300045,54.1755435,37.6324802
95А,Оборонная улица,300045,54.1745076,37.6357114
91 к2,Оборонная улица,300045,54.1758102,37.6330262
21,Новомосковская улица,300045,54.1813659,37.6375194
23,Новомосковская улица,300045,54.1818224,37.6362933
25,Новомосковская улица,300045,54.1825932,37.6345686
25А,Новомосковская улица,300045,54.1822262,37.6337554
27,Новомосковская улица,300045,54.1833438,37.6328356
10,улица Кауля,300045,54.1796526,37.6345120
2,улица Кауля,300045,54.1807824,37.6366127
4,улица Кауля,300045,54.1808872,37.6355932
6,улица Кауля,300045,54.1808963,37.6345752
8,улица Кауля,300045,54.1802459,37.6345971
28,Красноармейский проспект,300041,54.1980518,37.5952032
24,Красноармейский проспект,300041,54.1979166,37.5963455
26А,Красноармейский проспект,300041,54.1977837,37.5956649
7,улица Фрунзе,300034,54.1964824,37.5911648
1А,улица Вересаева,300034,54.1962435,37.5879619
4,улица Седова,300028,54.1651648,37.5772269
79,улица Болдина,300013,54.1759382,37.5755664
37Б,улица Станиславского,300012,54.1633217,37.5987382
96,улица Болдина,300028,54.1731013,37.5747395
99,улица Болдина,300028,54.1730662,37.5754982
97,улица Болдина,300028,54.1734028,37.5754309
95,улица Болдина,300028,54.1738752,37.5753437
93,улица Болдина,300028,54.1742525,37.5752592
96 к1,улица Тульского Рабочего Полка,300028,54.1754566,37.5818874
4,улица Белкина,300028,54.1726863,37.5780501
16,улица Мира,300028,54.1739451,37.5786192
4Б,улица Белкина,300028,54.1730401,37.5784924
4А,улица Белкина,300028,54.1723016,37.5776933
2,улица Белкина,300028,54.1734909,37.5789238
6,Майская улица,300010,54.2130317,37.6903303
7,улица Хворостухина,300010,54.2101970,37.6868748
5,улица Хворостухина,300010,54.2101944,37.6880458
8,Майская улица,300010,54.2134832,37.6897100
1,Красноармейский проспект,300041,54.1953136,37.6097208
149,улица Болдина,300012,54.1682179,37.5856871
1А,улица Макаренко,300028,54.1703068,37.5743506
8А,улица 9 Мая,300025,54.1662551,37.5824631
9,Оружейная улица,300012,54.1697534,37.5838676
147,улица Болдина,300012,54.1688733,37.5838263
110,улица Болдина,300028,54.1699617,37.5796820
7Б,Оружейная улица,300012,54.1697213,37.5854771
10,улица 9 Мая,300028,54.1662783,37.5809399
35,улица Белкина,300028,54.1687441,37.5750802
9А,Оружейная улица,300012,54.1695009,37.5843524
27А,улица Белкина,300028,54.1700635,37.5773674
20 к3,улица 9 Мая,300028,54.1687774,37.5779203
22,улица 9 Мая,300028,54.1680809,37.5762163
145А,улица Болдина,300012,54.1688518,37.5847812
112,улица Болдина,300028,54.1697332,37.5802592
7В,Оружейная улица,300012,54.1694370,37.5851892
106А,улица Болдина,300028,54.1698711,37.5778567
27,улица Белкина,300028,54.1702536,37.5767503
14,улица 9 Мая,300028,54.1669390,37.5791717
23,Оружейная улица,300028,54.1666258,37.5807616
29,улица Белкина,300028,54.1698873,37.5763798
52,улица Мира,300012,54.1709987,37.5864334
118,улица Болдина,300028,54.1691219,37.5818036
36/12,Оружейная улица,300028,54.1667631,37.5799291
147А,улица Болдина,300012,54.1687294,37.5851922
114,улица Болдина,300028,54.1695002,37.5808515
6,улица 9 Мая,300025,54.1655339,37.5829622
3,Оружейная улица,300012,54.1709671,37.5851853
28А,Оружейная улица,300028,54.1687233,37.5811916
34,Оружейная улица,300028,54.1671595,37.5803479
124,улица Болдина,300028,54.1685037,37.5833955
32А,Оружейная улица,300028,54.1679884,37.5803210
147Б,улица Болдина,300012,54.1689700,37.5855275
20,улица 9 Мая,300028,54.1677372,37.5771079
114А,улица Болдина,300028,54.1689834,37.5805170
30А,Оружейная улица,300028,54.1684554,37.5804131
18 к2,улица 9 Мая,300028,54.1682855,37.5783113
31,улица Белкина,300028,54.1695060,37.5759341
56А,улица Мира,300012,54.1702545,37.5873818
145Б,улица Болдина,300012,54.1691315,37.5850566
20 к2,улица 9 Мая,300028,54.1681647,37.5773149
52А,улица Мира,300012,54.1706483,37.5863069
112Б,улица Болдина,300028,54.1689750,37.5790545
6,улица Смидович,300012,54.1689807,37.5872395
16 к3,улица 9 Мая,300028,54.1683922,37.5792020
33,улица Белкина,300028,54.1691480,37.5755408
29А,улица Белкина,300028,54.1695471,37.5771329
8,улица Смидович,300012,54.1684510,37.5866633
16 к2,улица 9 Мая,300028,54.1677273,37.5784993
112А,улица Болдина,300028,54.1692638,37.5797594
29Б,улица Белкина,300028,54.1691062,37.5783449
11,Оружейная улица,300012,54.1694100,37.5834700
3,улица Смидович,300012,54.1682420,37.5870278
110А,улица Болдина,300028,54.1695673,37.5790739
7А,Оружейная улица,300012,54.1699768,37.5857492
32Б,Оружейная улица,300028,54.1682206,37.5796737
24,улица 9 Мая,300028,54.1684230,37.5754626
6,Гражданский переулок,300028,54.1690276,37.5775365
18,улица Белкина,300028,54.1710284,37.5767544
10,Гражданский переулок,300028,54.1694215,37.5764961
108,улица Болдина,300028,54.1702181,37.5789739
3А,Оружейная улица,300012,54.1704333,37.5860189
26,Оружейная улица,300028,54.1684220,37.5816426
2,улица Смидович,300012,54.1700052,37.5884224
62,улица Мира,300012,54.1696247,37.5900286
50,улица Мира,300012,54.1712396,37.5857027
4,улица Смидович,300012,54.1695850,37.5878648
102А,улица Тульского Рабочего Полка,300028,54.1739408,37.5854020
100А,улица Тульского Рабочего Полка,300028,54.1743924,37.5842940
100Б,улица Тульского Рабочего Полка,300028,54.1739894,37.5836460
1А,улица Белкина,300028,54.1739479,37.5813198
102,улица Тульского Рабочего Полка,300028,54.1741344,37.5860863
1Б,улица Белкина,300028,54.1745655,37.5820121
27,улица Мира,300012,54.1713133,37.5868564
1В,улица Белкина,300028,54.1750162,37.5824780
19,улица Мира,300028,54.1725081,37.5836995
104,улица Тульского Рабочего Полка,300028,54.1735288,37.5867721
1Г,Оружейная улица,300012,54.1719785,37.5878802
35,улица Мира,300012,54.1700609,37.5901218
2В,Оружейная улица,300028,54.1728231,37.5854983
17,улица Мира,300028,54.1729166,37.5825813
2Г,Оружейная улица,300028,54.1733733,37.5860836
19А,улица Мира,300028,54.1730612,37.5846232
15,улица Мира,300028,54.1731882,37.5818731
102Б,улица Тульского Рабочего Полка,300028,54.1734584,37.5851026
2Б,Оружейная улица,300028,54.1727781,37.5864892
98А,улица Тульского Рабочего Полка,300028,54.1747336,37.5833501
98,улица Тульского Рабочего Полка,300028,54.1752666,37.5831263
100,улица Тульского Рабочего Полка,300028,54.1748396,37.5842188
1В,Оружейная улица,300012,54.1737707,37.5884797
13,улица Мира,300028,54.1734725,37.5811167
84А,проспект Ленина,300012,54.1708608,37.5918777
2А,Оружейная улица,300028,54.1722878,37.5859448
15Б,улица Мира,300028,54.1736161,37.5832030
23,улица Мира,300028,54.1719080,37.5852400
29,улица Мира,300012,54.1712471,37.5878477
21,улица Мира,300028,54.1722324,37.5844194
17Б,улица Мира,300028,54.1732566,37.5838674
1 к1,улица Волкова,300027,54.1854257,37.6919454
1 к3,улица Волкова,300027,54.1857773,37.6925701
3 к1,улица Волкова,300027,54.1861470,37.6931810
3 к4,улица Волкова,300027,54.1865051,37.6938072
1 к2,улица Волкова,300027,54.1858201,37.6912759
3,улица Волкова,300027,54.1861807,37.6919252
5,улица Волкова,300027,54.1865760,37.6925069
7,улица Волкова,300027,54.1869647,37.6932570
3 к2,улица Волкова,300027,54.1862283,37.6897850
41А,улица Металлургов,300027,54.1878031,37.6917786
41Б,улица Металлургов,300027,54.1873436,37.6916700
5А,улица Волкова,300027,54.1868896,37.6907370
2/8,Менделеевская улица,300000,54.1918650,37.6239793
118,улица Кутузова,300027,54.1893135,37.6985428
15Б,улица Волкова,300027,54.1891318,37.6973325
15В,улица Волкова,300027,54.1889570,37.6969773
17,улица Волкова,300027,54.1884295,37.6979819
19,улица Волкова,300027,54.1888030,37.6987699
9,улица Волкова,300027,54.1871769,37.6954169
25,улица Дементьева,300004,54.2055269,37.6774696
13,улица Волкова,300027,54.1879656,37.6968594
35/7,улица Металлургов,300016,54.1851242,37.6968789
39/10,улица Металлургов,300027,54.1862475,37.6949632
30,улица Металлургов,300027,54.1874779,37.6944650
32,улица Металлургов,300027,54.1882135,37.6940581
34,улица Металлургов,300027,54.1881330,37.6930881
70,проспект Ленина,300012,54.1778987,37.5998263
4,улица Жаворонкова,300041,54.1781649,37.5990733
145,улица Ф.Энгельса,300012,54.1772717,37.5966489
76А,проспект Ленина,300012,54.1756237,37.5966504
72,проспект Ленина,300012,54.1772542,37.5992406
147,улица Ф.Энгельса,300012,54.1760686,37.5954121
78,проспект Ленина,300012,54.1748007,37.5965802
74А,проспект Ленина,300012,54.1768099,37.5979014
147А,улица Ф.Энгельса,300012,54.1758512,37.5960524
149,улица Ф.Энгельса,300012,54.1754278,37.5947210
145А,улица Ф.Энгельса,300012,54.1770428,37.5972587
76,проспект Ленина,300012,54.1754502,37.5973015
143,улица Ф.Энгельса,300012,54.1779786,37.5973795
68,проспект Ленина,300012,54.1786070,37.6005095
151А,улица Ф.Энгельса,300012,54.1746588,37.5951519
74,проспект Ленина,300012,54.1765793,37.5985362
80А,проспект Ленина,300012,54.1742969,37.5960346
80,проспект Ленина,300012,54.1740755,37.5954627
11А,улица Волкова,300027,54.1881069,37.6958892
9А,улица Волкова,300027,54.1877580,37.6950940
15,улица Волкова,300027,54.1882854,37.6972456
15А,улица Волкова,300027,54.1887106,37.6966279
14,улица Волкова,300027,54.1871658,37.6962450
24,улица Металлургов,300027,54.1854791,37.6977035
26,улица Металлургов,300027,54.1859316,37.6969212
2Б,улица Хворостухина,300053,54.2077898,37.6855856
1,Фабричная улица,300027,54.1858926,37.6985983
46А,улица Металлургов,300027,54.1903914,37.6922153
50,улица Металлургов,300027,54.1909063,37.6914899
8,улица Вильямса,300053,54.2046582,37.6828790
4,улица Вильямса,300053,54.2037943,37.6822041
6,улица Вильямса,300053,54.2040902,37.6833072
26,улица Вильямса,300010,54.2082527,37.6904335
4,улица Волкова,300027,54.1850805,37.6924842
6,улица Волкова,300027,54.1854830,37.6931728
8,улица Волкова,300027,54.1859256,37.6939311
1,улица Чаплыгина,300016,54.1836075,37.6946786
3,улица Чаплыгина,300016,54.1840404,37.6955210
5,улица Чаплыгина,300016,54.1845021,37.6963148
12А,улица Вильямса,300053,54.2052369,37.6848201
93А,Оборонная улица,300045,54.1739963,37.6363452
12,улица Кауля,300045,54.1796871,37.6335453
14,улица Кауля,300045,54.1797616,37.6324346
7А,Новомосковская улица,300045,54.1763818,37.6394820
18,улица Кауля,300045,54.1785555,37.6324177
16,улица Кауля,300045,54.1791137,37.6324967
20,улица Кауля,300045,54.1785747,37.6311113
105Б,Староникитская улица,300045,54.1802570,37.6307223
22,улица Морозова,300045,54.1806912,37.6326871
1,улица Пузакова,300062,54.2188575,37.6236463
79 к2,Октябрьская улица,300062,54.2143309,37.6247170
93,Октябрьская улица,300062,54.2172988,37.6258818
30А,улица Галкина,300062,54.2136936,37.6248227
89,Октябрьская улица,300062,54.2165617,37.6249655
47,Октябрьская улица,300002,54.2121707,37.6224241
2,улица Максима Горького,300002,54.2123168,37.6246244
23,улица Галкина,300002,54.2118753,37.6258861
83,Октябрьская улица,300062,54.2159374,37.6244557
93,Октябрьская улица,300062,54.2171362,37.6269799
49/24,Октябрьская улица,300002,54.2125597,37.6231930
77,Октябрьская улица,300062,54.2135413,37.6232926
87,Октябрьская улица,300062,54.2164698,37.6262706
26,улица Галкина,300002,54.2118233,37.6248887
79 к1,Октябрьская улица,300062,54.2142625,37.6234424
95,Октябрьская улица,300062,54.2182141,37.6255168
81,Октябрьская улица,300062,54.2151355,37.6239340
7,улица Фёдора Смирнова,300041,54.1992446,37.5854743
1,улица Сойфера,300041,54.1978847,37.6093071
54,Красноармейский проспект,300041,54.2007452,37.5816819
52,Красноармейский проспект,300041,54.2003574,37.5812467
8,Красноармейский проспект,300041,54.1969816,37.6052992
6,Красноармейский проспект,300041,54.1968432,37.6076767
10,улица Революции,300034,54.1945800,37.6036764
50,Красноармейский проспект,300041,54.1999300,37.5807895
3,улица Сойфера,300041,54.1973246,37.6080433
48,Красноармейский проспект,300041,54.1991760,37.5812206
46,Красноармейский проспект,300041,54.1991445,37.5824752
8,улица Демонстрации,300041,54.1932936,37.6063870
6 к2,Красноармейский проспект,300041,54.1976803,37.6071480
2Е,Гарнизонный проезд,300901,54.2472008,37.6113915
250 к1,Октябрьская улица,300022,54.2356581,37.6203603
318,Октябрьская улица,300901,54.2461536,37.6135408
2Б,Гарнизонный проезд,300901,54.2467988,37.6094644
250 к2,Октябрьская улица,300022,54.2354586,37.6195508
3Б,Гарнизонный проезд,300901,54.2460834,37.6100780
2Г,Гарнизонный проезд,300901,54.2468993,37.6103703
19,улица Бондаренко,300010,54.2108360,37.6854203
19,улица Бондаренко,300010,54.2113569,37.6857828
19,улица Бондаренко,300010,54.2102808,37.6856231
23,улица Бондаренко,300010,54.2117004,37.6871103
23,улица Бондаренко,300010,54.2119490,37.6885289
27,улица Бондаренко,300010,54.2109145,37.6896441
27,улица Бондаренко,300010,54.2107127,37.6887576
42,улица Вильямса,300010,54.2102608,37.6899504
42,улица Вильямса,300010,54.2107269,37.6904426
42,улица Вильямса,300010,54.2100443,37.6890494
22,Комсомольская улица,300002,54.2094230,37.6086278
28,Литейная улица,300002,54.2101582,37.6083902
6,Рязанская улица,300026,54.1555065,37.5872956
4,Рязанская улица,300026,54.1555858,37.5864318
18,Рязанская улица,300026,54.1550667,37.5921872
120А,проспект Ленина,300025,54.1542270,37.5789064
8,Рязанская улица,300026,54.1554320,37.5881389
12,Рязанская улица,300026,54.1552940,37.5897669
10,Рязанская улица,300026,54.1553734,37.5889503
16,Рязанская улица,300026,54.1551602,37.5913700
14,Рязанская улица,300026,54.1552197,37.5905549
47,Штыковая улица,300002,54.2100713,37.6074055
41,Штыковая улица,300002,54.2086999,37.6071725
20,Комсомольская улица,300002,54.2085808,37.6081396
43,Штыковая улица,300002,54.2092265,37.6077983
49,улица Луначарского,300002,54.2077727,37.6095238
49А,Штыковая улица,300002,54.2095785,37.6079804
57,улица Луначарского,300002,54.2081106,37.6073590
24А,Литейная улица,300002,54.2090527,37.6106853
30,Литейная улица,300002,54.2100379,37.6063135
61,улица Луначарского,300002,54.2090791,37.6056361
63,улица Луначарского,300002,54.2097112,37.6047629
10Б,улица Максима Горького,300002,54.2141778,37.6127371
131Б,проспект Ленина,300026,54.1541827,37.5872730
137Б,проспект Ленина,300026,54.1521683,37.5867320
16,Калужское шоссе,300026,54.1578705,37.5766967
133,проспект Ленина,300026,54.1531809,37.5868363
1,улица Вознесенского,300026,54.1542345,37.5880226
133А,проспект Ленина,300026,54.1526505,37.5883250
131,проспект Ленина,300026,54.1538722,37.5857247
137А,проспект Ленина,300026,54.1521029,37.5859904
131А,проспект Ленина,300026,54.1540936,37.5865170
137,проспект Ленина,300026,54.1519490,37.5851981
137В,проспект Ленина,300026,54.1522514,37.5874904
10,Перекопская улица,300045,54.1702543,37.6221827
101 к4,улица Тимирязева,300012,54.1703394,37.6096882
101 к1,улица Тимирязева,300012,54.1706083,37.6070006
101 к3,улица Тимирязева,300012,54.1700226,37.6092857
22 к5,улица Калинина,300040,54.2002696,37.6607523
26 к4,улица Калинина,300040,54.2010078,37.6618620
28,улица Пузакова,300057,54.2187994,37.6132415
17,улица Пузакова,300057,54.2220367,37.6163485
24,улица Пузакова,300057,54.2191232,37.6140300
26,улица Пузакова,300057,54.2184881,37.6141950
5,улица Пузакова,300057,54.2194516,37.6180504
16,улица Пузакова,300057,54.2186179,37.6175008
8,улица Пузакова,300057,54.2175609,37.6182548
9,улица Пузакова,300057,54.2198218,37.6161516
2,улица Пузакова,300057,54.2183075,37.6197600
6,улица Пузакова,300057,54.2179810,37.6189825
14,улица Пузакова,300057,54.2181160,37.6179400
20А,улица Пузакова,300057,54.2182552,37.6154554
18,улица Пузакова,300057,54.2181087,37.6168528
20,улица Пузакова,300057,54.2187203,37.6157354
22А,улица Кирова,300001,54.2008046,37.6513374
22,улица Кирова,300001,54.2006833,37.6503502
77А,улица Калинина,300040,54.1998991,37.6533869
139,Ложевая улица,300040,54.1985337,37.6566305
129 к2,Ложевая улица,300001,54.2003674,37.6519213
133,Ложевая улица,300040,54.1991108,37.6536372
137,Ложевая улица,300040,54.1984526,37.6557983
147,Ложевая улица,300040,54.1977873,37.6591518
145,Ложевая улица,300040,54.1976641,37.6582599
16,улица Калинина,300040,54.1989937,37.6553988
18 к1,улица Калинина,300040,54.1992299,37.6564189
77Б,улица Калинина,300040,54.1997437,37.6540792
131А,Ложевая улица,300001,54.2001826,37.6527025
77,улица Калинина,300040,54.1994228,37.6548440
18 к3,улица Калинина,300040,54.1984580,37.6589015
143,Ложевая улица,300040,54.1981466,37.6578855
24,улица Кирова,300001,54.2012606,37.6506167
141,Ложевая улица,300040,54.1980514,37.6569984
129,Ложевая улица,300001,54.2000187,37.6507132
18 к2,улица Калинина,300040,54.1988481,37.6576784
131,Ложевая улица,300001,54.1996460,37.6522387
15Б,улица Кутузова,300004,54.2122922,37.6689178
15А,улица Кутузова,300004,54.2122259,37.6681525
10А,улица Баженова,300004,54.2128311,37.6700522
10Б,улица Баженова,300004,54.2125722,37.6695059
4Б,улица Баженова,300004,54.2139983,37.6672252
13,улица Кутузова,300004,54.2128103,37.6675776
10,улица Баженова,300004,54.2131174,37.6705807
7,улица Баженова,300004,54.2133912,37.6711327
4,улица Баженова,300004,54.2145970,37.6683821
4А,улица Баженова,300004,54.2142912,37.6678013
190,улица Кирова,300004,54.2140024,37.6702241
192,улица Кирова,300004,54.2143424,37.6709204
85,улица Токарева,300020,54.2275042,37.6141194
83,улица Токарева,300020,54.2276480,37.6147033
6,Промышленный проезд,300020,54.2257018,37.6265361
49,улица Токарева,300020,54.2257975,37.6242812
79,улица Токарева,300020,54.2281472,37.6155482
2,18-й Октябрьский проезд,300022,54.2399398,37.6268299
34,Промышленный проезд,300020,54.2275194,37.6169296
8,Промышленный проезд,300020,54.2259415,37.6250060
191 к1,Комсомольская улица,300020,54.2277949,37.6194258
92А,улица Карпова,300022,54.2410075,37.6264697
191 к3,Комсомольская улица,300020,54.2286412,37.6196615
47,улица Токарева,300020,54.2255671,37.6257849
87,улица Токарева,300020,54.2267598,37.6143670
191 к2,Комсомольская улица,300020,54.2283762,37.6191201
10,Промышленный проезд,300020,54.2262142,37.6235150
191 к4,Комсомольская улица,300020,54.2288039,37.6186744
36,Промышленный проезд,300020,54.2277926,37.6164070
13,улица Малые Гончары,300057,54.2230024,37.6038034
74,улица Пузакова,300057,54.2203921,37.6030368
16,улица Малые Гончары,300057,54.2220513,37.6037929
72,улица Пузакова,300057,54.2205401,37.6041898
70,улица Пузакова,300057,54.2201180,37.6049950
60,улица Пузакова,300057,54.2197812,37.6072774
68,улица Пузакова,300057,54.2202348,37.6063390
14,улица Малые Гончары,300057,54.2226957,37.6037125
12,улица Малые Гончары,300057,54.2232933,37.6038812
120,проспект Ленина,300025,54.1548867,37.5787031
118,проспект Ленина,300025,54.1548677,37.5802373
3,Калужское шоссе,300026,54.1558481,37.5803748
112А,проспект Ленина,300025,54.1550596,37.5821885
64,улица Николая Руднева,300026,54.1609040,37.5897458
1,Рязанская улица,300024,54.1560654,37.5940603
61,улица Николая Руднева,300026,54.1606479,37.5905271
125 к3,проспект Ленина,300026,54.1571018,37.5883120
70,улица Николая Руднева,300026,54.1593828,37.5876751
1,Рязанская улица,300024,54.1560576,37.5945552
102 к4,проспект Ленина,300026,54.1595252,37.5850875
121,проспект Ленина,300026,54.1595026,37.5864576
65,улица Николая Руднева,300026,54.1593675,37.5891316
117,проспект Ленина,300026,54.1607463,37.5867480
44 к2,улица Мезенцева,300026,54.1584358,37.5914939
63,улица Николая Руднева,300026,54.1599750,37.5897946
119,проспект Ленина,300026,54.1601093,37.5866527
115А,проспект Ленина,300026,54.1617842,37.5874919
69,улица Николая Руднева,300026,54.1580792,37.5881069
115,проспект Ленина,300026,54.1615331,37.5869823
44 к1,улица Мезенцева,300026,54.1587860,37.5905609
44 к3,улица Мезенцева,300026,54.1580737,37.5924565
67,улица Николая Руднева,300026,54.1583211,37.5889872
65А,улица Николая Руднева,300026,54.1592556,37.5897931
72,улица Николая Руднева,300025,54.1586039,37.5872380
68,улица Николая Руднева,300026,54.1598298,37.5885777
12А,Волоховская улица,300026,54.1519097,37.5900788
9,улица Вознесенского,300026,54.1542386,37.5913171
8,Волоховская улица,300026,54.1533938,37.5915526
10А,Волоховская улица,300026,54.1525581,37.5907922
133В,проспект Ленина,300026,54.1533420,37.5892894
8 к2,Волоховская улица,300026,54.1532986,37.5905165
12,Волоховская улица,300026,54.1517828,37.5913432
10,Волоховская улица,300026,54.1526264,37.5915179
90,улица Металлургов,300031,54.1963290,37.6746411
92,улица Металлургов,300031,54.1962741,37.6726129
178,улица Декабристов,300031,54.1969182,37.6765131
88,улица Металлургов,300031,54.1963629,37.6763189
176,улица Декабристов,300031,54.1972785,37.6753937
17,улица Кауля,300045,54.1764466,37.6278278
2,улица Тимирязева,300012,54.1838321,37.6292773
19 к2,улица Кауля,300045,54.1759281,37.6273656
4А,улица Бандикова,300045,54.1754914,37.6284529
6А,улица Бандикова,300045,54.1750307,37.6286402
75А,Староникитская улица,300045,54.1827458,37.6297156
73А,Староникитская улица,300041,54.1842295,37.6285158
2А,улица Бандикова,300045,54.1761154,37.6281872
57,Советская улица,300041,54.1902093,37.6229612
10,Староникитская улица,300041,54.1887517,37.6252535
7А,Оборонная улица,300000,54.1890679,37.6235490
9А,Оборонная улица,300000,54.1883684,37.6238748
10А,Староникитская улица,300000,54.1884759,37.6245935
7,Менделеевская улица,300000,54.1915919,37.6221589
19,улица Галкина,300002,54.2109867,37.6263093
21,улица Галкина,300002,54.2105693,37.6269614
35А,улица Марата,300001,54.2043458,37.6471088
35Б,улица Марата,300001,54.2045797,37.6462681
24,Пролетарская улица,300001,54.2006460,37.6385700
26,Гармонная улица,300001,54.2036324,37.6419030
46,улица Плеханова,300001,54.2008654,37.6392880
28А,Пролетарская улица,300001,54.2034626,37.6395269
26,Пролетарская улица,300001,54.2020702,37.6400260
28,Пролетарская улица,300001,54.2034971,37.6407972
123,Ложевая улица,300001,54.2029041,37.6419935
10,улица Макаренко,300028,54.1699653,37.5722817
10Б,улица Макаренко,300028,54.1707148,37.5703341
12,улица Макаренко,300028,54.1695663,37.5718419
12А,улица Макаренко,300028,54.1703200,37.5699267
2,улица Макаренко,300028,54.1715364,37.5739813
4,улица Макаренко,300028,54.1711433,37.5735652
4А,улица Макаренко,300028,54.1718769,37.5716144
6,улица Макаренко,300028,54.1707454,37.5731390
6Б,улица Макаренко,300028,54.1714907,37.5711905
8,улица Макаренко,300028,54.1703579,37.5727241
8А,улица Макаренко,300028,54.1711001,37.5707585
72,улица Металлургов,300027,54.1934717,37.6887523
49А,улица Комарова,300021,54.1987188,37.6773173
49,улица Мусоргского,300031,54.1990525,37.6761227
30,улица Щегловская Засека,300004,54.2190035,37.6963660
65,улица Луначарского,300044,54.2095786,37.5989455
107,улица Болдина,300028,54.1718110,37.5761410
109,улица Болдина,300028,54.1715969,37.5769728
6А,улица Белкина,300028,54.1719256,37.5772756
14,улица Мира,300028,54.1742179,37.5773273
6,улица Белкина,300028,54.1728198,37.5768843
6Б,улица Белкина,300028,54.1729093,37.5764590
8А,улица Белкина,300028,54.1733506,37.5763645
8,улица Белкина,300028,54.1734065,37.5768510
8Б,улица Белкина,300028,54.1733792,37.5774753
27,улица Седова,300028,54.1694586,37.5703472
25,улица Седова,300028,54.1688247,37.5704617
29,улица Седова,300028,54.1699178,37.5694644
27А,улица Седова,300028,54.1697480,37.5687442
25А,улица Седова,300028,54.1689730,37.5692161
31А,улица Седова,300028,54.1703577,37.5677601
31Б,улица Седова,300028,54.1705242,37.5684819
2Г,улица Циолковского,300012,54.1708860,37.5944178
3,улица Пузакова,300057,54.2188319,37.6204163
80,Демидовская улица,300057,54.2199514,37.6208397
82,Демидовская улица,300057,54.2205089,37.6210791
31В,улица Седова,300028,54.1708509,37.5689418
84,Демидовская улица,300057,54.2210593,37.6213671
2В,улица Циолковского,300012,54.1703184,37.5960492
2Б,улица Циолковского,300012,54.1698785,37.5971661
2А,улица Циолковского,300012,54.1694408,37.5983360
29А,улица Седова,300028,54.1696309,37.5679281
2,улица Циолковского,300012,54.1689262,37.5987243
31,улица Седова,300028,54.1703402,37.5668111
33,улица Седова,300028,54.1712567,37.5660338
33А,улица Седова,300028,54.1715569,37.5667148
28,улица Николая Руднева,300012,54.1683857,37.5981103
33Б,улица Седова,300028,54.1709032,37.5670853
33В,улица Седова,300028,54.1710589,37.5678228
95А,Октябрьская улица,300062,54.2181029,37.6262057
30,улица Николая Руднева,300012,54.1675262,37.5971612
95Б,Октябрьская улица,300062,54.2180057,37.6269322
32,улица Николая Руднева,300012,54.1669086,37.5964781
36,улица Галкина,300062,54.2178912,37.6276211
37,улица Галкина,300062,54.2178196,37.6286944
39,улица Галкина,300062,54.2176058,37.6295426
6,улица Максимовского,300062,54.2174859,37.6303198
35,улица Галкина,300062,54.2170003,37.6286506
35,улица Галкина,300062,54.2168480,37.6297595
8,улица Максимовского,300062,54.2184021,37.6298226
10,улица Максимовского,300062,54.2192930,37.6298338
101,Октябрьская улица,300062,54.2198851,37.6279252
33Д,улица Седова,300028,54.1716763,37.5682046
33Г,улица Седова,300028,54.1716890,37.5674246
35,улица Седова,300028,54.1726339,37.5661775
35А,улица Седова,300028,54.1727545,37.5669851
35Б,улица Седова,300028,54.1728701,37.5677852
37,улица Седова,300028,54.1736301,37.5663787
39,улица Седова,300028,54.1746168,37.5662773
39А,улица Седова,300028,54.1744781,37.5670484
39Б,улица Седова,300028,54.1743333,37.5678779
41,улица Седова,300013,54.1756867,37.5667109
41А,улица Седова,300013,54.1756383,37.5674592
41Б,улица Седова,300013,54.1755586,37.5682011
6,улица Циолковского,300012,54.1687479,37.6003960
8,улица Циолковского,300012,54.1685095,37.6010105
8А,улица Циолковского,300012,54.1682533,37.6016575
6А,переулок Шевченко,300012,54.1678166,37.6013717
6,переулок Шевченко,300012,54.1673554,37.6009109
97,проспект Ленина,300012,54.1715925,37.5951014
1,улица Циолковского,300012,54.1709728,37.5958349
3,улица Циолковского,300012,54.1704494,37.5972155
3 к2,улица Академика Обручева,300012,54.1712402,37.6003627
12,улица Николая Руднева,300035,54.1704350,37.6002271
26,Серебровская улица,300013,54.1768160,37.5700243
26А,Серебровская улица,300013,54.1766316,37.5693282
26Б,Серебровская улица,300013,54.1763862,37.5686663
43,улица Седова,300013,54.1767234,37.5669013
45,улица Седова,300013,54.1773766,37.5678775
47,улица Седова,300013,54.1781905,37.5679437
22А,Серебровская улица,300013,54.1783815,37.5688887
22,Серебровская улица,300013,54.1783186,37.5696430
49,улица Седова,300013,54.1797188,37.5683038
20,Серебровская улица,300013,54.1797023,37.5691122
18,Серебровская улица,300013,54.1806680,37.5688914
16Е,Серебровская улица,300013,54.1815663,37.5687254
16Д,Серебровская улица,300013,54.1823997,37.5686053
16Г,Серебровская улица,300013,54.1832237,37.5683260
16В,Серебровская улица,300013,54.1840217,37.5680275
16Б,Серебровская улица,300013,54.1849639,37.5678292
16А,Серебровская улица,300013,54.1853701,37.5675197
5,улица Немцова,300004,54.2085400,37.6628879
101,проспект Ленина,300025,54.1680664,37.5910037
103,проспект Ленина,300025,54.1674968,37.5901856
105,проспект Ленина,300025,54.1668646,37.5895712
8,1-й Южный проезд,300025,54.1665645,37.5905515
6,1-й Южный проезд,300025,54.1671089,37.5912228
111,проспект Ленина,300026,54.1640802,37.5875679
4,улица Станиславского,300025,54.1659102,37.5900066
6,улица Станиславского,300025,54.1653958,37.5912656
12,улица Станиславского,300026,54.1648610,37.5928584
14,улица Станиславского,300026,54.1645758,37.5936334
109А,проспект Ленина,300026,54.1643871,37.5894493
8А,улица Станиславского,300025,54.1649308,37.5906080
10А,улица Станиславского,300026,54.1647270,37.5911540
50,улица Николая Руднева,300026,54.1641881,37.5934502
52,улица Николая Руднева,300026,54.1638404,37.5930338
54,улица Николая Руднева,300026,54.1635124,37.5926068
56,улица Николая Руднева,300026,54.1636336,37.5916587
56А,улица Николая Руднева,300026,54.1639220,37.5908811
58,улица Николая Руднева,300026,54.1632027,37.5919796
60,улица Николая Руднева,300026,54.1626585,37.5918500
1В,улица Академика Павлова,300026,54.1625642,37.5908524
60А,улица Николая Руднева,300026,54.1630370,37.5912154
1Г,улица Академика Павлова,300026,54.1628926,37.5900099
107,проспект Ленина,300025,54.1659510,37.5889002
8,Советская улица,300041,54.1974651,37.6109761
62,проспект Ленина,300012,54.1812002,37.6031383
64,проспект Ленина,300012,54.1804582,37.6026057
13 к1,Первомайская улица,300035,54.1826475,37.5993733
13 к4,Первомайская улица,300035,54.1826754,37.5977383
58,Советская улица,300041,54.1923934,37.6144365
62,Гоголевская улица,300041,54.1863810,37.6075218
49,Гоголевская улица,300000,54.1862639,37.6067346
99,улица Ф.Энгельса,300041,54.1842530,37.6041434
64Б,проспект Ленина,300012,54.1810593,37.6014921
103,улица Ф.Энгельса,300041,54.1827878,37.6025475
60,Гоголевская улица,300041,54.1861852,37.6081102
135,улица Ф.Энгельса,300012,54.1807194,37.6003139
23А,Пушкинская улица,300041,54.1875703,37.6098667
10,Первомайская улица,300012,54.1821949,37.6024999
66,проспект Ленина,300012,54.1795207,37.6016154
101,улица Ф.Энгельса,300041,54.1834491,37.6035810
47А,Гоголевская улица,300000,54.1856390,37.6068759
77А,улица Ф.Энгельса,300041,54.1869849,37.6080634
56А,Советская улица,300041,54.1925748,37.6145172
50,проспект Ленина,300041,54.1839887,37.6068327
73,улица Ф.Энгельса,300041,54.1875373,37.6081022
137,улица Ф.Энгельса,300012,54.1798567,37.5994364
13 к5,Первомайская улица,300035,54.1822095,37.5985376
21,улица Ленина,300041,54.1914340,37.6088961
16,улица Ф.Энгельса,300041,54.1892852,37.6085323
16,улица Ф.Энгельса,300041,54.1894675,37.6087218
53Б,улица Ф.Энгельса,300000,54.1888761,37.6100704
3,улица Демонстрации,300041,54.1918771,37.6032357
16,улица Ф.Энгельса,300041,54.1891016,37.6083414
16,улица Ф.Энгельса,300041,54.1900757,37.6073476
28А,Пушкинская улица,300041,54.1894905,37.6078779
16,улица Ф.Энгельса,300041,54.1902573,37.6075398
16,улица Ф.Энгельса,300041,54.1896466,37.6089081
16,улица Ф.Энгельса,300041,54.1898949,37.6071561
1,улица Демонстрации,300041,54.1925795,37.6099568
32,Пушкинская улица,300041,54.1912083,37.6040591
16,улица Ф.Энгельса,300041,54.1889458,37.6081105
1Б,улица Демонстрации,300041,54.1923821,37.6086890
14,улица Ф.Энгельса,300041,54.1905594,37.6095600
1А,улица Демонстрации,300041,54.1922749,37.6115734
14,улица Ф.Энгельса,300041,54.1911015,37.6104661
16,улица Ф.Энгельса,300041,54.1897144,37.6070333
11,улица Свободы,300041,54.1894017,37.6067267
16,улица Ф.Энгельса,300041,54.1901276,37.6084148
2А,улица Металлургов,300016,54.1790618,37.7085892
2Б,улица Металлургов,300016,54.1784591,37.7095929
5,Фабричная улица,300027,54.1864221,37.6976631
7,Фабричная улица,300027,54.1867153,37.6971602
9,Фабричная улица,300027,54.1870247,37.6968524
12,улица Доватора,300016,54.1795817,37.7088569
14,улица Доватора,300016,54.1800734,37.7096951
2В,улица Металлургов,300016,54.1791294,37.7097083
10,Театральный переулок,300016,54.1787216,37.7111042
154,улица Кутузова,300016,54.1799782,37.7104457
156,улица Кутузова,300016,54.1795112,37.7103688
158,улица Кутузова,300016,54.1792447,37.7109842
8,Театральный переулок,300016,54.1783616,37.7104767
24 к3,улица Калинина,300040,54.2009550,37.6607090
26 к1,улица Калинина,300040,54.2020986,37.6586573
26 к2,улица Калинина,300040,54.2017211,37.6605151
20/6,улица Металлургов,300016,54.1831274,37.7018604
21/4,улица Металлургов,300016,54.1826086,37.7010003
152,улица Кутузова,300016,54.1806792,37.7098321
9,улица Доватора,300016,54.1804085,37.7095011
11/8,улица Металлургов,300016,54.1813908,37.7032316
6,улица Гайдара,300016,54.1811388,37.7025441
24,улица Революции,300034,54.1929682,37.5872966
19,Приупская улица,300016,54.1846790,37.6925426
21,Приупская улица,300016,54.1838381,37.6939536
21А,Приупская улица,300016,54.1841028,37.6941839
3А,улица Чаплыгина,300016,54.1844755,37.6948253
6А,улица Волкова,300027,54.1850450,37.6938425
37 к3,улица Свободы,300041,54.1857813,37.6041046
37 к1,улица Свободы,300041,54.1861901,37.6031264
59,улица Свободы,300041,54.1836697,37.6005196
18А,Первомайская улица,300034,54.1840892,37.5994267
16,Первомайская улица,300034,54.1834949,37.5993584
91,улица Льва Толстого,300041,54.1844725,37.6034389
38А,улица Свободы,300041,54.1870533,37.6019189
51,улица Свободы,300041,54.1846395,37.6014448
54,улица Ф.Энгельса,300041,54.1830947,37.6019535
14А,Первомайская улица,300034,54.1834468,37.6010661
60,улица Свободы,300041,54.1838810,37.5999932
59,улица Бундурина,300034,54.1844464,37.5982551
37 к2,улица Свободы,300041,54.1860066,37.6034171
18,Первомайская улица,300034,54.1838347,37.5984101
74,Гоголевская улица,300041,54.1878289,37.6039528
31,улица Бундурина,300041,54.1872712,37.6012669
10А,Мартеновская улица,300016,54.1817509,37.7076819
2,улица Макара Мазая,300016,54.1795939,37.7050679
2,улица Металлургов,300016,54.1797348,37.7082776
1,улица Макара Мазая,300016,54.1785727,37.7048687
11,улица Макара Мазая,300016,54.1801830,37.7018628
3,улица Макара Мазая,300016,54.1788369,37.7042163
5,улица Макара Мазая,300016,54.1791834,37.7036291
7,улица Макара Мазая,300016,54.1795130,37.7030407
9,улица Макара Мазая,300016,54.1798469,37.7024569
132,улица Льва Толстого,300034,54.1893425,37.5937343
57,Пушкинская улица,300035,54.1906500,37.5985022
49,улица Софьи Перовской,300035,54.1853026,37.5958992
69,Гоголевская улица,300035,54.1885908,37.6004352
7,улица Демонстрации,300034,54.1907403,37.5947084
10,улица Халтурина,300034,54.1895391,37.5952198
34,улица Софьи Перовской,300035,54.1866597,37.5953981
71,Гоголевская улица,300035,54.1892144,37.5987276
69Б,Гоголевская улица,300035,54.1882230,37.5993636
111,улица Льва Толстого,300034,54.1867177,37.5985079
24,улица Софьи Перовской,300035,54.1876599,37.5978238
19,улица Фрунзе,300034,54.1895834,37.5926265
12,улица Халтурина,300034,54.1890067,37.5946056
23,улица Фрунзе,300034,54.1881688,37.5938802
24,Первомайская улица,300034,54.1848756,37.5958165
32,улица Софьи Перовской,300035,54.1869401,37.5957365
22,улица Софьи Перовской,300022,54.1884429,37.5987018
76,Гоголевская улица,300035,54.1882766,37.6036441
21,улица Фрунзе,300034,54.1886328,37.5928090
128,улица Льва Толстого,300041,54.1878216,37.5967130
60,улица Бундурина,300034,54.1854297,37.5977836
76,Гоголевская улица,300035,54.1880259,37.6030602
49,улица Каминского,300041,54.1913488,37.6059106
115,улица Льва Толстого,300035,54.1873657,37.5961843
81,Гоголевская улица,300035,54.1886366,37.5979698
17,улица Фрунзе,300034,54.1901713,37.5924574
62,улица Бундурина,300034,54.1850336,37.5981245
25,улица Бундурина,300034,54.1888718,37.6028970
25,улица Фрунзе,300034,54.1879708,37.5930595
11,улица Демонстрации,300034,54.1906377,37.5932545
39,улица Софьи Перовской,300034,54.1863206,37.5974561
28,Первомайская улица,300034,54.1857199,37.5937540
5,улица Демонстрации,300034,54.1911583,37.5955156
47А,улица Каминского,300041,54.1911599,37.6064032
26,улица Софьи Перовской,300035,54.1870691,37.5971790
34,улица Бундурина,300034,54.1879296,37.6009892
86А,Гоголевская улица,300034,54.1890324,37.6005570
27,улица Фрунзе,300034,54.1873365,37.5931097
9,улица Демонстрации,300034,54.1906904,37.5939890
8,улица Халтурина,300034,54.1900584,37.5958264
36,улица Бундурина,300034,54.1870496,37.6000806
34А,улица Бундурина,300034,54.1879795,37.5999902
6,улица Халтурина,300034,54.1905912,37.5964212
38,улица Бундурина,300034,54.1861610,37.5991341
29,улица Фрунзе,300034,54.1865057,37.5933817
132,улица Льва Толстого,300034,54.1892699,37.5933623
132,улица Льва Толстого,300034,54.1890449,37.5940836
94,Гоголевская улица,300035,54.1905330,37.5975484
30,Пушкинская улица,300041,54.1899674,37.6052861
26,Первомайская улица,300034,54.1854075,37.5945413
146,улица Льва Толстого,300035,54.1885817,37.5956983
40,улица Бундурина,300034,54.1855535,37.5985754
31А,улица Максима Горького,300044,54.2172854,37.6097841
33А,улица Максима Горького,300044,54.2167898,37.6095430
33,улица Максима Горького,300044,54.2160191,37.6090163
16,улица Революции,300034,54.1938044,37.5950190
5,улица Братьев Жабровых,300034,54.1939770,37.5942606
36,улица Демонстрации,300034,54.1921102,37.5930716
30,Красноармейский проспект,300041,54.1978709,37.5945379
27,Оружейная улица,300028,54.1653036,37.5792261
33 к2,улица 9 Мая,300028,54.1682671,37.5733640
18,улица Макаренко,300028,54.1685779,37.5713280
23,улица 9 Мая,300028,54.1674473,37.5763517
29 к2,улица 9 Мая,300028,54.1677758,37.5746449
25 к1,улица 9 Мая,300028,54.1676102,37.5759368
27 к1,улица 9 Мая,300028,54.1679111,37.5755367
9,улица 9 Мая,300025,54.1656209,37.5814404
7,улица 9 Мая,300025,54.1652289,37.5815830
16,улица Смидович,300025,54.1643321,37.5818749
25 к2,улица 9 Мая,300028,54.1671934,37.5754747
21,улица 9 Мая,300028,54.1673553,37.5769647
19,улица Седова,300028,54.1677902,37.5720501
16А,улица Смидович,300025,54.1645620,37.5812298
17,улица Седова,300028,54.1675070,37.5727144
11,улица Седова,300028,54.1668847,37.5744057
35,улица 9 Мая,300028,54.1687796,37.5731950
27 к2,улица 9 Мая,300028,54.1673644,37.5749230
25,Оружейная улица,300028,54.1658899,37.5798836
19А,улица 9 Мая,300028,54.1669837,37.5777093
13,улица Седова,300028,54.1671452,37.5737096
16,улица Макаренко,300028,54.1688488,37.5716635
13,улица 9 Мая,300025,54.1659374,37.5805721
9 к1,улица Седова,300028,54.1665417,37.5755667
13А,улица Седова,300028,54.1673838,37.5742253
27А,Оружейная улица,300028,54.1650685,37.5798318
14,улица Смидович,300025,54.1649166,37.5825114
11,улица 9 Мая,300025,54.1655208,37.5807597
100,проспект Ленина,300025,54.1626369,37.5860327
3,улица Макаренко,300028,54.1684432,37.5720558
5,улица 9 Мая,300025,54.1653134,37.5822874
40,Оружейная улица,300028,54.1659229,37.5789427
15,улица Седова,300028,54.1675328,37.5734627
29 к1,улица 9 Мая,300028,54.1681503,37.5748358
22,улица Мира,300028,54.1730295,37.5811341
33 к1,улица 9 Мая,300028,54.1685294,37.5738585
17А,улица Седова,300028,54.1678826,37.5729406
98,проспект Ленина,300025,54.1632982,37.5861902
42/1,Оружейная улица,300028,54.1654785,37.5784484
9,улица Седова,300028,54.1670020,37.5760824
5,улица Седова,300028,54.1658724,37.5773687
38,Оружейная улица,300028,54.1663428,37.5793886
5А,улица Седова,300028,54.1663780,37.5775983
17,улица 9 Мая,300028,54.1665530,37.5788752
3,улица Седова,300028,54.1656787,37.5779099
19,улица 9 Мая,300028,54.1667555,37.5783285
33,Оружейная улица,300028,54.1634926,37.5772697
31,Оружейная улица,300028,54.1639421,37.5781692
29,Оружейная улица,300028,54.1646090,37.5784826
31А,Оружейная улица,300028,54.1637158,37.5787732
20А,улица Смидович,300025,54.1634166,37.5795759
18А,улица Смидович,300025,54.1638364,37.5804849
29А,Оружейная улица,300028,54.1643891,37.5791138
18,улица Смидович,300025,54.1636652,37.5811557
2,улица Седова,300028,54.1643146,37.5800590
38,улица Тихмянова,300036,54.1966405,37.5424399
40,улица Тихмянова,300036,54.1958689,37.5433053
15,улица Дмитрия Ульянова,300034,54.1938749,37.5849768
21,Демешковская улица,300903,54.1213611,37.5523053
14,Демешковская улица,300903,54.1210329,37.5507473
6,Демешковская улица,300903,54.1211802,37.5493994
26,Демешковская улица,300903,54.1208014,37.5528657
19,Демешковская улица,300903,54.1213997,37.5519518
4,Демешковская улица,300903,54.1212153,37.5490781
24,Демешковская улица,300903,54.1208407,37.5525059
1,Демешковская улица,300903,54.1217290,37.5489378
30,Демешковская улица,300903,54.1207246,37.5535675
8,Демешковская улица,300903,54.1216517,37.5524099
36,Демешковская улица,300903,54.1206134,37.5545878
5,Демешковская улица,300903,54.1216613,37.5495578
7,Демешковская улица,300903,54.1216904,37.5520565
25,Демешковская улица,300903,54.1212844,37.5530064
10,Демешковская улица,300903,54.1211108,37.5500344
23,Демешковская улица,300903,54.1213236,37.5526480
8,Демешковская улица,300903,54.1211449,37.5497220
28,Демешковская улица,300903,54.1207638,37.5532087
29,Демешковская улица,300903,54.1212045,37.5537398
34,Демешковская улица,300903,54.1206490,37.5542594
3,Демешковская улица,300903,54.1216974,37.5492272
32,Демешковская улица,300903,54.1206850,37.5539310
11,Демешковская улица,300903,54.1215365,37.5534636
9,Демешковская улица,300903,54.1215935,37.5501780
7,Демешковская улица,300903,54.1216259,37.5498817
27,Демешковская улица,300903,54.1212459,37.5533590
31,Демешковская улица,300903,54.1211629,37.5540527
6,Демешковская улица,300903,54.1217278,37.5517141
2,Демешковская улица,300903,54.1209531,37.5488366
11,Демешковская улица,300903,54.1215541,37.5505390
5,Демешковская улица,300903,54.1217671,37.5513548
13,Демешковская улица,300903,54.1215160,37.5508873
10,Демешковская улица,300903,54.1215751,37.5531110
18,Демешковская улица,300903,54.1209571,37.5514412
16,Демешковская улица,300903,54.1209938,37.5511052
35,Демешковская улица,300903,54.1210824,37.5547354
33,Демешковская улица,300903,54.1211183,37.5544335
9,Демешковская улица,300903,54.1216143,37.5527526
17,Демешковская улица,300903,54.1214371,37.5516095
22,Демешковская улица,300903,54.1208802,37.5521442
15,Демешковская улица,300903,54.1214764,37.5512500
20,Демешковская улица,300903,54.1209180,37.5517984
12,Демешковская улица,300903,54.1210716,37.5503925
4,Демешковская улица,300903,54.1218066,37.5509908
12,Октябрьская улица,300903,54.1197076,37.5531296
7,Октябрьская улица,300903,54.1204045,37.5510072
8,Октябрьская улица,300903,54.1199578,37.5508337
6,Октябрьская улица,300903,54.1200448,37.5498252
10,Октябрьская улица,300903,54.1197982,37.5523056
9,Октябрьская улица,300903,54.1203122,37.5518158
13,Октябрьская улица,300903,54.1201209,37.5536535
11,Октябрьская улица,300903,54.1202256,37.5526842
5,Октябрьская улица,300903,54.1204976,37.5501489
3,Октябрьская улица,300903,54.1206663,37.5490029
19,улица Пушкина,300903,54.1194778,37.5535299
14,Октябрьская улица,300903,54.1198929,37.5552787
17,улица Пушкина,300903,54.1192233,37.5525342
4,Октябрьская улица,300903,54.1200939,37.5488306
3,Рязанская улица,300026,54.1559634,37.5962692
22,Арсенальная улица,300044,54.2133995,37.6018991
31,Литейная улица,300044,54.2131027,37.6004983
27,Литейная улица,300044,54.2122012,37.6016267
29,Литейная улица,300044,54.2125979,37.6011244
2Д,Гарнизонный проезд,300901,54.2463362,37.6114280
12,улица Металлургов,300016,54.1821656,37.7034333
13/5,улица Металлургов,300016,54.1816768,37.7025937
23,улица Макара Мазая,300016,54.1837300,37.6971343
24,Приупская улица,300016,54.1828677,37.6956643
14,улица Металлургов,300016,54.1823028,37.7029151
15,улица Металлургов,300016,54.1819795,37.7023581
16,улица Металлургов,300016,54.1825999,37.7025837
17,улица Металлургов,300016,54.1821749,37.7018519
18,улица Металлургов,300016,54.1827985,37.7020799
19,улица Металлургов,300016,54.1824706,37.7015151
6,улица Немцова,300004,54.2082663,37.6623017
7,улица Немцова,300004,54.2080723,37.6635795
9,улица Немцова,300004,54.2077155,37.6640888
186,улица Кирова,300004,54.2106523,37.6656954
3,улица Немцова,300004,54.2091950,37.6623566
8,улица Макара Мазая,300016,54.1813970,37.7018697
36,улица Металлургов,300027,54.1886718,37.6933692
38,улица Металлургов,300027,54.1890122,37.6929107
42,улица Металлургов,300027,54.1894924,37.6922665
44,улица Металлургов,300027,54.1898123,37.6918004
46,улица Металлургов,300027,54.1897542,37.6908395
48,улица Металлургов,300027,54.1902762,37.6911245
11,улица Волкова,300027,54.1875841,37.6962630
83,улица Металлургов,300031,54.1950296,37.6676203
79,улица Металлургов,300031,54.1955687,37.6695850
201А,улица Плеханова,300040,54.1966285,37.6552679
8,улица Братьев Жабровых,300034,54.1949717,37.5972146
3,улица Клары Цеткин,300041,54.1958139,37.5967574
10,улица Братьев Жабровых,300041,54.1950259,37.5948621
5 к1,улица Клары Цеткин,300034,54.1957991,37.5938441
3 к2,улица Клары Цеткин,300041,54.1958682,37.5946749
3 к3,улица Клары Цеткин,300041,54.1955716,37.5944301
6,улица Лейтейзена,300041,54.1957526,37.5999639
8,улица Лейтейзена,300041,54.1944504,37.6002639
12,улица Революции,300034,54.1941930,37.5996792
4,Красноармейский проспект,300041,54.1965979,37.6093211
36А,улица Металлургов,300027,54.1889171,37.6941250
114,улица Кутузова,300027,54.1899903,37.6976046
114А,улица Кутузова,300027,54.1896928,37.6969598
116,улица Кутузова,300027,54.1895381,37.6978541
33,набережная Дрейера,300044,54.2061742,37.6017899
23,Мартеновская улица,300016,54.1825479,37.7040810
135,улица Кирова,300004,54.2069956,37.6547638
108,улица Кутузова,300027,54.1918208,37.6950456
108А,улица Кутузова,300027,54.1914266,37.6942134
110,улица Кутузова,300027,54.1912280,37.6958592
110А,улица Кутузова,300027,54.1908409,37.6950354
9,улица Металлургов,300016,54.1810083,37.7039906
103А,улица Карпова,300022,54.2419490,37.6220364
37,улица Бондаренко,300010,54.2158121,37.6937678
35,улица Бондаренко,300010,54.2147672,37.6929835
31,улица Бондаренко,300010,54.2134360,37.6887598
10,улица Бондаренко,300010,54.2153434,37.6886010
17,улица Революции,300041,54.1940422,37.6098301
99,Октябрьская улица,300062,54.2193225,37.6265219
4,Литейная улица,300002,54.2075192,37.6209428
13,улица Галкина,300002,54.2088205,37.6247362
14/16,Советская улица,300041,54.1935269,37.6118888
17,Советская улица,300041,54.1960629,37.6124472
10,улица Галкина,300002,54.2065472,37.6217421
1Б,улица Максима Горького,300062,54.2119955,37.6295028
23,улица Максимовского,300062,54.2179275,37.6313536
38 к1,Октябрьская улица,300002,54.2100235,37.6202928
43,Октябрьская улица,300002,54.2109982,37.6218509
97,Октябрьская улица,300062,54.2190381,37.6261247
99,Октябрьская улица,300062,54.2196872,37.6269403
1,улица Максима Горького,300062,54.2130114,37.6245765
13,Октябрьская улица,300002,54.2068761,37.6199828
9,улица Максимовского,300062,54.2145496,37.6317865
17 к5,улица Луначарского,300002,54.2064177,37.6181577
15,улица Максимовского,300062,54.2164474,37.6314280
25,улица Галкина,300062,54.2129774,37.6266027
11,улица Максимовского,300062,54.2155538,37.6309671
10,Октябрьская улица,300002,54.2057193,37.6183304
21,улица Максимовского,300062,54.2174663,37.6316972
5,Октябрьская улица,300002,54.2050827,37.6190551
9,улица Луначарского,300002,54.2058678,37.6202535
19,улица Максимовского,300062,54.2169895,37.6320015
11,Советская улица,300041,54.1986053,37.6119549
2,улица Металлистов,300041,54.1969890,37.6178619
17 к4,улица Луначарского,300002,54.2066231,37.6177308
7,улица Максимовского,300062,54.2148016,37.6300899
25,Октябрьская улица,300002,54.2087720,37.6208154
2Г,улица Демонстрации,300041,54.1931904,37.6115341
11,улица Галкина,300002,54.2087001,37.6239617
9,Октябрьская улица,300002,54.2060268,37.6194839
25,улица Максимовского,300062,54.2186514,37.6316010
209,Октябрьская улица,300020,54.2298559,37.6274423
211,Октябрьская улица,300020,54.2302753,37.6271256
205,Октябрьская улица,300062,54.2288282,37.6282022
205А,Октябрьская улица,300020,54.2290141,37.6288548
10,улица Гагарина,300020,54.2306552,37.6287024
4,улица Гагарина,300020,54.2293954,37.6302321
2,улица Гагарина,300020,54.2287053,37.6307139
12,улица Гагарина,300020,54.2306283,37.6276693
207,Октябрьская улица,300020,54.2294397,37.6277577
203,Октябрьская улица,300062,54.2280818,37.6287416
201,Октябрьская улица,300062,54.2267597,37.6294843
4А,улица Гагарина,300020,54.2291684,37.6294678
161,улица Кирова,300004,54.2126714,37.6648433
39,улица Кутузова,300004,54.2070155,37.6747564
41,улица Кутузова,300004,54.2063761,37.6756521
43,улица Кутузова,300004,54.2057519,37.6765556
7,улица Братьев Жабровых,300034,54.1937544,37.5891073
20,улица Революции,300034,54.1932208,37.5901568
149,проспект Ленина,300026,54.1482182,37.5837933
139А,проспект Ленина,300026,54.1511045,37.5887558
7,Калужское шоссе,300026,54.1558498,37.5780015
112Б,проспект Ленина,300025,54.1545962,37.5817902
112,проспект Ленина,300025,54.1553950,37.5841098
1,Калужское шоссе,300026,54.1557740,37.5821331
143А,проспект Ленина,300026,54.1503072,37.5855891
129,проспект Ленина,300026,54.1548429,37.5855993
116,проспект Ленина,300026,54.1536670,37.5828926
7,улица Вознесенского,300026,54.1541844,37.5905325
143,проспект Ленина,300026,54.1500518,37.5847266
180,улица Марата,300004,54.2133310,37.6636885
12,улица Фрунзе,300034,54.1937352,37.5904033
4,улица Кутузова,300004,54.2131821,37.6646190
147 к3,проспект Ленина,300026,54.1492827,37.5868464
147 к4,проспект Ленина,300026,54.1499184,37.5875274
143В,проспект Ленина,300026,54.1505461,37.5870751
147 к5,проспект Ленина,300026,54.1502563,37.5880345
147 к2,проспект Ленина,300026,54.1488937,37.5863104
139,проспект Ленина,300026,54.1512415,37.5863127
147 к1,проспект Ленина,300026,54.1484835,37.5849933
8,улица Фрунзе,300034,54.1953888,37.5900034
143Б,проспект Ленина,300026,54.1504164,37.5863167
149А,проспект Ленина,300026,54.1480734,37.5847761
10,улица Фрунзе,300034,54.1947631,37.5902758
8,улица Фрунзе,300041,54.1954741,37.5900931
133Б,проспект Ленина,300026,54.1534010,37.5883039
34,Красноармейский проспект,300041,54.1982910,37.5916656
3,Майская улица,300010,54.2121802,37.6941633
1,Майская улица,300010,54.2116922,37.6940164
32,Красноармейский проспект,300041,54.1979726,37.5932745
31,улица Коминтерна,300041,54.2006214,37.5941989
13,Мартеновская улица,300016,54.1812600,37.7055867
15,Мартеновская улица,300016,54.1815677,37.7050698
10,улица Металлургов,300016,54.1817382,37.7040065
114Б,улица Льва Толстого,300041,54.1833932,37.6082342
54А,Гоголевская улица,300041,54.1852467,37.6109204
59,проспект Ленина,300012,54.1831704,37.6073821
47,Гоголевская улица,300000,54.1860880,37.6073821
61,проспект Ленина,300012,54.1828104,37.6067477
3,улица Аносова,300016,54.1827378,37.6968516
5,улица Аносова,300016,54.1830579,37.6973869
23,Приупская улица,300016,54.1832199,37.6951126
25,Приупская улица,300016,54.1825104,37.6962436
25,улица Макара Мазая,300016,54.1840995,37.6966417
7,улица Аносова,300016,54.1834025,37.6977630
10,улица Чаплыгина,300016,54.1844351,37.6969529
33,улица Металлургов,300016,54.1847226,37.6975912
18,улица Макара Мазая,300016,54.1836091,37.6983432
12,улица Макара Мазая,300016,54.1825322,37.7001308
23,улица Металлургов,300016,54.1829075,37.7006107
16,улица Макара Мазая,300016,54.1833554,37.6987544
14,улица Макара Мазая,300016,54.1828653,37.6993116
20,улица Макара Мазая,300016,54.1839459,37.6975064
25,улица Металлургов,300016,54.1833190,37.7000410
31,улица Металлургов,300016,54.1843701,37.6982931
27,улица Металлургов,300016,54.1836382,37.6994797
29,улица Металлургов,300016,54.1840097,37.6988581
72А,улица Металлургов,300027,54.1941239,37.6900845
20А,улица Кутузова,300004,54.2081627,37.6711017
16А,улица Кутузова,300004,54.2086588,37.6700779
28,улица Шухова,300004,54.2089643,37.6696800
20Б,улица Кутузова,300004,54.2076597,37.6718092
16,улица Кутузова,300004,54.2090592,37.6706171
24 к3,улица Шухова,300004,54.2075405,37.6701074
18,улица Кутузова,300004,54.2086147,37.6712121
22,улица Кутузова,300004,54.2076712,37.6726811
20,улица Кутузова,300004,54.2081733,37.6719526
10А,улица Калинина,300040,54.1964768,37.6535221
108Б,улица Кутузова,300027,54.1913014,37.6932808
108В,улица Кутузова,300027,54.1908216,37.6939292
44А,улица Металлургов,300027,54.1903733,37.6929989
48А,улица Металлургов,300027,54.1908528,37.6923355
22,улица Шухова,300004,54.2074909,37.6673838
104,улица Кутузова,300027,54.1927808,37.6929032
104А,улица Кутузова,300027,54.1922599,37.6925675
106,улица Кутузова,300027,54.1927948,37.6936992
106А,улица Кутузова,300027,54.1923434,37.6935131
52,улица Металлургов,300027,54.1914164,37.6915827
52А,улица Металлургов,300027,54.1919697,37.6920049
54,улица Металлургов,300027,54.1914201,37.6907694
56,улица Металлургов,300027,54.1918559,37.6909596
3,Мартеновская улица,300016,54.1802444,37.7073899
5,Мартеновская улица,300016,54.1805485,37.7068611
25,Мартеновская улица,300016,54.1828521,37.7038431
27,Мартеновская улица,300016,54.1833488,37.7030089
26А,улица Металлургов,300027,54.1863105,37.6962932
28,улица Металлургов,300027,54.1866942,37.6956423
47Б,улица Металлургов,300027,54.1918115,37.6865061
29,Приупская улица,300016,54.1803882,37.6998964
30,Приупская улица,300016,54.1797996,37.7008113
22,Мартеновская улица,300016,54.1829304,37.7047278
24,Мартеновская улица,300016,54.1830805,37.7042005
1,улица Жаворонкова,300012,54.1774171,37.6025312
2,улица Мориса Тореза,300012,54.1824802,37.6079688
20,улица Мориса Тореза,300012,54.1776857,37.6032083
4,улица Мориса Тореза,300012,54.1823512,37.6070860
11Б,улица Мориса Тореза,300012,54.1768107,37.6033374
102А,улица Кутузова,300027,54.1933610,37.6927444
80А,улица Металлургов,300027,54.1940901,37.6864935
82А,улица Металлургов,300027,54.1944051,37.6860384
82Б,улица Металлургов,300027,54.1947359,37.6855949
84А,улица Металлургов,300021,54.1953292,37.6842558
84Б,улица Металлургов,300021,54.1956830,37.6849584
88,улица Кутузова,300021,54.1969795,37.6870047
88А,улица Кутузова,300021,54.1963459,37.6863439
88Б,улица Кутузова,300021,54.1960112,37.6856585
90,улица Кутузова,300021,54.1968460,37.6880292
92,улица Кутузова,300021,54.1962303,37.6880290
98,улица Кутузова,300027,54.1950467,37.6905431
5,Менделеевская улица,300000,54.1916006,37.6232119
4,2-й проезд Металлургов,300027,54.1898553,37.6853447
8,2-й проезд Металлургов,300027,54.1904039,37.6864656
45В,улица Металлургов,300027,54.1897196,37.6880666
45Б,улица Металлургов,300027,54.1901514,37.6884996
45Г,улица Металлургов,300027,54.1891280,37.6885458
43В,улица Металлургов,300027,54.1881659,37.6902614
45Д,улица Металлургов,300027,54.1887150,37.6883674
2,2-й проезд Металлургов,300027,54.1895730,37.6847746
45,улица Металлургов,300027,54.1893589,37.6895888
6,2-й проезд Металлургов,300027,54.1901346,37.6859136
43А,улица Металлургов,300027,54.1885764,37.6906874
10,2-й проезд Металлургов,300027,54.1907035,37.6870670
3,улица Металлургов,300016,54.1799278,37.7058942
5,улица Металлургов,300016,54.1801534,37.7049313
7,улица Металлургов,300016,54.1806433,37.7046264
60,Новомосковское шоссе,300045,54.1558017,37.6369156
26 к1,Рязанская улица,300012,54.1589585,37.6067633
34 к4,Рязанская улица,300012,54.1593923,37.6122905
28 к1,Рязанская улица,300012,54.1591646,37.6078316
34 к2,Рязанская улица,300012,54.1600169,37.6115074
30 к1,Рязанская улица,300012,54.1594549,37.6091201
24 к1,Рязанская улица,300012,54.1586684,37.6058187
32 к3,Рязанская улица,300012,54.1586383,37.6115681
28 к2,Рязанская улица,300012,54.1589126,37.6083953
1А,улица Металлургов,300016,54.1786380,37.7078591
1Б,улица Металлургов,300016,54.1780460,37.7088816
2,Театральный переулок,300016,54.1775624,37.7069669
2,улица Доватора,300016,54.1778490,37.7061281
4,Театральный переулок,300016,54.1773599,37.7079514
4,улица Доватора,300016,54.1781523,37.7064139
6,Театральный переулок,300016,54.1774877,37.7089587
6,улица Доватора,300016,54.1785759,37.7071215
4,улица Металлургов,300016,54.1800550,37.7067674
6,улица Металлургов,300016,54.1806408,37.7057314
8,улица Металлургов,300016,54.1811372,37.7048490
96 к2,улица Тульского Рабочего Полка,300028,54.1750122,37.5813615
91,Серебровская улица,300013,54.1773067,37.5706085
86,улица Кутузова,300021,54.1977696,37.6867970
37,улица Максима Горького,300903,54.1135811,37.5309856
45,улица Максима Горького,300903,54.1125389,37.5273582
5,улица Дмитрия Ульянова,300041,54.1961038,37.5852801
7,улица Дмитрия Ульянова,300034,54.1956462,37.5853998
9,улица Дмитрия Ульянова,300034,54.1953852,37.5851211
11,улица Дмитрия Ульянова,300034,54.1950610,37.5852751
3,улица Дмитрия Ульянова,300034,54.1968389,37.5854005
13,улица Дмитрия Ульянова,300034,54.1946808,37.5850074
1А,улица Дмитрия Ульянова,300034,54.1974518,37.5855562
10А,улица Вересаева,300034,54.1942282,37.5873464
33,улица Бондаренко,300010,54.2155165,37.6921229
27,улица Матросова,300021,54.1982991,37.6829586
38,улица Гастелло,300021,54.1979158,37.6849169
49,улица Гастелло,300021,54.1965144,37.6842656
51,улица Гастелло,300021,54.1961924,37.6835531
63,улица Краснодонцев,300021,54.1989007,37.6834905
82,улица Кутузова,300021,54.1991948,37.6847658
82А,улица Кутузова,300021,54.1986467,37.6845806
82Б,улица Кутузова,300021,54.1982683,37.6838894
84,улица Кутузова,300021,54.1986031,37.6856248
2,Мартеновская улица,300016,54.1802440,37.7090557
4,Мартеновская улица,300016,54.1805069,37.7085647
140,улица Кутузова,300016,54.1824135,37.7079634
144,улица Кутузова,300016,54.1818179,37.7087882
146,улица Кутузова,300016,54.1815725,37.7092641
148,улица Кутузова,300016,54.1812841,37.7094750
6,Мартеновская улица,300016,54.1807125,37.7082203
8,Мартеновская улица,300016,54.1809372,37.7078363
1,Мартеновская улица,300016,54.1804379,37.7078996
7,Мартеновская улица,300016,54.1808588,37.7071949
11,Мартеновская улица,300016,54.1814746,37.7061295
17,Мартеновская улица,300016,54.1818970,37.7054128
21,Мартеновская улица,300016,54.1822904,37.7045539
9,Мартеновская улица,300016,54.1811713,37.7066655
15,улица Фрунзе,300034,54.1935595,37.5926560
2 к2,2-й проезд Металлургов,300027,54.1886901,37.6866355
2А,2-й проезд Металлургов,300027,54.1894123,37.6841342
45 к6,улица Металлургов,300027,54.1909444,37.6876424
49В,улица Металлургов,300027,54.1926840,37.6818377
8А,Приупская улица,300027,54.1923136,37.6768213
15А,улица Немцова,300004,54.2068534,37.6684743
19Б,улица Рихарда Зорге,300004,54.2064878,37.6703866
19А,улица Рихарда Зорге,300004,54.2068638,37.6714348
17,улица Немцова,300004,54.2060518,37.6677127
22А,улица Кутузова,300004,54.2071552,37.6724286
15 к2,улица Рихарда Зорге,300004,54.2057733,37.6696705
17А,улица Немцова,300004,54.2060405,37.6685170
20А,улица Шухова,300004,54.2069315,37.6676044
19,улица Рихарда Зорге,300004,54.2061768,37.6711409
19,улица Немцова,300004,54.2055526,37.6684064
15,улица Немцова,300004,54.2065605,37.6670605
20В,улица Кутузова,300004,54.2073507,37.6709381
10,улица Кутузова,300004,54.2095211,37.6688332
8,улица Кутузова,300004,54.2104803,37.6679354
188,улица Кирова,300004,54.2112200,37.6669301
12,улица Баженова,300004,54.2125482,37.6713869
21,улица Кутузова,300004,54.2114915,37.6704400
14,улица Баженова,300004,54.2120243,37.6721092
17А,улица Кутузова,300004,54.2115447,37.6693922
19,улица Кутузова,300004,54.2107092,37.6694290
23,улица Кутузова,300004,54.2101467,37.6702186
15,улица Кутузова,300004,54.2117392,37.6679326
19,улица Шухова,300004,54.2108101,37.6715830
12А,улица Баженова,300004,54.2121182,37.6705099
17,улица Кутузова,300004,54.2112043,37.6687212
21,улица Шухова,300004,54.2109708,37.6725515
17,улица Шухова,300004,54.2102752,37.6711514
16,улица Баженова,300004,54.2115008,37.6729006
10А,улица Кутузова,300004,54.2093379,37.6681699
33А,улица Кутузова,300004,54.2090165,37.6733711
8А,улица Кутузова,300004,54.2099001,37.6673724
31,улица Кутузова,300004,54.2088916,37.6720308
35,улица Кутузова,300004,54.2080021,37.6732921
31А,улица Кутузова,300004,54.2093339,37.6729154
33,улица Кутузова,300004,54.2084478,37.6726488
35А,улица Кутузова,300004,54.2085553,37.6739823
29А,улица Кутузова,300004,54.2095604,37.6722013
37,улица Кутузова,300004,54.2075842,37.6740949
8Б,улица Кутузова,300004,54.2094708,37.6664973
1,улица Генерала Горшкова,300903,54.1230274,37.5414704
122,проспект Ленина,300025,54.1522810,37.5833957
14,улица Максима Горького,300903,54.1201262,37.5463373
169,улица Кирова,300004,54.2151223,37.6701101
7А,улица Баженова,300004,54.2136359,37.6719737
194,улица Кирова,300004,54.2146141,37.6714769
196,улица Кирова,300004,54.2150217,37.6721812
194,улица Марата,300004,54.2160997,37.6687830
196,улица Марата,300004,54.2164687,37.6693914
198,улица Марата,300004,54.2168249,37.6700321
198,улица Кирова,300004,54.2155753,37.6728010
202А,улица Кирова,300004,54.2152593,37.6752867
202,улица Кирова,300004,54.2155800,37.6741502
202Б,улица Кирова,300004,54.2157678,37.6754018
198Б,улица Кирова,300004,54.2160128,37.6758550
11,улица Хворостухина,300010,54.2136160,37.6823296
11А,улица Хворостухина,300010,54.2140673,37.6840429
13,улица Хворостухина,300010,54.2146883,37.6835640
9,улица Фрунзе,300041,54.1956684,37.5920475
13,улица Фрунзе,300041,54.1944806,37.5923465
11,улица Фрунзе,300041,54.1950898,37.5921864
12,улица Братьев Жабровых,300041,54.1951895,37.5931325
21,улица Демонстрации,300034,54.1903150,37.5859572
30,Первомайская улица,300034,54.1865556,37.5919100
27,улица Демонстрации,300034,54.1901714,37.5845486
17,улица Демонстрации,300034,54.1906112,37.5895926
48,Первомайская улица,300034,54.1882593,37.5872021
54А,Первомайская улица,300034,54.1892069,37.5853286
20,улица Вересаева,300034,54.1897374,37.5869841
34,Первомайская улица,300034,54.1874724,37.5905852
18,улица Вересаева,300034,54.1896018,37.5877800
16,улица Фрунзе,300034,54.1904053,37.5913467
15,улица Вересаева,300034,54.1891127,37.5882893
20,улица Фрунзе,300034,54.1885707,37.5917173
15,улица Демонстрации,300034,54.1904414,37.5905954
44,Первомайская улица,300034,54.1876613,37.5884772
36,Первомайская улица,300034,54.1870723,37.5900439
38,Первомайская улица,300034,54.1877632,37.5897642
22,улица Вересаева,300034,54.1892559,37.5861287
42,Первомайская улица,300034,54.1880872,37.5889777
46,Первомайская улица,300034,54.1883726,37.5881440
40,Первомайская улица,300034,54.1873600,37.5892697
32,Первомайская улица,300034,54.1867844,37.5908429
9,улица Вересаева,300034,54.1901405,37.5891378
24,улица Фрунзе,300034,54.1873061,37.5920131
21,улица Демонстрации,300034,54.1900609,37.5857439
132,улица Льва Толстого,300034,54.1888611,37.5938031
52,Первомайская улица,300034,54.1888086,37.5852784
50,Первомайская улица,300034,54.1884783,37.5861797
22,улица Фрунзе,300034,54.1879173,37.5918406
53А,Советская улица,300041,54.1913624,37.6195394
7А,Тургеневская улица,300041,54.1918254,37.6199771
9,Менделеевская улица,300000,54.1924312,37.6217596
2,Менделеевская улица,300000,54.1921880,37.6232857
67/5,проспект Ленина,300012,54.1806847,37.6049144
81,проспект Ленина,300012,54.1787419,37.6025336
14Б,улица Мориса Тореза,300012,54.1792092,37.6035491
16,улица Мориса Тореза,300012,54.1783984,37.6040038
12,улица Мориса Тореза,300012,54.1796008,37.6052940
3,Первомайская улица,300012,54.1805089,37.6057243
1,Первомайская улица,300012,54.1803674,37.6061179
3А,Первомайская улица,300012,54.1802697,37.6050511
14,улица Мориса Тореза,300012,54.1791192,37.6047763
79А,проспект Ленина,300012,54.1793064,37.6039548
14А,улица Мориса Тореза,300012,54.1792760,37.6042990
14В,улица Мориса Тореза,300012,54.1787354,37.6042952
14Б,улица Мориса Тореза,300012,54.1790544,37.6036742
18,улица Мориса Тореза,300012,54.1781216,37.6036122
79,проспект Ленина,300012,54.1792203,37.6031632
141 к2,улица Ф.Энгельса,300012,54.1782741,37.5979183
10,улица Мориса Тореза,300012,54.1799898,37.6056619
6,улица Революции,300041,54.1943976,37.6082259
4,улица Демонстрации,300041,54.1931503,37.6099612
6,улица Фрунзе,300034,54.1964579,37.5890268
13,Красноармейский проспект,300041,54.1967239,37.6000614
15,Красноармейский проспект,300041,54.1967092,37.5986685
9,улица Лейтейзена,300041,54.1925607,37.6032539
5,улица Вересаева,300041,54.1944793,37.5888634
1/1,площадь Александра Невского,300034,54.1908357,37.6005150
12А,улица Демонстрации,300041,54.1931924,37.6035982
1,площадь Александра Невского,300034,54.1907140,37.6000345
12,улица Демонстрации,300041,54.1936123,37.6038098
7,улица Лейтейзена,300041,54.1935659,37.6028962
7,улица Лейтейзена,300041,54.1930830,37.6026971
1Б,улица Вересаева,300041,54.1965840,37.5885488
21,Красноармейский проспект,300034,54.1972907,37.5916322
23,Красноармейский проспект,300034,54.1975939,37.5895062
130,Ложевая улица,300040,54.1988981,37.6519678
29,улица Степанова,300001,54.2004224,37.6400137
27,улица Степанова,300001,54.1990646,37.6388281
34,улица Чапаева,300001,54.1994793,37.6386688
29А,улица Степанова,300001,54.2008285,37.6401814
22,Пролетарская улица,300001,54.1990959,37.6378583
12,Приупская улица,300027,54.1904616,37.6816656
1А,2-й проезд Металлургов,300027,54.1899860,37.6828187
3,2-й проезд Металлургов,300027,54.1907706,37.6824065
3Б,2-й проезд Металлургов,300027,54.1903777,37.6836021
13,2-й проезд Металлургов,300027,54.1916655,37.6846470
47,улица Металлургов,300027,54.1920810,37.6855501
5,2-й проезд Металлургов,300027,54.1910467,37.6831939
5А,2-й проезд Металлургов,300027,54.1909900,37.6848569
5Б,2-й проезд Металлургов,300027,54.1906678,37.6842500
9,2-й проезд Металлургов,300027,54.1913507,37.6838843
9А,2-й проезд Металлургов,300027,54.1913356,37.6855253
27,улица Николая Руднева,300012,54.1672186,37.5976219
57Б,улица Николая Руднева,300026,54.1610506,37.5924319
40 к2,улица Мезенцева,300026,54.1601194,37.5918985
24,улица Мезенцева,300012,54.1629851,37.5958377
64Б,улица Николая Руднева,300026,54.1611860,37.5889911
1А,улица Академика Павлова,300026,54.1618576,37.5937943
36А,улица Мезенцева,300026,54.1606742,37.5920172
111А,проспект Ленина,300026,54.1641388,37.5886534
53,улица Николая Руднева,300026,54.1623748,37.5924393
38,улица Мезенцева,300026,54.1598586,37.5925731
26,улица Мезенцева,300012,54.1627177,37.5955399
54Б,улица Николая Руднева,300026,54.1644207,37.5929421
1Б,улица Академика Павлова,300026,54.1621226,37.5931155
56В,улица Николая Руднева,300026,54.1632688,37.5897687
55,улица Николая Руднева,300026,54.1618701,37.5918908
30,улица Мезенцева,300012,54.1621729,37.5949579
111Б,проспект Ленина,300026,54.1637343,37.5885387
57,улица Николая Руднева,300026,54.1614117,37.5917137
49,улица Николая Руднева,300012,54.1637963,37.5939942
1Д,улица Академика Павлова,300026,54.1636146,37.5879967
40,улица Мезенцева,300026,54.1592097,37.5918623
59,улица Николая Руднева,300026,54.1611349,37.5910802
40А,улица Мезенцева,300026,54.1594723,37.5911907
115Б,проспект Ленина,300026,54.1614151,37.5878566
54А,улица Николая Руднева,300026,54.1640721,37.5925618
2А,улица Академика Павлова,300026,54.1615683,37.5929999
61А,улица Николая Руднева,300026,54.1603729,37.5911964
63А,улица Николая Руднева,300026,54.1597303,37.5904912
64А,улица Николая Руднева,300026,54.1613010,37.5896560
32,улица Мезенцева,300026,54.1616071,37.5944930
20,улица Станиславского,300012,54.1637757,37.5957564
16,улица Станиславского,300012,54.1642506,37.5945136
18,улица Станиславского,300012,54.1640110,37.5951197
17А,Городской переулок,300012,54.1593438,37.6034247
15А,Городской переулок,300012,54.1603614,37.6012946
15Б,Городской переулок,300012,54.1617232,37.5997275
36,улица Академика Павлова,300026,54.1589037,37.6002751
40,улица Пархоменко,300012,54.1624446,37.5982565
45,улица Пархоменко,300012,54.1617011,37.5985292
17,Городской переулок,300012,54.1595062,37.6034777
34А,улица Академика Павлова,300026,54.1588243,37.5985168
17,Городской переулок,300012,54.1601196,37.6019634
17,Городской переулок,300012,54.1596556,37.6027711
18,Арсенальная улица,300044,54.2125722,37.6037549
20,Арсенальная улица,300044,54.2131705,37.6035065
31,улица Максима Горького,300044,54.2159905,37.6101705
23,улица Максима Горького,300057,54.2168423,37.6149288
29,улица Максима Горького,300044,54.2161607,37.6115194
19,улица Максима Горького,300057,54.2157173,37.6136177
10,улица Пузакова,300057,54.2171257,37.6191328
40,улица Пузакова,300057,54.2189517,37.6121944
32,улица Пузакова,300057,54.2179475,37.6134093
42,улица Пузакова,300057,54.2189115,37.6110800
12,улица Пузакова,300057,54.2174137,37.6171117
25,улица Максима Горького,300057,54.2170221,37.6136664
13,улица Максима Горького,300062,54.2149804,37.6162884
22,улица Пузакова,300057,54.2174498,37.6145130
30,улица Пузакова,300057,54.2183706,37.6125048
34,улица Пузакова,300057,54.2182399,37.6113654
32,Литейная улица,300044,54.2106214,37.6021774
45,Штыковая улица,300002,54.2095235,37.6071431
20,улица Максима Горького,300044,54.2152416,37.6033583
3,Арсенальная улица,300044,54.2143809,37.6017019
56,улица Мира,300012,54.1704536,37.5878198
86,проспект Ленина,300012,54.1701483,37.5914011
88,проспект Ленина,300012,54.1690348,37.5894208
66,улица Николая Руднева,300026,54.1602431,37.5890218
117А,проспект Ленина,300026,54.1606898,37.5873829
66А,улица Николая Руднева,300026,54.1604371,37.5884609
25,улица Баженова,300004,54.2102505,37.6763837
182,улица Марата,300004,54.2143436,37.6654279
10,Приупская улица,300027,54.1912391,37.6798928
11,Приупская улица,300027,54.1917073,37.6803532
49А,улица Металлургов,300027,54.1922979,37.6832356
49Б,улица Металлургов,300027,54.1931881,37.6823301
51А,улица Металлургов,300027,54.1938928,37.6836621
8,Приупская улица,300027,54.1917717,37.6778694
9,Приупская улица,300027,54.1923116,37.6783291
11А,Приупская улица,300027,54.1920676,37.6812426
3 к1,улица Кутузова,300004,54.2132917,37.6658575
2,улица Баженова,300004,54.2153014,37.6673691
190,улица Марата,300004,54.2154541,37.6666283
184Б,улица Марата,300004,54.2140157,37.6660512
1,улица Лейтейзена,300041,54.1992898,37.6027845
132,улица Плеханова,300001,54.1976906,37.6490173
14 к2,улица Кирова,300001,54.1971446,37.6485364
12 к2,улица Кирова,300001,54.1963885,37.6479302
125,Епифанская улица,300001,54.1957961,37.6473857
16,улица Кирова,300001,54.1981227,37.6480363
14,улица Кирова,300001,54.1974573,37.6475269
12,улица Кирова,300001,54.1968434,37.6469762
10,улица Кирова,300001,54.1962205,37.6463297
132 к2,улица Плеханова,300001,54.1974515,37.6504956
134,улица Плеханова,300040,54.1971014,37.6517634
3,улица Калинина,300040,54.1946593,37.6504109
5 к1,улица Калинина,300040,54.1951941,37.6511927
5 к2,улица Калинина,300040,54.1953670,37.6506125
140,улица Чапаева,300040,54.1957319,37.6501411
127,Епифанская улица,300040,54.1954474,37.6489522
127А,Епифанская улица,300040,54.1952147,37.6494406
33,Епифанская улица,300001,54.1973269,37.6432882
36,улица Чапаева,300001,54.1988329,37.6406628
38,улица Чапаева,300001,54.1984272,37.6408066
31,Епифанская улица,300001,54.1976289,37.6412460
29,Епифанская улица,300001,54.1985318,37.6396576
122,Ложевая улица,300001,54.2018266,37.6425416
125А,Ложевая улица,300001,54.2030899,37.6435946
28,Гармонная улица,300001,54.2025881,37.6446336
31,улица Марата,300001,54.2022628,37.6454659
125,Ложевая улица,300001,54.2020194,37.6442047
25,улица Кирова,300001,54.2013705,37.6480028
19А,улица Кирова,300001,54.1984601,37.6454231
19,улица Кирова,300001,54.1984473,37.6457130
24,улица Марата,300001,54.1987846,37.6443924
21,улица Кирова,300001,54.1996539,37.6464001
26,улица Марата,300001,54.1999331,37.6456811
23,улица Кирова,300001,54.1999534,37.6473758
79,улица Калинина,300040,54.2003486,37.6556918
79А,улица Калинина,300040,54.2007593,37.6551139
79Б,улица Калинина,300040,54.2011037,37.6544619
143,улица Плеханова,300001,54.1985047,37.6502347
18,улица Кирова,300001,54.1989594,37.6486912
141 к2,улица Плеханова,300001,54.1984223,37.6492724
147,улица Плеханова,300040,54.1979194,37.6519888
145,улица Плеханова,300001,54.1982729,37.6511074
149,улица Плеханова,300040,54.1976041,37.6533036
147 к2,улица Плеханова,300040,54.1977896,37.6527033
151,улица Плеханова,300040,54.1973919,37.6539928
153,улица Плеханова,300040,54.1971406,37.6546584
157,улица Плеханова,300040,54.1964598,37.6568155
159,улица Плеханова,300040,54.1962416,37.6575256
136,улица Плеханова,300040,54.1958892,37.6548808
138,улица Плеханова,300040,54.1957185,37.6554576
140,улица Плеханова,300040,54.1955505,37.6560269
142,улица Плеханова,300040,54.1953306,37.6567554
6 к1,улица Калинина,300040,54.1949932,37.6518938
6 к2,улица Калинина,300040,54.1948197,37.6524969
4/131,улица Калинина,300040,54.1943184,37.6515864
132,Епифанская улица,300040,54.1946162,37.6487273
130,Епифанская улица,300001,54.1949043,37.6469116
8,улица Кирова,300001,54.1954530,37.6457024
191,Епифанская улица,300040,54.1937509,37.6562670
189А,Епифанская улица,300040,54.1937934,37.6543984
189,Епифанская улица,300040,54.1938956,37.6530679
8,улица Калинина,300040,54.1957162,37.6530039
8А,улица Калинина,300040,54.1954073,37.6539159
57,улица Металлургов,300027,54.1953538,37.6808652
59,улица Металлургов,300027,54.1957953,37.6797844
57А,улица Металлургов,300027,54.1952086,37.6797860
61,улица Металлургов,300027,54.1953175,37.6787558
6,1-й проезд Металлургов,300031,54.1941140,37.6788359
61А,улица Металлургов,300027,54.1957876,37.6782470
63,улица Металлургов,300031,54.1953042,37.6778092
4,1-й проезд Металлургов,300031,54.1941466,37.6777974
9Б,Приупская улица,300027,54.1932678,37.6782247
9А,Приупская улица,300027,54.1928674,37.6779915
11Б,Приупская улица,300027,54.1924513,37.6795280
65,улица Металлургов,300031,54.1952617,37.6766375
67,улица Металлургов,300031,54.1952372,37.6756902
5,1-й проезд Металлургов,300031,54.1942133,37.6766010
5А,1-й проезд Металлургов,300031,54.1942618,37.6756387
3,1-й проезд Металлургов,300031,54.1932587,37.6759878
6,Приупская улица,300031,54.1925854,37.6742921
7,Приупская улица,300031,54.1930802,37.6746365
5,Приупская улица,300031,54.1936310,37.6728349
3,Приупская улица,300031,54.1939553,37.6709105
2,Приупская улица,300031,54.1934605,37.6705919
81,улица Металлургов,300031,54.1951785,37.6685445
77,улица Металлургов,300031,54.1951319,37.6707214
75,улица Металлургов,300031,54.1951515,37.6716529
73,улица Металлургов,300031,54.1951737,37.6725883
71,улица Металлургов,300031,54.1951890,37.6735458
69,улица Металлургов,300031,54.1956914,37.6745890
2,Майская улица,300010,54.2113437,37.6924149
38,улица Вильямса,300010,54.2104900,37.6919157
36,улица Вильямса,300010,54.2105159,37.6927933
26А,улица Вильямса,300010,54.2086106,37.6918804
28,улица Вильямса,300010,54.2088057,37.6908276
28А,улица Вильямса,300010,54.2092987,37.6909072
29,улица Бондаренко,300010,54.2128200,37.6875957
29,улица Бондаренко,300010,54.2129327,37.6886706
29,улица Бондаренко,300010,54.2129711,37.6896983
9,Майская улица,300010,54.2144492,37.6904816
5,Майская улица,300010,54.2132620,37.6926228
7,Майская улица,300010,54.2137072,37.6927680
83А,18-й проезд Мясново,300036,54.1989975,37.5371392
85,18-й проезд Мясново,300036,54.1996082,37.5366611
85,18-й проезд Мясново,300036,54.1992307,37.5362559
87,18-й проезд Мясново,300036,54.1986874,37.5360976
89,18-й проезд Мясново,300036,54.1984965,37.5352719
91,18-й проезд Мясново,300036,54.1986090,37.5340506
18,улица Маршала Жукова,300036,54.1977978,37.5328466
58,Полюсная улица,300036,54.1979689,37.5365651
60,Полюсная улица,300036,54.1977320,37.5359518
62,Полюсная улица,300036,54.1974850,37.5353287
64,Полюсная улица,300036,54.1968140,37.5350810
66,Полюсная улица,300036,54.1969103,37.5339142
16,улица Маршала Жукова,300036,54.1967740,37.5328669
16 к3,улица Маршала Жукова,300036,54.1956397,37.5332466
16 к2,улица Маршала Жукова,300036,54.1960641,37.5331726
14,улица Маршала Жукова,300036,54.1953592,37.5340727
14А,улица Маршала Жукова,300036,54.1956665,37.5348685
14Б,улица Маршала Жукова,300036,54.1959775,37.5356716
12А,улица Маршала Жукова,300036,54.1949353,37.5350059
12,улица Маршала Жукова,300036,54.1942791,37.5345085
10,улица Маршала Жукова,300036,54.1941958,37.5357279
10А,улица Маршала Жукова,300036,54.1949219,37.5363577
14В,улица Маршала Жукова,300036,54.1967470,37.5365886
14Г,улица Маршала Жукова,300036,54.1961485,37.5366091
10Б,улица Маршала Жукова,300036,54.1956514,37.5372827
77А,улица Кабакова,300036,54.1955435,37.5392015
79,улица Кабакова,300036,54.1963848,37.5378440
75,улица Кабакова,300036,54.1964966,37.5399687
73,улица Кабакова,300036,54.1970649,37.5414500
38,Парашютный проезд,300036,54.1965351,37.5416402
38А,Парашютный проезд,300036,54.1961697,37.5408065
40А,улица Тихмянова,300036,54.1955388,37.5421171
38Б,Парашютный проезд,300036,54.1958876,37.5400830
98,Одоевское шоссе,300036,54.1949776,37.5437554
100,Одоевское шоссе,300036,54.1945970,37.5430806
102,Одоевское шоссе,300036,54.1942271,37.5424081
104,Одоевское шоссе,300036,54.1938322,37.5416825
4,улица Маршала Жукова,300036,54.1927457,37.5373599
4,улица Маршала Жукова,300036,54.1929764,37.5359702
8,улица Маршала Жукова,300036,54.1936713,37.5362015
8А,улица Маршала Жукова,300036,54.1936097,37.5374566
8Б,улица Маршала Жукова,300036,54.1943927,37.5379015
83,18-й проезд Мясново,300036,54.1988878,37.5378053
20 к2,улица Калинина,300040,54.1997173,37.6574922
20 к1,улица Калинина,300040,54.2000034,37.6565467
22 к3,улица Калинина,300040,54.2005762,37.6587007
20 к5,улица Калинина,300040,54.2004857,37.6574048
45,улица Плеханова,300001,54.2013398,37.6404976
33,улица Марата,300001,54.2031329,37.6470718
35,улица Марата,300001,54.2045184,37.6484101
12,улица Декабристов,300001,54.2051276,37.6478753
35В,улица Марата,300001,54.2047295,37.6475339
8,улица Декабристов,300001,54.2054358,37.6468905
8А,улица Декабристов,300001,54.2050439,37.6465204
14,улица Декабристов,300001,54.2053821,37.6489197
10,улица Декабристов,300001,54.2056947,37.6479591
6,улица Декабристов,300001,54.2060138,37.6470038
34А,улица Степанова,300001,54.2062696,37.6465412
34,улица Степанова,300001,54.2054057,37.6456780
38,Пролетарская улица,300001,54.2067474,37.6436760
36,Пролетарская улица,300001,54.2060894,37.6427523
4,улица Декабристов,300001,54.2066254,37.6448297
36А,Пролетарская улица,300001,54.2062896,37.6442049
35А,улица Степанова,300001,54.2055190,37.6433181
35,улица Степанова,300001,54.2057157,37.6446359
30А,Пролетарская улица,300001,54.2049580,37.6417503
34,Пролетарская улица,300001,54.2051860,37.6427499
32,Пролетарская улица,300001,54.2047575,37.6423450
30,Пролетарская улица,300001,54.2043056,37.6419439
33,улица Степанова,300001,54.2042903,37.6433459
29,улица Кирова,300001,54.2037048,37.6500274
28,улица Марата,300001,54.2041528,37.6498795
20 к3,улица Калинина,300040,54.1994515,37.6584192
22 к2,улица Калинина,300040,54.2009956,37.6590284
24 к2,улица Калинина,300040,54.2014152,37.6593838
22 к1,улица Калинина,300040,54.2010274,37.6572540
24 к1,улица Калинина,300040,54.2017065,37.6578509
22 к4,улица Калинина,300040,54.1998650,37.6587530
79В,улица Калинина,300001,54.2009557,37.6532700
26 к2,улица Кирова,300001,54.2017005,37.6522250
26 к1,улица Кирова,300001,54.2019320,37.6514458
28,улица Кирова,300001,54.2025675,37.6517870
26 к1,улица Кирова,300001,54.2031563,37.6524728
32,улица Кирова,300001,54.2038065,37.6532529
124,Замочная улица,300001,54.2016064,37.6534342
105,Замочная улица,300001,54.2026125,37.6532343
105Г,Замочная улица,300001,54.2032338,37.6536450
105Д,Замочная улица,300001,54.2028883,37.6542714
82,улица Декабристов,300001,54.2037689,37.6543730
105Е,Замочная улица,300001,54.2031724,37.6545363
84,улица Декабристов,300001,54.2031972,37.6556147
105А,Замочная улица,300001,54.2025986,37.6551874
107А,Замочная улица,300040,54.2023260,37.6560883
86,улица Декабристов,300040,54.2028504,37.6570471
83,улица Калинина,300040,54.2023216,37.6574488
81,улица Калинина,300040,54.2015780,37.6567891
107,Замочная улица,300040,54.2014407,37.6558034
105В,Замочная улица,300001,54.2019198,37.6548073
105Б,Замочная улица,300001,54.2021895,37.6539572
83А,улица Калинина,300040,54.2021316,37.6567577
200,улица Кирова,300004,54.2162046,37.6741479
94,улица Металлургов,300031,54.1962293,37.6705739
96,улица Металлургов,300031,54.1961958,37.6686748
98,улица Металлургов,300031,54.1964643,37.6675205
100,улица Металлургов,300031,54.1964548,37.6665647
102,улица Металлургов,300031,54.1964160,37.6656034
104,улица Металлургов,300031,54.1964026,37.6646415
15 к3,улица Макаренко,300039,54.1657927,37.5616155
13 к6,улица Макаренко,300039,54.1676650,37.5620503
13 к5,улица Макаренко,300039,54.1673275,37.5628425
13 к4,улица Макаренко,300039,54.1675950,37.5633733
13 к3,улица Макаренко,300039,54.1664728,37.5640758
19 к1,улица Макаренко,300039,54.1642782,37.5631540
19 к2,улица Макаренко,300039,54.1646458,37.5627317
19 к3,улица Макаренко,300039,54.1650021,37.5623146
15 к2,улица Макаренко,300039,54.1652239,37.5637498
15,улица Макаренко,300039,54.1653367,37.5644633
13 к2,улица Макаренко,300039,54.1674450,37.5645993
17,улица Макаренко,300039,54.1645192,37.5651445
17А,улица Макаренко,300039,54.1647884,37.5656665
13,улица Макаренко,300039,54.1663953,37.5647707
11,улица Макаренко,300039,54.1670082,37.5660113
9А,улица Макаренко,300039,54.1664154,37.5670330
9,улица Макаренко,300039,54.1668427,37.5674820
9Б,улица Макаренко,300028,54.1670370,37.5685706
18,улица Седова,300028,54.1673529,37.5715358
16,улица Седова,300028,54.1670226,37.5725058
14,улица Седова,300028,54.1666596,37.5734202
12,улица Седова,300028,54.1662701,37.5742450
16А,улица Седова,300028,54.1667885,37.5710671
14А,улица Седова,300028,54.1663561,37.5717276
12А,улица Седова,300028,54.1659423,37.5724074
12В,улица Седова,300028,54.1658965,37.5733176
12 к1,улица Седова,300028,54.1657929,37.5748586
2 к2,улица Прокудина,300039,54.1655270,37.5737578
2 к1,улица Прокудина,300039,54.1656121,37.5743855
15,улица Ползунова,300039,54.1650086,37.5728863
17,улица Ползунова,300039,54.1653098,37.5720082
19,улица Ползунова,300039,54.1656361,37.5711395
21,улица Ползунова,300039,54.1659808,37.5702394
26,улица Ползунова,300039,54.1656682,37.5694391
26А,улица Ползунова,300039,54.1654037,37.5687298
7А,улица Сурикова,300039,54.1647603,37.5680345
24А,улица Ползунова,300039,54.1648871,37.5689750
22А,улица Ползунова,300039,54.1646212,37.5696655
7,улица Сурикова,300039,54.1643375,37.5680065
9,улица Сурикова,300039,54.1640161,37.5688564
11,улица Сурикова,300039,54.1640490,37.5694413
20А,улица Ползунова,300039,54.1643952,37.5701971
15,улица Сурикова,300039,54.1635269,37.5708437
17,улица Сурикова,300039,54.1632082,37.5710569
19,улица Сурикова,300039,54.1630021,37.5715917
16А,улица Ползунова,300039,54.1640661,37.5710835
8А,улица Прокудина,300039,54.1638703,37.5716308
19А,улица Сурикова,300039,54.1634998,37.5718692
8,улица Прокудина,300039,54.1635797,37.5726076
10,улица Прокудина,300039,54.1631216,37.5721209
12А,улица Ползунова,300039,54.1639913,37.5724187
6,улица Прокудина,300039,54.1639474,37.5730356
12,улица Ползунова,300039,54.1643621,37.5729426
16,улица Ползунова,300039,54.1646323,37.5722239
14,улица Ползунова,300039,54.1646092,37.5715979
18,улица Ползунова,300039,54.1648972,37.5713669
20,улица Ползунова,300039,54.1649070,37.5707605
24,улица Ползунова,300039,54.1654483,37.5700135
22,улица Ползунова,300039,54.1652298,37.5705677
22 к1,улица Ю.Фучика,300053,54.2055993,37.6969205
22 к2,улица Ю.Фучика,300053,54.2057977,37.6979927
24 к2,улица Ю.Фучика,300053,54.2057854,37.7003107
24,2-й проезд Гастелло,300053,54.2033014,37.6980984
24А,2-й проезд Гастелло,300053,54.2028701,37.6974596
32,улица Щегловская Засека,300004,54.2192080,37.6990191
43,улица Щегловская Засека,300004,54.2198927,37.6984526
45,улица Щегловская Засека,300004,54.2198430,37.6992393
47,улица Щегловская Засека,300004,54.2197970,37.6997300
49,улица Щегловская Засека,300004,54.2197666,37.7001860
51,улица Щегловская Засека,300004,54.2197121,37.7008919
13,улица Щегловская Засека,300004,54.2213020,37.6778779
11,улица Щегловская Засека,300004,54.2206464,37.6784842
1,улица Щегловская Засека,300004,54.2186197,37.6769625
5,улица Щегловская Засека,300004,54.2189029,37.6785905
7,улица Щегловская Засека,300004,54.2194444,37.6785778
9,улица Щегловская Засека,300004,54.2202220,37.6786036
49,улица Максима Горького,300044,54.2190711,37.5996523
43,улица Максима Горького,300044,54.2177684,37.6002480
47,улица Максима Горького,300044,54.2181769,37.5995721
45,улица Максима Горького,300044,54.2180430,37.6006168
51,улица Максима Горького,300044,54.2190150,37.6011220
76,улица Пузакова,300044,54.2200275,37.6007465
78,улица Пузакова,300044,54.2206094,37.6015544
37,улица Максима Горького,300044,54.2170596,37.6023902
58,улица Пузакова,300057,54.2197381,37.6082500
62,улица Пузакова,300057,54.2192323,37.6071511
64,улица Пузакова,300057,54.2190680,37.6060799
66,улица Пузакова,300057,54.2189368,37.6049323
44,улица Пузакова,300057,54.2194279,37.6117696
46,улица Пузакова,300057,54.2190009,37.6103741
29А,улица Максима Горького,300044,54.2172281,37.6107873
21,улица Максима Горького,300057,54.2160024,37.6145643
27,улица Максима Горького,300044,54.2152406,37.6110225
17,улица Максима Горького,300044,54.2151269,37.6134598
11,улица Максима Горького,300062,54.2145754,37.6160819
9,улица Максима Горького,300062,54.2146649,37.6182900
74,Демидовская улица,300057,54.2175278,37.6206365
4,улица Пузакова,300057,54.2176519,37.6199578
70Б,Демидовская улица,300062,54.2156098,37.6182198
70,Демидовская улица,300062,54.2155740,37.6199863
72А,Демидовская улица,300062,54.2162745,37.6203144
15,улица Максима Горького,300062,54.2155135,37.6152637
7,улица Максима Горького,300062,54.2141121,37.6188456
115,Демидовская улица,300062,54.2139318,37.6199951
5,улица Максима Горького,300062,54.2135714,37.6206896
117,Демидовская улица,300062,54.2148612,37.6204315
119,Демидовская улица,300062,54.2160741,37.6209891
76,Октябрьская улица,300062,54.2164735,37.6221869
74,Октябрьская улица,300062,54.2161425,37.6233644
64,Октябрьская улица,300062,54.2153116,37.6231120
85,Октябрьская улица,300062,54.2157732,37.6256061
81Б,Октябрьская улица,300062,54.2154628,37.6251379
30,улица Галкина,300062,54.2136221,37.6256271
32,улица Галкина,300062,54.2145407,37.6261572
34,улица Галкина,300062,54.2153511,37.6265651
31,улица Галкина,300062,54.2161136,37.6275124
33,улица Галкина,300062,54.2159375,37.6284555
4,улица Максимовского,300062,54.2157926,37.6293898
80А,Октябрьская улица,300062,54.2197605,37.6246026
82,Октябрьская улица,300062,54.2204030,37.6238345
15,улица Пузакова,300057,54.2216210,37.6190455
29,улица Галкина,300062,54.2151904,37.6275498
1,улица Максимовского,300062,54.2127040,37.6292407
3,улица Максимовского,300062,54.2128694,37.6308582
22,улица Максима Горького,300044,54.2159942,37.6006087
13,Курковая улица,300044,54.2154960,37.5999172
14,улица Максима Горького,300044,54.2140143,37.6074899
12,улица Максима Горького,300044,54.2136460,37.6099464
24,улица Галкина,300002,54.2119735,37.6239945
22,улица Галкина,300002,54.2113906,37.6241660
20,улица Галкина,300002,54.2104923,37.6237265
15,улица Галкина,300002,54.2099980,37.6251537
9,улица Галкина,300002,54.2080624,37.6238539
24,Арсенальная улица,300044,54.2138437,37.5995470
11,Курковая улица,300044,54.2131058,37.5985295
33,Литейная улица,300044,54.2121161,37.6002299
67,улица Луначарского,300044,54.2102369,37.5978183
9,Курковая улица,300044,54.2111240,37.5975544
36,Литейная улица,300044,54.2118385,37.5985951
174,улица Луначарского,300044,54.2095003,37.5942478
14,Курковая улица,300044,54.2091894,37.5948623
12,Курковая улица,300044,54.2086931,37.5946161
8,Курковая улица,300044,54.2079371,37.5942817
6,Курковая улица,300044,54.2073984,37.5940103
4,Курковая улица,300044,54.2069046,37.5937561
56,набережная Дрейера,300044,54.2070784,37.5925837
1,улица Генерала Маргелова,300026,54.1474075,37.5741005
5,улица Генерала Маргелова,300026,54.1467763,37.5737136
7,улица Генерала Маргелова,300026,54.1473029,37.5721041
9,улица Генерала Маргелова,300026,54.1480084,37.5717263
28,Курковая улица,300044,54.2122208,37.5949525
26,Курковая улица,300044,54.2121130,37.5955903
24,Курковая улица,300044,54.2120096,37.5962139
20,Курковая улица,300044,54.2114383,37.5958446
18,Курковая улица,300044,54.2108297,37.5955535
16,Курковая улица,300044,54.2101841,37.5953918
69,улица Луначарского,300044,54.2101261,37.5944418
11,Калужское шоссе,300026,54.1567068,37.5736149
21,улица Ленина,300904,54.1316764,37.5818017
12,улица Льва Толстого,300904,54.1320346,37.5808064
20,улица Ленина,300904,54.1321797,37.5815081
19,улица Ленина,300904,54.1323478,37.5822331
18,улица Ленина,300904,54.1332453,37.5820045
16,улица Ленина,300904,54.1332916,37.5813574
11,улица Льва Толстого,300904,54.1326985,37.5805025
10,улица Льва Толстого,300904,54.1332689,37.5806087
9,улица Льва Толстого,300904,54.1336344,37.5806994
8,улица Льва Толстого,300904,54.1339655,37.5807783
7,улица Льва Толстого,300904,54.1342657,37.5811116
2,улица Ленина,300904,54.1356281,37.5820524
6,улица Льва Толстого,300904,54.1347815,37.5812244
5,улица Льва Толстого,300904,54.1351643,37.5810559
4,улица Льва Толстого,300904,54.1355491,37.5811449
3,улица Льва Толстого,300904,54.1359176,37.5812252
2,улица Льва Толстого,300904,54.1361756,37.5816978
1,улица Льва Толстого,300904,54.1363319,37.5822531
40,Красноармейский проспект,300041,54.1985801,37.5862650
35,улица Сойфера,300041,54.1993351,37.5880190
38,Красноармейский проспект,300041,54.1984437,37.5878556
36,Красноармейский проспект,300041,54.1983050,37.5894158
5,улица Фрунзе,300041,54.1990296,37.5913864
29,улица Сойфера,300041,54.1989870,37.5921312
25,улица Сойфера,300041,54.1984503,37.5933438
21,улица Сойфера,300041,54.1987605,37.5947623
19,улица Сойфера,300041,54.1987128,37.5954354
17,улица Сойфера,300041,54.1986461,37.5964695
15,улица Сойфера,300041,54.1986067,37.5971237
13,улица Сойфера,300041,54.1985436,37.5977459
22,Красноармейский проспект,300041,54.1976524,37.5968881
20,Красноармейский проспект,300041,54.1975484,37.5981577
27,Красноармейский проспект,300034,54.1979104,37.5866482
25 к4,Красноармейский проспект,300034,54.1975583,37.5865992
4,улица Вересаева,300034,54.1970738,37.5866396
6,улица Вересаева,300034,54.1966896,37.5867446
8,улица Вересаева,300041,54.1962108,37.5867145
17,улица Дмитрия Ульянова,300034,54.1930521,37.5850506
21/30,улица Дмитрия Ульянова,300034,54.1925887,37.5851314
28,улица Революции,300034,54.1928253,37.5857549
9,улица Братьев Жабровых,300034,54.1935807,37.5869567
1 к4,Гарнизонный проезд,300901,54.2472005,37.6055517
1 к2,Гарнизонный проезд,300901,54.2471387,37.6068545
1 к1,Гарнизонный проезд,300901,54.2472206,37.6074468
1 к3,Гарнизонный проезд,300901,54.2462406,37.6080429
2А,Гарнизонный проезд,300901,54.2465835,37.6087497
2В,Гарнизонный проезд,300901,54.2458899,37.6093573
3А,Гарнизонный проезд,300901,54.2454958,37.6101671
51 к1,улица Кауля,300012,54.1771204,37.6151101
49 к1,улица Кауля,300012,54.1765776,37.6167868
47 к1,улица Кауля,300012,54.1761424,37.6180708
45 к1,улица Кауля,300012,54.1758257,37.6190060
45 к2,улица Кауля,300012,54.1752491,37.6188065
4,улица Михеева,300012,54.1739858,37.6185102
6,улица Михеева,300012,54.1742867,37.6177749
49А,улица Кауля,300012,54.1761387,37.6162602
51 к2,улица Кауля,300012,54.1765123,37.6149549
89,улица Тимирязева,300012,54.1765953,37.6139921
14,улица Михеева,300012,54.1756429,37.6142781
12,улица Михеева,300012,54.1753959,37.6149059
10А,улица Михеева,300012,54.1755639,37.6162674
95,улица Тимирязева,300012,54.1755004,37.6127858
97,улица Тимирязева,300012,54.1750481,37.6122143
31,улица Михеева,300012,54.1751884,37.6136470
27,улица Михеева,300012,54.1748524,37.6145969
23,улица Михеева,300012,54.1744245,37.6153807
17,улица Михеева,300012,54.1739690,37.6160729
15,улица Михеева,300012,54.1736812,37.6168629
11А,улица Михеева,300012,54.1727960,37.6172454
11Б,улица Михеева,300012,54.1732497,37.6171360
3,улица Михеева,300012,54.1724624,37.6203415
3А,улица Михеева,300012,54.1721066,37.6199373
3А,Перекопская улица,300045,54.1730533,37.6219267
3,Перекопская улица,300045,54.1726351,37.6225753
1,Перекопская улица,300045,54.1744074,37.6218159
31,улица Кауля,300045,54.1753437,37.6220275
90,улица Будённого,300045,54.1747208,37.6230990
90Б,улица Будённого,300045,54.1743146,37.6229349
8,Перекопская улица,300045,54.1712830,37.6217356
5А,Перекопская улица,300045,54.1721706,37.6229124
5,Перекопская улица,300045,54.1713269,37.6233989
54,улица Некрасова,300045,54.1702263,37.6238619
35,улица Демьянова,300045,54.1715970,37.6210853
37,улица Демьянова,300045,54.1712264,37.6206389
39,улица Демьянова,300045,54.1708395,37.6201877
41А,улица Демьянова,300045,54.1705474,37.6206501
43А,улица Демьянова,300045,54.1701556,37.6202774
45А,улица Демьянова,300045,54.1697228,37.6204410
41,улица Демьянова,300045,54.1704058,37.6196121
45,улица Демьянова,300045,54.1696812,37.6188968
62,улица Некрасова,300045,54.1693860,37.6195633
60,улица Некрасова,300045,54.1692981,37.6203471
45Б,улица Демьянова,300045,54.1698399,37.6214578
12,Перекопская улица,300045,54.1696705,37.6224011
58,улица Некрасова,300045,54.1694841,37.6217828
94,улица Будённого,300045,54.1729951,37.6236562
29,улица Кауля,300045,54.1756548,37.6235959
27,улица Кауля,300045,54.1759354,37.6244242
88А,улица Макса Смирнова,300045,54.1758517,37.6254627
1А,Перекопская улица,300045,54.1735156,37.6222745
19,улица Кауля,300045,54.1763155,37.6271505
2А,улица Демьянова,300045,54.1743658,37.6284299
30 к2,Рязанская улица,300012,54.1588694,37.6094717
26 к2,Рязанская улица,300012,54.1584182,37.6073778
29,Городской переулок,300012,54.1579671,37.6087333
20,улица Мезенцева,300012,54.1635464,37.5963896
77,8-й проезд Мясново,300005,54.1959170,37.5579045
75,8-й проезд Мясново,300005,54.1964686,37.5572806
76,7-й проезд Мясново,300005,54.1967695,37.5581054
33,улица Рогова,300005,54.1975303,37.5586544
63,7-й проезд Мясново,300005,54.1970329,37.5587792
72/31,6-й проезд Мясново,300005,54.1976846,37.5592949
74,6-й проезд Мясново,300005,54.1973112,37.5597474
70,улица Болотова,300005,54.1974272,37.5615394
61,улица Болотова,300005,54.1980080,37.5615872
38,Одоевское шоссе,300005,54.1959576,37.5588752
36,Одоевское шоссе,300005,54.1958337,37.5595816
63А,7-й проезд Мясново,300005,54.1964898,37.5588862
69,6-й проезд Мясново,300005,54.1970861,37.5607324
71,6-й проезд Мясново,300005,54.1966625,37.5611911
72,улица Болотова,300005,54.1969257,37.5620902
34,Одоевское шоссе,300005,54.1958478,37.5602978
32,Одоевское шоссе,300005,54.1960508,37.5610263
30,Одоевское шоссе,300005,54.1954941,37.5616397
28,Одоевское шоссе,300005,54.1957662,37.5626407
14,Одоевское шоссе,300005,54.1954422,37.5632840
69,улица Болотова,300005,54.1964327,37.5632934
47,4-й проезд Мясново,300005,54.1978366,37.5638985
49,4-й проезд Мясново,300005,54.1973327,37.5644645
66,4-й проезд Мясново,300005,54.1966285,37.5640261
51,4-й проезд Мясново,300005,54.1965630,37.5653444
53,4-й проезд Мясново,300005,54.1957561,37.5662496
3,Одоевское шоссе,300005,54.1947220,37.5637728
5,Одоевское шоссе,300005,54.1942133,37.5623858
2,2-я Прокатная улица,300005,54.1941388,37.5636881
1А,Одоевское шоссе,300005,54.1944027,37.5651229
1Б,Одоевское шоссе,300005,54.1944835,37.5660477
15,Одоевское шоссе,300005,54.1949848,37.5591727
2,Санаторная улица,300005,54.1938145,37.5581272
4,Санаторная улица,300005,54.1938335,37.5562067
17,Одоевское шоссе,300005,54.1952330,37.5562994
19,Одоевское шоссе,300005,54.1950787,37.5554876
3,Санаторный переулок,300005,54.1946059,37.5554265
5,Санаторный переулок,300005,54.1942117,37.5555387
7,Санаторная улица,300036,54.1928122,37.5528924
9,Санаторная улица,300036,54.1926187,37.5521131
2,улица Дмитрия Ульянова,300034,54.1973916,37.5837499
148,улица Демонстрации,300034,54.1913912,37.5785495
146А,улица Демонстрации,300034,54.1914681,37.5794123
144,улица Демонстрации,300034,54.1914374,37.5800495
138,улица Демонстрации,300034,54.1914025,37.5806921
134,улица Демонстрации,300034,54.1913005,37.5828088
8,улица Серова,300004,54.2057972,37.6577842
10,улица Серова,300004,54.2052340,37.6585921
12,улица Серова,300004,54.2046822,37.6594064
69,улица Каракозова,300001,54.2050926,37.6576926
70,улица Каракозова,300001,54.2052494,37.6572170
166,улица Марата,300004,54.2086491,37.6564890
164,улица Марата,300004,54.2083255,37.6558694
1,улица Серова,300004,54.2079442,37.6556725
3,улица Серова,300004,54.2076258,37.6560624
137,улица Кирова,300004,54.2077631,37.6565472
139,улица Кирова,300004,54.2080609,37.6572164
2,улица Глинки,300004,54.2084489,37.6570184
168,улица Кирова,300004,54.2075977,37.6578905
166,улица Кирова,300004,54.2072904,37.6572433
5,улица Серова,300004,54.2070192,37.6569293
9,улица Серова,300004,54.2062585,37.6580720
9А,улица Серова,300004,54.2061544,37.6586140
6А,улица Глинки,300004,54.2065165,37.6592871
6,улица Глинки,300004,54.2069047,37.6592350
4,улица Глинки,300004,54.2072606,37.6585914
5,улица Глинки,300004,54.2071251,37.6599518
170,улица Кирова,300004,54.2081199,37.6589142
176,улица Кирова,300004,54.2090556,37.6607992
6А,улица Немцова,300004,54.2077784,37.6618478
141,улица Кирова,300004,54.2085781,37.6582350
1,улица Глинки,300004,54.2087056,37.6574701
168,улица Марата,300004,54.2092284,37.6574770
170,улица Марата,300004,54.2097466,37.6582582
172,улица Марата,300004,54.2102846,37.6589729
2,улица Немцова,300004,54.2100567,37.6598256
147,улица Кирова,300004,54.2095307,37.6601541
145,улица Кирова,300004,54.2091503,37.6591854
149,улица Кирова,300004,54.2100369,37.6611617
1,улица Немцова,300004,54.2103335,37.6603463
174,улица Марата,300004,54.2109423,37.6599844
176,улица Марата,300004,54.2114304,37.6607257
178,улица Марата,300004,54.2119098,37.6614281
153А,улица Кирова,300004,54.2114902,37.6615046
149А,улица Кирова,300004,54.2105973,37.6609691
151,улица Кирова,300004,54.2105527,37.6620274
151А,улица Кирова,300004,54.2109367,37.6613731
153,улица Кирова,300004,54.2111586,37.6623085
155,улица Кирова,300004,54.2116497,37.6627402
2,проезд Марата,300004,54.2120943,37.6622153
157,улица Кирова,300004,54.2120039,37.6633061
178,улица Кирова,300004,54.2095744,37.6618342
180,улица Кирова,300004,54.2099747,37.6628456
184,улица Кирова,300004,54.2102670,37.6648895
182,улица Кирова,300004,54.2100510,37.6639424
184А,улица Кирова,300004,54.2096499,37.6651673
7А,улица Немцова,300004,54.2081477,37.6643115
3Б,улица Шухова,300004,54.2084749,37.6649735
5Б,улица Немцова,300004,54.2091092,37.6645942
5В,улица Шухова,300004,54.2088878,37.6651719
184Б,улица Кирова,300004,54.2090318,37.6657024
5Б,улица Шухова,300004,54.2085302,37.6656917
11,улица Немцова,300004,54.2073598,37.6645965
9А,улица Немцова,300004,54.2077933,37.6648432
3А,улица Шухова,300004,54.2081092,37.6654898
1,улица Шухова,300004,54.2071271,37.6651870
3,улица Шухова,300004,54.2074647,37.6658607
5А,улица Шухова,300004,54.2081714,37.6662094
5,улица Шухова,300004,54.2078018,37.6665121
7,улица Шухова,300004,54.2082389,37.6673980
9,улица Шухова,300004,54.2087367,37.6684175
13,улица Немцова,300004,54.2069899,37.6663971
20,улица Шухова,300004,54.2074427,37.6665711
3А,улица Кольцова,300004,54.2050167,37.6654168
1А,улица Кольцова,300004,54.2054871,37.6652621
2Б,улица Маяковского,300004,54.2056323,37.6657997
10,улица Немцова,300004,54.2061166,37.6665641
1,улица Маяковского,300004,54.2058247,37.6662252
1А,улица Маяковского,300004,54.2055056,37.6666537
36,улица Шухова,300004,54.2101072,37.6719668
40,улица Шухова,300004,54.2104899,37.6727427
24,улица Баженова,300004,54.2105679,37.6740243
26,улица Баженова,300004,54.2101811,37.6746366
26А,улица Баженова,300004,54.2099797,37.6738708
28А,улица Баженова,300004,54.2094702,37.6741197
28,улица Баженова,300004,54.2097526,37.6753641
27,улица Рихарда Зорге,300004,54.2077821,37.6748237
31,улица Рихарда Зорге,300004,54.2084541,37.6761379
2,улица Шухова,300004,54.2045058,37.6608343
4,улица Шухова,300004,54.2048257,37.6614325
65,улица Каракозова,300004,54.2040075,37.6614654
66,улица Каракозова,300004,54.2041904,37.6610412
4А,улица Шухова,300004,54.2044508,37.6617720
4Б,улица Шухова,300004,54.2045806,37.6626541
6,улица Шухова,300004,54.2052447,37.6622776
6Б,улица Шухова,300004,54.2048195,37.6631284
6А,улица Шухова,300004,54.2051476,37.6629787
34,улица Баженова,300004,54.2083683,37.6770183
41 к2,улица Кутузова,300004,54.2072439,37.6767976
43 к2,улица Кутузова,300004,54.2068436,37.6774736
29,улица Дементьева,300004,54.2061570,37.6778412
31,улица Дементьева,300004,54.2064780,37.6780313
33,улица Дементьева,300004,54.2068156,37.6782460
35,улица Дементьева,300004,54.2072962,37.6785461
38А,улица Баженова,300004,54.2078245,37.6773041
36,улица Баженова,300004,54.2080725,37.6778002
38,улица Баженова,300004,54.2077371,37.6782879
18,улица Рихарда Зорге,300004,54.2047992,37.6696461
22,улица Рихарда Зорге,300004,54.2052911,37.6707144
26,улица Рихарда Зорге,300004,54.2059472,37.6720153
30,улица Рихарда Зорге,300004,54.2064879,37.6730918
32,улица Рихарда Зорге,300004,54.2068032,37.6737090
28Б,улица Рихарда Зорге,300004,54.2056195,37.6734640
27,улица Немцова,300004,54.2039800,37.6710391
11,улица Дементьева,300004,54.2033059,37.6722948
13,улица Дементьева,300004,54.2040512,37.6739171
34,улица Кутузова,300004,54.2049403,37.6753911
6,улица Дементьева,300004,54.2024071,37.6718541
38А,улица Немцова,300004,54.2021148,37.6724131
10,улица Дементьева,300004,54.2030313,37.6730506
8,улица Дементьева,300004,54.2026232,37.6725050
1,Загородный проезд,300004,54.2022564,37.6731961
7А,Загородный проезд,300004,54.2032172,37.6753310
12,улица Дементьева,300004,54.2035286,37.6740137
14,улица Дементьева,300004,54.2040251,37.6750330
16,улица Дементьева,300004,54.2045126,37.6759954
36,улица Кутузова,300004,54.2047503,37.6767578
15/38,Загородный проезд,300004,54.2043338,37.6772919
7,Загородный проезд,300004,54.2037642,37.6764569
101 к6,улица Тимирязева,300012,54.1695395,37.6117191
101 к7,улица Тимирязева,300012,54.1690554,37.6129663
1Е,улица Академика Павлова,300026,54.1634919,37.5890530
8,улица Седова,300028,54.1655321,37.5762762
44,Оружейная улица,300028,54.1649685,37.5779258
46,Оружейная улица,300028,54.1645954,37.5775281
48,Оружейная улица,300028,54.1639443,37.5767748
3,улица Прокудина,300028,54.1650049,37.5752057
7,улица Прокудина,300028,54.1645033,37.5742336
50,Оружейная улица,300028,54.1635990,37.5764106
7,улица Ползунова,300028,54.1638545,37.5757963
9А,улица Ползунова,300028,54.1641484,37.5754613
15,улица Прокудина,300028,54.1631921,37.5727847
21,улица Сурикова,300028,54.1628073,37.5723700
25А,улица Сурикова,300028,54.1625471,37.5737012
27,улица Сурикова,300028,54.1622047,37.5736910
29,улица Сурикова,300028,54.1620357,37.5741216
56,Оружейная улица,300028,54.1620243,37.5747217
56А,Оружейная улица,300028,54.1628398,37.5744172
8,улица Ползунова,300028,54.1638743,37.5741067
6,улица Ползунова,300028,54.1636973,37.5745443
4,улица Ползунова,300028,54.1634936,37.5751013
2,улица Ползунова,300028,54.1633039,37.5755598
54А,Оружейная улица,300028,54.1629561,37.5750704
52,Оружейная улица,300028,54.1630057,37.5757794
54,Оружейная улица,300028,54.1625272,37.5751659
98,18-й проезд Мясново,300036,54.1990011,37.5323480
19,6-й Полюсный проезд,300036,54.2027222,37.5405179
21,6-й Полюсный проезд,300036,54.2023593,37.5400583
9,улица Сойфера,300041,54.1983412,37.6032342
7,улица Сойфера,300041,54.1976555,37.6040901
52,улица Демонстрации,300034,54.1910855,37.5850099
38,улица Демонстрации,300034,54.1916710,37.5900994
35,улица Революции,300035,54.1927769,37.5947741
2,улица Халтурина,300034,54.1923923,37.5958287
26,улица Демонстрации,300041,54.1921754,37.5950844
24,улица Демонстрации,300034,54.1923774,37.5988227
12,улица Лейтейзена,300041,54.1930308,37.6005483
2,Первомайская улица,300012,54.1809004,37.6062648
63,проспект Ленина,300012,54.1817551,37.6063728
12,Тургеневская улица,300041,54.1902326,37.6175952
8,Бухоновский переулок,300000,54.1904645,37.6162626
4А,улица Дмитрия Ульянова,300041,54.1964278,37.5833208
4,улица Дмитрия Ульянова,300041,54.1963795,37.5840858
8 к5,улица Дмитрия Ульянова,300041,54.1960194,37.5819402
8Б,улица Дмитрия Ульянова,300041,54.1955049,37.5829694
8,улица Дмитрия Ульянова,300041,54.1953079,37.5837492
15,улица Хворостухина,300010,54.2150925,37.6823033
15А,улица Хворостухина,300010,54.2148267,37.6811678
81,улица Токарева,300020,54.2283108,37.6139000
1,Промышленный проезд,300020,54.2275694,37.6177066
89,улица Токарева,300020,54.2266705,37.6155813
40,Железнодорожная улица,300020,54.2252254,37.6146415
38,Железнодорожная улица,300020,54.2249822,37.6151937
36,Железнодорожная улица,300020,54.2246743,37.6158730
34,Железнодорожная улица,300020,54.2244007,37.6164915
226 к2,Комсомольская улица,300020,54.2251076,37.6174123
226 к1,Комсомольская улица,300020,54.2249350,37.6169196
38А,Железнодорожная улица,300020,54.2254125,37.6158007
40А,Железнодорожная улица,300020,54.2257062,37.6152149
86Б,улица Токарева,300020,54.2256675,37.6167546
86А,улица Токарева,300020,54.2260952,37.6169481
232,Комсомольская улица,300020,54.2263078,37.6180356
230,Комсомольская улица,300020,54.2258815,37.6178336
228,Комсомольская улица,300020,54.2254685,37.6176497
171,Комсомольская улица,300020,54.2257664,37.6183055
226А,Комсомольская улица,300020,54.2245338,37.6172117
27,Кирпичный переулок,300020,54.2245412,37.6177358
25,Кирпичный переулок,300020,54.2244093,37.6185438
23,Кирпичный переулок,300020,54.2243158,37.6190926
32,Кирпичный переулок,300020,54.2239883,37.6183657
28,Железнодорожная улица,300020,54.2239009,37.6189172
76,улица Токарева,300062,54.2259154,37.6207082
28,Промышленный проезд,300020,54.2269236,37.6189037
26,Промышленный проезд,300020,54.2267553,37.6199231
67,улица Токарева,300020,54.2265005,37.6194459
65,улица Токарева,300020,54.2263881,37.6201089
63,улица Токарева,300020,54.2262822,37.6207403
24,Промышленный проезд,300020,54.2265711,37.6210131
61,улица Токарева,300020,54.2261601,37.6214997
59,улица Токарева,300020,54.2259781,37.6225824
22,Промышленный проезд,300020,54.2264086,37.6221737
8,улица Гагарина,300020,54.2303350,37.6295025
6,улица Гагарина,300020,54.2299420,37.6297953
37,улица Токарева,300062,54.2254007,37.6305890
282,улица Галкина,300062,54.2263121,37.6316247
237,улица Галкина,300062,54.2251782,37.6318301
288,улица Галкина,300062,54.2272246,37.6320757
1А,улица Гончарова,300020,54.2266825,37.6428943
56,улица Грибоедова,300910,54.0997774,37.5832686
54,улица Грибоедова,300910,54.1006422,37.5811527
3,улица Новосёлов,300910,54.1025871,37.5852742
1,улица Новосёлов,300910,54.1037189,37.5849302
1,Стадионный проезд,300910,54.1038100,37.5833512
5,улица Академика Обручева,300012,54.1709972,37.5994099
5 к2,улица Циолковского,300012,54.1705843,37.5987461
5 к1,улица Циолковского,300012,54.1700575,37.5982707
2,улица Генерала Горшкова,300903,54.1227556,37.5403795
3,улица Генерала Горшкова,300903,54.1223488,37.5394859
12,улица Генерала Горшкова,300903,54.1209455,37.5384781
35,улица Прогресс,300903,54.1212254,37.5351998
37,улица Прогресс,300903,54.1216481,37.5360259
14,улица Генерала Горшкова,300903,54.1200489,37.5388542
18,улица Дронова,300903,54.1183184,37.5351232
16,улица Дронова,300903,54.1184748,37.5356759
14,улица Дронова,300903,54.1185900,37.5361786
12,улица Дронова,300903,54.1188444,37.5365691
10,улица Дронова,300903,54.1189680,37.5370595
6,улица Дронова,300903,54.1191097,37.5382393
27,улица Гагарина,300903,54.1168756,37.5368809
31,улица Гагарина,300903,54.1163785,37.5348707
46,улица Максима Горького,300903,54.1159128,37.5357049
48,улица Максима Горького,300903,54.1157459,37.5350126
44,улица Максима Горького,300903,54.1162081,37.5369295
42,улица Максима Горького,300903,54.1163665,37.5376166
29,улица Максима Горького,300903,54.1147471,37.5342891
27,улица Максима Горького,300903,54.1152455,37.5369611
25,улица Гагарина,300903,54.1173767,37.5389808
23,улица Гагарина,300903,54.1175883,37.5395748
38А,улица Максима Горького,300903,54.1169517,37.5391678
38,улица Максима Горького,300903,54.1165902,37.5395895
36,улица Максима Горького,300903,54.1167220,37.5402830
36А,улица Максима Горького,300903,54.1169926,37.5401913
32/34,улица Максима Горького,300903,54.1172107,37.5413904
26,улица Генерала Горшкова,300903,54.1178562,37.5420991
24,улица Генерала Горшкова,300903,54.1182679,37.5413764
6,3-й Горьковский проезд,300903,54.1178928,37.5370822
11,улица Дронова,300903,54.1185425,37.5373317
7,улица Дронова,300903,54.1186297,37.5383454
1,улица Дронова,300903,54.1191149,37.5396972
3,улица Дронова,300903,54.1190130,37.5391311
5,улица Дронова,300903,54.1186450,37.5392248
20,улица Генерала Горшкова,300903,54.1189259,37.5401794
9,улица Дронова,300903,54.1182415,37.5377219
12,улица Гагарина,300903,54.1178914,37.5394253
10,улица Гагарина,300903,54.1182033,37.5400246
21,улица Максима Горького,300903,54.1164287,37.5424029
23,улица Максима Горького,300903,54.1160812,37.5410794
25,улица Максима Горького,300903,54.1156349,37.5392126
23Б,улица Максима Горького,300903,54.1159596,37.5399601
2,улица Пушкина,300903,54.1162529,37.5437017
6,улица Пушкина,300903,54.1169959,37.5440305
4,улица Пушкина,300903,54.1165319,37.5446800
8,улица Пушкина,300903,54.1172440,37.5453268
10,улица Пушкина,300903,54.1175480,37.5470301
12,Луговая улица,300903,54.1168833,37.5473695
15,Луговая улица,300903,54.1173678,37.5479595
12,улица Пушкина,300903,54.1177299,37.5479818
18,Луговая улица,300903,54.1173160,37.5494911
19,Луговая улица,300903,54.1174709,37.5504282
14,улица Пушкина,300903,54.1179207,37.5489808
16,улица Пушкина,300903,54.1181072,37.5499506
20,Луговая улица,300903,54.1178256,37.5504454
18,улица Пушкина,300903,54.1184583,37.5514512
20,улица Пушкина,300903,54.1181888,37.5520094
26,улица Пушкина,300903,54.1191718,37.5551978
22А,улица Пушкина,300903,54.1185359,37.5527700
24,Октябрьская улица,300903,54.1186728,37.5539202
26А к1,улица Пушкина,300903,54.1192628,37.5566249
26А к2,улица Пушкина,300903,54.1191988,37.5574292
19,улица Максима Горького,300903,54.1174868,37.5433157
17,улица Максима Горького,300903,54.1179235,37.5437862
15,улица Максима Горького,300903,54.1186172,37.5449715
13,улица Максима Горького,300903,54.1193641,37.5462661
1,Трудовая улица,300903,54.1196824,37.5474078
1,улица Пушкина,300903,54.1175246,37.5442502
3,улица Пушкина,300903,54.1176914,37.5451155
5,улица Пушкина,300903,54.1178621,37.5459849
7,улица Пушкина,300903,54.1180678,37.5467579
9,улица Пушкина,300903,54.1182369,37.5474796
11,улица Пушкина,300903,54.1184870,37.5487555
13,улица Пушкина,300903,54.1187289,37.5499832
15,улица Пушкина,300903,54.1189238,37.5512500
3,Трудовая улица,300903,54.1194727,37.5489848
4,Трудовая улица,300903,54.1190082,37.5481746
8,Трудовая улица,300903,54.1190498,37.5492615
8А,Октябрьская улица,300903,54.1196698,37.5515397
7,улица Гагарина,300903,54.1204145,37.5451671
9,улица Гагарина,300903,54.1201723,37.5443212
11,улица Гагарина,300903,54.1198416,37.5437697
13,улица Гагарина,300903,54.1195005,37.5431053
15,улица Гагарина,300903,54.1190802,37.5423468
15Б,улица Гагарина,300903,54.1187278,37.5417401
28А,улица Максима Горького,300903,54.1181988,37.5425109
28,улица Максима Горького,300903,54.1179892,37.5428758
15А,улица Гагарина,300903,54.1188905,37.5426829
26,улица Максима Горького,300903,54.1184832,37.5434842
24,улица Максима Горького,300903,54.1189724,37.5442788
22,улица Максима Горького,300903,54.1194003,37.5444575
20,улица Максима Горького,300903,54.1197722,37.5444410
18,улица Максима Горького,300903,54.1197632,37.5450697
16,улица Максима Горького,300903,54.1196564,37.5457167
3,улица Гагарина,300903,54.1218535,37.5448986
5,улица Гагарина,300903,54.1211581,37.5450965
5А,улица Гагарина,300903,54.1210628,37.5459578
12,улица Максима Горького,300903,54.1209687,37.5466666
11,улица Максима Горького,300903,54.1213220,37.5471194
10,улица Максима Горького,300903,54.1217965,37.5472640
1,улица Шмидта,300903,54.1218889,37.5482988
1,Зелёная улица,300903,54.1219600,37.5493280
2,Зелёная улица,300903,54.1218709,37.5501558
6,улица Шмидта,300903,54.1222836,37.5494774
8,улица Максима Горького,300903,54.1229322,37.5475740
7,улица Шмидта,300903,54.1228710,37.5486998
8,улица Шмидта,300903,54.1227472,37.5492707
3,Демешковская улица,300903,54.1223347,37.5507056
9,улица Шмидта,300903,54.1235855,37.5489584
7,улица Максима Горького,300903,54.1233260,37.5477776
6,улица Максима Горького,300903,54.1236119,37.5479062
2,улица Максима Горького,300903,54.1250823,37.5482088
28,улица Победы,300903,54.1259877,37.5477602
1,улица Максима Горького,300903,54.1260803,37.5489131
5,улица Максима Горького,300903,54.1240401,37.5479300
12,улица Бардина,300016,54.1840264,37.7039485
14,улица Бардина,300016,54.1843142,37.7044673
28,Мартеновская улица,300016,54.1835714,37.7033600
13,улица Гайдара,300016,54.1833466,37.7054121
128,улица Кутузова,300016,54.1840932,37.7059223
126,улица Кутузова,300016,54.1843143,37.7054521
124,улица Кутузова,300016,54.1846355,37.7051761
122,улица Кутузова,300016,54.1848088,37.7047209
16,улица Гайдара,300016,54.1828644,37.7055479
18,улица Гайдара,300016,54.1830998,37.7059117
20,улица Гайдара,300016,54.1833430,37.7063388
18,Мартеновская улица,300016,54.1822772,37.7055948
16,Мартеновская улица,300016,54.1821104,37.7060302
14,Мартеновская улица,300016,54.1818930,37.7064061
12,Мартеновская улица,300016,54.1816658,37.7068647
138,улица Кутузова,300016,54.1827844,37.7077761
136,улица Кутузова,300016,54.1830085,37.7074022
134,улица Кутузова,300016,54.1832632,37.7070605
132,улица Кутузова,300016,54.1835318,37.7067330
19,улица Николая Руднева,300012,54.1686165,37.5990718
21,улица Николая Руднева,300035,54.1683367,37.5987807
23,улица Николая Руднева,300012,54.1679465,37.5984262
8Г,улица Циолковского,300012,54.1679311,37.6001050
8В,улица Циолковского,300012,54.1680913,37.6007518
8Б,улица Циолковского,300012,54.1683497,37.6003304
10,переулок Н.Руднева,300035,54.1676107,37.5990772
8,переулок Н.Руднева,300035,54.1673095,37.5998155
8А,переулок Н.Руднева,300012,54.1675563,37.6001283
6,переулок Н.Руднева,300035,54.1670976,37.6004360
29,улица Николая Руднева,300035,54.1668436,37.5970804
11,переулок Н.Руднева,300035,54.1674599,37.5985272
9,переулок Н.Руднева,300035,54.1672307,37.5990412
7,переулок Н.Руднева,300035,54.1670589,37.5995549
8,переулок Шевченко,300035,54.1664109,37.5997644
11А,улица Шевченко,300012,54.1659166,37.5983310
5Б,улица Шевченко,300012,54.1667746,37.5979066
11,переулок Шевченко,300012,54.1661075,37.6000792
13,переулок Шевченко,300012,54.1658254,37.5997130
15,переулок Шевченко,300035,54.1654847,37.5994366
14,улица Клюева,300012,54.1652402,37.6001606
12,улица Клюева,300012,54.1654885,37.6006268
10,улица Клюева,300012,54.1658181,37.6010269
8,улица Клюева,300012,54.1662618,37.6014185
6,улица Клюева,300012,54.1666573,37.6017954
2,улица Клюева,300012,54.1674323,37.6028180
4,улица Клюева,300012,54.1670491,37.6023730
10,улица Циолковского,300012,54.1680082,37.6023122
3,переулок Шевченко,300035,54.1677114,37.6019038
5,переулок Шевченко,300012,54.1673520,37.6015084
7,переулок Шевченко,300012,54.1669516,37.6010558
49А,Шахтёрская улица,300911,54.0965715,37.6099673
49Б,Шахтёрская улица,300911,54.0966071,37.6106188
2,Шоссейная улица,300911,54.0943898,37.6097410
4,Шоссейная улица,300911,54.0944621,37.6109626
51,Шахтёрская улица,300911,54.0959230,37.6081521
43,Шахтёрская улица,300911,54.0958619,37.6087112
47,Шахтёрская улица,300911,54.0958819,37.6091347
49,Шахтёрская улица,300911,54.0959076,37.6095739
45,Шахтёрская улица,300911,54.0954802,37.6095507
7,Центральная улица,300911,54.0977599,37.6028466
1,Клубная улица,300911,54.1001250,37.6052337
27,Клубная улица,300911,54.0965918,37.6034970
1,улица Болдина,300013,54.1896753,37.5715639
3,улица Болдина,300013,54.1893108,37.5716374
5,улица Болдина,300013,54.1889507,37.5717346
7,улица Болдина,300013,54.1885812,37.5718163
12,улица Машинистов,300013,54.1882444,37.5719046
9,улица Болдина,300013,54.1878760,37.5718443
2,улица Болдина,300013,54.1895806,37.5706277
16,улица Костычева,300013,54.1894070,37.5698313
4,улица Болдина,300013,54.1892228,37.5707440
6,улица Болдина,300013,54.1888698,37.5708365
8,улица Болдина,300013,54.1885025,37.5709212
5,улица Машинистов,300013,54.1886260,37.5701746
3,улица Машинистов,300013,54.1883981,37.5695727
12 к2,улица Костычева,300013,54.1888396,37.5692992
14,улица Костычева,300013,54.1891810,37.5690253
12 к1,улица Костычева,300013,54.1888254,37.5685455
1,улица Машинистов,300013,54.1881929,37.5687947
10,улица Костычева,300013,54.1884396,37.5682967
8,улица Костычева,300013,54.1880001,37.5681209
6,улица Костычева,300013,54.1874016,37.5678678
4,улица Костычева,300013,54.1867979,37.5676160
2,улица Костычева,300013,54.1863974,37.5674473
14,Серебровская улица,300013,54.1863015,37.5685296
12,Серебровская улица,300013,54.1866472,37.5689425
10,Серебровская улица,300013,54.1870499,37.5690027
8,Серебровская улица,300013,54.1871814,37.5696014
6,Серебровская улица,300013,54.1875470,37.5700066
2,улица Машинистов,300013,54.1877886,37.5687513
4,улица Машинистов,300013,54.1880139,37.5692787
6А,Серебровская улица,300013,54.1878035,37.5696823
4,Серебровская улица,300013,54.1877036,37.5707463
8,улица Машинистов,300013,54.1881669,37.5705635
10,улица Болдина,300013,54.1881478,37.5711494
15,улица Болдина,300013,54.1866917,37.5726080
63А,улица Металлургов,300031,54.1957743,37.6772106
71А,улица Металлургов,300031,54.1956693,37.6730353
63А,улица Металлургов,300031,54.1958436,37.6772081
85,улица Металлургов,300031,54.1955935,37.6669003
77Б,улица Металлургов,300031,54.1956131,37.6711552
1,1-й проезд Металлургов,300031,54.1922950,37.6754756
4,Приупская улица,300031,54.1929289,37.6723271
3,улица Генерала Маргелова,300026,54.1464554,37.5741588
11,улица Дзержинского,300000,54.1925873,37.6259506
67А,улица Николая Руднева,300026,54.1586626,37.5885508
159,улица Кирова,300004,54.2125499,37.6636548
44,улица Жуковского,300024,54.1857801,37.6150272
3,улица Фрунзе,300041,54.2004137,37.5921671
1,улица Фрунзе,300041,54.1999168,37.5917130
20,улица Сойфера,300041,54.1997725,37.5925573
1Г,улица Фрунзе,300041,54.1995696,37.5916369
18,улица 9 Мая,300028,54.1674669,37.5778359
8,Гражданский переулок,300028,54.1692315,37.5770008
53,посёлок Лесной,301214,54.0809379,37.5443423
16,Октябрьская улица,300903,54.1200706,37.5557510
7,Красноглазовский проезд,300911,54.0983823,37.5885725
89А,улица Степанова,300001,54.2034458,37.6428535
43,Ханинский проезд,300024,54.1847811,37.5578492
37,Ханинский проезд,300024,54.1864676,37.5558590
25/2,Ханинский проезд,300024,54.1860258,37.5477046
6А,Ханинский проезд,300024,54.1869607,37.5473622
8Б,Ханинский проезд,300024,54.1875258,37.5507886
25/1,Ханинский проезд,300024,54.1864524,37.5476932
17,Ханинский проезд,300024,54.1864360,37.5455745
4,улица Лейтейзена,300041,54.1991630,37.6011817
38 к4,Октябрьская улица,300002,54.2097076,37.6196196
39,Октябрьская улица,300002,54.2099580,37.6213604
4А,улица Декабристов,300001,54.2065188,37.6454843
10,Ханинский проезд,300024,54.1868853,37.5522862
12,Ханинский проезд,300024,54.1868976,37.5530651
12/1,Ханинский проезд,300024,54.1868846,37.5535545
12А,Ханинский проезд,300024,54.1872825,37.5529275
6,Ханинский проезд,300024,54.1871441,37.5491604
6/1,Ханинский проезд,300024,54.1869893,37.5481298
8,Ханинский проезд,300024,54.1870138,37.5511036
13А,улица Сойфера,300041,54.1981725,37.5983830
5,улица Коминтерна,300041,54.1992489,37.6103067
18,Благовещенская улица,300041,54.1976002,37.6141255
8,Тульская улица,300013,54.1784974,37.5760767
26В,улица Марата,300001,54.1997226,37.6451616
1,проезд Батищева,300004,54.2129743,37.6725011
9,улица Баженова,300004,54.2129705,37.6717536
24 к2,улица Шухова,300004,54.2076492,37.6690465
26А,улица Шухова,300004,54.2080003,37.6697539
28А,улица Шухова,300004,54.2083345,37.6704469
124,Ложевая улица,300001,54.2009210,37.6427992
126,Ложевая улица,300001,54.2008997,37.6449695
20,улица Кирова,300001,54.1995583,37.6494202
45А,улица Плеханова,300001,54.2016595,37.6412799
23В,улица Кирова,300001,54.1992724,37.6470458
45Б,улица Кутузова,300053,54.2031940,37.6808877
5,Калужское шоссе,300026,54.1557529,37.5791147
105А,Староникитская улица,300045,54.1800856,37.6298616
20,улица Рихарда Зорге,300004,54.2050722,37.6702806
20А,улица Рихарда Зорге,300004,54.2046304,37.6706366
22А,улица Рихарда Зорге,300004,54.2049385,37.6712701
24,улица Рихарда Зорге,300004,54.2055850,37.6712936
24А,улица Рихарда Зорге,300004,54.2052822,37.6717452
25,улица Немцова,300004,54.2044229,37.6699972
26А,улица Рихарда Зорге,300004,54.2056304,37.6724112
28,улица Рихарда Зорге,300004,54.2062486,37.6726109
28А,улица Рихарда Зорге,300004,54.2058523,37.6730728
157А,улица Плеханова,300040,54.1963199,37.6561595
108,улица Металлургов,300031,54.1964263,37.6628446
10А,улица Горсовета,300016,54.1858753,37.6866816
4,Орловское шоссе,300903,54.1224434,37.5603441
12,Демешковская улица,300903,54.1214963,37.5538315
10,улица Шмидта,300903,54.1238446,37.5515454
11,улица Шмидта,300903,54.1243029,37.5493850
13,улица Шмидта,300903,54.1248969,37.5495607
16,улица Шмидта,300903,54.1252674,37.5510433
30,улица Победы,300903,54.1262439,37.5481048
12,улица Шмидта,300903,54.1242748,37.5509140
13,улица Михеева,300012,54.1736058,37.6177830
19,улица Михеева,300012,54.1737447,37.6151107
25,улица Михеева,300012,54.1741260,37.6140531
29,улица Михеева,300012,54.1745363,37.6130120
11,улица Мориса Тореза,300012,54.1768357,37.6032368
9,улица Мориса Тореза,300012,54.1777763,37.6041482
9А,улица Мориса Тореза,300012,54.1777433,37.6050310
7,улица Мориса Тореза,300012,54.1784764,37.6049012
3,улица Мориса Тореза,300012,54.1791502,37.6056442
59А,Орловское шоссе,300903,54.1111194,37.5566920
15,Орловское шоссе,300903,54.1194550,37.5593478
91А,проспект Ленина,300012,54.1731901,37.5977077
3,улица Шмидта,300903,54.1222145,37.5484376
10А,"Пионерская улица, Первомайский",300026,54.1326334,37.5757449
7,Пионерская улица,300904,54.1316079,37.5737242
25,Щёкинское шоссе,300026,54.1314513,37.5781799
5,улица Шмидта,300903,54.1224680,37.5484719
8Б,Пионерская улица,300904,54.1311530,37.5758824
8,Пионерская улица,300904,54.1311898,37.5750667
9,Пионерская улица,300904,54.1316122,37.5745296
15,Пионерская улица,300904,54.1319468,37.5741154
10А/1,"Пионерская улица, Первомайский",300026,54.1323831,37.5749887
24,Оборонная улица,300000,54.1866518,37.6235628
2,улица Колетвинова,300000,54.1854466,37.6224342
38А,Тургеневская улица,300041,54.1871675,37.6141914
24Д,улица Коминтерна,300041,54.2025642,37.5933869
26Б,улица Пушкина,300903,54.1188453,37.5554945
20,улица Чекалина,300012,54.1681467,37.6040061
18,улица Чекалина,300012,54.1683073,37.6041844
27/5,переулок Врубовый/Чекалина,300012,54.1692894,37.6060385
22,улица Чекалина,300012,54.1679434,37.6037664
1/19,улица Чекалина/улица Агеева,300012,54.1698901,37.6067059
14,улица Чекалина,300012,54.1687627,37.6047382
12,улица Чекалина,300035,54.1690056,37.6049439
16/24,улица Чекалина/ переулок Отбойный,300012,54.1685363,37.6043897
20,улица Агеева,300012,54.1697082,37.6071854
9А,улица Чекалина,300012,54.1688654,37.6056412
25/11,переулок Отбойный/ улица Чекалина,300012,54.1684764,37.6052788
26/7,переулок Врубовый/ улица Чекалина,300012,54.1690761,37.6058295
9,улица Чекалина,300012,54.1686876,37.6055841
29,Врубовый переулок,300012,54.1690929,37.6065123
10,улица Чекалина,300012,54.1693019,37.6052296
151,проспект Ленина,300026,54.1468298,37.5854275
51 к3,улица Кауля,300012,54.1759664,37.6153551
40А,улица Баженова,300004,54.2074158,37.6779217
41А,улица Кутузова,300004,54.2067083,37.6760181
43А,улица Кутузова,300004,54.2064323,37.6764656
14,улица Столетова,300016,54.1761688,37.7071971
15,улица Столетова,300016,54.1757702,37.7071118
9,улица Столетова,300016,54.1755158,37.7062784
8,улица Столетова,300016,54.1752631,37.7068855
7,улица Столетова,300016,54.1750307,37.7074591
16,улица Столетова,300016,54.1756551,37.7076440
18,улица Столетова,300016,54.1761190,37.7082469
17,улица Столетова,300016,54.1757281,37.7081910
1,улица Столетова,300016,54.1761767,37.7087949
6,улица Столетова,300016,54.1747809,37.7080595
5,улица Столетова,300016,54.1749905,37.7085254
4,улица Столетова,300016,54.1753005,37.7089532
3,улица Столетова,300016,54.1756767,37.7092495
2,улица Столетова,300016,54.1760729,37.7092863
10,улица Доктора Гумилевской,300016,54.1770898,37.7028105
12,улица Доктора Гумилевской,300016,54.1766609,37.7027394
14,улица Доктора Гумилевской,300016,54.1762398,37.7026494
70,улица Н.Островского,300016,54.1736201,37.6993396
27,улица Ершова,300045,54.1722896,37.6239201
29,улица Ершова,300045,54.1717270,37.6240947
116,улица Будённого,300045,54.1723864,37.6249016
29А,улица Максима Горького,300903,54.1144372,37.5327571
10,улица Столетова,300016,54.1762761,37.7063990
3,5-я Криволученская улица,300016,54.1752188,37.6973813
19,Хомяковская улица,300908,54.2872360,37.6161165
23,Хомяковская улица,300908,54.2857923,37.6178388
37,Хомяковская улица,300908,54.2854377,37.6191121
14,Хомяковская улица,300908,54.2856963,37.6170232
25,Хомяковская улица,300908,54.2860552,37.6183093
16,Хомяковская улица,300908,54.2853900,37.6175306
17,Хомяковская улица,300908,54.2877326,37.6145336
12А,Хомяковская улица,300908,54.2864202,37.6157892
100,улица Карпова,300022,54.2412620,37.6195942
17,Хомяковская улица,300908,54.2876786,37.6155482
17,Хомяковская улица,300908,54.2874848,37.6153480
21А,Хомяковская улица,300908,54.2869195,37.6175270
38Б,улица Вильямса,300010,54.2100801,37.6906060
41,улица Генерала Маргелова,300026,54.1527450,37.5690810
38 к2,Октябрьская улица,300002,54.2102412,37.6193862
38 к3,Октябрьская улица,300002,54.2099290,37.6189695
157,проспект Ленина,300026,54.1460975,37.5838428
3,улица Вересаева,300034,54.1952303,37.5888731
54,Рязанская улица,300045,54.1744062,37.6416227
2,улица Лейтейзена,300041,54.1998367,37.6013025
54,Городской переулок,300012,54.1572323,37.6077111
91,Октябрьская улица,300062,54.2169635,37.6253813
173,улица Кирова,300004,54.2170043,37.6738742
13,Орловское шоссе,300903,54.1200765,37.5600981
4Ц,Орловское шоссе,300903,54.1211912,37.5601202
4/1,Орловское шоссе,300903,54.1210633,37.5609769
1,Орловское шоссе,300903,54.1229760,37.5606006
11,Орловское шоссе,300903,54.1205954,37.5603322
96 к3,улица Тульского Рабочего Полка,300028,54.1745220,37.5807602
96 к4,улица Тульского Рабочего Полка,300028,54.1740247,37.5802371
12Б,улица Лейтейзена,300041,54.1928918,37.6012265
12В,улица Лейтейзена,300041,54.1925976,37.6012624
89,Староникитская улица,300045,54.1806232,37.6297258
2А,Павшинский мост,300005,54.2071969,37.5789030
3,Павшинский мост,300005,54.2077228,37.5747117
3,Павшинский мост,300005,54.2075130,37.5754396
29,улица Мосина,300041,54.2026149,37.5947186
18,улица Металлистов,300041,54.1991510,37.6160550
19,улица Металлистов,300041,54.1990341,37.6154819
3А,улица Ликбеза,300005,54.2084880,37.5733168
48 к3,Красноармейский проспект,300041,54.1997380,37.5796225
22 к1,улица Сурикова,300039,54.1623566,37.5672058
11,Филимоновская улица,300028,54.1691211,37.5596677
9,Филимоновская улица,300028,54.1688459,37.5595814
17,Филимоновская улица,300028,54.1709576,37.5606287
7,Филимоновская улица,300028,54.1687058,37.5606246
13,Филимоновская улица,300028,54.1693975,37.5597858
15,Филимоновская улица,300028,54.1698399,37.5597851
42,улица Сафонова,300024,54.1791584,37.5432531
40,улица Сафонова,300024,54.1792342,37.5437057
44,улица Сафонова,300024,54.1789414,37.5427951
63,Одоевское шоссе,300036,54.1922902,37.5422810
7А,улица Ликбеза,300005,54.2079646,37.5714252
1А,улица Чмутова,300005,54.2085211,37.5692796
15,Нижняя Упская улица,300005,54.2084294,37.5756427
1А,улица Ликбеза,300005,54.2075246,37.5703659
3,улица Ликбеза,300005,54.2082775,37.5720190
2,улица Нижняя Cтуденкa,300005,54.2080495,37.5715654
22,улица Макаренко,300028,54.1678692,37.5682374
33А,улица Мосина,300041,54.2019608,37.5875948
5,Поперечная улица,300005,54.1920719,37.5592927
23Б,Верхняя Краснослободская улица,300005,54.2051001,37.5682295
16,улица Ликбеза,300005,54.2068821,37.5690927
20,улица Ликбеза,300005,54.2062648,37.5675169
18,улица Ликбеза,300005,54.2065051,37.5685309
2А,улица Большая Кулига,300005,54.2091189,37.5725372
1В,улица Чмутова,300005,54.2079283,37.5691855
1А,улица Чмутова,300005,54.2080407,37.5676713
1В к3,улица Чмутова,300005,54.2070261,37.5669104
64 к1,Нижняя Упская улица,300005,54.2093140,37.5732801
66,Нижняя Упская улица,300005,54.2091343,37.5730193
1,Верхняя Краснослободская улица,300005,54.2074669,37.5656977
3,Верхняя Краснослободская улица,300005,54.2071685,37.5659905
5,Верхняя Краснослободская улица,300005,54.2070360,37.5661181
73,Советская улица,300041,54.1919096,37.6276906
15 к1,улица Дзержинского,300041,54.1922873,37.6271587
15 к3,улица Дзержинского,300041,54.1924243,37.6267352
15 к2,улица Дзержинского,300041,54.1932041,37.6281586
73 к2,Советская улица,300041,54.1930122,37.6286180
18А,улица Сойфера,300041,54.2000473,37.5982805
18,улица Сойфера,300041,54.1993674,37.5970623
5Б,улица Генерала Маргелова,300026,54.1451092,37.5708378
5А,улица Генерала Маргелова,300026,54.1455716,37.5713071
9,Щёкинское шоссе,300026,54.1344051,37.5798468
8В,"Пионерская улица, Первомайский",300026,54.1311500,37.5767924
8,улица Малые Гончары,300057,54.2239467,37.6025564
17А,Хомяковская улица,300908,54.2871228,37.6154942
6,"Архангельская улица, Хомяково",300908,54.2807932,37.6224124
26,Хомяковская улица,300908,54.2822034,37.6201494
16А,Хомяковская улица,300908,54.2839900,37.6176975
16В,Хомяковская улица,300908,54.2831382,37.6188264
15,Хомяковская улица,300908,54.2885682,37.6137582
8,Хомяковская улица,300908,54.2887998,37.6116992
8,Хомяковская улица (Хомяково),300908,54.2890987,37.6112344
13,Хомяковская улица,300908,54.2888948,37.6132352
11,Хомяковская улица,300908,54.2892063,37.6126950
9,Хомяковская улица,300908,54.2895098,37.6122242
5,Хомяковская улица,300908,54.2902791,37.6108880
1,Хомяковская улица,300908,54.2918667,37.6088802
1-6,Хомяковская улица,300908,54.2909646,37.6089404
4,Хомяковская улица,300908,54.2899356,37.6098374
2,Хомяковская улица,300908,54.2905761,37.6084861
57Б,Пушкинская улица,300034,54.1914675,37.5984446
68,улица Пирогова,300000,54.1817877,37.6127781
2,Новомедвенский проезд,300002,54.2157471,37.6872810
1А,улица Фрунзе,300041,54.2018645,37.5932696
28,улица Коминтерна,300041,54.2014015,37.5935157
24Б,улица Коминтерна,300041,54.2013820,37.5952918
24Г,улица Коминтерна,300041,54.2016021,37.5965303
24В,улица Коминтерна,300041,54.2011749,37.5964159
31,улица Коминтерна,300041,54.2005798,37.5954098
2Б,улица Фрунзе,300041,54.2015785,37.5913762
55А,Пушкинская улица,300034,54.1912349,37.5997190
18,улица Лейтейзена,300034,54.1914780,37.6015058
58А,Пушкинская улица,300034,54.1916981,37.6002880
24В,улица Демонстрации,300034,54.1921436,37.5989817
17,улица Максимовского,300062,54.2162356,37.6324917
95В,Октябрьская улица,300062,54.2174946,37.6259339
31А,улица Галкина,300062,54.2162766,37.6285561
69,Октябрьская улица,300062,54.2149905,37.6250673
2,Павшинский мост,300005,54.2083214,37.5765076
2,Павшинский мост,300005,54.2087244,37.5768712
101 к5,улица Тимирязева,300012,54.1699263,37.6106939
25,улица Фрунзе,300034,54.1883322,37.5929291
27,улица Фрунзе,300034,54.1876180,37.5930951
13 к3,Первомайская улица,300035,54.1833623,37.5974610
5,переулок Пархоменко,300012,54.1625186,37.5974680
1,переулок Станиславского,300012,54.1629996,37.5980667
3,улица Фёдора Смирнова,300041,54.2009042,37.5861041
1,улица Фёдора Смирнова,300041,54.2013802,37.5869237
27А,улица Фрунзе,300034,54.1874694,37.5943781
22,Тургеневская улица,300041,54.1892730,37.6165867
64А,Октябрьская улица,300062,54.2153951,37.6224781
17 к2,улица Луначарского,300002,54.2063215,37.6169783
17 к3,улица Луначарского,300002,54.2066339,37.6171972
36,Октябрьская улица,300002,54.2094722,37.6202305
81А,Октябрьская улица,300062,54.2146751,37.6244196
4,Хлебная площадь,300041,54.1873099,37.6208690
15,улица Пирогова,300000,54.1876785,37.6198773
14,улица Фрунзе,300034,54.1924591,37.5908776
9А,улица Братьев Жабровых,300034,54.1938234,37.5880097
25,"Киреевская улица, Менделеевский",300026,54.1135582,37.5929135
27,"Киреевская улица, Менделеевский",300026,54.1133086,37.5932871
29,"Киреевская улица, Менделеевский",300026,54.1128516,37.5939283
4А,улица Смидович,300012,54.1699555,37.5871065
6В,улица Смидович,300012,54.1697208,37.5865607
6А,улица Смидович,300012,54.1691840,37.5860340
18А,1-й проезд Мясново,300005,54.2028252,37.5624670
18,1-й проезд Мясново,300005,54.2030041,37.5624223
12/1,Воздухофлотская улица,300005,54.2027697,37.5632754
21,улица Кабакова,300005,54.2044338,37.5606923
4,1-й проезд Мясново,300005,54.2042962,37.5609530
6,1-й проезд Мясново,300005,54.2041846,37.5610821
8,1-й проезд Мясново,300005,54.2039891,37.5612859
10,1-й проезд Мясново,300005,54.2037689,37.5616014
12,1-й проезд Мясново,300005,54.2035597,37.5618125
14,1-й проезд Мясново,300005,54.2032330,37.5619016
16,1-й проезд Мясново,300005,54.2030800,37.5622156
23А,улица Кабакова,300005,54.2041930,37.5603857
22,улица Кабакова,300005,54.2047943,37.5604122
2А,1-й проезд Мясново,300005,54.2049817,37.5602095
24А,улица Кабакова,300005,54.2045468,37.5597593
24,улица Кабакова,300005,54.2046570,37.5599870
18,Воздухофлотская улица,300005,54.2026798,37.5622572
23А,2-й проезд Мясново,300005,54.2024866,37.5618459
23,2-й проезд Мясново,300005,54.2026575,37.5616328
21,2-й проезд Мясново,300005,54.2028351,37.5615025
19,2-й проезд Мясново,300005,54.2029564,37.5613004
17,2-й проезд Мясново,300005,54.2030941,37.5611313
15,2-й проезд Мясново,300005,54.2032518,37.5610063
13,2-й проезд Мясново,300005,54.2034374,37.5607940
5,2-й проезд Мясново,300005,54.2040265,37.5601280
7,2-й проезд Мясново,300005,54.2038846,37.5603466
9,2-й проезд Мясново,300005,54.2037210,37.5605091
23,улица Кабакова,300005,54.2041651,37.5599935
11,2-й проезд Мясново,300005,54.2036142,37.5608120
6,улица Ликбеза,300005,54.2085714,37.5716854
8,улица Ликбеза,300005,54.2085340,37.5714324
2,улица Чмутова,300005,54.2084021,37.5711316
10,Клинской проезд,300005,54.2050866,37.5624786
11,1-й проезд Мясново,300005,54.2046377,37.5612610
15,улица Кабакова,300005,54.2049053,37.5619752
17,улица Кабакова,300005,54.2048225,37.5617712
17А,улица Кабакова,300005,54.2047532,37.5615779
14,Клинской проезд,300005,54.2046253,37.5629756
12,Клинской проезд,300005,54.2047969,37.5627444
16,Клинской проезд,300005,54.2044875,37.5630995
18,Клинской проезд,300005,54.2043215,37.5632882
28,Клинской проезд,300005,54.2034057,37.5642844
26,Клинской проезд,300005,54.2037258,37.5639041
24,Клинской проезд,300005,54.2038686,37.5638266
22,Клинской проезд,300005,54.2040260,37.5636568
20,Клинской проезд,300005,54.2041727,37.5634874
12,Воздухофлотская улица,300005,54.2031255,37.5634950
10,Воздухофлотская улица,300005,54.2032775,37.5638740
29,1-й проезд Мясново,300005,54.2029843,37.5631591
25А,1-й проезд Мясново,300005,54.2034326,37.5626294
27,1-й проезд Мясново,300005,54.2032576,37.5628371
17,1-й проезд Мясново,300005,54.2040221,37.5619744
13,1-й проезд Мясново,300005,54.2043728,37.5615835
15,1-й проезд Мясново,300005,54.2041754,37.5618001
23,1-й проезд Мясново,300005,54.2036161,37.5626764
21,1-й проезд Мясново,300005,54.2037051,37.5623223
19,1-й проезд Мясново,300005,54.2038528,37.5621472
140,проспект Ленина,300026,54.1491996,37.5784832
132,проспект Ленина,300026,54.1503223,37.5805705
132,проспект Ленина,300026,54.1501872,37.5801058
130,проспект Ленина,300026,54.1501358,37.5813864
130,проспект Ленина,300026,54.1502709,37.5818512
134,проспект Ленина,300026,54.1502207,37.5786441
124,проспект Ленина,300026,54.1517177,37.5821927
124А,проспект Ленина,300026,54.1509920,37.5819991
5В,улица Генерала Маргелова,300026,54.1459282,37.5704361
5В,улица Генерала Маргелова,300026,54.1456219,37.5703633
9А,улица Генерала Маргелова,300026,54.1464300,37.5675986
7Б,улица Генерала Маргелова,300026,54.1463602,37.5690056
7В,улица Генерала Маргелова,300026,54.1458942,37.5685268
6,улица Мориса Тореза,300012,54.1810871,37.6067215
66А,проспект Ленина,300012,54.1808026,37.6018225
10,Новомосковская улица,300045,54.1813646,37.6424841
16,Новомосковская улица,300045,54.1835290,37.6423999
26А,улица Демонстрации,300034,54.1920862,37.5985283
22,улица Демонстрации,300034,54.1923225,37.5996601
20Б,улица Демонстрации,300034,54.1923586,37.6003034
14,улица Революции,300034,54.1934718,37.5983094
221 к1,Октябрьская улица,300022,54.2361225,37.6231965
221 к2,Октябрьская улица,300022,54.2362799,37.6237536
7,улица Макаренко,300039,54.1677066,37.5700896
3,улица Строителей,300004,54.2074683,37.6609232
17 к1,2-й проезд Гастелло,300053,54.2038501,37.6985298
221 к3,Октябрьская улица,300022,54.2367403,37.6242613
42/60,Гоголевская улица,300024,54.1842521,37.6133284
9,Пушкинская улица,300024,54.1855711,37.6154271
3,улица Константина Паустовского,300036,54.1907602,37.5179834
2,улица Строителей,300004,54.2057010,37.6591825
31,улица Хворостухина,300010,54.2160001,37.6788765
33,улица Хворостухина,300010,54.2156592,37.6800006
4,2-й Южный проезд,300026,54.1671577,37.5927778
4,2-й Южный проезд,300026,54.1670228,37.5926034
5,улица Шевченко,300035,54.1665097,37.5968358
19,улица Мезенцева,300012,54.1629637,37.5964480
3,переулок Пархоменко,300012,54.1626908,37.5970893
2,переулок Станиславского,300012,54.1631807,37.5975691
17,улица Мезенцева,300012,54.1634076,37.5970095
9Б,улица Софьи Перовской,300034,54.1896857,37.6014812
9А,улица Софьи Перовской,300034,54.1898813,37.6009907
24,улица Свободы,300041,54.1886008,37.6045785
148А,улица Демонстрации,300034,54.1919068,37.5785049
20А,улица Фрунзе,300034,54.1882336,37.5911069
36,Серебровская улица,300028,54.1736470,37.5700020
91,Одоевское шоссе,300005,54.1942181,37.5618123
103,Верхняя Краснослободская улица,300005,54.1961641,37.5668542
16,улица Полюсная,300036,54.1971681,37.5373730
58,8-й проезд Мясново,300005,54.1983314,37.5540759
69Б,улица Болотова,300005,54.1958224,37.5641943
1,Одоевское шоссе,300005,54.1947763,37.5652321
9Б,Санаторная улица,300036,54.1924565,37.5508395
6Б,улица Смидович,300012,54.1694518,37.5863034
89 к1,Староникитская улица,300045,54.1808448,37.6307622
5,улица Вознесенского,300026,54.1540368,37.5892617
44 к4,улица Мезенцева,300026,54.1581869,37.5932422
34Г,улица Академика Павлова,300026,54.1582566,37.5982836
1 к3,Павшинский мост,300005,54.2049169,37.5766742
1 к1,Павшинский мост улица,300005,54.2052574,37.5790511
17Б,Мирная улица,300901,54.2563180,37.6166708
17Б/2,Мирная улица,300901,54.2560407,37.6158020
17Б/1,Мирная улица,300901,54.2563206,37.6158359
19,улица Пузакова,300057,54.2208068,37.6139421
23,улица Пузакова,300057,54.2207937,37.6166154
25,улица Пузакова,300057,54.2208581,37.6156154
1Г,улица Максима Горького,300062,54.2126266,37.6276460
7,3-й Чистый проезд,300901,54.2514314,37.6185519
2А,Богучаровская улица,300022,54.2418529,37.6241116
73,улица Токарева,300020,54.2267830,37.6176341
22А,Литейная улица,300002,54.2088760,37.6138415
30,улица Баженова,300004,54.2093809,37.6759021
10Б,улица Шухова,300004,54.2054846,37.6643675
14А,улица Шухова,300004,54.2057466,37.6649192
180А,улица Кирова,300004,54.2096335,37.6628752
17,Ряжская улица,300002,54.2105922,37.6293138
18,Ряжская улица,300002,54.2108839,37.6297389
174,улица Кирова,300004,54.2085922,37.6599821
3,улица Большая Кулига,300005,54.2088617,37.5718116
5,улица Большая Кулига,300005,54.2090236,37.5717382
7,улица Большая Кулига,300005,54.2091782,37.5716332
9,улица Большая Кулига,300005,54.2093296,37.5715704
11,улица Большая Кулига,300005,54.2095030,37.5714681
13,улица Большая Кулига,300005,54.2096430,37.5714079
15,улица Большая Кулига,300005,54.2098272,37.5714027
17,улица Большая Кулига,300005,54.2099829,37.5713250
23,улица Большая Кулига,300005,54.2103565,37.5711919
19,улица Большая Кулига,300005,54.2101153,37.5712647
21,улица Большая Кулига,300005,54.2102326,37.5712766
25,улица Большая Кулига,300005,54.2105537,37.5710729
27,улица Большая Кулига,300005,54.2107283,37.5710403
29,улица Большая Кулига,300005,54.2109837,37.5709462
31,улица Большая Кулига,300005,54.2110892,37.5708634
33,улица Большая Кулига,300005,54.2112215,37.5708206
37,улица Большая Кулига,300005,54.2114897,37.5706914
39,улица Большая Кулига,300005,54.2116405,37.5706074
41,улица Большая Кулига,300005,54.2117922,37.5705693
2А,улица Большая Кулига,300005,54.2089653,37.5724559
2,улица Большая Кулига,300005,54.2088017,37.5722330
4,улица Большая Кулига,300005,54.2089400,37.5722226
6,улица Большая Кулига,300005,54.2091777,37.5720209
8,улица Большая Кулига,300005,54.2093612,37.5723207
10,улица Большая Кулига,300005,54.2095130,37.5719445
12,улица Большая Кулига,300005,54.2096323,37.5719614
14,улица Большая Кулига,300005,54.2097475,37.5719020
18,улица Большая Кулига,300005,54.2099765,37.5718794
18,улица Большая Кулига,300005,54.2102065,37.5716963
20,улица Большая Кулига,300005,54.2103381,37.5716163
22,улица Большая Кулига,300005,54.2105350,37.5715278
24,улица Большая Кулига,300005,54.2106838,37.5714930
26,улица Большая Кулига,300005,54.2108742,37.5715738
28,улица Большая Кулига,300005,54.2110650,37.5714617
28А,улица Большая Кулига,300005,54.2112351,37.5716193
30,улица Большая Кулига,300005,54.2113031,37.5712970
32,улица Большая Кулига,300005,54.2114396,37.5711156
36,улица Большая Кулига,300005,54.2118595,37.5709225
34,улица Большая Кулига,300005,54.2115730,37.5710740
44А,улица Большая Кулига,300005,54.2120995,37.5709261
40,улица Большая Кулига,300005,54.2121804,37.5714131
42,улица Большая Кулига,300005,54.2123514,37.5715661
8,улица Баженова,300004,54.2135312,37.6699010
5Е,Рязанская улица,300012,54.1623984,37.6144648
215,Октябрьская улица,300022,54.2327405,37.6263505
22,улица Революции,300034,54.1929482,37.5890740
1,улица Гагарина,300062,54.2279034,37.6313187
217 к3,Октябрьская улица,300022,54.2348813,37.6256422
217 к2,Октябрьская улица,300022,54.2346281,37.6249421
217 к1,Октябрьская улица,300022,54.2343532,37.6243680
6,Санаторный переулок,300036,54.1945542,37.5549036
60А,Новомосковское шоссе,300045,54.1546731,37.6375321
17,улица Макара Мазая,300016,54.1826810,37.6988624
91 к3,Оборонная улица,300045,54.1760151,37.6339049
54,улица Некрасова,300045,54.1703620,37.6243128
24,улица Демьянова,300045,54.1717962,37.6207501
45,улица Большая Кулига,300005,54.2121937,37.5704046
47,улица Большая Кулига,300005,54.2123553,37.5703257
49,улица Большая Кулига,300005,54.2125070,37.5703035
51,улица Большая Кулига,300005,54.2125761,37.5699690
53,улица Большая Кулига,300005,54.2127316,37.5701563
55,улица Большая Кулига,300005,54.2128461,37.5701337
57,улица Большая Кулига,300005,54.2129989,37.5701166
44,улица Большая Кулига,300005,54.2122931,37.5707233
46,улица Большая Кулига,300005,54.2124231,37.5706643
48,улица Большая Кулига,300005,54.2126049,37.5707104
50,улица Большая Кулига,300005,54.2127104,37.5705885
52,улица Большая Кулига,300005,54.2128425,37.5705320
54,улица Большая Кулига,300005,54.2129887,37.5705089
56,улица Большая Кулига,300005,54.2131167,37.5704837
178А,улица Кирова,300004,54.2098585,37.6623975
11А,Красноармейский проспект,300041,54.1967363,37.6018500
9,улица Николая Руднева,300012,54.1703954,37.6011950
32,улица Дружбы,300036,54.1981604,37.5387970
26,улица Демьянова,300045,54.1702186,37.6181322
3,улица Лётчика Пирожкова,300036,54.1900769,37.5174966
31,Кудрявцевская улица,300903,54.1129708,37.5602072
1,Кудрявцевская улица,300903,54.1159229,37.5614408
2,Кудрявцевская улица,300903,54.1156761,37.5608857
17,улица Черняховского,300903,54.1131884,37.5589019
47,Орловское шоссе,300903,54.1133781,37.5575876
12,улица Черняховского,300903,54.1132354,37.5584849
19,Новая улица,300903,54.1125968,37.5630719
22,Новая улица,300903,54.1126809,37.5625502
1,Новая улица,300903,54.1145009,37.5638807
2,Новая улица,300903,54.1147436,37.5634951
2А,Новая улица,300903,54.1150461,37.5633177
7,Речная улица,300903,54.1124194,37.5640713
1Б,Речная улица,300903,54.1139368,37.5645976
44,Новая улица,300903,54.1105254,37.5617367
42,Новая улица,300903,54.1107182,37.5618413
34,Новая улица,300903,54.1114070,37.5620998
40,Новая улица,300903,54.1108995,37.5619023
38,Новая улица,300903,54.1110673,37.5619570
36,Новая улица,300903,54.1112316,37.5620398
32,Новая улица,300903,54.1115752,37.5621718
30,Новая улица,300903,54.1117583,37.5622424
28,Новая улица,300903,54.1119711,37.5623126
26,Новая улица,300903,54.1121926,37.5623984
24,Новая улица,300903,54.1123647,37.5624378
39,Новая улица,300903,54.1104586,37.5622728
15,Речная улица,300903,54.1103537,37.5631806
8,Речная улица,300903,54.1121348,37.5639129
21,Новая улица,300903,54.1122922,37.5629816
24,улица Черняховского,300903,54.1110428,37.5575739
49,Орловское шоссе,300903,54.1129754,37.5574798
14,улица Черняховского,300903,54.1128709,37.5583809
19,улица Черняховского,300903,54.1128787,37.5587422
31,улица Черняховского,300903,54.1109767,37.5579706
32,Кудрявцевская улица,300903,54.1127343,37.5597021
50,Кудрявцевская улица,300903,54.1109046,37.5589745
33,Кудрявцевская улица,300903,54.1126750,37.5601403
55,Кудрявцевская улица,300903,54.1108117,37.5593664
76,Кудрявцевская улица,300903,54.1078466,37.5575027
78,Кудрявцевская улица,300903,54.1076024,37.5573786
54,улица Черняховского,300903,54.1072343,37.5560517
55,улица Черняховского,300903,54.1073550,37.5565689
52,Кудрявцевская улица,300903,54.1105119,37.5587765
66,Кудрявцевская улица,300903,54.1092891,37.5583101
68,Кудрявцевская улица,300903,54.1090564,37.5581850
61А,Орловское шоссе,300903,54.1107133,37.5565476
26,улица Черняховского,300903,54.1107215,37.5573876
71,Кудрявцевская улица,300903,54.1091928,37.5586960
57,Кудрявцевская улица,300903,54.1104521,37.5591978
23,Речная улица,300903,54.1086975,37.5625125
16,Речная улица,300903,54.1100050,37.5630216
41,Новая улица,300903,54.1101016,37.5621430
59,Новая улица,300903,54.1084520,37.5613574
66,Новая улица,300903,54.1082185,37.5606861
64,Новая улица,300903,54.1084391,37.5608713
60,Новая улица,300903,54.1088967,37.5611047
58,Новая улица,300903,54.1091330,37.5611488
56,Новая улица,300903,54.1093047,37.5612776
54,Новая улица,300903,54.1094880,37.5613298
52,Новая улица,300903,54.1096531,37.5614004
46,Новая улица,300903,54.1101668,37.5615912
48,Новая улица,300903,54.1100017,37.5615011
75,Кудрявцевская улица,300903,54.1078328,37.5588053
61,Новая улица,300903,54.1078480,37.5606035
87,Кудрявцевская улица,300903,54.1074024,37.5594342
85,Кудрявцевская улица,300903,54.1074342,37.5586948
81,Кудрявцевская улица,300903,54.1076860,37.5581902
83,Кудрявцевская улица,300903,54.1074469,37.5581359
27,Железнодорожная улица,300903,54.1065807,37.5643638
24,Железнодорожная улица,300903,54.1074409,37.5644711
1,Железнодорожная улица,300903,54.1124578,37.5664039
15А,улица Мира,300028,54.1739501,37.5824410
9,Тургеневская улица,300041,54.1906720,37.6186771
1 к2,Павшинский мост,300005,54.2058737,37.5782315
1 к4,Павшинский мост,300005,54.2044537,37.5775680
1 к5,Павшинский мост,300005,54.2060468,37.5768897
11/1,Советская улица,300041,54.1981404,37.6124830
1,Пионерская улица,300000,54.1890790,37.6278566
33,Тесницкая улица,300022,54.2470565,37.6278951
31,Тесницкая улица,300022,54.2468415,37.6279003
23,Тесницкая улица,300022,54.2458213,37.6280840
25,Тесницкая улица,300022,54.2460790,37.6280733
27,Тесницкая улица,300022,54.2463525,37.6280183
42,Тесницкая улица,300022,54.2472205,37.6269494
36,Тесницкая улица,300022,54.2463554,37.6269967
2А,Фруктовая улица,300022,54.2470742,37.6284538
6А,Фруктовая улица,300022,54.2469151,37.6287559
1,Тесницкая улица,300022,54.2420951,37.6281439
2,Тесницкая улица,300022,54.2415057,37.6274069
28,Тесницкая улица,300022,54.2450271,37.6271173
26,Тесницкая улица,300022,54.2446157,37.6271723
24,Тесницкая улица,300022,54.2443845,37.6271374
22,Тесницкая улица,300022,54.2441416,37.6271468
103,улица Карпова,300022,54.2419968,37.6201137
19,Тесницкая улица,300022,54.2451476,37.6280593
29,Малаховская улица,300022,54.2455707,37.6262916
2,Малаховская улица,300022,54.2415747,37.6259691
11,Тесницкая улица,300022,54.2438274,37.6280712
9,Тесницкая улица,300022,54.2436197,37.6282000
5,Тесницкая улица,300022,54.2430367,37.6281317
2Н,Московское шоссе,300901,54.2512231,37.6103043
10Д,улица Максима Горького,300002,54.2139614,37.6145652
8,улица Максима Горького,300002,54.2136119,37.6152728
10,улица Максима Горького,300002,54.2135789,37.6147169
30,Кудрявцевская улица,300903,54.1130467,37.5598011
78,Московское шоссе,300901,54.2607128,37.6032787
12Е,Хомяковская улица (Хомяково),300908,54.2851453,37.6122769
12Б,Хомяковская улица,300908,54.2861792,37.6154744
12,Хомяковская улица,300908,54.2869582,37.6143571
6/2,Хомяковская улица,300908,54.2890104,37.6105574
6/1,Хомяковская улица,300908,54.2892005,37.6101168
6/1,Хомяковская улица (Хомяково),300908,54.2893805,37.6099074
27,Хомяковская улица,300908,54.2849674,37.6191080
29,Хомяковская улица,300908,54.2846350,37.6196099
31,Хомяковская улица,300908,54.2843579,37.6200635
18,Хомяковская улица,300908,54.2847737,37.6186397
20,Хомяковская улица,300908,54.2844384,37.6192000
22,Хомяковская улица,300908,54.2841451,37.6196637
24,Хомяковская улица,300908,54.2836130,37.6198648
33,Хомяковская улица,300908,54.2838098,37.6204172
35,Хомяковская улица,300908,54.2844595,37.6208015
4,"Архангельская улица, Хомяково",300908,54.2804333,37.6229199
12,"Архангельская улица, Хомяково",300908,54.2799052,37.6234463
12,Светлая улица,300901,54.2615766,37.6194286
2,Светлая улица,300901,54.2626099,37.6158662
45,Ключевая улица,300901,54.2616672,37.6141090
17,Любомудрова улица,300901,54.2635547,37.6257495
32,2-й Горельский проезд,300901,54.2609721,37.6180395
68,улица Энтузиастов,300901,54.2603784,37.6187043
70,улица Энтузиастов,300901,54.2604046,37.6192774
7А,Партизанская улица,300901,54.2533924,37.6001785
1,1-й Партизанский проезд,300901,54.2518334,37.5957174
1,1-й Солнечный проезд,300901,54.2527287,37.5982602
3,1-й Солнечный проезд,300901,54.2524661,37.5986107
8,2-й Солнечный проезд,300901,54.2526067,37.5963421
13,1-й Солнечный проезд,300901,54.2520081,37.5964199
8А,Партизанская улица,300901,54.2545089,37.5991274
16,Молодёжная улица,300901,54.2550989,37.6061830
15,Молодёжная улица,300901,54.2549748,37.6063140
6,Молодёжная улица,300901,54.2535213,37.6076394
1,Молодёжная улица,300901,54.2525629,37.6078570
4А,Московское шоссе,300901,54.2531119,37.6085985
2,Молодёжная улица,300901,54.2527221,37.6077262
32,Московское шоссе,300901,54.2554295,37.6074341
17,Молодёжная улица,300901,54.2552139,37.6057475
18,Молодёжная улица,300901,54.2551758,37.6050746
4/1,Весенняя улица,300901,54.2558289,37.6035969
2,Весенняя улица,300901,54.2551473,37.6040949
12,Весенняя улица,300901,54.2554869,37.6022695
1,Ракетная улица,300901,54.2565836,37.6042715
9,Ракетная улица,300901,54.2562225,37.6023431
11,Ракетная улица,300901,54.2557948,37.6018724
6,Весенняя улица,300901,54.2547590,37.6028003
7/1,Партизанская улица,300901,54.2538894,37.5999344
2,Горельская улица,300901,54.2586628,37.5990842
17,Горельская улица,300901,54.2584030,37.6050350
30,Горельская улица,300901,54.2586833,37.6048189
62,Московское шоссе,300901,54.2588911,37.6048196
29А,Партизанская улица,300901,54.2573174,37.6015906
23,Московское шоссе,300901,54.2560211,37.6081331
1,Мирная улица,300901,54.2569947,37.6099747
2,Охотный переулок,300901,54.2567988,37.6095743
2,Мирная улица,300901,54.2571859,37.6099361
15,"улица Макаренко, Горелки",300901,54.2560721,37.6118266
1,"улица Макаренко, Горелки",300901,54.2558715,37.6087673
31,улица Макаренко,300901,54.2547944,37.6152676
29,улица Макаренко,300901,54.2537186,37.6150748
20,улица Мира,300028,54.1730797,37.5810017
16,Иншинский проезд,300024,54.1903858,37.5542051
18,Иншинский проезд,300024,54.1904658,37.5531155
20,Иншинский проезд,300024,54.1902318,37.5531456
1,улица Константина Паустовского,300036,54.1902263,37.5186445
34,улица Макаренко,300028,54.1685339,37.5655221
32,улица Макаренко,300028,54.1680773,37.5654117
28,улица Макаренко,300028,54.1679669,37.5666329
30,улица Макаренко,300028,54.1684087,37.5667559
41,улица Щегловская Засека,300004,54.2200241,37.6966793
12,Одоевское шоссе,300005,54.1954672,37.5649461
9Б,улица Генерала Маргелова,300026,54.1466619,37.5663064
12А,Ханинский проезд,300024,54.1874976,37.5535298
13,Щёкинская улица,300024,54.1850991,37.5625020
69/1,Одоевское шоссе,300036,54.1904932,37.5431261
26,5-я Криволученская улица,300016,54.1749482,37.6928553
119,посёлок Трудовой,300911,54.1026315,37.6242040
120,посёлок Трудовой,300911,54.1023558,37.6241319
138,проспект Ленина,300026,54.1492497,37.5801824
37,улица Бондаренко,300010,54.2157805,37.6930259
309,Октябрьская улица,300901,54.2447667,37.6183022
309/1,Октябрьская улица,300901,54.2448208,37.6188011
309/2,Октябрьская улица,300901,54.2448976,37.6193361
309/3,Октябрьская улица,300901,54.2449651,37.6198660
309/4,Октябрьская улица,300901,54.2450560,37.6203889
309/5,Октябрьская улица,300901,54.2451380,37.6209153
309/6,Октябрьская улица,300901,54.2452114,37.6214223
14,Центральная улица,300026,54.1401651,37.6067167
12,улица Кауля,300045,54.1820819,37.6403514
146,проспект Ленина,300026,54.1482264,37.5782914
5А,улица Немцова,300004,54.2088584,37.6639651
4 к2,улица Новосёлов,300910,54.1006250,37.5834706
2 к1,улица Новосёлов,300910,54.1006870,37.5857053
2 к2,улица Новосёлов,300910,54.1012846,37.5848658
2 к3,улица Новосёлов,300910,54.1029722,37.5836980
2 к5,улица Новосёлов,300910,54.1021492,37.5855902
2 к4,улица Новосёлов,300910,54.1014046,37.5856470
7А,улица Шухова,300004,54.2085311,37.6665213
135/1,улица Кирова,300004,54.2074562,37.6543900
28,улица Сурикова,300028,54.1611194,37.5736371
26,улица Сурикова,300028,54.1612337,37.5721119
324,Октябрьская улица,300901,54.2488679,37.6107386
15 к4,улица Макаренко,300039,54.1668088,37.5621248
8,Шахтёрская улица,300911,54.1011178,37.6076630
6,Еловой проезд,300911,54.1204575,37.6261187
2,Еловой проезд,300911,54.1195210,37.6262286
8,Еловой проезд,300911,54.1200072,37.6226799
10,Еловой проезд,300911,54.1196008,37.6224992
21,Еловой проезд,300911,54.1192584,37.6229967
16,Еловая улица,300911,54.1187796,37.6228248
18,Еловая улица,300911,54.1188421,37.6222580
43Б,улица Демьянова,300045,54.1702711,37.6212779
10,Курковая улица,300044,54.2083648,37.5944880
20,Ряжская улица,300002,54.2114244,37.6309633
8,2-й Южный проезд,300026,54.1664614,37.5922527
8,2-й Южный проезд,300026,54.1663998,37.5922462
8,2-й Южный проезд,300026,54.1663868,37.5921468
6,2-й Южный проезд,300026,54.1667069,37.5924864
21,улица Свободы,300041,54.1880960,37.6065025
19,улица Свободы,300041,54.1885573,37.6057870
55,улица Марата,300004,54.2112863,37.6585509
57,улица Марата,300004,54.2114289,37.6595976
22 к3,улица Ю.Фучика,300053,54.2053158,37.6982170
21,Ленинградская улица,300013,54.1765780,37.5765260
8,проезд Энергетиков,300904,54.1435996,37.5953673
1,Еловой проезд,300911,54.1189531,37.6254420
1,Пионерская улица,300903,54.1147471,37.5314893
2,Лесная улица,300903,54.1144619,37.5307253
41,улица Дронова,300903,54.1165881,37.5292304
20,Лесная улица,300903,54.1161338,37.5294777
19,Пионерская улица,300903,54.1163924,37.5303371
18,Лесная улица,300903,54.1159807,37.5296078
17,Пионерская улица,300903,54.1161938,37.5304515
16,Лесная улица,300903,54.1157850,37.5296878
14,Лесная улица,300903,54.1155971,37.5297785
13,Пионерская улица,300903,54.1157907,37.5307856
12,Лесная улица,300903,54.1153950,37.5299550
11,Пионерская улица,300903,54.1156343,37.5309036
10,Лесная улица,300903,54.1152022,37.5300503
9,Пионерская улица,300903,54.1154435,37.5310839
8,Лесная улица,300903,54.1150346,37.5302365
6,Лесная улица,300903,54.1148898,37.5303093
4,Лесная улица,300903,54.1147219,37.5305436
3,Пионерская улица,300903,54.1149410,37.5313948
5,Пионерская улица,300903,54.1150285,37.5312663
7,Пионерская улица,300903,54.1152221,37.5311748
39,улица Дронова,300903,54.1166500,37.5295928
37,улица Дронова,300903,54.1167270,37.5298509
35,улица Дронова,300903,54.1167916,37.5301054
309/7,Октябрьская улица,300901,54.2452865,37.6219665
5,Самоварная улица,300065,54.2250016,37.6490666
3,Самоварная улица,300065,54.2257309,37.6492899
83,Оборонная улица,300045,54.1784754,37.6282786
7,Воздухофлотская улица,300005,54.2040367,37.5666134
3,Воздухофлотская улица,300005,54.2039591,37.5663882
5,Воздухофлотская улица,300005,54.2038771,37.5661580
7,Воздухофлотская улица,300005,54.2037763,37.5658950
46,Верхняя Краснослободская улица,300005,54.2039544,37.5674347
48,Верхняя Краснослободская улица,300005,54.2036995,37.5673594
50,Верхняя Краснослободская улица,300005,54.2034881,37.5673157
50А,Верхняя Краснослободская улица,300005,54.2034754,37.5671147
60,Верхняя Краснослободская улица,300005,54.2021093,37.5669579
58,Верхняя Краснослободская улица,300005,54.2025074,37.5670558
56,Верхняя Краснослободская улица,300005,54.2026382,37.5670763
52,Верхняя Краснослободская улица,300005,54.2030584,37.5671845
54,Верхняя Краснослободская улица,300005,54.2028507,37.5671042
15А,Профсоюзная улица,300005,54.1990779,37.5651663
31,3-й проезд Мясново,300005,54.2015193,37.5609313
101,Верхняя Краснослободская улица,300005,54.1965208,37.5665570
45,Нижняя Краснослободская улица,300005,54.1968677,37.5672375
11А,Привокзальная улица,300005,54.1970009,37.5716357
2E,2-й проезд,300005,54.2064998,37.5572772
1Г,4-й проезд Мясново,300005,54.2061066,37.5541705
1Д,4-й проезд Мясново,300005,54.2063213,37.5538995
1Е,4-й проезд Мясново,300005,54.2055698,37.5547987
1Б,4-й проезд Мясново,300005,54.2053418,37.5553130
3,4-й проезд Мясново,300005,54.2047792,37.5557682
5,4-й проезд Мясново,300005,54.2046124,37.5559650
9,4-й проезд Мясново,300005,54.2043440,37.5562823
11,4-й проезд Мясново,300005,54.2041593,37.5564138
13,4-й проезд Мясново,300005,54.2040293,37.5566666
13А,4-й проезд Мясново,300005,54.2038285,37.5567779
32В,улица Кабакова,300005,54.2035220,37.5571651
13Б,4-й проезд Мясново,300005,54.2036646,37.5569276
15,4-й проезд Мясново,300005,54.2030587,37.5576086
17,4-й проезд Мясново,300005,54.2028970,37.5577853
19,4-й проезд Мясново,300005,54.2027344,37.5580101
23,4-й проезд Мясново,300005,54.2024976,37.5583259
25,4-й проезд Мясново,300005,54.2023208,37.5585453
29,4-й проезд Мясново,300005,54.2020060,37.5588008
31,4-й проезд Мясново,300005,54.2018523,37.5589534
26А,Воздухофлотская улица,300005,54.2014335,37.5594703
40,4-й проезд Мясново,300005,54.2012050,37.5588229
36,4-й проезд Мясново,300005,54.2016431,37.5585538
38,4-й проезд Мясново,300005,54.2014338,37.5587336
24,4-й проезд Мясново,300005,54.2025846,37.5574488
22А,4-й проезд Мясново,300005,54.2027717,37.5572822
26,4-й проезд Мясново,300005,54.2023856,37.5577487
22,4-й проезд Мясново,300005,54.2029432,37.5570646
57,12-й проезд Мясново,300036,54.1951348,37.5482237
84,Одоевское шоссе,300036,54.1950102,37.5471961
30,Ствольная улица,300044,54.2084427,37.5966346
11А,улица Дзержинского,300000,54.1927387,37.6263388
23/1,улица Дзержинского,300041,54.1910494,37.6293620
16А,Спортивная улица,300041,54.1913327,37.6296265
23,улица Дзержинского,300041,54.1911289,37.6292295
21,улица Дзержинского,300041,54.1912622,37.6290216
48А,Красноармейский проспект,300041,54.1992219,37.5806710
17,улица Свободы,300041,54.1889764,37.6062053
11,Самоварная улица,300065,54.2257539,37.6454564
9,Самоварная улица,300065,54.2257858,37.6463282
7,Самоварная улица,300065,54.2257225,37.6471829
24 к2,улица Сурикова,300039,54.1613871,37.5709655
24 к1,улица Сурикова,300039,54.1615879,37.5699068
24,улица Сурикова,300039,54.1619158,37.5689656
13,Самоварная улица,300022,54.2288957,37.6445231
15,Самоварная улица,300022,54.2292383,37.6437346
17,Самоварная улица,300022,54.2295065,37.6429866
12,Самоварная улица,300022,54.2301908,37.6435087
14,Самоварная улица,300022,54.2304285,37.6425335
19,Самоварная улица,300022,54.2296879,37.6421436
10,Вяземская улица,300002,54.2073898,37.6298823
31А,4-й проезд Мясново,300005,54.2016821,37.5591344
21,4-й проезд Мясново,300005,54.2026281,37.5583218
9А,4-й проезд Мясново,300005,54.2042496,37.5562537
1,4-й проезд Мясново,300005,54.2050393,37.5557411
1А,4-й проезд Мясново,300005,54.2052234,37.5555838
7,4-й проезд Мясново,300005,54.2045182,37.5561826
27,4-й проезд Мясново,300005,54.2021724,37.5586309
34,4-й проезд Мясново,300005,54.2018053,37.5583371
32,4-й проезд Мясново,300005,54.2019386,37.5581964
30,4-й проезд Мясново,300005,54.2020629,37.5579757
28,4-й проезд Мясново,300005,54.2022399,37.5578664
83,улица Чмутова,300005,54.2067229,37.5544866
81А,улица Чмутова,300005,54.2065355,37.5547275
81,улица Чмутова,300005,54.2067120,37.5550539
79,улица Чмутова,300005,54.2067648,37.5553218
105,улица Карпова,300022,54.2419179,37.6193032
189,Октябрьская улица,300062,54.2250220,37.6284933
188А,Октябрьская улица,300020,54.2290691,37.6265186
1А,Большая улица,300901,54.2495592,37.6112685
54А,Гоголевская улица,300024,54.1845189,37.6127916
2А,улица Гагарина,300020,54.2278006,37.6308597
171,проспект Ленина,300026,54.1443789,37.5829668
169,проспект Ленина,300026,54.1445433,37.5830068
167,проспект Ленина,300026,54.1448732,37.5832487
165,проспект Ленина,300026,54.1450529,37.5832916
8,2-й Благодатный проезд,300022,54.2532582,37.6410749
6,Петровская улица,300036,54.1910969,37.5143204
251Б,улица Максима Горького,300044,54.2179480,37.5957532
124,Дульная улица,300057,54.2201493,37.5968757
39,Курская улица,300057,54.2186265,37.5953231
47,Курская улица,300057,54.2188204,37.5956340
45,Курская улица,300057,54.2187966,37.5958751
49,Курская улица,300057,54.2188882,37.5953307
51,Курская улица,300057,54.2188892,37.5951180
55,Курская улица,300057,54.2192330,37.5950587
59А,Курская улица,300057,54.2192478,37.5962512
61,Курская улица,300057,54.2194896,37.5960931
116А,Дульная улица,300057,54.2194420,37.5964478
122,Дульная улица,300057,54.2197241,37.5975997
120,Дульная улица,300057,54.2195847,37.5974759
118,Дульная улица,300057,54.2193754,37.5974127
112,Дульная улица,300057,54.2190821,37.5972694
106,Дульная улица,300057,54.2188314,37.5971356
104,Дульная улица,300057,54.2186744,37.5971102
102А,Дульная улица,300057,54.2185286,37.5970437
100А,Дульная улица,300057,54.2184486,37.5969442
98,Дульная улица,300057,54.2182989,37.5969307
96,Дульная улица,300057,54.2181714,37.5968764
94,Дульная улица,300057,54.2180771,37.5967803
92,Дульная улица,300057,54.2179462,37.5967486
86,Дульная улица,300057,54.2177253,37.5966339
251А,улица Максима Горького,300044,54.2176345,37.5955964
253,улица Максима Горького,300044,54.2176529,37.5954828
261,улица Максима Горького,300044,54.2177835,37.5947494
259,улица Максима Горького,300044,54.2177494,37.5949577
257,улица Максима Горького,300044,54.2176942,37.5951941
255,улица Максима Горького,300044,54.2176827,37.5953391
29,Курская улица,300057,54.2178252,37.5945266
37,Курская улица,300057,54.2186626,37.5949495
35,Курская улица,300057,54.2183950,37.5948929
33,Курская улица,300057,54.2181644,37.5946891
5,улица Лётчика Пирожкова,300036,54.1899607,37.5166162
2,Петровская улица,300036,54.1898171,37.5156649
1,Петровская улица,300036,54.1891781,37.5151203
4,улица Новосёлов,300910,54.1022443,37.5829120
4 к1,улица Новосёлов,300910,54.1019740,37.5834493
24А,улица Революции,300034,54.1934049,37.5879157
2,Ключевая улица,300901,54.2628451,37.6077915
4,Ключевая улица,300901,54.2634100,37.6077624
6,Ключевая улица,300901,54.2634811,37.6090454
8,Ключевая улица,300901,54.2628205,37.6090850
26 к1,улица Седова,300028,54.1737354,37.5633814
27,улица Хворостухина,300010,54.2156337,37.6783912
29,улица Хворостухина,300010,54.2160831,37.6777250
25,улица Свободы,300041,54.1879617,37.6053516
2,улица Ивана Поддубного,300036,54.1885060,37.5144528
7,Петровская улица,300036,54.1912059,37.5124316
7,улица Ивана Бунина,300036,54.1904459,37.5125181
5,Петровская улица,300036,54.1907640,37.5133934
8,Лётчика Пирожкова улица,300036,54.1898661,37.5132136
3,Петровская улица,300036,54.1902187,37.5141148
8,Петровская улица,300036,54.1916588,37.5137103
6,улица Ивана Бунина,300036,54.1920945,37.5145603
5,улица Ивана Бунина,300036,54.1914424,37.5151451
4,Петровская улица,300036,54.1905091,37.5149210
6,улица Лётчика Пирожкова,300036,54.1908668,37.5158261
15А,улица Константина Паустовского,300036,54.1935640,37.5152654
15Б,улица Константина Паустовского,300036,54.1933649,37.5147240
7,улица Лётчика Пирожкова,300036,54.1892711,37.5136782
16В,Красноармейский проспект,300041,54.1982026,37.5996308
14,улица Вильямса,300053,54.2055867,37.6862063
26 к2,улица Седова,300028,54.1747865,37.5633019
20 к3,Калужское шоссе,300025,54.1583818,37.5695676
10,Самоварная улица,300022,54.2297098,37.6449417
12В,Менделеевская улица,300041,54.1958665,37.6198171
37,улица Софьи Перовской,300034,54.1868651,37.5976387
54,проспект Ленина,300012,54.1826500,37.6051202
60,проспект Ленина,300012,54.1817943,37.6043387
8,Первомайская улица,300012,54.1818607,37.6034505
27 к1,улица Демонстрации,300034,54.1895816,37.5842367
22,Первомайская улица,300034,54.1845230,37.5971502
65,проспект Ленина,300012,54.1813498,37.6053935
71,улица Чмутова,300005,54.2068152,37.5564828
150,улица Чмутова,300005,54.2073516,37.5536553
148,улица Чмутова,300005,54.2073602,37.5539722
43,улица Чмутова,300005,54.2070511,37.5603295
22,7-й Полюсный проезд,300005,54.2035663,37.5393445
34,7-й Полюсный проезд,300005,54.2029159,37.5374561
40,6-й Полюсный проезд,300005,54.2023011,37.5377230
40,6-й Полюсный проезд,300005,54.2023705,37.5378517
2Б,12-й проезд,300005,54.2044246,37.5388155
26А,6-й проезд Мясново,300005,54.2023648,37.5540295
128,улица Чмутова,300005,54.2075821,37.5569754
130,улица Чмутова,300005,54.2075428,37.5566922
156Б,улица Чмутова,300005,54.2075220,37.5522661
132,улица Чмутова,300005,54.2075445,37.5563383
138,улица Чмутова,300005,54.2074634,37.5554533
140,улица Чмутова,300005,54.2074730,37.5551348
142,улица Чмутова,300005,54.2074732,37.5548659
144,улица Чмутова,300005,54.2074300,37.5545948
146,улица Чмутова,300005,54.2074140,37.5542096
154,улица Чмутова,300005,54.2073029,37.5528686
156,улица Чмутова,300005,54.2074109,37.5526020
156А,улица Чмутова,300005,54.2072847,37.5523032
77,улица Чмутова,300005,54.2067617,37.5555901
75,улица Чмутова,300005,54.2067866,37.5558658
73,улица Чмутова,300005,54.2068301,37.5562140
69,улица Чмутова,300005,54.2068350,37.5567238
32,7-й Полюсный проезд,300005,54.2030283,37.5377931
20,6-й Полюсный проезд,300005,54.2029773,37.5400071
18,6-й Полюсный проезд,300005,54.2030825,37.5402870
125 к4,проспект Ленина,300026,54.1571105,37.5899510
110,Советская улица,300000,54.1915047,37.6285898
77,проспект Ленина,300012,54.1798786,37.6038503
18,улица Фрунзе,300034,54.1893759,37.5904523
41 к1,улица Максима Горького,300044,54.2182025,37.6036871
78,Демидовская улица,300057,54.2193822,37.6206503
145,проспект Ленина,300026,54.1490735,37.5841329
141,проспект Ленина,300026,54.1510060,37.5846718
141,проспект Ленина,300026,54.1510243,37.5845398
135,проспект Ленина,300026,54.1529791,37.5850345
135,проспект Ленина,300026,54.1529608,37.5851665
3,Загородный проезд,300004,54.2026951,37.6741637
10,улица Дзержинского,300000,54.1917633,37.6265396
26,Пролетарская улица,300001,54.2019931,37.6414570
42,улица Чапаева,300001,54.1975087,37.6442737
17,улица Кирова,300001,54.1969380,37.6449101
105,Староникитская улица,300045,54.1797174,37.6305703
132,Ложевая улица,300040,54.1979740,37.6549802
136,Ложевая улица,300040,54.1970813,37.6578967
106,улица Металлургов,300031,54.1962724,37.6636280
47 к3,улица Кауля,300012,54.1755458,37.6172337
4А,улица Михеева,300012,54.1747080,37.6183967
4Б,улица Михеева,300012,54.1742661,37.6187288
10,улица Вересаева,300041,54.1950353,37.5871231
1,улица Седова,300028,54.1646343,37.5802997
8/2,Менделеевская улица,300041,54.1948823,37.6201841
96,Советская улица,300041,54.1895365,37.6262487
15,Городской переулок,300012,54.1610064,37.6004761
1,улица Мориса Тореза,300012,54.1796523,37.6065716
23,улица Сойфера,300041,54.1988094,37.5941016
27,улица Сойфера,300041,54.1989029,37.5927999
45А,улица Металлургов,300027,54.1897496,37.6894512
41,улица Металлургов,300027,54.1873706,37.6928502
43,улица Металлургов,300027,54.1881544,37.6916476
43Б,улица Металлургов,300027,54.1889220,37.6905555
2,улица Максимовского,300062,54.2137936,37.6281830
1,Новомосковская улица,300045,54.1734254,37.6368215
12,улица Бондаренко,300010,54.2159877,37.6894997
125 к2,проспект Ленина,300026,54.1571959,37.5873755
12А,улица Циолковского,300012,54.1675050,37.6037247
12,улица Циолковского,300012,54.1677824,37.6028922
9,Новомосковская улица,300045,54.1768321,37.6413730
5,Новомосковская улица,300045,54.1751821,37.6391575
35к1,улица Луначарского,300002,54.2072957,37.6128136
10,Привокзальный переулок,300005,54.1994366,37.5712180
39,улица Революции,300034,54.1925195,37.5932950
15А,Пионерская улица,300903,54.1160464,37.5305920
15,Пионерская улица,300903,54.1159636,37.5306548
4 к3,улица Новосёлов,300910,54.1002045,37.5844441
4 к4,улица Новосёлов,300910,54.0997438,37.5847544
4,улица Маршала Полубоярова,300036,54.1918647,37.5212710
20 к2,Калужское шоссе,300025,54.1585769,37.5705292
4В,Пушкинский проезд,300041,54.1873701,37.6089853
22 к2,улица Сурикова,300039,54.1624277,37.5683251
31,улица Сойфера,300041,54.1989109,37.5888890
33,улица Сойфера,300041,54.1993454,37.5888557
5/2,улица Фёдора Смирнова,300041,54.2002638,37.5858311
5,улица Фёдора Смирнова,300041,54.2002522,37.5862537
37,улица Сойфера,300041,54.1995012,37.5869795
39,улица Сойфера,300041,54.1990565,37.5870147
4А,улица Фрунзе,300041,54.1984748,37.5899498
4,улица Фрунзе,300041,54.1989635,37.5901529
37А,улица Сойфера,300041,54.1995442,37.5861680
14,Красноармейский проспект,300041,54.1977394,37.6025366
16,Красноармейский проспект,300041,54.1979339,37.5999698
26,Красноармейский проспект,300041,54.1981110,37.5957643
13 к1,Первомайская улица,300035,54.1817212,37.5985284
156Г,улица Чмутова,300005,54.2074061,37.5515819
40,18-й проезд Мясново,300005,54.2036786,37.5459182
38,18-й проезд Мясново,300005,54.2039290,37.5466081
67,улица Чмутова,300005,54.2066855,37.5569784
162В,улица Чмутова,300005,54.2071507,37.5482997
2,9-й Полюсный проезд,300005,54.2032990,37.5378957
6,2-й Полюсный проезд,300005,54.2058502,37.5496295
9,2-й Полюсный проезд,300005,54.2062748,37.5496364
16,18-й проезд Мясново,300005,54.2054073,37.5501182
2Ж,улица Болотова,300005,54.2054550,37.5523795
8,улица Болотова,300005,54.2041888,37.5537197
14,улица Болотова,300005,54.2037753,37.5542552
