House number,Street name,Postal code,Latitude,Longitude
152-154,Holywood Road,BT4 1NY,54.6006341,-5.8797426
2,Donegall Square West,BT1 6JA,54.5969638,-5.9317640
20,University Square,BT7 1PA,54.5854753,-5.9339518
19-21,Church Lane,BT1 4QN,54.5996803,-5.9252612
12-14,Church Lane,BT1 4QN,54.6000852,-5.9253733
10,Donegall Square South,BT1 5JD,54.5958755,-5.9305991
17,Ormeau Avenue,BT2 8HD,54.5928531,-5.9286840
17-19,Pottingers Entry,BT1 4DT,54.5994199,-5.9262768
2,Castle Lane,BT1 5DA,54.5985392,-5.9279699
"48,50",Great Victoria Street,BT2 7BB,54.5945076,-5.9341466
44,Dublin Road,BT2 7HN,54.5915494,-5.9324222
62A,Botanic Avenue,BT7 1JR,54.5875415,-5.9323383
421,Lisburn Road,BT9 7EW,54.5788903,-5.9513983
421,Lisburn Road,BT9 7EW,54.5788722,-5.9514263
322,Lisburn Road,BT9 6GH,54.5767107,-5.9552468
2,Wellington Street,BT1 6HT,54.5964131,-5.9325318
5-6,Donegall Square West,BT1 6JA,54.5967682,-5.9317268
68,Fitzwilliam Street,BT9 6AX,54.5858887,-5.9397757
91-93,Royal Avenue,BT1 1FE,54.6018258,-5.9311508
40-46,Donegall Place,BT1 5BB,54.5981102,-5.9299607
229,Upper Newtownards Road,BT4 3JF,54.5950132,-5.8683884
4-5,Joy's Entry,BT1 4DR,54.5995258,-5.9268858
15-21,Howard Street,BT1 6NB,54.5959380,-5.9324349
12-18,Bradbury Place,BT7 1RS,54.5890182,-5.9343848
30-34,Bradbury Place,BT7 1RT,54.5887943,-5.9344947
54,Botanic Avenue,BT7 1JR,54.5876681,-5.9328071
68,Botanic Avenue,BT7 1JR,54.5874251,-5.9324723
72,Botanic Avenue,BT7 1JL,54.5873455,-5.9324328
90,Botanic Avenue,BT7 1JR,54.5868923,-5.9322462
99,Botanic Avenue,BT7 1JN,54.5862704,-5.9323854
95,Botanic Avenue,BT7 1JN,54.5864220,-5.9324347
85,Botanic Avenue,BT7 1JL,54.5868217,-5.9326086
67-69,Botanic Avenue,BT7 1JL,54.5872780,-5.9328132
59-63,Botanic Avenue,BT7 1JL,54.5874467,-5.9329790
59-63,Botanic Avenue,BT7 1JL,54.5876078,-5.9333721
1,College Green Mews,BT7 1LW,54.5857091,-5.9320564
68,Upper Church Lane,BT1 4QL,54.5987905,-5.9243577
11A,Stranmillis Road,BT9 5AF,54.5824597,-5.9365074
20-22,Bradbury Place,BT7 1RS,54.5889094,-5.9345082
6,Queens Road,BT3 9DT,54.6076945,-5.9087636
141,Upper Lisburn Road,BT10 0LH,54.5614689,-5.9850101
24,Boucher Road,BT12 6HR,54.5813990,-5.9599145
549,Lisburn Road,BT9 7GQ,54.5755032,-5.9555457
116-118,Lisburn Road,BT9 6AH,54.5837143,-5.9435643
338,Lisburn Road,BT9 6GH,54.5759060,-5.9545131
12-16,Bridge Street,BT1 1LS,54.6001934,-5.9273741
443,Ormeau Road,BT7 3GQ,54.5758015,-5.9177518
5-7,Pottingers Entry,BT1 4DT,54.5997061,-5.9262582
64,Ann Street,BT1 4EH,54.5994106,-5.9250775
10,Ann Street,BT1 4EF,54.5989569,-5.9270963
18-20,Kent Street,BT1 2JA,54.6028678,-5.9320951
259,Castlereagh Road,BT5 5FL,54.5857952,-5.8915497
66,Beersbridge Road,BT5 4RW,54.5927763,-5.9010730
61,Cregagh Road,BT6 8PX,54.5845110,-5.8994040
76,Castlereagh Road,BT5 5FP,54.5910138,-5.8979146
45,Dublin Road,BT2 7HD,54.5918854,-5.9326908
34-36,Bedford Street,BT2 7FF,54.5944495,-5.9310106
16,Skipper Street,BT1 2DZ,54.6005939,-5.9255625
62-68,High Street,BT1 2BE,54.6004088,-5.9259162
46,Church Lane,BT1 4QN,54.5994422,-5.9248475
30-42,Waring Street,BT1 2ED,54.6016075,-5.9258582
35-39,Waring Street,BT1 2DY,54.6012527,-5.9255926
2-10,Bridge Street,BT1 1LU,54.6005904,-5.9277758
2-4,Winecellar Entry,BT1 1QN,54.6000791,-5.9284157
3-11,High Street,BT1 2AA,54.5993276,-5.9282474
133,Andersonstown Road,BT11 9BU,54.5738609,-5.9877649
61,Andersonstown Road,BT11 9AH,54.5758213,-5.9825431
63,Andersonstown Road,BT11 9AH,54.5763740,-5.9824616
537,Falls Road,BT11 9AB,54.5820803,-5.9797716
1,Glen Road,BT11 8BE,54.5842426,-5.9789734
175,Stranmillis Road,BT9 5AJ,54.5781932,-5.9341146
26,Knockbracken Park,BT6 0HL,54.5679640,-5.9081258
272,Newtownards Road,BT4 1HD,54.5988594,-5.8973000
"5, 16",Castle Street,BT1 1HB,54.5990288,-5.9314014
20,High Street,BT1 2BD,54.5998087,-5.9278083
27,High Street,BT1 2AA,54.5996381,-5.9274730
29,High Street,BT1 2AA,54.5996521,-5.9274114
1,Donegall Square West,BT1 6JH,54.5970433,-5.9317546
14,Wellington Place,BT1 6GE,54.5970219,-5.9323511
18,Donegall Square North,BT1 5GB,54.5973732,-5.9317021
33-37,Finaghy Road North,BT10 0JB,54.5643478,-5.9868873
689,Springfield Road,BT12 7FP,54.5941403,-5.9888547
685,Springfield Road,BT12 7FP,54.5943724,-5.9883833
569,Ormeau Road,BT7 3JB,54.5696558,-5.9142669
4,Clarence Street West,BT2 7GP,54.5939240,-5.9321537
451,Ormeau Road,BT7 3GQ,54.5755610,-5.9173487
Unit 40,Donegall Road,BT12 6HN,54.5891466,-5.9628065
119,Falls Road,BT12 6AA,54.5956573,-5.9553215
5-11,Wilson's Court,BT1 4DQ,54.5994641,-5.9272666
7,Chichester Street,BT1 4JA,54.5972180,-5.9281374
149,Lisburn Road,BT9 7AJ,54.5833366,-5.9451506
283-285,Upper Newtownards Road,BT4 3JH,54.5948428,-5.8654819
79-83,May Street,BT1 3JL,54.5961526,-5.9228259
95,University Road,BT7 1NG,54.5834887,-5.9372395
1,Oxford Street,BT1 3LA,54.5993627,-5.9220175
60,Great Victoria Street,BT2 7BB,54.5940756,-5.9340780
50,Dublin Road,BT2 7HN,54.5914441,-5.9325237
133,Lisburn Road,BT9 7AG,54.5839668,-5.9438105
279-281,Upper Newtownards Road,BT4 3JF,54.5949373,-5.8660353
263,Upper Newtownards Road,BT4 3JF,54.5949789,-5.8666136
265,Upper Newtownards Road,BT4 3JF,54.5949789,-5.8665548
4,Belmont Road,BT4 3DD,54.6007286,-5.8782557
17,Stranmillis Road,BT9 5AF,54.5823695,-5.9364442
83,Botanic Avenue,BT7 1JL,54.5869199,-5.9326354
92/94,Botanic Avenue,BT7 1JR,54.5867983,-5.9322025
11,Edward Street,BT1 2LR,54.6034652,-5.9269537
78,North Street,BT1 1ZZ,54.6015873,-5.9304783
3,Skipper Street,BT1 2DZ,54.6009680,-5.9262819
205,Upper Newtownards Road,BT4 3JD,54.5951835,-5.8697766
44-46,King Street,BT1 6AD,54.5990030,-5.9346755
16,Howard Street,BT1 6PA,54.5956782,-5.9320687
11,Donegall Square West,BT1 6JH,54.5964851,-5.9316875
10,Donegall Square West,BT1 6JH,54.5965663,-5.9316917
9,Donegall Square West,BT1 6JH,54.5966265,-5.9317008
4,Donegall Square West,BT1 6JH,54.5968832,-5.9317404
9,Donegall Square North,BT1 5GJ,54.5973989,-5.9305623
8,Donegall Square North,BT1 5GJ,54.5974805,-5.9304045
15,Donegall Place,BT1 5AA,54.5985766,-5.9304982
2-14,Castle Street,BT1 1HB,54.5990320,-5.9313333
57,Royal Avenue,BT1 1FX,54.6007255,-5.9308579
69,Royal Avenue,BT1 1PE,54.6012583,-5.9309221
37-39,Rosemary Street,BT1 1QB,54.6002765,-5.9296722
35,Rosemary Street,BT1 1QB,54.6002857,-5.9295542
13,Rosemary Street,BT1 1QA,54.6004429,-5.9288806
1,Bridge Street,BT1 1LT,54.6004086,-5.9283042
13,Bridge Street,BT1 1LT,54.6001570,-5.9280282
9A,Lombard Street,BT1 1RB,54.5997873,-5.9287337
15,Lombard Street,BT1 1RB,54.5998900,-5.9287980
17,Lombard Street,BT1 1RB,54.6000093,-5.9289183
55-57,High Street,BT1 2AB,54.5999114,-5.9266384
96-98,High Street,BT1 2BE,54.6007230,-5.9251054
17,Bridge Street,BT1 1LT,54.6000499,-5.9279267
15,Bridge Street,BT1 1LT,54.6001029,-5.9279804
19,Bridge Street,BT1 1LT,54.5999755,-5.9278462
21,Skipper Street,BT1 2DZ,54.6006446,-5.9259604
54,High Street,BT1 2BE,54.6003891,-5.9262383
56,High Street,BT1 2BE,54.6004248,-5.9261525
8,Church Lane,BT1 4QN,54.6001596,-5.9254559
13,Church Lane,BT1 4QN,54.6000782,-5.9256050
40,Church Lane,BT1 4QN,54.5996179,-5.9249839
40,Church Lane,BT1 4QN,54.5996457,-5.9250130
11A,Chichester Street,BT1 4JA,54.5972234,-5.9278163
29,Chichester Street,BT1 4JB,54.5972745,-5.9266170
11,Chichester Street,BT1 4JA,54.5972218,-5.9279262
81-85,Chichester Street,BT1 4JE,54.5973758,-5.9241687
71-75,Chichester Street,BT1 4JE,54.5973632,-5.9245550
7,Chichester Street,BT1 4JA,54.5972262,-5.9280703
2,Clarence Street West,BT2 7GP,54.5939990,-5.9315098
12-22,Linenhall Street,BT2 8BS,54.5948040,-5.9294686
2K,Queens Road,BT3 9DT,54.6054160,-5.9118324
471-473,Antrim Road,BT15 3BP,54.6223494,-5.9375700
20-25,York Street,BT15 1WA,54.6096876,-5.9269719
30-42,York Road,BT15 3HE,54.6152751,-5.9246543
514,Antrim Road,BT15 5GG,54.6318023,-5.9379640
61,Duncairn Gardens,BT15 2GB,54.6121602,-5.9283654
62,Knockbreda Road,BT6 0GA,54.5716787,-5.9070466
70,Knockbreda Road,BT6 0GA,54.5716926,-5.9068233
15,Strathmore Park,BT15 5HH,54.6356498,-5.9385190
467,Ormeau Road,BT7 3GR,54.5750361,-5.9168631
461,Ormeau Road,BT7 3GR,54.5751901,-5.9169724
455,Ormeau Road,BT7 3GQ,54.5753230,-5.9171820
445-449,Ormeau Road,BT7 3GQ,54.5754399,-5.9172038
453,Ormeau Road,BT7 3GQ,54.5754983,-5.9172453
259,Ormeau Road,BT7 3GG,54.5811010,-5.9212375
77-81,Lisburn Road,BT9 7AB,54.5864273,-5.9400968
131,Cavehill Road,BT15 5BJ,54.6233764,-5.9428614
122,Donegall Street,BT1 2GX,54.6044939,-5.9311652
10,Exchange Street West,BT1 2NJ,54.6034186,-5.9278385
443-449,Antrim Road,BT15 3FE,54.6214942,-5.9376044
74,Berry Street,BT1 1FJ,54.6001366,-5.9337111
15,Brunswick Street,BT2 7GE,54.5952276,-5.9333659
24,Ormeau Avenue,BT2 8HS,54.5930483,-5.9311781
61,Duncairn Gardens,BT15 2GB,54.6122165,-5.9285694
14,Gresham Street,BT1 1JN,54.6018030,-5.9321304
96,Victoria Street,BT1 3GN,54.5967852,-5.9236318
90-106,Victoria Street,BT1 3GN,54.5966549,-5.9236164
771,Antrim Road,BT15 4EP,54.6456028,-5.9348352
771,Antrim Road,BT15 4EP,54.6457116,-5.9347197
101,Donegall Park Avenue,BT15 4FQ,54.6367812,-5.9237629
117-123,Ravenhill Road,BT6 8DR,54.5914624,-5.9105585
52,Malone Road,BT9 5BS,54.5794127,-5.9391742
61,Duncairn Gardens,BT15 2GB,54.6122388,-5.9286963
145,North Queen Street,BT15 1HQ,54.6120141,-5.9268373
36,Duncairn Gardens,BT15 2GH,54.6117707,-5.9285843
44,North Circular Road,BT15 5HD,54.6343187,-5.9440497
209-211,Newtownards Road,BT4 1AD,54.5990605,-5.9007508
5,Donegall Lane,BT1 2LZ,54.6047585,-5.9311180
2-6,Union Street,BT1 2JF,54.6039829,-5.9312503
101,Donegall Park Avenue,BT15 4HE,54.6367188,-5.9234160
24-28,North Queen Street,BT15 1ES,54.6082799,-5.9299418
83,Great Victoria Street,BT2 7AF,54.5922245,-5.9342521
111,Ormeau Road,BT7 1SH,54.5873622,-5.9239422
3,Hill Street,BT1 2LA,54.6015803,-5.9264559
58,Wellington Place,BT1 6GF,54.5969665,-5.9342644
42,Franklin Street,BT2 7GE,54.5949951,-5.9324699
202-206,York Street,BT15 1JJ,54.6115984,-5.9235641
78-80,Botanic Avenue,BT7 1JR,54.5872635,-5.9324026
82,Botanic Avenue,BT7 1JR,54.5872010,-5.9323760
73,Botanic Avenue,BT7 1JL,54.5871743,-5.9327654
77,Botanic Avenue,BT7 1JL,54.5870407,-5.9326979
5,Massey Avenue,BT4 2JT,54.6039079,-5.8438207
13,Amelia Street,BT2 7GS,54.5946778,-5.9337477
Unit 15,Blackstaff Way,BT11 9DT,54.5774161,-5.9733465
96,Donegall Street,BT1 2GW,54.6038956,-5.9308422
30-42,York Road,BT15 3HE,54.6152771,-5.9245616
331,Shankill Road,BT13 3AA,54.6046442,-5.9554027
215,Shankill Road,BT13 1FQ,54.6041993,-5.9496232
32,Dublin Rd,BT2 7HN,54.5918038,-5.9322091
71,Shankill Road,BT13 1FD,54.6037326,-5.9423490
228,Shankill Road,BT13 2BJ,54.6040503,-5.9505870
143,Northumberland Street,BT13 2JF,54.6009749,-5.9477518
151-157,Shankill Road,BT13 1FD,54.6045366,-5.9467141
87-89,Upper Lisburn Road,BT10 0GY,54.5643113,-5.9795188
1c,Erinvale Drive,BT10 0GE,54.5552871,-5.9809701
430,Falls Road,BT12 6EN,54.5880981,-5.9701621
1,Warehouse Lane,BT1 2DX,54.6014782,-5.9268203
27,Balmoral Road,BT12 6QB,54.5737462,-5.9628824
6,Boucher Road,BT12 6HR,54.5818723,-5.9596042
2,Chichester Park North,BT15 5DU,54.6284748,-5.9400216
140,Cavehill Road,BT15 5EX,54.6309458,-5.9463281
304,Airport Road West,BT3 9EJ,54.6235045,-5.8604485
306a,Airport Road West,BT3 9EJ,54.6225402,-5.8622248
306b,Airport Road West,BT3 9EJ,54.6226179,-5.8623162
1-13,College Street,BT1 6ET,54.5981058,-5.9325297
6,Bridge Street,BT1 1LU,54.6003718,-5.9275114
10A,Ann Street,BT1 4EF,54.5989734,-5.9270388
48,Stranmillis Road,BT9 5AD,54.5797059,-5.9347332
4,The Mount,BT5 4NA,54.5948475,-5.9053630
4,The Mount,BT5 4NA,54.5948151,-5.9053227
32,Dublin Road,BT2 7HN,54.5917758,-5.9322306
376-378,Upper Newtownards Road,BT4 3FB,54.5953231,-5.8672536
376-378,Upper Newtownards Road,BT4 3FB,54.5953257,-5.8673617
310-322,Upper Newtownards Road,BT4 3EX,54.5954326,-5.8702660
135,Lisburn Road,BT9 7AG,54.5837793,-5.9446481
135,Lisburn Road,BT9 7AG,54.5837175,-5.9445034
96,Botanic Avenue,BT7 1JR,54.5863791,-5.9320142
12-56,Royal Avenue,BT1 1DD,54.6008438,-5.9332326
12-56,Royal Avenue,BT1 1AL,54.6007992,-5.9331556
12-56,Royal Avenue,BT1 1AL,54.6008313,-5.9336362
68-72,Great Victoria Street,BT2 7BB,54.5931477,-5.9340052
3-5,Glenmachan Street,BT12 6JA,54.5874291,-5.9582459
184,Ormeau Road,BT7 1SQ,54.5843093,-5.9227987
287,Ormeau Road,BT7 3GG,54.5803460,-5.9208284
13,Finwood Park,BT9 6QR,54.5582181,-5.9703543
20,Brunswick Street,BT2 7GE,54.5947308,-5.9326747
87,Northbrook Street,BT9 7DJ,54.5827246,-5.9523072
22-32,Donegall Road,BT12 5JN,54.5892426,-5.9357936
49A,Upper Arthur Street,BT1 4GH,54.5971316,-5.9277647
2,Queens Road,BT3 9FP,54.6044607,-5.9124122
276,Upper Newtownards Road,BT4 3EU,54.5957129,-5.8719516
176-180,Connsbrook Avenue,BT4 1JY,54.6040265,-5.8811626
220-230,Holywood Road,BT4 1PD,54.6040839,-5.8746600
323,Beersbridge Road,BT5 5DY,54.5924125,-5.8894366
32-46,Castlereagh Road,BT5 5FB,54.5915695,-5.8984776
1,Hill Street,BT1 2LA,54.6013536,-5.9264057
83-91,Adelaide Street,BT2 8FF,54.5929980,-5.9283899
83-91,Adelaide Street,BT2 8FF,54.5930089,-5.9283363
70-74,Malone Road,BT9 5BU,54.5770573,-5.9416686
564-568,Falls Road,BT11 9AE,54.5808302,-5.9782366
83,Glen Road,BT11 8BD,54.5830701,-5.9857471
200,Andersonstown Road,BT11 9EB,54.5726759,-5.9929910
120,Stewartstown Road,BT11 9JQ,54.5680201,-6.0091925
26-30,Monagh Road,BT11 8EF,54.5899640,-5.9919369
32b,Upper Malone Road,BT9 5NA,54.5551530,-5.9663939
250,Donegall Road,BT12 5NE,54.5884097,-5.9483178
Unit 2F,Donegall Road,BT12 6HN,54.5887763,-5.9618764
191 - 193,Whiterock Road,BT12 7FW,54.5942067,-5.9872039
22,Donegall Road,BT12 5JN,54.5892652,-5.9356037
61,Fountain Street,BT1 5EX,54.5976144,-5.9319375
150,Peter's Hill,BT13 2AD,54.6033200,-5.9400850
35-43,Hill Street,BT1 2LB,54.6018597,-5.9269240
53,Castle Street,BT1 1GH,54.5992559,-5.9324348
27,Talbot Street,BT1 2LD,54.6026050,-5.9276950
52-56,Woodvale Road,BT13 3BT,54.6067555,-5.9618050
35,Hill Street,BT1 2LB,54.6021395,-5.9270466
Unit 8,Weavershill Square,BT14 8QU,54.6270881,-5.9849417
6-8,Great Victoria Street,BT2 7BA,54.5955368,-5.9343014
2-4,Great Victoria Street,BT2 7BA,54.5956485,-5.9343011
42,Howard Street,BT1 6PG,54.5957215,-5.9333182
14-16,Great Victoria Street,BT2 7BA,54.5952544,-5.9342887
41C,Suffolk Road,BT11 9PE,54.5703600,-6.0152647
27,Ardoyne Road,BT14 7HX,54.6150203,-5.9656640
523,Oldpark Road,BT14 6QU,54.6223380,-5.9562508
1,Lanyon Quay,BT1 3LG,54.5980973,-5.9211923
325,Cavehill Road,BT15 5EY,54.6331290,-5.9471839
2,Cromac Quay,BT7 2JD,54.5911688,-5.9242163
6,Fountain Street,BT1 5ED,54.5987229,-5.9316585
35-47,Donegall Place,BT1 5AW,54.5980903,-5.9307960
9-21,Adelaide Street,BT2 8DJ,54.5952121,-5.9288015
100-150,York Street,BT11 1WA,54.6087286,-5.9269838
1,Lanyon Place,BT1 3LP,54.5965528,-5.9209469
231,Lisburn Road,BT9 7EN,54.5815869,-5.9479818
31-33,Castle Lane,BT1 5DB,54.5986394,-5.9296836
18-22,Castle Place,BT1 1GB,54.5991803,-5.9293909
1,High Street,BT1 2AA,54.5992267,-5.9286576
27,Gresham Street,BT1 1JL,54.6014346,-5.9328441
19A,Royal Avenue,BT1 1FB,54.5998760,-5.9303116
17,Royal Avenue,BT1 1FB,54.5998272,-5.9302944
1-5,Royal Avenue,BT1 1FB,54.5995044,-5.9301805
23,Castle Place,BT1 1FY,54.5995035,-5.9300914
64,Holywood Road,BT4 1NT,54.5986013,-5.8862860
489,Falls Road,BT12 6DE,54.5893648,-5.9693083
485,Falls Road,BT12 6DE,54.5894320,-5.9692284
481,Falls Road,BT12 6DE,54.5894996,-5.9691511
479,Falls Road,BT12 6DE,54.5895342,-5.9691105
487,Falls Road,BT12 6DE,54.5893992,-5.9692683
483,Falls Road,BT12 6DE,54.5894660,-5.9691899
477,Falls Road,BT12 6DD,54.5896579,-5.9689632
505,Falls Road,BT12 6DE,54.5889120,-5.9699227
509,Falls Road,BT12 6DE,54.5888335,-5.9700160
503,Falls Road,BT12 6DE,54.5889630,-5.9698576
54,Knockbreda Road,BT6 0GA,54.5716656,-5.9072374
92,High Street,BT1 2BG,54.6007186,-5.9251768
54,Knockbreda Road,BT6 0GA,54.5716797,-5.9071395
55-59,Adelaide Street,BT2 8FE,54.5938759,-5.9284649
23,Alfred Street,BT2 8ED,54.5939578,-5.9273594
51,Adelaide Street,BT2 8FE,54.5941006,-5.9284511
227,Castlereagh Road,BT5 5FH,54.5864462,-5.8929078
41,Arthur Street,BT1 4GB,54.5977442,-5.9279320
2-14,Castle Street,BT1 1HB,54.5990178,-5.9310416
2-14,Castle Street,BT1 1HB,54.5990192,-5.9309650
27-37,Adelaide Street,BT1 8FE,54.5948286,-5.9286954
1,Victoria Square,BT1 4QG,54.5979570,-5.9251613
1,Victoria Square,BT1 4QG,54.5982746,-5.9246151
1,Victoria Square,BT1 4QG,54.5984895,-5.9249092
1,Victoria Square,BT1 4QG,54.5979521,-5.9263542
1,Victoria Square,BT1 4QG,54.5984743,-5.9246993
179,Andersonstown Road,BT11 9EA,54.5732394,-5.9951025
171,Victoria Square,BT1 4QG,54.5983720,-5.9263811
167a,Ligoniel Road,BT14 8DP,54.6262672,-5.9831529
159,Mount Merrion Avenue,BT6 0FN,54.5936544,-5.9121483
44a,Botanic Avenue,BT7 1JR,54.5879509,-5.9326688
127,Antrim Road,BT15 2BL,54.6120859,-5.9356634
17a,Ormeau Avenue,BT2 8HD,54.5928172,-5.9285026
139,Springfield Road,BT12 7AE,54.5983183,-5.9586858
306,Airport Road West,BT3 9EJ,54.6228709,-5.8611541
121,Donegall Road,BT12 5JL,54.5891821,-5.9407118
36-38,Boucher Road,BT12 6HR,54.5772491,-5.9623421
36,Boucher Road,BT12 6HR,54.5771040,-5.9620173
5,Heron Road,BT3 9HB,54.6328107,-5.8649785
1-3,Lower Garfield Street,BT1 1FP,54.6014255,-5.9304408
72,High Street,BT1 2BE,54.6007161,-5.9251453
59-95,High Street,BT1 2AB,54.5999794,-5.9260100
130,Ormeau Road,BT7 2EB,54.5856610,-5.9228084
15A,Donegall Pass,BT7 1DQ,54.5895246,-5.9325745
20,Great Victoria Street,BT2 7BA,54.5952320,-5.9342856
"11,13",Donegall Place,BT1 5AA,54.5986210,-5.9305277
87,Andersonstown Road,BT11 9BS,54.5750212,-5.9839538
77a,Andersonstown Road,BT11 9AH,54.5754245,-5.9830113
85,Andersonstown Road,BT11 9AH,54.5751999,-5.9833613
133a,Andersonstown Road,BT11 9BU,54.5738178,-5.9879635
105,Andersonstown Road,BT11 9EA,54.5745155,-5.9859711
105,Andersonstown Road,BT11 9EA,54.5744712,-5.9859362
105,Andersonstown Road,BT11 9EA,54.5744317,-5.9858836
105,Andersonstown Road,BT11 9BS,54.5743724,-5.9858544
105,Andersonstown Road,BT11 9BS,54.5743890,-5.9857542
113,Andersonstown Road,BT11 9BT,54.5743055,-5.9863681
115,Andersonstown Road,BT11 9BT,54.5742746,-5.9864830
119,Andersonstown Road,BT11 9BT,54.5742286,-5.9865595
121,Andersonstown Road,BT11 9BT,54.5742062,-5.9866553
123,Andersonstown Road,BT11 9BT,54.5741477,-5.9868300
125a,Andersonstown Road,BT11 9BT,54.5741049,-5.9870037
127,Andersonstown Road,BT11 9BU,54.5740726,-5.9871355
127a,Andersonstown Road,BT11 9BU,54.5740463,-5.9872445
129,Andersonstown Road,BT11 9BT,54.5740292,-5.9873183
131a,Andersonstown Road,BT11 9BU,54.5740206,-5.9873910
131a,Andersonstown Road,BT11 9BU,54.5739904,-5.9874682
131a,Andersonstown Road,BT11 9BU,54.5739680,-5.9875954
30,Kennedy Way,BT11 9AP,54.5762155,-5.9788697
40a,Church Lane,BT1 4QN,54.5996817,-5.9249648
29-33,Bedford Street,BT2 7GE,54.5932643,-5.9315780
44,Castle Street,BT1 1HB,54.5990851,-5.9321273
18,Deramore Drive,BT9 5JQ,54.5665280,-5.9470476
1b,Erinvale Drive,BT10 0GE,54.5553633,-5.9809946
1d,Erinvale Drive,BT10 0GE,54.5552532,-5.9809021
1a,Erinvale Drive,BT10 0GE,54.5554523,-5.9811622
195,Upper Lisburn Road,BT10 0LL,54.5595684,-5.9884226
3,Wellington Street,BT1 6HT,54.5964402,-5.9326053
511-513,Lisburn Road,BT9 7HN,54.5766597,-5.9553239
406,Lisburn Road,BT9 6GW,54.5720843,-5.9602519
639,Lisburn Road,BT9 7GT,54.5737177,-5.9584858
24,Donegall Street,BT1 2GP,54.6016608,-5.9286741
43b,Rosemary Street,BT1 1QB,54.6004119,-5.9301503
41,Little Donegall Street,BT1 2JD,54.6040827,-5.9319716
120,York Road,BT15 3HF,54.6212249,-5.9243505
440,Lisburn Road,BT9 6GR,54.5705242,-5.9620879
18-22,Hill Street,BT1 2LA,54.6016811,-5.9269654
38,Bedford Street,BT2 7FF,54.5943680,-5.9310174
49-51,Oxford Street,BT1 3NQ,54.5960978,-5.9215852
34,Wellington Place,BT1 6GF,54.5970036,-5.9334911
32-36,Queen Street,BT1 6EE,54.5978987,-5.9330864
276-278,Castlereagh Road,BT5 6AD,54.5849836,-5.8887642
173,Ardenlee Avenue,BT6 0AE,54.5823891,-5.8984172
2-4,Cromac Avenue,BT7 2JA,54.5901190,-5.9231378
2,Ballygomartin Road,BT13 3LD,54.6088523,-5.9686366
96-98,High Street,BT1 2BE,54.6007468,-5.9251329
96-98,High Street,BT1 2BE,54.6007357,-5.9251191
104,A23,BT5 4AE,54.5992198,-5.9131173
130,Ravenhill Road,BT6 8ED,54.5926222,-5.9105872
1-7,Shore Road,BT15 3PG,54.6223827,-5.9225481
1-7,Shore Road,BT15 3PG,54.6222868,-5.9226346
58,Somerton Road,BT15 4DD,54.6291459,-5.9348008
61,Somerton Road,BT15 4DD,54.6295664,-5.9347060
59-61,Somerton Road,BT15 4DD,54.6293480,-5.9340815
310,Newtownards Road,BT4 1HE,54.5993022,-5.8940896
16,Wynford Street,BT5 5DD,54.5951547,-5.8840690
18,Wynford Street,BT5 5DD,54.5951931,-5.8839977
20,Wynford Street,BT5 5DD,54.5952146,-5.8839195
22,Wynford Street,BT5 5DD,54.5952346,-5.8838826
24,Wynford Street,BT5 5DD,54.5952325,-5.8838731
26,Wynford Street,BT5 5DD,54.5951550,-5.8838302
28,Wynford Street,BT5 5DD,54.5951452,-5.8838221
2-4,Antrim Road,BT15 2AA,54.6077602,-5.9367990
683,Antrim Road,BT15 4EG,54.6364598,-5.9361811
145,Ravenhill Road,BT6 8GH,54.5876665,-5.9118638
9,Pirrie Park Gardens,BT6 0AG,54.5803502,-5.9059263
518,Ravenhill Road,BT6 0BY,54.5766606,-5.9108490
6,Botanic Court,BT7 1QY,54.5817314,-5.9292395
53-55,Crumlin Road,BT14 6ST,54.6095375,-5.9421885
156,Cliftonville Road,BT14 6HP,54.6167971,-5.9473350
614,Crumlin Road,BT14 7GL,54.6165987,-5.9712913
12-20,East Bridge Street,BT1 3NQ,54.5958881,-5.9220175
91,Chichester Street,BT1 3JQ,54.5969731,-5.9231865
10,Glengall Street,BT12 5AH,54.5944642,-5.9363989
397,Holywood Road,BT4 2LY,54.6094914,-5.8651644
188,Belmont Road,BT4 2AU,54.6017126,-5.8604912
125-153,Millfield,BT1 1HS,54.6004464,-5.9375112
2,Knockwood Crescent,BT5 6GE,54.5874151,-5.8669490
515,Lisburn Road,BT9 7EZ,54.5766735,-5.9557438
369-383,Lisburn Road,BT9 7EP,54.5802592,-5.9500711
306,Airport Road West,BT3 9EJ,54.6214072,-5.8631804
96,Templemore Avenue,BT5 4FW,54.5963966,-5.9011132
9,Lanyon Place,BT1 3LZ,54.5959400,-5.9206671
2,Titanic Boulevard,BT3 9HQ,54.6042013,-5.9106895
77-79,University Road,BT7 1NF,54.5847833,-5.9373860
25-51,York Street,BT15 1ED,54.6038092,-5.9288339
2,Knocknagoney Road,BT4 2PW,54.6198465,-5.8582361
100-150,York Street,BT15 1WA,54.6095337,-5.9269243
511,Falls Road,BT12 6DE,54.5891727,-5.9786138
20,Donegall Quay,BT1 1AA,54.6027550,-5.9227757
61,Duncairn Gardens,BT15 2GB,54.6122029,-5.9286409
110,Victoria Street,BT1 3GN,54.5964595,-5.9234984
12-22,Linenhall Street,BT2 8BS,54.5947326,-5.9294354
10-18,Adelaide Street,BT2 8GB,54.5946517,-5.9278539
17,Bedford Street,BT2 7GP,54.5946964,-5.9316415
39-49,Adelaide Street,BT2 8FD,54.5944120,-5.9287498
107-127,Grosvenor Road,BT12 4GT,54.5958969,-5.9406334
4-10,Linenhall Street,BT2 8BP,54.5952824,-5.9295134
104-110,Great Victoria Street,BT2 7BE,54.5919802,-5.9337163
14,Andersonstown Road,BT11 9AJ,54.5786939,-5.9787583
2,Ballygomartin Road,BT13 3LD,54.6076871,-5.9681496
564– 568,Falls Road,BT11 9AE,54.5812049,-5.9776784
166,Andersonstown Road,BT11 9BZ,54.5733654,-5.9918088
837,Shore Road,BT15 4HS,54.6417408,-5.9210466
219,Shore Road,BT15 3PR,54.6280508,-5.9220394
196,Shore Road,BT15 3QA,54.6268352,-5.9246564
405-407,Antrim Road,BT15 3BG,54.6204427,-5.9374807
8,Queens Road,BT3 9DT,54.6077805,-5.9088261
2A,Queens Road,BT3 9DT,54.6040025,-5.9127313
80,Sydenham Road,BT3 9DP,54.6037754,-5.9031721
2,Woodstock Link,BT6 8DD,54.5948913,-5.9061476
49,Somerton Road,BT15 3LH,54.6276316,-5.9339480
204-210,Upper Newtownards Road,BT4 3ET,54.5964491,-5.8762793
10,Exchange Street West,BT1 2NJ,54.6035570,-5.9275031
1,Malone Road,BT9 6BY,54.5833163,-5.9401582
62,Donegal Quay,BT1 3NH,54.6026502,-5.9215001
2,Royal Avenue,BT1 1DA,54.5995881,-5.9312894
1,Hill Street,BT1 2LA,54.6014215,-5.9263620
2,North Queen Street,BT15 1EQ,54.6064919,-5.9335699
9,Brougham Street,BT15 1JQ,54.6105253,-5.9247753
1,Pilot Place,BT1 3AG,54.6069042,-5.9202016
64,Donegal Quay,BT1 3NH,54.6023928,-5.9216745
66,Donegal Quay,BT1 3NH,54.6021535,-5.9217140
62-66,Great Victoria Street,BT2 7BZ,54.5937653,-5.9335891
6,Bankmore Street,BT7 1AQ,54.5914914,-5.9268622
11,Dargan Road,BT3 9JU,54.6292500,-5.9131484
4,Clarence Street West,BT2 7GP,54.5938047,-5.9319807
25-27,Ormeau Avenue,BT2 8HQ,54.5934885,-5.9303245
Unit 7A,Connswater Retail Park,BT5 4AF,54.5974304,-5.8928250
239,Newtownards Road,BT4 1AF,54.5985604,-5.8991914
1-3,Glenmachan Street,BT12 6JB,54.5882677,-5.9569179
36,Edenmore Drive,BT11 8LT,54.5770203,-5.9979703
7,Beechview Park,BT12 7PY,54.5916201,-5.9717160
2-4,Elmwood Avenue,BT9 6AY,54.5842138,-5.9379929
21-23,Knockbreda Road,BT6 0JA,54.5697657,-5.9115639
1,Marcus Ward Street,BT7 1DH,54.5921741,-5.9308591
51,Dublin Road,BT2 7HE,54.5916608,-5.9329488
60-66,Dublin Road,BT2 7HP,54.5910503,-5.9327046
2,Cromac Quay,BT7 2JD,54.5912499,-5.9241952
2,Queens Quay,BT3 9QQ,54.6037887,-5.9142798
276,Ravenhill Road,BT6 8GJ,54.5873381,-5.9102544
30-34,Hill Street,BT1 2LB,54.6019654,-5.9273307
7-11,Commercial Court,BT1 2NB,54.6017767,-5.9273261
51,Donegall Street,BT1 2FH,54.6019709,-5.9284235
405,Holywood Road,BT4 2GT,54.6120939,-5.8615105
10,Heron Road,BT3 9LE,54.6321423,-5.8663333
303,Airport Road West,BT3 9ED,54.6337209,-5.8606831
28-30,Great Patrick Street,BT1 2LT,54.6050345,-5.9271185
22,East Bridge Street,BT1 3NR,54.5960872,-5.9161285
245,Stranmillis Road,BT9 5JH,54.5707852,-5.9460229
463,Ormeau Road,BT7 3GR,54.5751133,-5.9170659
1,Lanyon Quay,BT1 3LG,54.5986568,-5.9205520
4-12,Holywood Road,BT4 1NT,54.5980628,-5.8886687
256,Newtownards Road,BT4 1HD,54.5990035,-5.8981975
1-31,McAllister Court,BT4 1SS,54.6013015,-5.8917197
1-31,McAllister Court,BT4 1SS,54.6010935,-5.8915627
514,Ravenhill Road,BT6 0BW,54.5787620,-5.9115747
514,Ravenhill Road,BT6 0BW,54.5784520,-5.9108302
7,Donegall Square West,BT1 6JH,54.5967591,-5.9318865
20,Wellington Place,BT1 6GE,54.5968321,-5.9325950
14,Donegall Square West,BT1 6JS,54.5961954,-5.9319291
192-212,Shankill Road,BT13 2BJ,54.6038070,-5.9495603
294,Beersbridge Road,BT5 5DX,54.5930088,-5.8892790
7-9,Shaftesbury Square,BT2 7DP,54.5897936,-5.9332844
18,Mount Charles,BT7 1NZ,54.5866297,-5.9345501
30,University Street,BT7 1FZ,54.5862689,-5.9331904
12,Cromac Quay,BT7 2JD,54.5913755,-5.9254101
35-39,Dublin Road,BT2 7HD,54.5921022,-5.9328539
132-136,Sandy Row,BT12 5EY,54.5905324,-5.9366760
259,Upper Newtownards Road,BT4 3JF,54.5947357,-5.8671841
199,Donegall Street,BT1 2FL,54.6052248,-5.9314970
472,Antrim Road,BT15 5GF,54.6289489,-5.9398276
474,Antrim Road,BT15 5GF,54.6294424,-5.9396018
51,Lisburn Road,BT9 7AB,54.5873480,-5.9443858
63-75,Duncairn Gardens,BT15 2GB,54.6123692,-5.9292338
22,Glandore Gardens,BT15 3FF,54.6247003,-5.9359751
2-4,Palmerston Road,BT4 1QA,54.6038066,-5.8761420
21,Malone Road,BT9 6RU,54.5812840,-5.9390423
82A,South Parade,BT7 2GQ,54.5786730,-5.9135663
1,Mount Merrion Park,BT6 0GA,54.5710899,-5.9063751
3,Cromac Place,BT7 2JB,54.5916503,-5.9232258
1,Bradbury Place,BT7 1RQ,54.5893443,-5.9347094
7-21,Bradbury Place,BT7 1RQ,54.5891055,-5.9350032
23-31,Bradbury Place,BT7 1RR,54.5889331,-5.9351786
8,Laganbank Road,BT1 3EL,54.5965643,-5.9166701
191,Falls Road,BT12 6FE,54.5938551,-5.9613435
6,Springhill Rise,BT12 7SL,54.5938453,-5.9783207
16,Skipper Street,BT1 2DZ,54.6009133,-5.9255548
195-199,Upper Newtownards Road,BT4 3JB,54.5951481,-5.8704103
201,Upper Newtownards Road,BT4 3JD,54.5951406,-5.8700710
1-7,Bedford Street,BT2 7EG,54.5956300,-5.9317572
100-116,Stewartstown Road,BT17 0LB,54.5682583,-6.0079196
2,Clarence Street West,BT2 7GP,54.5939511,-5.9314885
9-21,Adelaide Street,BT2 8DJ,54.5953059,-5.9288403
1,Westminster Avenue North,BT4 1NS,54.5986835,-5.8884111
6,Park Road,BT7 2FX,54.5805864,-5.9181269
180,Alexandra Park Avenue,BT15 3GJ,54.6194682,-5.9329602
1,Blackstaff Way,BT11 9DT,54.5780497,-5.9748786
5,Glengall Street,BT12 5AD,54.5953097,-5.9361518
475,Antrim Road,BT15 3DA,54.6227276,-5.9368938
45-54,Crumlin Road,BT14 6AB,54.6087456,-5.9394251
53-55,Crumlin Road,BT14 6ST,54.6089433,-5.9423641
53-55,Crumlin Road,BT14 6ST,54.6091150,-5.9418752
94-100,Crumlin Road,BT14 6AR,54.6085717,-5.9439620
569,Antrim Road,BT15 3BU,54.6259195,-5.9375500
565,Antrim Road,BT15 3BU,54.6258297,-5.9375566
561,Antrim Road,BT15 3BU,54.6257765,-5.9375604
551,Antrim Road,BT15 3BU,54.6254970,-5.9375370
40,Antrim Road,BT15 2AX,54.6091307,-5.9368172
1 Olympic Way,Queens Road,BT3 9DP,54.6081241,-5.9100427
31,Annadale Crescent,BT7 3DJ,54.5730593,-5.9277209
22,Annadale Crescent,BT7 3DJ,54.5727975,-5.9272072
35,Annadale Crescent,BT7 3NE,54.5724119,-5.9267312
37,Annadale Crescent,BT7 3NF,54.5720426,-5.9264053
1,Annadale Drive,BT7 3NA,54.5733325,-5.9281265
1-17,Lisburn Road,BT9 7AA,54.5878597,-5.9377776
52,Elmwood Avenue,BT9 6AZ,54.5853495,-5.9399033
137,Forthriver Road,BT13 3SG,54.6161054,-5.9793748
147A,Glen Road,BT11 8NR,54.5833054,-6.0027012
74,Somerton Road,BT15 3LH,54.6268489,-5.9351002
194,Cavehill Road,BT15 5EX,54.6331374,-5.9479168
16,Skipper Street,BT1 2DZ,54.6010139,-5.9259850
18-22,Hill Street,BT1 2LA,54.6016453,-5.9269641
16,Dunbar Street,BT1 2LH,54.6022421,-5.9259162
1,Skegoneill Avenue,BT15 3JN,54.6256535,-5.9374169
461-463,Antrim Road,BT15 3BJ,54.6221340,-5.9376043
65,Union Street,BT1 2JG,54.6030525,-5.9327645
90,Lisburn Road,BT9 6AG,54.5851529,-5.9406999
92-96,Lisburn Road,BT9 6AG,54.5850430,-5.9408667
34,College Gardens,BT9 6BT,54.5847240,-5.9416209
74-84,Lisburn Road,BT9 6AF,54.5856746,-5.9401354
2,Lisburn Road,BT9 6AA,54.5879633,-5.9359440
2-4,University Road,BT7 1NH,54.5878790,-5.9350672
38B,Finaghy Road South,BT10 0DR,54.5601309,-5.9828221
120,Blacks Road,BT10 0NF,54.5638350,-6.0023367
326,Crumlin Road,BT13 3HB,54.6108134,-5.9558539
326,Crumlin Road,BT14 7EE,54.6105319,-5.9557908
96,Victoria Street,BT1 3GN,54.5968801,-5.9235733
274,Grosvenor Road,BT12 6BA,54.5925179,-5.9549746
18,Malone Road,BT9 5BN,54.5816816,-5.9374151
257,North Queen Street,BT15 1HS,54.6116718,-5.9264072
165,Duncairn Gardens,BT15 2GE,54.6143331,-5.9344347
136,Cavehill Road,BT15 5BU,54.6308791,-5.9466073
23-29,Fountain Street,BT1 5EA,54.5984011,-5.9319991
38-42,Great Victoria Street,BT2 7BA,54.5947909,-5.9339392
14-18,Great Victoria Street,BT2 7BA,54.5953675,-5.9340146
15,Hope Street,BT12 5EE,54.5936487,-5.9353657
202-206,York Street,BT15 1JJ,54.6116282,-5.9237905
208,York Street,BT15 1JJ,54.6117418,-5.9238587
24,Lansdowne Park,BT15 4AE,54.6350140,-5.9279152
113-117,Donegall Street,BT1 2GE,54.6043046,-5.9305405
24-26,Alfred Street,BT28 8GD,54.5935499,-5.9276796
22,Adelaide Street,BT28 8GD,54.5939178,-5.9277504
Unit 12,Connswater Link,BT5 5DL,54.5957181,-5.8942081
76,The Mount,BT5 4NA,54.5942184,-5.9052575
124-144,Royal Avenue,BT1 1ND,54.6034964,-5.9306574
12-14,Union Street,BT1 2JF,54.6038595,-5.9315980
5,Blackstaff Way,BT11 9AP,54.5773801,-5.9726230
30-50,Distillery Street,BT12 5BJ,54.5938491,-5.9449882
162,Grosvenor Road,BT12 5AT,54.5944202,-5.9438370
10,Girdwood Avenue,BT14 6EG,54.6117291,-5.9408822
1,Slate Street,BT12 4LD,54.5958286,-5.9461155
331,Shankill Road,BT13 3AA,54.6046935,-5.9558507
18,Lanark Way,BT13 3BH,54.6029515,-5.9593380
83,Shankill Road,BT13 1FD,54.6040138,-5.9436832
32,Townsend Street,BT13 2ES,54.6018558,-5.9397022
25,Shankill Parade,BT13 1DS,54.6054738,-5.9411675
152,Agnes Street,BT13 1GG,54.6054613,-5.9462921
298-300,Shankill Road,BT13 2BN,54.6042159,-5.9549937
2-16,Shankill Road,BT13 1DS,54.6033624,-5.9408660
236A,Shankill Road,BT13 2BL,54.6039235,-5.9514909
267,Shankill Road,BT13 1FT,54.6044771,-5.9522019
143,Northumberland Street,BT13 2JF,54.6010938,-5.9477359
398,Springfield Road,BT12 7DU,54.6009641,-5.9663236
121,Donegall Road,BT12 5JL,54.5892040,-5.9405351
356-376,Ravenhill Road,BT6 8GL,54.5839293,-5.9109238
100,Castle Street,BT1 1HF,54.5990664,-5.9349646
45,Finaghy Road North,BT10 0JB,54.5665935,-5.9797477
47,Finaghy Road North,BT10 0JB,54.5673974,-5.9834717
157,Finaghy Road South,BT10 0DA,54.5519409,-5.9782968
35–43,Bedford Street,BT2 7EG,54.5929966,-5.9319025
68 - 72,Newtownards Road,BT4 1GW,54.6005314,-5.9091598
133-144,Malone Avenue,BT9 6ET,54.5812748,-5.9461587
36,Derryvolgie Avenue,BT9 6FP,54.5791190,-5.9435891
75,Malone Road,BT9 6AQ,54.5767632,-5.9442875
77,Malone Road,BT9 6AQ,54.5766550,-5.9445284
42,Botanic Avenue,BT7 1JQ,54.5881751,-5.9326436
22-64,Posnett Street,BT7 1FJ,54.5886652,-5.9323612
77,Donegall Pass,BT7 1DR,54.5897531,-5.9298151
4,Balmoral Road,BT12 6QA,54.5752105,-5.9597603
74,Boucher Road,BT12 6RZ,54.5711936,-5.9697055
425,Springfield Road,BT12 7DJ,54.6014663,-5.9694617
87,Stewartstown Road,BT11 9JP,54.5703947,-5.9987991
29,Stewartstown Road,BT11 9FZ,54.5711999,-6.0040406
11,Rosgoill Park,BT11 9QS,54.5735258,-6.0044946
206,Finaghy Road North,BT11 9EH,54.5725255,-5.9960255
2-4,Great Victoria Street,BT2 7HR,54.5953864,-5.9352387
1-3,Great Victoria Street,BT2 7BQ,54.5956011,-5.9353357
39,Athol Street,BT12 4GX,54.5962324,-5.9374839
49,Falls Road,BT12 4PD,54.5981548,-5.9526822
19,Falls Road,BT12 4PH,54.5990134,-5.9503679
5-7,Conway Street,BT13 2DE,54.5996577,-5.9510945
1,Marcus Ward Street,BT7 1DH,54.5922126,-5.9310861
65-65A,Dock Street,BT15 3AF,54.6084828,-5.9200022
258,Ormeau Road,BT7 2FZ,54.5776336,-5.9182719
256,Ormeau Road,BT7 2FZ,54.5777198,-5.9183258
312-320,Ormeau Road,BT7 2GE,54.5760157,-5.9170188
9,Ailesbury Crescent,BT7 3EZ,54.5741331,-5.9236004
11,Ailesbury Crescent,BT7 3EZ,54.5740807,-5.9236578
13,Ailesbury Crescent,BT7 3EZ,54.5739728,-5.9237005
15,Ailesbury Crescent,BT7 3EZ,54.5739145,-5.9237338
17,Ailesbury Crescent,BT7 3EZ,54.5738058,-5.9237600
19,Ailesbury Crescent,BT7 3EZ,54.5737505,-5.9237852
21,Ailesbury Crescent,BT7 3EZ,54.5736426,-5.9238850
23,Ailesbury Crescent,BT7 3EZ,54.5735872,-5.9238671
20,Ailesbury Crescent,BT7 3EZ,54.5734901,-5.9234862
296-298,Ormeau Road,BT7 2GB,54.5765902,-5.9174092
66,Balmoral Road,BT12 6QL,54.5733803,-5.9631214
23,Balmoral Road,BT12 6QA,54.5742387,-5.9612613
10,Balmoral Road,BT12 6QA,54.5734306,-5.9609014
13,Balmoral Road,BT12 6QA,54.5752720,-5.9623110
49-53,Boucher Road,BT12 6HR,54.5776891,-5.9639438
59,New Forge Lane,BT9 5NW,54.5579076,-5.9494618
21,Andersonstown Road,BT11 9AF,54.5789487,-5.9805234
139,Stewartstown Road,BT11 9NB,54.5676507,-6.0122026
120,Blacks Road,BT10 0NF,54.5637815,-6.0022510
43,Whiterock Road,BT12 7PF,54.5899886,-5.9723090
444,Falls Road,BT12 6EN,54.5873802,-5.9701471
446,Falls Road,BT12 6EN,54.5867588,-5.9706217
468,Falls Road,BT12 6EN,54.5864045,-5.9687816
444-448,Donegall Road,BT12 6HS,54.5877608,-5.9612103
28,Ballymacarett Road,BT4 1BT,54.6019599,-5.9045210
30-32,Ballymacarett Road,BT4 1BT,54.6020114,-5.9040868
1,Hope Street,BT12 5EE,54.5935410,-5.9332869
3-5,Malone Road,BT9 5LH,54.5822320,-5.9380345
23-27,Malone Road,BT9 6RU,54.5809988,-5.9385887
32,Malone Road,BT9 5BQ,54.5808506,-5.9379999
38,Wellington Park,BT9 6DN,54.5824090,-5.9420906
60,Wellington Park,BT9 6DP,54.5828901,-5.9438563
54,Wellington Park,BT9 6DP,54.5827954,-5.9435266
21,Bedford Street,BT2 7EJ,54.5938165,-5.9314746
45A,Deramore Park,BT9 5JX,54.5625351,-5.9413209
60,Knightsbridge Park,BT9 5EH,54.5646404,-5.9399813
283,Ormeau Road,BT7 3GG,54.5811823,-5.9215222
20,Brunswick Street,BT2 7GE,54.5946706,-5.9327197
698a,Springfield Road,BT12 7JE,54.5966697,-5.9810558
13,Corporation Square,BT1 3AJ,54.6048162,-5.9224844
132,University Street,BT7,54.5864865,-5.9246567
26,Norglen Gardens,BT11 8EL,54.5860478,-5.9892993
1a,Stranmillis Embankment,BT7 1GB,54.5821160,-5.9267620
163,Ormeau Road,BT7 1SP,54.5849894,-5.9230924
31a,Finwood Park,BT9 6QR,54.5583640,-5.9717346
35,Upper Malone Road,BT9 6TY,54.5570528,-5.9653751
33-35,Locksley Gardens,BT10 0EB,54.5597460,-5.9781415
417,Shankill Road,BT13 3AG,54.6060952,-5.9598573
447,Beersbridge Road,BT5 5DW,54.5951757,-5.8818710
48-50,Ann Street,BT1 4EG,54.5993351,-5.9256687
52-54,Ann Street,BT1 4EG,54.5993740,-5.9255211
56,Ann Street,BT1 4EG,54.5994053,-5.9253919
9 -15,Queen Street,BT1 6EA,54.5987371,-5.9335732
9-11,Fountain Street,BT1 5EA,54.5987988,-5.9317129
49,Queen's Square,BT1 3HU,54.6009175,-5.9225639
29,Queens Square,BT1 3FG,54.6008382,-5.9231277
34-38,Victoria Street,BT1 3GH,54.5999873,-5.9239019
15A,Donegall Road,BT12 5JJ,54.5897113,-5.9355144
188,Sandy Row,BT12 5EY,54.5894250,-5.9361973
41,Donegall Road,BT12 5JL,54.5894300,-5.9367656
12-16,Bridge Street,BT1 1LT,54.6001651,-5.9270936
130-132,Corporation Street,BT1 3DH,54.6073251,-5.9220966
443,Ormeau Road,BT7 3GQ,54.5758381,-5.9177064
569,Ormeau Road,BT7 3JB,54.5695108,-5.9141020
569,Ormeau Road,BT7 3JB,54.5696556,-5.9142754
30,Norglen Gardens,BT11 8EL,54.5857828,-5.9881562
14-18,Botanic Avenue,BT7 1JQ,54.5891297,-5.9332179
12-13,Shaftesbury Square,BT2 7DB,54.5893669,-5.9339693
9,Botanic Avenue,BT7 1JG,54.5891461,-5.9337946
11,Botanic Avenue,BT7 1JG,54.5890787,-5.9337632
21,Botanic Avenue,BT7 1JJ,54.5887687,-5.9335952
45,Botanic Avenue,BT7 1HB,54.5881294,-5.9333747
5,Waring Street,BT1 2EW,54.6008126,-5.9270833
1,Victoria Square,BT1 4QG,54.5990040,-5.9255768
35,Ann Street,BT1 4EB,54.5990534,-5.9256731
33,Ann Street,BT1 4EB,54.5989797,-5.9258186
29/31,Ann Street,BT1 4EB,54.5989470,-5.9259674
25-27,Ann Street,BT1 4EB,54.5989108,-5.9261328
87-89,Upper Lisburn Road,BT10 0GY,54.5642904,-5.9795755
200,Andersonstown Road,BT11 9EB,54.5726905,-5.9928100
200,Andersonstown Road,BT11 9EB,54.5728797,-5.9928259
52-56,Woodvale Road,BT13 3BT,54.6067421,-5.9619164
935-937,Crumlin Road,BT14 8AB,54.6240742,-5.9752821
25,Ardoyne Road,BT14 7HX,54.6148842,-5.9656697
240,Antrim Road,BT15 2AR,54.6159442,-5.9379243
107,Royal Avenue,BT1 1DD,54.6022026,-5.9311319
75,Botanic Avenue,BT7 1LJ,54.5870857,-5.9329038
390,Ormeau Road,BT7 3HX,54.5690383,-5.9134291
20,Carolan Road,BT7 3HE,54.5692248,-5.9184890
36,Whitehall Parade,BT7 3GX,54.5743801,-5.9193919
135,Ormeau Road,BT7 1SH,54.5853012,-5.9226605
3,Grand Parade,BT5 5HG,54.5850628,-5.8886687
65,Union Street,BT1 2JG,54.6030164,-5.9328546
730-760,Shore Road,BT15 4HL,54.6414311,-5.9244201
3,Connswater Link,BT5 5DL,54.5957318,-5.8924867
236-266,Lisburn Road,BT9 6GF,54.5784122,-5.9511304
24,Bladon Park,BT9 5LG,54.5676682,-5.9464821
40,Bladon Park,BT9 5LG,54.5676075,-5.9455430
2-4,Upper Lisburn Road,BT10 0AA,54.5663301,-5.9716026
269,Upper Lisburn Road,BT10 0LN,54.5569483,-5.9918410
35-47,Donegall Place,BT1 5AW,54.5979875,-5.9310263
17-21,Donegall Place,BT1 5FE,54.5983998,-5.9310064
44-46,Fountain Street,BT1 5EE,54.5977705,-5.9313901
Unit 34,Royal Avenue,BT1 1DD,54.6011127,-5.9318602
12-56,Royal Avenue,BT1 1DD,54.6005641,-5.9318627
54,Elmwood Avenue,BT9 6AZ,54.5849770,-5.9404135
52,Elmwood Avenue,BT9 6AZ,54.5849506,-5.9402993
50,Elmwood Avenue,BT9 6AZ,54.5848531,-5.9402779
48,Elmwood Avenue,BT9 6AZ,54.5849006,-5.9401103
46,Elmwood Avenue,BT9 6AZ,54.5848737,-5.9400122
44,Elmwood Avenue,BT9 6AZ,54.5848484,-5.9399162
42,Elmwood Avenue,BT9 6AZ,54.5848240,-5.9398237
40,Elmwood Avenue,BT9 6AZ,54.5847835,-5.9397408
25,College Gardens,BT9 6BS,54.5844916,-5.9406292
67,Malone Road,BT9 6SB,54.5789975,-5.9398452
Unit 1b,Royal Avenue,BT1 1DD,54.6004609,-5.9312136
Unit 1c,Royal Avenue,BT1 1DD,54.6004309,-5.9314780
260,Ormeau Road,BT7 2GB,54.5775920,-5.9182470
1,Lanyon Quay,BT1 3LG,54.5982724,-5.9211267
2,Lanyon Place,BT1 3WH,54.5975081,-5.9196703
1,Lanyon Place,BT1 3LP,54.5968667,-5.9207629
5,Lanyon Place,BT1 3BT,54.5964239,-5.9183696
4,Lanyon Place,BT1 3LP,54.5969318,-5.9186587
10,Lancaster Street,BT15 1EZ,54.6057744,-5.9287775
10B,Lancaster Street,BT15 1EZ,54.6058478,-5.9288943
10A,Lancaster Street,BT15 1EZ,54.6057722,-5.9286924
1,Ledley Hall Close,BT5 4SW,54.5925518,-5.8969788
80,Ballysillan Park,BT14 8HD,54.6304631,-5.9706073
120,Great George's Street,BT15 1FH,54.6070021,-5.9297543
51-53,Donegall Place,BT1 5AD,54.5976748,-5.9307381
17,Donegall Square North,BT1 5GB,54.5974784,-5.9316112
70-74,Donegall Street,BT1 2GU,54.6029623,-5.9299756
91-93,Royal Avenue,BT1 1FE,54.6017286,-5.9310062
100-150,York Street,BT15 1WA,54.6093666,-5.9245553
100-150,York Street,BT15 1WA,54.6094947,-5.9258807
2A,Edinburgh Street,BT9 7DS,54.5817165,-5.9478703
30-32,Bank Street,BT1 1HL,54.5995004,-5.9322061
34-36,Bank Street,BT1 1HL,54.5995155,-5.9323900
61-63,Castle Street,BT1 1GH,54.5993657,-5.9328382
1-3,Lower Garfield Street,BT1 1FP,54.6014696,-5.9304226
2-4,Donegall Place,BT1 5BA,54.5991307,-5.9299492
70,Upper Church Lane,BT1 4LG,54.5986693,-5.9242584
48,Donegall Place,BT1 5BY,54.5977384,-5.9292139
25-39,Arthur Street,BT1 4GD,54.5979147,-5.9281403
18,Chichester Street,BT1 4LB,54.5975162,-5.9279351
23-29,Castle Place,BT1 1FY,54.5996479,-5.9300222
11-15,Donegall Square North,BT1 5GB,54.5974318,-5.9313818
11/15,Donegall Square North,BT1 5GB,54.5974370,-5.9311660
47,Botanic Avenue,BT7 1JN,54.5878517,-5.9332004
5-7,Castle Place,BT1 1GA,54.5999351,-5.9296673
19,Lombard Street,BT1 1RB,54.6002032,-5.9290273
100-150,York Street,BT15 1WA,54.6088723,-5.9262892
107C,North Road,BT5 5NF,54.5934449,-5.8757199
1,McClintock Street,BT2 7GL,54.5942958,-5.9326831
17,Deramore Drive,BT9 5JR,54.5659809,-5.9464889
67-69,Botanic Avenue,BT7 1JL,54.5872710,-5.9329980
29,Garmoyle Street,BT15 1DY,54.6086294,-5.9205379
12-56,Royal Avenue,BT1 1AL,54.6005212,-5.9321276
78,Malone Road,BT9 5BW,54.5758273,-5.9401281
78,Malone Road,BT9 5BW,54.5759246,-5.9423116
135,Falls Road,BT12 6AE,54.5942970,-5.9588869
161,Connsbrook Avenue,BT4 1ND,54.6038460,-5.8805186
479-489,Falls Road,BT12 6DE,54.5894935,-5.9693254
491,Falls Road,BT12 6DE,54.5892029,-5.9696725
2,Harberton Green,BT9 6WS,54.5646097,-5.9662084
2,Wynford Street,BT5 5DD,54.5951339,-5.8844588
1,Scotts Court,BT4 3EE,54.5966924,-5.8825142
228,Upper Newtownards Road,BT4 3ET,54.5961953,-5.8756367
82,Belmont Road,BT4 3FG,54.5991647,-5.8657388
1–3,Eastleigh Drive,BT4 3DX,54.5951635,-5.8659969
27-37,Adelaide Street,BT2 8FH,54.5947288,-5.9286776
309,Upper Newtownards Road,BT4 3JH,54.5948013,-5.8641724
33-35,Malone Road,BT9 6RU,54.5806926,-5.9387892
12,Stranmillis Road,BT9 5AA,54.5810544,-5.9353314
452,Glen Road,BT11 8AY,54.5756546,-6.0166517
61,Falls Road,BT12 4PD,54.5979780,-5.9533903
15a,Ballymurphy Road,BT12 7JL,54.5921042,-5.9793417
230,Tennent Street,BT13 3GG,54.6097480,-5.9545029
4-22,Upper Riga Street,BT13 3GW,54.6053967,-5.9565231
247,Ballygomartin Road,BT13 3NH,54.6034609,-5.9815451
100,Cairnmartin Road,BT13 3PQ,54.6128327,-5.9713619
31-51,Oldpark Avenue,BT14 6HH,54.6160489,-5.9481013
93,Cliftonville Road,BT14 6JQ,54.6179659,-5.9444786
14,Newington Avenue,BT15 2HP,54.6163262,-5.9351665
700,Antrim Road,BT15 5GQ,54.6450445,-5.9364517
167a,Ligoniel Road,BT14 8DP,54.6263760,-5.9832878
395,Holywood Road,BT4 2LY,54.6081946,-5.8631033
36,Antrim Road,BT15 2AE,54.6089105,-5.9383005
1,Monagh Link,BT11 8QB,54.5862382,-5.9933549
9,Pirrie Park Gardens,BT6 0AG,54.5804173,-5.9060340
323,Cupar Street,BT13 2SE,54.6011643,-5.9607731
18,Churchill Street,BT15 2BP,54.6090139,-5.9351030
4,Cooke Street,BT7 2EP,54.5885059,-5.9232758
1,Malone Road,BT9 6BY,54.5843018,-5.9419575
8-30,Barrack Street,BT12 4AH,54.5991738,-5.9379288
48,Botanic Avenue,BT7 1JR,54.5878861,-5.9326412
50,Botanic Avenue,BT7 1JR,54.5878486,-5.9326251
26,Ailesbury Crescent,BT7 3EZ,54.5732723,-5.9238326
28,Ailesbury Crescent,BT7 3EZ,54.5732689,-5.9239313
32,Ailesbury Crescent,BT7 3EZ,54.5732755,-5.9242304
30,Ailesbury Crescent,BT7 3EZ,54.5732745,-5.9241316
36,Ailesbury Crescent,BT7 3EZ,54.5732735,-5.9245163
34,Ailesbury Crescent,BT7 3EZ,54.5732725,-5.9244176
40,Ailesbury Crescent,BT7 3EZ,54.5732847,-5.9248012
38,Ailesbury Crescent,BT7 3EZ,54.5732838,-5.9247025
44,Ailesbury Crescent,BT7 3EZ,54.5732591,-5.9250970
42,Ailesbury Crescent,BT7 3EZ,54.5732876,-5.9249974
48,Ailesbury Crescent,BT7 3EZ,54.5732940,-5.9253989
46,Ailesbury Crescent,BT7 3EZ,54.5732929,-5.9253002
52,Ailesbury Crescent,BT7 3EZ,54.5732548,-5.9256939
50,Ailesbury Crescent,BT7 3EZ,54.5732539,-5.9255951
43,Ailesbury Crescent,BT7 3EZ,54.5735239,-5.9253911
41,Ailesbury Crescent,BT7 3EZ,54.5735230,-5.9252923
39,Ailesbury Crescent,BT7 3EZ,54.5735169,-5.9251002
37,Ailesbury Crescent,BT7 3EZ,54.5735160,-5.9250015
35,Ailesbury Crescent,BT7 3EZ,54.5735154,-5.9248080
33,Ailesbury Crescent,BT7 3EZ,54.5735145,-5.9247092
31,Ailesbury Crescent,BT7 3EZ,54.5735198,-5.9245159
29,Ailesbury Crescent,BT7 3EZ,54.5735289,-5.9244168
27,Ailesbury Crescent,BT7 3EZ,54.5735148,-5.9242286
25,Ailesbury Crescent,BT7 3EZ,54.5735138,-5.9241298
24,Ailesbury Crescent,BT7 3EZ,54.5733307,-5.9236008
22,Ailesbury Crescent,BT7 3EZ,54.5733682,-5.9235263
47,Ailesbury Crescent,BT7 3EZ,54.5735776,-5.9256807
45,Ailesbury Crescent,BT7 3EZ,54.5735766,-5.9255819
51,Ailesbury Crescent,BT7 3EZ,54.5734806,-5.9259431
49,Ailesbury Crescent,BT7 3EZ,54.5735324,-5.9259012
56,Ailesbury Crescent,BT7 3EZ,54.5733493,-5.9259397
54,Ailesbury Crescent,BT7 3EZ,54.5732957,-5.9259049
171-173,Upper Newtownards Road,BT4 3HZ,54.5954128,-5.8730764
5,Winetavern Street,BT1 1JQ,54.6014889,-5.9334613
7,Winetavern Street,BT1 1JQ,54.6015265,-5.9334554
11,Winetavern Street,BT1 1JQ,54.6016015,-5.9334435
9,Winetavern Street,BT1 1JQ,54.6015639,-5.9334494
13,Winetavern Street,BT1 1JQ,54.6016390,-5.9334375
15,Winetavern Street,BT1 1JQ,54.6016764,-5.9334316
17,Winetavern Street,BT1 1JQ,54.6017140,-5.9334257
19,Winetavern Street,BT1 1JQ,54.6017515,-5.9334198
21,Winetavern Street,BT1 1JQ,54.6017890,-5.9334138
23,Winetavern Street,BT1 1JQ,54.6018251,-5.9333824
210,York Street,BT15 1JJ,54.6120195,-5.9240893
94-100,Sunnyside Street,BT7 3EG,54.5759738,-5.9235439
10,May's Meadow,BT1 3PH,54.5941892,-5.9162869
12-28,Albert Street,BT12 4HJ,54.5969678,-5.9404983
A5,310 Newtownards Rd,BT4 1HE,54.5985520,-5.8944313
1,Springfield Avenue,BT12 7BA,54.5967814,-5.9618890
2,Huss Row,BT13 1EE,54.6046711,-5.9473375
205,Malone Road,BT9 5PB,54.5570887,-5.9565118
6-10,Ballymacarett Road,BT4 1GW,54.6008828,-5.9088461
80,Malone Road,BT9 5BU,54.5761361,-5.9431450
2,Rowan Gardens,BT9 5BW,54.5756509,-5.9390670
3,Rowan Gardens,BT9 5BW,54.5755599,-5.9386320
10,Sycamore Park,BT9 5BW,54.5756036,-5.9381998
1,Beech Grove,BT9 5BW,54.5748837,-5.9393331
2,Beech Grove,BT9 5BW,54.5749746,-5.9397678
6,Rowan Gardens,BT9 5BW,54.5754689,-5.9394516
5,Rowan Gardens,BT9 5BW,54.5753850,-5.9390314
4,Rowan Gardens,BT9 5BW,54.5752919,-5.9385993
9,Sycamore Park,BT9 5BW,54.5751758,-5.9379167
8,Sycamore Park,BT9 5BW,54.5750149,-5.9375675
7,Sycamore Park,BT9 5BW,54.5753449,-5.9376304
6,Sycamore Park,BT9 5BW,54.5755907,-5.9378112
5,Sycamore Park,BT9 5BW,54.5758819,-5.9377716
1,Holly Grove,BT9 5BW,54.5767276,-5.9397293
638,Springfield Road,BT12 7DY,54.5975839,-5.9746195
1,Mayo Link,BT13 3BD,54.6032619,-5.9598803
169,Ligoniel Road,BT14 8DP,54.6266311,-5.9836346
23,Hannahstown Hill,BT17 0LT,54.5820391,-6.0284710
320,Lisburn Road,BT19 1SZ,54.5764910,-5.9532831
442-446,Newtownards Road,BT12 6QA,54.5979200,-5.8891674
5-17,Ann Street,BT1 4EJ,54.5987555,-5.9270133
1-27,Castle Street,BT1 1BL,54.5993136,-5.9311460
278a,Beersbridge Road,BT5 4RZ,54.5930220,-5.8932674
698,Antrim Road,BT15 5GL,54.6470756,-5.9527238
34,Somerdale Park,BT14 7HD,54.6156304,-5.9737415
1a,Wedderburn Gardens,BT10 0FZ,54.5561835,-5.9855174
16,Orangefield Drive South,BT5 6DL,54.5897708,-5.8753459
12,Hampton Manor Drive,BT7 3EN,54.5668354,-5.9214055
12,Hampton Manor Drive,BT7 3EN,54.5668486,-5.9206141
1,Wynford Street,BT5 5DD,54.5950517,-5.8847765
3,Wynford Street,BT5 5DD,54.5950161,-5.8847391
5,Wynford Street,BT5 5DD,54.5949804,-5.8847204
7,Wynford Street,BT5 5DD,54.5949447,-5.8846805
9,Wynford Street,BT5 5DD,54.5949091,-5.8846598
3,Holly Grove,BT9 5BW,54.5765385,-5.9389305
2,Holly Grove,BT9 5BW,54.5766321,-5.9393497
358,Woodstock Road,BT6 9DQ,54.5882519,-5.9004857
115-119,My Lady's Road,BT6 8FB,54.5906262,-5.9058095
409,Ormeau Road,BT7 3GP,54.5768227,-5.9182743
407,Ormeau Road,BT7 3GP,54.5768643,-5.9183077
387,Ormeau Road,BT7 3GP,54.5775490,-5.9188006
395,Ormeau Road,BT7 3GP,54.5773405,-5.9186912
435,Ormeau Road,BT7 3GQ,54.5760021,-5.9177112
485,Ormeau Road,BT7 3GR,54.5735830,-5.9160138
101,Cregagh Road,BT6 8PY,54.5833228,-5.8988135
377,Ormeau Road,BT7 2FZ,54.5778919,-5.9190561
275,Woodstock Road,BT6 8PR,54.5905281,-5.9028187
1,Mount Merrion Park,BT6 0GA,54.5711023,-5.9064616
8,Wynford Street,BT5 5DD,54.5950259,-5.8844105
6,Wynford Street,BT5 5DD,54.5950660,-5.8844158
4,Wynford Street,BT5 5DD,54.5951009,-5.8844341
446–450,Crumlin Road,BT14 7GH,54.6140725,-5.9658403
109,Salisbury Avenue,BT15 5EB,54.6301442,-5.9413931
111,Salisbury Avenue,BT15 5EH,54.6303999,-5.9416027
440,Lisburn Road,BT9 6GR,54.5705345,-5.9620673
157,Cromac Street,BT2 8JE,54.5926820,-5.9257354
155,Cromac Street,BT2 8JE,54.5927087,-5.9256300
153,Cromac Street,BT2 8JE,54.5927619,-5.9256215
69-71,Great Victoria Street,BT2 7AF,54.5924270,-5.9346219
34a,Iveagh Crescent,BT12 6AW,54.5899990,-5.9616189
20,Airport Road West,BT3 9ED,54.6188552,-5.8866247
66,Balmoral Road,BT12 6QL,54.5732401,-5.9629965
1,Rowan Gardens,BT9 5BW,54.5757485,-5.9395482
4,Sycamore Park,BT9 5BW,54.5762862,-5.9376332
3,Sycamore Park,BT9 5BW,54.5765413,-5.9376354
2,Sycamore Park,BT9 5BW,54.5765423,-5.9379847
1,Sycamore Park,BT9 5BW,54.5762813,-5.9380070
4,Holly Grove,BT9 5BW,54.5764392,-5.9385667
107B,North Road,BT5 5NF,54.5933548,-5.8757629
107A,North Road,BT5 5NF,54.5933235,-5.8757758
320,Lisburn Road,BT19 1SZ,54.5765111,-5.9534650
10,Wynford Street,BT5 5DD,54.5951456,-5.8842908
12,Wynford Street,BT5 5DD,54.5951707,-5.8842083
14,Wynford Street,BT5 5DD,54.5951834,-5.8841490
135c,Upper Lisburn Road,BT10 0LH,54.5618722,-5.9843830
12,Finaghy Road North,BT10 0JA,54.5617260,-5.9852596
683,Antrim Road,BT15 4EG,54.6365264,-5.9361883
7,Queens Road,BT3 9DT,54.6063283,-5.9094248
22,Ormeau Avenue,BT2 8HS,54.5928292,-5.9305557
10-14,Victoria Street,BT1 3GG,54.5969459,-5.9220786
743,Upper Newtownards Road,BT16 2QY,54.5919999,-5.8200008
97,Lisburn Road,BT9 7BL,54.5857793,-5.9422838
2,Duncairn Gardens,BT15 2GG,54.6119936,-5.9282139
177,Upper Donegall Street,BT1 2FJ,54.6043459,-5.9308540
1A,College Square East,BT1 6DF,54.5974775,-5.9355790
68,Ard Na Va Road,BT12 6FF,54.5926288,-5.9704020
55,Templemore Avenue,BT5 4HN,54.5974998,-5.9024699
34,Annadale Avenue,BT7 3JJ,54.5675046,-5.9210738
21-23,Sydenham Road,BT3 9HA,54.6026158,-5.9105836
28,Elmwood Avenue,BT9 6AY,54.5846504,-5.9394940
22,Elmwood Avenue,BT9 6AY,54.5844939,-5.9387867
20,University Square,BT7 1PA,54.5856371,-5.9339277
2-14,Castle Street,BT1 1SY,54.5988015,-5.9313812
2-14,Castle Street,BT1 1HB,54.5989807,-5.9309933
619,Antrim Road,BT15 4DZ,54.6308919,-5.9355160
36,Derryvolgie Avenue,BT9 6FP,54.5795720,-5.9433549
123,Stranmillis Road,BT9 5AH,54.5800328,-5.9362294
310,Belmont Road,BT4 2HD,54.6044954,-5.8549371
8,College Avenue,BT1 6DS,54.5983168,-5.9344383
9-15,Bedford Street,BT2 7EG,54.5951720,-5.9319002
179,Andersonstown Road,BT11 9EA,54.5734332,-5.9954859
30,Divis Street,BT1 1HS,54.5998017,-5.9403838
1,Malone Road,BT9 6BY,54.5814200,-5.9222615
