House number,Street name,Postal code,Latitude,Longitude
18,Strada Filarmonicii,550165,45.7959704,24.1552942
18,Strada Vasile Aaron,550297,45.7850745,24.1685106
53,Strada Nicolae Bălcescu,550159,45.7929417,24.1491975
2 A,Strada Lucian Blaga,550169,45.7934048,24.1564652
1,Strada Emil Cioran,550025,45.7896794,24.1470733
1,Bulevardul Mihai Viteazul,550350,45.7824876,24.1489637
7,Bulevardul Mihai Viteazul,550350,45.7815612,24.1508621
137A,Strada Ștefan cel Mare,550316,45.7889694,24.1753300
11,Strada Semaforului,550309,45.7845296,24.1713521
1 - 3,Strada Avram Iancu,550183,45.7976796,24.1523379
6,Piața Prahovei,550409,45.7770657,24.1460786
11,Bulevardul Mihai Viteazul,550350,45.7811493,24.1517876
15,Bulevardul Mihai Viteazul,550350,45.7805356,24.1529469
6,Strada Axente Sever,550247,45.7932518,24.1623874
11,Bulevardul Mihai Viteazul,550350,45.7809104,24.1522747
11,Bulevardul Mihai Viteazul,550350,45.7810632,24.1519765
37,Strada Nicolae Bălcescu,550159,45.7935714,24.1499866
P 13 A,Strada Nicolae Iorga,550341,45.7789899,24.1549284
40-42,Strada Nicolae Bălcescu,550159,45.7932542,24.1491057
7,Bulevardul Mihai Viteazul,550350,45.7816944,24.1505855
5,Bulevardul Mihai Viteazul,550350,45.7819338,24.1503330
1-3,Strada Nicolae Bălcescu,550159,45.7956359,24.1511361
39,Calea Dumbrăvii,550324,45.7838567,24.1484683
8,Strada Gheorghe Lazăr,550165,45.7955892,24.1541016
55A,Strada Livezii,550042,45.7895751,24.1166375
55A,Strada Livezii,550042,45.7896574,24.1167609
55A,Strada Livezii,550042,45.7896013,24.1167180
11,Strada Victor Hugo,550278,45.7887738,24.1654427
22,Strada Ocnei,550188,45.8007013,24.1505145
21,Strada Vopsitorilor,550190,45.7996506,24.1471171
12,Strada Cetății,550160,45.7947560,24.1538714
14,Strada Cetății,550160,45.7946949,24.1537545
1,Strada Frigoriferului,550047,45.7972421,24.1234851
10,Piața Unirii,551025,45.7926515,24.1482474
6,Strada Nicolae Bălcescu,550159,45.7953517,24.1504828
15,Bulevardul Victoriei,550024,45.7889989,24.1437265
16,Bulevardul Victoriei,550024,45.7896993,24.1441169
18,Bulevardul Victoriei,550024,45.7895868,24.1439593
19,Bulevardul Victoriei,550024,45.7887996,24.1433728
24,Bulevardul Victoriei,550024,45.7892717,24.1435045
26,Bulevardul Victoriei,550024,45.7891548,24.1433087
28,Bulevardul Victoriei,550024,45.7890245,24.1431181
29,Bulevardul Victoriei,550024,45.7878346,24.1421906
30,Bulevardul Victoriei,550024,45.7888775,24.1429641
32,Bulevardul Victoriei,550024,45.7887763,24.1427848
34,Bulevardul Victoriei,550024,45.7887123,24.1426911
36,Bulevardul Victoriei,550024,45.7885922,24.1424227
36,Strada Andrei Șaguna,550009,45.7932531,24.1451707
9,Strada Andrei Șaguna,550009,45.7925465,24.1459368
38,Bulevardul Victoriei,550024,45.7882575,24.1417064
40,Bulevardul Victoriei,550024,45.7875145,24.1413746
42,Bulevardul Victoriei,550024,45.7865023,24.1401691
44A,Bulevardul Victoriei,550024,45.7858538,24.1398892
44B,Bulevardul Victoriei,550024,45.7857861,24.1395257
2,Strada Samuel Brukenthal,550178,45.7968032,24.1506455
4,Strada Nicolae Bălcescu,550159,45.7955708,24.1506502
2,Strada Nicolae Bălcescu,550159,45.7959422,24.1510148
1,Piața Mare,550163,45.7974832,24.1520763
16,Piața Mare,550163,45.7975328,24.1525346
2,Strada Avram Iancu,550183,45.7976354,24.1525709
2,Piața Mare,550163,45.7972293,24.1519012
4,Piața Mică,550182,45.7971546,24.1513684
5,Piața Mică,550182,45.7970606,24.1507140
12,Bulevardul Corneliu Coposu,550245,45.7967677,24.1603233
14,Bulevardul Corneliu Coposu,550245,45.7967396,24.1607194
16,Bulevardul Corneliu Coposu,550245,45.7969723,24.1607093
20,Bulevardul Corneliu Coposu,550245,45.7970312,24.1611698
41,Strada Mitropoliei,550179,45.7933843,24.1462548
28,Strada Mitropoliei,550179,45.7944779,24.1467986
30,Strada Mitropoliei,550179,45.7941045,24.1463394
11,Piața Mică,550182,45.7976053,24.1511072
4,Strada Școala de Înot,550005,45.7866250,24.1469000
21,Piața Mică,550182,45.7983840,24.1510760
11,Piața Mică,550182,45.7975553,24.1510520
22,Strada Mitropoliei,550179,45.7948782,24.1476365
4 - 5,Piața Mare,550163,45.7965470,24.1506559
2,Strada Mitropoliei,550179,45.7969750,24.1495900
26,Piața Mică,550182,45.7982688,24.1521073
2D,Strada Lungă,550107,45.8007645,24.1433152
67,Strada Lungă,550107,45.8093003,24.1466280
10,Strada Corneliu Coposu,550245,45.7965600,24.1601790
80a,Calea Cisnădiei,550409,45.7752289,24.1480674
2,Emil Cioran,550025,45.7911152,24.1478115
32A,Calea Turnișorului,550136,45.8013491,24.1313034
43,Strada Livezii,550042,45.7910361,24.1174725
21,Strada Nicolae Bălcescu,550159,45.7941828,24.1504002
24,Calea Dumbrăvii,550324,45.7874767,24.1493931
2,Strada Emil Cioran,550025,45.7894603,24.1463548
21,Strada Nouă,550257,45.8009062,24.1522287
49,Calea Gușteriței,550260,45.8060994,24.1725750
101,Strada Viilor,550272,45.8084821,24.1876689
1,Bulevardul Mihai Viteazul,550350,45.7824471,24.1490339
5,Bulevardul Mihai Viteazul,550350,45.7820383,24.1501299
11,Bulevardul Mihai Viteazul,550350,45.7812167,24.1516604
15,Bulevardul Mihai Viteazul,550350,45.7805097,24.1530222
15,Bulevardul Mihai Viteazul,550350,45.7803229,24.1533972
45,Strada Rahovei,550345,45.7766448,24.1567526
10,Strada Semaforului,550309,45.7844321,24.1711719
4,Aleea Biruinței,550350,45.7809398,24.1536672
34D,Strada Mirăslău,550357,45.7838525,24.1541510
33,Strada Mirăslău,550357,45.7834457,24.1541551
70,Strada Mașiniștilor,550242,45.7999568,24.1727949
2,Strada Emil Cioran,550025,45.7911797,24.1477626
1 A,Strada Izvorului,550172,45.7936698,24.1578551
1 A,Strada Izvorului,550172,45.7936876,24.1578994
1 A,Strada Izvorului,550172,45.7936988,24.1579366
2,Strada Doctor Ioan Lupaș,550176,45.7945456,24.1454400
2,Strada Doctor Ioan Lupaș,550176,45.7945799,24.1456537
11,Bulevardul Mihai Viteazul,550350,45.7809772,24.1519708
15,Bulevardul Mihai Viteazul,550350,45.7803936,24.1531564
11B,Bulevardul Mihai Viteazul,550350,45.7812767,24.1526360
31,Bulevardul Mihai Viteazul,550341,45.7780478,24.1579033
3,Bulevardul Mihai Viteazul,550350,45.7829188,24.1500074
7B,Bulevardul Mihai Viteazul,550350,45.7818304,24.1512842
21,Bulevardul Mihai Viteazul,550341,45.7791330,24.1556932
20,Bulevardul Mihai Viteazul,550365,45.7777168,24.1574460
5,Bulevardul Mihai Viteazul,550350,45.7819987,24.1501575
7A,Bulevardul Mihai Viteazul,550350,45.7823128,24.1510964
18,Bulevardul Mihai Viteazul,550365,45.7782014,24.1567285
2,Bulevardul Mihai Viteazul,550365,45.7823447,24.1485079
25,Bulevardul Mihai Viteazul,550341,45.7786651,24.1565729
7,Bulevardul Mihai Viteazul,550350,45.7819950,24.1509033
29,Bulevardul Mihai Viteazul,550341,45.7782536,24.1574795
16,Bulevardul Mihai Viteazul,550365,45.7786541,24.1558219
5A,Bulevardul Mihai Viteazul,550350,45.7825711,24.1503883
23,Bulevardul Mihai Viteazul,550341,45.7789160,24.1561331
12,Bulevardul Mihai Viteazul,550365,45.7797203,24.1535689
27,Bulevardul Mihai Viteazul,550341,45.7784857,24.1570236
11A,Bulevardul Mihai Viteazul,550350,45.7815011,24.1522873
10,Aleea Frații Buzești,550406,45.7798885,24.1517992
4,Aleea Frații Buzești,550406,45.7804611,24.1506190
16,Aleea Frații Buzești,550367,45.7792379,24.1529165
3,Aleea Frații Buzești,550375,45.7808228,24.1504547
5,Aleea Frații Buzești,550367,45.7805357,24.1510642
9,Aleea Frații Buzești,550367,45.7799222,24.1522605
7,Aleea Frații Buzești,550375,45.7802177,24.1516811
11,Aleea Frații Buzești,550375,45.7796380,24.1528720
12,Aleea Frații Buzești,550367,45.7794425,24.1523276
1,Aleea Frații Buzești,550367,45.7810894,24.1498680
8,Aleea Frații Buzești,550406,45.7798099,24.1512842
7,Strada Bihorului,550064,45.7883201,24.1353701
63 B,Strada Henri Coandă,550234,45.7938774,24.1855277
6,Strada Timotei Popovici,550164,45.7954994,24.1531886
42,Bulevardul Victoriei,550024,45.7869115,24.1406191
20,Strada Petrila,550208,45.8050666,24.1637990
17,Strada Blănarilor,550254,45.7984685,24.1586128
15,Strada Gării,550214,45.8003672,24.1623668
53,Calea Turnișorului,550136,45.8000780,24.1313570
8,Strada Târgul Peștelui,550195,45.7973039,24.1473631
8,Strada Târgul Peștelui,550195,45.7973529,24.1472754
45,Strada Rahovei,550345,45.7773300,24.1581596
67,Strada Henri Coandă,550234,45.7907872,24.1799674
2,Strada Izvorului,550172,45.7936275,24.1582398
3,Strada General Magheru,550185,45.7969017,24.1531353
12,Strada Turnului,550197,45.7983299,24.1486563
35,Calea Dumbrăvii,550324,45.7840439,24.1485514
18,Strada Școala de Înot,550005,45.7857930,24.1456946
60,Strada 9 Mai,550201,45.7999285,24.1563806
1,Strada Neppendorf,550031,45.7934877,24.1141969
2,Strada Nicolae Bălcescu,550159,45.7957185,24.1508633
12,Strada Alexandru Papiu-Ilarian,550160,45.7939587,24.1516302
10,Piața Mare,550163,45.7962990,24.1522443
4,Strada Samuel Brukenthal,550178,45.7969615,24.1503122
86E,Strada Zăvoi,550036,45.7755194,24.1055131
41,Calea Dumbrăvii,550324,45.7836826,24.1484199
24,Strada Turnului,550197,45.7987929,24.1471483
1,Strada Nicolae Teclu,550200,45.8019488,24.1563511
38,Calea Gușteriței,550223,45.8056892,24.1713609
8,Piața Albert Huet,550182,45.7974406,24.1506217
1,Strada Lector,557260,45.7967491,24.1636846
1,Strada Lector,557260,45.7963104,24.1633722
1,Strada Lector,557260,45.7964596,24.1628426
1,Strada Lector,557260,45.7963983,24.1636670
1,Strada Lector,557260,45.7966082,24.1629727
1,Strada Lector,557260,45.7970400,24.1628295
1,Strada Lector,557260,45.7971787,24.1626670
1,Strada Lector,557260,45.7973052,24.1625238
1,Strada Lector,557260,45.7974091,24.1623912
1,Strada Lector,557260,45.7974982,24.1628175
1,Strada Lector,557260,45.7973405,24.1628170
1,Strada Lector,557260,45.7972257,24.1629830
1,Strada Lector,557260,45.7976258,24.1627783
1,Strada Lector,557260,45.7975168,24.1630509
1,Strada Lector,557260,45.7974123,24.1631993
1,Strada Lector,557260,45.7972913,24.1633156
1,Strada Lector,557260,45.7971665,24.1632104
1,Strada Lector,557260,45.7969330,24.1634985
1,Strada Lector,557260,45.7970196,24.1632715
1,Strada Lector,557260,45.7964992,24.1631716
1,Strada Lector,557260,45.7965385,24.1635177
1,Strada Lector,557260,45.7970644,24.1635968
1,Strada Lector,557260,45.7965294,24.1639490
1,Strada Lector,557260,45.7963124,24.1629568
1,Strada Lector,557260,45.7961949,24.1630839
1,Strada Lector,557260,45.7967679,24.1627265
1,Strada Lector,557260,45.7966690,24.1634034
1,Strada Lector,557260,45.7969076,24.1625919
1,Strada Lector,557260,45.7967604,24.1630389
5,Strada Felinarului,550253,45.7992429,24.1554782
1,Strada Lector,557260,45.7971763,24.1622605
1,Strada Lector,557260,45.7967654,24.1624391
10,Strada Nicolae Bălcescu,550159,45.7948761,24.1503480
15,Strada Gorjului,557260,45.7882815,24.1357458
10,Strada Ștrandului,550068,45.7885774,24.1363310
192,Strada Ștefan cel Mare,550321,45.7903134,24.2081906
3,Strada Vasile Aaron,550297,45.7834412,24.1645769
192,Strada Ștefan cel Mare,550321,45.7900384,24.2086411
192,Strada Ștefan cel Mare,550321,45.7902594,24.2079263
192,Strada Ștefan cel Mare,550321,45.7903301,24.2086055
13B,Strada Dealului,550010,45.7914337,24.1423183
16,Strada Paltinul,557277,45.7845460,24.1649947
5A,Strada Școala de Înot,557260,45.7846633,24.1450635
7,Strada Ocnei,550188,45.7998346,24.1504048
188,Aleea Frații Buzești,550367,45.7812670,24.1498991
27A,Strada Ștrandului,550068,45.7861466,24.1367441
13A,Strada Lector,557260,45.7972367,24.1622117
1,Strada Badea Cârțan,550145,45.7725129,24.1256731
36,Strada Luptei,550330,45.7811973,24.1585284
2,Strada Zaharia Boiu,550006,45.7889968,24.1452220
16,Calea Gușteriței,550223,45.8005526,24.1667571
4,Strada Școala de Înot,550005,45.7855232,24.1462998
2,Strada Malului,550197,45.7961265,24.1390213
9,Strada Rusciorului,550112,45.8075057,24.1513675
4,Strada Rândunelelor,550209,45.8066839,24.1681972
18,Strada Moldoveanu,550276,45.7867525,24.1625381
73,Șoseaua Alba Iulia,550052,45.7892405,24.0942903
197A,Strada Ștefan cel Mare,555310,45.7916842,24.2101481
197A,Strada Ștefan cel Mare,555310,45.7918517,24.2090759
197A,Strada Ștefan cel Mare,555310,45.7922341,24.2102159
10,Strada Oașa,550305,45.7835684,24.1738093
1,Strada Oașa,550305,45.7838226,24.1712310
3,Strada Oașa,550305,45.7834081,24.1716653
4,Strada Oașa,550305,45.7830224,24.1717994
2,Strada Oașa,550305,45.7837175,24.1710437
21,Strada Oncești,550305,45.7831099,24.1710291
19,Strada Oncești,550305,45.7828280,24.1705705
17,Strada Oncești,550310,45.7825571,24.1700654
15,Strada Oncești,550310,45.7823073,24.1695866
16,Strada Oncești,550305,45.7825530,24.1703330
1,Strada Oncești,550310,45.7816486,24.1677101
3,Strada Oncești,550310,45.7817165,24.1679773
5,Strada Oncești,550310,45.7817688,24.1681622
11,Strada Oncești,550310,45.7820775,24.1683759
13,Strada Oncești,550310,45.7820070,24.1688441
18A,Strada Oncești,550305,45.7820644,24.1693686
16A,Strada Oncești,550305,45.7819809,24.1691278
14,Strada Oncești,550310,45.7819310,24.1690033
12,Strada Oncești,550310,45.7818760,24.1688239
10,Strada Oncești,550310,45.7818363,24.1687033
8,Strada Oncești,550310,45.7818076,24.1685627
6,Strada Oncești,550310,45.7817487,24.1683995
2,Strada Oncești,550310,45.7816699,24.1681331
59,Șoseaua Alba Iulia,550052,45.7932723,24.1172388
16-18,Strada Charles Darwin,550019,45.7941366,24.1375434
129,Strada Măgheranului,550125,45.8090173,24.1410116
104,Strada Măgheranului,550125,45.8088065,24.1410915
129A,Strada Măgheranului,550125,45.8088566,24.1406572
127,Strada Măgheranului,550125,45.8087635,24.1405735
125,Strada Măgheranului,550125,45.8086768,24.1404291
102,Strada Măgheranului,550125,45.8086631,24.1408520
100,Strada Măgheranului,550125,45.8085905,24.1407381
98,Strada Măgheranului,550125,45.8085362,24.1406483
96,Strada Măgheranului,550125,45.8084723,24.1405317
94,Strada Măgheranului,550125,45.8084014,24.1404139
123,Strada Măgheranului,550125,45.8086151,24.1403206
121,Strada Măgheranului,550125,45.8085445,24.1402153
119,Strada Măgheranului,550125,45.8084686,24.1400879
117,Strada Măgheranului,550125,45.8084187,24.1399752
115,Strada Măgheranului,550125,45.8083774,24.1398514
113,Strada Măgheranului,550125,45.8082969,24.1397471
92,Strada Măgheranului,550125,45.8082676,24.1402027
90,Strada Măgheranului,550125,45.8081555,24.1400008
88,Strada Măgheranului,550125,45.8080852,24.1398859
86,Strada Măgheranului,550125,45.8080192,24.1397735
84,Strada Măgheranului,550125,45.8079238,24.1396167
111,Strada Măgheranului,550125,45.8082104,24.1396369
109,Strada Măgheranului,550125,45.8081362,24.1395147
107,Strada Măgheranului,550125,45.8080540,24.1393642
105,Strada Măgheranului,550125,45.8079576,24.1391968
82,Strada Măgheranului,550125,45.8078021,24.1394024
80,Strada Măgheranului,550125,45.8077520,24.1393346
78,Strada Măgheranului,550125,45.8077080,24.1392543
76,Strada Măgheranului,550125,45.8076541,24.1391588
74,Strada Măgheranului,550125,45.8075906,24.1390413
103,Strada Măgheranului,550125,45.8079219,24.1390961
101,Strada Măgheranului,550125,45.8078420,24.1389839
99,Strada Măgheranului,550125,45.8077626,24.1388652
97,Strada Măgheranului,550125,45.8076814,24.1387409
95,Strada Măgheranului,550125,45.8075877,24.1385918
72,Strada Măgheranului,550125,45.8075324,24.1389456
68,Strada Măgheranului,550125,45.8072640,24.1384984
93,Strada Măgheranului,550125,45.8075002,24.1383878
91,Strada Măgheranului,550125,45.8074313,24.1383213
89,Strada Măgheranului,550125,45.8073650,24.1382116
87,Strada Măgheranului,550125,45.8073117,24.1381181
85,Strada Măgheranului,550125,45.8072605,24.1380095
85A,Strada Măgheranului,550125,45.8072028,24.1379056
75,Strada Măgheranului,550125,45.8066314,24.1369756
77,Strada Măgheranului,550125,45.8067091,24.1370980
79,Strada Măgheranului,550125,45.8068186,24.1372799
81,Strada Măgheranului,550125,45.8069500,24.1375174
64,Strada Măgheranului,550125,45.8068057,24.1377163
62,Strada Măgheranului,550125,45.8066882,24.1375291
60,Strada Măgheranului,550125,45.8066084,24.1374655
58,Strada Măgheranului,550125,45.8065099,24.1374520
56,Strada Măgheranului,550125,45.8065316,24.1372769
54,Strada Măgheranului,550125,45.8064668,24.1371617
52,Strada Măgheranului,550125,45.8064056,24.1370608
50,Strada Măgheranului,550125,45.8063356,24.1369399
48A,Strada Măgheranului,550125,45.8062311,24.1367554
73,Strada Măgheranului,550125,45.8065656,24.1368373
71,Strada Măgheranului,550125,45.8064709,24.1367116
69,Strada Măgheranului,550125,45.8063804,24.1365727
67,Strada Măgheranului,550125,45.8063356,24.1364690
65,Strada Măgheranului,550125,45.8062637,24.1363453
25,Strada Măgheranului,550125,45.8043082,24.1333391
23,Strada Măgheranului,550125,45.8040980,24.1332162
20,Strada Măgheranului,550125,45.8038882,24.1334341
21,Strada Măgheranului,550125,45.8040138,24.1331750
19,Strada Măgheranului,550125,45.8039264,24.1331195
17,Strada Măgheranului,550125,45.8038130,24.1330645
15,Strada Măgheranului,550125,45.8037185,24.1330209
13,Strada Măgheranului,550125,45.8035365,24.1329463
11,Strada Măgheranului,550125,45.8033947,24.1328463
18,Strada Măgheranului,550125,45.8037832,24.1333972
16A,Strada Măgheranului,550125,45.8036724,24.1333745
16,Strada Măgheranului,550125,45.8035944,24.1333312
14,Strada Măgheranului,550125,45.8034755,24.1332430
12,Strada Măgheranului,550125,45.8033585,24.1331538
10,Strada Măgheranului,550125,45.8032844,24.1331190
8,Strada Măgheranului,550125,45.8031793,24.1330517
6,Strada Măgheranului,550125,45.8030181,24.1329689
4,Strada Măgheranului,550125,45.8028474,24.1328649
9,Strada Măgheranului,550125,45.8032233,24.1327507
7,Strada Măgheranului,550125,45.8031071,24.1327012
5,Strada Măgheranului,550125,45.8029612,24.1326056
3,Strada Măgheranului,550125,45.8028390,24.1325489
2,Strada Măgheranului,550125,45.8027212,24.1327911
2A,Strada Măgheranului,550125,45.8025870,24.1327265
1,Strada Măgheranului,550125,45.8027489,24.1325012
76,Strada Traian Demetrescu,550124,45.8072084,24.1362615
75,Strada Traian Demetrescu,550124,45.8064287,24.1346589
157,Strada Traian Demetrescu,550124,45.8094424,24.1396952
161,Strada Traian Demetrescu,550124,45.8095984,24.1399805
159,Strada Traian Demetrescu,550124,45.8095139,24.1398492
155,Strada Traian Demetrescu,550124,45.8093584,24.1395745
153,Strada Traian Demetrescu,550124,45.8093051,24.1394727
151,Strada Traian Demetrescu,550124,45.8092456,24.1393772
149,Strada Traian Demetrescu,550124,45.8091866,24.1392826
147,Strada Traian Demetrescu,550124,45.8091287,24.1391803
145,Strada Traian Demetrescu,550124,45.8090621,24.1390870
143,Strada Traian Demetrescu,550124,45.8090058,24.1389954
140,Strada Traian Demetrescu,550124,45.8094293,24.1399414
138,Strada Traian Demetrescu,550124,45.8093743,24.1398485
136,Strada Traian Demetrescu,550124,45.8093180,24.1397548
134,Strada Traian Demetrescu,550124,45.8092644,24.1396622
132,Strada Traian Demetrescu,550124,45.8091983,24.1395695
130,Strada Traian Demetrescu,550124,45.8091236,24.1394468
128,Strada Traian Demetrescu,550124,45.8090673,24.1393492
126,Strada Traian Demetrescu,550124,45.8090058,24.1392448
124,Strada Traian Demetrescu,550124,45.8089580,24.1391636
122A,Strada Traian Demetrescu,550124,45.8088916,24.1390759
122,Strada Traian Demetrescu,550124,45.8088469,24.1389872
120,Strada Traian Demetrescu,550124,45.8087910,24.1389012
118,Strada Traian Demetrescu,550124,45.8087256,24.1387867
116,Strada Traian Demetrescu,550124,45.8086773,24.1387078
141,Strada Traian Demetrescu,550124,45.8089528,24.1389009
139,Strada Traian Demetrescu,550124,45.8088942,24.1388277
137,Strada Traian Demetrescu,550124,45.8088270,24.1386991
135,Strada Traian Demetrescu,550124,45.8087761,24.1386089
133,Strada Traian Demetrescu,550124,45.8087116,24.1384982
131,Strada Traian Demetrescu,550124,45.8086587,24.1384144
129,Strada Traian Demetrescu,550124,45.8085952,24.1383260
127,Strada Traian Demetrescu,550124,45.8085176,24.1381916
125,Strada Traian Demetrescu,550124,45.8084586,24.1381001
123,Strada Traian Demetrescu,550124,45.8084077,24.1380123
121,Strada Traian Demetrescu,550124,45.8083330,24.1378910
119,Strada Traian Demetrescu,550124,45.8082637,24.1377793
117,Strada Traian Demetrescu,550124,45.8081728,24.1376077
115,Strada Traian Demetrescu,550124,45.8074563,24.1367062
113,Strada Traian Demetrescu,550124,45.8080031,24.1373164
114,Strada Traian Demetrescu,550124,45.8085393,24.1384686
112,Strada Traian Demetrescu,550124,45.8084696,24.1383687
110,Strada Traian Demetrescu,550124,45.8084136,24.1382640
108,Strada Traian Demetrescu,550124,45.8083516,24.1381704
106,Strada Traian Demetrescu,550124,45.8082980,24.1380801
104,Strada Traian Demetrescu,550124,45.8082298,24.1379778
102,Strada Traian Demetrescu,550124,45.8081702,24.1378712
100,Strada Traian Demetrescu,550124,45.8081130,24.1377754
96,Strada Traian Demetrescu,550124,45.8079970,24.1375844
94,Strada Traian Demetrescu,550124,45.8079370,24.1374912
92,Strada Traian Demetrescu,550124,45.8078812,24.1374062
90,Strada Traian Demetrescu,550124,45.8078238,24.1373068
88,Strada Traian Demetrescu,550124,45.8077739,24.1372098
111,Strada Traian Demetrescu,550124,45.8079115,24.1371885
109,Strada Traian Demetrescu,550124,45.8078314,24.1370590
107,Strada Traian Demetrescu,550124,45.8077469,24.1368933
105,Strada Traian Demetrescu,550124,45.8076769,24.1367659
82,Strada Traian Demetrescu,550124,45.8074166,24.1366258
80,Strada Traian Demetrescu,550124,45.8073582,24.1365422
74,Strada Traian Demetrescu,550124,45.8071351,24.1361371
72,Strada Traian Demetrescu,550124,45.8070610,24.1359898
70,Strada Traian Demetrescu,550124,45.8069597,24.1358327
68,Strada Traian Demetrescu,550124,45.8068118,24.1357398
66,Strada Traian Demetrescu,550124,45.8067874,24.1355625
103,Strada Traian Demetrescu,550124,45.8075966,24.1366370
99A,Strada Traian Demetrescu,550124,45.8074543,24.1363760
99,Strada Traian Demetrescu,550124,45.8074058,24.1363188
97,Strada Traian Demetrescu,550124,45.8073467,24.1362207
95,Strada Traian Demetrescu,550124,45.8072727,24.1361142
93A,Strada Traian Demetrescu,550124,45.8072172,24.1360256
93,Strada Traian Demetrescu,550124,45.8071763,24.1359397
91,Strada Traian Demetrescu,550124,45.8071087,24.1358422
89,Strada Traian Demetrescu,550124,45.8070352,24.1357254
87,Strada Traian Demetrescu,550124,45.8069894,24.1356421
85,Strada Traian Demetrescu,550124,45.8069403,24.1355587
83,Strada Traian Demetrescu,550124,45.8068721,24.1354504
81,Strada Traian Demetrescu,550124,45.8068181,24.1353692
79,Strada Traian Demetrescu,550124,45.8067610,24.1352757
77,Strada Traian Demetrescu,550124,45.8065454,24.1348306
71,Strada Traian Demetrescu,550124,45.8063626,24.1345270
69,Strada Traian Demetrescu,550124,45.8062902,24.1344153
67,Strada Traian Demetrescu,550124,45.8062081,24.1342712
64,Strada Traian Demetrescu,550124,45.8063393,24.1348055
62,Strada Traian Demetrescu,550124,45.8062916,24.1347227
60,Strada Traian Demetrescu,550124,45.8062312,24.1346109
58,Strada Traian Demetrescu,550124,45.8061264,24.1344463
56,Strada Traian Demetrescu,550124,45.8060039,24.1342460
65,Strada Traian Demetrescu,550124,45.8061063,24.1341069
63,Strada Traian Demetrescu,550124,45.8060545,24.1340151
61,Strada Traian Demetrescu,550124,45.8059793,24.1338919
59,Strada Traian Demetrescu,550124,45.8059320,24.1338188
57,Strada Traian Demetrescu,550124,45.8058615,24.1337087
54,Strada Traian Demetrescu,550124,45.8058897,24.1340441
52,Strada Traian Demetrescu,550124,45.8058323,24.1339556
50,Strada Traian Demetrescu,550124,45.8057682,24.1338595
48,Strada Traian Demetrescu,550124,45.8057133,24.1337630
46,Strada Traian Demetrescu,550124,45.8056557,24.1336591
44,Strada Traian Demetrescu,550124,45.8055962,24.1335642
42,Strada Traian Demetrescu,550124,45.8055429,24.1334792
40,Strada Traian Demetrescu,550124,45.8054653,24.1333494
38,Strada Traian Demetrescu,550124,45.8053416,24.1332038
36,Strada Traian Demetrescu,550124,45.8053106,24.1330747
34,Strada Traian Demetrescu,550124,45.8052601,24.1329868
32,Strada Traian Demetrescu,550124,45.8052110,24.1329148
30,Strada Traian Demetrescu,550124,45.8051384,24.1327786
55,Strada Traian Demetrescu,550124,45.8057676,24.1335561
53,Strada Traian Demetrescu,550124,45.8056939,24.1334141
51,Strada Traian Demetrescu,550124,45.8056340,24.1333009
49,Strada Traian Demetrescu,550124,45.8055771,24.1332061
47,Strada Traian Demetrescu,550124,45.8055282,24.1331266
45,Strada Traian Demetrescu,550124,45.8054643,24.1330304
43,Strada Traian Demetrescu,550124,45.8054060,24.1329669
41,Strada Traian Demetrescu,550124,45.8053504,24.1328751
39,Strada Traian Demetrescu,550124,45.8052899,24.1327575
37,Strada Traian Demetrescu,550124,45.8052350,24.1326708
35,Strada Traian Demetrescu,550124,45.8051579,24.1325502
33,Strada Traian Demetrescu,550124,45.8050877,24.1324596
31,Strada Traian Demetrescu,550124,45.8050269,24.1323574
10,Strada Traian Demetrescu,550124,45.8036452,24.1318275
12,Strada Traian Demetrescu,550124,45.8037442,24.1318740
14,Strada Traian Demetrescu,550124,45.8038303,24.1319119
16,Strada Traian Demetrescu,550124,45.8039105,24.1319650
18,Strada Traian Demetrescu,550124,45.8040129,24.1320085
20,Strada Traian Demetrescu,550124,45.8042001,24.1321005
22,Strada Traian Demetrescu,550124,45.8042821,24.1321540
24,Strada Traian Demetrescu,550124,45.8044449,24.1322389
26,Strada Traian Demetrescu,550124,45.8045583,24.1323002
28,Strada Traian Demetrescu,550124,45.8046680,24.1323483
27,Strada Traian Demetrescu,550124,45.8048684,24.1322378
25,Strada Traian Demetrescu,550124,45.8047678,24.1321850
23,Strada Traian Demetrescu,550124,45.8046512,24.1321271
21,Strada Traian Demetrescu,550124,45.8045446,24.1320798
19,Strada Traian Demetrescu,550124,45.8044399,24.1320154
17,Strada Traian Demetrescu,550124,45.8043488,24.1319826
15,Strada Traian Demetrescu,550124,45.8042533,24.1319391
13,Strada Traian Demetrescu,550124,45.8041431,24.1318831
11,Strada Traian Demetrescu,550124,45.8040259,24.1318219
9,Strada Traian Demetrescu,550124,45.8039207,24.1317733
7,Strada Traian Demetrescu,550124,45.8038457,24.1317482
5,Strada Traian Demetrescu,550124,45.8037085,24.1316746
3,Strada Traian Demetrescu,550124,45.8035956,24.1316197
1,Strada Traian Demetrescu,550124,45.8035066,24.1315742
6,Strada Traian Demetrescu,550124,45.8034322,24.1317169
4,Strada Traian Demetrescu,550124,45.8033176,24.1316609
2,Strada Traian Demetrescu,550124,45.8031975,24.1315968
8,Strada Traian Demetrescu,550124,45.8035653,24.1317858
55,Strada Eschile,550096,45.8108592,24.1442974
57,Strada Eschile,550096,45.8109286,24.1443262
59,Strada Eschile,550096,45.8110151,24.1443475
61,Strada Eschile,550096,45.8111552,24.1444053
48A,Strada Eschile,550096,45.8110573,24.1445886
46,Strada Eschile,550096,45.8109419,24.1445428
44,Strada Eschile,550096,45.8108616,24.1445158
42,Strada Eschile,550096,45.8107796,24.1444766
53,Strada Eschile,550096,45.8107829,24.1442786
51,Strada Eschile,550096,45.8107196,24.1442539
49,Strada Eschile,550096,45.8106337,24.1442284
47,Strada Eschile,550096,45.8105095,24.1441702
40,Strada Eschile,550096,45.8106282,24.1444285
38,Strada Eschile,550096,45.8105279,24.1443837
36,Strada Eschile,550096,45.8104409,24.1443598
45A,Strada Eschile,550096,45.8104177,24.1441307
45,Strada Eschile,550096,45.8103621,24.1441185
43,Strada Eschile,550096,45.8103094,24.1441110
41,Strada Eschile,550096,45.8102105,24.1440864
39,Strada Eschile,550096,45.8101055,24.1440475
37,Strada Eschile,550096,45.8100095,24.1440018
34,Strada Eschile,550096,45.8100074,24.1442025
32,Strada Eschile,550096,45.8099028,24.1441704
30,Strada Eschile,550096,45.8097400,24.1441273
28,Strada Eschile,550096,45.8095460,24.1440560
35,Strada Eschile,550096,45.8098922,24.1439643
33,Strada Eschile,550096,45.8098273,24.1439434
31,Strada Eschile,550096,45.8097612,24.1439228
29,Strada Eschile,550096,45.8096805,24.1438970
27,Strada Eschile,550096,45.8095728,24.1438472
26,Strada Eschile,550096,45.8093956,24.1440016
24,Strada Eschile,550096,45.8092978,24.1439635
25,Strada Eschile,550096,45.8093947,24.1438057
23,Strada Eschile,550096,45.8092261,24.1437476
22,Strada Eschile,550096,45.8091914,24.1439107
20,Strada Eschile,550096,45.8090719,24.1437857
21,Strada Eschile,550096,45.8091181,24.1436133
19,Strada Eschile,550096,45.8089677,24.1434940
18,Strada Eschile,550096,45.8089541,24.1436972
16,Strada Eschile,550096,45.8088160,24.1435794
17,Strada Eschile,550096,45.8088368,24.1434172
14,Strada Eschile,550096,45.8086769,24.1434617
12,Strada Eschile,550096,45.8085451,24.1433501
10,Strada Eschile,550096,45.8084326,24.1432509
8,Strada Eschile,550096,45.8083325,24.1431704
15,Strada Eschile,550096,45.8087329,24.1432963
13,Strada Eschile,550096,45.8086132,24.1432145
11,Strada Eschile,550096,45.8085348,24.1431457
9,Strada Eschile,550096,45.8084739,24.1430725
7,Strada Eschile,550096,45.8083659,24.1429858
5,Strada Eschile,550096,45.8082669,24.1429081
3,Strada Eschile,550096,45.8081839,24.1428290
4,Strada Eschile,550096,45.8081736,24.1430350
2,Strada Eschile,550096,45.8080705,24.1429498
1,Strada Eschile,550096,45.8080554,24.1427240
2,Strada Florilor,550097,45.8098558,24.1407274
12A,Strada Florilor,550097,45.8101778,24.1414081
6,Strada Florilor,550097,45.8099516,24.1409410
40,Strada Florilor,550097,45.8112957,24.1436251
38,Strada Florilor,550097,45.8112625,24.1435165
36A,Strada Florilor,550097,45.8112005,24.1434158
36,Strada Florilor,550097,45.8111537,24.1432967
45,Strada Florilor,550097,45.8113776,24.1434426
43,Strada Florilor,550097,45.8113069,24.1432715
41,Strada Florilor,550097,45.8112101,24.1430912
39,Strada Florilor,550097,45.8111287,24.1429428
37,Strada Florilor,550097,45.8110635,24.1428116
34,Strada Florilor,550097,45.8110533,24.1431008
32,Strada Florilor,550097,45.8109888,24.1429680
30,Strada Florilor,550097,45.8109268,24.1428495
28,Strada Florilor,550097,45.8108872,24.1427624
26,Strada Florilor,550097,45.8108213,24.1426452
35,Strada Florilor,550097,45.8110123,24.1426924
33,Strada Florilor,550097,45.8109430,24.1425756
31,Strada Florilor,550097,45.8108986,24.1424858
29,Strada Florilor,550097,45.8108383,24.1423615
27,Strada Florilor,550097,45.8107940,24.1422695
24,Strada Florilor,550097,45.8106617,24.1422919
22,Strada Florilor,550097,45.8105809,24.1421494
25,Strada Florilor,550097,45.8107296,24.1421448
23,Strada Florilor,550097,45.8106635,24.1420136
21,Strada Florilor,550097,45.8106036,24.1419067
19,Strada Florilor,550097,45.8105669,24.1418196
17,Strada Florilor,550097,45.8105249,24.1417296
15,Strada Florilor,550097,45.8104649,24.1416174
13,Strada Florilor,550097,45.8104067,24.1415056
20,Strada Florilor,550097,45.8105117,24.1420087
18,Strada Florilor,550097,45.8104351,24.1418748
16,Strada Florilor,550097,45.8103575,24.1417171
14A,Strada Florilor,550097,45.8102748,24.1415681
14,Strada Florilor,550097,45.8102188,24.1414764
9,Strada Florilor,550097,45.8103205,24.1412990
11,Strada Florilor,550097,45.8103683,24.1413964
7,Strada Florilor,550097,45.8102287,24.1411238
5,Strada Florilor,550097,45.8101319,24.1409277
12,Strada Florilor,550097,45.8101370,24.1413026
10,Strada Florilor,550097,45.8100995,24.1411862
8,Strada Florilor,550097,45.8100402,24.1410875
4,Strada Florilor,550097,45.8099064,24.1408521
3,Strada Florilor,550097,45.8100579,24.1407869
1,Strada Florilor,550097,45.8099780,24.1406271
48,Strada Eschile,550096,45.8111684,24.1445956
115,Strada Traian Demetrescu,550124,45.8080821,24.1374696
1,Strada Degetarului,550271,45.8109239,24.1819820
27,Strada Lucian Blaga,550169,45.7915449,24.1524540
14,Strada Cireșului,550268,45.8151869,24.1817664
16,Strada Cireșului,550268,45.8153155,24.1818265
18,Strada Cireșului,550268,45.8154322,24.1818609
12,Strada Cireșului,550268,45.8150463,24.1817031
10,Strada Cireșului,550268,45.8149297,24.1816484
8,Strada Cireșului,550268,45.8148167,24.1815980
6,Strada Cireșului,550268,45.8146844,24.1815336
4,Strada Cireșului,550268,45.8145445,24.1814778
2,Strada Cireșului,550268,45.8143980,24.1814113
1,Strada Cireșului,550268,45.8148080,24.1814864
3,Strada Cireșului,550268,45.8150517,24.1816109
5a,Strada Cireșului,550268,45.8152860,24.1817381
5b,Strada Cireșului,550268,45.8153872,24.1817764
7,Strada Cireșului,550268,45.8154305,24.1818002
9,Strada Cireșului,550268,45.8155017,24.1818360
11,Strada Cireșului,550268,45.8156003,24.1818760
13,Strada Cireșului,550268,45.8157992,24.1819484
15,Strada Cireșului,550268,45.8159939,24.1820267
17,Strada Cireșului,550268,45.8160675,24.1820489
19,Strada Cireșului,550268,45.8162230,24.1821136
21,Strada Cireșului,550268,45.8164355,24.1821970
20,Strada Cireșului,550268,45.8155998,24.1819314
22,Strada Cireșului,550268,45.8158028,24.1820216
24,Strada Cireșului,550268,45.8160438,24.1821068
26,Strada Cireșului,550268,45.8162194,24.1821783
28,Strada Cireșului,550268,45.8164687,24.1822822
9,Strada Oncești,550310,45.7820189,24.1681030
7,Strada Oncești,550310,45.7818311,24.1677524
4,Strada Oncești,550310,45.7817156,24.1682868
4,Aleea Valea Frumoasei,550310,45.7825649,24.1689884
6,Aleea Valea Frumoasei,550310,45.7828268,24.1694296
8,Aleea Valea Frumoasei,550310,45.7830858,24.1699178
10,Aleea Valea Frumoasei,550310,45.7833243,24.1704824
10,Strada Semaforului,550309,45.7823798,24.1677986
8,Strada Semaforului,550309,45.7823219,24.1676811
6,Strada Semaforului,550309,45.7822421,24.1675727
4,Strada Semaforului,550309,45.7821851,24.1674464
12,Strada Semaforului,550309,45.7824792,24.1679719
7,Strada Centumvirilor,550178,45.7961162,24.1479520
11,Bulevardul Victoriei,550024,45.7895003,24.1446886
5,Bulevardul Victoriei,550024,45.7906740,24.1467111
1,Strada Emil Cioran,550025,45.7899025,24.1478948
10,Piața Unirii,550173,45.7923143,24.1477728
5 - 7,Strada Gheorghe Barițiu,550178,45.7930141,24.1471855
33,Strada Mitropoliei,550179,45.7945850,24.1481156
14,Strada Mitropoliei,550179,45.7957793,24.1484927
9,Strada Mitropoliei,550179,45.7962023,24.1495069
3,Piața Mare,550163,45.7970714,24.1513982
3 - 5,Strada Cetății,550160,45.7942923,24.1538685
2,Strada Cetății,550160,45.7949124,24.1547514
1 - 3,Bulevardul Victoriei,550024,45.7912436,24.1471462
4,Strada Nicolae Bălcescu,550159,45.7956764,24.1505249
1 - 3,Strada Gheorghe Lazăr,550165,45.7965792,24.1537485
11,Piața Mică,550182,45.7976076,24.1509759
5,Strada Justiției,550004,45.7880684,24.1462326
1,Piața Prahovei,550409,45.7772223,24.1470349
5,Piața Prahovei,550409,45.7768420,24.1467734
3,Piața Prahovei,550409,45.7769937,24.1469459
16,Strada Mitropoliei,550179,45.7955743,24.1481531
19,Strada Constituției,550253,45.7986090,24.1579460
3,Strada Arieșului,550396,45.7735052,24.1466416
8,Strada Streiu,550384,45.7734798,24.1507246
23,Calea Cisnădiei,550394,45.7741424,24.1485678
2,Strada Constituției,550253,45.7997720,24.1568963
2,Strada Nicolae Bălcescu,550159,45.7959239,24.1509479
11,Strada Mitropoliei,550179,45.7960429,24.1494403
1,Strada Mitropoliei,550179,45.7967520,24.1500005
31,Strada Mitropoliei,550179,45.7949369,24.1484182
10,Strada Șelarilor,550166,45.7968597,24.1554880
34,Strada Andrei Șaguna,550009,45.7931571,24.1454909
10,Strada Andrei Șaguna,550009,45.7929800,24.1460445
11,Bulevardul Mihai Viteazul,550350,45.7810537,24.1520539
1,Bulevardul Mihai Viteazul,550350,45.7824633,24.1491511
7,Bulevardul Mihai Viteazul,550350,45.7816282,24.1508460
15,Bulevardul Mihai Viteazul,550350,45.7804412,24.1532472
47A,Strada Rusciorului,550112,45.8100769,24.1462455
2,Strada Emil Cioran,550025,45.7895284,24.1462886
2,Strada Zaharia Boiu,550006,45.7890687,24.1452518
"7,9;7",Bulevardul Victoriei,550024,45.7900482,24.1451939
2 - 4,Bulevardul Corneliu Coposu,550245,45.7944763,24.1555849
52,Calea Dumbrăvii,550324,45.7795670,24.1449826
54a,Calea Dumbrăvii,550399,45.7790566,24.1445255
58,Calea Dumbrăvii,550399,45.7787247,24.1444269
30,Strada Mitropoliei,550179,45.7941474,24.1461389
32,Strada Mitropoliei,550179,45.7938171,24.1461937
3,Aleea Haiducului,550360,45.7824404,24.1564348
13A-A,Calea Cisnădiei,550408,45.7792582,24.1496076
13A-C,Calea Cisnădiei,550408,45.7789554,24.1499412
14,Aleea Frații Buzești,550406,45.7788374,24.1527685
56,Strada Nicolae Iorga,550407,45.7785388,24.1521314
13A-B,Calea Cisnădiei,550408,45.7791061,24.1497766
57,Strada Nicolae Iorga,550407,45.7778211,24.1508651
35,Strada George Bacovia,550410,45.7736243,24.1457487
16a,Strada Siretului,550395,45.7722895,24.1465957
20,Strada George Bacovia,550410,45.7739224,24.1439661
23,Strada George Bacovia,550410,45.7740661,24.1443801
53,Strada Nicolae Iorga,550387,45.7778068,24.1523563
36b,Strada Putnei,550410,45.7739284,24.1468803
25,Calea Cisnădiei,550394,45.7735503,24.1486277
16b,Strada Siretului,550395,45.7722619,24.1463637
4,Piața Prahovei,550409,45.7772546,24.1461118
22,Strada George Bacovia,550410,45.7738535,24.1441716
95,Calea Dumbrăvii,550399,45.7786522,24.1450631
8a,Strada Arieșului,550409,45.7737322,24.1460661
34a,Strada Putnei,550410,45.7739931,24.1465904
20,Strada Siretului,550395,45.7723889,24.1478120
6,Piața Prahovei,550409,45.7771123,24.1459675
80a,Calea Cisnădiei,550409,45.7752277,24.1479790
35,Strada Gheorghe Dima,550409,45.7749557,24.1479550
32,Strada Rahovei,550389,45.7750978,24.1534987
18,Strada Siretului,550395,45.7723583,24.1471982
30,Strada Rahovei,550389,45.7752053,24.1541968
28,Strada Rahovei,550381,45.7755100,24.1546858
47,Calea Dumbrăvii,550324,45.7819253,24.1477408
10;8-10,Bulevardul Victoriei,550024,45.7907696,24.1450210
24,Calea Dumbrăvii,550324,45.7875313,24.1492927
20,Bulevardul Victoriei,550024,45.7894347,24.1437838
14,Bulevardul Victoriei,550024,45.7898658,24.1442498
22,Bulevardul Victoriei,550024,45.7894083,24.1435188
2A,Strada Ion Rațiu,550012,45.7907021,24.1440790
14,Strada Centumvirilor,550178,45.7955680,24.1468430
13,Strada Centumvirilor,550178,45.7956983,24.1471233
42,Bulevardul Victoriei,550024,45.7869300,24.1404954
19,Calea Gușteriței,550223,45.8008279,24.1688742
51,Strada Henri Coandă,550234,45.7977098,24.1785630
18,Strada Frații Grachi,550282,45.7924652,24.1607871
20,Strada Constantin Noica,550240,45.7921223,24.1559947
14,Strada Axente Sever,550247,45.7926761,24.1629944
60,Strada Constantin I. Nottara,550113,45.8075807,24.1482977
58,Strada Constantin I. Nottara,550113,45.8083599,24.1488638
59,Strada Constantin I. Nottara,550113,45.8079793,24.1485780
61,Strada Constantin I. Nottara,550113,45.8071924,24.1480173
15,Strada Înfrățirii,550117,45.8043017,24.1409374
17,Strada Țiglari,550102,45.8069230,24.1437426
19,Strada Țiglari,550102,45.8069971,24.1436610
25,Strada Țiglari,550102,45.8071111,24.1432823
23,Strada Țiglari,550102,45.8071062,24.1434525
11,Strada Țiglari,550102,45.8067494,24.1440067
20,Strada Viorelelor,550119,45.8059942,24.1422680
5,Strada Țiglari,550102,45.8065687,24.1443995
27,Strada Țiglari,550102,45.8072054,24.1432511
13,Strada Țiglari,550102,45.8067744,24.1439077
7,Strada Țiglari,550102,45.8066260,24.1442681
15,Strada Țiglari,550102,45.8068839,24.1438542
21,Strada Țiglari,550102,45.8070579,24.1435526
7a,Strada Ioan Cătină,550402,45.7739645,24.1402646
135,Calea Dumbrăvii,550399,45.7737378,24.1414549
7,Strada Putnei,550410,45.7754391,24.1435162
135c,Calea Dumbrăvii,550399,45.7734766,24.1412407
143,Calea Dumbrăvii,550399,45.7719539,24.1399622
100a,Calea Dumbrăvii,550399,45.7739076,24.1409182
86,Calea Dumbrăvii,550399,45.7754791,24.1420485
90,Calea Dumbrăvii,550399,45.7750772,24.1417369
5a,Strada Ioan Slavici,550372,45.7742265,24.1402852
2,Strada Ioan Slavici,550372,45.7743081,24.1407122
1a,Strada Siretului,550403,45.7719793,24.1408468
137a,Calea Dumbrăvii,550399,45.7727631,24.1406822
121,Calea Dumbrăvii,550399,45.7754624,24.1425936
2a,Strada Siretului,550403,45.7716729,24.1407136
5,Strada Ioan Slavici,550372,45.7740179,24.1404384
94,Calea Dumbrăvii,550399,45.7748048,24.1414468
1b,Strada Siretului,550403,45.7719201,24.1411163
92,Calea Dumbrăvii,550399,45.7749648,24.1416338
139,Calea Dumbrăvii,550399,45.7725392,24.1404888
19c,Strada Putnei,550410,45.7750163,24.1446773
7,Strada Profesor Victor Lazăr,550410,45.7748712,24.1450258
10a,Strada Putnei,550410,45.7750124,24.1438388
14,Strada Profesor Victor Lazăr,550410,45.7743951,24.1441806
23,Strada Putnei,550410,45.7746467,24.1456826
26,Strada Gheorghe Dima,550409,45.7753558,24.1459476
21,Strada Putnei,550410,45.7747165,24.1454916
8,Strada Andrei Șaguna,550009,45.7926506,24.1463008
4,Strada Andrei Șaguna,550009,45.7923372,24.1468830
6,Strada Andrei Șaguna,550009,45.7924642,24.1466340
8,Strada Salzburg,550018,45.7965603,24.0794773
4,Strada Florian Rieger,550052,45.7918972,24.0935156
112,Șoseaua Alba Iulia,550052,45.7902291,24.0868026
6,Strada Frigoriferului,550047,45.8008724,24.1261765
1,Strada Pădurea Dumbrava,550399,45.7601863,24.1269230
30,Strada Ștefan cel Mare,550283,45.7898620,24.1620462
16-18,Strada Charles Darwin,550019,45.7941292,24.1376784
2A,Strada Hipodromului,550360,45.7845318,24.1538502
24A,Calea Dumbrăvii,550324,45.7862070,24.1521672
2,Strada Nicolae Iorga,550361,45.7845908,24.1610404
64,Bulevardul General Vasile Milea,550331,45.7838767,24.1624422
23A,Strada Profesor Petru Șpan,550276,45.7840740,24.1628812
25,Strada Profesor Petru Șpan,550276,45.7839720,24.1631457
29,Bulevardul General Vasile Milea,550331,45.7837674,24.1635364
14,Strada Ciprian Porumbescu,550401,45.7732479,24.1364083
26,Strada Ciprian Porumbescu,550401,45.7723121,24.1354777
112,Calea Dumbrăvii,550399,45.7718689,24.1391261
2,Strada Ioan Cătină,550402,45.7735151,24.1398643
6,Strada Cloșca,550400,45.7726709,24.1385284
26b,Strada Ciprian Porumbescu,550401,45.7724877,24.1356629
110,Calea Dumbrăvii,550399,45.7720000,24.1393009
4,Strada Ioan Cătină,550402,45.7736499,24.1401126
1a,Strada Cloșca,550400,45.7723409,24.1387339
6,Strada Bahluiului,550400,45.7730124,24.1395903
11,Strada Ciprian Porumbescu,550401,45.7729428,24.1367942
3,Strada Cloșca,550400,45.7725375,24.1388934
104b,Calea Dumbrăvii,550399,45.7726632,24.1400044
104,Calea Dumbrăvii,550399,45.7729755,24.1402255
2,Strada Ioan Cătină,550402,45.7734757,24.1395842
3,Strada Nicolae Filimon,550400,45.7715578,24.1374499
1,Strada General Moșoiu,550401,45.7716822,24.1346425
106a,Calea Dumbrăvii,550399,45.7723309,24.1394447
2,Strada Costache Negri,550402,45.7716182,24.1368751
108,Calea Dumbrăvii,550399,45.7721558,24.1393908
124,Calea Dumbrăvii,550399,45.7708138,24.1375759
1,Strada Costache Negri,550402,45.7715046,24.1367583
24,Strada Ciprian Porumbescu,550401,45.7726033,24.1358105
4,Strada Nicolae Filimon,550400,45.7715028,24.1378346
4a,Strada Alexandru Vlahuță,550371,45.7778585,24.1433521
10,Strada Alexandru Vlahuță,550371,45.7780656,24.1427806
61,Strada Octavian Goga,550370,45.7775163,24.1403322
6,Strada Alexandru Vlahuță,550371,45.7779192,24.1432042
59,Strada Octavian Goga,550370,45.7777558,24.1404183
12,Strada Alexandru Vlahuță,550371,45.7781353,24.1425903
10,Strada Vasile Alecsandri,550372,45.7767504,24.1414822
8,Strada Alexandru Vlahuță,550371,45.7779975,24.1429930
101,Calea Dumbrăvii,550399,45.7777964,24.1443258
2,Strada Ilarie Chendi,550371,45.7787404,24.1440338
16,Strada Anton Pann,550378,45.7782109,24.1479084
18,Strada Anton Pann,550378,45.7781482,24.1481272
13,Strada Aron Pumnul,550409,45.7769607,24.1455877
20,Strada Anton Pann,550378,45.7780596,24.1483652
15,Strada Aron Pumnul,550409,45.7768525,24.1458305
18,Strada Aron Pumnul,550409,45.7762691,24.1466348
2,Piața Prahovei,550409,45.7775051,24.1463484
1,Strada Școala de Înot,550370,45.7844796,24.1443142
11,Strada Aurel Vlaicu,550327,45.7806511,24.1442000
69,Calea Dumbrăvii,550324,45.7805682,24.1464752
6a,Strada Grigore Alexandrescu,550371,45.7796173,24.1423514
16,Strada Ilarie Chendi,550371,45.7791443,24.1429914
67,Calea Dumbrăvii,550324,45.7807437,24.1466073
15,Strada Aurel Vlaicu,550327,45.7807514,24.1439494
22,Strada Miron Costin,550326,45.7807581,24.1428114
9,Strada Aurel Vlaicu,550327,45.7805921,24.1443350
5,Strada Aurel Vlaicu,550327,45.7804091,24.1447630
7,Strada Aurel Vlaicu,550327,45.7805405,24.1445884
3,Strada Mihail Sebastian,550326,45.7794456,24.1443463
17,Strada Aurel Vlaicu,550327,45.7808427,24.1437551
11,Strada Miron Costin,550326,45.7807498,24.1433396
18,Strada Mihail Sebastian,550326,45.7802103,24.1432741
71,Calea Dumbrăvii,550324,45.7804349,24.1464005
20a,Strada Mihail Sebastian,550326,45.7805745,24.1423593
10,Strada Aurel Vlaicu,550327,45.7808529,24.1445779
18,Strada Ilarie Chendi,550371,45.7792115,24.1427060
13,Strada Mihail Sebastian,550326,45.7797245,24.1433510
19,Strada Aurel Vlaicu,550327,45.7809166,24.1435616
63,Calea Dumbrăvii,550324,45.7809691,24.1468189
15,Strada Mihail Sebastian,550326,45.7798702,24.1431698
1,Strada Grigore Alexandrescu,550371,45.7797821,24.1430846
13,Strada Miron Costin,550326,45.7806277,24.1431532
11,Strada Mihail Sebastian,550326,45.7796796,24.1436541
4,Strada Mihail Sebastian,550326,45.7797377,24.1445076
61,Calea Dumbrăvii,550324,45.7812331,24.1470048
57,Calea Dumbrăvii,550324,45.7815538,24.1472422
72,Strada Negoi,550275,45.7870070,24.1637085
88A-88B,Strada Negoi,550275,45.7865230,24.1652209
11 Bis,Calea Poplăcii,550154,45.7748021,24.1321870
11,Calea Poplăcii,550154,45.7752421,24.1313176
30,Calea Poplăcii,550141,45.7768955,24.1317712
3-5,Strada Theodor Mihaly,550156,45.7698393,24.1273488
8,Strada Pompeiu Onofreiu,550166,45.7957461,24.1567567
3,Aleea Șelimbăr,550346,45.7784398,24.1607918
21,Strada Luptei,550330,45.7811714,24.1598764
5,Aleea Șelimbăr,550346,45.7786316,24.1614303
1,Strada Rahovei,550345,45.7815648,24.1667639
1,Aleea Șelimbăr,550346,45.7783659,24.1600469
4,Aleea Șelimbăr,550346,45.7807662,24.1657548
7c,Piața Crișan,550400,45.7721827,24.1369312
4 - 6,Strada Revoluției,550170,45.7892444,24.1530127
4,Strada Vasile Alecsandri,550372,45.7775600,24.1422709
1b,Strada Alexandru Vlahuță,550371,45.7776228,24.1430882
8,Strada Vasile Alecsandri,550372,45.7772132,24.1419895
7,Strada Vasile Alecsandri,550372,45.7770404,24.1423018
7,Strada Alexandru Vlahuță,550371,45.7779841,24.1420749
80a,Calea Dumbrăvii,550399,45.7761093,24.1424559
6,Strada Vasile Alecsandri,550372,45.7773472,24.1421116
72,Calea Dumbrăvii,550399,45.7770026,24.1430720
2,Strada Argeșului,550372,45.7762249,24.1421361
5,Strada Vasile Alecsandri,550372,45.7772503,24.1424276
66,Calea Dumbrăvii,550399,45.7774714,24.1435059
13,Strada Vasile Alecsandri,550372,45.7766202,24.1419790
3,Strada Vasile Alecsandri,550372,45.7774322,24.1425805
11,Strada Vasile Alecsandri,550372,45.7767457,24.1423949
76,Calea Dumbrăvii,550399,45.7766385,24.1428073
6a,Strada Vasile Alecsandri,550372,45.7775070,24.1419787
2,Strada Vasile Alecsandri,550372,45.7777399,24.1424015
1,Strada Vasile Alecsandri,550372,45.7775732,24.1426788
15,Strada Vasile Alecsandri,550372,45.7763781,24.1417983
3,Strada Alexandru Vlahuță,550371,45.7777267,24.1428061
80,Calea Dumbrăvii,550399,45.7762331,24.1425419
9,Strada Vasile Alecsandri,550372,45.7768680,24.1421590
68a,Calea Dumbrăvii,550399,45.7771376,24.1431819
78,Calea Dumbrăvii,550399,45.7763973,24.1426228
9a,Strada Alexandru Vlahuță,550371,45.7780625,24.1418411
5,Strada Alexandru Vlahuță,550371,45.7778895,24.1423413
9,Aleea Frații Buzești,550375,45.7800239,24.1523099
5,Aleea Frații Buzești,550375,45.7806121,24.1511211
3,Aleea Frații Buzești,550375,45.7809162,24.1505103
7,Aleea Frații Buzești,550375,45.7803188,24.1517057
11,Aleea Frații Buzești,550375,45.7797200,24.1529224
55,Calea Dumbrăvii,550324,45.7816282,24.1473268
59,Calea Dumbrăvii,550324,45.7814290,24.1471661
53,Calea Dumbrăvii,550324,45.7817738,24.1474059
62,Strada Eduard Albert Bieltz,550031,45.7893255,24.1178495
1,Strada Emil Cioran,550025,45.7895929,24.1471254
27,Strada Oituz,550337,45.7842260,24.1513414
1,Aleea Mihai Eminescu,550370,45.7850618,24.1435097
5c,Strada Școala de Înot,550005,45.7849853,24.1455077
5d,Strada Școala de Înot,550005,45.7848742,24.1453461
3c,Strada Școala de Înot,550005,45.7859637,24.1469501
4c,Strada Școala de Înot,550005,45.7854996,24.1462676
3d,Strada Școala de Înot,550005,45.7858632,24.1468003
4c,Strada Școala de Înot,550005,45.7853879,24.1461025
5a,Strada Școala de Înot,550005,45.7852033,24.1458578
5b,Strada Școala de Înot,550005,45.7850961,24.1456672
3a,Strada Școala de Înot,550005,45.7861280,24.1472372
3b,Strada Școala de Înot,550005,45.7860546,24.1470856
4a,Strada Școala de Înot,550005,45.7856846,24.1465802
4b,Strada Școala de Înot,550005,45.7856011,24.1464176
5,Strada Andrei Șaguna,550009,45.7921984,24.1464257
3,Strada Andrei Șaguna,550009,45.7920474,24.1466946
7,Strada Andrei Șaguna,550009,45.7923552,24.1461069
23,Strada Andrei Șaguna,550009,45.7931973,24.1445758
13B,Strada Dealului,550010,45.7914322,24.1423430
25,Strada Andrei Șaguna,550009,45.7933375,24.1443977
17,Strada Andrei Șaguna,550009,45.7930304,24.1449775
15,Strada Andrei Șaguna,550009,45.7928315,24.1450756
12,Bulevardul Victoriei,550024,45.7903501,24.1446497
13,Strada Andrei Șaguna,550009,45.7928173,24.1454263
11,Strada Andrei Șaguna,550009,45.7927106,24.1456201
4,Strada Manejului,550166,45.7966884,24.1562073
14,Strada Șelarilor,550166,45.7971731,24.1556875
5,Strada Someșului,550003,45.7892169,24.1487767
2,Strada Filarmonicii,550165,45.7967519,24.1542004
4,Strada Filarmonicii,550165,45.7966070,24.1544757
3,Strada Someșului,550003,45.7893834,24.1488411
4,Strada Someșului,550003,45.7892582,24.1484868
8,Strada General Magheru,550185,45.7968456,24.1539189
25,Bulevardul Victoriei,550024,45.7884207,24.1431646
51,Strada Octavian Goga,550370,45.7788552,24.1406304
12,Strada Titu Maiorescu,550370,45.7827054,24.1420980
24,Strada Octavian Goga,550370,45.7803519,24.1410430
7,Strada Titu Maiorescu,550370,45.7823023,24.1421303
3,Strada Titu Maiorescu,550370,45.7820404,24.1425341
15,Strada Octavian Goga,550370,45.7812538,24.1428816
12,Strada Grigore Alexandrescu,550371,45.7786808,24.1413037
23a,Strada Mihail Sebastian,550326,45.7807629,24.1413737
5,Strada Titu Maiorescu,550370,45.7821779,24.1423327
16,Strada Miron Costin,550326,45.7811754,24.1433999
3,Strada Ilarie Chendi,550371,45.7785295,24.1436730
3,Strada N.D. Cocea,550370,45.7820247,24.1418352
4,Strada Octavian Goga,550370,45.7821166,24.1434358
3,Strada Miron Costin,550326,45.7815275,24.1443649
14,Strada Miron Costin,550326,45.7812986,24.1435632
20,Strada Bahluiului,550400,45.7744919,24.1385667
91,Calea Dumbrăvii,550399,45.7790725,24.1453373
18,Strada Dimitrie Anghel,550327,45.7823249,24.1445674
7,Strada Miron Costin,550326,45.7812653,24.1440334
10,Strada Titu Maiorescu,550370,45.7825923,24.1423161
9,Strada Ilarie Chendi,550371,45.7787955,24.1430862
1,Strada Miron Costin,550326,45.7816615,24.1445266
3,Strada Argeșului,550372,45.7759790,24.1418858
22,Strada Mihail Sebastian,550326,45.7812109,24.1415704
45,Strada Octavian Goga,550370,45.7795137,24.1407205
14,Strada N.D. Cocea,550370,45.7819985,24.1411350
12,Strada Octavian Goga,550370,45.7814104,24.1424382
11,Strada Ilarie Chendi,550371,45.7788376,24.1428479
13,Strada Octavian Goga,550370,45.7813757,24.1430582
53,Strada Octavian Goga,550370,45.7785460,24.1405297
1,Strada Ilarie Chendi,550371,45.7785078,24.1438956
4,Strada Argeșului,550372,45.7768332,24.1404857
21,Strada Mihail Sebastian,550326,45.7802528,24.1422138
18,Strada Alexandru Vlahuță,550371,45.7783731,24.1419827
39,Strada Octavian Goga,550370,45.7792243,24.1413955
1,Strada Titu Maiorescu,550370,45.7817807,24.1429846
63,Strada Octavian Goga,550370,45.7773597,24.1400698
14a,Strada Vasile Alecsandri,550372,45.7759422,24.1407983
79,Strada Octavian Goga,550370,45.7761430,24.1390489
69,Strada Octavian Goga,550370,45.7768000,24.1397319
5,Strada Miron Costin,550326,45.7813929,24.1442062
17,Strada Octavian Goga,550370,45.7810750,24.1426434
24,Strada Alexandru Vlahuță,550371,45.7787023,24.1409388
3a,Strada Octavian Goga,550370,45.7820896,24.1439510
13,Strada Ilarie Chendi,550371,45.7789078,24.1426524
16a,Strada Octavian Goga,550370,45.7810803,24.1420242
67,Strada Octavian Goga,550370,45.7770920,24.1398128
7,Strada Argeșului,550372,45.7762475,24.1408626
1,Strada Titu Maiorescu,550370,45.7819172,24.1427450
4,Strada Titu Maiorescu,550370,45.7822970,24.1429752
16a,Strada Alexandru Vlahuță,550371,45.7783273,24.1421726
9a,Strada Octavian Goga,550370,45.7816742,24.1433834
27,Strada Octavian Goga,550370,45.7800772,24.1414306
77,Strada Octavian Goga,550370,45.7763194,24.1392602
14,Strada Aurel Vlaicu,550327,45.7810159,24.1440826
1,Strada N.D. Cocea,550370,45.7821828,24.1420173
5,Strada Ilarie Chendi,550371,45.7786330,24.1434767
47b,Strada Octavian Goga,550370,45.7791707,24.1410990
11a,Strada Argeșului,550372,45.7766788,24.1400206
21b,Strada Mihail Sebastian,550326,45.7800955,24.1419474
22,Strada Octavian Goga,550370,45.7805252,24.1412742
26,Strada Octavian Goga,550370,45.7802760,24.1408869
13,Strada Aurel Vlaicu,550327,45.7809189,24.1443524
8,Strada Aurel Vlaicu,550327,45.7807648,24.1447553
14a,Strada N.D. Cocea,550370,45.7821407,24.1409134
20,Strada Octavian Goga,550370,45.7806517,24.1415728
24,Strada Miron Costin,550326,45.7806259,24.1426721
20,Strada Mihail Sebastian,550326,45.7804953,24.1425064
10,Strada Octavian Goga,550370,45.7815126,24.1426626
20,Strada Mitropoliei,550179,45.7951714,24.1476990
FN,Strada Berăriei,550173,45.7908342,24.1503563
13,Aleea Frații Buzești,550367,45.7791890,24.1535497
13,Strada General Magheru,550185,45.7974077,24.1536345
7,Strada General Magheru,550185,45.7971438,24.1533941
5,Strada General Magheru,550185,45.7970359,24.1532318
15,Strada General Magheru,550185,45.7974751,24.1537467
3,Strada General Magheru,550185,45.7969517,24.1530981
11,Strada General Magheru,550185,45.7973263,24.1535622
55A,Strada Livezii,550042,45.7895712,24.1167476
8,Strada Titu Maiorescu,550370,45.7824679,24.1424740
14,Strada Titu Maiorescu,550370,45.7828331,24.1418791
14a,Strada Titu Maiorescu,550370,45.7829536,24.1420366
6a,Strada Titu Maiorescu,550370,45.7823676,24.1427292
2,Strada Titu Maiorescu,550370,45.7820229,24.1432302
12,Strada General Magheru,550185,45.7970857,24.1542076
10,Strada General Magheru,550185,45.7969961,24.1542217
8,Strada Oștirii,550355,45.7765376,24.1543798
27,Strada Hipodromului,550360,45.7820910,24.1582039
13,Strada Tudor Arghezi,550010,45.7915136,24.1398515
12,Strada Progresului,550131,45.8038406,24.1379965
107,Calea Dumbrăvii,550399,45.7772924,24.1439606
1 A,Strada Izvorului,550172,45.7937712,24.1578799
28,Strada General Magheru,550185,45.7977107,24.1546966
99a,Calea Dumbrăvii,550399,45.7780094,24.1445035
74,Calea Dumbrăvii,550399,45.7768130,24.1428243
8,Strada Salzburg,550018,45.7965057,24.0805446
1,Strada Principală,550001,45.6554639,23.9309807
23,Strada Nicolae Iorga,550361,45.7826649,24.1597915
35,Strada Nicolae Iorga,550361,45.7817971,24.1589044
50,Strada Nicolae Iorga,550361,45.7813047,24.1574768
46,Strada Nicolae Iorga,550361,45.7819291,24.1583509
44,Strada Nicolae Iorga,550361,45.7820253,24.1584802
1,Strada Oașa,550305,45.7838818,24.1712290
3,Strada Oașa,550305,45.7833971,24.1717445
1,Strada Oașa,550305,45.7837524,24.1713678
3,Strada Oașa,550305,45.7832928,24.1718533
1,Strada Oașa,550305,45.7836247,24.1715048
6,Strada Oașa,550305,45.7830771,24.1730523
8,Strada Oașa,550305,45.7833255,24.1734718
6,Strada Oașa,550305,45.7828902,24.1726777
10,Strada Oașa,550305,45.7836275,24.1741361
8,Strada Oașa,550305,45.7834232,24.1736675
6,Strada Oașa,550305,45.7829794,24.1728566
10,Strada Oașa,550305,45.7837252,24.1743318
8,Strada Oașa,550305,45.7832362,24.1732929
10,Strada Oașa,550305,45.7835382,24.1739572
5,Strada Oașa,550305,45.7828894,24.1722739
5,Strada Oașa,550305,45.7830202,24.1722324
6,Aleea Valea Frumoasei,550310,45.7829678,24.1697517
18,Strada Semaforului,550304,45.7835542,24.1706034
2,Aleea Valea Frumoasei,550310,45.7823759,24.1686288
8,Aleea Valea Frumoasei,550310,45.7832403,24.1702590
11,Strada Oncești,550310,45.7820202,24.1684499
13,Strada Oncești,550310,45.7820852,24.1687983
4,Strada Oașa,550305,45.7830099,24.1713594
2,Aleea Valea Frumoasei,550310,45.7822987,24.1684819
2,Aleea Valea Frumoasei,550310,45.7824636,24.1687958
18,Strada Oncești,550305,45.7828102,24.1710008
14,Strada Semaforului,550309,45.7829645,24.1690727
16,Strada Oncești,550305,45.7825953,24.1705902
16,Strada Oncești,550305,45.7824975,24.1704013
9,Strada Oncești,550310,45.7820782,24.1680319
4,Strada Oașa,550305,45.7828756,24.1718960
4,Strada Oașa,550305,45.7830029,24.1717569
16,Strada Oncești,550305,45.7824027,24.1702183
7,Strada Oncești,550310,45.7818900,24.1676773
14,Strada Semaforului,550309,45.7828089,24.1687739
4,Aleea Valea Frumoasei,550310,45.7827124,24.1692628
14,Strada Semaforului,550309,45.7826178,24.1684070
8,Aleea Valea Frumoasei,550310,45.7831484,24.1700867
19,Strada Oncești,550305,45.7829005,24.1705070
4,Aleea Valea Frumoasei,550310,45.7826206,24.1690904
10,Aleea Valea Frumoasei,550310,45.7831555,24.1707217
8,Aleea Valea Frumoasei,550310,45.7830046,24.1701106
8,Aleea Valea Frumoasei,550310,45.7829045,24.1702203
6,Aleea Valea Frumoasei,550310,45.7828760,24.1695793
10,Aleea Valea Frumoasei,550310,45.7832556,24.1706120
15,Strada Oncești,550310,45.7823727,24.1695109
16,Strada Semaforului,550304,45.7833977,24.1700652
4,Aleea Valea Frumoasei,550310,45.7823767,24.1692240
17,Strada Oncești,550310,45.7826281,24.1699998
6,Aleea Valea Frumoasei,550310,45.7826321,24.1697129
4,Aleea Valea Frumoasei,550310,45.7824768,24.1691144
6,Aleea Valea Frumoasei,550310,45.7827322,24.1696033
16,Strada Semaforului,550304,45.7831717,24.1695354
21,Strada Oncești,550305,45.7831515,24.1710085
4,Strada Oașa,550305,45.7831184,24.1715793
4A,Bulevardul Mihai Viteazul,557260,45.7817786,24.1493230
2,Aleea Turnu Roșu,550351,45.7821606,24.1540581
7,Strada Luptei,550330,45.7825919,24.1630242
27,Strada Luptei,550362,45.7805217,24.1589546
6,Strada Oștirii,550355,45.7769750,24.1538619
4,Strada Oștirii,550355,45.7774349,24.1533517
2,Strada Oștirii,550388,45.7778410,24.1528318
9A,Strada Siretului,550395,45.7720215,24.1435348
20,Strada Vasile Aaron,550290,45.7857315,24.1698882
3,Bulevardul Coposu,550166,45.7972125,24.1603250
56,Bulevardul General Vasile Milea,550331,45.7843506,24.1614968
62,Bulevardul General Vasile Milea,550331,45.7841233,24.1619680
60,Bulevardul General Vasile Milea,550331,45.7842013,24.1618275
1,Strada Nicolae Iorga,550361,45.7841326,24.1611525
58,Bulevardul General Vasile Milea,550331,45.7842583,24.1616092
54,Bulevardul General Vasile Milea,550331,45.7844183,24.1613530
28,Strada Semaforului,550296,45.7861793,24.1751804
73,Calea Dumbrăvii,550324,45.7803407,24.1463309
15,Strada Anton Pann,550378,45.7787644,24.1471065
16,Strada Dimitrie Anghel,550327,45.7821714,24.1447146
85,Calea Dumbrăvii,550324,45.7794211,24.1456363
1a,Strada Octavian Goga,550370,45.7824100,24.1443730
56,Calea Dumbrăvii,550399,45.7788896,24.1445758
14A,Strada Anton Pann,550378,45.7785386,24.1469452
4,Strada Aurel Vlaicu,550327,45.7806215,24.1451944
75,Calea Dumbrăvii,550324,45.7801581,24.1461612
1b,Strada Octavian Goga,550370,45.7826000,24.1446414
2,Strada Mihail Sebastian,550326,45.7796747,24.1447019
6a,Strada Aurel Vlaicu,550327,45.7807036,24.1449718
21,Calea Dumbrăvii,550336,45.7863792,24.1517910
93,Calea Dumbrăvii,550399,45.7789485,24.1452248
2A,Strada Anton Pann,550378,45.7789477,24.1456916
6,Strada Mihail Sebastian,550326,45.7798268,24.1442838
4,Aleea Biruinței,550350,45.7810355,24.1535008
34,Strada Nicolae Iorga,550361,45.7825144,24.1589097
13,Strada Cernei,550356,45.7840789,24.1580822
49BB-49BA,Strada Nicolae Iorga,550366,45.7782105,24.1545560
32A-B-C-D,Aleea Biruinței,550335,45.7804928,24.1560057
37,Strada Luptei,550341,45.7794540,24.1563173
1,Strada Oștirii,550388,45.7779647,24.1533812
35,Strada Luptei,550362,45.7797298,24.1568112
49AB-49AA,Strada Nicolae Iorga,550366,45.7784185,24.1543163
16,Strada Nicolae Iorga,550361,45.7837375,24.1601352
3,Aleea Biruinței,550350,45.7811783,24.1538859
30,Strada Nicolae Iorga,550361,45.7827831,24.1591483
40A-B-C,Strada Luptei,550341,45.7805992,24.1575327
38,Strada Luptei,550341,45.7800530,24.1566493
24,Strada Nicolae Iorga,550361,45.7832477,24.1596501
51A1-51A2,Strada Nicolae Iorga,550387,45.7780355,24.1538309
10,Aleea Biruinței,550335,45.7799298,24.1553155
51,Strada Nicolae Iorga,550387,45.7784317,24.1536097
6,Strada Nicolae Iorga,550361,45.7844332,24.1604173
11,Strada Fochiștilor,550299,45.7868797,24.1681154
1A,Strada Cărbunelui,550299,45.7876971,24.1669623
15A-15,Strada Cărbunelui,550299,45.7876261,24.1684643
21-21A,Strada Cărbunelui,550299,45.7875638,24.1690275
68-70,Strada Negoi,550275,45.7870832,24.1632936
5,Strada Cărbunelui,550299,45.7878231,24.1675342
9,Strada Cărbunelui,550299,45.7876056,24.1678920
98,Strada Negoi,550275,45.7867172,24.1658435
5,Strada Cărbunelui,550299,45.7876276,24.1675402
25,Strada Bucegi,550278,45.7885993,24.1650888
7,Strada Cărbunelui,550299,45.7876172,24.1677193
62,Bulevardul General Vasile Milea,550331,45.7837574,24.1626231
27,Bulevardul General Vasile Milea,550331,45.7838490,24.1633130
28 B,Strada Axente Sever,550247,45.7919337,24.1637678
100,Strada Negoi,550275,45.7867145,24.1662328
30,Strada Axente Sever,550247,45.7918194,24.1638851
16,Strada Paltinul,557277,45.7844157,24.1649398
76,Strada Negoi,550275,45.7869636,24.1641880
1A,Strada Fochiștilor,550299,45.7869173,24.1671676
3,Strada Fochiștilor,550299,45.7868978,24.1673277
36,Strada Axente Sever,550247,45.7914038,24.1643850
13A-13B,Strada Călțun,550298,45.7877124,24.1667387
13,Strada Europa Unită,550018,45.7946233,24.0867006
13,Strada Ciprian Porumbescu,550401,45.7727503,24.1365883
9,Strada Ciprian Porumbescu,550401,45.7731161,24.1369815
12a,Strada Ciprian Porumbescu,550401,45.7733398,24.1366398
9,Strada Bahluiului,550400,45.7741883,24.1381639
1a,Strada Ciprian Porumbescu,550401,45.7739738,24.1379490
17,Strada Ciprian Porumbescu,550401,45.7722981,24.1360538
19,Strada Ciprian Porumbescu,550401,45.7720574,24.1357817
1,Strada Ciprian Porumbescu,550401,45.7738765,24.1377933
13,Strada Bahluiului,550400,45.7747648,24.1377324
11,Strada Bahluiului,550400,45.7746593,24.1378845
6,Strada Ciprian Porumbescu,550401,45.7740258,24.1374172
7b,Strada Ciprian Porumbescu,550401,45.7732552,24.1371010
16a,Strada Ciprian Porumbescu,550401,45.7730255,24.1362918
28,Strada Ciprian Porumbescu,550401,45.7721761,24.1352988
2a,Strada Ciprian Porumbescu,550401,45.7742983,24.1376829
5,Strada Ciprian Porumbescu,550401,45.7735055,24.1374278
2,Strada Ciprian Porumbescu,550401,45.7744562,24.1378588
3,Strada Ciprian Porumbescu,550401,45.7736650,24.1376584
18,Strada Ciprian Porumbescu,550401,45.7729381,24.1361509
20,Strada Ciprian Porumbescu,550401,45.7728118,24.1360631
10,Strada Ciprian Porumbescu,550401,45.7737767,24.1370066
14,Strada Panait Cerna,550401,45.7722541,24.1350234
22,Strada Ciprian Porumbescu,550401,45.7727086,24.1358920
8,Strada Ciprian Porumbescu,550401,45.7738450,24.1371841
10b,Strada Ciprian Porumbescu,550401,45.7735141,24.1368241
15,Strada Ciprian Porumbescu,550401,45.7725108,24.1363174
19a,Strada Ciprian Porumbescu,550401,45.7719364,24.1356864
5,Strada Bahluiului,550400,45.7737665,24.1385255
2,Piața Crișan,550400,45.7722172,24.1376848
7,Strada Bahluiului,550400,45.7739630,24.1383520
4,Strada Cloșca,550400,45.7727539,24.1386096
10,Strada Bahluiului,550400,45.7733740,24.1393670
10,Strada Cloșca,550400,45.7723888,24.1381670
2,Strada Cloșca,550400,45.7729409,24.1388276
3,Strada Bahluiului,550400,45.7733212,24.1388328
1,Strada Bahluiului,550400,45.7731510,24.1389029
6a,Strada Cloșca,550400,45.7727354,24.1383546
8a,Strada Cloșca,550400,45.7724596,24.1382818
7,Strada Ciprian Porumbescu,550401,45.7733287,24.1371752
10a,Strada Ciprian Porumbescu,550401,45.7735663,24.1368764
12a,Strada Ciprian Porumbescu,550401,45.7734053,24.1367120
16,Strada Ciprian Porumbescu,550401,45.7730902,24.1363498
2b,Strada Ciprian Porumbescu,550401,45.7743512,24.1377280
8a,Strada Ciprian Porumbescu,550401,45.7738969,24.1372358
2a,Piața Crișan,550400,45.7721680,24.1377845
8,Strada Cloșca,550400,45.7725684,24.1383448
9,Strada Cloșca,550400,45.7720812,24.1384303
1d,Strada Bahluiului,550400,45.7727759,24.1391634
4a,Strada Dinicu Golescu,550403,45.7719483,24.1382464
1b,Strada Cloșca,550400,45.7724487,24.1388285
11,Strada General Moșoiu,550401,45.7707466,24.1341653
12,Strada General Moșoiu,550401,45.7705792,24.1344748
14,Strada General Moșoiu,550401,45.7704429,24.1343365
19,Strada Panait Cerna,550401,45.7718968,24.1350770
3,Strada General Moșoiu,550401,45.7713341,24.1347146
5,Strada General Moșoiu,550401,45.7712160,24.1345899
7,Strada General Moșoiu,550401,45.7710847,24.1344932
9,Strada General Moșoiu,550401,45.7709537,24.1343671
2,Strada General Moșoiu,550401,45.7711243,24.1351301
15,Strada Panait Cerna,550401,45.7713833,24.1354448
15a,Strada Panait Cerna,550401,45.7714422,24.1353354
10,Strada General Moșoiu,550401,45.7706687,24.1348011
8,Strada Panait Cerna,550401,45.7713311,24.1365408
4,Strada Grigore Ureche,550402,45.7718001,24.1365269
10,Strada Panait Cerna,550401,45.7715173,24.1360941
7,Strada Grigore Ureche,550402,45.7717375,24.1359570
2a,Strada Grigore Ureche,550402,45.7720535,24.1366026
5,Strada Dinicu Golescu,550403,45.7724647,24.1366031
2,Strada Grigore Ureche,550402,45.7720368,24.1362237
8,Strada Grigore Ureche,550402,45.7717004,24.1357568
7b,Piața Crișan,550400,45.7718528,24.1370381
4a,Strada Grigore Ureche,550402,45.7717672,24.1363696
2b,Strada Grigore Ureche,550402,45.7720106,24.1359853
122,Calea Dumbrăvii,550399,45.7708594,24.1381103
4,Strada Panait Cerna,550401,45.7709790,24.1371569
1,Strada Dinicu Golescu,550403,45.7715992,24.1382629
1,Piața Crișan,550400,45.7716868,24.1379078
1b,Strada Bahluiului,550400,45.7725702,24.1393039
118,Calea Dumbrăvii,550399,45.7712423,24.1385159
6b,Strada Panait Cerna,550401,45.7711318,24.1368411
2,Strada Dinicu Golescu,550403,45.7717710,24.1386046
114,Calea Dumbrăvii,550399,45.7716649,24.1389406
120,Calea Dumbrăvii,550399,45.7710297,24.1382952
1b,Strada Dinicu Golescu,550403,45.7716812,24.1381059
116,Calea Dumbrăvii,550399,45.7713901,24.1386211
12,Strada Bahluiului,550400,45.7736418,24.1391668
2,Strada Bahluiului,550400,45.7726579,24.1397930
4,Strada Bahluiului,550400,45.7728416,24.1396718
5a,Strada Costache Negri,550402,45.7701672,24.1359718
128,Calea Dumbrăvii,550399,45.7701509,24.1369647
136,Calea Dumbrăvii,550399,45.7695750,24.1363738
8,Strada Costache Negri,550402,45.7707545,24.1358899
138,Calea Dumbrăvii,550399,45.7697600,24.1361331
134,Calea Dumbrăvii,550399,45.7697739,24.1364248
132,Calea Dumbrăvii,550399,45.7698920,24.1366814
3,Strada Costache Negri,550402,45.7703762,24.1361303
126,Calea Dumbrăvii,550399,45.7702997,24.1371291
12c,Strada General Moșoiu,550401,45.7704221,24.1348001
5,Strada Panait Cerna,550401,45.7708239,24.1365880
12,Strada Costache Negri,550402,45.7704768,24.1354700
4,Strada Costache Negri,550402,45.7705830,24.1357050
1,Strada Panait Cerna,550401,45.7706015,24.1370290
9,Strada Costache Negri,550402,45.7699715,24.1356480
7a,Piața Crișan,550400,45.7717974,24.1370895
16-20,Strada Pădurea Dumbrava,550399,45.7539394,24.1145547
87,Strada Octavian Goga,550370,45.7755784,24.1386246
70,Strada Octavian Goga,550370,45.7766656,24.1394933
73,Strada Octavian Goga,550370,45.7765421,24.1394084
85,Strada Octavian Goga,550370,45.7757522,24.1387170
55,Strada Octavian Goga,550370,45.7782316,24.1405635
57,Strada Octavian Goga,550370,45.7780054,24.1404926
65,Strada Octavian Goga,550370,45.7772077,24.1399435
75,Strada Octavian Goga,550370,45.7764861,24.1393431
81,Strada Octavian Goga,550370,45.7760019,24.1388998
1,Strada Argeșului,550372,45.7758812,24.1422382
5,Strada Argeșului,550372,45.7761216,24.1412101
82,Calea Dumbrăvii,550399,45.7758182,24.1423135
84,Calea Dumbrăvii,550399,45.7756909,24.1422003
9,Strada Argeșului,550372,45.7763268,24.1406787
12b,Strada General Moșoiu,550401,45.7706290,24.1345266
5,Strada Costache Negri,550402,45.7702529,24.1360344
6a,Strada Panait Cerna,550401,45.7710715,24.1369643
1,Strada Nicolae Filimon,550400,45.7711244,24.1375625
4b,Strada Grigore Ureche,550402,45.7717579,24.1362751
106,Calea Dumbrăvii,550399,45.7722565,24.1395038
4,Strada Dinicu Golescu,550403,45.7719132,24.1383299
3,Strada Ioan Slavici,550372,45.7737948,24.1405760
8,Strada Ioan Cătină,550402,45.7737445,24.1403259
1,Strada Ioan Slavici,550372,45.7735954,24.1406975
100,Calea Dumbrăvii,550399,45.7740881,24.1410483
100b,Calea Dumbrăvii,550399,45.7735518,24.1405945
102,Calea Dumbrăvii,550399,45.7731782,24.1403929
104a,Calea Dumbrăvii,550399,45.7727206,24.1400564
121b,Calea Dumbrăvii,550399,45.7753414,24.1425309
123,Calea Dumbrăvii,550399,45.7751300,24.1427193
125,Calea Dumbrăvii,550399,45.7749817,24.1422482
88,Calea Dumbrăvii,550399,45.7752921,24.1417573
96,Calea Dumbrăvii,550399,45.7746133,24.1413748
96a,Calea Dumbrăvii,550399,45.7745349,24.1413309
98,Calea Dumbrăvii,550399,45.7742273,24.1411022
4,Strada Aron Pumnul,550409,45.7770765,24.1444943
107a,Calea Dumbrăvii,550399,45.7771484,24.1438803
1,Strada Arieșului,550396,45.7732742,24.1460206
6,Strada Avram Iancu,550183,45.7976690,24.1530085
4,Strada Avram Iancu,550183,45.7976546,24.1528085
14,Strada Avram Iancu,550183,45.7979898,24.1538049
2,Strada Bărbierilor,550165,45.7969561,24.1561289
10,Strada Florian Rieger,550018,45.7932973,24.0876572
117,Calea Dumbrăvii,550399,45.7758095,24.1429086
3b,Strada Siretului,550403,45.7715993,24.1419746
22,Strada Vasile Alecsandri,550372,45.7750894,24.1404727
20,Strada Vasile Alecsandri,550372,45.7752330,24.1405316
27,Strada Vasile Alecsandri,550372,45.7748522,24.1407188
18,Strada Vasile Alecsandri,550372,45.7753913,24.1406531
6,Strada Ioan Slavici,550372,45.7752299,24.1400122
24,Strada Vasile Alecsandri,550372,45.7749224,24.1403233
25,Strada Vasile Alecsandri,550372,45.7750967,24.1408538
86b,Calea Dumbrăvii,550399,45.7755024,24.1417038
17,Strada Ioan Slavici,550372,45.7751469,24.1396777
1,Strada Ioan Cătină,550402,45.7737769,24.1397118
11a,Strada Ioan Slavici,550372,45.7746826,24.1399862
19,Strada Vasile Alecsandri,550372,45.7756634,24.1413606
16,Strada Vasile Alecsandri,550372,45.7756136,24.1408145
5,Strada Ioan Cătină,550402,45.7738564,24.1399640
29,Strada Vasile Alecsandri,550372,45.7746151,24.1405796
21a,Strada Vasile Alecsandri,550372,45.7754535,24.1411347
15,Strada Ioan Slavici,550372,45.7750489,24.1397567
23,Strada Vasile Alecsandri,550372,45.7752664,24.1410505
13,Strada Ioan Slavici,550372,45.7748820,24.1398195
19a,Strada Vasile Alecsandri,550372,45.7755824,24.1412426
2a,Strada Ioan Slavici,550372,45.7744122,24.1405547
17a,Strada Vasile Alecsandri,550372,45.7758913,24.1415091
17,Strada Vasile Alecsandri,550372,45.7760585,24.1416230
21b,Strada Vasile Alecsandri,550372,45.7753477,24.1413939
9a,Strada Ioan Slavici,550372,45.7744551,24.1401417
14,Strada Vasile Alecsandri,550372,45.7758125,24.1409598
11a,Strada Alexandru Vlahuță,550371,45.7783343,24.1410098
11,Strada Alexandru Vlahuță,550371,45.7784244,24.1408586
7,Strada Ilarie Chendi,550371,45.7787274,24.1432986
14,Strada Alexandru Vlahuță,550371,45.7782143,24.1423981
15,Strada Ilarie Chendi,550371,45.7789944,24.1424575
10,Strada Grigore Alexandrescu,550371,45.7789057,24.1415508
11,Strada Grigore Alexandrescu,550371,45.7789374,24.1420668
13,Strada Grigore Alexandrescu,550371,45.7787623,24.1418916
13a,Strada Grigore Alexandrescu,550371,45.7787244,24.1418395
17,Strada Ilarie Chendi,550371,45.7790699,24.1422494
8,Strada Grigore Alexandrescu,550371,45.7790880,24.1417499
4,Strada Grigore Alexandrescu,550371,45.7797312,24.1424895
41,Strada Octavian Goga,550370,45.7793515,24.1412095
35,Strada Octavian Goga,550370,45.7795373,24.1413973
7,Strada Grigore Alexandrescu,550371,45.7794920,24.1427965
37,Strada Octavian Goga,550370,45.7794002,24.1416075
21c,Strada Mihail Sebastian,550326,45.7803016,24.1419444
33,Strada Octavian Goga,550370,45.7796512,24.1412231
47,Strada Octavian Goga,550370,45.7793700,24.1405832
18a,Strada Mihail Sebastian,550326,45.7802799,24.1430037
18b,Strada Mihail Sebastian,550326,45.7803424,24.1428813
19a,Strada Mihail Sebastian,550326,45.7801859,24.1423477
23,Strada Octavian Goga,550370,45.7804436,24.1418569
27a,Strada Octavian Goga,550370,45.7802543,24.1415943
28,Strada Octavian Goga,550370,45.7801533,24.1406846
3,Strada Grigore Alexandrescu,550371,45.7797159,24.1429543
30,Strada Octavian Goga,550370,45.7799502,24.1406379
31,Strada Octavian Goga,550370,45.7797884,24.1410252
31a,Strada Octavian Goga,550370,45.7799872,24.1412105
32,Strada Octavian Goga,550370,45.7798114,24.1403741
34,Strada Octavian Goga,550370,45.7795147,24.1401777
36,Strada Octavian Goga,550370,45.7792840,24.1401302
43,Strada Octavian Goga,550370,45.7796015,24.1408391
49,Strada Octavian Goga,550370,45.7791035,24.1408602
5,Strada Grigore Alexandrescu,550371,45.7795953,24.1428670
6b,Strada Grigore Alexandrescu,550371,45.7795162,24.1422283
6c,Strada Grigore Alexandrescu,550371,45.7793475,24.1420501
9,Strada Grigore Alexandrescu,550371,45.7793309,24.1425084
15,Strada Miron Costin,550326,45.7804727,24.1430360
9,Strada Miron Costin,550326,45.7811392,24.1438591
11,Strada Octavian Goga,550370,45.7815293,24.1432592
14,Strada Octavian Goga,550370,45.7812673,24.1422737
17b,Strada Octavian Goga,550370,45.7811356,24.1427375
18,Strada Miron Costin,550326,45.7810499,24.1431831
19,Strada Octavian Goga,550370,45.7809542,24.1424972
8,Strada Octavian Goga,550370,45.7816705,24.1427936
7b,Strada Mihail Sebastian,550326,45.7795258,24.1440592
14b,Strada Mihail Sebastian,550326,45.7801312,24.1434327
8a,Strada Mihail Sebastian,550326,45.7799092,24.1440462
9,Strada Mihail Sebastian,550326,45.7795912,24.1438891
12,Strada Mihail Sebastian,550326,45.7800486,24.1436319
10,Strada Mihail Sebastian,550326,45.7799966,24.1438912
13,Strada Aurel Vlaicu,550327,45.7806757,24.1441320
3a,Strada Aurel Vlaicu,550327,45.7803689,24.1450063
46,Calea Dumbrăvii,550324,45.7800853,24.1454255
2,Strada Alexandru Vlahuță,550371,45.7777543,24.1436699
1a,Strada Ilarie Chendi,550371,45.7784559,24.1440398
62a,Calea Dumbrăvii,550399,45.7779878,24.1438482
109,Calea Dumbrăvii,550399,45.7769793,24.1437243
115,Calea Dumbrăvii,550399,45.7759790,24.1429666
119,Calea Dumbrăvii,550399,45.7757366,24.1427892
60,Calea Dumbrăvii,550399,45.7784118,24.1442338
77,Calea Dumbrăvii,550324,45.7800255,24.1461893
79,Calea Dumbrăvii,550324,45.7799600,24.1460029
95,Calea Dumbrăvii,550399,45.7788233,24.1451199
5,Strada Octavian Goga,550370,45.7819143,24.1438079
7,Strada Octavian Goga,550370,45.7817947,24.1436813
9,Strada Octavian Goga,550370,45.7817230,24.1434658
68,Calea Dumbrăvii,550399,45.7772157,24.1432531
9,Strada Alexandru Vlahuță,550371,45.7781138,24.1416507
8,Strada Ilarie Chendi,550371,45.7789382,24.1436297
4,Strada Ilarie Chendi,550371,45.7788215,24.1438331
10b,Strada Ilarie Chendi,550371,45.7789870,24.1433895
5,Strada N.D. Cocea,550370,45.7819018,24.1416713
14a,Strada N.D. Cocea,550370,45.7822475,24.1414856
9,Strada N.D. Cocea,550370,45.7816902,24.1410993
26,Strada Mihail Sebastian,550326,45.7814126,24.1411130
9a,Strada N.D. Cocea,550370,45.7818227,24.1409107
6a,Strada N.D. Cocea,550370,45.7823717,24.1415790
6,Strada Miron Costin,550326,45.7816064,24.1440080
12,Strada Miron Costin,550326,45.7814609,24.1437929
15,Strada Dimitrie Anghel,550327,45.7817441,24.1446675
10,Strada Miron Costin,550326,45.7815269,24.1438139
4,Strada Miron Costin,550326,45.7817534,24.1441983
17,Strada Dimitrie Anghel,550327,45.7820795,24.1443262
2,Strada Miron Costin,550326,45.7819359,24.1444355
16,Strada Profesor Victor Lazăr,550410,45.7742031,24.1439726
28,Strada George Bacovia,550410,45.7736442,24.1448247
11a,Strada Profesor Victor Lazăr,550410,45.7743305,24.1449137
11a,Strada Putnei,550410,45.7753679,24.1436899
8,Strada George Bacovia,550410,45.7742730,24.1429347
24,Strada George Bacovia,550410,45.7738153,24.1443323
28b,Strada George Bacovia,550410,45.7734465,24.1447996
17,Strada Profesor Victor Lazăr,550410,45.7741971,24.1445409
24a,Strada George Bacovia,550410,45.7736494,24.1443654
10,Strada George Bacovia,550410,45.7741926,24.1431771
8a,Strada George Bacovia,550410,45.7742432,24.1430689
18,Strada George Bacovia,550410,45.7740187,24.1437094
14,Strada Putnei,550410,45.7749331,24.1440543
12,Strada Putnei,550410,45.7749476,24.1439323
31,Strada George Bacovia,550410,45.7737063,24.1454200
33,Strada George Bacovia,550410,45.7736515,24.1455754
11,Strada Profesor Victor Lazăr,550410,45.7744504,24.1447231
17,Strada George Bacovia,550410,45.7743836,24.1434759
4,Strada Putnei,550410,45.7752881,24.1431027
9,Strada George Bacovia,550410,45.7745340,24.1430175
12,Strada Profesor Victor Lazăr,550410,45.7745272,24.1443037
16,Strada Putnei,550410,45.7747923,24.1444736
4,Strada George Bacovia,550410,45.7743887,24.1426048
25,Strada George Bacovia,550410,45.7738703,24.1449168
26,Strada George Bacovia,550410,45.7737542,24.1446089
19,Strada George Bacovia,550410,45.7744564,24.1436631
5,Strada George Bacovia,550410,45.7746535,24.1426896
15,Strada Profesor Victor Lazăr,550410,45.7742908,24.1446134
11,Strada George Bacovia,550410,45.7745143,24.1431501
13,Strada George Bacovia,550410,45.7744826,24.1433106
29,Strada George Bacovia,550410,45.7737791,24.1452690
8,Strada Putnei,550410,45.7751207,24.1435386
2,Strada Putnei,550410,45.7753536,24.1429336
6,Strada George Bacovia,550410,45.7743415,24.1427653
7,Strada George Bacovia,550410,45.7745723,24.1428888
10,Strada Profesor Victor Lazăr,550410,45.7746396,24.1443024
3,Strada George Bacovia,550410,45.7747272,24.1424271
16,Strada George Bacovia,550410,45.7740893,24.1434969
32,Strada George Bacovia,550410,45.7734463,24.1453865
21,Strada George Bacovia,550410,45.7743009,24.1437923
14,Strada George Bacovia,550410,45.7741339,24.1433394
30,Strada George Bacovia,550410,45.7735516,24.1450405
23b,Strada George Bacovia,550410,45.7741208,24.1447783
1,Strada Amnaș,550154,45.7749424,24.1326849
26,Strada Nicolae Grigorescu,550154,45.7747147,24.1344544
4,Strada Nicolae Grigorescu,550154,45.7756604,24.1326278
4,Strada Nicolae Grigorescu,550154,45.7755269,24.1329322
12,Strada Nicolae Grigorescu,550154,45.7750815,24.1336828
18,Strada Nicolae Grigorescu,550154,45.7749936,24.1339771
20,Strada Nicolae Grigorescu,550154,45.7749301,24.1341403
22,Strada Nicolae Grigorescu,550154,45.7748095,24.1342814
11,Strada Amnaș,550154,45.7744481,24.1336506
4,Strada Amnaș,550154,45.7744544,24.1325705
2b,Strada Nicolae Grigorescu,550154,45.7757973,24.1323842
5,Calea Poplăcii,550154,45.7759761,24.1317278
13,Piața Tălmaciu,550143,45.7754190,24.1320052
12,Strada Amnaș,550154,45.7740300,24.1334680
9,Strada Amnaș,550154,45.7746410,24.1335066
10,Strada Amnaș,550154,45.7742595,24.1329641
9a,Strada Amnaș,550154,45.7745127,24.1333788
2,Strada Nicolae Grigorescu,550154,45.7759209,24.1320656
9,Strada Amnaș,550154,45.7745132,24.1330947
3,Strada Amnaș,550154,45.7747239,24.1327913
6,Strada Amnaș,550154,45.7743693,24.1327418
3,Calea Poplăcii,550154,45.7761072,24.1318069
5,Strada Amnaș,550154,45.7747040,24.1330693
9,Calea Poplăcii,550154,45.7758357,24.1315440
7,Strada Theodor Amann,550154,45.7738154,24.1328595
14,Strada Avrig,550027,45.7778674,24.1378224
10,Strada Avrig,550027,45.7764871,24.1362143
12,Strada Avrig,550027,45.7776037,24.1377124
10a,Strada Avrig,550027,45.7767845,24.1364353
10b,Strada Avrig,550027,45.7766957,24.1363686
5,Strada Avrig,550027,45.7782318,24.1378600
11,Strada Argeșului,550372,45.7767191,24.1399083
6,Strada Argeșului,550372,45.7770024,24.1401825
7,Strada Ioan Cătină,550402,45.7739241,24.1401621
19,Strada Mihail Sebastian,550326,45.7801496,24.1424164
21a,Strada Mihail Sebastian,550326,45.7802799,24.1421571
12a,Strada Mihail Sebastian,550326,45.7800143,24.1436844
13a,Strada Mihail Sebastian,550326,45.7797418,24.1434714
14,Strada Mihail Sebastian,550326,45.7801088,24.1434967
3a,Strada Mihail Sebastian,550326,45.7794688,24.1442767
7,Strada Mihail Sebastian,550326,45.7795005,24.1441325
8,Strada Mihail Sebastian,550326,45.7798849,24.1441153
16,Strada Alexandru Vlahuță,550371,45.7783008,24.1422401
1a,Strada Alexandru Vlahuță,550371,45.7775804,24.1432067
4,Strada Alexandru Vlahuță,550371,45.7778366,24.1434159
1a,Strada Bahluiului,550400,45.7724995,24.1393480
1c,Strada Bahluiului,550400,45.7727050,24.1392120
1,Strada Profesor Victor Lazăr,550410,45.7754250,24.1454617
15,Strada Putnei,550410,45.7752036,24.1441997
8,Strada Gheorghe Dima,550409,45.7761718,24.1437562
13,Strada Putnei,550410,45.7753101,24.1439966
10,Strada Gheorghe Dima,550409,45.7760486,24.1440459
16,Strada Gheorghe Dima,550409,45.7759203,24.1442814
12,Strada Gheorghe Dima,550409,45.7759767,24.1441430
8,Strada Gheorghe Dima,550409,45.7760079,24.1437853
19b,Strada Putnei,550410,45.7751087,24.1443869
18,Strada Gheorghe Dima,550409,45.7759216,24.1444705
22,Strada Gheorghe Dima,550409,45.7757284,24.1449583
4,Strada Profesor Victor Lazăr,550410,45.7753872,24.1448770
5,Strada Profesor Victor Lazăr,550410,45.7751061,24.1452449
20,Strada Gheorghe Dima,550409,45.7758321,24.1447043
20a,Strada Gheorghe Dima,550409,45.7755470,24.1445356
2,Strada Profesor Victor Lazăr,550410,45.7754804,24.1449233
18,Strada Dorobanților,550231,45.7973088,24.1664792
24,Strada Dorobanților,550231,45.7972657,24.1669051
34,Strada Gheorghe Dima,550409,45.7749789,24.1467828
31,Strada Putnei,550410,45.7744990,24.1462388
38a,Strada Gheorghe Dima,550409,45.7748131,24.1472583
32,Strada Gheorghe Dima,550409,45.7750921,24.1466261
24,Strada Putnei,550410,45.7743567,24.1456468
18,Strada Putnei,550410,45.7744888,24.1452060
28,Strada Putnei,550410,45.7742580,24.1459013
26,Strada Putnei,550410,45.7742422,24.1457144
32,Strada Putnei,550410,45.7740699,24.1463111
36a,Strada Gheorghe Dima,550409,45.7749081,24.1471096
20,Strada Putnei,550410,45.7744484,24.1453171
36,Strada Gheorghe Dima,550409,45.7749411,24.1470067
36a,Strada Putnei,550410,45.7739557,24.1467321
29,Strada Putnei,550410,45.7744991,24.1460904
42,Strada Gheorghe Dima,550409,45.7747032,24.1477077
39a,Strada Putnei,550410,45.7741371,24.1470768
24,Strada Gheorghe Dima,550409,45.7754208,24.1457370
4,Strada Arieșului,550409,45.7742514,24.1477707
30,Strada Gheorghe Dima,550409,45.7751893,24.1463690
22,Strada Putnei,550410,45.7744161,24.1454422
30,Strada Putnei,550410,45.7741752,24.1461214
2,Strada Arieșului,550409,45.7743710,24.1480442
1,Strada Gheorghe Dima,550409,45.7765365,24.1437401
28,Strada Gheorghe Dima,550409,45.7752916,24.1461356
35,Strada Putnei,550410,45.7743237,24.1465104
37a,Strada Putnei,550410,45.7742682,24.1467743
8,Strada Arieșului,550409,45.7740923,24.1473143
33,Strada Putnei,550410,45.7744119,24.1463586
40,Strada Gheorghe Dima,550409,45.7747573,24.1475199
25,Strada Putnei,550410,45.7745819,24.1458718
10,Strada Aron Pumnul,550409,45.7768188,24.1448559
4b,Intrarea Arieșului,550396,45.7728302,24.1458097
3a,Strada Gheorghe Dima,550409,45.7766152,24.1440833
13,Strada Gheorghe Dima,550409,45.7760071,24.1451436
1a,Strada Gheorghe Dima,550409,45.7765345,24.1438961
4a,Intrarea Arieșului,550396,45.7726413,24.1459098
14,Strada Aron Pumnul,550409,45.7767061,24.1454386
12,Strada Aron Pumnul,550409,45.7768101,24.1451759
17,Strada Siretului,550395,45.7724714,24.1459154
6,Strada Aron Pumnul,550409,45.7769747,24.1447623
7,Strada Gheorghe Dima,550409,45.7762946,24.1444820
16,Strada Aron Pumnul,550409,45.7766481,24.1456469
12a,Strada Aron Pumnul,550409,45.7765878,24.1449251
2e,Intrarea Arieșului,550396,45.7731721,24.1455596
9,Strada Gheorghe Dima,550409,45.7761750,24.1446999
3,Strada Gheorghe Dima,550409,45.7764483,24.1440372
5,Strada Gheorghe Dima,550409,45.7763683,24.1442702
9a,Strada Gheorghe Dima,550409,45.7764289,24.1449255
5a,Strada Gheorghe Dima,550409,45.7765965,24.1444435
74A,Calea Cisnădiei,550409,45.7760239,24.1480811
26b,Strada Aron Pumnul,550409,45.7757608,24.1470943
25,Strada Gheorghe Dima,550409,45.7752811,24.1470906
24,Strada Aron Pumnul,550409,45.7761142,24.1470948
34,Strada Aron Pumnul,550409,45.7758172,24.1479157
19,Strada Gheorghe Dima,550409,45.7755546,24.1465682
29,Strada Gheorghe Dima,550409,45.7754044,24.1476303
26,Strada Aron Pumnul,550409,45.7760435,24.1473046
21,Strada Gheorghe Dima,550409,45.7753864,24.1468176
20,Strada Aron Pumnul,550409,45.7761923,24.1468218
17,Strada Gheorghe Dima,550409,45.7755759,24.1463460
76,Calea Cisnădiei,550409,45.7757902,24.1480948
32,Strada Aron Pumnul,550409,45.7759055,24.1477184
24b,Strada Aron Pumnul,550409,45.7758787,24.1468544
23,Strada Gheorghe Dima,550409,45.7753659,24.1469951
15,Strada Gheorghe Dima,550409,45.7757137,24.1459257
80,Calea Cisnădiei,550409,45.7754726,24.1479730
31,Strada Gheorghe Dima,550409,45.7751286,24.1475437
33,Strada Gheorghe Dima,550409,45.7750666,24.1477515
27,Strada Gheorghe Dima,550409,45.7752021,24.1472691
8,Strada Amnaș,550154,45.7743241,24.1327790
14,Strada Nicolae Grigorescu,550154,45.7750595,24.1337358
16,Strada Nicolae Grigorescu,550154,45.7750251,24.1339079
7,Calea Poplăcii,550154,45.7759348,24.1316872
11,Strada Ioan Slavici,550372,45.7745965,24.1400407
4,Strada Ioan Slavici,550372,45.7751495,24.1400678
9,Strada Ioan Slavici,550372,45.7743638,24.1401439
12,Strada George Bacovia,550410,45.7741770,24.1432254
23a,Strada George Bacovia,550410,45.7740322,24.1444837
28a,Strada George Bacovia,550410,45.7736142,24.1448963
30a,Strada George Bacovia,550410,45.7735407,24.1451567
5a,Strada George Bacovia,550410,45.7746705,24.1426259
10,Strada Putnei,550410,45.7750386,24.1437679
11,Strada Putnei,550410,45.7753476,24.1437470
19,Strada Putnei,550410,45.7750382,24.1446133
19a,Strada Putnei,550410,45.7750858,24.1444501
11a,Strada Siretului,550395,45.7718998,24.1439127
11b,Strada Siretului,550395,45.7719620,24.1441567
11c,Strada Siretului,550395,45.7720499,24.1444185
11d,Strada Siretului,550395,45.7721027,24.1446670
11e,Strada Siretului,550395,45.7721701,24.1449340
11f,Strada Siretului,550395,45.7722328,24.1451934
15,Strada Siretului,550395,45.7723845,24.1456693
16c,Strada Siretului,550395,45.7722109,24.1461432
27,Strada Putnei,550410,45.7745404,24.1459781
14,Strada Siretului,550395,45.7715192,24.1436425
1c,Strada Siretului,550403,45.7718361,24.1413678
3a,Strada Siretului,550403,45.7716867,24.1417348
7a,Strada Siretului,550395,45.7715617,24.1423812
7b,Strada Siretului,550395,45.7716243,24.1426411
7c,Strada Siretului,550395,45.7716909,24.1429177
7d,Strada Siretului,550395,45.7717551,24.1431855
17,Strada Aron Pumnul,550409,45.7764202,24.1469760
21,Strada Aron Pumnul,550409,45.7762499,24.1474165
9,Strada Aron Pumnul,550409,45.7771005,24.1453197
3,Strada Aron Pumnul,550409,45.7773189,24.1446831
11,Strada Aron Pumnul,550409,45.7770393,24.1454136
19,Strada Aron Pumnul,550409,45.7763249,24.1472596
5,Strada Aron Pumnul,550409,45.7772299,24.1449357
12,Strada Anton Pann,550378,45.7785814,24.1466704
4A,Strada Anton Pann,550378,45.7788987,24.1458310
6,Strada Anton Pann,550378,45.7788273,24.1460353
8A,Strada Anton Pann,550378,45.7787476,24.1462242
5,Strada Frații Grachi,550282,45.7922138,24.1603298
74,Calea Cisnădiei,550409,45.7759999,24.1481485
78,Calea Cisnădiei,550409,45.7756937,24.1480915
22,Strada Aron Pumnul,550409,45.7761672,24.1468902
2,Strada Aron Pumnul,550409,45.7772685,24.1441142
23,Strada Mihail Sebastian,550326,45.7809010,24.1411444
16,Strada Dorobanților,550231,45.7973609,24.1665342
25,Strada Dorobanților,550231,45.7976257,24.1674512
26,Strada Dorobanților,550231,45.7974006,24.1672758
27,Strada Dorobanților,550231,45.7975938,24.1675540
13,Strada Iezer,550293,45.7869353,24.1743118
11,Strada Iezer,550293,45.7871565,24.1747219
9,Strada Iezer,550293,45.7873659,24.1751130
7,Strada Iezer,550293,45.7877656,24.1752666
5,Strada Iezer,550293,45.7877452,24.1747052
3,Strada Iezer,550293,45.7875322,24.1742951
1,Strada Iezer,550293,45.7873146,24.1738995
42D,Șoseaua Alba Iulia,550018,45.7935016,24.1299040
5A,Strada Prejbei,550145,45.7722887,24.1260445
101,Strada Rahovei,550393,45.7744966,24.1490532
14,Strada General Magheru,550185,45.7971913,24.1544139
4,Strada Pincio Ioan Păun,550142,45.7766649,24.1300623
2,Strada Pincio Ioan Păun,550142,45.7765663,24.1299644
6,Strada Pincio Ioan Păun,550142,45.7767884,24.1299234
1,Strada Pincio Ioan Păun,550142,45.7766585,24.1295756
3,Strada Pincio Ioan Păun,550142,45.7768789,24.1294998
5,Strada Pincio Ioan Păun,550142,45.7770692,24.1294663
7,Strada Alămor,550142,45.7769783,24.1300211
5,Strada Alămor,550142,45.7768143,24.1302489
3,Strada Alămor,550142,45.7766884,24.1305527
1,Strada Alămor,550142,45.7765715,24.1307779
12,Strada Alămor,550142,45.7772851,24.1301666
10,Strada Alămor,550142,45.7771419,24.1303066
8,Strada Alămor,550142,45.7770533,24.1305029
6,Strada Alămor,550142,45.7769981,24.1306991
4,Strada Alămor,550142,45.7768752,24.1308722
2,Strada Alămor,550142,45.7767560,24.1310737
9,Strada General Eremia Grigorescu,550142,45.7777583,24.1309386
7,Strada General Eremia Grigorescu,550142,45.7776648,24.1311259
5,Strada General Eremia Grigorescu,550142,45.7775667,24.1313041
3,Strada General Eremia Grigorescu,550142,45.7774385,24.1314464
1,Strada General Eremia Grigorescu,550142,45.7773756,24.1317085
8,Strada Miron Costin,550326,45.7815708,24.1439619
6,Strada Octavian Goga,550370,45.7819693,24.1432929
10,Strada Ilarie Chendi,550371,45.7789612,24.1434694
20,Strada Ilarie Chendi,550371,45.7792989,24.1426077
6,Strada Ilarie Chendi,550371,45.7788972,24.1436886
20,Strada Miron Costin,550326,45.7809205,24.1430315
7,Strada Topitorilor,550232,45.7979754,24.1673687
8,Strada Șerpuită,550214,45.8018878,24.1614666
18,Strada Urlea,550249,45.7934897,24.1652414
10,Strada Urlea,550249,45.7938514,24.1645567
2,Strada Axente Sever,550247,45.7933925,24.1621596
28,Strada Urlea,550249,45.7931859,24.1657620
21,Strada Axente Sever,550247,45.7920995,24.1641321
9,Strada Axente Sever,550247,45.7926943,24.1634526
22,Strada Axente Sever,550247,45.7922497,24.1634525
20,Strada Axente Sever,550247,45.7923583,24.1633060
5,Strada Galileo Galilei,550285,45.7926525,24.1682315
6,Strada Depoului,550285,45.7929145,24.1690228
2A,Strada Depoului,550285,45.7926473,24.1687365
25,Strada Axente Sever,550247,45.7918736,24.1643360
35,Strada Podragu,550248,45.7927413,24.1655936
23,Strada Axente Sever,550247,45.7919649,24.1642841
26,Strada Axente Sever,550247,45.7920662,24.1635944
18,Strada Axente Sever,550247,45.7924456,24.1632436
3-5,Strada Oncești,550310,45.7818334,24.1680228
13,Strada Rahovei,550345,45.7812251,24.1656779
193,Strada Ștefan cel Mare,550321,45.7892250,24.1890278
33,Strada Strungului,550234,45.7989871,24.1701369
4A,Strada Henri Coandă,550234,45.7977551,24.1720105
37,Strada Mașiniștilor,550233,45.7987157,24.1717553
31,Strada Mașiniștilor,550233,45.7980991,24.1714158
2A,Strada Henri Coandă,550234,45.7977923,24.1718326
29,Strada Mașiniștilor,550233,45.7980666,24.1713175
1,Strada Libertății,550242,45.8008186,24.1742870
26-26B,Strada Principatele Unite,550238,45.7987327,24.1772184
5,Strada Libertății,550242,45.8006004,24.1741981
8,Strada Libertății,550242,45.8004638,24.1738290
11,Strada Primăverii,550241,45.7998921,24.1754101
6,Strada Libertății,550242,45.8005591,24.1738712
14,Strada Libertății,550242,45.8001955,24.1736973
35,Strada Strungului,550234,45.7989347,24.1702904
43,Strada Strungului,550234,45.7987840,24.1708821
33,Strada Axente Sever,550247,45.7916133,24.1647340
52,Strada Gheorghe Țițeica,550283,45.7923336,24.1670541
50,Strada Urlea,550249,45.7923819,24.1669211
17,Strada Depoului,550285,45.7935116,24.1693640
33,Strada Bucegi,550278,45.7884617,24.1663357
27-29,Strada Bucegi,550278,45.7885164,24.1656467
6,Strada Axente Sever,550247,45.7931775,24.1622626
26,Strada Urlea,550249,45.7931948,24.1656138
24,Strada Urlea,550249,45.7932817,24.1655488
22,Strada Urlea,550249,45.7933526,24.1654095
30,Strada Principatele Unite,550238,45.7990549,24.1773581
42,Strada Principatele Unite,550238,45.7996940,24.1776319
44A,Strada Principatele Unite,550238,45.7998649,24.1776712
8A-8B,Strada Arcului,550240,45.7991892,24.1785970
16C,Strada Lebedei,550239,45.7992713,24.1792203
25-27,Strada Lebedei,550239,45.7986364,24.1795429
33,Strada Lebedei,550239,45.7981932,24.1793188
26,Strada Progresului,550131,45.8031273,24.1373908
20,Strada Progresului,550131,45.8034350,24.1376441
18,Strada Progresului,550131,45.8035290,24.1377341
22,Strada Arad,550131,45.8038339,24.1362614
26,Strada Arad,550131,45.8037035,24.1360717
8,Strada Deva,550132,45.8050452,24.1363702
6,Strada Deva,550132,45.8051349,24.1365274
33,Strada Deva,550132,45.8035303,24.1347259
31,Strada Bâlea,550246,45.7912833,24.1633898
161,Calea Turnișorului,550048,45.7944592,24.1223292
44,Strada Grâului,550039,45.7932177,24.1277494
2,Strada Grâului,550039,45.7932026,24.1281718
4,Strada Grâului,550039,45.7934307,24.1282473
17,Strada Grâului,550039,45.7934824,24.1278996
33,Strada Înfrățirii,550117,45.8048665,24.1427130
31,Strada Înfrățirii,550117,45.8048589,24.1425687
29,Strada Înfrățirii,550117,45.8047180,24.1425291
27,Strada Înfrățirii,550117,45.8046455,24.1424351
25,Strada Înfrățirii,550117,45.8045772,24.1423093
23,Strada Înfrățirii,550117,45.8044589,24.1421300
21,Strada Înfrățirii,550117,45.8044036,24.1418698
19,Strada Înfrățirii,550117,45.8043631,24.1415420
17,Strada Înfrățirii,550117,45.8043506,24.1413429
2,Strada Viorelelor,550119,45.8054941,24.1433951
4,Strada Viorelelor,550119,45.8055560,24.1432778
6,Strada Viorelelor,550119,45.8055946,24.1431362
10,Strada Viorelelor,550119,45.8057066,24.1428942
12,Strada Viorelelor,550119,45.8058094,24.1427929
14,Strada Viorelelor,550119,45.8058149,24.1426390
16,Strada Viorelelor,550119,45.8058810,24.1425261
18,Strada Viorelelor,550119,45.8059371,24.1424116
18,Strada Lăptăriei,550096,45.8112527,24.1465834
16,Strada Lăptăriei,550096,45.8112212,24.1467094
12,Strada Lăptăriei,550096,45.8112101,24.1469474
10,Strada Lăptăriei,550096,45.8111442,24.1470873
11,Strada Faianței,550098,45.8116972,24.1403502
13,Strada Faianței,550098,45.8117545,24.1404882
15,Strada Faianței,550098,45.8118200,24.1405811
17,Strada Faianței,550098,45.8119167,24.1406388
19,Strada Faianței,550098,45.8119739,24.1407252
21,Strada Faianței,550098,45.8120596,24.1408306
23,Strada Faianței,550098,45.8120569,24.1409801
14,Strada Faianței,550098,45.8116109,24.1405861
1,Strada Mesteacănului,550097,45.8120590,24.1429636
3,Strada Mesteacănului,550097,45.8121911,24.1430384
5,Strada Mesteacănului,550097,45.8122817,24.1430463
7,Strada Mesteacănului,550097,45.8122709,24.1432454
9,Strada Mesteacănului,550097,45.8123508,24.1433479
11,Strada Mesteacănului,550097,45.8124823,24.1435198
13,Strada Mesteacănului,550097,45.8125799,24.1435315
15,Strada Mesteacănului,550097,45.8126348,24.1436305
17,Strada Mesteacănului,550097,45.8127236,24.1436907
19,Strada Mesteacănului,550097,45.8127877,24.1437850
"21,23",Strada Margaretelor,550119,45.8065306,24.1388746
25,Strada Margaretelor,550119,45.8066126,24.1390543
29,Strada Margaretelor,550119,45.8067666,24.1393712
31,Strada Margaretelor,550119,45.8068133,24.1395197
33,Strada Margaretelor,550119,45.8068641,24.1396382
35,Strada Margaretelor,550119,45.8069020,24.1397240
39,Strada Margaretelor,550119,45.8069716,24.1399460
45,Strada Margaretelor,550119,45.8071475,24.1403889
38,Strada Deva,550132,45.8040349,24.1347012
36,Strada Deva,550132,45.8041279,24.1347890
34A,Strada Deva,550132,45.8041548,24.1349003
34,Strada Deva,550132,45.8042028,24.1350281
32,Strada Deva,550132,45.8042644,24.1351406
30,Strada Deva,550132,45.8043492,24.1352263
28,Strada Deva,550132,45.8043909,24.1353213
26,Strada Deva,550132,45.8044572,24.1354350
22,Strada Deva,550132,45.8045565,24.1356457
20,Strada Deva,550132,45.8047028,24.1356649
18,Strada Deva,550132,45.8047714,24.1357723
16,Strada Deva,550132,45.8047746,24.1359090
14,Strada Deva,550132,45.8048226,24.1360503
12,Strada Deva,550132,45.8049087,24.1361135
10,Strada Deva,550132,45.8049712,24.1362149
24,Strada Progresului,550131,45.8032312,24.1374565
22,Strada Progresului,550131,45.8033802,24.1374962
16,Strada Progresului,550131,45.8036032,24.1378428
14,Strada Progresului,550131,45.8037266,24.1379474
10,Strada Progresului,550131,45.8039491,24.1380755
67,Strada Teilor,550216,45.8075982,24.1656787
69,Strada Teilor,550216,45.8078071,24.1660124
79,Strada Teilor,550216,45.8080968,24.1664690
81,Strada Teilor,550216,45.8083031,24.1668036
91,Strada Teilor,550216,45.8084892,24.1673886
93,Strada Teilor,550216,45.8086984,24.1677227
65,Strada Teilor,550216,45.8073887,24.1659374
71,Strada Teilor,550216,45.8076009,24.1662741
77,Strada Teilor,550216,45.8078890,24.1667348
83,Strada Teilor,550216,45.8080978,24.1670691
89,Strada Reșița,550211,45.8082791,24.1676463
95,Strada Teilor,550216,45.8084900,24.1679854
63,Strada Reșița,550211,45.8071887,24.1662014
73,Strada Reșița,550211,45.8073954,24.1665354
75,Strada Reșița,550211,45.8076849,24.1669951
85,Strada Reșița,550211,45.8078930,24.1673282
87,Strada Reșița,550211,45.8080811,24.1679194
97,Strada Reșița,550211,45.8082873,24.1682485
20,Strada Șerbota,550247,45.7941835,24.1637845
2,Strada Urlea,550249,45.7940390,24.1639843
4,Strada Urlea,550249,45.7939676,24.1641456
6,Strada Urlea,550249,45.7939480,24.1642746
8,Strada Urlea,550249,45.7939025,24.1644277
12,Strada Urlea,550249,45.7937682,24.1647030
14,Strada Urlea,550249,45.7937205,24.1649006
16,Strada Urlea,550249,45.7936175,24.1650802
30,Strada Urlea,550249,45.7930709,24.1657775
32,Strada Urlea,550249,45.7930062,24.1659089
34,Strada Urlea,550249,45.7929582,24.1660050
36,Strada Urlea,550249,45.7928542,24.1662440
53,Strada Podragu,550248,45.7920632,24.1665894
51,Strada Podragu,550248,45.7921534,24.1664638
49,Strada Podragu,550248,45.7922327,24.1663732
47,Strada Podragu,550248,45.7923078,24.1662533
45,Strada Podragu,550248,45.7923624,24.1661275
43,Strada Podragu,550248,45.7924350,24.1659980
41,Strada Podragu,550248,45.7925156,24.1658974
39,Strada Podragu,550248,45.7926128,24.1658166
37,Strada Podragu,550248,45.7927051,24.1657309
29,Strada Podragu,550248,45.7929741,24.1652394
23,Strada Libertății,550242,45.7998635,24.1738515
21,Strada Libertății,550242,45.7999513,24.1738789
19,Strada Libertății,550242,45.8000124,24.1739942
17,Strada Libertății,550242,45.8001101,24.1739773
15,Strada Libertății,550242,45.8001601,24.1741067
13,Strada Libertății,550242,45.8002543,24.1740531
11,Strada Libertății,550242,45.8003487,24.1741227
9,Strada Libertății,550242,45.8004250,24.1741347
7,Strada Libertății,550242,45.8004935,24.1742146
3,Strada Libertății,550242,45.8006732,24.1742562
31,Strada Strungului,550234,45.7990033,24.1700271
37,Strada Strungului,550234,45.7988871,24.1704244
39A,Strada Strungului,550234,45.7988300,24.1705811
41,Strada Strungului,550234,45.7988120,24.1707226
45,Strada Wolfgang Amadeus Mozart,550224,45.7987259,24.1711817
"47,49",Strada Strungului,550234,45.7986679,24.1712997
51,Strada Strungului,550234,45.7986381,24.1714328
53,Strada Strungului,550234,45.7986217,24.1715476
55,Strada Mașiniștilor,550233,45.7985809,24.1717323
69,Strada Ecaterina Varga,550225,45.8011458,24.1798676
71,Strada Ecaterina Varga,550225,45.8011099,24.1800093
73,Strada Ecaterina Varga,550225,45.8011516,24.1802136
4,Strada Laminorului,550232,45.7974215,24.1685313
3,Strada Moreni,550217,45.8056975,24.1571096
5,Strada Moreni,550217,45.8057825,24.1572735
7,Strada Moreni,550217,45.8058598,24.1573573
9,Strada Moreni,550217,45.8059208,24.1574552
"11,13",Strada Moreni,550217,45.8060223,24.1575826
15,Strada Moreni,550217,45.8060487,24.1577785
17,Strada Moreni,550217,45.8061654,24.1578876
1,Strada Gorjului,550063,45.7877774,24.1356127
12,Strada Ștrandului,550068,45.7877601,24.1362906
9,Strada Gorjului,550063,45.7873565,24.1354472
1,Strada Cărbunelui,550299,45.7877126,24.1671649
3A,Strada Cărbunelui,550299,45.7876782,24.1673255
11,Strada Cărbunelui,550299,45.7876056,24.1681085
13,Strada Cărbunelui,550299,45.7876816,24.1683052
17,Strada Cărbunelui,550299,45.7875672,24.1686761
19,Strada Cărbunelui,550299,45.7875657,24.1688581
23-25,Strada Cărbunelui,550299,45.7875389,24.1693115
23,Strada Fochiștilor,550299,45.7867678,24.1693085
21,Strada Fochiștilor,550299,45.7867831,24.1690949
19,Strada Fochiștilor,550299,45.7868103,24.1688718
17,Strada Fochiștilor,550299,45.7868000,24.1687082
15,Strada Fochiștilor,550299,45.7868231,24.1684960
13,Strada Fochiștilor,550299,45.7868488,24.1683292
9,Strada Fochiștilor,550299,45.7868533,24.1679284
7,Strada Fochiștilor,550299,45.7869325,24.1677417
5,Strada Fochiștilor,550299,45.7868837,24.1675339
23,Strada Călțun,550298,45.7869600,24.1666536
31,Strada Bucegi,550278,45.7884840,24.1661031
23,Strada Bucegi,550278,45.7886185,24.1647305
23A,Strada Bucegi,550278,45.7887563,24.1644347
23A1,Strada Bucegi,550278,45.7886192,24.1645318
76A-76B,Strada Negoi,550275,45.7866462,24.1641219
76C-76D,Strada Negoi,550275,45.7864507,24.1640648
78,Strada Negoi,550275,45.7868779,24.1644058
80-82,Strada Negoi,550275,45.7868842,24.1646826
84,Strada Negoi,550275,45.7868343,24.1648716
86,Strada Negoi,550275,45.7868095,24.1650187
88,Strada Negoi,550275,45.7867906,24.1652848
96,Strada Negoi,550275,45.7863400,24.1653097
92,Strada Negoi,550275,45.7865348,24.1657018
94-96,Strada Negoi,550275,45.7867257,24.1655827
26,Strada Ceferiștilor,550291,45.7872430,24.1693806
24,Strada Cărbunelui,550299,45.7872707,24.1691816
18,Strada Cărbunelui,550299,45.7872976,24.1688139
14-16,Strada Cărbunelui,550299,45.7872527,24.1683261
12,Strada Cărbunelui,550299,45.7873704,24.1680391
10-10A,Strada Cărbunelui,550299,45.7873098,24.1677899
6-8,Strada Cărbunelui,550299,45.7873822,24.1675381
2-4,Strada Cărbunelui,550299,45.7873618,24.1671785
61,Strada Nicolae Iorga,550407,45.7779352,24.1491450
59,Strada Nicolae Iorga,550407,45.7778680,24.1499941
55,Strada Nicolae Iorga,550387,45.7777294,24.1517408
17,Calea Cisnădiei,550408,45.7785388,24.1491612
70,Strada Nicolae Iorga,550407,45.7783914,24.1496661
68,Strada Nicolae Iorga,550407,45.7783288,24.1502706
66,Strada Nicolae Iorga,550407,45.7782763,24.1508569
58,Strada Nicolae Iorga,550407,45.7782974,24.1513631
15,Calea Cisnădiei,550408,45.7789959,24.1491649
60,Strada Nicolae Iorga,550407,45.7787914,24.1510658
49CC-49CB-49CA-,Bulevardul Mihai Viteazul,550341,45.7780200,24.1548130
14AD-14AC-14AB-14AA,Bulevardul Mihai Viteazul,550365,45.7784240,24.1549011
49,Strada Nicolae Iorga,550366,45.7788374,24.1543721
14,Bulevardul Mihai Viteazul,550365,45.7789133,24.1550011
54A-54B-54C,Strada Nicolae Iorga,550407,45.7786926,24.1531343
19,Bulevardul Mihai Viteazul,550350,45.7798489,24.1545329
25A,Strada Anton Pann,550378,45.7785466,24.1479494
23,Strada Anton Pann,550378,45.7785763,24.1477602
87A1,Strada Anton Pann,550378,45.7792483,24.1455445
3,Strada Anton Pann,550378,45.7791747,24.1458743
5,Strada Anton Pann,550378,45.7791096,24.1460916
7,Strada Anton Pann,550378,45.7790726,24.1462055
9,Strada Anton Pann,550378,45.7790217,24.1463591
9A,Strada Anton Pann,550378,45.7789860,24.1466143
17,Strada Anton Pann,550378,45.7787307,24.1472238
17A,Strada Anton Pann,550378,45.7786964,24.1473357
21,Strada Anton Pann,550378,45.7787207,24.1474959
8,Strada Anton Pann,550378,45.7787166,24.1463272
10,Strada Anton Pann,550378,45.7786431,24.1464932
14,Strada Anton Pann,550378,45.7785665,24.1467934
33,Strada Luptei,550341,45.7810238,24.1582827
31,Strada Hipodromului,550360,45.7811915,24.1583406
29A,Strada Hipodromului,550360,45.7814319,24.1583785
39,Strada Nicolae Iorga,550361,45.7816229,24.1584594
33,Strada Nicolae Iorga,550361,45.7820847,24.1589138
31,Strada Nicolae Iorga,550361,45.7821866,24.1590678
12T4,Strada Nicolae Iorga,550361,45.7815462,24.1577422
26,Strada Cernei,550356,45.7830936,24.1594726
28,Strada Nicolae Iorga,550361,45.7829265,24.1592786
32,Strada Nicolae Iorga,550361,45.7826839,24.1589917
36,Strada Nicolae Iorga,550361,45.7823640,24.1587501
21,Strada Cernei,550356,45.7828859,24.1598675
25,Strada Nicolae Iorga,550361,45.7825582,24.1595679
27,Strada Nicolae Iorga,550361,45.7824966,24.1593922
29,Strada Nicolae Iorga,550361,45.7823403,24.1592385
19A,Strada Cernei,550356,45.7830681,24.1600367
17-19,Strada Nicolae Iorga,550361,45.7832898,24.1603302
13-15,Strada Nicolae Iorga,550361,45.7835245,24.1605002
11,Strada Nicolae Iorga,550361,45.7836473,24.1606710
7-9,Strada Nicolae Iorga,550361,45.7837662,24.1608618
5,Strada Nicolae Iorga,550361,45.7839913,24.1609688
3,Strada Nicolae Iorga,550361,45.7840297,24.1611101
22,Strada Nicolae Iorga,550361,45.7834702,24.1598014
20,Strada Nicolae Iorga,550361,45.7835519,24.1599519
18,Strada Nicolae Iorga,550361,45.7836432,24.1600105
10,Strada Nicolae Iorga,550361,45.7840471,24.1604602
8,Strada Nicolae Iorga,550361,45.7842160,24.1605986
4,Strada Nicolae Iorga,550361,45.7844305,24.1608997
11,Strada Moldoveanu,550276,45.7847696,24.1615642
13,Bulevardul General Vasile Milea,550331,45.7846747,24.1617460
1A,Strada Porumbacului,550330,45.7840317,24.1622176
31 - 33,Bulevardul Victoriei,550024,45.7863162,24.1411356
8,Strada Someșului,550003,45.7891243,24.1484607
46,Bulevardul Victoriei,550024,45.7850329,24.1386968
41,Strada Nicolae Bălcescu,550159,45.7932952,24.1499830
35,Strada Axente Sever,550247,45.7915290,24.1648049
5,Strada Rahovei,550345,45.7815356,24.1662498
3,Strada Vasile Aaron,550297,45.7834596,24.1645509
3,Strada Rahovei,550345,45.7816289,24.1664059
3A,Aleea Călărașilor,550344,45.7823341,24.1638806
9,Strada Rahovei,550345,45.7813791,24.1659458
2,Strada Oașa,550305,45.7835943,24.1710570
16 - 20,Strada Pădurea Dumbrava,550399,45.7550113,24.1160510
88,Aleea Șelimbăr,550346,45.7814239,24.1669282
7,Strada Rahovei,550345,45.7814423,24.1661487
11,Strada Rahovei,550345,45.7813021,24.1658287
15,Strada Rahovei,550345,45.7811507,24.1655557
17,Strada Rahovei,550345,45.7810687,24.1653956
19,Strada Rahovei,550345,45.7809980,24.1652466
21,Strada Rahovei,550345,45.7809058,24.1650943
23,Strada Rahovei,550345,45.7808452,24.1649622
25,Strada Rahovei,550345,45.7807756,24.1647943
6,Aleea Șelimbăr,550346,45.7805637,24.1652532
2,Aleea Șelimbăr,550346,45.7810563,24.1662996
27,Strada Rahovei,550345,45.7806025,24.1643493
29,Strada Rahovei,550345,45.7805333,24.1638768
31,Strada Rahovei,550345,45.7804522,24.1633739
33,Strada Rahovei,550345,45.7803405,24.1629120
35,Strada Rahovei,550345,45.7801783,24.1625044
37,Strada Rahovei,550345,45.7799751,24.1621466
39,Strada Rahovei,550345,45.7797250,24.1618355
41,Strada Rahovei,550345,45.7794709,24.1615424
8A-8B,Aleea Șelimbăr,550346,45.7790360,24.1610775
43A-43B-43C-43D-43E,Strada Rahovei,550345,45.7790457,24.1603871
B1,Strada Rahovei,550340,45.7780566,24.1598798
B2,Strada Rahovei,550340,45.7779156,24.1595635
B3,Strada Rahovei,550340,45.7777691,24.1592708
1,Strada Depoului,550285,45.7928250,24.1684984
3,Strada Depoului,550285,45.7929043,24.1685985
5,Strada Depoului,550285,45.7929797,24.1687186
7,Strada Galileo Galilei,550285,45.7925585,24.1685903
2B,Strada Depoului,550285,45.7927780,24.1688220
2,Strada Rahovei,550340,45.7818221,24.1656092
4,Strada Rahovei,550340,45.7815928,24.1651083
6,Strada Rahovei,550340,45.7814464,24.1643694
8A-8B-8C,Strada Rahovei,550340,45.7811794,24.1628417
10A-10B-10C,Strada Rahovei,550340,45.7806401,24.1615942
12A-12B-12C-12D-12E,Strada Rahovei,550340,45.7797845,24.1603352
20A-20B-20C-20D,Strada Rahovei,550340,45.7785336,24.1582327
4,Strada Depoului,550285,45.7928414,24.1689300
7,Strada Depoului,550285,45.7930861,24.1687868
9,Strada Depoului,550285,45.7931377,24.1689323
11,Strada Depoului,550285,45.7932297,24.1690346
13,Strada Depoului,550285,45.7933190,24.1691365
15,Strada Depoului,550285,45.7934099,24.1692714
8,Strada Depoului,550285,45.7929534,24.1692241
10,Strada Depoului,550285,45.7930685,24.1692866
12,Strada Depoului,550285,45.7931264,24.1694509
14,Strada Depoului,550285,45.7932443,24.1694987
18,Strada Depoului,550285,45.7933534,24.1698224
19,Strada Depoului,550285,45.7936478,24.1693805
2,Strada Mălinului,550271,45.8113064,24.1841964
2,Strada Gorunului,550272,45.8115448,24.1834566
9,Bulevardul Mihai Viteazul,550350,45.7814670,24.1515684
13,Bulevardul Mihai Viteazul,550350,45.7808730,24.1527760
17,Bulevardul Mihai Viteazul,550350,45.7802479,24.1539221
1,Strada Hipodromului,550360,45.7856148,24.1533656
27,Bulevardul General Vasile Milea,550331,45.7871869,24.1534098
26,Bulevardul General Vasile Milea,550331,45.7870314,24.1538597
24A,Strada Heinrich Heine,550210,45.8072216,24.1705269
24,Strada Heinrich Heine,550210,45.8072815,24.1704523
26-28,Strada Heinrich Heine,550210,45.8074001,24.1704256
30,Strada Heinrich Heine,550210,45.8075009,24.1701945
32,Strada Heinrich Heine,550210,45.8075837,24.1701222
34,Strada Heinrich Heine,550210,45.8076680,24.1700838
36,Strada Heinrich Heine,550210,45.8077268,24.1700084
38,Strada Heinrich Heine,550210,45.8077835,24.1699335
40,Strada Heinrich Heine,550210,45.8078549,24.1698811
42,Strada Heinrich Heine,550210,45.8079574,24.1697257
44,Strada Heinrich Heine,550210,45.8080979,24.1697444
46,Strada Heinrich Heine,550210,45.8081790,24.1696804
48,Strada Heinrich Heine,550210,45.8081884,24.1695029
50,Strada Heinrich Heine,550210,45.8082508,24.1693974
19,Strada Heinrich Heine,550210,45.8072635,24.1701526
21,Strada Heinrich Heine,550210,45.8073230,24.1700165
23,Strada Heinrich Heine,550210,45.8074130,24.1699267
25,Strada Heinrich Heine,550210,45.8075263,24.1698893
27,Strada Heinrich Heine,550210,45.8075905,24.1697899
29,Strada Heinrich Heine,550210,45.8076534,24.1696984
31-31A,Strada Heinrich Heine,550210,45.8077147,24.1695719
33,Strada Heinrich Heine,550210,45.8078203,24.1694319
37,Strada Heinrich Heine,550210,45.8079239,24.1693585
39,Strada Heinrich Heine,550210,45.8079786,24.1692712
41,Strada Heinrich Heine,550210,45.8080644,24.1692413
43,Strada Heinrich Heine,550210,45.8081497,24.1691792
2,Strada Rândunelelor,550209,45.8065387,24.1683784
8,Strada Rândunelelor,550209,45.8067716,24.1680896
10,Strada Rândunelelor,550209,45.8069064,24.1681658
12,Strada Rândunelelor,550209,45.8069436,24.1679448
14,Strada Rândunelelor,550209,45.8069969,24.1678658
16,Strada Rândunelelor,550209,45.8072690,24.1677251
18,Strada Rândunelelor,550209,45.8073186,24.1676477
20,Strada Rândunelelor,550209,45.8074085,24.1675482
22,Strada Rândunelelor,550209,45.8074630,24.1674752
1,Strada Rândunelelor,550209,45.8064622,24.1680023
3,Strada Rândunelelor,550209,45.8065354,24.1679537
5,Strada Rândunelelor,550209,45.8066084,24.1678714
7,Strada Rândunelelor,550209,45.8067037,24.1677689
9,Strada Rândunelelor,550209,45.8068048,24.1677464
11,Strada Rândunelelor,550209,45.8068856,24.1676607
13,Strada Rândunelelor,550209,45.8069700,24.1675953
15,Strada Rândunelelor,550209,45.8070373,24.1674177
17,Strada Rândunelelor,550209,45.8071348,24.1673964
19,Strada Rândunelelor,550209,45.8072485,24.1673525
21,Strada Rândunelelor,550209,45.8073252,24.1672466
23,Strada Rândunelelor,550209,45.8074301,24.1671752
2,Strada Zorilor,550209,45.8062491,24.1678448
4,Strada Zorilor,550209,45.8063221,24.1679199
6,Strada Zorilor,550209,45.8064194,24.1676855
8,Strada Zorilor,550209,45.8065771,24.1675201
10,Strada Zorilor,550209,45.8067491,24.1673706
12,Strada Zorilor,550209,45.8068306,24.1672871
14,Strada Zorilor,550209,45.8069175,24.1672028
16,Strada Zorilor,550209,45.8070055,24.1670998
18,Strada Zorilor,550209,45.8070936,24.1670511
20,Strada Zorilor,550209,45.8072502,24.1669539
1,Strada Zorilor,550209,45.8062160,24.1675804
3,Strada Zorilor,550209,45.8063011,24.1674813
5,Strada Zorilor,550209,45.8063634,24.1673624
7,Strada Zorilor,550209,45.8064480,24.1673332
9,Strada Zorilor,550209,45.8066094,24.1671925
11,Strada Zorilor,550209,45.8066657,24.1669651
13,Strada Zorilor,550209,45.8068975,24.1669094
15,Strada Zorilor,550209,45.8069668,24.1666997
2A,Aleea Călărașilor,550344,45.7824973,24.1635984
10,Aleea Călărașilor,550344,45.7820996,24.1641255
6,Aleea Călărașilor,550344,45.7819699,24.1643695
8E,Aleea Călărașilor,550344,45.7817588,24.1644707
G1,Aleea Călărașilor,550344,45.7819033,24.1650981
3,Aleea Călărașilor,550344,45.7822020,24.1646163
1,Aleea Călărașilor,550344,45.7825232,24.1641313
19,Strada Primăverii,550241,45.7994886,24.1752130
15-17,Strada Primăverii,550241,45.7996343,24.1752378
13,Strada Primăverii,550241,45.7997710,24.1752912
9,Strada Primăverii,550241,45.8000016,24.1754028
7,Strada Primăverii,550241,45.8001052,24.1755584
5,Strada Primăverii,550241,45.8001737,24.1755361
3,Strada Primăverii,550241,45.8002684,24.1755734
1A,Strada Primăverii,550241,45.8003440,24.1755702
1A,Strada Primăverii,550241,45.8004609,24.1756450
24,Strada Primăverii,550241,45.7993795,24.1749365
22,Strada Primăverii,550241,45.7994864,24.1749319
20,Strada Primăverii,550241,45.7995668,24.1750016
18,Strada Primăverii,550241,45.7996305,24.1749638
16,Strada Primăverii,550241,45.7997027,24.1749820
14,Strada Primăverii,550241,45.7997644,24.1750782
12,Strada Primăverii,550241,45.7998503,24.1750488
10,Strada Primăverii,550241,45.7999444,24.1750787
8,Strada Primăverii,550241,45.8000438,24.1752325
6,Strada Primăverii,550241,45.8001230,24.1752631
4,Strada Primăverii,550241,45.8003177,24.1753270
2,Strada Primăverii,550241,45.8003817,24.1753976
25,Strada Libertății,550242,45.7997431,24.1738761
2,Strada Libertății,550242,45.8007430,24.1739659
4,Strada Libertății,550242,45.8006637,24.1738890
10,Strada Libertății,550242,45.8003923,24.1737429
12,Strada Libertății,550242,45.8003320,24.1736178
16,Strada Libertății,550242,45.8001101,24.1736372
18,Strada Libertății,550242,45.8000239,24.1736424
20,Strada Libertății,550242,45.7999332,24.1735648
22,Strada Libertății,550242,45.7998732,24.1734621
29-31,Strada Lebedei,550239,45.7983991,24.1795123
23,Strada Lebedei,550239,45.7988792,24.1796640
17-19,Strada Lebedei,550239,45.7991037,24.1797610
15A,Strada Lebedei,550239,45.7993364,24.1798656
11,Strada Lebedei,550239,45.7995372,24.1799555
8,Strada Lebedei,550239,45.7996875,24.1796512
10-12,Strada Lebedei,550239,45.7994769,24.1795293
14-16,Strada Lebedei,550239,45.7991966,24.1794482
16B,Strada Lebedei,550239,45.7989757,24.1793293
18-20-20A,Strada Lebedei,550239,45.7987234,24.1790906
22-24-24A,Strada Lebedei,550239,45.7984675,24.1790822
2A,Strada Arcului,550240,45.7984970,24.1783002
4,Strada Arcului,550240,45.7986473,24.1783871
6-8,Strada Arcului,550240,45.7988931,24.1784923
10-10A-12,Strada Arcului,550240,45.7993759,24.1788411
14A,Strada Arcului,550240,45.7995673,24.1790921
14-16,Strada Arcului,550240,45.7996557,24.1788362
18,Strada Arcului,550240,45.7998198,24.1788850
20,Strada Arcului,550240,45.7999262,24.1788902
21,Strada Arcului,550240,45.7998922,24.1785780
19,Strada Arcului,550240,45.7997532,24.1785129
17,Strada Arcului,550240,45.7996652,24.1784543
13-15,Strada Arcului,550240,45.7994686,24.1783671
9-11,Strada Arcului,550240,45.7992227,24.1782359
5-7,Strada Arcului,550240,45.7989767,24.1781318
1-3,Strada Arcului,550240,45.7987235,24.1779898
28,Strada Principatele Unite,550238,45.7989066,24.1773381
32-32A,Strada Principatele Unite,550238,45.7991439,24.1773850
34,Strada Principatele Unite,550238,45.7993093,24.1774567
36,Strada Principatele Unite,550238,45.7994654,24.1774955
38,Strada Principatele Unite,550238,45.7995347,24.1775632
40,Strada Principatele Unite,550238,45.7996083,24.1776079
46,Strada Principatele Unite,550238,45.7999429,24.1777700
35,Strada Principatele Unite,550238,45.8002080,24.1774736
33,Strada Principatele Unite,550238,45.8000778,24.1774159
27-29-31,Strada Principatele Unite,550238,45.7998777,24.1772966
25,Strada Principatele Unite,550238,45.7996708,24.1771985
23,Strada Principatele Unite,550238,45.7995424,24.1771706
19,Strada Principatele Unite,550238,45.7992872,24.1769514
17,Strada Principatele Unite,550238,45.7991217,24.1769151
15-15B,Strada Principatele Unite,550238,45.7989580,24.1768276
13A-13B,Strada Principatele Unite,550238,45.7988143,24.1768065
17,Strada Cernei,550356,45.7838006,24.1586564
20,Strada Cernei,550356,45.7836049,24.1585173
37,Strada Andrei Mureșanu,550356,45.7833928,24.1570726
35B,Strada Andrei Mureșanu,550356,45.7834565,24.1572321
35,Strada Andrei Mureșanu,550356,45.7835190,24.1572895
33,Strada Andrei Mureșanu,550356,45.7836351,24.1573506
31,Strada Andrei Mureșanu,550356,45.7837288,24.1574049
29,Strada Andrei Mureșanu,550356,45.7837983,24.1575589
27,Strada Andrei Mureșanu,550356,45.7839829,24.1576650
23,Strada Andrei Mureșanu,550356,45.7841802,24.1578800
19A-21,Strada Andrei Mureșanu,550356,45.7843915,24.1580917
19,Strada Andrei Mureșanu,550356,45.7845195,24.1582624
17,Strada Andrei Mureșanu,550356,45.7846161,24.1583689
13,Strada Andrei Mureșanu,550356,45.7847615,24.1585708
11-11A,Strada Andrei Mureșanu,550356,45.7848891,24.1586910
9,Strada Andrei Mureșanu,550356,45.7850562,24.1588284
7,Strada Andrei Mureșanu,550356,45.7852077,24.1589583
5,Strada Andrei Mureșanu,550356,45.7853472,24.1590754
3,Strada Andrei Mureșanu,550356,45.7854397,24.1591789
1,Strada Andrei Mureșanu,550356,45.7855107,24.1593032
2,Strada Andrei Mureșanu,550356,45.7853753,24.1587166
4-4A,Strada Andrei Mureșanu,550356,45.7852029,24.1584862
6,Strada Andrei Mureșanu,550356,45.7850674,24.1583374
8-10,Strada Andrei Mureșanu,550356,45.7849206,24.1581583
12,Strada Andrei Mureșanu,550356,45.7847845,24.1580371
14,Strada Andrei Mureșanu,550356,45.7846801,24.1579286
16,Strada Andrei Mureșanu,550356,45.7846267,24.1578231
18,Strada Andrei Mureșanu,550356,45.7845104,24.1577522
20,Strada Andrei Mureșanu,550356,45.7843884,24.1576824
22,Strada Andrei Mureșanu,550356,45.7841145,24.1573912
24,Strada Andrei Mureșanu,550356,45.7839763,24.1572822
26,Strada Andrei Mureșanu,550356,45.7838673,24.1571186
28,Strada Andrei Mureșanu,550356,45.7837875,24.1569972
30-32,Strada Andrei Mureșanu,550356,45.7836592,24.1567965
2,Strada Cernei,550356,45.7846787,24.1562981
4,Strada Cernei,550356,45.7845829,24.1565283
6,Strada Cernei,550356,45.7844586,24.1566571
8-10,Strada Cernei,550356,45.7843760,24.1568626
12,Strada Cernei,550356,45.7842881,24.1570520
14,Strada Cernei,550356,45.7838620,24.1579379
16,Strada Cernei,550356,45.7837786,24.1581064
18,Strada Cernei,550356,45.7836913,24.1582251
22,Strada Cernei,550356,45.7832041,24.1589053
24,Strada Cernei,550356,45.7832453,24.1591368
26,Strada Cernei,550356,45.7831896,24.1592325
28,Strada Cernei,550356,45.7828026,24.1600719
30,Strada Cernei,550356,45.7826900,24.1602984
34,Strada Cernei,550356,45.7823217,24.1610222
36,Strada Cernei,550356,45.7822296,24.1611737
33-33A,Strada Cernei,550356,45.7824656,24.1612325
29,Strada Cernei,550356,45.7828607,24.1606615
27,Strada Cernei,550356,45.7829110,24.1604921
25A-25B,Strada Cernei,550356,45.7829476,24.1603157
23,Strada Cernei,550356,45.7833210,24.1594637
21,Strada Cernei,550356,45.7834732,24.1592872
19,Strada Cernei,550356,45.7835478,24.1590946
15A,Strada Cernei,550356,45.7838996,24.1584624
15,Strada Cernei,550356,45.7840807,24.1584135
13B,Strada Cernei,550356,45.7841557,24.1583168
11,Strada Cernei,550356,45.7844987,24.1572988
7,Strada Cernei,550356,45.7846094,24.1570990
5,Strada Cernei,550356,45.7846833,24.1568979
3,Strada Cernei,550356,45.7848319,24.1568980
1,Strada Cernei,550356,45.7848450,24.1566714
2,Strada Mașiniștilor,550233,45.7966171,24.1695890
4,Strada Mașiniștilor,550233,45.7966686,24.1697650
6,Strada Mașiniștilor,550233,45.7967374,24.1698516
10-12-14,Strada Mașiniștilor,550233,45.7969324,24.1701039
16,Strada Mașiniștilor,550233,45.7970528,24.1703646
18,Strada Mașiniștilor,550233,45.7971240,24.1705354
20-22,Strada Mașiniștilor,550233,45.7972311,24.1705868
24,Strada Mașiniștilor,550233,45.7973198,24.1707792
26,Strada Mașiniștilor,550233,45.7974405,24.1709281
28,Strada Mașiniștilor,550233,45.7975230,24.1710039
30,Strada Mașiniștilor,550233,45.7974899,24.1712658
32,Strada Mașiniștilor,550233,45.7976231,24.1712863
34,Strada Mașiniștilor,550233,45.7977147,24.1713982
36,Strada Mașiniștilor,550233,45.7977854,24.1715262
38,Strada Mașiniștilor,550233,45.7978602,24.1716064
40,Strada Mașiniștilor,550233,45.7980907,24.1718423
42-44,Strada Mașiniștilor,550233,45.7982266,24.1719118
46-48,Strada Mașiniștilor,550233,45.7983921,24.1719727
50,Strada Mașiniștilor,550233,45.7984660,24.1720410
52,Strada Mașiniștilor,550233,45.7985522,24.1720415
54,Strada Mașiniștilor,550233,45.7986499,24.1720374
56,Strada Mașiniștilor,550233,45.7988290,24.1721616
58,Strada Mașiniștilor,550233,45.7989743,24.1722152
60,Strada Mașiniștilor,550233,45.7990874,24.1722764
62,Strada Mașiniștilor,550233,45.7991600,24.1723312
64,Strada Mașiniștilor,550233,45.7992359,24.1723782
66,Strada Mașiniștilor,550233,45.7993601,24.1723751
68,Strada Mașiniștilor,550233,45.7994626,24.1724568
76,Strada Mașiniștilor,550242,45.8002059,24.1730545
78-80,Strada Mașiniștilor,550242,45.8003932,24.1730709
82,Strada Mașiniștilor,550242,45.8005686,24.1731642
84,Strada Mașiniștilor,550242,45.8006599,24.1731716
86-88,Strada Mașiniștilor,550242,45.8008621,24.1732272
90,Strada Mașiniștilor,550242,45.8010679,24.1732704
92A,Strada Mașiniștilor,550242,45.8012002,24.1736062
92,Strada Mașiniștilor,550242,45.8013929,24.1737114
94,Strada Mașiniștilor,550242,45.8015101,24.1738737
98,Strada Mașiniștilor,550242,45.8017148,24.1740670
98A,Strada Mașiniștilor,550242,45.8018842,24.1743283
100,Strada Mașiniștilor,550242,45.8019678,24.1744337
97,Strada Mașiniștilor,550242,45.8020816,24.1741216
95,Strada Mașiniștilor,550242,45.8020080,24.1740376
93,Strada Mașiniștilor,550242,45.8019668,24.1739057
91,Strada Mașiniștilor,550242,45.8018015,24.1737392
89,Strada Mașiniștilor,550242,45.8017097,24.1736176
87,Strada Mașiniștilor,550242,45.8016353,24.1735300
85,Strada Mașiniștilor,550242,45.8014280,24.1731103
79-83,Strada Mașiniștilor,550242,45.8010076,24.1728604
77,Strada Mașiniștilor,550242,45.8008862,24.1728690
75,Strada Mașiniștilor,550242,45.8007815,24.1728168
71-73,Strada Mașiniștilor,550242,45.8006862,24.1725401
69,Strada Mașiniștilor,550242,45.8005087,24.1726863
67,Strada Mașiniștilor,550242,45.8004473,24.1725844
65,Strada Mașiniștilor,550242,45.8002981,24.1725858
63,Strada Mașiniștilor,550242,45.8001798,24.1725387
61,Strada Mașiniștilor,550242,45.8000466,24.1724464
59,Strada Mașiniștilor,550242,45.7999529,24.1723251
57,Strada Mașiniștilor,550233,45.7996919,24.1721686
55,Strada Mașiniștilor,550233,45.7995731,24.1721179
53,Strada Mașiniștilor,550233,45.7995016,24.1720274
51,Strada Mașiniștilor,550233,45.7994130,24.1720643
49,Strada Mașiniștilor,550233,45.7993435,24.1720104
47,Strada Mașiniștilor,550233,45.7992729,24.1719507
43-45,Strada Mașiniștilor,550233,45.7991172,24.1717663
39-41,Strada Mașiniștilor,550233,45.7989277,24.1718130
35,Strada Mașiniștilor,550233,45.7983189,24.1715064
33,Strada Mașiniștilor,550233,45.7981829,24.1714471
27,Strada Mașiniștilor,550233,45.7979353,24.1712316
25,Strada Mașiniștilor,550233,45.7979208,24.1711264
23A,Strada Mașiniștilor,550233,45.7979318,24.1709795
23,Strada Mașiniștilor,550233,45.7977644,24.1708518
19-21,Strada Mașiniștilor,550233,45.7976565,24.1706914
15-17,Strada Mașiniștilor,550233,45.7975103,24.1703199
13,Strada Mașiniștilor,550233,45.7973335,24.1702424
11,Strada Mașiniștilor,550233,45.7972789,24.1701021
9,Strada Mașiniștilor,550233,45.7972714,24.1699373
7,Strada Mașiniștilor,550233,45.7971085,24.1699264
5,Strada Mașiniștilor,550233,45.7970320,24.1698021
3,Strada Mașiniștilor,550233,45.7969748,24.1696349
1,Strada Mașiniștilor,550233,45.7968833,24.1695530
1,Strada Crinilor,550208,45.8054532,24.1652215
3-5,Strada Crinilor,550208,45.8055964,24.1651618
7,Strada Crinilor,550208,45.8057461,24.1649979
9,Strada Crinilor,550208,45.8058106,24.1648279
39C,Strada Crinilor,550208,45.8065349,24.1642810
39A-39B,Strada Crinilor,550208,45.8063856,24.1644728
39,Strada Crinilor,550208,45.8061666,24.1648151
18,Strada Crinilor,550208,45.8060337,24.1651137
16,Strada Crinilor,550208,45.8058926,24.1652055
14,Strada Crinilor,550208,45.8057668,24.1652702
12,Strada Crinilor,550208,45.8056970,24.1653528
10,Strada Crinilor,550208,45.8056527,24.1654867
8,Strada Crinilor,550208,45.8055495,24.1655332
6,Strada Crinilor,550208,45.8054903,24.1656449
4,Strada Crinilor,550208,45.8054022,24.1657250
2,Strada Crinilor,550208,45.8052101,24.1659853
1,Strada Armoniei,550209,45.8058407,24.1664227
3,Strada Armoniei,550209,45.8058975,24.1663202
5,Strada Armoniei,550209,45.8059765,24.1662400
7,Strada Armoniei,550209,45.8060404,24.1660463
9,Strada Armoniei,550209,45.8061648,24.1660154
11,Strada Armoniei,550209,45.8063088,24.1658798
12,Strada Armoniei,550209,45.8065809,24.1659459
10,Strada Armoniei,550209,45.8063740,24.1661661
8,Strada Armoniei,550209,45.8062911,24.1662790
6,Strada Armoniei,550209,45.8061776,24.1663262
4,Strada Armoniei,550209,45.8060811,24.1664801
2A,Strada Armoniei,550209,45.8061648,24.1669364
2,Strada Armoniei,550209,45.8057190,24.1668999
21,Strada Panait Cerna,550401,45.7719853,24.1348723
133,Strada Podului,550263,45.7960094,24.2028625
53,Strada Deva,550132,45.8025813,24.1341476
51,Strada Deva,550132,45.8026856,24.1342181
47-49,Strada Deva,550132,45.8027916,24.1342939
45,Strada Deva,550132,45.8029412,24.1343723
43,Strada Deva,550132,45.8030083,24.1344346
41,Strada Deva,550132,45.8030820,24.1344546
40,Strada Deva,550132,45.8036402,24.1343721
42A,Strada Deva,550132,45.8033472,24.1342683
44,Strada Deva,550132,45.8032114,24.1341411
46,Strada Deva,550132,45.8031513,24.1340693
48,Strada Deva,550132,45.8030383,24.1341020
50,Strada Deva,550132,45.8029542,24.1340673
50A,Strada Deva,550132,45.8030222,24.1337363
54,Strada Deva,550132,45.8026660,24.1338900
52,Strada Țiglari,550102,45.8093900,24.1410512
43,Strada Țiglari,550102,45.8083192,24.1419376
61,Strada Țiglari,550125,45.8092056,24.1407251
29,Strada Țiglari,550102,45.8072906,24.1431812
73,Strada Țiglari,550125,45.8096882,24.1401135
53,Strada Țiglari,550102,45.8087277,24.1414562
2 - 4,Strada Pompeiu Onofreiu,550166,45.7953103,24.1554348
23,Strada Filarmonicii,550165,45.7958961,24.1557953
12,Strada Manejului,550166,45.7961602,24.1563091
6,Strada Manejului,550166,45.7965361,24.1561932
8,Strada Manejului,550166,45.7963769,24.1562000
10,Strada Manejului,550166,45.7962662,24.1562283
12,Strada Șelarilor,550166,45.7970609,24.1557642
8,Strada Axente Sever,550247,45.7930544,24.1624343
10,Strada Șerbota,550247,45.7934840,24.1621015
10,Strada Axente Sever,550247,45.7929154,24.1626087
12,Strada Axente Sever,550247,45.7927609,24.1627759
16,Strada Axente Sever,550247,45.7925427,24.1630880
16 A,Strada Axente Sever,550247,45.7924940,24.1631590
15,Strada Axente Sever,550247,45.7923496,24.1638208
17,Strada Axente Sever,550247,45.7922636,24.1640048
19,Strada Axente Sever,550247,45.7921817,24.1640162
27,Strada Axente Sever,550247,45.7918296,24.1644489
29,Strada Axente Sever,550247,45.7917476,24.1645610
31,Strada Axente Sever,550247,45.7916616,24.1645738
37,Strada Axente Sever,550247,45.7913182,24.1649317
38,Strada Axente Sever,550247,45.7912494,24.1644867
34,Strada Axente Sever,550247,45.7915745,24.1642134
32,Strada Axente Sever,550247,45.7916976,24.1640302
28 A,Strada Axente Sever,550247,45.7919737,24.1637213
24,Strada Axente Sever,550247,45.7921247,24.1634858
32,Strada Cetății,550160,45.7934541,24.1508350
14,Strada Timotei Popovici,550164,45.7947352,24.1514618
12,Strada Timotei Popovici,550164,45.7948564,24.1517324
10,Strada Timotei Popovici,550164,45.7950302,24.1520682
3,Strada Arhivelor,550164,45.7954915,24.1524715
2,Strada Timotei Popovici,550164,45.7957873,24.1536020
4,Strada Timotei Popovici,550164,45.7956535,24.1533878
29,Strada Nicolae Bălcescu,550159,45.7937785,24.1504146
34,Strada Cetății,550160,45.7932363,24.1508688
36,Strada Cetății,550160,45.7931808,24.1507078
38,Strada Cetății,550160,45.7931244,24.1505843
40,Strada Cetății,550160,45.7930638,24.1504651
42,Strada Cetății,550160,45.7929985,24.1503377
44,Strada Cetății,550160,45.7929202,24.1501962
46 A,Strada Cetății,550160,45.7928778,24.1500891
46,Strada Cetății,550160,45.7928213,24.1499955
48,Strada Cetății,550160,45.7928122,24.1498522
2,Piața Unirii,550160,45.7926907,24.1497010
1,Piața Unirii,550160,45.7928162,24.1493253
3,Strada Alexandru Papiu-Ilarian,550160,45.7944895,24.1508213
25,Strada Nicolae Bălcescu,550159,45.7938729,24.1506055
27,Strada Nicolae Bălcescu,550159,45.7938051,24.1505423
156,Strada Ștefan cel Mare,550321,45.7832502,24.1931793
24,Strada Cetății,550160,45.7937082,24.1514812
26,Strada Cetății,550160,45.7935376,24.1514486
30,Strada Cetății,550160,45.7934120,24.1511542
28,Strada Cetății,550160,45.7935240,24.1512447
4,Strada Alexandru Papiu-Ilarian,550160,45.7942903,24.1511314
8,Strada Alexandru Papiu-Ilarian,550160,45.7939705,24.1512655
10,Strada Alexandru Papiu-Ilarian,550160,45.7939684,24.1514713
14,Strada Alexandru Papiu-Ilarian,550160,45.7938356,24.1516206
5,Strada Alexandru Papiu-Ilarian,550160,45.7943138,24.1515590
3,Strada Alexandru Papiu-Ilarian,550160,45.7944033,24.1513117
21,Strada Timotei Popovici,550164,45.7944762,24.1515014
24,Strada Tipografilor,550164,45.7943168,24.1519135
22,Strada Tipografilor,550164,45.7943991,24.1520415
20,Strada Tipografilor,550164,45.7944163,24.1522970
16,Strada Tipografilor,550164,45.7946091,24.1524583
18,Strada Tipografilor,550164,45.7945517,24.1523421
1,Piața Schiller,550164,45.7947063,24.1526612
4,Piața Schiller,550164,45.7949378,24.1531332
2,Piața Schiller,550164,45.7950830,24.1529005
12,Strada Tipografilor,550164,45.7950252,24.1533788
10,Strada Tipografilor,550164,45.7951393,24.1535378
8,Strada Tipografilor,550164,45.7951958,24.1537008
6,Strada Tipografilor,550164,45.7952228,24.1538429
4,Strada Tipografilor,550164,45.7953194,24.1540335
2,Strada Tipografilor,550164,45.7953837,24.1542870
6,Strada Gheorghe Lazăr,550165,45.7956143,24.1540862
1,Strada Timotei Popovici,550164,45.7957012,24.1539830
3,Strada Timotei Popovici,550164,45.7955558,24.1538315
9,Strada Timotei Popovici,550164,45.7952332,24.1530874
13,Strada Timotei Popovici,550164,45.7947923,24.1521870
19,Strada Timotei Popovici,550164,45.7945837,24.1516051
17,Strada Timotei Popovici,550164,45.7946359,24.1517209
13,Strada Tipografilor,550164,45.7946392,24.1534025
12,Strada Alexandru Papiu-Ilarian,550160,45.7939026,24.1515235
31,Strada Nicolae Bălcescu,550159,45.7936354,24.1504327
33,Strada Nicolae Bălcescu,550159,45.7935614,24.1503371
35,Strada Nicolae Bălcescu,550159,45.7936063,24.1501611
37,Strada Nicolae Bălcescu,550159,45.7934547,24.1501843
39,Strada Nicolae Bălcescu,550159,45.7933668,24.1500901
43,Strada Nicolae Bălcescu,550159,45.7931904,24.1498974
45,Strada Nicolae Bălcescu,550159,45.7931069,24.1497968
47,Strada Nicolae Bălcescu,550159,45.7930379,24.1497143
49,Strada Nicolae Bălcescu,550159,45.7930249,24.1495770
51,Strada Nicolae Bălcescu,550159,45.7929199,24.1495081
1,Strada Lucian Blaga,550169,45.7930728,24.1568112
6,Strada Nicolae Bălcescu,550159,45.7952608,24.1502812
3,Strada Alexandru Xenopol,550159,45.7952493,24.1497505
8,Strada Nicolae Bălcescu,550159,45.7950667,24.1500972
10,Strada Nicolae Bălcescu,550159,45.7949681,24.1501075
16,Strada Nicolae Bălcescu,550159,45.7944901,24.1500050
18,Strada Nicolae Bălcescu,550159,45.7944065,24.1499121
20,Strada Nicolae Bălcescu,550159,45.7942509,24.1498760
22,Strada Nicolae Bălcescu,550159,45.7941839,24.1498379
24,Strada Nicolae Bălcescu,550159,45.7941456,24.1496541
26,Strada Nicolae Bălcescu,550159,45.7940214,24.1496744
28,Strada Nicolae Bălcescu,550159,45.7939825,24.1495324
30,Strada Nicolae Bălcescu,550159,45.7938599,24.1494944
32,Strada Nicolae Bălcescu,550159,45.7938180,24.1493141
36,Strada Nicolae Bălcescu,550159,45.7936164,24.1490985
38,Strada Nicolae Bălcescu,550159,45.7934799,24.1490898
46,Strada Nicolae Bălcescu,550159,45.7932142,24.1488580
4,Strada Tribunei,550176,45.7934286,24.1487789
40,Strada Nicolae Bălcescu,550159,45.7933560,24.1490680
6,Strada Tribunei,550176,45.7936720,24.1486422
8,Strada Tribunei,550176,45.7937734,24.1483212
3,Strada Samuel Brukenthal,550178,45.7966945,24.1501641
3,Strada Mitropoliei,550179,45.7965641,24.1499166
5,Strada Mitropoliei,550179,45.7965095,24.1498047
14,Strada Tribunei,550176,45.7942680,24.1478709
10,Strada Tribunei,550176,45.7941052,24.1480552
1,Strada Tribunei,550176,45.7931285,24.1486386
3,Strada Tribunei,550176,45.7933132,24.1484728
2,Strada Doctor Ioan Lupaș,550176,45.7931255,24.1485242
4,Strada Doctor Ioan Lupaș,550176,45.7932321,24.1483808
1,Strada Alexandru Xenopol,550159,45.7954575,24.1499400
6,Strada Doctor Ioan Lupaș,550176,45.7933525,24.1481927
8,Strada Doctor Ioan Lupaș,550176,45.7934802,24.1479942
10,Strada Doctor Ioan Lupaș,550176,45.7935534,24.1478553
5,Strada Tribunei,550176,45.7934437,24.1482968
7,Strada Tribunei,550176,45.7935619,24.1481214
9,Strada Tribunei,550176,45.7936701,24.1479979
13,Strada Tribunei,550176,45.7938477,24.1477399
15,Strada Tribunei,550176,45.7939659,24.1476217
12,Strada Doctor Ioan Lupaș,550176,45.7937304,24.1475787
14,Strada Doctor Ioan Lupaș,550176,45.7938140,24.1474154
17,Strada Tribunei,550176,45.7939803,24.1473892
16,Strada Doctor Ioan Lupaș,550176,45.7939881,24.1471941
19,Strada Tribunei,550176,45.7941290,24.1473695
21,Strada Tribunei,550176,45.7941311,24.1471782
18,Strada Doctor Ioan Lupaș,550176,45.7940960,24.1469677
39,Strada Mitropoliei,550179,45.7941512,24.1468640
23,Strada Tribunei,550176,45.7942342,24.1471791
37,Strada Mitropoliei,550179,45.7943152,24.1471328
24,Strada Mitropoliei,550179,45.7950055,24.1471923
22,Strada Mitropoliei,550179,45.7949204,24.1476175
12,Strada Centumvirilor,550178,45.7958943,24.1472068
15,Strada Centumvirilor,550178,45.7954453,24.1466768
18,Strada Mitropoliei,550179,45.7953578,24.1479295
28,Strada Mitropoliei,550179,45.7944354,24.1466603
25,Strada Tribunei,550176,45.7946263,24.1465695
20,Strada Doctor Ioan Lupaș,550176,45.7944642,24.1463383
22,Strada Doctor Ioan Lupaș,550176,45.7945629,24.1461862
24,Strada Doctor Ioan Lupaș,550176,45.7946637,24.1460122
27,Strada Tribunei,550176,45.7947733,24.1463886
29,Strada Tribunei,550176,45.7948490,24.1462688
31,Strada Tribunei,550176,45.7949227,24.1461842
33,Strada Tribunei,550176,45.7950053,24.1460873
35,Strada Tribunei,550176,45.7951061,24.1460656
37,Strada Tribunei,550176,45.7952018,24.1459719
26,Strada Doctor Ioan Lupaș,550176,45.7947151,24.1459456
28,Strada Doctor Ioan Lupaș,550176,45.7947957,24.1458423
30,Strada Doctor Ioan Lupaș,550176,45.7948946,24.1456959
3,Strada Bastionului,550177,45.7951197,24.1458385
55,Strada Bastionului,550177,45.7949750,24.1458018
2,Strada Doctor Ioan Lupaș,550176,45.7945323,24.1456339
26,Strada Mitropoliei,550179,45.7948462,24.1471597
18,Strada Tribunei,550176,45.7947513,24.1470458
20,Strada Tribunei,550176,45.7949020,24.1468449
22,Strada Tribunei,550176,45.7949907,24.1468261
24,Strada Tribunei,550176,45.7950819,24.1467157
26,Strada Tribunei,550176,45.7951285,24.1465660
28,Strada Tribunei,550176,45.7952439,24.1464168
30,Strada Tribunei,550176,45.7953006,24.1463318
32,Strada Tribunei,550176,45.7953822,24.1462336
17,Strada Centumvirilor,550178,45.7954430,24.1463823
16,Strada Centumvirilor,550178,45.7954852,24.1464844
11,Strada Centumvirilor,550178,45.7959248,24.1473183
10,Strada Centumvirilor,550178,45.7960535,24.1473658
9,Strada Centumvirilor,550178,45.7960746,24.1475431
8,Strada Centumvirilor,550178,45.7961942,24.1476638
15,Strada Mitropoliei,550179,45.7957768,24.1492705
17,Strada Mitropoliei,550179,45.7956625,24.1492055
19,Strada Mitropoliei,550179,45.7955170,24.1491442
21,Strada Mitropoliei,550179,45.7955414,24.1489071
27,Strada Mitropoliei,550179,45.7950986,24.1486497
29,Strada Mitropoliei,550179,45.7950127,24.1485119
2,Strada Mitropoliei,550179,45.7967446,24.1495325
4,Strada Mitropoliei,550179,45.7965442,24.1492554
6,Strada Mitropoliei,550179,45.7965324,24.1490112
12,Strada Mitropoliei,550179,45.7961295,24.1486630
10,Strada Mitropoliei,550179,45.7961655,24.1489329
8,Strada Mitropoliei,550179,45.7963627,24.1489137
1,Strada Centumvirilor,550178,45.7968008,24.1487298
2,Strada Centumvirilor,550178,45.7966285,24.1484939
3,Strada Centumvirilor,550178,45.7965045,24.1484668
4,Strada Centumvirilor,550178,45.7964830,24.1482696
5,Strada Centumvirilor,550178,45.7964106,24.1481858
5,Strada Nicolae Bălcescu,550159,45.7953516,24.1512752
9,Strada Nicolae Bălcescu,550159,45.7951565,24.1510585
53,Strada Lupeni,550205,45.8059722,24.1671738
8,Piața Mare,550163,45.7959995,24.1521032
11,Piața Mare,550163,45.7962115,24.1526327
12,Piața Mare,550163,45.7962142,24.1528589
6,Strada General Magheru,550185,45.7968332,24.1537532
9,Strada General Magheru,550185,45.7972264,24.1535347
8,Piața Albert Huet,550182,45.7973811,24.1507414
6,Piața Mică,550182,45.7972581,24.1506027
16,Strada Avram Iancu,550183,45.7980733,24.1539353
18,Strada Avram Iancu,550183,45.7980385,24.1541163
20,Strada Avram Iancu,550183,45.7980853,24.1542369
22,Strada Avram Iancu,550183,45.7981200,24.1543807
24,Strada Avram Iancu,550183,45.7980825,24.1546233
26,Strada Avram Iancu,550183,45.7981823,24.1547347
31,Strada General Magheru,550185,45.7981764,24.1549274
29,Strada General Magheru,550185,45.7980532,24.1547951
27,Strada General Magheru,550185,45.7979609,24.1545467
25,Strada General Magheru,550185,45.7978780,24.1544079
23,Strada General Magheru,550185,45.7978222,24.1543039
21,Strada General Magheru,550185,45.7977456,24.1542465
19,Strada General Magheru,550185,45.7976942,24.1540399
17,Strada General Magheru,550185,45.7975733,24.1538848
19,Strada Avram Iancu,550183,45.7985142,24.1542059
17,Strada Avram Iancu,550183,45.7984963,24.1538690
15,Strada Avram Iancu,550183,45.7984599,24.1537858
13,Strada Avram Iancu,550183,45.7984809,24.1535311
5,Strada Avram Iancu,550183,45.7980512,24.1525272
21,Strada Avram Iancu,550183,45.7985527,24.1543816
23,Strada Avram Iancu,550183,45.7985413,24.1545542
27,Strada Avram Iancu,550183,45.7985622,24.1548519
29,Strada Avram Iancu,550183,45.7985102,24.1549919
31,Strada Avram Iancu,550183,45.7985396,24.1551397
33,Strada Avram Iancu,550183,45.7985977,24.1552929
35,Strada Avram Iancu,550183,45.7986274,24.1555393
33,Strada General Magheru,550185,45.7986536,24.1557265
35,Strada General Magheru,550185,45.7986405,24.1559346
3,Strada Avram Iancu,550183,45.7978361,24.1522844
1,Strada Avram Iancu,550183,45.7977613,24.1521739
21,Strada Filarmonicii,550165,45.7961150,24.1558392
19,Strada Filarmonicii,550165,45.7961952,24.1556178
17,Strada Filarmonicii,550165,45.7962230,24.1554118
15,Strada Filarmonicii,550165,45.7963319,24.1554497
13,Strada Filarmonicii,550165,45.7963398,24.1552730
11,Strada Filarmonicii,550165,45.7964658,24.1553088
9,Strada Filarmonicii,550165,45.7964873,24.1551244
7,Strada Filarmonicii,550165,45.7965418,24.1549827
2,Strada Șelarilor,550166,45.7966436,24.1548321
4,Strada Șelarilor,550166,45.7967568,24.1551173
6,Strada Șelarilor,550166,45.7967886,24.1552401
8,Strada Șelarilor,550166,45.7968870,24.1552633
16,Strada Șelarilor,550166,45.7974267,24.1561486
1,Strada Bărbierilor,550165,45.7972477,24.1561617
47,Calea Turnișorului,550136,45.8003554,24.1318601
19,Calea Cisnădiei,550408,45.7779253,24.1487258
13,Strada Geniștilor,550355,45.7804047,24.1603000
1-3,Strada Metalurgiștilor,550137,45.7971050,24.1353921
4,Strada Europa Unită,550018,45.7913231,24.0914504
1-3,Strada Metalurgiștilor,550137,45.7974206,24.1354854
18,Strada Școala de Înot,550005,45.7858136,24.1456683
22,Strada Petrila,550208,45.8051472,24.1635919
24,Strada Petrila,550208,45.8050506,24.1633601
20,Strada Petrila,550208,45.8050845,24.1637969
26,Strada Petrila,550208,45.8051097,24.1631557
28,Strada Petrila,550208,45.8050389,24.1628762
8,Strada Barcelona,550018,45.7995523,24.0907748
27,Bulevardul Victoriei,550024,45.7883558,24.1429743
16,Strada Târgu Vinului,550197,45.7981553,24.1483711
1-3A,Strada Lector,557260,45.7970386,24.1631312
58,Strada Salzburg,557085,45.8043984,24.0777703
127,Strada Podului,550263,45.8024180,24.1925063
192,Strada Ștefan cel Mare,550321,45.7902459,24.2080583
8,Strada Siretului,550395,45.7720053,24.1426230
3,Strada Partenie Cosma,550424,45.7987523,24.1331379
5,Strada Partenie Cosma,550424,45.7985680,24.1334437
7,Strada Partenie Cosma,550424,45.7983774,24.1337658
9,Strada Partenie Cosma,550424,45.7990437,24.1335148
11,Strada Partenie Cosma,550424,45.7988626,24.1338295
15,Strada Partenie Cosma,550424,45.7992574,24.1337541
17,Strada Partenie Cosma,550424,45.7990712,24.1340733
19,Strada Partenie Cosma,550424,45.7988830,24.1343943
13,Strada Partenie Cosma,550424,45.7986736,24.1341525
21,Strada Partenie Cosma,550424,45.7995447,24.1341464
23,Strada Partenie Cosma,550424,45.7993673,24.1344457
25,Strada Partenie Cosma,550424,45.7991739,24.1347738
29,Strada Partenie Cosma,550424,45.7995653,24.1346899
31,Strada Partenie Cosma,550424,45.7993797,24.1350213
27,Strada Partenie Cosma,550424,45.7997967,24.1343531
33,Strada Partenie Cosma,550424,45.8000484,24.1347278
35,Strada Partenie Cosma,550424,45.7998642,24.1350258
37,Strada Partenie Cosma,550424,45.7996786,24.1353504
39,Strada Partenie Cosma,550424,45.7994934,24.1356647
41,Strada Partenie Cosma,550424,45.8002526,24.1349832
43,Strada Partenie Cosma,550424,45.8000739,24.1352810
45,Strada Partenie Cosma,550424,45.7998849,24.1355932
47,Strada Partenie Cosma,550424,45.7997021,24.1359001
49,Strada Partenie Cosma,550424,45.7995246,24.1362041
20,Strada Siretului,550395,45.7722055,24.1478236
44,Strada Democrației,550118,45.8065672,24.1402658
42,Strada Democrației,550118,45.8064911,24.1403354
40,Strada Democrației,550118,45.8064458,24.1404235
38,Strada Democrației,550118,45.8063832,24.1405159
36,Strada Democrației,550118,45.8063355,24.1406410
34,Strada Democrației,550118,45.8062910,24.1407373
32,Strada Democrației,550118,45.8062303,24.1407938
30,Strada Democrației,550118,45.8061496,24.1408666
28,Strada Democrației,550118,45.8061154,24.1410107
26,Strada Democrației,550118,45.8060866,24.1411098
24,Strada Democrației,550118,45.8060272,24.1411524
22,Strada Democrației,550118,45.8059557,24.1412831
20,Strada Democrației,550118,45.8058898,24.1414587
18,Strada Democrației,550118,45.8057475,24.1415600
16,Strada Democrației,550118,45.8057338,24.1417801
14,Strada Democrației,550118,45.8055813,24.1418756
12,Strada Democrației,550118,45.8055098,24.1420208
8,Strada Democrației,550118,45.8053701,24.1422975
2,Strada Democrației,550118,45.8050991,24.1427641
2,Strada Țiglari,550102,45.8069233,24.1446375
4,Strada Țiglari,550102,45.8070157,24.1444964
6,Strada Țiglari,550102,45.8071065,24.1443103
10,Strada Țiglari,550102,45.8073604,24.1440620
10,Strada Țiglari,550102,45.8072722,24.1439552
12,Strada Țiglari,550102,45.8073724,24.1438142
14,Strada Țiglari,550102,45.8074654,24.1437376
16,Strada Țiglari,550102,45.8075200,24.1436502
18,Strada Țiglari,550102,45.8076415,24.1435577
20,Strada Țiglari,550102,45.8076806,24.1433931
22,Strada Țiglari,550102,45.8078072,24.1433450
22,Strada Țiglari,550102,45.8076626,24.1432008
24,Strada Țiglari,550102,45.8077823,24.1431160
26,Strada Țiglari,550102,45.8077960,24.1429660
28,Strada Țiglari,550102,45.8078612,24.1428378
36,Strada Țiglari,550102,45.8084207,24.1421604
38,Strada Țiglari,550102,45.8084591,24.1421172
40,Strada Țiglari,550102,45.8085268,24.1420883
40,Strada Țiglari,550102,45.8086588,24.1422635
42,Strada Țiglari,550102,45.8088642,24.1419121
44,Strada Țiglari,550102,45.8090113,24.1417504
46,Strada Țiglari,550102,45.8090208,24.1416526
48,Strada Țiglari,550102,45.8090347,24.1414822
50,Strada Țiglari,550102,45.8093311,24.1411936
54,Strada Țiglari,550102,45.8094763,24.1409173
56,Strada Țiglari,550102,45.8095742,24.1408620
58,Strada Țiglari,550102,45.8096459,24.1407321
2,Strada Florilor,550097,45.8097192,24.1405337
9,Strada Țiglari,550102,45.8066937,24.1441351
31,Strada Țiglari,550102,45.8072434,24.1429752
33,Strada Țiglari,550102,45.8070086,24.1425514
39,Strada Țiglari,550102,45.8077122,24.1425177
54,Strada Margaretelor,550119,45.8078186,24.1424048
41,Strada Țiglari,550102,45.8079897,24.1422492
41A,Strada Țiglari,550102,45.8081050,24.1421231
41B,Strada Țiglari,550102,45.8081534,24.1420116
45,Strada Țiglari,550102,45.8084362,24.1418096
47,Strada Țiglari,550102,45.8085095,24.1416986
49,Strada Țiglari,550102,45.8085842,24.1416367
51,Strada Țiglari,550102,45.8086158,24.1415009
55,Strada Țiglari,550102,45.8088070,24.1413612
57,Strada Țiglari,550102,45.8088822,24.1412712
129,Strada Măgheranului,550125,45.8090950,24.1410077
59,Strada Țiglari,550125,45.8091553,24.1409161
69,Strada Țiglari,550125,45.8094557,24.1404401
1A,Strada Țiglari,550102,45.8064011,24.1446480
1,Strada Țiglari,550102,45.8063741,24.1447820
2,Strada Henri Coandă,550234,45.7978354,24.1716936
2B,Strada Henri Coandă,550234,45.7977829,24.1718970
4B,Strada Henri Coandă,550234,45.7977421,24.1720721
6B,Strada Henri Coandă,550234,45.7976703,24.1722367
6A,Strada Henri Coandă,550234,45.7977099,24.1721839
8,Strada Autogării,550135,45.7956348,24.1317443
8,Strada Autogării,550135,45.7955257,24.1314659
8,Strada Autogării,550135,45.7953691,24.1318075
8,Strada Autogării,550135,45.7951910,24.1314142
19,Strada Traian Demetrescu,550124,45.8043606,24.1319306
8,Strada Autogării,550135,45.7951910,24.1314142
192,Strada Ștefan cel Mare,550321,45.7900499,24.2086514
192,Strada Ștefan cel Mare,550321,45.7902723,24.2079462
192,Strada Ștefan cel Mare,550321,45.7902831,24.2085958
2,Strada Lyon,550018,45.7962392,24.0849142
21,Strada Fagului,550098,45.8129930,24.1430285
21,Strada Fagului,550098,45.8129545,24.1430684
21,Bulevardul Victoriei,550024,45.7887113,24.1433432
23,Bulevardul Victoriei,550024,45.7886241,24.1431575
17,Bulevardul Victoriei,550024,45.7888748,24.1435363
13,Bulevardul Victoriei,550024,45.7891843,24.1439326
6,Strada Frigoriferului,550047,45.8005161,24.1251369
1,Strada Tălmăcel,550075,45.7777469,24.1288669
1,Strada Tălmăcel,550075,45.7777699,24.1291257
9,Strada Tălmăcel,550075,45.7775031,24.1274430
1,Strada Badea Cârțan,550145,45.7724544,24.1257116
36,Strada Luptei,550330,45.7811984,24.1585701
197A,Strada Ștefan cel Mare,555310,45.7920632,24.2096832
48A,Strada Eschile,550096,45.8110411,24.1446113
18A,Strada Oncești,550305,45.7819178,24.1694781
1,Strada Oncești,550310,45.7816892,24.1677535
1,Strada Electricienilor,550311,45.7831472,24.1687392
14,Strada Cireșului,550268,45.8151725,24.1819392
18,Strada Cireșului,550268,45.8154229,24.1820533
7,Strada Cireșului,550268,45.8155361,24.1817078
5,Strada Cireșului,550268,45.8153598,24.1816391
1,Strada Cireșului,550268,45.8149721,24.1814412
7,Strada Mitropoliei,550179,45.7963407,24.1497073
13,Strada Mitropoliei,550179,45.7959488,24.1492671
1,Strada Samuel Brukenthal,550178,45.7965261,24.1501935
34,Strada Nicolae Bălcescu,550159,45.7936441,24.1493060
14,Strada Nicolae Bălcescu,550159,45.7946862,24.1500057
12,Strada Nicolae Bălcescu,550159,45.7948326,24.1500622
6,Piața Mare,550163,45.7960663,24.1507712
5,Strada Timotei Popovici,550164,45.7954544,24.1536926
8,Strada Gheorghe Lazăr,550165,45.7954933,24.1541848
7,Strada Timotei Popovici,550164,45.7953550,24.1534107
15,Strada Timotei Popovici,550164,45.7946796,24.1519550
7,Strada Alexandru Papiu-Ilarian,550160,45.7942123,24.1517349
9,Strada Alexandru Papiu-Ilarian,550160,45.7938944,24.1520039
2 A,Strada Lucian Blaga,550169,45.7933926,24.1564031
12,Strada Tribunei,550176,45.7941491,24.1479671
35,Strada Mitropoliei,550179,45.7944405,24.1476354
11,Strada Timotei Popovici,550164,45.7948923,24.1524060
5,Piața Mare,550163,45.7962035,24.1506026
6,Strada Alexandru Papiu-Ilarian,550160,45.7941350,24.1512279
11,Strada Tribunei,550176,45.7937019,24.1478144
23,Strada Mitropoliei,550179,45.7953397,24.1489505
25,Strada Mitropoliei,550179,45.7952001,24.1488137
2,Strada Mitropoliei,550179,45.7969242,24.1492782
1,Strada Nicolae Bălcescu,550159,45.7955944,24.1516008
3,Strada Nicolae Bălcescu,550159,45.7954661,24.1514434
7,Strada Nicolae Bălcescu,550159,45.7952245,24.1511542
11,Strada Nicolae Bălcescu,550159,45.7950359,24.1509442
7,Piața Mare,550163,45.7958331,24.1517093
9,Piața Mare,550163,45.7959356,24.1524454
10,Piața Mare,550163,45.7960300,24.1526395
4,Strada General Magheru,550185,45.7963942,24.1532667
8,Strada Avram Iancu,550183,45.7977949,24.1532105
10,Strada Avram Iancu,550183,45.7978481,24.1534265
12,Strada Avram Iancu,550183,45.7979075,24.1536293
11,Strada Avram Iancu,550183,45.7984384,24.1532154
9,Strada Avram Iancu,550183,45.7983866,24.1529014
7,Strada Avram Iancu,550183,45.7983000,24.1526763
25,Strada Avram Iancu,550183,45.7985524,24.1546998
4,Piața Mare,550163,45.7963836,24.1503830
22,Piața Mică,550182,45.7985922,24.1514716
