House number,Street name,Postal code,Latitude,Longitude
19,Театральна площа,88000,48.6220917,22.2998700
6,вулиця Тараса Шевченка,88017,48.6268071,22.2847496
21,Капушанська вулиця,88018,48.6187293,22.2914082
14,вулиця Августина Волошина,88000,48.6234312,22.2991252
45,проспект Свободи,88018,48.6148072,22.2919601
1,провулок Івана Пулюя,88017,48.6303144,22.2835838
16-А,Минайська вулиця,88018,48.6088531,22.2896866
20,Капушанська вулиця,88018,48.6192688,22.2920605
20,Капушанська вулиця,88018,48.6192066,22.2922430
16/1-А,вулиця Августина Волошина,88000,48.6231190,22.2988148
34,Собранецька вулиця,88000,48.6271325,22.2926678
1,Бічна вулиця,88018,48.6181185,22.2952582
6,вулиця Ярослава Геляса,88017,48.6270042,22.2792500
16,Минайська вулиця,88018,48.6090868,22.2899372
100,Собранецька вулиця,88017,48.6314723,22.2839222
168,Капушанська вулиця,88016,48.6107983,22.2604577
25,Капушанська вулиця,88018,48.6184370,22.2911223
46,Собранецька вулиця,88000,48.6277282,22.2906761
242,вулиця Карпатської України,88006,48.5794573,22.3312474
244,вулиця Карпатської України,88006,48.5793923,22.3313594
303,вулиця Карпатської України,88006,48.5838301,22.3257090
305,вулиця Карпатської України,88006,48.5837610,22.3257864
285,вулиця Карпатської України,88006,48.5849236,22.3247642
287,вулиця Карпатської України,88006,48.5848821,22.3247916
22,вулиця Миколи Лисенка,88006,48.6015013,22.3352922
20,вулиця Миколи Лисенка,88006,48.6015297,22.3351836
3,Минайська вулиця,88005,48.6109156,22.2919672
1,Театральна площа,88000,48.6228435,22.2979700
6,вулиця Корзо,88000,48.6229074,22.2979713
15,набережна Незалежності,88000,48.6238568,22.2929482
12,набережна Незалежності,88000,48.6236608,22.2936838
16,набережна Незалежності,88000,48.6240908,22.2917023
38,площа Шандора Петефі,88004,48.6188001,22.2973732
16,площа Шандора Петефі,88004,48.6198059,22.2953166
3,Робоча вулиця,88004,48.6178440,22.3020143
44,Українська вулиця,88006,48.6136046,22.3094130
1,вулиця Євгена Чикаленка,88006,48.6135496,22.3094176
5,вулиця Героїв Небесної Сотні,88000,48.6237118,22.2937194
7-Б,Університетська вулиця,88017,48.6405046,22.2827961
7-А,Університетська вулиця,88017,48.6405551,22.2826660
9,вулиця Генерала Свободи,88015,48.6016513,22.2795765
27,вулиця Михайла Грушевського,88015,48.6109633,22.2790769
4,Капушанська вулиця,88018,48.6197285,22.2947644
2,проспект Свободи,88018,48.6204082,22.2875148
2,вулиця Володимира Гошовського,88000,48.6254078,22.2863368
1,площа Кирила і Мефодія,88018,48.6140001,22.2913794
115,Собранецька вулиця,88000,48.6353307,22.2764994
4,вулиця Сергія Мартина,88006,48.5973468,22.3038939
8,Театральна площа,88000,48.6220111,22.2987583
7/1,вулиця Миколи Бобяка,88009,48.6137128,22.2608424
89,Собранецька вулиця,88017,48.6330145,22.2798638
4,вулиця Академіка Шпеника,88004,48.6162220,22.3077815
9,вулиця Августина Волошина,88000,48.6235942,22.2995152
19,набережна Незалежності,88000,48.6245035,22.2901829
118,Собранецька вулиця,88017,48.6324987,22.2820166
120,Собранецька вулиця,88019,48.6327854,22.2815296
43,Собранецька вулиця,88000,48.6278173,22.2894357
27,вулиця Стефаника,88006,48.6127166,22.3204372
22,Польова вулиця,88018,48.6136673,22.2951653
16,Київська набережна,88018,48.6220036,22.2927884
12,вулиця Івана Чендея,88018,48.6213054,22.2946361
29,Митна вулиця,88017,48.6223416,22.2800610
21,набережна Незалежності,88000,48.6244541,22.2867060
12,Електрозаводська вулиця,88002,48.6239790,22.3129285
16,проспект Свободи,88018,48.6193368,22.2883138
3,проспект Свободи,88018,48.6197844,22.2888618
28,Капушанська вулиця,88018,48.6184304,22.2888486
5-А,вулиця Івана Чендея,88018,48.6199680,22.2942848
5,вулиця Івана Чендея,88018,48.6198989,22.2944296
15,вулиця Івана Чендея,88018,48.6201478,22.2926606
2-4,Капушанська вулиця,88018,48.6198538,22.2948166
27-А,вулиця Івана Чендея,88018,48.6204953,22.2923295
17,Жупанатська площа,88000,48.6247307,22.2970284
3,Жупанатська площа,88000,48.6249340,22.2959135
5,площа Кирила і Мефодія,88005,48.6114888,22.2929980
1,площа Кирила і Мефодія,88018,48.6139953,22.2911979
22,Капушанська вулиця,88018,48.6190632,22.2914004
33,Підградська вулиця,88000,48.6190197,22.3093319
22,вулиця Августина Волошина,88000,48.6228773,22.2998939
1-3,Капітульна вулиця,88000,48.6227665,22.3008886
9,Капітульна вулиця,88000,48.6232412,22.3022430
2,вулиця Корзо,88000,48.6225474,22.2973650
1,набережна Незалежності,88000,48.6223289,22.2977887
4,Театральна площа,88000,48.6226015,22.2978260
5,набережна Незалежності,88000,48.6232740,22.2961989
6,Театральна площа,88000,48.6224757,22.2980116
19,Театральна площа,88000,48.6220965,22.2998998
3,Театральна площа,88000,48.6228498,22.2982009
7,Театральна площа,88000,48.6224195,22.2987428
7,провулок Пасаж,88000,48.6226065,22.2990235
30-А,вулиця Юрія Гойди,88017,48.6244285,22.2858637
25,Капушанська вулиця,88018,48.6183386,22.2912818
173-Б,Собранецька вулиця,88017,48.6424222,22.2672586
173-А,Собранецька вулиця,88017,48.6421924,22.2673640
2,вулиця Адама Міцкевича,88016,48.6083055,22.2729947
139,вулиця Карпатської України,88006,48.5996642,22.3137079
158-А,Собранецька вулиця,88017,48.6401025,22.2708272
143-Б,Капушанська вулиця,88018,48.6138964,22.2743578
48,вулиця Марії Заньковецької,88015,48.6108274,22.2758532
36-А,вулиця Карпатської України,88006,48.6010653,22.3111257
18,Київська набережна,88018,48.6220643,22.2900464
3,провулок Алішера Навої,88018,48.6216048,22.2914246
2-4,вулиця Володимира Гошовського,88000,48.6253244,22.2866977
8,Студентська набережна,88017,48.6215385,22.2787551
4-А,Висока вулиця,88000,48.6272412,22.3002266
14,Дайбозька вулиця,88000,48.6269562,22.2982223
3,вулиця Івана Чендея,88018,48.6197716,22.2945068
33,вулиця Героїв 128-ї Бригади,88015,48.6041989,22.2775674
30,вулиця Ігоря Сікорського,88015,48.6024238,22.2773986
5,вулиця Генерала Свободи,88015,48.6032921,22.2782304
34,вулиця Ігоря Сікорського,88015,48.6030927,22.2749886
32,вулиця Ігоря Сікорського,88015,48.6027479,22.2761990
5-А,вулиця Адама Міцкевича,88016,48.6071732,22.2728625
3,вулиця Адама Міцкевича,88016,48.6079040,22.2731346
9,вулиця Адама Міцкевича,88016,48.6068983,22.2713749
7,вулиця Адама Міцкевича,88016,48.6072401,22.2720371
5,вулиця Адама Міцкевича,88016,48.6075868,22.2726421
22,проспект Свободи,88018,48.6170989,22.2895280
41,проспект Свободи,88018,48.6158777,22.2926364
5,Словʼянська набережна,88018,48.6208290,22.2846560
32,Острівна вулиця,88002,48.6247099,22.3104793
23,Загорська вулиця,88017,48.6285451,22.2782067
28,Закарпатська вулиця,88017,48.6280921,22.2784319
45,вулиця Михайла Грушевського,88015,48.6056065,22.2830296
47,вулиця Михайла Грушевського,88015,48.6053951,22.2833210
49,вулиця Михайла Грушевського,88015,48.6051869,22.2836068
51,вулиця Михайла Грушевського,88015,48.6049788,22.2838926
53,вулиця Михайла Грушевського,88015,48.6052806,22.2846840
6,вулиця Ярослава Геляса,88017,48.6274586,22.2797730
4,вулиця Ярослава Геляса,88017,48.6282034,22.2808651
23/30,Загорська вулиця,88017,48.6284128,22.2779979
1,вулиця Панаса Мирного,88002,48.6255999,22.3033618
10,Театральна площа,88000,48.6217019,22.2999578
29-А,вулиця Михайла Грушевського,88015,48.6102470,22.2807558
39-А,вулиця Михайла Грушевського,88015,48.6077447,22.2824867
6,вулиця Михайла Грушевського,88015,48.6106865,22.2773645
39,вулиця Михайла Грушевського,88015,48.6073971,22.2814070
37,вулиця Михайла Грушевського,88015,48.6092820,22.2825699
43,вулиця Михайла Грушевського,88015,48.6059769,22.2827145
55,вулиця Михайла Грушевського,88015,48.6061732,22.2839228
57,вулиця Михайла Грушевського,88015,48.6060307,22.2846573
61-А,вулиця Михайла Грушевського,88015,48.6050663,22.2858989
59,вулиця Михайла Грушевського,88015,48.6045782,22.2845679
34,Минайська вулиця,88015,48.6041934,22.2868341
28,Минайська вулиця,88015,48.6055961,22.2876232
23,вулиця Героїв 128-ї Бригади,88015,48.6065349,22.2834547
22,вулиця Ігоря Сікорського,88015,48.6019627,22.2805306
31,вулиця Героїв 128-ї Бригади,88015,48.6051569,22.2803452
17,вулиця Героїв 128-ї Бригади,88015,48.6068613,22.2853107
18,вулиця Ігоря Сікорського,88015,48.6014413,22.2803563
14-А,Минайська вулиця,88018,48.6094959,22.2898286
24,вулиця Ігоря Сікорського,88015,48.6017553,22.2811133
25,вулиця Героїв 128-ї Бригади,88015,48.6062767,22.2828994
39,вулиця Вʼячеслава Чорновола,88016,48.6082452,22.2618366
14,вулиця Героїв 101-ї Бригади,88016,48.6058549,22.2708157
30,вулиця Олександра Богомольця,88016,48.6054429,22.2704859
35,вулиця Вʼячеслава Чорновола,88016,48.6077921,22.2615706
31,вулиця Вʼячеслава Чорновола,88016,48.6079587,22.2604150
27,вулиця Вʼячеслава Чорновола,88016,48.6086097,22.2611258
33,вулиця Вʼячеслава Чорновола,88016,48.6075369,22.2609698
29,вулиця Вʼячеслава Чорновола,88016,48.6083578,22.2605302
28,вулиця Іштвана Сечені,88015,48.6157020,22.2845915
3,вулиця Академіка Корольова,88015,48.6046087,22.2805123
5,вулиця Академіка Корольова,88015,48.6044849,22.2812093
7,вулиця Академіка Корольова,88015,48.6040653,22.2810425
7-А,вулиця Академіка Корольова,88015,48.6036934,22.2815344
7,вулиця Олександра Довженка,88008,48.6246304,22.2915611
5,Народна площа,88008,48.6254700,22.2895800
20,вулиця Олександра Довженка,88000,48.6249950,22.2898165
3,Поштова площа,88000,48.6242896,22.2946352
9-А,Острівна вулиця,88002,48.6236839,22.3068943
2-А,вулиця Панаса Мирного,88002,48.6249389,22.3036786
37,вулиця Августина Волошина,88000,48.6217821,22.3023580
19/2,вулиця Івана Ольбрахта,88000,48.6197631,22.3066410
13,Капітульна вулиця,88000,48.6227255,22.3033496
46,вулиця Августина Волошина,88000,48.6214642,22.3016369
23,Мукачівська вулиця,88004,48.6173774,22.2999749
12-13,Православна набережна,88004,48.6200615,22.2993327
14,вулиця Юлії Жемайте,88018,48.6172364,22.2931211
7,площа Кирила і Мефодія,88018,48.6141049,22.2929166
64-А,Швабська вулиця,88018,48.6149984,22.2935618
8,вулиця Франтішека Тіхого,88018,48.6128437,22.2996645
59,проспект Свободи,88018,48.6122997,22.2967584
12-Б,вулиця Франтішека Тіхого,88018,48.6144934,22.2975194
16/1,Станційна вулиця,88004,48.6110914,22.3005692
12,Замкова вулиця,88000,48.6205288,22.3048651
27,вулиця Івана Ольбрахта,88000,48.6190744,22.3076538
29,Підградська вулиця,88000,48.6209320,22.3094879
61,вулиця Олександра Фединця,88000,48.6235753,22.3054821
2,Яроцька вулиця,88002,48.6243390,22.3040376
5,Руська вулиця,88004,48.6175287,22.3019934
23,Православна набережна,88004,48.6175524,22.3043109
21-А,Православна набережна,88004,48.6182111,22.3029281
3,Руська вулиця,88004,48.6178076,22.3019683
11,вулиця Олександра Фединця,88000,48.6252394,22.2978209
11,вулиця Академіка Шпеника,88004,48.6142208,22.3042136
13,вулиця Академіка Шпеника,88004,48.6142785,22.3043635
15,вулиця Академіка Шпеника,88004,48.6144855,22.3043981
17,вулиця Академіка Шпеника,88004,48.6144096,22.3045791
19,вулиця Академіка Шпеника,88004,48.6145377,22.3046976
21,вулиця Академіка Шпеника,88004,48.6146216,22.3048783
23,вулиця Академіка Шпеника,88004,48.6147293,22.3050700
25,вулиця Академіка Шпеника,88004,48.6148260,22.3052197
29,вулиця Академіка Шпеника,88004,48.6152761,22.3057744
31,вулиця Академіка Шпеника,88004,48.6155062,22.3060868
33,вулиця Академіка Шпеника,88004,48.6157530,22.3064124
9,вулиця Академіка Шпеника,88004,48.6140925,22.3039743
11,Капітульна вулиця,88000,48.6228199,22.3030238
12,вулиця Устима Кармелюка,88002,48.6255142,22.3073831
31,площа Шандора Петефі,88004,48.6189914,22.2988697
2,Руська вулиця,88004,48.6187866,22.3006388
13,площа Шандора Петефі,88004,48.6202041,22.2972573
3,Православна набережна,88004,48.6209170,22.2983786
8,вулиця Августина Волошина,88000,48.6237302,22.2982943
4,вулиця Августина Волошина,88000,48.6238831,22.2978988
6,вулиця Августина Волошина,88000,48.6238407,22.2982109
8,набережна Незалежності,88000,48.6232605,22.2952383
4,Поштова площа,88000,48.6238544,22.2954032
2,сквер Лаборця,88000,48.6243338,22.2924594
3,сквер Лаборця,88000,48.6239027,22.2929941
6,вулиця Героїв Небесної Сотні,88000,48.6240114,22.2942139
2,вулиця Ференца Ракоці,88000,48.6252127,22.2946759
9,площа Віталія Постолакі,88017,48.6302323,22.2836071
1,Митна вулиця,88017,48.6284416,22.2876530
10,провулок Івана Пулюя,88017,48.6309755,22.2829779
11,провулок Івана Пулюя,88017,48.6309289,22.2825395
12,провулок Івана Пулюя,88017,48.6310163,22.2826703
10,площа Віталія Постолакі,88017,48.6304121,22.2838406
3,провулок Івана Пулюя,88017,48.6303751,22.2832493
4,провулок Івана Пулюя,88017,48.6305227,22.2837301
5,провулок Івана Пулюя,88017,48.6305356,22.2830307
7,провулок Івана Пулюя,88017,48.6305740,22.2829247
8,провулок Івана Пулюя,88017,48.6307891,22.2832023
9,провулок Івана Пулюя,88017,48.6307543,22.2826511
9,провулок Тараса Шевченка,88017,48.6311877,22.2802226
3,вулиця Івана Чендея,88018,48.6199812,22.2947370
2,площа Князя Лаборця,88017,48.6257096,22.2818932
4,вулиця Зореслава,88017,48.6254227,22.2835323
36,Швабська вулиця,88018,48.6167821,22.2947602
67-А,Швабська вулиця,88018,48.6144157,22.2939014
4,Жупанатська площа,88000,48.6252647,22.2958884
47,вулиця Олександра Фединця,88000,48.6255649,22.3019946
9,вулиця Руслана Ференці,88002,48.6262265,22.3075584
17,вулиця Руслана Ференці,88002,48.6267880,22.3078829
27,вулиця Академіка Шпеника,88004,48.6149160,22.3053592
22-А,вулиця Михайла Коцюбинського,88004,48.6153880,22.3045462
58,Руська вулиця,88004,48.6144204,22.3029861
11,Одеська вулиця,88004,48.6121155,22.3004482
3/3,вулиця Академіка Шпеника,88004,48.6132653,22.3031300
25,Мукачівська вулиця,88004,48.6170253,22.2999224
7,Капушанська вулиця,88018,48.6192930,22.2946352
3-А,Капушанська вулиця,88018,48.6195189,22.2949448
3,Капушанська вулиця,88018,48.6196195,22.2950584
12-А,Швабська вулиця,88018,48.6177967,22.2958251
51,вулиця Андрія Новака,88018,48.6189056,22.2872847
45,вулиця Андрія Новака,88018,48.6191147,22.2878399
2,Станційна вулиця,88005,48.6095313,22.2980724
5,Електрозаводська вулиця,88002,48.6235382,22.3146467
34,Собранецька вулиця,88000,48.6271639,22.2926725
36,Собранецька вулиця,88000,48.6272343,22.2925198
10,вулиця Юрія Гойди,88000,48.6272983,22.2907527
10,вулиця Ференца Ракоці,88000,48.6260113,22.2934867
13,Орлина вулиця,88000,48.6309038,22.2910107
1-В,вулиця Івана Франка,88017,48.6269139,22.2746527
3,вулиця Івана Франка,88017,48.6275441,22.2743072
51,Загорська вулиця,88017,48.6277573,22.2739617
17,Срібляста вулиця,88017,48.6441074,22.2780642
36,вулиця Августина Волошина,88000,48.6218806,22.3009630
70,Собранецька вулиця,88000,48.6290094,22.2879751
37-А,вулиця Михайла Грушевського,88015,48.6097983,22.2834854
61,вулиця Квітки Цісик,88015,48.6121682,22.2779212
11,вулиця Кальмана Міксата,88015,48.6097053,22.2777753
10,вулиця Олександра Богомольця,88015,48.6077314,22.2783353
9,вулиця Кальмана Міксата,88015,48.6099592,22.2776128
13,вулиця Кальмана Міксата,88015,48.6098020,22.2780607
16,вулиця Михайла Грушевського,88015,48.6098986,22.2783577
7,вулиця Кальмана Міксата,88015,48.6100871,22.2774794
14,вулиця Михайла Грушевського,88015,48.6100768,22.2779966
12,вулиця Михайла Грушевського,88015,48.6102808,22.2780739
8,вулиця Михайла Грушевського,88015,48.6105630,22.2777768
5,вулиця Кальмана Міксата,88015,48.6102351,22.2773502
18,вулиця Михайла Грушевського,88015,48.6096687,22.2785491
20,вулиця Михайла Грушевського,88015,48.6095393,22.2786496
22,вулиця Михайла Грушевського,88015,48.6094148,22.2787462
10,вулиця Михайла Грушевського,88015,48.6104219,22.2779734
16,вулиця Кальмана Міксата,88015,48.6095467,22.2774528
14,вулиця Кальмана Міксата,88015,48.6096926,22.2773694
12,вулиця Кальмана Міксата,88015,48.6098267,22.2772843
24,вулиця Михайла Грушевського,88015,48.6091751,22.2789455
10,вулиця Кальмана Міксата,88015,48.6099380,22.2771544
34,вулиця Олександра Капуша,88015,48.6125848,22.2825466
5-А,вулиця Василя Дрогомирецького,88015,48.5992183,22.2897532
5,вулиця Василя Дрогомирецького,88015,48.5997427,22.2899570
7-А,вулиця Василя Дрогомирецького,88015,48.5989970,22.2907535
7,вулиця Василя Дрогомирецького,88015,48.5995185,22.2909764
9-А,вулиця Василя Дрогомирецького,88015,48.5987719,22.2917651
9,вулиця Василя Дрогомирецького,88015,48.5992887,22.2919962
76,вулиця Михайла Грушевського,88005,48.6035682,22.2838635
62,вулиця Михайла Грушевського,88015,48.6055154,22.2814020
66,вулиця Михайла Грушевського,88015,48.6050535,22.2818007
2,вулиця Кальмана Міксата,88015,48.6105447,22.2767055
31,вулиця Тиводара Легоцького,88016,48.6059001,22.2698946
29,вулиця Тиводара Легоцького,88016,48.6062443,22.2691632
27,вулиця Тиводара Легоцького,88016,48.6066167,22.2696092
23,вулиця Тиводара Легоцького,88016,48.6074399,22.2692399
21,вулиця Тиводара Легоцького,88016,48.6076932,22.2682194
77,вулиця Марії Заньковецької,88016,48.6081335,22.2684249
11,вулиця Тиводара Легоцького,88009,48.6106233,22.2681800
18,вулиця Тиводара Легоцького,88016,48.6097089,22.2646560
20,вулиця Тиводара Легоцького,88016,48.6098109,22.2651373
46,вулиця Тиводара Легоцького,88016,48.6089750,22.2656129
44,вулиця Тиводара Легоцького,88016,48.6088230,22.2651667
54,вулиця Тиводара Легоцького,88016,48.6081229,22.2664562
81,вулиця Бориса Тлехаса,88016,48.6075308,22.2658271
85,вулиця Бориса Тлехаса,88016,48.6068713,22.2658931
45,вулиця Вʼячеслава Чорновола,88016,48.6071619,22.2613869
61,проспект Свободи,88018,48.6112433,22.2967802
4/22,Залізнична вулиця,88005,48.6094137,22.2963509
83,вулиця Бориса Тлехаса,88016,48.6072107,22.2659928
87-А,вулиця Бориса Тлехаса,88016,48.6070673,22.2647967
89,вулиця Бориса Тлехаса,88016,48.6062807,22.2647720
7,вулиця Вʼячеслава Чорновола,88016,48.6088844,22.2598229
9,вулиця Вʼячеслава Чорновола,88016,48.6091324,22.2605886
189,Капушанська вулиця,88016,48.6097490,22.2601388
177,Капушанська вулиця,88016,48.6098288,22.2619216
175,Капушанська вулиця,88016,48.6099751,22.2624477
16,вулиця Тиводара Легоцького,88016,48.6097983,22.2640448
14,вулиця Тиводара Легоцького,88016,48.6100274,22.2639765
10,вулиця Тиводара Легоцького,88016,48.6102514,22.2640971
16,вулиця Ігоря Сікорського,88015,48.6010500,22.2811091
19,Українська вулиця,88006,48.6134239,22.3067337
177,Собранецька вулиця,88017,48.6431759,22.2666004
15,вулиця Адальберта Ерделі,88000,48.6277687,22.2949525
4,вулиця Академіка Корольова,88015,48.6033048,22.2800269
2-А,Цегольнянська вулиця,88000,48.6264734,22.2996159
2,Цегольнянська вулиця,88000,48.6267446,22.2994797
142,Капушанська вулиця,88009,48.6130823,22.2679241
31,вулиця Олександра Капуша,88015,48.6127637,22.2829734
20,вулиця Данила Богуславського,88005,48.6095871,22.2954778
2,вулиця Євгена Коновальця,88015,48.6122234,22.2736002
3-А,вулиця Євгена Коновальця,88015,48.6100088,22.2752070
74-А,вулиця Тиводара Легоцького,88016,48.6056539,22.2681672
10,Великокамʼяна вулиця,88000,48.6367804,22.2968779
2-А,Собранецька вулиця,88000,48.6258839,22.2960845
43,Підгірна вулиця,88002,48.6263710,22.3027311
15-А,вулиця Олега Куцина,88002,48.6368212,22.3052937
20-Б,вулиця Миколи Амосова,88017,48.6379654,22.2813959
106,Капушанська вулиця,88018,48.6142602,22.2738857
2-А,вулиця Василя Гаджеги,88018,48.6156017,22.2765550
11,вулиця Лайоша Кошута,88018,48.6178330,22.2837928
5,вулиця Лайоша Кошута,88018,48.6181926,22.2836000
3,вулиця Лайоша Кошута,88018,48.6183115,22.2834679
4,вулиця Василя Свиди,88018,48.6194036,22.2837141
6,вулиця Василя Свиди,88018,48.6192040,22.2834163
7,вулиця Лайоша Кошута,88018,48.6180952,22.2836627
7,вулиця Василя Свиди,88018,48.6192198,22.2839309
12,вулиця Івана Фірцака,88018,48.6200604,22.2828168
11,вулиця Василя Свиди,88018,48.6187797,22.2836314
8,вулиця Івана Фірцака,88018,48.6197219,22.2830843
2,вулиця Василя Свиди,88018,48.6195539,22.2838136
13,вулиця Лайоша Кошута,88018,48.6176607,22.2838640
9,вулиця Лайоша Кошута,88018,48.6179082,22.2837375
19,вулиця Лайоша Кошута,88018,48.6173328,22.2840671
3,вулиця Василя Свиди,88018,48.6194442,22.2841611
1,вулиця Василя Свиди,88018,48.6195448,22.2842599
14,вулиця Івана Фірцака,88018,48.6201548,22.2827861
17,вулиця Лайоша Кошута,88018,48.6174070,22.2840000
5,вулиця Василя Свиди,88018,48.6192836,22.2840297
4,вулиця Івана Фірцака,88018,48.6194723,22.2832470
10,Малокамʼяна вулиця,88000,48.6345151,22.2956838
44-А,вулиця Тиводара Легоцького,88016,48.6084389,22.2650987
175-А,Капушанська вулиця,88016,48.6102937,22.2619278
173,Капушанська вулиця,88016,48.6101230,22.2629717
4-А,Поштова площа,88000,48.6239662,22.2960837
19,вулиця Володимира Гошовського,88017,48.6264745,22.2824768
8,вулиця Ярослава Геляса,88017,48.6266947,22.2789022
33,вулиця Ярослава Геляса,88017,48.6256077,22.2780139
58-Б,вулиця Івана Франка,88017,48.6273983,22.2750744
26,Загорська вулиця,88017,48.6294283,22.2777872
4-А,вулиця Ярослава Геляса,88017,48.6279385,22.2814380
34,Щедра вулиця,88017,48.6304318,22.2689874
13,вулиця Ярослава Геляса,88017,48.6275576,22.2806160
16-А,вулиця Ярослава Геляса,88017,48.6265803,22.2787285
12,вулиця Ярослава Геляса,88017,48.6264471,22.2785539
15,вулиця Ярослава Геляса,88017,48.6274201,22.2804329
39,вулиця Ярослава Геляса,88017,48.6252214,22.2774650
20,вулиця Володимира Федака,88017,48.6427238,22.2784718
31,Підградська вулиця,88000,48.6198228,22.3090142
4,вулиця Ференца Ракоці,88000,48.6249829,22.2947853
9,Мукачівська вулиця,88004,48.6180533,22.2991161
153,Капушанська вулиця,88009,48.6120692,22.2685278
3,вулиця Тиводара Легоцького,88009,48.6110848,22.2659359
39-А,Словʼянська набережна,88015,48.6175928,22.2660402
35,Руська вулиця,88004,48.6152414,22.3039220
7,вулиця Академіка Шпеника,88004,48.6136197,22.3034779
1-А,вулиця Юлії Жемайте,88018,48.6165529,22.2935699
154,Капушанська вулиця,88009,48.6116396,22.2641865
152/1,Капушанська вулиця,88009,48.6116946,22.2643687
74-А,вулиця Михайла Грушевського,88015,48.6040345,22.2838383
47,Мукачівська вулиця,88004,48.6156358,22.3009039
62,Руська вулиця,88004,48.6139905,22.3033530
4,Мукачівська вулиця,88004,48.6180447,22.2984717
20,Оноківська вулиця,88002,48.6393468,22.3163972
18,Оноківська вулиця,88002,48.6397627,22.3148872
10,Оноківська вулиця,88002,48.6410319,22.3118429
2,Ботанічна набережна,88000,48.6213374,22.3008192
28,Загорська вулиця,88017,48.6289541,22.2758683
74,вулиця Олега Куцина,88002,48.6397537,22.3082936
41,вулиця Антоніна Дворжака,88006,48.6126693,22.3150863
10-Б,вулиця Федора Потушняка,88002,48.6399452,22.3103055
9,вулиця Михайла Колодзінського,88002,48.6319313,22.3148799
2,вулиця Михайла Колодзінського,88002,48.6321978,22.3161002
3,вулиця Сергія Параджанова,88002,48.6371452,22.3093911
18-А,Капушанська вулиця,88018,48.6193732,22.2924033
13-А,Капушанська вулиця,88018,48.6191076,22.2932550
8,вулиця Руслана Ференці,88002,48.6269067,22.3083109
7,вулиця Руслана Ференці,88002,48.6260701,22.3074431
40,Закарпатська вулиця,88017,48.6313754,22.2780917
9,вулиця Олександра Довженка,88008,48.6246589,22.2910182
14,вулиця Олександра Довженка,88000,48.6249757,22.2905331
1,Музейний провулок,88006,48.6062445,22.3369191
8,вулиця Іштвана Дендеші,88006,48.6120142,22.3181216
40-42,Підградська вулиця,88000,48.6208620,22.3085133
59-А,Володимирська вулиця,88018,48.6152960,22.2717862
596,Володимирська вулиця,88018,48.6151256,22.2711380
60,Володимирська вулиця,88018,48.6155348,22.2714246
156,Собранецька вулиця,88017,48.6394491,22.2722196
1-Д,вулиця Івана Франка,88017,48.6262577,22.2752016
21,Університетська вулиця,88017,48.6369146,22.2850339
2,вулиця Академіка Корольова,88015,48.6043932,22.2789773
42-А,Кошицька вулиця,88000,48.6340100,22.2946023
51-А,проспект Свободи,88018,48.6128535,22.2953383
86,Срібляста вулиця,88017,48.6479073,22.2831668
6-А,вулиця Володимира Лендьєла,88017,48.6358087,22.2828389
6-А,вулиця Володимира Лендьєла,88017,48.6359561,22.2821311
10,вулиця Володимира Лендьєла,88017,48.6354571,22.2819533
25,вулиця Володимира Лендьєла,88017,48.6358429,22.2812973
33,вулиця Анатолія Тегзи,88018,48.6165423,22.2669125
37,вулиця Ярослава Геляса,88017,48.6252929,22.2775835
35,вулиця Ярослава Геляса,88017,48.6254205,22.2777348
24,вулиця Ярослава Геляса,88017,48.6253385,22.2769988
2-А,Запорізька вулиця,88017,48.6454674,22.2663401
196,Собранецька вулиця,88017,48.6434842,22.2681044
162,Собранецька вулиця,88017,48.6415312,22.2691475
160,Собранецька вулиця,88017,48.6408737,22.2706145
2-А,вулиця Романа Шухевича,88006,48.6057022,22.3072907
12-А,вулиця Романа Шухевича,88006,48.6060554,22.3070593
15,вулиця Івана Шпонтака,88017,48.6417783,22.2745005
19,вулиця Івана Шпонтака,88017,48.6420084,22.2741092
6,провулок Івана Пулюя,88017,48.6307614,22.2834460
87,Собранецька вулиця,88017,48.6324649,22.2813227
84,Загорська вулиця,88017,48.6275046,22.2662684
92,Загорська вулиця,88017,48.6271720,22.2652977
66-А,вулиця Михайла Грушевського,88015,48.6051526,22.2820110
93,вулиця Андрія Бачинського,88000,48.6335313,22.3088424
22,вулиця Ярослава Геляса,88017,48.6254959,22.2771630
20,вулиця Ярослава Геляса,88017,48.6255896,22.2774101
16,вулиця Ярослава Геляса,88017,48.6259365,22.2778661
33-А,Закарпатська вулиця,88017,48.6275195,22.2780298
25,вулиця Ярослава Геляса,88017,48.6263913,22.2790835
13,вулиця Стефаника,88006,48.6136781,22.3179928
23,Єньківська вулиця,88017,48.6253148,22.2527509
31,Єньківська вулиця,88017,48.6261733,22.2520473
25,Єньківська вулиця,88017,48.6258627,22.2523815
29,Єньківська вулиця,88017,48.6258412,22.2516483
27,Єньківська вулиця,88017,48.6254919,22.2519045
41,Електрозаводська вулиця,88002,48.6226269,22.3124179
45,Електрозаводська вулиця,88002,48.6223327,22.3115961
47,Електрозаводська вулиця,88002,48.6221395,22.3111047
49,Електрозаводська вулиця,88002,48.6219069,22.3104890
30,Райдужна вулиця,88000,48.6398398,22.2760813
146-Б,Собранецька вулиця,88017,48.6374106,22.2750042
108,Собранецька вулиця,88017,48.6318182,22.2830228
18-Б,вулиця Миколи Амосова,88017,48.6372102,22.2798657
20,вулиця Миколи Амосова,88017,48.6369364,22.2818559
22,вулиця Володимира Лендьєла,88017,48.6371285,22.2832503
19,вулиця Володимира Лендьєла,88017,48.6350896,22.2809855
1,вулиця Володимира Лендьєла,88017,48.6340706,22.2795854
62-А,вулиця Михайла Грушевського,88015,48.6055835,22.2816419
128,Собранецька вулиця,88017,48.6343665,22.2793857
35,Кошицька вулиця,88000,48.6332137,22.2937548
35,Золотиста вулиця,88017,48.6396176,22.2893198
16,Університетська вулиця,88017,48.6394574,22.2840379
12-Б,Університетська вулиця,88017,48.6386226,22.2865221
3-Б,вулиця Євгена Коновальця,88015,48.6107830,22.2750384
104,Собранецька вулиця,88017,48.6316583,22.2834347
105,Собранецька вулиця,88017,48.6345750,22.2776854
107,Собранецька вулиця,88017,48.6346557,22.2774616
101,Собранецька вулиця,88017,48.6341544,22.2780151
99,Собранецька вулиця,88017,48.6338140,22.2781481
3,вулиця Івана Сільвая,88002,48.6298713,22.3074047
15-Е,вулиця Олега Куцина,88002,48.6371879,22.3069997
11,вулиця Олега Куцина,88002,48.6345498,22.3058565
9,вулиця Олега Куцина,88002,48.6343500,22.3060325
1-А,Залізнична вулиця,88005,48.6087475,22.2987892
32/2,вулиця Івана Сільвая,88002,48.6320303,22.3076795
10,вулиця Юрія Венеліна-Гуци,88002,48.6380069,22.3100775
18,вулиця Олега Куцина,88002,48.6375562,22.3082516
20,вулиця Олега Куцина,88002,48.6376829,22.3081583
22,вулиця Олега Куцина,88002,48.6378065,22.3081014
24,вулиця Олега Куцина,88002,48.6378770,22.3081865
26,вулиця Олега Куцина,88002,48.6379630,22.3082120
28,вулиця Олега Куцина,88002,48.6380809,22.3081496
48,вулиця Олега Куцина,88002,48.6382660,22.3081738
36,вулиця Олега Куцина,88002,48.6381528,22.3082083
52,вулиця Олега Куцина,88002,48.6383237,22.3082776
54,вулиця Олега Куцина,88002,48.6384062,22.3082961
56,вулиця Олега Куцина,88002,48.6385207,22.3082310
70-А,вулиця Олега Куцина,88002,48.6390816,22.3081885
70,вулиця Олега Куцина,88002,48.6389987,22.3081586
72,вулиця Олега Куцина,88002,48.6394045,22.3082363
25/27,вулиця Михайла Старицького,88015,48.6085823,22.2774838
29,вулиця Михайла Старицького,88015,48.6084447,22.2775495
31,вулиця Михайла Старицького,88015,48.6083418,22.2777869
33,вулиця Михайла Старицького,88015,48.6081994,22.2778298
35,вулиця Михайла Старицького,88015,48.6080604,22.2779021
37,вулиця Михайла Старицького,88015,48.6079234,22.2780050
6,вулиця Михайла Старицького,88015,48.6098499,22.2760834
40,Минайська вулиця,88015,48.6022461,22.2849666
20,вулиця Кальмана Міксата,88015,48.6092907,22.2776504
22,вулиця Кальмана Міксата,88015,48.6091804,22.2777576
24,вулиця Кальмана Міксата,88015,48.6090489,22.2778559
26,вулиця Кальмана Міксата,88015,48.6089020,22.2779601
28,вулиця Кальмана Міксата,88015,48.6087579,22.2780348
30,вулиця Кальмана Міксата,88015,48.6086225,22.2781494
32,вулиця Кальмана Міксата,88015,48.6085164,22.2782792
34,вулиця Кальмана Міксата,88015,48.6083929,22.2783347
36,вулиця Кальмана Міксата,88015,48.6082433,22.2784559
38,вулиця Кальмана Міксата,88015,48.6081153,22.2785762
38,вулиця Героїв 128-ї Бригади,88015,48.6059337,22.2802229
50,вулиця Кальмана Міксата,88015,48.6060313,22.2801666
46,вулиця Кальмана Міксата,88015,48.6072415,22.2791486
44,вулиця Кальмана Міксата,88015,48.6073484,22.2791079
1,вулиця Михайла Колодзінського,88002,48.6319082,22.3165259
51,вулиця Айвазовського,88002,48.6283469,22.3178509
18,вулиця Айвазовського,88002,48.6286432,22.3168747
25,вулиця Айвазовського,88002,48.6291960,22.3162699
7,вулиця Айвазовського,88002,48.6297851,22.3143576
3,вулиця Айвазовського,88002,48.6300726,22.3140183
5,вулиця Айвазовського,88002,48.6299403,22.3141618
79,вулиця Івана Панькевича,88002,48.6266320,22.3154010
81,вулиця Івана Панькевича,88002,48.6263498,22.3156828
48,вулиця Василя Пачовського,88002,48.6263074,22.3187885
18,вулиця Кальмана Міксата,88015,48.6094264,22.2775514
8,вулиця Кальмана Міксата,88015,48.6101010,22.2770589
17,вулиця Кальмана Міксата,88015,48.6089729,22.2783281
19,вулиця Кальмана Міксата,88015,48.6088056,22.2784396
21,вулиця Кальмана Міксата,88015,48.6086621,22.2785402
23,вулиця Кальмана Міксата,88015,48.6085206,22.2787204
25,вулиця Кальмана Міксата,88015,48.6083270,22.2788724
27,вулиця Кальмана Міксата,88015,48.6081877,22.2790132
6,вулиця Олександра Богомольця,88015,48.6080051,22.2790919
47-А,вулиця Василя Пачовського,88002,48.6264777,22.3189215
77,вулиця Івана Панькевича,88002,48.6270000,22.3152216
38,вулиця Михайла Грушевського,88015,48.6078807,22.2799166
40,вулиця Михайла Грушевського,88015,48.6076956,22.2800794
42,вулиця Михайла Грушевського,88015,48.6075405,22.2801013
31,вулиця Кальмана Міксата,88015,48.6076619,22.2793440
33,вулиця Кальмана Міксата,88015,48.6075052,22.2794808
35,вулиця Кальмана Міксата,88015,48.6073764,22.2796244
13,вулиця Олександра Богомольця,88015,48.6078006,22.2796952
44,вулиця Михайла Грушевського,88015,48.6074084,22.2802999
46,вулиця Михайла Грушевського,88015,48.6072777,22.2804169
48,вулиця Михайла Грушевського,88015,48.6071414,22.2805033
50,вулиця Михайла Грушевського,88015,48.6070038,22.2806123
52,вулиця Михайла Грушевського,88015,48.6068751,22.2807232
54,вулиця Михайла Грушевського,88015,48.6067101,22.2808379
56,вулиця Михайла Грушевського,88015,48.6065750,22.2808776
58,вулиця Михайла Грушевського,88015,48.6064151,22.2809611
37,вулиця Кальмана Міксата,88015,48.6072156,22.2796887
43,вулиця Кальмана Міксата,88015,48.6067965,22.2799945
45,вулиця Кальмана Міксата,88015,48.6066536,22.2800946
47,вулиця Кальмана Міксата,88015,48.6065250,22.2802083
49,вулиця Кальмана Міксата,88015,48.6064318,22.2805352
36,вулиця Михайла Грушевського,88015,48.6082042,22.2796787
34,вулиця Михайла Грушевського,88015,48.6083724,22.2794909
32,вулиця Михайла Грушевського,88015,48.6085734,22.2793918
26,вулиця Михайла Грушевського,88015,48.6090095,22.2790136
28,вулиця Михайла Грушевського,88015,48.6088697,22.2791685
30,вулиця Михайла Грушевського,88015,48.6087285,22.2791972
39,вулиця Кальмана Міксата,88015,48.6070771,22.2797748
38-А,вулиця Карпатської України,88006,48.5997101,22.3114644
6,вулиця Академіка Корольова,88015,48.6020125,22.2822035
60,вулиця Євгена Коновальця,88015,48.6075091,22.2763526
39,вулиця Марії Заньковецької,88015,48.6099005,22.2743390
10,вулиця Ференца Семана,88002,48.6348420,22.3202130
12,вулиця Ференца Семана,88002,48.6347425,22.3200625
14,вулиця Ференца Семана,88002,48.6346483,22.3199032
16,вулиця Ференца Семана,88002,48.6345275,22.3196809
9,вулиця Ференца Семана,88002,48.6345508,22.3206104
5,вулиця Ференца Семана,88002,48.6347304,22.3207634
3,вулиця Ференца Семана,88002,48.6349060,22.3211397
3-А,вулиця Ференца Семана,88002,48.6351485,22.3212896
4,вулиця Ференца Семана,88002,48.6352074,22.3207713
65,Тисянська вулиця,88002,48.6323038,22.3262734
21,Тисянська вулиця,88002,48.6326808,22.3216659
48,вулиця Карпатської України,88006,48.5959803,22.3155317
173-В,Собранецька вулиця,88017,48.6425913,22.2671976
173,Собранецька вулиця,88017,48.6417527,22.2672547
15,Володимирська вулиця,88018,48.6177950,22.2810031
3,Соляний провулок,88018,48.6173517,22.2806371
5,Соляний провулок,88018,48.6170911,22.2809042
7,Соляний провулок,88018,48.6171533,22.2811261
4,Соляний провулок,88018,48.6167093,22.2807825
8,Соляний провулок,88018,48.6168613,22.2813788
15,вулиця Івана Фірцака,88018,48.6198579,22.2824842
3,вулиця Івана Фірцака,88018,48.6191331,22.2830324
65,вулиця Миколи Бобяка,88009,48.6172468,22.2602836
14,вулиця Бориса Тлехаса,88016,48.6081165,22.2640343
4,вулиця Олександра Богомольця,88015,48.6081129,22.2794397
10,вулиця Бориса Тлехаса,88016,48.6080331,22.2646842
32,вулиця Олександра Богомольця,88016,48.6046412,22.2673793
24,вулиця Павла Чубинського,88015,48.6011272,22.2948741
22-А,вулиця Ігоря Сікорського,88015,48.6018007,22.2801478
16-А,вулиця Ігоря Сікорського,88015,48.6008073,22.2819556
145-Б,Капушанська вулиця,88015,48.6133468,22.2722539
5-Б,вулиця Марії Заньковецької,88018,48.6126847,22.2889470
2-Е,вулиця Василя Балога,88015,48.6169608,22.2876586
2,вулиця Романа Шухевича,88006,48.6055304,22.3078312
4,вулиця Романа Шухевича,88006,48.6054007,22.3074386
6,вулиця Романа Шухевича,88006,48.6052485,22.3070103
8,вулиця Романа Шухевича,88006,48.6050966,22.3065553
14,Коритнянська вулиця,88006,48.5949875,22.3133049
28,вулиця Карпатської України,88006,48.6063738,22.3066045
8-А,вулиця Романа Шухевича,88006,48.6053424,22.3062314
10,вулиця Романа Шухевича,88006,48.6050062,22.3052497
14-А,вулиця Романа Шухевича,88006,48.6056873,22.3059801
16-А,вулиця Романа Шухевича,88006,48.6053172,22.3049513
16-Б,вулиця Романа Шухевича,88006,48.6059995,22.3054504
28-Г,вулиця Карпатської України,88006,48.6063578,22.3053050
18-А,вулиця Романа Шухевича,88006,48.6058550,22.3047110
20-А,вулиця Романа Шухевича,88006,48.6056751,22.3042024
28-Д,вулиця Карпатської України,88006,48.6064193,22.3037043
15,вулиця Кальмана Міксата,88015,48.6094470,22.2780375
3,вулиця Євгена Коновальця,88015,48.6106102,22.2755946
3-Н,вулиця Євгена Коновальця,88015,48.6105198,22.2752679
14,Соляний провулок,88018,48.6174192,22.2815018
12,Соляний провулок,88018,48.6171774,22.2815596
10,Соляний провулок,88018,48.6169014,22.2816871
6,Соляний провулок,88018,48.6166785,22.2811495
1,Соляний провулок,88018,48.6170811,22.2803371
174,вулиця Карпатської України,88006,48.5856402,22.3239057
24,вулиця Юрія Жатковича,88006,48.5866175,22.3224861
24,Срібляста вулиця,88017,48.6434789,22.2790055
2,вулиця Сергія Мартина,88006,48.5984897,22.3121973
50,вулиця Карпатської України,88006,48.5951915,22.3162083
3,Коритнянська вулиця,88006,48.5950864,22.3158903
5,Коритнянська вулиця,88006,48.5949772,22.3156162
21,Коритнянська вулиця,88006,48.5942496,22.3133908
21-А,Коритнянська вулиця,88006,48.5944146,22.3134018
11,Коритнянська вулиця,88006,48.5948228,22.3149216
15,Коритнянська вулиця,88006,48.5947096,22.3144917
13,Коритнянська вулиця,88006,48.5947686,22.3147223
7,Коритнянська вулиця,88006,48.5949598,22.3153584
9,Коритнянська вулиця,88006,48.5947942,22.3152172
17,Коритнянська вулиця,88006,48.5946519,22.3142635
42,вулиця Карпатської України,88006,48.5977122,22.3138998
4,площа Кирила і Мефодія,88005,48.6125096,22.2914412
6,Дравецька вулиця,88006,48.5828227,22.3288403
9,Барвінкова вулиця,88006,48.5826062,22.3302931
11,Барвінкова вулиця,88006,48.5824208,22.3305163
13,Барвінкова вулиця,88006,48.5823019,22.3308001
15,Барвінкова вулиця,88006,48.5821511,22.3308677
17,Барвінкова вулиця,88006,48.5820522,22.3311001
19,Барвінкова вулиця,88006,48.5819072,22.3311907
21,Барвінкова вулиця,88006,48.5817785,22.3313211
23,Барвінкова вулиця,88006,48.5816623,22.3314740
25,Барвінкова вулиця,88006,48.5815506,22.3316164
27,Барвінкова вулиця,88006,48.5814266,22.3317639
29,Барвінкова вулиця,88006,48.5813007,22.3319221
31,Барвінкова вулиця,88006,48.5811836,22.3320723
33,Барвінкова вулиця,88006,48.5810626,22.3322050
373,вулиця Карпатської України,88006,48.5801661,22.3309823
375,вулиця Карпатської України,88006,48.5800809,22.3311465
377,вулиця Карпатської України,88006,48.5799322,22.3312253
379,вулиця Карпатської України,88006,48.5798628,22.3314228
381,вулиця Карпатської України,88006,48.5797683,22.3315911
383,вулиця Карпатської України,88006,48.5796844,22.3317956
385,вулиця Карпатської України,88006,48.5795794,22.3319442
387,вулиця Карпатської України,88006,48.5794625,22.3321096
389,вулиця Карпатської України,88006,48.5793575,22.3322049
391,вулиця Карпатської України,88006,48.5792248,22.3323951
393,вулиця Карпатської України,88006,48.5791299,22.3326665
345,вулиця Карпатської України,88006,48.5814170,22.3290973
333,вулиця Карпатської України,88006,48.5819616,22.3283037
329,вулиця Карпатської України,88006,48.5821871,22.3278416
325,вулиця Карпатської України,88006,48.5823975,22.3275827
4,Дравецька вулиця,88006,48.5828288,22.3285588
357,вулиця Карпатської України,88006,48.5809536,22.3299845
323,вулиця Карпатської України,88006,48.5825223,22.3274703
331,вулиця Карпатської України,88006,48.5820193,22.3280567
335,вулиця Карпатської України,88006,48.5818224,22.3283455
337,вулиця Карпатської України,88006,48.5817755,22.3285116
339,вулиця Карпатської України,88006,48.5817124,22.3286351
341,вулиця Карпатської України,88006,48.5815753,22.3286647
343,вулиця Карпатської України,88006,48.5814809,22.3289677
347,вулиця Карпатської України,88006,48.5812858,22.3291165
349,вулиця Карпатської України,88006,48.5812306,22.3292922
351,вулиця Карпатської України,88006,48.5811716,22.3294366
353,вулиця Карпатської України,88006,48.5810628,22.3295522
355,вулиця Карпатської України,88006,48.5809918,22.3297106
359,вулиця Карпатської України,88006,48.5808394,22.3300539
361,вулиця Карпатської України,88006,48.5807099,22.3301679
363,вулиця Карпатської України,88006,48.5806114,22.3302309
365,вулиця Карпатської України,88006,48.5805330,22.3303655
367,вулиця Карпатської України,88006,48.5804616,22.3304773
371,вулиця Карпатської України,88006,48.5802477,22.3308487
3,Барвінкова вулиця,88006,48.5829196,22.3299353
5,Барвінкова вулиця,88006,48.5828400,22.3300056
7,Барвінкова вулиця,88006,48.5826946,22.3301350
180,вулиця Карпатської України,88006,48.5827910,22.3260748
39,вулиця Юрія Жатковича,88006,48.5802819,22.3235909
192,вулиця Карпатської України,88006,48.5815704,22.3274725
3,вулиця Юрія Кондратюка,88006,48.5783760,22.3318746
5,вулиця Юрія Кондратюка,88006,48.5781714,22.3317598
7,вулиця Юрія Кондратюка,88006,48.5780020,22.3316928
9,вулиця Юрія Кондратюка,88006,48.5778582,22.3316108
11,вулиця Юрія Кондратюка,88006,48.5776854,22.3315103
13,вулиця Юрія Кондратюка,88006,48.5775485,22.3315038
15,вулиця Юрія Кондратюка,88006,48.5773961,22.3314296
17,вулиця Юрія Кондратюка,88006,48.5772626,22.3313317
264,вулиця Карпатської України,88006,48.5779518,22.3333268
262,вулиця Карпатської України,88006,48.5780742,22.3330758
258,вулиця Карпатської України,88006,48.5782730,22.3326533
260,вулиця Карпатської України,88006,48.5782136,22.3329210
256,вулиця Карпатської України,88006,48.5784567,22.3325242
254,вулиця Карпатської України,88006,48.5786214,22.3322841
252,вулиця Карпатської України,88006,48.5787639,22.3320770
4,вулиця Юрія Кондратюка,88006,48.5787792,22.3316216
6,вулиця Юрія Кондратюка,88006,48.5786455,22.3315213
8,вулиця Юрія Кондратюка,88006,48.5785121,22.3313847
10,вулиця Юрія Кондратюка,88006,48.5783457,22.3313963
12,вулиця Юрія Кондратюка,88006,48.5782105,22.3313581
14,вулиця Юрія Кондратюка,88006,48.5781133,22.3311683
16,вулиця Юрія Кондратюка,88006,48.5779689,22.3311006
20,вулиця Юрія Кондратюка,88006,48.5777024,22.3309779
18,вулиця Юрія Кондратюка,88006,48.5778279,22.3310385
22,вулиця Юрія Кондратюка,88006,48.5775315,22.3309780
246,вулиця Карпатської України,88006,48.5792758,22.3314423
248,вулиця Карпатської України,88006,48.5791747,22.3315610
250,вулиця Карпатської України,88006,48.5791332,22.3317933
2,вулиця Юрія Кондратюка,88006,48.5790085,22.3316881
240,вулиця Карпатської України,88006,48.5794932,22.3310625
238,вулиця Карпатської України,88006,48.5795645,22.3309136
236,вулиця Карпатської України,88006,48.5796309,22.3307902
234,вулиця Карпатської України,88006,48.5797809,22.3306943
232,вулиця Карпатської України,88006,48.5798998,22.3304247
230,вулиця Карпатської України,88006,48.5799694,22.3303040
228,вулиця Карпатської України,88006,48.5800644,22.3302232
226,вулиця Карпатської України,88006,48.5801252,22.3300391
224,вулиця Карпатської України,88006,48.5802303,22.3299211
222,вулиця Карпатської України,88006,48.5803493,22.3297827
220,вулиця Карпатської України,88006,48.5804792,22.3296073
218,вулиця Карпатської України,88006,48.5805745,22.3294517
216,вулиця Карпатської України,88006,48.5806210,22.3293136
214,вулиця Карпатської України,88006,48.5806398,22.3291172
212,вулиця Карпатської України,88006,48.5808189,22.3291118
210,вулиця Карпатської України,88006,48.5809104,22.3288728
208,вулиця Карпатської України,88006,48.5810046,22.3287833
206,вулиця Карпатської України,88006,48.5810732,22.3286411
204,вулиця Карпатської України,88006,48.5811073,22.3284253
202,вулиця Карпатської України,88006,48.5811918,22.3283338
200,вулиця Карпатської України,88006,48.5813047,22.3282467
196,вулиця Карпатської України,88006,48.5814450,22.3279673
198,вулиця Карпатської України,88006,48.5813866,22.3281325
194,вулиця Карпатської України,88006,48.5815806,22.3279209
190,вулиця Карпатської України,88006,48.5818158,22.3274456
188,вулиця Карпатської України,88006,48.5819202,22.3272821
186,вулиця Карпатської України,88006,48.5820171,22.3271306
184,вулиця Карпатської України,88006,48.5820272,22.3268715
182,вулиця Карпатської України,88006,48.5821337,22.3268008
327,вулиця Карпатської України,88006,48.5822696,22.3276399
321,вулиця Карпатської України,88006,48.5828226,22.3268489
3,Дравецька вулиця,88006,48.5827447,22.3271849
138,вулиця Карпатської України,88006,48.5892225,22.3219128
140,вулиця Карпатської України,88006,48.5890966,22.3219147
142,вулиця Карпатської України,88006,48.5890486,22.3220012
144,вулиця Карпатської України,88006,48.5889861,22.3221153
146,вулиця Карпатської України,88006,48.5888331,22.3222311
148,вулиця Карпатської України,88006,48.5887104,22.3222881
150,вулиця Карпатської України,88006,48.5886237,22.3224383
152,вулиця Карпатської України,88006,48.5885234,22.3224604
154,вулиця Карпатської України,88006,48.5884498,22.3225487
158,вулиця Карпатської України,88006,48.5882489,22.3225457
156,вулиця Карпатської України,88006,48.5883430,22.3225505
160,вулиця Карпатської України,88006,48.5882209,22.3227601
162,вулиця Карпатської України,88006,48.5880746,22.3228634
166,вулиця Карпатської України,88006,48.5879370,22.3230841
164,вулиця Карпатської України,88006,48.5879800,22.3229013
168,вулиця Карпатської України,88006,48.5878331,22.3230500
170,вулиця Карпатської України,88006,48.5877477,22.3231136
172,вулиця Карпатської України,88006,48.5876255,22.3232065
211-А,вулиця Карпатської України,88006,48.5897095,22.3223322
213,вулиця Карпатської України,88006,48.5895765,22.3223258
215,вулиця Карпатської України,88006,48.5894287,22.3224667
217,вулиця Карпатської України,88006,48.5892735,22.3225464
219,вулиця Карпатської України,88006,48.5891599,22.3226892
221,вулиця Карпатської України,88006,48.5890984,22.3228187
223,вулиця Карпатської України,88006,48.5890109,22.3228921
225,вулиця Карпатської України,88006,48.5888492,22.3229424
227,вулиця Карпатської України,88006,48.5887159,22.3231088
229,вулиця Карпатської України,88006,48.5885412,22.3231812
231,вулиця Карпатської України,88006,48.5884640,22.3233604
233,вулиця Карпатської України,88006,48.5883028,22.3233524
235,вулиця Карпатської України,88006,48.5881673,22.3233899
237,вулиця Карпатської України,88006,48.5881137,22.3236110
239,вулиця Карпатської України,88006,48.5880272,22.3236730
241,вулиця Карпатської України,88006,48.5879432,22.3236292
243,вулиця Карпатської України,88006,48.5878861,22.3237285
245,вулиця Карпатської України,88006,48.5878125,22.3237849
247,вулиця Карпатської України,88006,48.5877495,22.3238888
249,вулиця Карпатської України,88006,48.5876351,22.3240088
251,вулиця Карпатської України,88006,48.5873893,22.3240001
253,вулиця Карпатської України,88006,48.5872602,22.3241637
255,вулиця Карпатської України,88006,48.5870815,22.3242845
257,вулиця Карпатської України,88006,48.5869494,22.3243475
259,вулиця Карпатської України,88006,48.5868988,22.3245433
261,вулиця Карпатської України,88006,48.5867468,22.3244071
263,вулиця Карпатської України,88006,48.5865971,22.3244030
265,вулиця Карпатської України,88006,48.5864676,22.3244507
267,вулиця Карпатської України,88006,48.5863320,22.3243352
269,вулиця Карпатської України,88006,48.5862360,22.3244907
271,вулиця Карпатської України,88006,48.5860214,22.3245557
273,вулиця Карпатської України,88006,48.5858476,22.3244262
275,вулиця Карпатської України,88006,48.5857138,22.3248147
277,вулиця Карпатської України,88006,48.5854734,22.3245808
279,вулиця Карпатської України,88006,48.5852767,22.3247116
281,вулиця Карпатської України,88006,48.5851542,22.3247917
289,вулиця Карпатської України,88006,48.5848211,22.3250157
291,вулиця Карпатської України,88006,48.5847404,22.3251610
293,вулиця Карпатської України,88006,48.5846304,22.3253018
295,вулиця Карпатської України,88006,48.5845015,22.3253791
297,вулиця Карпатської України,88006,48.5843653,22.3254347
299,вулиця Карпатської України,88006,48.5842428,22.3255586
301,вулиця Карпатської України,88006,48.5840611,22.3256629
307,вулиця Карпатської України,88006,48.5836931,22.3261949
309,вулиця Карпатської України,88006,48.5835272,22.3259736
311,вулиця Карпатської України,88006,48.5834206,22.3261285
313,вулиця Карпатської України,88006,48.5832548,22.3261855
315,вулиця Карпатської України,88006,48.5830938,22.3264135
317,вулиця Карпатської України,88006,48.5829869,22.3264776
319,вулиця Карпатської України,88006,48.5828832,22.3267260
369,вулиця Карпатської України,88006,48.5803710,22.3306597
3,Урожайна вулиця,88006,48.5903766,22.3220988
1,Урожайна вулиця,88006,48.5902020,22.3219509
4,Урожайна вулиця,88006,48.5902304,22.3224042
2,Урожайна вулиця,88006,48.5900711,22.3223432
207,вулиця Карпатської України,88006,48.5899450,22.3222620
209,вулиця Карпатської України,88006,48.5898253,22.3222916
128,вулиця Карпатської України,88006,48.5903278,22.3208813
126,вулиця Карпатської України,88006,48.5904990,22.3207855
130,вулиця Карпатської України,88006,48.5901300,22.3209855
132,вулиця Карпатської України,88006,48.5895882,22.3215721
134,вулиця Карпатської України,88006,48.5894873,22.3217364
136,вулиця Карпатської України,88006,48.5893019,22.3218358
178,вулиця Карпатської України,88006,48.5829856,22.3259919
176,вулиця Карпатської України,88006,48.5830832,22.3259222
3-А,вулиця Тиводара Легоцького,88009,48.6110701,22.2657855
51,вулиця Кальмана Міксата,88015,48.6062272,22.2805370
157,вулиця Карпатської України,88006,48.5928359,22.3188419
159,вулиця Карпатської України,88006,48.5927219,22.3188910
161,вулиця Карпатської України,88006,48.5926132,22.3190696
165,вулиця Карпатської України,88006,48.5925415,22.3195306
163,вулиця Карпатської України,88006,48.5925135,22.3192010
169,вулиця Карпатської України,88006,48.5923219,22.3194766
171,вулиця Карпатської України,88006,48.5922131,22.3195954
173,вулиця Карпатської України,88006,48.5920937,22.3196829
175,вулиця Карпатської України,88006,48.5920176,22.3198165
177,вулиця Карпатської України,88006,48.5919164,22.3199779
179,вулиця Карпатської України,88006,48.5918264,22.3201143
181,вулиця Карпатської України,88006,48.5916706,22.3201765
183,вулиця Карпатської України,88006,48.5915222,22.3202826
185,вулиця Карпатської України,88006,48.5914855,22.3205757
108,вулиця Карпатської України,88006,48.5913772,22.3196997
98,вулиця Карпатської України,88006,48.5920304,22.3189324
106,вулиця Карпатської України,88006,48.5915363,22.3196242
110,вулиця Карпатської України,88006,48.5912636,22.3199184
112,вулиця Карпатської України,88006,48.5911447,22.3200291
114,вулиця Карпатської України,88006,48.5910712,22.3201452
116,вулиця Карпатської України,88006,48.5908453,22.3198394
118,вулиця Карпатської України,88006,48.5908716,22.3204040
120,вулиця Карпатської України,88006,48.5907531,22.3205273
122,вулиця Карпатської України,88006,48.5906738,22.3207298
124,вулиця Карпатської України,88006,48.5905665,22.3206674
197,вулиця Карпатської України,88006,48.5909028,22.3212158
187,вулиця Карпатської України,88006,48.5913987,22.3207278
189,вулиця Карпатської України,88006,48.5912553,22.3206681
191,вулиця Карпатської України,88006,48.5911881,22.3207882
193,вулиця Карпатської України,88006,48.5911017,22.3210752
195,вулиця Карпатської України,88006,48.5909855,22.3210498
199,вулиця Карпатської України,88006,48.5908060,22.3213585
201,вулиця Карпатської України,88006,48.5906814,22.3214749
203,вулиця Карпатської України,88006,48.5905145,22.3216183
16,Горянська вулиця,88006,48.6063238,22.3341121
38,вулиця Стефаника,88006,48.6100242,22.3233759
40,вулиця Стефаника,88006,48.6098528,22.3237714
9,вулиця Василя Свиди,88018,48.6190408,22.2837563
15,вулиця Лайоша Кошута,88018,48.6175746,22.2839501
92,вулиця Карпатської України,88006,48.5924284,22.3184391
86,вулиця Карпатської України,88006,48.5927974,22.3181936
70,вулиця Карпатської України,88006,48.5938586,22.3172333
64,вулиця Карпатської України,88006,48.5942232,22.3170860
58,вулиця Карпатської України,88006,48.5946117,22.3167470
60,вулиця Карпатської України,88006,48.5944332,22.3168312
62,вулиця Карпатської України,88006,48.5942773,22.3168575
66,вулиця Карпатської України,88006,48.5941026,22.3171551
68,вулиця Карпатської України,88006,48.5939987,22.3172169
72,вулиця Карпатської України,88006,48.5937574,22.3173442
74,вулиця Карпатської України,88006,48.5936262,22.3174676
76,вулиця Карпатської України,88006,48.5934293,22.3175346
78,вулиця Карпатської України,88006,48.5933510,22.3176525
80,вулиця Карпатської України,88006,48.5932243,22.3179115
82,вулиця Карпатської України,88006,48.5930472,22.3179467
84,вулиця Карпатської України,88006,48.5929284,22.3181264
88,вулиця Карпатської України,88006,48.5926700,22.3181503
90,вулиця Карпатської України,88006,48.5925529,22.3183299
94,вулиця Карпатської України,88006,48.5923320,22.3185713
96,вулиця Карпатської України,88006,48.5921855,22.3186630
143,вулиця Карпатської України,88006,48.5939686,22.3179873
145,вулиця Карпатської України,88006,48.5938095,22.3180577
147,вулиця Карпатської України,88006,48.5936933,22.3183025
149,вулиця Карпатської України,88006,48.5935055,22.3183989
151,вулиця Карпатської України,88006,48.5933012,22.3184936
153,вулиця Карпатської України,88006,48.5931438,22.3186169
155,вулиця Карпатської України,88006,48.5929883,22.3187781
1,вулиця Вʼячеслава Чорновола,88016,48.6094282,22.2596795
2-Г,вулиця Андрія Палая,88006,48.6141746,22.3109332
24,вулиця Миколи Амосова,88017,48.6404605,22.2818295
16-А,Університетська вулиця,88017,48.6368202,22.2907603
130,Собранецька вулиця,88017,48.6343915,22.2789496
1-Б,Антонівська вулиця,88006,48.6142360,22.3054989
14-А,вулиця Стефаника,88006,48.6131805,22.3196198
12,вулиця Стефаника,88006,48.6133135,22.3187173
14,вулиця Стефаника,88006,48.6134896,22.3190643
1,вулиця Горянської Ротонди,88006,48.6080921,22.3357862
3,вулиця Горянської Ротонди,88006,48.6081621,22.3362471
5,вулиця Горянської Ротонди,88006,48.6081437,22.3365771
7,вулиця Горянської Ротонди,88006,48.6080401,22.3367782
9,вулиця Горянської Ротонди,88006,48.6079372,22.3369619
11,вулиця Горянської Ротонди,88006,48.6078809,22.3376246
13,вулиця Горянської Ротонди,88006,48.6077662,22.3378015
17,вулиця Горянської Ротонди,88006,48.6075037,22.3379941
19,вулиця Горянської Ротонди,88006,48.6076114,22.3383313
113,Горянська вулиця,88006,48.6098643,22.3351360
115,Горянська вулиця,88006,48.6100063,22.3350321
117,Горянська вулиця,88006,48.6101288,22.3348631
23,Коритнянська вулиця,88006,48.5942975,22.3131256
121-А,вулиця Карпатської України,88006,48.6014795,22.3123256
121,вулиця Карпатської України,88006,48.6012409,22.3122753
123,вулиця Карпатської України,88006,48.6010841,22.3123700
129,вулиця Карпатської України,88006,48.6006915,22.3129347
125,вулиця Карпатської України,88006,48.6009602,22.3125449
127,вулиця Карпатської України,88006,48.6006946,22.3126680
131,вулиця Карпатської України,88006,48.6005386,22.3128517
133,вулиця Карпатської України,88006,48.6003345,22.3129585
135,вулиця Карпатської України,88006,48.6002711,22.3131332
105,вулиця Карпатської України,88006,48.6022998,22.3113609
103,вулиця Карпатської України,88006,48.6024240,22.3113151
99,вулиця Карпатської України,88006,48.6026528,22.3110840
95,вулиця Карпатської України,88006,48.6029047,22.3109359
93,вулиця Карпатської України,88006,48.6037920,22.3102927
91,вулиця Карпатської України,88006,48.6040110,22.3101184
91-А,вулиця Карпатської України,88006,48.6042451,22.3099266
43,вулиця Карпатської України,88006,48.6080054,22.3069295
39,вулиця Карпатської України,88006,48.6082124,22.3068878
33,вулиця Карпатської України,88006,48.6085523,22.3065388
29,вулиця Карпатської України,88006,48.6088068,22.3063681
113,вулиця Карпатської України,88006,48.6017949,22.3117759
115,вулиця Карпатської України,88006,48.6016668,22.3119106
26,Минайська вулиця,88005,48.6061572,22.2882798
3-А,вулиця Героїв 128-ї Бригади,88005,48.6062864,22.2878661
5-А,вулиця Героїв 128-ї Бригади,88005,48.6063553,22.2876058
11,вулиця Героїв 128-ї Бригади,88005,48.6065610,22.2866934
15,вулиця Героїв 128-ї Бригади,88005,48.6067271,22.2861846
4,вулиця Героїв 128-ї Бригади,88005,48.6066182,22.2874980
8-А,вулиця Героїв 128-ї Бригади,88005,48.6068349,22.2869491
10,вулиця Героїв 128-ї Бригади,88005,48.6069871,22.2863990
8,вулиця Героїв 128-ї Бригади,88005,48.6067228,22.2872056
4-А,вулиця Героїв 128-ї Бригади,88005,48.6065201,22.2879326
30,вулиця Стефаника,88006,48.6107335,22.3217900
28,вулиця Стефаника,88006,48.6108437,22.3216327
57/8,вулиця Стефаника,88006,48.6108905,22.3221760
59-А,вулиця Стефаника,88006,48.6109482,22.3227517
57,вулиця Стефаника,88006,48.6106352,22.3231597
59,вулиця Стефаника,88006,48.6104374,22.3236140
63,вулиця Стефаника,88006,48.6101776,22.3241654
1,вулиця Карпатської України,88006,48.6123903,22.3035080
25,вулиця Карпатської України,88006,48.6095857,22.3057387
7,Базарний провулок,88006,48.6126807,22.3114354
5,Базарний провулок,88006,48.6125251,22.3113003
6,Базарний провулок,88006,48.6123465,22.3115708
4,Базарний провулок,88006,48.6122266,22.3113015
3,Базарний провулок,88006,48.6124303,22.3111022
4-А,вулиця Сергія Мартина,88006,48.5981371,22.3111780
3-А,вулиця Василя Дрогомирецького,88015,48.5994426,22.2887175
3,вулиця Василя Дрогомирецького,88015,48.5999608,22.2889422
1-А,вулиця Василя Дрогомирецького,88015,48.5996218,22.2867642
49,Ужанська вулиця,88006,48.6173783,22.3122940
11,вулиця Будителів,88006,48.6149308,22.3106132
30,Автовокзальний провулок,88005,48.6081915,22.2933223
1,Автовокзальний провулок,88005,48.6101438,22.2949149
3,Автовокзальний провулок,88005,48.6100073,22.2948552
5,Автовокзальний провулок,88005,48.6098451,22.2947252
7,Автовокзальний провулок,88005,48.6097151,22.2946374
13,Автовокзальний провулок,88005,48.6092802,22.2943843
15,Автовокзальний провулок,88005,48.6090979,22.2942599
17,Автовокзальний провулок,88005,48.6089624,22.2941784
19,Автовокзальний провулок,88005,48.6088096,22.2940546
21,Автовокзальний провулок,88005,48.6086541,22.2939768
23,Автовокзальний провулок,88005,48.6084810,22.2938690
22,Залізнична вулиця,88005,48.6086456,22.2957040
28,Автовокзальний провулок,88005,48.6083977,22.2933711
26,Автовокзальний провулок,88005,48.6085407,22.2934809
24,Автовокзальний провулок,88005,48.6087074,22.2935929
22,Автовокзальний провулок,88005,48.6088493,22.2936790
20,Автовокзальний провулок,88005,48.6090062,22.2937810
18,Автовокзальний провулок,88005,48.6091550,22.2938602
16,Автовокзальний провулок,88005,48.6093138,22.2938474
14,Автовокзальний провулок,88005,48.6094496,22.2940707
12,Автовокзальний провулок,88005,48.6096004,22.2941181
10,Автовокзальний провулок,88005,48.6097669,22.2942121
8,Автовокзальний провулок,88005,48.6099034,22.2943023
4,Автовокзальний провулок,88005,48.6101833,22.2945287
6,Автовокзальний провулок,88005,48.6100419,22.2944422
2-Б,вулиця Карпатської України,88006,48.6118278,22.3032634
2,вулиця Стефаника,88006,48.6128597,22.3179812
4,вулиця Стефаника,88006,48.6130931,22.3179801
43,вулиця Антоніна Дворжака,88006,48.6123643,22.3158567
45,вулиця Антоніна Дворжака,88006,48.6124475,22.3160570
49,вулиця Антоніна Дворжака,88006,48.6127632,22.3167733
66,вулиця Антоніна Дворжака,88006,48.6125284,22.3169581
26,вулиця Стефаника,88006,48.6112736,22.3214248
24,вулиця Стефаника,88006,48.6113747,22.3214462
43,вулиця Стефаника,88006,48.6116162,22.3216794
57/1,вулиця Стефаника,88006,48.6114436,22.3218321
22,вулиця Стефаника,88006,48.6115276,22.3212500
18-Б,вулиця Стефаника,88006,48.6117189,22.3204693
18,вулиця Стефаника,88006,48.6116306,22.3208349
18-А,вулиця Стефаника,88006,48.6119006,22.3203824
16,вулиця Стефаника,88006,48.6119961,22.3203198
14-Д,вулиця Стефаника,88006,48.6122854,22.3199670
13,вулиця Іштвана Дендеші,88006,48.6124900,22.3187370
23,вулиця Іштвана Дендеші,88006,48.6121020,22.3187479
19,вулиця Стефаника,88006,48.6137584,22.3194719
21,вулиця Стефаника,88006,48.6136137,22.3196655
14-В,вулиця Стефаника,88006,48.6126958,22.3196864
17,вулиця Стефаника,88006,48.6138342,22.3183567
15,вулиця Стефаника,88006,48.6136810,22.3182008
5,вулиця Стефаника,88006,48.6132916,22.3173872
7,вулиця Стефаника,88006,48.6133475,22.3175441
11,вулиця Стефаника,88006,48.6134609,22.3178579
9,вулиця Стефаника,88006,48.6133901,22.3176930
8,вулиця Стефаника,88006,48.6131825,22.3183297
6,вулиця Стефаника,88006,48.6131367,22.3181788
10,вулиця Стефаника,88006,48.6132519,22.3185623
25,Закарпатська вулиця,88017,48.6270361,22.2784757
8,вулиця Героїв 101-ї Бригади,88016,48.6072128,22.2698755
231,Загорська вулиця,88017,48.6179605,22.2371596
8,вулиця Миколи Лисенка,88006,48.6020706,22.3335488
12,вулиця Миколи Лисенка,88006,48.6017540,22.3339592
4,вулиця Миколи Лисенка,88006,48.6024743,22.3327130
10,вулиця Івана Фірцака,88018,48.6198785,22.2829623
11,вулиця Івана Фірцака,88018,48.6196259,22.2826613
5,вулиця Івана Фірцака,88018,48.6192858,22.2829258
7,вулиця Івана Фірцака,88018,48.6193822,22.2828739
33,вулиця Тиводара Легоцького,88016,48.6054525,22.2696649
12,вулиця Героїв 101-ї Бригади,88016,48.6064410,22.2703967
4,вулиця Героїв 101-ї Бригади,88016,48.6079704,22.2694096
75-А,вулиця Марії Заньковецької,88016,48.6084951,22.2691640
41,вулиця Михайла Грушевського,88015,48.6066169,22.2820713
21,вулиця Героїв 128-ї Бригади,88015,48.6067913,22.2842037
27,вулиця Михайла Грушевського,88015,48.6108483,22.2791322
30,Минайська вулиця,88015,48.6050281,22.2873310
32,Минайська вулиця,88015,48.6046732,22.2871197
67,вулиця Михайла Грушевського,88015,48.6038801,22.2865923
65,вулиця Михайла Грушевського,88015,48.6039629,22.2862473
63,вулиця Михайла Грушевського,88015,48.6041634,22.2857252
61,вулиця Михайла Грушевського,88015,48.6044071,22.2850628
10,вулиця Міхая Емінеску,88006,48.6183975,22.3148509
18-А,вулиця Героїв 128-ї Бригади,88005,48.6073272,22.2865177
68-А,вулиця Михайла Грушевського,88015,48.6045345,22.2828121
47-А,вулиця Марко Вовчок,88006,48.6103910,22.3166894
1,вулиця 128-ї Окремої Гірсько-Піхотної Бригади,88006,48.6075588,22.3195340
30,вулиця Юрія Кондратюка,88006,48.5768115,22.3305134
28,вулиця Юрія Кондратюка,88006,48.5769671,22.3306687
25,вулиця Юрія Кондратюка,88006,48.5766294,22.3310268
23,вулиця Юрія Кондратюка,88006,48.5767812,22.3310327
154,вулиця Юрія Жатковича,88006,48.5777313,22.3228870
156,вулиця Юрія Жатковича,88006,48.5775565,22.3230581
76/74,вулиця Бориса Тлехаса,88016,48.6079958,22.2660025
50,вулиця Тиводара Легоцького,88016,48.6086658,22.2662892
40,вулиця Тиводара Легоцького,88016,48.6093231,22.2646809
38,вулиця Тиводара Легоцького,88016,48.6090422,22.2647118
22,вулиця Тиводара Легоцького,88016,48.6096053,22.2655927
8,вулиця Тиводара Легоцького,88016,48.6103122,22.2651908
163/2,Капушанська вулиця,88016,48.6109145,22.2647393
25,вулиця Тиводара Легоцького,88016,48.6069313,22.2687933
84,вулиця Бориса Тлехаса,88016,48.6076043,22.2621950
31,вулиця Карпатської України,88006,48.6087342,22.3065517
25,вулиця Карпатської України,88006,48.6090699,22.3060700
27,вулиця Карпатської України,88006,48.6088787,22.3062283
51,вулиця Карпатської України,88006,48.6075053,22.3074926
3,вулиця Карпатської України,88006,48.6122203,22.3037292
290,Доманинська вулиця,88002,48.6374274,22.3296729
7,вулиця Ференца Семана,88002,48.6345506,22.3209654
33-Б,Підградська вулиця,88000,48.6203300,22.3091730
27-А,Підградська вулиця,88000,48.6217491,22.3087659
18/22,вулиця Олександра Богомольця,88016,48.6066426,22.2743397
20,вулиця Олександра Богомольця,88016,48.6064088,22.2733555
3,Минайська вулиця,88005,48.6107528,22.2919086
48,вулиця Василя Комендаря,88005,48.6076830,22.2912297
5-А,вулиця Миколи Бобяка,88009,48.6135199,22.2629469
21-А,Словʼянська набережна,88018,48.6183762,22.2765304
16,Оноківська вулиця,88002,48.6402564,22.3141343
14,Оноківська вулиця,88002,48.6404952,22.3134283
12,Оноківська вулиця,88002,48.6407959,22.3125391
8,Оноківська вулиця,88002,48.6412635,22.3111603
28-Б,вулиця Героїв 128-ї Бригади,88015,48.6084221,22.2826459
2-П,Головна вулиця,89412,48.6435263,22.3393187
49,проспект Свободи,88018,48.6130299,22.2939675
15,Одеська вулиця,88004,48.6113635,22.2994943
5/1,вулиця Тиводара Легоцького,88009,48.6108584,22.2660407
35,вулиця Михайла Грушевського,88015,48.6083402,22.2813222
33,вулиця Михайла Грушевського,88015,48.6086683,22.2810078
31,вулиця Михайла Грушевського,88015,48.6090722,22.2807178
17,вулиця Івана Фірцака,88018,48.6200465,22.2824884
9,вулиця Івана Фірцака,88018,48.6195348,22.2826878
1,вулиця Івана Фірцака,88018,48.6190479,22.2830790
6,вулиця Івана Фірцака,88018,48.6196313,22.2831366
4-А,вулиця Сергія Мартина,88006,48.5973391,22.3009984
13,Промислова вулиця,88006,48.5976237,22.2974162
15,Промислова вулиця,88006,48.5977247,22.2979265
10,Промислова вулиця,88006,48.5980451,22.3007598
57/2,вулиця Стефаника,88006,48.6113701,22.3223897
57/3,вулиця Стефаника,88006,48.6114364,22.3225046
57-Б,вулиця Стефаника,88006,48.6115004,22.3230125
8,вулиця Ференца Семана,88002,48.6350390,22.3201904
6,вулиця Ференца Семана,88002,48.6350732,22.3205841
31,вулиця Ярослава Геляса,88017,48.6257344,22.2781442
10,вулиця Олександра Митрака,88004,48.6175268,22.3004293
26-Б,вулиця Карпатської України,88006,48.6059789,22.3078105
28-К,вулиця Карпатської України,88006,48.6057986,22.3080579
47,площа Шандора Петефі,88004,48.6184457,22.2989969
7,Мисливський провулок,88000,48.6305399,22.2886830
12-А,вулиця Олега Куцина,88002,48.6345972,22.3068663
24,вулиця Володимира Лендьєла,88017,48.6372502,22.2835720
15,вулиця Горянської Ротонди,88006,48.6076752,22.3378453
211,вулиця Карпатської України,88006,48.5898511,22.3228055
283,вулиця Карпатської України,88006,48.5850522,22.3248784
167,вулиця Карпатської України,88006,48.5924058,22.3195013
41,вулиця Карпатської України,88006,48.6081164,22.3068509
45,вулиця Карпатської України,88006,48.6079336,22.3070977
97,вулиця Карпатської України,88006,48.6028289,22.3109934
137,вулиця Карпатської України,88006,48.6001261,22.3132116
4,вулиця Юлія Ставровського-Попрадова,88000,48.6245101,22.2909321
2,вулиця Юлія Ставровського-Попрадова,88000,48.6243834,22.2909314
18,набережна Незалежності,88000,48.6242340,22.2910296
18,вулиця Олександра Довженка,88000,48.6249768,22.2900911
16,вулиця Олександра Довженка,88000,48.6249762,22.2903120
10,вулиця Олександра Довженка,88000,48.6249737,22.2911327
12,вулиця Олександра Довженка,88000,48.6249746,22.2908380
59,Володимирська вулиця,88018,48.6153208,22.2721757
57,Володимирська вулиця,88018,48.6153714,22.2722996
58,Володимирська вулиця,88018,48.6155923,22.2716414
56,Володимирська вулиця,88018,48.6156498,22.2718581
25,вулиця Стефаника,88006,48.6131020,22.3199515
39,вулиця Стефаника,88006,48.6119099,22.3209167
35,вулиця Стефаника,88006,48.6121758,22.3207694
37,вулиця Стефаника,88006,48.6119833,22.3207118
41,вулиця Стефаника,88006,48.6118241,22.3213582
33,вулиця Стефаника,88006,48.6122236,22.3206030
31,вулиця Стефаника,88006,48.6123283,22.3204877
20,вулиця Стефаника,88006,48.6116156,22.3211313
14-Г,вулиця Стефаника,88006,48.6124311,22.3196533
2-А,вулиця Августина Волошина,88000,48.6238418,22.2975350
23,вулиця Юрія Жатковича,88006,48.5826024,22.3254407
19-А,вулиця Тиводара Легоцького,88009,48.6086903,22.2676982
61,вулиця Олега Ольжича,88006,48.6051279,22.3100015
63,вулиця Олега Ольжича,88006,48.6048880,22.3102107
65,вулиця Олега Ольжича,88006,48.6046547,22.3103482
30,вулиця Карпатської України,88006,48.6041161,22.3087182
25-А,Словʼянська набережна,88018,48.6174640,22.2736561
16-А,Станційна вулиця,88004,48.6110635,22.3011471
9,Театральна площа,88000,48.6223519,22.2988512
2-А,Студентська набережна,88017,48.6235161,22.2850493
143-А,вулиця Карпатської України,88006,48.5940966,22.3179504
2,вулиця Братів Бращайків,88000,48.6244541,22.2922850
12,вулиця Міхая Емінеску,88006,48.6183236,22.3148950
22,вулиця Міхая Емінеску,88006,48.6177918,22.3151698
28,вулиця Міхая Емінеску,88006,48.6176216,22.3154399
40,вулиця Міхая Емінеску,88006,48.6171324,22.3158319
27,вулиця Міхая Емінеску,88006,48.6178994,22.3155651
24,вулиця Юрія Кондратюка,88006,48.5774531,22.3307905
19/1,вулиця Івана Ольбрахта,88000,48.6196154,22.3063474
1,Жупанатська площа,88000,48.6237802,22.2968882
22/1,вулиця Олега Куцина,88002,48.6377611,22.3083093
22-Б,вулиця Ігоря Сікорського,88015,48.6020994,22.2799849
126,Собранецька вулиця,88017,48.6340575,22.2794114
4,Народна площа,88008,48.6264688,22.2887371
20-В,вулиця Миколи Амосова,88017,48.6380375,22.2801153
8-А,вулиця Олександра Довженка,88000,48.6254705,22.2904250
44,Мукачівська вулиця,88004,48.6145720,22.2994193
44,вулиця Героїв 128-ї Бригади,88015,48.6057123,22.2780704
38/80,Минайська вулиця,88015,48.6031769,22.2854163
19,набережна Незалежності,88000,48.6245049,22.2898153
43,Підгірна вулиця,88000,48.6268599,22.3032734
22,вулиця Олександра Богомольця,88016,48.6062332,22.2721144
1,площа Корятовича,88000,48.6243046,22.2977366
