House number,Street name,Postal code,Latitude,Longitude
6,سعد بن أبي وقاص,32897,30.3733965,30.5005960
4,أول سوق المنطقة السكنية الثالثة,12564,30.3686645,30.5073023
17,شارع سقارة,32897,30.3715492,30.4920414
664,شارع يوسف وهبى,32897,30.3724980,30.4982480
665,شارع يوسف وهبى,32897,30.3726173,30.4981015
666,شارع يوسف وهبى,32897,30.3727328,30.4979836
668,شارع يوسف وهبى,32897,30.3728832,30.4977582
676,شارع يوسف وهبى,32897,30.3733932,30.4972124
678,شارع يوسف وهبى,32897,30.3735055,30.4970821
680,شارع يوسف وهبى,32897,30.3736176,30.4969520
682,شارع يوسف وهبى,32897,30.3737402,30.4968097
684,شارع يوسف وهبى,32897,30.3738339,30.4967010
683,شارع ذكى طليمات,32897,30.3736782,30.4964858
681,شارع ذكى طليمات,32897,30.3735717,30.4966494
679,شارع ذكى طليمات,32897,30.3734514,30.4967782
677,شارع ذكى طليمات,32897,30.3733218,30.4969203
675,شارع ذكى طليمات,32897,30.3732177,30.4970384
673,شارع ذكى طليمات,32897,30.3730811,30.4972234
671,شارع ذكى طليمات,32897,30.3729400,30.4973763
669,شارع ذكى طليمات,32897,30.3728359,30.4974970
667,شارع ذكى طليمات,32897,30.3727248,30.4976204
686,شارع يوسف وهبى,32897,30.3739645,30.4965495
685,شارع ذكى طليمات,32897,30.3737800,30.4963732
632,شارع سليمان نجيب,32897,30.3739697,30.4956570
630,شارع سليمان نجيب,32897,30.3738309,30.4954478
628,شارع سليمان نجيب,32897,30.3736921,30.4952225
626,شارع سليمان نجيب,32897,30.3736527,30.4949784
624,شارع سليمان نجيب,32897,30.3736508,30.4947688
622,شارع سليمان نجيب,32897,30.3736492,30.4945811
620,شارع سليمان نجيب,32897,30.3736476,30.4944096
618,شارع سليمان نجيب,32897,30.3736458,30.4942111
616,شارع سليمان نجيب,32897,30.3736440,30.4940074
614,شارع سليمان نجيب,32897,30.3736424,30.4938304
612,شارع سليمان نجيب,32897,30.3736409,30.4936667
610,شارع سليمان نجيب,32897,30.3736385,30.4933985
606,شارع سليمان نجيب,32897,30.3736351,30.4930126
608,شارع سليمان نجيب,32897,30.3736369,30.4932192
604,شارع سليمان نجيب,32897,30.3736333,30.4928167
602,شارع سليمان نجيب,32897,30.3736319,30.4926583
650,شارع سليمان نجيب,32897,30.3741132,30.4951984
663,شارع ذكى طليمات,32897,30.3739512,30.4933450
658,شارع ذكى طليمات,32897,30.3747496,30.4939592
652,شارع سليمان نجيب,32897,30.3742070,30.4953606
651,شارع اسماعيل ياسين,32897,30.3743597,30.4952104
565,شارع ذكى طليمات,32897,30.3747033,30.4953458
579,شارع ذكى طليمات,32897,30.3751476,30.4940826
577,شارع ذكى طليمات,32897,30.3751730,30.4942381
575,شارع ذكى طليمات,32897,30.3751892,30.4944581
567,شارع ذكى طليمات,32897,30.3748306,30.4952118
582,شارع كلابشه,32897,30.3753397,30.4939029
580,شارع كلابشه,32897,30.3753998,30.4942783
578,شارع كلابشه,32897,30.3754114,30.4944796
576,شارع كلابشه,32897,30.3753581,30.4946941
574,شارع كلابشه,32897,30.3753096,30.4948712
564,شارع يوسف وهبى,32897,30.3747542,30.4956329
556,شارع يوسف وهبى,32897,30.3742848,30.4961778
558,شارع يوسف وهبى,32897,30.3743646,30.4960852
560,شارع يوسف وهبى,32897,30.3745485,30.4958959
562,شارع يوسف وهبى,32897,30.3746537,30.4957872
557,شارع ذكى طليمات,32897,30.3742289,30.4958528
555,شارع ذكى طليمات,32897,30.3741109,30.4960084
553,شارع ذكى طليمات,32897,30.3740068,30.4961345
554,شارع يوسف وهبى,32897,30.3741657,30.4963160
597,شارع ذكى طليمات,32897,30.3741178,30.4929426
595,شارع ذكى طليمات,32897,30.3742960,30.4930043
591,شارع ذكى طليمات,32897,30.3746061,30.4932296
566,شارع يوسف وهبى,32897,30.3748421,30.4955095
568,شارع يوسف وهبى,32897,30.3749925,30.4953271
570,شارع يوسف وهبى,32897,30.3751059,30.4952117
572,شارع كلابشه,32897,30.3752216,30.4950589
573,شارع ذكى طليمات,32897,30.3751314,30.4946834
571,شارع ذكى طليمات,32897,30.3750504,30.4948819
569,شارع ذكى طليمات,32897,30.3749393,30.4950616
653,شارع ذكى طليمات,32897,30.3745575,30.4949596
654,شارع ذكى طليمات,32897,30.3746686,30.4947960
655,شارع ذكى طليمات,32897,30.3748144,30.4945895
656,شارع ذكى طليمات,32897,30.3748375,30.4943454
657,شارع ذكى طليمات,32897,30.3748306,30.4941550
659,شارع ذكى طليمات,32897,30.3744974,30.4936561
660,شارع ذكى طليمات,32897,30.3743816,30.4935622
661,شارع ذكى طليمات,32897,30.3742521,30.4934067
662,شارع ذكى طليمات,32897,30.3741040,30.4933315
599,شارع ذكى طليمات,32897,30.3739420,30.4929024
601,شارع كلابشه,32897,30.3739350,30.4926905
600,شارع كلابشه,32897,30.3740970,30.4926932
598,شارع كلابشه,32897,30.3743007,30.4927093
596,شارع كلابشه,32897,30.3744603,30.4927978
594,شارع كلابشه,32897,30.3746316,30.4928970
593,شارع ذكى طليمات,32897,30.3744742,30.4930848
589,شارع ذكى طليمات,32897,30.3747380,30.4933503
587,شارع ذكى طليمات,32897,30.3748560,30.4935086
592,شارع كلابشه,32897,30.3747657,30.4930151
590,شارع كلابشه,32897,30.3749277,30.4931652
581,شارع كلابشه,32897,30.3753605,30.4940906
583,شارع ذكى طليمات,32897,30.3750967,30.4938706
588,شارع كلابشه,32897,30.3750180,30.4932779
586,شارع كلابشه,32897,30.3751846,30.4935032
190,شارع محمد حسنين,32897,30.3757666,30.4879028
466,شارع يوسف وهبى,32897,30.3774940,30.4933130
482,شارع نجيب الريحانى,32897,30.3779475,30.4919261
9,شارع الخنساء,32897,30.3787713,30.4911911
7B,شارع عبد المطلب,32897,30.3674916,30.5010519
5B,شارع عبد المطلب,32897,30.3673104,30.5010419
1,شارع عبد المطلب,32897,30.3669394,30.5010214
3,شارع عبد المطلب,32897,30.3671115,30.5010309
5A,شارع عبد المطلب,32897,30.3672404,30.5010381
7A,شارع عبد المطلب,32897,30.3674386,30.5010490
9,شارع عبد المطلب,32897,30.3676198,30.5010590
4,شارع فاطمه الزهراء,32897,30.3678072,30.5010858
2,شارع فاطمه الزهراء,32897,30.3678003,30.5012575
10,شارع خالد بن الوليد,32897,30.3675897,30.5012923
8,شارع خالد بن الوليد,32897,30.3673652,30.5012923
6,شارع خالد بن الوليد,32897,30.3671731,30.5013058
10,شارع طارق بن زياد,32897,30.3681381,30.5018073
8,شارع طارق بن زياد,32897,30.3680063,30.5018145
6,شارع طارق بن زياد,32897,30.3678508,30.5018229
4,شارع طارق بن زياد,32897,30.3676837,30.5018319
2,شارع طارق بن زياد,32897,30.3675434,30.5018395
5,شارع خالد بن الوليد,32897,30.3673883,30.5015606
7,شارع خالد بن الوليد,32897,30.3676081,30.5015695
9,شارع خالد بن الوليد,32897,30.3678853,30.5015809
11,شارع خالد بن الوليد,32897,30.3681104,30.5015901
14,شارع خالد بن الوليد,32897,30.3683603,30.5012763
12,شارع خالد بن الوليد,32897,30.3682145,30.5012789
1,شارع فاطمه الزهراء,32897,30.3680317,30.5012441
3,شارع فاطمه الزهراء,32897,30.3680247,30.5010724
11A,شارع عبد المطلب,32897,30.3681775,30.5010429
11B,شارع عبد المطلب,32897,30.3682886,30.5010509
13A,شارع عبد المطلب,32897,30.3684066,30.5010375
13B,شارع عبد المطلب,32897,30.3684830,30.5010590
16,شارع خالد بن الوليد,32897,30.3685755,30.5012789
15,شارع عبد المطلب,32897,30.3687468,30.5009758
18,شارع خالد بن الوليد,32897,30.3688717,30.5011448
3,شارع اسماء بنت ابى بكر,32897,30.3683210,30.5017751
1,شارع اسماء بنت ابى بكر,32897,30.3683279,30.5015820
15,شارع خالد بن الوليد,32897,30.3689134,30.5014050
17,شارع خالد بن الوليد,32897,30.3690337,30.5012843
18,شارع طارق بن زياد,32897,30.3691633,30.5014184
16,شارع طارق بن زياد,32897,30.3690708,30.5015311
14,شارع طارق بن زياد,32897,30.3689342,30.5016759
13,شارع خالد بن الوليد,32897,30.3687028,30.5015445
12,شارع طارق بن زياد,32897,30.3687028,30.5018288
4,شارع اسماء بنت ابى بكر,32897,30.3685339,30.5017698
2,شارع اسماء بنت ابى بكر,32897,30.3685292,30.5015579
14,شارع بلال بن رباح,32897,30.3687259,30.5022633
9,شارع طارق بن زياد,32897,30.3687259,30.5021131
12,شارع بلال بن رباح,32897,30.3685552,30.5022738
7,شارع طارق بن زياد,32897,30.3685714,30.5021020
10,شارع بلال بن رباح,32897,30.3683214,30.5022882
8,شارع بلال بن رباح,32897,30.3681720,30.5022974
5,شارع طارق بن زياد,32897,30.3683099,30.5020832
3,شارع طارق بن زياد,32897,30.3681689,30.5020730
6,شارع بلال بن رباح,32897,30.3680294,30.5023062
1,شارع طارق بن زياد,32897,30.3680178,30.5020621
23,شارع بلال بن رباح,32897,30.3665876,30.5011770
20,شارع العباس بن عبد المطلب,32897,30.3665344,30.5014640
18,شارع العباس بن عبد المطلب,32897,30.3664048,30.5013218
16,شارع العباس بن عبد المطلب,32897,30.3662544,30.5011314
25,شارع بلال بن رباح,32897,30.3667103,30.5013218
21,شارع بلال بن رباح,32897,30.3664765,30.5010429
19,شارع بلال بن رباح,32897,30.3661873,30.5007023
17,شارع بلال بن رباح,32897,30.3660646,30.5005977
15,شارع بلال بن رباح,32897,30.3659605,30.5004823
14,شارع العباس بن عبد المطلب,32897,30.3659743,30.5008283
12,شارع العباس بن عبد المطلب,32897,30.3658586,30.5006647
3,شارع عثمان بن عفان,32897,30.3658309,30.5003455
1,شارع عثمان بن عفان,32897,30.3657175,30.5004716
34,شارع العباس بن عبد المطلب,32897,30.3681567,30.5028212
32,شارع العباس بن عبد المطلب,32897,30.3679368,30.5028212
30,شارع العباس بن عبد المطلب,32897,30.3676753,30.5027193
28,شارع العباس بن عبد المطلب,32897,30.3674902,30.5025583
26,شارع العباس بن عبد المطلب,32897,30.3672819,30.5022633
24,شارع العباس بن عبد المطلب,32897,30.3671315,30.5021185
22,شارع العباس بن عبد المطلب,32897,30.3670250,30.5019924
4,شارع خالد بن الوليد,32897,30.3668399,30.5014881
2,شارع خالد بن الوليد,32897,30.3667380,30.5016142
3,شارع خالد بن الوليد,32897,30.3670250,30.5017135
1,شارع خالد بن الوليد,32897,30.3669139,30.5018368
48,شارع العباس بن عبد المطلب,32897,30.3696817,30.5019522
46,شارع العباس بن عبد المطلب,32897,30.3695614,30.5021211
44,شارع العباس بن عبد المطلب,32897,30.3693832,30.5023733
42,شارع العباس بن عبد المطلب,32897,30.3691818,30.5025637
40,شارع العباس بن عبد المطلب,32897,30.3690199,30.5027193
38,شارع العباس بن عبد المطلب,32897,30.3688555,30.5028266
36,شارع العباس بن عبد المطلب,32897,30.3686727,30.5028346
4L,شارع السيدة خديجة,32897,30.3685339,30.5027783
2L,شارع السيدة خديجة,32897,30.3685362,30.5025879
3,شارع السيدة خديجة,32897,30.3683511,30.5027810
1,شارع السيدة خديجة,32897,30.3683487,30.5025476
14,شارع السيدة خديجة,32897,30.3683071,30.5031055
12,شارع السيدة خديجة,32897,30.3683089,30.5032637
10,شارع السيدة خديجة,32897,30.3683113,30.5034811
8,شارع السيدة خديجة,32897,30.3683137,30.5036929
6,شارع السيدة خديجة,32897,30.3683155,30.5038459
4R,شارع السيدة خديجة,32897,30.3683172,30.5039987
2R,شارع السيدة خديجة,32897,30.3683187,30.5041248
18A,شارع السيدة خديجة,32897,30.3686982,30.5038995
18B,شارع السيدة خديجة,32897,30.3686126,30.5038055
20A,شارع عمرو بن العاص,32897,30.3688879,30.5038753
20B,شارع عمرو بن العاص,32897,30.3687861,30.5037626
22D,شارع عمرو بن العاص,32897,30.3686774,30.5035803
22C,شارع عمرو بن العاص,32897,30.3687861,30.5034864
22B,شارع عمرو بن العاص,32897,30.3689065,30.5035374
22A,شارع عمرو بن العاص,32897,30.3690153,30.5036929
24A,شارع عمرو بن العاص,32897,30.3691656,30.5035293
24B,شارع عمرو بن العاص,32897,30.3690546,30.5033952
24C,شارع عمرو بن العاص,32897,30.3689620,30.5032638
24D,شارع عمرو بن العاص,32897,30.3690384,30.5031592
26C,شارع عمرو بن العاص,32897,30.3698136,30.5027971
26A,شارع عمرو بن العاص,32897,30.3696470,30.5029929
26B,شارع عمرو بن العاص,32897,30.3697488,30.5028802
26D,شارع عمرو بن العاص,32897,30.3698877,30.5026871
28A,شارع عمرو بن العاص,32897,30.3700404,30.5024055
28B,شارع عمرو بن العاص,32897,30.3699224,30.5022740
50,شارع العباس بن عبد المطلب,32897,30.3698171,30.5017751
24,شارع ابو زر الغفارى,32897,30.3689388,30.5007291
22,شارع ابو زر الغفارى,32897,30.3688325,30.5006152
20,شارع ابو زر الغفارى,32897,30.3686846,30.5004568
18,شارع ابو زر الغفارى,32897,30.3685970,30.5003188
16,شارع ابو زر الغفارى,32897,30.3683973,30.5001900
19,شارع عثمان بن عفان,32897,30.3682886,30.5000451
43,شارع عمر بن الخطاب,32897,30.3690381,30.5005387
41,شارع عمر بن الخطاب,32897,30.3689348,30.5004169
39,شارع عمر بن الخطاب,32897,30.3687790,30.5002332
37,شارع عمر بن الخطاب,32897,30.3686413,30.5000708
35,شارع عمر بن الخطاب,32897,30.3684853,30.4998869
22,شارع خالد بن الوليد,32897,30.3691934,30.5007479
20,شارع خالد بن الوليد,32897,30.3690638,30.5009007
19,شارع خالد بن الوليد,32897,30.3692374,30.5010912
21,شارع خالد بن الوليد,32897,30.3693762,30.5009517
45,شارع عمر بن الخطاب,32897,30.3695234,30.5011109
47,شارع عمر بن الخطاب,32897,30.3696175,30.5012218
49,شارع عمر بن الخطاب,32897,30.3697769,30.5014099
51,شارع عمر بن الخطاب,32897,30.3699548,30.5016196
43,شارع بلال بن رباح,32897,30.3681982,30.5025452
41,شارع بلال بن رباح,32897,30.3680063,30.5025420
39,شارع بلال بن رباح,32897,30.3678535,30.5025396
37,شارع بلال بن رباح,32897,30.3677216,30.5024484
35,شارع بلال بن رباح,32897,30.3676105,30.5023438
33,شارع بلال بن رباح,32897,30.3674729,30.5021957
31,شارع بلال بن رباح,32897,30.3673555,30.5020693
29,شارع بلال بن رباح,32897,30.3672382,30.5019430
27,شارع بلال بن رباح,32897,30.3671311,30.5018277
2E,شارع ابى بكر الصديق,32897,30.3623965,30.5040953
2D,شارع ابى بكر الصديق,32897,30.3622969,30.5039746
2C,شارع ابى بكر الصديق,32897,30.3621697,30.5038699
2B,شارع ابى بكر الصديق,32897,30.3620493,30.5036795
2A,شارع ابى بكر الصديق,32897,30.3621372,30.5035990
2A,شارع على بن ابى طالب,32897,30.3622761,30.5036902
2B,شارع على بن ابى طالب,32897,30.3623664,30.5037761
2C,شارع على بن ابى طالب,32897,30.3624937,30.5039102
4A,شارع على بن ابى طالب,32897,30.3623571,30.5034327
4B,شارع على بن ابى طالب,32897,30.3624867,30.5035964
4C,شارع على بن ابى طالب,32897,30.3625747,30.5036876
4D,شارع على بن ابى طالب,32897,30.3626557,30.5037814
6A,شارع على بن ابى طالب,32897,30.3624520,30.5032209
6B,شارع على بن ابى طالب,32897,30.3625237,30.5033067
6D,شارع على بن ابى طالب,32897,30.3626209,30.5034596
6E,شارع على بن ابى طالب,32897,30.3627459,30.5036098
10A,شارع على بن ابى طالب,32897,30.3626533,30.5027783
10B,شارع على بن ابى طالب,32897,30.3627691,30.5029044
8B,شارع على بن ابى طالب,32897,30.3626672,30.5030572
8A,شارع على بن ابى طالب,32897,30.3625492,30.5029473
1A,شارع عمر بن الخطاب,32897,30.3623941,30.5027649
1B,شارع عمر بن الخطاب,32897,30.3624867,30.5026442
12B,شارع على بن ابى طالب,32897,30.3626834,30.5024376
12A,شارع على بن ابى طالب,32897,30.3625955,30.5023384
3A,شارع عمر بن الخطاب,32897,30.3624127,30.5020970
3B,شارع عمر بن الخطاب,32897,30.3624815,30.5020186
14B,شارع على بن ابى طالب,32897,30.3627760,30.5022418
14A,شارع على بن ابى طالب,32897,30.3627019,30.5021533
16C,شارع على بن ابى طالب,32897,30.3628987,30.5020139
16B,شارع على بن ابى طالب,32897,30.3628084,30.5019173
16A,شارع على بن ابى طالب,32897,30.3627274,30.5018181
7A,شارع عمر بن الخطاب,32897,30.3630072,30.5014204
7B,شارع عمر بن الخطاب,32897,30.3631486,30.5015659
5A,شارع عمر بن الخطاب,32897,30.3628940,30.5015492
5B,شارع عمر بن الخطاب,32897,30.3630098,30.5016920
18A,شارع على بن ابى طالب,32897,30.3632042,30.5018154
18B,شارع على بن ابى طالب,32897,30.3632690,30.5017269
9A,شارع عمر بن الخطاب,32897,30.3632250,30.5011716
9B,شارع عمر بن الخطاب,32897,30.3633106,30.5010751
20A,شارع على بن ابى طالب,32897,30.3633638,30.5013835
20B,شارع على بن ابى طالب,32897,30.3634587,30.5015177
22A,شارع على بن ابى طالب,32897,30.3634934,30.5012307
22B,شارع على بن ابى طالب,32897,30.3635976,30.5013514
16,شارع بدر,32897,30.3644724,30.5019468
14,شارع بدر,32897,30.3643682,30.5020702
12,شارع بدر,32897,30.3642271,30.5022317
6,شارع بدر,32897,30.3638333,30.5026893
8,شارع بدر,32897,30.3639223,30.5025859
10,شارع بدر,32897,30.3640608,30.5024250
13,شارع على بن ابى طالب,32897,30.3632180,30.5023116
4,شارع بدر,32897,30.3636310,30.5029243
2,شارع بدر,32897,30.3635027,30.5030733
4,شارع اليرموك,32897,30.3632551,30.5029848
2,شارع اليرموك,32897,30.3631000,30.5030009
9,شارع على بن ابى طالب,32897,30.3631255,30.5027220
11,شارع على بن ابى طالب,32897,30.3631255,30.5025476
15,شارع على بن ابى طالب,32897,30.3633569,30.5021131
17,شارع على بن ابى طالب,32897,30.3634286,30.5020273
19,شارع على بن ابى طالب,32897,30.3635513,30.5018637
21,شارع على بن ابى طالب,32897,30.3636462,30.5017671
3,شارع حراء,32897,30.3639262,30.5017751
1,شارع حراء,32897,30.3638174,30.5016410
2,شارع حراء,32897,30.3639332,30.5014801
4,شارع حراء,32897,30.3640535,30.5016276
23,شارع على بن ابى طالب,32897,30.3640882,30.5012736
25,شارع على بن ابى طالب,32897,30.3644840,30.5011207
27,شارع على بن ابى طالب,32897,30.3648103,30.5011046
1B,شارع على بن ابى طالب,32897,30.3627343,30.5043259
1A,شارع على بن ابى طالب,32897,30.3626557,30.5044010
4A,شارع ابى بكر الصديق,32897,30.3628593,30.5046585
4B,شارع ابى بكر الصديق,32897,30.3629519,30.5047578
6A,شارع ابى بكر الصديق,32897,30.3629426,30.5044869
6B,شارع ابى بكر الصديق,32897,30.3630491,30.5046076
8A,شارع ابى بكر الصديق,32897,30.3632551,30.5049992
8B,شارع ابى بكر الصديق,32897,30.3633638,30.5051306
2A,شارع الحسن بن على,32897,30.3634379,30.5047712
2B,شارع الحسن بن على,32897,30.3635120,30.5046907
2C,شارع الحسن بن على,32897,30.3634425,30.5045056
2D,شارع الحسن بن على,32897,30.3632828,30.5044198
2E,شارع الحسن بن على,32897,30.3632042,30.5045110
3C,شارع على بن ابى طالب,32897,30.3631787,30.5043206
3B,شارع على بن ابى طالب,32897,30.3630884,30.5041945
3A,شارع على بن ابى طالب,32897,30.3629820,30.5040738
5D,شارع على بن ابى طالب,32897,30.3633824,30.5042052
5C,شارع على بن ابى طالب,32897,30.3632504,30.5040577
5B,شارع على بن ابى طالب,32897,30.3631602,30.5039048
5A,شارع على بن ابى طالب,32897,30.3630954,30.5038244
7B,شارع على بن ابى طالب,32897,30.3632828,30.5037358
7A,شارع على بن ابى طالب,32897,30.3632134,30.5036554
4E,شارع الحسن بن على,32897,30.3634217,30.5034462
4D,شارع الحسن بن على,32897,30.3635143,30.5035642
4C,شارع الحسن بن على,32897,30.3635606,30.5036715
4B,شارع الحسن بن على,32897,30.3634772,30.5038002
4A,شارع الحسن بن على,32897,30.3634148,30.5038699
10,شارع الحسن بن على,32897,30.3641183,30.5030894
5,شارع بدر,32897,30.3639494,30.5029044
1,شارع بدر,32897,30.3636300,30.5032665
3,شارع بدر,32897,30.3637087,30.5031377
6,شارع الحسن بن على,32897,30.3637920,30.5034596
8,شارع الحسن بن على,32897,30.3639008,30.5033523
7,شارع بدر,32897,30.3641206,30.5027488
12,شارع الحسن بن على,32897,30.3642039,30.5028722
9,شارع بدر,32897,30.3643196,30.5025476
14,شارع الحسن بن على,32897,30.3644145,30.5026415
11,شارع بدر,32897,30.3644354,30.5024001
16,شارع الحسن بن على,32897,30.3645534,30.5025101
13,شارع بدر,32897,30.3646645,30.5021051
18,شارع الحسن بن على,32897,30.3647918,30.5022472
15,شارع بدر,32897,30.3648080,30.5019334
20,شارع الحسن بن على,32897,30.3649653,30.5021104
17,شارع بدر,32897,30.3650232,30.5017859
22,شارع الحسن بن على,32897,30.3651111,30.5018878
33,شارع على بن ابى طالب,32897,30.3654305,30.5014935
31,شارع على بن ابى طالب,32897,30.3653518,30.5013889
29,شارع على بن ابى طالب,32897,30.3652292,30.5012226
3D,شارع المدينه المنورة,32897,30.3645788,30.5044654
3C,شارع المدينه المنورة,32897,30.3644261,30.5043286
3B,شارع المدينه المنورة,32897,30.3643327,30.5042248
3A,شارع المدينه المنورة,32897,30.3642649,30.5041104
1D,شارع المدينه المنورة,32897,30.3641701,30.5040032
1C,شارع المدينه المنورة,32897,30.3640693,30.5039320
1B,شارع المدينه المنورة,32897,30.3639748,30.5038270
1A,شارع المدينه المنورة,32897,30.3639170,30.5037171
2A,شارع الحسين بن على,32897,30.3649376,30.5043635
2B,شارع الحسين بن على,32897,30.3650139,30.5042750
1A,شارع عرفات,32897,30.3646807,30.5038887
1B,شارع عرفات,32897,30.3647547,30.5039826
1C,شارع عرفات,32897,30.3648265,30.5040657
4C,شارع المدينه المنورة,32897,30.3646529,30.5042052
4B,شارع المدينه المنورة,32897,30.3645881,30.5041006
4A,شارع المدينه المنورة,32897,30.3644492,30.5039665
1A,شارع الحسن بن على,32897,30.3640882,30.5035374
1B,شارع الحسن بن على,32897,30.3642294,30.5033818
2B,شارع المدينه المنورة,32897,30.3643428,30.5037117
2A,شارع المدينه المنورة,32897,30.3644330,30.5036259
3A,شارع الحسن بن على,32897,30.3643706,30.5031887
3B,شارع الحسن بن على,32897,30.3644832,30.5030646
1A,شارع الصفا,32897,30.3647385,30.5032852
2A,شارع عرفات,32897,30.3644833,30.5033239
2B,شارع عرفات,32897,30.3645934,30.5034559
4A,شارع عرفات,32897,30.3647504,30.5036442
4B,شارع عرفات,32897,30.3648380,30.5037492
6A,شارع عرفات,32897,30.3649885,30.5038592
6B,شارع عرفات,32897,30.3651019,30.5037144
4B,شارع الحسين بن على,32897,30.3653266,30.5039053
4A,شارع الحسين بن على,32897,30.3651968,30.5040523
5A,شارع الحسن بن على,32897,30.3646994,30.5028266
5B,شارع الحسن بن على,32897,30.3648073,30.5027078
1A,شارع المزدلفه,32897,30.3649028,30.5027971
1B,شارع المزدلفه,32897,30.3649682,30.5028745
1C,شارع المزدلفه,32897,30.3650768,30.5030032
1D,شارع المزدلفه,32897,30.3651386,30.5030763
3A,شارع المزدلفه,32897,30.3653240,30.5032960
2A,شارع الصفا,32897,30.3648890,30.5031243
2B,شارع الصفا,32897,30.3649919,30.5032437
4A,شارع الصفا,32897,30.3652396,30.5035306
4B,شارع الصفا,32897,30.3653240,30.5036285
6A,شارع الحسين بن على,32897,30.3654858,30.5037251
6B,شارع الحسين بن على,32897,30.3656007,30.5035949
8A,شارع الحسين بن على,32897,30.3658217,30.5033448
8B,شارع الحسين بن على,32897,30.3658980,30.5032584
4A,شارع المزدلفه,32897,30.3656327,30.5031473
4B,شارع المزدلفه,32897,30.3657168,30.5030501
3B,شارع مني,32897,30.3655046,30.5030143
3A,شارع مني,32897,30.3656065,30.5029232
2B,شارع المزدلفه,32897,30.3652940,30.5028695
2A,شارع المزدلفه,32897,30.3651713,30.5027676
1A,شارع مني,32897,30.3653032,30.5025744
1B,شارع مني,32897,30.3654298,30.5027200
7A,شارع الحسن بن على,32897,30.3650257,30.5024674
7B,شارع الحسن بن على,32897,30.3651310,30.5023514
2A,شارع مني,32897,30.3652500,30.5022204
2B,شارع مني,32897,30.3653870,30.5023649
2C,شارع مني,32897,30.3654896,30.5024733
2D,شارع مني,32897,30.3655872,30.5025763
4A,شارع مني,32897,30.3656941,30.5026890
4B,شارع مني,32897,30.3657765,30.5027760
4C,شارع مني,32897,30.3658777,30.5028828
4D,شارع مني,32897,30.3659998,30.5030116
36C,شارع على بن ابى طالب,32897,30.3649098,30.5062169
38A,شارع على بن ابى طالب,32897,30.3647617,30.5063269
38B,شارع على بن ابى طالب,32897,30.3646506,30.5065119
38C,شارع على بن ابى طالب,32897,30.3645626,30.5066299
38D,شارع على بن ابى طالب,32897,30.3646645,30.5067158
14A,شارع ابى بكر الصديق,32897,30.3648866,30.5068311
14B,شارع ابى بكر الصديق,32897,30.3649075,30.5069786
14C,شارع ابى بكر الصديق,32897,30.3650186,30.5071530
14D,شارع ابى بكر الصديق,32897,30.3651320,30.5072764
2C,شارع عمرو بن العاص,32897,30.3653356,30.5071717
2B,شارع عمرو بن العاص,32897,30.3652639,30.5070859
2A,شارع عمرو بن العاص,32897,30.3651528,30.5069679
40A,شارع على بن ابى طالب,32897,30.3648542,30.5066729
40B,شارع على بن ابى طالب,32897,30.3649491,30.5065119
36B,شارع على بن ابى طالب,32897,30.3649676,30.5062866
36A,شارع على بن ابى طالب,32897,30.3650672,30.5064234
34B,شارع على بن ابى طالب,32897,30.3651158,30.5061552
34A,شارع على بن ابى طالب,32897,30.3652037,30.5062813
32A,شارع على بن ابى طالب,32897,30.3654884,30.5062652
32B,شارع على بن ابى طالب,32897,30.3653935,30.5063832
6C,شارع عمرو بن العاص,32897,30.3652616,30.5065575
6B,شارع عمرو بن العاص,32897,30.3651944,30.5067211
6A,شارع عمرو بن العاص,32897,30.3652824,30.5068150
4B,شارع عمرو بن العاص,32897,30.3655902,30.5068365
4A,شارع عمرو بن العاص,32897,30.3654652,30.5069733
8A,شارع عمرو بن العاص,32897,30.3656712,30.5067399
8B,شارع عمرو بن العاص,32897,30.3657452,30.5066326
8C,شارع عمرو بن العاص,32897,30.3657614,30.5064824
30B,شارع على بن ابى طالب,32897,30.3658910,30.5058977
30C,شارع على بن ابى طالب,32897,30.3658239,30.5059969
30A,شارع على بن ابى طالب,32897,30.3659558,30.5058172
30D,شارع على بن ابى طالب,32897,30.3657476,30.5061498
10A,شارع عمرو بن العاص,32897,30.3659651,30.5063671
10B,شارع عمرو بن العاص,32897,30.3660739,30.5062517
10C,شارع عمرو بن العاص,32897,30.3661456,30.5061579
10D,شارع عمرو بن العاص,32897,30.3661664,30.5060264
28C,شارع على بن ابى طالب,32897,30.3661294,30.5056858
28B,شارع على بن ابى طالب,32897,30.3661873,30.5055302
28A,شارع على بن ابى طالب,32897,30.3663169,30.5054122
12C,شارع عمرو بن العاص,32897,30.3664742,30.5057421
12B,شارع عمرو بن العاص,32897,30.3664071,30.5058253
12A,شارع عمرو بن العاص,32897,30.3663053,30.5059513
12D,شارع عمرو بن العاص,32897,30.3665275,30.5056027
26C,شارع على بن ابى طالب,32897,30.3666339,30.5050260
26B,شارع على بن ابى طالب,32897,30.3667184,30.5049267
26A,شارع على بن ابى طالب,32897,30.3668028,30.5048275
14D,شارع عمرو بن العاص,32897,30.3670644,30.5050823
14C,شارع عمرو بن العاص,32897,30.3669625,30.5051976
14B,شارع عمرو بن العاص,32897,30.3668607,30.5053130
14A,شارع عمرو بن العاص,32897,30.3667589,30.5054283
9B,شارع مني,32897,30.3671199,30.5048087
9A,شارع مني,32897,30.3669949,30.5046800
16B,شارع عمرو بن العاص,32897,30.3675665,30.5045003
16A,شارع عمرو بن العاص,32897,30.3674508,30.5046156
12B,شارع مني,32897,30.3673027,30.5045029
12A,شارع مني,32897,30.3672009,30.5044010
14C,شارع مني,32897,30.3673583,30.5042696
14B,شارع مني,32897,30.3674508,30.5041945
14A,شارع مني,32897,30.3675457,30.5042696
12A,شارع ابى بكر الصديق,32897,30.3640774,30.5060766
12B,شارع ابى بكر الصديق,32897,30.3641719,30.5061870
12C,شارع ابى بكر الصديق,32897,30.3642595,30.5062893
12D,شارع ابى بكر الصديق,32897,30.3643868,30.5063751
10D,شارع ابى بكر الصديق,32897,30.3638469,30.5058072
10C,شارع ابى بكر الصديق,32897,30.3637801,30.5057291
10B,شارع ابى بكر الصديق,32897,30.3636994,30.5056348
10A,شارع ابى بكر الصديق,32897,30.3636230,30.5055168
3A,شارع الطائف,32897,30.3646149,30.5059629
3B,شارع الطائف,32897,30.3646714,30.5060264
4B,شارع مكه,32897,30.3645187,30.5061820
4A,شارع مكه,32897,30.3644423,30.5060935
2C,شارع مكه,32897,30.3642410,30.5058601
2B,شارع مكه,32897,30.3641553,30.5057609
1D,شارع الطائف,32897,30.3642920,30.5056000
1C,شارع الطائف,32897,30.3642320,30.5055325
1B,شارع الطائف,32897,30.3641345,30.5054229
1A,شارع الطائف,32897,30.3639632,30.5054229
2B,شارع الطائف,32897,30.3638614,30.5051601
2A,شارع الطائف,32897,30.3637550,30.5052674
4A,شارع الطائف,32897,30.3640142,30.5049482
4B,شارع الطائف,32897,30.3641035,30.5050487
4C,شارع الطائف,32897,30.3641916,30.5051478
4D,شارع الطائف,32897,30.3642824,30.5052500
4E,شارع الطائف,32897,30.3643880,30.5051311
1,شارع الاسراء,32897,30.3643150,30.5049321
3A,شارع الاسراء,32897,30.3646058,30.5052814
3B,شارع الاسراء,32897,30.3647273,30.5054164
6A,شارع الطائف,32897,30.3644645,30.5054558
6B,شارع الاسراء,32897,30.3645720,30.5055758
8A,شارع الطائف,32897,30.3647035,30.5057238
8B,شارع الطائف,32897,30.3648056,30.5058387
5C,شارع الاسراء,32897,30.3650926,30.5058226
5B,شارع الاسراء,32897,30.3649709,30.5056873
5A,شارع الاسراء,32897,30.3648858,30.5055927
5A,شارع المدينه المنورة,32897,30.3648658,30.5049375
5B,شارع المدينه المنورة,32897,30.3649838,30.5050045
2A,شارع الاسراء,32897,30.3646622,30.5050018
2B,شارع الاسراء,32897,30.3647609,30.5051101
2C,شارع الاسراء,32897,30.3648415,30.5051986
4A,شارع الاسراء,32897,30.3651819,30.5055718
4B,شارع الاسراء,32897,30.3653078,30.5057099
4C,شارع الاسراء,32897,30.3654652,30.5057529
4E,شارع الاسراء,32897,30.3655254,30.5056590
7B,شارع المدينه المنورة,32897,30.3654027,30.5054954
7A,شارع المدينه المنورة,32897,30.3652986,30.5053934
1B,شارع عرفات,32897,30.3653865,30.5047846
1A,شارع عرفات,32897,30.3652916,30.5046827
6A,شارع المدينه المنورة,32897,30.3650972,30.5045807
6B,شارع المدينه المنورة,32897,30.3650278,30.5046719
6C,شارع المدينه المنورة,32897,30.3650926,30.5047926
6D,شارع المدينه المنورة,32897,30.3651736,30.5048892
6E,شارع المدينه المنورة,32897,30.3652616,30.5050045
8E,شارع المدينه المنورة,32897,30.3657452,30.5055302
8D,شارع المدينه المنورة,32897,30.3656689,30.5054444
8C,شارع المدينه المنورة,32897,30.3655763,30.5053425
8B,شارع المدينه المنورة,32897,30.3654791,30.5052030
8A,شارع المدينه المنورة,32897,30.3655717,30.5050930
3B,شارع عرفات,32897,30.3658563,30.5053398
3A,شارع عرفات,32897,30.3657591,30.5052191
3E,شارع الصفا,32897,30.3657198,30.5045056
3D,شارع الصفا,32897,30.3656365,30.5044171
3C,شارع الصفا,32897,30.3655508,30.5043152
3B,شارع الصفا,32897,30.3654097,30.5042428
3A,شارع الصفا,32897,30.3653217,30.5043232
2A,شارع عرفات,32897,30.3654976,30.5045915
2B,شارع عرفات,32897,30.3655542,30.5046573
4A,شارع عرفات,32897,30.3660162,30.5051948
4B,شارع عرفات,32897,30.3660970,30.5052888
5E,شارع الصفا,32897,30.3661595,30.5050287
5D,شارع الصفا,32897,30.3660993,30.5049509
5C,شارع الصفا,32897,30.3660021,30.5048355
5B,شارع الصفا,32897,30.3658864,30.5047578
5A,شارع الصفا,32897,30.3657800,30.5048624
8B,شارع الصفا,32897,30.3661549,30.5046451
8A,شارع الصفا,32897,30.3660669,30.5045593
6B,شارع الصفا,32897,30.3658771,30.5043662
6A,شارع الصفا,32897,30.3657869,30.5042535
10B,شارع زمزم,32897,30.3663007,30.5045405
10C,شارع زمزم,32897,30.3664025,30.5046666
10E,شارع زمزم,32897,30.3663863,30.5049080
10D,شارع زمزم,32897,30.3664789,30.5048221
10A,شارع زمزم,32897,30.3662127,30.5044118
8E,شارع زمزم,32897,30.3660137,30.5042240
8D,شارع زمزم,32897,30.3659026,30.5040872
8C,شارع زمزم,32897,30.3658077,30.5039638
8B,شارع زمزم,32897,30.3656920,30.5038887
8A,شارع زمزم,32897,30.3656249,30.5039772
24A,شارع زمزم,32897,30.3658910,30.5036822
24B,شارع زمزم,32897,30.3660137,30.5038324
5E,شارع مني,32897,30.3662845,30.5039853
5D,شارع مني,32897,30.3663215,30.5038753
5C,شارع مني,32897,30.3662173,30.5037332
5B,شارع مني,32897,30.3661317,30.5036446
5A,شارع مني,32897,30.3660484,30.5035186
4B,شارع زمزم,32897,30.3666408,30.5045539
4A,شارع زمزم,32897,30.3665575,30.5044600
7E,شارع مني,32897,30.3668561,30.5044520
7D,شارع مني,32897,30.3667782,30.5043671
7C,شارع مني,32897,30.3667002,30.5042821
7B,شارع مني,32897,30.3666223,30.5041972
7A,شارع مني,32897,30.3664789,30.5040738
10D,شارع مني,32897,30.3669810,30.5042481
10C,شارع مني,32897,30.3668970,30.5041534
10B,شارع مني,32897,30.3668129,30.5040586
10A,شارع مني,32897,30.3667288,30.5039638
8B,شارع مني,32897,30.3666478,30.5036071
8A,شارع مني,32897,30.3665483,30.5037412
6D,شارع مني,32897,30.3664719,30.5034488
6C,شارع مني,32897,30.3663655,30.5033255
6B,شارع مني,32897,30.3662474,30.5032584
6A,شارع مني,32897,30.3661641,30.5033496
35C,شارع على بن ابى طالب,32897,30.3668422,30.5034193
35A,شارع على بن ابى طالب,32897,30.3667542,30.5031002
35B,شارع على بن ابى طالب,32897,30.3668445,30.5032128
33,شارع عمر بن الخطاب,32897,30.3681358,30.4996079
31,شارع عمر بن الخطاب,32897,30.3679252,30.4993692
29,شارع عمر بن الخطاب,32897,30.3677702,30.4991895
27,شارع عمر بن الخطاب,32897,30.3676174,30.4989964
25,شارع عمر بن الخطاب,32897,30.3673999,30.4987147
23,شارع عمر بن الخطاب,32897,30.3672148,30.4985377
21,شارع عمر بن الخطاب,32897,30.3668584,30.4984412
19,شارع عمر بن الخطاب,32897,30.3666338,30.4984423
17,شارع عمر بن الخطاب,32897,30.3660369,30.4984452
15,شارع عمر بن الخطاب,32897,30.3657614,30.4984465
13,شارع عمر بن الخطاب,32897,30.3653888,30.4986423
11,شارع عمر بن الخطاب,32897,30.3650926,30.4989642
2,شارع عبد الله,32897,30.3664163,30.4984433
1,شارع عبد الله,32897,30.3662266,30.4984442
30,شارع مصعب بن عمير,32897,30.3679785,30.4998091
28,شارع مصعب بن عمير,32897,30.3678766,30.4997018
26,شارع مصعب بن عمير,32897,30.3677193,30.4994899
24,شارع مصعب بن عمير,32897,30.3675665,30.4992941
22,شارع مصعب بن عمير,32897,30.3674022,30.4991198
20,شارع مصعب بن عمير,32897,30.3671916,30.4988569
18,شارع مصعب بن عمير,32897,30.3670759,30.4987469
16A,شارع مصعب بن عمير,32897,30.3668746,30.4986745
16B,شارع مصعب بن عمير,32897,30.3667749,30.4986765
14,شارع مصعب بن عمير,32897,30.3665992,30.4986799
4,شارع عبد الله,32897,30.3664139,30.4986836
3,شارع عبد الله,32897,30.3662498,30.4986868
12A,شارع مصعب بن عمير,32897,30.3660995,30.4986898
12B,شارع مصعب بن عمير,32897,30.3659815,30.4986921
10A,شارع مصعب بن عمير,32897,30.3658772,30.4986941
10B,شارع مصعب بن عمير,32897,30.3657846,30.4986960
8,شارع مصعب بن عمير,32897,30.3655809,30.4988408
6,شارع مصعب بن عمير,32897,30.3654768,30.4989293
4,شارع مصعب بن عمير,32897,30.3653402,30.4991251
2,شارع مصعب بن عمير,32897,30.3652430,30.4992351
12,شارع أسامة بن زيد,32897,30.3667068,30.4992029
10,شارع أسامة بن زيد,32897,30.3665354,30.4992085
13,شارع مصعب بن عمير,32897,30.3667091,30.4989535
11,شارع مصعب بن عمير,32897,30.3665378,30.4989615
2,شارع أسامة بن زيد,32897,30.3657221,30.4993075
4,شارع أسامة بن زيد,32897,30.3658424,30.4991895
6,شارع أسامة بن زيد,32897,30.3660368,30.4991949
8,شارع أسامة بن زيد,32897,30.3661873,30.4991967
9,شارع مصعب بن عمير,32897,30.3661861,30.4989740
7,شارع مصعب بن عمير,32897,30.3660253,30.4989803
5,شارع مصعب بن عمير,32897,30.3658563,30.4989561
3,شارع مصعب بن عمير,32897,30.3656943,30.4990447
1,شارع مصعب بن عمير,32897,30.3655948,30.4991600
5,شارع بلال بن رباح,32897,30.3651373,30.4994813
3,شارع بلال بن رباح,32897,30.3650229,30.4993455
1,شارع بلال بن رباح,32897,30.3649028,30.4992029
2,شارع العباس بن عبد المطلب,32897,30.3647941,30.4993558
4,شارع العباس بن عبد المطلب,32897,30.3649306,30.4995087
6,شارع العباس بن عبد المطلب,32897,30.3650371,30.4996321
13,شارع بلال بن رباح,32897,30.3655647,30.4999888
11,شارع بلال بن رباح,32897,30.3655316,30.4999495
9,شارع بلال بن رباح,32897,30.3654264,30.4998246
7,شارع بلال بن رباح,32897,30.3653293,30.4997092
8,شارع العباس بن عبد المطلب,32897,30.3652685,30.4999056
10,شارع العباس بن عبد المطلب,32897,30.3653912,30.5000854
2,شارع عثمان بن عفان,32897,30.3655115,30.5002409
4,شارع عثمان بن عفان,32897,30.3656457,30.5000880
3,شارع أسامة بن زيد,32897,30.3657591,30.4996482
1,شارع أسامة بن زيد,32897,30.3656666,30.4997635
6,شارع عثمان بن عفان,32897,30.3658309,30.4999298
8,شارع عثمان بن عفان,32897,30.3659929,30.4997876
5,شارع أسامة بن زيد,32897,30.3659975,30.4995435
7,شارع أسامة بن زيد,32897,30.3661549,30.4995543
10,شارع عثمان بن عفان,32897,30.3661572,30.4998144
12,شارع عثمان بن عفان,32897,30.3663122,30.4997903
9,شارع أسامة بن زيد,32897,30.3663238,30.4995435
11,شارع أسامة بن زيد,32897,30.3664650,30.4994819
13A,شارع أسامة بن زيد,32897,30.3666223,30.4994872
13B,شارع أسامة بن زيد,32897,30.3667056,30.4995006
15A,شارع أسامة بن زيد,32897,30.3668190,30.4994953
15B,شارع أسامة بن زيد,32897,30.3668954,30.4994899
17,شارع أسامة بن زيد,32897,30.3671014,30.4995006
19,شارع أسامة بن زيد,32897,30.3672518,30.4995060
14,شارع عثمان بن عفان,32897,30.3665113,30.4998171
16,شارع عثمان بن عفان,32897,30.3667172,30.4998198
18,شارع عثمان بن عفان,32897,30.3669371,30.4997930
20,شارع عثمان بن عفان,32897,30.3672541,30.4998279
22,شارع عثمان بن عفان,32897,30.3674254,30.4998198
21,شارع أسامة بن زيد,32897,30.3674346,30.4995811
15,شارع عثمان بن عفان,32897,30.3678836,30.5000899
17,شارع عثمان بن عفان,32897,30.3680456,30.5000880
14A,شارع ابو زر الغفارى,32897,30.3680872,30.5002972
14B,شارع ابو زر الغفارى,32897,30.3680084,30.5003016
12,شارع ابو زر الغفارى,32897,30.3678785,30.5003088
10,شارع ابو زر الغفارى,32897,30.3677026,30.5003186
13,شارع عثمان بن عفان,32897,30.3677166,30.5000918
5,شارع عثمان بن عفان,32897,30.3668792,30.5001014
7,شارع عثمان بن عفان,32897,30.3670527,30.5000994
9,شارع عثمان بن عفان,32897,30.3672679,30.5000970
11,شارع عثمان بن عفان,32897,30.3674387,30.5000950
8,شارع ابو زر الغفارى,32897,30.3674478,30.5003327
6,شارع ابو زر الغفارى,32897,30.3673055,30.5003406
4,شارع ابو زر الغفارى,32897,30.3671387,30.5003498
2,شارع ابو زر الغفارى,32897,30.3669255,30.5003616
16,شارع عبد المطلب,32897,30.3683302,30.5007425
15,شارع ابو زر الغفارى,32897,30.3683325,30.5006057
13,شارع ابو زر الغفارى,32897,30.3681751,30.5006048
14,شارع عبد المطلب,32897,30.3681844,30.5007450
12,شارع عبد المطلب,32897,30.3679989,30.5007482
11,شارع ابو زر الغفارى,32897,30.3679806,30.5006037
9,شارع ابو زر الغفارى,32897,30.3676175,30.5006016
10,شارع عبد المطلب,32897,30.3676146,30.5007549
8,شارع عبد المطلب,32897,30.3674252,30.5007581
7,شارع ابو زر الغفارى,32897,30.3674369,30.5006005
5,شارع ابو زر الغفارى,32897,30.3672656,30.5005996
3,شارع ابو زر الغفارى,32897,30.3670690,30.5005984
6,شارع عبد المطلب,32897,30.3672494,30.5007612
4,شارع عبد المطلب,32897,30.3670896,30.5007640
2,شارع عبد المطلب,32897,30.3669348,30.5007666
1,شارع ابو زر الغفارى,32897,30.3669348,30.5005977
484,شارع 1,32897,30.3621650,30.5081668
485,شارع 1,32897,30.3621812,30.5080086
486,شارع 1,32897,30.3621280,30.5078047
499,شارع 1,32897,30.3613828,30.5069357
498,شارع 1,32897,30.3613874,30.5071422
495,شارع 1,32897,30.3616651,30.5072576
491,شارع 1,32897,30.3619452,30.5075794
483,شارع 1,32897,30.3625075,30.5081937
482,شارع 1,32897,30.3626094,30.5084753
476,شارع 1,32897,30.3626973,30.5088133
477,شارع 1,32897,30.3628593,30.5088240
478,شارع 1,32897,30.3630352,30.5088937
357,شارع عمرو بن العاص,32897,30.3631972,30.5091459
356,شارع عمرو بن العاص,32897,30.3632990,30.5092692
355,شارع عمرو بن العاص,32897,30.3633291,30.5094597
354,شارع عمرو بن العاص,32897,30.3632042,30.5095750
353,شارع عمرو بن العاص,32897,30.3630514,30.5096260
352,شارع عمرو بن العاص,32897,30.3629565,30.5096877
519,شارع 1,32897,30.3622136,30.5073917
520,شارع 1,32897,30.3621789,30.5071932
517,شارع 1,32897,30.3625052,30.5077028
515,شارع 1,32897,30.3626834,30.5079281
512,شارع 1,32897,30.3628778,30.5081427
509,شارع 1,32897,30.3630699,30.5084002
510,شارع 1,32897,30.3632366,30.5084002
511,شارع 1,32897,30.3634148,30.5084673
508,شارع عمرو بن العاص,32897,30.3637295,30.5085236
507,شارع عمرو بن العاص,32897,30.3637550,30.5087006
506,شارع عمرو بن العاص,32897,30.3636392,30.5090520
505,شارع 1,32897,30.3610819,30.5065870
504,شارع 1,32897,30.3609153,30.5065978
503,شارع 1,32897,30.3607371,30.5065253
364,شارع 1,32897,30.3608505,30.5061954
372,شارع 1,32897,30.3606885,30.5059272
380,شارع 1,32897,30.3606445,30.5054954
387,طريق الشباب,32897,30.3595371,30.5054350
388,طريق الشباب,32897,30.3594456,30.5055825
386,طريق الشباب,32897,30.3596609,30.5053130
385,طريق الشباب,32897,30.3598854,30.5052003
384,طريق الشباب,32897,30.3600728,30.5051842
381,شارع 1,32897,30.3606537,30.5051815
471,طريق الشباب,32897,30.3603182,30.5044547
473,طريق الشباب,32897,30.3600566,30.5047792
472,طريق الشباب,32897,30.3601932,30.5045861
470,طريق الشباب,32897,30.3604732,30.5042642
469,طريق الشباب,32897,30.3606144,30.5041113
468,طريق الشباب,32897,30.3607348,30.5039290
467,طريق الشباب,32897,30.3608759,30.5037895
466,شارع 1,32897,30.3611976,30.5038458
465,شارع ابى بكر الصديق,32897,30.3612948,30.5036500
464,شارع ابى بكر الصديق,32897,30.3614661,30.5038458
463,شارع 1,32897,30.3613666,30.5040282
462,شارع 1,32897,30.3611745,30.5042213
461,شارع 1,32897,30.3610102,30.5044198
460,شارع 1,32897,30.3608921,30.5043393
459,شارع ابى بكر الصديق,32897,30.3615980,30.5042455
458,شارع ابى بكر الصديق,32897,30.3617346,30.5042052
457,شارع ابى بكر الصديق,32897,30.3618503,30.5043340
456,شارع ابى بكر الصديق,32897,30.3620007,30.5043849
455,شارع ابى بكر الصديق,32897,30.3621141,30.5045056
454,شارع ابى بكر الصديق,32897,30.3621535,30.5046773
453,شارع ابى بكر الصديق,32897,30.3620632,30.5048060
450,شارع ابى بكر الصديق,32897,30.3623386,30.5048731
449,شارع ابى بكر الصديق,32897,30.3624798,30.5049106
448,شارع ابى بكر الصديق,32897,30.3625654,30.5050340
447,شارع ابى بكر الصديق,32897,30.3626834,30.5051386
446,شارع ابى بكر الصديق,32897,30.3627019,30.5053559
445,شارع ابى بكر الصديق,32897,30.3625978,30.5054685
433,شارع ابى بكر الصديق,32897,30.3635698,30.5061659
432,شارع ابى بكر الصديق,32897,30.3636607,30.5062696
431,شارع ابى بكر الصديق,32897,30.3637785,30.5064040
430,شارع ابى بكر الصديق,32897,30.3638789,30.5065184
429,شارع ابى بكر الصديق,32897,30.3640049,30.5066621
428,شارع على بن ابى طالب,32897,30.3639725,30.5068070
427,شارع على بن ابى طالب,32897,30.3638565,30.5069491
426,شارع على بن ابى طالب,32897,30.3637576,30.5070704
425,شارع على بن ابى طالب,32897,30.3636643,30.5071847
415,شارع على بن ابى طالب,32897,30.3633708,30.5075446
414,شارع على بن ابى طالب,32897,30.3634784,30.5074126
393,شارع عمرو بن العاص,32897,30.3640998,30.5083895
394,شارع عمرو بن العاص,32897,30.3642386,30.5083358
395,شارع عمرو بن العاص,32897,30.3643391,30.5082189
396,شارع عمرو بن العاص,32897,30.3644465,30.5080939
397,شارع عمرو بن العاص,32897,30.3646890,30.5078116
398,شارع عمرو بن العاص,32897,30.3647756,30.5077109
399,شارع ابى بكر الصديق,32897,30.3647570,30.5075124
400,شارع ابى بكر الصديق,32897,30.3646428,30.5073871
401,شارع ابى بكر الصديق,32897,30.3645322,30.5072659
402,شارع ابى بكر الصديق,32897,30.3643706,30.5070886
403,شارع على بن ابى طالب,32897,30.3642294,30.5071503
404,شارع على بن ابى طالب,32897,30.3640790,30.5072200
405,شارع على بن ابى طالب,32897,30.3639738,30.5073447
406,شارع على بن ابى طالب,32897,30.3638661,30.5074723
407,شارع على بن ابى طالب,32897,30.3637735,30.5075821
408,شارع على بن ابى طالب,32897,30.3637179,30.5077538
409,شارع على بن ابى طالب,32897,30.3636763,30.5079013
88,طريق الشباب,32897,30.3575432,30.5110931
57,طريق الشباب,32897,30.3575038,30.5163744
58,طريق الشباب,32897,30.3576149,30.5162644
59,طريق الشباب,32897,30.3575987,30.5161169
60,طريق الشباب,32897,30.3575594,30.5159560
61,طريق الشباب,32897,30.3575594,30.5157924
62,طريق الشباب,32897,30.3574946,30.5156583
63,طريق الشباب,32897,30.3574737,30.5153874
64,طريق الشباب,32897,30.3574899,30.5151889
65,طريق الشباب,32897,30.3575270,30.5150279
66,طريق الشباب,32897,30.3575362,30.5148804
67,طريق الشباب,32897,30.3575316,30.5147436
68,طريق الشباب,32897,30.3575409,30.5145290
69,طريق الشباب,32897,30.3575409,30.5143815
70,طريق الشباب,32897,30.3575501,30.5142099
71,طريق الشباب,32897,30.3575478,30.5140677
72,طريق الشباب,32897,30.3575409,30.5139202
73,طريق الشباب,32897,30.3574830,30.5137351
256,شارع صدقي سليمان,32897,30.3579899,30.5139524
196,شارع صدقي سليمان,32897,30.3580200,30.5142045
197,شارع صدقي سليمان,32897,30.3580269,30.5143923
49,شارع صدقي سليمان,32897,30.3581588,30.5155107
48,شارع صدقي سليمان,32897,30.3582097,30.5156663
47,شارع صدقي سليمان,32897,30.3582213,30.5158272
46,شارع 100,32897,30.3578441,30.5163181
45,شارع 100,32897,30.3579991,30.5164066
44,شارع 100,32897,30.3581218,30.5163959
43,شارع 100,32897,30.3582491,30.5163020
42,شارع صدقي سليمان,32897,30.3582468,30.5161464
41,شارع صدقي سليمان,32897,30.3584713,30.5140141
40,شارع صدقي سليمان,32897,30.3584065,30.5142501
39,شارع صدقي سليمان,32897,30.3584366,30.5144566
31,شارع صدقي سليمان,32897,30.3585870,30.5158272
32,شارع صدقي سليمان,32897,30.3586055,30.5156314
33,شارع صدقي سليمان,32897,30.3585523,30.5154115
34,شارع صدقي سليمان,32897,30.3585986,30.5151620
30,شارع صدقي سليمان,32897,30.3585407,30.5161276
29,شارع صدقي سليمان,32897,30.3585361,30.5163342
26,شارع 100,32897,30.3588069,30.5163503
25,شارع 100,32897,30.3589619,30.5163208
18,شارع عمرو بن العاص,32897,30.3595035,30.5145478
17,شارع عمرو بن العاص,32897,30.3595776,30.5147034
16,شارع عمرو بن العاص,32897,30.3595752,30.5148858
15,شارع عمرو بن العاص,32897,30.3595799,30.5150494
12,شارع 100,32897,30.3593068,30.5163851
7,شارع عمرو بن العاص,32897,30.3594873,30.5154866
6,شارع عمرو بن العاص,32897,30.3595567,30.5156395
5,شارع عمرو بن العاص,32897,30.3595961,30.5157655
4,شارع عمرو بن العاص,32897,30.3596030,30.5159453
3,شارع عمرو بن العاص,32897,30.3596076,30.5161062
2,شارع عمرو بن العاص,32897,30.3596123,30.5162430
1,شارع 100,32897,30.3595290,30.5164012
133,شارع 20,32897,30.3592697,30.5113882
132,شارع 20,32897,30.3593855,30.5114284
131,شارع 20,32897,30.3594757,30.5115384
130,شارع 20,32897,30.3595822,30.5116510
115,شارع 20,32897,30.3599293,30.5120695
114,شارع 20,32897,30.3599826,30.5122197
113,شارع 20,32897,30.3600798,30.5123323
107,شارع 20,32897,30.3604385,30.5126381
106,شارع عمرو بن العاص,32897,30.3604501,30.5128017
105,شارع عمرو بن العاص,32897,30.3603575,30.5129036
104,شارع عمرو بن العاص,32897,30.3602418,30.5130404
103,شارع عمرو بن العاص,32897,30.3601423,30.5131558
102,شارع عمرو بن العاص,32897,30.3600057,30.5132309
255,شارع 22,32897,30.3619961,30.5110234
256,شارع 22,32897,30.3618919,30.5109188
257,شارع 22,32897,30.3617438,30.5108008
258,شارع 22,32897,30.3616721,30.5106050
259,شارع 22,32897,30.3614846,30.5104816
260,شارع 22,32897,30.3613920,30.5103287
261,شارع 22,32897,30.3612601,30.5102348
262,شارع 22,32897,30.3611537,30.5100068
155,شارع عمرو بن العاص,32897,30.3615702,30.5115035
154,شارع عمرو بن العاص,32897,30.3614684,30.5116349
153,شارع عمرو بن العاص,32897,30.3613666,30.5117691
152,شارع عمرو بن العاص,32897,30.3609754,30.5120534
151,شارع عمرو بن العاص,32897,30.3609315,30.5122250
150,شارع عمرو بن العاص,32897,30.3608181,30.5123350
149,شارع عمرو بن العاص,32897,30.3607209,30.5124664
156,شارع 20,32897,30.3605126,30.5122626
162,شارع 20,32897,30.3603390,30.5120721
163,شارع 20,32897,30.3602441,30.5119595
164,شارع 20,32897,30.3601538,30.5118576
178,شارع 20,32897,30.3598993,30.5115759
179,شارع 20,32897,30.3597974,30.5114472
180,شارع 20,32897,30.3597049,30.5113506
182,شارع 20,32897,30.3595521,30.5110770
181,شارع 20,32897,30.3596493,30.5111763
191,شارع 23,32897,30.3599131,30.5104092
190,شارع 23,32897,30.3600034,30.5105111
189,شارع 23,32897,30.3600960,30.5106318
188,شارع 23,32897,30.3601909,30.5107471
194,شارع 23,32897,30.3602395,30.5104011
193,شارع 23,32897,30.3603506,30.5105245
192,شارع 23,32897,30.3604431,30.5106291
266,شارع 22,32897,30.3605033,30.5093497
265,شارع 22,32897,30.3606792,30.5094704
264,شارع 22,32897,30.3607787,30.5096662
263,شارع 22,32897,30.3609222,30.5097735
237,شارع 23,32897,30.3586796,30.5090252
304,طريق الشباب,32897,30.3590846,30.5059648
303,طريق الشباب,32897,30.3589249,30.5061069
302,طريق الشباب,32897,30.3587907,30.5062437
301,طريق الشباب,32897,30.3586564,30.5064100
300,طريق الشباب,32897,30.3585176,30.5065709
299,طريق الشباب,32897,30.3583764,30.5067560
298,طريق الشباب,32897,30.3582421,30.5069062
297,طريق الشباب,32897,30.3581195,30.5070779
296,طريق الشباب,32897,30.3580107,30.5072817
295,طريق الشباب,32897,30.3579204,30.5074856
294,طريق الشباب,32897,30.3578279,30.5077055
293,طريق الشباب,32897,30.3577353,30.5078772
292,طريق الشباب,32897,30.3576496,30.5081025
291,طريق الشباب,32897,30.3576126,30.5082768
290,طريق الشباب,32897,30.3575455,30.5084968
289,طريق الشباب,32897,30.3575154,30.5087140
288,طريق الشباب,32897,30.3574992,30.5089045
217,شارع 20,32897,30.3574575,30.5097467
269,شارع 23,32897,30.3584412,30.5082795
270,شارع 23,32897,30.3585569,30.5080864
271,شارع 23,32897,30.3587328,30.5079415
272,شارع 23,32897,30.3588763,30.5078343
273,شارع 23,32897,30.3591054,30.5077538
274,شارع 23,32897,30.3593345,30.5076921
284,شارع 26,32897,30.3588069,30.5076197
283,شارع 26,32897,30.3591100,30.5075178
343,شارع 23,32897,30.3598113,30.5080140
344,شارع 23,32897,30.3597558,30.5078316
345,شارع 23,32897,30.3597234,30.5076706
342,شارع 22,32897,30.3601052,30.5082768
341,شارع 22,32897,30.3602163,30.5084002
337,شارع 22,32897,30.3604825,30.5087087
332,شارع 22,32897,30.3607255,30.5088991
322,شارع 22,32897,30.3609546,30.5092666
321,شارع 22,32897,30.3611050,30.5093282
320,شارع 22,32897,30.3612115,30.5094382
319,شارع 22,32897,30.3613157,30.5095696
318,شارع 22,32897,30.3613573,30.5097333
313,شارع 22,32897,30.3617716,30.5101705
314,شارع 22,32897,30.3618919,30.5100203
315,شارع 22,32897,30.3618480,30.5098700
307,شارع عمرو بن العاص,32897,30.3620493,30.5106211
308,شارع عمرو بن العاص,32897,30.3622067,30.5105728
309,شارع عمرو بن العاص,32897,30.3623664,30.5105057
310,شارع عمرو بن العاص,32897,30.3624728,30.5103877
311,شارع عمرو بن العاص,32897,30.3625909,30.5102670
312,شارع عمرو بن العاص,32897,30.3626904,30.5101410
264,شارع عبد الحليم محمود,32897,30.3611629,30.5183968
263,شارع عبد الحليم محمود,32897,30.3611768,30.5179569
197,شارع عمر بن عبد العزيز,32897,30.3617762,30.5158648
198,شارع عبد الحليم محمود,32897,30.3620979,30.5161974
196,شارع عمر بن عبد العزيز,32897,30.3620701,30.5155590
195,شارع عمر بن عبد العزيز,32897,30.3624983,30.5150279
199,شارع عبد الحليم محمود,32897,30.3624080,30.5156448
200,شارع عبد الحليم محمود,32897,30.3625585,30.5155939
201,شارع عبد الحليم محمود,32897,30.3625608,30.5154169
202,شارع عبد الحليم محمود,32897,30.3628408,30.5151299
203,شارع عبد الحليم محمود,32897,30.3629959,30.5150950
204,شارع عبد الحليم محمود,32897,30.3630190,30.5149019
194,شارع عمر بن عبد العزيز,32897,30.3629565,30.5145317
205,شارع عبد الحليم محمود,32897,30.3632852,30.5145961
206,شارع عبد الحليم محمود,32897,30.3634379,30.5145693
207,شارع عبد الحليم محمود,32897,30.3634610,30.5143923
210,شارع عبد الحليم محمود,32897,30.3641877,30.5141857
208,شارع عبد الحليم محمود,32897,30.3640188,30.5144218
209,شارع عبد الحليم محمود,32897,30.3641438,30.5143440
211,شارع حسان بن ثابت,32897,30.3641206,30.5138022
212,شارع حسان بن ثابت,32897,30.3640836,30.5136171
213,شارع حسان بن ثابت,32897,30.3639285,30.5135822
214,شارع حسان بن ثابت,32897,30.3639702,30.5130619
215,شارع حسان بن ثابت,32897,30.3641345,30.5130136
216,شارع حسان بن ثابت,32897,30.3641530,30.5128285
217,شارع حسان بن ثابت,32897,30.3640350,30.5125496
218,شارع حسان بن ثابت,32897,30.3639980,30.5123806
219,شارع حسان بن ثابت,32897,30.3638429,30.5123618
193,شارع عمر بن عبد العزيز,32897,30.3633754,30.5140221
192,شارع عمر بن عبد العزيز,32897,30.3635536,30.5135447
191,شارع عمر بن عبد العزيز,32897,30.3636184,30.5131906
190,شارع عمر بن عبد العزيز,32897,30.3635768,30.5127534
189,شارع عمر بن عبد العزيز,32897,30.3636392,30.5121258
175,شارع حسان بن ثابت,32897,30.3641021,30.5117342
176,شارع حسان بن ثابت,32897,30.3643266,30.5119997
177,شارع حسان بن ثابت,32897,30.3644793,30.5122814
178,شارع حسان بن ثابت,32897,30.3645788,30.5126381
179,شارع حسان بن ثابت,32897,30.3645858,30.5130163
180,شارع حسان بن ثابت,32897,30.3645673,30.5134025
181,شارع حسان بن ثابت,32897,30.3645788,30.5138102
182,شارع حسان بن ثابت,32897,30.3645927,30.5141750
183,شارع حسان بن ثابت,32897,30.3645788,30.5146041
184,شارع حسان بن ثابت,32897,30.3646274,30.5149153
185,شارع حسان بن ثابت,32897,30.3647779,30.5152211
188,شارع حمزه بن عبد المطلب,32897,30.3657337,30.5152693
187,شارع حمزه بن عبد المطلب,32897,30.3655231,30.5155215
186,شارع حمزه بن عبد المطلب,32897,30.3652824,30.5158004
273,شارع حسان بن ثابت,32897,30.3649352,30.5162081
272,شارع حسان بن ثابت,32897,30.3647223,30.5159774
271,شارع حسان بن ثابت,32897,30.3645302,30.5157253
221,شارع حسان بن ثابت,32897,30.3642653,30.5152103
222,شارع حسان بن ثابت,32897,30.3641438,30.5150641
223,شارع حسان بن ثابت,32897,30.3640361,30.5149260
224,شارع عبد الحليم محمود,32897,30.3639239,30.5148563
225,شارع عبد الحليم محمود,32897,30.3637943,30.5149944
232,شارع عبد الحليم محمود,32897,30.3636092,30.5149797
233,شارع عبد الحليم محمود,32897,30.3634888,30.5151272
234,شارع عبد الحليم محمود,32897,30.3634518,30.5152854
241,شارع عبد الحليم محمود,32897,30.3630445,30.5155644
242,شارع عبد الحليم محمود,32897,30.3629126,30.5157092
243,شارع عبد الحليم محمود,32897,30.3627991,30.5158326
244,شارع عبد الحليم محمود,32897,30.3627367,30.5159774
255,شارع عبد الحليم محمود,32897,30.3625909,30.5161571
256,شارع عبد الحليم محمود,32897,30.3623108,30.5164763
260,شارع عبد الحليم محمود,32897,30.3619012,30.5169860
261,شارع عبد الحليم محمود,32897,30.3616952,30.5172273
262,شارع عبد الحليم محمود,32897,30.3614638,30.5174795
267,شارع حمزه بن عبد المطلب,32897,30.3615378,30.5187803
266,شارع حمزه بن عبد المطلب,32897,30.3614476,30.5189225
265,شارع حمزه بن عبد المطلب,32897,30.3615448,30.5190834
419,شارع عبد الحليم محمود,32897,30.3608134,30.5184156
398,شارع عبد الحليم محمود,32897,30.3609199,30.5194670
399,شارع عبد الحليم محمود,32897,30.3608736,30.5192953
400,شارع عبد الحليم محمود,32897,30.3608759,30.5191290
401,شارع عبد الحليم محمود,32897,30.3608759,30.5188528
402,شارع عبد الحليم محمود,32897,30.3608458,30.5187079
418,شارع جمال عبد الناصر,32897,30.3603945,30.5200061
416,شارع جمال عبد الناصر,32897,30.3606908,30.5199927
417,شارع جمال عبد الناصر,32897,30.3605496,30.5199981
415,شارع جمال عبد الناصر,32897,30.3608296,30.5199686
414,شارع جمال عبد الناصر,32897,30.3608343,30.5197862
397,شارع جمال عبد الناصر,32897,30.3610102,30.5196896
396,شارع جمال عبد الناصر,32897,30.3611606,30.5196977
395,شارع جمال عبد الناصر,32897,30.3612046,30.5198237
394,شارع جمال عبد الناصر,32897,30.3612208,30.5199927
393,شارع جمال عبد الناصر,32897,30.3613920,30.5199927
392,شارع عبد الحليم محمود,32897,30.3612462,30.5194455
391,شارع عبد الحليم محمود,32897,30.3614129,30.5194455
390,شارع حمزه بن عبد المطلب,32897,30.3616003,30.5194429
389,شارع حمزه بن عبد المطلب,32897,30.3616026,30.5195770
388,شارع حمزه بن عبد المطلب,32897,30.3616165,30.5197620
387,شارع جمال عبد الناصر,32897,30.3616096,30.5199578
383,شارع جمال عبد الناصر,32897,30.3622414,30.5197889
384,شارع جمال عبد الناصر,32897,30.3622345,30.5199927
385,شارع جمال عبد الناصر,32897,30.3620910,30.5200008
386,شارع جمال عبد الناصر,32897,30.3619128,30.5200088
378,شارع حمزه بن عبد المطلب,32897,30.3618873,30.5196682
379,شارع حمزه بن عبد المطلب,32897,30.3619035,30.5194965
380,شارع عبد الحليم محمود,32897,30.3620377,30.5194563
381,شارع عبد الحليم محمود,32897,30.3622021,30.5194509
382,شارع عبد الحليم محمود,32897,30.3623270,30.5194616
366,شارع عبد الحليم محمود,32897,30.3631509,30.5194777
367,شارع عبد الحليم محمود,32897,30.3629774,30.5194777
368,شارع عبد الحليم محمود,32897,30.3628339,30.5194670
369,شارع عبد الحليم محمود,32897,30.3626649,30.5194643
370,شارع عبد الحليم محمود,32897,30.3625237,30.5194831
371,شارع عبد الحليم محمود,32897,30.3625307,30.5196923
377,شارع جمال عبد الناصر,32897,30.3624080,30.5199900
376,شارع جمال عبد الناصر,32897,30.3625747,30.5200061
375,شارع جمال عبد الناصر,32897,30.3627251,30.5200008
374,شارع جمال عبد الناصر,32897,30.3629010,30.5200008
373,شارع جمال عبد الناصر,32897,30.3630260,30.5199471
372,شارع جمال عبد الناصر,32897,30.3630236,30.5197406
365,شارع جمال عبد الناصر,32897,30.3631787,30.5199900
364,شارع جمال عبد الناصر,32897,30.3633523,30.5200088
363,شارع جمال عبد الناصر,32897,30.3635096,30.5199981
362,شارع جمال عبد الناصر,32897,30.3636207,30.5199230
356,شارع عبد الحليم محمود,32897,30.3636277,30.5197111
357,شارع عبد الحليم محمود,32897,30.3636323,30.5195206
358,شارع عبد الحليم محمود,32897,30.3635953,30.5193838
359,شارع عبد الحليم محمود,32897,30.3634541,30.5193704
360,شارع عبد الحليم محمود,32897,30.3633222,30.5193919
361,شارع عبد الحليم محمود,32897,30.3633152,30.5195823
307,شارع حمزه بن عبد المطلب,32897,30.3621442,30.5191344
306,شارع حمزه بن عبد المطلب,32897,30.3620354,30.5189788
305,شارع حمزه بن عبد المطلب,32897,30.3621396,30.5188152
304,شارع حمزه بن عبد المطلب,32897,30.3624613,30.5187321
303,شارع عبد الحليم محمود,32897,30.3624705,30.5190191
302,شارع عبد الحليم محمود,32897,30.3626163,30.5191022
301,شارع عبد الحليم محمود,32897,30.3627367,30.5190191
300,شارع حمزه بن عبد المطلب,32897,30.3629033,30.5187133
299,شارع عبد الحليم محمود,32897,30.3631903,30.5189386
298,شارع عبد الحليم محمود,32897,30.3633523,30.5190003
297,شارع عبد الحليم محمود,32897,30.3634425,30.5188528
296,شارع حمزه بن عبد المطلب,32897,30.3635073,30.5185094
295,شارع عبد الحليم محمود,32897,30.3638244,30.5185631
294,شارع عبد الحليم محمود,32897,30.3639702,30.5185336
293,شارع عبد الحليم محمود,32897,30.3639980,30.5183458
292,شارع حمزه بن عبد المطلب,32897,30.3639424,30.5179891
291,شارع عبد الحليم محمود,32897,30.3642548,30.5180266
290,شارع عبد الحليم محمود,32897,30.3644284,30.5180293
289,شارع عبد الحليم محمود,32897,30.3644469,30.5178255
288,شارع حمزه بن عبد المطلب,32897,30.3644006,30.5174795
287,شارع عبد الحليم محمود,32897,30.3646668,30.5172595
285,شارع عبد الحليم محمود,32897,30.3648496,30.5174500
286,شارع عبد الحليم محمود,32897,30.3648519,30.5172756
284,شارع عبد الحليم محمود,32897,30.3652222,30.5170611
283,شارع عبد الحليم محمود,32897,30.3650556,30.5170315
282,شارع عبد الحليم محمود,32897,30.3650278,30.5168438
281,شارع حمزه بن عبد المطلب,32897,30.3651852,30.5165541
280,شارع عبد الحليم محمود,32897,30.3655138,30.5166158
279,شارع عبد الحليم محمود,32897,30.3656828,30.5165863
278,شارع عبد الحليم محمود,32897,30.3657013,30.5163905
274,شارع عبد الرحمن بن عوف,32897,30.3660785,30.5160230
275,شارع عبد الرحمن بن عوف,32897,30.3660646,30.5158406
276,شارع عبد الرحمن بن عوف,32897,30.3659049,30.5158326
277,شارع حمزه بن عبد المطلب,32897,30.3656596,30.5160391
341,شارع عبد الحليم محمود,32897,30.3656504,30.5171362
342,شارع عبد الحليم محمود,32897,30.3655370,30.5172488
343,شارع عبد الحليم محمود,32897,30.3654351,30.5173749
344,شارع عبد الحليم محمود,32897,30.3653495,30.5175036
355,شارع جمال عبد الناصر,32897,30.3658424,30.5180830
354,شارع جمال عبد الناصر,32897,30.3659419,30.5181956
353,شارع جمال عبد الناصر,32897,30.3660577,30.5182922
352,شارع جمال عبد الناصر,32897,30.3661641,30.5181473
351,شارع جمال عبد الناصر,32897,30.3662706,30.5180186
350,شارع جمال عبد الناصر,32897,30.3663655,30.5179059
331,شارع جمال عبد الناصر,32897,30.3667473,30.5173159
332,شارع جمال عبد الناصر,32897,30.3666547,30.5174500
333,شارع جمال عبد الناصر,32897,30.3665460,30.5175787
334,شارع جمال عبد الناصر,32897,30.3664534,30.5177075
335,شارع جمال عبد الناصر,32897,30.3663307,30.5176377
336,شارع جمال عبد الناصر,32897,30.3662173,30.5175143
337,شارع عبد الحليم محمود,32897,30.3659998,30.5172488
338,شارع عبد الحليم محمود,32897,30.3660600,30.5171549
339,شارع عبد الحليم محمود,32897,30.3659581,30.5170047
340,شارع عبد الحليم محمود,32897,30.3658309,30.5169269
314,شارع عبد الحليم محمود,32897,30.3660993,30.5166265
315,شارع عبد الحليم محمود,32897,30.3660415,30.5167419
313,شارع عبد الحليم محمود,32897,30.3662891,30.5163959
312,شارع عبد الحليم محمود,32897,30.3664141,30.5162349
311,شارع عبد الحليم محمود,32897,30.3665066,30.5161250
310,شارع عبد الرحمن بن عوف,32897,30.3666547,30.5162081
309,شارع عبد الرحمن بن عوف,32897,30.3667404,30.5162993
308,شارع عبد الرحمن بن عوف,32897,30.3668746,30.5164683
330,شارع جمال عبد الناصر,32897,30.3668514,30.5171952
329,شارع جمال عبد الناصر,32897,30.3669556,30.5172676
328,شارع جمال عبد الناصر,32897,30.3670366,30.5171442
327,شارع جمال عبد الناصر,32897,30.3671754,30.5169886
326,شارع عبد الرحمن بن عوف,32897,30.3672287,30.5168867
325,شارع عبد الرحمن بن عوف,32897,30.3670968,30.5167338
1,شارع عبد الرحمن بن عوف,32897,30.3647246,30.5107123
2,شارع عبد الرحمن بن عوف,32897,30.3649283,30.5109429
3,شارع عبد الرحمن بن عوف,32897,30.3650972,30.5111361
4,شارع عمر بن عبد العزيز,32897,30.3650301,30.5106533
5,شارع عمر بن عبد العزيز,32897,30.3651343,30.5105486
6,شارع عمر بن عبد العزيز,32897,30.3652616,30.5106345
7,شارع عبد الله بن رواحه,32897,30.3653796,30.5107605
8,شارع عبد الله بن رواحه,32897,30.3654583,30.5108303
9,شارع عبد الله بن رواحه,32897,30.3655879,30.5106881
10,شارع عبد الله بن رواحه,32897,30.3656990,30.5105782
27,شارع عمر بن عبد العزيز,32897,30.3661711,30.5101597
28,شارع عمر بن عبد العزيز,32897,30.3660692,30.5100256
29,شارع عمر بن عبد العزيز,32897,30.3661317,30.5099130
30,شارع عمر بن عبد العزيز,32897,30.3662521,30.5098003
31,شارع عمر بن عبد العزيز,32897,30.3663493,30.5096716
32,شارع عمر بن عبد العزيز,32897,30.3664650,30.5095455
33,شارع ابى بكر الصديق,32897,30.3665922,30.5096260
34,شارع ابى بكر الصديق,32897,30.3666964,30.5097413
11,شارع عبد الله بن رواحه,32897,30.3658702,30.5102617
12,شارع عبد الله بن رواحه,32897,30.3659720,30.5103421
13,شارع عبد الله بن رواحه,32897,30.3660901,30.5104789
14,شارع عبد الله بن رواحه,32897,30.3662035,30.5106184
15,شارع عبد الله بن رواحه,32897,30.3663076,30.5107310
16,شارع عبد الله بن رواحه,32897,30.3664742,30.5109161
17,شارع عبد الله بن رواحه,32897,30.3665992,30.5110019
18,شارع عبد الله بن رواحه,32897,30.3667149,30.5108678
19,شارع عبد الله بن رواحه,32897,30.3667496,30.5107310
20,شارع عبد الله بن رواحه,32897,30.3666732,30.5106211
21,شارع عبد الله بن رواحه,32897,30.3667033,30.5104548
22,شارع عبد الله بن رواحه,32897,30.3668399,30.5103368
35,شارع ابى بكر الصديق,32897,30.3669324,30.5100149
36,شارع ابى بكر الصديق,32897,30.3670482,30.5101329
37,شارع ابى بكر الصديق,32897,30.3670158,30.5102643
38,شارع ابى بكر الصديق,32897,30.3671500,30.5104253
39,شارع ابى بكر الصديق,32897,30.3672449,30.5105272
40,شارع ابى بكر الصديق,32897,30.3671893,30.5106747
41,شارع ابى بكر الصديق,32897,30.3670991,30.5107900
42,شارع عبد الله بن رواحه,32897,30.3669186,30.5109805
43,شارع عبد الله بن رواحه,32897,30.3668144,30.5110985
44,شارع عبد الله بن رواحه,32897,30.3667334,30.5112085
45,شارع عبد الله بن رواحه,32897,30.3668491,30.5113345
46,شارع عبد الله بن رواحه,32897,30.3669834,30.5115035
47,شارع عبد الله بن رواحه,32897,30.3670852,30.5116054
53,شارع عبد الله بن رواحه,32897,30.3673282,30.5111441
52,شارع عبد الله بن رواحه,32897,30.3674555,30.5112648
51,شارع عبد الله بن رواحه,32897,30.3675480,30.5113614
50,شارع عبد الله بن رواحه,32897,30.3674763,30.5115142
49,شارع عبد الله بن رواحه,32897,30.3673745,30.5116296
48,شارع عبد الله بن رواحه,32897,30.3672518,30.5117503
54,شارع عبد الله بن رواحه,32897,30.3659674,30.5110341
55,شارع عبد الله بن رواحه,32897,30.3660785,30.5111200
56,شارع عبد الله بن رواحه,32897,30.3661896,30.5112353
57,شارع عبد الله بن رواحه,32897,30.3661086,30.5113855
58,شارع عبد الله بن رواحه,32897,30.3660183,30.5115116
59,شارع عبد الله بن رواحه,32897,30.3659095,30.5116215
60,شارع عبد الله بن رواحه,32897,30.3657476,30.5115035
61,شارع عبد الله بن رواحه,32897,30.3656249,30.5113667
62,شارع عبد الله بن رواحه,32897,30.3655300,30.5112353
63,شارع عبد الله بن رواحه,32897,30.3655856,30.5111092
64,شارع عبد الرحمن بن عوف,32897,30.3654004,30.5114686
65,شارع عبد الرحمن بن عوف,32897,30.3655578,30.5117825
66,شارع عبد الرحمن بن عوف,32897,30.3656295,30.5121794
67,شارع عبد الرحمن بن عوف,32897,30.3656504,30.5125603
68,شارع عبد الرحمن بن عوف,32897,30.3656318,30.5129331
69,شارع عبد الرحمن بن عوف,32897,30.3656457,30.5132952
70,شارع عبد الرحمن بن عوف,32897,30.3656434,30.5137432
71,شارع عبد الرحمن بن عوف,32897,30.3656666,30.5141053
72,شارع عبد الرحمن بن عوف,32897,30.3657545,30.5144459
73,شارع عبد الرحمن بن عوف,32897,30.3658795,30.5147570
74,شارع عبد الرحمن بن عوف,32897,30.3660669,30.5150226
87,شارع عبد الله بن رواحه,32897,30.3668167,30.5142662
88,شارع عبد الله بن رواحه,32897,30.3668908,30.5141455
89,شارع عبد الله بن رواحه,32897,30.3670065,30.5140194
90,شارع عبد الله بن رواحه,32897,30.3671569,30.5141026
91,شارع عبد الله بن رواحه,32897,30.3672541,30.5142260
92,شارع عبد الله بن رواحه,32897,30.3673444,30.5143198
75,شارع عبد الرحمن بن عوف,32897,30.3663955,30.5150199
76,شارع عبد الرحمن بن عوف,32897,30.3663053,30.5151594
77,شارع عبد الرحمن بن عوف,32897,30.3662451,30.5152908
78,شارع عبد الرحمن بن عوف,32897,30.3663631,30.5154303
79,شارع عبد الرحمن بن عوف,32897,30.3664765,30.5155537
105,شارع عبد الرحمن بن عوف,32897,30.3666732,30.5157843
118,شارع عبد الله بن رواحه,32897,30.3675133,30.5146337
117,شارع عبد الله بن رواحه,32897,30.3676128,30.5147758
116,شارع عبد الله بن رواحه,32897,30.3676105,30.5149180
115,شارع عبد الله بن رواحه,32897,30.3677170,30.5150467
114,شارع عبد الله بن رواحه,32897,30.3675943,30.5152479
113,شارع عبد الله بن رواحه,32897,30.3674948,30.5153713
112,شارع عبد الله بن رواحه,32897,30.3673907,30.5154839
111,شارع عبد الله بن رواحه,32897,30.3672796,30.5156234
110,شارع عبد الله بن رواحه,32897,30.3670528,30.5156878
109,شارع عبد الله بن رواحه,32897,30.3671847,30.5158460
108,شارع عبد الله بن رواحه,32897,30.3671014,30.5159506
107,شارع عبد الله بن رواحه,32897,30.3669880,30.5161035
106,شارع عبد الرحمن بن عوف,32897,30.3668653,30.5159909
151,شارع جمال عبد الناصر,32897,30.3683649,30.5155617
152,شارع جمال عبد الناصر,32897,30.3683163,30.5156985
153,شارع جمال عبد الناصر,32897,30.3681914,30.5158406
154,شارع جمال عبد الناصر,32897,30.3680872,30.5159587
155,شارع جمال عبد الناصر,32897,30.3679785,30.5160928
156,شارع جمال عبد الناصر,32897,30.3678836,30.5162108
157,شارع جمال عبد الناصر,32897,30.3677632,30.5161491
158,شارع جمال عبد الناصر,32897,30.3676961,30.5163529
159,شارع جمال عبد الناصر,32897,30.3676151,30.5165112
160,شارع جمال عبد الناصر,32897,30.3675087,30.5166399
161,شارع عبد الرحمن بن عوف,32897,30.3673907,30.5165514
162,شارع عبد الرحمن بن عوف,32897,30.3672587,30.5163851
163,شارع عبد الرحمن بن عوف,32897,30.3671315,30.5162671
164,شارع عبد الله بن رواحه,32897,30.3672379,30.5161571
165,شارع عبد الله بن رواحه,32897,30.3674045,30.5159721
166,شارع عبد الله بن رواحه,32897,30.3675133,30.5158433
167,شارع عبد الله بن رواحه,32897,30.3676198,30.5157173
168,شارع عبد الله بن رواحه,32897,30.3677401,30.5155805
169,شارع عبد الله بن رواحه,32897,30.3679877,30.5155858
170,شارع عبد الله بن رواحه,32897,30.3678790,30.5154490
171,شارع عبد الله بن رواحه,32897,30.3679507,30.5153418
172,شارع عبد الله بن رواحه,32897,30.3680641,30.5151862
173,شارع عبد الله بن رواحه,32897,30.3681960,30.5150548
174,شارع عبد الله بن رواحه,32897,30.3683001,30.5151567
136,شارع عبد الله بن رواحه,32897,30.3681891,30.5148509
135,شارع عبد الله بن رواحه,32897,30.3680641,30.5147651
134,شارع عبد الله بن رواحه,32897,30.3679507,30.5146229
133,شارع عبد الله بن رواحه,32897,30.3678512,30.5145049
132,شارع عبد الله بن رواحه,32897,30.3676938,30.5143118
131,شارع عبد الله بن رواحه,32897,30.3675550,30.5141804
130,شارع عبد الله بن رواحه,32897,30.3674439,30.5140436
129,شارع عبد الله بن رواحه,32897,30.3675203,30.5139148
124,شارع عبد الله بن رواحه,32897,30.3675732,30.5131572
123,شارع عبد الله بن رواحه,32897,30.3673189,30.5136842
122,شارع عبد الله بن رواحه,32897,30.3672194,30.5135581
121,شارع عبد الله بن رواحه,32897,30.3673004,30.5134240
120,شارع عبد الله بن رواحه,32897,30.3674045,30.5132818
119,شارع عبد الله بن رواحه,32897,30.3674994,30.5131477
125,شارع ابى بكر الصديق,32897,30.3676360,30.5133677
126,شارع ابى بكر الصديق,32897,30.3677540,30.5135152
127,شارع ابى بكر الصديق,32897,30.3678813,30.5136573
128,شارع ابى بكر الصديق,32897,30.3678026,30.5137861
137,شارع ابى بكر الصديق,32897,30.3678581,30.5141187
138,شارع ابى بكر الصديق,32897,30.3679646,30.5139765
139,شارع ابى بكر الصديق,32897,30.3680919,30.5140972
140,شارع ابى بكر الصديق,32897,30.3682053,30.5141965
141,شارع ابى بكر الصديق,32897,30.3682978,30.5143306
142,شارع ابى بكر الصديق,32897,30.3682145,30.5144325
143,شارع ابى بكر الصديق,32897,30.3684043,30.5145210
144,شارع ابى بكر الصديق,32897,30.3685269,30.5145907
145,شارع ابى بكر الصديق,32897,30.3686403,30.5147275
146,شارع ابى بكر الصديق,32897,30.3687583,30.5148670
150,شارع جمال عبد الناصر,32897,30.3685663,30.5153820
149,شارع جمال عبد الناصر,32897,30.3686843,30.5152318
148,شارع جمال عبد الناصر,32897,30.3687931,30.5151004
147,شارع ابى بكر الصديق,32897,30.3688602,30.5149743
48,شارع ابن النفيس,32897,30.3665483,30.5242440
50,شارع ابن النفيس,32897,30.3666524,30.5243728
52,شارع ابن النفيس,32897,30.3668815,30.5243057
54,شارع ابن النفيس,32897,30.3670088,30.5241823
46,شارع ابن النفيس,32897,30.3665089,30.5239114
44,شارع ابن النفيس,32897,30.3663979,30.5240375
42,شارع ابن النفيس,32897,30.3662150,30.5238819
40,شارع ابن النفيس,32897,30.3661201,30.5237827
38,شارع ابن النفيس,32897,30.3660114,30.5236512
14,شارع ابن النفيس,32897,30.3655832,30.5212104
16,شارع ابن النفيس,32897,30.3654421,30.5210549
18,شارع ابن النفيس,32897,30.3653125,30.5209744
20,شارع ابن النفيس,32897,30.3651667,30.5211300
22,شارع ابن النفيس,32897,30.3650579,30.5212775
6,شارع ابن النفيس,32897,30.3655254,30.5207732
8,شارع ابن النفيس,32897,30.3656388,30.5209208
10,شارع ابن النفيس,32897,30.3657823,30.5209878
12,شارع ابن النفيس,32897,30.3659026,30.5208322
4,شارع ابن النفيس,32897,30.3656573,30.5205345
2,شارع ابن النفيس,32897,30.3657846,30.5204165
88,شارع جمال عبد الناصر,32897,30.3655624,30.5195931
86,شارع جمال عبد الناصر,32897,30.3656851,30.5194509
84,شارع جمال عبد الناصر,32897,30.3658285,30.5193034
1,شارع ابن سينا,32897,30.3659674,30.5193731
3,شارع ابن سينا,32897,30.3660785,30.5195233
1,شارع ابن النفيس,32897,30.3659419,30.5197379
3,شارع ابن النفيس,32897,30.3658378,30.5198693
5,شارع ابن النفيس,32897,30.3657152,30.5200061
7,شارع ابن النفيس,32897,30.3655740,30.5199498
90,شارع جمال عبد الناصر,32897,30.3654328,30.5197889
102,شارع جمال عبد الناصر,32897,30.3645256,30.5204487
100,شارع جمال عبد الناصر,32897,30.3646274,30.5203441
92,شارع جمال عبد الناصر,32897,30.3652500,30.5199257
94,شارع جمال عبد الناصر,32897,30.3651435,30.5200544
9,شارع ابن النفيس,32897,30.3653842,30.5203682
11,شارع ابن النفيس,32897,30.3652754,30.5202609
96,شارع جمال عبد الناصر,32897,30.3649676,30.5202556
98,شارع جمال عبد الناصر,32897,30.3648635,30.5203843
13,شارع ابن النفيس,32897,30.3652477,30.5205908
15,شارع ابن النفيس,32897,30.3651505,30.5207089
17,شارع ابن النفيس,32897,30.3650533,30.5208054
19,شارع ابن النفيس,32897,30.3649700,30.5209288
21,شارع ابن النفيس,32897,30.3647941,30.5210790
23,شارع ابن النفيس,32897,30.3646946,30.5209529
104,شارع جمال عبد الناصر,32897,30.3645256,30.5207759
106,شارع جمال عبد الناصر,32897,30.3644354,30.5206686
110,شارع جمال عبد الناصر,32897,30.3639609,30.5204836
108,شارع جمال عبد الناصر,32897,30.3640743,30.5206123
25,شارع ابن النفيس,32897,30.3639956,30.5208564
27,شارع ابن النفيس,32897,30.3641067,30.5209771
2,طريق عز,32897,30.3636277,30.5210200
4,طريق عز,32897,30.3637573,30.5211648
29,شارع ابن النفيس,32897,30.3640072,30.5213258
31,شارع ابن النفيس,32897,30.3640928,30.5214223
6,طريق عز,32897,30.3636624,30.5214840
8,طريق عز,32897,30.3637804,30.5216396
33,شارع ابن النفيس,32897,30.3641160,30.5217254
35,شارع ابن النفيس,32897,30.3640188,30.5218407
10,طريق عز,32897,30.3638313,30.5219588
12,طريق عز,32897,30.3639216,30.5220661
14,طريق عز,32897,30.3640327,30.5222967
16,طريق عز,32897,30.3641414,30.5221868
37,شارع ابن النفيس,32897,30.3645071,30.5224684
39,شارع ابن النفيس,32897,30.3646413,30.5225971
41,شارع ابن النفيس,32897,30.3648056,30.5227903
43,شارع ابن النفيس,32897,30.3647200,30.5228814
18,طريق عز,32897,30.3645117,30.5230182
20,طريق عز,32897,30.3646413,30.5231363
51,شارع ابن النفيس,32897,30.3655485,30.5235708
49,شارع ابن النفيس,32897,30.3654467,30.5234367
45,شارع ابن النفيس,32897,30.3652361,30.5232704
47,شارع ابن النفيس,32897,30.3651528,30.5233911
22,طريق عز,32897,30.3649653,30.5235332
24,طريق عز,32897,30.3650301,30.5236137
26,طريق عز,32897,30.3652106,30.5237210
28,طريق عز,32897,30.3653426,30.5239034
53,شارع ابن النفيس,32897,30.3656851,30.5237719
30,شارع ابن النفيس,32897,30.3655902,30.5238792
55,شارع ابن النفيس,32897,30.3658795,30.5239329
57,شارع ابن النفيس,32897,30.3659836,30.5240482
59,شارع ابن النفيس,32897,30.3661294,30.5242789
61,شارع ابن النفيس,32897,30.3660461,30.5243888
32,طريق عز,32897,30.3656295,30.5241877
34,طريق عز,32897,30.3657591,30.5243593
36,طريق عز,32897,30.3658262,30.5245337
38,طريق عز,32897,30.3659558,30.5246383
40,طريق عز,32897,30.3661595,30.5248797
42,طريق عز,32897,30.3662544,30.5250031
65,شارع ابن النفيس,32897,30.3664557,30.5248797
63,شارع ابن النفيس,32897,30.3665483,30.5247429
71,شارع ابن النفيس,32897,30.3669857,30.5247804
69,شارع ابن النفيس,32897,30.3668561,30.5249414
67,شارع ابن النفيس,32897,30.3667404,30.5250782
44,طريق عز,32897,30.3664951,30.5252579
46,طريق عز,32897,30.3666223,30.5254269
48,طريق عز,32897,30.3667427,30.5255502
87,شارع أحمد إسماعيل على,32897,30.3669139,30.5255449
85,شارع أحمد إسماعيل على,32897,30.3670343,30.5254000
83,شارع أحمد إسماعيل على,32897,30.3670296,30.5252176
81,شارع أحمد إسماعيل على,32897,30.3672749,30.5250809
79,شارع أحمد إسماعيل على,32897,30.3673768,30.5249655
77,شارع أحمد إسماعيل على,32897,30.3675156,30.5248046
49,طريق عز,32897,30.3674069,30.5244800
73,شارع ابن النفيس,32897,30.3672518,30.5244988
3,شارع جمال عبد الناصر,32897,30.3604246,30.5206338
2,شارع جمال عبد الناصر,32897,30.3602973,30.5204970
1,شارع جمال عبد الناصر,32897,30.3601654,30.5206391
5,شارع عباس العقاد,32897,30.3602487,30.5210093
4,شارع عباس العقاد,32897,30.3601122,30.5209127
7,شارع عباس العقاد,32897,30.3602418,30.5214062
6,شارع عباس العقاد,32897,30.3601238,30.5215001
11,شارع جمال عبد الناصر,32897,30.3606746,30.5208108
12,شارع جمال عبد الناصر,32897,30.3607949,30.5206954
13,شارع جمال عبد الناصر,32897,30.3609384,30.5208108
19,شارع جمال عبد الناصر,32897,30.3612185,30.5208081
20,شارع جمال عبد الناصر,32897,30.3613504,30.5207035
21,شارع جمال عبد الناصر,32897,30.3615054,30.5208188
27,شارع جمال عبد الناصر,32897,30.3617670,30.5205989
28,شارع جمال عبد الناصر,32897,30.3618942,30.5204809
29,شارع جمال عبد الناصر,32897,30.3620308,30.5206043
54,طريق عز,32897,30.3632180,30.5222538
56,طريق عز,32897,30.3633685,30.5224416
58,طريق عز,32897,30.3634657,30.5225623
60,طريق عز,32897,30.3635490,30.5226722
62,طريق عز,32897,30.3636369,30.5227715
64,طريق عز,32897,30.3637202,30.5228520
68,طريق عز,32897,30.3639378,30.5230585
66,طريق عز,32897,30.3638128,30.5229753
70,طريق عز,32897,30.3640442,30.5232060
72,طريق عز,32897,30.3641692,30.5232784
74,طريق عز,32897,30.3642479,30.5233777
98,طريق عز,32897,30.3656596,30.5251238
111,طريق عز,32897,30.3664858,30.5260035
110,طريق عز,32897,30.3663747,30.5258614
109,طريق عز,32897,30.3662868,30.5257514
108,طريق عز,32897,30.3661826,30.5256173
107,طريق عز,32897,30.3660970,30.5255342
106,طريق عز,32897,30.3660137,30.5254188
105,طريق عز,32897,30.3658864,30.5252606
109,شارع أحمد إسماعيل على,32897,30.3663423,30.5261752
111,شارع أحمد إسماعيل على,32897,30.3662451,30.5262583
113,شارع أحمد إسماعيل على,32897,30.3661525,30.5263576
115,شارع أحمد إسماعيل على,32897,30.3659466,30.5263683
117,شارع أحمد إسماعيل على,32897,30.3658586,30.5264541
119,شارع أحمد إسماعيل على,32897,30.3657522,30.5265695
121,شارع أحمد إسماعيل على,32897,30.3656365,30.5266794
123,شارع أحمد إسماعيل على,32897,30.3654606,30.5267626
125,شارع أحمد إسماعيل على,32897,30.3653298,30.5267747
127,شارع أحمد إسماعيل على,32897,30.3650672,30.5268820
129,شارع أحمد إسماعيل على,32897,30.3649538,30.5269852
143,شارع أحمد إسماعيل على,32897,30.3642236,30.5277161
131,شارع أحمد إسماعيل على,32897,30.3648253,30.5270523
133,شارع أحمد إسماعيل على,32897,30.3647165,30.5271596
135,شارع أحمد إسماعيل على,32897,30.3646112,30.5272709
137,شارع أحمد إسماعيل على,32897,30.3645036,30.5273795
139,شارع أحمد إسماعيل على,32897,30.3644064,30.5275016
141,شارع أحمد إسماعيل على,32897,30.3643127,30.5275927
472,شارع الشامي,32897,30.3609080,30.5285437
470,شارع الشامي,32897,30.3610264,30.5283815
468,شارع الشامي,32897,30.3610943,30.5282993
444,شارع الشامي,32897,30.3620377,30.5271569
446,شارع الشامي,32897,30.3619720,30.5272365
448,شارع الشامي,32897,30.3618905,30.5273352
332,شارع الشامي,32897,30.3609824,30.5278409
462,شارع الشامي,32897,30.3613296,30.5280144
460,شارع الشامي,32897,30.3613896,30.5279417
466,شارع الشامي,32897,30.3611759,30.5282004
464,شارع الشامي,32897,30.3612520,30.5281083
458,شارع الشامي,32897,30.3614801,30.5278322
456,شارع الشامي,32897,30.3615425,30.5277565
454,شارع الشامي,32897,30.3616714,30.5276005
452,شارع الشامي,32897,30.3617370,30.5275210
450,شارع الشامي,32897,30.3618171,30.5274241
395,شارع الشامي,32897,30.3626950,30.5285972
418,شارع الشامي,32897,30.3611768,30.5290961
6,شارع الشامي,32897,30.3621974,30.5291739
375,شارع أحمد إسماعيل على,32897,30.3630144,30.5291471
368,شارع الشامي,32897,30.3626140,30.5292571
1,شارع عباس العقاد,32897,30.3634981,30.5323255
2,شارع عباس العقاد,32897,30.3638151,30.5323899
3,شارع عباس العقاد,32897,30.3640651,30.5326715
4,شارع عباس العقاد,32897,30.3641553,30.5330524
5,شارع عباس العقاد,32897,30.3644724,30.5331141
6,شارع عباس العقاد,32897,30.3646969,30.5333823
7,شارع عباس العقاد,32897,30.3647709,30.5337900
47,شارع عباس العقاد,32897,30.3649977,30.5340716
48,شارع عباس العقاد,32897,30.3653032,30.5341306
49,شارع عباس العقاد,32897,30.3655624,30.5344069
50,شارع عباس العقاد,32897,30.3656480,30.5347878
1,شارع مساكن سوزان مبارك,32897,30.3656133,30.5336451
14,شارع جمال عبد الناصر,32897,30.3721555,30.5110663
16,شارع جمال عبد الناصر,32897,30.3725211,30.5106613
2,شارع مساكن سوزان مبارك,32897,30.3652801,30.5332804
3,شارع مساكن سوزان مبارك,32897,30.3650440,30.5330229
37,شارع مساكن سوزان مبارك,32897,30.3705796,30.5325615
33,شارع مساكن سوزان مبارك,32897,30.3703829,30.5327708
30,شارع مساكن سوزان مبارك,32897,30.3702001,30.5330148
27,شارع مساكن سوزان مبارك,32897,30.3699571,30.5333099
23,شارع مساكن سوزان مبارك,32897,30.3698044,30.5334949
13,شارع 200,32897,30.3706768,30.5338061
15,شارع 200,32897,30.3705055,30.5340019
16,شارع 200,32897,30.3702417,30.5341494
18,شارع 200,32897,30.3701376,30.5344391
19,شارع مساكن سوزان مبارك,32897,30.3698113,30.5342111
17,شارع مساكن سوزان مبارك,32897,30.3700080,30.5338088
14,شارع مساكن سوزان مبارك,32897,30.3703968,30.5336130
12,شارع مساكن سوزان مبارك,32897,30.3705472,30.5332482
11,شارع مساكن سوزان مبارك,32897,30.3707462,30.5329826
10,شارع 200,32897,30.3710285,30.5334306
9,شارع 200,32897,30.3712414,30.5331409
7,شارع مساكن سوزان مبارك,32897,30.3710146,30.5326661
8,شارع 200,32897,30.3714381,30.5329290
6,شارع مساكن سوزان مبارك,32897,30.3712137,30.5324516
42,شارع مساكن سوزان مبارك,32897,30.3710054,30.5319285
43,شارع مساكن سوزان مبارك,32897,30.3711836,30.5317354
46,شارع رابعة العدوية,32897,30.3708874,30.5311668
45,شارع رابعة العدوية,32897,30.3711165,30.5313143
44,شارع رابعة العدوية,32897,30.3713062,30.5315208
3,شارع رابعة العدوية,32897,30.3714590,30.5319473
2,شارع رابعة العدوية,32897,30.3717297,30.5320063
4,شارع 200,32897,30.3717968,30.5325240
1,شارع رابعة العدوية,32897,30.3718871,30.5322021
149,شارع عمر بن عبد العزيز,32897,30.3725558,30.5048677
159,شارع عمر بن عبد العزيز,32897,30.3708665,30.5044520
158,شارع عمر بن عبد العزيز,32897,30.3710031,30.5043501
157,شارع عمر بن عبد العزيز,32897,30.3711489,30.5042428
156,شارع عمر بن عبد العزيز,32897,30.3712854,30.5041730
155,شارع عمر بن عبد العزيز,32897,30.3715515,30.5041650
154,شارع عمر بن عبد العزيز,32897,30.3717135,30.5041918
150,شارع عمر بن عبد العزيز,32897,30.3724239,30.5047041
151,شارع عمر بن عبد العزيز,32897,30.3722990,30.5045754
152,شارع عمر بن عبد العزيز,32897,30.3720907,30.5043527
153,شارع عمر بن عبد العزيز,32897,30.3719287,30.5042294
181,شارع عمر بن عبد العزيز,32897,30.3681127,30.5076921
224,شارع ابى بكر الصديق,32897,30.3689180,30.5141965
228,شارع جمال عبد الناصر,32897,30.3698668,30.5139738
35,شارع حسن مرعي,32897,30.3721601,30.5126971
37,شارع حسن مرعي,32897,30.3719819,30.5128580
28,شارع جمال عبد الناصر,32897,30.3717829,30.5127507
26,شارع جمال عبد الناصر,32897,30.3718732,30.5125093
24,شارع جمال عبد الناصر,32897,30.3719912,30.5122519
22,شارع جمال عبد الناصر,32897,30.3721069,30.5120400
20,شارع جمال عبد الناصر,32897,30.3722249,30.5117905
33,شارع حسن مرعي,32897,30.3723268,30.5121660
31,شارع حسن مرعي,32897,30.3725073,30.5122599
20,شارع مصطفى فهمي,32897,30.3720329,30.5188259
18,شارع مصطفى فهمي,32897,30.3721046,30.5185845
16,شارع مصطفى فهمي,32897,30.3719565,30.5184370
24,شارع مصطفى فهمي,32897,30.3721023,30.5192739
22,شارع مصطفى فهمي,32897,30.3722365,30.5191290
26,شارع مصطفى فهمي,32897,30.3724679,30.5191880
43,شارع أحمد إسماعيل على,32897,30.3725836,30.5189252
41,شارع أحمد إسماعيل على,32897,30.3723615,30.5187589
39,شارع أحمد إسماعيل على,32897,30.3724795,30.5185738
37,شارع أحمد إسماعيل على,32897,30.3725674,30.5180964
35,شارع أحمد إسماعيل على,32897,30.3726739,30.5178523
8,شارع مصطفى فهمي,32897,30.3723962,30.5176136
6,شارع مصطفى فهمي,32897,30.3725605,30.5174392
33,شارع أحمد إسماعيل على,32897,30.3727803,30.5175734
31,شارع أحمد إسماعيل على,32897,30.3728960,30.5173427
19,شارع ابراهيم رفعت,32897,30.3710679,30.5173990
17,شارع ابراهيم رفعت,32897,30.3712067,30.5171844
100,شارع ابى بكر الصديق,32897,30.3713132,30.5200008
98,شارع ابى بكر الصديق,32897,30.3711466,30.5198666
5,شارع ابراهيم رفعت,32897,30.3711743,30.5143601
3,شارع عثمان محرم,32897,30.3711674,30.5134481
30,شارع جمال عبد الناصر,32897,30.3709614,30.5133328
32,شارع جمال عبد الناصر,32897,30.3708064,30.5135581
34,شارع جمال عبد الناصر,32897,30.3707022,30.5138317
36,شارع جمال عبد الناصر,32897,30.3708966,30.5139711
9,شارع ابراهيم رفعت,32897,30.3705703,30.5145612
7,شارع ابراهيم رفعت,32897,30.3706884,30.5143386
38,شارع جمال عبد الناصر,32897,30.3705287,30.5141643
40,شارع جمال عبد الناصر,32897,30.3703829,30.5140516
42,شارع جمال عبد الناصر,32897,30.3702209,30.5142555
44,شارع جمال عبد الناصر,32897,30.3701121,30.5144834
46,شارع جمال عبد الناصر,32897,30.3703135,30.5146390
48,شارع جمال عبد الناصر,32897,30.3698483,30.5146551
50,شارع جمال عبد الناصر,32897,30.3697072,30.5148348
56,شارع ابى بكر الصديق,32897,30.3695822,30.5150440
58,شارع ابى بكر الصديق,32897,30.3697951,30.5152130
60,شارع ابى بكر الصديق,32897,30.3700335,30.5153310
62,شارع ابى بكر الصديق,32897,30.3701191,30.5150682
64,شارع ابى بكر الصديق,32897,30.3704037,30.5152827
66,شارع ابى بكر الصديق,32897,30.3702788,30.5155000
68,شارع ابى بكر الصديق,32897,30.3701677,30.5157602
70,شارع ابى بكر الصديق,32897,30.3703806,30.5159265
72,شارع ابى بكر الصديق,32897,30.3705981,30.5160525
13,شارع ابراهيم رفعت,32897,30.3709591,30.5159694
11,شارع ابراهيم رفعت,32897,30.3707809,30.5157897
74,شارع ابى بكر الصديق,32897,30.3708943,30.5164844
76,شارع ابى بكر الصديق,32897,30.3708087,30.5167150
15,شارع ابراهيم رفعت,32897,30.3711442,30.5166051
78,شارع ابى بكر الصديق,32897,30.3710540,30.5168143
80,شارع ابى بكر الصديق,32897,30.3709475,30.5170959
84,شارع ابى بكر الصديق,32897,30.3708573,30.5178979
82,شارع ابى بكر الصديق,32897,30.3709846,30.5176860
1,شارع مصطفى فهمي,32897,30.3714983,30.5174875
3,شارع مصطفى فهمي,32897,30.3713433,30.5176699
5,شارع مصطفى فهمي,32897,30.3715238,30.5178657
7,شارع مصطفى فهمي,32897,30.3714081,30.5180910
9,شارع مصطفى فهمي,32897,30.3712993,30.5183780
86,شارع ابى بكر الصديق,32897,30.3707902,30.5184585
88,شارع ابى بكر الصديق,32897,30.3710308,30.5185577
102,شارع ابى بكر الصديق,32897,30.3714798,30.5198532
96,شارع ابى بكر الصديق,32897,30.3712229,30.5196279
94,شارع ابى بكر الصديق,32897,30.3710586,30.5194965
92,شارع ابى بكر الصديق,32897,30.3708249,30.5192873
90,شارع ابى بكر الصديق,32897,30.3709175,30.5188179
11,شارع مصطفى فهمي,32897,30.3714775,30.5191344
13,شارع مصطفى فهمي,32897,30.3713803,30.5193973
15,شارع مصطفى فهمي,32897,30.3716094,30.5195394
17,شارع مصطفى فهمي,32897,30.3718385,30.5197915
19,شارع مصطفى فهمي,32897,30.3720838,30.5199015
49,شارع أحمد إسماعيل على,32897,30.3719727,30.5201858
51,شارع أحمد إسماعيل على,32897,30.3721648,30.5202985
104,شارع ابى بكر الصديق,32897,30.3715909,30.5202341
106,شارع ابى بكر الصديق,32897,30.3714867,30.5204728
108,شارع ابى بكر الصديق,32897,30.3717228,30.5206177
112,شارع ابى بكر الصديق,32897,30.3719449,30.5209690
110,شارع ابى بكر الصديق,32897,30.3720236,30.5207142
55,شارع أحمد إسماعيل على,32897,30.3722527,30.5208269
53,شارع أحمد إسماعيل على,32897,30.3723846,30.5206043
47,شارع أحمد إسماعيل على,32897,30.3725443,30.5201966
45,شارع أحمد إسماعيل على,32897,30.3723499,30.5200008
21,شارع مصطفى فهمي,32897,30.3724887,30.5197969
16,شارع جابر بن حيان,32897,30.3700705,30.5196950
14,شارع جابر بن حيان,32897,30.3699525,30.5195555
71,شارع أحمد إسماعيل على,32897,30.3688856,30.5231926
73,شارع أحمد إسماعيل على,32897,30.3687815,30.5233186
75,شارع أحمد إسماعيل على,32897,30.3686403,30.5234769
16,شارع ابن سينا,32897,30.3684899,30.5234903
14,شارع ابن سينا,32897,30.3683580,30.5233186
12,شارع ابن سينا,32897,30.3683395,30.5231631
44,شارع جابر بن حيان,32897,30.3685940,30.5228546
42,شارع جابر بن حيان,32897,30.3687051,30.5227044
40,شارع جابر بن حيان,32897,30.3688648,30.5226964
38,شارع جابر بن حيان,32897,30.3690060,30.5228573
69,شارع أحمد إسماعيل على,32897,30.3691170,30.5229941
36,شارع جابر بن حيان,32897,30.3709661,30.5214867
34,شارع جابر بن حيان,32897,30.3711095,30.5213311
143,شارع ابى بكر الصديق,32897,30.3709661,30.5206472
145,شارع ابى بكر الصديق,32897,30.3710818,30.5207732
32,شارع جابر بن حيان,32897,30.3707948,30.5210763
30,شارع جابر بن حيان,32897,30.3706860,30.5209449
28,شارع جابر بن حيان,32897,30.3705565,30.5208081
26,شارع جابر بن حيان,32897,30.3704546,30.5206713
139,شارع ابى بكر الصديق,32897,30.3708041,30.5204219
141,شارع ابى بكر الصديق,32897,30.3706722,30.5205882
137,شارع ابى بكر الصديق,32897,30.3706490,30.5201697
135,شارع ابى بكر الصديق,32897,30.3705171,30.5200222
24,شارع جابر بن حيان,32897,30.3702811,30.5204138
22,شارع جابر بن حيان,32897,30.3701330,30.5202717
20,شارع جابر بن حيان,32897,30.3699825,30.5201456
18,شارع جابر بن حيان,32897,30.3698715,30.5200276
6,شارع جابر بن حيان,32897,30.3695220,30.5195796
8,شارع جابر بن حيان,32897,30.3696678,30.5194133
10,شارع جابر بن حيان,32897,30.3698044,30.5193168
12,شارع جابر بن حيان,32897,30.3698969,30.5192068
129,شارع ابى بكر الصديق,32897,30.3702973,30.5193946
127,شارع ابى بكر الصديق,32897,30.3701908,30.5192524
125,شارع ابى بكر الصديق,32897,30.3702487,30.5189171
2,شارع الحسن بن الهيثم,32897,30.3701052,30.5187884
4,شارع الحسن بن الهيثم,32897,30.3698576,30.5188903
6,شارع الحسن بن الهيثم,32897,30.3697650,30.5187696
8,شارع الحسن بن الهيثم,32897,30.3695012,30.5187643
10,شارع الحسن بن الهيثم,32897,30.3693577,30.5188903
2,شارع جابر بن حيان,32897,30.3691680,30.5191290
4,شارع جابر بن حيان,32897,30.3692952,30.5192873
10,شارع عباس بن فرناس,32897,30.3679414,30.5188662
8,شارع عباس بن فرناس,32897,30.3680687,30.5187133
6,شارع عباس بن فرناس,32897,30.3679924,30.5185685
4,شارع عباس بن فرناس,32897,30.3678535,30.5184075
2,شارع عباس بن فرناس,32897,30.3677285,30.5182734
12,شارع عباس بن فرناس,32897,30.3674994,30.5184880
14,شارع عباس بن فرناس,32897,30.3673814,30.5186221
16,شارع عباس بن فرناس,32897,30.3674439,30.5187938
18,شارع عباس بن فرناس,32897,30.3675665,30.5189413
24,شارع عباس بن فرناس,32897,30.3675017,30.5193973
22,شارع عباس بن فرناس,32897,30.3675966,30.5192658
20,شارع عباس بن فرناس,32897,30.3677193,30.5191424
25,شارع الحسن بن الهيثم,32897,30.3678720,30.5197754
23,شارع الحسن بن الهيثم,32897,30.3678905,30.5195904
21,شارع الحسن بن الهيثم,32897,30.3680849,30.5193248
19,شارع الحسن بن الهيثم,32897,30.3682631,30.5193222
15,شارع الحسن بن الهيثم,32897,30.3684992,30.5190352
17,شارع الحسن بن الهيثم,32897,30.3685246,30.5188662
13,شارع الحسن بن الهيثم,32897,30.3687468,30.5186248
11,شارع الحسن بن الهيثم,32897,30.3688972,30.5185899
9,شارع الحسن بن الهيثم,32897,30.3691587,30.5181849
7,شارع الحسن بن الهيثم,32897,30.3693531,30.5181339
5,شارع الحسن بن الهيثم,32897,30.3695128,30.5180964
3,شارع الحسن بن الهيثم,32897,30.3699085,30.5182412
1,شارع الحسن بن الهيثم,32897,30.3700635,30.5182600
123,شارع ابى بكر الصديق,32897,30.3701121,30.5180883
1,شارع عباس بن فرناس,32897,30.3700080,30.5177557
121,شارع ابى بكر الصديق,32897,30.3701792,30.5177557
119,شارع ابى بكر الصديق,32897,30.3702209,30.5175894
3,شارع عباس بن فرناس,32897,30.3699363,30.5172434
117,شارع ابى بكر الصديق,32897,30.3701330,30.5172247
115,شارع ابى بكر الصديق,32897,30.3701538,30.5170503
5,شارع عباس بن فرناس,32897,30.3699224,30.5168170
113,شارع ابى بكر الصديق,32897,30.3699432,30.5166158
109,شارع ابى بكر الصديق,32897,30.3697812,30.5162135
111,شارع ابى بكر الصديق,32897,30.3697673,30.5163798
7,شارع عباس بن فرناس,32897,30.3696146,30.5163959
9,شارع عباس بن فرناس,32897,30.3694133,30.5161250
107,شارع ابى بكر الصديق,32897,30.3694410,30.5159238
105,شارع ابى بكر الصديق,32897,30.3693924,30.5156341
103,شارع ابى بكر الصديق,32897,30.3692119,30.5156234
52,شارع جمال عبد الناصر,32897,30.3689504,30.5156690
54,شارع جمال عبد الناصر,32897,30.3689458,30.5159157
11,شارع عباس بن فرناس,32897,30.3691726,30.5161679
13,شارع عباس بن فرناس,32897,30.3689990,30.5161518
15,شارع عباس بن فرناس,32897,30.3686380,30.5164897
56,شارع جمال عبد الناصر,32897,30.3686334,30.5162510
58,شارع جمال عبد الناصر,32897,30.3684899,30.5162483
17,شارع عباس بن فرناس,32897,30.3683649,30.5165353
60,شارع جمال عبد الناصر,32897,30.3682099,30.5165327
62,شارع جمال عبد الناصر,32897,30.3680317,30.5167446
21,شارع عباس بن فرناس,32897,30.3680271,30.5169886
19,شارع عباس بن فرناس,32897,30.3681821,30.5169913
25,شارع عباس بن فرناس,32897,30.3678790,30.5174527
23,شارع عباس بن فرناس,32897,30.3678790,30.5172059
64,شارع جمال عبد الناصر,32897,30.3677262,30.5171737
66,شارع جمال عبد الناصر,32897,30.3674994,30.5174285
27,شارع عباس بن فرناس,32897,30.3676568,30.5176699
29,شارع عباس بن فرناس,32897,30.3674925,30.5176404
68,شارع جمال عبد الناصر,32897,30.3672472,30.5176216
70,شارع جمال عبد الناصر,32897,30.3671500,30.5177584
31,شارع عباس بن فرناس,32897,30.3671731,30.5181554
72,شارع جمال عبد الناصر,32897,30.3670667,30.5180132
74,شارع جمال عبد الناصر,32897,30.3668075,30.5181259
76,شارع جمال عبد الناصر,32897,30.3667242,30.5182439
33,شارع عباس بن فرناس,32897,30.3670458,30.5183780
35,شارع عباس بن فرناس,32897,30.3669301,30.5185148
27,شارع الحسن بن الهيثم,32897,30.3676336,30.5201536
29,شارع الحسن بن الهيثم,32897,30.3675295,30.5202770
31,شارع الحسن بن الهيثم,32897,30.3674207,30.5203950
10,شارع ابن سينا,32897,30.3672125,30.5201429
47,شارع عباس بن فرناس,32897,30.3672564,30.5197325
49,شارع عباس بن فرناس,32897,30.3671407,30.5198586
8,شارع ابن سينا,32897,30.3668838,30.5197540
43,شارع عباس بن فرناس,32897,30.3668977,30.5193034
45,شارع عباس بن فرناس,32897,30.3667890,30.5194375
6,شارع ابن سينا,32897,30.3665251,30.5193248
41,شارع عباس بن فرناس,32897,30.3666640,30.5189359
39,شارع عباس بن فرناس,32897,30.3667843,30.5187911
37,شارع عباس بن فرناس,32897,30.3666709,30.5185926
78,شارع جمال عبد الناصر,32897,30.3665830,30.5184746
80,شارع جمال عبد الناصر,32897,30.3663516,30.5186382
82,شارع جمال عبد الناصر,32897,30.3662613,30.5187669
4,شارع ابن سينا,32897,30.3662104,30.5190861
2,شارع ابن سينا,32897,30.3661225,30.5189815
124,شارع جمال عبد الناصر,32897,30.3797339,30.5022633
123,شارع جمال عبد الناصر,32897,30.3796020,30.5024001
122,شارع جمال عبد الناصر,32897,30.3794539,30.5025315
121,شارع جمال عبد الناصر,32897,30.3792133,30.5028266
120,شارع جمال عبد الناصر,32897,30.3790698,30.5030009
119,شارع جمال عبد الناصر,32897,30.3789819,30.5031162
118,شارع جمال عبد الناصر,32897,30.3788453,30.5032369
142,شارع جمال عبد الناصر,32897,30.3805076,30.5013266
141,شارع جمال عبد الناصر,32897,30.3804135,30.5014278
140,شارع جمال عبد الناصر,32897,30.3803241,30.5015613
139,شارع جمال عبد الناصر,32897,30.3802323,30.5016786
138,شارع جمال عبد الناصر,32897,30.3801406,30.5017960
137,شارع جمال عبد الناصر,32897,30.3800257,30.5019670
143,شارع جمال عبد الناصر,32897,30.3805993,30.5012092
192,شارع جمال عبد الناصر,32897,30.3819668,30.4995570
191,شارع جمال عبد الناصر,32897,30.3818650,30.4996535
190,شارع جمال عبد الناصر,32897,30.3817632,30.4997501
193,شارع جمال عبد الناصر,32897,30.3820686,30.4994604
189,شارع جمال عبد الناصر,32897,30.3816614,30.4998466
327,شارع نجيب الريحانى,32897,30.3797748,30.4941547
326,شارع نجيب الريحانى,32897,30.3798920,30.4942805
325,شارع نجيب الريحانى,32897,30.3800093,30.4944062
324,شارع نجيب الريحانى,32897,30.3801265,30.4945320
323,شارع نجيب الريحانى,32897,30.3802437,30.4946578
322,شارع نجيب الريحانى,32897,30.3803610,30.4947835
321,شارع نجيب الريحانى,32897,30.3804782,30.4949093
320,شارع نجيب الريحانى,32897,30.3805954,30.4950350
328,شارع نجيب الريحانى,32897,30.3796575,30.4940289
319,شارع نجيب الريحانى,32897,30.3807127,30.4951608
317,شارع نجيب الريحانى,32897,30.3809578,30.4954952
316,شارع نجيب الريحانى,32897,30.3811025,30.4956465
315,شارع نجيب الريحانى,32897,30.3812060,30.4957512
314,شارع نجيب الريحانى,32897,30.3813049,30.4959015
313,شارع نجيب الريحانى,32897,30.3814066,30.4959979
312,شارع نجيب الريحانى,32897,30.3814996,30.4960949
311,شارع نجيب الريحانى,32897,30.3816056,30.4962057
310,شارع نجيب الريحانى,32897,30.3817019,30.4963091
318,شارع نجيب الريحانى,32897,30.3808908,30.4954210
309,شارع نجيب الريحانى,32897,30.3817771,30.4964040
264,شارع نجيب الريحانى,32897,30.3821696,30.4967918
263,شارع نجيب الريحانى,32897,30.3822636,30.4969208
262,شارع نجيب الريحانى,32897,30.3823646,30.4970391
261,شارع نجيب الريحانى,32897,30.3824563,30.4971520
260,شارع نجيب الريحانى,32897,30.3825457,30.4972622
259,شارع نجيب الريحانى,32897,30.3826605,30.4973858
258,شارع نجيب الريحانى,32897,30.3827407,30.4974800
257,شارع نجيب الريحانى,32897,30.3828486,30.4976063
256,شارع نجيب الريحانى,32897,30.3829426,30.4977165
255,شارع نجيب الريحانى,32897,30.3830366,30.4978267
265,شارع نجيب الريحانى,32897,30.3820871,30.4966977
254,شارع نجيب الريحانى,32897,30.3831307,30.4979369
252,شارع جمال عبد الناصر,32897,30.3831931,30.4981242
251,شارع جمال عبد الناصر,32897,30.3830890,30.4982525
250,شارع جمال عبد الناصر,32897,30.3829618,30.4984237
249,شارع جمال عبد الناصر,32897,30.3828484,30.4985332
248,شارع جمال عبد الناصر,32897,30.3827767,30.4986374
253,شارع جمال عبد الناصر,32897,30.3832973,30.4979959
247,شارع جمال عبد الناصر,32897,30.3826725,30.4987657
132,شارع جمال عبد الناصر,32897,30.3732724,30.5106829
134,شارع جمال عبد الناصر,32897,30.3731508,30.5108320
136,شارع جمال عبد الناصر,32897,30.3730137,30.5110001
138,شارع جمال عبد الناصر,32897,30.3729158,30.5111202
140,شارع جمال عبد الناصر,32897,30.3727761,30.5112915
142,شارع جمال عبد الناصر,32897,30.3726600,30.5114338
122,شارع جمال عبد الناصر,32897,30.3739420,30.5098620
124,شارع جمال عبد الناصر,32897,30.3738323,30.5099965
126,شارع جمال عبد الناصر,32897,30.3736781,30.5101855
128,شارع جمال عبد الناصر,32897,30.3735364,30.5103593
130,شارع جمال عبد الناصر,32897,30.3734285,30.5104915
91,شارع مراد فهمي,32897,30.3743793,30.5133998
90,شارع مراد فهمي,32897,30.3742914,30.5135018
89,شارع مراد فهمي,32897,30.3741896,30.5136386
88,شارع مراد فهمي,32897,30.3740762,30.5137700
87,شارع مراد فهمي,32897,30.3739292,30.5139229
86,شارع مراد فهمي,32897,30.3738043,30.5140878
85,شارع مراد فهمي,32897,30.3736793,30.5142501
84,شارع مراد فهمي,32897,30.3735879,30.5143815
83,شارع مراد فهمي,32897,30.3735405,30.5145156
82,شارع مراد فهمي,32897,30.3735023,30.5146806
81,شارع مراد فهمي,32897,30.3735058,30.5149113
80,شارع عبد الرحمن حماد,32897,30.3737025,30.5149274
79,شارع عبد الرحمن حماد,32897,30.3739339,30.5146497
78,شارع عبد الرحمن حماد,32897,30.3742810,30.5146457
77,شارع عبد الرحمن حماد,32897,30.3744279,30.5148911
76,شارع عبد الرحمن حماد,32897,30.3745691,30.5149233
75,شارع عبد الرحمن حماد,32897,30.3747218,30.5149046
65,شارع عبد الرحمن حماد,32897,30.3747218,30.5153364
64,شارع عبد الرحمن حماد,32897,30.3748907,30.5153337
63,شارع عبد الرحمن حماد,32897,30.3750712,30.5153123
62,شارع عبد الرحمن حماد,32897,30.3752726,30.5152559
61,شارع عبد الرحمن حماد,32897,30.3754276,30.5151406
74,شارع مراد فهمي,32897,30.3738216,30.5160928
73,شارع مراد فهمي,32897,30.3737221,30.5159238
72,شارع مراد فهمي,32897,30.3736273,30.5158085
71,شارع مراد فهمي,32897,30.3735231,30.5156207
70,شارع مراد فهمي,32897,30.3735023,30.5153391
69,شارع عبد الرحمن حماد,32897,30.3736712,30.5153391
68,شارع عبد الرحمن حماد,32897,30.3738494,30.5153498
67,شارع عبد الرحمن حماد,32897,30.3740091,30.5153498
66,شارع عبد الرحمن حماد,32897,30.3741965,30.5153525
15,شارع أحمد إسماعيل على,32897,30.3762120,30.5156073
14,شارع أحمد إسماعيل على,32897,30.3760755,30.5156073
13,شارع أحمد إسماعيل على,32897,30.3759089,30.5156046
12,شارع أحمد إسماعيل على,32897,30.3757192,30.5156100
11,شارع أحمد إسماعيل على,32897,30.3755803,30.5155939
10,شارع أحمد إسماعيل على,32897,30.3754322,30.5155858
9,شارع أحمد إسماعيل على,32897,30.3752656,30.5156019
8,شارع أحمد إسماعيل على,32897,30.3750782,30.5156341
7,شارع أحمد إسماعيل على,32897,30.3748676,30.5156448
6,شارع أحمد إسماعيل على,32897,30.3747264,30.5156904
5,شارع أحمد إسماعيل على,32897,30.3745645,30.5157387
4,شارع أحمد إسماعيل على,32897,30.3744071,30.5158353
3,شارع أحمد إسماعيل على,32897,30.3742451,30.5159694
2,شارع أحمد إسماعيل على,32897,30.3741271,30.5160794
1,شارع أحمد إسماعيل على,32897,30.3739651,30.5162135
16,شارع أحمد إسماعيل على,32897,30.3763301,30.5152613
17,شارع أحمد إسماعيل على,32897,30.3767258,30.5152640
60,شارع عبد الرحمن حماد,32897,30.3762560,30.5146685
59,شارع عبد الرحمن حماد,32897,30.3761519,30.5145451
58,شارع عبد الرحمن حماد,32897,30.3760200,30.5144513
57,شارع عبد الرحمن حماد,32897,30.3761426,30.5142581
56,شارع عبد الرحمن حماد,32897,30.3762120,30.5140784
55,شارع عبد الرحمن حماد,32897,30.3762190,30.5138665
54,شارع عبد الرحمن حماد,32897,30.3761357,30.5136332
53,شارع عبد الرحمن حماد,32897,30.3759158,30.5133301
52,شارع عبد الرحمن حماد,32897,30.3762051,30.5132309
51,شارع عبد الرحمن حماد,32897,30.3759228,30.5127856
50,شارع عبد الرحمن حماد,32897,30.3756150,30.5129519
49,شارع عبد الرحمن حماد,32897,30.3754947,30.5127937
48,شارع عبد الرحمن حماد,32897,30.3753744,30.5126703
47,شارع مراد فهمي,32897,30.3751569,30.5125147
46,شارع مراد فهمي,32897,30.3752749,30.5123779
45,شارع مراد فهمي,32897,30.3753859,30.5122545
44,شارع مراد فهمي,32897,30.3755294,30.5121231
20,شارع أحمد إسماعيل على,32897,30.3771804,30.5155751
19,شارع أحمد إسماعيل على,32897,30.3769884,30.5155778
18,شارع أحمد إسماعيل على,32897,30.3768495,30.5155845
145,شارع مساكن سوزان مبارك,32897,30.3680965,30.5359223
143,شارع مساكن سوزان مبارك,32897,30.3670782,30.5355334
144,شارع مساكن سوزان مبارك,32897,30.3672356,30.5355173
142,شارع مساكن سوزان مبارك,32897,30.3662706,30.5351204
141,شارع مساكن سوزان مبارك,32897,30.3660947,30.5349246
140,شارع عباس العقاد,32897,30.3659396,30.5351633
139,شارع عباس العقاد,32897,30.3660715,30.5353269
138,شارع عباس العقاد,32897,30.3662150,30.5354932
137,شارع عباس العقاد,32897,30.3663400,30.5356514
136,شارع عباس العقاد,32897,30.3664765,30.5357882
135,شارع عباس العقاد,32897,30.3665946,30.5359411
134,شارع عباس العقاد,32897,30.3667334,30.5360940
133,شارع عباس العقاد,32897,30.3669394,30.5363193
132,شارع عباس العقاد,32897,30.3670551,30.5364588
131,شارع عباس العقاد,32897,30.3672101,30.5366224
130,شارع عباس العقاد,32897,30.3673120,30.5367511
129,شارع عباس العقاد,32897,30.3674786,30.5369255
128,شارع عباس العقاد,32897,30.3676059,30.5370703
127,شارع عباس العقاد,32897,30.3677656,30.5372393
165,شارع مساكن سوزان مبارك,32897,30.3663955,30.5346537
164,شارع مساكن سوزان مبارك,32897,30.3666061,30.5348870
163,شارع مساكن سوزان مبارك,32897,30.3667126,30.5349809
162,شارع مساكن سوزان مبارك,32897,30.3668792,30.5350855
161,شارع مساكن سوزان مبارك,32897,30.3675191,30.5350989
160,شارع مساكن سوزان مبارك,32897,30.3676730,30.5350801
159,شارع مساكن سوزان مبارك,32897,30.3678408,30.5351083
158,شارع مساكن سوزان مبارك,32897,30.3679947,30.5350962
157,شارع مساكن سوزان مبارك,32897,30.3681358,30.5350774
156,شارع مساكن سوزان مبارك,32897,30.3683233,30.5350292
155,شارع مساكن سوزان مبارك,32897,30.3685015,30.5349380
154,شارع مساكن سوزان مبارك,32897,30.3694734,30.5344874
153,شارع مساكن سوزان مبارك,32897,30.3693600,30.5346671
152,شارع مساكن سوزان مبارك,32897,30.3692328,30.5347905
151,شارع مساكن سوزان مبارك,32897,30.3690985,30.5349085
150,شارع مساكن سوزان مبارك,32897,30.3690060,30.5350399
149,شارع مساكن سوزان مبارك,32897,30.3688903,30.5351767
148,شارع مساكن سوزان مبارك,32897,30.3687537,30.5353108
146,شارع مساكن سوزان مبارك,32897,30.3682515,30.5355737
147,شارع مساكن سوزان مبارك,32897,30.3684066,30.5355495
126,شارع 200,32897,30.3679762,30.5368745
125,شارع 200,32897,30.3681196,30.5367270
124,شارع 200,32897,30.3682191,30.5366009
123,شارع 200,32897,30.3683256,30.5364963
122,شارع 200,32897,30.3684621,30.5363569
121,شارع 200,32897,30.3685755,30.5362201
120,شارع 200,32897,30.3687792,30.5359277
119,شارع 200,32897,30.3688833,30.5358231
118,شارع 200,32897,30.3690083,30.5356890
117,شارع 200,32897,30.3691194,30.5355522
116,شارع 200,32897,30.3692304,30.5354208
115,شارع 200,32897,30.3693947,30.5352142
114,شارع 200,32897,30.3695151,30.5350909
113,شارع 200,32897,30.3696215,30.5349621
112,شارع 200,32897,30.3697372,30.5348334
45,شارع طلعت حرب,32897,30.3663631,30.5297372
44,شارع طلعت حرب,32897,30.3664904,30.5296057
43,شارع طلعت حرب,32897,30.3666246,30.5294609
42,شارع طلعت حرب,32897,30.3667427,30.5293161
41,شارع طلعت حرب,32897,30.3668607,30.5291954
40,شارع طلعت حرب,32897,30.3669672,30.5290720
39,شارع طلعت حرب,32897,30.3670944,30.5289191
38,شارع طلعت حرب,32897,30.3671939,30.5287662
21,شارع رابعة العدوية,32897,30.3680826,30.5278248
20,شارع رابعة العدوية,32897,30.3681983,30.5279723
19,شارع رابعة العدوية,32897,30.3683094,30.5281037
18,شارع رابعة العدوية,32897,30.3684274,30.5282271
17,شارع رابعة العدوية,32897,30.3685478,30.5283585
16,شارع رابعة العدوية,32897,30.3686542,30.5284899
15,شارع رابعة العدوية,32897,30.3687653,30.5286321
14,شارع رابعة العدوية,32897,30.3688810,30.5287528
13,شارع رابعة العدوية,32897,30.3689944,30.5288789
12,شارع رابعة العدوية,32897,30.3691032,30.5290076
11,شارع رابعة العدوية,32897,30.3692166,30.5291498
10,شارع رابعة العدوية,32897,30.3694757,30.5294502
9,شارع رابعة العدوية,32897,30.3695984,30.5295789
8,شارع رابعة العدوية,32897,30.3697002,30.5297130
7,شارع رابعة العدوية,32897,30.3698159,30.5298471
6,شارع رابعة العدوية,32897,30.3699386,30.5299678
5,شارع رابعة العدوية,32897,30.3700543,30.5300993
4,شارع رابعة العدوية,32897,30.3701654,30.5302495
3,شارع رابعة العدوية,32897,30.3702973,30.5303755
2,شارع رابعة العدوية,32897,30.3704153,30.5305123
1,شارع رابعة العدوية,32897,30.3705333,30.5306330
680,شارع 200,32897,30.3814578,30.5220373
678,شارع 200,32897,30.3815341,30.5219496
676,شارع 200,32897,30.3816105,30.5218618
674,شارع 200,32897,30.3816868,30.5217741
672,شارع 200,32897,30.3817632,30.5216863
670,شارع 200,32897,30.3818395,30.5215986
682,شارع 200,32897,30.3813814,30.5221251
668,شارع 200,32897,30.3819275,30.5214894
266,شارع 200,32897,30.3806812,30.5229115
264,شارع 200,32897,30.3805826,30.5230247
262,شارع 200,32897,30.3804841,30.5231379
260,شارع 200,32897,30.3803855,30.5232511
268,شارع 200,32897,30.3807798,30.5227983
258,شارع 200,32897,30.3802869,30.5233642
254,شارع 200,32897,30.3799472,30.5237414
252,شارع 200,32897,30.3798551,30.5238556
250,شارع 200,32897,30.3797631,30.5239699
248,شارع 200,32897,30.3796710,30.5240841
256,شارع 200,32897,30.3800393,30.5236271
246,شارع 200,32897,30.3795789,30.5241984
130,شارع ابى بكر الصديق,32897,30.3816256,30.5289966
128,شارع ابى بكر الصديق,32897,30.3815274,30.5288863
126,شارع ابى بكر الصديق,32897,30.3814292,30.5287760
124,شارع ابى بكر الصديق,32897,30.3813310,30.5286658
122,شارع ابى بكر الصديق,32897,30.3812328,30.5285555
120,شارع ابى بكر الصديق,32897,30.3811346,30.5284452
118,شارع ابى بكر الصديق,32897,30.3810364,30.5283350
116,شارع ابى بكر الصديق,32897,30.3809382,30.5282247
132,شارع ابى بكر الصديق,32897,30.3817238,30.5291069
114,شارع ابى بكر الصديق,32897,30.3808399,30.5281144
110,شارع ابى بكر الصديق,32897,30.3805246,30.5277424
108,شارع ابى بكر الصديق,32897,30.3804267,30.5276305
106,شارع ابى بكر الصديق,32897,30.3803289,30.5275186
104,شارع ابى بكر الصديق,32897,30.3802311,30.5274067
102,شارع ابى بكر الصديق,32897,30.3801332,30.5272948
100,شارع ابى بكر الصديق,32897,30.3800354,30.5271829
112,شارع ابى بكر الصديق,32897,30.3806224,30.5278543
98,شارع ابى بكر الصديق,32897,30.3799375,30.5270711
94,شارع ابى بكر الصديق,32897,30.3796354,30.5267113
92,شارع ابى بكر الصديق,32897,30.3795393,30.5265984
90,شارع ابى بكر الصديق,32897,30.3794431,30.5264854
88,شارع ابى بكر الصديق,32897,30.3793470,30.5263725
86,شارع ابى بكر الصديق,32897,30.3792508,30.5262595
84,شارع ابى بكر الصديق,32897,30.3791546,30.5261466
82,شارع ابى بكر الصديق,32897,30.3790585,30.5260336
80,شارع ابى بكر الصديق,32897,30.3789623,30.5259207
96,شارع ابى بكر الصديق,32897,30.3797316,30.5268243
78,شارع ابى بكر الصديق,32897,30.3788662,30.5258077
17,شارع 200,32897,30.3792490,30.5245578
15,شارع 200,32897,30.3791528,30.5246705
13,شارع 200,32897,30.3790567,30.5247831
11,شارع 200,32897,30.3789605,30.5248958
9,شارع 200,32897,30.3788644,30.5250084
7,شارع 200,32897,30.3787682,30.5251211
5,شارع 200,32897,30.3786721,30.5252337
3,شارع 200,32897,30.3785759,30.5253464
19,شارع 200,32897,30.3793452,30.5244452
1,شارع 200,32897,30.3784797,30.5254590
868,شارع 200,32897,30.3929177,30.5093175
867,شارع 200,32897,30.3927512,30.5093309
865,شارع 200,32897,30.3926146,30.5094597
864,شارع 200,32897,30.3924666,30.5095589
861,شارع 200,32897,30.3923046,30.5097494
860,شارع 200,32897,30.3922213,30.5098566
857,شارع 200,32897,30.3920709,30.5100042
856,شارع 200,32897,30.3919622,30.5101517
804,شارع 200,32897,30.3916591,30.5105138
803,شارع 200,32897,30.3915365,30.5106479
800,شارع 200,32897,30.3914416,30.5108356
799,شارع 200,32897,30.3912913,30.5109563
796,شارع 200,32897,30.3911709,30.5111119
795,شارع 200,32897,30.3910067,30.5112997
792,شارع 200,32897,30.3908540,30.5114230
791,شارع 200,32897,30.3907128,30.5115491
789,شارع 200,32897,30.3906550,30.5117235
788,شارع 200,32897,30.3906087,30.5119112
525,شارع 200,32897,30.3881298,30.5145408
522,شارع 200,32897,30.3882213,30.5144063
521,شارع 200,32897,30.3883775,30.5142743
518,شارع 200,32897,30.3885091,30.5141113
517,شارع 200,32897,30.3886163,30.5139716
514,شارع 200,32897,30.3888774,30.5136690
513,شارع 200,32897,30.3890246,30.5135163
510,شارع 200,32897,30.3891585,30.5133714
509,شارع 200,32897,30.3892679,30.5132550
455,شارع طه حسين,32897,30.3915078,30.5182306
452,شارع طه حسين,32897,30.3913471,30.5182512
451,شارع طه حسين,32897,30.3911318,30.5182086
448,شارع طه حسين,32897,30.3909388,30.5182357
447,شارع طه حسين,32897,30.3907870,30.5182254
444,شارع طه حسين,32897,30.3905393,30.5182176
442,شارع طه حسين,32897,30.3903385,30.5181452
441,شارع طه حسين,32897,30.3900595,30.5180313
439,شارع طه حسين,32897,30.3898944,30.5178942
438,شارع طه حسين,32897,30.3897002,30.5177545
435,شارع طه حسين,32897,30.3895775,30.5176097
434,شارع طه حسين,32897,30.3894503,30.5174725
431,شارع طه حسين,32897,30.3892941,30.5172940
430,شارع طه حسين,32897,30.3892004,30.5172009
427,شارع طه حسين,32897,30.3890731,30.5170638
426,شارع طه حسين,32897,30.3888991,30.5169008
423,شارع طه حسين,32897,30.3886804,30.5166292
422,شارع طه حسين,32897,30.3885309,30.5164895
419,شارع طه حسين,32897,30.3884081,30.5163368
418,شارع طه حسين,32897,30.3882899,30.5161946
415,شارع طه حسين,32897,30.3881671,30.5160574
414,شارع طه حسين,32897,30.3880198,30.5159229
411,شارع طه حسين,32897,30.3878591,30.5157780
410,شارع طه حسين,32897,30.3877431,30.5156513
408,شارع طه حسين,32897,30.3876137,30.5154728
634,شارع طه حسين,32897,30.3947100,30.5202045
631,شارع طه حسين,32897,30.3945739,30.5201036
630,شارع طه حسين,32897,30.3944512,30.5199302
627,شارع طه حسين,32897,30.3943173,30.5197879
626,شارع طه حسين,32897,30.3941767,30.5196638
623,شارع طه حسين,32897,30.3940718,30.5195060
622,شارع طه حسين,32897,30.3939201,30.5193611
619,شارع طه حسين,32897,30.3938241,30.5192240
618,شارع طه حسين,32897,30.3936768,30.5191024
616,شارع طه حسين,32897,30.3935073,30.5189006
613,شارع طه حسين,32897,30.3933466,30.5187531
611,شارع طه حسين,32897,30.3931502,30.5185643
608,شارع طه حسين,32897,30.3929695,30.5185100
606,شارع طه حسين,32897,30.3927619,30.5183599
603,شارع طه حسين,32897,30.3925633,30.5182952
600,شارع طه حسين,32897,30.3922978,30.5183159
599,شارع طه حسين,32897,30.3921036,30.5182435
596,شارع طه حسين,32897,30.3918961,30.5182047
221,شارع ابى بكر الصديق,32897,30.3907406,30.5392671
218,شارع ابى بكر الصديق,32897,30.3906851,30.5390444
216,شارع ابى بكر الصديق,32897,30.3905578,30.5388942
214,شارع ابى بكر الصديق,32897,30.3904203,30.5387452
212,شارع ابى بكر الصديق,32897,30.3902828,30.5385962
210,شارع ابى بكر الصديق,32897,30.3901637,30.5384713
208,شارع ابى بكر الصديق,32897,30.3900216,30.5383116
206,شارع ابى بكر الصديق,32897,30.3898701,30.5381492
204,شارع ابى بكر الصديق,32897,30.3897326,30.5380002
202,شارع ابى بكر الصديق,32897,30.3895951,30.5378512
200,شارع ابى بكر الصديق,32897,30.3894575,30.5377021
198,شارع ابى بكر الصديق,32897,30.3893200,30.5375531
169,شارع ابى بكر الصديق,32897,30.3889567,30.5372259
168,شارع ابى بكر الصديق,32897,30.3888239,30.5370726
167,شارع ابى بكر الصديق,32897,30.3886910,30.5369194
166,شارع ابى بكر الصديق,32897,30.3885561,30.5367685
165,شارع ابى بكر الصديق,32897,30.3884213,30.5366175
164,شارع ابى بكر الصديق,32897,30.3882865,30.5364667
163,شارع ابى بكر الصديق,32897,30.3881516,30.5363158
162,شارع ابى بكر الصديق,32897,30.3880636,30.5362174
161,شارع ابى بكر الصديق,32897,30.3879503,30.5360484
176,شارع 400,32897,30.3819570,30.5426084
174,شارع 400,32897,30.3820392,30.5425118
172,شارع 400,32897,30.3820983,30.5424423
170,شارع 400,32897,30.3821857,30.5423395
168,شارع 400,32897,30.3822395,30.5422762
166,شارع 400,32897,30.3823269,30.5421734
164,شارع 400,32897,30.3824281,30.5420544
162,شارع 400,32897,30.3824914,30.5419800
178,شارع 400,32897,30.3818766,30.5427030
160,شارع 400,32897,30.3825665,30.5418917
156,شارع 400,32897,30.3827551,30.5416699
154,شارع 400,32897,30.3828446,30.5415645
152,شارع 400,32897,30.3829109,30.5414866
150,شارع 400,32897,30.3829821,30.5414029
148,شارع 400,32897,30.3830554,30.5413166
146,شارع 400,32897,30.3831541,30.5412006
144,شارع 400,32897,30.3832436,30.5410953
158,شارع 400,32897,30.3826736,30.5417657
142,شارع 400,32897,30.3833491,30.5409712
777,شارع 400,32897,30.3836284,30.5406428
775,شارع 400,32897,30.3837065,30.5405510
773,شارع 400,32897,30.3837846,30.5404591
771,شارع 400,32897,30.3838627,30.5403673
779,شارع 400,32897,30.3835503,30.5407347
769,شارع 400,32897,30.3839408,30.5402754
765,شارع 400,32897,30.3842796,30.5398770
763,شارع 400,32897,30.3843554,30.5397878
761,شارع 400,32897,30.3844312,30.5396987
759,شارع 400,32897,30.3845070,30.5396095
767,شارع 400,32897,30.3842204,30.5399465
757,شارع 400,32897,30.3845828,30.5395204
647,شارع ابى بكر الصديق,32897,30.3877004,30.5366647
646,شارع ابى بكر الصديق,32897,30.3876229,30.5365744
645,شارع ابى بكر الصديق,32897,30.3875454,30.5364840
644,شارع ابى بكر الصديق,32897,30.3874679,30.5363936
648,شارع ابى بكر الصديق,32897,30.3877780,30.5367551
643,شارع ابى بكر الصديق,32897,30.3873904,30.5363032
639,شارع 400,32897,30.3871450,30.5365070
637,شارع 400,32897,30.3870686,30.5365968
635,شارع 400,32897,30.3869980,30.5366799
633,شارع 400,32897,30.3869205,30.5367710
641,شارع 400,32897,30.3872087,30.5364320
631,شارع 400,32897,30.3868556,30.5368473
627,شارع 400,32897,30.3865401,30.5372184
625,شارع 400,32897,30.3864646,30.5373072
623,شارع 400,32897,30.3863891,30.5373959
621,شارع 400,32897,30.3863136,30.5374847
619,شارع 400,32897,30.3862381,30.5375735
617,شارع 400,32897,30.3861626,30.5376623
615,شارع 400,32897,30.3860872,30.5377511
613,شارع 400,32897,30.3860117,30.5378398
611,شارع 400,32897,30.3859362,30.5379286
609,شارع 400,32897,30.3858607,30.5380174
629,شارع 400,32897,30.3866156,30.5371296
607,شارع 400,32897,30.3857852,30.5381062
603,شارع 400,32897,30.3855863,30.5383401
601,شارع 400,32897,30.3855092,30.5384308
599,شارع 400,32897,30.3854320,30.5385216
597,شارع 400,32897,30.3853549,30.5386123
595,شارع 400,32897,30.3852777,30.5387031
593,شارع 400,32897,30.3852005,30.5387938
591,شارع 400,32897,30.3851234,30.5388845
589,شارع 400,32897,30.3850462,30.5389753
587,شارع 400,32897,30.3849691,30.5390660
585,شارع 400,32897,30.3848919,30.5391568
605,شارع 400,32897,30.3856635,30.5382493
583,شارع 400,32897,30.3848148,30.5392475
662,شارع ابى بكر الصديق,32897,30.3883755,30.5374518
660,شارع ابى بكر الصديق,32897,30.3883017,30.5373657
658,شارع ابى بكر الصديق,32897,30.3882279,30.5372797
656,شارع ابى بكر الصديق,32897,30.3881541,30.5371936
654,شارع ابى بكر الصديق,32897,30.3880802,30.5371075
652,شارع ابى بكر الصديق,32897,30.3880064,30.5370214
650,شارع ابى بكر الصديق,32897,30.3879326,30.5369354
664,شارع ابى بكر الصديق,32897,30.3884494,30.5375379
486,شارع ابى بكر الصديق,32897,30.3887731,30.5379153
484,شارع ابى بكر الصديق,32897,30.3888471,30.5380016
482,شارع ابى بكر الصديق,32897,30.3889211,30.5380879
480,شارع ابى بكر الصديق,32897,30.3889951,30.5381741
478,شارع ابى بكر الصديق,32897,30.3890691,30.5382604
476,شارع ابى بكر الصديق,32897,30.3891431,30.5383466
488,شارع ابى بكر الصديق,32897,30.3886991,30.5378291
474,شارع ابى بكر الصديق,32897,30.3892170,30.5384329
588,شارع محمد صالح,32897,30.3874118,30.5480204
721,شارع محمد صالح,32897,30.3867712,30.5481829
584,شارع محمد صالح,32897,30.3875365,30.5478642
719,شارع محمد صالح,32897,30.3868326,30.5481069
711,شارع محمد صالح,32897,30.3870978,30.5477785
733,شارع محمد صالح,32897,30.3863793,30.5486682
594,شارع محمد صالح,32897,30.3872053,30.5482793
592,شارع محمد صالح,32897,30.3872766,30.5481899
707,شارع محمد صالح,32897,30.3872284,30.5476168
713,شارع محمد صالح,32897,30.3870403,30.5478497
727,شارع محمد صالح,32897,30.3865646,30.5484386
731,شارع محمد صالح,32897,30.3864295,30.5486060
723,شارع محمد صالح,32897,30.3866946,30.5482777
590,شارع محمد صالح,32897,30.3873378,30.5481132
586,شارع محمد صالح,32897,30.3874703,30.5479472
580,شارع محمد صالح,32897,30.3876690,30.5476981
582,شارع محمد صالح,32897,30.3876028,30.5477811
715,شارع محمد صالح,32897,30.3869671,30.5479403
729,شارع محمد صالح,32897,30.3865099,30.5485064
725,شارع محمد صالح,32897,30.3866405,30.5483447
709,شارع محمد صالح,32897,30.3871721,30.5476865
578,شارع محمد صالح,32897,30.3877340,30.5476168
717,شارع محمد صالح,32897,30.3869096,30.5480115
552,شارع ظاظا,32897,30.3866319,30.5563374
546,شارع ظاظا,32897,30.3868316,30.5560986
563,شارع ظاظا,32897,30.3869220,30.5564982
532,شارع ظاظا,32897,30.3875119,30.5552638
559,شارع ظاظا,32897,30.3872180,30.5561364
534,شارع ظاظا,32897,30.3872484,30.5555927
526,شارع ظاظا,32897,30.3877203,30.5550107
544,شارع ظاظا,32897,30.3869059,30.5560064
558,شارع ظاظا,32897,30.3872862,30.5560577
562,شارع ظاظا,32897,30.3870018,30.5564021
530,شارع ظاظا,32897,30.3875789,30.5551824
536,شارع ظاظا,32897,30.3871892,30.5556633
538,شارع ظاظا,32897,30.3871288,30.5557408
548,شارع ظاظا,32897,30.3867689,30.5561719
550,شارع ظاظا,32897,30.3866923,30.5562627
554,شارع ظاظا,32897,30.3865634,30.5564202
560,شارع ظاظا,32897,30.3871348,30.5562420
528,شارع ظاظا,32897,30.3876538,30.5550914
524,شارع ظاظا,32897,30.3877867,30.5549301
522,شارع ظاظا,32897,30.3878531,30.5548494
402,شارع طه حسين,32897,30.3866252,30.5145898
396,شارع طه حسين,32897,30.3862578,30.5140744
405,شارع طه حسين,32897,30.3867916,30.5147320
401,شارع طه حسين,32897,30.3864976,30.5144508
399,شارع طه حسين,32897,30.3863648,30.5142672
395,شارع طه حسين,32897,30.3861682,30.5138571
391,شارع 200,32897,30.3873753,30.5140566
387,شارع 200,32897,30.3876207,30.5137876
383,شارع 200,32897,30.3878965,30.5134850
379,شارع 200,32897,30.3883050,30.5130371
375,شارع 200,32897,30.3885496,30.5127688
371,شارع 200,32897,30.3888179,30.5124450
392,شارع 200,32897,30.3872307,30.5142152
388,شارع 200,32897,30.3875138,30.5139048
384,شارع 200,32897,30.3877636,30.5136308
380,شارع 200,32897,30.3881720,30.5131829
376,شارع 200,32897,30.3884338,30.5128958
372,شارع 200,32897,30.3886884,30.5126166
328,شارع طه حسين,32897,30.3859581,30.5135179
326,شارع طه حسين,32897,30.3858771,30.5133262
324,شارع طه حسين,32897,30.3858010,30.5131463
322,شارع طه حسين,32897,30.3857185,30.5129513
320,شارع طه حسين,32897,30.3856310,30.5127445
318,شارع طه حسين,32897,30.3855444,30.5125400
316,شارع طه حسين,32897,30.3854551,30.5123289
314,شارع طه حسين,32897,30.3853658,30.5121177
312,شارع طه حسين,32897,30.3852733,30.5118817
311,شارع طه حسين,32897,30.3852177,30.5116832
309,شارع طه حسين,32897,30.3851483,30.5114043
307,شارع طه حسين,32897,30.3851437,30.5111575
89,شارع 200,32897,30.3901113,30.5110046
85,شارع 200,32897,30.3903649,30.5107215
81,شارع 200,32897,30.3906322,30.5104232
77,شارع 200,32897,30.3908811,30.5101454
71,شارع 200,32897,30.3914356,30.5095265
67,شارع 200,32897,30.3917059,30.5092248
88,شارع 200,32897,30.3902300,30.5108722
84,شارع 200,32897,30.3904979,30.5105731
80,شارع 200,32897,30.3907610,30.5102794
76,شارع 200,32897,30.3910308,30.5099783
74,شارع 200,32897,30.3913228,30.5096525
70,شارع 200,32897,30.3915715,30.5093748
66,شارع 200,32897,30.3918512,30.5090627
64,شارع 200,32897,30.3919784,30.5088857
62,شارع 200,32897,30.3920594,30.5086470
414,شارع 200,32897,30.3751291,30.5286455
413,شارع 200,32897,30.3752425,30.5285382
411,شارع 200,32897,30.3753469,30.5284150
409,شارع 200,32897,30.3754352,30.5283109
407,شارع 200,32897,30.3755292,30.5282000
405,شارع 200,32897,30.3756243,30.5280878
403,شارع 200,32897,30.3757543,30.5279345
401,شارع 200,32897,30.3758472,30.5278249
399,شارع 200,32897,30.3759401,30.5277154
397,شارع 200,32897,30.3760374,30.5276005
395,شارع 200,32897,30.3761361,30.5274841
393,شارع 200,32897,30.3762267,30.5273773
391,شارع 200,32897,30.3763289,30.5272568
389,شارع 200,32897,30.3764172,30.5271526
387,شارع 200,32897,30.3765089,30.5270444
385,شارع 200,32897,30.3766133,30.5269213
383,شارع 200,32897,30.3767727,30.5267333
381,شارع 200,32897,30.3768597,30.5266306
379,شارع 200,32897,30.3769538,30.5265196
377,شارع 200,32897,30.3770537,30.5264018
375,شارع 200,32897,30.3771397,30.5263003
373,شارع 200,32897,30.3772384,30.5261840
371,شارع 200,32897,30.3773368,30.5260678
369,شارع 200,32897,30.3774308,30.5259570
367,شارع 200,32897,30.3775213,30.5258502
365,شارع 200,32897,30.3776200,30.5257338
363,شارع 200,32897,30.3777588,30.5255701
362,شارع ابى بكر الصديق,32897,30.3778689,30.5254403
361,شارع ابى بكر الصديق,32897,30.3777549,30.5253041
360,شارع ابى بكر الصديق,32897,30.3776661,30.5251980
359,شارع ابى بكر الصديق,32897,30.3775657,30.5250782
354,شارع ابى بكر الصديق,32897,30.3770245,30.5246887
357,شارع ابى بكر الصديق,32897,30.3773416,30.5248979
355,شارع ابى بكر الصديق,32897,30.3771921,30.5247852
353,شارع ابى بكر الصديق,32897,30.3768641,30.5246213
351,شارع ابى بكر الصديق,32897,30.3766961,30.5245737
349,شارع ابى بكر الصديق,32897,30.3765198,30.5245498
347,شارع ابى بكر الصديق,32897,30.3762929,30.5245463
345,شارع ابى بكر الصديق,32897,30.3761379,30.5245440
343,شارع ابى بكر الصديق,32897,30.3759644,30.5245413
341,شارع ابى بكر الصديق,32897,30.3758093,30.5245389
339,شارع ابى بكر الصديق,32897,30.3756405,30.5245364
335,شارع ابى بكر الصديق,32897,30.3752989,30.5244969
333,شارع ابى بكر الصديق,32897,30.3751361,30.5245085
331,شارع ابى بكر الصديق,32897,30.3749434,30.5245002
329,شارع ابى بكر الصديق,32897,30.3747785,30.5244739
327,شارع ابى بكر الصديق,32897,30.3746164,30.5244301
325,شارع ابى بكر الصديق,32897,30.3744475,30.5243643
323,شارع ابى بكر الصديق,32897,30.3742806,30.5242769
321,شارع ابى بكر الصديق,32897,30.3741402,30.5241837
319,شارع ابى بكر الصديق,32897,30.3739849,30.5240558
317,شارع ابى بكر الصديق,32897,30.3738687,30.5239394
315,شارع ابى بكر الصديق,32897,30.3736388,30.5237102
313,شارع ابى بكر الصديق,32897,30.3735139,30.5235922
311,شارع طلعت حرب,32897,30.3733380,30.5234528
309,شارع طلعت حرب,32897,30.3731022,30.5237239
307,شارع طلعت حرب,32897,30.3728338,30.5240325
305,شارع طلعت حرب,32897,30.3727165,30.5241673
303,شارع طلعت حرب,32897,30.3726004,30.5243008
301,شارع طلعت حرب,32897,30.3724772,30.5244425
310,شارع طلعت حرب,32897,30.3732137,30.5235957
308,شارع طلعت حرب,32897,30.3729884,30.5238547
295,شارع طلعت حرب,32897,30.3722596,30.5247188
293,شارع طلعت حرب,32897,30.3721578,30.5248609
291,شارع طلعت حرب,32897,30.3720653,30.5249630
289,شارع طلعت حرب,32897,30.3719634,30.5250755
287,شارع طلعت حرب,32897,30.3718176,30.5252498
285,شارع طلعت حرب,32897,30.3716725,30.5253588
283,شارع طلعت حرب,32897,30.3715232,30.5254710
281,شارع طلعت حرب,32897,30.3713641,30.5255905
279,شارع طلعت حرب,32897,30.3711558,30.5256683
277,شارع طلعت حرب,32897,30.3710050,30.5257290
275,شارع طلعت حرب,32897,30.3708530,30.5257903
273,شارع طلعت حرب,32897,30.3706857,30.5258578
271,شارع طلعت حرب,32897,30.3705351,30.5259184
269,شارع طلعت حرب,32897,30.3703490,30.5259935
267,شارع طلعت حرب,32897,30.3701866,30.5260589
265,شارع طلعت حرب,32897,30.3700338,30.5261205
263,شارع طلعت حرب,32897,30.3698715,30.5261859
261,شارع طلعت حرب,32897,30.3697210,30.5262342
259,شارع طلعت حرب,32897,30.3695741,30.5263055
257,شارع طلعت حرب,32897,30.3694225,30.5263790
255,شارع طلعت حرب,32897,30.3691437,30.5265622
253,شارع طلعت حرب,32897,30.3690006,30.5266884
251,شارع طلعت حرب,32897,30.3688752,30.5268339
256,شارع طلعت حرب,32897,30.3692898,30.5264657
109,شارع 200,32897,30.3748745,30.5289352
107,شارع 200,32897,30.3747728,30.5290533
105,شارع 200,32897,30.3746745,30.5291673
103,شارع 200,32897,30.3745773,30.5292800
101,شارع 200,32897,30.3744767,30.5293967
99,شارع 200,32897,30.3743877,30.5295000
97,شارع 200,32897,30.3742894,30.5296141
95,شارع 200,32897,30.3741922,30.5297268
93,شارع 200,32897,30.3741009,30.5298328
91,شارع 200,32897,30.3739413,30.5300179
89,شارع 200,32897,30.3738175,30.5301615
87,شارع 200,32897,30.3737065,30.5302903
85,شارع 200,32897,30.3736036,30.5304097
83,شارع 200,32897,30.3735041,30.5305251
81,شارع 200,32897,30.3733746,30.5306754
79,شارع 200,32897,30.3732786,30.5307868
77,شارع 200,32897,30.3731837,30.5308968
75,شارع 200,32897,30.3730854,30.5310108
73,شارع 200,32897,30.3729906,30.5311208
71,شارع 200,32897,30.3728877,30.5312402
69,شارع 200,32897,30.3728021,30.5313395
67,شارع 200,32897,30.3727073,30.5314496
65,شارع 200,32897,30.3726066,30.5315663
63,شارع 200,32897,30.3725118,30.5316763
60,شارع رابعة العدوية,32897,30.3721283,30.5316247
62,شارع 200,32897,30.3723429,30.5318722
61,شارع رابعة العدوية,32897,30.3722246,30.5317358
59,شارع رابعة العدوية,32897,30.3720332,30.5315151
58,شارع رابعة العدوية,32897,30.3719357,30.5314027
57,شارع رابعة العدوية,32897,30.3718000,30.5312462
55,شارع رابعة العدوية,32897,30.3716886,30.5311178
53,شارع رابعة العدوية,32897,30.3715750,30.5309868
51,شارع رابعة العدوية,32897,30.3714670,30.5308624
49,شارع رابعة العدوية,32897,30.3713058,30.5306764
47,شارع رابعة العدوية,32897,30.3711921,30.5305454
45,شارع رابعة العدوية,32897,30.3710680,30.5304023
43,شارع رابعة العدوية,32897,30.3709555,30.5302726
41,شارع رابعة العدوية,32897,30.3708313,30.5301294
39,شارع رابعة العدوية,32897,30.3707327,30.5300158
37,شارع رابعة العدوية,32897,30.3706156,30.5298807
33,شارع رابعة العدوية,32897,30.3704500,30.5297506
31,شارع رابعة العدوية,32897,30.3701909,30.5293911
29,شارع رابعة العدوية,32897,30.3700703,30.5292520
27,شارع رابعة العدوية,32897,30.3699543,30.5291183
25,شارع رابعة العدوية,32897,30.3698255,30.5289698
23,شارع رابعة العدوية,32897,30.3697210,30.5288494
21,شارع رابعة العدوية,32897,30.3696097,30.5287210
19,شارع رابعة العدوية,32897,30.3694995,30.5285939
17,شارع رابعة العدوية,32897,30.3693893,30.5284669
15,شارع رابعة العدوية,32897,30.3692292,30.5282823
13,شارع رابعة العدوية,32897,30.3691120,30.5281472
11,شارع رابعة العدوية,32897,30.3689936,30.5280107
9,شارع رابعة العدوية,32897,30.3688823,30.5278824
7,شارع رابعة العدوية,32897,30.3687755,30.5277593
5,شارع رابعة العدوية,32897,30.3686560,30.5276215
3,شارع رابعة العدوية,32897,30.3685435,30.5274918
1,شارع رابعة العدوية,32897,30.3684135,30.5273420
25,شارع سقارة,32897,30.3712160,30.4920253
24,شارع سقارة,32897,30.3710748,30.4918402
23,شارع سقارة,32897,30.3709475,30.4916391
22,شارع سقارة,32897,30.3708226,30.4915291
21,شارع سقارة,32897,30.3707022,30.4913682
20,شارع سقارة,32897,30.3705912,30.4912475
19,شارع سقارة,32897,30.3704639,30.4910839
35,شارع كلابشه,32897,30.3712738,30.4922506
34,شارع كلابشه,32897,30.3711350,30.4922560
33,شارع كلابشه,32897,30.3709938,30.4922560
32,شارع كلابشه,32897,30.3708295,30.4922506
44,شارع كلابشه,32897,30.3703678,30.4921044
43,شارع كلابشه,32897,30.3702325,30.4919341
42,شارع كلابشه,32897,30.3701063,30.4918282
41,شارع كلابشه,32897,30.3699744,30.4916659
40,شارع كلابشه,32897,30.3704870,30.4922023
18,شارع سقارة,32897,30.3715758,30.4922479
16,شارع سقارة,32897,30.3714948,30.4917906
11,شارع سقارة,32897,30.3709290,30.4911281
15,شارع سقارة,32897,30.3713745,30.4916458
14,شارع سقارة,32897,30.3712785,30.4915224
13,شارع سقارة,32897,30.3711419,30.4913735
12,شارع سقارة,32897,30.3710262,30.4912502
10,شارع سقارة,32897,30.3708284,30.4910101
9,شارع سقارة,32897,30.3706814,30.4908384
585,شارع ذكى طليمات,32897,30.3750226,30.4937097
563,شارع ذكى طليمات,32897,30.3745853,30.4955015
561,شارع يوسف وهبى,32897,30.3744789,30.4956111
106,شارع يوسف وهبى,32897,30.3762028,30.4870498
102,شارع يوسف وهبى,32897,30.3764501,30.4873881
100,شارع يوسف وهبى,32897,30.3765562,30.4875037
98,شارع يوسف وهبى,32897,30.3766809,30.4876489
96,شارع يوسف وهبى,32897,30.3768033,30.4877727
94,شارع يوسف وهبى,32897,30.3769256,30.4879017
92,شارع يوسف وهبى,32897,30.3770595,30.4880657
90,شارع يوسف وهبى,32897,30.3771773,30.4881975
104,شارع يوسف وهبى,32897,30.3763393,30.4872697
88,شارع يوسف وهبى,32897,30.3772950,30.4883292
101,شارع اسماء فهمي,32897,30.3762840,30.4875829
99,شارع اسماء فهمي,32897,30.3764070,30.4877163
97,شارع اسماء فهمي,32897,30.3765218,30.4878417
95,شارع اسماء فهمي,32897,30.3766401,30.4879631
93,شارع اسماء فهمي,32897,30.3767666,30.4881140
91,شارع اسماء فهمي,32897,30.3769126,30.4882662
89,شارع اسماء فهمي,32897,30.3770355,30.4883983
103,شارع اسماء فهمي,32897,30.3761750,30.4874736
87,شارع اسماء فهمي,32897,30.3771585,30.4885304
86,شارع يوسف وهبى,32897,30.3773251,30.4885438
84,شارع ابو سمبل,32897,30.3776444,30.4888442
85,شارع يوسف وهبى,32897,30.3774850,30.4886942
80,شارع اسماء فهمي,32897,30.3771326,30.4890637
78,شارع اسماء فهمي,32897,30.3770189,30.4891974
76,شارع اسماء فهمي,32897,30.3769051,30.4893310
74,شارع اسماء فهمي,32897,30.3767913,30.4894647
72,شارع اسماء فهمي,32897,30.3766775,30.4895984
559,شارع يوسف وهبى,32897,30.3743562,30.4957375
584,شارع كلابشه,32897,30.3752702,30.4937312
674,شارع يوسف وهبى,32897,30.3732130,30.4973790
672,شارع يوسف وهبى,32897,30.3731089,30.4975265
670,شارع يوسف وهبى,32897,30.3729816,30.4976580
745,شارع انور وجدى,32897,30.3730395,30.4931760
744,شارع انور وجدى,32897,30.3730459,30.4930069
743,شارع انور وجدى,32897,30.3730534,30.4928085
742,شارع كلابشه,32897,30.3730603,30.4926261
740,شارع كلابشه,32897,30.3728451,30.4926610
738,شارع كلابشه,32897,30.3726694,30.4926583
736,شارع كلابشه,32897,30.3725053,30.4926558
732,شارع كلابشه,32897,30.3723221,30.4926529
727,شارع كلابشه,32897,30.3718061,30.4926610
726,شارع كلابشه,32897,30.3716277,30.4926665
725,شارع كلابشه,32897,30.3714568,30.4926717
724,شارع كلابشه,32897,30.3712808,30.4926771
723,شارع كلابشه,32897,30.3710865,30.4926831
722,شارع كلابشه,32897,30.3709337,30.4926878
718,شارع كلابشه,32897,30.3701677,30.4925001
721,شارع كلابشه,32897,30.3706745,30.4926905
720,شارع كلابشه,32897,30.3705194,30.4926637
717,شارع كلابشه,32897,30.3700473,30.4923391
716,شارع كلابشه,32897,30.3699409,30.4922211
715,شارع كلابشه,32897,30.3698298,30.4920521
714,شارع كلابشه,32897,30.3696956,30.4919234
712,شارع ذكى طليمات,32897,30.3720808,30.4976169
711,شارع ذكى طليمات,32897,30.3719488,30.4974465
710,شارع ذكى طليمات,32897,30.3718767,30.4972346
709,شارع ذكى طليمات,32897,30.3718198,30.4970161
708,شارع ذكى طليمات,32897,30.3717880,30.4967902
707,شارع ذكى طليمات,32897,30.3718563,30.4965752
706,شارع ذكى طليمات,32897,30.3719471,30.4963835
713,شارع ذكى طليمات,32897,30.3722550,30.4977250
705,شارع ذكى طليمات,32897,30.3721231,30.4962793
690,شارع ذكى طليمات,32897,30.3733033,30.4961774
689,شارع ذكى طليمات,32897,30.3734028,30.4963142
687,شارع انور وجدى,32897,30.3735532,30.4961023
688,شارع انور وجدى,32897,30.3734445,30.4959896
702,شارع ذكى طليمات,32897,30.3724548,30.4970361
700,شارع ذكى طليمات,32897,30.3725620,30.4969132
698,شارع ذكى طليمات,32897,30.3726808,30.4967661
696,شارع ذكى طليمات,32897,30.3727996,30.4966190
694,شارع ذكى طليمات,32897,30.3729184,30.4964720
704,شارع ذكى طليمات,32897,30.3723360,30.4971805
692,شارع ذكى طليمات,32897,30.3730372,30.4963249
701,شارع ذكى طليمات,32897,30.3725950,30.4971893
699,شارع ذكى طليمات,32897,30.3727082,30.4970585
697,شارع ذكى طليمات,32897,30.3728179,30.4969317
695,شارع ذكى طليمات,32897,30.3729392,30.4967916
693,شارع ذكى طليمات,32897,30.3730431,30.4966716
703,شارع ذكى طليمات,32897,30.3724749,30.4973280
691,شارع ذكى طليمات,32897,30.3731714,30.4965234
637,شارع انور وجدى,32897,30.3738101,30.4957965
635,شارع انور وجدى,32897,30.3736828,30.4956570
633,شارع انور وجدى,32897,30.3736088,30.4955149
631,شارع انور وجدى,32897,30.3735440,30.4953459
629,شارع انور وجدى,32897,30.3734815,30.4951581
627,شارع انور وجدى,32897,30.3734514,30.4949543
625,شارع انور وجدى,32897,30.3734236,30.4947531
623,شارع انور وجدى,32897,30.3734097,30.4945573
621,شارع انور وجدى,32897,30.3734190,30.4943857
619,شارع انور وجدى,32897,30.3734097,30.4942086
617,شارع انور وجدى,32897,30.3734097,30.4940048
615,شارع انور وجدى,32897,30.3734028,30.4938117
613,شارع انور وجدى,32897,30.3734121,30.4936400
611,شارع انور وجدى,32897,30.3734074,30.4933825
609,شارع انور وجدى,32897,30.3734121,30.4932082
607,شارع انور وجدى,32897,30.3734121,30.4930043
605,شارع انور وجدى,32897,30.3734097,30.4928032
603,شارع انور وجدى,32897,30.3734097,30.4926637
450,شارع الخنساء,32897,30.3764659,30.4929421
318,شارع نجيب الريحانى,32897,30.3721069,30.4892492
316,شارع نجيب الريحانى,32897,30.3722319,30.4891017
314,شارع نجيب الريحانى,32897,30.3723499,30.4889502
313,شارع نجيب الريحانى,32897,30.3726044,30.4888335
312,شارع نجيب الريحانى,32897,30.3727711,30.4887503
310,شارع نجيب الريحانى,32897,30.3729585,30.4887342
341,شارع الكرنك,32897,30.3733570,30.4906634
339,شارع الكرنك,32897,30.3732037,30.4906437
337,شارع الكرنك,32897,30.3729858,30.4906118
335,شارع الكرنك,32897,30.3728086,30.4905341
343,شارع الكرنك,32897,30.3735370,30.4906708
333,شارع الكرنك,32897,30.3726160,30.4903516
329,شارع الكرنك,32897,30.3723203,30.4900185
327,شارع الكرنك,32897,30.3722097,30.4898892
325,شارع الكرنك,32897,30.3720990,30.4897599
323,شارع الكرنك,32897,30.3719884,30.4896306
331,شارع الكرنك,32897,30.3724309,30.4901478
321,شارع الكرنك,32897,30.3718778,30.4895014
328,شارع يوسف وهبى,32897,30.3721833,30.4902457
320,شارع يوسف وهبى,32897,30.3716695,30.4896905
322,شارع يوسف وهبى,32897,30.3717899,30.4898219
324,شارع يوسف وهبى,32897,30.3719403,30.4899587
326,شارع يوسف وهبى,32897,30.3720722,30.4901035
342,شارع يوسف وهبى,32897,30.3733652,30.4908842
340,شارع يوسف وهبى,32897,30.3731980,30.4908964
338,شارع يوسف وهبى,32897,30.3730237,30.4908983
336,شارع يوسف وهبى,32897,30.3728206,30.4907989
334,شارع يوسف وهبى,32897,30.3726051,30.4906668
332,شارع يوسف وهبى,32897,30.3724404,30.4905105
344,شارع يوسف وهبى,32897,30.3735393,30.4909122
330,شارع يوسف وهبى,32897,30.3722805,30.4903409
649,شارع اسماعيل ياسين,32897,30.3742416,30.4950052
647,شارع اسماعيل ياسين,32897,30.3741850,30.4947585
645,شارع اسماعيل ياسين,32897,30.3741874,30.4945575
643,شارع اسماعيل ياسين,32897,30.3741897,30.4943698
641,شارع اسماعيل ياسين,32897,30.3741920,30.4941900
639,شارع اسماعيل ياسين,32897,30.3741942,30.4940075
634,شارع سليمان نجيب,32897,30.3739767,30.4936387
636,شارع سليمان نجيب,32897,30.3739833,30.4938278
638,شارع سليمان نجيب,32897,30.3739853,30.4940048
640,شارع سليمان نجيب,32897,30.3739896,30.4942140
642,شارع سليمان نجيب,32897,30.3739858,30.4943870
644,شارع سليمان نجيب,32897,30.3739959,30.4946231
646,شارع سليمان نجيب,32897,30.3739968,30.4947934
648,شارع سليمان نجيب,32897,30.3740218,30.4949838
537,شارع صفيه زغلول,32897,30.3775310,30.4923847
536,شارع هدي شعراوى,32897,30.3773899,30.4925269
535,شارع صفيه زغلول,32897,30.3774078,30.4922466
534,شارع هدي شعراوى,32897,30.3772610,30.4923813
533,شارع صفيه زغلول,32897,30.3773011,30.4921270
532,شارع هدي شعراوى,32897,30.3771696,30.4922780
531,شارع صفيه زغلول,32897,30.3771970,30.4920103
530,شارع هدي شعراوى,32897,30.3770652,30.4921601
529,شارع صفيه زغلول,32897,30.3769639,30.4917490
528,شارع صفيه زغلول,32897,30.3767783,30.4915410
527,شارع صفيه زغلول,32897,30.3766864,30.4914379
212,شارع يوسف وهبى,32897,30.3729168,30.4867467
517,شارع ابو سمبل,32897,30.3755502,30.4919127
395,شارع كليوباترا,32897,30.3740947,30.4893364
397,شارع كليوباترا,32897,30.3741028,30.4895134
399,شارع كليوباترا,32897,30.3741167,30.4896958
401,شارع كليوباترا,32897,30.3741248,30.4898876
425,شارع كليوباترا,32897,30.3752899,30.4915600
423,شارع كليوباترا,32897,30.3751765,30.4914433
421,شارع كليوباترا,32897,30.3750759,30.4913266
419,شارع كليوباترا,32897,30.3749509,30.4912113
417,شارع كليوباترا,32897,30.3748248,30.4910731
415,شارع كليوباترا,32897,30.3747045,30.4909565
413,شارع كليوباترا,32897,30.3745899,30.4908170
411,شارع كليوباترا,32897,30.3744881,30.4906923
409,شارع كليوباترا,32897,30.3743747,30.4905689
405,شارع كليوباترا,32897,30.3742312,30.4903221
403,شارع كليوباترا,32897,30.3741491,30.4900673
424,شارع يوسف وهبى,32897,30.3751175,30.4917625
422,شارع يوسف وهبى,32897,30.3750273,30.4916404
420,شارع يوسف وهبى,32897,30.3749416,30.4915050
418,شارع يوسف وهبى,32897,30.3747889,30.4913802
416,شارع يوسف وهبى,32897,30.3746778,30.4912622
414,شارع يوسف وهبى,32897,30.3745575,30.4911147
412,شارع يوسف وهبى,32897,30.3744511,30.4909940
410,شارع يوسف وهبى,32897,30.3742983,30.4908478
408,شارع يوسف وهبى,32897,30.3742046,30.4907298
432,شارع كليوباترا,32897,30.3747716,30.4904455
430,شارع كليوباترا,32897,30.3748537,30.4905447
428,شارع كليوباترا,32897,30.3749960,30.4907110
434,شارع كليوباترا,32897,30.3746593,30.4903355
426,شارع كليوباترا,32897,30.3751198,30.4908639
433,شارع وادي الملوك,32897,30.3749133,30.4902785
431,شارع وادي الملوك,32897,30.3750145,30.4903798
429,شارع وادي الملوك,32897,30.3751690,30.4905400
435,شارع كليوباترا,32897,30.3747843,30.4901504
427,شارع وادي الملوك,32897,30.3753026,30.4906815
444,شارع وادي الملوك,32897,30.3750472,30.4898812
442,شارع وادي الملوك,32897,30.3751619,30.4900249
440,شارع وادي الملوك,32897,30.3752883,30.4901660
438,شارع وادي الملوك,32897,30.3754054,30.4902937
446,شارع وادي الملوك,32897,30.3749370,30.4897830
436,شارع وادي الملوك,32897,30.3755225,30.4904214
437,شارع سهير القلماوي,32897,30.3755838,30.4901478
439,شارع سهير القلماوي,32897,30.3754600,30.4899922
441,شارع سهير القلماوي,32897,30.3753443,30.4898366
443,شارع سهير القلماوي,32897,30.3752355,30.4896918
445,شارع سهير القلماوي,32897,30.3750805,30.4895657
449,شارع سهير القلماوي,32897,30.3744580,30.4893887
448,شارع سهير القلماوي,32897,30.3746038,30.4893498
447,شارع سهير القلماوي,32897,30.3747889,30.4893713
364,شارع نجيب الريحانى,32897,30.3763810,30.4902095
349,شارع ابو سمبل,32897,30.3755132,30.4913440
361,شارع ابو سمبل,32897,30.3761816,30.4905170
359,شارع ابو سمبل,32897,30.3760794,30.4906395
357,شارع ابو سمبل,32897,30.3759320,30.4907875
355,شارع ابو سمبل,32897,30.3758125,30.4908939
353,شارع ابو سمبل,32897,30.3757242,30.4910298
363,شارع ابو سمبل,32897,30.3763069,30.4903878
351,شارع ابو سمبل,32897,30.3755930,30.4911925
367,شارع سهير القلماوي,32897,30.3759494,30.4899519
369,شارع سهير القلماوي,32897,30.3758233,30.4897964
370,شارع سهير القلماوي,32897,30.3759718,30.4896228
368,شارع نجيب الريحانى,32897,30.3760722,30.4897562
366,شارع نجيب الريحانى,32897,30.3761403,30.4899949
365,شارع نجيب الريحانى,32897,30.3762468,30.4901290
360,شارع سهير القلماوي,32897,30.3759043,30.4904526
358,شارع سهير القلماوي,32897,30.3758001,30.4905832
356,شارع سهير القلماوي,32897,30.3756798,30.4907271
354,شارع سهير القلماوي,32897,30.3755641,30.4908684
352,شارع سهير القلماوي,32897,30.3754484,30.4909962
362,شارع سهير القلماوي,32897,30.3760084,30.4903221
350,شارع سهير القلماوي,32897,30.3753559,30.4911321
379,شارع نجيب الريحانى,32897,30.3752888,30.4889300
378,شارع نجيب الريحانى,32897,30.3754276,30.4890829
376,شارع نجيب الريحانى,32897,30.3755595,30.4892036
374,شارع نجيب الريحانى,32897,30.3756937,30.4893565
372,شارع نجيب الريحانى,32897,30.3758073,30.4894975
375,شارع سهير القلماوي,32897,30.3754384,30.4894075
373,شارع سهير القلماوي,32897,30.3755506,30.4895059
377,شارع سهير القلماوي,32897,30.3752471,30.4892009
371,شارع سهير القلماوي,32897,30.3756798,30.4896784
392,شارع نجيب الريحانى,32897,30.3740259,30.4887132
390,شارع نجيب الريحانى,32897,30.3741862,30.4887003
388,شارع نجيب الريحانى,32897,30.3743604,30.4886980
386,شارع نجيب الريحانى,32897,30.3745161,30.4887145
384,شارع نجيب الريحانى,32897,30.3746926,30.4887150
382,شارع نجيب الريحانى,32897,30.3748483,30.4887354
394,شارع نجيب الريحانى,32897,30.3738702,30.4887155
380,شارع نجيب الريحانى,32897,30.3750735,30.4887986
391,شارع سهير القلماوي,32897,30.3740446,30.4889493
389,شارع سهير القلماوي,32897,30.3741888,30.4889658
387,شارع سهير القلماوي,32897,30.3743654,30.4889609
385,شارع سهير القلماوي,32897,30.3745236,30.4889506
383,شارع سهير القلماوي,32897,30.3747025,30.4889564
393,شارع سهير القلماوي,32897,30.3738864,30.4889461
381,شارع سهير القلماوي,32897,30.3749972,30.4890534
519,شارع الخنساء,32897,30.3756220,30.4921460
526,شارع هدي شعراوى,32897,30.3765615,30.4915908
524,شارع هدي شعراوى,32897,30.3766728,30.4917166
525,شارع هدي شعراوى,32897,30.3763439,30.4918295
523,شارع هدي شعراوى,32897,30.3764737,30.4919795
521,شارع هدي شعراوى,32897,30.3766023,30.4921281
522,شارع الخنساء,32897,30.3762745,30.4921272
520,شارع الخنساء,32897,30.3763898,30.4922618
546,شارع يوسف وهبى,32897,30.3756659,30.4923901
544,شارع يوسف وهبى,32897,30.3757927,30.4925253
542,شارع يوسف وهبى,32897,30.3759396,30.4926819
540,شارع يوسف وهبى,32897,30.3760309,30.4927793
538,شارع يوسف وهبى,32897,30.3761553,30.4929120
547,شارع الخنساء,32897,30.3758441,30.4922506
545,شارع الخنساء,32897,30.3759620,30.4923817
543,شارع الخنساء,32897,30.3760679,30.4924994
541,شارع الخنساء,32897,30.3761911,30.4926365
539,شارع الخنساء,32897,30.3762998,30.4927574
451,شارع الخنساء,32897,30.3765286,30.4930118
453,شارع الخنساء,32897,30.3766054,30.4930972
455,شارع الخنساء,32897,30.3767254,30.4932306
457,شارع الخنساء,32897,30.3768692,30.4933906
452,شارع يوسف وهبى,32897,30.3763301,30.4930984
454,شارع يوسف وهبى,32897,30.3764544,30.4932310
456,شارع يوسف وهبى,32897,30.3765791,30.4933639
458,شارع يوسف وهبى,32897,30.3767373,30.4935327
552,شارع هدي شعراوى,32897,30.3769545,30.4925353
551,شارع هدي شعراوى,32897,30.3770623,30.4926598
549,شارع هدي شعراوى,32897,30.3771816,30.4927978
550,شارع الخنساء,32897,30.3767769,30.4927137
548,شارع الخنساء,32897,30.3769086,30.4928917
469,شارع الخنساء,32897,30.3775593,30.4928736
459,شارع يوسف وهبى,32897,30.3769317,30.4936078
461,شارع الخنساء,32897,30.3771229,30.4933842
463,شارع الخنساء,32897,30.3772185,30.4932723
465,شارع الخنساء,32897,30.3773383,30.4931322
467,شارع الخنساء,32897,30.3774533,30.4929976
471,شارع الخنساء,32897,30.3777333,30.4926700
473,شارع الخنساء,32897,30.3778358,30.4925501
475,شارع الخنساء,32897,30.3779486,30.4924181
477,شارع الخنساء,32897,30.3780696,30.4922766
479,شارع الخنساء,32897,30.3781789,30.4921487
480,شارع يوسف وهبى,32897,30.3783293,30.4923338
478,شارع يوسف وهبى,32897,30.3782109,30.4924727
476,شارع يوسف وهبى,32897,30.3780935,30.4926103
474,شارع يوسف وهبى,32897,30.3779991,30.4927209
472,شارع يوسف وهبى,32897,30.3778714,30.4928707
470,شارع يوسف وهبى,32897,30.3777231,30.4930445
468,شارع يوسف وهبى,32897,30.3776022,30.4931862
464,شارع يوسف وهبى,32897,30.3773952,30.4934289
462,شارع يوسف وهبى,32897,30.3772698,30.4935759
460,شارع يوسف وهبى,32897,30.3771099,30.4937634
513,شارع الخنساء,32897,30.3759305,30.4918416
511,شارع الخنساء,32897,30.3760331,30.4916793
509,شارع الخنساء,32897,30.3761611,30.4915412
507,شارع الخنساء,32897,30.3762776,30.4914084
505,شارع الخنساء,32897,30.3763941,30.4912756
515,شارع الخنساء,32897,30.3758117,30.4919395
503,شارع الخنساء,32897,30.3765105,30.4911429
516,شارع ابو سمبل,32897,30.3756643,30.4917655
514,شارع ابو سمبل,32897,30.3757783,30.4916291
512,شارع ابو سمبل,32897,30.3758924,30.4914927
510,شارع ابو سمبل,32897,30.3760064,30.4913563
508,شارع ابو سمبل,32897,30.3761205,30.4912199
506,شارع ابو سمبل,32897,30.3762345,30.4910835
518,شارع ابو سمبل,32897,30.3754021,30.4920495
504,شارع ابو سمبل,32897,30.3763486,30.4909471
500,شارع نجيب الريحانى,32897,30.3768403,30.4906610
498,شارع نجيب الريحانى,32897,30.3769618,30.4907960
496,شارع نجيب الريحانى,32897,30.3770833,30.4909310
494,شارع نجيب الريحانى,32897,30.3772047,30.4910660
492,شارع نجيب الريحانى,32897,30.3773262,30.4912010
502,شارع نجيب الريحانى,32897,30.3767188,30.4905260
490,شارع نجيب الريحانى,32897,30.3774477,30.4913360
486,شارع نجيب الريحانى,32897,30.3777300,30.4916511
488,شارع نجيب الريحانى,32897,30.3776074,30.4915211
484,شارع نجيب الريحانى,32897,30.3778527,30.4917812
499,شارع صفيه زغلول,32897,30.3766849,30.4908340
497,شارع صفيه زغلول,32897,30.3768060,30.4909730
495,شارع صفيه زغلول,32897,30.3769271,30.4911120
493,شارع صفيه زغلول,32897,30.3770482,30.4912510
491,شارع صفيه زغلول,32897,30.3771693,30.4913901
501,شارع صفيه زغلول,32897,30.3765638,30.4906949
489,شارع صفيه زغلول,32897,30.3772904,30.4915291
485,شارع صفيه زغلول,32897,30.3775696,30.4918483
483,شارع صفيه زغلول,32897,30.3776891,30.4919770
487,شارع صفيه زغلول,32897,30.3774500,30.4917195
481,شارع صفيه زغلول,32897,30.3778087,30.4921058
290,شارع الاقصر,32897,30.3714370,30.4884540
282,شارع الكرنك,32897,30.3717112,30.4877821
284,شارع الكرنك,32897,30.3715909,30.4879269
286,شارع الكرنك,32897,30.3714705,30.4880825
288,شارع الكرنك,32897,30.3713826,30.4882488
289,شارع الاقصر,32897,30.3715168,30.4883802
287,شارع الاقصر,32897,30.3716348,30.4882729
285,شارع الاقصر,32897,30.3717436,30.4881307
283,شارع الاقصر,32897,30.3718524,30.4879832
276,شارع الكرنك,32897,30.3728289,30.4873744
278,شارع الكرنك,32897,30.3725882,30.4873905
280,شارع الكرنك,32897,30.3724563,30.4874012
281,شارع الاقصر,32897,30.3724610,30.4876292
279,شارع الاقصر,32897,30.3726137,30.4876533
277,شارع الاقصر,32897,30.3727826,30.4876640
275,شارع الاقصر,32897,30.3729284,30.4876667
261,شارع الاقصر,32897,30.3725211,30.4880637
263,شارع الاقصر,32897,30.3726924,30.4880100
265,شارع الاقصر,32897,30.3728636,30.4880047
267,شارع الاقصر,32897,30.3730511,30.4880020
269,شارع الاقصر,32897,30.3731968,30.4879993
271,شارع الاقصر,32897,30.3733611,30.4879993
273,شارع الاقصر,32897,30.3735370,30.4880020
259,شارع الاقصر,32897,30.3720745,30.4883426
257,شارع الاقصر,32897,30.3719148,30.4885009
255,شارع الاقصر,32897,30.3717667,30.4886323
253,شارع الاقصر,32897,30.3716279,30.4888013
274,شارع نجيب الريحانى,32897,30.3735127,30.4882488
272,شارع نجيب الريحانى,32897,30.3733519,30.4882582
270,شارع نجيب الريحانى,32897,30.3732061,30.4882568
268,شارع نجيب الريحانى,32897,30.3730349,30.4882488
266,شارع نجيب الريحانى,32897,30.3728706,30.4882595
262,شارع نجيب الريحانى,32897,30.3724783,30.4883346
260,شارع نجيب الريحانى,32897,30.3721833,30.4885317
258,شارع نجيب الريحانى,32897,30.3720537,30.4886645
256,شارع نجيب الريحانى,32897,30.3719079,30.4888335
254,شارع نجيب الريحانى,32897,30.3717853,30.4889381
264,شارع نجيب الريحانى,32897,30.3726935,30.4882783
250,شارع يوسف وهبى,32897,30.3713202,30.4892699
248,شارع يوسف وهبى,32897,30.3712242,30.4891363
246,شارع يوسف وهبى,32897,30.3710761,30.4890041
244,شارع يوسف وهبى,32897,30.3709856,30.4888486
242,شارع يوسف وهبى,32897,30.3708879,30.4886482
252,شارع يوسف وهبى,32897,30.3714520,30.4894155
240,شارع يوسف وهبى,32897,30.3708226,30.4884177
249,شارع الكرنك,32897,30.3714714,30.4891023
247,شارع الكرنك,32897,30.3713473,30.4889634
245,شارع الكرنك,32897,30.3712272,30.4888203
243,شارع الكرنك,32897,30.3711293,30.4886576
251,شارع الكرنك,32897,30.3715955,30.4892412
241,شارع الكرنك,32897,30.3710609,30.4884741
237,شارع الكرنك,32897,30.3710586,30.4881576
235,شارع الكرنك,32897,30.3711535,30.4879457
233,شارع الكرنك,32897,30.3712623,30.4877660
231,شارع الكرنك,32897,30.3713780,30.4876345
229,شارع الكرنك,32897,30.3714798,30.4875326
239,شارع يوسف وهبى,32897,30.3708341,30.4881576
236,شارع يوسف وهبى,32897,30.3709658,30.4877405
234,شارع يوسف وهبى,32897,30.3710722,30.4875979
232,شارع يوسف وهبى,32897,30.3712079,30.4874435
238,شارع يوسف وهبى,32897,30.3708804,30.4879510
230,شارع يوسف وهبى,32897,30.3713201,30.4873154
226,شارع يوسف وهبى,32897,30.3717007,30.4869362
224,شارع يوسف وهبى,32897,30.3718729,30.4868414
222,شارع يوسف وهبى,32897,30.3720375,30.4867993
220,شارع يوسف وهبى,32897,30.3722095,30.4867350
218,شارع يوسف وهبى,32897,30.3723940,30.4867313
216,شارع يوسف وهبى,32897,30.3725665,30.4867290
228,شارع يوسف وهبى,32897,30.3714890,30.4871035
214,شارع يوسف وهبى,32897,30.3727641,30.4867494
225,شارع الكرنك,32897,30.3717494,30.4872615
223,شارع الكرنك,32897,30.3718987,30.4871620
221,شارع الكرنك,32897,30.3720583,30.4870683
219,شارع الكرنك,32897,30.3721654,30.4870418
217,شارع الكرنك,32897,30.3724283,30.4869881
215,شارع الكرنك,32897,30.3725950,30.4869881
227,شارع الكرنك,32897,30.3716337,30.4873328
213,شارع الكرنك,32897,30.3727618,30.4869881
211,شارع الكرنك,32897,30.3729006,30.4869640
210,شارع يوسف وهبى,32897,30.3730892,30.4867467
209,شارع يوسف وهبى,32897,30.3732454,30.4868728
207,شارع الكرنك,32897,30.3732520,30.4871906
205,شارع الكرنك,32897,30.3732620,30.4874106
203,شارع الكرنك,32897,30.3732686,30.4876533
208,شارع يوسف وهبى,32897,30.3734421,30.4868889
200,شارع محمد حسنين,32897,30.3745996,30.4876217
198,شارع محمد حسنين,32897,30.3747713,30.4876195
196,شارع محمد حسنين,32897,30.3749245,30.4876174
194,شارع محمد حسنين,32897,30.3750777,30.4876152
201,شارع محمد حسنين,32897,30.3744441,30.4876211
192,شارع محمد حسنين,32897,30.3752309,30.4876131
197,شارع اسماء فهمي,32897,30.3747363,30.4873703
195,شارع اسماء فهمي,32897,30.3749035,30.4873717
193,شارع اسماء فهمي,32897,30.3750707,30.4873730
199,شارع اسماء فهمي,32897,30.3745691,30.4873690
191,شارع اسماء فهمي,32897,30.3752378,30.4873744
186,شارع محمد حسنين,32897,30.3760091,30.4881798
184,شارع محمد حسنين,32897,30.3761324,30.4883174
182,شارع محمد حسنين,32897,30.3762557,30.4884549
180,شارع محمد حسنين,32897,30.3763790,30.4885925
178,شارع محمد حسنين,32897,30.3764722,30.4886978
176,شارع محمد حسنين,32897,30.3766001,30.4888381
188,شارع محمد حسنين,32897,30.3758858,30.4880422
174,شارع محمد حسنين,32897,30.3767489,30.4890051
187,شارع اسماء فهمي,32897,30.3760637,30.4878538
185,شارع اسماء فهمي,32897,30.3761814,30.4880060
183,شارع اسماء فهمي,32897,30.3762829,30.4881180
181,شارع اسماء فهمي,32897,30.3764029,30.4882729
179,شارع اسماء فهمي,32897,30.3765137,30.4884063
177,شارع اسماء فهمي,32897,30.3766245,30.4885398
175,شارع اسماء فهمي,32897,30.3767353,30.4886732
189,شارع اسماء فهمي,32897,30.3759598,30.4877391
173,شارع اسماء فهمي,32897,30.3768461,30.4888067
170,شارع نجيب الريحانى,32897,30.3762423,30.4893387
168,شارع نجيب الريحانى,32897,30.3761245,30.4891976
166,شارع نجيب الريحانى,32897,30.3760066,30.4890564
164,شارع نجيب الريحانى,32897,30.3758888,30.4889152
162,شارع نجيب الريحانى,32897,30.3757691,30.4887761
160,شارع نجيب الريحانى,32897,30.3756452,30.4886429
172,شارع نجيب الريحانى,32897,30.3763601,30.4894799
158,شارع نجيب الريحانى,32897,30.3755063,30.4885304
169,شارع محمد حسنين,32897,30.3763905,30.4891493
167,شارع محمد حسنين,32897,30.3762835,30.4890212
165,شارع محمد حسنين,32897,30.3761519,30.4888555
163,شارع محمد حسنين,32897,30.3760239,30.4887162
161,شارع محمد حسنين,32897,30.3759329,30.4885930
159,شارع محمد حسنين,32897,30.3758154,30.4884525
171,شارع محمد حسنين,32897,30.3765360,30.4892734
157,شارع محمد حسنين,32897,30.3756289,30.4883131
153,شارع محمد حسنين,32897,30.3749070,30.4880441
151,شارع محمد حسنين,32897,30.3747428,30.4880305
149,شارع محمد حسنين,32897,30.3745783,30.4880213
155,شارع محمد حسنين,32897,30.3750712,30.4880583
147,شارع محمد حسنين,32897,30.3744140,30.4880342
154,شارع نجيب الريحانى,32897,30.3751385,30.4883660
152,شارع نجيب الريحانى,32897,30.3749671,30.4883046
150,شارع نجيب الريحانى,32897,30.3747330,30.4882632
148,شارع نجيب الريحانى,32897,30.3745793,30.4882726
156,شارع نجيب الريحانى,32897,30.3753096,30.4884285
146,شارع نجيب الريحانى,32897,30.3744094,30.4882675
143,شارع اسماء فهمي,32897,30.3741109,30.4880950
141,شارع اسماء فهمي,32897,30.3741109,30.4879090
139,شارع اسماء فهمي,32897,30.3741109,30.4877230
137,شارع اسماء فهمي,32897,30.3741109,30.4875371
135,شارع اسماء فهمي,32897,30.3741109,30.4873511
145,شارع اسماء فهمي,32897,30.3741109,30.4882809
133,شارع اسماء فهمي,32897,30.3741109,30.4871652
129,شارع يوسف وهبى,32897,30.3740878,30.4868782
128,شارع يوسف وهبى,32897,30.3742266,30.4869184
127,شارع اسماء فهمي,32897,30.3743909,30.4869613
125,شارع اسماء فهمي,32897,30.3745668,30.4869452
126,شارع يوسف وهبى,32897,30.3744094,30.4867253
124,شارع يوسف وهبى,32897,30.3745506,30.4867172
119,شارع اسماء فهمي,32897,30.3748994,30.4869817
117,شارع اسماء فهمي,32897,30.3750754,30.4869801
115,شارع اسماء فهمي,32897,30.3752515,30.4869801
113,شارع اسماء فهمي,32897,30.3754273,30.4869848
111,شارع اسماء فهمي,32897,30.3756009,30.4870131
109,شارع اسماء فهمي,32897,30.3757656,30.4870847
107,شارع اسماء فهمي,32897,30.3759133,30.4871959
121,شارع اسماء فهمي,32897,30.3747403,30.4869760
105,شارع اسماء فهمي,32897,30.3760524,30.4873207
123,شارع يوسف وهبى,32897,30.3747658,30.4867440
120,شارع يوسف وهبى,32897,30.3750655,30.4867410
118,شارع يوسف وهبى,32897,30.3752356,30.4867474
116,شارع يوسف وهبى,32897,30.3754057,30.4867537
114,شارع يوسف وهبى,32897,30.3755758,30.4867601
112,شارع يوسف وهبى,32897,30.3757395,30.4868028
110,شارع يوسف وهبى,32897,30.3758984,30.4868735
108,شارع يوسف وهبى,32897,30.3760523,30.4869577
122,شارع يوسف وهبى,32897,30.3748954,30.4867347
82,شارع اسماء فهمي,32897,30.3772464,30.4889300
70,شارع اسماء فهمي,32897,30.3765638,30.4897320
81,شارع ابو سمبل,32897,30.3774064,30.4891017
79,شارع ابو سمبل,32897,30.3772910,30.4892385
77,شارع ابو سمبل,32897,30.3771757,30.4893753
75,شارع ابو سمبل,32897,30.3770603,30.4895121
73,شارع ابو سمبل,32897,30.3769449,30.4896489
71,شارع ابو سمبل,32897,30.3768295,30.4897857
83,شارع ابو سمبل,32897,30.3775218,30.4889649
69,شارع ابو سمبل,32897,30.3767142,30.4899225
66,شارع الخنساء,32897,30.3779452,30.4899949
65,شارع الخنساء,32897,30.3780470,30.4901310
64,شارع الخنساء,32897,30.3781340,30.4902473
63,شارع الخنساء,32897,30.3782460,30.4903972
11,شارع الخنساء,32897,30.3783802,30.4905313
62,شارع نجيب الريحانى,32897,30.3782483,30.4915908
60,شارع نجيب الريحانى,32897,30.3781277,30.4914569
58,شارع نجيب الريحانى,32897,30.3780045,30.4913201
56,شارع نجيب الريحانى,32897,30.3778810,30.4911830
54,شارع نجيب الريحانى,32897,30.3777293,30.4910147
52,شارع نجيب الريحانى,32897,30.3776118,30.4908843
50,شارع نجيب الريحانى,32897,30.3774958,30.4907555
48,شارع نجيب الريحانى,32897,30.3773760,30.4906225
46,شارع ابو سمبل,32897,30.3770011,30.4902121
44,شارع ابو سمبل,32897,30.3771382,30.4900600
42,شارع ابو سمبل,32897,30.3772453,30.4899411
40,شارع ابو سمبل,32897,30.3773389,30.4898373
38,شارع ابو سمبل,32897,30.3774775,30.4896834
36,شارع ابو سمبل,32897,30.3775981,30.4895496
34,شارع الخنساء,32897,30.3778631,30.4891956
33,شارع الخنساء,32897,30.3779961,30.4893377
32,شارع يوسف وهبى,32897,30.3781986,30.4893833
31,شارع الخنساء,32897,30.3780389,30.4895778
29,شارع الخنساء,32897,30.3781662,30.4897079
30,شارع يوسف وهبى,32897,30.3783062,30.4895215
27,شارع الخنساء,32897,30.3782796,30.4898299
28,شارع يوسف وهبى,32897,30.3784265,30.4896529
25,شارع الخنساء,32897,30.3783860,30.4899801
26,شارع يوسف وهبى,32897,30.3785434,30.4897897
23,شارع الخنساء,32897,30.3785087,30.4900941
24,شارع يوسف وهبى,32897,30.3786533,30.4899278
22,شارع يوسف وهبى,32897,30.3787713,30.4900740
21,شارع الخنساء,32897,30.3786498,30.4902296
20,شارع يوسف وهبى,32897,30.3788997,30.4902095
19,شارع الخنساء,32897,30.3787389,30.4903878
18,شارع يوسف وهبى,32897,30.3789726,30.4904026
17,شارع الخنساء,32897,30.3787933,30.4906118
16,شارع يوسف وهبى,32897,30.3790316,30.4906292
13,شارع الخنساء,32897,30.3787921,30.4909953
15,شارع يوسف وهبى,32897,30.3790027,30.4910047
12,شارع يوسف وهبى,32897,30.3789992,30.4911925
10,شارع يوسف وهبى,32897,30.3789796,30.4914044
8,شارع يوسف وهبى,32897,30.3788893,30.4915667
7,شارع الخنساء,32897,30.3787424,30.4914299
6,شارع يوسف وهبى,32897,30.3787898,30.4917678
5,شارع الخنساء,32897,30.3786533,30.4915948
4,شارع يوسف وهبى,32897,30.3786973,30.4919207
3,شارع الخنساء,32897,30.3785561,30.4917692
2,شارع يوسف وهبى,32897,30.3785908,30.4920320
1,شارع الخنساء,32897,30.3784103,30.4918537
103,شارع الفقي,32897,30.3997955,30.5588571
110,شارع الفقي,32897,30.4000737,30.5591725
108,شارع الفقي,32897,30.3999986,30.5590873
106,شارع الفقي,32897,30.3999223,30.5590008
104,شارع الفقي,32897,30.3998589,30.5589290
112,شارع الفقي,32897,30.4001417,30.5592495
102,شارع الفقي,32897,30.3997225,30.5587744
101,شارع الفقي,32897,30.3996504,30.5586926
100,شارع الفقي,32897,30.3995749,30.5586071
30,شارع الفقي,32897,30.3992400,30.5582041
29,شارع الفقي,32897,30.3991689,30.5581230
28,شارع الفقي,32897,30.3990978,30.5580419
31,شارع الفقي,32897,30.3993112,30.5582853
27,شارع الفقي,32897,30.3990266,30.5579607
24,شارع الفقي,32897,30.3988941,30.5578071
22,شارع الفقي,32897,30.3988225,30.5577267
20,شارع الفقي,32897,30.3987490,30.5576442
26,شارع الفقي,32897,30.3989676,30.5578896
18,شارع الفقي,32897,30.3986750,30.5575611
1436,شارع طه حسين,32897,30.3997592,30.5259511
1439,شارع طه حسين,32897,30.3994577,30.5257613
1438,شارع طه حسين,32897,30.3996045,30.5258707
1434,شارع طه حسين,32897,30.3999495,30.5259920
1433,شارع طه حسين,32897,30.4001303,30.5259993
1430,شارع طه حسين,32897,30.4003176,30.5260068
1429,شارع طه حسين,32897,30.4004866,30.5260136
1454,شارع طه حسين,32897,30.3984911,30.5246088
1451,شارع طه حسين,32897,30.3986099,30.5247579
1450,شارع طه حسين,32897,30.3987313,30.5249043
1447,شارع طه حسين,32897,30.3988527,30.5250506
1446,شارع طه حسين,32897,30.3989741,30.5251969
510,شارع 400,32897,30.3812195,30.5434952
508,شارع 400,32897,30.3811315,30.5435930
506,شارع 400,32897,30.3810749,30.5436639
504,شارع 400,32897,30.3809856,30.5437587
502,شارع 400,32897,30.3809220,30.5438322
500,شارع 400,32897,30.3808375,30.5439299
498,شارع 400,32897,30.3807740,30.5440034
496,شارع 400,32897,30.3807057,30.5440824
494,شارع 400,32897,30.3806155,30.5441867
492,شارع 400,32897,30.3805275,30.5442884
512,شارع 400,32897,30.3814439,30.5432179
490,شارع 400,32897,30.3804605,30.5443659
486,شارع 400,32897,30.3800417,30.5448327
484,شارع 400,32897,30.3799513,30.5449409
482,شارع 400,32897,30.3798871,30.5450179
480,شارع 400,32897,30.3798110,30.5451090
478,شارع 400,32897,30.3797394,30.5451948
476,شارع 400,32897,30.3796644,30.5452846
474,شارع 400,32897,30.3795894,30.5453718
472,شارع 400,32897,30.3795074,30.5454670
470,شارع 400,32897,30.3794301,30.5455568
468,شارع 400,32897,30.3793620,30.5456360
466,شارع 400,32897,30.3792835,30.5457258
464,شارع 400,32897,30.3791969,30.5458344
488,شارع 400,32897,30.3802499,30.5445832
462,شارع 400,32897,30.3791311,30.5459069
392,شارع 400,32897,30.3789009,30.5461684
390,شارع 400,32897,30.3788224,30.5462628
388,شارع 400,32897,30.3787351,30.5463679
386,شارع 400,32897,30.3786555,30.5464638
384,شارع 400,32897,30.3785763,30.5465592
382,شارع 400,32897,30.3785323,30.5466122
380,شارع 400,32897,30.3784391,30.5467245
378,شارع 400,32897,30.3783561,30.5468244
376,شارع 400,32897,30.3782780,30.5469184
374,شارع 400,32897,30.3782133,30.5469963
372,شارع 400,32897,30.3781291,30.5470977
370,شارع 400,32897,30.3780655,30.5471742
1424,شارع طه حسين,32897,30.4009994,30.5260343
1423,شارع طه حسين,32897,30.4011860,30.5260419
1420,شارع طه حسين,32897,30.4013793,30.5260497
1419,شارع طه حسين,32897,30.4015522,30.5261036
1416,شارع طه حسين,32897,30.4017778,30.5261586
1415,شارع طه حسين,32897,30.4019780,30.5262204
1455,شارع طه حسين,32897,30.3983463,30.5244074
1443,شارع طه حسين,32897,30.3990955,30.5253432
1442,شارع طه حسين,32897,30.3993199,30.5256136
1427,شارع طه حسين,32897,30.4008037,30.5260264
836,شارع ابى بكر الصديق,32897,30.3990965,30.5482612
834,شارع ابى بكر الصديق,32897,30.3989987,30.5482645
832,شارع ابى بكر الصديق,32897,30.3989009,30.5482679
830,شارع ابى بكر الصديق,32897,30.3988031,30.5482712
828,شارع ابى بكر الصديق,32897,30.3987053,30.5482746
826,شارع ابى بكر الصديق,32897,30.3986074,30.5482779
838,شارع ابى بكر الصديق,32897,30.3991944,30.5482578
824,شارع ابى بكر الصديق,32897,30.3985096,30.5482813
820,شارع ابى بكر الصديق,32897,30.3980831,30.5482959
818,شارع ابى بكر الصديق,32897,30.3979810,30.5482994
816,شارع ابى بكر الصديق,32897,30.3978790,30.5483029
814,شارع ابى بكر الصديق,32897,30.3977769,30.5483064
812,شارع ابى بكر الصديق,32897,30.3976749,30.5483098
810,شارع ابى بكر الصديق,32897,30.3975729,30.5483133
822,شارع ابى بكر الصديق,32897,30.3981851,30.5482924
808,شارع ابى بكر الصديق,32897,30.3974708,30.5483168
840,شارع ابى بكر الصديق,32897,30.3994396,30.5483168
842,شارع ابى بكر الصديق,32897,30.3995159,30.5483544
870,شارع ابى بكر الصديق,32897,30.4006897,30.5496083
868,شارع ابى بكر الصديق,32897,30.4006188,30.5495265
866,شارع ابى بكر الصديق,32897,30.4005479,30.5494447
864,شارع ابى بكر الصديق,32897,30.4004770,30.5493629
862,شارع ابى بكر الصديق,32897,30.4004061,30.5492811
860,شارع ابى بكر الصديق,32897,30.4003352,30.5491993
858,شارع ابى بكر الصديق,32897,30.4002643,30.5491175
856,شارع ابى بكر الصديق,32897,30.4001934,30.5490357
854,شارع ابى بكر الصديق,32897,30.4001225,30.5489539
852,شارع ابى بكر الصديق,32897,30.4000517,30.5488721
850,شارع ابى بكر الصديق,32897,30.3999808,30.5487902
848,شارع ابى بكر الصديق,32897,30.3999099,30.5487084
846,شارع ابى بكر الصديق,32897,30.3998390,30.5486266
872,شارع ابى بكر الصديق,32897,30.4007606,30.5496901
844,شارع ابى بكر الصديق,32897,30.3997681,30.5485448
678,شارع 400,32897,30.3813769,30.5433049
676,شارع 400,32897,30.3812889,30.5434068
674,شارع 400,32897,30.3801913,30.5446549
672,شارع 400,32897,30.3801008,30.5447618
216,شارع 20,32897,30.3576797,30.5096957
215,شارع 20,32897,30.3578695,30.5097064
214,شارع 20,32897,30.3580755,30.5096930
213,شارع 20,32897,30.3582792,30.5097520
212,شارع 20,32897,30.3584736,30.5098969
211,شارع 20,32897,30.3585939,30.5100444
210,شارع 20,32897,30.3587374,30.5102241
88,طريق عز,32897,30.3650000,30.5242547
86,طريق عز,32897,30.3649052,30.5241421
84,طريق عز,32897,30.3647825,30.5240267
82,طريق عز,32897,30.3646899,30.5239356
90,طريق عز,32897,30.3654976,30.5248368
92,طريق عز,32897,30.3656203,30.5248985
94,طريق عز,32897,30.3655508,30.5249843
96,طريق عز,32897,30.3657314,30.5250138
80,طريق عز,32897,30.3645904,30.5238363
78,طريق عز,32897,30.3644840,30.5236968
76,طريق عز,32897,30.3643289,30.5235225
52,طريق عز,32897,30.3631880,30.5220017
523,شارع عباس العقاد,32897,30.3731101,30.5433802
522,شارع عباس العقاد,32897,30.3731714,30.5434553
507,شارع عباس العقاد,32897,30.3740583,30.5443787
509,شارع عباس العقاد,32897,30.3739882,30.5442949
499,شارع عباس العقاد,32897,30.3745525,30.5450295
501,شارع عباس العقاد,32897,30.3744827,30.5449483
489,شارع عباس العقاد,32897,30.3749875,30.5454549
491,شارع عباس العقاد,32897,30.3749054,30.5453478
487,شارع عباس العقاد,32897,30.3750549,30.5455428
281,شارع عباس العقاد,32897,30.3755838,30.5462006
273,شارع عباس العقاد,32897,30.3759189,30.5465336
271,شارع عباس العقاد,32897,30.3759973,30.5466277
255,شارع عباس العقاد,32897,30.3767015,30.5474880
253,شارع عباس العقاد,32897,30.3767599,30.5475598
259,شارع عباس العقاد,32897,30.3765418,30.5473070
251,شارع 400,32897,30.3768981,30.5477133
250,شارع 400,32897,30.3769942,30.5476128
249,شارع 400,32897,30.3770601,30.5475377
248,شارع 400,32897,30.3771342,30.5474572
247,شارع 400,32897,30.3772152,30.5473673
241,شارع 400,32897,30.3774579,30.5470881
235,شارع 400,32897,30.3776766,30.5468319
233,شارع 400,32897,30.3777652,30.5467281
231,شارع 400,32897,30.3778757,30.5465987
229,شارع 400,32897,30.3779700,30.5464882
227,شارع 400,32897,30.3780437,30.5464019
225,شارع 400,32897,30.3781163,30.5463169
223,شارع 400,32897,30.3781784,30.5462442
221,شارع 400,32897,30.3782658,30.5461417
219,شارع 400,32897,30.3783285,30.5460683
217,شارع 400,32897,30.3784200,30.5459611
215,شارع 400,32897,30.3784816,30.5458890
213,شارع 400,32897,30.3785697,30.5457858
211,شارع 400,32897,30.3786335,30.5457110
209,شارع 400,32897,30.3787705,30.5455506
207,شارع 400,32897,30.3788430,30.5454657
205,شارع 400,32897,30.3789385,30.5453538
203,شارع 400,32897,30.3789926,30.5452905
201,شارع 400,32897,30.3790898,30.5451765
199,شارع 400,32897,30.3791462,30.5451105
197,شارع 400,32897,30.3792320,30.5450100
195,شارع 400,32897,30.3793005,30.5449298
193,شارع 400,32897,30.3793765,30.5448407
191,شارع 400,32897,30.3794455,30.5447599
189,شارع 400,32897,30.3795376,30.5446520
187,شارع 400,32897,30.3796101,30.5445671
65,شارع 400,32897,30.3802120,30.5438995
47,شارع 400,32897,30.3809437,30.5430526
73,شارع 400,32897,30.3798970,30.5442533
55,شارع 400,32897,30.3805871,30.5434653
37,شارع 400,32897,30.3813362,30.5425983
63,شارع 400,32897,30.3802675,30.5438352
45,شارع 400,32897,30.3810340,30.5429481
71,شارع 400,32897,30.3799677,30.5441823
53,شارع 400,32897,30.3807226,30.5433085
35,شارع 400,32897,30.3814011,30.5425233
61,شارع 400,32897,30.3803532,30.5437360
43,شارع 400,32897,30.3811023,30.5428690
69,شارع 400,32897,30.3800580,30.5440778
51,شارع 400,32897,30.3807955,30.5432241
59,شارع 400,32897,30.3804296,30.5436476
41,شارع 400,32897,30.3811892,30.5427685
67,شارع 400,32897,30.3801135,30.5440134
49,شارع 400,32897,30.3808824,30.5431236
57,شارع 400,32897,30.3805026,30.5435632
39,شارع 400,32897,30.3812494,30.5426988
50E,شارع 400,32897,30.3834488,30.5400650
49E,شارع 400,32897,30.3833995,30.5401231
48E,شارع 400,32897,30.3833479,30.5401839
47E,شارع 400,32897,30.3832997,30.5402406
46E,شارع 400,32897,30.3832428,30.5403076
45E,شارع 400,32897,30.3831981,30.5403603
44E,شارع 400,32897,30.3831407,30.5404279
43E,شارع 400,32897,30.3830856,30.5404928
34E,شارع 400,32897,30.3829768,30.5405854
33E,شارع 400,32897,30.3829245,30.5406530
32E,شارع 400,32897,30.3828726,30.5407203
31E,شارع 400,32897,30.3828187,30.5407901
30E,شارع 400,32897,30.3827707,30.5408522
29E,شارع 400,32897,30.3827142,30.5409254
28E,شارع 400,32897,30.3826605,30.5409949
27E,شارع 400,32897,30.3826205,30.5410467
19E,شارع 400,32897,30.3824955,30.5411446
18E,شارع 400,32897,30.3824547,30.5412003
17E,شارع 400,32897,30.3824001,30.5412746
16E,شارع 400,32897,30.3823517,30.5413407
15E,شارع 400,32897,30.3822953,30.5414175
14E,شارع 400,32897,30.3822477,30.5414824
13E,شارع 400,32897,30.3821993,30.5415483
6E,شارع 400,32897,30.3820906,30.5416475
5E,شارع 400,32897,30.3820365,30.5417110
4E,شارع 400,32897,30.3819871,30.5417691
3E,شارع 400,32897,30.3819383,30.5418264
2E,شارع 400,32897,30.3818831,30.5418912
1E,شارع 400,32897,30.3818257,30.5419587
455,شارع ابى بكر الصديق,32897,30.3950601,30.5472305
453,شارع ابى بكر الصديق,32897,30.3949926,30.5471532
451,شارع ابى بكر الصديق,32897,30.3949117,30.5470606
449,شارع ابى بكر الصديق,32897,30.3948511,30.5469912
447,شارع ابى بكر الصديق,32897,30.3947690,30.5468973
445,شارع ابى بكر الصديق,32897,30.3947126,30.5468327
443,شارع ابى بكر الصديق,32897,30.3946364,30.5467455
441,شارع ابى بكر الصديق,32897,30.3945641,30.5466627
439,شارع ابى بكر الصديق,32897,30.3944786,30.5465649
437,شارع ابى بكر الصديق,32897,30.3944251,30.5465036
435,شارع ابى بكر الصديق,32897,30.3943481,30.5464155
433,شارع ابى بكر الصديق,32897,30.3942819,30.5463397
431,شارع ابى بكر الصديق,32897,30.3941388,30.5461758
429,شارع ابى بكر الصديق,32897,30.3940743,30.5461020
427,شارع ابى بكر الصديق,32897,30.3940190,30.5460387
425,شارع ابى بكر الصديق,32897,30.3939513,30.5459612
423,شارع ابى بكر الصديق,32897,30.3938768,30.5458760
421,شارع ابى بكر الصديق,32897,30.3938093,30.5457986
419,شارع ابى بكر الصديق,32897,30.3937208,30.5456973
417,شارع ابى بكر الصديق,32897,30.3936514,30.5456179
415,شارع ابى بكر الصديق,32897,30.3935781,30.5455341
414,شارع ابى بكر الصديق,32897,30.3934396,30.5453755
413,شارع ابى بكر الصديق,32897,30.3933709,30.5452968
412,شارع ابى بكر الصديق,32897,30.3932918,30.5452062
411,شارع ابى بكر الصديق,32897,30.3932208,30.5451250
368,شارع ابى بكر الصديق,32897,30.3929709,30.5447978
371,شارع ابى بكر الصديق,32897,30.3929029,30.5447240
366,شارع ابى بكر الصديق,32897,30.3928150,30.5446287
364,شارع ابى بكر الصديق,32897,30.3927565,30.5445652
362,شارع ابى بكر الصديق,32897,30.3926765,30.5444784
360,شارع ابى بكر الصديق,32897,30.3926099,30.5444062
358,شارع ابى بكر الصديق,32897,30.3925233,30.5443123
356,شارع ابى بكر الصديق,32897,30.3924679,30.5442522
354,شارع ابى بكر الصديق,32897,30.3923724,30.5441487
352,شارع ابى بكر الصديق,32897,30.3923227,30.5440947
350,شارع ابى بكر الصديق,32897,30.3922349,30.5439995
348,شارع ابى بكر الصديق,32897,30.3921636,30.5439222
346,شارع ابى بكر الصديق,32897,30.3920918,30.5438443
345,شارع ابى بكر الصديق,32897,30.3919923,30.5437316
344,شارع ابى بكر الصديق,32897,30.3919325,30.5436602
343,شارع ابى بكر الصديق,32897,30.3918729,30.5435889
342,شارع ابى بكر الصديق,32897,30.3918083,30.5435117
78D,شارع 400,32897,30.3837797,30.5396961
77D,شارع 400,32897,30.3837181,30.5397681
76D,شارع 400,32897,30.3836731,30.5398207
75D,شارع 400,32897,30.3836115,30.5398928
109D,شارع 400,32897,30.3845801,30.5387715
108D,شارع 400,32897,30.3845161,30.5388473
114D,شارع 400,32897,30.3848492,30.5384529
115D,شارع 400,32897,30.3848955,30.5383980
110D,شارع 400,32897,30.3846362,30.5387050
111D,شارع 400,32897,30.3846860,30.5386461
112D,شارع 400,32897,30.3847450,30.5385763
113D,شارع 400,32897,30.3848034,30.5385071
95D,شارع 400,32897,30.3842053,30.5392106
90D,شارع 400,32897,30.3839561,30.5395286
91D,شارع 400,32897,30.3840070,30.5394637
97D,شارع 400,32897,30.3843226,30.5390610
96D,شارع 400,32897,30.3842607,30.5391400
92D,شارع 400,32897,30.3840537,30.5394041
98D,شارع 400,32897,30.3843692,30.5390015
93D,شارع 400,32897,30.3841091,30.5393334
74D,شارع 400,32897,30.3835639,30.5399483
99D,شارع 400,32897,30.3844154,30.5389425
79D,شارع 400,32897,30.3838370,30.5396292
94D,شارع 400,32897,30.3841558,30.5392738
30A,شارع ابى بكر الصديق,32897,30.3858725,30.5345738
29A,شارع ابى بكر الصديق,32897,30.3859262,30.5346385
28A,شارع ابى بكر الصديق,32897,30.3859758,30.5346982
102A,شارع 400,32897,30.3854792,30.5377268
117A,شارع 400,32897,30.3850491,30.5382087
118A,شارع 400,32897,30.3849887,30.5382766
113A,شارع 400,32897,30.3852640,30.5379669
114A,شارع 400,32897,30.3852041,30.5380344
115A,شارع 400,32897,30.3851530,30.5380919
116A,شارع 400,32897,30.3851077,30.5381427
112A,شارع 400,32897,30.3853251,30.5378982
111A,شارع 400,32897,30.3853774,30.5378394
59A,شارع 400,32897,30.3869126,30.5360397
60A,شارع 400,32897,30.3868633,30.5360979
13A,شارع ابى بكر الصديق,32897,30.3863809,30.5351552
84A,شارع 400,32897,30.3860551,30.5370466
83A,شارع 400,32897,30.3861152,30.5369782
14A,شارع ابى بكر الصديق,32897,30.3863260,30.5350915
98A,شارع 400,32897,30.3856876,30.5374777
65A,شارع 400,32897,30.3865975,30.5364120
97A,شارع 400,32897,30.3857503,30.5374027
5A,شارع ابى بكر الصديق,32897,30.3867354,30.5355626
66A,شارع 400,32897,30.3865471,30.5364715
6A,شارع ابى بكر الصديق,32897,30.3866793,30.5354987
61A,شارع 400,32897,30.3868129,30.5361575
79A,شارع 400,32897,30.3863295,30.5367344
1A,شارع ابى بكر الصديق,32897,30.3869427,30.5357983
85A,شارع 400,32897,30.3860094,30.5370985
80A,شارع 400,32897,30.3862732,30.5367984
2A,شارع ابى بكر الصديق,32897,30.3868935,30.5357424
15A,شارع ابى بكر الصديق,32897,30.3862705,30.5350271
86A,شارع 400,32897,30.3859593,30.5371555
99A,شارع 400,32897,30.3856380,30.5375369
62A,شارع 400,32897,30.3867688,30.5362096
16A,شارع ابى بكر الصديق,32897,30.3862213,30.5349701
100A,شارع 400,32897,30.3855789,30.5376076
67A,شارع 400,32897,30.3864910,30.5365378
7A,شارع ابى بكر الصديق,32897,30.3866226,30.5354342
18A,شارع ابى بكر الصديق,32897,30.3861132,30.5348448
11A,شارع ابى بكر الصديق,32897,30.3864880,30.5352793
68A,شارع 400,32897,30.3864325,30.5366070
8A,شارع ابى بكر الصديق,32897,30.3865730,30.5353778
81A,شارع 400,32897,30.3862308,30.5368467
3A,شارع ابى بكر الصديق,32897,30.3868410,30.5356826
12A,شارع ابى بكر الصديق,32897,30.3864336,30.5352163
27A,شارع ابى بكر الصديق,32897,30.3860206,30.5347522
82A,شارع 400,32897,30.3861695,30.5369164
63A,شارع 400,32897,30.3867127,30.5362760
95A,شارع 400,32897,30.3858482,30.5372856
17A,شارع ابى بكر الصديق,32897,30.3861669,30.5349071
101A,شارع 400,32897,30.3855254,30.5376715
64A,شارع 400,32897,30.3866536,30.5363457
96A,شارع 400,32897,30.3858026,30.5373401
4A,شارع ابى بكر الصديق,32897,30.3867892,30.5356237
33A,شارع ابى بكر الصديق,32897,30.3857085,30.5343762
34A,شارع ابى بكر الصديق,32897,30.3856571,30.5343144
49A,شارع ابى بكر الصديق,32897,30.3852216,30.5338534
50A,شارع ابى بكر الصديق,32897,30.3851619,30.5337901
43A,شارع ابى بكر الصديق,32897,30.3855580,30.5342095
44A,شارع ابى بكر الصديق,32897,30.3855127,30.5341616
46A,شارع ابى بكر الصديق,32897,30.3853913,30.5340330
31A,شارع ابى بكر الصديق,32897,30.3858116,30.5345005
45A,شارع ابى بكر الصديق,32897,30.3854554,30.5341008
32A,شارع ابى بكر الصديق,32897,30.3857503,30.5344267
47A,شارع ابى بكر الصديق,32897,30.3853329,30.5339712
48A,شارع ابى بكر الصديق,32897,30.3852780,30.5339130
58B,شارع ابى بكر الصديق,32897,30.3832002,30.5315516
52B,شارع ابى بكر الصديق,32897,30.3835138,30.5319109
4B,شارع ابى بكر الصديق,32897,30.3849232,30.5335265
22B,شارع ابى بكر الصديق,32897,30.3843555,30.5328638
39B,شارع ابى بكر الصديق,32897,30.3838422,30.5322664
33B,شارع ابى بكر الصديق,32897,30.3841522,30.5326326
51B,شارع ابى بكر الصديق,32897,30.3835680,30.5319729
3B,شارع ابى بكر الصديق,32897,30.3849768,30.5335891
38B,شارع ابى بكر الصديق,32897,30.3838863,30.5323186
50B,شارع ابى بكر الصديق,32897,30.3836244,30.5320376
2B,شارع ابى بكر الصديق,32897,30.3850241,30.5336442
57B,شارع ابى بكر الصديق,32897,30.3832439,30.5316016
21B,شارع ابى بكر الصديق,32897,30.3844004,30.5329162
56B,شارع ابى بكر الصديق,32897,30.3832939,30.5316589
8B,شارع ابى بكر الصديق,32897,30.3847042,30.5332708
20B,شارع ابى بكر الصديق,32897,30.3844598,30.5329855
37B,شارع ابى بكر الصديق,32897,30.3839379,30.5323795
55B,شارع ابى بكر الصديق,32897,30.3833527,30.5317263
49B,شارع ابى بكر الصديق,32897,30.3836791,30.5321002
7B,شارع ابى بكر الصديق,32897,30.3847560,30.5333313
1B,شارع ابى بكر الصديق,32897,30.3850766,30.5336998
19B,شارع ابى بكر الصديق,32897,30.3845059,30.5330394
36B,شارع ابى بكر الصديق,32897,30.3839976,30.5324500
54B,شارع ابى بكر الصديق,32897,30.3834016,30.5317823
6B,شارع ابى بكر الصديق,32897,30.3848079,30.5333919
18B,شارع ابى بكر الصديق,32897,30.3845624,30.5331053
35B,شارع ابى بكر الصديق,32897,30.3840537,30.5325162
34B,شارع ابى بكر الصديق,32897,30.3841064,30.5325785
60B,شارع ابى بكر الصديق,32897,30.3830821,30.5314162
24B,شارع ابى بكر الصديق,32897,30.3842448,30.5327345
59B,شارع ابى بكر الصديق,32897,30.3831380,30.5314803
53B,شارع ابى بكر الصديق,32897,30.3834598,30.5318490
5B,شارع ابى بكر الصديق,32897,30.3848598,30.5334525
23B,شارع ابى بكر الصديق,32897,30.3842840,30.5327803
17B,شارع ابى بكر الصديق,32897,30.3846120,30.5331632
40B,شارع ابى بكر الصديق,32897,30.3837855,30.5321994
837,شارع الفقي,32897,30.4011924,30.5611923
839,شارع الفقي,32897,30.4010289,30.5610064
836,شارع الفقي,32897,30.4012741,30.5612853
1049,شارع الفقي,32897,30.3982091,30.5578080
1047,شارع الفقي,32897,30.3982777,30.5578860
1045,شارع الفقي,32897,30.3983463,30.5579640
1043,شارع الفقي,32897,30.3984149,30.5580420
1041,شارع الفقي,32897,30.3984835,30.5581200
1039,شارع الفقي,32897,30.3985520,30.5581980
1037,شارع الفقي,32897,30.3986206,30.5582760
1035,شارع الفقي,32897,30.3986719,30.5583344
1033,شارع الفقي,32897,30.3987894,30.5584679
1031,شارع الفقي,32897,30.3988601,30.5585484
1029,شارع الفقي,32897,30.3989308,30.5586288
1027,شارع الفقي,32897,30.3990015,30.5587092
1025,شارع الفقي,32897,30.3990723,30.5587897
1023,شارع الفقي,32897,30.3991430,30.5588701
1021,شارع الفقي,32897,30.3992068,30.5589384
1019,شارع الفقي,32897,30.3992914,30.5590417
1051,شارع الفقي,32897,30.3981406,30.5577300
1017,شارع الفقي,32897,30.3993551,30.5591114
870,شارع الفقي,32897,30.3997755,30.5596256
868,شارع الفقي,32897,30.3998477,30.5597066
866,شارع الفقي,32897,30.3999200,30.5597877
864,شارع الفقي,32897,30.3999922,30.5598687
862,شارع الفقي,32897,30.4000644,30.5599498
860,شارع الفقي,32897,30.4001366,30.5600308
854,شارع الفقي,32897,30.4004621,30.5603856
852,شارع الفقي,32897,30.4005269,30.5604568
850,شارع الفقي,32897,30.4005917,30.5605281
848,شارع الفقي,32897,30.4006565,30.5605993
846,شارع الفقي,32897,30.4007212,30.5606706
844,شارع الفقي,32897,30.4007860,30.5607418
842,شارع الفقي,32897,30.4008508,30.5608131
872,شارع الفقي,32897,30.3997033,30.5595446
858,شارع الفقي,32897,30.4002088,30.5601118
856,شارع الفقي,32897,30.4003973,30.5603144
840,شارع الفقي,32897,30.4009156,30.5608843
838,شارع الفقي,32897,30.4011107,30.5610993
96,شارع جمال عبد الناصر,32897,30.3822108,30.5002462
94,شارع جمال عبد الناصر,32897,30.3823291,30.5001112
92,شارع جمال عبد الناصر,32897,30.3824474,30.4999761
88,شارع جمال عبد الناصر,32897,30.3827370,30.4996457
90,شارع جمال عبد الناصر,32897,30.3826247,30.4997738
76,شارع جمال عبد الناصر,32897,30.3834104,30.4988771
86,شارع جمال عبد الناصر,32897,30.3828492,30.4995176
78,شارع جمال عبد الناصر,32897,30.3832981,30.4990052
80,شارع جمال عبد الناصر,32897,30.3831859,30.4991333
82,شارع جمال عبد الناصر,32897,30.3830737,30.4992614
84,شارع جمال عبد الناصر,32897,30.3829614,30.4993895
73,شارع نجيب الريحانى,32897,30.3842395,30.4991474
75,شارع نجيب الريحانى,32897,30.3840118,30.4988829
74,شارع نجيب الريحانى,32897,30.3841256,30.4990151
72,شارع نجيب الريحانى,32897,30.3843666,30.4993036
70,شارع نجيب الريحانى,32897,30.3844804,30.4994358
66,شارع نجيب الريحانى,32897,30.3847081,30.4997004
58,شارع نجيب الريحانى,32897,30.3851635,30.5002294
60,شارع نجيب الريحانى,32897,30.3850497,30.5000971
62,شارع نجيب الريحانى,32897,30.3849358,30.4999649
64,شارع نجيب الريحانى,32897,30.3848220,30.4998326
68,شارع نجيب الريحانى,32897,30.3845943,30.4995681
54,شارع نجيب الريحانى,32897,30.3855329,30.5006494
56,شارع نجيب الريحانى,32897,30.3854160,30.5005196
52,شارع نجيب الريحانى,32897,30.3856499,30.5007792
50,شارع نجيب الريحانى,32897,30.3857668,30.5009090
38,شارع نجيب الريحانى,32897,30.3865149,30.5017601
48,شارع نجيب الريحانى,32897,30.3859371,30.5011022
40,شارع نجيب الريحانى,32897,30.3864005,30.5016299
42,شارع نجيب الريحانى,32897,30.3862873,30.5015009
44,شارع نجيب الريحانى,32897,30.3861646,30.5013613
46,شارع نجيب الريحانى,32897,30.3860515,30.5012325
36,شارع نجيب الريحانى,32897,30.3866305,30.5018917
35,شارع نجيب الريحانى,32897,30.3867635,30.5020432
34,شارع نجيب الريحانى,32897,30.3869258,30.5022279
33,شارع نجيب الريحانى,32897,30.3870437,30.5023622
32,شارع نجيب الريحانى,32897,30.3871546,30.5024885
31,شارع نجيب الريحانى,32897,30.3872654,30.5026147
142,شارع 200,32897,30.3804026,30.5224791
140,شارع 200,32897,30.3805203,30.5223396
138,شارع 200,32897,30.3806269,30.5222132
136,شارع 200,32897,30.3807422,30.5220764
134,شارع 200,32897,30.3808604,30.5219362
132,شارع 200,32897,30.3809756,30.5217995
130,شارع 200,32897,30.3810923,30.5216611
128,شارع 200,32897,30.3811986,30.5215350
126,شارع 200,32897,30.3813027,30.5214116
124,شارع 200,32897,30.3814578,30.5212292
122,شارع 200,32897,30.3815750,30.5210809
120,شارع 200,32897,30.3816693,30.5209616
118,شارع 200,32897,30.3817886,30.5208108
57,شارع طلعت حرب,32897,30.3800393,30.5166480
56,شارع طلعت حرب,32897,30.3799213,30.5167767
55,شارع طلعت حرب,32897,30.3797825,30.5169135
54,شارع طلعت حرب,32897,30.3796483,30.5170289
53,شارع طلعت حرب,32897,30.3795025,30.5171335
52,شارع طلعت حرب,32897,30.3793405,30.5172139
51,شارع طلعت حرب,32897,30.3791901,30.5172998
50,شارع طلعت حرب,32897,30.3790351,30.5173427
49,شارع طلعت حرب,32897,30.3788500,30.5173641
48,شارع طلعت حرب,32897,30.3785376,30.5173776
47,شارع طلعت حرب,32897,30.3783620,30.5173817
46,شارع طلعت حرب,32897,30.3781930,30.5173858
45,شارع طلعت حرب,32897,30.3780335,30.5173896
44,شارع طلعت حرب,32897,30.3778690,30.5173935
43,شارع طلعت حرب,32897,30.3777114,30.5173973
42,شارع طلعت حرب,32897,30.3775448,30.5174013
41,شارع طلعت حرب,32897,30.3773969,30.5174048
40,شارع طلعت حرب,32897,30.3772256,30.5174089
39,شارع طلعت حرب,32897,30.3770775,30.5174124
11,شارع طلعت حرب,32897,30.3764203,30.5174661
10,شارع طلعت حرب,32897,30.3762653,30.5175090
9,شارع طلعت حرب,32897,30.3761357,30.5175465
8,شارع طلعت حرب,32897,30.3759853,30.5176297
7,شارع طلعت حرب,32897,30.3758626,30.5177262
6,شارع طلعت حرب,32897,30.3757631,30.5178308
5,شارع طلعت حرب,32897,30.3756566,30.5179492
4,شارع طلعت حرب,32897,30.3755572,30.5180596
3,شارع طلعت حرب,32897,30.3754653,30.5181617
2,شارع طلعت حرب,32897,30.3753660,30.5182719
1,شارع طلعت حرب,32897,30.3752633,30.5183861
71,شارع جمال عبد الناصر,32897,30.3792457,30.5036929
73,شارع جمال عبد الناصر,32897,30.3793767,30.5035418
75,شارع جمال عبد الناصر,32897,30.3795216,30.5033745
77,شارع جمال عبد الناصر,32897,30.3796515,30.5032247
79,شارع جمال عبد الناصر,32897,30.3797860,30.5030694
81,شارع جمال عبد الناصر,32897,30.3799182,30.5029170
83,شارع جمال عبد الناصر,32897,30.3801223,30.5026814
85,شارع جمال عبد الناصر,32897,30.3802707,30.5025102
88,شارع جمال عبد الناصر,32897,30.3806720,30.5020472
92,شارع جمال عبد الناصر,32897,30.3809034,30.5017802
104,شارع جمال عبد الناصر,32897,30.3816196,30.5009539
102,شارع جمال عبد الناصر,32897,30.3815080,30.5010826
90,شارع جمال عبد الناصر,32897,30.3807828,30.5019194
96,شارع جمال عبد الناصر,32897,30.3811731,30.5014690
87,شارع جمال عبد الناصر,32897,30.3804083,30.5023515
98,شارع جمال عبد الناصر,32897,30.3812847,30.5013403
106,شارع جمال عبد الناصر,32897,30.3817475,30.5008063
100,شارع جمال عبد الناصر,32897,30.3813964,30.5012114
94,شارع جمال عبد الناصر,32897,30.3810615,30.5015978
324,شارع طلعت حرب,32897,30.3750423,30.5186851
323,شارع طلعت حرب,32897,30.3749474,30.5188233
322,شارع طلعت حرب,32897,30.3748676,30.5190030
321,شارع طلعت حرب,32897,30.3748259,30.5191880
320,شارع طلعت حرب,32897,30.3748005,30.5193543
319,شارع طلعت حرب,32897,30.3747785,30.5195408
318,شارع طلعت حرب,32897,30.3748051,30.5197969
317,شارع طلعت حرب,32897,30.3748081,30.5199899
316,شارع طلعت حرب,32897,30.3748110,30.5201722
315,شارع طلعت حرب,32897,30.3748138,30.5203532
314,شارع طلعت حرب,32897,30.3748168,30.5205504
313,شارع طلعت حرب,32897,30.3748196,30.5207287
312,شارع طلعت حرب,32897,30.3748225,30.5209127
311,شارع طلعت حرب,32897,30.3748167,30.5212024
310,شارع طلعت حرب,32897,30.3747935,30.5214183
309,شارع طلعت حرب,32897,30.3747727,30.5216168
308,شارع طلعت حرب,32897,30.3746906,30.5218166
307,شارع طلعت حرب,32897,30.3746073,30.5219883
306,شارع طلعت حرب,32897,30.3744788,30.5221613
305,شارع طلعت حرب,32897,30.3743712,30.5223128
304,شارع طلعت حرب,32897,30.3741769,30.5225167
303,شارع طلعت حرب,32897,30.3740695,30.5226515
302,شارع طلعت حرب,32897,30.3739700,30.5227764
301,شارع طلعت حرب,32897,30.3738627,30.5229112
300,شارع ابى بكر الصديق,32897,30.3737476,30.5230558
299,شارع ابى بكر الصديق,32897,30.3739026,30.5232033
298,شارع ابى بكر الصديق,32897,30.3740114,30.5233441
297,شارع ابى بكر الصديق,32897,30.3741572,30.5235091
296,شارع ابى بكر الصديق,32897,30.3743030,30.5236244
295,شارع ابى بكر الصديق,32897,30.3744684,30.5237156
294,شارع ابى بكر الصديق,32897,30.3746107,30.5238041
293,شارع ابى بكر الصديق,32897,30.3747762,30.5238618
292,شارع ابى بكر الصديق,32897,30.3749567,30.5239020
291,شارع ابى بكر الصديق,32897,30.3751164,30.5239208
290,شارع ابى بكر الصديق,32897,30.3752957,30.5239329
289,شارع ابى بكر الصديق,32897,30.3754554,30.5239409
280,شارع ابى بكر الصديق,32897,30.3757423,30.5239356
261,شارع ابى بكر الصديق,32897,30.3763231,30.5239329
260,شارع ابى بكر الصديق,32897,30.3765036,30.5239503
259,شارع ابى بكر الصديق,32897,30.3766598,30.5239610
258,شارع ابى بكر الصديق,32897,30.3768484,30.5240160
257,شارع ابى بكر الصديق,32897,30.3770243,30.5240670
256,شارع ابى بكر الصديق,32897,30.3771920,30.5241314
255,شارع ابى بكر الصديق,32897,30.3773505,30.5242038
254,شارع ابى بكر الصديق,32897,30.3775032,30.5243164
253,شارع ابى بكر الصديق,32897,30.3776594,30.5244304
252,شارع ابى بكر الصديق,32897,30.3777960,30.5245619
251,شارع ابى بكر الصديق,32897,30.3780077,30.5247791
250,شارع ابى بكر الصديق,32897,30.3780991,30.5249012
249,شارع ابى بكر الصديق,32897,30.3782310,30.5250527
248,شارع 200,32897,30.3784323,30.5247965
246,شارع 200,32897,30.3785425,30.5246646
244,شارع 200,32897,30.3786564,30.5245282
242,شارع 200,32897,30.3787622,30.5244017
240,شارع 200,32897,30.3788758,30.5242657
238,شارع 200,32897,30.3789920,30.5241266
236,شارع 200,32897,30.3791012,30.5239959
234,شارع 200,32897,30.3792230,30.5238501
232,شارع 200,32897,30.3793324,30.5237192
230,شارع 200,32897,30.3794406,30.5235896
228,شارع 200,32897,30.3796397,30.5233513
226,شارع 200,32897,30.3797432,30.5232275
200,شارع ابى بكر الصديق,32897,30.3946506,30.5460316
173,شارع ابى بكر الصديق,32897,30.3935817,30.5448112
166,شارع ابى بكر الصديق,32897,30.3928691,30.5439985
197,شارع ابى بكر الصديق,32897,30.3951434,30.5465868
86,شارع طه حسين,32897,30.3811138,30.5074242
85,شارع طه حسين,32897,30.3812813,30.5075319
84,شارع طه حسين,32897,30.3814488,30.5076395
83,شارع طه حسين,32897,30.3816046,30.5077684
82,شارع طه حسين,32897,30.3817600,30.5078981
81,شارع طه حسين,32897,30.3819133,30.5080309
80,شارع طه حسين,32897,30.3820577,30.5081767
79,شارع طه حسين,32897,30.3822021,30.5083224
78,شارع طه حسين,32897,30.3823468,30.5084678
77,شارع طه حسين,32897,30.3824918,30.5086128
76,شارع طه حسين,32897,30.3826328,30.5087630
75,شارع طه حسين,32897,30.3827730,30.5089142
87,شارع طه حسين,32897,30.3809464,30.5073166
74,شارع طه حسين,32897,30.3829132,30.5090654
58,شارع طه حسين,32897,30.3788609,30.5055934
57,شارع طه حسين,32897,30.3790014,30.5057585
56,شارع طه حسين,32897,30.3791420,30.5059236
55,شارع طه حسين,32897,30.3792825,30.5060887
54,شارع طه حسين,32897,30.3794230,30.5062538
53,شارع طه حسين,32897,30.3795684,30.5064246
52,شارع طه حسين,32897,30.3797103,30.5065913
51,شارع طه حسين,32897,30.3798733,30.5067336
50,شارع طه حسين,32897,30.3800440,30.5068632
49,شارع طه حسين,32897,30.3802165,30.5069899
48,شارع طه حسين,32897,30.3803894,30.5071157
59,شارع طه حسين,32897,30.3787204,30.5054283
47,شارع طه حسين,32897,30.3805623,30.5072415
4,شارع جمال عبد الناصر,32897,30.3786091,30.5045192
3,شارع جمال عبد الناصر,32897,30.3784362,30.5046458
2,شارع جمال عبد الناصر,32897,30.3782726,30.5047940
5,شارع جمال عبد الناصر,32897,30.3787991,30.5044413
1,شارع جمال عبد الناصر,32897,30.3781373,30.5049562
45,شارع عمر بن عبد العزيز,32897,30.3735227,30.5060219
44,شارع عمر بن عبد العزيز,32897,30.3734622,30.5058215
43,شارع عمر بن عبد العزيز,32897,30.3734017,30.5056212
42,شارع عمر بن عبد العزيز,32897,30.3733411,30.5054208
41,شارع عمر بن عبد العزيز,32897,30.3732806,30.5052205
40,شارع عمر بن عبد العزيز,32897,30.3732169,30.5049953
39,شارع عمر بن عبد العزيز,32897,30.3730877,30.5047782
46,شارع عمر بن عبد العزيز,32897,30.3735833,30.5062222
38,شارع عمر بن عبد العزيز,32897,30.3729585,30.5046129
53,شارع عمر بن عبد العزيز,32897,30.3742412,30.5076401
52,شارع عمر بن عبد العزيز,32897,30.3741250,30.5074540
51,شارع عمر بن عبد العزيز,32897,30.3740141,30.5072634
50,شارع عمر بن عبد العزيز,32897,30.3739086,30.5070688
49,شارع عمر بن عبد العزيز,32897,30.3738062,30.5068719
48,شارع عمر بن عبد العزيز,32897,30.3737154,30.5066676
54,شارع عمر بن عبد العزيز,32897,30.3743747,30.5078101
47,شارع عمر بن عبد العزيز,32897,30.3736388,30.5064556
19,شارع جمال عبد الناصر,32897,30.3748108,30.5078229
18,شارع جمال عبد الناصر,32897,30.3748759,30.5076245
17,شارع عبد المنعم رياض,32897,30.3748718,30.5073823
16,شارع عبد المنعم رياض,32897,30.3748008,30.5071631
15,شارع عبد المنعم رياض,32897,30.3746935,30.5070265
14,شارع عبد المنعم رياض,32897,30.3745816,30.5068634
13,شارع عبد المنعم رياض,32897,30.3744872,30.5066915
12,شارع عبد المنعم رياض,32897,30.3744048,30.5065275
20,شارع جمال عبد الناصر,32897,30.3746686,30.5080622
11,شارع عبد المنعم رياض,32897,30.3743238,30.5063134
9,شارع عبد المنعم رياض,32897,30.3741802,30.5057068
8,شارع عبد المنعم رياض,32897,30.3741177,30.5055105
7,شارع عبد المنعم رياض,32897,30.3740667,30.5053357
6,شارع عبد المنعم رياض,32897,30.3740157,30.5051609
5,شارع عبد المنعم رياض,32897,30.3739499,30.5049334
4,شارع عبد المنعم رياض,32897,30.3738678,30.5047419
3,شارع عبد المنعم رياض,32897,30.3737778,30.5045505
2,شارع عبد المنعم رياض,32897,30.3736691,30.5043834
10,شارع عبد المنعم رياض,32897,30.3742197,30.5058601
1,شارع عبد المنعم رياض,32897,30.3735393,30.5041945
240,شارع عبد المنعم رياض,32897,30.3761664,30.5086729
239,شارع عبد المنعم رياض,32897,30.3762967,30.5088195
238,شارع عبد المنعم رياض,32897,30.3764270,30.5089660
237,شارع عبد المنعم رياض,32897,30.3765545,30.5091155
236,شارع عبد المنعم رياض,32897,30.3766603,30.5092862
235,شارع عبد المنعم رياض,32897,30.3767419,30.5094740
234,شارع عبد المنعم رياض,32897,30.3767973,30.5097172
233,شارع عبد المنعم رياض,32897,30.3768110,30.5099049
241,شارع عبد المنعم رياض,32897,30.3760362,30.5085263
232,شارع عبد المنعم رياض,32897,30.3768246,30.5100926
243,شارع جمال عبد الناصر,32897,30.3756035,30.5079898
244,شارع جمال عبد الناصر,32897,30.3754823,30.5081232
247,شارع جمال عبد الناصر,32897,30.3753636,30.5082538
248,شارع جمال عبد الناصر,32897,30.3752164,30.5084159
251,شارع جمال عبد الناصر,32897,30.3750429,30.5086069
252,شارع جمال عبد الناصر,32897,30.3749139,30.5087489
275,شارع عبد المنعم رياض,32897,30.3766691,30.5109000
274,شارع عبد المنعم رياض,32897,30.3764805,30.5109134
273,شارع عبد المنعم رياض,32897,30.3762919,30.5109268
276,شارع عبد المنعم رياض,32897,30.3768576,30.5108866
272,شارع عبد المنعم رياض,32897,30.3761033,30.5109403
288,شارع عبد المنعم رياض,32897,30.3775939,30.5128286
287,شارع عبد المنعم رياض,32897,30.3774698,30.5126806
286,شارع عبد المنعم رياض,32897,30.3773456,30.5125326
285,شارع عبد المنعم رياض,32897,30.3772214,30.5123846
284,شارع عبد المنعم رياض,32897,30.3770896,30.5121621
283,شارع عبد المنعم رياض,32897,30.3770302,30.5119804
282,شارع عبد المنعم رياض,32897,30.3769814,30.5117902
289,شارع عبد المنعم رياض,32897,30.3777181,30.5129766
281,شارع عبد المنعم رياض,32897,30.3769294,30.5116001
279,شارع عبد المنعم رياض,32897,30.3766011,30.5113861
278,شارع عبد المنعم رياض,32897,30.3767737,30.5113580
280,شارع عبد المنعم رياض,32897,30.3764498,30.5115166
277,شارع عبد المنعم رياض,32897,30.3769490,30.5113461
291,شارع عبد المنعم رياض,32897,30.3780065,30.5133234
292,شارع عبد المنعم رياض,32897,30.3781303,30.5134803
290,شارع عبد المنعم رياض,32897,30.3778793,30.5131704
294,شارع عبد المنعم رياض,32897,30.3783432,30.5136788
293,شارع عبد المنعم رياض,32897,30.3782021,30.5138504
297,شارع عبد المنعم رياض,32897,30.3783949,30.5142903
296,شارع عبد المنعم رياض,32897,30.3785276,30.5141348
298,شارع عبد المنعم رياض,32897,30.3782622,30.5144459
295,شارع عبد المنعم رياض,32897,30.3786602,30.5139792
166,شارع أحمد إسماعيل على,32897,30.3780672,30.5156024
165,شارع أحمد إسماعيل على,32897,30.3782573,30.5155846
164,شارع أحمد إسماعيل على,32897,30.3784436,30.5155371
163,شارع أحمد إسماعيل على,32897,30.3786225,30.5154609
162,شارع أحمد إسماعيل على,32897,30.3787910,30.5153574
161,شارع أحمد إسماعيل على,32897,30.3789473,30.5152307
160,شارع أحمد إسماعيل على,32897,30.3790991,30.5150969
159,شارع أحمد إسماعيل على,32897,30.3792369,30.5149441
167,شارع أحمد إسماعيل على,32897,30.3778768,30.5155902
158,شارع أحمد إسماعيل على,32897,30.3793613,30.5147764
122,شارع عبد المنعم رياض,32897,30.3804949,30.5164197
121,شارع عبد المنعم رياض,32897,30.3806033,30.5165836
120,شارع عبد المنعم رياض,32897,30.3807024,30.5167544
119,شارع عبد المنعم رياض,32897,30.3807991,30.5169561
118,شارع عبد المنعم رياض,32897,30.3808796,30.5171668
123,شارع عبد المنعم رياض,32897,30.3803878,30.5162548
156,شارع عبد المنعم رياض,32897,30.3820440,30.5186033
155,شارع عبد المنعم رياض,32897,30.3821629,30.5187508
154,شارع عبد المنعم رياض,32897,30.3822818,30.5188984
153,شارع عبد المنعم رياض,32897,30.3824007,30.5190459
152,شارع عبد المنعم رياض,32897,30.3825195,30.5191934
151,شارع عبد المنعم رياض,32897,30.3826384,30.5193409
150,شارع عبد المنعم رياض,32897,30.3827573,30.5194885
157,شارع عبد المنعم رياض,32897,30.3819252,30.5184558
149,شارع عبد المنعم رياض,32897,30.3828762,30.5196360
22,شارع عبد المنعم رياض,32897,30.3888762,30.5226099
23,شارع عبد المنعم رياض,32897,30.3886474,30.5225449
13,شارع عبد المنعم رياض,32897,30.3896321,30.5230224
15,شارع عبد المنعم رياض,32897,30.3894762,30.5229100
7,شارع عبد المنعم رياض,32897,30.3900731,30.5235051
5,شارع عبد المنعم رياض,32897,30.3901992,30.5236432
3,شارع عبد المنعم رياض,32897,30.3903461,30.5238135
11,شارع عبد المنعم رياض,32897,30.3897753,30.5231557
17,شارع عبد المنعم رياض,32897,30.3893098,30.5228201
19,شارع عبد المنعم رياض,32897,30.3890953,30.5227105
26,شارع عبد المنعم رياض,32897,30.3884130,30.5225167
9,شارع عبد المنعم رياض,32897,30.3899054,30.5233025
1,شارع عبد المنعم رياض,32897,30.3904930,30.5239838
275,شارع عباس العقاد,32897,30.3758696,30.5464753
493,شارع عباس العقاد,32897,30.3748442,30.5452990
485,شارع عباس العقاد,32897,30.3751391,30.5456419
237,شارع 400,32897,30.3776190,30.5469224
263,شارع عباس العقاد,32897,30.3763833,30.5471412
285,شارع عباس العقاد,32897,30.3754465,30.5460592
265,شارع عباس العقاد,32897,30.3762925,30.5470538
519,شارع عباس العقاد,32897,30.3733311,30.5436395
505,شارع عباس العقاد,32897,30.3743203,30.5447695
497,شارع عباس العقاد,32897,30.3746443,30.5451523
521,شارع عباس العقاد,32897,30.3732525,30.5435570
495,شارع عباس العقاد,32897,30.3747045,30.5452256
511,شارع عباس العقاد,32897,30.3739086,30.5442278
257,شارع عباس العقاد,32897,30.3766081,30.5474046
483,شارع عباس العقاد,32897,30.3752078,30.5457278
517,شارع عباس العقاد,32897,30.3736756,30.5439686
269,شارع عباس العقاد,32897,30.3760695,30.5467165
513,شارع عباس العقاد,32897,30.3738382,30.5441399
283,شارع عباس العقاد,32897,30.3755136,30.5461397
245,شارع 400,32897,30.3773121,30.5472707
277,شارع عباس العقاد,32897,30.3757785,30.5463780
503,شارع عباس العقاد,32897,30.3744061,30.5448575
515,شارع عباس العقاد,32897,30.3737515,30.5440554
239,شارع 400,32897,30.3775334,30.5470220
524,شارع عباس العقاد,32897,30.3730157,30.5432708
243,شارع 400,32897,30.3773927,30.5472123
267,شارع عباس العقاد,32897,30.3762311,30.5469725
261,شارع عباس العقاد,32897,30.3764710,30.5472363
279,شارع عباس العقاد,32897,30.3757120,30.5462977
542,شارع ظاظا,32897,30.3869715,30.5559475
561,شارع ظاظا,32897,30.3870932,30.5563056
556,شارع ظاظا,32897,30.3865014,30.5565088
564,شارع ظاظا,32897,30.3868593,30.5565741
540,شارع ظاظا,32897,30.3870832,30.5558153
