House number,Street name,Postal code,Latitude,Longitude
1,Спортивная улица,3200,46.8450090,29.4684721
3/1,улица Ермакова,3200,46.8426045,29.4726441
57,улица Суворова,3200,46.8226828,29.4838553
20a,улица Ленина,3200,46.8227655,29.4819819
25a,улица Ленина,3200,46.8222979,29.4859920
3,улица Чайковского,3200,46.8211959,29.4556560
5,улица Бендерского Восстания,3200,46.8329229,29.4659870
28,улица Суворова,3200,46.8234960,29.4832863
38,Советская улица,3200,46.8230322,29.4815557
52,улица Кирова,3200,46.8242802,29.4760571
22,улица Ленина,3200,46.8220141,29.4846691
2а,улица Полоза,3200,46.8282155,29.4527052
1,улица Тургенева,3200,46.8203371,29.4640927
26,улица Пушкина,3200,46.8249572,29.4745582
90,улица Калинина,3200,46.8185285,29.4775772
61,улица Шестакова,3200,46.8186434,29.4854482
2,Садовая улица,3200,46.8193936,29.4868510
42,Московская улица,3200,46.8195571,29.4868145
121,улица Ткаченко,3200,46.8166667,29.4898368
6а,Молдавская улица,3200,46.8167979,29.4898315
23,улица Пирогова,3200,46.8103276,29.4627885
163,улица Суворова,3200,46.8084047,29.4807207
15,улица Энгельса,3200,46.8466671,29.4806275
216,Кишинёвская улица,3200,46.8467823,29.4546761
7,улица Глядковской,25100,46.8364885,29.4725376
43,улица Котовского,3200,46.8262630,29.4875630
11,улица Калинина,3200,46.8280212,29.4827147
30,улица Суворова,3200,46.8221077,29.4828550
17,улица Ленина,3200,46.8236286,29.4819276
181,ул. Коммунистическая,3200,46.8098922,29.4710801
12,улица Академика Фёдорова,3200,46.8250648,29.4707887
17,улица Калинина,3200,46.8262155,29.4814708
22,улица Ленина,3200,46.8222395,29.4837665
7,улица Суворова,3200,46.8277839,29.4864783
22,улица Гагарина,3200,46.8247698,29.4875294
47,Коммунистическая улица,3200,46.8261784,29.4800453
10/1,улица Ермакова,3200,46.8437335,29.4692802
10,улица Победы,3200,46.8025304,29.4667287
6,ул. Петровского,3200,46.8407970,29.4717119
12/3,Индустриальная улица,3200,46.7883322,29.4881218
5,ул. Академика Фёдорова,3200,46.8226695,29.4695015
3,улица Победы,3200,46.8036433,29.4658727
20,улица Ленина,3200,46.8226923,29.4825487
8,Советская ул.,3200,46.8274950,29.4831984
8,улица Ленина,3200,46.8252527,29.4746977
83,ул. Кирова,3200,46.8221265,29.4758145
35,ул. Кавриаго,3200,46.8170635,29.4832676
18,Московская улица,3200,46.8219785,29.4779800
17,улица Ленина,3200,46.8237150,29.4820431
208,Коммунистическая улица,3200,46.8078393,29.4672465
50,улица Калинина,3200,46.8236835,29.4793170
29,улица Сергея Лазо,3200,46.8242053,29.4836654
35,Индустриальная улица,3200,46.7982621,29.4884651
78,Коммунистическая улица,3200,46.8235189,29.4777770
93,Коммунистическая ул.,3200,46.8207080,29.4771991
52/2,улица Кирова,3200,46.8236999,29.4759153
6а,ул. 50 лет ВЛКСМ,3200,46.8291003,29.4579481
6а,улица 50 лет ВЛКСМ,3200,46.8289839,29.4576337
1,Комсомольская улица,3200,46.8186976,29.4695374
13,улица Ленина,3200,46.8243214,29.4788294
31/1,улица 40 лет Победы,3200,46.8518020,29.4598222
28,Ленинградская улица,3200,46.8474817,29.4671113
37,улица Емилиана Букова,3200,46.7908005,29.4949153
39,улица Емилиана Букова,3200,46.7906995,29.4949760
2,улица Павлика Морозова,3200,46.8292860,29.4560422
11,улица Бендерского Восстания,3200,46.8251821,29.4627647
2,переулок Разина,3200,46.8084326,29.4808577
5,улица Кавриаго,3200,46.8192212,29.4738070
7,улица Кавриаго,3200,46.8190329,29.4746772
161,улица Суворова,3200,46.8087326,29.4806879
130а,улица Бендерского Восстания,3200,46.8214249,29.4604648
57/1,улица Суворова,3200,46.8231603,29.4839382
57,улица Суворова,3200,46.8229256,29.4838277
38,Советская улица,3200,46.8231302,29.4812342
5,Спортивная улица,3200,46.8446802,29.4671481
26,улица Дружбы,3200,46.8038326,29.4717218
29,Советская улица,3200,46.8251708,29.4830275
24,улица Ленина,3200,46.8218392,29.4853731
130а,улица Бендерского Восстания,3200,46.8213475,29.4606544
1,улица Победы,3200,46.8038838,29.4653353
13,улица Старого,3200,46.8217718,29.4589193
12,Молдавская улица,3200,46.8166689,29.4915389
23,улица Шевченко,3200,46.8166292,29.4914149
10,Советская улица,3200,46.8270365,29.4830274
29,Советская улица,3200,46.8259771,29.4835450
43,улица Суворова,3200,46.8252559,29.4850387
43,улица Суворова,3200,46.8250784,29.4849206
10,улица Энгельса,3200,46.8460519,29.4818027
12,улица Ленина,3200,46.8242204,29.4774767
10,Индустриальная улица,3200,46.7930922,29.4899313
21,улица Калинина,3200,46.8254630,29.4810733
7/4,улица Победы,3200,46.8037917,29.4679641
35,улица Тамары Кручок,3200,46.8047836,29.4857996
31,улица Титова,3200,46.8390931,29.4669549
33,улица Титова,3200,46.8390730,29.4670656
7,1-й переулок Петровского,3200,46.8395141,29.4674955
9,1-й переулок Петровского,3200,46.8394339,29.4673360
54,улица Некрасова,3200,46.8128486,29.4714285
56,улица Некрасова,3200,46.8128166,29.4715709
"56 кв.3,4",улица Бендерского Восстания,3200,46.8269116,29.4628967
"56 кв.1,2",улица Бендерского Восстания,3200,46.8270225,29.4629563
170,Коммунистическая улица,3200,46.8119935,29.4717426
172,Коммунистическая улица,3200,46.8118598,29.4716254
167,Коммунистическая улица,3200,46.8116659,29.4720585
36б,улица Дружбы,3200,46.8017138,29.4745886
23,улица Пирогова,3200,46.8105109,29.4630228
28,Южная улица,3200,46.7881205,29.4775838
187,Коммунистическая улица,3200,46.8066165,29.4676432
3,улица Павлика Морозова,3200,46.8299275,29.4560723
160,Коммунистическая улица,3200,46.8131018,29.4724343
5,Треугольный переулок,3200,46.8239754,29.4643637
3,Треугольный переулок,3200,46.8239240,29.4645449
1-а,Комсомольская улица,3200,46.8220578,29.4685596
11,улица Космонавтов,3200,46.8032648,29.4724657
3,Бельцкая улица,3200,46.8380153,29.4661022
29,Советская улица,3200,46.8247420,29.4828828
22,улица Ленина,3200,46.8222228,29.4839377
11,улица Ленина,3200,46.8227768,29.4823157
22,Панина,3200,46.8433092,29.4841363
17,улица Калинина,3200,46.8265171,29.4815914
12а,Индустриальная улица,3200,46.7858203,29.4882774
54,улица Дзержинского,3200,46.8197435,29.4702360
17,улица Ленина,3200,46.8236879,29.4816155
17,улица Ленина,3200,46.8235832,29.4818542
28,улица Калинина,3200,46.8271613,29.4813451
4А,улица Дзержинского,3200,46.8285290,29.4743407
29,Советская улица,3200,46.8254946,29.4832150
60,улица Калинина,3200,46.8216820,29.4789571
34,Советская улица,3200,46.8256133,29.4828183
21,улица Ленина,3200,46.8224878,29.4843599
12,улица Котовского,3200,46.8271289,29.4874851
34,улица Суворова,3200,46.8218704,29.4828282
20,улица Ленина,3200,46.8228191,29.4822054
20,улица Ленина,3200,46.8228463,29.4820894
3,улица Ермакова,3200,46.8429402,29.4742258
7а,улица 50 лет ВЛКСМ,3200,46.8288070,29.4563296
17,Железнодорожная улица,3200,46.8273719,29.4607810
2а,улица Чехова,3200,46.8197195,29.4604948
65,улица Котовского,3200,46.8234610,29.4861439
22,улица Ленина,3200,46.8225684,29.4829403
2А,улица Тимирязева,3200,46.7849268,29.4835971
3,улица Дружбы,3200,46.8043813,29.4739490
9,Первомайская улица,3200,46.8157858,29.4721943
7,Первомайская улица,3200,46.8160692,29.4717140
96,улица Кирова,3200,46.8162181,29.4725742
91а,улица Пушкина,3200,46.8163745,29.4721952
89,улица Пушкина,3200,46.8166978,29.4715891
91,улица Пушкина,3200,46.8162952,29.4713997
10,улица Горького,3200,46.8170425,29.4721039
4,улица Горького,3200,46.8174246,29.4707128
5,Первомайская улица,3200,46.8166798,29.4703481
71,улица Дзержинского,3200,46.8170141,29.4696747
29,улица Космонавтов,3200,46.8004522,29.4715906
37,улица Космонавтов,3200,46.8003292,29.4742138
27,улица Космонавтов,3200,46.8004849,29.4709508
39,улица Космонавтов,3200,46.8003034,29.4748394
35,улица Космонавтов,3200,46.8003694,29.4735712
209,Коммунистическая улица,3200,46.8010987,29.4620637
33,улица Космонавтов,3200,46.8011544,29.4726534
31,улица Космонавтов,3200,46.8003134,29.4725791
2а,улица Победы,3200,46.8036616,29.4645680
2,Спортивная улица,3200,46.8453357,29.4672430
26а,улица Дружбы,3200,46.8024444,29.4719120
26,улица Дружбы,3200,46.8030478,29.4718191
26,улица Дружбы,3200,46.8035805,29.4717031
5,Ленинградская улица,3200,46.8485333,29.4712852
26,улица 40 лет Победы,3200,46.8513345,29.4613363
40,Советская улица,3200,46.8225005,29.4809942
1,Спортивная улица,3200,46.8449570,29.4685319
1,улица Мацнева,3200,46.8552328,29.4625091
45,улица Зои Космодемьянской,3200,46.8427161,29.4653580
83,улица 12 Октября,3200,46.8414619,29.4601311
89,Кишинёвская улица,3200,46.8432628,29.4579338
51,улица Зои Космодемьянской,3200,46.8437007,29.4638843
55,улица Зои Космодемьянской,3200,46.8434113,29.4630394
85,Кишинёвская улица,3200,46.8427220,29.4587687
87,Кишинёвская улица,3200,46.8429926,29.4583505
83б,Кишинёвская улица,3200,46.8426705,29.4598392
41,улица Зои Космодемьянской,3200,46.8434694,29.4654567
57,улица Зои Космодемьянской,3200,46.8436148,29.4625416
83а,Кишинёвская улица,3200,46.8422010,29.4601012
43,улица Зои Космодемьянской,3200,46.8430782,29.4656285
158,Кишинёвская улица,3200,46.8437409,29.4619716
5,Одесская улица,3200,46.8368486,29.4648113
52,улица 12 Октября,3200,46.8385882,29.4609298
2,Одесская улица,3200,46.8393204,29.4609925
50,улица 12 Октября,3200,46.8376309,29.4611498
1,Одесская улица,3200,46.8385489,29.4634161
4,Одесская улица,3200,46.8394310,29.4616706
3,Одесская улица,3200,46.8374835,29.4644414
37,Кишинёвская улица,3200,46.8396412,29.4628438
39,Кишинёвская улица,3200,46.8397475,29.4623294
33,Кишинёвская улица,3200,46.8382892,29.4643518
6,улица Панфилова,3200,46.8370467,29.4617473
115,Кишинёвская улица,3200,46.8456683,29.4540919
109,Кишинёвская улица,3200,46.8447259,29.4556789
113,Кишинёвская улица,3200,46.8452936,29.4553342
111,Кишинёвская улица,3200,46.8450477,29.4546820
5,улица Суворова,3200,46.8280788,29.4872615
12,улица Ткаченко,3200,46.8249635,29.4894027
36,Советская улица,3200,46.8249788,29.4824116
41,улица Суворова,3200,46.8261713,29.4857124
28,улица Шестакова,3200,46.8241168,29.4871060
32,Советская улица,3200,46.8259628,29.4828266
14,улица Котовского,3200,46.8270337,29.4868221
31,улица Сергея Лазо,3200,46.8250972,29.4811270
12,Тираспольская улица,3200,46.8295486,29.4829288
2,улица Гагарина,3200,46.8260949,29.4821958
25,улица Шестакова,3200,46.8240167,29.4883600
7,улица Суворова,3200,46.8276814,29.4864496
9,улица Суворова,3200,46.8270175,29.4861012
15,улица Гагарина,3200,46.8255888,29.4861944
14,улица Ткаченко,3200,46.8239732,29.4893826
14,Тираспольская улица,3200,46.8294355,29.4838389
17,улица Калинина,3200,46.8263073,29.4816334
13,улица Калинина,3200,46.8275846,29.4825572
2А,Советская улица,3200,46.8287786,29.4834063
10а,улица Зои Космодемьянской,3200,46.8427100,29.4701885
1А,улица Калинина,3200,46.8291891,29.4827299
28,улица Гагарина,3200,46.8243829,29.4886635
17,улица Котовского,3200,46.8285656,29.4881764
16,улица Котовского,3200,46.8264491,29.4867821
10,улица Ермакова,3200,46.8426723,29.4716176
15,улица Калинина,3200,46.8272855,29.4820495
6,улица Калинина,3200,46.8290040,29.4821253
21,улица Калинина,3200,46.8256033,29.4812041
36,улица Котовского,3200,46.8258767,29.4867989
27,улица Шестакова,3200,46.8233543,29.4879839
8,улица Ермакова,3200,46.8422513,29.4721173
1,улица Гагарина,3200,46.8267424,29.4820734
1б,улица Энгельса,3200,46.8428078,29.4801358
12,улица Котовского,3200,46.8274226,29.4875964
10,улица Ткаченко,3200,46.8256687,29.4894949
5а,улица Старого,3200,46.8206651,29.4630251
58,Ленинградская улица,3200,46.8529257,29.4642355
23,улица Павлика Морозова,3200,46.8345783,29.4539582
21,улица Павлика Морозова,3200,46.8343018,29.4538198
35,Пионерская улица,3200,46.8356211,29.4544525
8,улица Интернационалистов,3200,46.8335295,29.4544556
10,улица Интернационалистов,3200,46.8332421,29.4543408
4,улица Интернационалистов,3200,46.8337792,29.4551578
13,улица Павлика Морозова,3200,46.8315161,29.4547903
19,улица Павлика Морозова,3200,46.8338774,29.4538819
2,улица Интернационалистов,3200,46.8337252,29.4557481
2,улица Интернационалистов,3200,46.8338676,29.4561718
8,Советская улица,3200,46.8280083,29.4834333
11,улица Калинина,3200,46.8280156,29.4827691
5,улица Сергея Лазо,3200,46.8273750,29.4733894
10,Советская улица,3200,46.8270930,29.4830450
10,Советская улица,3200,46.8266519,29.4828532
8,Советская улица,3200,46.8275671,29.4832469
4А,улица Суворова,3200,46.8281375,29.4858894
3,улица Луначарского,3200,46.7876531,29.4834732
5,улица Тимирязева,3200,46.7859995,29.4864269
26,улица Тимирязева,3200,46.7851218,29.4891867
5,улица 40 лет ВЛКСМ,3200,46.7874547,29.4858059
7,Красноармейская улица,3200,46.7879859,29.4816401
4,улица 8 Марта,3200,46.7845621,29.4935445
107,Индустриальная улица,3200,46.7873508,29.4932544
12,улица 40 лет ВЛКСМ,3200,46.7859905,29.4854029
9,улица Луначарского,3200,46.7866640,29.4835017
35,Индустриальная улица,3200,46.7986447,29.4898741
109,Индустриальная улица,3200,46.7874584,29.4938084
3а,улица Крупской,3200,46.7886172,29.4838777
38,улица Емилиана Букова,3200,46.7892627,29.4938889
93,Индустриальная улица,3200,46.7913032,29.4919210
103а,Индустриальная улица,3200,46.7883664,29.4929552
2,улица Луначарского,3200,46.7880287,29.4829986
34,улица Емилиана Букова,3200,46.7900876,29.4935429
6,улица 40 лет ВЛКСМ,3200,46.7872588,29.4853447
99,Индустриальная улица,3200,46.7906866,29.4928526
28а,улица Тимирязева,3200,46.7848142,29.4897879
1,улица Луначарского,3200,46.7880327,29.4834888
8,улица 8 Марта,3200,46.7837837,29.4927329
4,улица Луначарского,3200,46.7876227,29.4830156
125,Индустриальная улица,3200,46.7897440,29.4793254
24а,улица Тимирязева,3200,46.7851785,29.4881406
24,улица Тимирязева,3200,46.7850289,29.4885574
36,улица Тимирязева,3200,46.7851773,29.4926734
17,улица Тамары Кручок,3200,46.8071140,29.4847229
31,улица Тамары Кручок,3200,46.8059149,29.4856463
28,улица Тимирязева,3200,46.7852759,29.4904503
9,Красноармейская улица,3200,46.7877141,29.4818180
10,улица 8 Марта,3200,46.7838115,29.4915614
101а,Индустриальная улица,3200,46.7900217,29.4920912
42,улица Емилиана Букова,3200,46.7896150,29.4943288
5,улица Луначарского,3200,46.7872478,29.4834810
6,улица Текстильщиков,3200,46.7886408,29.4822202
7,улица 40 лет ВЛКСМ,3200,46.7864431,29.4858435
11,улица Луначарского,3200,46.7859800,29.4835005
115,Индустриальная улица,3200,46.7874687,29.4868454
40,улица Емилиана Букова,3200,46.7900170,29.4943667
8а,улица 40 лет ВЛКСМ,3200,46.7866016,29.4844302
34,улица Тимирязева,3200,46.7846902,29.4921505
34,улица Тимирязева,3200,46.7846366,29.4920749
36,улица Емилиана Букова,3200,46.7896715,29.4937111
3,улица Текстильщиков,3200,46.7886951,29.4829207
97а,Индустриальная улица,3200,46.7894725,29.4930571
29,улица Тамары Кручок,3200,46.8064284,29.4857085
103,Индустриальная улица,3200,46.7893241,29.4924200
5,улица Крупской,3200,46.7880459,29.4839642
81,Индустриальная улица,3200,46.7937442,29.4908926
121,Индустриальная улица,3200,46.7895446,29.4806859
16а,Индустриальная улица,3200,46.7908181,29.4792743
26а,улица Тимирязева,3200,46.7844589,29.4894314
123,Индустриальная улица,3200,46.7896516,29.4799848
3,улица Тимирязева,3200,46.7857822,29.4844575
4,улица Текстильщиков,3200,46.7882692,29.4819768
2а,улица 40 лет ВЛКСМ,3200,46.7887111,29.4848986
125,улица Суворова,3200,46.8146685,29.4804824
14,улица 40 лет ВЛКСМ,3200,46.7873165,29.4844169
4,улица 40 лет ВЛКСМ,3200,46.7876641,29.4853368
6,улица Петровского,3200,46.8407326,29.4716191
8,улица Зои Космодемьянской,3200,46.8401410,29.4703404
4,улица Петровского,3200,46.8404912,29.4710427
8-Б,улица Зои Космодемьянской,3200,46.8414474,29.4695970
152,Хотинская улица,3200,46.8425652,29.4618489
6,улица Ткаченко,3200,46.8268962,29.4892336
8,улица Ткаченко,3200,46.8263183,29.4893394
20,улица Ленина,3200,46.8225903,29.4825174
6,улица Ермакова,3200,46.8416188,29.4727896
52,улица Кирова,3200,46.8243238,29.4760670
10,улица Ленина,3200,46.8247690,29.4756250
33/1,улица Сергея Лазо,3200,46.8246913,29.4822784
30,улица Академика Фёдорова,3200,46.8223653,29.4685732
1,Советская улица,3200,46.8284912,29.4842190
50,улица Котовского,3200,46.8214039,29.4844212
59,улица Суворова,3200,46.8216661,29.4833480
22,улица Ленина,3200,46.8221072,29.4841818
17,улица Ленина,3200,46.8236353,29.4819813
59,Московская улица,3200,46.8209527,29.4836884
28,улица Суворова,3200,46.8235729,29.4833685
27,улица Ленина,3200,46.8221142,29.4866086
23а,улица Ленина,3200,46.8221339,29.4856595
29,улица Шестакова,3200,46.8223864,29.4875367
29,улица Ленина,3200,46.8217590,29.4874633
32,улица Ленина,3200,46.8209286,29.4887766
31,улица Ленина,3200,46.8220178,29.4880393
24,улица Ленина,3200,46.8217618,29.4854635
14,улица Ткаченко,3200,46.8242733,29.4892175
40,улица Шестакова,3200,46.8213507,29.4860139
20,улица Дружбы,3200,46.8021672,29.4704018
32,улица Дружбы,3200,46.8023906,29.4732030
18б,улица Дружбы,3200,46.8027874,29.4696601
20а,улица Дружбы,3200,46.8021202,29.4696998
38,улица Дружбы,3200,46.8018609,29.4713604
30,улица Дружбы,3200,46.8024648,29.4725599
24,улица Дружбы,3200,46.8025664,29.4711060
42,улица Дружбы,3200,46.8011109,29.4751524
40,улица Дружбы,3200,46.8017081,29.4721760
28,улица Дружбы,3200,46.8029906,29.4724640
18,улица Дружбы,3200,46.8027560,29.4703095
34,улица Дружбы,3200,46.8018699,29.4733054
1а,улица Энгельса,3200,46.8436891,29.4800804
6,улица Дружбы,3200,46.8058963,29.4691354
8,улица Дружбы,3200,46.8053671,29.4690077
2,улица Дружбы,3200,46.8064837,29.4683967
4,улица Дружбы,3200,46.8058688,29.4683420
197,Коммунистическая улица,3200,46.8044632,29.4676262
191,Коммунистическая улица,3200,46.8057609,29.4671310
12,улица Дружбы,3200,46.8048297,29.4686037
14,улица Дружбы,3200,46.8045082,29.4690150
193,Коммунистическая улица,3200,46.8051535,29.4677633
10,улица Дружбы,3200,46.8053021,29.4698712
187,Коммунистическая улица,3200,46.8065682,29.4677700
22,улица Суворова,3200,46.8261265,29.4849263
2,Московская улица,3200,46.8237599,29.4707275
1,Комсомольская улица,3200,46.8221992,29.4696277
1,улица Академика Фёдорова,3200,46.8245876,29.4713081
3,улица Ленина,3200,46.8261562,29.4729551
4а,Киевская улица,3200,46.8194407,29.4625338
2,улица Сергея Лазо,3200,46.8269504,29.4735661
2,улица Ленина,3200,46.8257537,29.4727811
4,Киевская улица,3200,46.8191301,29.4631464
6,Киевская улица,3200,46.8189862,29.4623519
1,улица Ленина,3200,46.8266777,29.4728794
1а,Севастопольская улица,3200,46.8196736,29.4618555
8,Киевская улица,3200,46.8190180,29.4616156
26,улица Ленина,3200,46.8209975,29.4869877
19,улица Калинина,3200,46.8259107,29.4816306
68,улица Пушкина,3200,46.8168967,29.4709694
13,улица Ленина,3200,46.8242535,29.4790057
34,Советская улица,3200,46.8255193,29.4823822
34a,Советская улица,3200,46.8254191,29.4826629
15,улица Ленина,3200,46.8241012,29.4797616
31,Советская улица,3200,46.8238813,29.4821808
23,Советская улица,3200,46.8264131,29.4840446
37,улица Сергея Лазо,3200,46.8238991,29.4853094
53,улица Суворова,3200,46.8241654,29.4847270
41,улица Пушкина,3200,46.8272223,29.4767246
10,Тираспольская улица,3200,46.8295946,29.4821936
39,улица Пушкина,3200,46.8273315,29.4761990
27,улица Гагарина,3200,46.8247699,29.4887879
37,улица Пушкина,3200,46.8278588,29.4766095
36,улица Кирова,3200,46.8267053,29.4771877
10В,Тираспольская улица,3200,46.8296570,29.4816289
34,улица Кирова,3200,46.8274858,29.4775895
29,улица Гагарина,3200,46.8246677,29.4892838
105б,Индустриальная улица,3200,46.7887391,29.4936634
105,Индустриальная улица,3200,46.7882606,29.4939679
105в,Индустриальная улица,3200,46.7877797,29.4942741
5,улица Текстильщиков,3200,46.7891672,29.4828895
8,улица Текстильщиков,3200,46.7891109,29.4822213
27,Советская улица,3200,46.8259594,29.4835821
21,улица Ленина,3200,46.8224246,29.4847174
21,улица Ленина,3200,46.8227891,29.4847028
35,улица Сергея Лазо,3200,46.8242113,29.4838036
57,улица Суворова,3200,46.8227799,29.4840132
67,улица Кирова,3200,46.8234710,29.4765089
12,улица Ленина,3200,46.8241679,29.4775786
23,улица Калинина,3200,46.8242500,29.4806455
65,улица Кирова,3200,46.8242191,29.4768637
51,улица Пушкина,3200,46.8238540,29.4747278
5,улица Ленина,3200,46.8259454,29.4740329
76,Коммунистическая улица,3200,46.8237465,29.4777213
10,улица Пушкина,3200,46.8300421,29.4765114
1,Коммунистическая улица,3200,46.8318772,29.4818391
24,улица Калинина,3200,46.8273759,29.4816291
3,Тираспольская улица,3200,46.8304734,29.4795898
2А,Коммунистическая улица,3200,46.8319818,29.4813015
27,улица Сергея Лазо,3200,46.8256492,29.4798783
8,улица Пушкина,3200,46.8304652,29.4768253
7,улица Сергея Лазо,3200,46.8272990,29.4737425
3,Тираспольская улица,3200,46.8311661,29.4781435
21,улица Сергея Лазо,3200,46.8260317,29.4779204
21А,улица Сергея Лазо,3200,46.8260485,29.4782114
63,Коммунистическая улица,3200,46.8238284,29.4787051
38,Советская улица,3200,46.8229779,29.4812727
63,Коммунистическая улица,3200,46.8236368,29.4790631
45,улица Калинина,3200,46.8226281,29.4799773
45A,улица Калинина,3200,46.8223684,29.4798803
42,Советская улица,3200,46.8221119,29.4810476
43,улица Калинина,3200,46.8230998,29.4803632
45,Московская улица,3200,46.8219211,29.4797947
50,улица Калинина,3200,46.8235022,29.4795782
69,улица Пушкина,3200,46.8222717,29.4742604
71,улица Пушкина,3200,46.8216984,29.4738410
19,Комсомольская улица,3200,46.8209236,29.4757606
60,улица Калинина,3200,46.8216159,29.4788858
77,Коммунистическая улица,3200,46.8219448,29.4777991
62,улица Калинина,3200,46.8212446,29.4785108
22,улица Шестакова,3200,46.8246044,29.4880448
23,улица Гагарина,3200,46.8251225,29.4877780
49,Коммунистическая улица,3200,46.8261956,29.4796161
34,улица Калинина,3200,46.8262689,29.4809004
20/1,улица Сергея Лазо,MD-3201,46.8235835,29.4845998
38,улица Калинина,3200,46.8260198,29.4805937
57/1,улица Суворова,3200,46.8231153,29.4840474
47,Коммунистическая улица,3200,46.8261904,29.4799780
55A,улица Суворова,3200,46.8236086,29.4842615
54,Коммунистическая улица,3200,46.8269267,29.4787858
4,улица Суворова,3200,46.8282652,29.4860217
13,улица Дзержинского,3200,46.8301096,29.4759064
1А,улица Дзержинского,3200,46.8311987,29.4760104
44а,улица Котовского,3200,46.8246934,29.4861023
3,улица Дзержинского,3200,46.8309741,29.4758656
2А,Тираспольская улица,3200,46.8310908,29.4768136
40,улица Котовского,3200,46.8250558,29.4863152
2Б,улица Пушкина,3200,46.8310689,29.4764204
11,улица Дзержинского,3200,46.8302509,29.4755949
4,улица Пушкина,3200,46.8307673,29.4769278
17,улица Дзержинского,3200,46.8298887,29.4753787
17А,улица Дзержинского,3200,46.8295743,29.4752700
5,улица Дзержинского,3200,46.8306806,29.4759565
46,улица Котовского,3200,46.8240126,29.4857730
15,улица Дзержинского,3200,46.8300370,29.4755435
43,улица Суворова,3200,46.8251492,29.4850729
44в,улица Котовского,3200,46.8246252,29.4856463
7,улица Зои Космодемьянской,3200,46.8413166,29.4675238
14,улица Ермакова,3200,46.8442463,29.4660991
5,улица Зои Космодемьянской,3200,46.8406179,29.4686388
39,улица Зои Космодемьянской,3200,46.8426806,29.4663567
6,улица Академика Фёдорова,3200,46.8269032,29.4721060
107,Кишинёвская улица,3200,46.8451201,29.4562914
52,улица Бендерского Восстания,3200,46.8277567,29.4632529
5а/2,улица Бендерского Восстания,3200,46.8295867,29.4663094
7,улица Бендерского Восстания,3200,46.8262038,29.4634615
5,улица Бендерского Восстания,3200,46.8268243,29.4651423
5а,улица Бендерского Восстания,3200,46.8294742,29.4654448
25,Кишинёвская улица,3200,46.8362078,29.4657603
27,Кишинёвская улица,3200,46.8364863,29.4657902
12,Одесская улица,3200,46.8373236,29.4635980
8,улица Панфилова,3200,46.8375226,29.4619281
28,улица Бендерского Восстания,3200,46.8338253,29.4657026
34,улица Бендерского Восстания,3200,46.8333264,29.4655002
32,улица Бендерского Восстания,3200,46.8334335,29.4655456
3,улица Бендерского Восстания,3200,46.8342851,29.4664955
2,улица Панфилова,3200,46.8368074,29.4631969
40,улица Бендерского Восстания,3200,46.8329394,29.4653419
8,Одесская улица,3200,46.8381952,29.4627786
30,улица Бендерского Восстания,3200,46.8336815,29.4656471
4,улица Панфилова,3200,46.8372163,29.4625585
20,улица Бендерского Восстания,3200,46.8344228,29.4659417
36,улица Бендерского Восстания,3200,46.8331958,29.4654531
10,Одесская улица,3200,46.8377603,29.4631908
29,Кишинёвская улица,3200,46.8372875,29.4655358
26,улица Бендерского Восстания,3200,46.8339487,29.4657595
16,улица Бендерского Восстания,3200,46.8346751,29.4660444
10,улица Панфилова,3200,46.8379444,29.4619294
4,улица Панфилова,3200,46.8375264,29.4625140
22,улица Бендерского Восстания,3200,46.8342786,29.4658867
38,улица Бендерского Восстания,3200,46.8330677,29.4653978
14,Одесская улица,3200,46.8368868,29.4640403
6,Одесская улица,3200,46.8387510,29.4619780
4,улица Бендерского Восстания,3200,46.8357385,29.4664963
12,улица Бендерского Восстания,3200,46.8349266,29.4661289
6,улица Бендерского Восстания,3200,46.8354545,29.4663268
5,улица Панфилова,3200,46.8362365,29.4639600
24,улица Бендерского Восстания,3200,46.8341293,29.4658275
2,улица Бендерского Восстания,3200,46.8358788,29.4665714
10,улица Бендерского Восстания,3200,46.8351161,29.4659122
8,улица Бендерского Восстания,3200,46.8351739,29.4662434
31,Кишинёвская улица,3200,46.8378247,29.4649424
10,улица Павлика Морозова,3200,46.8301344,29.4510802
7,улица Интернационалистов,3200,46.8312724,29.4508253
4,улица Лермонтова,3200,46.8269048,29.4549782
11,улица Интернационалистов,3200,46.8310972,29.4501602
5,улица Интернационалистов,3200,46.8309510,29.4510347
5,улица Павлика Морозова,3200,46.8302147,29.4557461
7,улица Павлика Морозова,3200,46.8306245,29.4556847
2,улица Павлика Морозова,3200,46.8291259,29.4561428
3,Пионерская улица,3200,46.8306435,29.4608044
4,переулок Осипенко,3200,46.8307632,29.4577551
11,улица Павлика Морозова,3200,46.8310745,29.4565331
42,улица Крянгэ,3200,46.8270960,29.4544074
50,улица Ивана Шимкова,3200,46.8320353,29.4636463
9,Пионерская улица,3200,46.8317060,29.4593889
5,Пионерская улица,3200,46.8317474,29.4609473
8,улица Павлика Морозова,3200,46.8311520,29.4538862
1,улица Павлика Морозова,3200,46.8294918,29.4564583
1,переулок Осипенко,3200,46.8308767,29.4583520
2,улица 50 лет ВЛКСМ,3200,46.8277238,29.4545172
11,улица 50 лет ВЛКСМ,3200,46.8302030,29.4598122
2а,улица 50 лет ВЛКСМ,3200,46.8281463,29.4557078
2,переулок Осипенко,3200,46.8303783,29.4581293
3,улица Павлика Морозова,3200,46.8299827,29.4561062
13,улица 50 лет ВЛКСМ,3200,46.8311485,29.4640772
3,Пионерская улица,3200,46.8313226,29.4615678
5,Пионерская улица,3200,46.8312185,29.4606607
42,улица Бендерского Восстания,3200,46.8327975,29.4651929
7,Пионерская улица,3200,46.8316230,29.4600327
9,Пионерская улица,3200,46.8321343,29.4595480
44,улица Крянгэ,3200,46.8274095,29.4543219
1,переулок Осипенко,3200,46.8304015,29.4590547
4,улица 50 лет ВЛКСМ,3200,46.8282251,29.4563085
1,улица Павлика Морозова,3200,46.8292599,29.4568184
1,переулок Осипенко,3200,46.8306385,29.4587027
48,улица Бендерского Восстания,3200,46.8323744,29.4646665
40,улица Крянгэ,3200,46.8266799,29.4546214
6,переулок Осипенко,3200,46.8312076,29.4573253
3,Пионерская улица,3200,46.8309037,29.4614174
4а,улица 50 лет ВЛКСМ,3200,46.8287073,29.4570554
46,улица Бендерского Восстания,3200,46.8324722,29.4651461
8,улица Павлика Морозова,3200,46.8314436,29.4530982
2,улица Полоза,3200,46.8282376,29.4527534
6,Школьная улица,3200,46.8206642,29.4567885
2,улица Чехова,3200,46.8208900,29.4598124
10,улица Чехова,3200,46.8215441,29.4563679
130,улица Бендерского Восстания,3200,46.8210745,29.4602499
21,улица Старого,3200,46.8220790,29.4565760
9,улица Старого,3200,46.8215052,29.4600401
2,улица Бородина,3200,46.8245778,29.4633104
13а,улица Бендерского Восстания,3200,46.8241333,29.4624926
96,улица Бендерского Восстания,3200,46.8241051,29.4617411
90,улица Бендерского Восстания,3200,46.8244852,29.4619025
8,улица Полоза,3200,46.8291150,29.4522429
82,улица Бендерского Восстания,3200,46.8249822,29.4621014
23,Школьная улица,3200,46.8200451,29.4565897
78,улица Бендерского Восстания,3200,46.8252433,29.4621919
29,Школьная улица,3200,46.8202429,29.4555322
3,улица Чехова,3200,46.8210748,29.4569013
8,улица Чехова,3200,46.8217052,29.4570836
13,улица Старого,3200,46.8217535,29.4589811
86,улица Бендерского Восстания,3200,46.8247520,29.4619632
55,улица Ползунова,3200,46.8242903,29.4609447
14а,улица Чехова,3200,46.8212217,29.4576361
13,улица Бендерского Восстания,3200,46.8245711,29.4625136
10,улица Полоза,3200,46.8294094,29.4520964
16,улица Полоза,3200,46.8293617,29.4514385
9,улица Бендерского Восстания,3200,46.8249546,29.4626466
92,улица Бендерского Восстания,3200,46.8243583,29.4618507
12,улица Полоза,3200,46.8297022,29.4519475
6а,улица Калашникова,3200,46.8198458,29.4559121
20,улица Полоза,3200,46.8292169,29.4508608
15,улица Бендерского Восстания,3200,46.8237033,29.4621781
88,улица Бендерского Восстания,3200,46.8246099,29.4619491
80,улица Бендерского Восстания,3200,46.8251148,29.4621451
3,улица Чайковского,3200,46.8210365,29.4556750
11,улица Старого,3200,46.8213324,29.4593930
14,улица Полоза,3200,46.8287659,29.4515818
100,Железнодорожная улица,3200,46.8195693,29.4572149
76,улица Бендерского Восстания,3200,46.8253824,29.4622516
2,улица Бородина,3200,46.8241468,29.4630201
24,Школьная улица,3200,46.8206099,29.4558451
4,улица Чехова,3200,46.8211496,29.4587514
98,Железнодорожная улица,3200,46.8206419,29.4575816
18,улица Полоза,3200,46.8289030,29.4510087
25,Школьная улица,3200,46.8194691,29.4567894
25,Школьная улица,3200,46.8196342,29.4564211
84,улица Бендерского Восстания,3200,46.8248597,29.4620579
27,Школьная улица,3200,46.8200742,29.4561097
7,улица Ползунова,3200,46.8279194,29.4625614
72,улица Бендерского Восстания,3200,46.8258189,29.4624510
54,улица Бендерского Восстания,3200,46.8272185,29.4629634
25,улица Ползунова,3200,46.8265009,29.4618402
9,улица Ползунова,3200,46.8275953,29.4622642
60,улица Бендерского Восстания,3200,46.8265722,29.4627536
31,улица Ползунова,3200,46.8261316,29.4616970
64,улица Бендерского Восстания,3200,46.8263155,29.4626485
66,улица Бендерского Восстания,3200,46.8262034,29.4625763
29,улица Ползунова,3200,46.8262390,29.4617309
100,улица Бендерского Восстания,3200,46.8238057,29.4616077
11,улица Ползунова,3200,46.8274711,29.4622170
13,улица Ползунова,3200,46.8273456,29.4621698
58,улица Бендерского Восстания,3200,46.8267058,29.4628065
56,улица Бендерского Восстания,3200,46.8269890,29.4628761
70,улица Бендерского Восстания,3200,46.8259283,29.4624906
33,улица Ползунова,3200,46.8259901,29.4616411
35,улица Ползунова,3200,46.8258338,29.4615795
23,улица Ползунова,3200,46.8266180,29.4618904
27,улица Ползунова,3200,46.8263735,29.4617876
74,улица Бендерского Восстания,3200,46.8256459,29.4623710
15,улица Ползунова,3200,46.8272133,29.4621450
68,улица Бендерского Восстания,3200,46.8260559,29.4625306
6,улица Ечина,3200,46.8077253,29.4660463
17,улица Бендерского Восстания,3200,46.8232858,29.4625966
65,Первомайская улица,3200,46.8140953,29.4807366
7,улица Мичурина,3200,46.8086033,29.4632765
12,улица Ечина,3200,46.8079913,29.4634462
1,улица Дружбы,3200,46.8071998,29.4695234
4,улица Ечина,3200,46.8076430,29.4665277
7,улица Дружбы,3200,46.8015448,29.4768342
5,улица Дружбы,3200,46.8022928,29.4761960
2,улица Ечина,3200,46.8075664,29.4669881
4,Комсомольская улица,3200,46.8215371,29.4696092
54,улица Пушкина,3200,46.8198286,29.4719602
52,улица Пушкина,3200,46.8203372,29.4719208
7,Комсомольская улица,3200,46.8219532,29.4721735
47,улица Дзержинского,3200,46.8227249,29.4726987
27А,улица Дзержинского,3200,46.8255734,29.4736241
38,улица Пушкина,3200,46.8236814,29.4739004
55,улица Дзержинского,3200,46.8203752,29.4712556
17,Московская улица,3200,46.8236561,29.4733133
50,улица Пушкина,3200,46.8209157,29.4726592
50A,улица Калинина,3200,46.8231851,29.4794997
36,улица Пушкина,3200,46.8239739,29.4741111
12,Комсомольская улица,3200,46.8215131,29.4705540
6,улица Кавриаго,3200,46.8193165,29.4717535
8,Комсомольская улица,3200,46.8211036,29.4695827
21,улица Дзержинского,3200,46.8277330,29.4750960
43,Московская улица,3200,46.8221715,29.4791018
34,улица Пушкина,3200,46.8241301,29.4741719
7A,Комсомольская улица,3200,46.8220190,29.4706684
6,Комсомольская улица,3200,46.8212593,29.4696521
1а,улица Кавриаго,3200,46.8199322,29.4710125
39,улица Дзержинского,3200,46.8243230,29.4729824
28,улица Пушкина,3200,46.8247680,29.4744792
53,улица Дзержинского,3200,46.8211852,29.4715273
2,Комсомольская улица,3200,46.8217953,29.4694810
6,улица 8 Марта,3200,46.7839757,29.4935667
47,Первомайская улица,3200,46.8145381,29.4773431
70,Советская улица,3200,46.8148792,29.4774879
81,улица Калинина,3200,46.8149673,29.4767096
68,Советская улица,3200,46.8163456,29.4783491
49,Первомайская улица,3200,46.8143104,29.4784248
83,Советская улица,3200,46.8145912,29.4782007
80,улица Суворова,3200,46.8145866,29.4789109
81,Советская улица,3200,46.8151552,29.4787489
77,Советская улица,3200,46.8154867,29.4786838
119,улица Суворова,3200,46.8154419,29.4802202
12a,улица Горького,3200,46.8169149,29.4729090
36,Первомайская улица,3200,46.8159885,29.4701558
67б,улица Дзержинского,3200,46.8174261,29.4698659
2,улица Горького,3200,46.8176617,29.4699505
8,улица Асаке,3200,46.8191432,29.4659732
48,улица Дзержинского,3200,46.8203162,29.4704122
16,Индустриальная улица,3200,46.7902704,29.4793499
27,Южная улица,3200,46.7872986,29.4788175
40,Южная улица,3200,46.7870510,29.4787136
28,улица Академика Фёдорова,3200,46.8225550,29.4688722
26,улица Академика Фёдорова,3200,46.8228591,29.4690809
24,улица Академика Фёдорова,3200,46.8231775,29.4693250
20,улица Академика Фёдорова,3200,46.8234539,29.4695487
18,улица Академика Фёдорова,3200,46.8237795,29.4698401
16,улица Академика Фёдорова,3200,46.8241791,29.4701300
16,улица Академика Фёдорова,3200,46.8244841,29.4704056
26В,улица Дзержинского,3200,46.8246937,29.4722380
75,улица Пушкина,3200,46.8207387,29.4733255
75,улица Пушкина,3200,46.8205577,29.4734258
12а,Индустриальная улица,3200,46.7858580,29.4882199
11,улица Сергея Лазо,3200,46.8267434,29.4762352
68,Первомайская улица,3200,46.8143154,29.4741050
84,Первомайская улица,3200,46.8141787,29.4749640
122,Коммунистическая улица,3200,46.8190379,29.4757118
58,Коммунистическая улица,3200,46.8263195,29.4789883
79,улица Калинина,3200,46.8155751,29.4773355
45,Советская улица,3200,46.8207931,29.4812782
46,Советская улица,3200,46.8209600,29.4805078
48,Советская улица,3200,46.8207234,29.4803987
56,Советская улица,3200,46.8195566,29.4797548
58,Советская улица,3200,46.8191993,29.4796955
60,Советская улица,3200,46.8186326,29.4794298
65,Советская улица,MD-3200,46.8169767,29.4798896
87,улица Кирова,3200,46.8217920,29.4758195
10,Индустриальная улица,3200,46.7939183,29.4860652
16,улица Тамары Кручок,3200,46.8078509,29.4828921
107,улица Суворова,3200,46.8175635,29.4813139
38,улица Суворова,3200,46.8216041,29.4825121
42,улица Суворова,3200,46.8207671,29.4820786
106,улица Котовского,3200,46.8152096,29.4815251
74,улица Котовского,3200,46.8187152,29.4831008
11а,Первомайский переулок,3200,46.8151575,29.4928100
32,Комсомольская улица,3200,46.8197228,29.4790008
38,Комсомольская улица,3200,46.8189928,29.4821175
35,Московская улица,3200,46.8223622,29.4782864
34,улица Сергея Лазо,3200,46.8225356,29.4881839
81а,Кишинёвская улица,3200,46.8424199,29.4578102
8,улица Чкалова,3200,46.8089339,29.4651648
7,улица Чкалова,3200,46.8088263,29.4658036
15,улица Павлика Морозова,3200,46.8332041,29.4538044
4,улица Интернационалистов,3200,46.8334634,29.4550105
19,Пионерская улица,3200,46.8343951,29.4557100
5,улица Ленина,3200,46.8260010,29.4737073
13,улица Кирова,3200,46.8289339,29.4797594
57,улица Калинина,3200,46.8205408,29.4790753
24б,улица Ленина,3200,46.8215872,29.4851101
16,улица Ткаченко,3200,46.8231008,29.4892044
45,улица Петровского,3200,46.8395797,29.4689644
6,улица Луначарского,3200,46.7866575,29.4829302
1A,улица Победы,3200,46.8040556,29.4650905
44а,улица 40 лет Победы,3200,46.8537982,29.4621810
15,улица Старого,3200,46.8218658,29.4580458
120,улица Суворова,3200,46.8027863,29.4787415
116,улица Суворова,3200,46.8038852,29.4789331
114,улица Суворова,3200,46.8048798,29.4791871
68,улица Котовского,3200,46.8198668,29.4835711
28,Московская улица,3200,46.8213248,29.4805342
26,Московская улица,3200,46.8214174,29.4800958
3,улица Толстого,3200,46.8285182,29.4577076
117,Кишинёвская улица,3200,46.8459169,29.4547352
67а,Кишинёвская улица,3200,46.8404422,29.4617994
11,улица Георге Асаке,3200,46.8160884,29.4658066
17,улица Гагарина,3200,46.8253906,29.4871317
25,улица Гагарина,3200,46.8249834,29.4881594
21,улица Гагарина,3200,46.8251991,29.4873855
101,Индустриальная улица,3200,46.7904286,29.4919872
8б,улица Пирогова,3200,46.8112263,29.4634045
8а,улица Пирогова,3200,46.8113325,29.4628891
8,улица Пирогова,3200,46.8109549,29.4630015
159,улица Суворова,3200,46.8090361,29.4807274
5,Советская улица,3200,46.8279383,29.4844979
181,Коммунистическая улица,3200,46.8093169,29.4711370
15,переулок Осипенко,3200,46.8314245,29.4586440
34,Советская улица,3200,46.8256202,29.4827571
51,Коммунистическая улица,3200,46.8259881,29.4795200
44,улица Калинина,3200,46.8255473,29.4805652
42,улица Калинина,3200,46.8258197,29.4805308
32,улица Калинина,3200,46.8265816,29.4809501
34,улица Калинина,3200,46.8263854,29.4809701
43,Коммунистическая улица,3200,46.8267417,29.4799355
23,Коммунистическая улица,3200,46.8272262,29.4801595
25,Коммунистическая улица,3200,46.8271106,29.4800501
27,Коммунистическая улица,3200,46.8271035,29.4802787
21,Коммунистическая улица,3200,46.8274026,29.4801060
19,Коммунистическая улица,3200,46.8276682,29.4803895
17,Коммунистическая улица,3200,46.8278433,29.4803430
15,Коммунистическая улица,3200,46.8286333,29.4806953
13,Коммунистическая улица,3200,46.8287454,29.4807437
11,Коммунистическая улица,3200,46.8288855,29.4807866
9,Коммунистическая улица,3200,46.8291737,29.4808680
1,Украинская улица,3200,46.8295121,29.4810499
7,Украинская улица,3200,46.8288686,29.4813875
5,Украинская улица,3200,46.8289470,29.4812132
3,Украинская улица,3200,46.8291402,29.4811499
2,Советская улица,3200,46.8290760,29.4839780
16,Тираспольская улица,3200,46.8292202,29.4851419
18,Тираспольская улица,3200,46.8292103,29.4853993
20,Тираспольская улица,3200,46.8291801,29.4856621
22,Тираспольская улица,3200,46.8291471,29.4859323
2А,улица Суворова,3200,46.8287585,29.4862673
2,улица Суворова,3200,46.8285343,29.4861644
3,улица Суворова,3200,46.8287560,29.4873788
49,улица Ломоносова,3200,46.8294076,29.4491564
27,Георге Асаке,3200,46.8148007,29.4654592
27,Георге Асаке,3200,46.8150474,29.4648304
60,Коммунистическая улица,3200,46.8259151,29.4786231
58,улица Пушкина,3200,46.8186466,29.4715761
56,улица Пушкина,3200,46.8188957,29.4718511
60,улица Пушкина,3200,46.8183198,29.4715024
62,улица Пушкина,3200,46.8179755,29.4713655
4,улица Кавриаго,3200,46.8194425,29.4712704
62,улица Дзержинского,3200,46.8189257,29.4698755
64,улица Пушкина,3200,46.8177252,29.4712431
12,Московская улица,3200,46.8224130,29.4760917
81,улица Кирова,3200,46.8222260,29.4759568
14,Московская улица,3200,46.8222668,29.4764900
16,Московская улица,3200,46.8221682,29.4770940
85,улица Кирова,3200,46.8220067,29.4759735
10,Московская улица,3200,46.8226090,29.4750309
89,улица Кирова,3200,46.8215997,29.4758758
20,Московская улица,3200,46.8218614,29.4782135
88,Коммунистическая улица,3200,46.8226267,29.4772508
47,улица Калинина,3200,46.8221317,29.4798070
24,Московская улица,3200,46.8215420,29.4794769
22,Московская улица,3200,46.8218072,29.4785242
83,Коммунистическая улица,3200,46.8215378,29.4778355
85,Коммунистическая улица,3200,46.8213458,29.4775825
64,улица Калинина,3200,46.8210023,29.4783192
87,Коммунистическая улица,3200,46.8212100,29.4773762
96,Коммунистическая улица,3200,46.8215253,29.4766544
98,Коммунистическая улица,3200,46.8213284,29.4767971
92,Коммунистическая улица,3200,46.8217769,29.4768253
91,улица Кирова,3200,46.8213965,29.4756317
93,улица Кирова,3200,46.8212430,29.4754801
106,Коммунистическая улица,3200,46.8206990,29.4764687
104,Коммунистическая улица,3200,46.8209360,29.4766170
98Б,Коммунистическая улица,3200,46.8212190,29.4767697
100,Коммунистическая улица,3200,46.8211385,29.4767528
102,Коммунистическая улица,3200,46.8210510,29.4766769
91,Коммунистическая улица,3200,46.8209000,29.4773097
93,Коммунистическая улица,3200,46.8207466,29.4771911
89,Коммунистическая улица,3200,46.8210544,29.4775397
24А,улица Пушкина,3200,46.8260248,29.4750324
22,улица Пушкина,3200,46.8261592,29.4751132
65,Коммунистическая улица,3200,46.8235068,29.4784771
11,улица Пушкина,3200,46.8294458,29.4770396
55,улица Кирова,3200,46.8263167,29.4776963
53,улица Кирова,3200,46.8264188,29.4780118
51,улица Кирова,3200,46.8266070,29.4778844
49,улица Кирова,3200,46.8267566,29.4779863
45,улица Кирова,3200,46.8270019,29.4780637
43,улица Сергея Лазо,3200,46.8231932,29.4872569
52,Московская улица,3200,46.8203185,29.4857037
77,улица Котовского,3200,46.8206126,29.4846609
21,улица Кавриаго,3200,46.8181863,29.4790083
62,Советская улица,3200,46.8183203,29.4792014
10,улица Кавриаго,3200,46.8179222,29.4780455
51,улица Калинина,3200,46.8211091,29.4794441
49,улица Калинина,3200,46.8213144,29.4794187
79,улица Котовского,3200,46.8200619,29.4843572
66,улица Котовского,3200,46.8201661,29.4833856
85,улица Суворова,3200,46.8199378,29.4825202
87,улица Суворова,3200,46.8197829,29.4823417
89,улица Суворова,3200,46.8196337,29.4822689
39,Комсомольская улица,3200,46.8193991,29.4822458
81,улица Суворова,3200,46.8202353,29.4827436
55,улица Суворова,3200,46.8232895,29.4841184
59,улица Калинина,3200,46.8202016,29.4788956
54,Советская улица,3200,46.8199703,29.4797752
37a,Комсомольская улица,3200,46.8197221,29.4811659
45,Советская улица,3200,46.8205526,29.4810964
47,Советская улица,3200,46.8203387,29.4810015
41,Комсомольская улица,3200,46.8192749,29.4827919
40,Комсомольская улица,3200,46.8188552,29.4827023
53,Советская улица,3200,46.8189764,29.4804681
16,Комсомольская улица,3200,46.8206894,29.4743008
73,улица Пушкина,3200,46.8208927,29.4734491
14,Комсомольская улица,3200,46.8207902,29.4739684
80,улица Кирова,3200,46.8206884,29.4745847
101,улица Кирова,3200,46.8199270,29.4748957
84,улица Кирова,3200,46.8200360,29.4742902
82,улица Кирова,3200,46.8202818,29.4742967
97,улица Кирова,3200,46.8202927,29.4753158
99,улица Кирова,3200,46.8201126,29.4751142
95,улица Кирова,3200,46.8205516,29.4751959
20,Комсомольская улица,3200,46.8204935,29.4754438
103,улица Кирова,3200,46.8197539,29.4749003
48,улица Пушкина,3200,46.8218138,29.4730585
46,улица Пушкина,3200,46.8221026,29.4732574
44,улица Пушкина,3200,46.8223440,29.4733099
42,улица Пушкина,3200,46.8225228,29.4734312
4,Московская улица,3200,46.8229755,29.4736044
6,Московская улица,3200,46.8227283,29.4746261
80,Коммунистическая улица,3200,46.8234315,29.4774872
82,Коммунистическая улица,3200,46.8232871,29.4774890
84,Коммунистическая улица,3200,46.8231755,29.4772969
86,Коммунистическая улица,3200,46.8229246,29.4772894
67,Коммунистическая улица,3200,46.8233366,29.4783803
71,Коммунистическая улица,3200,46.8229449,29.4783897
73,Коммунистическая улица,3200,46.8227754,29.4781987
75,Коммунистическая улица,3200,46.8226292,29.4780726
52,улица Калинина,3200,46.8230163,29.4794132
54,улица Калинина,3200,46.8227505,29.4793572
37,Московская улица,3200,46.8222906,29.4784838
56,улица Калинина,3200,46.8225475,29.4792287
58,улица Калинина,3200,46.8224013,29.4792081
53,улица Калинина,3200,46.8209727,29.4792656
55,улица Калинина,3200,46.8207752,29.4792675
54б,Советская улица,3200,46.8201177,29.4801330
52,Советская улица,3200,46.8203774,29.4800764
50A,Советская улица,3200,46.8205630,29.4802859
49,улица Пушкина,3200,46.8243622,29.4754988
24,Комсомольская улица,3200,46.8203778,29.4757767
108,Коммунистическая улица,3200,46.8202158,29.4763907
24/5,Комсомольская улица,3200,46.8203517,29.4761231
108,Коммунистическая улица,3200,46.8201392,29.4761127
110,Коммунистическая улица,3200,46.8198872,29.4762085
72,улица Кирова,3200,46.8217689,29.4750929
74,улица Кирова,3200,46.8216702,29.4747546
76,улица Кирова,3200,46.8215097,29.4749160
17,Комсомольская улица,3200,46.8211811,29.4746643
40,улица Суворова,3200,46.8212992,29.4823555
49,Советская улица,3200,46.8214961,29.4815662
72,улица Котовского,3200,46.8191715,29.4833361
70,улица Котовского,3200,46.8194276,29.4834674
79,улица Суворова,3200,46.8203762,29.4826468
77,улица Суворова,3200,46.8205097,29.4829445
35a,Советская улица,3200,46.8223914,29.4819537
30,улица Суворова,3200,46.8221038,29.4828649
35,Советская улица,3200,46.8221634,29.4818394
71,улица Котовского,3200,46.8212582,29.4849835
73,улица Котовского,3200,46.8210269,29.4848639
75,улица Котовского,3200,46.8208243,29.4847658
63,Московская улица,3200,46.8205479,29.4851789
42,улица Шестакова,3200,46.8208833,29.4858834
37,Советская улица,3200,46.8219017,29.4817275
41,Советская улица,3200,46.8215870,29.4817379
105,улица Кирова,3200,46.8195216,29.4747866
109,улица Кирова,3200,46.8191268,29.4746325
107,улица Кирова,3200,46.8193083,29.4748763
9,улица Кавриаго,3200,46.8189701,29.4750247
11,улица Кавриаго,3200,46.8190222,29.4753068
122а,Коммунистическая улица,3200,46.8188569,29.4756022
120,Коммунистическая улица,3200,46.8192816,29.4758122
116а,Коммунистическая улица,3200,46.8195309,29.4760255
117,Коммунистическая улица,3200,46.8188236,29.4763765
13,улица Кавриаго,3200,46.8186311,29.4766158
15,улица Кавриаго,3200,46.8186108,29.4768624
17,улица Кавриаго,3200,46.8184651,29.4774608
28,Комсомольская улица,3200,46.8200164,29.4777140
44,улица Дзержинского,3200,46.8219378,29.4711078
45,улица Дзержинского,3200,46.8238130,29.4727539
19,Московская улица,3200,46.8234801,29.4739226
33,улица Дзержинского,3200,46.8248420,29.4731917
27,улица Дзержинского,3200,46.8254151,29.4734048
29,улица Дзержинского,3200,46.8252152,29.4733635
31,улица Дзержинского,3200,46.8250611,29.4733039
37,улица Дзержинского,3200,46.8245331,29.4731133
35,улица Дзержинского,3200,46.8246196,29.4734311
60,улица Котовского,3200,46.8205114,29.4838210
62,улица Котовского,3200,46.8203886,29.4837892
64,улица Котовского,3200,46.8202783,29.4836553
61,Московская улица,3200,46.8208586,29.4841545
83,улица Котовского,3200,46.8190431,29.4839236
43,Комсомольская улица,3200,46.8189336,29.4842161
45,Комсомольская улица,3200,46.8188212,29.4845353
64,улица Шестакова,3200,46.8187573,29.4849358
81,улица Котовского,3200,46.8194570,29.4841095
115,Коммунистическая улица,3200,46.8190563,29.4767986
113,Коммунистическая улица,3200,46.8192137,29.4766082
111,Коммунистическая улица,3200,46.8194082,29.4767640
107,Коммунистическая улица,3200,46.8196088,29.4768587
103,Коммунистическая улица,3200,46.8197883,29.4768758
95,Коммунистическая улица,3200,46.8200885,29.4770003
90,улица Кирова,3200,46.8192531,29.4739639
3,улица Кавриаго,3200,46.8194467,29.4735953
88,улица Кирова,3200,46.8194838,29.4740257
72,улица Калинина,3200,46.8199188,29.4780930
74,улица Калинина,3200,46.8197223,29.4780864
42A,улица Дзержинского,3200,46.8224422,29.4714277
42,улица Дзержинского,3200,46.8222377,29.4712915
34,улица Дзержинского,3200,46.8233780,29.4719013
1,Мельничный переулок,3200,46.8292431,29.4750887
4А,улица Дзержинского,3200,46.8285554,29.4742004
76,улица Калинина,3200,46.8195472,29.4780186
40,Московская улица,3200,46.8196966,29.4863564
60а,улица Шестакова,3200,46.8190886,29.4850851
60,улица Шестакова,3200,46.8192783,29.4851521
56,улица Шестакова,3200,46.8196046,29.4853048
34,улица Суворова,3200,46.8219033,29.4827441
36,улица Суворова,3200,46.8217513,29.4826022
32,улица Суворова,3200,46.8220187,29.4827839
36,Московская улица,3200,46.8200814,29.4852114
38,Московская улица,3200,46.8200149,29.4854361
54,улица Шестакова,3200,46.8198071,29.4854216
58,улица Шестакова,3200,46.8196458,29.4850569
65,Московская улица,3200,46.8200427,29.4865043
19,улица Кавриаго,3200,46.8182841,29.4781021
79,улица Калинина,3200,46.8185366,29.4782409
75,улица Калинина,3200,46.8186618,29.4782808
73,улица Калинина,3200,46.8187594,29.4784193
88,улица Калинина,3200,46.8186738,29.4773918
86,улица Калинина,3200,46.8188138,29.4775648
84,улица Калинина,3200,46.8189608,29.4777111
82,улица Калинина,3200,46.8191630,29.4776052
80,улица Калинина,3200,46.8193155,29.4775724
78,улица Калинина,3200,46.8194057,29.4778207
71,улица Калинина,3200,46.8189388,29.4784217
114,Коммунистическая улица,3200,46.8196893,29.4758811
36,улица Дзержинского,3200,46.8230794,29.4715739
38,улица Дзержинского,3200,46.8228117,29.4714228
9,Московская улица,3200,46.8241153,29.4715152
11,Московская улица,3200,46.8240689,29.4717265
34,улица Дзержинского,3200,46.8240340,29.4720048
32,улица Дзержинского,3200,46.8241639,29.4722208
28,улица Дзержинского,3200,46.8244205,29.4724244
30,улица Дзержинского,3200,46.8242916,29.4723464
14,улица Пушкина,3200,46.8292122,29.4764287
16,улица Пушкина,3200,46.8289791,29.4763114
47,улица Шестакова,3200,46.8196511,29.4859857
45а,улица Шестакова,3200,46.8198326,29.4860321
55,Советская улица,3200,46.8186406,29.4801950
57,Советская улица,3200,46.8184399,29.4801650
46,улица Суворова,3200,46.8189617,29.4813327
48,улица Суворова,3200,46.8186675,29.4811952
19,Советская улица,3200,46.8269910,29.4841532
8,улица Гагарина,3200,46.8255166,29.4852147
10,улица Гагарина,3200,46.8254488,29.4854867
12,улица Гагарина,3200,46.8253771,29.4856632
14,улица Гагарина,3200,46.8253092,29.4858994
16,улица Гагарина,3200,46.8252294,29.4861108
42,улица Котовского,3200,46.8249392,29.4862112
42А,улица Котовского,3200,46.8250016,29.4859570
38,улица Котовского,3200,46.8251775,29.4863841
59,Советская улица,3200,46.8183258,29.4801007
61,Советская улица,3200,46.8181795,29.4799463
63,Советская улица,3200,46.8180382,29.4798985
23,улица Кавриаго,3200,46.8178899,29.4798214
65,улица Калинина,3200,46.8192067,29.4786071
52,улица Суворова,3200,46.8184912,29.4810105
54,улица Суворова,3200,46.8183281,29.4810453
56,улица Суворова,3200,46.8182097,29.4809582
58,улица Суворова,3200,46.8180716,29.4809320
27,улица Кавриаго,3200,46.8177686,29.4804337
62,улица Суворова,3200,46.8178693,29.4807853
25,улица Кавриаго,3200,46.8178359,29.4801061
69,улица Калинина,3200,46.8190939,29.4784551
63,улица Калинина,3200,46.8193184,29.4787108
39,Советская улица,3200,46.8216999,29.4817891
76,улица Котовского,3200,46.8183559,29.4829488
27,улица Кавриаго,3200,46.8176782,29.4807284
57,Первомайская улица,3200,46.8140209,29.4798326
2,переулок Суворова,3200,46.8163054,29.4790747
73,Советская улица,3200,46.8158983,29.4789374
6,переулок Суворова,3200,46.8161910,29.4797199
4,переулок Суворова,3200,46.8162329,29.4793210
64,улица Суворова,3200,46.8161262,29.4799636
17,улица Энгельса,3200,46.8472925,29.4800703
91,улица Суворова,3200,46.8188054,29.4819132
57,улица Дзержинского,3200,46.8193962,29.4707153
59,улица Дзержинского,3200,46.8192173,29.4707164
61,улица Дзержинского,3200,46.8190130,29.4706142
67,улица Дзержинского,3200,46.8182252,29.4701904
1,улица Горького,3200,46.8179800,29.4701261
3,улица Горького,3200,46.8180100,29.4704842
56,улица Дзержинского,3200,46.8194902,29.4700274
60,улица Дзержинского,3200,46.8192020,29.4699675
58а,улица Дзержинского,3200,46.8193542,29.4700738
51,улица Суворова,3200,46.8247397,29.4849217
63,улица Котовского,3200,46.8238233,29.4863299
61,улица Котовского,3200,46.8239388,29.4864549
57,улица Котовского,3200,46.8241982,29.4865361
59,улица Котовского,3200,46.8240591,29.4864288
95,улица Суворова,3200,46.8184395,29.4820400
97,улица Суворова,3200,46.8183048,29.4819954
78,улица Котовского,3200,46.8180723,29.4828173
66,улица Калинина,3200,46.8207617,29.4783907
52,Коммунистическая улица,3200,46.8271591,29.4791661
50,Коммунистическая улица,3200,46.8271846,29.4794738
56,Коммунистическая улица,3200,46.8267504,29.4792691
43,улица Кирова,3200,46.8271319,29.4782444
39,улица Кирова,3200,46.8272553,29.4784733
41,улица Кирова,3200,46.8273490,29.4782028
39,улица Кирова,3200,46.8274488,29.4783053
37,улица Кирова,3200,46.8275222,29.4784593
35,улица Кирова,3200,46.8276120,29.4785359
17,улица Сергея Лазо,3200,46.8264291,29.4766737
33,улица Кирова,3200,46.8276793,29.4788569
29,улица Кирова,3200,46.8278814,29.4785831
27,улица Кирова,3200,46.8281015,29.4788276
21,улица Кирова,3200,46.8285308,29.4788443
97,улица Котовского,3200,46.8176964,29.4833062
95,улица Котовского,3200,46.8178664,29.4833673
93,улица Котовского,3200,46.8179676,29.4834015
99,улица Суворова,3200,46.8180687,29.4816054
101,улица Суворова,3200,46.8179032,29.4815868
103,улица Суворова,3200,46.8178247,29.4814645
105,улица Суворова,3200,46.8177136,29.4814089
29,улица Кавриаго,3200,46.8174729,29.4816438
80,улица Котовского,3200,46.8179970,29.4824974
82,улица Котовского,3200,46.8178289,29.4825395
84,улица Котовского,3200,46.8177146,29.4826397
86,улица Котовского,3200,46.8176097,29.4824069
31,улица Кавриаго,3200,46.8174358,29.4819749
33,улица Кавриаго,3200,46.8173645,29.4822042
33A,улица Кавриаго,3200,46.8172810,29.4824516
35A,улица Кавриаго,3200,46.8171189,29.4831205
103,улица Котовского,3200,46.8172538,29.4830867
101,улица Котовского,3200,46.8173752,29.4831106
99,улица Котовского,3200,46.8174693,29.4831593
37,улица Кавриаго,3200,46.8170894,29.4837172
73,улица Шестакова,3200,46.8167542,29.4850430
41,улица Кавриаго,3200,46.8168429,29.4841790
39,улица Кавриаго,3200,46.8170045,29.4839325
72,улица Шестакова,3200,46.8172282,29.4842926
68,улица Шестакова,3200,46.8175417,29.4844783
68A,улица Шестакова,3200,46.8177463,29.4845453
70,улица Шестакова,3200,46.8174626,29.4842853
91,улица Котовского,3200,46.8180246,29.4836569
87,улица Котовского,3200,46.8183912,29.4836397
89,улица Котовского,3200,46.8182897,29.4835345
85,улица Котовского,3200,46.8184776,29.4838444
83,улица Котовского,3200,46.8186531,29.4837697
66,улица Шестакова,3200,46.8179547,29.4845584
44,Комсомольская улица,3200,46.8182220,29.4846691
63,улица Шестакова,3200,46.8182740,29.4853687
10,улица Георге Асаке,3200,46.8188429,29.4665119
12,улица Георге Асаке,3200,46.8186340,29.4663497
14,улица Асаке,3200,46.8184909,29.4663260
45,Коммунистическая улица,3200,46.8265217,29.4799718
48,Коммунистическая улица,3200,46.8273746,29.4791146
46,Коммунистическая улица,3200,46.8274465,29.4792640
44,Коммунистическая улица,3200,46.8274751,29.4795340
42,Коммунистическая улица,3200,46.8276104,29.4796407
40,Коммунистическая улица,3200,46.8277264,29.4796831
38,Коммунистическая улица,3200,46.8279211,29.4797449
36,Коммунистическая улица,3200,46.8280288,29.4797248
34,Коммунистическая улица,3200,46.8281626,29.4797748
32,Коммунистическая улица,3200,46.8282538,29.4798393
30,Коммунистическая улица,3200,46.8283687,29.4798722
19А,улица Кирова,3200,46.8286091,29.4788482
28,Коммунистическая улица,3200,46.8285307,29.4794941
26,Коммунистическая улица,3200,46.8285871,29.4798101
24,Коммунистическая улица,3200,46.8287975,29.4801718
19,улица Кирова,3200,46.8287035,29.4790140
17А,улица Кирова,3200,46.8287696,29.4792629
17,улица Кирова,3200,46.8289338,29.4790887
15,улица Кирова,3200,46.8290284,29.4790942
49,улица Шестакова,3200,46.8194776,29.4858757
51,улица Шестакова,3200,46.8193423,29.4859896
47,Комсомольская улица,3200,46.8185704,29.4855459
69,улица Шестакова,3200,46.8178336,29.4852128
67,улица Шестакова,3200,46.8179824,29.4851839
71,улица Шестакова,3200,46.8176761,29.4850743
46,Комсомольская улица,3200,46.8181629,29.4857395
48,Комсомольская улица,3200,46.8180984,29.4860531
50,Комсомольская улица,3200,46.8180149,29.4864023
8,Садовая улица,3200,46.8177269,29.4863625
10а,Садовая улица,3200,46.8175954,29.4862107
10,Садовая улица,3200,46.8173787,29.4862491
12,Садовая улица,3200,46.8172388,29.4860556
14,Садовая улица,3200,46.8170372,29.4859559
16,Садовая улица,3200,46.8169118,29.4861805
18,Садовая улица,3200,46.8167969,29.4861123
43,улица Кавриаго,3200,46.8165036,29.4855726
20,Садовая улица,3200,46.8166509,29.4860757
22,Садовая улица,3200,46.8163869,29.4860756
45,улица Кавриаго,3200,46.8164052,29.4859352
21,Садовая улица,3200,46.8166740,29.4868871
51,Комсомольская улица,3200,46.8184600,29.4860703
53,Комсомольская улица,3200,46.8184134,29.4863392
59,улица Шестакова,3200,46.8188206,29.4855450
57,улица Шестакова,3200,46.8189405,29.4856528
55,улица Шестакова,3200,46.8190990,29.4858168
53,улица Шестакова,3200,46.8192297,29.4859164
6,Садовая улица,3200,46.8186687,29.4865958
4,Садовая улица,3200,46.8191436,29.4867052
30,улица Кирова,3200,46.8279665,29.4776832
26,улица Кирова,3200,46.8281741,29.4779469
28,улица Кирова,3200,46.8280632,29.4779084
24,улица Кирова,3200,46.8283554,29.4779292
22,улица Кирова,3200,46.8284792,29.4781073
1,улица Котовского,3200,46.8297758,29.4880260
3,улица Котовского,3200,46.8295614,29.4880202
5,улица Котовского,3200,46.8293944,29.4880872
4,улица Ткаченко,3200,46.8294008,29.4885767
16,улица Суворова,3200,46.8267491,29.4852351
14,улица Суворова,3200,46.8269175,29.4852833
12,улица Суворова,3200,46.8270704,29.4852834
10,улица Суворова,3200,46.8271154,29.4854128
19,Садовая улица,3200,46.8169033,29.4866923
17,Садовая улица,3200,46.8170899,29.4867043
23,Садовая улица,3200,46.8165026,29.4866830
25,Садовая улица,3200,46.8162318,29.4865823
45,улица Шестакова,3200,46.8201667,29.4861979
45,улица Шестакова,3200,46.8202273,29.4864594
"43 кв.1,2",улица Шестакова,3200,46.8204661,29.4863893
41,улица Шестакова,3200,46.8207237,29.4864582
67,Московская улица,3200,46.8203767,29.4869373
69,Московская улица,3200,46.8200528,29.4870814
71,Московская улица,3200,46.8199717,29.4872311
24,улица Кавриаго,3200,46.8165220,29.4841160
45,улица Котовского,3200,46.8260858,29.4874923
47,улица Котовского,3200,46.8259137,29.4874123
47а,улица Котовского,3200,46.8256519,29.4873760
43а,улица Котовского,3200,46.8262686,29.4875351
18,улица Шестакова,3200,46.8253858,29.4880562
14,улица Шестакова,3200,46.8256523,29.4885105
20,улица Шестакова,3200,46.8252100,29.4883328
12,улица Шестакова,3200,46.8258380,29.4884866
41,улица Котовского,3200,46.8265136,29.4876383
39а,улица Котовского,3200,46.8266568,29.4877382
37,улица Котовского,3200,46.8268255,29.4878224
33,улица Котовского,3200,46.8270210,29.4879425
4,улица Щорса,3200,46.8271638,29.4881690
49,улица Котовского,3200,46.8247856,29.4867647
51,улица Котовского,3200,46.8246603,29.4867166
53,улица Котовского,3200,46.8245363,29.4866770
55,улица Котовского,3200,46.8244076,29.4866198
20,улица Гагарина,3200,46.8248876,29.4873134
22,улица Гагарина,3200,46.8247396,29.4874884
24,улица Гагарина,3200,46.8247409,29.4877123
34,улица Шестакова,3200,46.8237327,29.4875262
36,улица Шестакова,3200,46.8234928,29.4874947
24,улица Шестакова,3200,46.8243707,29.4879000
26,улица Шестакова,3200,46.8242404,29.4878128
39,улица Сергея Лазо,3200,46.8233204,29.4867263
44,Московская улица,3200,46.8193955,29.4872753
1,Садовая улица,3200,46.8190766,29.4872198
10,улица Маяковского,3200,46.8190459,29.4875615
3,Садовая улица,3200,46.8188742,29.4871990
12,улица Маяковского,3200,46.8189325,29.4875650
5,Садовая улица,3200,46.8186943,29.4871624
7,Садовая улица,3200,46.8184888,29.4870667
55,Комсомольская улица,3200,46.8184375,29.4874191
18,улица Маяковского,3200,46.8184820,29.4876924
16,улица Маяковского,3200,46.8186330,29.4876742
14,улица Маяковского,3200,46.8187664,29.4875692
15,Садовая улица,3200,46.8173447,29.4868035
11,Садовая улица,3200,46.8176729,29.4868803
13,Садовая улица,3200,46.8175449,29.4868077
1,Молдавская улица,3200,46.8174051,29.4869339
9,Садовая улица,3200,46.8178975,29.4868912
52,Комсомольская улица,3200,46.8180342,29.4869543
3,Молдавская улица,3200,46.8174442,29.4871016
5,Молдавская улица,3200,46.8173395,29.4872405
9,Молдавская улица,3200,46.8173104,29.4875269
26,улица Маяковского,3200,46.8173123,29.4877208
24,улица Маяковского,3200,46.8176198,29.4875675
20а,улица Маяковского,3200,46.8179817,29.4877241
22,улица Маяковского,3200,46.8178449,29.4877138
2,Молдавская улица,3200,46.8170916,29.4870821
28,улица Маяковского,3200,46.8170447,29.4876596
30,улица Маяковского,3200,46.8168857,29.4876474
17,улица Маяковского,3200,46.8195561,29.4883856
15,улица Маяковского,3200,46.8197584,29.4883977
19,улица Маяковского,3200,46.8193629,29.4883692
23,улица Маяковского,3200,46.8191386,29.4883070
25,улица Маяковского,3200,46.8189519,29.4882980
27,улица Маяковского,3200,46.8188591,29.4882778
29,улица Маяковского,3200,46.8186605,29.4883397
31,улица Маяковского,3200,46.8184232,29.4883787
57,Комсомольская улица,3200,46.8183870,29.4888739
33,улица Маяковского,3200,46.8179005,29.4883447
35,улица Маяковского,3200,46.8177125,29.4882185
37,улица Маяковского,3200,46.8175030,29.4883622
39,улица Маяковского,3200,46.8172838,29.4884287
11,Молдавская улица,3200,46.8172545,29.4886829
114,улица Ткаченко,3200,46.8172718,29.4892124
15,Молдавская улица,3200,46.8171186,29.4892997
13,Молдавская улица,3200,46.8171970,29.4888690
41,улица Маяковского,3200,46.8169977,29.4882291
32,улица Маяковского,3200,46.8166466,29.4875686
34,улица Маяковского,3200,46.8164699,29.4875738
38,улица Маяковского,3200,46.8163034,29.4876058
40,улица Маяковского,3200,46.8161738,29.4875698
49,улица Кавриаго,3200,46.8161042,29.4871728
47,улица Кавриаго,3200,46.8162201,29.4868819
36,улица Маяковского,3200,46.8164108,29.4874405
2,Пивоваренный переулок,3200,46.8196822,29.4899364
4а,Молдавская улица,3200,46.8169616,29.4886288
4,Молдавская улица,3200,46.8169296,29.4888865
43,Молдавская улица,3200,46.8168164,29.4884011
45,улица Маяковского,3200,46.8167061,29.4882709
89,улица Ткаченко,3200,46.8195311,29.4899143
91,улица Ткаченко,3200,46.8193620,29.4898843
4,Пивоваренный переулок,3200,46.8196512,29.4901909
6,Пивоваренный переулок,3200,46.8195484,29.4905102
8,Пивоваренный переулок,3200,46.8195891,29.4907105
10,Пивоваренный переулок,3200,46.8195077,29.4909797
93,улица Ткаченко,3200,46.8190915,29.4898842
2А,улица Шевченко,3200,46.8193232,29.4911028
2,улица Шевченко,3200,46.8191550,29.4910479
63,Комсомольская улица,3200,46.8183158,29.4910965
10,улица Шевченко,3200,46.8185693,29.4910719
6,улица Шевченко,3200,46.8188559,29.4906768
4А,улица Шевченко,3200,46.8190238,29.4911278
4,улица Шевченко,3200,46.8189036,29.4911186
1А,улица Шевченко,3200,46.8189630,29.4915611
3,улица Шевченко,3200,46.8187453,29.4915550
3А,улица Шевченко,3200,46.8186300,29.4915145
5,улица Шевченко,3200,46.8184916,29.4915529
7,улица Шевченко,3200,46.8182444,29.4914304
65,Комсомольская улица,3200,46.8182617,29.4918701
67,Комсомольская улица,3200,46.8181904,29.4922153
49,улица Маяковского,3200,46.8165446,29.4883128
51,улица Маяковского,3200,46.8164047,29.4882671
53,улица Маяковского,3200,46.8162623,29.4882099
55,улица Маяковского,3200,46.8160091,29.4882839
51а,улица Кавриаго,3200,46.8158024,29.4884315
51б,улица Кавриаго,3200,46.8157431,29.4887356
51,улица Кавриаго,3200,46.8157304,29.4889444
53,улица Кавриаго,3200,46.8157075,29.4892754
128а,улица Ткаченко,3200,46.8159122,29.4892963
126,улица Ткаченко,3200,46.8160333,29.4892260
90,улица Котовского,3200,46.8169355,29.4822784
102,улица Котовского,3200,46.8157482,29.4817246
104,улица Котовского,3200,46.8155000,29.4816019
8,переулок Суворова,3200,46.8159174,29.4806355
121,улица Суворова,3200,46.8150704,29.4800143
66,улица Суворова,3200,46.8159707,29.4798396
78,улица Суворова,3200,46.8149929,29.4793703
70,Комсомольская улица,3200,46.8180041,29.4908207
12,Комсомольская улица,3200,46.8180165,29.4910607
72,Комсомольская улица,3200,46.8179725,29.4917986
74,Комсомольская улица,3200,46.8179740,29.4920207
11,улица Шевченко,3200,46.8178465,29.4914905
13,улица Шевченко,3200,46.8174687,29.4915094
11,улица Шевченко,3200,46.8176556,29.4914932
15,улица Шевченко,3200,46.8173533,29.4916168
"17 и 17 ""а""",улица Шевченко,3200,46.8172498,29.4915388
19,улица Шевченко,3200,46.8171066,29.4915109
21,улица Шевченко,3200,46.8169151,29.4914805
19В,Молдавская улица,3200,46.8168763,29.4918583
25,Молдавская улица,3200,46.8167899,29.4925365
23,Молдавская улица,3200,46.8167583,29.4921290
124,улица Ткаченко,3200,46.8161873,29.4892136
123,улица Ткаченко,3200,46.8165505,29.4898249
6,Молдавская улица,3200,46.8167542,29.4903439
8,Молдавская улица,3200,46.8166990,29.4906397
125,улица Ткаченко,3200,46.8163832,29.4898504
20,Коммунистическая улица,3200,46.8291194,29.4802968
9,улица Кирова,3200,46.8294569,29.4793081
11,улица Кирова,3200,46.8292956,29.4792019
7,улица Кирова,3200,46.8294851,29.4795931
5,улица Кирова,3200,46.8296526,29.4793916
3,улица Кирова,3200,46.8297734,29.4794952
8,Тираспольская улица,3200,46.8297667,29.4800097
10,Коммунистическая улица,3200,46.8297599,29.4804926
12,Коммунистическая улица,3200,46.8296153,29.4805555
14,Коммунистическая улица,3200,46.8294745,29.4804951
16,Коммунистическая улица,3200,46.8293698,29.4802253
2,Тираспольская улица,3200,46.8302301,29.4773765
3,улица Пушкина,3200,46.8299957,29.4772859
5,улица Пушкина,3200,46.8298300,29.4772351
7,улица Пушкина,3200,46.8296910,29.4771828
127,улица Ткаченко,3200,46.8162466,29.4898312
129,улица Ткаченко,3200,46.8161086,29.4898854
131,улица Ткаченко,3200,46.8159904,29.4898445
133,улица Ткаченко,3200,46.8158953,29.4900700
53а,улица Кавриаго,3200,46.8157107,29.4898415
55,улица Кавриаго,3200,46.8157457,29.4903474
57,улица Кавриаго,3200,46.8156965,29.4907002
26а,улица Шевченко,3200,46.8160250,29.4908585
26,улица Шевченко,3200,46.8157721,29.4910319
10,Молдавская улица,3200,46.8166783,29.4910301
22А,улица Шевченко,3200,46.8165152,29.4909518
24а,улица Шевченко,3200,46.8163871,29.4910241
24,улица Шевченко,3200,46.8162440,29.4910226
9,улица Бородина,3200,46.8237642,29.4634570
108,улица Котовского,3200,46.8149065,29.4813719
110,улица Котовского,3200,46.8147949,29.4813295
112,улица Котовского,3200,46.8146995,29.4812227
121,улица Котовского,3200,46.8154756,29.4822401
34а,Садовая улица,3200,46.8153575,29.4849601
96,улица Калинина,3200,46.8154789,29.4761652
80,улица Шестакова,3200,46.8161948,29.4837739
78,улица Шестакова,3200,46.8162949,29.4837074
25,улица Шевченко,3200,46.8164415,29.4915285
2,Первомайский переулок,3200,46.8164972,29.4919773
4,Первомайский переулок,3200,46.8163177,29.4917219
6,Первомайский переулок,3200,46.8161712,29.4918574
8,Первомайский переулок,3200,46.8160413,29.4920034
12,Первомайский переулок,3200,46.8158163,29.4920530
3,Первомайский переулок,3200,46.8161801,29.4923438
1,Первомайский переулок,3200,46.8163032,29.4924196
2,улица Кирова,3200,46.8300030,29.4786990
4,улица Кирова,3200,46.8298245,29.4786091
6,улица Кирова,3200,46.8296610,29.4785353
8,улица Кирова,3200,46.8295488,29.4784388
14Б,улица Кирова,3200,46.8289877,29.4783302
14А,улица Кирова,3200,46.8291277,29.4782874
16,улица Кирова,3200,46.8288950,29.4782529
12,улица Кирова,3200,46.8292398,29.4782725
10,улица Кирова,3200,46.8294226,29.4783439
18,улица Кирова,3200,46.8288330,29.4780266
25,улица Пушкина,3200,46.8287827,29.4769379
21,улица Пушкина,3200,46.8289568,29.4769021
9,улица Пушкина,3200,46.8291203,29.4768965
14,улица Кирова,3200,46.8290498,29.4780123
7,улица Калинина,3200,46.8285862,29.4829140
9,улица Калинина,3200,46.8284122,29.4828626
24,Садовая улица,3200,46.8158871,29.4858948
36,улица Кавриаго,3200,46.8160951,29.4859465
27,Садовая улица,3200,46.8159549,29.4865181
82,улица Шестакова,3200,46.8159984,29.4836933
86,улица Шестакова,3200,46.8157077,29.4837788
84,улица Шестакова,3200,46.8158664,29.4837788
24а,улица Кавриаго,3200,46.8164460,29.4835706
88,улица Шестакова,3200,46.8155684,29.4836477
90,улица Шестакова,3200,46.8154720,29.4835441
92,улица Шестакова,3200,46.8153643,29.4835394
94,улица Шестакова,3200,46.8153523,29.4832313
96,улица Шестакова,3200,46.8151101,29.4834713
114,улица Котовского,3200,46.8145178,29.4811072
67,Первомайская улица,3200,46.8139618,29.4808486
123,улица Суворова,3200,46.8149234,29.4800074
127,улица Суворова,3200,46.8148130,29.4799105
129,улица Суворова,3200,46.8144625,29.4797454
59,Первомайская улица,3200,46.8140393,29.4801422
61,Первомайская улица,3200,46.8139893,29.4802867
92,улица Калинина,3200,46.8161494,29.4764246
94,улица Калинина,3200,46.8158327,29.4762940
26,улица Горького,3200,46.8162016,29.4761634
119,Коммунистическая улица,3200,46.8162751,29.4752704
22,улица Горького,3200,46.8164246,29.4753146
24,улица Горького,3200,46.8163105,29.4756599
11,улица Шестакова,3200,46.8253808,29.4888593
7,улица Шестакова,3200,46.8258344,29.4890499
5,улица Шестакова,3200,46.8259515,29.4891495
16,улица Щорса,3200,46.8260394,29.4885297
13,улица Щорса,3200,46.8260722,29.4888757
14,улица Щорса,3200,46.8261817,29.4885063
39,улица Котовского,3200,46.8263058,29.4878880
12,улица Щорса,3200,46.8263593,29.4884207
10,улица Щорса,3200,46.8266471,29.4882415
8,улица Щорса,3200,46.8268738,29.4883655
6,улица Щорса,3200,46.8270077,29.4883217
11,улица Щорса,3200,46.8267938,29.4887987
9,улица Щорса,3200,46.8269664,29.4887548
26,переулок Шестакова,3200,46.8277652,29.4889997
28А,переулок Шестакова,3200,46.8274123,29.4891348
7,улица Щорса,3200,46.8271233,29.4886321
5,улица Щорса,3200,46.8273847,29.4886678
31,улица Котовского,3200,46.8272981,29.4880862
27,улица Котовского,3200,46.8277601,29.4882410
2,улица Щорса,3200,46.8275243,29.4882412
15,Советская улица,3200,46.8272796,29.4841605
17,Советская улица,3200,46.8271412,29.4840677
9,Советская улица,3200,46.8276301,29.4843453
11,Советская улица,3200,46.8275206,29.4842875
8,улица Суворова,3200,46.8272852,29.4855286
44,улица Кавриаго,3200,46.8154622,29.4891905
44а,улица Кавриаго,3200,46.8154747,29.4887965
130,улица Ткаченко,3200,46.8152644,29.4892300
34,Первомайская улица,3200,46.8164467,29.4698584
32,Первомайская улица,3200,46.8165590,29.4696707
30,Первомайская улица,3200,46.8166308,29.4695366
28,Первомайская улица,3200,46.8166044,29.4693573
26,Первомайская улица,3200,46.8167808,29.4691939
3,переулок Калинина,3200,46.8153020,29.4753563
5,переулок Калинина,3200,46.8152251,29.4757361
7,переулок Калинина,3200,46.8151532,29.4760161
2,переулок Калинина,3200,46.8150531,29.4748670
4,переулок Калинина,3200,46.8149610,29.4751841
6,переулок Калинина,3200,46.8149036,29.4754679
8,переулок Калинина,3200,46.8148118,29.4758997
20,улица Горького,3200,46.8166258,29.4743936
16,улица Горького,3200,46.8166905,29.4738992
18,улица Горького,3200,46.8165777,29.4739949
94,улица Кирова,3200,46.8165906,29.4728344
92,улица Кирова,3200,46.8167084,29.4729106
111,улица Кирова,3200,46.8164625,29.4734258
113,улица Кирова,3200,46.8163330,29.4733514
115,улица Кирова,3200,46.8162210,29.4733047
117,улица Кирова,3200,46.8160189,29.4733707
119,улица Кирова,3200,46.8158851,29.4731780
75,улица Шестакова,3200,46.8162006,29.4846858
85,улица Шестакова,3200,46.8153843,29.4842318
87,улица Шестакова,3200,46.8152973,29.4841592
89,улица Шестакова,3200,46.8151811,29.4841020
91,улица Шестакова,3200,46.8150019,29.4841489
97,улица Шестакова,3200,46.8147370,29.4839384
95,улица Шестакова,3200,46.8148384,29.4839786
93,улица Шестакова,3200,46.8149147,29.4840096
5,Оргеевский переулок,3200,46.8145904,29.4846545
26,Садовая улица,3200,46.8157677,29.4856621
28,Садовая улица,3200,46.8156653,29.4858009
30,Садовая улица,3200,46.8155462,29.4857347
32,Садовая улица,3200,46.8154334,29.4857503
34,Садовая улица,3200,46.8153167,29.4856014
36,Садовая улица,3200,46.8150809,29.4856221
38,Садовая улица,3200,46.8149224,29.4856107
40,Садовая улица,3200,46.8148687,29.4855042
42,Садовая улица,3200,46.8146761,29.4855101
28,улица Кавриаго,3200,46.8163269,29.4849319
28а,улица Кавриаго,3200,46.8162824,29.4850983
30,улица Кавриаго,3200,46.8162441,29.4852608
34,улица Кавриаго,3200,46.8160759,29.4855948
71,Первомайская улица,3200,46.8137623,29.4821024
73,Первомайская улица,3200,46.8136706,29.4821893
75,Первомайская улица,3200,46.8137379,29.4824307
77,Первомайская улица,3200,46.8137196,29.4826574
110,улица Шестакова,3200,46.8141468,29.4831255
112,улица Шестакова,3200,46.8139963,29.4830678
2,Оргеевский переулок,3200,46.8145137,29.4838601
99,улица Шестакова,3200,46.8143230,29.4838137
101,улица Шестакова,3200,46.8142361,29.4837753
103,улица Шестакова,3200,46.8141464,29.4837715
107,улица Шестакова,3200,46.8139479,29.4836271
109,улица Шестакова,3200,46.8138416,29.4836199
111,улица Шестакова,3200,46.8137190,29.4836060
83,Первомайская улица,3200,46.8136176,29.4841617
85,Первомайская улица,3200,46.8135894,29.4843403
87,Первомайская улица,3200,46.8135613,29.4845974
89,Первомайская улица,3200,46.8135646,29.4848032
91,Первомайская улица,3200,46.8135562,29.4849353
93,Первомайская улица,3200,46.8135178,29.4850802
95,Первомайская улица,3200,46.8134538,29.4852956
56,Садовая улица,3200,46.8136074,29.4853298
27,Садовая улица,3200,46.8158681,29.4864227
31,Садовая улица,3200,46.8155191,29.4866028
33,Садовая улица,3200,46.8154217,29.4863633
35,Садовая улица,3200,46.8153177,29.4863169
1,Садовый переулок,3200,46.8153813,29.4870748
2,Садовый переулок,3200,46.8155125,29.4868094
40а,улица Кавриаго,3200,46.8158224,29.4870317
40,улица Маяковского,3200,46.8156231,29.4874808
44,улица Маяковского,3200,46.8155271,29.4875521
46,улица Маяковского,3200,46.8154093,29.4875445
48,улица Маяковского,3200,46.8152921,29.4875254
3,Садовый переулок,3200,46.8149161,29.4869850
50,улица Маяковского,3200,46.8151254,29.4875263
52,улица Маяковского,3200,46.8150861,29.4873277
54,улица Маяковского,3200,46.8149347,29.4874859
56,улица Маяковского,3200,46.8148123,29.4875059
37,Садовая улица,3200,46.8152116,29.4863604
41,Садовая улица,3200,46.8150437,29.4863148
43,Садовая улица,3200,46.8149404,29.4862683
58,улица Маяковского,3200,46.8145780,29.4874307
60,улица Маяковского,3200,46.8144320,29.4874100
42,улица Кавриаго,3200,46.8155186,29.4881124
57,улица Маяковского,3200,46.8153482,29.4881020
59,улица Маяковского,3200,46.8151733,29.4881348
61,улица Маяковского,3200,46.8150268,29.4881004
63,улица Маяковского,3200,46.8149315,29.4881137
65,улица Маяковского,3200,46.8148500,29.4881425
89,улица Маяковского,3200,46.8134421,29.4880788
132,улица Ткаченко,3200,46.8151047,29.4892736
134,улица Ткаченко,3200,46.8149607,29.4892037
136,улица Ткаченко,3200,46.8148617,29.4891679
138,улица Ткаченко,3200,46.8146931,29.4890008
140,улица Ткаченко,3200,46.8145163,29.4891363
142,улица Ткаченко,3200,46.8144098,29.4891477
144,улица Ткаченко,3200,46.8143013,29.4892089
146,улица Ткаченко,3200,46.8141569,29.4892472
148,улица Ткаченко,3200,46.8139980,29.4891808
152,улица Ткаченко,3200,46.8138720,29.4891934
154,улица Ткаченко,3200,46.8137602,29.4891873
156,улица Ткаченко,3200,46.8136575,29.4891597
158,улица Ткаченко,3200,46.8135501,29.4891981
160,улица Ткаченко,3200,46.8134168,29.4891633
162,улица Ткаченко,3200,46.8133035,29.4891220
164,улица Ткаченко,3200,46.8130652,29.4891070
62,улица Маяковского,3200,46.8142927,29.4873785
64,улица Маяковского,3200,46.8141729,29.4873441
5,Садовый переулок,3200,46.8145035,29.4869802
9,Садовый переулок,3200,46.8140852,29.4869036
66,улица Маяковского,3200,46.8140339,29.4871481
68,улица Маяковского,3200,46.8138993,29.4874127
11,Садовый переулок,3200,46.8137472,29.4868733
70,улица Маяковского,3200,46.8137981,29.4873711
72,улица Маяковского,3200,46.8136811,29.4872723
74,улица Маяковского,3200,46.8135883,29.4873143
76,улица Маяковского,3200,46.8134143,29.4872176
80,улица Маяковского,3200,46.8132125,29.4872912
82,улица Маяковского,3200,46.8130804,29.4873129
101,Первомайская улица,3200,46.8128262,29.4870438
8,Садовый переулок,3200,46.8139844,29.4865969
6,Садовый переулок,3200,46.8141545,29.4866255
4,Садовый переулок,3200,46.8145358,29.4866546
13,Садовый переулок,3200,46.8133906,29.4867951
15,Садовый переулок,3200,46.8132666,29.4868066
99а,Первомайская улица,3200,46.8127925,29.4868295
84,улица Маяковского,3200,46.8128626,29.4873159
169,улица Ткаченко,3200,46.8129650,29.4896065
97,Первомайская улица,3200,46.8127739,29.4863723
45,Садовая улица,3200,46.8146598,29.4862051
47,Садовая улица,3200,46.8145113,29.4861886
49,Садовая улица,3200,46.8143465,29.4861537
53,Садовая улица,3200,46.8141207,29.4862456
55,Садовая улица,3200,46.8139706,29.4861540
57,Садовая улица,3200,46.8137876,29.4861663
59,Садовая улица,3200,46.8136717,29.4861689
61,Садовая улица,3200,46.8135520,29.4862066
10а,Садовый переулок,3200,46.8137358,29.4865601
10,Садовый переулок,3200,46.8135913,29.4865384
63,Садовая улица,3200,46.8133829,29.4863294
22,переулок Шестакова,3200,46.8282442,29.4888288
24,переулок Шестакова,3200,46.8280754,29.4890478
121,улица Кирова,3200,46.8156550,29.4730471
123,улица Кирова,3200,46.8155376,29.4729528
21,Первомайская улица,3200,46.8153114,29.4729608
126,Коммунистическая улица,3200,46.8162816,29.4746410
64,Первомайская улица,3200,46.8146049,29.4731336
66,Первомайская улица,3200,46.8146128,29.4733625
38,Первомайская улица,3200,46.8159034,29.4708973
29а,улица Ткаченко,3200,46.8283551,29.4896099
33б,Кишинёвская улица,3200,46.8383764,29.4647515
25,Первомайская улица,3200,46.8150351,29.4735076
60,Первомайская улица,3200,46.8148289,29.4728189
102,Первомайская улица,3200,46.8141861,29.4760309
104,Первомайская улица,3200,46.8140779,29.4761699
106,Первомайская улица,3200,46.8141255,29.4763651
108,Первомайская улица,3200,46.8139915,29.4766822
26,Рыбницкая улица,3200,46.8140093,29.4724230
4,переулок Бородина,3200,46.8231086,29.4635829
5,переулок Бородина,3200,46.8236847,29.4639393
1,переулок Бородина,3200,46.8234992,29.4638349
6,Братская улица,3200,46.8415895,29.4658853
8,Братская улица,3200,46.8414899,29.4657261
10,Братская улица,3200,46.8413357,29.4655739
5,улица Старого,3200,46.8204220,29.4643347
137,улица Суворова,3200,46.8134693,29.4794822
139,улица Суворова,3200,46.8132420,29.4795670
54,Первомайская улица,3200,46.8150860,29.4723799
139,улица Суворова,3200,46.8126228,29.4797695
8,Коммунистическая улица,3200,46.8304242,29.4808196
6,Коммунистическая улица,3200,46.8307869,29.4809489
4,Коммунистическая улица,3200,46.8311645,29.4810261
7/1,Коммунистическая улица,3200,46.8303117,29.4813303
7,Коммунистическая улица,3200,46.8306809,29.4814272
5,Коммунистическая улица,3200,46.8310809,29.4815919
3,Коммунистическая улица,3200,46.8314529,29.4817057
2,Коммунистическая улица,3200,46.8315470,29.4811846
1А,Тираспольская улица,3200,46.8300672,29.4834183
3,улица Калинина,3200,46.8288893,29.4827883
27,улица Ткаченко,3200,46.8286104,29.4895076
25,улица Ткаченко,3200,46.8288181,29.4895127
23,улица Ткаченко,3200,46.8290983,29.4893021
5,улица Ткаченко,3200,46.8305380,29.4891735
7,улица Ткаченко,3200,46.8302053,29.4890903
9,улица Ткаченко,3200,46.8300502,29.4892190
11,улица Ткаченко,3200,46.8298439,29.4891069
13,улица Ткаченко,3200,46.8297168,29.4894682
15,улица Ткаченко,3200,46.8295453,29.4892568
17,улица Ткаченко,3200,46.8294793,29.4895371
19,улица Ткаченко,3200,46.8293197,29.4895237
21,улица Ткаченко,3200,46.8293290,29.4897414
141,улица Суворова,3200,46.8124775,29.4798231
92,улица Суворова,3200,46.8125709,29.4788153
90а,улица Суворова,3200,46.8127164,29.4790481
94,улица Суворова,3200,46.8125534,29.4790761
96,улица Суворова,3200,46.8124036,29.4790885
6,тупик Некрасова,3200,46.8132314,29.4657014
7,тупик Некрасова,3200,46.8134195,29.4660147
27/А,Георге Асаке,3200,46.8142033,29.4644590
42,Первомайская улица,3200,46.8157286,29.4712424
10,Индустриальная улица,3200,46.7931736,29.4896915
21,Дубоссарская улица,3200,46.8161970,29.4687465
23,Дубоссарская улица,3200,46.8161349,29.4689173
21,улица Маяковского,3200,46.8192657,29.4882682
98,улица Суворова,3200,46.8122054,29.4792943
100,улица Суворова,3200,46.8120702,29.4792854
102,улица Суворова,3200,46.8119935,29.4794483
104,улица Суворова,3200,46.8118647,29.4793999
143,улица Суворова,3200,46.8123489,29.4798772
145,улица Суворова,3200,46.8121936,29.4799427
5,Деповская улица,3200,46.8287503,29.4715505
29,Песчанная улица,3200,46.8125112,29.4842987
21,Песчанная улица,3200,46.8120086,29.4849145
27,Песчанная улица,3200,46.8121697,29.4844462
19,Песчанная улица,3200,46.8119336,29.4847274
17,Песчанная улица,3200,46.8119264,29.4840510
31,Песчанная улица,3200,46.8122731,29.4838873
70,Садовая улица,3200,46.8111640,29.4855812
7,улица Толбухина,3200,46.8109724,29.4849333
9,улица Толбухина,3200,46.8108715,29.4848554
3,улица Няги,3200,46.8107052,29.4851130
24,Рыбницкая улица,3200,46.8140907,29.4722699
22,Рыбницкая улица,3200,46.8141626,29.4721366
20,Рыбницкая улица,3200,46.8142476,29.4719561
18,Рыбницкая улица,3200,46.8143300,29.4717799
37,улица Карбышева,3200,46.8136905,29.4720845
35,улица Карбышева,3200,46.8137786,29.4718428
33,улица Карбышева,3200,46.8138371,29.4716396
14,Рыбницкая улица,3200,46.8144883,29.4714804
12,Рыбницкая улица,3200,46.8145824,29.4713146
6,Рыбницкая улица,3200,46.8148166,29.4708604
8,Рыбницкая улица,3200,46.8147407,29.4710034
10,Рыбницкая улица,3200,46.8146677,29.4711416
11,улица Тургенева,3200,46.8187430,29.4635860
9,улица Тургенева,3200,46.8191358,29.4638279
7,улица Тургенева,3200,46.8194403,29.4639214
5,улица Тургенева,3200,46.8196581,29.4639570
3,улица Тургенева,3200,46.8199768,29.4640541
3,улица Старого,3200,46.8202260,29.4648124
1,улица Старого,3200,46.8201997,29.4650592
2,Киевская улица,3200,46.8187451,29.4641255
4,Путейская улица,3200,46.8199434,29.4645575
41,улица Бендерского Восстания,3200,46.8190388,29.4602639
12,Киевская улица,3200,46.8186241,29.4601408
22/1,Севастопольская улица,3200,46.8186537,29.4608723
10,Киевская улица,3200,46.8186051,29.4606325
20,Киевская улица,3200,46.8188991,29.4587376
14,Киевская улица,3200,46.8186532,29.4597256
16,Киевская улица,3200,46.8187370,29.4593425
18,Киевская улица,3200,46.8187610,29.4590972
21,Школьная улица,3200,46.8198926,29.4572868
102,Железнодорожная улица,3200,46.8192478,29.4571039
104,Железнодорожная улица,3200,46.8190813,29.4571709
27,улица Старого,3200,46.8219948,29.4573180
2а,улица Старого,3200,46.8207582,29.4654294
13,улица Сергея Ревенялэ,3200,46.8209246,29.4648507
2,улица Старого,3200,46.8207419,29.4650459
11,улица Сергея Ревенялэ,3200,46.8212353,29.4649309
9,улица Сергея Ревенялэ,3200,46.8214153,29.4650181
7,улица Бородина,3200,46.8239253,29.4634826
11,Треугольный переулок,3200,46.8241197,29.4637893
9,Треугольный переулок,3200,46.8240667,29.4639795
7,Треугольный переулок,3200,46.8240046,29.4641635
1,Треугольный переулок,3200,46.8238954,29.4647132
25,Дубоссарская улица,3200,46.8161383,29.4691019
27,Дубоссарская улица,3200,46.8160715,29.4692788
26,Дубоссарская улица,3200,46.8157348,29.4693144
3,Деповская улица,3200,46.8284105,29.4713397
1,Деповская улица,3200,46.8281007,29.4711316
9,Деповская улица,3200,46.8294568,29.4721208
7,Деповская улица,3200,46.8290838,29.4718300
9а,Деповская улица,3200,46.8298333,29.4720202
11,Деповская улица,3200,46.8300852,29.4725403
13,улица Няги,3200,46.8107847,29.4882426
4,улица Толбухина,3200,46.8112594,29.4848980
20,Песчанная улица,3200,46.8115429,29.4851475
18,Песчанная улица,3200,46.8115325,29.4844889
16,Песчанная улица,3200,46.8116155,29.4841554
14,Песчанная улица,3200,46.8117054,29.4840117
2,Песчанный переулок,3200,46.8113674,29.4835628
1,Песчанный переулок,3200,46.8112431,29.4838770
3,Песчанный переулок,3200,46.8111091,29.4839594
14,Песчанный переулок,3200,46.8099720,29.4837103
3,Октябрьская улица,3200,46.8098704,29.4844681
15а,Песчанная улица,3200,46.8120052,29.4833680
15,Песчанная улица,3200,46.8119624,29.4836433
13,Песчанная улица,3200,46.8120966,29.4830688
11,Песчанная улица,3200,46.8121780,29.4825826
13а,Песчанная улица,3200,46.8121711,29.4828415
7,Песчанная улица,3200,46.8121981,29.4823148
1,Песчанная улица,3200,46.8122329,29.4815563
3а,Песчанная улица,3200,46.8121837,29.4817434
3,Песчанная улица,3200,46.8121181,29.4819466
5,Песчанная улица,3200,46.8121812,29.4821213
22,улица Георге Асаке,3200,46.8178880,29.4660715
24,улица Георге Асаке,3200,46.8178262,29.4658195
6,Треугольный переулок,3200,46.8242745,29.4641361
1,улица Бородина,3200,46.8246664,29.4639349
1,улица Бородина,3200,46.8245341,29.4638106
7,улица Дзержинского,3200,46.8306106,29.4757358
22,Коммунистическая улица,3200,46.8289491,29.4803305
24,Первомайская улица,3200,46.8167163,29.4689289
22,Первомайская улица,3200,46.8168941,29.4688275
20,Первомайская улица,3200,46.8169666,29.4686696
24,Дубоссарская улица,3200,46.8157808,29.4689542
22,Дубоссарская улица,3200,46.8159061,29.4688055
20,Дубоссарская улица,3200,46.8159206,29.4685803
18,Дубоссарская улица,3200,46.8160284,29.4684458
16,Дубоссарская улица,3200,46.8160733,29.4682368
14,Дубоссарская улица,3200,46.8161295,29.4680621
12,Дубоссарская улица,3200,46.8161976,29.4678951
10,Дубоссарская улица,3200,46.8162402,29.4677135
8,Дубоссарская улица,3200,46.8163202,29.4675335
11,Дубоссарская улица,3200,46.8164319,29.4680471
9,Дубоссарская улица,3200,46.8164892,29.4678680
7,Дубоссарская улица,3200,46.8165539,29.4677062
18/18-а,Первомайская улица,3200,46.8170405,29.4684783
16-а,Первомайская улица,3200,46.8168738,29.4681904
14,Первомайская улица,3200,46.8171241,29.4681631
16,Первомайская улица,3200,46.8170591,29.4682651
12,Песчанная улица,3200,46.8117518,29.4832121
10,Песчанная улица,3200,46.8118187,29.4828006
8,Песчанная улица,3200,46.8118197,29.4821529
6,Песчанная улица,3200,46.8118614,29.4819664
4,Песчанная улица,3200,46.8118958,29.4817848
2,Песчанная улица,3200,46.8119783,29.4814229
134,улица Котовского,3200,46.8121315,29.4806634
147,улица Суворова,3200,46.8121079,29.4801179
149,улица Суворова,3200,46.8118990,29.4801897
136,улица Котовского,3200,46.8119633,29.4806397
151,улица Суворова,3200,46.8117811,29.4801634
155,улица Котовского,3200,46.8119612,29.4811691
138,улица Котовского,3200,46.8116445,29.4806263
153,улица Суворова,3200,46.8116344,29.4802510
157,улица Котовского,3200,46.8117744,29.4811320
159,улица Котовского,3200,46.8115843,29.4810878
161,улица Котовского,3200,46.8114599,29.4810693
155,улица Суворова,3200,46.8114102,29.4803127
157,улица Суворова,3200,46.8112692,29.4803589
163,улица Котовского,3200,46.8113513,29.4810952
165,улица Котовского,3200,46.8111898,29.4810281
167,улица Котовского,3200,46.8109372,29.4810229
177,улица Котовского,3200,46.8106411,29.4811158
2,Первомайская улица,3200,46.8175831,29.4665086
2/А,Первомайская улица,3200,46.8175344,29.4666767
2/Б,Первомайская улица,3200,46.8175054,29.4668281
3,улица Георге Асаке,3200,46.8173314,29.4664065
5а,улица Георге Асаке,3200,46.8170532,29.4665802
12,Первомайская улица,3200,46.8172324,29.4677460
8,Первомайская улица,3200,46.8173478,29.4673213
6,Первомайская улица,3200,46.8174009,29.4671058
4,Первомайская улица,3200,46.8173367,29.4669187
11,улица Георге Асаке,3200,46.8164711,29.4660566
160,Коммунистическая улица,3200,46.8131089,29.4724442
69,улица Некрасова,3200,46.8128960,29.4723180
67,улица Некрасова,3200,46.8129988,29.4719389
163,Коммунистическая улица,3200,46.8124233,29.4727291
73,улица Некрасова,3200,46.8126754,29.4731561
75,улица Некрасова,3200,46.8126510,29.4733215
77,улица Некрасова,3200,46.8126711,29.4734216
79,улица Некрасова,3200,46.8126200,29.4735662
81,улица Некрасова,3200,46.8125912,29.4737398
83,улица Некрасова,3200,46.8124831,29.4740242
85,улица Некрасова,3200,46.8124102,29.4741933
66,улица Некрасова,3200,46.8123248,29.4732492
87,улица Некрасова,3200,46.8123354,29.4744884
164,Коммунистическая улица,3200,46.8126771,29.4721491
89,улица Некрасова,3200,46.8122634,29.4747982
91,улица Некрасова,3200,46.8121482,29.4749833
93,улица Некрасова,3200,46.8120836,29.4750919
95,улица Некрасова,3200,46.8120572,29.4752562
97,улица Некрасова,3200,46.8119949,29.4753537
99,улица Некрасова,3200,46.8119521,29.4755051
101,улица Некрасова,3200,46.8118941,29.4756524
103,улица Некрасова,3200,46.8118100,29.4757921
105,улица Некрасова,3200,46.8117459,29.4759297
107,улица Некрасова,3200,46.8116838,29.4761058
109,улица Некрасова,3200,46.8117244,29.4763320
111,улица Некрасова,3200,46.8114277,29.4763009
1,улица Чапаева,3200,46.8112620,29.4719916
52,улица Карбышева,3200,46.8133991,29.4722115
50,улица Карбышева,3200,46.8134608,29.4719770
62,улица Некрасова,3200,46.8124568,29.4717568
168,Коммунистическая улица,3200,46.8121309,29.4717584
2,улица 5 Декабря,3200,46.8122789,29.4711238
174,Коммунистическая улица,3200,46.8117936,29.4715519
176,Коммунистическая улица,3200,46.8117007,29.4714684
178,Коммунистическая улица,3200,46.8115964,29.4713561
180,Коммунистическая улица,3200,46.8114561,29.4712877
1,улица 5 Декабря,3200,46.8118863,29.4707088
4,улица 5 Декабря,3200,46.8123859,29.4709646
6,улица 5 Декабря,3200,46.8124262,29.4706889
3,улица 5 Декабря,3200,46.8121601,29.4706016
5,улица 5 Декабря,3200,46.8122676,29.4703880
7,улица 5 Декабря,3200,46.8121830,29.4702507
48,улица Карбышева,3200,46.8135640,29.4717282
171,Коммунистическая улица,3200,46.8110254,29.4714836
7,Фруктовая улица,3200,46.8102124,29.4725439
9,Фруктовая улица,3200,46.8101528,29.4726571
98а,улица Некрасова,3200,46.8093712,29.4755465
98,улица Некрасова,3200,46.8091744,29.4755310
14,Фруктовая улица,3200,46.8094327,29.4749894
16,Фруктовая улица,3200,46.8093082,29.4751131
100,улица Некрасова,3200,46.8089983,29.4754451
31,улица Карбышева,3200,46.8139238,29.4714719
29,улица Карбышева,3200,46.8139642,29.4712820
27,улица Карбышева,3200,46.8140512,29.4711361
25,улица Карбышева,3200,46.8140958,29.4709370
46,улица Карбышева,3200,46.8136330,29.4715286
23,улица Карбышева,3200,46.8142093,29.4707880
21,улица Карбышева,3200,46.8142276,29.4705922
17,улица Карбышева,3200,46.8143631,29.4702631
19,улица Карбышева,3200,46.8143206,29.4704884
44,улица Карбышева,3200,46.8136977,29.4712899
42,улица Карбышева,3200,46.8137693,29.4710936
40,улица Карбышева,3200,46.8138310,29.4708773
38,улица Карбышева,3200,46.8139200,29.4707001
36,улица Карбышева,3200,46.8139387,29.4704764
34,улица Карбышева,3200,46.8140423,29.4703195
32,улица Карбышева,3200,46.8140996,29.4701405
30,улица Карбышева,3200,46.8141565,29.4699948
57,улица Некрасова,3200,46.8133375,29.4707581
55,улица Некрасова,3200,46.8134111,29.4705328
53,улица Некрасова,3200,46.8134614,29.4703587
51,улица Некрасова,3200,46.8136866,29.4703115
49,улица Некрасова,3200,46.8136768,29.4699902
47,улица Некрасова,3200,46.8136682,29.4697613
45,улица Некрасова,3200,46.8137462,29.4695113
52,улица Некрасова,3200,46.8129129,29.4711615
50,улица Некрасова,3200,46.8129267,29.4709603
48,улица Некрасова,3200,46.8130438,29.4706635
46,улица Некрасова,3200,46.8130803,29.4705299
44,улица Некрасова,3200,46.8131385,29.4703955
42,улица Некрасова,3200,46.8131420,29.4702478
42а,улица Некрасова,3200,46.8132236,29.4700552
1,переулок Некрасова,3200,46.8131088,29.4698934
13б,улица Карбышева,3200,46.8148120,29.4693955
13/1,улица Карбышева,3200,46.8150294,29.4690090
13а,улица Карбышева,3200,46.8151658,29.4688341
7,улица Карбышева,3200,46.8154935,29.4682714
5,улица Карбышева,3200,46.8155441,29.4680950
1,улица Карбышева,3200,46.8157273,29.4677479
6,улица Карбышева,3200,46.8153019,29.4679724
4,улица Карбышева,3200,46.8153551,29.4677715
2,улица Карбышева,3200,46.8154586,29.4676678
8,улица Карбышева,3200,46.8151392,29.4681570
10,улица Карбышева,3200,46.8150396,29.4683121
12,улица Карбышева,3200,46.8149691,29.4684528
6,Дубоссарская улица,3200,46.8164019,29.4672636
4,Дубоссарская улица,3200,46.8164097,29.4670613
2,Дубоссарская улица,3200,46.8165223,29.4669310
5,Дубоссарская улица,3200,46.8166284,29.4674667
1,Дубоссарская улица,3200,46.8167856,29.4670666
3,Дубоссарская улица,3200,46.8167158,29.4672435
7,улица Георге Асаке,3200,46.8170052,29.4661580
9,улица Георге Асаке,3200,46.8168718,29.4660855
11,улица Георге Асаке,3200,46.8167730,29.4660153
32,улица Георге Асаке,3200,46.8171670,29.4657942
30,улица Георге Асаке,3200,46.8173798,29.4658510
64/4,улица Дзержинского,3200,46.8183089,29.4670431
38,улица Георге Асаке,3200,46.8166088,29.4654248
24,улица Некрасова,3200,46.8139712,29.4682594
26,улица Некрасова,3200,46.8139024,29.4684294
20,улица Некрасова,3200,46.8145315,29.4673706
28,улица Некрасова,3200,46.8138376,29.4685619
18,улица Некрасова,3200,46.8146567,29.4672122
40,улица Некрасова,3200,46.8133849,29.4695118
3,переулок Некрасова,3200,46.8130568,29.4697096
5,переулок Некрасова,3200,46.8129371,29.4695694
2,переулок Некрасова,3200,46.8132102,29.4694815
4,переулок Некрасова,3200,46.8130592,29.4692915
15,Школьный переулок,3200,46.8132361,29.4687481
38,улица Некрасова,3200,46.8134624,29.4693129
30,улица Некрасова,3200,46.8137405,29.4686749
32,улица Некрасова,3200,46.8136522,29.4687787
34,улица Некрасова,3200,46.8136076,29.4690059
36,улица Некрасова,3200,46.8135515,29.4691640
13,Школьный переулок,3200,46.8133424,29.4684365
9,Школьный переулок,3200,46.8135575,29.4678809
11,Школьный переулок,3200,46.8134632,29.4682141
6,переулок Некрасова,3200,46.8128285,29.4690048
24,Школьный переулок,3200,46.8129352,29.4687169
7,переулок Некрасова,3200,46.8128286,29.4694554
8,улица 5 Декабря,3200,46.8124826,29.4704490
10,улица 5 Декабря,3200,46.8126391,29.4703630
12,улица 5 Декабря,3200,46.8125594,29.4701654
16а,улица Некрасова,3200,46.8147452,29.4670858
16,улица Некрасова,3200,46.8148579,29.4668851
14,улица Некрасова,3200,46.8149343,29.4667519
14,улица Некрасова,3200,46.8150070,29.4666770
12,улица Некрасова,3200,46.8150644,29.4664980
10,улица Некрасова,3200,46.8151557,29.4662181
19,улица Некрасова,3200,46.8151199,29.4671359
17,улица Некрасова,3200,46.8152454,29.4670963
15,улица Некрасова,3200,46.8152741,29.4668296
13,улица Некрасова,3200,46.8153373,29.4667002
11,улица Некрасова,3200,46.8153340,29.4664820
9,улица Некрасова,3200,46.8154328,29.4663183
7а,улица Некрасова,3200,46.8155342,29.4662101
42,улица Георге Асаке,3200,46.8159525,29.4650982
40,улица Георге Асаке,3200,46.8160905,29.4652117
1/Б,улица Некрасова,3200,46.8157518,29.4654909
7,улица Некрасова,3200,46.8155643,29.4660083
5,улица Некрасова,3200,46.8156246,29.4658881
3,улица Некрасова,3200,46.8156535,29.4656980
6,улица Некрасова,3200,46.8152186,29.4658173
8,улица Некрасова,3200,46.8152070,29.4660238
4,улица Некрасова,3200,46.8153573,29.4657291
2а,улица Некрасова,3200,46.8154157,29.4654972
2,улица Некрасова,3200,46.8154861,29.4652032
44,улица Георге Асаке,3200,46.8156458,29.4648585
44а,улица Георге Асаке,3200,46.8154897,29.4647189
46а,улица Георге Асаке,3200,46.8152183,29.4644629
46б,улица Георге Асаке,3200,46.8150935,29.4643673
20,Путейская улица,3200,46.8181643,29.4637358
22,Путейская улица,3200,46.8180615,29.4639649
1,Путейская улица,3200,46.8179183,29.4651083
3,Путейская улица,3200,46.8177985,29.4650572
5,Путейская улица,3200,46.8176824,29.4649813
7,Путейская улица,3200,46.8175598,29.4648025
9,Путейская улица,3200,46.8174267,29.4647401
11,Путейская улица,3200,46.8173061,29.4646670
13,Путейская улица,3200,46.8171811,29.4646440
15,Путейская улица,3200,46.8170904,29.4645759
15a,Путейская улица,3200,46.8169996,29.4645753
15б,Путейская улица,3200,46.8168795,29.4644460
17,Путейская улица,3200,46.8167718,29.4644033
7,Школьный переулок,3200,46.8141312,29.4668075
5,Школьный переулок,3200,46.8142343,29.4666773
3,Школьный переулок,3200,46.8143411,29.4665044
1,Школьный переулок,3200,46.8144339,29.4663648
9,переулок Некрасова,3200,46.8127011,29.4692673
8,переулок Некрасова,3200,46.8126705,29.4687827
22,Школьный переулок,3200,46.8129886,29.4684851
14,улица 5 Декабря,3200,46.8124225,29.4700809
16,улица 5 Декабря,3200,46.8123648,29.4699296
18,улица 5 Декабря,3200,46.8122673,29.4698218
20,улица 5 Декабря,3200,46.8121660,29.4696980
22,улица 5 Декабря,3200,46.8120861,29.4695149
182,Коммунистическая улица,3200,46.8113229,29.4711304
1,переулок 5 Декабря,3200,46.8113497,29.4703713
182а,Коммунистическая улица,3200,46.8112451,29.4709570
184,Коммунистическая улица,3200,46.8109707,29.4707539
186,Коммунистическая улица,3200,46.8108430,29.4707257
188,Коммунистическая улица,3200,46.8108015,29.4704525
190,Коммунистическая улица,3200,46.8108043,29.4700523
194,Коммунистическая улица,3200,46.8102552,29.4701742
192,Коммунистическая улица,3200,46.8104964,29.4703268
9,улица 5 Декабря,3200,46.8120102,29.4700181
13,улица 5 Декабря,3200,46.8118216,29.4697706
24,улица 5 Декабря,3200,46.8119600,29.4694345
26,улица 5 Декабря,3200,46.8118769,29.4693181
28,улица 5 Декабря,3200,46.8118254,29.4691323
30,улица 5 Декабря,3200,46.8116909,29.4690668
32,улица 5 Декабря,3200,46.8115478,29.4688832
34,улица 5 Декабря,3200,46.8114609,29.4687194
11,улица 5 Декабря,3200,46.8119009,29.4699121
15,улица 5 Декабря,3200,46.8117086,29.4696802
17,улица 5 Декабря,3200,46.8116464,29.4695168
21,улица 5 Декабря,3200,46.8114647,29.4692509
23,улица 5 Декабря,3200,46.8113629,29.4691392
25,улица 5 Декабря,3200,46.8112948,29.4690083
19,улица 5 Декабря,3200,46.8115578,29.4693763
20,Школьный переулок,3200,46.8130874,29.4683371
12,Школьный переулок,3200,46.8133407,29.4677040
14,Школьный переулок,3200,46.8132875,29.4678518
16,Школьный переулок,3200,46.8132079,29.4680155
18,Школьный переулок,3200,46.8131408,29.4681552
1,Загородная улица,3200,46.8124083,29.4683442
2,Загородная улица,3200,46.8126711,29.4681419
4,Загородная улица,3200,46.8126893,29.4679574
6,Загородная улица,3200,46.8126788,29.4677700
12,Загородная улица,3200,46.8127185,29.4671788
10,Загородная улица,3200,46.8127005,29.4673609
8,Загородная улица,3200,46.8126683,29.4675684
3а,Загородная улица,3200,46.8124028,29.4680277
3,Загородная улица,3200,46.8124100,29.4676495
12,Фруктовая улица,3200,46.8094936,29.4746374
10,Школьный переулок,3200,46.8138483,29.4667045
8,Школьный переулок,3200,46.8139216,29.4665522
6,Школьный переулок,3200,46.8140245,29.4664305
2,Школьный переулок,3200,46.8141909,29.4661241
4,Школьный переулок,3200,46.8141038,29.4663041
4,тупик Некрасова,3200,46.8133656,29.4655988
5,тупик Некрасова,3200,46.8135132,29.4659055
3,тупик Некрасова,3200,46.8136021,29.4658450
1,тупик Некрасова,3200,46.8137096,29.4656876
2,тупик Некрасова,3200,46.8134966,29.4654426
8,тупик Некрасова,3200,46.8131452,29.4658524
2,переулок 5 Декабря,3200,46.8112856,29.4697002
4,переулок 5 Декабря,3200,46.8111665,29.4698348
6,переулок 5 Декабря,3200,46.8111425,29.4700438
8,переулок 5 Декабря,3200,46.8110573,29.4701564
29а,переулок Некрасова,3200,46.8110972,29.4690190
29,переулок Некрасова,3200,46.8109998,29.4690857
5,Загородная улица,3200,46.8123830,29.4671596
5а,улица Старого,3200,46.8206019,29.4629668
14,Загородная улица,3200,46.8126026,29.4665480
10,тупик Некрасова,3200,46.8130636,29.4659889
12,тупик Некрасова,3200,46.8129433,29.4660855
16,Загородная улица,3200,46.8123135,29.4664874
18,Загородная улица,3200,46.8122417,29.4663488
18,Загородная улица,3200,46.8120730,29.4660457
7,Загородная улица,3200,46.8122616,29.4669605
9,Загородная улица,3200,46.8121719,29.4668228
11,Загородная улица,3200,46.8120718,29.4667438
13,Загородная улица,3200,46.8120615,29.4664990
15,Загородная улица,3200,46.8118154,29.4661527
50,Советская улица,3200,46.8204708,29.4802168
10,Фруктовая улица,3200,46.8095846,29.4742681
8,Фруктовая улица,3200,46.8095758,29.4740334
1,улица Баумана,3200,46.8098438,29.4728182
2,Фруктовая улица,3200,46.8097656,29.4732414
6а,Фруктовая улица,3200,46.8095888,29.4736715
6,Фруктовая улица,3200,46.8096338,29.4738544
1,улица Урицкого,3200,46.8094293,29.4726475
3,улица Урицкого,3200,46.8093973,29.4731264
5,улица Урицкого,3200,46.8093062,29.4734372
7,улица Урицкого,3200,46.8093075,29.4736912
19,улица Правды,3200,46.8115304,29.4666423
3,улица Правды,3200,46.8129463,29.4651272
5,улица Правды,3200,46.8128392,29.4652117
7,улица Правды,3200,46.8127087,29.4653177
9,улица Правды,3200,46.8126071,29.4654251
11,улица Правды,3200,46.8125232,29.4655635
13,улица Правды,3200,46.8124010,29.4656022
15,улица Правды,3200,46.8122989,29.4657025
14,тупик Некрасова,3200,46.8128346,29.4661971
16,тупик Некрасова,3200,46.8127128,29.4662894
2,улица Урицкого,3200,46.8092285,29.4725711
4,улица Урицкого,3200,46.8091415,29.4729577
161,улица Суворова,3200,46.8087539,29.4806975
1,переулок Разина,3200,46.8087363,29.4808993
4,улица Тамары Кручок,3200,46.8090471,29.4814521
3,переулок Разина,3200,46.8086920,29.4811088
5,переулок Разина,3200,46.8087472,29.4812629
8,улица Тамары Кручок,3200,46.8087564,29.4820075
1,улица Тамары Кручок,3200,46.8096889,29.4815801
16,Песчанный переулок,3200,46.8099597,29.4833322
8,Песчанный переулок,3200,46.8104038,29.4836716
6,Песчанный переулок,3200,46.8105362,29.4836880
4,Песчанный переулок,3200,46.8108392,29.4836528
10,Песчанный переулок,3200,46.8102892,29.4836821
12,Песчанный переулок,3200,46.8101912,29.4837085
97,Садовая улица,3200,46.8089606,29.4863589
6,улица Урицкого,3200,46.8091344,29.4732726
8,улица Урицкого,3200,46.8090534,29.4735920
10,улица Урицкого,3200,46.8090484,29.4737679
12,улица Урицкого,3200,46.8090280,29.4739432
12а,улица Урицкого,3200,46.8089480,29.4742539
14,улица Урицкого,3200,46.8089219,29.4746805
25,Донецкая улица,3200,46.8086773,29.4749384
23,Донецкая улица,3200,46.8086906,29.4746868
21,Донецкая улица,3200,46.8085636,29.4745194
19,Донецкая улица,3200,46.8086479,29.4743138
17,Донецкая улица,3200,46.8085807,29.4741567
13,Донецкая улица,3200,46.8086387,29.4738851
9,Донецкая улица,3200,46.8086796,29.4734563
7,Донецкая улица,3200,46.8086903,29.4730820
5,Донецкая улица,3200,46.8087373,29.4728196
3,Донецкая улица,3200,46.8088019,29.4726180
12,Донецкая улица,3200,46.8083616,29.4730929
10,Донецкая улица,3200,46.8083609,29.4729063
8,Донецкая улица,3200,46.8083560,29.4727200
6,Донецкая улица,3200,46.8083810,29.4725567
10/5,улица Глядковской,3200,46.8385421,29.4728790
12,улица 7 Ноября,3200,46.8075715,29.4744547
8,улица 7 Ноября,3200,46.8075812,29.4740843
9,улица Тамары Кручок,3200,46.8087859,29.4825307
11,улица Тамары Кручок,3200,46.8086369,29.4826684
15,улица Тамары Кручок,3200,46.8081248,29.4832220
24а,улица Шмидта,3200,46.8438691,29.4842747
12,улица Менделеева,3200,46.8128095,29.4628259
14,улица Менделеева,3200,46.8127085,29.4627103
16,улица Менделеева,3200,46.8125826,29.4626399
18,улица Менделеева,3200,46.8124734,29.4625126
20,улица Менделеева,3200,46.8123898,29.4623970
13,улица Менделеева,3200,46.8120831,29.4625568
3,улица Крупской,3200,46.7876816,29.4844047
22,Индустриальная улица,3200,46.7982048,29.4873026
45,Индустриальная улица,3200,46.7968855,29.4903892
1,улица Бориса Главана,3200,46.8171892,29.4603950
3,улица Бориса Главана,3200,46.8172832,29.4599842
5а,улица Бориса Главана,3200,46.8172258,29.4586824
5,улица Бориса Главана,3200,46.8173105,29.4591418
69,улица Гоголя,3200,46.8243864,29.4584660
1,переулок Лермонтова,3200,46.8243621,29.4586210
69,улица Гоголя,3200,46.8240924,29.4583203
66,улица Гоголя,3200,46.8244573,29.4580736
73,улица Гоголя,3200,46.8239577,29.4582871
48,улица Гоголя,3200,46.8259158,29.4586192
15,улица Матросова,3200,46.8258445,29.4569689
30,улица Осипенко,3200,46.8253701,29.4571453
7,переулок Лермонтова,3200,46.8245123,29.4577929
68,улица Гоголя,3200,46.8241806,29.4580128
70,улица Гоголя,3200,46.8240656,29.4580092
26,улица Осипенко,3200,46.8257641,29.4573598
24,улица Осипенко,3200,46.8259260,29.4574036
3,улица 40 лет Советской Пионерии,3200,46.8263237,29.4574306
50,улица Гоголя,3200,46.8257646,29.4585445
17,улица Ползунова,3200,46.8270760,29.4620714
39,улица Шестакова,3200,46.8209495,29.4866295
56,улица Гоголя,3200,46.8253203,29.4583518
52,улица Гоголя,3200,46.8256120,29.4585447
54,улица Гоголя,3200,46.8254677,29.4584223
58,улица Гоголя,3200,46.8251936,29.4582606
61,улица Осипенко,3200,46.8248059,29.4576530
59,улица Осипенко,3200,46.8249602,29.4576720
60,улица Гоголя,3200,46.8250100,29.4582800
62,улица Гоголя,3200,46.8248419,29.4582417
64,улица Гоголя,3200,46.8246887,29.4581675
28,улица Осипенко,3200,46.8255656,29.4571818
21,улица Ползунова,3200,46.8267608,29.4619429
62,улица Бендерского Восстания,3200,46.8264798,29.4626881
19,улица Ползунова,3200,46.8268585,29.4620715
9,улица 40 лет Советской Пионерии,3200,46.8264169,29.4567850
13,улица Матросова,3200,46.8262528,29.4567999
1,улица Ивана Федько,3200,46.8354298,29.4690967
3,улица Ивана Федько,3200,46.8355261,29.4689511
5,улица Ивана Федько,3200,46.8356558,29.4688785
7,улица Ивана Федько,3200,46.8357720,29.4687860
17,Железнодорожная улица,3200,46.8273248,29.4608896
31,Железнодорожная улица,3200,46.8263718,29.4605293
18,улица Ползунова,3200,46.8271497,29.4617285
33,улица Гоголя,3200,46.8273576,29.4597457
15,Железнодорожная улица,3200,46.8274904,29.4609769
16,улица Ползунова,3200,46.8273236,29.4618186
13,Железнодорожная улица,3200,46.8275978,29.4610109
14,улица Ползунова,3200,46.8274402,29.4618364
12,улица Ползунова,3200,46.8275703,29.4618529
10,улица Ползунова,3200,46.8277142,29.4618785
11,Железнодорожная улица,3200,46.8277478,29.4610490
8,улица Ползунова,3200,46.8278185,29.4619335
6,улица Ползунова,3200,46.8279422,29.4620410
4,улица Ползунова,3200,46.8280844,29.4620545
2,улица Ползунова,3200,46.8282057,29.4621571
39,улица Ивана Шимкова,3200,46.8328554,29.4644457
41,улица Ивана Шимкова,3200,46.8326783,29.4643799
37,улица Ивана Шимкова,3200,46.8329746,29.4644926
35,улица Ивана Шимкова,3200,46.8331067,29.4645388
44,улица Бендерского Восстания,3200,46.8326726,29.4652553
33,улица Ивана Шимкова,3200,46.8332326,29.4646004
31,улица Ивана Шимкова,3200,46.8333563,29.4646428
29,улица Ивана Шимкова,3200,46.8334809,29.4647011
27,улица Ивана Шимкова,3200,46.8336388,29.4647557
14,улица Тамары Кручок,3200,46.8080076,29.4828102
13,улица Тамары Кручок,3200,46.8083406,29.4830433
24,улица Дзержинского,5500,46.8252521,29.4728152
28,ул. Гоголя,3200,46.8277064,29.4591315
9,улица Ивана Федько,3200,46.8358843,29.4686916
2,улица Ивана Федько,3200,46.8358226,29.4692415
4,улица Ивана Федько,3200,46.8359250,29.4690944
6,улица Ивана Федько,3200,46.8360491,29.4690325
11,улица Ивана Федько,3200,46.8360142,29.4685725
13,улица Ивана Федько,3200,46.8361359,29.4684663
15,улица Ивана Федько,3200,46.8362030,29.4682740
8,улица Ивана Федько,3200,46.8361558,29.4689384
10,улица Ивана Федько,3200,46.8362960,29.4688130
16,улица Ивана Федько,3200,46.8366231,29.4684838
18,улица Ивана Федько,3200,46.8367379,29.4684030
22,улица Ивана Федько,3200,46.8369882,29.4682112
20,улица Ивана Федько,3200,46.8368382,29.4682715
2,улица Гастелло,3200,46.8367441,29.4698516
3,улица Гастелло,3200,46.8364776,29.4695904
4,улица Гастелло,3200,46.8368677,29.4697386
6,улица Гастелло,3200,46.8369875,29.4696561
8,улица Гастелло,3200,46.8370801,29.4695294
24,улица Ивана Федько,3200,46.8370808,29.4680582
26,улица Ивана Федько,3200,46.8371914,29.4679711
10,улица Гастелло,3200,46.8372211,29.4694749
15,улица Гастелло,3200,46.8371223,29.4688679
12,улица Гастелло,3200,46.8372884,29.4693223
14,улица Гастелло,3200,46.8374431,29.4692188
16,улица Гастелло,3200,46.8375037,29.4690980
18,улица Гастелло,3200,46.8376234,29.4689842
17,улица Гастелло,3200,46.8372703,29.4688123
28,улица Ивана Федько,3200,46.8374384,29.4681637
21,улица Гастелло,3200,46.8374866,29.4686350
23,улица Гастелло,3200,46.8377136,29.4684799
34,улица Ивана Федько,3200,46.8377277,29.4674492
32,улица Ивана Федько,3200,46.8376018,29.4675090
30,улица Ивана Федько,3200,46.8375299,29.4676228
4,Бельцкая улица,3200,46.8377594,29.4678430
8,Бельцкая улица,3200,46.8377569,29.4680858
18,улица Бендерского Восстания,3200,46.8346134,29.4657979
14,улица Бендерского Восстания,3200,46.8348810,29.4658946
19,улица Ивана Шимкова,3200,46.8343160,29.4651045
17,улица Ивана Шимкова,3200,46.8344775,29.4651032
15,улица Ивана Шимкова,3200,46.8345839,29.4651990
5,улица Ивана Шимкова,3200,46.8353536,29.4655755
7,улица Ивана Шимкова,3200,46.8352300,29.4654185
9,улица Ивана Шимкова,3200,46.8350963,29.4653527
11,улица Ивана Шимкова,3200,46.8349612,29.4653449
3,улица Ивана Шимкова,3200,46.8354849,29.4655335
1,улица Ивана Шимкова,3200,46.8355948,29.4655881
13,улица Ивана Шимкова,3200,46.8347214,29.4653482
30,улица Ивана Шимкова,3200,46.8336982,29.4643869
32,улица Ивана Шимкова,3200,46.8335605,29.4643391
94,Кишинёвская улица,3200,46.8376692,29.4661873
38,улица Матросова,3200,46.8249235,29.4568402
36,улица Матросова,3200,46.8250685,29.4567756
34,улица Матросова,3200,46.8252222,29.4567234
32,улица Матросова,3200,46.8253690,29.4566840
30,улица Матросова,3200,46.8255094,29.4565807
28,улица Матросова,3200,46.8256759,29.4565184
18,улица Матросова,3200,46.8262642,29.4563046
26,улица Матросова,3200,46.8258143,29.4565023
48,улица Ивана Шимкова,3200,46.8325315,29.4638810
46,улица Ивана Шимкова,3200,46.8326520,29.4639835
44,улица Ивана Шимкова,3200,46.8328140,29.4639353
42,улица Ивана Шимкова,3200,46.8329217,29.4640756
40,улица Ивана Шимкова,3200,46.8330504,29.4641346
38,улица Ивана Шимкова,3200,46.8331717,29.4641948
34,улица Ивана Шимкова,3200,46.8334442,29.4642905
36,улица Ивана Шимкова,3200,46.8332643,29.4639112
63,Фонтанная улица,3200,46.8326936,29.4633934
61,Фонтанная улица,3200,46.8328002,29.4633235
7,улица 12 Октября,3200,46.8322467,29.4624942
39,улица Старого,3200,46.8223930,29.4556372
2,улица Чайковского,3200,46.8222503,29.4555305
4,улица Чайковского,3200,46.8219478,29.4554522
3,улица 23 Августа,3200,46.8220946,29.4546501
6,улица Чайковского,3200,46.8218011,29.4553971
8,улица Чайковского,3200,46.8216973,29.4554087
5,улица 23 Августа,3200,46.8219862,29.4545310
7,улица 23 Августа,3200,46.8218431,29.4544501
1,улица 23 Августа,3200,46.8224079,29.4546933
41,улица Старого,3200,46.8225407,29.4547359
10,улица Менделеева,3200,46.8129134,29.4630679
8,улица Менделеева,3200,46.8130514,29.4631241
6,улица Менделеева,3200,46.8131090,29.4632897
4,улица Менделеева,3200,46.8132107,29.4633979
1,улица 40 лет МССР,3200,46.8002601,29.4770192
3,улица 40 лет МССР,3200,46.8000931,29.4769669
5,улица 40 лет МССР,3200,46.7999691,29.4770623
7,улица 40 лет МССР,3200,46.7998162,29.4769792
51,улица Емилиана Букова,3200,46.7891778,29.4948070
49,улица Емилиана Букова,3200,46.7894394,29.4948386
47,улица Емилиана Букова,3200,46.7897097,29.4948896
45,улица Емилиана Букова,3200,46.7899776,29.4949040
43,улица Емилиана Букова,3200,46.7902539,29.4948697
41,улица Емилиана Букова,3200,46.7905124,29.4949100
6,переулок Строителей,3200,46.7925000,29.4931505
35,улица Ивана Федько,3200,46.8373931,29.4672307
2,Бельцкая улица,3200,46.8377197,29.4667250
39,улица Ивана Федько,3200,46.8377065,29.4669239
37,улица Ивана Федько,3200,46.8375332,29.4671308
92,Кишинёвская улица,3200,46.8374508,29.4662966
1,улица Энгельса,3200,46.8442212,29.4805336
2,улица Шмидта,3200,46.8440388,29.4820579
4,улица Шмидта,3200,46.8440597,29.4822511
6,улица Шмидта,3200,46.8440023,29.4824635
8,улица Шмидта,3200,46.8440592,29.4826351
10,улица Шмидта,3200,46.8440455,29.4828332
19,улица Шмидта,3200,46.8444172,29.4832765
17,улица Шмидта,3200,46.8444330,29.4830809
15,улица Шмидта,3200,46.8444090,29.4828775
13,улица Шмидта,3200,46.8444098,29.4826762
12,улица Шмидта,3200,46.8440056,29.4830604
14,улица Шмидта,3200,46.8440801,29.4832302
16,улица Шмидта,3200,46.8440763,29.4834251
18,улица Шмидта,3200,46.8440827,29.4836141
20,улица Шмидта,3200,46.8440873,29.4838115
22,улица Шмидта,3200,46.8440885,29.4840097
24,улица Шмидта,3200,46.8440270,29.4842265
37,Киевская улица,3200,46.8187497,29.4574682
35,Киевская улица,3200,46.8186781,29.4576600
33,Киевская улица,3200,46.8186332,29.4579253
33а,Киевская улица,3200,46.8186120,29.4581262
2,Дачная улица,3200,46.8186277,29.4583389
4,Дачная улица,3200,46.8183082,29.4582043
6,Дачная улица,3200,46.8181574,29.4581410
30,улица Бориса Главана,3200,46.8177372,29.4570676
28,улица Главана,3200,46.8177350,29.4572985
26,улица Бориса Главана,3200,46.8178488,29.4575246
24а,улица Бориса Главана,3200,46.8176981,29.4578290
8,Дачная улица,3200,46.8180225,29.4580479
10,Дачная улица,3200,46.8178696,29.4580249
32а,улица Бориса Главана,3200,46.8178534,29.4562075
32,улица Бориса Главана,3200,46.8178451,29.4566927
116,Железнодорожная улица,3200,46.8179795,29.4567740
22,улица Титова,3200,46.8386924,29.4697229
20,улица Титова,3200,46.8385638,29.4693516
18,улица Титова,3200,46.8386419,29.4689566
11,Бельцкая улица,3200,46.8381768,29.4673441
9,Бельцкая улица,3200,46.8381307,29.4669562
5,Бельцкая улица,3200,46.8381428,29.4662585
7,Бельцкая улица,3200,46.8380226,29.4666165
1,Бельцкая улица,3200,46.8379566,29.4658839
104,Кишинёвская улица,3200,46.8381135,29.4656985
16,улица Титова,3200,46.8386372,29.4687075
14,улица Титова,3200,46.8385976,29.4684561
8,улица Титова,3200,46.8387048,29.4669327
12,улица Титова,3200,46.8386289,29.4677426
10,улица Титова,3200,46.8386318,29.4674018
6,улица Титова,3200,46.8388322,29.4666419
4,улица Титова,3200,46.8388819,29.4662929
2,улица Титова,3200,46.8390277,29.4660241
106,Кишинёвская улица,3200,46.8382696,29.4656703
4,2-й переулок Петровского,3200,46.8395883,29.4682844
5,1-й переулок Петровского,3200,46.8397934,29.4676887
8,2-й переулок Петровского,3200,46.8397337,29.4679025
4,2-й переулок Петровского,3200,46.8391939,29.4686090
11,1-й переулок Петровского,3200,46.8393371,29.4672036
37,улица Титова,3200,46.8389211,29.4674165
39,улица Титова,3200,46.8388602,29.4677214
41,улица Титова,3200,46.8389718,29.4680248
43,улица Титова,3200,46.8388747,29.4682138
3,1-й переулок Петровского,3200,46.8400556,29.4679434
1,1-й переулок Петровского,3200,46.8402815,29.4681901
35,улица Петровского,3200,46.8400355,29.4712143
33,улица Петровского,3200,46.8401237,29.4713535
36/36а,Бельцкая улица,3200,46.8399091,29.4753405
11,улица Шмидта,3200,46.8443920,29.4825063
9,улица Шмидта,3200,46.8444211,29.4822894
7,улица Шмидта,3200,46.8444015,29.4820912
5,улица Шмидта,3200,46.8443920,29.4819118
3,улица Шмидта,3200,46.8443957,29.4817048
1,улица Шмидта,3200,46.8444277,29.4814886
44,улица Суворова,3200,46.8204365,29.4820665
67,улица Калинина,3200,46.8191085,29.4787221
50,улица Суворова,3200,46.8185962,29.4811486
23,Октябрьская улица,3200,46.8083777,29.4849910
1,улица Богдана Хмельницкого,3200,46.8345075,29.4629563
30,улица Герцена,3200,46.8348264,29.4622975
8,улица Герцена,3200,46.8360272,29.4627462
6,улица Герцена,3200,46.8361666,29.4628376
4,улица Герцена,3200,46.8363263,29.4628539
2,улица Герцена,3200,46.8364326,29.4629227
15,улица Панфилова,3200,46.8367137,29.4623197
17,улица Панфилова,3200,46.8368083,29.4616650
27,улица 12 Октября,3200,46.8343449,29.4616269
29,улица 12 Октября,3200,46.8345459,29.4615056
3,улица Разина,3200,46.8079911,29.4817547
5,улица Разина,3200,46.8078656,29.4817269
7,улица Разина,3200,46.8077431,29.4817008
10,улица Тамары Кручок,3200,46.8081928,29.4825904
12,улица Тамары Кручок,3200,46.8080846,29.4826964
6,переулок Разина,3200,46.8084094,29.4818493
8,переулок Разина,3200,46.8083140,29.4821698
9,улица Разина,3200,46.8076155,29.4816773
2,Колодезный переулок,3200,46.8078381,29.4825661
4,Колодезный переулок,3200,46.8077464,29.4825066
6,Колодезный переулок,3200,46.8076566,29.4823395
1,2-й Братский переулок,3200,46.8401879,29.4670594
1,улица Калашникова,3200,46.8183712,29.4566917
3,улица Калашникова,3200,46.8185463,29.4566641
5,улица Калашникова,3200,46.8186796,29.4564967
7,улица Калашникова,3200,46.8187637,29.4564251
9,улица Калашникова,3200,46.8188449,29.4563274
11,улица Калашникова,3200,46.8189579,29.4561895
13,улица Калашникова,3200,46.8190627,29.4560872
12,улица Чайковского,3200,46.8210153,29.4550795
10,улица Чайковского,3200,46.8213834,29.4553098
33,улица Чехова,3200,46.8214214,29.4550262
35,улица Чехова,3200,46.8214493,29.4548028
37,улица Чехова,3200,46.8214505,29.4545534
39,улица Чехова,3200,46.8215212,29.4543253
4,переулок Разина,3200,46.8084262,29.4813069
165,улица Суворова,3200,46.8082620,29.4807545
169,улица Суворова,3200,46.8080556,29.4807675
167,улица Разина,3200,46.8082004,29.4810214
4,улица Разина,3200,46.8080906,29.4814077
6,улица Разина,3200,46.8079254,29.4813992
17,улица Тамары Кручок,3200,46.8073045,29.4845107
8,Колодезный переулок,3200,46.8074555,29.4821148
2,улица Разина,3200,46.8082433,29.4814596
173,улица Суворова,3200,46.8078028,29.4807115
171,улица Разина,3200,46.8078785,29.4810335
8,улица Разина,3200,46.8077386,29.4813648
10,улица Разина,3200,46.8075963,29.4813719
175,улица Суворова,3200,46.8076045,29.4807470
177,улица Суворова,3200,46.8074738,29.4807699
12,улица Разина,3200,46.8074597,29.4813536
179,улица Суворова,3200,46.8073371,29.4807346
14,улица Разина,3200,46.8073096,29.4812880
181,улица Суворова,3200,46.8072496,29.4808285
11,улица Разина,3200,46.8074202,29.4816567
10,Колодезный переулок,3200,46.8073236,29.4821557
16,улица Разина,3200,46.8071189,29.4812666
12,Колодезный переулок,3200,46.8072231,29.4820749
14,Колодезный переулок,3200,46.8070916,29.4820469
183,улица Суворова,3200,46.8069622,29.4806982
185,улица Суворова,3200,46.8068738,29.4808684
18,улица Разина,3200,46.8069177,29.4813092
69А,Индустриальная улица,3200,46.7947920,29.4900015
20,улица Разина,3200,46.8067760,29.4812481
9,улица Бориса Главана,3200,46.8173707,29.4577531
10,улица Пушкина,3200,46.8302132,29.4766186
1а,улица Энгельса,3200,46.8437017,29.4801491
4а,Красивая улица,3200,46.8453141,29.4836429
4,Красивая улица,3200,46.8454709,29.4836410
124,Кишинёвская улица,3200,46.8399771,29.4638900
22,улица Разина,3200,46.8066132,29.4812888
24,улица Разина,3200,46.8064860,29.4812713
26,улица Разина,3200,46.8063207,29.4812745
1,Колодезный переулок,3200,46.8077082,29.4830161
3,Колодезный переулок,3200,46.8075852,29.4826698
20,улица Тамары Кручок,3200,46.8076214,29.4830730
24,улица Тамары Кручок,3200,46.8072975,29.4833121
5,Колодезный переулок,3200,46.8073452,29.4825533
16,Колодезный переулок,3200,46.8068880,29.4820626
9,Колодезный переулок,3200,46.8069437,29.4826999
2,1-й переулок Петровского,3200,46.8405892,29.4677675
53,улица Петровского,3200,46.8407425,29.4675098
4,1-й переулок Петровского,3200,46.8403735,29.4677497
3,2-й Братский переулок,3200,46.8404319,29.4666517
6,1-й переулок Петровского,3200,46.8402086,29.4676953
12,Братская улица,3200,46.8411795,29.4654886
128,Кишинёвская улица,3200,46.8403875,29.4634192
126,Кишинёвская улица,3200,46.8402171,29.4636422
130,Кишинёвская улица,3200,46.8406487,29.4631573
1,улица Титова,3200,46.8407100,29.4639157
14,Братская улица,3200,46.8410252,29.4652930
28,улица Разина,3200,46.8061450,29.4812462
30,улица Разина,3200,46.8059357,29.4812458
197,улица Суворова,3200,46.8059120,29.4806880
199,улица Суворова,3200,46.8057826,29.4807153
18,Кирпичная улица,3200,46.8057793,29.4811164
20,Кирпичная улица,3200,46.8056681,29.4807691
195,улица Суворова,3200,46.8060517,29.4806623
16,Кирпичная улица,3200,46.8057869,29.4816791
14,Кирпичная улица,3200,46.8057740,29.4819084
18,Колодезный переулок,3200,46.8066676,29.4820432
11а,Колодезный переулок,3200,46.8068162,29.4825704
11,Колодезный переулок,3200,46.8066917,29.4824987
5,Кирпичный переулок,3200,46.8064943,29.4827394
3,Кирпичный переулок,3200,46.8063478,29.4827390
1,Кирпичный переулок,3200,46.8062408,29.4827819
12,Кирпичная улица,3200,46.8058304,29.4821748
10,Кирпичная улица,3200,46.8058424,29.4824394
8,Кирпичная улица,3200,46.8058598,29.4826767
6,Кирпичная улица,3200,46.8058559,29.4828661
187,улица Суворова,3200,46.8066717,29.4806887
189,улица Суворова,3200,46.8064814,29.4806920
191,улица Суворова,3200,46.8063445,29.4807050
193,улица Суворова,3200,46.8061772,29.4809800
4а,Кирпичный переулок,3200,46.8060633,29.4831026
4,Кирпичная улица,3200,46.8058726,29.4832136
2,Кирпичная улица,3200,46.8058808,29.4834230
40,улица Тамары Кручок,3200,46.8059195,29.4838912
38,улица Тамары Кручок,3200,46.8061427,29.4838541
34,улица Тамары Кручок,3200,46.8064122,29.4837367
5,улица 40 лет Победы,3200,46.8474196,29.4626653
9,улица 40 лет МССР,3200,46.7995806,29.4769233
17,Колодезная улица,3200,46.8075688,29.4863144
14,Октябрьская улица,3200,46.8088155,29.4844108
10,Октябрьская улица,3200,46.8090731,29.4844668
12,Октябрьская улица,3200,46.8089850,29.4845215
16,Октябрьская улица,3200,46.8086048,29.4845064
7,улица Дружбы,3200,46.8022871,29.4760653
3,улица Мира,3200,46.8048043,29.4816069
1,улица Мира,3200,46.8046377,29.4812937
4,улица Советской Армии,3200,46.8044311,29.4812099
11,улица Мира,3200,46.8050260,29.4824314
13,улица Мира,3200,46.8049713,29.4826556
15,улица Мира,3200,46.8050314,29.4828332
17,улица Мира,3200,46.8050329,29.4830324
19,улица Мира,3200,46.8049757,29.4832232
21,улица Мира,3200,46.8049970,29.4834211
34,улица 28 Июня,3200,46.8036587,29.4811360
36,улица 28 Июня,3200,46.8036519,29.4806478
18,Октябрьская улица,3200,46.8084566,29.4846002
36,улица Бориса Главана,3200,46.8180901,29.4559672
34,улица Бориса Главана,3200,46.8182189,29.4562356
1А,ул. 40 лет Победы,3200,46.8461154,29.4635130
30,Московская улица,3200,46.8210409,29.4815216
22,улица Димитрова,3200,46.8094512,29.4654709
25,улица Павлова,3200,46.8097718,29.4651937
22,улица Павлова,3200,46.8100980,29.4650385
23,улица Павлова,3200,46.8097264,29.4654502
78,улица Кирова,3200,46.8213621,29.4748497
22,улица 28 Июня,3200,46.8036742,29.4829528
42,Южная улица,3200,46.7870896,29.4789201
44,Южная улица,3200,46.7870909,29.4791300
46,Южная улица,3200,46.7870856,29.4793219
48,Южная улица,3200,46.7870830,29.4795132
54,Комсомольская улица,3200,46.8181186,29.4877167
15,улица Менделеева,3200,46.8117861,29.4621929
17,улица Менделеева,3200,46.8115422,29.4618360
1,переулок Пирогова,3200,46.8120223,29.4638176
7,переулок Пирогова,3200,46.8122599,29.4632119
9,улица Менделеева,3200,46.8123681,29.4629066
9,переулок Пирогова,3200,46.8124954,29.4630585
22,улица Менделеева,3200,46.8122944,29.4622692
7,переулок Менделеева,3200,46.8121047,29.4620273
5,переулок Пирогова,3200,46.8122610,29.4634694
3,переулок Пирогова,3200,46.8121697,29.4636260
13,улица Димитрова,3200,46.8088870,29.4667820
12,улица Мичурина,3200,46.8085760,29.4667130
11,улица Димитрова,3200,46.8088350,29.4670406
10,улица Мичурина,3200,46.8085332,29.4669690
9,улица Димитрова,3200,46.8088018,29.4673293
57,улица Суворова,3200,46.8227051,29.4837979
90,Коммунистическая улица,3200,46.8219681,29.4771362
7,улица Менделеева,3200,46.8126988,29.4632951
29,Советская улица,3200,46.8254087,29.4831730
28/1,улица 40 лет Победы,3200,46.8517131,29.4610840
8,улица Мичурина,3200,46.8085139,29.4672337
7,улица Димитрова,3200,46.8087363,29.4675462
6,улица Мичурина,3200,46.8084504,29.4674882
2,улица Мичурина,3200,46.8083400,29.4679339
4,улица Мичурина,3200,46.8083935,29.4677399
3,улица Димитрова,3200,46.8086889,29.4679387
5,улица Димитрова,3200,46.8087618,29.4677642
206,Коммунистическая улица,3200,46.8090108,29.4684983
1,улица Павлова,3200,46.8092494,29.4684576
1а,улица Павлова,3200,46.8093394,29.4686619
4,улица Павлова,3200,46.8097635,29.4676487
10,улица Павлова,3200,46.8101101,29.4670428
30,улица Димитрова,3200,46.8095300,29.4643686
27,улица Павлова,3200,46.8098219,29.4649415
24,улица Димитрова,3200,46.8094393,29.4650905
26,улица Димитрова,3200,46.8095098,29.4648405
28,улица Димитрова,3200,46.8095326,29.4645693
29,улица Павлова,3200,46.8099009,29.4647663
20,улица Павлова,3200,46.8100935,29.4653179
18,улица Павлова,3200,46.8099935,29.4655420
20,улица Димитрова,3200,46.8094308,29.4659278
19,улица Павлова,3200,46.8096537,29.4661109
21,улица Павлова,3200,46.8096883,29.4659062
8,переулок Строителей,3200,46.7923367,29.4931651
7,переулок Строителей,3200,46.7924788,29.4935220
5,переулок Строителей,3200,46.7926150,29.4934880
9,улица Емилиана Букова,3200,46.7927294,29.4945529
3,улица Емилиана Букова,3200,46.7930725,29.4944713
7,улица Дзержинского,3200,46.8219261,29.4721894
7,Комсомольская улица,3200,46.8225993,29.4702846
2,улица Кавриаго,3200,46.8194857,29.4710245
79,улица Калинина,3200,46.8156150,29.4772124
27,улица Сергея Лазо,3200,46.8256188,29.4799317
5,2-й Братский переулок,3200,46.8406046,29.4662530
7,2-й Братский переулок,3200,46.8405642,29.4660371
9,2-й Братский переулок,3200,46.8408052,29.4658746
17,улица Павлова,3200,46.8096273,29.4663807
18,улица Димитрова,3200,46.8093131,29.4661483
193,Коммунистическая улица,3200,46.8051739,29.4677474
6,улица Димитрова,3200,46.8090797,29.4676715
4,улица Димитрова,3200,46.8090886,29.4681768
8,улица Димитрова,3200,46.8091216,29.4674304
10,улица Димитрова,3200,46.8091376,29.4671668
31,улица Космонавтов,3200,46.8004345,29.4724415
33,улица Космонавтов,3200,46.8011877,29.4729930
12,Комсомольская улица,3200,46.8215048,29.4705669
9,Кишинёвский тупик,3200,46.8411820,29.4641997
2а,Кишинёвский тупик,3200,46.8409338,29.4642274
5,Кишинёвский тупик,3200,46.8409749,29.4639009
2,Кишинёвский тупик,3200,46.8410940,29.4644701
7,улица Зои Космодемьянской,3200,46.8415034,29.4675696
63,Кишинёвская улица,3200,46.8402841,29.4628428
65,Кишинёвская улица,3200,46.8404952,29.4625413
67а,Кишинёвская улица,3200,46.8404351,29.4616804
2,Каховская улица,3200,46.8469987,29.4549824
131,Кишинёвская улица,3200,46.8468204,29.4538564
129,Кишинёвская улица,3200,46.8466703,29.4540870
127,Кишинёвская улица,3200,46.8465540,29.4541631
214,Кишинёвская улица,3200,46.8466736,29.4549290
212,Кишинёвская улица,3200,46.8465694,29.4550781
210,Кишинёвская улица,3200,46.8465054,29.4552231
208,Кишинёвская улица,3200,46.8464221,29.4553820
206,Кишинёвская улица,3200,46.8463446,29.4555150
204,Кишинёвская улица,3200,46.8462437,29.4556328
202,Кишинёвская улица,3200,46.8461847,29.4558412
200,Кишинёвская улица,3200,46.8460123,29.4560583
198,Кишинёвская улица,3200,46.8459432,29.4561949
196,Кишинёвская улица,3200,46.8458409,29.4564277
194,Кишинёвская улица,3200,46.8457308,29.4566016
192,Кишинёвская улица,3200,46.8455998,29.4567955
81,Кишинёвская улица,3200,46.8423440,29.4607304
79,Кишинёвская улица,3200,46.8418803,29.4610948
77,Кишинёвская улица,3200,46.8416436,29.4613816
73,Кишинёвская улица,3200,46.8412446,29.4617841
71,Кишинёвская улица,3200,46.8411100,29.4619455
69,Кишинёвская улица,3200,46.8408878,29.4620505
63,улица 12 Октября,3200,46.8380717,29.4606115
65,улица 12 Октября,3200,46.8382078,29.4605914
7,Кишинёвский тупик,3200,46.8410998,29.4640426
3,Кишинёвский тупик,3200,46.8408769,29.4637374
6,Школьная улица,3200,46.8206608,29.4568118
10,улица Павлика Морозова,3200,46.8301309,29.4510704
72,улица Калашникова,3200,46.8285853,29.4488525
70,улица Калашникова,3200,46.8284469,29.4489211
37а,Загородная улица,3200,46.8091139,29.4628940
38,улица Мичурина,3200,46.8090615,29.4631511
36,улица Мичурина,3200,46.8090436,29.4633686
34,улица Мичурина,3200,46.8089842,29.4636409
32,улица Мичурина,3200,46.8090042,29.4638994
30,улица Мичурина,3200,46.8089368,29.4641373
28,улица Мичурина,3200,46.8088903,29.4644062
26,улица Мичурина,3200,46.8088289,29.4646913
35,Загородная улица,3200,46.8096474,29.4634470
35,улица Димитрова,3200,46.8093946,29.4638258
33,улица Димитрова,3200,46.8092588,29.4639648
31,улица Димитрова,3200,46.8092687,29.4642334
29,улица Димитрова,3200,46.8091980,29.4644927
27,улица Димитрова,3200,46.8091976,29.4647458
16,улица Димитрова,3200,46.8093024,29.4663976
14,улица Димитрова,3200,46.8092235,29.4666519
15,улица Павлова,3200,46.8095866,29.4666221
13,улица Павлова,3200,46.8095013,29.4668476
11,улица Павлова,3200,46.8095141,29.4671517
12,улица Димитрова,3200,46.8092031,29.4669092
6,улица Павлова,3200,46.8097886,29.4673751
8,улица Павлова,3200,46.8097918,29.4670653
12,улица Павлова,3200,46.8098758,29.4665671
2,улица Павлова,3200,46.8097329,29.4678871
2а,улица Павлова,3200,46.8097096,29.4681072
9,улица Павлова,3200,46.8094308,29.4673745
7,улица Павлова,3200,46.8094283,29.4676590
5,улица Павлова,3200,46.8093928,29.4678895
3,улица Павлова,3200,46.8093636,29.4681478
21,улица Пирогова,3200,46.8106563,29.4632204
16,улица Павлова,3200,46.8099461,29.4659597
5а,улица Тельмана,3200,46.8103103,29.4652993
14,улица Павлова,3200,46.8099491,29.4663166
6,улица Чкалова,3200,46.8103888,29.4656894
5,улица Чкалова,3200,46.8103455,29.4661368
4,улица Чкалова,3200,46.8105416,29.4657970
2,улица Чкалова,3200,46.8107070,29.4658201
3,улица Чкалова,3200,46.8104976,29.4661611
1,улица Чкалова,3200,46.8106667,29.4662142
22,улица Тельмана,3200,46.8096579,29.4640968
20,улица Тельмана,3200,46.8097829,29.4642264
18,улица Тельмана,3200,46.8098685,29.4643434
16,улица Тельмана,3200,46.8099795,29.4644514
14,улица Тельмана,3200,46.8101374,29.4646028
12,улица Тельмана,3200,46.8103006,29.4647435
10,улица Тельмана,3200,46.8103818,29.4649092
8,улица Тельмана,3200,46.8104918,29.4650327
6,улица Тельмана,3200,46.8106860,29.4652660
4,улица Тельмана,3200,46.8108693,29.4654697
2,улица Тельмана,3200,46.8110711,29.4655785
4,улица Пирогова,3200,46.8120093,29.4644634
2,улица Пирогова,3200,46.8121019,29.4645791
8,улица Пирогова,3200,46.8114901,29.4637312
1,улица Пирогова,3200,46.8118951,29.4648265
10,улица Пирогова,3200,46.8116093,29.4639282
8,улица Пирогова,3200,46.8117116,29.4640743
6,улица Пирогова,3200,46.8118336,29.4641734
8,переулок Пирогова,3200,46.8125625,29.4636251
5,улица Менделеева,3200,46.8128263,29.4635230
3,улица Менделеева,3200,46.8129647,29.4636517
6,переулок Пирогова,3200,46.8124651,29.4637849
4,переулок Пирогова,3200,46.8123318,29.4639409
2,переулок Пирогова,3200,46.8122124,29.4641223
3,улица Пирогова,3200,46.8116936,29.4646375
5,улица Пирогова,3200,46.8116074,29.4644417
7,улица Пирогова,3200,46.8114818,29.4643232
9,улица Пирогова,3200,46.8113798,29.4642129
11,улица Пирогова,3200,46.8112637,29.4640265
13,улица Пирогова,3200,46.8111195,29.4638321
19,улица Пирогова,3200,46.8107638,29.4634388
17,улица Пирогова,3200,46.8108995,29.4635684
15,улица Пирогова,3200,46.8110047,29.4638426
13,улица Фрунзе,3200,46.8104628,29.4624151
11,улица Фрунзе,3200,46.8106188,29.4621560
14,улица Пирогова,3200,46.8106892,29.4626955
5,улица Фрунзе,3200,46.8111047,29.4613323
7,улица Фрунзе,3200,46.8109456,29.4616098
9,улица Фрунзе,3200,46.8108774,29.4619117
5,переулок Менделеева,3200,46.8122561,29.4617770
8,переулок Менделеева,3200,46.8119302,29.4617220
6,переулок Менделеева,3200,46.8120421,29.4615117
3,переулок Менделеева,3200,46.8123717,29.4615758
1,переулок Менделеева,3200,46.8124622,29.4614170
4,переулок Менделеева,3200,46.8121717,29.4613243
2,переулок Менделеева,3200,46.8122580,29.4611794
19,улица Бориса Главана,3200,46.8175843,29.4553936
17,улица Бориса Главана,3200,46.8174815,29.4559129
15,улица Бориса Главана,3200,46.8175367,29.4561687
13,улица Бориса Главана,3200,46.8174919,29.4566187
11,улица Бориса Главана,3200,46.8174333,29.4572698
83,улица Зои Космодемьянской,3200,46.8456889,29.4627584
13,Советская улица,3200,46.8273715,29.4843118
41,Загородная улица,3200,46.8088453,29.4628004
43,Загородная улица,3200,46.8087036,29.4627404
44,Загородная улица,3200,46.8089304,29.4623755
46,Загородная улица,3200,46.8087647,29.4622880
48,Загородная улица,3200,46.8085769,29.4621848
50,Загородная улица,3200,46.8084069,29.4621259
45,Загородная улица,3200,46.8085127,29.4627555
47,Загородная улица,3200,46.8083290,29.4626048
7а,улица Мичурина,3200,46.8089184,29.4620288
9,улица Мичурина,3200,46.8089944,29.4618384
14а,улица Ечина,3200,46.8084396,29.4618507
1,переулок Мичурина,3200,46.8091747,29.4607967
3,переулок Мичурина,3200,46.8090150,29.4607413
7,переулок Мичурина,3200,46.8086594,29.4606223
5,переулок Мичурина,3200,46.8088325,29.4606735
11,улица Мичурина,3200,46.8089973,29.4616512
13,улица Мичурина,3200,46.8090666,29.4614675
17,улица Мичурина,3200,46.8091043,29.4610992
15,улица Мичурина,3200,46.8090887,29.4612930
14,улица Ечина,3200,46.8084226,29.4616544
16,улица Ечина,3200,46.8084536,29.4614797
18,улица Ечина,3200,46.8085221,29.4612927
22,улица Ечина,3200,46.8085843,29.4609267
20,улица Ечина,3200,46.8085480,29.4611030
6,переулок Мичурина,3200,46.8087285,29.4601660
24,улица Ечина,3200,46.8087113,29.4598455
4,переулок Мичурина,3200,46.8089070,29.4602461
2,переулок Мичурина,3200,46.8090448,29.4602946
26,улица Ечина,3200,46.8087709,29.4596930
28,улица Ечина,3200,46.8088044,29.4594811
30,улица Ечина,3200,46.8087942,29.4593064
32,улица Ечина,3200,46.8088614,29.4591214
34,улица Ечина,3200,46.8088331,29.4589444
19,улица Мичурина,3200,46.8092904,29.4600456
21,улица Мичурина,3200,46.8092824,29.4598674
2,улица Фрунзе,3200,46.8114225,29.4602469
4,улица Фрунзе,3200,46.8111930,29.4605888
6,улица Фрунзе,3200,46.8110437,29.4608463
1,улица Фрунзе,3200,46.8115593,29.4606215
3,улица Фрунзе,3200,46.8113654,29.4609671
28,улица Менделеева,3200,46.8115365,29.4612871
26,улица Менделеева,3200,46.8116479,29.4614124
24,улица Менделеева,3200,46.8117377,29.4615491
8,Московская улица,3200,46.8226965,29.4748737
1,Кишинёвский тупик,3200,46.8407499,29.4635921
6,Одесская улица,3200,46.8388156,29.4619804
15,Пионерская улица,3200,46.8331169,29.4585351
10,Красноармейская улица,3200,46.7882149,29.4813188
1а,Красноармейская улица,3200,46.7891952,29.4817377
127/1,Индустриальная улица,3200,46.7894816,29.4823701
14,улица Горького,3200,46.8168304,29.4735267
42а,Комсомольская улица,3200,46.8184868,29.4841332
42,Комсомольская улица,3200,46.8184489,29.4843833
75A,Московская улица,3200,46.8223637,29.4781265
18,Гвардейская улица,3200,46.7869279,29.4797219
20,Гвардейская улица,3200,46.7867810,29.4798324
26,Гвардейская улица,3200,46.7865546,29.4800417
28,Гвардейская улица,3200,46.7864101,29.4801441
30а,улица Кутузова,3200,46.8525309,29.4837164
78,Коммунистическая улица,3200,46.8235519,29.4777190
94,Коммунистическая улица,3200,46.8216171,29.4769758
20,улица Кирова,3200,46.8285583,29.4781261
3,Тираспольская улица,3200,46.8312210,29.4791303
1,улица Пушкина,3200,46.8300990,29.4773261
29а,улица Тамары Кручок,3200,46.8070417,29.4859459
11,улица 40 лет МССР,3200,46.7994221,29.4770523
13,улица 40 лет МССР,3200,46.7992692,29.4770353
15,улица 40 лет МССР,3200,46.7991725,29.4769224
17,улица 40 лет МССР,3200,46.7990259,29.4769788
19,улица 40 лет МССР,3200,46.7988526,29.4769844
7,улица Бендерского Восстания,3200,46.8256427,29.4640324
5,улица Бендерского Восстания,3200,46.8276371,29.4658897
35,Индустриальная улица,3200,46.7987092,29.4900949
2,улица Сергея Лазо,3200,46.8266773,29.4732458
40,улица Калинина,3200,46.8258442,29.4807525
18,улица Суворова,3200,46.8265445,29.4850889
20,улица Суворова,3200,46.8264304,29.4851190
60,улица Суворова,3200,46.8179881,29.4808875
35,улица Кавриаго,3200,46.8171083,29.4835104
74,улица Шестакова,3200,46.8170707,29.4842822
29,Московская улица,3200,46.8227488,29.4768646
27,Московская улица,3200,46.8227901,29.4766858
8,Красноармейская улица,3200,46.7884481,29.4813091
2,переулок Текстильщиков,3200,46.7884528,29.4809054
3,Красноармейская улица,3200,46.7884995,29.4816729
1в,Красноармейская улица,3200,46.7887698,29.4817636
1б,Красноармейская улица,3200,46.7889912,29.4817677
131,Индустриальная улица,3200,46.7895906,29.4813791
6а,улица 50 лет ВЛКСМ,3200,46.8289420,29.4578598
6,улица 50 лет ВЛКСМ,3200,46.8292755,29.4584012
2а,Фруктовая улица,3200,46.8098133,29.4730004
8,улица Кутузова,3200,46.8464242,29.4849074
2,Подольская улица,3200,46.8448111,29.4815600
6,переулок Энгельса,3200,46.8477465,29.4793540
5а/1,улица Бендерского Восстания,3200,46.8301764,29.4654170
23,Южная улица,3200,46.7873671,29.4780808
34,Южная улица,3200,46.7876380,29.4776619
21,Южная улица,3200,46.7874975,29.4780576
25,Южная улица,3200,46.7873260,29.4786423
36,улица Кутузова,3200,46.8532963,29.4834384
34,улица Кутузова,3200,46.8532176,29.4834569
22,улица Кавриаго,3200,46.8160898,29.4831837
1,2-й переулок Кутузова,3200,46.8509849,29.4824357
3,2-й переулок Кутузова,3200,46.8508228,29.4825415
9,2-й переулок Кутузова,3200,46.8508077,29.4831384
15а,1-й переулок Кутузова,3200,46.8511184,29.4832822
13а,2-й переулок Кутузова,3200,46.8503734,29.4832853
15,2-й переулок Кутузова,3200,46.8506029,29.4836666
17,2-й переулок Кутузова,3200,46.8505531,29.4838392
19а,1-й переулок Кутузова,3200,46.8521332,29.4839176
19,1-й переулок Кутузова,3200,46.8521677,29.4844287
12а,2-й переулок Кутузова,3200,46.8496432,29.4838373
38,улица Кутузова,3200,46.8533915,29.4834254
31,улица Энгельса,3200,46.8488081,29.4803878
1,улица Гайдара,3200,46.8480305,29.4822442
9,улица Кутузова,3200,46.8466160,29.4846467
4,Подольская улица,3200,46.8448664,29.4817538
6,Подольская улица,3200,46.8448575,29.4819337
8,Подольская улица,3200,46.8448667,29.4821170
12,Подольская улица,3200,46.8448864,29.4824765
14,Подольская улица,3200,46.8448944,29.4828719
18,Подольская улица,3200,46.8449464,29.4833208
4,1-й переулок Кутузова,3200,46.8506277,29.4816269
6,2-й переулок Кутузова,3200,46.8506139,29.4820838
8а,2-й переулок Кутузова,3200,46.8505380,29.4823517
15,1-й переулок Кутузова,3200,46.8513846,29.4823795
30,улица Энгельса,3200,46.8501654,29.4805233
2а,1-й переулок Кутузова,3200,46.8503025,29.4811374
2,1-й переулок Кутузова,3200,46.8504454,29.4813757
30а,улица Энгельса,3200,46.8504724,29.4802838
32,улица Энгельса,3200,46.8506103,29.4801882
1,1-й переулок Кутузова,3200,46.8506182,29.4807865
22,улица Энгельса,3200,46.8491796,29.4814570
3,улица Гайдара,3200,46.8484395,29.4822027
5,улица Гайдара,3200,46.8492796,29.4831694
7а,улица Гайдара,3200,46.8494333,29.4832876
7,улица Гайдара,3200,46.8495869,29.4832777
9,улица Гайдара,3200,46.8497593,29.4833623
10,2-й переулок Кутузова,3200,46.8500066,29.4824873
10а,2-й переулок Кутузова,3200,46.8503498,29.4826311
12,2-й переулок Кутузова,3200,46.8502183,29.4828483
2а,улица Кутузова,3200,46.8454206,29.4850802
1,улица Кутузова,3200,46.8454332,29.4844233
11,улица Кутузова,3200,46.8471568,29.4848511
13,улица Кутузова,3200,46.8472752,29.4850276
24,улица Кутузова,3200,46.8481361,29.4855282
22,улица Кутузова,3200,46.8479798,29.4855592
3,улица Кутузова,3200,46.8457114,29.4844546
2,улица Кутузова,3200,46.8458501,29.4848225
6,улица Кутузова,3200,46.8462866,29.4848052
4,улица Кутузова,3200,46.8461436,29.4847985
4а,улица Кутузова,3200,46.8459806,29.4849900
10 А,улица Кутузова,3200,46.8466826,29.4851389
11,улица Энгельса,3200,46.8460076,29.4806508
9,улица Энгельса,3200,46.8457632,29.4806412
11а,улица Энгельса,3200,46.8463657,29.4805949
13,Подольский переулок,3200,46.8467059,29.4800796
13,улица Энгельса,3200,46.8465013,29.4804595
38а,улица Энгельса,3200,46.8517167,29.4801414
34,улица Энгельса,3200,46.8507447,29.4801759
36,улица Энгельса,3200,46.8509132,29.4800741
38,улица Энгельса,3200,46.8511654,29.4800296
5,улица Тимирязева,3200,46.7859335,29.4865451
2,улица Тимирязева,3200,46.7853689,29.4869350
4,улица Тимирязева,3200,46.7853441,29.4871925
6,улица Тимирязева,3200,46.7852777,29.4874530
8,улица Тимирязева,3200,46.7853050,29.4877179
6,Красноармейская улица,3200,46.7886539,29.4813598
4,Красноармейская улица,3200,46.7888536,29.4813581
2,Южная улица,3200,46.7898823,29.4776281
4,Южная улица,3200,46.7897529,29.4776033
113,улица 40 лет МССР,3200,46.7903359,29.4769236
115,улица 40 лет МССР,3200,46.7902048,29.4769080
117,улица 40 лет МССР,3200,46.7900046,29.4768763
119,улица 40 лет МССР,3200,46.7898944,29.4767892
83а,улица Тамары Кручок,3200,46.8010515,29.4892784
2,улица Строителей,3200,46.7921317,29.4920648
5,улица Строителей,3200,46.7922265,29.4924624
7,улица Строителей,3200,46.7921095,29.4925119
9,улица Строителей,3200,46.7919976,29.4925487
9,переулок Строителей,3200,46.7923670,29.4936003
11,переулок Строителей,3200,46.7922463,29.4935820
11,улица Строителей,3200,46.7919325,29.4928321
13,улица Строителей,3200,46.7917604,29.4926704
3,3-й Индустриальный переулок,3200,46.7910678,29.4931699
5,3-й Индустриальный переулок,3200,46.7911591,29.4934535
15,улица Строителей,3200,46.7916454,29.4927255
17,улица Строителей,3200,46.7914959,29.4928301
19,улица Строителей,3200,46.7913699,29.4928376
21,улица Строителей,3200,46.7912242,29.4929782
15,переулок Строителей,3200,46.7920019,29.4936206
17,переулок Строителей,3200,46.7918814,29.4937136
19,переулок Строителей,3200,46.7917599,29.4937206
21,переулок Строителей,3200,46.7916425,29.4937074
23,переулок Строителей,3200,46.7915306,29.4937405
7,3-й Индустриальный переулок,3200,46.7912207,29.4938167
9,3-й Индустриальный переулок,3200,46.7912808,29.4939758
11,3-й Индустриальный переулок,3200,46.7912646,29.4941616
35,улица Емилиана Букова,3200,46.7909124,29.4949244
31,улица Емилиана Букова,3200,46.7912221,29.4948986
33,улица Емилиана Букова,3200,46.7910562,29.4949268
26,улица Емилиана Букова,3200,46.7914516,29.4944342
29,улица Емилиана Букова,3200,46.7914244,29.4948120
26а,улица Емилиана Букова,3200,46.7915672,29.4943509
24,улица Емилиана Букова,3200,46.7917156,29.4943812
20,улица Емилиана Букова,3200,46.7919579,29.4943323
18,улица Емилиана Букова,3200,46.7920798,29.4943064
16,улица Емилиана Букова,3200,46.7921939,29.4942747
27,улица Емилиана Букова,3200,46.7915658,29.4948153
25,улица Емилиана Букова,3200,46.7916945,29.4947817
23,улица Емилиана Букова,3200,46.7918511,29.4948079
21,улица Емилиана Букова,3200,46.7919587,29.4947075
19,улица Емилиана Букова,3200,46.7920857,29.4947027
17,улица Емилиана Букова,3200,46.7922175,29.4947110
15,улица Емилиана Букова,3200,46.7923310,29.4946494
11,улица Емилиана Букова,3200,46.7925959,29.4946158
13,улица Емилиана Букова,3200,46.7924632,29.4946712
6,Южная улица,3200,46.7896018,29.4776827
121,улица 40 лет МССР,3200,46.7896182,29.4769357
123,улица 40 лет МССР,3200,46.7894610,29.4768593
8,Южная улица,3200,46.7894709,29.4777013
1,Южная улица,3200,46.7894429,29.4780979
10,Южная улица,3200,46.7893205,29.4775734
"30,28а",Гвардейская улица,3200,46.7863016,29.4801670
32,Гвардейская улица,3200,46.7861938,29.4803027
34,Гвардейская улица,3200,46.7860628,29.4804175
36,Гвардейская улица,3200,46.7857941,29.4806082
23,улица Космонавтов,3200,46.8008359,29.4690487
31,Южная улица,3200,46.7873235,29.4791976
33,Южная улица,3200,46.7873098,29.4793759
3,Южная улица,3200,46.7892302,29.4780876
32,Южная улица,3200,46.7878321,29.4775705
30,Южная улица,3200,46.7879760,29.4776720
1,Красноармейский переулок,3200,46.7891272,29.4813410
1,Красноармейская улица,3200,46.7895013,29.4818043
2,Красноармейский переулок,3200,46.7889191,29.4809142
3,Красноармейский переулок,3200,46.7892137,29.4808359
7,Красноармейский переулок,3200,46.7891922,29.4803342
10,улица Пугачёва,3200,46.7848685,29.4877288
8,улица Пугачёва,3200,46.7849151,29.4874765
6,улица Пугачёва,3200,46.7849313,29.4872089
4,улица Пугачёва,3200,46.7849592,29.4869607
2,улица Пугачёва,3200,46.7849739,29.4866978
1,улица Пугачёва,3200,46.7847107,29.4867020
3,улица Пугачёва,3200,46.7846879,29.4869605
5,улица Пугачёва,3200,46.7846798,29.4872241
1,улица Пугачёва,3200,46.7847799,29.4865608
7,улица Пугачёва,3200,46.7845482,29.4874350
9,улица Пугачёва,3200,46.7846024,29.4877129
2,переулок Мира,3200,46.7843305,29.4876821
12,переулок Текстильщиков,3200,46.7884892,29.4798568
10,переулок Текстильщиков,3200,46.7884742,29.4800301
8,переулок Текстильщиков,3200,46.7884786,29.4802463
4,переулок Текстильщиков,3200,46.7884550,29.4806914
14а,Красноармейский переулок,3200,46.7889631,29.4795353
3,Восточная улица,3200,46.7888207,29.4796241
12,Красноармейский переулок,3200,46.7889416,29.4798351
10,Красноармейский переулок,3200,46.7889402,29.4800582
8,Красноармейский переулок,3200,46.7889371,29.4802779
6,Красноармейский переулок,3200,46.7889271,29.4805023
4,Красноармейский переулок,3200,46.7889270,29.4807224
19,Южная улица,3200,46.7876490,29.4780306
137,улица 40 лет МССР,3200,46.7879875,29.4770000
12а,Гвардейская улица,3200,46.7880935,29.4789296
17,Южная улица,3200,46.7879188,29.4780942
15,Южная улица,3200,46.7880856,29.4780387
12,Гвардейская улица,3200,46.7879756,29.4790356
29,Южная улица,3200,46.7874570,29.4790411
14,Гвардейская улица,3200,46.7878437,29.4791265
16,Гвардейская улица,3200,46.7877304,29.4792168
10,Гвардейская улица,3200,46.7882656,29.4788269
13,Южная улица,3200,46.7882228,29.4780369
8,Гвардейская улица,3200,46.7884123,29.4787118
26,Южная улица,3200,46.7882343,29.4776070
135,улица 40 лет МССР,3200,46.7881963,29.4770174
133,улица 40 лет МССР,3200,46.7883780,29.4769564
131,улица 40 лет МССР,3200,46.7885347,29.4768778
24,Южная улица,3200,46.7883904,29.4776774
22,Южная улица,3200,46.7885139,29.4776672
11,Южная улица,3200,46.7883499,29.4780755
9,Южная улица,3200,46.7885217,29.4780411
12,Южная улица,3200,46.7890668,29.4776406
14,Южная улица,3200,46.7889409,29.4776792
16,Южная улица,3200,46.7887951,29.4776826
18,Южная улица,3200,46.7887500,29.4774946
20,Южная улица,3200,46.7886523,29.4775377
7,Южная улица,3200,46.7886975,29.4780352
5,Южная улица,3200,46.7889754,29.4780496
6,Гвардейская улица,3200,46.7885737,29.4785914
4,Гвардейская улица,3200,46.7887572,29.4784501
2,Гвардейская улица,3200,46.7890269,29.4782524
1,Восточная улица,3200,46.7894472,29.4792045
3а,Восточная улица,3200,46.7892818,29.4792822
13,Красноармейский переулок,3200,46.7892031,29.4797265
11,Красноармейский переулок,3200,46.7891704,29.4799222
9,Красноармейский переулок,3200,46.7891696,29.4801132
3,переулок Текстильщиков,3200,46.7882417,29.4804282
5,переулок Текстильщиков,3200,46.7882444,29.4800150
5,Восточная улица,3200,46.7880770,29.4801156
2,Восточный переулок,3200,46.7880803,29.4804243
4,Восточный переулок,3200,46.7878214,29.4804102
9,Восточный переулок,3200,46.7874814,29.4807304
7,Восточный переулок,3200,46.7876363,29.4807377
13,Восточная улица,3200,46.7871670,29.4808091
15,Восточная улица,3200,46.7870077,29.4808138
11,Восточный переулок,3200,46.7873223,29.4807251
5,Восточный переулок,3200,46.7877939,29.4807356
3,Восточный переулок,3200,46.7879405,29.4807438
1,Восточный переулок,3200,46.7881025,29.4808307
7a,Протягайловская улица,3200,46.8141830,29.4526521
3,Кицканский переулок,3200,46.7963201,29.4935659
23,улица Гагарина,3200,46.8251669,29.4877202
42,улица Маяковского,3200,46.8160863,29.4875992
15,улица Котовского,3200,46.8288483,29.4881293
10,Комсомольская улица,3200,46.8209365,29.4696071
24,улица Пушкина,3200,46.8257123,29.4747358
97,Коммунистическая улица,3200,46.8199838,29.4769523
99,Коммунистическая улица,3200,46.8199087,29.4772434
105,Коммунистическая улица,3200,46.8197061,29.4767567
47,улица Дзержинского,3200,46.8226783,29.4727026
21,улица Дзержинского,3200,46.8274113,29.4750428
36,Первомайская улица,3200,46.8156234,29.4699957
22,улица Некрасова,3200,46.8135011,29.4671456
4а,Киевская улица,3200,46.8195001,29.4625886
5,Дружбы,3200,46.8031505,29.4743660
44,Кишинёвская улица,MD-3200,46.8352072,29.4707275
8,улица Зои Космодемьянской,3200,46.8418640,29.4702657
11,улица Менделеева,3200,46.8122191,29.4629115
21А,улица Сергея Лазо,3200,46.8260417,29.4782909
54,Коммунистическая улица,3200,46.8268956,29.4787596
1,улица Димитрова,3200,46.8087100,29.4684477
140,улица Котовского,3200,46.8115240,29.4804844
24,Гвардейская улица,3200,46.7864953,29.4798710
5,Красноармейский переулок,3200,46.7892976,29.4805515
2,Комсомольская улица,3200,46.8216784,29.4698598
5а/2,улица Бендерского Восстания,3200,46.8295837,29.4663462
22,улица Тамары Кручок,3200,46.8074120,29.4830826
10,улица Ленина,3200,46.8246279,29.4754618
114,улица Суворова,3200,46.8048352,29.4781750
112,улица Суворова,3200,46.8064901,29.4778697
110,улица Суворова,3200,46.8079447,29.4786256
2,Колхозный переулок,3200,46.8449472,29.4772186
6,улица Суворова,3200,46.8275810,29.4854386
45,Индустриальная улица,3200,46.7968879,29.4908706
32,улица Кутузова,3200,46.8531470,29.4836241
30,улица Кутузова,3200,46.8530799,29.4837408
65,улица Котовского,3200,46.8235182,29.4862422
27/А,улица Георге Асаке,3200,46.8143199,29.4648404
32,улица Кирова,3200,46.8277549,29.4774705
27,улица Георге Асаке,3200,46.8148263,29.4645767
1,улица Георге Асаке,3200,46.8176146,29.4663828
26,улица Георге Асаке,3200,46.8176086,29.4658865
28,улица Георге Асаке,3200,46.8175246,29.4658171
57,улица Кирова,3200,46.8260876,29.4777185
57/3,улица Кирова,3200,46.8261555,29.4776099
23,улица Кирова,3200,46.8284194,29.4788114
44,Советская улица,3200,46.8217992,29.4807069
2,улица Панина,3200,46.8380069,29.4874913
