House number,Street name,Postal code,Latitude,Longitude
1911,Whitney Road,82007,41.1330004,-104.7297400
1782,Prairie Avenue,82009,41.1618411,-104.7975426
2540,Dell Range Boulevard,82009,41.1605311,-104.7775705
8020,Campstool Road,82007,41.1365662,-104.7063786
1806,Capitol Avenue,82001,41.1346513,-104.8167721
255,Storey Boulevard,82009,41.1745323,-104.8239280
1720,Cleveland Avenue,82001,41.1420375,-104.7577159
2205,East Pershing Boulevard,82001,41.1456705,-104.7923340
2301,House Avenue,82001,41.1405788,-104.8154240
4116,Laramie Street,82009,41.1524766,-104.7607500
130,Hobbs Avenue,82009,41.1664012,-104.8271550
130,Hobbs Avenue,82009,41.1661877,-104.8270610
5320,Education Drive,82009,41.1685492,-104.8322170
4017,Rawlins Street,82001,41.1523427,-104.7601710
1739,Meadowland Drive,82001,41.1584020,-104.7987030
1958,Dell Range Boulevard,82009,41.1614210,-104.7927000
1958,Dell Range Boulevard,82009,41.1612310,-104.7927200
1958,Dell Range Boulevard,82009,41.1611415,-104.7927210
1958,Dell Range Boulevard,82007,41.1609784,-104.7927130
2515,Warren Avenue,82002,41.1424639,-104.8180630
1510,East Pershing Boulevard,82002,41.1468209,-104.8035730
4136B,Laramie Street,82001,41.1514546,-104.7590110
4606,North College Drive,82009,41.1608137,-104.7617550
5116,Frontier Mall Drive,82009,41.1645396,-104.7995970
300,East 8th Avenue,82001,41.1536601,-104.8196760
1650,Dell Range Boulevard,82009,41.1607759,-104.8016780
1650,Dell Range Boulevard,82009,41.1608566,-104.8014840
1650,Dell Range Boulevard,82009,41.1608292,-104.8015770
1612,Capitol Avenue,82001,41.1331624,-104.8157960
1950,Blue Grass Circle,82009,41.1592611,-104.7933320
908,East 18th Street,82001,41.1385183,-104.8060070
1616,East Pershing Boulevard,82001,41.1469289,-104.8015343
4000,House Avenue,82009,41.1524997,-104.8200472
2414,East Lincolnway,82001,41.1388211,-104.7879707
2535,East Lincolnway,82001-5449,41.1381444,-104.7860905
3355,East Pershing Boulevard,82001,41.1443336,-104.7690840
408,West 17th Street,82001,41.1328949,-104.8187490
1607,Capitol Avenue,82001,41.1330834,-104.8153160
5116,Frontier Mall Drive,82009,41.1644556,-104.7995350
5116,Frontier Mall Drive,82009,41.1649983,-104.7999670
4516,Stillwater Avenue,82009,41.1598558,-104.7999240
2015,Dell Range Boulevard,82009,41.1597070,-104.7912140
723,East 16th Street,82001,41.1357743,-104.8063523
1111,East Lincolnway,82001,41.1356476,-104.8010726
900,East Lincolnway,82001,41.1367590,-104.8051184
2440,Dell Range Boulevard,82009,41.1605306,-104.7811458
2460,Dell Range Boulevard,82009,41.1605748,-104.7810090
314,Dell Range Boulevard,82009,41.1643524,-104.8228200
3515,East Lincolnway,82001,41.1372803,-104.7657830
3501,East Lincolnway,82001,41.1372545,-104.7673073
5115,Frontier Mall Drive,82009,41.1643890,-104.7994630
5115,Frontier Mall Drive,82009,41.1643511,-104.7994325
3806,Dell Range Boulevard,82009,41.1611069,-104.7638684
3421,Gregg Way,82009,41.1615632,-104.7665242
5800,Yellowstone Road,82009,41.1727300,-104.8297653
3803,Evans Avenue,82001-1429,41.1507426,-104.8184646
3803,Evans Avenue,82001-1429,41.1507504,-104.8183891
311,East 5th Avenue,82001-1419,41.1503480,-104.8192362
309,East 5th Avenue,82001-1419,41.1503480,-104.8192660
320 1/2,East 5th Avenue,82001-1420,41.1506153,-104.8188685
320,East 5th Avenue,82001-1420,41.1506233,-104.8189435
3804,Evans Avenue,82001-1430,41.1507090,-104.8188682
3804 1/2,Evans Avenue,82001-1430,41.1507391,-104.8188712
2120,Capitol Avenue,82001-9996,41.1374194,-104.8187537
1712,Pioneer Avenue,82001,41.1333592,-104.8189020
1101,Logan Avenue,82001,41.1360268,-104.7935789
1603,Capitol Avenue,82001,41.1329737,-104.8152020
4020,Airport Parkway West,82001,41.1531726,-104.8115570
4020,Airport Parkway West,82001,41.1531155,-104.8114638
"203,205",West 17th Street,82001,41.1334089,-104.8161010
1620,East Pershing Boulevard,82001-3238,41.1468542,-104.8011627
1111,East Lincolnway,82001,41.1356809,-104.8011560
5500,Bishop Boulevard,82002,41.1701846,-104.8416254
4771,Sagebrush Avenue,82009,41.1631721,-104.7722380
1603,Capitol Avenue Suite,82001,41.1329580,-104.8151845
747,East Laughlin Road,82009,41.1312043,-104.8190045
300,W 17th St,82001,41.1332964,-104.8174552
429,West Fox Farm Road,82007,41.1163668,-104.8088228
5401,Walker Road,82009,41.1679559,-104.8374909
511,East Pershing Boulevard,82001,41.1457626,-104.8163268
2231,East Lincolnway,82001,41.1380290,-104.7905073
3610,Dell Range Boulevard,82009,41.1611306,-104.7653215
1607,Capitol Avenue,82001,41.1312383,-104.8182989
3601,Windmill Road,82001,41.1516380,-104.7751592
2310,West Lincolnway,82001,41.1233092,-104.8424682
1941,Fleischili Parkway,82007,41.1246180,-104.8446010
1508,Dell Range Boulevard,82009,41.1607213,-104.8057088
1536,Dell Range Boulevard,82009,41.1606556,-104.8051482
1740,Fleischili Parkway,82001,41.1240682,-104.8465454
2335,Tura Parkway,82007,41.1239360,-104.8437842
1781,Fleischili Parkway,82007,41.1252797,-104.8454385
2360,West Lincolnway,82001,41.1224299,-104.8440042
1626,Fleischili Parkway,82001,41.1222324,-104.8459759
1151,Dell Range Boulevard,82009,41.1594399,-104.7952615
5025,Campstool Road,82007,41.1264781,-104.7487230
122,West 25th Street,82002,41.1412809,-104.8202969
200,West 24th Street,82001-3642,41.1402694,-104.8202275
1400,West Lincolnway,82001,41.1281690,-104.8297589
2800,West Lincolnway,82009,41.1186102,-104.8581636
8101,Hutchins Drive,82007,41.1375728,-104.7049602
2723,Christensen Road,82007,41.1436104,-104.7075689
7917,Hutchins Dr,82007,41.1371320,-104.7099199
7201,Commerce Circle,82007,41.1376798,-104.7189280
1948,Dell Range Boulevard,82009,41.1634507,-104.7934378
2032,Dell Range Boulevard,82009,41.1640696,-104.7911451
2301,Central Avenue,82002,41.1395677,-104.8176857
214,East 23rd Street,82001,41.1404066,-104.8160309
1213,West Allison Road,82007,41.1083005,-104.8193526
1236,West Allison Road,82007,41.1110834,-104.8208025
220,North College Drive,82007,41.1185168,-104.7693374
1210,8th Avenue,82001,41.1568171,-104.8343594
4603,Lions Park Drive,82001,41.1576410,-104.8286148
1608,Prairie Avenue,82009,41.1665811,-104.8032975
5232,Rue Terre,82009,41.1666834,-104.8012312
2107,Capitol Avenue,82001,41.1377167,-104.8177864
1910,Pioneer Avenue,82001,41.1347723,-104.8201563
309,West 20th Street,82001,41.1353993,-104.8191199
2101,O Neil Avenue,82001,41.1355810,-104.8221578
2120,Capitol Avenue,82001,41.1374546,-104.8189949
2000,Pioneer Avenue,82001,41.1374304,-104.8217978
2301,Capitol Avenue,82001,41.1391441,-104.8188154
1307,Crook Avenue,82001,41.1378756,-104.7886103
5400,Bishop Boulevard,82009,41.1687392,-104.8422491
1780,Westland Road,82001,41.1259407,-104.8396912
2101,Thomes Avenue,82001,41.1362991,-104.8213715
3304,Sheridan Street,82009,41.1613223,-104.7689304
604,Shoshoni Street,82001,41.1697848,-104.8196831
615,Storey Boulevard,82001,41.1746415,-104.8222167
3128,Boxelder Drive,82009,41.1398011,-104.7765489
2700,East 12th Street,82009,41.1370114,-104.7835023
322,West Lincolnway,82001,41.1325592,-104.8173222
2811,House Avenue,82001,41.1453208,-104.8186422
2810,House Avenue,82001,41.1448329,-104.8197931
4218,East Pershing Boulevard,82001,41.1458093,-104.7579912
6101,Yellowstone Road,82001,41.1757946,-104.8277705
4800,Converse Avenue,82009-9998,41.1629883,-104.7873563
5201,Yellowstone Road,82009,41.1661865,-104.8281842
5050,Powderhouse Road,82009,41.1651353,-104.8101214
5320,Education Drive,82009,41.1684884,-104.8323070
5416,Education Drive,82009,41.1690989,-104.8325005
1331,Prairie Avenue,82009,41.1637191,-104.8084250
5214,Rue Terre,82009,41.1666405,-104.8004303
5204,Rue Terre,82009,41.1665565,-104.7999687
1708,Dell Range Boulevard,82009,41.1620619,-104.8000683
6001,Yellowstone Road,82009,41.1745319,-104.8280337
6106,Yellowstone Road,82009,41.1756015,-104.8292148
5800,Yellowstone Road,82009,41.1726501,-104.8299291
5307,Yellowstone Road,82009,41.1681638,-104.8266746
5221,Yellowstone Road,82009,41.1674381,-104.8264614
1950,Blue Grass Circle,82009,41.1579688,-104.7930237
1950,Blue Grass Circle,82009,41.1593249,-104.7933096
3355,East Pershing Boulevard,82001,41.1441928,-104.7693568
3702,Dell Range Boulevard,82009,41.1613129,-104.7646872
4349,East Lincolnway,82009,41.1430878,-104.7569446
4350,East Lincolnway,82001,41.1444922,-104.7576565
1805,Westland Road,82007,41.1266856,-104.8390417
1854,Dell Range Boulevard,82009,41.1619006,-104.7948066
4621,Grandview Avenue,82009,41.1612727,-104.7888998
1625,Stillwater Avenue,82009,41.1590800,-104.8027010
1958,Dell Range Boulevard,82009,41.1612157,-104.7926198
1938,Dell Range Boulevard,82009,41.1606899,-104.7934935
1401,Dell Range Boulevard,82009,41.1598210,-104.8069081
2152,Dell Range Boulevard,82009,41.1606292,-104.7877750
121,West 15th Street,82001,41.1317835,-104.8144061
3410,Concord Road,82009,41.1476636,-104.8017824
1580,Airport Parkway,82001,41.1530756,-104.8010548
1300,East 20th Street,82001,41.1422372,-104.8024778
1,Depot Square,82001,41.1324314,-104.8144458
710,South Lions Park Drive,82001,41.1555930,-104.8301713
4403,Livingston Road,82007,41.1206090,-104.7575112
8911,Campstool Road,82007,41.1253504,-104.7112274
2200,O Neil Avenue,82001,41.1366873,-104.8241402
316,West 22nd Street,82002,41.1376194,-104.8207568
308,West 21st Street,82001,41.1368102,-104.8198877
2810,East 10th Street,82001,41.1342807,-104.7824878
807,Coolidge Street,82001,41.1324704,-104.7723755
903,Adams Avenue,82001,41.1341740,-104.7595182
5021,East 13th Street,82001,41.1376613,-104.7490962
615,West 19th Street,82007,41.1245163,-104.8159624
1407,Cosgriff Court,82001,41.1428458,-104.8373587
3501,Evans Avenue,82001,41.1481814,-104.8179855
6000,Education Drive,82009,41.1740815,-104.8353375
2204,Plainview Road,82009;82001,41.1700761,-104.7867613
2201,Morrie Avenue,82001,41.1428469,-104.8075774
2515,Warren Avenue,82001,41.1423588,-104.8181304
5300,Bishop Boulevard,82009,41.1651606,-104.8410760
5001,Central Avenue,82009,41.1654181,-104.8390697
5200,Bishop Boulevard,82009,41.1659672,-104.8419058
1426,East Lincolnway,82001,41.1373709,-104.7977677
2360,East Pershing Boulevard,82001,41.1480508,-104.7860762
922,West Lincolnway,82001,41.1297531,-104.8241504
3952,Parkview Drive,82001,41.1575589,-104.7617380
4025,Rawlins Street,82007,41.1520884,-104.7607622
4606,North College Drive,82009,41.1609101,-104.7618600
3001,East Pershing Boulevard,82001,41.1443773,-104.7729429
3424,East Pershing Boulevard,82001,41.1460700,-104.7673092
3418,East Pershing Boulevard,82001,41.1462346,-104.7676869
3310,Ridge Road,82001,41.1462051,-104.7688878
2121,East Lincolnway,82001,41.1381673,-104.7916781
1830,Dell Range Boulevard,82009,41.1606533,-104.7964042
2009,Blue Grass Circle,82009,41.1588994,-104.7914650
1931,Blue Grass Circle,82009,41.1582747,-104.7941618
1923,Dell Range Boulevard,82009,41.1598094,-104.7945193
1947,Dell Range Boulevard,82009,41.1599299,-104.7932845
1400,Dell Range Boulevard,82009,41.1619874,-104.8073693
1400,Dell Range Boulevard,82009,41.1620286,-104.8026906
1103,Old Town Lane,82009,41.1731765,-104.8102207
1121,Old Town Lane,82009,41.1731221,-104.8093755
1211,Dell Range Boulevard,82009,41.1596770,-104.8109951
1225,Dell Range Boulevard,82009,41.1589928,-104.8105717
1320,Dell Range Boulevard,82009,41.1608383,-104.8083010
1650,Dell Range Boulevard,82009,41.1609076,-104.8016118
2220,Dell Range Boulevard,82009,41.1605984,-104.7867240
2206,Dell Range Boulevard,82009,41.1606008,-104.7874633
1734,Meadowland Drive,82009,41.1591562,-104.7990058
1706,Stillwater Avenue,82009,41.1594193,-104.8003845
1660,Dell Range Boulevard,82009,41.1607620,-104.8009090
6309,Yellowstone Road,82009,41.1778436,-104.8273842
421,Vandehei Street,82009,41.1826930,-104.8350432
443,Vandehei Street,82009,41.1823354,-104.8358353
3310,North College Drive,82001,41.1461936,-104.7616653
510,West 29th Street,82001,41.1431081,-104.8271934
510,Seymour Avenue,82001,41.1440099,-104.8137417
301,West Lincolnway,82001,41.1320818,-104.8164846
222,East 17th Street,82001,41.1350063,-104.8129318
1912,Capitol Avenue,82001,41.1358558,-104.8177530
1900,Carey Avenue,82002,41.1350712,-104.8187832
2001,Capitol Avenue,82002,41.1368772,-104.8174611
2300,Carey Avenue,82001,41.1385988,-104.8208951
2300,Capitol Avenue,82002,41.1388070,-104.8197407
401,West 19th Street,82001,41.1341099,-104.8197154
500,West 18th Street,82001,41.1332467,-104.8206833
400,West Lincolnway,82001,41.1319706,-104.8182638
1506,Capitol Avenue,82001-4524,41.1319386,-104.8152050
1518,Capitol Avenue,82001,41.1323989,-104.8153395
214,West 15th Street,82002,41.1317158,-104.8157967
1600,Capitol Avenue,82001,41.1332434,-104.8147479
1607,Capitol Avenue,82001,41.1331613,-104.8153240
1601,Central Avenue,82001,41.1334726,-104.8140017
1600,Capitol Avenue,82001,41.1329050,-104.8157197
1923,Capitol Avenue,82001,41.1334541,-104.8154769
222,West Lincolnway,82001,41.1326563,-104.8164091
216,West Lincolnway,82001,41.1327124,-104.8162082
406,West 17th Street,82001,41.1328540,-104.8185188
1919,Capitol Avenue,82001,41.1362313,-104.8168887
2020,Carey Avenue,82001,41.1361504,-104.8198436
800-814,Foyer Avenue,82001,41.1492901,-104.8334272
1722,Carey Avenue,82001,41.1337916,-104.8178171
1800,Carey Avenue,82001,41.1342197,-104.8183224
2200,East Lincolnway,82001,41.1388256,-104.7908963
1515,Dell Range Boulevard,82009,41.1598727,-104.8043835
4612,Rue Terre,82009,41.1607719,-104.7947236
916,West 19th Street,82001,41.1333564,-104.8233929
514,West Fox Farm Road,82007,41.1171439,-104.8103629
1415,Stillwater Avenue,82009,41.1591955,-104.8072918
3518,Dell Range Boulevard,82009,41.1605933,-104.7664867
3502,Dell Range Boulevard,82009,41.1606469,-104.7671424
2032,Dell Range Boulevard,82009,41.1605934,-104.7677701
3610,Dell Range Boulevard,82009,41.1611579,-104.7654906
3806,Dell Range Boulevard,82009,41.1611377,-104.7636366
3810,Dell Range Boulevard,82009,41.1604164,-104.7632507
1508,Dell Range Boulevard,82009,41.1605284,-104.7919765
2030,Blue Grass Circle,82009,41.1598928,-104.7925176
1501,Dell Range Boulevard,82009,41.1597324,-104.8055902
1729,Dell Range Boulevard,82009,41.1598817,-104.7990460
2500,East Lincolnway,82001,41.1388063,-104.7872352
2304,East Lincolnway,82001,41.1389480,-104.7893591
2520,East Lincolnway,82001,41.1387859,-104.7866200
100,Central Avenue,82001,41.1198717,-104.8079092
5538,Yellowstone Road,82009,41.1709884,-104.8291485
5827,Yellowstone Road,82009,41.1731501,-104.8279173
1525,East Pershing Boulevard,82001,41.1455730,-104.8024292
1820,Capitol Avenue,82001,41.1350156,-104.8171981
514,West 19th Street,82001,41.1341565,-104.8212682
511,West 19th Street,82001,41.1336752,-104.8208200
5908,Yellowstone Road,82009,41.1733416,-104.8291999
114,East 7th Avenue,82001,41.1525343,-104.8220043
6523,Yellowstone Road,82009,41.1795186,-104.8278690
4312,Van Buren Avenue,82001,41.1570607,-104.7483466
5331,Pineridge Avenue,82001;82009,41.1668435,-104.7773160
6815,Wilderness Trail,82001,41.1523373,-104.7270095
3705,Cheyenne Street,82001,41.1467608,-104.7644878
2820,Henderson Drive,82001,41.1428439,-104.7816388
1514,East 16th Street,82001,41.1397382,-104.7982032
5710,Syracuse Road,82001,41.1716640,-104.8145727
316,Livingston Avenue,82007,41.1259099,-104.7602492
326,Parsley Boulevard,82007,41.1196752,-104.8297017
5801,Yellowstone Road,82009,41.1723763,-104.8281051
3320,Maxwell Avenue,82001,41.1465084,-104.8160204
624,East Pershing Boulevard,82001,41.1464634,-104.8147797
1625,Stillwater Avenue,82009,41.1587070,-104.8023636
1504,Stinson Avenue,82001,41.1266454,-104.8297179
3714,Windmill Road,82001,41.1523457,-104.7811386
137,Kornegay Court,82009,41.1723114,-104.8268709
1735,Westland Road,82001,41.1259982,-104.8389425
2142,West Lincolnway,82001,41.1241392,-104.8403771
1615,Westland Road,82001,41.1243527,-104.8383826
1618,Westland Road,82001,41.1246481,-104.8394014
555,Westland Road,82001,41.1265971,-104.8402740
1880,Westland Road,82001,41.1269922,-104.8407435
1919,Westland Road,82001,41.1276658,-104.8391038
1880,Westland Road,82001,41.1282549,-104.8394670
2100,Westland Road,82001,41.1297893,-104.8407855
2701,Westland Road,82001,41.1289620,-104.8392760
2245,Westland Road,82001,41.1300898,-104.8383006
2131,Westland Road,82001,41.1303851,-104.8384471
2245,Westland Road,82001,41.1307459,-104.8384839
2200,Westland Road,82001,41.1306792,-104.8400060
2200,Westland Road,82001,41.1319467,-104.8396037
8800,Hutchins Drive,82007,41.1405048,-104.6984448
530,Echostar Drive,82007,41.1314665,-104.7366602
650,Echostar Drive,82007,41.1343794,-104.7317848
2512,West Lincolnway,82001,41.1202919,-104.8488825
2414,West Lincolnway,82001,41.1209441,-104.8473071
2410,West Lincolnway,82001,41.1212072,-104.8472627
1900,West Lincolnway,82001,41.1252254,-104.8359431
1920,West Lincolnway,82001,41.1249344,-104.8369219
1530,West Lincolnway,82001,41.1287571,-104.8316676
1515,West Lincolnway,82001,41.1264820,-104.8302538
1601,East Lincolnway,82001,41.1375553,-104.7956086
1905,East Lincolnway,82001,41.1379966,-104.7945741
2001,East Lincolnway,82001,41.1378131,-104.7934949
1320,Hugur Avenue,82001,41.1372638,-104.7963489
1222,Dunn Avenue,82001,41.1350033,-104.7986906
2220,Carey Avenue,82001,41.1382758,-104.8205779
220,West 22nd Street,82001,41.1380269,-104.8197627
2360,East Pershing Blvd,82001,41.1480491,-104.7856833
1730,Dell Range Boulevard,82009,41.1608028,-104.7991703
4355,Windmill Road,82009,41.1576687,-104.7771737
4523,Driftwood Drive,82009,41.1599414,-104.8032101
1637,Stillwater Avenue,82009,41.1584890,-104.8016878
4519,Frontier Mall Drive,82009,41.1598727,-104.8005535
1508,Stillwater Avenue,82009,41.1598787,-104.8048724
4509,Driftwood Drive,82099,41.1596809,-104.8031659
1406,Prairie Avenue,82009,41.1650212,-104.8068991
1740,Prairie Avenue,82009,41.1636791,-104.8003298
1400,Dell Range Boulevard,82009,41.1628448,-104.8038083
1400,Dell Range Boulevard,82009,41.1627679,-104.8060640
2111,Central Avenue,82001,41.1380026,-104.8169807
101,West 19th Street,82001-4523,41.1355355,-104.8160688
1701,Capitol Avenue,82001-4527,41.1340129,-104.8157298
1908,Central Avenue,82001,41.1359704,-104.8164268
416,Fox Farm Road,82007,41.1177627,-104.8085172
201,West Fox Farm Road,82007,41.1163967,-104.8051440
120,North Greeley Highway,82007,41.1177603,-104.8049142
205,North Greeley Highway,82007,41.1182397,-104.8038445
221,East 1st Street,82007,41.1208775,-104.8044891
103,West 6th Street,82007,41.1238755,-104.8086393
4719,Ridge Road,82009,41.1615681,-104.7674383
600,East Carlson Street,82009,41.1723491,-104.8197190
411,East Lincolnway,82001,41.1344683,-104.8097667
310,East Lincolnway,82001,41.1344550,-104.8116318
216,East Lincolnway,82001-4504,41.1340743,-104.8127476
317,East Lincolnway,82001,41.1340584,-104.8109574
215,East Lincolnway,82001,41.1334357,-104.8121541
202,East 15th Street,82001,41.1329896,-104.8124518
1719,Central Avenue,82001,41.1348349,-104.8148226
2044,Dell Range Boulevard,82009,41.1611321,-104.7903579
715,West 5th Avenue,82001,41.1500860,-104.8293271
300,East 8th Avenue,82001,41.1532160,-104.8192155
3601,Evans Avenue,82001-1427,41.1488494,-104.8179113
108,East 18th Street,82001,41.1354537,-104.8149543
800,Stinner Road,82009,41.1616429,-104.8460974
2600,East 18th Street,82001,41.1429540,-104.7840801
2800,East Pershing Boulevard,82001,41.1475177,-104.7754786
4435,Windmill Road,82009,41.1596100,-104.7792333
140,Gardenia Drive,82009,41.1823582,-104.8278928
5520,Yellowstone Road,82009,41.1701091,-104.8292331
5250,Yellowstone Road,82009,41.1680492,-104.8292138
2130,Missile Drive,82001,41.1341752,-104.8339132
2200,Missile Drive,82001,41.1345252,-104.8350687
1723,Pacific Avenue,82007,41.1217518,-104.8302282
1212,Ridge Road,82001,41.1369664,-104.7694183
7222,Commerce Circle,82007,41.1397070,-104.7197250
311,Cleveland Place,82007,41.1256858,-104.7543330
3301,Nationway,82001,41.1354941,-104.7700565
1720,Pacific Avenue,82007,41.1211200,-104.8318716
600,Taggart Drive,82007,41.1218038,-104.7409200
4610,Carey Avenue,82001,41.1579134,-104.8339954
1701,Morrie Avenue,82001,41.1380970,-104.8037185
224,Dey Avenue,82007,41.1149865,-104.8231950
6325,Cheif Washakie Avenue,82003,41.1760167,-104.7788194
1705,Morrie Ave,82001,41.1367563,-104.7998715
1317,Parsley Boulevard,82007,41.1244961,-104.8255922
580,Livingston Avenue,82007,41.1266848,-104.7619308
580,Livingston Avenue,82007,41.1261546,-104.7649382
3839,East Lincolnway,82001,41.1374783,-104.7702599
3839,East Lincolnway,82001,41.1373587,-104.7706486
3609,East Lincolnway,82001,41.1385802,-104.7663481
1203,Ridge Road,82001,41.1368607,-104.7681509
3312,East Lincolnway,82001,41.1391313,-104.7722628
1701,Carey Avenue,82001,41.1336806,-104.8166222
415,West 18th Street,82001,41.1332087,-104.8191318
909,West Lincolnway,82001,41.1294149,-104.8233480
1612,East Pershing Boulevard,82001,41.1456012,-104.8003776
2950,Spruce Drive,82001,41.1428631,-104.7781223
3161,Omaha Road,82001,41.1421780,-104.7731880
1836,Hot Springs Avenue,82001,41.1423779,-104.7859217
1517,Walnut Drive,82001,41.1395638,-104.7829708
2811,East 13th Street,82001,41.1372075,-104.7821685
1111,East 22nd Street,82009,41.1425677,-104.8056083
2800,Central Avenue,82001,41.1441278,-104.8220181
3005,Thomes Avenue,82001-2549,41.1442663,-104.8265398
501,West 27th Street,82001,41.1408888,-104.8251905
522,Capitol Avenue,82007,41.1419801,-104.8221413
252,Dell Range Boulevard,82009,41.1643880,-104.8239559
2390,Pattison Avenue,82009,41.1682207,-104.7810356
4776,Mountain Road,82009,41.1622734,-104.7837060
5200,Ridge Road,82009,41.1661756,-104.7692650
4723,Griffith Avenue,82009,41.1614694,-104.7583293
3422,North College Drive,82001,41.1476949,-104.7615943
211,West Lincolnway,82001,41.1322809,-104.8156622
1615,Central Avenue,82001,41.1338470,-104.8141852
534,Vandehei Street,82009,41.1841394,-104.8363396
5405,Walker Road,82009,41.1673078,-104.8372346
3315,North College Drive,82001,41.1461352,-104.7601577
901,West Pershing Boulevard,82001,41.1457585,-104.8317550
2800,West Lincolnway,82001,41.1177498,-104.8558532
1821,Dell Range Boulevard,82009,41.1599472,-104.7967001
910,Western Hills Boulevard,82009,41.1751690,-104.8460117
1100,West Lincolnway,82001,41.1289923,-104.8262968
1401,Airport Parkway,82001,41.1516630,-104.8049010
1301,Airport Parkway,82001,41.1518167,-104.8056663
2115,Warren Avenue,82001-3739,41.1386936,-104.8160616
1345,Dell Range Boulevard,82009,41.1599097,-104.8075407
2634,Dell Range Boulevard,82009,41.1604567,-104.7764386
603,House Avenue,82007,41.1255254,-104.8056108
1836,Hot Springs Avenue,82001,41.1432616,-104.7857802
2516,East 18th Street,82001,41.1425422,-104.7870537
6100,Countryside Avenue,82001,41.1538278,-104.7352138
1038,East Pershing Boulevard,82001,41.1462592,-104.8075907
801,West Pershing Boulevard,82001,41.1458830,-104.8305003
4014,Central Avenue,82001,41.1528635,-104.8229585
3920,Central Avenue,82001-1327,41.1520185,-104.8228635
302,East 5th Avenue,82001-1420,41.1506895,-104.8195515
304,East 5th Avenue,82001-1420,41.1506925,-104.8193910
306,East 5th Avenue,82001-1420,41.1506725,-104.8192435
318,East 5th Avenue,82001-1420,41.1506775,-104.8190950
222,East 5th Avenue,82001-1418,41.1506950,-104.8199480
212,East 5th Avenue,82001-1418,41.1506785,-104.8204145
204,West Pershing Boulevard,82001,41.1462715,-104.8243695
2821,Carey Avenue,82001,41.1437770,-104.8235058
2822,Capitol Avenue,82001,41.1440137,-104.8230229
2814,Capitol Avenue,82001,41.1438054,-104.8229183
2815,Carey Avenue,82001,41.1436035,-104.8234905
2809,Carey Avenue,82001,41.1433945,-104.8232906
2800,Capitol Avenue,82001,41.1435202,-104.8227347
2803,Carey Avenue,82001,41.1432765,-104.8231842
2717,Carey Avenue,82001,41.1427724,-104.8228993
2720,Capitol Avenue,82001,41.1429150,-104.8223948
2721,Capitol Avenue,82001,41.1433339,-104.8218782
2719,Capitol Avenue,82001,41.1432269,-104.8218192
2715,Capitol Avenue,82001,41.1431160,-104.8217358
2722,Central Avenue,82001,41.1435450,-104.8213190
2718,Central Avenue,82001,41.1434370,-104.8212290
220,West 27th Street,82001,41.1424759,-104.8227395
216,West 27th Street,82001,41.1424435,-104.8224879
210,West 27th Street,82001,41.1425634,-104.8222995
2704,Capitol Avenue,82001,41.1426501,-104.8220883
2614,Capitol Avenue,82001,41.1420334,-104.8217921
525,Randall Avenue,82001,41.1423150,-104.8275695
204,West Fox Farm Road,82007,41.1176062,-104.8065701
407,Wasatch Street,82097,41.1200231,-104.7936689
401,Wasatch Street,82007,41.1200065,-104.7934630
410,Wasatch Street,82007,41.1196229,-104.7936818
1820,West Lincolnway,82001,41.1251944,-104.8351742
1710,West Lincolnway,82001,41.1261464,-104.8340682
6113,Evers Avenue,82009,41.1780353,-104.8397017
119,Cleveland Place,82007,41.1272210,-104.7545745
1712,Pioneer Avenue,82001,41.1332099,-104.8187092
2212,Apache Street,82009,41.1672668,-104.7864120
423,West Fox Farm Road,82007,41.1163981,-104.8080096
1313,West Lincolnway,82001,41.1277837,-104.8278935
1421,West Lincolnway,82001,41.1270090,-104.8292235
1215,West Lincolnway,82001,41.1279845,-104.8275730
1211,West Lincolnway,82001,41.1275442,-104.8270281
2800,West Lincolnway,82009,41.1191925,-104.8578629
5410,Yellowstone Road,82009,41.1692873,-104.8291412
5249,Yellowstone Road,82009,41.1687835,-104.8282345
5320,Yellowstone Road,82009,41.1684006,-104.8291165
5412,Yellowstone Road,82009,41.1693011,-104.8281936
111,West Carlson Street,82009,41.1709940,-104.8298610
5700,North Yellowstone Road,82009-4132,41.1716844,-104.8292506
1208,East Pershing Boulevard,82001,41.1461535,-104.8070085
1208,East Pershing Boulevard,82001,41.1460890,-104.8067875
6309,Yellowstone Road,82009,41.1779377,-104.8273334
2131,Mason Way,82001,41.1615808,-104.7877849
2518,Dell Range Boulevard,82009,41.1604787,-104.7792061
4424,East 16th Street,82001-6440,41.1404806,-104.7553693
5410,Sunset Drive,82009,41.1695890,-104.8266084
5412,Sunset Drive,82009,41.1696440,-104.8266079
5414,Sunset Drive,82009,41.1697091,-104.8266072
5416,Sunset Drive,82009,41.1697650,-104.8266068
5418,Sunset Drive,82009,41.1698151,-104.8266068
948,Western Hills Boulevard,82009,41.1751575,-104.8474113
6119,Buffalo Avenue,82009,41.1756546,-104.8474310
929,Custer Street,82009,41.1756640,-104.8467257
919,Custer Street,82009,41.1756861,-104.8463247
820,Western Hills Boulevard,82009,41.1751775,-104.8438708
802,Western Hills Boulevard,82009,41.1752222,-104.8431158
830,Western Hills Boulevard,82009,41.1751865,-104.8442309
8840,Western Hills Boulevard,82009,41.1751821,-104.8445979
903,Custer Street,82009,41.1757347,-104.8456245
810,Western Hills Boulevard,82009,41.1752013,-104.8435067
848,Western Hills Boulevard,82009,41.1751475,-104.8449394
911,Custer Street,82009,41.1757149,-104.8459670
920,Western Hills Boulevard,82009,41.1752073,-104.8463213
940,Western Hills Boulevard,82009,41.1752477,-104.8470628
6102,Elk Avenue,82009,41.1752302,-104.8456242
1637,Stillwater Avenue,82009,41.1585949,-104.8021241
1637,Stillwater Avenue,82009,41.1585737,-104.8020368
1637,Stillwater Avenue,82009,41.1585525,-104.8019496
1637,Stillwater Avenue,82009,41.1585314,-104.8018623
1637,Stillwater Avenue,82009,41.1585102,-104.8017751
1212,Spirit Lane,82009,41.1805830,-104.8082956
1239,Dell Range Boulevard,82009,41.1588576,-104.8098152
915,East 25th Street,82001,41.1444916,-104.8097520
917,East 25th Street,82001,41.1445600,-104.8095709
930,Western Hills Boulevard,82009,41.1751645,-104.8467477
939,Custer Street,82009,41.1756549,-104.8470641
5517,Hacker Circle,82009,41.1699415,-104.8345192
3501,East Lincolnway,82001,41.1370662,-104.7670614
3503,East Lincolnway,82001,41.1372459,-104.7664674
3505,East Lincolnway,82001,41.1372075,-104.7661673
210,East 15th Street,82001,41.1331246,-104.8121035
300,East Lincolnway,82001,41.1342551,-104.8118253
2800,West Lincolnway,82001,41.1180952,-104.8549494
2500,West Lincolnway,82001,41.1204934,-104.8481351
1401,West Lincolnway,82001,41.1274480,-104.8288304
1401,West Lincolnway,82001,41.1272724,-104.8290215
800,Stinner Road,82001,41.1609435,-104.8427722
7052,Commerce Circle,82007,41.1346609,-104.7213225
115,East 17th Street,82001,41.1340373,-104.8139146
123,East 17th Street,82001,41.1341803,-104.8137663
113,East 17th Street,82001,41.1340773,-104.8141084
113,East 17th Street,82001,41.1340773,-104.8141084
111,East 17th Street,82001,41.1340773,-104.8141084
821,West Pershing Boulevard,82001,41.1457617,-104.8310324
3219,Snyder Avenue,82001,41.1456451,-104.8311579
3215,Snyder Avenue,82001,41.1455748,-104.8311300
2634,Dell Range Boulevard,82009,41.1603435,-104.7758005
209,West 17th Street,82001,41.1331953,-104.8161738
3800,East Lincolnway,82001,41.1417148,-104.7633728
207,East Lincolnway,82001,41.1333341,-104.8125224
211,East Lincolnway,82001,41.1333731,-104.8123133
716,Randall Avenue,82001,41.1434025,-104.8292740
2714,Central Avenue,82001,41.1433141,-104.8211447
2616,Central Avenue,82001,41.1425364,-104.8206604
2622,Central Avenue,82001,41.1426424,-104.8207424
115,West 27th Street,82001,41.1424339,-104.8210724
2616,Capitol Avenue,82001,41.1422669,-104.8211994
2612,Central Avenue,82001,41.1424360,-104.8205677
102,West 27th Street,82001,41.1430235,-104.8208925
108,West 27th Street,82001,41.1429474,-104.8211240
114,West 27th Street,82001,41.1428933,-104.8214020
2610,Central Avenue,82001,41.1423090,-104.8204688
2608,Central Avenue,82001,41.1422216,-104.8204134
102,Central Avenue,82001,41.1421233,-104.8203277
122,West 26th Street,82001,41.1418787,-104.8210155
9310,Hutchins Drive,82007,41.1424753,-104.6933310
3411,East Pershing Boulevard,82001-5915,41.1452210,-104.7679931
2109,Evans Avenue,82001-3733,41.1392616,-104.8137067
2115,Evans Avenue,82001-3733,41.1394382,-104.8138066
2109,Evans Avenue,82001-3733,41.1395209,-104.8138614
2119,Evans Avenue,82001-3733,41.1396010,-104.8139137
2121,Evans Avenue,82001-3733,41.1396861,-104.8139680
4416,East 6th Street,82001,41.1315970,-104.7558413
4412,East 6th Street,82001,41.1315927,-104.7560881
4421,East 7th Street,82001,41.1316396,-104.7556099
4408,East 6th Street,82001,41.1316316,-104.7563142
4404,East 6th Street,82001,41.1316071,-104.7565673
4318,East 6th Street,82001,41.1316016,-104.7568002
4314,East 6th Street,82001,41.1315945,-104.7570699
4310,East 6th Street,82001,41.1316023,-104.7572887
607,Madison Avenue,82001,41.1316517,-104.7575136
4301,East 7th Street,82001,41.1319489,-104.7574994
4311,East 7th Street,82001,41.1319617,-104.7572587
4315,East 7th Street,82001,41.1319572,-104.7570113
4319,East 7th Street,82001,41.1319690,-104.7567424
4405,East 7th Street,82001,41.1319756,-104.7564950
4409,East 7th Street,82001,41.1319453,-104.7562388
4413,East 7th Street,82001,41.1319379,-104.7559934
4417,East 7th Street,82001,41.1319112,-104.7557269
4708,Maple Way,82009,41.1613686,-104.7772513
4716,Maple Way,82009,41.1615619,-104.7772469
4728,Maple Way,82009,41.1619116,-104.7772444
1301,West 24th Street,82001,41.1351793,-104.8326813
2400,Missile Drive,82001,41.1356147,-104.8354633
5209,Hynds Boulevard,82009,41.1673988,-104.8376467
5121,Campstool Road,82007,41.1261365,-104.7428822
508,Central Avenue,82007,41.1233912,-104.8087348
101,West 6th Street,82007,41.1239817,-104.8084482
1109,Airport Parkway,82001-1503,41.1518617,-104.8077920
106,West 26th Street,82001,41.1420163,-104.8206004
104,West 26th Street,82001,41.1420791,-104.8204514
123,West 27th Street,82001,41.1423868,-104.8213356
122,West 25th Street,82002,41.1409520,-104.8212439
1612,Capitol Avenue,82001,41.1332756,-104.8159596
5500,Education Drive,82009,41.1709589,-104.8358403
6118,Yellowstone Road,82009,41.1758555,-104.8291623
2116,East 9th Street,82001-5215,41.1341771,-104.7917808
1400,Del Range Boulevard,82009,41.1622431,-104.8066334
1400,Dell Range Boulevard,82009,41.1618718,-104.8054755
1400,Dell Range Boulevard,82009,41.1617763,-104.8058998
2320,Chestnut Drive,82001,41.1442753,-104.7893313
126,Quincy Road,82009,41.1738547,-104.8273713
3330,T-Bird Drive,82001,41.1470815,-104.7729868
1250,West College Drive,82007,41.1033097,-104.8163281
916,West College Drive,82007,41.1033353,-104.8108026
413,Seymour Avenue,82007,41.1252271,-104.7999871
615,West 19th Street,82007,41.1246500,-104.8155141
2320,Chestnut Drive,82001,41.1442739,-104.7894668
322,West 17th Street,82001,41.1331369,-104.8180335
1330,Prairie Avenue,82009,41.1648604,-104.8084024
4801,Central Avenue,82009,41.1640098,-104.8341558
124,East 8th Avenue,82001-9981,41.1535858,-104.8210208
4010,North College Drive,82009,41.1551885,-104.7622245
510,West 20th Street,82001,41.1352409,-104.8215530
