House number,Street name,Postal code,Latitude,Longitude
532,North Cache Drive,83001,43.4862556,-110.7617590
1425,South Highway 89,83001,43.4587989,-110.7956493
100,Flat Creek Drive,83001,43.4783369,-110.7696053
145,East Broadway Avenue,83001,43.4797056,-110.7600500
55,North Cache Street,83001,43.4800388,-110.7625170
510,South Highway 89,83002,43.4696542,-110.7894360
1415,South US 89,83001,43.4586293,-110.7938460
160,West Gill Avenue,83001,43.4815199,-110.7648360
285,North Cache Street,83001,43.4831768,-110.7626590
520,West Broadway,83001,43.4773197,-110.7698403
180,Powderhorn Lane,83001,43.4725593,-110.7860438
20,West Broadway Avenue,83001,43.4793440,-110.7630067
520,West Broadway,83001,43.4692996,-110.7910760
520,South Highway 89,83001,43.4693118,-110.7912911
50,West Broadway Avenue,83001,43.4791839,-110.7632103
750,West Broadway,83001,43.4739464,-110.7787288
1110,Maple Way,83001,43.4700855,-110.7872998
1110,Maple Way,83001,43.4700413,-110.7875695
10,East Broadway,83001,43.4791111,-110.7622435
125,East Pearl Avenue,83001,43.4786755,-110.7599768
150,East Pearl Avenue,83001,43.4782333,-110.7597474
180,South King Street,83001,43.4777463,-110.7603550
1180,Gregory Lane,83001,43.4629337,-110.7970359
850,West Broadway,83001,43.4734384,-110.7810057
160,North Cache Street,83001,43.4812533,-110.7622518
520,West Broadway Avenue,83001,43.4772945,-110.7701687
105,Buffalo Way,83001,43.4723728,-110.7891105
120,North Cache Street,83001,43.4807277,-110.7622584
220,West Pearl Avenue,83001,43.4783789,-110.7656530
850,West Broadway Avenue,83001,43.4735472,-110.7813979
500,US 89,83001,43.4700817,-110.7910745
130,North Cache Street,83001,43.4808917,-110.7619913
170,North Cache Street,83001,43.4813074,-110.7622484
160,North Cache Street,83001,43.4811925,-110.7622556
140,North Cache Street,83001,43.4810812,-110.7622524
138,North Cache Street,83001,43.4810220,-110.7622490
139,North Cache Street,83001,43.4808693,-110.7625640
132,North Cache Street,83001,43.4808669,-110.7622458
135,North Cache Street,83001,43.4806988,-110.7625118
135,North Cache Street,83001,43.4807118,-110.7628544
125,North Cache Street,83001,43.4805851,-110.7625004
125,North Cache Street,83001,43.4804637,-110.7625474
15,East Deloney Avenue,83001,43.4804532,-110.7621955
35,South Glenwood Street,83001,43.4792091,-110.7638780
265,West Broadway Avenue,83001,43.4797769,-110.7659024
140,North Cache Street,83001,43.4811344,-110.7622533
215,B N. Cache Street,83001,43.4821114,-110.7629070
160,West Broadway Avenue,83001,43.4793548,-110.7646600
930,West Broadway,83001,43.4735977,-110.7836460
510,South Highway 89,83001,43.4696743,-110.7898422
145,West Deloney Avenue,83001,43.4804370,-110.7642849
750,South Highway 89 PO Box 1382,83001,43.4671404,-110.7918022
105,Buffalo Way,83001,43.4726167,-110.7891679
575,North Cache,83001,43.4885222,-110.7627118
330,West Pearl Avenue,83001,43.4782993,-110.7675620
260,North Millward Street,83001,43.4828990,-110.7646948
265,North Millward Street,83001,43.4828423,-110.7653174
242,Glenwood Street,83001,43.4825292,-110.7634791
295,North Millward Street,83001,43.4833917,-110.7653345
532,North Cache Street,83001,43.4820936,-110.7621300
220,North Millward Street,83001,43.4824310,-110.7647694
285,North Glenwood Street,83001,43.4829540,-110.7640277
215,North Cache Street,83001,43.4820663,-110.7627500
260,North Cache Street,83001,43.4828495,-110.7618257
475,North Cache Street,83001,43.4862777,-110.7627447
125,North Jackson Street,83001,43.4807002,-110.7667883
675,East Broadway Avenue,83001,43.4809374,-110.7485090
150,North Millward Street,83001,43.4811792,-110.7647080
190,North Cache Street,83001,43.4816286,-110.7619945
125,North Jackson Street,83001,43.4810384,-110.7666915
120,North Glenwood Street,83001,43.4806758,-110.7633717
155,North Glenwood Street,83001,43.4808769,-110.7640483
50,North Glenwood Street,83001,43.4799609,-110.7633567
325,East Broadway Avenue,83001,43.4799214,-110.7562749
55,North Glenwood Street,83001,43.4799565,-110.7639856
265,West Broadway Avenue,83001,43.4798471,-110.7659647
525,West Broadway,83001,43.4783025,-110.7710429
420,West Broadway,83001,43.4789127,-110.7686923
380,West Broadway Avenue,83001,43.4789809,-110.7678422
805,Dylan Drive,83001,43.4773833,-110.7447733
475,West Broadway,83001,43.4790313,-110.7703025
45,East Pearl Avenue,83001,43.4787929,-110.7617719
810,Dylan Drive,83001,43.4770985,-110.7448064
880,Wheatleigh Way,83001,43.4772258,-110.7430744
860,Wheatleigh Way,83001,43.4772227,-110.7434217
80,Scott Lane,83002,43.4731771,-110.7820095
400,Snow King Loop,83001,43.4736539,-110.7558237
1140,WY-22,83001,43.4740387,-110.7896655
145,East Snow King Avenue,83001,43.4735759,-110.7595563
150,Scott Lane,83001,43.4723514,-110.7819233
750,West Broadway Avenue,83001,43.4737284,-110.7784393
350,South Highway 89,83002,43.4710939,-110.7896530
1450,South Park Loop Road,83001,43.4600099,-110.8126244
600,South Highway 89,83001,43.4686987,-110.7913996
1155,South Highway 89,83001,43.4635728,-110.7942676
325,Blair Drive,83001,43.4647336,-110.8106977
115,Buffalo Way,83001,43.4723840,-110.7887546
625,Broadway,83001,43.4807798,-110.7506216
150,West Simpson Avenue,83001,43.4771950,-110.7644600
201,South Jackson Street,83001,43.4769553,-110.7671249
1910,High School Road,83001,43.4570125,-110.8003938
447,West Snow King Avenue,83001,43.4739933,-110.7682742
930,West Broadway Avenue,83001,43.4736223,-110.7837584
75,South Millward Street,83001,43.4787745,-110.7654495
1075,W Broadway,83001,43.4742351,-110.7878977
1195,Meadowlark Lane,83002,43.4684825,-110.7893606
70,S Jean Street,83001,43.4787938,-110.7564215
850,Wheatleigh Way,83001,43.4770217,-110.7436927
852,Wheatleigh Way,83001,43.4770231,-110.7435799
855A,Wheatleigh Way,83001,43.4774007,-110.7436766
855B,Wheatleigh Way,83001,43.4774276,-110.7435704
842,Wheatleigh Way,83001,43.4770259,-110.7438289
840,Wheatleigh Way,83001,43.4770253,-110.7439349
900,Wheatleigh Way,83001,43.4772211,-110.7427606
870,Wheatleigh Way,83001,43.4772188,-110.7432527
890,Wheatleigh Way,83001,43.4772220,-110.7428583
832,Wheatleigh Way,83001,43.4770188,-110.7441510
830,Wheatleigh Way,83001,43.4770196,-110.7442577
822,Dylan Drive,83001,43.4770732,-110.7443965
820,Dylan Drive,83001,43.4770737,-110.7445046
