House number,Street name,Postal code,Latitude,Longitude
1,ძმები კაკაბაძეების ქუჩა,0108,41.7034901,44.7899107
20,კოტე მარჯანიშვილის ქუჩა,0112,41.7096257,44.7968885
1,აბო თბილელის ქუჩა,0154,41.6910952,44.8039753
14,ირაკლი აბაშიძის ქუჩა,0179,41.7071377,44.7716718
321,ცოტნე დადიანის ქუჩა,0180,41.7501648,44.7907640
261,ცოტნე დადიანის ქუჩა,0180,41.7429087,44.7937947
1,ლადო გუდიაშვილის ქუჩა,0105,41.6954931,44.8017472
10,იაკობ ნიკოლაძის ქუჩა,0179,41.7095756,44.7823520
29,კრწანისის ქუჩა,0162,41.6746803,44.8176170
123,D. Agmashenebeli Ave.,0164,41.7138590,44.7943702
18,მიხეილ ზანდუკელის ქუჩა,0108,41.7041467,44.7877776
39/5,რამაზ ჩხიკვაძის ქუჩა,0186,41.7305179,44.7335155
7,კოტე მარჯანიშვილის ქუჩა,0102,41.7085097,44.7951319
44,შოთა რუსთაველის გამზირი,0108,41.7025766,44.7927637
90,ვაჟა-ფშაველას გამზირი,0186,41.7230244,44.7246575
23,სიმონ კანდელაკის ქუჩა,0160,41.7309742,44.7650698
10,T. Chovelidze Str.,0108,41.7048092,44.7869517
7,ლადო გუდიაშვილის ქუჩა,0107,41.6970330,44.8006793
16,M. Zandukeli Str.,0108,41.7047634,44.7868899
2,ზაარბრიუკენის მოედანი,0102,41.7028763,44.8041237
36,Victor Jorbenadze street,0103,41.6899065,44.8161662
3,რიჩარდ ჰოლბრუკის ქუჩა,0100,41.6793386,44.8374419
12,ამაღლების ქუჩა,0105,41.6897613,44.7952874
13,Elene Akhvlediani Gorge,0144,41.6979987,44.8111579
17,შავთელის ქუჩა,0105,41.6961674,44.8067992
5,სერგო ზაქარიაძის ქუჩა,0177,41.7279667,44.7480773
23,ილია ჭავჭავაძის გამზირი,0179,41.7105537,44.7691501
17a,Saburtalo str.,0160,41.7230070,44.7740048
3/5,არჩილ სულაკაურის ქუჩა,0171,41.7216383,44.7764325
8,Daraselia St,0160,41.7319074,44.7692843
7,ლვოვის ქუჩა,0160,41.7324686,44.7663474
1,ილო მოსაშვილის ქუჩა,0162,41.7103633,44.7588974
14,გიორგი ჭანთურიას ქუჩა,0108,41.7002544,44.8006855
8,გიორგი ქუჩიშვილის ქუჩა,0179,41.7085655,44.7832177
6,ნ. ბარათაშვილის გამზირი,0105,41.6967929,44.8048419
2,გაფრინდაულის ქუჩა,0154,41.7287380,44.7852900
4,გია ტეტელაშვილის ქუჩა,0102,41.7107996,44.7955791
19,U. Chkheidze St.,0102,41.7092987,44.7926353
9,ალექსანდრე ყაზბეგის გამზირი,0160,41.7266339,44.7662179
21,ილია ჭავჭავაძის გამზირი,0179,41.7096774,44.7692806
2,Dimitri Uznadze,0102,41.7040418,44.7993252
5,ლუბლიანას ქუჩა,0159,41.7750356,44.7759274
42,კოტე აფხაზის ქუჩა,0160,41.6902544,44.8082767
7ა,L. Pasteur St (ლ. პასტერის ქუჩა),0105,41.7135266,44.7916975
11,ეკა ბეჟანიშვილის ქუჩა,0192,41.7459851,44.7901845
18,კრწანისის ქუჩა,0114,41.6742691,44.8194286
1,თ. შეშელიძე,0153,41.7851448,44.7900471
11,ჯანსუღ კახიძის ქუჩა Jansugh Kakhidze street,0102,41.7121726,44.7935935
30,გრიბოედოვის ქუჩა,0108,41.7022593,44.7918760
127,nutsubidze,0183,41.7280724,44.7330571
4/1,ლეო კიაჩელის ქუჩა,0108,41.7049075,44.7909519
17,ინგოროყვას ქუჩა,0108,41.6958043,44.7962230
34,შოთა რუსთაველის გამზირი,0108,41.7015061,44.7938618
75g/2,მერაბ კოსტავას ქუჩა,0171,41.7213775,44.7796518
9,ნიკოლოზ ყიფშიძის ქუჩა,0162,41.7136243,44.7596013
12,ფეიქრების ქუჩა,0141,41.7745536,44.7859585
27,ტაშკენტის ქუჩა,0160,41.7287941,44.7636737
8,აკაკი ბელიაშვილის ქუჩა,0159,41.7795121,44.7816046
15,ნიკოლოზ ყიფშიძის ქუჩა,0162,41.7142740,44.7603982
98,ზაქარია ფალიაშვილის ქუჩა,0179,41.7095856,44.7566187
2/a,სანაპიროს ქუჩა,0105,41.6976594,44.8062819
2/а,სანაპიროს ქუჩა,0105,41.6976527,44.8063195
3,მეტეხის აღმართი,0103,41.6900643,44.8124984
12,გიორგი ქუჩიშვილის ქუჩა,0179,41.7088932,44.7829167
9A,ელენე ახვლედიანის აღმართი,0103,41.6970669,44.8104767
19,ინგოროყვას ქუჩა,0108,41.6958723,44.7961353
48,Lubliana street,0159,41.7756286,44.7740712
2,კრწანისის ქუჩა (Krtsanisi Str. ),0014,41.6774064,44.8252187
2,კრწანისის ქუჩა (Krtsanisi Str. ),0014,41.6774355,44.8252643
18,კუმისის ქუჩა,0102,41.7001462,44.8113685
25a,ალექსანდრე ყაზბეგის გამზირი,0160,41.7254847,44.7572257
26,გიორგი ჩიტაიას ქუჩა,0164,41.7165731,44.8021472
57,ალექსანდრე ყაზბეგის გამზირი,0101,41.7239366,44.7395368
41,ვერცხლის ქუჩა,0105,41.6955076,44.8034405
64,დავით გურამიშვილის გამზირი,0141,41.7669912,44.7903486
6/2,გიორგი მუხაძის ქუჩა (Giorgi Mukhadze St),0190,41.6939179,44.9242343
66,ზაქარია ფალიაშვილის ქუჩა,0179,41.7088437,44.7629078
5,Gorgasali IV Alley,0105,41.6873670,44.8171187
10,მახათას ქუჩა,0103,41.6941643,44.8178361
1,კობარეთის ქუჩა,0144,41.6926587,44.8255155
6a,ანა პოლიტკოვსკაიას ქუჩა,0186,41.7191527,44.7143993
15/27,ანტონ კათალიკოსის ქუჩა,01105,41.6928213,44.8049381
67,თამრიკო ჭოველიძის ქუჩა,0108,41.7011669,44.7829907
7,ლვოვის ქუჩა,00610,41.7321601,44.7587659
8,მცხეთის ქუჩა,0179,41.7062892,44.7734593
53,მიხეილ წინამძღვრიშვილის ქუჩა,0102,41.7080364,44.8021187
N8,მცხეთა ქუჩა,0179,41.7063109,44.7734025
N9,მცხეთის ქუჩა,0179,41.7065021,44.7726682
N8,მცხეთა ქუჩა,0179,41.7063056,44.7732407
8,მცხეთის ქუჩა,0179,41.7063402,44.7735964
N8,მცხეთა ქუჩა,0179,41.7063084,44.7731062
8,ვაშლოვანის ქუჩა,0108,41.7061734,44.7891115
2a,ვაჟა-ფშაველას გამზირი,0160,41.7273020,44.7679758
14,ირბახის ქუჩა,0103,41.6930983,44.8188680
3,ტელეგრაფის ჩიხი,0105,41.6989555,44.8047810
12კმ,დავით აღმაშენებლის ხეივანი,0131,41.7984279,44.7700199
75,ა. ბელიაშვილის ქ. (A. Beliashvili Str.),0159,41.7663431,44.7806169
15ა,ი. ხვიჩიას ქუჩა,0160,41.7236562,44.7754308
32,ელენე ახვლედიანის ხევი,0102,41.6990773,44.8118846
2,ა. თვალჭრელიძის ქუჩა,0182,41.6894349,44.8975624
4-2a,შ. ღამბაშიძის ქუჩა,0179,41.7085934,44.7845419
34,ილია ჭავჭავაძის გამზირი,0179,41.7087785,44.7699274
10,აეროდრომის დასახლების XIII ქუჩა,0182,41.6915704,44.8764906
46,მერაბ კოსტავას ქუჩა,0179,41.7096194,44.7844735
17,ერეკლე ტატიშვილის ქუჩა,0179,41.7059031,44.7837665
4,თავისუფლების მოედანი,0105,41.6940662,44.8007158
11,აფაქიძის ქუჩა,0171,41.7199684,44.7805534
27b,ადამ მიცკევიჩის ქუჩა,0194,41.7245025,44.7624006
4,ტაშკენტის ქუჩა,0160,41.7251096,44.7639142
4,ტაშკენტის ქუჩა,0160,41.7251795,44.7639069
12a,ალექსანდრე ყაზბეგის გამზირი,0160,41.7253214,44.7622558
12a,ალექსანდრე ყაზბეგის გამზირი,0160,41.7253585,44.7628673
12a,ალექსანდრე ყაზბეგის გამზირი,0160,41.7254145,44.7629639
10,გიორგი სააკაძის 1 გასასვლელი,0160,41.7245139,44.7801781
8,Givi Kartozia Street,0177,41.7222039,44.7497873
13,გომის ქუჩა,0105,41.6889639,44.8068201
5,ომარ ხიზანიშვილის ქუჩა,0167,41.7903481,44.8147908
18,უ. ჩხეიძის ქუჩა,0102,41.7080023,44.7954765
21,დავით კვაჭანტირაძის ქუჩა,0152,41.6938017,44.8582190
4/2,აკაკი წერეთლის გამზირი,0119,41.7248599,44.7899503
13,თევდორე მღვდლის ქუჩა,0112,41.7252912,44.7947460
4,Lekh Kachinski st,0144,41.6861962,44.8328812
150,დავით აღმაშენებლის გამზირი,0112,41.7169488,44.7916682
109,Mikheil Tsinamdzghvrishvili street,0164,41.7144906,44.7971127
5,ლუბლიანას ქუჩა,0159,41.7754422,44.7761273
3,სოხუმის ქუჩა,0154,41.7288905,44.7891355
82,შალვა ნუცუბიძის ქუჩა,0186,41.7265586,44.7302129
14,მიხეილ ასათიანის ქუჩა,0186,41.7287919,44.7496886
23,დავით გურამიშვილის გამზირი,0192,41.7657910,44.7911873
221-4,შალვა ნუცუბიძის ქუჩა,0186,41.7254753,44.7170009
221-4,შალვა ნუცუბიძის ქუჩა,0186,41.7254619,44.7168363
19,გიორგი მაზნიაშვილის ქუჩა,0102,41.7068347,44.8024408
15,კალოუბნის ქუჩა,0190,41.6888237,44.8770445
64,დავით გურამიშვილის გამზირი,0141,41.7680447,44.7909612
15,კალოუბნის ქუჩა,0192,41.6888919,44.8767844
16,კონსტანტინე ერისთავის ქუჩა,0103,41.6956540,44.8164184
83,ვაჟა-ფშაველას გამზირი,0186,41.7237707,44.7247322
8,ჯანსუღ კახიძის ქუჩა,0102,41.7117081,44.7941471
106,ჩარგლის ქუჩა,0179,41.7727006,44.8025210
4/6/8/10,ს. ჩიქოვანის ქუჩა,0172,41.7151394,44.7771972
124,აღმაშენებლის გამზირი,0102,41.7122431,44.7948809
10,ბაჩანას ქუჩა,0103,41.6953000,44.8137522
32,მესხიშვილის ქუჩა,0103,41.6954899,44.8141679
3/5,კ ჩოლოყაშვილის გამზირი,0162,41.7128187,44.7493628
6,გუჯარეთის ქუჩა,0144,41.6925691,44.8319526
64,დავით გურამიშვილის გამზირი,0141,41.7669508,44.7901244
15/27,ანტონ კათალიკოსის ქუჩა,0105,41.6928826,44.8050244
17,ლევან მიქელაძის ქუჩა,0162,41.7121316,44.7580441
22,ილია ჭავჭავაძის გამზირი,0179,41.7086452,44.7741686
83,ლვოვის ქუჩა,0610,41.7315471,44.7571592
N8,მცხეთა ქუჩა,0179,41.7062923,44.7735479
6,რამაზ ჩხიკვაძის ქუჩა,0183,41.7285338,44.7337544
2,ვერცხლის ქუჩა,0105,41.6957552,44.8029958
2,სადგურის მოედანი,0102,41.7221450,44.7982739
0,გროზნოს ქუჩა,0100,41.7158232,44.8046473
2/6,აბანოს ქუჩა,0105,41.6870593,44.8104011
4,ნოდარ ბოხუას ქუჩა,0159,41.7796469,44.7810310
76/1,დავით აღმაშენებლის გამზირი,0102,41.7079039,44.7983425
21,თორნიკე ერისთავის ქუჩა,0180,41.7498607,44.7824749
4,ბეთლემის აღმართი,0105,41.6894685,44.8042230
11,გიგა ლორთქიფანიძის ქუჩა,0105,41.6911257,44.7970928
4,ვახტანგ გორგასლის ქუჩა,0114,41.6814120,44.8241206
21,ამაღლების ქუჩა,0105,41.6899174,44.7935248
29,ბოჭორმის ქუჩა,0144,41.6854114,44.8324460
141a,აკაკი წერეთლის გამზირი,0119,41.7473725,44.7780768
8,ეგნატე ნინოშვილის ქუჩა,0102,41.7095131,44.8025001
3,Tkviavi Dead End,0102,41.7034623,44.8046261
24,Grigol Feradze I turn,0159,41.8014103,44.7768864
21,რევაზ თაბუკაშვილის ქუჩა,0108,41.7004710,44.7985766
36,პეკინის გამზირი,0160,41.7270724,44.7683748
15,რაფიელ აგლაძის ქუჩა,0154,41.7295384,44.7833114
28,ბახტრიონის ქუჩა,0186,41.7195551,44.7605075
80,ზაქარია ფალიაშვილის ქუჩა,0179,41.7092408,44.7600597
8,ვახტანგ გორგასლის ქუჩა,0114,41.6811073,44.8250953
39,პეკინის გამზირი,0160,41.7285405,44.7682785
95,აკაკი წერეთლის გამზირი,0119,41.7404412,44.7804185
315,ცოტნე დადიანის ქუჩა,0180,41.7490363,44.7913904
39,დავით გურამიშვილის გამზირი,0178,41.7769237,44.7960507
84/86,ქეთევან დედოფლის გამზირი,0144,41.6872377,44.8338487
4,ბესიკის,0108,41.6985757,44.7966747
85ა,მიხეილ წინამძღვრიშვილის ქუჩა,0164,41.7120105,44.7989934
7,გიორგი ლეონიძის ქუჩა,0105,41.6928241,44.7988827
57,აკაკი წერეთლის გამზირი,0160,41.7319180,44.7853928
6ა,ვუკოლ ბერიძის ქუჩა,0108,41.6942187,44.7955556
16,კოტე მარჯანიშვილის ქუჩა,0102,41.7095850,44.7949772
12b,ალექსანდრე ყაზბეგის გამზირი,0160,41.7257071,44.7624403
53,მიხეილ წინამძღვრიშვილის ქუჩა,0102,41.7080789,44.8018151
37,ივანე ჯავახიშვილის ქუჩა,0102,41.7075290,44.8033078
120,დავით აღმაშენებლის გამზირი,0112,41.7116547,44.7950342
25,გიორგი ჭყონდიდელის ქუჩა,0180,41.7397184,44.7927625
5,ნოდარ ბოხუას ქუჩა,0159,41.7796380,44.7803800
2,ივანე მაჩაბლის ქუჩა,0105,41.6923782,44.7999618
7,მესხიშვილის ქუჩა,0103,41.6958005,44.8140553
4,პავლე ინგოროყვას ქუჩა,0105,41.6926470,44.7982106
2,პავლე ინგოროყვას ქუჩა,0105,41.6926132,44.7982387
5a,სოფრომ მგალობლიშვილის ქუჩა,0160,41.7334375,44.7671920
38,ეგნატე ნინოშვილის ქუჩა,0103,41.7140619,44.7995751
68,ანდრია რაზმაძეს ქუჩა,0162,41.7074116,44.7578012
01,ზღვის უბანი 4 მრ/4კვ.,0164,41.7844001,44.8109456
4,ნოდარ ბოხუას ქუჩა,0159,41.7797459,44.7799356
121,აკაკი წერეთლის გამზირი,0154,41.7467312,44.7780896
48,გიორგი მარუაშვილის ქუჩა,0101,41.7216794,44.8090975
15,ალექსანდრე დიუმას ქუჩა,0119,41.6945058,44.8032262
35/37,ჟიული შარტავას ქუჩა,0160,41.7289762,44.7719259
35/37,ჟიული შარტავას ქუჩა,0160,41.7287927,44.7720002
35/37,ჟიული შარტავას ქუჩა,0160,41.7289403,44.7718380
1,გერონტი ქიქოძის ქუჩა,0105,41.6919690,44.7982208
32,შორაპნის ქუჩა,0144,41.6880937,44.8382595
12,ანტონ ფურცელაძის ქუჩა,1234,41.6975198,44.8006595
48,გიორგი მარუაშვილის ქუჩა,0101,41.7216216,44.8091905
21,ილია ჭავჭავაძის გამზირი,0179,41.7096300,44.7695180
3,დავით აღმაშენებლის ქუჩა,0114,41.6317744,44.9184090
24,გრიშაშვილის ქუჩა,0105,41.6877044,44.8125387
9,Saint Petersburg str.,0102,41.7083608,44.7962929
24,ვაჟა-ფშაველას გამზირი,0186,41.7226811,44.7257334
24,ვაჟა-ფშაველას გამზ (Vazha-Pshavela Ave),0186,41.7226899,44.7256928
1,სულთნიშანის ქუჩა,0105,41.6940243,44.8055647
12,8 of March Street,0105,41.7010253,44.7899681
30,ხოშარაულის ქუჩა,0119,41.7322060,44.7800647
3,ვაშლოვანის ქუჩა,0107,41.7061218,44.7886886
13,იოანე შავთელის დაღმართი,0105,41.6950891,44.8073073
22,ინგოროყვას ქუჩა,0108,41.6957973,44.7959440
13,სოფრომ მგალობლიშვილის ქუჩა,0160,41.7346341,44.7672787
46,ირაკლი აბაშიძის ქუჩა,0179,41.7079764,44.7613547
9,"9 Haidar Abashidze St, Tbilisi, 0160",0160,41.7327198,44.7613299
23,პაოლო იაშვილის ქუჩა,0105,41.6897049,44.7972399
73,ვაჟა-ფშაველას გამზირი,0186,41.7241880,44.7291016
3,მეტეხის აღმართი,0103,41.6900655,44.8123488
4,ბესიკის ქუჩა,0108,41.6986684,44.7969085
37,ილია ჭავჭავაძის გამზირი,0162,41.7119728,44.7567913
160,ცოტნე დადიანის ქუჩა,0180,41.7464666,44.7918535
11,გრიშაშვილის ქუჩა,0105,41.6875007,44.8112382
77,შალვა ნუცუბიძის ქუჩა,0186,41.7276841,44.7412718
9,ა. ჭავჭავაძის ქუჩა,0186,41.7000716,44.7934091
129,შალვა ნუცუბიძის ქუჩა,0186,41.7279265,44.7324871
72/25,ვიქტორ კუპრაძის ქუჩა,0163,41.7126309,44.8765394
1,შიო ჩიტაძის ქუჩა,0801,41.6954171,44.7959158
20,გრიგოლ ხანძთელის ქუჩა,0117,41.6914547,44.8061344
23,ჰოვანეს თუმანიანის ქუჩა,0112,41.6897680,44.8086220
8,ბზიფის შეს.,0144,41.6968898,44.8236293
23,დავით გურამიშვილის გამზირი,0192,41.7659647,44.7904193
U8,2 Tvalchrelidze St.,102,41.6895208,44.8981585
1,სერგი ჯიქიას ქუჩა,0190,41.6880985,44.8544541
40,Shota Rustaveli Ave,0108,41.7020100,44.7937415
"3, корпус 1",გიორგი აბაშვილის ქუჩა,0182,41.6868229,44.8907611
1,მ. მაჭავარიანის ქუჩა,0177,41.7376764,44.7524617
37,კნოლევის ქუჩა,0192,41.7505918,44.7938868
1,გრიგოლ ხანძთელის ქუჩა,0105,41.6920727,44.8051998
23,კოშკოვანის ქუჩა,0144,41.6904950,44.8350541
4,თავისუფლების მოედანი,0105,41.6940237,44.8007697
5კვარტალი 2კორპუსი,მოსკოვის გამზირი,3701,41.6702494,44.8869846
8,ამაღლების ქუჩა,0105,41.6899706,44.7962390
15,ალექსანდრე პუშკინის ქუჩა,0105,41.6945413,44.8024946
3/16,ანა პოლიტკოვსკაიას ქუჩა,0186,41.7216975,44.7146153
4,ივანე იუმაშევის ქუჩა,0151,41.6921214,44.9619225
3,ლესია უკრაინკას ქუჩა,0108,41.6979910,44.7972620
187A,შალვა ნუცუბიძის ქუჩა,0186,41.7263849,44.7242068
44,"შერმადინის ქუჩა, Shermadini street",0159,41.7789892,44.7547963
4,გიგა ლორთქიფანიძის ქუჩა,0105,41.6910530,44.7991792
6,ბოგდან ხმელნიცკის ქუჩა,0136,41.6702949,44.8756772
6,გიორგი ლეონიძის ქუჩა,0105,41.6923961,44.7996529
76-G,ილია ჭავჭავაძის გამზირი,1062,41.7095619,44.7422341
44,კოტე აფხაზის ქუჩა,0105,41.6902108,44.8086139
8ა,მწვანე ქუჩა,0167,41.7984809,44.8352889
10,მწვანე ქუჩა,0167,41.7982024,44.8350320
5,მწვანე ქუჩა,0167,41.7982146,44.8347378
12ა,მწვანე ქუჩა,0167,41.7981363,44.8354243
14,მწვანე ქუჩა,0167,41.7979030,44.8350787
14ა,მწვანე ქუჩა,0167,41.7979953,44.8355784
20,მწვანე ქუჩა,0167,41.7975949,44.8357209
13,მწვანე ქუჩა,0167,41.7970257,44.8351791
32,ნიკოლოზ გოცირიძის ქუჩა,0102,41.7097416,44.8048045
50/18,ქეთევან დედოფლის გამზირი,0182,41.6869922,44.8329161
27,რევაზ თაბუკაშვილის ქუჩა,0108,41.7019829,44.7966606
2,ნუცუბიძის პლატო 2 მ/რ,0183,41.7291318,44.7278909
11,"T, 11 Abel Enukidze Street, Tbilisi, bilisi",0137,41.6793914,44.9078166
27,თიანეთის ქუჩა,0182,41.6939832,44.8782287
27b,ვაჟა-ფშაველას გამზირი,0160,41.7289066,44.7583788
71,ვაჟა-ფშაველას გამზირი,0186,41.7244131,44.7298976
26,შოთა რუსთაველის გამზირი,0108,41.7002776,44.7952439
78,დიმიტრი უზნაძის ქუჩა,46000,41.7137755,44.7913112
110,აკაკი წერეთლის გამზირი,0119,41.7354724,44.7824149
38,ზოვრეთის ქუჩა,0160,41.7326514,44.7633431
2/6,ლუბლიანას ქუჩა,0159,41.7732249,44.7762808
20,თამარ მეფის გამზირი,0102,41.7203766,44.7959942
20,მიხეილ ბურძგლას ქუჩა,0150,41.7231649,44.7643696
22,ვახტანგ გორგასლის ქუჩა,0114,41.6778442,44.8264369
39a,ზაქარია ფალიაშვილის ქუჩა,0179,41.7088630,44.7660752
4ა,ალექსანდრე ყაზბეგის გამზირი,0160,41.7255406,44.7663413
25,ბეთლემის ქუჩა,0105,41.6892447,44.8075987
70b,Beliashvili Str.,0159,41.7713599,44.7777597
10,Shalva Ghambashidze,0179,41.7082588,44.7839018
6,ჯანო ბაგრატიონის ქუჩა,0160,41.7251361,44.7659497
2,Ketevan Dedoflis,0103,41.6927100,44.8160492
78,დავით აღმაშენებლის გამზირი,0102,41.7080926,44.7981880
5,გერონტი ქიქოძის ქუჩა,0105,41.6915727,44.7983459
59,მერაბ კოსტავას ქუჩა,0179,41.7118234,44.7843227
6,ნოდარ ბოხუას ქუჩა,0159,41.7794293,44.7799631
39,რამაზ ჩხიკვაძის ქუჩა,0186,41.7305297,44.7336305
33a,ალექსანდრე ყაზბეგის გამზირი,0177,41.7251381,44.7498965
22,სიმონ ჯანაშიას ქუჩა,0178,41.7059923,44.7815608
7,ოთარი თაქთაქიშვილის ქუჩა,0162,41.7087371,44.7646129
49,ირაკლი აბაშიძის ქუჩა,0162,41.7084032,44.7601296
34,ლადო ასათიანი ქუჩა,0105,41.6895661,44.8010060
16,ერეკლე ტატიშვილის ქუჩა,0179,41.7059760,44.7841139
6,ლ. კავსაძის ქუჩა,0179,41.7099645,44.7619437
4,მოსე თოიძის ქუჩა,0102,41.7036858,44.8081626
15,Tskneti Hwy,0162,41.7092683,44.7338754
28,პეტრიაშვილის ქუჩა,0179,41.7055970,44.7795501
10,გიორგი ახვლედიანის ქუჩა,0108,41.7055603,44.7899974
11 A,ალეკო გობრონიძის ქუჩა,0167,41.7873019,44.8188067
1,ილია ვეკუას ქუჩა,0167,41.7894189,44.8146190
1,ილია ვეკუას ქუჩა,0167,41.7898714,44.8147740
4,თამრიკო ჭოველიძის ქუჩა,0179,41.7046640,44.7874384
4,თამრიკო ჭოველიძის ქუჩა,0179,41.7046381,44.7871914
7/7,მიხეილ წინამძღვრიშვილის ქუჩა,0102,41.7033751,44.8055199
19,ფარნავაზ მეფის გამზირი,0131,41.7929990,44.7663748
22,გიორგი ახვლედიანის ქუჩა,0108,41.7068266,44.7886926
19,გვაზაურის II ჩიხი,0192,41.7562082,44.7929316
2b,იოანე პეტრიწის ქუჩა,0131,41.7923313,44.7636329
24,ბახტრიონის ქუჩა,0194,41.7198599,44.7633876
37,სულხან ცინცაძის ქუჩა,0160,41.7221464,44.7676541
26,Sulkhan Tsintsadze,0160,41.7212836,44.7647020
14ბ,პეტრე ქავთარაძის ქუჩა,0186,41.7211619,44.7372401
14ა,პეტრე ქავთარაძის ქუჩა,0186,41.7213341,44.7368458
6ვ/ა,ქერჩის ქუჩა,0167,41.7954486,44.8090063
8,როდენის ქუჩა,0179,41.7090440,44.7821306
160,დავით აღმაშენებლის ხეივანი,0131,41.7818605,44.7684468
8,დოდო აბაშიძის ქუჩა,0102,41.7070535,44.7971061
164,ცოტნე დადიანის ქუჩა,0180,41.7480849,44.7890974
10,სოლიკო ვირსალაძის ქუჩა,0108,41.7014559,44.7999211
20,გიორგი ათონელის ქუჩა,0105,41.6986267,44.8031477
6,რამაზ ჩხიკვაძის ქუჩა,0183,41.7285318,44.7337707
6,რამაზ ჩხიკვაძის ქუჩა,0183,41.7285332,44.7337911
41,Pekini Ave,0160,41.7307385,44.7678772
15ა,ბეჟან კალანდაძის ქუჩა,0114,41.6803552,44.8190514
33,კოტე აფხაზის ქუჩა,0105,41.6918811,44.8064110
12,ქუთაისის ქუჩა,0154,41.7268610,44.7843302
6-8,ბორბალოს ქუჩა,0108,41.6998161,44.7909119
36,საინგილოს ქუჩა,0411,41.6981009,44.8207200
1,ტარას შევჩენკოს ქუჩა,0108,41.6972077,44.7971761
2,გრიბოედოვის ქუჩა,0108,41.6987793,44.7961649
2,Beri Gabriel Salosi I Turn,0113,41.6768047,44.8499053
7,პავლე ასლანიდის ქუჩა,0171,41.7183696,44.7798744
60,Irakli Abashidze Street,0162,41.7082150,44.7586476
19,Ilia Chavchavadze Avenue,0179,41.7095827,44.7698154
14,შალვა რადიანის ქუჩა,0179,41.7063231,44.7685766
12a,Bochorma st.,0144,41.6866030,44.8286510
5,იური გაგარინის ქუჩა,0160,41.7326233,44.7689848
3,ფერისცვალების შესახვევი,0103,41.6917338,44.8133955
3,ორპირის ჩიხი,0114,41.6885437,44.8086131
9,ეკა ბეჟანიშვილის ქუჩა,0180,41.7458613,44.7894243
13,ქეთევან დედოფლის გამზირი,0103,41.6910993,44.8162717
24ა,გლდანი 2,0178,41.7946820,44.8168384
2,პოლიკარპე კაკაბაძის ქუჩა,0105,41.6966216,44.7913604
37,ილია ჭავჭავაძის გამზირი,0179,41.7115258,44.7569240
37,მ. ჯავახიშვილის ქუჩა,0108,41.7042597,44.7922127
315,ცოტნე დადიანის ქუჩა,0180,41.7487633,44.7916431
27,დავით აღმაშენებლის გამზირი,0102,41.7037407,44.8029716
34,პეკინის გამზირი,0160,41.7260452,44.7692403
59,მერაბ კოსტავას ქუჩა,0179,41.7115153,44.7840966
14,ზურაბ ანჯაფარიძის ქუჩა,0186,41.7202018,44.7174249
73A,დავით აღმაშენებლის გამზირი,0102,41.7090760,44.7997193
9,ეკა ბეჟანიშვილის ქუჩა,0180,41.7459140,44.7897483
305,ცოტნე დადიანის ქუჩა,0180,41.7469506,44.7921708
305,ცოტნე დადიანის ქუჩა,0180,41.7468586,44.7922016
305,ცოტნე დადიანის ქუჩა,0180,41.7470048,44.7921379
18,სევანის ქუჩა,0160,41.6931415,44.8179956
36а,კალოუბნის ქუჩა,0182,41.6883857,44.8862730
9,ლეო კიაჩელის ქუჩა (Leo Kiacheli Street),0108,41.7063446,44.7903963
26,თორნიკე ერისთავის ქუჩა,0180,41.7502846,44.7831249
1,შალვა რადიანის ქუჩა,0169,41.7069555,44.7698058
2/6,ლუბლიანას ქუჩა,0159,41.7727151,44.7766531
3,იერუსალიმის ქუჩა,0105,41.6904962,44.8067277
37,პეტრე ქავთარაძის ქუჩა,0186,41.7209458,44.7255887
78A,ვაჟა-ფშაველას გამზირი,0186,41.7235882,44.7307672
1,თორნიკე ერისთავის ქუჩა,0180,41.7501821,44.7855460
152,ცოტნე დადიანის ქუჩა,0180,41.7440585,44.7929123
154,ცოტნე დადიანის ქუჩა,0180,41.7445899,44.7926850
56,გიორგი ჭყონდიდელის ქუჩა,0180,41.7447544,44.7873237
42ა,გიორგი ჭყონდიდელის ქუჩა,0180,41.7416289,44.7907565
261,ცოტნე დადიანის ქუჩა,0180,41.7429973,44.7937669
261,ცოტნე დადიანის ქუჩა,0180,41.7431610,44.7937155
1,მტკვარის ქუჩა,0105,41.6979649,44.8046108
3,ლადო კავსაძის ქუჩა,0179,41.7102917,44.7609451
15,ალექსანდრე ყაზბეგის გამზირი,0160,41.7261446,44.7626354
39,უნივერსიტეტის ქუჩა,0186,41.7177187,44.7189614
2,ნიკა ნიკოლაძის ქუჩა,0108,41.7072421,44.7891984
17,გიორგი ათონელის ქუჩა,0105,41.6986918,44.8033304
4,სიმონ ჯანაშიას ქუჩა,0179,41.7074309,44.7821904
16,მიხეილ გახოკიძის ქუჩა,0182,41.6916578,44.8913965
3,თენგიზ ჩანტლაძის ქუჩა,0109,41.6918936,44.9273837
3,თენგიზ ჩანტლაძის ქუჩა,0109,41.6916934,44.9273475
84/86,წმინდა ქეთევან დედოფლის გამზირი,0144,41.6872338,44.8335862
17,მცხეთის ქუჩა,0179,41.7063251,44.7718155
18,Vedzatkhevi Street,0102,41.7053903,44.8088678
41,ისნის ქუჩა,0103,41.6907048,44.8155814
43,დავით აღმაშენებლის გამზირი,0100,41.7046921,44.8018130
14,სიმონ კანდელაკის ქუჩა,0160,41.7303214,44.7618254
305,ცოტნე დადიანის ქუჩა,0180,41.7469181,44.7921848
102,ვაჟა-ფშაველას გამზირი,0162,41.7225493,44.7194969
51-53,ვახტანგ გორგასლის ქუჩა,0114,41.6797321,44.8242955
78,აკაკი წერეთლის გამზირი,0119,41.7339025,44.7831908
99,აკაკი ბელიაშვილის ქუჩა,0159,41.7710900,44.7796449
59,გიორგი ჩუბინაშვილის ქუჩა,0105,41.7178204,44.7985057
11,ბეთლემის ქუჩა,0105,41.6893542,44.8062618
44/2ბ,J. Shartava,0160,41.7309954,44.7688214
23,უშანგი ჩხეიძის ქუჩა,0102,41.7088692,44.7929963
12,პლატონ იოსელიანის ქუჩა,0162,41.7161074,44.7748091
17,ნიკიფორე ირბახის ქუჩა,0155,41.6921921,44.8209650
7,პეტრე მელიქიშვილის გამზირი,0108,41.7079673,44.7839388
13,მეფე მირიანის ქუჩა,0159,41.7878240,44.7577751
64,წმინდა ქეთევან დედოფლის გამზირი,0144,41.6876015,44.8295922
53ა,ვასილ ბარნოვის ქუჩა,0108,41.7052422,44.7816145
21,ნუგზარ შატაიძის ქუჩა,0114,41.6832482,44.8212191
31,არნოლდ ჩიქობავას ქუჩა,0102,41.7069890,44.8054461
57,Arnold Chikobava Street,0102,41.7097501,44.8041814
10,ალექსანდრე პუშკინის ქუჩა,0105,41.6962941,44.8028144
17,ნიკიფორე ირბახის ქუჩა,0155,41.6922385,44.8214378
51,პოლიკარპე კაკაბაძის ქუჩა,0108,41.7015044,44.7869625
9,ვუკოლ ბერიძის ქუჩა,0108,41.6945326,44.7959615
2a,Tskneti Str,0162,41.7138041,44.7500312
57,Arnold Chikoba Street,0101,41.7188911,44.8023709
14a,ელგუჯა ამაშუკელის ქუჩა,0162,41.7325649,44.7386745
3,მარტყოფის ქუჩა,0103,41.6935684,44.8189911
1,მარტყოფის ქუჩა,0103,41.6932760,44.8187605
17,ზაქარია ფალიაშვილის ქუჩა,0179,41.7081643,44.7744611
31,კოტე აფხაზის ქუჩა,0162,41.6919256,44.8059677
3,ლადო კავსაძის ქუჩა,0162,41.7097353,44.7614618
11,Levan Mikeladze street,0162,41.7120027,44.7590586
24,კრწანისის ქუჩა,0114,41.6744224,44.8185695
58/5,ზაქარია ფალიაშვილის ქუჩა,7002,41.7087612,44.7645755
5,ბესიკის შესახვევი,0108,41.6960690,44.7933441
7,კრწანისის ქუჩა,0114,41.6758733,44.8233982
18,Abashidze,0179,41.7071311,44.7705515
90,არჩილ ცაგარელის ქუჩა,0160,41.7234662,44.7610205
12,მერაბ ალექსიძის ქუჩა,0171,41.7171586,44.7853415
106,აკაკი ბელიაშვილის ქუჩა,0159,41.7797465,44.7805808
13,თევდორე მღვდლის ქუჩა,1102,41.7259333,44.7944412
12,შალვა ნუცუბიძის ქუჩა,0177,41.7297435,44.7558393
51,არჩილ ცაგარელის ქუჩა,0194,41.7237770,44.7621704
4,კონსტიტუციის ქუჩა,0112,41.7167071,44.7977105
4,სიმონ ჩიქოვანის ქუჩა,0171,41.7151976,44.7772852
1,გომის ქუჩა,0105,41.6891287,44.8058029
17,გიორგი ათონელის ქუჩა,0105,41.6987543,44.8035746
63,მაიორ შალვა დოლიძის ქუჩა,0162,41.6756184,44.8520532
8,სერგო ზაქარიაძის ქუჩა,0177,41.7275973,44.7475678
14a,ელგუჯა ამაშუკელის ქუჩა,0162,41.7325480,44.7385838
2,აკაკი წერეთლის გამზირი,0112,41.7222407,44.7905090
8,ისნის ქუჩა,0041,41.6911888,44.8132728
58,აკაკი წერეთლის გამზირი,0119,41.7316116,44.7850882
105,Akaki Tsereteli Avenue,0119,41.7427695,44.7796828
6a,ვახტანგ ჭაბუკიანის ქუჩა,0160,41.7234307,44.7757386
15,მიხეილ ზანდუკელის ქუჩა,1079,41.7043128,44.7864613
64ბ,ილია ჭავჭავაძის გამზირი,0179,41.7107825,44.7577214
5,ნიკოლოზ გოგოლის ქუჩა,0112,41.7180863,44.7995385
8,ისნის ქუჩა,0041,41.6911794,44.8134148
57,ილია ჭავჭავაძის გამზირი,0162,41.7099997,44.7416368
65,რამაზის ქუჩა,0159,41.7839091,44.7499872
88,ეროსი მანჯგალაძის ქუჩა,0163,41.7322303,44.7979043
8,ბესარიონ ჟღენტის ქუჩა,0183,41.7273200,44.7235086
33,აკაკი შანიძის ქუჩა,0179,41.7048914,44.7798951
3/11,ანა პოლიტკოვსკაიას ქუჩა,0168,41.7207301,44.7135311
1,ვაგან მამასახლისოვის ქუჩა,0186,41.7191415,44.7188570
53,პეტრე ქავთარაძის ქუჩა,0186,41.7204739,44.7184176
51,პეტრე ქავთარაძის ქუჩა,0186,41.7205374,44.7192441
49,პეტრე ქავთარაძის ქუჩა,0186,41.7206158,44.7199147
47,პეტრე ქავთარაძის ქუჩა,0186,41.7206730,44.7206007
45,პეტრე ქავთარაძის ქუჩა,0186,41.7207486,44.7212683
43,პეტრე ქავთარაძის ქუჩა,0186,41.7207759,44.7218827
41,პეტრე ქავთარაძის ქუჩა,0186,41.7208471,44.7226835
52,შალვა ნუცუბიძის ქუჩა,0186,41.7281571,44.7433386
72,ვაჟა-ფშაველას გამზირი,0186,41.7236369,44.7341341
39,პეტრე ქავთარაძის ქუჩა,0186,41.7211289,44.7239309
76,ვაჟა-ფშაველას გამზ,0186,41.7234790,44.7316821
76,შალვა ნუცუბიძის ქუჩა,0186,41.7267292,44.7328468
62,შალვა ნუცუბიძის ქუჩა,0186,41.7273933,44.7396993
56,შალვა ნუცუბიძის ქუჩა,0186,41.7276097,44.7419630
54,შალვა ნუცუბიძის ქუჩა,0186,41.7279357,44.7426209
77b,შალვა ნუცუბიძის ქუჩა,0186,41.7282725,44.7404454
1,ანა პოლიტკოვსკაიას ქუჩა,0186,41.7205613,44.7155822
57,ანა პოლიტკოვსკაიას ქუჩა,0186,41.7223744,44.7039281
61,ანა პოლიტკოვსკაიას ქუჩა,0186,41.7220315,44.7041243
83,სულხან ცინცაძის ქუჩა,0160,41.7216186,44.7588002
85,სულხან ცინცაძის ქუჩა,0160,41.7215483,44.7576011
11,ზაზა ფანასკერტელ-ციციშვილის ქუჩა,0194,41.7195844,44.7689333
24,ბახტრიონის ქუჩა,0160,41.7198577,44.7637998
150,დავით აღმაშენებლის გამზირი,0112,41.7171811,44.7904529
3,"Nutsubidze Plato, 3 M/R, 4 Block Road.",0183,41.7314806,44.7351867
43,ილია ჭავჭავაძის გამზირი,0162,41.7122871,44.7506488
1,"Nutsubidze Plato 3 M/R, block 4",0183,41.7316354,44.7361482
4,სერგო ზაქარიაძის ქუჩა,0177,41.7276064,44.7486638
14,ზურაბ ანჯაფარიძის ქუჩა,0186,41.7202032,44.7174421
2,ნ. ბარათაშვილის გამზირი,0114,41.6968001,44.8040675
81,სულხან ცინცაძის ქუჩა,0160,41.7215510,44.7598495
68ა,მერაბ კოსტავას ქუჩა,0171,41.7151952,44.7782584
34,ბახტრიონის ქუჩა,0160,41.7204647,44.7628255
6,უნივერსიტეტის ქუჩა,0186,41.7184843,44.7389003
1,დები იშხნელების ქუჩა,0160,41.7289901,44.7698212
3,ლევან გოთუას ქუჩა,0162,41.7317747,44.7736904
4,ზედაზენის ქუჩა,0180,41.7443899,44.7954677
152,ცოტნე დადიანის ქუჩა,0180,41.7439791,44.7926736
144,აკაკი წერეთლის გამზირი,0119,41.7507191,44.7769987
7,რევაზ თაბუკაშვილის ქუჩა Revaz Tabukashvili street,0105,41.6985554,44.8009986
6,უნივერსიტეტის ქუჩა,0186,41.7174955,44.7349078
3,უნივერსიტეტის I შესახვევი,0186,41.7197649,44.7355617
20,გენერალ კვინიტაძის ქუჩა,0112,41.7162912,44.7893993
17ა,ილია ჭავჭავაძის გამზირი,0179,41.7106872,44.7711201
35,წყნეთის გზატკეცილი,0179,41.7106096,44.7298500
123ა,დავით აღმაშენებლის გამზირი,0164,41.7142574,44.7947284
6,ია კარგარეთელის ქუჩა,0108,41.7158725,44.7942896
96,ქეთევან დედოფლის გამზირი,0114,41.6871723,44.8405575
4,ექიმის გასასვლელი,0113,41.6838526,44.8426945
2,ექიმის გასასვლელი,0113,41.6843288,44.8427377
2,მერაბ ალექსიძის I შესახვევი,0193,41.7156650,44.7819114
24ა,სიმონ ჩიქოვანის ქუჩა,0179,41.7145795,44.7705254
46,თენგიზ ჩანტლაძის ქუჩა,0190,41.7049368,44.9328224
12,გიორგი მუხაძის ქუჩა,0190,41.6964526,44.9217472
64,დავით გურამიშვილის გამზირი,0141,41.7686345,44.7892962
1,გიორგი ბრწყინვალეს ქუჩა,0131,41.7894113,44.7629333
2,ზეზვა გაფრინდაულის ქუჩა,0154,41.7289607,44.7851784
1,ვარკეთილის ზემო პლატო II მ/რ,0163,41.6973910,44.8721619
64,დავით გურამიშვილის გამზირი,0141,41.7688204,44.7885932
6,ნოდარ ბოხუას ქუჩა,0159,41.7792918,44.7802243
13,ლუბლიანას ქუჩა,0159,41.7727033,44.7754606
2/6,ლუბლიანას ქუჩა,0159,41.7728345,44.7765915
7,კონსტანტინე ჩაჩავას ქუჩა,0159,41.7745359,44.7794563
64,დავით გურამიშვილის გამზირი,0141,41.7672635,44.7892266
83,ბესარიონ ჟღენტის ქუჩა,0183,41.7304874,44.7260228
4,ნინო ჟვანიას ქუჩა,0179,41.7030236,44.7745234
14,მიხეილ ასათიანის ქუჩა,0186,41.7287403,44.7494845
30,შალვა ნუცუბიძის ქუჩა,0177,41.7291494,44.7502376
2,დავით ახმაშენებლის ხეივანი,0131,41.7974189,44.7739299
1,26 მაისის მოედანი,0171,41.7188065,44.7788623
64,დავით გურამიშვილის გამზირი,0141,41.7701315,44.7895263
8,არზაყან ემუხვარის ქუჩა,0159,41.7535405,44.7584590
29,ჯორჯ ბალანჩინის ქუჩა,0131,41.7884819,44.7761682
64,დავით გურამიშვილის გამზირი,0141,41.7695605,44.7891124
26,შალვა ნუცუბიძის ქუჩა,0177,41.7291306,44.7513438
61,სულხან ცინცაძის ქუჩა,0160,41.7216495,44.7637085
7,ალეკსი გობრონიძის ქუჩა,0167,41.7885801,44.8172970
7,ალეკსი გობრონიძის ქუჩა,0167,41.7886291,44.8178528
17ა,გლდანის VII მკრ. (Gldani 7th. District),0107,41.8043414,44.8385884
17ბ,გლდანის VII მკრ. (Gldani 7th. District),0107,41.8051145,44.8390669
17ვ,გლდანის VII მკრ. (Gldani 7th. District),0107,41.8058890,44.8395534
10a,ალექსანდრე ყაზბეგის გამზირი,0160,41.7254921,44.7650357
8a,ალექსანდრე ყაზბეგის გამზირი,0160,41.7255153,44.7657774
4a,ალექსანდრე ყაზბეგის გამზირი,0160,41.7255976,44.7666962
16,სულხან ცინცაძის ქუჩა,0160,41.7215796,44.7681410
38,არჩილ ცაგარელის ქუჩა,0194,41.7234300,44.7659097
21,ვიქტორ დოლიძის ქუჩა,0171,41.7171103,44.7701735
40,მელიტონ და ანდრია ბალანჩივაძეების ქუჩა,0171,41.7153432,44.7706125
3,ზაზა ბენდელიანის ქუჩა,0171,41.7150075,44.7809958
9,ილო მოსაშვილის ქუჩა,0179,41.7106940,44.7558326
1,ვასილ პეტრიაშვილის ქუჩა,1079,41.7083495,44.7804485
18ა,ატენის ქუჩა,0179,41.7103223,44.7747865
3,ლარსის შესახვევი,0179,41.7055053,44.7781375
1,ანასტასია ერისთავ-ხოშტარიას ქუჩა,0108,41.7024655,44.7876980
22,ალექსანდრე გრიბოედოვის ქუჩა,0108,41.7014175,44.7927660
5,ზეინაბ ბოცვაძის ქუჩა,0108,41.7024032,44.7880284
1,აბო თბილელის ქუჩა,0154,41.6911349,44.8039831
27,"ზღვის უბანი 11 მიკრო რაიონი, 2 კვარტალი(",0191,41.7735962,44.8159394
38,"ზღვის უბანი 11 მ/რ, 2 კვ. (Zghvis ubani 11 mr. 2 block)",0191,41.7728168,44.8160098
40,"ზღვის უბანი 11 მიკრო რაიონი , 2 კვარტალი",0191,41.7724944,44.8163789
28-28a,"ზღვის უბანი 11 მ/რ, 2 კვ. (Zghvis ubani 11 mr. 2 block)",0191,41.7743373,44.8158154
16,ვახტანგ გორგასლის ქუჩა,0114,41.6788377,44.8255354
261,ცოტნე დადიანის ქუჩა,0180,41.7431906,44.7938907
22,დავით ყიფიანის ქუჩა,0154,41.7279192,44.7852013
67,ქეთევან დედოფლის გამზირი,0214,41.6856839,44.8434026
6,ნოდარ ტაბიძის I შესახვევი,0114,41.6810183,44.8209167
8/1,ნოდარ ტაბიძის I შესახვევი,0114,41.6810824,44.8205314
8,ნოდარ ტაბიძის I შესახვევი,0114,41.6811549,44.8201439
8,ნოდარ ტაბიძის I შესახვევი,0114,41.6812464,44.8196402
9,ვახტანგ გორგასლის ქუჩა,0105,41.6884933,44.8134395
75,მერაბ კოსტავას ქუჩა,0160,41.7215627,44.7785779
75,მერაბ კოსტავას ქუჩა,0160,41.7214863,44.7781552
2,დავით ახმაშენებლის ხეივანი,0131,41.7972687,44.7749414
3,სოსო ღვინიაშვილის ქუჩა,0190,41.6968969,44.9251273
6/5,გიორგი მუხაძის ქუჩა,0190,41.6939960,44.9232785
6/3,გიორგი მუხაძის ქუჩა,0190,41.6940570,44.9221877
6/4,გიორგი მუხაძის ქუჩა,0190,41.6944429,44.9222221
6/7,გიორგი მუხაძის ქუჩა,0190,41.6943888,44.9233217
6/8,გიორგი მუხაძის ქუჩა,0190,41.6927086,44.9234091
11,გიორგი მუხაძის ქუჩა,0190,41.6930837,44.9234632
6,გიორგი მუხაძის ქუჩა,0190,41.6935838,44.9235087
6/6,გიორგი მუხაძის ქუჩა,0190,41.6936565,44.9221338
2,გიორგი მუხაძის ქუჩა,0190,41.6947569,44.9249016
2,ვაჟა ბანეთიშვილის ქუჩა,0190,41.6892642,44.9265175
15,დიმიტრი არაყიშვილის ქუჩა,0179,41.7071917,44.7659511
33,გიორგი ბრწყინვალეს ქუჩა,0131,41.7889599,44.7572501
39,გიორგი ბრწყინვალეს ქუჩა,0131,41.7889384,44.7563824
27,გიორგი ბრწყინვალეს ქუჩა,0131,41.7895802,44.7582523
17,გიორგი ბრწყინვალეს ქუჩა,0131,41.7895906,44.7600261
13,გიორგი ბრწყინვალეს ქუჩა,0131,41.7898283,44.7605634
19,გიორგი ბრწყინვალეს ქუჩა,0131,41.7889640,44.7598732
11,გიორგი ბრწყინვალეს ქუჩა,0131,41.7889436,44.7607124
7,გიორგი ბრწყინვალეს ქუჩა,0131,41.7889457,44.7615981
29,გიორგი ბრწყინვალეს ქუჩა,0131,41.7889426,44.7581166
9,გიორგი ბრწყინვალეს ქუჩა,0131,41.7894599,44.7611956
41,გიორგი ბრწყინვალეს ქუჩა,0131,41.7894700,44.7559232
31,გიორგი ბრწყინვალეს ქუჩა,0131,41.7894620,44.7577030
21,გიორგი ბრწყინვალეს ქუჩა,0131,41.7894527,44.7594080
37,გიორგი ბრწყინვალეს ქუჩა,0131,41.7897760,44.7567885
10,დავით აღმაშენებლის ხეივანი,0131,41.7754926,44.7675657
8,ვაჟა-ფშაველას გამზირი,0160,41.7270407,44.7644632
14,მერაბ კოსტავას ქუჩა,0108,41.7055154,44.7874991
5,Airport Settlement XI st,0182,41.6904919,44.8753899
36,კალოუბნის ქუჩა,0182,41.6883368,44.8862035
18,თენგიზ ჩანტლაძის ქუჩა,0190,41.6946736,44.9268303
16,თენგიზ ჩანტლაძის ქუჩა,0190,41.6942290,44.9267786
14,თენგიზ ჩანტლაძის ქუჩა,0190,41.6938224,44.9267366
12,თენგიზ ჩანტლაძის ქუჩა,0190,41.6934780,44.9267054
6,კობა აბზიანიძის ქუჩა,0190,41.6956606,44.9259890
18ა,თენგიზ ჩანტლაძის ქუჩა,0190,41.6938585,44.9257865
24,თენგიზ ჩანტლაძის ქუჩა,0190,41.6950928,44.9259172
9,გიორგი მუხაძის ქუჩა,0190,41.6951418,44.9249789
22,თენგიზ ჩანტლაძის ქუჩა,0190,41.6956062,44.9269286
20,თენგიზ ჩანტლაძის ქუჩა,0190,41.6950350,44.9268656
6/2,გიორგი მუხაძის ქუჩა,0190,41.6940880,44.9241893
22ა,თენგიზ ჩანტლაძის ქუჩა,0190,41.6947305,44.9258651
20ა,თენგიზ ჩანტლაძის ქუჩა,0190,41.6942610,44.9258231
3,კობა აბზიანიძის ქუჩა,0190,41.6961245,44.9264526
8,კობა აბზიანიძის ქუჩა,0190,41.6957474,44.9250945
3,გიორგი მუხაძის ქუჩა,0190,41.6935170,44.9260169
28,თენგიზ ჩანტლაძის ქუჩა,0190,41.6982977,44.9267953
10/9,კობა აბზიანიძის ქუჩა,0190,41.6963889,44.9242497
3,სოსო ღვინიაშვილის ქუჩა,0190,41.6968919,44.9260946
1,სოსო ღვინიაშვილის ქუჩა,0190,41.6967576,44.9269747
46,თენგიზ ჩანტლაძის ქუჩა,0190,41.7055892,44.9336486
6,ძმები სლოვინსკების ქუჩა,0190,41.7002289,44.9253389
10,ქინძმარაულის შესახვევი,0121,41.6651345,44.8907471
8,ქინძმარაულის შესახვევი,0121,41.6652641,44.8916198
16,ქინძმარაულის შესახვევი,0121,41.6649606,44.8938154
17,ქინძმარაულის შესახვევი,0121,41.6653375,44.8940827
11,ქინძმარაულის შესახვევი,0121,41.6643324,44.8922273
12,ქინძმარაულის შესახვევი,0121,41.6648653,44.8917284
15,ქინძმარაულის შესახვევი,0121,41.6646726,44.8934966
19,ქინძმარაულის შესახვევი,0121,41.6660041,44.8929661
18,ქინძმარაულის შესახვევი,0121,41.6657142,44.8936449
23,ქინძმარაულის შესახვევი,0121,41.6670071,44.8917030
24,ქინძმარაულის შესახვევი,0121,41.6666776,44.8925048
4,მოსკოვის გამზირი V კვარტალი,3701,41.6698143,44.8881685
1\2\3,მოსკოვის გამზირი,3701,41.6703165,44.8869098
2,მიხეილ ცისკარიშვილის ქუჩა,0137,41.6691138,44.9166589
15ა,ბესარიონ ჭიჭინაძის ქუჩა,0177,41.6723268,44.9165372
6,ნინო ჟვანიას ქუჩა,0179,41.7026264,44.7742558
22,ნინო ჟვანიას ქუჩა,0179,41.7014279,44.7699438
9,ნინო ჟვანიას ქუჩა,0179,41.7032708,44.7750167
2,მცხეთის ქუჩა,0179,41.7067929,44.7748233
12,შროშის ქუჩა,0179,41.7061658,44.7746033
33,ილია ჭავჭავაძის გამზირი,0186,41.7103651,44.7643140
35,ილია ჭავჭავაძის გამზირი,0179,41.7109971,44.7613069
2,ილო მოსაშვილის ქუჩა,0179,41.7100032,44.7585172
33,ილია ჭავჭავაძის გამზირი,0179,41.7109985,44.7634570
1,ჭავჭავაძის გამზირი 1-ლი ჩიხი,0179,41.7109359,44.7665007
47,ნინო ჟვანიას ქუჩა,0179,41.7016409,44.7687235
1,ნინო ჟვანიას ქუჩა,0179,41.7034613,44.7745837
6,გურამ რჩეულიშვილის II ჩიხი,0179,41.7030685,44.7758410
110,აკაკი წერეთლის გამზირი,0119,41.7357277,44.7823170
22,გურამ ფანჯიკიძის ქუჩა,0160,41.7287411,44.7626038
3,მერაბ ალექსიძის ქუჩა,0171,41.7176464,44.7833545
7ა jora,გიორგი შავგულიძის ქუჩა,0186,41.7265176,44.7225913
7,გიორგი შავგულიძის ქუჩა,0183,41.7267940,44.7231446
3,ელიზბარ მინდელის ქუჩა,0168,41.7253831,44.7142718
12,დავით სარაჯიშვილის ქუჩა,0153,41.7983536,44.7979622
9,იოანე პეტრიწის ქუჩა,0131,41.7933940,44.7602212
29,ბესარიონ ჟღენტის ქუჩა,0183,41.7290754,44.7285040
31,ბესარიონ ჟღენტის ქუჩა,0183,41.7291855,44.7279417
1,რევაზ მარგიანის ქუჩა,0186,41.7267724,44.7269821
63,წყნეთის გზატკეცილი,0162,41.7133279,44.7213718
32,ომარ ხიზანიშვილის ქუჩა,0107,41.8091822,44.8325637
7,ქერჩის ქუჩა,0167,41.7923742,44.8069692
34,ალექსანდრე ყაზბეგის გამზირი,0177,41.7229966,44.7420487
44,ალექსანდრე ყაზბეგის გამზირი,0177,41.7231832,44.7396893
2,ვარლამ თოფურიას ქუჩა,1086,41.7224842,44.7240229
10,სერგო ზაქარიაძის ქუჩა,0177,41.7274265,44.7465901
33,ვაჟა-ფშაველას გამზირი,0177,41.7271694,44.7542868
5,არჩილ მიშველაძის ქუჩა,0162,41.7094549,44.7533431
77ა,მერაბ კოსტავას ქუჩა,0171,41.7245521,44.7792196
2,"Nutsubidze Plato 3 M/R, block 4",0183,41.7314385,44.7357155
77,შალვა ნუცუბიძის ქუჩა,0177,41.7304916,44.7397531
39,ირაკლი გამრეკელის ქუჩა,0186,41.7282736,44.7359776
43,ირაკლი გამრეკელის ქუჩა,0186,41.7280915,44.7356409
53,ირაკლი გამრეკელის ქუჩა,0186,41.7274935,44.7345861
35,ირაკლი გამრეკელის ქუჩა,0186,41.7288619,44.7374372
51,ირაკლი გამრეკელის ქუჩა,0186,41.7275970,44.7347645
37a,ირაკლი გამრეკელის ქუჩა,0186,41.7283432,44.7361755
45a,ირაკლი გამრეკელის ქუჩა,0186,41.7278399,44.7352204
45,ირაკლი გამრეკელის ქუჩა,0186,41.7280047,44.7355017
37a,ირაკლი გამრეკელის ქუჩა,0186,41.7284869,44.7363142
41,ირაკლი გამრეკელის ქუჩა,0186,41.7281593,44.7358334
55,ირაკლი გამრეკელის ქუჩა,0186,41.7273823,44.7344018
47,ირაკლი გამრეკელის ქუჩა,0186,41.7278400,44.7350300
43,ირაკლი გამრეკელის ქუჩა,0186,41.7279159,44.7353841
33,ირაკლი გამრეკელის ქუჩა,0186,41.7288679,44.7375876
31,ირაკლი გამრეკელის ქუჩა,0186,41.7289339,44.7378791
37a,ირაკლი გამრეკელის ქუჩა,0186,41.7286221,44.7365425
35a,ირაკლი გამრეკელის ქუჩა,0186,41.7288181,44.7370747
29,ირაკლი გამრეკელის ქუჩა,0186,41.7289533,44.7380678
49,ირაკლი გამრეკელის ქუჩა,0186,41.7276719,44.7349311
35a,ირაკლი გამრეკელის ქუჩა,0186,41.7288047,44.7373147
16,კოტე მარჯანიშვილის ქუჩა,0102,41.7092740,44.7952681
2,დუდუ დადიანის ქუჩა,0186,41.7282631,44.7382755
33,დუდუ დადიანის ქუჩა,0186,41.7278367,44.7360540
123a,შალვა ნუცუბიძის ქუჩა,0186,41.7272583,44.7346262
27,დუდუ დადიანის ქუჩა,0186,41.7278929,44.7367902
119,შალვა ნუცუბიძის ქუჩა,0186,41.7274346,44.7354078
21,დუდუ დადიანის ქუჩა,0186,41.7279274,44.7373690
13,დუდუ დადიანის ქუჩა,0186,41.7280545,44.7380895
123,შალვა ნუცუბიძის ქუჩა,0186,41.7272735,44.7349033
4,დუდუ დადიანის ქუჩა,0186,41.7283195,44.7386365
31a,დუდუ დადიანის ქუჩა,0186,41.7279028,44.7362540
119,შალვა ნუცუბიძის ქუჩა,0186,41.7275532,44.7353514
31a,დუდუ დადიანის ქუჩა,0186,41.7278369,44.7362818
15,დუდუ დადიანის ქუჩა,0186,41.7280243,44.7379321
39,დუდუ დადიანის ქუჩა,0186,41.7276718,44.7353459
123ბ,შალვა ნუცუბიძის ქუჩა,0186,41.7273792,44.7349915
113,შალვა ნუცუბიძის ქუჩა,0186,41.7274805,44.7360228
25,დუდუ დადიანის ქუჩა,0186,41.7279051,44.7369643
2,დუდუ დადიანის ქუჩა,0186,41.7282776,44.7384277
29,დუდუ დადიანის ქუჩა,0186,41.7278875,44.7366150
2,დუდუ დადიანის ქუჩა,0186,41.7281769,44.7383313
119,შალვა ნუცუბიძის ქუჩა,0186,41.7274778,44.7355204
121,შალვა ნუცუბიძის ქუჩა,0186,41.7275250,44.7351286
17,დუდუ დადიანის ქუჩა,0186,41.7280073,44.7377503
19,დუდუ დადიანის ქუჩა,0186,41.7279853,44.7376060
123a,შალვა ნუცუბიძის ქუჩა,0186,41.7272608,44.7347492
35,დუდუ დადიანის ქუჩა,0186,41.7278305,44.7358246
119,შალვა ნუცუბიძის ქუჩა,0186,41.7275542,44.7355278
117,შალვა ნუცუბიძის ქუჩა,0186,41.7274530,44.7356342
117,შალვა ნუცუბიძის ქუჩა,0186,41.7273314,44.7357757
23,დუდუ დადიანის ქუჩა,0186,41.7279173,44.7371711
31,დუდუ დადიანის ქუჩა,0186,41.7278802,44.7364034
115,შალვა ნუცუბიძის ქუჩა,0186,41.7274743,44.7358114
121,შ. ნუცუბიძის ქუჩა,0186,41.7274194,44.7352166
37,დუდუ დადიანის ქუჩა,0186,41.7277641,44.7356229
27,ტაშკენტის ქუჩა,0160,41.7289179,44.7636504
59,ზაქარია ფალიაშვილის ქუჩა,0179,41.7096301,44.7600707
59,ზაქარია ფალიაშვილის ქუჩა,0179,41.7097119,44.7592807
75-8,ილია ჭავჭავაძის გამზირი,0162,41.7125186,44.7423978
75-3,ილია ჭავჭავაძის გამზირი,0162,41.7110389,44.7406264
76-G,ილია ჭავჭავაძის გამზირი,1062,41.7096686,44.7422957
43,მოსკოვის გამზირი,0137,41.6714136,44.8861171
41,მოსკოვის გამზირი,0137,41.6718374,44.8850852
10,კრწანისის II შესახვევი,0114,41.6732383,44.8123488
49,კრწანისის ქუჩა,0114,41.6705976,44.8114909
37,მოსკოვის გამზირი,0137,41.6719295,44.8817462
12,მოსკოვის გამზირი,0145,41.6697142,44.8857366
27,პეკინის გამზირი,0160,41.7258238,44.7703470
1,ზაზა ბენდელიანის ქუჩა,0171,41.7155627,44.7802214
4,შატილის ქუჩა,0178,41.7795609,44.7991616
28,გლდანის VII მკრ. (Gldani 7th. District),0107,41.8066310,44.8390903
17,შოთა რუსთაველის გამზირი,0108,41.6998453,44.7979234
17ა,პეკინის გამზირი,0160,41.7231424,44.7741180
95,მიხეილ წინამძღვრიშვილის ქუჩა,0112,41.7129973,44.7987577
6,გიორგი ცაბაძის ქუჩა,0112,41.7218857,44.7882094
70გ,ვაჟა-ფშაველას გამზირი,0186,41.7232940,44.7361598
22,ილო მოსაშვილის ქუჩა,0179,41.7103401,44.7555219
6,ილო მოსაშვილის ქუჩა,0179,41.7101327,44.7578484
8,ილო მოსაშვილის ქუჩა,0179,41.7101575,44.7574351
20,ილო მოსაშვილის ქუჩა,0179,41.7103323,44.7557577
100,ზაქარია ფალიაშვილის ქუჩა,0162,41.7095738,44.7563762
102,ზაქარია ფალიაშვილის ქუჩა,0162,41.7095143,44.7560922
104,ზაქარია ფალიაშვილის ქუჩა,0162,41.7096341,44.7558523
10,გრიგოლ მუხაძის ქუჩა,0162,41.7090729,44.7572493
20,გრიგოლ მუხაძის ქუჩა,0162,41.7092099,44.7560460
6,გრიგოლ მუხაძის ქუჩა,0162,41.7090439,44.7577598
14,გრიგოლ მუხაძის ქუჩა,0162,41.7090940,44.7567695
18,გრიგოლ მუხაძის ქუჩა,0162,41.7091893,44.7562760
24,გრიგოლ მუხაძის ქუჩა,0162,41.7092610,44.7555931
11,მოსკოვის გამზირი,0145,41.6698517,44.8863762
48,საინგილოს ჩიხი #5,0103,41.6974819,44.8304798
30,ალექსანდრე გრიბოედოვის ქუჩა,0108,41.7021891,44.7917952
9ბ,ნიკოლოზ ყიფშიძის ქუჩა,0162,41.7138132,44.7597876
13,მოსკოვის გამზირი,0145,41.6701770,44.8860162
12,ტარას შევჩენკოს ქუჩა,0108,41.6976603,44.7963904
4,შიო ჩიტაძის ქუჩა,0118,41.6946246,44.7951971
4,გია ყანცელის ქუჩა,0112,41.7167634,44.7974234
1,არზაყან (დიმიტრი) ემუხვარის I შესახვევი,0159,41.7536551,44.7592581
5,არზაყან (დიმიტრი) ემუხვარის I შესახვევი,0159,41.7528462,44.7593048
14,დანიელ ჭონქაძის ქუჩა,0108,41.6935590,44.7942460
9,კრწანისის ქუჩა,0160,41.6757013,44.8208288
80,ილია ჭავჭავაძის გამზირი,0162,41.7101675,44.7434023
13-th km,დავით აღმაშენებლის ხეივანი,0159,41.8059106,44.7683055
14,ირაკლი აბაშიძის ქუჩა,0179,41.7070038,44.7716554
2,ვალენტინ თოფურიძის ქუჩა,0159,41.7540738,44.7654288
41,დოლიძის ქ,0179,41.7162308,44.7701816
21,გაზაფხულის ქუჩა,0177,41.7304759,44.7415733
19,გაზაფხულის ქუჩა,0177,41.7305603,44.7421186
15,გაზაფხულის ქუჩა,0177,41.7301014,44.7416620
17,გაზაფხულის ქუჩა,0177,41.7301791,44.7422618
53,ომარ ხიზანიშვილის ქუჩა,0107,41.8031641,44.8289190
2,დავით კვაჭანტირაძის ქუჩა,0152,41.6946796,44.8571844
3,ბერბუკის ქუჩა,0171,41.7178511,44.7807129
7,ბერბუკის ქუჩა,0171,41.7180506,44.7819182
127,ილია ვეკუას ქუჩა,0107,41.8016366,44.8288058
11,კონსტანტინე ლესელიძის ქუჩა,0107,41.8047701,44.8279910
27b,ადამ მიცკევიჩის ქუჩა,0194,41.7245260,44.7624862
10/12,ალექსი მაჭავარიანი ქუჩა,0179,41.7047929,44.7843097
11,ვასილ პეტრიაშვილის ქუჩა,0179,41.7067953,44.7799400
46,ს. კანდელაკის ქუჩა (S. Kandelaki St),0160,41.7302520,44.7668448
22D,გურამ ფანჯიკიძის ქუჩა,0160,41.7280981,44.7625174
9ა,ალექსანდრე ყაზბეგის გამზირი,0160,41.7265065,44.7656664
20,ძმები ზუბალაშვილების ქუჩა,0108,41.7010649,44.7918150
32,ალექსანდრე გრიბოედოვის ქუჩა,0108,41.7018911,44.7921497
3,ანასტასია ერისთავ-ხოშტარიას ქუჩა,0108,41.7026043,44.7872453
5,სერგო ზაქარიაძის ქუჩა,0177,41.7279562,44.7478961
5,თერგის ქუჩა,0108,41.7052225,44.7780723
14,ნაფარეულის ქუჩა,0179,41.7077702,44.7769786
3,ვახტანგ გორგასალის ქუჩა,0105,41.6885011,44.8115303
37,სულხან ცინცაძის ქუჩა,0160,41.7223309,44.7679538
8,Bulachauri,0160,41.7262334,44.7707732
44,ჟიული შარტავას ქუჩა,0160,41.7308785,44.7690416
8,სულხან ცინცაძის ქუჩა,0159,41.7220925,44.7711084
1-3,კორნელი კეკელიძის ქუჩა,0179,41.7085438,44.7783955
6,P. Iberi St,0159,41.7903292,44.7548479
150,დავით აღმაშენებლის გამზირი,0112,41.7173199,44.7912119
150,დავით აღმაშენებლის გამზირი,0112,41.7169298,44.7904042
18,სიმონ ჩიქოვანის ქუჩა,0171,41.7146595,44.7729056
2,კოტე მარჯანიშვილის ქუჩა,0107,41.7084743,44.7935833
52,დიმიტრი უზნაძის ქუჩა,0102,41.7096315,44.7938062
16 კორპ. 2,კოტე მარჯანიშვილის ქუჩა,0102,41.7096015,44.7954960
1,კოტე მახარაძის ქუჩა,0179,41.7113249,44.7833622
36,Paliashvili,0179,41.7080969,44.7706495
51,კრწანისის ქუჩა,0114,41.6724089,44.8149266
9,ქინძმარაულის შესახვევი,0121,41.6657259,44.8899456
5,გიორგი ბრწყინვალეს ქუჩა,0131,41.7891527,44.7620726
15,გიორგი ბრწყინვალეს ქუჩა,0131,41.7891923,44.7603163
25,გიორგი ბრწყინვალეს ქუჩა,0131,41.7891456,44.7585499
5ა,გიორგი ბრწყინვალეს ქუჩა,0131,41.7897791,44.7620827
23,გიორგი ბრწყინვალეს ქუჩა,0131,41.7898077,44.7588099
28 კორპ. 3,ალექსანდრე ყაზბეგის გამზირი,0177,41.7232621,44.7443746
11,ოთარი თაქთაქიშვილის ქუჩა,0162,41.7081929,44.7643975
3,ლადო კავსაძის ქუჩა,0162,41.7097725,44.7613044
12,ოთარი თაქთაქიშვილის ქუჩა,0162,41.7084252,44.7648507
14,ოთარი თაქთაქიშვილის ქუჩა,0162,41.7081883,44.7647767
9,ზაქარია ფალიაშვილის ქუჩა,0179,41.7085378,44.7758508
1,მცხეთის ქუჩა,0179,41.7069594,44.7740615
4,მცხეთის ქუჩა,0179,41.7066134,44.7741859
4,შალვა რადიანის ქუჩა,0179,41.7067900,44.7700547
15,შროშის ქუჩა,0179,41.7065200,44.7743869
8/10,შროშის ქუჩა,0179,41.7061072,44.7748942
33,აკაკი შანიძის ქუჩა,0179,41.7050455,44.7799407
27,ილია ჭავჭავაძის გამზირი,0179,41.7102644,44.7664664
3,ვლადიმერ გაბაშვილის ქუჩა,0162,41.7151371,44.7587203
8,ვლადიმერ გაბაშვილის ქუჩა,0162,41.7148212,44.7574835
5,ვლადიმერ გაბაშვილის ქუჩა,0162,41.7151281,44.7575209
26დ,შალვა ნუცუბიძის ქუჩა,0177,41.7287723,44.7512252
8,სერგო ზაქარიაძის ქუჩა,0177,41.7275442,44.7476643
27g,ადამ მიცკევიჩის ქუჩა,0194,41.7248070,44.7618457
18,ბოჭორმის ქუჩა,0144,41.6860560,44.8315615
24,მიხეილ ბურძგლას ქუჩა,0194,41.7230434,44.7640770
20,მიხეილ ბურძგლას ქუჩა,0150,41.7230861,44.7643955
12/14,მიხეილ ბურძგლას ქუჩა,0194,41.7230988,44.7649268
88,ქეთევან დედოფლის გამზირი,0144,41.6872079,44.8348535
11/13,ნავთლუღის ქუჩა,0113,41.6847669,44.8399029
8,ვალენტინ თოფურიძის შესახვევი,0159,41.7516800,44.7622583
21,ვალენტინ თოფურიძის ქუჩა,0159,41.7515462,44.7629223
78a,Vazha Pshavela avenue,0186,41.7232925,44.7310313
27,კოტე მარჯანიშვილის ქუჩა,0102,41.7098470,44.7984222
19,რომის ქუჩა,0102,41.7048650,44.8035673
2/8,დავით აღმაშენებლის გამზირი,0102,41.7029450,44.8039249
4,დავით თავხელიძის ქუჩა,0186,41.7224959,44.7331565
36,ჯორჯ ბალანჩინის ქუჩა,0159,41.7863056,44.7735754
12,შალვა დადიანის ქუჩა,0105,41.6920016,44.8022391
6,ივანე მაცაბლის ქუჩა,0105,41.6917730,44.8001575
28,ნინო ჟვანიას ქუჩა,0179,41.7010686,44.7677197
24,ნინო ჟვანიას ქუჩა,0179,41.7011137,44.7693929
12,მერაბ ალექსიძის ქუჩა,0171,41.7166576,44.7854844
72/11,Viktor Kupradze,0163,41.7139614,44.8763491
72/1,Viktor Kupradze,0163,41.7148886,44.8741366
72/10,Viktor Kupradze,0163,41.7143276,44.8760087
40,მერაბ კოსტავას ქუჩა,0179,41.7086554,44.7851821
44,მერაბ კოსტავას ქუჩა,0179,41.7091844,44.7847536
24/22,თინა იოსებიძის ქუჩა,0160,41.7225935,44.7748723
24,თინა იოსებიძის ქუჩა,0160,41.7226608,44.7746422
5,დელისის III ქ. (Delisi III Str.),0177,41.7298090,44.7424631
77ა,შალვა ნუცუბიძის ქუჩა,0186,41.7281467,44.7417390
77,შალვა ნუცუბიძის ქუჩა,0186,41.7284202,44.7424029
1,დუდუ დადიანის ქუჩა,0186,41.7280355,44.7400425
4a,რამაზ ჩხიკვაძის ქუჩა,0186,41.7282888,44.7328993
11,რევაზ მარგიანის ქუჩა,0186,41.7270213,44.7284126
25,მიხეილ შავიშვილის ქუჩა,0186,41.7255933,44.7224801
1a,რევაზ მარგიანის ქუჩა,0186,41.7269324,44.7271666
13,რევაზ მარგიანის ქუჩა,0186,41.7270708,44.7287266
9,რევაზ მარგიანის ქუჩა,0186,41.7270451,44.7280763
3a,რევაზ მარგიანის ქუჩა,0186,41.7269512,44.7275133
5,რევაზ მარგიანის ქუჩა,0186,41.7269915,44.7277051
7,რევაზ მარგიანის ქუჩა,0186,41.7270129,44.7278973
12,Ramaz Chkhikvadze street,0179,41.7292181,44.7330793
31,Romanoz Khomleli St,0182,41.6932057,44.8754433
19,Airport Settlement VIII st,0182,41.6911076,44.8740562
21,Airport Settlement VIII st,0182,41.6912670,44.8741180
1,Airport Settlement X st,0182,41.6913539,44.8728700
16,Airport Settlement X st,0182,41.6920329,44.8741876
25,Romanoz Khomleli St,0182,41.6925555,44.8742288
2,Airport Settlement VIII st,0182,41.6912430,44.8727038
12,Airport Settlement X st,0182,41.6921017,44.8737576
18,Airport Settlement XI st,0182,41.6919833,44.8744210
24,Airport Settlement XI st,0182,41.6924305,44.8743124
14,Airport Settlement X st,0182,41.6920992,44.8739543
23,Romanoz Khomleli St,0182,41.6924472,44.8738705
18,Airport Settlement X st,0182,41.6919270,44.8741992
21,Romanoz Khomleli St,0182,41.6923190,44.8738637
21,Romanoz Khomleli St,0182,41.6923920,44.8737112
6a,Airport Settlement X st,0182,41.6918673,44.8731710
25,Airport Settlement VIII st,0182,41.6916350,44.8742013
18,Airport Settlement XI st,0182,41.6919220,44.8743972
11,Airport Settlement VIII st,0182,41.6907923,44.8732792
10,Airport Settlement VIII st,0182,41.6910596,44.8732155
4,Airport Settlement X st,0182,41.6914996,44.8726225
17,Airport Settlement VIII st,0182,41.6910047,44.8739120
5,Airport Settlement X st,0182,41.6917183,44.8738077
6,Airport Settlement X st,0182,41.6916497,44.8729463
24,Airport Settlement XI st,0182,41.6925216,44.8743556
14,Airport Settlement VIII st,0182,41.6911495,44.8736033
22,Airport Settlement XI st,0182,41.6922383,44.8743641
22,Airport Settlement XI st,0182,41.6922983,44.8745417
25,Romanoz Khomleli St,0182,41.6924657,44.8741852
3,Airport Settlement X st,0182,41.6915723,44.8734744
16,Airport Settlement XI st,0182,41.6916719,44.8745225
6a,Airport Settlement X st,0182,41.6917880,44.8732823
16,Airport Settlement XI st,0182,41.6917560,44.8745606
18,Airport Settlement XI st,0182,41.6919221,44.8745348
8,Airport Settlement X st,0182,41.6919050,44.8735233
20,Airport Settlement XI st,0182,41.6921069,44.8744722
15,Airport Settlement VIII st,0182,41.6909072,44.8737505
2,Airport Settlement X st,0182,41.6914556,44.8724488
12,Airport Settlement VIII st,0182,41.6910857,44.8734542
6,Airport Settlement VIII st,0182,41.6910513,44.8730399
16,Airport Settlement VIII st,0182,41.6913225,44.8737620
4,Airport Settlement VIII st,0182,41.6911578,44.8728128
12,Airport Settlement X st,0182,41.6919929,44.8736287
18,Airport Settlement VIII st,0182,41.6915858,44.8738503
28,Zurab Abuladze st,0182,41.6906141,44.8739719
16,Airport Settlement XI st,0182,41.6915898,44.8747544
23,Airport Settlement VIII st,0182,41.6914669,44.8742771
22,Zurab Abuladze st,0182,41.6905342,44.8732358
14,Airport Settlement XI st,0182,41.6913024,44.8747722
13,Airport Settlement VIII st,0182,41.6908144,44.8735104
30,Zurab Abuladze st,0182,41.6906980,44.8741582
32,Zurab Abuladze st,0182,41.6908204,44.8742847
32a,Zurab Abuladze st,0182,41.6909680,44.8743640
34,Zurab Abuladze st,0182,41.6911382,44.8744357
26,Zurab Abuladze st,0182,41.6904896,44.8736303
24,Zurab Abuladze st,0182,41.6904725,44.8734236
14,Airport Settlement XI st,0182,41.6914485,44.8745397
1,Airport Settlement VIII st,0182,41.6911331,44.8722597
20,Zurab Abuladze st,0182,41.6904720,44.8729274
4,Zurab Abuladze st,0182,41.6911178,44.8715514
14,Zurab Abuladze st,0182,41.6906254,44.8723714
8,Zurab Abuladze st,0182,41.6908619,44.8719655
5,Airport Settlement VIII st,0182,41.6909747,44.8725898
16,Zurab Abuladze st,0182,41.6905469,44.8725179
3,Airport Settlement VIII st,0182,41.6910753,44.8724315
7,Airport Settlement VIII st,0182,41.6908915,44.8727516
6,Zurab Abuladze st,0182,41.6909591,44.8717961
12,Zurab Abuladze st,0182,41.6907082,44.8722346
2,Zurab Abuladze st,0182,41.6911839,44.8714208
2,Zurab Abuladze st,0182,41.6911884,44.8713482
10,Zurab Abuladze st,0182,41.6907859,44.8720868
9,Airport Settlement VIII st,0190,41.6908027,44.8729606
18,Zurab Abuladze st,0182,41.6905091,44.8727534
29,Romanoz Khomleli St,0182,41.6928719,44.8750229
29,Romanoz Khomleli St,0182,41.6929849,44.8751502
9,Airport Settlement XI st,0182,41.6922636,44.8750184
7a,Airport Settlement XI st,0182,41.6917224,44.8752032
9a,Airport Settlement XI st,0182,41.6920526,44.8751278
9,Airport Settlement XI st,0182,41.6923505,44.8750638
7,Airport Settlement XI st,0182,41.6907831,44.8752820
9a,Airport Settlement XI st,0182,41.6918890,44.8751736
15,Airport Settlement XI st,0182,41.6926650,44.8749174
11,Airport Settlement XI st,0182,41.6924726,44.8749375
35,Romanoz Khomleli St,0182,41.6933476,44.8759731
47,"ზემო პლატო, კორპუსი 47 (კორპუსი)",0182,41.6937413,44.8774036
48,"ვარკეთილის ზემო პლატო, კორპუსი",0182,41.6933232,44.8777523
33,Romanoz Khomleli St,0182,41.6932958,44.8758574
37,Romanoz Khomleli St,0182,41.6934405,44.8761522
7,რომანოზ ხომლელის ქუჩა,0182,41.6939143,44.8749838
6,Airport Settlement XI st,0182,41.6901799,44.8749858
3,Airport Settlement XI st,0182,41.6899085,44.8755002
2,Airport Settlement XI st,0182,41.6898147,44.8750951
12,Airport Settlement XI st,0182,41.6906715,44.8749035
4,Airport Settlement XI st,0182,41.6899277,44.8750533
1,Airport Settlement XI st,0182,41.6897626,44.8754822
8,Airport Settlement XI st,0182,41.6903369,44.8749811
10,Airport Settlement XI st,0182,41.6904613,44.8749588
80,ჯავახეთის ქუჩა,0182,41.6892470,44.8703637
72,ჯავახეთის ქუჩა,0182,41.6886676,44.8703507
82,ჯავახეთის ქუჩა,0182,41.6893792,44.8703694
39,Romanoz Khomleli St,0182,41.6935650,44.8765032
27,Romanoz Khomleli St,0182,41.6928534,44.8748090
18,რევაზ მარგიანის ქუჩა,0186,41.7272432,44.7276558
179 კორპ. 1,შალვა ნუცუბიძის ქუჩა,0186,41.7264912,44.7252891
179 კორპ. 2,შალვა ნუცუბიძის ქუჩა,0186,41.7265468,44.7258916
7,მხატვრის ქუჩა,0186,41.7275392,44.7307840
99,შალვა ნუცუბიძის ქუჩა,0186,41.7276223,44.7373805
189,შალვა ნუცუბიძის ქუჩა,0186,41.7263368,44.7239721
9,მხატვრის ქუჩა,0186,41.7275905,44.7306326
17,რევაზ მარგიანის ქუჩა,0186,41.7271384,44.7291372
26,რევაზ მარგიანის ქუჩა,0186,41.7273972,44.7292832
83,შალვა ნუცუბიძის ქუჩა,0186,41.7278313,44.7393493
22,რევაზ მარგიანის ქუჩა,0186,41.7274048,44.7283544
79,შალვა ნუცუბიძის ქუჩა,0186,41.7278056,44.7396972
15,რევაზ მარგიანის ქუჩა,0186,41.7271259,44.7289399
85,შალვა ნუცუბიძის ქუჩა,0186,41.7278077,44.7391234
24,რევაზ მარგიანის ქუჩა,0186,41.7273425,44.7288655
91,შალვა ნუცუბიძის ქუჩა,0186,41.7277208,44.7382956
107,შალვა ნუცუბიძის ქუჩა,0186,41.7274228,44.7366283
20,რევაზ მარგიანის ქუჩა,0186,41.7273586,44.7280600
79,შალვა ნუცუბიძის ქუჩა,0186,41.7277730,44.7401703
101,შალვა ნუცუბიძის ქუჩა,0186,41.7276263,44.7371819
103,შალვა ნუცუბიძის ქუჩა,0186,41.7276009,44.7369962
18a,რევაზ მარგიანის ქუჩა,0186,41.7273299,44.7278417
1,მხატვრის ქუჩა,0186,41.7274297,44.7313930
10,რევაზ მარგიანის ქუჩა,0186,41.7271042,44.7268438
95,შალვა ნუცუბიძის ქუჩა,0186,41.7276708,44.7379278
85,შალვა ნუცუბიძის ქუჩა,0186,41.7277878,44.7388967
87,შალვა ნუცუბიძის ქუჩა,0186,41.7277495,44.7386675
16,რევაზ მარგიანის ქუჩა,0186,41.7272100,44.7274520
97,შალვა ნუცუბიძის ქუჩა,0186,41.7276628,44.7375798
93,შალვა ნუცუბიძის ქუჩა,0186,41.7277227,44.7381113
28,რევაზ მარგიანის ქუჩა,0186,41.7274104,44.7297806
12,ბესარიონ ჟღენტის ქუჩა,0183,41.7276821,44.7268886
8,რევაზ მარგიანის ქუჩა,0186,41.7269843,44.7266984
77თ,შალვა ნუცუბიძის ქუჩა,0186,41.7277649,44.7404141
107,შალვა ნუცუბიძის ქუჩა,0186,41.7275647,44.7366017
81,შალვა ნუცუბიძის ქუჩა,0186,41.7278266,44.7394831
21,რევაზ მარგიანის ქუჩა,0186,41.7271636,44.7295445
19,რევაზ მარგიანის ქუჩა,0186,41.7271582,44.7293545
105,შალვა ნუცუბიძის ქუჩა,0186,41.7275856,44.7368025
23,რევაზ მარგიანის ქუჩა,0186,41.7271882,44.7297532
89,შალვა ნუცუბიძის ქუჩა,0186,41.7277600,44.7384878
14,რევაზ მარგიანის ქუჩა,0186,41.7272724,44.7272779
111,შალვა ნუცუბიძის ქუჩა,0186,41.7274678,44.7362434
5,მხატვრის ქუჩა,0186,41.7274905,44.7309841
109,შალვა ნუცუბიძის ქუჩა,0186,41.7275560,44.7364285
12,რევაზ მარგიანის ქუჩა,0186,41.7271791,44.7270339
3,მხატვრის ქუჩა,0186,41.7274571,44.7311976
7ა,დუდუ დადიანის ქუჩა,0186,41.7280620,44.7392076
26,ირაკლი გამრეკელის ქუჩა,0186,41.7284113,44.7370057
21,ირაკლი გამრეკელის ქუჩა,0186,41.7295263,44.7387112
6a,ირაკლი გამრეკელის ქუჩა,0186,41.7285219,44.7397568
24,ირაკლი გამრეკელის ქუჩა,0186,41.7284810,44.7372583
3,დუდუ დადიანის ქუჩა,0186,41.7280213,44.7398042
23,ირაკლი გამრეკელის ქუჩა,0186,41.7294165,44.7385103
7,ირაკლი გამრეკელის ქუჩა,0186,41.7289167,44.7395367
18,ირაკლი გამრეკელის ქუჩა,0186,41.7286548,44.7379375
5,დუდუ დადიანის ქუჩა,0186,41.7280450,44.7396212
6,ირაკლი გამრეკელის ქუჩა,0186,41.7285527,44.7395471
22,ირაკლი გამრეკელის ქუჩა,0186,41.7285390,44.7373796
32,ირაკლი გამრეკელის ქუჩა,0186,41.7281702,44.7364601
16,ირაკლი გამრეკელის ქუჩა,0186,41.7286522,44.7381091
20,ირაკლი გამრეკელის ქუჩა,0186,41.7286196,44.7377365
17,ირაკლი გამრეკელის ქუჩა,0186,41.7293513,44.7391085
9,ირაკლი გამრეკელის ქუჩა,0186,41.7289593,44.7393505
14,ირაკლი გამრეკელის ქუჩა,0186,41.7286882,44.7383307
11,ირაკლი გამრეკელის ქუჩა,0186,41.7289408,44.7391084
13,ირაკლი გამრეკელის ქუჩა,0186,41.7290285,44.7388572
13a,ირაკლი გამრეკელის ქუჩა,0186,41.7290165,44.7386367
12,ირაკლი გამრეკელის ქუჩა,0186,41.7286971,44.7385405
10a,ირაკლი გამრეკელის ქუჩა,0186,41.7287008,44.7387663
10,ირაკლი გამრეკელის ქუჩა,0186,41.7286589,44.7389872
28,ირაკლი გამრეკელის ქუჩა,0186,41.7283475,44.7368340
30,ირაკლი გამრეკელის ქუჩა,0186,41.7282476,44.7366437
5,ირაკლი გამრეკელის ქუჩა,0186,41.7288768,44.7398355
27,ირაკლი გამრეკელის ქუჩა,0186,41.7290918,44.7382540
25,ირაკლი გამრეკელის ქუჩა,0186,41.7291897,44.7384533
8,ირაკლი გამრეკელის ქუჩა,0186,41.7286240,44.7393225
15,ირაკლი გამრეკელის ქუჩა,0186,41.7292113,44.7391354
7,დუდუ დადიანის ქუჩა,0186,41.7280722,44.7394058
9,დუდუ დადიანის ქუჩა,0186,41.7280601,44.7390147
20a,ირაკლი გამრეკელის ქუჩა,0186,41.7285828,44.7375719
11,დუდუ დადიანის ქუჩა,0186,41.7280341,44.7386468
12,Airport Settlement XI st,0182,41.6906759,44.8750045
6,Airport Settlement XI st,0182,41.6902412,44.8748401
13,Airport Settlement XI st,0182,41.6925578,44.8749988
5,დელისის III ქ. (Delisi III Str.),0177,41.7296148,44.7428070
8,კამანის I ჩიხი,0186,41.7301939,44.7425926
75გ,მერაბ კოსტავას ქუჩა,0171,41.7211418,44.7795139
31,კრწანისის ქუჩა,0162,41.6746955,44.8174850
29,კრწანისის ქუჩა,0162,41.6746955,44.8176159
36,პეტრე ქავთარაძის ქუჩა,0186,41.7212111,44.7320222
3,ექიმის გასასვლელი,0113,41.6835617,44.8416066
4,გრიგოლ ფერაძის ქუჩა,0131,41.7974096,44.7744098
72/12,Viktor Kupradze,0163,41.7146691,44.8765379
72/13,Viktor Kupradze,0163,41.7144780,44.8770294
72/14,Viktor Kupradze,0163,41.7142946,44.8775600
72/9,Viktor Kupradze,0163,41.7134935,44.8757201
72/7,Viktor Kupradze,0163,41.7140374,44.8750824
72/2,Viktor Kupradze,0163,41.7152139,44.8748220
6a,ლიხაურის ქუჩა (Likhauri St),0171,41.7167482,44.7672147
27ა,გაზაფხულის ქუჩა,0177,41.7307569,44.7434775
27,გაზაფხულის ქუჩა,0177,41.7307737,44.7432668
103,დიმიტრი უზნაძის ქუჩა,0102,41.7124096,44.7930011
35,დავით აღმაშენებლის გამზირი,0102,41.7043483,44.8023673
2,გია ყანცელის ქუჩა,0112,41.7164359,44.7970280
13,ჩახრუხაძის ქუჩა,0105,41.6951218,44.8063980
5,გერონტი ქიქოძის ქუჩა,0105,41.6913119,44.7982492
16,ძმები ზუბალაშვილების ქუჩა,0108,41.7003831,44.7922236
18,ძმები ზუბალაშვილების ქუჩა,0108,41.7006767,44.7925217
11,ომარ ფხაკაძის ქუჩა,0186,41.7184945,44.7164918
5,იური გაგარინის ქუჩა,0160,41.7327478,44.7689910
4,სანაპიროს ქუჩა,0105,41.6980790,44.8056687
2,სანაპიროს ქუჩა,0105,41.6976977,44.8061437
12/2,სანაპიროს ქუჩა,0105,41.6972187,44.8063681
42,ომარ ხიზანიშვილის ქუჩა,0107,41.8022000,44.8273356
3,მახათას აღმართის მე-3 შესახვევი,0103,41.7239462,44.8353481
7,მირიან მეფის ქუჩა,0131,41.7879463,44.7615343
76,ილია ჭავჭავაძის გამზირი,0162,41.7112212,44.7526114
305,ცოტნე დადიანის ქუჩა,0180,41.7469678,44.7922262
315,ცოტნე დადიანის ქუჩა,0180,41.7489618,44.7916760
323,ცოტნე დადიანის ქუჩა,0180,41.7505654,44.7906752
22,დანიელ ჭონქაძის ქუჩა,0105,41.6948426,44.7921489
3a,შიო ჩიტაძის ქუჩა,0108,41.6952967,44.7953356
55,სულხან ცინცაძის ქუჩა,0160,41.7216354,44.7648873
5ე,ანა პოლიტკოვსკაიას ქუჩა,0186,41.7207586,44.7111420
5დ,ანა პოლიტკოვსკაიას ქუჩა,0186,41.7207000,44.7116755
107,დიმიტრი უზნაძის ქუჩა,0102,41.7126806,44.7925212
60,შალვა ნუცუბიძის ქუჩა,0186,41.7275927,44.7410496
4,დოდო აბაშიძის ქუჩა,0102,41.7071213,44.7981072
113b,დიმიტრი უზნაძის ქუჩა,0102,41.7131066,44.7921953
2,ანასტასია ერისთავ-ხოშტარიას ქუჩა,0108,41.7023394,44.7870847
18ა,თამარ მეფის გამზირი,0112,41.7203084,44.7957143
10,არზაყან (დიმიტრი) ემუხვარის ქუჩა,0135,41.7530306,44.7584431
9,არზაყან (დიმიტრი) ემუხვარის ქუჩა,0159,41.7537885,44.7577407
5,არზაყან (დიმიტრი) ემუხვარის II შესახვევი,0159,41.7541070,44.7580495
7,არზაყან (დიმიტრი) ემუხვარის II შესახვევი,0159,41.7541300,44.7578091
5,არზაყან (დიმიტრი) ემუხვარის ქუჩა,0159,41.7540301,44.7586305
17,ვასო გოძიაშვილის ქუჩა,0159,41.7553700,44.7661422
1,არზაყან (დიმიტრი) ემუხვარის ქუჩა,0159,41.7541650,44.7592899
5,"ვაშლიჯვარი, ზონა 5",0159,41.7522847,44.7660364
9ა,ქიზიყის ქუჩა,0190,41.6835757,44.8972093
48a,ჩოლოყაშვილის ქუჩა,0113,41.6769960,44.8466957
48a,ჩოლოყაშვილის ქუჩა,0113,41.6770244,44.8470169
48a,ჩოლოყაშვილის ქუჩა,0113,41.6770053,44.8468575
150,დავით აღმაშენებლის გამზირი,0112,41.7169429,44.7908862
150a,დავით აღმაშენებლის გამზირი,0112,41.7169741,44.7889932
150a,დავით აღმაშენებლის გამზირი,0112,41.7170471,44.7892943
150გ,დავით აღმაშენებლის გამზირი,0112,41.7168145,44.7895791
151,დავით აღმაშენებლის გამზირი,0112,41.7170286,44.7926229
151,დავით აღმაშენებლის გამზირი,0112,41.7168161,44.7923243
151a,დავით აღმაშენებლის გამზირი,0112,41.7171177,44.7932012
153,დავით აღმაშენებლის გამზირი,0112,41.7169716,44.7921129
153,დავით აღმაშენებლის გამზირი,0112,41.7171005,44.7923082
3,მარტყოფის ქუჩა,0103,41.6934878,44.8189562
20,შერმადინის ქუჩა,3101,41.7790087,44.7603210
2,ზაზა ბენდელიანის ქუჩა,0171,41.7153104,44.7806651
5,Zaza Bendeliani street,0171,41.7149555,44.7816828
15,რამაზ ჩხიკვაძის ქუჩა,0186,41.7295410,44.7357023
27a,ადამ მიცკევიჩის ქუჩა,0194,41.7245683,44.7620024
19,ადამ მიცკევიჩის ქუჩა,0194,41.7252168,44.7668518
18a,ადამ მიცკევიჩის ქუჩა,0194,41.7241525,44.7657695
70,ადამ მიცკევიჩის ქუჩა,0194,41.7241430,44.7599587
44,ლეო და ნოდარ გაბუნიების ქუჩა,0183,41.7361319,44.7205906
7,ბესარიონ ჟღენტის ჩიხი,0183,41.7298258,44.7210429
23,პაატა დათუაშვილის ქუჩა,0183,41.7315050,44.7265905
4,ერმილე ბედიას ქუჩა,0183,41.7272624,44.7163812
1,გიორგი შავგულიძის ქუჩა,0183,41.7263465,44.7235960
11,გიორგი შავგულიძის ქუჩა,0183,41.7264218,44.7216520
191,შალვა ნუცუბიძის ქუჩა,0186,41.7263118,44.7237654
193,შალვა ნუცუბიძის ქუჩა,0186,41.7261488,44.7228582
197,შალვა ნუცუბიძის ქუჩა,0186,41.7260992,44.7221390
199,შალვა ნუცუბიძის ქუჩა,0186,41.7261063,44.7219216
201,შალვა ნუცუბიძის ქუჩა,0186,41.7260723,44.7216774
203,შალვა ნუცუბიძის ქუჩა,0186,41.7260479,44.7213701
205,შალვა ნუცუბიძის ქუჩა,0186,41.7260323,44.7210511
207,შალვა ნუცუბიძის ქუჩა,0186,41.7260227,44.7207214
209,შალვა ნუცუბიძის ქუჩა,0186,41.7259569,44.7203639
211 / 2,შალვა ნუცუბიძის ქუჩა,0186,41.7262823,44.7204198
211 / 3,შალვა ნუცუბიძის ქუჩა,0186,41.7263532,44.7207938
211 / 4,შალვა ნუცუბიძის ქუჩა,0186,41.7264256,44.7211525
211,შალვა ნუცუბიძის ქუჩა,0186,41.7258560,44.7201207
3,გიორგი შავგულიძის ქუჩა,0183,41.7263707,44.7234129
5,გიორგი შავგულიძის ქუჩა,0183,41.7264122,44.7232005
9,გიორგი შავგულიძის ქუჩა,0183,41.7264907,44.7222112
181,შალვა ნუცუბიძის ქუჩა,0186,41.7270747,44.7254767
6,რევაზ მარგიანის ქუჩა,0186,41.7268614,44.7265841
47,ანა პოლიტკოვსკაიას ქუჩა,0186,41.7231452,44.7049895
51,ანა პოლიტკოვსკაიას ქუჩა,0186,41.7226903,44.7047445
41ა,ანა პოლიტკოვსკაიას ქუჩა,0186,41.7224799,44.7057282
41,ანა პოლიტკოვსკაიას ქუჩა,0186,41.7226813,44.7053344
43,ანა პოლიტკოვსკაიას ქუჩა,0186,41.7229707,44.7058447
1,პაბლო პიკასოს ქუჩა,0183,41.7270224,44.7263775
2,სამტრედიის ქუჩა,0119,41.7424307,44.7735598
53,დიმიტრი უზნაძის ქუჩა,0102,41.7066076,44.7969276
139,დავით აღმაშენებლის გამზირი,0112,41.7157447,44.7931563
137,დავით აღმაშენებლის გამზირი,0112,41.7156895,44.7935549
141,დავით აღმაშენებლის გამზირი,0112,41.7158840,44.7930397
147,დავით აღმაშენებლის გამზირი,0112,41.7162850,44.7927282
148ა,დავით აღმაშენებლის გამზირი,0112,41.7165580,44.7918852
148,დავით აღმაშენებლის გამზირი,0112,41.7162455,44.7921334
148,დავით აღმაშენებლის გამზირი,0112,41.7159625,44.7923422
150,დავით აღმაშენებლის გამზირი,0112,41.7170011,44.7915670
135,დავით აღმაშენებლის გამზირი,0112,41.7154540,44.7935101
2,გიორგი ცაბაძის ქუჩა,0112,41.7205983,44.7859550
58ბ,შალვა ნუცუბიძის ქუჩა,0186,41.7276839,44.7412978
152,მიხეილ წინამძღვრიშვილის ქუჩა,0112,41.7170007,44.7940203
147,დავით აღმაშენებლის გამზირი,0112,41.7166294,44.7934125
147a,დავით აღმაშენებლის გამზირი,0112,41.7163747,44.7936728
11,გია ყანცელის ქუჩა,0112,41.7164346,44.7976999
11,გია ყანცელის ქუჩა,0112,41.7164275,44.7978875
11,გია ყანცელის ქუჩა,0112,41.7163092,44.7975986
9,გია ყანცელის ქუჩა,0112,41.7162962,44.7974820
107,ივანე ჯავახიშვილის ქუჩა,0164,41.7159887,44.7973686
7,გია ყანცელის ქუჩა,0112,41.7162022,44.7974013
109,ივანე ჯავახიშვილის ქუჩა,0164,41.7160944,44.7972948
1,გია ყანცელის ქუჩა,0112,41.7156648,44.7964690
5,გია ყანცელის ქუჩა,0112,41.7159039,44.7966865
5,გია ყანცელის ქუჩა,0112,41.7159709,44.7968801
5,გია ყანცელის ქუჩა,0112,41.7158952,44.7970036
114,ივანე ჯავახიშვილის ქუჩა,0164,41.7154230,44.7973109
116,ივანე ჯავახიშვილის ქუჩა,0164,41.7155311,44.7972120
114,ივანე ჯავახიშვილის ქუჩა,0164,41.7153438,44.7971080
115,მიხეილ წინამძღვრიშვილის ქუჩა,0164,41.7152373,44.7969269
115b,მიხეილ წინამძღვრიშვილის ქუჩა,0164,41.7153773,44.7968590
115a,მიხეილ წინამძღვრიშვილის ქუჩა,0164,41.7154488,44.7967362
112,Ivane Javakhishvili street,0164,41.7150411,44.7972904
14,გიორგი ტოვსტონოგოვის ქუჩა,0164,41.7145010,44.7972077
16,გიორგი ტოვსტონოგოვის ქუჩა,0164,41.7146674,44.7975456
110,ივანე ჯავახიშვილის ქუჩა,0164,41.7148365,44.7976869
112,ივანე ჯავახიშვილის ქუჩა,0164,41.7148618,44.7973880
112,ივანე ჯავახიშვილის ქუჩა,0164,41.7150951,44.7975407
107,მიხეილ წინამძღვრიშვილის ქუჩა,0164,41.7143036,44.7974758
21,გიორგი ტოვსტონოგოვის ქუჩა,0164,41.7145551,44.7978795
7,ჭიაურელის ქუჩა,0159,41.7741669,44.7753432
1,კონსტანტინე ჩაჩავას ქუჩა,0159,41.7753700,44.7766947
5,ლუბლიანას ქუჩა,0159,41.7753579,44.7758835
5,ლუბლიანას ქუჩა,0159,41.7749905,44.7761941
5,Lubliana street,0159,41.7753761,44.7760892
48,Lubliana street,0159,41.7756114,44.7740536
5,Konstantine Chachava street,0159,41.7748428,44.7804396
34,ლუბლიანას ქუჩა,0159,41.7745080,44.7743246
36,ლუბლიანას ქუჩა,0159,41.7745323,44.7740422
11 კორპ. 1,ლუბლიანას ქუჩა,0159,41.7705926,44.7774688
11 კორპ. 2,ლუბლიანას ქუჩა,0159,41.7709780,44.7771695
2,ჭიაურელის ქუჩა,0159,41.7726709,44.7793131
2ა,ჭიაურელის ქუჩა,3700,41.7726045,44.7785231
3,ჭიაურელის ქუჩა,0159,41.7732094,44.7781756
3,კონსტანტინე ჩაჩავას ქუჩა,0159,41.7734994,44.7783327
2ა,კონსტანტინე ჩაჩავას ქუჩა,0159,41.7731498,44.7791234
15/1,ნავთლუღის ქუჩა,0113,41.6844576,44.8400851
39-41,ნავთლუღის ქუჩა,0144,41.6816133,44.8382876
46,Gulripshi Street,0101,41.7321227,44.8049318
46,Gulripshi Street,0101,41.7321807,44.8050029
6,ვაჟა-ფშაველას გამზირი,0160,41.7270783,44.7661483
36,პეკინის გამზირი,0160,41.7269580,44.7683514
2a,ვაჟა-ფშაველას გამზირი,0160,41.7272433,44.7680024
2,ვაჟა-ფშაველას გამზირი,0160,41.7272354,44.7675365
4,ვაჟა-ფშაველას გამზირი,0160,41.7272633,44.7670636
6,ვაჟა-ფშაველას გამზირი,0160,41.7272741,44.7665340
45,თელავის ქუჩა,0144,41.6911346,44.8250949
8,ბერბუკის ქუჩა,0171,41.7182068,44.7810970
10,ილო მოსაშვილის ქუჩა,0179,41.7101648,44.7570758
4,ილო მოსაშვილის ქუჩა,0179,41.7100889,44.7580825
3,ილო მოსაშვილის ქუჩა,0179,41.7104892,44.7576890
5,ილო მოსაშვილის ქუჩა,0179,41.7105590,44.7570341
18,ილო მოსაშვილის ქუჩა,0179,41.7102938,44.7560171
12,ილო მოსაშვილის ქუჩა,0179,41.7101775,44.7567521
3,მერაბ ალექსიძის ქუჩა,0193,41.7164227,44.7816099
2,გარე კახეთის ქუჩა,0144,41.6873005,44.8360697
5,Zurab Abuladze street,0182,41.6904598,44.8720091
41 დ,გურამიშვილის ქუჩა,0178,41.7802061,44.7990528
41 გ,გურამიშვილის ქუჩა,0178,41.7803214,44.7987133
6გ,გიორგი მუხაძის ქუჩა,0190,41.6947273,44.9242232
90,ქეთევან დედოფლის გამზირი,0144,41.6871207,44.8356690
7/2,ნუცუბიძის პლატო 4 მკრ,0183,41.7338695,44.7270679
64,დავით გურამიშვილის გამზირი,0141,41.7670604,44.7903968
62,დავით გურამიშვილის გამზირი,0141,41.7677891,44.7909466
62ა,დავით გურამიშვილის გამზირი,0141,41.7681053,44.7909766
64,დავით გურამიშვილის გამზირი,0141,41.7677586,44.7905542
64,დავით გურამიშვილის გამზირი,0141,41.7679821,44.7901147
64,დავით გურამიშვილის გამზირი,0141,41.7685645,44.7905576
64,დავით გურამიშვილის გამზირი,0141,41.7692030,44.7903852
64,დავით გურამიშვილის გამზირი,0141,41.7694845,44.7899230
64,დავით გურამიშვილის გამზირი,0141,41.7692167,44.7889213
84/86,ქეთევან დედოფლის გამზირი,0144,41.6873442,44.8339715
8,რიჩარდ ჰოლბრუკის ქუჩა,0113,41.6794515,44.8386805
3,Zaal Dumbadze street,0108,41.6924397,44.7943861
12,დანიელ ჭონქაძის ქუჩა,0108,41.6927113,44.7945591
10a,დანიელ ჭონქაძის ქუჩა,0108,41.6922347,44.7950971
10,დანიელ ჭონქაძის ქუჩა,0108,41.6926273,44.7951805
12,დანიელ ჭონქაძის ქუჩა,0108,41.6928608,44.7948887
14,დანიელ ჭონქაძის ქუჩა,0108,41.6930399,44.7947566
14,დანიელ ჭონქაძის ქუჩა,0108,41.6931351,44.7948887
14ა,დანიელ ჭონქაძის ქუჩა,0108,41.6933690,44.7946138
3,დანიელ ჭონქაძის II ჩიხი,0108,41.6955856,44.7915933
6,ნიაღვარის ქუჩა,0108,41.6949460,44.7930513
18,დანიელ ჭონქაძის ქუჩა,0105,41.6940391,44.7931674
18,დანიელ ჭონქაძის ქუჩა,0105,41.6938035,44.7931135
18,დანიელ ჭონქაძის ქუჩა,0105,41.6938600,44.7934161
18,დანიელ ჭონქაძის ქუჩა,0105,41.6938216,44.7934377
18,დანიელ ჭონქაძის ქუჩა,0105,41.6937863,44.7933594
30,Giorgi Gedevanishvili st.,0103,41.7020787,44.8149686
18,აკაკი წერეთლის გამზირი,0112,41.7277430,44.7878925
83a,ილია ჭავჭავაძის გამზირი,0102,41.7044754,44.7382085
4,ლიხაურის შესახვევი,0171,41.7166768,44.7680541
39/5,გიორგი ძოწენიძის ქუჩა,0186,41.7304672,44.7335909
39/5,რამაზ ჩხიკვაძის ქუჩა,0186,41.7304242,44.7333016
6,სიმონ კანდელაკის ქუჩა,0160,41.7305104,44.7672595
6a,სიმონ კანდელაკის ქუჩა,0160,41.7304221,44.7666449
7,არზაყან (დიმიტრი) ემუხვარის ქუჩა,0159,41.7539027,44.7579834
11,არზაყან (დიმიტრი) ემუხვარის ქუჩა,0159,41.7536700,44.7575570
4,Arkazan (Dmitri) Emukhvar Street,0159,41.7538811,44.7598628
18,ვალენტინ თოფურიძის ქუჩა,0159,41.7484956,44.7644242
22,ვალენტინ თოფურიძის ქუჩა,0159,41.7478162,44.7650907
20,ვალენტინ თოფურიძის ქუჩა,0159,41.7480642,44.7647608
13,არზაყან (დიმიტრი) ემუხვარის ქუჩა,0159,41.7537327,44.7574100
13ო,მიხეილ თამარაშვილის გამზირი,0177,41.7209990,44.7481681
13ო,მიხეილ თამარაშვილის გამზირი,0177,41.7213709,44.7485832
24,ოთარ ონიაშვილის ქუჩა,0160,41.7313612,44.7646696
18,Gazapkhuli street,0177,41.7315883,44.7423098
1,აკაკი წერეთლის გამზირი,0154,41.7313606,44.7843948
5,ალექსი გოგოლაურის I შესახვევი,0119,41.7320122,44.7828115
3,აკაკი წერეთლის გამზირი,0154,41.7320399,44.7837625
62,აკაკი წერეთლის გამზირი,0154,41.7317229,44.7841077
2,ალექსი გოგოლაურის I შესახვევი,0119,41.7328911,44.7833104
5,ალექსი გოგოლაურის ქუჩა,0119,41.7332477,44.7830902
78,აკაკი წერეთლის გამზირი,0119,41.7339293,44.7831438
80,აკაკი წერეთლის გამზირი,0119,41.7342558,44.7832534
82,აკაკი წერეთლის გამზირი,0119,41.7343238,44.7828644
84,აკაკი წერეთლის გამზირი,0119,41.7347580,44.7825885
2,ბესარიონ ჟღენტის ჩიხი,0183,41.7296745,44.7200019
5,ანასტასია ერისთავ-ხოშტარიას ქუჩა,0108,41.7026441,44.7869673
51,იოსებ გრიშაშვილის ქუჩა,0113,41.6852638,44.8185081
138,ბერი გაბრიელ სალოსის გამზირი,0190,41.6721129,44.8687843
145,ბერი გაბრიელ სალოსის გამზირი,0113,41.6726376,44.8628928
5,სულხან ცინცაძის ქუჩა,0194,41.7224983,44.7705379
8,ეგნატე ნინოშვილის ქუჩა,0102,41.7095210,44.8027139
1,ბოტანიკურის ქუჩა,0114,41.6857506,44.8093581
8,ასკანის ქუჩა,0105,41.6894170,44.8054733
14,ვალენტინ თოფურიძის ქუჩა,0159,41.7500167,44.7646898
29,ბოჭორმის ქუჩა,0144,41.6853470,44.8324176
18,გალაკტიონ ტაბიძის ქუჩა,0105,41.6905812,44.8015548
11,ივანე მაჩაბლის ქუჩა,0105,41.6904922,44.7997223
118,ჭაბუა ამირეჯიბის გზატკეცილი,0179,41.7116950,44.7749899
3/1,ანა პოლიტკოვსკაიას ქუჩა,0168,41.7203497,44.7152284
3/21,ანა პოლიტკოვსკაიას ქუჩა,0168,41.7216756,44.7158174
3/22,ანა პოლიტკოვსკაიას ქუჩა,0168,41.7218418,44.7161210
5ა,ზურაბ ანჯაფარიძის ქუჩა,0186,41.7230914,44.7122883
4,ალეკო შენგელიას ქუჩა,0179,41.7027182,44.7818811
37-Block VI,ილია ჭავჭავაძის გამზირი,0179,41.7114399,44.7591103
11ბ,ბახტრიონის ქუჩა,0160,41.7209431,44.7683868
63,ვალენტინ თოფურიძის ქუჩა,0159,41.7503690,44.7633014
63,ვალენტინ თოფურიძის ქუჩა,0159,41.7500159,44.7633771
63,ვალენტინ თოფურიძის ქუჩა,0159,41.7496706,44.7634591
72/18,ვიქტორ კუპრაძის ქუჩა,0163,41.7140758,44.8781066
72/21,ვიქტორ კუპრაძის ქუჩა,0163,41.7138676,44.8786216
72/17,ვიქტორ კუპრაძის ქუჩა,0163,41.7136699,44.8775323
72/20,ვიქტორ კუპრაძის ქუჩა,0163,41.7134269,44.8779837
72/23,ვიქტორ კუპრაძის ქუჩა,0163,41.7136012,44.8789297
72/25,ვიქტორ კუპრაძის ქუჩა,0163,41.7126388,44.8766883
1,ილია ვეკუას ქუჩა,0167,41.7897927,44.8142659
10,გივი კარტოზიას ქუჩა,0177,41.7230436,44.7489564
10,გივი კარტოზიას ქუჩა,0177,41.7233641,44.7496208
10,გივი კარტოზიას ქუჩა,0177,41.7233153,44.7504766
3/14,ანა პოლიტკოვსკაიას ქუჩა,0168,41.7209979,44.7144390
3/15,ანა პოლიტკოვსკაიას ქუჩა,0168,41.7213569,44.7145077
3/16,ანა პოლიტკოვსკაიას ქუჩა,0168,41.7217228,44.7145749
3,არზაყან (დიმიტრი) ემუხვარის II შესახვევი,0159,41.7540984,44.7582717
41,ვერცხლის ქუჩა,0105,41.6955125,44.8035052
2ე,ოთარ ლორთქიფანიძის ქუჩა,0186,41.7195201,44.7378435
75-6,ილია ჭავჭავაძის გამზირი,0162,41.7120490,44.7417713
75-7,ილია ჭავჭავაძის გამზირი,0162,41.7122431,44.7420470
75-5,ილია ჭავჭავაძის გამზირი,0162,41.7118471,44.7415000
75-4,ილია ჭავჭავაძის გამზირი,0162,41.7115505,44.7407393
18,ოთარ ლორთქიფანიძის ქუჩა,0114,41.7202870,44.7416237
2დ,ოთარ ლორთქიფანიძის ქუჩა,0186,41.7192529,44.7380745
6,ცაცხვების ქუჩა,0176,41.7413401,44.7494820
1,ცაცხვების ქუჩა,0176,41.7413692,44.7497440
7,ცაცხვების 7 შესახვევი,0176,41.7407453,44.7506467
72/26,ვიქტორ კუპრაძის ქუჩა,0163,41.7123414,44.8774003
72/27,ვიქტორ კუპრაძის ქუჩა,0163,41.7122880,44.8783185
8,შალვა რადიანის ქუჩა,0179,41.7063435,44.7699501
3/5,არჩილ სულაკაურის ქუჩა,0171,41.7215744,44.7760301
70,ჯავახეთის ქუჩა,0182,41.6884934,44.8703551
72,ჯავახეთის ქუჩა,0182,41.6887146,44.8701271
74,ჯავახეთის ქუჩა,0182,41.6888610,44.8702339
76,ჯავახეთის ქუჩა,0182,41.6890692,44.8701546
86,ჯავახეთის ქუჩა,0182,41.6895254,44.8703464
2,წმინდა ქეთევან დედოფლის გამზირი,0130,41.6876695,44.8227144
3,არზაყან (დიმიტრი) ემუხვარის I შესახვევი,0159,41.7533765,44.7595539
129ა,შალვა ნუცუბიძის ქუჩა,0186,41.7271170,44.7325375
17,გვაზაურის ქუჩა,0192,41.7538374,44.7907613
15,ტერენტი გრანელის ქუჩა,0102,41.7103480,44.8063770
13/20,მოსკოვის გამზირი,0120,41.6838665,44.8597278
4,მიხეილ ლერმონტოვის ქუჩა,0105,41.6909574,44.7992008
2,სულხან ნასიძის ქუჩა,0171,41.7161852,44.7771295
6,უნივერსიტეტის ქუჩა,0186,41.7176992,44.7365719
21,კრწანისის II შესახვევი,0114,41.6737289,44.8116575
3/14A,ანა პოლიტკოვსკაიას ქუჩა,0168,41.7207418,44.7144308
21,Z. Veshapuri Str.,0101,41.7215145,44.8038140
2,ცურტაველის ქუჩა,0105,41.6866583,44.8148552
15,მირიან მეფის ქუჩა,0159,41.7878797,44.7572745
13,მირიან მეფის ქუჩა,0159,41.7878839,44.7577284
6,ვალენტინ თოფურიძის ქუჩა,0159,41.7530171,44.7649624
16,ვალენტინ თოფურიძის ქუჩა,0159,41.7497106,44.7643820
7ბ,ვალენტინ თოფურიძის ქუჩა,0159,41.7511751,44.7624603
7ა,ვალენტინ თოფურიძის ქუჩა,0159,41.7509307,44.7627909
30 D2,ბობ უოლშის ქუჩა,0159,41.7953538,44.7796069
30 C2,ბობ უოლშის ქუჩა,0159,41.7953908,44.7792135
32 F,ბობ უოლშის ქუჩა,0159,41.7959051,44.7789161
6,კოტე მახარაძის ქუჩა,0179,41.7119115,44.7826156
6,იროდიონ ევდოშვილის ქუჩა,0154,41.7303162,44.7910498
33,მიხეილ იპოლიტოვ-ივანოვის ქუჩა,0153,41.7937784,44.8033753
33,მიხეილ იპოლიტოვ-ივანოვის ქუჩა,0153,41.7937344,44.8032385
33,მიხეილ იპოლიტოვ-ივანოვის ქუჩა,0153,41.7939197,44.8032489
4,გიორგი ჩიკვაიძის ქუჩა,0190,41.6941474,44.9686464
11 კორპ. 3,ლუბლიანას ქუჩა,0159,41.7709134,44.7779665
6,კობის ჩიხი,0172,41.7864036,44.8194159
8,კობის ჩიხი,0172,41.7863110,44.8195276
8,კონსტანტინე ჩაჩავას ქუჩა,0101,41.7762113,44.7770183
3 კორპ. 1,ავთო ვარაზის ქ. I შესახვევი,0186,41.7402398,44.7050651
3 კორპ. 2,ავთო ვარაზის ქ. I შესახვევი,0186,41.7405980,44.7043260
20,ნინო რამიშვილის ქუჩა,0179,41.7131225,44.7663675
3/38,ანა პოლიტკოვსკაიას ქუჩა,0168,41.7234172,44.7142034
3/26,ანა პოლიტკოვსკაიას ქუჩა,0168,41.7220987,44.7141856
12ა,ანა პოლიტკოვსკაიას ქუჩა,0186,41.7196828,44.7117406
12,ანა პოლიტკოვსკაიას ქუჩა,0186,41.7196299,44.7122999
22,ვახტანგ გორგასლის ქუჩა,0114,41.6779114,44.8266041
26,ნინო ჟვანიას ქუჩა,0179,41.7012112,44.7687210
10,ნინო ჟვანიას ქუჩა,0179,41.7025363,44.7723859
8,ნინო ჟვანიას ქუჩა,0179,41.7026963,44.7735638
2,ომარ ხიზანიშვილის ქუჩა,0167,41.7910220,44.8133637
11,ალეკო გობრონიძის ქუჩა,0167,41.7870103,44.8186082
3/13,ანა პოლიტკოვსკაიას ქუჩა,0168,41.7210315,44.7139947
3/27,ანა პოლიტკოვსკაიას ქუჩა,0168,41.7223521,44.7142346
7,ანა პოლიტკოვსკაიას ქუჩა,0186,41.7212883,44.7127172
59,ანა პოლიტკოვსკაიას ქუჩა,0186,41.7222561,44.7045326
9,გოჩა ონაშვილის ქუჩა,0190,41.6886393,44.8597187
9ა,იოანე პეტრიწის ქუჩა,0131,41.7937077,44.7598799
16ა,იოანე პეტრიწის ქუჩა,0131,41.7917544,44.7558372
10,თენგიზ ჩანტლაძის I შესახვევი,0190,41.6990995,44.9205700
1,თენგიზ ჩანტლაძის ქუჩა,0190,41.6985734,44.9238090
8,ცაცხვების ქუჩა,0176,41.7410860,44.7508734
30,ანა პოლიტკოვსკაიას ქუჩა,0180,41.7201867,44.7080157
7,პეტრე იბერის ქუჩა,0159,41.7915238,44.7535929
1,P. Iberi Lane,0159,41.7914729,44.7543549
10,პეტრე იბერის ქუჩა,0159,41.7916074,44.7549137
12,P. Iberi St,0159,41.7918013,44.7548991
14,P. Iberi St,0159,41.7920047,44.7548575
8,პეტრე იბერის ქუჩა,0159,41.7913836,44.7547918
14გ,კრწანისის ქუჩა,0114,41.6740003,44.8230155
15ა,ბეჟან კალანდაძის ქუჩა,0114,41.6805272,44.8189195
32 A,ბობ უოლშის ქუჩა,0159,41.7959285,44.7799959
32 B,ბობ უოლშის ქუჩა,0159,41.7959277,44.7795428
32 E,ბობ უოლშის ქუჩა,0159,41.7959381,44.7805880
30 D1,ბობ უოლშის ქუჩა,0159,41.7953105,44.7805790
30 C1,ბობ უოლშის ქუჩა,0159,41.7953476,44.7801855
30 G,ბობ უოლშის ქუჩა,0159,41.7954305,44.7811790
30 F3,ბობ უოლშის ქუჩა,0159,41.7948878,44.7801881
30 H3,ბობ უოლშის ქუჩა,0159,41.7948763,44.7810757
1,ჭავჭავაძის გამზირი 1-ლი ჩიხი,0179,41.7108831,44.7668043
9,ნინო რამიშვილის ქუჩა,0179,41.7112663,44.7683902
1,ბიოლის ქუჩა,0114,41.6663068,44.7192418
33,ილია ჭავჭავაძის გამზირი,0179,41.7116101,44.7619810
37,ილია ჭავჭავაძის გამზირი,0162,41.7117694,44.7583998
42,ზაქარია ფალიაშვილის ქუჩა,0179,41.7081660,44.7676934
35,ბესარიონ ჟღენტის ქუჩა,0183,41.7292032,44.7271179
8ა,ალავერდის ქუჩა,0190,41.7259749,44.8372021
8,ალავერდის ქუჩა,0198,41.7258364,44.8370525
15ა,უნივერსიტეტის ქუჩა,0186,41.7180432,44.7267722
28,Lubliana II Dead End,0159,41.7727926,44.7746169
45,ანა პოლიტკოვსკაიას ქუჩა,0186,41.7232399,44.7054775
20გ,აწყურის ქუჩა,0144,41.6899638,44.8331504
11,ჯორჯ ბალანჩინის ქუჩა,0131,41.7871447,44.7767626
40,ანდრია რაზმაძეს ქუჩა,0179,41.7070735,44.7613618
17,უშანგი ჩხეიძის ქუჩა,0102,41.7098185,44.7926601
63,ნინო ჟვანიას ქუჩა,0179,41.7012494,44.7665923
23,პეტრე ქავთარაძის ქუჩა,0186,41.7220671,44.7314533
32 H,ბობ უოლშის ქუჩა,0159,41.7958464,44.7812117
23,Vladimer Naneishvili str.,0143,41.7943788,44.8288682
23,Vladimer Naneishvili str.,0143,41.7940440,44.8285884
2,კობის ჩიხი,0172,41.7866385,44.8191050
4,კობის ჩიხი,0172,41.7865228,44.8192070
5,კობის ჩიხი,0172,41.7864259,44.8188959
7,კობის ჩიხი,0172,41.7863459,44.8189614
13,კობის ჩიხი,0172,41.7860832,44.8193381
27a,Tsinanuri,0114,41.6786279,44.8168685
2,უნივერსიტეტის ქუჩა,0177,41.7189431,44.7415594
11,ალეკო გობრონიძის ქუჩა,0167,41.7872533,44.8187450
12,ილია ჭავჭავაძის გამზირი,0179,41.7091189,44.7767245
VI-ე კორპუსის მიმდებარედ,მუხიანი II მიკრო-რაიონი,0172,41.7873028,44.8232311
5,ცაცხვების 7 შესახვევი,0176,41.7407130,44.7502109
1,ცაცხვების 7 შესახვევი,0176,41.7407474,44.7499298
4,სოღანლუღის შესახვევი,0114,41.6859702,44.8145185
11,ალეკო გობრონიძის ქუჩა,0167,41.7873266,44.8181477
16,ბოჭორმის ქუჩა,0144,41.6863508,44.8309476
11,კობის ჩიხი,0172,41.7861788,44.8193214
2,სანაპიროს ქუჩა,0114,41.6990404,44.8066546
2,Isakiani Blind Alley,0172,41.7805608,44.8258050
26,ჰამლეტ გონაშვილის ქუჩა,0103,41.6938504,44.8153862
15,თეიმურაზ ბოჭორიშვილის ქუჩა,0167,41.7922367,44.8084299
29გ,მ. ნოზაძის ქუჩა,0167,41.7901026,44.8256861
2,გივი ამილახვარის ქუჩა,0190,41.6898932,44.9111091
72/3,Viktor Kupradze,0163,41.7145924,44.8744083
72/5,Viktor Kupradze,0163,41.7143134,44.8748067
72/4,Viktor Kupradze,0163,41.7149750,44.8753321
72/6,Viktor Kupradze,0163,41.7147800,44.8758581
72/8,Viktor Kupradze,0163,41.7137499,44.8754603
196,დავით გურამიშვილის გამზირი,0178,41.7842518,44.7976910
198,დავით გურამიშვილის გამზირი,0178,41.7844181,44.7979320
23,Giorgi Shatberashvili st.,0162,41.7038841,44.7726767
23,Giorgi Shatberashvili,0162,41.7038200,44.7726113
23,George Shatberashvili Street,0162,41.7039326,44.7726830
1,ვასილ პეტრიაშვილის ქუჩა,0179,41.7083775,44.7810328
19,შალვა რადიანის ქუჩა,0179,41.7066009,44.7677247
17,შალვა რადიანის ქუჩა,0179,41.7065875,44.7680761
15,შალვა რადიანის ქუჩა,0179,41.7065944,44.7682837
13,შალვა რადიანის ქუჩა,0179,41.7065800,44.7684879
9,შალვა რადიანის ქუჩა,0179,41.7064947,44.7686853
7ა,შალვა რადიანის ქუჩა,0179,41.7065025,44.7690872
5,შალვა რადიანის ქუჩა,0179,41.7066287,44.7696715
7,შალვა რადიანის ქუჩა,0179,41.7064618,44.7696049
6,შალვა რადიანის ქუჩა,0179,41.7065605,44.7699860
17,მცხეთის ქუჩა,0179,41.7064528,44.7718658
15,მცხეთის ქუჩა,0179,41.7064740,44.7723304
13,მცხეთის ქუჩა,0179,41.7065343,44.7725949
28,მცხეთის ქუჩა,0179,41.7056797,44.7697181
34,მცხეთის ქუჩა,0179,41.7056115,44.7691966
20,მცხეთის ქუჩა,0179,41.7058360,44.7708394
10,შალვა რადიანის ქუჩა,0179,41.7062215,44.7695768
10გ,შალვა რადიანის ქუჩა,0179,41.7062440,44.7692129
12,შალვა რადიანის ქუჩა,0179,41.7062882,44.7687952
14,შალვა რადიანის ქუჩა,0179,41.7062856,44.7685640
16,შალვა რადიანის ქუჩა,0179,41.7063127,44.7683618
18,შალვა რადიანის ქუჩა,0179,41.7063355,44.7681306
5,მცხეთის II შესახვევი,0179,41.7049220,44.7697849
45,სიმონ ჩიქოვანის ქუჩა,0171,41.7150392,44.7730847
18,მცხეთის ქუჩა,0179,41.7059512,44.7712275
15,ნინო ჟვანიას ქუჩა,0179,41.7020324,44.7706341
3,გრიგოლ ნათაძის ქუჩა,0180,41.7442042,44.7893031
1,გრიგოლ ნათაძის ქუჩა,0180,41.7441463,44.7892640
3,გრიგოლ ნათაძის ქუჩა,0180,41.7442470,44.7893998
5,გრიგოლ ნათაძის ქუჩა,0180,41.7443092,44.7893883
5,გრიგოლ ნათაძის ქუჩა,0180,41.7443764,44.7894705
5,გრიგოლ ნათაძის ქუჩა,0180,41.7443231,44.7895916
7,გრიგოლ ნათაძის ქუჩა,0180,41.7444565,44.7894801
2,გრიგოლ ნათაძის ქუჩა,0180,41.7446099,44.7893514
15,ბეგინეთის ქუჩა,0180,41.7448913,44.7900167
9,გრიგოლ ნათაძის ქუჩა,0180,41.7446220,44.7896332
9ა,გრიგოლ ნათაძის ქუჩა,0180,41.7445845,44.7897112
9ა,გრიგოლ ნათაძის ქუჩა,0180,41.7445242,44.7896604
7,გრიგოლ ნათაძის ქუჩა,0180,41.7443765,44.7897050
5,გრიგოლ ნათაძის ქუჩა,0180,41.7442515,44.7895139
5,გრიგოლ ნათაძის ქუჩა,0180,41.7442130,44.7896255
319,ცოტნე დადიანის ქუჩა,0180,41.7497264,44.7910356
2,ზედაზენის ქუჩა,0180,41.7441156,44.7940333
4,ზედაზენის ქუჩა,0180,41.7440019,44.7945422
3/2,ანა პოლიტკოვსკაიას ქუჩა,0168,41.7203660,44.7147948
1,ვასილ პეტრიაშვილის ქუჩა,0179,41.7082514,44.7803605
3/7,ანა პოლიტკოვსკაიას ქუჩა,0168,41.7211878,44.7152089
3/3,ანა პოლიტკოვსკაიას ქუჩა,0168,41.7206844,44.7151393
3/5,ანა პოლიტკოვსკაიას ქუჩა,0168,41.7209567,44.7151868
3/37,ანა პოლიტკოვსკაიას ქუჩა,0168,41.7230892,44.7138599
3/29,ანა პოლიტკოვსკაიას ქუჩა,0168,41.7230385,44.7143195
3/36,ანა პოლიტკოვსკაიას ქუჩა,0168,41.7227938,44.7138044
3/28,ანა პოლიტკოვსკაიას ქუჩა,0168,41.7227429,44.7142671
76a,Vladimer Naneishvili str.,0143,41.7939756,44.8297405
3/4,ანა პოლიტკოვსკაიას ქუჩა,0168,41.7206841,44.7147739
3/8,ანა პოლიტკოვსკაიას ქუჩა,0168,41.7213178,44.7148914
3/9,ანა პოლიტკოვსკაიას ქუჩა,0168,41.7216803,44.7149568
3/6,ანა პოლიტკოვსკაიას ქუჩა,0168,41.7209997,44.7148328
3/20,ანა პოლიტკოვსკაიას ქუჩა,0168,41.7216449,44.7154499
3/19,ანა პოლიტკოვსკაიას ქუჩა,0168,41.7212865,44.7155278
3/18,ანა პოლიტკოვსკაიას ქუჩა,0168,41.7217553,44.7142105
3/17,ანა პოლიტკოვსკაიას ქუჩა,0168,41.7213953,44.7141412
3/32,ანა პოლიტკოვსკაიას ქუჩა,0168,41.7228807,44.7147924
3/30,ანა პოლიტკოვსკაიას ქუჩა,0168,41.7221559,44.7146575
3/31,ანა პოლიტკოვსკაიას ქუჩა,0168,41.7225165,44.7147257
16,ანაპის 414-ე დივიზიას ქუჩა,0178,41.7780186,44.8072813
6,დიდი ხეივნის ქუჩა,0114,41.6786817,44.8292392
22,გიორგი ჭყონდიდელის ქუჩა,0180,41.7391359,44.7925195
255,ცოტნე დადიანის ქუჩა,0180,41.7414680,44.7947503
57,ანა პოლიტკოვსკაიას ქუჩა,0186,41.7226268,44.7037233
55,ანა პოლიტკოვსკაიას ქუჩა,0186,41.7227828,44.7040639
33ა,ანა პოლიტკოვსკაიას ქუჩა,0186,41.7214013,44.7066403
13ბ,ელიზბარ მინდელის ქუჩა,0186,41.7213246,44.7071923
13ა,ელიზბარ მინდელის ქუჩა,0186,41.7217177,44.7073678
8ბ,ელიზბარ მინდელის ქუჩა,0186,41.7242539,44.7105612
6,ძმები სლოვინსკების ქუჩა,0190,41.6996846,44.9256463
6,ძმები სლოვინსკების ქუჩა,0190,41.7006114,44.9245867
6,ძმები სლოვინსკების ქუჩა,0190,41.7009147,44.9253022
6,ძმები სლოვინსკების ქუჩა,0190,41.6997013,44.9246502
6,ძმები სლოვინსკების ქუჩა,0190,41.6997492,44.9249966
4,გრიგოლ ნათაძის ქუჩა,0180,41.7447408,44.7894868
24,თეიმურაზ ბოჭორიშვილის ქუჩა,0167,41.7919276,44.8078371
7D,ცოტნე დადიანის ქუჩა,1010,41.7194412,44.8030634
26,თეიმურაზ ბოჭორიშვილის ქუჩა,0167,41.7919979,44.8076530
20,თეიმურაზ ბოჭორიშვილის ქუჩა,0167,41.7916620,44.8081933
46,ხატაეთის ქუჩა,0159,41.7797886,44.7576492
43,ორთაჭალა,0114,41.6784086,44.8181219
13,გრიგოლ ნათაძის ქუჩა,0180,41.7447422,44.7899753
16,ბეგინეთის ქუჩა,0180,41.7448358,44.7901352
4,გრიგოლ ნათაძის ქუჩა,0180,41.7448491,44.7895094
18,ლადო გუდიაშვილის ქუჩა,0105,41.6970859,44.8001113
31,გრიგოლ რობაქიძის გამზირი,0159,41.7617925,44.7699169
37,მოსკოვის გამზირი,0137,41.6719432,44.8816365
7,პავლე ასლანიდის ქუჩა,0171,41.7183961,44.7799020
15,საქართველოს ერთიანობისთვის მებრძოლთა ქუჩა,0163,41.6975118,44.8740144
3,ზურაბ ანჯაფარიძის I შესახვევი,0168,41.7231947,44.7155869
2ბ,იოანე პეტრიწის ქუჩა,0131,41.7921549,44.7636466
20,ჯუმბერ ლეჟავას ქუჩა,0190,41.7092431,44.8492118
17,ნიკიფორე ირბახის ქუჩა,0155,41.6922560,44.8208982
17,ნიკიფორე ირბახის ქუჩა,0155,41.6929289,44.8211405
17,ნიკიფორე ირბახის ქუჩა,0155,41.6928965,44.8204851
17,ნიკიფორე ირბახის ქუჩა,0155,41.6924558,44.8214126
15,მიხეილ მესხის ქუჩა,0101,41.7252501,44.8042966
3,გიორგი გურამიშვილის ქუჩა,0114,41.6747015,44.8270057
41 დ,გურამიშვილის ქუჩა,0178,41.7801150,44.7993786
25,გიორგი ბრწყინვალეს ქუჩა,0131,41.7891546,44.7568299
72/16,ვიქტორ კუპრაძის ქუჩა,0163,41.7133580,44.8767899
72/19,ვიქტორ კუპრაძის ქუჩა,0163,41.7130650,44.8772105
72/22,ვიქტორ კუპრაძის ქუჩა,0163,41.7128662,44.8778169
72/24,ვიქტორ კუპრაძის ქუჩა,0163,41.7126700,44.8784582
3,მერაბ ალექსიძის III შეს.,0171,41.7187917,44.7824707
3,ნინო ჟვანიას ქუჩა,0179,41.7031970,44.7741749
60/34,ილია ჭავჭავაძის გამზირი,0162,41.7103429,44.7601910
3,ალექსი გოგოლაურის I შესახვევი,0119,41.7324091,44.7826491
33ბ,ანა პოლიტკოვსკაიას ქუჩა,0186,41.7216299,44.7061467
18,გიორგი ტერევერკოს ქუჩა,0159,41.7756871,44.7730662
16,გიორგი ტერევერკოს ქუჩა,0159,41.7759381,44.7730752
14,გიორგი ტერევერკოს ქუჩა,0159,41.7761177,44.7730719
12,გიორგი ტერევერკოს ქუჩა,0159,41.7763824,44.7730624
10,გიორგი ტერევერკოს ქუჩა,0159,41.7763793,44.7733814
8,გიორგი ტერევერკოს ქუჩა,0159,41.7763822,44.7737126
6,გიორგი ტერევერკოს ქუჩა,0159,41.7763870,44.7739734
24,გიორგი ტერევერკოს ქუჩა,0159,41.7755390,44.7725573
22,გიორგი ტერევერკოს ქუჩა,0159,41.7757748,44.7726516
20,გიორგი ტერევერკოს ქუჩა,0159,41.7759670,44.7726695
5გ,ანა პოლიტკოვსკაიას ქუჩა,0186,41.7206321,44.7119272
5ა,ანა პოლიტკოვსკაიას ქუჩა,0186,41.7207198,44.7120246
13/1,მოსკოვის გამზირი,0120,41.6838494,44.8589004
13/2,მოსკოვის გამზირი,0120,41.6837221,44.8593679
13/3,მოსკოვის გამზირი,0120,41.6835957,44.8598218
13/11,მოსკოვის გამზირი,0120,41.6833401,44.8603321
13/12,მოსკოვის გამზირი,0120,41.6829675,44.8601402
13/4,მოსკოვის გამზირი,0120,41.6834532,44.8585741
13/5,მოსკოვის გამზირი,0120,41.6833474,44.8589931
13/6,მოსკოვის გამზირი,0120,41.6832443,44.8594274
13/7,მოსკოვის გამზირი,0120,41.6831412,44.8598600
2ა,ბესარიონ ჟღენტის ჩიხი,0183,41.7298915,44.7205599
1ა,ბესარიონ ჟღენტის ჩიხი,0183,41.7301043,44.7213024
1გ,ბესარიონ ჟღენტის ჩიხი,0183,41.7300984,44.7211985
1დ,ბესარიონ ჟღენტის ჩიხი,0183,41.7300956,44.7211421
1ე,ბესარიონ ჟღენტის ჩიხი,0183,41.7300922,44.7210633
1,ბესარიონ ჟღენტის ჩიხი,0183,41.7301083,44.7208171
3,ბესარიონ ჟღენტის ჩიხი,0183,41.7300462,44.7202714
5,ბესარიონ ჟღენტის ჩიხი,0183,41.7300700,44.7199899
7,ბესარიონ ჟღენტის ჩიხი,0183,41.7300131,44.7196953
9,ბესარიონ ჟღენტის ჩიხი,0183,41.7299800,44.7194546
70ა,ვაჟა-ფშაველას გამზირი,0186,41.7242944,44.7363270
13,ლუბლიანას ქუჩა,0159,41.7733096,44.7758445
65,ნინო ჟვანიას ქუჩა,0179,41.7010298,44.7665642
61,ნინო ჟვანიას ქუჩა,0179,41.7014028,44.7665652
28,შალვა ნუცუბიძის ქუჩა,0177,41.7290778,44.7507995
14,თამარ მეფის გამზირი,0112,41.7199943,44.7948631
18,თამარ მეფის გამზირი,0112,41.7206331,44.7951669
16,თამარ მეფის გამზირი,0112,41.7200684,44.7950773
16ა,თამარ მეფის გამზირი,0112,41.7201519,44.7952760
4გ,ანა პოლიტკოვსკაიას ქუჩა,0186,41.7192476,44.7156696
10,ნინო ჟვანიას ქუჩა,0179,41.7035857,44.7751705
1,აკაკი ბელიაშვილის ქუჩა,0159,41.7624370,44.7805380
26 კორპ. 3,ალექსანდრე ყაზბეგის გამზირი,0177,41.7232955,44.7447721
26,გიორგი ჩიტაიას ქუჩა,0164,41.7165296,44.8020377
28,გიორგი ჩიტაიას ქუჩა,0164,41.7166541,44.8020453
14,ნინო ჟვანიას ქუჩა,0179,41.7020476,44.7712162
14,ნინო ჟვანიას ქუჩა,0179,41.7018858,44.7712517
1 block 1,მარშალ გელოვანის გამზირი,0159,41.7517715,44.7714457
3,თენგიზ ჩანტლაძის ქუჩა,0190,41.6921249,44.9274008
84,მოსე ჯანაშვილის ქუჩა,0179,41.7070588,44.7766484
6,ალეკო შენგელიას ქუჩა,0179,41.7024809,44.7817280
3,თენგიზ ჩანტლაძის ქუჩა,0109,41.6917896,44.9273912
1,კობა აბზიანიძის ქუჩა,0190,41.6961445,44.9267390
3,თენგიზ ჩანტლაძის ქუჩა,0109,41.6917852,44.9275079
10/9,კობა აბზიანიძის ქუჩა,0190,41.6957407,44.9242340
70,გიორგი მუხაძის ქუჩა,0190,41.6950311,44.9243237
70,გიორგი მუხაძის ქუჩა,0190,41.6951747,44.9243261
4,კობა აბზიანიძის ქუჩა,0190,41.6956462,44.9262533
17,Ialbuzi Street,0149,41.6847621,44.8246151
82,ჯავახეთის ქუჩა,0182,41.6892009,44.8701547
41,ვაჟა ბანეთიშვილის ქუჩა,0190,41.6900403,44.9250065
29ბ,ადამ მიცკევიჩის ქუჩა,0194,41.7249543,44.7601482
3,შოთა ყავლაშვილის ქუჩა,0105,41.6935722,44.8052761
11ა,ივანე მაჩაბლის ქუჩა,0105,41.6906929,44.7993878
1 block 2,მარშალ გელოვანის გამზირი,0159,41.7513652,44.7710231
1 block 3,მარშალ გელოვანის გამზირი,0159,41.7517525,44.7708409
21,უშანგი ჩხეიძის ქუჩა,0102,41.7090296,44.7929214
21,უშანგი ჩხეიძის ქუჩა,0102,41.7089288,44.7932698
25,უშანგი ჩხეიძის ქუჩა,0102,41.7086785,44.7932778
2,სულხან ნასიძის ქუჩა,0171,41.7161071,44.7767651
59,ზაქარია ფალიაშვილის ქუჩა,0179,41.7097079,44.7592655
57,ზაქარია ფალიაშვილის ქუჩა,0179,41.7096112,44.7600896
22,დანიელ ჭონქაძის ქუჩა,0108,41.6952533,44.7919622
15;17,ჩახრუხაძის ქუჩა,0105,41.6953307,44.8063998
18,შავთელის ქუჩა,0105,41.6954491,44.8064294
20,შავთელის ქუჩა,0105,41.6955089,44.8064052
1,მარტყოფის ქუჩა,0103,41.6932050,44.8186990
23,ფოსტის ქუჩა,0103,41.6913599,44.8207062
7/7,მიხეილ წინამძღვრიშვილის ქუჩა,0102,41.7033366,44.8056954
7/7,მიხეილ წინამძღვრიშვილის ქუჩა,0102,41.7027836,44.8061038
37,დავით აღმაშენებლის გამზირი,0102,41.7044336,44.8022307
39,ანაპის 414-ე დივიზიას ქუჩა,0178,41.7783546,44.8042987
11,ურეკის ჩიხი,0178,41.7778197,44.8033614
4,ვახტანგ ტაბლიაშვილის ქუჩა,0179,41.7094580,44.7301162
22ა,გიორგი ჭყონდიდელის ქუჩა,0180,41.7389257,44.7920299
2,ვასილ ბარნოვის ქუჩა,0107,41.7032169,44.7893555
4ა,ურეკის ჩიხი,0178,41.7783562,44.8037299
33,აკაკი შანიძის ქუჩა,0179,41.7048071,44.7797965
29ა,იური გაგარინის ქუჩა,0160,41.7357447,44.7707833
14,ნაფარეულის ქუჩა,0179,41.7074886,44.7769330
13,დიმიტრი არაყიშვილის ქუჩა,0179,41.7071753,44.7662635
11,დიმიტრი არაყიშვილის ქუჩა,0179,41.7071582,44.7665863
72,ილია ჭავჭავაძის გამზირი,0179,41.7110215,44.7556414
68,ილია ჭავჭავაძის გამზირი,0179,41.7110255,44.7565994
70,ილია ჭავჭავაძის გამზირი,0179,41.7111016,44.7560909
20,ფორე მოსულიშვილის ქუჩა,0167,41.7948418,44.8125728
3,კონსტანტინე ჩაჩავას ქუჩა,0159,41.7746356,44.7783558
5,კონსტანტინე ჩაჩავას ქუჩა,0159,41.7742585,44.7793930
47,მოსკოვის გამზირი,0137,41.6707604,44.8874524
6,Mukhran Machavariani,0186,41.7384830,44.7528032
6,Mukhran Machavariani Street,0186,41.7380800,44.7524973
6,Mukhran Machavariani Street,0186,41.7377231,44.7528666
12,მერაბ ალექსიძის ქუჩა,0171,41.7168976,44.7854136
8,ბესარიონ ჟღენტის ქუჩა,0186,41.7273462,44.7234598
47,მერაბ კოსტავას ქუჩა,0179,41.7098884,44.7853267
113a,მიხეილ წინამძღვრიშვილის ქუჩა,0164,41.7150424,44.7969121
22,ვიქტორ დოლიძის ქუჩა,0171,41.7170040,44.7697328
4,კოტე მარჯანიშვილის ქუჩა,0107,41.7084968,44.7939640
8,ვაჟა ბანეთიშვილის ქუჩა,0190,41.6895931,44.9251852
8,ვაჟა ბანეთიშვილის ქუჩა,0190,41.6894015,44.9250148
6ბ,გიორგი მუხაძის ქუჩა,0190,41.6946135,44.9242165
16,კოტე მარჯანიშვილის ქუჩა,0102,41.7094025,44.7959330
1,გიორგი მუხაძის ქუჩა,0190,41.6933329,44.9238797
1,პირველი რესპუბლიკის მოედანი,0108,41.7039271,44.7937404
7/2,ნუცუბიძის პლატო 4 მკრ,0183,41.7338709,44.7274125
51,იოსებ გრიშაშვილის ქუჩა,0113,41.6850237,44.8182937
16,პეტრე იბერის ქუჩა,0159,41.7924048,44.7545320
16,პეტრე იბერის ქუჩა,0159,41.7924041,44.7548103
46,თენგიზ ჩანტლაძის ქუჩა,0190,41.7044358,44.9331662
46,თენგიზ ჩანტლაძის ქუჩა,0190,41.7044810,44.9328921
32,ბახტრიონის ქუჩა,0160,41.7204544,44.7633089
64,დავით გურამიშვილის გამზირი,0141,41.7677774,44.7881987
3,თენგიზ ჩანტლაძის ქუჩა,0190,41.6920382,44.9273716
15,გიორგი მუხაძის ქუჩა,0190,41.6932884,44.9203373
11ა,გიორგი მუხაძის ქუჩა,0190,41.6940191,44.9210484
13/8,მოსკოვის გამზირი,0120,41.6830572,44.8583894
13/9,მოსკოვის გამზირი,0120,41.6829337,44.8588434
13/10,მოსკოვის გამზირი,0120,41.6828068,44.8593207
13/15,მოსკოვის გამზირი,0120,41.6828110,44.8581308
13/16,მოსკოვის გამზირი,0120,41.6825736,44.8585729
17,გიორგი მუხაძის ქუჩა,0190,41.6939345,44.9195148
21,თენგიზ ჩანტლაძის ქუჩა,0190,41.7001664,44.9297331
46,თენგიზ ჩანტლაძის ქუჩა,0190,41.7092069,44.9337917
46,თენგიზ ჩანტლაძის ქუჩა,0190,41.7050265,44.9331658
46,თენგიზ ჩანტლაძის ქუჩა,0190,41.7050518,44.9329820
16ა,თეთრიხევის ქუჩა,0190,41.7052279,44.9344420
16,თეთრიხევის ქუჩა,0190,41.7050933,44.9341154
6,ძმები სლოვინსკების ქუჩა,0190,41.7009848,44.9261187
6,ძმები სლოვინსკების ქუჩა,0190,41.7010714,44.9259585
6,ძმები სლოვინსკების ქუჩა,0190,41.7011701,44.9256085
6,ძმები სლოვინსკების ქუჩა,0190,41.7011260,44.9255765
6,ძმები სლოვინსკების ქუჩა,0190,41.7011349,44.9255331
6,ძმები სლოვინსკების ქუჩა,0190,41.6995235,44.9254368
6,ძმები სლოვინსკების ქუჩა,0190,41.7006391,44.9260233
10,თენგიზ ჩანტლაძის I შესახვევი,0190,41.6995431,44.9215969
10,თენგიზ ჩანტლაძის I შესახვევი,0190,41.6995856,44.9214872
10,თენგიზ ჩანტლაძის I შესახვევი,0190,41.6996936,44.9208225
20,გიორგი მუხაძის ქუჩა,0190,41.6932126,44.9219235
5,დავით კაკაბაძის II შესახვევი,0190,41.6920635,44.9218944
13,დავით კაკაბაძის II შესახვევი,0190,41.6925053,44.9218711
11,დავით კაკაბაძის II შესახვევი,0190,41.6924553,44.9219564
11,დავით კაკაბაძის II შესახვევი,0190,41.6924142,44.9221019
8,გიორგი მუხაძის I შესახვევი,0190,41.6927139,44.9212433
8,დავით კაკაბაძის II შესახვევი,0190,41.6926248,44.9214940
6,დავით კაკაბაძის II შესახვევი,0190,41.6924724,44.9214463
4,დავით კაკაბაძის II შესახვევი,0190,41.6922787,44.9212664
40,დავით კაკაბაძის ქუჩა,0190,41.6917972,44.9215984
7,დავით კაკაბაძის II შესახვევი,0190,41.6922569,44.9218211
5,დავით კაკაბაძის II შესახვევი,0190,41.6921618,44.9217619
3,დავით კაკაბაძის II შესახვევი,0190,41.6920112,44.9216554
3,დავით კაკაბაძის II შესახვევი,0190,41.6920227,44.9218000
29ა,დავით კაკაბაძის II შესახვევი,0190,41.6920647,44.9211050
2ა,დავით კაკაბაძის II შესახვევი,0190,41.6920091,44.9212427
2,დავით კაკაბაძის II შესახვევი,0190,41.6921059,44.9212873
22,გიორგი მუხაძის ქუჩა,0190,41.6934573,44.9215900
22,გიორგი მუხაძის ქუჩა,0190,41.6934538,44.9216553
14,გიორგი მუხაძის I შესახვევი,0190,41.6930253,44.9216670
28,ვაჟა ბანეთიშვილის ქუჩა,0190,41.6910116,44.9214179
23,ვაჟა ბანეთიშვილის ქუჩა,0190,41.6909870,44.9213005
1,დავით კაკაბაძის II შესახვევი,0190,41.6919568,44.9216207
5ბ,დავით კაკაბაძის II შესახვევი,0190,41.6921937,44.9216688
9,დავით კაკაბაძის II შესახვევი,0190,41.6923756,44.9218075
28,ჯუმბერ ბეთაშვილის ქუჩა,0180,41.7328583,44.8379357
52,გიორგი მუხაძის ქუჩა,0190,41.6947904,44.9200400
52,გიორგი მუხაძის ქუჩა,0190,41.6951768,44.9198469
52,გიორგი მუხაძის ქუჩა,0190,41.6949729,44.9197229
2ა,ევგენი ხარაძის ქუჩა,0153,41.7888462,44.8033176
39,ვაჟა ბანეთიშვილის ქუჩა,0190,41.6899260,44.9254059
28,გლდანის VII მკრ. (Gldani 7th. District),0107,41.8064152,44.8389543
28ა,ნადირა ხოშარაულის ქუჩა,0917,41.7330836,44.7811365
28ბ,ნადირა ხოშარაულის ქუჩა,0917,41.7328008,44.7814499
1,მწვანე ქუჩა,0167,41.7990461,44.8339579
17,მწვანე ქუჩა,0167,41.7969542,44.8355240
15,მწვანე ქუჩა,0167,41.7970371,44.8354858
11,მწვანე ქუჩა,0167,41.7972554,44.8351256
24,მწვანე ქუჩა,0167,41.7972470,44.8357848
22,მწვანე ქუჩა,0167,41.7974559,44.8358724
7,მწვანე ქუჩა,0167,41.7978710,44.8346890
6ა,მწვანე ქუჩა,0167,41.7987663,44.8351165
8,მწვანე ქუჩა,0167,41.7984913,44.8350072
4,მწვანე ქუჩა,0167,41.7990445,44.8346693
9,მწვანე ქუჩა,0167,41.7977976,44.8348917
6,მწვანე ქუჩა,0167,41.7985717,44.8347409
16,მწვანე ქუჩა,0167,41.7977617,44.8353117
2,მწვანე ქუჩა,0167,41.7991808,44.8345150
18,მწვანე ქუჩა,0167,41.7975608,44.8353510
12,მწვანე ქუჩა,0167,41.7981213,44.8351707
18,კუმისის ქუჩა,0102,41.7001715,44.8113575
70,შუამთის ქუჩა,0182,41.6863075,44.8877467
64,დავით გურამიშვილის გამზირი,0141,41.7671151,44.7902466
5,ლადო გუდიაშვილის ქუჩა,0107,41.6965679,44.8012446
10,დავით აღმაშენებლის გამზირი,0102,41.7031285,44.8035500
54,Romanoz Khomleli St,0182,41.6967255,44.8823721
141,დავით აღმაშენებლის გამზირი,0112,41.7160296,44.7933429
7/7,მიხეილ წინამძღვრიშვილის ქუჩა,0102,41.7031393,44.8058612
24,ილო მოსაშვილის ქუჩა,0162,41.7103351,44.7549405
71,ვაჟა-ფშაველას გამზირი,0186,41.7246473,44.7302602
2,აკაკი წერეთლის გამზირი,0112,41.7230184,44.7897945
1,მცხეთის ქუჩა,0179,41.7069716,44.7740615
3,კონსტანტინე ჩაჩავას ქუჩა,0159,41.7744199,44.7780631
72,კახეთის გზატკეცილი,0190,41.6898746,44.9128039
70ბ,ვაჟა-ფშაველას გამზირი,0186,41.7239967,44.7359929
