House number,Street name,Postal code,Latitude,Longitude
6,ალექსანდრე პუშკინის ქუჩა,4600,42.2687919,42.7024352
18,ნიკეას ქუჩა,4600,42.2402438,42.6920348
63,თამარ მეფის ქუჩა,4600,42.2638594,42.7101357
21ა,ნიკეას ქუჩა,4600,42.2314744,42.6915036
20ა,დავით აღმაშენებლის გამზირი,4600,42.2626666,42.7035683
19ა,დავით აღმაშენებლის გამზირი,4600,42.2613541,42.6995300
25,თამარ მეფის ქუჩა,4600,42.2680766,42.7066552
36,მაქსიმ გორკის ქუჩა,4600,42.2759037,42.6931569
12,ცაცხვების ქუჩა,4600,42.2739976,42.6958309
10,9 აპრილის ქუჩა,4600,42.2616136,42.6613091
33,ილია ჭავჭავაძის გამზირი,4600,42.2508721,42.6847687
5,კონსტანტინე გამსახურდიას ქუჩა,4600,42.2495615,42.6871235
21,ზვიად გამსახურდიას გამზირი,4600,42.2603675,42.6717756
21,ზვიად გამსახურდიას გამზირი,4600,42.2604205,42.6718764
5,შოთა რუსთაველის გამზირი,4600,42.2705692,42.7024630
8,შოთა რუსთაველის გამზირი,4600,42.2707909,42.7012014
32,იაკობ გოგებაშვილის ქუჩა,4600,42.2684146,42.7109417
32ა,ნიკეას II შეს,4600,42.2316853,42.6879502
38,ახალგაზრდობის გამზირი,4600,42.2439262,42.7120690
18,მაქსიმ გორკის ქუჩა,4600,42.2753487,42.6955494
1,მიხეილ დავითაშვილის ქუჩა,4600,42.2688958,42.7020405
1,ლილი ნუცუბიძის ქუჩა,4600,42.2721374,42.7037382
12,ნიკეას ქუჩა,4600,42.2464370,42.6931683
37,ზაქარია ფალიაშვილის ქუჩა,4600,42.2729702,42.7054274
23,ზვიად გამსახურდიას გამზირი,4600,42.2595173,42.6704717
22,ნიკეას ქუჩა,4600,42.2341012,42.6911064
60,თამარ მეფის ქუჩა,4600,42.2643083,42.7086645
1,წითელი ხიდი,4600,42.2714294,42.6994156
N 7,მიხეილ დავითაშვილის ქუჩა,4600,42.2683681,42.7021072
8,ბესარიონ ბელინსკის I შესახვევი,4600,42.2560997,42.6456235
22,თამარ მეფის ქუჩა,4600,42.2682792,42.7061347
4,მეფე სოლომონ პირველის ქუჩა,4600,42.2637535,42.7121832
35,თამარ მეფის ქუჩა,4600,42.2672739,42.7071852
5,ავტომშენებლის გამზირი,4600,42.2608598,42.6451240
4600,დავით აღმაშენებლის გამზირი,4600,42.2624018,42.6743823
37,თამარ მეფის ქუჩა,4600,42.2670918,42.7074275
5,ცისფერყანწელების ქუჩა,4600,42.2699638,42.7022058
95,თამარ მეფის ქუჩა,4600,42.2628252,42.7109460
32,ახალგაზრდობის გამზირი,4600,42.2414379,42.7120138
30,გალაკტიონ ტაბიძის ქუჩა,4600,42.2685332,42.6978691
20,თამარ მეფის ქუჩა,4600,42.2686418,42.7059367
1,პაოლო იაშვილის ქუჩა,4600,42.2671934,42.7073921
14,შოთა რუსთაველის VIII შესახვევი,4600,42.2684783,42.6933448
1,დავით მანდარიას ქუჩა,4600,42.2591492,42.7087685
33,სულხან საბას ქუჩა,0105,42.2385049,42.6675447
4,შოთა რუსტაველის VII შესახვევი,4600,42.2664744,42.6864572
8,გალაკტიონ ტაბიძის ქუჩა,4602,42.2703815,42.6982998
35,ვასილ ბარნოვის ქუჩა,4600,42.2690346,42.6818623
42,დავით აღმაშენებლის გამზირი,4600,42.2616580,42.6983368
32b,ფელიქს ვარლამიშვილის ქუჩა,46000,42.2743930,42.7060735
23,ბესიკის I შესახვევი,4600,42.2604380,42.6877523
85,ივანე ჯავახიშვილის ქუჩა,4608,42.2701438,42.6710145
7,აკაკი წერეთლის IV ჩიხი,4600,42.2673751,42.7030633
44,გალაკტიონ ტაბიძის ქუჩა,4600,42.2665899,42.6981699
8,ვიქტორ კუპრაძის XIV შესახვევი,4600,42.2564398,42.7156238
104,თავისუფლების ქუჩა,4600,42.2574433,42.6782405
5,კონსტანტინე გამსახურდიას ქუჩა,4600,42.2490041,42.6869558
52,ილია ჭავჭავაძის გამზირი,4600,42.2566405,42.6728912
26,ზურაბ ჭავჭავაძის ქუჩა,4600,42.2556334,42.6491808
34,სერგო კლდიაშვილის ქუჩა,4600,42.2512992,42.6857062
15/a,ჟიულ შარტავას I შესახვევი,4608,42.2633411,42.6743157
6,გალაკტიონ ტაბიძის ქუჩა,4600,42.2715106,42.6986637
2,სიმონ გუგუნავას ქუჩა,4600,42.2516965,42.6819477
61,ილია ჭავჭავაძის გამზირი,4600,42.2576943,42.6679459
ჭავჭავაძის ქ. 67 N 361,ილია ჭავჭავაძის გამზირი,4600,42.2558263,42.6728303
2,ჰერმან გმაიერის ქუჩა,4600,42.2297279,42.7140210
8,Pushkin street,4602,42.2686036,42.7026436
24,იაკობ გოგებაშვილის ქუჩა,4600,42.2686293,42.7095727
34,თამარ მეფის ქუჩა,4800,42.2672479,42.7070388
33,ზაქარია ფალიაშვილის ქუჩა,4600,42.2719670,42.7041725
1,დავით აღმაშენებლის მოედანი,4600,42.2721368,42.7056019
28,ილია ჭავჭავაძის გამზირი,4600,42.2521078,42.6825991
59,ილია ჭავჭავაძის გამზირი,4600,42.2577123,42.6691530
19/b,ნიკეას ქუჩა,4600,42.2340495,42.6918290
37,ილია ჭავჭავაძის გამზირი,4600,42.2520479,42.6819156
67,ილია ჭავჭავაძის გამზირი,4600,42.2564861,42.6718092
3,ავტომშენებლის გამზირი,4600,42.2609253,42.6459313
11,იოსებ გრიშაშვილის ქუჩა,4600,42.2684139,42.6997825
20,გრიგოლ აბაშიძის ქუჩა,4600,42.2486773,42.7167566
9,Mosashvili St.,4600,42.2825743,42.7157872
51,ზვიად გამსახურდიას გამზირი,4600,42.2533666,42.6612967
33,მიხეილ ბუხაიძის II შესახვევი,4600,42.2656087,42.6718115
24,თამარ მეფის ქუჩა,4600,42.2681312,42.7063145
11,თამარ მეფის ქუჩა,4600,42.2697822,42.7061195
4600,Vaja Pshavela Street,"4600, Kutaisi",42.2725350,42.6934493
100ა,თამარ მეფის ქუჩა,4600,42.2628416,42.7102689
100a,თამარ მეფის ქუჩა,4600,42.2627894,42.7104056
43/43,ილია ჭავჭავაძის გამზირი,4600,42.2529882,42.6796865
7,ნოდარ დუმბაძის I შესახვევი,4600,42.2624081,42.6944711
74,დავით აღმაშენებლის გამზირი,4600,42.2618914,42.6890168
15,სიმონ გუგუნავას ქუჩა,4600,42.2531885,42.6640115
13,ანტონ კათალიკოსის ქუჩა,4600,42.2759612,42.6971001
15-5,სიმონ გუგუნავას ქუჩა,4600,42.2528854,42.6638686
N3,Tsereteli 1st Lane,4602,42.2644136,42.7064361
16,მიხეილ ლერმონტოვის ქუჩა,4600,42.2727011,42.7010790
2,სილოვან ხუნდაძის ქუჩა,4600,42.2448263,42.6805808
29,აკაკი წერეთლის ქუჩა,4600,42.2671201,42.7043945
21,აკაკი წერეთლის ქუჩა,4600,42.2676451,42.7042458
2,წმინდა ნინოს ქუჩა,4600,42.2692826,42.7032993
10-12,დავით აღმაშენებლის გამზირი,4600,42.2615966,42.7085034
9,შოთა რუსთაველის გამზირი,4600,42.2705106,42.7010381
18/4,ფელიქს ვარლამიშვილის ქუჩა,4600,42.2738926,42.7052219
13,Mari Brose,4600,42.2729687,42.7061616
4,ი. გრიშაშვილის მე-2 შესახვევი,4600,42.2688247,42.6991700
90,ახალგაზრდობის გამზირი,4614,42.2352591,42.7113933
80,ახალგაზრდობის გამზირი,4614,42.2384402,42.7121554
98ა,ახალგაზრდობის გამზირი,4614,42.2360259,42.7113034
96ა,ახალგაზრდობის გამზირი,4614,42.2360157,42.7115961
7,9 აპრილის ქუჩა,4600,42.2615308,42.6602067
11,მერაბ კოსტავას ქუჩა,4600,42.2719640,42.7083021
1,აკაკი ხორავას ქუჩა,4600,42.2533145,42.6842432
9ა,შოთა რუსთაველის გამზირი,4600,42.2704794,42.7002076
57,ილია ჭავჭავაძის გამზირი,4600,42.2567740,42.6706207
23,ზაქარია ფალიაშვილის ქუჩა,4600,42.2719367,42.7020554
2,ზაქარია ფალიაშვილის I შესახვევი,4600,42.2722277,42.7017372
2,ზაქარია ფალიაშვილის I შესახვევი,4600,42.2721045,42.7012239
23,წმინდა ნინოს ქუჩა,4600,42.2724387,42.7019591
13/15,ზაქარია ფალიაშვილის ქუჩა,4600,42.2717525,42.7012384
99,გრიგოლ გველესიანის ქუჩა,4600,42.2648269,42.6852957
23a,ბორის ბუკიას ქუჩა,4600,42.2515947,42.6487946
11,ექვთიმე თაყაიშვილის ქუჩა,4600,42.2603108,42.6766875
9,მიხეილ ბუხაიძის ქუჩა,4600,42.2661954,42.6752163
34,იოსებ დავითაშვილის ქუჩა,4600,42.2588072,42.6949304
26,იოსებ დავითაშვილის ქუჩა,4600,42.2586038,42.6941162
28,დიმიტრი მჭედლიძის ქუჩა,4600,42.2574686,42.6944580
8ა,ილია ჭავჭავაძის გამზირი,4600,42.2497963,42.6902300
46,ნოდარ დუმბაძის ქუჩა,4600,42.2630311,42.6935976
28,იოსებ დავითაშვილის ქუჩა,4600,42.2587897,42.6942342
20,დავით აღმაშენებლის გამზირი,4600,42.2618547,42.7033056
2/21,ლადო ასათიანის ქუჩა,4600,42.2611201,42.6984181
50,ლადო ასათიანის ქუჩა,4600,42.2573670,42.6969363
6A,ოთარ ჩეჩელაშვილის ქუჩა,4600,42.2650613,42.7006680
96,ლადო ასათიანის ქუჩა,4600,42.2517659,42.6950243
21,ზვიად გამსახურდიას გამზირი,4600,42.2601962,42.6716124
2,პეტრე მელიქიშვილის ქუჩა,4600,42.2602895,42.6731799
19,სულხან-საბას გამზირი,4600,42.2422888,42.6664200
21ა,სულხან-საბას გამზირი,4600,42.2403417,42.6650075
49,სულხან-საბას გამზირი,4600,42.2383657,42.6665686
69,სულხან-საბას გამზირი,4600,42.2373110,42.6623836
71,სულხან-საბას გამზირი,4600,42.2358831,42.6610923
32,ნიუპორტის ქუჩა,4600,42.2752924,42.7095748
73,ივანე ჯავახიშვილის ქუჩა,4600,42.2696281,42.6745313
58,გალაკტიონ ტაბიძის ქუჩა,4600,42.2650955,42.6971489
56,გალაკტიონ ტაბიძის ქუჩა,4600,42.2652788,42.6983658
121,დავით აღმაშენებლის გამზირი,4600,42.2612252,42.6780044
3,დავით კაკაბაძის ქუჩა,4600,42.2604440,42.6751381
13,9 აპრილის ქუჩა,4600,42.2622889,42.6615472
28,დიმიტრი მჭედლიძის ქუჩა,4600,42.2573791,42.6952156
22,ნიკეას II შეს,4600,42.2307303,42.6854044
9,ნიკეას ქუჩა,4600,42.2273984,42.6926101
1/8,ნიკეას ქუჩა,4600,42.2482143,42.6943403
2,ნიკეას ქუჩა,4600,42.2483469,42.6937094
96,ლადო ასათიანის ქუჩა,4600,42.2534495,42.6953369
104,ეგნატე ნინოშვილის ქუჩა,4600,42.2549682,42.6902875
37,იოსებ გრიშაშვილის ქუჩა,4600,42.2678810,42.6966424
30,იოსებ გრიშაშვილის ქუჩა,4600,42.2675290,42.6942485
29,იოსებ დავითაშვილის ქუჩა,4600,42.2590119,42.6945775
29,იოსებ დავითაშვილის ქუჩა,4600,42.2590145,42.6944079
27,იოსებ დავითაშვილის ქუჩა,4600,42.2590749,42.6942212
25,იოსებ დავითაშვილის ქუჩა,4600,42.2590838,42.6940519
28ა,იოსებ დავითაშვილის ქუჩა,4600,42.2587646,42.6944519
26,იოსებ დავითაშვილის ქუჩა,4600,42.2587952,42.6940465
1,იოსებ დავითაშვილის II შესახვევი,4600,42.2588138,42.6939519
1,იოსებ დავითაშვილის II შესახვევი,4600,42.2583824,42.6944862
31,იოსებ დავითაშვილის ქუჩა,4600,42.2592790,42.6946444
4,იოსებ დავითაშვილის II შესახვევი,4600,42.2585527,42.6936532
10,გიორგი ნიორაძის ქუჩა,4600,42.2583164,42.6965869
51,იოსებ დავითაშვილის ქუჩა,4600,42.2592582,42.6959602
11,ივანე ჯავახიშვილის ქუჩა,4600,42.2674765,42.6811093
3,ივანე ჯავახიშვილის ქუჩა,4600,42.2672757,42.6828659
1,ივანე ჯავახიშვილის ქუჩა,4600,42.2670336,42.6832146
1,იოსებ დავითაშვილის III ჩიხი,4600,42.2594278,42.6969382
5,იოსებ დავითაშვილის III ჩიხი,4600,42.2597322,42.6970784
3,იოსებ დავითაშვილის III ჩიხი,4600,42.2595673,42.6968100
28ა,იოსებ დავითაშვილის ქუჩა,4600,42.2585860,42.6943155
151,ლადო ასათიანის ქუჩა,4600,42.2490959,42.6948082
50,ილია ჭავჭავაძის გამზირი,4600,42.2563642,42.6736841
67,ილია ჭავჭავაძის გამზირი,4600,42.2557790,42.6730918
2/1/17,შოთა რუსთაველის გამზირი,4600,42.2708892,42.7022404
3ა,აკაკი წერეთლის ქუჩა,4600,42.2700347,42.7049851
22,თამარ მეფის ქუჩა,4600,42.2683994,42.7058610
59,თამარ მეფის ქუჩა,4600,42.2648635,42.7103002
21,ივანე ჯავახიშვილის I შესახვევი,4600,42.2660306,42.6780610
19,ივანე ჯავახიშვილის I შესახვევი,4600,42.2662535,42.6789450
73,გრიგოლ გველესიანის ქუჩა,4600,42.2645757,42.6872614
1ბ,ილია ჭავჭავაძის გამზირი,4600,42.2481311,42.6973646
12,ჩანჩიბაძის ქუჩა (Chanchibadze St),4600,42.2778670,42.7008236
2,ზურაბ ჭავჭავაძის ქუჩა,4600,42.2596775,42.6501625
4,ზურაბ ჭავჭავაძის ქუჩა,4600,42.2591747,42.6504696
6,ზურაბ ჭავჭავაძის ქუჩა,4600,42.2586707,42.6507597
68,ნიკეას ქუჩა,4600,42.2287279,42.6902927
14,კონსტანტინე გამსახურდიას ქუჩა,4600,42.2472945,42.6834050
2,კონსტანტინე გამსახურდიას ქუჩა,4600,42.2495796,42.6865076
25,ილია ჭავჭავაძის გამზირი,4600,42.2499789,42.6862933
33,ილია ჭავჭავაძის გამზირი,4600,42.2507632,42.6845062
81,სულხან-საბას გამზირი,4600,42.2367588,42.6622682
59,სულხან-საბას გამზირი,4600,42.2353302,42.6615693
45,სულხან-საბას გამზირი,4600,42.2367848,42.6630382
93,სულხან-საბას გამზირი,4600,42.2371387,42.6637039
73,სულხან-საბას გამზირი,4600,42.2348502,42.6620947
57ა,სულხან-საბას გამზირი,4600,42.2358146,42.6619569
87,სულხან-საბას გამზირი,4600,42.2348288,42.6612344
99,სულხან-საბას გამზირი,4600,42.2349769,42.6606857
83,სულხან-საბას გამზირი,4600,42.2346553,42.6629624
47,სულხან-საბას გამზირი,4600,42.2382997,42.6647139
47,სულხან-საბას გამზირი,4600,42.2386634,42.6656060
43,სულხან-საბას გამზირი,4600,42.2392224,42.6642524
39,სულხან-საბას გამზირი,4600,42.2392287,42.6672234
29,სულხან-საბას გამზირი,4600,42.2391659,42.6665100
19,სულხან-საბას გამზირი,4600,42.2414259,42.6662539
1,სულხან-საბას გამზირი,4600,42.2400551,42.6684153
21,სულხან-საბას გამზირი,4600,42.2398968,42.6648674
46,სულხან-საბას გამზირი,4600,42.2394874,42.6652108
41,სულხან-საბას გამზირი,4600,42.2394448,42.6660093
57,სულხან-საბას გამზირი,4600,42.2361447,42.6617973
4,იოსებ ოცხელის ქუჩა,4600,42.2456869,42.6828239
2,იოსებ ოცხელის ქუჩა,4600,42.2465282,42.6841656
37,იოსებ გრიშაშვილის ქუჩა,4600,42.2672299,42.6955088
67,სულხან-საბას გამზირი,4600,42.2357971,42.6656562
63,სულხან-საბას გამზირი,4600,42.2355038,42.6647327
85ა,სულხან-საბას გამზირი,4600,42.2366420,42.6664634
35,სულხან-საბას გამზირი,4600,42.2380658,42.6673825
77,სულხან-საბას გამზირი,4600,42.2373464,42.6652336
47,სულხან-საბას გამზირი,4600,42.2371106,42.6658197
37,სულხან-საბას გამზირი,4600,42.2373221,42.6666257
95,სულხან-საბას გამზირი,4600,42.2343051,42.6622773
85,სულხან-საბას გამზირი,4600,42.2339943,42.6631833
97,სულხან-საბას გამზირი,4600,42.2336574,42.6641023
91,სულხან-საბას გამზირი,4600,42.2345274,42.6638224
65,სულხან-საბას გამზირი,4600,42.2349773,42.6641741
75,სულხან-საბას გამზირი,4600,42.2344076,42.6646167
61,სულხან-საბას გამზირი,4600,42.2347644,42.6649702
79,სულხან-საბას გამზირი,4600,42.2350796,42.6652184
89,სულხან-საბას გამზირი,4600,42.2369122,42.6648845
55,სულხან-საბას გამზირი,4600,42.2364881,42.6655796
53,სულხან-საბას გამზირი,4600,42.2393685,42.6680540
31,სულხან-საბას გამზირი,4600,42.2390076,42.6678904
5,ავტომშენებლის გამზირი,4600,42.2608132,42.6453328
7,ავტომშენებლის გამზირი,4600,42.2607467,42.6445351
9,ავტომშენებლის გამზირი,4600,42.2606830,42.6438814
3,ავტომშენებლის გამზირი,4600,42.2607200,42.6459608
2,ბორის ბუკიას ქუჩა,4600,42.2602055,42.6460569
74,ნიკეას ქუჩა,4600,42.2270875,42.6894342
76,ნიკეას ქუჩა,4600,42.2272467,42.6881999
72,ნიკეას ქუჩა,4600,42.2273811,42.6901090
66,ნიკეას ქუჩა,4600,42.2293119,42.6901680
4,ნიკეას II შეს,4600,42.2288509,42.6890071
44ა,ნიკეას ქუჩა,4600,42.2316962,42.6907224
60,ნიკეას ქუჩა,4600,42.2319821,42.6885373
50,ნიკეას ქუჩა,4600,42.2333043,42.6894336
54,ნიკეას ქუჩა,4600,42.2326829,42.6886691
54ა,ნიკეას ქუჩა,4600,42.2323298,42.6893555
40,ნიკეას ქუჩა,4600,42.2353286,42.6906857
36,ნიკეას ქუჩა,4600,42.2361470,42.6907303
38,ნიკეას ქუჩა,4600,42.2354289,42.6912181
34,ნიკეას ქუჩა,4600,42.2367314,42.6913310
26,ნიკეას ქუჩა,4600,42.2377186,42.6902850
10,ნიკეას II შეს,4600,42.2299309,42.6873891
18,ნიკეას II შეს,4600,42.2310014,42.6838934
14ა,ნიკეას II შეს,4600,42.2312337,42.6845567
23,ნიკეას II შეს,4600,42.2315372,42.6836918
32,ნიკეას II შეს,4600,42.2311952,42.6876066
30,ნიკეას II შეს,4600,42.2308517,42.6867354
2,ნიკეას II შეს,4600,42.2284931,42.6893734
4,ნიკეას ქუჩა,4600,42.2284929,42.6897441
64ა,ნიკეას ქუჩა,4600,42.2304552,42.6898004
64,ნიკეას ქუჩა,4600,42.2300052,42.6904156
15,ნიკეას ქუჩა II შესახვევი,4600,42.2283680,42.6832404
7ბ,ნიკეას ქუჩა II შესახვევი,4600,42.2279033,42.6859983
7ა,ნიკეას ქუჩა II შესახვევი,4600,42.2282965,42.6858940
8,ზურაბ ჭავჭავაძის ქუჩა,4600,42.2580910,42.6512427
10,ზურაბ ჭავჭავაძის ქუჩა,4600,42.2576017,42.6522194
22,ზურაბ ჭავჭავაძის ქუჩა,4600,42.2553701,42.6518648
24,ზურაბ ჭავჭავაძის ქუჩა,4600,42.2553829,42.6514746
79,ბორის ბუკიას ქუჩა,4600,42.2545439,42.6493078
5ა,ბორის ბუკიას ქუჩა,4600,42.2583822,42.6471769
5ბ,ბორის ბუკიას ქუჩა,4600,42.2577089,42.6472586
5,ბორის ბუკიას ქუჩა,4600,42.2588600,42.6472904
3,ბორის ბუკიას ქუჩა,4600,42.2595103,42.6472584
6,ოთარ ჩეჩელაშვილის I შესახვევი,4600,42.2644460,42.7018671
62,ნიკეას ქუჩა,4600,42.2314202,42.6889426
20,მიხეილ ბუხაიძის ქუჩა,4600,42.2664159,42.6737951
18,მიხეილ ბუხაიძის II შესახვევი,4600,42.2670710,42.6735343
19,მიხეილ ბუხაიძის II შესახვევი,4600,42.2665164,42.6730043
73,ივანე ჯავახიშვილის ქუჩა,4600,42.2692842,42.6749270
19/63,ნიკეას ქუჩა,4600,42.2374656,42.6930541
19/62,ნიკეას ქუჩა,4600,42.2374827,42.6939939
19/60,ნიკეას ქუჩა,4600,42.2372227,42.6939459
19/61,ნიკეას ქუჩა,4600,42.2371073,42.6953187
19/96,ნიკეას ქუჩა,4600,42.2366583,42.6953548
19/97,ნიკეას ქუჩა,4600,42.2362870,42.6953967
19/98,ნიკეას ქუჩა,4600,42.2359000,42.6953895
19/100,ნიკეას ქუჩა,4600,42.2355098,42.6954262
19/7,ნიკეას ქუჩა,4600,42.2368767,42.6933801
19/66,ნიკეას ქუჩა,4600,42.2359796,42.6936221
19/65,ნიკეას ქუჩა,4600,42.2360055,42.6942765
19/2,ნიკეას ქუჩა,4600,42.2369593,42.6927325
19/90,ნიკეას ქუჩა,4600,42.2354549,42.6937877
4ა,ზურაბ ჭავჭავაძის ქუჩა,4600,42.2589945,42.6493899
8ა,ზურაბ ჭავჭავაძის ქუჩა,4600,42.2585007,42.6498556
25,მერაბ კოსტავას ქუჩა,4600,42.2717345,42.7090516
62,თამარ მეფის ქუჩა,66000,42.2635611,42.7096222
15-3,სიმონ გუგუნავას ქუჩა,4600,42.2536580,42.6632398
20,ნიკეას ქუჩა II შესახვევი,4600,42.2305550,42.6886023
30,ნიკეას ქუჩა,4600,42.2373450,42.6912516
32,ნიკეას ქუჩა,4600,42.2372487,42.6908619
51,ნიკეას ქუჩა,4600,42.2338867,42.6870603
221,რევაზ თაბუკაშვილის ქუჩა,4600,42.2308225,42.6743645
7,ილია ჭავჭავაძის გამზირი,4600,42.2487613,42.6934849
7ბ,ილია ჭავჭავაძის გამზირი,4600,42.2481475,42.6926458
17,მიხეილ ბუხაიძის ქუჩა,4600,42.2653193,42.6747782
19,მიხეილ ბუხაიძის ქუჩა,4600,42.2648349,42.6748628
11ა,მიხეილ ბუხაიძის ქუჩა,4600,42.2666124,42.6748366
11,მიხეილ ბუხაიძის ქუჩა,4600,42.2671419,42.6744265
30,მიხეილ ბუხაიძის II შესახვევი,4600,42.2643443,42.6719952
30,მიხეილ ბუხაიძის II შესახვევი,4600,42.2647702,42.6721254
9,მიხეილ ბუხაიძის II შესახვევი,4600,42.2646089,42.6713064
13,მიხეილ ბუხაიძის ქუჩა,4600,42.2660295,42.6744430
3,მიხეილ ბუხაიძის ქუჩა,4600,42.2687523,42.6746794
5,მიხეილ ბუხაიძის ქუჩა,4600,42.2682414,42.6747605
31,კონსტანტინე გამსახურდიას ქუჩა,4600,42.2465605,42.6855857
37,კონსტანტინე გამსახურდიას ქუჩა,4600,42.2457050,42.6851095
39,კონსტანტინე გამსახურდიას ქუჩა,4600,42.2455403,42.6850774
41,კონსტანტინე გამსახურდიას ქუჩა,4600,42.2453936,42.6851265
16,კონსტანტინე გამსახურდიას ქუჩა,4600,42.2456863,42.6843038
43,კონსტანტინე გამსახურდიას ქუჩა,4600,42.2451923,42.6848544
45,კონსტანტინე გამსახურდიას ქუჩა,4600,42.2450366,42.6848881
47,კონსტანტინე გამსახურდიას ქუჩა,4600,42.2448835,42.6848421
55,კონსტანტინე გამსახურდიას ქუჩა,4600,42.2438164,42.6843930
57,კონსტანტინე გამსახურდიას ქუჩა,4600,42.2436513,42.6843485
61,კონსტანტინე გამსახურდიას ქუჩა,4600,42.2431834,42.6841857
22,დავით აღმაშენებლის გამზირი,4600,42.2616942,42.7022318
4-6,დავით აღმაშენებლის გამზირი,4600,42.2617029,42.7094653
8,დავით აღმაშენებლის გამზირი,4600,42.2616257,42.7090031
1,დავით აღმაშენებლის გამზირი,4600,42.2611380,42.7096643
3,დავით აღმაშენებლის გამზირი,4600,42.2612013,42.7091923
5,დავით აღმაშენებლის გამზირი,4600,42.2611263,42.7085022
14/98,დავით აღმაშენებლის გამზირი,4600,42.2616523,42.7070766
14/98,დავით აღმაშენებლის გამზირი,4600,42.2617744,42.7074913
96,აკაკი წერეთლის ქუჩა,4600,42.2621524,42.7073163
7,დავით აღმაშენებლის გამზირი,4600,42.2612276,42.7072257
16,დავით აღმაშენებლის გამზირი,4600,42.2616781,42.7036798
9,დავით აღმაშენებლის გამზირი,4600,42.2612923,42.7028315
11,დავით აღმაშენებლის გამზირი,4600,42.2612920,42.7023781
13,დავით აღმაშენებლის გამზირი,4600,42.2612895,42.7019194
24,დავით აღმაშენებლის გამზირი,4600,42.2617383,42.7006265
40,დავით აღმაშენებლის გამზირი,4600,42.2617131,42.6994442
27,დავით აღმაშენებლის გამზირი,4600,42.2613227,42.6978520
31,დავით აღმაშენებლის გამზირი,4600,42.2613195,42.6972160
35,დავით აღმაშენებლის გამზირი,4600,42.2613753,42.6965852
37,დავით აღმაშენებლის გამზირი,4600,42.2612988,42.6956538
39,დავით აღმაშენებლის გამზირი,4600,42.2613642,42.6951243
41,დავით აღმაშენებლის გამზირი,4600,42.2613937,42.6943153
50,დავით აღმაშენებლის გამზირი,4600,42.2617550,42.6943014
52,დავით აღმაშენებლის გამზირი,4600,42.2619912,42.6937793
48,დავით აღმაშენებლის გამზირი,4600,42.2618038,42.6955013
46,დავით აღმაშენებლის გამზირი,4600,42.2617803,42.6968141
70,გალაკტიონ ტაბიძის ქუჩა,4600,42.2640600,42.6985370
10,ირაკლი აბაშიძის გამზირი,4600,42.2647449,42.6762262
7ა,მიხეილ ბუხაიძის ქუჩა,4600,42.2676764,42.6754770
7,მიხეილ ბუხაიძის ქუჩა,4600,42.2678550,42.6758528
13,ივანე ჯავახიშვილის I შესახვევი,4600,42.2677329,42.6779162
15,ივანე ჯავახიშვილის I შესახვევი,4600,42.2674009,42.6778880
9,ირაკლი აბაშიძის გამზირი,4608,42.2633038,42.6724132
1/11,ჟიულ შარტავას ქუჩა,4600,42.2630643,42.6715975
3,ირაკლი აბაშიძის ქუჩა,4608,42.2637721,42.6752885
58,კონსტანტინე გამსახურდიას ქუჩა,4600,42.2405334,42.6805845
85ა,კონსტანტინე გამსახურდიას ქუჩა,4600,42.2389434,42.6824720
51ა,სილოვან ხუნდაძის ქუჩა,4600,42.2413260,42.6789121
55,შალვა დადიანის ქუჩა,4600,42.2410258,42.6797274
2,გიორგი მაისურაძის ქუჩა,4600,42.2446900,42.6825352
8,ნიკეას I შესახვევი,4600,42.2440453,42.6966001
25,ნიკეას ქუჩა,4600,42.2253857,42.6913228
64,ილია ჭავჭავაძის გამზირი,4600,42.2583202,42.6702672
25,ზვიად გამსახურდიას გამზირი,4600,42.2591383,42.6698770
10,პეტრე მელიქიშვილის ქუჩა,4600,42.2579792,42.6731444
12,პეტრე მელიქიშვილის ქუჩა,4600,42.2573152,42.6729792
8,პეტრე მელიქიშვილის ქუჩა,4600,42.2583045,42.6725044
9,ზვიად გამსახურდიას I შესახვევი,4600,42.2588317,42.6724768
1ა,შალვა დადიანის ქუჩა,4600,42.2448158,42.6821930
1,შალვა დადიანის ქუჩა,4600,42.2447438,42.6819650
3,შალვა დადიანის ქუჩა,4600,42.2446037,42.6818310
5,შალვა დადიანის ქუჩა,4600,42.2444668,42.6817373
7,შალვა დადიანის ქუჩა,4600,42.2443412,42.6816583
9,შალვა დადიანის ქუჩა,4600,42.2441977,42.6815500
11,შალვა დადიანის ქუჩა,4600,42.2441036,42.6814903
13,შალვა დადიანის ქუჩა,4600,42.2439827,42.6814068
15,შალვა დადიანის ქუჩა,4600,42.2438597,42.6813184
17,შალვა დადიანის ქუჩა,4600,42.2437029,42.6812091
19,შალვა დადიანის ქუჩა,4600,42.2436099,42.6811567
21,შალვა დადიანის ქუჩა,4600,42.2434898,42.6810763
23,შალვა დადიანის ქუჩა,4600,42.2433420,42.6809691
25,შალვა დადიანის ქუჩა,4600,42.2432441,42.6809386
27,შალვა დადიანის ქუჩა,4600,42.2431162,42.6808836
29,შალვა დადიანის ქუჩა,4600,42.2430086,42.6807716
31,შალვა დადიანის ქუჩა,4600,42.2429015,42.6806605
33,შალვა დადიანის ქუჩა,4600,42.2427696,42.6805632
35,შალვა დადიანის ქუჩა,4600,42.2426514,42.6805516
37,შალვა დადიანის ქუჩა,4600,42.2425405,42.6804440
39/9,შალვა დადიანის ქუჩა,4600,42.2424164,42.6803533
41,შალვა დადიანის ქუჩა,4600,42.2421777,42.6802409
43,შალვა დადიანის ქუჩა,4600,42.2420886,42.6801739
45,შალვა დადიანის ქუჩა,4600,42.2419507,42.6800455
47,შალვა დადიანის ქუჩა,4600,42.2418528,42.6799752
49,შალვა დადიანის ქუჩა,4600,42.2417344,42.6799072
49,შალვა დადიანის ქუჩა,4600,42.2416695,42.6800631
49,სილოვან ხუნდაძის ქუჩა,4600,42.2415908,42.6793754
49,სილოვან ხუნდაძის ქუჩა,4600,42.2417059,42.6790135
47,სილოვან ხუნდაძის ქუჩა,4600,42.2418636,42.6790995
50,შალვა დადიანის ქუჩა,4600,42.2417262,42.6794976
45,სილოვან ხუნდაძის ქუჩა,4600,42.2419800,42.6791434
46,შალვა დადიანის ქუჩა,4600,42.2419489,42.6796249
43,სილოვან ხუნდაძის ქუჩა,4600,42.2421086,42.6792105
41,სილოვან ხუნდაძის ქუჩა,4600,42.2421969,42.6793050
44,შალვა დადიანის ქუჩა,4600,42.2420547,42.6797179
42,შალვა დადიანის ქუჩა,4600,42.2422055,42.6797722
39,სილოვან ხუნდაძის ქუჩა,4600,42.2423503,42.6793890
37/6,სილოვან ხუნდაძის ქუჩა,4600,42.2424459,42.6794358
40/8,შალვა დადიანის ქუჩა,4600,42.2422962,42.6798819
38/7,შალვა დადიანის ქუჩა,4600,42.2425383,42.6800209
35,სილოვან ხუნდაძის ქუჩა,4600,42.2426519,42.6796412
33,სილოვან ხუნდაძის ქუჩა,4600,42.2427577,42.6796788
31,სილოვან ხუნდაძის ქუჩა,4600,42.2429138,42.6797615
34,შალვა დადიანის ქუჩა,4600,42.2427897,42.6801739
32,შალვა დადიანის ქუჩა,4600,42.2429010,42.6802821
29,სილოვან ხუნდაძის ქუჩა,4600,42.2429428,42.6799804
29,სილოვან ხუნდაძის ქუჩა,4600,42.2430381,42.6798536
27,სილოვან ხუნდაძის ქუჩა,4600,42.2431486,42.6799144
30,შალვა დადიანის ქუჩა,4600,42.2430291,42.6803139
28,შალვა დადიანის ქუჩა,4600,42.2431126,42.6804099
25,სილოვან ხუნდაძის ქუჩა,4600,42.2432697,42.6799903
23,სილოვან ხუნდაძის ქუჩა,4600,42.2434029,42.6800795
26,შალვა დადიანის ქუჩა,4600,42.2432639,42.6805192
21,სილოვან ხუნდაძის ქუჩა,4600,42.2434843,42.6801454
24,შალვა დადიანის ქუჩა,4600,42.2433877,42.6805861
22,შალვა დადიანის ქუჩა,4600,42.2435060,42.6806587
19,სილოვან ხუნდაძის ქუჩა,4600,42.2436520,42.6802529
20,შალვა დადიანის ქუჩა,4600,42.2436311,42.6806950
17,სილოვან ხუნდაძის ქუჩა,4600,42.2437644,42.6803115
18,შალვა დადიანის ქუჩა,4600,42.2437391,42.6808362
15,სილოვან ხუნდაძის ქუჩა,4600,42.2438886,42.6804394
13,სილოვან ხუნდაძის ქუჩა,4600,42.2440189,42.6804858
11,სილოვან ხუნდაძის ქუჩა,4600,42.2441382,42.6805981
14,შალვა დადიანის ქუჩა,4600,42.2439843,42.6809353
16,შალვა დადიანის ქუჩა,4600,42.2438716,42.6808853
9,სილოვან ხუნდაძის ქუჩა,4600,42.2442601,42.6806547
7,სილოვან ხუნდაძის ქუჩა,4600,42.2443404,42.6807264
12,შალვა დადიანის ქუჩა,4600,42.2440992,42.6810782
10,შალვა დადიანის ქუჩა,4600,42.2441895,42.6811230
8,შალვა დადიანის ქუჩა,4600,42.2443448,42.6812238
5,სილოვან ხუნდაძის ქუჩა,4600,42.2444623,42.6808220
3,სილოვან ხუნდაძის ქუჩა,4600,42.2446003,42.6809472
6,შალვა დადიანის ქუჩა,4600,42.2444660,42.6813159
1,სილოვან ხუნდაძის ქუჩა,4600,42.2447504,42.6809671
4,შალვა დადიანის ქუჩა,4600,42.2446004,42.6813535
2,შალვა დადიანის ქუჩა,4600,42.2446797,42.6814755
32,რევაზ თაბუკაშვილის ქუჩა,46000,42.2406258,42.6761896
67ა,რევაზ თაბუკაშვილის ქუჩა,4600,42.2449893,42.6800570
67,რევაზ თაბუკაშვილის ქუჩა,4600,42.2447585,42.6800219
69,რევაზ თაბუკაშვილის ქუჩა,4600,42.2446756,42.6799310
71,რევაზ თაბუკაშვილის ქუჩა,4600,42.2445604,42.6798529
73,რევაზ თაბუკაშვილის ქუჩა,4600,42.2444374,42.6797746
75,რევაზ თაბუკაშვილის ქუჩა,4600,42.2443270,42.6796865
77,რევაზ თაბუკაშვილის ქუჩა,4600,42.2441949,42.6796298
79,რევაზ თაბუკაშვილის ქუჩა,4600,42.2440684,42.6795371
81,რევაზ თაბუკაშვილის ქუჩა,4600,42.2439450,42.6794513
83,რევაზ თაბუკაშვილის ქუჩა,4600,42.2438241,42.6793913
85,რევაზ თაბუკაშვილის ქუჩა,4600,42.2436968,42.6793207
87,რევაზ თაბუკაშვილის ქუჩა,4600,42.2435899,42.6792010
89,რევაზ თაბუკაშვილის ქუჩა,4600,42.2434495,42.6791425
91,რევაზ თაბუკაშვილის ქუჩა,4600,42.2433446,42.6790535
93,რევაზ თაბუკაშვილის ქუჩა,4600,42.2432269,42.6789603
95,რევაზ თაბუკაშვილის ქუჩა,4600,42.2430937,42.6788856
97/1,რევაზ თაბუკაშვილის ქუჩა,4600,42.2429823,42.6788286
97/1,რევაზ თაბუკაშვილის ქუჩა,4600,42.2428759,42.6789438
34/3,სილოვან ხუნდაძის ქუჩა,4600,42.2428271,42.6792620
32,სილოვან ხუნდაძის ქუჩა,4600,42.2429482,42.6793322
30,სილოვან ხუნდაძის ქუჩა,4600,42.2430643,42.6794160
28,სილოვან ხუნდაძის ქუჩა,4600,42.2431806,42.6795084
26,სილოვან ხუნდაძის ქუჩა,4600,42.2432994,42.6796150
24,სილოვან ხუნდაძის ქუჩა,4600,42.2434258,42.6796874
22,სილოვან ხუნდაძის ქუჩა,4600,42.2435022,42.6797447
20,სილოვან ხუნდაძის ქუჩა,4600,42.2436512,42.6798201
18,სილოვან ხუნდაძის ქუჩა,4600,42.2437852,42.6799094
16,სილოვან ხუნდაძის ქუჩა,4600,42.2439057,42.6799805
14,სილოვან ხუნდაძის ქუჩა,4600,42.2440275,42.6800936
12,სილოვან ხუნდაძის ქუჩა,4600,42.2441474,42.6801441
10,სილოვან ხუნდაძის ქუჩა,4600,42.2442674,42.6802540
8,სილოვან ხუნდაძის ქუჩა,4600,42.2443856,42.6803033
6,სილოვან ხუნდაძის ქუჩა,4600,42.2444658,42.6803828
4,სილოვან ხუნდაძის ქუჩა,4600,42.2446317,42.6804572
2,სილოვან ხუნდაძის ქუჩა,4600,42.2447045,42.6805422
2ა,სილოვან ხუნდაძის ქუჩა,4600,42.2447807,42.6803972
99/2,რევაზ თაბუკაშვილის ქუჩა,4600,42.2427332,42.6786403
36/4,სილოვან ხუნდაძის ქუჩა,4600,42.2425763,42.6791039
38,სილოვან ხუნდაძის ქუჩა,4600,42.2424712,42.6790285
40,სილოვან ხუნდაძის ქუჩა,4600,42.2423851,42.6789299
42,სილოვან ხუნდაძის ქუჩა,4600,42.2422393,42.6788947
44,სილოვან ხუნდაძის ქუჩა,4600,42.2421162,42.6788164
46,სილოვან ხუნდაძის ქუჩა,4600,42.2419872,42.6787296
48/3,სილოვან ხუნდაძის ქუჩა,4600,42.2418517,42.6786546
107,რევაზ თაბუკაშვილის ქუჩა,4600,42.2422890,42.6783317
105,რევაზ თაბუკაშვილის ქუჩა,4600,42.2423981,42.6784035
103,რევაზ თაბუკაშვილის ქუჩა,4600,42.2425018,42.6784553
101,რევაზ თაბუკაშვილის ქუჩა,4600,42.2426396,42.6785627
6,რევაზ თაბუკაშვილის ქუჩა,4600,42.2464193,42.6799908
8,რევაზ თაბუკაშვილის ქუჩა,4600,42.2457006,42.6797241
10,რევაზ თაბუკაშვილის ქუჩა,4600,42.2456010,42.6791546
51,სილოვან ხუნდაძის ქუჩა,4600,42.2410128,42.6788040
53,სილოვან ხუნდაძის ქუჩა,4600,42.2406889,42.6785945
55,სილოვან ხუნდაძის ქუჩა,4600,42.2404036,42.6784301
57,სილოვან ხუნდაძის ქუჩა,4600,42.2400817,42.6782004
59,სილოვან ხუნდაძის ქუჩა,4600,42.2396200,42.6782186
61,სილოვან ხუნდაძის ქუჩა,4600,42.2392709,42.6780002
63,სილოვან ხუნდაძის ქუჩა,4600,42.2390048,42.6776569
54,სილოვან ხუნდაძის ქუჩა,4600,42.2395370,42.6770133
52,სილოვან ხუნდაძის ქუჩა,4600,42.2402232,42.6775057
50,სილოვან ხუნდაძის ქუჩა,4600,42.2409574,42.6779749
48ა/48ბ,სილოვან ხუნდაძის ქუჩა,4600,42.2415445,42.6782691
121,რევაზ თაბუკაშვილის ქუჩა,4600,42.2390410,42.6761633
79,სილოვან ხუნდაძის ქუჩა,4600,42.2375459,42.6763406
81,სილოვან ხუნდაძის ქუჩა,4600,42.2374481,42.6762949
83,სილოვან ხუნდაძის ქუჩა,4600,42.2373463,42.6762065
85,სილოვან ხუნდაძის ქუჩა,4600,42.2372292,42.6761475
87,სილოვან ხუნდაძის ქუჩა,4600,42.2371002,42.6760794
89,სილოვან ხუნდაძის ქუჩა,4600,42.2370075,42.6760067
91,სილოვან ხუნდაძის ქუჩა,4600,42.2368906,42.6759423
93,სილოვან ხუნდაძის ქუჩა,4600,42.2367694,42.6758511
95,სილოვან ხუნდაძის ქუჩა,4600,42.2366602,42.6757706
70,შალვა დადიანის ქუჩა,4600,42.2373454,42.6769843
72,შალვა დადიანის ქუჩა,4600,42.2372449,42.6768649
74,შალვა დადიანის ქუჩა,4600,42.2371488,42.6768274
76,შალვა დადიანის ქუჩა,4600,42.2370112,42.6767537
78,შალვა დადიანის ქუჩა,4600,42.2369050,42.6766946
80,შალვა დადიანის ქუჩა,4600,42.2367613,42.6765816
82,შალვა დადიანის ქუჩა,4600,42.2366672,42.6765317
57ა,შალვა დადიანის ქუჩა,4600,42.2383373,42.6782757
55ა,შალვა დადიანის ქუჩა,4600,42.2384544,42.6783267
57,შალვა დადიანის ქუჩა,4600,42.2404209,42.6798031
59,შალვა დადიანის ქუჩა,4600,42.2400967,42.6795754
61,შალვა დადიანის ქუჩა,4600,42.2397827,42.6793616
61ა,შალვა დადიანის ქუჩა,4600,42.2392414,42.6794254
63,შალვა დადიანის ქუჩა,4600,42.2390855,42.6787288
36,შალვა დადიანის ქუჩა,4600,42.2426546,42.6800966
35,კონსტანტინე გამსახურდიას ქუჩა,4600,42.2461841,42.6853593
13,კონსტანტინე გამსახურდიას ქუჩა,4600,42.2483694,42.6864850
9,კონსტანტინე გამსახურდიას ქუჩა,4600,42.2490706,42.6870193
21,ილია ჭავჭავაძის გამზირი,4600,42.2492775,42.6892285
17,კონსტანტინე გამსახურდიას ქუჩა,4600,42.2481034,42.6862369
105,დავით აღმაშენებლის გამზირი,4600,42.2615692,42.6811436
45,ილია ჭავჭავაძის გამზირი,4600,42.2533330,42.6787884
3ა,ილია ჭავჭავაძის გამზირი,4600,42.2483897,42.6958837
3ა,ილია ჭავჭავაძის გამზირი,4600,42.2484884,42.6950566
3,ილია ჭავჭავაძის გამზირი,4600,42.2479978,42.6957769
6,ილია ჭავჭავაძის გამზირი,4600,42.2489480,42.6953293
1ა,ილია ჭავჭავაძის გამზირი,4600,42.2478935,42.6979461
1ბ,ილია ჭავჭავაძის გამზირი,4600,42.2473741,42.6984617
11ბ,ნიკეას I შეს,4600,42.2465029,42.6983925
2,ილია ჭავჭავაძის გამზირი,4600,42.2468160,42.6989086
13,ნიკეას I შეს,4600,42.2461378,42.6980650
9,ნიკეას I შესახვევი,4600,42.2456039,42.6978528
11,ნიკეას I შესახვევი,4600,42.2456343,42.6985245
12,ნიკეას I შესახვევი,4600,42.2436988,42.6973968
5,ნიკეას I შეს,4600,42.2462265,42.6962372
3,ნიკეას I შეს,4600,42.2460659,42.6952709
1,ნიკეას I შესახვევი,4600,42.2458773,42.6941310
7ა,ნიკეას ქუჩა,4600,42.2462602,42.6941665
1/9,ნიკეას ქუჩა,4600,42.2469333,42.6959318
1/8,ნიკეას ქუჩა,4600,42.2478232,42.6942211
1/3,ნიკეას ქუჩა,4600,42.2471540,42.6947240
1/5,ნიკეას ქუჩა,4600,42.2469623,42.6940874
1/6,ნიკეას ქუჩა,4600,42.2466433,42.6964469
1/6ა,ნიკეას ქუჩა,4600,42.2464834,42.6967918
147ა,ლადო ასათიანის ქუჩა,4600,42.2495067,42.6948167
147,ლადო ასათიანის ქუჩა,4600,42.2501177,42.6950277
9,ილია ჭავჭავაძის გამზირი,4600,42.2488245,42.6929035
11,ილია ჭავჭავაძის გამზირი,4600,42.2489051,42.6923304
7ვ,ილია ჭავჭავაძის გამზირი,4600,42.2485666,42.6920353
9ა,ილია ჭავჭავაძის გამზირი,4600,42.2483140,42.6915252
9ბ,ილია ჭავჭავაძის გამზირი,4600,42.2486955,42.6911417
9ვ,ილია ჭავჭავაძის გამზირი,4600,42.2484536,42.6904437
13,ილია ჭავჭავაძის გამზირი,4600,42.2490867,42.6910756
15,ილია ჭავჭავაძის გამზირი,4600,42.2491619,42.6904912
17,ილია ჭავჭავაძის გამზირი,4600,42.2492333,42.6900980
21ა,ილია ჭავჭავაძის გამზირი,4600,42.2489088,42.6894708
19,ილია ჭავჭავაძის გამზირი,4600,42.2476766,42.6901803
10,ილია ჭავჭავაძის გამზირი,4600,42.2500640,42.6883629
18,ილია ჭავჭავაძის გამზირი,4600,42.2509563,42.6854675
31,ილია ჭავჭავაძის გამზირი,4600,42.2504105,42.6854085
31,ილია ჭავჭავაძის გამზირი,4600,42.2504369,42.6850006
35,ილია ჭავჭავაძის გამზირი,4600,42.2509386,42.6838427
12,აკაკი ხორავას ქუჩა,4600,42.2529725,42.6813827
36,ილია ჭავჭავაძის გამზირი,4600,42.2537472,42.6790369
38-40,ილია ჭავჭავაძის გამზირი,4600,42.2540906,42.6782403
42,ილია ჭავჭავაძის გამზირი,4600,42.2544619,42.6775282
44,ილია ჭავჭავაძის გამზირი,4600,42.2547776,42.6767328
46,ილია ჭავჭავაძის გამზირი,4600,42.2551680,42.6760927
46ა,ილია ჭავჭავაძის გამზირი,4600,42.2554474,42.6755629
52A,ილია ჭავჭავაძის გამზირი,4600,42.2555819,42.6763737
46,ილია ჭავჭავაძის გამზირი,4600,42.2556703,42.6749608
48,ილია ჭავჭავაძის გამზირი,4600,42.2559867,42.6744991
52,ილია ჭავჭავაძის გამზირი,4600,42.2567082,42.6728705
54,ილია ჭავჭავაძის გამზირი,4600,42.2568060,42.6721849
56,ილია ჭავჭავაძის გამზირი,4600,42.2571085,42.6714918
60,ილია ჭავჭავაძის გამზირი,4600,42.2579149,42.6696811
62,ილია ჭავჭავაძის გამზირი,4600,42.2581521,42.6691457
27,ილია ჭავჭავაძის გამზირი,4600,42.2497714,42.6856998
47,ილია ჭავჭავაძის გამზირი,4600,42.2536023,42.6781679
49,ილია ჭავჭავაძის გამზირი,4600,42.2538802,42.6774966
51,ილია ჭავჭავაძის გამზირი,4600,42.2542301,42.6765948
55,ილია ჭავჭავაძის გამზირი,4600,42.2569893,42.6701333
57,ილია ჭავჭავაძის გამზირი,4600,42.2575193,42.6694117
59A,ილია ჭავჭავაძის გამზირი,4600,42.2572223,42.6690371
1,ნაზიმის ქუჩა III ჩიხი,4600,42.2734406,42.7117280
4ა,ავტომშენებლის გამზირი,4600,42.2623551,42.6463879
4,ავტომშენებლის გამზირი,4600,42.2629090,42.6466620
2,ლომოურის ქუჩა,4600,42.2463605,42.6906754
14ა,ირაკლი აბაშიძის გამზირი,4600,42.2639633,42.6710101
17,ნიკოლოზ გოგოლის ქუჩა,4600,42.2530694,42.7166565
58ბ,ილია ჭავჭავაძის გამზირი,4600,42.2582646,42.6709677
58ბ,ილია ჭავჭავაძის გამზირი,4600,42.2584847,42.6713027
33,მიხეილ ბუხაიძის II შესახვევი,4600,42.2655822,42.6718474
58,ზვიად გამსახურდიას გამზირი,4600,42.2553345,42.6626503
10,ბორის ბუკიას ქუჩა,4600,42.2579129,42.6462966
10ა,ბუკიას ქუჩა,4600,42.2570578,42.6463360
40,ბესარიონ ბელინსკის ქუჩა,4600,42.2551878,42.6471300
33,ბესარიონ ბელინსკის ქუჩა,4600,42.2556090,42.6471169
28,ბორის ბუკიას ქუჩა,4600,42.2557209,42.6471057
26,ბორის ბუკიას ქუჩა,4600,42.2559027,42.6470542
24,ბორის ბუკიას ქუჩა,4600,42.2560213,42.6470401
22,ბორის ბუკიას ქუჩა,4600,42.2561995,42.6470429
20,ბორის ბუკიას ქუჩა,4600,42.2563193,42.6470034
18,ბორის ბუკიას ქუჩა,4600,42.2564606,42.6469902
16,ბორის ბუკიას ქუჩა,4600,42.2565908,42.6469623
8,ბორის ბუკიას ქუჩა,4600,42.2587649,42.6462610
6,ბორის ბუკიას ქუჩა,4600,42.2595959,42.6461467
76;77,ბორის ბუკიას ქუჩა,4600,42.2542857,42.6490459
1,შოთა ლეჟავას ქუჩა,4600,42.2597175,42.6455856
2,შოთა ლეჟავას ქუჩა,4600,42.2600005,42.6455534
10ბ,ბორის ბუკიას ქუჩა,4600,42.2573679,42.6463811
2ა,ბორის ბუკიას ქუჩა,4600,42.2607754,42.6465508
23,ბესარიონ ბელინსკის X შესახვევი,4600,42.2535528,42.6472068
27,ბესარიონ ბელინსკის X შესახვევი,4600,42.2533074,42.6472395
25,ბესარიონ ბელინსკის X შესახვევი,4600,42.2534550,42.6472123
19,ბესარიონ ბელინსკის X შესახვევი,4600,42.2538254,42.6471606
21,ბესარიონ ბელინსკის X შესახვევი,4600,42.2537186,42.6471698
52,ნიკოლოზ მუსხელიშვილის IV შესახვევი,4600,42.2531114,42.6446224
13,ბესარიონ ბელინსკის X შესახვევი,4600,42.2542577,42.6470853
6,ბესარიონ ბელინსკის X შესახვევი,4600,42.2547549,42.6465773
34,ნიკოლოზ მუსხელიშვილის IV შესახვევი,4600,42.2544215,42.6443893
27,ბესარიონ ბელინსკის VI შესახვევი,4600,42.2531948,42.6459129
18,ბესარიონ ბელინსკის VIII შესახვევი,4600,42.2538718,42.6460639
7,ბესარიონ ბელინსკის X შესახვევი,4600,42.2546202,42.6469920
24,ბესარიონ ბელინსკის VI შესახვევი,4600,42.2533734,42.6454242
25,ნიკოლოზ მუსხელიშვილის IV შესახვევი,4600,42.2546110,42.6450071
25,ბესარიონ ბელინსკის VIII შესახვევი,4600,42.2533900,42.6465713
30,ბესარიონ ბელინსკის ქუჩა,4600,42.2550698,42.6456416
48,ნიკოლოზ მუსხელიშვილის IV შესახვევი,4600,42.2534948,42.6445378
29,ნიკოლოზ მუსხელიშვილის IV შესახვევი,4600,42.2543335,42.6450228
3,ბესარიონ ბელინსკის VI შესახვევი,4600,42.2548085,42.6456987
32,ნიკოლოზ მუსხელიშვილის IV შესახვევი,4600,42.2545933,42.6443692
23,ბესარიონ ბელინსკის VIII შესახვევი,4600,42.2534928,42.6465694
39,ნიკოლოზ მუსხელიშვილის IV შესახვევი,4600,42.2536458,42.6451549
2,ბესარიონ ბელინსკის X შესახვევი,4600,42.2550131,42.6465374
5,ბესარიონ ბელინსკის VI შესახვევი,4600,42.2546870,42.6456939
17,ბესარიონ ბელინსკის VIII შესახვევი,4600,42.2539373,42.6464747
131,ბესარიონ ბელინსკის VIII შესახვევი,4600,42.2542008,42.6464348
9,ბესარიონ ბელინსკის VI შესახვევი,4600,42.2544034,42.6457444
9,ბესარიონ ბელინსკის VIII შესახვევი,4600,42.2544666,42.6463976
12,ბესარიონ ბელინსკის VI შესახვევი,4600,42.2542027,42.6452931
13,ბესარიონ ბელინსკის VI შესახვევი,4600,42.2541277,42.6457894
18,ბესარიონ ბელინსკის X შესახვევი,4600,42.2539473,42.6467218
15,ბესარიონ ბელინსკის VIII შესახვევი,4600,42.2540302,42.6464559
7,ბესარიონ ბელინსკის VIII შესახვევი,4600,42.2545976,42.6463950
10,ბესარიონ ბელინსკის VI შესახვევი,4600,42.2543430,42.6452737
4,ბესარიონ ბელინსკის VIII შესახვევი,4600,42.2548243,42.6459361
26,ბესარიონ ბელინსკის ქუჩა,4600,42.2549989,42.6449165
20,ბესარიონ ბელინსკის X შესახვევი,4600,42.2537797,42.6467381
15,ბესარიონ ბელინსკის X შესახვევი,4600,42.2540917,42.6470958
14,ბესარიონ ბელინსკის X შესახვევი,4600,42.2542203,42.6466501
24,ბესარიონ ბელინსკის X შესახვევი,4600,42.2535118,42.6467912
24,ბესარიონ ბელინსკის VIII შესახვევი,4600,42.2534552,42.6461321
32,ბესარიონ ბელინსკის ქუჩა,4600,42.2550809,42.6459581
28,ბესარიონ ბელინსკის ქუჩა,4600,42.2550242,42.6451855
30,ნიკოლოზ მუსხელიშვილის IV შესახვევი,4600,42.2547298,42.6443743
7,ბესარიონ ბელინსკის VI შესახვევი,4600,42.2545293,42.6457292
12,ბესარიონ ბელინსკის X შესახვევი,4600,42.2543250,42.6466329
27,ბესარიონ ბელინსკის VIII შესახვევი,4600,42.2532384,42.6466111
17,ბესარიონ ბელინსკის X შესახვევი,4600,42.2539870,42.6471207
6,ბესარიონ ბელინსკის VIII შესახვევი,4600,42.2547055,42.6459486
9,ბესარიონ ბელინსკის X შესახვევი,4600,42.2545159,42.6470092
38,ნიკოლოზ მუსხელიშვილის IV შესახვევი,4600,42.2541537,42.6444424
20,ბესარიონ ბელინსკის VIII შესახვევი,4600,42.2537273,42.6460912
12,ბესარიონ ბელინსკის VIII შესახვევი,4600,42.2542733,42.6460122
28,ბესარიონ ბელინსკის VIII შესახვევი,4600,42.2531864,42.6462011
6,ბესარიონ ბელინსკის VI შესახვევი,4600,42.2546311,42.6452385
14,ბესარიონ ბელინსკის VIII შესახვევი,4600,42.2541672,42.6460246
20,ბესარიონ ბელინსკის VI შესახვევი,4600,42.2536419,42.6454047
31,ნიკოლოზ მუსხელიშვილის IV შესახვევი,4600,42.2541854,42.6450830
27,ნიკოლოზ მუსხელიშვილის IV შესახვევი,4600,42.2544692,42.6450224
8,ბესარიონ ბელინსკის VIII შესახვევი,4600,42.2545467,42.6459821
26,ბესარიონ ბელინსკის X შესახვევი,4600,42.2534194,42.6468379
19,ბესარიონ ბელინსკის VI შესახვევი,4600,42.2537163,42.6458306
8,ბესარიონ ბელინსკის X შესახვევი,4600,42.2545875,42.6465946
19,ბესარიონ ბელინსკის VIII შესახვევი,4600,42.2537663,42.6465237
26,ბესარიონ ბელინსკის VI შესახვევი,4600,42.2532676,42.6454298
8,ბესარიონ ბელინსკის VI შესახვევი,4600,42.2544862,42.6452516
22,ბესარიონ ბელინსკის VI შესახვევი,4600,42.2535223,42.6454308
34,ბესარიონ ბელინსკის ქუჩა,4600,42.2551122,42.6462898
46,ნიკოლოზ მუსხელიშვილის IV შესახვევი,4600,42.2536050,42.6445037
39,ნიკოლოზ მუსხელიშვილის IV შესახვევი,4600,42.2537934,42.6451104
42,ნიკოლოზ მუსხელიშვილის IV შესახვევი,4600,42.2538871,42.6444602
44,ნიკოლოზ მუსხელიშვილის IV შესახვევი,4600,42.2537742,42.6444711
5,ბესარიონ ბელინსკის X შესახვევი,4600,42.2547922,42.6469943
1,ბესარიონ ბელინსკის VIII შესახვევი,4600,42.2550018,42.6463202
16,ბესარიონ ბელინსკის X შესახვევი,4600,42.2540708,42.6466695
21,ბესარიონ ბელინსკის VIII შესახვევი,4600,42.2536504,42.6465238
47,ნიკოლოზ მუსხელიშვილის IV შესახვევი,4600,42.2530955,42.6452339
3,ბესარიონ ბელინსკის X შესახვევი,4600,42.2548887,42.6469742
21,ბესარიონ ბელინსკის VI შესახვევი,4600,42.2535921,42.6458474
17,ბესარიონ ბელინსკის VI შესახვევი,4600,42.2538657,42.6458011
23,ნიკოლოზ მუსხელიშვილის IV შესახვევი,4600,42.2547361,42.6449870
37,ნიკოლოზ მუსხელიშვილის IV შესახვევი,4600,42.2539067,42.6451232
10,ბესარიონ ბელინსკის X შესახვევი,4600,42.2544817,42.6466143
22,ბესარიონ ბელინსკის VIII შესახვევი,4600,42.2536034,42.6461102
38,ბესარიონ ბელინსკის ქუჩა,4600,42.2551582,42.6468974
11,ბესარიონ ბელინსკის VI შესახვევი,4600,42.2542469,42.6457547
1,ბესარიონ ბელინსკის X შესახვევი,4600,42.2550588,42.6469167
23,ბესარიონ ბელინსკის VI შესახვევი,4600,42.2534319,42.6458698
41,ნიკოლოზ მუსხელიშვილის IV შესახვევი,4600,42.2535133,42.6451864
21,ნიკოლოზ მუსხელიშვილის IV შესახვევი,4600,42.2548918,42.6449786
10,ბესარიონ ბელინსკის VIII შესახვევი,4600,42.2544311,42.6460153
36,ბესარიონ ბელინსკის ქუჩა,4600,42.2551213,42.6464988
4,ბესარიონ ბელინსკის VI შესახვევი,4600,42.2547530,42.6452376
28,ბესარიონ ბელინსკის X შესახვევი,4600,42.2532453,42.6468281
2,ბესარიონ ბელინსკის VIII შესახვევი,4600,42.2549655,42.6459244
25,ბესარიონ ბელინსკის VI შესახვევი,4600,42.2533141,42.6458881
28,ბესარიონ ბელინსკის VI შესახვევი,4600,42.2531155,42.6454720
11,ბესარიონ ბელინსკის X შესახვევი,4600,42.2543551,42.6470475
50,ნიკოლოზ მუსხელიშვილის IV შესახვევი,4600,42.2533308,42.6445506
40,ნიკოლოზ მუსხელიშვილის IV შესახვევი,4600,42.2540401,42.6444661
22,ბესარიონ ბელინსკის X შესახვევი,4600,42.2536826,42.6467515
33,ნიკოლოზ მუსხელიშვილის IV შესახვევი,4600,42.2540642,42.6451118
26,ბესარიონ ბელინსკის VIII შესახვევი,4600,42.2533447,42.6461540
36,ნიკოლოზ მუსხელიშვილის IV შესახვევი,4600,42.2543053,42.6443759
24,ბესარიონ ბელინსკის ქუჩა,4600,42.2549610,42.6443311
28,ნიკოლოზ მუსხელიშვილის IV შესახვევი,4600,42.2548782,42.6443579
16,ბესარიონ ბელინსკის VI შესახვევი,4600,42.2539187,42.6453562
43,ნიკოლოზ მუსხელიშვილის IV შესახვევი,4600,42.2533635,42.6451959
14,ბესარიონ ბელინსკის VI შესახვევი,4600,42.2540728,42.6453191
11,ბესარიონ ბელინსკის VIII შესახვევი,4600,42.2543041,42.6464011
16,ბესარიონ ბელინსკის VIII შესახვევი,4600,42.2539978,42.6460632
4,ბესარიონ ბელინსკის X შესახვევი,4600,42.2548606,42.6465585
3,ბესარიონ ბელინსკის VIII შესახვევი,4600,42.2548432,42.6463366
2,ბესარიონ ბელინსკის VI შესახვევი,4600,42.2549182,42.6451965
1,ბესარიონ ბელინსკის VI შესახვევი,4600,42.2549550,42.6456470
15,ბესარიონ ბელინსკის VI შესახვევი,4600,42.2539919,42.6458030
18,ბესარიონ ბელინსკის VI შესახვევი,4600,42.2538068,42.6453953
45,ნიკოლოზ მუსხელიშვილის IV შესახვევი,4600,42.2532510,42.6452022
5,ბესარიონ ბელინსკის VIII შესახვევი,4600,42.2547418,42.6463464
22,ნიკოლოზ მუსხელიშვილის II შესახვევი,4600,42.2558251,42.6426134
21,ბესარიონ ბელინსკის II შესახვევი,4600,42.2532481,42.6426113
20,ბესარიონ ბელინსკის IV შესახვევი,4600,42.2535491,42.6433098
25,ბესარიონ ბელინსკის II შესახვევი,4600,42.2529839,42.6429366
21,პეტრე ჩხობაძის I შესახვევი,4600,42.2568606,42.6427369
3ა,ავტომშენებლის გამზირი,4600,42.2593277,42.6441607
7,ნიკოლოზ მუსხელიშვილის II შესახვევი,4600,42.2568894,42.6424553
15,ნიკოლოზ მუსხელიშვილის IV შესახვევი,4600,42.2555833,42.6448254
27,ნიკოლოზ მუსხელიშვილის II შესახვევი,4600,42.2556338,42.6430074
21,პეტრე ჩხობაძის ქუჩა,4600,42.2571552,42.6407907
9,ბესარიონ ბელინსკის IV შესახვევი,4600,42.2541260,42.6437030
3,ნიკოლოზ მუსხელიშვილის II ჩიხი,4600,42.2571794,42.6413537
17,პეტრე ჩხობაძის I შესახვევი,4600,42.2565836,42.6423266
17,ბესარიონ ბელინსკის IV შესახვევი,4600,42.2535976,42.6437775
25,ნიკოლოზ მუსხელიშვილის II შესახვევი,4600,42.2558124,42.6432235
1,ბესარიონ ბელინსკის IV შესახვევი,4600,42.2546791,42.6435944
35,პეტრე ჩხობაძის I შესახვევი,4600,42.2575165,42.6437341
2,ნიკოლოზ მუსხელიშვილის II შესახვევი,4600,42.2573764,42.6419522
7,შოთა ლეჟავას ქუჩა,4600,42.2592652,42.6408142
19,ნიკოლოზ მუსხელიშვილის II შესახვევი,4600,42.2560206,42.6437320
8,ნიკოლოზ მუსხელიშვილის IV შესახვევი,4600,42.2567133,42.6440547
24,ნიკოლოზ მუსხელიშვილის IV შესახვევი,4600,42.2557006,42.6442208
2,ბესარიონ ბელინსკის I შესახვევი,4600,42.2556336,42.6456700
22,ნიკოლოზ მუსხელიშვილის ქუჩა,4600,42.2577809,42.6430737
29,პეტრე ჩხობაძის ქუჩა,4600,42.2566302,42.6408373
7,ბესარიონ ბელინსკის IV შესახვევი,460,42.2542268,42.6436911
15,ნიკოლოზ მუსხელიშვილის II შესახვევი,4600,42.2565062,42.6436556
11,ნიკოლოზ მუსხელიშვილის ქუჩა,4600,42.2585312,42.6458507
19,პეტრე ჩხობაძის III შესახვევი,4600,42.2530621,42.6440403
15,პეტრე ჩხობაძის ქუჩა,4600,42.2582691,42.6404844
8,ნიკოლოზ მუსხელიშვილის II შესახვევი,4600,42.2569127,42.6420099
9,ბესარიონ ბელინსკის I შესახვევი,4600,42.2561515,42.6451890
23,ბესარიონ ბელინსკის II შესახვევი,4600,42.2529751,42.6426204
28,ნიკოლოზ მუსხელიშვილის ქუჩა,4600,42.2578323,42.6436164
3,შოთა ლეჟავას ქუჩა,4600,42.2594283,42.6448263
6,შოთა ლეჟავას ქუჩა,4600,42.2595173,42.6407575
13,ბესარიონ ბელინსკის I შესახვევი,4600,42.2564318,42.6451060
4,ბესარიონ ბელინსკის I შესახვევი,4600,42.2558115,42.6456741
5,ნიკოლოზ მუსხელიშვილის IV შესახვევი,4600,42.2563788,42.6446557
12,ნიკოლოზ მუსხელიშვილის IV შესახვევი,4600,42.2564673,42.6441183
5,ბესარიონ ბელინსკის I შესახვევი,4600,42.2558727,42.6452029
7,ბესარიონ ბელინსკის III შესახვევი,4600,42.2561125,42.6460940
28,ნიკოლოზ მუსხელიშვილის II შესახვევი,4600,42.2554392,42.6421629
9,ბესარიონ ბელინსკის II შესახვევი,4600,42.2540370,42.6424565
4,ბესარიონ ბელინსკის III შესახვევი,4600,42.2558574,42.6465693
12,ბესარიონ ბელინსკის ქუჩა,4600,42.2548245,42.6426329
14,ბესარიონ ბელინსკის III შესახვევი,4600,42.2565256,42.6464347
29,ბესარიონ ბელინსკის ქუჩა,4600,42.2555445,42.6461635
13,ნიკოლოზ მუსხელიშვილის II შესახვევი,4600,42.2564060,42.6435211
10,პეტრე ჩხობაძის I შესახვევი,4600,42.2557071,42.6418633
5ა,შოთა ლეჟავას ქუჩა,4600,42.2592057,42.6424282
10,ნიკოლოზ მუსხელიშვილის II შესახვევი,4600,42.2567525,42.6420110
27,პეტრე ჩხობაძის ქუჩა,4600,42.2567571,42.6408402
37,პეტრე ჩხობაძის ქუჩა,4600,42.2560957,42.6409353
6,ბესარიონ ბელინსკის ქუჩა,4600,42.2547305,42.6415914
55ა,პეტრე ჩხობაძის ქუჩა,4600,42.2541022,42.6414749
9,პეტრე ჩხობაძის I შესახვევი,4600,42.2561739,42.6417952
14,ბესარიონ ბელინსკის II შესახვევი,4600,42.2537355,42.6420251
13,ნიკოლოზ მუსხელიშვილის II ჩიხი,4600,42.2563562,42.6413610
2,ნიკოლოზ მუსხელიშვილის II ჩიხი,4600,42.2574087,42.6409050
32ა,ნიკოლოზ მუსხელიშვილის ქუჩა,4600,42.2579025,42.6439407
18,ბესარიონ ბელინსკის II შესახვევი,4600,42.2534709,42.6420508
59,პეტრე ჩხობაძის ქუჩა,4600,42.2538277,42.6412634
6,შოთა ლეჟავას ქუჩა,4600,42.2598280,42.6439537
1,ნიკოლოზ მუსხელიშვილის II ჩიხი,4600,42.2573466,42.6414150
23,პეტრე ჩხობაძის ქუჩა,4600,42.2570284,42.6408012
13ა,ბესარიონ ბელინსკის II შესახვევი,4600,42.2539106,42.6427280
7,ბესარიონ ბელინსკის I შესახვევი,4600,42.2560425,42.6452044
36,პეტრე ჩხობაძის I შესახვევი,4600,42.2569955,42.6436920
32,ნიკოლოზ მუსხელიშვილის ქუჩა,4600,42.2577034,42.6438373
6,ბესარიონ ბელინსკის II შესახვევი,4600,42.2542818,42.6418902
27,პეტრე ჩხობაძის I შესახვევი,4600,42.2571263,42.6431215
2,ბესარიონ ბელინსკის ქუჩა,4600,42.2547316,42.6410975
3,ბესარიონ ბელინსკის II შესახვევი,4600,42.2545716,42.6424060
53,პეტრე ჩხობაძის ქუჩა,4600,42.2542304,42.6412204
3,ნიკოლოზ მუსხელიშვილის ქუჩა,4600,42.2582167,42.6419754
17,ავტომშენებლის გამზირი,4600,42.2603560,42.6405293
24,ნიკოლოზ მუსხელიშვილის ქუჩა,4600,42.2577782,42.6432671
22,ნიკოლოზ მუსხელიშვილის IV შესახვევი,4600,42.2558645,42.6441961
33,პეტრე ჩხობაძის ქუჩა,4600,42.2563515,42.6408808
13,ნიკოლოზ მუსხელიშვილის IV შესახვევი,4600,42.2557209,42.6447807
25,ავტომშენებლის გამზირი,4600,42.2600331,42.6371442
6,ბესარიონ ბელინსკის IV შესახვევი,4600,42.2543616,42.6431946
24,ნიკოლოზ მუსხელიშვილის II შესახვევი,4600,42.2556903,42.6425169
20,პეტრე ჩხობაძის I შესახვევი,4600,42.2561967,42.6425235
9,ნიკოლოზ მუსხელიშვილის ქუჩა,4600,42.2584830,42.6451619
9,პეტრე ჩხობაძის ქუჩა,4600,42.2591937,42.6403641
18,ბესარიონ ბელინსკის ქუჩა,4600,42.2548781,42.6435721
55,პეტრე ჩხობაძის ქუჩა,4600,42.2540948,42.6412366
2,პეტრე ჩხობაძის I შესახვევი,4600,42.2552208,42.6411601
12,პეტრე ჩხობაძის I შესახვევი,4600,42.2557994,42.6420076
2,ავტომშენებლის I შესახვევი,4600,42.2601789,42.6431826
7,ნიკოლოზ მუსხელიშვილის IV შესახვევი,4600,42.2561169,42.6447287
11,ნიკოლოზ მუსხელიშვილის IV შესახვევი,4600,42.2558460,42.6447540
2ა,ნიკოლოზ მუსხელიშვილის ქუჩა,4600,42.2575464,42.6405563
5,ბესარიონ ბელინსკის IV შესახვევი,4600,42.2543822,42.6436612
26,ნიკოლოზ მუსხელიშვილის II შესახვევი,4600,42.2555294,42.6422930
23,ნიკოლოზ მუსხელიშვილის II შესახვევი,4600,42.2558084,42.6436901
12,ბესარიონ ბელინსკის III შესახვევი,4600,42.2564270,42.6464542
34,პეტრე ჩხობაძის I შესახვევი,4600,42.2568964,42.6435734
4,ნიკოლოზ მუსხელიშვილის IV შესახვევი,4600,42.2570044,42.6440104
17,ბესარიონ ბელინსკის II შესახვევი,4600,42.2535086,42.6425812
10,ნიკოლოზ მუსხელიშვილის IV შესახვევი,4600,42.2566026,42.6440575
1,ავტომშენებლის I შესახვევი,4600,42.2602373,42.6436958
21,ბესარიონ ბელინსკის IV შესახვევი,4600,42.2533105,42.6437928
18,ნიკოლოზ მუსხელიშვილის II შესახვევი,4600,42.2560088,42.6429057
27,ბესარიონ ბელინსკის ქუჩა,4600,42.2555383,42.6457385
2,ბესარიონ ბელინსკის IV შესახვევი,4600,42.2546280,42.6431301
6,ნიკოლოზ მუსხელიშვილის II ჩიხი,4600,42.2570273,42.6410453
10,ავტომშენებლის I შესახვევი,4600,42.2584362,42.6434553
5,ავტომშენებლის I შესახვევი,4600,42.2584696,42.6438964
5,ნიკოლოზ მუსხელიშვილის ქუჩა,4600,42.2582319,42.6428880
33,პეტრე ჩხობაძის I შესახვევი,4600,42.2574297,42.6435226
13,შოთა ლეჟავას ქუჩა,4600,42.2598230,42.6416880
3,ავტომშენებლის I შესახვევი,4600,42.2590128,42.6438549
10,ნიკოლოზ მუსხელიშვილის ქუჩა,4600,42.2576721,42.6416049
4,ბესარიონ ბელინსკის IV შესახვევი,4600,42.2544629,42.6431574
32,ნიკოლოზ მუსხელიშვილის ქუჩა,4600,42.2578697,42.6438006
5ა,შოთა ლეჟავას ქუჩა,4600,42.2591218,42.6413416
20,ნიკოლოზ მუსხელიშვილის II შესახვევი,4600,42.2558978,42.6427567
6,ნიკოლოზ მუსხელიშვილის ქუჩა,4600,42.2576196,42.6412221
16,ნიკოლოზ მუსხელიშვილის IV შესახვევი,4600,42.2562181,42.6441315
21,ავტომშენებლის გამზირი,4600,42.2601068,42.6380204
8,ბესარიონ ბელინსკის ქუჩა,4600,42.2547706,42.6418960
21,პეტრე ჩხობაძის III შესახვევი,4600,42.2531041,42.6444034
23,პეტრე ჩხობაძის I შესახვევი,4600,42.2569588,42.6428767
12,ბესარიონ ბელინსკის II შესახვევი,4600,42.2538644,42.6419599
4,ნიკოლოზ მუსხელიშვილის ქუჩა,4600,42.2576348,42.6408521
4,ბესარიონ ბელინსკის II შესახვევი,4600,42.2544123,42.6419404
3,ბესარიონ ბელინსკის III შესახვევი,4600,42.2558391,42.6461415
8,პეტრე ჩხობაძის I შესახვევი,4600,42.2556297,42.6417339
17,ბესარიონ ბელინსკის ქუჩა,4600,42.2554122,42.6438888
5,პეტრე ჩხობაძის I შესახვევი,4600,42.2559474,42.6414827
17,ნიკოლოზ მუსხელიშვილის IV შესახვევი,4600,42.2554680,42.6448275
2,ბესარიონ ბელინსკის II შესახვევი,4600,42.2545183,42.6419203
3,ნიკოლოზ მუსხელიშვილის II შესახვევი,4600,42.2572659,42.6424100
5,ბესარიონ ბელინსკის III შესახვევი,4600,42.2559611,42.6461386
4,ნიკოლოზ მუსხელიშვილის II შესახვევი,4600,42.2572359,42.6419688
15,ბესარიონ ბელინსკის ქუჩა,4600,42.2553973,42.6436656
35,პეტრე ჩხობაძის ქუჩა,4600,42.2562224,42.6409414
3,პეტრე ჩხობაძის I შესახვევი,4600,42.2558104,42.6412898
12,ბესარიონ ბელინსკის I შესახვევი,4600,42.2563399,42.6455950
39,პეტრე ჩხობაძის ქუჩა,4600,42.2559550,42.6410004
10,ბესარიონ ბელინსკის III შესახვევი,4600,42.2562673,42.6464922
6,ბესარიონ ბელინსკის I შესახვევი,4600,42.2559219,42.6456411
16,ბესარიონ ბელინსკის ქუჩა,4600,42.2548509,42.6431343
11,ნიკოლოზ მუსხელიშვილის II შესახვევი,4600,42.2562948,42.6433441
14,ნიკოლოზ მუსხელიშვილის ქუჩა,4600,42.2577231,42.6423359
9,ბესარიონ ბელინსკის III შესახვევი,4600,42.2562161,42.6460682
8,ბესარიონ ბელინსკის IV შესახვევი,4600,42.2541865,42.6432147
22,პეტრე ჩხობაძის I შესახვევი,4600,42.2562966,42.6426565
30,პეტრე ჩხობაძის I შესახვევი,4600,42.2567119,42.6432688
13,პეტრე ჩხობაძის ქუჩა,4600,42.2588788,42.6404079
16,ნიკოლოზ მუსხელიშვილის ქუჩა,4600,42.2577345,42.6425290
25,პეტრე ჩხობაძის ქუჩა,4600,42.2568870,42.6408079
29,პეტრე ჩხობაძის I შესახვევი,4600,42.2572466,42.6432719
19,პეტრე ჩხობაძის I შესახვევი,4600,42.2567544,42.6426191
24,ბესარიონ ბელინსკის IV შესახვევი,4600,42.2532737,42.6433325
29,ნიკოლოზ მუსხელიშვილის II შესახვევი,4600,42.2553766,42.6426556
15,ავტომშენებლის გამზირი,4600,42.2604481,42.6414137
11,პეტრე ჩხობაძის I შესახვევი,4600,42.2562973,42.6419337
15ა,ბესარიონ ბელინსკის IV შესახვევი,4600,42.2537582,42.6440347
10,ბესარიონ ბელინსკის II შესახვევი,4600,42.2540052,42.6420117
8ა,ბესარიონ ბელინსკის IV შესახვევი,4600,42.2541802,42.6429631
14,ბესარიონ ბელინსკის IV შესახვევი,4600,42.2538136,42.6432456
71,პეტრე ჩხობაძის ქუჩა,4600,42.2528781,42.6413400
13,ბესარიონ ბელინსკის IV შესახვევი,4600,42.2538526,42.6437846
7,ნიკოლოზ მუსხელიშვილის II ჩიხი,4600,42.2568794,42.6413986
8,ბესარიონ ბელინსკის III შესახვევი,4600,42.2561532,42.6465354
9,ბესარიონ ბელინსკის ქუჩა,4600,42.2553693,42.6430725
5,ბესარიონ ბელინსკის ქუჩა,4600,42.2553871,42.6428518
19,ბესარიონ ბელინსკის IV შესახვევი,4600,42.2534059,42.6437448
14,პეტრე ჩხობაძის I შესახვევი,4600,42.2558988,42.6421200
13,ბესარიონ ბელინსკის II შესახვევი,4600,42.2537566,42.6425086
15,ბესარიონ ბელინსკის IV შესახვევი,4600,42.2537024,42.6437631
24,პეტრე ჩხობაძის I შესახვევი,4600,42.2563728,42.6427941
41,პეტრე ჩხობაძის ქუჩა,4600,42.2558109,42.6409642
7,ნიკოლოზ მუსხელიშვილის ქუჩა,4600,42.2583998,42.6444479
1,ნიკოლოზ მუსხელიშვილის ქუჩა,4600,42.2581007,42.6410453
8,ავტომშენებლის I შესახვევი,4600,42.2589918,42.6433668
14,ბესარიონ ბელინსკის ქუჩა,4600,42.2548369,42.6428544
6,ბესარიონ ბელინსკის III შესახვევი,4600,42.2559918,42.6466771
4,ავტომშენებლის I შესახვევი,4600,42.2597392,42.6430134
17,პეტრე ჩხობაძის ქუჩა,4600,42.2574335,42.6407023
8,ნიკოლოზ მუსხელიშვილის ქუჩა,4600,42.2576469,42.6414168
7,პეტრე ჩხობაძის I შესახვევი,4600,42.2561101,42.6416627
16,ბესარიონ ბელინსკის II შესახვევი,4600,42.2536064,42.6420754
61,პეტრე ჩხობაძის ქუჩა,4600,42.2536916,42.6412821
1,ბესარიონ ბელინსკის I შესახვევი,4600,42.2555888,42.6452276
3,ბესარიონ ბელინსკის II შესახვევი,4600,42.2544042,42.6423885
17,პეტრე ჩხობაძის III შესახვევი,4600,42.2530732,42.6437927
1ა,ნიკოლოზ მუსხელიშვილის ქუჩა,4600,42.2587297,42.6421442
3,ბესარიონ ბელინსკის IV შესახვევი,4600,42.2544994,42.6436445
19,ავტომშენებლის გამზირი,4600,42.2601414,42.6388050
14,ბესარიონ ბელინსკის I შესახვევი,4600,42.2564557,42.6455914
30,ნიკოლოზ მუსხელიშვილის II შესახვევი,4600,42.2553210,42.6419914
5,ბესარიონ ბელინსკის II შესახვევი,4600,42.2542932,42.6424051
4,ბესარიონ ბელინსკის ქუჩა,4600,42.2547218,42.6414391
11,ბესარიონ ბელინსკის I შესახვევი,4600,42.2563159,42.6451517
19,ნიკოლოზ მუსხელიშვილის IV შესახვევი,4600,42.2554232,42.6440630
20,ნიკოლოზ მუსხელიშვილის IV შესახვევი,4600,42.2559708,42.6442002
11,ბესარიონ ბელინსკის ქუჩა,4600,42.2553733,42.6432454
6,ავტომშენებლის I შესახვევი,4600,42.2594455,42.6430653
49,პეტრე ჩხობაძის ქუჩა,4600,42.2544999,42.6411933
51ა,პეტრე ჩხობაძის ქუჩა,4600,42.2543621,42.6414722
4,პეტრე ჩხობაძის I შესახვევი,4600,42.2554471,42.6414802
23,ნიკოლოზ მუსხელიშვილის II შესახვევი,4600,42.2559143,42.6433978
8,ბესარიონ ბელინსკის I შესახვევი,4600,42.2560743,42.6456386
16,პეტრე ჩხობაძის I შესახვევი,4600,42.2559663,42.6422501
22,ბესარიონ ბელინსკის IV შესახვევი,4600,42.2533820,42.6433332
26,ბესარიონ ბელინსკის II შესახვევი,4600,42.2529271,42.6418594
1,პეტრე ჩხობაძის I შესახვევი,4600,42.2556441,42.6410180
26,ბესარიონ ბელინსკის IV შესახვევი,4600,42.2530284,42.6433879
20,ბესარიონ ბელინსკის II შესახვევი,4600,42.2533393,42.6420842
9,ნიკოლოზ მუსხელიშვილის IV შესახვევი,4600,42.2560020,42.6447649
13,ბესარიონ ბელინსკის ქუჩა,4600,42.2554319,42.6434450
18,ნიკოლოზ მუსხელიშვილის IV შესახვევი,4600,42.2560885,42.6441560
28,პეტრე ჩხობაძის I შესახვევი,4600,42.2566213,42.6431405
26,ნიკოლოზ მუსხელიშვილის IV შესახვევი,4600,42.2554500,42.6442727
8,ბესარიონ ბელინსკის II შესახვევი,4600,42.2541415,42.6419226
63,პეტრე ჩხობაძის ქუჩა,4600,42.2535425,42.6413103
20,ბესარიონ ბელინსკის ქუჩა,4600,42.2549173,42.6438474
10,ბესარიონ ბელინსკის ქუჩა,4600,42.2547891,42.6423258
25,ბესარიონ ბელინსკის ქუჩა,4600,42.2554794,42.6452400
5,ნიკოლოზ მუსხელიშვილის IV შესახვევი,4600,42.2562665,42.6446848
31,პეტრე ჩხობაძის I შესახვევი,4600,42.2573448,42.6433873
28,ბესარიონ ბელინსკის IV შესახვევი,4600,42.2530059,42.6431628
2,ნიკოლოზ მუსხელიშვილის ქუჩა,4600,42.2586269,42.6411044
6,ნიკოლოზ მუსხელიშვილის IV შესახვევი,4600,42.2568736,42.6440235
10,ბესარიონ ბელინსკის IV შესახვევი,4600,42.2540906,42.6432257
69,პეტრე ჩხობაძის ქუჩა,4600,42.2531513,42.6413271
26,პეტრე ჩხობაძის I შესახვევი,4600,42.2565251,42.6429914
13,შოთა ლეჟავას ქუჩა,4600,42.2596487,42.6415322
24,ბესარიონ ბელინსკის II შესახვევი,4600,42.2529670,42.6421579
2,ნიკოლოზ მუსხელიშვილის ქუჩა,4600,42.2576123,42.6406602
12,ბესარიონ ბელინსკის IV შესახვევი,4600,42.2539364,42.6432491
10,ბესარიონ ბელინსკის I შესახვევი,4600,42.2561827,42.6456222
25,პეტრე ჩხობაძის I შესახვევი,4600,42.2570442,42.6429955
2,ბესარიონ ბელინსკის III შესახვევი,4600,42.2556929,42.6466420
51,პეტრე ჩხობაძის ქუჩა,4600,42.2543642,42.6411590
1,ნიკოლოზ მუსხელიშვილის II შესახვევი,4600,42.2574127,42.6424145
16,ნიკოლოზ მუსხელიშვილის II შესახვევი,4600,42.2561380,42.6431022
11,ბესარიონ ბელინსკის IV შესახვევი,4600,42.2540010,42.6437148
32,პეტრე ჩხობაძის I შესახვევი,4600,42.2568257,42.6433980
67,პეტრე ჩხობაძის ქუჩა,4600,42.2532921,42.6413194
18,ნიკოლოზ მუსხელიშვილის ქუჩა,4600,42.2577591,42.6427043
18,ბესარიონ ბელინსკის IV შესახვევი,4600,42.2536545,42.6433002
11,ბესარიონ ბელინსკის III შესახვევი,4600,42.2563550,42.6460376
28,ბესარიონ ბელინსკის II შესახვევი,4600,42.2529079,42.6416438
17,ნიკოლოზ მუსხელიშვილის II შესახვევი,4600,42.2561062,42.6436073
30,ნიკოლოზ მუსხელიშვილის ქუჩა,4600,42.2576828,42.6436464
5,ნიკოლოზ მუსხელიშვილის II ჩიხი,4600,42.2570305,42.6413813
13,ბორის ბუკიას ქუჩა,4600,42.2565006,42.6460052
6,ნიკოლოზ მუსხელიშვილის II შესახვევი,4600,42.2570962,42.6419782
22,ბესარიონ ბელინსკის II შესახვევი,4600,42.2531959,42.6421088
38,პეტრე ჩხობაძის I შესახვევი,4600,42.2572079,42.6439491
4,შოთა ლეჟავას ქუჩა,4600,42.2598958,42.6447369
4,ნიკოლოზ მუსხელიშვილის II ჩიხი,4600,42.2571724,42.6410437
31,ბესარიონ ბელინსკის ქუჩა,4600,42.2555653,42.6466456
26,ნიკოლოზ მუსხელიშვილის ქუჩა,4600,42.2578015,42.6434390
15,ბესარიონ ბელინსკის II შესახვევი,4600,42.2536181,42.6425712
2ა,პეტრე ჩხობაძის I შესახვევი,4600,42.2552636,42.6413593
20,ნიკოლოზ მუსხელიშვილის ქუჩა,4600,42.2577743,42.6428912
11,ნიკოლოზ მუსხელიშვილის II ჩიხი,4600,42.2565762,42.6414462
57,პეტრე ჩხობაძის ქუჩა,4600,42.2539630,42.6412465
11,ავტომშენებლის გამზირი,4600,42.2605613,42.6425400
5,ნიკოლოზ მუსხელიშვილის II შესახვევი,4600,42.2570809,42.6424724
9,ნიკოლოზ მუსხელიშვილის II ჩიხი,4600,42.2567407,42.6414292
7,ბესარიონ ბელინსკის II შესახვევი,4600,42.2541383,42.6424370
19,ბესარიონ ბელინსკის II შესახვევი,4600,42.2533683,42.6425317
14,ნიკოლოზ მუსხელიშვილის ქუჩა,4600,42.2577037,42.6419548
19,პეტრე ჩხობაძის ქუჩა,4600,42.2573039,42.6407954
6,პეტრე ჩხობაძის I შესახვევი,4600,42.2555405,42.6416196
22,ბესარიონ ბელინსკის ქუჩა,4600,42.2549249,42.6440595
31,პეტრე ჩხობაძის ქუჩა,4600,42.2564860,42.6409032
13,პეტრე ჩხობაძის I შესახვევი,4600,42.2563889,42.6420606
65,პეტრე ჩხობაძის ქუჩა,4600,42.2534227,42.6412829
14,ნიკოლოზ მუსხელიშვილის IV შესახვევი,4600,42.2563412,42.6440648
12,ნიკოლოზ მუსხელიშვილის ქუჩა,4600,42.2576960,42.6417792
2,ნიკოლოზ მუსხელიშვილის IV შესახვევი,4600,42.2571486,42.6441167
5,შოთა ლეჟავას ქუჩა,4600,42.2595644,42.6439969
17,ავტომშენებლის გამზირი,4600,42.2602548,42.6396058
18,პეტრე ჩხობაძის I შესახვევი,4600,42.2560882,42.6424000
3,ბესარიონ ბელინსკის I შესახვევი,4600,42.2557596,42.6452075
1,ბესარიონ ბელინსკის III შესახვევი,4600,42.2556605,42.6461379
11,ბესარიონ ბელინსკის II შესახვევი,4600,42.2538646,42.6424679
15,პეტრე ჩხობაძის I შესახვევი,4600,42.2564821,42.6421820
13,შოთა ლეჟავას ქუჩა,4600,42.2600405,42.6414485
10,ავტომშენებლის გამზირი,4600,42.2611772,42.6441858
8,ავტომშენებლის გამზირი,4600,42.2612643,42.6452367
18,ავტომშენებლის გამზირი,4600,42.2608300,42.6404515
16,ავტომშენებლის გამზირი,4600,42.2609120,42.6413356
14,ავტომშენებლის გამზირი,4600,42.2610065,42.6423506
20,ავტომშენებლის გამზირი,4600,42.2607172,42.6395131
17,პარმენ თვალჭრელიძის ქუჩა,4600,42.2623324,42.6392683
4,მერაბ ძოძუაშვილის ქუჩა,4600,42.2608264,42.6342372
27,კოტე მესხის I შესახვევი,4600,42.2574373,42.6378550
19,კოტე მესხის ქუჩა,4600,42.2578090,42.6349132
2,პეტრე ჩხობაძის ქუჩა,4600,42.2585172,42.6398733
32,ავტომშენებლის გამზირი,4600,42.2602961,42.6341032
10,კოტე მესხის I შესახვევი,4600,42.2570825,42.6331750
1,ლევ ტოლსტოის ქუჩა,4600,42.2587410,42.6344721
7,კიევის ქუჩა,4600,42.2609687,42.6353851
2,კოტე მესხის I შესახვევი,4600,42.2571096,42.6342204
3,ცოტნე დადიანის ქუჩა,4600,42.2607204,42.6322531
24,ავტომშენებლის გამზირი,4600,42.2605919,42.6379651
1,მშვიდობის ქუჩა,4600,42.2611444,42.6327181
12,შოთა ლეჟავას ქუჩა,4600,42.2594376,42.6388714
2,პეტრე ჩხობაძის ქუჩა,4600,42.2613229,42.6396092
11,შოთა ლეჟავას ქუჩა,4600,42.2590518,42.6389667
7,პარმენ თვალჭრელიძის ქუჩა,4600,42.2622690,42.6381350
6,პარმენ თვალჭრელიძის ქუჩა,4600,42.2583674,42.6381636
5,ლევ ტოლსტოის ქუჩა,4600,42.2585650,42.6326955
9,კოტე მესხის ქუჩა,4600,42.2579804,42.6372539
2,მშვიდობის ქუჩა,4600,42.2616208,42.6339222
9,პარმენ თვალჭრელიძის ქუჩა,4600,42.2622844,42.6383647
8,კიევის ქუჩა,4600,42.2613283,42.6352990
2,კოტე მესხის ქუჩა,4600,42.2576124,42.6324534
4,შოთა ლეჟავას ქუჩა,4600,42.2584330,42.6390349
31,ავტომშენებლის გამზირი,4600,42.2597265,42.6333932
7,კოტე მესხის ქუჩა,4600,42.2580562,42.6378871
18,კოტე მესხის ქუჩა,4600,42.2580764,42.6345029
22,კოტე მესხის ქუჩა,4600,42.2579528,42.6333395
6,კოტე მესხის I შესახვევი,4600,42.2571018,42.6337195
6,პარმენ თვალჭრელიძის ქუჩა,4600,42.2587598,42.6372984
19,პარმენ თვალჭრელიძის ქუჩა,4600,42.2623632,42.6394850
9,კოტე მესხის I შესახვევი,4600,42.2572765,42.6358232
4,პარმენ თვალჭრელიძის ქუჩა,4600,42.2583787,42.6373346
26,ავტომშენებლის გამზირი,4600,42.2605363,42.6371231
6,ლევ ტოლსტოის ქუჩა,4600,42.2589422,42.6326698
11,კოტე მესხის I შესახვევი,4600,42.2572959,42.6361002
10ა,კოტე მესხის ქუჩა,4600,42.2589792,42.6352572
16,კოტე მესხის I შესახვევი,4600,42.2569853,42.6323096
3,პარმენ თვალჭრელიძის ქუჩა,4600,42.2622229,42.6376670
38,ავტომშენებლის გამზირი,4600,42.2601808,42.6326622
10,კიევის ქუჩა,4600,42.2612810,42.6347905
9ა,კოტე მესხის ქუჩა,4600,42.2585936,42.6353015
13,კოტე მესხის I შესახვევი,4600,42.2572752,42.6363764
4,კოტე მესხის I შესახვევი,4600,42.2570916,42.6339013
10,ცოტნე დადიანის ქუჩა,4600,42.2583605,42.6320942
8,კოტე მესხის ქუჩა,4600,42.2582343,42.6353591
28,ავტომშენებლის გამზირი,4600,42.2604740,42.6360588
12,კოტე მესხის ქუჩა,4600,42.2583524,42.6363252
15,კოტე მესხის I შესახვევი,4600,42.2573082,42.6366110
26,კოტე მესხის I შესახვევი,4600,42.2571899,42.6312817
4A,მერაბ ძოძუაშვილის ქუჩა,4600,42.2608561,42.6334355
16,მერაბ ძოძუაშვილის ქუჩა,4600,42.2583854,42.6345680
14,პეტრე ჩხობაძის ქუჩა,4600,42.2588047,42.6399654
19,კოტე მესხის I შესახვევი,4600,42.2573711,42.6370811
17,კოტე მესხის I შესახვევი,4600,42.2573320,42.6368107
2,შალვა კიკნაძის ქუჩა,4600,42.2620520,42.6391054
14,შოთა ლეჟავას ქუჩა,4600,42.2593629,42.6380175
1,კოტე მესხის I შესახვევი,4600,42.2572332,42.6348388
22,კოტე მესხის I შესახვევი,4600,42.2573018,42.6316850
4,კიევის ქუჩა,4600,42.2614150,42.6364544
22,ავტომშენებლის გამზირი,4600,42.2606715,42.6387503
18,კოტე მესხის I შესახვევი,4600,42.2570630,42.6320223
9,პეტრე ჩხობაძის ქუჩა,4600,42.2590961,42.6398281
3,გრიგოლ ორბელიანის ქუჩა,4600,42.2593753,42.6361895
29,კოტე მესხის I შესახვევი,4600,42.2575699,42.6316179
4,ლევ ტოლსტოის ქუჩა,4600,42.2589827,42.6335089
9,ცოტნე დადიანის ქუჩა,4600,42.2592562,42.6324989
29,ავტომშენებლის გამზირი,4600,42.2597961,42.6341932
3,კოტე მესხის I შესახვევი,4600,42.2572054,42.6350457
6,შალვა კიკნაძის ქუჩა,4600,42.2619712,42.6379901
24,კოტე მესხის ქუჩა,4600,42.2579159,42.6327646
31ა,ავტომშენებლის გამზირი,4600,42.2596701,42.6326312
30,ავტომშენებლის გამზირი,4600,42.2603496,42.6349912
1,კიევის ქუჩა,4600,42.2611131,42.6370597
15,პარმენ თვალჭრელიძის ქუჩა,4600,42.2623306,42.6390804
11,პარმენ თვალჭრელიძის ქუჩა,4600,42.2623083,42.6386434
10,მერაბ ძოძუაშვილის ქუჩა,4600,42.2593556,42.6344254
14,შალვა კიკნაძის ქუჩა,4600,42.2617199,42.6356913
21,პარმენ თვალჭრელიძის ქუჩა,4600,42.2623758,42.6397166
5,გრიგოლ ორბელიანის ქუჩა,4600,42.2593321,42.6352982
3,შალვა კიკნაძის ქუჩა,4600,42.2615615,42.6381353
27,ავტომშენებლის გამზირი,4600,42.2599055,42.6350420
1,პარმენ თვალჭრელიძის ქუჩა,4600,42.2622255,42.6374733
5,კიევის ქუჩა,4600,42.2610219,42.6359585
5,კოტე მესხის I შესახვევი,4600,42.2572115,42.6352996
9,კიევის ქუჩა,4600,42.2609212,42.6348236
6b,შალვა კიკნაძის ქუჩა,4600,42.2618814,42.6375686
7ა,პარმენ თვალჭრელიძის ქუჩა,4600,42.2591510,42.6372427
7,კოტე მესხის I შესახვევი,4600,42.2572469,42.6355443
8,შალვა კიკნაძის ქუჩა,4600,42.2617479,42.6361381
8,კოტე მესხის I შესახვევი,4600,42.2570685,42.6334127
3,ლევ ტოლსტოის ქუჩა,4600,42.2586433,42.6335550
34,ავტომშენებლის გამზირი,4600,42.2602406,42.6333877
13,კოტე მესხის ქუჩა,4600,42.2578577,42.6356520
6,მშვიდობის ქუჩა,4600,42.2614839,42.6324013
21,კოტე მესხის I შესახვევი,4600,42.2573978,42.6372546
12,კოტე მესხის I შესახვევი,4600,42.2570963,42.6329328
2,კიევის ქუჩა,4600,42.2614468,42.6370311
1,შალვა კიკნაძის ქუჩა,4600,42.2616611,42.6390375
1A,მშვიდობის ქუჩა,4600,42.2612385,42.6337178
4,შალვა კიკნაძის ქუჩა,4600,42.2620175,42.6385446
10,შალვა კიკნაძის ქუჩა,4600,42.2617810,42.6365371
8,პეტრე ჩხობაძის ქუჩა,4600,42.2598382,42.6397914
23,კოტე მესხის I შესახვევი,4600,42.2574006,42.6374522
31,კოტე მესხის I შესახვევი,4600,42.2575513,42.6314543
20,კოტე მესხის ქუჩა,4600,42.2580026,42.6339028
6,კიევის ქუჩა,4600,42.2613758,42.6358939
1A,კოტე მესხის ქუჩა,4600,42.2576479,42.6340369
2,ლევ ტოლსტოის ქუჩა,4600,42.2590550,42.6343733
10,პეტრე ჩხობაძის ქუჩა,4600,42.2595032,42.6397682
25,კოტე მესხის I შესახვევი,4600,42.2574488,42.6376230
3,კიევის ქუჩა,4600,42.2610617,42.6365028
13,შოთა ლეჟავას ქუჩა,4600,42.2586837,42.6380298
11,კოტე მესხის ქუჩა,4600,42.2577371,42.6364437
1,აკაკი ხორავას ქუჩა,4600,42.2530851,42.6832256
15-2a,სიმონ გუგუნავას ქუჩა,4600,42.2533749,42.6644149
15-2,სიმონ გუგუნავას ქუჩა,4600,42.2530528,42.6633393
15-5,სიმონ გუგუნავას ქუჩა,4600,42.2527595,42.6638642
15-1,სიმონ გუგუნავას ქუჩა,4600,42.2526607,42.6645635
5,ფელიქს ვარლამიშვილის ქუჩა,4600,42.2734713,42.7042116
4,პეტრე მელიქიშვილის ქუჩა,4600,42.2594825,42.6731715
11,ზვიად გამსახურდიას I შესახვევი,4600,42.2588064,42.6731465
3,ზვიად გამსახურდიას გამზირი,4608,42.2637003,42.6778137
60,აკაკი წერეთლის ქუჩა,4600,42.2642921,42.7053456
87,თამარ მეფის ქუჩა,4600,42.2633031,42.7116070
18ა,კონსტანტინე გამსახურდიას ქუჩა,4600,42.2450696,42.6843236
12ბ,ირაკლი აბაშიძის ქუჩა,4600,42.2638975,42.6728497
22,ნიკეას II შეს,4600,42.2309921,42.6855166
58,გალაკტიონ ტაბიძის ქეჩა,4600,42.2651848,42.6972443
29,აკაკი წერეთლის ქუჩა,4600,42.2670547,42.7044693
27,აკაკი წერეთლის ქუჩა,4600,42.2671915,42.7044605
121,დავით აღმაშენებლის გამზირი,4602,42.2613034,42.6776048
13b2,ჭიჭიკო იოსელიანის ქუჩა,4600,42.2622188,42.6976398
5,ივანე ჯავახიშვილის ქუჩა,4600,42.2671998,42.6821036
12,ჟიულ შარტავას III შესახვევი,4600,42.2620486,42.6735800
59-61,ნოდარ დუმბაძის ქუჩა,4600,42.2625975,42.6944434
1,ზვიად გამსახურდიას გამზირი,4608,42.2638343,42.6781680
5,ზვიად გამსახურდიას გამზირი,4608,42.2635609,42.6774567
65,თავისუფლების ქუჩა,4600,42.2613918,42.6836298
1A,კოტე მესხის ქუჩა,4600,42.2578390,42.6345184
1A,კოტე მესხის ქუჩა,4600,42.2574685,42.6335316
1A,კოტე მესხის ქუჩა,4600,42.2576317,42.6335045
1A,კოტე მესხის ქუჩა,4600,42.2573976,42.6340009
16,კოტე მესხის I შესახვევი,4600,42.2569469,42.6322013
14,კოტე მესხის I შესახვევი,4600,42.2569690,42.6325798
2,კოტე მესხის ქუჩა,4600,42.2573706,42.6327021
2,კოტე მესხის ქუჩა,4600,42.2573392,42.6322603
24,კოტე მესხის I შესახვევი,4600,42.2571997,42.6315021
3,გრიგოლ ორბელიანის ქუჩა,4600,42.2590962,42.6365148
14ა,ბორის ბუკიას ქუჩა,4600,42.2569243,42.6467191
1,ავტომშენებლის გამზირი,4600,42.2607402,42.6472936
15,სიმონ გუგუნავას ქუჩა,4600,42.2537162,42.6638687
15-3,სიმონ გუგუნავას ქუჩა,4600,42.2536609,42.6636000
8,ილია ჭავჭავაძის გამზირი,4600,42.2496626,42.6908597
29,აკაკი წერეთლის ქუჩა,4600,42.2671243,42.7044477
3,ნიკოლოზ მუსხელიშვილის IV შესახვევი,4600,42.2574163,42.6450232
63,დავით აღმაშენებლის გამზირი,4600,42.2612400,42.6904938
51,თამარ მეფის ქუჩა,4600,42.2652312,42.7086789
33,სულხან-საბას გამზირი,4600,42.2386607,42.6674192
27,სულხან-საბას გამზირი,4600,42.2397791,42.6667895
25,სულხან-საბას გამზირი,4600,42.2402703,42.6666086
23,სულხან-საბას გამზირი,4600,42.2408287,42.6659104
18,ალექსანდრე პუშკინის ქუჩა,4600,42.2686975,42.7040118
24,გიორგი ერისთავის ქუჩა,4600,42.2601566,42.7012522
59-61,ნოდარ დუმბაძის ქუჩა,4600,42.2628184,42.6945229
93,სულხან-საბას გამზირი,4600,42.2378279,42.6638474
7 ა,ბორის ბუკიას ქუჩა,4600,42.2580688,42.6477713
