House number,Street name,Postal code,Latitude,Longitude
9503,East 112th Place South,74008,36.0018740,-95.8691958
11610,South Memorial Drive,74008,35.9957760,-95.8870442
20,East Breckenridge Avenue,74008,35.9412994,-95.8828196
10425,South 82nd East Avenue,74133,36.0117691,-95.8847010
77,East Breckenridge Avenue,74008,35.9417954,-95.8821445
211,North Cabaniss Avenue,74008,35.9442010,-95.8842643
8222,East 103rd Street,74133,36.0133503,-95.8851126
12810,South Memorial Drive,74008,35.9781815,-95.8938483
2,West Dawes Avenue,74008,35.9421559,-95.8833085
11009,South Memorial Drive,74133,36.0056312,-95.8853397
8677,East 104th Place,74133,36.0135284,-95.8804328
8681,East 104th Place,74133,36.0135752,-95.8801753
8685,East 104th Place,74133,36.0135147,-95.8798918
8674,East 104th Place,74133,36.0131259,-95.8805383
8669,East 104th Place,74133,36.0135365,-95.8808722
8673,East 104th Place,74133,36.0135371,-95.8806514
8670,East 104th Place,74133,36.0131272,-95.8809634
8657,East 104th Place,74133,36.0135103,-95.8816708
8661,East 104th Place,74133,36.0135628,-95.8813508
8665,East 104th Place,74133,36.0135220,-95.8810916
10472,South 87th East Avenue,74133,36.0134779,-95.8794743
8747,East 104th Place,74133,36.0127981,-95.8760442
8743,East 104th Place,74133,36.0129915,-95.8762306
8739,East 104th Place,74133,36.0131609,-95.8764235
8735,East 104th Place,74133,36.0133107,-95.8766135
8731,East 104th Place,74133,36.0133416,-95.8768501
8727,East 104th Place,74133,36.0133722,-95.8770951
8723,East 104th Place,74133,36.0134354,-95.8772983
8719,East 104th Place,74133,36.0133781,-95.8775827
8715,East 104th Place,74133,36.0134020,-95.8778739
8711,East 104th Place,74133,36.0134150,-95.8781025
8707,East 104th Place,74133,36.0135081,-95.8783804
10464,South 87th East Avenue,74133,36.0135279,-95.8788894
10468,South 87th East Avenue,74133,36.0135602,-95.8791967
8608,East 104th Street,74133,36.0138944,-95.8808211
8612,East 104th Street,74133,36.0138952,-95.8805810
8616,East 104th Street,74133,36.0138959,-95.8803409
8620,East 104th Street,74133,36.0138967,-95.8801009
8602,East 104th Street,74133,36.0138494,-95.8813340
8596,East 104th Street,74133,36.0138681,-95.8816630
8604,East 104th Street,74133,36.0138928,-95.8810680
8656,East 104th Street,74133,36.0138974,-95.8798608
8660,East 104th Street,74133,36.0138985,-95.8796207
8664,East 104th Street,74133,36.0138989,-95.8793807
8712,East 104th Street,74133,36.0138498,-95.8778048
8668,East 104th Street,74133,36.0138997,-95.8791406
8708,East 104th Street,74133,36.0138892,-95.8781437
8672,East 104th Street,74133,36.0138985,-95.8788784
8704,East 104th Street,74133,36.0138999,-95.8784188
8592,East 104th Street,74133,36.0140926,-95.8817294
8716,East 104th Street,74133,36.0140076,-95.8776525
8603,East 104th Street,74133,36.0143966,-95.8810931
8607,East 104th Street,74133,36.0143958,-95.8808342
8611,East 104th Street,74133,36.0143965,-95.8805992
8615,East 104th Street,74133,36.0143972,-95.8803642
8619,East 104th Street,74133,36.0143979,-95.8801292
8655,East 104th Street,74133,36.0143987,-95.8798942
8659,East 104th Street,74133,36.0143994,-95.8796592
8663,East 104th Street,74133,36.0144001,-95.8794233
8667,East 104th Street,74133,36.0144008,-95.8791866
8671,East 104th Street,74133,36.0143980,-95.8789101
8703,East 104th Street,74133,36.0144095,-95.8784192
8707,East 104th Street,74133,36.0144215,-95.8781291
8715,East 104th Street,74133,36.0142572,-95.8776567
8711,East 104th Street,74133,36.0144610,-95.8777961
8516,East 101st Street,74133,36.0165784,-95.8817947
8516,East 101st Street,74133,36.0166023,-95.8811644
9122,East 101st Place,74133,36.0166280,-95.8749566
9132,East 101st Place,74133,36.0164931,-95.8747439
9121,East 101st Place,74133,36.0168903,-95.8749346
9131,East 101st Place,74133,36.0170425,-95.8747440
9142,East 101st Place,74133,36.0164923,-95.8744961
9152,East 101st Place,74133,36.0164992,-95.8742480
9141,East 101st Place,74133,36.0170438,-95.8744931
9151,East 101st Place,74133,36.0170330,-95.8742638
10388,South 92nd East Avenue,74133,36.0121924,-95.8749562
10398,South 92nd East Avenue,74133,36.0120006,-95.8743474
11089,South Memorial Drive,74133,36.0032300,-95.8854965
10990,South 93rd East Avenue,74133,36.0033341,-95.8749198
10914,South 88th East Avenue,74133,36.0056734,-95.8796919
10920,South 88th East Avenue,74133,36.0054453,-95.8797183
10926,South 88th East Avenue,74133,36.0052193,-95.8797182
10917,South 87th East Avenue,74133,36.0053024,-95.8801411
10913,South 87th East Avenue,74133,36.0054947,-95.8801416
10935,South 91st East Avenue,74133,36.0056350,-95.8760324
10940,South 91st East Avenue,74133,36.0053267,-95.8765075
11044,South 91st East Avenue,74133,36.0047776,-95.8765923
8812,East 109th Place,74133,36.0057802,-95.8782378
10907,South 86th East Avenue,74133,36.0058384,-95.8811546
10898,South 91st East Avenue,74133,36.0079796,-95.8771825
9464,East 106th Place,74133,36.0097715,-95.8717633
10902,South 88th East Avenue,74133,36.0063463,-95.8795900
10906,South 88th East Avenue,74133,36.0061222,-95.8795895
10901,South 87th East Avenue,74133,36.0061359,-95.8801049
8776,East 105th Court,74133,36.0102867,-95.8786663
10620,South 91st East Avenue,74133,36.0087377,-95.8761543
10621,South 91st East Avenue,74133,36.0086664,-95.8755946
10823,South 91st East Avenue,74133,36.0061732,-95.8764213
10922,South 91st East Avenue,74133,36.0061942,-95.8772230
10934,South 91st East Avenue,74133,36.0057029,-95.8766738
10513,South 86th East Place,74133,36.0110933,-95.8799142
10517,South 86th East Place,74133,36.0109032,-95.8799061
10521,South 86th East Place,74133,36.0107181,-95.8799213
10528,South 87th East Avenue,74133,36.0107196,-95.8794764
10524,South 87th East Avenue,74133,36.0109104,-95.8794714
10520,South 87th East Avenue,74133,36.0111013,-95.8794705
10514,South 86th East Place,74133,36.0112888,-95.8805248
10518,South 86th East Place,74133,36.0111065,-95.8805048
10522,South 86th East Place,74133,36.0109264,-95.8804935
8687,East 105th Court,74133,36.0107277,-95.8805492
10509,South 86th East Place,74133,36.0112804,-95.8799352
8697,East 105th Court,74133,36.0103674,-95.8798839
8696,East 105th Court,74133,36.0102402,-95.8801637
8692,East 105th Court,74133,36.0103073,-95.8804645
8688,East 105th Court,74133,36.0102918,-95.8807049
10516,South 87th East Avenue,74133,36.0112923,-95.8794696
10505,South 86th East Place,74133,36.0114675,-95.8799506
10473,South 86th East Place,74133,36.0124926,-95.8799368
10470,South 86th East Place,74133,36.0123829,-95.8805351
10474,South 86th East Place,74133,36.0122006,-95.8805462
10478,South 86th East Place,74133,36.0120181,-95.8805521
10502,South 86th East Place,74133,36.0118357,-95.8805532
10506,South 86th East Place,74133,36.0116535,-95.8805488
10501,South 86th East Place,74133,36.0116835,-95.8799588
10477,South 86th East Place,74133,36.0123085,-95.8799516
10481,South 86th East Place,74133,36.0121007,-95.8799588
10492,South 87th East Avenue,74133,36.0123608,-95.8794645
10496,South 87th East Avenue,74133,36.0121282,-95.8794862
10508,South 87th East Avenue,74133,36.0116873,-95.8794881
10488,South 87th East Avenue,74133,36.0125614,-95.8794635
10457,South 86th East Place,74133,36.0132501,-95.8798712
10458,South 86th East Place,74133,36.0129272,-95.8804842
10462,South 86th East Place,74133,36.0127473,-95.8804971
10461,South 86th East Place,74133,36.0130489,-95.8799078
10465,South 86th East Place,74133,36.0128618,-95.8798960
10469,South 86th East Place,74133,36.0126765,-95.8799165
10476,South 87th East Avenue,74133,36.0131831,-95.8794714
10480,South 87th East Avenue,74133,36.0129648,-95.8794372
10484,South 87th East Avenue,74133,36.0127624,-95.8794609
10174,South Mingo Road East,74133,36.0160395,-95.8691190
9550,East 101st Street,74133,36.0168364,-95.8699468
10201,South 92nd East Avenue,74133,36.0159868,-95.8736885
10456,South 86th East Avenue,74133,36.0124835,-95.8815113
8676,East 105th Court,74133,36.0102509,-95.8813746
8600,East 106th Street,74133,36.0089905,-95.8794173
10452,South 86th East Avenue,74133,36.0126597,-95.8816436
8684,East 105th Court,74133,36.0102973,-95.8809251
8511,East 106th Street,74133,36.0099171,-95.8813259
10479,South 86th East Avenue,74133,36.0114725,-95.8809777
10455,South 86th East Avenue,74133,36.0125666,-95.8809881
8605,East 106th Street,74133,36.0099182,-95.8807822
10302,South 86th East Avenue,74133,36.0148925,-95.8816020
10252,South 86th East Avenue,74133,36.0152640,-95.8815665
10440,South 86th East Avenue,74133,36.0132048,-95.8816224
10314,South 86th East Avenue,74133,36.0143101,-95.8816654
10310,South 86th East Avenue,74133,36.0145036,-95.8816590
10306,South 86th East Avenue,74133,36.0146785,-95.8815929
10256,South 86th East Avenue,74133,36.0150891,-95.8815574
10248,South 86th East Avenue,74133,36.0154650,-95.8816131
10244,South 86th East Avenue,74133,36.0156863,-95.8816553
10241,South 86th East Avenue,74133,36.0158833,-95.8814289
8516,East 101st Street,74133,36.0166004,-95.8813644
10492,South 86th East Avenue,74133,36.0108784,-95.8816150
8672,East 105th Court,74133,36.0104514,-95.8815946
10488,South 86th East Avenue,74133,36.0110570,-95.8816290
10480,South 86th East Avenue,74133,36.0114158,-95.8815236
10472,South 86th East Avenue,74133,36.0117680,-95.8815477
10448,South 86th East Avenue,74133,36.0128385,-95.8816630
8677,East 105th Court,74133,36.0107290,-95.8809746
10463,South 86th East Avenue,74133,36.0122019,-95.8809640
10459,South 86th East Avenue,74133,36.0123843,-95.8809735
10451,South 86th East Avenue,74133,36.0127489,-95.8810081
10447,South 86th East Avenue,74133,36.0129289,-95.8810192
10496,South 86th East Avenue,74133,36.0106820,-95.8816363
10464,South 86th East Avenue,74133,36.0121355,-95.8814899
10444,South 86th East Avenue,74133,36.0130148,-95.8815734
10484,South 86th East Avenue,74133,36.0112333,-95.8816494
10475,South 86th East Avenue,74133,36.0116548,-95.8809666
10467,South 86th East Avenue,74133,36.0120194,-95.8809599
10476,South 86th East Avenue,74133,36.0115919,-95.8815184
10468,South 86th East Avenue,74133,36.0119442,-95.8814747
10460,South 86th East Avenue,74133,36.0122987,-95.8814833
8509,East 106th Street,74133,36.0099295,-95.8816003
8680,East 105th Court,74133,36.0103061,-95.8811418
10491,South 86th East Avenue,74133,36.0109281,-95.8810286
10487,South 86th East Avenue,74133,36.0111081,-95.8810156
10483,South 86th East Avenue,74133,36.0112903,-95.8809940
10471,South 86th East Avenue,74133,36.0118370,-95.8809605
8502,East 109th Street,74133,36.0066198,-95.8817942
10713,South 85th East Avenue,74133,36.0070450,-95.8818907
8501,East 109th Street,74133,36.0070656,-95.8814872
10711,South 85th East Avenue,74133,36.0072519,-95.8817600
10709,South 85th East Avenue,74133,36.0074442,-95.8816192
10707,South 85th East Avenue,74133,36.0076353,-95.8814808
8327,East 107th Place,74133,36.0081346,-95.8817229
8410,East 107th Street,74133,36.0085228,-95.8818033
8411,East 107th Street,74133,36.0088896,-95.8814610
8409,East 107th Street,74133,36.0089955,-95.8816943
11056,South 91st East Avenue,74133,36.0040619,-95.8773178
11009,South 89th East Avenue,74133,36.0040008,-95.8777140
8813,East 109th Place,74133,36.0062895,-95.8782883
8712,East 109th Street,74133,36.0066296,-95.8782117
10705,South 89th East Avenue,74133,36.0079868,-95.8776809
10713,South 89th East Avenue,74133,36.0071196,-95.8776785
10703,South 89th East Avenue,74133,36.0082133,-95.8776799
10117,South 88th East Avenue,74133,36.0164828,-95.8776494
9621,East 102nd Place,74133,36.0154111,-95.8694763
10910,South 93rd East Avenue,74133,36.0047967,-95.8746947
10894,South 93rd East Avenue,74133,36.0050428,-95.8744107
10741,South 93rd East Avenue,74133,36.0082472,-95.8731763
10869,South 95th East Avenue,74133,36.0056590,-95.8706568
9010,East 101st Street,74133,36.0145793,-95.8772757
9450,East 105th Place,74133,36.0115824,-95.8720125
9466,East 105th Place,74133,36.0114962,-95.8717644
10764,South 93rd East Avenue,74133,36.0078091,-95.8740058
9568,East 107th Place,74133,36.0078010,-95.8704925
9546,East 107th Place,74133,36.0078022,-95.8707726
9524,East 107th Place,74133,36.0078017,-95.8710499
9502,East 107th Place,74133,36.0078012,-95.8713271
9474,East 107th Place,74133,36.0078007,-95.8716043
9458,East 107th Place,74133,36.0078002,-95.8718816
9432,East 107th Place,74133,36.0077997,-95.8721588
9410,East 107th Place,74133,36.0077993,-95.8724361
9378,East 107th Place,74133,36.0077988,-95.8727133
9346,East 107th Place,74133,36.0077880,-95.8730049
10753,South 93rd East Avenue,74133,36.0078843,-95.8733384
10765,South 93rd East Avenue,74133,36.0076548,-95.8734195
9351,East 107th Place,74133,36.0082564,-95.8727635
9409,East 107th Place,74133,36.0082646,-95.8724822
9431,East 107th Place,74133,36.0082651,-95.8721995
9457,East 107th Place,74133,36.0082655,-95.8719169
9475,East 107th Place,74133,36.0082660,-95.8716342
9503,East 107th Place,74133,36.0082664,-95.8713515
9525,East 107th Place,74133,36.0082668,-95.8710689
9547,East 107th Place,74133,36.0082673,-95.8707862
9569,East 107th Place,74133,36.0082697,-95.8704979
10713,South 95th East Court,74133,36.0089826,-95.8705876
10723,South 95th East Court,74133,36.0087132,-95.8705282
10733,South 95th East Court,74133,36.0085684,-95.8707360
10732,South 95th East Court,74133,36.0085677,-95.8711657
10722,South 95th East Court,74133,36.0087139,-95.8713778
10712,South 95th East Court,74133,36.0089842,-95.8713198
10711,South 94th East Court,74133,36.0089835,-95.8718039
10721,South 94th East Court,74133,36.0087135,-95.8717457
10731,South 94th East Court,74133,36.0086334,-95.8720175
10730,South 94th East Court,74133,36.0086224,-95.8723778
10720,South 94th East Court,74133,36.0087866,-95.8725885
10710,South 94th East Court,74133,36.0090099,-95.8725415
10705,South 93rd East Avenue,74133,36.0090578,-95.8730219
10717,South 93rd East Avenue,74133,36.0087722,-95.8730316
10729,South 93rd East Avenue,74133,36.0085094,-95.8730921
10715,South 96th East Avenue,74133,36.0089755,-95.8699666
10723,South 96th East Avenue,74133,36.0087253,-95.8699683
10731,South 96th East Avenue,74133,36.0084739,-95.8699677
10739,South 96th East Avenue,74133,36.0082239,-95.8699649
10746,South 96th East Place,74133,36.0082245,-95.8695468
10736,South 96th East Place,74133,36.0084746,-95.8695451
10726,South 96th East Place,74133,36.0087259,-95.8695457
9646,East 107th Street,74133,36.0089761,-95.8695485
9610,East 107th Place,74133,36.0078012,-95.8700295
9626,East 107th Place,74133,36.0078040,-95.8697515
9648,East 107th Place,74133,36.0078019,-95.8694829
9670,East 107th Place,74133,36.0077584,-95.8691951
10757,South 96th East Place,74133,36.0078319,-95.8689058
10749,South 96th East Place,74133,36.0081076,-95.8689090
10741,South 96th East Place,74133,36.0083211,-95.8689409
10733,South 96th East Place,74133,36.0085464,-95.8689406
10725,South 96th East Place,74133,36.0087716,-95.8689403
10717,South 96th East Place,74133,36.0089956,-95.8689371
10709,South 96th East Place,74133,36.0092262,-95.8688784
10701,South 96th East Place,74133,36.0094504,-95.8689492
9669,East 107th Street,74133,36.0094594,-95.8692891
9647,East 107th Street,74133,36.0094279,-95.8695643
9625,East 107th Street,74133,36.0094280,-95.8698281
9609,East 107th Street,74133,36.0094282,-95.8700918
9589,East 107th Street,74133,36.0094284,-95.8703788
9567,East 107th Street,74133,36.0094286,-95.8706768
9545,East 107th Street,74133,36.0094288,-95.8709625
9523,East 107th Street,74133,36.0094290,-95.8712482
9501,East 107th Street,74133,36.0094292,-95.8715380
9473,East 107th Street,74133,36.0094288,-95.8718237
9449,East 107th Street,74133,36.0094283,-95.8721010
9407,East 107th Street,74133,36.0094419,-95.8723832
9349,East 107th Street,74133,36.0095198,-95.8726493
10673,South 93rd East Avenue,74133,36.0094946,-95.8730291
10655,South 93rd East Avenue,74133,36.0097273,-95.8729589
9410,East 106th Place,74133,36.0099588,-95.8727637
9428,East 106th Place,74133,36.0098447,-95.8723837
9444,East 106th Place,74133,36.0098163,-95.8720641
9482,East 106th Place,74133,36.0098678,-95.8715026
9483,East 106th Place,74133,36.0100670,-95.8713916
9469,East 106th Place,74133,36.0103662,-95.8714457
9455,East 106th Place,74133,36.0103935,-95.8717469
9441,East 106th Place,74133,36.0103514,-95.8720331
9427,East 106th Place,74133,36.0103415,-95.8722740
9413,East 106th Place,74133,36.0104064,-95.8725329
9424,East 106th Street,74133,36.0107256,-95.8724452
9446,East 106th Street,74133,36.0107201,-95.8721048
9468,East 106th Street,74133,36.0106816,-95.8717647
9492,East 106th Street,74133,36.0107321,-95.8714323
9475,East 106th Street,74133,36.0111561,-95.8714519
9455,East 106th Street,74133,36.0112293,-95.8718868
9435,East 106th Street,74133,36.0112310,-95.8721906
9415,East 106th Street,74133,36.0112559,-95.8725012
9418,East 105th Place,74133,36.0116835,-95.8725042
9434,East 105th Place,74133,36.0116288,-95.8722499
9482,East 105th Place,74133,36.0114702,-95.8714617
9498,East 105th Place,74133,36.0116393,-95.8713152
9497,East 105th Place,74133,36.0119008,-95.8712615
9477,East 105th Place,74133,36.0120239,-95.8715458
9457,East 105th Place,74133,36.0120540,-95.8718235
9437,East 105th Place,74133,36.0121141,-95.8720556
9417,East 105th Place,74133,36.0121828,-95.8723097
9432,East 105th Street,74133,36.0125059,-95.8721815
9460,East 105th Street,74133,36.0124409,-95.8719258
9472,East 105th Street,74133,36.0123799,-95.8716938
9502,East 105th Street,74133,36.0122737,-95.8714479
10497,South 95th East Place,74133,36.0122460,-95.8711127
10487,South 95th East Place,74133,36.0125235,-95.8710081
10477,South 95th East Place,74133,36.0127426,-95.8709372
9487,East 105th Street,74133,36.0128284,-95.8714624
9459,East 105th Street,74133,36.0129031,-95.8717621
9431,East 105th Street,74133,36.0129911,-95.8720573
9403,East 105th Street,74133,36.0131363,-95.8724526
10502,South 93rd East Avenue,74133,36.0130069,-95.8727066
10514,South 93rd East Avenue,74133,36.0126653,-95.8726940
10526,South 93rd East Avenue,74133,36.0123974,-95.8727795
10538,South 93rd East Avenue,74133,36.0121366,-95.8729124
10550,South 93rd East Avenue,74133,36.0118766,-95.8730902
10562,South 93rd East Avenue,74133,36.0116048,-95.8731007
10574,South 93rd East Avenue,74133,36.0113472,-95.8730501
10586,South 93rd East Avenue,74133,36.0110714,-95.8730250
10604,South 93rd East Avenue,74133,36.0107784,-95.8730023
10620,South 93rd East Avenue,74133,36.0104627,-95.8730602
10636,South 93rd East Avenue,74133,36.0101889,-95.8732849
10652,South 93rd East Avenue,74133,36.0099696,-95.8735038
10668,South 93rd East Avenue,74133,36.0097221,-95.8735984
10684,South 93rd East Avenue,74133,36.0094409,-95.8737124
10704,South 93rd East Avenue,74133,36.0091521,-95.8736870
10716,South 93rd East Avenue,74133,36.0088966,-95.8736380
10728,South 93rd East Avenue,74133,36.0086362,-95.8737818
10740,South 93rd East Avenue,74133,36.0083602,-95.8738549
10752,South 93rd East Avenue,74133,36.0081325,-95.8739820
9687,East 108th Street,74133,36.0074650,-95.8688695
9649,East 108th Street,74133,36.0074616,-95.8694525
9627,East 108th Street,74133,36.0074611,-95.8697456
9567,East 108th Street,74133,36.0074616,-95.8704939
9545,East 108th Street,74133,36.0074591,-95.8707796
9523,East 108th Street,74133,36.0074585,-95.8710670
9501,East 108th Street,74133,36.0074580,-95.8713544
9473,East 108th Street,74133,36.0074574,-95.8716417
9457,East 108th Street,74133,36.0074568,-95.8719291
9431,East 108th Street,74133,36.0074562,-95.8722164
9409,East 108th Street,74133,36.0074557,-95.8725038
9377,East 108th Street,74133,36.0074551,-95.8727911
9506,East 104th Place,74133,36.0131378,-95.8715016
9404,East 104th Place,74133,36.0133205,-95.8722120
9671,East 108th Street,74133,36.0074621,-95.8691594
9611,East 108th Street,74133,36.0074625,-95.8700342
9503,East 108th Place,74133,36.0066372,-95.8711947
9525,East 108th Place,74133,36.0066358,-95.8708959
9547,East 108th Place,74133,36.0066364,-95.8705934
9569,East 108th Place,74133,36.0066273,-95.8702867
9609,East 108th Place,74133,36.0066170,-95.8699991
9625,East 108th Place,74133,36.0066174,-95.8697219
9647,East 108th Place,74133,36.0066556,-95.8694374
9686,East 108th Street,74133,36.0069810,-95.8688794
9670,East 108th Street,74133,36.0069823,-95.8691686
9648,East 108th Street,74133,36.0069818,-95.8694460
9626,East 108th Street,74133,36.0069813,-95.8697233
9610,East 108th Street,74133,36.0069808,-95.8700006
9570,East 108th Street,74133,36.0069803,-95.8702913
9548,East 108th Street,74133,36.0069797,-95.8705948
9526,East 108th Street,74133,36.0069791,-95.8708973
9504,East 108th Street,74133,36.0069766,-95.8711961
9345,East 108th Street,74133,36.0074500,-95.8730855
10781,South 93rd East Avenue,74133,36.0074230,-95.8734516
9347,East 108th Place,74133,36.0066293,-95.8731807
9379,East 108th Place,74133,36.0066320,-95.8728586
9411,East 108th Place,74133,36.0066326,-95.8725615
9433,East 108th Place,74133,36.0066332,-95.8722644
9459,East 108th Place,74133,36.0066338,-95.8719671
9475,East 108th Place,74133,36.0066362,-95.8716680
9474,East 108th Street,74133,36.0069757,-95.8716696
9458,East 108th Street,74133,36.0069770,-95.8719687
9432,East 108th Street,74133,36.0069764,-95.8722661
9410,East 108th Street,74133,36.0069759,-95.8725634
9378,East 108th Street,74133,36.0069753,-95.8728605
9346,East 108th Street,74133,36.0069702,-95.8731591
9314,East 108th Street,74133,36.0070525,-95.8735062
10817,South 93rd East Avenue,74133,36.0068331,-95.8735401
10823,South 93rd East Avenue,74133,36.0066132,-95.8735695
10849,South 95th East Avenue,74133,36.0062164,-95.8706252
10859,South 95th East Avenue,74133,36.0060073,-95.8706087
10878,South 95th East Avenue,74133,36.0055834,-95.8711085
10868,South 95th East Avenue,74133,36.0057367,-95.8712907
10858,South 95th East Avenue,74133,36.0060063,-95.8712455
10848,South 95th East Avenue,74133,36.0062152,-95.8712299
10845,South 94th East Place,74133,36.0062144,-95.8716470
10855,South 94th East Place,74133,36.0060056,-95.8716298
10865,South 94th East Place,74133,36.0057361,-95.8715829
10875,South 94th East Place,74133,36.0055823,-95.8717641
10876,South 94th East Place,74133,36.0055816,-95.8721216
10866,South 94th East Place,74133,36.0057348,-95.8723038
10856,South 94th East Place,74133,36.0060044,-95.8722588
10846,South 94th East Place,74133,36.0062132,-95.8722433
10841,South 94th East Avenue,74133,36.0062124,-95.8726601
10851,South 94th East Avenue,74133,36.0060036,-95.8726428
10861,South 94th East Avenue,74133,36.0057342,-95.8725959
10871,South 94th East Avenue,74133,36.0055803,-95.8727769
10872,South 94th East Avenue,74133,36.0055835,-95.8731252
10862,South 94th East Avenue,74133,36.0057479,-95.8733530
10852,South 94th East Avenue,74133,36.0059992,-95.8733120
10842,South 94th East Avenue,74133,36.0062125,-95.8732716
10843,South 93rd East Avenue,74133,36.0062404,-95.8736898
10853,South 93rd East Avenue,74133,36.0060096,-95.8737756
10865,South 93rd East Avenue,74133,36.0057477,-95.8738343
10879,South 93rd East Avenue,74133,36.0054761,-95.8736346
10915,South 93rd East Avenue,74133,36.0045630,-95.8740876
10937,South 93rd East Avenue,74133,36.0042534,-95.8740742
10955,South 93rd East Avenue,74133,36.0039791,-95.8740817
10973,South 93rd East Avenue,74133,36.0037061,-95.8740872
10976,South 93rd East Place,74133,36.0036990,-95.8736702
10960,South 93rd East Place,74133,36.0039721,-95.8736606
10944,South 93rd East Place,74133,36.0042401,-95.8736674
10928,South 93rd East Place,74133,36.0045007,-95.8735490
10891,South 93rd East Avenue,74133,36.0047797,-95.8737894
10780,South 93rd East Avenue,74133,36.0074962,-95.8740664
10804,South 93rd East Avenue,74133,36.0072408,-95.8741462
10814,South 93rd East Avenue,74133,36.0069788,-95.8741997
10824,South 93rd East Avenue,74133,36.0067119,-95.8741804
10834,South 93rd East Avenue,74133,36.0064369,-95.8742229
10844,South 93rd East Avenue,74133,36.0061775,-95.8743336
10854,South 93rd East Avenue,74133,36.0059202,-95.8744475
10864,South 93rd East Avenue,74133,36.0056420,-95.8745325
10874,South 93rd East Avenue,74133,36.0054168,-95.8743666
10884,South 93rd East Avenue,74133,36.0051953,-95.8741053
10926,South 93rd East Avenue,74133,36.0044690,-95.8747020
10942,South 93rd East Avenue,74133,36.0041982,-95.8746893
10958,South 93rd East Avenue,74133,36.0039239,-95.8747146
10974,South 93rd East Avenue,74133,36.0036643,-95.8747714
9302,East 110th Street,74133,36.0031416,-95.8746643
9312,East 110th Street,74133,36.0031971,-95.8742186
9322,East 110th Street,74133,36.0032038,-95.8738995
9332,East 110th Street,74133,36.0031938,-95.8735809
9342,East 110th Street,74133,36.0031377,-95.8732149
10989,South 93rd East Place,74133,36.0033075,-95.8730059
10977,South 93rd East Place,74133,36.0036035,-95.8730549
10961,South 93rd East Place,74133,36.0038322,-95.8730661
10957,South 93rd East Place,74133,36.0040905,-95.8731067
9408,East 109th Place,74133,36.0040832,-95.8725068
9403,East 109th Place,74133,36.0044075,-95.8728542
9415,East 109th Place,74133,36.0045228,-95.8726532
9429,East 109th Place,74133,36.0045494,-95.8723876
9443,East 109th Place,74133,36.0045382,-95.8721440
9459,East 109th Place,74133,36.0045384,-95.8719177
9475,East 109th Place,74133,36.0045386,-95.8716915
9487,East 109th Place,74133,36.0045412,-95.8714619
9480,East 109th Street,74133,36.0048655,-95.8714627
9472,East 109th Street,74133,36.0048678,-95.8716805
9462,East 109th Street,74133,36.0048676,-95.8718830
9456,East 109th Street,74133,36.0048673,-95.8720856
9448,East 109th Street,74133,36.0048670,-95.8722882
9440,East 109th Street,74133,36.0048666,-95.8724907
9428,East 109th Street,74133,36.0048735,-95.8727012
9414,East 109th Street,74133,36.0048597,-95.8729398
9402,East 109th Street,74133,36.0047334,-95.8731269
9422,East 109th Place,74133,36.0041100,-95.8722427
9436,East 109th Place,74133,36.0041102,-95.8720397
9450,East 109th Place,74133,36.0041105,-95.8718369
9464,East 109th Place,74133,36.0041108,-95.8716342
9476,East 109th Place,74133,36.0041026,-95.8714351
9492,East 109th Place,74133,36.0040554,-95.8711418
10943,South 95th East Avenue,74133,36.0042061,-95.8709527
10931,South 95th East Avenue,74133,36.0044436,-95.8710089
10919,South 95th East Avenue,74133,36.0046128,-95.8710210
9506,East 109th Street,74133,36.0048657,-95.8711210
9522,East 109th Street,74133,36.0048682,-95.8709023
9538,East 109th Street,74133,36.0048484,-95.8706994
9554,East 109th Street,74133,36.0048324,-95.8705015
9570,East 109th Street,74133,36.0047881,-95.8702205
9586,East 109th Street,74133,36.0049219,-95.8700184
9587,East 109th Street,74133,36.0052252,-95.8700205
9571,East 109th Street,74133,36.0053364,-95.8702452
9555,East 109th Street,74133,36.0052943,-95.8705228
9539,East 109th Street,74133,36.0052809,-95.8707273
9523,East 109th Street,74133,36.0052806,-95.8709335
9507,East 109th Street,74133,36.0052803,-95.8711395
9481,East 109th Street,74133,36.0052800,-95.8713489
9473,East 109th Street,74133,36.0052797,-95.8715582
9457,East 109th Street,74133,36.0052790,-95.8719769
9465,East 109th Street,74133,36.0052794,-95.8717676
9449,East 109th Street,74133,36.0052786,-95.8721862
9441,East 109th Street,74133,36.0052783,-95.8723955
9433,East 109th Street,74133,36.0052778,-95.8726047
9425,East 109th Street,74133,36.0052774,-95.8728140
9417,East 109th Street,74133,36.0052880,-95.8730296
9409,East 109th Street,74133,36.0052756,-95.8732753
9401,East 109th Street,74133,36.0051655,-95.8734876
9303,East 111th Street South,74008,36.0034946,-95.8717712
10510,South 83rd Circle East,74133,36.0099034,-95.8847137
10511,South 84th Circle East,74133,36.0099664,-95.8834720
8507,East 106th Street,74133,36.0099060,-95.8819062
10807,South 91st East Avenue,74133,36.0072816,-95.8766174
10911,South 91st East Court,74133,36.0073212,-95.8760989
9476,East 103rd Place,74133,36.0136289,-95.8712848
9460,East 103rd Place,74133,36.0137553,-95.8714404
9444,East 103rd Place,74133,36.0138512,-95.8716114
10351,South 94th East Avenue,74133,36.0139514,-95.8718167
10375,South 94th East Avenue,74133,36.0137967,-95.8719386
9405,East 104th Place,74133,36.0136138,-95.8720652
9433,East 104th Place,74133,36.0135572,-95.8718429
9461,East 104th Place,74133,36.0135063,-95.8716481
9501,East 104th Place,74133,36.0134595,-95.8714692
9529,East 104th Place,74133,36.0134006,-95.8712342
9534,East 104th Place,74133,36.0130847,-95.8713119
9478,East 104th Place,74133,36.0131872,-95.8716905
9432,East 104th Place,74133,36.0132665,-95.8719938
10410,South 94th East Avenue,74133,36.0134109,-95.8726092
10396,South 94th East Avenue,74133,36.0135989,-95.8725298
10378,South 94th East Avenue,74133,36.0138230,-95.8723875
10364,South 94th East Avenue,74133,36.0139509,-95.8722768
10350,South 94th East Avenue,74133,36.0140946,-95.8722007
9391,East 103rd Place,74133,36.0142887,-95.8719598
9417,East 103rd Place,74133,36.0142533,-95.8718157
9433,East 103rd Place,74133,36.0142106,-95.8716210
9449,East 103rd Place,74133,36.0141302,-95.8714231
9465,East 103rd Place,74133,36.0140287,-95.8712396
10332,South 95th East Avenue,74133,36.0142368,-95.8710979
10324,South 95th East Avenue,74133,36.0143603,-95.8710301
10316,South 95th East Avenue,74133,36.0145157,-95.8709763
10272,South 95th East Avenue,74133,36.0147588,-95.8708879
10264,South 95th East Avenue,74133,36.0149169,-95.8709249
10256,South 95th East Avenue,74133,36.0150844,-95.8709895
10248,South 95th East Avenue,74133,36.0152278,-95.8710231
10240,South 95th East Avenue,74133,36.0154104,-95.8710719
10243,South 95th East Avenue,74133,36.0154405,-95.8706669
10251,South 95th East Avenue,74133,36.0152504,-95.8705996
10259,South 95th East Avenue,74133,36.0151027,-95.8705526
10267,South 95th East Avenue,74133,36.0149411,-95.8705020
10275,South 95th East Avenue,74133,36.0147682,-95.8704420
10311,South 95th East Avenue,74133,36.0144892,-95.8705365
10319,South 95th East Avenue,74133,36.0143316,-95.8706305
10327,South 95th East Avenue,74133,36.0141792,-95.8707126
10335,South 95th East Avenue,74133,36.0140263,-95.8707626
10343,South 95th East Avenue,74133,36.0139045,-95.8708402
9610,East 102nd Place,74133,36.0150097,-95.8697357
9622,East 102nd Place,74133,36.0150042,-95.8694993
9634,East 102nd Place,74133,36.0150023,-95.8692896
9649,East 103rd Street,74133,36.0146811,-95.8692909
9633,East 103rd Street,74133,36.0146785,-95.8695007
9617,East 103rd Street,74133,36.0146828,-95.8697045
9630,East 103rd Street,74133,36.0142737,-95.8695549
9610,East 103rd Street,74133,36.0142727,-95.8697603
9590,East 103rd Street,74133,36.0142817,-95.8699609
9570,East 103rd Street,74133,36.0143023,-95.8701698
9550,East 103rd Street,74133,36.0141907,-95.8704015
10286,South 96th East Avenue,74133,36.0146921,-95.8700830
10274,South 96th East Avenue,74133,36.0148843,-95.8701365
10262,South 96th East Avenue,74133,36.0150767,-95.8701977
10250,South 96th East Avenue,74133,36.0152702,-95.8702560
10238,South 96th East Avenue,74133,36.0154680,-95.8702385
9607,East 102nd Place,74133,36.0154321,-95.8698114
9619,East 102nd Place,74133,36.0154299,-95.8696278
9633,East 102nd Place,74133,36.0154146,-95.8692793
10235,South 96th East Place,74133,36.0154748,-95.8689291
10245,South 96th East Place,74133,36.0153023,-95.8688758
10251,South 96th East Place,74133,36.0151491,-95.8688765
10259,South 96th East Place,74133,36.0149960,-95.8688772
10267,South 96th East Place,74133,36.0148428,-95.8688779
10275,South 96th East Place,74133,36.0146897,-95.8688785
10283,South 96th East Place,74133,36.0145396,-95.8688730
10301,South 96th East Place,74133,36.0143929,-95.8689151
10309,South 96th East Place,74133,36.0142416,-95.8689256
10902,South 91st East Avenue,74133,36.0076243,-95.8771577
10906,South 91st East Avenue,74133,36.0073548,-95.8772282
10910,South 91st East Avenue,74133,36.0070768,-95.8772737
10914,South 91st East Avenue,74133,36.0067669,-95.8772884
10918,South 91st East Avenue,74133,36.0064616,-95.8772572
10711,South 89th East Avenue,74133,36.0073008,-95.8776708
10709,South 89th East Avenue,74133,36.0075289,-95.8776688
10707,South 89th East Avenue,74133,36.0077569,-95.8776667
8716,East 109th Street,74133,36.0066302,-95.8776427
8517,East 106th Street,74133,36.0099242,-95.8810541
10466,South 86th East Place,74133,36.0125651,-95.8805187
10510,South 86th East Place,74133,36.0114711,-95.8805394
10512,South 87th East Avenue,74133,36.0114831,-95.8794691
8607,East 106th Street,74133,36.0099185,-95.8805090
8611,East 106th Street,74133,36.0099215,-95.8799638
9024,East 101st Street,74133,36.0158809,-95.8756663
9121,East 102nd Street,74133,36.0160870,-95.8749427
11063,South Memorial Drive,74133,36.0036061,-95.8856717
10107,South 94th East Avenue,74133,36.0167920,-95.8724272
10111,South 94th East Avenue,74133,36.0166341,-95.8724279
10119,South 94th East Avenue,74133,36.0162744,-95.8723756
10123,South 94th East Avenue,74133,36.0161197,-95.8723037
10138,South 94th East Place,74133,36.0157659,-95.8721316
10134,South 94th East Place,74133,36.0159214,-95.8720779
10130,South 94th East Place,74133,36.0160649,-95.8720102
10126,South 94th East Place,74133,36.0162246,-95.8719531
10122,South 94th East Place,74133,36.0163905,-95.8718900
10118,South 94th East Place,74133,36.0165674,-95.8719708
10114,South 94th East Place,74133,36.0167025,-95.8720388
10110,South 94th East Place,74133,36.0168426,-95.8721094
10106,South 94th East Place,74133,36.0170134,-95.8721928
10103,South 94th East Avenue,74133,36.0169649,-95.8724235
10107,South 94th East Place,74133,36.0170841,-95.8718210
10111,South 94th East Place,74133,36.0169498,-95.8717531
10115,South 94th East Place,74133,36.0168156,-95.8716855
10121,South 94th East Place,74133,36.0165692,-95.8715591
10125,South 94th East Place,74133,36.0163985,-95.8714842
10129,South 94th East Place,74133,36.0161888,-95.8715549
10133,South 94th East Place,74133,36.0160041,-95.8716206
10137,South 94th East Place,74133,36.0158575,-95.8716730
10141,South 94th East Place,74133,36.0156954,-95.8717314
10145,South 94th East Place,74133,36.0155480,-95.8717888
10149,South 94th East Place,74133,36.0154152,-95.8718394
10153,South 94th East Place,74133,36.0152567,-95.8718997
10150,South 94th East Avenue,74133,36.0151918,-95.8722776
10146,South 94th East Avenue,74133,36.0153270,-95.8723419
10142,South 94th East Avenue,74133,36.0154622,-95.8724063
10136,South 94th East Avenue,74133,36.0157101,-95.8725242
10132,South 94th East Avenue,74133,36.0158524,-95.8725919
10128,South 94th East Avenue,74133,36.0159820,-95.8726536
10124,South 94th East Avenue,74133,36.0161173,-95.8727180
10118,South 94th East Avenue,74133,36.0163698,-95.8728255
10114,South 94th East Avenue,74133,36.0165352,-95.8728156
10110,South 94th East Avenue,74133,36.0167970,-95.8728143
10106,South 94th East Avenue,74133,36.0169441,-95.8728129
10102,South 94th East Avenue,74133,36.0171096,-95.8727939
10910,South 88th East Avenue,74133,36.0058951,-95.8796195
10611,South 90th East Court,74133,36.0091026,-95.8765016
10607,South 90th East Court,74133,36.0093244,-95.8765665
10603,South 90th East Court,74133,36.0095284,-95.8765825
10604,South 91st East Avenue,74133,36.0095470,-95.8761915
10608,South 91st East Avenue,74133,36.0093442,-95.8761124
10612,South 91st East Avenue,74133,36.0091444,-95.8760699
10616,South 91st East Avenue,74133,36.0089415,-95.8760741
10549,South 91st East Avenue,74133,36.0097915,-95.8757205
10546,South 91st East Avenue,74133,36.0100124,-95.8756307
10542,South 92nd Circle East,74133,36.0100126,-95.8752830
10537,South 92nd Circle East,74133,36.0101471,-95.8750491
10533,South 92nd Circle East,74133,36.0103399,-95.8748955
10529,South 92nd Circle East,74133,36.0105759,-95.8748150
10525,South 92nd Circle East,74133,36.0107971,-95.8747897
10521,South 92nd Circle East,74133,36.0109759,-95.8749377
10517,South 92nd Circle East,74133,36.0111395,-95.8751316
10527,South 92nd Circle East,74133,36.0104536,-95.8757158
10535,South 92nd Circle East,74133,36.0104611,-95.8754307
10538,South 92nd Circle East,74133,36.0107267,-95.8753932
10522,South 92nd Circle East,74133,36.0107929,-95.8756756
10612,South 90th East Court,74133,36.0089817,-95.8772396
10608,South 90th East Court,74133,36.0092142,-95.8772614
10604,South 90th East Court,74133,36.0094370,-95.8772213
10598,South 90th East Court,74133,36.0096798,-95.8772852
9025,East 106th Street,74133,36.0099308,-95.8772389
9029,East 106th Street,74133,36.0099597,-95.8769095
9033,East 106th Street,74133,36.0099382,-95.8766310
9037,East 106th Street,74133,36.0099562,-95.8763899
10540,South 91st East Avenue,74133,36.0100064,-95.8761393
10536,South 91st East Avenue,74133,36.0102532,-95.8762469
10532,South 91st East Avenue,74133,36.0104815,-95.8762269
10528,South 91st East Avenue,74133,36.0107196,-95.8762035
10524,South 91st East Avenue,74133,36.0109499,-95.8761670
10520,South 91st East Avenue,74133,36.0111650,-95.8761431
10516,South 91st East Avenue,74133,36.0113641,-95.8761292
10512,South 91st East Avenue,74133,36.0115640,-95.8761118
10508,South 91st East Avenue,74133,36.0117553,-95.8760894
10498,South 91st East Avenue,74133,36.0119509,-95.8761213
10494,South 91st East Avenue,74133,36.0121763,-95.8762136
9001,East 104th Place,74133,36.0124406,-95.8764333
10507,South 90th East Avenue,74133,36.0122014,-95.8765811
10511,South 90th East Avenue,74133,36.0119721,-95.8765630
10515,South 90th East Avenue,74133,36.0117589,-95.8765583
10519,South 90th East Avenue,74133,36.0115501,-95.8765593
10523,South 90th East Avenue,74133,36.0113413,-95.8765603
10527,South 90th East Avenue,74133,36.0111275,-95.8765624
10531,South 90th East Avenue,74133,36.0109019,-95.8765724
10535,South 90th East Avenue,74133,36.0106711,-95.8766156
10539,South 90th East Avenue,74133,36.0104092,-95.8766138
8884,East 105th Court,74133,36.0102432,-95.8768085
8880,East 105th Court,74133,36.0102790,-95.8771105
8796,East 105th Court,74133,36.0102904,-95.8773565
8792,East 105th Court,74133,36.0102901,-95.8776268
8788,East 105th Court,74133,36.0102889,-95.8778954
8784,East 105th Court,74133,36.0102882,-95.8781524
8780,East 105th Court,74133,36.0102874,-95.8784093
8772,East 105th Court,74133,36.0102808,-95.8789434
8768,East 105th Court,74133,36.0102301,-95.8793196
10532,South 87th East Avenue,74133,36.0103986,-95.8795408
8805,East 105th Court,74133,36.0108147,-95.8770754
8801,East 105th Court,74133,36.0107984,-95.8773448
8787,East 105th Court,74133,36.0107984,-95.8776158
8783,East 105th Court,74133,36.0107984,-95.8778740
8779,East 105th Court,74133,36.0107985,-95.8781276
8775,East 105th Court,74133,36.0107985,-95.8783812
8771,East 105th Court,74133,36.0107985,-95.8786347
8767,East 105th Court,74133,36.0108006,-95.8789073
8738,East 105th Place,74133,36.0111581,-95.8789054
8742,East 105th Place,74133,36.0111592,-95.8786329
8746,East 105th Place,74133,36.0111584,-95.8783793
8750,East 105th Place,74133,36.0111576,-95.8781258
8754,East 105th Place,74133,36.0111568,-95.8778722
8758,East 105th Place,74133,36.0111560,-95.8776140
8762,East 105th Place,74133,36.0111551,-95.8773430
8766,East 105th Place,74133,36.0111522,-95.8770648
8765,East 105th Place,74133,36.0116508,-95.8770624
8761,East 105th Place,74133,36.0116496,-95.8773407
8757,East 105th Place,74133,36.0116505,-95.8776116
8753,East 105th Place,74133,36.0116513,-95.8778732
8749,East 105th Place,74133,36.0116521,-95.8781335
8745,East 105th Place,74133,36.0116529,-95.8783939
8741,East 105th Place,74133,36.0116537,-95.8786542
8737,East 105th Place,74133,36.0116659,-95.8789320
8708,East 105th Street,74133,36.0120013,-95.8789502
8712,East 105th Street,74133,36.0120108,-95.8786524
8716,East 105th Street,74133,36.0120100,-95.8783921
8720,East 105th Street,74133,36.0120092,-95.8781317
8724,East 105th Street,74133,36.0120084,-95.8778714
8728,East 105th Street,74133,36.0120076,-95.8776099
8732,East 105th Street,74133,36.0120067,-95.8773390
8736,East 105th Street,74133,36.0120038,-95.8770607
8733,East 105th Street,74133,36.0124931,-95.8770387
8729,East 105th Street,74133,36.0125148,-95.8773409
8725,East 105th Street,74133,36.0125157,-95.8776169
8721,East 105th Street,74133,36.0125166,-95.8778928
8717,East 105th Street,74133,36.0125174,-95.8781633
8713,East 105th Street,74133,36.0125183,-95.8784423
10483,South 87th East Avenue,74133,36.0124494,-95.8788132
10479,South 87th East Avenue,74133,36.0126584,-95.8788425
10475,South 87th East Avenue,74133,36.0128648,-95.8788117
10471,South 87th East Avenue,74133,36.0130628,-95.8786503
8708,East 104th Place,74133,36.0129330,-95.8783272
8712,East 104th Place,74133,36.0129189,-95.8780917
8716,East 104th Place,74133,36.0129011,-95.8778656
8720,East 104th Place,74133,36.0129003,-95.8776066
8724,East 104th Place,74133,36.0128979,-95.8773398
8728,East 104th Place,74133,36.0128822,-95.8770653
10482,South 90th East Avenue,74133,36.0127645,-95.8767943
10615,South 90th East Court,74133,36.0089259,-95.8766755
10616,South 90th East Court,74133,36.0088171,-95.8769565
10624,South 91st East Avenue,74133,36.0085774,-95.8763426
10628,South 91st East Avenue,74133,36.0084086,-95.8765138
10625,South 91st East Avenue,74133,36.0084573,-95.8756087
10629,South 91st East Avenue,74133,36.0082615,-95.8758073
10633,South 91st East Avenue,74133,36.0081017,-95.8759754
10811,South 91st East Avenue,74133,36.0069819,-95.8767206
10815,South 91st East Avenue,74133,36.0067153,-95.8766963
10819,South 91st East Avenue,74133,36.0064450,-95.8766418
10918,South 91st East Court,74133,36.0064660,-95.8762489
10914,South 91st East Court,74133,36.0067263,-95.8762567
10910,South 91st East Court,74133,36.0070503,-95.8763106
10915,South 91st East Court,74133,36.0071546,-95.8757953
10919,South 91st East Court,74133,36.0068583,-95.8756081
10923,South 91st East Court,74133,36.0065243,-95.8756364
10927,South 91st East Court,74133,36.0061887,-95.8757516
10931,South 91st East Court,74133,36.0058962,-95.8759159
10926,South 91st East Avenue,74133,36.0058907,-95.8772937
10930,South 91st East Avenue,74133,36.0057158,-95.8770887
9105,East 110th Street,74133,36.0053561,-95.8768727
9101,East 110th Street,74133,36.0054001,-95.8772729
9102,East 110th Street,74133,36.0049048,-95.8772998
9106,East 110th Street,74133,36.0048328,-95.8769426
11048,South 91st East Avenue,74133,36.0044637,-95.8768374
11052,South 91st East Avenue,74133,36.0044591,-95.8772703
10901,South 89th East Avenue,74133,36.0062598,-95.8776870
10905,South 89th East Avenue,74133,36.0059762,-95.8776808
10913,South 89th East Avenue,74133,36.0055744,-95.8777058
8906,East 110th Street,74133,36.0049237,-95.8776411
11001,South 89th East Avenue,74133,36.0044869,-95.8776773
9020,East 101st Street,74133,36.0140837,-95.8770591
11013,South 89th East Avenue,74133,36.0038085,-95.8777142
8609,East 106th Street,74133,36.0099196,-95.8802334
8613,East 106th Street,74133,36.0099198,-95.8796940
8617,East 106th Street,74133,36.0099217,-95.8791526
8619,East 106th Street,74133,36.0099227,-95.8788818
10514,South 88th East Avenue,74133,36.0099236,-95.8783342
8805,East 106th Street,74133,36.0099251,-95.8778812
8807,East 106th Street,74133,36.0099239,-95.8776076
8801,East 109th Place,74133,36.0062903,-95.8790566
8805,East 109th Place,74133,36.0062883,-95.8787817
8809,East 109th Place,74133,36.0062889,-95.8785351
8817,East 109th Place,74133,36.0063227,-95.8780009
10909,South 89th East Avenue,74133,36.0057667,-95.8777056
10917,South 89th East Avenue,74133,36.0053628,-95.8777036
8802,East 109th Place,74133,36.0057678,-95.8790888
8806,East 109th Place,74133,36.0057811,-95.8787958
8808,East 109th Place,74133,36.0057816,-95.8785219
8815,East 110th Street,74133,36.0054162,-95.8782232
8811,East 110th Street,74133,36.0054135,-95.8784753
8807,East 110th Street,74133,36.0054131,-95.8787119
8805,East 110th Street,74133,36.0054126,-95.8789486
8801,East 110th Street,74133,36.0054122,-95.8791993
8902,East 110th Street,74133,36.0049229,-95.8779116
8816,East 110th Street,74133,36.0049224,-95.8781645
8812,East 110th Street,74133,36.0049219,-95.8784174
8808,East 110th Street,74133,36.0049215,-95.8786703
8806,East 110th Street,74133,36.0049210,-95.8789232
8802,East 110th Street,74133,36.0049200,-95.8791904
8805,East 110th Place,74133,36.0045682,-95.8790515
8809,East 110th Place,74133,36.0045532,-95.8787529
8813,East 110th Place,74133,36.0045536,-95.8785163
8817,East 110th Place,74133,36.0045543,-95.8782797
8821,East 110th Place,74133,36.0045917,-95.8779795
11005,South 89th East Avenue,74133,36.0041903,-95.8777033
11017,South 89th East Avenue,74133,36.0036169,-95.8777127
11021,South 89th East Avenue,74133,36.0032840,-95.8776674
8730,East 110th Court,74133,36.0031239,-95.8779093
8726,East 110th Court,74133,36.0031651,-95.8782329
8722,East 110th Court,74133,36.0031664,-95.8784686
8718,East 110th Court,74133,36.0031660,-95.8787053
8714,East 110th Court,74133,36.0031655,-95.8789419
8710,East 110th Court,74133,36.0031650,-95.8792011
11002,South 88th East Avenue,74133,36.0045735,-95.8796597
11006,South 88th East Avenue,74133,36.0043713,-95.8795558
11010,South 88th East Avenue,74133,36.0041389,-95.8794946
8802,East 110th Place,74133,36.0039931,-95.8792704
8806,East 110th Place,74133,36.0040324,-95.8789743
8810,East 110th Place,74133,36.0040342,-95.8787384
8812,East 110th Place,74133,36.0040346,-95.8785018
8816,East 110th Place,74133,36.0040332,-95.8782410
8725,East 110th Court,74133,36.0036690,-95.8782402
8721,East 110th Court,74133,36.0036665,-95.8785007
8717,East 110th Court,74133,36.0036661,-95.8787374
8713,East 110th Court,74133,36.0036656,-95.8789740
8709,East 110th Court,74133,36.0036652,-95.8792107
8705,East 110th Court,74133,36.0036552,-95.8794514
8701,East 110th Court,74133,36.0036651,-95.8797336
11019,South 87th East Avenue,74133,36.0039189,-95.8797917
11015,South 87th East Avenue,74133,36.0041086,-95.8798832
11013,South 87th East Avenue,74133,36.0042959,-95.8799714
11009,South 87th East Avenue,74133,36.0045020,-95.8800734
8702,East 110th Court,74133,36.0031640,-95.8797478
8614,East 110th Court,74133,36.0031635,-95.8800069
8610,East 110th Court,74133,36.0031630,-95.8802435
8606,East 110th Court,74133,36.0031626,-95.8804802
8602,East 110th Court,74133,36.0031621,-95.8807393
11022,South 87th East Avenue,74133,36.0036140,-95.8802801
11018,South 87th East Avenue,74133,36.0038260,-95.8803830
11014,South 87th East Avenue,74133,36.0040134,-95.8804712
11010,South 87th East Avenue,74133,36.0042007,-95.8805594
11006,South 87th East Avenue,74133,36.0043950,-95.8806558
11002,South 87th East Avenue,74133,36.0046041,-95.8807392
10926,South 87th East Avenue,74133,36.0048173,-95.8807313
10922,South 87th East Avenue,74133,36.0050178,-95.8807319
10918,South 87th East Avenue,74133,36.0052183,-95.8807325
10914,South 87th East Avenue,74133,36.0054189,-95.8807331
10910,South 87th East Avenue,74133,36.0056194,-95.8807337
10906,South 87th East Avenue,74133,36.0058393,-95.8807367
10909,South 86th East Avenue,74133,36.0056180,-95.8811567
10911,South 86th East Avenue,74133,36.0054169,-95.8811557
10915,South 86th East Avenue,74133,36.0052164,-95.8811551
10919,South 86th East Avenue,74133,36.0050159,-95.8811545
10923,South 86th East Avenue,74133,36.0048153,-95.8811539
10927,South 86th East Avenue,74133,36.0046141,-95.8811527
10931,South 86th East Avenue,74133,36.0044081,-95.8811308
10939,South 86th East Avenue,74133,36.0042170,-95.8810200
10943,South 86th East Avenue,74133,36.0040297,-95.8809319
10947,South 86th East Avenue,74133,36.0038423,-95.8808437
10949,South 86th East Avenue,74133,36.0036762,-95.8807508
10930,South 88th East Avenue,74133,36.0049749,-95.8797284
10925,South 87th East Avenue,74133,36.0048945,-95.8801467
10921,South 87th East Avenue,74133,36.0051101,-95.8801405
10909,South 87th East Avenue,74133,36.0056882,-95.8801383
10905,South 87th East Avenue,74133,36.0058778,-95.8801028
8621,East 109th Place,74133,36.0063039,-95.8803346
8617,East 109th Place,74133,36.0062923,-95.8806027
8613,East 109th Place,74133,36.0062841,-95.8808329
8609,East 109th Place,74133,36.0062835,-95.8810696
8605,East 109th Place,74133,36.0062915,-95.8812997
8601,East 109th Place,74133,36.0063165,-95.8816420
10902,South 86th East Avenue,74133,36.0061055,-95.8817927
10906,South 86th East Avenue,74133,36.0058516,-95.8817507
10910,South 86th East Avenue,74133,36.0054876,-95.8817496
10914,South 86th East Avenue,74133,36.0052754,-95.8817469
10918,South 86th East Avenue,74133,36.0050831,-95.8817472
10922,South 86th East Avenue,74133,36.0048908,-95.8817474
10926,South 86th East Avenue,74133,36.0046985,-95.8817477
10930,South 86th East Avenue,74133,36.0044884,-95.8817605
10934,South 86th East Avenue,74133,36.0042851,-95.8816981
10938,South 86th East Avenue,74133,36.0040661,-95.8815755
10942,South 86th East Avenue,74133,36.0038888,-95.8814836
10946,South 86th East Avenue,74133,36.0037116,-95.8813917
10950,South 86th East Avenue,74133,36.0035240,-95.8812959
11002,South 86th East Avenue,74133,36.0033258,-95.8813006
11006,South 86th East Avenue,74133,36.0031005,-95.8813021
11009,South 85th East Avenue,74133,36.0045120,-95.8821609
11007,South 85th East Avenue,74133,36.0047720,-95.8821664
11005,South 85th East Avenue,74133,36.0050356,-95.8821648
11001,South 85th East Avenue,74133,36.0054806,-95.8821612
10909,South 85th East Avenue,74133,36.0058756,-95.8821571
10905,South 85th East Avenue,74133,36.0063619,-95.8821546
8504,East 109th Street,74133,36.0066200,-95.8814991
8506,East 109th Street,74133,36.0066211,-95.8812217
8508,East 109th Street,74133,36.0066223,-95.8809429
8600,East 109th Street,74133,36.0066237,-95.8806678
8602,East 109th Street,74133,36.0066227,-95.8803879
8606,East 109th Street,74133,36.0066253,-95.8798277
8708,East 109th Street,74133,36.0066277,-95.8787656
8710,East 109th Street,74133,36.0066277,-95.8784862
10311,South 92nd East Avenue,74133,36.0136099,-95.8736794
10319,South 92nd East Avenue,74133,36.0134166,-95.8738495
10320,South 92nd East Avenue,74133,36.0132056,-95.8740242
10330,South 92nd East Avenue,74133,36.0131048,-95.8742630
10339,South 92nd East Avenue,74133,36.0130646,-95.8745512
10369,South 92nd East Avenue,74133,36.0128302,-95.8742785
10379,South 92nd East Avenue,74133,36.0125059,-95.8743007
10378,South 92nd East Avenue,74133,36.0124334,-95.8749388
10368,South 92nd East Avenue,74133,36.0126557,-95.8749935
10358,South 92nd East Avenue,74133,36.0128653,-95.8750837
10348,South 92nd East Avenue,74133,36.0130716,-95.8752263
10340,South 92nd East Avenue,74133,36.0133712,-95.8753646
10334,South 92nd East Avenue,74133,36.0135306,-95.8751682
10324,South 92nd East Avenue,74133,36.0135732,-95.8748605
10314,South 92nd East Avenue,74133,36.0135599,-95.8746015
10304,South 92nd East Avenue,74133,36.0135798,-95.8742956
9132,East 103rd Street,74133,36.0138903,-95.8747008
9142,East 103rd Street,74133,36.0138993,-95.8744560
9030,East 101st Street,74133,36.0143440,-95.8757777
9006,East 101st Street,74133,36.0160556,-95.8768206
10209,South 88th East Avenue,74133,36.0154928,-95.8776544
11022,South 85th East Avenue,74133,36.0030990,-95.8833716
11021,South 85th East Avenue,74133,36.0031061,-95.8827615
11020,South 85th East Avenue,74133,36.0033363,-95.8833382
11019,South 85th East Avenue,74133,36.0033654,-95.8827797
11018,South 85th East Avenue,74133,36.0035837,-95.8832841
11017,South 85th East Avenue,74133,36.0036004,-95.8826862
11015,South 85th East Avenue,74133,36.0038098,-95.8825321
11016,South 85th East Avenue,74133,36.0038131,-95.8831901
11014,South 85th East Avenue,74133,36.0039954,-95.8830356
11013,South 85th East Avenue,74133,36.0040239,-95.8823869
11053,South Memorial Drive,74133,36.0040305,-95.8857167
8402,East 110th Place,74133,36.0042347,-95.8831854
8404,East 110th Place,74133,36.0042561,-95.8828474
11011,South 85th East Avenue,74133,36.0042613,-95.8822636
8400,East 110th Place,74133,36.0044216,-95.8834319
8401,East 110th Place,74133,36.0047280,-95.8833486
8403,East 110th Place,74133,36.0047417,-95.8829919
8405,East 110th Place,74133,36.0047222,-95.8826962
8302,East 110th Street,74133,36.0049965,-95.8846576
8304,East 110th Street,74133,36.0050411,-95.8843278
8306,East 110th Street,74133,36.0050448,-95.8840580
8308,East 110th Street,74133,36.0050472,-95.8837849
8310,East 110th Street,74133,36.0050484,-95.8835141
8402,East 110th Street,74133,36.0050499,-95.8832500
8404,East 110th Street,74133,36.0050509,-95.8829829
8406,East 110th Street,74133,36.0050509,-95.8826913
10928,South 83rd East Avenue,74133,36.0052080,-95.8849254
10912,South 83rd East Avenue,74133,36.0054937,-95.8848656
10912,South 85th East Avenue,74133,36.0054918,-95.8827107
8401,East 110th Street,74133,36.0055078,-95.8833402
8403,East 110th Street,74133,36.0055067,-95.8830363
10910,South 83rd East Avenue,74133,36.0057224,-95.8848611
10910,South 85th East Avenue,74133,36.0057393,-95.8827101
10905,South 84th East Avenue,74133,36.0057783,-95.8832459
10907,South 83rd East Avenue,74133,36.0059313,-95.8842843
10906,South 84th East Avenue,74133,36.0059229,-95.8838787
10908,South 83rd East Avenue,74133,36.0059530,-95.8848604
10908,South 85th East Avenue,74133,36.0059788,-95.8826928
10903,South 84th East Avenue,74133,36.0060084,-95.8832032
10906,South 83rd East Avenue,74133,36.0061750,-95.8848578
10905,South 83rd East Avenue,74133,36.0061564,-95.8842812
10907,South 85th East Avenue,74133,36.0061252,-95.8821568
10906,South 85th East Avenue,74133,36.0061798,-95.8827083
10901,South 84th East Avenue,74133,36.0062494,-95.8832638
10904,South 84th East Avenue,74133,36.0062147,-95.8839177
10902,South 84th East Avenue,74133,36.0063384,-95.8836458
10904,South 83rd East Avenue,74133,36.0063933,-95.8848552
10903,South 83rd East Avenue,74133,36.0063853,-95.8842797
10904,South 85th East Avenue,74133,36.0064169,-95.8827426
8314,East 109th Street,74133,36.0064990,-95.8830590
10902,South 83rd East Avenue,74133,36.0066285,-95.8848530
10901,South 83rd East Avenue,74133,36.0066280,-95.8842777
8308,East 109th Street,74133,36.0066005,-95.8839206
8310,East 109th Street,74133,36.0066034,-95.8836187
8312,East 109th Street,74133,36.0065958,-95.8833197
8604,East 109th Street,74133,36.0066238,-95.8801070
8608,East 109th Street,74133,36.0066259,-95.8795355
8706,East 109th Street,74133,36.0066271,-95.8790633
8714,East 109th Street,74133,36.0066302,-95.8779362
8500,East 109th Street,74133,36.0067059,-95.8821693
8317,East 109th Street,74133,36.0068457,-95.8826705
8315,East 109th Street,74133,36.0069819,-95.8829744
8301,East 109th Street,74133,36.0070483,-95.8849175
8303,East 109th Street,74133,36.0070486,-95.8846347
8305,East 109th Street,74133,36.0070512,-95.8843555
8307,East 109th Street,74133,36.0070521,-95.8840838
8309,East 109th Street,74133,36.0070533,-95.8838162
8311,East 109th Street,74133,36.0070547,-95.8835457
8313,East 109th Street,74133,36.0070482,-95.8832693
10715,South 86th Circle East,74133,36.0070454,-95.8805866
10714,South 86th Circle East,74133,36.0070521,-95.8811453
10714,South 87th East Avenue,74133,36.0070499,-95.8801892
8701,East 109th Street,74133,36.0070877,-95.8796570
8322,East 108th Street,74133,36.0071033,-95.8824696
8703,East 109th Street,74133,36.0070886,-95.8793580
8705,East 109th Street,74133,36.0070905,-95.8790799
8707,East 109th Street,74133,36.0070894,-95.8787946
8709,East 109th Street,74133,36.0070915,-95.8785070
8711,East 109th Street,74133,36.0070928,-95.8782137
8320,East 108th Street,74133,36.0072245,-95.8827354
10712,South 87th East Avenue,74133,36.0072808,-95.8801856
10713,South 86th Circle East,74133,36.0072785,-95.8805667
10712,South 86th Circle East,74133,36.0072971,-95.8812268
8306,East 108th Street,74133,36.0073593,-95.8846444
8308,East 108th Street,74133,36.0073689,-95.8843707
8310,East 108th Street,74133,36.0074107,-95.8840959
8318,East 108th Street,74133,36.0073312,-95.8829952
8312,East 108th Street,74133,36.0074033,-95.8838157
10711,South 87th East Avenue,74133,36.0073623,-95.8796193
8314,East 108th Street,74133,36.0074154,-95.8835320
8316,East 108th Street,74133,36.0073879,-95.8832598
10710,South 89th East Avenue,74133,36.0073749,-95.8782495
10709,South 88th Circle East,74133,36.0073588,-95.8788167
10718,South 83rd East Avenue,74133,36.0075203,-95.8848704
10708,South 88th Circle East,74133,36.0074019,-95.8792097
10710,South 87th East Avenue,74133,36.0075016,-95.8801845
8323,East 108th Street,74133,36.0074883,-95.8821917
10707,South 88th Circle East,74133,36.0075315,-95.8786094
10709,South 87th East Avenue,74133,36.0075914,-95.8796196
10807,South Memorial Drive,74133,36.0075591,-95.8856301
8321,East 108th Street,74133,36.0076093,-95.8824521
10708,South 89th East Avenue,74133,36.0076124,-95.8782450
10710,South 86th Circle East,74133,36.0075599,-95.8811482
10706,South 88th Circle East,74133,36.0076704,-95.8792528
10716,South 83rd East Avenue,74133,36.0078440,-95.8848601
10709,South 86th Circle East,74133,36.0077127,-95.8808409
10711,South 86th Circle East,74133,36.0075958,-95.8805362
10708,South 87th East Avenue,74133,36.0077326,-95.8801822
8319,East 108th Street,74133,36.0077244,-95.8826965
8324,East 107th Place,74133,36.0077603,-95.8820172
8317,East 108th Street,74133,36.0078171,-95.8829496
10705,South 88th Circle East,74133,36.0077906,-95.8786290
8307,East 108th Street,74133,36.0078474,-95.8843225
8309,East 108th Street,74133,36.0078474,-95.8840402
8311,East 108th Street,74133,36.0078481,-95.8837710
10707,South 87th East Avenue,74133,36.0078197,-95.8796188
8313,East 108th Street,74133,36.0078490,-95.8834985
8315,East 108th Street,74133,36.0078501,-95.8832260
10705,South 85th East Avenue,74133,36.0078269,-95.8813434
10706,South 89th East Avenue,74133,36.0078466,-95.8782432
10704,South 88th Circle East,74133,36.0078987,-95.8792153
8322,East 107th Place,74133,36.0078901,-95.8823007
10714,South 83rd East Avenue,74133,36.0080530,-95.8848446
10703,South 88th Circle East,74133,36.0080060,-95.8786346
8506,East 107th Street,74133,36.0079905,-95.8804518
8320,East 107th Place,74133,36.0080117,-95.8825652
10703,South 85th East Avenue,74133,36.0080164,-95.8812058
8508,East 107th Street,74133,36.0080073,-95.8801335
8504,East 107th Street,74133,36.0080514,-95.8807540
10704,South 89th East Avenue,74133,36.0080852,-95.8782406
8704,East 107th Street,74133,36.0080663,-95.8796116
8308,East 107th Place,74133,36.0081655,-95.8843069
8310,East 107th Place,74133,36.0081672,-95.8840040
8312,East 107th Place,74133,36.0081693,-95.8837206
8314,East 107th Place,74133,36.0081691,-95.8834333
8318,East 107th Place,74133,36.0081298,-95.8828463
10712,South 83rd East Avenue,74133,36.0082350,-95.8848538
8316,East 107th Place,74133,36.0081681,-95.8831392
8708,East 107th Street,74133,36.0081408,-95.8792042
10701,South 85th East Avenue,74133,36.0082166,-95.8810628
8325,East 107th Place,74133,36.0082548,-95.8819858
8806,East 107th Street,74133,36.0082551,-95.8786270
10777,South Memorial Drive,74133,36.0083946,-95.8855951
10702,South 89th East Avenue,74133,36.0083382,-95.8782307
8507,East 107th Street,74133,36.0084557,-95.8802239
8505,East 107th Street,74133,36.0084473,-95.8805072
8509,East 107th Street,74133,36.0084843,-95.8796838
10701,South 89th East Avenue,74133,36.0084605,-95.8776752
10710,South 83rd East Avenue,74133,36.0085211,-95.8848993
8305,East 107th Place,74133,36.0086743,-95.8846865
8307,East 107th Place,74133,36.0086339,-95.8843275
8311,East 107th Place,74133,36.0086319,-95.8838564
8707,East 107th Street,74133,36.0085645,-95.8792834
8313,East 107th Place,74133,36.0086350,-95.8835718
10607,South Memorial Drive,74008,36.0086786,-95.8856061
8315,East 107th Place,74133,36.0086387,-95.8832960
8503,East 107th Street,74133,36.0085679,-95.8807571
8317,East 107th Place,74133,36.0086456,-95.8830115
8319,East 107th Place,74133,36.0086029,-95.8827337
8415,East 107th Street,74133,36.0086761,-95.8809902
8805,East 107th Street,74133,36.0086490,-95.8788885
8406,East 107th Street,74133,36.0087553,-95.8823055
8807,East 107th Street,74133,36.0087056,-95.8786258
8413,East 107th Street,74133,36.0087803,-95.8812231
8809,East 107th Street,74133,36.0087611,-95.8783660
10601,South Memorial Drive,74008,36.0089319,-95.8857978
8302,East 106th Street,74133,36.0089491,-95.8848919
8304,East 106th Street,74133,36.0089502,-95.8846155
8306,East 106th Street,74133,36.0089509,-95.8843298
8811,East 107th Street,74133,36.0088175,-95.8781051
8407,East 107th Street,74133,36.0090843,-95.8819347
8504,East 106th Street,74133,36.0092496,-95.8822948
10514,South 83rd Circle East,74133,36.0094044,-95.8848238
10515,South 83rd Circle East,74133,36.0094561,-95.8843026
10514,South 84th Circle East,74133,36.0094019,-95.8838566
8506,East 106th Street,74133,36.0093525,-95.8820412
8403,East 106th Street,74133,36.0094898,-95.8832768
8604,East 106th Street,74133,36.0094181,-95.8808286
8606,East 106th Street,74133,36.0094181,-95.8805553
8608,East 106th Street,74133,36.0094181,-95.8802853
8610,East 106th Street,74133,36.0094171,-95.8800134
8612,East 106th Street,74133,36.0094169,-95.8797437
8614,East 106th Street,74133,36.0094178,-95.8794733
8616,East 106th Street,74133,36.0094166,-95.8792030
8618,East 106th Street,74133,36.0094169,-95.8789362
8405,East 106th Street,74133,36.0096093,-95.8829614
10512,South 84th Circle East,74133,36.0096500,-95.8838973
10512,South 83rd Circle East,74133,36.0096652,-95.8848771
8407,East 106th Street,74133,36.0096650,-95.8826729
10513,South 83rd Circle East,74133,36.0096634,-95.8842020
10515,South 84th Circle East,74133,36.0097539,-95.8832421
10511,South 83rd Circle East,74133,36.0099165,-95.8843136
10510,South 84th Circle East,74133,36.0099182,-95.8838308
10512,South 85th East Avenue,74133,36.0099456,-95.8827983
8505,East 106th Street,74133,36.0098583,-95.8822163
8615,East 106th Street,74133,36.0099212,-95.8794226
9152,East 103rd Street,74133,36.0139176,-95.8741992
9122,East 103rd Street,74133,36.0140346,-95.8749592
10291,South 92nd East Avenue,74133,36.0143638,-95.8734520
9121,East 103rd Street,74133,36.0142966,-95.8749602
9131,East 103rd Street,74133,36.0144527,-95.8747237
9141,East 103rd Street,74133,36.0144366,-95.8744882
9151,East 103rd Street,74133,36.0144188,-95.8742573
9161,East 103rd Street,74133,36.0144361,-95.8739790
10281,South 92nd East Avenue,74133,36.0145240,-95.8733831
10271,South 92nd East Avenue,74133,36.0147297,-95.8733237
8604,East 103rd Street,74133,36.0147631,-95.8810932
8608,East 103rd Street,74133,36.0147664,-95.8808360
8612,East 103rd Street,74133,36.0147671,-95.8806010
8668,East 103rd Street,74133,36.0147219,-95.8791131
8616,East 103rd Street,74133,36.0147679,-95.8803660
8620,East 103rd Street,74133,36.0147686,-95.8801310
8656,East 103rd Street,74133,36.0147694,-95.8798960
8660,East 103rd Street,74133,36.0147701,-95.8796610
8664,East 103rd Street,74133,36.0147682,-95.8794262
8808,East 103rd Street,74133,36.0147248,-95.8778311
8756,East 103rd Street,74133,36.0147878,-95.8785817
8760,East 103rd Street,74133,36.0147744,-95.8783257
8764,East 103rd Street,74133,36.0147634,-95.8780938
9132,East 102nd Place,74133,36.0147543,-95.8748060
8812,East 103rd Street,74133,36.0148584,-95.8775938
9142,East 102nd Place,74133,36.0147596,-95.8745198
9152,East 102nd Place,74133,36.0147804,-95.8742868
9162,East 102nd Place,74133,36.0147828,-95.8740614
9172,East 102nd Place,74133,36.0147845,-95.8738131
10261,South 92nd East Avenue,74133,36.0149083,-95.8733013
9122,East 102nd Place,74133,36.0149655,-95.8749247
8809,East 103rd Street,74133,36.0151031,-95.8776294
10251,South 92nd East Avenue,74133,36.0151032,-95.8733309
8603,East 103rd Street,74133,36.0152548,-95.8810885
8607,East 103rd Street,74133,36.0152529,-95.8808324
8611,East 103rd Street,74133,36.0152531,-95.8805957
8615,East 103rd Street,74133,36.0152553,-95.8803395
10213,South 88th East Avenue,74133,36.0152950,-95.8776554
8655,East 103rd Street,74133,36.0152879,-95.8798791
8659,East 103rd Street,74133,36.0152911,-95.8796058
8663,East 103rd Street,74133,36.0152833,-95.8793677
8667,East 103rd Street,74133,36.0152582,-95.8791334
8751,East 103rd Street,74133,36.0152538,-95.8789056
8755,East 103rd Street,74133,36.0152770,-95.8786737
8759,East 103rd Street,74133,36.0152792,-95.8784355
8763,East 103rd Street,74133,36.0152799,-95.8781770
10241,South 92nd East Avenue,74133,36.0152804,-95.8733874
9121,East 102nd Place,74133,36.0152367,-95.8749047
9131,East 102nd Place,74133,36.0153071,-95.8747041
9141,East 102nd Place,74133,36.0152878,-95.8744172
9151,East 102nd Place,74133,36.0152591,-95.8741644
9161,East 102nd Place,74133,36.0152714,-95.8739292
10229,South 86th East Avenue,74133,36.0155104,-95.8808907
10208,South 86th East Place,74133,36.0155181,-95.8804217
9032,East 101st Street,74133,36.0151153,-95.8756614
10231,South 92nd East Avenue,74133,36.0154544,-95.8734536
8654,East 102nd Street,74133,36.0155762,-95.8798474
10205,South 88th East Avenue,74133,36.0156906,-95.8776534
8658,East 102nd Street,74133,36.0156430,-95.8795990
8662,East 102nd Street,74133,36.0156459,-95.8793640
8666,East 102nd Street,74133,36.0156437,-95.8791298
8752,East 102nd Street,74133,36.0156415,-95.8788982
8756,East 102nd Street,74133,36.0156393,-95.8786666
8760,East 102nd Street,74133,36.0156363,-95.8784334
8764,East 102nd Street,74133,36.0156329,-95.8781766
9132,East 102nd Street,74133,36.0156567,-95.8748247
10221,South 92nd East Avenue,74133,36.0156427,-95.8735508
9142,East 102nd Street,74133,36.0156208,-95.8745620
9152,East 102nd Street,74133,36.0156452,-95.8743314
9162,East 102nd Street,74133,36.0156314,-95.8740703
10233,South 86th East Avenue,74133,36.0157630,-95.8808817
10237,South 86th East Avenue,74133,36.0159076,-95.8811284
10116,South 86th East Place,74133,36.0159173,-95.8805745
9122,East 102nd Street,74133,36.0158172,-95.8750003
10211,South 92nd East Avenue,74133,36.0158153,-95.8736115
10112,South 86th East Place,74133,36.0161147,-95.8806057
8655,East 102nd Street,74133,36.0161294,-95.8795894
8659,East 102nd Street,74133,36.0161232,-95.8793512
8663,East 102nd Street,74133,36.0161235,-95.8791220
8753,East 102nd Street,74133,36.0161242,-95.8788904
8757,East 102nd Street,74133,36.0161249,-95.8786588
8761,East 102nd Street,74133,36.0161256,-95.8784271
8765,East 102nd Street,74133,36.0161289,-95.8781730
10108,South 86th East Place,74133,36.0162967,-95.8806102
10151,South 92nd East Avenue,74133,36.0161736,-95.8737585
9131,East 102nd Street,74133,36.0161798,-95.8747048
9141,East 102nd Street,74133,36.0161520,-95.8744573
9151,East 102nd Street,74133,36.0161481,-95.8742155
10104,South 86th East Place,74133,36.0164759,-95.8806091
10141,South 92nd East Avenue,74133,36.0163528,-95.8737282
8654,East 101st Place,74133,36.0164764,-95.8800745
8658,East 101st Place,74133,36.0164800,-95.8798168
8662,East 101st Place,74133,36.0164808,-95.8795852
8666,East 101st Place,74133,36.0164820,-95.8793544
8670,East 101st Place,74133,36.0164824,-95.8791236
8706,East 101st Place,74133,36.0164832,-95.8788919
8710,East 101st Place,74133,36.0164840,-95.8786603
8714,East 101st Place,74133,36.0164848,-95.8784287
8718,East 101st Place,74133,36.0164839,-95.8781729
10131,South 92nd East Avenue,74133,36.0165416,-95.8737526
8641,East 101st Place,74133,36.0166553,-95.8806353
8727,East 101st Place,74133,36.0166907,-95.8776118
10121,South 92nd East Avenue,74133,36.0167256,-95.8737403
10111,South 92nd East Avenue,74133,36.0169014,-95.8737124
8645,East 101st Place,74133,36.0169012,-95.8806752
8649,East 101st Place,74133,36.0170483,-95.8804963
8653,East 101st Place,74133,36.0170072,-95.8801734
8657,East 101st Place,74133,36.0169910,-95.8799269
8661,East 101st Place,74133,36.0169918,-95.8796902
8665,East 101st Place,74133,36.0169921,-95.8794147
8715,East 101st Place,74133,36.0170057,-95.8781136
8719,East 101st Place,74133,36.0170542,-95.8778425
8723,East 101st Place,74133,36.0169692,-95.8776009
10101,South 92nd East Avenue,74133,36.0170619,-95.8737348
9014,East 101st Street,74133,36.0169609,-95.8756084
11601,South 109th Avenue East,74008,35.9952836,-95.8549880
11595,South 109th Avenue East,74008,35.9958746,-95.8549832
11469,South 109th Avenue East,74008,35.9970314,-95.8548053
11270,South 109th Avenue East,74008,36.0003710,-95.8558533
11222,South 109th Avenue East,74008,36.0008915,-95.8558166
11318,South 109th Avenue East,74008,35.9998925,-95.8557737
11202,South 109th Avenue East,74008,36.0012537,-95.8558014
11178,South 109th Avenue East,74008,36.0017069,-95.8557769
11527,South 109th Avenue East,74008,35.9976180,-95.8542569
11130,South 109th Avenue East,74008,36.0021601,-95.8558039
11120,South 109th Avenue East,74008,36.0025438,-95.8558049
11211,South 109th Avenue East,74008,36.0006841,-95.8548914
11315,South 109th Avenue East,74008,35.9994622,-95.8550327
11311,South 109th Avenue East,74008,35.9999169,-95.8550374
11517,South 109th Avenue East,74008,35.9965182,-95.8546208
11405,South 109th Avenue East,74008,35.9978906,-95.8550469
11323,South 109th Avenue East,74008,35.9985302,-95.8546352
12181,South 109th Avenue East,74008,35.9874890,-95.8560692
12118,South 109th Avenue East,74008,35.9875899,-95.8566595
12220,South 109th Avenue East,74008,35.9867084,-95.8566354
12201,South 109th Avenue East,74008,35.9870514,-95.8560974
12221,South 109th Avenue East,74008,35.9865574,-95.8560614
12305,South 109th Avenue East,74008,35.9857268,-95.8557803
14645,South Memorial Drive,74008,35.9501088,-95.8860381
9477,East 139th Street South,74008,35.9634317,-95.8723954
7612,East 133rd Place South,74008,35.9704643,-95.8912962
12403,South 101st East Avenue,74008,35.9865399,-95.8645609
14218,South Urbana Avenue,74008,35.9571038,-95.9252750
11114,South Memorial Drive East,74008,36.0015176,-95.8900316
15098,South Memorial,74008,35.9450079,-95.8872142
15028,South Memorial Drive,74008,35.9463881,-95.8885526
116,West Needles Avenue,74008,35.9430039,-95.8851186
10301,South Memorial Drive East,74133,36.0139112,-95.8825465
10205,South Memorial Drive,74133,36.0151308,-95.8858402
10255,South Memorial Drive,74133,36.0146886,-95.8858028
10279,South Memorial Drive,74133,36.0142096,-95.8857844
10419,South Memorial Drive,74133,36.0118748,-95.8858868
10437,South Memorial Drive,74133,36.0111911,-95.8858110
8222,East 103rd Street,74133,36.0130817,-95.8845936
8205,East Regal Court,74133,36.0123974,-95.8849583
8205,East Regal Court,74133,36.0124027,-95.8839660
8210,South Regal Boulevard East,74133,36.0118079,-95.8840328
10425,South 82nd East Avenue,74133,36.0115289,-95.8846358
8210,South Regal Boulevard East,74133,36.0112329,-95.8840277
10441,South Regal Boulevard,74133,36.0115270,-95.8826786
8260,East Regal Place,74133,36.0105208,-95.8826840
10462,South 82nd East Avenue,74133,36.0105311,-95.8852304
10438,South 82nd East Avenue,74133,36.0112131,-95.8852946
8312,East 106th Street,74133,36.0089879,-95.8835942
8310,East 106th Street,74133,36.0089816,-95.8838528
8314,East 106th Street,74133,36.0090288,-95.8832972
8316,East 106th Street,74133,36.0090719,-95.8830594
8402,East 107th Street,74133,36.0091124,-95.8827552
8404,East 107th Street,74133,36.0088933,-95.8825978
8408,East 107th Street,74133,36.0086641,-95.8820911
8412,East 107th Street,74133,36.0084237,-95.8815630
8323,East 107th Place,74133,36.0083912,-95.8822634
8321,East 107th Place,74133,36.0084734,-95.8825081
10827,South Memorial Drive,74133,36.0070993,-95.8856272
10545,South Memorial Drive,74133,36.0095207,-95.8855659
9696,East 101st Street,74133,36.0168111,-95.8691634
8220,East Regal Place,74133,36.0104995,-95.8841365
8251,East 102nd Street,74133,36.0154988,-95.8850137
10121,South Memorial Drive,74133,36.0156833,-95.8857363
10101,South Memorial Drive,74133,36.0167518,-95.8855948
8200,East 101st Street,74133,36.0168405,-95.8848774
8405,East 102nd Street,74133,36.0157533,-95.8838562
8207,East 103rd Street,74133,36.0143411,-95.8842095
10111,South Memorial Drive,74133,36.0161844,-95.8850048
10305,South Memorial Drive,74133,36.0135010,-95.8858604
10323,South Memorial Drive,74133,36.0128110,-95.8858869
10401,South Memorial Drive,74133,36.0123072,-95.8858320
8414,East 101st Street,74133,36.0165755,-95.8824033
10185,South 85th East Avenue,74133,36.0156418,-95.8823580
10535,South Memorial Drive,74133,36.0099582,-95.8858766
9494,East 101st Street,74133,36.0160958,-95.8707764
7980,East 111th Street South,74008,36.0024244,-95.8881727
10121,South 86th East Place,74133,36.0160312,-95.8799360
10117,South 86th East Place,74133,36.0161937,-95.8800191
10204,South 86th East Place,74133,36.0157400,-95.8804794
8703,East 101st Place,74133,36.0169773,-95.8788425
8707,East 101st Place,74133,36.0170017,-95.8785946
8711,East 101st Place,74133,36.0169708,-95.8783591
11134,South Memorial Drive East,74008,36.0002977,-95.8873029
10245,South 82nd East Avenue,74133,36.0148917,-95.8849984
8316,East 102nd Street,74133,36.0148678,-95.8841924
10909,South 83rd East Avenue,74133,36.0057237,-95.8842972
10908,South 84th East Avenue,74133,36.0057197,-95.8838884
10911,South 83rd East Avenue,74133,36.0054933,-95.8843099
10910,South 84th East Avenue,74133,36.0054860,-95.8838727
11073,South Memorial Drive,74133,36.0033131,-95.8859786
9669,East 108th Place,74133,36.0066885,-95.8690878
12102,South Memorial Drive,74008,35.9879334,-95.8869332
12101,South Memorial Drive East,74008,35.9879337,-95.8859250
16,South A Avenue,74008,35.9406075,-95.8840582
14901,South Harvard Avenue,74008,35.9483162,-95.9356961
14901,South Harvard Avenue,74008,35.9470703,-95.9361277
14402,South Jamestown Avenue,74008,35.9551243,-95.9379514
14412,South Jamestown Avenue,74008,35.9549618,-95.9380078
14431,South Jamestown Avenue,74008,35.9546037,-95.9375320
14422,South Jamestown Avenue,74008,35.9547634,-95.9380660
14432,South Jamestown Avenue,74008,35.9545826,-95.9381011
14442,South Jamestown Avenue,74008,35.9543890,-95.9381695
7749,East 118th Street South,74008,35.9930335,-95.8870516
16014,South 88th East Place,74008,35.9315149,-95.8785726
13000,South Memorial Drive,74008,35.9747433,-95.8870217
11713,South Memorial Drive,74008,35.9929563,-95.8860098
11894,South Memorial Drive,74008,35.9915142,-95.8872401
