House number,Street name,Postal code,Latitude,Longitude
4800,South 199th East Avenue,74014,36.0944905,-95.7551627
4706,South 199th East Avenue,74014,36.0958034,-95.7560145
19728,East 44th Street,74014,36.0983657,-95.7568943
19702,East 44th Street,74014,36.0983697,-95.7580317
19701,East 44th Street,74014,36.0986641,-95.7580465
19727,East 44th Street,74014,36.0986641,-95.7568598
4777,South 199th East Avenue,74014,36.0949202,-95.7549559
4711,South 199th East Avenue,74014,36.0957875,-95.7555714
19705,East 44th Place,74014,36.0994479,-95.7579972
19715,East 44th Place,74014,36.0994479,-95.7575590
19704,East 44th Place,74014,36.0991455,-95.7580169
19812,East 44th Place,74014,36.0991415,-95.7568598
4345,South 197th East Avenue,74014,36.0997622,-95.7580465
19900,East 48th Street,74014,36.0945024,-95.7548771
19924,East 48th Street,74014,36.0950515,-95.7536757
19915,East 48th Street,74014,36.0950554,-95.7546358
19927,East 48th Street,74014,36.0953658,-95.7536363
19503,East 50th Street,74014,36.0918371,-95.7568934
4337,South 197th East Avenue,74014,36.1001162,-95.7580465
19729,East 50th Street,74014,36.0932794,-95.7536437
4328,South 197th East Avenue,74014,36.1005071,-95.7584769
4500,South 197th East Avenue,74014,36.0975790,-95.7585262
19921,East 49th Place,74014,36.0946138,-95.7536462
19935,East 44th Street,74014,36.0986601,-95.7536495
19509,East 49th Place,74014,36.0929945,-95.7571814
19909,East 44th Street,74014,36.0986641,-95.7546884
19926,East 49th Place,74014,36.0943194,-95.7533557
19502,East 49th Place,74014,36.0924574,-95.7574473
19911,East 44th Place,74014,36.0994678,-95.7545063
19923,East 44th Place,74014,36.0994598,-95.7540779
19910,East 44th Place,74014,36.0991654,-95.7547229
19932,East 44th Place,74014,36.0991734,-95.7536791
4429,South 199th East Avenue,74014,36.0979003,-95.7551119
19803,East 47th Street,74014,36.0962052,-95.7568023
4405,South 199th East Avenue,74014,36.0990898,-95.7551020
4428,South 199th East Avenue,74014,36.0978923,-95.7555107
4400,South 199th East Avenue,74014,36.0991853,-95.7555206
4605,South 200th East Avenue,74014,36.0968140,-95.7531932
4813,South 200th East Avenue,74014,36.0944507,-95.7532670
19937,East 45th Street,74014,36.0978485,-95.7536594
20008,East 45th Street,74014,36.0975223,-95.7532507
19928,East 47th Street,74014,36.0956920,-95.7544635
19707,East 45th Street,74014,36.0978485,-95.7580366
19914,East 47th Street,74014,36.0958750,-95.7549066
19945,East 47th Street,74014,36.0962020,-95.7536690
19946,East 47th Street,74014,36.0958989,-95.7537299
19702,East 45th Street,74014,36.0975382,-95.7583566
19512,East 50th Place,74014,36.0903192,-95.7563628
19845,East 43rd Court,74014,36.0998189,-95.7550746
19811,East 43rd Court,74014,36.0998467,-95.7564483
19822,East 43rd Court,74014,36.0995205,-95.7560397
19834,East 43rd Court,74014,36.0995324,-95.7555424
19714,East 50th Place,74014,36.0906097,-95.7534332
5018,South 196th East Avenue,74014,36.0907330,-95.7556391
4324,South 200th East Avenue,74014,36.1007339,-95.7538880
5019,South 196th East Avenue,74014,36.0907609,-95.7552304
5002,South 196th East Avenue,74014,36.0915288,-95.7555012
4352,South 200th East Avenue,74014,36.0995245,-95.7536467
5001,South 196th East Avenue,74014,36.0915208,-95.7552402
4323,South 200th East Avenue,74014,36.1007600,-95.7535049
4501,South 200th East Avenue,74014,36.0976702,-95.7531939
5023,South 195th Court,74014,36.0907529,-95.7562151
5011,South 195th Court,74014,36.0913059,-95.7562496
5002,South 195th Court,74014,36.0917317,-95.7569685
19726,East 50th Street,74014,36.0930606,-95.7534467
19508,East 50th Street,74014,36.0915835,-95.7564072
4351,South 198th East Avenue,74014,36.0994727,-95.7570737
4327,South 198th East Avenue,74014,36.1005111,-95.7569358
19735,East 43rd Place,74014,36.1006543,-95.7571229
4344,South 198th East Avenue,74014,36.0998069,-95.7574528
19703,East 43rd Place,74014,36.1005787,-95.7582947
5033,South 197th East Avenue,74014,36.0907429,-95.7542715
5017,South 197th East Avenue,74014,36.0914094,-95.7542530
5032,South 197th East Avenue,74014,36.0907181,-95.7546592
5004,South 197th East Avenue,74014,36.0921504,-95.7551085
4336,South 198th East Avenue,74014,36.1001809,-95.7574429
19701,East 50th Court,74014,36.0919963,-95.7544253
19722,East 50th Court,74014,36.0921057,-95.7534221
19702,East 50th Court,74014,36.0917227,-95.7542469
19717,East 50th Court,74014,36.0923046,-95.7536375
4348,South 198th East Place,74014,36.0997393,-95.7565320
4429,South 198th East Place,74014,36.0979052,-95.7560987
4401,South 198th East Place,74014,36.0992022,-95.7560938
4428,South 198th East Place,74014,36.0978854,-95.7564631
4813,South 196th East Avenue,74014,36.0937861,-95.7575783
4802,South 196th East Avenue,74014,36.0942571,-95.7583220
4814,South 196th East Avenue,74014,36.0936027,-95.7579155
4801,South 196th East Avenue,74014,36.0943590,-95.7581298
4906,South 195th East Avenue,74014,36.0929704,-95.7580484
4913,South 195th East Avenue,74014,36.0928261,-95.7575375
4905,South 195th East Avenue,74014,36.0932339,-95.7578145
4841,South 197th East Avenue,74014,36.0941532,-95.7567068
4608,South 197th East Avenue,74014,36.0966398,-95.7582332
4832,South 197th East Avenue,74014,36.0942726,-95.7571992
4601,South 197th East Avenue,74014,36.0969621,-95.7578343
19948,East 46th Street,74014,36.0966789,-95.7536889
20015,East 46th Street,74014,36.0969932,-95.7532753
19802,East 46th Street,74014,36.0966828,-95.7568106
19801,East 46th Street,74014,36.0969733,-95.7568254
19936,East 44th Street,74014,36.0983458,-95.7536692
19908,East 44th Street,74014,36.0983458,-95.7547328
4915,South 198th East Avenue,74014,36.0938342,-95.7553187
4707,South 198th East Avenue,74014,36.0957718,-95.7566924
4916,South 198th East Avenue,74014,36.0937347,-95.7556880
4522,South 198th East Avenue,74014,36.0970926,-95.7572636
19401,East 48th Street,74014,36.0943937,-95.7611152
19422,East 48th Street,74014,36.0940691,-95.7597956
19406,East 48th Street,74014,36.0940341,-95.7607252
19425,East 48th Street,74014,36.0944988,-95.7596696
19405,East 49th Street,74014,36.0934484,-95.7607331
19708,East 49th Street,74014,36.0939736,-95.7562820
19621,East 49th Street,74014,36.0939609,-95.7570107
4804,South 194th East Avenue,74014,36.0942664,-95.7612137
4820,South 194th East Avenue,74014,36.0935343,-95.7611664
19302,East 49th Street,74014,36.0931556,-95.7613200
4602,South 194th East Avenue,74014,36.0970258,-95.7611037
4605,South 194th East Avenue,74014,36.0966558,-95.7607591
4736,South 194th East Avenue,74014,36.0947978,-95.7609905
4731,South 194th East Avenue,74014,36.0948614,-95.7608428
19305,East 46th Street,74014,36.0970178,-95.7579427
19711,East 46th Street,74014,36.0970098,-95.7608674
4604,South 195th East Avenue,74014,36.0966675,-95.7602050
4817,South 195th East Avenue,74014,36.0938377,-95.7588264
4603,South 195th East Avenue,74014,36.0966526,-95.7597557
4820,South 195th East Avenue,74014,36.0934796,-95.7592203
20201,East 42nd Street,74014,36.1033658,-95.7522093
4318,North 33rd Court,74014,36.0946832,-95.7494119
20433,East 49th Street,74014,36.0951952,-95.7497630
5093,South 204th East Avenue,74014,36.0902222,-95.7499655
20225,East 50th Court,74014,36.0913818,-95.7519115
4419,North 35th Street,74014,36.0963189,-95.7465772
4401,North 34th Street,74014,36.0952820,-95.7469078
20392,East 50th Place,74014,36.0903844,-95.7503020
4313,North 33rd Street,74014,36.0946705,-95.7475646
4303,North 33rd Court,74014,36.0943976,-95.7484400
20207,East 49th Street,74014,36.0943341,-95.7516552
4602,North 36th Place,74014,36.0972635,-95.7449220
20210,East 47th Street,74014,36.0973663,-95.7522265
4917,South 202nd East Avenue,74014,36.0939039,-95.7517723
20417,East 42nd Place,74014,36.1025597,-95.7491018
4429,North 34th Street,74014,36.0960237,-95.7475341
4614,North 36th Place,74014,36.0976712,-95.7448872
3424,East Vail Street,74014,36.0961221,-95.7476951
3500,East Vail Street,74014,36.0964314,-95.7470557
5028,South 204th East Avenue,74014,36.0917882,-95.7504563
20416,East 50th Court,74014,36.0921595,-95.7497855
5010,South 202nd East Avenue,74014,36.0915559,-95.7525813
4302,North 33rd Court,74014,36.0941999,-95.7488818
20417,East 44th Street,74014,36.1001170,-95.7491018
3404,East Vail Street,74014,36.0956335,-95.7488000
20416,East 43rd Street,74014,36.1014527,-95.7490932
20797,East 45th Street,74014,36.0992534,-95.7447241
3307,East Trenton Street,74014,36.0938264,-95.7493168
20416,East 42nd Place,74014,36.1022479,-95.7491204
20215,East 50th Place,74014,36.0907008,-95.7521779
4320,North 34th Street,74014,36.0948532,-95.7469861
3306,East Trenton Street,74014,36.0941724,-95.7493100
4930,South 202nd East Avenue,74014,36.0934364,-95.7526161
20416,East 41st Place,74014,36.1037661,-95.7491059
20214,East 50th Place,74014,36.0903844,-95.7522160
4319,North 33rd Court,74014,36.0949743,-95.7488070
5071,South 203rd East Avenue,74014,36.0906788,-95.7508621
4408,North 33rd Street,74014,36.0954754,-95.7488000
20417,East 43rd Street,74014,36.1017118,-95.7490964
4312,North 33rd Street,74014,36.0945966,-95.7480213
20416,East 42nd Street,74014,36.1030474,-95.7491313
5028,South 203rd East Avenue,74014,36.0912720,-95.7513514
3433,East Trenton Street,74014,36.0945129,-95.7475293
4487,South 205th East Avenue,74014,36.0992439,-95.7487023
20417,East 43rd Place,74014,36.1009166,-95.7491073
20200,East 42nd Street,74014,36.1030165,-95.7522423
20207,East 47th Place,74014,36.0968472,-95.7522424
4778,South 202nd East Avenue,74014,36.0957710,-95.7526191
20201,East 42nd Place,74014,36.1025465,-95.7522174
4910,South 202nd East Avenue,74014,36.0941816,-95.7520637
4988,South 204th East Avenue,74014,36.0931039,-95.7507417
4606,North 36th Place,74014,36.0974357,-95.7449307
20201,East 44th Street,74014,36.1001039,-95.7522174
5037,South 204th East Avenue,74014,36.0915845,-95.7501076
4101,South 205th East Avenue,74014,36.1040444,-95.7486674
20416,East 43rd Place,74014,36.1006355,-95.7490932
20201,East 43rd Place,74014,36.1009034,-95.7522229
20200,East 42nd Place,74014,36.1022169,-95.7522315
4930,South 204th East Avenue,74014,36.0941408,-95.7502415
4420,North 34th Street,74014,36.0957109,-95.7478256
4989,South 204th East Avenue,74014,36.0928886,-95.7504263
3515,East Trenton Street,74014,36.0951204,-95.7464641
4100,South 202nd East Avenue,74014,36.1039215,-95.7526234
4409,North 33rd Street,74014,36.0955035,-95.7482562
20416,East 44th Street,74014,36.0998359,-95.7491041
20301,East 41st Place,74014,36.1040754,-95.7508771
20259,East 50th Place,74014,36.0906876,-95.7516450
5026,South 202nd East Avenue,74014,36.0911446,-95.7523334
20417,East 42nd Street,74014,36.1033790,-95.7490937
20501,East 41st Place,74014,36.1041569,-95.7487857
20211,East 45th Street,74014,36.0993307,-95.7521840
5072,South 204th East Avenue,74014,36.0906969,-95.7501599
4981,South 202nd East Avenue,74014,36.0923432,-95.7521986
4615,North 36th Place,74014,36.0976853,-95.7444827
20201,East 43rd Street,74014,36.1016986,-95.7522120
20200,East 44th Street,74014,36.0998050,-95.7522151
5070,South 203rd East Avenue,74014,36.0907139,-95.7512481
3717,East Woodbury Street,74014,36.0971369,-95.7445001
4905,South 204th East Avenue,74014,36.0947119,-95.7499044
20382,East 49th Street,74014,36.0945538,-95.7504155
20200,East 43rd Place,74014,36.1006046,-95.7522043
20200,East 41st Place,74014,36.1037352,-95.7522169
4424,North 35th Street,74014,36.0962451,-95.7470339
20200,East 43rd Street,74014,36.1014217,-95.7522043
4400,North 35th Street,74014,36.0955562,-95.7463858
20214,East 50th Court,74014,36.0911182,-95.7517701
5027,South 203rd East Avenue,74014,36.0914477,-95.7510143
4996,South 202nd East Avenue,74014,36.0922202,-95.7526292
3501,East Trenton Street,74014,36.0949095,-95.7468556
3711,East Woodbury Street,74014,36.0971264,-95.7447306
20354,East 49th Street,74014,36.0943824,-95.7507852
20417,East 50th Court,74014,36.0924890,-95.7498018
4403,North 35th Street,74014,36.0957425,-95.7460943
3716,East Vail Street,74014,36.0966599,-95.7444849
25695,East 71st Street South,74014,36.0612459,-95.6906013
25695,East 71st Street South,74014,36.0612601,-95.6912924
25695,East 71st Street South,74014,36.0612464,-95.6907657
732,West New Orleans Street,74011,36.0181648,-95.8008375
800,West Washington Street,74012,36.0323474,-95.7991389
1615,South Eucalyptus Avenue,74012,36.0381222,-95.8494285
2050,West Kenosha Street,74012,36.0613460,-95.8143837
6201,East Kenosha Street,74014,36.0597144,-95.7118388
2429,East Kenosha Street North,74012,36.0603327,-95.8201919
1921,South Elm Place,74012,36.0309410,-95.7970496
4900,East Commercial Street,74014,36.0516623,-95.7294420
4005,South Beech Avenue,74011,36.0133035,-95.8157629
2001,West Memphis Street,74012,36.0419090,-95.8135508
2311,West Kenosha Street,74012,36.0603844,-95.8172917
1045,North Redbud Avenue,74012,36.0629677,-95.8105689
1047,North Redbud Avenue,74012,36.0630781,-95.8105545
3806,South Elm Place,74011,36.0145727,-95.7989329
732,West New Orleans Street,74011,36.0186646,-95.7996418
732,West New Orleans Street,74011,36.0186825,-95.8005157
732,West New Orleans Street,74011,36.0186565,-95.8004258
732,West New Orleans Street,74011,36.0182685,-95.8008341
732,West New Orleans Street,74011,36.0186611,-95.7997845
732,West New Orleans Street,74011,36.0186603,-95.8001322
2500,West New Orleans Street,74011,36.0178200,-95.8182605
732,West New Orleans Street,74011,36.0186821,-95.7999747
732,West New Orleans Street,74011,36.0183505,-95.8008015
732,West New Orleans Street,74011,36.0184228,-95.8008390
1139,East Kenosha Street,74012,36.0599131,-95.7774956
2484,West New Orleans Street,74011,36.0184043,-95.8183409
1054,East Albany Street,74012,36.0761926,-95.7787094
723,North Aspen Avenue,74012,36.0593360,-95.8141610
1437,East Kenosha Street North,74012,36.0605525,-95.7731859
21281,East 47th Street South,74014,36.0956929,-95.7398017
874,East Hillside Drive,74012,36.0677914,-95.7813642
2001,South Elm Place,74012,36.0297426,-95.7966530
1809,West Woodbury Street,74012,36.0999100,-95.8095932
2804,North 22nd Street,74012,36.0799460,-95.7624598
2712,North 22nd Street,74012,36.0792194,-95.7625461
3013,North 22nd Street,74012,36.0823967,-95.7623524
3005,North 22nd Street,74012,36.0820776,-95.7623480
2825,North 22nd Street,74012,36.0807237,-95.7623511
2815,North 22nd Street,74012,36.0803670,-95.7623488
2713,North 22nd Street,74012,36.0792208,-95.7622633
2010,West Huntsville Court,74011,35.9766695,-95.8140917
3312,South Elm Place,74012,36.0186513,-95.7982462
3601,South Elm Place,74011,36.0169427,-95.7960938
3208,South Elm Place,74012,36.0194938,-95.7979406
3612,South Elm Place,74011,36.0164012,-95.7989298
1420,East Hillside Drive,74012,36.0672922,-95.7742156
1410,East Hillside Drive,74012,36.0672218,-95.7744924
1332,East Hillside Drive,74012,36.0657334,-95.7747958
3708,South Elm Place,74011,36.0161300,-95.7989747
1904,West Iola Street,74012,36.0590452,-95.8100176
1615,South Eucalyptus Avenue,74012,36.0380181,-95.8494808
10815,East 101st Street South,74011,36.0179527,-95.7759038
1169,South Aspen Avenue,74012,36.0442052,-95.8143431
1228,East Hillside Drive,74012,36.0653571,-95.7759550
2039,West Houston Street,74012,36.0458738,-95.8142765
2001,West Houston Street,74012,36.0460919,-95.8134110
3724,South Elm Place,74011,36.0157945,-95.7990015
3812,South Elm Place,74011,36.0144878,-95.7993850
3786,South Elm Place,74011,36.0154519,-95.7990150
3313,South Elm Place,74012,36.0188939,-95.7968681
1656,North 9th Street,74012,36.0684890,-95.7810391
1660,North 9th Street,74012,36.0685566,-95.7810419
1708,North 9th Street,74012,36.0687527,-95.7810377
1704,North 9th Street,74012,36.0686626,-95.7810405
1710,North 9th Street,74012,36.0688722,-95.7809792
1716,North 9th Street,74012,36.0689094,-95.7808091
1718,North 9th Street,74012,36.0689060,-95.7806906
1724,North 9th Street,74012,36.0689139,-95.7805400
1728,North 9th Street,74012,36.0690007,-95.7803657
2001,West Kenosha Street,74012,36.0604884,-95.8133922
2013,West Kenosha Street,74012,36.0604714,-95.8136451
2005,West Kenosha Street,74012,36.0605071,-95.8135378
745,North Aspen Avenue,74012,36.0594880,-95.8139160
725,North Aspen Avenue,74012,36.0593981,-95.8140542
721,North Aspen Avenue,74012,36.0592994,-95.8142875
709,North Aspen Avenue,74012,36.0592625,-95.8145732
701,North Aspen Avenue,74012,36.0592972,-95.8148092
806,North Sycamore Avenue,74012,36.0596940,-95.8134319
808,North Sycamore Avenue,74012,36.0598263,-95.8133850
824,North Sycamore Avenue,74012,36.0600030,-95.8134010
828,North Sycamore Avenue,74012,36.0601819,-95.8134171
22722,East 78th Street South,74014,36.0503351,-95.7233244
6201,East Galveston Street,74014,36.0468682,-95.7117560
421,South 62nd Street,74014,36.0487635,-95.7109617
425,South 62nd Street,74014,36.0485121,-95.7110842
501,South 62nd Street,74014,36.0482438,-95.7111406
505,South 62nd Street,74014,36.0480275,-95.7111164
513,South 62nd Street,74014,36.0475508,-95.7111067
517,South 62nd Street,74014,36.0473228,-95.7111583
516,South 62nd Street,74014,36.0473476,-95.7117302
512,South 62nd Street,74014,36.0475990,-95.7117254
508,South 62nd Street,74014,36.0478230,-95.7116996
504,South 62nd Street,74014,36.0480536,-95.7117093
500,South 62nd Street,74014,36.0482815,-95.7117189
420,South 62nd Street,74014,36.0485355,-95.7116754
416,South 62nd Street,74014,36.0488325,-95.7116190
412,South 62nd Street,74014,36.0490461,-95.7114434
408,South 62nd Street,74014,36.0492793,-95.7112211
404,South 62nd Street,74014,36.0493900,-95.7110294
417,South 62nd Street,74014,36.0489693,-95.7107410
413,South 62nd Street,74014,36.0491230,-95.7105847
6212,East El Paso Street,74014,36.0499514,-95.7116239
6217,East El Paso Street,74014,36.0496336,-95.7112888
6213,East El Paso Street,74014,36.0495190,-95.7115014
6209,East El Paso Street,74014,36.0493601,-95.7117463
7827,South 225th East Avenue,74014,36.0493245,-95.7250035
1814,South Main Street,74012,36.0325228,-95.7913267
307,West Washington Street,74012,36.0315954,-95.7935943
205,West Kenosha Street,74012,36.0606043,-95.7924061
205,West Kenosha Street,74012,36.0606040,-95.7923073
7601,South 1st Street,74011,35.9812766,-95.7891773
704,East Albuquerque Street,74011,35.9825056,-95.7815337
708,East Albuquerque Street,74011,35.9824166,-95.7809892
705,East Albuquerque Street,74011,35.9822354,-95.7819387
709,East Albuquerque Street,74011,35.9820846,-95.7815860
800,East Albuquerque Street,74011,35.9821681,-95.7809208
804,East Albuquerque Street,74011,35.9819044,-95.7809302
805,East Baton Rouge Street,74011,35.9815929,-95.7809651
705,East Baton Rouge Street,74011,35.9814692,-95.7819240
24236,East Highway 51,74014,36.0185678,-95.7061167
24232,East Highway 51,74014,36.0186601,-95.7061456
24228,East Highway 51,74014,36.0187233,-95.7061434
24224,East Highway 51,74014,36.0187911,-95.7061432
24220,East Highway 51,74014,36.0188637,-95.7061432
24216,East Highway 51,74014,36.0189332,-95.7061435
24212,East Highway 51,74014,36.0190061,-95.7061418
24210,East Highway 51,74014,36.0190917,-95.7061784
24208,East Highway 51,74014,36.0191286,-95.7062951
24206,East Highway 51,74014,36.0190907,-95.7064050
24204,East Highway 51,74014,36.0190618,-95.7064971
24200,East Highway 51,74014,36.0190618,-95.7065950
24196,East Highway 51,74014,36.0190644,-95.7066698
24192,East Highway 51,74014,36.0190673,-95.7067666
24188,East Highway 51,74014,36.0190820,-95.7069321
820,South 11th Street,74012,36.0442059,-95.7780518
832,South 11th Street,74012,36.0442059,-95.7777702
828,South 11th Street,74012,36.0442059,-95.7778618
13106,South 194th East Avenue,74014,35.9731986,-95.7606102
13102,South 194th East Avenue,74014,35.9735420,-95.7605868
6406,South Date Place,74011,35.9886831,-95.7955450
500,East Kenosha Street,74012,36.0614886,-95.7844777
8210,South Elm Place,74011,35.9746316,-95.7978000
7850,South Elm Place,74011,35.9753160,-95.7979124
7850,South Elm Place,74011,35.9750726,-95.7979141
8216,South Elm Place,74011,35.9744682,-95.7977907
8206,South Elm Place,74011,35.9747061,-95.7978009
1003,West Concord Circle,74012,36.0771875,-95.8145328
1007,West Concord Circle,74012,36.0772695,-95.8145349
2601,North Aspen Avenue,74012,36.0775195,-95.8145948
2405,North Aspen Avenue,74012,36.0757910,-95.8147970
732,West New Orleans Street,74011,36.0186675,-95.7993066
845,East Kenosha Street,74012,36.0605472,-95.7810047
1750,South Aspen Avenue,74012-5104,36.0343402,-95.8168262
1750,South Aspen Avenue,74012-5104,36.0341906,-95.8168262
1750,South Aspen Avenue,74012-5104,36.0340561,-95.8168262
1750,South Aspen Avenue,74012,36.0338674,-95.8168316
1232,East Kenosha Street North,74012,36.0620080,-95.7755536
21914,East 71st Street South,74014,36.0612942,-95.7319758
21912,East 71st Street South,74014,36.0612921,-95.7320605
21910,East 71st Street South,74014,36.0612166,-95.7321556
21910,East 71st Street South,74014,36.0612018,-95.7322377
21910,East 71st Street South,74014,36.0612116,-95.7323030
21910,East 71st Street South,74014,36.0612276,-95.7323535
21910,East 71st Street South,74014,36.0612046,-95.7324971
5150,East Kenosha Street North,74014,36.0612454,-95.7263690
1520,East Hillside Drive,74012,36.0672151,-95.7737604
1524,East Hillside Drive,74012,36.0672039,-95.7735285
1336,East Hillside Drive,74012,36.0656133,-95.7747991
1338,East Hillside Drive,74012,36.0655606,-95.7747938
1340,East Hillside Drive,74012,36.0655114,-95.7747925
1334,East Hillside Drive,74012,36.0656857,-95.7747951
1342,East Hillside Drive,74012,36.0654579,-95.7751509
1344,East Hillside Drive,74012,36.0655595,-95.7751902
1348,East Hillside Drive,74012,36.0656828,-95.7751922
1348,East Hillside Drive,74012,36.0656505,-95.7751892
1346,East Hillside Drive,74012,36.0656102,-95.7751813
1344,East Hillside Drive,74012,36.0655212,-95.7751906
1105,East Kenosha Street,74012,36.0597523,-95.7782007
1205,East Kenosha Street,74012,36.0603305,-95.7771182
1201,East Kenosha Street,74012,36.0601309,-95.7773587
1030,East Lansing Street,74012,36.0636451,-95.7787180
1022,East Lansing Street,74012,36.0637612,-95.7790022
935,East Kenosha Street,74012,36.0605275,-95.7803106
945,East Kenosha Street,74012,36.0602488,-95.7802522
107,South Ash Avenue,74012,36.0520504,-95.7919293
119,West Broadway Avenue,74012,36.0520806,-95.7918350
117,West Broadway Avenue,74012,36.0520815,-95.7917499
111,West Broadway Avenue,74012,36.0520798,-95.7915615
210,South Main Street,74012,36.0509725,-95.7910121
202,South Main Street,74012,36.0512401,-95.7910277
202,South Main Street,74012,36.0512329,-95.7911994
202,South Main Street,74012,36.0512082,-95.7910978
206,South Main Street,74012,36.0511130,-95.7910107
210,South Main Street,74012,36.0510367,-95.7910134
212,South Main Street,74012,36.0508239,-95.7910214
214,South Main Street,74012,36.0509023,-95.7910421
123,North Main Street,74012,36.0531898,-95.7905460
405,North Main Street,74012,36.0556877,-95.7903781
305,North Main Street,74012,36.0552922,-95.7905245
305,North Main Street,74012,36.0551806,-95.7905258
305,North Main Street,74012-2397,36.0550862,-95.7905272
305,North Main Street,74012,36.0548835,-95.7903233
305,North Main Street,74012,36.0549540,-95.7903247
300,North Main Street,74012,36.0546656,-95.7909979
300,North Main Street,74012,36.0545636,-95.7911106
300,North Main Street,74012,36.0546067,-95.7910061
300,North Main Street,74012,36.0545627,-95.7910097
415,North Main Street,74012,36.0560151,-95.7903645
419,North Main Street,74012,36.0560662,-95.7903654
425,North Main Street,74012,36.0561215,-95.7903654
411,North Main Street,74012,36.0559226,-95.7903524
409,North Main Street,74012,36.0558568,-95.7903515
521,North Main Street,74012,36.0572606,-95.7904852
517,North Main Street,74012,36.0571912,-95.7904847
513,North Main Street,74012,36.0570834,-95.7904838
507,North Main Street,74012,36.0569776,-95.7904829
112,West Dallas Street,74012,36.0504923,-95.7915893
114,West Dallas Street,74012,36.0504923,-95.7916228
116,West Dallas Street,74012,36.0504912,-95.7917878
122,West Dallas Street,74012,36.0504890,-95.7919461
5501,South Aspen Avenue,74011,35.9949402,-95.8147195
4008,South Elm Place,74011,36.0135975,-95.7978724
116,East Dallas Street,74012,36.0504623,-95.7899148
319,South Main Street,74012,36.0495703,-95.7902022
315,South Main Street,74012,36.0497011,-95.7902001
311,South Main Street,74012,36.0497975,-95.7902011
309,South Main Street,74012,36.0498990,-95.7901958
307,South Main Street,74012,36.0500470,-95.7901894
323,South Main Street,74012,36.0494945,-95.7905662
110,West Commercial Street,74012,36.0514935,-95.7912905
109,West Commercial Street,74012,36.0512672,-95.7913953
107,West Commercial Street,74012,36.0512658,-95.7913285
700,North Laurel Avenue,74012,36.0584891,-95.8302888
704,North Laurel Avenue,74012,36.0586268,-95.8304017
708,North Laurel Avenue,74012,36.0587885,-95.8304932
712,North Laurel Avenue,74012,36.0589451,-95.8305613
716,North Laurel Avenue,74012,36.0591517,-95.8305996
720,North Laurel Avenue,74012,36.0593255,-95.8306039
800,North Laurel Avenue,74012,36.0594907,-95.8306082
804,North Laurel Avenue,74012,36.0596542,-95.8306337
808,North Laurel Avenue,74012,36.0598590,-95.8306358
812,North Laurel Avenue,74012,36.0600104,-95.8304229
813,North Laurel Avenue,74012,36.0600380,-95.8301888
809,North Laurel Avenue,74012,36.0598934,-95.8299780
805,North Laurel Avenue,74012,36.0596525,-95.8299738
801,North Laurel Avenue,74012,36.0595148,-95.8300483
717,North Laurel Avenue,74012,36.0593152,-95.8300312
713,North Laurel Avenue,74012,36.0591551,-95.8300163
709,North Laurel Avenue,74012,36.0589778,-95.8299865
705,North Laurel Avenue,74012,36.0588298,-95.8298673
701,North Laurel Avenue,74012,36.0586629,-95.8297971
1503,South Main Street,74012,36.0403251,-95.7903321
1515,South Main Street,74012,36.0400841,-95.7903321
1535,South Main Street,74012,36.0396159,-95.7903363
1517,South Main Street,74012,36.0400200,-95.7903358
1521,South Main Street,74012,36.0398704,-95.7903283
1525,South Main Street,74012,36.0398257,-95.7903002
1531,South Main Street,74012,36.0396989,-95.7903409
1417,North 53rd Street,74014,36.0658223,-95.7243333
5407,East Princeton Street,74014,36.0657785,-95.7237149
5412,East Princeton Street,74014,36.0662429,-95.7223091
5408,East Princeton Street,74014,36.0662812,-95.7235426
5400,East Princeton Street,74014,36.0664587,-95.7248436
5306,East Princeton Street,74014,36.0661473,-95.7250768
931,East Kenosha Street,74012,36.0605285,-95.7804490
925,East Kenosha Street,74012,36.0605288,-95.7805230
921,East Kenosha Street,74012,36.0605274,-95.7805836
915,East Kenosha Street,74012,36.0605286,-95.7806503
911,East Kenosha Street,74012,36.0605305,-95.7807410
835,East Kenosha Street,74012,36.0605492,-95.7810577
831,East Kenosha Street,74012,36.0605473,-95.7811479
825,East Kenosha Street,74012,36.0605482,-95.7812782
715,East Kenosha Street,74012,36.0605563,-95.7820579
815,East Kenosha Street,74012,36.0605475,-95.7814076
735,East Kenosha Street,74012,36.0605636,-95.7818565
732,West New Orleans Street,74011,36.0180391,-95.8008295
732,West New Orleans Street,74011,36.0185385,-95.8007454
732,West New Orleans Street,74011,36.0186242,-95.8006364
732,West New Orleans Street,74011,36.0186861,-95.8003105
1302,North Elm Place,74012,36.0675803,-95.7978570
25695,East 71st Street South,74014,36.0612469,-95.6911256
25695,East 71st Street South,74014,36.0612461,-95.6910000
25695,East 71st Street South,74014,36.0612452,-95.6908616
527,West Washington Street,74012,36.0310926,-95.7964653
2326,West New Orleans Street,74011,36.0185960,-95.8176389
1556,North 9th Street,74012,36.0671188,-95.7802486
2409,West Kenosha Street,74012,36.0595287,-95.8195529
4850,West Kenosha Street,74012,36.0613438,-95.8493648
4942,West Kenosha Street,74012,36.0626086,-95.8497586
6436,South Elm Place,74011,35.9895206,-95.8002386
1914,West Norfolk Drive,74011,35.9964319,-95.8134495
5605,South Aspen Avenue,74011,35.9942618,-95.8145809
1815,West Norfolk Drive,74011,35.9945208,-95.8124437
8001,South Garnett Road East,74012,36.0468219,-95.8505175
15921,East 131st Street South,74011,35.9735097,-95.7993591
15919,East 131st Street South,74011,35.9735193,-95.7996568
15917,East 131st Street South,74011,35.9735278,-95.7999754
15915,East 131st Street South,74011,35.9734949,-95.8003256
15913,East 131st Street South,74011,35.9734057,-95.8006456
15911,East 131st Street South,74011,35.9732752,-95.8010206
15909,East 131st Street South,74011,35.9731966,-95.8013131
15907,East 131st Street South,74011,35.9732210,-95.8016422
15905,East 131st Street South,74011,35.9734545,-95.8015518
15903,East 131st Street South,74011,35.9735734,-95.8012855
15901,East 131st Street South,74011,35.9735904,-95.8007977
1171,North Birch Avenue,74012,36.0634154,-95.7932033
1161,North Birch Avenue,74012,36.0633078,-95.7932038
1151,North Birch Avenue,74012,36.0632002,-95.7932042
1141,North Birch Avenue,74012,36.0630926,-95.7932047
1131,North Birch Avenue,74012,36.0629850,-95.7932052
1121,North Birch Avenue,74012,36.0628774,-95.7932057
1111,North Birch Avenue,74012,36.0627698,-95.7932062
1101,North Birch Avenue,74012,36.0625791,-95.7932020
1091,North Birch Avenue,74012,36.0624855,-95.7932010
1081,North Birch Avenue,74012,36.0623920,-95.7932000
1071,North Birch Avenue,74012,36.0622984,-95.7931990
1061,North Birch Avenue,74012,36.0622048,-95.7931980
1070,North Birch Avenue,74012,36.0620298,-95.7938249
1036,North Birch Avenue,74012,36.0617441,-95.7939705
1052,North Birch Avenue,74012,36.0617441,-95.7944056
1040,North Birch Avenue,74012,36.0617441,-95.7940784
1032,North Birch Avenue,74012,36.0617441,-95.7938893
1048,North Birch Avenue,74012,36.0617441,-95.7942326
1060,North Birch Avenue,74012,36.0617441,-95.7945746
821,East Hillside Drive,74012,36.0665201,-95.7823059
825,East Hillside Drive,74012,36.0665204,-95.7818678
862,East Hillside Drive,74012,36.0677917,-95.7816061
866,East Hillside Drive,74012,36.0677916,-95.7814945
870,East Hillside Drive,74012,36.0677915,-95.7814387
858,East Hillside Drive,74012,36.0677918,-95.7816620
854,East Hillside Drive,74012,36.0677919,-95.7817364
1168,North 38th Street,74014,36.0628105,-95.7432561
1164,North 38th Street,74014,36.0627467,-95.7432561
1160,North 38th Street,74014,36.0626828,-95.7432561
1158,North 38th Street,74014,36.0626189,-95.7432561
1156,North 38th Street,74014,36.0625551,-95.7432561
1152,North 38th Street,74014,36.0624912,-95.7432561
1148,North 38th Street,74014,36.0624274,-95.7432561
1146,North 38th Street,74014,36.0623635,-95.7432561
1144,North 38th Street,74014,36.0622997,-95.7432561
938,East College Street,74012,36.0541302,-95.7786441
940,East College Street,74012,36.0541305,-95.7787497
920,East College Street,74012,36.0543185,-95.7786909
922,East College Street,74012,36.0543185,-95.7786781
926,East College Street,74012,36.0543182,-95.7785590
924,East College Street,74012,36.0543183,-95.7785702
918,East College Street,74012,36.0543187,-95.7787979
916,East College Street,74012,36.0543187,-95.7788091
936,East College Street,74012,36.0540785,-95.7785846
934,East College Street,74012,36.0540915,-95.7785845
932,East College Street,74012,36.0541805,-95.7785842
930,East College Street,74012,36.0541945,-95.7785842
928,East College Street,74012,36.0542827,-95.7785839
914,East College Street,74012,36.0542843,-95.7788087
912,East College Street,74012,36.0541961,-95.7788090
910,East College Street,74012,36.0541821,-95.7788090
908,East College Street,74012,36.0540930,-95.7788093
906,East College Street,74012,36.0540800,-95.7788094
105,South 9th Street,74012,36.0517252,-95.7791746
105,South 9th Street,74012,36.0518293,-95.7791778
1051,East Lansing Street,74012,36.0627163,-95.7789883
804,South 9th Street,74012,36.0443825,-95.7800393
804,South 9th Street,74012,36.0444538,-95.7800392
804,South 9th Street,74012,36.0445251,-95.7800392
804,South 9th Street,74012,36.0445964,-95.7800391
804,South 9th Street,74012,36.0446677,-95.7800391
800,South 9th Street,74012,36.0450242,-95.7800388
800,South 9th Street,74012,36.0449529,-95.7800388
800,South 9th Street,74012,36.0448816,-95.7800389
800,South 9th Street,74012,36.0448103,-95.7800389
800,South 9th Street,74012,36.0447390,-95.7800390
701,South 11th Street,74012,36.0461301,-95.7771510
1103,East Houston Street,74012,36.0462082,-95.7770035
905,South 9th Street,74012,36.0435981,-95.7791763
905,South 9th Street,74012,36.0437402,-95.7791756
905,South 9th Street,74012,36.0435713,-95.7791764
901,South 9th Street,74012,36.0438603,-95.7791750
905,South 9th Street,74012,36.0437125,-95.7791758
836,South 11th Street,74012,36.0441436,-95.7776532
824,South 11th Street,74012,36.0442059,-95.7779526
1137,East Kenosha Street,74012,36.0598469,-95.7776568
1005,East Kenosha Street,74012,36.0597531,-95.7787595
1009,East Kenosha Street,74012,36.0597527,-95.7786892
1017,East Kenosha Street,74012,36.0597523,-95.7786243
1021,East Kenosha Street,74012,36.0597519,-95.7785541
1025,East Kenosha Street,74012,36.0597514,-95.7784817
1033,East Kenosha Street,74012,36.0597510,-95.7784178
1101,East Kenosha Street,74012,36.0597506,-95.7783423
1105,East Kenosha Street,74012,36.0597514,-95.7779612
1115,East Kenosha Street,74012,36.0597519,-95.7778502
1123,East Kenosha Street,74012,36.0597661,-95.7777738
305,North Main Street,74012,36.0552923,-95.7900951
305,North Main Street,74012,36.0552970,-95.7901576
305,North Main Street,74012,36.0552957,-95.7902294
305,North Main Street,74012,36.0545506,-95.7905325
305,North Main Street,74012,36.0546124,-95.7905379
305,North Main Street,74012,36.0547512,-95.7905459
1205,East Kenosha Street,74012,36.0603056,-95.7771607
1101,East Kenosha Street,74012,36.0617416,-95.7784237
1101,East Kenosha Street,74012,36.0618502,-95.7784222
1101,East Kenosha Street,74012,36.0617959,-95.7784230
1226,East Kenosha Street North,74012,36.0620097,-95.7756634
1224,East Kenosha Street North,74012,36.0620109,-95.7757437
1218,East Kenosha Street North,74012,36.0620120,-95.7758156
1216,East Kenosha Street North,74012,36.0620131,-95.7758866
1212,East Kenosha Street North,74012,36.0620143,-95.7759668
1210,East Kenosha Street North,74012,36.0620158,-95.7760656
1208,East Kenosha Street North,74012,36.0620174,-95.7761670
1206,East Kenosha Street North,74012,36.0620190,-95.7762734
1600,South 6th Street,74012,36.0389944,-95.7826234
1601,South 6th Place,74012,36.0389910,-95.7824084
1605,South 5th Place,74012,36.0389411,-95.7842115
1601,South 5th Place,74012,36.0389221,-95.7844840
8409,South Doewood Circle,74011,35.9716653,-95.8090029
8405,South Doewood Circle,74011,35.9719522,-95.8092506
8410,South Doewood Circle,74011,35.9718638,-95.8096215
9665,South 193rd East Avenue,74012,36.0221300,-95.7610819
3151,South 23rd Street,74012,36.0225942,-95.7610765
18606,East 96th Street South,74012,36.0234670,-95.7701475
1605,South Main Street,74012,36.0385594,-95.7902355
1603,South Main Street,74012,36.0387565,-95.7902339
1623,South Main Street,74012,36.0382841,-95.7902375
1619,South Main Street,74012,36.0382995,-95.7902374
1519,South Main Street,74012,36.0399442,-95.7903342
1513,South Main Street,74012,36.0401778,-95.7903029
1511,South Main Street,74012,36.0402061,-95.7903025
1601,South Main Street,74012,36.0388244,-95.7902334
1601,South Main Street,74012,36.0387762,-95.7902338
1615,South Main Street,74012,36.0383648,-95.7902369
1631,South Main Street,74012,36.0382145,-95.7902380
1639,South Main Street,74012,36.0378940,-95.7902374
1131,South Aspen Avenue,74012-4859,36.0442093,-95.8135480
2409,West Kenosha Street,74012,36.0592779,-95.8193029
1230,East Hillside Drive,74012,36.0653675,-95.7758504
1226,East Hillside Drive,74012,36.0653612,-95.7760647
3701,South Elm Place,74011,36.0153382,-95.7961112
3681,South Elm Place,74011,36.0159354,-95.7961027
3671,South Elm Place,74011,36.0161883,-95.7961044
3661,South Elm Place,74011,36.0163085,-95.7961044
3651,South Elm Place,74011,36.0164016,-95.7961413
3631,South Elm Place,74011,36.0166261,-95.7961438
200,East New Orleans Street,74012,36.0177695,-95.7880595
208,East New Orleans Street,74012,36.0184442,-95.7866272
490,East New Orleans Street,74012,36.0181339,-95.7843179
500,East New Orleans Street,74012,36.0182055,-95.7837251
504,East New Orleans Street,74012,36.0180189,-95.7830143
508,East New Orleans Street,74012,36.0179799,-95.7827273
710,East New Orleans Street,74012,36.0185635,-95.7824242
1023,East Lansing Street,74012,36.0629320,-95.7787015
1077,East Lansing Street,74012,36.0628545,-95.7790261
1069,East Lansing Street,74012,36.0628043,-95.7790214
1049,East Lansing Street,74012,36.0626692,-95.7787722
1045,East Lansing Street,74012,36.0626675,-95.7787039
404,South Forest Ridge Boulevard,74014,36.0485893,-95.7047367
6904,East Forest Ridge Boulevard,74014,36.0497119,-95.7044829
6908,East Forest Ridge Boulevard,74014,36.0495206,-95.7042126
6912,East Forest Ridge Boulevard,74014,36.0492255,-95.7040571
401,South Forest Ridge Boulevard,74014,36.0489359,-95.7040098
405,South Forest Ridge Boulevard,74014,36.0485452,-95.7041788
409,South Forest Ridge Boulevard,74014,36.0483157,-95.7041653
501,South Forest Ridge Boulevard,74014,36.0480233,-95.7040808
505,South Forest Ridge Boulevard,74014,36.0478129,-95.7039186
7115,East Jackson Place,74014,36.0434179,-95.7027662
7107,East Jackson Place,74014,36.0435490,-95.7029926
7103,East Jackson Place,74014,36.0437102,-95.7031514
912,South 71st Street,74014,36.0439657,-95.7032799
1300,South 71st Street,74014,36.0399223,-95.7018604
1220,South 71st Street,74014,36.0399912,-95.7022138
1216,South 71st Street,74014,36.0402528,-95.7022522
8050,Lariat Circle,74014,36.0472380,-95.6898238
7945,Lariat Circle,74014,36.0488626,-95.6893650
3308,South Elm Place,74012,36.0187782,-95.7982459
3304,South Elm Place,74012,36.0189052,-95.7982455
3300,South Elm Place,74012,36.0190321,-95.7982452
804,West Los Angeles Street,74011,35.9980200,-95.7986288
808,West Los Angeles Street,74011,35.9982141,-95.7986863
812,West Los Angeles Street,74011,35.9983303,-95.7989127
900,West Los Angeles Street,74011,35.9982414,-95.7992185
904,West Los Angeles Street,74011,35.9980254,-95.7993740
908,West Inglewood Street,74011,35.9991141,-95.7999716
3357,South Elm Place,74012,36.0178988,-95.7955425
3353,South Elm Place,74012,36.0179832,-95.7955432
3345,South Elm Place,74012,36.0180633,-95.7955440
3341,South Elm Place,74012,36.0181747,-95.7955450
3333,South Elm Place,74012,36.0183456,-95.7955466
3329,South Elm Place,74012,36.0184050,-95.7955471
3329,South Elm Place,74012,36.0184989,-95.7955480
3329,South Elm Place,74012,36.0185919,-95.7955488
3311,South Elm Place,74012,36.0190006,-95.7969175
3200,South Elm Place,74012,36.0199466,-95.7978381
8001,South Garnett Road East,74012,36.0468327,-95.8501192
8100,South State Highway 51,74014,36.0456256,-95.7520689
1701,South Main Street,74012,36.0351756,-95.7898105
2801,East Kenosha Street,74014-9998,36.0603328,-95.7561226
1651,East Omaha Street,74012,36.0842374,-95.7706833
101,Bass Pro Drive,74012,36.0704967,-95.7923323
601,East Kenosha Street,74012,36.0604153,-95.7836110
3000,North Hemlock Circle,74012,36.0815476,-95.8224134
22151,East 91st Street South,74014,36.0342144,-95.7294515
3301,South Elm Place,74012,36.0187625,-95.7958517
620,West New Orleans Street,74012,36.0178228,-95.7961897
2720,North Hemlock Court,74012,36.0792499,-95.8207415
3550,West Tacoma Street,74012,36.0710563,-95.8320289
1919,North Willow Avenue,74012,36.0711626,-95.8381926
3502,West Kenosha Street,74012,36.0612780,-95.8325096
3502,West Kenosha Street,74012,36.0615803,-95.8325294
7325,East Knoxville Street,74014,36.0427019,-95.6997472
3000,North Hemlock Circle,74012,36.0811163,-95.8218818
3000,North Hemlock Circle,74012,36.0808573,-95.8220213
800,West Washington Street,74012,36.0323413,-95.7991522
800,West Washington Street,74012,36.0322936,-95.7991360
219,East Fort Worth Street,74012,36.0481679,-95.7886199
1615,West Vail Place,74012,36.0984986,-95.8085510
1615,West Vail Place,74012,36.0984436,-95.8085004
3820,West El Paso Street,74012,36.0498688,-95.8361942
3820,West El Paso Street,74012,36.0498821,-95.8362098
6501,South Garnett Road,74012,36.0668063,-95.8501288
6501,South Garnett Road,74012,36.0665680,-95.8486912
1770,South Elm Place,74012,36.0333428,-95.7991914
2525,North Aspen,74012-1153,36.0767027,-95.8146172
3900,East Hillside Drive,74014,36.0670384,-95.7421844
1900,East Hillside Drive,74012,36.0651380,-95.7675872
1150,East Hillside Drive,74012-2385,36.0671614,-95.7766032
2600,North Aspen Avenue,74012,36.0776761,-95.8164437
2628,North Hemlock Circle,74102,36.0777267,-95.8224976
2000,West Tacoma Street,74012,36.0717763,-95.8142325
1700,West Albany Street,74012,36.0759954,-95.8108269
1801,East Hilldale Street,74012,36.0634483,-95.7705766
905,South Narcissus Avenue,74012,36.0447596,-95.8066616
2021,South Elm Place,74012,36.0285100,-95.7971475
1100,East Kenosha Street,74012,36.0623534,-95.7773131
600,North 9th Street,74012,36.0580067,-95.7821881
2341,East Kenosha Street,74012,36.0605107,-95.7638039
2300,West Albany Street,74012,36.0758763,-95.8168555
1800,West Albany Drive,74012,36.0789714,-95.8106709
4951,West Washington Street,74012,36.0313708,-95.8504518
3621,South Elm Place,74011,36.0168031,-95.7966574
1150,North 9th Street,74012,36.0638803,-95.7803764
1021,North 9th Street,74012,36.0621254,-95.7789984
1034,East Lansing Street,74012,36.0636968,-95.7784551
501,East Stonewood Drive,74012,36.0731721,-95.7967867
301,East Tucson Street,74011,35.9864859,-95.7853363
6801,South 3rd Street,74011,35.9864848,-95.7874013
301,West New Orleans Street,74011,36.0155714,-95.7906908
6515,South Garnett Road,74012,36.0654175,-95.8494428
3100,West New Orleans Street,74012,36.0192739,-95.8272490
3000,West New Orleans Street,74012,36.0192750,-95.8254273
3201,North 9th Street,74012,36.0841603,-95.7720391
3102,West Kenosha Street,74012-8967,36.0614610,-95.8293113
4700,West Houston Street,74012,36.0469283,-95.8482767
3600,West Washington Street,74012,36.0325453,-95.8339419
8005,South Garnett Road East,74012,36.0469801,-95.8501192
9800,South 219th East Avenue,74014,36.0224662,-95.7338609
9750,South 219th East Avenue,74014,36.0229927,-95.7338812
9740,South 219th East Avenue,74014,36.0234944,-95.7338804
9840,South 219th East Avenue,74014,36.0215711,-95.7338513
9818,South 219th East Avenue,74014,36.0220205,-95.7333212
9836,South 219th East Avenue,74014,36.0215983,-95.7333090
9841,South 219th East Avenue,74014,36.0214389,-95.7319950
9805,South 219th East Avenue,74014,36.0222653,-95.7320170
2800,West Florence,74011,36.0042032,-95.8216772
4704,South Elm Place,74011,36.0033627,-95.7980510
3800,South Elm Place,74011,36.0155443,-95.7979780
3900,South Elm Place,74011,36.0141798,-95.7980179
701,West New Orleans Street,74011,36.0169930,-95.7979703
3202,South Juniper Avenue,74012,36.0178299,-95.8023994
4008,South Elm Place,74011,36.0135859,-95.7980700
3901,South Elm Place,74011,36.0147944,-95.7968681
3325,South Elm Place,74012,36.0177855,-95.7967958
7200,East Quincy Place,74014,36.0377174,-95.7008546
6800,East Quincy Place,74014,36.0374766,-95.7049995
1450,East Kenosha Street,74012,36.0614671,-95.7736679
901,North 9th Street East,74012,36.0596676,-95.7791017
1361,East Kenosha Street,74012,36.0605433,-95.7741506
1050,East Kenosha Street,74012,36.0615191,-95.7784685
1289,East Kenosha Street,74012,36.0604384,-95.7759167
1341,East Kenosha Street,74012,36.0605580,-95.7746820
1350,East Kenosha Street,74012,36.0615134,-95.7741639
950,East Kenosha Street,74012,36.0615765,-95.7803007
1250,East Kenosha Street,74012,36.0614643,-95.7758558
1130,East Lansing Street,74012,36.0632443,-95.7768276
1912,West Kenosha Street,74012,36.0614273,-95.8111750
2540,East Kenosha Street,74014,36.0613882,-95.7579435
2361,East Kenosha Street,74012,36.0605030,-95.7622749
2300,East Kenosha Street,74012,36.0622716,-95.7630441
1101,North 23rd Street,74014,36.0622933,-95.7611098
1041,East Kenosha Street,74012,36.0604118,-95.7783402
3301,North Elm Avenue,74012,36.0839401,-95.7930183
225,East Omaha Street,74012,36.0873266,-95.7921326
1000,West Boise Cicle,74012,36.0779986,-95.8011646
2530,North Elm Place,74012,36.0769934,-95.7980419
3151,North 9th Street,74012,36.0834822,-95.7789861
3201,North 9th Street,74012,36.0845882,-95.7785602
2201,North Elm Place,74012,36.0726427,-95.7965239
333,West Albany Street,74012,36.0732855,-95.7945786
215,East Hillside Drive,74012,36.0693654,-95.7894207
1250,East Albany Street,74012,36.0759550,-95.7781720
3751,North Aspen Avenue,74012,36.0893459,-95.8145278
3701,North Aspen Avenue,74012,36.0888378,-95.8146184
2750,N 7th Street,74012,36.0787657,-95.7833868
851,East Hillside Drive,74012,36.0670525,-95.7812296
1200,East Hillside Drive,74012,36.0654435,-95.7763612
1320,East Hillside Drive,74012,36.0652890,-95.7748736
1620,East Hillside Drive,74012,36.0660294,-95.7720434
451,West Albany Street,74012,36.0746371,-95.7962128
1300,East Albany Street,74012,36.0762129,-95.7757262
1301,East Hillside Drive,74012,36.0643708,-95.7751450
1948,South Lions Avenue,74012,36.0291299,-95.8047050
508,North Walnut Avenue,74012,36.0582617,-95.8141700
720,North Aspen Avenue,74012,36.0581920,-95.8158907
489,North Poplar Avenue,74012,36.0569433,-95.8084436
501,West Kenosha Street,74012,36.0603440,-95.7964028
830,North Elm Place,74012,36.0604556,-95.7982702
2301,West Kenosha Street,74012,36.0580357,-95.8174775
4000,West Florence Street,74147-7200,36.0047779,-95.8367397
6410,South Elm Place,74011,35.9900397,-95.7989730
6310,South Elm Place,74011,35.9917087,-95.8007664
6300,South Elm Place,74011,35.9918845,-95.7978815
714,North 14th Street,74012,36.0595944,-95.7743995
1100,East Lansing Street,74012,36.0633200,-95.7773880
1200,East Lansing Street,74012,36.0627532,-95.7755451
1800,West Albany Drive,74012,36.0801623,-95.8124229
302,North Elm Place,74012,36.0546736,-95.7985898
102,South Main Street,74012,36.0522681,-95.7911872
525,West Iola Street,74012,36.0589000,-95.7963184
718,Lynwood Lane,74011,35.9691187,-95.7914513
2150,West Concord Circle,74012-1457,36.0771673,-95.8138612
1700,West Albany Street,74012,36.0759475,-95.8106159
1600,West Tacoma Street,74012,36.0713824,-95.8092777
1801,North Juniper Avenue,74012,36.0708854,-95.8074915
2400,West Kenosha Street,74012,36.0618015,-95.8208413
900,North Aspen Avenue,74012-9565,36.0600547,-95.8158534
905,South 30th Street,74014,36.0436658,-95.7548000
2351,East Kenosha Street,74012-2055,36.0594326,-95.7631610
1101,North 20th Street,74012,36.0615291,-95.7648852
3301,West Houston Street,74012,36.0459883,-95.8291865
2400,North Aspen Avenue,74012,36.0762080,-95.8160598
1600,North Elm Place,74012-1703,36.0694311,-95.7983355
1812,West Queens Circle,74012,36.0705458,-95.7997535
800,West Queens Circle,74012,36.0711886,-95.8008193
1530,North Elm Place,74012,36.0683435,-95.7979584
624,West Kenosha Street,74012,36.0613860,-95.7970191
610,West Kenosha Street,74012,36.0613438,-95.7964233
200,South Main Street,74012,36.0511718,-95.7911979
210,South Main Street,74012,36.0509990,-95.7911194
216,South Main Street,74012,36.0506816,-95.7911888
201,South Main Street,74012,36.0512440,-95.7904535
205,South Main Street,74012,36.0511067,-95.7905348
227,South Main Street,74012,36.0504872,-95.7905372
111,East Commercial Street,74012,36.0512461,-95.7902207
303,South Main Street,74012,36.0499686,-95.7905064
302,South Main Street,74012,36.0501534,-95.7911449
400,South Main Street,74012,36.0492029,-95.7910845
102,North Main Street,74012,36.0526250,-95.7911873
112,North Main Street,74012,36.0529542,-95.7911876
101,North Main Street,74012,36.0525890,-95.7904788
115,North Main Street,74012,36.0531194,-95.7904143
123,North Main Street,74012,36.0532335,-95.7905038
708,West Kenosha Street,74012,36.0618544,-95.7994061
2201,West Detroit Street,74012,36.0538600,-95.8159962
200,West Albany Street,74012,36.0737827,-95.7928826
2211,South Aspen Avenue,74012,36.0306669,-95.8146261
2201,South Aspen Avenue,74012,36.0314262,-95.8145844
751,Hillside Drive,74012,36.0671821,-95.7834238
118,West Commercial Street,74012,36.0517858,-95.7918645
116,West Commercial Street,74012,36.0516849,-95.7916914
114,West Commercial Street,74012,36.0515591,-95.7916946
112,West Commercial Street,74012,36.0515599,-95.7915625
1713,South 13th Street,74012,36.0358377,-95.7732060
1609,South 13th Street,74012,36.0366106,-95.7732154
1605,South 13th Street,74012,36.0367931,-95.7732217
1601,South 13th Street,74012,36.0370105,-95.7732180
3800,East Hillside Drive,74014,36.0652927,-95.7432696
1640,West Tucson Street,74011,35.9888694,-95.8089401
502,West Kenosha Street,74012,36.0615231,-95.7957731
1900,West Detroit Street,74012,36.0550923,-95.8096239
3500,East Kenosha Street,74014,36.0668270,-95.7472254
2401,West Kenosha Street,74012,36.0603843,-95.8185170
1100,East Hillside Drive,74012,36.0677288,-95.7778994
1151,East Hillside Drive,74012,36.0666116,-95.7781061
7101,South 3rd Street,74011,35.9842367,-95.7866553
8300,South Oneta Road,74014,36.0420416,-95.7090206
2220,West Kenosha Street,74012,36.0613793,-95.8164536
304,Ashton Drive,74014,36.0557204,-95.6987703
701,North Cedar Avenue,74012,36.0585875,-95.7948755
850,East Kenosha Street,74012,36.0616089,-95.7812628
800,East Kenosha Street,74012,36.0614994,-95.7816543
4777,East Kenosha Street,74014,36.0600565,-95.7333165
1000,East Kenosha Street,74012,36.0616281,-95.7789318
1100,North 9th Street,74012,36.0620754,-95.7802195
1001,East Kenosha Street,74012,36.0604765,-95.7789688
7846,South Elm Place,74011,35.9755617,-95.7979377
8221,South Elm Place,74011,35.9743195,-95.7967158
1520,North 9th Street,74012,36.0664471,-95.7802952
3321,South Elm,74012,36.0182214,-95.7967603
4700,South Elm Place,74011,36.0045346,-95.7980501
4702,South Elm Place,74011,36.0038832,-95.7979865
4703,South Elm Place,74011,36.0041185,-95.7968886
1101,North 6th Street,74012,36.0628795,-95.7814379
700,East Kenosha Street,74012,36.0615988,-95.7824868
580,East Kenosha Street,74012,36.0614091,-95.7836765
600,East Kenosha Street,74012,36.0614852,-95.7833064
750,East Kenosha Street,74012,36.0615809,-95.7820581
222,South Main Street,74012,36.0506145,-95.7911671
1325,East Kenosha Street,74012,36.0605351,-95.7753318
804,South 11th Street,74012,36.0448646,-95.7778593
1601,South 10th Street,74012,36.0370615,-95.7771982
1116,East Quincy Street,74012,36.0372001,-95.7774578
1605,South 10th Street,74012,36.0368550,-95.7772399
1901,West Detroit Street,74012,36.0541426,-95.8095432
1904,West Iola Street,74012,36.0591662,-95.8097859
10675,South 193rd East Avenue,74014,36.0091978,-95.7609609
2300,West Norfolk Drive,74011,35.9959480,-95.8171154
423,North Main Street,74012,36.0561914,-95.7905005
1101,North Aspen Avenue,74012,36.0624703,-95.8148294
613,North Walnut Avenue,74012,36.0586698,-95.8129637
1612,West Honolulu Street,74012,36.0206790,-95.8097880
1817,West Hot Springs Street,74011,36.0002175,-95.8097260
4804,South Oak Avenue,74011,36.0024335,-95.8080725
4800,South Oak Avenue,74011,36.0026200,-95.8081080
4900,South Oak Avenue,74011,36.0022325,-95.8080975
4902,South Oak Avenue,74011,36.0020445,-95.8081020
4908,South Oak Avenue,74011,36.0018605,-95.8081445
4912,South Oak Avenue,74011,36.0016685,-95.8081475
4916,South Oak Avenue,74011,36.0014625,-95.8081430
4920,South Oak Avenue,74011,36.0012855,-95.8081450
4924,South Oak Avenue,74011,36.0010790,-95.8080960
4928,South Oak Avenue,74011,36.0008885,-95.8080365
4936,South Oak Avenue,74011,36.0005100,-95.8080030
4932,South Oak Avenue,74011,36.0007000,-95.8079855
5000,South Oak Avenue,74011,36.0003120,-95.8080140
5004,South Oak Avenue,74011,36.0001195,-95.8079930
5008,South Oak Avenue,74011,35.9999325,-95.8080060
5012,South Oak Avenue,74011,35.9997110,-95.8080055
1612,West Gulfport Street,74011,36.0025815,-95.8075895
1608,West Gulfport Street,74011,36.0025950,-95.8073545
1604,West Gulfport Street,74011,36.0025860,-95.8071305
1600,West Gulfport Street,74011,36.0026370,-95.8068895
4805,South Narcissus Avenue,74011,36.0025550,-95.8065865
4809,South Narcissus Avenue,74011,36.0023280,-95.8065465
4901,South Narcissus Avenue,74011,36.0021285,-95.8066090
4905,South Narcissus Avenue,74011,36.0019350,-95.8066135
4909,South Narcissus Avenue,74011,36.0017440,-95.8066130
4913,South Narcissus Avenue,74011,36.0015330,-95.8066170
4917,South Narcissus Avenue,74011,36.0013570,-95.8065590
4921,South Narcissus Avenue,74011,36.0011685,-95.8065820
4925,South Narcissus Avenue,74011,36.0009740,-95.8065675
4929,South Narcissus Avenue,74011,36.0007695,-95.8065655
4933,South Narcissus Avenue,74011,36.0005750,-95.8065555
4937,South Narcissus Avenue,74011,36.0003695,-95.8065330
5001,South Narcissus Avenue,74011,36.0001800,-95.8065505
5005,South Narcissus Avenue,74011,35.9999955,-95.8065310
5009,South Narcissus Avenue,74011,35.9997900,-95.8065570
5013,South Narcissus Avenue,74011,35.9995945,-95.8065585
5017,South Narcissus Avenue,74011,35.9994030,-95.8065790
1505,West Inglewood Street,74011,35.9989685,-95.8067105
1501,West Inglewood Street,74011,35.9989695,-95.8064690
1508,West Jefferson Circle,74011,35.9986645,-95.8068685
1504,West Jefferson Circle,74011,35.9986145,-95.8065915
1500,West Jefferson Circle,74011,35.9983665,-95.8065165
1501,West Jefferson Circle,74011,35.9981455,-95.8066860
1505,West Jefferson Circle,74011,35.9981210,-95.8069765
1509,West Jefferson Circle,74011,35.9982060,-95.8071900
1516,West Key West Street,74011,35.9979710,-95.8074785
1512,West Key West Street,74011,35.9979105,-95.8073020
1508,West Key West Street,74011,35.9978320,-95.8070525
1504,West Key West Street,74011,35.9977565,-95.8068655
1500,West Key West Street,74011,35.9976700,-95.8066045
5301,South Maple Place,74011,35.9974745,-95.8065225
5305,South Maple Place,74011,35.9972525,-95.8065525
5309,South Maple Place,74011,35.9970615,-95.8065385
5401,South Maple Place,74011,35.9966655,-95.8065230
5313,South Maple Place,74011,35.9968670,-95.8065400
5405,South Maple Place,74011,35.9964810,-95.8065495
5409,South Maple Place,74011,35.9962905,-95.8065480
5413,South Maple Place,74011,35.9961040,-95.8064990
1501,West Miami Street,74011,35.9958865,-95.8066125
1505,West Miami Street,74011,35.9957745,-95.8067970
1509,West Miami Street,74011,35.9957860,-95.8071170
1513,West Miami Street,74011,35.9957805,-95.8073470
1517,West Miami Street,74011,35.9957745,-95.8075580
1601,West Miami Street,74011,35.9958055,-95.8080625
1605,West Miami Street,74011,35.9958060,-95.8082705
1609,West Miami Street,74011,35.9957870,-95.8085155
1613,West Miami Street,74011,35.9958080,-95.8087450
1705,West Miami Street,74011,35.9958020,-95.8094305
1801,West Miami Street,74011,35.9958085,-95.8096580
1805,West Miami Street,74011,35.9958015,-95.8099110
1813,West Miami Street,74011,35.9958000,-95.8103995
1901,West Miami Street,74011,35.9958160,-95.8106450
1809,West Miami Street,74011,35.9957795,-95.8101461
4901,South Oak Avenue,74011,36.0021595,-95.8075975
4900,South Narcissus Avenue,74011,36.0021610,-95.8071570
4904,South Narcissus Avenue,74011,36.0019760,-95.8071010
4905,South Oak Avenue,74011,36.0019565,-95.8075850
4909,South Oak Avenue,74011,36.0017455,-95.8076245
4908,South Narcissus Avenue,74011,36.0017875,-95.8071590
4912,South Narcissus Avenue,74011,36.0015900,-95.8071305
4913,South Oak Avenue,74011,36.0015480,-95.8076405
4917,South Oak Avenue,74011,36.0013500,-95.8075735
4916,South Narcissus Avenue,74011,36.0014055,-95.8070980
4920,South Narcissus Avenue,74011,36.0011980,-95.8071185
4921,South Oak Avenue,74011,36.0011355,-95.8075515
4925,South Oak Avenue,74011,36.0009210,-95.8075060
4924,South Narcissus Avenue,74011,36.0010010,-95.8070590
4928,South Narcissus Avenue,74011,36.0007945,-95.8070900
4929,South Oak Avenue,74011,36.0007140,-95.8074855
4932,South Narcissus Avenue,74011,36.0006115,-95.8070835
4936,South Narcissus Avenue,74011,36.0004135,-95.8070710
5000,South Narcissus Avenue,74011,36.0002175,-95.8070470
5004,South Narcissus Avenue,74011,36.0000330,-95.8070780
5008,South Narcissus Avenue,74011,35.9998385,-95.8070355
5009,South Oak Avenue,74011,35.9999675,-95.8075020
5005,South Oak Avenue,74011,36.0001545,-95.8074895
5001,South Oak Avenue,74011,36.0003450,-95.8075005
4931,South Oak Avenue,74011,36.0005505,-95.8074910
5101,South Oak Avenue,74011,35.9995145,-95.8075230
1601,West Inglewood Street,74011,35.9994180,-95.8071045
5105,South Oak Avenue,74011,35.9993290,-95.8076060
5104,South Narcissus Avenue,74011,35.9992340,-95.8071630
5108,South Narcissus Avenue,74011,35.9990490,-95.8072605
5109,South Oak Avenue,74011,35.9991450,-95.8076660
5113,South Oak Avenue,74011,35.9989715,-95.8077085
5112,South Narcissus Avenue,74011,35.9988590,-95.8073185
5116,South Narcissus Avenue,74011,35.9986890,-95.8074070
5200,South Narcissus Avenue,74011,35.9985235,-95.8075745
5117,South Oak Avenue,74011,35.9987760,-95.8078330
5121,South Oak Avenue,74011,35.9986265,-95.8079995
5204,South Narcissus Avenue,74011,35.9983800,-95.8077320
5208,South Narcissus Avenue,74011,35.9982370,-95.8079140
5201,South Oak Avenue,74011,35.9984950,-95.8081610
5205,South Oak Avenue,74011,35.9983645,-95.8083345
5209,South Oak Avenue,74011,35.9982105,-95.8085195
5300,South Narcissus Avenue,74011,35.9979725,-95.8082670
5212,South Narcissus Avenue,74011,35.9981155,-95.8080615
5304,South Narcissus Avenue,74011,35.9978300,-95.8085030
5308,South Narcissus Avenue,74011,35.9975990,-95.8085900
5312,South Narcissus Avenue,74011,35.9974025,-95.8086145
5316,South Narcissus Avenue,74011,35.9971980,-95.8086690
5320,South Narcissus Avenue,74011,35.9969975,-95.8086925
5412,South Narcissus Avenue,74011,35.9962220,-95.8087635
5408,South Narcissus Avenue,74011,35.9964110,-95.8087595
5404,South Narcissus Avenue,74011,35.9966240,-95.8087410
5400,South Narcissus Avenue,74011,35.9968010,-95.8087125
5412,South Poplar Avenue,74011,35.9962130,-95.8095630
5413,South Redbud Avenue,74011,35.9962100,-95.8100640
5409,South Redbud Avenue,74011,35.9963895,-95.8100560
5408,South Poplar Avenue,74011,35.9963880,-95.8096265
5404,South Poplar Avenue,74011,35.9965800,-95.8096245
5405,South Redbud Avenue,74011,35.9965825,-95.8100685
5401,South Redbud Avenue,74011,35.9967670,-95.8100670
5400,South Poplar Avenue,74011,35.9967700,-95.8096390
5308,South Poplar Avenue,74011,35.9969650,-95.8096560
5304,South Poplar Avenue,74011,35.9971645,-95.8096530
5305,South Redbud Avenue,74011,35.9971690,-95.8100425
5309,South Redbud Avenue,74011,35.9969625,-95.8100550
5301,South Redbud Avenue,74011,35.9973575,-95.8100310
5300,South Poplar Avenue,74011,35.9973565,-95.8096555
5228,South Poplar Avenue,74011,35.9975330,-95.8096420
5227,South Redbud Avenue,74011,35.9975430,-95.8100680
5223,South Redbud Avenue,74011,35.9977310,-95.8100675
5219,South Redbud Avenue,74011,35.9979050,-95.8100400
5220,South Poplar Avenue,74011,35.9979080,-95.8096210
5224,South Poplar Avenue,74011,35.9977355,-95.8096300
5412,South Redbud Avenue,74011,35.9962155,-95.8105855
5408,South Redbud Avenue,74011,35.9963915,-95.8105995
5404,South Redbud Avenue,74011,35.9965870,-95.8105885
5400,South Redbud Avenue,74011,35.9967865,-95.8105940
5308,South Redbud Avenue,74011,35.9969680,-95.8105970
5304,South Redbud Avenue,74011,35.9971585,-95.8105985
5300,South Redbud Avenue,74011,35.9973425,-95.8106035
5224,South Redbud Avenue,74011,35.9977485,-95.8105695
5220,South Redbud Avenue,74011,35.9979345,-95.8105810
5216,South Redbud Avenue,74011,35.9981280,-95.8105840
5212,South Redbud Avenue,74011,35.9983130,-95.8105810
5204,South Redbud Avenue,74011,35.9986930,-95.8106085
5208,South Redbud Avenue,74011,35.9985095,-95.8105895
5200,South Redbud Avenue,74011,35.9989310,-95.8106260
1816,West Jefferson Street,74011,35.9990950,-95.8104680
1812,West Jefferson Street,74011,35.9990980,-95.8101845
1808,West Jefferson Street,74011,35.9990905,-95.8099360
1804,West Jefferson Street,74011,35.9991095,-95.8097110
1800,West Jefferson Street,74011,35.9991020,-95.8094815
1716,West Jefferson Street,74011,35.9991065,-95.8092300
1712,West Jefferson Street,74011,35.9991005,-95.8090050
1708,West Jefferson Street,74011,35.9991075,-95.8087670
1704,West Jefferson Street,74011,35.9990495,-95.8084935
1700,West Jefferson Street,74011,35.9989735,-95.8083295
1701,West Inglewood Street,74011,35.9992860,-95.8081475
1705,West Inglewood Street,74011,35.9993390,-95.8083475
1709,West Jefferson Street,74011,35.9986195,-95.8087475
1713,West Jefferson Street,74011,35.9986485,-95.8090395
1717,West Jefferson Street,74011,35.9986730,-95.8092865
1801,West Jefferson Street,74011,35.9986580,-95.8095610
1805,West Jefferson Street,74011,35.9986645,-95.8098315
1809,West Jefferson Street,74011,35.9986645,-95.8100635
1810,West Jefferson Place,74011,35.9983320,-95.8100785
1806,West Jefferson Place,74011,35.9983365,-95.8098285
1802,West Jefferson Place,74011,35.9983305,-95.8095900
1718,West Jefferson Place,74011,35.9983400,-95.8093270
1714,West Jefferson Place,74011,35.9983760,-95.8091015
5413,South Narcissus Avenue,74011,35.9962160,-95.8082440
5409,South Narcissus Avenue,74011,35.9964045,-95.8082050
5405,South Narcissus Avenue,74011,35.9965920,-95.8081960
5401,South Narcissus Avenue,74011,35.9967765,-95.8081600
1520,West Miami Street,74011,35.9962500,-95.8078800
1516,West Miami Street,74011,35.9962515,-95.8076590
1512,West Miami Street,74011,35.9962530,-95.8073985
5412,South Maple Place,74011,35.9962075,-95.8070815
5408,South Maple Place,74011,35.9963920,-95.8070735
5404,South Maple Place,74011,35.9965785,-95.8070785
5400,South Maple Place,74011,35.9967700,-95.8070825
1600,West Los Angeles Circle South,74011,35.9968790,-95.8074360
1603,West Los Angeles Circle South,74011,35.9966680,-95.8075720
1607,West Los Angeles Circle South,74011,35.9966300,-95.8078605
1604,West Los Angeles Circle South,74011,35.9971040,-95.8075305
1608,West Los Angeles Circle South,74011,35.9972220,-95.8077505
5313,South Narcissus Avenue,74011,35.9971860,-95.8081380
5309,South Narcissus Avenue,74011,35.9973680,-95.8081130
5305,South Narcissus Avenue,74011,35.9975700,-95.8080355
1513,West Key West Street,74011,35.9976025,-95.8077480
1509,West Key West Street,74011,35.9975030,-95.8075470
1505,West Key West Street,74011,35.9974450,-95.8073460
5300,South Maple Place,74011,35.9973450,-95.8070665
5304,South Maple Place,74011,35.9971675,-95.8070875
5308,South Maple Place,74011,35.9969580,-95.8070780
3200,South Elm Place,74012,36.0198545,-95.7980212
2017,South Elm Place,74012,36.0286845,-95.7969385
803,North Elm Place,74012,36.0597191,-95.7971911
524,West Iola Street,74012,36.0597713,-95.7966272
3800,West Roanoke Street,74011,36.0135216,-95.8354827
3801,South Sweet Gum Place,74011,36.0135830,-95.8349186
850,West Jasper Street,74011,35.9742848,-95.7993455
840,West Jasper Street,74011,35.9743453,-95.7986664
836,West Jasper Street,74011,35.9743049,-95.7985756
832,West Jasper Street,74011,35.9743046,-95.7984862
828,West Jasper Street,74011,35.9743043,-95.7983967
824,West Jasper Street,74011,35.9743040,-95.7983071
700,North Aspen,74012,36.0570920,-95.8159008
1823,North Yellowood Avenue,74012,36.0695630,-95.8400902
24055,East Highway 51,74014,36.0197613,-95.7087791
23955,East State Highway 51,74014,36.0197599,-95.7095657
4716,West Urbana Street,74012,36.0351796,-95.8504544
2221,West Kenosha Street,74012,36.0603583,-95.8163006
4851,West Houston Street,74012,36.0450612,-95.8491388
8937,South Garnett Road,74012,36.0338843,-95.8503870
805,West Elgin Street,74012,36.0550170,-95.8006294
722,West Elgin Street,74012,36.0557090,-95.7983712
724,West Elgin Street,74012,36.0557296,-95.7989225
726,West Elgin Street,74012,36.0557216,-95.7990499
730,West Elgin Street,74012,36.0557223,-95.7997435
728,West Elgin Street,74012,36.0557235,-95.7994544
736,West Elgin Street,74012,36.0557246,-95.7999652
740,West Elgin Street,74012,36.0557335,-95.8001345
744,West Elgin Street,74012,36.0557324,-95.8002508
808,West Elgin Street,74012,36.0557289,-95.8005828
812,West Elgin Street,74012,36.0557347,-95.8008066
816,West Elgin Street,74012,36.0557321,-95.8009292
822,West Elgin Street,74012,36.0557287,-95.8011903
824,West Elgin Street,74012,36.0557665,-95.8014374
701,West Freeport Street,74012,36.0560846,-95.7979197
717,West Freeport Street,74012,36.0560766,-95.7988237
721,West Freeport Street,74012,36.0560669,-95.7990667
725,West Freeport Street,74012,36.0560670,-95.7994384
500,North Elm Place,74012,36.0565762,-95.7978497
1709,West Detroit Street,74012,36.0539805,-95.8066159
1501,West Detroit Street,74012,36.0539317,-95.8047476
1300,West Detroit Street,74012,36.0547594,-95.8036610
305,North Hickory Avenue,74012,36.0546496,-95.8026178
3212,East Louisville Street,74014,36.0430535,-95.7518007
201,East Washington Street,74012,36.0315004,-95.7877467
3300,North 37th Street,74014,36.0812024,-95.7462520
200,West Florence Street,74011,36.0036374,-95.7924770
709,Magnolia Court,74011,35.9694832,-95.7910228
507,West Winston Street,74011,35.9856504,-95.7967758
505,West Winston Street,74011,35.9856520,-95.7966409
503,West Winston Street,74011,35.9856541,-95.7964527
501,West Winston Street,74011,35.9856557,-95.7963178
3201,South Elm Place,74012,36.0197184,-95.7963022
400,West New Orleans Street,74011,36.0182504,-95.7945342
5795,South Elm Place,74011,35.9927222,-95.7967158
6801,South 3rd Street,74011,35.9863966,-95.7872517
301,East Tucson Street,74011,35.9870937,-95.7852128
709,North 9th Street,74012,36.0584712,-95.7791279
408,West Kenosha Street,74012,36.0615336,-95.7951711
504,West Iola Street,74012,36.0597711,-95.7960312
804,North Elm Place,74012,36.0592772,-95.7980755
500,North Poplar Avenue,74012,36.0566224,-95.8099524
720,West Elgin Street,74012,36.0557723,-95.7980498
800,West Elgin Street,74012,36.0557301,-95.8004665
405,North Walnut Ave,74012,36.0561915,-95.8130740
502,North Redbud Avenue,74012,36.0569470,-95.8122147
1950,West Kenosha Street,74012,36.0614294,-95.8134321
803,North Elm Place,74012,36.0596493,-95.7971954
939,North Elm Place,74012,36.0621826,-95.7964183
929,North Elm Place,74012,36.0621026,-95.7964183
927,North Elm Place,74012,36.0620227,-95.7964183
923,North Elm Place,74012,36.0619427,-95.7964183
921,North Elm Place,74012,36.0617729,-95.7964183
917,North Elm Place,74012,36.0616730,-95.7964183
915,North Elm Place,74012,36.0615730,-95.7964183
941,North Elm Place,74012,36.0622713,-95.7964183
943,North Elm Place,74012,36.0624274,-95.7964183
947,North Elm Place,74012,36.0624531,-95.7965692
1003,North Elm Place,74012,36.0624531,-95.7968292
525,East Madison Street,74012,36.0648025,-95.7834697
1152,North 6th Street,74012,36.0648019,-95.7831598
517,East Madison Street,74012,36.0647821,-95.7839053
521,East Madison Street,74012,36.0647999,-95.7837385
5301,East Kenosha Street,74014,36.0598946,-95.7241892
1203,North 52nd Street,74014,36.0624297,-95.7249723
1208,North 52nd Street,74014,36.0628794,-95.7255584
900,North 53rd Street,74014,36.0588665,-95.7243418
5300,East Kenosha Street,74014,36.0614555,-95.7227840
22700,East 71st Street South,74014,36.0605781,-95.7238870
1201,North 52nd Street,74014,36.0620963,-95.7249662
1202,North 52nd Street,74014,36.0623266,-95.7255863
1205,North 52nd Street,74014,36.0626841,-95.7250454
1204,North 52nd Street,74014,36.0625797,-95.7255622
417,East Madison Street,74012,36.0647739,-95.7854365
513,East Madison Street,74012,36.0647759,-95.7842222
1201,North 4th Street,74012,36.0644236,-95.7847205
516,East Madison Street,74012,36.0655044,-95.7847449
501,East Madison Street,74012,36.0647754,-95.7849443
505,East Madison Street,74012,36.0647747,-95.7847034
509,East Madison Street,74012,36.0647768,-95.7844601
520,East Madison Street,74012,36.0652445,-95.7842094
506,East Madison Street,74012,36.0657148,-95.7853562
502,East Madison Street,74012,36.0652422,-95.7851744
420,West Albany Street,74012,36.0751738,-95.7943671
415,South Elm Place,74012,36.0481177,-95.7969208
120,West Kenosha Street,74012,36.0613056,-95.7916869
317,West Kenosha Street,74012,36.0605750,-95.7940466
305,West Kenosha Street,74012,36.0606259,-95.7936770
215,West Kenosha Street,74012,36.0606219,-95.7927841
800,South 11th Street,74012,36.0450581,-95.7778914
704,South 11th Street,74012,36.0456118,-95.7778920
1005,East Houston Street,74012,36.0460086,-95.7779852
2601,South Elm Place,74012,36.0264943,-95.7951522
2346,East Kenosha Street,74012,36.0613314,-95.7628404
2302,East Kenosha Street,74012,36.0614108,-95.7643756
801,South 11th Street,74012,36.0452472,-95.7771037
901,South 9th Street,74012,36.0437242,-95.7789225
701,South 9th Street,74012,36.0460156,-95.7789129
1113,East Louisville Street,74012,36.0432644,-95.7764536
1109,East Louisville Street,74012,36.0432403,-95.7766360
908,South 11th Street,74012,36.0434903,-95.7777886
1101,East Louisville Street,74012,36.0433173,-95.7772959
1105,East Louisville Street,74012,36.0433173,-95.7771480
1117,East Louisville Street,74012,36.0432237,-95.7760004
906,South 12th Street,74012,36.0440757,-95.7763685
900,South 12th Street,74012,36.0444206,-95.7762719
805,South 12th Street,74012,36.0449237,-95.7755310
809,South 12th Street,74012,36.0446386,-95.7754510
804,South 12th Street,74012,36.0446927,-95.7762672
804,South 12th Street,74012,36.0449061,-95.7763293
705,South 12th Street,74012,36.0457771,-95.7755001
704,South 12th Street,74012,36.0457690,-95.7762739
1113,East Houston Street,74012,36.0460075,-95.7763444
901,South 11th Street,74012,36.0444157,-95.7770578
809,South 11th Street,74012,36.0446527,-95.7770074
805,South 11th Street,74012,36.0449276,-95.7770111
709,South 11th Street,74012,36.0453818,-95.7770021
705,South 11th Street,74012,36.0456348,-95.7770702
904,South 11th Street,74012,36.0439489,-95.7778947
808,South 11th Street,74012,36.0445355,-95.7778866
1201,East Houston Street,74012,36.0460230,-95.7754480
800,South 12th Street,74012,36.0452459,-95.7763437
810,East Jackson Place,74012,36.0443143,-95.7806569
705,South 8th Street,74012,36.0458679,-95.7806441
709,South 8th Street,74012,36.0455201,-95.7805786
801,South 8th Street,74012,36.0448513,-95.7805836
708,South 9th Street,74012,36.0455817,-95.7799672
710,South 9th Street,74012,36.0453043,-95.7800926
13101,South 193rd East Avenue,74014,35.9734350,-95.7614535
501,West Yuma Street,74011,35.9848862,-95.7963050
503,West Yuma Street,74011,35.9848845,-95.7964399
505,West Yuma Street,74011,35.9848883,-95.7966442
507,West Yuma Street,74011,35.9848866,-95.7967792
504,West Yuma Street,74011,35.9853311,-95.7966354
506,West Yuma Street,74011,35.9853280,-95.7967702
500,West Yuma Street,74011,35.9853288,-95.7962921
502,West Yuma Street,74011,35.9853259,-95.7964267
504,West Winston Street,74011,35.9860994,-95.7966498
506,West Winston Street,74011,35.9860982,-95.7967848
500,West Winston Street,74011,35.9860981,-95.7963359
502,West Winston Street,74011,35.9860972,-95.7964711
404,West Winston Street,74011,35.9861115,-95.7956978
406,West Winston Street,74011,35.9861095,-95.7958326
409,West Winston Street,74011,35.9856560,-95.7960765
407,West Winston Street,74011,35.9856577,-95.7959416
1100,East Houston Street,74012,36.0469266,-95.7776197
401,West Yuma Street,74011,35.9848980,-95.7953014
403,West Yuma Street,74011,35.9848681,-95.7954082
410,West Winston Street,74011,35.9860974,-95.7961157
408,West Winston Street,74011,35.9860976,-95.7960176
510,West Winston Street,74011,35.9860944,-95.7970463
508,West Winston Street,74011,35.9860953,-95.7969485
403,West Winston Street,74011,35.9856554,-95.7957770
401,West Winston Street,74011,35.9856549,-95.7956790
511,West Winston Street,74011,35.9856585,-95.7970356
509,West Winston Street,74011,35.9856591,-95.7969376
511,West Yuma Street,74011,35.9848850,-95.7970441
509,West Yuma Street,74011,35.9848855,-95.7969461
510,West Yuma Street,74011,35.9853223,-95.7970397
508,West Yuma Street,74011,35.9853237,-95.7969423
408,West Yuma Street,74011,35.9853293,-95.7960583
406,West Yuma Street,74011,35.9853295,-95.7959603
402,West Yuma Street,74011,35.9853300,-95.7957707
400,West Yuma Street,74011,35.9853302,-95.7956726
407,West Yuma Street,74011,35.9848886,-95.7957919
405,West Yuma Street,74011,35.9848892,-95.7956939
409,West Yuma Street,74011,35.9848864,-95.7959484
411,West Yuma Street,74011,35.9848859,-95.7960464
400,West Winston Street,74011,35.9861112,-95.7953286
402,West Winston Street,74011,35.9861152,-95.7954486
7101,South Date Place,74011,35.9859599,-95.7951816
1925,South Elm Place,74012,36.0306455,-95.7969525
1933,South Elm Place,74012,36.0303758,-95.7969820
7417,South Elm Avenue,74011,35.9830175,-95.7963584
7419,South Elm Avenue,74011,35.9829195,-95.7963570
7405,South Elm Avenue,74011,35.9839155,-95.7963648
7407,South Elm Avenue,74011,35.9838176,-95.7963633
7409,South Elm Avenue,74011,35.9836161,-95.7963639
7411,South Elm Avenue,74011,35.9835183,-95.7963623
7400,South Elm Avenue,74011,35.9841330,-95.7968697
7413,South Elm Avenue,74011,35.9833118,-95.7963619
7415,South Elm Avenue,74011,35.9832138,-95.7963604
7418,South Elm Avenue,74011,35.9829152,-95.7969128
7416,South Elm Avenue,74011,35.9830215,-95.7969131
7414,South Elm Avenue,74011,35.9832064,-95.7969135
7412,South Elm Avenue,74011,35.9833128,-95.7969139
7410,South Elm Avenue,74011,35.9835099,-95.7969245
7408,South Elm Avenue,74011,35.9836163,-95.7969249
7404,South Elm Avenue,74011,35.9839168,-95.7969193
7406,South Elm Avenue,74011,35.9838104,-95.7969190
7836,South Elm Place,74011,35.9758641,-95.7979392
7838,South Elm Place,74011,35.9757817,-95.7979388
7844,South Elm Place,74011,35.9756442,-95.7979381
7842,South Elm Place,74011,35.9756992,-95.7979384
7834,South Elm Place,74011,35.9759191,-95.7979395
7832,South Elm Place,74011,35.9760016,-95.7979399
1901,West New Orleans Street,74011,36.0168546,-95.8129426
3709,West Boston Place,74012,36.0265525,-95.8349230
3601,West Boston Place,74012,36.0266170,-95.8336710
3609,West Boston Place,74012,36.0265355,-95.8342355
3608,West Boston Place,74012,36.0270190,-95.8342300
3605,West Boston Place,74012,36.0264890,-95.8339575
3604,West Boston Place,74012,36.0270410,-95.8339725
3701,West Boston Place,74012,36.0265235,-95.8344645
3600,West Boston Place,74012,36.0269020,-95.8336785
3705,West Boston Place,74012,36.0265300,-95.8346955
3708,West Boston Place,74012,36.0269890,-95.8349205
3704,West Boston Place,74012,36.0269935,-95.8346895
3700,West Boston Place,74012,36.0269960,-95.8344500
3703,West Boston Court,74012,36.0256680,-95.8344910
3611,West Boston Court,74012,36.0256680,-95.8342650
3710,West Boston Court,74012,36.0261190,-95.8349495
3711,West Boston Court,74012,36.0256775,-95.8349895
3610,West Boston Court,74012,36.0261535,-95.8342245
3706,West Boston Court,74012,36.0261490,-95.8347075
3606,West Boston Court,74012,36.0261780,-95.8339190
3602,West Boston Court,74012,36.0260425,-95.8336560
3603,West Boston Court,74012,36.0257415,-95.8337005
3707,West Boston Court,74012,36.0256845,-95.8347320
3702,West Boston Court,74012,36.0261510,-95.8344680
3607,West Boston Court,74012,36.0256240,-95.8340020
3700,West Canton Street,74012,36.0252595,-95.8345165
3605,West Canton Street,74012,36.0248020,-95.8338600
3709,West Canton Street,74012,36.0247935,-95.8350935
3608,West Canton Street,74012,36.0252725,-95.8340395
3604,West Canton Street,74012,36.0252920,-95.8338090
3609,West Canton Street,74012,36.0248210,-95.8341090
3708,West Canton Street,74012,36.0252755,-95.8349725
3704,West Canton Street,74012,36.0252595,-95.8347500
3601,West Canton Street,74012,36.0248130,-95.8336360
3705,West Canton Street,74012,36.0248150,-95.8348665
3612,West Canton Street,74012,36.0252755,-95.8342830
3600,West Canton Street,74012,36.0253050,-95.8335865
3701,West Canton Street,74012,36.0248020,-95.8346290
2411,South Redwood Place,74012,36.0268830,-95.8358855
2435,South Redwood Place,74012,36.0256895,-95.8359610
2447,South Redwood Place,74012,36.0250995,-95.8359230
3811,West Canton Street,74012,36.0248315,-95.8359670
2439,South Redwood Place,74012,36.0254795,-95.8359405
3713,West Canton Street,74012,36.0248130,-95.8354170
2407,South Redwood Place,74012,36.0270800,-95.8358745
2431,South Redwood Place,74012,36.0258740,-95.8359590
2403,South Redwood Place,74012,36.0272810,-95.8358515
2423,South Redwood Place,74012,36.0262550,-95.8359180
2415,South Redwood Place,74012,36.0266980,-95.8358890
2427,South Redwood Place,74012,36.0260745,-95.8359200
2443,South Redwood Place,74012,36.0252965,-95.8359260
2401,South Sweet Gum Avenue,74012,36.0275335,-95.8368470
2445,South Sweet Gum Avenue,74012,36.0254045,-95.8368980
2406,South Redwood Place,74012,36.0272285,-95.8364265
2418,South Redwood Place,74012,36.0266230,-95.8364630
2422,South Redwood Place,74012,36.0264320,-95.8364500
2426,South Redwood Place,74012,36.0262430,-95.8364845
2438,South Redwood Place,74012,36.0256225,-95.8364915
2429,South Sweet Gum Avenue,74012,36.0261935,-95.8368940
2437,South Sweet Gum Avenue,74012,36.0258050,-95.8368890
2421,South Sweet Gum Avenue,74012,36.0265790,-95.8368730
2449,South Sweet Gum Avenue,74012,36.0252215,-95.8368855
2433,South Sweet Gum Avenue,74012,36.0260045,-95.8368820
2430,South Redwood Place,74012,36.0260230,-95.8364795
2402,South Redwood Place,74012,36.0274270,-95.8364075
2413,South Sweet Gum Avenue,74012,36.0269735,-95.8368400
2442,South Redwood Place,74012,36.0254150,-95.8364705
2405,South Sweet Gum Avenue,74012,36.0273620,-95.8368255
2410,South Redwood Place,74012,36.0270280,-95.8364240
2425,South Sweet Gum Avenue,74012,36.0263735,-95.8368585
2441,South Sweet Gum Avenue,74012,36.0256080,-95.8368945
2434,South Redwood Place,74012,36.0258210,-95.8364825
2446,South Redwood Place,74012,36.0252220,-95.8365085
2417,South Sweet Gum Avenue,74012,36.0267800,-95.8368395
2409,South Sweet Gum Avenue,74012,36.0271510,-95.8368345
2414,South Redwood Place,74012,36.0268315,-95.8364400
3908,West Boston Street,74012,36.0280205,-95.8375100
3804,West Boston Street,74012,36.0276660,-95.8353970
3904,West Boston Street,74012,36.0280420,-95.8372730
3800,West Boston Street,74012,36.0276085,-95.8351505
3900,West Boston Street,74012,36.0280435,-95.8370310
3808,West Boston Street,74012,36.0277395,-95.8356230
3812,West Boston Street,74012,36.0277825,-95.8358420
3824,West Boston Street,74012,36.0279655,-95.8365170
3828,West Boston Street,74012,36.0280220,-95.8367620
2405,South Tamarack Avenue,74012,36.0280040,-95.8378260
3816,West Boston Street,74012,36.0278590,-95.8360670
2401,South Tamarack Avenue,74012,36.0282615,-95.8378250
3820,West Boston Street,74012,36.0278995,-95.8362835
2445,South Tamarack Avenue,74012,36.0256010,-95.8378650
2432,South Sweet Gum Avenue,74012,36.0258035,-95.8374710
2416,South Sweet Gum Avenue,74012,36.0267925,-95.8374125
2408,South Sweet Gum Avenue,74012,36.0271740,-95.8374060
2433,South Tamarack Avenue,74012,36.0261780,-95.8378985
2425,South Tamarack Avenue,74012,36.0267830,-95.8378475
2437,South Tamarack Avenue,74012,36.0259940,-95.8378750
2429,South Tamarack Avenue,74012,36.0266050,-95.8378560
2413,South Tamarack Avenue,74012,36.0273730,-95.8378500
2444,South Sweet Gum Avenue,74012,36.0252200,-95.8374610
2404,South Sweet Gum Avenue,74012,36.0273615,-95.8373805
2440,South Sweet Gum Avenue,74012,36.0254120,-95.8374870
2409,South Tamarack Avenue,74012,36.0275575,-95.8378125
2441,South Tamarack Avenue,74012,36.0257985,-95.8378595
2420,South Sweet Gum Avenue,74012,36.0265970,-95.8374100
2400,South Sweet Gum Avenue,74012,36.0275610,-95.8374230
2436,South Sweet Gum Avenue,74012,36.0255970,-95.8374810
2424,South Sweet Gum Avenue,74012,36.0261790,-95.8374260
2417,South Tamarack Avenue,74012,36.0271850,-95.8378515
2421,South Tamarack Avenue,74012,36.0269785,-95.8378300
2449,South Tamarack Avenue,74012,36.0254040,-95.8378775
2428,South Sweet Gum Avenue,74012,36.0259945,-95.8374800
2453,South Tamarack Avenue,74012,36.0252260,-95.8378775
2412,South Sweet Gum Avenue,74012,36.0269835,-95.8374285
3913,West Canton Street,74012,36.0247880,-95.8379205
4001,West Canton Street,74012,36.0247935,-95.8381455
3914,West Delmar Street,74012,36.0244625,-95.8377845
3815,West Canton Street,74012,36.0247655,-95.8362695
4002,West Delmar Street,74012,36.0244655,-95.8380820
3819,West Canton Street,74012,36.0247855,-95.8364970
4006,West Delmar Street,74012,36.0244640,-95.8383670
3827,West Canton Street,74012,36.0247920,-95.8369805
3823,West Canton Street,74012,36.0247970,-95.8367255
3909,West Canton Street,74012,36.0247835,-95.8376780
4005,West Canton Street,74012,36.0248015,-95.8383830
3905,West Canton Street,74012,36.0247895,-95.8374375
3901,West Canton Street,74012,36.0247710,-95.8372000
2433,South Umbrella Avenue,74012,36.0265760,-95.8388285
2436,South Tamarack Avenue,74012,36.0263955,-95.8384300
2448,South Tamarack Avenue,74012,36.0258050,-95.8384550
2440,South Tamarack Avenue,74012,36.0261970,-95.8384220
2416,South Tamarack Avenue,74012,36.0273795,-95.8384020
2413,South Umbrella Avenue,74012,36.0275465,-95.8388275
2441,South Umbrella Avenue,74012,36.0261750,-95.8388395
2409,South Umbrella Avenue,74012,36.0277355,-95.8388250
2425,South Umbrella Avenue,74012,36.0269655,-95.8388115
2432,South Tamarack Avenue,74012,36.0265915,-95.8384395
2421,South Umbrella Avenue,74012,36.0271500,-95.8388200
2453,South Umbrella Avenue,74012,36.0256115,-95.8388370
2437,South Umbrella Avenue,74012,36.0263705,-95.8388405
2408,South Tamarack Avenue,74012,36.0277910,-95.8384160
2444,South Tamarack Avenue,74012,36.0259980,-95.8384525
2457,South Umbrella Avenue,74012,36.0254100,-95.8388460
2445,South Umbrella Avenue,74012,36.0259850,-95.8388355
2400,South Tamarack Avenue,74012,36.0281765,-95.8384630
2452,South Tamarack Avenue,74012,36.0256040,-95.8384415
2412,South Tamarack Avenue,74012,36.0275950,-95.8384085
2429,South Umbrella Avenue,74012,36.0267710,-95.8388160
2461,South Umbrella Avenue,74012,36.0252255,-95.8388320
2449,South Umbrella Avenue,74012,36.0257915,-95.8388605
2428,South Tamarack Avenue,74012,36.0268035,-95.8383990
2460,South Tamarack Avenue,74012,36.0252235,-95.8384565
2424,South Tamarack Avenue,74012,36.0269905,-95.8383965
2404,South Tamarack Avenue,74012,36.0279920,-95.8384020
2456,South Tamarack Avenue,74012,36.0254070,-95.8384205
2420,South Tamarack Avenue,74012,36.0271845,-95.8384020
2401,South Umbrella Avenue,74012,36.0281295,-95.8388335
2405,South Umbrella Avenue,74012,36.0279225,-95.8388150
2417,South Umbrella Avenue,74012,36.0273535,-95.8388160
2424,South Umbrella Avenue,74012,36.0267360,-95.8393965
2436,South Umbrella Avenue,74012,36.0261425,-95.8394060
2404,South Umbrella Avenue,74012,36.0277525,-95.8393785
2416,South Umbrella Avenue,74012,36.0271330,-95.8393650
4105,West Boston Street,74012,36.0279035,-95.8398935
2412,South Umbrella Avenue,74012,36.0273400,-95.8393960
2427,South Umbrella Place,74012,36.0266555,-95.8398150
2420,South Umbrella Avenue,74012,36.0269325,-95.8393770
2408,South Umbrella Avenue,74012,36.0275435,-95.8393925
2419,South Umbrella Place,74012,36.0270495,-95.8398005
2423,South Umbrella Place,74012,36.0268540,-95.8397960
2428,South Umbrella Avenue,74012,36.0265465,-95.8394015
2411,South Umbrella Place,74012,36.0274435,-95.8397895
4009,West Boston Street,74012,36.0280145,-95.8393750
2439,South Umbrella Place,74012,36.0261095,-95.8398285
2435,South Umbrella Place,74012,36.0262780,-95.8398290
2407,South Umbrella Place,74012,36.0276340,-95.8397790
2431,South Umbrella Place,74012,36.0264830,-95.8398140
2432,South Umbrella Avenue,74012,36.0263315,-95.8394180
4101,West Boston Street,74012,36.0279415,-95.8396480
2450,South Umbrella Place,74012,36.0252230,-95.8403815
2414,South Umbrella Place,74012,36.0270000,-95.8403575
2441,South Willow Avenue,74012,36.0257820,-95.8408115
2410,South Umbrella Place,74012,36.0272115,-95.8403495
2453,South Willow Avenue,74012,36.0252115,-95.8408025
2437,South Willow Avenue,74012,36.0259745,-95.8408060
2434,South Umbrella Place,74012,36.0260030,-95.8403835
2429,South Willow Avenue,74012,36.0263735,-95.8407665
2446,South Umbrella Place,74012,36.0254065,-95.8403875
2422,South Umbrella Place,74012,36.0266020,-95.8403635
2445,South Willow Avenue,74012,36.0255900,-95.8408070
2426,South Umbrella Place,74012,36.0264065,-95.8403785
2417,South Willow Avenue,74012,36.0269435,-95.8407570
2433,South Willow Avenue,74012,36.0261705,-95.8407740
2413,South Willow Avenue,74012,36.0271285,-95.8407505
2421,South Willow Avenue,74012,36.0267565,-95.8407740
2438,South Umbrella Place,74012,36.0258020,-95.8403755
2430,South Umbrella Place,74012,36.0262005,-95.8403880
2442,South Umbrella Place,74012,36.0256000,-95.8403955
2449,South Willow Avenue,74012,36.0254100,-95.8407950
2401,South Willow Avenue,74012,36.0276425,-95.8403500
2409,South Willow Avenue,74012,36.0273445,-95.8407405
2405,South Willow Avenue,74012,36.0274900,-95.8405280
2425,South Willow Avenue,74012,36.0265675,-95.8407755
2418,South Umbrella Place,74012,36.0267920,-95.8403610
2424,South Willow Avenue,74012,36.0265070,-95.8413720
2404,South Willow Avenue,74012,36.0275000,-95.8413100
2412,South Willow Avenue,74012,36.0270920,-95.8413670
2504,South Willow Avenue,74012,36.0247360,-95.8413520
2420,South Willow Avenue,74012,36.0266940,-95.8413910
2440,South Willow Avenue,74012,36.0254950,-95.8413455
2428,South Willow Avenue,74012,36.0260670,-95.8413730
2444,South Willow Avenue,74012,36.0252930,-95.8413615
2400,South Willow Avenue,74012,36.0276985,-95.8410780
2408,South Willow Avenue,74012,36.0272895,-95.8413715
2448,South Willow Avenue,74012,36.0250935,-95.8413530
2432,South Willow Avenue,74012,36.0258765,-95.8413650
2500,South Willow Avenue,74012,36.0249070,-95.8413455
2436,South Willow Avenue,74012,36.0256910,-95.8413330
2416,South Willow Avenue,74012,36.0268980,-95.8413805
4109,West Canton Street,74012,36.0248665,-95.8398370
2444,South Umbrella Avenue,74012,36.0255175,-95.8394090
4125,West Canton Street,74012,36.0247810,-95.8408240
2440,South Umbrella Avenue,74012,36.0257130,-95.8394115
4013,West Canton Street,74012,36.0247595,-95.8391420
2448,South Umbrella Avenue,74012,36.0253210,-95.8394240
2443,South Umbrella Place,74012,36.0256915,-95.8398300
4121,West Canton Street,74012,36.0247915,-95.8405810
2451,South Umbrella Place,74012,36.0253195,-95.8398295
2452,South Umbrella Avenue,74012,36.0251250,-95.8394290
2447,South Umbrella Place,74012,36.0255030,-95.8398160
4113,West Canton Street,74012,36.0247575,-95.8400880
4117,West Canton Street,74012,36.0247965,-95.8403425
4017,West Canton Street,74012,36.0248795,-95.8394280
2455,South Umbrella Place,74012,36.0251265,-95.8398125
4009,West Canton Street,74012,36.0247775,-95.8388990
4106,West Delmar Street,74012,36.0244440,-95.8398375
4110,West Delmar Street,74012,36.0244580,-95.8400855
4114,West Delmar Street,74012,36.0244375,-95.8403580
4018,West Delmar Street,74012,36.0244270,-95.8393785
4010,West Delmar Street,74012,36.0244515,-95.8389020
4102,West Delmar Street,74012,36.0244025,-95.8396010
4014,West Delmar Street,74012,36.0244430,-95.8391410
2505,South Willow Avenue,74012,36.0244915,-95.8408265
2508,South Willow Avenue,74012,36.0244985,-95.8414430
500,West Stonewood Drive,74012,36.0740013,-95.7969519
8945,South State Highway 51,74014,36.0353844,-95.7388576
701,East Kenosha Street,74012,36.0605770,-95.7824333
1400,West Washington Street,74012,36.0328348,-95.8060319
2221,West Albany Street,74012,36.0750547,-95.8166973
2415,South Umbrella Place,74012,36.0272504,-95.8398001
6625,South 223rd East Avenue,74014,36.0670840,-95.7292530
22310,East 67th Street South,74014,36.0647740,-95.7289330
6626,South 223rd East Avenue,74014,36.0674380,-95.7299975
22321,East 68th Street South,74014,36.0641015,-95.7279435
22333,East 68th Street South,74014,36.0642478,-95.7269908
22316,East 68th Street South,74014,36.0636935,-95.7287015
6600,South 223rd East Avenue,74014,36.0674555,-95.7286360
6729,South 223rd East Avenue,74014,36.0642175,-95.7283530
6616,South 223rd East Avenue,74014,36.0676329,-95.7291418
6717,South 223rd East Avenue,74014,36.0647220,-95.7282195
22328,East 68th Street South,74014,36.0635799,-95.7272761
6730,South 223rd East Avenue,74014,36.0643480,-95.7290630
6620,South 223rd East Avenue,74014,36.0675795,-95.7295630
6656,South 223rd East Avenue,74014,36.0653320,-95.7299450
6826,South 224th East Avenue,74014,36.0632157,-95.7272484
6615,South 223rd East Avenue,74014,36.0670950,-95.7288230
22315,East 67th Street South,74014,36.0653500,-95.7286405
6827,South 224th East Avenue,74014,36.0631210,-95.7265375
22324,East 68th Street South,74014,36.0635900,-95.7278595
22320,East 68th Street South,74014,36.0635915,-95.7282970
22327,East 68th Street South,74014,36.0641805,-95.7274610
22309,East 67th Street South,74014,36.0655025,-95.7291800
22304,East 67th Street South,74014,36.0648890,-95.7295375
6648,South 223rd East Avenue,74014,36.0660700,-95.7300800
6650,South 223rd East Avenue,74014,36.0656835,-95.7299795
6642,South 223rd East Avenue,74014,36.0663940,-95.7301735
6638,South 223rd East Avenue,74014,36.0667380,-95.7301395
22309,East 66th Street South,74014,36.0662650,-95.7293485
6630,South 223rd East Avenue,74014,36.0670735,-95.7301400
6815,South 224th East Avenue,74014,36.0637249,-95.7264860
6801,South 224th East Avenue,74014,36.0640822,-95.7266122
1209,East Kenosha Street,74012,36.0606030,-95.7766333
7310,East Pittsburg Court,74014,36.0380401,-95.6979865
21916,East 71st Street South,74014,36.0612375,-95.7317605
22201,East 71st Street South,74014,36.0613307,-95.7298142
4920,East Kenosha Street,74014,36.0613656,-95.7281488
4850,East Kenosha Street,74014,36.0613541,-95.7285772
5050,East Kenosha Street,74014,36.0614125,-95.7273553
2200,West Norfolk Drive,74011,35.9959692,-95.8158522
222,West Broadway Avenue,74012,36.0527246,-95.7929676
201,West Broadway Avenue,74012,36.0522023,-95.7922772
206,West Broadway Avenue,74012,36.0526696,-95.7923384
204,West Broadway Avenue,74012,36.0526694,-95.7922503
124,South Ash Avenue,74012,36.0517138,-95.7922992
609,North Main Street,74012,36.0575221,-95.7903199
122,East Elgin Street,74012,36.0556239,-95.7898475
401,North Main Street,74012,36.0556038,-95.7902828
407,North Main Street,74012,36.0557680,-95.7902774
312,North Main Street,74012,36.0548189,-95.7910911
300,North Main Street,74012,36.0546131,-95.7910547
301,West Detroit Street,74012,36.0542339,-95.7934991
307,West Detroit Street,74012,36.0541703,-95.7937535
313,West Detroit Street,74012,36.0542533,-95.7939745
302,West Detroit Street,74012,36.0546596,-95.7934849
308,West Detroit Street,74012,36.0546388,-95.7937448
314,West Detroit Street,74012,36.0546419,-95.7939817
3505,South Aster Avenue,74012,36.0178051,-95.8425134
3504,South Aster Avenue,74012,36.0178016,-95.8433496
405,South Main Street,74012,36.0492256,-95.7905593
19701,East 91st Street,74014,36.0325520,-95.7584153
513,South 1st Place,74012,36.0474637,-95.7877203
5420,South 23rd Street,74011,35.9960870,-95.7621908
1601,South Main Street,74012,36.0389378,-95.7900550
1537,South Main Street,74012,36.0393055,-95.7902871
1029,East Iola Street,74012,36.0585891,-95.7782038
509,North 9th Street,74012,36.0568202,-95.7792926
513,North 9th Street,74012,36.0570114,-95.7792667
517,North 9th Street,74012,36.0572661,-95.7792676
525,North 9th Street,74012,36.0577374,-95.7792650
521,North 9th Street,74012,36.0574710,-95.7792654
509,North 9th Street,74012,36.0568253,-95.7789977
505,North 9th Street,74012,36.0565413,-95.7789953
513,North 9th Street,74012,36.0570020,-95.7789535
525,North 9th Street,74012,36.0577469,-95.7789561
521,North 9th Street,74012,36.0574682,-95.7789521
517,North 9th Street,74012,36.0572867,-95.7789538
742,North Village Avenue,74012,36.0599700,-95.7753698
736,North Village Avenue,74012,36.0590992,-95.7756652
800,West Mission Street,74012,36.0784601,-95.7986291
5401,South Aspen Avenue,74011,35.9966001,-95.8145475
5405,South Aspen Avenue,74011,35.9960024,-95.8146914
817,South Elm Place,74012,36.0441371,-95.7966923
1750,South Elm Place,74012,36.0340475,-95.7992316
510,East Madison Street,74012,36.0663022,-95.7858814
400,East Madison Street,74012,36.0657809,-95.7864596
3460,East Houston Street,74014,36.0479490,-95.7505750
816,West Tucson Street,74011,35.9888232,-95.8005600
6312,South Elm Place,74011,35.9910710,-95.7978815
816,North 16th Street,74012-2809,36.0601668,-95.7697567
1536,East Hillside Drive,74012,36.0675004,-95.7727690
1532,East Hillside Drive,74012,36.0674927,-95.7731968
6319,South Date Place,74011,35.9891248,-95.7949886
507,West Quanah Place,74011,35.9903249,-95.7958508
6318,South Date Place,74011,35.9890833,-95.7955458
6402,South Date Place,74011,35.9888699,-95.7955450
6306,South Date Place,74011,35.9896649,-95.7955283
6310,South Date Place,74011,35.9894702,-95.7955519
6227,South Date Place,74011,35.9903299,-95.7950490
511,West Quanah Place,74011,35.9902503,-95.7960746
510,West Quanah Place,74011,35.9907884,-95.7958390
519,West Quanah Place,74011,35.9902400,-95.7965907
6226,South Date Place,74011,35.9900629,-95.7955331
6314,South Date Place,74011,35.9892682,-95.7955161
6303,South Date Place,74011,35.9899081,-95.7949986
514,West Quanah Place,74011,35.9907181,-95.7960753
6307,South Date Place,74011,35.9896844,-95.7949932
503,West Quanah Place,74011,35.9904048,-95.7956336
6315,South Date Place,74011,35.9893235,-95.7950525
515,West Quanah Place,74011,35.9902228,-95.7963256
6302,South Date Place,74011,35.9898646,-95.7955342
6311,South Date Place,74011,35.9895187,-95.7950347
1300,North 52nd Street,74014,36.0635851,-95.7255459
1304,North 52nd Street,74014,36.0638325,-95.7255435
1308,North 52nd Street,74014,36.0640913,-95.7255453
1312,North 52nd Street,74014,36.0643487,-95.7256225
1309,North 52nd Street,74014,36.0643991,-95.7250107
1313,North 52nd Street,74014,36.0646013,-95.7253516
1305,North 52nd Street,74014,36.0640067,-95.7249976
1301,North 52nd Street,74014,36.0637572,-95.7250125
1217,North 52nd Street,74014,36.0634053,-95.7250295
1213,North 52nd Street,74014,36.0631220,-95.7250112
1212,North 52nd Street,74014,36.0631149,-95.7255757
317,West Iola Street,74012,36.0592239,-95.7942362
315,West Iola Street,74012,36.0592250,-95.7940866
724,North Date Avenue,74012,36.0586832,-95.7962466
700,North Date Avenue,74012,36.0586857,-95.7958599
704,North Date Avenue,74012,36.0586857,-95.7959147
708,North Date Avenue,74012,36.0586849,-95.7959898
712,North Date Avenue,74012,36.0586847,-95.7960446
716,North Date Avenue,74012,36.0586849,-95.7961186
720,North Date Avenue,74012,36.0586847,-95.7961734
7903,State Highway 51,74014,36.0473403,-95.7527142
1650,North 9th Street,74012,36.0686872,-95.7826845
6900,South 257th East Avenue,74014,36.0618858,-95.6912501
30202,East 71st Street South,74014,36.0602113,-95.6398060
303,North 9th Street,74012,36.0546480,-95.7792000
307,North 9th Street,74012,36.0546502,-95.7788570
307,North 9th Street,74012,36.0549658,-95.7792481
309,North 9th Street,74012,36.0554741,-95.7790890
307,North 9th Street,74012,36.0554741,-95.7792499
309,North 9th Street,74012,36.0552364,-95.7790875
231,East Commercial Street,74012,36.0510517,-95.7880053
233,East Dallas Street,74012,36.0500092,-95.7878016
717,East Houston Street,74012,36.0460932,-95.7813514
809,East Jackson Place,74012,36.0435622,-95.7805386
801,East Jackson Place,74012,36.0436293,-95.7809728
704,South 8th Street,74012,36.0458084,-95.7815035
712,South 8th Street,74012,36.0452937,-95.7814589
716,South 8th Street,74012,36.0450355,-95.7814092
804,South 8th Street,74012,36.0445901,-95.7814863
808,South 8th Street,74012,36.0442968,-95.7814755
812,South 8th Street,74012,36.0440675,-95.7814844
118,East Elgin Street,74012,36.0556238,-95.7899294
114,East Elgin Street,74012,36.0556236,-95.7900138
1124,East Iola Street,74012,36.0586303,-95.7773663
1136,East Iola Street,74012,36.0584859,-95.7775005
1132,East Iola Street,74012,36.0584805,-95.7774066
1128,East Iola Street,74012,36.0585512,-95.7773920
1120,East Iola Street,74012,36.0587714,-95.7775371
1116,East Iola Street,74012,36.0588471,-95.7775280
1112,East Iola Street,74012,36.0588557,-95.7776213
1100,East Iola Street,74012,36.0587192,-95.7777686
1104,East Iola Street,74012,36.0587990,-95.7777552
1108,East Iola Street,74012,36.0588646,-95.7777327
1081,East Iola Street,74012,36.0585259,-95.7780885
1069,East Iola Street,74012,36.0584795,-95.7783013
1073,East Iola Street,74012,36.0584258,-95.7782295
1077,East Iola Street,74012,36.0584787,-95.7781656
1065,East Iola Street,74012,36.0585067,-95.7784966
1053,East Iola Street,74012,36.0586796,-95.7785525
1057,East Iola Street,74012,36.0586233,-95.7786174
1061,East Iola Street,74012,36.0585709,-95.7785600
1049,East Iola Street,74012,36.0587752,-95.7784732
1045,East Iola Street,74012,36.0588311,-95.7784013
1041,East Iola Street,74012,36.0587795,-95.7783300
1037,East Iola Street,74012,36.0590375,-95.7785683
1025,East Iola Street,74012,36.0588961,-95.7787025
1029,East Iola Street,74012,36.0588889,-95.7786053
1033,East Iola Street,74012,36.0589594,-95.7785928
2400,East College Street,74014,36.0534924,-95.7608322
4201,East Washington Street,74014,36.0311361,-95.7390114
409,East Kenosha Street,74012,36.0606530,-95.7854657
405,East Kenosha Street,74012,36.0607302,-95.7860295
738,North 4th Street,74012,36.0590740,-95.7857640
100,West Union Street,74011,35.9880047,-95.7892353
104,West Union Street,74011,35.9880104,-95.7895092
108,West Union Street,74011,35.9880032,-95.7897990
112,West Union Street,74011,35.9880145,-95.7900897
116,West Union Street,74011,35.9880330,-95.7903468
3359,South Elm Place,74012,36.0177647,-95.7954551
514,West Quantico Street,74011,36.0144190,-95.7964147
512,West Quantico Street,74011,36.0144193,-95.7963271
510,West Quantico Street,74011,36.0144203,-95.7961663
508,West Quantico Street,74011,36.0144207,-95.7960787
18091,East 101st Street South,74014,36.0193253,-95.7708097
114,West Jackson Street,74012,36.0446377,-95.7915706
115,West Jackson Street,74012,36.0442419,-95.7915919
113,West Jackson Street,74012,36.0442418,-95.7915350
704,South Main Street,74012,36.0461863,-95.7911538
716,South Main Street,74012,36.0458067,-95.7911119
804,South Main Street,74012,36.0452100,-95.7911678
808,South Main Street,74012,36.0450153,-95.7911122
823,South Main Street,74012,36.0446289,-95.7904338
904,South Main Street,74012,36.0441471,-95.7913185
509,West Houston Street,74012,36.0459306,-95.7960032
910,South Ash Avenue,74012,36.0440923,-95.7924840
119,West Jackson Street,74012,36.0441938,-95.7917374
1117,South Main Street,74012,36.0425001,-95.7904259
515,East Madison Street,74012,36.0647754,-95.7841325
523,East Madison Street,74012,36.0647995,-95.7836348
527,East Madison Street,74012,36.0648013,-95.7833663
1150,North 6th Street,74012,36.0647262,-95.7831558
1100,North 5th Street,74012,36.0630077,-95.7836920
1200,North 4th Street,74012,36.0644480,-95.7856616
407,East Madison Street,74012,36.0647675,-95.7860577
405,East Madison Street,74012,36.0647682,-95.7861424
401,East Madison Street,74012,36.0647357,-95.7863988
403,East Madison Street,74012,36.0647369,-95.7863035
504,East Madison Street,74012,36.0652426,-95.7849408
508,East Madison Street,74012,36.0658896,-95.7854474
518,East Madison Street,74012,36.0654353,-95.7842122
503,East Madison Street,74012,36.0647753,-95.7848544
419,East Madison Street,74012,36.0647734,-95.7853468
507,East Madison Street,74012,36.0647741,-95.7846138
511,East Madison Street,74012,36.0647763,-95.7843704
409,East Madison Street,74012,36.0647769,-95.7859062
411,East Madison Street,74012,36.0647766,-95.7858164
413,East Madison Street,74012,36.0647759,-95.7856701
415,East Madison Street,74012,36.0647762,-95.7855804
306,West Quantico Street,74011,36.0144048,-95.7934955
304,West Quantico Street,74011,36.0144045,-95.7934011
300,West Quantico Street,74011,36.0144069,-95.7931609
302,West Quantico Street,74011,36.0144072,-95.7932554
310,West Quantico Street,74011,36.0144218,-95.7937362
308,West Quantico Street,74011,36.0144218,-95.7936453
314,West Quantico Street,74011,36.0144231,-95.7939837
312,West Quantico Street,74011,36.0144231,-95.7938928
318,West Quantico Street,74011,36.0144239,-95.7942262
316,West Quantico Street,74011,36.0144238,-95.7941353
322,West Quantico Street,74011,36.0144225,-95.7944711
320,West Quantico Street,74011,36.0144224,-95.7943803
324,West Quantico Street,74011,36.0144172,-95.7946240
326,West Quantico Street,74011,36.0144173,-95.7947148
513,West Quantico Street,74011,36.0139531,-95.7964396
511,West Quantico Street,74011,36.0139525,-95.7963491
525,West Quantico Street,74011,36.0139524,-95.7971688
523,West Quantico Street,74011,36.0139519,-95.7970782
521,West Quantico Street,74011,36.0139559,-95.7969138
519,West Quantico Street,74011,36.0139554,-95.7968233
517,West Quantico Street,74011,36.0139569,-95.7966682
515,West Quantico Street,74011,36.0139564,-95.7965777
315,West Quantico Street,74011,36.0139789,-95.7942421
313,West Quantico Street,74011,36.0139791,-95.7941379
319,West Quantico Street,74011,36.0139741,-95.7945006
317,West Quantico Street,74011,36.0139743,-95.7943964
403,West Quantico Street,74011,36.0139761,-95.7950033
401,West Quantico Street,74011,36.0139764,-95.7948991
407,West Quantico Street,74011,36.0139757,-95.7952534
405,West Quantico Street,74011,36.0139759,-95.7951493
402,West Quantico Street,74011,36.0144066,-95.7949614
400,West Quantico Street,74011,36.0144065,-95.7948569
406,West Quantico Street,74011,36.0144078,-95.7952053
404,West Quantico Street,74011,36.0144076,-95.7951008
410,West Quantico Street,74011,36.0144078,-95.7954557
408,West Quantico Street,74011,36.0144076,-95.7953512
504,West Quantico Street,74011,36.0144122,-95.7958337
506,West Quantico Street,74011,36.0144124,-95.7959382
307,West Quantico Street,74011,36.0139594,-95.7935137
305,West Quantico Street,74011,36.0139591,-95.7933959
301,West Quantico Street,74011,36.0139572,-95.7930736
303,West Quantico Street,74011,36.0139575,-95.7931913
516,West Quantico Street,74011,36.0144151,-95.7965769
518,West Quantico Street,74011,36.0144149,-95.7966665
509,West Quantico Street,74011,36.0139510,-95.7962002
507,West Quantico Street,74011,36.0139505,-95.7961038
311,West Quantico Street,74011,36.0139647,-95.7940007
309,West Quantico Street,74011,36.0139647,-95.7938999
323,West Quantico Street,74011,36.0139641,-95.7947463
321,West Quantico Street,74011,36.0139641,-95.7946456
411,West Quantico Street,74011,36.0139624,-95.7954964
409,West Quantico Street,74011,36.0139624,-95.7953956
503,West Quantico Street,74011,36.0139651,-95.7958643
505,West Quantico Street,74011,36.0139651,-95.7959651
7501,East Kenosha Street,74014,36.0543004,-95.6911244
16006,East 131st Street South,74011,35.9694191,-95.7970045
10302,South Garnett Road,74011,36.0118502,-95.8596234
3200,North Battle Creek Drive,74012,36.0881085,-95.8079431
401,West New Orleans Street,74011,36.0166438,-95.7935714
4010,West New Orleans Street,74012,36.0183173,-95.8387830
1225,East Kenosha Street,74012,36.0595136,-95.7765585
