House number,Street name,Postal code,Latitude,Longitude
13731,South State Highway 51,74429,35.9639087,-95.6529150
13743,South State Highway 51,74429,35.9628570,-95.6531689
13747,South State Highway 51,74429,35.9629580,-95.6528815
13745,South State Highway 51,74429,35.9629626,-95.6531906
30259,East State Highway 51,74429,35.9522726,-95.6394840
30273,East State Highway 51,74429,35.9522369,-95.6392273
30320,East 143rd Street South,74429,35.9547778,-95.6385827
30342,East 143rd Street South,74429,35.9547431,-95.6383064
30374,East 143rd Street South,74429,35.9547539,-95.6379390
30438,East 143rd Street South,74429,35.9547539,-95.6372228
30477,East 143rd Street South,74429,35.9547431,-95.6368178
30472,East 143rd Street South,74429,35.9551882,-95.6372470
30377,East 143rd Street South,74429,35.9551882,-95.6378639
30331,East 143rd Street South,74429,35.9552077,-95.6384379
30303,East 143rd Street South,74429,35.9551968,-95.6390655
30137,East 143rd Street South,74429,35.9541243,-95.6396569
27616,East 109th Place South,74429,36.0048909,-95.6684466
27604,East 109th Place South,74429,36.0048870,-95.6690839
27624,East 109th Place South,74429,36.0048915,-95.6680268
27620,East 109th Place South,74429,36.0048912,-95.6682461
27702,East 109th Place South,74429,36.0048918,-95.6678075
27608,East 109th Place South,74429,36.0048873,-95.6688646
27612,East 109th Place South,74429,36.0048876,-95.6686453
27609,East 108th Place South,74429,36.0069662,-95.6687604
27421,East 108th Place South,74429,36.0069639,-95.6705150
27417,East 108th Place South,74429,36.0069636,-95.6707343
27601,East 108th Place South,74429,36.0069656,-95.6691990
27425,East 108th Place South,74429,36.0069642,-95.6702956
27413,East 108th Place South,74429,36.0069633,-95.6709536
27511,East 108th Place South,74429,36.0069650,-95.6696377
27503,East 108th Place South,74429,36.0069645,-95.6700763
27605,East 108th Place South,74429,36.0069659,-95.6689797
27613,East 108th Place South,74429,36.0069664,-95.6685410
27515,East 108th Place South,74429,36.0069653,-95.6694183
27507,East 108th Place South,74429,36.0069647,-95.6698570
27604,East 108th Street South,74429,36.0073193,-95.6691960
27510,East 108th Street South,74429,36.0073187,-95.6696346
27608,East 108th Street South,74429,36.0073196,-95.6689766
27514,East 108th Street South,74429,36.0073190,-95.6694153
27624,East 109th Street South,74429,36.0056873,-95.6680994
27620,East 109th Street South,74429,36.0056870,-95.6683187
27616,East 109th Street South,74429,36.0056867,-95.6685380
27612,East 109th Street South,74429,36.0056864,-95.6687574
27608,East 109th Street South,74429,36.0056861,-95.6689767
27604,East 109th Street South,74429,36.0056859,-95.6691960
27514,East 109th Street South,74429,36.0056856,-95.6694153
27510,East 109th Street South,74429,36.0056853,-95.6696347
27506,East 109th Street South,74429,36.0056850,-95.6698540
27502,East 109th Street South,74429,36.0056847,-95.6700733
27428,East 109th Street South,74429,36.0056844,-95.6702926
27424,East 109th Street South,74429,36.0056841,-95.6705120
27420,East 109th Street South,74429,36.0056839,-95.6707313
27408,East 109th Street South,74429,36.0056830,-95.6713893
27404,East 109th Street South,74429,36.0056827,-95.6716086
27609,East 109th Place South,74429,36.0053390,-95.6687621
27421,East 109th Place South,74429,36.0053367,-95.6705167
27405,East 109th Place South,74429,36.0053356,-95.6713940
27417,East 109th Place South,74429,36.0053364,-95.6707360
27401,East 109th Place South,74429,36.0053353,-95.6716133
27601,East 109th Place South,74429,36.0053384,-95.6692007
27425,East 109th Place South,74429,36.0053370,-95.6702973
27413,East 109th Place South,74429,36.0053361,-95.6709553
27511,East 109th Place South,74429,36.0053378,-95.6696394
27503,East 109th Place South,74429,36.0053373,-95.6700780
27621,East 109th Place South,74429,36.0053398,-95.6681041
27605,East 109th Place South,74429,36.0053387,-95.6689814
27617,East 109th Place South,74429,36.0053396,-95.6683234
27613,East 109th Place South,74429,36.0053393,-95.6685427
27515,East 109th Place South,74429,36.0053381,-95.6694200
27409,East 109th Place South,74429,36.0053359,-95.6711746
27507,East 109th Place South,74429,36.0053376,-95.6698587
27611,East 109th Street South,74429,36.0061483,-95.6687672
27419,East 109th Street South,74429,36.0061457,-95.6707412
27603,East 109th Street South,74429,36.0061477,-95.6692059
27427,East 109th Street South,74429,36.0061463,-95.6703025
27509,East 109th Street South,74429,36.0061471,-95.6696445
27501,East 109th Street South,74429,36.0061466,-95.6700832
27623,East 109th Street South,74429,36.0061491,-95.6681093
27607,East 109th Street South,74429,36.0061480,-95.6689866
27619,East 109th Street South,74429,36.0061488,-95.6683286
27615,East 109th Street South,74429,36.0061486,-95.6685479
27513,East 109th Street South,74429,36.0061474,-95.6694252
27505,East 109th Street South,74429,36.0061469,-95.6698639
27618,East 108th Place South,74429,36.0064963,-95.6683239
27610,East 108th Place South,74429,36.0064957,-95.6687625
27602,East 108th Place South,74429,36.0064951,-95.6692012
27512,East 108th Place South,74429,36.0064946,-95.6696398
27504,East 108th Place South,74429,36.0064940,-95.6700785
27422,East 108th Place South,74429,36.0064934,-95.6705171
27414,East 108th Place South,74429,36.0064929,-95.6709558
27406,East 108th Place South,74429,36.0064923,-95.6713944
27410,East 108th Place South,74429,36.0064926,-95.6711751
27426,East 108th Place South,74429,36.0064937,-95.6702978
27516,East 108th Place South,74429,36.0064949,-95.6694205
27614,East 108th Place South,74429,36.0064960,-95.6685432
27606,East 108th Place South,74429,36.0064954,-95.6689819
27418,East 108th Place South,74429,36.0064931,-95.6707365
27508,East 108th Place South,74429,36.0064943,-95.6698592
27622,East 108th Place South,74429,36.0064966,-95.6681046
27402,East 108th Place South,74429,36.0064920,-95.6716138
10828,South 274th East Avenue,74429,36.0067809,-95.6721006
10836,South 274th East Avenue,74429,36.0064525,-95.6720987
10832,South 274th East Avenue,74429,36.0066076,-95.6721006
10840,South 274th East Avenue,74429,36.0062913,-95.6721006
10844,South 274th East Avenue,74429,36.0061210,-95.6720968
10906,South 274th East Avenue,74429,36.0057804,-95.6721006
10910,South 274th East Avenue,74429,36.0056162,-95.6720987
10914,South 274th East Avenue,74429,36.0054611,-95.6720968
10918,South 274th East Avenue,74429,36.0052786,-95.6720724
10922,South 274th East Avenue,74429,36.0049487,-95.6720949
10926,South 274th East Avenue,74429,36.0047662,-95.6721100
10930,South 274th East Avenue,74429,36.0046050,-95.6721344
11002,South 274th East Avenue,74429,36.0044454,-95.6721400
11006,South 274th East Avenue,74429,36.0042416,-95.6721269
27407,East 110th Street South,74429,36.0045762,-95.6716006
27402,South 274th East Avenue,74429,36.0048620,-95.6716081
27422,East 109th Place South,74429,36.0048833,-95.6704879
27414,East 109th Place South,74429,36.0048939,-95.6709239
27410,East 109th Place South,74429,36.0048985,-95.6711439
27406,East 109th Place South,74429,36.0048863,-95.6713882
27720,East 107th Street South,74429,36.0090482,-95.6671519
27716,East 107th Street South,74429,36.0090479,-95.6673712
27404,East 110th Street South,74429,36.0040442,-95.6719279
27408,East 110th Street South,74429,36.0040638,-95.6716463
27412,East 110th Street South,74429,36.0040616,-95.6714210
27416,East 110th Street South,74429,36.0040421,-95.6711260
27420,East 110th Street South,74429,36.0042026,-95.6709275
27419,East 110th Street South,74429,36.0044261,-95.6709248
27415,East 110th Street South,74429,36.0045910,-95.6711206
27411,East 110th Street South,74429,36.0045889,-95.6713995
10930,South 276th East Avenue,74429,36.0047690,-95.6695515
10934,South 276th East Avenue,74429,36.0046041,-95.6695676
10938,South 276th East Avenue,74429,36.0044435,-95.6695649
11002,South 276th East Avenue,74429,36.0042699,-95.6695756
11006,South 276th East Avenue,74429,36.0041050,-95.6695676
11010,South 276th East Avenue,74429,36.0039488,-95.6695810
11014,South 276th East Avenue,74429,36.0037795,-95.6695408
11018,South 276th East Avenue,74429,36.0036146,-95.6695810
11022,South 276th East Avenue,74429,36.0034540,-95.6695971
27518,East 110th Place South,74429,36.0030136,-95.6694979
27514,East 110th Place South,74429,36.0030266,-95.6696829
27510,East 110th Place South,74429,36.0030374,-95.6699029
27506,East 110th Place South,74429,36.0030331,-95.6701094
27502,East 110th Place South,74429,36.0029723,-95.6703320
10932,South 275th East Avenue,74429,36.0044478,-95.6705573
11004,South 275th East Avenue,74429,36.0042656,-95.6705412
11008,South 275th East Avenue,74429,36.0040985,-95.6705385
11012,South 275th East Avenue,74429,36.0038989,-95.6705439
11016,South 275th East Avenue,74429,36.0037405,-95.6705332
11020,South 275th East Avenue,74429,36.0035430,-95.6705332
11024,South 275th East Avenue,74429,36.0033738,-95.6706056
11028,South 275th East Avenue,74429,36.0031676,-95.6706029
11025,South 275th East Avenue,74429,36.0034432,-95.6699431
11021,South 275th East Avenue,74429,36.0036124,-95.6699914
11017,South 275th East Avenue,74429,36.0037773,-95.6699941
11013,South 275th East Avenue,74429,36.0039488,-95.6699860
11009,South 275th East Avenue,74429,36.0041158,-95.6699780
11005,South 275th East Avenue,74429,36.0042829,-95.6699806
10928,South 275th East Avenue,74429,36.0046279,-95.6705332
11150,South 265th East Avenue,74429,36.0023883,-95.6819382
11150,South 265th East Avenue,74429,36.0023106,-95.6819310
11150,South 265th East Avenue,74429,36.0022253,-95.6819299
11150,South 265th East Avenue,74429,36.0019963,-95.6819754
30217,East 139th Street South,74429,35.9612113,-95.6397101
30243,East 139th Street South,74429,35.9612379,-95.6393198
30270,East 139th Street South,74429,35.9607233,-95.6388966
13887,South 303rd East Avenue,74429,35.9612204,-95.6381847
13884,South 303rd East Avenue,74429,35.9612105,-95.6387433
13805,South 303rd East Avenue,74429,35.9625019,-95.6379839
13849,South 303rd East Avenue,74429,35.9618176,-95.6379596
13840,South 302nd East Avenue,74429,35.9623268,-95.6402227
13848,South 302nd East Avenue,74429,35.9616815,-95.6407090
13876,South 302nd East Avenue,74429,35.9613368,-95.6401858
13898,South 302nd East Avenue,74429,35.9610064,-95.6401254
14027,South 302nd East Avenue,74429,35.9598332,-95.6397285
13377,South 305th East Avenue,74429,35.9696133,-95.6357154
13606,South 305th East Avenue,74429,35.9661730,-95.6369582
12652,South 276th East Avenue,74429,35.9797283,-95.6696829
12690,South 276th East Avenue,74429,35.9794353,-95.6699102
12680,South 275th East Avenue,74429,35.9788896,-95.6710777
27508,South 275th East Avenue,74429,35.9796187,-95.6705423
12664,South 276th East Avenue,74429,35.9800526,-95.6694787
27539,East 126th Street South,74429,35.9805217,-95.6706527
27531,East 126th Street South,74429,35.9804735,-95.6710816
27523,East 126th Street South,74429,35.9800464,-95.6711509
27327,East 126th Street South,74429,35.9804174,-95.6721219
27364,East 126th Street South,74429,35.9798749,-95.6722143
12757,East 128th Street South,74429,35.9784718,-95.6701453
27611,East 128th Street South,74429,35.9784780,-95.6694633
12782,South 277th East Avenue,74429,35.9783065,-95.6685848
12752,South 277th East Avenue,74429,35.9787961,-95.6689123
12751,South 277th East Avenue,74429,35.9789021,-95.6678104
12777,South 277th East Avenue,74429,35.9784406,-95.6678836
27785,East 128th Street South,74429,35.9786994,-95.6673403
12816,South 279th East Avenue,74429,35.9782442,-95.6662152
12827,South 279th East Avenue,74429,35.9782380,-95.6656681
12857,South 279th East Avenue,74429,35.9778669,-95.6655409
12866,South 279th East Avenue,74429,35.9774927,-95.6659763
12875,South 279th East Avenue,74429,35.9774179,-95.6653329
12850,South 281st East Avenue,74429,35.9771092,-95.6647434
13737,South State Highway 51,74429,35.9636911,-95.6530371
120,North Broadway Street,74429,35.9516149,-95.6507221
118,North Broadway Street,74429,35.9515476,-95.6507214
614,South Guthrie Avenue,74429,35.9453460,-95.6458181
618,South Guthrie Avenue,74429,35.9451919,-95.6458020
612,South Guthrie Avenue,74429,35.9456327,-95.6467891
600,South Guthrie Avenue,74429,35.9457716,-95.6457591
528,South Guthrie Avenue,74429,35.9459497,-95.6458664
519,South Guthrie Avenue,74429,35.9462472,-95.6452736
515,South Guthrie Avenue,74429,35.9463818,-95.6452924
30091,East State Highway 51,74429,35.9522036,-95.6411948
30091,East State Highway 51,74429,35.9522017,-95.6411075
30091,East State Highway 51,74429,35.9522017,-95.6412949
30259,East State Highway 51,74429,35.9522087,-95.6394068
13880,South 292nd East Avenue,74429,35.9605825,-95.6510075
13881,South 292nd East Avenue,74429,35.9605796,-95.6505726
13867,South 292nd East Avenue,74429,35.9607924,-95.6505678
13855,South 292nd East Avenue,74429,35.9609964,-95.6505797
13839,South 292nd East Avenue,74429,35.9611715,-95.6505582
13811,South 292nd East Avenue,74429,35.9615979,-95.6505642
415,North Fairland Avenue,74429,35.9545718,-95.6465746
417,North Fairland Avenue,74429,35.9547537,-95.6465706
330,West Sycamore Street,74429,35.9507338,-95.6543373
223,West Sycamore Street,74429,35.9511572,-95.6528547
315,West Sycamore Street,74429,35.9511844,-95.6537251
325,West Sycamore Street,74429,35.9511616,-95.6540671
320,West Sycamore Street,74429,35.9507371,-95.6540135
316,West Sycamore Street,74429,35.9506872,-95.6538311
312,West Sycamore Street,74429,35.9507414,-95.6536084
306,West Sycamore Street,74429,35.9507556,-95.6533939
106,North Atoka Avenue,74429,35.9511556,-95.6533090
29906,East 147th Street South,74429,35.9489484,-95.6433859
29890,East 147th Street South,74429,35.9489668,-95.6436497
29874,East 147th Street South,74429,35.9489575,-95.6439017
410,East Pecan Street,74429,35.9487317,-95.6463227
13850,South 305th East Avenue,74429,35.9621376,-95.6368873
13866,South 305th East Avenue,74429,35.9617281,-95.6368099
13979,South 302nd East Avenue,74429,35.9603696,-95.6395938
124,North Broadway Street,74429,35.9517519,-95.6507227
222,West Sycamore Street,74429,35.9507089,-95.6528266
504,South Fairland Avenue,74429,35.9467928,-95.6469204
420,South Fairland Avenue,74429,35.9471772,-95.6469190
414,South Fairland Avenue,74429,35.9473704,-95.6469177
410,South Fairland Avenue,74429,35.9475604,-95.6469002
404,South Fairland Avenue,74429,35.9477482,-95.6469056
328,South Fairland Avenue,74429,35.9479143,-95.6469606
320,South Fairland Avenue,74429,35.9481738,-95.6468868
402,East Pecan Street,74429,35.9487134,-95.6466588
313,South Fairland Avenue,74429,35.9485039,-95.6466508
321,South Fairland Avenue,74429,35.9481456,-95.6465019
405,South Fairland Avenue,74429,35.9477406,-95.6465060
409,South Fairland Avenue,74429,35.9475648,-95.6464939
417,South Fairland Avenue,74429,35.9473563,-95.6464952
423,South Fairland Avenue,74429,35.9471359,-95.6464456
501,South Fairland Avenue,74429,35.9469264,-95.6464899
507,South Fairland Avenue,74429,35.9467103,-95.6464832
407,East Hickory Street,74429,35.9465203,-95.6462324
513,South Fairland Avenue,74429,35.9465138,-95.6464939
512,South Fairland Avenue,74429,35.9464921,-95.6469103
122,South Division Street,74429,35.9501311,-95.6548822
116,South Division Street,74429,35.9503773,-95.6548281
106,South Division Street,74429,35.9507192,-95.6548028
113,North Division Street,74429,35.9513117,-95.6543532
107,North Division Street,74429,35.9511572,-95.6543398
227,South Old Main Street,74429,35.9490304,-95.6555825
113,South Old Main Street,74429,35.9505200,-95.6556053
123,South Old Main Street,74429,35.9501389,-95.6556590
212,South Old Main Street,74429,35.9494766,-95.6562196
206,South Old Main Street,74429,35.9496210,-95.6562276
118,South Old Main Street,74429,35.9501769,-95.6561404
116,South Old Main Street,74429,35.9503202,-95.6561686
114,South Old Main Street,74429,35.9504472,-95.6561472
106,South Old Main Street,74429,35.9507338,-95.6561190
100,North Old Main Street,74429,35.9509521,-95.6561324
304,East Cypress Street,74429,35.9497132,-95.6476303
28464,East 151st Street South,74429,35.9436362,-95.6601968
13815,South 296th East Avenue,74429,35.9615777,-95.6463501
13827,South 296th East Avenue,74429,35.9613709,-95.6463544
13853,South 296th East Avenue,74429,35.9609608,-95.6463544
13865,South 296th East Avenue,74429,35.9607661,-95.6463608
13881,South 296th East Avenue,74429,35.9605576,-95.6463608
13893,South 296th East Avenue,74429,35.9603491,-95.6463565
14009,South 296th East Avenue,74429,35.9601354,-95.6463629
14078,South 296th East Avenue,74429,35.9593186,-95.6468802
14060,South 296th East Avenue,74429,35.9595409,-95.6468824
14044,South 296th East Avenue,74429,35.9597356,-95.6468802
14026,South 296th East Avenue,74429,35.9599476,-95.6468717
14010,South 296th East Avenue,74429,35.9601475,-95.6468802
13894,South 296th East Avenue,74429,35.9603525,-95.6468717
13882,South 296th East Avenue,74429,35.9605438,-95.6468760
13854,South 296th East Avenue,74429,35.9609556,-95.6468760
13838,South 296th East Avenue,74429,35.9611762,-95.6468568
13824,South 296th East Avenue,74429,35.9613830,-95.6468568
13812,South 296th East Avenue,74429,35.9615811,-95.6468355
27361,East 151st Street South,74429,35.9450069,-95.6710761
27337,East 151st Street South,74429,35.9450138,-95.6715053
312,South Bixby Street,74429,35.9486445,-95.6586891
223,South Bixby Street,74429,35.9491512,-95.6582122
206,South Bixby Street,74429,35.9494790,-95.6587763
207,South Bixby Street,74429,35.9496753,-95.6581253
135,South Bixby Street,74429,35.9501356,-95.6577498
128,South Bixby Street,74429,35.9502507,-95.6586939
122,South Bixby Street,74429,35.9505417,-95.6586885
123,South Bixby Street,74429,35.9506198,-95.6582138
27332,East 146th Street South,74429,35.9514905,-95.6715900
27331,East 146th Street South,74429,35.9521484,-95.6721801
624,South Guthrie Avenue,74429,35.9448733,-95.6458488
29117,East 154th Street South,74429,35.9411828,-95.6516276
29139,East 154th Street South,74429,35.9412001,-95.6513393
29159,East 154th Street South,74429,35.9411969,-95.6510952
29006,East 153rd Street South,74429,35.9417525,-95.6529036
29044,East 153rd Street South,74429,35.9417785,-95.6523831
15296,South 291st East Avenue,74429,35.9419673,-95.6520705
15338,South 291st East Avenue,74429,35.9415925,-95.6520807
15286,South 291st East Avenue,74429,35.9421137,-95.6520604
15270,South 291st East Avenue,74429,35.9422970,-95.6520722
29045,East 153rd Street South,74429,35.9421328,-95.6523274
29035,East 153rd Street South,74429,35.9421301,-95.6525538
29013,East 153rd Street South,74429,35.9421274,-95.6527599
11905,South 270th East Avenue,74429,35.9910613,-95.6751094
11993,South 268th East Avenue,74429,35.9889799,-95.6771018
11983,South 268th East Avenue,74429,35.9891495,-95.6771189
11977,South 268th East Avenue,74429,35.9893151,-95.6771213
11967,South 268th East Avenue,74429,35.9895615,-95.6771213
11959,South 268th East Avenue,74429,35.9897389,-95.6771018
11953,South 268th East Avenue,74429,35.9898986,-95.6771067
11947,South 268th East Avenue,74429,35.9900523,-95.6770921
11939,South 268th East Avenue,74429,35.9902278,-95.6770921
11933,South 268th East Avenue,74429,35.9903874,-95.6770848
11925,South 268th East Avenue,74429,35.9905688,-95.6770994
11919,South 268th East Avenue,74429,35.9907245,-95.6771043
11915,South 268th East Avenue,74429,35.9908862,-95.6770994
11907,South 268th East Avenue,74429,35.9910537,-95.6770994
11899,South 268th East Avenue,74429,35.9912134,-95.6770921
11885,South 268th East Avenue,74429,35.9913849,-95.6770994
11879,South 268th East Avenue,74429,35.9915367,-95.6771238
11861,South 268th East Avenue,74429,35.9917338,-95.6771140
29662,East 160th Place South,74429,35.9308009,-95.6459457
15811,South 297th East Avenue,74429,35.9334842,-95.6440169
15914,South 297th East Avenue,74429,35.9320312,-95.6458274
15940,South 297th East Avenue,74429,35.9316990,-95.6457844
15966,South 297th East Avenue,74429,35.9314014,-95.6458327
15982,South 297th East Avenue,74429,35.9311973,-95.6458381
16032,South 297th East Avenue,74429,35.9305218,-95.6458300
16011,South 296th East Avenue,74429,35.9308215,-95.6463021
16002,South 296th East Avenue,74429,35.9309866,-95.6468090
16016,South 296th East Avenue,74429,35.9307607,-95.6468037
29364,East 160th Street South,74429,35.9303454,-95.6488906
29388,East 160th Street South,74429,35.9303372,-95.6486405
29414,East 160th Street South,74429,35.9303249,-95.6483718
29440,East 160th Street South,74429,35.9303399,-95.6481150
29494,East 160th Street South,74429,35.9303481,-95.6476115
29518,East 160th Street South,74429,35.9303303,-95.6473800
29544,East 160th Street South,74429,35.9303358,-95.6470995
29574,East 160th Street South,74429,35.9303167,-95.6468629
29590,East 160th Street South,74429,35.9302989,-95.6466196
29596,East 160th Street South,74429,35.9303385,-95.6462969
16020,South 294th East Avenue,74429,35.9307285,-95.6487790
15463,South 291st East Avenue,74429,35.9400261,-95.6516126
15473,South 291st East Avenue,74429,35.9398756,-95.6516194
15495,South 291st East Avenue,74429,35.9395418,-95.6516295
15505,South 291st East Avenue,74429,35.9393640,-95.6516126
15515,South 291st East Avenue,74429,35.9392108,-95.6516093
15527,South 291st East Avenue,74429,35.9390329,-95.6516126
15547,South 291st East Avenue,74429,35.9386907,-95.6516326
15559,South 291st East Avenue,74429,35.9385295,-95.6516194
15570,South 291st East Avenue,74429,35.9383452,-95.6520938
15579,South 291st East Avenue,74429,35.9381869,-95.6516312
15590,South 291st East Avenue,74429,35.9380143,-95.6520913
15578,South 291st East Avenue,74429,35.9381859,-95.6520952
15567,South 291st East Avenue,74429,35.9383506,-95.6516233
15556,South 291st East Avenue,74429,35.9385103,-95.6520891
15550,South 291st East Avenue,74429,35.9386772,-95.6520891
15536,South 291st East Avenue,74429,35.9388948,-95.6520587
15516,South 291st East Avenue,74429,35.9391916,-95.6520553
15496,South 291st East Avenue,74429,35.9394707,-95.6520621
15464,South 291st East Avenue,74429,35.9399960,-95.6520655
15442,South 291st East Avenue,74429,35.9403380,-95.6520890
15453,South 291st East Avenue,74429,35.9402099,-95.6516156
15445,South 291st East Avenue,74429,35.9403706,-95.6516182
15409,South 291st East Avenue,74429,35.9408635,-95.6516156
15412,South 292nd East Avenue,74429,35.9408201,-95.6508002
15505,South 292nd East Avenue,74429,35.9394129,-95.6503281
15493,South 292nd East Avenue,74429,35.9395888,-95.6503361
15481,South 292nd East Avenue,74429,35.9397604,-95.6503335
15467,South 292nd East Avenue,74429,35.9399797,-95.6503415
15449,South 292nd East Avenue,74429,35.9402555,-95.6502852
15431,South 292nd East Avenue,74429,35.9405335,-95.6502718
15411,South 292nd East Avenue,74429,35.9408201,-95.6502691
15430,South 292nd East Avenue,74429,35.9405378,-95.6507894
15448,South 292nd East Avenue,74429,35.9402664,-95.6507894
15466,South 292nd East Avenue,74429,35.9399971,-95.6507921
15492,South 292nd East Avenue,74429,35.9395910,-95.6508136
15515,South 292nd East Avenue,74429,35.9392544,-95.6503227
15530,South 292nd East Avenue,74429,35.9390698,-95.6508243
15527,South 292nd East Avenue,74429,35.9390807,-95.6503442
15537,South 292nd East Avenue,74429,35.9389048,-95.6503415
15562,South 292nd East Avenue,74429,35.9385573,-95.6508297
15574,South 292nd East Avenue,74429,35.9383749,-95.6508109
15575,South 292nd East Avenue,74429,35.9383964,-95.6503475
15561,South 292nd East Avenue,74429,35.9385530,-95.6502235
15586,South 292nd East Avenue,74429,35.9382033,-95.6508270
29188,East 156th Street South,74429,35.9377073,-95.6506630
29170,East 156th Street South,74429,35.9376909,-95.6508793
29158,East 156th Street South,74429,35.9377059,-95.6510990
29140,East 156th Street South,74429,35.9377073,-95.6513203
29124,East 156th Street South,74429,35.9377155,-95.6515265
29108,East 156th Street South,74429,35.9377059,-95.6517292
29092,East 156th Street South,74429,35.9376950,-95.6519624
412,West Sycamore Street,74429,35.9507883,-95.6551488
420,West Sycamore Street,74429,35.9507592,-95.6555057
408,West Sycamore Street,74429,35.9507894,-95.6550157
30241,East 145th Street South,74429,35.9526848,-95.6393609
30243,East 145th Street South,74429,35.9526844,-95.6393067
14479,South 302nd East Avenue,74429,35.9526604,-95.6396193
14473,South 302nd East Avenue,74429,35.9528020,-95.6396175
14467,South 302nd East Avenue,74429,35.9528624,-95.6396167
15811,South 289th East Avenue,74429,35.9344027,-95.6543504
15791,South 289th East Avenue,74429,35.9349474,-95.6540268
421,East Birch Street,74429,35.9552218,-95.6456544
417,East Birch Street,74429,35.9552261,-95.6458206
413,East Birch Street,74429,35.9552316,-95.6459628
409,East Birch Street,74429,35.9552240,-95.6461559
405,East Birch Street,74429,35.9552164,-95.6462900
401,East Birch Street,74429,35.9551719,-95.6464939
420,East Birch Street,74429,35.9547137,-95.6456149
416,East Birch Street,74429,35.9547220,-95.6458131
412,East Birch Street,74429,35.9547220,-95.6459716
408,East Birch Street,74429,35.9547150,-95.6461412
404,East Birch Street,74429,35.9547207,-95.6463393
13838,South 295th East Avenue,74429,35.9611847,-95.6479597
13850,South 295th East Avenue,74429,35.9609828,-95.6479651
13866,South 295th East Avenue,74429,35.9607722,-95.6479731
13880,South 295th East Avenue,74429,35.9605682,-95.6479651
13894,South 295th East Avenue,74429,35.9603619,-95.6479624
13895,South 295th East Avenue,74429,35.9603445,-95.6474796
13881,South 295th East Avenue,74429,35.9605638,-95.6474662
13867,South 295th East Avenue,74429,35.9607809,-95.6474581
13851,South 295th East Avenue,74429,35.9609828,-95.6474528
13837,South 295th East Avenue,74429,35.9611695,-95.6474581
13815,South 295th East Avenue,74429,35.9615147,-95.6473938
13820,South 295th East Avenue,74429,35.9614605,-95.6480724
13842,South 294th East Avenue,74429,35.9611153,-95.6490621
13866,South 294th East Avenue,74429,35.9607831,-95.6490675
13878,South 294th East Avenue,74429,35.9605834,-95.6490326
13892,South 294th East Avenue,74429,35.9603793,-95.6490433
13893,South 294th East Avenue,74429,35.9603706,-95.6485793
13881,South 294th East Avenue,74429,35.9605812,-95.6485632
13865,South 294th East Avenue,74429,35.9607809,-95.6485793
13853,South 294th East Avenue,74429,35.9609850,-95.6485766
13839,South 294th East Avenue,74429,35.9611804,-95.6485793
13823,South 294th East Avenue,74429,35.9613845,-95.6485713
13811,South 294th East Avenue,74429,35.9615972,-95.6485391
29858,East 156th Street South,74429,35.9375950,-95.6430546
29820,East 156th Street South,74429,35.9375898,-95.6438189
29800,East 156th Street South,74429,35.9376018,-95.6442702
29857,East 156th Street South,74429,35.9380707,-95.6431057
29475,East 155th Street South,74429,35.9389058,-95.6480978
29409,East 155th Street South,74429,35.9382283,-95.6488623
29439,East 155th Street South,74429,35.9384520,-95.6486209
29459,East 155th Street South,74429,35.9386974,-95.6483822
29499,East 155th Street South,74429,35.9391458,-95.6478632
29523,East 155th Street South,74429,35.9393847,-95.6476137
29547,East 155th Street South,74429,35.9395258,-95.6473428
29575,East 155th Street South,74429,35.9396431,-95.6470343
29647,East 155th Street South,74429,35.9400796,-95.6461492
29675,East 155th Street South,74429,35.9400709,-95.6457925
29640,East 155th Street South,74429,35.9395454,-95.6460500
29546,East 155th Street South,74429,35.9391241,-95.6469807
29510,East 155th Street South,74429,35.9389677,-95.6473026
29484,East 155th Street South,74429,35.9386181,-95.6477478
29472,East 155th Street South,74429,35.9383141,-95.6480616
29360,East 155th Street South,74429,35.9380774,-95.6483057
29588,East 156th Street South,74429,35.9374984,-95.6463459
29562,East 156th Street South,74429,35.9375019,-95.6466993
29538,East 156th Street South,74429,35.9374743,-95.6470612
29533,East 156th Street South,74429,35.9380052,-95.6471804
29559,East 156th Street South,74429,35.9379776,-95.6468270
15597,South 296th East Avenue,74429,35.9375757,-95.6459078
15593,South 296th East Avenue,74429,35.9378906,-95.6458434
15579,South 296th East Avenue,74429,35.9381338,-95.6458649
15506,South 296th East Avenue,74429,35.9393022,-95.6466776
27301,East 151st Street South,74429,35.9452739,-95.6720513
15011,South 273rd East Avenue,74429,35.9456663,-95.6720207
14981,South 273rd East Avenue,74429,35.9461109,-95.6718821
14921,South 273rd East Avenue,74429,35.9474924,-95.6716202
15356,South 289th East Avenue,74429,35.9414265,-95.6549018
12085,South 267th East Avenue,74429,35.9885858,-95.6780847
12061,South 267th East Avenue,74429,35.9889397,-95.6780889
311,East Redwood Street,74429,35.9571451,-95.6475304
307,East Redwood Street,74429,35.9571464,-95.6477230
622,West Magnolia Street,74429,35.9558102,-95.6582463
618,West Magnolia Street,74429,35.9558102,-95.6580078
616,West Magnolia Street,74429,35.9558136,-95.6577779
604,West Magnolia Street,74429,35.9557860,-95.6575714
603,West Magnolia Street,74429,35.9562772,-95.6575267
617,West Magnolia Street,74429,35.9562255,-95.6577907
619,West Magnolia Street,74429,35.9562168,-95.6580227
623,West Magnolia Street,74429,35.9562203,-95.6582378
27509,East 114th Place South,74429,35.9978545,-95.6700471
27513,East 114th Place South,74429,35.9978928,-95.6698545
27517,East 114th Place South,74429,35.9979338,-95.6696889
27603,East 114th Place South,74429,35.9979735,-95.6694878
27607,East 114th Place South,74429,35.9980323,-95.6692969
27611,East 114th Place South,74429,35.9980733,-95.6690620
27612,East 114th Place South,74429,35.9977083,-95.6689573
27608,East 114th Place South,74429,35.9976522,-95.6691381
27604,East 114th Place South,74429,35.9976085,-95.6693189
27518,East 114th Place South,74429,35.9975688,-95.6694861
27514,East 114th Place South,74429,35.9975360,-95.6696551
27510,East 114th Place South,74429,35.9974950,-95.6698410
11623,South 274th East Place,74429,35.9948237,-95.6691078
11604,South 274th East Place,74429,35.9949752,-95.6698486
11608,South 274th East Place,74429,35.9948185,-95.6697188
11612,South 274th East Place,74429,35.9946962,-95.6696272
11616,South 274th East Place,74429,35.9945429,-95.6695059
11620,South 274th East Place,74429,35.9944206,-95.6694037
11624,South 274th East Place,74429,35.9942927,-95.6692786
11619,South 274th East Place,74429,35.9949374,-95.6691908
11615,South 274th East Place,74429,35.9950596,-95.6692632
11611,South 274th East Place,74429,35.9951957,-95.6693547
11607,South 274th East Place,74429,35.9953473,-95.6694697
11603,South 274th East Place,74429,35.9954644,-95.6696144
409,North Eufaula Avenue,74429,35.9542441,-95.6478991
409,North Eufaula Avenue,74429,35.9543552,-95.6478948
409,North Eufaula Avenue,74429,35.9542997,-95.6478969
705,North Bristow Avenue,74429,35.9571205,-95.6518798
331,West Hickory Street,74429,35.9461303,-95.6542951
33170,East State Highway 51,74429,35.9514724,-95.6067308
615,South Bristow Avenue,74429,35.9454501,-95.6515512
14050,South State Highway 51,74429,35.9597346,-95.6525587
11207,South State Highway 51,74429,36.0016601,-95.6772540
15139,South State Highway 72,74429,35.9439145,-95.6497325
30455,East State Highway 51,74429,35.9523260,-95.6370478
613,South Guthrie Avenue,74429,35.9453999,-95.6446888
14003,South State Highway 51,74429,35.9602755,-95.6516516
13937,South State Highway 51,74429,35.9608735,-95.6517087
29183,East 141st Street South,74429,35.9593396,-95.6509985
29266,East 141st Street South,74429,35.9586900,-95.6502829
14131,South State Highway 51,74429,35.9584587,-95.6506317
14211,South State Highway 51,74429,35.9572289,-95.6497124
14087,South State Highway 51,74429,35.9593017,-95.6513221
14110,South State Highway 51,74429,35.9589610,-95.6520564
14130,South State Highway 51,74429,35.9584858,-95.6517639
14269,South State Highway 51,74429,35.9566071,-95.6495018
505,North Broadway Street,74429,35.9551255,-95.6501799
507,North Broadway,74429,35.9552585,-95.6502330
215,West Sycamore Street,74429-2026,35.9512688,-95.6524567
211,East Redwood Street,74429,35.9571958,-95.6487401
13795,South State Highway 51,74429-7103,35.9623893,-95.6513817
13735,South State Highway 51,74429,35.9632626,-95.6536524
13695,South State Highway 51,74429,35.9649759,-95.6549701
120,East Sycamore Street,74429,35.9506804,-95.6495611
509,North Eufaula Avenue,74429,35.9553440,-95.6477650
15842,South 297th East Avenue,74429,35.9333176,-95.6466468
15005,South 284th East Avenue,74429,35.9463714,-95.6610727
15006,South 284th East Avenue,74429,35.9463766,-95.6613096
15012,South 284th East Avenue,74429,35.9462451,-95.6614891
15020,South 284th East Avenue,74429,35.9460690,-95.6615043
15026,South 284th East Avenue,74429,35.9459346,-95.6614689
15034,South 284th East Avenue,74429,35.9457996,-95.6614154
15040,South 284th East Avenue,74429,35.9456583,-95.6614253
15048,South 284th East Avenue,74429,35.9455219,-95.6614196
15054,South 284th East Avenue,74429,35.9453823,-95.6614340
15062,South 284th East Avenue,74429,35.9452431,-95.6614213
15068,South 284th East Avenue,74429,35.9451026,-95.6614163
15076,South 284th East Avenue,74429,35.9449708,-95.6614271
15082,South 284th East Avenue,74429,35.9448359,-95.6614302
15081,South 284th East Avenue,74429,35.9448454,-95.6609325
15075,South 284th East Avenue,74429,35.9449786,-95.6609443
15067,South 284th East Avenue,74429,35.9451203,-95.6609393
15061,South 284th East Avenue,74429,35.9452574,-95.6609357
15055,South 284th East Avenue,74429,35.9453828,-95.6609490
15047,South 284th East Avenue,74429,35.9455233,-95.6609393
15041,South 284th East Avenue,74429,35.9456656,-95.6609447
15013,South 284th East Avenue,74429,35.9462432,-95.6608580
15019,South 284th East Avenue,74429,35.9460725,-95.6608648
15027,South 284th East Avenue,74429,35.9459310,-95.6609400
15033,South 284th East Avenue,74429,35.9458064,-95.6609383
13427,South State Highway 51,74429,35.9692962,-95.6578757
13449,South State Highway 51,74429,35.9689313,-95.6577190
13467,South State Highway 51,74429,35.9686757,-95.6576395
13481,South State Highway 51,74429,35.9683811,-95.6574767
13513,South State Highway 51,74429,35.9681608,-95.6572636
13533,South State Highway 51,74429,35.9677750,-95.6568905
13589,South State Highway 51,74429,35.9669649,-95.6564501
13593,South State Highway 51,74429,35.9670650,-95.6557342
13637,South State Highway 51,74429,35.9658904,-95.6557879
28596,East 141st Street South,74429,35.9586559,-95.6574764
28467,East 141st Street South,74429,35.9594522,-95.6597231
28441,East 141st Street South,74429,35.9594586,-95.6604100
28441,East 141st Street South,74429,35.9597740,-95.6603918
28467,East 141st Street South,74429,35.9597098,-95.6598332
28529,East 141st Street South,74429,35.9597548,-95.6585411
28529,East 141st Street South,74429,35.9594823,-95.6585453
28567,East 141st Street South,74429,35.9594739,-95.6578836
28567,East 141st Street South,74429,35.9597551,-95.6578728
28495,East 141st Street South,74429,35.9597492,-95.6590920
28495,East 141st Street South,74429,35.9594928,-95.6591022
28615,East 141st Street South,74429,35.9594858,-95.6572257
28615,East 141st Street South,74429,35.9597545,-95.6571977
28633,East 141st Street South,74429,35.9597481,-95.6568752
28633,East 141st Street South,74429,35.9594724,-95.6569081
28679,East 141st Street South,74429,35.9597513,-95.6562476
28679,East 141st Street South,74429,35.9594584,-95.6562483
28342,East 141st Street South,74429,35.9584512,-95.6622192
27391,East 151st Street South,74429,35.9450347,-95.6705472
11128,South 262nd East Avenue,74429,36.0023270,-95.6833411
11135,South 262nd East Avenue,74429,36.0022531,-95.6828464
26241,East 112th Street South,74429,36.0018896,-95.6825532
11224,South 262nd East Avenue,74429,36.0016674,-95.6833332
26221,East 112th PlaceSouth,74429,36.0013417,-95.6828490
26222,East 112th Street South,74429,36.0015061,-95.6827591
11221,South 263rd East Avenue,74429,36.0014722,-95.6822352
27403,East 109th Street South,74429,36.0061522,-95.6716160
27411,East 109th Street South,74429,36.0061372,-95.6711768
27415,East 109th Street South,74429,36.0061481,-95.6709685
27423,East 109th Street South,74429,36.0061408,-95.6705199
27407,East 109th Street South,74429,36.0061448,-95.6713931
27416,East 109th Street South,74429,36.0056827,-95.6709590
27412,East 109th Street South,74429,36.0056775,-95.6711731
29554,East State Highway 51,74429,35.9527554,-95.6470476
323,East Chestnut Street,74429,35.9521737,-95.6470297
29607,East State Highway 51,74429,35.9531787,-95.6464827
29531,East State Highway 51,74429,35.9531631,-95.6477425
314,East Oak Street,74429,35.9537948,-95.6473890
309,East Oak Street,74429,35.9541186,-95.6476722
405,North Eufaula Avenue,74429,35.9541300,-95.6478578
409,North Eufaula Avenue,74429,35.9542986,-95.6478547
214,North Broadway Street,74429,35.9525391,-95.6508953
215,East Chestnut Street,74429,35.9521651,-95.6486517
25105,East Highway 51,74014,36.0153111,-95.6967803
24855,East Highway 51,74014,36.0165686,-95.6999852
24683,East Highway 51,74014,36.0170930,-95.7017624
425,North Broadway Street,74429,35.9548217,-95.6502780
14083,South State Highway 51,74429,35.9593970,-95.6513215
14050,South State Highway 51,74429,35.9598126,-95.6526119
11319,South State Highway 51,74429,35.9992899,-95.6779501
27002,East 113th Street South,74429,36.0000961,-95.6784254
11117,South Highway 51,74429,36.0024022,-95.6799382
11091,South Highway 51,74014,36.0033322,-95.6805763
11085,South State Highway 51,74014,36.0038902,-95.6806816
11081,South State Highway 51,74014,36.0043972,-95.6812863
11075,South State Highway 51,74014,36.0051396,-95.6816492
10787,South State Highway 51,74429,36.0098723,-95.6851282
128,North Broadway Street,74429,35.9518196,-95.6508561
207,North Broadway Street,74429,35.9521663,-95.6503174
209,North Broadway Street,74429,35.9522464,-95.6502967
131,South Broadway,74429,35.9500740,-95.6502381
113,South Broadway,74429,35.9505702,-95.6502425
127,South Broadway,74429,35.9501403,-95.6502383
127,South Broadway,74429,35.9502107,-95.6502847
125,South Broadway,74429,35.9502818,-95.6502272
117,South Broadway,74429,35.9504777,-95.6503068
121,South Broadway,74429,35.9504189,-95.6501431
124,South Broadway,74429,35.9500731,-95.6508530
122,South Broadway,74429,35.9501459,-95.6508531
120,South Broadway,74429,35.9502163,-95.6508533
123,South Broadway,74429,35.9503498,-95.6502416
115,South Broadway,74429,35.9505219,-95.6502422
111,South Broadway,74429,35.9506259,-95.6502421
114,South Broadway,74429,35.9503460,-95.6508500
112,South Broadway,74429,35.9504188,-95.6508498
103,South Broadway,74429,35.9507971,-95.6501415
416,North Broadway Street,74429,35.9545564,-95.6508515
418,North Broadway Street,74429,35.9546696,-95.6508432
422,North Broadway Street,74429,35.9548211,-95.6508443
224,South Broadway,74429,35.9490957,-95.6509832
223,South Broadway Street,74429,35.9491218,-95.6502106
216,South Broadway,74429,35.9492769,-95.6508982
210,South Broadway,74429,35.9494471,-95.6509438
205,South Broadway,74429,35.9497856,-95.6502697
204,South Broadway,74429,35.9497499,-95.6509391
107,West Walnut Street,74429,35.9470942,-95.6509369
423,South Broadway,74429,35.9471308,-95.6502350
418,South Broadway,74429,35.9472884,-95.6508205
405,South Broadway,74429,35.9477430,-95.6502252
404,South Broadway,74429,35.9477413,-95.6509321
310,South Broadway,74429,35.9486399,-95.6509373
504,South Broadway,74429,35.9467392,-95.6508889
15166,South 293rd East Avenue,74429,35.9431497,-95.6496293
29220,East 151st Street South,74429,35.9442081,-95.6506484
614,South Broadway Avenue,74429,35.9448714,-95.6509138
522,South Broadway,74429,35.9456663,-95.6508424
523,South Broadway,74429,35.9461423,-95.6502661
14085,South 296th East Avenue,74429,35.9593652,-95.6461253
13729,South State Highway 51,74429,35.9637254,-95.6535812
27100,East 111th Street South,74429,36.0022309,-95.6745691
31870,East State Highway 51,74429,35.9499667,-95.6201997
11170,South 265th East Avenue,74429,36.0013743,-95.6817133
28384,East 141st Street South,74429,35.9586981,-95.6616166
30135,East State Highway 51,74429,35.9524686,-95.6412090
124,West Sycamore Street,74429,35.9507543,-95.6515924
10912,South 265th East Avenue,74429,36.0051222,-95.6838191
11064,South 265th East Avenue,74429,36.0032592,-95.6825314
10986,South 265th East Avenue,74429,36.0040254,-95.6831452
26261,East 111th Street South,74014,36.0032498,-95.6835916
11124,South 262nd East Avenue,74429,36.0017825,-95.6828546
13684,South 308th East Avenue,74429,35.9648537,-95.6330402
13681,South 308th East Avenue,74429,35.9649119,-95.6323378
13647,South 308th East Avenue,74429,35.9654448,-95.6324066
13623,South 308th East Avenue,74429,35.9657865,-95.6324035
13403,South 308th East Avenue,74429,35.9661112,-95.6324039
13648,South 308th East Avenue,74429,35.9654695,-95.6330491
13670,South 308th East Avenue,74429,35.9651548,-95.6330671
13624,South 308th East Avenue,74429,35.9657906,-95.6330587
13602,South 308th East Avenue,74429,35.9661451,-95.6331465
13597,South 308th East Avenue,74429,35.9665475,-95.6323713
13407,South 305th East Avenue,74429,35.9661282,-95.6354657
13609,South 305th East Avenue,74429,35.9661553,-95.6359551
13645,South 305th East Avenue,74429,35.9655489,-95.6357757
14762,South 298th East Avenue,74429,35.9484132,-95.6446760
30088,East 147th Street South,74429,35.9480993,-95.6411405
31325,East 141st Street South,74429,35.9600158,-95.6270581
31097,East 141st Street South,74429,35.9619224,-95.6299544
31265,East 141st Street South,74429,35.9597002,-95.6281300
31357,East 141st Street South,74429,35.9597764,-95.6260417
31391,East 141st Street South,74429,35.9614034,-95.6262090
29382,East 141st Street South,74429,35.9587564,-95.6489830
13410,South 289th East Avenue,74429,35.9684440,-95.6549069
304,North Broadway Street,74429,35.9531433,-95.6509250
417,East Chestnut Street,74429,35.9521834,-95.6461353
13450,South 289th East Avenue,74429,35.9678403,-95.6550370
13482,South 289th East Avenue,74429,35.9672903,-95.6548912
13448,South 289th East Avenue,74429,35.9678223,-95.6555443
13426,South 289th East Avenue,74429,35.9682258,-95.6550022
13238,South 289th East Avenue,74429,35.9716753,-95.6550635
13377,South 289th East Avenue,74429,35.9690246,-95.6542881
13391,South 289th East Avenue,74429,35.9687152,-95.6543078
13344,South 289th East Avenue,74429,35.9698340,-95.6548502
13348,South 289th East Avenue,74429,35.9696012,-95.6549299
13368,South 289th East Avenue,74429,35.9692894,-95.6549630
13386,South 289th East Avenue,74429,35.9688876,-95.6549988
28648,East 141st Street South,74429,35.9586025,-95.6565025
28622,East 141st Street South,74429,35.9586678,-95.6568810
30051,East 151st Street South,74429,35.9451995,-95.6416167
13123,South 289th East Avenue,74429,35.9732337,-95.6551120
125,West Cypress Street,74429,35.9502172,-95.6515941
122,East Chestnut Street,74429,35.9516943,-95.6496012
211,East Chestnut Street,74429,35.9521786,-95.6487999
205,East Chestnut Street,74429,35.9521628,-95.6490593
24949,East Highway 51,74014,36.0162662,-95.6988358
29171,East 141st Street South,74429,35.9593394,-95.6511871
29171,East 141st Street South,74429,35.9593394,-95.6511117
13580,South 289th East Avenue,74429,35.9661707,-95.6549389
13775,South State Highway 51,74429,35.9636209,-95.6515842
13781,South State Highway 51,74429,35.9634159,-95.6515835
13773,South State Highway 51,74429,35.9636878,-95.6517123
13771,South State Highway 51,74429,35.9636877,-95.6517965
13765,South State Highway 51,74429,35.9636877,-95.6518806
13761,South State Highway 51,74429,35.9636876,-95.6519648
13783,South State Highway 51,74429,35.9632792,-95.6515831
13785,South State Highway 51,74429,35.9631057,-95.6515844
13787,South State Highway 51,74429,35.9630370,-95.6515847
13789,South State Highway 51,74429,35.9629689,-95.6515842
13791,South State Highway 51,74429,35.9629007,-95.6515840
13793,South State Highway 51,74429,35.9628326,-95.6515835
14025,South 287th East Avenue,74429,35.9600751,-95.6556360
14025,South 287th East Avenue,74429,35.9600107,-95.6555960
14009,South 287th East Avenue,74429,35.9602719,-95.6556246
14009,South 287th East Avenue,74429,35.9602075,-95.6555846
13989,South 287th East Avenue,74429,35.9604764,-95.6556152
13989,South 287th East Avenue,74429,35.9604120,-95.6555752
13955,South 287th East Avenue,74429,35.9606456,-95.6555854
13955,South 287th East Avenue,74429,35.9606956,-95.6555139
13921,South 287th East Avenue,74429,35.9611335,-95.6553994
13921,South 287th East Avenue,74429,35.9610698,-95.6554402
13905,South 287th East Avenue,74429,35.9613800,-95.6554833
13905,South 287th East Avenue,74429,35.9612891,-95.6554782
122,South Guthrie Avenue,74429,35.9501427,-95.6456603
411,East Pecan Street,74429,35.9491607,-95.6462279
409,East Pecan Street,74429,35.9491587,-95.6463138
225,South Fairland Avenue,74429,35.9491212,-95.6465408
223,South Fairland Avenue,74429,35.9491911,-95.6465429
215,South Fairland Avenue,74429,35.9493522,-95.6465599
213,South Fairland Avenue,74429,35.9494075,-95.6465601
207,South Fairland Avenue,74429,35.9495535,-95.6465555
205,South Fairland Avenue,74429,35.9496088,-95.6465557
14067,South 292nd East Avenue,74429,35.9594698,-95.6505597
14063,South 292nd East Avenue,74429,35.9595541,-95.6505599
14028,South 293rd East Avenue,74429,35.9599514,-95.6501672
14028,South 292nd East Avenue,74429,35.9599548,-95.6510344
13890,South 292nd East Avenue,74429,35.9603654,-95.6510272
14012,South 292nd East Avenue,74429,35.9601560,-95.6511132
13840,South 292nd East Avenue,74429,35.9611473,-95.6509893
13838,South 292nd East Avenue,74429,35.9612326,-95.6509888
13810,South 293rd East Avenue,74429,35.9615699,-95.6501155
13812,South 293rd East Avenue,74429,35.9615699,-95.6502179
13824,South 293rd East Avenue,74429,35.9614234,-95.6502218
13822,South 293rd East Avenue,74429,35.9614238,-95.6501188
13810,South 292nd East Avenue,74429,35.9616001,-95.6509836
13822,South 292nd East Avenue,74429,35.9614512,-95.6509889
13785,South State Highway 51,74429,35.9631751,-95.6515840
618,North Fairland Avenue,74429,35.9566416,-95.6470365
26055,East State Highway 51,74014,36.0113634,-95.6869937
417,South Eufaula Avenue,74429,35.9474501,-95.6477699
417,South Eufaula Avenue,74429,35.9475524,-95.6476322
417,South Eufaula Avenue,74429,35.9473367,-95.6474127
302,East Chestnut Street,74429,35.9512458,-95.6478923
424,North Broadway Street,74429,35.9548607,-95.6508438
420,North Broadway Street,74429,35.9547097,-95.6508430
25501,East Highway 51,74014,36.0135948,-95.6916717
26001,East 111th Street South,74429,36.0031074,-95.6870425
29781,East 137th Place South,74429,35.9625289,-95.6447340
29771,East 137th Place South,74429,35.9625861,-95.6449979
107,West Walnut Street,74429,35.9470935,-95.6508263
104,North Division Street,74429,35.9512466,-95.6548906
118Â½,South Division Street,74429,35.9504938,-95.6550631
30379,East 151st Street South,74429,35.9448565,-95.6379279
30382,East 150th Street South,74429,35.9451963,-95.6379289
15032,South 305th East Avenue,74429,35.9452171,-95.6367123
30465,East 150th Street South,74429,35.9457788,-95.6369466
30280,East 150th Street South,74429,35.9452853,-95.6391276
30256,East 150th Street South,74429,35.9452857,-95.6393287
30395,East 150th Street South,74429,35.9456846,-95.6377470
30337,East 150th Street South,74429,35.9457297,-95.6384576
30305,East 150th Street South,74429,35.9456813,-95.6387643
30355,East 150th Street South,74429,35.9456847,-95.6382526
30375,East 150th Street South,74429,35.9456947,-95.6380007
30419,East 150th Street South,74429,35.9456804,-95.6374798
30441,East 150th Street South,74429,35.9457756,-95.6372490
30048,East 151st Street South,74429,35.9444728,-95.6416071
30357,East 151st Street South,74429,35.9447878,-95.6381519
30333,East 151st Street South,74429,35.9447672,-95.6383854
30315,East 151st Street South,74429,35.9447786,-95.6386472
30285,East 151st Street South,74429,35.9447824,-95.6389044
30255,East 151st Street South,74429,35.9448695,-95.6393296
30191,East 151st Street South,74429,35.9447674,-95.6399716
30167,East 151st Street South,74429,35.9447585,-95.6402742
30131,East 151st Street South,74429,35.9448007,-95.6406682
30279,East 150th Street South,74429,35.9457162,-95.6391148
30241,East 150th Street South,74429,35.9456965,-95.6394772
30219,East 150th Street South,74429,35.9457237,-95.6397158
30197,East 150th Street South,74429,35.9456862,-95.6399887
30173,East 150th Street South,74429,35.9456902,-95.6402456
30143,East 150th Street South,74429,35.9456835,-95.6404978
14973,South 301st East Avenue,74429,35.9457365,-95.6407514
30126,East 150th Street South,74429,35.9453182,-95.6407048
30148,East 150th Street South,74429,35.9452583,-95.6404728
30174,East 150th Street South,74429,35.9453191,-95.6402290
30200,East 150th Street South,74429,35.9452713,-95.6399260
30228,East 150th Street South,74429,35.9452154,-95.6396496
30344,East 150th Street South,74429,35.9452429,-95.6384236
30362,East 150th Street South,74429,35.9452866,-95.6381560
30464,East 150th Street South,74429,35.9452957,-95.6369384
30438,East 150th Street South,74429,35.9452502,-95.6372446
30334,East 149th Street South,74429,35.9461574,-95.6384314
30298,East 149th Street South,74429,35.9461574,-95.6388556
30092,East 151st Street South,74429,35.9443369,-95.6411392
27986,East 146th Street South,74429,35.9503548,-95.6648910
27720,East 146th Street South,74429,35.9515298,-95.6670889
27857,East 146th Street South,74429,35.9523202,-95.6658125
27795,East 146th Street South,74429,35.9530231,-95.6663163
28083,East 146th Street South,74429,35.9530366,-95.6639705
12220,South State Highway 51,74429,35.9863796,-95.6708915
30250,East 149th Street South,74429,35.9462356,-95.6394023
30278,East 149th Street South,74429,35.9462288,-95.6390646
30216,East 149th Street South,74429,35.9462141,-95.6397173
30190,East 149th Street South,74429,35.9462212,-95.6399889
30166,East 149th Street South,74429,35.9462222,-95.6402308
14902,South 301st East Avenue,74429,35.9464805,-95.6412448
30183,East 149th Street South,74429,35.9465897,-95.6400903
30205,East 149th Street South,74429,35.9466209,-95.6398324
30233,East 149th Street South,74429,35.9466326,-95.6395825
14868,South 303rd East Avenue,74429,35.9466812,-95.6390367
14820,South 303rd East Avenue,74429,35.9471135,-95.6391019
30248,East 148th Street South,74429,35.9470953,-95.6394329
30255,East 149th Street South,74429,35.9466045,-95.6393263
30226,East 148th Street South,74429,35.9470855,-95.6396656
11954,South 273rd East Avenue,74429,35.9899815,-95.6741375
27301,East 121st Street South,74429,35.9885200,-95.6722977
12232,South State Highway 51,74429,35.9856535,-95.6716440
12223,South State Highway 51,74429,35.9863757,-95.6715962
12222,South State Highway 51,74429,35.9863609,-95.6712343
26858,East 121st Street South,74429,35.9878406,-95.6766863
28530,East 141st Street South,74429,35.9583001,-95.6585897
14974,South 305th East Avenue,74429,35.9458343,-95.6366973
30374,East 149th Street South,74429,35.9462250,-95.6379924
30404,East 149th Street South,74429,35.9462024,-95.6377566
30350,East 149th Street South,74429,35.9461662,-95.6382483
30410,East 149th Street South,74429,35.9460409,-95.6375368
30455,East 149th Street South,74429,35.9466219,-95.6370228
30433,East 149th Street South,74429,35.9466051,-95.6372942
14878,South 305th East Avenue,74429,35.9466333,-95.6367420
30409,East 149th Street South,74429,35.9466033,-95.6375697
30389,East 149th Street South,74429,35.9466253,-95.6377992
30367,East 149th Street South,74429,35.9466159,-95.6380609
30347,East 149th Street South,74429,35.9466139,-95.6383135
14857,South 303rd East Avenue,74429,35.9466497,-95.6386133
30350,East 147th Street South,74429,35.9480656,-95.6383199
30277,East 148th Street South,74429,35.9475982,-95.6391380
628,South Atoka Avenue,74429,35.9449949,-95.6534452
14974,South 305th East Avenue,74429,35.9457099,-95.6366961
30370,East 148th Street South,74429,35.9471237,-95.6380369
30444,East 149th Street South,74429,35.9462166,-95.6372030
30458,East 149th Street South,74429,35.9462141,-95.6369740
14916,South 305th East Avenue,74429,35.9462766,-95.6366947
14938,South 305th East Avenue,74429,35.9460657,-95.6366908
30481,East 148th Street South,74429,35.9475289,-95.6367143
30423,East 148th Street South,74429,35.9475484,-95.6374157
14722,South 305th East Avenue,74429,35.9480481,-95.6367038
30481,East 148th Street South,74429,35.9477351,-95.6367274
30389,East 148th Street South,74429,35.9475465,-95.6378482
30446,East 148th Street South,74429,35.9471143,-95.6371383
30424,East 148th Street South,74429,35.9471297,-95.6374478
30394,East 148th Street South,74429,35.9471113,-95.6377478
30326,East 148th Street South,74429,35.9471226,-95.6386045
30346,East 148th Street South,74429,35.9471191,-95.6383125
522,North Atoka Avenue,74429,35.9557172,-95.6533461
312,West Oak Street,74429,35.9537462,-95.6536027
312,West Oak Street,74429,35.9537463,-95.6535610
317,West Oak Street,74429,35.9542105,-95.6537328
319,West Oak Street,74429,35.9542091,-95.6538025
29776,East 151st Street South,74429,35.9438278,-95.6446610
29175,East 151st Street South,74429,35.9448248,-95.6510651
324,East Cypress Street,74429,35.9497171,-95.6470147
216,West Sycamore Street,74429,35.9507309,-95.6525350
206,West Sycamore Street,74429,35.9506751,-95.6521595
307,East Magonlia Street,74429,35.9561254,-95.6478924
30355,East 141st Street South,74429,35.9593272,-95.6375512
30329,East 141st Street South,74429,35.9592934,-95.6380608
14031,South 305th East Avenue,74429,35.9600702,-95.6381870
13977,South 301st East Avenue,74429,35.9604364,-95.6410342
14001,South 301st East Avenue,74429,35.9601986,-95.6409662
30283,East 141st Street South,74429,35.9593124,-95.6386176
30115,East 141st Street South,74429,35.9594644,-95.6411245
14048,South 302nd East Avenue,74429,35.9596781,-95.6404055
215,East Hickory Street,74429,35.9460964,-95.6485896
219,East Hickory Street,74429,35.9461982,-95.6484971
217,East Hickory Street,74429,35.9461974,-95.6485864
315,North Atoka Avenue,74429,35.9535798,-95.6528388
317,North Atoka Avenue,74429,35.9536468,-95.6528385
813,North Bristow Place,74429,35.9583860,-95.6525941
827,North Bristow Place,74429,35.9588379,-95.6525757
205,West Dogwood Street,74429,35.9580949,-95.6523835
209,West Dogwood Street,74429,35.9581160,-95.6525755
225,North Delaware Avenue,74429,35.9528264,-95.6490667
219,North Delaware Avenue,74429,35.9526245,-95.6490605
12760,South 275th East Avenue,74429,35.9783493,-95.6708409
29885,East 156th Street South,74429,35.9380619,-95.6425495
15431,South 297th East Avenue,74429,35.9398883,-95.6452309
15461,South 297th East Avenue,74429,35.9394288,-95.6452292
15451,South 297th East Avenue,74429,35.9396707,-95.6452369
15481,South 297th East Avenue,74429,35.9391680,-95.6452465
15497,South 297th East Avenue,74429,35.9389654,-95.6452650
29725,East 155th Place South,74429,35.9386529,-95.6451612
29724,East 155th Place South,74429,35.9381325,-95.6451862
29751,East 154th Street South,74429,35.9406591,-95.6447012
29733,East 154th Street South,74429,35.9406633,-95.6450006
15570,South 296th East Avenue,74429,35.9383164,-95.6464460
28450,East 141st Street South,74429,35.9571463,-95.6602308
30416,East 147th Street South,74429,35.9480604,-95.6375225
30442,East 147th Street South,74429,35.9480670,-95.6372299
30462,East 147th Street South,74429,35.9480632,-95.6369706
30392,East 147th Street South,74429,35.9480625,-95.6377897
30370,East 147th Street South,74429,35.9480692,-95.6380657
27348,East 141st Street South,74429,35.9587938,-95.6716478
14152,South 277th East Avenue,74429,35.9584596,-95.6678229
14174,South 277th East Avenue,74429,35.9580935,-95.6678191
14194,South 277th East Avenue,74429,35.9578116,-95.6677595
14193,South 277th East Avenue,74429,35.9578151,-95.6672978
14167,South 277th East Avenue,74429,35.9582447,-95.6672965
27375,East 141st Street South,74429,35.9598743,-95.6713440
27448,East 141st Street South,74429,35.9590799,-95.6683685
14209,South 273rd East Avenue,74429,35.9576061,-95.6722496
14177,South 273rd East Avenue,74429,35.9580726,-95.6721707
14137,South 273rd East Avenue,74429,35.9586601,-95.6722814
27450,East 141st Street South,74429,35.9577057,-95.6706883
14239,South 273rd East Avenue,74429,35.9571176,-95.6714261
718,North Guthrie Avenue,74429,35.9574989,-95.6457360
720,North Guthrie Avenue,74429,35.9575908,-95.6457360
29840,East 139th Place South,74429,35.9605046,-95.6431941
29830,East 139th Place South,74429,35.9605292,-95.6434880
29820,East 139th Place South,74429,35.9605261,-95.6437897
29765,East 141st Street South,74429,35.9593497,-95.6447743
14078,South 298th East Avenue,74429,35.9593445,-95.6443059
14068,South 298th East Avenue,74429,35.9595565,-95.6443091
14058,South 298th East Avenue,74429,35.9597598,-95.6443112
14048,South 298th East Avenue,74429,35.9599701,-95.6444034
14038,South 298th East Avenue,74429,35.9603567,-95.6446028
14028,South 298th East Avenue,74429,35.9605608,-95.6446007
29781,East 139th Place South,74429,35.9608203,-95.6446382
29791,East 139th Place South,74429,35.9610238,-95.6444511
29801,East 139th Place South,74429,35.9610146,-95.6442202
29811,East 139th Place South,74429,35.9609746,-95.6439702
29821,East 139th Place South,74429,35.9609784,-95.6436992
29831,East 139th Place South,74429,35.9609492,-95.6434623
29841,East 139th Place South,74429,35.9609694,-95.6431968
13909,South 299th East Avenue,74429,35.9613520,-95.6426677
13919,South 299th East Avenue,74429,35.9611555,-95.6426608
13929,South 299th East Avenue,74429,35.9609509,-95.6426566
14019,South 299th East Avenue,74429,35.9607465,-95.6426788
29840,East 138th Place South,74429,35.9613447,-95.6431676
29830,East 138th Place South,74429,35.9613240,-95.6434241
29820,East 138th Place South,74429,35.9612830,-95.6437071
29810,East 138th Place South,74429,35.9612783,-95.6439642
29840,East 137th Place South,74429,35.9621304,-95.6431850
29830,East 137th Place South,74429,35.9621252,-95.6434273
29820,East 137th Place South,74429,35.9621153,-95.6436729
29810,East 137th Place South,74429,35.9621300,-95.6439601
29811,East 138th Place South,74429,35.9618189,-95.6439491
29821,East 138th Place South,74429,35.9618034,-95.6436949
29831,East 138th Place South,74429,35.9617917,-95.6434741
29841,East 138th Place South,74429,35.9617595,-95.6431993
29910,East 137th Place South,74429,35.9621125,-95.6426621
29922,East 137th Place South,74429,35.9620955,-95.6424636
29932,East 137th Place South,74429,35.9621256,-95.6422036
30000,East 137th Place South,74429,35.9620424,-95.6418766
30002,East 137th Place South,74429,35.9622462,-95.6415396
30003,East 137th Place South,74429,35.9624678,-95.6415480
30001,East 137th Place South,74429,35.9625910,-95.6417838
29931,East 137th Place South,74429,35.9625822,-95.6420925
29927,East 137th Place South,74429,35.9625438,-95.6423449
29911,East 137th Place South,74429,35.9625296,-95.6426188
29901,East 137th Place South,74429,35.9625480,-95.6428973
29841,East 137th Place South,74429,35.9625266,-95.6431547
29831,East 137th Place South,74429,35.9625440,-95.6434073
29821,East 137th Place South,74429,35.9625474,-95.6436928
29811,East 137th Place South,74429,35.9625453,-95.6439536
29801,East 137th Place South,74429,35.9625465,-95.6441977
29791,East 137th Place South,74429,35.9625371,-95.6444632
29657,East 138th Street South,74429,35.9646338,-95.6464582
29684,East 141st Street South,74429,35.9588661,-95.6457202
408,East Redwood Street,74429,35.9565709,-95.6465085
424,East Redwood Street,74429,35.9566003,-95.6458192
426,East Redwood Street,74429,35.9565993,-95.6456532
422,East Redwood Street,74429,35.9566015,-95.6459933
420,East Redwood Street,74429,35.9566025,-95.6461594
426,East Dogwood Street,74429,35.9577371,-95.6457597
812,North Guthrie Avenue,74429,35.9586046,-95.6457508
420,East Dogwood Street,74429,35.9576459,-95.6459882
414,East Dogwood Street,74429,35.9577156,-95.6461568
410,East Dogwood Street,74429,35.9577162,-95.6463561
723,North Fairland Avenue,74429,35.9577081,-95.6466268
305,East Dogwood Street,74429,35.9581665,-95.6478762
309,East Dogwood Street,74429,35.9581422,-95.6476452
317,East Dogwood Street,74429,35.9581906,-95.6472663
405,East Dogwood Street,74429,35.9581670,-95.6466630
419,East Dogwood Street,74429,35.9581695,-95.6459810
804,North Guthrie Avenue,74429,35.9581530,-95.6457308
806,North Guthrie Avenue,74429,35.9583564,-95.6457205
710,North Guthrie Avenue,74429,35.9572884,-95.6457721
712,North Guthrie Avenue,74429,35.9573741,-95.6457716
706,North Guthrie Avenue,74429,35.9571676,-95.6457297
704,North Guthrie Avenue,74429,35.9570932,-95.6457499
628,South Division Street,74429,35.9450046,-95.6548959
620,South Division Street,74429,35.9451436,-95.6549012
10701,South 281st East Avenue,74429,36.0094243,-95.6637512
28014,East 107th Street South,74429,36.0090154,-95.6642726
28023,East 107th Street South,74429,36.0095192,-95.6639495
10714,South 281st East Avenue,74429,36.0087412,-95.6643237
10718,South 281st East Avenue,74429,36.0085772,-95.6643349
10725,South 281st East Avenue,74429,36.0083116,-95.6637666
10726,South 281st East Avenue,74429,36.0082193,-95.6643586
10734,South 281st East Avenue,74429,36.0078441,-95.6643413
10730,South 281st East Avenue,74429,36.0080361,-95.6643250
10921,South 275th East Avenue,74429,36.0049378,-95.6699852
10925,South 275th East Avenue,74429,36.0047736,-95.6700053
10933,South 275th East Avenue,74429,36.0044443,-95.6699926
10929,South 275th East Avenue,74429,36.0046103,-95.6700119
10926,South 276th East Avenue,74429,36.0049380,-95.6695756
789,West Oak Street,74429,35.9549461,-95.6599015
15905,South 297th East Avenue,74429,35.9323685,-95.6441652
622,West Redwood Street,74429,35.9567389,-95.6580173
626,West Redwood Street,74429,35.9567524,-95.6582465
627,West Redwood Street,74429,35.9571772,-95.6582494
623,West Redwood Street,74429,35.9571995,-95.6580278
620,West Dogwood Street,74429,35.9577405,-95.6580146
626,West Dogwood Street,74429,35.9577139,-95.6582582
718,North Bixby Street,74429,35.9576796,-95.6587460
714,North Bixby Street,74429,35.9574908,-95.6587519
708,North Bixby Street,74429,35.9572723,-95.6587325
702,North Bixby Street,74429,35.9570794,-95.6587239
624,North Bixby Street,74429,35.9568790,-95.6587632
616,North Bixby Street,74429,35.9566652,-95.6587349
610,North Bixby Street,74429,35.9564383,-95.6587410
606,North Bixby Street,74429,35.9562510,-95.6587416
600,North Bixby Street,74429,35.9560527,-95.6587417
524,North Bixby Street,74429,35.9558354,-95.6587524
518,North Bixby Street,74429,35.9556183,-95.6587631
420,North Bixby Street,74429,35.9554513,-95.6587898
416,North Bixby Street,74429,35.9550769,-95.6587895
455,North Bixby Street,74429,35.9554517,-95.6581715
628,West Oak Street,74429,35.9543352,-95.6583675
688,West Oak Street,74429,35.9543540,-95.6587117
704,West Oak Street,74429,35.9543457,-95.6589623
724,North Bixby Street,74429,35.9578860,-95.6587442
28484,East 141st Street South,74429,35.9587697,-95.6593595
28462,East 141st Street South,74429,35.9588596,-95.6599188
28468,East 141st Street South,74429,35.9582286,-95.6599100
28426,East 141st Street South,74429,35.9586725,-95.6608036
27721,East 146th Street South,74429,35.9522313,-95.6678848
717,North Bristow Avenue,74429,35.9574990,-95.6518753
114,West Redwood Street,74429,35.9571664,-95.6514191
309,West Redwood Street,74429,35.9571374,-95.6536521
723,North Bristow Avenue,74429,35.9577579,-95.6518559
718,North Bristow Avenue,74429,35.9575525,-95.6523806
723,North Bristow Place,74429,35.9577075,-95.6525596
708,North Bristow Avenue,74429,35.9572506,-95.6524976
704,North Bristow Avenue,74429,35.9570726,-95.6523366
616,West Dogwood Street,74429,35.9577135,-95.6577894
104,North Eufaula Avenue,74429,35.9513367,-95.6483050
404,South Delaware Avenue,74429,35.9477592,-95.6495041
324,South Delaware Avenue,74429,35.9480443,-95.6494881
323,North Atoka Avenue,74429,35.9538035,-95.6528123
320,West Chestnut Street,74429,35.9517348,-95.6539554
332,West Chestnut Street,74429,35.9517309,-95.6544225
314,West Chestnut Street,74429,35.9517236,-95.6536511
310,West Chestnut Street,74429,35.9516850,-95.6534970
120,North Atoka Avenue,74429,35.9516885,-95.6532934
120,North Division Street,74429,35.9516903,-95.6548884
124,North Division Street,74429,35.9518566,-95.6549194
116,North Division Street,74429,35.9515349,-95.6548873
202,North Division Street,74429,35.9520672,-95.6549857
208,North Division Street,74429,35.9522516,-95.6548892
105,North Old Main Street,74429,35.9511164,-95.6556738
419,West Sycamore Street,74429,35.9511084,-95.6554189
502,West Chestnut Street,74429,35.9521897,-95.6563127
213,West Magnolia Street,74429,35.9560913,-95.6525617
221,West Magnolia Street,74429,35.9560869,-95.6528647
224,West Pine Street,74429,35.9527422,-95.6528629
218,West Pine Street,74429,35.9527713,-95.6526812
320,South Bristow Avenue,74429,35.9482101,-95.6520953
213,West Ash Street,74429,35.9481512,-95.6523658
223,West Ash Street,74429,35.9481429,-95.6528091
28780,East 152nd Street South,74429,35.9432605,-95.6561723
28790,East 152nd Street South,74429,35.9432999,-95.6559550
15260,South 288th East Avenue,74429,35.9430425,-95.6559564
501,West Dogwood Street,74429,35.9580268,-95.6560844
507,West Dogwood Street,74429,35.9581349,-95.6567969
503,West Dogwood Street,74429,35.9581955,-95.6562915
505,West Dogwood Street,74429,35.9582237,-95.6565117
220,East Chestnut Street,74429,35.9517044,-95.6484146
217,East Sycamore Street,74429,35.9511395,-95.6485590
204,East Sycamore Street,74429,35.9507317,-95.6490744
212,East Sycamore Street,74429,35.9507258,-95.6488007
220,East Sycamore Street,74429,35.9505896,-95.6483339
222,East Sycamore Street,74429,35.9507695,-95.6482886
213,East Cypress Street,74429,35.9501768,-95.6487467
217,East Cypress Street,74429,35.9501959,-95.6485804
116,South Eufaula Avenue,74429,35.9503627,-95.6482606
213,East Pecan Street,74429,35.9491449,-95.6487001
219,East Pecan Street,74429,35.9490864,-95.6484214
218,East Cypress Street,74429,35.9496811,-95.6483933
212,East Cypress Street,74429,35.9497102,-95.6487216
204,East Cypress Street,74429,35.9497117,-95.6490475
314,East Cypress Street,74429,35.9497220,-95.6473803
305,East Pecan Street,74429,35.9491428,-95.6478575
317,East Pecan Street,74429,35.9491459,-95.6473535
317,East Cypress Street,74429,35.9501331,-95.6473344
309,East Cypress Street,74429,35.9502133,-95.6476864
105,South Eufaula Avenue,74429,35.9507805,-95.6478194
111,South Eufaula Avenue,74429,35.9505569,-95.6478098
29040,East 151st Street South,74429,35.9444488,-95.6527187
29050,East 151st Street South,74429,35.9444593,-95.6524955
15170,South 291st East Avenue,74429,35.9439351,-95.6520828
15134,South 291st East Avenue,74429,35.9441531,-95.6520834
315,South Broadway Street,74429,35.9483840,-95.6502855
422,South Delaware Avenue,74429,35.9471239,-95.6495740
515,South Eufaula Avenue,74429,35.9464482,-95.6477943
507,South Eufaula Avenue,74429,35.9467021,-95.6477727
504,South Delaware Avenue,74429,35.9467783,-95.6494912
113,East Pecan Street,74429,35.9491333,-95.6500560
501,South Eufaula Avenue,74429,35.9469494,-95.6477545
121,East Pecan Street,74429,35.9491084,-95.6496549
403,South Delaware Avenue,74429,35.9477948,-95.6489866
516,South Eufaula Avenue,74429,35.9463676,-95.6482961
313,South Eufaula Avenue,74429,35.9484729,-95.6479358
424,South Eufaula Avenue,74429,35.9471002,-95.6482753
518,South Fairland Avenue,74429,35.9461959,-95.6469903
508,South Eufaula Avenue,74429,35.9466994,-95.6482960
521,South Eufaula Avenue,74429,35.9462168,-95.6477656
324,East Pecan Street,74429,35.9487119,-95.6470316
120,East Hickory Street,74429,35.9457296,-95.6496695
305,South Broadway Street,74429,35.9487400,-95.6502967
320,South Delaware Avenue,74429,35.9482177,-95.6495796
518,South Delaware Avenue,74429,35.9462744,-95.6494870
321,South Delaware Avenue,74429,35.9481772,-95.6489643
126,East Hickory Street,74429,35.9457204,-95.6494160
216,East Walnut Street,74429,35.9467142,-95.6485546
222,East Pecan Street,74429,35.9486864,-95.6482882
411,South Delaware Avenue,74429,35.9475557,-95.6489487
310,East Pecan Street,74429,35.9486827,-95.6476218
524,South Delaware Avenue,74429,35.9461158,-95.6494996
407,South Eufaula Avenue,74429,35.9477232,-95.6478074
314,South Delaware Avenue,74429,35.9483978,-95.6494804
222,East Hickory Street,74429,35.9457825,-95.6482630
315,South Delaware Avenue,74429,35.9483990,-95.6490484
316,South Eufaula Avenue,74429,35.9483663,-95.6482790
322,South Eufaula Avenue,74429,35.9481175,-95.6482937
327,South Eufaula Avenue,74429,35.9479644,-95.6478218
406,South Eufaula Avenue,74429,35.9474924,-95.6483122
311,South Broadway Street,74429,35.9485081,-95.6503109
208,East Hickory Street,74429,35.9457864,-95.6489193
212,East Hickory Street,74429,35.9457846,-95.6486953
306,South Delaware Avenue,74429,35.9486818,-95.6494900
419,South Delaware Avenue,74429,35.9473173,-95.6489606
514,South Delaware Avenue,74429,35.9464372,-95.6494784
304,East Pecan Street,74429,35.9487022,-95.6478668
508,South Delaware Avenue,74429,35.9466133,-95.6494814
423,South Eufaula Avenue,74429,35.9471345,-95.6477623
323,South Eufaula Avenue,74429,35.9481399,-95.6477956
511,South Delaware Avenue,74429,35.9464770,-95.6489788
204,East Pecan Street,74429,35.9486502,-95.6490726
127,East Pecan Street,74429,35.9490797,-95.6494427
402,South Eufaula Avenue,74429,35.9478488,-95.6483293
214,East Pecan Street,74429,35.9486636,-95.6486785
425,South Delaware Avenue,74429,35.9470912,-95.6489973
304,West Pine Street,74429,35.9527484,-95.6532324
306,North Atoka Avenue,74429,35.9532283,-95.6532510
325,West Pine Street,74429,35.9531734,-95.6541053
329,West Pine Street,74429,35.9531742,-95.6542590
333,West Pine Street,74429,35.9531947,-95.6544118
332,West Pine Street,74429,35.9527837,-95.6544330
328,West Pine Street,74429,35.9527608,-95.6542491
320,West Pine Street,74429,35.9527538,-95.6540714
318,West Pine Street,74429,35.9527700,-95.6538257
707,North Division Street,74429,35.9571648,-95.6543195
14043,South 294th East Avenue,74429,35.9597512,-95.6485730
14029,South 294th East Avenue,74429,35.9599547,-95.6485755
14011,South 294th East Avenue,74429,35.9601600,-95.6485668
317,West Chestnut Street,74429,35.9521456,-95.6537569
329,West Chestnut Street,74429,35.9521937,-95.6542740
325,West Chestnut Street,74429,35.9521958,-95.6540990
333,West Chestnut Street,74429,35.9521919,-95.6544351
218,North Division Street,74429,35.9526116,-95.6548916
317,West Pine Street,74429,35.9531662,-95.6538130
204,North Atoka Avenue,74429,35.9521835,-95.6533238
28937,East 151st Street South,74429,35.9448821,-95.6539819
28953,East 151st Street South,74429,35.9448403,-95.6536940
28979,East 151st Street South,74429,35.9448396,-95.6532732
28963,East 151st Street South,74429,35.9448394,-95.6535255
27502,East 114th Place South,74429,35.9973534,-95.6701748
720,North Division Street,74429,35.9576502,-95.6549773
306,West Redwood Street,74429,35.9567093,-95.6536354
312,West Redwood Street,74429,35.9567217,-95.6538653
616,North Orcutt Street,74429,35.9565094,-95.6535634
612,North Orcutt Street,74429,35.9563758,-95.6535722
608,North Orcutt Street,74429,35.9562266,-95.6535627
325,West Magnolia Street,74429,35.9561070,-95.6542880
606,North Division Street,74429,35.9561555,-95.6549806
618,North Division Street,74429,35.9566529,-95.6549472
700,North Division Street,74429,35.9569763,-95.6549529
706,North Division Street,74429,35.9571367,-95.6549807
715,North Division Street,74429,35.9574577,-95.6543223
710,North Division Street,74429,35.9573080,-95.6549510
714,North Division Street,74429,35.9574707,-95.6549796
28881,East 152nd Street South,74429,35.9437847,-95.6549527
28831,East 152nd Street South,74429,35.9437837,-95.6553813
28861,East 152nd Street South,74429,35.9437841,-95.6551599
28830,East 151st Place South,74429,35.9439828,-95.6553649
28880,East 151st Place South,74429,35.9439749,-95.6549545
28860,East 151st Place South,74429,35.9439728,-95.6551632
28881,East 151st Place South,74429,35.9443604,-95.6549078
28861,East 151st Place South,74429,35.9443547,-95.6551082
28841,East 151st Place South,74429,35.9443559,-95.6553112
29640,East 141st Street South,74429,35.9588750,-95.6461345
319,East Pecan Street,74429,35.9491082,-95.6472222
225,East Redwood Street,74429,35.9571732,-95.6482361
219,East Redwood Street,74429,35.9572824,-95.6484453
608,North Fairland Avenue,74429,35.9563169,-95.6471196
604,North Fairland Avenue,74429,35.9561365,-95.6471361
14620,South 330th East Avenue,74429,35.9512484,-95.6092253
829,North Division Street,74429,35.9588969,-95.6543300
115,East Dogwood Street,74429,35.9581917,-95.6502038
317,East Redwood Street,74429,35.9571649,-95.6472136
14051,South 292nd East Avenue,74429,35.9596762,-95.6506050
125,East Dogwood Street,74429,35.9581965,-95.6498467
14083,South 292nd East Avenue,74429,35.9593277,-95.6505753
29338,East 141st Street South,74429,35.9588265,-95.6494935
14027,South 292nd East Avenue,74429,35.9599725,-95.6505840
217,East Dogwood Street,74429,35.9580887,-95.6485847
14041,South 292nd East Avenue,74429,35.9597993,-95.6506033
29288,East 141st Street South,74429,35.9588323,-95.6500503
29322,East 141st Street South,74429,35.9588306,-95.6496710
203,East Dogwood Street,74429,35.9581513,-95.6490924
301,East Redwood Street,74429,35.9571237,-95.6479206
29306,East 141st Street South,74429,35.9588410,-95.6498443
315,East Redwood Street,74429,35.9571633,-95.6473822
14052,South 292nd East Avenue,74429,35.9596994,-95.6510021
14011,South 292nd East Avenue,74429,35.9601728,-95.6506021
624,North Eufaula Avenue,74429,35.9567620,-95.6483112
322,East Magonlia Street,74429,35.9557844,-95.6471287
516,North Eufaula Avenue,74429,35.9555464,-95.6482434
210,East Redwood Street,74429,35.9567835,-95.6487949
214,East Redwood Street,74429,35.9567820,-95.6486459
316,East Magonlia Street,74429,35.9557623,-95.6473956
521,North Eufaula Avenue,74429,35.9557004,-95.6478084
622,North Eufaula Avenue,74429,35.9566013,-95.6483380
518,North Eufaula Avenue,74429,35.9556867,-95.6482898
14012,South 295th East Avenue,74429,35.9601492,-95.6479752
14045,South 295th East Avenue,74429,35.9597410,-95.6474984
14024,South 294th East Avenue,74429,35.9599754,-95.6490524
14081,South 295th East Avenue,74429,35.9593126,-95.6475116
14060,South 294th East Avenue,74429,35.9595437,-95.6490773
14063,South 295th East Avenue,74429,35.9595363,-95.6474839
14078,South 294th East Avenue,74429,35.9593241,-95.6490666
14044,South 294th East Avenue,74429,35.9597531,-95.6490520
14026,South 295th East Avenue,74429,35.9599509,-95.6479734
14044,South 295th East Avenue,74429,35.9597485,-95.6479845
14009,South 295th East Avenue,74429,35.9601529,-95.6474963
14025,South 295th East Avenue,74429,35.9599381,-95.6474875
14061,South 294th East Avenue,74429,35.9595428,-95.6485828
14079,South 294th East Avenue,74429,35.9593307,-95.6485830
14058,South 295th East Avenue,74429,35.9595384,-95.6479705
14010,South 294th East Avenue,74429,35.9601659,-95.6490460
422,North Fairland Avenue,74429,35.9547355,-95.6470960
28830,East 152nd Street South,74429,35.9433932,-95.6555156
28917,East 151st Street South,74429,35.9448959,-95.6543046
15252,South 289th East Avenue,74429,35.9425873,-95.6549067
28791,East 152nd Street South,74429,35.9436607,-95.6559535
206,South Division Street,74429,35.9494877,-95.6549215
312,West Pecan Street,74429,35.9487194,-95.6535925
625,South Bristow Avenue,74429,35.9451251,-95.6516035
28781,East 152nd Street South,74429,35.9437203,-95.6561509
28785,East 151st Place South,74429,35.9441319,-95.6562691
15221,South 288th East Avenue,74429,35.9432438,-95.6554806
15243,South 289th East Avenue,74429,35.9427193,-95.6543490
308,South Division Street,74429,35.9485824,-95.6548730
15145,South 291st East Avenue,74429,35.9439939,-95.6516206
224,West Ash Street,74429,35.9477440,-95.6528749
317,West Pecan Street,74429,35.9491045,-95.6537665
218,West Ash Street,74429,35.9477265,-95.6526578
15301,South 288th East Avenue,74429,35.9425154,-95.6554974
28880,East 152nd Street South,74429,35.9434119,-95.6549506
629,South Bristow Avenue,74429,35.9449611,-95.6516356
29095,East 151st Street South,74429,35.9449663,-95.6521523
28790,East 151st Place South,74429,35.9439794,-95.6561734
202,West Ash Street,74429,35.9476876,-95.6520293
15241,South 288th East Avenue,74429,35.9431066,-95.6554866
29037,East 151st Street South,74429,35.9448766,-95.6528216
15310,South 288th East Avenue,74429,35.9424330,-95.6556779
29053,East 151st Street South,74429,35.9448654,-95.6525913
15259,South 289th East Avenue,74429,35.9425165,-95.6543771
15261,South 288th East Avenue,74429,35.9429697,-95.6554675
405,South Division Street,74429,35.9475523,-95.6543622
28771,East 152nd Street South,74429,35.9437343,-95.6563891
313,West Pecan Street,74429,35.9491248,-95.6535915
122,West Ash Street,74429,35.9477121,-95.6515214
119,West Ash Street,74429,35.9481896,-95.6513956
319,West Walnut Street,74429,35.9473330,-95.6538524
15281,South 288th East Avenue,74429,35.9427997,-95.6554469
15161,South 291st East Avenue,74429,35.9437911,-95.6516120
15243,South 291st East Avenue,74429,35.9426841,-95.6516347
300,South Division Street,74429,35.9488547,-95.6549024
214,South Division Street,74429,35.9491968,-95.6548574
15226,South 291st East Avenue,74429,35.9429392,-95.6521073
15207,South 291st East Avenue,74429,35.9431664,-95.6516759
28796,East 151st Place South,74429,35.9438827,-95.6559815
28860,East 152nd Street South,74429,35.9434095,-95.6552315
15182,South 291st East Avenue,74429,35.9435404,-95.6521415
15210,South 291st East Avenue,74429,35.9431212,-95.6521037
28920,East 151st Street South,74429,35.9444752,-95.6543530
15193,South 291st East Avenue,74429,35.9433781,-95.6516760
125,West Ash Street,74429,35.9481479,-95.6516328
15177,South 291st East Avenue,74429,35.9435906,-95.6516739
624,South Bristow Avenue,74429,35.9452537,-95.6521108
204,South Division Street,74429,35.9496916,-95.6549080
322,South Division Street,74429,35.9480706,-95.6548994
28761,East 152nd Street South,74429,35.9436465,-95.6565831
316,West Pecan Street,74429,35.9487173,-95.6537575
15196,South 291st East Avenue,74429,35.9433199,-95.6521011
204,West Ash Street,74429,35.9476952,-95.6522000
15225,South 291st East Avenue,74429,35.9429532,-95.6516756
15244,South 291st East Avenue,74429,35.9427133,-95.6521843
619,South Bristow Avenue,74429,35.9452403,-95.6516020
410,South Division Street,74429,35.9475267,-95.6548210
522,South Bristow Avenue,74429,35.9463086,-95.6520991
323,West Hickory Street,74429,35.9461461,-95.6541199
612,South Bristow Avenue,74429,35.9455184,-95.6520792
524,South Bristow Avenue,74429,35.9460990,-95.6520856
332,West Walnut Street,74429,35.9466944,-95.6544095
319,West Hickory Street,74429,35.9462070,-95.6539126
313,West Hickory Street,74429,35.9461168,-95.6536598
333,West Walnut Street,74429,35.9471207,-95.6544544
204,West Walnut Street,74429,35.9467011,-95.6520713
321,West Walnut Street,74429,35.9471169,-95.6539499
313,West Walnut Street,74429,35.9471864,-95.6536474
314,West Walnut Street,74429,35.9467431,-95.6537275
339,West Hickory Street,74429,35.9461076,-95.6544524
329,West Walnut Street,74429,35.9471223,-95.6542342
324,West Hickory Street,74429,35.9458218,-95.6541611
317,West Walnut Street,74429,35.9471225,-95.6537891
211,West Walnut Street,74429,35.9471731,-95.6522993
311,West Walnut Street,74429,35.9471408,-95.6534783
422,South Atoka Avenue,74429,35.9471414,-95.6532599
422,South Bristow Avenue,74429,35.9471339,-95.6520572
326,West Walnut Street,74429,35.9466988,-95.6542535
217,West Walnut Street,74429,35.9471376,-95.6525887
601,West Magnolia Street,74429,35.9560258,-95.6571022
505,West Redwood Street,74429,35.9571750,-95.6570947
313,West Oak Street,74429,35.9541333,-95.6536163
525,West Chestnut Street,74429,35.9526195,-95.6569861
424,North Bristow Avenue,74429,35.9548206,-95.6520554
121,West Oak Street,74429,35.9542027,-95.6516971
827,North Orcutt Street,74429,35.9589105,-95.6531030
820,North Orcutt Street,74429,35.9587352,-95.6536501
410,North Division Street,74429,35.9543471,-95.6548849
821,North Orcutt Street,74429,35.9587354,-95.6531318
504,West Chestnut Street,74429,35.9526196,-95.6564421
124,West Pine Street,74429,35.9527827,-95.6516109
222,North Bristow Avenue,74429,35.9527741,-95.6520821
223,West Chestnut Street,74429,35.9522022,-95.6528603
815,North Orcutt Street,74429,35.9585295,-95.6531521
213,West Pine Street,74429,35.9531873,-95.6524720
609,North Old Main Street,74429,35.9558778,-95.6555975
209,West Magnolia Street,74429,35.9561102,-95.6523541
803,North Orcutt Street,74429,35.9581167,-95.6530937
705,North Old Main Street,74429,35.9561521,-95.6555822
28897,East 141st Street South,74429,35.9596033,-95.6533898
808,North Orcutt Street,74429,35.9583183,-95.6536506
301,North Old Main Street,74429,35.9529929,-95.6556662
500,West Dogwood Street,74429,35.9578309,-95.6560775
517,West Oak Street,74429,35.9546791,-95.6566447
322,West Oak Street,74429,35.9538116,-95.6541023
322,North Atoka Avenue,74429,35.9537544,-95.6533127
115,West Redwood Street,74429,35.9567539,-95.6516609
220,North Old Main Street,74429,35.9526407,-95.6561637
516,North Division Street,74429,35.9556496,-95.6549347
814,North Division Street,74429,35.9583663,-95.6549603
523,West Oak Street,74429,35.9549463,-95.6568976
214,West Pine Street,74429,35.9527276,-95.6525207
316,North Bristow Avenue,74429,35.9536286,-95.6521146
600,North Division Street,74429,35.9559606,-95.6549749
605,West Dogwood Street,74429,35.9581341,-95.6572585
204,North Bristow Avenue,74429,35.9521822,-95.6520744
422,North Old Main Street,74429,35.9547709,-95.6562353
601,West Dogwood Street,74429,35.9581397,-95.6570285
605,North Old Main Street,74429,35.9556157,-95.6555992
519,West Chestnut Street,74429,35.9526245,-95.6566913
326,North Division Street,74429,35.9538840,-95.6548845
503,West Redwood Street,74429,35.9572129,-95.6568304
306,North Division Street,74429,35.9531799,-95.6548970
522,North Division Street,74429,35.9557969,-95.6549955
502,West Redwood Street,74429,35.9567105,-95.6565689
504,West Dogwood Street,74429,35.9576938,-95.6565979
607,North Old Main Street,74429,35.9557395,-95.6555980
600,West Magnolia Street,74429,35.9557403,-95.6573078
119,West Redwood Street,74429,35.9567523,-95.6518860
501,West Redwood Street,74429,35.9572272,-95.6565387
510,West Dogwood Street,74429,35.9577424,-95.6568319
215,West Chestnut Street,74429,35.9522473,-95.6525246
416,North Bristow Avenue,74429,35.9545623,-95.6520885
217,North Bristow Avenue,74429,35.9525908,-95.6515747
804,North Orcutt Street,74429,35.9581157,-95.6536529
121,West Pine Street,74429,35.9531839,-95.6514754
818,North Division Street,74429,35.9585438,-95.6549595
830,North Division Street,74429,35.9588836,-95.6549490
813,North Division Street,74429,35.9583222,-95.6543242
612,North Bristow Avenue,74429,35.9563639,-95.6523632
416,North Atoka Avenue,74429,35.9545681,-95.6532916
512,North Atoka Avenue,74429,35.9553747,-95.6533588
402,North Atoka Avenue,74429,35.9541137,-95.6532997
226,North Old Main Street,74429,35.9528704,-95.6561362
605,West Magnolia Street,74429,35.9562923,-95.6572733
413,West Oak Street,74429,35.9543894,-95.6527897
805,North Division Street,74429,35.9581079,-95.6543662
226,North Division Street,74429,35.9528740,-95.6549038
320,North Division Street,74429,35.9536999,-95.6548898
602,West Dogwood Street,74429,35.9577395,-95.6570655
709,North Old Main Street,74429,35.9564562,-95.6555079
318,West Oak Street,74429,35.9537330,-95.6537723
302,North Old Main Street,74429,35.9530471,-95.6561777
206,West Magnolia Street,74429,35.9557808,-95.6522782
616,North Bristow Avenue,74429,35.9565006,-95.6523306
513,North Division Street,74429,35.9554163,-95.6543948
814,North Orcutt Street,74429,35.9585226,-95.6536949
402,North Division Street,74429,35.9540881,-95.6549146
211,West Chestnut Street,74429,35.9522390,-95.6523026
707,North Old Main Street,74429,35.9562928,-95.6555514
826,North Orcutt Street,74429,35.9589105,-95.6536886
329,West Oak Street,74429,35.9541708,-95.6543285
423,North Old Main Street,74429,35.9547936,-95.6556857
118,West Pine Street,74429,35.9527844,-95.6513606
417,West Pine Street,74429,35.9536758,-95.6554129
210,North Bristow Avenue,74429,35.9525710,-95.6520772
606,West Dogwood Street,74429,35.9577245,-95.6573024
101,West Magnolia Street,74429,35.9561576,-95.6518135
505,North Old Main Street,74429,35.9551398,-95.6556698
513,North Old Main Street,74429,35.9553998,-95.6556227
615,North Bristow Avenue,74429,35.9564511,-95.6517899
311,North Atoka Avenue,74429,35.9533825,-95.6528405
408,North Atoka Avenue,74429,35.9542975,-95.6533215
404,North Bristow Avenue,74429,35.9541540,-95.6520731
500,West Redwood Street,74429,35.9569995,-95.6563368
206,North Bristow Avenue,74429,35.9523669,-95.6520821
426,North Old Main Street,74429,35.9549356,-95.6561824
113,West Pine Street,74429,35.9531242,-95.6511407
325,West Oak Street,74429,35.9541539,-95.6541282
323,North Bristow Avenue,74429,35.9537855,-95.6516743
808,North Division Street,74429,35.9581961,-95.6549710
420,North Atoka Avenue,74429,35.9547103,-95.6533510
521,North Atoka Avenue,74429,35.9554670,-95.6529120
817,North Division Street,74429,35.9585220,-95.6543431
502,West Dogwood Street,74429,35.9576717,-95.6563132
520,West Oak Street,74429,35.9543396,-95.6568817
308,West Magnolia Street,74429,35.9557795,-95.6536895
111,West Redwood Street,74429,35.9567555,-95.6513412
223,West Pine Street,74429,35.9531992,-95.6527832
332,West Oak Street,74429,35.9537396,-95.6544495
510,North Division Street,74429,35.9554117,-95.6550515
411,West Pine Street,74429,35.9536531,-95.6551671
611,North Old Main Street,74429,35.9560163,-95.6556128
609,North Orcutt Street,74429,35.9562273,-95.6531776
321,West Oak Street,74429,35.9541817,-95.6539605
723,North Division Street,74429,35.9577255,-95.6543509
802,North Division Street,74429,35.9580085,-95.6549613
726,North Division Street,74429,35.9578290,-95.6549588
613,North Orcutt Street,74429,35.9563769,-95.6531548
210,West Redwood Street,74429,35.9567950,-95.6525864
623,North Orcutt Street,74429,35.9567174,-95.6531187
119,North Atoka Avenue,74429,35.9516112,-95.6528263
617,West Dogwood Street,74429,35.9581556,-95.6577446
610,West Dogwood Street,74429,35.9577306,-95.6575560
611,West Dogwood Street,74429,35.9581326,-95.6575043
14068,South 305th East Avenue,74429,35.9593145,-95.6368018
14077,South 305th East Avenue,74429,35.9596422,-95.6357148
13972,South 305th East Avenue,74429,35.9604100,-95.6368573
14028,South 305th East Avenue,74429,35.9600518,-95.6367943
