House number,Street name,Postal code,Latitude,Longitude
2700,South Boulevard Street,73013,35.6280016,-97.4777796
4909,Sonny Blues Place,73034-8584,35.6569763,-97.4173736
4917,Sonny Blues Place,73034-8584,35.6569390,-97.4171664
4900,Sonny Blues Place,73034-8584,35.6565248,-97.4175822
4908,Sonny Blues Place,73034-8584,35.6565161,-97.4173595
4916,Sonny Blues Place,73034-8584,35.6564944,-97.4171316
4940,Sonny Blues Place,73034-8584,35.6564706,-97.4165126
4924,Sonny Blues Place,73034-8584,35.6564966,-97.4169358
4932,Sonny Blues Place,73034-8584,35.6564792,-97.4167534
241,Bell Tolls Terrace,73034-8584,35.6572680,-97.4181669
233,Bell Tolls Terrace,73034-8584,35.6570981,-97.4180596
225,Bell Tolls Terrace,73034-8584,35.6569543,-97.4179791
240,Bell Tolls Terrace,73034-8584,35.6574337,-97.4176680
224,Bell Tolls Terrace,73034-8584,35.6571330,-97.4175097
232,Bell Tolls Terrace,73034-8584,35.6572702,-97.4175902
4908,Rose In Bloom Way,73034-8584,35.6575144,-97.4174025
4916,Rose In Bloom Way,73034-8584,35.6576014,-97.4171745
4925,Rose In Bloom Way,73034-8584,35.6581159,-97.4170109
4933,Rose In Bloom Way,73034-8584,35.6581746,-97.4167802
1800,Renaissance Boulevard,73013,35.6351976,-97.4998041
1001,East 2nd Street,73034,35.6531851,-97.4664944
1429,South Santa Fe Avenue,73003,35.6388132,-97.5141266
1520,South Bryant Avenue,73013,35.6376739,-97.4595683
301,Meline Drive,73034,35.6511080,-97.4296072
1225,East 2nd Street,73034,35.6533691,-97.4644112
1472,South Bryant Avenue,73034,35.6388358,-97.4586620
317,South Bryant Avenue,73034,35.6510530,-97.4609917
2200,West Danforth Road,73003,35.6656209,-97.5120795
2828,East 2nd Street,73034,35.6522927,-97.4434670
301,South Bryant Street,73034,35.6519004,-97.4613018
2822,East 2nd Street,73034,35.6523072,-97.4436441
1900,East 2nd Street,73034,35.6522173,-97.4553516
855,West Covell Road,73003,35.6824641,-97.4955384
2916,North Kelly Avenue,73003,35.6847316,-97.4955540
1709,East 2nd Street,73034,35.6531399,-97.4576299
1809,East 2nd Street,73034,35.6533049,-97.4560871
1715,East 2nd Street,73034,35.6532931,-97.4570812
1525,East 2nd Street,73034,35.6532412,-97.4593043
309,South Bryant,73034,35.6513281,-97.4608641
324,South Bryant Avenue,73034,35.6508307,-97.4579414
326,South Broadway,73034,35.6515436,-97.4812415
601,Vista Lane,73034,35.6472815,-97.4530434
101,North Boulevard Street,73034,35.6567590,-97.4785487
1515,East 2nd Street,73034,35.6532255,-97.4595692
732,North Santa Fe Avenue,73003,35.6624646,-97.5137111
1401,South Santa Fe Avenue,73003,35.6400905,-97.5144043
2700,East 2nd Street,73034,35.6520740,-97.4444443
760,West Danforth Road,73003,35.6663605,-97.4931918
1503,East 19th Street,73013,35.6355662,-97.4593207
1073,North Bryant Avenue,73034,35.6648390,-97.4615879
2011,West Danforth Road,73003,35.6679195,-97.5101191
2107,West Danforth Road,73003,35.6679233,-97.5109232
2201,West Danforth Road,73003,35.6693549,-97.5119211
2108,West Danforth Road,73003,35.6671172,-97.5105093
915,East 33rd Street,73013,35.6240230,-97.4669417
1909,East 15th Street,73013,35.6387036,-97.4552396
1001,West Edmond Road,73003,35.6536608,-97.4976070
805,West Edmond Road,73003,35.6531666,-97.4949253
1501,West Edmond Road,73003,35.6533811,-97.5039713
900,North Santa Fe Avenue,73003,35.6630488,-97.5136249
740,West Danforth Road,73003,35.6663594,-97.4929515
122,North Bryant Avenue,73034,35.6560951,-97.4598548
1316,West Covell Road,73003,35.6809032,-97.5014911
1380,W. Covell Road,73003,35.6815154,-97.5020859
1300 Suite 110,W Covell Road,73003,35.6814563,-97.5014147
1,East Main Street,73034,35.6554491,-97.4809953
1912,East 2nd Street,73034,35.6522934,-97.4549076
4851,INTEGRIS Parkway,73034,35.6440396,-97.4168927
3041,Gage Grove Way,73012,35.6856162,-97.5390793
861,East 33rd Street,73013,35.6247210,-97.4689124
500,South Coltrane Road,73034,35.6492271,-97.4423250
3314,South Broadway,73013,35.6225728,-97.4860865
2017,West Frontage Road,73013,35.6339322,-97.4273032
2300,West Danforth Road,73012,35.6671483,-97.5151083
2300,West Danforth Road,73012,35.6671629,-97.5150107
882,West Edmond Road,73003,35.6523997,-97.4950360
822,West Edmond Road,73003,35.6521465,-97.4949937
822,West Edmond Road,73003,35.6521606,-97.4952571
340,South Kelly Avenue,73003,35.6521857,-97.4943563
217,South Broadway,73034,35.6525327,-97.4818015
213,South Broadway,73034,35.6525900,-97.4817912
2141,West 15th Street,73003,35.6389582,-97.5123621
1100,East 9th Street,73034,35.6448439,-97.4653926
610,South Kelly Avenue,73003,35.6496668,-97.4952713
1143,West 15th Street,73013,35.6390222,-97.4993368
1501,Rennaissance Boulevard,73013,35.6379650,-97.4986663
1149,West 15th Street,73013,35.6387671,-97.4993851
201,West 15th Street,73013,35.6386661,-97.4879175
1801,South Kelly Avenue,73013,35.6358655,-97.4962300
1225,Lakeshore Drive,73013,35.6369989,-97.5006954
3133,South Kelly Avenue,73013,35.6251975,-97.4962097
3201,South Kelly Avenue,73013,35.6243970,-97.4962738
2553,South Kelly Avenue,73013,35.6294049,-97.4962772
1001,West 15th Street,73013,35.6385596,-97.4974861
2411,South Kelly Avenue,73013,35.6311247,-97.4968228
2501,South Broadway,73013,35.6303096,-97.4856211
48,East 33rd Street,73013,35.6219057,-97.4827621
4400,North Coltrane Road,73034,35.6997660,-97.4416755
3217 Ste B,South Broadway,73013,35.6246855,-97.4864502
3217 Ste A,South Broadway,73013,35.6246106,-97.4864933
3209 Ste 111,South Broadway,73013,35.6250164,-97.4872255
3209 Ste 101,South Broadway,73013,35.6253309,-97.4870672
100,West 15th Street,73013,35.6380613,-97.4859233
432,South Santa Fe Avenue,73003,35.6514474,-97.5132340
1320,East 2nd Street,73034,35.6493649,-97.4620262
1200,East 2nd Street,73034-5317,35.6498318,-97.4640155
26,East 33rd Street,73013,35.6231399,-97.4837780
20,East 33rd Street,73013,35.6231141,-97.4847647
52,East 33rd Street,73013,35.6230715,-97.4827868
3233,South Broadway,73013,35.6240169,-97.4871246
3121,South Boulevard,73013,35.6246726,-97.4786835
33,East 33rd Street,73013,35.6239293,-97.4822362
3613,Baird Drive,73013,35.6184102,-97.4674849
1305,West Covell Road,73003,35.6863224,-97.5009484
1901,South Broadway,73013,35.6348633,-97.4853448
500,East 9th Street,73034,35.6446096,-97.4726970
1301,East 2nd Street,73034,35.6540850,-97.4634561
1,South Bryant Avenue,73034,35.6547206,-97.4614176
100,North University Drive,73034,35.6582381,-97.4703311
2733,Marilyn Williams Drive,73003,35.6837138,-97.5080783
1301,North Santa Fe Avenue,73003,35.6680342,-97.5147776
3830,South Broadway,73013,35.6171107,-97.4899839
809,Timber Ridge Road,73034,35.6742857,-97.4699016
421,South Broadway,73034,35.6505146,-97.4822970
3501,South Boulevard Street,73013,35.6211800,-97.4800335
100,North University Drive,73034,35.6522907,-97.4638766
327,Waterwood Parkway,73034,35.6511428,-97.4656206
331,Waterwood Parkway,73034,35.6510697,-97.4656207
335,South Blackwelder Avenue,73034,35.6508591,-97.4656059
323,Waterwood Parkway,73034,35.6512178,-97.4656379
335,Waterwood Parkway,73034,35.6510023,-97.4656209
311,Waterwood Parkway,73034,35.6513559,-97.4656334
1300,East 2nd Street,73034,35.6522341,-97.4625508
1569,South Broadway,73013,35.6376588,-97.4843776
180,West 15th Street,73013,35.6379039,-97.4868154
1509,South Broadway,73013,35.6379039,-97.4840631
2304,Foxwood Circle,73034,35.6575505,-97.4500721
2401,North Kelly Avenue,73003,35.6791130,-97.4984237
601,Vista Lane,73034,35.6471703,-97.4528747
601,Vista Lane,73034,35.6475277,-97.4528662
601,Vista Lane,73034,35.6473670,-97.4538894
1034,South Bryant Avenue,73034,35.6432974,-97.4560464
1301,W I-35 Frontage Road,73034,35.6394494,-97.4270470
1117,West I-35 Frontage Road,73034,35.6422819,-97.4282681
1225,West I-35 Frontage,73034,35.6400223,-97.4292555
1101,West I-35 Frontage Road,73034,35.6425567,-97.4261011
1475,W I-35 Frontage Road,73034,35.6388672,-97.4270933
1025,West I-35 Frontage Road,73034,35.6432448,-97.4261711
1001,South Rankin Street,73034,35.6435751,-97.4745592
1200,Fox Bluff Court,73034,35.6413401,-97.4329709
4000,Fox Lake Lane,73034,35.6456395,-97.4291690
4000,Fox Lake Lane,73034,35.6454878,-97.4288944
4000,Fox Lake Lane,73034,35.6452745,-97.4284971
4600,East 2nd Street,73034,35.6495390,-97.4212523
4680,East 2nd Street,73034,35.6508662,-97.4173275
4680,East 2nd Street,73034,35.6500656,-97.4190600
4680,East 2nd Street,73034,35.6497106,-97.4195989
4680,East 2nd Street,73034,35.6505748,-97.4203766
215,West Danforth Road,73013,35.6684731,-97.4850714
4801,INTEGRIS Parkway,73034,35.6441405,-97.4188080
1,South Bryant Avenue,73034,35.6544309,-97.4616086
400,Comfort Drive,73013,35.6168875,-97.4921804
601,Comfort Drive,73013,35.6167395,-97.4935073
401,Comfort Drive,73013,35.6174500,-97.4918024
3200,South Santa Fe Avenue,73013,35.6242780,-97.5130846
2300,West Danforth Road,73012,35.6670372,-97.5150631
1283,West Danforth Road,73013,35.6681256,-97.4999860
1301,Simon Avenue,73003,35.6677725,-97.5094462
1305,Simon Avenue,73003,35.6679261,-97.5094278
1309,Simon Avenue,73003,35.6680765,-97.5094115
1313,Simon Avenue,73003,35.6682541,-97.5094531
1317,Simon Avenue,73003,35.6684312,-97.5094783
1401,Simon Avenue,73003,35.6686122,-97.5094938
1405,Simon Avenue,73003,35.6687898,-97.5094859
1409,Simon Avenue,73003,35.6689681,-97.5094838
1413,Simon Avenue,73003,35.6691466,-97.5094986
1417,Simon Avenue,73003,35.6693256,-97.5094827
1421,Simon Avenue,73003,35.6695046,-97.5094750
1501,Simon Avenue,73003,35.6696838,-97.5094636
1505,Simon Avenue,73003,35.6698620,-97.5094780
1509,Simon Avenue,73003,35.6700390,-97.5094626
1525,Simon Avenue,73003,35.6701794,-97.5095018
1527,Simon Avenue,73003,35.6702821,-97.5095026
1524,Simon Avenue,73003,35.6701920,-97.5089027
1528,Simon Avenue,73003,35.6704146,-97.5089078
1601,Simon Avenue,73003,35.6706330,-97.5094870
1605,Simon Avenue,73003,35.6708188,-97.5094878
1600,Simon Avenue,73003,35.6706294,-97.5089110
1604,Simon Avenue,73003,35.6708209,-97.5089134
1608,Simon Avenue,73003,35.6709929,-97.5089130
1609,Simon Avenue,73003,35.6709980,-97.5094831
1825,Brittany Lane,73003,35.6698727,-97.5089281
1604,Simon Avenue,73003,35.6698824,-97.5086630
1813,Brittany Lane,73003,35.6698881,-97.5084024
1805,Brittany Lane,73003,35.6698857,-97.5079292
1801,Brittany Lane,73003,35.6698731,-97.5077410
1725,Brittany Lane,73003,35.6698653,-97.5075361
1721,Brittany Lane,73003,35.6698661,-97.5073422
1713,Brittany Lane,73003,35.6698837,-97.5068989
1709,Brittany Lane,73003,35.6698665,-97.5067173
1705,Brittany Lane,73003,35.6698695,-97.5065236
1701,Brittany Lane,73003,35.6698677,-97.5063242
1621,Brittany Lane,73003,35.6698887,-97.5061294
1617,Brittany Lane,73003,35.6698715,-97.5059381
1613,Brittany Lane,73003,35.6698811,-97.5057427
1824,Brittany Lane,73003,35.6694433,-97.5089741
1820,Brittany Lane,73003,35.6694429,-97.5087717
1816,Brittany Lane,73003,35.6694410,-97.5085711
1812,Brittany Lane,73003,35.6694360,-97.5083722
1808,Brittany Lane,73003,35.6694249,-97.5081714
1804,Brittany Lane,73003,35.6694399,-97.5079694
1800,Brittany Lane,73003,35.6694431,-97.5077642
1724,Brittany Lane,73003,35.6694423,-97.5075628
1720,Brittany Lane,73003,35.6694329,-97.5073670
1716,Brittany Lane,73003,35.6694382,-97.5071607
1712,Brittany Lane,73003,35.6694391,-97.5069553
1708,Brittany Lane,73003,35.6694238,-97.5067550
1704,Brittany Lane,73003,35.6694384,-97.5065529
1700,Brittany Lane,73003,35.6694261,-97.5063474
1620,Brittany Lane,73003,35.6694190,-97.5061472
1616,Brittany Lane,73003,35.6694309,-97.5059454
1612,Brittany Lane,73003,35.6694191,-97.5057496
1502,West Danforth Road,73003,35.6638096,-97.5019122
306,West Covell Road,73003,35.6812409,-97.4828194
3141,South Bryant Avenue,73013,35.6248310,-97.4611375
3272,South Broadway,73013,35.6239872,-97.4837528
3100,South Broadway,73013-4056,35.6252462,-97.4847008
1520,South Bryant Avenue,73013,35.6378009,-97.4596753
601,South Bryant Avenue,73034,35.6482196,-97.4610756
2017,West Frontage Road,73013,35.6342144,-97.4273190
2400,Bretton Lane,73012,35.6790382,-97.5399174
1304,Briar Wood Drive,73034,35.6411408,-97.4627776
2057,Emerald Brook Court,73003,35.6545828,-97.5113786
2049,Emerald Brook Court,73003,35.6545820,-97.5112065
2041,Emerald Brook Court,73003,35.6545826,-97.5110428
2033,Emerald Brook Court,73003,35.6545738,-97.5108744
2025,Emerald Brook Court,73003,35.6545828,-97.5107062
2017,Emerald Brook Court,73003,35.6545665,-97.5105395
2009,Emerald Brook Court,73003,35.6545853,-97.5103690
2001,Emerald Brook Court,73003,35.6546127,-97.5101916
1917,Emerald Brook Court,73003,35.6546471,-97.5100049
1909,Emerald Brook Court,73003,35.6545654,-97.5097397
1901,Emerald Brook Court,73003,35.6543783,-97.5096452
1900,Emerald Brook Court,73003,35.6541418,-97.5097535
1908,Emerald Brook Court,73003,35.6540659,-97.5100152
1916,Emerald Brook Court,73003,35.6540856,-97.5101953
2000,Emerald Brook Court,73003,35.6541151,-97.5103650
2008,Emerald Brook Court,73003,35.6541272,-97.5105298
2016,Emerald Brook Court,73003,35.6541309,-97.5107006
2024,Emerald Brook Court,73003,35.6541338,-97.5108653
2032,Emerald Brook Court,73003,35.6541382,-97.5110377
2040,Emerald Brook Court,73003,35.6541293,-97.5112063
2048,Emerald Brook Court,73003,35.6541371,-97.5113750
2008,Brookhaven Drive,73034,35.6776399,-97.4652156
26,West 1st Street,73034,35.6538467,-97.4828021
717,North University Drive,73034,35.6628851,-97.4743963
1500,East Danforth Road,73034,35.6664888,-97.4594013
2405,South Rankin Street,73013,35.6293764,-97.4756437
6400,East 15th Street,73013,35.6309440,-97.3950612
1800,Renaissance Boulevard,73013,35.6351216,-97.4993679
7100,East 2nd Street,73034,35.6494446,-97.3912644
7900,East 2nd Street,73034,35.6488489,-97.3777391
901,East Wayne Street,73034,35.6616484,-97.4668550
2200,West Edmond Road,73003,35.6525906,-97.5126542
1632,South Broadway,73013,35.6366299,-97.4822904
777,East 15th Street,73013,35.6393842,-97.4712586
317,East 33rd Street,73013,35.6238413,-97.4766252
313,East 33rd Street,73013,35.6238762,-97.4768291
3207,South Boulevard Street,73013,35.6256354,-97.4792379
3001,South Boulevard Street,73013,35.6264398,-97.4792326
176,Clay Drive,73013,35.6249623,-97.4786566
164,Clay Drive,73013,35.6249639,-97.4789476
154,Clay Drive,73013,35.6249666,-97.4792393
3608,South Broadway Street,73013,35.6196285,-97.4887131
3600,South Broadway Street,73013,35.6201175,-97.4880438
3580,South Broadway,73013,35.6206787,-97.4877348
3500,South Broadway Street,73013,35.6214091,-97.4873156
3521,South Broadway,73013,35.6208439,-97.4892804
3433,South Broadway,73013,35.6214015,-97.4889344
3501,South Broadway,73013,35.6213863,-97.4898738
3601,South Broadway,73013,35.6196584,-97.4906664
3625,South Broadway,73013,35.6188996,-97.4907429
3701,South Broadway,73013,35.6185018,-97.4912243
3801,South Broadway,73013,35.6181583,-97.4919137
2700,South Boulevard Street,73013,35.6277709,-97.4772564
3001,Market Street,73034,35.6863021,-97.4206961
1049,West I-35 Frontage Road,73034,35.6429000,-97.4260900
920,South Boulevard Street,73034,35.6442466,-97.4776629
2509,Bretton Lane,73012,35.6804794,-97.5404783
200,North Bryant Avenue,73034,35.6570110,-97.4598945
12,South Lockeport Drive,73003,35.6553115,-97.5096850
1920,W Rockypoint Drive,73003,35.6549305,-97.5098285
13,South Lockeport Drive,73003,35.6553270,-97.5101880
9,South Lockeport Drive,73003,35.6555070,-97.5101720
5,South Lockeport Drive,73003,35.6556985,-97.5101865
3,South Lockeport Drive,73003,35.6558920,-97.5101810
4,South Lockeport Drive,73003,35.6556820,-97.5097050
8,South Lockeport Drive,73003,35.6554950,-97.5096825
8,South Grand Fork Drive,73003,35.6553155,-97.5105430
4,South Grand Fork Drive,73003,35.6555095,-97.5105365
2,South Grand Fork Drive,73003,35.6556950,-97.5105365
6,North Grand Fork Drive,73003,35.6558905,-97.5105395
14,North Grand Fork Drive,73003,35.6562760,-97.5105500
18,North Grand Fork Drive,73003,35.6564715,-97.5105405
10,North Grand Fork Drive,73003,35.6560835,-97.5105475
7,South Lockeport Drive,73003,35.6560845,-97.5101840
11,South Lockeport Drive,73003,35.6562785,-97.5101825
17,South Lockeport Drive,73003,35.6564675,-97.5102025
101,South Lockeport Drive,73003,35.6566620,-97.5101865
100,North Grand Fork Drive,73003,35.6566600,-97.5105555
104,North Grand Fork Drive,73003,35.6568560,-97.5105450
108,North Grand Fork Drive,73003,35.6570510,-97.5105415
112,North Grand Fork Drive,73003,35.6572360,-97.5105745
125,South Lockeport Drive,73003,35.6572375,-97.5101960
117,South Lockeport Drive,73003,35.6570480,-97.5102055
109,South Lockeport Drive,73003,35.6568670,-97.5101960
124,South Lockeport Drive,73003,35.6572385,-97.5096875
116,South Lockeport Drive,73003,35.6570850,-97.5096660
108,South Lockeport Drive,73003,35.6569365,-97.5096620
100,South Lockeport Drive,73003,35.6567775,-97.5096745
24,South Lockeport Drive,73003,35.6566250,-97.5096860
16,South Lockeport Drive,73003,35.6564439,-97.5096801
10,South Lockeport Drive,73003,35.6562590,-97.5096970
6,South Lockeport Drive,73003,35.6560650,-97.5096900
2,South Lockeport Drive,73003,35.6558740,-97.5096705
133,South Lockeport Drive,73003,35.6574300,-97.5102095
116,North Grand Fork Drive,73003,35.6574245,-97.5105460
408,North Lockeport Drive,73003,35.6597055,-97.5096620
404,North Lockeport Drive,73003,35.6595280,-97.5096795
400,North Lockeport Drive,73003,35.6593360,-97.5096865
312,North Lockeport Drive,73003,35.6591440,-97.5096720
308,North Lockeport Drive,73003,35.6589505,-97.5096795
304,North Lockeport Drive,73003,35.6587565,-97.5096755
300,North Lockeport Drive,73003,35.6585660,-97.5096770
216,North Lockeport Drive,73003,35.6583725,-97.5096905
212,North Lockeport Drive,73003,35.6581800,-97.5096795
208,North Lockeport Drive,73003,35.6579925,-97.5096925
203,North Lockeport Drive,73003,35.6578150,-97.5101990
209,North Lockeport Drive,73003,35.6579905,-97.5101935
213,North Lockeport Drive,73003,35.6581820,-97.5101665
217,North Lockeport Drive,73003,35.6583750,-97.5101930
301,North Lockeport Drive,73003,35.6585715,-97.5101785
305,North Lockeport Drive,73003,35.6587565,-97.5101955
304,North Grand Fork Drive,73003,35.6587620,-97.5105570
300,North Grand Fork Drive,73003,35.6585640,-97.5105595
212,North Grand Fork Drive,73003,35.6583795,-97.5105645
208,North Grand Fork Drive,73003,35.6581800,-97.5105420
204,North Grand Fork Drive,73003,35.6579915,-97.5105460
200,North Grand Fork Drive,73003,35.6578080,-97.5105395
204,North Lockeport Drive,73003,35.6578040,-97.5096740
2208,W Rockypoint Drive,73003,35.6549120,-97.5131775
2204,W Rockypoint Drive,73003,35.6549075,-97.5129465
2200,W Rockypoint Drive,73003,35.6549055,-97.5127235
2120,W Rockypoint Drive,73003,35.6549115,-97.5125040
2116,W Rockypoint Drive,73003,35.6549025,-97.5122775
2112,W Rockypoint Drive,73003,35.6549185,-97.5120655
2108,W Rockypoint Drive,73003,35.6549110,-97.5118470
2013,W Rockypoint Drive,73003,35.6553455,-97.5112795
2008,Shorewood Lane,73003,35.6556685,-97.5110565
2012,Shorewood Lane,73003,35.6556530,-97.5112740
2100,Shorewood Lane,73003,35.6556555,-97.5115130
2104,Shorewood Lane,73003,35.6556595,-97.5117345
2108,Shorewood Lane,73003,35.6556595,-97.5119605
2112,Shorewood Lane,73003,35.6556740,-97.5121795
2205,W Rockypoint Drive,73003,35.6553415,-97.5131050
2201,W Rockypoint Drive,73003,35.6553320,-97.5128580
2121,W Rockypoint Drive,73003,35.6553445,-97.5126235
2121,W Rockypoint Drive,73003,35.6553400,-97.5123970
2117,W Rockypoint Drive,73003,35.6553360,-97.5121780
2109,W Rockypoint Drive,73003,35.6553415,-97.5119605
2105,W Rockypoint Drive,73003,35.6553315,-97.5117380
2101,W Rockypoint Drive,73003,35.6553490,-97.5115115
2009,W Rockypoint Drive,73003,35.6553360,-97.5110250
2016,W Rockypoint Drive,73003,35.6549185,-97.5111440
2116,Shorewood Lane,73003,35.6556725,-97.5123980
2120,Shorewood Lane,73003,35.6556760,-97.5126245
2204,Shorewood Lane,73003,35.6556625,-97.5131090
2200,Shorewood Lane,73003,35.6556635,-97.5128595
2205,Shorewood Lane,73003,35.6560865,-97.5130860
2201,Shorewood Lane,73003,35.6560895,-97.5128690
2121,Shorewood Lane,73003,35.6560760,-97.5126270
2117,Shorewood Lane,73003,35.6560930,-97.5123990
2113,Shorewood Lane,73003,35.6560920,-97.5121785
2109,Shorewood Lane,73003,35.6560890,-97.5119625
2105,Shorewood Lane,73003,35.6560930,-97.5117415
2101,Shorewood Lane,73003,35.6560780,-97.5115155
2013,Shorewood Lane,73003,35.6560845,-97.5112755
2009,Shorewood Lane,73003,35.6560910,-97.5110465
2008,Redcliff Lane,73003,35.6563865,-97.5110555
2100,Redcliff Lane,73003,35.6563990,-97.5115140
2104,Redcliff Lane,73003,35.6563930,-97.5117435
2108,Redcliff Lane,73003,35.6563845,-97.5119615
2112,Redcliff Lane,73003,35.6563835,-97.5121785
2116,Redcliff Lane,73003,35.6563930,-97.5124005
2120,Redcliff Lane,73003,35.6563775,-97.5126450
2200,Redcliff Lane,73003,35.6563915,-97.5128530
2204,Redcliff Lane,73003,35.6563745,-97.5130815
105,N Rockypoint Drive,73003,35.6568135,-97.5136145
109,N Rockypoint Drive,73003,35.6570000,-97.5136010
2220,Crosstrails,73003,35.6571865,-97.5136020
112,N Rockypoint Drive,73003,35.6573340,-97.5131085
108,N Rockypoint Drive,73003,35.6571570,-97.5130930
104,N Rockypoint Drive,73003,35.6569805,-97.5130845
100,N Rockypoint Drive,73003,35.6568085,-97.5130805
101,Bluegrass Lane,73003,35.6568080,-97.5127430
105,Bluegrass Lane,73003,35.6569805,-97.5127550
109,Bluegrass Lane,73003,35.6571570,-97.5127440
116,Bluegrass Lane,73003,35.6573390,-97.5127550
117,Bluegrass Lane,73003,35.6575150,-97.5127615
1925,Castle Rock,73003,35.6601040,-97.5100950
1921,Castle Rock,73003,35.6600825,-97.5098755
1917,Castle Rock,73003,35.6601065,-97.5096515
2009,Castle Rock,73003,35.6600925,-97.5105740
2013,Castle Rock,73003,35.6600980,-97.5108130
2017,Castle Rock,73003,35.6600675,-97.5110490
2101,Castle Rock,73003,35.6600805,-97.5115195
628,West Danforth Road,73003,35.6669110,-97.4926060
917,West Danforth Road,73013,35.6679195,-97.4973585
1230,North Kelly Avenue,73013,35.6671135,-97.4955150
1235,North Kelly Avenue,73013,35.6670515,-97.4965895
1000,West Danforth Road,73013,35.6670790,-97.4978100
909,West Danforth Road,73013,35.6678196,-97.4966639
1101,West Danforth Road,73003,35.6685610,-97.4954845
200,Meline Drive,73034,35.6515032,-97.4281330
2301,West Frontage Road,73013,35.6316995,-97.4268428
922,South Boulevard Street,73034,35.6441642,-97.4775892
930,South Boulevard Street,73034,35.6433986,-97.4772181
415,West 15th Street,73013,35.6387355,-97.4905155
441,South Fretz Avenue,73003,35.6512309,-97.4876554
2625,Market Street,73034,35.6811571,-97.4210120
2664,Exchange Drive,73034,35.6811429,-97.4185920
2600,Exchange Drive,73034,35.6811247,-97.4193598
14,East 1st Street,73034,35.6538575,-97.4805128
7201,East 33rd Street,73013,35.6271781,-97.3787963
7201,East 33rd Street,73013,35.6248131,-97.3879227
231,South Coltrane Road,73034,35.6516267,-97.4431775
2904,Appaloosa Trail,73012,35.6447956,-97.5219056
2900,Appaloosa Trail,73012,35.6447941,-97.5216833
2816,Appaloosa Trail,73012,35.6448050,-97.5214850
2812,Appaloosa Trail,73012,35.6448060,-97.5212310
2808,Appaloosa Trail,73012,35.6447633,-97.5210043
2804,Appaloosa Trail,73012,35.6447174,-97.5206783
24,East 2nd Street,73034,35.6523659,-97.4805078
313,N Rockypoint Drive,73003,35.6591150,-97.5135862
309,N Rockypoint Drive,73003,35.6589384,-97.5135871
317,N Rockypoint Drive,73003,35.6592944,-97.5135916
401,N Rockypoint Drive,73003,35.6594803,-97.5135804
405,N Rockypoint Drive,73003,35.6596902,-97.5135976
2215,Castle Rock,73003,35.6600717,-97.5136255
2209,Castle Rock,73003,35.6600896,-97.5133913
305,N Rockypoint Drive,73003,35.6587571,-97.5135816
301,N Rockypoint Drive,73003,35.6585758,-97.5135948
217,N Rockypoint Drive,73003,35.6583960,-97.5135920
213,N Rockypoint Drive,73003,35.6582198,-97.5135882
209,N Rockypoint Drive,73003,35.6580429,-97.5135755
205,N Rockypoint Drive,73003,35.6578625,-97.5135797
2221,Crosstrails,73003,35.6576771,-97.5135894
116,N Rockypoint Drive,73003,35.6575094,-97.5130763
200,N Rockypoint Drive,73003,35.6576943,-97.5130806
204,N Rockypoint Drive,73003,35.6578685,-97.5130851
208,N Rockypoint Drive,73003,35.6580514,-97.5130853
212,N Rockypoint Drive,73003,35.6582255,-97.5130760
216,N Rockypoint Drive,73003,35.6584061,-97.5131026
300,N Rockypoint Drive,73003,35.6585850,-97.5130879
304,N Rockypoint Drive,73003,35.6587684,-97.5130826
308,N Rockypoint Drive,73003,35.6589510,-97.5130727
2205,Shamrock Drive,73003,35.6593675,-97.5131249
2204,Castle Rock,73003,35.6596613,-97.5130986
2201,Castle Rock,73003,35.6600994,-97.5129246
2350,West Danforth Road,73012,35.6670745,-97.5155327
2525,West Danforth Road,73003,35.6680464,-97.5168549
2200,Castle Rock,73003,35.6596799,-97.5128824
2120,Castle Rock,73003,35.6596703,-97.5126652
2116,Castle Rock,73003,35.6596792,-97.5124489
2112,Castle Rock,73003,35.6596729,-97.5122346
2108,Castle Rock,73003,35.6596739,-97.5120132
2104,Castle Rock,73003,35.6596697,-97.5117922
2100,Castle Rock,73003,35.6596829,-97.5115797
2016,Castle Rock,73003,35.6596955,-97.5111129
2012,Castle Rock,73003,35.6596946,-97.5108777
2008,Castle Rock,73003,35.6596674,-97.5106386
2004,Castle Rock,73003,35.6596971,-97.5104052
405,North Lockeport Drive,73003,35.6596726,-97.5101816
2105,Castle Rock,73003,35.6601039,-97.5117530
2109,Castle Rock,73003,35.6600610,-97.5119807
2113,Castle Rock,73003,35.6600943,-97.5122183
2117,Castle Rock,73003,35.6601065,-97.5124589
2121,Castle Rock,73003,35.6600977,-97.5126964
2201,Shamrock Drive,73003,35.6593546,-97.5128878
2121,Shamrock Drive,73003,35.6593490,-97.5126722
2117,Shamrock Drive,73003,35.6593598,-97.5124550
2113,Shamrock Drive,73003,35.6593441,-97.5122300
2109,Shamrock Drive,73003,35.6593700,-97.5119997
2105,Shamrock Drive,73003,35.6593504,-97.5117990
2101,Shamrock Drive,73003,35.6593500,-97.5115753
2021,Shamrock Drive,73003,35.6593385,-97.5113487
2017,Shamrock Drive,73003,35.6593613,-97.5111165
2013,Shamrock Drive,73003,35.6593526,-97.5108847
2009,Shamrock Drive,73003,35.6593596,-97.5106466
2005,Shamrock Drive,73003,35.6593340,-97.5104065
2001,Shamrock Drive,73003,35.6593514,-97.5101778
201,Bluegrass Lane,73003,35.6576954,-97.5127401
205,Bluegrass Lane,73003,35.6578726,-97.5127477
209,Bluegrass Lane,73003,35.6580496,-97.5127529
213,Bluegrass Lane,73003,35.6582286,-97.5127506
217,Bluegrass Lane,73003,35.6584065,-97.5127382
301,Bluegrass Lane,73003,35.6585868,-97.5127595
305,Bluegrass Lane,73003,35.6587679,-97.5127595
309,Bluegrass Lane,73003,35.6589350,-97.5127529
308,Bluegrass Lane,73003,35.6589458,-97.5122383
304,Bluegrass Lane,73003,35.6587656,-97.5122255
300,Bluegrass Lane,73003,35.6585861,-97.5122227
216,Bluegrass Lane,73003,35.6584104,-97.5122316
212,Bluegrass Lane,73003,35.6582311,-97.5122269
208,Bluegrass Lane,73003,35.6580525,-97.5122395
200,Bluegrass Lane,73003,35.6578764,-97.5122292
200,Bluegrass Lane,73003,35.6576961,-97.5122233
116,Bluegrass Lane,73003,35.6575153,-97.5122186
112,Bluegrass Lane,73003,35.6573391,-97.5122384
108,Bluegrass Lane,73003,35.6571586,-97.5122342
104,Bluegrass Lane,73003,35.6569813,-97.5122320
100,Bluegrass Lane,73003,35.6567957,-97.5122196
101,Brackendale Lane,73003,35.6567844,-97.5119086
105,Brackendale Lane,73003,35.6569793,-97.5119001
109,Brackendale Lane,73003,35.6571600,-97.5119112
113,Brackendale Lane,73003,35.6573378,-97.5119036
117,Brackendale Lane,73003,35.6575177,-97.5119150
201,Brackendale Lane,73003,35.6576959,-97.5119083
205,Brackendale Lane,73003,35.6578808,-97.5119090
209,Brackendale Lane,73003,35.6580535,-97.5119041
213,Brackendale Lane,73003,35.6582330,-97.5119100
217,Brackendale Lane,73003,35.6584107,-97.5119083
301,Brackendale Lane,73003,35.6585880,-97.5118969
305,Brackendale Lane,73003,35.6587655,-97.5119156
309,Brackendale Lane,73003,35.6589432,-97.5119150
308,Brackendale Lane,73003,35.6589702,-97.5113895
304,Brackendale Lane,73003,35.6587767,-97.5113937
300,Brackendale Lane,73003,35.6585883,-97.5113974
216,Brackendale Lane,73003,35.6584115,-97.5113772
212,Brackendale Lane,73003,35.6582322,-97.5113794
208,Brackendale Lane,73003,35.6580533,-97.5113852
204,Brackendale Lane,73003,35.6578764,-97.5113805
200,Brackendale Lane,73003,35.6576943,-97.5113855
116,Brackendale Lane,73003,35.6575147,-97.5113993
112,Brackendale Lane,73003,35.6573415,-97.5113760
108,Brackendale Lane,73003,35.6571618,-97.5113788
104,Brackendale Lane,73003,35.6569822,-97.5113796
100,Brackendale Lane,73003,35.6568050,-97.5113676
101,North Grand Fork Drive,73003,35.6568076,-97.5110648
105,North Grand Fork Drive,73003,35.6569810,-97.5110547
109,North Grand Fork Drive,73003,35.6571586,-97.5110662
113,North Grand Fork Drive,73003,35.6573420,-97.5110739
117,North Grand Fork Drive,73003,35.6575206,-97.5110758
201,North Grand Fork Drive,73003,35.6576941,-97.5110794
205,North Grand Fork Drive,73003,35.6578725,-97.5110710
209,North Grand Fork Drive,73003,35.6580563,-97.5110648
213,North Grand Fork Drive,73003,35.6582320,-97.5110600
217,North Grand Fork Drive,73003,35.6584112,-97.5110753
301,North Grand Fork Drive,73003,35.6585892,-97.5110681
305,North Grand Fork Drive,73003,35.6587632,-97.5110674
309,North Grand Fork Drive,73003,35.6589514,-97.5110644
308,North Grand Fork Drive,73003,35.6589447,-97.5105540
309,North Lockeport Drive,73003,35.6589491,-97.5101847
2020,W Rockypoint Drive,73003,35.6549153,-97.5113717
2012,W Rockypoint Drive,73003,35.6549330,-97.5109176
2008,W Rockypoint Drive,73003,35.6549173,-97.5106975
2004,W Rockypoint Drive,73003,35.6549161,-97.5104678
2000,W Rockypoint Drive,73003,35.6549163,-97.5102586
1924,W Rockypoint Drive,73003,35.6549292,-97.5100413
1916,W Rockypoint Drive,73003,35.6549152,-97.5096081
1801,West Edmond Road,73003,35.6534410,-97.5076347
1501,West Edmond Road,73003,35.6533950,-97.5040322
310,South Kelly Avenue,73003,35.6522599,-97.4955736
882,West Edmond Road,73003,35.6522687,-97.4951281
304,South Kelly Avenue,73003,35.6525641,-97.4942689
805,West Edmond Road,73003,35.6531933,-97.4949190
706,West Edmond Road,73003,35.6526006,-97.4939525
700,West Edmond Road,73003,35.6526073,-97.4934625
119,West 2nd Street,73003,35.6537511,-97.4847620
102,West 1st Street,73003,35.6543165,-97.4848207
217,South Broadway,73034,35.6526077,-97.4818586
201,South Broadway,73034,35.6529768,-97.4819720
7,East 2nd Street,73034,35.6533802,-97.4811196
4,East 2nd Street,73034,35.6527322,-97.4811332
1414,South Santa Fe Avenue,73003,35.6390502,-97.5131757
555,South Kelly Avenue,73003,35.6512664,-97.4964734
601,South Kelly Avenue,73003,35.6508556,-97.4966844
700,West 2nd Street,73003,35.6535280,-97.4938505
625,West 2nd Street,73003,35.6539959,-97.4925934
621,West 2nd Street,73003,35.6539855,-97.4924737
631,West 2nd Street,73003,35.6538896,-97.4928376
729,West 2nd Street,73003,35.6539729,-97.4942252
3209,South Broadway,73013,35.6245588,-97.4874610
3209,South Broadway,73013,35.6250112,-97.4872319
1206,East Hurd Street,73034,35.6554467,-97.4639486
1208,East Hurd Street,73034,35.6554402,-97.4637798
1212,East Hurd Street,73034,35.6554263,-97.4636167
1216,East Hurd Street,73034,35.6554176,-97.4634471
1105,East Main Street,73034,35.6549060,-97.4654889
1111,East Main Street,73034,35.6549061,-97.4653256
431,South Boulevard,73034,35.6500695,-97.4786510
1200,East 15th Street,73013,35.6378476,-97.4635637
300,Meline Drive,73034,35.6507081,-97.4283086
321,Meline Drive,73034,35.6502171,-97.4299204
2625,W I-35 FRONTAGE RD,73013,35.6302172,-97.4260991
101,East 1st Street,73083,35.6543483,-97.4793953
516,South Coltrane Road,73034,35.6493874,-97.4423823
1333,North Santa Fe Avenue,73003,35.6685957,-97.5153944
1515,West Oak Tree Drive,73025,35.7190754,-97.5053636
