House number,Street name,Postal code,Latitude,Longitude
519,East 141st Street South,74033,35.9596250,-96.0020017
519,East 141st Street South,74033,35.9595417,-96.0025704
12190,South Waco Avenue West,74066,35.9860772,-96.0172725
13821,South Casper Street West,74033,35.9627164,-96.0110959
13825,South Casper Street West,74033,35.9626111,-96.0110940
13827,South Casper Street West,74033,35.9625389,-96.0110892
17521,South 33rd Avenue West,74047,35.9077326,-96.0255235
18005,South Sunset Avenue West,74033,35.9024744,-96.0234387
18020,South Sunset Avenue West,74033,35.9022628,-96.0243831
17881,South Sunset Avenue West,74033,35.9042191,-96.0234107
17861,South Sunset Avenue West,74033,35.9045776,-96.0234135
17931,South Sunset Avenue West,74033,35.9035211,-96.0234433
18050,South Sunset Avenue West,74033,35.9023417,-96.0253327
18027,South Sunset Avenue West,74033,35.9021253,-96.0234332
17979,South Sunset Avenue West,74033,35.9028233,-96.0234426
17955,South Sunset Avenue West,74033,35.9031723,-96.0234436
17905,South Sunset Avenue West,74033,35.9038698,-96.0234163
17894,South Sunset Avenue West,74033,35.9038672,-96.0246991
18073,South Sunset Avenue West,74033,35.9014515,-96.0233328
17866,South Sunset Avenue West,74033,35.9045117,-96.0246688
17303,South 33rd Avenue West,74047,35.9091074,-96.0267976
18047,South Sunset Avenue West,74033,35.9017812,-96.0234131
2171,West 181st Street South,74047,35.9030273,-96.0201889
2175,West 181st Street South,74047,35.9044023,-96.0201903
2173,West 181st Street South,74047,35.9037140,-96.0201896
17601,South 33rd Avenue West,74047,35.9062212,-96.0257841
2124,West 166th Street South,74033,35.9233333,-96.0139529
497,West 147th Place South,74033,35.9495881,-96.0139489
740,West 147th Place South,74033,35.9492755,-96.0170200
458,West 147th Place South,74033,35.9492161,-96.0135228
613,West 147th Place South,74033,35.9495916,-96.0152718
598,West 147th Place South,74033,35.9492182,-96.0148418
792,West 147th Place South,74033,35.9492792,-96.0184497
467,West 147th Place South,74033,35.9495871,-96.0137336
794,West 147th Place South,74033,35.9492800,-96.0187434
628,West 147th Place South,74033,35.9492182,-96.0154970
603,West 147th Place South,74033,35.9495906,-96.0150572
595,West 147th Place South,74033,35.9495902,-96.0148373
782,West 147th Place South,74033,35.9492897,-96.0179752
770,West 147th Place South,74033,35.9492748,-96.0177403
748,West 147th Place South,74033,35.9492597,-96.0172619
457,West 147th Place South,74033,35.9495868,-96.0135179
498,West 147th Place South,74033,35.9492166,-96.0139561
790,West 147th Place South,74033,35.9492916,-96.0182132
553,West 147th Place South,74033,35.9495899,-96.0146165
513,West 147th Place South,74033,35.9495887,-96.0141659
616,West 147th Place South,74033,35.9492180,-96.0152838
558,West 147th Place South,74033,35.9492171,-96.0146252
516,West 147th Place South,74033,35.9492168,-96.0141773
538,West 147th Place South,74033,35.9492171,-96.0144014
756,West 147th Place South,74033,35.9492647,-96.0175038
468,West 147th Place South,74033,35.9492162,-96.0137399
606,West 147th Place South,74033,35.9492187,-96.0150625
535,West 147th Place South,74033,35.9495888,-96.0143908
14613,South Courtney Lane West,74033,35.9507117,-96.0187386
14568,South Courtney Drive West,74033,35.9512824,-96.0182793
14541,South Courtney Drive West,74033,35.9523902,-96.0178186
14554,South Courtney Drive West,74033,35.9518851,-96.0183248
14704,South Courtney Lane West,74033,35.9499645,-96.0192525
14560,South Courtney Lane West,74033,35.9515031,-96.0193065
14731,South Courtney Drive West,74033,35.9506329,-96.0176304
14600,South Courtney Lane West,74033,35.9513108,-96.0193067
14562,South Courtney Drive West,74033,35.9514706,-96.0183891
14605,South Courtney Lane West,74033,35.9511171,-96.0187313
14559,South Courtney Lane West,74033,35.9516941,-96.0187304
14728,South Courtney Drive West,74033,35.9508593,-96.0183655
14701,South Courtney Lane West,74033,35.9500939,-96.0186792
14604,South Courtney Lane West,74033,35.9511185,-96.0193075
14736,South Courtney Drive West,74033,35.9504556,-96.0182934
14616,South Courtney Lane West,74033,35.9505415,-96.0193205
14552,South Courtney Lane West,74033,35.9518925,-96.0193015
14561,South Courtney Drive West,74033,35.9513521,-96.0176841
14612,South Courtney Lane West,74033,35.9507339,-96.0193212
14742,South Courtney Drive West,74033,35.9500829,-96.0182704
14620,South Courtney Lane West,74033,35.9503492,-96.0192918
14746,South Courtney Drive West,74033,35.9498864,-96.0182700
14565,South Courtney Drive West,74033,35.9512694,-96.0179485
14563,South Courtney Lane West,74033,35.9515018,-96.0187306
14700,South Courtney Lane West,74033,35.9501571,-96.0192617
14738,South Courtney Drive West,74033,35.9502698,-96.0182793
14739,South Courtney Drive West,74033,35.9502662,-96.0176709
14709,South Courtney Lane West,74033,35.9496757,-96.0186937
14747,South Courtney Drive West,74033,35.9498855,-96.0176607
14727,South Courtney Drive West,74033,35.9508848,-96.0176284
14720,South Courtney Lane West,74033,35.9491942,-96.0192944
14723,South Courtney Drive West,74033,35.9509957,-96.0178598
14550,South Courtney Drive West,74033,35.9521225,-96.0182897
14621,South Courtney Lane West,74033,35.9502999,-96.0187027
14608,South Courtney Lane West,74033,35.9509262,-96.0193136
14735,South Courtney Drive West,74033,35.9504529,-96.0176736
14557,South Courtney Drive West,74033,35.9516109,-96.0176899
14743,South Courtney Drive West,74033,35.9500778,-96.0176647
14710,South Courtney Lane West,74033,35.9495799,-96.0192887
14724,South Courtney Drive West,74033,35.9509945,-96.0181934
14750,South Courtney Drive West,74033,35.9496790,-96.0182827
14751,South Courtney Drive West,74033,35.9496819,-96.0176556
14558,South Courtney Drive West,74033,35.9516979,-96.0183428
14617,South Courtney Lane West,74033,35.9505068,-96.0187333
14501,South Courtney Lane West,74033,35.9521008,-96.0187588
14555,South Courtney Lane West,74033,35.9518864,-96.0187302
14732,South Courtney Drive West,74033,35.9506314,-96.0183393
14556,South Courtney Lane West,74033,35.9516954,-96.0193063
14609,South Courtney Lane West,74033,35.9509178,-96.0187345
14553,South Courtney Drive West,74033,35.9518006,-96.0177460
14545,South Courtney Drive West,74033,35.9521854,-96.0177570
14705,South Courtney Lane West,74033,35.9498878,-96.0186774
14714,South Courtney Lane West,74033,35.9493876,-96.0193037
14549,South Courtney Drive West,74033,35.9519927,-96.0177513
14706,South Courtney Lane West,74033,35.9497720,-96.0192614
14601,South Courtney Lane West,74033,35.9513095,-96.0187308
14713,South Jordan Circle West,74033,35.9505029,-96.0163416
14701,South Jordan Circle West,74033,35.9511190,-96.0165127
14717,South Jordan Circle West,74033,35.9502695,-96.0163964
14705,South Jordan Circle West,74033,35.9508975,-96.0162973
14709,South Jordan Circle West,74033,35.9506925,-96.0163346
14745,South Jordan Court West,74033,35.9489078,-96.0164244
14721,South Jordan Court West,74033,35.9500593,-96.0165119
14718,South Jordan Court West,74033,35.9502867,-96.0172176
14737,South Jordan Court West,74033,35.9492924,-96.0164401
14733,South Jordan Court West,74033,35.9494846,-96.0164480
14725,South Jordan Court West,74033,35.9498692,-96.0164638
14722,South Jordan Court West,74033,35.9500763,-96.0172018
14572,South Jordan Court West,74033,35.9517580,-96.0173275
14729,South Jordan Court West,74033,35.9496769,-96.0164559
14608,South Jordan Court West,74033,35.9509231,-96.0172555
14604,South Jordan Court West,74033,35.9511319,-96.0172750
14600,South Jordan Court West,74033,35.9513407,-96.0172945
14741,South Jordan Court West,74033,35.9491001,-96.0164323
14614,South Jordan Court West,74033,35.9505046,-96.0172298
14730,South Jordan Court West,74033,35.9496785,-96.0171833
14568,South Jordan Court West,74033,35.9519668,-96.0173420
14564,South Jordan Court West,74033,35.9521756,-96.0173565
14612,South Jordan Court West,74033,35.9507135,-96.0172388
14560,South Jordan Court West,74033,35.9524478,-96.0173274
14576,South Jordan Court West,74033,35.9515493,-96.0173128
14726,South Jordan Court West,74033,35.9498840,-96.0171892
14749,South Jordan Court West,74033,35.9486857,-96.0163714
617,West 148th Street South,74033,35.9488742,-96.0152809
53,West 148th Street South,74033,35.9521698,-96.0095304
816,West 148th Street South,74033,35.9484726,-96.0190903
557,West 148th Street South,74033,35.9488726,-96.0146267
760,West 148th Street South,74033,35.9484638,-96.0175983
469,West 148th Street South,74033,35.9488707,-96.0137370
795,West 148th Street South,74033,35.9490005,-96.0186403
499,West 148th Street South,74033,35.9488713,-96.0139536
840,West 148th Street South,74033,35.9484680,-96.0198421
770,West 148th Street South,74033,35.9484684,-96.0178353
830,West 148th Street South,74033,35.9484703,-96.0196074
77,West 148th Street South,74033,35.9521673,-96.0096983
605,West 148th Street South,74033,35.9488746,-96.0150601
720,West 148th Street South,74033,35.9484164,-96.0165941
761,West 148th Street South,74033,35.9489320,-96.0175047
781,West 148th Street South,74033,35.9489754,-96.0179745
811,West 148th Street South,74033,35.9489363,-96.0192059
627,West 148th Street South,74033,35.9488747,-96.0154981
515,West 148th Street South,74033,35.9488717,-96.0141753
31,West 148th Street South,74033,35.9521701,-96.0093195
740,West 148th Street South,74033,35.9484622,-96.0171253
831,West 148th Street South,74033,35.9489360,-96.0197820
597,West 148th Street South,74033,35.9488740,-96.0148436
730,West 148th Street South,74033,35.9484556,-96.0168919
750,West 148th Street South,74033,35.9484630,-96.0173618
459,West 148th Street South,74033,35.9488703,-96.0135197
28,West 148th Street South,74033,35.9516456,-96.0091418
850,West 148th Street South,74033,35.9484292,-96.0201533
791,West 148th Street South,74033,35.9490071,-96.0182424
81,West 148th Street South,74033,35.9521490,-96.0099060
741,West 148th Street South,74033,35.9489336,-96.0170093
751,West 148th Street South,74033,35.9489305,-96.0172670
537,West 148th Street South,74033,35.9488724,-96.0144004
771,West 148th Street South,74033,35.9489385,-96.0177405
821,West 148th Street South,74033,35.9489352,-96.0195117
171,West 148th Street South,74033,35.9522273,-96.0103993
820,West 148th Street South,74033,35.9484700,-96.0193706
706,West 145th Place South,74033,35.9525844,-96.0175676
733,West 145th Place South,74033,35.9526772,-96.0189124
712,West 145th Place South,74033,35.9526745,-96.0178109
701,West 145th Place South,74033,35.9529353,-96.0171479
713,West 145th Place South,74033,35.9531337,-96.0177731
725,West 145th Place South,74033,35.9529738,-96.0185620
741,West 145th Place South,74033,35.9523899,-96.0192284
601,West 145th Place South,74033,35.9528012,-96.0167502
720,West 145th Place South,74033,35.9526711,-96.0180661
730,West 145th Place South,74033,35.9523965,-96.0184417
705,West 145th Place South,74033,35.9530403,-96.0174285
717,West 145th Place South,74033,35.9531348,-96.0180856
721,West 145th Place South,74033,35.9530807,-96.0183290
745,West 145th Place South,74033,35.9522815,-96.0194058
591,West 145th Place South,74033,35.9527378,-96.0164927
581,West 145th Place South,74033,35.9525622,-96.0163359
737,West 145th Place South,74033,35.9525360,-96.0190730
736,West 145th Place South,74033,35.9522549,-96.0185994
729,West 145th Place South,74033,35.9528224,-96.0187520
840,West 145th Street South,74033,35.9533670,-96.0199683
14728,South Justin Avenue West,74033,35.9488140,-96.0202952
14709,South Justin Avenue West,74033,35.9497735,-96.0196688
14613,South Justin Avenue West,74033,35.9507352,-96.0197240
14727,South 26th Avenue West,74033,35.9500550,-96.0203263
14554,South Justin Avenue West,74033,35.9516309,-96.0202871
14550,South Justin Avenue West,74033,35.9518488,-96.0202784
14504,South Justin Avenue West,74033,35.9530801,-96.0203198
14713,South Justin Avenue West,74033,35.9495813,-96.0196973
14551,South Justin Avenue West,74033,35.9518938,-96.0197162
820,West 145th Street South,74033,35.9533793,-96.0194655
14716,South Justin Avenue West,74033,35.9493913,-96.0202893
14617,South Justin Avenue West,74033,35.9505424,-96.0197267
14625,South 26th Avenue West,74033,35.9504262,-96.0202914
14559,South Justin Avenue West,74033,35.9515044,-96.0197120
14601,South Justin Avenue West,74033,35.9513121,-96.0197121
14621,South Justin Avenue West,74033,35.9503505,-96.0197011
14721,South Justin Avenue West,74033,35.9491968,-96.0197142
14705,South Justin Avenue West,74033,35.9499658,-96.0196579
14701,South Justin Avenue West,74033,35.9501582,-96.0196698
14508,South Justin Avenue West,74033,35.9528910,-96.0202865
14560,South Justin Avenue West,74033,35.9514386,-96.0202872
810,West 145th Street South,74033,35.9533083,-96.0192276
14500,South Justin Avenue West,74033,35.9533443,-96.0202898
14608,South Justin Avenue West,74033,35.9508618,-96.0202893
14600,South Justin Avenue West,74033,35.9512463,-96.0202874
14609,South Justin Avenue West,74033,35.9509276,-96.0197166
14605,South Justin Avenue West,74033,35.9511199,-96.0197126
14555,South Justin Avenue West,74033,35.9516967,-96.0197118
14612,South Justin Avenue West,74033,35.9506570,-96.0202932
14720,South Justin Avenue West,74033,35.9491990,-96.0202899
14717,South Justin Avenue West,74033,35.9493891,-96.0197138
14732,South Justin Avenue West,74033,35.9485895,-96.0203242
14604,South Justin Avenue West,74033,35.9510540,-96.0202875
14724,South Justin Avenue West,74033,35.9490067,-96.0202903
830,West 145th Street South,74033,35.9533394,-96.0197351
702,East 147th Street South,74033,35.9512445,-95.9961914
515,East 147th Street South,74033,35.9517329,-95.9982262
14771,South Glenn Street East,74033,35.9494260,-96.0009644
668,East 147th Street South,74033,35.9512445,-95.9966476
478,East 147th Street South,74033,35.9512575,-95.9986282
14792,South Glenn Street East,74033,35.9494441,-96.0015787
862,East 147th Street South,74033,35.9512447,-95.9946305
14796,South Glenn Street East,74033,35.9490556,-96.0016351
791,East 147th Street South,74033,35.9517332,-95.9951043
482,East 147th Street South,74033,35.9512865,-95.9983875
14724,East 147th Street South,74033,35.9509529,-96.0003212
14734,South Glenn Street East,74033,35.9508102,-96.0004532
763,East 147th Street South,74033,35.9517332,-95.9953273
873,East 147th Street South,74033,35.9517333,-95.9944117
686,East 147th Street South,74033,35.9512445,-95.9964110
14702,South Glenn Street East,74033,35.9512851,-95.9999746
931,East 147th Street South,74033,35.9517333,-95.9941853
14767,South Glenn Street East,74033,35.9496057,-96.0008487
14798,South Glenn Street East,74033,35.9488311,-96.0016321
425,East 147th Street South,74033,35.9515266,-95.9996221
502,East 147th Street South,74033,35.9512877,-95.9981795
14710,South Glenn Street East,74033,35.9511540,-96.0001507
14794,South Glenn Street East,74033,35.9492518,-96.0016233
631,East 147th Street South,74033,35.9517331,-95.9971112
14742,South Glenn Street East,74033,35.9506675,-96.0005852
551,East 147th Street South,74033,35.9517330,-95.9980032
650,East 147th Street South,74033,35.9512444,-95.9970699
776,East 147th Street South,74033,35.9512446,-95.9950934
14755,South Glenn Street East,74033,35.9498999,-96.0005763
663,East 147th Street South,74033,35.9517331,-95.9968882
14779,South Glenn Street East,74033,35.9490377,-96.0010688
577,East 147th Street South,74033,35.9517330,-95.9977802
751,East 147th Street South,74033,35.9517332,-95.9955503
538,East 147th Street South,74033,35.9512443,-95.9979652
952,East 147th Street South,74033,35.9512816,-95.9941782
14765,South Glenn Street East,74033,35.9497572,-96.0007082
14784,South Glenn Street East,74033,35.9499526,-96.0012429
416,East 147th Street South,74033,35.9508651,-95.9996514
617,East 147th Street South,74033,35.9517330,-95.9973342
14747,South Glenn Street East,74033,35.9501854,-96.0003123
14751,South Glenn Street East,74033,35.9500427,-96.0004443
402,East 147th Street South,74033,35.9506488,-95.9998839
596,East 147th Street South,74033,35.9512443,-95.9975260
447,East 147th Street South,74033,35.9517321,-95.9986725
14787,South Glenn Street East,74033,35.9486715,-96.0010665
439,East 147th Street South,74033,35.9516721,-95.9991211
14775,South Glenn Street East,74033,35.9492335,-96.0010387
735,East 147th Street South,74033,35.9517331,-95.9962192
758,East 147th Street South,74033,35.9512446,-95.9953130
817,East 147th Street South,74033,35.9517333,-95.9946347
626,East 147th Street South,74033,35.9512444,-95.9973064
431,East 147th Street South,74033,35.9516431,-95.9993509
846,East 147th Street South,74033,35.9512446,-95.9948620
746,East 147th Street South,74033,35.9512446,-95.9955326
14790,South Glenn Street East,74033,35.9496274,-96.0014955
14743,South Glenn Street East,74033,35.9503501,-96.0001601
747,East 147th Street South,74033,35.9517332,-95.9957733
14788,South Glenn Street East,74033,35.9497995,-96.0013806
14772,South Glenn Street East,74033,35.9500966,-96.0011130
501,East 147th Street South,74033,35.9517329,-95.9984491
452,East 147th Street South,74033,35.9511113,-95.9993121
14793,South Glenn Street East,74033,35.9484655,-96.0010668
468,East 147th Street South,74033,35.9511930,-95.9990932
681,East 147th Street South,74033,35.9517331,-95.9966652
550,East 147th Street South,74033,35.9512443,-95.9977456
593,East 147th Street South,74033,35.9517330,-95.9975572
888,East 147th Street South,74033,35.9512447,-95.9944109
14781,South Glenn Street East,74033,35.9488501,-96.0010663
732,East 147th Street South,74033,35.9512445,-95.9957522
801,East 147th Street South,74033,35.9517332,-95.9948695
14756,South Glenn Street East,74033,35.9505247,-96.0007171
14768,South Glenn Street East,74033,35.9502393,-96.0009810
718,East 147th Street South,74033,35.9512445,-95.9959718
441,East 147th Street South,74033,35.9517165,-95.9988948
743,East 147th Street South,74033,35.9517332,-95.9959963
14762,South Glenn Street East,74033,35.9503820,-96.0008491
436,East 147th Street South,74033,35.9510255,-95.9995007
693,East 147th Street South,74033,35.9517331,-95.9964422
472,East 147th Street South,74033,35.9512426,-95.9988632
14784,South Fern Place East,74033,35.9487341,-96.0024832
14705,South Fern Place East,74033,35.9513146,-96.0004137
14788,South Fern Place East,74033,35.9485635,-96.0023053
14768,South Fern Place East,74033,35.9494805,-96.0025434
14741,South Fern Place East,74033,35.9504202,-96.0012782
14763,South Fern Place East,74033,35.9496561,-96.0019131
14721,South Fern Place East,74033,35.9511340,-96.0006186
14716,South Fern Place East,74033,35.9516078,-96.0008709
14720,South Fern Place East,74033,35.9513937,-96.0010543
14708,South Fern Place East,74033,35.9517463,-96.0003976
14780,South Fern Place East,74033,35.9489634,-96.0025292
14798,South Fern Place East,74033,35.9484165,-96.0016001
14775,South Fern Place East,74033,35.9492740,-96.0020057
14792,South Fern Place East,74033,35.9484694,-96.0020861
14759,South Fern Place East,74033,35.9498344,-96.0018060
14728,South Fern Place East,74033,35.9510956,-96.0013296
14724,South Fern Place East,74033,35.9512444,-96.0011921
14712,South Fern Place East,74033,35.9517366,-96.0006659
14729,South Fern Place East,74033,35.9508485,-96.0008824
14737,South Fern Place East,74033,35.9505630,-96.0011463
14700,South Fern Place East,74033,35.9517344,-95.9998733
14755,South Fern Place East,74033,35.9499886,-96.0016706
14745,South Fern Place East,74033,35.9502775,-96.0014101
14772,South Fern Place East,74033,35.9492902,-96.0025510
14704,South Fern Place East,74033,35.9517491,-96.0001401
14740,South Fern Place East,74033,35.9505977,-96.0017896
14756,South Fern Place East,74033,35.9500113,-96.0023272
14769,South Fern Place East,74033,35.9494670,-96.0019805
14752,South Fern Place East,74033,35.9501666,-96.0021923
14736,South Fern Place East,74033,35.9507461,-96.0016525
14733,South Fern Place East,74033,35.9507057,-96.0010143
14732,South Fern Place East,74033,35.9509208,-96.0014911
14795,South Fern Place East,74033,35.9489266,-96.0019485
14744,South Fern Place East,74033,35.9504547,-96.0019217
14748,South Fern Place East,74033,35.9503116,-96.0020538
14776,South Fern Place East,74033,35.9491047,-96.0025477
14796,South Fern Place East,74033,35.9484163,-96.0018518
14749,South Fern Place East,74033,35.9501334,-96.0015406
14785,South Fern Place East,74033,35.9490883,-96.0020028
14764,South Fern Place East,74033,35.9496743,-96.0025229
14760,South Fern Place East,74033,35.9498526,-96.0023927
14725,South Fern Place East,74033,35.9509913,-96.0007505
14754,South Hickory Street East,74033,35.9494111,-96.0005620
14729,South Hickory Street East,74033,35.9495841,-95.9997279
14703,South Hickory Circle East,74033,35.9506441,-95.9985310
852,East 149th Street South,74033,35.9466312,-95.9955439
707,East 148th Place South,74033,35.9479661,-95.9971043
810,East 148th Place South,74033,35.9474772,-95.9959208
14861,South Eucalyptus Street East,74033,35.9480162,-95.9942464
471,East 147th Circle South,74033,35.9493692,-95.9993829
846,East 148th Place South,74033,35.9474789,-95.9956976
14868,South Sequoia Street East,74033,35.9480131,-95.9980906
610,East 149th Street South,74033,35.9466327,-95.9982150
14727,South Hickory Place East,74033,35.9500114,-95.9987630
960,East 149th Street South,74033,35.9466306,-95.9944459
813,East 148th Place South,74033,35.9479643,-95.9958969
731,East 148th Place South,74033,35.9479657,-95.9968779
903,East 148th Place South,74033,35.9479630,-95.9949789
14734,South Hickory Street East,74033,35.9498584,-96.0001502
778,East 148th Place South,74033,35.9474784,-95.9964076
14718,South Hickory Circle East,74033,35.9506778,-95.9993911
14723,South Hickory Place East,74033,35.9501257,-95.9989631
14755,South Hickory Place East,74033,35.9494577,-95.9984928
14728,South Hickory Street East,74033,35.9500012,-96.0000183
14650,South Elwood Avenue West,74033,35.9499276,-95.9945211
14882,South Sequoia Street East,74033,35.9477986,-95.9980930
14806,South Sequoia Street East,74033,35.9489113,-95.9980823
880,East 148th Place South,74033,35.9474776,-95.9952367
688,East 148th Place South,74033,35.9474837,-95.9973411
885,East 148th Place South,74033,35.9479633,-95.9952072
14720,South Hickory Circle East,74033,35.9504675,-95.9995873
689,East 149th Street South,74033,35.9471271,-95.9973427
732,East 149th Street South,74033,35.9466320,-95.9968615
710,East 148th Place South,74033,35.9474830,-95.9971072
663,East 148th Place South,74033,35.9479676,-95.9975699
753,East 148th Place South,74033,35.9479654,-95.9966516
14780,South Hickory Street East,74033,35.9486718,-96.0006950
14721,South Hickory Street East,74033,35.9499047,-95.9994313
791,East 148th Place South,74033,35.9479647,-95.9961798
754,East 149th Street South,74033,35.9466319,-95.9966419
711,East 149th Street South,74033,35.9471266,-95.9971088
14191,South Eucalyptus Street East,74033,35.9472445,-95.9942541
14745,South Hickory Place East,74033,35.9496632,-95.9984973
847,East 149th Street South,74033,35.9471239,-95.9956992
865,East 149th Street South,74033,35.9471235,-95.9954721
988,East 149th Street South,74033,35.9466268,-95.9941931
14910,South Sequoia Street East,74033,35.9474298,-95.9980969
902,East 148th Place South,74033,35.9474769,-95.9950025
808,East 149th Street South,74033,35.9466315,-95.9959831
14735,South Hickory Street East,74033,35.9494326,-95.9998679
455,East 148th Street South,74033,35.9485008,-95.9998506
755,East 149th Street South,74033,35.9471257,-95.9966410
14881,South Eucalyptus Street East,74033,35.9477939,-95.9942487
14708,South Hickory Circle East,74033,35.9509194,-95.9989667
14897,South Eucalyptus Street East,74033,35.9476016,-95.9942506
14780,South Hickory Place East,74033,35.9486838,-95.9990411
472,East 147th Circle South,74033,35.9488327,-95.9994100
881,East 149th Street South,74033,35.9471230,-95.9952383
730,East 148th Place South,74033,35.9474823,-95.9968733
14801,South Elwood Avenue West,74033,35.9458287,-95.9943319
461,East 147th Circle South,74033,35.9492132,-95.9995931
870,East 149th Street South,74033,35.9466311,-95.9953243
14934,South Sequoia Street East,74033,35.9470516,-95.9981020
14704,South Hickory Circle East,74033,35.9508785,-95.9987188
14798,South Hickory Street East,74033,35.9484658,-96.0006953
14832,South Sequoia Street East,74033,35.9485401,-95.9980852
14795,South Hickory Place East,74033,35.9483325,-95.9985010
892,East 149th Street South,74033,35.9466310,-95.9951047
690,East 149th Street South,74033,35.9466323,-95.9973082
14909,South Eucalyptus Street East,74033,35.9474231,-95.9942524
670,East 149th Street South,74033,35.9466324,-95.9975395
14760,South Hickory Street East,74033,35.9492335,-96.0006584
14724,South Hickory Street East,74033,35.9501659,-95.9998660
776,East 149th Street South,74033,35.9466317,-95.9964223
868,East 148th Place South,74033,35.9474783,-95.9954705
14735,South Hickory Place East,74033,35.9498595,-95.9985658
14709,South Hickory Circle East,74033,35.9503905,-95.9986899
14820,South Sequoia Street East,74033,35.9487186,-95.9980833
14765,South Hickory Place East,74033,35.9489206,-95.9984995
14770,South Hickory Place East,74033,35.9488978,-95.9990355
932,East 149th Street South,74033,35.9466307,-95.9946655
668,East 148th Place South,74033,35.9474830,-95.9975815
14779,South Hickory Place East,74033,35.9487335,-95.9985000
14730,South Hickory Place East,74033,35.9497212,-95.9991899
14775,South Hickory Street East,74033,35.9488673,-96.0001544
14896,South Sequoia Street East,74033,35.9476138,-95.9980950
14844,South Sequoia Street East,74033,35.9483614,-95.9980872
14766,South Hickory Street East,74033,35.9490383,-96.0006983
14740,South Hickory Street East,74033,35.9497157,-96.0002821
14770,South Hickory Street East,74033,35.9488504,-96.0006948
901,East 149th Street South,74033,35.9471226,-95.9950041
14740,South Hickory Place East,74033,35.9495165,-95.9990432
465,East 148th Street South,74033,35.9485009,-95.9995979
921,East 149th Street South,74033,35.9471234,-95.9947622
794,East 148th Place South,74033,35.9474653,-95.9961804
923,East 148th Place South,74033,35.9479634,-95.9947446
630,East 149th Street South,74033,35.9466326,-95.9979956
14750,South Hickory Place East,74033,35.9492762,-95.9990389
14933,South Eucalyptus Street East,74033,35.9470498,-95.9942551
729,East 149th Street South,74033,35.9471262,-95.9968749
849,East 148th Place South,74033,35.9479640,-95.9956653
756,East 148th Place South,74033,35.9474816,-95.9966395
777,East 149th Street South,74033,35.9471277,-95.9964091
667,East 149th Street South,74033,35.9471279,-95.9975855
14789,South Hickory Place East,74033,35.9485550,-95.9985004
687,East 148th Place South,74033,35.9479664,-95.9973307
910,East 149th Street South,74033,35.9466308,-95.9948851
834,East 149th Street South,74033,35.9466314,-95.9957635
922,East 148th Place South,74033,35.9474758,-95.9947587
14765,South Hickory Street East,74033,35.9490880,-96.0001454
475,East 148th Street South,74033,35.9485011,-95.9993454
775,East 148th Place South,74033,35.9479651,-95.9964251
14785,South Hickory Street East,74033,35.9486778,-96.0001545
14715,South Hickory Circle East,74033,35.9502495,-95.9991660
14725,South Hickory Street East,74033,35.9497356,-95.9995878
14920,South Sequoia Street East,74033,35.9472457,-95.9980989
796,East 149th Street South,74033,35.9466316,-95.9962027
811,East 149th Street South,74033,35.9471259,-95.9959227
14745,South Hickory Street East,74033,35.9492709,-96.0000019
14795,South Hickory Street East,74033,35.9484662,-96.0001548
14759,South Hickory Place East,74033,35.9492574,-95.9984989
14790,South Hickory Place East,74033,35.9484668,-95.9990414
712,East 149th Street South,74033,35.9466321,-95.9970811
14712,South Hickory Circle East,74033,35.9508110,-95.9992086
795,East 149th Street South,74033,35.9471393,-95.9961817
650,East 149th Street South,74033,35.9466325,-95.9977676
871,East 148th Place South,74033,35.9479636,-95.9954360
14744,South Hickory Street East,74033,35.9495664,-96.0004213
12205,South 33rd Avenue West,74033,35.9861517,-96.0292069
494,West 146th Place South,74033,35.9506699,-96.0138569
463,West 147th Street South,74033,35.9503323,-96.0136426
612,West 146th Place South,74033,35.9506741,-96.0152234
511,West 147th Street South,74033,35.9503327,-96.0141026
450,West 146th Place South,74033,35.9506690,-96.0134030
551,West 147th Street South,74033,35.9503331,-96.0145584
604,West 147th Street South,74033,35.9499490,-96.0150544
534,West 146th Place South,74033,35.9506717,-96.0143148
456,West 147th Street South,74033,35.9499474,-96.0135143
611,West 147th Street South,74033,35.9503710,-96.0152295
514,West 147th Street South,74033,35.9499483,-96.0141644
512,West 146th Place South,74033,35.9506712,-96.0140865
536,West 147th Street South,74033,35.9499481,-96.0143891
554,West 147th Street South,74033,35.9499489,-96.0146147
14745,South Yukon Avenue West,74033,35.9496225,-96.0155233
614,West 147th Street South,74033,35.9499497,-96.0152689
624,West 146th Place South,74033,35.9506750,-96.0154632
552,West 146th Place South,74033,35.9506722,-96.0145413
594,West 146th Place South,74033,35.9506734,-96.0147725
623,West 147th Street South,74033,35.9503715,-96.0154707
496,West 147th Street South,74033,35.9499481,-96.0139454
601,West 147th Street South,74033,35.9503711,-96.0150055
596,West 147th Street South,74033,35.9499488,-96.0148360
462,West 146th Place South,74033,35.9506701,-96.0136292
533,West 147th Street South,74033,35.9503329,-96.0143307
593,West 147th Street South,74033,35.9503340,-96.0147890
495,West 147th Street South,74033,35.9503318,-96.0138712
626,West 147th Street South,74033,35.9499499,-96.0154818
451,West 147th Street South,74033,35.9503315,-96.0134174
602,West 146th Place South,74033,35.9506739,-96.0149996
466,West 147th Street South,74033,35.9499474,-96.0137298
14618,South Waco Avenue West,74033,35.9516171,-96.0140314
14634,South Xenophon Avenue West,74033,35.9512501,-96.0149389
14641,South Waco Avenue West,74033,35.9510700,-96.0134434
14688,South Yukon Avenue West,74033,35.9503192,-96.0159487
14614,South Xenophon Avenue West,74033,35.9516230,-96.0150258
14645,South Xenophon Avenue West,74033,35.9510979,-96.0144634
14636,South Vancouver Avenue West,74033,35.9514266,-96.0129488
14626,South Vancouver Avenue West,74033,35.9516089,-96.0129442
14602,South Xenophon Avenue West,74033,35.9518153,-96.0149302
14629,South Waco Avenue West,74033,35.9514268,-96.0134610
14618,South Vancouver Avenue West,74033,35.9518011,-96.0129451
14627,South Yukon Avenue West,74033,35.9514413,-96.0154422
14636,South Waco Avenue West,74033,35.9512352,-96.0139498
14628,South Xenophon Avenue West,74033,35.9514305,-96.0149753
14616,South Yukon Avenue West,74033,35.9515956,-96.0159272
14748,South Yukon Avenue West,74033,35.9495945,-96.0159489
14635,South Yukon Avenue West,74033,35.9512576,-96.0154441
14724,South Yukon Avenue West,74033,35.9497639,-96.0159525
14601,South Yukon Avenue West,74033,35.9518180,-96.0154390
14784,South Yukon Avenue West,74033,35.9490331,-96.0159221
14625,South Xenophon Avenue West,74033,35.9514504,-96.0144395
14631,South Waco Avenue West,74033,35.9512689,-96.0134446
14768,South Yukon Avenue West,74033,35.9492072,-96.0159108
14611,South Xenophon Avenue West,74033,35.9516221,-96.0143440
609,West 146th Place South,74033,35.9510519,-96.0159441
14600,South Waco Avenue West,74033,35.9518118,-96.0139375
14792,South Yukon Avenue West,74033,35.9488383,-96.0159108
14633,South Xenophon Avenue West,74033,35.9512621,-96.0144642
14624,South Yukon Avenue West,74033,35.9514170,-96.0159429
14762,South Yukon Avenue West,74033,35.9493877,-96.0159455
14615,South Waco Avenue West,74033,35.9516221,-96.0133941
14642,South Yukon Avenue West,74033,35.9507056,-96.0159468
14666,South Yukon Avenue West,74033,35.9505007,-96.0159486
14607,South Waco Avenue West,74033,35.9518116,-96.0134474
14626,South Waco Avenue West,74033,35.9514251,-96.0139835
14716,South Yukon Avenue West,74033,35.9499496,-96.0159519
14603,South Xenophon Avenue West,74033,35.9518221,-96.0144785
14619,South Yukon Avenue West,74033,35.9516258,-96.0154410
14648,South Vancouver Avenue West,74033,35.9512449,-96.0129490
14638,South Yukon Avenue West,74033,35.9512418,-96.0159426
14648,South Xenophon Avenue West,74033,35.9510558,-96.0149403
14702,South Yukon Avenue West,74033,35.9501360,-96.0159517
14646,South Waco Avenue West,74033,35.9510473,-96.0139317
14643,South Yukon Avenue West,74033,35.9510622,-96.0154456
12174,South Waco Avenue West,74033,35.9854697,-96.0168021
12100,South Glen Court East,74037,35.9871730,-96.0024905
12208,South Glen Court East,74037,35.9860359,-96.0024820
12233,South Glen Court East,74037,35.9853192,-96.0020082
12217,South Glen Court East,74037,35.9857587,-96.0020094
12124,South Glen Court East,74037,35.9865873,-96.0024966
12101,South Glen Court East,74037,35.9870761,-96.0020109
12125,South Glen Court East,74037,35.9864180,-96.0020112
12241,South Glen Court East,74037,35.9851034,-96.0019972
12108,South Glen Court East,74037,35.9869788,-96.0024977
12216,South Glen Court East,74037,35.9858458,-96.0024814
12257,South Glen Court East,74037,35.9847196,-96.0021308
12224,South Glen Court East,74037,35.9856031,-96.0024917
12200,South Glen Court East,74037,35.9862263,-96.0024804
12249,South Glen Court East,74037,35.9848401,-96.0019696
12201,South Glen Court East,74037,35.9861982,-96.0020106
12109,South Glen Court East,74037,35.9868576,-96.0020124
12209,South Glen Court East,74037,35.9859785,-96.0020100
830,West 121st Street South,74037,35.9880143,-96.0006647
12264,South Glen Court East,74037,35.9848353,-96.0024382
12116,South Glen Court East,74037,35.9867865,-96.0024971
12232,South Glen Court East,74037,35.9853992,-96.0024955
12117,South Glen Court East,74037,35.9866378,-96.0020118
870,West 121st Street South,74037,35.9880347,-96.0013418
12225,South Glen Court East,74037,35.9855389,-96.0020088
12248,South Glen Court East,74037,35.9851851,-96.0025005
900,West 121st Street South,74037,35.9855099,-96.0012477
890,West 121st Street South,74033,35.9870370,-96.0013693
780,West 121st Street South,74037,35.9876612,-95.9975113
770,West 121st Street South,74037,35.9874753,-95.9962760
702,West 121st Street South,74037,35.9877155,-95.9986150
1391,West 126th Street South,74037,35.9811975,-96.0064658
920,West 121st Street South,74037,35.9877986,-96.0025037
1333,West 126th Street South,74037,35.9811042,-96.0055900
1207,West 126th Street South,74037,35.9814682,-96.0043158
1011,West 126th Street South,74037,35.9812010,-96.0031665
655,West 126th Street South,74037,35.9818996,-95.9988814
550,West 125th Place South,74033,35.9814938,-96.0137906
502,West 125th Place South,74033,35.9821931,-96.0129197
12590,South Waco Avenue West,74037,35.9814057,-96.0128721
1605,West 126th Street South,74037,35.9810688,-96.0104319
940,West 121st Street South,74037,35.9869729,-96.0029494
930,West 121st Street South,74037,35.9877228,-96.0030136
1012,West 121st Street South,74037,35.9876073,-96.0043701
1010,West 121st Street South,74037,35.9879808,-96.0036601
12345,South Elm Avenue West,74037,35.9861003,-96.0029916
2006,West 126th Street South,74033,35.9805862,-96.0153310
641,East 133rd Place South,74033,35.9699018,-96.0001539
640,East 133rd Place South,74033,35.9695104,-96.0002561
839,West 126th Street South,74037,35.9824339,-95.9953890
698,East 133rd Place South,74033,35.9695634,-95.9984584
13494,South Fern Street East,74033,35.9682157,-96.0025505
603,East 133rd Place South,74033,35.9699029,-96.0008546
583,East 133rd Place South,74033,35.9699018,-96.0013212
541,East 133rd Place South,74033,35.9699010,-96.0020334
623,East 133rd Place South,74033,35.9699030,-96.0003902
13743,South Fern Street East,74033,35.9641803,-96.0024663
13341,South Hickory Place East,74033,35.9699046,-95.9988368
13362,South Fern Street East,74033,35.9696184,-96.0025121
12800,South Elwood Avenue West,74037,35.9784285,-95.9975676
678,West 126th Street South,74037,35.9806026,-95.9973517
13617,South Fern Street East,74033,35.9661170,-96.0024702
590,East 133rd Place South,74033,35.9695098,-96.0011502
680,East 133rd Place South,74033,35.9695102,-95.9993688
13490,South Fern Street East,74033,35.9685739,-96.0025490
13498,South Fern Street East,74033,35.9680364,-96.0025517
610,East 133rd Place South,74033,35.9695098,-96.0007023
13486,South Fern Street East,74033,35.9687536,-96.0025489
13542,South Fern Street East,74033,35.9674979,-96.0025540
619,West 126th Street South,74037,35.9815627,-95.9980229
13607,South Fern Street East,74033,35.9663092,-96.0024794
13482,South Fern Street East,74033,35.9689323,-96.0025469
13522,South Fern Street East,74033,35.9676764,-96.0025526
431,West 131st Street South,74037,35.9744823,-95.9953720
671,West 126th Street South,74037,35.9827650,-95.9972648
661,East 133rd Place South,74033,35.9699032,-95.9996924
13623,South Fern Street East,74033,35.9659299,-96.0024622
13631,South Fern Street East,74033,35.9657462,-96.0024701
672,East 133rd Place South,74033,35.9695103,-95.9995934
673,East 133rd Place South,74033,35.9699032,-95.9994582
909,West 131st Street South,74037,35.9752372,-95.9967729
12916,South Elwood Avenue West,74037,35.9766521,-95.9947189
602,East 133rd Place South,74033,35.9695103,-96.0009294
13601,South Fern Street East,74033,35.9665529,-96.0023543
552,East 133rd Place South,74033,35.9695097,-96.0018194
810,West 126th Street South,74037,35.9812985,-95.9956497
560,East 133rd Place South,74033,35.9695099,-96.0015959
680,West 131st Street South,74033,35.9732143,-95.9976367
13220,South Elwood Avenue West,74033,35.9716444,-95.9946576
660,East 133rd Place South,74033,35.9695102,-95.9998140
615,West 126th Street South,74037,35.9839300,-95.9977198
13673,South Fern Street East,74033,35.9651361,-96.0024110
687,East 133rd Place South,74033,35.9699032,-95.9992236
591,East 135th Street South,74033,35.9677245,-96.0011482
558,East 135th Place South,74033,35.9666120,-96.0016996
603,East 135th Place South,74033,35.9670156,-96.0009293
660,East 135th Street South,74033,35.9673355,-95.9998193
658,East 135th Place South,74033,35.9666136,-95.9999386
680,East 135th Street South,74033,35.9673357,-95.9993737
673,East 135th Street South,74033,35.9677221,-95.9995910
640,East 135th Street South,74033,35.9673356,-96.0002654
561,East 135th Street South,74033,35.9677255,-96.0015995
538,East 135th Place South,74033,35.9666185,-96.0021391
652,East 135th Street South,74033,35.9673353,-96.0000401
553,East 135th Street South,74033,35.9677260,-96.0018225
561,East 135th Place South,74033,35.9670154,-96.0016037
648,East 135th Place South,74033,35.9666143,-96.0001591
693,East 135th Place South,74033,35.9669965,-95.9991808
661,East 135th Street South,74033,35.9677225,-95.9998115
608,East 135th Place South,74033,35.9666124,-96.0008172
548,East 135th Place South,74033,35.9666108,-96.0019187
641,East 135th Street South,74033,35.9677228,-96.0002571
653,East 135th Place South,74033,35.9670153,-96.0000358
672,East 135th Street South,74033,35.9673357,-95.9995981
641,East 135th Place South,74033,35.9670156,-96.0002617
681,East 135th Place South,74033,35.9670156,-95.9993675
728,East 135th Place South,74033,35.9666355,-95.9984092
696,East 135th Street South,74033,35.9673353,-95.9989238
678,East 135th Place South,74033,35.9666145,-95.9994982
611,East 135th Street South,74033,35.9677236,-96.0007028
688,East 135th Place South,74033,35.9666164,-95.9992720
583,East 135th Place South,74033,35.9670156,-96.0013784
611,East 135th Place South,74033,35.9670155,-96.0007060
668,East 135th Place South,74033,35.9666143,-95.9997210
583,East 135th Street South,74033,35.9677249,-96.0013757
603,East 135th Street South,74033,35.9677247,-96.0009260
588,East 135th Place South,74033,35.9666123,-96.0012583
622,East 135th Street South,74033,35.9673355,-96.0004857
602,East 135th Street South,74033,35.9673355,-96.0009339
708,East 135th Place South,74033,35.9666166,-95.9988326
692,East 135th Street South,74033,35.9673363,-95.9991497
598,East 135th Place South,74033,35.9666125,-96.0010358
698,East 135th Place South,74033,35.9666145,-95.9990511
591,East 135th Place South,74033,35.9670152,-96.0011501
718,East 135th Place South,74033,35.9666159,-95.9986070
623,East 135th Street South,74033,35.9677241,-96.0004794
560,East 135th Street South,74033,35.9673351,-96.0016068
618,East 135th Place South,74033,35.9666134,-96.0005990
552,East 135th Street South,74033,35.9673353,-96.0018305
582,East 135th Street South,74033,35.9673354,-96.0013814
638,East 135th Place South,74033,35.9666143,-96.0003788
590,East 135th Street South,74033,35.9673350,-96.0011539
623,East 135th Place South,74033,35.9670155,-96.0004815
610,East 135th Street South,74033,35.9673354,-96.0007100
653,East 135th Street South,74033,35.9677231,-96.0000321
693,East 135th Street South,74033,35.9677215,-95.9991451
540,East 135th Street South,74033,35.9673352,-96.0020573
673,East 135th Place South,74033,35.9670156,-95.9995918
578,East 135th Place South,74033,35.9666122,-96.0014782
553,East 135th Place South,74033,35.9670156,-96.0018273
681,East 135th Street South,74033,35.9677214,-95.9993663
661,East 135th Place South,74033,35.9670155,-95.9998134
13515,South Fern Street East,74033,35.9677257,-96.0020489
13508,South Hickory Place East,74033,35.9677210,-95.9989228
553,East 133rd Place South,74033,35.9699013,-96.0017886
13180,South Elwood Avenue West,74033,35.9725796,-95.9942581
729,East 133rd Place South,74033,35.9699061,-95.9983843
622,East 133rd Place South,74033,35.9695102,-96.0004784
591,East 133rd Place South,74033,35.9699010,-96.0010892
13361,South Fern Street East,74033,35.9695098,-96.0020461
12932,South Elwood Avenue West,74037,35.9752944,-95.9945753
13562,South Fern Street East,74033,35.9673171,-96.0025535
12510,South Elwood Avenue West,74037,35.9824840,-95.9944367
540,West 131st Street South,74037,35.9732287,-95.9963905
706,West 131st Street South,74033,35.9732528,-95.9986901
13819,South Fern Street East,74033,35.9634577,-96.0024865
582,East 133rd Place South,74033,35.9695097,-96.0013710
13342,South Fern Street East,74033,35.9699815,-96.0025436
692,East 133rd Place South,74033,35.9695098,-95.9991508
13803,South Fern Street East,74033,35.9636175,-96.0024755
665,West 126th Street South,74037,35.9814859,-95.9973669
653,East 133rd Place South,74033,35.9699024,-95.9999218
719,East 133rd Place South,74033,35.9699064,-95.9986109
13729,South Fern Street East,74033,35.9645540,-96.0024633
12900,South Elwood Avenue West,74037,35.9775786,-95.9947639
13372,South Hickory Place East,74033,35.9695106,-95.9989310
13761,South Fern Street East,74033,35.9640062,-96.0024620
1110,West 131st Street South,74037,35.9732839,-96.0008919
13584,South Fern Street East,74033,35.9669503,-96.0026027
13735,South Fern Street East,74033,35.9643716,-96.0024743
13472,South Fern Street East,74033,35.9692928,-96.0025476
652,East 133rd Place South,74033,35.9695099,-96.0000331
611,East 133rd Place South,74033,35.9699020,-96.0006217
13502,South Fern Street East,74033,35.9678563,-96.0025518
561,East 133rd Place South,74033,35.9699019,-96.0015537
13574,South Fern Street East,74033,35.9671437,-96.0025553
911,West 126th Street South,74037,35.9814199,-95.9963110
13492,South Fern Street East,74033,35.9683956,-96.0025503
12600,South Elwood Avenue West,74037,35.9814093,-95.9941951
13358,South Fern Street East,74033,35.9697992,-96.0025441
12520,South Elwood Avenue West,74037,35.9818820,-95.9941858
13769,South Fern Street East,74033,35.9638075,-96.0024751
13657,South Fern Street East,74033,35.9653346,-96.0024635
13474,South Fern Street East,74033,35.9691094,-96.0025471
959,West 126th Street South,74037,35.9813864,-95.9947291
13641,South Fern Street East,74033,35.9655300,-96.0024802
603,East 134th Street South,74033,35.9692509,-96.0009253
696,East 134th Street South,74033,35.9687964,-95.9989375
13491,South Hickory Place East,74033,35.9686253,-95.9984943
552,East 134th Place South,74033,35.9680583,-96.0018322
673,East 134th Place South,74033,35.9684410,-95.9995909
640,East 134th Place South,74033,35.9680558,-96.0002672
692,East 134th Place South,74033,35.9680551,-95.9991575
693,East 134th Place South,74033,35.9684405,-95.9991480
13487,South Fern Street East,74033,35.9687945,-96.0020574
723,East 135th Place South,74033,35.9669667,-95.9984672
672,East 134th Place South,74033,35.9680554,-95.9996004
560,East 134th Place South,74033,35.9680579,-96.0016081
653,East 134th Place South,74033,35.9684406,-96.0000325
13493,South Hickory Place East,74033,35.9684409,-95.9984937
590,East 134th Place South,74033,35.9680571,-96.0011595
673,East 134th Street South,74033,35.9691717,-95.9995979
13543,South Hickory Place East,74033,35.9675220,-95.9984705
552,East 134th Street South,74033,35.9687944,-96.0018309
13447,South Hickory Place East,74033,35.9693548,-95.9984814
652,East 134th Street South,74033,35.9687953,-96.0000418
13495,South Hickory Place East,74033,35.9682570,-95.9984921
680,East 134th Place South,74033,35.9680548,-95.9993777
680,East 134th Street South,74033,35.9687956,-95.9993796
896,West 137th Street South,74033,35.9653082,-96.0181883
776,West 137th Street South,74033,35.9650875,-96.0172745
772,West 137th Street South,74033,35.9650852,-96.0170778
853,West 137th Street South,74033,35.9655329,-96.0173984
809,West 137th Street South,74033,35.9655297,-96.0169933
831,West 137th Street South,74033,35.9655311,-96.0171972
830,West 137th Street South,74033,35.9650986,-96.0177367
808,West 137th Street South,74033,35.9650969,-96.0174499
852,West 137th Street South,74033,35.9651000,-96.0180434
919,West 137th Street South,74033,35.9655593,-96.0181584
768,West 137th Street South,74033,35.9650860,-96.0168303
897,West 137th Street South,74033,35.9655410,-96.0178658
875,West 137th Street South,74033,35.9655600,-96.0176238
777,West 137th Street South,74033,35.9655437,-96.0167987
661,East 134th Street South,74033,35.9691715,-95.9998184
13487,South Hickory Place East,74033,35.9688071,-95.9984952
13563,South Hickory Place East,74033,35.9673391,-95.9984697
653,East 134th Street South,74033,35.9691713,-96.0000386
583,East 134th Place South,74033,35.9684404,-96.0013760
561,East 134th Place South,74033,35.9684410,-96.0015972
660,East 134th Place South,74033,35.9680558,-95.9998208
622,East 134th Place South,74033,35.9680570,-96.0004897
661,East 134th Place South,74033,35.9684406,-95.9998118
602,East 134th Place South,74033,35.9680574,-96.0009369
641,East 134th Place South,74033,35.9684409,-96.0002547
641,East 134th Street South,74033,35.9691717,-96.0002616
611,East 134th Street South,74033,35.9692504,-96.0006989
591,East 134th Street South,74033,35.9692504,-96.0011451
561,East 134th Street South,74033,35.9691745,-96.0015911
623,East 134th Place South,74033,35.9684408,-96.0004767
13499,South Fern Street East,74033,35.9680579,-96.0020572
681,East 134th Street South,74033,35.9691716,-95.9993734
13492,South Hickory Place East,74033,35.9684411,-95.9989247
681,East 134th Place South,74033,35.9684406,-95.9993683
623,East 134th Street South,74033,35.9691628,-96.0004758
583,East 134th Street South,74033,35.9691743,-96.0013659
13483,South Hickory Place East,74033,35.9689873,-95.9984796
660,East 134th Street South,74033,35.9687954,-95.9998230
672,East 134th Street South,74033,35.9687960,-95.9996021
13523,South Hickory Place East,74033,35.9677069,-95.9984716
693,East 134th Street South,74033,35.9691713,-95.9991534
582,East 134th Place South,74033,35.9680574,-96.0013851
13475,South Hickory Place East,74033,35.9691704,-95.9984809
13503,South Hickory Place East,74033,35.9678901,-95.9984906
13493,South Fern Street East,74033,35.9684408,-96.0020469
652,East 134th Place South,74033,35.9680563,-96.0000429
560,East 134th Street South,74033,35.9687950,-96.0016079
541,East 134th Street South,74033,35.9691743,-96.0020418
553,East 134th Place South,74033,35.9684406,-96.0018199
610,East 134th Place South,74033,35.9680565,-96.0007136
13575,South Hickory Place East,74033,35.9671563,-95.9984691
13468,South Hickory Place East,74033,35.9691992,-95.9989265
692,East 134th Street South,74033,35.9687957,-95.9991613
13499,South Hickory Place East,74033,35.9680727,-95.9984920
553,East 134th Street South,74033,35.9691742,-96.0018148
640,East 134th Street South,74033,35.9687955,-96.0002633
13496,South Hickory Place East,74033,35.9680547,-95.9989344
828,West 136th Place South,74033,35.9658317,-96.0176949
1605,West 131st Street South,74037,35.9740626,-96.0103351
806,West 136th Place South,74033,35.9658384,-96.0174865
917,West 136th Place South,74033,35.9662519,-96.0182167
851,West 136th Place South,74033,35.9662773,-96.0173934
774,West 136th Place South,74033,35.9658277,-96.0172842
770,West 136th Place South,74033,35.9658325,-96.0170846
503,West 138th Street South,74033,35.9646669,-96.0135401
1097,West 131st Street South,74037,35.9740739,-96.0018835
827,West 136th Place South,74033,35.9662763,-96.0171904
1797,West 136th Street South,74033,35.9666470,-96.0150379
895,West 136th Place South,74033,35.9662986,-96.0178361
12905,South US 75 West,74037,35.9771543,-96.0101891
552,West 138th Street South,74033,35.9639806,-96.0137875
515,West 138th Street South,74033,35.9647684,-96.0141967
1077,West 131st Street South,74037,35.9745218,-96.0014907
13704,South Union Place West,74033,35.9651195,-96.0125925
13702,South Union Place West,74033,35.9653454,-96.0125912
13743,South US 75 West,74033,35.9654342,-96.0110798
850,West 136th Place South,74033,35.9658044,-96.0178248
873,West 136th Place South,74033,35.9662808,-96.0176137
13701,South US 75 West,74033,35.9652076,-96.0110621
773,West 136th Place South,74033,35.9662715,-96.0168772
13343,South Hickory Street East,74033,35.9705605,-95.9989871
654,West 138th Street South,74033,35.9640914,-96.0157709
805,West 136th Place South,74033,35.9662714,-96.0170285
13600,South Union Place West,74033,35.9662946,-96.0127770
766,West 136th Place South,74033,35.9658332,-96.0168772
643,West 138th Street South,74033,35.9647627,-96.0153874
13605,South Union Place West,74033,35.9657065,-96.0125678
13802,South Union Place West,74033,35.9640005,-96.0124698
872,West 136th Place South,74033,35.9658807,-96.0181390
13708,South Union Place West,74033,35.9644597,-96.0125265
820,West 126th Street South,74037,35.9805428,-96.0008049
601,East 142nd Street South,74033,35.9578066,-95.9999034
45,East 147th Street South,74033,35.9530958,-96.0081214
224,East 148th Street South,74033,35.9515968,-96.0062675
686,East 141st Place South,74033,35.9581790,-95.9994715
121,East 144th Place South,74033,35.9556226,-96.0072901
227,East 148th Street South,74033,35.9520966,-96.0062852
226,East 149th Street South,74033,35.9503881,-96.0051896
474,East 142nd Place South,74033,35.9564667,-96.0014819
614,East 141st Place South,74033,35.9581785,-95.9998119
1115,West 141st Street South,74033,35.9604013,-96.0226075
742,East 142nd Place South,74033,35.9565744,-95.9991389
657,East 143rd Street South,74033,35.9561496,-95.9996548
273,East 144th Place South,74033,35.9556597,-96.0059069
14425,South Elm Street East,74033,35.9562778,-96.0034857
720,East 141st Place South,74033,35.9582010,-95.9992641
35,East 148th Street South,74033,35.9520888,-96.0084719
96,East 149th Street South,74033,35.9504045,-96.0067165
1241,West 141st Street South,74033,35.9608595,-96.0253729
468,East 143rd Street South,74033,35.9557608,-96.0019175
14315,South Dogwood Street East,74033,35.9572851,-96.0044400
157,East 144th Place South,74033,35.9557002,-96.0070988
456,East 143rd Street South,74033,35.9557641,-96.0023353
748,East 142nd Street South,74033,35.9573359,-95.9991856
14345,South College Street East,74033,35.9569324,-96.0054219
186,East 147th Street South,74033,35.9525800,-96.0068025
14370,South College Street East,74033,35.9567701,-96.0059029
483,East 142nd Street South,74033,35.9575710,-96.0015060
14750,South Casper Street West,74033,35.9522267,-96.0110526
2801,West 141st Street South,74033,35.9615512,-96.0242255
14440,South Elm Street East,74033,35.9559620,-96.0039505
32,West 147th Street South,74033,35.9526083,-96.0091140
280,East 147th Street South,74033,35.9526930,-96.0058558
14367,South College Street East,74033,35.9567686,-96.0054220
766,East 142nd Street South,74033,35.9573343,-95.9991014
365,East 147th Street South,74033,35.9530806,-96.0049778
14424,South Dogwood Street East,74033,35.9562671,-96.0049240
14769,South Birch Street East,74033,35.9522398,-96.0072948
681,East 143rd Street South,74033,35.9561496,-95.9994807
701,East 142nd Street South,74033,35.9577781,-95.9993495
14447,South College Street East,74033,35.9559581,-96.0054172
458,East 142nd Place South,74033,35.9564653,-96.0022798
461,East 142nd Place South,74033,35.9568513,-96.0022729
462,East 142nd Place South,74033,35.9564651,-96.0020955
14450,South Dogwood Street East,74033,35.9557852,-96.0049254
121,East 149th Street South,74033,35.9507905,-96.0060550
321,East 147th Street South,74033,35.9535202,-96.0055864
721,East 142nd Place South,74033,35.9570030,-95.9993242
14782,South Birch Street East,74033,35.9525834,-96.0078277
132,West 147th Street South,74033,35.9526263,-96.0104030
494,East 141st Place South,74033,35.9578918,-96.0011273
14343,South Elm Street East,74033,35.9570953,-96.0035052
719,East 142nd Street South,74033,35.9577775,-95.9992594
493,East 142nd Street South,74033,35.9575704,-96.0011349
488,East 143rd Street South,74033,35.9557455,-96.0009953
349,East 148th Street South,74033,35.9521354,-96.0048710
638,East 141st Place South,74033,35.9581769,-95.9997279
797,East 142nd Place South,74033,35.9570037,-95.9989749
656,East 142nd Street South,74033,35.9573352,-95.9996300
14791,South Birch Street East,74033,35.9520777,-96.0072965
222,East 149th Street South,74033,35.9503521,-96.0054091
468,East 142nd Street South,74033,35.9572021,-96.0020934
262,East 147th Street South,74033,35.9526880,-96.0061343
14461,South College Street East,74033,35.9556343,-96.0054173
14332,South College Street East,74033,35.9570721,-96.0059022
14406,South Broadway Street West,74033,35.9562940,-96.0082632
618,East 142nd Street South,74033,35.9573341,-95.9997976
14809,South Birch Street East,74033,35.9516465,-96.0072078
134,East Main Street South,74033,35.9535981,-96.0072336
14448,South Dogwood Street East,74033,35.9559449,-96.0049256
14017,South 33rd Avenue West,74033,35.9600013,-96.0291144
482,East 142nd Street South,74033,35.9571872,-96.0014561
14417,South Dogwood Street East,74033,35.9564400,-96.0044422
14462,South Dogwood Street East,74033,35.9556195,-96.0049262
745,East 142nd Street South,74033,35.9577805,-95.9991773
723,East 143rd Street South,74033,35.9561453,-95.9993003
472,East 142nd Street South,74033,35.9571967,-96.0018945
606,East 142nd Street South,74033,35.9573337,-95.9998866
382,East 147th Street South,74033,35.9526987,-96.0045063
14400,South College Street East,74033,35.9564626,-96.0059027
477,East 142nd Place South,74033,35.9568712,-96.0016824
14467,South Dogwood Street East,74033,35.9556299,-96.0044448
14765,South Casper Street West,74033,35.9517161,-96.0110438
458,East 142nd Street South,74033,35.9571771,-96.0024635
14860;14868,South Broadway Street West,74033,35.9512985,-96.0090598
479,East 142nd Street South,74033,35.9575698,-96.0016981
676,East 142nd Place South,74033,35.9565806,-95.9995758
14326,South College Street East,74033,35.9572576,-96.0059012
14333,South College Street East,74033,35.9570940,-96.0054214
14457,South Elm Street East,74033,35.9557979,-96.0034861
221,East 149th Street South,74033,35.9508504,-96.0053989
14851,South Birch Street East,74033,35.9512195,-96.0072115
358,East 147th Street South,74033,35.9527029,-96.0048359
147,South Broadway Street East,74033,35.9526291,-96.0085895
471,East 142nd Place South,74033,35.9568363,-96.0019089
14671,South Birch Street East,74033,35.9530919,-96.0078348
375,East 148th Street South,74033,35.9521122,-96.0041502
491,East 142nd Place South,74033,35.9568602,-96.0011299
464,East 141st Place South,74033,35.9578920,-96.0022763
14862,South Birch Street East,74033,35.9512934,-96.0076939
86,East 148th Street South,74033,35.9516868,-96.0076923
357,East 148th Street South,74033,35.9521246,-96.0045275
14892;14884,South Broadway Street West,74033,35.9511001,-96.0090677
635,East 143rd Street South,74033,35.9561486,-95.9997385
337,East 147th Street South,74033,35.9531078,-96.0052981
660,East 143rd Street South,74033,35.9557381,-95.9996656
469,East 142nd Street South,74033,35.9575700,-96.0020981
476,East 143rd Street South,74033,35.9557464,-96.0015342
786,East 141st Place South,74033,35.9582007,-95.9990069
245,East 148th Street South,74033,35.9521718,-96.0058986
14354,South College Street East,74033,35.9569226,-96.0059016
492,East 142nd Street South,74033,35.9571866,-96.0011792
14432,South Elm Street East,74033,35.9561208,-96.0039489
227,East 149th Street South,74033,35.9507979,-96.0051273
14454,South Elm Street East,74033,35.9558005,-96.0039505
172,East 149th Street South,74033,35.9504051,-96.0060567
14853,South Broadway Street East,74033,35.9512587,-96.0084754
702,East 141st Place South,74033,35.9581995,-95.9993533
14379,South Elm Street East,74033,35.9567667,-96.0034842
14393,South Dogwood Street East,74033,35.9566031,-96.0044422
14419,South Elm Street East,74033,35.9564403,-96.0034821
14436,South Dogwood Street East,74033,35.9561037,-96.0049253
14423,South Broadway Street East,74033,35.9560143,-96.0077631
14416,South Birch Street East,74033,35.9561852,-96.0069126
41,East 148th Street South,74033,35.9521701,-96.0082538
97,East 149th Street South,74033,35.9507906,-96.0067165
14443,South Elm Street East,74033,35.9559602,-96.0034830
14378,South Dogwood Street East,74033,35.9567566,-96.0049235
14394,South Elm Street East,74033,35.9566065,-96.0039482
108,East 149th Street South,74033,35.9504045,-96.0065016
1273,West 141st Street South,74033,35.9616843,-96.0250439
706,East 142nd Place South,74033,35.9565740,-95.9993140
14375,South Dogwood Street East,74033,35.9567671,-96.0044415
77,East 148th Street South,74033,35.9521634,-96.0080365
14445,South Dogwood Street East,74033,35.9559576,-96.0044445
62,East 146th Street South,74033,35.9536461,-96.0082216
14336,South Dogwood Street East,74033,35.9570809,-96.0049223
688,East 142nd Street South,74033,35.9573340,-95.9994562
144,East 144th Place South,74033,35.9552504,-96.0072460
620,East 143rd Street South,74033,35.9557517,-95.9998253
379,East 147th Street South,74033,35.9530775,-96.0045984
236,East 148th Street South,74033,35.9516545,-96.0059981
483,East 143rd Street South,74033,35.9561247,-96.0011370
171,East 144th Place South,74033,35.9557018,-96.0067687
634,East 142nd Street South,74033,35.9573343,-95.9997152
481,East 142nd Place South,74033,35.9568370,-96.0014683
14428,South Elm Street East,74033,35.9562813,-96.0039498
14494,South Birch Street East,74033,35.9551281,-96.0078166
342,East 147th Street South,74033,35.9526638,-96.0051608
467,East 143rd Street South,74033,35.9561273,-96.0019014
1017,West 141st Street South,74033,35.9627020,-96.0238462
93,East 149th Street South,74033,35.9507914,-96.0069351
14321,South Elm Street East,74033,35.9572589,-96.0035253
201,East 148th Street South,74033,35.9520930,-96.0066649
788,East 142nd Place South,74033,35.9565740,-95.9989611
463,East 143rd Street South,74033,35.9561477,-96.0021841
792,East 141st Place South,74033,35.9582021,-95.9989185
14355,South Elm Street East,74033,35.9569299,-96.0034854
94,West 147th Street South,74033,35.9527107,-96.0099396
1156,West 141st Street South,74033,35.9605676,-96.0234167
608,East 142nd Place South,74033,35.9565803,-95.9999167
210,East 147th Street South,74033,35.9525791,-96.0066321
14772,South Broadway Street West,74033,35.9521757,-96.0090588
512,East 143rd Street South,74033,35.9557606,-96.0004081
765,East 142nd Place South,74033,35.9570034,-95.9991543
14388,South College Street East,74033,35.9566181,-96.0059018
14397,South Elm Street East,74033,35.9566038,-96.0034867
14468,South Elm Street East,74033,35.9556334,-96.0039507
14339,South Dogwood Street East,74033,35.9570949,-96.0044406
490,East 141st Place South,74033,35.9578914,-96.0013080
484,East 141st Place South,74033,35.9578925,-96.0014990
14453,South Dogwood Street East,74033,35.9557955,-96.0044446
33,East 147th Street South,74033,35.9530533,-96.0085737
784,East 142nd Street South,74033,35.9573362,-95.9990149
480,East 141st Place South,74033,35.9578914,-96.0016926
394,East 147th Street South,74033,35.9526764,-96.0041883
210,East 148th Street South,74033,35.9516547,-96.0065845
80,East Main Street South,74033,35.9536269,-96.0078628
14655,South College Street East,74033,35.9539324,-96.0062374
14461,South Elm Street East,74033,35.9556293,-96.0034840
14351,South Dogwood Street East,74033,35.9569316,-96.0044403
14380,South Elm Street East,74033,35.9567698,-96.0039475
473,East 142nd Street South,74033,35.9575701,-96.0019007
261,East 148th Street South,74033,35.9521709,-96.0056177
89,East 149th Street South,74033,35.9507903,-96.0071932
671,East 142nd Street South,74033,35.9578095,-95.9995611
704,East 142nd Street South,74033,35.9573344,-95.9993607
474,East 141st Place South,74033,35.9578918,-96.0018937
785,East 142nd Street South,74033,35.9577775,-95.9990043
34,East 148th Street South,74033,35.9516450,-96.0084466
636,East 142nd Place South,74033,35.9565802,-95.9997438
40,East 147th Street South,74033,35.9525836,-96.0081659
1011,West 141st Street South,74033,35.9638570,-96.0247518
670,East 141st Place South,74033,35.9581783,-95.9995578
208,East 149th Street South,74033,35.9504054,-96.0058402
14362,South Elm Street East,74033,35.9569347,-96.0039479
767,East 142nd Street South,74033,35.9577784,-95.9990920
674,East 142nd Street South,74033,35.9573351,-95.9995446
14405,South Broadway Street East,74033,35.9563038,-96.0077608
617,East 142nd Place South,74033,35.9569910,-95.9998194
478,East 142nd Street South,74033,35.9571871,-96.0016955
607,East 143rd Street South,74033,35.9561483,-95.9999121
14324,South Dogwood Street East,74033,35.9572734,-96.0049217
88,East 149th Street South,74033,35.9504049,-96.0071911
470,East 141st Place South,74033,35.9578918,-96.0020912
109,East 149th Street South,74033,35.9507908,-96.0064977
254,East 148th Street South,74033,35.9511390,-96.0055863
475,East 143rd Street South,74033,35.9561499,-96.0015053
178,South College Street East,74033,35.9536855,-96.0068627
556,East 143rd Street South,74033,35.9557558,-96.0001990
610,East 142nd Place South,74033,35.9565807,-95.9998274
14338,South Elm Street East,74033,35.9571756,-96.0040441
651,East 142nd Street South,74033,35.9578088,-95.9996437
14399,South College Street East,74033,35.9566043,-96.0054218
682,East 142nd Place South,74033,35.9565808,-95.9994849
14352,South Dogwood Street East,74033,35.9569194,-96.0049231
767,East 143rd Street South,74033,35.9561461,-95.9991257
14390,South Dogwood Street East,74033,35.9565925,-96.0049236
592,East 143rd Street South,74033,35.9557593,-96.0000304
455,East 143rd Street South,74033,35.9561472,-96.0024600
14567,South Broadway Street East,74033,35.9534779,-96.0084419
311,East 148th Street South,74033,35.9521711,-96.0051707
484,East 143rd Street South,74033,35.9557513,-96.0011799
14733,South Casper Street West,74033,35.9526902,-96.0110931
454,East 142nd Place South,74033,35.9564649,-96.0024609
14459,South College Street East,74033,35.9557988,-96.0054168
114,East 147th Street South,74033,35.9525780,-96.0073103
14311,South College Street East,74033,35.9572852,-96.0054211
750,East 143rd Street South,74033,35.9557723,-95.9991148
54,East 148th Street South,74033,35.9516603,-96.0081117
1031,West 141st Street South,74033,35.9594309,-96.0279768
14416,South Elm Street East,74033,35.9564433,-96.0039482
214,East 149th Street South,74033,35.9503945,-96.0056364
687,East 142nd Place South,74033,35.9569907,-95.9994807
209,East 149th Street South,74033,35.9507895,-96.0058359
14411,South College Street East,74033,35.9564411,-96.0054224
798,East 142nd Street South,74033,35.9573349,-95.9989254
92,East 149th Street South,74033,35.9504051,-96.0069320
470,East 142nd Place South,74033,35.9564335,-96.0016971
746,East 141st Place South,74033,35.9582020,-95.9991799
790,East 143rd Street South,74033,35.9557565,-95.9989295
270,East 147th Street South,74033,35.9526404,-96.0055637
239,East 144th Place South,74033,35.9558153,-96.0062413
633,East 142nd Place South,74033,35.9569911,-95.9997368
472,East 143rd Street South,74033,35.9557320,-96.0017104
658,East 142nd Place South,74033,35.9565811,-95.9996599
14786,South Birch Street East,74033,35.9520729,-96.0077708
14488,South Broadway Street West,74033,35.9551317,-96.0090629
116,East 149th Street South,74033,35.9504052,-96.0062783
14429,South Dogwood Street East,74033,35.9562768,-96.0044438
393,East 147th Street South,74033,35.9530691,-96.0042843
14437,South Elm Street East,74033,35.9561173,-96.0034842
14412,South Dogwood Street East,74033,35.9564298,-96.0049245
14409,South Birch Street East,74033,35.9561870,-96.0065272
176,East 148th Street South,74033,35.9516527,-96.0069189
14443,South Broadway Street East,74033,35.9558124,-96.0077525
602,East 141st Place South,74033,35.9581775,-95.9999007
637,East 142nd Street South,74033,35.9578087,-95.9997303
675,East 143rd Street South,74033,35.9561493,-95.9995714
605,East 142nd Place South,74033,35.9569907,-95.9999091
482,East 142nd Place South,74033,35.9564911,-96.0011216
457,East 142nd Place South,74033,35.9568601,-96.0024613
673,East 142nd Place South,74033,35.9569918,-95.9995692
768,East 141st Place South,74033,35.9582007,-95.9990929
650,East 141st Place South,74033,35.9581797,-95.9996417
613,East 142nd Street South,74033,35.9578086,-95.9998149
282,East 148th Street South,74033,35.9516445,-96.0052935
14435,South College Street East,74033,35.9561180,-96.0054172
791,East 142nd Street South,74033,35.9577799,-95.9989156
165,East 148th Street South,74033,35.9521007,-96.0069845
14013,South 33rd Avenue West,74033,35.9627005,-96.0288756
471,East 143rd Street South,74033,35.9561491,-96.0016977
215,East 149th Street South,74033,35.9507916,-96.0056185
234,East 147th Street South,74033,35.9526110,-96.0064517
722,East 142nd Street South,74033,35.9573347,-95.9992690
463,East 142nd Street South,74033,35.9576013,-96.0022870
115,East 149th Street South,74033,35.9507896,-96.0062754
14455,South Broadway Street East,74033,35.9556307,-96.0077428
460,East 141st Place South,74033,35.9578914,-96.0024566
655,East 142nd Place South,74033,35.9569920,-95.9996527
13909,South 33rd Avenue West,74033,35.9618503,-96.0293017
698,East 143rd Street South,74033,35.9557449,-95.9994780
14431,South Dogwood Street East,74033,35.9561159,-96.0044430
793,East 143rd Street South,74033,35.9561460,-95.9989481
14423,South College Street East,74033,35.9562809,-96.0054163
75,East 145th Street South,74033,35.9551666,-96.0082485
462,East 142nd Street South,74033,35.9572236,-96.0022817
685,East 142nd Street South,74033,35.9578087,-95.9994744
496,East 143rd Street South,74033,35.9557627,-96.0006431
726,East 143rd Street South,74033,35.9557415,-95.9992715
295,East 147th Street South,74033,35.9530784,-96.0059021
619,East 143rd Street South,74033,35.9561489,-95.9998224
13831,South Casper Street West,74033,35.9624179,-96.0110899
522,East 138th Place South,74033,35.9630075,-96.0023836
787,East 139th Place South,74033,35.9625808,-95.9958013
812,West 139th Place South,74033,35.9600435,-96.0173395
14018,South Hickory Place East,74033,35.9602671,-95.9991346
543,East 140th Street South,74033,35.9605846,-96.0020879
13721,South Glen Place East,74033,35.9646112,-96.0005228
572,East 139th Place South,74033,35.9609323,-96.0014303
614,West 141st Street South,74033,35.9585920,-96.0154038
13849,South Elm Street East,74033,35.9621991,-96.0033109
248,East 137th Street South,74033,35.9643485,-96.0062030
13859,South Hickory Place East,74033,35.9632591,-95.9984865
583,East 140th Street South,74033,35.9605877,-96.0011896
27,West Main Street South,74033,35.9541160,-96.0090692
13912,South Hickory Place East,74033,35.9618752,-95.9991289
972,West 139th Street South,74033,35.9616725,-96.0199897
251,East 137th Street South,74033,35.9647813,-96.0061583
13904,South Zenith Street West,74033,35.9615455,-96.0181748
13630,South Elwood Avenue West,74033,35.9619235,-95.9951068
878,West 138th Street South,74033,35.9637002,-96.0181874
13732,South Fern Street East,74033,35.9650386,-96.0031151
13741,South Hickory Street East,74033,35.9642702,-95.9995293
857,West 138th Street South,74033,35.9640583,-96.0173785
13855,South Zenith Street West,74033,35.9625753,-96.0168427
13802,South Hickory Place East,74033,35.9635688,-95.9990147
13973,South Hickory Street East,74033,35.9607803,-95.9996284
14284,South Broadway Street West,74033,35.9576655,-96.0083195
306,East 136th Place South,74033,35.9654298,-96.0055238
13801,South Glen Street East,74033,35.9635434,-96.0014920
14096,South Kalanchoe Avenue East,74033,35.9594689,-95.9958326
13755,South Zenith Street West,74033,35.9648170,-96.0163108
528,East 140th Street South,74033,35.9601772,-96.0023571
13661,South Glen Street East,74033,35.9653101,-96.0014873
13632,South Birch Street East,74033,35.9650558,-96.0064929
416,East 137th Street South,74033,35.9650005,-96.0041459
13623,South Glen Place East,74033,35.9660635,-96.0004205
14088,South Hickory Street East,74033,35.9595855,-96.0001317
449,East Glenpool Boulevard South,74033,35.9645539,-96.0038307
461,East 141st Place South,74033,35.9582697,-96.0024621
14208,South Hickory Street East,74033,35.9575081,-96.0002614
13758,South Hickory Street East,74033,35.9640973,-95.9999877
609,East 139th Street South,74033,35.9621213,-96.0007679
13974,South Hickory Place East,74033,35.9608854,-95.9991325
13940,South Zenith Street West,74033,35.9610713,-96.0181290
500,East 141st Street South,74033,35.9587590,-96.0008569
768,East 139th Place South,74033,35.9621681,-95.9963314
612,West 146th Street South,74033,35.9535516,-96.0149106
14138,South Hickory Street East,74033,35.9581337,-96.0003155
891,West 138th Place South,74033,35.9633344,-96.0175624
833,West 137th Place South,74033,35.9647856,-96.0172082
14207,South Hickory Place East,74033,35.9574351,-95.9985500
13808,South Birch Street East,74033,35.9630666,-96.0068498
13628,South Birch Street East,74033,35.9649745,-96.0070199
556,East 139th Street South,74033,35.9617666,-96.0018653
13989,South Peabody Drive West,74033,35.9606159,-96.0185560
42,West 142nd Street South,74033,35.9581731,-96.0084882
14007,South Elm Street East,74033,35.9605247,-96.0032971
240,East 140th Street South,74033,35.9602274,-96.0058688
13908,South Birch Street East,74033,35.9619458,-96.0067425
13803,South Hickory Street East,74033,35.9635485,-95.9995309
13728,South Birch Street East,74033,35.9642532,-96.0066174
14125,South Hickory Place East,74033,35.9582092,-95.9985429
882,East 141st Street South,74033,35.9582545,-95.9975036
13875,South Zenith Street West,74033,35.9623317,-96.0171858
618,East 138th Place South,74033,35.9630115,-96.0004972
13907,South Hickory Place East,74033,35.9619946,-95.9986199
586,East 140th Street South,74033,35.9601889,-96.0012320
14012,South Henry Avenue West,74033,35.9603713,-96.0203829
13886,South Fern Street East,74033,35.9622909,-96.0025627
14223,South Hickory Place East,74033,35.9571455,-95.9985482
810,East 146th Street South,74033,35.9534491,-95.9982341
329,East Glenpool Boulevard South,74033,35.9641839,-96.0050997
13827,South Glen Place East,74033,35.9633929,-96.0004410
13881,South Zenith Street West,74033,35.9621535,-96.0174456
13924,South Dogwood Street East,74033,35.9613057,-96.0052639
941,West 140th Street South,74033,35.9606660,-96.0192444
780,West 141st Street South,74033,35.9588253,-96.0171946
14030,South Hickory Place East,74033,35.9601434,-95.9991350
14105,South Hickory Place East,74033,35.9584186,-95.9985453
14215,South Broadway Street East,74033,35.9581636,-96.0077223
745,East 139th Place South,74033,35.9626356,-95.9974527
278,East 136th Place South,74033,35.9652634,-96.0060367
13784,South Glen Street East,74033,35.9637754,-96.0019680
942,West 140th Place South,74033,35.9595754,-96.0193922
14279,South Hickory Place East,74033,35.9563101,-95.9985290
13924,South Birch Street East,74033,35.9613503,-96.0067583
990,West 141st Street South,74033,35.9590207,-96.0198815
14314,South Barber Street West,74033,35.9573209,-96.0094651
13789,South Glen Street East,74033,35.9637191,-96.0014915
13956,South Hickory Place East,74033,35.9611334,-95.9991308
738,East 139th Place South,74033,35.9621791,-95.9976644
13815,South Zenith Street West,74033,35.9634587,-96.0163186
13640,South Birch Street East,74033,35.9646170,-96.0068237
664,East 139th Place South,74033,35.9609173,-96.0000920
13675,South Hickory Place East,74033,35.9652320,-95.9985550
13952,South Zenith Street West,74033,35.9608947,-96.0181432
13781,South Hickory Place East,74033,35.9637903,-95.9985502
13937,South Ironwood Place East,74033,35.9612889,-95.9968161
13858,South Glen Place East,74033,35.9625389,-96.0007968
13922,South Fern Street East,74033,35.9617474,-96.0025730
13673,South Zenith Street West,74033,35.9657691,-96.0163389
13771,South Zenith Street West,74033,35.9646491,-96.0163110
14328,South Birch Street East,74033,35.9572643,-96.0069786
14522,South Broadway Street West,74033,35.9546709,-96.0091513
14177,South Glen Street East,74033,35.9575867,-96.0007434
14213,South Glen Street East,74033,35.9571485,-96.0007381
932,West 140th Place South,74033,35.9594934,-96.0190326
13640,South Glen Street East,74033,35.9654924,-96.0019886
965,West 140th Street South,74033,35.9606744,-96.0198932
13929,South Peabody Drive West,74033,35.9614742,-96.0186434
223;215,East 143rd Street South,74033,35.9577273,-96.0054588
13839,South Dogwood Street East,74033,35.9622159,-96.0047392
810,West 137th Place South,74033,35.9643468,-96.0174118
13933,South Ironwood Place East,74033,35.9614263,-95.9966684
13989,South Hickory Place East,74033,35.9606211,-95.9985934
497,East 138th Place South,74033,35.9638907,-96.0031376
13972,South Henry Avenue West,74033,35.9609321,-96.0203482
273;285,East 143rd Street South,74033,35.9577142,-96.0048188
13824,South Dogwood Street East,74033,35.9627027,-96.0052973
797,West 139th Place South,74033,35.9605667,-96.0172502
13839,South Zenith Street West,74033,35.9631293,-96.0163412
13815,South Birch Street East,74033,35.9627116,-96.0062134
541,East 139th Place South,74033,35.9613457,-96.0020894
855,West 137th Place South,74033,35.9647912,-96.0174713
942,West 139th Street South,74033,35.9616699,-96.0192899
14030,South Glen Street East,74033,35.9599502,-96.0010266
13826,South Hickory Street East,74033,35.9633753,-95.9999902
13931,South Dogwood Street East,74033,35.9610372,-96.0047718
14211,South Hickory Place East,74033,35.9573664,-95.9985482
13959,South Ironwood Street East,74033,35.9608320,-95.9974877
741,East Glenpool Boulevard South,74033,35.9662910,-95.9984729
13774,South Hickory Street East,74033,35.9639218,-95.9999883
14345,South Birch Street East,74033,35.9569326,-96.0064591
13833,South Elm Street East,74033,35.9628104,-96.0034979
14017,South Birch Street East,74033,35.9601133,-96.0062846
14326,South Broadway Street West,74033,35.9572257,-96.0082728
13831,South Birch Street East,74033,35.9621861,-96.0061983
387,East 137th Street South,74033,35.9652707,-96.0045084
14102,South Hickory Street East,74033,35.9584130,-96.0003155
14430,South Yukon Avenue West,74033,35.9546357,-96.0168536
597,East 138th Place South,74033,35.9633650,-96.0011021
983,East 140th Street South,74033,35.9604328,-95.9946784
13904,South Hickory Place East,74033,35.9621213,-95.9991274
485,East Glenpool Boulevard South,74033,35.9647138,-96.0033920
13762,South Glen Street East,74033,35.9639689,-96.0019682
430,East 137th Street South,74033,35.9650389,-96.0039147
654,East 139th Street South,74033,35.9617288,-96.0000809
13932,South Birch Street East,74033,35.9610801,-96.0067157
13910,South Elwood Avenue West,74033,35.9609031,-95.9951343
13923,South Dogwood Street East,74033,35.9613454,-96.0047387
13637,South Glen Place East,74033,35.9658465,-96.0005081
14203,South 26th Avenue West,74033,35.9576118,-96.0203283
14023,South Elm Street East,74033,35.9599519,-96.0032791
13938,South Zenith Street West,74033,35.9612374,-96.0181817
13672,South Hickory Place East,74033,35.9653562,-95.9990126
494,East 141st Street South,74033,35.9587021,-96.0013852
608,East 138th Place South,74033,35.9630109,-96.0007351
13742,South Glen Place East,74033,35.9640854,-96.0009661
341,East 137th Street South,74033,35.9651072,-96.0051358
834,West 138th Street South,74033,35.9635953,-96.0176737
13789,South Hickory Street East,74033,35.9637306,-95.9995306
276,East 137th Street South,74033,35.9644938,-96.0057696
13812,South Zenith Street West,74033,35.9636310,-96.0168328
13986,South Zenith Street West,74033,35.9605625,-96.0181590
13895,South Peabody Drive West,74033,35.9621498,-96.0185482
931,West 139th Place South,74033,35.9613911,-96.0190350
14008,South Birch Street East,74033,35.9605342,-96.0067500
220,East Glenpool Boulevard South,74033,35.9632723,-96.0064302
13984,South Ironwood Street East,74033,35.9604959,-95.9980131
713,East 139th Place South,74033,35.9626130,-95.9986700
14460,South Elwood Avenue West,74033,35.9558020,-95.9946239
13662,South Hickory Street East,74033,35.9653328,-95.9999885
13762,South Hickory Place East,74033,35.9641083,-95.9990139
13621,South Glen Street East,74033,35.9658541,-96.0014829
13856,South Hickory Place East,74033,35.9630635,-95.9985222
14251,South Hickory Place East,74033,35.9567010,-95.9985093
479,East 137th Street South,74033,35.9654282,-96.0034034
870,West 138th Place South,74033,35.9628119,-96.0180701
680,East Glenpool Boulevard South,74033,35.9655331,-95.9995056
14243,South Hickory Place East,74033,35.9568260,-95.9985154
719,East 139th Place South,74033,35.9626322,-95.9985006
968,East 146th Street South,74033,35.9533549,-95.9951433
13992,South Hickory Place East,74033,35.9605144,-95.9991338
14075,South Peabody Drive West,74033,35.9595867,-96.0186051
13788,South Hickory Place East,74033,35.9637502,-95.9990146
13913,South Hickory Place East,74033,35.9618866,-95.9985853
887,West 137th Place South,74033,35.9648384,-96.0179957
177;163,East 143rd Street South,74033,35.9577208,-96.0058979
87,West 144th Street South,74033,35.9566084,-96.0089754
14083,South Glen Street East,74033,35.9595919,-96.0004837
13914,South Hickory Place East,74033,35.9617524,-95.9991294
542,East 139th Street South,74033,35.9617660,-96.0020957
13971,South Hickory Place East,74033,35.9608692,-95.9985929
14009,South Hickory Place East,74033,35.9602489,-95.9985941
732,East 139th Place South,74033,35.9621698,-95.9978840
932,West 140th Street South,74033,35.9602274,-96.0190735
722,East 138th Place South,74033,35.9629414,-95.9988307
14195,South Hickory Place East,74033,35.9576005,-95.9985464
493,East Glenpool Boulevard South,74033,35.9647948,-96.0031500
683,East Glenpool Boulevard South,74033,35.9659326,-95.9994594
14101,South 26th Avenue West,74033,35.9580917,-96.0201359
13916,South Dogwood Street East,74033,35.9616759,-96.0052730
14489,South 26th Avenue West,74033,35.9536874,-96.0203624
13946,South Ironwood Street East,74033,35.9610088,-95.9979715
14226,South Elm Street East,74033,35.9577142,-96.0043360
588,East 138th Place South,74033,35.9630101,-96.0012047
13782,South Glen Place East,74033,35.9637148,-96.0009965
832,West 137th Place South,74033,35.9643397,-96.0176653
879,West 138th Street South,74033,35.9640379,-96.0176625
14016,South Birch Street East,74,35.9602959,-96.0068163
876,West 137th Place South,74033,35.9644747,-96.0181706
13916,South Birch Street East,74033,35.9616993,-96.0067292
966,West 140th Street South,74033,35.9602299,-96.0198961
368,East 136th Place South,74033,35.9656622,-96.0047466
14111,South Hickory Place East,74033,35.9583430,-95.9985454
589,East 139th Place South,74033,35.9613488,-96.0011907
14090,South Hickory Street East,74033,35.9594014,-96.0001329
14091,South Ironwood Street East,74033,35.9594802,-95.9974561
913,West 138th Street South,74033,35.9639571,-96.0182266
14630,South Broadway Street West,74033,35.9536273,-96.0091932
14355,South Broadway Street East,74033,35.9568507,-96.0077104
13908,South Dogwood Street East,74033,35.9619497,-96.0053017
13940,South Elm Street East,74033,35.9607190,-96.0037876
14117,South Hickory Place East,74033,35.9582743,-95.9985456
13694,South Hickory Place East,74033,35.9650000,-95.9990131
13930,South Ironwood Place East,74033,35.9618910,-95.9968902
979,East 140th Street South,74033,35.9604325,-95.9949478
14698,South Elwood Avenue West,74033,35.9521197,-95.9954742
13693,South Glen Place East,74033,35.9647901,-96.0005226
13977,South Ironwood Street East,74033,35.9606641,-95.9975158
13636,South Birch Street East,74033,35.9647871,-96.0069112
437,East 141st Street South,74033,35.9595449,-96.0032153
560,East 139th Place South,74033,35.9609315,-96.0016542
14100,South Hickory Street East,74033,35.9586476,-95.9998851
14350,South Birch Street East,74033,35.9569293,-96.0069786
13724,South Glen Place East,74033,35.9646435,-96.0009726
958,West 139th Place South,74033,35.9610236,-96.0196384
13880,South Glen Street East,74033,35.9621255,-96.0016129
14239,South Hickory Place East,74033,35.9568960,-95.9985130
13721,South Zenith Street West,74033,35.9652724,-96.0163435
14034,South Hickory Street East,74033,35.9599516,-96.0001320
475,East 138th Place South,74033,35.9637951,-96.0034052
13941,South Peabody Drive West,74033,35.9612745,-96.0186359
290,East 136th Place South,74033,35.9653011,-96.0057635
443,East 136th Place South,74033,35.9662571,-96.0037509
465,East 141st Place South,74033,35.9582709,-96.0022840
13681,South Hickory Place East,74033,35.9650466,-95.9985553
14021,South Hickory Street East,74033,35.9600605,-95.9996116
13653,South Hickory Place East,74033,35.9655987,-95.9985548
608,East 139th Place South,74033,35.9609346,-96.0007656
13968,South Fern Street East,74033,35.9610965,-96.0025282
13808,South Dogwood Street East,74033,35.9631596,-96.0054714
849,West 139th Place South,74033,35.9605683,-96.0176178
14054,South Ironwood Street East,74033,35.9599324,-95.9979758
14348,South Broadway Street East,74033,35.9570461,-96.0082739
13875,South Fern Street East,74033,35.9623082,-96.0020748
485,East 141st Place South,74033,35.9582725,-96.0015060
135,West Main Street South,74033,35.9541276,-96.0102484
350,East 140th Street South,74033,35.9602288,-96.0044872
13814,South Elm Street East,74033,35.9633985,-96.0042744
13683,South Glen Street East,74033,35.9648788,-96.0014830
13889,South Glen Street East,74033,35.9621541,-96.0011582
13915,South Elm Street East,74033,35.9616662,-96.0032880
14198,South Hickory Street East,74033,35.9575971,-96.0003175
13820,South Zenith Street West,74033,35.9633873,-96.0168754
13936,South Henry Avenue West,74033,35.9614120,-96.0203672
14413,South 26th Avenue West,74033,35.9547605,-96.0204505
13879,South Zenith Street West,74033,35.9622499,-96.0173310
14256,South Hickory Street East,74033,35.9567354,-96.0003005
13934,South Fern Street East,74033,35.9614273,-96.0025360
23,West 141st Street South,74033,35.9596144,-96.0080213
14276,South Hickory Street East,74033,35.9563671,-96.0002812
14054,South Hickory Place East,74033,35.9598952,-95.9991358
13818,South Elm Street East,74033,35.9632315,-96.0041952
14216,South Hickory Street East,74033,35.9573565,-96.0002614
362,East 140th Street South,74033,35.9602294,-96.0041396
13711,South Hickory Place East,74033,35.9646764,-95.9985558
14030;14038,South Ironwood Street East,74033,35.9601142,-95.9980329
13970,South Fern Street East,74033,35.9609042,-96.0025390
477,East 136th Place South,74033,35.9662243,-96.0034256
13909,South Hickory Street East,74033,35.9618099,-95.9996349
13991,South Hickory Place East,74033,35.9604970,-95.9985936
14066,South Hickory Street East,74033,35.9597687,-96.0001320
13998,South Zenith Street West,74033,35.9604204,-96.0181488
611,East 146th Street South,74033,35.9540191,-96.0005564
13882,South Hickory Street East,74033,35.9622833,-96.0000488
471,East 141st Place South,74033,35.9582712,-96.0020983
237,East 137th Street South,74033,35.9647115,-96.0063717
14257,South Broadway Street East,74033,35.9579223,-96.0077433
486,East 136th Place South,74033,35.9658209,-96.0031491
591,East 139th Place South,74033,35.9613499,-96.0009687
14065,South Fern Place East,74033,35.9597726,-96.0014388
13970,South Ironwood Street East,74033,35.9606572,-95.9979993
577,East 139th Place South,74033,35.9613481,-96.0014117
550,East 138th Place South,74033,35.9630081,-96.0019153
392,East 137th Street South,74033,35.9649371,-96.0043512
297;309,East 143rd Street South,74033,35.9577142,-96.0045935
13620,South Glen Place East,74033,35.9660667,-96.0010598
13678,South Hickory Place East,74033,35.9651790,-95.9990131
423,East 137th Street South,74033,35.9654118,-96.0040889
14037,South Glen Street East,74033,35.9599521,-96.0005544
616,East 139th Street South,74033,35.9617722,-96.0005278
13823,South Hickory Street East,74033,35.9633611,-95.9995307
13978,South Hickory Place East,74033,35.9607618,-95.9991329
13823,South Dogwood Street East,74033,35.9626998,-96.0047171
14065,South Glen Street East,74033,35.9597708,-96.0005384
13769,South Hickory Street East,74033,35.9640886,-95.9995295
453,East 138th Place South,74033,35.9637254,-96.0036588
95,East 143rd Street South,74033,35.9578164,-96.0064839
991,East 140th Street South,74033,35.9604340,-95.9944033
285,East 137th Street South,74033,35.9649115,-96.0057489
13815,South Dogwood Street East,74033,35.9631546,-96.0048448
662,East 140th Street South,74033,35.9601924,-96.0000707
13955,South Hickory Place East,74033,35.9612738,-95.9986055
13842,South Elm Street East,74033,35.9624100,-96.0038053
13816,South Birch Street East,74033,35.9627416,-96.0067416
13997,South Hickory Street East,74033,35.9604245,-95.9996397
594,East 139th Street South,74033,35.9617709,-96.0009762
13736,South Birch Street East,74033,35.9640962,-96.0066332
14108,South Hickory Street East,74033,35.9583361,-96.0003170
13610,South Glen Place East,74033,35.9662833,-96.0009150
13614,South Hickory Street East,74033,35.9662677,-96.0000121
14157,South Hickory Place East,74033,35.9578872,-95.9985445
13900,South Zenith Street West,74033,35.9617230,-96.0181892
778,West 137th Place South,74033,35.9643475,-96.0168888
13671,South Glen Place East,74033,35.9651932,-96.0005028
13706,South Peabody Drive West,74033,35.9637162,-96.0190412
14171,South Hickory Place East,74033,35.9577468,-95.9985484
440,East 138th Place South,74033,35.9633490,-96.0035401
725,East Glenpool Boulevard South,74033,35.9662256,-95.9987308
401,East 137th Street South,74033,35.9653449,-96.0043166
13965,South Peabody Drive West,74033,35.9609457,-96.0185551
13908,South Elm Street East,74033,35.9619717,-96.0037844
456,East Glenpool Boulevard South,74033,35.9641704,-96.0036187
13729,South Hickory Street East,74033,35.9644526,-95.9995291
13932,South Ironwood Place East,74033,35.9617330,-95.9970932
13967,South Hickory Place East,74033,35.9609932,-95.9985926
965,West 140th Place South,74033,35.9599325,-96.0198979
13900,South Hickory Place East,74033,35.9622605,-95.9991280
574,East 140th Street South,74033,35.9601894,-96.0014751
739,East 139th Place South,74033,35.9626347,-95.9976750
13921,South Zenith Street West,74033,35.9612385,-96.0174671
14020,South Birch Street East,74033,35.9599623,-96.0070187
13827,South Zenith Street West,74033,35.9632947,-96.0163081
13613,South Glen Place East,74033,35.9662968,-96.0005979
14421,South Barber Street West,74033,35.9560081,-96.0089288
131,East 141st Street South,74033,35.9596744,-96.0064332
14268,South Broadway Street East,74033,35.9578576,-96.0082364
13688,South Hickory Street East,74033,35.9649939,-95.9999840
658,West 141st Street South,74033,35.9587133,-96.0157011
642,East 138th Place South,74033,35.9630124,-96.0002600
897,West 137th Place South,74033,35.9646915,-96.0181302
13619,South Glen Street East,74033,35.9660911,-96.0013948
13851,South Fern Street East,74033,35.9626939,-96.0020568
949,West 140th Place South,74033,35.9599277,-96.0194472
364,East 137th Street South,74033,35.9648108,-96.0047588
421,East Glenpool Boulevard South,74033,35.9645120,-96.0040192
14337,South Birch Street East,74033,35.9570826,-96.0064595
676,East 146th Street South,74033,35.9534486,-96.0000241
14053,South Ironwood Street East,74033,35.9599400,-95.9975204
941,West 139th Place South,74033,35.9613775,-96.0192530
13666,South Hickory Place East,74033,35.9655341,-95.9990121
14389,South 26th Avenue West,74033,35.9550616,-96.0203486
13948,South Henry Avenue West,74033,35.9611780,-96.0203983
14124,South Hickory Street East,74033,35.9582039,-96.0003185
265,East Glenpool Boulevard South,74033,35.9639297,-96.0059609
13949,South Hickory Street East,74033,35.9611675,-95.9996255
647,East 139th Place South,74033,35.9613521,-96.0002959
772,West 138th Street South,74033,35.9636067,-96.0172762
13941,South Hickory Place East,74033,35.9613870,-95.9985864
14301,South Hickory Place East,74033,35.9559242,-95.9985475
14678,South Elwood Avenue West,74033,35.9525834,-95.9943646
75,West 143rd Street South,74033,35.9576638,-96.0088607
13830,South Elwood Avenue West,74033,35.9626507,-95.9947583
458,East 137th Street South,74033,35.9650460,-96.0036998
13907,South Dogwood Street East,74033,35.9619720,-96.0047386
977,West 139th Place South,74033,35.9614593,-96.0201243
13685,South Zenith Street West,74033,35.9656047,-96.0163753
13964,South Zenith Street West,74033,35.9607432,-96.0181708
941,West 138th Street South,74033,35.9637299,-96.0192761
592,East 138th Place South,74033,35.9630111,-96.0009702
13824,South Birch Street East,74033,35.9624787,-96.0067463
292,East 137th Street South,74033,35.9645493,-96.0055914
303,East 137th Street South,74033,35.9649760,-96.0055457
690,East 138th Place South,74033,35.9630027,-95.9992776
13962,South Hickory Place East,74033,35.9610097,-95.9991329
13923,South Elm Street East,74033,35.9613686,-96.0032998
835,West 138th Street South,74033,35.9640480,-96.0171643
13702,South Hickory Place East,74033,35.9648260,-95.9990131
931,West 137th Place South,74033,35.9644213,-96.0191113
13985,South Ironwood Street East,74033,35.9604742,-95.9975203
13916,South Zenith Street West,74033,35.9613621,-96.0181771
13643,South Zenith Street West,74033,35.9663093,-96.0163173
601,East Glenpool Boulevard South,74033,35.9654282,-96.0010651
540,East 140th Street South,74033,35.9601829,-96.0021169
13804,South Fern Street East,74033,35.9643208,-96.0031571
13924,South Elm Street East,74033,35.9613713,-96.0037859
14066,East 141st Street South,74033,35.9596796,-95.9992276
13999,South Ironwood Street East,74033,35.9602925,-95.9975216
578,East 138th Place South,74033,35.9630103,-96.0014386
379,East 137th Street South,74033,35.9652229,-96.0047287
139,West 147th Street South,74033,35.9531325,-96.0104863
407,East Glenpool Boulevard South,74033,35.9644484,-96.0042324
811,West 137th Place South,74033,35.9647947,-96.0170576
14297,South Glen Street East,74033,35.9560819,-96.0007079
13844,South Elm Street East,74033,35.9622087,-96.0037791
762,East 139th Place South,74033,35.9621713,-95.9967667
13880,South Zenith Street West,74033,35.9624380,-96.0178769
14634,South Elwood Avenue West,74033,35.9533604,-95.9942348
779,West 137th Place South,74033,35.9647852,-96.0168567
13828,South Hickory Place East,74033,35.9633824,-95.9990196
932,West 137th Place South,74033,35.9640139,-96.0190383
13936,South Ironwood Place East,74033,35.9615816,-95.9972467
13840,South Zenith Street West,74033,35.9632412,-96.0169096
13789,South Glen Place East,74033,35.9637375,-96.0004616
14015,South Peabody Drive West,74033,35.9603024,-96.0185917
14273,South Glen Street East,74033,35.9564045,-96.0007087
13926,South Hickory Place East,74033,35.9615338,-95.9991166
14272,South Hickory Street East,74033,35.9564475,-96.0002801
14043,South Peabody Drive West,74033,35.9599531,-96.0185884
596,West 141st Street South,74033,35.9587933,-96.0143192
14141,South Glen Street East,74033,35.9580655,-96.0006937
13609,South Glen Street East,74033,35.9662939,-96.0015431
726,East 139th Place South,74033,35.9622021,-95.9980919
13907,South Birch Street East,74033,35.9619514,-96.0061947
14276,South Barber Street West,74033,35.9577695,-96.0094452
13923,South Birch Street East,74033,35.9613223,-96.0062376
13670,South Glen Place East,74033,35.9650156,-96.0009898
555,East 140th Street South,74033,35.9605857,-96.0018543
564,East 138th Place South,74033,35.9630100,-96.0016778
14263,South Hickory Place East,74033,35.9565203,-95.9985277
13940,South Birch Street East,74033,35.9607935,-96.0067507
262,East 140th Street South,74033,35.9602286,-96.0051710
13697,South Hickory Place East,74033,35.9648600,-95.9985546
279,East 137th Street South,74033,35.9648463,-96.0059532
14268,South Hickory Street East,74033,35.9565176,-96.0002796
14187,South Hickory Place East,74033,35.9576779,-95.9985439
247,East 141st Street South,74033,35.9597183,-96.0054377
14072,South Ironwood Street East,74033,35.9597959,-95.9979783
720,West 141st Street South,74033,35.9586763,-96.0163970
13669,South Hickory Place East,74033,35.9654124,-95.9985548
14077,South Ironwood Street East,74033,35.9597716,-95.9975199
270,East Glenpool Boulevard South,74033,35.9635358,-96.0055918
13745,South Glen Place East,74033,35.9642534,-96.0005240
13821,South Hickory Place East,74033,35.9634668,-95.9985688
13984,South Henry Avenue West,74033,35.9607227,-96.0203807
13828,South Fern Street East,74033,35.9631254,-96.0031614
13940,South Hickory Place East,74033,35.9613800,-95.9991307
13908,South Hickory Place East,74033,35.9619980,-95.9991285
879,East 146th Street South,74033,35.9540056,-95.9971168
13795,South Peabody Drive West,74033,35.9635114,-96.0186146
932,West 139th Street South,74033,35.9616666,-96.0190565
13994,South Fern Street East,74033,35.9604942,-96.0026100
931,West 138th Place South,74033,35.9629718,-96.0190578
147,West 143rd Street South,74033,35.9576127,-96.0095063
14033,South Fern Place East,74033,35.9599512,-96.0014381
13840,South Dogwood Street East,74033,35.9622032,-96.0052947
14688,South Elwood Avenue West,74033,35.9521897,-95.9942609
463,East Glenpool Boulevard South,74033,35.9646200,-96.0036157
669,East 139th Place South,74033,35.9613531,-96.0000658
483,East 136th Place South,74033,35.9662416,-96.0032004
849,West 138th Place South,74033,35.9631226,-96.0174208
840,West 141st Street South,74033,35.9587945,-96.0181963
14076,South Zenith Street West,74033,35.9597442,-96.0181909
14135,South Hickory Place East,74033,35.9581406,-95.9985468
111,East 141st Street South,74033,35.9594091,-96.0070639
13932,South Dogwood Street East,74033,35.9610352,-96.0052745
950,West 139th Place South,74033,35.9610251,-96.0194623
13621,South Hickory Street East,74033,35.9661541,-95.9994521
14154,South Hickory Street East,74033,35.9579652,-96.0003153
13888,South Zenith Street West,74033,35.9623364,-96.0181070
13977,South Peabody Drive West,74033,35.9608231,-96.0185489
13739,South Glen Street East,74033,35.9644702,-96.0014751
14285,South Glen Street East,74033,35.9562363,-96.0007093
13839,South Elm Street East,74033,35.9626354,-96.0034133
14000,South Elwood Avenue West,74033,35.9605446,-95.9940438
14391,South Birch Street East,74033,35.9566266,-96.0064599
77,East 143rd Street South,74033,35.9577238,-96.0069621
812,West 138th Street South,74033,35.9636074,-96.0174688
895,West 138th Place South,74033,35.9633390,-96.0179761
13845,South Elm Street East,74033,35.9624539,-96.0033064
13816,South Dogwood Street East,74033,35.9629232,-96.0054023
931,West 140th Street South,74033,35.9606716,-96.0190525
510,East 138th Place South,74033,35.9630364,-96.0026347
13641,South Hickory Place East,74033,35.9658271,-95.9985357
13734,South Glen Place East,74033,35.9644561,-96.0009794
13939,South Zenith Street West,74033,35.9610376,-96.0174486
13611,South Hickory Street East,74033,35.9663300,-95.9997106
13845,South Glen Place East,74033,35.9626957,-96.0003250
231;243,East 143rd Street South,74033,35.9577143,-96.0052467
14408,South Barber Street West,74033,35.9562800,-96.0094444
14092,South Glen Street East,74033,35.9594186,-96.0011094
283,East Glenpool Boulevard South,74033,35.9640378,-96.0056667
159,West Main Street South,74033,35.9542408,-96.0104988
14045,South Hickory Place East,74033,35.9599943,-95.9985972
13832,South Dogwood Street East,74033,35.9624612,-96.0053040
13932,South Elm Street East,74033,35.9610524,-96.0037864
421,East 136th Place South,74033,35.9662866,-96.0039706
14095,South Hickory Street East,74033,35.9594713,-95.9996202
13755,South Glen Place East,74033,35.9640753,-96.0005247
955,East 140th Street South,74033,35.9604309,-95.9954836
903,West 138th Street South,74033,35.9641162,-96.0180297
770,East 146th Street South,74033,35.9534525,-95.9988541
14080,South Glen Street East,74033,35.9595945,-96.0011119
13877,South Glen Street East,74033,35.9623189,-96.0011682
13696,South Glen Place East,74033,35.9648196,-96.0009931
314,East Glenpool Boulevard South,74033,35.9636615,-96.0051502
918,East 146th Street South,74033,35.9534547,-95.9965126
863,West 137th Place South,74033,35.9648416,-96.0176634
13985,South Hickory Street East,74033,35.9606272,-95.9996237
13823,South Birch Street East,74033,35.9624825,-96.0061861
13937,South Hickory Street East,74033,35.9613624,-95.9996010
185;197,East 143rd Street South,74033,35.9577208,-96.0056837
834,West 139th Place South,74033,35.9601337,-96.0177027
538,East 138th Place South,74033,35.9630090,-96.0021477
13799,South Hickory Place East,74033,35.9636298,-95.9985679
14072,South Henry Avenue West,74033,35.9594769,-96.0203934
13831,South Dogwood Street East,74033,35.9624849,-96.0046991
668,East 138th Place South,74033,35.9630130,-95.9999963
14453,South 26th Avenue West,74033,35.9540824,-96.0199244
13779,South Zenith Street West,74033,35.9644887,-96.0163142
13865,South Glen Street East,74033,35.9625031,-96.0011288
262,East 141st Street South,74033,35.9588503,-96.0050984
14290,South Hickory Street East,74033,35.9561262,-96.0002922
14019,South Glen Street East,74033,35.9601918,-96.0005619
474,East Glenpool Boulevard South,74033,35.9642458,-96.0033493
13900,South Fern Street East,74033,35.9619355,-96.0025371
13826,South Elm Street East,74033,35.9628982,-96.0040370
13863,South Fern Street East,74033,35.9624902,-96.0019864
13939,South Birch Street East,74033,35.9606958,-96.0061952
775,East 139th Place South,74033,35.9626439,-95.9963210
13960,South Henry Avenue West,74033,35.9610799,-96.0203826
183,East Glenpool Boulevard South,74033,35.9637615,-96.0064370
13642,South Hickory Street East,74033,35.9658102,-96.0000008
462,East 136th Place South,74033,35.9658214,-96.0033762
13917,South Hickory Place East,74033,35.9617656,-95.9985936
932,West 138th Street South,74033,35.9632620,-96.0190701
13931,South Ironwood Place East,74033,35.9615593,-95.9965248
14249,South Glen Street East,74033,35.9566223,-96.0006843
13846,South Glen Place East,74033,35.9626926,-96.0006317
14004,South Ironwood Street East,74033,35.9603014,-95.9980116
13853,South Glen Street East,74033,35.9626975,-96.0011486
14201,South Hickory Place East,74033,35.9575149,-95.9985484
13671,South Hickory Street East,74033,35.9653359,-95.9995269
14053,South Hickory Place East,74033,35.9598701,-95.9985974
14317,South Broadway Street East,74033,35.9572853,-96.0077119
962,East 146th Street South,74033,35.9534171,-95.9954635
851,East 146th Street South,74033,35.9540285,-95.9976690
13674,South Hickory Street East,74033,35.9651754,-95.9999837
733,East 139th Place South,74033,35.9626336,-95.9978974
13860,South Glen Place East,74033,35.9623371,-96.0008148
13740,South Glen Place East,74033,35.9642624,-96.0009761
31,West 147th Street South,74033,35.9530691,-96.0093873
813,West 138th Street South,74033,35.9640482,-96.0169700
14027,South Hickory Place East,74033,35.9601249,-95.9985943
670,East 141st Street South,74033,35.9588608,-96.0001755
744,East 139th Place South,74033,35.9621812,-95.9974629
763,East 139th Place South,74033,35.9626376,-95.9967860
940,East 146th Street South,74033,35.9534537,-95.9959234
394,East 141st Street South,74033,35.9588025,-96.0045291
13658,South Glen Street East,74033,35.9653138,-96.0019892
13736,South Glen Street East,74033,35.9643555,-96.0019670
13878,South Glen Street East,74033,35.9623188,-96.0016170
310,East 137th Street South,74033,35.9646171,-96.0053734
14293,South Broadway Street East,74033,35.9576337,-96.0076472
827,West 138th Place South,74033,35.9628779,-96.0173266
14404,South Birch Street East,74033,35.9564699,-96.0069835
14163,South Hickory Place East,74033,35.9578169,-95.9985476
14168,South Hickory Street East,74033,35.9578115,-96.0003178
608,East 146th Street South,74033,35.9533483,-96.0006009
14393,South Broadway Street East,74033,35.9565644,-96.0077656
967,East 140th Street South,74033,35.9604316,-95.9952163
13606,South Glen Street East,74033,35.9663009,-96.0018407
13851,South Zenith Street West,74033,35.9626926,-96.0167477
13751,South Hickory Place East,74033,35.9641329,-95.9985543
332,East 137th Street South,74033,35.9646763,-96.0051649
257;269,East 143rd Street South,74033,35.9577142,-96.0050356
14015,South Elm Street East,74033,35.9602184,-96.0032703
730,East 141st Street South,74033,35.9587634,-95.9990190
428,East 136th Place South,74033,35.9657910,-96.0039025
13725,South Glen Street East,74033,35.9646695,-96.0014901
327,East 137th Street South,74033,35.9650412,-96.0053410
974,East 146th Street South,74033,35.9533563,-95.9947107
13685,South Glen Place East,74033,35.9649734,-96.0005215
13747,South Glen Street East,74033,35.9640898,-96.0014869
268,East 137th Street South,74033,35.9644017,-96.0059844
13996,South Hickory Place East,74033,35.9603908,-95.9991342
14283,South Hickory Place East,74033,35.9562333,-95.9985293
13915,South Birch Street East,74033,35.9616764,-96.0061983
50,East 145th Street South,74033,35.9546548,-96.0084458
14151,South Hickory Place East,74033,35.9579673,-95.9985460
14319,South Birch Street East,74033,35.9572684,-96.0064581
14080,South Zenith Street West,74033,35.9594693,-96.0181475
14219,South Hickory Place East,74033,35.9572293,-95.9985486
13838,South Elm Street East,74033,35.9625698,-96.0038812
462,East 138th Place South,74033,35.9634137,-96.0033452
13624,South Glen Place East,74033,35.9658432,-96.0010102
14238,South Hickory Street East,74033,35.9569705,-96.0002663
14099,South Fern Place East,74033,35.9594028,-96.0014402
14162,South Hickory Street East,74033,35.9578828,-96.0003198
14237,South Glen Street East,74033,35.9568504,-96.0007350
13953,South Peabody Drive West,74033,35.9611106,-96.0185546
778,West 139th Place South,74033,35.9600290,-96.0169682
14293,South Hickory Place East,74033,35.9561137,-95.9985378
13901,South Hickory Street East,74033,35.9622075,-95.9995738
13643,South Glen Street East,74033,35.9655172,-96.0014918
14269,South Barber Street West,74033,35.9578297,-96.0089296
757,East 139th Place South,74033,35.9626370,-95.9970082
13749,South Zenith Street West,74033,35.9649366,-96.0163880
262,East 136th Place South,74033,35.9651678,-96.0062711
346,East 137th Street South,74033,35.9647345,-96.0049606
13800,South Hickory Street East,74033,35.9635625,-95.9999903
13952,South Hickory Place East,74033,35.9612564,-95.9991312
750,West 138th Street South,74033,35.9636113,-96.0170793
13848,South Hickory Street East,74033,35.9626897,-96.0000107
13887,South Zenith Street West,74033,35.9620312,-96.0175414
121,West 147th Street South,74033,35.9530706,-96.0101766
941,West 140th Place South,74033,35.9599273,-96.0192834
14184,South Hickory Street East,74033,35.9576737,-96.0003152
13896,South Zenith Street West,74033,35.9621260,-96.0181465
565,East 139th Place South,74033,35.9613474,-96.0016353
13771,South Hickory Street East,74033,35.9639108,-95.9995300
14668,South Elwood Avenue West,74033,35.9529500,-95.9942633
13746,South Hickory Place East,74033,35.9642902,-95.9990138
14078,South Kalanchoe Avenue East,74033,35.9597577,-95.9958342
13957,South Zenith Street West,74033,35.9608462,-96.0173595
584,East 139th Place South,74033,35.9609328,-96.0012105
13980,South Hickory Street East,74033,35.9606700,-96.0000607
952,West 139th Street South,74033,35.9616708,-96.0195232
13917,South Peabody Drive West,74033,35.9616344,-96.0185798
707,East 139th Place South,74033,35.9626608,-95.9988314
803,East 146th Street South,74033,35.9540165,-95.9982229
670,East 141st Street South,74033,35.9588657,-95.9997015
13982,South Fern Street East,74033,35.9606880,-96.0025676
13980,South Hickory Place East,74033,35.9606381,-95.9991333
547,East 139th Street South,74033,35.9621131,-96.0020436
386,East 140th Street South,74033,35.9602308,-96.0037962
721,East 139th Place South,74033,35.9626319,-95.9983508
13830,South Elm Street East,74033,35.9627328,-96.0039585
14060,South Henry Avenue West,74033,35.9597035,-96.0204276
14234,South Hickory Street East,74033,35.9570515,-96.0002695
13824,South Glen Street East,74033,35.9633754,-96.0019692
13739,South Hickory Place East,74033,35.9643165,-95.9985558
14255,South Hickory Place East,74033,35.9565988,-95.9985286
14275,South Hickory Place East,74033,35.9563805,-95.9985240
900,West 141st Street South,74033,35.9588531,-96.0191522
13909,South Zenith Street West,74033,35.9615003,-96.0174794
13864,South Fern Street East,74033,35.9624780,-96.0026258
14116,South Hickory Street East,74033,35.9582700,-96.0003148
14368,South Broadway Street West,74033,35.9568380,-96.0082744
961,West 140th Street South,74033,35.9606681,-96.0196538
14247,South Hickory Place East,74033,35.9567571,-95.9985149
985,East 141st Street South,74033,35.9598821,-95.9946190
13713,South Hickory Street East,74033,35.9646326,-95.9995282
587,East 146th Street South,74033,35.9543943,-96.0014653
13916,South Elm Street East,74033,35.9616861,-96.0037847
383,East Glenpool Boulevard South,74033,35.9643824,-96.0044326
13939,South Elm Street East,74033,35.9607928,-96.0033004
567,East 140th Street South,74033,35.9605863,-96.0016327
821,East 141st Street South,74033,35.9595278,-95.9980627
14042,South Hickory Place East,74033,35.9600197,-95.9991354
660,East 140th Street South,74033,35.9601911,-96.0003141
14041;14029,South Ironwood Street East,74033,35.9601360,-95.9975023
79,West 147th Street South,74033,35.9530953,-96.0097942
719,East Glenpool Boulevard South,74033,35.9661492,-95.9989646
582,East 139th Street South,74033,35.9617694,-96.0011987
942,West 139th Place South,74033,35.9610115,-96.0192743
445,East 137th Street South,74033,35.9654204,-96.0038599
13901,South Zenith Street West,74033,35.9617295,-96.0174561
571,East 140th Street South,74033,35.9605872,-96.0014093
810,West 141st Street South,74033,35.9588524,-96.0177999
702,East 138th Place South,74033,35.9630212,-95.9990522
13929,South Ironwood Place East,74033,35.9617033,-95.9963507
957,West 138th Place South,74033,35.9624705,-96.0197935
338,East Glenpool Boulevard South,74033,35.9637435,-96.0048653
384,East 136th Place South,74033,35.9657131,-96.0045100
13905,South Hickory Street East,74033,35.9620177,-95.9996261
13722,South Hickory Street East,74033,35.9646321,-95.9999855
13975,South Hickory Place East,74033,35.9607451,-95.9985931
950,West 140th Street South,74033,35.9602310,-96.0194750
342,East 136th Place South,74033,35.9655747,-96.0050083
68,West 142nd Street South,74033,35.9581026,-96.0087921
13829,South Casper Street West,74033,35.9624701,-96.0110871
13912,South Ironwood Street East,74033,35.9614192,-95.9980264
13629,South Glen Street East,74033,35.9656806,-96.0014644
13616,South Birch Street East,74033,35.9652399,-96.0070000
13850,South Hickory Street East,74033,35.9624743,-96.0000119
13832,South Birch Street East,74033,35.9622051,-96.0067428
14018,South Fern Place East,74033,35.9601886,-96.0018943
962,West 139th Street South,74033,35.9616717,-96.0197564
596,East 139th Place South,74033,35.9609336,-96.0009896
13898,South Fern Street East,74033,35.9621156,-96.0025148
13720,South Hickory Place East,74033,35.9646521,-95.9990131
14165,South Glen Street East,74033,35.9577943,-96.0007080
13841,South Hickory Street East,74033,35.9630310,-95.9994830
13958,South Ironwood Street East,74033,35.9608337,-95.9979979
595,East 140th Street South,74033,35.9605885,-96.0009680
800,West 141st Street South,74033,35.9572556,-96.0176443
888,West 138th Place South,74033,35.9631279,-96.0182341
14146,South Hickory Street East,74033,35.9580559,-96.0003188
2655,West 136th Street South,74033,35.9652687,-96.0188482
590,East 140th Street South,74033,35.9601895,-96.0009880
958,West 140th Street South,74033,35.9602447,-96.0197316
719,East 141st Street South,74033,35.9596980,-95.9985093
481,East 141st Place South,74033,35.9582714,-96.0016999
13925,South Hickory Street East,74033,35.9615343,-95.9995896
52,East 145th Street South,74033,35.9547233,-96.0082041
932,West 139th Place South,74033,35.9610127,-96.0190338
14087,South Fern Place East,74033,35.9595931,-96.0014390
13748,South Hickory Street East,74033,35.9642756,-95.9999869
13708,South Elwood Avenue West,74033,35.9647673,-95.9941864
780,East 139th Place South,74033,35.9623225,-95.9957776
14141,South Hickory Place East,74033,35.9580587,-95.9985465
14201,South Glen Street East,74033,35.9573870,-96.0007113
14384,South Broadway Street West,74033,35.9566274,-96.0082739
13765,South Glen Street East,74033,35.9638956,-96.0014901
13791,South Zenith Street West,74033,35.9639573,-96.0163136
13770,South Hickory Place East,74033,35.9639300,-95.9990141
301,East 141st Street South,74033,35.9596544,-96.0049914
14264,South Hickory Street East,74033,35.9565959,-96.0002809
703,East Glenpool Boulevard South,74033,35.9660645,-95.9991671
14095,South Peabody Drive West,74033,35.9594092,-96.0185549
13878,South Zenith Street West,74033,35.9626050,-96.0176481
13812,South Elm Street East,74033,35.9635667,-96.0043542
13806,South Glen Street East,74033,35.9635822,-96.0019685
769,East 139th Place South,74033,35.9626382,-95.9965559
13905,South Peabody Drive West,74033,35.9617615,-96.0185574
663,East 140th Street South,74033,35.9606147,-96.0002978
13863,South Zenith Street West,74033,35.9624541,-96.0169825
14225,South Glen Street East,74033,35.9570179,-96.0006933
13940,South Dogwood Street East,74033,35.9607368,-96.0052694
13650,South Hickory Place East,74033,35.9657092,-95.9989862
568,East 139th Street South,74033,35.9617679,-96.0016432
13959,South Hickory Place East,74033,35.9611237,-95.9985977
13933,South Hickory Place East,74033,35.9615005,-95.9985887
539,East Glenpool Boulevard South,74033,35.9651040,-96.0020950
84,West 144th Street South,74033,35.9562708,-96.0089473
14227,South Hickory Place East,74033,35.9570466,-95.9985142
14464,South Barber Street West,74033,35.9555654,-96.0094737
14280,South Hickory Street East,74033,35.9562747,-96.0002921
13697,South Zenith Street West,74033,35.9654532,-96.0163333
14362,South Birch Street East,74033,35.9567774,-96.0069812
326,East 136th Place South,74033,35.9654780,-96.0052551
13961,South Hickory Street East,74033,35.9609912,-95.9996095
950,West 138th Place South,74033,35.9625206,-96.0195235
14073,South Hickory Street East,74033,35.9597037,-95.9996243
256,East Glenpool Boulevard South,74033,35.9634469,-96.0058816
14334,South Birch Street East,74033,35.9570787,-96.0069801
13841,South Zenith Street West,74033,35.9629838,-96.0165317
14030,South Fern Place East,74033,35.9599474,-96.0019480
13927,South Ironwood Place East,74033,35.9618988,-95.9962589
13931,South Elm Street East,74033,35.9610558,-96.0032879
13915,South Dogwood Street East,74033,35.9616711,-96.0047047
432,East Glenpool Boulevard South,74033,35.9640993,-96.0038645
13743,South Zenith Street West,74033,35.9651106,-96.0163325
13811,South Birch Street East,74033,35.9629194,-96.0062160
884,East 146th Street South,74033,35.9534521,-95.9969662
965,West 138th Street South,74033,35.9636953,-96.0199104
13850,South Zenith Street West,74033,35.9631257,-96.0169895
553,East 139th Place South,74033,35.9613463,-96.0018580
14436,South Barber Street West,74033,35.9559420,-96.0094574
958,West 140th Place South,74033,35.9595066,-96.0197182
574,East 139th Street South,74033,35.9617688,-96.0014192
13821,South Glen Street East,74033,35.9633556,-96.0014923
856,West 138th Street South,74033,35.9635884,-96.0179941
13809,South Zenith Street West,74033,35.9636240,-96.0163196
13737,South Glen Place East,74033,35.9644330,-96.0005238
396,East 136th Place South,74033,35.9658124,-96.0042459
14446,South Barber Street West,74033,35.9557103,-96.0094993
13730,South Hickory Street East,74033,35.9644546,-95.9999866
13854,South Glen Street East,74033,35.9626967,-96.0016328
14091,South Glen Street East,74033,35.9594050,-96.0004790
645,East 139th Place South,74033,35.9613513,-96.0005188
14079,South Zenith Street West,74033,35.9597335,-96.0177354
13622,South Glen Street East,74033,35.9658480,-96.0019881
13803,South Zenith Street West,74033,35.9637632,-96.0163312
14672,South Broadway Street West,74033,35.9531888,-96.0091073
700,West 141st Street South,74033,35.9559788,-96.0167026
14228,South Hickory Street East,74033,35.9571669,-96.0002764
13800,South Elm Street East,74033,35.9639112,-96.0045177
13626,South Glen Street East,74033,35.9656725,-96.0019884
475,East 141st Place South,74033,35.9582709,-96.0019008
14267,South Hickory Place East,74033,35.9564518,-95.9985308
410,East Glenpool Boulevard South,74033,35.9640260,-96.0041089
756,East 139th Place South,74033,35.9621702,-95.9970009
13752,South Henry Avenue West,74033,35.9640411,-96.0204576
642,East 139th Place South,74033,35.9609359,-96.0003197
13956,South Fern Street East,74033,35.9612438,-96.0025665
13683,South Hickory Street East,74033,35.9649790,-95.9995278
175,East Glenpool Boulevard South,74033,35.9636537,-96.0067082
14386,South Birch Street East,74033,35.9566246,-96.0069802
467,East 137th Street South,74033,35.9654322,-96.0036122
13854,South Zenith Street West,74033,35.9630044,-96.0171102
13786,South Hickory Street East,74033,35.9637441,-95.9999888
13939,South Dogwood Street East,74033,35.9606994,-96.0047465
727,East 139th Place South,74033,35.9626321,-95.9981418
388,East 137th Street South,74033,35.9648647,-96.0045501
500,West 146th Street South,74033,35.9534742,-96.0137877
609,East 146th Street South,74033,35.9539889,-96.0000230
710,East 146th Street South,74033,35.9534326,-95.9995183
602,East 139th Street South,74033,35.9617711,-96.0007513
14231,South Hickory Place East,74033,35.9569661,-95.9985150
13649,South Zenith Street West,74033,35.9661022,-96.0163294
14378,South Barber Street West,74033,35.9568066,-96.0094448
13931,South Birch Street East,74033,35.9610247,-96.0062189
866,East 146th Street South,74033,35.9534465,-95.9975239
558,East 139th Place South,74033,35.9609309,-96.0018763
14176,South Hickory Street East,74033,35.9577408,-96.0003171
14284,South Hickory Street East,74033,35.9561954,-96.0002913
14373,South Birch Street East,74033,35.9567791,-96.0064608
431,East 138th Place South,74033,35.9636304,-96.0039173
14010,South Zenith Street West,74033,35.9602578,-96.0181722
13997,South Hickory Place East,74033,35.9603730,-95.9985938
976,West 140th Place South,74033,35.9594443,-96.0201125
13819,South Dogwood Street East,74033,35.9629631,-96.0047348
501,East 141st Place South,74033,35.9582863,-96.0008853
13771,South Glen Place East,74033,35.9638998,-96.0005251
13655,South Zenith Street West,74033,35.9659452,-96.0163713
751,East 139th Place South,74033,35.9626363,-95.9972305
14407,South Birch Street East,74033,35.9564722,-96.0064612
13628,South Hickory Street East,74033,35.9660376,-96.0000951
644,East 139th Street South,74033,35.9617731,-96.0003057
14215,South Hickory Place East,74033,35.9572974,-95.9985464
546,East 139th Place South,74033,35.9609297,-96.0021090
14068,South Glen Street East,74033,35.9597846,-96.0010216
603,East 139th Place South,74033,35.9613503,-96.0007438
13699,South Hickory Street East,74033,35.9648054,-95.9995280
13887,South Glen Place East,74033,35.9621791,-96.0002620
13783,South Zenith Street West,74033,35.9641397,-96.0163128
966,West 140th Place South,74033,35.9594897,-96.0198845
781,East 139th Place South,74033,35.9626869,-95.9960498
13866,South Glen Street East,74033,35.9625267,-96.0017156
13679,South Hickory Street East,74033,35.9651587,-95.9995275
14298,South Hickory Street East,74033,35.9560515,-96.0002923
242,East Glenpool Boulevard South,74033,35.9633443,-96.0061319
148,West 146th Street South,74033,35.9535568,-96.0103264
14064,South Kalanchoe Avenue East,74033,35.9600082,-95.9958340
13744,South Glen Street East,74033,35.9641617,-96.0019671
13804,South Henry Avenue West,74033,35.9632354,-96.0204310
14212,South Hickory Street East,74033,35.9574270,-96.0002611
488,East 138th Place South,74033,35.9634810,-96.0031400
13852,South Fern Street East,74033,35.9626849,-96.0025523
424,East 138th Place South,74033,35.9632799,-96.0037304
14032,South Zenith Street West,74033,35.9600728,-96.0180580
14220,South Hickory Street East,74033,35.9572865,-96.0002615
13714,South Birch Street East,74033,35.9644539,-96.0067526
464,East 141st Street South,74033,35.9586381,-96.0023367
14060,South Fern Street East,74033,35.9603009,-96.0026201
13934,South Ironwood Street East,74033,35.9612077,-95.9981003
13822,South Elm Street East,74033,35.9630649,-96.0041161
14054,South Zenith Street West,74033,35.9599176,-96.0181624
351,East Glenpool Boulevard South,74033,35.9642467,-96.0048499
14336,South Barber Street West,74033,35.9571611,-96.0094721
13804,South Elm Street East,74033,35.9637311,-96.0044323
774,East 139th Place South,74033,35.9621612,-95.9960442
324,East 140th Street South,74033,35.9602292,-96.0048284
931,West 140th Place South,74033,35.9599361,-96.0190914
641,East 140th Street South,74033,35.9605898,-96.0005213
14250,South Hickory Street East,74033,35.9568289,-96.0002691
13618,South Glen Street East,74033,35.9660584,-96.0020389
13698,South Hickory Street East,74033,35.9648106,-95.9999852
13804,South Glen Place East,74033,35.9635404,-96.0009888
607,East 140th Street South,74033,35.9605895,-96.0007446
13907,South Elm Street East,74033,35.9619806,-96.0032480
13780,South Henry Avenue West,74033,35.9637642,-96.0202794
14246,South Hickory Street East,74033,35.9568989,-96.0002682
966,West 139th Place South,74033,35.9610262,-96.0198939
375,East Glenpool Boulevard South,74033,35.9643015,-96.0046433
13827,South Elm Street East,74033,35.9630199,-96.0035886
13725,South Hickory Place East,74033,35.9644937,-95.9985554
14231,South Barber Street West,74033,35.9580968,-96.0089739
13807,South Dogwood Street East,74033,35.9633484,-96.0049631
14055,South Peabody Drive West,74033,35.9598306,-96.0185739
13849,South Zenith Street West,74033,35.9628132,-96.0167232
640,East 139th Place South,74033,35.9609349,-96.0005425
13649,South Glen Place East,74033,35.9656387,-96.0005026
13847,South Hickory Street East,74033,35.9627023,-95.9995519
70,West 143rd Street South,74033,35.9572865,-96.0087870
14019,South Hickory Street East,74033,35.9602415,-95.9996196
13638,South Glen Place East,74033,35.9656411,-96.0010116
750,East 139th Place South,74033,35.9621947,-95.9972197
915,East 146th Street South,74033,35.9540139,-95.9965363
355,East 137th Street South,74033,35.9651578,-96.0049367
248,East 140th Street South,74033,35.9602284,-96.0055202
13732,South Hickory Place East,74033,35.9644720,-95.9990139
12100,South Waco Avenue West,74033,35.9876658,-96.0170643
14169,South Broadway Street West,74033,35.9586351,-96.0075048
12101,South Waco Avenue West,74033,35.9873394,-96.0157293
13000,South Elwood Avenue West,74037,35.9746505,-95.9944124
400,West 141st Street South,74033,35.9586849,-96.0124833
12110,South Waco Avenue West,74033,35.9869467,-96.0168140
12209,South Yukon Avenue West,74033,35.9828770,-96.0170600
12205,South Yukon Avenue West,74033,35.9833304,-96.0180503
2900,West 121st Street South,74033,35.9875439,-96.0265835
2800,West 121st Street South,74033,35.9876075,-96.0235407
2500,West 121st Street South,74033,35.9876064,-96.0223788
2440,West 121st Street South,74033,35.9874348,-96.0215727
12301,South Longhorn Circle West,74033,35.9860487,-96.0208802
12302,South Longhorn Circle West,74033,35.9863653,-96.0216213
12303,South Longhorn Circle West,74033,35.9857216,-96.0211470
12325,South Longhorn Circle West,74033,35.9854834,-96.0216978
12314,South Longhorn Circle West,74033,35.9859495,-96.0220298
12301,South Longhorn Avenue West,74033,35.9862481,-96.0226103
12302,South Kathy Lane West,74033,35.9863770,-96.0231984
12314,South Kathy Lane West,74033,35.9862708,-96.0235962
12326,South Kathy Lane West,74033,35.9863273,-96.0242072
12338,South Kathy Lane West,74033,35.9858444,-96.0246723
12350,South Kathy Lane West,74033,35.9854024,-96.0247040
12402,South Kathy Lane West,74033,35.9849986,-96.0247423
12414,South Kathy Lane West,74033,35.9845422,-96.0247194
12426,South Kathy Lane West,74033,35.9840523,-96.0246883
12438,South Kathy Lane West,74033,35.9837123,-96.0246859
12450,South Kathy Lane West,74033,35.9832348,-96.0246943
12502,South Kathy Lane West,74033,35.9828598,-96.0246907
12514,South Kathy Lane West,74033,35.9824491,-96.0247295
12526,South Kathy Lane West,74033,35.9818518,-96.0247292
12538,South Kathy Lane West,74033,35.9814589,-96.0244049
12550,South Kathy Lane West,74033,35.9814873,-96.0237822
12562,South Kathy Lane West,74033,35.9814910,-96.0233438
12574,South Kathy Lane West,74033,35.9813772,-96.0230149
12580,South Kathy Lane West,74033,35.9814336,-96.0224715
12513,South Longhorn Avenue West,74033,35.9826851,-96.0213376
12501,South Longhorn Avenue West,74033,35.9830062,-96.0213674
12449,South Longhorn Avenue West,74033,35.9833229,-96.0213997
12437,South Longhorn Avenue West,74033,35.9836859,-96.0213319
12431,South Longhorn Avenue West,74033,35.9840250,-96.0213933
12425,South Longhorn Avenue West,74033,35.9843800,-96.0214792
12413,South Longhorn Avenue West,74033,35.9847543,-96.0214832
12349,South Longhorn Avenue West,74033,35.9850605,-96.0215542
12313,South Kathy Lane West,74033,35.9854453,-96.0236678
12325,South Kathy Lane West,74033,35.9851893,-96.0239881
12349,South Kathy Lane West,74033,35.9846594,-96.0240256
12413,South Kathy Lane West,74033,35.9841623,-96.0240133
12437,South Kathy Lane West,74033,35.9837572,-96.0240096
12501,South Kathy Lane West,74033,35.9828552,-96.0239313
12525,South Kathy Lane West,74033,35.9823653,-96.0239985
12549,South Kathy Lane West,74033,35.9821434,-96.0235577
12350,South Longhorn Avenue West,74033,35.9852769,-96.0223105
12402,South Longhorn Avenue West,74033,35.9849855,-96.0223827
12414,South Longhorn Avenue West,74033,35.9846736,-96.0222452
12426,South Longhorn Avenue West,74033,35.9842867,-96.0223521
12438,South Longhorn Avenue West,74033,35.9839510,-96.0223558
12444,South Longhorn Avenue West,74033,35.9836131,-96.0224712
12450,South Longhorn Avenue West,74033,35.9832680,-96.0223989
12502,South Longhorn Avenue West,74033,35.9829146,-96.0225583
12508,South Longhorn Avenue West,74033,35.9825863,-96.0225108
12514,South Longhorn Avenue West,74033,35.9822626,-96.0225497
12573,South Kathy Lane West,74033,35.9819703,-96.0228653
12586,South Longhorn Court West,74033,35.9817749,-96.0219742
12592,South Longhorn Court West,74033,35.9815595,-96.0216262
12598,South Longhorn Court West,74033,35.9812660,-96.0212452
12597,South Longhorn Court West,74033,35.9818004,-96.0208495
12591,South Longhorn Court West,74033,35.9820331,-96.0211571
12525,South Longhorn Court West,74033,35.9822360,-96.0215877
2925,West 126th Street South,74033,35.9813896,-96.0277915
12703,South 33rd Avenue West,74033,35.9796543,-96.0288301
12739,South 33rd Avenue West,74033,35.9790596,-96.0289155
2818,West 126th Street South,74033,35.9804077,-96.0248097
2416,West 126th Street South,74033,35.9783791,-96.0227279
2500,West 126th Street South,74033,35.9795243,-96.0211334
2588,West 126th Street South,74033,35.9801683,-96.0219255
2510,West 126th Street South,74033,35.9806735,-96.0209086
2714,West 126th Street South,74033,35.9806164,-96.0222339
2826,West 126th Street South,74033,35.9805863,-96.0233051
2820,West 126th Street South,74033,35.9806391,-96.0242889
717,East 146th Street South,74033,35.9540075,-95.9994714
785,East 146th Street South,74033,35.9539895,-95.9989012
14797,South Casper Street West,74033,35.9512361,-96.0109897
14831,South Casper Street West,74033,35.9504001,-96.0108225
12200,South Waco Avenue West,74033,35.9839200,-96.0142663
12158,South Waco Avenue West,74033,35.9852753,-96.0166886
12301,South Casper Street West,74037,35.9847625,-96.0104551
12108,South Waco Avenue West,74033,35.9871196,-96.0181401
12108,South Waco Avenue West,74066,35.9870316,-96.0177164
12101,South Waco Avenue West,74033,35.9878634,-96.0159106
426,East 141st Street South,74033,35.9587689,-96.0032740
14189,South Elm Street East,74033,35.9582495,-96.0032802
12130,South Waco Avenue West,74033,35.9865766,-96.0163109
12140,South Waco Avenue West,74033,35.9864308,-96.0158431
36,West 141st Street South,74033,35.9586962,-96.0087830
12131,South Vancouver Avenue West,74033,35.9870296,-96.0135982
12151,South Waco Avenue West,74033,35.9865975,-96.0131905
12121,South Vancouver Avenue West,74033,35.9875010,-96.0135733
12111,South Vancouver Avenue West,74033,35.9878732,-96.0136529
12140,South Vancouver Avenue West,74033,35.9870101,-96.0145990
12130,South Vancouver Avenue West,74033,35.9872102,-96.0145543
12120,South Vancouver Avenue West,74033,35.9878197,-96.0146039
110,West 141st Street South,74033-3535,35.9587237,-96.0095850
28,West 141st Street South,74033,35.9586719,-96.0082858
15050,South Broadway Street East,74033,35.9453071,-96.0088449
15085,South Broadway Street East,74033,35.9452869,-96.0074855
12180,South Waco Avenue West,74033,35.9857725,-96.0172837
519,East 141st Street South,74033,35.9596425,-96.0022858
381,East 141st Street South,74033,35.9596042,-96.0043359
140,West 141st Street South,74033,35.9586875,-96.0107262
130,West 141st Street South,74033,35.9587955,-96.0101033
135,West 141st Street South,74033,35.9596629,-96.0106753
33,West 141st Street South,74033-3572,35.9595341,-96.0085189
41,West 141st Street South,74033,35.9595302,-96.0088751
91,West 141st Street South,74033,35.9597915,-96.0098014
480,East 141st Street South,74033,35.9586928,-96.0018254
20,East 141st Street South,74033,35.9589499,-96.0075251
13200,South Elwood Avenue West,74033,35.9720152,-95.9944519
12119,South Casper Street West,74037,35.9874616,-96.0089172
12137,South Casper Street West,74037,35.9867391,-96.0092043
14956,South Yukon Avenue West,74033,35.9463449,-96.0159374
15046,South Yukon Avenue West,74033,35.9452663,-96.0159244
627,West 149th Place South,74033,35.9465484,-96.0152630
15044,South Xenophon Avenue West,74033,35.9452587,-96.0149615
14963,South Yukon Avenue West,74033,35.9461500,-96.0154740
15045,South Yukon Avenue West,74033,35.9452635,-96.0154359
15088,South Xenophon Avenue West,74033,35.9449274,-96.0150105
607,West 150th Street South,74033,35.9457918,-96.0150484
605,West 149th Place South,74033,35.9465437,-96.0150484
14941,South Yukon Avenue West,74033,35.9465672,-96.0154735
14975,South Yukon Avenue West,74033,35.9458221,-96.0154790
608,West 149th Place South,74033,35.9461641,-96.0150461
15080,South Yukon Avenue West,74033,35.9449182,-96.0159395
15089,South Yukon Avenue West,74033,35.9449172,-96.0154640
15066,South Xenophon Avenue West,74033,35.9450946,-96.0150559
14968,South Yukon Avenue West,74033,35.9461658,-96.0159157
15023,South Yukon Avenue West,74033,35.9454323,-96.0154862
15022,South Xenophon Avenue West,74033,35.9454323,-96.0149745
629,West 150th Street South,74033,35.9457898,-96.0152700
620,West 149th Place South,74033,35.9461703,-96.0152668
15068,South Yukon Avenue West,74033,35.9450856,-96.0159175
14982,South Yukon Avenue West,74033,35.9458012,-96.0159184
14994,South Yukon Avenue West,74033,35.9456221,-96.0159406
15067,South Yukon Avenue West,74033,35.9450793,-96.0154555
14970,South Yukon Avenue West,74033,35.9459796,-96.0159211
14944,South Yukon Avenue West,74033,35.9465245,-96.0159377
15024,South Yukon Avenue West,74033,35.9454439,-96.0159359
447,West 149th Street South,74033,35.9472740,-96.0132886
403,West 149th Street South,74033,35.9472956,-96.0128631
14746,South Vancouver Avenue West,74033,35.9495814,-96.0128697
424,West 146th Place South,74033,35.9506799,-96.0131584
448,West 148th Place South,74033,35.9476464,-96.0132933
14727,South Vancouver Avenue West,74033,35.9498211,-96.0124136
14709,South Vancouver Avenue West,74033,35.9499991,-96.0124114
14682,South Vancouver Avenue West,74033,35.9503370,-96.0129399
445,West 148th Place South,74033,35.9480219,-96.0132854
407,West 148th Street South,74033,35.9488520,-96.0128601
404,West 148th Street South,74033,35.9484600,-96.0128711
14773,South Vancouver Avenue West,74033,35.9492840,-96.0124123
423,West 148th Place South,74033,35.9480171,-96.0130617
423,West 147th Street South,74033,35.9503355,-96.0131554
426,West 148th Place South,74033,35.9476267,-96.0130677
443,West 148th Street South,74033,35.9488378,-96.0132851
14749,South Vancouver Avenue West,74033,35.9496361,-96.0124073
426,West 147th Street South,74033,35.9499480,-96.0130737
425,West 147th Place South,74033,35.9495837,-96.0130623
401,West 146th Place South,74033,35.9510414,-96.0129630
14761,South Vancouver Avenue West,74033,35.9494611,-96.0124095
426,West 148th Street South,74033,35.9484496,-96.0131281
404,West 146th Place South,74033,35.9506750,-96.0129348
425,West 149th Street South,74033,35.9472719,-96.0130682
443,West 147th Place South,74033,35.9495845,-96.0132820
442,West 147th Street South,74033,35.9499252,-96.0132764
427,West 148th Street South,74033,35.9488657,-96.0130654
428,West 147th Place South,74033,35.9492065,-96.0130657
14797,South Vancouver Avenue West,74033,35.9489201,-96.0124155
401,West 148th Place South,74033,35.9480159,-96.0128605
408,West 147th Place South,74033,35.9492068,-96.0128538
14649,South Vancouver Avenue West,74033,35.9510984,-96.0124598
406,West 147th Street South,74033,35.9499392,-96.0128543
14785,South Vancouver Avenue West,74033,35.9491068,-96.0124139
14657,South Vancouver Avenue West,74033,35.9509172,-96.0124689
14673,South Vancouver Avenue West,74033,35.9505308,-96.0124130
14699,South Vancouver Avenue West,74033,35.9501743,-96.0124156
14932,South Broadway Street East,74033-4439,35.9479392,-96.0106301
444,West 147th Place South,74033,35.9491690,-96.0132871
14882,South Vancouver Avenue West,74033,35.9476291,-96.0128387
12302,South Elwood Avenue West,74037,35.9843683,-95.9944045
12352,South Elwood Avenue West,74037,35.9840381,-95.9942159
12450,South Elwood Avenue West,74037,35.9836686,-95.9943934
14440,South Elwood Avenue West,74033,35.9566787,-95.9943781
14275,South Elm Street East,74033,35.9578587,-96.0032620
13839,South US 75 West,74033,35.9618130,-96.0110443
13833,South Casper Street West,74033,35.9621651,-96.0110389
13813,South Casper Street West,74033,35.9629526,-96.0110362
13809,South Casper Street West,74033,35.9634016,-96.0109806
14000,South Casper Street West,74033,35.9612173,-96.0101961
14023,South Casper Street West,74033,35.9606122,-96.0110651
142,West 140th Street South,74033,35.9606268,-96.0105742
13601,South US 75 West,74033,35.9661253,-96.0110296
13703,South Casper Street West,74033,35.9648846,-96.0109737
12570,South Vancouver Avenue West,74033,35.9814270,-96.0166195
12302,South Yukon Avenue West,74033,35.9822727,-96.0190434
12195,South Yukon Avenue West,74033,35.9852410,-96.0188074
12175,South Yukon Avenue West,74033,35.9857265,-96.0188388
12136,South Yukon Avenue West,74033,35.9870140,-96.0201570
550,West 121st Street South,74037,35.9877964,-96.0181601
16420,South US 75 West,74033,35.9251703,-96.0129817
19525,South Saddleback Drive West,74047,35.8797211,-96.0060927
19400,South Saddleback Drive West,74047,35.8814432,-96.0072568
19205,South Carriage Court West,74047,35.8840224,-96.0104026
19350,South Carriage Court West,74047,35.8820431,-96.0112386
300,West Arena Road South,74047,35.8806120,-96.0101973
19120,South Saddleback Drive West,74047,35.8854182,-96.0074868
19150,South Carriage Court West,74047,35.8847053,-96.0115205
19305,South Carriage Court West,74047,35.8827022,-96.0102542
19150,South Saddleback Drive West,74047,35.8847185,-96.0078191
19520,South Saddleback Drive West,74047,35.8799337,-96.0069959
19475,South Saddleback Drive West,74047,35.8806125,-96.0060638
19375,South Saddleback Drive West,74047,35.8816066,-96.0060869
19220,South Saddleback Drive West,74047,35.8838811,-96.0079280
19510,South Carriage Court West,74047,35.8792998,-96.0102074
500,West Arena Road South,74047,35.8806224,-96.0072175
19405,South Carriage Court West,74047,35.8814068,-96.0102197
19155,South Carriage Court West,74047,35.8846652,-96.0103023
19255,South Carriage Court West,74047,35.8833686,-96.0102795
19250,South Carriage Court West,74047,35.8833650,-96.0112279
19275,South Saddleback Drive West,74047,35.8825975,-96.0056665
299,West Arena Road South,74047,35.8813962,-96.0090713
19200,South Carriage Court West,74047,35.8840206,-96.0112353
19205,South Saddleback Drive West,74047,35.8838605,-96.0060721
19476,South Carriage Court West,74047,35.8807035,-96.0111926
19120,South Carriage Court West,74047,35.8852977,-96.0115897
19300,South Carriage Court West,74047,35.8826973,-96.0112211
18340,South US 75 West,74047,35.8976854,-96.0170504
18340,South US 75 West,74047,35.8967276,-96.0174806
18220,South US 75 West,74047,35.8989337,-96.0169906
18701,South US 75 West,74047,35.8917380,-96.0135475
17725,South Santa Fe Place West,74047,35.9056323,-96.0099621
17728,South Santa Fe Place West,74047,35.9056292,-96.0104804
17752,South Santa Fe Place West,74047,35.9052755,-96.0104463
17834,South Tacoma Avenue West,74047,35.9040034,-96.0113724
123,West 176th Street South,74047,35.9081977,-96.0103273
47,West 176th Place South,74047,35.9074368,-96.0095481
17786,South Santa Fe Street West,74047,35.9047431,-96.0095676
17703,South Tacoma Avenue West,74047,35.9059760,-96.0108237
17683,South Tacoma Avenue West,74047,35.9063556,-96.0108322
17682,South Tacoma Avenue West,74047,35.9063466,-96.0113406
17643,South Santa Fe Street West,74047,35.9070685,-96.0090694
17750,South Santa Fe Street West,74047,35.9052740,-96.0095572
17764,South Santa Fe Place West,74047,35.9050995,-96.0104735
17701,South Santa Fe Place West,74047,35.9059804,-96.0099356
17788,South Santa Fe Place West,74047,35.9047425,-96.0104554
29,West 176th Street South,74047,35.9081879,-96.0090221
17654,South Santa Fe Place West,74047,35.9068791,-96.0104543
17740,South Santa Fe Place West,74047,35.9054552,-96.0104601
219,West 176th Street South,74047,35.9082033,-96.0112273
17761,South Santa Fe Place West,74047,35.9050941,-96.0099533
17691,South Santa Fe Place West,74047,35.9061662,-96.0099603
109,West 176th Place South,74047,35.9074401,-96.0099793
17714,South Santa Fe Street West,74047,35.9058070,-96.0095544
117,West 176th Place South,74047,35.9074358,-96.0102069
17674,South Santa Fe Place West,74047,35.9065208,-96.0104493
17714,South Tacoma Avenue West,74047,35.9057945,-96.0113730
17775,South Santa Fe Street West,74047,35.9049240,-96.0090827
17775,South Tacoma Avenue West,74047,35.9049131,-96.0108467
227,West 176th Street South,74047,35.9081958,-96.0114315
17682,South Santa Fe Street West,74047,35.9063429,-96.0095594
53,West 176th Street South,74047,35.9081853,-96.0096805
17738,South Santa Fe Street West,74047,35.9054629,-96.0095796
133,West 176th Place South,74047,35.9074465,-96.0106299
17774,South Tacoma Avenue West,74047,35.9049185,-96.0113598
116,West 176th Street South,74047,35.9077503,-96.0102232
55,West 176th Place South,74047,35.9074392,-96.0097645
17726,South Tacoma Avenue West,74047,35.9056331,-96.0113544
17692,South Santa Fe Street West,74047,35.9061660,-96.0095571
17737,South Santa Fe Place West,74047,35.9054600,-96.0099358
17704,South Santa Fe Place West,74047,35.9059893,-96.0104815
17776,South Santa Fe Place West,74047,35.9049162,-96.0104486
17662,South Santa Fe Street West,74047,35.9067033,-96.0095763
17785,South Santa Fe Place West,74047,35.9047401,-96.0099531
17751,South Tacoma Avenue West,74047,35.9052719,-96.0108470
203,West 176th Street South,74047,35.9082035,-96.0107899
17787,South Tacoma Avenue West,74047,35.9047434,-96.0108472
17715,South Santa Fe Street West,74047,35.9058258,-96.0090824
17750,South Tacoma Avenue West,74047,35.9052816,-96.0113442
17693,South Tacoma Avenue West,74047,35.9061572,-96.0108285
17661,South Santa Fe Place West,74047,35.9067044,-96.0099505
17739,South Tacoma Avenue West,74047,35.9054521,-96.0108203
205,West 176th Place South,74047,35.9074343,-96.0108510
17810,South Tacoma Avenue West,74047,35.9043816,-96.0113253
17602,South Tacoma Avenue West,74047,35.9077638,-96.0113693
17673,South Santa Fe Street West,74047,35.9065322,-96.0090535
17641,South Santa Fe Place West,74047,35.9070551,-96.0099778
17684,South Santa Fe Place West,74047,35.9063442,-96.0104504
17727,South Tacoma Avenue West,74047,35.9056315,-96.0108470
17739,South Santa Fe Street West,74047,35.9054624,-96.0090706
115,West 176th Street South,74047,35.9082026,-96.0101238
124,West 176th Street South,74047,35.9077625,-96.0104182
17774,South Santa Fe Street West,74047,35.9049222,-96.0095768
17786,South Tacoma Avenue West,74047,35.9047411,-96.0113554
17683,South Santa Fe Street West,74047,35.9063547,-96.0090706
17651,South Santa Fe Place West,74047,35.9068720,-96.0099622
17726,South Santa Fe Street West,74047,35.9056269,-96.0095568
17738,South Tacoma Avenue West,74047,35.9054521,-96.0113483
17623,South Santa Fe Street West,74047,35.9074301,-96.0090539
17663,South Santa Fe Street West,74047,35.9067111,-96.0090705
17715,South Tacoma Avenue West,74047,35.9058109,-96.0108428
17672,South Tacoma Avenue West,74047,35.9065243,-96.0113477
17693,South Santa Fe Street West,74047,35.9061803,-96.0090690
17694,South Santa Fe Place West,74047,35.9061681,-96.0104501
17787,South Santa Fe Street West,74047,35.9047558,-96.0090500
17653,South Santa Fe Street West,74047,35.9068917,-96.0090704
125,West 176th Place South,74047,35.9074379,-96.0104219
17664,South Santa Fe Place West,74047,35.9067014,-96.0104475
17763,South Santa Fe Street West,74047,35.9051081,-96.0090530
17642,South Tacoma Avenue West,74047,35.9070488,-96.0113391
17763,South Tacoma Avenue West,74047,35.9050932,-96.0108398
17652,South Santa Fe Street West,74047,35.9068913,-96.0095838
17612,South Tacoma Avenue West,74047,35.9075947,-96.0113671
17749,South Santa Fe Place West,74047,35.9052694,-96.0099323
46,West 176th Street South,74047,35.9077438,-96.0095545
17613,South Santa Fe Street West,74047,35.9076067,-96.0090542
17653,South Tacoma Avenue West,74047,35.9068856,-96.0108261
37,West 176th Street South,74047,35.9081884,-96.0092361
17822,South Tacoma Avenue West,74047,35.9042051,-96.0113489
45,West 176th Street South,74047,35.9081891,-96.0094561
17702,South Santa Fe Street West,74047,35.9059868,-96.0095640
17642,South Santa Fe Street West,74047,35.9070493,-96.0095582
17762,South Tacoma Avenue West,74047,35.9050868,-96.0113743
17702,South Tacoma Avenue West,74047,35.9059895,-96.0113652
17662,South Tacoma Avenue West,74047,35.9067017,-96.0113670
17622,South Tacoma Avenue West,74047,35.9074134,-96.0113529
21,West 176th Street South,74047,35.9081985,-96.0087813
17713,South Santa Fe Place West,74047,35.9058126,-96.0099515
17773,South Santa Fe Place West,74047,35.9049196,-96.0099348
17673,South Tacoma Avenue West,74047,35.9065168,-96.0108412
17644,South Santa Fe Place West,74047,35.9070803,-96.0104752
17663,South Tacoma Avenue West,74047,35.9067006,-96.0108407
17762,South Santa Fe Street West,74047,35.9050956,-96.0095598
17692,South Tacoma Avenue West,74047,35.9061689,-96.0113372
17703,South Santa Fe Street West,74047,35.9059930,-96.0090658
17798,South Tacoma Avenue West,74047,35.9045622,-96.0113370
17633,South Santa Fe Street West,74047,35.9072445,-96.0090563
17603,South Santa Fe Street West,74047,35.9077790,-96.0090708
17672,South Santa Fe Street West,74047,35.9065212,-96.0095621
108,West 176th Street South,74047,35.9077364,-96.0099905
17751,South Santa Fe Street West,74047,35.9052841,-96.0090886
132,West 176th Street South,74047,35.9077604,-96.0106512
17632,South Tacoma Avenue West,74047,35.9072390,-96.0113724
204,West 176th Street South,74047,35.9077492,-96.0108488
54,West 176th Street South,74047,35.9077577,-96.0097630
17681,South Santa Fe Place West,74047,35.9063415,-96.0099508
107,West 176th Street South,74047,35.9082055,-96.0098979
17643,South Tacoma Avenue West,74047,35.9070528,-96.0108503
17652,South Tacoma Avenue West,74047,35.9068762,-96.0113441
17716,South Santa Fe Place West,74047,35.9058117,-96.0104829
17671,South Santa Fe Place West,74047,35.9065238,-96.0099610
211,West 176th Street South,74047,35.9081963,-96.0109954
131,West 176th Street South,74047,35.9081938,-96.0105565
17117,South Union Avenue West,74033,35.9140990,-96.0122725
17279,South 33rd Avenue West,74047,35.9097634,-96.0239222
17950,South Sunset Avenue West,74033,35.9030585,-96.0247063
17315,South Union Avenue West,74047,35.9125757,-96.0129597
17765,South 33rd Avenue West,74047,35.9038248,-96.0284047
17601,South 33rd Avenue West,74047,35.9053372,-96.0283284
3117,West 181st Street South,74047,35.9034523,-96.0269153
18073,South 33rd Avenue West,74047,35.9015820,-96.0289816
2265,West 181st Street South,74047,35.9027127,-96.0223994
2333,West 181st Street South,74047,35.9014555,-96.0257037
141,West 181st Street South,74047,35.9017184,-96.0104721
381,West 181st Street South,74047,35.9016019,-96.0111467
2919,West 181st Street South,74047,35.9032545,-96.0261158
17265,South 33rd Avenue West,74047,35.9112220,-96.0280602
2225,West 181st Street South,74047,35.9020299,-96.0211767
2263,West 181st Street South,74047,35.9035604,-96.0224663
1922,West 161st Street South,74033,35.9292894,-96.0142495
2281,West 171st Street South,74033,35.9186367,-96.0183301
1901,West 171st Street South,74033,35.9192746,-96.0133986
1985,West 171st Street South,74033,35.9162081,-96.0159296
2301,West 171st Street South,74033,35.9159754,-96.0181685
1939,West 171st Street South,74033,35.9174906,-96.0158385
30,East 151st Street South,74033,35.9433817,-96.0076104
429,West 158th Street South,74033,35.9348385,-96.0134398
15086,South Waco Avenue West,74033,35.9449111,-96.0140420
600,West 158th Street South,74033,35.9333395,-96.0141258
15025,South Xenophon Avenue West,74033,35.9454304,-96.0144948
500,West 158th Street South,74033,35.9333355,-96.0135809
16052,South Broadway Avenue West,74033,35.9308744,-96.0095774
15916,South Union Avenue West,74033,35.9326587,-96.0128798
15062,South Vancouver Avenue West,74033,35.9450807,-96.0130291
700,West 158th Street South,74033,35.9335006,-96.0145285
15049,South Waco Avenue West,74033,35.9452570,-96.0135310
15061,South Waco Avenue West,74033,35.9450766,-96.0134566
15069,South Xenophon Avenue West,74033,35.9450840,-96.0144318
15083,South Waco Avenue West,74033,35.9449175,-96.0134926
15084,South Vancouver Avenue West,74033,35.9448988,-96.0130547
15042,South Waco Avenue West,74033,35.9452560,-96.0139932
15040,South Vancouver Avenue West,74033,35.9452518,-96.0130259
15047,South Xenophon Avenue West,74033,35.9452547,-96.0144891
15027,South Waco Avenue West,74033,35.9454291,-96.0135339
15020,South Waco Avenue West,74033,35.9454300,-96.0140076
15064,South Waco Avenue West,74033,35.9450862,-96.0140966
15080,South Xenophon Avenue West,74033,35.9449207,-96.0144647
15028,South Vancouver Avenue West,74033,35.9454293,-96.0130221
805,West 150th Place South,74033,35.9454481,-96.0183013
815,West 150th Place South,74033,35.9454548,-96.0185914
845,West 150th Place South,74033,35.9454675,-96.0193013
865,West 150th Place South,74033,35.9454939,-96.0197670
825,West 150th Place South,74033,35.9454608,-96.0188245
835,West 150th Place South,74033,35.9454509,-96.0190559
855,West 150th Place South,74033,35.9454862,-96.0195347
15072,South Dogwood Street West,74033,35.9453087,-96.0065556
155,East 150th Place South,74033,35.9453631,-96.0070918
109,East 156th Place South,74033,35.9371647,-96.0085667
105,East 156th Place South,74033,35.9371501,-96.0087968
15609,South College Avenue East,74033,35.9365178,-96.0078492
4,East 157th Place South,74033,35.9355261,-96.0099157
15725,South Birch Avenue East,74033,35.9347363,-96.0077206
15609,South Broadway Street East,74033,35.9367988,-96.0099024
15722,South Birch Avenue East,74033,35.9349451,-96.0083557
15733,South Birch Avenue East,74033,35.9343971,-96.0077239
15620,South Birch Avenue East,74033,35.9362611,-96.0095509
115,East 156th Place South,74033,35.9371506,-96.0083211
15625,South Broadway Street East,74033,35.9362678,-96.0099647
15721,South Birch Avenue East,74033,35.9350940,-96.0077954
15616,South Birch Avenue East,74033,35.9364489,-96.0095643
15635,South College Avenue East,74033,35.9354516,-96.0079280
15704,South Broadway Street East,74033,35.9352829,-96.0104035
23,East 157th Place South,74033,35.9349745,-96.0087396
15712,South Broadway Street East,74033,35.9349305,-96.0104101
15608,South Broadway Street East,74033,35.9367880,-96.0105403
15623,South College Avenue East,74033,35.9359858,-96.0078286
15601,South Broadway Street East,74033,35.9371402,-96.0101016
106,East 156th Place South,74033,35.9367219,-96.0088147
15600,South Birch Avenue East,74033,35.9371587,-96.0095556
15718,South Birch Avenue East,74033,35.9350943,-96.0084488
15608,South Birch Avenue East,74033,35.9368088,-96.0095630
15623,South Birch Avenue East,74033,35.9361267,-96.0088981
15604,South Birch Avenue East,74033,35.9369990,-96.0095441
15617,South Broadway Street East,74033,35.9366324,-96.0099431
15615,South College Avenue East,74033,35.9363427,-96.0078318
114,East 156th Place South,74033,35.9367140,-96.0083659
15601,South College Avenue East,74033,35.9368755,-96.0077664
9,East 157th Place South,74033,35.9352340,-96.0094945
15,East 157th Place South,74033,35.9352475,-96.0092803
119,East 156th Place South,74033,35.9371362,-96.0080953
15706,South Birch Avenue East,74033,35.9355005,-96.0089724
123,East 156th Place South,74033,35.9370629,-96.0078521
15616,South Broadway Street East,74033,35.9363927,-96.0104728
15614,South College Avenue East,74033,35.9361299,-96.0083967
15612,South Broadway Street East,74033,35.9365765,-96.0104846
15610,South College Avenue East,74033,35.9363108,-96.0083939
15716,South Broadway Street East,74033,35.9347609,-96.0104090
8,East 157th Street South,74033,35.9355562,-96.0096705
15729,South Birch Avenue East,74033,35.9345665,-96.0077326
15633,South Broadway Street East,74033,35.9359093,-96.0099532
101,East 156th Place South,74033,35.9371468,-96.0090172
15708,South Broadway Street East,74033,35.9351122,-96.0104341
6,East 157th Place South,74033,35.9347910,-96.0095834
15629,South Broadway Street East,74033,35.9360938,-96.0099321
15619,South College Avenue East,74033,35.9361689,-96.0078529
15612,South Birch Avenue East,74033,35.9366295,-96.0095556
102,East 156th Place South,74033,35.9367429,-96.0090313
15714,South Birch Avenue East,74033,35.9352530,-96.0086172
15717,South Birch Avenue East,74033,35.9352674,-96.0078865
15624,South Broadway Street East,74033,35.9360218,-96.0104875
2,East 157th Place South,74033,35.9348411,-96.0098921
10,East 157th Place South,74033,35.9348070,-96.0093859
18,East 157th Place South,74033,35.9347651,-96.0088325
15628,South Broadway Street East,74033,35.9358570,-96.0105017
15604,South Broadway Street East,74033,35.9370292,-96.0105216
15715,South Broadway Street East,74033,35.9346836,-96.0098954
15621,South Broadway Street East,74033,35.9364518,-96.0099564
15619,South Birch Avenue East,74033,35.9363109,-96.0089400
15605,South College Avenue East,74033,35.9367027,-96.0078355
1,East 157th Place South,74033,35.9352474,-96.0099267
15734,South Birch Avenue East,74033,35.9344070,-96.0083039
15605,South Broadway Street East,74033,35.9370342,-96.0099022
12,East 157th Street South,74033,35.9356078,-96.0094538
15615,South Birch Avenue East,74033,35.9364747,-96.0090022
19,East 157th Place South,74033,35.9352425,-96.0090765
15631,South College Avenue East,74033,35.9356271,-96.0078566
15710,South Birch Avenue East,74033,35.9353727,-96.0087952
15726,South Birch Avenue East,74033,35.9347661,-96.0082830
15600,South Broadway Street East,74033,35.9371560,-96.0103621
5,East 157th Place South,74033,35.9352341,-96.0097216
110,East 156th Place South,74033,35.9367259,-96.0085911
15701,South Birch Avenue East,74033,35.9359535,-96.0087977
15606,South College Avenue East,74033,35.9364725,-96.0083855
15722,South College Avenue East,74033,35.9357530,-96.0084021
15627,South College Avenue East,74033,35.9358095,-96.0078434
15730,South Birch Avenue East,74033,35.9345816,-96.0083003
15620,South Broadway Street East,74033,35.9362025,-96.0104731
14,East 157th Place South,74033,35.9346943,-96.0091226
15624,South Birch Avenue East,74033,35.9360643,-96.0095149
15700,South Broadway Street East,74033,35.9354663,-96.0104396
15702,South Birch Avenue East,74033,35.9356881,-96.0092009
15021,South Jordan Court West,74033,35.9455430,-96.0165651
15031,South Jordan Court West,74033,35.9453605,-96.0165014
15041,South Jordan Court West,74033,35.9450274,-96.0165324
15052,South Jordan Court West,74033,35.9449810,-96.0170035
760,West 150th Street South,74033,35.9454527,-96.0172924
770,West 150th Street South,74033,35.9454833,-96.0175081
15042,South Jordan Court West,74033,35.9451596,-96.0171714
780,West 150th Street South,74033,35.9454851,-96.0177154
750,West 150th Street South,74033,35.9454628,-96.0170688
806,West 150th Place South,74033,35.9450021,-96.0184124
798,West 150th Place South,74033,35.9449767,-96.0181647
790,West 150th Place South,74033,35.9451891,-96.0177123
796,West 150th Place South,74033,35.9449969,-96.0178661
846,West 150th Place South,74033,35.9450155,-96.0193677
886,West 150th Place South,74033,35.9451189,-96.0202977
836,West 150th Place South,74033,35.9450182,-96.0191304
826,West 150th Place South,74033,35.9450096,-96.0189013
876,West 150th Place South,74033,35.9449941,-96.0200653
856,West 150th Place South,74033,35.9450257,-96.0196005
866,West 150th Place South,74033,35.9450189,-96.0198365
15032,South Justin Avenue West,74033,35.9454117,-96.0202925
800,West 150th Street South,74033,35.9456434,-96.0181966
810,West 150th Street South,74033,35.9457904,-96.0185614
820,West 150th Street South,74033,35.9458955,-96.0188294
830,West 150th Street South,74033,35.9459430,-96.0190651
840,West 150th Street South,74033,35.9459544,-96.0193025
860,West 150th Street South,74033,35.9459519,-96.0197812
15002,South Justin Avenue West,74033,35.9459864,-96.0202993
15012,South Justin Avenue West,74033,35.9457985,-96.0202848
15022,South Justin Avenue West,74033,35.9455953,-96.0202690
12707,South 33rd Avenue West,74033,35.9777295,-96.0264057
850,West 150th Street South,74033,35.9459609,-96.0195338
14823,South 26th Avenue West,74033,35.9479720,-96.0202365
13011B,South 33rd Avenue West,74033,35.9738717,-96.0273971
13011,South 33rd Avenue West,74033,35.9739604,-96.0263176
14851,South Jordan Court West,74033,35.9479582,-96.0176302
14861,South Jordan Court West,74033,35.9479951,-96.0173976
14871,South Jordan Court West,74033,35.9479853,-96.0171613
14881,South Jordan Court West,74033,35.9479661,-96.0169013
14891,South Jordan Court West,74033,35.9478796,-96.0166602
14901,South Jordan Court West,74033,35.9476722,-96.0165224
14911,South Jordan Court West,74033,35.9474655,-96.0164937
14921,South Jordan Court West,74033,35.9472730,-96.0165069
14931,South Jordan Court West,74033,35.9470690,-96.0165046
14941,South Jordan Court West,74033,35.9468824,-96.0165096
14951,South Jordan Court West,74033,35.9466964,-96.0165169
14961,South Jordan Court West,74033,35.9464978,-96.0165555
14971,South Jordan Court West,74033,35.9463072,-96.0165658
14981,South Jordan Court West,74033,35.9461216,-96.0165932
15001,South Jordan Court West,74033,35.9459145,-96.0165898
15011,South Jordan Court West,74033,35.9457316,-96.0165761
895,West 150th Street South,74033,35.9464095,-96.0203148
885,West 150th Street South,74033,35.9464077,-96.0200737
14901,South 26th Avenue West,74033,35.9475691,-96.0201842
841,West 150th Street South,74033,35.9463971,-96.0193263
851,West 150th Street South,74033,35.9464087,-96.0195660
841,West 149th Street South,74033,35.9480000,-96.0195121
851,West 149th Street South,74033,35.9479930,-96.0197397
821,West 149th Street South,74033,35.9479908,-96.0190399
831,West 149th Street South,74033,35.9479984,-96.0192672
14712,South Justin Avenue West,74033,35.9495942,-96.0202754
821,West 150th Street South,74033,35.9463892,-96.0188473
831,West 150th Street South,74033,35.9463957,-96.0190915
15040,South Dogwood Street West,74033,35.9456778,-96.0066260
15045,South Broadway Street West,74033,35.9458680,-96.0078826
803,West 150th Street South,74033,35.9462308,-96.0183991
811,West 150th Street South,74033,35.9463069,-96.0185921
801,West 150th Street South,74033,35.9461393,-96.0182173
751,West 150th Street South,74033,35.9458969,-96.0171189
761,West 150th Street South,74033,35.9459057,-96.0173410
771,West 150th Street South,74033,35.9459223,-96.0175652
781,West 150th Street South,74033,35.9459813,-96.0177633
791,West 150th Street South,74033,35.9460567,-96.0179991
14944,South Courtney Lane West,74033,35.9463356,-96.0178049
14984,South Courtney Lane West,74033,35.9462965,-96.0175735
14950,South Courtney Lane West,74033,35.9462605,-96.0173441
14954,South Courtney Lane West,74033,35.9462490,-96.0171044
856,West 149th Place South,74033,35.9467571,-96.0195761
846,West 149th Place South,74033,35.9467491,-96.0193304
836,West 149th Place South,74033,35.9467533,-96.0191021
826,West 149th Place South,74033,35.9467437,-96.0188620
816,West 149th Place South,74033,35.9467606,-96.0186386
14930,South Courtney Lane West,74033,35.9466393,-96.0184371
14936,South Courtney Lane West,74033,35.9465158,-96.0182291
14938,South Courtney Lane West,74033,35.9464200,-96.0180487
830,West 149th Street South,74033,35.9475267,-96.0190581
840,West 149th Street South,74033,35.9475551,-96.0192921
850,West 149th Street South,74033,35.9475431,-96.0195644
825,West 149th Place South,74033,35.9471942,-96.0189118
835,West 149th Place South,74033,35.9472005,-96.0191205
845,West 149th Place South,74033,35.9472027,-96.0193759
855,West 149th Place South,74033,35.9472029,-96.0195920
14855,South Courtney Lane West,74033,35.9480210,-96.0185179
14905,South Courtney Lane West,74033,35.9478297,-96.0185502
14909,South Courtney Lane West,74033,35.9476451,-96.0185388
14915,South Courtney Lane West,74033,35.9474724,-96.0184822
14919,South Courtney Lane West,74033,35.9473059,-96.0183948
14925,South Courtney Lane West,74033,35.9471586,-96.0182646
14929,South Courtney Lane West,74033,35.9470004,-96.0180891
14935,South Courtney Lane West,74033,35.9468950,-96.0179280
14939,South Courtney Lane West,74033,35.9468020,-96.0177324
14945,South Courtney Lane West,74033,35.9467478,-96.0175340
14949,South Courtney Lane West,74033,35.9467043,-96.0173019
14955,South Courtney Lane West,74033,35.9467012,-96.0170742
430,West 149th Place South,74033,35.9461634,-96.0130894
442,West 149th Place South,74033,35.9461633,-96.0132959
464,West 149th Place South,74033,35.9461656,-96.0135144
496,West 149th Place South,74033,35.9461590,-96.0137319
508,West 149th Place South,74033,35.9461651,-96.0139520
530,West 149th Place South,74033,35.9461486,-96.0141711
552,West 149th Place South,74033,35.9461413,-96.0143858
578,West 149th Place South,74033,35.9461506,-96.0146172
596,West 149th Place South,74033,35.9461578,-96.0148325
408,West 149th Place South,74033,35.9461241,-96.0128528
407,West 150th Street South,74033,35.9458106,-96.0128692
429,West 150th Street South,74033,35.9457930,-96.0130699
441,West 150th Street South,74033,35.9457824,-96.0132964
463,West 150th Street South,74033,35.9457949,-96.0135147
485,West 150th Street South,74033,35.9457964,-96.0137378
517,West 150th Street South,74033,35.9457964,-96.0139550
539,West 150th Street South,74033,35.9457926,-96.0141724
551,West 150th Street South,74033,35.9458130,-96.0143970
573,West 150th Street South,74033,35.9458359,-96.0146161
595,West 150th Street South,74033,35.9457972,-96.0148442
14844,South Xenophon Avenue West,74033,35.9480409,-96.0152169
643,West 148th Place South,74033,35.9480472,-96.0154285
675,West 148th Place South,74033,35.9480637,-96.0156610
14846,South Yukon Avenue West,74033,35.9480336,-96.0159086
14858,South Yukon Avenue West,74033,35.9478028,-96.0159648
14860,South Yukon Avenue West,74033,35.9476200,-96.0159119
14872,South Yukon Avenue West,74033,35.9474191,-96.0159134
14886,South Yukon Avenue West,74033,35.9472781,-96.0159454
14908,South Yukon Avenue West,74033,35.9470539,-96.0159414
14920,South Yukon Avenue West,74033,35.9468890,-96.0159325
14932,South Yukon Avenue West,74033,35.9467074,-96.0159232
14615,South Vancouver Avenue West,74033,35.9518093,-96.0124389
14623,South Vancouver Avenue West,74033,35.9516302,-96.0124522
14637,South Vancouver Avenue West,74033,35.9512774,-96.0124743
14633,South Vancouver Avenue West,74033,35.9514561,-96.0124612
427,West 149th Place South,74033,35.9465338,-96.0130680
405,West 149th Place South,74033,35.9465554,-96.0128670
483,West 149th Place South,74033,35.9465552,-96.0137311
571,West 149th Place South,74033,35.9465406,-96.0146103
515,West 149th Place South,74033,35.9465417,-96.0139473
593,West 149th Place South,74033,35.9465429,-96.0148317
537,West 149th Place South,74033,35.9465441,-96.0141727
461,West 149th Place South,74033,35.9465365,-96.0135132
449,West 149th Place South,74033,35.9465288,-96.0133068
559,West 149th Place South,74033,35.9465426,-96.0143905
628,West 149th Street South,74033,35.9469134,-96.0152715
406,West 149th Street South,74033,35.9468811,-96.0128627
506,West 149th Street South,74033,35.9469018,-96.0139503
594,West 149th Street South,74033,35.9469113,-96.0148353
550,West 149th Street South,74033,35.9469107,-96.0143883
462,West 149th Street South,74033,35.9469045,-96.0135090
494,West 149th Street South,74033,35.9469038,-96.0137295
572,West 149th Street South,74033,35.9469097,-96.0146158
450,West 149th Street South,74033,35.9469037,-96.0132921
640,West 149th Street South,74033,35.9469138,-96.0154739
606,West 149th Street South,74033,35.9469093,-96.0150447
428,West 149th Street South,74033,35.9468990,-96.0130791
538,West 149th Street South,74033,35.9469094,-96.0141718
603,West 149th Street South,74033,35.9472982,-96.0150524
513,West 149th Street South,74033,35.9472783,-96.0139464
481,West 149th Street South,74033,35.9472985,-96.0137282
14877,South Yukon Avenue West,74033,35.9473097,-96.0154715
469,West 149th Street South,74033,35.9472763,-96.0135163
625,West 149th Street South,74033,35.9472970,-96.0152704
579,West 149th Street South,74033,35.9472972,-96.0146088
591,West 149th Street South,74033,35.9473002,-96.0148277
535,West 149th Street South,74033,35.9472803,-96.0141685
557,West 149th Street South,74033,35.9472914,-96.0143945
14865,South Yukon Avenue West,74033,35.9476323,-96.0154699
532,West 148th Place South,74033,35.9476498,-96.0141625
602,West 148th Place South,74033,35.9476502,-96.0150478
500,West 148th Place South,74033,35.9476509,-96.0139481
578,West 148th Place South,74033,35.9476527,-96.0146051
466,West 148th Place South,74033,35.9476483,-96.0135066
624,West 148th Place South,74033,35.9476326,-96.0152682
554,West 148th Place South,74033,35.9476501,-96.0143899
590,West 148th Place South,74033,35.9476529,-96.0148368
490,West 148th Place South,74033,35.9476475,-96.0137319
577,West 148th Place South,74033,35.9480226,-96.0146046
533,West 148th Place South,74033,35.9480178,-96.0141692
489,West 148th Place South,74033,35.9480221,-96.0137318
555,West 148th Place South,74033,35.9480252,-96.0143833
511,West 148th Place South,74033,35.9480180,-96.0139537
14847,South Xenophon Avenue West,74033,35.9480399,-96.0148249
467,West 148th Place South,74033,35.9480176,-96.0135085
598,West 148th Street South,74033,35.9484450,-96.0148084
536,West 148th Street South,74033,35.9484610,-96.0143187
556,West 148th Street South,74033,35.9484523,-96.0145707
514,West 148th Street South,74033,35.9484571,-96.0140681
444,West 148th Street South,74033,35.9484451,-96.0133642
468,West 148th Street South,74033,35.9484399,-96.0135979
492,West 148th Street South,74033,35.9484466,-96.0138320
674,West 148th Street South,74033,35.9484745,-96.0159752
618,West 148th Street South,74033,35.9484577,-96.0152499
624,West 148th Street South,74033,35.9484619,-96.0154982
648,West 148th Street South,74033,35.9484618,-96.0157528
13815,South Casper Street West,74033,35.9629704,-96.0107795
80,East 141st Street South,74033,35.9587170,-96.0067782
2155,West 181st Street South,74047,35.9021202,-96.0190313
140,West 151st Street South,74033,35.9427962,-96.0097964
