House number,Street name,Postal code,Latitude,Longitude
102,East Noble Avenue,73044,35.8809460,-97.4257211
2108,South Division Street,73044,35.8569583,-97.4250875
2530,East Noble Avenue,73044,35.8790024,-97.3961066
117,West Harrison Avenue,73044,35.8767936,-97.4261372
117,West Harrison Avenue,73044,35.8766282,-97.4261405
224,West Harrison Avenue,73044,35.8772208,-97.4273077
224,South Division Street,73044,35.8761184,-97.4250171
108,North Wentz Street,73044,35.8765341,-97.4251226
414,Heather Road,73044,35.8821123,-97.3953824
5326,Ellie Mae Drive,73044,35.8227164,-97.4257575
1621,South Division Street,73044,35.8618701,-97.4259617
1608,South Division Street,73044,35.8628511,-97.4226761
223,North Division Street,73044,35.8799439,-97.4257526
102,West Noble Avenue,73044,35.8803922,-97.4257147
512,South Division Street,73044,35.8735540,-97.4247367
301,South Division Street,73044,35.8757502,-97.4255281
1527,South Division Street,73044,35.8611091,-97.4258171
1058,West Industrial Road,73044,35.8574441,-97.4392725
2324,East Noble Avenue,73044,35.8787695,-97.3968513
2530,East Noble Avenue,73044,35.8790131,-97.3961946
2318,East Noble Avenue,73044,35.8787995,-97.3977004
121,Cimarron Road,73044,35.8771005,-97.3962384
223,East Oklahoman Avenue,73044,35.8766833,-97.3972213
2325,East Oklahoma Avenue,73044,35.8777165,-97.3963381
218,Heather Road,73044,35.8801604,-97.3962713
2222,East Heather Road,73044,35.8801048,-97.3975228
2000,Woodlawn Avenue,73044,35.8741168,-97.4001181
2219,Woodlawn Avenue,73044,35.8740603,-97.3976865
2227,Iron Mound Drive,73044,35.8748624,-97.3972146
1800,East Oklahoman Avenue,73044,35.8782656,-97.4014996
705,East Oklahoma Avenue,73044,35.8777290,-97.4171112
719,South Division,73044,35.8709714,-97.4257197
1308,South Division Street,73044,35.8653735,-97.4248350
1624,South Division Street,73044,35.8617736,-97.4249688
5322,South Division Street,73044,35.8234128,-97.4176950
5400,South Division Street,73044,35.8230393,-97.4171930
5302,South Division Street,73044,35.8243571,-97.4183516
5307,South Division Street,73044,35.8232297,-97.4202708
310,East Noble Avenue,73044,35.8804107,-97.4231918
124,North 1st Street,73044,35.8788869,-97.4263374
107,West Cleveland Avenue,73044,35.8788765,-97.4258016
108,South Division Street,73044,35.8777010,-97.4251607
104,East Oklahoma Avenue,73044,35.8782985,-97.4251016
103,West Oklahoma Avenue,73044,35.8777487,-97.4257627
109,West Oklahoma Avenue,73044,35.8777625,-97.4259740
101,West Oklahoma Avenue,73044,35.8778314,-97.4255982
111,West Oklahoma Avenue,73044,35.8777669,-97.4260572
115,West Oklahoma Avenue,73044,35.8777640,-97.4261431
124,West Harrison Avenue,73044,35.8773133,-97.4264908
123,West Oklahoma Avenue,73044,35.8777624,-97.4263222
108,West Harrison Avenue,73044,35.8772611,-97.4258030
221,East Harrison Avenue,73044,35.8767663,-97.4230248
214,West Oklahoma Avenue,73044,35.8782786,-97.4272287
120,North Division Street,73044,35.8788677,-97.4250047
123,North 1st Street,73044,35.8788898,-97.4268999
111,East Noble Avenue,73044,35.8798231,-97.4248043
221,North 2nd Street,73044,35.8796697,-97.4279164
112,West Noble Avenue,73044,35.8803673,-97.4261006
306,West Oklahoma Avenue,73044,35.8782857,-97.4278884
2323,West Cleveland Avenue,73044,35.8788949,-97.4285239
325,West Cleveland Avenue,73044,35.8786810,-97.4287087
200,North Crooks Drive,73044,35.8934969,-97.4216695
2130,South Division Street,73044,35.8564875,-97.4247627
2001,South Division Street,73044,35.8581507,-97.4258958
1916,South Division Street,73044,35.8585977,-97.4248472
1923,South Division Street,73044,35.8585017,-97.4258097
1809,South Division Street,73044,35.8600394,-97.4257559
1606,South Division Street,73044,35.8600096,-97.4251290
200,Sigma Place,73044,35.8594455,-97.4269755
205,Sigma Place,73044,35.8583450,-97.4270823
2019,Ruhl Drive,73044,35.8581165,-97.4282077
1923,Ruhl Drive,73044,35.8584907,-97.4280171
230,West Sigma Place,73044,35.8590929,-97.4279689
622,South Division Street,73044,35.8633991,-97.4258634
223,South Division Street,73044,35.8762229,-97.4256823
215,South Division Street,73044,35.8763707,-97.4255494
301,N Wentz,73044,35.8803946,-97.4243613
1112,North Wentz Street,73044,35.8888409,-97.4236653
5103,South Division Street,73044,35.8240246,-97.4229239
2408,Karl Street,73044,35.8539238,-97.4306366
2405,Karl Street,73044,35.8539810,-97.4311418
2420,Karl Street,73044,35.8534912,-97.4306436
2423,Karl Street,73044,35.8534388,-97.4311770
2512,Karl Street,73044,35.8530387,-97.4306759
2507,Karl Street,73044,35.8531124,-97.4311660
2524,Connie Lane,73044,35.8523388,-97.4306805
2612,Connie Lane,73044,35.8512822,-97.4307771
2324,Karl Street,73044,35.8545687,-97.4306415
2313,Karl Street,73044,35.8547442,-97.4311688
2310,Karl Street,73044,35.8548611,-97.4307117
2301,Karl Street,73044,35.8551268,-97.4311569
2304,Karl Street,73044,35.8551223,-97.4306936
2220,Karl Street,73044,35.8554734,-97.4306687
2219,Karl Street,73044,35.8554712,-97.4311941
2205,Karl Street,73044,35.8559647,-97.4311626
503,West Industrial Road,73044,35.8559780,-97.4306135
2503,Minnie Rose Street,73044,35.8530040,-97.4333587
2420,Minnie Rose Street,73044,35.8534212,-97.4326358
2506,Minnie Rose Street,73044,35.8528722,-97.4328158
2423,Minnie Rose Street,73044,35.8533288,-97.4333238
2414,Minnie Rose Street,73044,35.8536853,-97.4327113
2408,Minnie Rose Street,73044,35.8539484,-97.4326545
2328,Minnie Rose Street,73044,35.8542118,-97.4326479
2320,Minnie Rose Street,73044,35.8545190,-97.4326304
2327,Minnie Rose Street,73044,35.8542037,-97.4333077
2321,Minnie Rose Street,73044,35.8545114,-97.4333103
2301,Minnie Rose Street,73044,35.8551334,-97.4333386
2302,Minnie Rose Street,73044,35.8551680,-97.4326492
611,West Industrial Road,73044,35.8559784,-97.4322818
2207,Minnie Rose Street,73044,35.8559614,-97.4333559
2208,Minnie Rose Street,73044,35.8559636,-97.4328235
2524,Davis Road,73044,35.8523005,-97.4337396
311,West Industrial Road,73044,35.8558668,-97.4286555
323,West Industrial Road,73044,35.8559093,-97.4290149
405,West Industrial Road,73044,35.8559177,-97.4295058
2211,South Division Street,73044,35.8559064,-97.4260834
1612,South Division Street,73044,35.8610992,-97.4250614
110,West Lake Road,73044,35.8238015,-97.4257467
4318,South Division Street,73044,35.8341551,-97.4233043
4203,South Division Street,73044,35.8357741,-97.4261797
2919,South Division Street,73044,35.8484719,-97.4260254
2301,South Division Street,73044,35.8548696,-97.4260009
1406,West Cleveland Avenue,73044,35.8786295,-97.4421139
305,East Industrial Road,73044,35.8559284,-97.4222565
309,East Industrial Road,73044,35.8559603,-97.4225469
307,East Industrial Road,73044,35.8555348,-97.4226688
2302,South Division Street,73044,35.8548585,-97.4250051
2115,Ruhl Drive,73044,35.8570669,-97.4277654
2112,Polly Place,73044,35.8568718,-97.4308987
2111,Polly Place,73044,35.8568752,-97.4313717
2105,Polly Place,73044,35.8571033,-97.4313533
2104,Polly Place,73044,35.8571010,-97.4308874
2028,Polly Place,73044,35.8573368,-97.4309326
2027,Polly Place,73044,35.8573284,-97.4313640
2021,Polly Place,73044,35.8575547,-97.4314001
2015,Polly Place,73044,35.8577816,-97.4313583
2018,Polly Place,73044,35.8576928,-97.4308873
2008,Polly Place,73044,35.8579759,-97.4308779
2002,Polly Place,73044,35.8582259,-97.4308831
2007,Polly Place,73044,35.8580057,-97.4313582
2001,Polly Place,73044,35.8582121,-97.4313919
1926,Polly Place,73044,35.8584593,-97.4309334
604,Bella Place,73044,35.8586835,-97.4316357
1912,Gloria Place,73044,35.8592199,-97.4322819
1903,Gloria Place,73044,35.8592167,-97.4327525
1915,Gloria Place,73044,35.8588005,-97.4328002
2001,Gloria Place,73044,35.8582320,-97.4327367
2007,Gloria Place,73044,35.8580069,-97.4327490
2002,Gloria Place,73044,35.8582396,-97.4322570
2008,Gloria Place,73044,35.8579971,-97.4322466
2016,Gloria Place,73044,35.8577816,-97.4322621
2022,Gloria Place,73044,35.8575544,-97.4322656
2028,Gloria Place,73044,35.8573273,-97.4322633
2104,Gloria Place,73044,35.8571026,-97.4322621
2105,Gloria Place,73044,35.8571035,-97.4327330
2111,Gloria Place,73044,35.8568790,-97.4327177
2112,Gloria Place,73044,35.8568792,-97.4322731
2118,Gloria Place,73044,35.8566544,-97.4322732
2124,Gloria Place,73044,35.8564437,-97.4321102
2117,Gloria Place,73044,35.8566497,-97.4327409
1803,South Division Street,73044,35.8602497,-97.4259663
406,East Oklahoma Avenue,73044,35.8783413,-97.4212385
406,East Oklahoma Avenue,73044,35.8783808,-97.4209530
519,East Cleveland Avenue,73044,35.8788778,-97.4193148
623,East Cleveland Avenue,73044,35.8788487,-97.4178901
123,South Capitol Street,73044,35.8772047,-97.4153574
911,East Harrison Avenue,73044,35.8767803,-97.4143935
311,Airport Road,73044,35.8504970,-97.4223401
120,West Cleveland Avenue,73044,35.8792718,-97.4263205
124,West Oklahoma Avenue,73044,35.8783195,-97.4264357
120,West Oklahoma Avenue,73044,35.8783002,-97.4262625
118,West Oklahoma Avenue,73044,35.8783002,-97.4261389
116,West Oklahoma Avenue,73044,35.8783544,-97.4260522
114,West Oklahoma Avenue,73044,35.8783157,-97.4259682
112,West Oklahoma Avenue,73044,35.8783544,-97.4258399
110,West Oklahoma Avenue,73044,35.8783007,-97.4257099
106,West Oklahoma Avenue,73044,35.8783557,-97.4255834
209,East Springer Avenue,73044,35.8745514,-97.4238133
120,West Harrison Avenue,73044,35.8772609,-97.4263657
103 1/2,West Harrison Avenue,73044,35.8767486,-97.4263917
121,West Harrison Avenue,73044,35.8767334,-97.4262648
223,South 1st Street,73044,35.8760851,-97.4268241
202,West Harrison Avenue,73044,35.8772383,-97.4267994
202,West Harrison Avenue,73044,35.8773888,-97.4268005
114,East Oklahoma Avenue,73044,35.8782667,-97.4245130
112,East Oklahoma Avenue,73044,35.8782714,-97.4246452
110,East Oklahoma Avenue,73044,35.8782708,-97.4247761
2527,South Division Street,73044,35.8527408,-97.4258172
2404,South Division Street,73044,35.8535191,-97.4242322
2610,South Division Street,73044,35.8515306,-97.4247596
2611,South Division Street,73044,35.8511922,-97.4256558
115,East Grant Avenue,73044,35.8725546,-97.4244256
110,East Harrison Avenue,73044,35.8773009,-97.4249517
2320,South Division Street,73044,35.8544829,-97.4250173
5222,South Sooner Road,73044,35.8241765,-97.4249721
2906,South Division Street,73044,35.8487990,-97.4250440
2405,South Division Street,73044,35.8538953,-97.4258976
109,Rush Road,73044,35.8518497,-97.4259864
2715,South Division Street,73044,35.8507282,-97.4256960
2509,South Phillips Street,73044,35.8527365,-97.4279032
2423,South Phillips Street,73044,35.8532708,-97.4278724
2405,South Division Street,73044,35.8535047,-97.4273002
2805,South Division Street,73044,35.8492420,-97.4258844
1730,South Division Road,73044,35.8604944,-97.4251637
1804,South Division Road,73044,35.8602985,-97.4251876
1528,South Division Road,73044,35.8608077,-97.4251717
502,Jon Street,73044,35.8922354,-97.4202063
428,Jon Street,73044,35.8922301,-97.4204137
422,Jon Street,73044,35.8922191,-97.4206456
416,Jon Street,73044,35.8922156,-97.4208647
412,Jon Street,73044,35.8922222,-97.4210807
406,Jon Street,73044,35.8922203,-97.4212902
902,North Wentz Street,73044,35.8869063,-97.4234464
702,North Crooks Drive,73044,35.8945308,-97.4174671
602,East College Avenue,73044,35.8860018,-97.4191486
821,Wentz Street,73044,35.8860982,-97.4243551
815,Wentz Street,73044,35.8859705,-97.4244087
813,Wentz Street,73044,35.8858594,-97.4243665
811,Wentz Street,73044,35.8857523,-97.4243690
805,Wentz Street,73044,35.8856334,-97.4243820
803,Wentz Street,73044,35.8855158,-97.4244029
824,Wentz Street,73044,35.8861723,-97.4238251
818,Wentz Street,73044,35.8860118,-97.4238373
816,Wentz Street,73044,35.8859342,-97.4237938
812,Wentz Street,73044,35.8857713,-97.4238354
806,Wentz Street,73044,35.8856171,-97.4237442
823,North Broad Street,73044,35.8861780,-97.4230675
819,North Broad Street,73044,35.8860367,-97.4230708
811,North Broad Street,73044,35.8857709,-97.4230723
805,North Broad Street,73044,35.8856248,-97.4230841
803,North Broad Street,73044,35.8854812,-97.4230850
824,North Broad Street,73044,35.8861505,-97.4225211
816,North Broad Street,73044,35.8859204,-97.4225420
812,North Broad Street,73044,35.8857813,-97.4225469
808,North Broad Street,73044,35.8856258,-97.4225421
804,North Broad Street,73044,35.8854961,-97.4225303
823,North Ash Street,73044,35.8862017,-97.4218169
815,North Ash Street,73044,35.8859209,-97.4218271
809,North Ash Street,73044,35.8856948,-97.4218236
801,North Ash Street,73044,35.8854989,-97.4218232
812,North Broad Street,73044,35.8857698,-97.4212032
808,North Broad Street,73044,35.8856277,-97.4212342
802,North Broad Street,73044,35.8854921,-97.4211839
416,East College Avenue,73044,35.8854950,-97.4207588
801,North Oak Street,73044,35.8854944,-97.4205232
823,North Oak Street,73044,35.8861947,-97.4205307
1213,Dale Avenue,73044,35.8860719,-97.4398912
216,South Broad Street,73044-4939,35.8763098,-97.4223560
200,South Academy Road,73044,35.8764962,-97.4619709
710,East Warner Avenue,73044,35.8814531,-97.4170804
411,North Elm Street,73044,35.8815122,-97.4192862
401,Cimarron Boulevard,73044,35.8747739,-97.3957026
501,South Division Street,73044,35.8735684,-97.4263024
315,East College Avenue,73044,35.8851758,-97.4220486
11600,Blue Heron Creek,73044,35.7581068,-97.3542428
5025,South Sooner Road,73044,35.8263646,-97.4259699
