House number,Street name,Postal code,Latitude,Longitude
100,North Midwest Boulevard,73110,35.4648726,-97.3868468
1342,South Douglas Boulevard,73130,35.4519306,-97.3704908
7114,Southeast 15th Street,73110,35.4493972,-97.4014142
1700,South Sooner Road,73110,35.4472990,-97.4231509
5750,Will Rogers Road,73110,35.4472548,-97.4210434
1833,Center Drive,73110,35.4450962,-97.4211068
5661,Tinker Diagonal,73110,35.4453162,-97.4219731
5601,Tinker Diagonal,73110,35.4459222,-97.4230873
1724,South Sooner Road,73110,35.4465881,-97.4234827
5824,Southeast 15th Street,73110,35.4483691,-97.4194613
2400,South Douglas Boulevard,73130,35.4410858,-97.3702292
6521,Southeast 29th Street,73110,35.4364417,-97.4149083
249,North Douglas Boulevard,73130,35.4670796,-97.3725100
108,South Douglas Boulevard,73130,35.4632549,-97.3703276
101,South Douglas Boulevard,73130,35.4632375,-97.3719492
8121,National Avenue,73110,35.4668198,-97.3866821
7503,Southeast 29th Street,73110,35.4356039,-97.3924205
2350,South Midwest Boulevard,73110,35.4413715,-97.3880320
1805,South Air Depot Boulevard,73110,35.4472736,-97.4066000
601,South Air Depot Boulevard,73110,35.4597567,-97.4067412
11300,Southeast 15th Street,73130,35.4493273,-97.3307004
1701,South Air Depot Boulevard,73110,35.4483841,-97.4066235
9001,Northeast 23rd Street,73141,35.4937502,-97.3704368
5691,Tinker Diagonal,73110,35.4443319,-97.4205772
7141,Southeast 29th Street,73110,35.4357312,-97.4025591
7151,Southeast 29th Street,73110,35.4373529,-97.4029000
1101,South Midwest Boulevard,73130,35.4548825,-97.3895569
7515,Southeast 15th Street,73110,35.4504558,-97.3894964
1403,South Midwest Boulevard,73110,35.4511603,-97.3889119
100,South Douglas Boulevard,73130,35.4635876,-97.3701870
7601,East Reno Avenue,73110,35.4652247,-97.3915795
7221,Southeast 29th Street,73110,35.4358004,-97.3978463
7085,Southeast 29th Street,73110,35.4357074,-97.4050498
7195,Southeast 29th Street,73110,35.4357361,-97.4003665
7305,Southeast 29th Street,73110-6122,35.4374743,-97.3960372
7271,Southeast 29th Street,73110,35.4375140,-97.3975090
7401,Southeast 29th Street,73110,35.4374612,-97.3940926
7171,Southeast 29th Street,73110,35.4356244,-97.4019916
7001,Southeast 29th Street,73110,35.4356663,-97.4054234
7217,Southeast 29th Street,73110,35.4357359,-97.3989813
7331,Southeast 29th Street,73110,35.4357188,-97.3947260
7405,Southeast 29th Street,73110,35.4358422,-97.3933602
2900,South Air Depot Boulevard,73110,35.4360197,-97.4055051
7181,Southeast 29th Street,73110,35.4357055,-97.4011972
7301,Southeast 29th Street,73110,35.4357662,-97.3969647
2911,South Air Depot Boulevard,73110,35.4356550,-97.4066505
215,West McArthur Drive,73110,35.4416404,-97.4040527
705,East Rickenbacker Drive,73110,35.4430117,-97.3981996
9909,Southeast 15th Street,73130,35.4500710,-97.3544940
3210,Belaire Drive,73130,35.4739165,-97.3904584
7025,Southeast 15th Street,73110,35.4501432,-97.4024954
5701,Tinker Diagonal,73110,35.4442902,-97.4198356
1700,South Sooner Road,73110,35.4472652,-97.4228426
5653,Tinker Diagonal,73110,35.4461222,-97.4223827
1833,Warren Drive,73110,35.4453233,-97.4207622
1600,South Sooner Road,73110,35.4489440,-97.4214460
2400,South Air Depot Boulevard,73110,35.4399151,-97.4057020
300,North Air Depot Boulevard,73110,35.4677852,-97.4053332
7212,East Reno Avenue,73110,35.4634568,-97.4023963
7000,East Reno Avenue,73110,35.4636878,-97.4057963
5700,East Reno Avenue,73110,35.4636249,-97.4219580
5600,East Reno Avenue,73110,35.4638403,-97.4228441
6422,East Reno Avenue,73110,35.4637293,-97.4173422
6120,East Reno Avenue,73110,35.4637707,-97.4175490
2816,North Woodcrest Drive,73110,35.4648330,-97.4171797
6300,East Reno Avenue,73110,35.4636296,-97.4152916
6312,East Reno Avenue,73110,35.4636727,-97.4145568
6500,East Reno Avenue,73110,35.4635685,-97.4128716
6600,East Reno Avenue,73110,35.4637679,-97.4115709
6610,East Reno Avenue,73110,35.4636301,-97.4111264
6700,East Reno Avenue,73110,35.4634930,-97.4107147
105,South Air Depot Boulevard,73110,35.4635001,-97.4065918
6904,East Reno Avenue,73110,35.4635621,-97.4079449
6930,East Reno Avenue,73110,35.4638112,-97.4066579
6920,East Reno Avenue,73110,35.4637384,-97.4069682
217,South Air Depot,73110,35.4621421,-97.4067307
307,South Air Depot Boulevard,73110,35.4611262,-97.4067773
608,South Air Depot Boulevard,73110,35.4590817,-97.4055818
1621,Maple Drive,73110,35.4552733,-97.4021366
6166,Tinker Diagonal,73110,35.4394441,-97.4165622
6000,Prosper Boulevard,73110,35.4426289,-97.4177533
6501,Tinker Diagonal,73110,35.4382229,-97.4124214
7519,Southeast 29th Street,73110,35.4358987,-97.3915256
6701,Tinker Diagonal,73110,35.4364645,-97.4100702
6821,Southeast 29th Street Trail,73110,35.4363842,-97.4095550
433,Planet Court,73110,35.4359752,-97.4095620
700,South Air Depot Boulevard,73110,35.4485324,-97.4056412
2000,South Midwest Boulevard,73110,35.4453866,-97.3881145
7900,East Reno Avenue,73110,35.4636903,-97.3890364
7520,East Reno Avenue,73110,35.4625463,-97.3896034
8032,Coachlight Drive,73110,35.4627843,-97.3870854
8401,East Reno Avenue,73110,35.4656965,-97.3821239
7020,East Reno Avenue,73110,35.4630016,-97.4050893
2512,North Glenhaven Drive,73110,35.4626562,-97.4037886
6345,East Reno Avenue,73110,35.4651880,-97.4153788
2908,North Glenhaven Drive,73110,35.4662043,-97.4024146
1401,North Midwest Boulevard,73110,35.4840295,-97.3907110
1505,North Midwest Boulevard,73110,35.4852470,-97.3908101
460,West Silverwood Drive,73110,35.4809582,-97.4052429
1250,North Air Depot Boulevard,73110,35.4821266,-97.4052443
777,North Air Depot Boulevard,73110,35.4766683,-97.4079302
429,North Air Depot Boulevard,73110,35.4704414,-97.4075534
2828,Parklawn Drive,73110,35.4666893,-97.3920180
100,North Midwest Boulevard,73110,35.4650095,-97.3861404
1312,North Midwest Boulevard,73110,35.4836476,-97.3876372
101,North Midwest Boulevard,73110,35.4647843,-97.3891204
140,South Midwest Boulevard,73110,35.4630751,-97.3879507
300,South Midwest Boulevard,73110-4642,35.4623953,-97.3881025
901,Hazelwood Drive,73110,35.4763387,-97.3869813
238,North Midwest Boulevard,73110,35.4673165,-97.3876737
8517,East Reno Avenue,73110,35.4650368,-97.3785798
1125,North Midwest Boulevard,73110,35.4794823,-97.3891507
1101,North Midwest Boulevard,73110,35.4791073,-97.3891775
7201,Cambridge Drive,73110,35.4838776,-97.4032706
2816,Parklawn Drive,73110,35.4654766,-97.3926070
2801,Parklawn Drive,73110,35.4644758,-97.3937672
1720,National Boulevard,73110,35.4530553,-97.3811442
1700,Republic Avenue Circle,73110,35.4529598,-97.3840337
1545,Replublic Circle,73110,35.4513915,-97.3811619
2900,Parklawn Drive,73110,35.4679144,-97.3901574
351,South Midwest Boulevard,73110,35.4611404,-97.3900439
7901,Northeast 10th Street,73110,35.4789862,-97.3909109
7901,Northeast 10th Street,73110,35.4791369,-97.3905680
2118,Flannery Drive,73110,35.4594544,-97.3824832
1201,South Douglas Boulevard,73130,35.4533295,-97.3724203
1799,National Boulevard,73110,35.4569351,-97.3794389
7801,Northeast 10th Street,73110,35.4799686,-97.3910965
1101,North Midwest Boulevard,73110,35.4788255,-97.3890847
1100,North Midwest Boulevard,73110,35.4790476,-97.3883234
1100,North Midwest Boulevard,73110,35.4789003,-97.3881799
1140,North Midwest Boulevard,73110,35.4801173,-97.3882592
7231,Southeast 29th Street,73110,35.4373493,-97.3983042
7071,Southeast 29th Street,73110,35.4378689,-97.4052956
2600,South Air Depot Boulevard,73110,35.4377296,-97.4055321
7177,Southeast 29th Street,73110,35.4374326,-97.4014221
6000,Will Rogers Road,73110,35.4466381,-97.4171802
471,Harr Drive,73110,35.4405081,-97.4114366
5,Macarthur Drive,73110,35.4424961,-97.4007628
8701,Southeast 29th Street,73110,35.4356886,-97.3755632
2914,South Douglas Boulevard,73130,35.4364238,-97.3703116
1609,Felix Place,73110,35.4556209,-97.3975005
2211,South Midwest Boulevard,73110,35.4431344,-97.3895878
213,Elm Street,73110,35.4526448,-97.3991012
201,North Midwest Boulevard,73110,35.4657264,-97.3890658
702,East Rickenbacker Drive,73110,35.4430977,-97.3974352
814,North Key Boulevard,73110,35.4444034,-97.3918557
3801,North Oak Grove Drive,73110,35.4790175,-97.4041698
7203,Southeast 29th Street,73110,35.4357005,-97.3998682
9011,Northeast 23rd Street,73141,35.4957176,-97.3693741
8700,Southeast 29th Street,73110,35.4345134,-97.3761915
1601,Spencer Road,73110,35.4854326,-97.3816955
6441,Arnold Street,73145,35.4313961,-97.4136610
3201,Mosley Road,73141,35.5024675,-97.4143997
7055,East Reno Avenue,73110,35.4647439,-97.4045596
112,North Air Depot Boulevard,73110-1701,35.4650784,-97.4050594
212,North Air Depot Boulevard,73110-1702,35.4664368,-97.4049051
160,North Air Depot Boulevard,73110,35.4657225,-97.4049348
5735,Southeast 15th Street,73110,35.4519094,-97.4207214
7305,Southeast 29th Street,73110,35.4372252,-97.3963567
1300,South Douglas Boulevard,73130,35.4525518,-97.3702804
2601,South Post Road,73130,35.4405154,-97.3596391
7551,East Reno Avenue,73110,35.4644144,-97.3914277
7187,Southeast 29th Street,73110,35.4373753,-97.4003950
7179,Southeast 29th Street,73110,35.4373448,-97.4011103
7183,Southeast 29th Street,73110,35.4373683,-97.4008579
7185,Southeast 29th Street,73110,35.4373818,-97.4006580
7185,Southeast 29th Street,73110,35.4373818,-97.4005966
7183,SE 29th,73110,35.4373762,-97.4005130
2800,South Air Depot Boulevard,73110,35.4364154,-97.4054121
150,Brett Drive,73110,35.4364497,-97.4047289
7201,Southeast 29th Street,73110,35.4361923,-97.3996433
7201,Southeast 29th Street,73110,35.4362078,-97.3994586
7201,Southeast 29th Street,73110,35.4362224,-97.3993370
7201,Southeast 29th Street,73110,35.4364124,-97.3996718
7201,Southeast 29th Street,73110,35.4364684,-97.3996722
7201,Southeast 29th Street,73110,35.4365404,-97.3996735
7201,Southeast 29th Street,73110,35.4366639,-97.3996757
7201,Southeast 29th Street,73110,35.4368361,-97.3996321
7191,Southeast 29th Street,73110,35.4357414,-97.4004825
6212,East Reno Avenue,73110,35.4636235,-97.4162407
6400,East Reno Avenue,73110,35.4636202,-97.4140101
6816,East Reno Avenue,73110,35.4636428,-97.4092952
6830,East Reno Avenue,73110,35.4635368,-97.4089567
7617,East Reno Avenue,73110,35.4644469,-97.3898280
7607,East Reno Avenue,73110,35.4643350,-97.3905426
1820,Warren Drive,73110,35.4449867,-97.4195797
5914,Southeast 15th Street,73110,35.4489498,-97.4185303
5912,Southeast 15th Street,73110,35.4489498,-97.4186390
5912,Southeast 15th Street,73110,35.4489495,-97.4187139
5910,Southeast 15th Street,73110,35.4489505,-97.4187864
5908,Southeast 15th Street,73110,35.4489518,-97.4188870
5906,Southeast 15th Street,73110,35.4489520,-97.4189749
5904,Southeast 15th Street,73110,35.4489520,-97.4190464
5900,Southeast 15th Street,73110,35.4489524,-97.4191275
9050,Northeast 23rd Street,73141,35.4924480,-97.3688521
2212,Felix Place,73110,35.4610592,-97.3920878
319,North Midwest Boulevard,73110,35.4676883,-97.3892137
3834,Oak Grove Drive,73110,35.4793345,-97.4010370
2825,Parklawn Drive,73110,35.4672504,-97.3911309
7213,Southeast 29th Street,73110,35.4374374,-97.3991578
7211,Southeast 29th Street,73110,35.4373408,-97.3994487
7209,Southeast 29th Street,73110,35.4373740,-97.3997559
