House number,Street name,Postal code,Latitude,Longitude
3308,Broce Court,73072,35.2535947,-97.4900406
526,Iowa Street,73069,35.2238358,-97.4528866
1818,East Alameda Street,73071,35.2179957,-97.4135353
1309,West Boyd Street,73060,35.2113712,-97.4605632
2555,Hemphill Drive,73069,35.2246569,-97.4812984
1905,Beaumont Drive,73071,35.2071362,-97.4139647
1300,East Lindsey,73071,35.2034161,-97.4216290
1219,East Alameda Street,73071,35.2196846,-97.4217364
3601,West Tecumseh Road,73072,35.2623170,-97.4950126
3601,36th Avenue Northwest,73072,35.2624349,-97.4939121
3451,36th Avenue Northwest,73072,35.2602094,-97.4938432
10750,East State Highway 9,73026,35.1888881,-97.2835660
2775,Monitor Avenue,73072,35.1898263,-97.4353298
900,Asp Avenue,73019,35.2092340,-97.4441522
333,3rd Street,73019,35.2097556,-97.4441603
225,West Boyd Street,73069,35.2112765,-97.4434656
217,West Boyd Street,73069,35.2112830,-97.4433073
301,West Boyd Street,73069,35.2112809,-97.4438813
765,Asp Avenue,73069,35.2117484,-97.4435659
775,Asp Avenue,73069,35.2113940,-97.4435559
765,Asp Avenue,73069,35.2118068,-97.4435672
759,Asp Avenue,73069,35.2120547,-97.4435867
575,South University Boulevard,73069,35.2119595,-97.4454685
575,South University Boulevard,73069,35.2118510,-97.4454726
2132,West Main Street,73069,35.2181080,-97.4732100
540,West Main Street,73069,35.2179110,-97.4508415
601,Meadow Ridge Road,73072,35.2270676,-97.5066178
3203,West Robinson Street,73072,35.2334672,-97.4886966
786,Asp Avenue,73069,35.2118448,-97.4438589
775,Jenkins Avenue,73069,35.2115128,-97.4410627
1204,North Interstate Drive,73072,35.2346304,-97.4865346
1500,24th Avenue Northwest,73069,35.2372594,-97.4835317
1420,24th Avenue Northwest,73069,35.2363568,-97.4830060
1000,East Alameda Street,73071,35.2179747,-97.4258300
331,White Street,73069,35.2131055,-97.4450384
110,24th Avenue Southwest,73069,35.2173214,-97.4770552
2400,Westport Drive,73069,35.2315165,-97.4774478
2339,West Main Street,73069,35.2187837,-97.4760921
3040,South Classen,73071,35.1815837,-97.4175630
2551,Classen Boulevard,73071,35.1934470,-97.4223494
1670,24th Avenue Northwest,73069,35.2391843,-97.4839734
1650,24th Avenue Northwest,73069,35.2389064,-97.4839497
3205,West Robinson Street,73072,35.2334516,-97.4888945
2002,East Robinson Street,73071,35.2311384,-97.4085258
1776,East Robinson Street,73070,35.2302749,-97.4137097
909,East Alameda Street,73071,35.2195780,-97.4275043
1226,Classen Boulevard,73069,35.2115337,-97.4368956
1210,West Robinson Street,73069,35.2323748,-97.4601203
1618,West Lindsey Street,73069,35.2027981,-97.4651843
601,West Eufaula Street,73069,35.2160484,-97.4498991
1000,North Interstate Drive,73072,35.2301007,-97.4867251
111,East Chesapeake Street,73019,35.1894587,-97.4400278
111,East Chesapeake Street,73019,35.1894675,-97.4405348
13801,Marina Road,73026,35.2313232,-97.2370783
3001,East Alameda Street,73071,35.2193518,-97.3962376
223,East Gray Street,73069,35.2230352,-97.4416411
900,North Porter,73071,35.2298605,-97.4414110
3770,West Robinson Street,73072,35.2323364,-97.4967762
1344,North Interstate Drive,73072,35.2350750,-97.4869935
222,East Alameda Street,73069,35.2182145,-97.4386794
334,12th Avenue Southeast,73071,35.2139852,-97.4239588
1800,Barkley Street,73071,35.2068312,-97.4289078
3720,West Robinson Street,73072,35.2306805,-97.4964391
906,West Main Street,73069,35.2181108,-97.4561304
562,West Main Street,73069,35.2179112,-97.4511254
400,West Main Street,73069,35.2187340,-97.4481293
924,West Main Street,73069,35.2181238,-97.4567124
705,North Porter,73071,35.2279869,-97.4408359
607,West Boyd Street,73069,35.2113230,-97.4493674
1835,West Main Street,73069-6453,35.2187661,-97.4692825
215,34th Avenue Southwest,73072,35.2174838,-97.4909125
101,Crestland Drive,73071,35.2192250,-97.4126778
307,East Main Street,73069,35.2224245,-97.4402879
521,Merchant Drive,73069,35.2245992,-97.4793081
561,Merchant Drive,73069,35.2249892,-97.4792250
606,South Santa Fe Street,73069,35.2151287,-97.4424600
3600,West Main Street,73072,35.2175160,-97.4947574
770,Debarr Street,73069,35.2117408,-97.4429042
561,Buchanan Avenue,73069,35.2125026,-97.4445846
1515,West Main Street,73069,35.2189824,-97.4639815
223,34th Avenue Southwest,73072,35.2174483,-97.4909134
1357,12th Avenue Northeast,73071,35.2345281,-97.4225484
501,North Interstate Drive,73071,35.2196178,-97.4830663
750,West Imhoff Road,73072,35.1891406,-97.4512297
909,Brandywine Lane,73071,35.2056723,-97.4110190
1251,Triad Village Drive,73071,35.2145179,-97.4215779
1209,East Alameda Street,73071-3006,35.2196530,-97.4220681
1812,East Alameda Street,73071,35.2181432,-97.4144498
2040,24th Avenue Northwest,73069,35.2440919,-97.4826598
2201,McKown Drive,73072,35.1960372,-97.4751884
705,Ridgecrest Court,73072,35.1838169,-97.4509544
3000,Chautauqua Avenue,73072,35.1863999,-97.4505967
2920,Chautauqua Avenue,73072,35.1869610,-97.4508325
2551,Classen Boulevard,73071,35.1932979,-97.4223604
2450,West Main Street,73069,35.2174134,-97.4796996
1120,North Flood Avenue,73069,35.2294617,-97.4536912
3201,West Tecumseh Road,73072,35.2629197,-97.4884330
752,Asp Avenue,73069,35.2123082,-97.4439160
1037,North University Boulevard,73069,35.2281677,-97.4495657
901,North Peters Avenue,73069,35.2289049,-97.4442228
1429,George Avenue,73072,35.2006792,-97.4365436
420,East Lindsey Street,73069,35.2035954,-97.4371735
2140,Classen Boulevard,73019,35.2013782,-97.4299548
1430,24th Avenue Southwest,73072,35.2005089,-97.4779921
1205,East Lindsey Street,73071,35.2046181,-97.4226887
1213,East Lindsey Street,73071,35.2046115,-97.4221979
1215,East Lindsey Street,73071,35.2046181,-97.4219726
1775,Maple,73019,35.1971829,-97.4467772
1775,Maple,73019,35.1974367,-97.4467709
1775,Maple,73019,35.1977038,-97.4467671
1775,Maple,73019,35.1979553,-97.4467517
1775,Maple,73019,35.1982099,-97.4467440
1775,Maple,73019,35.1984707,-97.4467556
1775,Maple,73019,35.1987159,-97.4467556
1775,Maple,73019,35.1989799,-97.4467556
1775,Maple,73019,35.1994247,-97.4467601
1775,Maple,73019,35.1994216,-97.4463898
132,West Main Street,73069,35.2199630,-97.4451057
1701,36th Avenue Northwest,73072,35.2519069,-97.4938088
1000,East Alameda Street,73071,35.2173797,-97.4254936
225,North Interstate Drive,73069,35.2201903,-97.4832121
1330,North Interstate Drive,73072,35.2349733,-97.4873108
564,Buchanan Avenue,73069,35.2124164,-97.4448534
315,White Street,73069,35.2130925,-97.4443170
788,Asp Avenue,73069,35.2117698,-97.4438706
2620,Classen Boulevard,73071,35.1913129,-97.4237958
4312,Eagle Cliff Drive,73072,35.1658880,-97.4297288
605,Aplomado Street,73072,35.1668081,-97.4307990
4201,Caracara Court,73072,35.1672873,-97.4280974
4216,Caracara Court,73072,35.1668211,-97.4285532
4220,Caracara Court,73072,35.1666721,-97.4284682
4221,Caracara Court,73072,35.1666350,-97.4283166
4217,Caracara Court,73072,35.1666909,-97.4281508
4213,Caracara Court,73072,35.1668370,-97.4280730
509,Aplomado Street,73072,35.1668099,-97.4313111
4203,Eagle Cliff Drive,73072,35.1676327,-97.4296136
4205,Eagle Cliff Drive,73072,35.1675428,-97.4296136
4209,Eagle Cliff Drive,73072,35.1674621,-97.4296174
504,Aplomado Street,73072,35.1664854,-97.4315520
505,Laleh Court,73072,35.1660295,-97.4318213
509,Laleh Court,73072,35.1660636,-97.4315975
508,Laleh Court,73072,35.1656512,-97.4315368
525,Laleh Court,73072,35.1660202,-97.4308123
529,Laleh Court,73072,35.1659675,-97.4306681
532,Laleh Court,73072,35.1658466,-97.4306150
528,Laleh Court,73072,35.1656760,-97.4306530
524,Laleh Court,73072,35.1655861,-97.4307971
701,East Robinson Street,73071,35.2333757,-97.4352542
104,East Eufaula Street,73069,35.2190171,-97.4416351
700,East Lindsey Street,73071,35.2031487,-97.4317365
2704,Frost Lane,73071,35.1941764,-97.4026170
1915,Classen Boulevard,73071,35.2054277,-97.4324345
1023,College Avenue,73072,35.2024077,-97.4487674
3101,Classen Boulevard,73071,35.1808787,-97.4156253
1000,East Alameda Street,73071,35.2166397,-97.4248465
3651,Classen Boulevard,73071,35.1746327,-97.4089829
3651,Classen Boulevard,73071,35.1733746,-97.4089046
2500,McGee Drive,73072,35.1953833,-97.4694802
1100,East Lindsey Street,73071,35.2032372,-97.4244804
1521,36th Avenue Northwest,73072,35.2378389,-97.4937573
3330,West Main Street,73072,35.2181522,-97.4912333
3924,West Tecumseh Road,73072,35.2614254,-97.4988787
1332,Jenkins Avenue,73019,35.2014292,-97.4420822
2073,24th Avenue Northwest,73069,35.2426222,-97.4801730
563,Buchanan Avenue,73069,35.2122993,-97.4445064
2030,West Lindsey Street,73069,35.2036100,-97.4720266
404,Wadsack Drive,73072,35.1935381,-97.4446623
132,North Santa Fe Avenue,73069,35.2207548,-97.4459076
132,North Santa Fe Avenue,73069,35.2207826,-97.4459260
123,West Main Street,73069,35.2204097,-97.4450188
213,West Main Street,73069,35.2199849,-97.4460292
211,West Main Street,73069,35.2200159,-97.4459539
227,West Main Street,73069,35.2197643,-97.4465515
227,West Main Street,73069,35.2197870,-97.4464929
408,West Main Street,73069,35.2185249,-97.4485248
424,West Main Street,73069,35.2183792,-97.4489392
424,West Main Street,73069,35.2181721,-97.4487993
424,West Main Street,73069,35.2182436,-97.4488791
3700,West Tecumseh Road,73072,35.2606805,-97.4953289
3451,36th Avenue Northwest,73072,35.2605127,-97.4938388
2681,Jefferson Street,73072,35.1960199,-97.4812605
3351,West Main Street,73072,35.2196576,-97.4907199
3051,East Alameda Street,73071,35.2187613,-97.3960023
3600,West Tecumseh Road,73072,35.2615450,-97.4947223
3700,West Tecumseh Road,73072,35.2614733,-97.4961111
3700,West Tecumseh Road,73072,35.2615702,-97.4961398
3700,West Tecumseh Road,73072,35.2615798,-97.4961220
3700,West Tecumseh Road,73072,35.2615629,-97.4960548
3700,West Tecumseh Road,73072,35.2615718,-97.4960340
3700,West Tecumseh Road,73072,35.2615823,-97.4960142
3700,West Tecumseh Road,73072,35.2614693,-97.4960558
3700,West Tecumseh Road,73072,35.2614886,-97.4960093
3700,West Tecumseh Road,73072,35.2614798,-97.4960320
3700,West Tecumseh Road,73072,35.2614671,-97.4959311
3700,West Tecumseh Road,73072,35.2614801,-97.4959133
3700,West Tecumseh Road,73072,35.2615640,-97.4959360
3700,West Tecumseh Road,73072,35.2615729,-97.4959163
3700,West Tecumseh Road,73072,35.2615818,-97.4958955
3700,West Tecumseh Road,73072,35.2614688,-97.4958392
3700,West Tecumseh Road,73072,35.2614801,-97.4958223
3700,West Tecumseh Road,73072,35.2614705,-97.4956879
3700,West Tecumseh Road,73072,35.2614812,-97.4956670
3700,West Tecumseh Road,73072,35.2614912,-97.4956492
3700,West Tecumseh Road,73072,35.2615664,-97.4957990
3700,West Tecumseh Road,73072,35.2615766,-97.4957781
3700,West Tecumseh Road,73072,35.2615848,-97.4957588
3700,West Tecumseh Road,73072,35.2615677,-97.4956667
3700,West Tecumseh Road,73072,35.2615766,-97.4956466
3700,West Tecumseh Road,73072,35.2615848,-97.4956274
3700,West Tecumseh Road,73072,35.2615677,-97.4955470
3700,West Tecumseh Road,73072,35.2615759,-97.4955269
3700,West Tecumseh Road,73072,35.2615835,-97.4955060
3700,West Tecumseh Road,73072,35.2614823,-97.4955470
3700,West Tecumseh Road,73072,35.2614912,-97.4955261
3700,West Tecumseh Road,73072,35.2614987,-97.4955043
3700,West Tecumseh Road,73072,35.2613408,-97.4955387
3700,West Tecumseh Road,73072,35.2613511,-97.4955194
3700,West Tecumseh Road,73072,35.2613600,-97.4954985
3700,West Tecumseh Road,73072,35.2613442,-97.4956483
3700,West Tecumseh Road,73072,35.2613554,-97.4956289
3700,West Tecumseh Road,73072,35.2614135,-97.4956481
3700,West Tecumseh Road,73072,35.2614251,-97.4956280
3700,West Tecumseh Road,73072,35.2614340,-97.4956096
3700,West Tecumseh Road,73072,35.2612502,-97.4956448
3700,West Tecumseh Road,73072,35.2612611,-97.4956247
3700,West Tecumseh Road,73072,35.2611681,-97.4956473
3700,West Tecumseh Road,73072,35.2611804,-97.4956272
3700,West Tecumseh Road,73072,35.2610779,-97.4956465
3700,West Tecumseh Road,73072,35.2610889,-97.4956280
3700,West Tecumseh Road,73072,35.2609050,-97.4956481
3700,West Tecumseh Road,73072,35.2609159,-97.4956306
3700,West Tecumseh Road,73072,35.2609269,-97.4956130
3700,West Tecumseh Road,73072,35.2609098,-97.4955209
3700,West Tecumseh Road,73072,35.2609207,-97.4955033
3700,West Tecumseh Road,73072,35.2609317,-97.4954857
3700,West Tecumseh Road,73072,35.2609993,-97.4955226
3700,West Tecumseh Road,73072,35.2610103,-97.4955050
3700,West Tecumseh Road,73072,35.2610212,-97.4954874
3700,West Tecumseh Road,73072,35.2610697,-97.4955268
3700,West Tecumseh Road,73072,35.2610807,-97.4955092
3700,West Tecumseh Road,73072,35.2610916,-97.4954916
3700,West Tecumseh Road,73072,35.2611818,-97.4954958
3700,West Tecumseh Road,73072,35.2611599,-97.4955309
3700,West Tecumseh Road,73072,35.2611709,-97.4955134
3700,West Tecumseh Road,73072,35.2612659,-97.4954983
3700,West Tecumseh Road,73072,35.2612549,-97.4955159
3700,West Tecumseh Road,73072,35.2612440,-97.4955335
2681,Jefferson Street,73072,35.1961660,-97.4808347
3700,West Tecumseh Road,73072,35.2593150,-97.4959297
3700,West Tecumseh Road,73072,35.2593040,-97.4959473
3700,West Tecumseh Road,73072,35.2592931,-97.4959648
3700,West Tecumseh Road,73072,35.2593089,-97.4960469
3700,West Tecumseh Road,73072,35.2592980,-97.4960644
3700,West Tecumseh Road,73072,35.2594248,-97.4960592
3700,West Tecumseh Road,73072,35.2594242,-97.4959058
3700,West Tecumseh Road,73072,35.2594133,-97.4959233
3700,West Tecumseh Road,73072,35.2594249,-97.4957835
3700,West Tecumseh Road,73072,35.2594140,-97.4958010
3700,West Tecumseh Road,73072,35.2594245,-97.4956674
3700,West Tecumseh Road,73072,35.2594136,-97.4956849
3700,West Tecumseh Road,73072,35.2593157,-97.4958303
3700,West Tecumseh Road,73072,35.2593047,-97.4958479
3700,West Tecumseh Road,73072,35.2592938,-97.4958654
3700,West Tecumseh Road,73072,35.2593168,-97.4957141
3700,West Tecumseh Road,73072,35.2593058,-97.4957317
3700,West Tecumseh Road,73072,35.2592949,-97.4957492
3700,West Tecumseh Road,73072,35.2593178,-97.4955867
3700,West Tecumseh Road,73072,35.2593068,-97.4956043
3700,West Tecumseh Road,73072,35.2592959,-97.4956218
3700,West Tecumseh Road,73072,35.2593175,-97.4954822
3700,West Tecumseh Road,73072,35.2593065,-97.4954998
3700,West Tecumseh Road,73072,35.2592956,-97.4955173
3700,West Tecumseh Road,73072,35.2594257,-97.4954916
3700,West Tecumseh Road,73072,35.2594147,-97.4955092
3700,West Tecumseh Road,73072,35.2594038,-97.4955267
3700,West Tecumseh Road,73072,35.2600164,-97.4954786
3700,West Tecumseh Road,73072,35.2600271,-97.4954610
3700,West Tecumseh Road,73072,35.2600171,-97.4956008
3700,West Tecumseh Road,73072,35.2600283,-97.4955856
3700,West Tecumseh Road,73072,35.2600188,-97.4957170
3700,West Tecumseh Road,73072,35.2600295,-97.4956993
3700,West Tecumseh Road,73072,35.2601280,-97.4959003
3700,West Tecumseh Road,73072,35.2601388,-97.4958825
3700,West Tecumseh Road,73072,35.2601264,-97.4957958
3700,West Tecumseh Road,73072,35.2601372,-97.4957780
3700,West Tecumseh Road,73072,35.2601479,-97.4957603
3700,West Tecumseh Road,73072,35.2601260,-97.4956684
3700,West Tecumseh Road,73072,35.2601368,-97.4956506
3700,West Tecumseh Road,73072,35.2601475,-97.4956329
3700,West Tecumseh Road,73072,35.2601257,-97.4955522
3700,West Tecumseh Road,73072,35.2601365,-97.4955344
3700,West Tecumseh Road,73072,35.2601472,-97.4955168
3700,West Tecumseh Road,73072,35.2601253,-97.4954528
3700,West Tecumseh Road,73072,35.2601361,-97.4954350
3700,West Tecumseh Road,73072,35.2601468,-97.4954173
3700,West Tecumseh Road,73072,35.2600164,-97.4958985
3700,West Tecumseh Road,73072,35.2601241,-97.4953472
3700,West Tecumseh Road,73072,35.2601349,-97.4953294
3700,West Tecumseh Road,73072,35.2601456,-97.4953117
3700,West Tecumseh Road,73072,35.2600182,-97.4953437
3700,West Tecumseh Road,73072,35.2600290,-97.4953259
3700,West Tecumseh Road,73072,35.2600397,-97.4953082
3700,West Tecumseh Road,73072,35.2595517,-97.4947329
3700,West Tecumseh Road,73072,35.2595624,-97.4947152
3700,West Tecumseh Road,73072,35.2596510,-97.4947366
3700,West Tecumseh Road,73072,35.2596617,-97.4947189
3700,West Tecumseh Road,73072,35.2594547,-97.4947315
3700,West Tecumseh Road,73072,35.2594654,-97.4947138
3700,West Tecumseh Road,73072,35.2593148,-97.4947176
3700,West Tecumseh Road,73072,35.2593255,-97.4946999
3700,West Tecumseh Road,73072,35.2593040,-97.4947354
3700,West Tecumseh Road,73072,35.2593148,-97.4946098
3700,West Tecumseh Road,73072,35.2593255,-97.4945921
3700,West Tecumseh Road,73072,35.2593040,-97.4946276
3700,West Tecumseh Road,73072,35.2597677,-97.4947213
3700,West Tecumseh Road,73072,35.2597784,-97.4947036
3700,West Tecumseh Road,73072,35.2597569,-97.4947391
3700,West Tecumseh Road,73072,35.2597439,-97.4946200
3700,West Tecumseh Road,73072,35.2597546,-97.4946023
3700,West Tecumseh Road,73072,35.2597331,-97.4946378
3700,West Tecumseh Road,73072,35.2596742,-97.4946134
3700,West Tecumseh Road,73072,35.2596849,-97.4945957
3700,West Tecumseh Road,73072,35.2596634,-97.4946312
3700,West Tecumseh Road,73072,35.2594922,-97.4946142
3700,West Tecumseh Road,73072,35.2595029,-97.4945965
3700,West Tecumseh Road,73072,35.2594814,-97.4946320
3700,West Tecumseh Road,73072,35.2594023,-97.4946105
3700,West Tecumseh Road,73072,35.2594130,-97.4945928
3700,West Tecumseh Road,73072,35.2593915,-97.4946283
3700,West Tecumseh Road,73072,35.2595999,-97.4946127
3700,West Tecumseh Road,73072,35.2596106,-97.4945950
3700,West Tecumseh Road,73072,35.2595891,-97.4946305
3700,West Tecumseh Road,73072,35.2606556,-97.4947442
3700,West Tecumseh Road,73072,35.2606449,-97.4947619
3700,West Tecumseh Road,73072,35.2606341,-97.4947797
3700,West Tecumseh Road,73072,35.2603244,-97.4946456
3700,West Tecumseh Road,73072,35.2603137,-97.4946633
3700,West Tecumseh Road,73072,35.2603029,-97.4946811
3700,West Tecumseh Road,73072,35.2606415,-97.4946507
3700,West Tecumseh Road,73072,35.2606308,-97.4946684
3700,West Tecumseh Road,73072,35.2606200,-97.4946862
3700,West Tecumseh Road,73072,35.2605751,-97.4946487
3700,West Tecumseh Road,73072,35.2605644,-97.4946664
3700,West Tecumseh Road,73072,35.2605536,-97.4946842
3700,West Tecumseh Road,73072,35.2605128,-97.4946456
3700,West Tecumseh Road,73072,35.2605021,-97.4946633
3700,West Tecumseh Road,73072,35.2604913,-97.4946811
3700,West Tecumseh Road,73072,35.2604365,-97.4946446
3700,West Tecumseh Road,73072,35.2604258,-97.4946623
3700,West Tecumseh Road,73072,35.2604150,-97.4946801
3700,West Tecumseh Road,73072,35.2599900,-97.4946436
3700,West Tecumseh Road,73072,35.2599793,-97.4946613
3700,West Tecumseh Road,73072,35.2599685,-97.4946791
3700,West Tecumseh Road,73072,35.2601735,-97.4946852
3700,West Tecumseh Road,73072,35.2601843,-97.4946674
3700,West Tecumseh Road,73072,35.2601950,-97.4946497
3700,West Tecumseh Road,73072,35.2601286,-97.4946477
3700,West Tecumseh Road,73072,35.2601179,-97.4946654
3700,West Tecumseh Road,73072,35.2601071,-97.4946832
3700,West Tecumseh Road,73072,35.2600448,-97.4946801
3700,West Tecumseh Road,73072,35.2600556,-97.4946623
3700,West Tecumseh Road,73072,35.2600663,-97.4946446
3700,West Tecumseh Road,73072,35.2599634,-97.4947351
3700,West Tecumseh Road,73072,35.2599527,-97.4947528
3700,West Tecumseh Road,73072,35.2599419,-97.4947706
3700,West Tecumseh Road,73072,35.2605361,-97.4947568
3700,West Tecumseh Road,73072,35.2605253,-97.4947746
3700,West Tecumseh Road,73072,35.2604590,-97.4947538
3700,West Tecumseh Road,73072,35.2604482,-97.4947716
3700,West Tecumseh Road,73072,35.2603718,-97.4947518
3700,West Tecumseh Road,73072,35.2603610,-97.4947696
3700,West Tecumseh Road,73072,35.2602473,-97.4947507
3700,West Tecumseh Road,73072,35.2602365,-97.4947685
3700,West Tecumseh Road,73072,35.2601560,-97.4947467
3700,West Tecumseh Road,73072,35.2601452,-97.4947645
3700,West Tecumseh Road,73072,35.2600623,-97.4947416
3700,West Tecumseh Road,73072,35.2600515,-97.4947594
3800,Journey Parkway,73072,35.2625816,-97.4905501
3700,West Tecumseh Road,73072,35.2606430,-97.4960188
3700,West Tecumseh Road,73072,35.2605314,-97.4960179
3700,West Tecumseh Road,73072,35.2605206,-97.4960357
3700,West Tecumseh Road,73072,35.2605325,-97.4958996
3700,West Tecumseh Road,73072,35.2605218,-97.4959173
3700,West Tecumseh Road,73072,35.2605110,-97.4959351
3700,West Tecumseh Road,73072,35.2605363,-97.4957898
3700,West Tecumseh Road,73072,35.2605256,-97.4958075
3700,West Tecumseh Road,73072,35.2605148,-97.4958253
3700,West Tecumseh Road,73072,35.2605346,-97.4956876
3700,West Tecumseh Road,73072,35.2605239,-97.4957053
3700,West Tecumseh Road,73072,35.2606508,-97.4959097
3700,West Tecumseh Road,73072,35.2606401,-97.4959274
3700,West Tecumseh Road,73072,35.2606483,-97.4957918
3700,West Tecumseh Road,73072,35.2606376,-97.4958095
3700,West Tecumseh Road,73072,35.2606475,-97.4956927
3700,West Tecumseh Road,73072,35.2606368,-97.4957104
3700,West Tecumseh Road,73072,35.2603616,-97.4954773
3700,West Tecumseh Road,73072,35.2603509,-97.4954950
3700,West Tecumseh Road,73072,35.2603401,-97.4955128
3700,West Tecumseh Road,73072,35.2604558,-97.4954818
3700,West Tecumseh Road,73072,35.2604451,-97.4954995
3700,West Tecumseh Road,73072,35.2604343,-97.4955173
3700,West Tecumseh Road,73072,35.2606529,-97.4955052
3700,West Tecumseh Road,73072,35.2606422,-97.4955229
3700,West Tecumseh Road,73072,35.2606533,-97.4954275
3700,West Tecumseh Road,73072,35.2606426,-97.4954452
3700,West Tecumseh Road,73072,35.2606533,-97.4953512
3700,West Tecumseh Road,73072,35.2606426,-97.4953689
3700,West Tecumseh Road,73072,35.2605429,-97.4955067
3700,West Tecumseh Road,73072,35.2605322,-97.4955244
3700,West Tecumseh Road,73072,35.2605433,-97.4954290
3700,West Tecumseh Road,73072,35.2605326,-97.4954467
3700,West Tecumseh Road,73072,35.2605433,-97.4953527
3700,West Tecumseh Road,73072,35.2605326,-97.4953704
3700,West Tecumseh Road,73072,35.2604595,-97.4953502
3700,West Tecumseh Road,73072,35.2604488,-97.4953679
3700,West Tecumseh Road,73072,35.2603653,-97.4953456
3700,West Tecumseh Road,73072,35.2603546,-97.4953633
102,West Main Street,73069,35.2203442,-97.4439749
1915,Classen Boulevard,73071,35.2050698,-97.4320367
2770,Washington Drive,73069,35.2708712,-97.4821969
2596,West Tecumseh Road,73069,35.2615380,-97.4798609
3334,West Main Street,73072,35.2189131,-97.5123633
615,24th Avenue Southwest,73069,35.2107616,-97.4761807
2400,Conference Drive,73069,35.2416673,-97.4776876
151,12th Avenue Southeast,73071,35.2172497,-97.4224268
3241,Double Dr,73069,35.2586982,-97.4630124
1812,24th Avenue Northwest,73069,35.2400982,-97.4830136
3401,West Tecumseh Road,73072,35.2623440,-97.4927173
1436,24th Avenue Northwest,73069,35.2365502,-97.4831311
401,West Brooks Street,73019,35.2080644,-97.4457081
121,South Santa Fe Avenue,73069,35.2194770,-97.4447645
201,David L Boren Boulevard,73072,35.1837257,-97.4381305
1221,East Lindsey Street,73071,35.2046209,-97.4216940
1325,East Lindsey Street,73071,35.2046249,-97.4210847
1327,East Lindsey Street,73071,35.2046249,-97.4208392
209,24th Avenue Northwest,73069,35.2211881,-97.4762772
702,Wall Street,73069,35.2265010,-97.4821018
3401,West Tecumseh Road,73072,35.2624557,-97.4925912
201,West Daws Street,73069,35.2239071,-97.4474836
1919,West Boyd Street,73069,35.2130108,-97.4700970
3100,Monitor Avenue,73072,35.1828034,-97.4360588
101,David L Boren Boulevard,73019,35.1836906,-97.4403648
555,Elm Avenue,73019,35.2107178,-97.4473230
850,South Jenkins Avenue,73019,35.2102359,-97.4416829
1185,Asp Avenue,73019,35.2056670,-97.4422563
1401,Asp Avenue,73019,35.2014452,-97.4431611
2900,Jenkins,73069,35.1870319,-97.4442739
201,David L Boren Boulevard,73072,35.1837159,-97.4381344
300,West Timberdell Road,73019,35.1959704,-97.4467973
500,Imhoff Road,73019,35.1873688,-97.4476143
2401,Chautauqua Avenue,73072,35.1944131,-97.4490257
225,North Webster Avenue,73069,35.2211274,-97.4471397
820,West Main Street,73069,35.2180563,-97.4554474
1215,24th Avenue Southwest,73069,35.2031880,-97.4762110
1221,Lindsey Drive,73069,35.2031120,-97.4748942
2316,West Lindsey Street,73069,35.2034574,-97.4760417
1802,West Lindsey Street,73069,35.2037031,-97.4681293
901,North Porter Avenue,73071,35.2304409,-97.4394350
1317,Regent Street,73069,35.2296845,-97.4570827
333,North Carter Avenue,73069,35.2305038,-97.4315441
209,East Alameda Street,73069,35.2187588,-97.4394650
3301,West Main Street,73072,35.2198356,-97.4907190
1001,South Ponca Avenue,73071,35.2131993,-97.4335236
631,East Eufaula Street,73071,35.2227003,-97.4343214
411,West Symmes Street,73069,35.2161743,-97.4469801
450,South Flood Avenue,73069,35.2138716,-97.4538103
2136,24th Avenue Southwest,73072,35.1919577,-97.4777279
2600,West Main Street,73069-6363,35.2176495,-97.4822617
333,North Interstate Drive,73069,35.2217092,-97.4810567
301,Sandpiper Lane,73071,35.2395217,-97.4372749
100,West Vida Way,73069,35.2339125,-97.4462077
635,Sherwood Drive,73071,35.2160537,-97.4298821
3280,108th Avenue Northeast,73026,35.2566423,-97.2846126
1540,24th Avenue Northwest,73069,35.2374968,-97.4825824
1215,Crossroads Boulevard,73072,35.2339133,-97.4884666
2600,West Robinson Street,73069,35.2322376,-97.4819136
129,Ed Noble Parkway,73072,35.2174660,-97.4879228
117,Ed Noble Parkway,73072,35.2175943,-97.4883774
15951,Little Axe Drive,73026,35.2347438,-97.2063889
615,West Main Steet,73069,35.2189104,-97.4522098
1001,East Robinson Street,73071,35.2352219,-97.4279481
2424,West Main Street,73069,35.2180504,-97.4777806
2403,North Porter Avenue,73071,35.2477303,-97.4406419
1514,West Lindsey Street,73069,35.2036179,-97.4641007
1440,West Lindsey Street,73069,35.2034631,-97.4630491
577,Buchanan Avenue,73069,35.2118963,-97.4444685
1,Par Drive,73019,35.1892960,-97.4301327
2400,Westport Drive,73069,35.2294475,-97.4727623
2550,Mount Williams Drive,73069,35.2375388,-97.4787310
1501,West Boyd Street,73069,35.2119452,-97.4642233
2000,West Brooks Street,73069,35.2066151,-97.4700829
1801,West Lindsey Street,73069,35.2043036,-97.4682528
2319,West Lindsey Street,73069,35.2043787,-97.4761165
1002,24th Avenue Southwest,73069,35.2055593,-97.4771944
1150,West Lindsey Street,73069,35.2034716,-97.4586156
1212,South Berry Road,73072,35.2032815,-97.4595209
731,West Main Street,73069,35.2188051,-97.4542177
200,South Peters Avenue,73069,35.2198624,-97.4416482
817,Denison Drive,73069,35.2285312,-97.4569995
1350,Lexington Street,73069,35.2397585,-97.4611315
601,12th Avenue Northeast,73071,35.2266378,-97.4204292
1720,West Lindsey Street,73069,35.2035555,-97.4667884
2030,West Lindsey Street,73069,35.2036111,-97.4720025
3400,West Main Street,73072,35.2163324,-97.4929529
3450,West Tecumseh Road,73072,35.2614947,-97.4923323
3520,West Tecumseh Road,73072,35.2613616,-97.4930835
1100,North Interstate Drive,73072,35.2309175,-97.4885493
1300,24th Avenue Northwest,73069,35.2341635,-97.4824445
1250,24th Avenue Northwest,73069,35.2338814,-97.4815599
1200,24th Avenue Northwest,73069,35.2345017,-97.4810436
1400,24th Avenue Northwest,73069-6385,35.2355021,-97.4831283
2125,West Lindsey Street,73069,35.2043483,-97.4736774
2113,West Lindsey Street,73069,35.2044887,-97.4729325
2206,West Lindsey Street,73069,35.2035290,-97.4742668
2000,West Lindsey Street,73069,35.2035365,-97.4709662
242,24th Avenue Northwest,73069,35.2215397,-97.4773579
2211,West Main Street,73069,35.2203174,-97.4749764
2437,West Main Street,73069,35.2189808,-97.4783471
200,Norman Center Court,73072,35.2169079,-97.4899791
101,Ed Noble Parkway,73072,35.2179018,-97.4895039
330,Ed Noble Parkway,73072,35.2163259,-97.4874521
300,Ed Noble Parkway,73072,35.2166047,-97.4882226
300,Norman Center Court,73072,35.2156281,-97.4904572
301,Norman Center Court,73072,35.2161382,-97.4885627
309,Norman Center Court,73072,35.2157676,-97.4886749
400,Ed Noble Parkway,73072,35.2155876,-97.4864393
3025,William Pereira,73072,35.2145332,-97.4866461
500,Ed Noble Parkway,73072,35.2129413,-97.4858005
850,Ed Noble Parkway,73072,35.2080559,-97.4838095
840,Ed Noble Parkway,73072,35.2078525,-97.4825730
930,Ed Noble Parkway,73072,35.2071959,-97.4830999
960,Ed Noble Parkway,73072,35.2065003,-97.4838344
1150,Ed Noble Parkway,73072,35.2048052,-97.4838892
1050,Ed Noble Parkway,73072,35.2053920,-97.4835021
950,Ed Noble Parkway,73072,35.2066473,-97.4827886
2900,West Lindsey Street,73072,35.2032041,-97.4844361
1221,Ed Noble Parkway,73072,35.2025703,-97.4817371
2520,West Main Street,73069,35.2179052,-97.4806311
2500,West Main Street,73069,35.2179222,-97.4802879
2440,West Main Street,73069,35.2174649,-97.4787071
2430,West Main Street,73069,35.2174606,-97.4780220
2200,West Main Street,73069,35.2178982,-97.4742379
3132,West Main Street,73069,35.2179729,-97.4732069
2121,West Main Street,73069,35.2187965,-97.4727808
2117,West Main Street,73069,35.2187708,-97.4725738
1918,West Main Street,73069,35.2178402,-97.4700241
1908,West Main Street,73069,35.2181337,-97.4695259
1839,West Main Street,73069,35.2188138,-97.4697336
1805,West Main Street,73069,35.2187561,-97.4687061
1333,West Main Street,73069,35.2191823,-97.4618980
1201,West Main Street,73071,35.2188315,-97.4594345
424,West Main Street,73069,35.2182856,-97.4488027
408,West Main Street,73069,35.2184064,-97.4484351
1719,24th Avenue Southwest,73072,35.1978338,-97.4757962
601,24th Avenue Southwest,73069,35.2130077,-97.4758716
410,24th Avenue Southwest,73069,35.2127061,-97.4770692
420,24th Avenue Southwest,73069,35.2123732,-97.4773634
2800,Chautauqua Avenue,73072,35.1890087,-97.4507462
2850,Chautauqua Avenue,73072,35.1885430,-97.4506966
3450,Chautauqua Avenue,73072,35.1811058,-97.4509865
301,David L Boren Boulevard,73019,35.1837064,-97.4371148
101,South Webster Avenue,73069,35.2193368,-97.4462317
1717,West Lindsey Street,73069,35.2044922,-97.4670173
1730,West Lindsey Street,73069,35.2035778,-97.4674496
1320,West Lindsey Street,73069,35.2032961,-97.4617771
1222,West Lindsey Street,73069,35.2034836,-97.4605779
1506,West Imhoff Road,73072,35.1886725,-97.4625448
1728,24th Avenue Southwest,73072,35.1975023,-97.4772927
1708,24th Avenue Southwest,73072,35.1978377,-97.4773100
205,West Main Street,73069,35.2202719,-97.4458101
224,West Gray Street,73069,35.2205063,-97.4462535
701,West Main Street,73069,35.2186998,-97.4533423
1700,Lexington Street,73069,35.2409421,-97.4680750
1024,24th Street Northwest,73069,35.2312746,-97.4808551
1000,Northwest 24th Avenue,73069,35.2303478,-97.4807572
1101,24th Avenue Northwest,73069,35.2320210,-97.4800121
900,24th Avenue Northwest,73069;73071,35.2295656,-97.4808747
400,26th Avenue Northwest,73069,35.2226580,-97.4828676
2543,West Main Street,73069,35.2195856,-97.4810808
225,North Interstate Drive,73069,35.2201842,-97.4832047
708,24th Avenue Northwest,73069,35.2275424,-97.4790959
480,Merchant Drive,73069,35.2242059,-97.4800324
440,Merchant Drive,73069,35.2239851,-97.4800125
1415,West Main Street,73069,35.2187242,-97.4620993
118-132,North Santa Fe Avenue,73069,35.2207269,-97.4460064
1300,Classen Boulevard,73071,35.2109287,-97.4366084
2724,Tioga Circle,73071,35.2524960,-97.4322006
1133,West Main Street,73069,35.2189267,-97.4584454
615,East Robinson Street,73071,35.2332759,-97.4369573
2311,Blue Court,73026,35.1920922,-97.3444564
2303,Blue Court,73026,35.1921093,-97.3453637
2300,Blue Creek Drive,73026,35.1914771,-97.3465290
2313,Blue Creek Drive,73026,35.1913253,-97.3454876
2327,Blue Creek Drive,73026,35.1905312,-97.3461777
2329,Blue Creek Parkway,73026,35.1907790,-97.3471205
2353,Blue Creek Drive,73026,35.1899370,-97.3470012
2345,Blue Creek Drive,73026,35.1901499,-97.3482816
2349,Blue Creek Drive,73026,35.1904777,-97.3488638
2388,Blue Court,73026,35.1904235,-97.3451114
2348,Blue Court,73026,35.1902287,-97.3445775
2337,Blue Court,73026,35.1910063,-97.3444819
2323,Blue Court,73026,35.1914368,-97.3445483
615,12th Avenue Northeast,73070,35.2265084,-97.4229270
1101,12th Avenue Northeast,73071,35.2316649,-97.4230152
444,South Flood Avenue,73069,35.2132294,-97.4533032
2500,South Asp Avenue,73072,35.1929521,-97.4462755
212,Wadsack Drive,73072,35.1929921,-97.4433303
3190,Monitor Avenue,73019,35.1812367,-97.4368645
398,Bratcher-Miner Road,73069,35.1723175,-97.4453244
508,North Peters Avenue,73069,35.2255043,-97.4447179
1120,East Main Street,73071,35.2251980,-97.4248685
210,South Cockrel Street,73071,35.2231912,-97.4332087
320,12th Avenue Northeast,73071,35.2240038,-97.4248069
728,South Flood Street,73069,35.2084493,-97.4537758
621,Sunrise Street,73071,35.2103156,-97.4182575
915,Classen Boulevard,73071,35.2148982,-97.4354984
1701,12th Avenue Northeast,73071,35.2392892,-97.4228841
601,Meadow Ridge Road,73072,35.2268573,-97.5058828
600,Parkside Road,73072,35.2269861,-97.5024794
800,North Peters Street,73069,35.2281922,-97.4453302
1809,Stubbeman Avenue,73069,35.2432493,-97.4481914
911,West Main Street,73069,35.2202961,-97.4567715
201,West Gray Street,73069,35.2220534,-97.4468222
500,East Constellation Street,73072,35.1824743,-97.4344489
115,South Porter Avenue,73071,35.2221213,-97.4384541
200,South Jones Avenue,73069,35.2198964,-97.4428880
500,North Sherry Avenue,73069,35.2251810,-97.4691569
320,North Porter Avenue,73071,35.2251378,-97.4409681
1205,Halley Avenue,73069,35.2339804,-97.4608495
1350,Cobblestone Creek Drive,73072,35.1638499,-97.4214871
3301,West Main Street,73072,35.2199422,-97.4900827
1300,North Interstate Drive,73072,35.2343130,-97.4875834
4250,West Tecumseh Road,73072,35.2606031,-97.5041380
3571,West Rock Creek Road,73069,35.2484156,-97.4932859
600,West Rock Creek Road,73069,35.2462872,-97.4511165
2300,Research Park Boulevard,73069,35.2465086,-97.4533366
1350,West Tecumseh Road,73069,35.2603508,-97.4611816
2851,North Flood Avenue,73069,35.2535050,-97.4657129
617,West Rock Creek Road,73069,35.2483288,-97.4508143
1870,West Robinson Street,73069,35.2323291,-97.4682524
1876,West Robinson Street,73069,35.2326048,-97.4681358
1848,West Robinson Street,73069,35.2307342,-97.4682923
1860,West Robinson Street,73069,35.2316497,-97.4681747
1856,West Robinson Street,73069,35.2313234,-97.4681753
1864,West Robinson Street,73069,35.2320102,-97.4681736
1854,West Robinson Street,73069,35.2311204,-97.4682937
1858,West Robinson Street,73069,35.2314605,-97.4681686
1878,West Robinson Street,73069,35.2326039,-97.4683031
1852,West Robinson Street,73069,35.2311211,-97.4681267
1846,West Robinson Street,73069,35.2310475,-97.4677698
1842,West Robinson Street,73069,35.2311050,-97.4675955
1836,West Robinson Street,73069,35.2314914,-97.4676779
1610,Newton Drive,73069,35.2383933,-97.4564845
1101,Lexington Street,73069,35.2413813,-97.4586911
1900,West Robinson Street,73069,35.2326165,-97.4686370
1928,Goddard Avenue,73069,35.2422514,-97.4666560
1928,Goddard Avenue,73069,35.2425586,-97.4665122
1301,Da Vinci Street,73069,35.2444192,-97.4604802
1311,Da Vinci Street,73069,35.2445174,-97.4614553
300,North Crawford Street,73069,35.2241102,-97.4422618
207,East Gray Street,73069,35.2228483,-97.4423367
291,North Crawford Street,73069,35.2238950,-97.4412351
13101,Alameda Street,73026,35.2327958,-97.2479503
100,Breakwater Drive,73026,35.2171771,-97.2407468
322,West Tonhawa Street,73069,35.2208559,-97.4484380
559,West Main Street,73069,35.2189476,-97.4510157
555,West Main Street,73069,35.2189496,-97.4503094
425,West Gray Street,73069,35.2196999,-97.4499764
801,North Peters Avenue,73069,35.2280690,-97.4438187
1130,North Porter Avenue,73071,35.2326195,-97.4414282
318,East Hayes Street,73069,35.2321780,-97.4418013
222,East Hayes Steet,73069,35.2321563,-97.4433772
200,West Hayes Street,73069,35.2321257,-97.4486798
110,East Tonhawa Street,73069,35.2227818,-97.4436347
231,South Peters Avenue,73079,35.2200049,-97.4406632
2831,Conference Drive,73069,35.2455638,-97.4831277
115,East Gray Street,73069,35.2224074,-97.4434177
1100,North Porter Avenue,73071,35.2317235,-97.4415114
4511,South Chautauqua Avenue,73069,35.1707063,-97.4501585
517,South Porter Avenue,73071,35.2185516,-97.4362171
204,North Porter Avenue,73071,35.2239369,-97.4402125
231,East Symmes Street,73069,35.2195156,-97.4391921
329,South Peters Avenue,73069,35.2191031,-97.4400629
603,North Classen Boulevard,73071,35.2179139,-97.4358142
420,South Porter Avenue,73069,35.2191844,-97.4372868
1150,East Alameda Street,73071,35.2179831,-97.4241488
100,12th Avenue Northeast,73071,35.2187948,-97.4248652
300,12th Avenue Southeast,73071,35.2152952,-97.4241062
1100,East Lindsey Street,73071,35.2033142,-97.4243339
1149,East Brooks Street,73071,35.2083238,-97.4245413
925,East Brooks Street,73071,35.2077557,-97.4271713
900,Halray Drive,73071,35.2084278,-97.4271170
330,West Gray Street,73069,35.2194272,-97.4478711
1125,North Porter Avenue,73071,35.2321698,-97.4402802
421,East Acres Street,73071,35.2250962,-97.4397136
302,South Porter Avenue,73071,35.2198016,-97.4382990
701,East Apache Street,73071,35.2211552,-97.4326884
660,Parrington Oval,73019,35.1961810,-97.4425112
494,Elm Street,73069,35.2113281,-97.4482601
404,Toberman Drive,73069,35.2135792,-97.4469677
555,South University Boulevard,73069,35.2127366,-97.4451282
600,South Webster Avenue,73069,35.2149406,-97.4442259
1701,South Asp Avenue,73019,35.1972595,-97.4435587
1610,South Asp Avenue,73019,35.1988318,-97.4449093
1704,South Asp Avenue,73019,35.1980557,-97.4456028
1775,Maple,73019,35.1986878,-97.4467936
1775,Maple,73019,35.1984314,-97.4467957
1775,Maple,73019,35.1971485,-97.4468042
1775,Maple,73019,35.1974039,-97.4468020
1700,South Asp Avenue,73019,35.1980511,-97.4446182
1775,Maple,73019,35.1981775,-97.4467989
1775,Maple,73019,35.1979220,-97.4467999
1775,Maple,73019,35.1989451,-97.4467946
1775,Maple,73019,35.1976673,-97.4468042
1775,Maple,73019,35.1993856,-97.4464181
1775,Maple,73019,35.1993839,-97.4467931
2730,Chautauqua Avenue,73072,35.1909006,-97.4520958
2500,South Asp Avenue,73072,35.1934237,-97.4464914
2500,South Asp Avenue,73072,35.1924762,-97.4464961
2500,South Asp Avenue,73072,35.1929452,-97.4457574
2500,South Asp Avenue,73072,35.1935640,-97.4456765
2500,South Asp Avenue,73072,35.1923327,-97.4470656
2500,South Asp Avenue,73072,35.1923185,-97.4456842
2500,South Asp Avenue,73072,35.1935696,-97.4470634
901,North Porter Avenue,73071,35.2301229,-97.4393145
581,Merchant Drive,73069,35.2252783,-97.4790130
1125,Vicksburg Avenue,73071,35.2141482,-97.4095392
1601,24th Avenue Southeast,73071,35.1983186,-97.4045267
600,48th Avenue Southeast,73071,35.2147705,-97.3717793
2400,East Alameda Street,73071,35.2177527,-97.4054197
201,South Crawford Avenue,73079,35.2210559,-97.4396014
326,East Main Street,73069,35.2223090,-97.4394456
1106,North Porter Avenue,73071,35.2316652,-97.4406642
215,North Ponca Avenue,73071,35.2255122,-97.4381974
320,North Cockrel Avenue,73071,35.2261071,-97.4349674
500,James Drive,73072,35.1979373,-97.4367049
1415,Fairlawn Drive,73071,35.2395408,-97.4202455
3310,108th Avenue Northeast,73026,35.2589324,-97.2841250
105,West Main Street,73069,35.2207882,-97.4444524
115,West Main Street,73069,35.2206891,-97.4447703
126-128,West Gray Street,73069,35.2209349,-97.4455641
111,North Santa Fe Avenue,73069,35.2207755,-97.4455397
132,West Gray Street,73069,35.2209264,-97.4456988
104,West Gray Street,73069,35.2211790,-97.4447847
226,West Gray Street,73069,35.2203106,-97.4467610
220,South Webster Avenue,73069,35.2177676,-97.4461853
768,South Jenkins Avenue,73069,35.2116218,-97.4415922
434,Buchanan Avenue,73069,35.2134935,-97.4448577
722,Asp Avenue,73069,35.2134450,-97.4441486
761,Jenkins Avenue,73069,35.2120929,-97.4409993
502,East Main Street,73071,35.2231523,-97.4374103
1777,East Robinson Street,73071,35.2348580,-97.4164114
301,Triad Village Drive,73071,35.2153430,-97.4192191
401,12th Avenue Southeast,73071,35.2139190,-97.4232150
2730,Chautauqua Avenue,73072,35.1901323,-97.4509748
2154,West Brooks Street,73069,35.2061813,-97.4738982
917,24th Avenue Southwest,73069,35.2067292,-97.4760258
2201,West Brooks Street,73069,35.2080682,-97.4749902
2200,West Brooks Street,73069,35.2065636,-97.4750016
2400,West Brooks Street,73069,35.2069392,-97.4785015
2073,West Lindsey Street,73069,35.2049337,-97.4710775
1132,McGee Drive,73069,35.2050225,-97.4696311
3231,Conestoga Drive,73072,35.1835514,-97.4601284
515,24th Avenue Northwest,73069,35.2241305,-97.4760541
4119,West Main Street,73072,35.2192129,-97.5020461
4400,West Main Street,73072,35.2163187,-97.5068246
300,36th Avenue Southwest,73072,35.2156727,-97.4976060
300,36th Avenue Southwest,73072,35.2157857,-97.4954704
2100,36th Avenue Northwest,73072,35.2441236,-97.4954454
3730,West Rock Creek Road,73072,35.2461030,-97.4971660
3100,Rock Creek Trail,73072,35.2461453,-97.4876680
2003,Beaumont Drive,73071,35.2073885,-97.4106525
900,23rd Street Southeast,73071,35.2068658,-97.4073769
1123,Brandywine Lane,73071,35.2048578,-97.4111757
1616,East Alameda Street,73071,35.2176489,-97.4180515
1610,West Lindsey Street,73069,35.2031608,-97.4650812
200,Vicksburg Avenue,73071,35.2164750,-97.4126541
1601,South McGee Drive,73072,35.1984891,-97.4656487
1601,South McGee Drive,73072,35.1984804,-97.4670090
3200,South Berry Road,73072,35.1832074,-97.4679234
3801,Journey Parkway,73072,35.2646162,-97.4882468
3901,Journey Parkway,73072,35.2664516,-97.4875287
800,North Interstate Drive,73072,35.2284416,-97.4866888
1415,George Avenue,73072,35.2011114,-97.4362211
730,Stinson Street,73072,35.1981950,-97.4308221
601,North University Boulevard,73069,35.2232904,-97.4496666
1351,High Meadows Drive,73071,35.2376781,-97.4218191
1874,West Robinson Street,73069,35.2324085,-97.4682539
1872,West Robinson Street,73069,35.2324108,-97.4681695
1868,West Robinson Street,73069,35.2323301,-97.4681680
1866,West Robinson Street,73069,35.2321665,-97.4681755
1862,West Robinson Street,73069,35.2318045,-97.4681750
1850,West Robinson Street,73069,35.2308882,-97.4682932
1838,West Robinson Street,73069,35.2311057,-97.4674962
1844,West Robinson Street,73069,35.2310353,-97.4675953
1840,West Robinson Street,73069,35.2310353,-97.4674952
325,East Main Street,73069,35.2228477,-97.4397016
300,East Main Street,73069,35.2218979,-97.4401867
1304,Beaumont Street,73071,35.2097687,-97.4219135
1113,Biloxi Drive,73071,35.2051921,-97.4195888
1115,Biloxi Drive,73071,35.2050463,-97.4195797
1131,Biloxi Drive,73071,35.2047540,-97.4194526
1133,Biloxi Drive,73071,35.2049429,-97.4192492
1157,Biloxi Drive,73071,35.2041750,-97.4194036
1161,Biloxi Drive,73071,35.2041230,-97.4195926
1111,Biloxi Drive,73071,35.2051957,-97.4194342
1109,Biloxi Drive,73071,35.2051853,-97.4192447
1107,Biloxi Drive,73071,35.2051891,-97.4190876
1105,Biloxi Drive,73071,35.2051885,-97.4189423
1103,Biloxi Drive,73071,35.2051880,-97.4187999
1101,Biloxi Drive,73071,35.2051866,-97.4186455
1115,Biloxi Drive,73071,35.2048921,-97.4195901
1117,Biloxi Drive,73071,35.2047736,-97.4196198
1119,Biloxi Drive,73071,35.2046437,-97.4196099
1129,Biloxi Drive,73071,35.2047544,-97.4193067
1121,Biloxi Drive,73071,35.2046062,-97.4194325
1123,Biloxi Drive,73071,35.2046206,-97.4192742
1125,Biloxi Drive,73071,35.2046175,-97.4191000
1127,Biloxi Drive,73071,35.2047466,-97.4191176
1135,Biloxi Drive,73071,35.2049237,-97.4190287
1137,Biloxi Drive,73071,35.2049380,-97.4188700
1139,Biloxi Drive,73071,35.2048388,-97.4186795
1141,Biloxi Drive,73071,35.2047194,-97.4186794
1143,Biloxi Drive,73071,35.2045910,-97.4186624
1145,Biloxi Drive,73071,35.2044635,-97.4186788
1147,Biloxi Drive,73071,35.2043451,-97.4186787
1149,Biloxi Drive,73071,35.2042162,-97.4186614
1151,Biloxi Drive,73071,35.2041764,-97.4189454
1153,Biloxi Drive,73071,35.2041766,-97.4190921
1155,Biloxi Drive,73071,35.2041618,-97.4192490
1159,Biloxi Drive,73071,35.2042510,-97.4196237
2405,North Porter Avenue,73071,35.2479062,-97.4406383
3201,Market Place,73072,35.2943326,-97.4898514
351,East Robinson,73069,35.2332467,-97.4415874
1614,West Lindsey Street,73069,35.2029389,-97.4650769
1618,West Lindsey Street,73069,35.2027792,-97.4650795
3350,12th Avenue Northeast,73071,35.2586704,-97.4251747
3651,Classen Boulevard,73071,35.1739614,-97.4085972
2600,Technology Place,73071,35.1853057,-97.4005054
2900,Mount Williams Drive,73069,35.2362885,-97.4842869
2501,Conference Drive,73069,35.2434648,-97.4781267
1049,12th Avenue Northeast,73071,35.2305356,-97.4229117
105,12th Avenue Southeast,73071,35.2180115,-97.4232629
1236,East Alameda Street,73071,35.2180092,-97.4219982
191,12th Avenue Northeast,73071-5236,35.2197700,-97.4230089
1201,East Alameda Street,73071,35.2188084,-97.4231343
1251,East Alameda Street,73071,35.2189948,-97.4208178
600,West Tecumseh Road,73069,35.2611683,-97.4505410
3650,Classen Boulevard,73071,35.1738450,-97.4126658
3700,12th Avenue Southeast,73072,35.1731253,-97.4254543
1914,23rd Avenue Southeast,73071,35.1946857,-97.4068854
2704,Frost Lane,73071,35.1934332,-97.4026080
510,East Chesapeake Street,73019,35.1887436,-97.4347499
660,Ed Noble Parkway,73072,35.2100110,-97.4849861
640,Ed Noble Parkway,73072,35.2102709,-97.4852683
620,Ed Noble Parkway,73072,35.2105232,-97.4855749
600,Ed Noble Parkway,73072,35.2108105,-97.4857502
540,Ed Noble Parkway,73072,35.2119022,-97.4866758
530,Ed Noble Parkway,73072,35.2122455,-97.4869391
3020,South Classen Boulevard,73071,35.1823373,-97.4183563
1551,Ann Branden Boulevard,73071,35.1827157,-97.4167620
1400,Ed Noble Parkway,73072,35.2018516,-97.4844374
913,Montane Court,73069,35.2558603,-97.4564027
3100,Montane Court,73069,35.2557409,-97.4565638
3125,Montane Court,73069,35.2548646,-97.4557991
3124,Montane Court,73069,35.2550141,-97.4565245
230,West Gray Street,73069,35.2203098,-97.4470616
500,Merchant Drive,73069,35.2245087,-97.4800515
540,Merchant Drive,73069,35.2247528,-97.4800190
3939,West Tecumseh Road,73072,35.2629972,-97.4985649
501,East Robinson Street,73071,35.2338578,-97.4394635
500,Elmwood Drive,73072,35.2005881,-97.4486457
1938,Fillmore Avenue,73072,35.1948619,-97.4804535
860,North Interstate Drive,73072,35.2293179,-97.4864185
1604,Cambridge Drive,73069,35.2287753,-97.4652242
2300,Alameda Street,73071,35.2178725,-97.4071405
520,24th Avenue Southwest,73069,35.2119425,-97.4773104
510,24th Avenue Southwest,73069,35.2118280,-97.4770513
444,24th Avenue Southwest,73069,35.2121969,-97.4770138
550,24th Avenue Southwest,73069,35.2115376,-97.4771530
613,24th Avenue Southwest,73069,35.2109538,-97.4761773
611,24th Avenue Southwest,73069,35.2109211,-97.4759120
617,24th Avenue Southwest,73069,35.2107395,-97.4761346
600,24th Avenue Southwest,73069,35.2107349,-97.4773470
600,24th Avenue Southwest,73069,35.2093961,-97.4771067
700,24th Avenue Southwest,73069,35.2090078,-97.4771037
811,24th Avenue Southwest,73069,35.2081797,-97.4760903
707,24th Avenue Southwest,73069,35.2091731,-97.4763296
629,24th Avenue Southwest,73069,35.2097019,-97.4761247
621,24th Avenue Southwest,73069,35.2102230,-97.4757289
2490,West Main Street,73069,35.2178445,-97.4793082
2520,McGee Drive,73072,35.1945303,-97.4691833
120,12th Avenue Northeast,73071,35.2198749,-97.4241955
110,12th Avenue Northeast,73071,35.2191592,-97.4241480
2211,West Boyd Street,73069,35.2114831,-97.4738341
616,Bud Wilkinson Drive Southwest,73069,35.2121589,-97.4745468
2321,Westpark Drive,73069,35.2097737,-97.4757926
2303,Westpark Drive,73069,35.2097035,-97.4754337
2221,Westpark Drive,73069,35.2097717,-97.4751323
2213,Westpark Drive,73069,35.2097872,-97.4748512
2201,Westpark Drive,73069,35.2095053,-97.4746100
2202,Westpark Drive,73069,35.2093048,-97.4745930
2212,Westridge Terrace,73069,35.2090949,-97.4748839
2222,Westpark Drive,73069,35.2090495,-97.4752129
2312,Westpark Drive,73069,35.2092733,-97.4757223
1303,West Tecumseh Road,73069,35.2625438,-97.4619302
1303,West Tecumseh Road,73069,35.2633640,-97.4618952
1303,West Tecumseh Road,73069,35.2628122,-97.4625953
1303,West Tecumseh Road,73069,35.2631580,-97.4628024
1303,West Tecumseh Road,73069,35.2625744,-97.4629179
1303,West Tecumseh Road,73069,35.2633694,-97.4625533
3505,12th Avenue Northeast,73071,35.2606341,-97.4229562
770,Copperfield Drive,73072,35.2280118,-97.4877156
1201,East Lindsey,73071,35.2041728,-97.4231808
3051,Classen Boulevard,73071,35.1821359,-97.4163813
3281,Classen Boulevard,73071,35.1817950,-97.4162130
3101,Classen Boulevard,73071,35.1808782,-97.4156166
3251,Classen Boulevard,73071,35.1799023,-97.4151464
2501,Technology Place,73071,35.1867511,-97.3988785
1203,Elm Avenue,73072,35.2004776,-97.4476237
251,12th Avenue Southeast,73071,35.2158677,-97.4231284
1425,Beverly Hills Street,73072,35.2009659,-97.4625641
421,East Acres Street,73071,35.2245360,-97.4397685
500,East Alameda Street,73071,35.2180733,-97.4342829
100,Stinson Street,73072,35.2000015,-97.4406796
2300,Conference Drive,73069,35.2415663,-97.4762332
2627,Classen Boulevard,73071,35.1913203,-97.4224555
2627,Classen Boulevard,73071,35.1911013,-97.4223129
117-119,West Main Street,73069,35.2206307,-97.4449101
121,West Main Street,73069,35.2205834,-97.4450206
123,West Main Street,73069,35.2205606,-97.4451113
127,West Main Street,73069,35.2204996,-97.4452153
207,West Main Street,73069,35.2201669,-97.4458399
209,West Main Street,73069,35.2201459,-97.4459212
211,West Main Street,73069,35.2201131,-97.4459994
213,West Main Street,73069,35.2200571,-97.4460601
215,West Main Street,73069,35.2200141,-97.4461259
217,West Main Street,73069,35.2200803,-97.4462623
227,West Main Street,73069,35.2198374,-97.4465524
231,West Main Street,73069,35.2197086,-97.4467126
3700,West Tecumseh Road,73072,35.2612800,-97.4964842
3301,West Main Street,73072,35.2211158,-97.4872785
405,Daybreak Drive,73071,35.2151078,-97.3968084
409,Daybreak Drive,73072,35.2149093,-97.3967966
906,North Cockrel Avenue,73071,35.2320363,-97.4349665
228,East Mosier Street,73069,35.2312821,-97.4431465
2924,Canyon Oaks Court,73071,35.2229332,-97.3976102
131,West Acres Street,73069,35.2257675,-97.4486723
128,West Acres Street,73069,35.2259663,-97.4486562
125,West Acres Street,73069,35.2262063,-97.4486994
3421,West Rock Creek Road,73072,35.2479666,-97.4918125
103,West Acres Street,73069,35.2262483,-97.4477994
5401,Huettner Drive,73069,35.2839030,-97.4835563
840,Copperfield Drive,73072,35.2286050,-97.4880899
700,Copperfield Drive,73072,35.2262137,-97.4877431
608,Broad Lane,73069,35.2100523,-97.4564601
1601,East Imhoff Road,73071,35.1929066,-97.4180752
1211,Crown Point Avenue,73071,35.2030577,-97.4702099
1209,Crown Point Avenue,73072,35.2032741,-97.4703742
1207,Crown Point Avenue,73072,35.2030582,-97.4704802
1213,Crown Point Avenue,73072,35.2028412,-97.4703776
3075,Classen Boulevard,73071,35.1814023,-97.4158903
3603,Classen Boulevard,73071,35.1748046,-97.4118160
2000,Ann Branden Boulevard,73071,35.1869068,-97.4077074
2217,24th Avenue Southwest,73072,35.1916139,-97.4759890
2300,24th Avenue Southwest,73072,35.1914803,-97.4783868
505,12th Avenue Southeast,73071,35.2122167,-97.4230908
2201,Trae Young Drive,73069,35.2451504,-97.4763904
1340,Creekside Drive,73071,35.2021959,-97.4164680
3428,Jenkins Avenue,73072,35.1781356,-97.4420283
736,Nancy Lynn Terrace,73069,35.2094419,-97.4708134
732,Nancy Lynn Terrace,73069,35.2096131,-97.4708184
728,Nancy Lynn Terrace,73069,35.2097817,-97.4708416
722,Nancy Lynn Terrace,73069,35.2100213,-97.4708416
716,Nancy Lynn Terrace,73069,35.2102545,-97.4708537
712,Nancy Lynn Terrace,73069,35.2104273,-97.4708178
708,Nancy Lynn Terrace,73069,35.2105944,-97.4708533
704,Nancy Lynn Terrace,73069,35.2107448,-97.4708218
700,Nancy Lynn Terrace,73069,35.2109318,-97.4708245
703,Nancy Lynn Terrace,73069,35.2109275,-97.4702746
707,Nancy Lynn Terrace,73069,35.2107580,-97.4703012
711,Nancy Lynn Terrace,73069,35.2105914,-97.4703222
715,Nancy Lynn Terrace,73069,35.2103333,-97.4703259
723,Nancy Lynn Terrace,73069,35.2101225,-97.4703092
727,Nancy Lynn Terrace,73069,35.2099391,-97.4702911
731,Nancy Lynn Terrace,73069,35.2097860,-97.4702994
735,Nancy Lynn Terrace,73069,35.2096129,-97.4702854
739,Nancy Lynn Terrace,73069,35.2094455,-97.4702981
743,Nancy Lynn Terrace,73069,35.2092808,-97.4703129
747,Nancy Lynn Terrace,73069,35.2090788,-97.4703145
801,Nancy Lynn Terrace,73069,35.2088708,-97.4703209
807,Nancy Lynn Terrace,73069,35.2086747,-97.4703061
813,Nancy Lynn Terrace,73069,35.2084900,-97.4702841
817,Nancy Lynn Terrace,73069,35.2082950,-97.4703042
821,Nancy Lynn Terrace,73069,35.2081147,-97.4702740
825,Nancy Lynn Terrace,73069,35.2079180,-97.4702639
829,Nancy Lynn Terrace,73069,35.2077712,-97.4704939
826,Nancy Lynn Terrace,73069,35.2078041,-97.4707836
820,Nancy Lynn Terrace,73069,35.2080914,-97.4709056
814,Nancy Lynn Terrace,73069,35.2082810,-97.4708215
810,Nancy Lynn Terrace,73069,35.2084435,-97.4708457
806,Nancy Lynn Terrace,73069,35.2086106,-97.4708403
802,Nancy Lynn Terrace,73069,35.2087886,-97.4708617
803,Annie Court,73069,35.2087505,-97.4713861
809,Annie Court,73069,35.2085023,-97.4714072
815,Annie Court,73069,35.2082859,-97.4713988
819,Annie Court,73069,35.2081210,-97.4713593
823,Annie Court,73069,35.2078931,-97.4713518
827,Annie Court,73069,35.2077851,-97.4715551
824,Annie Court,73069,35.2077525,-97.4718337
820,Annie Court,73069,35.2079125,-97.4720261
816,Annie Court,73069,35.2081175,-97.4720040
812,Annie Court,73069,35.2082755,-97.4719112
808,Annie Court,73069,35.2084465,-97.4719282
804,Annie Court,73069,35.2086136,-97.4719279
2104,La Dean Drive,73069,35.2087829,-97.4719534
2001,La Dean Drive,73069,35.2092000,-97.4708117
2005,La Dean Drive,73069,35.2091888,-97.4710233
2009,La Dean Drive,73069,35.2091511,-97.4712255
2013,La Dean Drive,73069,35.2091771,-97.4714246
2017,La Dean Drive,73069,35.2091815,-97.4716224
2021,La Dean Drive,73069,35.2091507,-97.4718283
2103,La Dean Drive,73069,35.2091705,-97.4720335
2109,La Dean Drive,73069,35.2091672,-97.4722320
2010,West Brooks Street,73069,35.2073964,-97.4725505
905,Jona Kay Terrace,73069,35.2072378,-97.4725381
909,Jona Kay Terrace,73069,35.2071030,-97.4725277
913,Jona Kay Terrace,73069,35.2069625,-97.4725425
917,Jona Kay Terrace,73069,35.2068247,-97.4725626
921,Jona Kay Terrace,73069,35.2066909,-97.4725409
925,Jona Kay Terrace,73069,35.2065519,-97.4725311
929,Jona Kay Terrace,73069,35.2064154,-97.4725287
933,Jona Kay Terrace,73069,35.2062713,-97.4725163
937,Jona Kay Terrace,73069,35.2061519,-97.4724563
941,Jona Kay Terrace,73069,35.2059347,-97.4725505
945,Jona Kay Terrace,73069,35.2058683,-97.4728027
940,Jona Kay Terrace,73069,35.2059413,-97.4730618
936,Jona Kay Terrace,73069,35.2061084,-97.4731322
932,Jona Kay Terrace,73069,35.2062746,-97.4730779
928,Jona Kay Terrace,73069,35.2064174,-97.4730551
924,Jona Kay Terrace,73069,35.2065544,-97.4730708
920,Jona Kay Terrace,73069,35.2066907,-97.4730564
916,Jona Kay Terrace,73069,35.2068289,-97.4730464
912,Jona Kay Terrace,73069,35.2069650,-97.4730555
908,Jona Kay Terrace,73069,35.2071074,-97.4730289
904,Jona Kay Terrace,73069,35.2072397,-97.4730430
2020,West Brooks Street,73069,35.2073898,-97.4731024
826,Jona Kay Terrace,73069,35.2077495,-97.4730883
822,Jona Kay Terrace,73069,35.2079205,-97.4730809
818,Jona Kay Terrace,73069,35.2080923,-97.4730521
814,Jona Kay Terrace,73069,35.2082662,-97.4730729
810,Jona Kay Terrace,73069,35.2084368,-97.4730246
806,Jona Kay Terrace,73069,35.2086248,-97.4730444
2122,La Dean Drive,73069,35.2088058,-97.4730565
732,Jona Kay Terrace,73069,35.2091510,-97.4730658
728,Jona Kay Terrace,73069,35.2093228,-97.4730424
724,Jona Kay Terrace,73069,35.2094882,-97.4730346
720,Jona Kay Terrace,73069,35.2096570,-97.4730289
714,Jona Kay Terrace,73069,35.2098611,-97.4730222
710,Jona Kay Terrace,73069,35.2101159,-97.4731151
704,Jona Kay Terrace,73069,35.2103380,-97.4730018
700,Jona Kay Terrace,73069,35.2104475,-97.4727976
703,Jona Kay Terrace,73069,35.2103358,-97.4724864
707,Jona Kay Terrace,73069,35.2101552,-97.4724610
711,Jona Kay Terrace,73069,35.2099808,-97.4724720
715,Jona Kay Terrace,73069,35.2098173,-97.4725223
719,Jona Kay Terrace,73069,35.2096573,-97.4725026
723,Jona Kay Terrace,73069,35.2094743,-97.4724878
2117,La Dean Drive,73069,35.2091875,-97.4725291
801,Jona Kay Terrace,73069,35.2087784,-97.4724955
805,Jona Kay Terrace,73069,35.2086103,-97.4725093
809,Jona Kay Terrace,73069,35.2084355,-97.4725240
813,Jona Kay Terrace,73069,35.2082678,-97.4725180
817,Jona Kay Terrace,73069,35.2080936,-97.4725327
821,Jona Kay Terrace,73069,35.2079156,-97.4724972
825,Jona Kay Terrace,73069,35.2077452,-97.4725220
828,Westridge Terrace,73069,35.2077471,-97.4741816
824,Westridge Terrace,73069,35.2079125,-97.4741719
820,Westridge Terrace,73069,35.2080829,-97.4741827
816,Westridge Terrace,73069,35.2082429,-97.4741658
812,Westridge Terrace,73069,35.2084095,-97.4741712
808,Westridge Terrace,73069,35.2085742,-97.4741911
804,Westridge Terrace,73069,35.2087404,-97.4741531
800,Westridge Terrace,73069,35.2089099,-97.4741458
734,Westridge Terrace,73069,35.2091395,-97.4741588
728,Westridge Terrace,73069,35.2093765,-97.4741356
722,Westridge Terrace,73069,35.2096129,-97.4741471
716,Westridge Terrace,73069,35.2098504,-97.4741357
712,Westridge Terrace,73069,35.2101159,-97.4742212
706,Westridge Terrace,73069,35.2103602,-97.4741267
701,Westridge Terrace,73069,35.2104037,-97.4736844
705,Westridge Terrace,73069,35.2101057,-97.4735711
711,Westridge Terrace,73069,35.2098674,-97.4736368
717,Westridge Terrace,73069,35.2096600,-97.4736445
721,Westridge Terrace,73069,35.2094891,-97.4736331
725,Westridge Terrace,73069,35.2093247,-97.4736147
729,Westridge Terrace,73069,35.2091500,-97.4735952
803,Westridge Terrace,73069,35.2087813,-97.4735922
801,Westridge Terrace,73069,35.2086098,-97.4736200
811,Westridge Terrace,73069,35.2084385,-97.4736468
815,Westridge Terrace,73069,35.2082638,-97.4736160
819,Westridge Terrace,73069,35.2080918,-97.4736314
823,Westridge Terrace,73069,35.2079262,-97.4736261
827,Westridge Terrace,73069,35.2077488,-97.4736321
837,Carriage Lane,73069,35.2077400,-97.4691756
833,Carriage Lane,73069,35.2079088,-97.4692058
829,Carriage Lane,73069,35.2080459,-97.4691947
825,Carriage Lane,73069,35.2082259,-97.4692004
821,Carriage Lane,73069,35.2083840,-97.4692169
811,Carriage Lane,73069,35.2086402,-97.4692373
1812,Marian Drive,73069,35.2086324,-97.4689006
1808,Marian Drive,73069,35.2086062,-97.4686985
1804,Marian Drive,73069,35.2085654,-97.4684377
1800,Marian Drive,73069,35.2085547,-97.4680967
804,McGee Drive,73069,35.2091601,-97.4681765
1817,Marian Drive,73069,35.2090952,-97.4690371
1825,Marian Drive,73069,35.2091258,-97.4693248
1828,Marian Drive,73069,35.2091762,-97.4695813
800,Carriage Lane,73069,35.2090338,-97.4697459
808,Carriage Lane,73069,35.2088264,-97.4698150
812,Carriage Lane,73069,35.2086402,-97.4696876
816,Carriage Lane,73069,35.2084108,-97.4697610
824,Carriage Lane,73069,35.2082035,-97.4696892
828,Carriage Lane,73069,35.2080320,-97.4696909
832,Carriage Lane,73069,35.2078928,-97.4697040
836,Carriage Lane,73069,35.2077307,-97.4696799
1912,West Boyd Street,73069,35.2109058,-97.4698709
702,McGee Drive,73069,35.2109576,-97.4680714
708,McGee Drive,73069,35.2107947,-97.4680850
1801,West Brooks Street,73069,35.2080860,-97.4683067
712,McGee Drive,73069,35.2106414,-97.4680633
1908,West Boyd Street,73069,35.2109191,-97.4695254
1840,West Boyd Street,73069,35.2108802,-97.4691928
716,McGee Drive,73069,35.2104762,-97.4680636
1919,Ithaca Drive,73071,35.2419333,-97.4118306
220,S Porter Ave,73071,35.2210232,-97.4383987
1800,Beaumont Drive,73071,35.2071192,-97.4157963
331,East Robinson Street,73069,35.2332608,-97.4421971
1714,Avondale Drive,73069,35.2068158,-97.4671421
1624,Avondale Drive,73069,35.2068413,-97.4661238
1609,Avondale Drive,73069,35.2073110,-97.4652805
1529,Avondale Drive,73069,35.2073108,-97.4648762
1507,Avondale Drive,73069,35.2073457,-97.4638531
1718,Avondale Drive,73069,35.2068402,-97.4673422
1528,Avondale Drive,73069,35.2069221,-97.4648898
1608,Avondale Drive,73069,35.2069376,-97.4653028
1612,Avondale Drive,73069,35.2069019,-97.4654985
1602,Avondale Drive,73069,35.2069250,-97.4650970
1603,Avondale Drive,73069,35.2073016,-97.4650696
1524,Avondale Drive,73069,35.2069343,-97.4646874
1525,Avondale Drive,73069,35.2073284,-97.4646621
1516,Avondale Drive,73069,35.2069409,-97.4642690
1517,Avondale Drive,73069,35.2073459,-97.4642690
1702,Avondale Drive,73069,35.2068349,-97.4665403
1710,Avondale Drive,73069,35.2068103,-97.4669406
1720,Avondale Drive,73069,35.2068295,-97.4675697
1510,Avondale Drive,73069,35.2069477,-97.4640650
1520,Avondale Drive,73069,35.2069445,-97.4644787
1621,Avondale Drive,73069,35.2072870,-97.4658963
1613,Avondale Drive,73069,35.2072902,-97.4654866
1511,Avondale Drive,73069,35.2073276,-97.4640706
1628,Avondale Drive,73069,35.2068567,-97.4663320
1706,Avondale Drive,73069,35.2068441,-97.4667368
1506,Avondale Drive,73069,35.2069558,-97.4638591
1503,Avondale Drive,73069,35.2073330,-97.4636328
1620,Avondale Drive,73069,35.2068688,-97.4659147
1617,Avondale Drive,73069,35.2072945,-97.4656947
1616,Avondale Drive,73069,35.2068603,-97.4657187
1502,Avondale Drive,73069,35.2069497,-97.4636269
1625,Avondale Drive,73069,35.2072496,-97.4660970
1608,Oakwood Drive,73069,35.2060648,-97.4651188
1528,Oakwood Drive,73069,35.2060766,-97.4646291
1516,Oakwood Drive,73069,35.2060941,-97.4641371
1508,Oakwood Drive,73069,35.2060976,-97.4638806
1727,Oakwood Drive,73069,35.2063850,-97.4673229
1721,Oakwood Drive,73069,35.2063697,-97.4670677
1708,Oakwood Drive,73069,35.2059809,-97.4665593
1626,Oakwood Drive,73069,35.2060106,-97.4658285
1503,Oakwood Drive,73069,35.2064648,-97.4636321
1627,Oakwood Drive,73069,35.2064253,-97.4658503
1615,Oakwood Drive,73069,35.2064508,-97.4653573
1709,Oakwood Drive,73069,35.2063814,-97.4665789
1523,Oakwood Drive,73069,35.2064697,-97.4643838
1522,Oakwood Drive,73069,35.2060890,-97.4643771
1720,Oakwood Drive,73069,35.2059650,-97.4670659
1603,Oakwood Drive,73069,35.2064757,-97.4648941
1509,Oakwood Drive,73069,35.2064808,-97.4638810
1715,Oakwood Drive,73069,35.2063932,-97.4668056
1517,Oakwood Drive,73069,35.2064764,-97.4641315
1703,Oakwood Drive,73069,35.2063981,-97.4662972
1631,Oakwood Drive,73069,35.2064215,-97.4660908
1621,Oakwood Drive,73069,35.2064375,-97.4656346
1620,Oakwood Drive,73069,35.2060262,-97.4656069
1602,Oakwood Drive,73069,35.2060464,-97.4648793
1630,Oakwood Drive,73069,35.2060064,-97.4660674
1714,Oakwood Drive,73069,35.2059857,-97.4668231
1730,Oakwood Drive,73069,35.2059708,-97.4675608
1502,Oakwood Drive,73069,35.2060820,-97.4636249
1731,Oakwood Drive,73069,35.2063811,-97.4675873
1609,Oakwood Drive,73069,35.2064601,-97.4651523
1702,Oakwood Drive,73069,35.2059638,-97.4663085
1529,Oakwood Drive,73069,35.2064800,-97.4646447
1726,Oakwood Drive,73069,35.2059779,-97.4673171
1614,Oakwood Drive,73069,35.2060117,-97.4653320
1612,Lancaster Circle,73069,35.2052543,-97.4656533
1616,Lancaster Circle,73069,35.2051030,-97.4659087
1718,Lancaster Circle,73069,35.2051254,-97.4673270
1722,Lancaster Circle,73069,35.2051023,-97.4675493
1710,Lancaster Circle,73069,35.2051029,-97.4668553
1711,Lancaster Circle,73069,35.2055195,-97.4668755
1703,Lancaster Circle,73069,35.2055330,-97.4663930
1615,Lancaster Circle,73069,35.2056604,-97.4658540
1620,Lancaster Circle,73069,35.2050968,-97.4661414
1619,Lancaster Circle,73069,35.2056116,-97.4661468
1715,Lancaster Circle,73069,35.2055471,-97.4670917
1702,Lancaster Circle,73069,35.2051072,-97.4663819
1723,Lancaster Circle,73069,35.2055302,-97.4675616
1611,Lancaster Circle,73069,35.2055120,-97.4656134
1707,Lancaster Circle,73069,35.2055267,-97.4666218
1714,Lancaster Circle,73069,35.2051343,-97.4670903
1719,Lancaster Circle,73069,35.2055398,-97.4673281
1706,Lancaster Circle,73069,35.2051250,-97.4666198
1511,Lindale Circle,73069,35.2056745,-97.4641515
1502,Lindale Circle,73069,35.2052273,-97.4636421
1503,Lindale Circle,73069,35.2056528,-97.4636200
1518,Lindale Circle,73069,35.2052200,-97.4646563
1507,Lindale Circle,73069,35.2056470,-97.4638988
1510,Lindale Circle,73069,35.2052468,-97.4641515
1506,Lindale Circle,73069,35.2052348,-97.4638980
1524,Lindale Circle,73069,35.2057107,-97.4649448
1519,Lindale Circle,73069,35.2056809,-97.4646643
1527,Lindale Circle,73069,35.2055473,-97.4652118
1526,Lindale Circle,73069,35.2052919,-97.4652083
1514,Lindale Circle,73069,35.2052318,-97.4644007
1515,Lindale Circle,73069,35.2056696,-97.4644026
1522,Lindale Circle,73069,35.2051894,-97.4649570
1521,Cruce Street,73069,35.2096378,-97.4642336
1527,Cruce Street,73069,35.2097644,-97.4644845
1727,Cruce Street,73069,35.2105574,-97.4675187
1638,Cruce Street,73069,35.2101010,-97.4660492
1631,Cruce Street,73069,35.2105509,-97.4661581
1621,Cruce Street,73069,35.2103115,-97.4655327
1535,Cruce Street,73069,35.2099219,-97.4647624
1719,Cruce Street,73069,35.2105394,-97.4671467
1505,Cruce Street,73069,35.2096148,-97.4636251
1630,Cruce Street,73069,35.2099880,-97.4657861
1513,Cruce Street,73069,35.2095768,-97.4639910
1614,Cruce Street,73069,35.2096992,-97.4652282
1724,Cruce Street,73069,35.2101755,-97.4671312
1520,Cruce Street,73069,35.2093009,-97.4643713
1526,Cruce Street,73069,35.2093955,-97.4646804
1730,Cruce Street,73069,35.2101596,-97.4674936
1611,Cruce Street,73069,35.2101479,-97.4652295
1711,Cruce Street,73069,35.2105861,-97.4668327
1627,Cruce Street,73069,35.2104199,-97.4658035
1512,Cruce Street,73069,35.2091854,-97.4639324
1706,Cruce Street,73069,35.2101391,-97.4664647
1622,Cruce Street,73069,35.2098367,-97.4655083
1716,Cruce Street,73069,35.2101690,-97.4668255
1703,Cruce Street,73069,35.2105589,-97.4664968
1504,Cruce Street,73069,35.2091933,-97.4635939
1606,Cruce Street,73069,35.2095355,-97.4649422
1019,McNamee Street,73069,35.2131609,-97.4561276
3281,Classen Boulevard,73071,35.1795310,-97.4148912
3281,Classen Boulevard,73071,35.1793316,-97.4148056
1183,East Main Street,73071,35.2274176,-97.4248851
520,South Wylie Road,73069,35.2131666,-97.4640293
1836,West Robinson Avenue,73069,35.2316789,-97.4671949
900,North Porter Avenue,73069,35.2300487,-97.4417418
339,West Boyd Street,73019,35.2115352,-97.4453392
2313,24th Avenue Northwest,73069,35.2229293,-97.4761101
401,12th Avenue Southeast,73071,35.2132311,-97.4216885
375,Triad Village Drive,73071,35.2143918,-97.4194466
1120,McGee Drive,73069,35.2055233,-97.4689843
1111,24th Avenue Southwest,73069,35.2049934,-97.4759591
1185,Asp Avenue,73019,35.2056670,-97.4422563
