House number,Street name,Postal code,Latitude,Longitude
1215,Northwest 95th Street,73114,35.5676944,-97.5345817
14401,North May Avenue,73134,35.6172706,-97.5699382
4201,North Martin Luther King Boulevard,73111,35.5155249,-97.4786878
2800,West 15th Street,73083,35.6377144,-97.5202895
313,Southwest 79th Street,73139,35.3886017,-97.5184366
2425,North Warren Avenue,73107,35.4937077,-97.5992371
7700,North Council Road,73123,35.5499366,-97.6519587
500,East Wilshire Boulevard,73105,35.5506348,-97.5025624
400,East Wilshire Boulevard,73105,35.5507399,-97.5045770
3520,North Kelley Avenue,73111,35.5056635,-97.4937583
8500,South Walker Avenue,73170,35.3815266,-97.5205823
2212,Southwest 55th Street,73119,35.4097844,-97.5520407
11401,North Rockwell Avenue,73162,35.5850148,-97.6404194
1001,NW 25th Street,73106,35.4958926,-97.5292061
3721,Staton Drive,73111,35.5086504,-97.4902360
8721,North Walker Avenue,73114,35.5591402,-97.5229802
8601,South Pennsylvania Avenue,73159,35.3794500,-97.5486160
4231,Northwest 50th Street,73112,35.5227483,-97.5961387
14700,North May Avenue,73134,35.6197246,-97.5663399
401,Southwest 44th Street,73109,35.4210455,-97.5202922
12609,South Western Avenue,73170,35.3437485,-97.5309221
2801,East Memorial Road,73013,35.6094995,-97.4643945
2820,East Memorial Road,73013,35.6088416,-97.4616025
5815,North Martin Luther King Avenue,73111-7050,35.5306372,-97.4771726
6101,North Martin Luther King,73111,35.5340145,-97.4774757
8500,North Rockwell Avenue,73132,35.5570965,-97.6378892
8425,North Rockwell Avenue,73132,35.5565646,-97.6388240
1106,North Stonewall Avenue,73117,35.4794240,-97.4926197
1000,North Lincoln Boulevard,73104,35.4776722,-97.5010986
840,Research Parkway,73104,35.4754412,-97.5046789
333,W. Sheridan Avenue,73012,35.4671304,-97.5183512
4201,North Western Avenue,73118,35.5142821,-97.5296160
4200,North Western Avenue,73118,35.5142334,-97.5296181
4315,North Western Avenue,73118,35.5153299,-97.5301999
4301,North Western Avenue,73118,35.5147267,-97.5300223
3009,Paseo,73103,35.4999082,-97.5232843
601,Northeast 50th Street,73105,35.5220115,-97.5020411
5116,North Shartel Avenue,73118,35.5230709,-97.5251296
4716,North Western Avenue,73118,35.5191882,-97.5295701
4,South Mustang Road,73099,35.4660912,-97.7241499
11303,Westmark Drive,73099,35.4661589,-97.7236181
11312,Westmark Drive,73099,35.4656520,-97.7227062
6300,North Santa Fe Avenue,73118,35.5358408,-97.5109199
520,South Mustang Road,73099,35.4600807,-97.7234850
301,South Mustang Road,73099,35.4632222,-97.7254162
1708,North Indiana Avenue,73170,35.4863767,-97.5410111
4500,North Western Avenue,73118,35.5167664,-97.5295555
4709,North Western Avenue,73118,35.5190852,-97.5299793
4520,North Western Avenue,73118,35.5172099,-97.5296962
4308,North Western Avenue,73118,35.5149656,-97.5296773
222,Northwest 15th Street,73103,35.4845812,-97.5163147
1100,Classen Drive,73102,35.4792814,-97.5213222
14613,North May Avenue,73134,35.6190509,-97.5688891
14617,North Pennsylvania Avenue,73134,35.6191311,-97.5502689
2101,Northwest 145th Street,73134,35.6183157,-97.5499631
16331,NORTH PENNSYLVANIA AVE,73013,35.6374312,-97.5500597
4318,North Western Avenue,73118,35.5152010,-97.5296902
4322,North Western Avenue,73118,35.5153800,-97.5296899
211,North Robinson Avenue,73102,35.4694748,-97.5169074
216,North Harvey,73102,35.4695898,-97.5178166
120,North Robinson Avenue,73102,35.4684224,-97.5158972
110,North Robinson Avenue,73102,35.4679486,-97.5163297
415,Couch Drive,73102,35.4696106,-97.5198946
3604,North May Avenue,73112-6686,35.5065077,-97.5653537
6318,North Western Avenue,73116,35.5376590,-97.5293154
13301,South Pennsylvania Avenue,73170,35.3358200,-97.5489900
2201,SW 134th Street,73170,35.3347290,-97.5498800
1150,Southeast 44th Street,73129,35.4204460,-97.4922120
5900,Mosteller Drive,73112,35.5311638,-97.5711307
7700,North Hudson Avenue,73116,35.5505180,-97.5205389
211,North Robinson Avenue,73102,35.4693218,-97.5168373
4608,North Western Avenue,73118,35.5178488,-97.5296908
1108,Northwest 18th Street,73106,35.4872998,-97.5305642
1105,West Britton Road,73114,35.5658777,-97.5319647
1901,Northwest Expressway,73118,35.5240264,-97.5443667
420,Northwest 5th Street,73102,35.4725243,-97.5197980
413,West Britton Road,73114,35.5658780,-97.5212422
1335,West Sheridan Avenue,73106,35.4666382,-97.5365978
2601,Northwest Expressway,73112,35.5258040,-97.5592006
2601,Northwest Expressway,73112,35.5258187,-97.5596505
5625,North Western Avenue,73118,35.5298290,-97.5302933
112,North Robinson Avenue,73102,35.4683176,-97.5163523
621,West Reno Avenue,73102,35.4646874,-97.5234662
120,North Robinson Avenue,73102,35.4683739,-97.5153422
120,North Robinson Avenue,73102,35.4683803,-97.5155607
120,North Robinson Avenue,73102,35.4685003,-97.5157878
5137,North Classen Circle,73118,35.5233844,-97.5329516
324,North Robinson Avenue,73102,35.4705253,-97.5162882
120,North Robinson Avenue,73102,35.4684003,-97.5160051
9300,North Rockwell,73132,35.5645507,-97.6380037
911,North Broadway Avenue,73102,35.4765118,-97.5145820
17342,North May Avenue,73012,35.6487306,-97.5661694
120,North Robinson Avenue,73102,35.4685057,-97.5160025
6833,Northwest 157th Street,73013,35.6313672,-97.6354547
119,North Robinson Avenue,73102,35.4685964,-97.5168414
14040,North May Avenue,73134,35.6133245,-97.5664138
13920,North May Avenue,73134,35.6124910,-97.5664249
3437,West Memorial Road,73134,35.6105106,-97.5786866
3007,North May Avenue,73107,35.4998591,-97.5659226
502,North Hudson Avenue,73102,35.4722388,-97.5193111
506,North Hudson Avenue,73102,35.4722825,-97.5193096
7309,South Western Avenue,73139,35.3934376,-97.5311536
1505,Southwest 74th Street,73159,35.3920150,-97.5447900
74108,Sovereign Row,74108,35.4541768,-97.5983119
1005,Metropolitan Avenue,73108,35.4566195,-97.5940901
1601,Greenbriar Place,73159,35.3654706,-97.5456578
1015,N. Broadway,73102,35.4776465,-97.5143425
204,North Robinson Avenue Suite 2000,73102,35.4690299,-97.5161100
10601,North I-35 Service Road,73131,35.5778815,-97.4452968
4010,North Lincoln Boulevard,73112,35.5117730,-97.5018170
421,Northwest 10th Street,73103,35.4785882,-97.5201297
421,Northwest 10th Street,73103,35.4785662,-97.5197981
1516a,Southwest 59th Street,73119,35.4058633,-97.5441883
1516b,Southwest 59th Street,73119,35.4058676,-97.5442377
1620,Southwest 89th Street,73159,35.3764295,-97.5459514
1648,Southwest 89th Street,73159,35.3760966,-97.5468454
9026,South Pennsylvania Avenue,73159,35.3756656,-97.5471925
9022,South Pennsylvania Avenue,73159,35.3757961,-97.5471860
9018,South Pennsylvania Avenue,73159,35.3758811,-97.5471978
9016,South Pennsylvania Avenue,73159,35.3759569,-97.5471967
9010,South Pennsylvania Avenue,73159,35.3760317,-97.5471967
10609,South May Avenue,73170,35.3619189,-97.5659093
1515,Northwest Expressway,73118,35.5227470,-97.5371121
6100,North Western Avenue,73118,35.5345386,-97.5288582
7801,South Sooner Road,73135,35.3882964,-97.4241995
7801,South Sooner Road,73135,35.3885131,-97.4239158
7800,South Sooner Road,73135,35.3885044,-97.4229259
6815,North May Avenue,73116,35.5409601,-97.5661894
3033,Northwest 63rd Street,73116,35.5372956,-97.5692788
9,East Sheridan Avenue,73104,35.4667648,-97.5115353
100,North Broadway Avenue,73102,35.4684781,-97.5133718
131,Northeast 2nd Street,73104,35.4698176,-97.5091957
121,Northeast 2nd Street,73104,35.4698132,-97.5097630
10201,South Western Avenue,73139,35.3658480,-97.5312076
6300,Air Cargo Road,73159,35.4007344,-97.5932297
6300,Air Cargo Road,73159,35.4006045,-97.5932335
6300,Air Cargo Road,73159,35.4001461,-97.5932196
6300,Air Cargo Road,73159,35.3999490,-97.5932242
6300,Air Cargo Road,73159,35.3995376,-97.5931940
201,South Council,73128,35.4637739,-97.6551510
7624,West Reno Avenue,73127,35.4619264,-97.6502670
7624,West Reno Avenue,73127,35.4626151,-97.6502280
7624,West Reno Avenue,73127,35.4625096,-97.6502299
7624,West Reno Avenue,73127,35.4617676,-97.6498953
7624,West Reno Avenue,73127,35.4611882,-97.6502634
7624,West Reno Avenue,73127,35.4614966,-97.6502528
7624,West Reno Avenue,73127,35.4627938,-97.6498711
7624,West Reno Avenue,73127,35.4628803,-97.6487380
7624,West Reno Avenue,73127,35.4619031,-97.6473046
7624,West Reno Avenue,73127,35.4620097,-97.6468941
7624,West Reno Avenue,73127,35.4626093,-97.6469012
7624,West Reno Avenue,73127,35.4618053,-97.6469910
7624,West Reno Avenue,73127,35.4618512,-97.6482779
7624,West Reno Avenue,73127,35.4626241,-97.6477556
1901,Northwest Expressway Ste 1017,73118,35.5246987,-97.5440221
131,Dean A McGee Avenue,73102,35.4710122,-97.5161314
324,North Robinson Avenue,73102,35.4707304,-97.5162226
112,Northwest 122nd Street,73114,35.5938622,-97.5147735
6817,North May Avenue,73116,35.5408459,-97.5661895
3810,Northwest 39th Street,73112,35.5104504,-97.5856591
2900,North Classen Boulevard,73106,35.4987658,-97.5335979
10440,South Western Avenue,73139,35.3638654,-97.5295571
4410,North Western Avenue,73118,35.5162170,-97.5296270
8938,South Western Avenue,73139,35.3782996,-97.5284784
3533,West Memorial Road,73134,35.6104066,-97.5818991
5519,Northwest Expressway,73132,35.5468412,-97.6105449
11900,North May Avenue,73120,35.5912340,-97.5656063
12086,North May Avenue,73120,35.5925264,-97.5662580
12325,North May Avenue,73120,35.5965829,-97.5676347
10908,North May Avenue,73120,35.5804925,-97.5656305
14221,North Pennsylvania Avenue,73134,35.6148779,-97.5500356
4308,North Western Avenue,73118,35.5149828,-97.5294876
7101,North Robinson Avenue,73116,35.5435153,-97.5168780
8028,North May Avenue,73120,35.5532279,-97.5665970
8028,North May Avenue,73120,35.5531286,-97.5665644
8020,North May Avenue,73120,35.5530189,-97.5664652
8020,North May Avenue,73120,35.5529709,-97.5664478
8016,North May Avenue,73120,35.5528934,-97.5664049
7940,North May Avenue,73120,35.5526894,-97.5663070
7940,North May Avenue,73120,35.5526403,-97.5662412
7936,North May Avenue,73120,35.5525476,-97.5660990
2137,Northwest 23rd Street,73107,35.4942985,-97.5499721
2119,Northwest 23rd Street,73107-2401,35.4941794,-97.5487384
7040,South Sooner Road,73135,35.3954552,-97.4231755
7000,Southeast 74th Street,73135,35.3914971,-97.4054842
4900,South Sooner Road,73135,35.4150524,-97.4219275
920,North Harvey Avenue,73102,35.4768751,-97.5175324
5012,North May Avenue,73112-6010,35.5209139,-97.5648276
5030,North May Avenue,73112,35.5216879,-97.5648308
5801,North May Avenue,73112,35.5302858,-97.5661848
2929,West Hefner Road,73120,35.5805340,-97.5690534
2741,Northwest 36th Street,73112,35.5077725,-97.5633971
17900,North Western Avenue,73003,35.6535713,-97.5309489
300,South Mustang Road,73099-6703,35.4633870,-97.7241448
14404,Southeast 29th Street,73020,35.4357818,-97.2767769
2501,West Memorial Road,73134,35.6136880,-97.5573900
600,Northwest 23rd Street,73103,35.4928140,-97.5229812
519,Northwest 23rd Street,73103,35.4937173,-97.5211959
3624,North Pennsylvania,73112,35.5075711,-97.5473469
7000,South Sooner Road,73135,35.3962420,-97.4232089
7200,South Sooner Road,73135,35.3946715,-97.4232187
13801,North Bryant,73013,35.6100879,-97.4608622
14837,Gravity Falls Lane,73142,35.6216430,-97.6451169
13503,South Santa Fe Avenue,73170,35.3327830,-97.5129500
2900,Southwest 134th Street,73170,35.3329000,-97.5663000
7701,South Sooner Road,73135,35.3893352,-97.4243099
2520,West Memorial Road,73134,35.6081553,-97.5599886
4201,East Memorial Road,73013,35.6097810,-97.4438315
2,South Sherwood Avenue,73159,35.3913979,-97.5608617
1634,North Blackwelder Avenue,73106,35.4857807,-97.5384847
1704,Northwest 16th Street,73106,35.4858112,-97.5392089
1610,North Gatewood Avenue,73106,35.4854378,-97.5394610
1000,North Hudson Avenue,73102,35.4774769,-97.5190035
1101,North Broadway Avenue,73103,35.4785512,-97.5143225
1310,Northwest 25th Street,73106,35.4950900,-97.5342669
8100,South Walker Avenue,73139,35.3851227,-97.5198948
8100,South Walker Avenue,73139,35.3852626,-97.5188434
1044,Southwest 44th Street,73109,35.4203894,-97.5341561
5300,North Grand Boulevard,73112,35.5249621,-97.5757359
10904,North May Avenue,73120,35.5811939,-97.5664784
6001,Southwest 12th Street,73128,35.4537971,-97.6217530
5350,South Western Avenue,73109,35.4124292,-97.5292383
804,Southeast 83rd Street,73149,35.3827359,-97.4977583
1015,North Broadway Avenue,73102,35.4776220,-97.5143652
435,North Walker Avenue,73102,35.4717747,-97.5216195
5800,West Memorial Road,73142,35.6082291,-97.6194650
3710,Northwest 50th Street,73112,35.5219154,-97.5844121
7405,South May Avenue,73159,35.3927048,-97.5661983
606,Southeast 15th Street,73129,35.4495651,-97.5008749
2808,Northwest 31st Street,73112,35.5019272,-97.5646985
4300,South High Avenue,73129,35.4219405,-97.4943531
7725,West Reno Avenue,73127,35.4672049,-97.6497453
500,South MacArthur Boulevard,73128,35.4620125,-97.6181320
3124,North Classen Boulevard,73118,35.5015491,-97.5340162
3124,North Classen Boulevard,73118,35.5015579,-97.5340642
6444,Northwest Expressway,73132,35.5522564,-97.6294967
25,Northwest 9th Street,73102,35.4772033,-97.5133534
21,Northwest 63rd Street,73116,35.5372878,-97.5129869
7000,South Eastern Avenue,73149,35.3942206,-97.4761456
7000,South Eastern Avenue,73149,35.3940511,-97.4761873
820,North Western Avenue,73106,35.4759917,-97.5298061
14130,South Meridian Avenue,73173,35.3262674,-97.5988012
14130,South Meridian Avenue,73173,35.3261945,-97.5988023
2930,Southwest 134th Street,73170,35.3336555,-97.5672192
100,South Edward King Gaylord Boulevard,73102,35.4653376,-97.5128162
14240,North Broadway Avenue,73013,35.6152174,-97.4906531
516,East Sheridan Avenue,73104,35.4666684,-97.5057071
1001,Northwest 92nd Street,73114,35.5647668,-97.5303045
837,Northwest 95th Street,73114,35.5677900,-97.5288207
1015,Northwest 96th Street,73114,35.5687234,-97.5310749
2600,Northwest 57th Street,73112,35.5296520,-97.5590041
4024,Northwest 50th Street,73112,35.5220487,-97.5917302
4100,Northwest 10th Street,73107,35.4783461,-97.5925073
3720,South Hiwassee Road,73020,35.4278712,-97.2992707
5930,West Memorial Road,73142,35.6080267,-97.6232211
6221,North Meridian Avenue,73112,35.5353343,-97.6016706
7500,South Santa Fe Avenue,73139,35.3913650,-97.5119319
7500,South Santa Fe Avenue,73139,35.3912897,-97.5119338
7500,South Santa Fe Avenue,73139,35.3910732,-97.5119319
7500,South Santa Fe Avenue,73139,35.3911730,-97.5119338
7401,South Shields Boulevard,73149,35.3937976,-97.5099048
7401,South Shields Boulevard,73149,35.3927152,-97.5101948
7401,South Shields Boulevard,73149,35.3927425,-97.5096179
16509,Network Avenue,73012,35.6392743,-97.5891872
217,North Harvey,73102,35.4696623,-97.5186196
6200,Northwest Expressway,73132,35.5518613,-97.6251865
12319,North Rockwell Avenue,73142,35.5960367,-97.6396142
10944,North May Avenue,73120,35.5819483,-97.5653665
7100,Terminal Drive,73159-0937,35.3955479,-97.5962256
2400,North May Avenue,73107,35.4937483,-97.5649611
16700,North Pennsylvania Avenue,73012,35.6414494,-97.5485246
3200,Quail Springs Parkway,73134,35.6139921,-97.5739923
127,Northeast 37th Street,73105,35.5090613,-97.5089249
6608,North Western Avenue,73116,35.5380424,-97.5293173
5120,North May Avenue,73112,35.5228067,-97.5647908
3235,Northwest 23rd Street,73107,35.4934040,-97.5749705
6965,Northwest Expressway,73132,35.5588241,-97.6372857
6010,Northwest 23rd Street,73127,35.4926901,-97.6226912
935,North Cemetery Road,73099,35.4783105,-97.7607854
5920,Southwest 4th Terrace,73128,35.4609068,-97.6202814
8417,South I-35 Service Road,73149,35.3824081,-97.4957685
3621,Northwest 63rd Street,73116,35.5374332,-97.5820445
11950,North May Avenue,73120,35.5915519,-97.5663825
11982,North May Avenue,73120,35.5916958,-97.5662260
12016,North May Avenue,73120,35.5919573,-97.5660149
12062,North May Avenue,73120,35.5920212,-97.5662535
12042,North May Avenue,73120,35.5921266,-97.5659625
12100,North May Avenue,73120,35.5922757,-97.5662135
12028,Northwest 120th Street,73120,35.5924674,-97.5655765
12038,North May Avenue,73120,35.5925033,-97.5658757
12082,North May Avenue,73120,35.5925739,-97.5660315
12100,North May Avenue,73120,35.5929159,-97.5661831
12100,North May Avenue,73120,35.5931065,-97.5661211
12100,North May Avenue,73120,35.5932231,-97.5661625
12100,North May Avenue,73120,35.5933139,-97.5658095
12200,North May Avenue,73120,35.5935001,-97.5659281
12202,North May Avenue,73120,35.5936144,-97.5660149
12202,North May Avenue,73120,35.5936738,-97.5662342
12200,North May Avenue,73120,35.5937153,-97.5660549
12202,North May Avenue,73120,35.5937916,-97.5659391
12202,North May Avenue,73120,35.5939104,-97.5660866
12236,North May Avenue,73120,35.5937647,-97.5656316
300,North Walnut Avenue,73104,35.4699106,-97.5086049
5801,Broadway Extension,73118,35.5322422,-97.5149916
14033,North Eastern Avenue,73013,35.6122755,-97.4794430
8620,Southwest 74th Street,73169,35.3913140,-97.6659427
717,South Mustang Road,73099,35.4588211,-97.7254094
3615,Northwest 51st Street,73112,35.5234337,-97.5821946
6313,Northwest 51st Street,73112,35.5234329,-97.5820578
3611,Northwest 51st Street,73112,35.5234300,-97.5820030
3609,Northwest 51st Street,73112,35.5234305,-97.5818698
3535,Northwest 51st Street,73112,35.5235350,-97.5804830
3531,Northwest 51st Street,73112,35.5235342,-97.5803687
3527,Northwest 51st Street,73112,35.5235406,-97.5801525
3523,Northwest 51st Street,73112,35.5235407,-97.5800344
9118,South Western Avenue,73139,35.3754543,-97.5282708
6501,South Western Avenue,73139,35.4011375,-97.5307215
13825,Technology Drive,73134,35.6117788,-97.5787085
100,East Interstate 240 Service Road,73149,35.3892357,-97.5116252
100,East Interstate 240 Service Road,73149,35.3892874,-97.5100648
21,Northeast 23rd Street,73105,35.4935675,-97.5106789
2131,Northwest 23rd Street,73107,35.4943169,-97.5494815
2600,South Meridian Avenue,73108,35.4392772,-97.6004807
12408,North May Avenue,73120,35.5967105,-97.5658591
320,South Mustang Road,73099,35.4625850,-97.7252716
7800,Northwest 89th Street,73132,35.5602373,-97.6528537
7808,South Western Avenue,73139,35.3890441,-97.5294603
400,North Walker Avenue,73102,35.4712376,-97.5209415
4700,West Reno Avenue,73127,35.4636879,-97.6044543
3000,North Villa Avenue,73107,35.4989043,-97.5561646
3529,Northwest 51st Street,73112,35.5234685,-97.5803679
3533,Northwest 51st Street,73112,35.5234654,-97.5804823
3525,Northwest 51st Street,73112,35.5234561,-97.5801509
3521,Northwest 51st Street,73112,35.5234576,-97.5800328
1737,Spoke Street,73108,35.4476726,-97.5317878
2909,North Paseo Street,73103,35.4987523,-97.5222732
3825,Northwest 23rd Street,73107,35.4937156,-97.5870758
9118,South Western Avenue,73139,35.3757861,-97.5279883
905,North Hudson Avenue,73102,35.4764110,-97.5194832
2717,Northwest Expressway,73112,35.5263020,-97.5620820
12824,North Pennsylvania Avenue,73120,35.6005079,-97.5491662
5400,North May Avenue,73112,35.5241475,-97.5641781
5400,North May Avenue,73112,35.5244531,-97.5641862
14221,North Pennsylvania Avenue,73134,35.6150051,-97.5500381
7338,North May Avenue,73116,35.5450937,-97.5652199
10904,North May Avenue,73120,35.5812197,-97.5665800
807,West Wilshire Boulevard,73116,35.5514804,-97.5283628
910,Northwest 79th Street,73114,35.5517484,-97.5283529
101,Park Avenue,73102,35.4690286,-97.5148071
1209,East Hefner Road,73131,35.5815793,-97.4922661
6301,North Kelly Avenue,73111,35.5362534,-97.4949191
512,Northwest 12th Street,73103,35.4810707,-97.5218248
835,West Sheridan Avenue,73106,35.4666580,-97.5268520
1613,West Interstate 240 Service Road,73159,35.3920840,-97.5459071
2226,Southwest 76th Street,73159,35.3902894,-97.5497034
2425,North Classen Boulevard,73106,35.4938879,-97.5327956
13002,North Pennsylvania Avenue,73120,35.6023428,-97.5489880
2844,Northwest 63rd Street,73116,35.5350579,-97.5639534
2401,North Lincoln Boulevard,73105,35.4942662,-97.5041666
3301,West Memorial Road,73134,35.6109079,-97.5769783
3920,Northwest 39th Expressway,73112,35.5104139,-97.5879316
7550,North May Avenue,73116,35.5475015,-97.5652048
7550,North May Avenue,73116,35.5474446,-97.5652044
7550,North May Avenue,73116,35.5473771,-97.5652064
3617,Northwest Expressway,73112-4405,35.5343142,-97.5823162
3627,Northwest Expressway,73112,35.5344118,-97.5825745
1801,Belle Isle Boulevard,73118,35.5259568,-97.5402325
2000,West Memorial Road,73134,35.6055945,-97.5456230
7119,Michelle Lane,73127,35.4830848,-97.6379398
7117,Michelle Lane,73127,35.4830856,-97.6378611
9225,North May Avenue,73120,35.5634193,-97.5684221
4323,Northwest 63rd Street,73116,35.5370860,-97.5983159
2560,Northwest 23rd Street,73107,35.4929087,-97.5587595
5401,West Memorial Road,73142,35.6107977,-97.6150409
15103,North Pennsylvania Avenue,73013,35.6242102,-97.5501538
4901,North May Avenue,73112,35.5206723,-97.5664499
8071,North Classen Boulevard,73114,35.5536865,-97.5279452
4908,Northwest 23rd Street,73127,35.4929978,-97.6105256
3801,Northwest 63rd Street,73116,35.5374576,-97.5873092
7606,North May Avenue,73116,35.5483945,-97.5652316
7614,North May Avenue,73116,35.5486672,-97.5652610
2932,Northwest 63rd Street,73116,35.5355969,-97.5673044
12325,North May Avenue,73116,35.5417265,-97.5651044
2835,Northwest 63rd Street,73112,35.5368206,-97.5644771
1900,Linwood Boulevard,73106,35.4746615,-97.5443001
3917,Northeast 104th Street,73131,35.5777242,-97.4467307
301,Southwest 14th Street,73109,35.4477792,-97.5119045
8315,North Rockwell Avenue,73132-4220,35.5558006,-97.6396939
8357,North Rockwell Avenue,73132,35.5557221,-97.6415258
5503,NW Expressway,73132,35.5465262,-97.6105257
7912,North May Avenue,73120,35.5517484,-97.5652216
7908,North May Avenue,73120,35.5516649,-97.5652239
7906,North May Avenue,73120,35.5515830,-97.5652279
7900,North May Avenue,73120,35.5513594,-97.5652293
7904,North May Avenue,73120,35.5515154,-97.5652293
7902,North May Avenue,73120,35.5514390,-97.5652266
7914,North May Avenue,73120,35.5518143,-97.5652229
7917,North May Avenue,73120,35.5516977,-97.5661536
7710,North May Avenue,73116,35.5499846,-97.5652705
7700,North May Avenue,73116,35.5497347,-97.5652585
7324,North May Avenue,73116,35.5448225,-97.5652167
7642,West Reno Avenue,73127,35.4621771,-97.6483515
7624,West Reno Avenue,73127,35.4621908,-97.6481986
7624,West Reno Avenue,73127,35.4622016,-97.6485278
7624,West Reno Avenue,73127,35.4614840,-97.6469037
7624,West Reno Avenue,73127,35.4627850,-97.6466730
12325,North May Avenue,73116,35.5412210,-97.5645183
2820,Northwest 122nd Street,73120,35.5942659,-97.5649587
8003,Northwest 122nd Street,73142,35.5949573,-97.6572213
519,Northwest 23rd Street,73103,35.4935117,-97.5215391
7502,North May Avenue,73116,35.5463468,-97.5651925
7504,North May Avenue,73116,35.5464699,-97.5651950
7508,North May Avenue,73116,35.5465759,-97.5651971
7518,North May Avenue,73116,35.5467800,-97.5652032
7624,West Reno Avenue,73127,35.4625012,-97.6499195
7624,West Reno Avenue,73127,35.4625143,-97.6495628
7624,West Reno Avenue,73127,35.4620774,-97.6489968
7624,West Reno Avenue,73127,35.4622303,-97.6476463
7624,West Reno Avenue,73127,35.4622369,-97.6473419
7624,West Reno Avenue,73127,35.4620402,-97.6488345
7624,West Reno Avenue,73127,35.4623046,-97.6488546
7624,West Reno Avenue,73127,35.4625471,-97.6488613
7624,West Reno Avenue,73127,35.4624673,-97.6488613
7624,West Reno Avenue,73127,35.4621167,-97.6488439
7624,West Reno Avenue,73127,35.4621298,-97.6495118
7624,West Reno Avenue,73127,35.4629239,-97.6472721
7624,West Reno Avenue,73127,35.4623952,-97.6488600
7624,West Reno Avenue,73127,35.4618197,-97.6495385
7624,West Reno Avenue,73127,35.4626290,-97.6483155
7624,West Reno Avenue,73127,35.4626246,-97.6475256
7624,West Reno Avenue,73127,35.4626279,-97.6484469
7624,West Reno Avenue,73127,35.4626246,-97.6476356
7624,West Reno Avenue,73127,35.4619190,-97.6477844
7624,West Reno Avenue,73127,35.4617224,-97.6486830
7624,West Reno Avenue,73127,35.4627961,-97.6490491
7624,West Reno Avenue,73127,35.4625165,-97.6498457
7624,West Reno Avenue,73127,35.4623963,-97.6472641
7624,West Reno Avenue,73127,35.4618240,-97.6488694
7624,West Reno Avenue,73127,35.4625110,-97.6491966
7624,West Reno Avenue,73127,35.4627896,-97.6469301
7624,West Reno Avenue,73127,35.4628999,-97.6480499
7624,West Reno Avenue,73127,35.4622270,-97.6469114
7624,West Reno Avenue,73127,35.4625132,-97.6494125
7624,West Reno Avenue,73127,35.4629097,-97.6483334
7624,West Reno Avenue,73127,35.4618797,-97.6489449
7624,West Reno Avenue,73127,35.4626257,-97.6480826
7624,West Reno Avenue,73127,35.4618218,-97.6496665
7624,West Reno Avenue,73127,35.4618229,-97.6497804
7624,West Reno Avenue,73127,35.4627459,-97.6493969
7624,West Reno Avenue,73127,35.4621036,-97.6502458
7624,West Reno Avenue,73127,35.4629043,-97.6481657
7624,West Reno Avenue,73127,35.4613488,-97.6502525
7624,West Reno Avenue,73127,35.4618542,-97.6475187
7624,West Reno Avenue,73127,35.4612698,-97.6502532
7624,West Reno Avenue,73127,35.4618192,-97.6494137
7624,West Reno Avenue,73127,35.4626243,-97.6482053
7624,West Reno Avenue,73127,35.4621163,-97.6491562
7624,West Reno Avenue,73127,35.4627477,-97.6495505
7624,West Reno Avenue,73127,35.4626254,-97.6478567
7624,West Reno Avenue,73127,35.4621928,-97.6481007
7624,West Reno Avenue,73127,35.4621939,-97.6479639
7624,West Reno Avenue,73127,35.4620235,-97.6502478
7624,West Reno Avenue,73127,35.4626144,-97.6472438
7624,West Reno Avenue,73127,35.4626243,-97.6479720
7624,West Reno Avenue,73127,35.4625096,-97.6490502
7624,West Reno Avenue,73127,35.4616270,-97.6502680
7624,West Reno Avenue,73127,35.4626254,-97.6473363
7624,West Reno Avenue,73127,35.4621469,-97.6498093
7624,West Reno Avenue,73127,35.4620045,-97.6474490
7624,West Reno Avenue,73127,35.4620050,-97.6474008
7624,West Reno Avenue,73127,35.4616499,-97.6490477
7624,West Reno Avenue,73127,35.4628570,-97.6473619
7624,West Reno Avenue,73127,35.4624069,-97.6502372
7624,West Reno Avenue,73127,35.4618247,-97.6490758
7624,West Reno Avenue,73127,35.4627423,-97.6496954
7624,West Reno Avenue,73127,35.4628919,-97.6476127
7624,West Reno Avenue,73127,35.4629072,-97.6477682
7624,West Reno Avenue,73127,35.4622999,-97.6502399
7624,West Reno Avenue,73127,35.4622125,-97.6502426
7624,West Reno Avenue,73127,35.4618149,-97.6493172
7624,West Reno Avenue,73127,35.4627455,-97.6492542
7624,West Reno Avenue,73127,35.4625162,-97.6497263
7624,West Reno Avenue,73127,35.4621655,-97.6469113
7624,West Reno Avenue,73127,35.4619285,-97.6480955
11,Northwest 11th Street,73101,35.4805717,-97.5131111
9225,North May Avenue,73120,35.5638974,-97.5683902
6715,North May Avenue,73116,35.5398205,-97.5660355
7518,North May Avenue,73116,35.5470486,-97.5651912
7518,North May Avenue,73116,35.5469220,-97.5651952
6905,North May Avenue,73116-3236,35.5410613,-97.5661894
4400,Northwest 39th Street,73112,35.5110014,-97.5991029
4839,Northwest 39th Street,73122,35.5117151,-97.6098408
4417,Northwest 63rd Street,73116,35.5371324,-97.5997425
7423,North May Avenue,73116,35.5460552,-97.5661775
7417,North May Avenue,73116,35.5459482,-97.5662187
7417,North May Avenue,73116,35.5459055,-97.5663059
7427,North May Avenue,73116,35.5461493,-97.5661754
7431,North May Avenue,73116,35.5462559,-97.5661704
7501,North May Avenue,73116,35.5463297,-97.5661727
7503,North May Avenue,73116,35.5463923,-97.5661727
7509,North May Avenue,73116,35.5465792,-97.5661590
8337,North Rockwell Avenue,73132,35.5558259,-97.6406710
8345,North Rockwell Avenue,73132,35.5557862,-97.6410490
8515,North Rockwell Avenue,73132,35.5565668,-97.6419353
8315,North Rockwell Avenue,73132,35.5558923,-97.6400101
7000,Northwest Expressway,73132,35.5557225,-97.6379166
7002,Northwest Expressway,73132,35.5565438,-97.6366969
6951,Northwest Expressway Street,73132-3533,35.5587854,-97.6367848
7001,Northwest Expressway,73132,35.5590211,-97.6376511
12100,North Rockwell Avenue,73162,35.5925454,-97.6378639
4400,Southwest 44th Street,73119,35.4237707,-97.5976263
4400,Southwest 44th Street,73119,35.4237838,-97.5975428
119,North Robinson Avenue,73102,35.4683656,-97.5166287
101,South Mickey Mantle Drive,73104,35.4651714,-97.5094260
101,South Mickey Mantle Drive,73104,35.4650902,-97.5094293
200,Oklahoma Avenue,73104,35.4639587,-97.5098477
1,North Broadway Avenue,73102,35.4670643,-97.5149789
2501,West Memorial Road,73134,35.6129094,-97.5585526
4901,North May Avenue,73112,35.5207648,-97.5664499
4901,North May Avenue,73112,35.5205742,-97.5664522
4723,North May Avenue,73112,35.5195066,-97.5665228
4719,North May Avenue,73112,35.5193569,-97.5663466
4717,North May Avenue,73112,35.5193571,-97.5662436
4711,North May Avenue,73112,35.5193566,-97.5661249
12800,NW 10th St,73009,35.4782882,-97.7573851
6612,Southwest 44th Street,73179,35.4188995,-97.6307769
1135,North May Avenue,73107,35.4803434,-97.5658914
1143,North May Avenue,73107,35.4801681,-97.5658869
1520,North May Avenue,73107,35.4845055,-97.5653332
1520,North May Avenue,73107,35.4844547,-97.5653340
9101,South Western Avenue,73139,35.3758874,-97.5310506
3020,North Walker Avenue,73103,35.5001103,-97.5209017
3130,North May Avenue,73112,35.5017507,-97.5651997
3128,North May Avenue,73112,35.5016755,-97.5652004
3401,North May Avenue,73112,35.5043057,-97.5660664
3401,North May Avenue,73112,35.5041735,-97.5660616
3601,North May Avenue,73112,35.5063812,-97.5659863
4525,North May Avenue,73112,35.5168916,-97.5659845
4101,North May Avenue,73112,35.5123089,-97.5668648
5801,North May Avenue,73112,35.5304332,-97.5661852
5025,North May Avenue,73112,35.5214138,-97.5666037
5050,North May Avenue,73112,35.5218829,-97.5653121
5900,North May Avenue,73112,35.5309884,-97.5655616
2837,Northwest 58th Street,73112,35.5309905,-97.5648282
6001,North May Avenue,73112,35.5322798,-97.5661761
6003,North May Avenue,73112,35.5324140,-97.5661739
6308,North May Avenue,73112,35.5351206,-97.5652095
6310,North May Avenue,73112,35.5351970,-97.5652119
6165,North May Avenue,73112,35.5345665,-97.5660825
6165,North May Avenue,73112,35.5347990,-97.5660741
12200,North MacArthur Boulevard,73162,35.5934039,-97.6194377
12100,South Pennsylvania Avenue,73170,35.3469888,-97.5467517
5909,Northwest Expressway,73132,35.5514203,-97.6225010
1501,North Meridian Avenue,73127,35.4848338,-97.6029874
2401,Northwest 23rd Street,73107,35.4948928,-97.5542843
1600,Northeast 63rd Street,73111,35.5359257,-97.4678221
6728,South Hudson Avenue,73139,35.3972989,-97.5183456
36,West Memorial Road,73107,35.6085617,-97.5153973
15401,North May Avenue,73013,35.6275463,-97.5678036
1900,Northwest 164th Street,73013,35.6379862,-97.5471190
8015,Northwest Expressway,73162,35.5676745,-97.6573859
1120,North Walker Avenue,73103,35.4794848,-97.5209781
7002,Broadway Extension,73116,35.5426155,-97.5130940
7416,South Western Avenue,73139,35.3920050,-97.5295391
7400,South Western Avenue,73139-2010,35.3924874,-97.5296575
7100,Terminal Drive,73159,35.3950807,-97.5949418
16325,South Santa Fe Avenue,73013,35.6375319,-97.5143972
14113,North Kelly Avenue,73013,35.6136376,-97.4951513
919,Northwest 80th Street,73114,35.5532964,-97.5296905
1024,Southwest 104th Street,73139,35.3628815,-97.5337631
14440,North Pennsylvania Avenue,73134,35.6182900,-97.5489864
14440,North Pennsylvania Avenue,73134,35.6181956,-97.5489814
16440,Muirfield Place,73013,35.6382560,-97.5703017
8601,South Interstate Highway 35 Service Road,73149,35.3806363,-97.4959150
12444,Northwest 10th Street,73099,35.4771187,-97.7492170
12444,Northwest 10th Street,73099,35.4766882,-97.7484488
12444,Northwest 10 Street,73099,35.4764024,-97.7479159
6417,Southwest 3rd Street,73128,35.4630435,-97.6283310
6413,Southwest 3rd Street,73128,35.4630458,-97.6276093
6331,Southwest 3rd Street,73128,35.4630711,-97.6263194
6327,Southwest 3rd Street,73127,35.4631124,-97.6258232
119,North Robinson Avenue,73102,35.4685877,-97.5165923
119,North Robinson Avenue,73102,35.4685945,-97.5167803
120,North Robinson Avenue,73102,35.4685940,-97.5161767
1409,West I 240 Service Road,73159,35.3930792,-97.5396767
301,North Harvey Avenue,73102,35.4700938,-97.5181074
12301,South Western Avenue,73170,35.3455494,-97.5305967
14711,Bristol Park Boulevard,73013,35.6203837,-97.5070109
4545,North Lincoln Boulevard,73105,35.5175862,-97.5039745
2309,Southwest 29th Street,73119,35.4355796,-97.5529494
6929,South Sooner Road,73135,35.3976778,-97.4284586
3324,Northwest 135th Street,73120,35.6074761,-97.5785232
535,Northwest 9th Street,73102,35.4770926,-97.5259233
1309,Southeast 38th Street,73129,35.4267489,-97.4897645
3810,Northwest 39th Expressway,73112,35.5104520,-97.5854646
11101,Hefner Pointe Drive #104,73120,35.5826507,-97.5838532
1841 Suite A,Belle Isle Boulevard,73118,35.5240247,-97.5415848
1800,North Broadway Avenue,73103,35.4872864,-97.5126711
7640,Northwest Expressway,73132,35.5617089,-97.6496261
7640,Northwest Expressway,73132,35.5618344,-97.6495604
7640,Northwest Expressway,73132-1571,35.5619784,-97.6494759
7640,Northwest Expressway,73132,35.5621246,-97.6493820
7640,Northwest Expressway,73132,35.5622664,-97.6492787
7640,Northwest Expressway,73132,35.5620307,-97.6491554
7640,Northwest Expressway,73132,35.5621617,-97.6490896
7640,Northwest Expressway,73132,35.5619369,-97.6492238
7640,Northwest Expressway,73132,35.5617989,-97.6493156
6212,Northwest Expressway,73132,35.5518792,-97.6260718
6216,Northwest Expressway,73132,35.5519633,-97.6262196
6218,Northwest Expressway,73132,35.5520053,-97.6262799
6220,Northwest Expressway,73132,35.5520413,-97.6263624
6220,Northwest Expressway,73132,35.5520707,-97.6264066
6220,Northwest Expressway,73132,35.5521144,-97.6264717
3607,North Portland Avenue,73112,35.5073427,-97.5838500
3627,North Portland Avenue,73112,35.5076005,-97.5838558
12100,Southeast 29th Street,73020,35.4347117,-97.3163977
1125,Southeast Grand Boulevard,73129,35.4291652,-97.4911345
5600,North May Avenue,73112,35.5280523,-97.5645529
10333,West Reno Avenue,73127,35.4649769,-97.6996660
7515,North May Avenue,73116,35.5467586,-97.5661148
7513,North May Avenue,73116,35.5467068,-97.5661170
7511,North May Avenue,73116,35.5466401,-97.5661179
7521,North May Avenue,73116,35.5469197,-97.5661200
7525,North May Avenue,73116,35.5470149,-97.5661236
7527,North May Avenue,73116,35.5471088,-97.5661223
7519,North May Avenue,73116,35.5468403,-97.5661076
7429,North May Avenue,73116,35.5462113,-97.5661717
5930,West Memorial Road,73142,35.6081393,-97.6229680
4111,West Reno Avenue,73107,35.4648920,-97.5931459
400,South Morgan Road,73128,35.4617088,-97.6879035
7525,South Western Avenue,73139-2407,35.3907440,-97.5305169
3722,Northwest 39th Expressway,73112,35.5107639,-97.5841710
7401,South Choctaw Road,73020,35.3953570,-97.2663511
9001,South Pennsylvania Avenue,73159-6932,35.3766906,-97.5483720
13901,Parkway Commons Drive,73134,35.6135719,-97.5835895
9495,West Reno Avenue,73127,35.4649171,-97.6844979
1305,West Britton Road,73114,35.5657007,-97.5360928
5101,South Council Road,73179,35.4153813,-97.6558536
5101,South Council Road,73179,35.4145812,-97.6574955
4949,Southwest 20th Street,73179,35.4457696,-97.6065202
119,North Robinson Avenue,73102,35.4685931,-97.5166820
12108,South Pennsylvania Avenue,73170,35.3474301,-97.5467855
3400,Northeast Grand Boulevard,73111,35.5052111,-97.4667892
415,Couch Drive,73102,35.4696047,-97.5198611
705,West Sheridan Avenue,73102,35.4669551,-97.5247235
701,West Sheridan Avenue,73102,35.4667583,-97.5244983
100,West Main Street,73102,35.4674542,-97.5160167
10,West Sheridan Avenue,73102,35.4666414,-97.5142690
16618,North Western Avenue,73012,35.6397511,-97.5310681
16620,North Western Avenue,73012,35.6398195,-97.5310701
16622,North Western Avenue,73012,35.6398819,-97.5310721
16608,North Western Avenue,73012,35.6395205,-97.5310640
16600,North Western Avenue,73012,35.6392913,-97.5310640
16602,North Western Avenue,73012,35.6393455,-97.5310630
16604,North Western Avenue,73012,35.6394071,-97.5310630
16606,North Western Avenue,73012,35.6394646,-97.5310640
111,Dean A McGee Avenue,73102,35.4710432,-97.5152344
14200,North Pennsylvania Avenue,73134,35.6147724,-97.5481991
14120,North Pennsylvania Avenue,73134,35.6143303,-97.5480054
14110,North Pennsylvania Avenue,73134,35.6141418,-97.5479060
14110,North Pennsylvania Avenue,73134,35.6138957,-97.5477823
14110,North Pennsylvania Avenue,73134,35.6140143,-97.5478376
5501,North Portland Avenue,731125501,35.5268333,-97.5844247
5401,North Portland Avenue,731125501,35.5256235,-97.5843303
11629,South Western Avenue,73170,35.3512767,-97.5314615
6200,Shiloh Drive,73179,35.4056548,-97.6632177
8001,Southwest 74th Street,73169,35.3923644,-97.6545480
10740 #117,South May Avenue,73170,35.3601001,-97.5648970
2825,South Mustang Road,73099,35.4368254,-97.7251876
100,West Reno Avenue,73102,35.4633944,-97.5151217
7040,Northwest 122nd Street,73142,35.5943040,-97.6381320
6810,Northwest 122nd Street,73142,35.5938271,-97.6347284
2101,Northeast 50th Street,73111,35.5207981,-97.4721524
2000,Remington Place,73111,35.5235509,-97.4725715
2929,East Memorial,73013,35.6095979,-97.4614265
2933,East Memorial,73034,35.6096133,-97.4609435
100,South Edward King Gaylord Boulevard,73102,35.4651402,-97.5128206
415,Couch Drive,73102,35.4696975,-97.5207202
119,North Robinson Avenue,73102,35.4684897,-97.5167541
210,Park Avenue,73102,35.4684919,-97.5173277
200,North Harvey Avenue,73102,35.4690562,-97.5176450
1300,North May Avenue,73107,35.4820367,-97.5653566
900,North May Avenue,73107,35.4759139,-97.5641521
1901,Northwest 18th Street,73106,35.4884229,-97.5439368
1500,Northwest 23rd Street,73106,35.4927129,-97.5357753
1900,North Drexel Boulevard,73107,35.4884637,-97.5707680
3131,North Pennsylvania Avenue,73112,35.5014991,-97.5482128
5315,North May Avenue,73112,35.5061980,-97.5651187
1724,Linwood Boulevard,73106,35.4745166,-97.5405337
900,North Portland Avenue,73107,35.4714971,-97.5806927
2500,North Pennsylvania Avenue,73107,35.4942703,-97.5461624
2901,Northwest 23rd Street,73107,35.4949907,-97.5668440
3023,Northwest 23rd Street,73107,35.4934567,-97.5690056
1039,North Walker Avenue,73102,35.4786413,-97.5216463
500,West Sheridan Avenue,73102,35.4659114,-97.5219680
609,West Sheridan Avenue,73102-2409,35.4668607,-97.5231510
415,Couch Drive,73102,35.4696863,-97.5203978
111,Dean A McGee Avenue,73102,35.4711566,-97.5149866
119,West Main Street,73102,35.4680192,-97.5155679
125,Park Avenue,73102,35.4690196,-97.5156710
815,North Hudson Avenue,73102,35.4758837,-97.5194453
4001,Northeast Grand Boulevard,73111-5400,35.5107629,-97.4697820
2020,Remington Place,73111,35.5232030,-97.4751795
800,Nazih Zuhdi Drive,73105,35.4941057,-97.4997515
2145,Northeast 36th Street,73111,35.5079232,-97.4737637
210,East Sheridan Avenue,73104,35.4661111,-97.5085498
300,East Sheridan,73104,35.4660979,-97.5074059
121,East Sheridan Avenue,73104,35.4667801,-97.5095577
17,East Sheridan Avenue,73104,35.4667644,-97.5112894
1,East Sheridan Avenue,73104,35.4668093,-97.5118289
200,Bass Pro Drive,73104,35.4633296,-97.5029479
9000,Southeast 29th Street,73130-7104,35.4347942,-97.3702431
328,East Sheridan Avenue,73104,35.4661247,-97.5065064
311,East Sheridan Avenue,73104,35.4667689,-97.5068950
4,East Sheridan Avenue,73104,35.4661316,-97.5118472
9,East Sheridan Avenue,73104,35.4667665,-97.5115430
11935,North I-35 Service Road,73131,35.5886060,-97.4387853
4901,Northeast 122nd Street,73013,35.5956767,-97.4342348
11501,North I-35 Service Road,73131,35.5844020,-97.4403821
1004,West Sheridan,73106,35.4661025,-97.5295511
936,West Sheridan,73106,35.4661981,-97.5287396
707,Northwest 13th Street,73103,35.4829063,-97.5247945
2,West Reno Avenue,73102,35.4637448,-97.5137214
517,South Hudson Avenue,73109,35.4603974,-97.5198053
2231,Northwest 23rd Street,73107,35.4935788,-97.5515606
1141,North Lincoln Boulevard,73104,35.4802190,-97.5058362
1200,North Childrens Avenue,73104,35.4812864,-97.4974201
701,Northeast 10th Street,73104,35.4788267,-97.5001058
921,Northeast 13th Street,73104,35.4839408,-97.4957847
700,Northeast 13th Street,73104,35.4812706,-97.5011437
200,Southeast 4th Street,73129,35.4601969,-97.5071432
416,Southeast 15th Street,73129,35.4510232,-97.5046478
1205,Southwest 2nd Street,73108,35.4636097,-97.5331158
1320,West Reno Ave,73108,35.4623153,-97.5368007
1205,Southwest 2nd Street,73108,35.4636097,-97.5329485
815,Southwest 2nd Street,73109,35.4635169,-97.5265113
3971,South Lake Hefner Drive,73116,35.5488561,-97.5893818
5105,Northwest 50th Street,73122,35.5260000,-97.6056801
5636,North Pennsylvania Avenue,73112,35.5269737,-97.5463811
1845,Northwest Expressway,73118,35.5231417,-97.5430482
1801,Belle Isle Boulevard,73118,35.5263306,-97.5396333
1511,Northwest Expressway,73118,35.5237292,-97.5377518
2524,North Military Avenue,73106,35.4951126,-97.5314343
3224,North Classen,73118,35.5026863,-97.5338125
5200,North Classen Circle,73118,35.5232980,-97.5315690
12230,North I-35 Service Road,73131,35.5942704,-97.4306500
12204,North I-35 Service Road,73131,35.5939340,-97.4288356
12024,North I-35 Service Road,73131,35.5920158,-97.4313498
11900,North I-35 Service Road,73131,35.5905927,-97.4330289
5400,North May Avenue,73112-5407,35.5242765,-97.5639344
1721,Belle Isle Boulevard,73118,35.5264692,-97.5368826
1731,Belle Isle Boulevard,73118,35.5264814,-97.5374499
1535,Northwest 50th Street,73118-4411,35.5227494,-97.5380821
1515,Northwest Expressway,73118,35.5227589,-97.5372612
3701,North Youngs Boulevard,73112,35.5079911,-97.5525176
3333,North Shartel Avenue,73118,35.5038897,-97.5271073
7800,Northwest Expressway,73132,35.5624069,-97.6540952
1108,Northwest 18th Street,73106,35.4873210,-97.5304089
519,Northwest 23rd Street,73103,35.4935676,-97.5217583
3000,North Lee Avenue,73103,35.4997325,-97.5237352
2101,Northwest 23rd Street,73107,35.4936482,-97.5481336
2217,Northwest 23rd Street,73107,35.4946037,-97.5505950
600,Northwest 38th Street,73118,35.5099067,-97.5231618
1112,Northwest 23rd Street,73106,35.4928005,-97.5308289
2400,North May Avenue,73107,35.4936265,-97.5651237
3408,North Classen Boulevard,73118,35.5045911,-97.5338937
4415,North Western Avenue,73118,35.5165254,-97.5300379
8400,North Robinson Avenue,73114,35.5567019,-97.5149631
8115,West Lake Hefner Drive,73132,35.5546705,-97.6143650
1100,Northwest 30th Street,73118,35.5002711,-97.5300524
3214,North Lake Avenue,73118,35.5027276,-97.5306928
112,Northwest 23rd Street,73103,35.4930027,-97.5144538
3020,North Walker Avenue,73103,35.5003199,-97.5207786
1844,Northwest Expressway,73118,35.5218690,-97.5442857
16060,North May Avenue,73013,35.6334904,-97.5647986
101,Park Avenue,73102,35.4689796,-97.5148405
1900,Springlake Driver,73111,35.5126533,-97.4783494
1800,Springlake Drive,73111,35.5130168,-97.4797127
3901,Martin Luther King Avenue,73111,35.5102882,-97.4779720
1720,Springlake Drive,73111,35.5122035,-97.4805320
1700,Springlake Drive,73111,35.5130845,-97.4823520
1600,Springlake Drive,73111,35.5134975,-97.4829795
1901,Springlake Drive,73111,35.5145079,-97.4782228
1520,Staton Drive,73111,35.5119350,-97.4842340
1524,Staton Drive,73111,35.5117953,-97.4838983
1500,Staton Drive,73111,35.5117760,-97.4847611
1700,Staton Drive,73111,35.5119837,-97.4823195
1700,Springlake Drive,73111,35.5131064,-97.4810642
2720,North May Avenue,73107,35.4965558,-97.5652750
1125,Northeast 36th Street,73111,35.5082562,-97.4902766
7516,North Western Avenue,73116,35.5482359,-97.5295750
2301,North Olie Avenue,73106,35.4925756,-97.5289715
3620,North Western Avenue,73118,35.5070937,-97.5295888
3612,North Western Avenue,73118,35.5069201,-97.5295358
900,West Sheridan,73106,35.4661972,-97.5277508
3022,Northwest 39th Street,73112,35.5106457,-97.5689524
3625,Northwest 39th Expressway,73112,35.5118928,-97.5822991
3604,North May Avenue,73112,35.5064347,-97.5651102
5025,North May Avenue,73112,35.5215044,-97.5664165
5120,North May Avenue,73112,35.5227565,-97.5649671
2701,Northwest Expressway,73112,35.5263254,-97.5613916
4805,North May Avenue,73112,35.5200297,-97.5666479
2601,Northwest Expressway,73112,35.5258240,-97.5596988
2601,Northwest Expressway,73112,35.5258277,-97.5592362
2525,Northwest Expressway,73112,35.5257055,-97.5579541
5100,North Pennsylvania Avenue,73112,35.5225243,-97.5472278
3612,North May Avenue,73112,35.5070071,-97.5653411
3040,Northwest 59th Street,73112,35.5313590,-97.5694661
2724,Northwest Expressway,73112,35.5250443,-97.5628185
5200,North May Avenue,73112,35.5231896,-97.5652353
1329,Northeast 48th Street,73111,35.5208913,-97.4871948
1000,North Lee Avenue,73102,35.4779995,-97.5234742
3400,North Portland Avenue,73112,35.5049307,-97.5824683
4001,North May Avenue,73112,35.5119022,-97.5663586
2404,Northwest 44th Street,73112,35.5157359,-97.5539806
1920,North Kate Avenue,73111,35.4883803,-97.4867263
2016,Northwest 39th Street,73118,35.5105966,-97.5462610
6500,North Kelley Avenue,73111,35.5380999,-97.4930343
3308,NE 10th Street,73117,35.4784168,-97.4519281
8213,Southwest 8th Street,73128,35.4575186,-97.6576911
3030,South Prospect Avenue,73129,35.4344046,-97.4850263
7100,Terminal Drive,73159-0937,35.3872547,-97.6033273
1000,Northeast 13th Street,73104,35.4816719,-97.4941328
4801,Northeast 122nd Street,73013,35.5956409,-97.4368135
4110,Northwest Expressway,73116,35.5374804,-97.5932168
7101,Northwest Expressway Street,73116,35.5593681,-97.6400623
5501,Northwest Expressway,73132,35.5462427,-97.6102934
3323,Northwest Expressway,73112,35.5316795,-97.5762606
3321,Northwest Expressway,73112,35.5313903,-97.5760801
3015,Northwest Expressway,73112,35.5282466,-97.5695281
3801,North May Avenue,73112,35.5098445,-97.5676528
4705,Northwest Expressway,73132,35.5446930,-97.6060901
3501,Northwest 63rd Street,73116,35.5377801,-97.5792268
3501,Northwest 63rd Street,73116,35.5372395,-97.5794915
3727,Northwest 63rd Street,73116,35.5373431,-97.5842176
3000,Northwest 59th Street,73112,35.5304923,-97.5678903
5801,North May Avenue,73112,35.5304823,-97.5667964
5704,Mosteller Drive,73112,35.5298976,-97.5698563
5701,North May Avenue,73112,35.5296458,-97.5662603
3001,Northwest 63rd Street,73116,35.5369391,-97.5667536
6408,North May Avenue,73116,35.5370003,-97.5644864
2836,Northwest 68th Street,73116,35.5403424,-97.5646038
6900,North May Avenue,73116,35.5409536,-97.5651110
725,Northwest 13th Street,73103,35.4827644,-97.5251320
12101,North I-35 Service Road,73131,35.5897307,-97.4373853
7730,Northwest Expressway,73132,35.5620833,-97.6526666
7620,Northwest Expressway,73132,35.5606217,-97.6478804
9001,Northwest Passage,73132,35.5613923,-97.6520010
9000,Northwest Passage,73132,35.5598947,-97.6502639
9401,North Council Road,73162-6207,35.5647484,-97.6567006
1320,Southeast 15th Street,73129,35.4494012,-97.4865079
820,Northwest 15th Street,73106,35.4850077,-97.5266096
5200,North Santa Fe Avenue,73118,35.5235159,-97.5116517
1900,North Drexel Boulevard,73107,35.4886799,-97.5705343
4510,North Mayfair Drive,73112,35.5171695,-97.5654714
726,West Sheridan Avenue,73102,35.4661491,-97.5253985
7777,South May Avenue,73159,35.3889829,-97.5691719
1810,East Memorial Road,73131,35.6084203,-97.4808711
13800,North Pennsylvania Avenue,73134,35.6107572,-97.5482884
14001,North Pennsylvania Avenue,73134,35.6128877,-97.5499814
2317,West Memorial Road,73134,35.6103321,-97.5546761
1900,West Memorial Road,73134,35.6074078,-97.5460286
2000,West Memorial Road,73134,35.6050102,-97.5459263
2100,West Memorial Road,73134,35.6078882,-97.5503463
2150,West Memorial Road,73134,35.6078461,-97.5512107
2220,West Memorial Road,73134,35.6078868,-97.5523023
2400,West Memorial Road,73134,35.6066317,-97.5563496
7777,South May Avenue,73159,35.3891226,-97.5718183
7777,South May Avenue,73159,35.3857295,-97.5666109
6500,Air Cargo Road,73159,35.3983997,-97.5934784
7100,"Terminal Drive, Unit 937",73159-0937,35.3953340,-97.5968502
4500,South I-35 Service Road,73129,35.4202812,-97.4872604
1301,Southeast 44th Street,73129,35.4211741,-97.4867207
1337,Southeast 44th Street,73129,35.4214084,-97.4862313
1307,Southeast 44th Street,73129,35.4216342,-97.4868528
4612,Northwest 10th Street,73127,35.4784981,-97.6039249
301,West Wilshire Boulevard,73116,35.5515099,-97.5190549
130,West Britton Road,73114,35.5650425,-97.5151915
3001,North Lincoln Boulevard,73105,35.4995719,-97.5039987
125,West Britton Road,73114,35.5659582,-97.5153178
222,Northwest 15th Street,73103,35.4841888,-97.5166665
2601,Northeast 10th Street,73117,35.4789916,-97.4643627
1530,Northeast Grand Boulevard,73117,35.4853562,-97.4643306
1524,Northeast Grand Boulevard,73117,35.4847747,-97.4644308
900,North Martin Luther King Avenue,73117,35.4764463,-97.4740543
4001,North Portland Avenue,73112,35.5118441,-97.5837677
2400,Northwest 36th Street,73112,35.5070381,-97.5548366
701,Market Drive,73114,35.5973860,-97.5004017
3233,Northwest Expressway,73112,35.5308206,-97.5738909
7000,Northwest Grand Boulevard,73116,35.5406639,-97.5532325
3200,South Prospect Avenue,73129,35.4335740,-97.4852969
3030,South Prospect Avenue,73129,35.4346299,-97.4853068
3000,South Prospect Avenue,73129,35.4349709,-97.4853813
1501,Southeast 29th Street,73129,35.4357856,-97.4853489
2301,Southeast 29th Street,73129,35.4389410,-97.4691691
4491,South Lake Hefner Drive,73116-1530,35.5530836,-97.6006955
3701,South Lake Hefner Drive,73120,35.5517424,-97.5825232
3342,Northwest 23rd Street,73106,35.4929318,-97.5763147
2200,North Classen Boulevard,73106,35.4918661,-97.5307727
2668,North Western Avenue,73106,35.4959493,-97.5307820
3704,North Western Avenue,73118,35.5079306,-97.5294477
2900,South Prospect Avenue,73129,35.4361539,-97.4854311
2838,South Prospect Avenue,73129,35.4365175,-97.4853471
2800,South Prospect Avenue,73129,35.4368613,-97.4853439
2616,South Prospect Avenue,73129,35.4376210,-97.4848425
701,West Sheridan Avenue,73102,35.4666959,-97.5244421
1335,West Sheridan Avenue,73106,35.4667197,-97.5366022
6000,North May Avenue,73112,35.5321232,-97.5652376
6014,North May Avenue,73112,35.5324323,-97.5651192
3817,Northwest Expressway,73112,35.5359245,-97.5858875
2245,Northwest 39th Street,73112,35.5118167,-97.5517258
3301,Northwest Expressway,73112,35.5306389,-97.5749239
5705,Mosteller Drive,73112,35.5295426,-97.5704065
2809,Northwest Expressway,73112,35.5271687,-97.5638119
6201,North May Avenue,73116,35.5353972,-97.5661023
6808,North May Avenue,73116,35.5403232,-97.5652396
6500,North May Avenue,73116,35.5378130,-97.5650352
6700,North May Avenue,73116,35.5393860,-97.5653469
6410,North May Avenue,73116,35.5375023,-97.5646008
10,North Broadway Avenue,73102,35.4668472,-97.5139558
2000,Remington Place,73111,35.5167284,-97.4751582
3420,Northwest 23rd Street,73107,35.4929775,-97.5779569
3321,Northwest 23rd Street,73107,35.4936014,-97.5759085
3429,Northwest 23rd Street,73107,35.4935895,-97.5780630
3701,Northwest 23rd Street,73107,35.4936193,-97.5837050
1,Northwest 3rd Street,73104,35.4710597,-97.5120074
500,West Main Street,73102,35.4674983,-97.5216581
321,Park Avenue,73102,35.4692068,-97.5187309
307,Northwest 4th Street,73102,35.4722492,-97.5180678
101,East Main Street,73104,35.4678995,-97.5101969
3701,North May Avenue,73112,35.5079436,-97.5660778
2905,Northwest 36th Street,73112,35.5084056,-97.5678537
3022,Northwest Expressway,73112,35.5267563,-97.5685275
5315,North May Avenue,73112,35.5244939,-97.5663318
5301,North May Avenue,73112,35.5240932,-97.5662886
908,Southwest 4th Street,73109,35.4607242,-97.5283101
814,West Sheridan Avenue,73106,35.4661425,-97.5264499
800,West Sheridan Avenue,73102,35.4661509,-97.5260131
901,West Sheridan Avenue,73106,35.4668871,-97.5274527
900,West Main Street,73106,35.4675222,-97.5280455
718,West Sheridan Avenue,73102,35.4661564,-97.5250152
712,West Sheridan Avenue,73102,35.4661496,-97.5248035
700,West Sheridan Avenue,73102,35.4661470,-97.5244037
609,West Sheridan Avenue,73102,35.4668597,-97.5228920
415,Couch Drive,73102,35.4696840,-97.5201106
906,North May Avenue,73107,35.4765836,-97.5652312
300,North May Avenue,73107,35.4697573,-97.5645320
50,North May Avenue,73107,35.4676161,-97.5639341
2000,Remington Place,73111,35.5195612,-97.4745085
3104,Northwest 23rd Street,73107,35.4928952,-97.5707168
2712,Northwest 23rd Street,73107,35.4928278,-97.5600264
400,South May Avenue,73108,35.4620739,-97.5648350
6501,South Country Club Drive,73159,35.3996664,-97.5529978
4430,Northwest 10th Street,73107,35.4783944,-97.5980678
1617,Southwest 74th Street,73159,35.3920729,-97.5467015
117,Park Avenue,73102,35.4690116,-97.5153225
200,Park Avenue,73102,35.4690301,-97.5160412
123,Park Avenue,73102,35.4690151,-97.5154984
1221,Sourthwest 105th Street,73170,35.3624572,-97.5381292
3003,West Memorial Road,73134,35.6108594,-97.5700820
3201,West Memorial Road,73134,35.6105533,-97.5744225
3201,North West 137th Street,73134,35.6115275,-97.5737379
1325,South Meridian Avenue,73108,35.4521474,-97.6016240
1124,Southwest 59th Street,73109,35.4059169,-97.5360906
5832,Northwest 36th Street,73122,35.5074294,-97.6179128
4200,North May Avenue,73112,35.5140611,-97.5650471
2800,West I-44 Service,73112,35.5105679,-97.5644439
5555,North Grand Boulevard,73112,35.5262322,-97.5788465
3800,North May Avenue,73112,35.5094728,-97.5648681
3724,North May Avenue,73112,35.5086771,-97.5652671
2805,Northwest 36th Street,73112,35.5080842,-97.5637321
3653,North May Avenue,73112,35.5072433,-97.5661133
2520,Northwest 39th Street,73112,35.5109150,-97.5590878
2727,Northwest 39th Street,73112,35.5121337,-97.5631791
2801,Northwest 39th Street,73112,35.5121586,-97.5641164
4000,North May Avenue,73112,35.5119952,-97.5651696
3200,Northwest 48th Street,73112,35.5199287,-97.5735391
3001,Northwest 39th Street,73112,35.5119251,-97.5682338
4601,North May Avenue,73112,35.5174588,-97.5661386
3800,North Grand Boulevard,73112,35.5091883,-97.5742728
3415,Northwest 36th Street,73112,35.5080048,-97.5775021
6300,Waterford Boulevard,73118,35.5353140,-97.5457295
5801,Broadway Extension,73116,35.5319425,-97.5148402
220,Northwest 23rd Street,73103,35.4929834,-97.5166259
135,Northeast 23rd Street,73105-3003,35.4935506,-97.5085867
6501,South Country Club Drive,73159,35.3990015,-97.5543039
4800,Northwest Expressway,73132-5214,35.5443636,-97.6083512
7600,North May Avenue,73116,35.5484366,-97.5651141
7716,North May Avenue,73116,35.5501658,-97.5652732
7301,North May Avenue,73116,35.5443831,-97.5659659
2832,Pembroke Terrace,73116,35.5459065,-97.5651998
2914,Northwest 73rd Street,73116,35.5447994,-97.5666009
7640,North May Avenue,73116,35.5492757,-97.5652446
7105,North May Avenue,73116,35.5430536,-97.5661138
7013,North May Avenue,73116,35.5422247,-97.5664568
7220,North May Avenue,73116,35.5439749,-97.5652101
6801,North May Avenue,73116,35.5402979,-97.5660888
4001,Northwest 63rd Street,73116,35.5374247,-97.5891664
3841,Northwest 63rd Street,73116,35.5374596,-97.5885090
3801,Northwest 63rd Street,73116,35.5373718,-97.5874569
401,S Blackwelder Ave,73108,35.4615278,-97.5387748
1125,South Walker Avenue,73109,35.4545721,-97.5216213
5701,North Shartel Avenue,73118,35.5301480,-97.5245603
5905,Classen Court,73118,35.5316699,-97.5278679
777,Northwest Grand Boulevard,73118,35.5289377,-97.5241906
625,Northwest Grand Boulevard,73118,35.5290786,-97.5230700
5801,North Shartel Avenue,73118,35.5312883,-97.5241000
924,Northwest 58th Street,73118,35.5316862,-97.5260952
717,Northwest 56th Street,73118,35.5303946,-97.5230695
911,Northwest 57th Street,73118,35.5314307,-97.5257981
809,Northwest 57th Street,73118,35.5312697,-97.5244095
825,Northwest 57th Street,73118,35.5313524,-97.5251165
3628,North Lincoln Boulevard,73105,35.5071050,-97.5027915
3,Northeast 8th Street,73104,35.4762784,-97.5117478
1,Northwest 10th Street,73103,35.4783958,-97.5123081
1207,North Walker Avenue,73103,35.4805372,-97.5213392
1201,North Walker Avenue,73103,35.4802986,-97.5214617
600,Northwest 13th Street,73103,35.4817986,-97.5232737
1300,North Harvey Avenue,73103,35.4815217,-97.5171960
1201,North Robinson Avenue,73103,35.4804473,-97.5168044
1111,North Dewey Avenue,73103,35.4794687,-97.5234260
723,Northwest 23rd Street,73103,35.4934982,-97.5251244
727,Northwest 23rd Street,73103,35.4934884,-97.5253009
719,Northwest 23rd Street,73103,35.4935047,-97.5249594
733,Northwest 23rd Street,73103,35.4934748,-97.5255414
715,Northwest 23rd Street,73103,35.4934974,-97.5247859
2415,North Walker Avenue,73103,35.4939831,-97.5213307
901,Northeast 33rd Street,73105,35.5049779,-97.4955857
1500,Northwest 23rd Street,73106,35.4929394,-97.5358739
2412,North Olie Avenue,73106,35.4938613,-97.5285664
12133,North I-35 Service Road,73013,35.5940815,-97.4347044
1700,Northeast 63rd Street,73111,35.5354242,-97.4832009
13501,Highland Park Boulevard,73120,35.6074522,-97.5611345
3908,West Reno Avenue,73107,35.4613269,-97.5884928
4201,Northwest 39th Expressway,73112,35.5120400,-97.5952271
5501,Mackelman Drive,73135,35.4103200,-97.4312606
4801,Northwest Expressway,73132,35.5448614,-97.6069805
4811,Northwest Expressway,73132,35.5452170,-97.6074746
4829,Northwest Expressway,73132,35.5457576,-97.6088707
5500,Northwest Expressway,73132,35.5450948,-97.6102285
8001,Northwest Highway,73132,35.5665025,-97.6567308
8900,Northwest Expressway,73162,35.5714892,-97.6722248
8104,Northwest Expressway,73162,35.5661422,-97.6583212
2706,South Shartel Avenue,73109,35.4381230,-97.5256102
115,East Reno Avenue,73104,35.4645809,-97.5100255
400,East Reno Avenue,73104,35.4634584,-97.5055897
2928,South Meridian Avenue,73108,35.4356903,-97.6003088
2929,South Meridian Avenue,73108,35.4358509,-97.6014852
1905,South Meridian Avenue,73108,35.4460666,-97.6020165
2308,South Meridian Avenue,73108,35.4420962,-97.6003566
1815,South Meridian,73108,35.4469675,-97.6023326
4410,Southwest 19th Street,73108,35.4445548,-97.5989030
2200,South Meridian,73108,35.4429910,-97.6002541
2101,South Meridian Avenue,73108,35.4431124,-97.6023000
2600,South Meridian Avenue,73108,35.4394165,-97.6004030
1224,South Meridian Avenue,73108,35.4533522,-97.6004674
5201,South Pennsylvania Avenue,73119,35.4136239,-97.5483100
5201,South Pennsylvania Avenue,73119,35.4137872,-97.5481961
4420,South Western Avenue,73109,35.4214247,-97.5279574
3500,Southwest 104th Street,73159,35.3628247,-97.5793877
8301,South Villa Avenue,73159,35.3829416,-97.5583893
2431,Southwest 89th Street,73159,35.3785255,-97.5570235
2608,South Prospect Avenue,73129,35.4383197,-97.4852537
2121,North Portland Avenue,73107,35.4895414,-97.5847614
113,Northwest 23rd Street,73103-4306,35.4936825,-97.5142258
3616,North May Avenue,73112,35.5073042,-97.5651670
2200,Northwest 50th Street,73112,35.5216730,-97.5510230
2424,Northwest 50th Street,73112,35.5217711,-97.5556973
14040,NORTH PENNSYLVANIA AVE,73134,35.6129419,-97.5489722
308,Northwest 164th Street,73013,35.6378123,-97.5187094
2124,Northwest 47th Street,73112,35.5188094,-97.5498190
2120,Northwest 47th Street,73112,35.5188418,-97.5495422
2116,Northwest 47th Street,73112,35.5188421,-97.5492304
2112,Northwest 47th Street,73112,35.5189322,-97.5488821
2108,Northwest 47th Street,73112,35.5188509,-97.5485346
2104,Northwest 47th Street,73112,35.5188597,-97.5482224
2100,Northwest 47th Street,73112,35.5188751,-97.5479423
7004,Northwest Expressway,73132,35.5568123,-97.6372176
7716,Northwest Expressway,73132,35.5630697,-97.6512452
6200,Northwest Expressway,73132,35.5516131,-97.6253827
7700,Northwest Expressway,73132,35.5627357,-97.6504156
7120,Northwest Expressway,73132,35.5578419,-97.6394644
5909,Northwest Expressway,73132,35.5515305,-97.6225690
8116,Northwest Expressway,73162,35.5664884,-97.6590868
8390,Northwest Expressway Street,73162,35.5681520,-97.6627728
7124,West Hefner Road,73162,35.5797859,-97.6397821
3810,North Tulsa Avenue,73112,35.5090753,-97.5917718
4626,Northwest 39th Expressway,73112,35.5104653,-97.6050762
4025,Northwest 36th Street,73112,35.5082451,-97.5917355
4216,Northwest 39th Street,73112,35.5108976,-97.5954196
4200,NW 39th Street,73112,35.5107236,-97.5947036
4905,Northwest 23rd Street,73127,35.4944407,-97.6053954
2420,North MacArthur Boulevard,73127,35.4940704,-97.6185679
7501,West Memorial Road,73142,35.6117033,-97.6485482
5900,West Memorial Road,73142,35.6081081,-97.6217750
13424,North Macarthur Boulevard,73142,35.6068655,-97.6202399
6100,West Memorial Road,73142,35.6079838,-97.6247091
16401,North Rockwell Avenue,73013,35.6379970,-97.6392729
12410,North Macarthur,73142,35.5963372,-97.6202894
13501,North Macarthur,73142,35.6073588,-97.6214433
5924,West Memorial Road,73142,35.6080949,-97.6226550
14201,North Pennsylvania Avenue,73134,35.6145590,-97.5519034
2425,West Memorial Road,73134,35.6102970,-97.5578567
16300,North May Avenue,73013,35.6362437,-97.5660170
14600,North Portland Avenue,73134,35.6189597,-97.5818771
2515,West Memorial Road,73134,35.6103042,-97.5589010
3601,West Memorial Road,73134,35.6104512,-97.5834705
2625,West Memorial Road,73134,35.6102937,-97.5618937
2521,West Memorial Road,73134,35.6103149,-97.5597463
16410,North May Avenue,73013,35.6376265,-97.5664929
2639,West Memorial Road,73134,35.6103032,-97.5623773
2601,West Memorial Road,73134,35.6102388,-97.5607421
15000,North May Avenue,73134,35.6227013,-97.5657436
2252,Northwest 52nd Street,73112,35.5230725,-97.5521404
5114,North Youngs Boulevard,73112,35.5229033,-97.5522268
5110,North Youngs Boulevard,73112,35.5227400,-97.5522079
5100,North Youngs Boulevard,73112,35.5224853,-97.5522364
2237,Northwest 50th Street,73112,35.5224593,-97.5520542
2233,Northwest 50th Street,73112,35.5224699,-97.5518715
2248,Northwest 52nd Street,73112,35.5230049,-97.5518481
2244,Northwest 52nd Street,73112,35.5229771,-97.5516619
2240,Northwest 52nd Street,73112,35.5229424,-97.5514824
2236,Northwest 52nd Street,73112,35.5229078,-97.5513065
2232,Northwest 52nd Street,73112,35.5228828,-97.5511208
2229,Northwest 50th Street,73112,35.5224906,-97.5516877
2225,Northwest 50th Street,73112,35.5224789,-97.5515001
2221,Northwest 50th Street,73112,35.5224604,-97.5513161
2217,Northwest 50th Street,73112,35.5224639,-97.5511289
2228,Northwest 52nd Street,73112,35.5228471,-97.5509416
2213,Northwest 50th Street,73112,35.5224635,-97.5509474
1104,North Robinson Avenue,73103,35.4785146,-97.5157123
2233,Northwest 52nd Street,73112,35.5232276,-97.5509117
2237,Northwest 52nd Street,73112,35.5232760,-97.5510993
2241,Northwest 52nd Street,73112,35.5232908,-97.5512756
2245,Northwest 52nd Street,73112,35.5233499,-97.5514583
2249,Northwest 52nd Street,73112,35.5233737,-97.5516391
2253,Northwest 52nd Street,73112,35.5234014,-97.5518165
2257,Northwest 52nd Street,73112,35.5234531,-97.5519938
2261,Northwest 52nd Street,73112,35.5234492,-97.5521891
2265,Northwest 52nd Street,73112,35.5234850,-97.5523829
2301,Northwest 52nd Street,73112,35.5235210,-97.5525731
2305,Northwest 52nd Street,73112,35.5235634,-97.5527553
2309,Northwest 52nd Street,73112,35.5235900,-97.5529336
4010,North Lincoln Boulevard,73112,35.5117757,-97.5018760
5111,North Youngs Boulevard,73112,35.5227253,-97.5527009
5101,North Youngs Boulevard,73112,35.5224907,-97.5526237
5115,North Youngs Boulevard,73112,35.5228714,-97.5526794
5119,North Youngs Boulevard,73112,35.5230193,-97.5526962
2300,Northwest 52nd Street,73112,35.5231863,-97.5527505
2312,Northwest 52nd Street,73112,35.5232625,-97.5531454
5118,North Cross Avenue,73112,35.5230608,-97.5531922
5114,North Cross Avenue,73112,35.5228919,-97.5532127
5110,North Cross Avenue,73112,35.5227310,-97.5532088
5100,North Cross Avenue,73112,35.5224939,-97.5532497
2305,Northwest 50th Street,73112,35.5224482,-97.5528379
2309,Northwest 50th Street,73112,35.5224723,-97.5530304
2313,Northwest 52nd Street,73112,35.5236172,-97.5531270
2317,Northwest 52nd Street,73112,35.5236479,-97.5533023
2321,Northwest 50th Street,73112,35.5224468,-97.5536422
2325,Northwest 50th Street,73112,35.5224357,-97.5538495
2329,Northwest 50th Street,73112,35.5224399,-97.5540448
2333,Northwest 50th Street,73112,35.5224638,-97.5542471
5110,North Billen Avenue,73112,35.5227189,-97.5542143
5114,North Billen Avenue,73112,35.5228842,-97.5542162
5200,North Billen Avenue,73112,35.5230441,-97.5542276
5111,North Cross Avenue,73112,35.5227177,-97.5536920
5115,North Cross Avenue,73112,35.5228675,-97.5536837
5119,North Cross Avenue,73112,35.5230216,-97.5537025
5123,North Cross Avenue,73112,35.5231694,-97.5536838
5204,North Billen Avenue,73112,35.5232137,-97.5542264
2326,Northwest 52nd Street,73112,35.5233615,-97.5537332
5208,North Billen Avenue,73112,35.5234014,-97.5541968
11917,North Pennsylvania Avenue,73120,35.5918499,-97.5508201
301,West Park Place,73103,35.4785386,-97.5179701
8921,South Walker Avenue,73139,35.3777040,-97.5220514
12613,South Western Avenue,73170,35.3430408,-97.5343561
100,Southwest 74th Street,73139,35.3890388,-97.5141133
8000,South I-35 Service Road,73149,35.3874004,-97.4935937
8420,Bigwood Drive,73135,35.3817644,-97.4240209
8416,Bigwood Drive,73135,35.3819296,-97.4240080
8412,Bigwood Drive,73135,35.3821029,-97.4240044
8408,Bigwood Drive,73135,35.3822696,-97.4240107
8409,Bigwood Drive,73135,35.3822599,-97.4244879
8413,Bigwood Drive,73135,35.3820938,-97.4244886
8417,Bigwood Drive,73135,35.3819359,-97.4244865
1520,Southwest 59th Street,73119,35.4057986,-97.5443083
5000,Southeast 84th Street,73135,35.3807230,-97.4316898
5004,Southeast 84th Street,73135,35.3806948,-97.4314918
5008,Southeast 84th Street,73135,35.3806946,-97.4312879
5012,Southeast 84th Street,73135,35.3807006,-97.4310922
5016,Southeast 84th Street,73135,35.3806951,-97.4308861
5020,Southeast 84th Street,73135,35.3806957,-97.4306865
5100,Southeast 84th Street,73135,35.3806909,-97.4304821
5104,Southeast 84th Street,73135,35.3806919,-97.4302890
5108,Southeast 84th Street,73135,35.3806979,-97.4300815
5112,Southeast 84th Street,73135,35.3806996,-97.4298808
5116,Southeast 84th Street,73135,35.3806990,-97.4296789
5200,Southeast 84th Street,73135,35.3806974,-97.4294795
5204,Southeast 84th Street,73135,35.3806972,-97.4292734
5208,Southeast 84th Street,73135,35.3806846,-97.4290754
5212,Southeast 84th Street,73135,35.3806887,-97.4288778
5216,Southeast 84th Street,73135,35.3807063,-97.4286740
5220,Southeast 84th Street,73135,35.3807000,-97.4284699
5224,Southeast 84th Street,73135,35.3806973,-97.4282688
5228,Southeast 84th Street,73135,35.3807098,-97.4280672
5232,Southeast 84th Street,73135,35.3807028,-97.4278551
5233,Southeast 85th Street,73135,35.3803721,-97.4278423
5229,Southeast 85th Street,73135,35.3803772,-97.4280750
5225,Southeast 85th Street,73135,35.3803727,-97.4282891
5221,Southeast 85th Street,73135,35.3803790,-97.4284899
5217,Southeast 85th Street,73135,35.3803837,-97.4286862
5213,Southeast 85th Street,73135,35.3803713,-97.4288886
5209,Southeast 85th Street,73135,35.3803902,-97.4290935
5205,Southeast 85th Street,73135,35.3803851,-97.4293058
5201,Southeast 85th Street,73135,35.3803739,-97.4295136
5117,Southeast 85th Street,73135,35.3803663,-97.4297136
5113,Southeast 85th Street,73135,35.3803727,-97.4299152
5109,Southeast 85th Street,73135,35.3803796,-97.4301193
5105,Southeast 85th Street,73135,35.3803753,-97.4303163
5101,Southeast 85th Street,73135,35.3803732,-97.4305220
5017,Southeast 85th Street,73135,35.3803750,-97.4307256
5013,Southeast 85th Street,73135,35.3803796,-97.4309249
5009,Southeast 85th Street,73135,35.3803588,-97.4312024
5001,Southeast 85th Street,73135,35.3801231,-97.4315548
5005,Southeast 85th Street,73135,35.3802789,-97.4314028
8508,Woodbend Drive,73135,35.3804472,-97.4316415
8501,Woodbend Drive,73135,35.3807291,-97.4322321
8505,Woodbend Drive,73135,35.3805496,-97.4321791
8509,Woodbend Drive,73135,35.3803944,-97.4321762
8513,Woodbend Drive,73135,35.3802280,-97.4321814
8517,Woodbend Drive,73135,35.3800101,-97.4321364
8521,Woodbend Drive,73135,35.3798485,-97.4319900
8525,Woodbend Drive,73135,35.3797205,-97.4318105
5000,Southeast 85th Street,73135,35.3799102,-97.4310370
5008,Southeast 85th Street,73135,35.3799371,-97.4308214
5100,Southeast 85th Street,73135,35.3799409,-97.4306117
5104,Southeast 85th Street,73135,35.3799347,-97.4303923
5108,Southeast 85th Street,73135,35.3799420,-97.4301737
5112,Southeast 85th Street,73135,35.3799286,-97.4299542
5116,Southeast 85th Street,73135,35.3799401,-97.4297380
5200,Southeast 85th Street,73135,35.3799459,-97.4295171
5204,Southeast 85th Street,73135,35.3799439,-97.4292880
5208,Southeast 85th Street,73135,35.3799359,-97.4290795
5212,Southeast 85th Street,73135,35.3799379,-97.4288780
5216,Southeast 85th Street,73135,35.3799535,-97.4286696
5220,Southeast 85th Street,73135,35.3799409,-97.4284758
5224,Southeast 85th Street,73135,35.3799448,-97.4282732
5228,Southeast 85th Street,73135,35.3799381,-97.4280764
5232,Southeast 85th Street,73135,35.3799456,-97.4278264
8930,South Sooner Road,73135,35.3777913,-97.4229218
8901,South Sooner Road,73135,35.3777303,-97.4240927
8801,South Sooner Road,73135,35.3788082,-97.4239662
8421,Bigwood Drive,73135,35.3817639,-97.4244820
8425,Bigwood Drive,73135,35.3815927,-97.4244823
8429,Bigwood Drive,73135,35.3814168,-97.4245061
8433,Bigwood Drive,73135,35.3812303,-97.4244983
8432,Bigwood Drive,73135,35.3812367,-97.4240147
8428,Bigwood Drive,73135,35.3814147,-97.4240148
8424,Bigwood Drive,73135,35.3815981,-97.4240236
10944,North May Avenue,73120,35.5819483,-97.5653681
10942,North May Avenue,73120,35.5810664,-97.5653749
8201,Northwest 99th Street,73162,35.5717810,-97.6600508
4601,Southwest 3rd Street,73128,35.4630278,-97.6034876
1629,South Prospect Avenue,73129,35.4484979,-97.4861317
7801,South Sooner Road,73135,35.3884088,-97.4242718
2301,East Indian Hills Road,73071,35.2922408,-97.4076755
7509,Northwest 135th Street,73142,35.6073796,-97.6456833
3033,Northwest 63rd Street,73116,35.5373364,-97.5692868
7624,West Reno Avenue,73127,35.4620815,-97.6485060
400,South Meridian Avenue,73108,35.4618168,-97.6000321
4300,Southwest 3rd Street,73108-1024,35.4613961,-97.5976873
6001,North Western Avenue,73118,35.5341591,-97.5304530
725,Lincoln Boulevard,73129,35.4579531,-97.5025805
725,Lincoln Boulevard,73129,35.4582472,-97.5021494
6104,West Reno Avenue,73128,35.4631920,-97.6239202
726,West Sheridan Avenue,73102,35.4663303,-97.5254436
726,West Sheridan Avenue,73102,35.4662570,-97.5252325
726,West Sheridan Avenue,73102,35.4660125,-97.5252525
800,West Sheridan Avenue,73102,35.4663168,-97.5259368
800,W Sheridan,73106,35.4662777,-97.5260896
225,Northeast 97th Street,73114,35.5692772,-97.5061532
7201,West Britton Road,73132,35.5663494,-97.6416192
6000,Southwest 44th Street,73179,35.4202251,-97.6200846
4501,United Drive,73179,35.4201969,-97.6279900
6015,South Portland Avenue,73159,35.4022428,-97.5845541
6401,South Portland Avenue,73159,35.3962018,-97.5846715
4801,South Council Road,73179,35.4175070,-97.6547547
4745,Council Heights Road,73179,35.4185953,-97.6577614
8001,Southwest 47th Street,73097,35.4193547,-97.6555113
4500,South Council Road,73179,35.4202962,-97.6532863
8100,Southwest 47th Street,73179,35.4174844,-97.6559922
8200,West I-40 Service Road,73128,35.4595355,-97.6580563
720,South Rockwell Avenue,73128,35.4586616,-97.6336949
10505,South Santa Fe Avenue,73170,35.3630608,-97.5125293
7200,West I-40 Service Road,73128,35.4587929,-97.6389281
6100,West Reno Avenue,73127,35.4633502,-97.6221805
201,South MacArthur Boulevard,73128,35.4632107,-97.6195308
401,South MacArthur Boulevard,73128,35.4618018,-97.6194441
5901,Southwest 4th Terrace,73128,35.4614072,-97.6194301
6420,Southwest 3rd Street,73128,35.4610635,-97.6272948
6910,Southwest 3rd Street,73128,35.4617670,-97.6347097
7024,Southwest 3rd Street,73128,35.4625176,-97.6359197
6800,West Reno Avenue,73127,35.4634960,-97.6317758
6601,Southwest 3rd Street,73128,35.4634654,-97.6297402
6421,Southwest 3rd Street,73128,35.4631723,-97.6287693
208,South Council Road,73128,35.4633461,-97.6536023
13500,North MacArthur Boulevard,73142,35.6073684,-97.6202713
13229,North Pennsylvania Avenue,73120,35.6045536,-97.5501804
700,Cornell Parkway,73108,35.4581351,-97.5959850
510,South MacArthur Boulevard,73128,35.4616879,-97.6170350
540,South MacArthur Boulevard,73128,35.4615297,-97.6182621
312,South Meridian Avenue,73108-1012,35.4632442,-97.6005450
509,Westline Drive,73108,35.4587158,-97.5986764
808,South Meridian Avenue,73108,35.4581174,-97.6003152
804,South Meridian Avenue,73108,35.4583021,-97.5996656
1700,Northeast 7th Street,73117,35.4745460,-97.4809397
5924,Northwest 2nd Street,73127,35.4678777,-97.6206034
235,North MacArthur Boulevard,73127,35.4679361,-97.6197033
3141,Northwest Expressway,73112,35.5295731,-97.5714699
13100,Green Valley Drive,73120,35.6006833,-97.5961027
4300,West Memorial Road,73120,35.6070562,-97.6003556
4050,West Memorial Road,73120,35.6072782,-97.5969791
520,South Mustang Road,73099,35.4601021,-97.7236070
3300,Northwest Expressway,73112,35.5294149,-97.5765507
5501,North Portland Avenue,73112,35.5267377,-97.5846304
2129,Southwest 59th Street,73112,35.4071582,-97.5496732
4401,South Western Avenue,73109,35.4224407,-97.5323795
7010,West Hefner Road,73162,35.5795971,-97.6373612
10830,North Rockwell Avenue,73162,35.5797416,-97.6379967
7604,North Bryant Avenue,73131,35.5493644,-97.4585934
12100,North May Avenue,73120,35.5925988,-97.5658935
2101,Northwest 122nd Street,77706,35.5949913,-97.5498117
12323,North Pennsylvania Avenue,77706,35.5953481,-97.5497988
12401,North Pennsylvania Avenue,77706,35.5959899,-97.5498320
12300,North Pennsylvania Avenue,77706,35.5951330,-97.5484212
12330,North Pennsylvania Avenue,77706,35.5957970,-97.5489411
12216,North Pennsylvania Avenue,77706,35.5941954,-97.5488286
12124,North Pennsylvania Avenue,77706,35.5936833,-97.5489194
12112,North Pennsylvania Avenue,77706,35.5930252,-97.5488044
2012,Northwest 122nd Street,77706,35.5941883,-97.5480801
1900,Northwest 122nd Street,73120,35.5941951,-97.5468923
12700,North Pennsylvania Avenue,77706,35.5994022,-97.5488207
12900,North Pennsylvania Avenue,77706,35.6016036,-97.5488601
13511,Highland Park Boulevard,73120,35.6073914,-97.5594971
13500,Plaza Terrace,73120-2146,35.6075240,-97.5624588
2620,West Memorial Road,73134,35.6081511,-97.5615977
13606,North Pennsylvania Avenue,73120,35.6080678,-97.5488132
13600,North Pennsylvania Avenue,73120,35.6074459,-97.5487582
13220,North Pennsylvania Avenue,77706,35.6040954,-97.5486351
13140,North Pennsylvania Avenue,77706,35.6035801,-97.5488532
13301,North Pennsylvania Avenue,73120,35.6052741,-97.5505060
13405,North Pennsylvania Avenue,77706,35.6060771,-97.5500995
13300,North Pennsylvania Avenue,73120,35.6049955,-97.5489531
13500,North Pennsylvania Avenue,73120,35.6067151,-97.5489240
12525,North Pennsylvania Avenue,73120,35.5977244,-97.5503302
9900,Broadway Extension,73114,35.5708802,-97.5128128
9720,Broadway Extension,73114,35.5693085,-97.5126873
9500,Broadway Extension,73114,35.5671606,-97.5117972
9600,Broadway Extension,73114,35.5685724,-97.5114968
2740,Northwest 138th Street,73134,35.6112193,-97.5645683
3113,North Classen Boulevard,73118,35.5010744,-97.5347915
2616,Drakestone Avenue,73120,35.5572006,-97.5601260
2612,Drakestone Avenue,73120,35.5572198,-97.5598102
2616,Drakestone Avenue,73120,35.5571171,-97.5601587
2608,Drakestone Avenue,73120,35.5572191,-97.5594461
2604,Drakestone Avenue,73120,35.5571892,-97.5590450
8421,Greystone Avenue,73120,35.5568564,-97.5587001
2624,Drakestone Avenue,73120,35.5572516,-97.5608938
2700,Drakestone Avenue,73120,35.5570392,-97.5612709
2704,Drakestone Avenue,73120,35.5571759,-97.5616048
2708,Drakestone Avenue,73120,35.5572662,-97.5620038
2712,Drakestone Avenue,73120,35.5572839,-97.5624079
2620,Drakestone Avenue,73120,35.5571160,-97.5605099
2601,Dorchester Drive,73120,35.5563662,-97.5587237
2601,Dorchester Drive,73120,35.5562810,-97.5587567
2601,Dorchester Drive,73120,35.5564440,-97.5588953
2605,Dorchester Drive,73120,35.5563096,-97.5591574
2613,Dorchester Drive,73120,35.5563691,-97.5599055
2617,Dorchester Drive,73120,35.5564776,-97.5602934
2621,Dorchester Drive,73120,35.5563725,-97.5606348
2629,Dorchester Drive,73120,35.5562841,-97.5614046
2633,Dorchester Drive,73120,35.5563365,-97.5618518
2700,Guilford Lane,73120,35.5560361,-97.5624401
2712,Guilford Lane,73120,35.5563531,-97.5626464
2720,Guilford Lane,73120,35.5565923,-97.5628964
2728,Guilford Lane,73120,35.5568873,-97.5629803
2736,Guilford Lane,73120,35.5573234,-97.5633053
2716,Drakestone Avenue,73120,35.5572796,-97.5627555
2710,Guilford Lane,73120,35.5556884,-97.5630278
8200,North May Avenue,73120,35.5542980,-97.5666586
8106,North May Avenue,73120,35.5540279,-97.5662653
8104,North May Avenue,73120,35.5537610,-97.5666528
8028,North May Avenue,73120,35.5532069,-97.5664269
8016,North May Avenue,73120,35.5529648,-97.5662930
7940,North May Avenue,73120,35.5526899,-97.5661952
7936,North May Avenue,73120,35.5525176,-97.5660562
7928,North May Avenue,73120,35.5524590,-97.5656765
2811,Dorchester Drive,73120,35.5526077,-97.5656915
7926,North May Avenue,73120,35.5520778,-97.5651736
9100,North May Avenue,73120,35.5622029,-97.5665932
9204,North May Avenue,73120,35.5640895,-97.5665693
9111,North May Avenue,73120,35.5630018,-97.5679487
2900,West Britton Road,73120,35.5652427,-97.5679222
13501,Memorial Park Drive,73120,35.6076766,-97.5831620
3520,Northwest 135th Street,73120,35.6072745,-97.5818124
1441,West Memorial Road,73114,35.6101753,-97.5381483
1780,West Memorial Road,73134,35.6076222,-97.5436457
12601,North Western Avenue,73114,35.5977593,-97.5325900
420,John Kilpatrick Turnpike,73114,35.6026090,-97.5220400
433,East Memorial Road,73114,35.6100674,-97.5055717
128,East Hefner Road,73114,35.5796708,-97.5121338
13111,Broadway Extension,73114,35.6026210,-97.5034876
12929,North Kelley Avenue,73131,35.6011789,-97.4972844
12910,Broadway Extension,73114,35.6008238,-97.5009378
13010,Broadway Extension,73114,35.6020183,-97.5004394
13020,Broadway Extension,73114,35.6024586,-97.5000461
2241,Northwest 37th Street,73112,35.5089326,-97.5510642
2245,Northwest 37th Street,73112,35.5089255,-97.5512285
2124,Northwest 39th Street,73118,35.5111602,-97.5487766
2837,Northwest 36th Street,73112,35.5081401,-97.5648480
6600,Southeast 74th Street,73135,35.3907766,-97.4082761
7400,South Sooner Road,73135,35.3929099,-97.4228369
14613,North Kelly Avenue,73013,35.6190908,-97.4976006
14401,North Santa Fe Avenue,73013,35.6168723,-97.5143136
15001,North Santa Fe,73013,35.6228013,-97.5142376
12637,William Penn Boulevard,73120,35.5986976,-97.5376117
4601,North Pennsylvania Avenue,73112,35.5178474,-97.5485073
4515,North Pennsylvania Avenue,73112,35.5176472,-97.5483936
4509,North Pennsylvania Avenue,73112,35.5174697,-97.5482174
4507,North Pennsylvania Avenue,73112,35.5172471,-97.5483727
4613,North Pennsylvania Avenue,73112,35.5182425,-97.5484558
4619,North Pennsylvania Avenue,73112,35.5184437,-97.5483964
13924,North Pennsylvania Avenue,73134-6021,35.6125163,-97.5468539
14113,Broadway Extension,73013,35.6127973,-97.4951686
14137,Broadway Extension,73013,35.6134664,-97.4948002
14145,Broadway Extension,73013,35.6141340,-97.4949662
1121,East Memorial Road,73131,35.6102971,-97.4934410
201,Allenhurst Avenue,73114,35.5822146,-97.5103965
205,Allenhurst Avenue,73114,35.5821013,-97.5102146
209,Allenhurst Avenue,73114,35.5819720,-97.5100235
13925,North MacArthur Boulevard,73142,35.6119366,-97.6213901
5915,West Memorial Road,73142,35.6107979,-97.6224287
5950,Westlake Memorial Parkway,73142,35.6080352,-97.6240073
7600,Southwest 44th Street,73179,35.4175956,-97.6463899
7600,Southwest 44th Street,73179,35.4150190,-97.6473319
7700,Southwest 44th Street,73179,35.4191078,-97.6499215
6818,South Walker Avenue,73139,35.3976824,-97.5184923
2716,Northeast 50th Street,73111,35.5217507,-97.4638473
403,Tinker Diagonal Street,73129,35.4615808,-97.4610380
3501,Northeast 10th Street,73117,35.4815701,-97.4453841
1825,North Walnut Avenue,73105,35.4871792,-97.5097803
6441,Arnold Street,73145,35.4313961,-97.4136610
4740,South I-35 Service Road,73129,35.4174579,-97.4868202
7000,Crossroads Boulevard,73149,35.3955835,-97.4897223
3400,South Douglas Boulevard,73150,35.4297767,-97.3695046
3201,Mosley Road,73141,35.5024675,-97.4143997
110,Vermont Avenue,73107,35.4653444,-97.5971373
8100,South Bryant Avenue,73149,35.3862489,-97.4570897
2269,Northeast Grand Circle,73111,35.4919017,-97.4666841
2829,South MacArthur Boulevard,73128,35.4375726,-97.6214902
4601,South Walker Avenue,73109,35.4192318,-97.5218867
1211,East Interstate 240 Service Road,73149,35.3933975,-97.4902278
8001,Pole Road,73149,35.3870307,-97.4877094
4801,South I-35 Service Road,73129,35.4180933,-97.4906782
1500,Southwest 59th Street,73119,35.4055111,-97.5453533
7000,South Walker Avenue,73139,35.3959679,-97.5201895
7255,South Walker Avenue,73139,35.3939509,-97.5230662
125,Southwest 74th Street,73139,35.3934539,-97.5161141
3400,Southwest 44th Street,73119,35.4200151,-97.5772441
6219,South Independence Avenue,73159,35.4047119,-97.5750441
2600,West Interstate 240 Service Road,73159,35.3924098,-97.5617145
3317,Southwest 74th Street,73159,35.3922021,-97.5720002
1123,Northeast Grand Boulevard,73117,35.4795224,-97.4670302
7400,South Shields Boulevard,73149,35.3934801,-97.5045094
221,Southeast 74th Street,73149,35.3927022,-97.5076773
100,East Interstate 240 Service Road,73149,35.3889537,-97.5110041
4949,Southwest 20th Street,73128,35.4459232,-97.6065310
8800,South Drexel Avenue,73159,35.3789672,-97.5687260
3131,Southwest 89th Street,73159,35.3787662,-97.5719811
4901,South Shallow Brook Drive,73129,35.4154338,-97.4825757
200,East Interstate 240 Service Road,73149,35.3910668,-97.5087278
5200,East Interstate 240 Service Road,73135,35.3891765,-97.4265915
65,Southwest Grand Boulevard,73109,35.4316112,-97.5143487
4900,South Hattie Avenue,73129,35.4166824,-97.4867403
3816,South Robinson Avenue,73109,35.4244487,-97.5139622
7777,South May Avenue,73159,35.3879390,-97.5697500
100,Southeast 59th Street,73129,35.4056331,-97.5094755
5510,Southwest 5th Street,73128,35.4578108,-97.6136073
4400,Southwest 44th Street,73119,35.4240194,-97.5976031
6800,South I-35 Service Road,73149,35.3977746,-97.4939387
4301,West I-44 Service Road,73119,35.4221290,-97.5797049
701,South MacArthur Boulevard,73128,35.4588014,-97.6218121
2917,North I-35 Service Road,73111,35.4991717,-97.4644550
208,Creston Drive,73111,35.4981205,-97.4699705
3401,North Bryant Avenue,73121,35.5040282,-97.4597959
2903,Southwest 29th Street,73119,35.4353639,-97.5659416
2901,South May,73108-5625,35.4357872,-97.5659562
2929,Southwest 29th Street,73119-1711,35.4355091,-97.5671796
3115,Southwest 59th Street,73159,35.4070512,-97.5707361
2150,Southwest 59th Street,73119,35.4056488,-97.5506887
3852,South Prospect Avenue,73129,35.4260451,-97.4848671
1427,Southeast 30th Street,73129,35.4345560,-97.4868832
8217,South I-35 Service Road,73149,35.3850114,-97.4960429
1800,East Reno Avenue,73117,35.4635338,-97.4789842
405,Southeast 66th Street,73149,35.3992714,-97.5033794
105,South Martin Luther King Avenue,73117,35.4647684,-97.4771519
4805,Southeast 85th Terrace,73135,35.3806754,-97.4342582
4813,Southeast 85th Terrace,73135,35.3806566,-97.4340559
4821,Southeast 85th Terrace,73135,35.3806639,-97.4338623
4829,Southeast 85th Terrace,73135,35.3806806,-97.4336568
4837,Southeast 85th Terrace,73135,35.3806848,-97.4334697
4901,Southeast 85th Terrace,73135,35.3806118,-97.4329939
4804,Southeast 85th Terrace,73135,35.3802776,-97.4342467
4812,Southeast 85th Terrace,73135,35.3802897,-97.4340576
4820,Southeast 85th Terrace,73135,35.3802873,-97.4338561
4900,Southeast 85th Terrace,73135,35.3802884,-97.4330318
4908,Southeast 85th Terrace,73135,35.3802872,-97.4328496
4828,Southeast 85th Terrace,73135,35.3802964,-97.4336561
4836,Southeast 85th Terrace,73135,35.3802728,-97.4334556
4916,Southeast 85th Terrace,73135,35.3802629,-97.4326820
4917,Southeast 86th Terrace,73135,35.3799891,-97.4326733
4909,Southeast 86th Terrace,73135,35.3799884,-97.4328507
4901,Southeast 86th Terrace,73135,35.3799859,-97.4330336
4837,Southeast 86th Terrace,73135,35.3800048,-97.4334564
4829,Southeast 86th Terrace,73135,35.3799912,-97.4336510
4821,Southeast 86th Terrace,73135,35.3799926,-97.4338549
4813,Southeast 86th Terrace,73135,35.3799823,-97.4340490
4805,Southeast 86th Terrace,73135,35.3799903,-97.4342528
4804,Southeast 86th Terrace,73135,35.3796130,-97.4342513
4812,Southeast 86th Terrace,73135,35.3796214,-97.4340538
4820,Southeast 86th Terrace,73135,35.3796284,-97.4338444
4828,Southeast 86th Terrace,73135,35.3796210,-97.4336532
4836,Southeast 86th Terrace,73135,35.3796162,-97.4334590
4900,Southeast 86th Terrace,73135,35.3796188,-97.4330013
4916,Southeast 86th Terrace,73135,35.3796149,-97.4327633
4925,Southeast 87th Terrace,73135,35.3793163,-97.4325224
4917,Southeast 87th Terrace,73135,35.3793110,-97.4326977
4909,Southeast 87th Terrace,73135,35.3792952,-97.4328626
4901,Southeast 87th Terrace,73135,35.3793052,-97.4330327
4837,Southeast 87th Terrace,73135,35.3793029,-97.4334459
4829,Southeast 87th Terrace,73135,35.3793132,-97.4336507
4821,Southeast 87th Terrace,73135,35.3793093,-97.4338449
4813,Southeast 87th Terrace,73135,35.3793156,-97.4340501
4805,Southeast 87th Terrace,73135,35.3793206,-97.4342468
4804,Southeast 87th Terrace,73135,35.3789079,-97.4342552
4812,Southeast 87th Terrace,73135,35.3789344,-97.4340533
4820,Southeast 87th Terrace,73135,35.3789280,-97.4338494
4828,Southeast 87th Terrace,73135,35.3789517,-97.4336493
4836,Southeast 87th Terrace,73135,35.3789338,-97.4334616
4801,Southeast 89th Terrace,73135,35.3779657,-97.4342453
4805,Southeast 89th Terrace,73135,35.3779629,-97.4341156
4809,Southeast 89th Terrace,73135,35.3779805,-97.4339982
4813,Southeast 89th Terrace,73135,35.3779812,-97.4338970
4817,Southeast 89th Terrace,73135,35.3779820,-97.4337978
4821,Southeast 89th Terrace,73135,35.3779702,-97.4336978
4825,Southeast 89th Terrace,73135,35.3779709,-97.4335950
4829,Southeast 89th Terrace,73135,35.3779709,-97.4334958
4901,Southeast 89th Terrace,73135,35.3779713,-97.4330480
4905,Southeast 89th Terrace,73135,35.3779590,-97.4329382
4909,Southeast 89th Terrace,73135,35.3779612,-97.4328218
4833,Southeast 89th Terrace,73135,35.3779477,-97.4333888
4917,Southeast 89th Terrace,73135,35.3779523,-97.4326962
4921,Southeast 89th Terrace,73135,35.3779561,-97.4325367
4804,Southeast 89th Terrace,73135,35.3775536,-97.4342687
4812,Southeast 89th Terrace,73135,35.3775713,-97.4341098
4820,Southeast 89th Terrace,73135,35.3775705,-97.4339416
4824,Southeast 89th Terrace,73135,35.3775703,-97.4337737
4828,Southeast 89th Terrace,73135,35.3775712,-97.4336067
4832,Southeast 89th Terrace,73135,35.3775605,-97.4334387
4900,Southeast 89th Terrace,73135,35.3775740,-97.4330105
4908,Southeast 89th Terrace,73135,35.3775585,-97.4328329
4916,Southeast 89th Terrace,73135,35.3775638,-97.4326662
4920,Southeast 89th Terrace,73135,35.3775594,-97.4325019
4900,Southeast 88th Terrace,73135,35.3782498,-97.4330291
4908,Southeast 88th Terrace,73135,35.3782634,-97.4328540
4916,Southeast 88th Terrace,73135,35.3782525,-97.4326853
4920,Southeast 88th Terrace,73135,35.3782483,-97.4325158
4901,Southeast 88th Terrace,73135,35.3786282,-97.4330278
4900,Southeast 87th Terrace,73135,35.3789512,-97.4330320
4908,Southeast 87th Terrace,73135,35.3789329,-97.4328582
4916,Southeast 87th Terrace,73135,35.3789304,-97.4326899
4924,Southeast 87th Terrace,73135,35.3789236,-97.4325293
4909,Southeast 88th Terrace,73135,35.3786270,-97.4328569
4917,Southeast 88th Terrace,73135,35.3786322,-97.4326899
4921,Southeast 88th Terrace,73135,35.3786224,-97.4325214
5512,Southeast 84th Street,73135,35.3807351,-97.4239643
8504,Bigwood Drive,73135,35.3805563,-97.4239912
8508,Bigwood Drive,73135,35.3803875,-97.4239911
8512,Bigwood Drive,73135,35.3802130,-97.4239040
8516,Bigwood Drive,73135,35.3799656,-97.4240099
8520,Bigwood Drive,73135,35.3799193,-97.4242570
8517,Bigwood Drive,73135,35.3799915,-97.4245131
8513,Bigwood Drive,73135,35.3802228,-97.4245772
8509,Bigwood Drive,73135,35.3803907,-97.4245265
8505,Bigwood Drive,73135,35.3805596,-97.4245081
8501,Bigwood Drive,73135,35.3807330,-97.4245043
8500,Timberwood Lane,73135,35.3807325,-97.4249147
5416,Southeast 84th Street,73135,35.3807213,-97.4253957
5412,Southeast 84th Street,73135,35.3807091,-97.4256073
5408,Southeast 84th Street,73135,35.3807132,-97.4258182
5404,Southeast 84th Street,73135,35.3807079,-97.4260151
5400,Southeast 84th Street,73135,35.3807145,-97.4262209
5316,Southeast 84th Street,73135,35.3807149,-97.4264193
5312,Southeast 84th Street,73135,35.3807164,-97.4266124
5308,Southeast 84th Street,73135,35.3807153,-97.4268199
5304,Southeast 84th Street,73135,35.3807253,-97.4270317
5300,Southeast 84th Street,73135,35.3806898,-97.4272495
8429,Barkwood Lane,73135,35.3812259,-97.4312349
8425,Barkwood Lane,73135,35.3814117,-97.4312629
8421,Barkwood Lane,73135,35.3815747,-97.4312365
8417,Barkwood Lane,73135,35.3817377,-97.4312398
8413,Barkwood Lane,73135,35.3819033,-97.4312360
8409,Barkwood Lane,73135,35.3820674,-97.4312345
8405,Barkwood Lane,73135,35.3822412,-97.4312368
8401,Barkwood Lane,73135,35.3824200,-97.4312449
5001,Southeast 83rd Street,73135,35.3828267,-97.4312828
5005,Southeast 83rd Street,73135,35.3828524,-97.4310593
5009,Southeast 83rd Street,73135,35.3828039,-97.4307615
8400,Barkwood Lane,73135,35.3825491,-97.4306571
8404,Barkwood Lane,73135,35.3823816,-97.4307069
8408,Barkwood Lane,73135,35.3822225,-97.4307060
8412,Barkwood Lane,73135,35.3820540,-97.4307176
8416,Barkwood Lane,73135,35.3818925,-97.4307024
8420,Barkwood Lane,73135,35.3817230,-97.4307032
8424,Barkwood Lane,73135,35.3815602,-97.4307175
8428,Barkwood Lane,73135,35.3813949,-97.4307045
8432,Barkwood Lane,73135,35.3812205,-97.4307040
8609,Scirocco Circle,73135,35.3794762,-97.4320196
8613,Scirocco Circle,73135,35.3792584,-97.4321240
8701,Scirocco Circle,73135,35.3790678,-97.4321695
8705,Scirocco Circle,73135,35.3788937,-97.4321323
8709,Scirocco Circle,73135,35.3786723,-97.4321346
8801,Scirocco Circle,73135,35.3784537,-97.4321378
8805,Scirocco Circle,73135,35.3782313,-97.4321309
8901,Scirocco Circle,73135,35.3780144,-97.4321459
8909,Scirocco Circle,73135,35.3777868,-97.4321373
8913,Scirocco Circle,73135,35.3776005,-97.4318431
8920,Scirocco Circle,73135,35.3775843,-97.4316334
8916,Scirocco Circle,73135,35.3776124,-97.4313652
8912,Scirocco Circle,73135,35.3777731,-97.4311901
8908,Scirocco Circle,73135,35.3780128,-97.4311989
8904,Scirocco Circle,73135,35.3781422,-97.4314094
8900,Scirocco Circle,73135,35.3781673,-97.4316766
8800,Scirocco Circle,73135,35.3784117,-97.4316180
8712,Scirocco Circle,73135,35.3785758,-97.4316227
8708,Scirocco Circle,73135,35.3787417,-97.4316348
8704,Scirocco Circle,73135,35.3789008,-97.4316093
8700,Scirocco Circle,73135,35.3790691,-97.4316156
8608,Scirocco Circle,73135,35.3792198,-97.4315725
4700,Southeast 84th Street,73135,35.3800646,-97.4352901
4600,Southeast 84th Street,73135,35.3800990,-97.4359176
8401,Promise Lane,73135,35.3817504,-97.4351528
8400,Promise Lane,73135,35.3815818,-97.4342589
8301,Promise Lane,73135,35.3824219,-97.4348792
5101,Southeast 90th Street,73165,35.3769441,-97.4304863
5105,Southeast 90th Street,73165,35.3769737,-97.4303217
5109,Southeast 90th Street,73165,35.3769468,-97.4301314
5113,Southeast 90th Street,73165,35.3769511,-97.4299683
5117,Southeast 90th Street,73165,35.3769797,-97.4297937
5121,Southeast 90th Street,73165,35.3769810,-97.4295997
9100,Snowberry Drive,73165,35.3768796,-97.4294318
9104,Snowberry Drive,73165,35.3767220,-97.4293914
9108,Snowberry Drive,73165,35.3765625,-97.4294419
9112,Snowberry Drive,73165,35.3764243,-97.4294367
9120,Snowberry Drive,73165,35.3761493,-97.4294536
9208,Snowberry Drive,73165,35.3755993,-97.4294620
9216,Snowberry Drive,73165,35.3753272,-97.4294572
9224,Snowberry Drive,73165,35.3750512,-97.4294704
9232,Snowberry Drive,73165,35.3747811,-97.4294608
9228,Checkerbloom Drive,73165,35.3748036,-97.4304990
9216,Checkerbloom Drive,73165,35.3752166,-97.4304990
9212,Checkerbloom Drive,73165,35.3753448,-97.4304990
9208,Checkerbloom Drive,73165,35.3754867,-97.4304918
9204,Checkerbloom Drive,73165,35.3756208,-97.4304990
9200,Checkerbloom Drive,73165,35.3757615,-97.4304780
9112,Checkerbloom Drive,73165,35.3761747,-97.4304990
9104,Checkerbloom Drive,73165,35.3764517,-97.4304798
9116,Snowberry Drive,73165,35.3762884,-97.4294449
9204,Snowberry Drive,73165,35.3757365,-97.4294417
9228,Snowberry Drive,73165,35.3749102,-97.4294558
9236,Snowberry Drive,73165,35.3746351,-97.4294685
9232,Checkerbloom Drive,73165,35.3746627,-97.4305135
9224,Checkerbloom Drive,73165,35.3749349,-97.4304937
9108,Checkerbloom Drive,73165,35.3763058,-97.4304820
9100,Checkerbloom Drive,73165,35.3765846,-97.4304680
9101,Snowberry Drive,73165,35.3765835,-97.4299374
9109,Snowberry Drive,73165,35.3763036,-97.4299266
9117,Snowberry Drive,73165,35.3760316,-97.4299111
9225,Snowberry Drive,73165,35.3749367,-97.4299295
9233,Snowberry Drive,73165,35.3746601,-97.4299468
9233,Checkerbloom Drive,73165,35.3746693,-97.4309595
9225,Checkerbloom Drive,73165,35.3749433,-97.4309587
9217,Checkerbloom Drive,73165,35.3752166,-97.4309683
9209,Checkerbloom Drive,73165,35.3754851,-97.4309540
9117,Checkerbloom Drive,73165,35.3760402,-97.4309525
9101,Checkerbloom Drive,73165,35.3765876,-97.4309256
9105,Checkerbloom Drive,73165,35.3764536,-97.4309471
9113,Checkerbloom Drive,73165,35.3761763,-97.4309549
9121,Checkerbloom Drive,73165,35.3759078,-97.4309444
9205,Checkerbloom Drive,73165,35.3756309,-97.4309571
9213,Checkerbloom Drive,73165,35.3753567,-97.4309454
9221,Checkerbloom Drive,73165,35.3750756,-97.4309625
9229,Checkerbloom Drive,73165,35.3748048,-97.4309603
9237,Checkerbloom Drive,73165,35.3745246,-97.4309630
9305,Checkerbloom Drive,73165,35.3740544,-97.4309770
9321,Checkerbloom Drive,73165,35.3735070,-97.4309910
9405,Checkerbloom Drive,73165,35.3732337,-97.4309875
9417,Checkerbloom Drive,73165,35.3727942,-97.4310906
9221,Snowberry Drive,73165,35.3750723,-97.4299509
9213,Snowberry Drive,73165,35.3753507,-97.4299276
9205,Snowberry Drive,73165,35.3756282,-97.4299237
9201,Snowberry Drive,73165,35.3757669,-97.4299305
9121,Snowberry Drive,73165,35.3758948,-97.4299412
9105,Snowberry Drive,73165,35.3764480,-97.4299244
9124,Snowberry Drive,73165,35.3760097,-97.4294474
9200,Snowberry Drive,73165,35.3758782,-97.4294709
9209,Snowberry Drive,73165,35.3754845,-97.4299189
9212,Snowberry Drive,73165,35.3754608,-97.4294697
9217,Snowberry Drive,73165,35.3752140,-97.4299340
9220,Snowberry Drive,73165,35.3751889,-97.4294507
9229,Snowberry Drive,73165,35.3748003,-97.4299359
9237,Snowberry Drive,73165,35.3745272,-97.4299276
9240,Snowberry Drive,73165,35.3745012,-97.4294515
9244,Snowberry Drive,73165,35.3743447,-97.4293738
9248,Snowberry Drive,73165,35.3741994,-97.4294281
5120,Southeast 92nd Street,73165,35.3740940,-97.4296552
5116,Southeast 92nd Street,73165,35.3741388,-97.4298424
5112,Southeast 92nd Street,73165,35.3741575,-97.4300076
5104,Southeast 92nd Street,73165,35.3741570,-97.4303608
5108,Southeast 92nd Street,73165,35.3741562,-97.4301774
5100,Southeast 92nd Street,73165,35.3741523,-97.4305424
9236,Checkerbloom Drive,73165,35.3745249,-97.4304993
9220,Checkerbloom Drive,73165,35.3750738,-97.4305162
9120,Checkerbloom Drive,73165,35.3759041,-97.4305021
9116,Checkerbloom Drive,73165,35.3760410,-97.4304913
9109,Checkerbloom Drive,73165,35.3763131,-97.4309492
9201,Checkerbloom Drive,73165,35.3757631,-97.4309313
9301,Checkerbloom Drive,73165,35.3741968,-97.4309645
9309,Checkerbloom Drive,73165,35.3739194,-97.4309756
9317,Checkerbloom Drive,73165,35.3736412,-97.4309796
9401,Checkerbloom Drive,73165,35.3733662,-97.4309944
9308,Checkerbloom Drive,73165,35.3738932,-97.4305116
9312,Checkerbloom Drive,73165,35.3737569,-97.4305265
9313,Checkerbloom Drive,73165,35.3737827,-97.4309699
9316,Checkerbloom Drive,73165,35.3736199,-97.4305027
9320,Checkerbloom Drive,73165,35.3734810,-97.4305082
9404,Checkerbloom Drive,73165,35.3732106,-97.4305084
9400,Checkerbloom Drive,73165,35.3733458,-97.4305198
9412,Checkerbloom Drive,73165,35.3729384,-97.4304652
9408,Checkerbloom Drive,73165,35.3730736,-97.4305243
9409,Checkerbloom Drive,73165,35.3730952,-97.4309939
9413,Checkerbloom Drive,73165,35.3729635,-97.4310421
9421,Checkerbloom Drive,73165,35.3726508,-97.4310283
9424,Checkerbloom Drive,73165,35.3725873,-97.4307984
9420,Checkerbloom Drive,73165,35.3726234,-97.4305631
9416,Checkerbloom Drive,73165,35.3727703,-97.4304324
9113,Snowberry Drive,73165,35.3761718,-97.4299092
3235,Northwest 50th Street,73112,35.5231414,-97.5739669
3301,Northwest 50th Street,73112,35.5228144,-97.5750007
3718,Northwest 23rd Street,74743,35.4928722,-97.5844325
2850,Northwest 23rd Street,73107,35.4928485,-97.5649298
501,East Reno Avenue,73102-5014,35.4645620,-97.5032129
1429,Southwest 74th Street,73159,35.3921293,-97.5416684
3701,South Lake Hefner Drive,73120,35.5496515,-97.5813157
6101,North Santa Fe Avenue,73118,35.5344392,-97.5128531
325,West Sheridan Avenue,73012,35.4669994,-97.5182713
410,Southeast 64th Street,73149,35.3999064,-97.5025153
16000,North Western Avenue,73013,35.6342618,-97.5296909
2600,Northeast 63rd Street,73111,35.5359435,-97.4680947
10513,Northeast 43rd Street,73084,35.5161836,-97.3452261
3509,East Memorial Road,73013,35.6095205,-97.4532287
5708,North Tulsa Avenue,73112,35.5274002,-97.5915125
1141,West Sheridan Avenue,73106,35.4668895,-97.5322349
2000,Remington Place,73111,35.5197391,-97.4753618
10087,Northwest 23rd Street,73099,35.4941309,-97.6953128
10087,Northwest 23rd Street,73099,35.4936395,-97.6952993
13331,North MacArthur Boulevard,73142,35.6055633,-97.6225011
13331,North MacArthur Boulevard,73142,35.6062662,-97.6249105
12520,Northeast 36th Street,73084,35.5065507,-97.3085502
3820,East Interstate 240 Service Road,73135,35.3880898,-97.4453065
5300,Southeast 89th Street,73135,35.3763915,-97.4271735
5420,Southeast 89th Street,73135,35.3760043,-97.4264089
5000,West Memorial Road,73142,35.6054086,-97.6075255
5700,Southeast 74th Street,73135,35.3915694,-97.4214590
7700,Maehs Circle,73162,35.5757311,-97.6509243
7704,Maehs Circle,73162,35.5755810,-97.6511346
7705,Northwest 102nd Street,73162,35.5753304,-97.6509035
7701,Northwest 102nd Street,73162,35.5755212,-97.6506562
7709,Northwest 102nd Street,73162,35.5752086,-97.6510533
7713,Northwest 102nd Street,73162,35.5750623,-97.6512216
7708,Maehs Circle,73162,35.5754382,-97.6512861
7712,Maehs Circle,73162,35.5753154,-97.6514827
7717,Northwest 102nd Street,73162,35.5748989,-97.6514009
7721,Northwest 102nd Street,73162,35.5747564,-97.6516063
7716,Maehs Circle,73162,35.5751429,-97.6516535
7720,Maehs Circle,73162,35.5750028,-97.6518484
7800,Maehs Circle,73162,35.5748846,-97.6521080
7804,Maehs Circle,73162,35.5748621,-97.6523665
7725,Northwest 102nd Street,73162,35.5745795,-97.6518467
7809,Northwest 102nd Street,73162,35.5745335,-97.6521058
7813,Northwest 102nd Street,73162,35.5745323,-97.6523418
7817,Northwest 102nd Street,73162,35.5745383,-97.6526114
7821,Northwest 102nd Street,73162,35.5745371,-97.6528635
7825,Northwest 102nd Street,73162,35.5745523,-97.6530980
7829,Northwest 102nd Street,73162,35.5745416,-97.6533745
7820,Maehs Circle,73162,35.5748460,-97.6533991
7816,Maehs Circle,73162,35.5748442,-97.6531264
7812,Maehs Circle,73162,35.5748513,-97.6528959
7808,Maehs Circle,73162,35.5748467,-97.6526339
11101,North Rockwell Avenue,73162,35.5824618,-97.6400154
11000,North Rockwell,73132,35.5812264,-97.6378390
6801,West Hefner Road,73162,35.5807472,-97.6355693
7011,West Hefner Road,73162,35.5811206,-97.6367800
10700,North Rockwell Avenue,73162,35.5783401,-97.6378516
7901,Northwest 102nd Street,73162,35.5745420,-97.6538302
7905,Northwest 102nd Street,73162,35.5745396,-97.6540990
7909,Northwest 102nd Street,73162,35.5745418,-97.6543583
7913,Northwest 102nd Street,73162,35.5745276,-97.6546398
7917,Northwest 102nd Street,73162,35.5745493,-97.6548892
7921,Northwest 102nd Street,73162,35.5745411,-97.6551475
7925,Northwest 102nd Street,73162,35.5745396,-97.6553951
7929,Northwest 102nd Street,73162,35.5745482,-97.6556667
7933,Northwest 102nd Street,73162,35.5745376,-97.6558914
7928,Maehs Lane,73162,35.5749419,-97.6553675
7920,Maehs Lane,73162,35.5749350,-97.6547125
7912,Maehs Circle,73162,35.5750918,-97.6545140
7908,Maehs Circle,73162,35.5749318,-97.6543343
7904,Maehs Circle,73162,35.5748589,-97.6540827
7900,Maehs Circle,73162,35.5748451,-97.6538374
7817,Maehs Circle,73162,35.5752794,-97.6533732
7813,Maehs Circle,73162,35.5752841,-97.6531413
7809,Maehs Circle,73162,35.5752826,-97.6529042
7805,Maehs Circle,73162,35.5752729,-97.6526758
7721,Maehs Circle,73162,35.5754107,-97.6521282
7721,Maehs Circle,73162,35.5755500,-97.6519437
7713,Maehs Circle,73162,35.5756908,-97.6517800
7709,Maehs Circle,73162,35.5758216,-97.6516075
7604,Maehs Circle,73162,35.5766513,-97.6503402
7608,Maehs Circle,73162,35.5764036,-97.6502819
7612,Maehs Circle,73162,35.5761741,-97.6504087
7616,Maehs Circle,73162,35.5760029,-97.6506142
7620,Maehs Terrace,73162,35.5766639,-97.6509700
7624,Maehs Terrace,73162,35.5765680,-97.6511961
7700,Maehs Terrace,73162,35.5762827,-97.6515471
7704,Maehs Terrace,73162,35.5761349,-97.6517044
7708,Maehs Terrace,73162,35.5759991,-97.6518574
7712,Maehs Terrace,73162,35.5758700,-97.6520254
7716,Maehs Terrace,73162,35.5757431,-97.6521971
7720,Maehs Terrace,73162,35.5756352,-97.6524275
7724,Maehs Terrace,73162,35.5755828,-97.6526844
7800,Maehs Terrace,73162,35.5755883,-97.6529140
7804,Maehs Terrace,73162,35.5755846,-97.6531484
7808,Maehs Terrace,73162,35.5756010,-97.6533738
7900,Maehs Terrace,73162,35.5755978,-97.6536012
7904,Maehs Terrace,73162,35.5755905,-97.6538440
7908,Maehs Terrace,73162,35.5755749,-97.6541056
7909,Maehs Circle,73162,35.5752867,-97.6540663
7901,Maehs Circle,73162,35.5752783,-97.6538460
7821,Maehs Circle,73162,35.5752799,-97.6536097
7628,Maehs Terrace,73162,35.5764162,-97.6513681
8001,Northwest 122nd Street,73142,35.5950424,-97.6567541
7924,Maehs Lane,73162,35.5747905,-97.6551039
7929,Maehs Lane,73162,35.5751681,-97.6553266
7925,Maehs Lane,73162,35.5753444,-97.6550600
7921,Maehs Lane,73162,35.5754537,-97.6548332
7641,Maehs Terrace,73162,35.5767516,-97.6517795
7637,Maehs Terrace,73162,35.5770165,-97.6518214
7633,Maehs Terrace,73162,35.5771646,-97.6516535
7629,Maehs Terrace,73162,35.5771632,-97.6513446
7625,Maehs Terrace,73162,35.5771003,-97.6511065
7621,Maehs Terrace,73162,35.5771064,-97.6508721
7617,Maehs Drive,73162,35.5770816,-97.6506298
7613,Maehs Drive,73162,35.5771067,-97.6503778
7609,Maehs Drive,73162,35.5771560,-97.6501351
7605,Maehs Drive,73162,35.5771762,-97.6499065
7601,Maehs Drive,73162,35.5771326,-97.6496618
7600,Maehs Drive,73162,35.5768456,-97.6495910
7604,Maehs Drive,73162,35.5766853,-97.6497208
7608,Maehs Drive,73162,35.5766506,-97.6500827
7613,Northwest 102nd Street,73162,35.5766047,-97.6491089
7617,Northwest 102nd Street,73162,35.5765209,-97.6494613
7621,Northwest 102nd Street,73162,35.5763844,-97.6496303
7625,Northwest 102nd Street,73162,35.5762128,-97.6497990
7629,Northwest 102nd Street,73162,35.5760668,-97.6499983
7633,Northwest 102nd Street,73162,35.5759354,-97.6501527
7637,Northwest 102nd Street,73162,35.5757771,-97.6503419
7636,Northwest 102nd Street,73162,35.5754752,-97.6499690
7632,Northwest 102nd Street,73162,35.5756059,-97.6497973
7628,Northwest 102nd Street,73162,35.5757582,-97.6496085
7624,Northwest 102nd Street,73162,35.5758963,-97.6494392
7620,Northwest 102nd Street,73162,35.5760339,-97.6492571
7616,Northwest 102nd Street,73162,35.5761883,-97.6490166
7614,Northwest 102nd Street,73162,35.5762765,-97.6488157
7612,Northwest 102nd Street,73162,35.5762796,-97.6485802
7608,Northwest 102nd Street,73162,35.5762567,-97.6483202
7604,Northwest 102nd Street,73162,35.5761104,-97.6481456
7600,Northwest 102nd Street,73162,35.5759430,-97.6479800
7601,Doris Place,73162,35.5757281,-97.6482703
7605,Doris Place,73162,35.5759259,-97.6484411
7609,Doris Place,73162,35.5759732,-97.6487479
7613,Doris Place,73162,35.5757894,-97.6489533
7617,Doris Place,73162,35.5755202,-97.6490098
7621,Doris Place,73162,35.5753850,-97.6493375
7625,Doris Place,73162,35.5752699,-97.6495857
7632,Doris Place,73162,35.5749701,-97.6500767
7628,Doris Place,73162,35.5748805,-97.6498246
7624,Doris Place,73162,35.5748222,-97.6495323
7620,Doris Place,73162,35.5749122,-97.6492594
7616,Doris Place,73162,35.5750428,-97.6490638
7612,Doris Place,73162,35.5751448,-97.6488468
7608,Doris Place,73162,35.5752269,-97.6486080
7604,Doris Place,73162,35.5753177,-97.6483720
7600,Doris Place,73162,35.5753402,-97.6481008
10208,West Northway Terrace,73162,35.5743082,-97.6513343
7720,Northwest 102nd Street,73162,35.5744816,-97.6511711
7716,Northwest 102nd Street,73162,35.5746334,-97.6509963
7712,Northwest 102nd Street,73162,35.5747615,-97.6508252
7708,Northwest 102nd Street,73162,35.5748865,-97.6506304
7704,Northwest 102nd Street,73162,35.5750450,-97.6504843
7924,Northwest 102nd Street,73162,35.5740809,-97.6553488
7920,Northwest 102nd Street,73162,35.5740977,-97.6550823
7916,Northwest 102nd Street,73162,35.5741049,-97.6548317
7912,Northwest 102nd Street,73162,35.5740948,-97.6545801
7908,Northwest 102nd Street,73162,35.5740955,-97.6543267
7904,Northwest 102nd Street,73162,35.5740862,-97.6540741
7900,Northwest 102nd Street,73162,35.5740923,-97.6538217
7832,Northwest 102nd Street,73162,35.5740939,-97.6535693
7828,Northwest 102nd Street,73162,35.5741000,-97.6533187
7824,Northwest 102nd Street,73162,35.5740839,-97.6530676
7820,Northwest 102nd Street,73162,35.5740888,-97.6528159
7816,Northwest 102nd Street,73162,35.5740977,-97.6525525
7812,Northwest 102nd Street,73162,35.5740729,-97.6523075
7808,Northwest 102nd Street,73162,35.5740853,-97.6520342
7804,Northwest 102nd Street,73162,35.5741126,-97.6517645
14101,North Kentucky Avenue,73134,35.6145012,-97.5468239
6800,North Bryant Avenue,73121,35.5406384,-97.4579316
2912,Northwest 122nd Street,73120,35.5943244,-97.5682537
12520,Northeast 36th Street,73084,35.5063187,-97.3076960
9615,North Rockwell Avenue,73162,35.5681086,-97.6389779
12310,South Meridian Avenue,73173,35.3453462,-97.5981945
539,Southeast 25th Street,73129,35.4410316,-97.5015537
1425,Northwest 141st Street,73013,35.6138670,-97.5388429
1102,Northwest 115th Street,73114,35.5864014,-97.5341896
11130,Quail Creek Road,73120,35.5831108,-97.5729648
3135,Northwest 73rd Street,73116,35.5441774,-97.5710723
10810,Northeast 48th Street,73084,35.5197247,-97.3396472
1910,Northeast 66th Street,73111,35.5384496,-97.4778700
1114,Northeast 43rd Street,73111,35.5168243,-97.4924475
2808,North Prospect Avenue,73111,35.4981404,-97.4844194
1824,Northeast 16th Street,73117,35.4853487,-97.4784155
2300,North Everest Avenue,73111,35.4923346,-97.4911549
1101,Northeast 13th Street,73117,35.4828969,-97.4929098
3301,Southwest 104th Street,73159,35.3655959,-97.5767365
9600,South I-44 Service Road,73159,35.3717040,-97.5760858
3700,Southwest 119th Street,73170,35.3479598,-97.5839094
100,Northeast 4th Street,73104,35.4715203,-97.5097619
200,North Walker Avenue,73102,35.4689515,-97.5205478
701,Couch Drive,73102,35.4698337,-97.5251514
627,Couch Drive,73102,35.4698160,-97.5238964
3005,West Reno Avenue,73107,35.4652477,-97.5673305
618,North Rockwell Avenue,73127,35.4736524,-97.6355119
618,North Rockwell Avenue,73127,35.4737023,-97.6361700
4,North Willowood Drive,73099,35.4662044,-97.7291379
2719,South Meridian Avenue,73108,35.4379574,-97.6013618
2409,South Tulsa Avenue,73108,35.4416321,-97.5933806
3605,South Shawnee Avenue,73119,35.4283371,-97.5910241
2800,South Woodward Avenue,73108,35.4403029,-97.5761059
2817,Southwest 34th Street,73119,35.4306297,-97.5644275
5333,South Independence Avenue,73119,35.4113428,-97.5759589
9117,South Walker Avenue,73139,35.3760826,-97.5219091
2102,South Everest Avenue,73129,35.4460517,-97.4920341
120,Southeast 89th Street,73160,35.3746424,-97.5098349
9600,South Shartel Avenue,73139,35.3722701,-97.5241433
1203,Southwest 84th Street,73139,35.3831169,-97.5391134
11100,South Pennsylvania Avenue,73170,35.3570568,-97.5456151
519,Northwest 23rd Street,73103,35.4935678,-97.5219253
11200,North Portland Avenue,73120,35.5840160,-97.5838186
3100,Southwest 89th Street,73159,35.3754468,-97.5710513
14101,Parkway Commons Drive,73134,35.6145065,-97.5831910
2831,Northwest 59th Street,73112,35.5320354,-97.5647291
3838,Springlake Drive,73111,35.5092669,-97.4918669
3631,North Kelley Avenue,73111,35.5074244,-97.4947011
2600,Northwest 57th Street,73112,35.5295455,-97.5589974
7410,South MacArthur Boulevard,73169,35.3912216,-97.6167565
10401,West Reno Avenue,73127,35.4670786,-97.7028785
4416,Southeast 44th Street,73115,35.4202973,-97.4395855
4324,Southeast 44th Street,73115,35.4204464,-97.4400416
4428,Southeast 44th Street,73135,35.4203594,-97.4389862
1116,Southeast 29th Street,73129,35.4351170,-97.4915131
608,Stanton L Young Boulevard,73104,35.4795733,-97.5016976
5205,Southeast 86th Street,73135,35.3796334,-97.4292942
5001,Southeast 86th Street,73135,35.3795591,-97.4307231
5005,Southeast 86th Street,73135,35.3795928,-97.4305342
5009,Southeast 86th Street,73135,35.3796229,-97.4303160
5101,Southeast 86th Street,73135,35.3796257,-97.4301140
5105,Southeast 86th Street,73135,35.3796254,-97.4299130
5109,Southeast 86th Street,73135,35.3796107,-97.4297100
5201,Southeast 86th Street,73135,35.3796224,-97.4295087
5209,Southeast 86th Street,73135,35.3796326,-97.4290811
5213,Southeast 86th Street,73135,35.3796108,-97.4288859
5217,Southeast 86th Street,73135,35.3795990,-97.4286810
5221,Southeast 86th Street,73135,35.3796280,-97.4284782
5225,Southeast 86th Street,73135,35.3796279,-97.4282680
5229,Southeast 86th Street,73135,35.3796267,-97.4280768
5233,Southeast 86th Street,73135,35.3796177,-97.4278200
10348,West Reno Avenue,73127,35.4637876,-97.7039825
5232,Southeast 88th Street,73135,35.3776465,-97.4277447
5228,Southeast 88th Street,73135,35.3776186,-97.4279841
5224,Southeast 88th Street,73135,35.3776054,-97.4281918
5220,Southeast 88th Street,73135,35.3776096,-97.4284072
5216,Southeast 88th Street,73135,35.3776105,-97.4286217
5212,Southeast 88th Street,73135,35.3775993,-97.4288361
5208,Southeast 88th Street,73135,35.3776213,-97.4290484
5204,Southeast 88th Street,73135,35.3776195,-97.4292626
5200,Southeast 88th Street,73135,35.3776178,-97.4295056
5104,Southeast 88th Street,73135,35.3776133,-97.4297045
5100,Southeast 88th Street,73135,35.3776129,-97.4299042
5004,Southeast 88th Street,73135,35.3776220,-97.4301062
5000,Southeast 88th Street,73135,35.3775768,-97.4303147
8909,Woodbend Drive,73135,35.3776001,-97.4305528
8901,Woodbend Drive,73135,35.3778077,-97.4307467
8805,Woodbend Drive,73135,35.3780329,-97.4307030
8801,Woodbend Drive,73135,35.3782101,-97.4306839
8717,Woodbend Drive,73135,35.3784197,-97.4307353
8713,Woodbend Drive,73135,35.3785647,-97.4307979
8709,Woodbend Drive,73135,35.3787268,-97.4308854
8705,Woodbend Drive,73135,35.3789073,-97.4309449
8701,Woodbend Drive,73135,35.3790788,-97.4310251
8609,Woodbend Drive,73135,35.3792476,-97.4311041
8605,Woodbend Drive,73135,35.3794220,-97.4312013
8601,Woodbend Drive,73135,35.3795270,-97.4314124
5001,Southeast 88th Street,73135,35.3780576,-97.4301891
5101,Southeast 88th Street,73135,35.3780629,-97.4299462
5105,Southeast 88th Street,73135,35.3780576,-97.4297310
5201,Southeast 88th Street,73135,35.3780614,-97.4295199
5205,Southeast 88th Street,73135,35.3780560,-97.4292774
5209,Southeast 88th Street,73135,35.3780882,-97.4290615
5213,Southeast 88th Street,73135,35.3780511,-97.4288488
5217,Southeast 88th Street,73135,35.3780838,-97.4286380
5221,Southeast 88th Street,73135,35.3780801,-97.4284272
5225,Southeast 88th Street,73135,35.3780620,-97.4282157
5229,Southeast 88th Street,73135,35.3780619,-97.4280108
5233,Southeast 88th Street,73135,35.3780470,-97.4277674
5232,Southeast 87th Street,73135,35.3784143,-97.4277839
5228,Southeast 87th Street,73135,35.3783837,-97.4280098
5224,Southeast 87th Street,73135,35.3784172,-97.4282178
5220,Southeast 87th Street,73135,35.3784000,-97.4284326
5216,Southeast 87th Street,73135,35.3783997,-97.4286374
5212,Southeast 87th Street,73135,35.3783830,-97.4288499
5208,Southeast 87th Street,73135,35.3783914,-97.4290600
5204,Southeast 87th Street,73135,35.3784006,-97.4292849
5200,Southeast 87th Street,73135,35.3784165,-97.4295154
5104,Southeast 87th Street,73135,35.3784093,-97.4297301
5100,Southeast 87th Street,73135,35.3784073,-97.4299486
5000,Southeast 87th Street,73135,35.3783880,-97.4301512
5233,Southeast 87th Street,73135,35.3788410,-97.4277872
5229,Southeast 87th Street,73135,35.3788547,-97.4280282
5225,Southeast 87th Street,73135,35.3788410,-97.4282367
5221,Southeast 87th Street,73135,35.3788392,-97.4284455
5217,Southeast 87th Street,73135,35.3788693,-97.4286529
5213,Southeast 87th Street,73135,35.3788358,-97.4288612
5209,Southeast 87th Street,73135,35.3788472,-97.4290665
5205,Southeast 87th Street,73135,35.3788355,-97.4292793
5201,Southeast 87th Street,73135,35.3788467,-97.4295061
5105,Southeast 87th Street,73135,35.3788474,-97.4297113
5101,Southeast 87th Street,73135,35.3788471,-97.4299236
5005,Southeast 87th Street,73135,35.3788332,-97.4301233
5001,Southeast 87th Street,73135,35.3787903,-97.4303840
5232,Southeast 86th Street,73135,35.3792022,-97.4278021
5228,Southeast 86th Street,73135,35.3791842,-97.4280296
5224,Southeast 86th Street,73135,35.3792047,-97.4282403
5220,Southeast 86th Street,73135,35.3791747,-97.4284490
5216,Southeast 86th Street,73135,35.3791944,-97.4286533
5212,Southeast 86th Street,73135,35.3791608,-97.4288595
5208,Southeast 86th Street,73135,35.3791677,-97.4290692
5204,Southeast 86th Street,73135,35.3791640,-97.4292766
5200,Southeast 86th Street,73135,35.3791967,-97.4295168
5108,Southeast 86th Street,73135,35.3791873,-97.4297090
5104,Southeast 86th Street,73135,35.3791849,-97.4299109
5100,Southeast 86th Street,73135,35.3791826,-97.4301141
5004,Southeast 86th Street,73135,35.3791836,-97.4303058
5000,Southeast 86th Street,73135,35.3791338,-97.4305355
14500,North Western Avenue,73013,35.6173468,-97.5304468
3509,Southeast 95th Street,73160,35.3725168,-97.4520191
9800,North Broadway Extension,73114,35.5700968,-97.5118198
4511,North Pennsylvania Avenue,73112,35.5174656,-97.5485839
4513,North Pennsylvania Avenue,73112,35.5176469,-97.5486369
4603,North Pennsylvania Avenue,73112,35.5178437,-97.5487983
4607,North Pennsylvania Avenue,73112,35.5180456,-97.5486415
4517,North Pennsylvania Avenue,73112,35.5184415,-97.5486439
4621,North Pennsylvania Avenue,73112,35.5184731,-97.5481088
4615,North Pennsylvania Avenue,73112,35.5182740,-97.5481092
4609,North Pennsylvania Avenue,73112,35.5180770,-97.5481090
4519,North Pennsylvania Avenue,73112,35.5178784,-97.5481101
4517,North Pennsylvania Avenue,73112,35.5176588,-97.5481099
2201,Northwest 45th Street,73112,35.5176449,-97.5497482
2205,Northwest 45th Street,73112,35.5176362,-97.5500124
2209,Northwest 45th Street,73112,35.5175160,-97.5502779
2213,Northwest 45th Street,73112,35.5174407,-97.5505409
2217,Northwest 45th Street,73112,35.5174386,-97.5507970
2221,Northwest 45th Street,73112,35.5174789,-97.5510504
2225,Northwest 45th Street,73112,35.5174375,-97.5513132
2229,Northwest 45th Street,73112,35.5174156,-97.5515815
2233,Northwest 45th Street,73112,35.5174484,-97.5518417
2232,Northwest 45th Street,73112,35.5169997,-97.5518390
2228,Northwest 45th Street,73112,35.5170260,-97.5515774
2224,Northwest 45th Street,73112,35.5169768,-97.5513160
2220,Northwest 45th Street,73112,35.5169725,-97.5510545
2216,Northwest 45th Street,73112,35.5169660,-97.5507903
2212,Northwest 45th Street,73112,35.5169616,-97.5505194
2208,Northwest 45th Street,73112,35.5170566,-97.5502524
2204,Northwest 45th Street,73112,35.5171548,-97.5499507
2202,Northwest 45th Street,73112,35.5172009,-97.5496514
2200,Northwest 45th Street,73112,35.5172188,-97.5494801
4605,North Pennsylvania Avenue,73112,35.5180488,-97.5483963
4600,North Barnes Avenue,73112,35.5175235,-97.5491902
4608,North Barnes Avenue,73112,35.5179374,-97.5491839
4606,North Barnes Avenue,73112,35.5178131,-97.5491861
4610,North Barnes Avenue,73112,35.5180458,-97.5491800
4614,North Barnes Avenue,73112,35.5182886,-97.5491404
4616,North Barnes Avenue,73112,35.5184659,-97.5493667
2201,Northwest 46th Street,73112,35.5184504,-97.5496668
2205,Northwest 46th Street,73112,35.5184394,-97.5499309
2209,Northwest 46th Street,73112,35.5184197,-97.5502165
2213,Northwest 46th Street,73112,35.5184087,-97.5504782
2217,Northwest 46th Street,73112,35.5183994,-97.5507481
2221,Northwest 46th Street,73112,35.5183382,-97.5510153
2225,Northwest 46th Street,73112,35.5183313,-97.5512873
2229,Northwest 46th Street,73112,35.5183652,-97.5515520
2233,Northwest 46th Street,73112,35.5183303,-97.5518101
9001,Broadway Extension,73114,35.5621547,-97.5151769
2232,Northwest 46th Street,73112,35.5178539,-97.5518444
2228,Northwest 46th Street,73112,35.5178569,-97.5515663
2224,Northwest 46th Street,73112,35.5178569,-97.5513049
2220,Northwest 46th Street,73112,35.5178576,-97.5510481
2216,Northwest 46th Street,73112,35.5178509,-97.5507839
2212,Northwest 46th Street,73112,35.5178478,-97.5505151
2208,Northwest 46th Street,73112,35.5179816,-97.5502730
2204,Northwest 46th Street,73112,35.5179907,-97.5499904
2200,Northwest 46th Street,73112,35.5179869,-97.5497391
4513,North Youngs Boulevard,73112,35.5169235,-97.5523796
4521,North Youngs Boulevard,73112,35.5173159,-97.5523440
2300,Northwest 45th Street,73112,35.5175993,-97.5522848
2306,Northwest 45th Street,73112,35.5176022,-97.5525454
2308,Northwest 45th Place,73112,35.5176051,-97.5528213
2316,Northwest 45th Place,73112,35.5175944,-97.5532797
2320,Northwest 45th Street,73112,35.5175945,-97.5535629
2324,Northwest 45th Street,73112,35.5175941,-97.5538148
2328,Northwest 45th Street,73112,35.5175687,-97.5540946
4600,North Billen Avenue,73112,35.5180110,-97.5541001
2325,Northwest 45th Street,73112,35.5180102,-97.5538173
2321,Northwest 45th Street,73112,35.5180187,-97.5535672
2317,Northwest 45th Street,73112,35.5180223,-97.5533130
2313,Northwest 45th Street,73112,35.5180248,-97.5530585
2309,Northwest 45th Street,73112,35.5180267,-97.5528083
2305,Northwest 45th Street,73112,35.5180271,-97.5525583
2301,Northwest 45th Street,73112,35.5180267,-97.5522897
2308,Northwest 45th Place,73112,35.5173643,-97.5528003
2312,Northwest 45th Place,73112,35.5171028,-97.5528118
2316,Northwest 45th Place,73112,35.5169884,-97.5531050
2320,Northwest 45th Place,73112,35.5168729,-97.5533904
2324,Northwest 45th Place,73112,35.5168066,-97.5537189
2328,Northwest 45th Place,73112,35.5167925,-97.5540661
4512,North Billen Avenue,73112,35.5172212,-97.5540993
2400,Northwest 45th Street,73112,35.5170553,-97.5544941
2401,Northwest 45th Street,73112,35.5173860,-97.5545359
4607,North Billen Avenue,73112,35.5175872,-97.5545288
2323,Northwest 45th Place,73112,35.5172259,-97.5537938
2319,Northwest 45th Place,73112,35.5172541,-97.5535431
2313,Northwest 45th Place,73112,35.5173139,-97.5532852
4617,North Billen Avenue,73112,35.5178986,-97.5544941
2044,Northwest 45th Street,73112,35.5172572,-97.5473351
2045,Northwest 45th Street,73112,35.5177159,-97.5473428
2040,Northwest 45th Street,73112,35.5172598,-97.5471353
2041,Northwest 45th Street,73112,35.5177172,-97.5471376
2036,Northwest 45th Street,73112,35.5172585,-97.5469418
2037,Northwest 45th Street,73112,35.5177203,-97.5469402
2032,Northwest 45th Street,73112,35.5172610,-97.5467490
2033,Northwest 45th Street,73112,35.5177247,-97.5467405
2029,Northwest 45th Street,73112,35.5177267,-97.5465346
2028,Northwest 45th Street,73112,35.5172604,-97.5465424
2009,Northwest 45th Street,73112,35.5177065,-97.5462605
2024,Northwest 45th Street,73112,35.5172711,-97.5463264
2020,Northwest 45th Street,73112,35.5173013,-97.5460910
2016,Northwest 45th Street,73112,35.5174273,-97.5459014
2012,Northwest 45th Street,73112,35.5175729,-97.5458147
2001,Northwest 45th Street,73112,35.5180625,-97.5460724
2008,Northwest 45th Street,73112,35.5177645,-97.5457543
2004,Northwest 45th Street,73112,35.5179213,-97.5456978
2041,Northwest 46th Street,73112,35.5185328,-97.5471682
2037,Northwest 46th Street,73112,35.5185340,-97.5469424
2033,Northwest 46th Street,73112,35.5185383,-97.5467291
2029,Northwest 46th Street,73112,35.5185259,-97.5465107
2025,Northwest 46th Street,73112,35.5185280,-97.5462830
2021,Northwest 46th Street,73112,35.5185172,-97.5460607
2017,Northwest 46th Street,73112,35.5184801,-97.5458438
2024,Northwest 46th Street,73112,35.5180795,-97.5463442
2028,Northwest 46th Street,73112,35.5181035,-97.5465447
2032,Northwest 46th Street,73112,35.5181034,-97.5467436
2036,Northwest 46th Street,73112,35.5181091,-97.5469480
2040,Northwest 46th Street,73112,35.5181072,-97.5471368
2044,Northwest 46th Street,73112,35.5181022,-97.5473497
2012,Northwest 46th Street,73112,35.5181015,-97.5456072
1101,Northwest 164th Street,73013,35.6397284,-97.5325924
312,North Rockwell Avenue,73127,35.4701520,-97.6360648
13500,South Tulsa Drive,73170,35.3330340,-97.5907304
4101,Southwest 134th Street,73173,35.3345133,-97.5932436
501,Northwest Grand Boulevard,73118,35.5290640,-97.5210518
601,Northwest Grand Boulevard,73118,35.5289953,-97.5223979
14101,North Eastern Avenue,73013,35.6119906,-97.4787036
14017,North Eastern Avenue,73013,35.6119674,-97.4794887
14033,North Eastern Avenue,73013,35.6123136,-97.4794792
14101,North Eastern Avenue,73013,35.6131946,-97.4790726
14105,North Eastern Avenue,73013,35.6130011,-97.4796409
13700,North Eastern Avenue,73013,35.6112278,-97.4767636
14414,N Lincoln,73013,35.6165931,-97.5014549
14350,North Lincoln Boulevard,73013,35.6159641,-97.5041659
14300,North Lincoln Boulevard,73013,35.6156218,-97.5041659
3900,Jones Boulevard,73135,35.4095168,-97.4498426
4101,North May Avenue,73112,35.5145637,-97.5662662
4101,North May Avenue,73112,35.5126007,-97.5672331
5644,North Pennsylvania Avenue,73112,35.5278197,-97.5469961
5022,North Western Avenue,73118,35.5220590,-97.5295828
2563,West Memorial Road,73134,35.6143776,-97.5601569
9201,South Portland Avenue,73159,35.3742268,-97.5810391
1111,South Eastern Avenue,73129,35.4533832,-97.4790573
2415,South Meridian Avenue,73108,35.4410789,-97.6023314
300,Outlet Shops Drive,73128,35.4621947,-97.6516669
12205,Greenlea Chase East,73170,35.3464125,-97.5227783
6221,North Allison Drive,73112,35.5351562,-97.5975241
101,Northwest 63rd Street,73116,35.5372979,-97.5152530
6200,North Robinson Avenue,73118,35.5352163,-97.5153847
7412,North Bryant Avenue,73121,35.5467531,-97.4585321
2627,East I-44 Service Road,73111,35.5396763,-97.4684077
2928,Northeast 63rd Street,73111,35.5363913,-97.4595621
2926,Northeast 63rd Street,73111,35.5359490,-97.4596537
6000,North Bryant Avenue,73121,35.5324324,-97.4586016
2920,Northeast 36th Street,73111,35.5071746,-97.4617569
2936,Northeast 36th Street,73111,35.5069312,-97.4596716
12001,South Portland Avenue,73170,35.3455022,-97.5843027
9225,North May Avenue,73120,35.5637314,-97.5686592
3600,Northwest Expressway,73112,35.5321941,-97.5827661
3535,Northwest 39th Street,73112,35.5124684,-97.5797955
12701,North Santa Fe Avenue,73114,35.6003837,-97.5171952
9417,N. Council Road,73162,35.5652698,-97.6570758
4001,Northwest 39th Street,73112,35.5133337,-97.5889432
601,Northwest 16th Street,73103,35.4862117,-97.5228069
1709,North Dewey Avenue,73103,35.4864254,-97.5227960
7000,South May Avenue,73159,35.3953689,-97.5648456
1109,East Interstate 240 Service Road,73149,35.3921975,-97.4917976
1111,East Interstate 240 Service Road,73149,35.3927510,-97.4927448
1101,East Interstate 240 Service Road,73149,35.3932689,-97.4919608
8428,Woodbend Drive,73135,35.3812308,-97.4316332
8424,Woodbend Drive,73135,35.3814074,-97.4316466
8420,Woodbend Drive,73135,35.3815921,-97.4316457
8416,Woodbend Drive,73135,35.3817736,-97.4316407
8412,Woodbend Drive,73135,35.3819506,-97.4316596
8408,Woodbend Drive,73135,35.3821298,-97.4316288
8404,Woodbend Drive,73135,35.3823039,-97.4316473
8400,Woodbend Drive,73135,35.3824705,-97.4316434
8433,Woodbend Drive,73135,35.3812283,-97.4321838
8429,Woodbend Drive,73135,35.3814103,-97.4321726
8425,Woodbend Drive,73135,35.3815711,-97.4321803
8421,Woodbend Drive,73135,35.3817363,-97.4321786
8417,Woodbend Drive,73135,35.3819020,-97.4321715
8413,Woodbend Drive,73135,35.3820684,-97.4321803
8409,Woodbend Drive,73135,35.3822327,-97.4322076
8405,Woodbend Drive,73135,35.3823905,-97.4322059
8401,Woodbend Drive,73135,35.3825787,-97.4321678
8341,Woodbend Drive,73135,35.3827522,-97.4320343
8337,Woodbend Drive,73135,35.3829154,-97.4319063
8333,Woodbend Drive,73135,35.3830183,-97.4317707
8329,Woodbend Drive,73135,35.3832041,-97.4315744
8429,Pinewood Drive,73135,35.3812307,-97.4303479
8425,Pinewood Drive,73135,35.3814061,-97.4303325
8421,Pinewood Drive,73135,35.3815771,-97.4303307
8417,Pinewood Drive,73135,35.3817558,-97.4303454
8413,Pinewood Drive,73135,35.3819354,-97.4303579
8409,Pinewood Drive,73135,35.3821139,-97.4303181
8405,Pinewood Drive,73135,35.3822932,-97.4303355
8401,Pinewood Drive,73135,35.3824654,-97.4303496
8329,Pinewood Drive,73135,35.3826527,-97.4303373
8325,Pinewood Drive,73135,35.3828272,-97.4303360
8321,Pinewood Drive,73135,35.3830004,-97.4303489
8317,Pinewood Drive,73135,35.3831784,-97.4303336
5008,Southeast 83rd Place,73135,35.3831524,-97.4306449
5004,Southeast 83rd Place,73135,35.3831559,-97.4308601
5000,Southeast 83rd Place,73135,35.3831444,-97.4310607
5001,Southeast 83rd Place,73135,35.3835834,-97.4310497
5005,Southeast 83rd Place,73135,35.3835891,-97.4308375
5009,Southeast 83rd Place,73135,35.3835846,-97.4306198
5101,Southeast 83rd Place,73135,35.3835866,-97.4303947
5105,Southeast 83rd Place,73135,35.3836066,-97.4301833
5109,Southeast 83rd Place,73135,35.3835891,-97.4298984
8312,Pinewood Drive,73135,35.3833838,-97.4297686
8316,Pinewood Drive,73135,35.3832185,-97.4298074
8320,Pinewood Drive,73135,35.3830564,-97.4298208
8324,Pinewood Drive,73135,35.3828905,-97.4298174
8328,Pinewood Drive,73135,35.3827250,-97.4298150
8400,Pinewood Drive,73135,35.3825588,-97.4298046
8404,Pinewood Drive,73135,35.3823962,-97.4298037
8408,Pinewood Drive,73135,35.3822289,-97.4298156
8412,Pinewood Drive,73135,35.3820661,-97.4297981
8416,Pinewood Drive,73135,35.3819031,-97.4298223
8420,Pinewood Drive,73135,35.3817357,-97.4298007
8424,Pinewood Drive,73135,35.3815760,-97.4298028
8428,Pinewood Drive,73135,35.3814081,-97.4298010
8432,Pinewood Drive,73135,35.3812307,-97.4297992
921,Southeast 66th Street,73149,35.3994563,-97.4960663
14308,South Meridian Avenue,73173,35.3253820,-97.5998134
14200,South Meridian Avenue,73173,35.3265092,-97.5995457
14120,South Meridian Avenue,73173,35.3268607,-97.5971863
14110,South Meridian Avenue,73173,35.3277898,-97.5987506
14100,South Meridian Avenue,73173,35.3275860,-97.6001871
13920,South Meridian Avenue,73173,35.3291496,-97.5965173
13800,South Meridian Avenue,73173,35.3311651,-97.5987264
4430,Southwest 134th Street,73173,35.3335521,-97.5996569
13500,South Tulsa Drive,73170,35.3330581,-97.5910970
13504,South Tulsa Drive,73170,35.3319947,-97.5919143
13510,South Tulsa Drive,73170,35.3304499,-97.5929665
13300,Straka Farm Road,73173,35.3364836,-97.5931327
11901,South Portland Avenue,73170,35.3492567,-97.5837554
11829,South Portland Avenue,73170,35.3499251,-97.5842621
11801,South Portland Avenue,73170,35.3503853,-97.5835314
11735,South Portland Avenue,73170,35.3507095,-97.5835951
11711,South Portland Avenue,73170,35.3511125,-97.5833650
11701,South Portland Avenue,73170,35.3513968,-97.5837629
11625,South Portland Avenue,73170,35.3517844,-97.5834836
11515,South Portland Avenue,73170,35.3521450,-97.5832922
11935,South I-44 Service Road,73173,35.3511686,-97.5866653
11700,South Meridian Avenue,73173,35.3511760,-97.5992579
11500,South Meridian Avenue,73173,35.3524608,-97.5997537
11600,South Meridian Avenue,73173,35.3537625,-97.5994719
11224,South Meridian Avenue,73173,35.3543836,-97.5998948
4000,Southwest 113th Street,73173,35.3540631,-97.5907132
4101,Southwest 113th Street,73173,35.3549630,-97.5906858
3940,Southwest 113th Street,73173,35.3539143,-97.5881599
3840,Southwest 113th Street,73173,35.3542609,-97.5873046
3840,Southwest 113th Street,73173,35.3542751,-97.5867170
11305,South I-44 Service Road,73173,35.3542787,-97.5854040
11501,South I-44 Service Road,73173,35.3529463,-97.5858003
10808,South Portland Avenue,73173,35.3595789,-97.5826421
3031,Northwest 64th Street,73116,35.5377089,-97.5679665
2501,West Memorial Road,73134,35.6121977,-97.5584038
1200,West Memorial Road,73114,35.6058418,-97.5344155
13101,Memorial Springs Court,73114-2226,35.6023850,-97.5277800
1344,West Memorial Road,73114,35.6075469,-97.5373639
13060,North Pennsylvania Avenue,77706,35.6027012,-97.5489589
1400,Southwest 74th Street,73159,35.3907120,-97.5428227
3020,North Walker Avenue,73103,35.5001359,-97.5207784
1529,Southwest 89th Street,73159,35.3774593,-97.5455573
427-499,West Sheridan Avenue,73102,35.4668865,-97.5197921
6517,North May Avenue,73116,35.5381274,-97.5660893
6601,North May Avenue,73116,35.5385103,-97.5660045
6609,North May Avenue,73116,35.5388153,-97.5660881
6615,North May Avenue,73116,35.5389729,-97.5661262
3407,Northwest 39th Street,73112,35.5121349,-97.5782521
11100,North Kelley Avenue,73131,35.5822430,-97.4928795
1209,East Hefner Road,73131,35.5815642,-97.4922740
13111,Highland Park Boulevard,73120,35.6023643,-97.5567808
8450,Broadway Extension,73114,35.5571244,-97.5126971
7891,North Robinson Avenue,73116,35.5499624,-97.5171727
919,Northwest 80th Street,73114,35.5531522,-97.5296763
626,Northwest 94th Street,73114,35.5663167,-97.5250263
820,Northwest 92nd Street,73114,35.5641956,-97.5286885
60,Northeast 63rd Street,73105,35.5363086,-97.5101244
13200,North Western Avenue,73114,35.6042910,-97.5302386
13200,North Western Avenue,73114,35.6043772,-97.5278777
1340,West Memorial Road,73114,35.6071859,-97.5373618
7105,North Kelley Avenue,73111,35.5427526,-97.4945864
6800,Broadway Extension,73116,35.5407272,-97.5132541
6700,Broadway Extension,73116,35.5398506,-97.5128046
700,Colcord Drive,73102,35.4683303,-97.5252205
9000,North Kelley Avenue,73131,35.5622375,-97.4955246
1801,North Lincoln Boulevard,73105,35.4877090,-97.5043496
821,North Czech Hall Road,73099,35.4752360,-97.7464416
10301,South Sunnylane Road,73160,35.3647794,-97.4418635
7432,South May Avenue,73159,35.3920460,-97.5650727
7101,South May Avenue,73159,35.3947338,-97.5660330
7100,South May Avenue,73159,35.3946574,-97.5651183
2825,West Interstate 240 Service Road,73159,35.3955325,-97.5642705
6624,South May Avenue,73159,35.3966015,-97.5643060
2759,West Interstate 240 Service Road,73159,35.3954435,-97.5625328
6809,South May Avenue,73159,35.3964924,-97.5663227
6709,South May Avenue,73159,35.3973757,-97.5661628
6700,South I-35 Service Road,73149,35.3986753,-97.4941173
933,Southeast 67th Street,73149,35.3987298,-97.4958483
7501,South Shields Boulevard,73149,35.3910238,-97.5069502
7420,South Shields Boulevard,73149,35.3928388,-97.5064258
7300,South Shields Boulevard,73149,35.3934899,-97.5067100
7222,South Shields Boulevard,73149,35.3938747,-97.5069707
2,Southwest 74th Street,73139,35.3911902,-97.5130113
24,East Interstate 240 Service Road,73139,35.3912202,-97.5110596
116,East Interstate 240 Service Road,73139,35.3914092,-97.5100633
55,Southwest 74th Street,73139,35.3933485,-97.5144083
1,Southwest 74th Street,73139,35.3928918,-97.5130536
10821,Southwest 15th Street,73099,35.4509001,-97.7128534
10901,Southwest 15th Street,73099,35.4516386,-97.7139604
13401,North Western Avenue,73114,35.6058669,-97.5328243
21,North Lincoln Boulevard,73104,35.4674391,-97.5028375
505,East Sheridan Avenue,73104,35.4670407,-97.5043533
120,South Lincoln Boulevard,73104,35.4652758,-97.5005901
2611,Northeast 10th Street,73117,35.4791934,-97.4638358
4835,Northeast 122nd Street,73013,35.5952286,-97.4350940
5307,Northeast 122nd Street,73131,35.5966555,-97.4288993
12005,North I-35 Service Road,73131,35.5892983,-97.4384185
12001,North I-35 Service Road,73131,35.5888870,-97.4386839
6100,North Robinson Avenue,73118,35.5344125,-97.5156648
20,West Wilshire Boulevard,73116,35.5504861,-97.5127064
5833,Northwest 82nd Street,73132,35.5553928,-97.6202099
5408,Southeast 88th Street,73135,35.3776142,-97.4256932
5413,Southeast 88th Street,73135,35.3778258,-97.4255692
5409,Southeast 88th Street,73135,35.3780701,-97.4256816
5405,Southeast 88th Street,73135,35.3781259,-97.4259433
5401,Southeast 88th Street,73135,35.3780506,-97.4261409
5404,Southeast 88th Street,73135,35.3775622,-97.4259409
5400,Southeast 88th Street,73135,35.3775992,-97.4261427
5316,Southeast 88th Street,73135,35.3776280,-97.4263414
5317,Southeast 88th Street,73135,35.3780592,-97.4263444
5313,Southeast 88th Street,73135,35.3780509,-97.4265448
5309,Southeast 88th Street,73135,35.3780563,-97.4267363
5305,Southeast 88th Street,73135,35.3780660,-97.4269397
5301,Southeast 88th Street,73135,35.3780494,-97.4271533
5312,Southeast 88th Street,73135,35.3776151,-97.4265393
5308,Southeast 88th Street,73135,35.3776283,-97.4267454
5304,Southeast 88th Street,73135,35.3776230,-97.4269487
5300,Southeast 88th Street,73135,35.3776007,-97.4271461
5416,Southeast 89th Street,73135,35.3769984,-97.4254229
8809,South Sooner Road,73135,35.3783921,-97.4242964
8913,Timberwood Lane,73135,35.3775602,-97.4252183
8912,Timberwood Lane,73135,35.3775650,-97.4246376
8908,Timberwood Lane,73135,35.3777280,-97.4246344
8904,Timberwood Lane,73135,35.3778927,-97.4246589
8900,Timberwood Lane,73135,35.3780580,-97.4246625
8816,Timberwood Lane,73135,35.3782225,-97.4246368
8812,Timberwood Lane,73135,35.3783868,-97.4246373
8808,Timberwood Lane,73135,35.3785571,-97.4245765
8804,Timberwood Lane,73135,35.3787929,-97.4247022
8800,Timberwood Lane,73135,35.3788612,-97.4249308
8801,Timberwood Lane,73135,35.3788331,-97.4251718
8909,Timberwood Lane,73135,35.3777256,-97.4252224
8905,Timberwood Lane,73135,35.3778922,-97.4252167
8901,Timberwood Lane,73135,35.3780479,-97.4252118
8813,Timberwood Lane,73135,35.3782197,-97.4252117
8809,Timberwood Lane,73135,35.3783820,-97.4252009
8805,Timberwood Lane,73135,35.3785524,-97.4252757
5300,Southeast 87th Street,73135,35.3784149,-97.4271677
5304,Southeast 87th Street,73135,35.3783959,-97.4269465
5308,Southeast 87th Street,73135,35.3784020,-97.4267455
5312,Southeast 87th Street,73135,35.3783983,-97.4265415
5316,Southeast 87th Street,73135,35.3784012,-97.4263445
5400,Southeast 87th Street,73135,35.3784079,-97.4261427
5404,Southeast 87th Street,73135,35.3783399,-97.4259429
5408,Southeast 87th Street,73135,35.3783926,-97.4256799
5413,Southeast 87th Street,73135,35.3786222,-97.4255945
5409,Southeast 87th Street,73135,35.3788403,-97.4257021
5405,Southeast 87th Street,73135,35.3789013,-97.4259437
5401,Southeast 87th Street,73135,35.3788393,-97.4261445
5317,Southeast 87th Street,73135,35.3788592,-97.4263340
5313,Southeast 87th Street,73135,35.3788343,-97.4265472
5309,Southeast 87th Street,73135,35.3788405,-97.4267476
5305,Southeast 87th Street,73135,35.3788289,-97.4269485
5301,Southeast 87th Street,73135,35.3788341,-97.4271959
5300,Southeast 86th Street,73135,35.3791964,-97.4271983
5304,Southeast 86th Street,73135,35.3791927,-97.4269767
5308,Southeast 86th Street,73135,35.3791632,-97.4267639
5312,Southeast 86th Street,73135,35.3791881,-97.4265611
5316,Southeast 86th Street,73135,35.3791868,-97.4263626
5400,Southeast 86th Street,73135,35.3791954,-97.4261532
5404,Southeast 86th Street,73135,35.3791923,-97.4259531
5408,Southeast 86th Street,73135,35.3791711,-97.4257497
5412,Southeast 86th Street,73135,35.3791903,-97.4255385
5416,Southeast 86th Street,73135,35.3792040,-97.4253310
5420,Southeast 86th Street,73135,35.3791722,-97.4251345
5500,Southeast 86th Street,73135,35.3791775,-97.4249296
5504,Southeast 86th Street,73135,35.3791982,-97.4247292
5508,Southeast 86th Street,73135,35.3791808,-97.4245231
5512,Southeast 86th Street,73135,35.3791839,-97.4243177
5516,Southeast 86th Street,73135,35.3791807,-97.4241134
5520,Southeast 86th Street,73135,35.3791714,-97.4238937
5521,Southeast 86th Street,73135,35.3796348,-97.4238836
5517,Southeast 86th Street,73135,35.3796298,-97.4240828
5513,Southeast 86th Street,73135,35.3796132,-97.4242960
5509,Southeast 86th Street,73135,35.3796123,-97.4245054
5505,Southeast 86th Street,73135,35.3796087,-97.4247101
5501,Southeast 86th Street,73135,35.3796129,-97.4249192
5421,Southeast 86th Street,73135,35.3796100,-97.4251284
5417,Southeast 86th Street,73135,35.3796360,-97.4253342
5413,Southeast 86th Street,73135,35.3796118,-97.4255418
5409,Southeast 86th Street,73135,35.3796200,-97.4257458
5405,Southeast 86th Street,73135,35.3796134,-97.4259582
5401,Southeast 86th Street,73135,35.3796137,-97.4261623
5317,Southeast 86th Street,73135,35.3796306,-97.4263703
5313,Southeast 86th Street,73135,35.3796099,-97.4265846
5309,Southeast 86th Street,73135,35.3796210,-97.4267853
5305,Southeast 86th Street,73135,35.3796096,-97.4269932
5301,Southeast 86th Street,73135,35.3796115,-97.4272083
5300,Southeast 85th Street,73135,35.3799461,-97.4272238
5304,Southeast 85th Street,73135,35.3799420,-97.4270083
5308,Southeast 85th Street,73135,35.3799553,-97.4267993
5312,Southeast 85th Street,73135,35.3799334,-97.4265987
5316,Southeast 85th Street,73135,35.3799417,-97.4263968
5400,Southeast 85th Street,73135,35.3799441,-97.4261971
5404,Southeast 85th Street,73135,35.3799456,-97.4259904
5408,Southeast 85th Street,73135,35.3799491,-97.4257932
5412,Southeast 85th Street,73135,35.3799446,-97.4255907
5416,Southeast 85th Street,73135,35.3799436,-97.4253849
5420,Southeast 85th Street,73135,35.3799038,-97.4251854
5424,Southeast 85th Street,73135,35.3799669,-97.4249612
8516,Timberwood Lane,73135,35.3802366,-97.4248722
8512,Timberwood Lane,73135,35.3803864,-97.4248993
8508,Timberwood Lane,73135,35.3805527,-97.4249066
5417,Southeast 85th Street,73135,35.3803934,-97.4253727
5413,Southeast 85th Street,73135,35.3803566,-97.4256085
5409,Southeast 85th Street,73135,35.3803951,-97.4258072
5405,Southeast 85th Street,73135,35.3803890,-97.4260181
5401,Southeast 85th Street,73135,35.3803685,-97.4262198
5317,Southeast 85th Street,73135,35.3803665,-97.4264161
5313,Southeast 85th Street,73135,35.3803696,-97.4266228
5309,Southeast 85th Street,73135,35.3803687,-97.4268228
5305,Southeast 85th Street,73135,35.3803666,-97.4270244
5301,Southeast 85th Street,73135,35.3803695,-97.4272428
9001,Fendrych Drive,73165,35.3770099,-97.4283683
9015,Fendrych Drive,73165,35.3766220,-97.4283699
9101,Fendrych Drive,73165,35.3762154,-97.4283802
9115,Fendrych Drive,73165,35.3758310,-97.4284047
9201,Fendrych Drive,73165,35.3754424,-97.4283760
9215,Fendrych Drive,73165,35.3750448,-97.4284460
9225,Fendrych Drive,73165,35.3746520,-97.4284181
9301,Fendrych Drive,73165,35.3742584,-97.4284215
9315,Fendrych Drive,73165,35.3738836,-97.4284327
9325,Fendrych Drive,73165,35.3734777,-97.4284004
9401,Fendrych Drive,73165,35.3731187,-97.4284506
9415,Fendrych Drive,73165,35.3727212,-97.4284138
9501,Fendrych Drive,73165,35.3722800,-97.4284765
9515,Fendrych Drive,73165,35.3719135,-97.4284321
9601,Fendrych Drive,73165,35.3715191,-97.4284440
9615,Fendrych Drive,73165,35.3711601,-97.4284903
9625,Fendrych Drive,73165,35.3707817,-97.4283880
9600,Fendrych Drive,73165,35.3718979,-97.4276689
311,South Meridian,73108-1011,35.4630762,-97.6019555
401,South Meridian Avenue,73108,35.4614044,-97.6034542
8301,Stonewood Drive,73135,35.3839621,-97.4294164
8305,Stonewood Drive,73135,35.3837758,-97.4293991
8309,Stonewood Drive,73135,35.3835908,-97.4294434
8313,Stonewood Drive,73135,35.3834129,-97.4294230
8317,Stonewood Drive,73135,35.3832497,-97.4294273
8321,Stonewood Drive,73135,35.3830840,-97.4294271
8325,Stonewood Drive,73135,35.3829194,-97.4294372
8329,Stonewood Drive,73135,35.3827548,-97.4294370
8401,Stonewood Drive,73135,35.3825895,-97.4294163
8405,Stonewood Drive,73135,35.3824240,-97.4294301
8409,Stonewood Drive,73135,35.3822598,-97.4294230
8413,Stonewood Drive,73135,35.3820891,-97.4294287
8417,Stonewood Drive,73135,35.3819239,-97.4294170
8421,Stonewood Drive,73135,35.3817634,-97.4294206
8425,Stonewood Drive,73135,35.3815853,-97.4294259
8429,Stonewood Drive,73135,35.3814087,-97.4294293
8433,Stonewood Drive,73135,35.3812296,-97.4294149
8325,Woodbend Drive,73135,35.3834527,-97.4315467
8321,Woodbend Drive,73135,35.3836120,-97.4315351
8317,Woodbend Drive,73135,35.3837728,-97.4315425
8313,Woodbend Drive,73135,35.3839365,-97.4315457
8309,Woodbend Drive,73135,35.3840987,-97.4315501
8305,Woodbend Drive,73135,35.3842639,-97.4315568
8301,Woodbend Drive,73135,35.3844188,-97.4315596
8213,Woodbend Drive,73135,35.3846546,-97.4315426
8209,Woodbend Drive,73135,35.3848271,-97.4314223
8205,Woodbend Drive,73135,35.3849574,-97.4312865
8201,Woodbend Drive,73135,35.3851329,-97.4312106
8125,Woodbend Drive,73135,35.3853451,-97.4311882
8121,Woodbend Drive,73135,35.3855403,-97.4312716
8117,Woodbend Drive,73135,35.3857645,-97.4311968
8113,Woodbend Drive,73135,35.3858756,-97.4310039
8112,Woodbend Drive,73135,35.3858299,-97.4307340
8116,Woodbend Drive,73135,35.3856471,-97.4305537
8120,Woodbend Drive,73135,35.3854684,-97.4305935
8404,Bigwood Drive,73135,35.3824301,-97.4240281
8405,Bigwood Drive,73135,35.3824344,-97.4245054
8401,Bigwood Drive,73135,35.3825969,-97.4244914
8400,Bigwood Drive,73135,35.3825907,-97.4240213
8329,Bigwood Drive,73135,35.3827481,-97.4245082
8328,Bigwood Drive,73135,35.3827572,-97.4240118
8325,Bigwood Drive,73135,35.3829147,-97.4244824
8324,Bigwood Drive,73135,35.3829228,-97.4240325
8320,Bigwood Drive,73135,35.3830857,-97.4240310
8321,Bigwood Drive,73135,35.3830855,-97.4244983
8317,Bigwood Drive,73135,35.3832429,-97.4245071
8316,Bigwood Drive,73135,35.3832529,-97.4240123
8313,Bigwood Drive,73135,35.3834225,-97.4244832
8312,Bigwood Drive,73135,35.3834177,-97.4240273
8309,Bigwood Drive,73135,35.3836009,-97.4245110
8308,Bigwood Drive,73135,35.3835810,-97.4240213
8305,Bigwood Drive,73135,35.3837794,-97.4244865
8301,Bigwood Drive,73135,35.3839447,-97.4245082
8304,Bigwood Drive,73135,35.3837519,-97.4240264
8300,Bigwood Drive,73135,35.3839189,-97.4240116
1301,Southwest 59th Street,73119,35.4065258,-97.5395192
8876,West Lakeshore Drive,73162,35.5602086,-97.6157329
6100,Southwest 5th Street,73128,35.4585097,-97.6231332
4333,Southwest 15th Street,73108,35.4486152,-97.5971861
4311,Southwest 15th Street,73108,35.4481848,-97.5962159
3500,Northwest 150th Street,73134,35.6220752,-97.5826203
4500,Southeast 44th Street,73135,35.4202175,-97.4381894
19205,North Western,73012,35.6665130,-97.5322575
14900,North Pennsylvania Avenue,73134,35.6216971,-97.5480626
321,North Mustang Road,73099,35.4702000,-97.7257020
11424,Northwest 4th Street,73099,35.4707795,-97.7266455
11440,North Mustang Road,73099,35.4663955,-97.7258950
1308,South Czech Hall Road,73099,35.4526029,-97.7420570
8528,Southwest 74th Street,73169,35.3911865,-97.6639060
5000,Southeast 82nd Street,73135,35.3839213,-97.4310599
5004,Southeast 82nd Street,73135,35.3839242,-97.4308256
5008,Southeast 82nd Street,73135,35.3839219,-97.4306163
5100,Southeast 82nd Street,73135,35.3839083,-97.4304003
5104,Southeast 82nd Street,73135,35.3839145,-97.4301781
5108,Southeast 82nd Street,73135,35.3839251,-97.4299620
5112,Southeast 82nd Street,73135,35.3839235,-97.4297381
8300,Stonewood Drive,73135,35.3839438,-97.4289147
8304,Stonewood Drive,73135,35.3837714,-97.4288850
8308,Stonewood Drive,73135,35.3835980,-97.4288902
8312,Stonewood Drive,73135,35.3834200,-97.4289111
8316,Stonewood Drive,73135,35.3832478,-97.4289153
8320,Stonewood Drive,73135,35.3830776,-97.4289170
8324,Stonewood Drive,73135,35.3829130,-97.4289305
8328,Stonewood Drive,73135,35.3827546,-97.4288949
8400,Stonewood Drive,73135,35.3825838,-97.4289070
8404,Stonewood Drive,73135,35.3824247,-97.4289269
8408,Stonewood Drive,73135,35.3822653,-97.4288983
8412,Stonewood Drive,73135,35.3820889,-97.4289173
8420,Stonewood Drive,73135,35.3817577,-97.4289160
8424,Stonewood Drive,73135,35.3815990,-97.4288897
8428,Stonewood Drive,73135,35.3814147,-97.4288866
8432,Stonewood Drive,73135,35.3812240,-97.4289257
13000,N Sara Road,73099,35.6020069,-97.7063643
8315,South I-35 Service Road,73149,35.3838708,-97.4961893
7500,South Shields Boulevard,73149,35.3912773,-97.5058628
339,Southwest 74th Street,73139,35.3927089,-97.5180717
441,Southwest 74th Street,73139,35.3922144,-97.5207182
600,East Sheridan Avenue,73104,35.4662096,-97.5030264
1900,West Memorial Road,73134,35.6078304,-97.5480076
3735,Northwest 165th Street,73012,35.6393529,-97.5866125
3730,Northwest 166th Street,73012,35.6401368,-97.5863562
3913,Northwest 165th Circle,73012,35.6393012,-97.5903150
3909,Northwest 165th Circle,73012,35.6393213,-97.5900897
3905,Northwest 165th Circle,73012,35.6393402,-97.5898184
3937,Northwest 167th Terrace,73012,35.6410898,-97.5918477
16725,Doyle Drive,73012,35.6409836,-97.5919730
3924,Northwest 167th Terrace,73012,35.6406237,-97.5911091
3912,Northwest 165th Circle,73012,35.6388527,-97.5903060
3904,Northwest 165th Circle,73012,35.6388279,-97.5898601
3908,Northwest 165th Circle,73012,35.6388409,-97.5900977
16705,Doyle Drive,73012,35.6400291,-97.5919630
16704,Doyle Drive,73012,35.6400450,-97.5913749
16712,Doyle Drive,73012,35.6403672,-97.5914257
16720,Doyle Drive,73012,35.6406780,-97.5914158
3908,Northwest 166th Terrace,73012,35.6396206,-97.5900951
3904,Northwest 166th Terrace,73012,35.6395793,-97.5898572
3900,Northwest 166th Terrace,73012,35.6396797,-97.5896145
3912,Northwest 166th Terrace,73012,35.6396346,-97.5903127
3901,Northwest 166th Terrace,73012,35.6400210,-97.5896188
3913,Northwest 166th Terrace,73012,35.6400683,-97.5903239
3909,Northwest 166th Terrace,73012,35.6400948,-97.5900886
16717,Monroe Drive,73012,35.6406841,-97.5907968
16709,Monroe Drive,73012,35.6403655,-97.5907916
3900,Northwest 167th Terrace,73012,35.6407147,-97.5895989
3904,Northwest 167th Terrace,73012,35.6405659,-97.5898450
16721,Doyle Drive,73012,35.6407534,-97.5920014
16717,Doyle Drive,73012,35.6405830,-97.5919409
16713,Doyle Drive,73012,35.6403987,-97.5919530
16709,Doyle Drive,73012,35.6402249,-97.5919479
3933,Northwest 167th Terrace,73012,35.6410825,-97.5914810
3929,Northwest 167th Terrace,73012,35.6410582,-97.5912682
3925,Northwest 167th Terrace,73012,35.6410725,-97.5910271
3921,Northwest 167th Terrace,73012,35.6410731,-97.5907944
3917,Northwest 167th Terrace,73012,35.6410797,-97.5905648
3913,Northwest 167th Terrace,73012,35.6410737,-97.5903176
3909,Northwest 167th Terrace,73012,35.6410774,-97.5900910
3905,Northwest 167th Terrace,73012,35.6411237,-97.5898597
3901,Northwest 167th Terrace,73012,35.6410097,-97.5896024
16712,Monroe Drive,73012,35.6404697,-97.5902594
16708,Monroe Drive,73012,35.6403104,-97.5902333
16716,Monroe Drive,73012,35.6406815,-97.5902455
3701,West Memorial Road,73134,35.6104573,-97.5867187
4201,West Memorial Road,73134,35.6120428,-97.5961174
6801,South Anderson Road,73150,35.4006373,-97.3192516
7101,South Anderson Road,73150,35.3958766,-97.3182560
4024,North May Avenue,73112,35.5123746,-97.5652079
1621,South Prospect Avenue,73129,35.4491971,-97.4865244
728,East Interstate 240 Service Road,73139,35.3907494,-97.4994360
210,East Interstate 240 Service Road,73149,35.3911160,-97.5079185
6900,North Bryant Avenue,73121,35.5421826,-97.4570109
1300,East Britton Road,73131,35.5641477,-97.4885863
11501,West Britton Road,73099,35.5663866,-97.7289476
13300,Piedmont Road,73099,35.6055604,-97.7447132
125,South Mustang Road,73099,35.4653005,-97.7251293
4525,Northwest 16th Street,73127,35.4872776,-97.6026133
100,Oklahoma City Boulevard,73109,35.4616196,-97.5153613
4625,Northeast 120th Street,73131,35.5933145,-97.4373685
12013,Holland Street,73131,35.5926485,-97.4389535
14400,South Western Avenue,73170,35.3242710,-97.5266280
925,Southwest 134th Street,73170,35.3347540,-97.5310535
10500,South May Avenue,73170,35.3627911,-97.5649775
911,Southwest 104th Street,73139,35.3643700,-97.5313845
10417,South Western Avenue,73139,35.3636365,-97.5306290
11529,South Western,73170,35.3521160,-97.5305265
920,Southwest 77th Street,73139,35.3881295,-97.5312715
1414,South Council Road,73128,35.4517867,-97.6526006
720,South MacArthur Boulevard,73128,35.4585195,-97.6182290
624,South MacArthur Boulevard,73128,35.4580275,-97.6182565
820,South MacArthur Boulevard,73128,35.4574595,-97.6177440
5500,Northwest 135th Street,73142,35.6073850,-97.6153703
1400,Northeast 63rd Street,73111,35.5360770,-97.4865181
1100,South Meridian Avenue,73108,35.4550429,-97.6004623
4240,West I-40 Service Road,73108,35.4590931,-97.5962101
4300,West I-40 Service Road,73108,35.4591209,-97.5973041
4301,Highline Boulevard,73108,35.4578349,-97.5978338
721,South Rockwell Avenue,73128,35.4576610,-97.6373816
7701,C A Henderson Boulevard,73139,35.3889559,-97.5337495
801,South Meridian Avenue,73108,35.4575632,-97.6019141
7601,C A Henderson Boulevard,73139,35.3894643,-97.5337954
1001,Straka Terrace,73139,35.3881614,-97.5322058
7817,South Walker Avenue,73139,35.3888025,-97.5232319
20,Russel M. Perry Avenue,73104,35.4672078,-97.5056000
4716,West I-40 Service Road,73128,35.4586895,-97.6043762
4620,Enterprise Way,73128,35.4565198,-97.6028369
4602,Enterprise Way,73128,35.4565013,-97.6023962
4501,Southwest 15th Street,73108,35.4488342,-97.6025662
4601,Southwest 15th Street,73108,35.4488866,-97.6035303
5921,Southwest 8th Street,73128,35.4575312,-97.6205490
11500,Korean War Veterans Memorial Highway,73099,35.4670584,-97.7263586
7421,North Classen Boulevard,73116,35.5472795,-97.5281009
725,South Lincoln Boulevard,73129,35.4590103,-97.4990118
3115,East Overholser Drive,73127,35.5021280,-97.6658660
1012,Northwest 1st Street,73106,35.4686270,-97.5291346
500,East Sheridan Avenue,73104,35.4661138,-97.5039541
5809,Southwest 5th Street,73128,35.4593422,-97.6177685
8001,South Eastern Avenue,73149,35.3863572,-97.4785189
3412,Chester Terrace,73099,35.5050072,-97.7072610
3721,South Council Road,73179,35.4256617,-97.6545006
9500,Northwest 4th Street,73127,35.4726751,-97.6829170
3901,Northwest Expressway,73112,35.5362517,-97.5871054
931,East Reno Avenue,73104,35.4653724,-97.4953282
411,East Sheridan Avenue,73104,35.4668047,-97.5055873
6101,Southwest 44th Street,73179,35.4216581,-97.6210952
1025,Straka Terrace,73139,35.3882479,-97.5341778
3000,Northwest Grand Boulevard,73107,35.4992522,-97.5796649
2920,North Lincoln Boulevard,73105,35.4993056,-97.5025770
3636,Northwest 51st Street,73112,35.5229819,-97.5821489
3632,Northwest 51st Street,73112,35.5229889,-97.5814786
2900,North Lincoln Boulevard,73105,35.4989068,-97.5027577
8991,South Portland Avenue,73159,35.3805878,-97.5806693
3512,Northwest 51st Street,73112,35.5229500,-97.5796254
1214,Northwest 18th Street,73106,35.4878242,-97.5321800
1210,Northwest 18th Street,73106,35.4878023,-97.5319097
4225,West Memorial Road,73134,35.6109035,-97.5977463
3800,South Douglas Avenue,73109,35.4269533,-97.5342270
121,Dean A McGee Avenue,73102,35.4711624,-97.5157026
7201,East 33rd Street,73013,35.6271781,-97.3787963
3601,Northwest 36th Street,73112,35.5081913,-97.5815226
4601,South Luther Road,74857,35.4195143,-97.1953594
13900,McAuley Boulevard,73134,35.6114686,-97.5970810
4708,West I-40 Service Road,73128,35.4586618,-97.6040923
4607,Southwest 29th Street,73179,35.4355622,-97.6035309
4517,Southwest 29th Street,73179,35.4355586,-97.6019337
4613,Southwest 29th Street,73179,35.4355647,-97.6040699
4533,Southwest 29th Street,73179,35.4355420,-97.6026409
4523,Southwest 29th Street,73179,35.4355422,-97.6022809
2929,South Meridian Avenue,73108,35.4357934,-97.6015488
2916,Magerus Avenue,73128,35.4358558,-97.6042826
2908,Magerus Avenue,73128,35.4362209,-97.6043008
2900,Magerus Avenue,73128,35.4364884,-97.6043131
9300,North Eastern Avenue,73131,35.5644726,-97.4774829
1620,Southwest 119th Street,73170,35.3485069,-97.5463960
13700,North Piedmont Road,73099,35.6096271,-97.7446652
721,South Meridian Avenue,73108,35.4583503,-97.6016453
7000,North Western Avenue,73116,35.5425899,-97.5292894
8704,Northwest 86th Place,73132,35.5593256,-97.6706735
3525,Northwest 50th Street,73112,35.5225449,-97.5803742
17031,North May Avenue,73012,35.6450496,-97.5688610
12860,Northwest 10th Street,73099,35.4785263,-97.7585354
705,South MacArthur Boulevard,73128,35.4585732,-97.6193880
5901,Southwest 8th Street,73128,35.4574501,-97.6196492
6340,North May Avenue,73112,35.5361390,-97.5651696
2950,West Britton Road,73120,35.5652791,-97.5686190
4700,South High Avenue,73129,35.4172824,-97.4940531
2845,Southwest 43rd Street,73119,35.4219699,-97.5650087
5541,Southeast 149th Street,73165,35.3203141,-97.4243824
5541,Southeast 149th Street,73165,35.3207264,-97.4243297
5541,Southeast 149th Street,73165,35.3203206,-97.4240462
14900,South Sooner Road,73165,35.3214115,-97.4229426
2400,Northwest 36th Street,73112,35.5067669,-97.5550400
2927,West Memorial Road,73134,35.6102667,-97.5717856
7929,Dudley Street,73169,35.3981377,-97.6520719
317,North Blackwelder Avenue,73160,35.4702756,-97.5393374
4201,South McKinley Avenue,73109,35.4227608,-97.5373381
1224,Southwest 41st Street,73109,35.4228245,-97.5379216
1616,North Kelley Avenue,73117,35.4854457,-97.4941356
7336,West Britton Road,73132,35.5647908,-97.6439340
205,Northwest 63rd Street,73116,35.5382837,-97.5160634
7819,Broadway Extension,73116,35.5506350,-97.5146350
13000,Broadway Extension,73114,35.6015623,-97.5007038
11820,North I-35 Service Road,73131,35.5903697,-97.4338077
8300,North I-35 Service Road,73131,35.5556694,-97.4533348
7300,North I-35 Service Road,73121,35.5469065,-97.4548281
2727,Northeast 63rd Street,73111,35.5376538,-97.4647636
2650,Shull Avenue,73111,35.4967747,-97.4630893
6000,South Independence Avenue,73159,35.4058588,-97.5740340
500,Central Park Drive,73105,35.5267374,-97.5081340
5405,North Lincoln Boulevard,73105,35.5248139,-97.5039796
5301,North Lincoln Boulevard,73105,35.5242457,-97.5036317
5299,North Beverly Drive,73105,35.5236644,-97.5046946
5431,North Lincoln Boulevard,73105,35.5262579,-97.5040289
5201,North Lincoln Boulevard,73105,35.5229168,-97.5034238
429,Northwest 50th Street,73105,35.5227707,-97.5047745
313,Northwest 50th Street,73105,35.5228212,-97.5060188
121,Northwest 50th Street,73105,35.5225624,-97.5089270
6316,North Kelley Avenue,73111,35.5362356,-97.4935107
6301,North Kelley Avenue,73111,35.5363408,-97.4949170
625,Northeast 36th Street,73105,35.5082163,-97.5015882
3834,North Lincoln Boulevard,73105,35.5097651,-97.5026881
3838,North Lincoln Boulevard,73105,35.5102048,-97.5027262
3839,North Lincoln Boulevard,73105,35.5098370,-97.5036745
3845,North Lincoln Boulevard,73105,35.5101545,-97.5036681
300,Northeast 9th Street,73104,35.4770764,-97.5072792
800,North Oklahoma Avenue,73104,35.4752714,-97.5099766
1920,South Prospect Avenue,73129,35.4461471,-97.4854523
1449,Southeast 25th Street,73129,35.4395624,-97.4869057
2521,South I-35 Service Road,73129,35.4399372,-97.4869988
1333,Southeast 25th Street,73129,35.4397531,-97.4873419
2300,South Prospect Avenue,73129,35.4419093,-97.4852578
3101,South I-35 Service Road,73129,35.4338290,-97.4871565
4220,West I-40 Service Road,73108,35.4592626,-97.5957403
4420,West I-40 Service Road,73108,35.4591029,-97.5999030
700,South Meridian Avenue,73108,35.4591951,-97.6003479
701,South Meridian Avenue,73108,35.4589280,-97.6018371
12200,Northwest 10th Street,73099,35.4782640,-97.7431582
10600,West Route 66,73099,35.5138371,-97.7075206
13636,North Rockwell Avenue,73142,35.6080089,-97.6377258
6700,West Memorial Road,73142,35.6072922,-97.6328531
8300,North Oklahoma Avenue,73114,35.5555596,-97.5091870
6825,Camille Avenue,73149,35.3945665,-97.4826646
2220,North Missouri Avenue,73111,35.4920562,-97.4786457
6300,North May Avenue,73112-4246,35.5349451,-97.5650395
2844,Northwest 63rd Street,73116,35.5350968,-97.5641758
1701,South Czech Hall Road,73099,35.4482160,-97.7441349
6000,North Pennsylvania Avenue,73112,35.5311706,-97.5465952
2900,Northwest Grand Boulevard,73116,35.5461201,-97.5670979
6312,North Portland Avenue,73112,35.5360323,-97.5827753
3625,Northwest Expressway,73112,35.5346952,-97.5827074
3407,Northwest Expressway,73112,35.5320687,-97.5775674
3405,Northwest Expressway,73112,35.5321094,-97.5774660
3403,Northwest Expressway,73112,35.5321493,-97.5773857
7220,Northwest 63rd Street,73008,35.5364337,-97.6419908
11516,Way Cross Road,73162,35.5859580,-97.6356266
11508,Way Cross Road,73162,35.5857048,-97.6356258
15113,Westlake Drive,73078,35.6243492,-97.7690736
600,Northwest 178th Street,73012,35.6527516,-97.5256598
1205,Northwest 178th Street,73012,35.6534262,-97.5343939
1301,Northwest 178th Street,73012,35.6537863,-97.5357020
18001,Highland Park Road,73012,35.6544644,-97.5341169
17720,Griffin Drive,73012,35.6518552,-97.5359327
1400,Northwest 178th Street,73012,35.6517845,-97.5376813
2001,Northwest 178th Street,73012,35.6543457,-97.5481195
2400,Northwest 178th Street,73012,35.6525871,-97.5557050
2720,Northwest 178th Street,73012,35.6525689,-97.5652437
14100,Northwood Drive,73078,35.6134585,-97.7615714
14817,North Rockwell Avenue,73142,35.6212222,-97.6391127
14501,North Rockwell Avenue,73142,35.6177459,-97.6392447
1000,Northwest 192nd Street,73012,35.6671289,-97.5298719
3500,Northwest 192nd Street,73012,35.6666156,-97.5790014
11600,Way Cross Road,73162,35.5862354,-97.6356358
11608,Way Cross Road,73162,35.5864813,-97.6356238
11616,Way Cross Road,73162,35.5867499,-97.6356128
11617,Way Cross Road,73162,35.5867162,-97.6361924
11609,Way Cross Road,73162,35.5864781,-97.6361672
11601,Way Cross Road,73162,35.5862334,-97.6361764
11517,Way Cross Road,73162,35.5859544,-97.6361528
11509,Way Cross Road,73162,35.5857024,-97.6361659
11400,Way Cross Road,73162,35.5849154,-97.6356209
11408,Way Cross Road,73162,35.5851670,-97.6356235
11500,Way Cross Road,73162,35.5854540,-97.6356348
11617,Richaven Road,73162,35.5866063,-97.6371199
11609,Richaven Road,73162,35.5863750,-97.6370739
11601,Richaven Road,73162,35.5861062,-97.6371259
11509,Richaven Road,73162,35.5858698,-97.6370974
11501,Richaven Road,73162,35.5856341,-97.6370973
11417,Richaven Road,73162,35.5853884,-97.6371040
11409,Richaven Road,73162,35.5851306,-97.6371007
11401,Richaven Road,73162,35.5848820,-97.6371031
11317,Richaven Road,73162,35.5846427,-97.6370879
11309,Richaven Road,73162,35.5843881,-97.6371049
11301,Richaven Road,73162,35.5841229,-97.6371173
11300,Richaven Road,73162,35.5841268,-97.6365545
11308,Richaven Road,73162,35.5844130,-97.6365513
11316,Richaven Road,73162,35.5846518,-97.6365627
11400,Richaven Road,73162,35.5849179,-97.6365582
11408,Richaven Road,73162,35.5851883,-97.6365607
11416,Richaven Road,73162,35.5854552,-97.6365663
11500,Richaven Road,73162,35.5857028,-97.6365642
11508,Richaven Road,73162,35.5859546,-97.6365756
11600,Richaven Road,73162,35.5862409,-97.6365550
11608,Richaven Road,73162,35.5864782,-97.6365681
11616,Richaven Road,73162,35.5867563,-97.6365589
11316,Way Cross Road,73162,35.5846536,-97.6356262
11308,Way Cross Road,73162,35.5843858,-97.6356194
11300,Way Cross Road,73162,35.5841196,-97.6356252
11301,Way Cross Road,73162,35.5841364,-97.6361471
11309,Way Cross Road,73162,35.5843890,-97.6361586
11317,Way Cross Road,73162,35.5846395,-97.6361548
11401,Way Cross Road,73162,35.5849390,-97.6361492
11409,Way Cross Road,73162,35.5851605,-97.6361692
11501,Way Cross Road,73162,35.5854559,-97.6361553
8917,Northwest 92nd Street,73132,35.5654092,-97.6732206
8913,Northwest 92nd Street,73132,35.5653819,-97.6730214
8909,Northwest 92nd Street,73132,35.5653863,-97.6728210
8905,Northwest 92nd Street,73132,35.5653803,-97.6726071
8901,Northwest 92nd Street,73132,35.5653835,-97.6723583
8813,Northwest 92nd Street,73132,35.5653879,-97.6721343
8809,Northwest 92nd Street,73132,35.5653851,-97.6719332
8805,Northwest 92nd Street,73132,35.5653835,-97.6717206
8800,Northwest 92nd Street,73132,35.5649722,-97.6716877
8804,Northwest 92nd Street,73132,35.5649472,-97.6719211
8808,Northwest 92nd Street,73132,35.5649586,-97.6721364
8900,Northwest 92nd Street,73132,35.5649652,-97.6723691
8904,Northwest 92nd Street,73132,35.5649630,-97.6725850
8908,Northwest 92nd Street,73132,35.5649553,-97.6728022
8801,Northwest 92nd Street,73132,35.5653904,-97.6714899
8921,Northwest 92nd Street,73132,35.5653988,-97.6734714
2800,Southwest 82nd Street,73159,35.3837219,-97.5630290
2744,Southwest 82nd Street,73159,35.3837219,-97.5628274
2740,Southwest 82nd Street,73159,35.3837160,-97.5626463
2736,Southwest 82nd Street,73159,35.3837131,-97.5624461
3217,Southwest 84th Street,73159,35.3824963,-97.5718347
3901,Southwest 29th Street,73119,35.4361813,-97.5882572
6608,North Western Avenue,73116,35.5394457,-97.5293652
7900,Mid-America Boulevard,73135,35.3878386,-97.4115613
8911,North Western Avenue,73114,35.5610871,-97.5315592
741,North Phillips Avenue,73104,35.4751329,-97.4999433
5700,South High Avenue,73129,35.4096720,-97.4943351
4800,South I,73129,35.4172506,-97.4882796
2700,North Portland Avenue,73107,35.4962799,-97.5829698
2300,Northeast 63rd Street,73111,35.5363200,-97.4713493
2533,Northwest 31st Street,73112,35.5024546,-97.5580819
4750,South I-35 Service Road,73129,35.4177837,-97.4881669
1006,Northeast 17th Street,73111,35.4866354,-97.4941472
3727,Northwest 63rd Street,73116,35.5372899,-97.5854256
3901,Northwest 63rd Street,73116,35.5372523,-97.5861451
4100,Northwest Expressway,73116,35.5373643,-97.5927399
6316,North Tulsa Avenue,73112,35.5362799,-97.5913393
3601,Northwest 63rd Street,73116,35.5375776,-97.5809804
2924,Northwest 63rd Street,73116,35.5355020,-97.5666855
2932,Northwest 63rd Street,73116,35.5354695,-97.5671390
2950,Northwest 63rd Street,73116,35.5354736,-97.5675219
3000,Northwest 63rd Street,73116,35.5355472,-97.5680203
6608,North May Avenue,73116,35.5388163,-97.5653026
6610,North May Avenue,73116,35.5388791,-97.5653023
1609,NW 39th Street,73118,35.5116593,-97.5389818
3917,Northeast 104th Street,73131,35.5777001,-97.4467428
17301,Sunny Hollow Road,73012,35.6479043,-97.5266477
7941,North May Avenue,73120,35.5523544,-97.5668778
7800,North May Avenue,73116,35.5505570,-97.5652112
7701,North May Avenue,73116,35.5497978,-97.5660323
6708,North May Avenue,73116,35.5395371,-97.5660115
7800,North May Avenue,73116,35.5504813,-97.5652110
7727,North May Avenue,73116,35.5500788,-97.5660067
11,Northwest 11th Street,73101,35.4805181,-97.5131848
7615,North May Avenue,73116,35.5482050,-97.5659856
7812,North Porter Drive,73116,35.5505057,-97.5664137
7933,North May Avenue,73120,35.5522026,-97.5667408
7931,North May Avenue,73120,35.5521533,-97.5666827
7929,North May Avenue,73120,35.5521083,-97.5666320
7927,North May Avenue,73120,35.5520600,-97.5665790
7925,North May Avenue,73120,35.5520157,-97.5665267
7923,North May Avenue,73120,35.5519687,-97.5664766
7921,North May Avenue,73120,35.5519118,-97.5664280
7919,North May Avenue,73120,35.5518606,-97.5663817
10909,Clubhouse Rd,73013,35.5838320,-97.4162029
3220,South High Avenue,73129,35.4327928,-97.4938796
3205,South High Avenue,73129,35.4331605,-97.4951016
3215,South High Avenue,73129,35.4328312,-97.4951171
10900,South Pennsylvania Avenue,73170,35.3595831,-97.5468587
7404,South May Avenue,73159,35.3926708,-97.5643901
3151,Northwest Expressway,73112,35.5302086,-97.5715933
5400,Northwest 135th Street,73142,35.6076415,-97.6144795
7407,North May Avenue,73116,35.5456937,-97.5663694
3001,North Brookline Avenue,73116,35.5457148,-97.5681129
1201,Northwest 41st Street,73118,35.5138394,-97.5323552
7501,Choctaw Road,73020,35.3904029,-97.2659623
7500,South Choctaw Road,73020,35.3900733,-97.2641681
1101,West Reno Avenue,73106,35.4647849,-97.5308007
3609,South Pennsylvania Avenue,73119,35.4284671,-97.5484544
10400,South Sooner Road,73165,35.3647828,-97.4233410
1755,North Meridian Avenue,73127,35.4877129,-97.6017303
5801 C,South Sooner Road,73135,35.4077261,-97.4243422
5801 D,South Sooner Road,73135,35.4076768,-97.4243423
5801 G,South Sooner Road,73135,35.4075074,-97.4243427
5801 H,South Sooner Road,73135,35.4074522,-97.4243428
5801 I,South Sooner Road,73135,35.4073986,-97.4243430
5801 J,South Sooner Road,73135,35.4073418,-97.4243431
"5801 K, 5801 L",South Sooner Road,73135,35.4072543,-97.4243433
5901,South Sooner Road,73135,35.4070642,-97.4243455
5913,South Sooner Road,73135,35.4069405,-97.4243457
5917,South Sooner Road,73135,35.4068889,-97.4243458
5921,South Sooner Road,73135,35.4068269,-97.4243458
5929,South Sooner Road,73135,35.4067358,-97.4243460
5937,South Sooner Road,73135,35.4066227,-97.4243462
5801 B,South Sooner Road,73135,35.4077770,-97.4243421
5801 A,South Sooner Road,73135,35.4078360,-97.4243419
"5801 E, 5801 F",South Sooner Road,73135,35.4075944,-97.4243425
5810,South Western Avenue,73109,35.4078443,-97.5295493
4300,West Reno Avenue,73107,35.4634737,-97.5973727
8317,South Western Avenue,73139,35.3830532,-97.5307124
3408,South Meridian Avenue,73119,35.4282847,-97.6005516
3200,South Meridian Avenue,73119,35.4321210,-97.6002359
3200,South Meridian Avenue,73119,35.4321084,-97.6004220
3300,South Meridian Avenue,73119,35.4309807,-97.6006907
3110,South Meridian Avenue,73119,35.4332000,-97.6006019
520,South MacArthur Boulevard,73128,35.4609382,-97.6168208
636,Southwest 31st Street,73109,35.4328515,-97.5255923
7600,Southwest 44th Street,73179,35.4142474,-97.6501769
2109,Southwest 89th Street,73159,35.3775941,-97.5498311
6728,South Hudson Avenue,73139,35.3973946,-97.5182650
5101,South Council Road,73179,35.4150507,-97.6566622
300,South Council Road,73128,35.4625208,-97.6531052
201,South May Avenue,73108,35.4639863,-97.5660105
207,South May Avenue,73108,35.4637687,-97.5659283
800,North May Avenue,73107,35.4752502,-97.5647033
800,North May Avenue,73107,35.4750448,-97.5646911
1123,North May Avenue,73107,35.4798383,-97.5659213
1307,North May Avenue,73107,35.4823782,-97.5658584
1317,North May Avenue,73107,35.4828631,-97.5658699
1411,North May Avenue,73107,35.4838757,-97.5658607
1700,North May Avenue,73107,35.4862343,-97.5652584
2901,North May Avenue,73107,35.4861986,-97.5658953
3404,North May Avenue,73112,35.5042965,-97.5649188
518,North Indiana Avenue,73106,35.4730255,-97.5404806
2115,North May Avenue,73107,35.4907192,-97.5658987
2904,Northwest 23rd Street,73107,35.4929019,-97.5660190
2908,Northwest 23rd Street,73107,35.4929029,-97.5662239
2906,Northwest 23rd Street,73107,35.4929025,-97.5661476
2700,North May Avenue,73107,35.4961492,-97.5653920
3033,North May Avenue,73107,35.5000764,-97.5660407
3106,North May Avenue,73112,35.5008701,-97.5650255
3204,North May Avenue,73112,35.5007193,-97.5651554
3204,North May Avenue,73112,35.5006377,-97.5651506
3110,North May Avenue,73112,35.5010598,-97.5650255
3101,North May Avenue,73112,35.5007071,-97.5659380
3121,North May Avenue,73112,35.5010264,-97.5663422
3125,North May Avenue,73112,35.5015916,-97.5660233
3126,North May Avenue,73112,35.5015830,-97.5650164
3217,North May Avenue,73112,35.5027704,-97.5661843
3520,North May Avenue,73112,35.5057032,-97.5652379
3415,North May Avenue,73112,35.5045165,-97.5662368
3429,North May Avenue,73112,35.5053280,-97.5662348
3608,North May Avenue,73112,35.5068947,-97.5653095
3611,North May Avenue,73112,35.5067758,-97.5660920
4100,North May Avenue,73112,35.5128933,-97.5653192
4222,North May Avenue,73112,35.5145697,-97.5650217
4220,North May Avenue,73112,35.5144575,-97.5650218
4116,North May Avenue,73112,35.5136488,-97.5653603
4621,North May Avenue,73112,35.5179423,-97.5661015
4625,North May Avenue,73112-6052,35.5186256,-97.5660257
5704,North May Avenue,73112,35.5290473,-97.5650644
5660,North May Avenue,73112,35.5288452,-97.5641030
16940,Madrid Circle,73170,35.3005375,-97.5156121
2828,Northwest 62nd Street,73112,35.5329360,-97.5640636
7124,Northwest 122nd Street,73142,35.5930616,-97.6399067
6161,North May Avenue,73112,35.5339938,-97.5661793
6163,North May Avenue,73112,35.5342967,-97.5666250
6607,North May Avenue,73116,35.5386813,-97.5660876
4201,North Lincoln Blvd,73105,35.5144151,-97.5061227
15200,Penn Crossing Ct.,73013,35.6250598,-97.5500964
8001,Southwest 74th Street,73169,35.3922503,-97.6547636
3729,South Western Avenue,73109,35.4275027,-97.5307094
2901,South Santa Fe Avenue,73160,35.3107343,-97.5166215
4495,Southwest 119th Street,73173,35.3488034,-97.5990571
6012,South Pennsylvania Avenue,73159-3302,35.4051264,-97.5475239
2135,West Memorial Road,73134,35.6111031,-97.5514555
701,Northwest 8th Street,73102,35.4765232,-97.5245718
535,Northwest 9th Street,73102,35.4770926,-97.5259233
901,Southeast 5th Street,73129,35.4607448,-97.4958858
7500,North Western Avenue,73116,35.5477787,-97.5292907
7512,North Western Avenue,73116,35.5480777,-97.5292160
3209,Thomas Road,73179,35.4324092,-97.6068342
700,Northwest 172nd Street,73012,35.6474526,-97.5264873
1000,North Broadway Avenue,73102,35.4775973,-97.5137400
7808,Southwest 87th Circle,73169,35.3783974,-97.6508270
7816,Southwest 87th Circle,73169,35.3783708,-97.6512064
7824,Southwest 87th Circle,73169,35.3787750,-97.6512321
8917,Halbrook Manor Lane,73169,35.3774396,-97.6505504
7408,North May Avenue,73116,35.5456541,-97.5651954
7402,North May Avenue,73116,35.5454957,-97.5651505
220,South Vermont Avenue,73108,35.4636190,-97.5965383
7800,Southwest 87th Circle,73169,35.3784715,-97.6503992
8808,Halbrook Manor Lane,73169,35.3777430,-97.6498387
7817,Southwest 87th Circle,73169,35.3790611,-97.6511651
7809,Southwest 87th Circle,73169,35.3790964,-97.6507243
7801,Southwest 87th Circle,73169,35.3790155,-97.6504107
8901,Halbrook Manor Lane,73169,35.3779501,-97.6504175
8909,Halbrook Manor Lane,73169,35.3776958,-97.6503897
3601,Southwest 104th Street,73159-0937,35.3641294,-97.5818623
3121,Southwest 29th Street,73119,35.4355486,-97.5715898
12020,North Mustang Road,73099,35.5912984,-97.7262904
2,South Mickey Mantle Drive,73104,35.4651293,-97.5078398
6600,Northwest Expressway,73132-4403,35.5544460,-97.6321087
4001,Northeast Grand Boulevard,73111,35.5147375,-97.4682155
2,Santa Fe Plaza,73102,35.4687195,-97.5132492
1325,North Walker Avenue,73103,35.4818213,-97.5218863
1750,East Reno Avenue,73117,35.4636051,-97.4800501
504,South Meridian,73108,35.4609655,-97.5993824
2340,Northwest 50th Street,73112,35.5217713,-97.5536916
2109,Northwest 122nd Street,77706,35.5950756,-97.5505118
123,Northeast 2nd Street,73104,35.4702070,-97.5097487
7401,South Walker Avenue,73139,35.3921604,-97.5216747
2809,West Interstate 240 Service Road,73159,35.3952176,-97.5636094
6000,North Bryant Avenue,73121,35.5327907,-97.4582242
2821,Northwest 39th Street,73112,35.5121768,-97.5648615
659,First Americans Boulevard,73129,35.4572296,-97.4812106
17031,North May Avenue,73012,35.6453617,-97.5755884
2001,East Reno Avenue,73117,35.4647042,-97.4755368
5700,North Kelley Avenue,73111,35.5303096,-97.4930467
4200,West I-40 Service Road,73108,35.4591000,-97.5952623
8300,North May Avenue,73120,35.5548309,-97.5665222
1000,North Lee Avenue,73102,35.4784211,-97.5238257
2727,Southwest 59th Street,73119,35.4067402,-97.5637348
