House number,Street name,Postal code,Latitude,Longitude
216,Courtenay Avenue,39571,30.3249115,-89.2281727
261,Clark Avenue,39571,30.3178944,-89.2495211
208,Railroad Street,39571,30.3190278,-89.2461290
204,Railroad Street,39571,30.3189926,-89.2462829
238,North Street,39571,30.3268137,-89.2467643
111,West Scenic Drive,39571,30.3140360,-89.2478110
526,E 2nd St,39571,30.3200443,-89.2361320
1617,East Beach Boulevard,39571,30.3354664,-89.1893898
1617,East Beach Boulevard,39571,30.3353771,-89.1881405
1617,East Beach Boulevard,39571,30.3355698,-89.1884453
10,Japonica Drive,39571,30.3288298,-89.2072354
10,Wen Mar Avenue,39571,30.3365809,-89.1909376
100,Hursey Avenue,39571,30.3328497,-89.2011552
100,Palm Avenue,39571,30.3345540,-89.1959717
100,Yolanda Court,39571,30.3295457,-89.2211037
1007,2nd Street,39571,30.3306138,-89.2095882
101,Hayden Avenue,39571,30.3333161,-89.1905843
101,Hursey Avenue,39571,30.3330485,-89.2007309
101,Lynn Circle,39571,30.3270580,-89.2367395
101,Yolanda Court,39571,30.3290322,-89.2211578
1011,2nd Street,39571,30.3307188,-89.2091252
1011,Beach Boulevard,39571,30.3280364,-89.2087890
1015,2nd Street,39571,30.3308289,-89.2085843
1019,2nd Street,39571,30.3309255,-89.2082873
102,Hursey Avenue,39571,30.3324865,-89.2011375
102,Lynn Circle,39571,30.3268071,-89.2363039
102,Palm Avenue,39571,30.3343356,-89.1959737
102,Yolanda Court,39571,30.3294416,-89.2212890
1020,2nd Street,39571,30.3302001,-89.2079834
1020,Demourelle Road,39571,30.3426689,-89.2116898
1022,Demourelle Road,39571,30.3408516,-89.2108633
1023,2nd Street,39571,30.3310059,-89.2078340
1025,Beach Boulevard,39571,30.3277991,-89.2077983
1027,East 2nd Street,39571,30.3311748,-89.2075521
103,Edwards Avenue,39571,30.3326801,-89.1932905
103,Espy Avenue,39571,30.3293482,-89.2043392
103,Hursey Avenue,39571,30.3325856,-89.2007624
103,Lynn Circle,39571,30.3271437,-89.2364966
103,Palm Avenue,39571,30.3344451,-89.1955048
103,Shadowlawn Avenue,39571,30.3299879,-89.1990024
103,Yolanda Court,39571,30.3289854,-89.2213390
1034,Demourelle Road,39571,30.3407439,-89.2101526
1036,Demourelle Road,39571,30.3425813,-89.2101951
104,Camelia Drive,39571,30.3295773,-89.2067936
104,Hursey Avenue,39571,30.3322071,-89.2011386
104,Lynn Circle,39571,30.3268717,-89.2360481
104,Palm Avenue,39571,30.3340605,-89.1959585
104,Wisteria Drive,39571,30.3297424,-89.2057446
104,Yolanda Court,39571,30.3293565,-89.2214811
1042,Demourelle Road,39571,30.3418690,-89.2093672
105,Alicia Street,39571,30.3329824,-89.2172612
105,Camelia Drive,39571,30.3297195,-89.2074260
105,Hursey Avenue,39571,30.3323212,-89.2007113
105,Lynn Circle,39571,30.3272159,-89.2362842
105,Palm Avenue,39571,30.3342217,-89.1954844
105,Wisteria Drive,39571,30.3294044,-89.2065526
105,Yolanda Court,39571,30.3288363,-89.2215158
1054,Demourelle Road,39571,30.3415024,-89.2087208
1056,Demourelle Road,39571,30.3409858,-89.2093120
1058,Demourelle Road,39571,30.3404769,-89.2089427
1058,Demourelle Road,39571,30.3404893,-89.2091741
106,Alicia Street,39571,30.3324993,-89.2170029
106,Hursey Avenue,39571,30.3317930,-89.2011590
106,Lynn Circle,39571,30.3269624,-89.2358173
106,Palm Avenue,39571,30.3337850,-89.1959958
106,Yolanda Court,39571,30.3293568,-89.2216971
107,Alicia Street,39571,30.3330077,-89.2170812
107,Hursey Avenue,39571,30.3319197,-89.2007027
107,Lynn Circle,39571,30.3272894,-89.2360503
107,Palm Avenue,39571,30.3339937,-89.1955179
107,Wisteria Drive,39571,30.3297951,-89.2062727
108,Francis Street,39571,30.3319206,-89.2192754
108,Hursey Avenue,39571,30.3314678,-89.2011338
108,Lynn Circle,39571,30.3270420,-89.2355903
108,Palm Avenue,39571,30.3335034,-89.1959317
108,Robinson Street,39571,30.3335164,-89.2173154
108,Wen Mar Avenue,39571,30.3342679,-89.1909335
108,Yolanda Court,39571,30.3292623,-89.2218627
109,Alicia Street,39571,30.3329886,-89.2168616
109,Hursey Avenue,39571,30.3315651,-89.2007366
109,Lynn Circle,39571,30.3273844,-89.2358317
109,Palm Avenue,39571,30.3337395,-89.1954982
109,Wisteria Drive,39571,30.3300781,-89.2062757
109,Yolanda Court,39571,30.3289044,-89.2219429
11,Japonica Drive,39571,30.3286127,-89.2079957
11,Wen Mar Avenue,39571,30.3364671,-89.1914165
110,Alicia Street,39571,30.3325748,-89.2166387
110,Hayden Avenue,39571,30.3351734,-89.1901055
110,Hursey Avenue,39571,30.3310533,-89.2011472
110,Lynn Circle,39571,30.3271177,-89.2353542
110,Wisteria Drive,39571,30.3303395,-89.2057649
110,Yolanda Court,39571,30.3290793,-89.2219956
1101,2nd Street,39571,30.3313227,-89.2071457
1102,Demourelle Road,39571,30.3414357,-89.2079653
1104,Demourelle Road,39571,30.3410629,-89.2081280
1105,2nd Street,39571,30.3315269,-89.2063449
1106,Demourelle Road,39571,30.3423899,-89.2080024
1108,Demourelle Road,39571,30.3406101,-89.2080689
111,Alicia Street,39571,30.3330557,-89.2163620
111,Camelia Drive,39571,30.3301631,-89.2073981
111,Hursey Avenue,39571,30.3312224,-89.2006909
111,Lynn Circle,39571,30.3274458,-89.2356109
111,Menge Avenue,39571,30.3260555,-89.2182569
111,Palm Avenue,39571,30.3334858,-89.1955126
111,Wen Mar Avenue,39571,30.3347017,-89.1913432
111,Wisteria Drive,39571,30.3302482,-89.2062709
1118,Demourelle Road,39571,30.3429555,-89.2069897
112,Alicia Street,39571,30.3326711,-89.2163869
112,Lynn Circle,39571,30.3272095,-89.2351227
112,Shadow Lawn Avenue,39571,30.3310041,-89.1996437
112,Wen Mar Avenue,39571,30.3347509,-89.1909735
1122,Demourelle Road,39571,30.3420964,-89.2068406
113,Alicia Street,39571,30.3329991,-89.2161364
113,Elva Avenue,39571,30.3332734,-89.1941858
113,Lynn Circle,39571,30.3275314,-89.2353889
113,Wisteria Drive,39571,30.3306225,-89.2062899
114,Alicia Street,39571,30.3325915,-89.2162581
114,Camelia Drive,39571,30.3299710,-89.2067881
114,Lynn Circle,39571,30.3273802,-89.2349410
114,Menge Avenue,39571,30.3262500,-89.2177819
115,Alicia Street,39571,30.3330140,-89.2159463
115,Camelia Drive,39571,30.3303714,-89.2074305
115,Edward Drive,39571,30.3338723,-89.1932144
115,Wisteria Drive,39571,30.3308749,-89.2063666
116,Alicia Street,39571,30.3325785,-89.2160741
116,Camelia Drive,39571,30.3302863,-89.2068228
116,Lynn Circle,39571,30.3276291,-89.2349571
116,Shadow Lawn Avenue,39571,30.3316669,-89.1996723
116,Wen Mar Avenue,39571,30.3352003,-89.1909512
117,Alicia Street,39571,30.3330514,-89.2156548
117,Hayden Avenue,39571,30.3351856,-89.1906124
117,Wen Mar Avenue,39571,30.3351070,-89.1913604
118,Alicia Street,39571,30.3327038,-89.2159585
118,Camelia Drive,39571,30.3305149,-89.2068166
118,Elva Drive,39571,30.3341144,-89.1936531
118,Lynn Circle,39571,30.3278341,-89.2349926
118,Shadow Lawn Avenue,39571,30.3318466,-89.1996440
118,Wen Mar Avenue,39571,30.3354389,-89.1909482
119,Edwards Avenue,39571,30.3342363,-89.1932164
119,Espy Avenue,39571,30.3302382,-89.2044242
119,Hayden Avenue,39571,30.3353045,-89.1905678
119,Shadow Lawn Avenue,39571,30.3319314,-89.1990171
119,Wen Mar Avenue,39571,30.3353394,-89.1913826
12,Wen Mar Avenue,39571,30.3368393,-89.1908990
120,Edwards Avenue,39571,30.3342332,-89.1927416
120,Elva Drive,39571,30.3343841,-89.1936420
120,Lynn Circle,39571,30.3280382,-89.2350298
120,Shadow Lawn Avenue,39571,30.3321004,-89.1996791
120,Wen Mar Avenue,39571,30.3356850,-89.1909150
120,Wisteria Drive,39571,30.3308407,-89.2057161
1201,2nd Street,39571,30.3319139,-89.2058526
121,Edwards Avenue,39571,30.3344167,-89.1931948
121,Espy Avenue,39571,30.3305175,-89.2043570
121,Hayden Avenue,39571,30.3355404,-89.1906065
121,Shadow Lawn Avenue,39571,30.3322692,-89.1990712
121,Wen Mar Avenue,39571,30.3355710,-89.1913472
1215,2nd Street,39571,30.3319454,-89.2053650
1215,Beach Boulevard,39571,30.3305887,-89.2053910
1217,2nd Street,39571,30.3321334,-89.2049487
1217,Beach Boulevard,39571,30.3297174,-89.2048229
1218,2nd Street,39571,30.3311775,-89.2053071
1219,2nd Street,39571,30.3322037,-89.2046457
122,Shadow Lawn Avenue,39571,30.3324073,-89.1997287
1220,2nd Street,39571,30.3311429,-89.2049540
1221,2nd Street,39571,30.3322440,-89.2043711
1222,2nd Street,39571,30.3312919,-89.2046378
123,Edwards Avenue,39571,30.3346298,-89.1932008
123,Hayden Avenue,39571,30.3357543,-89.1905929
123,Holiday Drive,39571,30.3336436,-89.1876041
123,Wen Mar Avenue,39571,30.3358074,-89.1913541
124,Edwards Avenue,39571,30.3344739,-89.1926981
124,Elva Drive,39571,30.3347142,-89.1937195
124,Shadow Lawn Avenue,39571,30.3326448,-89.1997269
124,Wen Mar Avenue,39571,30.3360334,-89.1909191
125,Edwards Avenue,39571,30.3348320,-89.1932089
125,Eleanor Drive,39571,30.3335596,-89.1950887
125,Hayden Avenue,39571,30.3360431,-89.1906002
125,Shadow Lawn Avenue,39571,30.3328201,-89.1990153
125,Shadow Lawn Avenue,39571,30.3325549,-89.1990491
125,Victoria Lane,39571,30.3310540,-89.2026759
126,Elva Drive,39571,30.3349390,-89.1936633
126,Shadow Lawn Avenue,39571,30.3329178,-89.1996447
127,Eleanor Drive,39571,30.3337948,-89.1950863
127,Elva Drive,39571,30.3345515,-89.1941420
127,Shadow Lawn Avenue,39571,30.3331152,-89.1990194
127,Victoria Lane,39571,30.3313105,-89.2027157
128,Least Tern Drive,39571,30.3295798,-89.1984360
128,Shadow Lawn Avenue,39571,30.3331935,-89.1996873
128,Wisteria Drive,39571,30.3310234,-89.2057750
129,Edwards Avenue,39571,30.3350488,-89.1932192
13,Wen Mar Avenue,39571,30.3367239,-89.1913943
130,Edwards Avenue,39571,30.3347873,-89.1927683
130,Shadow Lawn Avenue,39571,30.3333991,-89.1996582
130,Wisteria Drive,39571,30.3312433,-89.2057514
1300,2nd Street,39571,30.3317914,-89.2039416
1301,2nd Street,39571,30.3324357,-89.2039399
1302,2nd Street,39571,30.3319013,-89.2036545
1303,2nd Street,39571,30.3325689,-89.2036672
1304,2nd Street,39571,30.3319474,-89.2033836
1305,2nd Street,39571,30.3326505,-89.2033577
1307,2nd Street,39571,30.3327336,-89.2030723
1309,2nd Street,39571,30.3327997,-89.2027875
131,Eleanor Drive,39571,30.3341206,-89.1950757
1311,2nd Street,39571,30.3329832,-89.2025141
1314,2nd Street,39571,30.3322180,-89.2027636
1315,2nd Street,39571,30.3332884,-89.2019944
132,Edwards Avenue,39571,30.3352112,-89.1927289
132,Eleanor Drive,39571,30.3342235,-89.1945587
133,Alicia Street,39571,30.3330358,-89.2153031
133,Eleanor Drive,39571,30.3343104,-89.1950552
1332,2nd Street,39571,30.3321720,-89.2015447
1339,2nd Street,39571,30.3333262,-89.2015659
134,Victoria Lane,39571,30.3320847,-89.2020081
1349,2nd Street,39571,30.3333303,-89.2011284
135,Alicia Street,39571,30.3330409,-89.2151051
135,Eleanor Drive,39571,30.3344849,-89.1950483
1351,2nd Street,39571,30.3334248,-89.2006981
1353,2nd Street,39571,30.3335898,-89.2004059
1356,2nd Street,39571,30.3330911,-89.2003586
136,Edwards Avenue,39571,30.3354449,-89.1926919
136,Eleanor Drive,39571,30.3346056,-89.1945547
1360,2nd Street,39571,30.3324290,-89.2003385
137,Spence Drive,39571,30.3320211,-89.1984458
1397,2nd Street,39571,30.3338140,-89.1998344
1399,2nd Street,39571,30.3339000,-89.1995888
14,Wen Mar Avenue,39571,30.3369139,-89.1905861
1400,2nd Street,39571,30.3335676,-89.1990187
1401,2nd Street,39571,30.3340370,-89.1991055
1402,2nd Street,39571,30.3335488,-89.1986675
1403,2nd Street,39571,30.3341844,-89.1987754
1405,2nd Street,39571,30.3342648,-89.1984878
1406,2nd Street,39571,30.3339103,-89.1978971
1407,2nd Street,39571,30.3343850,-89.1981581
1408,2nd Street,39571,30.3339802,-89.1974736
1409,2nd Street,39571,30.3345010,-89.1977828
1410,2nd Street,39571,30.3337399,-89.1970027
1413,2nd Street,39571,30.3349061,-89.1971793
1415,2nd Street,39571,30.3349097,-89.1968497
1417,2nd Street,39571,30.3349691,-89.1965738
1419,2nd Street,39571,30.3349941,-89.1963257
142,Espy Avenue,39571,30.3305209,-89.2038392
1421,2nd Street,39571,30.3350415,-89.1960998
1423,2nd Street,39571,30.3351315,-89.1957502
1425,2nd Street,39571,30.3353234,-89.1954650
1427,2nd Street,39571,30.3352937,-89.1951344
143,Spence Drive,39571,30.3322888,-89.1983551
144,Espy Avenue,39571,30.3307667,-89.2038347
144,Spence Drive,39571,30.3325132,-89.1977483
145,Spence Drive,39571,30.3325693,-89.1983877
146,Espy Avenue,39571,30.3310165,-89.2038522
147,Holiday Drive,39571,30.3361375,-89.1876252
1478,Second Street,39571,30.3347402,-89.1954831
148,Espy Avenue,39571,30.3312639,-89.2038544
1480,2nd Street,39571,30.3348358,-89.1950681
149,Holiday Drive,39571,30.3363085,-89.1876013
149,Spence Drive,39571,30.3328294,-89.1983509
150,Espy Avenue,39571,30.3315171,-89.2038820
150,Spence Drive,39571,30.3328001,-89.1977769
1500,2nd Street,39571,30.3349411,-89.1946001
1501,2nd Street,39571,30.3354953,-89.1945707
1501,Beach Boulevard,39571,30.3307521,-89.1939720
1501,East 2nd Street,39571,30.3358925,-89.1944424
1502,2nd Street,39571,30.3348719,-89.1944316
1504,2nd Street,39571,30.3350516,-89.1942736
1506,2nd Street,39571,30.3350722,-89.1940817
1508,2nd Street,39571,30.3352502,-89.1936100
1509,2nd Street,39571,30.3357868,-89.1936635
151,Holiday Drive,39571,30.3364769,-89.1876013
1512,2nd Street,39571,30.3353718,-89.1932158
1514,Ellis Drive,39571,30.3328785,-89.1913162
152,Spence Drive,39571,30.3330663,-89.1975401
1523,2nd Street,39571,30.3356634,-89.1941176
153,Holiday Drive,39571,30.3366492,-89.1876093
153,Spence Drive,39571,30.3330924,-89.1985734
155,Holiday Drive,39571,30.3368227,-89.1876151
1550,2nd Street,39571,30.3352454,-89.1922191
1551,2nd Street,39571,30.3361070,-89.1926946
1553,Railroad Street,39571,30.3384668,-89.1903044
1555,West 2nd Street,39571,30.3362027,-89.1923646
1558,2nd Street,39571,30.3357057,-89.1917500
1560,2nd Street,39571,30.3360279,-89.1913818
1565,Railroad Street,39571,30.3384674,-89.1896396
1569,Railroad Street,39571,30.3396283,-89.1893663
157,Holiday Drive,39571,30.3369985,-89.1876780
157,Spence Drive,39571,30.3332978,-89.1981133
1571,2nd Street,39571,30.3366721,-89.1905985
1571,West Railroad Street,39571,30.3385409,-89.1894394
1572,2nd Street,39571,30.3362495,-89.1905967
1573,2nd Street,39571,30.3369595,-89.1902060
1573,Railroad Street,39571,30.3392277,-89.1892685
1575,Railroad Street,39571,30.3386471,-89.1889165
1577,2nd Street,39571,30.3370365,-89.1896670
1577,Railroad Street,39571,30.3392318,-89.1889175
1579,2nd Street,39571,30.3372952,-89.1892918
158,Spence Drive,39571,30.3333822,-89.1974819
1581,2nd Street,39571,30.3375280,-89.1887385
1583,2nd Street,39571,30.3375967,-89.1885020
1585,2nd Street,39571,30.3377111,-89.1882669
1587,Railroad Street,39571,30.3389602,-89.1881879
1589,2nd Street,39571,30.3377997,-89.1880058
159,Holiday Drive,39571,30.3371952,-89.1876320
1592,2nd Street,39571,30.3378558,-89.1876914
1598,2nd Street,39571,30.3378965,-89.1873492
16,Wen Mar Avenue,39571,30.3371384,-89.1904870
160,Spence Drive,39571,30.3336485,-89.1974653
161,Spence Drive,39571,30.3335638,-89.1979138
17,Wen Mar Avenue,39571,30.3371639,-89.1912426
19,Wen Mar Avenue,39571,30.3372253,-89.1910446
2,Hurricane Circle,39571,30.3305315,-89.2320522
2,Nelson Lane,39571,30.3288337,-89.2079861
2,Park Lane,39571,30.3301126,-89.2086541
200,Lynn Circle,39571,30.3274328,-89.2369646
201,Edwards Avenue,39571,30.3362211,-89.1932068
201,Lynn Circle,39571,30.3278206,-89.2370918
201,Tarpon Cove,39571,30.3362548,-89.1921202
202,Elva Drive,39571,30.3360822,-89.1936515
202,Espy Avenue,39571,30.3330153,-89.2036992
202,Francis Street,39571,30.3320025,-89.2215549
202,Lynn Circle,39571,30.3275298,-89.2366678
203,Alicia Street,39571,30.3333447,-89.2146553
203,Eleanor Drive,39571,30.3355735,-89.1950651
203,Elva Drive,39571,30.3359134,-89.1941394
203,Lynn Circle,39571,30.3279094,-89.2367993
203,Tarpon Cove,39571,30.3368480,-89.1920816
204,Francis Street,39571,30.3320161,-89.2213729
204,Lynn Circle,39571,30.3275947,-89.2364388
205,Edwards Avenue,39571,30.3364929,-89.1932206
205,Eleanor Drive,39571,30.3357989,-89.1956064
205,Eleanor Drive,39571,30.3358693,-89.1950995
205,Elva Drive,39571,30.3361640,-89.1941461
205,Espy Avenue,39571,30.3327032,-89.2043772
205,Lynn Circle,39571,30.3280449,-89.2365914
205,Menge Avenue,39571,30.3282216,-89.2183508
205,Shadow Lawn Avenue,39571,30.3344715,-89.1991005
205,Tarpon Cove,39571,30.3369089,-89.1917677
206,Edwards Avenue,39571,30.3364948,-89.1927527
206,Eleanor Drive,39571,30.3360295,-89.1946291
206,Elva Drive,39571,30.3363304,-89.1936486
206,Lynn Circle,39571,30.3276745,-89.2362196
207,Francis Street,39571,30.3324137,-89.2211418
207,Lynn Circle,39571,30.3280868,-89.2363258
207,Tarpon Cove,39571,30.3364068,-89.1917011
208,Francis Street,39571,30.3319904,-89.2209944
208,Hursey Avenue,39571,30.3336575,-89.2011412
208,Lynn Circle,39571,30.3277465,-89.2360020
209,Lynn Circle,39571,30.3281360,-89.2360874
21,Wen Mar Avenue,39571,30.3373392,-89.1906929
210,Francis Street,39571,30.3319627,-89.2208652
210,Hursey Avenue,39571,30.3339560,-89.2009270
210,Lynn Circle,39571,30.3278265,-89.2357854
211,Lynn Circle,39571,30.3282405,-89.2358541
212,Francis Street,39571,30.3316967,-89.2203183
212,Hursey Avenue,39571,30.3341076,-89.2005915
212,Lynn Circle,39571,30.3278933,-89.2355462
213,Lynn Circle,39571,30.3282906,-89.2356127
214,Francis Street,39571,30.3319681,-89.2200581
214,Hursey Avenue,39571,30.3340169,-89.2003787
215,Lynn Circle,39571,30.3283524,-89.2353597
217,Lynn Circle,39571,30.3282630,-89.2351087
227,Camelia Drive,39571,30.3306406,-89.2074087
230,Camelia Drive,39571,30.3308082,-89.2067542
233,Camelia Drive,39571,30.3316730,-89.2070050
234,Camelia Drive,39571,30.3321886,-89.2062494
3,Laudeac Court,39571,30.3292130,-89.2225875
3,Park Lane,39571,30.3297879,-89.2086480
300,Courtenay Avenue,39571,30.3268863,-89.2278058
302,Espy Avenue,39571,30.3339719,-89.2037754
302,Espy Avenue,39571,30.3339782,-89.2044444
303,Espy Avenue,39571,30.3337833,-89.2044196
303,Lorraine Avenue,39571,30.3278735,-89.2219993
303,Marie Circle,39571,30.3259998,-89.2349857
304,Espy Avenue,39571,30.3341724,-89.2038046
305,Lorraine Avenue,39571,30.3280528,-89.2219983
306,Lorraine Avenue,39571,30.3280918,-89.2215326
307,Lorraine Avenue,39571,30.3282591,-89.2220008
307,Menge Avenue,39571,30.3297640,-89.2184051
308,Espy Avenue,39571,30.3345658,-89.2037938
308,Lorraine Avenue,39571,30.3281584,-89.2213306
309,Espy Avenue,39571,30.3343743,-89.2044493
309,Lorraine Avenue,39571,30.3284314,-89.2218403
310,Espy Avenue,39571,30.3347452,-89.2038425
310,Lorraine Avenue,39571,30.3282181,-89.2211656
311,Espy Avenue,39571,30.3345635,-89.2044792
311,Lorraine Avenue,39571,30.3284709,-89.2216402
312,Lorraine Avenue,39571,30.3282257,-89.2209536
312,Menge Avenue,39571,30.3301797,-89.2175803
312,Oak Park Drive,39571,30.3258031,-89.2354883
313,Espy Avenue,39571,30.3347507,-89.2044546
313,Lorraine Avenue,39571,30.3285366,-89.2214281
314,Lorraine Avenue,39571,30.3282853,-89.2207695
315,Espy Avenue,39571,30.3349338,-89.2044403
315,Lorraine Avenue,39571,30.3285816,-89.2212559
315,Menge Avenue,39571,30.3305772,-89.2187329
316,Lorraine Avenue,39571,30.3284353,-89.2206538
317,Espy Avenue,39571,30.3351382,-89.2044441
317,Lorraine Avenue,39571,30.3287134,-89.2211022
317,Mcdonald Drive,39571,30.3264529,-89.2359260
317,Menge Avenue,39571,30.3308248,-89.2183635
318,Lorraine Avenue,39571,30.3285981,-89.2206260
319,Mcdonald Drive,39571,30.3265450,-89.2357098
319,Menge Avenue,39571,30.3309947,-89.2184276
321,Mcdonald Drive,39571,30.3268104,-89.2349974
321,Mcdonald Drive,39571,30.3269706,-89.2347522
322,Lorraine Avenue,39571,30.3289453,-89.2206573
322,Menge Avenue,39571,30.3314516,-89.2177040
323,Lang Avenue,39571,30.3281759,-89.2234034
323,Mcdonald Drive,39571,30.3266263,-89.2354881
323,Menge Avenue,39571,30.3312770,-89.2183566
323,Oak Park Avenue,39571,30.3259201,-89.2365417
324,Lorraine Avenue,39571,30.3291112,-89.2206710
324,Oak Park Drive,39571,30.3262497,-89.2362778
325,Lang Avenue,39571,30.3283648,-89.2233462
325,Menge Avenue,39571,30.3313970,-89.2183668
325,Oak Park Avenue,39571,30.3261535,-89.2368055
326,Lang Avenue,39571,30.3284844,-89.2227706
326,Lorraine Avenue,39571,30.3292804,-89.2206599
326,Menge Avenue,39571,30.3317326,-89.2177485
326,Oak Park Drive,39571,30.3264111,-89.2364631
327,Courtenay Avenue,39571,30.3264164,-89.2288327
327,Menge Avenue,39571,30.3317513,-89.2184450
328,Lang Avenue,39571,30.3287128,-89.2229170
328,Lorraine Avenue,39571,30.3294485,-89.2206695
328,Menge Avenue,39571,30.3320487,-89.2178215
330,Lorraine Avenue,39571,30.3296188,-89.2206619
330,Menge Avenue,39571,30.3323728,-89.2177964
330,Rosehart Avenue,39571,30.3323577,-89.2195280
331,Lang Avenue,39571,30.3291691,-89.2233071
331,Lorraine Avenue,39571,30.3298608,-89.2211406
332,Lang Avenue,39571,30.3291369,-89.2228775
332,Lorraine Avenue,39571,30.3297871,-89.2206777
332,Menge Avenue,39571,30.3331590,-89.2177850
332,Menge Avenue,39571,30.3365491,-89.2186925
332,Rosehart Avenue,39571,30.3326216,-89.2194534
333,Lang Avenue,39571,30.3293991,-89.2236697
333,Menge Avenue,39571,30.3326409,-89.2186538
333,Rosehart Avenue,39571,30.3326087,-89.2201027
334,Lang Avenue,39571,30.3293267,-89.2228734
334,Lorraine Avenue,39571,30.3299545,-89.2206872
334,Rosehart Avenue,39571,30.3329047,-89.2194533
335,Courtenay Avenue,39571,30.3278126,-89.2288719
335,Menge Avenue,39571,30.3331065,-89.2186927
335,Rebecca Avenue,39571,30.3297276,-89.2213898
335,Rosehart Avenue,39571,30.3328712,-89.2200072
336,Lorraine Avenue,39571,30.3301184,-89.2206968
337,Menge Avenue,39571,30.3334401,-89.2185133
337,Rebecca Avenue,39571,30.3296644,-89.2216045
338,Lorraine Avenue,39571,30.3302866,-89.2207028
338,Rosehart Avenue,39571,30.3335121,-89.2193578
339,Courtney Avenue,39571,30.3280087,-89.2288531
339,Lorraine Avenue,39571,30.3304438,-89.2211574
339,Rebecca Avenue,39571,30.3296351,-89.2218289
339,Rosehart Avenue,39571,30.3333742,-89.2200078
340,Lang Avenue,39571,30.3296790,-89.2228999
340,Lorraine Avenue,39571,30.3304589,-89.2206792
340,Menge Avenue,39571,30.3336009,-89.2178045
341,Courtenay Avenue,39571,30.3282149,-89.2287682
341,Lorraine Avenue,39571,30.3306362,-89.2211565
341,Menge Avenue,39571,30.3340071,-89.2185404
341,Rebecca Avenue,39571,30.3298459,-89.2219832
341,Rosehart Avenue,39571,30.3334696,-89.2203751
341,Rosehart Avenue,39571,30.3334594,-89.2201684
342,Lang Avenue,39571,30.3298550,-89.2228917
342,Lorraine Avenue,39571,30.3306305,-89.2207066
342,Menge Avenue,39571,30.3338963,-89.2177432
342,Rebecca Avenue,39571,30.3302479,-89.2211524
343,Lorraine Avenue,39571,30.3308370,-89.2211539
343,Menge Avenue,39571,30.3343503,-89.2185406
343,Rebecca Avenue,39571,30.3300471,-89.2220123
343,Rosehart Avenue,39571,30.3339687,-89.2201752
344,Lorraine Avenue,39571,30.3307938,-89.2206892
344,Menge Avenue,39571,30.3343408,-89.2171922
344,Menge Avenue,39571,30.3343429,-89.2178631
345,Lorraine Avenue,39571,30.3310334,-89.2211731
345,Menge Avenue,39571,30.3345995,-89.2184967
345,Rebecca Avenue,39571,30.3302241,-89.2219865
346,Lorraine Avenue,39571,30.3309616,-89.2206926
346,Menge Avenue,39571,30.3325742,-89.2177847
346,Rosehart Avenue,39571,30.3338942,-89.2194024
347,Menge Avenue,39571,30.3348479,-89.2185773
347,Rebecca Avenue,39571,30.3303972,-89.2219685
347,Rosehart Avenue,39571,30.3341582,-89.2201110
348,Lorraine Avenue,39571,30.3311308,-89.2206927
348,Rebecca Avenue,39571,30.3302167,-89.2215149
349,Lang Avenue,39571,30.3325267,-89.2233906
349,Rebecca Avenue,39571,30.3305622,-89.2219841
349,Rosehart Avenue,39571,30.3344424,-89.2201433
350,Lang Avenue,39571,30.3325711,-89.2228867
350,Lorraine Avenue,39571,30.3312952,-89.2206473
350,Rebecca Avenue,39571,30.3304374,-89.2215003
350,Rosehart Avenue,39571,30.3345128,-89.2192740
351,Lorraine Avenue,39571,30.3312219,-89.2211567
351,Rebecca Avenue,39571,30.3307301,-89.2219836
351,Rosehart Avenue,39571,30.3347036,-89.2201467
352,Lorraine Avenue,39571,30.3314832,-89.2206954
352,Menge Avenue,39571,30.3350106,-89.2177913
352,Rebecca Avenue,39571,30.3306306,-89.2215018
353,Lang Avenue,39571,30.3331679,-89.2233887
353,Rebecca Avenue,39571,30.3308981,-89.2219828
353,Rebecca Avenue,39571,30.3308297,-89.2215099
354,Lang Avenue,39571,30.3331522,-89.2228843
354,Lorraine Avenue,39571,30.3315984,-89.2209091
354,Rosehart Avenue,39571,30.3351602,-89.2194678
355,Lang Avenue,39571,30.3333822,-89.2234249
355,Menge Avenue,39571,30.3354856,-89.2185746
355,Rebecca Avenue,39571,30.3310673,-89.2219882
355,Rosehart Avenue,39571,30.3349846,-89.2201720
356,Lorraine Avenue,39571,30.3316247,-89.2211366
356,Rebecca Avenue,39571,30.3310287,-89.2215140
356,Rosehart Avenue,39571,30.3354773,-89.2193529
357,Menge Avenue,39571,30.3356464,-89.2185702
357,Rebecca Avenue,39571,30.3312333,-89.2219805
357,Rosehart Avenue,39571,30.3354084,-89.2202631
358,Lang Avenue,39571,30.3335420,-89.2229257
358,Lorraine Avenue,39571,30.3316253,-89.2213498
358,Rebecca Avenue,39571,30.3312173,-89.2215119
359,Lang Avenue,39571,30.3335724,-89.2234791
359,Rebecca Avenue,39571,30.3314064,-89.2219989
360,Lorraine Avenue,39571,30.3316379,-89.2215400
361,Courtenay Avenue,39571,30.3297696,-89.2288397
361,Rebecca Avenue,39571,30.3315671,-89.2219910
363,Rebecca Avenue,39571,30.3317357,-89.2219789
365,Courtenay Avenue,39571,30.3300797,-89.2288107
365,Rebecca Avenue,39571,30.3319048,-89.2219828
367,Rebecca Avenue,39571,30.3320722,-89.2219978
370,Lang Avenue,39571,30.3343433,-89.2232918
375,Courtenay Avenue,39571,30.3312940,-89.2289971
4,Laudeac Court,39571,30.3293476,-89.2223827
4,Park Lane,39571,30.3295162,-89.2085364
401,Oak Park Drive,39571,30.3269522,-89.2372272
403,Oak Park Drive,39571,30.3271987,-89.2373275
405,Oak Park Drive,39571,30.3274065,-89.2374255
407,Rosehart Avenue,39571,30.3366477,-89.2201062
5,Laudeac Court,39571,30.3296731,-89.2223773
5,Park Lane,39571,30.3291640,-89.2085164
501,Espy Avenue,39571,30.3402485,-89.2065210
502,Espy Avenue,39571,30.3387822,-89.2025871
507,Oak Park Drive,39571,30.3276065,-89.2375025
52,Jones Road,39571,30.3387410,-89.2147375
538,Menge Avenue,39571,30.3423934,-89.2161214
6,Laudeac Court,39571,30.3297619,-89.2225862
6,Nelson Lane,39571,30.3290463,-89.2081946
6,Park Lane,39571,30.3290016,-89.2088301
614,East North Street,39571,30.3310403,-89.2332010
616,East North Street,39571,30.3297871,-89.2329482
621,North Street,39571,30.3318283,-89.2349313
621,North Street,39571,30.3313155,-89.2347387
7,Japonica Drive,39571,30.3283557,-89.2080174
7,Nelson Lane,39571,30.3294758,-89.2078324
7,Park Lane,39571,30.3295608,-89.2092169
703,North Street,39571,30.3333190,-89.2286096
707,North Street,39571,30.3344623,-89.2279684
713,North Street,39571,30.3344759,-89.2273567
727,North Street,39571,30.3352714,-89.2265667
743,East North Street,39571,30.3358858,-89.2246369
743,North Street,39571,30.3353928,-89.2252698
749,2nd Street,39571,30.3250162,-89.2247474
755,2nd Street,39571,30.3250336,-89.2241474
759,2nd Street,39571,30.3251032,-89.2237709
760,Lang Avenue,39571,30.3273886,-89.2233025
799,2nd Street,39571,30.3264413,-89.2237589
8,Park Lane,39571,30.3298544,-89.2092206
800,Francis Street,39571,30.3319987,-89.2228809
800,Red Fox Lane,39571,30.3339238,-89.2230788
801,2nd Street,39571,30.3261019,-89.2229952
802,Deer Lane,39571,30.3325398,-89.2226465
802,Red Fox Road,39571,30.3340241,-89.2228005
803,Lang Avenue,39571,30.3337163,-89.2229951
804,Red Fox Road,39571,30.3340787,-89.2225691
805,Deer Lane,39571,30.3329516,-89.2225507
805,Railroad Street,39571,30.3274300,-89.2227726
805,Red Fox Road,39571,30.3344397,-89.2228410
806,Deer Lane,39571,30.3324486,-89.2222003
807,Red Fox Road,39571,30.3345297,-89.2226632
808,Deer Lane,39571,30.3325090,-89.2219299
809,Railroad Street,39571,30.3275014,-89.2225986
809,Red Fox Road,39571,30.3345877,-89.2224173
810,Red Fox Road,39571,30.3342876,-89.2219369
811,Red Fox Road,39571,30.3346357,-89.2221913
812,Deer Lane,39571,30.3329291,-89.2219707
812,Red Fox Road,39571,30.3345097,-89.2219650
813,Railroad Street,39571,30.3275657,-89.2223714
816,Deer Lane,39571,30.3333451,-89.2219586
817,Deer Lane,39571,30.3336220,-89.2225309
818,Deer Lane,39571,30.3336040,-89.2219430
819,2nd Street,39571,30.3265209,-89.2220490
819,Deer Lane,39571,30.3338032,-89.2223422
820,Deer Lane,39571,30.3337664,-89.2220387
820,Francis Street,39571,30.3319160,-89.2205548
821,2nd Street,39571,30.3266549,-89.2217569
823,2nd Street,39571,30.3268544,-89.2213053
831,2nd Street,39571,30.3270889,-89.2206963
837,2nd Street,39571,30.3269335,-89.2203368
837,2nd Street,39571,30.3271692,-89.2200789
845,East 2nd Street,39571,30.3273041,-89.2196539
845,East 2nd Street,39571,30.3274327,-89.2194185
855,Scenic Drive,39571,30.3249111,-89.2188293
857,2nd Street,39571,30.3274211,-89.2188771
858,2nd Street,39571,30.3269098,-89.2185310
859,2nd Street,39571,30.3275005,-89.2184362
861,Beach Boulevard,39571,30.3252149,-89.2183697
880,North Street,39571,30.3355004,-89.2200588
883,East North Street,39571,30.3360689,-89.2196298
884,North Street,39571,30.3357081,-89.2194943
885,North Street,39571,30.3362123,-89.2193992
891,North Street,39571,30.3365674,-89.2191290
9,Nelson Lane,39571,30.3296457,-89.2081663
901,Scenic Drive,39571,30.3252551,-89.2177914
901,Scenic Drive,39571,30.3259921,-89.2177078
904,Francis Street,39571,30.3319313,-89.2172633
905,2nd Street,39571,30.3276842,-89.2178306
907,2nd Street,39571,30.3285353,-89.2172042
910,Bent Tree Circle,39571,30.3417508,-89.2148872
910,Park Circle,39571,30.3349671,-89.2169522
911,2nd Street,39571,30.3286673,-89.2165615
911,Bent Tree Circle,39571,30.3419387,-89.2148246
912,Bent Tree Circle,39571,30.3415140,-89.2148154
913,2nd Street,39571,30.3288564,-89.2162593
913,Bent Tree Circle,39571,30.3419705,-89.2144665
914,Bent Tree Circle,39571,30.3414457,-89.2145537
914,Demourelle Road,39571,30.3421818,-89.2146649
914,Demourelle Road,39571,30.3424097,-89.2144259
914,Park Drive,39571,30.3351538,-89.2164229
915,2nd Street,39571,30.3288461,-89.2159956
915,Bent Tree Circle,39571,30.3419436,-89.2141568
915,Robinson Street,39571,30.3341136,-89.2161857
915,Scenic Drive,39571,30.3258554,-89.2169286
916,Park Drive,39571,30.3350043,-89.2163113
917,2nd Street,39571,30.3287508,-89.2157681
919,2nd Street,39571,30.3287882,-89.2155827
919,Scenic Drive,39571,30.3259209,-89.2163295
920,Bent Tree Circle,39571,30.3414938,-89.2138466
921,Bent Tree Circle,39571,30.3421922,-89.2131050
922,Bent Tree Circle,39571,30.3417705,-89.2131050
923,Scenic Drive,39571,30.3260472,-89.2157587
925,Scenic Drive,39571,30.3264250,-89.2152311
927,Scenic Drive,39571,30.3261899,-89.2148762
935,Autumnwood Court,39571,30.3423291,-89.2139317
937,2nd Street,39571,30.3290553,-89.2143540
937,Autumnwood Court,39571,30.3425723,-89.2139466
939,Scenic Drive,39571,30.3263167,-89.2145825
943,Scenic Drive,39571,30.3263363,-89.2143604
944,Autumnwood Court,39571,30.3424498,-89.2134319
946,Autumnwood Court,39571,30.3427057,-89.2133841
947,Scenic Drive,39571,30.3265878,-89.2139798
950,Autumnwood Court,39571,30.3429717,-89.2135402
951,Autumnwood Court,39571,30.3429808,-89.2138296
951,Scenic Drive,39571,30.3277099,-89.2135244
955,2nd Street,39571,30.3294549,-89.2132739
957,2nd Street,39571,30.3292476,-89.2130375
957,Scenic Drive,39571,30.3272221,-89.2129683
960,2nd Street,39571,30.3285509,-89.2126145
961,2nd Street,39571,30.3292466,-89.2124991
961,Glen Oaks Drive,39571,30.3413197,-89.2132438
961,Scenic Drive,39571,30.3269477,-89.2125851
962,2nd Street,39571,30.3285724,-89.2123457
962,Glen Oaks Drive,39571,30.3411022,-89.2127520
964,2nd Street,39571,30.3284637,-89.2119749
964,Glen Oaks Drive,39571,30.3412759,-89.2125594
965,2nd Street,39571,30.3293483,-89.2120249
965,Beach Boulevard,39571,30.3273907,-89.2122987
966,2nd Street,39571,30.3288349,-89.2117109
967,2nd Street,39571,30.3294285,-89.2116951
968,Glen Oaks Drive,39571,30.3415605,-89.2125912
969,2nd Street,39571,30.3295536,-89.2114203
969,Beach Boulevard,39571,30.3273103,-89.2117020
970,Glen Oaks Drive,39571,30.3418323,-89.2125585
971,2nd Street,39571,30.3296511,-89.2111745
972,Glen Oaks Drive,39571,30.3420354,-89.2127035
973,2nd Street,39571,30.3300950,-89.2105724
973,Beach Boulevard,39571,30.3275809,-89.2114045
974,East 2nd Street,39571,30.3280612,-89.2114710
974,Glen Oaks Drive,39571,30.3422169,-89.2125694
975,Beach Boulevard,39571,30.3275567,-89.2109865
975,Glen Oaks Drive,39571,30.3424455,-89.2131000
976,Glen Oaks Drive,39571,30.3424046,-89.2125563
977,Glen Oaks Drive,39571,30.3426970,-89.2130739
978,2nd Street,39571,30.3286523,-89.2108468
978,Glen Oaks Drive,39571,30.3426004,-89.2125261
979,Glen Oaks Drive,39571,30.3429446,-89.2130889
980,Glen Oaks Drive,39571,30.3427924,-89.2125505
982,2nd Street,39571,30.3292970,-89.2104918
982,Glen Oaks Drive,39571,30.3429991,-89.2125450
984,2nd Street,39571,30.3294206,-89.2102017
985,2nd Street,39571,30.3303110,-89.2101577
99,Francis Street,39571,30.3323608,-89.2174328
991,Beach Boulevard,39571,30.3282692,-89.2104503
995,Beach Boulevard,39571,30.3275780,-89.2101492
1617,East Beach Boulevard,39571,30.3357429,-89.1888208
100,Hackett Lane,39571,30.3227408,-89.2258106
102,Lang Avenue,39571,30.3237892,-89.2229341
103,Courtenay Avenue,39571,30.3217244,-89.2286512
103,Hackett Lane,39571,30.3230685,-89.2261969
104,Courtenay Avenue,39571,30.3219675,-89.2282192
105,Donlin Avenue,39571,30.3197594,-89.2330893
105,Hackett Lane,39571,30.3234057,-89.2261944
105,Lang Avenue,39571,30.3236094,-89.2233340
106,Courtenay Avenue,39571,30.3225804,-89.2281865
106,Hackett Lane,39571,30.3236576,-89.2257980
107,Courtenay Avenue,39571,30.3222460,-89.2286553
107,Donlin Avenue,39571,30.3206358,-89.2331470
108,Courtenay Avenue,39571,30.3228238,-89.2281823
108,Donlin Avenue,39571,30.3208676,-89.2326987
109,Donlin Avenue,39571,30.3209090,-89.2331824
110,Courtenay Avenue,39571,30.3230922,-89.2281780
110,Donlin Avenue,39571,30.3214329,-89.2328258
110,Seal Avenue,39571,30.3189169,-89.2372228
111,Courtenay Avenue,39571,30.3228697,-89.2286785
111,Hackett Lane,39571,30.3236965,-89.2261631
111,Lang Avenue,39571,30.3238213,-89.2233385
115,Lang Avenue,39571,30.3238747,-89.2236507
117,Lang Avenue,39571,30.3241943,-89.2234797
117,Seal Avenue,39571,30.3184799,-89.2375092
121,Seal Avenue,39571,30.3186567,-89.2376184
122,Courtenay Avenue,39571,30.3222866,-89.2281924
122,Fleitas Avenue,39571,30.3175567,-89.2393841
123,Lang Avenue,39571,30.3244275,-89.2236059
123,Seal Avenue,39571,30.3188635,-89.2377061
126,Seal Avenue,39571,30.3191452,-89.2373234
127,Seal Avenue,39571,30.3190787,-89.2377708
128,Seal Avenue,39571,30.3192444,-89.2375031
131,Seal Avenue,39571,30.3193057,-89.2378810
200,Oak Park Drive,39571,30.3216418,-89.2336729
201,Oak Park Drive,39571,30.3214163,-89.2342330
202,Algernon Drive,39571,30.3210449,-89.2359137
202,Courtenay Avenue,39571,30.3238265,-89.2282507
202,Oak Park Drive,39571,30.3218891,-89.2338255
203,Mcdonald Drive,39571,30.3235002,-89.2352076
203,Oak Park Drive,39571,30.3216858,-89.2342766
203,Swanson Avenue,39571,30.3199235,-89.2391474
204,Mcdonald Drive,39571,30.3240638,-89.2354729
204,Oak Park Drive,39571,30.3221256,-89.2339407
205,Mcdonald Drive,39571,30.3234491,-89.2355155
205,Oak Park Drive,39571,30.3219459,-89.2344106
206,Oak Park Drive,39571,30.3224156,-89.2340115
206,Swanson Avenue,39571,30.3202654,-89.2388646
207,Mcdonald Drive,39571,30.3235528,-89.2357031
207,Oak Park Drive,39571,30.3222245,-89.2345526
208,Algernon Drive,39571,30.3215564,-89.2360279
209,Mcdonald Drive,39571,30.3237191,-89.2358226
209,Oak Park Drive,39571,30.3225217,-89.2346501
210,Courtenay Avenue,39571,30.3243731,-89.2280631
210,Oak Park Drive,39571,30.3230968,-89.2341680
210,Seal Avenue,39571,30.3205761,-89.2380444
211,Oak Park Drive,39571,30.3227889,-89.2347013
212,Seal Avenue,39571,30.3208470,-89.2381480
213,Swanson Avenue,39571,30.3206050,-89.2394455
215,Mcdonald Drive,39571,30.3243950,-89.2361652
216,Mcdonald Drive,39571,30.3245944,-89.2356847
220,Mcdonald Drive,39571,30.3251279,-89.2359414
222,Mcdonald Drive,39571,30.3252976,-89.2360316
227,Seal Avenue,39571,30.3211317,-89.2386144
235,Seal Avenue,39571,30.3213493,-89.2388132
239,Seal Avenue,39571,30.3215066,-89.2388409
300,Brandt Circle,39571,30.3237464,-89.2345235
302,Brandt Circle,39571,30.3239216,-89.2342898
303,Oak Park Drive,39571,30.3239850,-89.2351070
304,Brandt Circle,39571,30.3241726,-89.2342549
307,Oak Park Drive,39571,30.3244053,-89.2352300
309,Oak Park Avenue,39571,30.3248299,-89.2354069
310,Brandt Circle,39571,30.3247916,-89.2343929
311,Oak Park Drive,39571,30.3247199,-89.2348649
313,Oak Park Drive,39571,30.3250566,-89.2354976
314,Oak Park Drive,39571,30.3253907,-89.2351569
316,Seal Avenue,39571,30.3228025,-89.2389357
317,Oak Park Drive,39571,30.3256706,-89.2360854
320,Seal Avenue,39571,30.3230913,-89.2390456
328,Seal Avenue,39571,30.3235929,-89.2393507
346,Mercier Avenue,39571,30.3250986,-89.2394258
409,Scenic Drive,39571,30.3175625,-89.2386989
410,2nd Street,39571,30.3185863,-89.2391496
412,2nd Street,39571,30.3180546,-89.2389262
413,Scenic Drive,39571,30.3183932,-89.2386776
414,2nd Street,39571,30.3185418,-89.2387588
416,2nd Street,39571,30.3188565,-89.2390171
418,2nd Street,39571,30.3185575,-89.2384666
420,2nd Street,39571,30.3189923,-89.2386848
426,2nd Street,39571,30.3187307,-89.2382781
429,2nd Street,39571,30.3198392,-89.2393869
435,2nd Street,39571,30.3194647,-89.2388581
441,East 2nd Street,39571,30.3196579,-89.2384675
442,2nd Street,39571,30.3191195,-89.2382120
444,2nd Street,39571,30.3192055,-89.2381024
445,2nd Street,39571,30.3199173,-89.2384061
451,2nd Street,39571,30.3197724,-89.2381962
451,Railroad Street,39571,30.3220507,-89.2391129
501,2nd Street,39571,30.3199473,-89.2378093
502,2nd Street,39571,30.3194693,-89.2376321
505,2nd Street,39571,30.3200162,-89.2376181
507,2nd Street,39571,30.3200672,-89.2374728
508,2nd Street,39571,30.3196163,-89.2372809
511,2nd Street,39571,30.3201782,-89.2372970
511,Scenic Drive,39571,30.3186349,-89.2362345
512,2nd Street,39571,30.3197778,-89.2369453
513,2nd Street,39571,30.3202762,-89.2371370
513,Scenic Drive,39571,30.3184236,-89.2358318
516,2nd Street,39571,30.3198651,-89.2367310
516,Railroad Street,39571,30.3216174,-89.2376715
517,2nd Street,39571,30.3203492,-89.2369052
519,Scenic Drive,39571,30.3185978,-89.2356954
521,2nd Street,39571,30.3209161,-89.2369234
525,2nd Street,39571,30.3205246,-89.2364570
525,Scenic Drive,39571,30.3188830,-89.2350812
528,2nd Street,39571,30.3200372,-89.2360688
529,2nd Street,39571,30.3205973,-89.2362419
531,2nd Street,39571,30.3207005,-89.2360482
533,Scenic Drive,39571,30.3190629,-89.2344842
535,2nd Street,39571,30.3208500,-89.2356635
541,Scenic Drive,39571,30.3190558,-89.2337276
543,2nd Street,39571,30.3211609,-89.2351036
543,Scenic Drive,39571,30.3196233,-89.2337356
545,2nd Street,39571,30.3211988,-89.2348669
549,Scenic Drive,39571,30.3196921,-89.2334024
550,2nd Street,39571,30.3206640,-89.2344808
551,Scenic Drive,39571,30.3195940,-89.2327233
554,2nd Street,39571,30.3208946,-89.2338972
556,2nd Street,39571,30.3211292,-89.2335966
557,2nd Street,39571,30.3218610,-89.2333663
558,2nd Street,39571,30.3212544,-89.2333079
601,2nd Street,39571,30.3219087,-89.2330459
601,Scenic Drive,39571,30.3200455,-89.2325714
603,2nd Street,39571,30.3219522,-89.2328458
607,2nd Street,39571,30.3235058,-89.2327114
607,Scenic Drive,39571,30.3200399,-89.2320742
613,Scenic Drive,39571,30.3200898,-89.2314605
615,2nd Street,39571,30.3224919,-89.2320182
619,2nd Street,39571,30.3226458,-89.2316013
623,Scenic Drive,39571,30.3212716,-89.2312582
625,2nd Street,39571,30.3228493,-89.2312939
625,Scenic Drive,39571,30.3203325,-89.2306405
629,Scenic Drive,39571,30.3207900,-89.2303423
635,Scenic Drive,39571,30.3207097,-89.2299051
639,2nd Street,39571,30.3233608,-89.2296852
639,East 2nd Street,39571,30.3232673,-89.2300624
641,Scenic Drive,39571,30.3214321,-89.2292587
642,2nd Street,39571,30.3226103,-89.2293844
643,2nd Street,39571,30.3234712,-89.2291343
645,Scenic Drive,39571,30.3209058,-89.2291103
646,2nd Street,39571,30.3228291,-89.2289411
647,Scenic Drive,39571,30.3209460,-89.2288754
701,2nd Street,39571,30.3236187,-89.2281938
701,Scenic Drive,39571,30.3215768,-89.2281469
709,Scenic Drive,39571,30.3214391,-89.2277461
710,2nd Street,39571,30.3231509,-89.2278851
711,2nd Street,39571,30.3243989,-89.2274921
712,2nd Street,39571,30.3228787,-89.2271992
712,East Scenic Drive,39571,30.3223414,-89.2271110
715,2nd Street,39571,30.3240875,-89.2271611
715,Scenic Drive,39571,30.3215514,-89.2272804
722,2nd Street,39571,30.3233180,-89.2266541
723,2nd Street,39571,30.3241753,-89.2268672
725,2nd Street,39571,30.3242097,-89.2265388
727,2nd Street,39571,30.3243887,-89.2262318
733,Scenic Drive,39571,30.3224164,-89.2257461
735,2nd Street,39571,30.3244937,-89.2258863
737,Scenic Drive,39571,30.3222830,-89.2255623
739,2nd Street,39571,30.3245743,-89.2255524
742,2nd Street,39571,30.3238870,-89.2255623
743,Scenic Drive,39571,30.3225209,-89.2248031
744,2nd Street,39571,30.3241420,-89.2252879
745,2nd Street,39571,30.3247239,-89.2251679
750,2nd Street,39571,30.3241740,-89.2244175
753,Scenic Drive,39571,30.3230366,-89.2244887
757,Scenic Drive,39571,30.3231636,-89.2242046
765,Scenic Drive,39571,30.3230660,-89.2238309
765,Scenic Drive,39571,30.3235865,-89.2239033
801,Scenic Drive,39571,30.3233168,-89.2230257
811,Scenic Drive,39571,30.3235859,-89.2223589
819,2nd Street,39571,30.3251447,-89.2243955
829,Scenic Drive,39571,30.3237424,-89.2216847
831,Scenic Drive,39571,30.3243986,-89.2209207
845,Scenic Drive,39571,30.3248150,-89.2201152
905,Scenic Drive,39571,30.3253495,-89.2175368
1,Castle Street,39571,30.3292702,-89.2627802
1,Poindexter Drive,39571,30.3157577,-89.2770655
1,Teacher'S Turn,39571,30.3310071,-89.2633896
100,Ashwood Drive,39571,30.3304587,-89.2805281
100,Beechwood Lane,39571,30.3202509,-89.2720535
100,Birch Drive,39571,30.3298006,-89.2694191
100,Cypress Cove,39571,30.3294379,-89.2742290
100,Dogwood Lane,39571,30.3294627,-89.2705544
100,Fairway Drive,39571,30.3198065,-89.2764189
100,Fernwood Drive,39571,30.3215707,-89.2742556
100,Palmwood Drive,39571,30.3302808,-89.2823679
100,Redbud Way,39571,30.3250000,-89.2761340
100,Timberlane Drive,39571,30.3195259,-89.2769735
101,Basswood Drive,39571,30.3306953,-89.2845763
101,Baywood Drive,39571,30.3275062,-89.2817852
101,Beechwood Lane,39571,30.3209232,-89.2713592
101,Briar Lane,39571,30.3197932,-89.2744981
101,Cashew Point,39571,30.3304349,-89.2730279
101,Dogwood Lane,39571,30.3293309,-89.2712118
101,Fernwood Drive,39571,30.3220508,-89.2743840
101,Forest Street,39571,30.3284111,-89.2810257
101,Hickory Street,39571,30.3140976,-89.2722093
101,Kelly Cove,39571,30.3317588,-89.2755044
101,Locust Lane,39571,30.3270544,-89.2828497
101,Northwood Drive,39571,30.3192163,-89.2716416
101,Oakland Avenue,39571,30.3217845,-89.2698397
101,Palmwood Drive,39571,30.3297751,-89.2825266
101,Red Bud Way,39571,30.3244006,-89.2760434
101,Redwood Lane,39571,30.3291838,-89.2844819
101,Ridgewood Drive,39571,30.3277498,-89.2729740
101,Timber Boulevard,39571,30.3188957,-89.2720632
101,Woodglen Way,39571,30.3252826,-89.2733507
102,Ashwood Drive,39571,30.3306306,-89.2807173
102,Birch Drive,39571,30.3300281,-89.2694890
102,Country Club Drive,39571,30.3239719,-89.2762538
102,Fairway Drive,39571,30.3201249,-89.2765775
102,Hickory Street,39571,30.3136034,-89.2719365
102,Holly Drive,39571,30.3338448,-89.2634207
102,Kelly Cove,39571,30.3310703,-89.2751641
102,Palmwood Drive,39571,30.3305135,-89.2824291
102,Poplar Point,39571,30.3326985,-89.2707257
102,Sweet Bay Drive,39571,30.3329997,-89.2756957
102,Sycamore Drive,39571,30.3273847,-89.2718222
102,Timber Boulevard,39571,30.3191730,-89.2721805
102,Timberlane Drive,39571,30.3194701,-89.2772074
103,Baywood Drive,39571,30.3275394,-89.2822503
103,Birch Drive,39571,30.3297975,-89.2700277
103,Briar Lane,39571,30.3195243,-89.2743962
103,Cedarwood Point,39571,30.3268480,-89.2840736
103,Chestnut Street,39571,30.3300871,-89.2660413
103,Cypress Cove,39571,30.3299358,-89.2744364
103,Fernwood Drive,39571,30.3220922,-89.2740819
103,Hillcrest Road,39571,30.3169955,-89.2775419
103,Holly Drive,39571,30.3338227,-89.2639762
103,Ironwood Cove,39571,30.3300439,-89.2704627
103,Locust Lane,39571,30.3268330,-89.2829836
103,Poplar Point,39571,30.3326558,-89.2704598
103,Redbud Way,39571,30.3245783,-89.2765231
103,Sweet Bay Drive,39571,30.3324780,-89.2775065
103,Sycamore Drive,39571,30.3279188,-89.2712617
104,2nd Street,39571,30.3157835,-89.2478661
104,Ashwood Drive,39571,30.3308327,-89.2808919
104,Beechwood Lane,39571,30.3203789,-89.2715449
104,Cashew Point,39571,30.3309984,-89.2730837
104,Dogwood Lane,39571,30.3296954,-89.2707831
104,Fernwood Drive,39571,30.3215677,-89.2734452
104,Forest Street,39571,30.3280263,-89.2806585
104,Ironwood Cove,39571,30.3308691,-89.2704714
104,Kelly Cove,39571,30.3308673,-89.2746564
104,Poinsetta Loop,39571,30.3267368,-89.2773229
104,Poplar Point,39571,30.3328481,-89.2708511
104,Ridgewood Drive,39571,30.3283291,-89.2727850
104,Sweetbay Drive,39571,30.3330360,-89.2754458
104,Timberlane Drive,39571,30.3195115,-89.2775927
104,Youngswood Loop,39571,30.3306768,-89.2669715
105,Ashwood Drive,39571,30.3306199,-89.2814790
105,Baywood Drive,39571,30.3275030,-89.2825476
105,Cashew Point,39571,30.3308415,-89.2734523
105,Chestnut Street,39571,30.3303097,-89.2659072
105,Elmwood Drive,39571,30.3290435,-89.2724524
105,Fernwood Drive,39571,30.3220776,-89.2738038
105,Kelly Cove,39571,30.3320061,-89.2752923
105,Laurel Lane,39571,30.3208468,-89.2734171
105,Oakland Avenue,39571,30.3220772,-89.2699900
105,Oakland Avenue,39571,30.3219989,-89.2697938
105,Poinsettia Loop,39571,30.3258652,-89.2768562
105,Poplar Point,39571,30.3323548,-89.2710441
105,Poplar Point,39571,30.3322656,-89.2708664
105,Sweet Bay Drive,39571,30.3324049,-89.2777439
105,Sycamore Drive,39571,30.3279862,-89.2710977
105,Timber Boulevard,39571,30.3190894,-89.2729465
105,Youngswood Loop,39571,30.3306075,-89.2677731
106,Briar Lane,39571,30.3190626,-89.2747486
106,Cook Street,39571,30.3318112,-89.2623513
106,Fairway Drive,39571,30.3206316,-89.2767422
106,Hickory Street,39571,30.3138556,-89.2716224
106,Kelly Cove,39571,30.3310933,-89.2746157
106,Laurel Lane,39571,30.3212979,-89.2731371
106,Poplar Point,39571,30.3329233,-89.2710105
106,Timber Boulevard,39571,30.3196030,-89.2723798
106,Youngswood Loop,39571,30.3308081,-89.2671624
107,2nd Street,39571,30.3160627,-89.2470393
107,Baywood Drive,39571,30.3273811,-89.2828016
107,Birch Drive,39571,30.3307772,-89.2701245
107,Chestnut Street,39571,30.3304761,-89.2658849
107,Elmwood Drive,39571,30.3291995,-89.2725868
107,Greenwood Drive,39571,30.3223407,-89.2711405
107,Hickory Street,39571,30.3140729,-89.2717708
107,Hickory Street,39571,30.3141950,-89.2715062
107,Ironwood Cove,39571,30.3301978,-89.2706433
107,Locust Lane,39571,30.3265367,-89.2832497
107,Lois Lane,39571,30.3394355,-89.2682897
107,Pearson Street,39571,30.3298716,-89.2470017
107,Ridgewood Drive,39571,30.3282367,-89.2734191
107,Scenic Drive,39571,30.3146633,-89.2466208
107,Sweet Bay Drive,39571,30.3323216,-89.2779790
107,Sycamore Drive,39571,30.3280866,-89.2709426
107,Timber Boulevard,39571,30.3194418,-89.2730658
107,Timberlane Cove,39571,30.3166652,-89.2653944
107,Youngswood Loop,39571,30.3308507,-89.2678454
108,Birch Drive,39571,30.3305774,-89.2695561
108,Briar Lane,39571,30.3188265,-89.2743728
108,Country Club Drive,39571,30.3240381,-89.2769291
108,Dogwood Lane,39571,30.3299341,-89.2710916
108,Fernwood Drive,39571,30.3216578,-89.2726829
108,Forest Street,39571,30.3283128,-89.2802951
108,Ironwood Cove,39571,30.3313042,-89.2706143
108,Neal Street,39571,30.3395353,-89.2606505
108,Pine Cone Street,39571,30.3325621,-89.2619618
108,Poinsetta Loop,39571,30.3268901,-89.2778044
108,Spruce Street,39571,30.3131064,-89.2712861
108,Sweet Bay Drive,39571,30.3329911,-89.2748115
108,Timber Boulevard,39571,30.3198695,-89.2724798
109,Basswood Drive,39571,30.3298982,-89.2838701
109,Briar Lane,39571,30.3189663,-89.2738925
109,Country Club Drive,39571,30.3231606,-89.2760721
109,Fernwood Drive,39571,30.3220792,-89.2732032
109,Hickory Street,39571,30.3142569,-89.2712562
109,Hillcrest Road,39571,30.3168946,-89.2780848
109,Ironwood Cove,39571,30.3304152,-89.2707343
109,Locust Lane,39571,30.3263774,-89.2835099
109,Lois Lane,39571,30.3394472,-89.2684905
109,North Street,39571,30.3246471,-89.2531605
109,Palmwood Drive,39571,30.3304106,-89.2835718
109,Poplar Point,39571,30.3324134,-89.2712281
109,Smith Street,39571,30.3348378,-89.2641412
109,Spruce Street,39571,30.3134888,-89.2712342
109,Sweet Bay Drive,39571,30.3322502,-89.2782208
109,Sycamore Drive,39571,30.3281479,-89.2707639
109,Youngswood Lp,39571,30.3310928,-89.2678567
11,Royal Circle,39571,30.3285531,-89.2616195
110,Asmard Street,39571,30.3315135,-89.2624105
110,Birch Drive,39571,30.3307648,-89.2695965
110,Country Club Drive,39571,30.3241925,-89.2771750
110,Elmwood Drive,39571,30.3299477,-89.2724525
110,Fairway Drive,39571,30.3210118,-89.2768837
110,Fernwood Drive,39571,30.3218977,-89.2726647
110,Forest Street,39571,30.3284626,-89.2801216
110,Kelly Cove,39571,30.3315852,-89.2747364
110,Laurel Street,39571,30.3212776,-89.2736716
110,Locust Lane,39571,30.3265532,-89.2837334
110,Scenic Drive,39571,30.3144971,-89.2478986
110,Spruce Street,39571,30.3131165,-89.2710718
110,Willow Lane,39571,30.3321274,-89.2639758
110,Woodbine Cove,39571,30.3156490,-89.2647853
110,Youngswood Loop,39571,30.3311385,-89.2673417
111,2nd Street,39571,30.3154568,-89.2478507
111,Chestnut Street,39571,30.3308046,-89.2658662
111,Fairway Drive,39571,30.3197931,-89.2780703
111,Fernwood Drive,39571,30.3223819,-89.2731191
111,Ironwood Cove,39571,30.3305304,-89.2708760
111,Laurel Lane,39571,30.3212400,-89.2741444
111,Locust Lane,39571,30.3261224,-89.2835621
111,Redbud Way,39571,30.3248289,-89.2772183
111,Spruce Street,39571,30.3135646,-89.2710347
111,Sunset Bay Lane,39571,30.3395320,-89.2669982
111,Sweet Bay Drive,39571,30.3321788,-89.2784493
111,Timberlane Cove,39571,30.3169339,-89.2653361
111,Willow Lane,39571,30.3327003,-89.2648336
111,Youngswood Loop,39571,30.3313032,-89.2678438
112,Dogwood Lane,39571,30.3301929,-89.2713572
112,Elmwood Drive,39571,30.3301912,-89.2726519
112,Fairway Drive,39571,30.3212446,-89.2770319
112,Ironwood Cove,39571,30.3317128,-89.2708603
112,Poplar Point,39571,30.3331970,-89.2714702
112,Spruce Street,39571,30.3132143,-89.2708723
112,Sweet Bay Drive,39571,30.3333634,-89.2746484
112,Youngswood Loop,39571,30.3313308,-89.2672972
113,Chestnut Street,39571,30.3310569,-89.2659087
113,Davis Avenue,39571,30.3164423,-89.2422160
113,Fairway Drive,39571,30.3202906,-89.2784812
113,Fernwood Drive,39571,30.3226036,-89.2730978
113,Forest Street,39571,30.3293397,-89.2799788
113,Greenwood Drive,39571,30.3228354,-89.2710987
113,Hillcrest Road,39571,30.3172242,-89.2783677
113,Ironwood Cove,39571,30.3306935,-89.2710067
113,Locust Lane,39571,30.3258919,-89.2835038
113,Magnolia Avenue,39571,30.3108178,-89.2630319
113,Northwood Street,39571,30.3201557,-89.2710584
113,Ridgewood Drive,39571,30.3287493,-89.2736621
113,Spruce Street,39571,30.3136595,-89.2707902
113,Willow Lane,39571,30.3326440,-89.2650582
113,Youngswood Loop,39571,30.3315067,-89.2678728
114,Chestnut Street,39571,30.3311173,-89.2653109
114,Dogwood Lane,39571,30.3303097,-89.2715096
114,Fernwood Drive,39571,30.3223667,-89.2725533
114,Forest Street,39571,30.3288382,-89.2797605
114,Kelly Cove,39571,30.3320112,-89.2747597
114,Poplar Point,39571,30.3332950,-89.2716415
114,Ridgewood,39571,30.3291585,-89.2730365
114,Sweet Bay Drive,39571,30.3335491,-89.2749762
115,Basswood Drive,39571,30.3295707,-89.2831188
115,Fairway Drive,39571,30.3207891,-89.2786217
115,Fernwood Drive,39571,30.3228557,-89.2730577
115,Ironwood Cove,39571,30.3308669,-89.2711613
115,Locust Lane,39571,30.3258790,-89.2839452
115,Palmwood Drive,39571,30.3308747,-89.2830522
115,Poinsetta Loop,39571,30.3264647,-89.2778841
115,Poplar Point,39571,30.3325247,-89.2717760
115,Ridgewood Drive,39571,30.3289436,-89.2736890
115,Spruce Street,39571,30.3137115,-89.2705895
115,Sunset Bay Lane,39571,30.3402260,-89.2667685
115,Youngswood Loop,39571,30.3317362,-89.2678178
116,Dogwood Lane,39571,30.3304854,-89.2716627
116,Poplar Point,39571,30.3333412,-89.2718459
116,Redbud Way,39571,30.3257786,-89.2780632
116,Sweet Bay Drive,39571,30.3335452,-89.2752141
116,Sycamore Drive,39571,30.3277405,-89.2704678
116,Willow Lane,39571,30.3321909,-89.2644287
116,Youngswood Loop,39571,30.3317025,-89.2672949
117,Basswood Drive,39571,30.3293218,-89.2829413
117,Fernwood Drive,39571,30.3231028,-89.2730147
117,Hillcrest Road,39571,30.3176377,-89.2785530
117,Ironwood Cove,39571,30.3310642,-89.2711369
117,Poinsetta Loop,39571,30.3265287,-89.2781039
117,Redbud Way,39571,30.3252172,-89.2779233
117,Ridgewood Drive,39571,30.3291515,-89.2737121
117,Spruce Street,39571,30.3138232,-89.2703835
118,Barkley Drive,39571,30.3106699,-89.2679200
118,Basswood Drive,39571,30.3287591,-89.2833251
118,Country Club Drive,39571,30.3247295,-89.2780182
118,Dogwood Lane,39571,30.3307088,-89.2717600
118,Elmwood Drive,39571,30.3295622,-89.2730419
118,Fairway Drive,39571,30.3214854,-89.2781318
118,Fernwood Drive,39571,30.3228562,-89.2725190
118,Holly Drive,39571,30.3346314,-89.2647304
118,Poplar Point,39571,30.3333808,-89.2720663
118,Redbud Way,39571,30.3258623,-89.2782775
118,Scenic Drive,39571,30.3144973,-89.2483114
118,Sweet Bay Drive,39571,30.3335658,-89.2754962
119,2nd Street,39571,30.3162236,-89.2465963
119,Birch Drive,39571,30.3327801,-89.2703417
119,Country Club Drive,39571,30.3236214,-89.2772662
119,Fernwood Drive,39571,30.3233504,-89.2729923
119,Ironwood Cove,39571,30.3312441,-89.2711336
119,Poplar Point,39571,30.3326124,-89.2723342
119,Ridgewood Drive,39571,30.3293141,-89.2737143
119,Spruce Street,39571,30.3138522,-89.2701663
12,King Circle,39571,30.3273882,-89.2618778
120,2nd Street,39571,30.3156395,-89.2484582
120,Country Club Drive,39571,30.3248536,-89.2782195
120,Dogwood Lane,39571,30.3309442,-89.2717832
120,Fairway Drive,39571,30.3215588,-89.2784577
120,Forest Street,39571,30.3293110,-89.2792311
120,Scenic Drive,39571,30.3141151,-89.2485454
120,Sweetbay Drive,39571,30.3335145,-89.2757555
121,2nd Street,39571,30.3163694,-89.2464607
121,Basswood Drive,39571,30.3288188,-89.2828150
121,Birch Drive,39571,30.3329879,-89.2702767
121,Country Club Drive,39571,30.3237441,-89.2774574
121,Fairway Drive,39571,30.3214305,-89.2794374
121,Fernwood Drive,39571,30.3237017,-89.2729682
121,Mulberry Lane,39571,30.3315287,-89.2790860
121,Northwood Street,39571,30.3203284,-89.2705379
121,Pine Cone Street,39571,30.3330951,-89.2612328
121,Poplar Point,39571,30.3327422,-89.2725870
121,Ridgewood Drive,39571,30.3294592,-89.2736894
121,Spruce Street,39571,30.3139692,-89.2698624
122,Barkley Drive,39571,30.3111198,-89.2681049
122,Country Club Drive,39571,30.3249692,-89.2784345
122,Fernwood Drive,39571,30.3233543,-89.2724517
122,Pinecrest Drive,39571,30.3383101,-89.2655532
122,Poplar Point,39571,30.3331572,-89.2724381
122,Redbud Way,39571,30.3260667,-89.2786946
122,Spruce Street,39571,30.3136133,-89.2696999
122,Sycamore Drive,39571,30.3279196,-89.2699370
122,Willow Avenue,39571,30.3322618,-89.2648573
122,Willow Lane,39571,30.3322671,-89.2650314
123,Dogwood Lane,39571,30.3315475,-89.2723520
123,Ironwood Cove,39571,30.3315909,-89.2711546
123,North Street,39571,30.3260224,-89.2507380
123,Poplar Point,39571,30.3329699,-89.2725216
123,Ridgewood Drive,39571,30.3296726,-89.2736559
123,Woodbine Cove,39571,30.3161725,-89.2653198
124,Basswood Drive,39571,30.3282928,-89.2827972
124,Davis Avenue,39571,30.3170122,-89.2419147
124,Dogwood Lane,39571,30.3313230,-89.2717881
124,Fairway Drive,39571,30.3221166,-89.2789269
124,Fleitas Avenue,39571,30.3178306,-89.2395039
124,Sweet Bay Drive,39571,30.3332837,-89.2762723
124,Willow Avenue,39571,30.3324600,-89.2651407
124,Youngswood Loop,39571,30.3320472,-89.2666035
125,Country Club Drive,39571,30.3240592,-89.2778334
125,Davis Avenue,39571,30.3167149,-89.2424666
125,Dogwood Lane,39571,30.3314537,-89.2726216
125,Fairway Drive,39571,30.3218958,-89.2799318
125,Fernwood Drive,39571,30.3241086,-89.2730447
125,Forest Street,39571,30.3302957,-89.2789274
125,Henderson Avenue,39571,30.3133401,-89.2571187
125,Ironwood Cove,39571,30.3317460,-89.2710585
125,North Street,39571,30.3261987,-89.2507151
125,Redbud Way,39571,30.3256406,-89.2790050
125,Ridgewood Drive,39571,30.3298792,-89.2736795
126,Country Club Drive,39571,30.3251920,-89.2788535
126,Fairway Drive,39571,30.3223358,-89.2792190
126,Fleitas Avenue,39571,30.3181068,-89.2395498
126,Northwood Drive,39571,30.3196054,-89.2711958
126,Redbud Way,39571,30.3262290,-89.2791500
126,Saint Paul Avenue,39571,30.3161925,-89.2449838
126,Scenic Drive,39571,30.3139229,-89.2488690
127,Country Club Drive,39571,30.3241604,-89.2781222
127,Dogwood Lane,39571,30.3313675,-89.2729025
127,Fairway Drive,39571,30.3221637,-89.2801428
127,Fernwood Drive,39571,30.3243367,-89.2730525
127,Forest Street,39571,30.3304871,-89.2786784
127,Prince Street,39571,30.3242298,-89.2599512
127,Ridgewood Drive,39571,30.3300786,-89.2737510
128,Birch Drive,39571,30.3327098,-89.2696832
128,Dogwood Lane,39571,30.3317141,-89.2717104
128,Fairway Drive,39571,30.3224998,-89.2794622
128,Fleitas Avenue,39571,30.3182969,-89.2396835
128,Forest Street,39571,30.3298553,-89.2785876
128,Pinecrest Drive,39571,30.3385239,-89.2667895
128,Sweet Bay Drive,39571,30.3330929,-89.2768879
128,Sycamore Drive,39571,30.3280500,-89.2693845
128,Youngswood Loop,39571,30.3322217,-89.2662774
129,Dogwood Lane,39571,30.3312386,-89.2732294
129,Northwood Street,39571,30.3206463,-89.2696508
129,Ridgewood Drive,39571,30.3302286,-89.2738566
129,Sweet Bay Drive,39571,30.3326421,-89.2769632
13,Cook Street,39571,30.3321746,-89.2621127
13,Royal Circle,39571,30.3286049,-89.2613852
130,2nd Street,39571,30.3154724,-89.2487292
130,Country Club Drive,39571,30.3254504,-89.2792819
130,Davis Avenue,39571,30.3171470,-89.2420492
130,Dogwood Lane,39571,30.3318970,-89.2717813
130,Fairway Drive,39571,30.3227927,-89.2796964
130,Forest Street,39571,30.3300825,-89.2782467
130,Hiern Avenue,39571,30.3145483,-89.2500601
130,Sweetbay Drive,39571,30.3330145,-89.2772203
130,Vista Drive,39571,30.3108055,-89.2689093
131,Country Club Drive,39571,30.3244043,-89.2784922
131,Dogwood Lane,39571,30.3311863,-89.2735182
131,Fernwood Drive,39571,30.3247851,-89.2732044
131,Forest Street,39571,30.3306401,-89.2781835
131,Northwood Drive,39571,30.3207121,-89.2694750
131,Sycamore Drive,39571,30.3289823,-89.2683252
132,Country Club Drive,39571,30.3256030,-89.2795876
132,Davis Avenue,39571,30.3173045,-89.2420553
132,Fairway Drive,39571,30.3229225,-89.2799844
132,Fernwood Drive,39571,30.3246430,-89.2726009
132,Redbud Way,39571,30.3260609,-89.2800080
132,Sweet Bay Drive,39571,30.3329426,-89.2774305
132,Youngswood Loop,39571,30.3323377,-89.2659350
133,Fairway Drive,39571,30.3228670,-89.2808536
133,Northwood Street,39571,30.3207593,-89.2692950
133,Pinecrest Drive,39571,30.3393230,-89.2672106
133,Poinsetta Loop,39571,30.3279158,-89.2781174
133,Ridgewood Drive,39571,30.3304653,-89.2739161
134,Asmard Street,39571,30.3321018,-89.2606680
134,Dogwood Lane,39571,30.3320399,-89.2722323
134,Fairway Drive,39571,30.3232288,-89.2803325
134,Mangrove Street,39571,30.3388291,-89.2670207
135,Fairway Drive,39571,30.3230818,-89.2811414
135,Forest Street,39571,30.3307763,-89.2775121
135,Pinecrest Drive,39571,30.3394572,-89.2674139
135,Poinsetta Loop,39571,30.3280309,-89.2778680
135,Ridgewood Drive,39571,30.3307682,-89.2739640
136,2nd Street,39571,30.3156220,-89.2491751
136,Asmard Street,39571,30.3321832,-89.2605460
136,Davis Avenue,39571,30.3174731,-89.2421113
136,Dogwood Lane,39571,30.3320263,-89.2724465
136,Mangrove Street,39571,30.3387474,-89.2673029
136,Redbud Way,39571,30.3257673,-89.2803141
136,Youngswood Loop,39571,30.3326880,-89.2658744
137,Country Club Drive,39571,30.3247630,-89.2791278
137,Fairway Drive,39571,30.3231935,-89.2814843
137,Holly Drive,39571,30.3352214,-89.2697826
137,Poinsetta Loop,39571,30.3281744,-89.2776191
138,Davis Avenue,39571,30.3175310,-89.2418793
138,Dogwood Lane,39571,30.3321262,-89.2726901
138,Fernwood Drive,39571,30.3253433,-89.2728137
138,Forest Street,39571,30.3303243,-89.2770757
138,Redbud Way,39571,30.3255843,-89.2805668
138,Ridgewood Drive,39571,30.3316694,-89.2734669
138,Sweet Bay Drive,39571,30.3327175,-89.2781671
139,Davis Avenue,39571,30.3173724,-89.2425862
139,Fairway Drive,39571,30.3234601,-89.2816716
139,Ridgewood Drive,39571,30.3310932,-89.2740254
14,Kings Circle,39571,30.3274223,-89.2624268
140,Dogwood Lane,39571,30.3319216,-89.2729425
140,Hillcrest Road,39571,30.3179476,-89.2777917
140,Ridgewood Drive,39571,30.3319818,-89.2735364
140,Youngswood Loop,39571,30.3328997,-89.2661009
141,Country Club Drive,39571,30.3250387,-89.2795430
141,Davis Avenue,39571,30.3174967,-89.2426760
141,Pinecrest Drive,39571,30.3397189,-89.2676319
141,Pinecrest Drive,39571,30.3398174,-89.2677477
142,Forest Street,39571,30.3304165,-89.2764963
143,Forest Street,39571,30.3309550,-89.2765280
143,Hillcrest Road,39571,30.3186155,-89.2775867
143,Ridgewood Drive,39571,30.3314810,-89.2739893
143,Sycamore Drive,39571,30.3291585,-89.2671174
144,Forest Street,39571,30.3304600,-89.2762403
145,Forest Street,39571,30.3310625,-89.2762826
145,Hillcrest Road,39571,30.3188356,-89.2773923
145,Pinecrest Drive,39571,30.3399022,-89.2678628
146,Youngswood Loop,39571,30.3332031,-89.2666857
147,Hillcrest Road,39571,30.3188411,-89.2768766
148,Mangrove Street,39571,30.3387698,-89.2681082
148,Youngswood Loop,39571,30.3333202,-89.2668196
149,Sycamore Drive,39571,30.3289765,-89.2665675
150,2nd Street,39571,30.3152324,-89.2495861
150,Country Club Drive,39571,30.3240501,-89.2812872
150,North Street,39571,30.3258214,-89.2535104
151,Mangrove Street,39571,30.3391939,-89.2684327
152,Pinecrest Drive,39571,30.3397904,-89.2686923
152,Youngswood Loop,39571,30.3334988,-89.2670934
158,Pinecrest,39571,30.3388616,-89.2688629
162,Mangrove Street,39571,30.3388911,-89.2690551
162,North Street,39571,30.3248425,-89.2539282
164,Mangrove Street,39571,30.3388907,-89.2693283
165,North Street,39571,30.3243834,-89.2538741
166,2nd Street,39571,30.3150462,-89.2502335
166,North Street,39571,30.3260949,-89.2549033
166,North Street,39571,30.3248595,-89.2544853
167,North Street,39571,30.3242398,-89.2541584
2,King Circle,39571,30.3279948,-89.2625940
200,Alabama Street,39571,30.3156510,-89.2815241
200,Earl Circle,39571,30.3263131,-89.2593730
200,Fairway Drive,39571,30.3244847,-89.2815654
200,Fernwood Drive,39571,30.3257409,-89.2732564
200,Hackberry Drive,39571,30.3303000,-89.2639676
200,Pinewood Drive,39571,30.3302474,-89.2683115
200,Shipyard Road,39571,30.3410046,-89.2687065
201,Baywood Drive,39571,30.3273564,-89.2833391
201,Fairway Drive,39571,30.3237577,-89.2823536
201,North Street,39571,30.3265396,-89.2504526
201,Pinewood Drive,39571,30.3300838,-89.2687422
201,Prentiss Road,39571,30.3126366,-89.2765261
202,Basswood Drive,39571,30.3289714,-89.2808941
202,Pinewood Drive,39571,30.3304485,-89.2683550
203,Basswood Drive,39571,30.3291707,-89.2814577
203,Fairway Drive,39571,30.3240955,-89.2823882
203,Hiern Avenue,39571,30.3152571,-89.2506939
203,Railroad Street,39571,30.3197225,-89.2465767
203,Scenic Drive,39571,30.3155028,-89.2445954
203,Youngswood Loop,39571,30.3321117,-89.2680770
204,2nd Street,39571,30.3148835,-89.2505068
204,Basswood Drive,39571,30.3292019,-89.2807272
204,Fernwood Drive,39571,30.3260508,-89.2732785
205,Baywood Drive,39571,30.3277457,-89.2838171
205,Fairway Drive,39571,30.3241997,-89.2827314
205,Hackberry Drive,39571,30.3307625,-89.2647787
205,Hunter Avenue,39571,30.3155257,-89.2497697
205,Pinewood Drive,39571,30.3303856,-89.2689080
206,Fernwood Drive,39571,30.3264011,-89.2734373
206,Hackberry Drive,39571,30.3307809,-89.2641459
207,Alabama Street,39571,30.3152657,-89.2812146
207,Fairway Drive,39571,30.3243769,-89.2828127
207,Fernwood Drive,39571,30.3262735,-89.2739363
207,Hackberry Drive,39571,30.3309139,-89.2648553
207,Scenic Drive,39571,30.3155350,-89.2444179
208,Basswood Drive,39571,30.3295167,-89.2803539
208,Hackberry Drive,39571,30.3310297,-89.2642385
208,Pecan Avenue,39571,30.3131182,-89.2601325
208,Youngswood Loop,39571,30.3330139,-89.2676518
209,2nd Street,39571,30.3170289,-89.2450791
209,Fairway Drive,39571,30.3246589,-89.2828303
209,Fernwood Drive,39571,30.3264983,-89.2740022
210,Basswood Drive,39571,30.3296934,-89.2801477
210,Demetz Avenue,39571,30.3159492,-89.2490466
210,Hackberry Drive,39571,30.3311969,-89.2642853
210,Leovy Avenue,39571,30.3148677,-89.2530386
210,Pinewood Drive,39571,30.3310230,-89.2684885
210,Youngswood Loop,39571,30.3331094,-89.2673788
211,2nd Street,39571,30.3169718,-89.2447781
211,Alabama Street,39571,30.3151586,-89.2805258
211,Fairway Drive,39571,30.3248092,-89.2830297
211,Fernwood Drive,39571,30.3266909,-89.2740375
211,North Street,39571,30.3242517,-89.2555311
211,Saint Paul Avenue,39571,30.3169789,-89.2457458
212,2nd Street,39571,30.3165043,-89.2447755
212,Pinewood Drive,39571,30.3312650,-89.2684962
213,Fairway Drive,39571,30.3250627,-89.2831371
213,Pinewood Drive,39571,30.3310333,-89.2690623
213,Youngswood Loop,39571,30.3328822,-89.2685844
214,2nd Street,39571,30.3148504,-89.2510146
214,Fernwood Drive,39571,30.3274573,-89.2736259
214,Hackberry Drive,39571,30.3316367,-89.2643240
214,North Street,39571,30.3257689,-89.2492271
214,Pinewood Drive,39571,30.3314332,-89.2685551
215,Clarence Avenue,39571,30.3135089,-89.2590010
215,Fernwood Drive,39571,30.3271524,-89.2741462
215,North Street,39571,30.3265385,-89.2494466
215,Railroad Street,39571,30.3168207,-89.2521453
215,Railroad Street,39571,30.3196907,-89.2461313
216,2nd Street,39571,30.3147441,-89.2513090
216,Demetz Avenue,39571,30.3162215,-89.2491163
216,Hackberry Drive,39571,30.3316499,-89.2645872
216,Magnolia Avenue,39571,30.3131369,-89.2633110
216,Magnolia Avenue,39571,30.3124094,-89.2630744
216,Pinewood Drive,39571,30.3316131,-89.2685418
217,Basswood Drive,39571,30.3306165,-89.2799988
217,Fairway Drive,39571,30.3253262,-89.2832768
217,Railroad Street,39571,30.3199154,-89.2460419
217,Stennis Street,39571,30.3147732,-89.2809875
218,2nd Street,39571,30.3164388,-89.2443490
218,2nd Street,39571,30.3147473,-89.2515304
218,Demetz Avenue,39571,30.3164676,-89.2491681
218,Fernwood Drive,39571,30.3280263,-89.2739581
219,Henderson Avenue,39571,30.3147380,-89.2577973
219,Market Street,39571,30.3162151,-89.2478440
219,Stennis Street,39571,30.3146969,-89.2807981
22,Royal Circle,39571,30.3289677,-89.2621981
220,Alabama Street,39571,30.3156501,-89.2798674
220,Baywood Drive,39571,30.3290518,-89.2847861
220,Fernwood Drive,39571,30.3283769,-89.2740876
220,Hackberry Drive,39571,30.3317714,-89.2649655
220,Pinewood Drive,39571,30.3319174,-89.2686898
221,Basswood Drive,39571,30.3309521,-89.2796692
221,Fernwood Drive,39571,30.3278074,-89.2744455
221,Hackberry Drive,39571,30.3309476,-89.2663335
222,Fernwood Drive,39571,30.3285979,-89.2742559
222,Hackberry Drive,39571,30.3318267,-89.2651540
222,North Street,39571,30.3260962,-89.2487608
222,Woodman Avenue,39571,30.3172635,-89.2465792
223,Church Avenue,39571,30.3158841,-89.2558900
223,North Street,39571,30.3267196,-89.2490061
223,Youngswood Loop,39571,30.3335857,-89.2681575
224,Clarence Avenue,39571,30.3143209,-89.2589570
224,Fernwood Drive,39571,30.3288783,-89.2743806
224,Hackberry,39571,30.3318938,-89.2653447
224,Pinewood Drive,39571,30.3321709,-89.2690753
224,Saint Paul Avenue,39571,30.3174633,-89.2455863
225,Hackberry Drive,39571,30.3310918,-89.2667243
225,North Street,39571,30.3236392,-89.2578118
226,Basswood Drive,39571,30.3306324,-89.2791443
226,Davis Avenue,39571,30.3187072,-89.2427974
226,Fernwood Drive,39571,30.3291086,-89.2744479
226,North Street,39571,30.3270723,-89.2491059
226,Saucier Avenue,39571,30.3181992,-89.2442610
227,Fernwood Drive,39571,30.3283435,-89.2747358
227,North Street,39571,30.3269183,-89.2488314
228,Market Street,39571,30.3167161,-89.2475584
228,Pinewood Drive,39571,30.3325498,-89.2691166
229,Basswood Drive,39571,30.3316075,-89.2786028
229,Fernwood Drive,39571,30.3286807,-89.2748715
230,Leovy Avenue,39571,30.3159180,-89.2535295
230,Pinewood Drive,39571,30.3326968,-89.2691510
230,Prentiss Road,39571,30.3134054,-89.2759435
230,Woodman Avenue,39571,30.3175464,-89.2466511
231,2nd Street,39571,30.3172730,-89.2441319
231,Clarence Avenue,39571,30.3145251,-89.2592959
231,Fairway Drive,39571,30.3269232,-89.2821468
231,Fernwood Drive,39571,30.3288512,-89.2749601
232,Clarence Avenue,39571,30.3145424,-89.2589631
232,Davis Avenue,39571,30.3189222,-89.2426650
232,Pinewood Drive,39571,30.3328640,-89.2691993
233,Basswood Drive,39571,30.3318058,-89.2781621
233,Clark Avenue,39571,30.3166389,-89.2491266
233,Davis Avenue,39571,30.3188133,-89.2433874
233,Hackberry Drive,39571,30.3314916,-89.2662580
234,Davis Avenue,39571,30.3190895,-89.2428566
234,Fernwood Drive,39571,30.3300547,-89.2750656
234,Market Street,39571,30.3170315,-89.2477045
234,Pinewood Drive,39571,30.3330386,-89.2691679
235,2nd Street,39571,30.3174331,-89.2439047
235,Basswood Drive,39571,30.3318382,-89.2778585
235,Hackberry Drive,39571,30.3317128,-89.2661166
236,Basswood Drive,39571,30.3313346,-89.2774574
236,Clarence Avenue,39571,30.3148237,-89.2588729
236,Pinewood Drive,39571,30.3332251,-89.2691856
238,Fernwood Drive,39571,30.3304552,-89.2747283
238,Handy Lane,39571,30.3189436,-89.2445566
238,Market Street,39571,30.3173015,-89.2478076
238,Pinewood Drive,39571,30.3333678,-89.2693481
239,Basswood Drive,39571,30.3319418,-89.2773032
239,Fernwood Drive,39571,30.3298118,-89.2755624
24,Royal Circle,39571,30.3290141,-89.2619010
240,Davis Avenue,39571,30.3193270,-89.2430791
240,Handy Lane,39571,30.3189358,-89.2443273
240,Pinewood Drive,39571,30.3333712,-89.2695816
240,Saint Paul Avenue,39571,30.3182055,-89.2459491
241,Basswood Drive,39571,30.3319756,-89.2770061
241,Fernwood Drive,39571,30.3300720,-89.2761591
241,Hackberry Drive,39571,30.3321196,-89.2656937
242,2nd Street,39571,30.3147691,-89.2518142
242,Basswood Drive,39571,30.3314760,-89.2769339
242,Fleitas Avenue,39571,30.3209268,-89.2405286
243,Clark Avenue,39571,30.3171406,-89.2491810
244,Handy Lane,39571,30.3188932,-89.2439994
245,Baywood Drive,39571,30.3315897,-89.2852424
245,Fernwood Drive,39571,30.3304227,-89.2758855
246,Market Street,39571,30.3178553,-89.2480264
246,Saint Paul Avenue,39571,30.3183538,-89.2460718
248,2nd Street,39571,30.3145528,-89.2524530
248,2nd Street,39571,30.3170323,-89.2433037
248,Saint Paul Avenue,39571,30.3185775,-89.2460478
249,Market Street,39571,30.3179119,-89.2485408
250,2nd Street,39571,30.3145708,-89.2526733
250,Clark Avenue,39571,30.3176391,-89.2487089
252,2nd Street,39571,30.3171052,-89.2431208
252,Fernwood Drive,39571,30.3320901,-89.2760796
252,Hiern Avenue,39571,30.3171519,-89.2511196
252,Railroad Street,39571,30.3167514,-89.2546526
253,Market Street,39571,30.3181343,-89.2486092
254,2nd Street,39571,30.3171451,-89.2429990
254,Hiern Avenue,39571,30.3170654,-89.2512239
255,Davis Avenue,39571,30.3190303,-89.2434004
255,Scenic Drive,39571,30.3160943,-89.2429087
255,Scenic Drive,39571,30.3166187,-89.2428881
255,Scenic Drive,39571,30.3165094,-89.2427624
255,Scenic Drive,39571,30.3163221,-89.2426770
255,Scenic Drive,39571,30.3164721,-89.2430660
255,Scenic Drive,39571,30.3162827,-89.2429871
255,Scenic Drive,39571,30.3166626,-89.2431467
256,Saint Paul Avenue,39571,30.3188084,-89.2461222
259,Ladnier Street,39571,30.3212649,-89.2445221
259,Scenic Drive,39571,30.3161573,-89.2424295
26,Royal Circle,39571,30.3290924,-89.2616066
260,Hiern Avenue,39571,30.3174390,-89.2511877
260,Railroad Street,39571,30.3169025,-89.2552230
265,Scenic Drive,39571,30.3162471,-89.2421157
266,Clark Avenue,39571,30.3180739,-89.2491498
271,Hiern Avenue,39571,30.3172183,-89.2514801
275,2nd Street,39571,30.3131177,-89.2535074
3,King Circle,39571,30.3279479,-89.2623837
3,Teacher'S Turn,39571,30.3311465,-89.2634287
300,Baywood Drive,39571,30.3308647,-89.2848601
300,Davis Avenue,39571,30.3198610,-89.2429261
300,Fairway Drive,39571,30.3275978,-89.2810941
300,Saint Louis Street,39571,30.3156038,-89.2565739
301,Baywood Drive,39571,30.3314446,-89.2847234
301,Ellen Avenue,39571,30.3176843,-89.2526330
301,Prentiss Road,39571,30.3147545,-89.2765807
302,Davis Avenue,39571,30.3209333,-89.2427896
302,Market Street,39571,30.3189521,-89.2485430
302,Morton Avenue,39571,30.3216847,-89.2401704
302,Wittman Avenue,39571,30.3139150,-89.2645555
303,Fleitas Avenue,39571,30.3213878,-89.2416291
303,Lac Bleu Avenue,39571,30.3144770,-89.2628794
303,Market Street,39571,30.3190630,-89.2488450
303,Wittman Avenue,39571,30.3138931,-89.2650508
304,Hope Lane,39571,30.3155819,-89.2584160
305,2nd Street,39571,30.3181566,-89.2420819
305,Lac Bleu Avenue,39571,30.3146383,-89.2629762
305,North Street,39571,30.3232704,-89.2598924
305,Wittman Avenue,39571,30.3140687,-89.2651192
306,Fleitas Avenue,39571,30.3215650,-89.2411167
306,Winter Avenue,39571,30.3136380,-89.2691693
307,Baywood Drive,39571,30.3314563,-89.2844132
307,Lac Bleu Avenue,39571,30.3147906,-89.2630300
307,Wittman Avenue,39571,30.3142296,-89.2651895
308,Railroad Street,39571,30.3162569,-89.2563765
309,Lac Bleu Avenue,39571,30.3149384,-89.2630929
309,Scenic Drive,39571,30.3169765,-89.2413639
310,Lemoyne Road,39571,30.3143760,-89.2800426
310,Winter Avenue,39571,30.3140995,-89.2693623
311,Lac Bleu Avenue,39571,30.3150998,-89.2631834
311,Winter Avenue,39571,30.3141330,-89.2699200
311,Woodman Avenue,39571,30.3196889,-89.2478911
312,Clark Avenue,39571,30.3189956,-89.2494918
312,Handy Lane,39571,30.3194048,-89.2428221
312,Lemoyne Road,39571,30.3145216,-89.2799792
312,North Street,39571,30.3266465,-89.2454065
312,Winter Avenue,39571,30.3142835,-89.2693956
313,Grayson Avenue,39571,30.3216939,-89.2428311
313,Hunter Avenue,39571,30.3186491,-89.2509757
313,Lac Bleu Avenue,39571,30.3152663,-89.2632768
313,Wood Street,39571,30.3269270,-89.2718943
314,Fleitas Avenue,39571,30.3225669,-89.2415650
314,Grayson Avenue,39571,30.3216293,-89.2423950
314,Lemoyne Road,39571,30.3146514,-89.2798844
314,Railroad Street,39571,30.3160508,-89.2568354
314,Winter Avenue,39571,30.3144601,-89.2695080
315,Lac Bleu Avenue,39571,30.3154289,-89.2633119
315,Market Street,39571,30.3195194,-89.2492024
316,Davis Avenue,39571,30.3213167,-89.2436450
317,Bielenberg Avenue,39571,30.3203573,-89.2464787
317,Fleitas Avenue,39571,30.3225565,-89.2420011
317,Lac Bleu Avenue,39571,30.3155873,-89.2634029
317,North Street,39571,30.3277710,-89.2457054
317,Scenic Drive,39571,30.3172233,-89.2410250
318,Lemoyne Road,39571,30.3149014,-89.2797510
319,2nd Street,39571,30.3174919,-89.2408384
319,Hiern Avenue,39571,30.3182699,-89.2520781
319,Wittman Avenue,39571,30.3151549,-89.2655810
320,Fleitas Avenue,39571,30.3228146,-89.2416736
320,Henderson Avenue,39571,30.3170688,-89.2581677
320,Railroad Street,39571,30.3159902,-89.2573108
321,Davis Avenue,39571,30.3218002,-89.2448224
321,Grayson Avenue,39571,30.3220594,-89.2429520
321,Wittman Avenue,39571,30.3153091,-89.2656714
322,Davis Avenue,39571,30.3220356,-89.2435445
322,Grayson Avenue,39571,30.3221042,-89.2425710
322,Whitman Avenue,39571,30.3155487,-89.2653451
323,Fleitas Avenue,39571,30.3229049,-89.2422939
323,Lac Bleau Avenue,39571,30.3160631,-89.2636303
323,North Street,39571,30.3282549,-89.2449086
323,Seal Avenue,39571,30.3230364,-89.2394463
324,Hunter Avenue,39571,30.3196894,-89.2511656
324,Saucier Avenue,39571,30.3212044,-89.2453673
325,Grayson Avenue,39571,30.3221559,-89.2430424
326,Grayson Avenue,39571,30.3223581,-89.2426950
327,Wittman Avenue,39571,30.3157834,-89.2658705
328,Clarence Avenue,39571,30.3168540,-89.2599351
328,Lemoyne Road,39571,30.3152322,-89.2788666
329,Lac Bleu Avenue,39571,30.3166065,-89.2638060
329,Market Street,39571,30.3201068,-89.2493880
329,Seal Avenue,39571,30.3238650,-89.2398443
330,Davis Avenue,39571,30.3223910,-89.2437297
330,Grayson Avenue,39571,30.3226764,-89.2428132
330,Henderson Avenue,39571,30.3175202,-89.2583599
331,Hiern Avenue,39571,30.3189128,-89.2522517
331,Woodman Avenue,39571,30.3211010,-89.2485267
332,Morton Avenue,39571,30.3225733,-89.2406976
332,Saucier Avenue,39571,30.3216441,-89.2454858
332,Seal Avenue,39571,30.3240054,-89.2395125
334,Ellen Avenue,39571,30.3191383,-89.2529356
334,Saucier Avenue,39571,30.3218000,-89.2454666
335,Davis Avenue,39571,30.3225284,-89.2449128
336,Davis Avenue,39571,30.3227936,-89.2445387
336,Grayson Avenue,39571,30.3229395,-89.2429124
336,Hiern Avenue,39571,30.3194626,-89.2522438
337,Fleitas Avenue,39571,30.3252319,-89.2430849
337,Morton Avenue,39571,30.3227391,-89.2412249
338,Grayson Avenue,39571,30.3230125,-89.2429035
338,Mercier Avenue,39571,30.3263749,-89.2398065
338,Saucier Avenue,39571,30.3219233,-89.2456251
339,Davis Avenue,39571,30.3227380,-89.2448660
339,Hunter Avenue,39571,30.3206298,-89.2518681
340,Hiern Avenue,39571,30.3201665,-89.2525600
340,Lemoyne Road,39571,30.3155706,-89.2775500
340,Mercier Avenue,39571,30.3256800,-89.2396351
341,Henderson Avenue,39571,30.3178556,-89.2590672
342,Henderson Avenue,39571,30.3180542,-89.2586307
342,Mercier Avenue,39571,30.3258173,-89.2396103
343,Church Avenue,39571,30.3189364,-89.2572578
343,Henderson Avenue,39571,30.3180111,-89.2590987
344,Henderson Avenue,39571,30.3182558,-89.2587457
344,Mercier Avenue,39571,30.3260882,-89.2405298
344,Morton Avenue,39571,30.3233086,-89.2409165
345,Davis Avenue,39571,30.3230855,-89.2451328
345,Fleitas Avenue,39571,30.3237430,-89.2427833
345,Hunter Avenue,39571,30.3210586,-89.2522172
346,Henderson Avenue,39571,30.3185408,-89.2587310
348,Clark Avenue,39571,30.3211807,-89.2503076
348,Grayson Avenue,39571,30.3235857,-89.2432324
348,Mercier Avenue,39571,30.3252627,-89.2394318
349,Lac Bleau Avenue,39571,30.3173398,-89.2641510
349,Morton Avenue,39571,30.3236019,-89.2415588
350,Church Avenue,39571,30.3195677,-89.2571025
350,Hunter Avenue,39571,30.3215901,-89.2518094
350,Mercier Avenue,39571,30.3254905,-89.2395803
350,Saucier Avenue,39571,30.3229615,-89.2462101
351,Hunter Avenue,39571,30.3214989,-89.2522643
351,Ladnier Street,39571,30.3215439,-89.2426820
351,Saucier Avenue,39571,30.3225656,-89.2459501
352,Morton Avenue,39571,30.3238474,-89.2411901
352,Seal Avenue,39571,30.3256332,-89.2402584
353,Grayson Avenue,39571,30.3238616,-89.2436484
353,Market Street,39571,30.3216021,-89.2500682
353,Morton Avenue,39571,30.3238679,-89.2416928
354,Henderson Avenue,39571,30.3194323,-89.2592102
355,Clark Avenue,39571,30.3215973,-89.2510738
356,Hunter Avenue,39571,30.3219568,-89.2519792
356,Saucier Avenue,39571,30.3224953,-89.2458774
356,Saucier Avenue,39571,30.3229043,-89.2460861
357,Morton Avenue,39571,30.3239959,-89.2417600
358,Church Avenue,39571,30.3199993,-89.2573573
358,Davis Avenue,39571,30.3241519,-89.2450113
359,Church Avenue,39571,30.3204484,-89.2581182
359,Clark Avenue,39571,30.3216270,-89.2513962
359,Grayson Avenue,39571,30.3241575,-89.2439921
359,Woodman Avenue,39571,30.3228909,-89.2493684
360,Church Avenue,39571,30.3202924,-89.2572940
360,Grayson Avenue,39571,30.3243352,-89.2434775
360,Henderson Avenue,39571,30.3200253,-89.2593789
360,Seal Avenue,39571,30.3266683,-89.2404898
361,Clark Avenue,39571,30.3220695,-89.2514539
361,Morton Avenue,39571,30.3242953,-89.2418706
362,Market Street,39571,30.3231510,-89.2502605
363,Grayson Avenue,39571,30.3245389,-89.2439957
363,Hiern Avenue,39571,30.3202846,-89.2529609
363,Morton Avenue,39571,30.3247819,-89.2421806
364,Henderson Avenue,39571,30.3202235,-89.2594711
364,Mercier Avenue,39571,30.3268042,-89.2400784
365,Clark Avenue,39571,30.3224556,-89.2516076
365,Davis Avenue,39571,30.3242224,-89.2455264
365,Grayson Avenue,39571,30.3248511,-89.2434974
365,Woodman Avenue,39571,30.3234115,-89.2495287
366,Davis Avenue,39571,30.3246440,-89.2451596
366,Mercier Avenue,39571,30.3279010,-89.2405768
368,Church Avenue,39571,30.3209668,-89.2576289
368,Grayson Avenue,39571,30.3251416,-89.2436744
368,Mercier Avenue,39571,30.3274067,-89.2403472
369,Grayson Avenue,39571,30.3248612,-89.2442028
369,Mercier Avenue,39571,30.3269414,-89.2401890
370,Henderson Avenue,39571,30.3204461,-89.2596353
370,Woodman Avenue,39571,30.3239521,-89.2493722
371,Clark Avenue,39571,30.3231277,-89.2517466
371,Fleitas Avenue,39571,30.3262904,-89.2434940
371,Market Street,39571,30.3237022,-89.2509588
371,Mercier Avenue,39571,30.3274272,-89.2407489
372,Church Avenue,39571,30.3213796,-89.2578072
372,Grayson Avenue,39571,30.3253081,-89.2439037
372,Morton Avenue,39571,30.3260672,-89.2421578
373,Fleitas Avenue,39571,30.3261878,-89.2435141
373,Grayson Avenue,39571,30.3252512,-89.2443133
373,Rafferty Drive,39571,30.3251492,-89.2444511
373,Woodman Avenue,39571,30.3241019,-89.2498905
374,Hiern Avenue,39571,30.3210236,-89.2528610
374,Hunter Avenue,39571,30.3233043,-89.2527211
374,Woodman Avenue,39571,30.3241340,-89.2494586
376,Fleitas Avenue,39571,30.3251031,-89.2425544
376,Morton Avenue,39571,30.3263049,-89.2423973
377,Fleitas Avenue,39571,30.3264894,-89.2436751
377,Hunter Avenue,39571,30.3232120,-89.2531202
378,Fleitas Avenue,39571,30.3252653,-89.2427785
378,Hunter Avenue,39571,30.3234258,-89.2527912
378,Market Street,39571,30.3242293,-89.2507727
378,Woodman Avenue,39571,30.3243480,-89.2496325
379,Grayson Avenue,39571,30.3262339,-89.2449250
379,Henderson Avenue,39571,30.3206288,-89.2607311
380,Fleitas Avenue,39571,30.3254690,-89.2427943
380,Heirn Avenue,39571,30.3218537,-89.2527702
380,Hiern Avenue,39571,30.3216624,-89.2529163
380,Hiern Avenue,39571,30.3214943,-89.2531248
380,Woodman Avenue,39571,30.3246675,-89.2498075
381,Clark Avenue,39571,30.3235439,-89.2520354
382,Church Avenue,39571,30.3218510,-89.2580335
382,Clarence Avenue,39571,30.3204825,-89.2615203
382,Grayson Avenue,39571,30.3265194,-89.2444020
383,Clarence Avenue,39571,30.3194661,-89.2616772
384,Market Street,39571,30.3245599,-89.2506769
384,Morton Avenue,39571,30.3268963,-89.2423903
385,Clark Avenue,39571,30.3239392,-89.2524066
385,Seal Avenue,39571,30.3279212,-89.2416528
386,Morton Avenue,39571,30.3270383,-89.2426512
387,Church Avenue,39571,30.3218281,-89.2590546
387,Grayson Avenue,39571,30.3266744,-89.2449522
387,Seal Avenue,39571,30.3281894,-89.2417863
388,Clarence Avenue,39571,30.3213529,-89.2626241
388,Clark Avenue,39571,30.3243980,-89.2518491
388,Grayson Avenue,39571,30.3268502,-89.2445676
388,Rafferty Drive,39571,30.3236620,-89.2461162
389,Clarence Avenue,39571,30.3207413,-89.2620917
389,Clark Avenue,39571,30.3242548,-89.2522435
389,Grayson Avenue,39571,30.3268176,-89.2449350
389,Rafferty Drive,39571,30.3251534,-89.2447337
390,Henderson Avenue,39571,30.3216770,-89.2599601
390,Market Street,39571,30.3247464,-89.2509173
390,Rafferty Drive,39571,30.3241006,-89.2460895
391,Clark Avenue,39571,30.3244812,-89.2525088
392,Clarence Avenue,39571,30.3212622,-89.2618666
392,Grayson Avenue,39571,30.3273524,-89.2447668
393,Morton Avenue,39571,30.3274946,-89.2432596
394,Henderson Avenue,39571,30.3217683,-89.2602421
395,Clark Avenue,39571,30.3246840,-89.2526358
395,Morton Avenue,39571,30.3276372,-89.2432419
395,Woodman Avenue,39571,30.3253463,-89.2503358
396,Clark Avenue,39571,30.3247146,-89.2519966
396,Morton Avenue,39571,30.3276832,-89.2428728
397,Clark Avenue,39571,30.3249141,-89.2525955
4,Castle Street,39571,30.3298301,-89.2625407
4,Royal Circle,39571,30.3286672,-89.2628258
400,Clarence Avenue,39571,30.3222199,-89.2621077
400,Market Street,39571,30.3284784,-89.2509516
401,Railroad Street,39571,30.3157429,-89.2581124
401,Whitman Avenue,39571,30.3163580,-89.2661593
402,Dawn Avenue,39571,30.3281158,-89.2457856
403,Fairway Drive,39571,30.3289501,-89.2821733
403,Wittman Avenue,39571,30.3165088,-89.2661878
404,East North Street,39571,30.3303860,-89.2450114
404,Prentiss Road,39571,30.3167118,-89.2769052
405,Fairway Drive,39571,30.3291619,-89.2823090
405,Wittman Avenue,39571,30.3166661,-89.2662729
406,Clarence Avenue,39571,30.3225268,-89.2625114
406,Dawn Avenue,39571,30.3284764,-89.2459423
407,2nd Street,39571,30.3196362,-89.2398365
407,Fairway Drive,39571,30.3294177,-89.2823256
407,Lac Bleau Avenue,39571,30.3168290,-89.2639433
407,Morton Avenue,39571,30.3285982,-89.2438568
407,Wittmann Place,39571,30.3168174,-89.2663300
408,2nd Street,39571,30.3185929,-89.2395664
408,Beechwood Lane,39571,30.3233295,-89.2621424
408,Cedar Avenue,39571,30.3127598,-89.2724104
408,Ridgewood Drive,39571,30.3324127,-89.2733640
408,Saint Louis Street,39571,30.3136211,-89.2575380
409,Beechwood Lane,39571,30.3238519,-89.2621815
409,Fairway Drive,39571,30.3296627,-89.2823273
409,Lac Bleau Avenue,39571,30.3169905,-89.2640261
409,Morton Avenue,39571,30.3290675,-89.2437853
410,Henderson Avenue,39571,30.3233241,-89.2608735
410,Wittman Avenue,39571,30.3173503,-89.2661516
411,Royal Oak Drive,39571,30.3304761,-89.2634762
412,North Street,39571,30.3280436,-89.2429092
413,Lac Bleau Avenue,39571,30.3176064,-89.2643113
413,Mcclung Street,39571,30.3132049,-89.2792543
413,North Street,39571,30.3285787,-89.2432673
414,Royal Oak Drive,39571,30.3297081,-89.2642057
415,Beechwood Lane,39571,30.3236937,-89.2626950
415,Lac Bleau Avenue,39571,30.3174583,-89.2642671
415,Wittman Avenue,39571,30.3174205,-89.2666204
416,Whitman Avenue,39571,30.3175970,-89.2662641
417,18th Street,39571,30.3291870,-89.2645881
417,Wittman Avenue,39571,30.3175859,-89.2666739
419,Beechwood Lane,39571,30.3236032,-89.2629549
420,Henderson Avenue,39571,30.3228431,-89.2605769
420,North Street,39571,30.3283797,-89.2418560
420,Orange Street,39571,30.3331724,-89.2650195
422,Mcclung Street,39571,30.3135569,-89.2781021
423,Wittman Avenue,39571,30.3180067,-89.2668721
424,Mcclung Street,39571,30.3135582,-89.2779131
424,Orange Street,39571,30.3336409,-89.2655076
427,Lac Bleau Avenue,39571,30.3183654,-89.2646514
428,Railroad Street,39571,30.3211315,-89.2399233
430,Mcclung Street,39571,30.3134708,-89.2774180
437,Mcclung Street,39571,30.3128236,-89.2766227
439,Royal Oak Drive,39571,30.3298907,-89.2666597
441,Royal Oak Drive,39571,30.3300737,-89.2668901
445,Clarence Avenue,39571,30.3231459,-89.2632964
450,Church Avenue,39571,30.3240356,-89.2590576
451,Royal Oak Drive,39571,30.3300526,-89.2679242
465,Henderson Avenue,39571,30.3265538,-89.2629429
465,Royal Oak Drive,39571,30.3295789,-89.2692364
467,Royal Oak Drive,39571,30.3295452,-89.2694259
470,Market Street,39571,30.3314543,-89.2520438
480,Clark Avenue,39571,30.3280612,-89.2534762
484,Clark Avenue,39571,30.3284327,-89.2536502
485,Royal Oak Drive,39571,30.3290984,-89.2710374
488,Royal Oak Drive,39571,30.3285063,-89.2709920
489,Royal Oak Drive,39571,30.3288851,-89.2714418
492,Royal Oak Drive,39571,30.3283882,-89.2713557
494,Market Street,39571,30.3345352,-89.2541121
494,Royal Oak Drive,39571,30.3283684,-89.2715290
495,Prentiss Road,39571,30.3169607,-89.2773854
496,Royal Oak Drive,39571,30.3282350,-89.2716511
497,Royal Oak Drive,39571,30.3284616,-89.2721392
500,North Street,39571,30.3209825,-89.2640470
500,Prentiss Road,39571,30.3172617,-89.2768529
500,Royal Oak Drive,39571,30.3279028,-89.2718620
501,Bayview Street,39571,30.3110308,-89.2760972
501,Clarence Avenue,39571,30.3235063,-89.2633490
501,East North Street,39571,30.3293269,-89.2417044
501,North Street,39571,30.3290840,-89.2417305
501,North Street,39571,30.3220557,-89.2628429
501,Royal Oak Drive,39571,30.3280423,-89.2723611
502,Church Avenue,39571,30.3246478,-89.2593709
502,North Street,39571,30.3285555,-89.2413515
503,Royal Oak Drive,39571,30.3277033,-89.2725399
504,Fairway Drive,39571,30.3296669,-89.2815181
504,North Street,39571,30.3285914,-89.2409966
504,Royal Oak Drive,39571,30.3273665,-89.2721331
505,Lemoyne Road,39571,30.3157546,-89.2794250
506,Fairway Drive,39571,30.3299804,-89.2813125
506,Royal Oak Drive,39571,30.3271799,-89.2722187
508,Royal Oak Drive,39571,30.3269855,-89.2722474
509,Church Avenue,39571,30.3249402,-89.2601882
510,North Street,39571,30.3285335,-89.2415901
510,Royal Oaks Boulevard,39571,30.3267987,-89.2723894
511,Henderson Road,39571,30.3293113,-89.2633104
512,Beach Boulevard,39571,30.3120876,-89.2590266
512,Royal Oak Drive,39571,30.3266026,-89.2724748
514,Royal Oak Drive,39571,30.3264119,-89.2724034
515,Henderson Avenue,39571,30.3296942,-89.2631771
515,Royal Oak Drive,39571,30.3264099,-89.2730157
516,Prentiss Road,39571,30.3175696,-89.2768695
518,Bayview Street,39571,30.3116966,-89.2759281
518,Royal Oak Drive,39571,30.3261589,-89.2722766
519,Bay View Street,39571,30.3110437,-89.2755839
520,Royal Oak Drive,39571,30.3259052,-89.2721595
521,Royal Oak Drive,39571,30.3258202,-89.2726661
522,Bayview Street,39571,30.3114748,-89.2752021
522,East Royal Oak Boulevard,39571,30.3256448,-89.2720103
522,Prentiss Road,39571,30.3180743,-89.2767013
523,Royal Oak Drive,39571,30.3254766,-89.2724613
528,Royal Oak Drive,39571,30.3249083,-89.2717216
530,Royal Oak Boulevard,39571,30.3246554,-89.2716165
532,Royal Oak Drive,39571,30.3244736,-89.2714156
539,Royal Oak Boulevard,39571,30.3237834,-89.2720206
542,Royal Oak Drive,39571,30.3233046,-89.2714989
543,Royal Oak Drive,39571,30.3231239,-89.2720108
546,Royal Oak Boulevard,39571,30.3230965,-89.2714995
546,Royal Oak Drive,39571,30.3228820,-89.2714969
548,Royal Oak Drive,39571,30.3225872,-89.2715091
549,Royal Oak Drive,39571,30.3224498,-89.2721562
55,Poindexter Drive,39571,30.3156074,-89.2772417
551,Railroad Street,39571,30.3154674,-89.2586377
551,Royal Oak Drive,39571,30.3222309,-89.2721390
552,Royal Oak Drive,39571,30.3222096,-89.2716135
554,Royal Oak Drive,39571,30.3219698,-89.2716398
555,Henderson Avenue,39571,30.3323439,-89.2631216
556,Henderson Avenue,39571,30.3326417,-89.2625384
557,Royal Oak Drive,39571,30.3216087,-89.2723240
558,Royal Oak Drive,39571,30.3217170,-89.2716737
559,East Royal Oak Boulevard,39571,30.3213568,-89.2722794
560,Henderson Avenue,39571,30.3330430,-89.2624136
560,Pelican Road,39571,30.3334904,-89.2618352
560,Royal Oak Drive,39571,30.3212492,-89.2717502
564,Henderson Avenue,39571,30.3332934,-89.2625068
569,Royal Oak Drive,39571,30.3205726,-89.2731278
572,Royal Oak Drive,39571,30.3198827,-89.2734171
574,Royal Oak Drive,39571,30.3199457,-89.2736922
575,Royal Oak Drive,39571,30.3204673,-89.2739825
579,Royal Oak Drive,39571,30.3207051,-89.2743426
580,Henderson Avenue,39571,30.3341713,-89.2624584
581,Henderson Avenue,39571,30.3342747,-89.2629912
583,Pelican Road,39571,30.3342628,-89.2622167
584,Royal Oak Drive,39571,30.3204306,-89.2748786
590,Royal Oak Drive,39571,30.3220016,-89.2752407
593,Royal Oak Drive,39571,30.3223364,-89.2746682
6,Castle Street,39571,30.3299057,-89.2622563
600,Henderson Avenue,39571,30.3359496,-89.2625215
601,North Street,39571,30.3292519,-89.2412604
603,North Street,39571,30.3292864,-89.2409429
605,North Street,39571,30.3293953,-89.2406062
605,North Street,39571,30.3211340,-89.2653524
606,Cedar Avenue,39571,30.3139291,-89.2727189
607,North Street,39571,30.3293464,-89.2402560
607,North Street,39571,30.3210493,-89.2657333
607,Pelican Road,39571,30.3357447,-89.2619786
608,Cedar Avenue,39571,30.3141112,-89.2728117
608,Royal Oak Drive,39571,30.3239955,-89.2757086
610,St Louis Avenue,39571,30.3123178,-89.2615462
611,North Street,39571,30.3209381,-89.2667114
611,Saint Louis Street,39571,30.3118486,-89.2610569
612,Cedar Avenue,39571,30.3143684,-89.2725207
612,Royal Oak,39571,30.3244269,-89.2756461
614,Royal Oak Drive,39571,30.3246015,-89.2756732
618,Beach Boulevard,39571,30.3112383,-89.2617709
630,Royal Oak Drive,39571,30.3268172,-89.2767745
632,Royal Oak Drive,39571,30.3270861,-89.2767951
635,Royal Oak Drive,39571,30.3272010,-89.2762640
636,Royal Oak Drive,39571,30.3275245,-89.2769321
637,Royal Oak Drive,39571,30.3275204,-89.2763779
638,Royal Oak Boulevard,39571,30.3278340,-89.2770801
64,Poindexter Drive,39571,30.3161281,-89.2778061
641,Royal Oak Drive,39571,30.3279880,-89.2764394
645,Royal Oak Drive,39571,30.3285769,-89.2766382
68,Poindexter Drive,39571,30.3161391,-89.2781701
7,Royal Circle,39571,30.3286107,-89.2621843
7,Teacher'S Turn,39571,30.3314882,-89.2634916
70,Poindexter Drive,39571,30.3161314,-89.2783887
702,Cedar Avenue,39571,30.3147171,-89.2727711
703,Josephine Street,39571,30.3185057,-89.2648865
704,Cedar Avenue,39571,30.3149632,-89.2728755
705,Josephine Street,39571,30.3184914,-89.2659075
707,Josephine Street,39571,30.3185242,-89.2661135
709,Josephine Street,39571,30.3185124,-89.2663208
709,Palmetto Cove,39571,30.3180202,-89.2658515
710,Palmetto Cove,39571,30.3176029,-89.2657288
711,Josephine Street,39571,30.3184769,-89.2665605
712,Palmetto Cove,39571,30.3177965,-89.2657218
713,Palmetto Cove,39571,30.3180046,-89.2661300
716,Blue Lake Cove,39571,30.3147551,-89.2643523
719,Blue Lake Cove,39571,30.3151899,-89.2649308
719,Woodbine Cove,39571,30.3160288,-89.2646903
75,Poindexter Drive,39571,30.3160035,-89.2796687
762,North Street,39571,30.3198789,-89.2693062
79,Poindexter Road,39571,30.3164098,-89.2792044
796,Royal Oak Boulevard,39571,30.3183162,-89.2741496
799,Cedar Avenue,39571,30.3180373,-89.2746019
8,Castle Street,39571,30.3299385,-89.2619408
830,Clark Avenue,39571,30.3393976,-89.2627317
839,Clark Avenue,39571,30.3402283,-89.2622712
840,Clark Avenue,39571,30.3403059,-89.2608068
850,Clark Avenue,39571,30.3361284,-89.2576818
89,Fairway Drive,39571,30.3201314,-89.2744732
91,Fairway Drive,39571,30.3200147,-89.2746998
93,Fairway Drive,39571,30.3197861,-89.2750899
99,Fairway Drive,39571,30.3194727,-89.2766789
222,East Railroad Avenue,39571-4435,30.3193544,-89.2451820
102,Sherman Avenue,39571,30.3065446,-89.2760255
1012,Beach Boulevard,39571,30.3058783,-89.2764275
104,Vista Drive,39571,30.3083287,-89.2677785
105,Magnolia Avenue,39571,30.3101404,-89.2627231
106,Vista Drive,39571,30.3083985,-89.2679310
107,Beachview Drive,39571,30.3083568,-89.2690504
108,Vista Drive,39571,30.3087161,-89.2679604
110,Beachview Drive,39571,30.3087825,-89.2687965
112,Vista Drive,39571,30.3090912,-89.2681051
116,Beachview Drive,39571,30.3095719,-89.2689060
117,Vista Drive,39571,30.3098486,-89.2689550
120,Vista Drive,39571,30.3098574,-89.2685101
121,Vista Drive,39571,30.3103054,-89.2691373
127,Terrace Avenue,39571,30.3084017,-89.2698435
131,Cedar Avenue,39571,30.3100040,-89.2722132
140,Terrace Avenue,39571,30.3105544,-89.2707024
153,Cedar Avenue,39571,30.3077539,-89.2714216
158,Boisdore Avenue,39571,30.3078803,-89.2791188
600,Beach Boulevard,39571,30.3108648,-89.2602418
710,Beach Boulevard,39571,30.3104271,-89.2633890
812,Beach Boulevard,39571,30.3068018,-89.2722115
900,Everett Street,39571,30.3105127,-89.2766929
910,Beach Boulevard,39571,30.3066431,-89.2746889
403,Scenic Drive,39571,30.3174698,-89.2390616
117,Hayden Avenue,39571,30.3350575,-89.1906382
107,Wen Mar Avenue,39571,30.3339461,-89.1913912
109,Wen Mar Avenue,39571,30.3342087,-89.1913773
300,East Scenic Drive,39571,30.3161116,-89.2416204
