House number,Street name,Postal code,Latitude,Longitude
13,მშვიდობის გამზირი,1400,41.9869894,44.0966414
11,მშვიდობის გამზირი,1400,41.9867641,44.0970609
8,სტალინის გამზირი,1400,41.9788682,44.1105920
13,სტალინის,1400,41.9816273,44.1108476
51,ი. ჭავჭავაძის გამზირი,1400,41.9825524,44.1124704
52,ი. ჭავჭავაძის გამზირი (I. Chavchavadze Ave),1400,41.9816414,44.1142405
7,ცაბაძის ქუჩა (Tsabadze St),1400,41.9823678,44.1099432
18,დავით გურამიშვილის ქუჩა,1400,41.9794153,44.1043733
1ა,მშვიდობის გამზირი,1400,41.9854291,44.0997257
3,სტალინის გამზირი,1400,41.9775130,44.1100036
25,ი. ჭავჭავაძის გამზირი,1234,41.9835956,44.1074776
6a,ცხინვალის გზატკეცილი,1400,41.9914330,44.1104774
15,სტალინის გამზირი,1400,41.9828426,44.1115496
9გ,ცხინვალის გზატკეცილი,1400,41.9950310,44.1109536
1,რუსუდან ქორქაძის ქუჩა,1400,41.9818905,44.1065499
27,თამარ მეფის ქუჩა,1400,41.9783721,44.1087133
2KM,შინდისის გმირების გამზირი,1400,41.9994447,44.0897004
26ა,სტალინის გამზირი,1400,41.9858570,44.1137403
1,დავით გურამიშვილის ქუჩა,1400,41.9786407,44.1032991
175დ,ძმები რომელაშვილების ქუჩა,1400,41.9763714,44.1150169
11,სტალინის გამზირი,1400,41.9808636,44.1105025
32,სტალინის გამზირი,1400,41.9873192,44.1137046
6ა,ცხინვალის გზატკეცილი,1400,41.9903495,44.1105551
45,ი. ჭავჭავაძის გამზირი,1400,41.9832241,44.1106264
9,ცხინვალის გზატკეცილი,1400,41.9923083,44.1099026
64,ლეხ და მარია კაჩინსკების ქუჩა,1400,41.9955285,44.1059653
5,გ. ჭანტურიას ქუჩა,1400,41.9883609,44.1175850
2,სამეფო ქუჩა,1400,41.9773711,44.1061774
56,ი. ჭავჭავაძის გამზირი,1400,41.9801481,44.1145828
24,ი. ჭავჭავაძის გამზირი,1400,41.9822035,44.1089134
56,ი. ჭავჭავაძის გამზირი,1400,41.9805175,44.1152424
60/2,ქეთევან წამებულის ქუჩა,1400,41.9822637,44.1178756
22,თარხნიშვილის ქუჩა,1400,41.9901488,44.0961911
1,შინდისის გზატკეცილი,1400,41.9885492,44.0986534
1ა,შინდისის გზატკეცილი,1400,41.9887862,44.0977400
13,სტალინის გამზირი,1400,41.9819876,44.1110968
8,ბაქოს ქუჩა,1400,41.9871038,44.0997267
3ა,შინდისის გზატკეცილი,1400,41.9892564,44.0976253
7,გ. ჭანტურიას ქუჩა,1400,41.9886157,44.1183781
3,შინდისის გზატკეცილი,1400,41.9891970,44.0983382
6,სტალინის გამზირი,1400,41.9784614,44.1104682
2,შინდისის გზატკეცილი,1400,41.9878953,44.1006108
1,მაჭავარიანის ქუჩა,1400,41.9860553,44.0949765
3,სამეფო ქუჩა,1400,41.9778344,44.1055920
2,გრიბოედოვის ქუჩა,1400,41.9863242,44.0944591
2,ბაქოს ქუჩა,1400,41.9869417,44.1005652
8,ცხინვალის გზატკეცილი,1400,41.9919715,44.1112507
4,ბესიკის ქუჩა,1400,41.9857344,44.0971909
24,რუსთაველის ქუჩა,1400,41.9786795,44.1077432
179,ძმები რომელაშვილების ქუჩა,1400,41.9753467,44.1125483
48,სტალინის გამზირი,1400,41.9876301,44.1152309
50,სტალინის გამზირი,1400,41.9878565,44.1159330
52,სტალინის გამზირი,1400,41.9882219,44.1160919
7,ცაბაძის ქუჩა,1400,41.9818428,44.1097872
5,ცაბაძის ქუჩა,1400,41.9823727,44.1099962
56,ი. ჭავჭავაძის გამზირი,1400,41.9810537,44.1157108
69,ი. ჭავჭავაძის გამზირი,1400,41.9815379,44.1160801
69,ი. ჭავჭავაძის გამზირი,1400,41.9819416,44.1162628
54,სამეფო ქუჩა,1400,41.9810710,44.1070879
15,სტალინის გამზირი,1400,41.9830216,44.1115521
51,ი. ჭავჭავაძის გამზირი (I. Chavchavadze Ave),1400,41.9827728,44.1123168
20,სტალინის გამზირი,1400,41.9832777,44.1124025
26,სტალინის გამზირი,1400,41.9852755,44.1136957
19,სტალინის გამზირი,1400,41.9839665,44.1119238
21,სტალინის გამზირი,1400,41.9845581,44.1121046
23/1,სტალინის გამზირი,1400,41.9850753,44.1121562
17,სტალინის გამზირი,1400,41.9835138,44.1117776
5,სტალინის გამზირი,1400,41.9785627,44.1098015
7,სტალინის გამზირი,1400,41.9791615,44.1100469
22,სტალინის გამზირი,1400,41.9837526,44.1125816
53,გრიგოლ რობაქიძის ქუჩა,1400,41.9814650,44.1054817
25,სტალინის გამზირი,1400,41.9855728,44.1123819
28,ი. ჭავჭავაძის გამზირი,1400,41.9825472,44.1107852
43,ი. ჭავჭავაძის გამზირი,1400,41.9831398,44.1098035
26,ი. ჭავჭავაძის გამზირი,1400,41.9826283,44.1103434
24,სტალინის გამზირი,1400,41.9846075,44.1132130
26ა,სტალინის გამზირი,1400,41.9857449,44.1137526
28,სტალინის გამზირი,1400,41.9860162,44.1138320
12,სტალინის გამზირი,1400,41.9803464,44.1112406
8,სტალინის გამზირი,1400,41.9789816,44.1107047
10,სტალინის გამზირი,1400,41.9796708,44.1109369
14,სტალინის გამზირი,1400,41.9809051,44.1115752
80,თამარ მეფის ქუჩა,1400,41.9777292,44.1140642
80,თამარ მეფის ქუჩა,1400,41.9776151,44.1140969
76,თამარ მეფის ქუჩა,1400,41.9777814,44.1131077
76,თამარ მეფის ქუჩა,1400,41.9775749,44.1131306
184,ძმები რომელაშვილების ქუჩა,1400,41.9761751,44.1130657
182,ძმები რომელაშვილების ქუჩა,1400,41.9763535,44.1138301
180,ძმები რომელაშვილების ქუჩა,1400,41.9765498,44.1145761
178,მ. გორკის ქუჩა,1400,41.9769426,44.1149843
186,ძმები რომელაშვილების ქუჩა,1400,41.9760785,44.1123582
188,ძმები რომელაშვილების ქუჩა,1400,41.9760600,44.1115894
190,ძმები რომელაშვილების ქუჩა,1400,41.9760598,44.1108126
82,თამარ მეფის ქუჩა,1400,41.9776955,44.1151353
84,თამარ მეფის ქუჩა,1400,41.9776495,44.1157534
176,მ. გორკის ქუჩა,1400,41.9770508,44.1154752
11,ძმები რომელაშვილების ქუჩა,1400,41.9771736,44.1158901
88/90,თამარ მეფის ქუჩა,1400,41.9775674,44.1160490
92,თამარ მეფის ქუჩა,1400,41.9774759,44.1162682
76,თამარ მეფის ქუჩა,1400,41.9770063,44.1132587
76,შოთა ჩოჩიშვილის ქუჩა,1400,41.9766581,44.1127512
76,თამარ მეფის ქუჩა,1400,41.9765934,44.1129842
11ა,სტალინის გამზირი,1400,41.9805076,44.1105509
9,სტალინის გამზირი,1400,41.9798583,44.1103042
31,თამარ მეფის ქუჩა,1400,41.9789280,44.1092073
4,სტალინის გამზირი,1400,41.9777369,44.1101423
2,სტალინის გამზირი,1400,41.9771084,44.1098918
3,სტალინის გამზირი,1400,41.9778426,44.1095145
1,სტალინის გამზირი,1400,41.9772409,44.1092636
33,თამარ მეფის ქუჩა,1400,41.9784588,44.1091337
30,თამარ მეფის ქუჩა,1400,41.9782638,44.1076034
20,რუსთაველის ქუჩა,1400,41.9781842,44.1073236
36,თამარ მეფის ქუჩა,1400,41.9782388,44.1078789
38,თამარ მეფის ქუჩა,1400,41.9782224,44.1080090
40,თამარ მეფის ქუჩა,1400,41.9782093,44.1082407
42,თამარ მეფის ქუჩა,1400,41.9781380,44.1084887
34,თამარ მეფის ქუჩა,1400,41.9782489,44.1077505
5,თამარ მეფის ქუჩა,1400,41.9754510,44.1150145
17,გ. ჭანტურიას ქუჩა,1400,41.9880065,44.1185736
11,გ. ჭანტურიას ქუჩა,1400,41.9880934,44.1180266
9,გ. ჭანტურიას ქუჩა,1400,41.9882803,44.1187896
3,ძმები რომელაშვილების ქუჩა,1400,41.9895805,44.1219547
5,ძმები რომელაშვილების ქუჩა,1400,41.9890664,44.1221585
1,ძმები რომელაშვილების ქუჩა,1400,41.9901059,44.1217522
10,ი. სუხიშვილი ქუჩა,1400,41.9934828,44.1234649
18,ი. სუხიშვილი ქუჩა,1400,41.9942095,44.1229552
14,ი. სუხიშვილი ქუჩა,1400,41.9948919,44.1240778
16,ი. სუხიშვილი ქუჩა,1400,41.9955434,44.1242864
20,ი. სუხიშვილი ქუჩა,1400,41.9949462,44.1231815
22,ი. სუხიშვილი ქუჩა,1400,41.9956116,44.1233812
27,სტალინის გამზირი,1400,41.9861036,44.1124715
29,სტალინის გამზირი,1400,41.9867516,44.1125241
31,სტალინის გამზირი,1400,41.9874291,44.1126663
42,დავით აღმაშენებლის გამზირი,1400,41.9807959,44.1166010
175ბ,ძმები რომელაშვილების ქუჩა,1400,41.9764330,44.1154855
185,ძმები რომელაშვილების ქუჩა,1400,41.9756882,44.1105505
4,შოთა ჩოჩიშვილის ქუჩა,1400,41.9763684,44.1106915
48,ბაგრატიონის ქუჩა,1400,41.9829273,44.1151989
50,ბაგრატიონის ქუჩა,1400,41.9827165,44.1150930
37,ქეთევან წამებულის ქუჩა,1400,41.9831298,44.1162223
1,გელდიაშვილის ქუჩა,1400,41.9835025,44.1128741
18,გელდიაშვილის ქუჩა,1400,41.9843783,44.1136069
14,გელდიაშვილის ქუჩა,1400,41.9840651,44.1135874
24,გელდიაშვილის ქუჩა,1400,41.9840961,44.1143242
22,გელდიაშვილის ქუჩა,1400,41.9841822,44.1141310
9,გელდიაშვილის ქუჩა,1400,41.9843513,44.1142917
53,ი. ჭავჭავაძის გამზირი,1400,41.9825056,44.1135137
14,ბესიკის ქუჩა,1400,41.9877411,44.0985266
12,ბაქოს ქუჩა,1400,41.9875847,44.0989832
10,ბაქოს ქუჩა,1400,41.9873659,44.0994357
12ბ,მშვიდობის გამზირი,1400,41.9882555,44.0978635
14,მშვიდობის გამზირი,1400,41.9879163,44.0960646
12,მშვიდობის გამზირი,1400,41.9872574,44.0973680
1,გიორგი ანწუხელიძის ქუჩა,1400,41.9876452,44.0908035
3,გიორგი ანწუხელიძის ქუჩა,1400,41.9873767,44.0913347
2,გიორგი ანწუხელიძის ქუჩა,1400,41.9873367,44.0904982
4,გიორგი ანწუხელიძის ქუჩა,1400,41.9869785,44.0911663
17,მშვიდობის გამზირი,1400,41.9883512,44.0940112
15,მშვიდობის გამზირი,1400,41.9878179,44.0950534
1ა,გორგასალის ქუჩა,1400,41.9887776,44.0906947
29,მშვიდობის გამზირი,1400,41.9896477,44.0907510
27,მშვიდობის გამზირი,1400,41.9895172,44.0912371
25,მშვიდობის გამზირი,1400,41.9893043,44.0916980
23,მშვიდობის გამზირი,1400,41.9892081,44.0921950
21,მშვიდობის გამზირი,1400,41.9889170,44.0927856
3,ფალიაშვილის ქუჩა,1400,41.9887516,44.0920221
19,მშვიდობის გამზირი,1400,41.9885649,44.0934686
16,მშვიდობის გამზირი,1400,41.9882040,44.0954038
11,გრიბოედოვის ქუჩა,1400,41.9884726,44.0957707
20,თარხნიშვილის ქუჩა,1400,41.9896754,44.0952444
17,გრიბოედოვის ქუჩა,1400,41.9891363,44.0962849
5ა,შინდისის გზატკეცილი,1400,41.9900389,44.0972946
5,შინდისის გზატკეცილი,1400,41.9901833,44.0978260
7,შინდისის გზატკეცილი,1400,41.9908220,44.0975191
9,შინდისის გზატკეცილი,1400,41.9911712,44.0970909
11,შინდისის გზატკეცილი,1400,41.9915056,44.0969630
13,შინდისის გზატკეცილი,1400,41.9918695,44.0967833
15,შინდისის გზატკეცილი,1400,41.9922575,44.0965716
20ა,თარხნიშვილის ქუჩა,1400,41.9906319,44.0966365
30,შინდისის გზატკეცილი,1400,41.9930431,44.0975723
28,შინდისის გზატკეცილი,1400,41.9925868,44.0978267
26,შინდისის გზატკეცილი,1400,41.9921808,44.0976817
24,შინდისის გზატკეცილი,1400,41.9916462,44.0980634
22,შინდისის გზატკეცილი,1400,41.9910278,44.0982465
18,შინდისის გზატკეცილი,1400,41.9902154,44.0989889
16ა,შინდისის გზატკეცილი,1400,41.9897735,44.0990608
4,შინდისის გზატკეცილი,1400,41.9894186,44.0998085
8,შინდისის გზატკეცილი,1400,41.9889102,44.0996428
4ა,შინდისის გზატკეცილი,1400,41.9898800,44.0998908
15,შინდისის გზატკეცილი,1400,41.9893462,44.0989457
14,შინდისის გზატკეცილი,1400,41.9888364,44.0991667
6,შინდისის გზატკეცილი,1400,41.9884909,44.0993220
5ა,გორგასალის ქუჩა,1400,41.9906868,44.0929599
5,გორგასალის ქუჩა,1400,41.9909124,44.0924788
6,გორგასალის ქუჩა,1400,41.9911711,44.0918406
7,გორგასალის ქუჩა,1400,41.9912736,44.0912844
28,მშვიდობის გამზირი,1400,41.9904768,44.0909904
24,მშვიდობის გამზირი,1400,41.9899992,44.0923119
26,მშვიდობის გამზირი,1400,41.9900734,44.0915465
6ა,გორგასალის ქუჩა,1400,41.9906211,44.0916289
22,მშვიდობის გამზირი,1400,41.9896982,44.0926306
20,მშვიდობის გამზირი,1400,41.9893773,44.0932061
18ა,მშვიდობის გამზირი,1400,41.9891369,44.0936553
18,მშვიდობის გამზირი,1400,41.9890396,44.0938930
15,გრიბოედოვის ქუჩა,1400,41.9892756,44.0956350
13,გრიბოედოვის ქუჩა,1400,41.9888244,44.0960102
16ბ,მშვიდობის გამზირი,1400,41.9888029,44.0941715
16,მშვიდობის გამზირი,1400,41.9887211,44.0945810
5,გრიბოედოვის ქუჩა,1400,41.9875311,44.0948598
13,მშვიდობის გამზირი,1400,41.9874938,44.0956810
13,მშვიდობის გამზირი,1400,41.9872292,44.0959034
13,მშვიდობის გამზირი,1400,41.9869769,44.0958302
3,მაჭავარიანის ქუჩა,1400,41.9863851,44.0953153
5,მაჭავარიანის ქუჩა,1400,41.9867047,44.0955973
4,გრიბოედოვის ქუჩა,1400,41.9866847,44.0947307
6,გრიბოედოვის ქუჩა,1400,41.9870161,44.0950619
70,დავით გურამიშვილის ქუჩა,1400,41.9834298,44.1052903
10,მშვიდობის გამზირი,1400,41.9869342,44.0979193
9,მშვიდობის გამზირი,1400,41.9865375,44.0975501
11,მშვიდობის გამზირი,1400,41.9867464,44.0962766
11,მშვიდობის გამზირი,1400,41.9868859,44.0965774
11,მშვიდობის გამზირი,1400,41.9868095,44.0969652
8,თელავის ქუჩა,1400,41.9787920,44.1240095
2,შინდისის გზატკეცილი,1400,41.9874477,44.1004650
2,შინდისის გზატკეცილი,1400,41.9872715,44.1008100
2,შინდისის გზატკეცილი,1400,41.9873038,44.1011691
2,შინდისის გზატკეცილი,1400,41.9876111,44.1009893
2,ბაქოს ქუჩა,1400,41.9864591,44.1003602
9,ჭონქაძის ქუჩა,1400,41.9862408,44.1008199
11,ჭონქაძის ქუჩა,1400,41.9865330,44.1011039
3,ბაქოს ქუჩა,1400,41.9864407,44.0997322
5,ბაქოს ქუჩა,1400,41.9868210,44.0990525
9,ბაქოს ქუჩა,1400,41.9872204,44.0981972
1/4,ლომონოსოვის ქუჩა,1400,41.9852369,44.0981378
8,გიორგი ანწუხელიძის ქუჩა,1400,41.9847090,44.0974034
6,გიორგი ანწუხელიძის ქუჩა,1400,41.9846046,44.0975859
4,გიორგი ანწუხელიძის ქუჩა,1400,41.9845175,44.0977856
9,კონსკაიას ქუჩა,1400,41.9849416,44.0976320
5/7,კონსკაიას ქუჩა,1400,41.9848172,44.0979344
1/3,კონსკაიას ქუჩა,1400,41.9846066,44.0983058
5,ლომონოსოვის ქუჩა,1400,41.9856301,44.0977121
3,ლომონოსოვის ქუჩა,1400,41.9854901,44.0980352
10ა,კონსკაიას ქუჩა,1400,41.9853981,44.0975229
6/8,კონსკაიას ქუჩა,1400,41.9852741,44.0978010
60,ი. ჭავჭავაძის გამზირი,1400,41.9807467,44.1171303
46,დავით აღმაშენებლის გამზირი,1400,41.9814767,44.1170254
44,დავით აღმაშენებლის გამზირი,1400,41.9812155,44.1168907
2,მაჭავარიანის ქუჩა,1400,41.9858232,44.0954288
1,ბესიკის ქუჩა,1400,41.9855544,44.0959572
4,მაჭავარიანის ქუჩა,1400,41.9861754,44.0957327
6,მაჭავარიანის ქუჩა,1400,41.9864738,44.0960323
5,ბესიკის ქუჩა,1400,41.9863029,44.0965085
3,ბესიკის ქუჩა,1400,41.9859466,44.0963538
7,გიორგი ანწუხელიძის ქუჩა,1400,41.9850937,44.0945197
10,ლომონოსოვის ქუჩა,1400,41.9862318,44.0972784
8,ლომონოსოვის ქუჩა,1400,41.9860100,44.0976655
8,ლომონოსოვის ქუჩა,1400,41.9859246,44.0978897
7,მშვიდობის გამზირი,1400,41.9863016,44.0980275
6,ლომონოსოვის ქუჩა,1400,41.9857875,44.0980970
4,ლომონოსოვის ქუჩა,1400,41.9856206,44.0984705
5,მშვიდობის გამზირი,1400,41.9861150,44.0984113
3,მშვიდობის გამზირი,1400,41.9859170,44.0987861
1,მშვიდობის გამზირი,1400,41.9856585,44.0992382
2,ლომონოსოვის ქუჩა,1400,41.9853930,44.0989572
7,ბაქოს ქუჩა,1400,41.9870050,44.0986778
8,მშვიდობის გამზირი,1400,41.9866781,44.0983773
6,მშვიდობის გამზირი,1400,41.9865110,44.0987690
4,მშვიდობის გამზირი,1400,41.9863010,44.0991272
2,მშვიდობის გამზირი,1400,41.9860860,44.0995991
1ა,მშვიდობის გამზირი,1400,41.9852312,44.0996379
2ა,მშვიდობის გამზირი,1400,41.9859627,44.1003211
6,ჭონქაძის ქუჩა,1400,41.9837367,44.0993507
12,ცხინვალის გზატკეცილი,1400,41.9942888,44.1112697
12,ცხინვალის გზატკეცილი,1400,41.9946118,44.1113302
12,ცხინვალის გზატკეცილი,1400,41.9948226,44.1113503
14,ცხინვალის გზატკეცილი,1400,41.9951019,44.1113867
14,ცხინვალის გზატკეცილი,1400,41.9950059,44.1118182
21ა,ცხინვალის გზატკეცილი,1400,41.9974275,44.1108618
56,ყიფიანის ქუჩა,1400,41.9972283,44.1100678
21,ცხინვალის გზატკეცილი,1400,41.9970121,44.1108338
19,ცხინვალის გზატკეცილი,1400,41.9966309,44.1107545
17,ცხინვალის გზატკეცილი,1400,41.9962541,44.1106881
17ა,ცხინვალის გზატკეცილი,1400,41.9958455,44.1106111
9ვ,ცხინვალის გზატკეცილი,1400,41.9954278,44.1105351
9ბ,ცხინვალის გზატკეცილი,1400,41.9949836,44.1104493
9ა,ცხინვალის გზატკეცილი,1400,41.9944687,44.1104263
11ა,ცხინვალის გზატკეცილი,1400,41.9945769,44.1098988
11,ცხინვალის გზატკეცილი,1400,41.9946337,44.1093265
28,ყიფიანის ქუჩა,1400,41.9948230,44.1089753
26,ყიფიანის ქუჩა,1400,41.9945555,44.1088462
33,ყიფიანის ქუჩა,1400,41.9954884,44.1082519
18,ცხინვალის გზატკეცილი,1400,41.9967371,44.1099064
15ბ,ცხინვალის გზატკეცილი,1400,41.9960012,44.1099992
15,ცხინვალის გზატკეცილი,1400,41.9959641,44.1095143
16,ყიფიანის ქუჩა,1400,41.9961324,44.1089958
18,ყიფიანის ქუჩა,1400,41.9968458,44.1091210
58,ყიფიანის ქუჩა,1400,41.9973504,44.1094674
15,ყიფიანის ქუჩა,1400,41.9961901,44.1084415
13,ყიფიანის ქუჩა,1400,41.9967022,44.1082678
11,ყიფიანის ქუჩა,1400,41.9970858,44.1083395
31,ყიფიანის ქუჩა,1400,41.9974537,44.1084127
29,ყიფიანის ქუჩა,1400,41.9970055,44.1077094
21,ელიოზიშვილის ქუჩა,1400,41.9977619,44.1062635
19,ელიოზიშვილის ქუჩა,1400,41.9976074,44.1066127
17,ელიოზიშვილის ქუჩა,1400,41.9972992,44.1067151
15,ელიოზიშვილის ქუჩა,1400,41.9970400,44.1065196
13,ელიოზიშვილის ქუჩა,1400,41.9967125,44.1067882
11,ელიოზიშვილის ქუჩა,1400,41.9964584,44.1065795
35,ყიფიანის ქუჩა,1400,41.9961112,44.1079149
52,ყიფიანის ქუჩა,1400,41.9953206,44.1092189
26,ი. სუხიშვილი ქუჩა,1400,41.9957292,44.1229558
12,ი. სუხიშვილი ქუჩა,1400,41.9941969,44.1238819
24,ი. სუხიშვილი ქუჩა,1400,41.9960006,44.1238089
56,ი. ჭავჭავაძის გამზირი,1400,41.9799513,44.1153442
56,ი. ჭავჭავაძის გამზირი,1400,41.9795677,44.1147844
56,ი. ჭავჭავაძის გამზირი,1400,41.9798068,44.1141439
1,ფარნავაზის ქუჩა,1400,41.9887777,44.1166846
1,შოთა ჩოჩიშვილის ქუჩა,1400,41.9764000,44.1102836
3,შოთა ჩოჩიშვილის ქუჩა,1400,41.9766878,44.1104245
5/7,შოთა ჩოჩიშვილის ქუჩა,1400,41.9768996,44.1104496
9,შოთა ჩოჩიშვილის ქუჩა,1400,41.9771004,44.1104996
11,შოთა ჩოჩიშვილის ქუჩა,1400,41.9772231,44.1105492
15,შოთა ჩოჩიშვილის ქუჩა,1400,41.9775356,44.1106137
52,თამარ მეფის ქუჩა,1400,41.9779066,44.1106342
52,თამარ მეფის ქუჩა,1400,41.9777432,44.1106699
54,თამარ მეფის ქუჩა,1400,41.9779011,44.1109651
56,თამარ მეფის ქუჩა,1400,41.9778762,44.1111231
58,თამარ მეფის ქუჩა,1400,41.9778378,44.1112578
60,თამარ მეფის ქუჩა,1400,41.9778222,44.1113778
62,თამარ მეფის ქუჩა,1400,41.9777555,44.1115157
64,თამარ მეფის ქუჩა,1400,41.9776933,44.1116978
31ა,ყიფიანის ქუჩა,1400,41.9947948,44.1083475
1ა,გელდიაშვილის ქუჩა,1400,41.9830391,44.1126822
56,წმინდა ეპისკოპოსი ალექსანდრეს ქუჩა,1400,42.0006370,44.1278281
60,წმინდა ეპისკოპოსი ალექსანდრეს ქუჩა,1400,42.0006371,44.1281233
64,წმინდა ეპისკოპოსი ალექსანდრეს ქუჩა,1400,42.0006355,44.1284079
66,წმინდა ეპისკოპოსი ალექსანდრეს ქუჩა,1400,42.0006355,44.1285541
68,წმინდა ეპისკოპოსი ალექსანდრეს ქუჩა,1400,42.0006371,44.1286924
74,წმინდა ეპისკოპოსი ალექსანდრეს ქუჩა,1400,42.0006386,44.1292148
78,წმინდა ეპისკოპოსი ალექსანდრეს ქუჩა,1400,42.0006341,44.1295054
80,წმინდა ეპისკოპოსი ალექსანდრეს ქუჩა,1400,42.0006386,44.1296498
84,წმინდა ეპისკოპოსი ალექსანდრეს ქუჩა,1400,42.0006310,44.1299446
88,წმინდა ეპისკოპოსი ალექსანდრეს ქუჩა,1400,42.0006265,44.1302333
32/34,წმინდა ეპისკოპოსი ალექსანდრეს ქუჩა,1400,41.9996450,44.1266284
24/26,წმინდა ეპისკოპოსი ალექსანდრეს ქუჩა,1400,41.9992053,44.1266263
20/22,წმინდა ეპისკოპოსი ალექსანდრეს ქუჩა,1400,41.9989818,44.1266304
2/4,წმინდა ეპისკოპოსი ალექსანდრეს ქუჩა,1400,41.9979546,44.1266222
1/3,წმინდა ეპისკოპოსი ალექსანდრეს ქუჩა,1400,41.9979606,44.1264169
5/7,წმინდა ეპისკოპოსი ალექსანდრეს ქუჩა,1400,41.9981736,44.1264149
6/8,წმინდა ეპისკოპოსი ალექსანდრეს ქუჩა,1400,41.9981751,44.1266263
10/12,წმინდა ეპისკოპოსი ალექსანდრეს ქუჩა,1400,41.9983956,44.1266182
9/11,წმინდა ეპისკოპოსი ალექსანდრეს ქუჩა,1400,41.9983941,44.1264129
14/16,წმინდა ეპისკოპოსი ალექსანდრეს ქუჩა,1400,41.9986042,44.1266182
13/15,წმინდა ეპისკოპოსი ალექსანდრეს ქუჩა,1400,41.9986057,44.1264230
18,წმინდა ეპისკოპოსი ალექსანდრეს ქუჩა,1400,41.9987753,44.1266256
17,წმინდა ეპისკოპოსი ალექსანდრეს ქუჩა,1400,41.9987793,44.1264250
19,წმინდა ეპისკოპოსი ალექსანდრეს ქუჩა,1400,41.9989225,44.1264262
21/23,წმინდა ეპისკოპოსი ალექსანდრეს ქუჩა,1400,41.9991875,44.1264263
28/30,წმინდა ეპისკოპოსი ალექსანდრეს ქუჩა,1400,41.9994214,44.1266454
38,წმინდა ეპისკოპოსი ალექსანდრეს ქუჩა,1400,42.0000003,44.1267106
44,წმინდა ეპისკოპოსი ალექსანდრეს ქუჩა,1400,42.0002391,44.1270114
42,წმინდა ეპისკოპოსი ალექსანდრეს ქუჩა,1400,42.0001590,44.1269118
76,წმინდა ეპისკოპოსი ალექსანდრეს ქუჩა,1400,42.0006378,44.1293575
82,წმინდა ეპისკოპოსი ალექსანდრეს ქუჩა,1400,42.0006189,44.1297950
86,წმინდა ეპისკოპოსი ალექსანდრეს ქუჩა,1400,42.0006129,44.1300909
90,წმინდა ეპისკოპოსი ალექსანდრეს ქუჩა,1400,42.0006257,44.1303820
72,წმინდა ეპისკოპოსი ალექსანდრეს ქუჩა,1400,42.0006302,44.1290747
70,წმინდა ეპისკოპოსი ალექსანდრეს ქუჩა,1400,42.0006321,44.1288425
62,წმინდა ეპისკოპოსი ალექსანდრეს ქუჩა,1400,42.0006156,44.1282583
58,წმინდა ეპისკოპოსი ალექსანდრეს ქუჩა,1400,42.0006327,44.1279733
36,წმინდა ეპისკოპოსი ალექსანდრეს ქუჩა,1400,41.9998614,44.1266540
40,წმინდა ეპისკოპოსი ალექსანდრეს ქუჩა,1400,42.0000720,44.1268145
46,წმინდა ეპისკოპოსი ალექსანდრეს ქუჩა,1400,42.0003387,44.1271358
50,წმინდა ეპისკოპოსი ალექსანდრეს ქუჩა,1400,42.0004929,44.1273490
52,წმინდა ეპისკოპოსი ალექსანდრეს ქუჩა,1400,42.0005759,44.1274405
48,წმინდა ეპისკოპოსი ალექსანდრეს ქუჩა,1400,42.0004005,44.1272735
54,წმინდა ეპისკოპოსი ალექსანდრეს ქუჩა,1400,42.0006098,44.1276901
3,ნადირაძის ქუჩა,1400,41.9947325,44.1023000
5,ნადირაძის ქუჩა,1400,41.9948691,44.1019667
7,ნადირაძის ქუჩა,1400,41.9951167,44.1021746
9,ნადირაძის ქუჩა,1400,41.9954396,44.1018673
11,ნადირაძის ქუჩა,1400,41.9957093,44.1020282
13,ნადირაძის ქუჩა,1400,41.9959991,44.1018654
15,ნადირაძის ქუჩა,1400,41.9961116,44.1014955
17,ნადირაძის ქუჩა,1400,41.9964796,44.1014189
21,ნადირაძის ქუჩა,1400,41.9965862,44.1010551
19,ნადირაძის ქუჩა,1400,41.9968497,44.1012204
2,გვერდწითელის ქუჩა,1400,41.9972517,44.1015539
25,ნადირაძის ქუჩა,1400,41.9972397,44.1009694
1ა,გვერდწითელის ქუჩა,1400,41.9970584,44.1024742
3,გვერდწითელის ქუჩა,1400,41.9971463,44.1028847
32,ყიფიანის ქუჩა,1400,41.9928811,44.1086622
32,ყიფიანის ქუჩა,1400,41.9925676,44.1086134
32,ყიფიანის ქუჩა,1400,41.9931945,44.1087616
32,ყიფიანის ქუჩა,1400,41.9922579,44.1086241
7ა,ცხინვალის გზატკეცილი,1400,41.9913290,44.1089954
7,ცხინვალის გზატკეცილი,1400,41.9912373,44.1096387
7,ძმები რომელაშვილების ქუჩა,1400,41.9884997,44.1221586
1,გრიგოლ რობაქიძის ქუჩა,1400,41.9779355,44.1044058
3,გრიგოლ რობაქიძის ქუჩა,1400,41.9781107,44.1044666
5,გრიგოლ რობაქიძის ქუჩა,1400,41.9782862,44.1045302
4,დავით გურამიშვილის ქუჩა,1400,41.9784713,44.1042341
2,დავით გურამიშვილის ქუჩა,1400,41.9783342,44.1042092
7,გრიგოლ რობაქიძის ქუჩა,1400,41.9784593,44.1045584
9,გრიგოლ რობაქიძის ქუჩა,1400,41.9785611,44.1046244
6,დავით გურამიშვილის ქუჩა,1400,41.9787386,44.1043055
6,თამარ მეფის ქუჩა,1400,41.9786893,44.1046629
4,თამარ მეფის ქუჩა,1400,41.9787343,44.1045127
5,სამეფო ქუჩა,1400,41.9785410,44.1054109
5,სამეფო ქუჩა,1400,41.9781899,44.1052982
5,სამეფო ქუჩა,1400,41.9781569,44.1054439
5,სამეფო ქუჩა,1400,41.9783245,44.1057299
5,სამეფო ქუჩა,1400,41.9783544,44.1055462
3,გელდიაშვილის ქუჩა,1400,41.9838966,44.1130756
4,შაფთოშვილის ქუჩა,1400,41.9785199,44.1113400
68,თამარ მეფის ქუჩა,1400,41.9777949,44.1119697
70,თამარ მეფის ქუჩა,1400,41.9778287,44.1121587
72,თამარ მეფის ქუჩა,1400,41.9778293,44.1124207
74,თამარ მეფის ქუჩა,1400,41.9777931,44.1125487
76,თამარ მეფის ქუჩა,1400,41.9778195,44.1126484
76,თამარ მეფის ქუჩა,1400,41.9777167,44.1127582
80,თამარ მეფის ქუჩა,1400,41.9773766,44.1142327
76,თამარ მეფის ქუჩა,1400,41.9765935,44.1137145
8,შოთა ჩოჩიშვილის ქუჩა,1400,41.9769394,44.1115003
6,შოთა ჩოჩიშვილის ქუჩა,1400,41.9769919,44.1107929
18/20,შოთა ჩოჩიშვილის ქუჩა,1400,41.9773037,44.1108215
16,შოთა ჩოჩიშვილის ქუჩა,1400,41.9772787,44.1111153
12/14,შოთა ჩოჩიშვილის ქუჩა,1400,41.9772642,44.1113102
22,შოთა ჩოჩიშვილის ქუჩა,1400,41.9775255,44.1108956
10,შოთა ჩოჩიშვილის ქუჩა,1400,41.9772200,44.1116394
24,შოთა ჩოჩიშვილის ქუჩა,1400,41.9776790,44.1109159
76,თამარ მეფის ქუჩა,1400,41.9773620,44.1122883
39/2,თამარ მეფის ქუჩა,1400,41.9782744,44.1111336
41,თამარ მეფის ქუჩა,1400,41.9782126,44.1114008
43,თამარ მეფის ქუჩა,1400,41.9781580,44.1116710
45,თამარ მეფის ქუჩა,1400,41.9781368,44.1118416
1,დურმიშხან ბერიუაშვილის ქუჩა,1400,41.9782568,44.1118901
37,თამარ მეფის ქუჩა,1400,41.9782652,44.1107466
6,შაფთოშვილის ქუჩა,1400,41.9787472,44.1113111
8,შაფთოშვილის ქუჩა,1400,41.9788402,44.1113426
10,შაფთოშვილის ქუჩა,1400,41.9789904,44.1113701
14,შაფთოშვილის ქუჩა,1400,41.9792011,44.1114592
12,შაფთოშვილის ქუჩა,1400,41.9791164,44.1113852
16,შაფთოშვილის ქუჩა,1400,41.9793146,44.1114719
18,შაფთოშვილის ქუჩა,1400,41.9795326,44.1115158
18,შაფთოშვილის ქუჩა,1400,41.9796397,44.1115489
18,შაფთოშვილის ქუჩა,1400,41.9795465,44.1116410
14,დავით გურამიშვილის ქუჩა,1400,41.9794223,44.1043777
16,დავით გურამიშვილის ქუჩა,1400,41.9797222,44.1044940
18,დავით გურამიშვილის ქუჩა,1400,41.9792371,44.1043444
8/10,დავით გურამიშვილის ქუჩა,1400,41.9789794,44.1043451
12,დავით გურამიშვილის ქუჩა,1400,41.9790768,44.1043600
3,თამარ მეფის ქუჩა,1400,41.9789516,44.1045084
11,გრიგოლ რობაქიძის ქუჩა,1400,41.9790066,44.1047006
13,გრიგოლ რობაქიძის ქუჩა,1400,41.9791444,44.1047483
15,გრიგოლ რობაქიძის ქუჩა,1400,41.9792743,44.1047794
17,გრიგოლ რობაქიძის ქუჩა,1400,41.9794344,44.1048880
17,გრიგოლ რობაქიძის ქუჩა,1400,41.9794415,44.1047502
19/21,გრიგოლ რობაქიძის ქუჩა,1400,41.9795846,44.1048702
23,გრიგოლ რობაქიძის ქუჩა,1400,41.9797159,44.1049394
25,გრიგოლ რობაქიძის ქუჩა,1400,41.9798409,44.1049634
27,გრიგოლ რობაქიძის ქუჩა,1400,41.9799250,44.1050055
29,გრიგოლ რობაქიძის ქუჩა,1400,41.9800513,44.1050160
18,დავით გურამიშვილის ქუჩა,1400,41.9799607,44.1044883
20,დავით გურამიშვილის ქუჩა,1400,41.9801550,44.1044529
20,დავით გურამიშვილის ქუჩა,1400,41.9801474,44.1045855
31,გრიგოლ რობაქიძის ქუჩა,1400,41.9802300,44.1047906
22,დავით გურამიშვილის ქუჩა,1400,41.9803436,44.1044604
24,დავით გურამიშვილის ქუჩა,1400,41.9804735,44.1045273
26,დავით გურამიშვილის ქუჩა,1400,41.9806095,44.1045195
26,დავით გურამიშვილის ქუჩა,1400,41.9805964,44.1046475
37,გრიგოლ რობაქიძის ქუჩა,1400,41.9805944,44.1048562
35,გრიგოლ რობაქიძის ქუჩა,1400,41.9803880,44.1051389
33,გრიგოლ რობაქიძის ქუჩა,1400,41.9803100,44.1051315
37,გრიგოლ რობაქიძის ქუჩა,1400,41.9805025,44.1051734
37,გრიგოლ რობაქიძის ქუჩა,1400,41.9805251,44.1050356
28,დავით გურამიშვილის ქუჩა,1400,41.9807428,44.1049060
30/32,დავით გურამიშვილის ქუჩა,1400,41.9808267,44.1045675
43ა,გრიგოლ რობაქიძის ქუჩა,1400,41.9809195,44.1048682
39,გრიგოლ რობაქიძის ქუჩა,1400,41.9807022,44.1051965
41,გრიგოლ რობაქიძის ქუჩა,1400,41.9807825,44.1052351
43,გრიგოლ რობაქიძის ქუჩა,1400,41.9808556,44.1053115
45,გრიგოლ რობაქიძის ქუჩა,1400,41.9809343,44.1053115
47,გრიგოლ რობაქიძის ქუჩა,1400,41.9810138,44.1053548
36,დავით გურამიშვილის ქუჩა,1400,41.9811222,44.1050027
49,გრიგოლ რობაქიძის ქუჩა,1400,41.9811811,44.1053825
34,დავით გურამიშვილის ქუჩა,1400,41.9810540,44.1046197
34,დავით გურამიშვილის ქუჩა,1400,41.9810393,44.1047256
38,დავით გურამიშვილის ქუჩა,1400,41.9811798,44.1046200
40,დავით გურამიშვილის ქუჩა,1400,41.9813077,44.1047104
42,დავით გურამიშვილის ქუჩა,1400,41.9814488,44.1046962
40ა,დავით გურამიშვილის ქუჩა,1400,41.9813740,44.1050017
44,დავით გურამიშვილის ქუჩა,1400,41.9816368,44.1046775
2,დ. ამილახვარის ქუჩა,1400,41.9815588,44.1048057
4,დ. ამილახვარის ქუჩა,1400,41.9815727,44.1049534
6,დ. ამილახვარის ქუჩა,1400,41.9815057,44.1050848
6ა,დ. ამილახვარის ქუჩა,1400,41.9815311,44.1052510
1,სამეფო ქუჩა,1400,41.9775802,44.1052491
2,გრიგოლ რობაქიძის ქუჩა,1400,41.9779079,44.1047497
4,გრიგოლ რობაქიძის ქუჩა,1400,41.9780145,44.1048062
6,გრიგოლ რობაქიძის ქუჩა,1400,41.9781280,44.1047971
8,გრიგოლ რობაქიძის ქუჩა,1400,41.9783252,44.1048575
12,თამარ მეფის ქუჩა,1400,41.9782436,44.1049952
10,გრიგოლ რობაქიძის ქუჩა,1400,41.9786703,44.1049517
10,თამარ მეფის ქუჩა,1400,41.9785943,44.1050928
10ა,ცხინვალის გზატკეცილი,1400,41.9957510,44.1116850
10,ცხინვალის გზატკეცილი,1400,41.9954448,44.1117728
22,ცხინვალის გზატკეცილი,1400,41.9966297,44.1124035
22,ცხინვალის გზატკეცილი,1400,41.9961715,44.1123240
22,ცხინვალის გზატკეცილი,1400,41.9963928,44.1123905
17ა,მშვიდობის გამზირი,1400,41.9887206,44.0932572
47,ი. ჭავჭავაძის გამზირი,1400,41.9829084,44.1111705
16,გელდიაშვილის ქუჩა,1400,41.9842156,44.1136012
20,გელდიაშვილის ქუჩა,1400,41.9842501,44.1139524
51,გრიგოლ რობაქიძის ქუჩა,1400,41.9813231,44.1054380
2,ჭონქაძის ქუჩა,1400,41.9806908,44.0976255
9,ირაკლი აბრამაშვილის ქუჩა,1400,41.9795114,44.1197335
9,ირაკლი აბრამაშვილის ქუჩა,1400,41.9795233,44.1198745
9ა,ბარნოვის ქუჩა,1400,41.9766693,44.1078006
10ა,ბარნოვის ქუჩა,1400,41.9769915,44.1068422
5,თამარ მეფის ქუჩა,1400,41.9788345,44.1052767
9,თამარ მეფის ქუჩა,1400,41.9788023,44.1056477
11,თამარ მეფის ქუჩა,1400,41.9787666,44.1057842
9,სამეფო ქუჩა,1400,41.9787663,44.1059456
7,სამეფო ქუჩა,1400,41.9786745,44.1059274
94,თამარ მეფის ქუჩა,1400,41.9773535,44.1166502
98,თამარ მეფის ქუჩა,1400,41.9772501,44.1169424
96,თამარ მეფის ქუჩა,1400,41.9773110,44.1168689
100,თამარ მეფის ქუჩა,1400,41.9772181,44.1170442
102,თამარ მეფის ქუჩა,1400,41.9772006,44.1171809
104,თამარ მეფის ქუჩა,1400,41.9771766,44.1173019
104,თამარ მეფის ქუჩა,1400,41.9771513,44.1173766
104,თამარ მეფის ქუჩა,1400,41.9771051,44.1173028
106,თამარ მეფის ქუჩა,1400,41.9768869,44.1174543
9ა,ძმები რომელაშვილების ქუჩა,1400,41.9765359,44.1161242
9ა,ძმები რომელაშვილების ქუჩა,1400,41.9767928,44.1162726
173,ძმები რომელაშვილების ქუჩა,1400,41.9765718,44.1157041
171,ძმები რომელაშვილების ქუჩა,1400,41.9772162,44.1164610
171,ძმები რომელაშვილების ქუჩა,1400,41.9771483,44.1165814
171,ძმები რომელაშვილების ქუჩა,1400,41.9770405,44.1165972
181,ძმები რომელაშვილების ქუჩა,1400,41.9749444,44.1138823
47,ნატო ვაჩნაძის ქუჩა,1400,41.9806861,44.1075556
4,ნატო ვაჩნაძის ქუჩა,1400,41.9807703,44.1073660
1,ნატო ვაჩნაძის ქუჩა,1400,41.9809169,44.1072790
6,შოთა რუსთაველის ჩიხი,1400,41.9797377,44.1082643
70a,შოთა რუსთაველის ქუჩა,1400,41.9801301,44.1085607
1,შოთა რუსთაველის ჩიხი,1400,41.9801400,44.1090591
2a,შოთა რუსთაველის ჩიხი,1400,41.9798967,44.1085567
2,შოთა რუსთაველის ჩიხი,1400,41.9799445,44.1085453
4,შოთა რუსთაველის ჩიხი,1400,41.9798440,44.1085329
70,შოთა რუსთაველის ქუჩა,1400,41.9801481,44.1083586
4,ნატო ვაჩნაძის ქუჩა,1400,41.9806914,44.1073909
1,შოთა რუსთაველის ჩიხი,1400,41.9802988,44.1091071
8,შოთა რუსთაველის ჩიხი,1400,41.9797583,44.1081120
44,სამეფოს ქუჩა,1400,41.9806281,44.1070554
38,შოთა რუსთაველის ქუჩა,1400,41.9798366,44.1078931
30,სამეფოს ქუჩა,1400,41.9795113,44.1069411
11,ხაშურის ქუჩა,1400,41.9793322,44.1082873
22,შოთა რუსთაველის ქუჩა,1400,41.9790232,44.1075870
51,სამეფოს ქუჩა,1400,41.9810169,44.1074021
72,შოთა რუსთაველის ქუჩა,1400,41.9802388,44.1084058
63,გრიგოლ რობაქიძის ქუჩა,1400,41.9831464,44.1054521
4,შოთა რუსთაველის ჩიხი,1400,41.9798703,44.1082703
35,შოთა რუსთაველის ქუჩა,1400,41.9796220,44.1074763
37,შოთა რუსთაველის ქუჩა,1400,41.9797369,44.1075455
11,ხაშურის ქუჩა,1400,41.9793272,44.1083625
8,დავით ამილახვრის ქუჩა,1400,41.9812376,44.1077059
8,დავით ამილახვრის ქუჩა,1400,41.9813217,44.1077269
36,გრიგოლ რობაქიძის ქუჩა,1400,41.9808247,44.1059575
45,სამეფოს ქუჩა,1400,41.9830027,44.1070254
49,შოთა რუსთაველის ქუჩა,1400,41.9806385,44.1076855
43,შოთა რუსთაველის ქუჩა,1400,41.9800243,44.1076658
60,გრიგოლ რობაქიძის ქუჩა,1400,41.9831508,44.1059128
54,სამეფოს ქუჩა,1400,41.9816740,44.1072595
48,შოთა რუსთაველის ქუჩა,1400,41.9804687,44.1082100
46,შოთა რუსთაველის ქუჩა,1400,41.9803603,44.1081994
37,სამეფოს ქუჩა,1400,41.9812439,44.1066172
2,დავით ამილახვრის ქუჩა,1400,41.9814061,44.1072690
64,გრიგოლ რობაქიძის ქუჩა,1400,41.9833555,44.1059733
66,გრიგოლ რობაქიძის ქუჩა,1400,41.9835032,44.1060059
47,სამეფოს ქუჩა,1400,41.9832746,44.1070084
28,სამეფოს ქუჩა,1400,41.9793827,44.1066914
48,გრიგოლ რობაქიძის ქუჩა,1400,41.9821962,44.1057428
24,სამეფოს ქუჩა,1400,41.9790502,44.1064628
23,შოთა რუსთაველის ქუჩა,1400,41.9787127,44.1071734
2,ხაშურის ქუჩა,1400,41.9784314,44.1085230
52,შოთა რუსთაველის ქუჩა,1400,41.9811946,44.1083482
29,სამეფოს ქუჩა,1400,41.9804752,44.1064107
7,ხაშურის ქუჩა,1400,41.9787524,44.1083033
9,ხაშურის ქუჩა,1400,41.9789447,44.1083342
69,შოთა რუსთაველის ქუჩა,1400,41.9828917,44.1082150
44,გრიგოლ რობაქიძის ქუჩა,1400,41.9814279,44.1059022
34,გრიგოლ რობაქიძის ქუჩა,1400,41.9807355,44.1056999
42,სამეფოს ქუჩა,1400,41.9805203,44.1069246
58,შოთა რუსთაველის ქუჩა,1400,41.9818967,44.1082607
26,სამეფოს ქუჩა,1400,41.9792565,44.1065470
30,სამეფოს ქუჩა,1400,41.9795340,44.1068106
40,სამეფოს ქუჩა,1400,41.9803305,44.1069243
42,შოთა რუსთაველის ქუჩა,1400,41.9799348,44.1079462
56,სამეფოს ქუჩა,1400,41.9817568,44.1072810
34,სამეფოს ქუჩა,1400,41.9799318,44.1067346
66,სამეფოს ქუჩა,1400,41.9828567,44.1075035
65,შოთა რუსთაველის ქუჩა,1400,41.9827249,44.1080697
37,სამეფოს ქუჩა,1400,41.9813074,44.1065818
62,გრიგოლ რობაქიძის ქუჩა,1400,41.9832650,44.1058954
66,გრიგოლ რობაქიძის ქუჩა,1400,41.9834805,44.1061267
69,გრიგოლ რობაქიძის ქუჩა,1400,41.9835563,44.1057894
61,შოთა რუსთაველის ქუჩა,1400,41.9824858,44.1080919
33,სამეფოს ქუჩა,1400,41.9808982,44.1065562
67,შოთა რუსთაველის ქუჩა,1400,41.9828500,44.1080702
39,შოთა რუსთაველის ქუჩა,1400,41.9799112,44.1075409
64,სამეფოს ქუჩა,1400,41.9824112,44.1074758
69,გრიგოლ რობაქიძის ქუჩა,1400,41.9835881,44.1056318
63,შოთა რუსთაველის ქუჩა,1400,41.9826189,44.1080764
35,სამეფოს ქუჩა,1400,41.9810511,44.1066443
55,შოთა რუსთაველის ქუჩა,1400,41.9816299,44.1079736
1,ხაშურის ქუჩა,1400,41.9784552,44.1081274
62,შოთა რუსთაველის ქუჩა,1400,41.9823093,44.1083638
8,ხაშურის ქუჩა,1400,41.9790057,44.1087311
4,დავით ამილახვრის ქუჩა,1400,41.9813535,44.1073935
66,სამეფოს ქუჩა,1400,41.9829179,44.1074912
36,გრიგოლ რობაქიძის ქუჩა,1400,41.9808852,44.1057833
13,ხაშურის ქუჩა,1400,41.9794464,44.1084137
20,სამეფოს ქუჩა,1400,41.9787137,44.1063734
56,სამეფოს ქუჩა,1400,41.9817127,44.1074338
42,გრიგოლ რობაქიძის ქუჩა,1400,41.9812912,44.1059564
22,სამეფოს ქუჩა,1400,41.9788924,44.1064545
15,ხაშურის ქუჩა,1400,41.9795350,44.1084403
21,შოთა რუსთაველის ქუჩა,1400,41.9785753,44.1071120
32,გრიგოლ რობაქიძის ქუჩა,1400,41.9806176,44.1056697
60,შოთა რუსთაველის ქუჩა,1400,41.9820412,44.1083537
44,შოთა რუსთაველის ქუჩა,1400,41.9800341,44.1079769
30,გრიგოლ რობაქიძის ქუჩა,1400,41.9805410,44.1056204
10,ხაშურის ქუჩა,1400,41.9791331,44.1087088
15,ხაშურის ქუჩა,1400,41.9796089,44.1084474
54,შოთა რუსთაველის ქუჩა,1400,41.9813734,44.1083854
45,შოთა რუსთაველის ქუჩა,1400,41.9801922,44.1077248
27,შოთა რუსთაველის ქუჩა,1400,41.9790755,44.1072531
38,გრიგოლ რობაქიძის ქუჩა,1400,41.9810188,44.1057957
50,გრიგოლ რობაქიძის ქუჩა,1400,41.9824310,44.1057241
29,შოთა რუსთაველის ქუჩა,1400,41.9792908,44.1072435
41,შოთა რუსთაველის ქუჩა,1400,41.9800362,44.1075482
5,ხაშურის ქუჩა,1400,41.9786579,44.1083091
46,გრიგოლ რობაქიძის ქუჩა,1400,41.9820124,44.1057725
40,შოთა რუსთაველის ქუჩა,1400,41.9798874,44.1079234
64,სამეფოს ქუჩა,1400,41.9826774,44.1075311
65,გრიგოლ რობაქიძის ქუჩა,1400,41.9832044,44.1056406
24,შოთა რუსთაველის ქუჩა,1400,41.9790777,44.1076875
31,შოთა რუსთაველის ქუჩა,1400,41.9793981,44.1074005
32,სამეფოს ქუჩა,1400,41.9797692,44.1066958
16,ხაშურის ქუჩა,1400,41.9795189,44.1088109
38,სამეფოს ქუჩა,1400,41.9801840,44.1068234
6,დავით ამილახვრის ქუჩა,1400,41.9812917,44.1075137
6,ხაშურის ქუჩა,1400,41.9789062,44.1086306
52,გრიგოლ რობაქიძის ქუჩა,1400,41.9826419,44.1057688
54,გრიგოლ რობაქიძის ქუჩა,1400,41.9827530,44.1057996
26,შოთა რუსთაველის ქუჩა,1400,41.9792093,44.1076975
14,ხაშურის ქუჩა,1400,41.9794074,44.1087828
51,შოთა რუსთაველის ქუჩა,1400,41.9810225,44.1078938
9,ხაშურის ქუჩა,1400,41.9791046,44.1084169
18,ხაშურის ქუჩა,1400,41.9797910,44.1088977
40,გრიგოლ რობაქიძის ქუჩა,1400,41.9811427,44.1058009
67,გრიგოლ რობაქიძის ქუჩა,1400,41.9833293,44.1055283
50,შოთა რუსთაველის ქუჩა,1400,41.9810586,44.1082952
54,სამეფოს ქუჩა,1400,41.9816613,44.1074238
36,შოთა რუსთაველის ქუჩა,1400,41.9797695,44.1078287
25,შოთა რუსთაველის ქუჩა,1400,41.9788676,44.1071895
36,სამეფოს ქუჩა,1400,41.9801044,44.1067658
33,შოთა რუსთაველის ქუჩა,1400,41.9794921,44.1074399
4,ხაშურის ქუჩა,1400,41.9787602,44.1086223
47,შოთა რუსთაველის ქუჩა,1400,41.9804491,44.1077857
58,გრიგოლ რობაქიძის ქუჩა,1400,41.9830161,44.1058910
10,დავით ამილახვრის ქუჩა,1400,41.9813547,44.1085312
12,ხაშურის ქუჩა,1400,41.9792749,44.1087237
46,გრიგოლ რობაქიძის ქუჩა,1400,41.9819614,44.1058819
52,სამეფოს ქუჩა,1400,41.9815813,44.1072881
62,სამეფოს ქუჩა,1400,41.9825116,44.1075189
67,გრიგოლ რობაქიძის ქუჩა,1400,41.9833153,44.1056770
69,გრიგოლ რობაქიძის ქუჩა,1400,41.9835726,44.1057086
13,ხაშურის ქუჩა,1400,41.9794272,44.1085117
46,სამეფოს ქუჩა,1400,41.9807848,44.1070569
50,სამეფოს ქუჩა,1400,41.9812533,44.1071418
12,დავით ამილახვრის ქუჩა,1400,41.9813883,44.1087359
52,სამეფოს ქუჩა,1400,41.9813964,44.1071410
3,ხაშურის ქუჩა,1400,41.9785828,44.1081466
28,შოთა რუსთაველის ქუჩა,1400,41.9793565,44.1076721
53,შოთა რუსთაველის ქუჩა,1400,41.9815002,44.1079616
6,აბაშიძის ქუჩა,1400,41.9804931,44.1061227
4,აბაშიძის ქუჩა,1400,41.9804717,44.1062598
8,აბაშიძის ქუჩა,1400,41.9805339,44.1060122
8,აბაშიძის ქუჩა,1400,41.9805434,44.1059046
31,სამეფოს ქუჩა,1400,41.9806338,44.1064909
56,გრიგოლ რობაქიძის ქუჩა,1400,41.9828508,44.1058355
4,9 აპრილის ქუჩა,1400,41.9816657,44.1077149
9,თბილისის ქუჩა,1400,41.9898591,44.1173890
27,თამარ მეფის ქუჩა,1400,41.9784567,44.1087170
2KM,შინდისის გამზირი,1400,41.9994488,44.0896932
2KM,შინდისის გმირების გამზირი,1400,42.0000780,44.0894654
2KM,შინდისის გმირების გამზირი,1400,42.0005259,44.0892626
2KM,შინდისის გმირების გამზირი,1400,42.0004318,44.0892959
2KM,შინდისის გმირების გამზირი,1400,42.0008122,44.0891218
2KM,შინდისის გმირების გამზირი,1400,42.0010404,44.0890654
2KM,შინდისის გმირების გამზირი,1400,42.0008140,44.0887838
2KM,შინდისის გმირების გამზირი,1400,42.0010172,44.0886820
2KM,შინდისის გმირების გამზირი,1400,41.9994071,44.0894393
2KM,შინდისის გმირების გამზირი,1400,41.9996856,44.0899055
2KM,შინდისის გმირების გამზირი,1400,41.9990058,44.0898478
2KM,შინდისის გმირების გამზირი,1400,41.9989095,44.0892221
2KM,შინდისის გმირების გამზირი,1400,41.9996259,44.0884108
2km,შინდისის გმირების გამზირი,1400,42.0002590,44.0880551
2KM,შინდისის გმირების გამზირი,1400,42.0005381,44.0879312
2KM,შინდისის გმირების გამზირი,1400,42.0009331,44.0876793
2KM,შინდისის გმირების გამზირი,1400,42.0015246,44.0872892
2km,შინდისის გმირების გამზირი,1400,42.0006888,44.0883195
2KM,შინდისის გმირების გამზირი,1400,41.9979770,44.0893627
44,თამარ მეფის ქუჩა,1400,41.9781618,44.1090450
16,თამარ მეფის ქუჩა,1400,41.9784067,44.1063502
20,თამარ მეფის ქუჩა,1400,41.9783774,44.1066544
24,თამარ მეფის ქუჩა,1400,41.9783465,44.1068539
26,თამარ მეფის ქუჩა,1400,41.9783764,44.1070075
2KM,შინდისის გმირების გამზირი,1400,41.9993609,44.0902633
27,თამარ მეფის ქუჩა,1400,41.9785550,44.1087537
26ა,სტალინის გამზირი,1400,41.9857012,44.1139078
15,აკაკი წერეთლის ქუჩა,1400,41.9844922,44.1100519
5,სამეფო ქუჩა,1400,41.9783489,44.1053321
11,აკაკი წერეთლის ქუჩა,1400,41.9842750,44.1099921
7,აკაკი წერეთლის ქუჩა,1400,41.9841033,44.1095158
13,აკაკი წერეთლის ქუჩა,1400,41.9843906,44.1098948
21,აკაკი წერეთლის ქუჩა,1400,41.9846104,44.1103218
19,ა. წერეთელის ქუჩა,1400,41.9848329,44.1100831
23,აკაკი წერეთლის ქუჩა,1400,41.9846643,44.1105438
30,კასტელის ქუჩა,1400,41.9842108,44.1076077
32,კასტელის ქუჩა,1400,41.9841823,44.1078955
36-36ა,კასტელის ქუჩა,1400,41.9841443,44.1082852
1,კასტელის ქუჩა,1400,41.9841026,44.1086764
38,კასტელის ქუჩა,1400,41.9841318,44.1084740
1,ქართლის ქუჩა,1400,41.9841312,44.1072015
76,სამეფო ქუჩა,1400,41.9838975,44.1072246
34,კასტელის ქუჩა,1400,41.9840784,44.1080680
86,სამეფო ქუჩა,1400,41.9843021,44.1074203
175დ,ძმები რომელაშვილების ქუჩა,1400,41.9763586,44.1152007
22,თამარ მეფის ქუჩა,1400,41.9783481,44.1067676
38ა,კასტელის ქუჩა,1400,41.9841384,44.1086206
181გ,ძმები რომელაშვილების ქუჩა,1400,41.9753324,44.1140698
2,ბესიკის ქუჩა,1400,41.9852627,44.0967214
28,თამარ მეფის ქუჩა,1400,41.9782863,44.1073999
12ა,მშვიდობის გამზირი,1400,41.9880487,44.0970875
16,სტალინის გამზირი,1400,41.9817185,44.1123397
