House number,Street name,Postal code,Latitude,Longitude
43,Bulevardul Republicii,601129,46.2536536,26.7724140
7,Strada Radu Rosetti,601011,46.2489406,26.7618311
1,Strada Belvedere,601066,46.2437850,26.7637200
45A,Bulevardul Republicii,601137,46.2548510,26.7735929
4,Strada Mercur,601083,46.2414944,26.7633010
7A,Calea Mărășești,601122,46.2554017,26.7816968
7,Strada Belvedere,601091,46.2428165,26.7662502
1,Strada Perchiului,601048,46.2536330,26.7649566
1,Strada Perchiului,601048,46.2548517,26.7636259
1,Strada Perchiului,601048,46.2550254,26.7643514
1,Strada Perchiului,601048,46.2545727,26.7634702
8,Bulevardul Oituz,601069,46.2476313,26.7597940
1A,Calea Brașovului,601073,46.2436820,26.7542598
1A,Calea Brașovului,601073,46.2437893,26.7544134
2,Strada Costache Negri,601095,46.2474526,26.7580370
1,Strada Culturii,601081,46.2431572,26.7615518
1,Calea Mărășești,601133,46.2588680,26.7708851
10,Calea Zemeșului,601110,46.2653981,26.7701470
10,Calea Zemeșului,601110,46.2651020,26.7695336
9,Strada Brașovului,601073,46.2418150,26.7517805
20,Strada 8 Martie,601096,46.2464948,26.7420326
3,Strada Industriilor,601124,46.2375210,26.8405547
43,Bulevardul Republicii,601129,46.2540669,26.7728707
3,Aleea Liliacului,601073,46.2451052,26.7552835
1,Aleea Liliacului,601073,46.2451399,26.7557532
5,Aleea Liliacului,601073,46.2455389,26.7553189
1,Bulevardul Oituz,601076,46.2456629,26.7562179
7,Aleea Liliacului,601073,46.2458836,26.7555737
9,Aleea Liliacului,601073,46.2462400,26.7558242
11,Aleea Liliacului,601073,46.2466225,26.7560361
7A,Bulevardul Oituz,601077,46.2469290,26.7574320
12,Bulevardul Oituz,601013,46.2489433,26.7615583
14,Strada Tineretului,601014,46.2480122,26.7614882
7,Strada General Radu R. Rosetti,601011,46.2487382,26.7622860
10,Strada Tineretului,601014,46.2478134,26.7627577
4,Strada Tineretului,601020,46.2465239,26.7636396
4,Strada Păcii,601020,46.2469409,26.7638662
6,Strada General Radu R. Rosetti,601010,46.2494048,26.7646955
14,Bulevardul Oituz,601013,46.2496524,26.7623406
7,Strada Poștei,601010,46.2504419,26.7661186
5,Strada Poștei,601010,46.2496057,26.7656928
10,Strada Poștei,601010,46.2509504,26.7665425
4,Strada Poștei,601010,46.2504750,26.7669444
21,Bulevardul Oituz,601032,46.2507829,26.7628040
25,Aleea Parcului,601032,46.2517637,26.7651353
1,Aleea Parcului,601032,46.2502026,26.7609924
27,Bulevardul Oituz,601047,46.2524381,26.7659465
2,Strada Perchiului,601048,46.2530887,26.7658554
6,Strada Perchiului,601048,46.2534655,26.7673805
35,Bulevardul Oituz,601047,46.2532431,26.7698263
41,Bulevardul Republicii,601025,46.2525257,26.7708086
22,Bulevardul Oituz,601046,46.2515815,26.7665990
5,Strada Cașinului,601007,46.2458092,26.7663091
6,Bulevardul Republicii,601003,46.2463911,26.7653194
4,Bulevardul Republicii,601003,46.2461082,26.7647521
2,Strada Tineretului,601007,46.2456449,26.7654020
3,Strada Cașinului,601007,46.2454535,26.7660089
2,Bulevardul Republicii,601003,46.2454311,26.7639850
1,Strada Cașinului,601007,46.2448045,26.7653120
1,Strada 1 Mai,601067,46.2449330,26.7640480
3,Strada 1 Mai,601067,46.2447085,26.7643635
5,Strada 1 Mai,601067,46.2444696,26.7646462
1,Bulevardul Belvedere,601066,46.2442199,26.7638873
1,Bulevardul Belvedere,601066,46.2435779,26.7645610
2,Strada 1 Mai,601067,46.2444756,26.7637911
4,Strada 1 Mai,601067,46.2442257,26.7641057
6,Strada 1 Mai,601067,46.2439878,26.7644099
7,Strada 1 Mai,601067,46.2440105,26.7655387
8,Strada 1 Mai,601067,46.2435408,26.7651321
3,Bulevardul Belvedere,601066,46.2431515,26.7650900
7,Strada Belvedere,601066,46.2424917,26.7669379
7,Strada Belvedere,601091,46.2428211,26.7662092
1,Strada Culturii,601081,46.2430700,26.7618120
1,Strada Culturii,601081,46.2428237,26.7641525
3,Strada Culturii,601081,46.2424487,26.7636513
3,Strada Mercur,601082,46.2418087,26.7635520
5,Strada Culturii,601081,46.2420067,26.7638302
6,Bulevardul Belvedere,601091,46.2421133,26.7654881
7,Strada Mercur,601091,46.2406966,26.7654959
7,Strada Stirenului,601056,46.2405128,26.7665217
12,Bulevardul Belvedere,601052,46.2411601,26.7671428
14,Bulevardul Belvedere,601052,46.2407360,26.7677632
17,Strada Libertății,601054,46.2384282,26.7641644
19,Strada Libertății,601054,46.2382828,26.7644909
21,Strada Libertății,601054,46.2381752,26.7648808
23,Strada Libertății,601055,46.2381386,26.7653057
25,Strada Libertății,601055,46.2381771,26.7657093
27,Strada Libertății,601055,46.2383229,26.7661017
29,Strada Libertății,601055,46.2385170,26.7664246
8,Strada Stirenului,601056,46.2387900,26.7659251
8A,Strada Stirenului,601056,46.2387526,26.7652458
10,Strada Stirenului,601056,46.2387647,26.7645713
4,Aleea Viitorului,601056,46.2397085,26.7646246
2,Strada George Bacovia,601090,46.2396006,26.7621362
4,Strada George Bacovia,601090,46.2399706,26.7624961
4,Strada Saturn,601101,46.2420609,26.7613846
1,Strada Jupiter,601103,46.2417176,26.7608257
4,Strada Apollo,601101,46.2417645,26.7593681
3,Strada Apollo,601101,46.2421216,26.7588774
2,Strada Mercur,601083,46.2427403,26.7609159
4,Strada Venus,601105,46.2424431,26.7581882
3,Strada Venus,601105,46.2431325,26.7571620
11,Strada Emil Rebreanu,601060,46.2437332,26.7566775
25,Strada George Călinescu,601084,46.2446558,26.7563677
21,Strada George Călinescu,601084,46.2445233,26.7574333
1,Bulevardul Republicii,601018,46.2459226,26.7631151
2,Strada George Călinescu,601066,46.2455431,26.7619356
Q1,Aleea Viorelelor,601017,46.2459343,26.7617360
3,Strada Tineretului,601068,46.2465292,26.7628423
8,Bulevardul Oituz,601069,46.2476757,26.7598695
4,Strada George Călinescu,601066,46.2454757,26.7604889
4,Bulevardul Oituz,601076,46.2459224,26.7578525
1,Strada Libertății,601061,46.2426621,26.7566108
7B,Strada Libertății,601105,46.2418180,26.7579932
16,Strada Mihai Bravu,601039,46.2440314,26.7726390
37,Strada Alexandru Ioan Cuza,601042,46.2437175,26.7718386
18,Strada Constantin Dobrogeanu Gherea,601040,46.2443374,26.7719463
2,Strada George Coșbuc,601039,46.2443202,26.7714427
1,Strada George Coșbuc,601039,46.2445284,26.7710304
25,Strada Alexandru Ioan Cuza,601041,46.2451327,26.7699403
14,Strada Constantin Dobrogeanu Gherea,601040,46.2453250,26.7704112
10,Strada Mihai Bravu,601039,46.2453782,26.7725046
12,Strada Constantin Dobrogeanu Gherea,601040,46.2456860,26.7703767
23,Strada Alexandru Ioan Cuza,601041,46.2458216,26.7698585
10,Strada Constantin Dobrogeanu Gherea,601040,46.2460773,26.7703654
8,Strada Constantin Dobrogeanu Gherea,601040,46.2465912,26.7704021
17,Strada Alexandru Ioan Cuza,601041,46.2469614,26.7697962
6,Strada Constantin Dobrogeanu Gherea,601040,46.2471043,26.7707705
15,Strada Alexandru Ioan Cuza,601041,46.2474833,26.7701604
4 Bis,Strada Constantin Dobrogeanu Gherea,601040,46.2473271,26.7713112
4,Strada Mihai Bravu,601039,46.2477967,26.7723548
7,Strada Alexandru Ioan Cuza,601041,46.2483174,26.7719514
3,Strada Mihai Bravu,601115,46.2464978,26.7732302
3,Strada Alexandru Ioan Cuza,601116,46.2497828,26.7774190
1,Strada Alexandru Ioan Cuza,601116,46.2498095,26.7779479
2,Strada Alexandru Ioan Cuza,601116,46.2501849,26.7776146
18,Strada Doctor Victor Babeș,601019,46.2505015,26.7779201
6,Strada Alexandru Ioan Cuza,601041,46.2501228,26.7767268
4,Strada Alexandru Ioan Cuza,601116,46.2504512,26.7772226
16A,Strada Doctor Victor Babeș,601019,46.2507448,26.7770781
8,Strada Alexandru Ioan Cuza,601041,46.2504926,26.7764187
43,Bulevardul Republicii,601129,46.2541065,26.7718672
43,Bulevardul Republicii,601129,46.2539081,26.7724447
43,Bulevardul Republicii,601129,46.2541664,26.7727132
60,Bulevardul Republicii,601117,46.2535297,26.7735512
60,Bulevardul Republicii,601117,46.2530924,26.7735599
60,Bulevardul Republicii,601117,46.2533275,26.7741025
60,Bulevardul Republicii,601117,46.2526268,26.7743783
60,Bulevardul Republicii,601117,46.2529916,26.7746577
60,Bulevardul Republicii,601117,46.2538905,26.7744039
64,Bulevardul Republicii,601117,46.2555771,26.7757955
4,Strada Doctor Victor Babeș,601119,46.2548737,26.7761309
10,Strada Doctor Victor Babeș,601119,46.2544304,26.7767085
10,Strada Doctor Victor Babeș,601119,46.2548379,26.7767688
8,Strada Doctor Victor Babeș,601119,46.2550377,26.7768710
3,Strada Doctor Victor Babeș,601140,46.2550715,26.7776626
5,Strada Doctor Victor Babeș,601140,46.2542655,26.7784271
7,Strada Doctor Victor Babeș,601140,46.2535853,26.7782579
1,Strada Stadionului,601118,46.2538014,26.7785989
3,Strada Stadionului,601118,46.2535405,26.7790799
5,Strada Stadionului,601118,46.2538322,26.7793377
9,Strada Stadionului,601118,46.2540216,26.7800946
2,Strada Venus,601105,46.2432362,26.7592067
2,Bulevardul Oituz,601076,46.2452466,26.7572250
2,Strada Venus,601105,46.2432606,26.7590859
14,Strada Tineretului,601014,46.2484792,26.7618676
17,Bulevardul Oituz,601032,46.2493789,26.7606129
19,Bulevardul Oituz,601032,46.2500466,26.7617110
1,Strada Perchiului,601048,46.2537073,26.7650239
1,Strada Perchiului,601048,46.2550126,26.7643251
1,Strada Perchiului,601048,46.2548798,26.7653610
1,Strada Perchiului,601048,46.2543874,26.7655836
78,Bulevardul Republicii,601122,46.2587976,26.7790610
78,Bulevardul Republicii,601122,46.2585679,26.7776556
86A,Strada Libertății,601055,46.2399123,26.7693481
14,Strada Tineretului,601014,46.2480351,26.7618249
4,Strada General Radu R. Rosetti,601010,46.2493203,26.7667406
5,Strada Casa de Apă,601073,46.2420214,26.7543104
2,Strada Apollo,601101,46.2422938,26.7597759
2,Strada Apollo,601101,46.2423046,26.7599017
2,Strada Aurora,601105,46.2414926,26.7618968
2,Strada Aurora,601105,46.2412926,26.7619275
7,Strada 1 Mai,601067,46.2441874,26.7656657
4,Strada George Călinescu,601066,46.2456230,26.7605022
7A,Bulevardul Oituz,601077,46.2468227,26.7569488
15,Strada Cașinului,601027,46.2485540,26.7685193
15,Strada Cașinului,601027,46.2487423,26.7687819
4,Strada Perchiului,601048,46.2533930,26.7668662
4,Strada Perchiului,601048,46.2529033,26.7668960
4,Strada Perchiului,601048,46.2533478,26.7663372
4,Strada Perchiului,601048,46.2532695,26.7666848
14,Strada Muncii,601031,46.2519456,26.7696936
14,Strada Muncii,601031,46.2520308,26.7698210
60,Bulevardul Republicii,601117,46.2537464,26.7742376
12,Strada Doctor Victor Babeș,601119,46.2532128,26.7768372
12,Strada Doctor Victor Babeș,601119,46.2535919,26.7772009
12,Strada Doctor Victor Babeș,601119,46.2532145,26.7769656
13,Strada Stadionului,601118,46.2541485,26.7808613
15,Strada Stadionului,601118,46.2540020,26.7812369
22,Bulevardul Republicii,601004,46.2490478,26.7681428
26,Bulevardul Republicii,601024,46.2493672,26.7685135
28,Bulevardul Republicii,601024,46.2495419,26.7687245
32,Bulevardul Republicii,601024,46.2498689,26.7690912
34,Bulevardul Republicii,601024,46.2500415,26.7693146
38,Bulevardul Republicii,601024,46.2503686,26.7696734
40,Strada Teilor,601028,46.2505550,26.7698783
44,Bulevardul Republicii,601024,46.2508746,26.7702526
46,Bulevardul Republicii,601024,46.2510471,26.7704607
50,Bulevardul Republicii,601025,46.2513880,26.7708180
52,Bulevardul Republicii,601025,46.2515606,26.7710383
56,Bulevardul Republicii,601025,46.2518791,26.7714142
9,Strada Emil Rebreanu,601060,46.2437934,26.7577268
7,Strada Emil Rebreanu,601059,46.2438924,26.7587897
5,Strada Emil Rebreanu,601059,46.2439819,26.7598465
5,Strada Venus,601105,46.2425403,26.7576508
5,Strada Jupiter,601104,46.2413703,26.7597628
1,Strada Venus,601105,46.2426021,26.7593163
2,Strada Saturn,601094,46.2429324,26.7598546
4,Strada Mercur,601083,46.2418809,26.7624427
6,Strada Saturn,601102,46.2412104,26.7629325
5,Strada George Bacovia,601089,46.2408314,26.7627244
3,Strada George Bacovia,601089,46.2404006,26.7622553
1,Strada George Bacovia,601089,46.2399514,26.7617244
11,Strada George Călinescu,601084,46.2447870,26.7596063
15,Strada George Călinescu,601084,46.2447186,26.7586977
19,Strada George Călinescu,601084,46.2446587,26.7578197
23,Strada George Călinescu,601084,46.2445990,26.7569207
7,Strada George Călinescu,601084,46.2448655,26.7604864
3,Strada George Călinescu,601084,46.2449478,26.7613596
17,Strada George Călinescu,601084,46.2445893,26.7583241
13,Strada George Călinescu,601084,46.2446378,26.7592115
9,Strada George Călinescu,601084,46.2447056,26.7601128
5,Strada George Călinescu,601084,46.2448057,26.7609930
1,Strada George Călinescu,601084,46.2448800,26.7618827
6,Strada George Bacovia,601090,46.2401240,26.7627505
2,Strada Stirenului,601088,46.2399777,26.7630897
11,Strada Libertății,601089,46.2393315,26.7623433
22,Strada Sintezei,601088,46.2393531,26.7629234
24,Strada Sintezei,601088,46.2391979,26.7626791
20,Strada Sintezei,601088,46.2396006,26.7632576
18,Strada Sintezei,601088,46.2397813,26.7633643
6,Strada Mercur,601091,46.2409262,26.7641845
12,Strada Sintezei,601088,46.2405491,26.7643524
10,Strada Sintezei,601088,46.2407299,26.7644592
14,Strada Sintezei,601088,46.2403016,26.7640181
8,Strada George Bacovia,601090,46.2405491,26.7632311
16,Strada Sintezei,601088,46.2401464,26.7637739
1,Strada Stirenului,601088,46.2402800,26.7634380
10,Strada George Bacovia,601090,46.2409192,26.7635909
12,Strada George Bacovia,601090,46.2410725,26.7638454
20,Strada George Bacovia,601090,46.2418858,26.7652640
4,Strada Sintezei,601088,46.2415087,26.7654318
2,Strada Sintezei,601088,46.2416894,26.7655386
6,Strada Sintezei,601088,46.2412613,26.7650976
14,Strada George Bacovia,601090,46.2415291,26.7643078
8,Strada Sintezei,601088,46.2411068,26.7648535
5,Strada Mercur,601091,46.2412523,26.7645058
16,Strada George Bacovia,601090,46.2418907,26.7646690
18,Strada George Bacovia,601090,46.2420322,26.7649247
15,Strada Sintezei,601054,46.2389156,26.7631571
13,Strada Sintezei,601054,46.2390903,26.7632756
13,Strada Libertății,601054,46.2387169,26.7634310
4,Strada Stirenului,601056,46.2393762,26.7641852
11,Strada Sintezei,601054,46.2393627,26.7635928
9,Strada Sintezei,601054,46.2395162,26.7638472
6,Strada Stirenului,601056,46.2391013,26.7643778
15,Strada Libertății,601054,46.2386870,26.7638920
7A,Strada Libertății,601105,46.2414259,26.7585852
9B,Strada Libertății,601105,46.2406617,26.7600517
9A,Strada Libertății,601105,46.2402696,26.7606436
6,Aleea Viitorului,601056,46.2395378,26.7649559
8,Aleea Viitorului,601056,46.2394994,26.7654581
7,Aleea Viitorului,601091,46.2397999,26.7658340
5,Aleea Viitorului,601091,46.2400386,26.7655490
3,Aleea Viitorului,601091,46.2402250,26.7652178
1,Aleea Viitorului,601091,46.2404308,26.7648902
2,Aleea Viitorului,601056,46.2399241,26.7642903
5,Strada Apollo,601101,46.2418885,26.7585774
4,Strada Aurora,601105,46.2409259,26.7616347
6,Strada Aurora,601105,46.2406836,26.7613481
8,Strada Aurora,601105,46.2404425,26.7610561
3,Strada Jupiter,601103,46.2409471,26.7602904
1,Strada Jupiter,601103,46.2412001,26.7604306
9,Strada Mercur,601053,46.2403582,26.7661197
9,Strada Stirenului,601056,46.2407217,26.7667663
11,Strada Stirenului,601056,46.2409218,26.7669986
5,Strada Sintezei,601087,46.2409896,26.7656473
3,Strada Sintezei,601087,46.2411910,26.7658845
1,Strada Sintezei,601087,46.2413977,26.7661340
10,Bulevardul Belvedere,601052,46.2415645,26.7664503
16,Bulevardul Belvedere,601052,46.2405362,26.7681290
43,Strada Libertății,601055,46.2403285,26.7685059
31,Strada Libertății,601055,46.2388101,26.7666073
14,Strada Stirenului,601056,46.2394475,26.7661039
33,Strada Libertății,601055,46.2389284,26.7670425
12,Strada Stirenului,601056,46.2391571,26.7660210
35,Strada Libertății,601055,46.2391590,26.7672671
12,Strada Mercur,601053,46.2393083,26.7670937
16,Strada Stirenului,601056,46.2396442,26.7663943
10,Strada Mercur,601053,46.2395275,26.7666958
18,Strada Stirenului,601056,46.2399607,26.7667913
20,Strada Stirenului,601056,46.2401974,26.7669702
22,Strada Stirenului,601056,46.2403123,26.7674197
41,Strada Libertății,601055,46.2399685,26.7680244
39,Strada Libertății,601055,46.2396784,26.7679089
37,Strada Libertății,601055,46.2394923,26.7676174
13,Strada Mercur,601053,46.2395955,26.7673244
11,Strada Mercur,601053,46.2398230,26.7669701
8,Bulevardul Belvedere,601091,46.2419407,26.7657863
4,Bulevardul Belvedere,601091,46.2422695,26.7651874
1,Strada Mercur,601082,46.2419838,26.7631978
9,Strada George Bacovia,601081,46.2422859,26.7642552
11,Strada George Bacovia,601081,46.2425791,26.7646959
7,Strada George Bacovia,601081,46.2417735,26.7638388
2,Bulevardul Belvedere,601081,46.2427718,26.7646024
7,Strada Culturii,601081,46.2422154,26.7631968
2,Strada General Radu R. Rosetti,601006,46.2486130,26.7679311
20,Bulevardul Republicii,601004,46.2488862,26.7677498
19,Bulevardul Republicii,601005,46.2492759,26.7674777
23,Bulevardul Republicii,601005,46.2497877,26.7680571
27,Bulevardul Republicii,601005,46.2502663,26.7686339
29,Bulevardul Republicii,601038,46.2507615,26.7692092
33,Bulevardul Republicii,601038,46.2512910,26.7697938
37,Bulevardul Republicii,601025,46.2517881,26.7703719
24,Bulevardul Republicii,601004,46.2490945,26.7685376
30,Bulevardul Republicii,601024,46.2495869,26.7691255
36,Bulevardul Republicii,601024,46.2500729,26.7697057
42,Bulevardul Republicii,601024,46.2505654,26.7702859
48,Bulevardul Republicii,601025,46.2510893,26.7708533
54,Bulevardul Republicii,601025,46.2515810,26.7714546
21,Bulevardul Republicii,601005,46.2495687,26.7676832
25,Bulevardul Republicii,601005,46.2500697,26.7682751
31,Bulevardul Republicii,601038,46.2510633,26.7694342
35,Bulevardul Republicii,601038,46.2515855,26.7700038
39,Bulevardul Republicii,601025,46.2520674,26.7705839
7,Strada Belvedere,601066,46.2423616,26.7666910
1,Strada Tineretului,601068,46.2451558,26.7649305
7,Strada Cașinului,601007,46.2462650,26.7662746
9,Strada Cașinului,601007,46.2466155,26.7665688
8,Bulevardul Republicii,601003,46.2467929,26.7654586
12,Bulevardul Republicii,601003,46.2473823,26.7661311
16,Bulevardul Republicii,601004,46.2479862,26.7668293
11,Strada Cașinului,601007,46.2471045,26.7666331
13,Strada Cașinului,601007,46.2477408,26.7672496
3,Bulevardul Republicii,601018,46.2464902,26.7642378
7,Bulevardul Republicii,601005,46.2470844,26.7649173
11,Bulevardul Republicii,601018,46.2476771,26.7656084
15,Bulevardul Republicii,601018,46.2482713,26.7662903
10,Bulevardul Republicii,601003,46.2469738,26.7660019
14,Bulevardul Republicii,601003,46.2475664,26.7666953
18,Bulevardul Republicii,601004,46.2482341,26.7672792
5,Bulevardul Republicii,601005,46.2468983,26.7643720
9,Bulevardul Republicii,601005,46.2474901,26.7650712
13,Strada Păcii,601021,46.2480777,26.7657521
17,Bulevardul Republicii,601018,46.2486385,26.7665774
6,Strada Tineretului,601020,46.2471547,26.7624704
22,Strada Păcii,601019,46.2488589,26.7660954
1,Strada Păcii,601021,46.2471343,26.7630632
5,Strada Păcii,601021,46.2477315,26.7637371
9,Strada Păcii,601021,46.2483422,26.7644210
2,Strada Păcii,601020,46.2469692,26.7633646
8,Strada Păcii,601020,46.2475700,26.7640671
14,Strada Păcii,601019,46.2481550,26.7647431
20,Strada Păcii,601019,46.2487632,26.7655854
6,Strada Păcii,601020,46.2472288,26.7641936
10,Strada Păcii,601020,46.2475505,26.7645556
12,Strada Păcii,601020,46.2478318,26.7648714
16,Strada Păcii,601019,46.2481300,26.7652411
18,Strada Păcii,601019,46.2484187,26.7655600
3,Strada Păcii,601021,46.2474764,26.7633153
7,Strada Păcii,601021,46.2480690,26.7640088
5,Strada General Radu R. Rosetti,601011,46.2485674,26.7628796
3,Strada General Radu R. Rosetti,601011,46.2485142,26.7635051
1,Strada General Radu R. Rosetti,601011,46.2485674,26.7641197
13,Strada Păcii,601021,46.2487208,26.7649809
11,Strada Păcii,601021,46.2486985,26.7647175
8,Strada Tineretului,601014,46.2475136,26.7626280
12,Strada Tineretului,601014,46.2479670,26.7632215
5,Strada Tineretului,601068,46.2469148,26.7621408
7,Strada Tineretului,601068,46.2474081,26.7612426
9,Strada Tineretului,601068,46.2478335,26.7604818
8,Strada General Radu R. Rosetti,601010,46.2492929,26.7640071
10,Strada General Radu R. Rosetti,601010,46.2492660,26.7634444
12,Strada General Radu R. Rosetti,601010,46.2493266,26.7629997
16,Bulevardul Oituz,601013,46.2502530,26.7632332
18,Bulevardul Oituz,601013,46.2507597,26.7642313
20,Bulevardul Oituz,601013,46.2511758,26.7653302
24,Bulevardul Oituz,601046,46.2518747,26.7676614
26,Bulevardul Oituz,601046,46.2521708,26.7687105
28,Bulevardul Oituz,601046,46.2524566,26.7697559
29,Bulevardul Oituz,601047,46.2522253,26.7668891
31,Bulevardul Oituz,601047,46.2527931,26.7689933
31,Bulevardul Oituz,601047,46.2525079,26.7679438
9,Strada Poștei,601010,46.2507276,26.7659812
11,Strada Poștei,601010,46.2510169,26.7658645
8,Strada Perchiului,601049,46.2535037,26.7679371
10,Strada Perchiului,601049,46.2535360,26.7684857
12,Strada Perchiului,601049,46.2535004,26.7690695
1,Strada Perchiului,601048,46.2539027,26.7647768
1,Strada Perchiului,601048,46.2541052,26.7645654
3,Aleea Parcului,601032,46.2505805,26.7615064
5,Aleea Parcului,601033,46.2509273,26.7620535
7,Aleea Parcului,601033,46.2512574,26.7626329
9,Aleea Parcului,601034,46.2515523,26.7632391
11,Aleea Parcului,601034,46.2518046,26.7638748
13,Aleea Parcului,601035,46.2520642,26.7645427
15,Aleea Parcului,601035,46.2522757,26.7652267
35,Strada Alexandru Ioan Cuza,601042,46.2437534,26.7713838
33,Strada Alexandru Ioan Cuza,601042,46.2439129,26.7709506
31,Strada Alexandru Ioan Cuza,601042,46.2441364,26.7706140
29,Strada Alexandru Ioan Cuza,601042,46.2443729,26.7703553
27,Strada Alexandru Ioan Cuza,601042,46.2446354,26.7701245
9,Strada Alexandru Ioan Cuza,601041,46.2480101,26.7714848
11,Strada Alexandru Ioan Cuza,601041,46.2478962,26.7711074
13,Strada Alexandru Ioan Cuza,601041,46.2477683,26.7707223
19,Strada Alexandru Ioan Cuza,601041,46.2465321,26.7697215
21,Strada Alexandru Ioan Cuza,601041,46.2462530,26.7697400
16,Strada Constantin Dobrogeanu Gherea,601040,46.2448606,26.7707757
12,Strada Mihai Bravu,601039,46.2448553,26.7724490
8,Strada Mihai Bravu,601039,46.2464694,26.7724064
6,Strada Mihai Bravu,601039,46.2469694,26.7723608
1,Strada Mihai Bravu,601115,46.2474216,26.7732160
2,Strada Mihai Bravu,601039,46.2482782,26.7723094
14,Strada Mihai Bravu,601039,46.2442935,26.7725929
39,Strada Alexandru Ioan Cuza,601042,46.2437385,26.7723699
41,Strada Alexandru Ioan Cuza,601042,46.2437546,26.7726180
2,Strada Constantin Dobrogeanu Gherea,601040,46.2475184,26.7723015
4,Strada Constantin Dobrogeanu Gherea,601040,46.2474957,26.7720519
20,Strada Constantin Dobrogeanu Gherea,601040,46.2442797,26.7723674
5,Strada Alexandru Ioan Cuza,601116,46.2497658,26.7771037
1,Strada Perchiului,601048,46.2545083,26.7643150
7,Strada George Bacovia,601081,46.2428746,26.7663148
58,Bulevardul Republicii,601025,46.2520708,26.7727451
2,Aleea Plopului,601031,46.2507884,26.7687668
1,Aleea Plopului,601031,46.2505869,26.7685178
1,Strada Muncii,601045,46.2506565,26.7675238
7,Strada Muncii,601045,46.2510288,26.7678037
9,Strada Muncii,601045,46.2511793,26.7679828
15,Strada Muncii,601045,46.2514728,26.7684791
17,Strada Muncii,601045,46.2517866,26.7688610
19,Strada Muncii,601045,46.2520444,26.7690349
2,Strada Muncii,601031,46.2504440,26.7677851
4,Strada Muncii,601031,46.2506891,26.7680855
5,Strada Muncii,601045,46.2510533,26.7685192
8,Strada Muncii,601031,46.2512706,26.7687488
10,Strada Muncii,601031,46.2514502,26.7689683
12,Strada Muncii,601031,46.2516440,26.7691776
17,Strada Cașinului,601027,46.2492247,26.7698792
15,Strada Cașinului,601027,46.2491187,26.7692263
19,Strada Cașinului,601027,46.2494004,26.7705072
21,Strada Cașinului,601027,46.2495075,26.7708634
23,Strada Cașinului,601027,46.2499093,26.7719337
25,Strada Cașinului,601027,46.2500526,26.7723261
29,Strada Cașinului,601027,46.2504931,26.7728325
33,Strada Cașinului,601027,46.2510300,26.7727882
27,Strada Cașinului,601027,46.2502217,26.7726801
31,Strada Cașinului,601027,46.2507638,26.7729183
35,Strada Cașinului,601027,46.2512860,26.7725495
4,Strada Cașinului,601006,46.2506831,26.7733503
8,Strada Cașinului,601026,46.2512389,26.7731378
2,Strada Florilor,601028,46.2498859,26.7715509
4,Strada Florilor,601028,46.2501023,26.7717377
6,Strada Florilor,601028,46.2502476,26.7719853
8,Strada Florilor,601028,46.2503994,26.7722585
10,Strada Florilor,601028,46.2505964,26.7724593
12,Strada Florilor,601028,46.2508402,26.7724500
3,Strada Florilor,601028,46.2500942,26.7712007
5,Strada Florilor,601028,46.2502476,26.7714553
7,Strada Florilor,601028,46.2504010,26.7717144
9,Strada Florilor,601028,46.2505721,26.7719876
6,Strada Teilor,601028,46.2506040,26.7714622
1,Strada Teilor,601028,46.2506353,26.7709469
5,Strada Teilor,601028,46.2512701,26.7716401
8,Strada Teilor,601028,46.2508757,26.7718354
14,Strada Florilor,601028,46.2510688,26.7721863
2,Strada Cașinului,601006,46.2503822,26.7732308
6,Strada Cașinului,601026,46.2509711,26.7733267
10,Strada Cașinului,601026,46.2514557,26.7728366
1,Strada Florilor,601028,46.2497555,26.7711434
2,Strada Teilor,601028,46.2498100,26.7704798
10,Strada Teilor,601028,46.2513576,26.7721614
4,Strada Teilor,601028,46.2503918,26.7711694
3,Strada Teilor,601028,46.2509493,26.7713242
5,Bulevardul Oituz,601076,46.2462618,26.7572341
9,Bulevardul Oituz,601077,46.2471294,26.7582463
13,Bulevardul Oituz,601077,46.2479910,26.7592532
3,Bulevardul Oituz,601076,46.2458062,26.7567970
11,Bulevardul Oituz,601077,46.2475324,26.7587912
7,Bulevardul Oituz,601077,46.2466555,26.7577767
60,Bulevardul Republicii,601117,46.2531854,26.7743617
60,Bulevardul Republicii,601117,46.2534543,26.7751052
60,Bulevardul Republicii,601117,46.2539001,26.7739125
60,Bulevardul Republicii,601117,46.2538434,26.7749194
60,Bulevardul Republicii,601117,46.2544609,26.7746047
60,Bulevardul Republicii,601117,46.2543827,26.7752134
43,Bulevardul Republicii,601129,46.2543009,26.7715046
43,Bulevardul Republicii,601129,46.2545019,26.7711550
17,Bulevardul Oituz,601032,46.2496534,26.7611829
41,Bulevardul Oituz,601025,46.2526962,26.7709374
5,Strada Doctor Victor Babeș,601140,46.2548985,26.7783210
7,Strada Stadionului,601118,46.2536912,26.7798437
11,Strada Stadionului,601118,46.2538394,26.7806060
66,Bulevardul Republicii,601138,46.2561343,26.7764606
6,Strada Doctor Victor Babeș,601119,46.2545384,26.7763172
2,Strada Doctor Victor Babeș,601119,46.2552155,26.7759804
1,Strada Doctor Victor Babeș,601140,46.2557669,26.7767709
12,Calea Mărășești,601144,46.2564395,26.7772112
2,Strada Pajura,601139,46.2561324,26.7776078
4,Strada Pajura,601139,46.2556328,26.7775923
6,Strada Pajura,601139,46.2556342,26.7783501
1,Bulevardul Mărășești,601139,46.2554557,26.7792580
3,Strada Pajura,601139,46.2553333,26.7798574
8,Strada Pajura,601139,46.2549272,26.7798687
10,Strada Pajura,601139,46.2546380,26.7808549
12,Strada Pajura,601139,46.2545426,26.7812040
14,Strada Pajura,601139,46.2544551,26.7815588
16,Strada Pajura,601139,46.2543753,26.7820068
18,Strada Pajura,601139,46.2545398,26.7824745
14,Calea Mărășești,601144,46.2560455,26.7787623
16,Calea Mărășești,601144,46.2557037,26.7799348
20,Calea Mărășești,601144,46.2554684,26.7804947
22,Calea Mărășești,601144,46.2553695,26.7808699
26,Calea Mărășești,601144,46.2552792,26.7812215
18,Calea Mărășești,601144,46.2551141,26.7806073
24,Calea Mărășești,601144,46.2548723,26.7815362
28,Calea Mărășești,601144,46.2552200,26.7818830
30,Calea Mărășești,601145,46.2548367,26.7827960
32,Calea Mărășești,601145,46.2548791,26.7822081
17,Calea Mărășești,601146,46.2568049,26.7783418
19,Calea Mărășești,601146,46.2567054,26.7786777
21,Calea Mărășești,601146,46.2566051,26.7790121
23,Calea Mărășești,601146,46.2564925,26.7793413
25,Calea Mărășești,601146,46.2562676,26.7798793
27,Calea Mărășești,601146,46.2559868,26.7807048
29,Calea Mărășești,601146,46.2557880,26.7814635
2,Strada Gării,601143,46.2562986,26.7807158
4,Strada Gării,601143,46.2565441,26.7808620
6,Strada Gării,601143,46.2568011,26.7810088
68,Bulevardul Republicii,601122,46.2569897,26.7773128
70,Bulevardul Republicii,601122,46.2572553,26.7775381
72,Bulevardul Republicii,601122,46.2576063,26.7779655
74,Bulevardul Republicii,601122,46.2577788,26.7783623
76,Bulevardul Republicii,601122,46.2579232,26.7788216
78,Bulevardul Republicii,601122,46.2579943,26.7793427
47,Bulevardul Republicii,601137,46.2557352,26.7748208
2,Strada Buciumului,601133,46.2556498,26.7741982
2,Strada Armoniei,601136,46.2559299,26.7740038
4,Strada Buciumului,601133,46.2560573,26.7735129
1,Strada Armoniei,601136,46.2563229,26.7739761
6,Strada Buciumului,601133,46.2563462,26.7730021
2,Strada Chimistului,601108,46.2566139,26.7731918
8,Strada Buciumului,601133,46.2567287,26.7723061
10,Strada Buciumului,601133,46.2570848,26.7706694
12,Strada Buciumului,601133,46.2572708,26.7689335
11,Strada Buciumului,601132,46.2567642,26.7706691
13,Strada Buciumului,601132,46.2567789,26.7697311
15,Strada Buciumului,601132,46.2569450,26.7687319
19,Strada Buciumului,601132,46.2560388,26.7691465
17,Strada Buciumului,601132,46.2565191,26.7689245
6,Strada Trotușului,601110,46.2593677,26.7702333
8,Strada Trotușului,601110,46.2597736,26.7710022
5,Strada Cireșoaiei,601111,46.2596615,26.7713192
1,Strada Cireșoaiei,601111,46.2590694,26.7716420
3,Strada Cireșoaiei,601111,46.2593005,26.7711661
2,Strada Cireșoaiei,601111,46.2588216,26.7724333
2,Strada Trotușului,601131,46.2578328,26.7683106
4,Strada Trotușului,601131,46.2580748,26.7688137
2,Calea Mărășești,601109,46.2585405,26.7692254
1,Strada Daciei,601112,46.2583684,26.7698446
3,Strada Daciei,601112,46.2577756,26.7696348
5,Strada Daciei,601112,46.2575151,26.7695814
2,Strada Daciei,601112,46.2575593,26.7700862
4,Strada Daciei,601112,46.2582159,26.7702705
1,Strada Ana Ipătescu,601112,46.2577094,26.7713560
3,Strada Ana Ipătescu,601112,46.2578068,26.7702696
3,Strada Ana Ipătescu,601112,46.2580140,26.7708632
1,Strada Pinului,601130,46.2574247,26.7714498
4,Calea Mărășești,601109,46.2584010,26.7710362
3,Strada Pinului,601130,46.2580073,26.7715883
2,Strada Pinului,601130,46.2570879,26.7718480
4,Strada Pinului,601130,46.2576924,26.7720033
6,Calea Mărășești,601155,46.2579212,26.7729041
1,Strada Chimistului,601108,46.2569154,26.7728756
3,Strada Chimistului,601108,46.2573479,26.7733086
4,Strada Chimistului,601108,46.2567443,26.7736200
6,Strada Chimistului,601108,46.2573227,26.7737114
8,Calea Mărășești,601117,46.2575231,26.7743710
3,Strada Armoniei,601136,46.2569106,26.7743932
10,Calea Mărășești,601117,46.2567033,26.7754853
4,Strada Armoniei,601136,46.2562988,26.7746992
7 Bis,Strada General Radu R. Rosetti,601011,46.2488537,26.7620607
7 Bis,Strada General Radu R. Rosetti,601011,46.2488802,26.7619338
9,Strada General Radu R. Rosetti,601011,46.2489293,26.7618259
23,Bulevardul Oituz,601032,46.2513499,26.7640175
23,Bulevardul Oituz,601032,46.2516165,26.7644966
17,Bulevardul Oituz,601032,46.2494049,26.7608302
5,Strada Poștei,601010,46.2499792,26.7660897
1A,Calea Brașovului,601073,46.2437154,26.7543607
1,Calea Mărășești,601109,46.2589311,26.7708230
4,Strada Armoniei,601136,46.2563681,26.7746754
