House number,Street name,Postal code,Latitude,Longitude
31/1,проспект Победы,693000,46.9501820,142.7478688
20,Коммунистический проспект,693010,46.9607973,142.7468172
26,улица Горького,693000,46.9495059,142.7568104
95,проспект Мира,693010,46.9640675,142.7398293
30А,Детская улица,693010,46.9667960,142.7458052
40,улица Дзержинского,693007,46.9554766,142.7383728
1Г/1,проспект Мира,693000,47.0085968,142.7365428
112А,Советская улица,693022,47.0503464,142.7262268
7,улица Достоевского,693005,46.9687831,142.7100923
102,улица Пуркаева,693004,46.9349855,142.7388446
2Б/1,2-я Красносельская улица,693022,47.0572322,142.7293102
146,Комсомольская улица,693010,46.9643698,142.7462930
557,улица Ленина,693017,46.9082749,142.7388244
18,Коммунистический проспект,693010,46.9604570,142.7498074
6А,Детская улица,693001,46.9673060,142.7513694
19Б,проспект Мира,693007,46.9563136,142.7413300
19Б,проспект Мира,693007,46.9561799,142.7413568
22,улица Карла Маркса,693009,46.9576601,142.7330055
15,бульвар Анкудинова,693010,46.9564583,142.7513173
15,бульвар Анкудинова,693010,46.9564269,142.7509833
15,бульвар Анкудинова,693010,46.9564351,142.7510515
15,бульвар Анкудинова,693010,46.9564396,142.7511175
15,бульвар Анкудинова,693010,46.9564467,142.7511832
15,бульвар Анкудинова,693010,46.9564211,142.7509048
10/2,Украинская улица,693023,46.9862901,142.7485412
1Б,2-я Центральная улица,693014,46.9006459,142.7428151
300А,Комсомольская улица,693013,46.9331799,142.7502180
14,2-я Красносельская улица,693022,47.0575125,142.7338379
92,проспект Мира,693010,46.9630573,142.7394867
59Б,Сахалинская улица,693009,46.9635847,142.7272979
69,Сахалинская улица,693009,46.9636294,142.7274811
109,Украинская улица,6930003,46.9830708,142.7173673
244,улица Ленина,693000,46.9539649,142.7302948
80,Советская улица,692022,47.0474615,142.7258781
123,Украинская улица,693003,46.9824964,142.7139445
17Б,Украинская улица,693012,46.9853803,142.7435095
263А,проспект Мира,693013,46.9331705,142.7471411
90,проспект Победы,693008,46.9496262,142.7323131
191,Комсомольская улица,693010,46.9522363,142.7495070
39,2-я Центральная улица,693014,46.8864852,142.7435935
3,улица Емельянова,690023,46.9433641,142.7551426
191,Комсомольская улица,693010,46.9522663,142.7495009
19,2-я Комсомольская улица,693022,47.0549024,142.7299711
1,улица Гайдука,693021,47.0123153,142.7164413
168В,Железнодорожная улица,693004,46.9349060,142.7258148
168В,Железнодорожная улица,693004,46.9347572,142.7258148
168В,Железнодорожная улица,693004,46.9349747,142.7256317
5,Сахалинская улица,693010,46.9652935,142.7447791
52,проспект Победы,693007,46.9504045,142.7427798
50,проспект Победы,693007,46.9504476,142.7431648
50,проспект Победы,693007,46.9504646,142.7433437
50,проспект Победы,693007,46.9504880,142.7435114
153,проспект Мира,693007,46.9537335,142.7417836
40/1,улица Дзержинского,693007,46.9547157,142.7385815
48,проспект Победы,693007,46.9505292,142.7439392
48,проспект Победы,693007,46.9505662,142.7442275
31,проспект Победы,693007,46.9501609,142.7480095
32,улица Карла Маркса,693009,46.9575366,142.7310486
88,Амурская улица,693009,46.9578350,142.7313466
32,улица Карла Маркса,693009,46.9575525,142.7308104
219,улица Ленина,693000,46.9532589,142.7310212
117,Физкультурная улица,693010,46.9640068,142.7422845
69,улица Пуркаева,693006,46.9338677,142.7355170
69,улица Пуркаева,693006,46.9338216,142.7355309
102,улица Пуркаева,693004,46.9349587,142.7385776
1/2,2-я Красносельская улица,693022,47.0586429,142.7301686
12В,улица Горького,693010,46.9566571,142.7565295
106/1,проспект Мира,6930007,46.9566607,142.7402357
106/1,проспект Мира,693007,46.9564448,142.7402673
106,проспект Мира,693007,46.9566773,142.7398184
95,проспект Мира,693010,46.9641779,142.7397896
14/2,Невельская улица,693010,46.9641282,142.7406156
259В,Комсомольская улица,693023,46.9366455,142.7529516
125,Комсомольская улица,693001,46.9672843,142.7463939
88,Амурская улица,693009,46.9578893,142.7311822
41,улица Чехова,693007,46.9543412,142.7369639
86,проспект Мира,693009,46.9644726,142.7390245
44а,Невельская улица,693009,46.9640079,142.7361347
109,Украинская улица,693003,46.9830872,142.7175963
76А,Украинская улица,693012,46.9859658,142.7495054
1Б,2-я Центральная улица,693014,46.9002937,142.7422146
33,Коммунистический проспект,693000,46.9588892,142.7415274
155А,Комсомольская улица,693010,46.9584692,142.7487094
153А,Комсомольская улица,693010,46.9590676,142.7485935
151А,Комсомольская улица,693010,46.9596854,142.7484738
151,Комсомольская улица,693010,46.9596378,142.7479461
153,Комсомольская улица,693010,46.9590199,142.7480657
155,Комсомольская улица,693010,46.9584216,142.7481816
21,улица Космонавта Поповича,693010,46.9541199,142.7516043
22,улица Космонавта Поповича,693010,46.9546681,142.7525951
23,улица Космонавта Поповича,693010,46.9540808,142.7509979
489А,улица Ленина,693004,46.9225926,142.7364030
74А,Авиационная улица,693004,46.9230637,142.7394416
76,Авиационная улица,693004,46.9222843,142.7389263
27,Коммунистический проспект,693007,46.9584674,142.7439285
53А,Амурская улица,693000,46.9602450,142.7320758
28А,улица Дзержинского,693020,46.9606323,142.7357765
137,улица Ленина,693020,46.9609328,142.7295138
78,Хабаровская улица,693000,46.9611786,142.7300429
129,улица Ленина,693000,46.9624495,142.7291292
21,Сахалинская улица,693010,46.9645993,142.7416974
65 к2,проспект Мира,693001,46.9694588,142.7398545
14,3-я Набережная улица,693014,46.8853987,142.7500660
10,3-я Набережная улица,693014,46.8850526,142.7505144
8,3-я Набережная улица,693014,46.8852183,142.7510371
11,3-я Набережная улица,693014,46.8839505,142.7497636
12,3-я Набережная улица,693014,46.8850187,142.7499884
16А,3-я Набережная улица,693014,46.8846156,142.7488091
13,3-я Набережная улица,693014,46.8845274,142.7507782
55А,Пограничная улица,693006,46.9443919,142.7354399
28В,улица Дзержинского,693020,46.9609270,142.7351896
23,улица Чехова,693020,46.9608035,142.7347337
22,Физкультурная улица,693001,46.9712906,142.7402124
22А,Физкультурная улица,693001,46.9713937,142.7398045
24,Физкультурная улица,693001,46.9708458,142.7402642
9В,Горная улица,693001,46.9704257,142.7481206
22Б,Физкультурная улица,693001,46.9712099,142.7394463
20,Институтская улица,693000,46.9539044,142.7283033
59/2,2-я Хабаровская улица,693022,47.0591043,142.7268133
164А,Железнодорожная улица,693004,46.9360924,142.7261979
1,Южно-Сахалинская улица,693005,46.9676559,142.7196554
1А,Южно-Сахалинская улица,693005,46.9677901,142.7194932
3,Холодный переулок,693005,46.9673055,142.7204604
9,Холодный переулок,693005,46.9675130,142.7199263
3,Южно-Сахалинская улица,693005,46.9674764,142.7194206
40,Курильская улица,693000,46.9629499,142.7357964
3,Трудовая улица,693005,46.9696366,142.7200554
26,Херсонская улица,693005,46.9688506,142.7202196
13,Песочная улица,693005,46.9680008,142.7219624
15,Песочная улица,693005,46.9678595,142.7219163
4,Херсонская улица,693005,46.9689361,142.7251284
1,Холодный переулок,693005,46.9672927,142.7212530
12,Песочная улица,693005,46.9687790,142.7216535
18А,Короткий переулок,693005,46.9677469,142.7221234
8,Херсонская улица,693005,46.9688545,142.7243055
31,Трудовая улица,693005,46.9687929,142.7208354
24,Песочная улица,693005,46.9668528,142.7216667
6,Херсонская улица,693005,46.9688836,142.7246375
21А,Херсонская улица,693005,46.9683554,142.7208367
24,Херсонская улица,693005,46.9685726,142.7208743
1,Херсонская улица,693005,46.9687187,142.7252981
3,Херсонская улица,693005,46.9687144,142.7250227
4,Южно-Сахалинский переулок,693005,46.9668385,142.7213571
20,Херсонская улица,693005,46.9688350,142.7222625
2,Херсонская улица,693005,46.9689651,142.7253126
5,Херсонская улица,693005,46.9683957,142.7246756
2к4,Загородная улица,693005,46.9634930,142.7164441
123,Украинская улица,693003,46.9821666,142.7139566
76А,Украинская улица,693012,46.9859116,142.7495630
13А,улица Комарова,693021,47.0093209,142.7168420
14,2-я Колхозная улица,693022,47.0511476,142.7219376
4,Ключевская улица,693022,47.0542408,142.7229034
149,Советская улица,693022,47.0546767,142.7232000
152,Советская улица,693022,47.0546287,142.7238309
33,улица Северный Городок,693022,47.0654481,142.7332962
37,улица Северный Городок,693022,47.0646931,142.7329102
39А,улица Северный Городок,693022,47.0644205,142.7323579
39,улица Северный Городок,693022,47.0640152,142.7318942
10,улица Северный Городок,693022,47.0623265,142.7304398
65,Киевская улица,693005,46.9587451,142.7111367
8,Морская улица,693005,46.9585123,142.7119291
53,Киевская улица,693005,46.9588548,142.7130786
8,Сентябрьская улица,693005,46.9629263,142.7182727
56А,Кирпичная улица,693005,46.9530145,142.7065136
4А,Пожарный проезд,693005,46.9542506,142.7073115
50Д,Кирпичная улица,693005,46.9538893,142.7065058
52В,Кирпичная улица,693005,46.9537766,142.7061336
28,улица Горького,693000,46.9484835,142.7577495
250,проспект Мира,693006,46.9440840,142.7427863
61Б,улица Пуркаева,693004,46.9343809,142.7395046
11,3-я Новая улица,693014,46.8833491,142.7472295
5А,3-я Новая улица,693014,46.8838612,142.7471248
15А,3-я Новая улица,693014,46.8830870,142.7473131
12,улица В. Атласова,693014,46.8832717,142.7481282
15,3-я Набережная улица,693014,46.8841974,142.7475678
25,Июльская улица,693014,46.8804547,142.7468202
30,3-я Новая улица,693014,46.8811009,142.7474440
28,3-я Новая улица,693014,46.8812798,142.7473420
36,3-я Новая улица,693014,46.8817127,142.7488868
25А,3-я Новая улица,693014,46.8817528,142.7482337
26,3-я Новая улица,693014,46.8816925,142.7472210
44,улица В. Атласова,693014,46.8804895,142.7496954
30,улица В. Атласова,693014,46.8807726,142.7495146
29,3-я Новая улица,693014,46.8812993,142.7477967
32А,улица В. Атласова,693014,46.8804680,142.7489825
24А,Физкультурная улица,693001,46.9708667,142.7394897
63,проспект Мира,693001,46.9706228,142.7388073
65 к1,проспект Мира,693001,46.9701721,142.7390175
26А,Физкультурная улица,693001,46.9705152,142.7395611
26Б,Физкультурная улица,693001,46.9703368,142.7396127
28,Физкультурная улица,693001,46.9696813,142.7404988
26,Физкультурная улица,693001,46.9704847,142.7403069
61,проспект Мира,693001,46.9708794,142.7387245
71А,Вокзальная улица,693000,46.9544710,142.7280814
9,1-я Северная улица,693014,46.8976152,142.7237842
7,1-я Северная улица,693014,46.8976569,142.7235608
11,1-я Северная улица,693014,46.8978075,142.7239950
13,1-я Северная улица,693014,46.8978357,142.7242353
15,1-я Северная улица,693014,46.8979104,142.7245066
20,улица В. Атласова,693014,46.8824393,142.7485103
37,3-я Новая улица,693014,46.8803910,142.7480784
35,3-я Новая улица,693014,46.8805324,142.7480140
27,Июльская улица,693014,46.8802735,142.7466496
15,Июльская улица,693014,46.8814594,142.7464724
31А,3-я Новая улица,693014,46.8810708,142.7485557
60,Инженерная улица,693000,46.9183285,142.7365274
14,улица В. Атласова,693014,46.8830013,142.7483024
26,улица Горького,693010,46.9495931,142.7568554
14А,Фабричная улица,693001,46.9692861,142.7478648
69,улица Пуркаева,693006,46.9337958,142.7355465
373А,Комсомольская улица,693023,46.9280404,142.7569958
373,Комсомольская улица,693023,46.9277158,142.7563715
468,проспект Мира,693014,46.9105261,142.7458515
563 к1,улица Ленина,693014,46.9057433,142.7400542
395,улица Ленина,693004,46.9313365,142.7340871
373Б,Комсомольская улица,693023,46.9275052,142.7574707
373В,Комсомольская улица,693023,46.9271759,142.7568815
335,улица Ленина,693006,46.9347258,142.7350134
2 к3,Больничная улица,693023,46.9268757,142.7575868
66,Киевская улица,693005,46.9590795,142.7121449
64,Киевская улица,693005,46.9591146,142.7124158
62,Киевская улица,693005,46.9591432,142.7126633
18,Херсонская улица,693005,46.9687506,142.7225769
166 к1,Железнодорожная улица,693004,46.9354404,142.7264496
300 к2,проспект Мира,693006,46.9358318,142.7432459
300 к3,проспект Мира,693006,46.9358760,142.7425444
300 к4,проспект Мира,693006,46.9362866,142.7426273
9,3-я Новая улица,693014,46.8835672,142.7472111
13,3-я Новая улица,693014,46.8829260,142.7472739
37А,3-я Новая улица,693014,46.8804178,142.7486938
35А к3,улица Емельянова,693006,46.9374464,142.7375460
35А к2,улица Емельянова,693006,46.9373463,142.7385387
35А,улица Емельянова,693006,46.9380321,142.7380955
29,Июльская улица,693014,46.8801007,142.7471240
23,Июльская улица,693014,46.8806131,142.7467604
17,Июльская улица,693014,46.8809854,142.7464283
26А,3-я Новая улица,693014,46.8814839,142.7467474
34,3-я Новая улица,693014,46.8807528,142.7472478
14,2-я Северная улица,693014,46.8981160,142.7233882
18,2-я Северная улица,693014,46.8981819,142.7241178
164Б,Железнодорожная улица,693004,46.9352353,142.7261301
145/1,Железнодорожная улица,693006,46.9367714,142.7275576
40/1,улица Дзержинского,693007,46.9547105,142.7384952
10Б,Ключевская улица,693022,47.0540613,142.7219115
6,Ключевская улица,693022,47.0541788,142.7226144
147,Советская улица,693022,47.0544610,142.7232723
52Ж,Кирпичная улица,693005,46.9543952,142.7064951
54Л,Кирпичная улица,693005,46.9541732,142.7056927
8 к3,Горная улица,693012,46.9721871,142.7481613
8 к2,Горная улица,693012,46.9719561,142.7491938
8 к4,Горная улица,693012,46.9724661,142.7489007
8 к6,Горная улица,693012,46.9727656,142.7496675
8Б,Горная улица,693012,46.9730585,142.7499479
23Ж,Родниковая улица,693012,46.9734807,142.7498361
25Ж,Родниковая улица,693012,46.9735354,142.7492815
25Е,Родниковая улица,693012,46.9736153,142.7488316
23Г,Родниковая улица,693012,46.9736910,142.7482586
4В,Горная улица,693012,46.9722025,142.7514197
4Б,Горная улица,693012,46.9719797,142.7511486
4А,Горная улица,693012,46.9717653,142.7508960
2,Горная улица,693012,46.9719124,142.7518018
2А,Горная улица,693012,46.9715214,142.7512718
6В,Горная улица,693012,46.9726482,142.7506988
6Б,Горная улица,693012,46.9723581,142.7505200
6А,Горная улица,693012,46.9720427,142.7503845
6,Горная улица,693012,46.9717662,142.7502884
6Г,Горная улица,693012,46.9724182,142.7510600
4,Горная улица,693012,46.9714281,142.7507414
1/8,проспект Мира,693000,46.9990433,142.7330251
52И,Кирпичная улица,693005,46.9542912,142.7069008
57,Киевская улица,693005,46.9588600,142.7124922
55,Киевская улица,693005,46.9588951,142.7127687
59,Киевская улица,693005,46.9588322,142.7122786
300 к6,проспект Мира,693006,46.9369115,142.7428888
298,проспект Мира,693006,46.9365272,142.7438833
29Б,улица Карла Маркса,693009,46.9572905,142.7324808
150,улица Ленина,​693009,46.9671572,142.7272997
2 к10,Больничная улица,693023,46.9266882,142.7590478
2,улица Священномученика Илариона Троицкого,693000,46.9499925,142.7608336
4А/1,Детская улица,693001,46.9679399,142.7540850
35А к1,улица Емельянова,693006,46.9376019,142.7388483
17В,2-й Заречный переулок,693014,46.8821109,142.7352295
102В,проспект Победы,693008,46.9494359,142.7270426
563 к2,улица Ленина,693014,46.9053300,142.7410453
1,Холодный переулок,693005,46.9672137,142.7211829
563 к3,улица Ленина,693014,46.9049502,142.7443490
18,улица Космонавта Поповича,693010,46.9547701,142.7542391
166,Железнодорожная улица,693004,46.9352154,142.7264261
1,улица Дёмина,693904,46.9810923,142.6796110
4,Херсонская улица,693005,46.9688875,142.7249675
34,Бумажная улица,​693009,46.9677388,142.7268636
5Д,Сахалинская улица,693010,46.9652691,142.7447183
70,проспект Мира,693010,46.9668285,142.7383113
2 к9,Больничная улица,693023,46.9271949,142.7589455
2 к6,Больничная улица,693023,46.9281163,142.7580598
38,улица Леонова,693010,46.9616269,142.7444579
30/2,улица Горького,693023,46.9470638,142.7558512
14,улица Большая Полянка,693005,46.9811366,142.6810934
8 к8,Горная улица,693012,46.9713571,142.7497038
2 к8,Больничная улица,693023,46.9276062,142.7588626
2 к7,Больничная улица,693023,46.9280255,142.7587780
137,ул. Комосомольская,693010,46.9620487,142.7490854
125,Комсомольская улица,693010,46.9673313,142.7463990
8 к5,Горная улица,693001,46.9729107,142.7481303
1,улица Дёмина,693904,46.9807413,142.6793740
2 к1,Больничная улица,693023,46.9264017,142.7572362
2 к2,Больничная улица,693023,46.9267492,142.7565293
2,Больничная улица,693023,46.9260226,142.7587833
2 к5,Больничная улица,693023,46.9274976,142.7582427
2 к4,Больничная улица,693023,46.9269243,142.7583580
41,проспект Победы,693007,46.9494119,142.7445496
5,улица Есенина,693013,46.9303592,142.7513206
