House number,Street name,Postal code,Latitude,Longitude
78,Churchland Drive,L4N 8P1,44.3313804,-79.7213721
37,Mulcaster Street,L4M 3M2,44.3902099,-79.6851310
531,Bayfield Street,L4M 4Z9,44.4149566,-79.7116826
135,Mapleview Drive West,L4N 9H7,44.3319729,-79.6976336
534,Bayfield Street,L4M 5A2,44.4144767,-79.7133074
331,Bayfield Street,L4M 3C2,44.4025457,-79.7008450
81,Bryne Drive,L4N 8V8,44.3543255,-79.6914766
151,Bayfield Street,L4M 3B4,44.3942479,-79.6937553
400,Bayfield Street,L4M 5A1,44.4070879,-79.7073824
12,Dunlop Street East,L4M 1A3,44.3893840,-79.6896660
649,Yonge Street,L4N 4E7,44.3565520,-79.6449203
649,Yonge Street,L4N 4E7,44.3567337,-79.6454943
636,Yonge Street,L4N 4E6,44.3550093,-79.6457939
636,Yonge Street,L4N 4E6,44.3549595,-79.6456448
371,King Street,L4N 6B5,44.3279082,-79.6993272
422,Dunlop Street West,L4N 1C2,44.3777139,-79.7173563
40,Mills Road,L4N 6J9,44.3267002,-79.6938167
75,Barrie View Drive,L4N 8V4,44.3361827,-79.6867965
190,Minet's Point Road,L4N 4C3,44.3707565,-79.6691315
279,Yonge Street,L4N 7T9,44.3716977,-79.6725389
353 Anne Street N,353 Anne Street N,L4N 5N4,44.4022596,-79.7213338
353,Anne Street North,L4N 7Z9,44.4025393,-79.7215537
80,Concert Way,L4N 6N5,44.3384338,-79.6840570
80,Concert Way,L4N 6N5,44.3386948,-79.6841399
110,Concert Way,L4N 6N5,44.3374198,-79.6836253
110,Concert Way,L4N 6N5,44.3371599,-79.6835616
397,Bayfield Street,L4M 3C5,44.4072901,-79.7050632
126,Bradford Street,L4N 3B3,44.3804761,-79.6941125
649,Yonge Street,L4N 4E7,44.3561703,-79.6443455
11,Victoria Street,L4N 3A3,44.3810874,-79.6912233
320,Bayfield Street,L4M 3C1,44.3999355,-79.7022295
62,Mary Street,L4N 1T1,44.3890519,-79.6932759
199,Burton Avenue,L4N 2R9,44.3720167,-79.6784233
188,Sunnidale Rd,L4N 3Z1,44.3959870,-79.7093982
431,Bayview Drive,L4N 8Y2,44.3445910,-79.6772021
19,Mapleview Drive West,L4N 9H5,44.3345864,-79.6863968
571,Huronia Rd,L4N 8X3,44.3413091,-79.6620104
140,Dunlop Street East,L4M 6H9,44.3894956,-79.6847381
9,Jonathan Court,L4M 2S4,44.4015848,-79.6874742
307,Cundles Road East,L4M 0G9,44.4143803,-79.6805116
422,Dunlop Street West,L4N 1C2,44.3776640,-79.7174728
48,Dean Avenue,L4N 0C2,44.3543962,-79.6475086
448,Dunlop Street West,L4N 1C2,44.3764710,-79.7197163
24,George Street,L4N 5N3,44.3795922,-79.7070429
130,Bell Farm Road,L4M 6J4,44.4110638,-79.6769544
170,Prince William Way,L9J 0G7,44.3528905,-79.6115102
211,Ferndale Drive South,L4N 6B9,44.3555981,-79.7142633
320,Bayfield Street,L4M 3C1,44.3995987,-79.7019116
320,Bayfield Street,L4M 3C1,44.3996331,-79.7031814
509,Bayfield Street,L4M 4Z8,44.4136698,-79.7098993
509,Bayfield Street,L4M 4Z8,44.4134019,-79.7091814
509,Bayfield Street,L4M 4Z8,44.4135134,-79.7095272
509,Bayfield Street,L4M 4Z8,44.4133013,-79.7093269
509,Bayfield Street,L4M 4Z8,44.4132101,-79.7092483
509,Bayfield Street,L4M 4Z8,44.4131392,-79.7091923
509,Bayfield Street,L4M 4Z8,44.4129171,-79.7090052
509,Bayfield Street,L4M 4Z8,44.4131902,-79.7088890
509,Bayfield Street,L4M 4Z8,44.4133012,-79.7086502
509,Bayfield Street,L4M 4Z8,44.4133874,-79.7084694
509,Bayfield Street,L4M 4Z8,44.4135810,-79.7082189
509,Bayfield Street,L4M 4Z8,44.4129251,-79.7077357
85,Ferris Lane,L4M 6B9,44.4054548,-79.6940226
157,Bayfield Street,L4M 3B4,44.3944625,-79.6941800
5,Mulcaster Street,L4M 3L9,44.3890643,-79.6851436
15,Sperling Drive,L4M 6K9,44.4106943,-79.6864160
157,Bayfield Street,L4M 3B4,44.3944699,-79.6940469
35,Hart Drive,L4N 5M3,44.3801106,-79.7085055
509,Bayfield Street,L4M 4Z8,44.4127904,-79.7073491
509,Bayfield Street,L4M 4Z8,44.4125921,-79.7077396
509,Bayfield Street,L4M 4Z8,44.4127236,-79.7077595
509,Bayfield Street,L4M 4Z8,44.4127820,-79.7076350
509,Bayfield Street,L4M 4Z8,44.4128309,-79.7075327
509,Bayfield Street,L4M 4Z8,44.4128908,-79.7074172
509,Bayfield Street,L4M 4Z8,44.4125899,-79.7080702
509,Bayfield Street,L4M 4Z8,44.4124167,-79.7087692
509,Bayfield Street,L4M 4Z8,44.4124584,-79.7078313
509,Bayfield Street,L4M 4Z8,44.4121702,-79.7078543
509,Bayfield Street,L4M 4Z8,44.4119558,-79.7076684
509,Bayfield Street,L4M 4Z8,44.4122955,-79.7076792
509,Bayfield Street,L4M 4Z8,44.4122247,-79.7076243
509,Bayfield Street,L4M 4Z8,44.4121425,-79.7075500
509,Bayfield Street,L4M 4Z8,44.4120793,-79.7074969
509,Bayfield Street,L4M 4Z8,44.4120035,-79.7074350
509,Bayfield Street,L4M 4Z8,44.4120161,-79.7072722
509,Bayfield Street,L4M 4Z8,44.4121311,-79.7073642
509,Bayfield Street,L4M 4Z8,44.4122071,-79.7074266
509,Bayfield Street,L4M 4Z8,44.4126881,-79.7074939
509,Bayfield Street,L4M 4Z8,44.4128524,-79.7076537
509,Bayfield Street,L4M 4Z8,44.4132389,-79.7080211
509,Bayfield Street,L4M 4Z8,44.4123420,-79.7075386
509,Bayfield Street,L4M 4Z8,44.4124032,-79.7075943
509,Bayfield Street,L4M 4Z8,44.4130668,-79.7091314
509,Bayfield Street,L4M 4Z8,44.4129869,-79.7090593
509,Bayfield Street,L4M 4Z8,44.4126479,-79.7087483
509,Bayfield Street,L4M 4Z8,44.4127430,-79.7088367
509,Bayfield Street,L4M 4Z8,44.4128308,-79.7089170
509,Bayfield Street,L4M 4Z8,44.4134083,-79.7094210
509,Bayfield Street,L4M 4Z8,44.4136117,-79.7096066
509,Bayfield Street,L4M 4Z8,44.4135675,-79.7097141
509,Bayfield Street,L4M 4Z8,44.4135258,-79.7098051
509,Bayfield Street,L4M 4Z8,44.4135376,-79.7092907
509,Bayfield Street,L4M 4Z8,44.4133424,-79.7092342
509,Bayfield Street,L4M 4Z8,44.4133398,-79.7080933
509,Bayfield Street,L4M 4Z8,44.4133979,-79.7081255
509,Bayfield Street,L4M 4Z8,44.4132980,-79.7080563
509,Bayfield Street,L4M 4Z8,44.4131920,-79.7079792
509,Bayfield Street,L4M 4Z8,44.4131484,-79.7079437
509,Bayfield Street,L4M 4Z8,44.4131043,-79.7078996
509,Bayfield Street,L4M 4Z8,44.4130226,-79.7078322
509,Bayfield Street,L4M 4Z8,44.4129819,-79.7077907
509,Bayfield Street,L4M 4Z8,44.4128213,-79.7078810
509,Bayfield Street,L4M 4Z8,44.4129102,-79.7079500
509,Bayfield Street,L4M 4Z8,44.4129831,-79.7080255
509,Bayfield Street,L4M 4Z8,44.4130571,-79.7080947
509,Bayfield Street,L4M 4Z8,44.4131553,-79.7081730
509,Bayfield Street,L4M 4Z8,44.4132365,-79.7080953
509,Bayfield Street,L4M 4Z8,44.4132366,-79.7082443
509,Bayfield Street,L4M 4Z8,44.4134030,-79.7083754
509,Bayfield Street,L4M 4Z8,44.4133615,-79.7083475
509,Bayfield Street,L4M 4Z8,44.4133160,-79.7083086
509,Bayfield Street,L4M 4Z8,44.4132415,-79.7087732
509,Bayfield Street,L4M 4Z8,44.4135300,-79.7085563
509,Bayfield Street,L4M 4Z8,44.4133198,-79.7089792
509,Bayfield Street,L4M 4Z8,44.4131403,-79.7089775
509,Bayfield Street,L4M 4Z8,44.4132768,-79.7090783
509,Bayfield Street,L4M 4Z8,44.4130613,-79.7089120
509,Bayfield Street,L4M 4Z8,44.4128103,-79.7086855
509,Bayfield Street,L4M 4Z8,44.4128612,-79.7087345
509,Bayfield Street,L4M 4Z8,44.4129120,-79.7087812
509,Bayfield Street,L4M 4Z8,44.4130113,-79.7088641
509,Bayfield Street,L4M 4Z8,44.4129621,-79.7088221
509,Bayfield Street,L4M 4Z8,44.4128687,-79.7088198
509,Bayfield Street,L4M 4Z8,44.4137139,-79.7097893
509,Bayfield Street,L4M 4Z8,44.4137668,-79.7096645
509,Bayfield Street,L4M 4Z8,44.4140430,-79.7095844
509,Bayfield Street,L4M 4Z8,44.4139747,-79.7096045
509,Bayfield Street,L4M 4Z8,44.4138328,-79.7096507
509,Bayfield Street,L4M 4Z8,44.4139087,-79.7096322
509,Bayfield Street,L4M 4Z8,44.4139519,-79.7093978
509,Bayfield Street,L4M 4Z8,44.4138394,-79.7094510
509,Bayfield Street,L4M 4Z8,44.4136309,-79.7093924
509,Bayfield Street,L4M 4Z8,44.4140750,-79.7092889
509,Bayfield Street,L4M 4Z8,44.4141959,-79.7090468
509,Bayfield Street,L4M 4Z8,44.4142928,-79.7091361
509,Bayfield Street,L4M 4Z8,44.4142052,-79.7093599
509,Bayfield Street,L4M 4Z8,44.4141349,-79.7090003
509,Bayfield Street,L4M 4Z8,44.4140810,-79.7089602
509,Bayfield Street,L4M 4Z8,44.4140374,-79.7089208
509,Bayfield Street,L4M 4Z8,44.4139809,-79.7088692
509,Bayfield Street,L4M 4Z8,44.4136312,-79.7085877
509,Bayfield Street,L4M 4Z8,44.4143838,-79.7089158
509,Bayfield Street,L4M 4Z8,44.4143143,-79.7088540
509,Bayfield Street,L4M 4Z8,44.4142401,-79.7087788
509,Bayfield Street,L4M 4Z8,44.4141678,-79.7087105
509,Bayfield Street,L4M 4Z8,44.4141045,-79.7086473
509,Bayfield Street,L4M 4Z8,44.4140393,-79.7085956
509,Bayfield Street,L4M 4Z8,44.4139779,-79.7085375
509,Bayfield Street,L4M 4Z8,44.4139349,-79.7084925
509,Bayfield Street,L4M 4Z8,44.4138942,-79.7084588
509,Bayfield Street,L4M 4Z8,44.4138517,-79.7084286
509,Bayfield Street,L4M 4Z8,44.4138107,-79.7083848
509,Bayfield Street,L4M 4Z8,44.4137586,-79.7083234
509,Bayfield Street,L4M 4Z8,44.4137163,-79.7082791
509,Bayfield Street,L4M 4Z8,44.4124748,-79.7081421
509,Bayfield Street,L4M 4Z8,44.4124352,-79.7081036
509,Bayfield Street,L4M 4Z8,44.4123901,-79.7080728
509,Bayfield Street,L4M 4Z8,44.4123472,-79.7080312
509,Bayfield Street,L4M 4Z8,44.4123075,-79.7079958
509,Bayfield Street,L4M 4Z8,44.4122679,-79.7079619
509,Bayfield Street,L4M 4Z8,44.4124429,-79.7079681
509,Bayfield Street,L4M 4Z8,44.4122734,-79.7078802
509,Bayfield Street,L4M 4Z8,44.4123483,-79.7077139
509,Bayfield Street,L4M 4Z8,44.4123296,-79.7077632
509,Bayfield Street,L4M 4Z8,44.4123042,-79.7078232
509,Bayfield Street,L4M 4Z8,44.4138067,-79.7087383
509,Bayfield Street,L4M 4Z8,44.4136929,-79.7086303
509,Bayfield Street,L4M 4Z8,44.4141769,-79.7088921
509,Bayfield Street,L4M 4Z8,44.4139200,-79.7086727
509,Bayfield Street,L4M 4Z8,44.4137422,-79.7085232
509,Bayfield Street,L4M 4Z8,44.4125111,-79.7084718
509,Bayfield Street,L4M 4Z8,44.4125320,-79.7086027
509,Bayfield Street,L4M 4Z8,44.4124858,-79.7083178
509,Bayfield Street,L4M 4Z8,44.4127081,-79.7086043
509,Bayfield Street,L4M 4Z8,44.4126531,-79.7084903
509,Bayfield Street,L4M 4Z8,44.4126311,-79.7083640
509,Bayfield Street,L4M 4Z8,44.4126201,-79.7082546
509,Bayfield Street,L4M 4Z8,44.4125501,-79.7082715
509,Bayfield Street,L4M 4Z8,44.4127565,-79.7079526
509,Bayfield Street,L4M 4Z8,44.4127147,-79.7080420
509,Bayfield Street,L4M 4Z8,44.4126751,-79.7081298
315,Bayfield Street,L4M 3C2,44.4014115,-79.6998387
315,Bayfield Street,L4M 3C2,44.4014576,-79.6998841
547,Cundles Road East,L4M 0J7,44.4148254,-79.6779718
221,Cundles Road East,L4M 6L5,44.4125952,-79.6855579
49,Morrow Road,L4N 3V7,44.3616724,-79.7007740
644,Yonge Street,L4N 4E6,44.3554086,-79.6447986
80,Concert Way,L4N 6N5,44.3399657,-79.6846515
636,Yonge Street,L4N 4E6,44.3549296,-79.6455799
509,Bayfield Street,L4M 4Z8,44.4130666,-79.7078675
509,Bayfield Street,L4M 4Z8,44.4133684,-79.7088821
509,Bayfield Street,L4M 4Z8,44.4134342,-79.7087107
509,Bayfield Street,L4M 4Z8,44.4134850,-79.7086417
509,Bayfield Street,L4M 4Z8,44.4137615,-79.7086919
509,Bayfield Street,L4M 4Z8,44.4138676,-79.7087861
509,Bayfield Street,L4M 4Z8,44.4133520,-79.7085580
509,Bayfield Street,L4M 4Z8,44.4132773,-79.7082756
509,Bayfield Street,L4M 4Z8,44.4132883,-79.7075053
509,Bayfield Street,L4M 4Z8,44.4122704,-79.7074794
509,Bayfield Street,L4M 4Z8,44.4119742,-79.7074054
85,Bayfield Street,L4M 3A7,44.3911774,-79.6913984
19,Mapleview Drive West,L4N 9H5,44.3344901,-79.6863324
35,Mapleview Drive West,L4N 9H5,44.3343904,-79.6862519
7,Anne Street South,L4N 2C4,44.3826637,-79.7042284
7,Anne Street South,L4N 2C4,44.3825998,-79.7043585
75,Barrie View Drive,L4N 8V4,44.3362403,-79.6875860
75,Barrie View Drive,L4N 8V4,44.3361423,-79.6876109
75,Barrie View Drive,L4N 8V4,44.3361227,-79.6874635
21,Mapleview Drive West,L4N 9H5,44.3341103,-79.6860400
19,Mapleview Drive West,L4M 4S7,44.3340393,-79.6859729
19,Mapleview Drive West,L4N 9H5,44.3339721,-79.6859247
510,Bryne Drive,L4N 9P6,44.3315928,-79.6905025
510,Bryne Drive,L4N 9P6,44.3314184,-79.6904672
516,Bryne Drive,L4N 9P6,44.3305694,-79.6902235
70,Barrie View Drive,L4N 8V4,44.3364821,-79.6890135
642,Yonge Street,L4N 4E6,44.3556035,-79.6453274
642,Yonge Street,L4N 4E6,44.3555759,-79.6452319
636,Yonge Street,L4N 4E6,44.3548521,-79.6453660
636,Yonge Street,L4N 4E6,44.3548957,-79.6454819
636,Yonge Street,L4N 4E6,44.3550981,-79.6460654
636,Yonge Street,L4N 4E6,44.3551261,-79.6461414
636,Yonge Street,L4N 4E6,44.3551484,-79.6462090
632,Yonge Street,L4N 4E6,44.3551935,-79.6463409
632,Yonge Street,L4N 4E6,44.3552678,-79.6465301
632,Yonge Street,L4N 4E6,44.3553602,-79.6468269
632,Yonge Street,L4N 4E6,44.3554527,-79.6471103
632,Yonge Street,L4N 4E6,44.3555210,-79.6472813
179,Live Eight Way,L4N 6P1,44.3376056,-79.6794987
130,Live Eight Way,L4N 6P1,44.3405022,-79.6807292
130,Live Eight Way,L4N 6P1,44.3404973,-79.6806694
130,Live Eight Way,L4N 6P1,44.3404844,-79.6805826
79,Park Place Boulevard,L4N 6P4,44.3401191,-79.6813320
89,Park Place Boulevard,L4N 6P4,44.3398910,-79.6817843
89,Park Place Boulevard,L4N 6P4,44.3400141,-79.6817518
89,Park Place Boulevard,L4N 6P4,44.3401056,-79.6817256
89,Park Place Boulevard,L4N 6P4,44.3401798,-79.6817119
47,Concert Way,L4N 6N5,44.3408976,-79.6828159
47,Concert Way,L4N 6N5,44.3407698,-79.6828652
80,Park Place Boulevard,L4N 6P8,44.3403269,-79.6829884
100,Park Place Boulevard,L4N 6P8,44.3396893,-79.6829511
90,Park Place Boulevard,L4N 6P8,44.3403879,-79.6825794
90,Park Place Boulevard,L4N 6P8,44.3402968,-79.6825971
90,Park Place Boulevard,L4N 6P8,44.3402133,-79.6826113
90,Park Place Boulevard,L4N 0L1,44.3399702,-79.6826453
110,Park Place Boulevard,L4N 6P1,44.3387647,-79.6824964
110,Park Place Boulevard,L4N 6P1,44.3388184,-79.6822469
80,Concert Way,L4N 6N5,44.3391810,-79.6826385
110,Park Place Boulevard,L4N 6P1,44.3391503,-79.6823596
110,Park Place Boulevard,L4N 6P1,44.3390256,-79.6823167
120,Park Place Boulevard,L4N 6P1,44.3384113,-79.6823391
120,Park Place Boulevard,L4N 6P1,44.3382770,-79.6822640
120,Concert Way,L4N 6N5,44.3364622,-79.6822989
110,Concert Way,L4N 6N5,44.3365543,-79.6831089
110,Concert Way,L4N 6N5,44.3369955,-79.6834174
384,Yonge Street,L4N 4C8,44.3669182,-79.6642070
409,Yonge Street,L4N 4E1,44.3663239,-79.6619110
320,Yonge Street,L4N 4C8,44.3694178,-79.6687656
279,Yonge Street,L4N 7T9,44.3716101,-79.6722832
279,Yonge Street,L4N 7T9,44.3715449,-79.6717521
190,Minet's Point Road,L4N 4C3,44.3707955,-79.6693692
190,Minet's Point Road,L4N 4C3,44.3708130,-79.6694546
494,Big Bay Point Road,L4N 3Z5,44.3574630,-79.6478763
565,Yonge Street,L4N 4E3,44.3588649,-79.6512572
157,Bayfield Street,L4M 3B4,44.3944499,-79.6939765
157,Bayfield Street,L4M 3B4,44.3943566,-79.6938985
157,Bayfield Street,L4M 3B4,44.3944193,-79.6939458
157,Bayfield Street,L4M 3B4,44.3943203,-79.6938687
157,Bayfield Street,L4M 3B4,44.3943923,-79.6939300
68,Maple Avenue,L4N 1R8,44.3900602,-79.6927412
121,Wellington Street West,L4N 1L3,44.3890422,-79.7028992
320,Bayfield Street,L4M 3B9,44.4013108,-79.7034036
555,Essa Road,L4N 6A9,44.3384001,-79.7109223
547,Cundles Road East,L4M 0J7,44.4148594,-79.6778957
201,Cundles Road East,L4M 4S5,44.4115992,-79.6867336
559,Essa Road,L4N 6A9,44.3381019,-79.7097520
49,"High St, Barrie",L4N 5J4,44.3878387,-79.6946606
121,Wellington St W,L4N 1L2,44.3890611,-79.7030103
123,Dunlop St E,L4M 1A6,44.3891771,-79.6863297
11,Victoria Street,L4N 3A3,44.3808651,-79.6916230
265,Burton Avenue,L4N 2R9,44.3715190,-79.6753138
39,Owen Street,L4M 3G9,44.3909425,-79.6876113
20,Bell Farm Road,L4M 5G6,44.4085013,-79.6839968
4,Alliance Boulevard,L4M 5J1,44.4080146,-79.6853487
4,Alliance Boulevard,L4M 7G3,44.4082752,-79.6854506
11,Alliance Boulevard,L4M 5J1,44.4081602,-79.6854399
33,Alliance Boulevard,L4M 5K2,44.4088922,-79.6830527
40,Bell Farm Road,L4M 0H9,44.4084400,-79.6823124
30,North Village Way,L4N 6P3,44.3423153,-79.6823335
30,North Village Way,L4N 6P3,44.3417835,-79.6814293
120,Concert Way,L4N 6N5,44.3364949,-79.6821843
59,Dunlop Street East,L4M 1A6,44.3889022,-79.6870579
147,Dunlop Street East,L4M 1A6,44.3891610,-79.6856702
133,Dunlop Street East,L4M 1A6,44.3891571,-79.6861061
644,Yonge Street,L4N 4E6,44.3553730,-79.6446831
636,Yonge Street,L4N 4E6,44.3549878,-79.6457030
120,Park Place Boulevard,L4N 6P1,44.3380690,-79.6820007
411,Huronia Road,L4N 8Z1,44.3531119,-79.6636988
411,Huronia Road,L4N 9B3,44.3527972,-79.6636776
411,Huronia Road,L4N 9B3,44.3527257,-79.6638495
411,Huronia Road,L4N 9B3,44.3526529,-79.6640450
411,Huronia Road,L4N 9B3,44.3529487,-79.6637001
411,Huronia Road,L4N 9B3,44.3528884,-79.6636724
411,Huronia Road,L4N 9B3,44.3529930,-79.6637205
411,Huronia Road,L4N 9B3,44.3526379,-79.6641351
411,Huronia Road,L4N 9B3,44.3525938,-79.6641931
411,Huronia Road,L4N 9B3,44.3525770,-79.6642783
411,Huronia Road,L4N 9B3,44.3525153,-79.6643657
419,Huronia Road,L4N 9B3,44.3518095,-79.6641500
421,Huronia Road,L4N 9B3,44.3514287,-79.6641300
431,Huronia Road,L4N 9B3,44.3506774,-79.6640551
431,Huronia Road,L4N 9B3,44.3507158,-79.6639060
431,Huronia Road,L4N 9B3,44.3507610,-79.6637887
431,Huronia Road,L4N 9B3,44.3507914,-79.6636319
431,Huronia Road,L4N 9B3,44.3509126,-79.6634677
431,Huronia Road,L4N 9B3,44.3510812,-79.6634318
431,Huronia Road,L4N 9B3,44.3512241,-79.6637628
516,Bryne Drive,L4N 9P6,44.3311291,-79.6903719
516,Bryne Drive,L4N 9P6,44.3309662,-79.6903317
516,Bryne Drive,L4N 9P6,44.3308710,-79.6903066
516,Bryne Drive,L4N 9P6,44.3307661,-79.6902805
516,Bryne Drive,L4N 9P6,44.3306971,-79.6902637
516,Bryne Drive,L4N 9P6,44.3306283,-79.6902440
649,Yonge Street,L4N 4E7,44.3568903,-79.6453546
649,Yonge Street,L4N 4E7,44.3564909,-79.6446751
649,Yonge Street,L4N 4E7,44.3563864,-79.6445755
649,Yonge Street,L4N 4E7,44.3563411,-79.6445486
520,Bryne Drive,L4N 9P6,44.3303881,-79.6901664
520,Bryne Drive,L4N 9P6,44.3302615,-79.6901336
520,Bryne Drive,L4N 9P6,44.3302033,-79.6901212
520,Bryne Drive,L4N 9P6,44.3301432,-79.6901088
520,Bryne Drive,L4N 9P6,44.3300918,-79.6900985
520,Bryne Drive,L4N 9P6,44.3299997,-79.6899791
520,Bryne Drive,L4N 9P6,44.3298901,-79.6899474
50,Dunlop Street East,L4M 6J9,44.3895511,-79.6883912
179,Live Eight Way,L4N 6P1,44.3376937,-79.6795147
431,Bayview Drive,L4N 8Y2,44.3445266,-79.6781344
431,Bayview Drive,L4N 8Y2,44.3445458,-79.6779824
431,Bayview Drive,L4N 8Y2,44.3445685,-79.6778192
431,Bayview Drive,L4N 8Y2,44.3445844,-79.6776846
431,Bayview Drive,L4N 8Y2,44.3439738,-79.6769450
411,Huronia Road,L4N 9B3,44.3526996,-79.6639626
301,Blake Street,L4M 1K0,44.3957772,-79.6581302
567,Cundles Road East,L4M 3A0,44.4155635,-79.6767253
524,Bayfield Street,L4M 5A0,44.4139185,-79.7129002
279,Yonge Street,L4N 7T0,44.3717295,-79.6726663
831,Big Bay Point Road,L4N 0G0,44.3638553,-79.6159772
649,Yonge Street,L4N 4E0,44.3566400,-79.6449606
420,Essa Road,L4N 9J0,44.3472050,-79.7031885
37,Mapleview Drive,L4N 9H0,44.3316139,-79.6860609
649,Yonge Street,L4N 4E7,44.3564377,-79.6446044
632,Yonge Street,L4N 4E7,44.3553289,-79.6467273
649,Yonge Street,L4N 4E7,44.3560812,-79.6441310
649,Yonge Street,L4N 4E7,44.3562969,-79.6445233
649,Yonge Street,L4N 4E7,44.3562496,-79.6444978
636,Yonge Street,L4N 4E6,44.3551702,-79.6462778
623,Yonge Street,L4N 4E7,44.3569003,-79.6466482
409,Yonge Street,L4N 4E1,44.3664376,-79.6619031
409,Yonge Street,L4N 4E1,44.3665303,-79.6619393
393,Yonge Street,L4N 4C9,44.3670155,-79.6626859
393,Yonge Street,L4N 4C9,44.3670865,-79.6627452
393,Yonge Street,L4N 4C9,44.3671742,-79.6627783
393,Yonge Street,L4N 4C9,44.3672077,-79.6629755
384,Yonge Street,L4N 4C8,44.3667055,-79.6636928
384,Yonge Street,L4N 4C8,44.3666876,-79.6637666
384,Yonge Street,L4N 4C8,44.3666700,-79.6638426
384,Yonge Street,L4N 4C8,44.3666506,-79.6639243
384,Yonge Street,L4N 4C8,44.3666366,-79.6640039
620,Yonge Street,L4N 4E6,44.3554341,-79.6489974
35,Mapleview Drive,L4N 9H5,44.3329178,-79.6873934
11,Patterson Road,L4N 7W5,44.3702058,-79.7084356
120,Park Place Boulevard,L4N 6P1,44.3384704,-79.6820515
120,Park Place Boulevard,L4N 6P1,44.3383528,-79.6819940
120,Park Place Boulevard,L4N 6P1,44.3382757,-79.6819636
24,North Village Way,L4N 6P3,44.3417158,-79.6810161
24,North Village Way,L4N 6P3,44.3416616,-79.6810265
565,Yonge Street,L4N 4E6,44.3590751,-79.6516330
565,Yonge Street,L4N 4E3,44.3590466,-79.6515802
565,Yonge Street,L4N 4E3,44.3589928,-79.6514820
494,Yonge Street,L4N 3Z5,44.3574634,-79.6479436
301,Cox Mill Road,L4N 8V3,44.3680026,-79.6506004
286,Cox Mill Road,L4N 8V3,44.3675235,-79.6518234
313,Cox Mill Road,L4N 8V3,44.3686577,-79.6501939
296,Cox Mill Road,L4N 8V3,44.3679465,-79.6514398
303,Cox Mill Road,L4N 8V3,44.3681463,-79.6505409
306,Cox Mill Road,L4N 8V3,44.3685963,-79.6510748
289,Cox Mill Road,L4N 8K8,44.3672703,-79.6511486
298,Cox Mill Road,L4N 8V3,44.3681052,-79.6514007
317,Cox Mill Road,L4N 8V3,44.3689067,-79.6500257
308,Cox Mill Road,L4N 8V3,44.3687084,-79.6510013
294,Cox Mill Road,L4N 8V3,44.3677027,-79.6516003
300,Cox Mill Road,L4N 8V3,44.3682284,-79.6513281
310,Cox Mill Road,L4N 8V3,44.3688067,-79.6508796
295,Cox Mill Road,L4N 8K8,44.3676491,-79.6508372
302,Cox Mill Road,L4N 8V3,44.3683365,-79.6512126
305,Cox Mill Road,L4N 8V3,44.3682534,-79.6504386
315,Cox Mill Road,L4N 8V3,44.3687734,-79.6501169
287,Cox Mill Road,L4N 8K8,44.3672031,-79.6512825
297,Cox Mill Road,L4N 8K8,44.3677693,-79.6507784
304,Cox Mill Road,L4N 8V3,44.3684697,-79.6511491
307,Cox Mill Road,L4N 8V3,44.3683634,-79.6503763
291,Cox Mill Road,L4N 8K8,44.3673998,-79.6510124
299,Cox Mill Road,L4N 8K8,44.3678989,-79.6507105
309,Cox Mill Road,L4N 8V3,44.3684949,-79.6502756
293,Cox Mill Road,L4N 8K8,44.3675140,-79.6509192
58,Kingsridge Road,L4N 8V2,44.3680722,-79.6471974
30,Kingsridge Road,L4N 8V2,44.3685691,-79.6497802
42,Kingsridge Road,L4N 8V2,44.3685729,-79.6484998
57,Kingsridge Road,L4N 8V2,44.3678299,-79.6478201
56,Kingsridge Road,L4N 8V2,44.3681540,-79.6473659
39,Kingsridge Road,L4N 8V2,44.3681123,-79.6488969
40,Kingsridge Road,L4N 8V2,44.3686017,-79.6486818
52,Kingsridge Road,L4N 8V2,44.3683629,-79.6476105
36,Kingsridge Road,L4N 8V2,44.3686390,-79.6490518
48,Kingsridge Road,L4N 8V2,44.3686174,-79.6478890
61,Kingsridge Road,L4N 8V2,44.3676525,-79.6475524
32,Kingsridge Road,L4N 8V2,44.3686579,-79.6495105
60,Kingsridge Road,L4N 8T9,44.3679863,-79.6470451
43,Kingsridge Road,L4N 8V2,44.3680782,-79.6484911
44,Kingsridge Road,L4N 8V2,44.3685340,-79.6483072
59,Kingsridge Road,L4N 8V2,44.3677400,-79.6476731
27,Kingsridge Road,L4N 8V2,44.3682205,-79.6492084
41,Kingsridge Road,L4N 8V2,44.3680913,-79.6487026
54,Kingsridge Road,L4N 8V2,44.3682341,-79.6475019
38,Kingsridge Road,L4N 8V2,44.3686251,-79.6488843
50,Kingsridge Road,L4N 8V2,44.3685025,-79.6477023
55,Kingsridge Road,L4N 8V2,44.3678931,-79.6480388
63,Kingsridge Road,L4N 8V2,44.3675591,-79.6474100
34,Kingsridge Road,L4N 8V2,44.3686519,-79.6492663
46,Kingsridge Road,L4N 8V2,44.3686298,-79.6480974
75,Barrie View Drive,L4N 8V4,44.3361324,-79.6875375
10,Brookfield Crescent,L4N 9R4,44.3684598,-79.6463212
220,Golden Meadow Road,L4N 9S2,44.3696630,-79.6473107
209,Golden Meadow Road,L4N 9R4,44.3694163,-79.6456470
14,Brookfield Crescent,L4N 9R4,44.3683117,-79.6461574
218,Golden Meadow Road,L4N 9S2,44.3695516,-79.6472384
208,Golden Meadow Road,L4N 9R4,44.3689855,-79.6460998
15,Brookfield Crescent,L4N 9R4,44.3686179,-79.6456711
207,Golden Meadow Road,L4N 9R4,44.3693708,-79.6454558
214,Golden Meadow Road,L4N 9S2,44.3683998,-79.6456130
206,Golden Meadow Road,L4N 9R4,44.3689246,-79.6459333
212,Golden Meadow Road,L4N 9R4,44.3691096,-79.6464343
1,Brookfield Crescent,L4N 9R4,44.3687540,-79.6453829
205,Golden Meadow Road,L4N 9R4,44.3693180,-79.6452910
6,Brookfield Crescent,L4N 9R4,44.3687943,-79.6462749
211,Golden Meadow Road,L4N 9S2,44.3694677,-79.6458224
203,Golden Meadow Road,L4N 9R4,44.3692347,-79.6451308
8,Brookfield Crescent,L4N 9R4,44.3686618,-79.6463998
210,Golden Meadow Road,L4N 9R4,44.3690442,-79.6462598
222,Golden Meadow Road,L4N 9S2,44.3698301,-79.6474309
220,Bayview Drive,L4N 4Y8,44.3581283,-79.6837872
216,Hurst Drive,L4N 8K8,44.3669096,-79.6506781
8,Kingsridge Road,L4N 8K7,44.3673149,-79.6503345
3,Kingsridge Road,L4N 8K8,44.3667455,-79.6501408
19,Kingsridge Road,L4N 8K7,44.3676639,-79.6493414
2,Taylor Drive,L4N 8K7,44.3673629,-79.6495852
218,Hurst Drive,L4N 8K8,44.3669848,-79.6508444
20,Kingsridge Road,L4N 8K7,44.3679501,-79.6499613
5,Kingsridge Road,L4N 8K8,44.3668367,-79.6500255
17,Kingsridge Road,L4N 8K7,44.3675264,-79.6494080
1,Kingsridge Road,L4N 8K8,44.3666125,-79.6502910
23,Kingsridge Road,L4N 8K7,44.3679551,-79.6492572
4,Kingsridge Road,L4N 8K7,44.3671222,-79.6505689
18,Kingsridge Road,L4N 8K7,44.3678058,-79.6499854
25,Kingsridge Road,L4N 8K7,44.3680925,-79.6492332
7,Kingsridge Road,L4N 8K7,44.3669677,-79.6498969
21,Kingsridge Road,L4N 8K7,44.3678123,-79.6492834
6,Kingsridge Road,L4N 8K7,44.3672244,-79.6504505
26,Kingsridge Road,L4N 8V2,44.3683979,-79.6498779
10,Kingsridge Road,L4N 8K7,44.3674504,-79.6502094
220,Hurst Drive,L4N 8K8,44.3670937,-79.6509932
22,Kingsridge Road,L4N 8K7,44.3680891,-79.6498938
14,Kingsridge Road,L4N 8K7,44.3676767,-79.6503942
24,Kingsridge Road,L4N 8K7,44.3682450,-79.6498990
4,Taylor Drive,L4N 8K7,44.3672519,-79.6494477
6,Taylor Drive,L4N 8K7,44.3671799,-79.6493028
7,Taylor Drive,L4N 8K7,44.3667919,-79.6497165
8,Taylor Drive,L4N 8K7,44.3671190,-79.6491807
9,Taylor Drive,L4N 8K7,44.3667176,-79.6495923
10,Taylor Drive,L4N 8K7,44.3670449,-79.6490714
11,Taylor Drive,L4N 8K7,44.3666633,-79.6494690
12,Taylor Drive,L4N 8K7,44.3669728,-79.6489562
13,Taylor Drive,L4N 8K7,44.3665843,-79.6493635
14,Taylor Drive,L4N 8K7,44.3668891,-79.6488492
15,Taylor Drive,L4N 8K7,44.3665331,-79.6492285
16,Taylor Drive,L4N 8K7,44.3668307,-79.6487205
17,Taylor Drive,L4N 8K7,44.3664296,-79.6491347
18,Taylor Drive,L4N 8K7,44.3667521,-79.6486235
19,Taylor Drive,L4N 8K6,44.3663713,-79.6490119
20,Taylor Drive,L4N 8K6,44.3666842,-79.6484892
21,Taylor Drive,L4N 8K6,44.3662917,-79.6489125
22,Taylor Drive,L4N 8K6,44.3666132,-79.6483644
23,Taylor Drive,L4N 8K6,44.3662450,-79.6487654
24,Taylor Drive,L4N 8K6,44.3665484,-79.6482572
25,Taylor Drive,L4N 8K6,44.3661614,-79.6486497
26,Taylor Drive,L4N 8K6,44.3664901,-79.6481211
27,Taylor Drive,L4N 8K6,44.3660777,-79.6485486
28,Taylor Drive,L4N 8K6,44.3664089,-79.6480332
29,Taylor Drive,L4N 8K6,44.3660110,-79.6484345
30,Taylor Drive,L4N 8K6,44.3663361,-79.6479031
31,Taylor Drive,L4N 8K6,44.3659553,-79.6482926
32,Taylor Drive,L4N 8K6,44.3662845,-79.6477725
34,Taylor Drive,L4N 8K6,44.3661975,-79.6476732
36,Taylor Drive,L4N 8K6,44.3661611,-79.6475285
45,Felt Crescent,L4N 8V1,44.3663169,-79.6470979
42,Felt Crescent,L4N 8V1,44.3667696,-79.6467672
41,Felt Crescent,L4N 8V1,44.3664104,-79.6472553
40,Felt Crescent,L4N 8V1,44.3668383,-79.6468901
39,Felt Crescent,L4N 8V1,44.3664891,-79.6473690
38,Felt Crescent,L4N 8V1,44.3669032,-79.6470186
37,Felt Crescent,L4N 8V1,44.3665403,-79.6474858
36,Felt Crescent,L4N 8V1,44.3669672,-79.6471502
35,Felt Crescent,L4N 8V1,44.3666141,-79.6475990
34,Felt Crescent,L4N 8V1,44.3670481,-79.6472529
33,Felt Crescent,L4N 8V1,44.3666877,-79.6477085
32,Felt Crescent,L4N 8V1,44.3671148,-79.6473787
31,Felt Crescent,L4N 8V1,44.3667520,-79.6478347
30,Felt Crescent,L4N 8V1,44.3671785,-79.6475027
29,Felt Crescent,L4N 8V1,44.3668181,-79.6479509
28,Felt Crescent,L4N 8V1,44.3672447,-79.6476151
27,Felt Crescent,L4N 8V1,44.3668920,-79.6480698
26,Felt Crescent,L4N 8V1,44.3673181,-79.6477540
25,Felt Crescent,L4N 8V1,44.3669674,-79.6481851
24,Felt Crescent,L4N 8V2,44.3673945,-79.6478617
23,Felt Crescent,L4N 8V2,44.3670373,-79.6482938
22,Felt Crescent,L4N 8V2,44.3674571,-79.6479866
21,Felt Crescent,L4N 8V2,44.3671027,-79.6484104
20,Felt Crescent,L4N 8V2,44.3675327,-79.6480988
19,Felt Crescent,L4N 8V2,44.3671691,-79.6485425
18,Felt Crescent,L4N 8V2,44.3676038,-79.6482307
17,Felt Crescent,L4N 8V2,44.3672283,-79.6486633
15,Felt Crescent,L4N 8V2,44.3672942,-79.6488172
13,Felt Crescent,L4N 8V2,44.3674368,-79.6488981
11,Felt Crescent,L4N 8V2,44.3675762,-79.6488988
9,Felt Crescent,L4N 8V2,44.3676821,-79.6488652
7,Felt Crescent,L4N 8V2,44.3677781,-79.6487794
5,Felt Crescent,L4N 8V2,44.3678732,-79.6486837
"48 Building A, Unit 105",Alliance Boulevard,L4M 5K3,44.4113392,-79.6801100
19,Mapleview Drive West,L4N 9H5,44.3343195,-79.6861685
42,Caplan Avenue,L4N 0M5,44.3384561,-79.6903307
92,Caplan Avenue,L4N 9J2,44.3385671,-79.6972927
7,Anne Street South,L4N 2C4,44.3826981,-79.7041525
7,Anne Street South,L4N 2C4,44.3827293,-79.7040690
7,Anne Street South,L4N 2C4,44.3825743,-79.7044347
68,Hooper Road,L4N 8Z9,44.3364823,-79.6726837
274,Burton Avenue,L4N 5W4,44.3699129,-79.6732499
92,Caplan Avenue,L4N 9J2,44.3384454,-79.6972049
454,Bayfield Street,L4M 5A2,44.4104798,-79.7093677
33,Mapleview Drive West,L4N 9H5,44.3339249,-79.6883674
400,Bayfield Street,L4M 5A1,44.4069155,-79.7067161
535,Bayfield Street,L4M 4Z9,44.4156443,-79.7119491
347,Cundles Road East,L4M 0G9,44.4153850,-79.6792874
49,High St #403,L4N 5J4,44.3877725,-79.6945692
90,Anne Street South,L4N 2E3,44.3772471,-79.7014456
27,Gowan Street,L4N 2N9,44.3733144,-79.6892381
118,Sandringham Drive,L4M7J5,44.3572250,-79.6170437
40,Royal Oak Drive,L4N 7S5,44.3752312,-79.6538733
151,Mapleton Avenue,L4N 9N7,44.3395313,-79.7147882
171,Mapleton Ave,L4N 9N7,44.3391328,-79.7169159
460,Mapleton Avenue,L4N 9C2,44.3496746,-79.7325107
279,Bayview Drive,L4M 4W5,44.3557672,-79.6791525
124,Bayview Drive,L4N 3P4,44.3646117,-79.6855300
95,Little Avenue,L4N 2Z4,44.3595163,-79.6854392
20,Fairview Road,L4N 4P3,44.3614345,-79.6940382
234,Cook Street,L4M 4H5,44.4059139,-79.6697463
242,Grove Street East,L4M 2P9,44.4061287,-79.6791200
115,Bell Farm Rd,L4M 5G1,44.4101509,-79.6764384
1,Georgian Drive,L4M 3X9,44.4116611,-79.6692460
1,Georgian Drive,L4M 3X9,44.4119386,-79.6674212
364,St. Vincent Street,L4M 4A5,44.4068175,-79.6871729
1,Georgian Drive,L4M 3X9,44.4109574,-79.6666735
1,Georgian Drive,L4M 3X9,44.4107746,-79.6703533
509,Bayfield Street,L4M 4Z8,44.4131515,-79.7081512
80,Bradford St,L4N 6S7,44.3840096,-79.6963400
78,Ross Street,L4N 1G3,44.3913725,-79.6981751
7,George Street,L4N 2G5,44.3799976,-79.7044796
379,Bayfield Street,L4M 3C5,44.4061552,-79.7037952
59,Lampman Lane,L4N 5G4,44.3908222,-79.7259973
140,Cundles Road West,L4N 9X8,44.4012157,-79.7154714
421,Grove Street East,L4M 5S1,44.4048677,-79.6616380
36,Steel Street,L4M 2E7,44.4036783,-79.6712391
242,Grove Street East,L4M 2P9,44.4061852,-79.6796643
50,Cheltenham Road,4M 6R8,44.4120304,-79.6522430
211,Johnson Street,L4M 5W5,44.4072059,-79.6526607
217,Codrington Street,L4M 1S4,44.3962794,-79.6739896
210,Johnson Street,L4M 5W5,44.4072111,-79.6560143
90,Steel Street,L4M 2E9,44.4031509,-79.6658429
101,Marsellus Drive,L4N 8R6,44.3325082,-79.7213044
1,Royal Parkside Drive,L4M 0C4,44.3640739,-79.6221166
170,Ferndale Drive South,L4N 8A1,44.3582306,-79.7167403
1,Georgian Drive,L4M 3X9,44.4126296,-79.6682358
1,Georgian Drive,L4M 3X9,44.4110566,-79.6688507
1,Georgian Drive,L4M 3X9,44.4122012,-79.6682713
1,Georgian Drive,L4M 3X9,44.4112092,-79.6700321
201,Georgian Drive,L4M 6M2,44.4144917,-79.6608847
353,Duckworth Street,L4M 3C2,44.4073085,-79.6736935
60,Worsley Street,L4M 1L6,44.3918999,-79.6883862
502,Bayfield Street,L4M 5A2,44.4125990,-79.7114409
407,Bayfield Street,L4M 6E5,44.4083406,-79.7058240
123,Hanmer Street East,L4M 6W2,44.4191417,-79.7038789
60,Cundles Road East,L4M 2Z7,44.4081383,-79.6990383
307,Bayfield Street,L4M 3C2,44.4007542,-79.6995405
18,"Cundles Rd E, Barrie",L4M 2Z5,44.4060219,-79.7025531
307,Bayfield Street,L4M 3C2,44.4010914,-79.6990598
331,Bayfield Street,L4M 3C2,44.4024693,-79.7008199
315,Bayfield Street,L4M 3C2,44.4014321,-79.6998535
319,Bayfield Street,L4M 3C2,44.4017154,-79.7002514
1,Georgian Drive,L4M 3X9,44.4120888,-79.6683803
511,Bryne Drive,L4N 9P7,44.3318673,-79.6886289
41,Mapleview Drive East,L4N 9A9,44.3341064,-79.6822046
65,Barrie View Drive,L4N 8V4,44.3369561,-79.6869429
76,Barrie View Drive,L4N8V4,44.3357476,-79.6888193
31,Commerce Park Drive,L4N 8W8,44.3282711,-79.6858220
512,Bryne Drive,L4N 9R1,44.3308387,-79.6891657
36,Barrie View Drive,L4N 8V4,44.3381340,-79.6888349
72,Commerce Park Drive,L4N 8W8,44.3237883,-79.6845900
576,Bryne Drive,L4N 9P6,44.3255326,-79.6883275
109,Mapleview Drive West,L4N 9H7,44.3326617,-79.6949520
55,Bryne Drive,L4N 9H7,44.3331972,-79.6905775
103,Mapleview Drive West,L4N 9H7,44.3327453,-79.6946023
99,Mapleview Drive West,L4N 9H7,44.3329079,-79.6940736
508,Bryne Drive,L4N 9P6,44.3315687,-79.6895259
71,Mapleview Drive West,L4N 9H7,44.3334747,-79.6916654
77,Mapleview Drive West,L4N 9H7,44.3331207,-79.6931484
74,Cedar Pointe Drive,L4N 5R7,44.3831320,-79.7126976
1,Sperling Drive,L4M 6B8,44.4104204,-79.6873207
61,Mapleview Drive East,L4N 9H5,44.3345891,-79.6794287
120,Mapleview Drive West,L4N9H6,44.3344349,-79.6975495
205,Lakeshore Drive,L4N 7Y9,44.3741010,-79.6804033
110,Grove Street East,L4M 2P3,44.4012039,-79.6900716
22,Davidson Street,L4M 3R8,44.3987993,-79.6883937
210,Johnson Street,L4M 5W5,44.4072197,-79.6556954
105,Johnson Street,L4M 4R4,44.3990484,-79.6553001
340,Blake Street,L4M 1L3,44.3979876,-79.6557313
132,Edgehill Drive,L4N 1M1,44.3856328,-79.7120019
620,Yonge Street,L4N 4E6,44.3552490,-79.6486820
211,Ashford Dr,L4N 6A3,44.3563003,-79.6396333
649,Yonge Street,L4N 4E7,44.3560405,-79.6439291
624,Yonge Street,L4N 4E6,44.3564859,-79.6478158
628,Yonge Street,L4N 4E6,44.3561781,-79.6470368
124,Bayview Drive,L4N 3P4,44.3646792,-79.6858005
11,Bryne Drive,L4N 8V8,44.3583409,-79.6950254
9,Simcoe Street,L4M 1A1,44.3872851,-79.6893047
55,Lakeshore Drive,L4N 9R2,44.3853797,-79.6903841
61,Lakeshore Drive,L4N 6E9,44.3809303,-79.6895796
226,Little Avenue,L4N 6L3,44.3653850,-79.6729989
249,Anne Street North,L4N 0B5,44.3963729,-79.7151840
8,Gunn Street,L4M 2H3,44.3969896,-79.6892137
200,Bayfield Street,L4M 3B6,44.3956071,-79.6960414
1,Georgian Drive,L4M 3X9,44.4127532,-79.6698423
49,Ferris Lane,L4M 2Y1,44.4038882,-79.6972270
70,Madelaine Drive,L4N 9T2,44.3521811,-79.6445341
640,Yonge Street,L4N 4E6,44.3557206,-79.6457032
250,Ardagh Road,L4N 8L5,44.3549208,-79.7172199
110,Lillian Crescent,L4N 5H7,44.4027235,-79.7169765
383,Cundles Road West,L4N 7C7,44.3957465,-79.7316856
23,Cloughley Drive,L4N 7Y3,44.3914633,-79.7394378
49,Ford Street,L4N 7J4,44.4074895,-79.7204313
345,Livingstone Street East,L4M 7B5,44.4143418,-79.6857428
20,Elmbrook Drive,L4N 0Z1,44.3427475,-79.7001977
111,Summerset Drive,L4N 0A6,44.3565491,-79.7238586
190,Cundles Rd E,L4M 4S5,44.4123039,-79.6887474
243,Cundles Road East,L4M 6L1,44.4124970,-79.6837010
273,Cundles Road East,L4M 6L1,44.4131053,-79.6822313
87,Hanmer Street West,L4N 7H6,44.4123420,-79.7179275
100,Lougheed Road,L4N 8E1,44.3224965,-79.7292444
750,Essa Road,L4N 9E9,44.3235320,-79.7165100
750,Essa Road,L4N 9E9,44.3235449,-79.7160747
736,Essa Road,L4N 9E9,44.3268377,-79.7146126
71,Bryne Drive,L4N 8V8,44.3558998,-79.6929097
60,Bryne Drive,L4N 9Y4,44.3553148,-79.6957549
61,Bryne Drive,L4N 8V8,44.3571282,-79.6937866
74,Bryne Drive,L4N 9Y4,44.3540984,-79.6952088
10,Dunlop St W,L4N 1A8,44.3874717,-79.6937281
11,Victoria Street,L4N 3A3,44.3808442,-79.6914398
15,Bradford Street,L4N 1W2,44.3866169,-79.6934453
11,Essa Road,L4N 3K4,44.3743756,-79.6909243
201,Ashford Drive,L4N 6A3,44.3546004,-79.6389626
47,Owen Street,L4M 3G9,44.3913129,-79.6874740
600,Yonge Street,L4N 4E4,44.3571008,-79.6493591
130,Prince William Way,L4M 7G4,44.3558266,-79.6127718
50,Dunlop Street East,L4M 6J9,44.3895903,-79.6883048
7,Anne St S,L4N 2C4,44.3826203,-79.7041952
124,Letitia Street,L4N 1P5,44.3928654,-79.7159281
201,Georgian Drive,L4M 6M2,44.4149163,-79.6629195
10,Barrie View Drive,L4N 6A7,44.3399678,-79.6875083
350,Big Bay Point Road,L4N 8A8,44.3545630,-79.6608877
330,Big Bay Point Road,L4N 8A8,44.3544449,-79.6627711
44,Donald Street,L4N 1E3,44.3876837,-79.7029319
159,Summerset Drive,L4N 6H2,44.3548891,-79.7270893
300,Mapleview Drive West,L4N 9E7,44.3322417,-79.7081469
264,Burton Avenue,L4N 2R9,44.3705487,-79.6747367
410,Hurst Drive,L4N 6N1,44.3733074,-79.6683407
190,Minet's Point Road,L4N 4C3,44.3704778,-79.6690389
29,Sperling Drive,L4M 6K9,44.4111474,-79.6851321
40,Mills Road,L4N 6J9,44.3266053,-79.6935051
349,Big Bay Point Road,L4N 8A2,44.3536644,-79.6598769
379,Huronia Road,L4N 8Z1,44.3536373,-79.6646799
369,Huronia Road,L4N 8Z1,44.3541101,-79.6648127
359,Huronia Road,L4N 8Z1,44.3545876,-79.6649575
349,Huronia Road,L4N 8Z1,44.3549559,-79.6651104
374,Huronia Road,L4N 8Y9,44.3533831,-79.6655520
240,Big Bay Point Road,L4N 0B8,44.3537831,-79.6640522
430,Huronia Road,L4N 8Y9,44.3505385,-79.6648068
417,Huronia Road,L4N 9B3,44.3521104,-79.6640797
417,Huronia Road,L4N 9B3,44.3522446,-79.6634762
145,Big Bay Point Road,L4N 8M5,44.3505203,-79.6739167
352,Huronia Road,L4N 8Y9,44.3547858,-79.6658141
149,Park Place Boulevard,L4N 6P1,44.3369809,-79.6804681
140,Park Place Boulevard,L4N 6P1,44.3371734,-79.6816374
150,Park Place Boulevard,L4N 6P1,44.3367921,-79.6814224
50,Concert Way,L4N 6N5,44.3404639,-79.6847542
555,Bayview Drive,L4N 8Y2,44.3375059,-79.6782268
99,Mapleview Drive East,L4N 6B3,44.3363978,-79.6778607
41,Mapleview Drive East,L4N 9A9,44.3356529,-79.6814345
23,Mapleview Drive West,L4N 9H5,44.3344462,-79.6871153
481,Bryne Drive,L4N 9P7,44.3337923,-79.6895229
151,Mapleview Drive West,L4N 9E8,44.3316033,-79.6994400
375,Mapleview Drive West,L4N 9G4,44.3283615,-79.7153650
441,Dunlop St W,L4N 1C3,44.3764261,-79.7182351
81,Mulcaster Street,L4M 6T7,44.3933054,-79.6842762
125,Bell Farm Rd,L4M 6L2,44.4106117,-79.6751463
21,Mapleview Drive East,L4N 9A9,44.3353118,-79.6829953
191,Golden Meadow Road,L4N 9R6,44.3687146,-79.6433219
210,Essa Road,L4N 3L1,44.3651668,-79.6958866
480,Bayfield Street,L4M 5A2,44.4116062,-79.7101275
482,Bayfield Street,L4M 5A2,44.4118051,-79.7103271
72,The Queensway,L4M 7J3,44.3590954,-79.6078260
389,Yonge Street,L4N 4C9,44.3674460,-79.6632426
180,Esther Drive,L4N 9S9,44.3503752,-79.6472461
149,Live Eight Way,L4N 6P1,44.3395297,-79.6798573
356,Bryne Drive,L4N 8V4,44.3395055,-79.6916136
339,Huronia Road,L4N 8Z1,44.3555167,-79.6653056
41,Sandringham Drive,L4N 0J9,44.3599819,-79.6207500
507,Cundles Road East,L4M 0G9,44.4135170,-79.6785514
70,Lakeside Terrace,L4M 0J2,44.4162786,-79.6678796
11,Lakeside Terrace,L4M 0H9,44.4165654,-79.6718865
220,Essa Road,L4N 6N2,44.3594484,-79.6963127
18,Mulcaster Street,L4M 3M1,44.3896280,-79.6857598
120,Dunlop Street East,L4M 1A4,44.3894988,-79.6858290
118,Dunlop Street East,L4M 1P4,44.3895099,-79.6859218
94,Dunlop Street East,L4M 1A4,44.3896175,-79.6867714
100,Mapleview Drive East,L4N 9H6,44.3412260,-79.6795558
90,Mapleview Drive East,L4N 0L1,44.3371585,-79.6792686
10,Ross Street,L4N 1E7,44.3908874,-79.6923123
592,Yonge Street,L4N 4E4,44.3573829,-79.6498383
767,Huronia Road,L4N 9H2,44.3304781,-79.6588767
18,Davidson Street,L4M 3R8,44.3988868,-79.6876960
18,Davidson Street,L4M 3R8,44.3987919,-79.6878525
110,Grove Street East,L4M 2P3,44.4002674,-79.6893204
15,Newton Street,L4M 3N2,44.3982606,-79.6889045
15,Newton Street,L4M 3N2,44.3983323,-79.6888189
17,Newton Street,L4M 3N2,44.3983699,-79.6890065
21,Newton Street,L4M 3N2,44.3985969,-79.6891936
125,Peel Street,L4M 3L5,44.3985066,-79.6906726
129,Peel Street,L4M 3L5,44.3986536,-79.6907578
121,Peel Street,L4M 3L5,44.3983772,-79.6905149
204,Grove Street East,L4M 3Z6,44.4042294,-79.6821841
100,Red Oak Drive,L4N 9M5,44.3321943,-79.7331037
11,Bear Creek Drive,L4N 9M9,44.3290534,-79.7292537
11,Bear Creek Drive,L4N 9M9,44.3289159,-79.7294574
40,Downing Crescent,L4N 8V6,44.3297110,-79.7247105
42,Downing Crescent,L4N 8V6,44.3296228,-79.7247143
46,Downing Crescent,L4N 8V6,44.3294439,-79.7246552
48,Downing Crescent,L4N 8V6,44.3293805,-79.7246373
50,Downing Crescent,L4N 8V6,44.3292791,-79.7246529
52,Downing Crescent,L4N 8V6,44.3292007,-79.7246126
54,Downing Crescent,L4N 8V6,44.3290814,-79.7246215
56,Downing Crescent,L4N 8V6,44.3290093,-79.7246057
58,Downing Crescent,L4N 8V6,44.3288971,-79.7245985
60,Downing Crescent,L4N 8V6,44.3288054,-79.7245787
62,Downing Crescent,L4N 8V6,44.3286938,-79.7245250
64,Downing Crescent,L4N 8V6,44.3286079,-79.7245163
66,Downing Crescent,L4N 8V6,44.3284889,-79.7244849
68,Downing Crescent,L4N 8V6,44.3284139,-79.7244674
70,Downing Crescent,L4N 8V6,44.3282963,-79.7244404
72,Downing Crescent,L4N 8V6,44.3281865,-79.7244126
74,Downing Crescent,L4N 8V6,44.3280756,-79.7243974
76,Downing Crescent,L4N 8V6,44.3279936,-79.7243725
78,Downing Crescent,L4N 8V6,44.3278842,-79.7243469
80,Downing Crescent,L4N 8V5,44.3277895,-79.7243194
98,Downing Crescent,L4N 8V5,44.3278007,-79.7245997
100,Downing Crescent,L4N 8V5,44.3277863,-79.7247419
103,Downing Crescent,L4N 8V5,44.3273148,-79.7246420
101,Downing Crescent,L4N 8V5,44.3273272,-79.7245532
99,Downing Crescent,L4N 8V5,44.3273732,-79.7244306
97,Downing Crescent,L4N 8V5,44.3273923,-79.7243303
95,Downing Crescent,L4N 8V5,44.3273985,-79.7241825
93,Downing Crescent,L4N 8V5,44.3274121,-79.7240971
91,Downing Crescent,L4N 8V5,44.3274577,-79.7239334
89,Downing Crescent,L4N 8V5,44.3274902,-79.7238474
87,Downing Crescent,L4N 8V5,44.3275889,-79.7237515
85,Downing Crescent,L4N 8V5,44.3276542,-79.7237066
83,Downing Crescent,L4N 8V5,44.3277873,-79.7236993
81,Downing Crescent,L4N 8V5,44.3278675,-79.7237072
79,Downing Crescent,L4N 8V5,44.3279669,-79.7237615
77,Downing Crescent,L4N 8V5,44.3280388,-79.7237801
211,Marsellus Drive,L4N 8V5,44.3270517,-79.7240435
75,Downing Crescent,L4N 8V5,44.3281419,-79.7237949
73,Downing Crescent,L4N 8V5,44.3282274,-79.7238277
71,Downing Crescent,L4N 8V5,44.3283252,-79.7238356
69,Downing Crescent,L4N 8V5,44.3284045,-79.7238655
67,Downing Crescent,L4N 8V5,44.3285031,-79.7238929
65,Downing Crescent,L4N 8V5,44.3285880,-79.7239069
63,Downing Crescent,L4N 8V6,44.3286771,-79.7239222
61,Downing Crescent,L4N 8V6,44.3287605,-79.7239481
59,Downing Crescent,L4N 8V6,44.3288553,-79.7239721
57,Downing Crescent,L4N 8V6,44.3289329,-79.7239892
55,Downing Crescent,L4N 8V6,44.3290408,-79.7239968
53,Downing Crescent,L4N 8V6,44.3291341,-79.7240159
51,Downing Crescent,L4N 8V6,44.3292593,-79.7240531
49,Downing Crescent,L4N 8V6,44.3293389,-79.7240618
36,Downing Crescent,L4N 8V6,44.3298766,-79.7247735
34,Downing Crescent,L4N 8V6,44.3299594,-79.7248043
32,Downing Crescent,L4N 8V6,44.3300581,-79.7247942
30,Downing Crescent,L4N 8V6,44.3301520,-79.7247900
28,Downing Crescent,L4N 8V6,44.3302661,-79.7247746
26,Downing Crescent,L4N 8V7,44.3303445,-79.7247161
24,Downing Crescent,L4N 8V7,44.3304548,-79.7246974
22,Downing Crescent,L4N 8V7,44.3305245,-79.7246246
20,Downing Crescent,L4N 8V7,44.3306252,-79.7245317
18,Downing Crescent,L4N 8V7,44.3306608,-79.7244451
16,Downing Crescent,L4N 8V7,44.3307573,-79.7243244
12,Downing Crescent,L4N 8V7,44.3308880,-79.7239529
10,Downing Crescent,L4N 8V7,44.3309664,-79.7240225
8,Downing Crescent,L4N 8V7,44.3310470,-79.7240861
6,Downing Crescent,L4N 8V7,44.3311138,-79.7242057
4,Downing Crescent,L4N 8V7,44.3311904,-79.7242822
2,Downing Crescent,L4N 8V7,44.3312474,-79.7243864
14,Downing Crescent,L4N 8V7,44.3308064,-79.7242350
35,Downing Crescent,L4N 8V6,44.3299363,-79.7241825
33,Downing Crescent,L4N 8V6,44.3300265,-79.7242255
31,Downing Crescent,L4N 8V6,44.3301202,-79.7242152
29,Downing Crescent,L4N 8V6,44.3301992,-79.7242024
27,Downing Crescent,L4N 8V7,44.3302823,-79.7241604
25,Downing Crescent,L4N 8V7,44.3303655,-79.7239824
23,Downing Crescent,L4N 8V7,44.3304167,-79.7238875
44,Downing Crescent,L4N 8V6,44.3295430,-79.7246959
45,Victorway Drive,L4N 8V6,44.3295634,-79.7241341
43,Victorway Drive,L4N 8V6,44.3295746,-79.7240378
41,Victorway Drive,L4N 9L3,44.3296096,-79.7238995
39,Victorway Drive,L4N 9L3,44.3296200,-79.7238110
37,Victorway Drive,L4N 9L3,44.3296220,-79.7236538
35,Victorway Drive,L4N 9L3,44.3296307,-79.7235539
149,Marsellus Drive,L4N 8V7,44.3310086,-79.7245630
151,Marsellus Drive,L4N 8V7,44.3309145,-79.7247387
153,Marsellus Drive,L4N 8V7,44.3308425,-79.7248669
155,Marsellus Drive,L4N 8V7,44.3307305,-79.7250551
157,Marsellus Drive,L4N 8V7,44.3306130,-79.7251548
159,Marsellus Drive,L4N 8V7,44.3304497,-79.7252642
161,Marsellus Drive,L4N 8V7,44.3302918,-79.7252924
163,Marsellus Drive,L4N 8V7,44.3301667,-79.7252686
165,Marsellus Drive,L4N 8V7,44.3300099,-79.7252209
167,Marsellus Drive,L4N 8V7,44.3298431,-79.7252109
169,Marsellus Drive,L4N 8V7,44.3296936,-79.7251437
171,Marsellus Drive,L4N 8V7,44.3295534,-79.7251167
173,Marsellus Drive,L4N 8V7,44.3294420,-79.7250894
175,Marsellus Drive,L4N 8V7,44.3293152,-79.7250589
177,Marsellus Drive,L4N 8V7,44.3291748,-79.7250078
179,Marsellus Drive,L4N 8V7,44.3290540,-79.7249758
181,Marsellus Drive,L4N 8V7,44.3289233,-79.7249442
183,Marsellus Drive,L4N 8V7,44.3287967,-79.7249087
185,Marsellus Drive,L4N 8V5,44.3286717,-79.7248981
187,Marsellus Drive,L4N 8V5,44.3285440,-79.7248486
189,Marsellus Drive,L4N 8V5,44.3284097,-79.7248154
191,Marsellus Drive,L4N 8V5,44.3282926,-79.7247909
193,Marsellus Drive,L4N 8V5,44.3281673,-79.7247558
195,Marsellus Drive,L4N 8V5,44.3280190,-79.7247174
38,Victorway Drive,L4N 9L3,44.3300310,-79.7237956
36,Victorway Drive,L4N 9L3,44.3300532,-79.7236706
34,Victorway Drive,L4N 9L3,44.3300801,-79.7235452
32,Victorway Drive,L4N 9L3,44.3300955,-79.7234225
30,Victorway Drive,L4N 9L3,44.3301204,-79.7232769
28,Victorway Drive,L4N 9L3,44.3301295,-79.7231627
26,Victorway Drive,L4N 9K9,44.3301347,-79.7230248
24,Victorway Drive,L4N 9K9,44.3301577,-79.7228961
22,Victorway Drive,L4N 9K9,44.3301847,-79.7227667
20,Victorway Drive,L4N 9K9,44.3301875,-79.7226251
18,Victorway Drive,L4N 9K9,44.3302091,-79.7225165
16,Victorway Drive,L4N 9K9,44.3302211,-79.7223898
38,Downing Crescent,L4N 8V6,44.3297668,-79.7247271
284,Dock Road,L4N 8V3,44.3687414,-79.6515029
282,Dock Road,L4N 8V3,44.3688361,-79.6513347
280,Dock Road,L4N 8V3,44.3689675,-79.6512029
278,Dock Road,L4N 8V3,44.3690293,-79.6510580
276,Dock Road,L4N 8V3,44.3690736,-79.6508024
274,Dock Road,L4N 8V3,44.3690923,-79.6506155
291,Dock Road,L4N 8V3,44.3694771,-79.6515251
283,Dock Road,L4N 8V3,44.3695196,-79.6508515
268,Dock Road,L4N 9S2,44.3692992,-79.6496133
266,Dock Road,L4N 9S2,44.3693232,-79.6494345
264,Dock Road,L4N 9S2,44.3693372,-79.6491841
262,Dock Road,L4N 9S2,44.3694005,-79.6489859
260,Dock Road,L4N 9S2,44.3694720,-79.6487320
258,Dock Road,L4N 9S2,44.3695118,-79.6485063
267,Dock Road,L4N 0L3,44.3698067,-79.6495244
265,Dock Road,L4N 0L3,44.3698408,-79.6492975
263,Dock Road,L4N 0L3,44.3698794,-79.6490727
261,Dock Road,L4N 0L3,44.3699263,-79.6488497
259,Dock Road,L4N 0L3,44.3699705,-79.6486330
257,Dock Road,L4N 0L3,44.3700357,-79.6483958
1,Buman Court,L4N 0L3,44.3700675,-79.6480239
3,Buman Court,L4N 0L3,44.3701952,-79.6480693
15,Buman Court,L4N 0L3,44.3701473,-79.6488384
17,Buman Court,L4N 0L3,44.3702720,-79.6488846
19,Buman Court,L4N 0L3,44.3704422,-79.6488847
18,Buman Court,L4N 0L3,44.3705991,-79.6488248
16,Buman Court,L4N 0L3,44.3706721,-79.6485664
14,Buman Court,L4N 0L3,44.3706619,-79.6483331
12,Buman Court,L4N 0L3,44.3706136,-79.6481348
10,Buman Court,L4N 0L3,44.3706066,-79.6479530
8,Buman Court,L4N 0L3,44.3705620,-79.6477306
6,Buman Court,L4N 0L3,44.3704827,-79.6475698
4,Buman Court,L4N 0L3,44.3703226,-79.6474574
2,Buman Court,L4N 0L3,44.3702064,-79.6473910
245,Dock Road,L4N 0L3,44.3703005,-79.6471026
243,Dock Road,L4N 0L3,44.3703827,-79.6468942
235,Dock Road,L4N 7S9,44.3704144,-79.6466470
233,Dock Road,L4N 7S9,44.3704770,-79.6463509
29,Victorway Drive,L4N 9L3,44.3296967,-79.7231405
27,Victorway Drive,L4N 9L3,44.3297166,-79.7230188
25,Victorway Drive,L4N 9K9,44.3297403,-79.7228720
23,Victorway Drive,L4N 9K9,44.3297483,-79.7227762
21,Victorway Drive,L4N 9K9,44.3297656,-79.7226403
19,Victorway Drive,L4N 9K9,44.3297742,-79.7225246
13,Baldwin Lane,L4N 3G7,44.3675126,-79.6914323
393,Innisfil Street,L4N 3G7,44.3669870,-79.6909834
133,Peel Street,L4M 3L5,44.3987966,-79.6908460
36,Grove Street East,L4M 5G2,44.3992025,-79.6903615
135,Peel Street,L4M 3L5,44.3989036,-79.6909862
117,Peel Street,L4M 3L5,44.3982496,-79.6904155
200,Wellington St W,L4N 1K9,44.3855740,-79.7070752
50,Concert Way,L4N 6N5,44.3414561,-79.6846479
55,Lakeshore Drive,L4N 4T5,44.3852387,-79.6904050
231,Dock Road,L4N 7S9,44.3705244,-79.6461498
231,Dock Road,L4N 7S9,44.3706673,-79.6461170
229,Dock Road,L4N 7S9,44.3705990,-79.6457962
221,Dock Road,L4N 7S9,44.3709666,-79.6445091
219,Dock Road,L4N 7S9,44.3710619,-79.6441228
219,Dock Road,L4N 7S9,44.3711277,-79.6443169
837,Yonge Street,L4N6K9,44.3494760,-79.6280160
300,Essa Road,L9J 0B9,44.3550588,-79.6985837
306,Essa Road,L9J 0H5,44.3545227,-79.6985179
304,Essa Road,L9J 0H4,44.3539122,-79.6977486
184,Toronto Street,L4N 1V5,44.3934766,-79.6999539
87,Little Avenue,L4N 4K8,44.3601924,-79.6847994
155,Dunlop Street West,L4N 1A9,44.3858534,-79.6967093
59,Lampman Lane,L4N 5G4,44.3909157,-79.7262170
340,Leacock Drive,L4N 6J8,44.3863352,-79.7193964
736,Essa Road,L4N 9E9,44.3268779,-79.7143534
349,Big Bay Point Road,L4N 8A2,44.3537069,-79.6600371
211,Warnica Road,L4N 3Z2,44.3586660,-79.6471989
211,Ashford Drive,L4N 6A3,44.3563855,-79.6394017
330,Big Bay Point Road,L4N 8A8,44.3544952,-79.6627821
100,Livingstone Street East,L4M 6X9,44.4161639,-79.7027602
105,Peel Street,L4M 3L5,44.3977403,-79.6899384
149,St. Vincent Street,L4M 3Y9,44.3992443,-79.6779880
15,Bell Farm Road,L4M 5G1,44.4074231,-79.6838606
204,Grove Street East,L4M 3Z6,44.4043408,-79.6820851
56,Black Cherry Crescent,L4N 9L1,44.3283314,-79.7222067
54,Black Cherry Crescent,L4N 9L1,44.3283840,-79.7222195
52,Black Cherry Crescent,L4N 9L1,44.3284367,-79.7222323
50,Black Cherry Crescent,L4N 9L1,44.3284893,-79.7222451
48,Black Cherry Crescent,L4N 9L1,44.3285419,-79.7222579
46,Black Cherry Crescent,L4N 9L1,44.3285945,-79.7222707
44,Black Cherry Crescent,L4N 9L1,44.3286471,-79.7222834
38,Black Cherry Crescent,L4N 9L1,44.3287723,-79.7223147
36,Black Cherry Crescent,L4N 9L1,44.3288248,-79.7223287
34,Black Cherry Crescent,L4N 9L1,44.3288772,-79.7223427
32,Black Cherry Crescent,L4N 9L1,44.3289297,-79.7223568
30,Black Cherry Crescent,L4N 9L1,44.3289821,-79.7223708
28,Black Cherry Crescent,L4N 9K9,44.3290346,-79.7223849
26,Black Cherry Crescent,L4N 9K9,44.3290870,-79.7223989
20,Black Cherry Crescent,L4N 9K9,44.3292127,-79.7224353
18,Black Cherry Crescent,L4N 9K9,44.3292652,-79.7224494
16,Black Cherry Crescent,L4N 9K9,44.3293175,-79.7224634
14,Black Cherry Crescent,L4N 9K9,44.3293700,-79.7224775
12,Black Cherry Crescent,L4N 9K9,44.3294224,-79.7224916
10,Black Cherry Crescent,L4N 9K9,44.3294749,-79.7225056
8,Black Cherry Crescent,L4N 9K9,44.3295273,-79.7225196
164,Black Cherry Crescent,L4N 9L3,44.3295202,-79.7229942
162,Black Cherry Crescent,L4N 9L3,44.3294674,-79.7229819
160,Black Cherry Crescent,L4N 9L3,44.3294148,-79.7229697
158,Black Cherry Crescent,L4N 9L3,44.3293622,-79.7229574
156,Black Cherry Crescent,L4N 9L3,44.3293094,-79.7229451
154,Black Cherry Crescent,L4N 9L3,44.3292568,-79.7229328
152,Black Cherry Crescent,L4N 9L3,44.3292041,-79.7229205
146,Black Cherry Crescent,L4N 9L3,44.3290770,-79.7228950
144,Black Cherry Crescent,L4N 9L3,44.3290243,-79.7228827
142,Black Cherry Crescent,L4N 9L3,44.3289716,-79.7228704
140,Black Cherry Crescent,L4N 9L2,44.3289190,-79.7228581
138,Black Cherry Crescent,L4N 9L2,44.3288663,-79.7228458
136,Black Cherry Crescent,L4N 9L2,44.3288136,-79.7228335
134,Black Cherry Crescent,L4N 9L2,44.3287609,-79.7228213
128,Black Cherry Crescent,L4N 9L2,44.3286385,-79.7227756
126,Black Cherry Crescent,L4N 9L2,44.3285858,-79.7227633
124,Black Cherry Crescent,L4N 9L2,44.3285331,-79.7227510
122,Black Cherry Crescent,L4N 9L2,44.3284805,-79.7227387
120,Black Cherry Crescent,L4N 9L2,44.3284278,-79.7227265
118,Black Cherry Crescent,L4N 9L2,44.3283751,-79.7227142
116,Black Cherry Crescent,L4N 9L2,44.3283225,-79.7227019
127,Black Cherry Crescent,L4N 9L2,44.3285474,-79.7233952
125,Black Cherry Crescent,L4N 9L2,44.3284947,-79.7233829
123,Black Cherry Crescent,L4N 9L2,44.3284421,-79.7233706
121,Black Cherry Crescent,L4N 9L2,44.3283893,-79.7233583
119,Black Cherry Crescent,L4N 9L2,44.3283366,-79.7233461
117,Black Cherry Crescent,L4N 9L2,44.3282841,-79.7233338
115,Black Cherry Crescent,L4N 9L2,44.3282313,-79.7233215
145,Black Cherry Crescent,L4N 9L3,44.3289877,-79.7234850
143,Black Cherry Crescent,L4N 9L3,44.3289350,-79.7234727
141,Black Cherry Crescent,L4N 9L3,44.3288824,-79.7234605
139,Black Cherry Crescent,L4N 9L2,44.3288297,-79.7234482
137,Black Cherry Crescent,L4N 9L2,44.3287770,-79.7234359
135,Black Cherry Crescent,L4N 9L2,44.3287244,-79.7234237
133,Black Cherry Crescent,L4N 9L2,44.3286717,-79.7234113
163,Black Cherry Crescent,L4N 9L3,44.3294318,-79.7235977
161,Black Cherry Crescent,L4N 9L3,44.3293792,-79.7235854
159,Black Cherry Crescent,L4N 9L3,44.3293266,-79.7235731
157,Black Cherry Crescent,L4N 9L3,44.3292738,-79.7235608
155,Black Cherry Crescent,L4N 9L3,44.3292212,-79.7235486
153,Black Cherry Crescent,L4N 9L3,44.3291685,-79.7235363
151,Black Cherry Crescent,L4N 9L3,44.3291158,-79.7235240
149,Black Cherry Crescent,L4N 9L3,44.3290632,-79.7235118
131,Black Cherry Crescent,L4N 9L2,44.3286191,-79.7233991
113,Black Cherry Crescent,L4N 9L2,44.3281786,-79.7233092
114,Black Cherry Crescent,L4N 9L2,44.3282698,-79.7226897
132,Black Cherry Crescent,L4N 9L2,44.3287083,-79.7228090
150,Black Cherry Crescent,L4N 9L3,44.3291514,-79.7229082
6,Black Cherry Crescent,L4N 9K9,44.3295798,-79.7225337
24,Black Cherry Crescent,L4N 9K9,44.3291394,-79.7224130
42,Black Cherry Crescent,L4N 9L1,44.3286997,-79.7222962
19,Black Cherry Crescent,L4N 9K9,44.3293115,-79.7218264
17,Black Cherry Crescent,L4N 9K9,44.3293658,-79.7218386
15,Black Cherry Crescent,L4N 9K9,44.3294201,-79.7218509
13,Black Cherry Crescent,L4N 9K9,44.3294744,-79.7218631
11,Black Cherry Crescent,L4N 9K9,44.3295287,-79.7218754
9,Black Cherry Crescent,L4N 9K9,44.3295830,-79.7218876
7,Black Cherry Crescent,L4N 9K9,44.3296372,-79.7218999
5,Black Cherry Crescent,L4N 9K9,44.3296915,-79.7219123
37,Black Cherry Crescent,L4N 9L1,44.3288646,-79.7217042
35,Black Cherry Crescent,L4N 9L1,44.3289186,-79.7217191
33,Black Cherry Crescent,L4N 9L1,44.3289727,-79.7217339
31,Black Cherry Crescent,L4N 9K9,44.3290267,-79.7217489
29,Black Cherry Crescent,L4N 9K9,44.3290808,-79.7217638
27,Black Cherry Crescent,L4N 9K9,44.3291348,-79.7217786
25,Black Cherry Crescent,L4N 9K9,44.3291889,-79.7217935
23,Black Cherry Crescent,L4N 9K9,44.3292429,-79.7218084
55,Black Cherry Crescent,L4N 9L1,44.3284223,-79.7215881
53,Black Cherry Crescent,L4N 9L1,44.3284755,-79.7216010
51,Black Cherry Crescent,L4N 9L1,44.3285286,-79.7216139
49,Black Cherry Crescent,L4N 9L1,44.3285818,-79.7216268
47,Black Cherry Crescent,L4N 9L1,44.3286349,-79.7216397
45,Black Cherry Crescent,L4N 9L1,44.3286881,-79.7216526
43,Black Cherry Crescent,L4N 9L1,44.3287412,-79.7216655
41,Black Cherry Crescent,L4N 9L1,44.3287944,-79.7216784
65,Black Cherry Crescent,L4N 9L1,44.3281370,-79.7216495
63,Black Cherry Crescent,L4N 9L1,44.3281822,-79.7216098
61,Black Cherry Crescent,L4N 9L1,44.3282272,-79.7215702
59,Black Cherry Crescent,L4N 9L1,44.3282724,-79.7215305
81,Black Cherry Crescent,L4N 9L1,44.3280295,-79.7218246
79,Black Cherry Crescent,L4N 9L1,44.3280189,-79.7218974
77,Black Cherry Crescent,L4N 9L1,44.3280082,-79.7219702
75,Black Cherry Crescent,L4N 9L1,44.3279975,-79.7220430
73,Black Cherry Crescent,L4N 9L1,44.3279868,-79.7221158
71,Black Cherry Crescent,L4N 9L1,44.3279761,-79.7221885
69,Black Cherry Crescent,L4N 9L1,44.3279655,-79.7222613
109,Black Cherry Crescent,L4N 9L2,44.3278990,-79.7230449
107,Black Cherry Crescent,L4N 9L2,44.3279517,-79.7230872
105,Black Cherry Crescent,L4N 9L2,44.3279904,-79.7231491
103,Black Cherry Crescent,L4N 9L2,44.3280291,-79.7232105
97,Black Cherry Crescent,L4N 9L2,44.3278964,-79.7228044
95,Black Cherry Crescent,L4N 9L2,44.3279068,-79.7227314
93,Black Cherry Crescent,L4N 9L2,44.3279173,-79.7226584
91,Black Cherry Crescent,L4N 9L2,44.3279277,-79.7225854
89,Black Cherry Crescent,L4N 9L2,44.3279382,-79.7225124
87,Black Cherry Crescent,L4N 9L2,44.3279486,-79.7224394
85,Black Cherry Crescent,L4N 9L2,44.3279590,-79.7223665
101,Black Cherry Crescent,L4N 9L2,44.3280581,-79.7232724
6,Victorway Drive,L4N 8N8,44.3303411,-79.7218544
8,Victorway Drive,L4N 8N8,44.3303331,-79.7219743
10,Victorway Drive,L4N 9K9,44.3303140,-79.7221039
12,Victorway Drive,L4N 9K9,44.3302950,-79.7222134
5,Victorway Drive,L4N 8N8,44.3299131,-79.7217426
7,Victorway Drive,L4N 8N8,44.3299068,-79.7218491
9,Victorway Drive,L4N 9K9,44.3298719,-79.7219692
11,Victorway Drive,L4N 9K9,44.3298600,-79.7220784
181,Livingstone St E,L4M 6Z4,44.4179143,-79.6956824
55,Lakeshore Drive,L4N 6E9,44.3819807,-79.6887283
86,Churchland Drive,L4N 8P1,44.3312915,-79.7218047
82,Churchland Drive,L4N 8P1,44.3314649,-79.7216739
84,Churchland Drive,L4N 8P1,44.3314260,-79.7217394
88,Churchland Drive,L4N 8P1,44.3312275,-79.7218269
90,Churchland Drive,L4N 8P1,44.3310978,-79.7217696
92,Churchland Drive,L4N 8P1,44.3310180,-79.7217479
94,Churchland Drive,L4N 8P1,44.3309276,-79.7217147
96,Churchland Drive,L4N 8P1,44.3308417,-79.7216889
98,Churchland Drive,L4N 8P1,44.3307530,-79.7216604
100,Churchland Drive,L4N 8P1,44.3306668,-79.7216353
102,Churchland Drive,L4N 8P1,44.3305725,-79.7216337
104,Churchland Drive,L4N 8P1,44.3304858,-79.7216044
106,Churchland Drive,L4N 8P1,44.3303898,-79.7215800
108,Churchland Drive,L4N 8P1,44.3303038,-79.7215489
113,Peel Street,L4M 3L5,44.3980886,-79.6903117
101,Peel Street,L4M 3L5,44.3975490,-79.6898526
97,Peel Street,L4M 3L5,44.3974170,-79.6897599
89,Peel Street,L4M 3L5,44.3971693,-79.6894908
93,Peel Street,L4M 3L5,44.3972988,-79.6896198
107,Peel Street,L4M 3L5,44.3977970,-79.6900854
111,Peel Street,L4M 3L5,44.3979695,-79.6902225
509,Bayfield Street,L4M 4Z8,44.4115595,-79.7068468
304,Blake Street,L4M 1K8,44.3972039,-79.6577975
504,Big Bay Point Road,L4N 3Z5,44.3576891,-79.6468201
509,Bayfield Street,L4M 4Z8,44.4132580,-79.7071730
261,Essa Road,L4N 9C7,44.3563776,-79.6995713
567,Cundles Rd E,L4M 0G9,44.4158065,-79.6765664
97,Collier St,L4M 1H2,44.3902463,-79.6843360
4,Checkley Street,L4N 1W1,44.3857802,-79.6934409
100,Mapleview Drive East,L4N 9A9,44.3395843,-79.6819228
130,Park Place Boulevard,L4N 6P1,44.3377609,-79.6819015
159,Live Eight Way,L4N 6P1,44.3387202,-79.6796033
130,Owen Street,L4M 3H7,44.3950323,-79.6902906
286,Hurst Drive,L4N 0Z3,44.3692932,-79.6556740
450,Yonge Street,L4N 4E2,44.3637392,-79.6598878
130,Mulcaster Street,L4M 3M9,44.3947114,-79.6865923
21,Patterson Road,L4M 5A1,44.3693711,-79.7077819
11,Patterson Road,L4N 7W5,44.3699727,-79.7083755
287,Tiffin Street,L4N 7R8,44.3700613,-79.7078179
105,Lougheed Road,L4N 8E1,44.3221814,-79.7280237
103,Lougheed Road,L4N 8E1,44.3220928,-79.7280248
97,Lougheed Road,L4N 8E1,44.3216316,-79.7279011
101,Lougheed Road,L4N 8E1,44.3220127,-79.7279827
95,Lougheed Road,L4N 8E1,44.3215291,-79.7278663
113,Lougheed Road,L4N 8E1,44.3225366,-79.7281101
111,Lougheed Road,L4N 8E1,44.3224524,-79.7280751
109,Lougheed Road,L4N 8E1,44.3223608,-79.7280468
107,Lougheed Road,L4N 8E1,44.3222769,-79.7280169
32,Selkirk Crescent,L4N 8G2,44.3188794,-79.7318935
34,Selkirk Crescent,L4N 8G2,44.3189298,-79.7317259
22,Selkirk Crescent,L4N 8G3,44.3187320,-79.7326412
24,Selkirk Crescent,L4N 8G3,44.3187577,-79.7324881
26,Selkirk Crescent,L4N 8G2,44.3187852,-79.7323441
28,Selkirk Crescent,L4N 8G2,44.3187977,-79.7321970
16,Selkirk Crescent,L4N 8G3,44.3185643,-79.7332876
18,Selkirk Crescent,L4N 8G3,44.3186104,-79.7331091
12,Selkirk Crescent,L4N 8G3,44.3185995,-79.7337081
10,Selkirk Crescent,L4N 8G3,44.3187254,-79.7338538
14,Selkirk Crescent,L4N 8G3,44.3185510,-79.7334732
41,Lougheed Road,L4N 8G2,44.3192504,-79.7304162
43,Lougheed Road,L4N 8G2,44.3192535,-79.7302643
31,Selkirk Crescent,L4N 8G2,44.3192899,-79.7320981
45,Lougheed Road,L4N 8G2,44.3192836,-79.7300932
27,Selkirk Crescent,L4N 8G2,44.3192200,-79.7324188
25,Selkirk Crescent,L4N 8G3,44.3191966,-79.7326044
4,Selkirk Crescent,L4N 8G3,44.3192543,-79.7339942
29,Selkirk Crescent,L4N 8G2,44.3192441,-79.7322831
38,Selkirk Crescent,L4N 8G2,44.3191021,-79.7315039
23,Selkirk Crescent,L4N 8G3,44.3191662,-79.7327596
40,Selkirk Crescent,L4N 8G2,44.3191849,-79.7314053
5,Selkirk Crescent,L4N 8G3,44.3192279,-79.7333976
9,Selkirk Crescent,L4N 8G3,44.3189931,-79.7333097
36,Selkirk Crescent,L4N 8G2,44.3190163,-79.7316284
6,Selkirk Crescent,L4N 8G3,44.3190835,-79.7339701
7,Selkirk Crescent,L4N 8G3,44.3191037,-79.7333559
55,Lougheed Road,L4N 8G1,44.3194375,-79.7293703
35,Selkirk Crescent,L4N 8G2,44.3194769,-79.7318418
57,Lougheed Road,L4N 8G1,44.3194702,-79.7292253
11,Lougheed Road,L4N 8G3,44.3195337,-79.7328496
33,Lougheed Road,L4N 8G2,44.3193658,-79.7311809
31,Lougheed Road,L4N 8G2,44.3193969,-79.7313180
53,Lougheed Road,L4N 8G1,44.3194073,-79.7295155
1,Selkirk Crescent,L4N 8G3,44.3194721,-79.7334065
33,Selkirk Crescent,L4N 8G2,44.3193531,-79.7319751
49,Lougheed Road,L4N 8G2,44.3193434,-79.7298042
2,Selkirk Crescent,L4N 8G3,44.3193980,-79.7339848
51,Lougheed Road,L4N 8G1,44.3193745,-79.7296597
3,Selkirk Crescent,L4N 8G3,44.3193512,-79.7334173
47,Lougheed Road,L4N 8G2,44.3193135,-79.7299475
37,Lougheed Road,L4N 8G2,44.3192864,-79.7308920
35,Lougheed Road,L4N 8G2,44.3193453,-79.7310176
42,Lougheed Road,L4N 8G2,44.3197138,-79.7301954
67,Lougheed Road,L4N 8G1,44.3197166,-79.7285383
34,Lougheed Road,L4N 8G2,44.3197725,-79.7308850
2,Lougheed Road,L4N 8G3,44.3198302,-79.7340213
65,Lougheed Road,L4N 8G1,44.3196547,-79.7286595
40,Lougheed Road,L4N 8G2,44.3196901,-79.7303695
38,Lougheed Road,L4N 8G2,44.3196906,-79.7305396
36,Lougheed Road,L4N 8G2,44.3197364,-79.7307240
15,Lougheed Road,L4N 8G3,44.3195944,-79.7325408
17,Lougheed Road,L4N 8G3,44.3196210,-79.7324085
19,Lougheed Road,L4N 8G2,44.3196254,-79.7322455
63,Lougheed Road,L4N 8G1,44.3195925,-79.7287961
59,Lougheed Road,L4N 8G1,44.3194981,-79.7290834
13,Lougheed Road,L4N 8G3,44.3195527,-79.7327222
37,Selkirk Crescent,L4N 8G2,44.3195732,-79.7317944
61,Lougheed Road,L4N 8G1,44.3195436,-79.7289334
52,Lougheed Road,L4N 8G1,44.3199151,-79.7292720
12,Lougheed Road,L4N 8G3,44.3199722,-79.7329486
26,Lougheed Road,L4N 8G2,44.3199638,-79.7316236
14,Lougheed Road,L4N 8G3,44.3200023,-79.7327726
30,Lougheed Road,L4N 8G2,44.3198788,-79.7312472
71,Lougheed Road,L4N 8G1,44.3198702,-79.7283144
50,Lougheed Road,L4N 8G1,44.3198706,-79.7294811
28,Lougheed Road,L4N 8G2,44.3199187,-79.7314229
48,Lougheed Road,L4N 8G1,44.3198292,-79.7296469
32,Lougheed Road,L4N 8G2,44.3198260,-79.7310550
6,Lougheed Road,L4N 8G3,44.3198627,-79.7336475
8,Lougheed Road,L4N 8G3,44.3198762,-79.7334384
44,Lougheed Road,L4N 8G2,44.3197671,-79.7300188
46,Lougheed Road,L4N 8G1,44.3197915,-79.7298308
69,Lougheed Road,L4N 8G1,44.3197726,-79.7284303
4,Lougheed Road,L4N 8G3,44.3198496,-79.7338466
87,Lougheed Road,L4N 8E1,44.3210915,-79.7278350
89,Lougheed Road,L4N 8E1,44.3212008,-79.7278458
58,Lougheed Road,L4N 8G1,44.3201795,-79.7287640
83,Lougheed Road,L4N 8E1,44.3208458,-79.7277975
85,Lougheed Road,L4N 8E1,44.3209682,-79.7278227
18,Lougheed Road,L4N 8G3,44.3200743,-79.7323910
22,Lougheed Road,L4N 8G2,44.3200641,-79.7319875
20,Lougheed Road,L4N 8G2,44.3200786,-79.7321865
56,Lougheed Road,L4N 8G1,44.3200719,-79.7288856
73,Lougheed Road,L4N 8G1,44.3199674,-79.7281972
54,Lougheed Road,L4N 8G1,44.3199875,-79.7290786
24,Lougheed Road,L4N 8G2,44.3200255,-79.7317939
16,Lougheed Road,L4N 8G3,44.3200573,-79.7325883
93,Lougheed Road,L4N 8E1,44.3214161,-79.7278645
91,Lougheed Road,L4N 8E1,44.3213150,-79.7278209
30,Selkirk Crescent,L4N 8G2,44.3188447,-79.7320308
8,Selkirk Crescent,L4N 8G3,44.3188989,-79.7338956
211,Columbia Road,L4N 8E1,44.3217627,-79.7267341
167,Wellington Street East,L4M 2C7,44.3970254,-79.6853888
169,Wellington Street East,L4M 2C7,44.3970970,-79.6852024
171,Wellington Street East,L4M 2C7,44.3971440,-79.6850500
173,Wellington Street East,L4M 2C7,44.3972315,-79.6848365
165,Wellington Street East,L4M 2C7,44.3969153,-79.6856301
181,Wellington Street East,L4M 2C7,44.3975927,-79.6840912
183,Wellington Street East,L4M 2C7,44.3976605,-79.6839205
185,Wellington Street East,L4M 2C7,44.3977607,-79.6837261
175,Wellington Street East,L4M 2C7,44.3973374,-79.6846905
177,Wellington Street East,L4M 2C7,44.3974025,-79.6845251
179,Wellington Street East,L4M 2C7,44.3975042,-79.6843198
187,Wellington Street East,L4M 2C7,44.3978348,-79.6835342
191,Wellington Street East,L4M 2C7,44.3979196,-79.6833246
193,Wellington Street East,L4M 2C7,44.3980071,-79.6831533
195,Wellington Street East,L4M 2C7,44.3980676,-79.6829538
200,Wellington Street East,L4M 2E1,44.3987340,-79.6826872
202,Wellington Street East,L4M 2E1,44.3988360,-79.6824990
210,Wellington Street East,L4M 2E1,44.3992042,-79.6817051
212,Wellington Street East,L4M 2E1,44.3993249,-79.6815686
204,Wellington Street East,L4M 2E1,44.3989033,-79.6822909
206,Wellington Street East,L4M 2E1,44.3990018,-79.6821309
208,Wellington Street East,L4M 2E1,44.3990879,-79.6818933
218,Wellington Street East,L4M 2E2,44.3997964,-79.6808496
214,Wellington Street East,L4M 2E1,44.3995249,-79.6813404
216,Wellington Street East,L4M 2E2,44.3997241,-79.6810566
39,Owen Street,L4M 3G9,44.3908936,-79.6876007
222,Wellington Street East,L4M 2E2,44.3999422,-79.6804554
220,Wellington Street East,L4M 2E2,44.3998713,-79.6806331
226,Wellington Street East,L4M 2E2,44.4000904,-79.6801112
228,Wellington Street East,L4M 2E2,44.4001724,-79.6799476
224,Wellington Street East,L4M 2E2,44.4000303,-79.6802740
150,Collier Street,L4M 1G0,44.3909420,-79.6807696
357,Yonge Street,L4N 4K3,44.3688549,-79.6655217
49,Truman Road,L4N 8Y7,44.3598618,-79.6701328
342,Tollendal Mill Road,L4N 7S6,44.3752324,-79.6513064
6,Mulberry Court,L4N 9S2,44.3693549,-79.6481878
7,Mulberry Court,L4N 9S2,44.3692137,-79.6481515
10,Mulberry Court,L4N 9S2,44.3691202,-79.6474885
11,Mulberry Court,L4N 9S2,44.3691091,-79.6473162
8,Mulberry Court,L4N 9S2,44.3691114,-79.6479397
9,Mulberry Court,L4N 9S2,44.3690955,-79.6477057
12,Mulberry Court,L4N 9S2,44.3690619,-79.6470963
13,Mulberry Court,L4N 9S2,44.3690747,-79.6469111
3,Mulberry Court,L4N 9S2,44.3697186,-79.6477520
4,Mulberry Court,L4N 9S2,44.3696621,-79.6479936
5,Mulberry Court,L4N 9S2,44.3695723,-79.6481500
225,Dock Road,L4N 7S9,44.3707996,-79.6450833
215,Dock Road,L4N 7S9,44.3712457,-79.6433681
217,Dock Road,L4N 7S9,44.3711129,-79.6437758
223,Dock Road,L4N 7S9,44.3709745,-79.6447924
560,Yonge Street,L4N 2E4,44.3586283,-79.6525694
8,North Village Way,L4N 0M7,44.3425774,-79.6789891
3,Concert Way,L4N 6N4,44.3435638,-79.6800969
128,Dunlop Street East,L4M 1A4,44.3894996,-79.6856748
107,Dunlop Street East,L4M 1A6,44.3890552,-79.6867007
137,Dunlop Street East,L4M 1A6,44.3891255,-79.6859931
139,Dunlop Street East,L4M 1A6,44.3890770,-79.6859063
20,St Paul's Crescent,L4N6K9,44.3493114,-79.6278372
125,Park Place Boulevard,L4N 6P1,44.3382426,-79.6810399
129,Mapleview Drive West,L4N9H7,44.3321945,-79.6971891
86,Barrie View Drive,L4N 8V4,44.3349973,-79.6885278
447,Bayfield Street,L4M 4Z9,44.4104488,-79.7076306
420,Cox Mill Road,L4N 8T6,44.3758969,-79.6496848
250,Tollendal Mill Road,L4N 0Z3,44.3731069,-79.6599961
110,Grove Street East,L4M 2P3,44.4007697,-79.6897248
503,Essa Road,L4N 9E4,44.3421196,-79.7086901
140,Letitia Street,L4N 1P5,44.3918071,-79.7177592
10,Brooks Street,L4N 5L3,44.3686694,-79.6878217
