House number,Street name,Postal code,Latitude,Longitude
344,Queen Street East,L6V 1C3,43.7031629,-79.7415781
7940,Hurontario Street,L6Y 0B8,43.6645288,-79.7322241
2200,Steeles Avenue East,L6T 1A7,43.7142197,-79.6804021
40,Steeles Avenue West,L6Y 1N9,43.6661064,-79.7353862
6,Eatonville Street,L7A 0M8,43.7235617,-79.8279288
930,North Park Drive,L6S 3Y5,43.7346944,-79.7441846
4,McLaughlin Road South,L6Y 3B2,43.6755365,-79.7689605
20,Brisdale Drive,L7A 2G8,43.6827557,-79.8130116
9115,Airport Road,L6S 0B8,43.7463649,-79.6988680
9085,Airport Road,L6S 0B8,43.7460238,-79.6984281
2,Kerwood Place,L6Z 1Y1,43.7339331,-79.7992416
12,Kerwood Place,L6Z 1Y1,43.7339275,-79.7986992
14,Kerwood Place,L6Z 1Y1,43.7337575,-79.7992104
10,Kerwood Place,L6Z 1Y1,43.7340766,-79.7987998
27,Armthorpe Road,L6T 5M4,43.7449373,-79.6732414
135,Main Street North,L6X 1M9,43.6878877,-79.7628929
320,Main Street North,L6V 4A3,43.6933829,-79.7681689
320,Main Street North,L6V 4A3,43.6930579,-79.7683208
12,Vodden Street East,L6V 1M2,43.6938924,-79.7691218
320,Main Street North,L6V 4A3,43.6932274,-79.7682962
320,Main Street North,L6V 4A3,43.6932896,-79.7682273
320,Main Street North,L6V 4A3,43.6931134,-79.7683254
320,Main Street North,L6V 4A3,43.6929929,-79.7683062
320,Main Street North,L6V 4A3,43.6934257,-79.7681467
332,Main Street North,L6V 1P8,43.6933857,-79.7693758
320,Main Street North,L6V 4A3,43.6928898,-79.7682880
152,East Drive,L6T 1C1,43.7169980,-79.6840221
180,Sandalwood Parkway East,L6Z 1Y4,43.7278780,-79.7960779
164,Sandalwood Parkway East,L6Z 3S4,43.7273116,-79.7964158
164,Sandalwood Parkway East,L6Z 3S4,43.7274473,-79.7967082
164,Sandalwood Parkway East,L6Z 3S4,43.7275926,-79.7972715
180,Sandalwood Parkway East,L6Z 1Y4,43.7286352,-79.7946663
100,Alfred Kuehne Boulevard,L6T 4K4,43.6992813,-79.6907273
3068,Mayfield Road,L6Z 0E3,43.7351828,-79.8241580
100,Great Lakes Drive,L6R 2K7,43.7292752,-79.7634143
230,Sandalwood Parkway East,L6Z 1R0,43.7308179,-79.7899816
170,Sandalwood Parkway East,L6Z 1Y5,43.7268271,-79.7982494
10886,Hurontario Street,L7A 3R9,43.7237304,-79.8137801
23,Conservation Drive,L6Z 4R3,43.7260049,-79.8129409
10906,Hurontario Street,L7A 3R9,43.7247698,-79.8136719
539,Steeles Avenue East,L6W 4S2,43.6765045,-79.7206746
25,Peel Centre Drive,L6T 3R0,43.7151247,-79.7217070
48,Peel Centre Drive,L6T 5M2,43.7150860,-79.7268736
50,Peel Centre Drive,L6T 3R5,43.7146711,-79.7267839
59,First Gulf Boulevard,L6W 4P9,43.6766902,-79.7140585
25,Peel Centre Drive,L6T 3R5,43.7162529,-79.7210292
150,Central Park Drive,L6T 1B4,43.7181483,-79.7190854
630,Peter Robertson Boulevard,L6R 1T4,43.7400478,-79.7610587
2,Fisherman Drive,L7A 1B5,43.7148617,-79.8009500
2,Fisherman Drive,L7A 1B5,43.7151458,-79.8006737
1,Wexford Road,L6Z2W1,43.7095754,-79.7911196
1,Wexford Road,L6Z2W1,43.7101182,-79.7911876
1,Wexford Road,L6Z 2W0,43.7097923,-79.7907093
370,Main Street North,L6V 4A4,43.6962828,-79.7709274
630,Peter Robertson Boulevard,L6R 1T4,43.7401814,-79.7595218
56,Queen Street East,L6X 1M9,43.6873047,-79.7588106
20,Union Street,L6V 1R2,43.6885620,-79.7590690
8,Queen Street East,L6V 1N6,43.6863284,-79.7596844
1,Main Street North,L6X 1M8,43.6858745,-79.7601886
35,Main Street North,L6X 1M8,43.6863070,-79.7607421
16,Queen Street East,L6V 1A2,43.6864384,-79.7595733
180,Sandalwood Parkway East,L6Z 1Y4,43.7288934,-79.7955184
7700,Hurontario Street,L6Y 4M3,43.6593307,-79.7249626
131,Main Street North,L6X 1M9,43.6876429,-79.7625237
8940,Highway 50,L6P 3A3,43.7760803,-79.6542540
8770,The Gore Road,L6P 0B1,43.7673670,-79.6575996
12,Rutherford Road,L6W 3J1,43.7007982,-79.7401678
10,Brickyard Way,L6V 4L5,43.7043986,-79.7809543
20,Brickyard Way,L6V 4L5,43.7041155,-79.7805922
74,Quarry Edge Drive,L6V 4K2,43.7068231,-79.7848346
45,Mountainash Road,L6R 1W4,43.7589860,-79.7292694
47,Mountainash Road,L6R 1W4,43.7591534,-79.7288893
1305,Williams Parkway East,L6S 3J8,43.7327398,-79.7307341
252,Queen Street East,L6V 1B9,43.6970401,-79.7486146
62,Eastview Gate,L6P 2G7,43.7785272,-79.6731621
10,Gillingham Drive,L6X 5A5,43.7035177,-79.7848453
10990,Airport Road,L6R 0E1,43.7825706,-79.7491758
160,Yellow Avens Boulevard,L6R 0M5,43.7780778,-79.7429236
4316,Ebenezer Road,L6P 1R9,43.7694377,-79.7764399
9705,James Potter Road,L6X 0G9,43.6751352,-79.8056717
9705,James Potter Road,L6X 0G9,43.6753355,-79.8061795
125,Chrysler Drive,L6S 6L1,43.7413219,-79.7037762
395,Chrysler Drive,L6S 6G3,43.7468104,-79.7108143
225,Castle Oaks Crossing,L6P 3X3,43.7961674,-79.6665981
225,Castle Oaks Crossing,L6P 3X3,43.7962494,-79.6666443
225,Castle Oaks Crossing,L6P 3X3,43.7963296,-79.6666893
225,Castle Oaks Crossing,L6P 3X3,43.7963949,-79.6667315
225,Castle Oaks Crossing,L6P 3X3,43.7964803,-79.6667717
225,Castle Oaks Crossing,L6P 3X3,43.7965528,-79.6668192
225,Castle Oaks Crossing,L6P 3X3,43.7966209,-79.6668664
225,Castle Oaks Crossing,L6P 3X3,43.7966835,-79.6668960
225,Castle Oaks Crossing,L6P 3X3,43.7967624,-79.6669539
170,Sandalwood Parkway East,L6Z 1Y5,43.7263880,-79.7978153
170,Sandalwood Parkway East,L6Z 1Y5,43.7265509,-79.7976624
9641,Mississauga Road,L6X 0B3,43.6603583,-79.8196265
1,Middleton Way,L6S 4B1,43.7366563,-79.7491502
105,Middleton Way,L6S 4B1,43.7360535,-79.7490138
106,Middleton Way,L6S 4B1,43.7361239,-79.7492069
112,Middleton Way,L6S 4B1,43.7363824,-79.7489075
113,Middleton Way,L6S 4B1,43.7362724,-79.7487623
122,Middleton Way,L6S 4B1,43.7359345,-79.7482593
123,Middleton Way,L6S 4B1,43.7359089,-79.7478626
130,Middleton Way,L6S 4B1,43.7356261,-79.7482398
131,Middleton Way,L6S 4B1,43.7355928,-79.7483656
138,Middleton Way,L6S 4B1,43.7353369,-79.7487127
139,Middleton Way,L6S 4B1,43.7352729,-79.7487658
145,Middleton Way,L6S 4B1,43.7350170,-79.7490510
146,Middleton Way,L6S 4B1,43.7349568,-79.7491112
153,Middleton Way,L6S 4B1,43.7346548,-79.7494424
16,Middleton Way,L6S 4B1,43.7359819,-79.7498569
17,Middleton Way,L6S 4B1,43.7358500,-79.7499507
24,Middleton Way,L6S 4B1,43.7356082,-79.7502766
25,Middleton Way,L6S 4B1,43.7355045,-79.7503988
34,Middleton Way,L6S 4B1,43.7351462,-79.7508009
35,Middleton Way,L6S 4B1,43.7348928,-79.7507690
40,Middleton Way,L6S 4B1,43.7347610,-79.7503776
41,Middleton Way,L6S 4B1,43.7347444,-79.7502678
46,Middleton Way,L6S 4B1,43.7345575,-79.7499738
47,Middleton Way,L6S 4B1,43.7348135,-79.7497240
54,Middleton Way,L6S 4B1,43.7350362,-79.7501190
55,Middleton Way,L6S 4B1,43.7350234,-79.7504272
60,Middleton Way,L6S 4B1,43.7352409,-79.7501739
61,Middleton Way,L6S 4B1,43.7353612,-79.7500482
67,Middleton Way,L6S 4B1,43.7351398,-79.7496922
68,Middleton Way,L6S 4B1,43.7349594,-79.7496195
71,Middleton Way,L6S 4B1,43.7350976,-79.7494796
72,Middleton Way,L6S 4B1,43.7352537,-79.7491874
78,Middleton Way,L6S 4B1,43.7354444,-79.7495257
79,Middleton Way,L6S 4B1,43.7354828,-79.7497913
8,Middleton Way,L6S 4B1,43.7363619,-79.7494601
85,Middleton Way,L6S 4B1,43.7357477,-79.7495062
86,Middleton Way,L6S 4B1,43.7359102,-79.7494566
9,Middleton Way,L6S 4B1,43.7362775,-79.7495451
92,Middleton Way,L6S 4B1,43.7356888,-79.7490811
93,Middleton Way,L6S 4B1,43.7354265,-79.7490935
97,Middleton Way,L6S 4B1,43.7356082,-79.7489199
98,Middleton Way,L6S 4B1,43.7357912,-79.7485958
148,West Drive,L6T 5P1,43.7078012,-79.7333189
199,Advance Boulevard,L6T 4N2,43.6904999,-79.6941165
25,Peel Centre Drive,L6T 3R5,43.7146523,-79.7217530
2975,Bovaird Drive East,L6S 0C6,43.7602136,-79.7235846
51,Mountainash Road,L6R 1W4,43.7604677,-79.7277697
51,Mountainash Road,L6R 1W0,43.7596032,-79.7285571
11965,Hurontario Street,L6Z 4P0,43.7334931,-79.8235170
425,Chrysler Drive,L6S 6G3,43.7484468,-79.7119178
12011,Hurontario Street,L7A 1E6,43.7343245,-79.8251518
42,Snowshoe Lane,L6R 0J6,43.7737459,-79.7558005
48,Peel Centre Drive,L6T 5M2,43.7150659,-79.7266490
320,Queen Street East,L6V 1C2,43.7016281,-79.7437139
5,Rutherford Road South,L6W 3J3,43.7000627,-79.7412041
101,Stoneylake Avenue,L6V 4T3,43.7155963,-79.7620864
101,Stoneylake Avenue,L6V 4T3,43.7155824,-79.7621030
341,Main Street North,L6X 1N5,43.6924975,-79.7694796
95,Parkhurst Square,L6T 5H5,43.7289342,-79.6686038
630,Peter Robertson Boulevard,L6R 1T4,43.7404903,-79.7601568
9065,Airport Road,L6S 0B8,43.7457310,-79.6964020
2989,Bovaird Drive East,L6S 0C6,43.7611437,-79.7242679
8450,Torbram Road,L6T 4M9,43.7218892,-79.6907575
8550,Torbram Road,L6T 5C8,43.7243818,-79.6944024
8550,Torbram Road,L6T 3P1,43.7244730,-79.6943171
8550,Torbram Road,L6T 5C8,43.7246889,-79.6950023
10635 #8,Bramalea Road,L6R 0C1,43.7558855,-79.7592334
10635,Bramalea Road,L6R 3B5,43.7561049,-79.7589612
31,Melanie Drive,L6T 5H8,43.7111705,-79.6818054
160,Main Street South,L6W 2E1,43.6781071,-79.7482053
365,Main Street North,L6X 1N6,43.6941992,-79.7713359
499,Main Street South,L6Y 1N7,43.6660788,-79.7371103
7,Sunny Meadow Boulevard,L6R 1W7,43.7497535,-79.7396526
25,Peel Centre Drive,L6T 3R5,43.7157005,-79.7218884
930,North Park Drive,L6S 3Y5,43.7343864,-79.7445800
380,Bovaird Drive East,L6Z 2S6,43.7142819,-79.7791255
10511,Bramalea Road,L6R 3P4,43.7548526,-79.7573680
1985,Cottrelle Boulevard,L6P 2Z8,43.7727206,-79.6882078
389,Main Street North,L6X 3P1,43.6947731,-79.7727232
239,Queen Street East,L6W 2B6,43.6966747,-79.7474194
253,Queen Street East,L6W 2B8,43.6989595,-79.7439031
227,Vodden Street East,L6V 1N2,43.7026074,-79.7567123
195,Queen Street East,L6W 2B3,43.6935453,-79.7513337
630,Peter Robertson Boulevard,L6R 1T4,43.7400933,-79.7609901
630,Peter Robertson Boulevard,L6R 1T4,43.7401368,-79.7609404
630,Peter Robertson Boulevard,L6R 1T4,43.7401717,-79.7608935
630,Peter Robertson Boulevard,L6R 1T4,43.7402143,-79.7608278
630,Peter Robertson Boulevard,L6R 1T4,43.7402628,-79.7607621
630,Peter Robertson Boulevard,L6R 1T4,43.7403200,-79.7606816
630,Peter Robertson Boulevard,L6R 1T4,43.7403800,-79.7605904
630,Peter Robertson Boulevard,L6R 1T4,43.7400879,-79.7594008
630,Peter Robertson Boulevard,L6R 1T4,43.7401383,-79.7594572
630,Peter Robertson Boulevard,L6R 1T4,43.7402177,-79.7595671
630,Peter Robertson Boulevard,L6R 1T4,43.7402662,-79.7596154
630,Peter Robertson Boulevard,L6R 1T4,43.7403049,-79.7596664
630,Peter Robertson Boulevard,L6R 1T4,43.7403456,-79.7597227
630,Peter Robertson Boulevard,L6R 1T4,43.7403863,-79.7597656
630,Peter Robertson Boulevard,L6R 1T4,43.7404212,-79.7598139
130,Sandalwood Parkway West,L7A 1A8,43.7151575,-79.8094327
7956,Torbram Road,L6T 5A2,43.7125124,-79.6783385
45,Dusk Drive,L6Y 5Z6,43.6552685,-79.7677361
45,Dusk Drive,L6Y 5Z6,43.6553607,-79.7678564
45,Dusk Drive,L6Y 0H7,43.6554081,-79.7679290
45,Dusk Drive,L6Y 5Z6,43.6554478,-79.7679856
45,Dusk Drive,L6Y 0H7,43.6554900,-79.7680688
55,Dusk Drive,L6Y 5Z6,43.6558831,-79.7679131
55,Dusk Drive,L6Y 5Z6,43.6559099,-79.7678865
30,Clockwork Drive,L7A 4R8,43.7032330,-79.8515886
305,Charolais Boulevard,L6Y 2R2,43.6587065,-79.7499873
50,Peel Centre Drive,L6T 0E2,43.7147316,-79.7264196
50,Peel Centre Drive,L6T 0E2,43.7147079,-79.7266386
65,Lanark circle,L6X 5L5,43.6697300,-79.8249501
400,Steeles Ave E,L6W 3R2,43.6756465,-79.7235634
2880,Queen Street East,L6S 6H4,43.7428139,-79.6981954
200,County Court Boulevard,L6W 4K7,43.6586601,-79.7217328
40,Finchgate Boulevard,L6T 3J1,43.7281205,-79.7123030
85,Rosedale Avenue West,L6X 4H5,43.6875366,-79.7702939
227,Vodden St E,L6V 1N2,43.7034794,-79.7570577
9574,The Gore Road,L6P 0A8,43.7830540,-79.6789953
30,Rambler Drive,L6W 1E2,43.6782251,-79.7277331
20,Sailwind Road,L6R 2G3,43.7386308,-79.7673343
168,Kennedy Road South,L6W 3G6,43.6814343,-79.7292175
380,Bovaird Drive East,L6Z 2S8,43.7145180,-79.7805701
8,A Research Road,L6W 1P5,43.6873740,-79.7402295
253,Summerlea Road,L6T 5A8,43.7359815,-79.7004127
180,Sandalwood Parkway East,L6Z 4N2,43.7274566,-79.7955922
11495,Hurontario Street,L6Z 0B1,43.7303641,-79.8196544
2565,Steeles Avenue East,L6T 4L6,43.7143034,-79.6779565
8550,Torbram Road,L6T 4M9,43.7251682,-79.6953198
148,West Drive,L6T 5P1,43.7079358,-79.7335064
35,Resolution Drive,L6W 0A6,43.6788481,-79.7206980
35,Resolution Drive,L6W 0A6,43.6791720,-79.7211529
45,Cherrycrest Drive,L6P3W4,43.7639969,-79.6688601
45,Cherrycrest Drive,L6P3W4,43.7639101,-79.6687737
15,Ashby Field Road,L6X 3B0,43.6726908,-79.8212602
25,Brisdale Drive,L7A 2G8,43.6842717,-79.8129018
10069,Hurontario Street,L6Z 0A6,43.7075392,-79.7883381
50,Coventry Road,L6T 5P9,43.7423344,-79.6955431
50,Coventry Road,L6T 5P9,43.7422433,-79.6953928
50,Peel Centre Drive,L6T 0E2,43.7147452,-79.7262004
48,Peel Centre Drive,L6T 5M2,43.7150617,-79.7267626
14,Lisa Street,L6T 4W2,43.7130072,-79.7274861
14,Lisa Street,L6T 4W2,43.7130513,-79.7275076
14,Lisa Street,L6T 4W2,43.7131206,-79.7276035
14,Lisa Street,L6T 4W2,43.7131598,-79.7276545
14,Lisa Street,L6T 4W2,43.7132708,-79.7277795
14,Lisa Street,L6T 4W2,43.7133905,-79.7279542
14,Lisa Street,L6T 4W2,43.7136532,-79.7277443
14,Lisa Street,L6T 4W2,43.7136998,-79.7276531
14,Lisa Street,L6T 4W2,43.7138011,-79.7275627
14,Lisa Street,L6T 4W2,43.7138781,-79.7274975
16,Lisa Street,L6T 5R2,43.7136465,-79.7282445
499,Main Street South,L6Y 1N0,43.6651928,-79.7375467
164,Sandalwood Parkway East,L6Z 3S4,43.7282530,-79.7970443
164,Sandalwood Parkway East,L6Z 3S4,43.7274150,-79.7974332
25,Peel Centre Drive,L6T 3R5,43.7153242,-79.7234611
22,Finley Road,L6T 1A9,43.6905636,-79.7122720
1730,Steeles Avenue East,L6T 1A4,43.6991383,-79.6974957
1730,Steeles Avenue East,L6T 1A4,43.6989056,-79.6978538
1730,Steeles Avenue East,L6T 1A4,43.6989677,-79.6979047
1730,Steeles Avenue East,L6T 1A4,43.6990307,-79.6979436
1730,Steeles Avenue East,L6T 1A4,43.6990860,-79.6979879
1730,Steeles Avenue East,L6T 1A4,43.6991519,-79.6980362
1730,Steeles Avenue East,L6T 1A4,43.6992227,-79.6980831
1730,Steeles Avenue East,L6T 1A4,43.6992741,-79.6981287
1730,Steeles Avenue East,L6T 1A4,43.6993245,-79.6981743
1730,Steeles Avenue East,L6T 1A4,43.6993943,-79.6982226
1730,Steeles Avenue East,L6T 1A4,43.6994389,-79.6982588
1730,Steeles Avenue East,L6T 1A4,43.6995097,-79.6983071
1730,Steeles Avenue East,L6T 1A4,43.6995688,-79.6983580
1730,Steeles Avenue East,L6T 1A4,43.6996270,-79.6984050
1730,Steeles Avenue East,L6T 1A4,43.6997104,-79.6984559
1730,Steeles Avenue East,L6T 1A4,43.6997850,-79.6984613
10,George Street North,L6X 1R2,43.6865100,-79.7626385
23,Main Street South,L6W 2C3,43.6854464,-79.7595495
56,Commuter Drive,L7A 0R3,43.6758184,-79.8216672
470,Chrysler Drive,L6S 6G3,43.7472283,-79.7143120
8265,Financial Drive,L6Y 1M1,43.6348809,-79.7894896
59,First Gulf Boulevard,L6W 4P9,43.6780916,-79.7161113
7900,Hurontario Street,L6Y 0P6,43.6641991,-79.7314370
120,Clementine Drive,L6Y 0L8,43.6443891,-79.7565039
1,Kennedy Road,L6W 3C9,43.6945959,-79.7489852
425,Main Street North,L6V 1P8,43.6963686,-79.7746222
4,Maritime Ontario Boulevard,L6S 0C2,43.7456095,-79.6948061
2280,Queen Street East,L6S 5X9,43.7361198,-79.7053492
2,Maritime Ontario Boulevard,L6S 0C2,43.7461424,-79.6940579
2250,Queen Street East,L6S 5X9,43.7356987,-79.7058813
5,Coachworks Crescent,L6R 3Y2,43.7585579,-79.7932588
173,Advance Boulevard,L6T 4Z7,43.6933804,-79.6911893
150,Nexus Avenue,L6P 3R6,43.7711230,-79.6584625
2,County Court Boulevard,L6W 3W8,43.6629680,-79.7278111
333,Fairhill Avenue,L7A 3N9,43.6925927,-79.8177808
101,Kenpark Avenue,L6Z 3K5,43.7440344,-79.8055012
28,Finley Road,L6T 1A9,43.6893922,-79.7132940
10,Flowertown Avenue,L6X2J9,43.6820105,-79.7799625
10,Flowertown Avenue,L6X2J9,43.6819678,-79.7800092
150,Great Lakes Drive,L6R 2K7,43.7295524,-79.7644618
5,Montpelier Street,L6Y 6H4,43.6327345,-79.7842981
155,Hedgedale Road,L6T 5P3,43.6864355,-79.7065889
180,Delta Park Boulevard,L6T 5T6,43.7454355,-79.6924765
45,Montpelier Street,L6Y 6H4,43.6339241,-79.7855044
5085,Mayfield Road,L6R 3S9,43.7731509,-79.7796557
36,Vodden St E,L6V 4H4,43.6947647,-79.7682439
298,Rutherford Road South,L6W 3K7,43.6844417,-79.7216272
27,Armthorpe Road,L6T 5M4,43.7454480,-79.6718981
2575,Steeles Avenue East,L6T 5T1,43.7151835,-79.6770889
197,County Court Blvd,L6W 4P6,43.6617632,-79.7212539
186,Main Street South,L6W 2E2,43.6764702,-79.7463701
184,Main Street South,L6W 2E2,43.6766631,-79.7466690
184,Main Street South,L6W 2E2,43.6767408,-79.7467503
110,Brickyard Way,L6V 4L9,43.7010374,-79.7790409
110,Brickyard Way,L6V 4N1,43.7010001,-79.7789933
110,Brickyard Way,L6V 4N1,43.7008696,-79.7788100
110,Brickyard Way,L6V 4N1,43.7008189,-79.7787453
110,Brickyard Way,L6V 4N1,43.7007656,-79.7786746
164,Sandalwood Parkway East,L6Z 3S4,43.7277101,-79.7971945
164,Sandalwood Parkway East,L6Z 3S4,43.7276530,-79.7970521
1,Wexford Road,L6Z2W1,43.7101700,-79.7911622
1,Wexford Road,L6Z2W1,43.7099799,-79.7910499
1,Wexford Road,L6Z2W1,43.7099431,-79.7909897
1,Wexford Road,L6Z2W1,43.7098860,-79.7908889
1,Wexford Road,L6Z2W1,43.7099131,-79.7909242
1,Wexford Road,L6Z2W1,43.7098485,-79.7908660
1,Wexford Road,L6Z2W1,43.7097914,-79.7908421
1,Wexford Road,L6Z2W1,43.7097306,-79.7908762
1,Wexford Road,L6Z2W1,43.7096977,-79.7909342
1,Wexford Road,L6Z2W1,43.7096558,-79.7910228
66,Quarry Edge Drive,L6V 4K2,43.7080872,-79.7832414
10025,Hurontario Street,L6Z 0E6,43.7070909,-79.7862247
10086,Hurontario Street,L7A 1E5,43.7073897,-79.7897730
10086,Hurontario Street,L7A 1E5,43.7072083,-79.7899754
10086,Hurontario Street,L7A 1E5,43.7067385,-79.7904772
10084,Hurontario Street,L7A 1E5,43.7064149,-79.7905342
480,Main Street North,L6V 1P8,43.6975414,-79.7750707
389,Main Street North,L6X 3P1,43.6950487,-79.7729398
389,Main Street North,L6X 1N7,43.6950139,-79.7728782
389,Main Street North,L6X 1N7,43.6949684,-79.7728072
389,Main Street North,L6X 1N7,43.6949203,-79.7727434
389,Main Street North,L6X 1N7,43.6948850,-79.7726883
389,Main Street North,L6X 1N7,43.6948472,-79.7726479
389,Main Street North,L6X 1N7,43.6947980,-79.7725824
389,Main Street North,L6X 1N7,43.6947457,-79.7725028
389,Main Street North,L6X 1N7,43.6946780,-79.7724134
367,Main Street North,L6X 1N6,43.6942311,-79.7716190
367,Main Street North,L6X 1N6,43.6941809,-79.7716807
367,Main Street North,L6X 1N6,43.6942955,-79.7715435
12,Vodden Street East,L6V 1M2,43.6940275,-79.7689271
332,Main Street North,L6V 1P8,43.6936877,-79.7697858
332,Main Street North,L6V 1P8,43.6936481,-79.7697322
332,Main Street North,L6V 1P8,43.6936191,-79.7696811
332,Main Street North,L6V 1P8,43.6935830,-79.7696263
332,Main Street North,L6V 1P8,43.6935065,-79.7695874
332,Main Street North,L6V 1P8,43.6934765,-79.7695326
332,Main Street North,L6V 1P8,43.6934466,-79.7694815
332,Main Street North,L6V 1P8,43.6934202,-79.7694316
370,Main Street North,L6V 4A4,43.6960157,-79.7725871
370,Main Street North,L6V 4A4,43.6959265,-79.7724798
370,Main Street North,L6V 4A4,43.6956919,-79.7721391
370,Main Street North,L6V 4A4,43.6959020,-79.7717966
370,Main Street North,L6V 4A4,43.6963812,-79.7714642
370,Main Street North,L6V 4A4,43.6964349,-79.7713938
370,Main Street North,L6V 4A4,43.6964816,-79.7713136
370,Main Street North,L6V 4A4,43.6964505,-79.7711729
370,Main Street North,L6V 4A4,43.6961537,-79.7707367
370,Main Street North,L6V 4A4,43.6960785,-79.7706384
370,Main Street North,L6V 4A4,43.6960207,-79.7705614
370,Main Street North,L6V 4A4,43.6959702,-79.7704887
370,Main Street North,L6V 4A4,43.6959146,-79.7704117
370,Main Street North,L6V 4A4,43.6956569,-79.7704288
370,Main Street North,L6V 4A4,43.6955745,-79.7703105
370,Main Street North,L6V 4A4,43.6952704,-79.7698772
370,Main Street North,L6V 4A4,43.6952158,-79.7698116
370,Main Street North,L6V 4A4,43.6951550,-79.7697332
35,Resolution Drive,L6W 0A6,43.6789127,-79.7207824
35,Resolution Drive,L6W 0A6,43.6789539,-79.7208508
35,Resolution Drive,L6W 0A6,43.6790360,-79.7209725
35,Resolution Drive,L6W 0A6,43.6789936,-79.7209095
35,Resolution Drive,L6W 0A6,43.6791142,-79.7210689
341,Main Street North,L6X 1N5,43.6923231,-79.7697151
341,Main Street North,L6X 1N5,43.6922265,-79.7698286
341,Main Street North,L6X 1N5,43.6923931,-79.7695548
341,Main Street North,L6X 3C7,43.6924474,-79.7694864
341,Main Street North,L6X 1N5,43.6922760,-79.7696951
320,Main Street North,L6V 4A3,43.6925620,-79.7681737
320,Main Street North,L6V 4A3,43.6936475,-79.7681399
9,Queen Street East,L6W 2A7,43.6860862,-79.7594958
10178,Hurontario Street,L7A 0E4,43.7088737,-79.7919215
10178,Hurontario Street,L7A 0E4,43.7087733,-79.7926423
10178,Hurontario Street,L7A 0E4,43.7087254,-79.7925584
10178,Hurontario Street,L7A 0E4,43.7085977,-79.7923916
2,Fisherman Drive,L7A 1B5,43.7144485,-79.8005598
2,Fisherman Drive,L7A 1B5,43.7145216,-79.8006752
2,Fisherman Drive,L7A 1B5,43.7145550,-79.8007435
2,Fisherman Drive,L7A 1B5,43.7145941,-79.8008233
2,Fisherman Drive,L7A 1B5,43.7146916,-79.8008712
2,Fisherman Drive,L7A 1B5,43.7147387,-79.8010403
2,Fisherman Drive,L7A 1B5,43.7150081,-79.8008115
13,Fisherman Drive,L7A 2X9,43.7134990,-79.7992072
13,Fisherman Drive,L7A 2X9,43.7135625,-79.7993019
13,Fisherman Drive,L7A 2X9,43.7136090,-79.7993602
13,Fisherman Drive,L7A 2X9,43.7136594,-79.7994292
13,Fisherman Drive,L7A 2X9,43.7137180,-79.7995148
13,Fisherman Drive,L7A 2X9,43.7138286,-79.7996542
13,Fisherman Drive,L7A 2X9,43.7138965,-79.7997579
13,Fisherman Drive,L7A 2X9,43.7139239,-79.7997989
13,Fisherman Drive,L7A 2X9,43.7139507,-79.7998428
13,Fisherman Drive,L7A 2X9,43.7139797,-79.7998860
16,Lisa Street,L6T 5R2,43.7136823,-79.7283007
16,Lisa Street,L6T 5R2,43.7137281,-79.7283579
9055,Airport Road,L6S 0B8,43.7450762,-79.6969755
9055,Airport Road,L6S 0B8,43.7451336,-79.6970554
9055,Airport Road,L6S 0B8,43.7452161,-79.6971629
9055,Airport Road,L6S 0B8,43.7452794,-79.6972575
185,Conestoga Drive,L6Z 2Z7,43.7227887,-79.7910431
8044,Dixie Road,L6T 5C3,43.6988822,-79.7086080
185,Fletchers Creek Boulevard,L6X 0Y7,43.6921555,-79.8013368
200,County Court Boulevard,L6W 4L2,43.6598228,-79.7215737
200,County Court Boulevard,L6W 4K7,43.6592993,-79.7210347
200,County Court Boulevard,L6W 4K7,43.6592572,-79.7210823
200,County Court Boulevard,L6W 4K7,43.6591968,-79.7211453
200,County Court Boulevard,L6W 4L2,43.6590890,-79.7212687
200,County Court Boulevard,L6W 4K7,43.6590389,-79.7213219
200,County Court Boulevard,L6W 4K7,43.6589754,-79.7213920
200,County Court Boulevard,L6W 4L2,43.6587072,-79.7216772
200,County Court Boulevard,L6W 4K7,43.6587653,-79.7216166
200,County Court Boulevard,L6W 4K7,43.6588135,-79.7215683
200,County Court Boulevard,L6W 4K7,43.6588589,-79.7215188
200,County Court Boulevard,L6W 4K7,43.6588991,-79.7214756
200,County Court Boulevard,L6W 4K7,43.6589342,-79.7214324
10425,Kennedy Road,L6Z 0A4,43.7246701,-79.7877036
10425,Kennedy Road,L6Z 0A4,43.7246182,-79.7876281
10425,Kennedy Road,L6Z 0A4,43.7245905,-79.7875723
295,Queen Street East,L6W 3R1,43.7026780,-79.7372376
295,Queen Street East,L6W 3R1,43.7028700,-79.7375005
295,Queen Street East,L6W 3R1,43.7030074,-79.7376731
295,Queen Street East,L6W 4S6,43.7024574,-79.7369477
295,Queen Street East,L6W 3R1,43.7024058,-79.7362184
295,Queen Street East,L6W 3W9,43.7022212,-79.7386091
295,Queen Street East,L6W 3R1,43.7021162,-79.7387477
295,Queen Street East,L6W 4S6,43.7024044,-79.7395664
295,Queen Street East,L6W 3W9,43.7025501,-79.7397967
2,County Ct Blvd,L6W 3W8,43.6628991,-79.7277399
2,County Court Boulevard,L6W 3W8,43.6628823,-79.7277558
24,Moorehead Crescent,L6Z 4K3,43.7266685,-79.7809266
171,Advance Boulevard,L6T 4Z7,43.6942178,-79.6911943
8550,Torbram Road,J4Y 0K7,43.7245930,-79.6946001
52,Elverton Crescent,L7A 4Z4,43.6919876,-79.8579366
25,Peel Centre Drive,L6T 3R5,43.7167065,-79.7231010
25,Peel Centre Drive,L6T 3R5,43.7142297,-79.7231753
400,Steeles Avenue East,L6W 3R2,43.6756558,-79.7235116
543,Steeles Avenue East,L6W 4S2,43.6774139,-79.7199445
12,Main Street North,L6V 1N6,43.6861610,-79.7599681
20,Polonia Avenue,L6Y0K9,43.6428654,-79.7617726
3938,Cottrelle Boulevard,L6P 2R0,43.7846655,-79.6620534
10970,Airport Road,L6R 0E0,43.7816874,-79.7500887
34A,Avondale Boulevard,L6T 1H0,43.7074560,-79.6990260
930,North Park Drive,L6S 3Y0,43.7341201,-79.7446638
25,Great Lakes Drive,L6R 2S0,43.7315189,-79.7604536
26,Hale Road,L6W 0M0,43.6852582,-79.7196075
545,Steeles Avenue West,L6Y 4C0,43.6547013,-79.7440249
520,Charolais Boulevard,L6Y 0R0,43.6499922,-79.7613261
8965,Chinguacousy Road,L6Y 0J0,43.6659430,-79.7796574
160,Main Street South,L6W 2C0,43.6777769,-79.7467704
366,Main Street North,L6V 1P0,43.6950089,-79.7716908
10661,Chinguacousy Road,L7A 0N0,43.6980292,-79.8237633
11210,Creditview Road,L7A 4X0,43.6973651,-79.8487153
980,Central Park Drive,L6S 3L0,43.7338912,-79.7208902
55,Rutherford Rd S,L6W 3J3,43.6981894,-79.7353790
185,Fletchers Creek Boulevard,L6X 0Y7,43.6922756,-79.8011515
8975,Chinguacousy Road,L6Y 0J2,43.6668887,-79.7791737
150,West Drive,L6T 5P1,43.7063630,-79.7342300
80,Beech Street,L6V 1V6,43.6982691,-79.7579605
9,Abbey Road,L6W 2T7,43.6814702,-79.7412295
24,Duncan Bull Drive,L6W 1H4,43.6767734,-79.7393240
155,Cherrytree Drive,L6Y 3M9,43.6547461,-79.7254518
1750,Steeles Avenue East,L6T 1A4,43.6996565,-79.6975955
1620,Steeles Avenue East,L6T 1A4,43.6980451,-79.7011562
11,Finley Road,L6T 1B1,43.6901722,-79.7102645
245,Advance Boulevard,L6T4J2,43.6857536,-79.6998917
300,Orenda Road,L6T 1G2,43.7008780,-79.7079430
1250,Steeles Avenue East,L6T 1A1,43.6905441,-79.7077534
4,Finley Road,L6T 1A9,43.6920880,-79.7105938
2,Finley Road,L6T 1A9,43.6924181,-79.7100414
100,Biscayne Crescent,L6W 4S1,43.6832638,-79.7122464
57,Aloma Crescent,L6T 2N8,43.7081219,-79.7045071
4,Knightsbridge Road,L6T 5L5,43.7190185,-79.7170490
10,Knightsbridge Road,L6T 5L6,43.7196695,-79.7165155
2100,Steeles Avenue East,L6T 1A7,43.7125812,-79.6841663
510,Balmoral Drive,L6T 1W4,43.7160758,-79.7081716
28,Finchgate Boulevard,L6T 3H9,43.7275351,-79.7109330
215,Hanover Road,L6S 1B6,43.7192504,-79.7280633
99,Kennedy Road North,L6V 1X8,43.7015715,-79.7584185
10,Gillingham Drive,L6X 5A5,43.7034635,-79.7848490
50,Quarry Edge Drive,L6V 4K2,43.7051316,-79.7835884
74,Quarry Edge Drive,L6V 4K2,43.7063045,-79.7852985
161,Church Street East,L6V 1G9,43.6959205,-79.7537385
25,June Avenue,L6V 1W2,43.6955445,-79.7529885
30,Clark Boulevard,L6W 1X3,43.7012935,-79.7379679
227,Vodden Street East,L6V 1N2,43.7034245,-79.7570760
32,Kennedy Road North,L6V 1X4,43.6989404,-79.7520522
50,Kennedy Road South,M4S 1C6,43.6895287,-79.7382586
7,Hansen Road South,L6V 1B9,43.6976175,-79.7449600
56,Millhouse Mews,L6Y 5J8,43.6292093,-79.7628008
200,Morton Way,L6Y 2P8,43.6566717,-79.7517961
27,Drinkwater Road,L6Y 4T6,43.6582345,-79.7650490
27,Drinkwater Road,L6Y 4T6,43.6577147,-79.7646942
60,Sterritt Drive,L6Y 5B6,43.6650014,-79.7723216
15,Fincham Avenue,L6X 3V2,43.6743360,-79.7847595
70,Gretna Drive,L6X 2E9,43.6746192,-79.7751121
20,Biscayne Crescent,L6W 4S1,43.6802462,-79.7158798
25,Mountainberry Road,L6R 1J3,43.7646096,-79.7313835
209,County Court Boulevard,L6W 4P5,43.6593211,-79.7232617
2,County Court Boulevard,L6W 3W8,43.6632939,-79.7282398
1,Bartley Bull Parkway,L6W 3T7,43.6675117,-79.7332216
59,First Gulf Boulevard,L6W 4P9,43.6780923,-79.7161138
11,Dwellers Road,L6X 5C1,43.6890280,-79.8000665
11,Dwellers Road,L6X 5C1,43.6892714,-79.7995531
99,Fletcher's Creek Boulevard,L6X 4T7,43.6884901,-79.7983595
121,Royal Orchard Drive,L6X 4K9,43.6966744,-79.7886372
20,Brickyard Way,L6V 4L5,43.7043478,-79.7799044
85,Burnt Elm Drive,L7A 1T8,43.7186682,-79.8179037
30,Summer Valley Drive,L6Z 4V6,43.7369870,-79.8251637
81,Torrance Woods,L6Y 2X4,43.6584441,-79.7598047
491,Bartley Bull Parkway,L6W 2M7,43.6714657,-79.7325345
315,Bartley Bull Parkway,L6W 2L4,43.6785883,-79.7325795
21,Campbell Drive,L6X 2H6,43.6790438,-79.7782157
39,Sunset Boulevard,L6X 1X1,43.6882234,-79.7779257
391,Main Street North,L6X 1N7,43.6951295,-79.7733600
411,Main Street North,L6X 1N7,43.6958563,-79.7739500
80,Van Kirk Drive,L7A 1B1,43.7041491,-79.8016344
80,Van Kirk Drive,L7A 1B1,43.7053100,-79.8028059
95,Van Kirk Drive,L7A 1A4,43.7060409,-79.8003458
25,Regan Road,L7A 1B2,43.7034606,-79.8020578
27,Regan Road,L7A 1B2,43.7040119,-79.8037810
29,Regan Road,L7A 1B2,43.7044229,-79.8043151
26,Regan Road,L7A 1A7,43.7033480,-79.8052945
28,Regan Road,L7A 1A7,43.7036035,-79.8062400
32,Regan Road,L7A 1A7,43.7044010,-79.8069220
35,Regan Road,L7A 1B2,43.7053520,-79.8053035
43,Regan Road,L7A 1B2,43.7061650,-79.8066535
100,Van Kirk Drive,L7A 1B1,43.7068640,-79.8041939
120,Van Kirk Drive,L7A 1A4,43.7073675,-79.8054520
170,Van Kirk Drive,L7A 1K9,43.7077058,-79.8088706
105,Van Kirk Drive,L7A 1A4,43.7079430,-79.8028765
2,Fisherman Drive,L7A 1B5,43.7147940,-79.8008685
2,Fisherman Drive,L7A 1B5,43.7148610,-79.8002860
95,Sandalwood Parkway East,L6Z 4S6,43.7224405,-79.7972805
25,Brenda Avenue,L6Y 2A1,43.6725282,-79.7568508
251,McMurchy Avenue South,L6Y 1Z4,43.6667505,-79.7482045
325,McMurchy Avenue South,L6Y 1Z4,43.6664485,-79.7466170
95,Richvale Drive North,L6Z 1Y6,43.7315820,-79.7927147
105,Richvale Drive North,L6Z 1Y6,43.7322216,-79.7952060
24,Kerwood Place,L6Z 1Y1,43.7332623,-79.7980092
296,Conestoga Drive,L6Z 3M1,43.7166670,-79.7887875
160,West Drive,L6T 5P1,43.7066865,-79.7361340
9395,Bramalea Road,L6S 4B7,43.7334435,-79.7281270
1000,Central Park Drive,L6S 3L6,43.7339374,-79.7191924
24,Goldcrest Road,L6S 1G3,43.7298515,-79.7206105
100,Dorset Drive,L6T 2Y9,43.7160487,-79.6989788
30,Finley Road,L6T 1A9,43.6892365,-79.7147650
8,Finley Road,L6T 1A9,43.6916221,-79.7109899
1100,Steeles Avenue East,L6T 1A1,43.6895192,-79.7088066
1000,Steeles Avenue East,L6T 1A1,43.6881913,-79.7105260
1300,Steeles Avenue East,L6T 1A2,43.6909819,-79.7067172
2,Copper Road,L6T 4W5,43.6890396,-79.7001527
1310,Steeles Avenue East,L6T 1A2,43.6922948,-79.7056971
1700,Steeles Avenue East,L6T 1A6,43.6986476,-79.6998101
1730,Steeles Avenue East,L6T 1A4,43.6993197,-79.6979637
2450,Queen Street East,L6S 5X9,43.7375571,-79.7038382
5,Gateway Boulevard,L6T 0H4,43.7368707,-79.7007041
253,Summerlea Road,L6T 5A8,43.7355033,-79.6999976
1,Van Der Graaf Court,L6T 5R6,43.7201621,-79.6782166
2,Van Der Graaf Court,L6T 5R6,43.7190578,-79.6798568
66,Nuggett Court,L6T 5A9,43.7213119,-79.6878452
68,Rutherford Road North,L6V 2J1,43.7043136,-79.7466168
111,Bartley Bull Parkway,L6W 2J8,43.6747961,-79.7382499
9050,Bramalea Road,L6S 6G7,43.7258300,-79.7221195
7955,Torbram Road,L6T 5B9,43.7139414,-79.6773572
2575,Steeles Avenue East,L6T 5T1,43.7156207,-79.6770767
2150,Steeles Avenue East,L6T 1A7,43.7138732,-79.6825621
2090,Steeles Avenue East,L6T 1A7,43.7114627,-79.6843951
2084,Steeles Avenue East,L6T 1A7,43.7113566,-79.6855257
2074,Steeles Avenue East,L6T 5A5,43.7104805,-79.6861064
1810,Steeles Avenue East,L6T 1A7,43.7083423,-79.6879593
115,Midair Court,L6T 5M3,43.7300751,-79.6758934
27,Armthorpe Road,L6T 5M4,43.7452790,-79.6716787
100,Parkshore Drive,L5C 2V1,43.7374530,-79.6419800
10405,Kennedy Road,L6Z 4N7,43.7242935,-79.7871370
50,Great Lakes Drive,L6R 2K7,43.7330081,-79.7680413
39,Sunset Boulevard,L6X 1X1,43.6880245,-79.7780438
35,Sunset Boulevard,L6X 1X1,43.6872230,-79.7769500
435,Rutherford Road North,L6V 3V9,43.7128709,-79.7667313
235,Kingswood Drive,L6V 3B3,43.7022650,-79.7662141
7935,Kennedy Road South,L6W 0A2,43.6751833,-79.7175402
625,Queen Street,L6Y 5L6,43.6715698,-79.7739244
20,Academic Drive,L6Y 0R7,43.6703857,-79.7727793
495,Charolais Boulevard,L6Y 0M2,43.6507394,-79.7591748
2100,Bovaird Drive East,L6R 3J7,43.7472125,-79.7438010
5,Young Drive,L6Y 0P4,43.6501573,-79.7624701
400,Ray Lawson Boulevard,L6Y 4G4,43.6539767,-79.7321947
30,Coventry Road,L6T 5P9,43.7405311,-79.6944845
2937,Queen Street East,L6T 5J1,43.7419245,-79.6965885
24,Coventry Road,L6T 5P9,43.7393350,-79.6955822
148,West Drive,L6T 5P1,43.7080070,-79.7334690
10111,Heart Lake Road,L6Z 0E4,43.7237880,-79.7695322
99,Rosedale Avenue West,L6X 1K4,43.6860807,-79.7718441
50,Ladore Drive,L6Y 1V5,43.6731099,-79.7492154
30,Peel Centre Drive,L6T 4G8,43.7166140,-79.7250605
31,Craig Street,L6Y 1J2,43.6794500,-79.7586541
275,Brisdale Drive,L7A 3C7,43.6953755,-79.8295954
2322,Embleton Road,L6X 0C9,43.6413840,-79.8094535
2594,Bovaird Drive West,L7A 0H2,43.6562255,-79.8440238
25,Pacific Wind Cres.,L6R 2B1,43.7381478,-79.7654049
1625,Wanless Drive,L6P 1A1,43.6944735,-79.8490160
7975,Hurontario Street,L6W 2E2,43.6655743,-79.7309142
7750,Hurontario Street,L6V 3W6,43.6601453,-79.7279018
89,Ardglen Drive,L6W 1V1,43.6890292,-79.7493058
49,Madoc Drive,L6V 2A1,43.7033038,-79.7497339
49,Madoc Drive,L6V 2A1,43.7033316,-79.7492505
150,Team Canada Drive,L6T 1B4,43.7183738,-79.7195419
510,Clark Boulevard,L6T 2E4,43.7230200,-79.7099392
45,Eastbourne Drive,L6T 4E9,43.7259530,-79.6994285
104,Folkstone Crescent,L6T 3M5,43.7301249,-79.7065127
702,Balmoral Drive,L6T 1X3,43.7219370,-79.6961840
702,Balmoral Drive,L6T 1X3,43.7222025,-79.6958235
698,Balmoral Drive,L6T 1X1,43.7220205,-79.7000618
698,Balmoral Drive,L6T 1Z1,43.7218735,-79.6996697
8450,Torbram Road,L6T 4M9,43.7216539,-79.6905252
8458,Torbram Road,L6T 4M9,43.7220743,-79.6912346
723,Balmoral Drive,L6T 1X5,43.7188104,-79.6934962
104,Folkstone Crescent,L6T 3M5,43.7299938,-79.7066164
510,Clark Boulevard,L6T 2E4,43.7230279,-79.7106968
28,Red River Drive,L6R 2H9,43.7566290,-79.7467673
50,Earnscliffe Circle,L6T 2B2,43.7231179,-79.7047080
45,Daviselm Drive,L6X 0Z3,43.6680925,-79.7871382
71,Worthington Avenue,L7A 1N9,43.6846738,-79.8182244
62,Heatherdale Drive,L7A 2H4,43.6861536,-79.8198585
10098,McLaughlin Road North,L7A 2X6,43.6973184,-79.8002512
85,Steeles Avenue West,L6Y 0B5,43.6642512,-79.7337004
145,Treeline Boulevard,L6P 1E7,43.7783113,-79.7334967
30,Chapparal Drive,L6R 3C4,43.7611507,-79.7557848
450,Fernforest Drive,L5R 2P7,43.7527210,-79.7687325
100,Dewside Drive,L6R 3B6,43.7539228,-79.7671638
10815,Dixie Road,L6R 2W5,43.7524737,-79.7757450
2490,Sandalwood Parkway East,L6R 3A4,43.7651360,-79.7495870
9775,Creditview Road,L6X 0H7,43.6727681,-79.8121185
200,Valleyway Drive,L6X 0N3,43.6727616,-79.8074272
62,Seaborn Road,L6V 2C1,43.7063952,-79.7468298
225,Balmoral Drive,L6T 1V4,43.7072148,-79.7131375
330,Balmoral Drive,L6T 1V6,43.7113310,-79.7111664
10250,Kennedy Road,L6Z 4N7,43.7195895,-79.7827600
10260,Kennedy Road North,L6Z 4N7,43.7202615,-79.7836830
83,McCrimmon Drive,L7A 2Z3,43.6904133,-79.8269440
1,President's Choice Circle,L6Y 5S5,43.6180355,-79.7688425
35,Black Oak Dr,L6R 1B9,43.7443365,-79.7599005
275,Fernforest Drive,L6R 1L9,43.7467519,-79.7570977
56,Oaklea Boulevard,L6Y 4G5,43.6467139,-79.7350831
745,Intermodal Drive,L6T 5W2,43.7389789,-79.6589584
7855,Finch Avenue West,L6T 0B2,43.7424078,-79.6410446
3389,Steeles Avenue East,L6T 5W6,43.7298186,-79.6593908
9455,Mississauga Road,L6X 0B3,43.6579026,-79.8124940
415,Great Lakes Drive,L6R 2Z4,43.7399227,-79.7702028
285,Great Lakes Drive,L6R 2R8,43.7363877,-79.7676524
300,Great Lakes Drive,L6R 2W7,43.7358304,-79.7698333
50,Somerset Drive,L6Z 1C7,43.7287580,-79.8036457
291,Great Lakes Drive,L6R 2Z4,43.7374773,-79.7695094
65,Mount Royal Circle,L6P 2K4,43.7905007,-79.7483302
900,Peter Robertson Boulevard,L6R 1A2,43.7476350,-79.7468725
13,Fisherman Drive,L7A 2X9,43.7137041,-79.7996270
1,Fisherman Drive,L7A 2X9,43.7143010,-79.7994565
9,Fisherman Drive,L7A 2X9,43.7138098,-79.7989261
133,Thorndale Road,L6P 1K5,43.7816735,-79.6695889
97,Gallucci Crescent,L6P 1R6,43.7716469,-79.6707196
2100,Bovaird Drive East,L6R 3J7,43.7470704,-79.7431320
510,Charolais Boulevard,L6Y0R5,43.6504922,-79.7604692
81,Torrance Woods,L6Y 2X4,43.6592132,-79.7601791
630,Ray Lawson Boulevard,L6Y 4W8,43.6465688,-79.7430770
91,Sandalwood Parkway East,L6Z 4S6,43.7222735,-79.7976160
9418,The Gore Road,L6P 0A8,43.7802620,-79.6748550
200,Valleyway Drive,L6X 0N3,43.6730052,-79.8067467
130,Sandalwood Parkway West,L7A 1A8,43.7147939,-79.8093478
11,Fisherman Drive,L7A 2X9,43.7132303,-79.7985045
7585,Financial Drive,L6Y 5P4,43.6252859,-79.7577972
9250,Airport Road,L6S 6G6,43.7487798,-79.7045822
25,Corporation Drive,L6S 6A2,43.7386407,-79.7101589
52,Peel Centre Drive,L6T 0E2,43.7142878,-79.7265445
1200,Steeles Avenue East,L6T 1A1,43.6899601,-79.7077795
1150,Steeles Avenue East,L6T 1A1,43.6897362,-79.7080445
370,Kennedy Road South,L6W 4V2,43.6784462,-79.7234217
52,Birchbank Road,L6T 1L7,43.7027363,-79.7058472
105,Heart Lake Road North,L6W 3K1,43.6991480,-79.7315138
233,Balmoral Drive,L6T 1V5,43.7083862,-79.7123736
10,North Park Drive,L6S 3M1,43.7200689,-79.7497337
1,Theatre Lane,L6V 0A3,43.6871375,-79.7601350
36,Queen Street East,L6V 1A2,43.6869023,-79.7592852
141,Kennedy Road North,L6V 1X8,43.7029390,-79.7602590
30,Pantomine Boulevard,L6Y 5N2,43.6408943,-79.7551066
1285,Williams Parkway East,L6S 3J8,43.7306152,-79.7320552
100,Hilldale Crescent,L6S 2N3,43.7284751,-79.7280018
100,Dorset Drive,L6T 2Y9,43.7164298,-79.6993495
300,Balmoral Drive,L6T 1V6,43.7104995,-79.7117390
201,Clark Boulevard,L6T 2C9,43.7144508,-79.7179359
330,Balmoral Drive,L6T 1V6,43.7109907,-79.7112805
60,Bramalea Road,L6T 2W8,43.7069221,-79.6948721
50,Bramalea Road,L6T 2W8,43.7058595,-79.6934877
2070,Steeles Avenue East,L6T 1A7,43.7098509,-79.6870478
100,Ken Whillans Drive,L6V 0A4,43.6922110,-79.7640585
97,Gallucci Crescent,L6P 1R6,43.7715045,-79.6709525
24,Regan Road,L7A 1A7,43.7027125,-79.8057360
75,Braydon Boulevard,L6P 2S4,43.7730185,-79.7345865
39,Herkley Drive,L6V 2E7,43.7082577,-79.7472357
77,Royal Orchard Drive,L6X 4M4,43.6946932,-79.7861104
25,Kanata Road,L7A 3R2,43.7077479,-79.8211865
100,Hilldale Crescent,L6S 2N3,43.7291255,-79.7281255
95,Massey Street,L6S 3A3,43.7381942,-79.7464797
950,North Park Drive,L6S 3L5,43.7364652,-79.7426958
550,North Park Drive,L6S 4J8,43.7279350,-79.7541317
48,Jefferson Road,L6S 2N9,43.7384158,-79.7309178
1025,North Park Drive,L6S 4E1,43.7418308,-79.7330583
1140,Central Park Drive,L6S 2C9,43.7366516,-79.7163048
33,Greenbriar Road,L6S 1V8,43.7381048,-79.7181629
63,Glenforest Road,L6S 1L8,43.7336497,-79.7244672
24,Goldcrest Road,L6S 1G3,43.7296432,-79.7200783
1370,Williams Parkway East,L6S 1V3,43.7375880,-79.7276648
111,Larkspur Road,L6R 1X2,43.7543652,-79.7494828
365,Father Tobin Road,L6R 0R4,43.7591196,-79.7669809
235,Father Tobin Road,L6R 0G2,43.7660500,-79.7596908
286,Sunny Meadow Boulevard,L6R 3C3,43.7604372,-79.7584642
75,Mary Street,L6W 3K5,43.6837398,-79.7521873
66,Main Street South,L6W 2C6,43.6836283,-79.7537578
10,Father Tobin Road,L6R 3K2,43.7749865,-79.7521782
40,Eagle Plains Drive,L6R 2X8,43.7738088,-79.7424242
280,Mountainash Road,L6R 3G2,43.7716288,-79.7443491
2671,Sandalwood Parkway East,L6R 0K7,43.7655552,-79.7432521
250,Centre Street North,L6V 2R4,43.6999253,-79.7662094
300,Conestoga Drive,L6Z 3M1,43.7148217,-79.7868991
296,Conestoga Drive,L6Z 3M1,43.7158893,-79.7883573
2,Notre Dame Avenue,L6Z 4L5,43.7190333,-79.7793633
103,Richvale Drive South,L6Z 4G6,43.7249895,-79.7797140
25,Bloomsbury Avenue,L6P 1W9,43.7845825,-79.7294810
10750,Chinguacousy Road,L7A 2Z7,43.6996373,-79.8286717
30,Main Street South,L6W 2C4,43.6853745,-79.7584760
255,North Park Drive,L6Y 3M6,43.7237983,-79.7509902
25,Mount Royal Circle,L6P 1W3,43.7911561,-79.7473151
7575,Kennedy Road,L6W 4T2,43.6673655,-79.7083970
10970,Airport Road,L6R 0E1,43.7814420,-79.7496205
251,Mcmurchy Ave South,L6Y 1Z4,43.6661848,-79.7490930
325,Mcmurchy Avenue South,L6Y 1Z4,43.6661779,-79.7468774
10193,Heritage Road,L7A 0A1,43.6612739,-79.8435243
25,Laurelcrest Street,L6S 4C4,43.7109593,-79.7369635
140,Howden Boulevard,L6S 2G1,43.7224394,-79.7289626
35,Mccrimmon Drive,L7A 2Z5,43.6870292,-79.8287081
83,McCrimmon Drive,L7A 2Z3,43.6902554,-79.8267981
370,Brisdale Drive,L7A 3K7,43.6983570,-79.8372610
34,Buick Boulevard,L7A 3B9,43.6967408,-79.8374995
236,Queen Mary Drive,L7A 3L3,43.7052968,-79.8186219
254,Queen Mary Drive,L7A 3L6,43.7065453,-79.8194041
475,Father Tobin Road,L6R 0J9,43.7568050,-79.7710955
475,Father Tobin Dr,L6R 0J9,43.7564534,-79.7711144
61,Edenbrook Hill Drive,L7A 1X6,43.6959072,-79.8078375
83,Edenbrook Hill Drive,L7A 2N7,43.6957828,-79.8108050
100,Commuter Drive,L7A 0P7,43.6772447,-79.8233312
140,Winterfold Drive,L6V 3V8,43.7149885,-79.7670816
435,Rutherford Road North,L6V 3V9,43.7129660,-79.7670044
375,Centre Street North,L6V 4N4,43.7068550,-79.7724633
811,Bovaird Drive West,L6X 0T9,43.6876995,-79.8048495
10,Castle Oaks Crossing,L6P 3A2,43.7889250,-79.6830048
9916,The Gore Road,L6P 0A7,43.7893128,-79.6883689
45,Ironshield Drive,L6P 3N5,43.7906764,-79.6696725
3978,Cottrelle Boulevard,L6P 2R1,43.7848813,-79.6610524
3960,Cottrelle Boulevard,L6P 2R1,43.7844085,-79.6615376
9225,The Gore Road,L6P 0B6,43.7776141,-79.6680118
45,Meltwater Crescent,L6P 3V8,43.7956221,-79.6755711
160,Calderstone Road,L6P 2L7,43.7719895,-79.6918072
55,Lexington Road,L6P 2A9,43.7747521,-79.6979262
80,Redwillow Road,L6P 2B1,43.7735896,-79.7016436
135,Father Tobin Road,L6R 0W9,43.7702296,-79.7548255
115,Father Tobin Road,L6R 0W9,43.7707725,-79.7542630
563,Bovaird Drive East,L6V 3V6,43.7166415,-79.7750745
103,Malta Avenue,L6Y 4C8,43.6611906,-79.7310758
115,Glenvale Boulevard,L6S 3J7,43.7337895,-79.7159249
657,Queen Street West,L6Y 5L6,43.6713510,-79.7752103
17,Colonel Bertram Road,L6Z 4N8,43.7276485,-79.8151235
25,Wardsville Drive,L6Y 0T7,43.6346927,-79.7798265
8,Parkway Avenue,L6X 2G4,43.6767327,-79.7792459
9980,McVean Drive,L6P 2S5,43.7818105,-79.7003565
526,Fernforest Drive,L6R 0W1,43.7562863,-79.7748402
60,Ingleborough Drive,L6X 0X5,43.6596679,-79.8033545
25,Riverstone Drive,L6P 2V6,43.7654982,-79.6743370
40,Fairlawn Boulevard,L6P 2X4,43.7679137,-79.7258714
425,Great Lakes Drive,L6R 2W8,43.7408340,-79.7716345
922,North Park Drive,L6S 3Y5,43.7337572,-79.7448277
156,West Drive,L6T 5P1,43.7075280,-79.7353120
364,Bartley Bull Parkway,L6W 2L8,43.6776734,-79.7270840
430,Van Kirk Drive,L7A 0J2,43.7207511,-79.8263677
2450,Queen Street East,L6S 5X9,43.7375914,-79.7036060
2450,Queen Street East,L6S 5X9,43.7372346,-79.7042365
40,Elizabeth Street South,L6Y 1R1,43.6827725,-79.7586036
10,Gardenbrooke Trail,L6P 3L1,43.7850166,-79.6771261
120,Harbourtown Crescent,L6V 4P3,43.7215358,-79.7656003
120,Harbourtown Crescent,L6V 4P3,43.7214935,-79.7655910
20,Loaferâ€™s Lake Lane,L6Z 1X9,43.7257030,-79.8000985
2,Core Crescent,L6W 2G7,43.6775655,-79.7435575
4,Core Crescent,L6W 2G7,43.6774445,-79.7433090
6,Core Crescent,L6W 2G7,43.6773785,-79.7431485
8,Core Crescent,L6W 2G7,43.6772805,-79.7430070
10,Core Crescent,L6W 2G7,43.6771950,-79.7427705
12,Core Crescent,L6W 2G7,43.6770665,-79.7429085
14,Core Crescent,L6W 2G7,43.6769550,-79.7430650
16,Core Crescent,L6W 2G7,43.6768250,-79.7431780
18,Core Crescent,L6W 2G7,43.6766870,-79.7433180
20,Core Crescent,L6W 2G7,43.6764970,-79.7435135
22,Core Crescent,L6W 2G7,43.6765595,-79.7436720
24,Core Crescent,L6W 2G7,43.6766520,-79.7438650
10420,Heart Lake Road,L6Z 4S2,43.7324907,-79.7770498
8999,The Gore Road,L6P 2P7,43.7721622,-79.6628324
120,Fernforest Drive,L6R 1L3,43.7386755,-79.7527330
52,Queen Street East,L6V 1A2,43.6870780,-79.7591464
11948,The Gore Road,L6P 0A2,43.8176610,-79.7268800
11948,The Gore Road,L6P 0A2,43.8180857,-79.7273354
2322,Embleton Road,L6X 0C9,43.6417297,-79.8098263
225,Castle Oaks Crossing,L6P 3X3,43.7964549,-79.6667782
235,Castle Oaks Crossing,L6P 3X3,43.7965426,-79.6658666
245,Castle Oaks Crossing,L6P 3X3,43.7970628,-79.6662903
75,Jordensen Drive,L6X 0S1,43.6696505,-79.8008856
15,Gateway Boulevard,L6T 0H4,43.7380634,-79.7008046
25,Gateway Boulevard,L6T 0H4,43.7380254,-79.7014650
2091,Hurontario Street,L6Z 4P8,43.7359035,-79.8268712
12,Beech Street,L6V 1V1,43.6946160,-79.7524610
265,Queen Street East,L6W 2C2,43.7017651,-79.7419218
40,Ross Drive,L6R 3S7,43.7505725,-79.7841485
10150,The Gore Road,L6P 0A6,43.7938165,-79.6940965
1660,North Park Drive,L6S 4B4,43.7465185,-79.7331195
11613,Bramalea Road,L6R 0C2,43.7694000,-79.7768320
420,Balmoral Drive,L6T 1V9,43.7139073,-79.7085317
37,Millstone Drive,L6Y 4G1,43.6478996,-79.7475379
160,Salvation Road,L7A 0G2,43.6766727,-79.8195695
2051,Embleton Road,L6Y 0E9,43.6434195,-79.8005730
56,Kenpark Avenue,L6Z 3L5,43.7463220,-79.8075670
54,Kenpark Avenue,L6Z 3L5,43.7462870,-79.8077565
52,Kenpark Avenue,L6Z 3L5,43.7462785,-79.8079500
50,Kenpark Avenue,L6Z 3L5,43.7462630,-79.8081330
48,Kenpark Avenue,L6Z 3L5,43.7462490,-79.8083455
2,Meridian Road,L6S 3R2,43.7339360,-79.7349425
4,Meridian Road,L6S 3R2,43.7338281,-79.7349224
6,Meridian Road,L6S 3R2,43.7337280,-79.7349187
8,Meridian Road,L6S 3R2,43.7336140,-79.7348818
10,Meridian Road,L6S 3R2,43.7335055,-79.7348025
12,Meridian Road,L6S 3R2,43.7334084,-79.7347115
14,Meridian Road,L6S 3R2,43.7333205,-79.7345970
16,Meridian Road,L6S 3R2,43.7332396,-79.7344952
18,Meridian Road,L6S 3R2,43.7331405,-79.7343570
20,Meridian Road,L6S 3R2,43.7330440,-79.7342350
22,Meridian Road,L6S 3R2,43.7329723,-79.7341143
24,Meridian Road,L6S 3R2,43.7328706,-79.7339989
26,Meridian Road,L6S 3R2,43.7327851,-79.7339032
28,Meridian Road,L6S 3R2,43.7326930,-79.7337787
30,Meridian Road,L6S 3R2,43.7325946,-79.7336380
32,Meridian Road,L6S 3R2,43.7325179,-79.7335291
34,Meridian Road,L6S 3R2,43.7324249,-79.7334078
30,Coppermill Drive,L7A 1M8,43.7116442,-79.8115619
32,Coppermill Drive,L7A 1M8,43.7116065,-79.8115118
34,Coppermill Drive,L7A 1M8,43.7115500,-79.8114285
36,Coppermill Drive,L7A 1M8,43.7115127,-79.8113774
38,Coppermill Drive,L7A 1M8,43.7114565,-79.8112970
40,Coppermill Drive,L7A 1M8,43.7114189,-79.8112438
42,Coppermill Drive,L7A 1M8,43.7113656,-79.8111740
44,Coppermill Drive,L7A 1M8,43.7113322,-79.8111262
46,Coppermill Drive,L7A 1M8,43.7112568,-79.8110513
37,Twin Pines Crescent,L7A 1M8,43.7106522,-79.8116186
43,Twin Pines Crescent,L7A 1M8,43.7107842,-79.8114731
41,Twin Pines Crescent,L7A 1M8,43.7107404,-79.8115214
45,Twin Pines Crescent,L7A 1M8,43.7108271,-79.8114260
39,Twin Pines Crescent,L7A 1M8,43.7106948,-79.8115717
47,Twin Pines Crescent,L7A 1M8,43.7108821,-79.8113446
49,Twin Pines Crescent,L7A 1M8,43.7109565,-79.8112738
51,Twin Pines Crescent,L7A 1M8,43.7110222,-79.8112078
53,Twin Pines Crescent,L7A 1M8,43.7110802,-79.8111346
55,Twin Pines Crescent,L7A 1M8,43.7112250,-79.8110058
60,Twin Pines Crescent,L7A 1M8,43.7103284,-79.8111690
62,Twin Pines Crescent,L7A 1M8,43.7103740,-79.8111241
64,Twin Pines Crescent,L7A 1M8,43.7104326,-79.8110629
66,Twin Pines Crescent,L7A 1M8,43.7104793,-79.8110145
78,Twin Pines Crescent,L7A 1M8,43.7107635,-79.8107124
80,Twin Pines Crescent,L7A 1M8,43.7108058,-79.8106675
72,Twin Pines Crescent,L7A 1M8,43.7106311,-79.8108532
70,Twin Pines Crescent,L7A 1M8,43.7105860,-79.8109011
76,Twin Pines Crescent,L7A 1M8,43.7107210,-79.8107576
68,Twin Pines Crescent,L7A 1M8,43.7105416,-79.8109484
74,Twin Pines Crescent,L7A 1M8,43.7106766,-79.8108047
82,Twin Pines Crescent,L7A 1M8,43.7108494,-79.8106210
84,Twin Pines Crescent,L7A 1M8,43.7109158,-79.8105468
86,Twin Pines Crescent,L7A 1M8,43.7109656,-79.8105065
88,Twin Pines Crescent,L7A 1M8,43.7110402,-79.8104268
90,Twin Pines Crescent,L7A 1M8,43.7110910,-79.8104065
92,Twin Pines Crescent,L7A 1M8,43.7111651,-79.8103827
94,Twin Pines Crescent,L7A 1M8,43.7112194,-79.8103622
59,Eldomar Avenue,L6W 1P9,43.6811765,-79.7458610
61,Eldomar Avenue,L6W 1P9,43.6812895,-79.7457910
63,Eldomar Avenue,L6W 1P9,43.6813940,-79.7456505
65,Eldomar Avenue,L6W 1P9,43.6815185,-79.7455390
67,Eldomar Avenue,L6W 1P9,43.6816415,-79.7454395
69,Eldomar Avenue,L6W 1P9,43.6817110,-79.7453175
71,Eldomar Avenue,L6W 1P9,43.6818420,-79.7451845
73,Eldomar Avenue,L6W 1P9,43.6819465,-79.7450765
75,Eldomar Avenue,L6W 1P9,43.6820670,-79.7449770
77,Eldomar Avenue,L6W 1P9,43.6821250,-79.7448185
79,Eldomar Avenue,L6W 1P9,43.6822550,-79.7447280
81,Eldomar Avenue,L6W 1P9,43.6823520,-79.7445980
83,Eldomar Avenue,L6W 1P9,43.6824640,-79.7444570
85,Eldomar Avenue,L6W 1P9,43.6825865,-79.7443580
87,Eldomar Avenue,L6W 1P9,43.6826730,-79.7442470
89,Eldomar Avenue,L6W 1P9,43.6827890,-79.7441295
91,Eldomar Avenue,L6W 1P9,43.6830265,-79.7439520
1,Finchley Crescent,L6T 3P5,43.7282542,-79.7019383
3,Finchley Crescent,L6T 3P5,43.7280507,-79.7021610
5,Finchley Crescent,L6T 3P5,43.7278779,-79.7023290
7,Finchley Crescent,L6T 3P5,43.7278394,-79.7025644
9,Finchley Crescent,L6T 3P5,43.7279324,-79.7027591
11,Finchley Crescent,L6T 3P5,43.7280389,-79.7029031
15,Finchley Crescent,L6T 3P5,43.7280722,-79.7031130
17,Finchley Crescent,L6T 3P5,43.7281106,-79.7032799
19,Finchley Crescent,L6T 3P5,43.7281710,-79.7034790
21,Finchley Crescent,L6T 3P5,43.7282170,-79.7037132
23,Finchley Crescent,L6T 3P5,43.7282395,-79.7039399
25,Finchley Crescent,L6T 3P5,43.7282306,-79.7041380
27,Finchley Crescent,L6T 3P5,43.7282704,-79.7043990
29,Finchley Crescent,L6T 3P5,43.7283652,-79.7045519
31,Finchley Crescent,L6T 3P5,43.7285531,-79.7046081
33,Finchley Crescent,L6T 3P5,43.7286802,-79.7046063
35,Finchley Crescent,L6T 3P5,43.7288681,-79.7044571
37,Finchley Crescent,L6T 3P5,43.7289773,-79.7043766
39,Finchley Crescent,L6T 3P5,43.7291312,-79.7042637
41,Finchley Crescent,L6T 3P5,43.7292444,-79.7041311
43,Finchley Crescent,L6T 3P5,43.7293915,-79.7040285
45,Finchley Crescent,L6T 3P5,43.7295286,-79.7037112
9515,Mississauga Road,L6X 0B3,43.6590700,-79.8150675
155,Castle Oaks Crossing,L6P 3V4,43.7941630,-79.6716727
25,Aylesbury Drive,L7A 0V3,43.6778511,-79.8318481
90,Bonnie Braes Drive,L6Y 0Y3,43.6562985,-79.7804748
10,Lorenville Drive,L6X 2Z9,43.6633580,-79.8101367
92,Malta Avenue,L6Y 4C8,43.6579134,-79.7308220
185,Conestoga Drive,L6Z 2Z7,43.7235637,-79.7896985
10,Pinestaff Road,L6P 3X8,43.7795398,-79.6950075
25,Rising Hill Ridge,L6Y 0C3,43.6323490,-79.7836815
170,Rutherford Road North,L6V 2X9,43.7077139,-79.7547667
10125,Chinguacousy Road,L7A 3Z6,43.6912971,-79.8134430
10125,Chinguacousy Road,L7A 3Z6,43.6912952,-79.8138405
145,Jordensen Drive,L6X 0S1,43.6660439,-79.7948125
500,Elbern Markell Drive,L6X 5L3,43.6673036,-79.8262687
725,Ray Lawson Boulevard,L6Y 0T8,43.6427340,-79.7451276
10044,Heritage Road,L7A 0E7,43.6571645,-79.8421520
1940,Steeles Avenue East,L6T 1A7,43.7089037,-79.6870624
30,Tribune Drive,L7A 0X5,43.6907463,-79.8401344
485,Main Street North,L6X 1N8,43.6975825,-79.7761730
5085,Mayfield Road,L6R 3S9,43.7729735,-79.7787860
35,Resolution Drive,L6W 0A6,43.6789792,-79.7209823
235,Queen Street East,L6W 2B5,43.6961181,-79.7480892
10747,Heart Lake Road,L6Z0B7,43.7400325,-79.7849410
7875,Mayfield Road,L7E 0W1,43.8266375,-79.7176425
11765,Mayfield Road,L6R 3S9,43.7716060,-79.7775060
2100,Bovaird Drive East,L6R 3S8,43.7378905,-79.7523790
25,June Avenue,L6V 1W2,43.6955430,-79.7531973
25,Rising Hill Ridge,L6Y 0C3,43.6319965,-79.7830160
60,Olivia Marie Road,L6Y 0M4,43.6352006,-79.7717071
235,Fletchers Creek Boulevard,L6X 0Y7,43.6914215,-79.8008280
131,Twin Pines Crescent,L7A 1N5,43.7132420,-79.8113450
15,Resolution Drive,L6W 0A6,43.6803055,-79.7209105
10370,Hurontario Street,L7A 0E4,43.7131149,-79.7972487
50,Parity Road,L6X 5M8,43.6711429,-79.7933408
120,Veterans Drive,L7A 3Z7,43.6796212,-79.8411400
40,Dolbyhill Drive,L6R 3V8,43.7584962,-79.7825334
40,Dolbyhill Drive,L6R 3V8,43.7588604,-79.7823394
4075,Ebenezer Road,L6P 0S2,43.7652352,-79.6700655
35,Cherrycrest Drive,L6P3W4,43.7641348,-79.6697146
35,Cherrycrest Drive,L6P3W4,43.7638124,-79.6693746
35,Cherrycrest Drive,L6P3W4,43.7635832,-79.6694851
35,Cherrycrest Drive,L6P3W4,43.7639451,-79.6692312
117,Native Landing,L6X 5A9,43.6866938,-79.8044268
119,Native Landing,L6X 5A9,43.6866609,-79.8043792
10,Inverary Drive,L6W 3Y3,43.6634323,-79.7260131
140,Howard Stewart Road,L6Y 6B1,43.6307654,-79.7875347
9574,The Gore Road,L6P 0A8,43.7831605,-79.6786825
"2,4",Saint Grace Court,L6P 3B9,43.7824290,-79.6777970
"6,8",Saint Grace Court,L6P 3B9,43.7823295,-79.6776865
"10,12",Saint Grace Court,L6P 3B9,43.7822430,-79.6775665
"14,16",Saint Grace Court,L6P 3B9,43.7821550,-79.6774470
"18,20",Saint Grace Court,L6P 3B9,43.7820790,-79.6773205
"22,24",Saint Grace Court,L6P 3B9,43.7819895,-79.6772035
"26,28",Saint Grace Court,L6P 3B9,43.7818850,-79.6770980
"30,32",Saint Grace Court,L6P 3B9,43.7818075,-79.6769615
"34,36",Saint Grace Court,L6P 3B9,43.7817205,-79.6768485
"38,40",The Gore Road,L6P 3B9,43.7816225,-79.6767375
"42,44",Saint Grace Court,L6P 3B9,43.7815225,-79.6766305
"46,48",Saint Grace Court,L6P 3B9,43.7814405,-79.6765135
"50,52",Saint Grace Court,L6P 3B9,43.7813495,-79.6763900
"54,56",Saint Grace Court,L6P 3B9,43.7812690,-79.6762595
"58,60",Saint Grace Court,L6P 3B9,43.7811920,-79.6761350
"74,76",Saint Grace Court,L6P 3B9,43.7807320,-79.6766315
"78,80",Saint Grace Court,L6P 3B9,43.7808155,-79.6767675
"82,84",Saint Grace Court,L6P 3B9,43.7809250,-79.6768750
"86,88",Saint Grace Court,L6P 3B9,43.7810935,-79.6769285
"90,92",Saint Grace Court,L6P 3B9,43.7811960,-79.6770285
"94,96",Saint Grace Court,L6P 3B9,43.7813070,-79.6771405
"98,100",Saint Grace Court,L6P 3B9,43.7814120,-79.6772615
"102,104",Saint Grace Court,L6P 3B9,43.7815215,-79.6773965
"106,108",Saint Grace Court,L6P 3B9,43.7816225,-79.6775155
"110,112",Saint Grace Court,L6P 3B9,43.7817265,-79.6776390
"124,116",Saint Grace Court,L6P 3B9,43.7818230,-79.6777445
"118,120",Saint Grace Court,L6P 3B9,43.7819480,-79.6778580
"122,124",Saint Grace Court,L6P 3B9,43.7820615,-79.6779910
9459,The Gore Road,L6P 0B5,43.7815515,-79.6748800
120,Resolution Drive,L6W 0A7,43.6771289,-79.7239086
2,Attmar Drive,L6P 2R4,43.7672055,-79.6681840
171,Advance Boulevard,L6T 4Z7,43.6944930,-79.6911720
45,Kingknoll Drive,L6Y 5P2,43.6525195,-79.7411978
7950,Mclaughlin Road South,L6Y 5V9,43.6540178,-79.7411613
7920,Mclaughlin Road South,L6Y 5V6,43.6548654,-79.7425830
12,Pickard Lane,l6y 2m5,43.6565545,-79.7464820
90,Resolution Drive,L6W 0A7,43.6768160,-79.7220670
60,Resolution Drive,L6W 0A7,43.6780170,-79.7211845
26,Hale Road,L6W 0M0,43.6855715,-79.7194305
287,Glidden Road,L6W 1H9,43.6823770,-79.7297475
133,Kennedy Road South,L6W 3G3,43.6847240,-79.7360735
143,Heart Lake Road North,L6W 3K1,43.6982046,-79.7317288
120,Rutherford Road South,L6W 3J5,43.6955875,-79.7334040
97,Curtis Drive,L6Y 2J6,43.6652415,-79.7554135
2025,Embleton Road,L6Y 0E9,43.6439665,-79.7995165
9045,Airport Road,L6S 0B8,43.7445845,-79.6963850
100,Maritime Ontario Boulevard,L6S0E7,43.7493080,-79.6977820
30,Bramtree Court,L6S 5Z7,43.7438405,-79.7166565
16,Lisa Street,L6T 4W2,43.7139070,-79.7280310
152,West Drive,L6T 5P1,43.7081465,-79.7341470
154,West Drive,L6T 5P1,43.7083805,-79.7342100
3,Crescent Hill Drive South,L6S 2P2,43.7215815,-79.7364355
1895,Williams Parkway East,L6S 6E6,43.7449410,-79.7178255
30,Cottrelle Boulevard,L6S 0E2,43.7601415,-79.7174800
15,Milford Crescent,L6S 3E3,43.7280780,-79.7407370
2100,Bovaird Drive East,L6R 3S8,43.7383480,-79.7522820
12,William Street,L6V 1L2,43.6912640,-79.7657835
57,Mill Street North,L6X 1S9,43.6865480,-79.7673830
10,Flowertown Avenue,L6X2J9,43.6820955,-79.7800140
303,Main Street North,L6X 1N5,43.6922435,-79.7690920
358,Main Street North,L6V 1P8,43.6942389,-79.7708197
367,Main Street North,L6X 1N6,43.6941772,-79.7715674
379,Main Street North,L6X 1N7,43.6945775,-79.7721855
480,Main Street North,L6V 1P8,43.6975020,-79.7749940
28,Greenleaf Crescent,L6X 2V6,43.6971155,-79.7757865
492,Main Street North,L6V 1P9,43.6985515,-79.7763810
496,Main Street North,L6V 1P9,43.6989715,-79.7766555
506,Main Street North,L6V 1P9,43.6996250,-79.7778115
506,Main Street North,L6V 1P9,43.7000945,-79.7783025
25,Windermere Court,L6X 2L5,43.6807960,-79.7840560
5,Lowry Drive,L7A 1A3,43.7010800,-79.8036400
23,Regan Road,L7A 1B2,43.7027890,-79.8026710
6,Lowry Drive,L7A 1C4,43.7018510,-79.8046835
2,Lowry Drive,L7A 1C4,43.7026210,-79.8040135
4,Lowry Drive,L7A 1C4,43.7023210,-79.8045435
95,Remembrance Road,L7A 4W3,43.6950329,-79.8510131
4075,Ebenezer Road,L6P 0S2,43.7652143,-79.6700063
3,Dovehaven Crescent,L6P 2N8,43.7739185,-79.6959360
5,Dovehaven Crescent,L6P 2N8,43.7740030,-79.6960775
25,Ruth Avenue,L6Z 3X3,43.7221715,-79.7876315
10410,Kennedy Road,L6Z 0A7,43.7235575,-79.7880035
36,Regan Road,L7A 1C8,43.7049800,-79.8076790
38,Regan Road,L7A 1A7,43.7051560,-79.8082760
40,Regan Road,L7A 1B3,43.7053690,-79.8086135
10606,Mclaughlin Road North,L7A 0C9,43.7076635,-79.8141000
10,Rhapsody Crescent,L6P 4E7,43.7872785,-79.7418645
10178,Hurontario Street,L7A 0E4,43.7089046,-79.7922438
109,McLaughlin Road South,L6Y 2C8,43.6668683,-79.7663151
40,Fallowfield Road,L6X 0W5,43.6572711,-79.7983753
10705,Bramalea Road,L6R 0C1,43.7579573,-79.7611174
22,Botanical Avenue,L6Y 6E3,43.6551493,-79.7679720
10,Brickyard Way,L6V 4L5,43.7052223,-79.7806732
223,Main Street South,L6Y 6H1,43.6701894,-79.7397768
15,Production Road,L6T 4L7,43.7179230,-79.6678936
3495,Steeles Avenue East,L6T 5W8,43.7307292,-79.6573437
2300,North Park Drive,L6S 6C6,43.7523068,-79.7244422
20,Daviselm Drive,L6X0E6,43.6700985,-79.7875968
657,Queen Street West,L6Y 5L6,43.6712231,-79.7752204
35,Cherrycrest Drive,L6P3W4,43.7639669,-79.6690404
35,Cherrycrest Drive,L6P3W4,43.7641795,-79.6694374
35,Cherrycrest Drive,L6P3W4,43.7636375,-79.6691298
35,Cherrycrest Drive,L6P3W4,43.7637409,-79.6696096
10545,Hurontario Street,L6Z 2V9,43.7169056,-79.8009379
9055,Airport Road,L6S 0B8,43.7451411,-79.6971735
TBA,Mississauga Road,L6X 0B3,43.6591195,-79.8177535
45,Kingknoll Drive,L6Y 5P2,43.6527576,-79.7407166
35,Kingknoll Drive,L6Y 5G5,43.6531944,-79.7403637
7900,Mclaughlin Road South,L6Y 5A7,43.6541689,-79.7427007
7910,Mclaughlin Road South,L6Y 5V5,43.6543487,-79.7432330
7940,Mclaughlin Road South,L6Y 5V8,43.6535451,-79.7423454
7930,Mclaughlin Road South,L6Y 5V7,43.6539097,-79.7423687
30,Lower Thames Drive,L6Y 6C2,43.6340454,-79.7968931
19,Vetch Street,L6Y 6C2,43.6339747,-79.7969847
17,Vetch Street,L6Y 6C2,43.6338932,-79.7970847
15,Vetch Street,L6Y 6C2,43.6338110,-79.7971819
13,Vetch Street,L6Y 6C2,43.6337396,-79.7972751
14,Holtby Avenue,L6X 2M3,43.6822239,-79.7840202
2005,Countryside Drive,L6R 0N6,43.7647566,-79.7693587
30,Wheatberry Crescent,L6R 4A1,43.7636790,-79.7863335
9257,Goreway Drive,L6P 0N5,43.7574665,-79.6887925
215,Sunny Meadow Boulevard,L6R 3B5,43.7582707,-79.7547339
32,Kennedy Road North,L6V 1X4,43.6986163,-79.7512205
1001,Peter Robertson Boulevard,L6R 2Y3,43.7506955,-79.7420034
7891,McLaughlin Road,L6Y 5H8,43.6553679,-79.7358181
525,Main Street North,L6X 1N9,43.7000086,-79.7816533
31,Craig Street,L6Y 1J2,43.6796865,-79.7591150
5,Sterritt Drive,L6Y 5P3,43.6614425,-79.7733925
160,Mountainash Road,L6R 1J1,43.7639272,-79.7352003
7625,Finch Avenue,L6T 0B2,43.7364447,-79.6344476
