House number,Street name,Postal code,Latitude,Longitude
5,Wadsworth Street,N3T 3V5,43.1465125,-80.2654516
61,Lynden Road,N3R 7J9,43.1743712,-80.2431098
85,Emilie Street,N3S 1T1,43.1284011,-80.2504321
230,Shellard Lane,L3T 5L5,43.1224393,-80.2983866
230,Shellard Lane,N3T 5L5,43.1220227,-80.2988040
300,King George Road,N3R 5L8,43.1818422,-80.2810868
324,Rawdon,N3S 6H8,43.1487269,-80.2492840
155,Lynden Road,N3R 8A7,43.1754822,-80.2352620
51,Woodyatt Drive,N3T 5M3,43.1703967,-80.2366512
50,Market Street South,N3S 2E3,43.1364650,-80.2620035
84,Lynden Road,N3R 6B8,43.1714953,-80.2397267
673,Colborne Street,N3S 3M8,43.1406561,-80.2363871
904,Colborne Street East,N3S 3T4,43.1447503,-80.2171624
16,Roy Boulevard,N3R 7K2,43.1750541,-80.2267126
205,Colborne Street,N3T 2G8,43.1384566,-80.2623073
119,Jennings Road,N3T 5L7,43.1437166,-80.3090150
530,King George Road,N3T 5L8,43.2019740,-80.2802557
58,King George Road,N3R 5K4,43.1641492,-80.2738520
360,Conklin Road,N3T 0G8,43.1141566,-80.2940068
360,Conklin Road,N3T 0E9,43.1136402,-80.2934104
495,Mount Pleasant Road,N3T 5L5,43.1029419,-80.2994333
360,Conklin Road,N3T 0E9,43.1136674,-80.2936835
360,Conklin Road,N3T 0E9,43.1137737,-80.2936304
360,Conklin Road,N3T 0E9,43.1137948,-80.2937985
75,Dalhousie Street,N3T 2J1,43.1391549,-80.2650895
360,Conklin Road,N3T 0E9,43.1138973,-80.2937479
88,Balfour Street,N3T 1J7,43.1314206,-80.2755611
360,Conklin Road,N3T 0E9,43.1137327,-80.2933675
360,Conklin Road,N3T 0E9,43.1138058,-80.2931923
750,Colborne Street,N3S 3S1,43.1434594,-80.2298080
164,Colborne Street West,N3T 2L1,43.1313651,-80.2768454
363,Colborne Street,N3S 3N2,43.1388527,-80.2558940
423,Colborne Street,N3S 3N5,43.1390814,-80.2526767
221,Brant Avenue,N3T 3J3,43.1469464,-80.2760046
124,Charing Cross Street,N3R 2J1,43.1588276,-80.2641671
150,Brant Avenue,N3T 3H7,43.1441966,-80.2742412
104-265,King George Road,N3R 6Y1,43.1761386,-80.2803237
300,King George Road,N3R 5L8,43.1805183,-80.2799531
595,West Street,N3R 7J2,43.1695035,-80.2475825
99,Wayne Gretzky Parkway,N3S 6T6,43.1455734,-80.2352277
225,Fairview Drive,N3R 7E3,43.1704198,-80.2636434
265,King George Road,N3R 5L5,43.1764090,-80.2804541
82,King George Road,N3R 5K4,43.1654015,-80.2730819
20,King George Road,N3R 5J9,43.1616171,-80.2730084
627,Park Road North,N3T 5L8,43.1851801,-80.2501669
422,Colborne Street,N3S 3N5,43.1393713,-80.2526983
48,Lida Street,N3S 2R4,43.1252082,-80.2474388
422,Colborne Street,N3S 3N5,43.1395964,-80.2527251
84,King George Road,N3R 5K4,43.1660672,-80.2746154
1,Market Street,N3T 2H1,43.1393431,-80.2622485
515,Park Road North,N3R 7K8,43.1820703,-80.2487969
45,Dalkeith Drive,N3P 1M1,43.1768684,-80.2364793
27,King George Road,N3R 5J8,43.1618600,-80.2740952
58,Dalhousie Street,N3T 2J2,43.1394304,-80.2656370
95,Cayuga Street,N3S 1X1,43.1292073,-80.2584531
45,Dalkeith Drive,N3P 1M1,43.1769410,-80.2362801
70,Hardy Road,N3T 5K6,43.1646062,-80.2975206
62,Queensway Drive,N3R 4W8,43.1614306,-80.2827855
358,Marlborough Street,N3S 4V1,43.1467682,-80.2417486
265,Rawdon Street,N3S 6G7,43.1454834,-80.2477411
27,Stanley Street,N3S 6M1,43.1411667,-80.2452147
130,Colborne Street West,N3T 1L1,43.1326461,-80.2754205
10,Blackfriar Lane,N3R 6C5,43.1766647,-80.2554401
17,Ravenwood Road,N3R 6L4,43.1806074,-80.2580296
60,Ashgrove Avenue,N3R 6E5,43.1840841,-80.2624159
135,George Street,N3W 2B2,43.1445146,-80.2621808
43,Cambridge Drive,N3R 5E3,43.1720185,-80.2882749
115,Sinclair Boulevard,N3S 7X6,43.1686440,-80.2267083
85,Clench Avenue,N3T 1C1,43.1262624,-80.2688775
60,Tecumseh Street,N3S 2B5,43.1244072,-80.2590750
389,West Street,N3R 3V9,43.1568082,-80.2553539
100,Wellington Square,N3T 2M3,43.1419228,-80.2622159
4,Pearl Street,N3T 3N4,43.1418916,-80.2683971
184,Mohawk Street,N3S 2X2,43.1276491,-80.2404033
99,Wayne Gretzky Parkway,N3S 6T6,43.1463391,-80.2352365
425,Park Road North,N3R 7G5,43.1786256,-80.2475156
80,Morton Avenue East,N3R 7J7,43.1607054,-80.2445586
127,Wood Street,N3R 2L4,43.1653386,-80.2722217
228,Clarence Street,N3R 3T5,43.1499471,-80.2607901
238,Brantwood Park Road,N3P 1N9,43.1807522,-80.2348182
97,Tenth Avenue,N3S 1G5,43.1231150,-80.2512623
14,Flanders Drive,N3T 6M2,43.1230661,-80.2939760
21,Preston Boulevard,N3T 5B1,43.1509547,-80.2884470
251,Powerline Road,N3T 5L8,43.1926387,-80.2420080
365,Blackburn Drive,N3T 0G5,43.1103734,-80.2978546
365,Blackburn Drive,N3T 0G5,43.1099194,-80.2977012
365,Blackburn Drive,N3T 0G5,43.1095246,-80.2980072
33,Dowden Avenue,N3T 0A3,43.1232000,-80.2977020
595,West Street,N3R 7C5,43.1702145,-80.2467592
206,Henry Street,N3S 6V1,43.1547652,-80.2400469
620,West Street,N3R 6M7,43.1714172,-80.2483713
610,West Street,N3R 6M7,43.1706283,-80.2481809
444,Fairview Drive,N3R 2X8,43.1718612,-80.2485017
605,West Street,N3R 7C5,43.1705134,-80.2470011
106,Chestnut Avenue,N3T 4C6,43.1434205,-80.2812717
120,Brant Avenue,N3T 3H3,43.1426159,-80.2740708
141,Banbury Road,N3P 1E3,43.1892407,-80.2357863
120,Ninth Avenue,N3S 1E7,43.1212788,-80.2501700
105,Rawdon Street,N3S 6C7,43.1373585,-80.2468815
320,Fairview Drive,N3R 2X6,43.1696945,-80.2577467
627,Colborne Street,N3S 3M8,43.1390351,-80.2386983
109,Charlotte Street,N3T 2X4,43.1446603,-80.2610897
115,Charlotte Street,N3T 2X4,43.1448494,-80.2611107
9,Royal Oak Drive,N3R 7P2,43.1826710,-80.2772372
10,Royal Oak Drive,N3R 7P2,43.1819654,-80.2770664
11,Royal Oak Drive,N3R 7P2,43.1828447,-80.2771695
12,Royal Oak Drive,N3R 7P2,43.1820454,-80.2767528
14,Royal Oak Drive,N3R 7P2,43.1821525,-80.2765932
15,Royal Oak Drive,N3R 7P2,43.1829600,-80.2769608
17,Royal Oak Drive,N3R 7P2,43.1829727,-80.2767316
19,Royal Oak Drive,N3R 7P2,43.1828860,-80.2765155
21,Royal Oak Drive,N3R 7P2,43.1827404,-80.2764023
37,Royal Oak Drive,N3R 7P2,43.1834265,-80.2754116
39,Royal Oak Drive,N3R 7P2,43.1835131,-80.2752543
41,Royal Oak Drive,N3R 7P2,43.1836032,-80.2751045
43,Royal Oak Drive,N3R 7P2,43.1836988,-80.2749807
45,Royal Oak Drive,N3R 7P2,43.1838337,-80.2748521
47,Royal Oak Drive,N3R 7P2,43.1839468,-80.2746690
55,Diana Avenue,N3T 0C2,43.1253061,-80.2855306
248,Lynden Road,N3T 5W4,43.1755346,-80.2271622
55,Kent Road,N3R 7X8,43.1755119,-80.2856074
300,King George Road,N3R 5L7,43.1826071,-80.2782452
11,Sinclair Boulevard,N3S 7X6,43.1707464,-80.2152500
723,Colborne Street East,N3S 3R5,43.1416667,-80.2326340
618,Colborne Street East,N3S 3P7,43.1405682,-80.2418617
618,Colborne Street East,N3S 3P7,43.1405290,-80.2415094
175,Glenwood Drive,N3S 3H1,43.1433369,-80.2196831
81,Peel Street,N3S 5M2,43.1398791,-80.2532800
793,Colborne Street,N3S 3S3,43.1430510,-80.2254960
11,White Oaks Avenue,N3R 5N8,43.1776914,-80.2730859
41,Ellenson Drive,N3R 3E7,43.1755936,-80.2658232
68,North Park Street,N3R 4J9,43.1574566,-80.2708367
40,Morton Avenue,N3R 2N5,43.1622506,-80.2574307
218,Brant Avenue,N3T 3H9,43.1465987,-80.2763238
51,Woodman Drive,N3S 4K3,43.1467026,-80.2304163
365,Blackburn Drive,N3T 0G5,43.1104164,-80.2985271
257,Shellard Lane,N3T 0M7,43.1207182,-80.2962859
2,Turnbull Drive,N3T 0K4,43.1091867,-80.3017471
4,Turnbull Drive,N3T 0K4,43.1091330,-80.3018826
6,Turnbull Drive,N3T 0K4,43.1090695,-80.3020265
8,Turnbull Drive,N3T 0K4,43.1090083,-80.3021573
10,Turnbull Drive,N3T 0K4,43.1089351,-80.3023029
12,Turnbull Drive,N3T 0K4,43.1088036,-80.3024556
14,Turnbull Drive,N3T 0K4,43.1086554,-80.3024716
16,Turnbull Drive,N3T 0K4,43.1085094,-80.3024095
18,Turnbull Drive,N3T 0K4,43.1084027,-80.3023113
20,Turnbull Drive,N3T 0K4,43.1082402,-80.3021323
22,Turnbull Drive,N3T 0K4,43.1081767,-80.3022895
25,Turnbull Drive,N3T 0K4,43.1078613,-80.3019598
7,Turnbull Drive,N3T 0K4,43.1087033,-80.3019022
9,Turnbull Drive,N3T 0K4,43.1085953,-80.3018165
11,Turnbull Drive,N3T 0K4,43.1084929,-80.3017498
15,Turnbull Drive,N3T 0K4,43.1083889,-80.3016650
17,Turnbull Drive,N3T 0K4,43.1082866,-80.3015804
19,Turnbull Drive,N3T 0K4,43.1080929,-80.3015606
21,Turnbull Drive,N3T 0K4,43.1079807,-80.3016961
23,Turnbull Drive,N3T 0K4,43.1079145,-80.3018450
7,Cheevers Road,N3T 0K4,43.1097472,-80.3015364
27,Cheevers Road,N3T 0K4,43.1087754,-80.3008067
25,Cheevers Road,N3T 0K4,43.1088881,-80.3008970
23,Cheevers Road,N3T 0K4,43.1089920,-80.3009715
21,Cheevers Road,N3T 0K4,43.1090995,-80.3010597
19,Cheevers Road,N3T 0K4,43.1092024,-80.3011226
17,Cheevers Road,N3T 0K4,43.1093086,-80.3012219
15,Cheevers Road,N3T 0K4,43.1094072,-80.3012891
11,Cheevers Road,N3T 0K4,43.1095176,-80.3013854
9,Cheevers Road,N3T 0K4,43.1096340,-80.3014414
29,Cheevers Road,N3T 0K4,43.1086728,-80.3007364
31,Cheevers Road,N3T 0K4,43.1085603,-80.3006497
33,Cheevers Road,N3T 0K4,43.1084650,-80.3005706
35,Cheevers Road,N3T 0K4,43.1083602,-80.3004751
113,Gillespie Drive,N3T 0K4,43.1081496,-80.3003949
20,Cheevers Road,N3T 0K4,43.1088454,-80.3015544
22,Cheevers Road,N3T 0K4,43.1087375,-80.3014633
24,Cheevers Road,N3T 0K4,43.1086500,-80.3014073
26,Cheevers Road,N3T 0K4,43.1085679,-80.3013357
28,Cheevers Road,N3T 0K4,43.1084816,-80.3012758
30,Cheevers Road,N3T 0K4,43.1083890,-80.3012090
32,Cheevers Road,N3T 0K4,43.1083057,-80.3011412
34,Cheevers Road,N3T 0K4,43.1082243,-80.3010666
36,Cheevers Road,N3T 0K4,43.1081399,-80.3010051
47,Cheevers Road,N3T 0K3,43.1076181,-80.2999302
49,Cheevers Road,N3T 0K3,43.1075349,-80.2998558
51,Cheevers Road,N3T 0K3,43.1074431,-80.2998041
53,Cheevers Road,N3T 0K3,43.1073533,-80.2997185
55,Cheevers Road,N3T 0K3,43.1072659,-80.2996439
57,Cheevers Road,N3T 0K3,43.1071504,-80.2995567
59,Cheevers Road,N3T 0K3,43.1070511,-80.2994895
61,Cheevers Road,N3T 0K3,43.1069395,-80.2993949
44,Cheevers Road,N3T 0K3,43.1076200,-80.3006108
46,Cheevers Road,N3T 0K3,43.1075407,-80.3005253
48,Cheevers Road,N3T 0K3,43.1074492,-80.3004811
50,Cheevers Road,N3T 0K3,43.1073604,-80.3004194
52,Cheevers Road,N3T 0K3,43.1072760,-80.3003454
54,Cheevers Road,N3T 0K3,43.1071893,-80.3002733
56,Cheevers Road,N3T 0K3,43.1070964,-80.3002197
58,Cheevers Road,N3T 0K3,43.1070146,-80.3001383
60,Cheevers Road,N3T 0K3,43.1069301,-80.3000722
62,Cheevers Road,N3T 0K3,43.1068498,-80.2999985
64,Cheevers Road,N3T 0K3,43.1067700,-80.2999400
66,Cheevers Road,N3T 0K3,43.1066999,-80.2998856
68,Cheevers Road,N3T 0K3,43.1066232,-80.2998097
10,Wilmot Road,N3T 0K8,43.1069179,-80.3011713
12,Wilmot Road,N3T 0K8,43.1068103,-80.3010896
14,Wilmot Road,N3T 0K8,43.1067063,-80.3010168
16,Wilmot Road,N3T 0K8,43.1066026,-80.3009239
18,Wilmot Road,N3T 0K8,43.1064858,-80.3008492
20,Wilmot Road,N3T 0K8,43.1063642,-80.3007772
22,Wilmot Road,N3T 0K8,43.1062468,-80.3007201
26,Wilmot Road,N3T 0K8,43.1059463,-80.3006907
28,Wilmot Road,N3T 0K8,43.1058301,-80.3007183
30,Wilmot Road,N3T 0K8,43.1056880,-80.3007895
32,Wilmot Road,N3T 0K8,43.1055748,-80.3008281
45,Wilmot Road,N3T 0K8,43.1051820,-80.3005175
43,Wilmot Road,N3T 0K8,43.1052859,-80.3004270
41,Wilmot Road,N3T 0K8,43.1053985,-80.3003501
39,Wilmot Road,N3T 0K8,43.1055040,-80.3002600
37,Wilmot Road,N3T 0K8,43.1056697,-80.3001873
35,Wilmot Road,N3T 0K8,43.1057986,-80.3001452
33,Wilmot Road,N3T 0K8,43.1059233,-80.3001261
25,Wilmot Road,N3T 0K8,43.1064975,-80.3002561
23,Wilmot Road,N3T 0K8,43.1065947,-80.3002991
21,Wilmot Road,N3T 0K8,43.1066955,-80.3003767
19,Wilmot Road,N3T 0K8,43.1067806,-80.3004332
17,Wilmot Road,N3T 0K8,43.1068755,-80.3004944
15,Wilmot Road,N3T 0K8,43.1069516,-80.3005636
11,Wilmot Road,N3T 0K8,43.1070382,-80.3006271
9,Wilmot Road,N3T 0K8,43.1071286,-80.3006901
7,Wilmot Road,N3T 0K8,43.1072143,-80.3007560
495,Mount Pleasant Road,N3T 5L5,43.1029314,-80.2994374
6,Ferrier Lane,N3T 0K5,43.1098148,-80.3011179
8,Ferrier Lane,N3T 0K5,43.1096862,-80.3010576
10,Ferrier Lane,N3T 0K5,43.1095754,-80.3009571
12,Ferrier Lane,N3T 0K5,43.1094840,-80.3008693
14,Ferrier Lane,N3T 0K5,43.1093673,-80.3007964
16,Ferrier Lane,N3T 0K5,43.1092619,-80.3007265
18,Ferrier Lane,N3T 0K5,43.1091499,-80.3006422
20,Ferrier Lane,N3T 0K5,43.1090391,-80.3005640
22,Ferrier Lane,N3T 0K5,43.1089294,-80.3004700
24,Ferrier Lane,N3T 0K5,43.1088312,-80.3003920
28,Ferrier Lane,N3T 0K5,43.1086151,-80.3002188
30,Ferrier Lane,N3T 0K5,43.1084975,-80.3001370
42,Ferrier Lane,N3T 0K2,43.1077605,-80.2995838
44,Ferrier Lane,N3T 0K2,43.1076697,-80.2995083
46,Ferrier Lane,N3T 0K2,43.1075838,-80.2994268
48,Ferrier Lane,N3T 0K2,43.1075021,-80.2993654
50,Ferrier Lane,N3T 0K2,43.1074150,-80.2993107
52,Ferrier Lane,N3T 0K2,43.1073262,-80.2992381
54,Ferrier Lane,N3T 0K2,43.1072363,-80.2991672
56,Ferrier Lane,N3T 0K2,43.1071190,-80.2990763
6,Bisset Avenue,N3T 0H2,43.1147582,-80.3011662
8,Bisset Avenue,N3T 0H2,43.1146561,-80.3012415
10,Bisset Avenue,N3T 0H2,43.1145719,-80.3013457
12,Bisset Avenue,N3T 0H2,43.1144417,-80.3014168
14,Bisset Avenue,N3T 0H2,43.1143508,-80.3014940
16,Bisset Avenue,N3T 0H2,43.1142427,-80.3015983
38,Bisset Avenue,N3T 0H2,43.1134201,-80.3015821
40,Bisset Avenue,N3T 0H2,43.1133852,-80.3014584
42,Bisset Avenue,N3T 0H2,43.1133248,-80.3013249
44,Bisset Avenue,N3T 0H2,43.1132710,-80.3012084
46,Bisset Avenue,N3T 0H2,43.1132068,-80.3010867
48,Bisset Avenue,N3T 0H2,43.1131315,-80.3009637
50,Bisset Avenue,N3T 0H2,43.1130694,-80.3008580
52,Bisset Avenue,N3T 0H3,43.1129725,-80.3007879
54,Bisset Avenue,N3T 0H3,43.1129100,-80.3006618
56,Bisset Avenue,N3T 0H3,43.1128227,-80.3005839
58,Bisset Avenue,N3T 0H3,43.1127347,-80.3005156
60,Bisset Avenue,N3T 0H3,43.1126527,-80.3004138
62,Bisset Avenue,N3T 0H3,43.1125699,-80.3003355
64,Bisset Avenue,N3T 0H3,43.1124921,-80.3002780
66,Bisset Avenue,N3T 0H3,43.1124110,-80.3001912
68,Bisset Avenue,N3T 0H3,43.1123285,-80.3001196
70,Bisset Avenue,N3T 0H3,43.1122436,-80.3000385
72,Bisset Avenue,N3T 0H3,43.1121627,-80.2999612
78-88,Bisset Avenue,N3T 0H3,43.1118031,-80.2996636
90-100,Bisset Avenue,N3T 0H3,43.1114953,-80.2993789
102-112,Bisset Avenue,N3T 0H3,43.1111796,-80.2991040
103-115,Bisset Avenue,N3T 0H3,43.1113616,-80.2986009
91-101,Bisset Avenue,N3T 0H3,43.1116921,-80.2989218
79-89,Bisset Avenue,N3T 0H3,43.1119976,-80.2992235
73,Bisset Avenue,N3T 0H3,43.1123832,-80.2995647
71,Bisset Avenue,N3T 0H3,43.1124576,-80.2996296
69,Bisset Avenue,N3T 0H3,43.1125249,-80.2996823
67,Bisset Avenue,N3T 0H3,43.1125947,-80.2997573
65,Bisset Avenue,N3T 0H3,43.1126606,-80.2998199
63,Bisset Avenue,N3T 0H3,43.1127326,-80.2998844
61,Bisset Avenue,N3T 0H3,43.1127995,-80.2999434
59,Bisset Avenue,N3T 0H3,43.1128699,-80.3000062
57,Bisset Avenue,N3T 0H3,43.1129384,-80.3000636
55,Bisset Avenue,N3T 0H3,43.1130094,-80.3001252
53,Bisset Avenue,N3T 0H3,43.1130754,-80.3001918
51,Bisset Avenue,N3T 0H3,43.1131419,-80.3002722
49,Bisset Avenue,N3T 0H3,43.1132057,-80.3003422
47,Bisset Avenue,N3T 0H3,43.1132701,-80.3004327
45,Bisset Avenue,N3T 0H3,43.1133375,-80.3004871
43,Bisset Avenue,N3T 0H3,43.1133950,-80.3005821
41,Bisset Avenue,N3T 0H2,43.1134491,-80.3006621
39,Bisset Avenue,N3T 0H2,43.1135103,-80.3007519
37,Bisset Avenue,N3T 0H2,43.1135624,-80.3008503
35,Bisset Avenue,N3T 0H2,43.1136101,-80.3009453
33,Bisset Avenue,N3T 0H2,43.1136505,-80.3010439
31,Bisset Avenue,N3T 0H2,43.1136945,-80.3011484
29,Bisset Avenue,N3T 0H2,43.1137327,-80.3012386
27,Bisset Avenue,N3T 0H2,43.1137938,-80.3013384
1,English Lane,N3T 0H2,43.1144457,-80.3007815
3,English Lane,N3T 0H2,43.1143956,-80.3006452
5,English Lane,N3T 0H2,43.1143480,-80.3005220
7,English Lane,N3T 0H2,43.1142928,-80.3004049
9,English Lane,N3T 0H2,43.1142382,-80.3002891
11,English Lane,N3T 0H2,43.1141831,-80.3001830
15,English Lane,N3T 0H2,43.1141162,-80.3000663
17,English Lane,N3T 0H2,43.1140458,-80.2999729
19,English Lane,N3T 0H1,43.1139867,-80.2998607
21,English Lane,N3T 0H1,43.1139212,-80.2997677
23,English Lane,N3T 0H1,43.1138419,-80.2996691
25,English Lane,N3T 0H1,43.1137700,-80.2995696
27,English Lane,N3T 0H1,43.1136849,-80.2994784
29,English Lane,N3T 0H1,43.1136102,-80.2993924
31,English Lane,N3T 0H1,43.1135343,-80.2993147
33,English Lane,N3T 0H1,43.1134517,-80.2992311
35,English Lane,N3T 0H1,43.1133718,-80.2991522
37,English Lane,N3T 0H1,43.1132840,-80.2990866
39,English Lane,N3T 0H1,43.1132024,-80.2990159
41,English Lane,N3T 0H1,43.1131180,-80.2989355
63-73,English Lane,N3T 0G9,43.1122316,-80.2981071
75-83,English Lane,N3T 0G9,43.1119583,-80.2978543
85-93,English Lane,N3T 0G9,43.1116988,-80.2976173
2,English Lane,N3T 0H2,43.1141546,-80.3011224
4,English Lane,N3T 0H2,43.1141004,-80.3010071
6,English Lane,N3T 0H2,43.1140618,-80.3009075
8,English Lane,N3T 0H2,43.1140188,-80.3008053
10,English Lane,N3T 0H2,43.1139734,-80.3007059
12,English Lane,N3T 0H2,43.1139244,-80.3006034
14,English Lane,N3T 0H2,43.1138731,-80.3005065
16,English Lane,N3T 0H2,43.1138160,-80.3004208
18,English Lane,N3T 0H2,43.1137625,-80.3003238
20,English Lane,N3T 0H1,43.1137014,-80.3002373
22,English Lane,N3T 0H1,43.1136403,-80.3001412
24,English Lane,N3T 0H1,43.1135759,-80.3000550
26,English Lane,N3T 0H1,43.1135105,-80.2999834
28,English Lane,N3T 0H1,43.1134488,-80.2998990
30,English Lane,N3T 0H1,43.1133849,-80.2998234
32,English Lane,N3T 0H1,43.1133133,-80.2997440
34,English Lane,N3T 0H1,43.1132346,-80.2996816
36,English Lane,N3T 0H1,43.1131758,-80.2996129
38,English Lane,N3T 0H1,43.1131039,-80.2995470
40,English Lane,N3T 0H1,43.1130366,-80.2994843
42,English Lane,N3T 0H1,43.1129715,-80.2994255
44,English Lane,N3T 0H1,43.1128971,-80.2993480
46,English Lane,N3T 0H1,43.1128291,-80.2992970
48,English Lane,N3T 0H1,43.1127573,-80.2992354
50,English Lane,N3T 0H1,43.1126883,-80.2991677
52,English Lane,N3T 0H1,43.1126221,-80.2991064
56-66,English Lane,N3T 0H3,43.1122531,-80.2988021
68-74,English Lane,N3T 0H3,43.1120021,-80.2985684
76-84,English Lane,N3T 0H3,43.1117756,-80.2983568
86-96,English Lane,N3T 0H1,43.1114904,-80.2980927
101-111,English Lane,N3T 0N8,43.1111570,-80.2971659
113-119,English Lane,N3T 0N8,43.1108790,-80.2969572
121-133,English Lane,N3T 0N8,43.1105714,-80.2967852
135-147,English Lane,N3T 0J6,43.1101244,-80.2965683
149-163,English Lane,N3T 0J6,43.1097085,-80.2963620
360,Conklin Road,N3T 0E9,43.1144235,-80.2943283
360,Conklin Road,N3T 0E9,43.1146761,-80.2937850
360,Conklin Road,N3T 0G8,43.1141530,-80.2940160
167,English Lane,N3T 0J9,43.1091950,-80.2961200
169,English Lane,N3T 0J9,43.1090852,-80.2960456
171,English Lane,N3T 0J9,43.1089616,-80.2959834
173,English Lane,N3T 0J9,43.1088613,-80.2958977
175,English Lane,N3T 0J9,43.1087568,-80.2958231
177,English Lane,N3T 0J9,43.1086521,-80.2957471
179,English Lane,N3T 0J9,43.1085517,-80.2956669
181,English Lane,N3T 0J9,43.1084451,-80.2955817
183,English Lane,N3T 0J9,43.1083410,-80.2955031
185,English Lane,N3T 0J9,43.1082284,-80.2954095
168,English Lane,N3T 0J9,43.1088479,-80.2965284
170,English Lane,N3T 0J9,43.1087734,-80.2964536
172,English Lane,N3T 0J9,43.1086873,-80.2963960
174,English Lane,N3T 0J9,43.1086219,-80.2963443
176,English Lane,N3T 0J9,43.1085467,-80.2962849
178,English Lane,N3T 0J9,43.1084813,-80.2962312
180,English Lane,N3T 0J9,43.1084095,-80.2961723
182,English Lane,N3T 0J9,43.1083182,-80.2961291
184,English Lane,N3T 0J9,43.1082392,-80.2960488
186,English Lane,N3T 0J9,43.1081513,-80.2959986
188,English Lane,N3T 0J9,43.1081034,-80.2962549
190,English Lane,N3T 0J9,43.1080515,-80.2963700
192,English Lane,N3T 0J9,43.1080070,-80.2964961
194,English Lane,N3T 0J9,43.1079470,-80.2966104
196,English Lane,N3T 0J9,43.1079009,-80.2967205
198,English Lane,N3T 0J9,43.1078557,-80.2968391
200,English Lane,N3T 0J9,43.1078026,-80.2969587
202,English Lane,N3T 0J9,43.1077507,-80.2970763
204,English Lane,N3T 0J9,43.1076998,-80.2971967
206,English Lane,N3T 0J9,43.1076382,-80.2973107
208,English Lane,N3T 0J9,43.1075999,-80.2974254
210,English Lane,N3T 0J9,43.1075618,-80.2975481
212,English Lane,N3T 0J9,43.1074979,-80.2976586
214,English Lane,N3T 0J9,43.1074493,-80.2977708
216,English Lane,N3T 0K2,43.1073949,-80.2978887
218,English Lane,N3T 0K2,43.1073479,-80.2980050
220,English Lane,N3T 0K2,43.1072963,-80.2981302
222,English Lane,N3T 0K2,43.1072324,-80.2982370
224,English Lane,N3T 0K2,43.1071952,-80.2983572
226,English Lane,N3T 0K2,43.1071297,-80.2984754
230,English Lane,N3T 0K2,43.1069612,-80.2988146
232,English Lane,N3T 0K2,43.1069017,-80.2989233
234,English Lane,N3T 0K2,43.1068445,-80.2990420
236,English Lane,N3T 0K2,43.1067725,-80.2991322
238,English Lane,N3T 0K2,43.1066981,-80.2992202
244,English Lane,N3T 0K3,43.1064748,-80.2995440
246,English Lane,N3T 0K3,43.1063959,-80.2996567
248,English Lane,N3T 0K8,43.1063053,-80.2998453
250,English Lane,N3T 0K8,43.1062785,-80.3000363
252,English Lane,N3T 0K8,43.1062809,-80.3002075
3,Pollard Street,N3T 0K1,43.1087107,-80.2969030
5,Pollard Street,N3T 0K1,43.1086051,-80.2968089
7,Pollard Street,N3T 0K1,43.1084884,-80.2966981
9,Pollard Street,N3T 0K1,43.1083060,-80.2967081
11,Pollard Street,N3T 0K1,43.1082078,-80.2968304
15,Pollard Street,N3T 0K1,43.1081288,-80.2969880
17,Pollard Street,N3T 0K1,43.1080908,-80.2971159
19,Pollard Street,N3T 0K1,43.1080417,-80.2972301
21,Pollard Street,N3T 0K1,43.1079917,-80.2973423
23,Pollard Street,N3T 0K1,43.1079532,-80.2974702
25,Pollard Street,N3T 0K1,43.1078858,-80.2975870
27,Pollard Street,N3T 0K1,43.1078403,-80.2976980
29,Pollard Street,N3T 0K1,43.1078123,-80.2978164
31,Pollard Street,N3T 0K1,43.1077469,-80.2979344
33,Pollard Street,N3T 0K2,43.1076889,-80.2980566
35,Pollard Street,N3T 0K2,43.1076389,-80.2981720
37,Pollard Street,N3T 0K2,43.1075879,-80.2982787
39,Pollard Street,N3T 0K2,43.1075460,-80.2983996
41,Pollard Street,N3T 0K2,43.1074924,-80.2985198
43,Pollard Street,N3T 0K2,43.1074428,-80.2986395
45,Pollard Street,N3T 0K2,43.1073945,-80.2987481
42,Pollard Street,N3T 0K2,43.1077599,-80.2990222
40,Pollard Street,N3T 0K2,43.1077949,-80.2989089
38,Pollard Street,N3T 0K2,43.1078421,-80.2987981
36,Pollard Street,N3T 0K2,43.1078902,-80.2986712
34,Pollard Street,N3T 0K2,43.1079458,-80.2985540
32,Pollard Street,N3T 0K2,43.1079824,-80.2984428
30,Pollard Street,N3T 0K1,43.1080368,-80.2983272
28,Pollard Street,N3T 0K1,43.1080875,-80.2982018
26,Pollard Street,N3T 0K1,43.1081304,-80.2980859
24,Pollard Street,N3T 0K1,43.1081882,-80.2979668
22,Pollard Street,N3T 0K1,43.1082345,-80.2978511
20,Pollard Street,N3T 0K1,43.1082946,-80.2977384
18,Pollard Street,N3T 0K1,43.1083400,-80.2976144
16,Pollard Street,N3T 0K1,43.1083886,-80.2974957
14,Pollard Street,N3T 0K1,43.1084386,-80.2973828
12,Pollard Street,N3T 0K1,43.1084819,-80.2972611
119,Gillespie Drive,N3T 0K3,43.1079872,-80.3007945
121,Gillespie Drive,N3T 0K3,43.1079481,-80.3008959
123,Gillespie Drive,N3T 0K3,43.1079016,-80.3009948
125,Gillespie Drive,N3T 0K3,43.1078575,-80.3010940
127,Gillespie Drive,N3T 0K3,43.1078265,-80.3011975
129,Gillespie Drive,N3T 0K3,43.1077869,-80.3012964
111,Gillespie Drive,N3T 0K5,43.1082191,-80.3002436
109,Gillespie Drive,N3T 0K5,43.1082720,-80.3001026
107,Gillespie Drive,N3T 0K5,43.1083345,-80.2999406
116,Gillespie Drive,N3T 0K3,43.1077655,-80.3001141
114,Gillespie Drive,N3T 0K3,43.1078132,-80.2999984
112,Gillespie Drive,N3T 0K2,43.1078655,-80.2998800
110,Gillespie Drive,N3T 0K2,43.1079099,-80.2997672
108,Gillespie Drive,N3T 0K2,43.1079525,-80.2996471
104,Gillespie Drive,N3T 0K2,43.1080885,-80.2992953
103,Gillespie Drive,N3T 0K5,43.1084887,-80.2995892
102,Gillespie Drive,N3T 0K2,43.1081423,-80.2991720
101,Gillespie Drive,N3T 0K5,43.1085448,-80.2994490
99,Gillespie Drive,N3T 0K5,43.1086176,-80.2992925
100,Gillespie Drive,N3T 0K2,43.1081913,-80.2990574
98,Gillespie Drive,N3T 0K2,43.1082296,-80.2989443
96,Gillespie Drive,N3T 0K2,43.1082886,-80.2988281
97,Gillespie Drive,N3T 0K5,43.1086586,-80.2991526
94,Gillespie Drive,N3T 0K2,43.1083352,-80.2987112
95,Gillespie Drive,N3T 0K5,43.1087134,-80.2990215
82,Gillespie Drive,N3T 0K2,43.1083934,-80.2985977
93,Gillespie Drive,N3T 0K5,43.1087629,-80.2989036
91,Gillespie Drive,N3T 0K5,43.1088084,-80.2987834
90,Gillespie Drive,N3T 0K2,43.1084310,-80.2984699
88,Gillespie Drive,N3T 0K1,43.1084843,-80.2983548
86,Gillespie Drive,N3T 0K1,43.1085333,-80.2982301
84,Gillespie Drive,N3T 0K1,43.1085815,-80.2981184
82,Gillespie Drive,N3T 0K1,43.1086250,-80.2979973
80,Gillespie Drive,N3T 0K1,43.1086827,-80.2978805
78,Gillespie Drive,N3T 0K1,43.1087286,-80.2977583
76,Gillespie Drive,N3T 0K1,43.1087747,-80.2976269
74,Gillespie Drive,N3T 0K1,43.1088218,-80.2975000
70,Gillespie Drive,N3T 0K1,43.1089304,-80.2970757
68,Gillespie Drive,N3T 0J9,43.1089539,-80.2969780
66,Gillespie Drive,N3T 0J9,43.1089776,-80.2968652
64,Gillespie Drive,N3T 0J9,43.1090063,-80.2967650
62,Gillespie Drive,N3T 0J9,43.1090285,-80.2966639
60,Gillespie Drive,N3T 0J9,43.1090583,-80.2965571
40,Gillespie Drive,N3T 0J9,43.1093821,-80.2950831
38,Gillespie Drive,N3T 0J8,43.1094162,-80.2949206
36,Gillespie Drive,N3T 0J8,43.1094580,-80.2947646
34,Gillespie Drive,N3T 0J8,43.1094921,-80.2946021
32,Gillespie Drive,N3T 0J8,43.1095320,-80.2944504
22,Gillespie Drive,N3T 0J7,43.1097401,-80.2936064
20,Gillespie Drive,N3T 0J7,43.1097915,-80.2934412
18,Gillespie Drive,N3T 0J7,43.1098400,-80.2932911
16,Gillespie Drive,N3T 0J7,43.1098898,-80.2931440
14,Gillespie Drive,N3T 0J7,43.1099452,-80.2929856
21,Gillespie Drive,N3T 0J7,43.1101391,-80.2938386
19,Gillespie Drive,N3T 0J7,43.1101775,-80.2936873
17,Gillespie Drive,N3T 0J7,43.1102347,-80.2935270
15,Gillespie Drive,N3T 0J7,43.1102837,-80.2933736
11,Gillespie Drive,N3T 0J7,43.1103471,-80.2932136
9,Gillespie Drive,N3T 0J7,43.1104088,-80.2930664
12,Gillespie Drive,N3T 0J7,43.1100060,-80.2928501
10,Gillespie Drive,N3T 0J7,43.1100641,-80.2927090
7,Gillespie Drive,N3T 0J7,43.1104688,-80.2929302
8,Gillespie Drive,N3T 0J7,43.1101286,-80.2925503
5,Gillespie Drive,N3T 0J7,43.1105268,-80.2927916
6,Gillespie Drive,N3T 0J7,43.1101807,-80.2924159
4,Gillespie Drive,N3T 0J7,43.1102504,-80.2922650
2,Gillespie Drive,N3T 0J7,43.1103131,-80.2921173
1,Gillespie Drive,N3T 0J7,43.1106763,-80.2924589
3,Gillespie Drive,N3T 0J7,43.1106022,-80.2926267
52,Clench Avenue,N3T 1R6,43.1241803,-80.2702756
60,Clench Avenue,N3T 1B8,43.1246912,-80.2689863
331,Powell Road,N3T 0J8,43.1098434,-80.2922312
329,Powell Road,N3T 0J8,43.1097778,-80.2923726
327,Powell Road,N3T 0J8,43.1097135,-80.2925118
325,Powell Road,N3T 0J8,43.1096594,-80.2926537
323,Powell Road,N3T 0J8,43.1096032,-80.2927964
321,Powell Road,N3T 0J8,43.1095307,-80.2929407
319,Powell Road,N3T 0J8,43.1094790,-80.2930826
317,Powell Road,N3T 0J8,43.1094128,-80.2932281
315,Powell Road,N3T 0J8,43.1093545,-80.2933635
313,Powell Road,N3T 0J8,43.1092839,-80.2935058
311,Powell Road,N3T 0J8,43.1092264,-80.2936558
309,Powell Road,N3T 0J8,43.1091543,-80.2938027
305,Powell Road,N3T 0J8,43.1089987,-80.2941812
303,Powell Road,N3T 0J8,43.1089336,-80.2943329
301,Powell Road,N3T 0J8,43.1088817,-80.2944759
299,Powell Road,N3T 0J8,43.1088096,-80.2946166
297,Powell Road,N3T 0J8,43.1087442,-80.2947540
127,Powell Road,N3T 0E4,43.1160127,-80.3013699
129,Powell Road,N3T 0E4,43.1158856,-80.3012840
130,Powell Road,N3T 0E4,43.1157430,-80.3018379
132,Powell Road,N3T 0E4,43.1156275,-80.3017583
134,Powell Road,N3T 0E4,43.1154992,-80.3016568
136,Powell Road,N3T 0E4,43.1153908,-80.3015505
143,Powell Road,N3T 0E4,43.1149501,-80.2998100
141,Powell Road,N3T 0E4,43.1150156,-80.2999482
139,Powell Road,N3T 0E4,43.1150877,-80.3000953
145,Powell Road,N3T 0E4,43.1148856,-80.2996757
147,Powell Road,N3T 0E4,43.1148118,-80.2995423
149,Powell Road,N3T 0E4,43.1147333,-80.2993984
153,Powell Road,N3T 0E5,43.1145569,-80.2990771
154,Powell Road,N3T 0E4,43.1145870,-80.3001098
152,Powell Road,N3T 0E4,43.1146538,-80.3002587
150,Powell Road,N3T 0E4,43.1147187,-80.3003937
148,Powell Road,N3T 0E4,43.1147875,-80.3005425
144,Powell Road,N3T 0E4,43.1149784,-80.3009684
142,Powell Road,N3T 0E4,43.1150624,-80.3011315
140,Powell Road,N3T 0E4,43.1151556,-80.3012693
156,Powell Road,N3T 0E4,43.1145196,-80.2999825
158,Powell Road,N3T 0E4,43.1144419,-80.2998434
160,Powell Road,N3T 0E4,43.1143644,-80.2997145
162,Powell Road,N3T 0E5,43.1142888,-80.2995765
164,Powell Road,N3T 0E5,43.1142183,-80.2994628
166,Powell Road,N3T 0E5,43.1141382,-80.2993278
168,Powell Road,N3T 0E5,43.1140507,-80.2992035
170,Powell Road,N3T 0E5,43.1139627,-80.2990975
172,Powell Road,N3T 0E5,43.1138794,-80.2989809
174,Powell Road,N3T 0E6,43.1137778,-80.2988890
176,Powell Road,N3T 0E6,43.1136779,-80.2987684
178,Powell Road,N3T 0E6,43.1135936,-80.2986593
180,Powell Road,N3T 0E6,43.1134864,-80.2985845
182,Powell Road,N3T 0E6,43.1133771,-80.2984788
155,Powell Road,N3T 0E5,43.1144740,-80.2989805
157,Powell Road,N3T 0E5,43.1144036,-80.2988709
159,Powell Road,N3T 0E5,43.1143297,-80.2987847
161,Powell Road,N3T 0E5,43.1142610,-80.2986921
163,Powell Road,N3T 0E5,43.1142021,-80.2985835
165,Powell Road,N3T 0E5,43.1141342,-80.2985003
167,Powell Road,N3T 0E6,43.1140461,-80.2984105
169,Powell Road,N3T 0E6,43.1139674,-80.2983382
171,Powell Road,N3T 0E6,43.1138938,-80.2982380
173,Powell Road,N3T 0E6,43.1138115,-80.2981740
175,Powell Road,N3T 0E6,43.1137190,-80.2980837
177,Powell Road,N3T 0E6,43.1136447,-80.2979998
189,Powell Road,N3T 0E6,43.1128727,-80.2973088
194,Powell Road,N3T 0E6,43.1126139,-80.2977811
191,Powell Road,N3T 0E6,43.1127887,-80.2972470
193,Powell Road,N3T 0E6,43.1127129,-80.2971717
195,Powell Road,N3T 0E6,43.1126192,-80.2970957
197,Powell Road,N3T 0E6,43.1125369,-80.2970186
199,Powell Road,N3T 0E6,43.1124597,-80.2969277
201,Powell Road,N3T 0E6,43.1123776,-80.2968742
203,Powell Road,N3T 0E6,43.1122867,-80.2968045
205,Powell Road,N3T 0E6,43.1122061,-80.2967221
207,Powell Road,N3T 0G1,43.1121228,-80.2966364
209,Powell Road,N3T 0G1,43.1120387,-80.2965761
213-225,Powell Road,N3T 0G1,43.1115978,-80.2961259
227-235,Powell Road,N3T 0J3,43.1112771,-80.2958593
218-230,Powell Road,N3T 0N8,43.1113583,-80.2966525
232-240,Powell Road,N3T 0N8,43.1110505,-80.2963767
237-251,Powell Road,N3T 0J3,43.1109012,-80.2956590
242-254,Powell Road,N3T 0N8,43.1107016,-80.2961987
255-265,Powell Road,N3T 0J3,43.1103050,-80.2954167
267-279,Powell Road,N3T 0J6,43.1099330,-80.2952436
256-268,Powell Road,N3T 0J3,43.1102644,-80.2960192
270-284,Powell Road,N3T 0J6,43.1098390,-80.2958345
291,Powell Road,N3T 0J9,43.1092039,-80.2949617
293,Powell Road,N3T 0J9,43.1090897,-80.2949103
295,Powell Road,N3T 0J8,43.1089704,-80.2948507
196,Powell Road,N3T 0E6,43.1124992,-80.2976879
198,Powell Road,N3T 0E6,43.1123983,-80.2975949
200,Powell Road,N3T 0E6,43.1123085,-80.2974809
202,Powell Road,N3T 0E6,43.1122047,-80.2973908
204,Powell Road,N3T 0E6,43.1121064,-80.2973104
206,Powell Road,N3T 0E6,43.1120003,-80.2972338
208,Powell Road,N3T 0E6,43.1119068,-80.2971322
210,Powell Road,N3T 0G1,43.1118112,-80.2970454
288,Powell Road,N3T 0J6,43.1093238,-80.2955994
290,Powell Road,N3T 0J9,43.1092118,-80.2955513
292,Powell Road,N3T 0J9,43.1090930,-80.2954841
294,Powell Road,N3T 0J9,43.1089754,-80.2954450
296,Powell Road,N3T 0J9,43.1088593,-80.2953949
298,Powell Road,N3T 0J8,43.1087362,-80.2953375
300,Powell Road,N3T 0J8,43.1086199,-80.2952412
302,Powell Road,N3T 0J8,43.1085166,-80.2951770
304,Powell Road,N3T 0J8,43.1084096,-80.2950797
360,Conklin Road,N3T 0E9,43.1137838,-80.2937342
360,Conklin Road,N3T 0E9,43.1137557,-80.2932620
393,Blackburn Drive,N3T 0K4,43.1099582,-80.3016594
391,Blackburn Drive,N3T 0K4,43.1099782,-80.3014871
389,Blackburn Drive,N3T 0K4,43.1100010,-80.3013300
387,Blackburn Drive,N3T 0K4,43.1100453,-80.3011707
320,Blackburn Drive,N3T 0G1,43.1126732,-80.2954107
318,Blackburn Drive,N3T 0G1,43.1127227,-80.2952975
316,Blackburn Drive,N3T 0G1,43.1127884,-80.2951817
314,Blackburn Drive,N3T 0G1,43.1128512,-80.2950654
312,Blackburn Drive,N3T 0G1,43.1129275,-80.2949119
310,Blackburn Drive,N3T 0G1,43.1130164,-80.2947584
308,Blackburn Drive,N3T 0G1,43.1130845,-80.2945634
306,Blackburn Drive,N3T 0G1,43.1131785,-80.2944117
304,Blackburn Drive,N3T 0G1,43.1132640,-80.2942708
302,Blackburn Drive,N3T 0G1,43.1133440,-80.2941147
301,Blackburn Drive,N3T 0G1,43.1129192,-80.2937404
303,Blackburn Drive,N3T 0G1,43.1128320,-80.2939086
305,Blackburn Drive,N3T 0G1,43.1127679,-80.2940810
307,Blackburn Drive,N3T 0G1,43.1126721,-80.2942647
309,Blackburn Drive,N3T 0G1,43.1125774,-80.2944266
27,Mercer Avenue,N3T 0H1,43.1125687,-80.2984492
25,Mercer Avenue,N3T 0H1,43.1126283,-80.2983312
23,Mercer Avenue,N3T 0H1,43.1127004,-80.2982362
21,Mercer Avenue,N3T 0E6,43.1127642,-80.2980943
19,Mercer Avenue,N3T 0E6,43.1128449,-80.2979452
15,Mercer Avenue,N3T 0E6,43.1130885,-80.2975563
11,Mercer Avenue,N3T 0E6,43.1131351,-80.2974561
9,Mercer Avenue,N3T 0E6,43.1131877,-80.2973504
7,Mercer Avenue,N3T 0E7,43.1132376,-80.2972727
5,Mercer Avenue,N3T 0E7,43.1132903,-80.2971769
3,Mercer Avenue,N3T 0E7,43.1133377,-80.2970883
1,Mercer Avenue,N3T 0E7,43.1133991,-80.2970036
2,Mercer Avenue,N3T 0E7,43.1137217,-80.2972899
4,Mercer Avenue,N3T 0E7,43.1136691,-80.2973835
6,Mercer Avenue,N3T 0E7,43.1136158,-80.2974685
8,Mercer Avenue,N3T 0E7,43.1135682,-80.2975660
10,Mercer Avenue,N3T 0E6,43.1135173,-80.2976478
12,Mercer Avenue,N3T 0E6,43.1134534,-80.2977580
14,Mercer Avenue,N3T 0E6,43.1133909,-80.2978432
18,Mercer Avenue,N3T 0E6,43.1131664,-80.2982565
20,Mercer Avenue,N3T 0E6,43.1130874,-80.2984151
22,Mercer Avenue,N3T 0H1,43.1130118,-80.2985246
24,Mercer Avenue,N3T 0H1,43.1129382,-80.2986467
26,Mercer Avenue,N3T 0H1,43.1128710,-80.2987648
2,Warner Lane,N3T 0E5,43.1149288,-80.2985980
4,Warner Lane,N3T 0E5,43.1148710,-80.2984994
6,Warner Lane,N3T 0E5,43.1148222,-80.2983947
8,Warner Lane,N3T 0E5,43.1147584,-80.2983076
10,Warner Lane,N3T 0E5,43.1147055,-80.2982164
12,Warner Lane,N3T 0E5,43.1146363,-80.2981301
14,Warner Lane,N3T 0E5,43.1145602,-80.2980400
16,Warner Lane,N3T 0E5,43.1144959,-80.2979716
18,Warner Lane,N3T 0E7,43.1144253,-80.2979031
20,Warner Lane,N3T 0E7,43.1143524,-80.2978302
22,Warner Lane,N3T 0E7,43.1142810,-80.2977882
24,Warner Lane,N3T 0E7,43.1142079,-80.2977298
26,Warner Lane,N3T 0E7,43.1141352,-80.2976638
28,Warner Lane,N3T 0E7,43.1140599,-80.2976077
30,Warner Lane,N3T 0E7,43.1139919,-80.2975501
32,Warner Lane,N3T 0E7,43.1139262,-80.2974985
44,Warner Lane,N3T 0E7,43.1131285,-80.2968343
46,Warner Lane,N3T 0E7,43.1130559,-80.2967732
48,Warner Lane,N3T 0E7,43.1129878,-80.2967199
50,Warner Lane,N3T 0E7,43.1129217,-80.2966481
52,Warner Lane,N3T 0E7,43.1128381,-80.2965820
54,Warner Lane,N3T 0E7,43.1127810,-80.2965089
56,Warner Lane,N3T 0E7,43.1127065,-80.2964539
58,Warner Lane,N3T 0E7,43.1126417,-80.2963883
60,Warner Lane,N3T 0E7,43.1125683,-80.2963423
62,Warner Lane,N3T 0E7,43.1124966,-80.2962684
64,Warner Lane,N3T 0G1,43.1124356,-80.2962142
66,Warner Lane,N3T 0G1,43.1123664,-80.2961346
68,Warner Lane,N3T 0G1,43.1122936,-80.2960595
72,Warner Lane,N3T 0G1,43.1119829,-80.2957869
74,Warner Lane,N3T 0G1,43.1119099,-80.2957329
76,Warner Lane,N3T 0J3,43.1118424,-80.2956655
78,Warner Lane,N3T 0J3,43.1117803,-80.2955980
80,Warner Lane,N3T 0J3,43.1117034,-80.2955415
82,Warner Lane,N3T 0J3,43.1116395,-80.2954698
84,Warner Lane,N3T 0J3,43.1115676,-80.2954012
86,Warner Lane,N3T 0J3,43.1114860,-80.2953458
88,Warner Lane,N3T 0J3,43.1113970,-80.2952921
90,Warner Lane,N3T 0J3,43.1113185,-80.2952476
92,Warner Lane,N3T 0J3,43.1112350,-80.2952156
94,Warner Lane,N3T 0J3,43.1111514,-80.2951710
96,Warner Lane,N3T 0J3,43.1110735,-80.2951382
98,Warner Lane,N3T 0J3,43.1109991,-80.2950965
100,Warner Lane,N3T 0J3,43.1109173,-80.2950680
102,Warner Lane,N3T 0J3,43.1108373,-80.2950338
106,Warner Lane,N3T 0J3,43.1105538,-80.2949170
108,Warner Lane,N3T 0J3,43.1104774,-80.2948899
110,Warner Lane,N3T 0J7,43.1103916,-80.2948616
112,Warner Lane,N3T 0J7,43.1103133,-80.2948146
114,Warner Lane,N3T 0J7,43.1102323,-80.2947803
116,Warner Lane,N3T 0J7,43.1101536,-80.2947504
118,Warner Lane,N3T 0J7,43.1100692,-80.2947137
120,Warner Lane,N3T 0J7,43.1099880,-80.2946795
122,Warner Lane,N3T 0J7,43.1099041,-80.2946388
130,Warner Lane,N3T 0J8,43.1093218,-80.2944057
132,Warner Lane,N3T 0J8,43.1091991,-80.2943312
133,Warner Lane,N3T 0J8,43.1094686,-80.2938933
131,Warner Lane,N3T 0J8,43.1095501,-80.2939383
129,Warner Lane,N3T 0J8,43.1096326,-80.2939680
127,Warner Lane,N3T 0J7,43.1097125,-80.2940023
123,Warner Lane,N3T 0J7,43.1100070,-80.2941287
121,Warner Lane,N3T 0J7,43.1100866,-80.2941687
119,Warner Lane,N3T 0J7,43.1101740,-80.2941976
117,Warner Lane,N3T 0J7,43.1102420,-80.2942326
115,Warner Lane,N3T 0J7,43.1103209,-80.2942671
113,Warner Lane,N3T 0J7,43.1103971,-80.2943023
111,Warner Lane,N3T 0J7,43.1104783,-80.2943316
109,Warner Lane,N3T 0J4,43.1105529,-80.2943735
107,Warner Lane,N3T 0J4,43.1106285,-80.2943959
103,Warner Lane,N3T 0J4,43.1109245,-80.2945211
101,Warner Lane,N3T 0J4,43.1110033,-80.2945601
99,Warner Lane,N3T 0J4,43.1110846,-80.2945956
97,Warner Lane,N3T 0J4,43.1111728,-80.2946209
95,Warner Lane,N3T 0J4,43.1112517,-80.2946605
93,Warner Lane,N3T 0J4,43.1113292,-80.2947006
91,Warner Lane,N3T 0J4,43.1114106,-80.2947368
89,Warner Lane,N3T 0J4,43.1114975,-80.2947794
87,Warner Lane,N3T 0J4,43.1115782,-80.2948190
85,Warner Lane,N3T 0J4,43.1116609,-80.2948680
83,Warner Lane,N3T 0J4,43.1117342,-80.2949387
81,Warner Lane,N3T 0J4,43.1118117,-80.2950067
79,Warner Lane,N3T 0J4,43.1118826,-80.2950687
77,Warner Lane,N3T 0J4,43.1119552,-80.2951310
75,Warner Lane,N3T 0J4,43.1120210,-80.2951991
73,Warner Lane,N3T 0G1,43.1120947,-80.2952614
71,Warner Lane,N3T 0G1,43.1121822,-80.2953352
67,Warner Lane,N3T 0G1,43.1125082,-80.2956509
65,Warner Lane,N3T 0G1,43.1125916,-80.2957144
63,Warner Lane,N3T 0G1,43.1126588,-80.2957761
61,Warner Lane,N3T 0G1,43.1127273,-80.2958450
59,Warner Lane,N3T 0E7,43.1128071,-80.2959180
57,Warner Lane,N3T 0E7,43.1128880,-80.2959947
31,Warner Lane,N3T 0E7,43.1141452,-80.2970623
29,Warner Lane,N3T 0E7,43.1142110,-80.2971222
27,Warner Lane,N3T 0E7,43.1142877,-80.2971898
25,Warner Lane,N3T 0E7,43.1143594,-80.2972493
23,Warner Lane,N3T 0E7,43.1144265,-80.2973067
21,Warner Lane,N3T 0E7,43.1145002,-80.2973603
19,Warner Lane,N3T 0E5,43.1145700,-80.2974058
17,Warner Lane,N3T 0E5,43.1146473,-80.2974816
15,Warner Lane,N3T 0E5,43.1147422,-80.2975667
11,Warner Lane,N3T 0E5,43.1148093,-80.2976341
9,Warner Lane,N3T 0E5,43.1148932,-80.2977302
55,Burgess Crescent,N3T 0J5,43.1105960,-80.2940611
53,Burgess Crescent,N3T 0J5,43.1106278,-80.2938962
51,Burgess Crescent,N3T 0J5,43.1106477,-80.2937398
49,Burgess Crescent,N3T 0J5,43.1106868,-80.2935715
47,Burgess Crescent,N3T 0J5,43.1107359,-80.2934256
45,Burgess Crescent,N3T 0J5,43.1107789,-80.2932602
43,Burgess Crescent,N3T 0J5,43.1108468,-80.2931002
41,Burgess Crescent,N3T 0J5,43.1109070,-80.2929591
39,Burgess Crescent,N3T 0J5,43.1109820,-80.2928339
37,Burgess Crescent,N3T 0J5,43.1110362,-80.2926813
30,Burgess Crescent,N3T 0J5,43.1112670,-80.2931128
28,Burgess Crescent,N3T 0J5,43.1113807,-80.2931674
26,Burgess Crescent,N3T 0J5,43.1115068,-80.2932502
24,Burgess Crescent,N3T 0J5,43.1116370,-80.2933111
22,Burgess Crescent,N3T 0J5,43.1117540,-80.2933587
20,Burgess Crescent,N3T 0J5,43.1118756,-80.2934145
18,Burgess Crescent,N3T 0J5,43.1119997,-80.2934643
16,Burgess Crescent,N3T 0J5,43.1121268,-80.2935125
15,Carroll Lane,N3T 0J5,43.1119813,-80.2939126
17,Carroll Lane,N3T 0J5,43.1118856,-80.2938591
19,Carroll Lane,N3T 0J5,43.1117846,-80.2938314
21,Carroll Lane,N3T 0J5,43.1116897,-80.2937931
23,Carroll Lane,N3T 0J5,43.1115912,-80.2937319
25,Carroll Lane,N3T 0J5,43.1114820,-80.2937002
27,Carroll Lane,N3T 0J5,43.1113876,-80.2936521
29,Carroll Lane,N3T 0J5,43.1112922,-80.2936271
31,Carroll Lane,N3T 0J4,43.1111878,-80.2935791
33,Carroll Lane,N3T 0J4,43.1110796,-80.2935399
7,Burgess Crescent,N3T 0J5,43.1124642,-80.2937616
9,Burgess Crescent,N3T 0J5,43.1125390,-80.2936080
11,Burgess Crescent,N3T 0J5,43.1126046,-80.2934769
2,Carroll Lane,N3T 0G1,43.1124140,-80.2948832
4,Carroll Lane,N3T 0G1,43.1123180,-80.2947808
6,Carroll Lane,N3T 0G1,43.1122323,-80.2947315
8,Carroll Lane,N3T 0J5,43.1121497,-80.2946356
10,Carroll Lane,N3T 0J5,43.1120681,-80.2945749
12,Carroll Lane,N3T 0J5,43.1119692,-80.2944679
14,Carroll Lane,N3T 0J5,43.1118635,-80.2944009
16,Carroll Lane,N3T 0J5,43.1117590,-80.2943670
18,Carroll Lane,N3T 0J5,43.1116692,-80.2943309
20,Carroll Lane,N3T 0J5,43.1115797,-80.2942671
22,Carroll Lane,N3T 0J5,43.1114839,-80.2942443
24,Carroll Lane,N3T 0J5,43.1113874,-80.2942172
26,Carroll Lane,N3T 0J5,43.1112852,-80.2941814
28,Carroll Lane,N3T 0J4,43.1111976,-80.2941409
30,Carroll Lane,N3T 0J4,43.1111050,-80.2940929
32,Carroll Lane,N3T 0J4,43.1109840,-80.2940581
99,Lambert Crescent,N3T 0E9,43.1129991,-80.2957201
97,Lambert Crescent,N3T 0E9,43.1130483,-80.2956157
95,Lambert Crescent,N3T 0E9,43.1130997,-80.2954956
93,Lambert Crescent,N3T 0E9,43.1131580,-80.2953856
91,Lambert Crescent,N3T 0E9,43.1132138,-80.2952619
89,Lambert Crescent,N3T 0E9,43.1132564,-80.2951593
87,Lambert Crescent,N3T 0E9,43.1133209,-80.2950462
85,Lambert Crescent,N3T 0E9,43.1133803,-80.2949437
83,Lambert Crescent,N3T 0E9,43.1134462,-80.2948233
81,Lambert Crescent,N3T 0E9,43.1134908,-80.2947201
79,Lambert Crescent,N3T 0E9,43.1135549,-80.2945979
77,Lambert Crescent,N3T 0E9,43.1136159,-80.2945019
75,Lambert Crescent,N3T 0E9,43.1137054,-80.2944146
86,Lambert Crescent,N3T 0E9,43.1136149,-80.2953889
84,Lambert Crescent,N3T 0E9,43.1136740,-80.2952629
82,Lambert Crescent,N3T 0E9,43.1137452,-80.2951342
80,Lambert Crescent,N3T 0E9,43.1138087,-80.2950111
78,Lambert Crescent,N3T 0E9,43.1138730,-80.2948794
100,Lambert Crescent,N3T 0E7,43.1131615,-80.2962846
98,Lambert Crescent,N3T 0E9,43.1132269,-80.2961647
96,Lambert Crescent,N3T 0E9,43.1132751,-80.2960741
94,Lambert Crescent,N3T 0E9,43.1133277,-80.2959674
92,Lambert Crescent,N3T 0E9,43.1133705,-80.2958718
90,Lambert Crescent,N3T 0E9,43.1134289,-80.2957503
35,Merritt Lane,N3T 0E9,43.1138675,-80.2955577
33,Merritt Lane,N3T 0E9,43.1139531,-80.2956319
31,Merritt Lane,N3T 0E9,43.1140417,-80.2957196
29,Merritt Lane,N3T 0E9,43.1141324,-80.2957702
27,Merritt Lane,N3T 0E9,43.1142227,-80.2958362
25,Merritt Lane,N3T 0E9,43.1143103,-80.2958971
72,Lambert Crescent,N3T 0E9,43.1140741,-80.2951137
70,Lambert Crescent,N3T 0E9,43.1141878,-80.2952152
68,Lambert Crescent,N3T 0E9,43.1143027,-80.2953083
66,Lambert Crescent,N3T 0E9,43.1144207,-80.2953675
64,Lambert Crescent,N3T 0E9,43.1145363,-80.2954380
60,Lambert Crescent,N3T 0E8,43.1147736,-80.2955776
62,Lambert Crescent,N3T 0E9,43.1146416,-80.2955171
23,Merritt Lane,N3T 0E9,43.1144029,-80.2959578
21,Merritt Lane,N3T 0E9,43.1145014,-80.2960084
22,Merritt Lane,N3T 0E8,43.1143827,-80.2965073
20,Merritt Lane,N3T 0E8,43.1144654,-80.2965538
19,Merritt Lane,N3T 0E9,43.1145889,-80.2960616
17,Merritt Lane,N3T 0E8,43.1146777,-80.2961155
18,Merritt Lane,N3T 0E8,43.1145430,-80.2965912
16,Merritt Lane,N3T 0E8,43.1146215,-80.2966256
12,Merritt Lane,N3T 0E8,43.1147733,-80.2967242
10,Merritt Lane,N3T 0E8,43.1148565,-80.2967627
8,Merritt Lane,N3T 0E8,43.1149296,-80.2968089
14,Merritt Lane,N3T 0E8,43.1146979,-80.2966809
15,Merritt Lane,N3T 0E8,43.1147725,-80.2961595
11,Merritt Lane,N3T 0E8,43.1148648,-80.2962123
9,Merritt Lane,N3T 0E8,43.1149592,-80.2962645
58,Lambert Crescent,N3T 0E8,43.1148929,-80.2956367
56,Lambert Crescent,N3T 0E8,43.1150124,-80.2956947
54,Lambert Crescent,N3T 0E8,43.1151350,-80.2957551
52,Lambert Crescent,N3T 0E8,43.1152568,-80.2957859
6,Merritt Lane,N3T 0E8,43.1150100,-80.2968504
7,Merritt Lane,N3T 0E8,43.1150482,-80.2963156
5,Merritt Lane,N3T 0E8,43.1151470,-80.2963582
3,Merritt Lane,N3T 0E8,43.1152371,-80.2964094
50,Lambert Crescent,N3T 0E8,43.1153691,-80.2958472
1,Merritt Lane,N3T 0E8,43.1153454,-80.2964518
48,Lambert Crescent,N3T 0E8,43.1154827,-80.2959032
47,Lambert Crescent,N3T 0E8,43.1158558,-80.2957957
45,Lambert Crescent,N3T 0E8,43.1158481,-80.2959673
43,Lambert Crescent,N3T 0E8,43.1158138,-80.2961152
41,Lambert Crescent,N3T 0E8,43.1157692,-80.2962773
39,Lambert Crescent,N3T 0E8,43.1157318,-80.2964386
37,Lambert Crescent,N3T 0E8,43.1156978,-80.2965966
35,Lambert Crescent,N3T 0E8,43.1156586,-80.2967738
33,Lambert Crescent,N3T 0E8,43.1156469,-80.2969412
31,Lambert Crescent,N3T 0E8,43.1156403,-80.2971118
29,Lambert Crescent,N3T 0E8,43.1156463,-80.2972625
27,Lambert Crescent,N3T 0E8,43.1156332,-80.2974587
25,Lambert Crescent,N3T 0E5,43.1156319,-80.2976135
23,Lambert Crescent,N3T 0E5,43.1156071,-80.2977803
21,Lambert Crescent,N3T 0E5,43.1155777,-80.2979493
19,Lambert Crescent,N3T 0E5,43.1155278,-80.2981084
17,Lambert Crescent,N3T 0E5,43.1154779,-80.2982553
15,Lambert Crescent,N3T 0E5,43.1154388,-80.2984139
14,Lambert Crescent,N3T 0E5,43.1151097,-80.2980737
16,Lambert Crescent,N3T 0E5,43.1151713,-80.2979404
18,Lambert Crescent,N3T 0E5,43.1152041,-80.2978046
20,Lambert Crescent,N3T 0E5,43.1152355,-80.2976566
22,Lambert Crescent,N3T 0E5,43.1152437,-80.2975214
24,Lambert Crescent,N3T 0E5,43.1152672,-80.2973708
26,Lambert Crescent,N3T 0E5,43.1152711,-80.2972353
28,Lambert Crescent,N3T 0E8,43.1152606,-80.2970849
30,Lambert Crescent,N3T 0E8,43.1152589,-80.2969310
49,Waldie Crescent,N3T 0B7,43.1125809,-80.2919256
47,Waldie Crescent,N3T 0B7,43.1125318,-80.2920843
45,Waldie Crescent,N3T 0B7,43.1125076,-80.2922615
43,Waldie Crescent,N3T 0B7,43.1124737,-80.2924200
41,Waldie Crescent,N3T 0B7,43.1124133,-80.2925739
39,Waldie Crescent,N3T 0B7,43.1123542,-80.2927553
38,Waldie Crescent,N3T 0B7,43.1120947,-80.2923627
36,Waldie Crescent,N3T 0B7,43.1119753,-80.2923121
34,Waldie Crescent,N3T 0B7,43.1118622,-80.2922662
32,Waldie Crescent,N3T 0B7,43.1117356,-80.2922053
30,Waldie Crescent,N3T 0A5,43.1116241,-80.2921552
28,Waldie Crescent,N3T 0A5,43.1115021,-80.2920848
26,Waldie Crescent,N3T 0A5,43.1113876,-80.2920132
24,Waldie Crescent,N3T 0A5,43.1112806,-80.2919324
22,Waldie Crescent,N3T 0A5,43.1111704,-80.2918420
20,Waldie Crescent,N3T 0A5,43.1110477,-80.2917619
18,Waldie Crescent,N3T 0A5,43.1109533,-80.2916666
16,Waldie Crescent,N3T 0A5,43.1108469,-80.2915744
14,Waldie Crescent,N3T 0A5,43.1107476,-80.2914821
12,Waldie Crescent,N3T 0A5,43.1106270,-80.2913912
11,Waldie Crescent,N3T 0A5,43.1102487,-80.2913822
9,Waldie Crescent,N3T 0A5,43.1102993,-80.2911945
7,Waldie Crescent,N3T 0A5,43.1103271,-80.2910157
5,Waldie Crescent,N3T 0A5,43.1104356,-80.2908698
3,Waldie Crescent,N3T 0A5,43.1105015,-80.2907096
1,Waldie Crescent,N3T 0A5,43.1105732,-80.2905463
88,Balfour Street,N3T 1J7,43.1314076,-80.2755513
19-25,Dwyer Court,N3T 0G8,43.1127493,-80.2927024
9-17,Dwyer Court,N3T 0G8,43.1128408,-80.2923827
3-7,Dwyer Court,N3T 0G8,43.1128966,-80.2921008
26-34,Dwyer Court,N3T 0G8,43.1132013,-80.2929587
8-16,Dwyer Court,N3T 0G8,43.1132126,-80.2924674
1,Dwyer Court,N3T 0A5,43.1129318,-80.2919525
68,Hardy Road,N3T 5K6,43.1646892,-80.2975470
66,Hardy Road,N3T 5K6,43.1647643,-80.2975724
64,Hardy Road,N3T 5K6,43.1648511,-80.2976016
33,White Oaks Avenue,N3R 5N8,43.1790464,-80.2737831
233,Memorial Drive,N3R 5T2,43.1845716,-80.2680378
280,North Park Street,N3R 4L1,43.1686233,-80.2635618
56,Grand Street,N3R 4B2,43.1532826,-80.2689463
80,Paris Road,N3R 1H9,43.1606943,-80.2880236
112,Tollgate Road,N3R 4Z6,43.1672277,-80.2874986
238,Brantwood Park Road,N3P 1N9,43.1809045,-80.2369044
165,Dufferin Avenue,N3T 4R4,43.1484198,-80.2838188
455,Colborne Street,N3S 3N8,43.1388738,-80.2509903
365,Rawdon Street,N3S 6J3,43.1509092,-80.2480630
200,Terrace Hill Street,N3R 1G9,43.1517573,-80.2763003
165,Hachborn Road,N3S 7W7,43.1518410,-80.2184945
435,West Street,N3R 3V9,43.1597264,-80.2542392
46,Dalhousie Street,N3T 2H8,43.1394691,-80.2665041
270,Brant Avenue,N3T 3J7,43.1488745,-80.2782802
97,Mount Pleasant Street,N3T 1T5,43.1255280,-80.2762989
627,Colborne Street East,N3S 3M8,43.1394456,-80.2390479
