House number,Street name,Postal code,Latitude,Longitude
1,Wyndham Street North,N1H4E2,43.5445648,-80.2476087
24,Carden Street,N1H 3A2,43.5438672,-80.2489631
75,Cardigan Street,N1H 3Z7,43.5508042,-80.2542965
79,Carden Street,N1H 3A4,43.5443631,-80.2469286
369,Gordon Street,N1G 1X8,43.5323034,-80.2330668
3,Clair Road West,N1L 0Z6,43.4999439,-80.1917944
35,Harvard Road,N1G 3A2,43.5249669,-80.2222102
615,Scottsdale Drive,N1G 3P4,43.5140995,-80.2394903
7,Clair Road West,N1L 0A6,43.5008632,-80.1905185
8,Douglas Street,N1H2S9,43.5465908,-80.2490199
222,Silvercreek Parkway North,N1H 7P8,43.5434579,-80.2867841
567,Kortright Road West,N1G 3J6,43.5085985,-80.2317586
80,Imperial Road South,N1K 2A1,43.5254633,-80.2862704
142,York Road,N1E 3E9,43.5430590,-80.2361667
1388,Gordon Street,N1L 1C8,43.5129539,-80.1978886
183,Woolwich Street,N1H3V6,43.5484376,-80.2527251
2,Quebec Street,N1H 2T3,43.5456515,-80.2517868
175,Dawson Road,N1H 1A1,43.5539571,-80.2851670
104,Silvercreek Parkway North,N1H 3T0,43.5382029,-80.2786837
567,Silvercreek Parkway North,N1H 6J2,43.5532417,-80.2978383
5,Woodlawn Road West,N1H 1G8,43.5654646,-80.2782713
565,Woodlawn Road West,N1K 1E9,43.5433865,-80.3097142
21,Imperial Road South,N1K 1X3,43.5250982,-80.2910636
380,Eramosa Road,N1E 6R2,43.5624485,-80.2490981
20,Carden Street,N1H 3A2,43.5438218,-80.2490871
100,Crimea Street,N1H2Y6,43.5365785,-80.2627738
423,Woolwich Street,N1H 3X3,43.5534100,-80.2610492
715,Wellington Street West,N1H 8L8,43.5214951,-80.2688170
75,Yarmouth Street,N1H 4G2,43.5476958,-80.2526152
166,Woolwich Street,N1H 3V3,43.5480368,-80.2520303
77,Yarmouth Street,N1H 4G2,43.5477502,-80.2526316
172,Woolwich Street,N1H 3V5,43.5480296,-80.2524363
170,Woolwich Street,N1H 3V5,43.5480781,-80.2524498
36,Penfold Drive,N1e0c8,43.5797160,-80.2202700
369,Eastview Road,N1e0c8,43.5798260,-80.2214730
387,Eastview Road,N1e0c8,43.5802020,-80.2209550
82,Yarmouth Street,N1H 4G3,43.5478369,-80.2529330
37,Yarmouth Street,N1H 4G2,43.5466307,-80.2523104
460,York Road,N1E 3H8,43.5507097,-80.2259022
485,Silvercreek Parkway North #13,N1H 7K5,43.5513947,-80.2955377
510,Massey Road,N1K 1B4,43.5324719,-80.3128049
995,Paisley Road,N1K 1X6,43.5238517,-80.2869979
35,Harvard Road,N1G 3A2,43.5247881,-80.2219762
666,Woolwich Street,N1H 7G0,43.5583547,-80.2695399
20,Woodlawn Road East,N1H1G7,43.5675097,-80.2764118
119,Norfolk Street,N1H 4J7,43.5464810,-80.2527801
121,Norfolk Street,N1H 4J7,43.5465087,-80.2528071
130,Silvercreek Parkway North,N1H 7Y5,43.5391462,-80.2806944
400,Elizabeth Street,N1E 2Y1,43.5559079,-80.2275482
12,Charles Street,N1H 2E2,43.5488277,-80.2563182
80,Regal Road,N1K 1C1,43.5505835,-80.3036148
195,Hanlon Creek Boulevard,N1C 0A1,43.4908547,-80.2175586
191,Silvercreek Parkway North,N1H3T2,43.5419527,-80.2811497
21,Imperial Road South,N1K1X3,43.5249918,-80.2909207
336,Speedvale Avenue West,N1H 7M7,43.5422289,-80.2897920
222,Silvercreek Parkway North,N1H 8E8,43.5430466,-80.2863215
232,Speedvale Avenue West,N1H 7P8,43.5437756,-80.2874059
130,Silvercreek Parkway North,N1H 7Y5,43.5402408,-80.2816789
183,Silvercreek Parkway North,N1H3T2,43.5413169,-80.2803977
340,Woodlawn Road West,N1H 7K6,43.5477155,-80.2973991
21,Imperial Road South,N1K 1X3,43.5248895,-80.2913283
54,Preston Street,N1H 3C3,43.5380320,-80.2557231
304,Stone Road West,N1G 3C4,43.5177481,-80.2345931
490,York Road,N1E 6V1,43.5517382,-80.2255298
103,Clair Road East,N1L 0J7,43.5000147,-80.1871030
650,Woodlawn Rd. W,N1K 1B8,43.5423003,-80.3069941
95,Stone Road West,N1H 8J7,43.5251722,-80.2290552
20,Clair Road West,N1L 0A6,43.4997111,-80.1893067
150,Wyndham Street North,N1H 4E8,43.5473578,-80.2507587
146,Wyndham Street North,N1H 4E8,43.5473020,-80.2506968
370,Stone Road West,N1G 2X0,43.5163312,-80.2364747
672,Woolwich Street,N1H 3Z1,43.5598894,-80.2711092
498,Edinburgh Road South,N1G4Z1,43.5219067,-80.2342600
492,Edinburgh Road South,N1G 4Z1,43.5215816,-80.2354503
435,Stone Road West,N1G 2X6,43.5175305,-80.2390198
435,Stone Road West,N1G 2X6,43.5171133,-80.2393560
10,Paisley Street,N1H 2N6,43.5448674,-80.2528323
10,Paisley Street,N1H 2N6,43.5447469,-80.2530711
951,Gordon Street,N1G 4S1,43.5221945,-80.2138136
951,Gordon Street,N1G 4S1,43.5220505,-80.2135259
951,Gordon Street,N1G 4S1,43.5219986,-80.2134221
1027,Gordon Street,N1G 4X1,43.5205108,-80.2115602
1027,Gordon Street,N1G 4X1,43.5205462,-80.2116281
163,Curtis Drive,N1K 1S9,43.5505184,-80.3054492
106,Silvercreek Parkway North,N1H 7H6,43.5445433,-80.2856929
15,Monarch Road,N1K 1N4,43.5492021,-80.3048521
1398,Gordon Street,N1L 1C8,43.5126799,-80.1972567
27,Quebec Street,N1H 2T1,43.5454693,-80.2509222
55,Wyndham Street North,N1H 7T8,43.5458114,-80.2485066
100,Crimea Street,N1H 2Y6,43.5369939,-80.2622014
20,Woodlawn Road East,N1H1G7,43.5675556,-80.2760888
330,Speedvale Avenue East,N1E 1N5,43.5676081,-80.2589208
199,Woolwich Street,N1H 3V4,43.5487032,-80.2534628
15,Alma Street South,N1H 5W4,43.5357386,-80.2627072
649,Scottsdale Drive,N1G 4T7,43.5140072,-80.2378911
328,Speedvale Avenue East,N1E0J4,43.5669056,-80.2583399
20,Woodlawn Road East,N1H1G7,43.5673523,-80.2757649
20,Woodlawn Road East,N1H 1G7,43.5672376,-80.2753974
141,Wyndham Street North,N1H 4E9,43.5474560,-80.2503423
112,Wyndham Street North,N1H 4E8,43.5464252,-80.2499532
117,Wyndham Street North,N1H 4E9,43.5469673,-80.2498769
75,MacDonell Street,N1H 2Z7,43.5449549,-80.2473729
2,Wyndham Street North,N1H4E3,43.5443624,-80.2479851
28,Wilson Street,N1H 2Z2,43.5435640,-80.2496604
6,Carden Street,N1H 3A2,43.5436726,-80.2493465
20,Wilson Street,N1H 4G5,43.5433718,-80.2494809
19,Wyndham Street North,N1H 4E5,43.5451321,-80.2481898
91,Wyndham Street North,N1H 4E9,43.5464504,-80.2493690
450,Woodlawn Road West,N1K 1A6,43.5431693,-80.3066128
183,Silvercreek Parkway North,N1H3T2,43.5415133,-80.2805957
130,Silvercreek Parkway North,N1H 7Y5,43.5403001,-80.2815965
170,Silvercreek Parkway North,N1H7P7,43.5406666,-80.2825911
218,Silvercreek Parkway North,N1H 8E8,43.5429633,-80.2862145
219,Silvercreek Parkway North,N1H 7K4,43.5446742,-80.2861166
355,Elmira Road North,N1K 1S5,43.5337840,-80.3060852
150,Wellington Street East,N1H 0B4,43.5461014,-80.2435423
1467,Gordon Street S,N1L 1C9,43.5103108,-80.1965843
10,Woodlawn Road East,N1H 1G7,43.5672342,-80.2774244
107,Wyndham Street North,N1H 4E9,43.5468368,-80.2495176
257,Grange Road,N1E 5G6,43.5581696,-80.2300671
648,York Road,N1E 3J3,43.5554188,-80.2197450
89,Dawson Road,N1H 1B1,43.5490391,-80.2780720
10,Wyndham Street North,N1H 4E3,43.5444897,-80.2482561
104,Imperial Road North,N1H 7Z9,43.5322958,-80.2946287
160,MacDonell Street,N1H2Z6,43.5468306,-80.2445529
465,Laird Road,N1G 4W1,43.4947082,-80.2063845
255,Woodlawn Road West,N1H 8J1,43.5531173,-80.2955327
18,Douglas Street,N1H 2S9,43.5468496,-80.2489976
195,Hanlon Creek Blvd,N1C 0A1,43.4906748,-80.2174093
950,Paisley Road,N1K 0A6,43.5249865,-80.2854251
355,Elmira Road North,N1K 1S5,43.5346111,-80.3047922
355,Elmira Road North,N1K 1S5,43.5345742,-80.3046193
221,Woodlawn Road West,N1H 8P4,43.5548300,-80.2922199
221,Woodlawn Road West,N1H 8P4,43.5549298,-80.2920739
100,Crimea Street,N1H2Y6,43.5371472,-80.2622616
5,Edinburgh Road South,N1H5N8,43.5374758,-80.2583778
650,Scottsdale Drive,N1G 3M2,43.5147626,-80.2376548
327,Woodlawn Road West,N1H 7K8,43.5489930,-80.3001542
160,Clair Road West,N1H 4C6,43.4961140,-80.1929319
450,Woodlawn Road West,N1K 1A6,43.5429359,-80.3069264
450,Woodlawn Road West,N1K 1A6,43.5430422,-80.3067731
450,Woodlawn Road West,N1K 1A6,43.5431322,-80.3066753
450,Woodlawn Road West,N1K 1A6,43.5432679,-80.3064753
450,Woodlawn Road West,N1K 1A6,43.5433721,-80.3063485
660,Imperial Road North,N1H 7M3,43.5430005,-80.3058500
660,Imperial Road North,N1H 7M3,43.5429000,-80.3057037
23,Hilltop Road,N1E 7L4,43.5764595,-80.2708173
355,Elmira Road North,N1K 1S5,43.5332690,-80.3058242
715,Wellington Street West,N1H 8L8,43.5218346,-80.2682212
715,Wellington Street West,N1H 8L8,43.5215649,-80.2687905
715,Wellington Street West,N1H 8L8,43.5217025,-80.2687376
715,Wellington Street West,N1H 8L8,43.5217535,-80.2687173
715,Wellington Street West,N1H 8L8,43.5216427,-80.2687622
715,Speedvale Avenue West,N1K 1E6,43.5325396,-80.3043860
727,Speedvale Avenue West,N1K 1E6,43.5324223,-80.3046867
230,Silvercreek Parkway North,N1H 7P8,43.5440945,-80.2871635
27,Woodlawn Road West,N1H 1G8,43.5637479,-80.2798787
41,Woodlawn Road West,N1H 1G8,43.5633395,-80.2803832
5,Woodlawn Road West,N1H 1G8,43.5653975,-80.2782438
739,Woolwich Street,N1H 3Z2,43.5635428,-80.2742233
761,Woolwich Street,N1H 3Z2,43.5643005,-80.2755687
761,Woolwich Street,N1H 3Z2,43.5641373,-80.2757263
761,Woolwich Street,N1H 3Z2,43.5640883,-80.2756471
355,Elmira Road North,N1K 1E6,43.5334411,-80.3055266
355,Elmira Road North,N1K 1S5,43.5341662,-80.3045311
355,Elmira Road North,N1K 1S5,43.5345902,-80.3046996
355,Elmira Road North,N1K 1S5,43.5339329,-80.3058241
355,Elmira Road North,N1K 1S5,43.5339178,-80.3058438
355,Elmira Road North,N1K 1S5,43.5338791,-80.3058890
355,Elmira Road North,N1K 1S5,43.5342623,-80.3053732
355,Elmira Road North,N1K 1S5,43.5341360,-80.3055361
170,Silvercreek Parkway North,N1H 7P7,43.5404037,-80.2828123
170,Silvercreek Parkway North,N1H 7P7,43.5406014,-80.2826717
170,Silvercreek Parkway North,N1H 7P7,43.5405456,-80.2827492
130,Silvercreek Parkway North,N1H 7Y5,43.5403413,-80.2815374
130,Silvercreek Parkway North,N1H 7Y5,43.5401275,-80.2818356
130,Silvercreek Parkway North,N1H 7Y5,43.5401618,-80.2817856
130,Silvercreek Parkway North,N1H 7Y5,43.5395854,-80.2809884
130,Silvercreek Parkway North,N1H 7Y5,43.5397581,-80.2811485
130,Silvercreek Parkway North,N1H 7Y5,43.5402065,-80.2817317
130,Silvercreek Parkway North,N1H 7Y5,43.5397959,-80.2810985
130,Silvercreek Parkway North,N1H 7Y5,43.5396862,-80.2812453
14,Commercial Street,N1H2T7,43.5445286,-80.2520597
105,Silvercreek Parkway North,N1H 6S4,43.5391951,-80.2779968
727,Speedvale Avenue West,N1K 1E6,43.5322459,-80.3048373
727,Speedvale Avenue West,N1K 1E6,43.5322155,-80.3049864
727,Speedvale Avenue West,N1K 1E6,43.5323880,-80.3047409
727,Speedvale Avenue West,N1K 1E6,43.5322955,-80.3047681
705,Speedvale Avenue West,N1K 1E6,43.5329088,-80.3040190
705,Speedvale Avenue West,N1K 1E6,43.5329698,-80.3039368
699,Speedvale Avenue West,N1K 1E6,43.5331505,-80.3036975
370,Speedvale Avenue West,N1H 7M7,43.5412970,-80.2909545
370,Speedvale Avenue West,N1H 7M7,43.5412423,-80.2909235
370,Speedvale Avenue West,N1H 7M7,43.5411871,-80.2908933
336,Speedvale Avenue West,N1H 7M7,43.5421271,-80.2896399
219,Silvercreek Parkway North,N1H 7K4,43.5441317,-80.2852807
219,Silvercreek Parkway North,N1H 7K4,43.5442332,-80.2854270
219,Silvercreek Parkway North,N1H 7K4,43.5443435,-80.2855927
219,Silvercreek Parkway North,N1H 7K4,43.5444230,-80.2856938
219,Silvercreek Parkway North,N1H 7K4,43.5446603,-80.2858098
219,Silvercreek Parkway North,N1H 7K4,43.5447911,-80.2862505
219,Silvercreek Parkway North,N1H 7K4,43.5448535,-80.2861915
219,Silvercreek Parkway North,N1H 7K4,43.5449489,-80.2860568
292,Speedvale Avenue West,N1H 1C4,43.5451323,-80.2850901
650,Scottsdale Drive,N1G 3M2,43.5147162,-80.2375843
415,Woodlawn Road West,N1H 7M1,43.5450894,-80.3059185
775,Woodlawn Road West,N1K 1E9,43.5403772,-80.3129366
930,Woodlawn Road West,N1K 1T2,43.5346571,-80.3184900
930,Woodlawn Road West,N1K 1T2,43.5343670,-80.3188689
381,Elmira Road North,N1K 1H3,43.5338779,-80.3072712
595,Elmira Road North,N1K 1G5,43.5399251,-80.3155220
30,Clair Road West,N1L 1G7,43.4998408,-80.1888815
20,Clair Road West,N1L 0A8,43.4993782,-80.1897399
1,Quebec Street,N1H 2T1,43.5452860,-80.2517068
85,Norfolk Street,N1H 4J4,43.5449241,-80.2513158
96,Gordon Street,N1H 4H6,43.5407360,-80.2434483
86,Gordon Street,N1H4H6,43.5410046,-80.2436442
147,Massey Road,N1K1B2,43.5423467,-80.3007080
159,Fife Road,N1H 7N8,43.5140873,-80.2759591
104,Dawson Road,N1H1A65,43.5493859,-80.2813826
104,Dawson Road,N1H1A6,43.5495176,-80.2812040
30,Clair Road West,N1L 0A8,43.4996937,-80.1886701
234,Victoria Road South,N1E 5R1,43.5517947,-80.2211634
220,Victoria Road South,N1E 5R1,43.5514129,-80.2225914
220,Victoria Road South,N1E 5R1,43.5513898,-80.2225535
15,Quebec Street,N1H2T1,43.5454247,-80.2512502
5,Gordon Street,N1H4G8,43.5419481,-80.2486847
31,Farley Drive,N1L0B7,43.5026284,-80.1876229
392,Silvercreek Parkway North,N1H 1E7,43.5476762,-80.2916527
358,Silvercreek Parkway North,N1H 1E7,43.5466121,-80.2904510
221,Woodlawn Road West,N1H 8P4,43.5549303,-80.2923671
221,Woodlawn Road West,N1H 8P4,43.5549804,-80.2924589
221,Woodlawn Road West,N1H 8P4,43.5550402,-80.2925374
221,Woodlawn Road West,N1H 8P4,43.5550472,-80.2927295
221,Woodlawn Road West,N1H 8P4,43.5550009,-80.2928052
221,Woodlawn Road West,N1H 8P4,43.5549516,-80.2928821
221,Woodlawn Road West,N1H 8P4,43.5548974,-80.2929598
221,Woodlawn Road West,N1H 8P4,43.5548475,-80.2930373
221,Woodlawn Road West,N1H 8P4,43.5547990,-80.2931073
221,Woodlawn Road West,N1H 8P4,43.5547398,-80.2931806
221,Woodlawn Road West,N1H 8P4,43.5547512,-80.2931613
1886,Gordon Street,N1L 0P4,43.4981552,-80.1851501
206,Silvercreek Parkway North,N1H 7P7,43.5416309,-80.2834023
340,Woodlawn Road West,N1H 7K6,43.5482711,-80.2981818
340,Woodlawn Road West,N1H 7K6,43.5480321,-80.2978639
17,Gordon Street,N1H 4G7,43.5418050,-80.2482281
23,Gordon Street,N1H 4G9,43.5414926,-80.2474977
21,Gordon Street,N1H 4G8,43.5417049,-80.2481085
265,Hanlon Creek Boulevard,N1C 0A1,43.4933105,-80.2196778
265,Hanlon Creek Boulevard,N1C 0A1,43.4930788,-80.2192728
265,Hanlon Creek Boulevard,N1C 0A1,43.4930349,-80.2192298
245,Hanlon Creek Boulevard,N1C 0A1,43.4928204,-80.2185832
1398,Gordon Street,N1L 1C8,43.5126337,-80.1973049
405,York Road,N1E 3H3,43.5493542,-80.2271201
75,Wyndham Street South,N1E 5R3,43.5415946,-80.2417880
75,Wyndham Street South,N1E 5R3,43.5415751,-80.2417488
77,Wyndham Street South,N1E 5R3,43.5414016,-80.2416239
497,York Road,N1E 3J2,43.5514112,-80.2243218
113,Starwood Drive,N1E 0H5,43.5666024,-80.2144953
119,Starwood Drive,N1E 7J9,43.5666082,-80.2147199
650,Woodlawn Road West,N1K 1B8,43.5418096,-80.3080018
500,Willow Road,N1H 7G4,43.5327309,-80.2880610
500,Willow Road,N1H 7G4,43.5326566,-80.2879553
500,Willow Road,N1H 7G4,43.5326140,-80.2878964
530,Willow Road,N1H 7G4,43.5326870,-80.2881540
530,Willow Road,N1H 7G4,43.5325693,-80.2879908
83,Macdonell Street,N1H 3A3,43.5450476,-80.2471773
26,Wilson Street,N1H 2G5,43.5434670,-80.2495620
38,Wilson Street,N1H 4G4,43.5437402,-80.2498026
34,Carden Street,N1H 3A2,43.5439979,-80.2487332
54,Carden Street,N1H 3A2,43.5442070,-80.2483049
58,Carden Street,N1H 3A2,43.5442561,-80.2482189
400,Waterloo Avenue,N1H 7H8,43.5298310,-80.2609400
34,Gordon Street,N1H 4H1,43.5419121,-80.2467528
492,Edinburgh Road South,N1G 4Z1,43.5216835,-80.2351367
84,Norfolk Street,N1H 4J2,43.5446171,-80.2516416
336,Speedvale Avenue West,N1H 7M7,43.5420372,-80.2895155
336,Speedvale Avenue West,N1H 7M7,43.5419911,-80.2894512
206,Speedvale Avenue West,N1H 1C4,43.5493899,-80.2798751
304,Stone Road West,N1G 3C4,43.5182085,-80.2339770
67,Foster Avenue,N1H3B4,43.5386313,-80.2578190
192,Paisley Street,N1H 2P5,43.5417129,-80.2602932
179,Inkerman Street,N1H3E1,43.5345618,-80.2634652
115,Nottingham Street,N1H3N2,43.5381955,-80.2497603
10,Cork Street East,N1H 2W8,43.5446725,-80.2505800
50,Crimea Street,N1H2Y6,43.5374187,-80.2612546
50,Crimea Street,N1H6J6,43.5376492,-80.2610648
95,Crimea Street,N1H2Y5,43.5374698,-80.2623241
104,Dawson Road,N1H1A6,43.5496886,-80.2810634
715,Wellington Street West,N1H 8L8,43.5218485,-80.2684358
338,Waterloo Avenue,N1H3J8,43.5323189,-80.2592245
338,Waterloo Avenue,N1H3J8,43.5322406,-80.2591474
563,Woolwich Street,N1H3Y3,43.5565452,-80.2654154
20,Alma Street South,N1H5W5,43.5356167,-80.2620111
9,Edinburgh Road South,N1H5N8,43.5359754,-80.2622109
7,Edinburgh Road South,N1H5N8,43.5373803,-80.2585752
55,Wyndham Street North,N1H 7T8,43.5464437,-80.2472352
214,Woolwich Street,N1H 3V7,43.5483863,-80.2541742
60,Ontario Street,N1E3B1,43.5447144,-80.2383799
44,Johnston Street,N1E5T6,43.5500501,-80.2319023
55,Wyndham Street North,N1H7T8,43.5464653,-80.2472544
63,Arkell Road,N1L1G8,43.5151730,-80.1972279
60,Ontario Street,N1E3B1,43.5446549,-80.2384758
42,Carden Street,N1H3A2,43.5440733,-80.2485747
69,Huron Street,N1E 5L5,43.5482033,-80.2377058
30,Arrow Road,N1K1S6,43.5546500,-80.2949517
16,Essex Street,N1H3K8,43.5414159,-80.2487314
16,Essex Street,N1H3K8,43.5413424,-80.2487442
28,Essex Street,N1H3K8,43.5412055,-80.2488486
32,Essex Street,N1H3K8,43.5410881,-80.2490703
42,Essex Street,N1H3K8,43.5409915,-80.2491200
486,Woodlawn Road East,N1E 1B9,43.5777366,-80.2607624
700,York Road,N1E 6A5,43.5568141,-80.2184430
670,Woolwich Street,N1H 3Z1,43.5597267,-80.2706615
666,Woolwich Street,N1H 7G5,43.5583432,-80.2695199
204,Yorkshire Street North,N1H 5C1,43.5447340,-80.2605538
204,Yorkshire Street North,N1H 5C1,43.5446701,-80.2604880
167,Suffolk Street West,N1H 2J7,43.5443742,-80.2608016
59,Macdonell Street,N1H 2Z3,43.5445474,-80.2482001
84,Northumberland Street,N1H3A8,43.5413011,-80.2528620
83,Essex Street,N1H 3K9,43.5396744,-80.2503110
147,Wyndham Street North,N1H4E8,43.5476393,-80.2504119
121,Wyndham Street North,N1H4E9,43.5469829,-80.2499050
292,Speedvale Avenue West,N1H 1C4,43.5446051,-80.2847980
60,Ontario Street,N1E 3B1,43.5446643,-80.2383890
163,Alice Street,N1E 3A2,43.5485840,-80.2344618
101,Beverley Street,N1E 3C3,43.5502120,-80.2289324
101,Beverley Street,N1E 3C3,43.5502677,-80.2290440
38,Alice Street,N1E 2Z8,43.5461014,-80.2382975
349,Elizabeth Street,N1E 2X9,43.5548653,-80.2309540
349,Elizabeth Street,N1E 2X9,43.5547410,-80.2310920
201,Alice Street,N1E 3A8,43.5502826,-80.2321350
505,505 Southgate Drive,N1G 3W6,43.4883429,-80.2074943
635,Southgate Drive,N1G 3W6,43.4931370,-80.2133341
2,Admiral Place,N1G 4N4,43.4901142,-80.2065726
74,Woolwich Street,N1H 3T9,43.5471440,-80.2478044
435,Stone Road,N1G 2X6,43.5184157,-80.2379881
175,Stone Road West,N1G 5L4,43.5231559,-80.2331092
500,Edinburgh Road South,N1G 4Z1,43.5215102,-80.2334279
127,Stone Road West,N1G 5G4,43.5235008,-80.2305016
160,Kortright Road West,N1G 4W2,43.5131999,-80.2179945
200,Woolwich Street,N1H 3V7,43.5482344,-80.2537642
130,MacDonell Street,N1H 6P8,43.5461097,-80.2461382
55,Wyndham Street North,N1H 7T8,43.5461815,-80.2476339
150,Woolwich Street,N1H 3V3,43.5478945,-80.2515777
176,Wyndham Street North,N1H 8N9,43.5477478,-80.2513788
138,Wyndham Street North,N1H 4E8,43.5469909,-80.2506518
160,Woolwich Street,N1H 3V3,43.5479392,-80.2517318
214,Woolwich St,N1H 3V7,43.5483226,-80.2542119
68,Yarmouth Street,N1H 4G3,43.5474235,-80.2528449
76,Yarmouth Street,N1H 4G3,43.5476776,-80.2529520
683,Woolwich St,N1H 3Y8,43.5604034,-80.2698722
50,Quebec Street,N1H2T4,43.5459359,-80.2503610
148,Wyndham Street North,N1H 4E8,43.5472060,-80.2509001
40,Baker Street,N1H 4G1,43.5466771,-80.2520423
55,Yarmouth Street,N1H 7R4,43.5473121,-80.2522885
100,Norfolk Street,N1H 4J6,43.5456661,-80.2529150
50,Wyndham Street South,N1H4E1,43.5435147,-80.2436411
15,Wyndham Street South,N1H4C6,43.5427679,-80.2463952
258,Woolwich Street,N1H 3W1,43.5491356,-80.2562250
294,Woolwich Street,N1H 3W3,43.5501524,-80.2571705
62,Yarmouth Street,N1H 4G3,43.5472527,-80.2528378
54,Yarmouth Street,N1H 4G3,43.5470846,-80.2528194
50,Yarmouth Street,N1H 4G3,43.5469674,-80.2527393
485,Woodlawn Road West,N1K 1E9,43.5440309,-80.3090780
80,Stone Road West,N1G 0A9,43.5248080,-80.2262334
95,Stone Road West,N1H 8J7,43.5250619,-80.2295720
292,Speedvale Avenue West,N1H 1C4,43.5448872,-80.2849399
219,Silvercreek Parkway North,N1H 7K4,43.5444091,-80.2854845
219,Silvercreek Parkway North,N1H 7K4,43.5448747,-80.2858770
487,Grange Road,N1E 7C4,43.5693244,-80.2209937
10,Woodlawn Road East,N1H1G7,43.5670887,-80.2772432
20,Woodlawn Road East,N1H1G7,43.5675076,-80.2761210
135,Ferguson Street,N1E 2Y9,43.5500020,-80.2358585
358,Gordon Street,N1G 1Y1,43.5329837,-80.2329606
66,Watson Lane,N1H 4E8,43.5355692,-80.2310767
35,Harvard Road,N1G 3A2,43.5241368,-80.2238313
502,Edinburgh Road South,N1G 4Z1,43.5211662,-80.2326134
492,Edinburgh Road South,N1G 4Z1,43.5217051,-80.2352700
498,Edinburgh Road South,N1G4Z1,43.5219376,-80.2341789
496,Edinburgh Road South,N1G 4Z1,43.5203528,-80.2337404
24,Franchetto Boulevard,---,43.5582262,-80.2352786
160,MacDonell Street,N1H0A9,43.5467806,-80.2449680
9,Mcelderry Road,N1G 4W7,43.5192195,-80.2238421
111,Colonial Drive,N1L 1R3,43.5192661,-80.1859383
33,Gateway Drive,N1H 6X1,43.5184476,-80.2749180
80,Imperial Road South,N1K 2A1,43.5256434,-80.2863847
121,Bagot Street,N1H 5T8,43.5433336,-80.2695361
512,Woolwich Street,N1H 3X7,43.5549216,-80.2645723
400,Waterloo Avenue,N1H 7H9,43.5296981,-80.2607905
380,Waterloo Avenue,N1H 7H8,43.5304077,-80.2605225
364,Waterloo Avenue,N1H 3K2,43.5307473,-80.2596670
170,Metcalfe Street,N1E 4Y3,43.5580950,-80.2520859
271,Metcalfe Street,N1E 4Y8,43.5634980,-80.2574072
60,Woodlawn Road East,N1H 8M8,43.5694261,-80.2740643
890,Woodlawn Road West,N1K 1A5,43.5349464,-80.3149585
545,Elmira Road North,N1K 1C2,43.5385347,-80.3119118
950,Paisley Road,N1K 0A6,43.5249376,-80.2854463
1428,Gordon Street,N1L 1C8,43.5123265,-80.1955071
182,Clairfields Drive East,N1L 1N4,43.5087689,-80.1882879
56,Youngman Drive,N1G 4L2,43.5201290,-80.2258288
135,Exhibition Street,N1H 4R4,43.5521298,-80.2632617
160,Ironwood Road,N1G 3R4,43.5133941,-80.2319428
287,Imperial Road South,N1K 1Z4,43.5246386,-80.2819405
271,Stephanie Drive,N1K 1T1,43.5231069,-80.2782805
28,Norfolk Street,N1H 4H8,43.5430252,-80.2516388
75,Ottawa Crescent,N1E 2A8,43.5626868,-80.2446758
140,Waverley Drive,N1E 1H2,43.5735689,-80.2593313
397,Stevenson Street North,N1E 5C1,43.5658306,-80.2559423
72,Lemon Street,N1E 2H5,43.5549601,-80.2474054
50,Laurine Avenue,N1E 4M9,43.5566640,-80.2439781
406,Paisley Road,N1H 2R3,43.5371781,-80.2662699
130,Silvercreek Parkway North,N1H 7Y5,43.5402711,-80.2817412
25,Wellington Street West,N1H 7T9,43.5399361,-80.2457289
189,Water Street,N1G 1B3,43.5345188,-80.2484314
23,Ptarmigan Drive,N1C 1B5,43.5002334,-80.2399384
715,Wellington Street West,N1H 8L8,43.5216215,-80.2688407
75,Southgate Drive,N1G 3M5,43.4968742,-80.2087034
655,Southgate Drive,N1G 5G6,43.4930939,-80.2117808
150,Westwood Road,N1H 7G1,43.5317579,-80.2826352
495,Willow Road,N1H 7C7,43.5350717,-80.2870796
343,Waterloo Avenue,N1H 3K1,43.5324142,-80.2598315
245,Bristol Street,N1H 3M3,43.5337323,-80.2564572
8,Bishop Court,N1G 2R9,43.5126108,-80.2453947
666,Woolwich Street,N1H7G5,43.5582596,-80.2695574
30,June Avenue,N1H 1H6,43.5551093,-80.2758306
176,Woolwich Street,N1H 3V5,43.5480473,-80.2526211
76,Baker Street,N1H 4G1,43.5478042,-80.2523281
80,Baker Street,N1H 4G1,43.5479850,-80.2523535
64,Brant Avenue,N1E 1G2,43.5789616,-80.2535009
525,Grange Road,N1E 7C4,43.5705206,-80.2206226
21,Meyer Drive,N1E 4H1,43.5607730,-80.2461295
275,Scottsdale Drive,N1G 3A1,43.5205529,-80.2420795
177,Rickson Avenue,N1G 4Y6,43.5130008,-80.2130832
140,Goodwin Drive,N1L 0G7,43.5103085,-80.1806678
670,Willow Road,N1H 8K2,43.5270098,-80.2949263
221,Scottsdale Drive,N1G 3A1,43.5218318,-80.2440437
97,Dublin Street North,N1H 4N2,43.5441968,-80.2532361
155,Paisley Street,N1H 2P3,43.5429096,-80.2596975
289,College Avenue West,N1G 1S9,43.5227620,-80.2488173
371,College Avenue West,N1G 1T3,43.5215423,-80.2509845
125,Willow Road,N1H 1W4,43.5435111,-80.2764281
86,Glasgow Street North,N1H4W2,43.5433030,-80.2564359
54,Westmount Road,N1H 5H7,43.5478970,-80.2683520
200,Clair Road West,N1L1G1,43.4936469,-80.1958513
26,Norfolk Street,N1H 4H8,43.5429451,-80.2509242
365,Stevenson Street North,N1E 5B7,43.5635361,-80.2530424
386,Speedvale Avenue East,N1E 1N5,43.5669424,-80.2572347
12,Woodlawn Road East,N1H1G5,43.5658391,-80.2772452
14,Woodlawn Road East,N1H1G7,43.5660041,-80.2766563
63,Woodlawn Road West,N1H 1G8,43.5623490,-80.2837383
147,Norfolk Street,N1H 4J7,43.5471180,-80.2534322
35,Cowan Place,N1G 0C1,43.4926344,-80.2131526
151,Victoria Rd N,N1E 5H5,43.5639878,-80.2383671
21,Imperial Road South,N1K 1X3,43.5246712,-80.2917187
130,Silvercreek Parkway North,N1H 7Y5,43.5397743,-80.2819410
170,Silvercreek Parkway North,N1H 7P7,43.5405243,-80.2826448
130,Silvercreek Parkway North,N1H 7Y5,43.5392393,-80.2811770
214,Silvercreek Parkway North,N1H 7P8,43.5424294,-80.2852089
116,Gordon Street,N1H4H6,43.5391052,-80.2419217
558,Massey Road,N1K 1B4,43.5312165,-80.3143450
38,Wilson Street,N1H 4G5,43.5437137,-80.2498443
18,Macdonell Street,N1H2Z3,43.5442472,-80.2498891
85,Norfolk Street,N1H 4J4,43.5449988,-80.2513883
12,Waterloo Avenue,N1H3H3,43.5412067,-80.2495219
46,Essex Street,N1H3K8,43.5406584,-80.2490982
88,Waterloo Avenue,N1H3H8,43.5385954,-80.2523475
125,Huron Street,N1E 5L5,43.5475773,-80.2373539
67,Arkell Road,N1L 1G9,43.5159316,-80.1959600
85,Clair Road East,N1L 0J7,43.5017328,-80.1849182
391,Victoria Road North,N1E 5J9,43.5766217,-80.2567012
57,Victoria Road North,N1E 5G9,43.5603023,-80.2320088
54,Westmount Road,N1H 5H7,43.5468792,-80.2685192
251,Colonial Drive,N1L 0G4,43.5159124,-80.1807702
120,Silvercreek Parkway North,N1H 7P7,43.5394515,-80.2802210
104,Silvercreek Parkway North,N1H 3T0,43.5381857,-80.2788524
1,Starwood Drive,N1E 0H5,43.5665256,-80.2121054
25,Lee Street,N1E 7E7,43.5638790,-80.2201923
200,Mccann Street,N1G 0C5,43.5306268,-80.2038000
59,Carden Street,N1H 2Z9,43.5438229,-80.2477698
750,Southgate Drive,N1G 4S2,43.4920939,-80.2096200
60,Corporate Court,N1G 5J3,43.4904122,-80.2095771
125,Raymond Street,N1H 3S6,43.5361842,-80.2524901
120,Edinburgh Road South,N1H5P7,43.5350840,-80.2539999
27,Woodlawn Road West,N1H 1G8,43.5638978,-80.2798060
450,Woodlawn Road West,N1K 1A6,43.5430806,-80.3065853
700,Woodlawn Road West,N1K 1G4,43.5408170,-80.3094415
350,Woodlawn Road West,N1H 7M4,43.5469582,-80.3010130
49,Clair Road East,N1L 0J3,43.5013423,-80.1870253
355,Elmira Road North,N1K 1S5,43.5340099,-80.3053158
1,Huntington Place,N1G 4C9,43.5236193,-80.2115857
2,Huntington Place,N1G 4C9,43.5231949,-80.2119000
3,Huntington Place,N1G 4C9,43.5237756,-80.2117485
4,Huntington Place,N1G 4C9,43.5232355,-80.2121354
5,Huntington Place,N1G 4C9,43.5238181,-80.2120135
6,Huntington Place,N1G 4C9,43.5233513,-80.2123486
7,Huntington Place,N1G 4C9,43.5237707,-80.2122768
8,Huntington Place,N1G 4C9,43.5235660,-80.2124519
2,Kortright Road East,N1G 4C9,43.5223900,-80.2126391
4,Kortright Road East,N1G 4C9,43.5225385,-80.2125124
6,Kortright Road East,N1G 4C9,43.5226752,-80.2123726
8,Kortright Road East,N1G 4C9,43.5228079,-80.2122266
10,Kortright Road East,N1G 4C9,43.5229411,-80.2121178
19,Kortright Road East,N1G 4C9,43.5233147,-80.2111970
21,Kortright Road East,N1G 4C9,43.5234658,-80.2110812
160,Clair Road West,N1H 4C6,43.4960023,-80.1933167
220,York Road,N1E2G2,43.5453371,-80.2331722
230,Dimson Avenue,N1G 4M4,43.5240068,-80.2113595
19,Elmira Road South,N1K 0B6,43.5225293,-80.2949040
64,Baker Street,N1H 4G1,43.5473911,-80.2521309
62,Baker Street,N1H 4G1,43.5472997,-80.2521096
59,Yarmouth Street,N1H 4G2,43.5474301,-80.2525021
53,Yarmouth Street,N1H 4G2,43.5472127,-80.2524451
60,Baker Street,N1H 4G1,43.5472036,-80.2520792
51,Yarmouth Street,N1H 4G2,43.5471389,-80.2524098
660,Imperial Road North,N1H 7M3,43.5428811,-80.3058180
54,Elizabeth Street,N1E2X2,43.5492726,-80.2403934
56,Yarmouth Street,N1H 4G3,43.5471477,-80.2528183
74,Yarmouth Street,N1G 4G3,43.5476441,-80.2530773
163,Curtis Drive,N1K 1S9,43.5505951,-80.3056938
785,Imperial Road North,N1K 1X4,43.5479083,-80.3071269
336,Speedvale Avenue West,N1H 7M7,43.5420163,-80.2896030
1000,Southgate Drive,N1L 0G5,43.4840991,-80.1941522
216,Silvercreek Parkway South,N1H3S7,43.5289818,-80.2637978
74,Ontario Street,N1E3B2,43.5449349,-80.2372501
705,Speedvale Avenue West,N1K 1E6,43.5330101,-80.3040520
715,Speedvale Avenue West,N1K 1E6,43.5326257,-80.3045130
1099,Gordon Street,N1G 4X9,43.5192858,-80.2082565
987,Gordon Street,N1G 4W3,43.5214989,-80.2126327
86,Yarmouth Street,N1H 4G3,43.5477800,-80.2531389
370,Speedvale Avenue West,N1H 7M7,43.5412183,-80.2907962
630,Scottsdale Drive,N1G 3M2,43.5151091,-80.2383631
137,Norfolk Street,N1H 4J7,43.5469023,-80.2532331
143,Norfolk Street,N1H 4J7,43.5470346,-80.2533399
131,Norfolk Street,N1H 4J7,43.5467672,-80.2530797
88,Yarmouth Street,N1H 4G3,43.5479086,-80.2530665
176,Morris Street,N1E 5M7,43.5476733,-80.2316644
166,Wyndham Street North,N1H 4E8,43.5475872,-80.2512353
595,Watson Parkway North,N1E 6X2,43.5804868,-80.2261281
90,Yarmouth Street,N1H 4G3,43.5479485,-80.2530898
182,Woolwich Street,N1H 3V6,43.5480425,-80.2530430
25,Suffolk Street East,N1H 2H7,43.5480171,-80.2530981
381,Edinburgh Road South,N1G 3J7,43.5235167,-80.2401099
30,Brighton Street,N1E 3S9,43.5680150,-80.2621574
125,Norfolk Street,N1H 4J7,43.5466569,-80.2529574
23,Suffolk Street East,N1H 2H7,43.5479905,-80.2531692
1291,Gordon Street,N1L 0M5,43.5140268,-80.2005614
120,Huron Street,N1E0T8,43.5478253,-80.2354561
43,Wimbledon Road,N1H 7N4,43.5328197,-80.2910910
11,Bond Court,N1H 8N6,43.5354842,-80.2961191
70,Stevenson Street South,N1E 5N4,43.5524635,-80.2326963
48,Wells Street,N1E 6B6,43.5543284,-80.2233454
415,Elmira Road North,N1K 1H3,43.5351414,-80.3080975
400,Massey Road,N1K 1C4,43.5357359,-80.3069508
460,Speedvale Avenue West,N1H 0A8,43.5384018,-80.2939071
8,Royal Road,N1H 1G3,43.5399284,-80.2952034
583,Willow Road,N1H 7H3,43.5310572,-80.2911764
3,Hilldale Crescent,N1G 4C3,43.5092808,-80.2267390
26,Munroe Crescent,N1G,43.5001604,-80.1939244
175,Chancellors Way,N1G 5K1,43.5232979,-80.2344991
125,Chancellors Way,N1G 5K1,43.5250443,-80.2324790
24,Clair Road West,N1L 0A6,43.4983029,-80.1893659
395,Southgate Drive,N1G 3W6,43.5000698,-80.2229294
200,Woodlawn Road West,N1H 1B6,43.5544278,-80.2900781
1219,Gordon Street,N1L 0M9,43.5164240,-80.2037502
166,College Avenue West,N1G 1S4,43.5240312,-80.2425824
221,Woodlawn Road West,N1H 8P4,43.5549207,-80.2927816
394,Edinburgh Road North,N1H 1E5,43.5517963,-80.2801818
63,Victoria Road North,N1E 5G9,43.5604953,-80.2339387
10,Guelph Street,N1H 5Y8,43.5386064,-80.2686963
200,Clair Road West,N1L 1G1,43.4931653,-80.1947743
21,Surrey Street West,n1h3r3,43.5406852,-80.2462296
21,Surrey Street West,N1H3R3,43.5405796,-80.2465320
53,Arthur Street South,N1E0P9,43.5466663,-80.2426045
62,Harvard Road,N1G 2X8,43.5237047,-80.2233000
60,Harvard Road,N1G 2X8,43.5237474,-80.2231162
58,Harvard Road,N1G 2X8,43.5237548,-80.2229135
3,Harrow Court,N1G 2Y9,43.5237518,-80.2227294
5,Harrow Court,N1G 2Z1,43.5234522,-80.2227923
9,Harrow Court,N1G 2Z1,43.5234432,-80.2230181
11,Harrow Court,N1G 2Z1,43.5233463,-80.2232417
15,Harrow Court,N1G 2Z1,43.5231194,-80.2234169
17,Harrow Court,N1G 2Z1,43.5229112,-80.2232430
16,Harrow Court,N1G 2Z1,43.5227782,-80.2229759
14,Harrow Court,N1G 2Z1,43.5228753,-80.2226380
12,Harrow Court,N1G 2Z1,43.5230013,-80.2224972
10,Harrow Court,N1G 2Z1,43.5231156,-80.2223499
8,Harrow Court,N1G 2Z1,43.5232676,-80.2222275
6,Harrow Court,N1G 2Z1,43.5234227,-80.2221670
4,Harrow Court,N1G 2Z1,43.5235921,-80.2221698
2,Harrow Court,N1G 2Z1,43.5237508,-80.2221562
1035,Victoria Road South,N1L 0H5,43.5305455,-80.1957765
150,Delhi Street,N1E 6K9,43.5568322,-80.2579516
115,Delhi Street,N1E 4J4,43.5560438,-80.2526110
100,Westmount Road,N1H 5H8,43.5498000,-80.2720428
151,Waterloo Avenue,N1H 3H9,43.5374044,-80.2548733
108,Forest Street,N1G1H9,43.5297934,-80.2452122
485,Waterloo Avenue,N1H 3K4,43.5302308,-80.2640124
410,Clair Road East,N1L1C3,43.5111781,-80.1753731
763,Woolwich Street,N1H 3Z1,43.5644413,-80.2758947
3,Crowe St,N1G 4H6,43.5159874,-80.2234295
302,College Avenue,N1G2W1,43.5211104,-80.2465851
63,Arkell Road,N1L1G8,43.5150661,-80.1971291
1,Eugene Drive,N1L 1P6,43.5037006,-80.1895131
5,Eugene Drive,N1L 1P6,43.5037952,-80.1893900
9,Eugene Drive,N1L 1P6,43.5038993,-80.1892625
15,Eugene Drive,N1L 1P6,43.5039893,-80.1891347
11,Clair Road West,N1L 0A6,43.4996336,-80.1904338
308,Cole Road,N1G 3J2,43.5085165,-80.2350103
18,Hosking Place,N1G3R9,43.5103696,-80.2306155
287,Speedvale Avenue West,N1H 1C5,43.5456853,-80.2868175
147,Massey Road,N1K1B2,43.5426552,-80.3014125
40,Wilbert Street,N1K 0A3,43.5440521,-80.3160230
124,Woodlawn Road West,N1H 1B2,43.5586315,-80.2854810
270,Waterloo Avenue,N1H3J5,43.5337542,-80.2574371
240,Waterloo Avenue,N1H3J5,43.5343255,-80.2568644
17,Roland Street,N1H5Z4,43.5319303,-80.2594087
283,Bristol Street,N1H 8J3,43.5322689,-80.2580948
281,Bristol Streeet,N1H 8J3,43.5325462,-80.2577838
32,Rhonda Road,N1H6H2,43.5342000,-80.2787725
338,Waterloo Avenue,N1H3J8,43.5322959,-80.2591628
324,Waterloo Avenue,N1H 3J8,43.5327365,-80.2587065
326,Waterloo Avenue,N1H 3J8,43.5326488,-80.2588272
316,Waterloo Avenue,N1H 3J8,43.5328748,-80.2585873
310,Waterloo Avenue,N1H 3J8,43.5330063,-80.2584447
300,Waterloo Avenue,N1H 3J8,43.5333134,-80.2580790
304,Waterloo Avenue,N1H 3J8,43.5331890,-80.2582163
210,Waterloo Avenue,N1H 3J5,43.5354392,-80.2558332
208,Waterloo Avenue,N1H 3J5,43.5355043,-80.2557003
200,Waterloo Avenue,N1H 3J5,43.5356355,-80.2556493
93,Edinburgh Road South,N1H 5P5,43.5355121,-80.2554852
99,Waterloo Avenue,N1H 5P5,43.5352635,-80.2552089
165,Edinburgh Road North,N1H 5R6,43.5414037,-80.2631108
4,Ryde Road,N1K 1V9,43.5281052,-80.2809956
3,Candlewood Drive,N1K 0E1,43.5284440,-80.2801226
772,Paisley Road,N1K 0E2,43.5288734,-80.2789183
196,Waterloo Avenue,N1H3J3,43.5357797,-80.2553243
100,Edinburgh Road South,N1H5P4,43.5354440,-80.2545712
188,Waterloo Avenue,N1H3J3,43.5361061,-80.2550009
71,Wyndham Street South,N1E 0T7,43.5416810,-80.2423710
5,Arthur Street South,N1E5K2,43.5471972,-80.2422212
546,Woolwich Street,N1H 3X7,43.5556662,-80.2649860
190,Hanlon Creek Boulevard,N1C 0A1,43.4901045,-80.2185390
179,Inkerman Street,N1H3E1,43.5345100,-80.2636282
315,Waterloo Avenue,N1H 3J9,43.5332539,-80.2589995
109,Alma Street South,N1H 5W8,43.5333746,-80.2592027
106,Alma Street South,N1H 5W9,43.5337345,-80.2589890
287,Waterloo Avenue,N1H 3J7,43.5337911,-80.2583506
291,Waterloo Avenue,N1H 3J7,43.5336938,-80.2584452
297,Waterloo Avenue,N1H 3J7,43.5336034,-80.2585461
52,Dublin Street South,N3P 1K2,43.5401160,-80.2478392
115,Nottingham Street,N1H3N2,43.5382221,-80.2499170
80,Waterloo Avenue,N1H0A1,43.5388946,-80.2519083
190,Waterloo Avenue,N1H3J3,43.5359927,-80.2551019
67,Foster Avenue,N1H3B4,43.5387210,-80.2578743
192,Paisley Street,N1H 2P5,43.5417923,-80.2603462
128,Norfolk Street,N1H 4J8,43.5466101,-80.2538360
504,Woolwich Street,N1H 3X7,43.5549180,-80.2638984
500,Woolwich Street,N1H 3X7,43.5548512,-80.2637643
494,Woolwich Street,N1H 3X7,43.5547645,-80.2636212
515,Woolwich Street,N1H 3X9,43.5555078,-80.2639351
519,Woolwich Street,N1H 3X9,43.5556553,-80.2640816
521,Woolwich Street,N1H 3X9,43.5557063,-80.2641899
497,Woolwich Street,N1H 3X9,43.5550676,-80.2633611
33,Elizabeth Street,N1E2X1,43.5482966,-80.2410065
25,Elizabeth Street,n1e2x1,43.5481117,-80.2410615
90,Elizabeth Street,N1E2X2,43.5497727,-80.2395819
86,Elizabeth Street,N1E2X2,43.5496886,-80.2397380
74,Elizabeth Street,N1E2X2,43.5495758,-80.2401895
38,Elizabeth Street,N1E2X2,43.5490343,-80.2409287
34,Elizabeth Street,N1E2X2,43.5487619,-80.2411446
250,York Road,N1E0S5,43.5466469,-80.2315153
60,Ontario Street,N1E3B1,43.5446967,-80.2384452
71,Wideman Boulevard,N1E 0H9,43.5828279,-80.2639410
181,Hadati Road,N1E 6N4,43.5607158,-80.2308809
2,Acker Street,N1E 0G1,43.5811521,-80.2253014
141,Clairfields Drive West,N1G 5A5,43.4970327,-80.1989777
60,Hayward Crescent,N1G 5A3,43.4967408,-80.1987964
62,Hayward Crescent,N1G 5A3,43.4968190,-80.1986886
16,Eugene Drive,N1L 1P6,43.5043712,-80.1894531
10,Eugene Drive,N1L 1P6,43.5042158,-80.1896457
6,Eugene Drive,N1L 1P6,43.5040875,-80.1897638
2,Eugene Drive,N1L 1P6,43.5040051,-80.1899085
32,Eugene Drive,N1L 1P6,43.5041657,-80.1885843
332,Gosling Gardens,N1L 1G7,43.4978730,-80.1864446
930,Woodlawn Road West,N1K 1T2,43.5342459,-80.3184209
54,Dublin Street South,N3P 1K2,43.5401379,-80.2479239
4,Eugene Drive,N1L 1P6,43.5040362,-80.1898625
3,Eugene Drive,N1L 1P6,43.5037331,-80.1894643
8,Eugene Drive,N1L 1P6,43.5041286,-80.1897085
7,Eugene Drive,N1L 1P6,43.5038361,-80.1893364
12,Eugene Drive,N1L 1P6,43.5042553,-80.1895823
14,Eugene Drive,N1L 1P6,43.5042920,-80.1895392
11,Eugene Drive,N1L 1P6,43.5039323,-80.1892171
17,Eugene Drive,N1L 1P6,43.5040306,-80.1890800
18,Eugene Drive,N1L 1P6,43.5044053,-80.1894084
26,Eugene Drive,N1L 1P6,43.5043292,-80.1887738
28,Eugene Drive,N1L 1P6,43.5042876,-80.1887158
30,Eugene Drive,N1L 1P6,43.5042550,-80.1886640
34,Eugene Drive,N1L 1P6,43.5041349,-80.1885381
36,Eugene Drive,N1L 1P6,43.5040862,-80.1884550
38,Eugene Drive,N1L 1P6,43.5040355,-80.1883826
23,Eugene Drive,N1L 1P6,43.5038320,-80.1889214
25,Eugene Drive,N1L 1P6,43.5038002,-80.1888724
27,Eugene Drive,N1L 1P6,43.5037447,-80.1888019
29,Eugene Drive,N1L 1P6,43.5037094,-80.1887477
40,Eugene Drive,N1L 1P6,43.5039783,-80.1882934
42,Eugene Drive,N1L 1P6,43.5039309,-80.1882379
44,Eugene Drive,N1L 1P6,43.5039006,-80.1881873
31,Eugene Drive,N1L 1P6,43.5036379,-80.1886496
33,Eugene Drive,N1L 1P6,43.5036076,-80.1886018
35,Eugene Drive,N1L 1P6,43.5035613,-80.1885458
37,Eugene Drive,N1L 1P6,43.5034905,-80.1884379
39,Eugene Drive,N1L 1P7,43.5034613,-80.1883860
41,Eugene Drive,N1L 1P7,43.5034149,-80.1883351
46,Eugene Drive,N1L 1P6,43.5038252,-80.1881149
48,Eugene Drive,N1L 1P6,43.5037858,-80.1880582
50,Eugene Drive,N1L 1P7,43.5037380,-80.1879799
52,Eugene Drive,N1L 1P7,43.5036875,-80.1879098
54,Eugene Drive,N1L 1P7,43.5036368,-80.1878149
56,Eugene Drive,N1L 1P7,43.5035908,-80.1877538
28,Eugene Drive,N1L 1P7,43.5035575,-80.1877035
43,Eugene Drive,N1L 1P7,43.5033452,-80.1882308
45,Eugene Drive,N1L 1P7,43.5033141,-80.1881846
47,Eugene Drive,N1L 1P7,43.5032666,-80.1881306
8,Lyon Avenue,N1H5C6,43.5465368,-80.2621491
310,Cole Road,N1G 3J2,43.5084825,-80.2349595
104,Oliver Street,N1E3B5,43.5471037,-80.2357995
33,Wyndham Street North,N1H4E4,43.5454606,-80.2482972
14,Macdonell Street,N1H2Z3,43.5442269,-80.2500886
42,Carden Street,N1H3A2,43.5441158,-80.2486000
260,Waterloo Avenue,N1H3J5,43.5339587,-80.2573158
302,College Avenue,N1G2W1,43.5210811,-80.2465226
302,College Avenue,N1G2W1,43.5210362,-80.2464822
302,College Avenue,N1G2W1,43.5210020,-80.2464348
302,College Avenue,N1G2W1,43.5209775,-80.2463815
302,College Avenue,N1G2W1,43.5209366,-80.2463229
302,College Avenue,N1G2W1,43.5208903,-80.2462778
788,Laird Road,N1C 1C2,43.4882497,-80.2212889
528,Woolwich Street,N1H 3X7,43.5555960,-80.2647845
155,Paisley Street,N1H2P3,43.5427323,-80.2597753
