House number,Street name,Postal code,Latitude,Longitude
300,WIlson Street East,L9G 2B9,43.2251983,-79.9766976
79,James Street South,L8P 2Z1,43.2541231,-79.8695393
1,King Street West,L8P 1A4,43.2564542,-79.8694356
40,King Street East,L8N 1A3,43.2559041,-79.8681872
50,Dundurn Street South,L8P 4W3,43.2616844,-79.8895955
50,Dundurn Street South,L8P 4W3,43.2622538,-79.8889989
126,Main Street East,L8N 3W7,43.2538347,-79.8644125
55,Cannon Street East,L8L 1Z7,43.2603188,-79.8649651
314,Main Street East,L8N 1H9,43.2519975,-79.8576701
160,John Street South,L8N 2C4,43.2521150,-79.8684027
174,John Street South,L8N 2C6,43.2514863,-79.8685623
1900,King Street East,L8K 1W1,43.2312697,-79.8064708
1461,Main Street East,L8K 1C5,43.2399921,-79.8075625
103,Queen Street North,L8R 2V5,43.2624580,-79.8778750
151,York Boulevard,L8R 3L4,43.2604834,-79.8739937
61,Young Street,L8N1V1,43.2508164,-79.8687307
21,King Street West,L4P 4W7,43.2568524,-79.8702042
474,Wentworth Street North,L8L 5W8,43.2657300,-79.8427350
640,Mohawk Road West,L9C 1X6,43.2334891,-79.9096059
640,Mohawk Road West,L9C 1X6,43.2339268,-79.9106130
71,Wilson Street West,L9G 1N1,43.2171303,-79.9903975
47,Wilson Street West,L9G 1N1,43.2176398,-79.9893884
5050,Harrison Road,L0R1C0,43.0997826,-79.8336157
1307,Woodburn Road,L0R 1P0,43.1371427,-79.7425132
1406,Barton Street East,L8H 2T8,43.2484664,-79.8034424
258,Locke Street South,L8P 4B9,43.2528280,-79.8869080
103,Queen Street North,L8R 3H8,43.2625682,-79.8778114
339,York Boulevard,L8R 2X9,43.2632182,-79.8783789
103,Queen Street North,L8R 2V5,43.2626383,-79.8778682
430,York Boulevard,L8R 3K8,43.2655223,-79.8811109
18,Boon Court,L8T 4M9,43.2118154,-79.8412883
16,Boon Court,L8T 4M9,43.2118735,-79.8412722
4,Boon Court,L8T 4M9,43.2119165,-79.8406768
6,Boon Court,L8T 4M9,43.2119322,-79.8407570
10,Boon Court,L8T 4M9,43.2120023,-79.8409555
12,Boon Court,L8T 4M9,43.2119947,-79.8410416
648,King Street West,L8P 1C5,43.2626569,-79.8881499
1309,King Street East,L8M 1H2,43.2438832,-79.8239480
1460,King Street East,L8K 1S7,43.2385670,-79.8210096
1,James Street North,L8P 4R5,43.2560770,-79.8690831
25,Augusta Street,L8N 1P6,43.2520828,-79.8699486
94,Dundas Street East,L9H 0C2,43.3178790,-79.9095558
990,Upper Wentworth Street,L9A 4V9,43.2177601,-79.8657668
62,Oak Avenue,L9H 4Y9,43.2680449,-80.0012338
1341,Main Street West,L8S 1C6,43.2575644,-79.9193875
375,Upper Paradise Road,L9C 5C9,43.2343632,-79.9106841
447,Main St. E.,L8N 1K1,43.2510408,-79.8522118
27,Legend Court,L9K 1J3,43.2273266,-79.9493551
14,Martindale Crescent,L9K 1J9,43.2297871,-79.9404932
14,Martindale Crescent,L9K1J9,43.2284523,-79.9388088
14,Martindale Crescent,L9K 1J9,43.2291871,-79.9387524
21,Stone Church Road,L9K 1S4,43.2284250,-79.9364054
57,King Street West,L9H 1T5,43.2664551,-79.9559218
999,Upper Wentworth Street,L9A 4X5,43.2177060,-79.8618695
75,Centennial Parkway North,L8E 2P2,43.2317432,-79.7654205
377,Main Street East,L9T 1P7,43.2517423,-79.8551127
1289,Upper James Street,L9C 3B3,43.2131834,-79.8874228
101,Osler Drive,L9H 4H4,43.2576765,-79.9428852
14,Sunning Hill Avenue,L8T 1B4,43.2349228,-79.8346647
4,Ottawa Street North,L8H 3Y7,43.2426965,-79.8194956
603,King Street East,L8N 1E4,43.2524995,-79.8506286
610,King Street West,L8P 1C2,43.2620303,-79.8861542
109,George Street,L8P 1E3,43.2582469,-79.8786397
107,George Street,L8P 1E3,43.2582275,-79.8785586
1249,Main Street East,L8K 1A8,43.2418957,-79.8162915
11,Mill Street South,L0R 2H0,43.3341442,-79.8910806
80,Dundas Street East,L9H 7K6,43.3172124,-79.9108257
280,Van Wagners Beach Road,L8E 3L8,43.2590994,-79.7655458
1145,Barton Street East,L8H 2V2,43.2512074,-79.8135188
1267,Barton Street East,L8H 2V4,43.2522437,-79.8078619
17,Augusta Street,L8N 1P6,43.2521695,-79.8702740
23,Augusta Street,L8N 1P2,43.2521101,-79.8700289
1341,Main Street West,L8S 1C6,43.2574388,-79.9192838
64,Magill Street,L8R 2Y5,43.2663176,-79.8790261
1005,Mohawk Road West,L9C 7P5,43.2329853,-79.9300195
352,Rymal Road East,L9B 1C2,43.1981755,-79.8786275
1515,Upper Ottawa Street,L8W 3E2,43.1942528,-79.8420210
54,Queen Street South,L8P 3R5,43.2581963,-79.8796037
2,King Street West,L8P 1A2,43.2584366,-79.8727588
27,John Street South,L8N 2B7,43.2549280,-79.8667098
2808,King Street East,L8G1J6,43.2198057,-79.7721989
620,South Service Road,L8E 2W1,43.2282593,-79.6987368
781,Mohawk Road West,L9C 7B7,43.2331351,-79.9217570
801,Mohawk Road West,L9C 6C2,43.2331452,-79.9222912
801,Mohawk Road West,L9C 6C2,43.2331450,-79.9224815
801,Mohawk Road West,L9C 6C2,43.2329068,-79.9221678
801,Mohawk Road West,L9C 6C2,43.2331296,-79.9232112
801,Mohawk Road West,L9C 6C2,43.2331298,-79.9231607
801,Mohawk Road West,L9C 6C2,43.2331306,-79.9231103
801,Mohawk Road West,L9C 6C2,43.2331291,-79.9230628
801,Mohawk Road West,L9C 6C2,43.2331298,-79.9230154
801,Mohawk Road West,L9C 6C2,43.2331306,-79.9229738
271,Hatt Street,L9H 2H4,43.2680381,-79.9667739
1060,King Street West,L8S 1L7,43.2613512,-79.9075872
1020,King Street West,L8S 1L4,43.2621889,-79.9058527
1334,Main Street East,L8K 1B5,43.2407730,-79.8127228
226,Ottawa Street North,L8H3Z6,43.2487622,-79.8170331
534,Garner Road East,L9G3K9,43.2052716,-79.9582361
1685,Main Street West,L8S 1G5,43.2566539,-79.9344911
276,Mud Street West,L8J 3Z6,43.1963931,-79.7937384
113,Herkimer Street,L8P 2G8,43.2502737,-79.8789169
1240,Rymal Road East,L8W 3N1,43.1884207,-79.8375714
905,Rymal Road East,L8W 3M2,43.1930934,-79.8522329
903,Queenston Road,L8G 1B6,43.2266566,-79.7559709
568,Lynden Road,L0R,43.2144291,-80.1404104
568,Lynden Road,L0R 1T0,43.2144291,-80.1404104
2462,Concession 2 West,L0R 2B0,43.2423090,-80.1976224
27,King William Street,L8P 1A2,43.2574378,-79.8678056
1550,Upper James Street,L9B 2L6,43.2038470,-79.8961898
230,Locke Street South,L8P 4B7,43.2538873,-79.8864423
226,Locke Street South,L8P 4B7,43.2540034,-79.8864008
184,Locke Street South,L8P 4B3,43.2554276,-79.8857848
220,Locke Street South,L8P 4B7,43.2541270,-79.8863528
325,Dundas Street East,L0R 2H5,43.3344071,-79.8919507
386,Upper Gage Avenue,L8V 4H9,43.2346747,-79.8365016
2289,Barton Street East,L8E 2W8,43.2392986,-79.7682874
2289,Barton Street East,L8E 2W8,43.2390290,-79.7684322
205,Nebo Road,L8W 2E1,43.1925620,-79.8367343
21,Augusta Street,L8N 1P6,43.2521311,-79.8701109
18,Hess Street South,L8P 3M8,43.2585402,-79.8777128
120,King Street West,L8P 1A1,43.2580115,-79.8726592
321,Dundurn Street South,L8P 2M5,43.2520573,-79.8921665
438,Mohawk Road West,L9C 1X2,43.2314472,-79.9013881
971,Queenston Road,L8G 5G3,43.2250693,-79.7506149
1205,Rymal Road East,L8W 3M9,43.1897562,-79.8399029
15,Cannon Street East,L8L 1Z6,43.2607955,-79.8667468
9,King Street West,L9H 1T5,43.2662286,-79.9541382
229,James Street North,L8R 2L2,43.2625314,-79.8666405
365,Wilson Street East,L9G 2C1,43.2271315,-79.9763237
632,Mohawk Road West,L9C 1X6,43.2338694,-79.9099780
161,King Street East,L8N 1B7,43.2552971,-79.8643458
135,King Street East,L8N 1B2,43.2554816,-79.8648931
157,King Street East,L8N 1B1,43.2553319,-79.8644525
173,King Street East,L8N 1B3,43.2551212,-79.8638958
165,King Street East,L8N 1B2,43.2551628,-79.8640828
574,James Street North,L8L1J7,43.2724899,-79.8617062
21,King Street West,L4P 4W7,43.2567921,-79.8701083
10,Connaught Avenue North,L8L 6Y7,43.2489064,-79.8289863
8,Connaught Avenue North,L8L 6Y7,43.2488356,-79.8290184
1546,Main Street West,L8S 1E5,43.2578088,-79.9251133
1331,Main Street West,L8S 1C6,43.2575563,-79.9186240
1309,Main Street West,L8S 1C5,43.2574877,-79.9178923
1309,Main Street West,L8S 1C5,43.2573002,-79.9182165
1049,Kirkwall Road,L0R 1X0,43.3198088,-80.1428933
142,Charlton Avenue West,L8P 2C7,43.2515375,-79.8789169
1229,Cannon Street East,L8H 1T8,43.2474612,-79.8166987
1146,Wilson Street West,L9G 3K9,43.1974489,-80.0190421
1090,Wilson Street West,L9G 3K9,43.1987885,-80.0166403
27,Hess Street South,L8P 3M7,43.2582321,-79.8774980
360,Isaac Brock Drive,L8J 2R2,43.1940337,-79.7880293
460,Highway 20 East,L0R 1P0,43.1631752,-79.7335856
745,Barton Street East,L8L 3A9,43.2557736,-79.8328149
5,Mill Street South,L0R 2H0,43.3344431,-79.8914603
769,King St W,L8S 1J9,43.2619412,-79.8965383
37,Barton St E,L8L 2V6,43.2633328,-79.8634084
220,King Street West,L8P 1A9,43.2587277,-79.8758864
230,Anchor Road,L8W 3R2,43.1943320,-79.8237347
620,Upper James Street,L9C 2Z1,43.2381515,-79.8779018
647,Upper James Street,L9C 2Y9,43.2380001,-79.8773198
649,Upper James Street,L9C 2Y9,43.2378265,-79.8773108
649,Upper James Street,L9C 2Y9,43.2377897,-79.8771102
1116,Barton Street East,L8H 2V1,43.2508617,-79.8150471
801,Collinson Road,L9H 5E2,43.2918733,-80.0049623
184,Highway 8,L8G 1C3,43.2223388,-79.7418983
333,Barton St,L8E 2L1,43.2288926,-79.7248507
74,Hillyard Street,L8L 6B4,43.2669802,-79.8396082
640,Mohawk Road West Unit 21,L9C 1X6,43.2334662,-79.9086134
241,Tapleytown Rd,L8J 3K1,43.1798703,-79.7297962
241,Tapleytown Rd,L8J 3K1,43.1777026,-79.7315987
195,King Street East,L8N 1B3,43.2549651,-79.8633854
1685,Main Street West,L8S 1G5,43.2565580,-79.9349280
621,Trinity Road South,L9G 4X1,43.1896817,-80.0404106
1,Wilson Street,L8R 1C4,43.2593524,-79.8666833
177,Sterling Street,L8S 4J7,43.2620890,-79.9150798
180,James Street South,L8P 4V1,43.2513295,-79.8716542
1386,Cooper Road,N1R 5S2,43.3401541,-80.1810122
555,Bay Street North,L8L 1H1,43.2742502,-79.8639857
1144,Main Street West,L8S 1C1,43.2581569,-79.9117418
1231,Barton Street East,L8H 2V4,43.2518408,-79.8098513
178,King Street West,L9H 1V4,43.2670721,-79.9615235
1310,South Service Road,L8E 5C5,43.2175415,-79.6429530
687,Arvin Avenue,L8E 5R2,43.2253555,-79.6956641
27,Garner Road East,L9G 2J9,43.2022090,-79.9804865
2247,Rymal Road East,L8J 2V8,43.1746794,-79.7791722
64,Hamilton Street North,L8B 0E6,43.3327410,-79.8972593
404,Devonshire Terrace,L9G 4R6,43.2058141,-79.9979487
2537,Regional Road 56,L0R 1C0,43.1245632,-79.8026098
801,Mohawk Road West,L9C 5V8,43.2331723,-79.9235966
1100,Wilson Street West,L9G 3K9,43.1980699,-80.0159849
1100,Wilson Street West,L9G 3K9,43.1980393,-80.0161670
1100,Wilson Street West,L9G 3K9,43.1970316,-80.0157981
1096,Wilson Street West,L9G 3K9,43.1978555,-80.0171057
1096,Wilson Street West,L9G 3K9,43.1981321,-80.0165674
1080,Wilson Street West,L9G 3K9,43.1990324,-80.0163172
1090,Wilson Street West,L9G 3K9,43.1984595,-80.0165452
1090,Wilson Street West,L9G 3K9,43.1986140,-80.0165827
1122,Wilson Street,L9G 1N1,43.1984791,-80.0174089
109,Portia Drive,L9G 0E8,43.1983978,-80.0201250
127,King Street East,L8N 1B1,43.2555341,-79.8651140
2537,Regional Road 56,L0R 1C0,43.1250890,-79.8024103
968,Main Street East,L8M 1M8,43.2450222,-79.8306619
571,Barton Street East,L8L 2Z3,43.2580320,-79.8413591
560,Centennial Parkway North,L8E 0G2,43.2441973,-79.7545736
560,Centennial Parkway North,L8E 0G2,43.2441954,-79.7561239
2826,King Street East,L8G 1J5,43.2195654,-79.7712997
1149,Main St E,L8M 1P3,43.2432006,-79.8213212
1638,Upper James Street,L9B 1K4,43.2018384,-79.8943225
999,Upper Wentworth Street,L9A 4X5,43.2182940,-79.8621942
2,King Street West,L8P 1A1,43.2575500,-79.8691365
2,King Street West,L8P 1A1,43.2583014,-79.8728116
398,Nash Road North,L8H 7P5,43.2427038,-79.7682712
2200,Rymal Road East,L0R 1P0,43.1734699,-79.7809893
1280,Main Street West,L8S 4J7,43.2636011,-79.9173761
1,West Avenue South,L8N 2R9,43.2531376,-79.8580025
46,King Street East,L9H 1B8,43.2656925,-79.9516102
1280,Main St W,L8S 4M1,43.2602509,-79.9217495
1280,Main St W,L8S 4K1,43.2623037,-79.9201822
1335,Main Street West,L8S 1C6,43.2575706,-79.9188709
875,Main Street West,L8S 4P9,43.2589558,-79.9018083
875,Main Street West,L8S 4P9,43.2589663,-79.9017362
875,Main Street West,L8S 4P9,43.2589140,-79.9019019
875,Main Street West,L8S 4P9,43.2588999,-79.9016463
875,Main Street West,L8S 4P9,43.2589383,-79.9015618
875,Main Street West,L8S 4P9,43.2589507,-79.9014782
875,Main Street West,L8S 4P9,43.2589247,-79.9012056
875,Main Street West,L8S 4P9,43.2590391,-79.9009476
807,Main Street West,L8S 3M4,43.2593850,-79.8996637
709,Main Street West,L8S 1A2,43.2597020,-79.8983010
648,King Street West,L8P 1C5,43.2626993,-79.8884323
1550,Upper James Street,L9B 2L6,43.2052169,-79.8953837
16,Clappison Avenue,L8B 0Y2,43.3192341,-79.9116851
119,Osler Drive,L9H 6X4,43.2585003,-79.9431370
59,Wilson Street West,L9G 1N1,43.2174392,-79.9898515
630,Mohawk Road West,L9C 1X6,43.2334957,-79.9093441
16,Wilson Street West,L9G 1N2,43.2172603,-79.9877512
30,Wilson Street West,L9G 1N2,43.2169521,-79.9877634
34,Wilson Street West,L9G 1N2,43.2167501,-79.9879047
32,Wilson Street West,L9G 1N2,43.2168000,-79.9878497
73,Wilson Street West,L9G 1N1,43.2162379,-79.9902984
73,Wilson Street West,L9G 1N1,43.2166542,-79.9906820
33,Wilson Street West,L9G 1N1,43.2172273,-79.9887156
1685,Main Street West,L8S 1G5,43.2569460,-79.9343427
1331,Main Street West,L8S 1C6,43.2575734,-79.9187855
1309,Main Street West,L8S 1C5,43.2572983,-79.9183039
1309,Main Street West,L8S 1C5,43.2573008,-79.9181155
1309,Main Street West,L8S 1C5,43.2573024,-79.9179851
1247,Upper James Street,L9C3B2,43.2143611,-79.8872268
284,King Street East,L8N 1B7,43.2128346,-79.8874877
1405,Upper James Street,L9B 1K2,43.2087163,-79.8896853
1,King St W,L8P 4X8,43.2566285,-79.8698348
330,Main Street North,L0R 2H0,43.3389189,-79.9031587
35,Main Street North,L0R 2H0,43.3341297,-79.8943189
140,Highway 8,L8G 1C2,43.2230247,-79.7448790
1685,Main Street West,L8S 1G5,43.2566270,-79.9348636
1317,Barton Street East,L8H 2V4,43.2502280,-79.8062427
860,Queenston Road,L8G 4A8,43.2268059,-79.7602820
325,"Winterberry Dr., Suite 101",L8J 0B6,43.1939447,-79.8069806
24,Sanford Ave N,L8L 5Y9,43.2528904,-79.8456049
453,Wentworth Street North,L8K 6N1,43.2648689,-79.8436401
301,Fruitland Rd,L8E 5M1,43.2221382,-79.7012808
287,Concession 8 East,L8N 2Z7,43.3840104,-79.9648690
307,Concession 8 East,L8N 2Z7,43.3854012,-79.9631285
59,King Street East,L8N 1A5,43.2536338,-79.8601046
93,James Street North,L8R 2K6,43.2593207,-79.8680500
95,James Street North,L8R 2K6,43.2593656,-79.8680272
1,Wilson Street,L8R 1C4,43.2594149,-79.8668665
1,Wilson Street,L8R 1C4,43.2594618,-79.8670220
37,Main Street South,L0R 2H0,43.3327182,-79.8916306
7,Griffin Street,L0R 2H0,43.3329167,-79.8913644
239,York Boulevard,L8R 1Y7,43.2619210,-79.8763729
430,York Boulevard,L8R 3K8,43.2654563,-79.8809856
430,York Boulevard,L8R 3K8,43.2653714,-79.8808394
430,York Boulevard,L8R 3K8,43.2653059,-79.8807241
505,York Boulevard,L8R 3K4,43.2667805,-79.8840487
505,York Boulevard,L8R 3K4,43.2667395,-79.8839930
505,York Boulevard,L8R 3K4,43.2667039,-79.8839300
16,Clappison Ave,L8B 0Y2,43.3195795,-79.9121196
1363,Highway 6,L8N 2Z7,43.3688325,-79.9957627
1489,Highway 6,L8N 2Z7,43.3770456,-80.0066109
1464,Highway 6,L8N 2Z7,43.3765708,-80.0043672
825,N Service Rd,L8E 0J7,43.2286181,-79.6812080
1180,Wilson Street West,L9G 3K9,43.1958836,-80.0211740
1129,Highway 5,L9H 5E2,43.2846957,-80.0436321
1303,Highway 5 West,L9H 5E1,43.2813783,-80.0649436
548,Old Dundas Road,L9G 3J4,43.2338911,-79.9738035
574,James Street North,L8L1J7,43.2723549,-79.8617593
574,James Street North,L8L1J7,43.2724175,-79.8617359
601,Burlington Street East,L8L 4J5,43.2672288,-79.8370269
554,James Street North,L8L 1J5,43.2714966,-79.8624395
649,Upper James Street,L9C 2Y9,43.2378057,-79.8771883
1712,Stone Church Road East,L8J 0B4,43.1927031,-79.8171745
170,James Street North,L8R 2L1,43.2609981,-79.8670033
136,James Street North,L8R 2K7,43.2602417,-79.8673452
129,James Street North,L8R 2K8,43.2602666,-79.8676614
109,James Street North,L8R 2K6,43.2596103,-79.8679293
180,James Street South,L8P 4V1,43.2515302,-79.8716877
158,James Street South,L8P 3A2,43.2520284,-79.8713122
224,James Street North,L8R 2L3,43.2623654,-79.8664071
45,Frid Street,L8P 4M3,43.2596091,-79.8927037
38,Gledhill Crescent,L9C 6H4,43.2165254,-79.9075187
178,Locke Street South,L8P 4B3,43.2556723,-79.8856795
162,Locke Street South,L8P 4A8,43.2560576,-79.8855729
115,Park Street North,L8R 2N2,43.2612251,-79.8708821
1223,Main Street West,L8S 1C3,43.2577062,-79.9144844
1045,King Street West,L8S1L6,43.2613299,-79.9068369
997,Cannon Street East,L8L2H4,43.2500597,-79.8275252
1,Hunter Street East,L8N 3W8,43.2537617,-79.8695000
232,Cannon Street East,L8L 0A9,43.2580075,-79.8568819
285,Park Street South,L8P 3G5,43.2489842,-79.8756313
283,Park Street South,L8P 3G5,43.2490604,-79.8756998
865,Upper James Street,L9C 3A3,43.2266154,-79.8814282
505,King St W,L8P 4W7,43.2607043,-79.8842114
29,King William Street,L8P 1A2,43.2574166,-79.8677026
37,King William Street,L8P 1A2,43.2573161,-79.8674673
19,John Street North,L8R 1H1,43.2565130,-79.8663894
200,James Street South,L8P 3A9,43.2506454,-79.8719252
93,Sanatorium Road,L9C 1Y6,43.2320364,-79.8963135
1039,Wilson Street East,L9H 5E3,43.2426247,-79.9547786
1557,Main Street East,L8K 1E5,43.2388451,-79.8028176
170,Rockhaven Lane,L0R 2H6,43.3344519,-79.9019076
82,Queen Street North,L8R 2V4,43.2623058,-79.8773365
22,Veevers Drive,L8K 5P5,43.2107671,-79.7855561
987,Rymal Road East,L8W 3M2,43.1920184,-79.8489450
1050,Paramount Drive,L8J 1P8,43.1995030,-79.7938339
914,Book Road West,L9G 3L1,43.1767235,-80.0177463
1276,Shaver Road,L9G 3L1,43.1719468,-80.0044318
1459,Main Street East,L8K 1C5,43.2402719,-79.8083496
272,Ottawa Street North,L8H 3Z9,43.2498956,-79.8166133
21,King St W 5th Floor,L8P 4W7,43.2607461,-79.8841521
1081,Barton Street East,L8L 3E2,43.2517795,-79.8166496
112,George Street,L8P 1E2,43.2584729,-79.8786655
1548,Main Street West,L8S 1E5,43.2577761,-79.9252709
1579,Main Street West,L8S 1E6,43.2556113,-79.9283173
230,James Street South,L8P 3B3,43.2496521,-79.8724844
1686,Main Street West,L8S 0A2,43.2575452,-79.9346557
101,Osler Drive,L9H 6X4,43.2583735,-79.9430996
256,Parkdale Avenue North,L8H 5X7,43.2438641,-79.7885529
1331,Main Street West,L8S 1C6,43.2575758,-79.9187060
1050,King Street West,L8S1L5,43.2615631,-79.9071761
1050,King Street West,L8S1L3,43.2616118,-79.9071320
1050,King Street West,L8S1L5,43.2616601,-79.9070056
1575,Upper Ottawa Street,L8W 3E2,43.1905685,-79.8420172
1575,Upper Ottawa Street,L8W 3E2,43.1905920,-79.8420457
1575,Upper Ottawa Street,L8W 3E2,43.1906404,-79.8421921
1575,Upper Ottawa Street,L8W 3E2,43.1906874,-79.8423918
1575,Upper Ottawa Street,L8W 3E2,43.1907268,-79.8425599
1575,Upper Ottawa Street,L8W 3E2,43.1907452,-79.8426497
1575,Upper Ottawa Street,L8W 3E2,43.1907660,-79.8427348
1575,Upper Ottawa Street,L8W 3E2,43.1907888,-79.8428255
1575,Upper Ottawa Street,L8W 3E2,43.1908430,-79.8429741
1575,Upper Ottawa Street,L8W 3E2,43.1910272,-79.8429177
1575,Upper Ottawa Street,L8W 3E2,43.1913466,-79.8428204
1575,Upper Ottawa Street,L8W 3E2,43.1913877,-79.8428883
1575,Upper Ottawa Street,L8W 3E2,43.1914128,-79.8430050
298,James Street North,L8R2L3,43.2638318,-79.8657741
302,James Street North,L8R2L3,43.2639114,-79.8657379
1010,King Street West,L8S 1L4,43.2623498,-79.9054568
1309,Main Street West,L8S 1C5,43.2573544,-79.9178917
1309,Main Street West,L8S 1C5,43.2573020,-79.9180422
163,Main Street West,L8P 1J1,43.2569437,-79.8767380
878,King Street West,L8S 4S6,43.2633417,-79.9009843
876,King Street West,L8S 4S6,43.2633092,-79.9008156
129,King Street East,L8R 1H8,43.2555214,-79.8650088
149,King Street East,L8N 1B1,43.2553705,-79.8645946
25,Charlton Avenue East,L8N 1Y2,43.2498557,-79.8710534
989,Fennell Avenue East,L8T 1R1,43.2277224,-79.8364403
280,Queenston Road,L8K 1H1,43.2340447,-79.7924268
60,Hatt Street,L9H 7T6,43.2653105,-79.9574930
15,Mountain Avenue South,L8G 2V6,43.2157233,-79.7563718
54,Wilson Street West,L9G 3T8,43.2151524,-79.9902503
25,Main Street West,L8P 1H1,43.2553791,-79.8711784
53,Wilson Street West,L9G 1N1,43.2175440,-79.9896416
944,Garner Road East,L9G 3K9,43.2082975,-79.9398889
73,Wilson Street West,L9G 1N1,43.2164462,-79.9904138
307,Wilson Street East,L9G 4S4,43.2270614,-79.9752150
356,Wilson Street East,L9G 2C2,43.2268548,-79.9755158
73,Wilson Street West,L9G 1N1,43.2168592,-79.9907103
88,Wilson Street West,L9G 1N2,43.2153422,-79.9905959
19,Bold Street,L8P 1T3,43.2527205,-79.8717479
384,Wilson Street East,L9G 2C2,43.2279189,-79.9753927
810,Mineral Springs Road,L9G 4X1,43.2361521,-80.0072439
137,Locke Street South,L8P 4A7,43.2567710,-79.8849030
228,Locke Street South,L8P 4B7,43.2539488,-79.8864151
237,Locke Street South,L8P 4T4,43.2535551,-79.8862575
2,Young Street,L8N 1T9,43.2511507,-79.8711325
140,Caroline Street South,L8P 3K8,43.2545255,-79.8778300
211,Pritchard Road,L8J 0G5,43.1951244,-79.8178061
119,Main Street East,L8N 3Z3,43.2543790,-79.8649406
117,Main Street East,L8N 1A8,43.2544532,-79.8651981
117,Main Street East,L8N 1A8,43.2544767,-79.8652719
115,Main Street East,L8N 1A8,43.2545167,-79.8654047
105,Main Street East,L8N 1A8,43.2545392,-79.8655093
45,Main Street East,L8N 2B7,43.2547385,-79.8665527
68,King Street East,L8N 1A6,43.2556694,-79.8671766
35,King William Street,L8R 1A1,43.2573529,-79.8675813
10,James Street North,L8R 2J9,43.2570189,-79.8687493
85,John Street South,L8N 2C2,43.2534917,-79.8674177
102,George Street,L8P 1E2,43.2583981,-79.8781676
21,Mountain Park Avenue,L9A1A1,43.2441466,-79.8582568
4,Young Street,L8N 1T9,43.2511449,-79.8710856
59,John St S,L8N 2B9,43.2541808,-79.8671146
51,John Street South,L8N 2B9,43.2543166,-79.8670522
84,John Street South,L8N2C1,43.2536347,-79.8676711
312,King Street East,L8N 1C2,43.2536699,-79.8600550
130,King Street East,L8N 1A8,43.2551622,-79.8652003
237,King Street East,L8N 1B6,43.2545470,-79.8621149
227,King Street East,L8N 1B6,43.2546222,-79.8623516
225,King Street East,L8N 1B5,43.2546469,-79.8624055
228,King Street East,L8N 1B5,43.2544558,-79.8625618
224,King Street East,L8N 1B5,43.2544768,-79.8626226
222,King Street East,L8N 1B5,43.2544957,-79.8627003
118,King Street East,L8N 1A8,43.2553186,-79.8656273
122,King Street East,L8N 1A8,43.2553411,-79.8657319
114,King Street East,L8N 1A8,43.2554690,-79.8662834
110,King Street East,L8N 1A8,43.2555207,-79.8665385
117,King Street East,L8N 1A9,43.2556918,-79.8655294
139,King Street East,L8N 1B1,43.2554152,-79.8647304
147,King Street East,L8N 1B1,43.2553951,-79.8646678
115,Stanley Avenue,L8P 2L5,43.2516289,-79.8877421
374,King Street East,L8N 1C3,43.2531434,-79.8577993
1356,South Service Road,L8E 5C5,43.2154745,-79.6400600
1091,Highway 8,L8E5H8,43.2093310,-79.6664553
1241,Barton Street East,L8H 2V4,43.2503745,-79.8096405
1686,Main Street West,L8S 0A2,43.2575477,-79.9345804
1686,Main Street West,L8S 0A2,43.2575478,-79.9344837
1686,Main Street West,L8S 0A2,43.2575483,-79.9343991
1685,Main Street West,L8S 1G5,43.2568544,-79.9339908
681,Main Street East,L8M 1K3,43.2544540,-79.8586747
66,Ottawa Street North,L8H 3Z1,43.2444173,-79.8188020
304,Ottawa Street North,L8H 3Z9,43.2504944,-79.8163786
9,Sterling Street,L8S 4H6,43.2615299,-79.9075904
1058,King Street West,L8S 1L6,43.2613715,-79.9075313
1056,King Street West,L8S 1L6,43.2615450,-79.9072304
1038,King Street West,L8S 1L6,43.2617394,-79.9066341
1027,King Street West,L8S1L6,43.2615831,-79.9061447
1030,King Street West,L8S1L6,43.2617850,-79.9064902
1041,King Street West,L8S1L6,43.2613986,-79.9066630
1047,King Street West,L8S1L6,43.2612986,-79.9069163
1053,King Street West,L8S1L6,43.2612614,-79.9070106
1051,King Street West,L8S1L6,43.2612804,-79.9069623
1036,King Street West,L8S 1L5,43.2617125,-79.9066687
1036,King Street West,L8S 1L5,43.2617326,-79.9066547
2,Catharine Street North,L8R 1H8,43.2557338,-79.8650432
274,James Street North,L8R2L3,43.2633444,-79.8659579
500,James Street North,L8L 1J4,43.2698722,-79.8629987
72,Garside Avenue North,L8H4W3,43.2420695,-79.8069540
1008,King Street West,L8S1L4,43.2623794,-79.9054205
804,King Street West,L8S 1K1,43.2625226,-79.8979130
14,Garden Avenue,L8E 2Y9,43.2363622,-79.7344725
1058,Main Street West,L8S 1B3,43.2584930,-79.9087130
1064,Main Street West,L8S 1B3,43.2584859,-79.9087807
1070,Main Street West,L8S 1B4,43.2584720,-79.9089373
1070,Main Street West,L8S 1B4,43.2584651,-79.9090008
1070,Main Street West,L8S 1B4,43.2584600,-79.9090479
1070,Main Street West,L8S 1B4,43.2584549,-79.9090951
1070,Main Street West,L8S 1B4,43.2584496,-79.9091435
1070,Main Street West,L8S 1B4,43.2584446,-79.9091901
1122,Main Street West,L8S 1C1,43.2582274,-79.9110381
460,Main St E,L8N 1K4,43.2506004,-79.8520131
44,Wilson Street West,L9G 1N2,43.2165219,-79.9882072
650,Governors Road,L9H 5E3,43.2553439,-79.9938232
122,Locke Street,L8P 4A8,43.2572565,-79.8850331
75,Carling Street,L8S 1A1,43.2613741,-79.8971862
833,Upper James Street,L9C 3A3,43.2274676,-79.8812288
343,Wilson Street East,L9G 2C1,43.2270500,-79.9767892
323,Wilson Street East,L9G 4A8,43.2262641,-79.9770543
1,James Street South,L8N 3P9,43.2559809,-79.8691289
102,George Street,L8P 1E2,43.2583670,-79.8781928
777,King Street West,L8S 1K2,43.2620508,-79.8971574
38,King William Street,L8R 3N8,43.2570367,-79.8676208
51,King William Street,L8R 3K1,43.2571427,-79.8668537
18,Augusta Street,L8N 1P7,43.2519502,-79.8704611
162,King William Street,L8R 3N9,43.2555440,-79.8622689
280,Barton Street West,L8R 3P3,43.2671746,-79.8781605
1800,Stone Church Road East,L8J 0K5,43.1909239,-79.8131213
170,Locke Street South,L8P 4A9,43.2558612,-79.8856004
3,Spring Street,L8N 2N8,43.2534463,-79.8602099
1262,Highway 8,L8E 5K3,43.2075624,-79.6519064
1374,Barton Street East,L8H 2W3,43.2486123,-79.8041669
79,Lynden Road,L0R 1T0,43.2340821,-80.1463927
242,King Street West,L8P 1A9,43.2588407,-79.8764470
129,Melrose Avenue South,L8M 2Y7,43.2463578,-79.8339956
398,Concession Street,L9A1B7,43.2425548,-79.8588966
721,Mud Street East,L8J 3B8,43.1737978,-79.7018548
1440,"Main St E, Unit 1",L8K 6M3,43.2397260,-79.8086240
10,King Street West,L9H 1T7,43.2660482,-79.9548541
60,Martindale Crescent,L9K 1J9,43.2301312,-79.9428682
17,Main Street North,L0R 2H6,43.3337389,-79.8936745
25,Hamilton Street North,L0R 2M0,43.3315154,-79.8973912
1379,Upper James Street,L9B 1K2,43.2098053,-79.8892173
55,Leavitt Boulevard,L9H 0C5,43.3127315,-79.9104000
1299,Barton Street East,L8H 2V4,43.2497466,-79.8071411
724,Main Street East,L8M1K9,43.2477556,-79.8405343
73,Wilson Street West,L9N 1N1,43.2162931,-79.9903205
622,Upper James Street,L9C 2Z1,43.2381320,-79.8777636
442,Millen Road,L8E 6H2,43.2351001,-79.7147527
195,Rebecca Street,L8R1C2,43.2562036,-79.8604077
27,King William Street,L8R1A1,43.2574401,-79.8678260
255,King Street West,L8R 1B1,43.2553939,-79.8605083
7,Queen Street North,L8R 2T9,43.2597206,-79.8788694
161,Wellington Street North,L8R 1N4,43.2582781,-79.8574464
12,Bing Crescent,L8E 3Z4,43.2230501,-79.7170817
15,Picton Street East,L8L 0C9,43.2697766,-79.8628153
20,George Street,L8P 0C4,43.2577634,-79.8758425
165,James Street South,L8P 3A2,43.2517659,-79.8710628
302,Barton Street East,L8L2X5,43.2607177,-79.8527056
50,Golden Orchard Dr,L9C 6J5,43.2219036,-79.9009662
62,Mars Avenue,L8L 3V9,43.2655240,-79.8455838
24,Aterno Drive,L9C 5S5,43.2382983,-79.9284614
775,Upper Wentworth Street,L9A 4V7,43.2240665,-79.8612730
1065,Highway 8,L8E 5H8,43.2087497,-79.6686496
201,Wentworth Street North,L8L5V6,43.2581564,-79.8466508
198,John Street South,L8N 2C6,43.2511010,-79.8687641
82,Parkside Drive,L8B 1G6,43.3249207,-79.9203017
30,Horseshoe Crescent,L0R 2H2,43.3179792,-79.9178671
265,Bowman Street,L8S 2T9,43.2499039,-79.9196360
605,James Street North,L8L1J9,43.2733170,-79.8621820
605,James Street North,L8L1K1,43.2732935,-79.8621897
193,King Street East,L8N 1B3,43.2550188,-79.8635611
195,King Street East,L8N 1B3,43.2549971,-79.8634899
179,King Street East,L8N 1B3,43.2550753,-79.8637460
179,King Street East,L8N 1B3,43.2550577,-79.8636882
191,King Street East,L8N 1B3,43.2550361,-79.8636178
201,King Street East,L8N 1B3,43.2549271,-79.8632612
190,King Street East,L8N 1B4,43.2547494,-79.8635170
241,King Street East,L8N 1B6,43.2545258,-79.8619681
241,King Street East,L8N 1B7,43.2545189,-79.8619219
219,King Street East,L8N 1B6,43.2546521,-79.8624318
218,King Street East,L8N 1B5,43.2546603,-79.8624516
21,John Street South,L8N 2B8,43.2551176,-79.8666380
63,Head Street,L9H3H8,43.2670951,-79.9738682
1654,Wilson Street West,L0R 1R0,43.1912007,-80.0413356
24,Edgar Street,L8H 4C5,43.2499652,-79.8146443
26,Edgar Street,L8H 4C5,43.2500311,-79.8146166
35,Fraser Avenue,L8H 4G6,43.2496725,-79.8140520
37,Fraser Avenue,L8H 4G6,43.2497073,-79.8140388
1400,Main Street West,L8S 1C7,43.2593962,-79.9202321
3-35,Stone Church Rd,L9K 1S4,43.2280019,-79.9358924
563,Aberdeen Avenue,L8P 2S8,43.2491524,-79.9082215
161,Meadowlands Boulevard,L9K 1H8,43.2203299,-79.9452653
374,Jerseyville Road West,L9G 3K8,43.2146398,-80.0045667
1280,Main Street West,L8S 3L8,43.2639471,-79.9173631
145,Magnolia Drive,L9C 5P4,43.2308562,-79.9216983
711,Concession Street,L8V 1C3,43.2402029,-79.8456358
1330,Burlington Street East,L8N 3J5,43.2690077,-79.8003992
1150,Main Street West,L8S 1C2,43.2584739,-79.9128251
75,Centennial Parkway North,L8E 2P2,43.2307974,-79.7658974
600,Acadia Drive,L8W 3A5,43.2024773,-79.8677187
122,Martindale Crescent,L9K 1J9,43.2304031,-79.9446985
60,Martindale Crescent,L9K 1J9,43.2303281,-79.9421618
700,Main Street West,L8S 1A5,43.2607486,-79.9006954
39,Montcalm Drive,L9C 4B1,43.2268307,-79.8948396
25,Hummingbird Lane,L9A 4B1,43.2196015,-79.8701726
155,Market Street,L8R 3H5,43.2594956,-79.8766543
160,Market Street,L8R 3J6,43.2599917,-79.8764689
644,Main Street West,L8S 1A1,43.2608363,-79.8965114
139,Parkdale Avenue North,L8H 5X3,43.2405916,-79.7911044
500,Franklin Road,L8V 2A4,43.2252316,-79.8514465
65,Hester Street,L9A 2N3,43.2250896,-79.8793450
135,Hester Street,L9A 2N9,43.2242348,-79.8745706
60,Gray Road,L8G 2X5,43.2161799,-79.7459532
252,Dewitt Road,L8E 2R1,43.2212055,-79.7101034
185,Glenashton Drive,L8G 4E7,43.2143669,-79.7152179
1715,Main Street East,L8H 1E3,43.2379863,-79.7952148
86,Cameron Avenue,L9H 1P8,43.2745182,-79.9451473
101,Osler Drive,L9H 6X4,43.2582256,-79.9420515
650,Governors Road,L9H 5E3,43.2455367,-79.9959801
1039,Concession 5 West,L0R 1V0,43.3298959,-80.0431490
37,Mericourt Road,L8S 2N5,43.2534628,-79.9379085
568,King Street East,L8N 1E2,43.2517766,-79.8514187
464,Wentworth Street North,L8L 5W8,43.2648026,-79.8429311
100,Macklin Street North,L8S 3S1,43.2660554,-79.8945680
435,Main Street East,L8N 1K1,43.2518268,-79.8523376
200,Caroline Street North,L8R 0A6,43.2646270,-79.8723917
1760,Main Street West,L8S 1H2,43.2557728,-79.9370672
101,Creighton Road,L9H 3B7,43.2613468,-79.9673308
1280,Main Street West,L8S 4K1,43.2617668,-79.9221247
1003,Main Street West,L8S 4P3,43.2577617,-79.9064226
667,Parkdale Avenue North,L8H 5Z1,43.2550987,-79.7851456
57,Mericourt Road,L8S 2N5,43.2530912,-79.9382239
155,King William Street,L8R 1A7,43.2561512,-79.8625347
50,Dundurn Street South,L8P 4Y8,43.2614141,-79.8895617
418,Whitney Avenue,L8S 2H8,43.2517727,-79.9384467
714,King Street West,L8P 1C7,43.2635480,-79.8912645
118,Market Street,L8R 3P9,43.2597424,-79.8748224
193,Elgin Street,L8L 4Y2,43.2647066,-79.8589958
155,Cannon Street East,L8L 2A6,43.2596873,-79.8600856
44,Queen Street North,L8R 3H8,43.2605822,-79.8777608
50,Governors Road,L9H 5M3,43.2620168,-79.9563869
75,Mericourt Road,L8S 2N6,43.2518893,-79.9379552
1575,Main Street West,L8S 1E6,43.2571263,-79.9283073
58,Jackson Street West,L8P 1H4,43.2552228,-79.8722010
430,York Boulevard,L8R 3K8,43.2654653,-79.8809002
1817,Burlington Street East,L8H 3L5,43.2576251,-79.7859423
1292,Cannon Street East,L8H 1V6,43.2458423,-79.8135144
1386,Cooper Road,N1R 5S2,43.3440538,-80.1769518
4349,Highway 56,L0R 1C0,43.0950155,-79.8112292
2600,Regional Road 56,L0R 1C0,43.1229962,-79.8040508
333,King Street East,L8N 1C1,43.2537766,-79.8593867
342,Concession 8 East,L8N 2Z7,43.3820680,-79.9545976
23,Dundana Avenue,L9H 4E5,43.2580560,-79.9518851
10,Lamoreaux Street,L8R 1V1,43.2640461,-79.8847863
340,Queen Victoria Drive,L8W 1T9,43.2036988,-79.8427733
45,Lockton Crescent,L8V 4V5,43.2114454,-79.8472256
477,Arvin Avenue,L8E 2N1,43.2294943,-79.7115862
442,Millen Road,L8E 6H2,43.2351326,-79.7147120
2-10,Kenmore Avenue Stoney Creek,L8E 5N1,43.2210343,-79.6900964
450,Lake Avenue North,L8E 3C2,43.2427473,-79.7462656
490,Hamilton Regional Road 8,L8G 1G6,43.2155821,-79.7165872
699,Queenston Road,L8G 1A1,43.2303053,-79.7716652
370,Kenora Avenue,L8E 2W2,43.2409780,-79.7637653
475,Parkdale Avenue North,L8H 5Y4,43.2498994,-79.7870052
324,Parkdale Avenue North,L8H 5X9,43.2453111,-79.7872514
1393,Cannon Street East,L8H 1W2,43.2456514,-79.8082745
1907,King Street East,L8K 1V9,43.2319541,-79.8070580
25,Erindale Avenue,L8K 4R2,43.2248088,-79.8077849
1040,Queensdale Avenue East,L8T 1J4,43.2303065,-79.8313599
100,Wexford Avenue South,L8K 2N8,43.2371508,-79.8150332
100,Wexford Avenue South,L8K 2N8,43.2372736,-79.8152693
115,London Street South,L8K 2G6,43.2387236,-79.8196811
1175,Main Street East,L8M 1P3,43.2436612,-79.8203598
500,Upper Wellington Street,L9A 3P5,43.2404798,-79.8663531
499,Mohawk Road East,L8V 4L7,43.2230199,-79.8524635
1525,Stone Church Road East,L8W 3P8,43.1958726,-79.8219825
50,Lisgar Court,L8T 4Y4,43.2136462,-79.8282263
648,Limeridge Road East,L8W 1A1,43.2122666,-79.8569323
11,Guildwood Drive,L9C 7K2,43.2233018,-79.9204459
200,Cranbrook Drive,L9C 4S9,43.2217575,-79.9102477
865,Mohawk Road West,L9C 7B9,43.2332267,-79.9250299
220,Cranbrook Drive,L9C 4T2,43.2207406,-79.9107753
1249,Wilson Street East,L8S 4K6,43.2478596,-79.9462677
90,Floresta Court,L9G 1R8,43.2126141,-79.9899767
9300,Airport Road,L0R 1W0,43.1637084,-79.9322329
3727,Highway 6 South,L0R 1W0,43.1411919,-79.9206186
127,Gatestone Drive,L8J 3Z5,43.1817978,-79.7894030
29,John Murray Street,L8J 1C5,43.1918122,-79.7835893
100,Greenhill Avenue,L8K 6M4,43.2188784,-79.8069945
375,Aberdeen Avenue,L8P 2R7,43.2499034,-79.8900813
75,Concerto Court,L9G 4V6,43.2085785,-79.9889086
9280,Airport Road West,L0R 1W0,43.1598737,-79.9248984
211,Memorial Avenue,L8G 3B2,43.2166395,-79.7278763
270,Governors Road,L9H 5E3,43.2588557,-79.9728453
1284,Main Street East,L8K 1B2,43.2403871,-79.8142001
610,King Street West,L8P 1C2,43.2619839,-79.8865739
545,King Street West,L8P 1C1,43.2609777,-79.8848616
55,Bay Street North,L8R 3L4,43.2594856,-79.8738277
13,Caroline Street North,L8R 2R5,43.2590377,-79.8756824
47,Caroline Street North,L8R 2R6,43.2601028,-79.8753411
150,Market Street,L8R 3J6,43.2598481,-79.8759190
27,Duke Street,L8P 1W8,43.2516909,-79.8726968
36,Hunter Street East,L8N 3W8,43.2531247,-79.8691992
55,Catharine Street South,L8N 4E8,43.2532371,-79.8659781
284,King Street East,L8N1B7,43.2537120,-79.8608447
181,Main Street East,L8N 1H2,43.2537270,-79.8623525
250,King Street East,L8N 1B7,43.2540816,-79.8618187
80,King William Street,L8R 0A1,43.2562130,-79.8652446
255,King Street West,L8R 1B1,43.2555076,-79.8606214
40,Wellington Street North,L8R 1M8,43.2545165,-79.8584781
265,Bowman Street,L8S 2T9,43.2498980,-79.9196312
80,Queen Street North,L8R 3P6,43.2612217,-79.8771130
39,Mary Street,L8R 3L8,43.2564645,-79.8639008
52,Catharine Street North,L8R 1J1,43.2569637,-79.8642398
14,Duke Street,L8P 1X1,43.2520555,-79.8718408
19,Pearl Street North,L8R 2Y6,43.2611811,-79.8819592
252,James Street North,L8R 2L3,43.2629240,-79.8656924
232,Cannon Street East,L8L 0A9,43.2579343,-79.8570711
20,Caroline Street South,L8P 0B1,43.2579894,-79.8764218
107,Hess Street North,L8R 2T1,43.2632283,-79.8761490
211,Mill Street North,L0R 2H0,43.3376730,-79.8982156
1560,5th Concession West,N0B 1L0,43.3116621,-80.1050780
449,Sanatorium Road,L9C 2A7,43.2362179,-79.9148174
400,Rymal Road East,L9B 1C2,43.1977531,-79.8766521
178,John Street South,L8N 2C6,43.2513835,-79.8686406
104,Hughson Street North,L8R 1G6,43.2592070,-79.8662338
41,Jackson Street West,L8P 1L3,43.2545495,-79.8720199
101,York Boulevard,L8R 3L4,43.2590918,-79.8721930
75,Anson Avenue,L8T 2X5,43.2127457,-79.8285706
110,Anson Avenue,L8T 2X6,43.2110711,-79.8295835
50,Lisgar Court,L8T 4Y4,43.2136739,-79.8281909
55,Main Street West,L8P 1H4,43.2554374,-79.8718462
28,James Street North,L8P 1A2,43.2577784,-79.8682066
15,John Street North,L8P 1A2,43.2564679,-79.8665502
55,John Street North,L8R 3M8,43.2576058,-79.8665218
601,Burlington Street East,L8L 4J5,43.2672661,-79.8370156
150,Barton Street East,L8L 2W5,43.2617811,-79.8593459
1411,Upper Sherman Avenue,L8W 1C4,43.2028200,-79.8593925
22,Queensbury Drive,L8W 1Z6,43.2014721,-79.8408343
291,Winterberry Drive,L8J 2N5,43.1914878,-79.8069466
55,Braeheid Avenue,L8B 0C5,43.3282220,-79.9089578
237,Copeland Avenue,L8L 2X2,43.2628942,-79.8534916
727,Queenston Road,L8G 1A1,43.2296177,-79.7700898
393,Millen Road,L8E5A8,43.2337991,-79.7202897
75,Concerto Court,L9G 4V6,43.2082128,-79.9889768
20,Augusta Street,L8N 1P7,43.2518091,-79.8703019
1400,Main Street West,L8S 1C7,43.2595850,-79.9207270
12,Tranquility Avenue,L9G 5C2,43.2111292,-80.0071399
100,Panabaker Drive,L9G 5E3,43.2020378,-79.9950793
1015,Golf Links Road,L9K 1L6,43.2287589,-79.9418567
771,Golf Links Road,L9G 3K9,43.2274895,-79.9537538
1217,Old Mohawk Road,L9K 1P6,43.2334309,-79.9353361
256,Mud Street West,L8J 3Z6,43.1961243,-79.7921332
280,Mud Street West,L8J 3Z6,43.1965271,-79.7941105
270,Mud Street West,L8J 3Z6,43.1967079,-79.7930286
284,Mud Street West,L8J 3Z6,43.1970113,-79.7939266
544,Limeridge Road East,L8W 1A1,43.2134197,-79.8613177
1599,Stone Church Road East,L8W 3P8,43.1954318,-79.8194326
300,Mud Street West,L8J 3Z6,43.1966998,-79.7951968
1579,Main Street West,L8S 1E6,43.2553247,-79.9288605
1029,Main Street West,L8S 4R9,43.2580493,-79.9074889
815,Main Street West,L8S 1A2,43.2592530,-79.9000343
1150,Main Street West,L8S 1C2,43.2587326,-79.9127103
1088,Main Street West,L8S 1B3,43.2584494,-79.9097721
1092,Main Street West,L8S 1B3,43.2583978,-79.9100313
1379,Upper James Street,L9B 1K2,43.2097285,-79.8887012
795,Paramount Drive,L8J 0B4,43.1934028,-79.8091851
385,Highland Road West,L8J 3X9,43.1875273,-79.8031252
353,Isaac Brock Drive,L8J 2J3,43.1936291,-79.7896795
25,Alderson Drive,L9B 1G3,43.1987742,-79.8964412
142,Duncairn Crescent,L9C 6N9,43.2183859,-79.8989278
200,Chester Avenue,L9C 2X1,43.2178274,-79.8972584
165,Terrace Drive,L9A 2Z2,43.2300634,-79.8768534
249,Upper Centennial Parkway,L8J 2V7,43.1896620,-79.7700961
249,Upper Centennial Parkway,L8J 2V7,43.1898915,-79.7699778
2717,King Street East,L8G 1J3,43.2214033,-79.7767538
27,Jessica Street,L8W 4A1,43.1940877,-79.8712460
200,Acadia Drive,L8W 1B8,43.2013594,-79.8648969
801,Upper Gage Ave,L8V 4R7,43.2199131,-79.8418994
315,East 37th Street,L8V 4B5,43.2272866,-79.8415374
952,Fennell Avenue East,L8T 1P9,43.2275521,-79.8382291
171,San Remo Drive,L9C 6P8,43.2381684,-79.9263852
927,Rymal Road East,L8W 3M2,43.1926332,-79.8516110
135,Bendamere Avenue,L9C 1N4,43.2340452,-79.8920648
93,Sanatorium Road,L9C 1Y6,43.2320102,-79.8963338
100,Legend Court,L9K 1J3,43.2297308,-79.9484322
93,Kitty Murray Lane,L9K 1S3,43.2213265,-79.9518005
25,Brentwood Drive,L8T 3V9,43.2234074,-79.8285246
88,Macaulay Street East,L8L 3X3,43.2693595,-79.8594762
101,Osler Drive,L9H 4H4,43.2570842,-79.9423036
1585,Main Street West,L8S 1E6,43.2571441,-79.9289830
1221,Wilson Street East,L8S 4K6,43.2459274,-79.9470832
330,Main Street East,L8N 3T9,43.2517723,-79.8569302
1294,Highway 6,L8N 2Z7,43.3650502,-79.9894336
80,Kingslea Drive,L8T 4A5,43.2202879,-79.8276216
181,Belmont Avenue,L8L 7M5,43.2495402,-79.8229066
1115 Barton Street E.,Barton Street East,L8H 2V2,43.2522875,-79.8145479
470,Kitty Murray Lane,L9K 0C3,43.2093018,-79.9543901
200,Windwood Drive,L0R 1C0,43.1173984,-79.8136166
2462,Concession 2 West,L0R 2B0,43.2410277,-80.1961933
969,Lynden Road,L0R 1T0,43.2278596,-80.1439439
2121,Highway 56,L0R 1C0,43.1350520,-79.7970686
35,Pumpkin Pass,L0R 1C0,43.1256295,-79.8126889
126,James Street South,L8P 2Z4,43.2530229,-79.8710682
675,Mohawk Road West,L9C 1X7,43.2325984,-79.9136744
120,Parkdale Avenue South,L8K 3P3,43.2336992,-79.7941115
170,Skinner Road,L0R 2H7,43.3389112,-79.8769526
1280,Main st w,L8S 4L8,43.2613860,-79.9212605
71,Maplewood Avenue,L8M 1W7,43.2458411,-79.8369675
24,Kennard Street,L8J 2E5,43.1887908,-79.7916815
99,Ferguson Avenue North,L8R 1L6,43.2576299,-79.8610654
30,Wentworth St N,L8L 8H5,43.2529628,-79.8474883
20,Erie Avenue,L8N 2W6,43.2504050,-79.8531671
75,Hunter Street West,L8P 1P9,43.2540602,-79.8745770
67,Queensdale Avenue East,L9A 1K4,43.2417152,-79.8728986
300,Dundurn Street South,L8P 4L3,43.2527438,-79.8929652
105,High Street,L8T 3Z4,43.2264122,-79.8233420
25,High Street,L8T 3Z4,43.2280663,-79.8223490
45,Berko Avenue,L8V 2R3,43.2157739,-79.8497085
301,Crockett Street,L8V 1H5,43.2364755,-79.8417471
542,Upper Wellington Street,L9A 3P5,43.2393185,-79.8666462
160,Wentworth Street North,L8L 5V7,43.2570569,-79.8461043
657,Upper James Street,L9C 5R8,43.2355086,-79.8763910
659,Upper James Street,L9C 5R8,43.2363349,-79.8778510
667,Upper James Street,L9C 5R8,43.2355075,-79.8782809
661,Upper James Street,L9C 5R8,43.2359733,-79.8780363
130,York Boulevard,L8R 1Y5,43.2615241,-79.8740468
327,Barton Street,L8E 5M8,43.2239373,-79.7004777
301,Lewis Road,L8E 5H1,43.2132508,-79.6610711
200,Whitney Ave,L8S 2G7,43.2545047,-79.9278859
1045,Upper Paradise Road,L9B 2N4,43.2134841,-79.9174314
250,Limeridge Road West,L9C 2V2,43.2232712,-79.8957550
9,Lynbrook Drive,L9C 2K6,43.2279140,-79.8931706
108,Highland Road West,L8J 2T2,43.1843674,-79.7784276
1,Rexford Drive,L8W 3E8,43.2077941,-79.8550844
50,Ravenbury Drive,L8W 2B5,43.2059126,-79.8527323
320,Brigade Drive,L9B 2E3,43.2025523,-79.8778076
20,Bonaparte Way,L9B 2E3,43.2038499,-79.8782094
77,Melrose Avenue North,L8L 6X4,43.2524571,-79.8319469
1525,Lucerne Avenue,L8K 1R3,43.2326243,-79.7967597
24,Fiddler's Green Road,L9G 1W1,43.2181616,-79.9884899
33,Wilson Street West,L9G 1N1,43.2171277,-79.9889136
16,Wilson Street West,L9G 1N2,43.2171858,-79.9876217
295,Nakoma Road,L9G 1T2,43.2081125,-79.9918781
168,Huron Avenue,L9G 1V7,43.2091991,-79.9921472
295,Greencedar Drive,L9C 7M9,43.2228379,-79.9224928
59,Karen Crescent,L9C 5M5,43.2406968,-79.9253974
200,Cranbrook Drive,L9C 4S9,43.2219080,-79.9106297
62,Templemead Drive,L8W 3Z7,43.1968753,-79.8481437
24,Amberwood Street,L8J 2H9,43.1996256,-79.7969065
1105,Paramount Drive,L8J 1W2,43.2016390,-79.7959521
47,Tisdale Street South,L8N 2W1,43.2503369,-79.8538833
49,Tisdale Street South,L8N 2W1,43.2502482,-79.8539236
45,Tisdale Street South,L8N 2W1,43.2504297,-79.8538408
43,Tisdale Street South,L8N 2W1,43.2505111,-79.8537921
41,Tisdale Street South,L8N 2W1,43.2506016,-79.8537740
1685,Main Street West,L8S 1G5,43.2567914,-79.9342153
1797,Main Street West,L8S 1H6,43.2538489,-79.9377541
65,Hatt Street,L9H 0C1,43.2658953,-79.9577061
70,Macklin Street North,L8S 3S1,43.2641594,-79.8950545
900,King Street West,L8S 1K6,43.2640696,-79.9023126
465,East 16Th Street,L9A 4K6,43.2284208,-79.8639469
460,Concession Street,L9A 1C3,43.2409935,-79.8562976
25,Alma Street,L9H 2C9,43.2707626,-79.9554792
73,Melville Street,L9H 2A2,43.2693361,-79.9581104
4000,Creekside Drive,L9H 7S9,43.2646065,-79.9569777
1040,Queensdale Avenue East,L8T 1J4,43.2303065,-79.8311510
2000,Creekside Drive,L9H 7S7,43.2636272,-79.9561269
1000,Creekside Drive,L9H 7S6,43.2634834,-79.9553139
3000,Creekside Drive,L9H 7S8,43.2640690,-79.9566744
56,Governors Road,L9H 5G7,43.2612013,-79.9573426
55,Mercer Street,L9H 2N8,43.2659436,-79.9703087
55,Mercer Street,L9H 2N8,43.2663281,-79.9711514
19-23,Golf Links Road,L9K1M7,43.2258008,-79.9471268
8-6,Golf Links Road,L9K1M7,43.2259265,-79.9475749
1760,Garth Street,L9B 2X5,43.2061020,-79.9156287
98,Wilson Street West,L9G 1N3,43.2146479,-79.9912670
103,Mcniven Road,L9G 3T7,43.2285973,-79.9625065
92,Jackson Street East,L8N 1L2,43.2534535,-79.8663487
1430,Upper Wellington Street,L9A 5H3,43.2094485,-79.8797571
7,Ernest Street,L9H 5M4,43.2824368,-79.9275993
931,Fennell Avenue East,L8V 1W9,43.2285680,-79.8403407
935,Fennell Avenue East,L8V 1W9,43.2284811,-79.8398318
937,Fennell Avenue East,L8V 1W9,43.2284087,-79.8396887
653,Fennell Avenue East,L8V 1T9,43.2310755,-79.8510055
521,Highway 8,L8G 1G4,43.2161694,-79.7139545
330,Crockett Street,L8V 1H9,43.2357752,-79.8404711
788,Concession Street,L8V 1C9,43.2382584,-79.8424041
790,Concession Street,L8V 1C9,43.2382459,-79.8423517
792,Concession Street,L8V 1C9,43.2382333,-79.8423001
794,Concession Street,L8V 1C9,43.2382193,-79.8421566
499,Mohawk Road East,L8V 4L7,43.2231174,-79.8534147
616,Upper Wellington Street,L9A 3P9,43.2374021,-79.8676352
622,Upper Wellington Street,L9A 3R1,43.2369713,-79.8678907
605,Concession Street,L8V1B4,43.2405256,-79.8495603
5,Hamilton Avenue,L8V 2S3,43.2412954,-79.8492033
902,Mohawk Road East,L8T 2R8,43.2159696,-79.8326789
1110,Fennell Avenue East,L8T 1R8,43.2253800,-79.8301239
1110,Fennell Avenue East,L8T 1R8,43.2254375,-79.8299104
420,Mohawk Road East,L8V 2H7,43.2222013,-79.8578107
9149,Airport Road,L0R 1W0,43.1564566,-79.9209867
330,Governor's Road,L9H 5P8,43.2571193,-79.9793636
270,Governor's Road,L9H 5E3,43.2586620,-79.9728505
150,Lower Horning Road,L8S 4P2,43.2489371,-79.9344855
11,Talisman Court,L9H 4A7,43.2511252,-79.9732685
9,Talisman Court,L9H 4A7,43.2511538,-79.9730402
7,Talisman Court,L9H 4A7,43.2513447,-79.9729485
5,Talisman Court,L9H 4A7,43.2514920,-79.9728916
3,Talisman Court,L9H 4A7,43.2516145,-79.9728278
1,Talisman Court,L9H 4A7,43.2517878,-79.9727486
40,Eastwood Street,L8H 6R7,43.2398285,-79.7771587
140,Glen Echo Drive,L8K 4J1,43.2245577,-79.7789788
685,Queenston Road,L8G 1A1,43.2304556,-79.7727050
701,Queenston Road,L8G 1A1,43.2299528,-79.7713657
349,Isaac Brock Drive,L8J 3S2,43.1930629,-79.7898242
125,Wentworth Street South,L8N 2Z1,43.2475012,-79.8504234
735,Queenston Road,L8G 1A1,43.2294573,-79.7692691
771,Queenston Road,L8G 1A1,43.2293361,-79.7685685
145,Rainbow Drive,L8K 4G1,43.2261170,-79.7791412
620,South Service Road,L8E 2W1,43.2281830,-79.6988816
1015,Golf Links Road,L9K 1L6,43.2280496,-79.9407055
631,King Street West,L8P 1C4,43.2618851,-79.8875680
115,Stanley Avenue,L8P 2L5,43.2514854,-79.8878256
40,Bay Street South,L8P 0B3,43.2571243,-79.8747347
121,Hughson Street North,L8R 1G7,43.2599618,-79.8665198
334,Wilson Street East,L9G 2C2,43.2264442,-79.9761588
678,Main Street East,L8M 1K2,43.2483628,-79.8431183
100,Main Street West,L8P 1H6,43.2567387,-79.8735997
280,King Street West,L8P 1B1,43.2592738,-79.8776472
334,Wilson Street East,L9G 2C2,43.2263355,-79.9759827
375,James Street South,L8P 3B9,43.2461823,-79.8745143
203,Bell Avenue,L8K 3E5,43.2324205,-79.8032954
230,King Street West,L8P 1A9,43.2588657,-79.8761525
123,MacNab Street South,L8P 3C2,43.2531004,-79.8719891
1831,King Street East,L8K 1V8,43.2322123,-79.8095013
1770,King Street East,L8K 1V7,43.2321215,-79.8122144
1355,Main Street West,L8S 4M7,43.2570790,-79.9213959
240,James Street South,L8P 3B3,43.2484806,-79.8730356
309,Queen Street South,L8P 3T6,43.2498695,-79.8823269
311,Queen Street South,L8P 3T6,43.2498031,-79.8823469
313,Queen Street South,L8P 3T6,43.2497221,-79.8823524
317,Queen Street South,L8P 3T6,43.2496007,-79.8824331
319,Queen Street South,L8P 3T6,43.2495467,-79.8824667
323,Queen Street South,L8P 3T6,43.2494782,-79.8824858
327,Queen Street South,L8P 3T6,43.2493447,-79.8825544
329,Queen Street South,L8P 3T6,43.2492763,-79.8825811
331,Queen Street South,L8P 3T6,43.2492029,-79.8826140
333,Queen Street South,L8P 3T6,43.2490866,-79.8826485
327,Queen Street South,L8P 3T6,43.2493728,-79.8824242
112,Aberdeen Avenue,L8P 2N9,43.2481825,-79.8790591
108,Aberdeen Avenue,L8P 2N9,43.2481190,-79.8786212
104,Aberdeen Avenue,L8P 2N9,43.2480294,-79.8783303
58,Mericourt Road,L8S 2N9,43.2526152,-79.9378187
421,Whitney Avenue,L8S 2H6,43.2510265,-79.9386655
400,Whitney Avenue,L8S 2H4,43.2517041,-79.9372439
76,Mericourt Road,L8S 2N9,43.2519322,-79.9373828
64,Mericourt Road,L8S 2N9,43.2524515,-79.9377196
74,Mericourt Road,L8S 2N9,43.2521060,-79.9375022
70,Mericourt Road,L8S 2N9,43.2522851,-79.9376119
397,King Street West,L9H 1W9,43.2724490,-79.9712616
28,Ewen Road,L8S 3C4,43.2558523,-79.9319373
1561,Main Street West,L8S 1E6,43.2572974,-79.9275753
690,Main Street West,L8S 1A4,43.2603190,-79.8982133
505,King St W,L8P 4W7,43.2606694,-79.8840941
255,York Boulevard,L8R 1Y7,43.2619196,-79.8765470
82,Queen Street North,L8R 2V4,43.2621546,-79.8772211
1830,Main Street West,L8S 1H5,43.2529746,-79.9400409
131,John Street South,L8N 2C3,43.2523260,-79.8675715
300,York Boulevard,L8R 3K6,43.2632378,-79.8773733
1554,Main Street West,L8S 1E5,43.2577639,-79.9257196
337,Hamilton Regional Road 8,L8G 1E7,43.2203976,-79.7282745
35,Arkledun Avenue,L8N 2H5,43.2472901,-79.8681979
2200,Rymal Road,L0R 1P0,43.1737574,-79.7802336
50,Secord Drive,L8K 3W7,43.2273812,-79.7786268
254,Locke Street South,L8P 4B9,43.2530160,-79.8869236
574,James Street North,L8L1J7,43.2722552,-79.8619018
4663,Highway 6,L0R 1W0,43.1147074,-79.9326626
100,Panabaker Drive,L9G 5E3,43.2013788,-79.9941508
25,Mill Street North,L0R 2H0,43.3347105,-79.8928023
270,Locke Street South,L8P 4C1,43.2524466,-79.8879309
977,King Street East,L8M 1C3,43.2514038,-79.8353575
1886,Governor'S Road,L0R 1J0,43.2435945,-80.0484580
43,Whitedeer Road,L8J 3T1,43.1780153,-79.7866643
2240,Rymal Road,L0R 1C0,43.1744014,-79.7807381
40,Heritage Drive,L8G 4H8,43.2135971,-79.7112897
42,Heritage Drive,L8G 4H8,43.2135448,-79.7111527
44,Heritage Drive,L8G 4H8,43.2135203,-79.7110321
46,Heritage Drive,L8G 4H8,43.2135052,-79.7108994
48,Heritage Drive,L8G 4H8,43.2134806,-79.7107716
50,Heritage Drive,L8G 4H8,43.2134557,-79.7106414
52,Heritage Drive,L8G 4H8,43.2134188,-79.7105260
54,Heritage Drive,L8G 4H8,43.2133838,-79.7103972
56,Heritage Drive,L8G 4H8,43.2133594,-79.7102746
58,Heritage Drive,L8G 4H8,43.2133331,-79.7101466
60,Heritage Drive,L8G 4H8,43.2133014,-79.7100232
66,Heritage Drive,L8G 4H8,43.2132483,-79.7098308
68,Heritage Drive,L8G 4H8,43.2132052,-79.7095893
315,Queen Street South,L8P 3T6,43.2496740,-79.8823743
64,Hester Street,L9A 2N5,43.2239186,-79.8793601
70,Hester Street,L9A 2N5,43.2238823,-79.8792170
74,Hester Street,L9A 2N5,43.2238489,-79.8790790
78,Hester Street,L9A 2N5,43.2238147,-79.8789329
82,Hester Street,L9A 2N5,43.2237755,-79.8787761
86,Hester Street,L9A 2N5,43.2236193,-79.8786157
90,Hester Street,L9A 2N5,43.2236931,-79.8783062
278,West 18th Street,L9C 4H2,43.2306845,-79.9001664
282,West 18th Street,L9C 4H2,43.2304513,-79.9002552
286,West 18th Street,L9C 4H2,43.2303198,-79.9002896
290,West 18th Street,L9C 4H2,43.2301588,-79.9002904
294,West 18th Street,L9C 4H2,43.2300296,-79.9002372
298,West 18th Street,L9C 4H2,43.2298754,-79.9001701
302,West 18th Street,L9C 4H2,43.2297465,-79.9001271
306,West 18th Street,L9C 4H2,43.2296124,-79.9000275
310,West 18th Street,L9C 4H2,43.2294269,-79.8998670
527,Upper Paradise Road,L9C 5E4,43.2303620,-79.9126198
535,Upper Paradise Road,L9C 5E4,43.2301671,-79.9127041
539,Upper Paradise Road,L9C 5E4,43.2300388,-79.9128068
543,Upper Paradise Road,L9C 5E4,43.2299090,-79.9128572
547,Upper Paradise Road,L9C 5E4,43.2297648,-79.9128807
555,Upper Paradise Road,L9C 5E4,43.2296460,-79.9129474
557,Upper Paradise Road,L9C 5E4,43.2295014,-79.9129908
559,Upper Paradise Road,L9C 5E4,43.2293969,-79.9131097
569,Upper Paradise Road,L9C 5E4,43.2291656,-79.9132536
37,Highway 8,L9H 4V1,43.2716145,-79.9832818
39,Highway 8,L9H 4V1,43.2718413,-79.9833168
41,Highway 8,L9H 4V1,43.2722663,-79.9833546
63,Highway 8,L9H 4V1,43.2748110,-79.9857422
67,Highway 8,L9H 4V1,43.2749840,-79.9859526
69,Highway 8,L9H 4V1,43.2751365,-79.9861143
71,Highway 8,L9H 4V1,43.2752787,-79.9862534
75,Highway 8,L9H 4V1,43.2754307,-79.9867646
77,Highway 8,L9H 4V1,43.2756256,-79.9869811
81,Highway 8,L9H 4V1,43.2759279,-79.9875694
83,Highway 8,L9H 4V1,43.2759572,-79.9878135
85,Highway 8,L9H 4V1,43.2759447,-79.9878919
87,Highway 8,L9H 4V1,43.2758659,-79.9881825
30,Laurier Avenue,L9C 3R9,43.2352770,-79.8892753
200,Dewitt Road,L8E 4M5,43.2172973,-79.7111020
62,Fairleigh Crescent,L8M 2K9,43.2450056,-79.8454430
286,Ottawa Street North,L8H 3Z9,43.2501415,-79.8164118
212,Ottawa Street North,L8H3Z6,43.2486149,-79.8170612
190,Ottawa Street North,L8H 3Z5,43.2478029,-79.8172608
425,Wilson Street East,L9G 2C4,43.2295602,-79.9753496
310,Governor's Road,L9H 5P8,43.2578428,-79.9760953
1205,Ridge Road,L8J 2X5,43.1966179,-79.6605711
145,Market Street,L8R 1N7,43.2594305,-79.8762570
258,King Street West,L8P 1A9,43.2590644,-79.8768685
256,King Street West,L8P 1A9,43.2590502,-79.8767976
262,King Street West,L8P 1A9,43.2590841,-79.8769438
254,King Street West,L8P 1A9,43.2590485,-79.8767304
139,Market Street,L8R 1N7,43.2593880,-79.8760379
137,Market Street,L8R 1N7,43.2593744,-79.8759672
141,Market Street,L8R 1N7,43.2594022,-79.8761007
135,Market Street,L8R 1N7,43.2593778,-79.8759023
224,King Street West,L8P 1A9,43.2588099,-79.8759706
226,King Street West,L8P 1A9,43.2588269,-79.8760343
236,King Street West,L8P 1A9,43.2589089,-79.8763253
228,King Street West,L8P 1A9,43.2588497,-79.8760899
252,King Street West,L8P 1A9,43.2590280,-79.8766620
232,King Street West,L8P 1A9,43.2588796,-79.8762069
234,King Street West,L8P 1A9,43.2588916,-79.8762536
250,King Street West,L8P 1A9,43.2589867,-79.8766140
222,King Street West,L8P 1A9,43.2587919,-79.8759002
25,Hess Street North,L8R 2S5,43.2598081,-79.8772096
23,Hess Street North,L8R 2S5,43.2597404,-79.8772414
21,Hess Street North,L8R 2S5,43.2596671,-79.8772765
17,Hess Street North,L8R 2S5,43.2595943,-79.8773032
15,Hess Street North,L8R 2S5,43.2595193,-79.8773358
13,Hess Street North,L8R 2S5,43.2594369,-79.8773628
9,Hess Street North,L8R 2S5,43.2593628,-79.8774032
76,Oak Avenue,L9H 7P6,43.2659345,-80.0050560
74,Oak Avenue,L9H 7P6,43.2660250,-80.0045380
72,Oak Avenue,L9H 7P6,43.2662337,-80.0041499
70,Oak Avenue,L9H 7P6,43.2666394,-80.0036109
68,Oak Avenue,L9H 7P6,43.2668537,-80.0029344
75,Oak Avenue,L9H 7P6,43.2674422,-80.0051239
65,Oak Avenue,L9H 7P6,43.2685781,-80.0035634
64,Oak Avenue,L9H 4Y9,43.2668938,-80.0018348
276,King Street West,L8P 1B1,43.2592285,-79.8775316
272,King Street West,L8P 1B1,43.2592024,-79.8774478
80,Colcrest Street,L8E 3Y8,43.2298316,-79.7457316
169,Market Street,L8R 1P1,43.2597683,-79.8773857
171,Market Street,L8R 1P1,43.2597804,-79.8774381
173,Market Street,L8R 1P1,43.2597865,-79.8775088
7,Hess Street North,L8R 2S5,43.2593041,-79.8774226
1560,Main Street West,L8S1E7,43.2577822,-79.9263552
166,Market Street,L8R 1N9,43.2600782,-79.8770065
170 1/2,Market Street,L8R 1N9,43.2601206,-79.8771772
168,Market Street,L8R 1N9,43.2600920,-79.8770614
170,Market Street,L8R 1N9,43.2601079,-79.8771249
129,Market Street,L8R 1N7,43.2593188,-79.8756788
278,King Street West,L8P 1B1,43.2592454,-79.8775957
177,Market Street,L8R 1P1,43.2598353,-79.8776411
179,Market Street,L8R 1P1,43.2598390,-79.8777135
175,Market Street,L8R 1P1,43.2598204,-79.8775794
166,Forest Avenue,L8N 0A5,43.2483702,-79.8653044
237,Barton Street East,L8L 2X2,43.2622899,-79.8557072
400,Cumberland Avenue,L8M 2A2,43.2416345,-79.8363825
88,Maplewood Avenue,L8M 1W9,43.2443397,-79.8372375
77,King Street West,L8G 5E5,43.2176274,-79.7660650
49,Collegiate Avenue,L8G 3L5,43.2208793,-79.7488294
40,Hess Street North,L8R 2S7,43.2602702,-79.8765332
17,Caroline Street North,L8R 2R5,43.2591304,-79.8756364
15,Caroline Street North,L8R 2R5,43.2590881,-79.8756578
288,King Street West,L8P 1B1,43.2593506,-79.8777780
125,Market Street,L8R 1N7,43.2592810,-79.8755558
46,Hess Street North,L8R 2S7,43.2604346,-79.8764774
48,Hess Street North,L8R 2S7,43.2604843,-79.8764694
42,Hess Street North,L8R 2S7,43.2603219,-79.8765102
44,Hess Street North,L8R 2S7,43.2603805,-79.8765192
130,Market Street,L8R 1N8,43.2596012,-79.8755178
128,Market Street,L8R 1N8,43.2595845,-79.8754435
126,Market Street,L8R 1N8,43.2595754,-79.8753512
132,Market Street,L8R 1N8,43.2596609,-79.8755862
280,Concession 10 East,L8B 1H6,43.4050046,-79.9953819
1624,Centre Rd,L0R 1H0,43.4042268,-79.9943427
1122,Main Street West,L8S 1C1,43.2582990,-79.9110192
1654,Wilson Street West,L9G 3K9,43.1913344,-80.0406933
1824,Rymal Road East,L8K 5J3,43.1813616,-79.8177111
255,Raymond Road,L9K 0H5,43.2127708,-79.9365360
838,Mineral Springs Road,L9G 4X1,43.2356395,-80.0081532
333,Highway 20,L8G 3X4,43.1952404,-79.7675484
178,Market Street,L8R 1N9,43.2601948,-79.8774757
172,Market Street,L8R 1N9,43.2601481,-79.8772875
180,Market Street,L8R 1N9,43.2602139,-79.8775498
174,Market Street,L8R 1N9,43.2601620,-79.8773423
182,Market Street,L8R 1N9,43.2602275,-79.8776053
176,Market Street,L8R 1N9,43.2601805,-79.8774175
460,Highway 20 East,L0R 1P0,43.1631723,-79.7336755
1654,Wilson Street West,L9G 3K9,43.1915723,-80.0406487
201,Paradise Road North,L8S 3T3,43.2698898,-79.8961298
1051,King Street West,L8S1L6,43.2612131,-79.9069133
100,Macklin Street North,L8S 3S1,43.2659719,-79.8945617
659,Upper James Street,L9C 5R8,43.2364814,-79.8777792
659,Upper James Street,L9C 5R8,43.2365909,-79.8777207
659,Upper James Street,L9C 5R8,43.2367081,-79.8776815
1822,Upper James Street,L9B 1K9,43.1959704,-79.8969718
222,Robinson Street,L8P 1Z9,43.2534298,-79.8823621
100,West 5th Street,L9C 0E3,43.2418870,-79.8863152
37,Hess Street North,L8R 2S6,43.2602976,-79.8769581
1883,King Street East,L8K 1V9,43.2319856,-79.8076992
21,Jones Street,L8G 3H9,43.2172598,-79.7546810
1620,Upper Wentworth Street,L9B 2W3,43.1986138,-79.8739578
705,Centre Road,L8N 2Z7,43.3437280,-79.9147117
922,Centre Road,L8N 2Z7,43.3590787,-79.9320522
123,Market Street,L8R 1N7,43.2592671,-79.8754944
208,Brucedale Avenue East,L9A 3M8,43.2372144,-79.8687467
571,Glover Road,L0R 1P0,43.1697989,-79.8313891
440,Glover Road,L0R 1P0,43.1719585,-79.8353340
1415,Barton Street East,L8H 2W6,43.2487560,-79.8028976
176,Victoria Avenue North,L8L 5G1,43.2582631,-79.8540755
61,Napier Street,L8R 1R9,43.2602660,-79.8755841
63,Napier Street,L8R 1R9,43.2602725,-79.8756706
65,Napier Street,L8R 1R9,43.2602825,-79.8757443
31,Caroline Street North,L8R 2R6,43.2597251,-79.8753531
35,Caroline Street North,L8R 2R6,43.2598075,-79.8753126
152,Mary Street,L8L 4V8,43.2595905,-79.8618502
113,James Street North,L8R 2K3,43.2597480,-79.8680203
107,James Street North,L8R 2K6,43.2595497,-79.8681337
103,Napier Street,L8R 1S1,43.2607251,-79.8772770
89,Napier Street,L8R 1S1,43.2606059,-79.8767773
91,Napier Street,L8R 1S1,43.2606385,-79.8768309
93,Napier Street,L8R 1S1,43.2606565,-79.8769180
45,Hess Street North,L8R 2S6,43.2605050,-79.8768403
43,Hess Street North,L8R 2S6,43.2604394,-79.8768977
41,Hess Street North,L8R 2S6,43.2603738,-79.8769400
95,Napier Street,L8R 1S1,43.2606836,-79.8769855
99,Napier Street,L8R 1S1,43.2607001,-79.8771562
79,Napier Street,L8R 1R9,43.2604383,-79.8762014
81,Napier Street,L8R 1R9,43.2605109,-79.8762867
85,Napier Street,L8R 1R9,43.2605340,-79.8763941
51,Stuart Street,L8L1B5,43.2663648,-79.8673570
14,Cannon Street West,L8R 2B3,43.2611160,-79.8678910
178,King Street West,L9H 1V4,43.2670595,-79.9615425
823,Highway 8,L8E 5J3,43.2126995,-79.6877679
1413,Highway 8,L8E 5K7,43.2075659,-79.6391799
3243,Homestead Drive,L0R 1W0,43.1548654,-79.9149244
23,Lynden Road,L0R 1T0,43.2299665,-80.1452735
87,Napier Street,L8R 1R9,43.2605478,-79.8764568
83,Napier Street,L8R 1R9,43.2605220,-79.8763405
37,Caroline Street North,L8R 2R6,43.2598475,-79.8752944
33,Caroline Street North,L8R 2R6,43.2597638,-79.8753353
97,Napier Street,L8R 1S1,43.2606962,-79.8770388
542,Garner Road West,L9G 3K9,43.1970543,-80.0091623
89,Ofield Road,L8S 2M8,43.2547541,-79.9368439
130,Greenford Drive,L8G 2G8,43.2252967,-79.7716752
777,Garner Road East,L9K 1J4,43.2112429,-79.9510919
560,Centennial Parkway North,L8E 0G2,43.2441650,-79.7552002
582,Southcote Road,L9G3K9,43.2041644,-79.9578341
1361,Barton Street,L8E 5L1,43.2107607,-79.6425135
7,Yarmouth Court,L5S 3E2,43.2500884,-79.9313417
85,Rembrandt Court,L9G 4P8,43.2182350,-79.9915045
299,Barton Street,L8E 2K7,43.2302014,-79.7270551
298,Highway 8,L8G 1E6,43.2199066,-79.7328351
190,Glover Road,L8E 5H7,43.2084671,-79.6822017
33,Cromwell Crescent,L8G 2E9,43.2248838,-79.7672117
157,Lake Avenue North,L8E 1L5,43.2320387,-79.7564661
45,Randall Avenue,L8G 2K8,43.2209584,-79.7633985
20,Lake Avenue South,L8G 1P3,43.2156672,-79.7591403
127,Gray Road,L8G 3V3,43.2216708,-79.7461553
350,Albright Road,L8K 5J4,43.2193919,-79.7977701
345,Albright Road,L8K 6N3,43.2183682,-79.7954607
70,Albright Road,L9H 0A3,43.2180892,-79.7876853
390,Mud Street East,L8J 3C6,43.1810512,-79.7346496
75,Palmer Road,L8T 3G1,43.2149182,-79.8409621
80,Currie Street,L8T 3M9,43.2151404,-79.8391647
801,Dunsmure Road,L8H 1H9,43.2416575,-79.8029534
47,Simcoe Street East,L8L 3N2,43.2683750,-79.8617468
450,Sanatorium Road,L9C 2B1,43.2376059,-79.9136589
99,Dunham Drive,L9G 1X7,43.2167744,-79.9926925
215,Parkside Drive,L8B 1B9,43.3351477,-79.9098851
211,Parkside Drive,L0R 2H1,43.3341487,-79.9125867
375,Concession 5 West,L0R 1V0,43.3367566,-79.9604997
441,Old Brock Road,L9H 6A7,43.2887148,-79.9988231
49,Fennell Avenue East,L9A 1R5,43.2374845,-79.8747131
15,St. Ann Street,L8L 0B8,43.2556078,-79.8357750
60,Rolston Drive,L9C 3X7,43.2256979,-79.8947483
1279,Seaton Road,L0R 1Z0,43.3281649,-80.2008793
1346,Concession 4 West,L0R 2B0,43.2982320,-80.0742469
1200,Main Street West,L8N 3Z5,43.2593605,-79.9174158
2757,King Street East,L8G 5E4,43.2215970,-79.7738022
163,Dundas Street East,L9H 7H7,43.3238427,-79.9049687
346,Wilson Street East,L9G 2C2,43.2268311,-79.9760504
346,Wilson Street East,L9G 2C2,43.2266832,-79.9760992
150,Violet Drive,L8E 6B4,43.2324823,-79.7568995
1100,Main Street West,L8S 1X1,43.2583853,-79.9104708
1223,Main Street West,L8S 1C3,43.2576376,-79.9144615
124,Parkdale Avenue North,L8H 5W9,43.2395469,-79.7904611
120A,Parkdale Avenue North,L8H 5W9,43.2394498,-79.7904815
50,Charlton Avenue East,L8N 4A6,43.2483019,-79.8712474
199,Glover Road,L8E 5J2,43.2101645,-79.6832129
346,Dundurn Street South,L8P 4L6,43.2512525,-79.8929404
21,McCartney Street,l8b0t7,43.3394021,-79.8799498
11,McCartney Street,l8b0t7,43.3396061,-79.8801232
42,Boulding Avenue,L8B 0A8,43.3406623,-79.8855371
48,Boulding Avenue,L8B 0A8,43.3413904,-79.8846994
26,Boulding Avenue,L8B 0A8,43.3398689,-79.8862019
33,Aspen Court,L8B 0A7,43.3396116,-79.8860387
40,Boulding Avenue,L8B 0A8,43.3405748,-79.8855971
36,Boulding Avenue,L8B 0A8,43.3403770,-79.8857349
32,Boulding Avenue,L8B 0A8,43.3401775,-79.8858800
28,Boulding Avenue,L8B 0A8,43.3399632,-79.8860918
34,Boulding Avenue,L8B 0A8,43.3402715,-79.8858141
24,Boulding Avenue,L8B 0A8,43.3397860,-79.8863095
30,Boulding Avenue,L8B 0A8,43.3400746,-79.8859667
2,Gatesbury Court,L8B 0A8,43.3409599,-79.8859337
6,Gatesbury Court,L8B 0A8,43.3410934,-79.8861723
4,Gatesbury Court,L8B 0A8,43.3410085,-79.8860653
8,Gatesbury Court,L8B 0A8,43.3411368,-79.8863043
29,Aspen Court,L8B 0A7,43.3397000,-79.8859205
23,Aspen Court,L8B 0A7,43.3397720,-79.8858148
21,Aspen Court,L8B 0A7,43.3398749,-79.8857057
17,Aspen Court,L8B 0A7,43.3399630,-79.8855975
13,Aspen Court,L8B 0A7,43.3400462,-79.8854628
3,Burke Street,L8B 0A8,43.3410157,-79.8851275
44,Boulding Avenue,L8B 0A8,43.3411206,-79.8850138
46,Boulding Avenue,L8B 0A8,43.3412711,-79.8848547
50,Boulding Avenue,L8B 0A8,43.3415845,-79.8844810
3,Aspen Court,L8B 0A7,43.3403757,-79.8852375
7,Aspen Court,L8B 0A7,43.3402677,-79.8853116
11,Aspen Court,L8B 0A7,43.3401584,-79.8853844
31,Boulding Avenue,L8B 0A8,43.3407694,-79.8861626
29,Boulding Avenue,L8B 0A8,43.3406239,-79.8862299
27,Boulding Avenue,L8B 0A8,43.3404862,-79.8863635
25,Boulding Avenue,L8B 0A8,43.3403282,-79.8864977
38,Boulding Avenue,L8B 0A8,43.3404750,-79.8856636
43,Boulding Avenue,L8B 0A8,43.3414315,-79.8855948
47,Boulding Avenue,L8B 0A8,43.3416272,-79.8853559
41,Boulding Avenue,L8B 0A8,43.3413451,-79.8856900
45,Boulding Avenue,L8B 0A8,43.3415258,-79.8854648
49,Boulding Avenue,L8B 0A8,43.3417326,-79.8852392
23,Boulding Avenue,L8B 0A8,43.3402057,-79.8866383
21,Boulding Avenue,L8B 0A8,43.3400898,-79.8867732
35,Aspen Court,L8B 0A7,43.3392961,-79.8860378
17,McCartney Street,l8b0t7,43.3395032,-79.8800424
5,McCartney Street,l8b0t7,43.3397159,-79.8802259
40,McMonies Drive,L8B 0A5,43.3498105,-79.8835114
52,McMonies Drive,L8B 0A5,43.3500258,-79.8832333
44,McMonies Drive,L8B 0A5,43.3498908,-79.8834277
60,McMonies Drive,L8B 0A5,43.3501777,-79.8830387
48,McMonies Drive,L8B 0A5,43.3499616,-79.8833246
64,McMonies Drive,L8B 0A5,43.3502477,-79.8829592
32,McMonies Drive,L8B 0A5,43.3496713,-79.8837223
24,McMonies Drive,L8B 0A5,43.3495624,-79.8839794
36,McMonies Drive,L8B 0A5,43.3497336,-79.8836287
28,McMonies Drive,L8B 0A5,43.3496076,-79.8838618
138,McMonies Drive,L8B 0A6,43.3504307,-79.8846501
102,McMonies Drive,L8B 0A6,43.3508990,-79.8845725
132,McMonies Drive,L8B 0A6,43.3505762,-79.8848563
108,McMonies Drive,L8B 0A6,43.3507563,-79.8847672
170,McMonies Drive,L8B 0A6,43.3508316,-79.8841637
155,McMonies Drive,L8B 0A6,43.3502287,-79.8842262
139,McMonies Drive,L8B 0A6,43.3501543,-79.8850305
47,McMonies Drive,L8B 0A5,43.3502161,-79.8837360
153,McMonies Drive,L8B 0A6,43.3501708,-79.8843274
37,McMonies Drive,L8B 0A5,43.3500684,-79.8839307
79,McMonies Drive,L8B 0A5,43.3505558,-79.8838790
27,McMonies Drive,L8B 0A5,43.3499463,-79.8841650
43,McMonies Drive,L8B 0A5,43.3501396,-79.8838248
33,McMonies Drive,L8B 0A5,43.3499883,-79.8840212
117,McMonies Drive,L8B 0A6,43.3508328,-79.8854043
131,McMonies Drive,L8B 0A6,43.3503345,-79.8852827
107,McMonies Drive,L8B 0A6,43.3510564,-79.8851029
145,McMonies Drive,L8B 0A6,43.3500377,-79.8847373
119,McMonies Drive,L8B 0A6,43.3507336,-79.8855280
19,McMonies Drive,L8B 0A5,43.3498543,-79.8843700
23,McMonies Drive,L8B 0A5,43.3498846,-79.8842701
56,McMonies Drive,L8B 0A5,43.3501058,-79.8831425
19,Boulding Avenue,L8B 0A8,43.3399524,-79.8869465
1,Melissa Crescent,L9R2H0,43.3248908,-79.9038612
14,Hugill Way,L8B 0A1,43.3382597,-79.9082116
13,Savage Drive,L8B 0A1,43.3388683,-79.9086252
66,Hugill Way,L8B 0A2,43.3395767,-79.9072116
80,Hugill Way,L8B 0A3,43.3398635,-79.9076121
94,Hugill Way,L8B 0A3,43.3401478,-79.9080049
77,Hugill Way,L8B 0A3,43.3395436,-79.9078442
27,Savage Drive,L8B 0A1,43.3391504,-79.9090277
140,Cole Street,L8B 0A1,43.3389878,-79.9092465
130,Cole Street,L8B 0A1,43.3387614,-79.9089317
497,Millgrove Side Road,L0R1V0,43.3032326,-79.9487647
248,Freelton Road,L8B 0Z5,43.4049818,-80.0440193
9,Ernest Street,L9H 5M4,43.2821605,-79.9278764
10,Hunter Street,L9H1E6,43.2677073,-79.9473852
3,Hunter Street,L9H1E2,43.2672668,-79.9477743
19,Hunter Court,L9H1E2,43.2670218,-79.9474934
15,Hunter Court,L9H1E2,43.2668023,-79.9476609
10,Hunter Court,L9H2E2,43.2667723,-79.9479374
3,Hunter Court,L9H2E2,43.2671179,-79.9483217
7,Hunter Court,L9H2E2,43.2669305,-79.9482541
7,Hunter Street,L9H1E2,43.2673168,-79.9474716
19,Hunter Street,L9H1E5,43.2675540,-79.9463557
1,Hunter Street,L9H1E5,43.2672326,-79.9479112
59,Elizabeth Court,L8S 2P5,43.2529218,-79.9375108
28,Marimat Court,L9H 0A8,43.2626303,-79.9379299
32,Marimat Court,L9H 0A8,43.2625912,-79.9381468
33,Marimat Court,L9H 0A8,43.2620930,-79.9379831
25,Marimat Court,L9H 0A8,43.2622145,-79.9375965
36,Marimat Court,L9H 0A8,43.2625029,-79.9383629
37,Marimat Court,L9H 0A8,43.2621431,-79.9382289
24,Marimat Court,L9H 0A8,43.2626333,-79.9377296
29,Marimat Court,L9H 0A8,43.2621422,-79.9377651
40,Marimat Court,L9H 0A8,43.2622999,-79.9383474
1425,Highway 8,N1R 5S2,43.3335578,-80.2346840
16,Marimat Court,L9H 0A8,43.2624809,-79.9371603
8,Marimat Court,L9H 0A8,43.2622133,-79.9370679
11,Ewen Road,L8S 3C3,43.2567407,-79.9315816
12,Marimat Court,L9H 0A8,43.2623533,-79.9371090
56,Ofield Road,L8S 2M7,43.2553750,-79.9348379
29,Ramsey Crescent,L8S 2N1,43.2556037,-79.9352709
51,Elizabeth Court,L8S 2P5,43.2526845,-79.9374108
60,Elizabeth Court,L8S 2P6,43.2530687,-79.9370216
1777,Main Street West,L8S 1H3,43.2547587,-79.9370746
11,Lower Horning Road,L8S 3E8,43.2555618,-79.9357762
50,Radford Street,L8S 3E6,43.2537829,-79.9344390
54,Radford Street,L8S 3E6,43.2536336,-79.9344373
86,Radford Street,L8S 3E6,43.2526074,-79.9343791
30,Sheridan Lane,L8S 2N4,43.2544157,-79.9373054
21,Ramsey Crescent,L8S 2N1,43.2556186,-79.9348572
35,Ramsey Crescent,L8S 2N1,43.2555917,-79.9354599
5,Ramsey Crescent,L8S 2N1,43.2554591,-79.9345435
69,Ofield Road,L8S 2M6,43.2549432,-79.9354716
47,Elizabeth Court,L8S 2P5,43.2524164,-79.9372982
38,Ramsey Crescent,L8S 2N2,43.2559136,-79.9358440
40,Ramsey Crescent,L8S 2N2,43.2558849,-79.9359764
88,Ofield Road,L8S 2M9,43.2553061,-79.9365705
21,Elizabeth Court,L8S 2P5,43.2527154,-79.9358512
42,Lower Horning Road,L8S 3G2,43.2540063,-79.9358542
55,Elizabeth Court,L8S 2P5,43.2528083,-79.9374553
43,Elizabeth Court,L8S 2P5,43.2523231,-79.9371878
73,Ofield Road,L8S 2M6,43.2548937,-79.9356364
71,Radford Street,L8S 3E5,43.2529809,-79.9338189
55,Radford Street,L8S 3E5,43.2536067,-79.9338629
65,Radford Street,L8S 3E5,43.2532182,-79.9338612
41,Ofield Road,L8S 2M4,43.2550032,-79.9338305
49,Elizabeth Court,L8S 2P5,43.2525576,-79.9373556
29,Mericourt Road,L8S 2N5,43.2536734,-79.9372159
29,Sheridan Lane,L8S 2N3,43.2539916,-79.9373123
370,Whitney Avenue,L8S 2H4,43.2521318,-79.9355462
68,Lower Horning Road,L8S 3G3,43.2529224,-79.9355020
74,Lower Horning Road,L8S 3G3,43.2526663,-79.9354175
69,Radford Street,L8S 3E5,43.2530979,-79.9338268
83,Radford Street,L8S 3E5,43.2526163,-79.9338156
61,Radford Street,L8S 3E5,43.2533517,-79.9338446
51,Radford Street,L8S 3E5,43.2537300,-79.9338561
27,Lower Horning Road,L8S 3E9,43.2545888,-79.9354340
75,Radford Street,L8S 3E5,43.2528369,-79.9338275
79,Radford Street,L8S 3E5,43.2527319,-79.9337872
31,Lower Horning Road,L8S 3E9,43.2544338,-79.9353556
23,Lower Horning Road,L8S 3E9,43.2547214,-79.9354828
80,Lower Horning Road,L8S 3G3,43.2524125,-79.9353221
43,Lower Horning Road,L8S 3E9,43.2541198,-79.9352492
28,Ramsey Crescent,L8S 2N2,43.2559765,-79.9354017
51,Lower Horning Road,L8S 3E9,43.2536591,-79.9351431
340,Whitney Avenue,L8S 2H2,43.2524724,-79.9336713
37,Lower Horning Road,L8S 3E9,43.2542493,-79.9352985
85,Ofield Road,L8S 2M8,43.2548436,-79.9365848
83,Ofield Road,L8S 2M8,43.2548972,-79.9364480
376,Whitney Avenue,L8S 2H4,43.2520662,-79.9359194
31,Mericourt Road,L8S 2N5,43.2536386,-79.9374155
19,Mericourt Road,L8S 2N5,43.2537520,-79.9366625
25,Sheridan Lane,L8S 2N3,43.2540177,-79.9371375
25,Ramsey Crescent,L8S 2N1,43.2556112,-79.9350589
67,Ofield Road,L8S 2M6,43.2549451,-79.9352991
26,Ramsey Crescent,L8S 2N2,43.2559759,-79.9352243
392,Whitney Avenue,L8S 2H4,43.2518209,-79.9367433
39,Elizabeth Court,L8S 2P5,43.2521333,-79.9367962
46,Radford Street,L8S 3E6,43.2539493,-79.9344606
84,Lower Horning Road,L8S 3G3,43.2522832,-79.9352682
16,Ramsey Crescent,L8S 2N2,43.2559891,-79.9344991
356,Whitney Avenue,L8S 2H3,43.2523136,-79.9345802
66,Radford Street,L8S 3E6,43.2532432,-79.9344152
7,Ramsey Crescent,L8S 2N1,43.2555734,-79.9345452
58,Radford Street,L8S 3E6,43.2534953,-79.9344462
62,Radford Street,L8S 3E6,43.2533629,-79.9344453
90,Radford Street,L8S 3E6,43.2523444,-79.9343469
14,Ramsey Crescent,L8S 2N2,43.2560152,-79.9342620
64,Lower Horning Road,L8S 3G3,43.2530574,-79.9355411
12,Ramsey Crescent,L8S 2N2,43.2559714,-79.9340873
8,Ramsey Crescent,L8S 2N2,43.2556256,-79.9340274
49,Ofield Road,L8S 2M4,43.2549931,-79.9341682
56,Lower Horning Road,L8S 3G3,43.2534360,-79.9356612
19,Lower Horning Road,L8S 3E8,43.2553505,-79.9356399
62,Lower Horning Road,L8S 3G3,43.2531817,-79.9355694
4,Mericourt Road,L8S 2N7,43.2535490,-79.9356887
59,Radford Street,L8S 3E5,43.2534750,-79.9338878
37,Radford Street,L8S 3E5,43.2543621,-79.9339246
372,Whitney Avenue,L8S 2H4,43.2520930,-79.9357414
36,Ramsey Crescent,L8S 2N2,43.2559323,-79.9356967
29,Radford Street,L8S 3E5,43.2546891,-79.9340084
6,Ramsey Crescent,L8S 2N2,43.2555054,-79.9340061
45,Ofield Road,L8S 2M4,43.2550180,-79.9340208
49,Radford Street,L8S 3E5,43.2538588,-79.9338834
43,Radford Street,L8S 3E5,43.2541121,-79.9339002
10,Ramsey Crescent,L8S 2N2,43.2557683,-79.9340000
31,Radford Street,L8S 3E5,43.2545816,-79.9339548
35,Radford Street,L8S 3E5,43.2544731,-79.9339534
41,Radford Street,L8S 3E5,43.2542336,-79.9339409
44,Ofield Road,L8S 2M5,43.2553983,-79.9339928
84,Radford Street,L8S 3E6,43.2527398,-79.9343921
78,Radford Street,L8S 3E6,43.2529869,-79.9344028
82,Radford Street,L8S 3E6,43.2528527,-79.9344100
25,Radford Street,L8S 3E5,43.2548002,-79.9340379
45,Radford Street,L8S 3E5,43.2539801,-79.9338977
88,Radford Street,L8S 3E6,43.2524803,-79.9343689
60,Lower Horning Road,L8S 3G3,43.2533071,-79.9356114
72,Lower Horning Road,L8S 3G3,43.2527996,-79.9354747
72,Radford Street,L8S 3E6,43.2531082,-79.9344281
15,Sheridan Lane,L8S 2N3,43.2541102,-79.9365877
8,Elizabeth Court,L8S 2P6,43.2531692,-79.9365883
12,Elizabeth Court,L8S 2P6,43.2530481,-79.9365618
19,Sheridan Lane,L8S 2N3,43.2540723,-79.9367670
34,Ramsey Crescent,L8S 2N2,43.2559530,-79.9355499
59,Ofield Road,L8S 2M6,43.2549791,-79.9349536
41,Elizabeth Court,L8S 2P5,43.2522114,-79.9370384
394,Whitney Avenue,L8S 2H4,43.2517669,-79.9369250
33,Elizabeth Court,L8S 2P5,43.2522614,-79.9364974
20,Elizabeth Court,L8S 2P6,43.2526716,-79.9364499
24,Mericourt Road,L8S 2N8,43.2533295,-79.9367994
17,Elizabeth Court,L8S 2P5,43.2528418,-79.9359168
38,Lower Horning Road,L8S 3G2,43.2541107,-79.9358961
21,Mericourt Road,L8S 2N5,43.2537195,-79.9368447
52,Elizabeth Court,L8S 2P6,43.2528270,-79.9369113
14,Elizabeth Court,L8S 2P6,43.2529275,-79.9365227
56,Elizabeth Court,L8S 2P6,43.2529466,-79.9369679
25,Mericourt Road,L8S 2N5,43.2536830,-79.9370294
22,Sheridan Lane,L8S 2N4,43.2544331,-79.9370259
42,Ramsey Crescent,L8S 2N2,43.2558290,-79.9361416
1,Sheridan Lane,L8S 2N3,43.2542545,-79.9359592
15,Elizabeth Court,L8S 2P5,43.2529712,-79.9359676
10,Sheridan Lane,L8S 2N4,43.2545459,-79.9364833
18,Sheridan Lane,L8S 2N4,43.2544659,-79.9368449
36,Elizabeth Court,L8S 2P6,43.2525840,-79.9367888
21,Sheridan Lane,L8S 2N3,43.2540539,-79.9369569
3,Elizabeth Court,L8S 2P5,43.2534268,-79.9361692
7,Elizabeth Court,L8S 2P5,43.2532251,-79.9360635
29,Elizabeth Court,L8S 2P5,43.2523491,-79.9361612
382,Whitney Avenue,L8S 2H4,43.2519394,-79.9362528
8,Mericourt Road,L8S 2N7,43.2534720,-79.9360129
3,Mericourt Road,L8S 2N5,43.2538700,-79.9358034
11,Elizabeth Court,L8S 2P5,43.2530955,-79.9360130
2,Sheridan Lane,L8S 2N4,43.2545775,-79.9360846
7,Mericourt Road,L8S 2N5,43.2538553,-79.9361150
5,Sheridan Lane,L8S 2N3,43.2541543,-79.9362180
23,Elizabeth Court,L8S 2P5,43.2525447,-79.9358677
380,Whitney Avenue,L8S 2H4,43.2520037,-79.9360878
25,Elizabeth Court,L8S 2P5,43.2524205,-79.9359994
45,Lower Horning Road,L8S 3E9,43.2538838,-79.9352145
34,Lower Horning Road,L8S 3G1,43.2546984,-79.9360880
30,Lower Horning Road,L8S 3G1,43.2548339,-79.9361242
42,Radford Street,L8S 3E6,43.2540814,-79.9344792
26,Radford Street,L8S 3E6,43.2547796,-79.9346436
40,Radford Street,L8S 3E6,43.2542160,-79.9345094
63,Ofield Road,L8S 2M6,43.2549514,-79.9351591
34,Radford Street,L8S 3E6,43.2544336,-79.9345535
9,Sheridan Lane,L8S 2N3,43.2541163,-79.9364064
4,Elizabeth Court,L8S 2P6,43.2533622,-79.9366158
24,Ramsey Crescent,L8S 2N2,43.2559851,-79.9350683
50,Elizabeth Court,L8S 2P6,43.2527018,-79.9368441
51,Ofield Road,L8S 2M6,43.2549744,-79.9346381
36,Radford Street,L8S 3E6,43.2543268,-79.9345274
85,Lower Horning Road,L8S 3E9,43.2523082,-79.9347660
71,Lower Horning Road,L8S 3E9,43.2527189,-79.9348380
63,Lower Horning Road,L8S 3E9,43.2531795,-79.9350103
37,Elizabeth Court,L8S 2P5,43.2522213,-79.9366576
14,Sheridan Lane,L8S 2N4,43.2544938,-79.9366613
9,Ramsey Crescent,L8S 2N1,43.2556644,-79.9345561
32,Radford Street,L8S 3E6,43.2545438,-79.9345796
52,Ofield Road,L8S 2M7,43.2553569,-79.9345366
84,Ofield Road,L8S 2M9,43.2553413,-79.9362265
386,Whitney Avenue,L8S 2H4,43.2518890,-79.9364231
59,Lower Horning Road,L8S 3E9,43.2533072,-79.9350305
55,Lower Horning Road,L8S 3E9,43.2535037,-79.9350725
73,Lower Horning Road,L8S 3E9,43.2526165,-79.9348530
22,Ramsey Crescent,L8S 2N2,43.2559781,-79.9348744
20,Ramsey Crescent,L8S 2N2,43.2559964,-79.9347027
16,Lower Horning Road,L8S 3E7,43.2555633,-79.9363396
86,Ofield Road,L8S 2M9,43.2553200,-79.9363777
11,Mericourt Road,L8S 2N5,43.2538065,-79.9362974
15,Mericourt Road,L8S 2N5,43.2537912,-79.9364841
81,Lower Horning Road,L8S 3E9,43.2524709,-79.9347936
28,Radford Street,L8S 3E6,43.2546629,-79.9346209
55,Ofield Road,L8S 2M6,43.2549701,-79.9347923
31,Elizabeth Court,L8S 2P5,43.2523015,-79.9363409
18,Elizabeth Court,L8S 2P6,43.2528042,-79.9364808
69,Lower Horning Road,L8S 3E9,43.2528341,-79.9349378
67,Lower Horning Road,L8S 3E9,43.2530034,-79.9349521
366,Whitney Avenue,L8S 2H4,43.2521608,-79.9352344
78,Lower Horning Road,L8S 3G3,43.2525366,-79.9353680
6,Sheridan Lane,L8S 2N4,43.2545728,-79.9363363
81,Ofield Road,L8S 2M8,43.2549520,-79.9361955
390,Whitney Avenue,L8S 2H4,43.2518364,-79.9365698
296,Whitney Avenue,L8S 2H2,43.2527099,-79.9312479
300,Whitney Avenue,L8S 2H2,43.2526995,-79.9314933
308,Whitney Avenue,L8S 2H2,43.2526857,-79.9318205
304,Whitney Avenue,L8S 2H2,43.2526915,-79.9316422
5,Ofield Road,L8S 2M4,43.2550338,-79.9317774
87,Radford Street,L8S 3E5,43.2524432,-79.9338408
64,Ofield Road,L8S 2M7,43.2553695,-79.9352167
28,Mericourt Road,L8S 2N8,43.2532949,-79.9369804
64,Elizabeth Court,L8S 2P6,43.2532606,-79.9371429
45,Ewen Road,L8S 3C4,43.2552774,-79.9305023
60,Ofield Road,L8S 2M7,43.2553680,-79.9350252
80,Emerson Street,L8S 2X6,43.2554409,-79.9208677
68,Broadway Avenue,L8S 2V8,43.2557663,-79.9194050
47,Whitton Road,L8S 4C6,43.2616759,-79.9136788
96,Forsyth Avenue North,L8S 4E4,43.2629472,-79.9154122
182,Sterling Street,L8S 4J8,43.2625155,-79.9150298
88,Forsyth Avenue North,L8S 4E4,43.2625650,-79.9154838
106,Forsyth Avenue North,L8S 4E4,43.2632920,-79.9152522
64,Sulphur Springs Road,L9G 1L8,43.2262339,-79.9800738
1249,Sodom Road,L9H 5E2,43.2905010,-80.0584311
1259,Sodom Road,L9H 5E2,43.2913383,-80.0599352
40,Larkspur Crescent,L9K 1C6,43.2398898,-79.9332378
42,Larkspur Crescent,L9K 1C6,43.2398523,-79.9334264
119,Daffodil Crescent,L9K 1E1,43.2404268,-79.9360794
15,Daffodil Crescent,L9K 1C7,43.2397160,-79.9350023
12,Larkspur Crescent,L9K 1C3,43.2386727,-79.9326464
14,Larkspur Crescent,L9K 1C5,43.2387140,-79.9324558
16,Larkspur Crescent,L9K 1C6,43.2387970,-79.9321820
18,Larkspur Crescent,L9K 1C6,43.2389602,-79.9320544
20,Larkspur Crescent,L9K 1C6,43.2391449,-79.9320275
22,Larkspur Crescent,L9K 1C6,43.2392922,-79.9320448
24,Larkspur Crescent,L9K 1C6,43.2394272,-79.9320468
26,Larkspur Crescent,L9K 1C6,43.2395638,-79.9320455
28,Larkspur Crescent,L9K 1C6,43.2397067,-79.9320689
30,Larkspur Crescent,L9K 1C6,43.2398979,-79.9321518
32,Larkspur Crescent,L9K 1C6,43.2399720,-79.9323989
34,Larkspur Crescent,L9K 1C6,43.2399970,-79.9326521
36,Larkspur Crescent,L9K 1C6,43.2399611,-79.9328578
19,Daffodil Crescent,L9K 1C7,43.2397421,-79.9352362
23,Daffodil Crescent,L9K 1C7,43.2397996,-79.9354430
27,Daffodil Crescent,L9K 1C7,43.2398480,-79.9356499
31,Daffodil Crescent,L9K 1C7,43.2399206,-79.9358593
35,Daffodil Crescent,L9K 1C7,43.2399645,-79.9360719
39,Daffodil Crescent,L9K 1C7,43.2400320,-79.9362714
43,Daffodil Crescent,L9K 1C8,43.2400788,-79.9364768
47,Daffodil Crescent,L9K 1C8,43.2401347,-79.9366898
51,Daffodil Crescent,L9K 1C9,43.2401629,-79.9369138
55,Daffodil Crescent,L9K 1C9,43.2402325,-79.9371008
73,Daffodil Crescent,L9K 1C9,43.2402836,-79.9374486
77,Daffodil Crescent,L9K 1C9,43.2404349,-79.9373716
81,Daffodil Crescent,L9K 1C9,43.2405951,-79.9373002
85,Daffodil Crescent,L9K 1C9,43.2407330,-79.9372361
111,Daffodil Crescent,L9K 1E1,43.2405179,-79.9364982
30,Sunflower Crescent,L9K 1C2,43.2383424,-79.9322515
32,Sunflower Crescent,L9K 1C2,43.2383342,-79.9325884
34,Sunflower Crescent,L9K 1C2,43.2382939,-79.9328235
203,Lavender Drive,L9K 1C4,43.2383968,-79.9336950
207,Lavender Drive,L9K 1C4,43.2385292,-79.9337158
4,Larkspur Crescent,L9K 1C3,43.2385565,-79.9333845
6,Larkspur Crescent,L9K 1C3,43.2385908,-79.9331994
8,Larkspur Crescent,L9K 1C3,43.2386257,-79.9330223
10,Larkspur Crescent,L9K 1C3,43.2386408,-79.9328414
7,Larkspur Crescent,L9K 1C3,43.2390684,-79.9331909
9,Larkspur Crescent,L9K 1C3,43.2390959,-79.9329984
11,Daffodil Crescent,L9K 1C7,43.2397095,-79.9347777
219,Lavender Drive,L9K 1C4,43.2390895,-79.9337354
215,Lavender Drive,L9K 1C4,43.2389468,-79.9337355
5,Larkspur Crescent,L9K 1C3,43.2390333,-79.9333873
39,Larkspur Crescent,L9K 1C5,43.2394479,-79.9330284
107,Daffodil Crescent,L9K 1C9,43.2405722,-79.9367122
58,Daffodil Crescent,L9K 1E1,43.2398323,-79.9374775
54,Daffodil Crescent,L9K 1E1,43.2397810,-79.9372728
50,Daffodil Crescent,L9K 1E1,43.2397069,-79.9370830
46,Daffodil Crescent,L9K 1C8,43.2396882,-79.9368457
42,Daffodil Crescent,L9K 1C8,43.2396207,-79.9366519
38,Daffodil Crescent,L9K 1C8,43.2395629,-79.9364225
34,Daffodil Crescent,L9K 1C8,43.2395158,-79.9362149
30,Daffodil Crescent,L9K 1C8,43.2394485,-79.9360245
26,Daffodil Crescent,L9K 1C8,43.2393978,-79.9358076
22,Daffodil Crescent,L9K 1C8,43.2393253,-79.9356126
41,Larkspur Crescent,L9K 1C5,43.2394170,-79.9332234
43,Larkspur Crescent,L9K 1C5,43.2393835,-79.9334180
227,Lavender Drive,L9K 1C4,43.2393637,-79.9337605
223,Lavender Drive,L9K 1C4,43.2392236,-79.9337597
21,Larkspur Crescent,L9K 1C5,43.2391207,-79.9326537
23,Larkspur Crescent,L9K 1C5,43.2392643,-79.9326491
25,Larkspur Crescent,L9K 1C5,43.2393999,-79.9326535
27,Larkspur Crescent,L9K 1C5,43.2395335,-79.9326858
103,Daffodil Crescent,L9K 1C9,43.2406245,-79.9369214
66,Daffodil Crescent,L9K 1E1,43.2399957,-79.9379371
70,Daffodil Crescent,L9K 1E1,43.2401355,-79.9380746
62,Daffodil Crescent,L9K 1E1,43.2398942,-79.9376905
115,Daffodil Crescent,L9K 1E1,43.2404597,-79.9362923
38,Larkspur Crescent,L9K 1C6,43.2399231,-79.9330518
22,Honeysuckle Crescent,L9K 1B1,43.2338551,-79.9335986
108,Lavender Drive,L9K 1B1,43.2343606,-79.9320945
104,Lavender Drive,L9K 1B1,43.2342328,-79.9318837
100,Lavender Drive,L9K 1B1,43.2341275,-79.9316278
129,Lavender Drive,L9K 1B6,43.2356548,-79.9327257
109,Lavender Drive,L9K 1B5,43.2348988,-79.9318887
113,Lavender Drive,L9K 1B5,43.2350033,-79.9320068
117,Lavender Drive,L9K 1B5,43.2351233,-79.9320953
121,Lavender Drive,L9K 1B5,43.2352117,-79.9322375
125,Lavender Drive,L9K 1B5,43.2353222,-79.9323642
6,Indigo Place,L9K 1B4,43.2354524,-79.9320739
8,Indigo Place,L9K 1B4,43.2355880,-79.9319497
10,Indigo Place,L9K 1B5,43.2357115,-79.9318561
12,Indigo Place,L9K 1B5,43.2358655,-79.9318152
14,Indigo Place,L9K 1B5,43.2360401,-79.9318097
16,Indigo Place,L9K 1B5,43.2361689,-79.9318339
18,Indigo Place,L9K 1B5,43.2363138,-79.9318401
20,Indigo Place,L9K 1B5,43.2364542,-79.9317994
22,Indigo Place,L9K 1B5,43.2366188,-79.9318674
24,Indigo Place,L9K 1B5,43.2367409,-79.9321020
26,Indigo Place,L9K 1B5,43.2367231,-79.9324373
23,Indigo Place,L9K 1B4,43.2366123,-79.9326042
21,Indigo Place,L9K 1B4,43.2364710,-79.9326743
19,Indigo Place,L9K 1B4,43.2362978,-79.9325976
63,Honeysuckle Crescent,L9K 1B2,43.2349722,-79.9345632
67,Honeysuckle Crescent,L9K 1B2,43.2350830,-79.9343519
87,Honeysuckle Crescent,L9K 1B2,43.2349136,-79.9341445
93,Honeysuckle Crescent,L9K 1B2,43.2347944,-79.9340149
97,Honeysuckle Crescent,L9K 1B2,43.2346847,-79.9337644
214,Bluebell Crescent,L9K 1C1,43.2380474,-79.9342884
210,Bluebell Crescent,L9K 1B9,43.2380795,-79.9344931
206,Bluebell Crescent,L9K 1B9,43.2381475,-79.9346841
200,Bluebell Crescent,L9K 1B9,43.2382180,-79.9348714
211,Bluebell Crescent,L9K 1B9,43.2376452,-79.9346526
188,Lavender Drive,L9K 1C1,43.2376132,-79.9342812
184,Lavender Drive,L9K 1C1,43.2374746,-79.9342767
180,Lavender Drive,L9K 1C1,43.2373419,-79.9342676
176,Lavender Drive,L9K 1C1,43.2372053,-79.9342663
7,Sundrop Court,L9K 1B8,43.2371726,-79.9346346
11,Sundrop Court,L9K 1B8,43.2371908,-79.9348792
101,Honeysuckle Crescent,L9K 1B3,43.2346917,-79.9334962
105,Honeysuckle Crescent,L9K 1B3,43.2347748,-79.9332708
109,Honeysuckle Crescent,L9K 1B3,43.2348805,-79.9330916
37,Sunflower Crescent,L9K 1C1,43.2378048,-79.9328966
164,Lavender Drive,L9K 1B8,43.2366450,-79.9341366
170,Lavender Drive,L9K 1B8,43.2367776,-79.9341772
23,Sunflower Crescent,L9K 1C1,43.2377428,-79.9325389
25,Sunflower Crescent,L9K 1C1,43.2378786,-79.9325382
160,Lavender Drive,L9K 1B7,43.2365148,-79.9340826
156,Lavender Drive,L9K 1B7,43.2363746,-79.9340268
146,Lavender Drive,L9K 1B6,43.2358441,-79.9337109
142,Lavender Drive,L9K 1B6,43.2357161,-79.9335731
138,Lavender Drive,L9K 1B6,43.2355757,-79.9334498
134,Lavender Drive,L9K 1B6,43.2354586,-79.9333259
130,Lavender Drive,L9K 1B6,43.2353580,-79.9331890
90,Honeysuckle Crescent,L9K 1B3,43.2351544,-79.9336057
19,Sundrop Court,L9K 1B8,43.2372680,-79.9351250
23,Sundrop Court,L9K 1B8,43.2373566,-79.9353370
86,Honeysuckle Crescent,L9K 1B3,43.2352738,-79.9337606
50,Honeysuckle Crescent,L9K 1B3,43.2347542,-79.9353994
19,Sunflower Crescent,L9K 1C1,43.2374673,-79.9325343
21,Sunflower Crescent,L9K 1C1,43.2376092,-79.9325263
105,Lavender Drive,L9K 1B5,43.2347783,-79.9317713
17,Indigo Place,L9K 1B4,43.2361667,-79.9324762
15,Indigo Place,L9K 1B4,43.2360193,-79.9324710
9,Indigo Place,L9K 1B4,43.2358662,-79.9324623
35,Honeysuckle Crescent,L9K 1B2,43.2345414,-79.9343643
39,Honeysuckle Crescent,L9K 1B2,43.2346774,-79.9344995
59,Honeysuckle Crescent,L9K 1B2,43.2348379,-79.9347226
207,Bluebell Crescent,L9K 1B9,43.2376981,-79.9348874
27,Sundrop Court,L9K 1B8,43.2374364,-79.9355523
31,Sundrop Court,L9K 1B8,43.2375408,-79.9357208
196,Bluebell Crescent,L9K 1B9,43.2382646,-79.9350888
133,Lavender Drive,L9K 1B6,43.2357456,-79.9328502
137,Lavender Drive,L9K 1B6,43.2358521,-79.9329685
141,Lavender Drive,L9K 1B6,43.2359627,-79.9330825
199,Bluebell Crescent,L9K 1B9,43.2378654,-79.9352919
203,Bluebell Crescent,L9K 1B9,43.2377728,-79.9350906
169,Lavender Drive,L9K 1B7,43.2368785,-79.9335569
6,Sunflower Crescent,L9K 1B8,43.2369211,-79.9331321
8,Sunflower Crescent,L9K 1B8,43.2369628,-79.9329235
10,Sunflower Crescent,L9K 1B8,43.2370002,-79.9327091
120,Lavender Drive,L9K 1B6,43.2349112,-79.9327271
116,Lavender Drive,L9K 1B6,43.2348052,-79.9325980
112,Lavender Drive,L9K 1B6,43.2346953,-79.9324721
7,Honeysuckle Crescent,L9K 1A9,43.2345703,-79.9327572
11,Honeysuckle Crescent,L9K 1A9,43.2344607,-79.9329522
15,Honeysuckle Crescent,L9K 1A9,43.2343918,-79.9331734
12,Sunflower Crescent,L9K 1B8,43.2370277,-79.9324754
14,Sunflower Crescent,L9K 1C2,43.2371002,-79.9322069
16,Sunflower Crescent,L9K 1C2,43.2371978,-79.9319855
18,Sunflower Crescent,L9K 1C2,43.2373828,-79.9318932
20,Sunflower Crescent,L9K 1C2,43.2375390,-79.9318910
22,Sunflower Crescent,L9K 1C2,43.2376816,-79.9319085
24,Sunflower Crescent,L9K 1C2,43.2378231,-79.9319062
26,Sunflower Crescent,L9K 1C2,43.2379691,-79.9319164
28,Sunflower Crescent,L9K 1C2,43.2381136,-79.9319323
150,Lavender Drive,L9K 1B6,43.2359838,-79.9338018
19,Honeysuckle Crescent,L9K 1A9,43.2343546,-79.9334331
23,Honeysuckle Crescent,L9K 1A9,43.2343234,-79.9336721
27,Honeysuckle Crescent,L9K 1A9,43.2343436,-79.9339446
31,Honeysuckle Crescent,L9K 1A9,43.2344162,-79.9341994
39,Sunflower Crescent,L9K 1C1,43.2377778,-79.9331040
41,Sunflower Crescent,L9K 1C2,43.2377240,-79.9333091
187,Lavender Drive,L9K 1C1,43.2377002,-79.9336619
183,Lavender Drive,L9K 1C1,43.2375607,-79.9336682
179,Lavender Drive,L9K 1C1,43.2374281,-79.9336587
175,Lavender Drive,L9K 1C1,43.2372946,-79.9336211
5,Sunflower Crescent,L9K 1B8,43.2374194,-79.9330825
7,Sunflower Crescent,L9K 1B8,43.2374387,-79.9328780
124,Lavender Drive,L9K 1B6,43.2350250,-79.9328383
36,Sunflower Crescent,L9K 1C2,43.2382391,-79.9330145
38,Sunflower Crescent,L9K 1C2,43.2382152,-79.9331939
40,Sunflower Crescent,L9K 1C2,43.2382031,-79.9333749
195,Lavender Drive,L9K 1C4,43.2381209,-79.9336862
199,Lavender Drive,L9K 1C4,43.2382556,-79.9337019
82,Honeysuckle Crescent,L9K 1B3,43.2353966,-79.9339049
78,Honeysuckle Crescent,L9K 1B3,43.2355155,-79.9340769
74,Honeysuckle Crescent,L9K 1B3,43.2355745,-79.9343521
70,Honeysuckle Crescent,L9K 1B3,43.2355457,-79.9345872
66,Honeysuckle Crescent,L9K 1B3,43.2354771,-79.9348006
46,Honeysuckle Crescent,L9K 1B3,43.2345800,-79.9352395
42,Honeysuckle Crescent,L9K 1B3,43.2344569,-79.9350952
38,Honeysuckle Crescent,L9K 1B3,43.2343272,-79.9349646
34,Honeysuckle Crescent,L9K 1B3,43.2342218,-79.9347863
30,Honeysuckle Crescent,L9K 1B1,43.2340254,-79.9344773
28,Honeysuckle Crescent,L9K 1B1,43.2339235,-79.9342781
26,Honeysuckle Crescent,L9K 1B1,43.2339063,-79.9340411
24,Honeysuckle Crescent,L9K 1A9,43.2338643,-79.9338116
16,Magnolia Drive,L9C 5S9,43.2365202,-79.9256165
8,Magnolia Drive,L9C 5S9,43.2368568,-79.9257090
12,Magnolia Drive,L9C 5S9,43.2366475,-79.9256904
20,Magnolia Drive,L9C 5S9,43.2363645,-79.9256123
1248,Mohawk Road,L9K 1P5,43.2318492,-79.9334078
10,Honeysuckle Crescent,L9K 1B1,43.2339150,-79.9326326
14,Honeysuckle Crescent,L9K 1B1,43.2338604,-79.9329126
6,Honeysuckle Crescent,L9K 1B1,43.2339613,-79.9324039
145,Lavender Drive,L9K 1B6,43.2360876,-79.9331868
149,Lavender Drive,L9K 1B7,43.2362255,-79.9332740
153,Lavender Drive,L9K 1B7,43.2363607,-79.9333386
157,Lavender Drive,L9K 1B7,43.2364910,-79.9334004
161,Lavender Drive,L9K 1B7,43.2366074,-79.9334563
165,Lavender Drive,L9K 1B7,43.2367493,-79.9335219
876,Golf Links Road,L9K1M7,43.2261817,-79.9476290
876,Golf Links Road,L9K1M7,43.2261525,-79.9478059
15,Golf Links Road,L9K1M7,43.2260436,-79.9471948
14,Golf Links Road,L9K1M7,43.2261636,-79.9472332
13,Golf Links Road,L9K1M7,43.2262838,-79.9472680
"10,11,12",Golf Links Road,L9K1M7,43.2256486,-79.9476972
125,West 26th Street,L9C 4Z5,43.2376475,-79.9057552
1024,King Street West,L8S1L3,43.2619507,-79.9064429
1070,Main Street West,L8S 1B4,43.2585262,-79.9090500
988,King Street West,L8S 1L1,43.2626360,-79.9046726
79,Lynden Road,L0R 1T0,43.2340391,-80.1464452
2290,Highway 5,L0R 2B0,43.2609880,-80.1831332
777,King Street West,L8S 1K2,43.2620455,-79.8971519
159,Dundurn Street South,L8P 4K4,43.2580096,-79.8893377
159,Dundurn Street South,L8P 4K4,43.2578775,-79.8894806
411,Charlton Avenue West,L8P 4L3,43.2542024,-79.8911724
407,Charlton Avenue West,L8P 2E6,43.2540246,-79.8908542
20,20 Cottage Ave,L8P4G4,43.2491765,-79.8909897
432,Aberdeen Avenue,L8P 2S4,43.2513608,-79.8933493
35,Lynbrook Drive,L9C 2K6,43.2282869,-79.8943397
11,Kendale Court,L9C 2T7,43.2248984,-79.8983903
69,Herkimer Street,L8P 2C7,43.2495645,-79.8765460
99,Herkimer Street,L8P 2C7,43.2499847,-79.8781762
211,Locke Street South,L8P 4B6,43.2544573,-79.8857065
248,Locke Street South,L8P 4B9,43.2531323,-79.8868557
215,Locke Street South,L8P 4B6,43.2543640,-79.8858070
301,Main Street West,L8P 1J7,43.2580721,-79.8821395
117,East 5th Street,L9A 2Z5,43.2388495,-79.8725605
111,Brucedale Avenue East,L9A 1N5,43.2386223,-79.8727778
101,Catharine Street South,L8N 2J5,43.2519604,-79.8664254
75,MacNab Street South,L8P 3C1,43.2543704,-79.8714427
593,Limeridge Road East,L8W 1A2,43.2135034,-79.8586409
597,Limeridge Road East,L8W 1A2,43.2134693,-79.8585102
601,Limeridge Road East,L8W 1A2,43.2134310,-79.8583706
605,Limeridge Road East,L8W 1A2,43.2134006,-79.8582457
635,Limeridge Road East,L8W 1A2,43.2130237,-79.8568603
641,Limeridge Road East,L8W 1A2,43.2129917,-79.8566637
647,Limeridge Road East,L8W 1A2,43.2129226,-79.8564068
679,Limeridge Road East,L8W 1A4,43.2126518,-79.8551327
675,Limeridge Road East,L8W 1A4,43.2126396,-79.8553972
632,Limeridge Road East,L8W 1A1,43.2126570,-79.8574044
613,Limeridge Road East,L8W 1A2,43.2133080,-79.8578859
609,Limeridge Road East,L8W 1A2,43.2133530,-79.8580888
623,Limeridge Road East,L8W 1A2,43.2132138,-79.8575642
625,Limeridge Road East,L8W 1A2,43.2131785,-79.8574223
629,Limeridge Road East,L8W 1A2,43.2131572,-79.8572675
631,Limeridge Road East,L8W 1A2,43.2131093,-79.8571388
633,Limeridge Road East,L8W 1A2,43.2130740,-79.8569965
617,Limeridge Road East,L8W 1A2,43.2132669,-79.8577207
712,Limeridge Road East,L8W 1A3,43.2117458,-79.8536187
716,Limeridge Road East,L8W 1A3,43.2116952,-79.8534052
722,Limeridge Road East,L8W 1A3,43.2116477,-79.8531902
728,Limeridge Road East,L8W 1A3,43.2115941,-79.8529758
736,Limeridge Road East,L8W 1A3,43.2115266,-79.8526286
738,Limeridge Road East,L8W 1A3,43.2114967,-79.8525129
740,Limeridge Road East,L8W 1A3,43.2114755,-79.8523828
742,Limeridge Road East,L8W 1A3,43.2114486,-79.8522672
734,Limeridge Road East,L8W 1A3,43.2115463,-79.8527578
697,Limeridge Road East,L8W 1A4,43.2124464,-79.8542852
701,Limeridge Road East,L8W 1A4,43.2123757,-79.8541451
705,Limeridge Road East,L8W 1A4,43.2123333,-79.8538521
709,Limeridge Road East,L8W 1A4,43.2123075,-79.8536901
715,Limeridge Road East,L8W 1A4,43.2122376,-79.8534964
719,Limeridge Road East,L8W 1A4,43.2121899,-79.8532340
681,Limeridge Road East,L8W 1A4,43.2125959,-79.8549542
691,Limeridge Road East,L8W 1A4,43.2125162,-79.8545199
687,Limeridge Road East,L8W 1A4,43.2125465,-79.8548176
737,Limeridge Road East,L8W 1A4,43.2120170,-79.8525580
684,Limeridge Road East,L8W 1A3,43.2119239,-79.8544574
741,Limeridge Road East,L8W 1A4,43.2119223,-79.8522660
686,Limeridge Road East,L8W 1A3,43.2118991,-79.8543328
692,Limeridge Road East,L8W 1A3,43.2118426,-79.8540803
696,Limeridge Road East,L8W 1A3,43.2118221,-79.8539588
698,Limeridge Road East,L8W 1A3,43.2117875,-79.8538281
749,Limeridge Road East,L8W 1A4,43.2118733,-79.8519844
744,Limeridge Road East,L8W 1A3,43.2114201,-79.8521510
746,Limeridge Road East,L8W 1A3,43.2113947,-79.8520500
3,Spring Street,L8N 2N8,43.2534230,-79.8601848
7,East Avenue South,L8N 2T3,43.2525847,-79.8552935
537,King Street East,L8N 1E3,43.2527379,-79.8526961
325,Wellington Street North,L8L 0A4,43.2636703,-79.8558886
234,Catharine Street North,L8L 4S6,43.2620982,-79.8620356
236,Catharine Street North,L8L 4S6,43.2620837,-79.8616387
42,Mary Street,L8R 3M9,43.2563737,-79.8632378
765,Limeridge Road East,L8W 1A4,43.2116608,-79.8511875
763,Limeridge Road East,L8W 1A4,43.2117199,-79.8513751
759,Limeridge Road East,L8W 1A4,43.2117329,-79.8515304
755,Limeridge Road East,L8W 1A4,43.2118136,-79.8517413
775,Limeridge Road East,L8W 1A4,43.2114815,-79.8504566
777,Limeridge Road East,L8W 1A4,43.2114472,-79.8503187
781,Limeridge Road East,L8W 1A4,43.2114116,-79.8501640
771,Limeridge Road East,L8W 1A4,43.2115489,-79.8507417
773,Limeridge Road East,L8W 1A4,43.2115176,-79.8506015
785,Limeridge Road East,L8W 1A4,43.2113951,-79.8500289
789,Limeridge Road East,L8W 1A4,43.2113590,-79.8498679
793,Limeridge Road East,L8W 1A4,43.2113187,-79.8497154
770,Limeridge Road East,L8W 1A3,43.2111636,-79.8511266
760,Limeridge Road East,L8W 1A3,43.2113170,-79.8517018
797,Limeridge Road East,L8W 1A4,43.2112812,-79.8495532
801,Limeridge Road East,L8W 1A4,43.2112427,-79.8494017
764,Limeridge Road East,L8W 1A3,43.2112600,-79.8515225
768,Limeridge Road East,L8W 1A3,43.2112212,-79.8513261
756,Limeridge Road East,L8W 1A3,43.2113108,-79.8519091
767,Limeridge Road East,L8W 1A4,43.2116216,-79.8510394
769,Limeridge Road East,L8W 1A4,43.2115881,-79.8508944
772,Limeridge Road East,L8W 1A3,43.2111318,-79.8509792
831,Limeridge Road East,L8W 1A4,43.2109739,-79.8482842
835,Limeridge Road East,L8W 1A4,43.2109430,-79.8481280
841,Limeridge Road East,L8W 1A4,43.2109145,-79.8479052
847,Limeridge Road East,L8W 1A4,43.2107726,-79.8476377
43,East 25th Street,L8V2Z9,43.2379928,-79.8491872
286,Sanford Avenue North,L8L 6A1,43.2593224,-79.8425113
201,Wentworth Street North,L8L5V6,43.2581345,-79.8465724
166,Fernwood Crescent,L8T 3L4,43.2238555,-79.8310137
140,Fernwood Crescent,L8T 3L4,43.2250840,-79.8307081
142,Fernwood Crescent,L8T 3L4,43.2249494,-79.8306343
128,Fernwood Crescent,L8T 3L4,43.2254010,-79.8315013
132,Fernwood Crescent,L8T 3L4,43.2253737,-79.8313667
134,Fernwood Crescent,L8T 3L4,43.2253235,-79.8312133
136,Fernwood Crescent,L8T 3L4,43.2252809,-79.8310505
138,Fernwood Crescent,L8T 3L4,43.2251855,-79.8308655
146,Fernwood Crescent,L8T 3L4,43.2246414,-79.8306605
150,Fernwood Crescent,L8T 3L4,43.2245183,-79.8307228
144,Fernwood Crescent,L8T 3L4,43.2247934,-79.8306196
158,Fernwood Crescent,L8T 3L4,43.2242532,-79.8308302
160,Fernwood Crescent,L8T 3L4,43.2241298,-79.8308928
154,Fernwood Crescent,L8T 3L4,43.2243840,-79.8307938
162,Fernwood Crescent,L8T 3L4,43.2239960,-79.8309411
198,Fernwood Crescent,L8T 3L4,43.2226725,-79.8314995
200,Fernwood Crescent,L8T 3L4,43.2225510,-79.8315242
182,Fernwood Crescent,L8T 3L4,43.2232075,-79.8312643
186,Fernwood Crescent,L8T 3L4,43.2230693,-79.8313569
172,Fernwood Crescent,L8T 3L4,43.2235962,-79.8311203
176,Fernwood Crescent,L8T 3L4,43.2234614,-79.8311773
170,Fernwood Crescent,L8T 3L4,43.2237344,-79.8310402
178,Fernwood Crescent,L8T 3L4,43.2233425,-79.8312151
192,Fernwood Crescent,L8T 3L4,43.2229423,-79.8314043
194,Fernwood Crescent,L8T 3L4,43.2228130,-79.8314246
835,9th Avenue,L8T 2B2,43.2219278,-79.8313697
210,Fernwood Crescent,L8T 3L4,43.2221407,-79.8317032
204,Fernwood Crescent,L8T 3L4,43.2224089,-79.8316081
833,9th Avenue,L8T 2B2,43.2220277,-79.8317493
371,Upper Gage Avenue,L8V 4H8,43.2348925,-79.8357672
4 1/2,Glendale Avenue North,L8L 7J1,43.2457085,-79.8258010
16,Edgar Street,L8H 4C5,43.2496803,-79.8146631
12,Edgar Street,L8H 4C5,43.2495457,-79.8146868
41,Argyle Avenue,L8H 2S5,43.2504325,-79.8144478
145,Campbell Avenue,L8H 2G2,43.2492361,-79.8146958
10,Edgar Street,L8H 4C5,43.2494832,-79.8147204
39,Argyle Avenue,L8H 2S5,43.2504562,-79.8145332
22,Edgar Street,L8H 4C5,43.2498805,-79.8145835
143,Campbell Avenue,L8H 2G2,43.2492835,-79.8148004
14,Edgar Street,L8H 4C5,43.2496134,-79.8146631
18,Edgar Street,L8H 4C5,43.2497465,-79.8146368
139,Campbell Avenue,L8H 2G2,43.2492846,-79.8149010
147,Campbell Avenue,L8H 2G2,43.2492161,-79.8146194
40,Argyle Avenue,L8H 2S7,43.2501556,-79.8145430
20,Edgar Street,L8H 4C5,43.2498128,-79.8145818
42,Argyle Avenue,L8H 2S7,43.2501330,-79.8144437
1815,Barton Street East,L8H 5X9,43.2450065,-79.7864503
711,Queenston Road,L8G 1A1,43.2297743,-79.7709232
2825,King Street East,L8G 1J6,43.2204465,-79.7710154
2301,King Street East,L8K 1X6,43.2296292,-79.7957217
1770,Upper Sherman Avenue,L8N 3L1,43.1920177,-79.8667009
107,MacNab Street North,L8R 2L9,43.2608632,-79.8694524
2290,Highway 5,L0R 2B0,43.2610143,-80.1832337
2290,Highway 5,L0R 2B0,43.2609455,-80.1830590
335,East 37th Street,l8V 4B6,43.2254245,-79.8419977
120,Cole Street,L8B 0A1,43.3385308,-79.9086986
122,Cole Street,L8B 0A1,43.3385894,-79.9087541
124,Cole Street,L8B 0A1,43.3386223,-79.9087857
126,Cole Street,L8B 0A1,43.3386751,-79.9088434
128,Cole Street,L8B 0A1,43.3387119,-79.9088700
132,Cole Street,L8B 0A1,43.3388275,-79.9090190
134,Cole Street,L8B 0A1,43.3388735,-79.9090841
136,Cole Street,L8B 0A1,43.3389046,-79.9091277
138,Cole Street,L8B 0A1,43.3389492,-79.9091892
2,Hugill Way,L8B 0A1,43.3381471,-79.9086093
4,Hugill Way,L8B 0A1,43.3381677,-79.9085386
6,Hugill Way,L8B 0A1,43.3381904,-79.9084668
10,Hugill Way,L8B 0A1,43.3382262,-79.9083410
8,Hugill Way,L8B 0A1,43.3382059,-79.9084006
12,Hugill Way,L8B 0A1,43.3382425,-79.9082772
11,Savage Drive,L8B 0A1,43.3388219,-79.9085615
3,Savage Drive,L8B 0A1,43.3386622,-79.9083523
7,Savage Drive,L8B 0A1,43.3387494,-79.9084554
9,Savage Drive,L8B 0A1,43.3387881,-79.9085113
5,Savage Drive,L8B 0A1,43.3387132,-79.9084155
17,Savage Drive,L8B 0A1,43.3389602,-79.9087642
23,Savage Drive,L8B 0A1,43.3390590,-79.9089054
19,Savage Drive,L8B 0A1,43.3389852,-79.9088005
15,Savage Drive,L8B 0A1,43.3389102,-79.9086932
25,Savage Drive,L8B 0A1,43.3391067,-79.9089737
21,Savage Drive,L8B 0A1,43.3390342,-79.9088705
8,Hiscott Drive,L8B 0A2,43.3392951,-79.9076968
67,Hugill Way,L8B 0A3,43.3393307,-79.9075447
71,Hugill Way,L8B 0A3,43.3394079,-79.9076515
65,Hugill Way,L8B 0A3,43.3392927,-79.9074921
2,Hiscott Drive,L8B 0A2,43.3391815,-79.9075396
6,Hiscott Drive,L8B 0A2,43.3392575,-79.9076448
75,Hugill Way,L8B 0A3,43.3394917,-79.9077672
10,Hiscott Drive,L8B 0A2,43.3393347,-79.9077516
4,Hiscott Drive,L8B 0A2,43.3392195,-79.9075922
12,Hiscott Drive,L8B 0A2,43.3393768,-79.9078096
63,Hugill Way,L8B 0A3,43.3392547,-79.9074395
14,Hiscott Drive,L8B 0A2,43.3394185,-79.9078673
69,Hugill Way,L8B 0A3,43.3393684,-79.9075967
73,Hugill Way,L8B 0A3,43.3394500,-79.9077095
11,Hiscott Drive,L8B 0A2,43.3391371,-79.9081195
15,Hiscott Drive,L8B 0A2,43.3392157,-79.9082304
3,Hiscott Drive,L8B 0A2,43.3389751,-79.9078909
2,Savage Drive,L8B 0A2,43.3389026,-79.9079881
12,Savage Drive,L8B 0A2,43.3391048,-79.9082734
13,Hiscott Drive,L8B 0A2,43.3391774,-79.9081763
7,Hiscott Drive,L8B 0A2,43.3390579,-79.9080077
8,Savage Drive,L8B 0A2,43.3390239,-79.9081594
4,Savage Drive,L8B 0A2,43.3389456,-79.9080488
9,Hiscott Drive,L8B 0A2,43.3390965,-79.9080622
6,Savage Drive,L8B 0A2,43.3389854,-79.9081049
5,Hiscott Drive,L8B 0A2,43.3390182,-79.9079516
10,Savage Drive,L8B 0A2,43.3390646,-79.9082167
14,Savage Drive,L8B 0A2,43.3391432,-79.9083277
20,Hugill Way,L8B 0A2,43.3384219,-79.9080618
24,Hugill Way,L8B 0A2,43.3384925,-79.9079638
26,Hugill Way,L8B 0A2,43.3385315,-79.9079095
28,Hugill Way,L8B 0A2,43.3385705,-79.9078554
22,Hugill Way,L8B 0A2,43.3384570,-79.9080130
32,Hugill Way,L8B 0A2,43.3386875,-79.9076833
34,Hugill Way,L8B 0A2,43.3387485,-79.9076005
30,Hugill Way,L8B 0A2,43.3386301,-79.9077608
36,Hugill Way,L8B 0A2,43.3388055,-79.9075234
40,Hugill Way,L8B 0A2,43.3388959,-79.9073876
42,Hugill Way,L8B 0A2,43.3389382,-79.9072953
44,Hugill Way,L8B 0A2,43.3389862,-79.9071976
46,Hugill Way,L8B 0A2,43.3390294,-79.9071037
50,Hugill Way,L8B 0A2,43.3391185,-79.9069290
50,Hugill Way,L8B 0A2,43.3391779,-79.9068010
50,Hugill Way,L8B 0A2,43.3392076,-79.9067394
50,Hugill Way,L8B 0A2,43.3390866,-79.9069961
50,Hugill Way,L8B 0A2,43.3391470,-79.9068661
60,Hugill Way,L8B 0A2,43.3394644,-79.9070531
58,Hugill Way,L8B 0A2,43.3394229,-79.9069993
56,Hugill Way,L8B 0A2,43.3393863,-79.9069400
64,Hugill Way,L8B 0A2,43.3395424,-79.9071600
62,Hugill Way,L8B 0A2,43.3395043,-79.9071079
21,Hiscott Drive,L8B 0A3,43.3393522,-79.9084206
18,Hiscott Drive,L8B 0A3,43.3395118,-79.9079996
22,Savage Drive,L8B 0A3,43.3393186,-79.9085696
81,Hugill Way,L8B 0A3,43.3396231,-79.9079551
87,Hugill Way,L8B 0A3,43.3397404,-79.9081192
89,Hugill Way,L8B 0A3,43.3397790,-79.9081732
18,Savage Drive,L8B 0A3,43.3392430,-79.9084621
17,Hiscott Drive,L8B 0A3,43.3392752,-79.9083110
85,Hugill Way,L8B 0A3,43.3397013,-79.9080646
20,Hiscott Drive,L8B 0A3,43.3395504,-79.9080536
28,Hiscott Drive,L8B 0A3,43.3397064,-79.9082715
25,Hiscott Drive,L8B 0A3,43.3394325,-79.9085350
26,Savage Drive,L8B 0A3,43.3393988,-79.9086838
16,Savage Drive,L8B 0A3,43.3392037,-79.9084060
27,Hiscott Drive,L8B 0A3,43.3394703,-79.9085888
20,Savage Drive,L8B 0A3,43.3392807,-79.9085156
24,Savage Drive,L8B 0A3,43.3393610,-79.9086300
26,Hiscott Drive,L8B 0A3,43.3396678,-79.9082175
19,Hiscott Drive,L8B 0A3,43.3393146,-79.9083671
79,Hugill Way,L8B 0A3,43.3395845,-79.9079013
16,Hiscott Drive,L8B 0A3,43.3394710,-79.9079426
83,Hugill Way,L8B 0A3,43.3396610,-79.9080082
24,Hiscott Drive,L8B 0A3,43.3396286,-79.9081628
22,Hiscott Drive,L8B 0A3,43.3395883,-79.9081065
23,Hiscott Drive,L8B 0A3,43.3393901,-79.9084745
74,Hugill Way,L8B 0A3,43.3397526,-79.9074463
70,Hugill Way,L8B 0A3,43.3396688,-79.9073291
78,Hugill Way,L8B 0A3,43.3398297,-79.9075639
68,Hugill Way,L8B 0A3,43.3396345,-79.9072778
76,Hugill Way,L8B 0A3,43.3397912,-79.9075073
72,Hugill Way,L8B 0A3,43.3397173,-79.9073906
82,Hugill Way,L8B 0A3,43.3399182,-79.9076888
84,Hugill Way,L8B 0A3,43.3399564,-79.9077453
88,Hugill Way,L8B 0A3,43.3400360,-79.9078421
92,Hugill Way,L8B 0A3,43.3401086,-79.9079502
86,Hugill Way,L8B 0A3,43.3399997,-79.9078014
90,Hugill Way,L8B 0A3,43.3400702,-79.9078952
36,Fingland Crescent,L8B 0A4,43.3373355,-79.9121625
35,Fingland Crescent,L8B 0A4,43.3370407,-79.9125021
39,Fingland Crescent,L8B 0A4,43.3371037,-79.9126043
40,Fingland Crescent,L8B 0A4,43.3373993,-79.9122443
44,Fingland Crescent,L8B 0A4,43.3374737,-79.9123474
48,Fingland Crescent,L8B 0A4,43.3375394,-79.9124413
52,Fingland Crescent,L8B 0A4,43.3376054,-79.9125375
56,Fingland Crescent,L8B 0A4,43.3376782,-79.9126409
65,Fingland Crescent,L8B 0A4,43.3372806,-79.9127415
67,Fingland Crescent,L8B 0A4,43.3372156,-79.9128158
71,Fingland Crescent,L8B 0A4,43.3371115,-79.9129264
69,Fingland Crescent,L8B 0A4,43.3371702,-79.9128625
73,Fingland Crescent,L8B 0A4,43.3370678,-79.9129775
75,Fingland Crescent,L8B 0A4,43.3370041,-79.9130510
80,Fingland Crescent,L8B 0A4,43.3368975,-79.9135314
84,Fingland Crescent,L8B 0A4,43.3368252,-79.9134392
88,Fingland Crescent,L8B 0A4,43.3367599,-79.9133438
92,Fingland Crescent,L8B 0A4,43.3366955,-79.9132392
93,Fingland Crescent,L8B 0A4,43.3369080,-79.9128137
96,Fingland Crescent,L8B 0A4,43.3366263,-79.9131587
97,Fingland Crescent,L8B 0A4,43.3368435,-79.9127127
67,McMonies Drive,L8B 0A5,43.3503152,-79.8835160
69,McMonies Drive,L8B 0A5,43.3503635,-79.8835843
71,McMonies Drive,L8B 0A5,43.3504068,-79.8836366
73,McMonies Drive,L8B 0A5,43.3504431,-79.8836946
75,McMonies Drive,L8B 0A5,43.3504882,-79.8837608
77,McMonies Drive,L8B 0A5,43.3505266,-79.8838250
163,McMonies Drive,L8B 0A5,43.3504010,-79.8839915
161,McMonies Drive,L8B 0A5,43.3503583,-79.8840500
159,McMonies Drive,L8B 0A5,43.3503176,-79.8840913
98,McMonies Drive,L8B 0A6,43.3509911,-79.8844445
100,McMonies Drive,L8B 0A6,43.3509459,-79.8845010
103,McMonies Drive,L8B 0A6,43.3511489,-79.8849814
105,McMonies Drive,L8B 0A6,43.3511034,-79.8850459
101,McMonies Drive,L8B 0A6,43.3511745,-79.8849005
104,McMonies Drive,L8B 0A6,43.3508420,-79.8846499
106,McMonies Drive,L8B 0A6,43.3508073,-79.8847060
109,McMonies Drive,L8B 0A6,43.3510069,-79.8851686
115,McMonies Drive,L8B 0A6,43.3508784,-79.8853443
111,McMonies Drive,L8B 0A6,43.3509640,-79.8852333
113,McMonies Drive,L8B 0A6,43.3509225,-79.8853010
121,McMonies Drive,L8B 0A6,43.3506790,-79.8855210
123,McMonies Drive,L8B 0A6,43.3506111,-79.8855237
125,McMonies Drive,L8B 0A6,43.3504684,-79.8854695
129,McMonies Drive,L8B 0A6,43.3503780,-79.8853505
127,McMonies Drive,L8B 0A6,43.3504218,-79.8854129
128,McMonies Drive,L8B 0A6,43.3506699,-79.8849756
130,McMonies Drive,L8B 0A6,43.3506278,-79.8849218
135,McMonies Drive,L8B 0A6,43.3502399,-79.8851526
133,McMonies Drive,L8B 0A6,43.3502848,-79.8852087
137,McMonies Drive,L8B 0A6,43.3502002,-79.8850951
136,McMonies Drive,L8B 0A6,43.3504757,-79.8847120
134,McMonies Drive,L8B 0A6,43.3505219,-79.8847845
143,McMonies Drive,L8B 0A6,43.3500581,-79.8848163
141,McMonies Drive,L8B 0A6,43.3500681,-79.8848970
149,McMonies Drive,L8B 0A6,43.3501111,-79.8844576
151,McMonies Drive,L8B 0A6,43.3501379,-79.8843930
147,McMonies Drive,L8B 0A6,43.3500770,-79.8845434
157,McMonies Drive,L8B 0A6,43.3502763,-79.8841551
160,McMonies Drive,L8B 0A6,43.3506142,-79.8844448
164,McMonies Drive,L8B 0A6,43.3507020,-79.8843377
166,McMonies Drive,L8B 0A6,43.3507458,-79.8842845
168,McMonies Drive,L8B 0A6,43.3507890,-79.8842256
158,McMonies Drive,L8B 0A6,43.3505643,-79.8845125
162,McMonies Drive,L8B 0A6,43.3506661,-79.8843964
1,Aspen Court,L8B 0A7,43.3404214,-79.8852051
5,Aspen Court,L8B 0A7,43.3403123,-79.8852803
9,Aspen Court,L8B 0A7,43.3402036,-79.8853521
15,Aspen Court,L8B 0A7,43.3399999,-79.8855478
19,Aspen Court,L8B 0A7,43.3399117,-79.8856579
695,Queenston Road,L8G 1A1,43.2303570,-79.7719311
697,Queenston Road,L8G 1A1,43.2304321,-79.7721258
690,Limeridge Road East,L8W 1A3,43.2118721,-79.8542033
710,Limeridge Road East,L8W 1A3,43.2117822,-79.8536913
714,Limeridge Road East,L8W 1A3,43.2117317,-79.8534782
720,Limeridge Road East,L8W 1A3,43.2116696,-79.8532804
726,Limeridge Road East,L8W 1A3,43.2116308,-79.8530475
732,Limeridge Road East,L8W 1A3,43.2115682,-79.8528471
721,Limeridge Road East,L8W 1A4,43.2121729,-79.8531031
725,Limeridge Road East,L8W 1A4,43.2121436,-79.8529863
747,Limeridge Road East,L8W 1A4,43.2118942,-79.8520777
77,Leland Street,L8S 3A1,43.2554315,-79.9228082
20,George Street,L8P 0C4,43.2577711,-79.8754464
79,Bay Street North,L8R 3P8,43.2607083,-79.8732035
59,King Street East,L8N 1A5,43.2564115,-79.8671725
1711,Main Street West,L8S 1G5,43.2569547,-79.9351117
625,Harvest Road,L9H 6A7,43.2816694,-79.9839872
2633,Upper James Street,L0R 1W0,43.1706724,-79.9052301
212,King William Street,L8R 3P2,43.2550461,-79.8606931
15,Queen Street North,L8P 3R4,43.2589730,-79.8784898
89,Osler Drive,L9H 6X4,43.2598262,-79.9437655
18,Augusta Street,L8N 1P6,43.2518339,-79.8704795
1270,Rymal Road East,L8W 0C6,43.1881817,-79.8366497
1260,Rymal Road East,L8W 0C6,43.1882304,-79.8368801
49,Walnut Street South,L8N 2K9,43.2535036,-79.8634354
1294,Highway 6,L8N 2Z7,43.3652488,-79.9894872
159,Dundurn Street South,L8P 4K4,43.2578092,-79.8892979
876,Golf Links Road,L9K1M7,43.2260962,-79.9479305
9,Golf Links Road,L9K1M7,43.2256732,-79.9474748
165,James Street South,L8P 3A2,43.2517203,-79.8709084
970,Upper Wentworth Street,L9A 4V8,43.2181848,-79.8666640
3120,Regional Road 56,L0R 1C0,43.1177720,-79.8061851
1479,Baseline Road,L8E 5G4,43.2216090,-79.6244934
690,Strathearne Avenue North,L8H 7N8,43.2629294,-79.7861561
1144,Cooper Road,L0R1X0,43.3230731,-80.1763746
44,Argyle Avenue,L8H 2S7,43.2500859,-79.8143747
46,Argyle Avenue,L8H 2S7,43.2500617,-79.8142967
15,Fraser Avenue,L8H 4G6,43.2491038,-79.8143098
17,Fraser Avenue,L8H 4G6,43.2491739,-79.8143374
19,Fraser Avenue,L8H 4G6,43.2492420,-79.8143096
21,Fraser Avenue,L8H 4G6,43.2493133,-79.8142951
23,Fraser Avenue,L8H 4G6,43.2493685,-79.8142430
25,Fraser Avenue,L8H 4G6,43.2494517,-79.8142637
27,Fraser Avenue,L8H 4G6,43.2495134,-79.8141806
29,Fraser Avenue,L8H 4G6,43.2495679,-79.8141430
33,Fraser Avenue,L8H 4G6,43.2496300,-79.8141244
39,Fraser Avenue,L8H 4G6,43.2498364,-79.8140391
41,Fraser Avenue,L8H 4G6,43.2498952,-79.8140188
43,Fraser Avenue,L8H 4G6,43.2499434,-79.8140010
45,Fraser Avenue,L8H 4G6,43.2499940,-79.8139805
47,Fraser Avenue,L8H 4G6,43.2500424,-79.8139611
47,Argyle Avenue,L8H 2S5,43.2503320,-79.8141301
5,McCartney Street,l8b0t7,43.3388207,-79.8784624
11,McCartney Street,l8b0t7,43.3387108,-79.8783597
17,McCartney Street,l8b0t7,43.3386080,-79.8782790
21,McCartney Street,l8b0t7,43.3385069,-79.8781863
700,Main Street West,L8S 1A5,43.2599619,-79.9010511
329,Parkside Drive,L0R 2H0,43.3423204,-79.9006624
125,Redfern Avenue,L9C 7W9,43.2401450,-79.9201494
536,Upper Paradise Road,L9C 5E3,43.2311232,-79.9133934
41,South Street West,L9H 4C4,43.2595139,-79.9492694
701,Upper Sherman Avenue,L8V 3M7,43.2255207,-79.8483517
90,Chedmac Drive,L9C 7S6,43.2371638,-79.9213234
