House number,Street name,Postal code,Latitude,Longitude
38,Clarence Street,K7L 1W9,44.2292189,-76.4812488
285,King Street East,K7I 3B1,44.2292872,-76.4819118
1177,John Counter Boulevard,K7K 6C7,44.2598381,-76.5066058
400,Princess Street,K7L 1B8,44.2330246,-76.4923745
414,Princess Street,K7L 1B8,44.2330872,-76.4925473
399 1/2,Princess Street,K7L 1B9,44.2332964,-76.4922384
18,Market Street,K7L 1W8,44.2296082,-76.4811588
136,Princess Street,K7L 1A7,44.2316436,-76.4839723
312,Princess Street,K7L 1B6,44.2325134,-76.4892390
46,Montreal Street,K7K 3E6,44.2326742,-76.4855188
4039,Bath Road,K7M 4Y5,44.2419764,-76.6092188
1683,Bath Road,K7M 4X2,44.2366303,-76.5698742
655,Development Drive,K7M 4W6,44.2409638,-76.5683076
68,Princess Street,K7L 1A5,44.2311007,-76.4815269
1300,Bath Road,K7M 2E9,44.2393497,-76.5479720
318,King Street East,K7L 2Z3,44.2300884,-76.4817072
251,Princess Street,K7L 1B4,44.2324621,-76.4874016
1600,Bath Road,K7M 4X7,44.2389100,-76.5625043
636,Gardiners Road,K7M 3X9,44.2450728,-76.5634717
830,Norwest Road,K7P 2N4,44.2580000,-76.5760082
507,Princess Street,K7L 1C6,44.2352810,-76.4965507
795,Gardiners Road,K7M 7E6,44.2510097,-76.5690091
1300,Bath Road,K7M 4X4,44.2392230,-76.5451515
1096,Princess Street,K7L 1H2,44.2428094,-76.5161641
1046,Princess Street,K7L 1H2,44.2427340,-76.5159843
616,Gardiners Road,K7M 3X9,44.2431784,-76.5643181
488,Gardiners Road,K7M 7W9,44.2360115,-76.5663609
1300,Bath Road,K7M 4X4,44.2392184,-76.5456369
1201,Division Street,K7K 6X4,44.2654823,-76.4966434
1201,Division Street,K7K 6X4,44.2657733,-76.4965943
630,Fortune Crescent,K7P 2T3,44.2713476,-76.5681123
349,Wellington Street,K7K 6N7,44.2361211,-76.4792921
1699,Trident Yacht Club Lane,K7G 2V5,44.3052197,-76.2593908
62,Princess Street,K7L 1A5,44.2312435,-76.4811408
93,Princess Street,K7L 1A6,44.2316523,-76.4821737
770,Gardiners Road,K7M 3X9,44.2485872,-76.5665302
759,Progress Avenue,K7M 6N6,44.2468470,-76.5755688
193,Ontario Street,K7L 2Y7,44.2290007,-76.4806674
279,Wellington Street,K7K 6E1,44.2343976,-76.4810800
1011,Princess Street,K7L 1H3,44.2434378,-76.5145475
4000,Bath Road,K7M 4Y4,44.2407614,-76.6024008
1650,Bath Road,K7M 4X6,44.2375508,-76.5668149
244,McMahon Avenue,K7M 3H2,44.2497240,-76.5224524
523,Princess Street,K7L 1C6,44.2352052,-76.4969301
300,King Street East,K7I 3B4,44.2298875,-76.4818587
100,Princess Street,K7L 1A7,44.2315026,-76.4827420
78,Princess Street,K7L 1A5,44.2313294,-76.4817503
1677,Bath Road,K7M 4X2,44.2366435,-76.5693178
1530,Bath Road,K7M 4X6,44.2372092,-76.5591771
1286,Highway 15,A2V 0B8,44.2726778,-76.4473768
1283,Highway 15,A2V 0B8,44.2727192,-76.4468570
1281,Highway 15,B0P 1R0,44.2725135,-76.4470884
1292,Highway 15,B0P 1R0,44.2728835,-76.4471454
33,McFadden Lane,K7L 5H6,44.2987504,-76.2945220
34,McFadden Lane,K7L 5H6,44.2987506,-76.2947657
165,Ontario Street,K7L 2Y6,44.2278236,-76.4815833
320,Princess Street,K7L 1A5,44.2325623,-76.4895034
528,Princess Street,K7L 1C5,44.2349865,-76.4971833
1478,Unity Road,K0H 1S0,44.3204759,-76.5015387
139,Drennan Street,K7K 2S7,44.2608930,-76.4879843
336,Barrie Street,K7K 3T1,44.2334317,-76.4907331
344,Princess Street,K7L 1B6,44.2326472,-76.4900558
105,Clergy Street East,K7L 3J4,44.2320799,-76.4889380
660,Arlington Park Place,K7M 9A5,44.2495300,-76.5700117
331,Bath Road,K7M2X6,44.2401925,-76.5276336
1300,Bath Road,K7M 4X4,44.2393635,-76.5473662
427,Princess Street,K7L 5S9,44.2336111,-76.4928338
214,Wellington Street,K7K 2Y5,44.2322355,-76.4823394
12,Cataraqui Street,K7K 1Z7,44.2416845,-76.4828265
844A,Princess Street,K7L 1G5,44.2398986,-76.5089875
400,Bath Road,K7M 2Y3,44.2377942,-76.5370527
1224,Highway 15,K7L 0C4,44.2697209,-76.4510887
791,Princess Street,K7L 1E9,44.2394586,-76.5066540
800,Princess Street,K7L 5E4,44.2390642,-76.5072782
863,Princess Street,K7L 5N4,44.2406283,-76.5095698
849,Princess Street,K7L 1G7,44.2402177,-76.5090787
277,Bath Road,K7M 2X6,44.2404505,-76.5247202
620,Cataraqui Woods Drive,K7P 1T8,44.2674335,-76.5667987
200,Ontario Street,K7L 2Y9,44.2293374,-76.4807466
30,Montreal Street,K7L 3G6,44.2324621,-76.4855770
1391,Waterside Way,K7K 0E9,44.2756674,-76.4469648
1395,Waterside Way,K7K 0E9,44.2756965,-76.4465934
1708,Reginald Bart Drive,K7K 0E8,44.2750267,-76.4485407
1351,Waterside Way,K7K 0E7,44.2743999,-76.4502799
1353,Waterside Way,K7K 0E7,44.2744090,-76.4501562
1374,Waterside Way,K7K 0G2,44.2759297,-76.4485988
1378,Waterside Way,K7K 0G2,44.2759522,-76.4482988
1380,Waterside Way,K7K 0G2,44.2759639,-76.4481612
1388,Waterside Way,K7K 0E9,44.2760231,-76.4476265
1393,Waterside Way,K7K 0E9,44.2756829,-76.4467710
1704,Reginald Bart Drive,K7K 0E7,44.2749352,-76.4488264
700,Newmarket Lane,K7K 0C8,44.2600476,-76.4792634
702,Newmarket Lane,K7K 0C8,44.2599803,-76.4793272
704,Newmarket Lane,K7K 0C8,44.2598962,-76.4793813
706,Newmarket Lane,K7K 0C8,44.2597937,-76.4792597
710,Newmarket Lane,K7K 0C8,44.2597132,-76.4792211
712,Newmarket Lane,K7K 0C8,44.2596388,-76.4792307
714,Newmarket Lane,K7K 0C8,44.2596214,-76.4792389
716,Newmarket Lane,K7K 0C8,44.2595302,-76.4792641
718,Newmarket Lane,K7K 0C8,44.2595026,-76.4792647
720,Newmarket Lane,K7K 0C8,44.2593782,-76.4793200
722,Newmarket Lane,K7K 0C8,44.2593408,-76.4793356
724,Newmarket Lane,K7K 0C8,44.2592564,-76.4793675
726,Newmarket Lane,K7K 0C8,44.2591967,-76.4793924
728,Newmarket Lane,K7K 0C8,44.2591370,-76.4794033
736,Newmarket Lane,K7K 0C8,44.2587794,-76.4795504
738,Newmarket Lane,K7K 0C8,44.2587297,-76.4795593
740,Newmarket Lane,K7K 0C8,44.2586655,-76.4795720
742,Newmarket Lane,K7K 0C8,44.2586071,-76.4795880
744,Newmarket Lane,K7K 0C8,44.2585296,-76.4796159
746,Newmarket Lane,K7K 0C8,44.2584895,-76.4796294
748,Newmarket Lane,K7K 0C8,44.2584588,-76.4796515
752,Newmarket Lane,K7K 0C8,44.2578194,-76.4800327
754,Newmarket Lane,K7K 0C8,44.2578141,-76.4800779
756,Newmarket Lane,K7K 0C8,44.2578078,-76.4801376
758,Newmarket Lane,K7K 0C8,44.2578044,-76.4802233
760,Newmarket Lane,K7K 0C8,44.2578026,-76.4802786
762,Newmarket Lane,K7K 0C8,44.2578039,-76.4803470
764,Newmarket Lane,K7K 0C8,44.2577904,-76.4804209
766,Newmarket Lane,K7K 0C8,44.2577864,-76.4804957
768,Newmarket Lane,K7K 0C8,44.2577839,-76.4805825
770,Newmarket Lane,K7K 0C8,44.2577793,-76.4806435
772,Newmarket Lane,K7K 0C8,44.2577820,-76.4807042
774,Newmarket Lane,K7K 0C8,44.2577796,-76.4807853
776,Newmarket Lane,K7K 0C8,44.2577754,-76.4808699
778,Newmarket Lane,K7K 0C8,44.2577298,-76.4811658
779,Newmarket Lane,K7K 0C8,44.2579847,-76.4812167
780,Newmarket Lane,K7K 0C8,44.2577607,-76.4813146
781,Newmarket Lane,K7K 0C8,44.2579862,-76.4812855
782,Newmarket Lane,K7K 0C8,44.2577674,-76.4814052
783,Newmarket Lane,K7K 0C8,44.2579827,-76.4813601
784,Newmarket Lane,K7K 0C8,44.2577638,-76.4814650
785,Newmarket Lane,K7K 0C8,44.2579795,-76.4814512
786,Newmarket Lane,K7K 0C8,44.2577672,-76.4815510
787,Newmarket Lane,K7K 0C8,44.2579729,-76.4815228
788,Newmarket Lane,K7K 0C8,44.2577691,-76.4815980
789,Newmarket Lane,K7K 0C8,44.2579769,-76.4815999
790,Newmarket Lane,K7K 0C8,44.2577670,-76.4816771
791,Newmarket Lane,K7K 0C8,44.2579772,-76.4816623
792,Newmarket Lane,K7K 0C8,44.2577673,-76.4817531
793,Newmarket Lane,K7K 0C8,44.2579694,-76.4817433
794,Newmarket Lane,K7K 0C8,44.2577683,-76.4818737
796,Newmarket Lane,K7K 0C8,44.2577683,-76.4819455
798,Newmarket Lane,K7K 0C8,44.2577615,-76.4820158
800,Newmarket Lane,K7K 0C8,44.2577609,-76.4820895
802,Newmarket Lane,K7K 0C8,44.2577515,-76.4821762
804,Newmarket Lane,K7K 0C8,44.2577989,-76.4822730
806,Newmarket Lane,K7K 0C8,44.2578135,-76.4823036
808,Newmarket Lane,K7K 0C8,44.2578158,-76.4823590
837,Newmarket Lane,K7K 0C8,44.2584803,-76.4813820
839,Newmarket Lane,K7K 0C8,44.2585050,-76.4813250
841,Newmarket Lane,K7K 0C8,44.2585329,-76.4812796
843,Newmarket Lane,K7K 0C8,44.2585523,-76.4812180
845,Newmarket Lane,K7K 0C8,44.2585756,-76.4811707
847,Newmarket Lane,K7K 0C8,44.2586008,-76.4811096
849,Newmarket Lane,K7K 0C8,44.2586370,-76.4810468
851,Newmarket Lane,K7K 0C8,44.2586695,-76.4809745
853,Newmarket Lane,K7K 0C8,44.2587022,-76.4808924
857,Newmarket Lane,K7K 0C8,44.2587650,-76.4807620
859,Newmarket Lane,K7K 0C8,44.2587969,-76.4806936
861,Newmarket Lane,K7K 0C8,44.2588297,-76.4806294
863,Newmarket Lane,K7K 0C8,44.2588577,-76.4805803
865,Newmarket Lane,K7K 0C8,44.2588880,-76.4805215
867,Newmarket Lane,K7K 0C8,44.2589244,-76.4804673
869,Newmarket Lane,K7K 0C8,44.2589831,-76.4803975
871,Newmarket Lane,K7K 0C8,44.2590179,-76.4803379
873,Newmarket Lane,K7K 0C8,44.2590617,-76.4803010
875,Newmarket Lane,K7K 0C8,44.2590895,-76.4802358
877,Newmarket Lane,K7K 0C8,44.2591359,-76.4802004
879,Newmarket Lane,K7K 0C8,44.2591713,-76.4801570
880,Ascot Lane,K7K 0C8,44.2582631,-76.4811755
881,Newmarket Lane,K7K 0C8,44.2592057,-76.4800980
882,Ascot Lane,K7K 0C8,44.2583056,-76.4811015
883,Newmarket Lane,K7K 0C8,44.2592298,-76.4800618
884,Ascot Lane,K7K 0C8,44.2583486,-76.4810065
886,Ascot Lane,K7K 0C8,44.2583743,-76.4809609
888,Ascot Lane,K7K 0C8,44.2584008,-76.4808829
890,Ascot Lane,K7K 0C8,44.2584395,-76.4808101
892,Ascot Lane,K7K 0C8,44.2584685,-76.4807658
893,Ascot Lane,K7K 0C8,44.2582412,-76.4804823
894,Ascot Lane,K7K 0C8,44.2584951,-76.4807060
895,Ascot Lane,K7K 0C8,44.2582588,-76.4804322
896,Ascot Lane,K7K 0C8,44.2585438,-76.4806123
897,Ascot Lane,K7K 0C8,44.2582907,-76.4803698
898,Ascot Lane,K7K 0C8,44.2585704,-76.4805553
899,Ascot Lane,K7K 0C8,44.2583200,-76.4803310
900,Ascot Lane,K7K 0C8,44.2585898,-76.4804884
902,Ascot Lane,K7K 0C8,44.2586216,-76.4804350
904,Ascot Lane,K7K 0C8,44.2586557,-76.4803899
906,Ascot Lane,K7K 0C8,44.2586676,-76.4803542
908,Ascot Lane,K7K 0C8,44.2587018,-76.4802948
101,Aldergrove Place,K7M 0C8,44.2617436,-76.5376691
105,Aldergrove Place,K7M 0C8,44.2616756,-76.5374961
109,Aldergrove Place,K7M 0C8,44.2616274,-76.5373516
113,Aldergrove Place,K7M 0C8,44.2616095,-76.5371834
117,Aldergrove Place,K7M 0C8,44.2616271,-76.5369987
121,Aldergrove Place,K7M 0C8,44.2617166,-76.5368752
125,Aldergrove Place,K7M 0C8,44.2618308,-76.5367908
129,Aldergrove Place,K7M 0C8,44.2619491,-76.5367695
130,Aldergrove Place,K7M 0C8,44.2620524,-76.5373033
133,Aldergrove Place,K7M 0C8,44.2620623,-76.5367549
134,Aldergrove Place,K7M 0C8,44.2621688,-76.5372399
137,Aldergrove Place,K7M 0C8,44.2621635,-76.5366982
138,Aldergrove Place,K7M 0C8,44.2622798,-76.5372009
141,Aldergrove Place,K7M 0C8,44.2622438,-76.5365151
142,Aldergrove Place,K7M 0C8,44.2623809,-76.5371511
145,Aldergrove Place,K7M 0C8,44.2623455,-76.5364199
146,Aldergrove Place,K7M 0C8,44.2625115,-76.5371475
149,Aldergrove Place,K7M 0C8,44.2625116,-76.5363962
150,Aldergrove Place,K7M 0C8,44.2626564,-76.5370185
153,Aldergrove Place,K7M 0C8,44.2626578,-76.5365398
154,Aldergrove Place,K7M 0C8,44.2627146,-76.5367999
200,Mill Pond Place,K7M 0C9,44.2634525,-76.5368261
201,Mill Pond Place,K7M 0C9,44.2630959,-76.5370125
204,Mill Pond Place,K7M 0C9,44.2634023,-76.5366361
205,Mill Pond Place,K7M 0C9,44.2630458,-76.5368155
208,Mill Pond Place,K7M 0C9,44.2633691,-76.5364955
209,Mill Pond Place,K7M 0C9,44.2629954,-76.5366465
212,Mill Pond Place,K7M 0C9,44.2633360,-76.5363408
213,Mill Pond Place,K7M 0C9,44.2629356,-76.5364213
216,Mill Pond Place,K7M 0C9,44.2633029,-76.5361827
217,Mill Pond Place,K7M 0C9,44.2628877,-76.5362488
220,Mill Pond Place,K7M 0C9,44.2632798,-76.5360389
221,Mill Pond Place,K7M 0C9,44.2628471,-76.5360975
224,Mill Pond Place,K7M 0C9,44.2632393,-76.5358736
228,Mill Pond Place,K7M 0C9,44.2632012,-76.5357188
232,Mill Pond Place,K7M 0C9,44.2631482,-76.5355497
236,Mill Pond Place,K7M 0C9,44.2630153,-76.5353541
240,Mill Pond Place,K7M 0C9,44.2629008,-76.5352777
244,Mill Pond Place,K7M 0C9,44.2627730,-76.5352569
245,Mill Pond Place,K7M 0C9,44.2627983,-76.5358062
248,Mill Pond Place,K7M 0C9,44.2626550,-76.5352573
249,Mill Pond Place,K7M 0C9,44.2626517,-76.5358722
252,Mill Pond Place,K7M 0C9,44.2625249,-76.5352155
253,Mill Pond Place,K7M 0C9,44.2625197,-76.5359771
256,Mill Pond Place,K7M 0C9,44.2623795,-76.5352012
257,Mill Pond Place,K7M 0C9,44.2623365,-76.5359689
260,Mill Pond Place,K7M 0C9,44.2622526,-76.5353028
261,Mill Pond Place,K7M 0C9,44.2622128,-76.5358363
264,Mill Pond Place,K7M 0C9,44.2621849,-76.5354827
265,Mill Pond Place,K7M 0C9,44.2621750,-76.5356572
106,Schooner Dr,K7K 0E8,44.2744439,-76.4483695
108,Schooner Dr,K7K 0E8,44.2745790,-76.4484158
1335,Waterside Way,K7K 0E7,44.2742557,-76.4515511
1358,Waterside Way,K7K 0G2,44.2752303,-76.4497071
1360,Waterside Way,K7K 0G2,44.2753447,-76.4495921
1362,Waterside Way,K7K 0G2,44.2754559,-76.4495051
1363,Waterside Way,K7K 0G2,44.2751745,-76.4490232
1365,Waterside Way,K7K 0G2,44.2752654,-76.4489544
1367,Waterside Way,K7K 0G2,44.2753687,-76.4488578
1369,Waterside Way,K7K 0G2,44.2754511,-76.4487233
1398,Waterside Way,K7K 0E9,44.2760655,-76.4467750
1400,Waterside Way,K7K 0E9,44.2760785,-76.4465995
1402,Waterside Way,K7K 0E9,44.2760782,-76.4464088
1404,Waterside Way,K7K 0E9,44.2760430,-76.4462191
1406,Waterside Way,K7K 0E9,44.2759564,-76.4460617
1408,Waterside Way,K7K 0E9,44.2758642,-76.4459117
1707,Reginald Bart Dr,K7K 0E7,44.2745412,-76.4490656
1709,Reginald Bart Dr,K7K 0E7,44.2745432,-76.4489067
1711,Reginald Bart Dr,K7K 0E7,44.2745505,-76.4487573
1715,Reginald Bart Dr,K7K 0E8,44.2748234,-76.4480048
1717,Reginald Bart Dr,K7K 0E8,44.2748684,-76.4478414
1719,Reginald Bart Dr,K7K 0E8,44.2748874,-76.4477203
1721,Reginald Bart Dr,K7K 0E8,44.2749025,-76.4475935
1723,Reginald Bart Dr,K7K 0E8,44.2749108,-76.4474666
1725,Reginald Bart Dr,K7K 0E8,44.2749244,-76.4473472
1727,Reginald Bart Dr,K7K 0E8,44.2749356,-76.4472091
200,Clipper Crt,K7K 0E8,44.2745319,-76.4478967
202,Clipper Crt,K7K 0E8,44.2745420,-76.4477342
204,Clipper Crt,K7K 0E8,44.2745518,-76.4475980
206,Clipper Crt,K7K 0E8,44.2745644,-76.4474487
208,Clipper Crt,K7K 0E8,44.2745772,-76.4472863
210,Clipper Crt,K7K 0E8,44.2745941,-76.4471185
212,Clipper Crt,K7K 0E8,44.2746109,-76.4469618
214,Clipper Crt,K7K 0E8,44.2746249,-76.4468126
216,Clipper Crt,K7K 0E8,44.2746401,-76.4466689
218,Clipper Crt,K7K 0E8,44.2746542,-76.4465141
636,Gardiners Road,K7M 3X9,44.2451524,-76.5637860
195,Ontario Street,K7L 2Y7,44.2289200,-76.4807298
477,Princess Street,K7L 1C3,44.2344648,-76.4950974
476,Cataraqui Woods Drive,K7P 0J4,44.2696504,-76.5580150
400,Bath Road,K7M 2Y3,44.2377462,-76.5372630
112,Princess Street,K7L 1A7,44.2316012,-76.4834849
626,Cataraqui Woods Drive,K7P 1T8,44.2682133,-76.5667567
397,Princess Street,K7L 1B9,44.2332723,-76.4920773
501,Princess Street,K7L 1C3,44.2348690,-76.4961357
503,Princess Street,K7L 1C3,44.2348956,-76.4962184
214,Princess Street,K7L 1B2,44.2320466,-76.4861641
789,Princess Street,K7L 1E9,44.2392745,-76.5068193
1412,Princess Street,K7M 3E5,44.2499121,-76.5313019
277,Bath Road,K7M 2X6,44.2404145,-76.5252680
277,Bath Road,K7M 2X6,44.2404582,-76.5245911
1693,Bath Road,K7M 4X1,44.2369149,-76.5704381
14 - 1338,Princess Street,K7M 7N9,44.2473061,-76.5285940
780,Division Street,K7K 5S9,44.2526048,-76.4976538
1414,Audrey Street,K7L 4V4,44.2832796,-76.5370063
20,Helen Street,K7L 4N9,44.2317847,-76.5113094
1414,Audrey Street,K7L 4V4,44.2834349,-76.5370106
1338,Princess Street,K7M 7N9,44.2485741,-76.5279880
105,Sutherland Drive,K7K 5V6,44.2687159,-76.4801379
647,Princess Street,K7L 1E4,44.2376701,-76.5029454
206,Concession Street,K7K 2B5,44.2411512,-76.5065314
1300,Bath Road,K7M 4X4,44.2393795,-76.5465857
73,Brock Street,K7L 1R8,44.2307250,-76.4822220
101,Princess Street,K7K 2Y6,44.2317320,-76.4825546
1200,Highway 15,K7K 7J8,44.2704312,-76.4511368
1200,Highway 15,K7K 7J8,44.2689754,-76.4519414
1200,Highway 15,K7K 7J8,44.2690407,-76.4517644
1200,Highway 15,K7K 7J8,44.2700880,-76.4516164
1200,Highway 15,K7K 7J8,44.2701316,-76.4515177
1200,Highway 15,K7K 7J8,44.2698246,-76.4520879
1200,Highway 15,K7K 7J8,44.2697179,-76.4522113
1200,Highway 15,K7K 7J8,44.2696553,-76.4522914
1200,Highway 15,K7K 7J8,44.2694440,-76.4525476
1200,Highway 15,K7K 7J8,44.2695785,-76.4523867
686,Princess Street,K7L 1E7,44.2378174,-76.5040603
768,Gardiners Road,K7M 3X9,44.2491986,-76.5677163
690,Gardiners Road,K7M 3X9,44.2479893,-76.5665224
636,Gardiners Road,K7M 3X9,44.2453796,-76.5648756
616,Gardiners Road,K7M 9B8,44.2431833,-76.5639867
1668,Bath Road,K7M 4X9,44.2377176,-76.5691367
75,Queen Street,K7K 2Y5,44.2326501,-76.4824322
29,Warne Crescent,K7K 5A6,44.2669794,-76.5000515
606,Gardiners Road,K7M 4X2,44.2431154,-76.5659374
1036,Princess Street,K7L 1H2,44.2422688,-76.5157421
797,Princess Street,K7L 1G1,44.2394719,-76.5072293
162,Division Street,K7L 3M6,44.2327830,-76.4930694
1162,Division Street,K7K 0C3,44.2645575,-76.5004296
166,Brock Street,K7L 5G2,44.2309028,-76.4863776
175,Princess Street,K7L 1A9,44.2321167,-76.4848109
240,Montreal Street,K7K 3G8,44.2385337,-76.4857482
235,Montreal Street,K7K 3G6,44.2385777,-76.4852123
4037,Bath Road,K7M 4Y5,44.2422795,-76.6095781
3079,Princess Street,K7L 4V2,44.2614406,-76.5974940
1030,Coverdale Drive,K7M 8X7,44.2380604,-76.5919319
631,Fortune Crescent,K7P 0L5,44.2730551,-76.5674541
1130,Midland Avenue,K7P 2X9,44.2652836,-76.5724529
1130,Midland Avenue,K7P 2X9,44.2647021,-76.5720463
1048,Midland Avenue,K7P 2X9,44.2608423,-76.5718596
728,Milford Drive,K7P 1C6,44.2483895,-76.5805372
500,Gardiners Road,K7M 7W9,44.2365010,-76.5664466
1015,Centennial Drive,K7P 3B7,44.2602234,-76.5609905
2327,Princess Street,K7M 3G1,44.2571740,-76.5502612
1100,Princess Street,K7L 5G8,44.2429939,-76.5188061
1473,John Counter Boulevard,K7M 8Z6,44.2600171,-76.5205313
445,Princess Street,K7L 1C0,44.2341325,-76.4937352
136,Princess Street,K7L 1A0,44.2316314,-76.4838743
168,Princess Street,K7L 1B1,44.2318387,-76.4848039
739-b,Arlington Park Place,K7M 8M8,44.2493913,-76.5719369
2408,Perth Road,K0H 1S0,44.3190315,-76.5023437
660,Development Drive,K7M 4W7,44.2420338,-76.5688172
863,Princess Street,K7L 5N4,44.2406016,-76.5094684
795,Gardiners Road,K7M 7E6,44.2511650,-76.5689765
1046,Princess Street,K7L 1H2,44.2427830,-76.5161073
1206,Highway 15,K7K 7J8,44.2695143,-76.4524758
1218,Highway 15,K7L 0C4,44.2700364,-76.4516613
178,Ontario Street,K7L 2Y8,44.2286484,-76.4814092
277,Bath Road,K7M 2X6,44.2404428,-76.5243587
699,Gardiners Road,K7M3Y9,44.2463323,-76.5686798
236,Nelson Street,K7K 4M7,44.2376964,-76.5022417
248,Ontario Street,K7L 5P7,44.2308222,-76.4797274
481,Princess Street,K7L 1C3,44.2345614,-76.4954118
41,Montreal Street,K7K 3E7,44.2325240,-76.4852869
170,Division Street,K7L 3M8,44.2330886,-76.4931047
841,Highway 15,K7L 5H6,44.2560565,-76.4601305
44,Alamein Drive,K7L 4R8,44.2343622,-76.5124151
38,Alamein Drive,K7L 4R8,44.2343469,-76.5127888
40,Alamein Drive,K7L 4R8,44.2343518,-76.5126690
42,Alamein Drive,K7L 4R8,44.2343573,-76.5125342
1716,Bath Road,K7M 4Y2,44.2377416,-76.5720962
Unit 1 - 677,Innovation Drive,K7K 7E6,44.2716675,-76.4417852
2938,Dundas Street West,M6P 1Y0,44.2801152,-76.5453335
127,Ontario Street,K7L 5L3,44.2281970,-76.4814132
75,Bader Lane,K7L 3N6,44.2253175,-76.4987569
1093,Midland Avenue,K7P 2X8,44.2633240,-76.5744980
253,Ontario Street,K7L 2Z4,44.2309023,-76.4793910
70,Compton Street,K7K 5V3,44.2643438,-76.4899415
652,Princess Street,K7L 1E5,44.2370866,-76.5023668
1099,Midland Avenue,K7P 2X8,44.2635134,-76.5745173
1177,Midland Avenue,K7P 2X8,44.2641066,-76.5752708
1105,Midland Avenue,K7P 2X8,44.2631782,-76.5754346
1093,Midland Avenue,K7P 2X8,44.2632610,-76.5744989
1117,Midland Avenue,K7P 2X8,44.2641131,-76.5755564
1290,Wheathill Street,K7M 0A7,44.2473843,-76.5610878
1290,Wheathill Street,K7M 0A7,44.2475265,-76.5611951
1290,Wheathill Street,K7M 0A7,44.2477762,-76.5612541
1699,Bath Road,K7M 4X1,44.2369731,-76.5706741
496,Days Road,K7M 5R4,44.2360978,-76.5697293
496,Days Road,K7M 5R4,44.2360084,-76.5697213
1677,Bath Road,K7M 4X2,44.2366397,-76.5692640
721,Progress Avenue,K7M 6S4,44.2466830,-76.5732555
495,Princess Street,K7L 1C5,44.2346671,-76.4956295
495,Princess Street,K7L 1C5,44.2347466,-76.4958402
500,Gardiners Road,K7M 7W8,44.2366372,-76.5664712
31,Hillendale Avenue,K7M 1S2,44.2421131,-76.5274320
517,Alfred Street,K7K 4J5,44.2414239,-76.4979037
136,Ontario Street,K7L 2Y4,44.2274702,-76.4824891
914,Princess Street,K7L 1H1,44.2407261,-76.5110460
920,Princess Street,K7L 1H1,44.2407133,-76.5114394
27,Princess Street,K7L 1A3,44.2313097,-76.4795732
339,Barrie Street,K7K3S7,44.2335950,-76.4903877
331,Bath Road,K7M2X6,44.2402005,-76.5275058
331,Bath Road,K7M2X6,44.2402095,-76.5274074
274,Princess Street,K7L1B5,44.2323480,-76.4881509
965,Sydenham Road,K7M 3L8,44.2614443,-76.5443295
530,Earl Street,K7L 2K3,44.2285966,-76.5039125
32,Country Club Drive,K7M 0K1,44.2272644,-76.5342545
736,High Gate Drive,K7M 5Z9,44.2462572,-76.6035333
9,Dundas Street,K7L 1N2,44.2356356,-76.5048172
6,Clarence Street,K7L 2Y7,44.2283495,-76.4795565
190,Welborne Avenue,K7M 4G3,44.2226048,-76.5795521
626,Gardiners Road,K7M 3X9,44.2442670,-76.5617800
606,Gardiners Road,K7M 4X2,44.2428865,-76.5662000
105,Queen Street,K7K 1A5,44.2329925,-76.4833215
164,Van Order Drive,K7M 1C1,44.2376273,-76.5215312
234,Norman Rogers Drive,K7M 2R4,44.2340480,-76.5238530
153,Van Order Drive,K7M 1B9,44.2389947,-76.5207001
120,Norman Rogers Drive,K7M 2R2,44.2314734,-76.5194970
1270,Coverdale Drive,K7M 8X7,44.2389082,-76.6042146
1789,Bath Road,K7M 4Y3,44.2359568,-76.5766486
90,Wiley Street,K7K 5B4,44.2598975,-76.4906466
114,Wiley Street,K7K 5B5,44.2609078,-76.4905902
1085,Woodbine Road,K7P 2V9,44.2572808,-76.5970568
266,McMahon Avenue,K7M 3H2,44.2492876,-76.5240112
1255,Birchwood Drive,K7P 2G6,44.2675453,-76.5802772
130,Johnson Street,K7L 1X8,44.2297160,-76.4848374
120,Clarence Street,K7L 0A0,44.2303605,-76.4840249
10B,Assoro Crescent,K7K 5K6,44.2384342,-76.4589617
5C,Ypres Drive,K7K 5K3,44.2380640,-76.4591019
8B,Assoro Crescent,K7K 5K6,44.2382784,-76.4584814
3B,Ypres Drive,K7K 5K3,44.2379397,-76.4582569
1B,Ypres Drive,K7K 5K3,44.2381958,-76.4576043
4B,Assoro Crescent,K7K 5K6,44.2387442,-76.4575425
6A,Assoro Crescent,K7K 5K6,44.2388416,-76.4578858
14,Ypres Drive,K7K 5K4,44.2380494,-76.4596687
12B,Ypres Drive,K7K 5K4,44.2377797,-76.4594824
10B,Ypres Drive,K7K 5K4,44.2374031,-76.4595384
8A,Ypres Drive,K7K 5K4,44.2372578,-76.4588695
6A,Ypres Drive,K7K 5K4,44.2374502,-76.4582577
4B,Ypres Drive,K7K 5K4,44.2376161,-76.4578863
2B,Ypres Drive,K7K 5K4,44.2378231,-76.4572518
355,Waterloo Avenue,K7M 8P5,44.2533969,-76.5524511
20,Cranbrook Street,K7M 4M9,44.2202809,-76.5703449
1000,King Street West,K7M 8H3,44.2195857,-76.5337900
401,Princess Street,K7L 5C9,44.2333835,-76.4923233
1350,Bath Road,K7L 1H2,44.2381630,-76.5480235
26,Vandalay Crescent,K7L 5T9,44.2273215,-76.5040095
773,County Road 15,K7L 4V3,44.2534744,-76.4567023
1059,Taylor Kidd Boulevard,K7M 6J9,44.2504600,-76.5956399
1414,Sproule Street,K7P 2V3,44.2688952,-76.6206294
1044,Lancaster Drive,K7P 2L6,44.2554861,-76.5978606
1020,Lancaster Drive,K7P 2R7,44.2556613,-76.5965457
165,Robert Wallace Drive,K7M 1Y3,44.2353195,-76.5305903
158,Patrick Street,K7K 3P5,44.2413251,-76.4904308
1,First Canada Avenue,K7K 6W2,44.2628105,-76.4963515
77,MacCauley Street,K7K 2V8,44.2655259,-76.4814161
51,Virginia Street,K7K 5Y3,44.2695117,-76.4865588
455,St. Martha Street,K7K 7C2,44.2649066,-76.4481326
117,Bath Road,K7L1H2,44.2409878,-76.5167207
1550,Princess Street,K7M 9E3,44.2522650,-76.5367300
1454,Princess Street,K7M 3E5,44.2505850,-76.5330200
1452,Bath Road,K7M 4X6,44.2379220,-76.5538535
1412,Fairway Hill Crescent,K7M 4X6,44.2378340,-76.5524205
1673,Bath Road,K7M 4X2,44.2360566,-76.5692430
485,Gardiners Road,K7M 7W9,44.2367934,-76.5682515
130,Russell Street,K7K 2E9,44.2429838,-76.4937399
316,Westdale Avenue,K7L 4S5,44.2400635,-76.5136895
935,Gardiners Road,K7M 9A9,44.2545060,-76.5717240
279,Johnson Street,K7L 1Y5,44.2312890,-76.4898075
833,Sutton Mills Court,K7P 2N9,44.2551320,-76.5751220
825,Gardiners Road,K7M 7E6,44.2526330,-76.5693010
620,Cataraqui Woods Drive,K7P 1T8,44.2675565,-76.5669470
181,Ontario Street,K7L 5M1,44.2284455,-76.4810570
794,Highway 2,K7L 4V1,44.2428484,-76.4296296
2,Gore Street,K0H 2L0,44.2250382,-76.4818817
5,Clergy Street East,K7L 3H7,44.2287890,-76.4902719
1155,Division Street,K7K 5W3,44.2646907,-76.4979374
33,Benson Street,K7K 5W2,44.2673610,-76.4960325
417,Weller Avenue,K7K 6K3,44.2630849,-76.4976174
745,Davis Drive,K7M 8J4,44.2564715,-76.5643595
392,Palace Road,K7L 4T3,44.2365980,-76.5149835
309,Queen Mary Road,K7M 6P4,44.2395145,-76.5349165
520,Gardiners Road,K7M 3X9,44.2383787,-76.5668832
41,Baiden Street,K7M 2J9,44.2219105,-76.5208290
1066,Hudson Drive,K7M 5K8,44.2488230,-76.5935665
1292,Highway 15,B0P 1R0,44.2733080,-76.4473145
314,Johnson Street,K7L 1Y7,44.2308440,-76.4917035
344,Johnson Street,K7L 1Y7,44.2311035,-76.4927770
2295,Princess Street,K7M 3G1,44.2571070,-76.5483980
785,Gardiners Road,K7M 7H8,44.2503320,-76.5687945
800,Princess Street,K7L 5E4,44.2389545,-76.5072440
572,Princess Street,K7L 1C9,44.2357090,-76.4994436
183,Lakeshore Boulevard,K7M 6Z6,44.2176020,-76.5744590
57,Kenwoods Circle,K7K 6Y1,44.2561740,-76.4673040
80,Gore Road,K7K 6X6,44.2595780,-76.4611280
100,Montreal Street,K7K 3E8,44.2340195,-76.4856065
176,Railway Street,K7K 2L9,44.2477215,-76.4947890
1043,Princess Street,K7L 1H3,44.2436985,-76.5160810
115,Livingston Avenue,K7L 4L3,44.2247420,-76.5084070
1151,Division Street,K7K 5W3,44.2637022,-76.4978229
1165,Division Street,K7K 5W3,44.2651543,-76.4978824
650,Gardiners Road,K7M 3X9,44.2449130,-76.5673285
630,Gardiners Road,K7M 3X9,44.2444840,-76.5673685
774,Gardiners Road,K7M 3X9,44.2503495,-76.5678806
2485,Princess Street,K7M 3G1,44.2576375,-76.5659200
1040,Division Street,K7K 0C3,44.2625300,-76.4999645
1330,Bath Road,K7M 4X4,44.2383076,-76.5465642
88,Wright Crescent,K7L 4T9,44.2386935,-76.5176605
17,Warne Crescent,K7K 6Z5,44.2665340,-76.4994730
85,Dalton Avenue,K7K 6C2,44.2664885,-76.5012555
257,Kingscourt Avenue,K7K 4P9,44.2503760,-76.5013980
2260,Princess Street,K7M 3G4,44.2587630,-76.5441750
10,Union Street,K7L 2N7,44.2273095,-76.4914220
235,Frontenac Street,K7L 3S7,44.2291467,-76.4976484
628,Gardiners Road,K7M 3X9,44.2443540,-76.5643275
74,Union Street,K7L 3N6,44.2273405,-76.4944545
175,Rideau Street,K7K 3H6,44.2380500,-76.4821250
1499,Stoneridge Drive,K7M 9H9,44.2369125,-76.5926685
533,Gardiners Road,K7M 3Y3,44.2390082,-76.5683358
844,Division Street,K7K 4C3,44.2550450,-76.4973690
711,Dalton Avenue,K7M 8N6,44.2709730,-76.5227335
564,Tanner Drive,K7M 0C3,44.2393890,-76.5586425
816,Centennial Drive,K7M 0A4,44.2491870,-76.5536140
841,Highway 15,K7L 5H6,44.2560565,-76.4601305
1137,Princess Street,K7M 3E1,44.2452851,-76.5196899
66,Wright Crescent,K7L 4T9,44.2383490,-76.5170040
7,Niagara Park Drive Vimy Box,K7K 7C1,44.2395877,-76.4545507
1407,Princess Street,K7M 3E9,44.2504810,-76.5306152
1993,Highway 15,K7L 4V3,44.2990370,-76.4217225
1986,Highway 15,K7L 4V3,44.2992375,-76.4228060
1014,Cunningham Road,K7L 4V3,44.3059009,-76.4219992
206,Concession Street,K7K 2B5,44.2409670,-76.5044040
251,McMahon Avenue,K7M 3H4,44.2508948,-76.5226412
641,Truedell Road,K7M 6W6,44.2440427,-76.5799645
484,Albert Street,K7L 3W3,44.2364040,-76.5009680
2252,Battersea Road,K0H 1S0,44.3206311,-76.4607422
1525,Centennial Drive,K7L 4V2,44.2794660,-76.5676680
1664,Bath Road,K7M 4X9,44.2377520,-76.5687495
755,Gardiners Road,K7M 3Y5,44.2479690,-76.5686350
1338,Princess Street,K7M 7N9,44.2457367,-76.5286025
1338,Princess Street,K7M 7N9,44.2474088,-76.5287173
1338,Princess Street,K7M 7N9,44.2464990,-76.5278650
1338,Princess Street,K7M 7N9,44.2467376,-76.5282051
1338,Princess Street,K7M 7N9,44.2464334,-76.5287302
1338,Princess Street,K7M 7N9,44.2469854,-76.5281005
1338,Princess Street,K7M 7N9,44.2459587,-76.5282260
1338,Princess Street,K7M 7N9,44.2473820,-76.5282116
1338,Princess Street,K7M 7N9,44.2477422,-76.5284996
1338,Princess Street,K7M 7N9,44.2462163,-76.5284066
1338,Princess Street,K7M 7N9,44.2462129,-76.5280478
1338,Princess Street,K7M 7N9,44.2461201,-76.5287807
1338,Princess Street,K7M 7N9,44.2468604,-76.5277543
399,Bath Road,K7M 7C9,44.2392865,-76.5369985
2900,Princess Street,K7P 0K3,44.2619981,-76.5894226
23,Ontario Street,K7L 2Y2,44.2241352,-76.4847338
237,Sydenham Street,K7K 3M3,44.2341577,-76.4862801
1,The Tragically Hip Way,K7K 0B4,44.2333740,-76.4796625
974,Pembridge Crescent,K7P 1A3,44.2495921,-76.5846014
53,Yonge Street,K7M 6G4,44.2189944,-76.5164925
1,Maitland Street,K7L 2V3,44.2228233,-76.4864481
1,Maitland Street,K7L 2V3,44.2226810,-76.4868159
760,Highway 15,K7L 5H6,44.2532350,-76.4610195
370,Kingston Mills Road,K7L 5H6,44.3011106,-76.4241283
2100,Unity Road,K0H 1M0,44.3198515,-76.5402273
10A,Assoro Crescent,K7K 5K6,44.2383716,-76.4587614
10A,Ypres Drive,K7K 5K4,44.2372236,-76.4594209
10C,Assoro Crescent,K7K 5K6,44.2383440,-76.4592065
12A,Ypres Drive,K7K 5K4,44.2376170,-76.4595056
1A,Ypres Drive,K7K 5M9,44.2382828,-76.4573579
2A,Ypres Drive,K7K 5K4,44.2377601,-76.4570545
3A,Ypres Drive,K7K 5K3,44.2380244,-76.4580083
4A,Assoro Crescent,K7K 5K6,44.2385884,-76.4574339
4A,Ypres Drive,K7K 5K4,44.2377071,-76.4576391
5A,Ypres Drive,K7K 5K3,44.2378097,-76.4587561
5B,Ypres Drive,K7K 5K3,44.2378832,-76.4589764
6B,Assoro Crescent,K7K 5K6,44.2387512,-76.4581329
6B,Ypres Drive,K7K 5K4,44.2373589,-76.4585002
6C,Assoro Crescent,K7K 5K6,44.2385843,-76.4581869
8A,Assoro Crescent,K7K 5K6,44.2383674,-76.4582334
8B,Ypres Drive,K7K 5K4,44.2371663,-76.4591131
10A,Sicily Drive,K7K 5J8,44.2370870,-76.4563021
10B,Sicily Drive,K7K 5J8,44.2370806,-76.4564089
11A,Sicily Drive,K7K 5J7,44.2369033,-76.4580700
11B,Sicily Drive,K7K 5J7,44.2368738,-76.4581475
12A,Sicily Dr,K7K 5J9,44.2370490,-76.4565528
12B,Sicily Dr,K7K 5J9,44.2370416,-76.4566756
13A,Sicily Drive,K7K 5J7,44.2368188,-76.4583305
13B,Sicily Drive,K7K 5J7,44.2368065,-76.4584165
14,Sicily Dr,K7K 5J9,44.2369998,-76.4568502
15,Sicily Drive,K7K 5J7,44.2367733,-76.4586011
15,Sicily Drive,K7K 5J7,44.2367610,-76.4586872
16,Sicily Dr,K7K 5J9,44.2369552,-76.4570465
17A,Sicily Drive,K7K 5J7,44.2367235,-76.4588718
17B,Sicily Drive,K7K 5J7,44.2367053,-76.4589557
18,Sicily Dr,K7K 5J9,44.2369011,-76.4571926
19A,Sicily Drive,K7K 5J7,44.2366449,-76.4591449
19B,Sicily Drive,K7K 5J7,44.2366148,-76.4592219
1A,Sicily Drive,K7K 5J7,44.2374058,-76.4568507
1B,Sicily Drive,K7K 5J7,44.2373945,-76.4569481
20A,Sicily Dr,K7K 5J9,44.2368187,-76.4573554
20B,Sicily Dr,K7K 5J9,44.2367711,-76.4574388
21A,Sicily Drive,K7K 5J7,44.2365543,-76.4594023
21B,Sicily Drive,K7K 5J7,44.2365213,-76.4594770
22,Sicily Dr,K7K 5J9,44.2366869,-76.4575524
24A,Sicily Dr,K7K 5J9,44.2365835,-76.4577617
24B,Sicily Dr,K7K 5J9,44.2365470,-76.4578516
26A,Sicily Dr,K7K 5J9,44.2364955,-76.4580237
26B,Sicily Dr,K7K 5J9,44.2364726,-76.4581218
28A,Assoro Crescent,K7K 5K8,44.2378863,-76.4601929
28A,Sicily Dr,K7K 5J9,44.2364338,-76.4583126
28B,Assoro Crescent,K7K 5K8,44.2378227,-76.4602275
28B,Sicily Dr,K7K 5J9,44.2364178,-76.4584134
2A,Sicily Drive,K7K 5J8,44.2370644,-76.4554054
2B,Sicily Drive,K7K 5J8,44.2371148,-76.4554842
30A,Assoro Crescent,K7K 5K8,44.2376646,-76.4602854
30B,Assoro Crescent,K7K 5K8,44.2375963,-76.4602868
32A,Assoro Crescent,K7K 5K8,44.2374435,-76.4602465
32B,Assoro Crescent,K7K 5K8,44.2373792,-76.4602148
34,Assoro Crescent,K7K 5K8,44.2372042,-76.4600947
36,Assoro Crescent,K7K 5K8,44.2370602,-76.4600029
38,Assoro Crescent,K7K 5K8,44.2369139,-76.4598895
3A,Sicily Drive,K7K 5J7,44.2373524,-76.4571324
3B,Sicily Drive,K7K 5J7,44.2373254,-76.4572235
4,Sicily Drive,K7K 5J8,44.2371146,-76.4557251
40A,Assoro Crescent,K7K 5K8,44.2367843,-76.4597751
40B,Assoro Crescent,K7K 5K8,44.2367284,-76.4597207
5A,Sicily Drive,K7K 5J7,44.2372538,-76.4573990
5B,Sicily Drive,K7K 5J7,44.2372262,-76.4574778
6,Sicily Drive,K7K 5J8,44.2371089,-76.4559211
7A,Sicily Drive,K7K 5J7,44.2371522,-76.4576266
7B,Sicily Drive,K7K 5J7,44.2371160,-76.4576982
8,Sicily Drive,K7K 5J8,44.2371075,-76.4561323
9A,Sicily Drive,K7K 5J7,44.2370229,-76.4578517
9B,Sicily Drive,K7K 5J7,44.2369812,-76.4579174
1586,Centennial Drive,K7P 0C7,44.2802305,-76.5703550
82,Schooner Drive,K7K 7K1,44.2735385,-76.4488635
80,Schooner Drive,K7K 7K1,44.2734520,-76.4489565
76,Schooner Drive,K7K 7K1,44.2733170,-76.4490345
64,Schooner Drive,K7K 7J9,44.2732045,-76.4498130
74,Schooner Drive,K7K 7K1,44.2732230,-76.4491470
72,Schooner Drive,K7K 7K1,44.2732200,-76.4492845
60,Schooner Drive,K7K 7J9,44.2731535,-76.4500790
66,Schooner Drive,K7K 7J9,44.2731650,-76.4496765
54,Schooner Drive,K7K 7J8,44.2730995,-76.4504750
70,Schooner Drive,K7K 7J9,44.2731965,-76.4494075
50,Schooner Drive,K7K 7J8,44.2730960,-76.4507990
58,Schooner Drive,K7K 7J9,44.2731275,-76.4502040
68,Schooner Drive,K7K 7J9,44.2731995,-76.4495515
62,Schooner Drive,K7K 7J9,44.2731395,-76.4499365
56,Schooner Drive,K7K 7J9,44.2731185,-76.4503485
28,Schooner Drive,K7K 7J8,44.2729250,-76.4524815
30,Schooner Drive,K7K 7J8,44.2729205,-76.4523235
32,Schooner Drive,K7K 7J8,44.2729570,-76.4521790
34,Schooner Drive,K7K 7J8,44.2729780,-76.4520235
36,Schooner Drive,K7K 7J8,44.2729860,-76.4518760
38,Schooner Drive,K7K 7J8,44.2729985,-76.4517180
40,Schooner Drive,K7K 7J8,44.2730135,-76.4515675
42,Schooner Drive,K7K 7J8,44.2730140,-76.4514145
44,Schooner Drive,K7K 7J8,44.2730295,-76.4512610
46,Schooner Drive,K7K 7J8,44.2730565,-76.4511130
48,Schooner Drive,K7K 7J8,44.2730615,-76.4509585
1291,Waterside Way,K7K 7J8,44.2728940,-76.4532155
1295,Waterside Way,K7K 7J8,44.2730360,-76.4531225
1299,Waterside Way,K7K 7J8,44.2731735,-76.4530275
1303,Waterside Way,K7K 7J8,44.2732910,-76.4528870
1307,Waterside Way,K7K 7J8,44.2733985,-76.4527390
1311,Waterside Way,K7K 7J8,44.2734880,-76.4525925
1315,Waterside Way,K7K 7J8,44.2735830,-76.4524425
1319,Waterside Way,K7K 7J8,44.2736420,-76.4522735
15,Schooner Drive,K7K 7J8,44.2725140,-76.4534545
17,Schooner Drive,K7K 7J8,44.2724780,-76.4532575
1701,Reginald Bart Drive,K7K 0E7,44.2746325,-76.4495350
1703,Reginald Bart Drive,K7K 0E7,44.2745540,-76.4494055
1705,Reginald Bart Drive,K7K 0E7,44.2745175,-76.4492370
1729,Reginald Bart Drive,K7K 0E8,44.2749175,-76.4470535
1731,Reginald Bart Drive,K7K 0E8,44.2749260,-76.4469350
1733,Reginald Bart Drive,K7K 0E9,44.2749370,-76.4468135
1735,Reginald Bart Drive,K7K 0E9,44.2749470,-76.4466880
1737,Reginald Bart Drive,K7K 0E9,44.2749605,-76.4465580
1739,Reginald Bart Drive,K7K 0E9,44.2749730,-76.4464190
1741,Reginald Bart Drive,K7K 0E9,44.2750175,-76.4462580
1743,Reginald Bart Drive,K7K 0E9,44.2750665,-76.4461610
1745,Reginald Bart Drive,K7K 0E9,44.2751445,-76.4460555
1747,Reginald Bart Drive,K7K 0E9,44.2752170,-76.4459685
1749,Reginald Bart Drive,K7K 0E9,44.2752835,-76.4458900
1751,Reginald Bart Drive,K7K 0E9,44.2753540,-76.4458060
1753,Reginald Bart Drive,K7K 0E9,44.2754255,-76.4457250
1755,Reginald Bart Drive,K7K 0G1,44.2755065,-76.4456385
1757,Reginald Bart Drive,K7K 0G1,44.2755725,-76.4455585
1759,Reginald Bart Drive,K7K 0G1,44.2756445,-76.4454800
1761,Reginald Bart Drive,K7K 0G1,44.2756995,-76.4453870
1763,Reginald Bart Drive,K7K 0G1,44.2757740,-76.4453000
19,Schooner Drive,K7K 7J8,44.2724535,-76.4530630
20,Biscayne Street,K7K 7J9,44.2738365,-76.4517035
21,Schooner Drive,K7K 7J8,44.2724790,-76.4528925
23,Biscayne Street,K7K 7J9,44.2734195,-76.4518150
23,Schooner Drive,K7K 7J8,44.2724775,-76.4527420
25,Biscayne Street,K7K 7J9,44.2734560,-76.4516160
25,Schooner Drive,K7K 7J8,44.2725140,-76.4525990
26,Biscayne Street,K7K 7J9,44.2738760,-76.4514750
27,Biscayne Street,K7K 7J9,44.2734705,-76.4514265
27,Schooner Drive,K7K 7J8,44.2725110,-76.4524500
28,Biscayne Street,K7K 7J9,44.2739070,-76.4512890
29,Biscayne Street,K7K 7J9,44.2734700,-76.4512340
29,Schooner Drive,K7K 7J8,44.2725335,-76.4522975
30,Biscayne Street,K7K 7J9,44.2739115,-76.4510930
31,Biscayne Street,K7K 7J9,44.2734800,-76.4510425
31,Schooner Drive,K7K 7J8,44.2725330,-76.4521325
32,Biscayne Street,K7K 7J9,44.2739455,-76.4509110
33,Biscayne Street,K7K 7J9,44.2735165,-76.4508605
33,Schooner Drive,K7K 7J8,44.2725625,-76.4519890
35,Schooner Drive,K7K 7J8,44.2725560,-76.4518335
36,Biscayne Street,K7K 7J9,44.2739555,-76.4505065
37,Biscayne Street,K7K 7J9,44.2735525,-76.4504945
37,Schooner Drive,K7K 7J8,44.2725620,-76.4516760
41,Biscayne Street,K7K 7J9,44.2735565,-76.4502850
40,Biscayne Street,K7K 7J9,44.2740055,-76.4503140
43,Biscayne Street,K7K 7J9,44.2735830,-76.4501020
43,Schooner Drive,K7K 7J8,44.2726140,-76.4512415
42,Biscayne Street,K7K 7J9,44.2740055,-76.4501230
45,Biscayne Street,K7K 7J9,44.2736160,-76.4499140
45,Schooner Drive,K7K 7J8,44.2726390,-76.4510875
44,Biscayne Street,K7K 7J9,44.2740360,-76.4499345
47,Biscayne Street,K7K 7J9,44.2736105,-76.4497175
47,Schooner Drive,K7K 7J8,44.2726550,-76.4509420
46,Biscayne Street,K7K 7J9,44.2740400,-76.4497385
49,Biscayne Street,K7K 7J9,44.2736485,-76.4495340
49,Schooner Drive,K7K 7J8,44.2726685,-76.4507820
48,Biscayne Street,K7K 7J9,44.2740750,-76.4495555
50,Biscayne Street,K7K 7J9,44.2740760,-76.4493570
53,Biscayne Street,K7K 7J9,44.2736865,-76.4493110
55,Schooner Drive,K7K 7K1,44.2727010,-76.4504340
52,Biscayne Street,K7K 7J9,44.2740890,-76.4491450
57,Schooner Drive,K7K 7K1,44.2727145,-76.4502445
54,Biscayne Street,K7K 7J9,44.2740125,-76.4489270
59,Schooner Drive,K7K 7K1,44.2727525,-76.4500960
61,Schooner Drive,K7K 7K1,44.2727755,-76.4499550
63,Schooner Drive,K7K 7K1,44.2727590,-76.4498140
65,Schooner Drive,K7K 7K1,44.2727775,-76.4496905
67,Schooner Drive,K7K 7K1,44.2727885,-76.4495505
69,Schooner Drive,K7K 7K1,44.2728080,-76.4494170
71,Schooner Drive,K7K 7K1,44.2728215,-76.4492900
73,Schooner Drive,K7K 7K1,44.2728230,-76.4491510
75,Schooner Drive,K7K 7K1,44.2728450,-76.4489980
77,Schooner Drive,K7K 7K1,44.2728845,-76.4488510
79,Biscayne Street,K7K 7J9,44.2729925,-76.4480950
79,Schooner Drive,K7K 7K1,44.2729620,-76.4487450
81,Schooner Drive,K7K 7K1,44.2730520,-76.4486600
83,Biscayne Street,K7K 7J9,44.2728500,-76.4479330
83,Schooner Drive,K7K 7K1,44.2731180,-76.4485500
85,Biscayne Street,K7K 7K1,44.2726465,-76.4478420
85,Schooner Drive,K7K 7K1,44.2731815,-76.4484755
87,Schooner Drive,K7K 7K1,44.2732560,-76.4483845
1343,Waterside Way,K7K 0E7,44.2743185,-76.4509105
1349,Waterside Way,K7K 0E7,44.2743600,-76.4504135
1341,Waterside Way,K7K 0E7,44.2743030,-76.4510735
1355,Waterside Way,K7K 0E7,44.2744040,-76.4499465
1357,Waterside Way,K7K 0E7,44.2744330,-76.4497760
1337,Waterside Way,K7K 0E7,44.2742665,-76.4513570
1339,Waterside Way,K7K 0E7,44.2742860,-76.4512115
1347,Waterside Way,K7K 0E7,44.2743460,-76.4505670
1346,Waterside Way,K7K 0E7,44.2747810,-76.4505880
1348,Waterside Way,K7K 0E7,44.2747835,-76.4504100
1350,Waterside Way,K7K 0E7,44.2748210,-76.4502185
1352,Waterside Way,K7K 0E7,44.2748555,-76.4499825
1354,Waterside Way,K7K 0G2,44.2749880,-76.4498585
1356,Waterside Way,K7K 0G2,44.2750940,-76.4497605
1364,Waterside Way,K7K 0G2,44.2755425,-76.4493110
1366,Waterside Way,K7K 0G2,44.2756715,-76.4491945
1368,Waterside Way,K7K 0G2,44.2757685,-76.4490385
1371,Waterside Way,K7K 0G2,44.2754775,-76.4485085
1372,Waterside Way,K7K 0G2,44.2759050,-76.4487290
1373,Waterside Way,K7K 0G2,44.2755225,-76.4483355
1375,Waterside Way,K7K 0G2,44.2755360,-76.4481960
1376,Waterside Way,K7K 0G2,44.2759400,-76.4483890
1377,Waterside Way,K7K 0G2,44.2755430,-76.4480375
1379,Waterside Way,K7K 0G2,44.2755570,-76.4478495
1381,Waterside Way,K7K 0G2,44.2755825,-76.4476875
1382,Waterside Way,K7K 0G2,44.2759880,-76.4479580
1383,Waterside Way,K7K 0G2,44.2755915,-76.4475470
1384,Waterside Way,K7K 0G2,44.2759940,-76.4478180
1385,Waterside Way,K7K 0G2,44.2756100,-76.4473965
1387,Waterside Way,K7K 0E9,44.2756140,-76.4472390
1389,Waterside Way,K7K 0E9,44.2756310,-76.4470560
1390,Waterside Way,K7K 0E9,44.2760355,-76.4474125
1392,Waterside Way,K7K 0E9,44.2760455,-76.4472345
1394,Waterside Way,K7K 0E9,44.2760635,-76.4470715
1396,Waterside Way,K7K 0E9,44.2760790,-76.4469115
1397,Waterside Way,K7K 0E9,44.2756445,-76.4463630
1399,Waterside Way,K7K 0E9,44.2755605,-76.4462340
1700,Reginald Bart Drive,K7K 0G2,44.2749800,-76.4491695
1702,Reginald Bart Drive,K7K 0E7,44.2749135,-76.4489845
1706,Reginald Bart Drive,K7K 0E8,44.2749620,-76.4486240
1710,Reginald Bart Drive,K7K 0E8,44.2751110,-76.4483730
1712,Reginald Bart Drive,K7K 0E8,44.2751550,-76.4482335
1714,Reginald Bart Drive,K7K 0E8,44.2752035,-76.4481180
1716,Reginald Bart Drive,K7K 0E8,44.2752420,-76.4479825
1718,Reginald Bart Drive,K7K 0E8,44.2752635,-76.4478510
1720,Reginald Bart Drive,K7K 0E8,44.2752735,-76.4477235
1722,Reginald Bart Drive,K7K 0E8,44.2752875,-76.4475980
1724,Reginald Bart Drive,K7K 0E8,44.2752965,-76.4474735
1726,Reginald Bart Drive,K7K 0E8,44.2753115,-76.4473490
1728,Reginald Bart Drive,K7K 0E8,44.2753205,-76.4472255
1730,Reginald Bart Drive,K7K 0E8,44.2753290,-76.4471015
1732,Reginald Bart Drive,K7K 0E8,44.2753405,-76.4469765
1734,Reginald Bart Drive,K7K 0E8,44.2753520,-76.4468520
1736,Reginald Bart Drive,K7K 0E9,44.2753635,-76.4467255
1738,Reginald Bart Drive,K7K 0E9,44.2753740,-76.4466020
1740,Reginald Bart Drive,K7K 0E9,44.2753975,-76.4464485
1,Assoro Crescent,K7K 5K5,44.2374817,-76.4563872
10,Niagara Park,K7K 5N4,44.2359561,-76.4548164
11,Hermes Drive,K7K 5T3,44.2362413,-76.4570574
12,Niagara Park,K7K 5N4,44.2360430,-76.4549378
13,Hermes Drive,K7K 5T3,44.2361082,-76.4572767
14,Hermes Drive,K7K 5T4,44.2356891,-76.4569651
14,Niagara Park,K7K 5N4,44.2361759,-76.4550814
15,Hermes Drive,K7K 5T3,44.2360646,-76.4573767
16,Hermes Drive,K7K 5T4,44.2356381,-76.4570595
17,Hermes Drive,K7K 5T3,44.2359986,-76.4576000
18,Hermes Drive,K7K 5T4,44.2355645,-76.4573362
19,Hermes Drive,K7K 5T3,44.2359872,-76.4577349
1A,Niagara Park,K7K 5N2,44.2356249,-76.4525165
1B,Niagara Park,K7K 5N2,44.2356606,-76.4526111
20,Hermes Drive,K7K 5T4,44.2355247,-76.4574767
21,Hermes Drive,K7K 5T3,44.2359345,-76.4579631
22,Hermes Drive,K7K 5T4,44.2354794,-76.4577000
23,Hermes Drive,K7K 5T3,44.2358967,-76.4580662
24,Hermes Drive,K7K 5T4,44.2354508,-76.4578214
25,Assoro Crescent,K7K 5K7,44.2375971,-76.4608472
26,Kapyong Crescent,K7K 5T5,44.2352197,-76.4583066
27,Assoro Crescent,K7K 5K7,44.2374215,-76.4608090
29A,Assoro Crescent,K7K 5K7,44.2372759,-76.4607663
29B,Assoro Crescent,K7K 5K7,44.2372175,-76.4607336
2A,Niagara Park,K7K 5N3,44.2352585,-76.4526361
2B,Niagara Park,K7K 5N3,44.2352913,-76.4527327
3,Assoro Crescent,K7K 5K5,44.2376668,-76.4564530
3,Niagara Park,K7K 5N2,44.2357122,-76.4527936
30,Kapyong Crescent,K7K 5T5,44.2354905,-76.4585258
30,Queenston Heights,K7K 5J5,44.2348470,-76.4519303
31A,Assoro Crescent,K7K 5K7,44.2371057,-76.4606563
31A,Queenston Heights,K7K 5J6,44.2351101,-76.4524031
31B,Assoro Crescent,K7K 5K7,44.2370483,-76.4606202
31B,Queenston Heights,K7K 5J6,44.2350337,-76.4523946
32,Kapyong Crescent,K7K 5T5,44.2355502,-76.4584398
32,Queenston Heights,K7K 5J5,44.2347224,-76.4520467
33A,Assoro Crescent,K7K 5K7,44.2369048,-76.4605287
33A,Queenston Heights,K7K 5K7,44.2348493,-76.4525891
33B,Assoro Crescent,K7K 5K7,44.2368482,-76.4604906
33B,Queenston Heights,K7K 5K7,44.2347968,-76.4526454
34,Kapyong Crescent,K7K 5T5,44.2357787,-76.4585321
34,Queenston Heights,K7K 5J5,44.2345970,-76.4522014
35,Assoro Crescent,K7K 5K7,44.2367256,-76.4603704
36,Kapyong Crescent,K7K 5T5,44.2357413,-76.4586355
36,Queenston Heights,K7K 5J5,44.2344935,-76.4523366
37,Assoro Crescent,K7K 5K7,44.2365868,-76.4602550
38,Kapyong Crescent,K7K 5T5,44.2356781,-76.4588624
38,Queenston Heights,K7K 5J5,44.2343773,-76.4524770
39,Assoro Crescent,K7K 5K7,44.2364695,-76.4601159
40,Kapyong Crescent,K7K 5T5,44.2356482,-76.4589802
40,Queenston Heights,K7K 5J5,44.2342659,-76.4525916
41A,Assoro Crescent,K7K 5K7,44.2363082,-76.4599579
41B,Assoro Crescent,K7K 5K7,44.2362656,-76.4598935
42,Queenston Heights,K7K 5J5,44.2341338,-76.4527400
44,Queenston Heights,K7K 5J5,44.2340219,-76.4528806
4A,Niagara Park,K7K 5N3,44.2354153,-76.4530607
4B,Niagara Park,K7K 5N3,44.2354481,-76.4531573
5,Assoro Crescent,K7K 5K5,44.2377956,-76.4564486
5,Niagara Park,K7K 5N2,44.2357689,-76.4529872
60A,Lundy's Lane,K7K 5G5,44.2359647,-76.4532808
60B,Lundy's Lane,K7K 5G5,44.2358919,-76.4532478
62A,Lundy's Lane,K7K 5G7,44.2355179,-76.4534240
62B,Lundy's Lane,K7K 5G7,44.2354930,-76.4535250
6A,Niagara Park,K7K 5N4,44.2357704,-76.4543448
6B,Niagara Park,K7K 5N4,44.2358037,-76.4544413
7,Assoro Crescent,K7K 5K5,44.2379463,-76.4564553
8,Niagara Park,K7K 5N4,44.2358497,-76.4546065
35A,Queenston Heights,K7K 5J6,44.2346880,-76.4527759
35B,Queenston Heights,K7K 5H7,44.2346342,-76.4528376
37A,Queenston Heights,K7M 3N7,44.2345153,-76.4530010
37B,Queenston Heights,K7K 1P1,44.2344616,-76.4530627
39A,Queenston Heights,A1A 4W8,44.2343183,-76.4531943
39B,Queenston Heights,K7K 5G4,44.2342737,-76.4532686
46A,Queenston Heights,K7K 5G3,44.2339232,-76.4530612
46B,Queenston Heights,K7K 5G3,44.2338986,-76.4531520
48A,Queenston Heights,B2G 1K5,44.2338577,-76.4533823
48B,Queenston Heights,B2G 1K5,44.2338619,-76.4534792
755,Newmarket Lane,K7K 0C8,44.2580917,-76.4800767
757,Newmarket Lane,K7K 0C8,44.2580976,-76.4801590
759,Newmarket Lane,K7K 0C8,44.2580880,-76.4802287
761,Newmarket Lane,K7K 0C8,44.2580803,-76.4802978
763,Newmarket Lane,K7K 0C8,44.2580782,-76.4803678
765,Newmarket Lane,K7K 0C8,44.2580766,-76.4804362
767,Newmarket Lane,K7K 0C8,44.2580739,-76.4805074
769,Newmarket Lane,K7K 0C8,44.2580564,-76.4806199
771,Newmarket Lane,K7K 0C8,44.2580671,-76.4806923
773,Newmarket Lane,K7K 0C8,44.2580640,-76.4807681
775,Newmarket Lane,K7K 0C8,44.2580470,-76.4808424
777,Newmarket Lane,K7K 0C8,44.2580437,-76.4809214
815,Newmarket Lane,K7K 0C8,44.2579851,-76.4819940
817,Newmarket Lane,K7K 0C8,44.2580361,-76.4819631
819,Newmarket Lane,K7K 0C8,44.2580841,-76.4819427
821,Newmarket Lane,K7K 0C8,44.2581365,-76.4819319
823,Newmarket Lane,K7K 0C8,44.2582120,-76.4817710
825,Newmarket Lane,K7K 0C8,44.2582308,-76.4817061
827,Newmarket Lane,K7K 0C8,44.2582612,-76.4816485
829,Newmarket Lane,K7K 0C8,44.2582909,-76.4815919
831,Newmarket Lane,K7K 0C8,44.2583190,-76.4815385
833,Newmarket Lane,K7K 0C8,44.2583563,-76.4814843
835,Newmarket Lane,K7K 0C8,44.2583853,-76.4814382
887,Newmarket Lane,K7K 0C8,44.2593404,-76.4798526
889,Newmarket Lane,K7K 0C8,44.2593694,-76.4797905
891,Newmarket Lane,K7K 0C8,44.2594065,-76.4797362
893,Newmarket Lane,K7K 0C8,44.2594503,-76.4796855
895,Newmarket Lane,K7K 0C8,44.2595302,-76.4796216
897,Newmarket Lane,K7K 0C8,44.2595750,-76.4795922
899,Newmarket Lane,K7K 0C8,44.2596221,-76.4795615
901,Ascot Lane,K7K 0C8,44.2583817,-76.4801854
901,Newmarket Lane,K7K 0C8,44.2596714,-76.4795418
903,Ascot Lane,K7K 0C8,44.2584184,-76.4801368
905,Ascot Lane,K7K 0C8,44.2584456,-76.4800820
907,Ascot Lane,K7K 0C8,44.2584746,-76.4800238
910,Ascot Lane,K7K 0C8,44.2588016,-76.4801509
912,Ascot Lane,K7K 0C8,44.2588475,-76.4801011
914,Ascot Lane,K7K 0C8,44.2588482,-76.4800159
916,Ascot Lane,K7K 0C8,44.2588816,-76.4799513
918,Ascot Lane,K7K 0C8,44.2589089,-76.4799047
920,Ascot Lane,K7K 0C8,44.2589502,-76.4798521
922,Ascot Lane,K7K 0C8,44.2590257,-76.4798442
924,Ascot Lane,K7K 0C8,44.2590559,-76.4797778
2212,Princess Street,K7M 3G2,44.2570450,-76.5414285
40,Lundy's Lane,K7K 5G3,44.2376042,-76.4498623
256,Collingwood Street,K7L 3X8,44.2292420,-76.5017730
3526,Princess Street,K7L 4V2,44.2661620,-76.6261810
686,Princess Street,K7L 1E7,44.2373835,-76.5037600
44,Olive Crescent,K7M 4R5,44.2206115,-76.5722965
48,Olive Crescent,K7M 4R5,44.2206050,-76.5725200
52,Olive Crescent,K7M 4R5,44.2206045,-76.5728300
58,Olive Crescent,K7M 4R5,44.2204685,-76.5731520
454,Nelson Street,K7K 4N5,44.2447925,-76.5027775
458,Nelson Street,K7K 4N5,44.2449050,-76.5027395
462,Nelson Street,K7K 4N5,44.2450170,-76.5027290
464,Nelson Street,K7K 4N5,44.2451265,-76.5027240
468,Nelson Street,K7K 4N5,44.2452360,-76.5027915
470,Nelson Street,K7K 4N5,44.2453425,-76.5028130
474,Nelson Street,K7K 4N5,44.2454580,-76.5028305
476,Nelson Street,K7K 4N5,44.2455555,-76.5027875
480,Nelson Street,K7K 4N5,44.2456740,-76.5027780
484,Nelson Street,K7K 4N5,44.2457825,-76.5027865
488,Nelson Street,K7K 4N5,44.2459485,-76.5028390
749,Louis Court,K7M 6E9,44.2468769,-76.6136895
753,Louis Court,K7M 6E9,44.2469148,-76.6139577
745,Louis Street,K7M 6M7,44.2465649,-76.6136470
757,Louis Court,K7M 6E9,44.2470890,-76.6140923
729,Clark Crescent,K7M 6M1,44.2465229,-76.6138619
750,Louis Street,K7M 6G1,44.2468809,-76.6130888
754,Louis Street,K7M 6G1,44.2470400,-76.6130919
761,Louis Court,K7M 6E9,44.2472843,-76.6140406
725,Clark Crescent,K7M 6M1,44.2465176,-76.6141585
765,Louis Court,K7M 6E9,44.2473909,-76.6137517
746,Louis Street,K7M 6G1,44.2466161,-76.6130753
1-3064,Princess Street,K7P 0K3,44.2625380,-76.5967425
3100,Princess Street,K7L 4V2,44.2625775,-76.5985655
758,Louis Street,K7M 6G1,44.2472042,-76.6131158
762,Louis Street,K7M 6G1,44.2473564,-76.6131251
721,Clark Crescent,K7M 6M1,44.2465208,-76.6144334
741,Clark Crescent,K7M 6E7,44.2466121,-76.6128700
769,Louis Street,K7M 6G2,44.2476223,-76.6137237
717,Clark Crescent,K7M 6M1,44.2465837,-76.6146653
744,Aylmer Crescent,K7M 6E6,44.2472662,-76.6146389
766,Louis Street,K7M 6G1,44.2475276,-76.6131168
740,Aylmer Crescent,K7M 6E6,44.2471259,-76.6147257
734,Clark Crescent,K7M 6J3,44.2461437,-76.6134537
748,Aylmer Crescent,K7M 6E6,44.2474117,-76.6145312
732,Clark Crescent,K7M 6J3,44.2461146,-76.6137236
736,Clark Crescent,K7M 6J3,44.2461649,-76.6132575
745,Clark Crescent,K7M 6E7,44.2467041,-76.6126225
749,Clark Crescent,K7M 6E7,44.2468732,-76.6125787
730,Clark Crescent,K7M 6J3,44.2461007,-76.6139159
753,Clark Crescent,K7M 6E7,44.2470396,-76.6125888
736,Aylmer Crescent,K7M 6E6,44.2469757,-76.6148235
757,Clark Crescent,K7M 6E7,44.2472040,-76.6126042
752,Aylmer Crescent,K7M 6E6,44.2475585,-76.6144436
738,Clark Crescent,K7M 6J3,44.2461834,-76.6130005
732,Aylmer Crescent,K7M 6E6,44.2468084,-76.6149197
728,Clark Crescent,K7M 6J3,44.2460629,-76.6141653
770,Louis Street,K7M 6G1,44.2476918,-76.6131499
761,Clark Crescent,K7M 6E7,44.2473797,-76.6126143
773,Louis Street,K7M 6G2,44.2477927,-76.6137433
713,Clark Crescent,K7M 6M1,44.2466751,-76.6149619
1338,Princess Street,K7M 7N9,44.2470704,-76.5281887
740,Clark Crescent,K7M 6J3,44.2461939,-76.6128024
756,Aylmer Crescent,K7M 6E6,44.2477250,-76.6143240
726,Clark Crescent,K7M 6J3,44.2460543,-76.6144137
765,Clark Crescent,K7M 6E7,44.2475357,-76.6126232
724,Clark Crescent,K7M 6J3,44.2461248,-76.6146671
774,Louis Street,K7M 6G1,44.2478635,-76.6131588
711,Dalton Avenue,K7M 8N6,44.2711159,-76.5231249
1310,Bath Road,K7M 4X4,44.2383190,-76.5458035
760,Aylmer Crescent,K7M 6E6,44.2478510,-76.6142668
529,St. Martha Street,K7K 7C2,44.2661184,-76.4451791
775,Progress Avenue,K7M 6W6,44.2474134,-76.5777345
775,Progress Avenue,K7M 6W6,44.2467515,-76.5778550
775,Progress Avenue,K7M 6R8,44.2470354,-76.5778779
2903,Joyceville Road,K0H 1Y0,44.3593486,-76.3347732
1305,Princess Street,K7M 3E3,44.2483587,-76.5262578
1309,Princess Street,K7M 3E3,44.2484237,-76.5264222
1317,Princess Street,K7M 3E3,44.2485801,-76.5267439
742,Clark Crescent,K7M 6J3,44.2462332,-76.6125414
775,Louis Street,K7M 6G2,44.2479507,-76.6137532
722,Clark Crescent,K7M 6J3,44.2461833,-76.6148404
1344,Waverley Crescent,K7M 6H4,44.2457841,-76.6133833
559,Frontenac Street,K7K 4M3,44.2379665,-76.4989940
115,Joyce Street,K7K 6V7,44.2752995,-76.4777715
1338,Princess Street,K7M 7N9,44.2464578,-76.5282953
1636,Highway 15,K7L 4V3,44.2853145,-76.4334040
1525,Centennial Drive,K7L 4V2,44.2789932,-76.5676794
2238,Sydenham Road,K0H 1M0,44.3171990,-76.5409035
30,Lyons Street,K7K 0J5,44.2551170,-76.5003080
69,Dalton Avenue,K7K 6C2,44.2662630,-76.4997335
775,Progress Avenue,K7M 6W6,44.2461629,-76.5780942
775,Progress Avenue,K7M 6W6,44.2458091,-76.5779010
1346,Waverley Crescent,K7M 6K4,44.2457646,-76.6136429
1348,Waverley Crescent,K7M 6K4,44.2457402,-76.6138351
1350,Waverley Crescent,K7M 6K4,44.2457162,-76.6141098
1352,Waverley Crescent,K7M 6K4,44.2457085,-76.6143092
1354,Waverley Crescent,K7M 6K4,44.2456969,-76.6145367
1356,Waverley Crescent,K7M 6K4,44.2456473,-76.6147454
1358,Waverley Crescent,K7M 6K4,44.2456227,-76.6150126
1360,Waverley Crescent,K7M 6K4,44.2456134,-76.6152315
1368,Waverley Crescent,K7M 6K4,44.2449467,-76.6157713
1372,Waverley Crescent,K7M 6K4,44.2448075,-76.6157722
1376,Waverley Crescent,K7M 6K4,44.2446283,-76.6157372
1380,Waverley Crescent,K7M 6K4,44.2443896,-76.6159564
1384,Waverley Crescent,K7M 6K4,44.2443298,-76.6161958
1386,Waverley Crescent,K7M 6K4,44.2442734,-76.6166233
698,Aylmer Crescent,K7M 6L9,44.2444151,-76.6165312
700,Aylmer Crescent,K7M 6L9,44.2445471,-76.6163982
702,Aylmer Crescent,K7M 6L9,44.2447098,-76.6163246
704,Aylmer Crescent,K7M 6L9,44.2448407,-76.6162168
706,Aylmer Crescent,K7M 6L9,44.2451572,-76.6159406
710,Aylmer Crescent,K7M 6L9,44.2453011,-76.6158333
712,Aylmer Crescent,K7M 6L9,44.2454770,-76.6157494
714,Aylmer Crescent,K7M 6L9,44.2456161,-76.6156643
716,Aylmer Crescent,K7M 6L9,44.2457676,-76.6155648
718,Aylmer Crescent,K7M 6L9,44.2459263,-76.6154591
720,Aylmer Crescent,K7M 6L9,44.2460549,-76.6153596
724,Aylmer Crescent,K7M 6L9,44.2462985,-76.6152393
720,Clark Crescent,K7M 6J3,44.2462640,-76.6150548
744,Clark Crescent,K7M 6J3,44.2462767,-76.6122594
746,Clark Crescent,K7M 6J3,44.2464097,-76.6120836
748,Clark Crescent,K7M 6J3,44.2465961,-76.6119720
1309,Edwin Street,K7M 6H2,44.2467294,-76.6119581
1305,Edwin Street,K7M 6H2,44.2467446,-76.6115071
1314,Waverley Crescent,K7M 6H4,44.2465995,-76.6115070
1316,Waverley Crescent,K7M 6H4,44.2464419,-76.6114510
1318,Waverley Crescent,K7M 6H4,44.2462773,-76.6114340
1320,Waverley Crescent,K7M 6H4,44.2461328,-76.6114327
1324,Waverley Crescent,K7M 6H4,44.2459638,-76.6115542
1328,Waverley Crescent,K7M 6H4,44.2459376,-76.6118265
1332,Waverley Crescent,K7M 6H4,44.2459082,-76.6120576
1334,Waverley Crescent,K7M 6H4,44.2458896,-76.6122819
1336,Waverley Crescent,K7M 6H4,44.2458647,-76.6124739
1338,Waverley Crescent,K7M 6H4,44.2458402,-76.6127412
1340,Waverley Crescent,K7M 6H4,44.2458295,-76.6129327
401,Alfred Street,K7K 4M3,44.2375360,-76.4974595
1342,Waverley Crescent,K7M 6H4,44.2458106,-76.6131790
764,Aylmer Crescent,K7M 6E6,44.2480313,-76.6141750
768,Aylmer Crescent,K7M 6E6,44.2481818,-76.6141164
772,Aylmer Crescent,K7M 6E6,44.2483481,-76.6140552
776,Aylmer Crescent,K7M 6E6,44.2484722,-76.6139639
780,Aylmer Crescent,K7M 6E6,44.2486342,-76.6139273
784,Aylmer Crescent,K7M 6E6,44.2487667,-76.6138499
788,Aylmer Crescent,K7M 6E6,44.2489516,-76.6138162
792,Aylmer Crescent,K7M 6E6,44.2490915,-76.6137505
796,Aylmer Crescent,K7M 6E6,44.2491860,-76.6134186
800,Aylmer Crescent,K7M 6E6,44.2491959,-76.6132106
804,Aylmer Crescent,K7M 6E6,44.2492249,-76.6129582
808,Aylmer Crescent,K7M 6H9,44.2493076,-76.6121467
801,Clark Crescent,K7M 6E8,44.2492225,-76.6127557
797,Clark Crescent,K7M 6E8,44.2489752,-76.6127387
793,Louis Street,K7M 6G2,44.2488498,-76.6127498
787,Louis Street,K7M 6G2,44.2488513,-76.6131071
785,Louis Street,K7M 6G2,44.2488327,-76.6133042
792,Clark Crescent,K7M 6J4,44.2487268,-76.6121118
796,Clark Crescent,K7M 6J4,44.2488654,-76.6121213
800,Clark Crescent,K7M 6J4,44.2490319,-76.6121600
804,Clark Crescent,K7M 6J4,44.2491667,-76.6121677
810,Aylmer Crescent,K7M 6H9,44.2493180,-76.6117185
778,Louis Street,K7M 6G1,44.2480035,-76.6131596
782,Louis Street,K7M 6G1,44.2481865,-76.6131858
786,Louis Street,K7M 6G1,44.2483541,-76.6131209
790,Louis Street,K7M 6G1,44.2484582,-76.6127319
471,Cataraqui Woods Drive,K7P 0E6,44.2688880,-76.5578450
"1574, 1572",Davenport Crescent,K7P 0K7,44.2670691,-76.5940035
1117,Midland Avenue,K7P 2X8,44.2641410,-76.5751115
2054,Joyceville Road,K7M 8S5,44.3214970,-76.3361940
33,McFadden Lane,K7L 5H6,44.2983545,-76.2945080
1304,Edwin Street,K7M 6L4,44.2471527,-76.6115260
1308,Edwin Street,K7M 6J4,44.2471348,-76.6119409
1308,Waverley Crescent,K7M 6J6,44.2472714,-76.6115449
1306,Waverley Crescent,K7M 6J6,44.2474630,-76.6115343
1304,Waverley Crescent,K7M 6J6,44.2476141,-76.6115611
1302,Waverley Crescent,K7M 6J6,44.2477755,-76.6115678
1300,Waverley Crescent,K7M 6J6,44.2479417,-76.6115837
1298,Waverley Crescent,K7M 6J6,44.2481035,-76.6115772
1296,Waverley Crescent,K7M 6J6,44.2482697,-76.6116074
1294,Waverley Crescent,K7M 6J6,44.2484491,-76.6116215
1292,Waverley Crescent,K7M 6J6,44.2485899,-76.6116132
1290,Waverley Crescent,K7M 6J6,44.2487531,-76.6116275
1288,Waverley Crescent,K7M 6J6,44.2488860,-76.6116545
1286,Waverley Crescent,K7M 6J6,44.2490526,-76.6116803
756,Clark Crescent,K7M 6J4,44.2472463,-76.6120174
760,Clark Crescent,K7M 6J4,44.2474441,-76.6120399
764,Clark Crescent,K7M 6J4,44.2475793,-76.6120503
768,Clark Crescent,K7M 6J4,44.2477731,-76.6120382
772,Clark Crescent,K7M 6J4,44.2479067,-76.6120495
776,Clark Crescent,K7M 6J4,44.2480834,-76.6120615
769,Clark Crescent,K7M 6E7,44.2477079,-76.6126353
773,Clark Crescent,K7M 6E7,44.2478652,-76.6126515
777,Clark Crescent,K7M 6E7,44.2480251,-76.6126618
780,Clark Crescent,K7M 6J4,44.2482347,-76.6120930
784,Clark Crescent,K7M 6J4,44.2484272,-76.6120798
788,Clark Crescent,K7M 6J4,44.2485633,-76.6121136
781,Clark Crescent,K7M 6E7,44.2481724,-76.6126756
785,Clark Crescent,K7M 6E7,44.2483361,-76.6126956
1284,Waverley Crescent,K7M 6J6,44.2491850,-76.6116637
945,Gardiners Road,K7M 7H4,44.2563380,-76.5718245
2658,Princess Street,K7P 2W6,44.2590740,-76.5746560
2003,Rosedale Drive,K0H 1S0,44.3116738,-76.5227590
460,Gardiners Road,K7M 7W9,44.2365925,-76.5672840
13,Crerar Boulevard,K7M 3P7,44.2170520,-76.5687945
11,Crerar Boulevard,K7M 3P7,44.2172625,-76.5688410
9,Crerar Boulevard,K7M 3P7,44.2174570,-76.5688615
7,Crerar Boulevard,K7M 3P7,44.2176385,-76.5689015
5,Crerar Boulevard,K7M 3P7,44.2177960,-76.5688290
3,Crerar Boulevard,K7M 3P7,44.2179725,-76.5688370
2069,Battersea Road,K0H 1S0,44.3130105,-76.4658145
823,Highway 15,K7L 4V3,44.2554855,-76.4598900
750,Rylande Court,K7L 5H6,44.2918070,-76.4548850
1174,Italia Lane,K7L 4V3,44.2768450,-76.4817195
46,Collingwood Street,K7L3X4,44.2235125,-76.5013880
385,Mack Street,K7L 1R5,44.2339175,-76.5123985
14,Alamein Drive,K7L 4R6,44.2334590,-76.5130595
15,Alamein Drive,K7L 4R5,44.2335290,-76.5118845
1,Alamein Drive,K7L 4R5,44.2328670,-76.5122320
387,Mack Street,K7L 1R5,44.2339255,-76.5125480
16,Alamein Drive,K7L 4R6,44.2336355,-76.5130915
7,Alamein Drive,K7L 4R5,44.2331695,-76.5118730
23,Alamein Drive,K7L 4R7,44.2341820,-76.5120160
3,Alamein Drive,K7L 4R5,44.2329075,-76.5119960
1100,Princess Street,K7L 5G8,44.2428350,-76.5185585
17,Alamein Drive,K7L 4R7,44.2338120,-76.5119350
22,Alamein Drive,K7L 4R6,44.2340115,-76.5131365
18,Alamein Drive,K7L 4R6,44.2337465,-76.5130765
20,Alamein Drive,K7L 4R6,44.2338715,-76.5131260
4,Alamein Drive,K7L 4R6,44.2328795,-76.5128325
11,Alamein Drive,K7L 4R5,44.2334015,-76.5119020
9,Alamein Drive,K7L 4R5,44.2332990,-76.5118910
29,Alamein Drive,K7L 4R7,44.2344835,-76.5120645
30,Alamein Drive,K7L 4R6,44.2344570,-76.5131875
8,Alamein Drive,K7L 4R6,44.2331090,-76.5130455
33,Alamein Drive,K7L 4R7,44.2346680,-76.5122830
32,Alamein Drive,K7L 4R6,44.2345555,-76.5131605
35,Alamein Drive,K7L 4R7,44.2346695,-76.5124380
24,Alamein Drive,K7L 4R6,44.2341350,-76.5131340
25,Alamein Drive,K7L 4R7,44.2343149,-76.5120508
2,Alamein Drive,K7L 4R6,44.2328530,-76.5126360
26,Alamein Drive,K7L 4R6,44.2342613,-76.5131095
19,Alamein Drive,K7L 4R7,44.2339385,-76.5119955
7,Alamein Drive,K7L 4R5,44.2330070,-76.5118475
31,Alamein Drive,K7L 4R7,44.2346035,-76.5121100
6,Alamein Drive,K7L 4R6,44.2329285,-76.5129995
21,Alamein Drive,K7L 4R7,44.2340665,-76.5119750
10,Alamein Drive,K7L 4R6,44.2332200,-76.5130380
389,Mack Street,K7L 1R5,44.2339115,-76.5127370
34,Alamein Drive,K7L 4R6,44.2346770,-76.5130035
12,Alamein Drive,K7L 4R6,44.2333485,-76.5130520
36,Alamein Drive,K7L 4R6,44.2346655,-76.5128120
55,Ontario Street,K7L 2Y2,44.2252835,-76.4829435
50,William Street,K7L 2C4,44.2282435,-76.4839285
125,Brock Street,K7L 1S1,44.2310155,-76.4837366
1200,Highway 15,K7K 7J8,44.2698755,-76.4516160
1175,John Counter Boulevard,K7K 6C7,44.2600480,-76.5060225
178,Railway Street,K7K 2L9,44.2472740,-76.4949950
210,University Avenue,K7L 3P7,44.2303625,-76.4958840
236,Nelson Street,K7K 4M7,44.2378175,-76.5023195
195,Concession Street,K7K 2B4,44.2415757,-76.5040602
840,Princess Street,K7L 1G3,44.2394580,-76.5085835
512,Frontenac Street,K7K 4M1,44.2367540,-76.4995385
490,Princess Street,K7L 1C5,44.2344045,-76.4960695
208,Division Street,K7K 3Z1,44.2342780,-76.4934480
500,Princess Street,K7L 1C5,44.2344050,-76.4964941
51,Elm Street,K7K 1M8,44.2366659,-76.4955202
1300,Bath Road,K7M 4X4,44.2390840,-76.5445570
945,Gardiners Road,K7M 7H4,44.2557985,-76.5714110
72,Gilmour Avenue,K7M 9G6,44.2420853,-76.5254563
30,Lyons Street,K7K 0C9,44.2550280,-76.5005426
41,Baiden Street,K7M 2J9,44.2218684,-76.5210508
301,Johnson Street,K7L 1Y5,44.2314315,-76.4907452
4075,Bath Road,K7M 4Y6,44.2414074,-76.6116248
1066,Hudson Drive,K7M 5K8,44.2486771,-76.5934432
1586,Centennial Drive,K7P 0C7,44.2804425,-76.5704005
145,Kirkpatrick Street,K7K 2P4,44.2541322,-76.5025261
652,Princess Street,K7L 1E5,44.2371022,-76.5025326
705,Sir John A. Macdonald Boulevard,K7M 1A3,44.2441317,-76.5186820
1130,Midland Avenue,K7P 2X9,44.2650381,-76.5726777
205,Resource Road,K7P0K4,44.2775505,-76.5610428
205,Resource Road,K7P0K4,44.2774790,-76.5621097
495,Princess Street,K7L 1C5,44.2349145,-76.4957451
1224,Highway 15,K7L 0C4,44.2696594,-76.4510813
125,Innovation Drive,K7K 7E6,44.2706129,-76.4485485
130,Johnson Street,K7L 1X8,44.2294378,-76.4847685
11,Princess Street,K7L 1A1,44.2312106,-76.4789961
27,Alamein Drive,K7L 4R7,44.2343801,-76.5120697
225,Gore Road,K7L 0C3,44.2581359,-76.4572411
28,Alamein Drive,K7L 4R6,44.2343306,-76.5131250
1753,Highway 2,K7L 4V1,44.2636789,-76.3772636
484,Albert Street,K7L 3W3,44.2362671,-76.5012275
484,Albert Street,K7L 3W3,44.2362828,-76.5009302
481,Discovery Avenue,K7K 7E8,44.2728549,-76.4426630
1690,Bath Road,K7M 4X9,44.2377962,-76.5703615
494,Days Road,K7M 5R4,44.2360572,-76.5704384
496,Days Road,K7M 5R4,44.2360492,-76.5697186
15,Crerar Boulevard,K7M 3P7,44.2168817,-76.5687946
205,Rideau Street,K7K 3H6,44.2386900,-76.4822225
215,Resource Road,K7P 0K1,44.2778410,-76.5591021
20,Amiens Ave,K7K 7B4,44.2299269,-76.4692054
800,Edgar Street,K7M 8S4,44.2504025,-76.5522315
275,Sydenham Street,K7K 1G7,44.2353169,-76.4858454
655,Princess Street,K7L 1E6,44.2382925,-76.5036950
94,University Avenue,K7L 3N6,44.2274081,-76.4960495
720,Princess Street,K7L 1G2,44.2379035,-76.5047914
183,University Avenue,K7L 3P5,44.2293080,-76.4953080
