House number,Street name,Postal code,Latitude,Longitude
175,West Avenue,N2G 1R9,43.4450531,-80.5060945
175,West Avenue,N2G 1R9,43.4448709,-80.5059939
87,Water Street North,N2H 5A6,43.4540371,-80.4927948
45,Duke Street West,N2H 3W6,43.4514171,-80.4901238
96,King Street West,N2G 1A6,43.4506072,-80.4907762
198,King Street West,N2G 1A9,43.4511915,-80.4923103
185,King Street West,N2G 1A6,43.4509264,-80.4924709
1111,Weber Street East,N2A 2Y2,43.4345305,-80.4491321
1221,Weber Street East,N2A 1C2,43.4333028,-80.4458146
50,Sportsworld Crossing Road,N2P 0A4,43.4098190,-80.3951117
509,Wilson Avenue,N2C 2M4,43.4192659,-80.4428997
509,Wilson Avenue,N2C 2M4,43.4191715,-80.4434581
509,Wilson Avenue,N2C 2M4,43.4191337,-80.4436815
79,Victoria Street North,N2H 5C9,43.4541740,-80.4950042
79,Victoria Street North,N2H 5C1,43.4541156,-80.4948218
79,Victoria Street North,N2H 5C1,43.4541521,-80.4946247
125,King Street West,N2G 1A7,43.4504087,-80.4917710
153,King Street West,N2G 1A7,43.4507569,-80.4919864
115,King Street West,N2G 1A7,43.4505159,-80.4912709
98,King Street West,N2G 1A6,43.4506337,-80.4908257
74,King Street West,N2G 1A6,43.4505055,-80.4904447
78,King Street West,N2G 1A6,43.4505137,-80.4905078
82,King Street West,N2G 1A6,43.4505344,-80.4905629
90,King Street West,N2G 1A6,43.4505966,-80.4907024
274,Highland Road West,N2M 3C5,43.4397085,-80.5089161
10,King Street West,N2G 1A3,43.4500936,-80.4894857
301,Victoria Street South,N2G 4L2,43.4441351,-80.5074908
83,Ontario Street South,N2G 1X5,43.4492072,-80.4911343
31,King Street West,N2G 1A1,43.4498700,-80.4897772
352,King Street West,N2G 1B7,43.4522774,-80.4957426
875,Highland Road East,N2N 2Y2,43.4294287,-80.5273006
851,Fischer-Hallman Road,N2M 5N8,43.4425370,-80.5447045
200,Highland Road West,N2M 3C2,43.4409745,-80.5067820
130,Weber Street West,N2H 4A2,43.4561809,-80.4944419
2960,Kingsway Drive,N2C 1X1,43.4241975,-80.4394013
122,Frederick Street,N2H 2L9,43.4519348,-80.4856330
121,Charles Street West,N2G 1H6,43.4513244,-80.4976962
735,Belmont Avenue West,N2M 1P3,43.4543640,-80.5189215
729,Belmont Avenue West,N2M 1P3,43.4542919,-80.5188758
683,Belmont Avenue West,N2M 1N8,43.4531837,-80.5181377
714,Belmont Avenue West,N2M 1P2,43.4541154,-80.5181258
728,Belmont Avenue West,N2M 1P2,43.4543966,-80.5183165
720,Belmont Avenue West,N2M 1P2,43.4542487,-80.5182170
722,Belmont Avenue West,N2M 1P2,43.4542900,-80.5182456
726,Belmont Avenue West,N2M 1P2,43.4543542,-80.5182912
724,Belmont Avenue West,N2M 1P2,43.4543188,-80.5182648
730,Belmont Avenue West,N2M 1P2,43.4544390,-80.5183442
713,Belmont Avenue West,N2M 1P1,43.4539229,-80.5186103
703,Belmont Avenue West,N2M 1P1,43.4536943,-80.5184549
530,Belmont Avenue West,N2M1P1,43.4487849,-80.5146344
530,Belmont Avenue West,N2M 5E3,43.4488350,-80.5146649
35,David Street,N2G 4X7,43.4477975,-80.4931008
25,Joseph Street,N2G 4X6,43.4482016,-80.4922169
25,Joseph Street,N2G 4X6,43.4478745,-80.4925755
15,Charles Street West,N2G 1H3,43.4496552,-80.4921883
165,Highlang Road East,N2M 3W1,43.4384347,-80.4929313
159,Highland Road East,N2M 3W1,43.4385080,-80.4933694
58,Queen Street South,N2G 1V6,43.4491406,-80.4899014
14,Charles Street West,N2G 1H2,43.4497182,-80.4916374
1,King Street West,N2G 1A1,43.4498402,-80.4895189
16,Charles Street West,N2G 1H2,43.4498035,-80.4917102
250,King Street West,N2G 1B0,43.4518340,-80.4933887
15,King Street West,N2G 1A1,43.4497948,-80.4894099
20,Weber Street East,N2H 1C3,43.4519637,-80.4865703
3,Charles Street West,N2G 1H1,43.4490651,-80.4905144
891,Guelph Street,N2H 5Z2,43.4668950,-80.4781831
800,King Street West,N2G 1B7,43.4562518,-80.5081853
5,Hill Street,N2H 5T4,43.4642928,-80.4827525
370,Highland Road West,N2M 5J9,43.4384664,-80.5118701
280,Victoria Street North,N2H 5E2,43.4578859,-80.4851346
875,Highland Road West,N2N 2Y2,43.4286289,-80.5251753
750,Ottawa Street South,N2E 1B6,43.4238573,-80.4871989
30,Duke Street West,N2H 3W5,43.4514531,-80.4892204
805,Victoria Street South,N2M 5N9,43.4376941,-80.5250078
501,Krug Street,N2B 1L3,43.4561090,-80.4610113
103,Ontario Street South,N2G 1X5,43.4486478,-80.4913911
800,King Street East,N2G 2M6,43.4441138,-80.4762067
333,Carwood Avenue,N2G 3C5,43.4330310,-80.4711066
235,Ira Needles Boulevard,N2N 0B2,43.4252293,-80.5542338
215,Highland Road West,N2M 3C1,43.4402377,-80.5055362
50,Queen Street South,N2G 1V6,43.4492116,-80.4898601
46,Queen Street South,N2G 1V6,43.4492506,-80.4898158
655,Fairway Road South,N2C 1X4,43.4194528,-80.4497837
24,Gaukel Street,N2G 1Y7,43.4503938,-80.4930285
27,Gaukel Street,N2G 1Y6,43.4501956,-80.4928864
192,Victoria Street South,N2G 2B9,43.4477219,-80.5035561
26,Elm Street,N2G 2G4,43.4531491,-80.5107191
18,Ontario Street North,N2H 4Y4,43.4506426,-80.4902628
16,King Street East,N2G 2K6,43.4497917,-80.4887827
20,King Street East,N2G 2K6,43.4497717,-80.4887306
30,Ontario Street North,N2H 4Y4,43.4507916,-80.4901639
36,Ontario Street North,N2H 4Y4,43.4508492,-80.4901210
30,Ontario Street South,N2G 1A6,43.4499614,-80.4908581
73,King Street West,N2G 1A7,43.4502206,-80.4906384
87,Ontario Street South,N2G 1X5,43.4491709,-80.4911635
77,Ontario Street South,N2G 1X5,43.4492936,-80.4910810
296,Highland Road East,N2M 3W4,43.4353782,-80.4901934
296,Highland Road East,N2M 3W4,43.4353266,-80.4901491
217,King Street West,N2G 1B1,43.4511236,-80.4931783
213,King Street West,N2G 1B1,43.4511099,-80.4930497
207,King Street West,N2G 1B1,43.4510906,-80.4929903
201,King Street West,N2G 1B1,43.4510634,-80.4928991
195,King Street West,N2G 1B1,43.4510302,-80.4928270
165,King Street West,N2G 1A7,43.4508230,-80.4922242
147,King Street West,N2G 1A7,43.4506998,-80.4918385
109,King Street West,N2G 1A7,43.4504641,-80.4912147
103,King Street West,N2G 1A7,43.4504387,-80.4911071
95,King Street West,N2G 1A7,43.4503924,-80.4909311
87,King Street West,N2G 1A7,43.4503515,-80.4908592
3,Charles Street West,N2G 1H1,43.4490031,-80.4905686
84,Queen Street South,N2G 1V9,43.4488751,-80.4902307
426,King Street East,N2G 2L5,43.4469196,-80.4821432
14,Duke Street East,N2H 1A3,43.4507721,-80.4877413
2,Duke Street East,N2H 1A3,43.4509094,-80.4880860
6,Duke Street East,N2H 1A3,43.4508773,-80.4880068
30,Queen Street North,N2H 6N2,43.4506851,-80.4885706
18,Duke Street East,N2H 1A3,43.4507059,-80.4875817
29,King Street East,N2G 2K4,43.4494520,-80.4886158
151,King Street West,N2G 1A7,43.4507381,-80.4919016
157,King Street West,N2G 1A7,43.4507754,-80.4920654
60,College Street,N2H 5A1,43.4533318,-80.4923199
101,Frederick Street,N2H 6R2,43.4514157,-80.4856253
18,Charles Street West,N2G 1H2,43.4499514,-80.4917220
1400,Ottawa Street South,N2E 4E2,43.4164110,-80.5173719
450,Frederick Street,N2H 2P5,43.4586797,-80.4726832
161,Fallowfield Drive,N2C 0B2,43.4179810,-80.4631673
150,Pioneer Drive,N2P 2C2,43.3943152,-80.4371359
200,Gage Avenue,N2M 2C8,43.4468669,-80.5143785
470,Highland Road West,N2M 3C7,43.4366619,-80.5146817
89,Ontario Street South,N2G 1X5,43.4491492,-80.4911935
93,Ontario Street South,N2G 1X5,43.4491139,-80.4912235
151,Victoria Street North,N2H 5C5,43.4555511,-80.4911395
470,Highland Road West,N2M 5J9,43.4364985,-80.5151510
470,Highland Road West,N2M 3C7,43.4366154,-80.5143785
385,Fairway Road South,N2C 2N9,43.4207083,-80.4422193
301,King Street East,N2G 2L2,43.4474975,-80.4841059
300,King Street West,N2G 1B7,43.4518952,-80.4946510
836,Courtland Avenue East,N2C 1K3,43.4286724,-80.4673432
685,Fischer-Hallman Road,N2E 4R9,43.4156796,-80.5116471
2979,King Street East,N2A 1A9,43.4285360,-80.4333329
1450,Block Line Road,N2C 0A5,43.4188454,-80.4699866
2,King Street West,N2G 1A3,43.4499935,-80.4892378
1405,Ottawa Street North,N2A 3Z1,43.4557593,-80.4303504
205,Templewood Drive,N2R 0A3,43.3941622,-80.4634546
15,Sorrento Street,N2R 0A4,43.3902653,-80.4808568
17,Sorrento Street,N2R 0A4,43.3902560,-80.4809110
19,Sorrento Street,N2R 0A4,43.3902429,-80.4809866
21,Sorrento Street,N2R 0A4,43.3902319,-80.4810509
23,Sorrento Street,N2R 0A4,43.3902176,-80.4811335
25,Sorrento Street,N2R 0A4,43.3902075,-80.4811921
25,Charles Street West,N2G 1H2,43.4498871,-80.4921542
232,Bleams Road,N2C 2K6,43.4113209,-80.4577341
1500,Highland Road West,N2N 3K6,43.4236218,-80.5534346
1200,Victoria Street North,N2B 3C9,43.4680452,-80.4533439
1232,Victoria Street North,N2B 3C9,43.4689961,-80.4527691
156,Fifth AVenue,N2C 1P7,43.4305049,-80.4540219
72,St. Leger Street,N2H 6R4,43.4593025,-80.4856003
1221,Weber Street East,N2A 1C2,43.4330475,-80.4456617
215,The Boardwalk,N2N 0B1,43.4353658,-80.5608219
205,The Boardwalk,N2N 0B1,43.4350350,-80.5604523
50,Kent Avenue,N2G 3R1,43.4430448,-80.4778198
8,Duke Street East,N2H 1A3,43.4508313,-80.4878951
1095,Weber Street East,N2A 1B7,43.4348933,-80.4499541
151,Charles Street West,N2G 1H6,43.4505886,-80.4976813
122,Indian Road,N2B 2S5,43.4554780,-80.4384190
3,Caprice Court,N2M 5M2,43.4346686,-80.5249507
35,Caprice Court,N2M 5M2,43.4337577,-80.5255792
1401,River Road East,N2A 3X9,43.4338271,-80.4279971
4283,King Street East,N2P 2E9,43.4085491,-80.3987592
72,St. Leger Street,N2H 6R4,43.4593896,-80.4860247
265,King Street East,N2G 4N4,43.4477055,-80.4848372
200,Deer Ridge Drive,N2P 2K5,43.4077449,-80.4102620
180,Westheights Drive,N2N 1J9,43.4241374,-80.5296072
259,Gage Avenue,N2M 2C9,43.4468851,-80.5172290
151,Charles Street West,N2G 1H6,43.4510128,-80.4988923
92,Ethel Street,N2B 1Z9,43.4607693,-80.4664068
3101,Kingsway Dr,N2C 2M5,43.4230138,-80.4439581
3101,Kingsway Drive,N2C 2M5,43.4229315,-80.4440657
179,King Street West,N2G 1A9,43.4508775,-80.4923499
305,King Street West,N2G 1B9,43.4516462,-80.4950712
305,King Street West,N2G 1B8,43.4515780,-80.4948003
88,Queen Street South,N2G 1V9,43.4488529,-80.4902554
94,Queen Street South,N2G 1V9,43.4487906,-80.4903264
98,Queen Street South,N2G 1V9,43.4487585,-80.4903694
108,Queen Street South,N2G 1V9,43.4486397,-80.4904941
102,Queen Street South,N2G 1V9,43.4486806,-80.4904458
77,Water Street North,N2H 5A6,43.4538462,-80.4929405
77,Water Street North,N2H 5A6,43.4539066,-80.4929057
77,Water Street North,N2H 5A6,43.4538559,-80.4928574
50,Ontario Street South,N2G 1X4,43.4496686,-80.4910803
7,Duke Street West,N2H 6N7,43.4508754,-80.4885950
30,Queen Street North,N2H 6N2,43.4506936,-80.4886343
30,Queen Street North,N2H 6N2,43.4507404,-80.4885779
281,King Street West,N2G 1B1,43.4515282,-80.4944417
306,King Street West,N2G 1B7,43.4519225,-80.4947458
308,King Street West,N2G 1B7,43.4519544,-80.4948415
8,Water Street North,N2H 5A5,43.4520207,-80.4945650
10,Water Street North,N2H 5A5,43.4521083,-80.4945543
12,Water Street North,N2H 5A5,43.4521881,-80.4945194
328,King Street West,N2G 1B7,43.4520808,-80.4952518
151,Charles Street West,N2G 1H6,43.4513882,-80.4989687
1754,Old Mill Road,N2P 1H7,43.3947969,-80.4187071
250,King Street West,N2G 1B6,43.4516459,-80.4938001
2161,Kingsway Drive,N2C 1A1,43.4345523,-80.4527912
1450,Block Line Road,N2C 0A5,43.4190533,-80.4689658
58,Queen Street South,N2G 1V6,43.4491703,-80.4900211
50,Kent Avenue,N2G 3R1,43.4429469,-80.4779917
50,Kent Avenue,N2G 3R1,43.4426518,-80.4780909
100,Ahrens Street West,N2H 4C3,43.4560154,-80.4916290
100,Ahrens Street West,N2H 4C3,43.4560216,-80.4915753
273,King Street West,N2G 1B1,43.4514738,-80.4943398
315,Lancaster Street West,N2H 4V4,43.4690880,-80.4850428
971,Victoria Street North,N2B 3C6,43.4644490,-80.4623795
22,Ontario Street North,N2H 4Y4,43.4507147,-80.4902136
32,Ontario Street North,N2H 4Y4,43.4508209,-80.4901439
1080,Victoria Street North,N2B 3C4,43.4658821,-80.4600271
607,Victoria Street North,N2H 5G3,43.4605234,-80.4747043
593,Victoria Street North,N2H 5E9,43.4604468,-80.4757033
366,Victoria Street North,N2H 5E6,43.4589620,-80.4821920
504,Lancaster Street West,N2K 1L9,43.4761027,-80.4839166
244,Margaret Avenue,N2H 4J5,43.4630521,-80.4937149
2430,Homer Watson Road,N2P 2R6,43.3865665,-80.4127323
4574,King Street East,N2P 2G6,43.4045384,-80.3853723
4319,King Street East,N2P 2E9,43.4080767,-80.3978536
585,Doon Village Road,N2P 1T6,43.3985930,-80.4473880
1241,Weber Street East,N2A 1C2,43.4332927,-80.4449827
1025,Ottawa Street North,N2A 1H3,43.4505820,-80.4437830
1015,Ottawa Street North,N2A 1H1,43.4504363,-80.4445818
1450,Block Line Road,N2C 0A5,43.4190106,-80.4697482
1178,Fischer-Hallman Road,N2E 3Z3,43.4067620,-80.4996590
795,Ottawa Street South,N2E 0A5,43.4223003,-80.4875508
30,Duke Street West,N2H 3W5,43.4515015,-80.4891924
2934,King Street East,N2A 1A7,43.4297214,-80.4345654
4336,King Street East,N2P 3W6,43.4078224,-80.3964143
4336,King Street East,N2P 3W6,43.4078941,-80.3964831
4336,King Street East,N2P 3W6,43.4081247,-80.3967043
4336,King Street East,N2P 3W6,43.4079844,-80.3965698
470,Highland Road West,N2M 3C7,43.4366267,-80.5148128
470,Highland Road West,N2M 3C7,43.4365708,-80.5143266
470,Highland Road West,N2M 3C7,43.4362950,-80.5140667
470,Highland Road West,N2M 3C7,43.4363525,-80.5141043
470,Highland Road West,N2M 3C7,43.4364148,-80.5141633
470,Highland Road West,N2M 3C7,43.4364674,-80.5142089
470,Highland Road West,N2M 3C7,43.4365472,-80.5142920
50,Borden Avenue South,N2G 3R5,43.4416137,-80.4751965
50,Borden Avenue South,N2G 3R5,43.4418773,-80.4749530
50,Borden Avenue South,N2G 3R5,43.4418109,-80.4747973
1500,Block Line Road,N2C 2S2,43.4201949,-80.4677300
1500,Block Line Road,N2C 2S2,43.4199914,-80.4672937
185,Windale Crescent,N2E 0G3,43.4198666,-80.5088081
55,Victoria Street North,N2H 5B7,43.4537452,-80.4960707
1450,Block Line Road,N2C 0A5,43.4190024,-80.4683773
44,Carlyle Place,N2P 1R6,43.3939948,-80.4542544
585,Queen Street South,N2G 4S4,43.4431089,-80.4954313
1572,Victoria Street North,N2B 3E5,43.4738061,-80.4364414
44,Carlyle Place,N2P 1R6,43.3940585,-80.4541380
601,Doon Village Road,N2P 1T6,43.3980882,-80.4474387
4336,King Street East,N2P 3W6,43.4076330,-80.3961966
670,King Street West,N2G 1E1,43.4548270,-80.5038482
23,Water Street North,N2H 5A4,43.4525006,-80.4936110
117,King Street West,N2G 1A7,43.4505460,-80.4913584
141,Ontario Street North,N2H 4Y5,43.4519043,-80.4888812
10,Pioneer Drive,N2P 2A4,43.3964299,-80.4311121
119,King Street West,N2G 1A7,43.4505087,-80.4913516
97,King Street West,N2G 1A7,43.4504157,-80.4910074
133,Hollinger Crescent,N2K 2Z2,43.4806315,-80.4602789
137,King Street East,N2G 2K8,43.4487368,-80.4869097
183,King Street East,N2G 2K8,43.4484361,-80.4861969
148,Manitou Drive,N2C 1L3,43.4102091,-80.4484059
1080,Victoria Street North,N2B 3C4,43.4664370,-80.4597402
248,Stirling Avenue South,N2M 3H5,43.4405088,-80.4858210
137,Glasgow Street,N2G 4X8,43.4510309,-80.5141361
188,Highland Road West,N2M 3C2,43.4408625,-80.5057334
188,Highland Road West,N2M 3C2,43.4408392,-80.5058971
200,Highland Road West,N2M 3C2,43.4408293,-80.5063999
4341,King Street East,N2P 2E9,43.4077069,-80.3976386
72,St. Leger Street,N2H 6R4,43.4591560,-80.4857656
20,Hurst Avenue,N2G 2Z7l,43.4408592,-80.4802165
20,Hurst Avenue,N2G 2Z7,43.4409939,-80.4804615
132,Queen Street South,N2G 1V9,43.4486318,-80.4908738
132,Queen Street South,N2G 1V9,43.4485948,-80.4909556
380,Courtland Avenue East,N2G 2W2,43.4385551,-80.4791694
325,Max Becker Drive,N2E 4H5,43.4049983,-80.5006704
517,Victoria Street South,N2M 3A8,43.4416600,-80.5147189
155,Highland Road East,N2M 3W1,43.4385745,-80.4934563
126,Weber Street West,N2H 3Z9,43.4556250,-80.4931286
50,Ontario Street South,N2G 1X4,43.4497181,-80.4910447
283,Duke Street West,N2H 3X7,43.4550494,-80.4969391
325,Max Becker Drive,N2E 4H5,43.4050687,-80.5005568
165,King Street West,N2H 1A7,43.4508052,-80.4921760
924,Windflower Place,N2E 4B3,43.4141806,-80.5222267
73,Queen Street North,N2H 2H1,43.4522082,-80.4866141
137,Glasglow Street,N2G 4X8,43.4498938,-80.5130861
4336,King Street East,N2P 3W6,43.4075031,-80.3960341
1,King Street West,N2G 1B7,43.4498157,-80.4894550
235,The Boardwalk,N2N 0B1,43.4360068,-80.5614982
305,King Street West,N2G 1B9,43.4515741,-80.4950016
675,Belmont Avenue West,N2M 1M8,43.4529618,-80.5179722
44,Gaukel Street,N2G 4P3,43.4499051,-80.4935667
1335,Weber Street East,N2A 3A7,43.4330866,-80.4415973
300,Mill Street,N2M 5G8,43.4364569,-80.4846198
300,Mill Street,N2M 5G8,43.4365043,-80.4845526
300,Mill Street,N2M 5G8,43.4365746,-80.4844739
300,Mill Street,N2M 5G8,43.4366024,-80.4844354
300,Mill Street,N2M 5G8,43.4366571,-80.4843704
300,Mill Street,N2M 5G8,43.4366475,-80.4842234
300,Mill Street,N2M 5G8,43.4366059,-80.4841570
132,Ahrens Street West,N2H 4C7,43.4579272,-80.4931169
132,Ahrens Street West,N2H 4C7,43.4578692,-80.4930842
223,Louisa Street,N2H 5M6,43.4579769,-80.4945285
875,Highland Road West,N2N 2Y2,43.4287450,-80.5251458
91,Moore Avenue,N2H 3S4,43.4578998,-80.5032872
91,Moore Avenue,N2H 3S4,43.4578314,-80.5032835
326,Wellington Street North,N2H 5K9,43.4598377,-80.4873411
105,King Street East,N2G 2K8,43.4489912,-80.4875589
90,Queen Street South,N2G 1V9,43.4488167,-80.4902871
161,Rochefort Street,N2R 0N1,43.3856697,-80.4777397
163,Rochefort Street,N2R 0N1,43.3857643,-80.4777824
185,Rochefort Street,N2R 0N1,43.3863330,-80.4779958
151,Rochefort Street,N2R 0N1,43.3852478,-80.4778201
173,Rochefort Street,N2R 0N1,43.3859932,-80.4778710
153,Rochefort Street,N2R 0N1,43.3854734,-80.4776988
175,Rochefort Street,N2R 0N1,43.3861074,-80.4779173
4341,King Street East,N2P 2E9,43.4076178,-80.3974595
4341,King Street East,N2P 2E9,43.4078283,-80.3976285
4341,King Street East,N2P 2E9,43.4077231,-80.3975346
4319,King Street East,N2P 2E9,43.4082998,-80.3981408
4275,King Street East,N2P 2E9,43.4080994,-80.3999507
4287,King Street East,N2P 2E9,43.4096677,-80.3992674
537,Frederick Street,N2B 1L0,43.4593242,-80.4685723
2153,Kingsway Drive,N2C 1A1,43.4346046,-80.4529224
1120,Victoria Street North,N2B 3T2,43.4669925,-80.4579732
1120,Victoria Street North,N2B 3T2,43.4670292,-80.4578926
309,Lancaster Street West,N2H 4V4,43.4690083,-80.4848303
85,Weber Street West,N2H 3Z4,43.4538726,-80.4923305
1241,Weber Street East,N2A 1C2,43.4330423,-80.4450434
1241,Weber Street East,N2A 1C2,43.4329205,-80.4452352
1241,Weber Street East,N2A 1C2,43.4330734,-80.4452382
1572,Victoria Street North,N2B 3E5,43.4738382,-80.4369649
146,King Street West,N2G 1A6,43.4509478,-80.4917238
150,King Street West,N2G 1A6,43.4509597,-80.4917710
125,King Street West,N2G 1A7,43.4503553,-80.4916084
1,King Street West,N2G 1A3,43.4498728,-80.4895941
1,King Street East,N2G 2K4,43.4496251,-80.4890669
210,Pioneer Tower Road,N2P 2H8,43.4064321,-80.4059143
276,King Street West,N2G 1B6,43.4517336,-80.4941288
751,Victoria Street South,N2M 5N4,43.4389906,-80.5215477
137,Glasgow Street,N2G 4X8,43.4519687,-80.5141522
299,Lancaster Street West,N2H 4V4,43.4687231,-80.4844954
309,Lancaster Street West,N2H 4V4,43.4690096,-80.4847006
1120,Victoria Street North,N2B 3T2,43.4670444,-80.4580954
40,Francis Street South,N2G 2A2,43.4510268,-80.4972003
44,Francis Street South,N2G 2A2,43.4505414,-80.4975088
116,Bridge Street East,N2K 1J6,43.4780980,-80.4724796
663,Victoria Street North,N2H 5G3,43.4611483,-80.4722550
1253,Victoria Street North,N2B 3E1,43.4683441,-80.4504906
1005,Ottawa Street North,N2A 1H1,43.4490384,-80.4442016
283,Duke Street West,N2H 3X7,43.4545876,-80.4974793
283,Duke Street West,N2H 3X7,43.4550928,-80.4969522
283,Duke Street West,N2H 3X7,43.4550987,-80.4966411
4,King Street East,N2G 2K6,43.4498741,-80.4889700
8,Water Street North,N2H 5A5,43.4519797,-80.4946013
580,Lancaster Street West,N2K 1M3,43.4799523,-80.4840719
11,Paulander Drive,N2M 5B6,43.4398374,-80.5142467
276,King Street West,N2G 1B6,43.4521018,-80.4941573
740,Belmont Avenue West,N2M1P2,43.4545667,-80.5182842
72,Breithaupt Street,N2H 6R4,43.4591801,-80.4858954
900,Fairway Crescent,N2A 0A1,43.4425736,-80.4149367
235,Ardelt Avenue,N2C 2M3,43.4230519,-80.4727717
1020,Ottawa Street North,N2A 3Z3,43.4522106,-80.4440517
121,Washburn Drive,N2R 1S1,43.4001903,-80.4912515
132,Queen Street South,N2G 1V9,43.4485075,-80.4910329
935,Frederick Street,N2B 2P9,43.4661123,-80.4566406
501,Krug Street,N2B 1L3,43.4566809,-80.4605709
501,Krug Street,N2B 1L3,43.4570208,-80.4606757
501,Krug Street,N2B 1L3,43.4562773,-80.4609232
501,Krug Street,N2B 1L3,43.4563975,-80.4615513
501,Krug Street,N2B 1L3,43.4561629,-80.4613196
180,Otterbein Road,N2B 0A8,43.4683913,-80.4348895
49,Frederick Street,N2H 6M7,43.4500239,-80.4867749
669,Belmont Avenue West,N2M 1N8,43.4528410,-80.5178937
710,Belmont Avenue West,N2M 1P2,43.4540571,-80.5181277
681,Belmont Avenue West,N2M 1M8,43.4531367,-80.5180949
677,Belmont Avenue West,N2M 1M8,43.4530589,-80.5180364
665,Belmont Avenue West,N2M 1N8,43.4527369,-80.5178145
657,Belmont Avenue West,N2M 1N7,43.4522965,-80.5176172
651,Belmont Avenue West,N2M 1N7,43.4522126,-80.5174965
740,Belmont Avenue West,N2M 1P2,43.4547575,-80.5183779
667,Belmont Avenue West,N2M 1N8,43.4527849,-80.5178412
663,Belmont Avenue West,N2M 1N8,43.4526826,-80.5177790
732,Belmont Avenue West,N2M 1P2,43.4544684,-80.5183765
712,Belmont Avenue West,N2M 1P2,43.4540994,-80.5181296
716,Belmont Avenue West,N2M 1P2,43.4541582,-80.5181534
718,Belmont Avenue West,N2M 1P2,43.4542023,-80.5181807
1414,Huron Road,N2R 0L3,43.3826193,-80.4893458
91,Dahlia Street,N2E 3Y7,43.4119338,-80.5259776
35,Westmount Road East,N2M 4Y2,43.4324871,-80.5101623
37,Westmount Road East,N2M 4Y2,43.4324484,-80.5101522
39,Westmount Road East,N2M 4Y2,43.4323921,-80.5101375
47,Westmount Road East,N2M 4Y2,43.4323352,-80.5101227
49,Westmount Road East,N2M 4Y2,43.4322631,-80.5101039
51,Westmount Road East,N2M 4Y2,43.4322074,-80.5100894
11,Westmount Road East,N2M 4Y2,43.4329465,-80.5102877
15,Westmount Road East,N2M 4Y2,43.4328847,-80.5102709
17,Westmount Road East,N2M 4Y2,43.4328254,-80.5102548
23,Westmount Road East,N2M 4Y2,43.4327616,-80.5102375
25,Westmount Road East,N2M 4Y2,43.4326975,-80.5102201
27,Westmount Road East,N2M 4Y2,43.4326431,-80.5102054
1249,Queen's Boulevard,N2M 1C6,43.4331501,-80.5102974
1251,Queen's Boulevard,N2M 1C6,43.4331258,-80.5103659
1253,Queen's Boulevard,N2M 1C6,43.4331026,-80.5104314
1255,Queen's Boulevard,N2M 1C6,43.4330805,-80.5104936
1257,Queen's Boulevard,N2M 1C6,43.4330566,-80.5105610
1259,Queen's Boulevard,N2M 1C6,43.4330348,-80.5106227
1261,Queen's Boulevard,N2M 1C6,43.4330107,-80.5106906
27,Scott Street,N2H 2P8,43.4491496,-80.4850657
1,Queen Street North,N2H 2G7,43.4501287,-80.4887742
150,Victoria Street South,N2G 2B5,43.4490349,-80.5020867
79,Joseph Street,N2G 1J2,43.4490333,-80.4940860
7,Moyer Place,N2H 2S6,43.4487211,-80.4845277
305,Joseph Street,N2G 4B6,43.4520086,-80.5031481
2,Stewart Street,N2G 2E4,43.4515676,-80.5039890
47,Shirley Avenue,N2B 2E2,43.4667656,-80.4643305
12,Shirley Avenue,N2B 2E1,43.4657468,-80.4654193
1791,Glasgow Street,N2G 3W7,43.4244592,-80.5601246
1,Queen Street North,N2H 2G7,43.4501822,-80.4887395
325,Max Becker Drive,N2E 4H5,43.4049502,-80.5007630
325,Max Becker Drive,N2E 4H5,43.4048026,-80.5009960
325,Max Becker Drive,N2E 4H5,43.4047647,-80.5010505
245,Strasburg Road,N2E 3W7,43.4258095,-80.4888179
192,McGarry Drive,N2E 1L7,43.4200892,-80.5272509
509,Wilson Avenue,N2C 2M4,43.4192967,-80.4438202
509,Wilson Avenue,N2C 2M4,43.4196108,-80.4439355
509,Wilson Avenue,N2C 2M4,43.4191512,-80.4435697
61,Highland Road West,N2M 3B7,43.4410784,-80.5003644
313,Highland Rd W,N2M 3C6,43.4384510,-80.5091595
39,Overland Drive,N2C2B3,43.4294154,-80.4705930
300,Mill Street,N2M 5G8,43.4365784,-80.4841013
147,King Street West,N2G 1A7,43.4505553,-80.4919297
608,Belmont Avenue West,N2M 2M2,43.4515562,-80.5164746
604,Belmont Avenue West,N2M 1N5,43.4513710,-80.5164269
1450,Block Line Road,N2C 0A5,43.4190065,-80.4685684
1450,Block Line Road,N2C 0A5,43.4190707,-80.4687533
565,Trillium Drive,N2R 1J4,43.3996968,-80.4728026
73,King Street West,N2G 1A7,43.4501572,-80.4908379
8,Queen Street North,N2H 2G8,43.4504412,-80.4891644
385,Frederick Street,N2H 2P2,43.4562335,-80.4721648
385,Frederick Street,N2H 2P2,43.4558677,-80.4729623
330,Mill Street,N2M 3R7,43.4354820,-80.4840527
35,Dekay Street,N2H 3T4,43.4584098,-80.5027432
18,Queen Street South,N2G 1V6,43.4496320,-80.4893763
137,Glasgow Street,N2G 4X8,43.4518446,-80.5134080
274,Courtland Avenue East,N2G 2V7,43.4407273,-80.4831643
1770,King Street East,N2G 2P1,43.4377909,-80.4600658
6,Upper Mercer Street,N2A 0E4,43.4460130,-80.4090588
28,Benton Street,N2G 0B1,43.4485469,-80.4884754
259,King Street West,N2G 1B1,43.4514345,-80.4940657
259,King Street West,N2G 1B1,43.4514018,-80.4939555
345,King Street West,N2G 1B8,43.4518733,-80.4953554
272,Highland Road West,N2M 3C5,43.4400075,-80.5085247
97,St. Leger Street,N2H 6R4,43.4601395,-80.4875374
35,Shirk Place,N2K 1R3,43.4814256,-80.4866164
20,Shirk Place,N2K 1R4,43.4807486,-80.4852140
123,Breithaupt Street,N2H 5G9,43.4553823,-80.4951070
131,Weber Street West,N2H 4A1,43.4562293,-80.4951817
220,King Street West,N2G 1A9,43.4515213,-80.4931087
276,King Street West,N2G 1B6,43.4519338,-80.4942555
91,King Street West,N2G 1A7,43.4503285,-80.4909028
161,King Street West,N2G 1A7,43.4507501,-80.4920876
255,King Street West,N2G 4P9,43.4512593,-80.4936767
279,King Street West,N2G 3X9,43.4515194,-80.4943944
271,King Street West,N2G 1B1,43.4514457,-80.4941083
795,Ottawa Street South,N2E 0A5,43.4218581,-80.4884556
296,Highland Road East,N2M 3W4,43.4353191,-80.4901438
1401,River Road East,N2A 3X9,43.4335173,-80.4276377
1401,River Road East,N2A 3X9,43.4335786,-80.4277021
1401,River Road East,N2A 3X9,43.4336293,-80.4277611
1401,River Road East,N2A 3X9,43.4337754,-80.4279126
1335,Weber Street East,N2A 3A7,43.4330991,-80.4413985
247,Franklin Street North,N2A 1Y5,43.4404963,-80.4458724
28,Bloomingdale Road,N2K 1A2,43.4809151,-80.4763961
57,Bridge Street East,N2K 1J7,43.4800512,-80.4760931
169,Riverbend Drive,N2B 2E8,43.4676050,-80.4692942
465,Maple Avenue,N2H 4X2,43.4726097,-80.4830156
465,Maple Avenue,N2H 6N5,43.4726112,-80.4829714
1060,Guelph Street,N2B 2E3,43.4692734,-80.4728286
1060,Guelph Street,N2B 2B3,43.4692743,-80.4727820
100,Campbell Avenue,N2K 2R3,43.4724577,-80.4778458
100,Campbell Avenue,N2H 4X8,43.4723990,-80.4778362
5,Hill Street,N2G 3X4,43.4642981,-80.4826628
97,St. Leger Street,N2H 6R6,43.4601303,-80.4875889
741,King Street West,N2G 1E3,43.4554356,-80.5069408
607,King Street West,N2G 1C7,43.4531084,-80.5019192
690,Belmont Avenue West,N2M 1N6,43.4533036,-80.5176417
678,Belmont Avenue West,N2M 1N6,43.4530248,-80.5173764
50,Victoria Street North,N2H 5B9,43.4539732,-80.4974891
25,Water Street South,N2G 4Y5,43.4502628,-80.4950269
111,Duke Street West,N2H 6P6,43.4520506,-80.4925241
166,Frederick Street,N2G 4N1,43.4530042,-80.4840255
260,King Street West,N2G 1B1,43.4516444,-80.4937689
50,Queen Street North,N2H 6P4,43.4517257,-80.4881791
50,Queen Street North,N2H 6M2,43.4517553,-80.4881536
104,Ontario Street North,N2H 4Y6,43.4517546,-80.4895998
335,Gage Avenue,N2M 5E1,43.4462892,-80.5194136
1876,Huron Road,N2R 1R5,43.3780504,-80.5085844
1876,Huron Road,N2R 1R6,43.3780675,-80.5084940
31,Machado Street,N2R 0C1,43.3856038,-80.4789338
900,Guelph Street,N2H 5Z6,43.4670941,-80.4786520
795,Ottawa Street South,N2E 0A5,43.4217817,-80.4885118
21,Weber Street West,N2H 3Y9,43.4522435,-80.4886511
40,Lancaster Street West,N2H 4T1,43.4601353,-80.4827157
79,Highland Road East,N2M 3V8,43.4397879,-80.4954695
45,King Street West,N2G 1A1,43.4499823,-80.4899351
283,Duke Street West,N2H3X7,43.4550454,-80.4970773
501,Krug Street,N2B 1L3,43.4566268,-80.4606291
170,Gateway Park Drive,N2P 2J4,43.4060883,-80.3853100
4336,King Street East,N2P 3W6,43.4073297,-80.3958169
4336,Sportsworld Drive,N2P 3W6,43.4077526,-80.3963474
4336,Sportsworld Drive,N2P 3W6,43.4076981,-80.3962780
20,Beasley Drive,N2E 1Y6,43.4023661,-80.4577098
250,Trillium Drive,N2E 1X2,43.4033587,-80.4616568
250,Trillium Drive,N2E 1X2,43.4028768,-80.4614979
250,Trillium Drive,N2E 1X2,43.4031976,-80.4616032
875,Fischer-Hallman Road,N2N 2Y2,43.4311340,-80.5258807
50,Inverness Drive,N2M 4Z9,43.4497118,-80.5362056
709,King Street West,N2G 1E3,43.4542471,-80.5066044
310,Queen Street South,N2G 1K2,43.4466980,-80.4932515
215,Fairway Road South,N2C 1X2,43.4212177,-80.4371513
40,Sportsworld Drive,N2P 2J1,43.4081022,-80.3938293
70,Sportsworld Drive,N2P 2J1,43.4092595,-80.3932494
324,Highland Road West,N2M 5G2,43.4392576,-80.5100283
370,Highland Road West,N2M 5J9,43.4376534,-80.5122932
455,University Avenue West,N2N 3B9,43.4407812,-80.5466169
61,Green Street,N2G 4K9,43.4549686,-80.5102493
911,Queen's Boulevard,N2M 1B2,43.4379390,-80.5015998
25,Bruce Street,N2H 6K8,43.4618371,-80.4700351
56,Duke Street West,N2H 3W7,43.4521694,-80.4903543
385,Frederick Street,N2H 2P2,43.4569259,-80.4733092
101,Queen Street North,N2H 6P7,43.4543815,-80.4838656
598,Lancaster Street West,N2K1M3,43.4808041,-80.4831123
97,Victoria Street North,N2H 5C1,43.4543730,-80.4940367
83,Victoria Street North,N2H 5C1,43.4543423,-80.4946385
70,Victoria Street North,N2H 5C2,43.4546756,-80.4955344
111,Weber Street West,N2H 3Z6,43.4544613,-80.4938078
99,Weber Street West,N2G 3Z6;N2H 3Z6,43.4540929,-80.4934112
8,Bridge Street East,N2K 1J2,43.4809971,-80.4803173
1624,Highland Road West,N2N 3K7,43.4218333,-80.5588305
60,Westheights Drive,N2N 2A8,43.4286880,-80.5299627
251,Fischer-Hallman Road,N2M 4X8,43.4263397,-80.5233348
1644,Highland Road West,N2N 3K7,43.4217022,-80.5601612
61,Highland Crescent,N2M 5M7,43.4353819,-80.5171672
10,Highland Crescent,N2M 5C2,43.4358727,-80.5159141
65,Highland Crescent,N2M 5M8,43.4350785,-80.5180196
482,Belmont Avenue West,N2M 1N3,43.4470065,-80.5133557
144,Charles Street West,N2G 1H7,43.4519367,-80.4981184
546,Belmont Avenue West,N2M 5E3,43.4493285,-80.5148746
144,Brybeck Crescent,N2M 2C6,43.4440593,-80.5204645
137,Glasgow Street,N2G 4X8,43.4512996,-80.5133113
300,Gage Avenue,N2M 5C6,43.4457023,-80.5171055
151,Charles Street West,N2G 1H6,43.4509323,-80.4982154
195,Joseph Street,N2G 1J8,43.4503041,-80.4991963
386,Gage Avenue,N2M 5C9,43.4448082,-80.5209354
427,Gage Avenue,N2M 5E1,43.4454537,-80.5222314
69,Agnes Street,N2G 2E9,43.4519731,-80.5063238
81,York Street,N2G 1T6,43.4555831,-80.5163222
417,King Street West,N2G 1C2,43.4521960,-80.4971073
320,Gage Avenue,N2M 5C6,43.4452834,-80.5188135
125,Indian Road,N2B 2S8,43.4554570,-80.4376925
607,Heritage Drive,N2B 3J2,43.4551647,-80.4337878
40,McGee Avenue,N2B 2T3,43.4548272,-80.4367186
611,Heritage Drive,N2B 3J3,43.4545985,-80.4351171
80,McGee Avenue,N2B 2T2,43.4542745,-80.4356375
353,Bridge Street East,N2K 2Y5,43.4783829,-80.4632926
130,Birch Avenue,N2H 4W8,43.4698808,-80.4821656
1290,Victoria Street North,N2B 3C9,43.4698375,-80.4490236
250,Riverbend Drive,N2B 2E9,43.4700345,-80.4698844
7,Grand Avenue,N2K 1B2,43.4804594,-80.4754617
165,Hollinger Crescent,N2K 2Z2,43.4793500,-80.4596598
1326,Victoria Street North,N2B 3E2,43.4705258,-80.4472891
100,Hollinger Crescent,N2K 2Z3,43.4799951,-80.4615897
50,Dumart Place,N2K 3C7,43.4822222,-80.4584782
1420,Victoria Street North,N2B 3E2,43.4716387,-80.4437034
1197,Union Street,N2H 6N6,43.4713228,-80.4813558
10,Hollinger Crescent,N2K 2Z3,43.4787621,-80.4619093
300,Arnold Street,N2H 6E9,43.4707889,-80.4786457
1408-1412,Victoria Street North,N2B 3E2,43.4715135,-80.4440611
425,Bingemans Centre Drive,N2B 3X7,43.4748142,-80.4528073
55,Hollinger Crescent,N2K 2Y8,43.4802792,-80.4638695
25,Grand Avenue,N2K 1B2,43.4809838,-80.4739930
70,Dumart Place,N2K 3C7,43.4817318,-80.4603635
574,Lancaster Street West,N2K 1M3,43.4795803,-80.4840504
250,Shirley Avenue,N2B 2E1,43.4689639,-80.4580936
227,Riverbend Drive,N2B 2E8,43.4689281,-80.4705867
145,Hollinger Crescent,N2K 2Z2,43.4800064,-80.4598338
139,Hollinger Crescent,N2G 3X9,43.4804105,-80.4600751
30,Howard Place,N2K 2Z4,43.4794924,-80.4641573
30,Grand Avenue,N2K 1B3,43.4804770,-80.4735055
483,Bridge Street East,N2K 1K2,43.4793577,-80.4591088
352,Maple Avenue,N2H 4X3,43.4698211,-80.4804676
170,Hollinger Crescent,N2K 2Z3,43.4789430,-80.4607945
40,Dumart Place,N2K 3C7,43.4817345,-80.4581587
1214,Union Street,N2G 4G1,43.4727991,-80.4814715
501,Bridge Street East,N2K 3C5,43.4796267,-80.4584119
1486,Victoria Street North,N2B 3E2,43.4725406,-80.4406642
10,Dumart Place,N2K 3C7,43.4809744,-80.4602821
108,Birch Avenue,N2H 4W8,43.4693817,-80.4818703
47,Bridge Street East,N2K 1J7,43.4807228,-80.4768997
55,Howard Place,N2K 2Z4,43.4785710,-80.4647905
319,Bridge Street East,N2K 2Y5,43.4781475,-80.4640007
400,East Avenue,N2H 1Z6,43.4477572,-80.4660972
1414,King Street East,N2G 4T8,43.4402153,-80.4661598
815,Weber Street East,N2H 1H5,43.4382264,-80.4596645
317,Franklin Street North,N2A 1Y9,43.4425603,-80.4465972
9,Conway Drive,N2A 2C4,43.4468581,-80.4414396
371,Franklin Street North,N2A 1Y9,43.4444093,-80.4472747
400,East Avenue,N2H 1Z6,43.4472363,-80.4669928
41,Shirley Avenue,N2B 2E2,43.4665335,-80.4648811
842,Victoria Street North,N2B 3C1,43.4642009,-80.4664968
871,Victoria Street North,N2B 3S4,43.4631093,-80.4657049
315,Heritage Drive,N2B 3S1,43.4613552,-80.4412659
301,Heritage Drive,N2B 3R7,43.4617180,-80.4416577
907,Frederick Street,N2B 2B9,43.4654048,-80.4574243
9,Shirley Avenue,N2B 2E6,43.4662011,-80.4659514
809,Victoria Street North,N2B 3C3,43.4619814,-80.4685185
1244,Victoria Street North,N2B 3C9,43.4689527,-80.4516613
68,Shirley Avenue,N2G 4E1,43.4667142,-80.4631054
100,Shirley Avenue,N2B 2E1,43.4673953,-80.4617045
149,Confederation Drive,N2B 3J5,43.4603285,-80.4428934
1120,Victoria Street North,N2B 3T2,43.4668102,-80.4571782
144,Confederation Drive,N2B 3H7,43.4609365,-80.4423450
88,Bruce Street,N2B 2A9,43.4603666,-80.4679979
1120,Victoria Street North,N2B 3T2,43.4669230,-80.4584387
41,River Road East,N2B 2G3,43.4631270,-80.4642542
135,Confederation Drive,N2B 1W1,43.4609792,-80.4435106
5,Shirley Avenue,N2B 2E6,43.4667204,-80.4662637
1188,Victoria Street North,N2B 3C9,43.4679906,-80.4540755
396,Victoria Street North,N2H 5E6,43.4593980,-80.4810690
5,Johnston Street,N2G 4H9,43.4612879,-80.4793042
450,Frederick Street,N2H 2P5,43.4587223,-80.4728116
666,Victoria Street North,N2H 5G1,43.4619414,-80.4733893
1095,Guelph Street,N2B 2E4,43.4684832,-80.4719347
85,Edwin Street,N2H 4N7,43.4633046,-80.4881754
399,Breithaupt Street,N2H 5H8,43.4605075,-80.4818529
200,Frederick Street,N2G 4G3,43.4538020,-80.4828141
460,Frederick Street,N2H 2P5,43.4590224,-80.4723436
350,Margaret Avenue,N2H 4J8,43.4663109,-80.4959884
40,Lancaster Street West,N2H 4S9,43.4602244,-80.4827213
843,Guelph Street,N2H 5Z2,43.4660922,-80.4807133
55,Leonard Street,N2H 6C7,43.4664327,-80.4869213
221,Riverbend Drive,N2B 2E8,43.4685403,-80.4702703
166,Frederick Street,N2H 0A9,43.4530387,-80.4840183
809,Wellington Street North,N2G 4Y7,43.4628098,-80.4756893
220,Spring Valley Road,N2H 5X8,43.4675977,-80.4752934
77,Edwin Street,N2G 5G6,43.4630851,-80.4880067
29,Duke Street East,N2H 1A2,43.4503888,-80.4878069
130,Highland Road East,N2M 3V9,43.4395266,-80.4936533
50,Borden Avenue South,N2G 3R5,43.4417352,-80.4750894
305,King Street West,N2G 1B8,43.4515091,-80.4949901
249,Courtland Avenue East,N2G 2V6,43.4405493,-80.4843662
23,Water Street North,N2H 5A4,43.4523038,-80.4936728
675,Queen Street South,N2M 1A1,43.4419546,-80.4951803
44,Gaukel Street,N2G 4P3,43.4498851,-80.4935505
41,Weber Street West,N2H 3Z1,43.4526212,-80.4900351
270,Spadina Road East,N2M 3X6,43.4391366,-80.4922076
247,Madison Avenue South,N2M 3H5,43.4393550,-80.4878662
137,Queen Street South,N2G 1W2,43.4481434,-80.4903062
160,Courtland Avenue East,N2G 2V3,43.4428957,-80.4866378
565,Trillium Drive,N2R 1J4,43.3994175,-80.4727775
1548,Fischer-Hallman Road,N2E 4K6,43.3897596,-80.4901569
353,Manitou Drive,N2C 1L5,43.4047746,-80.4497372
50,Alpine Court,N2E 2M7,43.4243874,-80.4781714
20,Rittenhouse Road,N2G 4E3,43.4132052,-80.4836708
725,Ottawa Street South,N2E 3H5,43.4237634,-80.4842497
808,Courtland Avenue East,N2C 1K3,43.4292075,-80.4676852
2685,Kingsway Drive,N2C 1A7,43.4310392,-80.4435252
275,Mill Street,N2M 3R4,43.4358926,-80.4864031
2960,Kingsway Drive,N2C 1X1,43.4246372,-80.4389924
16,Cedarwoods Crescent,N2C 2L4,43.4272338,-80.4385846
22,Kevco Place,N2C 2G5,43.4084264,-80.4422988
250,Strasburg Road,N2E 3M6,43.4244421,-80.4910503
549,Fairway Road South,N2G 4A2,43.4198603,-80.4459770
836,Courtland Avenue East,N2C 1K3,43.4286168,-80.4672374
72,Wilson Avenue,N2C 1G5,43.4295425,-80.4589382
70,Radcliffe Drive,N2E 1Z5,43.4135040,-80.4956113
509,Wilson Avenue,N2C 2M4,43.4194091,-80.4434371
1255,Weber Street East,N2A 1C2,43.4328826,-80.4441391
11,Traynor Avenue,N2C 1W1,43.4277658,-80.4441081
51,Ardelt Avenue,N2C 2R5,43.4272430,-80.4790120
300,Mill Street,N2M 5G8,43.4366852,-80.4843446
4166,King Street East,N2P 2G5,43.4125473,-80.4005888
3849,King Street East,N2P 2E8,43.4172222,-80.4086127
396,Morrison Road,N2A 2Z6,43.4338936,-80.4210880
150,Pioneer Drive,N2P 2C2,43.3942765,-80.4370351
4500,King Street East,N2P 2G4,43.4068204,-80.3898711
4438,King Street East,N2G 3W6,43.4073017,-80.3914482
45,Sportsworld Drive,N2P 2J5,43.4074722,-80.3932619
1550,Victoria Street North,N2B 3E2,43.4733696,-80.4378854
283,Duke Street West,N2H 3X7,43.4548522,-80.4971958
28,Waterloo Street,N2H 3T9,43.4549006,-80.4984856
55,Victoria Street North,N2H 5B7,43.4538201,-80.4959849
340,Fairway Road South,N2C 1X3,43.4211593,-80.4450573
200,David Bergey Drive,N2E 3Y4,43.4061535,-80.5177058
535,Belmont Avenue West,N2M 5E9,43.4487045,-80.5156638
7,Moyer Place,N2H 2S6,43.4487035,-80.4844782
300,King Street East,N2G 2L3,43.4480321,-80.4834960
15,Joseph Street,N2G 1H9,43.4479651,-80.4918677
20,Queen Street South,N2G 1V6,43.4496581,-80.4895711
10A,Victoria Street South,N2G 1C5,43.4528095,-80.4990395
20,Water Street North,N2H 5A5,43.4525864,-80.4949597
254,Queen Street South,N2G 1W3,43.4471387,-80.4923241
279,Queen Street South,N2G 1W4,43.4465636,-80.4920752
112,Benton Street,N2G 3H6,43.4467501,-80.4906531
103,Ontario Street South,N2G 1X5,43.4487269,-80.4913078
175,West Avenue,N2G 1R9,43.4449445,-80.5060604
45,Water Street South,N2G 4Z2,43.4504374,-80.4944532
3,Charles Street West,N2G 1H1,43.4489956,-80.4905307
112,Queen Street South,N2G 1V9,43.4485908,-80.4906287
276,King Street West,N2G 3X9,43.4519010,-80.4940582
250,King Street West,N2G 1B6,43.4517501,-80.4935842
53,Water Street North,N2H 5A7,43.4534380,-80.4930576
149,Queen Street South,N2G 1W2,43.4479792,-80.4906846
171,Frederick Street,N2H 2M6,43.4521094,-80.4826286
700,Westmount Road East,N2M 1R9,43.4194500,-80.5010997
301,Charles Street East,N2G 2P8,43.4444832,-80.4816973
107,Courtland Avenue East,N2G 2T9,43.4428548,-80.4889803
113,Breithaupt Street,N2H 5G9,43.4554829,-80.4955504
105,Breithaupt Street,N2H 5G9,43.4553429,-80.4959349
286,Duke Street West,N2H 3X8,43.4552915,-80.4962787
102,Breithaupt Street,N2H 5H1,43.4559221,-80.4958631
108,Ahrens Street West,N2H 4C3,43.4564979,-80.4920262
130,Weber Street West,N2H 4A2,43.4563427,-80.4943469
150,Victoria Street North,N2H 5C6,43.4557937,-80.4915811
100,Ahrens Street West,N2H 4C3,43.4560278,-80.4916304
278,Weber Street East,N2H 1G2,43.4468298,-80.4717536
72,Victoria Street South,N2G 4Y9,43.4509695,-80.5003576
22,Water Street South,N2G 4K4,43.4511745,-80.4951737
73,King Street West,N2G 1A7,43.4501681,-80.4907654
600,King Street West,N2G 1C3,43.4541600,-80.5015413
61,King Street East,N2G 2K4,43.4491745,-80.4884643
33,Ontario Street North,N2H 4Y3,43.4508506,-80.4894365
200,King Street West,N2G 4G7,43.4516548,-80.4924981
381,King Street West,N2G 1B8,43.4519183,-80.4962395
209,Frederick Street,N2H 2M7,43.4535912,-80.4814761
55,King Street West,N2G 4W1,43.4499545,-80.4903165
64,King Street West,N2G 1A3,43.4504509,-80.4899763
36,King Street West,N2G 1A3,43.4503204,-80.4896788
84,Frederick Street,N2H 2L7,43.4511212,-80.4868205
134,Frederick Street,N2G 4G3,43.4522899,-80.4852992
122,Frederick Street,N2H 2L9,43.4519401,-80.4856585
150,Frederick Street,N2G 4J3,43.4527685,-80.4847003
835,King Street West,N2G 1G3,43.4562139,-80.5120509
70,Vanier Drive,N2C 1J5,43.4289737,-80.4637551
2651,Kingsway Drive,N2C 1A7,43.4315505,-80.4447688
127,Victoria Street South,N2G 2B4,43.4494971,-80.5007134
99,Strange Street,N2G 1R4,43.4487510,-80.5094955
329,Glasgow Street,N2M 2M9,43.4491977,-80.5218005
11,Chopin Drive,N2M 2G3,43.4423042,-80.5238784
105,King Street East,N2G 2K8,43.4485213,-80.4873665
80,Young Street,N2H 4Z1,43.4530639,-80.4916081
299,Doon Valley Drive,N2G 4M4,43.3896029,-80.4061292
255,Fischer-Hallman Road,N2M 4X8,43.4254975,-80.5233019
45,Birchcliffe Avenue,N2M 4V7,43.4253882,-80.5169362
255,Westmount Road East,N2M 4Z2,43.4259615,-80.5065408
118,Shea Crescent,N2E 1E8,43.4182595,-80.4924698
777,Westmount Road East,N2E 1J2,43.4175254,-80.5026110
79,Laurentian Drive,N2E 1C3,43.4175992,-80.4960471
130,Morgan Avenue,N2A 2M5,43.4300615,-80.4296077
153,Montcalm Drive,N2B 2R6,43.4539331,-80.4419551
191,Hickson Drive,N2B 2H8,43.4533426,-80.4481028
150,Belleview Avenue,N2B 1G7,43.4544864,-80.4616020
787,King Street West,N2G 1E3,43.4555150,-80.5090011
315,Margaret Avenue,N2H 6S5,43.4638063,-80.4966441
371,Franklin Street North,N2A 1Y9,43.4440451,-80.4472217
50,Confederation Drive,N2B 2X5,43.4619631,-80.4466412
51,Natchez Road,N2B 3A7,43.4655067,-80.4473311
10,Duke Street West,N2H 3W4,43.4511832,-80.4885005
70,Gracefield Crescent,N2E 1R9,43.4198544,-80.4786318
956,Guelph Street,N2H 5Z6,43.4676415,-80.4769400
18,Holborn Court,N2A 4A1,43.4498080,-80.4423216
455,University Avenue West,N2N 3B9,43.4396012,-80.5462713
1005,Ottawa Street North,N2A 1H2,43.4491852,-80.4454717
1042,Weber Street East,N2A 1B6,43.4364816,-80.4510044
50,Holborn Drive,N2A 3Z2,43.4499257,-80.4411106
775,Highland Road West,N2M 5P5,43.4315371,-80.5247818
780,Highland Road West,N2M 5P6,43.4323172,-80.5252598
425,Bingemans Centre Drive,N2B 3X7,43.4732654,-80.4500795
528,Wellington Street North,N2H 5L5,43.4636110,-80.4807195
1321,Courtland Avenue East,N2C 1K8,43.4187807,-80.4543172
370,Highland Road West,N2M 5J9,43.4384976,-80.5118392
504,Connaught Street,N2C 1C2,43.4288966,-80.4456081
310,Fairway Road South,N2C 1X3,43.4216278,-80.4436658
655,Strasburg Road,N2E 2H7,43.4158182,-80.4792542
195,Country Hill Drive,N2E 2G7,43.4133596,-80.4707403
191,Hoffman Street,N2M 3N2,43.4300336,-80.4855179
720,Westmount Road East,N2E 2M6,43.4185873,-80.5003249
240,Autumn Hill Crescent,N2N 1K8,43.4204450,-80.5315342
429,Westheights Drive,N2N 1M3,43.4196114,-80.5351687
236,Forestwood Drive,N2N 1C1,43.4186899,-80.5270034
245,Activa Avenue,N2E 4A3,43.4065480,-80.5160906
185,Activa Avenue,N2E 4A1,43.4080683,-80.5123380
245,Lorne Avenue,N2M 3Y9,43.4340239,-80.4915005
560,Pioneer Drive,N2P 1P2,43.3936935,-80.4505478
55,Upper Canada Drive,N2P 1G2,43.3966187,-80.4437225
367,The Country Way,N2B 2S3,43.4074727,-80.4837643
345,The Country Way,N2E 2S3,43.4078240,-80.4818723
10,Huron Road,N2P 2R7,43.4017581,-80.4375459
1825,Strasburg Road,N2R 1S3,43.3940872,-80.4657241
811,Bleams Road,N2E 3X4,43.4043782,-80.4810552
50,Parkland Crescent,N2N 1S4,43.4149075,-80.5366100
664,Erinbrook Drive,N2E 2R1,43.4103568,-80.4913910
426,Highland Road West,N2M 3C7,43.4372151,-80.5129080
80,Westmount Road West,N2M 1R5,43.4358000,-80.5125810
170,Highland Road West,N2M 3C2,43.4408994,-80.5050437
188,Highland Road West,N2M 3C2,43.4409242,-80.5058023
470,Highland Road West,N2M 3C7,43.4364870,-80.5147104
274,Highland Road West,N2M 3C5,43.4397613,-80.5093524
166,Park Street,N2G 1M8,43.4506001,-80.5045823
807,Guelph Street,N2H 5Z2,43.4654630,-80.4818343
709,King Street West,N2B 1E3,43.4546007,-80.5057931
501,Krug Street,N2B 1L3,43.4564473,-80.4607367
501,Krug Street,N2B 1L3,43.4559768,-80.4611082
501,Krug Street,N2B 1L3,43.4562114,-80.4614865
501,Krug Street,N2B 1L3,43.4570198,-80.4606364
501,Krug Street,N2B 1L3,43.4565232,-80.4611909
760,King Street West,N2K 1E6,43.4560977,-80.5071243
815,Victoria Street North,N2G 4B1,43.4623147,-80.4675189
345,Arnold Street,N2H 6G1,43.4699228,-80.4755730
257,Victoria Street North,N2H 5C9,43.4570142,-80.4861612
221,Wilson Avenue,N2C 1G9,43.4261820,-80.4537334
226,St. Leger Street,N2H 4M5,43.4633072,-80.4889101
180,St. Leger Street,N2H 4M5,43.4626502,-80.4881332
53,St. Leger Street,N2H 4M1,43.4581968,-80.4865475
280,Victoria Street North,N2H 5E2,43.4580517,-80.4853789
315,Breithaupt Street,N2H 5H6,43.4587600,-80.4853128
59,St. Leger Street,N2H 4M1,43.4583834,-80.4866515
325,Louisa Street,N2H 5N1,43.4595640,-80.4894621
264,Victoria Street North,N2H 5C8,43.4576558,-80.4866741
291,Victoria Street North,N2H 5E1,43.4574943,-80.4846645
311,Victoria Street North,N2H 5E1,43.4576879,-80.4842289
289,Victoria Street North,N2H 5E1,43.4575578,-80.4848913
300,Victoria Street North,N2H 6R9,43.4585771,-80.4838586
300,Bleams Road,N2E 2N1,43.4102050,-80.4619239
340,Kingswood Drive,N2E 2K2,43.4182017,-80.4729887
350,East Avenue,N2H 1Z5,43.4484244,-80.4691293
400,East Avenue,N2H 1Z6,43.4491565,-80.4650876
15,Bechtel Drive,N2P 1T4,43.3923926,-80.4375443
40,Pioneer Drive,N2P 2A4,43.3959347,-80.4320601
85,Grand Crest Place,N2C 2L6,43.4071361,-80.4432444
130,Gateway Park Drive,N2P 2J4,43.4071649,-80.3867402
100,Gateway Park Drive,N2S 1A1,43.4075587,-80.3881974
875,Highland Road West,N2N 2Y2,43.4297536,-80.5251329
600,Queen Street South,N2G 1X1,43.4432752,-80.4963107
101,Glasgow Street,N2G 4X8,43.4517818,-80.5111607
415,Queen Street South,N2G 1W5,43.4447094,-80.4940433
270,Strasburg Road,N2E 3M6,43.4236834,-80.4892773
80,Schneider Avenue,N2G 4G7,43.4456928,-80.4991414
540,Westforest Trail,N2N 3K8,43.4257518,-80.5450627
540,Westforest Trail,N2N 3J4,43.4253484,-80.5446506
540,Westforest Trail,N2N 3K8,43.4255166,-80.5448500
720,Victoria Street South,N2M 3B4,43.4396841,-80.5217645
751,Victoria Street South,N2M 5N4,43.4387529,-80.5210451
466,Queen Street South,N2G 1W7,43.4449194,-80.4950715
3011,King Street East,N2A 1B1,43.4279829,-80.4320858
2960,King Street East,N2A 1A9,43.4292531,-80.4334451
2905,King Street East,N2A 1A7,43.4293837,-80.4357292
1031,Victoria Street North,N2B 3C7,43.4650630,-80.4599631
991,Victoria Street North,N2B 3C7,43.4647868,-80.4616641
1166,Victoria Street North,N2B 3C9,43.4674399,-80.4555098
1176,Victoria Street North,N2B 3C9,43.4678689,-80.4549159
818,Victoria Street North,N2G 4G8,43.4634576,-80.4683687
200,Rolling Meadows Drive,N2N 3G9,43.4201107,-80.5465976
1425,Queen's Boulevard,N2M 5B3,43.4289300,-80.5183852
331,Lancaster Street West,N2H 4V4,43.4696184,-80.4846898
335,Lancaster Street West,N2H 4V4,43.4697372,-80.4847260
338,Victoria Street North,N2H 5E2,43.4586422,-80.4833602
70,King Street East,N2G 2K6,43.4495284,-80.4878008
100,Park Street,N2G 1M6,43.4494011,-80.5027166
1400,Ottawa Street South,N2E 4E2,43.4156595,-80.5131638
24,Charles Street West,N2G 1H2,43.4500559,-80.4919661
77,Water Street North,N2H 5A6,43.4538626,-80.4928846
369,Frederick Street,N2H 2P1,43.4563097,-80.4738437
875,Highland Road West,N2N 2Y2,43.4295470,-80.5265449
11,Weber Street West,N2H 3Y9,43.4520408,-80.4883480
17,Weber Street West,N2H 3Y9,43.4521410,-80.4884870
151,Ontario Street North,N2H 4Y5,43.4521109,-80.4887885
62,Ontario Street North,N2H 4Y4,43.4512801,-80.4899187
42,College Street,N2H 5A1,43.4528296,-80.4927247
223,Hartwood Avenue,N2H 6A8,43.4645508,-80.5013278
257,Victoria Street North,N2H 5C9,43.4570617,-80.4864504
760,Weber Street East,N2H 1H6,43.4392958,-80.4595632
1668,King Street East,N2A 1A5,43.4382855,-80.4614411
30,Water Street North,N2H 5A8,43.4529710,-80.4941492
313,Lawrence Avenue,N2M 1Y5,43.4413979,-80.5143396
320,Lawrence Avenue,N2M 1Y4,43.4416959,-80.5133611
27,Scott Street,N2H 2P8,43.4492092,-80.4852062
805,Victoria Street South,N2M 5N9,43.4374619,-80.5246720
175,Indian Road,N2B 2S7,43.4565717,-80.4359108
177,Highland Road East,N2M 3W1,43.4384071,-80.4929638
403,Stirling Avenue South,N2M 3H8,43.4366525,-80.4889566
296,Highland Road East,N2M 3W4,43.4353878,-80.4899956
250,East Avenue,N2H 1Z4,43.4511809,-80.4701501
160,Courtland Avenue East,N2G 3M6,43.4431063,-80.4863376
3,Westforest Trail,N2N 3A6,43.4337395,-80.5404581
1250,Victoria Street South,N2N 3J2,43.4330025,-80.5442892
1450,Block Line Road,N2E 2K2,43.4189353,-80.4704306
1500,Block Line Road,N2C 2S2,43.4207220,-80.4678078
299,Sydney Street South,H4A 1Y5,43.4345594,-80.4755134
21,Westmount Road West,N2M 1R6,43.4336831,-80.5117994
39,Midland Drive,N2A 2A9,43.4482780,-80.4481402
75,Lucerne Drive,N2E 1B4,43.4201550,-80.4810134
10,Boniface Avenue,N2C 1L9,43.4301617,-80.4649078
237,Wilson Avenue,N2C 1G9,43.4259610,-80.4520945
100,Fergus Avenue,N2A 2H2,43.4342977,-80.4423533
1191,Weber Street East,N2A 1C1,43.4337082,-80.4462101
277,Lancaster Street West,N2H 4V2,43.4681473,-80.4846482
415,Caryndale Drive,N2R 1J7,43.3847762,-80.4555629
760,Commonwealth Crescent,N2E 4K7,43.4025473,-80.5038258
560,Queen Street South,N2G 0A1,43.4438221,-80.4959879
2053,Shirley Drive,N2B 3X4,43.4737065,-80.4413796
460,Bingemans Centre Drive,N2B 3X9,43.4711132,-80.4487268
2101,Shirley Drive,N2B 3X4,43.4747344,-80.4381825
350,Shirley Avenue,N2B 2E1,43.4700976,-80.4544088
59,Bridge Street West,N2K 1K6,43.4828093,-80.4866554
75,Pebblecreek Drive,N2A 4K1,43.4490443,-80.4117922
40,Prueter Avenue,N2H 6G6,43.4691165,-80.4909790
601,Wellington Street North,N2H 5L6,43.4628148,-80.4779412
560,Victoria Street North,N2H 5G2,43.4608197,-80.4768132
247,Franklin Street North,N2A 1Y5,43.4407015,-80.4452179
110,Doon Road,N2G 3C8,43.4360157,-80.4648040
235,Ira Needles Boulevard,N2N 0B2,43.4259271,-80.5543967
100,The Boardwalk,N2N 0B1,43.4330634,-80.5582040
1500,Highland Road West,N2N 3K6,43.4235290,-80.5531493
10,Westheights Drive,N2N 2A8,43.4293467,-80.5309272
80,Patricia Avenue,N2M 1J3,43.4394391,-80.5044434
96-100,Highland Road West,N2P 3B5,43.4415442,-80.5019351
1720,Glasgow Street,N2N 0A7,43.4256512,-80.5627293
1401,Doon Village Road,N2P 1A8,43.3871232,-80.4206083
695,Block Line Road,N2E 3K1,43.4102394,-80.4981953
4355,King Street East,N2P 2E9,43.4073346,-80.3971934
888,Trillium Drive,N2R 1K4,43.4011527,-80.4843679
46,Lanark Crescent,N2N 2Z8,43.4240337,-80.5351008
730,Ottawa Street South,N2E 1B6,43.4255861,-80.4854308
715,Ottawa Street South,N2E 3H5,43.4248589,-80.4833357
81,Kenwood Drive,N2B 3H3,43.4538777,-80.4572381
91,Kenwood Drive,N2B 3H3,43.4544767,-80.4571155
87,Kenwood Drive,N2B 3H3,43.4542600,-80.4570013
1005,Ottawa Street North,N2A 1H2,43.4494994,-80.4438681
270,Edwin Street,N2H 4P4,43.4677560,-80.4876778
245,Strasburg Road,N2E 3W7,43.4264021,-80.4869429
171,Appleridge Drive,N2P 0A1,43.3842365,-80.4394298
1780,Glasgow Street,N2N 0A7,43.4244421,-80.5613730
52,Water Street North,N2H 5A8,43.4531432,-80.4940725
58,Water Street North,N2H 5A8,43.4532662,-80.4939137
52,Francis Street North,N2H 5B4,43.4535870,-80.4946928
48,Francis Street North,N2H 5B5,43.4534775,-80.4948257
42,College Street,N2H 5A1,43.4529791,-80.4918324
1254,Union Street,N2H 6K4,43.4727166,-80.4796926
250,Gage Avenue,N2M 5C6,43.4461419,-80.5163800
230,Gage Avenue,N2M 2C8,43.4465165,-80.5156307
675,Riverbend Drive,N2K 3S3,43.4781995,-80.4823881
630,Riverbend Drive,N2K 3S2,43.4765270,-80.4811483
640,Riverbend Drive,N2K 3S2,43.4767964,-80.4815642
540,Riverbend Drive,N2K 3S2,43.4753777,-80.4794916
508,Riverbend Drive,N2K 3S2,43.4750872,-80.4787276
221,Queen Street South,N2G 1W5,43.4471000,-80.4913940
675,Queen Street South,N2M 1A1,43.4421250,-80.4960519
236,Mill Street,N2M 3R5,43.4378424,-80.4866026
518,Greenfield Avenue,N2C 1G2,43.4265037,-80.4444802
1,Cedarwoods Crescent,N2C 2L8,43.4264401,-80.4394253
765,King Street West,N2G 1E3,43.4555548,-80.5075091
693,King Street West,N2G 1C9,43.4547972,-80.5050327
670,King Street West,N2G 1E1,43.4548725,-80.5038966
40,McBrine Drive,N2R 1E7,43.4027951,-80.4750303
111,Water Street North,N2H 5B1,43.4548762,-80.4920451
94,Weber Street West,N2H 3Z5,43.4542922,-80.4924236
88,Weber Street West,N2H 3Z5,43.4541577,-80.4922141
969,Guelph Street,N2H 5Z2,43.4673332,-80.4760415
48,King Street West,N2G 1A3,43.4503967,-80.4898242
78,Francis Street North,N2H 5B5,43.4539918,-80.4935325
64,Francis Street North,N2H 5B5,43.4538235,-80.4939096
64,Francis Street North,N2H 5B5,43.4537906,-80.4941691
74,Francis Street North,N2H 5B5,43.4538511,-80.4936811
16-20,Queen Street North,N2H 2G8,43.4505797,-80.4889206
8,Queen Street North,N2H 2G8,43.4504493,-80.4891494
28,Weber Street West,N2H 3Z2,43.4526578,-80.4886567
42,Ontario Street North,N2H 4Y4,43.4509797,-80.4901975
35,Weber Street West,N2H 3Z1,43.4522633,-80.4894398
250,Gage Avenue,N2M 5C6,43.4462711,-80.5165042
14,Eby Street North,N2H 2V6,43.4482872,-80.4843125
243,King Street East,N2G 2K8,43.4479436,-80.4852859
250,Lawrence Avenue,N2M 1Y4,43.4403031,-80.5119873
57,Moore Avenue,N2H 3S2,43.4560407,-80.5027128
45,Kenwood Drive,N2B 3H1,43.4533311,-80.4586819
164,Donald Street,N2B 3G8,43.4532200,-80.4594167
61,Suffolk Avenue,N2B 1H3,43.4543743,-80.4596691
66,Kenwood Drive,N2B 3H2,43.4539899,-80.4582657
158,Donald Street,N2B 3G8,43.4533109,-80.4597299
195,Belleview Avenue,N2B 1G6,43.4540762,-80.4591192
161,Donald Street,N2B 3G7,43.4528184,-80.4595109
19,Cameron Street South,N2G 3N1,43.4453910,-80.4811319
2300,Shirley Drive,N2B 3Y2,43.4779338,-80.4323780
11,Crestview Place,N2B 3X6,43.4781266,-80.4312594
2255,Shirley Drive,N2B 3X4,43.4766001,-80.4329747
871,Victoria Street North,N2B 3S4,43.4636622,-80.4653427
901,Victoria Street North,N2B 3C3,43.4632644,-80.4647015
102,King Street West,N2G 1A6,43.4507270,-80.4908644
25,Madison Avenue North,N2H 2Z3,43.4472756,-80.4811074
4300,King Street East,N2P 2G5,43.4092462,-80.3973137
4326,King Street East,N2P 2G5,43.4086704,-80.3968134
85,Queen Street North,N2H 2H1,43.4527043,-80.4861248
1408,Victoria Street North,N2B 3E2,43.4711198,-80.4443620
500,Bingemans Centre Drive,N2B 3X9,43.4717405,-80.4470581
520,Bingemans Centre Drive,N2B 3X9,43.4721453,-80.4461409
540,Bingemans Centre Drive,N2B 3X9,43.4724732,-80.4452794
363,Stirling Avenue South,N2M 3H6,43.4376708,-80.4869488
223,Mill Street,N2M 3R3,43.4376891,-80.4879819
186,Victoria Street South,N2G 2B9,43.4479302,-80.5033815
406,Ottawa Street South,N2M3P4,43.4320980,-80.4797694
200,The Boardwalk,N2N 0B1,43.4350763,-80.5592867
225,The Boardwalk,N2N 0B1,43.4347062,-80.5623302
17,Park Street,N2G 1M4,43.4472891,-80.5010612
33,Kent Avenue,N2G 3R2,43.4428098,-80.4773491
51,Francis Street North,N2H 5B4,43.4532183,-80.4943650
190,Victoria Street South,N2G 2B9,43.4478426,-80.5035162
182,Victoria Street South,N2G 2B9,43.4480642,-80.5032950
340,King Street West,N2G 1B7,43.4522622,-80.4954988
450,King Street East,N2G 2L6,43.4467125,-80.4816258
11,Peter Street,N2G 3J5,43.4459149,-80.4870240
46,Courtland Avenue East,N2G 3H5,43.4453893,-80.4911891
130,Duke Street East,N2H 1A7,43.4493923,-80.4839549
200,Glasgow Street,N2M 2M4,43.4519624,-80.5174400
745,King Street East,N2G 2M4,43.4441884,-80.4774148
207,Ottawa Street South,N2G 3T3,43.4368907,-80.4766782
19,Weber Street East,N2H 1C2,43.4513720,-80.4866181
96,Frederick Street,N2H 2L7,43.4512875,-80.4865082
26,Chelsea Road,N2B 1H6,43.4555146,-80.4592440
590,Riverbend Drive,N2K 3S2,43.4761149,-80.4804402
539,Riverbend Drive,N2K 3S3,43.4746016,-80.4795927
487,Riverbend Drive,N2K 3S3,43.4735753,-80.4767356
650,Riverbend Drive,N2K 3S2,43.4773095,-80.4815964
515,Riverbend Drive,N2K 3S3,43.4739765,-80.4776140
150,Edna Street,N2H 6S1,43.4579274,-80.4721428
86,Queen Street North,N2H 2H5,43.4535776,-80.4866439
100,Arnold Street,N2H 6C9,43.4677696,-80.4849686
50,Lancaster Street West,N2H 4T2,43.4605617,-80.4829543
57,Westwood Drive,N2M 2K5,43.4457215,-80.5250717
247,Franklin Street North,N2A 1Y5,43.4404765,-80.4446950
284,Frederick Street,N2H 2N4,43.4557238,-80.4784844
276,Frederick Street,N2H 2N4,43.4555622,-80.4787530
96,Fourth Avenue,N2C 1N5,43.4330338,-80.4565608
25,Connaught Place,N2C 2P9,43.4328595,-80.4573897
3,Connaught Place,N2C 2P9,43.4323703,-80.4576916
166,Connaught Street,N2C 2R7,43.4323220,-80.4574215
116,Fourth Avenue,N2C 1N5,43.4325118,-80.4568695
88,Fourth Avenue,N2C 1N5,43.4332718,-80.4564272
2271,Kingsway Drive,N2C 1A3,43.4339136,-80.4509099
2263,Kingsway Drive,N2C 1A3,43.4339085,-80.4512003
2131,Kingsway Drive,N2C 1A1,43.4345819,-80.4534538
2209,Kingsway Drive,N2C 1A2,43.4342245,-80.4519558
2153,Kingsway Drive,N2C 1A1,43.4345368,-80.4529386
2333,Kingsway Drive,N2C 1A4,43.4334111,-80.4497502
2139,Kingsway Drive,N2C 1A1,43.4346261,-80.4531726
2191,Kingsway Drive,N2C 1A2,43.4342183,-80.4522643
2225,Kingsway Drive,N2C 1A2,43.4341823,-80.4517142
2301,Kingsway Drive,N2C 1A3,43.4337027,-80.4503922
21,Third Avenue,N2C 1N7,43.4344187,-80.4535326
16,Franklin Street South,N2C 1R4,43.4333569,-80.4493522
25,Sixth Avenue,N2C 1P9,43.4332560,-80.4500204
91,Moore Avenue,N2H 3S4,43.4579297,-80.5033526
762,King Street East,N2G 2M6,43.4443407,-80.4767885
231,Arnold Street,N2H 6E8,43.4690427,-80.4802818
275,Arnold Street,N2H 6E8,43.4694402,-80.4792091
464,Maple Avenue,N2H 4X5,43.4726389,-80.4817975
160,Grand River Boulevard,N2A 3G6,43.4289876,-80.4135668
56,Madison Avenue North,N2H 2Z6,43.4485851,-80.4807642
16,Roy Street,N2H 4B5,43.4530907,-80.4872639
68,Queen Street North,N2H 2H2,43.4526246,-80.4872667
200,Old Carriage Drive,N2P 0C7,43.3916884,-80.4286326
50,Kent Avenue,N2G 3R1,43.4428503,-80.4782204
35,Caprice Court,N2M 5M2,43.4335135,-80.5256342
261,Frederick Street,N2H 2N2,43.4548805,-80.4791202
"926,928,930,932,936",King Street West,N2G 1G4,43.4578777,-80.5130089
910,King Street West,N2G 1G4,43.4576525,-80.5122655
185,Breithaupt Street,N2H 5H3,43.4568070,-80.4915697
2090,Shirley Drive,N2B 3X4,43.4752178,-80.4403140
2365,Shirley Drive,N2B 3X4,43.4778802,-80.4291754
2335,Shirley Drive,N2B 3X4,43.4773170,-80.4302680
230,Centennial Court,N2B 3X2,43.4766393,-80.4271705
171,Victoria Street North,N2H 5C5,43.4557250,-80.4902821
222,Frederick Street,N2G 2Y3,43.4541658,-80.4813119
226,Frederick Street,N2H 2M8,43.4542892,-80.4811868
312,Lawrence Avenue,N2M 1Y4,43.4415477,-80.5133929
41,Kehl Street,N2M 3V1,43.4333734,-80.4866283
91,East Avenue,N2H 1Y6,43.4547995,-80.4746042
40,Caprice Court,N2M 5M2,43.4336646,-80.5260636
1502,Victoria Street North,N2B 3E4,43.4727570,-80.4398560
274,Shirley Avenue,N2B 2E1,43.4693019,-80.4562673
4592,King Street East,N2P 2G6,43.4042644,-80.3841489
4521,King Street East,N2P 2G2,43.4044284,-80.3879337
1746,Victoria Street North,N2B 3E5,43.4758648,-80.4308793
36,Ellen Street East,N2H 1L4,43.4546787,-80.4829442
20,Weber Street East,N2H 1C3,43.4519151,-80.4865829
4166,King Street East,N2P 2G5,43.4118229,-80.3976487
835,King Street West,N2G 4K9,43.4562677,-80.5124412
124,Tupper Crescent,N2B 2X9,43.4615751,-80.4427158
78,Wilson Avenue,N2C 1G5,43.4290409,-80.4581446
420,Bridgeport Road,N2K 1P1,43.4752929,-80.4914366
1268,Victoria Street North,N2B 3S4,43.4690922,-80.4501150
125,The Boardwalk,N2N 0B1,43.4333935,-80.5610772
119,Westmeadow Drive,N2N 3P8,43.4277220,-80.5501898
123,Westmeadow Drive,N2N 3P8,43.4276608,-80.5502685
127,Westmeadow Drive,N2N 3P8,43.4276116,-80.5503571
131,Westmeadow Drive,N2N 3P8,43.4275586,-80.5504364
19,Crestview Place,N2B 3X6,43.4789721,-80.4321615
2236,Shirley Drive,N2B 3Y1,43.4772330,-80.4342058
35,Crestview Place,N2B 3X6,43.4793437,-80.4321681
139,Washburn Drive,N2R 1S1,43.4006512,-80.4923942
1187,Fischer-Hallman Road,N2E 4H9,43.4063425,-80.5005711
3763,King Street East,N2P 2E8,43.4191750,-80.4100586
1293,Queen's Boulevard,N2M 1C6,43.4321562,-80.5126733
1285,Queen's Boulevard,N2M 1R6,43.4315773,-80.5123291
1283,Queen's Boulevard,N2M 1C6,43.4320819,-80.5117101
1269,Queen's Boulevard,N2M 1C6,43.4323092,-80.5112783
84,Wilson Avenue,N2C 1G5,43.4294907,-80.4569113
82,Wilson Avenue,N2C 1G5,43.4291137,-80.4568347
210,Fourth Avenue,N2C 1P2,43.4292437,-80.4561821
151,Zeller Drive,N2A 4H4,43.4521675,-80.4185270
190,Victoria Street North,N2H 5C6,43.4563731,-80.4899110
227,Breithaupt Street,N2H 5H3,43.4573084,-80.4899448
215,The Boardwalk,N2N 0B1,43.4354984,-80.5609469
47,Kehl Street,N2M 3V1,43.4332405,-80.4865097
51,Kehl Street,N2M 3V1,43.4330955,-80.4864598
55,Kehl Street,N2M 3V1,43.4330023,-80.4863516
61,Kehl Street,N2M 3V1,43.4328749,-80.4863074
65,Kehl Street,N2M 3V1,43.4327629,-80.4861856
69,Kehl Street,N2M 3V1,43.4326628,-80.4861332
85,Kehl Street,N2M 3V1,43.4322935,-80.4858474
89,Kehl Street,N2M 3V1,43.4321751,-80.4857560
95,Kehl Street,N2M 3V1,43.4320184,-80.4857789
99,Kehl Street,N2M 3V1,43.4319321,-80.4855902
105,Kehl Street,N2M 3V1,43.4318005,-80.4855259
109,Kehl Street,N2M 3V1,43.4316911,-80.4854351
115,Kehl Street,N2M 3V1,43.4315973,-80.4853355
119C,Kehl Street,N2M 3V1,43.4314829,-80.4852298
119B,Kehl Street,N2M 3V1,43.4314311,-80.4851945
119A,Kehl Street,N2M 3V1,43.4313811,-80.4851606
7,Rittenhouse Road,N2E 2M8,43.4135503,-80.4823889
1654,Fischer-Hallman Road,N2R 0C6,43.3850263,-80.4892528
135,Gateway Park Drive,N2P 2J9,43.4054012,-80.3874770
4553,King Street East,N2P 2G2,43.4042575,-80.3873364
4169,King Street East,N2P 2E8,43.4116999,-80.4015715
500,Westmount Road West,N2M 5M9,43.4469648,-80.5225303
550,Westmount Road West,N2M 5G5,43.4477371,-80.5226595
190,Brandon Avenue,N2M 2J6,43.4472208,-80.5221145
205,Brandon Avenue,N2M 2J2,43.4465482,-80.5220285
3800,King Street East,N2P 2G5,43.4185812,-80.4076010
50,Howe Drive,N2E 0A3,43.4212886,-80.5066354
50,Howe Drive,N2E 0A3,43.4211977,-80.5065056
50,Howe Drive,N2E 0A3,43.4211078,-80.5063758
50,Howe Drive,N2E 0A3,43.4210181,-80.5062444
50,Howe Drive,N2E 0A3,43.4209270,-80.5061132
50,Howe Drive,N2E 0A3,43.4208364,-80.5059832
50,Howe Drive,N2E 0A3,43.4207464,-80.5058521
50,Howe Drive,N2E 0A3,43.4213799,-80.5067851
50,Howe Drive,N2E 0A3,43.4215148,-80.5063363
50,Howe Drive,N2E 0A3,43.4215823,-80.5061782
50,Howe Drive,N2E 0A3,43.4216487,-80.5060111
50,Howe Drive,N2E 0A3,43.4217043,-80.5058450
50,Howe Drive,N2E 0A3,43.4218286,-80.5056067
50,Howe Drive,N2E 0A3,43.4217385,-80.5054728
50,Howe Drive,N2E 0A3,43.4216377,-80.5053591
50,Howe Drive,N2E 0A3,43.4215357,-80.5052443
50,Howe Drive,N2E 0A3,43.4214338,-80.5051316
50,Howe Drive,N2E 0A3,43.4213310,-80.5050188
11,Helen Avenue,N2P 2E7,43.4025343,-80.3861236
31,Helen Avenue,N2P 2E7,43.4021435,-80.3873701
39,Helen Avenue,N2P 2E7,43.4025333,-80.3877767
318,Duke Street West,N2H 3Y1,43.4558651,-80.4965112
170,Westchester Drive,N2B 3N1,43.4623615,-80.4343418
176,Westchester Drive,N2B 3N1,43.4622573,-80.4340949
180,Westchester Drive,N2B 3N1,43.4621601,-80.4338871
184,Westchester Drive,N2B 3N1,43.4620390,-80.4337545
258,Manchester Road,N2B 1A4,43.4533985,-80.4568175
254,Manchester Road,N2B 1A4,43.4532593,-80.4568764
262,Manchester Road,N2B 1A4,43.4535326,-80.4567494
250,Manchester Road,N2B 1A4,43.4530998,-80.4569592
268,Manchester Road,N2B 1A4,43.4536976,-80.4566856
244,Manchester Road,N2B 1A4,43.4529371,-80.4570006
276,Manchester Road,N2B 1A4,43.4538994,-80.4566011
240,Manchester Road,N2B 1A4,43.4527576,-80.4570375
284,Manchester Road,N2B 1A4,43.4540477,-80.4565346
234,Manchester Road,N2B 1A4,43.4525830,-80.4570762
201,Lyndhurst Drive,N2B 1C2,43.4533005,-80.4574537
197,Lyndhurst Drive,N2B 1C2,43.4531261,-80.4574687
225,Thomas Slee Drive,N2P 0B8,43.3716634,-80.4393623
205,The Boardwalk,N2N 0B1,43.4351285,-80.5605514
290,Manchester Road,N2B 1A4,43.4541694,-80.4564850
207,Lyndhurst Drive,N2B 1C2,43.4534791,-80.4575313
296,Manchester Road,N2B 1A4,43.4542954,-80.4564343
230,Manchester Road,N2B 1A4,43.4523969,-80.4571265
77,Kenwood Drive,N2B 3H3,43.4537980,-80.4575531
191,Lyndhurst Drive,N2B 1C2,43.4529514,-80.4575250
187,Lyndhurst Drive,N2B 1C2,43.4527837,-80.4575670
302,Manchester Road,N2B 1A4,43.4544451,-80.4563823
224,Manchester Road,N2B 1A4,43.4522327,-80.4571750
217,Lyndhurst Drive,N2B 1C2,43.4537017,-80.4577149
181,Lyndhurst Drive,N2B 1C2,43.4526163,-80.4576242
308,Manchester Road,N2B 1A4,43.4545887,-80.4563266
251,Belleview Avenue,N2B 1G9,43.4547946,-80.4570853
166,Wedgewood Drive,N2B 3G4,43.4520456,-80.4572522
255,Belleview Avenue,N2B 1G9,43.4548547,-80.4569468
247,Belleview Avenue,N2B 1G9,43.4547468,-80.4572465
259,Belleview Avenue,N2B 1G9,43.4549066,-80.4568124
314,Manchester Road,N2B 1A4,43.4547255,-80.4562650
177,Lyndhurst Drive,N2B 1C2,43.4524466,-80.4577052
243,Belleview Avenue,N2B 1G9,43.4546895,-80.4573989
265,Belleview Avenue,N2B 1G9,43.4549419,-80.4566558
92,Kenwood Drive,N2B 3H2,43.4542205,-80.4577786
239,Belleview Avenue,N2B 1G9,43.4546594,-80.4575979
271,Belleview Avenue,N2B 1G9,43.4550140,-80.4565370
320,Manchester Road,N2B 1A4,43.4548608,-80.4561976
76,Kenwood Drive,N2B 3H2,43.4541427,-80.4579287
171,Lyndhurst Drive,N2B 1C2,43.4522673,-80.4577526
273,Belleview Avenue,N2B 1G9,43.4550439,-80.4564582
202,Lyndhurst Drive,N2B 1C1,43.4532782,-80.4580760
196,Lyndhurst Drive,N2B 1C1,43.4530995,-80.4580569
156,Wedgewood Drive,N2B 3G4,43.4521190,-80.4577766
326,Manchester Road,N2B 1A4,43.4550084,-80.4561323
279,Belleview Avenue,N2B 1G9,43.4551257,-80.4563378
216,Lyndhurst Drive,N2B 1C1,43.4535208,-80.4581907
190,Lyndhurst Drive,N2B 1C1,43.4529496,-80.4581509
70,Kenwood Drive,N2B 3H2,43.4540554,-80.4580839
258,Belleview Avenue,N2B 1G8,43.4552159,-80.4572814
264,Belleview Avenue,N2B 1G8,43.4552772,-80.4570989
165,Wedgewood Drive,N2B 1E9,43.4516197,-80.4574193
186,Lyndhurst Drive,N2B 1C1,43.4527986,-80.4582084
254,Belleview Avenue,N2B 1G8,43.4551716,-80.4574656
268,Belleview Avenue,N2B 1G8,43.4553722,-80.4569626
332,Manchester Road,N2B 1A4,43.4551620,-80.4560925
225,Belleview Avenue,N2B 1G6,43.4544552,-80.4580400
248,Belleview Avenue,N2B 1G8,43.4551023,-80.4576069
55,Kenwood Drive,N2B 3H1,43.4535161,-80.4583595
180,Lyndhurst Drive,N2B 1C1,43.4526448,-80.4582650
112,Chelsea Road,N2B 1H9,43.4554338,-80.4564034
244,Belleview Avenue,N2B 1G8,43.4550520,-80.4577942
221,Belleview Avenue,N2B 1G6,43.4543987,-80.4582332
336,Manchester Road,N2B 1A4,43.4552896,-80.4560337
204,Manchester Road,N2B 1A2,43.4514444,-80.4575054
108,Chelsea Road,N2B 1H9,43.4555615,-80.4564738
176,Lyndhurst Drive,N2B 1C1,43.4524822,-80.4582929
238,Belleview Avenue,N2B 1G8,43.4549949,-80.4579497
539,Belmont Avenue West,N2M 0A2,43.4490924,-80.5160110
60,Kenwood Drive,N2B 3H2,43.4539526,-80.4584116
153,Wedgewood Drive,N2B 1E9,43.4516845,-80.4579055
170,Lyndhurst Drive,N2B 1C1,43.4523422,-80.4583387
200,Manchester Road,N2B 1A2,43.4512867,-80.4575427
102,Chelsea Road,N2B 1H9,43.4557217,-80.4565463
234,Belleview Avenue,N2B 1G8,43.4549254,-80.4581141
49,Kenwood Drive,N2B 3H1,43.4534426,-80.4585341
215,Belleview Avenue,N2B 1G6,43.4543459,-80.4583938
69,Chelsea Road,N2B 1H7,43.4556598,-80.4573277
75,Chelsea Road,N2B 1H7,43.4557066,-80.4571762
65,Chelsea Road,N2B 1H7,43.4556058,-80.4575101
364,Manchester Road,N2B 1A5,43.4556219,-80.4560129
151,Lyndhurst Drive,N2B 1B7,43.4515254,-80.4579609
144,Wedgewood Drive,N2B 1E8,43.4522162,-80.4584122
56,Kenwood Drive,N2B 3H2,43.4538941,-80.4585853
59,Chelsea Road,N2B 1H7,43.4555412,-80.4576933
194,Manchester Road,N2B 1A2,43.4511127,-80.4576002
98,Chelsea Road,N2B 1H9,43.4558823,-80.4565750
228,Belleview Avenue,N2B 1G8,43.4548544,-80.4582989
55,Chelsea Road,N2B 1H7,43.4554837,-80.4578427
147,Lyndhurst Drive,N2B 1B7,43.4513542,-80.4580148
370,Manchester Road,N2B 1A5,43.4557448,-80.4559953
49,Chelsea Road,N2B 1H7,43.4554231,-80.4580250
209,Belleview Avenue,N2B 1G6,43.4542638,-80.4586254
45,Bridge Street East,N2K 1J7,43.4805164,-80.4775501
1401,River Road East,N2A 3X9,43.4333671,-80.4273742
283,Fairway Road North,N2A 2P1,43.4344355,-80.4276525
2400,Shirley Drive,N2B 3X5,43.4795185,-80.4283507
560,Bingemans Centre Drive,N2B 3X9,43.4729460,-80.4440175
224,Belleview Avenue,N2B 1G8,43.4547920,-80.4584888
92,Chelsea Road,N2B 1H9,43.4560617,-80.4566094
190,Manchester Road,N2B 1A2,43.4509391,-80.4576255
35,Kenwood Drive,N2B 3H1,43.4531786,-80.4587715
52,Kenwood Drive,N2B 3H2,43.4538166,-80.4587954
374,Manchester Road,N2B 1A5,43.4559084,-80.4560409
45,Chelsea Road,N2B 1H7,43.4553680,-80.4581959
141,Lyndhurst Drive,N2B 1B7,43.4511940,-80.4580729
29,Kenwood Drive,N2B 3H1,43.4530470,-80.4588622
88,Chelsea Road,N2B 1H9,43.4561951,-80.4568094
218,Belleview Avenue,N2B 1G8,43.4547581,-80.4586484
205,Belleview Avenue,N2B 1G6,43.4542257,-80.4588153
184,Manchester Road,N2B 1A2,43.4507812,-80.4577018
84,Chelsea Road,N2B 1H9,43.4562203,-80.4570576
80,Chelsea Road,N2B 1H9,43.4561906,-80.4572562
25,Kenwood Drive,N2B 3H1,43.4528909,-80.4588569
39,Chelsea Road,N2B 1H7,43.4553100,-80.4583751
74,Chelsea Road,N2B 1H9,43.4561369,-80.4574142
154,Lyndhurst Drive,N2B 1B9,43.4517687,-80.4585431
70,Chelsea Road,N2B 1H9,43.4560755,-80.4576024
19,Kenwood Drive,N2B 3H1,43.4527556,-80.4588737
4295,King Street East,N2P 0C9,43.4094702,-80.4012995
4336,King Street East,N2P 3W6,43.4077441,-80.3962843
400,King Street West,N2G 1B7,43.4523547,-80.4959587
380,Manchester Road,N2B 1A5,43.4560506,-80.4559473
64,Chelsea Road,N2B 1H9,43.4560256,-80.4577512
138,Wedgewood Drive,N2B 1E8,43.4523165,-80.4587953
137,Lyndhurst Drive,N2B 1B7,43.4510170,-80.4581359
48,Kenwood Drive,N2B 3H2,43.4536942,-80.4589623
150,Lyndhurst Drive,N2B 1B9,43.4516083,-80.4585806
15,Kenwood Drive,N2B 3H1,43.4526008,-80.4589055
35,Chelsea Road,N2B 1H7,43.4552402,-80.4585561
180,Manchester Road,N2B 1A2,43.4506162,-80.4577329
214,Belleview Avenue,N2B 1G8,43.4546881,-80.4588268
199,Belleview Avenue,N2B 1G6,43.4541375,-80.4589826
384,Manchester Road,N2B 1A5,43.4562038,-80.4559343
12,Wandsworth Place,N2B 1J1,43.4558279,-80.4582318
29,Chelsea Road,N2B 1H7,43.4551869,-80.4587268
43,Wandsworth Place,N2B 1J2,43.4565416,-80.4568062
131,Lyndhurst Drive,N2B 1B7,43.4508442,-80.4581860
225,Fairway Road South,N2C 1X2,43.4201027,-80.4387459
146,Lyndhurst Drive,N2B 1B9,43.4514434,-80.4586549
39,Wandsworth Place,N2B 1J2,43.4565578,-80.4570207
11,Kenwood Drive,N2B 3H1,43.4523193,-80.4589864
48,Chelsea Road,N2B 1H8,43.4558023,-80.4584210
174,Manchester Road,N2B 1A2,43.4504553,-80.4577584
29,Wandsworth Place,N2B 1J2,43.4564720,-80.4574397
33,Wandsworth Place,N2B 1J2,43.4565369,-80.4572584
23,Wandsworth Place,N2B 1J2,43.4564117,-80.4576163
49,Wandsworth Place,N2B 1J2,43.4566164,-80.4565687
137,Wedgewood Drive,N2B 1E6,43.4517963,-80.4588773
390,Manchester Road,N2B 1A5,43.4563437,-80.4558342
19,Wandsworth Place,N2B 1J2,43.4563594,-80.4577743
15,Wandsworth Place,N2B 1J2,43.4562884,-80.4579191
134,Burbank Road,N2B 1E2,43.4513000,-80.4586664
370,Frederick Street,N2H 6M1,43.4575784,-80.4750124
44,Kenwood Drive,N2B 3H2,43.4535508,-80.4592097
127,Lyndhurst Drive,N2B 1B7,43.4506945,-80.4582381
87,Charles Best Place,N2M 5A4,43.4353819,-80.4882203
85,Charles Best Place,N2M 5A4,43.4353589,-80.4882966
79,Charles Best Place,N2M 5A4,43.4353447,-80.4884739
77,Charles Best Place,N2M 5A4,43.4353086,-80.4885517
105,Charles Best Place,N2M 5A4,43.4355027,-80.4879170
107,Charles Best Place,N2M 5A4,43.4354575,-80.4878876
109,Charles Best Place,N2M 5A4,43.4354130,-80.4878231
111,Charles Best Place,N2M 5A4,43.4353675,-80.4877963
113,Charles Best Place,N2M 5A4,43.4353260,-80.4877211
115,Charles Best Place,N2M 5A4,43.4352778,-80.4877043
260,Doon South Drive,N2P 2L8,43.3819801,-80.4272629
260,Doon South Drive,N2P 2L8,43.3819484,-80.4274188
260,Doon South Drive,N2P 2L8,43.3819152,-80.4275825
260,Doon South Drive,N2P 2L8,43.3818896,-80.4277086
260,Doon South Drive,N2P 2L8,43.3818764,-80.4277733
260,Doon South Drive,N2P 2L8,43.3818631,-80.4278389
260,Doon South Drive,N2P 2L8,43.3818466,-80.4279201
171,Apple Ridge Drive,N2P 0A1,43.3842054,-80.4391109
25,Chelsea Road,N2B 1H7,43.4551371,-80.4588835
208,Belleview Avenue,N2B 1G8,43.4545898,-80.4590833
42,Chelsea Road,N2B 1H8,43.4557171,-80.4585577
394,Manchester Road,N2B 1A5,43.4564943,-80.4558354
170,Manchester Road,N2B 1A2,43.4502986,-80.4577838
88,Wandsworth Place,N2B 1J1,43.4567515,-80.4564902
40,Kenwood Drive,N2B 3H2,43.4533917,-80.4593167
4195,King Street East,N2P 2E8,43.4108438,-80.4008893
110,Pinnacle Drive,N2P 1C5,43.3901108,-80.4147318
14,Wandsworth Place,N2B 1J1,43.4560455,-80.4583971
38,Kenwood Drive,N2B 3H2,43.4533426,-80.4593459
131,Wedgewood Drive,N2B 1E6,43.4518137,-80.4590919
84,Kensington Avenue,N2B 1J7,43.4556498,-80.4587423
121,Lyndhurst Drive,N2B 1B7,43.4505304,-80.4582840
191,Belleview Avenue,N2B 1G6,43.4540593,-80.4593385
19,Chelsea Road,N2B 1H7,43.4550646,-80.4590660
400,Manchester Road,N2B 1A5,43.4566155,-80.4558210
84,Wandsworth Place,N2B 1J1,43.4569025,-80.4564983
164,Manchester Road,N2B 1A2,43.4501315,-80.4578751
18,Wandsworth Place,N2B 1J1,43.4561600,-80.4585168
56,Suffolk Avenue,N2B 1H5,43.4546842,-80.4592792
1754,Old Mill Road,N2P 1H7,43.3948519,-80.4186006
1606,Battler Road,N2R 1J6,43.3962929,-80.4627950
10,Manitou Drive,N2C 2N3,43.4189698,-80.4530542
10,Manitou Drive,N2C 2N3,43.4181255,-80.4520735
105,Glasgow Street,N2G 4X8,43.4525827,-80.5122827
1415,Huron Road,N2R 0L3,43.3827867,-80.4908810
5,Rittenhouse Road,N2E 2M8,43.4136670,-80.4827174
11,Sunbridge Crescent,N2K 1T4,43.4896804,-80.4794632
30,Caprice Court,N2M 5M2,43.4340177,-80.5262606
28,Caprice Court,N2M 5M2,43.4341933,-80.5261151
24,Caprice Court,N2M 5M2,43.4342039,-80.5256782
27,Caprice Court,N2M 5M2,43.4338489,-80.5253919
130,Burbank Road,N2B 1E2,43.4513608,-80.4589895
117,Lyndhurst Drive,N2B 1B7,43.4503694,-80.4583184
135,Burbank Road,N2B 1E3,43.4509022,-80.4587693
56,Dumart Place,N2K 3C7,43.4819739,-80.4594570
64,Dumart Place,N2K 3C7,43.4817697,-80.4599228
80,Dumart Place,N2K 3C7,43.4815180,-80.4606737
30,Dumart Place,N2K 3C7,43.4814102,-80.4592712
117,Hollinger Crescent,N2K 2Z2,43.4811685,-80.4613010
91,Hollinger Crescent,N2K 2Y8,43.4808115,-80.4622655
75,Hollinger Crescent,N2K 2Y8,43.4806945,-80.4626292
85,Howard Place,N2K 2Z4,43.4794906,-80.4656551
75,Howard Place,N2K 2Z4,43.4788387,-80.4654216
65,Howard Place,N2K 2Z4,43.4786684,-80.4653066
299,Bridge Street East,N2K 2Y5,43.4779831,-80.4648281
325,Lancaster Street West,N2H 4V4,43.4693773,-80.4852168
317,Lancaster Street West,N2H 4V4,43.4691503,-80.4852590
315,Lancaster Street West,N2H 4V4,43.4690622,-80.4851871
315,Lancaster Street West,N2H 4V4,43.4690093,-80.4851861
404,Manchester Road,N2B 1A5,43.4567836,-80.4557801
15,Chelsea Road,N2B 1H7,43.4549980,-80.4592294
127,Wedgewood Drive,N2B 1E6,43.4518541,-80.4592644
80,Wandsworth Place,N2B 1J1,43.4570972,-80.4565387
54,Wandsworth Place,N2B 1J1,43.4569440,-80.4575334
60,Wandsworth Place,N2B 1J1,43.4570179,-80.4573766
64,Wandsworth Place,N2B 1J1,43.4570729,-80.4572094
50,Wandsworth Place,N2B 1J1,43.4569060,-80.4577085
78,Kensington Avenue,N2B 1J7,43.4558845,-80.4588712
160,Manchester Road,N2B 1A2,43.4499292,-80.4578802
44,Wandsworth Place,N2B 1J1,43.4568408,-80.4579011
22,Wandsworth Place,N2B 1J1,43.4563209,-80.4585225
16,Kenwood Drive,N2B 3G9,43.4526788,-80.4594968
70,Wandsworth Place,N2B 1J1,43.4571551,-80.4569437
126,Lyndhurst Drive,N2B 1B8,43.4507722,-80.4587876
74,Wandsworth Place,N2B 1J1,43.4571779,-80.4567364
50,Suffolk Avenue,N2B 1H5,43.4548030,-80.4593639
40,Wandsworth Place,N2B 1J1,43.4567807,-80.4580367
111,Lyndhurst Drive,N2B 1B7,43.4502018,-80.4583558
34,Wandsworth Place,N2B 1J1,43.4567076,-80.4582244
410,Manchester Road,N2B 1A5,43.4569386,-80.4557442
124,Burbank Road,N2B 1E2,43.4513862,-80.4591934
26,Wandsworth Place,N2B 1J1,43.4564707,-80.4584852
10,Kenwood Drive,N2B 3G9,43.4523954,-80.4595208
121,Wedgewood Drive,N2B 1E6,43.4518686,-80.4594435
74,Kensington Avenue,N2B 1J7,43.4560146,-80.4589262
179,Belleview Avenue,N2B 1G6,43.4539472,-80.4596641
120,Lyndhurst Drive,N2B 1B8,43.4506040,-80.4588485
154,Manchester Road,N2B 1A2,43.4497590,-80.4579715
125,Burbank Road,N2B 1E3,43.4509439,-80.4591002
414,Manchester Road,N2B 1A5,43.4570845,-80.4557062
68,Kensington Avenue,N2B 1J7,43.4561371,-80.4589711
20,Chelsea Road,N2B 1H6,43.4554254,-80.4593452
107,Lyndhurst Drive,N2B 1B7,43.4500101,-80.4584182
39,Perkell Place,N2B 1J3,43.4573914,-80.4573809
156,Donald Street,N2B 3G8,43.4533078,-80.4598069
120,Burbank Road,N2B 1E2,43.4514501,-80.4594415
35,Perkell Place,N2B 1J3,43.4573463,-80.4575867
305,Margaret Avenue,N2H 6S4,43.4642982,-80.4961738
173,Louisa Street,N2H 5M4,43.4573224,-80.4964217
75,First Avenue,N2C 1N3,43.4338367,-80.4567475
69,First Avenue,N2C 1N3,43.4340190,-80.4566468
55,First Avenue,N2C 1N3,43.4341901,-80.4565402
49,First Avenue,N2C 1N3,43.4343453,-80.4564216
45,First Avenue,N2C 1N3,43.4345081,-80.4563531
29,First Avenue,N2C 1N3,43.4350522,-80.4560340
35,First Avenue,N2C 1N3,43.4348748,-80.4560977
39,First Avenue,N2C 1N3,43.4347362,-80.4562540
20,Fourth Avenue,N2C 1N5,43.4349898,-80.4553269
26,Fourth Avenue,N2C 1N5,43.4348299,-80.4554246
34,Fourth Avenue,N2C 1N5,43.4346065,-80.4555692
38,Fourth Avenue,N2C 1N5,43.4345099,-80.4556520
46,Fourth Avenue,N2C 1N5,43.4343229,-80.4557542
54,Fourth Avenue,N2C 1N5,43.4341319,-80.4558990
58,Fourth Avenue,N2C 1N5,43.4340217,-80.4559405
64,Fourth Avenue,N2C 1N5,43.4338489,-80.4560338
68,Fourth Avenue,N2C 1N5,43.4336715,-80.4561410
72,Fourth Avenue,N2C 1N5,43.4335440,-80.4562644
76,Fourth Avenue,N2C 1N5,43.4334132,-80.4563371
283,Lancaster Street West,N2H 4V2,43.4683512,-80.4845767
888,Guelph Street,N2H 5Z6,43.4679789,-80.4790618
963,Guelph Street,N2H 5Z2,43.4671816,-80.4765575
6,Sereda Road,N2H 4X7,43.4689801,-80.4751588
8,Sereda Road,N2H 4X7,43.4707466,-80.4770740
26,Sereda Road,N2H 4X7,43.4713590,-80.4778666
45,Perkell Place,N2B 1J3,43.4574371,-80.4571718
49,Perkell Place,N2B 1J3,43.4575169,-80.4569925
55,Perkell Place,N2B 1J3,43.4575859,-80.4567758
59,Perkell Place,N2B 1J3,43.4575367,-80.4565372
65,Perkell Place,N2B 1J3,43.4574927,-80.4562707
69,Perkell Place,N2B 1J3,43.4576473,-80.4560726
75,Perkell Place,N2B 1J3,43.4578267,-80.4559737
80,Perkell Place,N2B 1J4,43.4580137,-80.4560339
76,Perkell Place,N2B 1J4,43.4581798,-80.4561908
70,Perkell Place,N2B 1J4,43.4581927,-80.4564824
66,Perkell Place,N2B 1J4,43.4580814,-80.4567216
60,Perkell Place,N2B 1J4,43.4580136,-80.4569144
56,Perkell Place,N2B 1J4,43.4579821,-80.4570966
50,Perkell Place,N2B 1J4,43.4579151,-80.4572680
46,Perkell Place,N2B 1J4,43.4578515,-80.4574824
40,Perkell Place,N2B 1J4,43.4578195,-80.4576510
36,Perkell Place,N2B 1J4,43.4577316,-80.4578528
30,Perkell Place,N2B 1J4,43.4576849,-80.4580181
26,Perkell Place,N2B 1J4,43.4576100,-80.4582108
20,Perkell Place,N2B 1J4,43.4575734,-80.4583842
16,Perkell Place,N2B 1J4,43.4575096,-80.4585665
10,Perkell Place,N2B 1J4,43.4574593,-80.4587378
24,Kensington Avenue,N2B 1J6,43.4574192,-80.4589208
10,Kensington Avenue,N2B 1J6,43.4576798,-80.4590738
335,Seabrooke Drive,N2R 0G3,43.3849040,-80.4983978
1415,Huron Road,N2R 0L3,43.3826765,-80.4892789
587,Krug Street,N2B 1L9,43.4577871,-80.4589239
593,Krug Street,N2B 1L9,43.4578448,-80.4587330
597,Krug Street,N2B 1L9,43.4579006,-80.4585522
603,Krug Street,N2B 1L9,43.4579537,-80.4583836
607,Krug Street,N2B 1L9,43.4579856,-80.4582048
613,Krug Street,N2B 1L9,43.4580464,-80.4580151
617,Krug Street,N2B 1L9,43.4581187,-80.4578480
623,Krug Street,N2B 1L9,43.4581653,-80.4576531
627,Krug Street,N2B 1L9,43.4582272,-80.4574516
19,Second Avenue,N2C 1N4,43.4348657,-80.4548417
25,Second Avenue,N2C 1N4,43.4346787,-80.4549449
33,Second Avenue,N2C 1N4,43.4345158,-80.4550554
39,Second Avenue,N2C 1N4,43.4343605,-80.4551157
45,Second Avenue,N2C 1N4,43.4341652,-80.4552642
53,Second Avenue,N2C 1N4,43.4340278,-80.4552572
61,Second Avenue,N2C 1N4,43.4337912,-80.4554041
73,Second Avenue,N2C 1N4,43.4334961,-80.4556487
77,Second Avenue,N2C 1N4,43.4333481,-80.4557104
83,Second Avenue,N2C 1N4,43.4332407,-80.4557991
87,Second Avenue,N2C 1N4,43.4330593,-80.4558744
97,Second Avenue,N2C 1N4,43.4328633,-80.4560336
103,Second Avenue,N2C 1N4,43.4327870,-80.4561104
107,Second Avenue,N2C 1N4,43.4326351,-80.4561298
111,Second Avenue,N2C 1N4,43.4325300,-80.4562232
117,Second Avenue,N2C 1N4,43.4321948,-80.4564078
199,Connaught Street,N2C 1B2,43.4315273,-80.4564036
203,Connaught Street,N2C 1B2,43.4314737,-80.4562042
207,Connaught Street,N2C 1B2,43.4314162,-80.4560153
221,Connaught Street,N2C 1B2,43.4313477,-80.4558083
215,Connaught Street,N2C 1B2,43.4312996,-80.4556526
126,Third Avenue,N2C 1N6,43.4318255,-80.4559253
122,Third Avenue,N2C 1N6,43.4319332,-80.4558614
118,Third Avenue,N2C 1N6,43.4321112,-80.4557409
108,Third Avenue,N2C 1N6,43.4322801,-80.4556530
102,Third Avenue,N2C 1N6,43.4324325,-80.4555249
96,Third Avenue,N2C 1N6,43.4325809,-80.4554385
92,Third Avenue,N2C 1N6,43.4327132,-80.4553676
86,Third Avenue,N2C 1N6,43.4328424,-80.4552834
82,Third Avenue,N2C 1N6,43.4329712,-80.4552069
76,Third Avenue,N2C 1N6,43.4330990,-80.4551242
72,Third Avenue,N2C 1N6,43.4332273,-80.4550541
66,Third Avenue,N2C 1N6,43.4333555,-80.4549728
62,Third Avenue,N2C 1N6,43.4334860,-80.4548869
60,Third Avenue,N2C 1N6,43.4336326,-80.4547960
54,Third Avenue,N2C 1N6,43.4337903,-80.4547586
50,Third Avenue,N2C 1N6,43.4339514,-80.4546376
44,Third Avenue,N2C 1N6,43.4340595,-80.4545755
40,Third Avenue,N2C 1N6,43.4341836,-80.4545693
30,Third Avenue,N2C 1N6,43.4344532,-80.4543604
219,Connaught Street,N2C 1B2,43.4312552,-80.4554821
223,Connaught Street,N2C 1B2,43.4312002,-80.4553086
227,Connaught Street,N2C 1B2,43.4311469,-80.4551326
156,Fourth Avenue,N2C 1P1,43.4308226,-80.4552015
142,Fourth Avenue,N2C 1P1,43.4310593,-80.4549980
160,Fourth Avenue,N2C 1P1,43.4306482,-80.4552594
25,Fourth Avenue,N2C 1N9,43.4339715,-80.4526346
18,Fifth Avenue,N2C 1P4,43.4339358,-80.4518934
22,Fifth Avenue,N2C 1P4,43.4338168,-80.4519819
26,Fifth Avenue,N2C 1P4,43.4337350,-80.4520451
32,Fifth Avenue,N2C 1P4,43.4336042,-80.4521205
37,Fourth Avenue,N2C 1N9,43.4336171,-80.4528531
38,Fifth Avenue,N2C 1P4,43.4334102,-80.4522584
42,Fifth Avenue,N2C 1P4,43.4333221,-80.4523327
43,Fourth Avenue,N2C 1N9,43.4334916,-80.4529317
47,Fourth Avenue,N2C 1N9,43.4334001,-80.4529809
53,Fourth Avenue,N2C 1N9,43.4332517,-80.4530508
50,Fifth Avenue,N2C 1P4,43.4331658,-80.4524004
54,Fifth Avenue,N2C 1P4,43.4330353,-80.4524360
63,Fourth Avenue,N2C 1N9,43.4330589,-80.4531313
58,Fifth Avenue,N2C 1P4,43.4328886,-80.4525381
64,Fifth Avenue,N2C 1P4,43.4327913,-80.4526556
69,Fourth Avenue,N2C 1N9,43.4329396,-80.4532354
73,Fourth Avenue,N2C 1N9,43.4328080,-80.4533479
70,Fifth Avenue,N2C 1P4,43.4326203,-80.4527294
78,Fifth Avenue,N2C 1P4,43.4324871,-80.4527825
81,Fourth Avenue,N2C 1N9,43.4325884,-80.4533136
85,Fourth Avenue,N2C 1N9,43.4324862,-80.4535685
84,Fifth Avenue,N2C 1P4,43.4323582,-80.4528940
88,Fifth Avenue,N2C 1P4,43.4322399,-80.4529352
91,Fourth Avenue,N2C 1N9,43.4322781,-80.4535391
94,Fifth Avenue,N2C 1P4,43.4320575,-80.4531002
100,Fifth Avenue,N2C 1P4,43.4319358,-80.4531615
101,Fourth Avenue,N2C 1N9,43.4321197,-80.4537584
104,Fifth Avenue,N2C 1P4,43.4318047,-80.4532551
103,Fourth Avenue,N2C 1N9,43.4319857,-80.4538617
111,Fourth Avenue,N2C 1N9,43.4317858,-80.4539634
112,Fifth Avenue,N2C 1P4,43.4315795,-80.4533121
119,Fourth Avenue,N2C 1N9,43.4316429,-80.4540796
118,Fifth Avenue,N2C 1P4,43.4314213,-80.4534284
125,Fourth Avenue,N2C 1N9,43.4315141,-80.4541168
124,Fifth Avenue,N2C 1P4,43.4312392,-80.4535117
129,Fourth Avenue,N2C 1N9,43.4314060,-80.4541892
135,Fourth Avenue,N2C 1N9,43.4312954,-80.4542543
132,Fifth Avenue,N2C 1P4,43.4310727,-80.4535913
27,Fifth Avenue,N2C 1P5,43.4335427,-80.4515564
31,Fifth Avenue,N2C 1P5,43.4334759,-80.4516038
35,Fifth Avenue,N2C 1P5,43.4333713,-80.4516737
39,Fifth Avenue,N2C 1P5,43.4332616,-80.4517012
45,Fifth Avenue,N2C 1P5,43.4331273,-80.4517632
49,Fifth Avenue,N2C 1P5,43.4330315,-80.4518367
51,Fifth Avenue,N2C 1P5,43.4329415,-80.4519278
55,Fifth Avenue,N2C 1P5,43.4328347,-80.4519967
61,Fifth Avenue,N2C 1P5,43.4327320,-80.4520522
67,Fifth Avenue,N2C 1P5,43.4326257,-80.4520762
67,Fifth Avenue,N2C 1P5,43.4325111,-80.4521078
69,Fifth Avenue,N2C 1P5,43.4324106,-80.4521425
75,Fifth Avenue,N2C 1P5,43.4323284,-80.4522432
81,Fifth Avenue,N2C 1P5,43.4322391,-80.4523148
85,Fifth Avenue,N2C 1P5,43.4320785,-80.4523552
89,Fifth Avenue,N2C 1P5,43.4319465,-80.4524307
95,Fifth Avenue,N2C 1P5,43.4318276,-80.4525695
101,Fifth Avenue,N2C 1P5,43.4317315,-80.4526542
105,Fifth Avenue,N2C 1P5,43.4316400,-80.4526652
109,Fifth Avenue,N2C 1P5,43.4315318,-80.4527637
113,Fifth Avenue,N2C 1P5,43.4314257,-80.4528208
117,Fifth Avenue,N2C 1P5,43.4313104,-80.4528509
119,Fifth Avenue,N2C 1P5,43.4312254,-80.4528945
123,Fifth Avenue,N2C 1P5,43.4311349,-80.4529760
129,Fifth Avenue,N2C 1P5,43.4309550,-80.4531046
51,Breithaupt Street,N2G 5G5;N2H 5G5,43.4541948,-80.4990682
1572,Victoria Street North,N2B 3E5,43.4738029,-80.4364525
116,Deerfield Avenue,N2B 1C8,43.4504617,-80.4589304
110,Deerfield Avenue,N2B 1C8,43.4505055,-80.4592564
106,Deerfield Avenue,N2B 1C8,43.4504889,-80.4594969
100,Deerfield Avenue,N2B 1C8,43.4504510,-80.4597056
96,Deerfield Avenue,N2B 1C8,43.4503989,-80.4598962
90,Deerfield Avenue,N2B 1C8,43.4503315,-80.4600380
86,Deerfield Avenue,N2B 1C8,43.4502744,-80.4602376
82,Deerfield Avenue,N2B 1C8,43.4501722,-80.4604288
15,Kesselring Drive,N2E 2P3,43.4082851,-80.4785236
3570,King Street East,N2A 2W1,43.4254013,-80.4113550
120,Duke Street West,N2H 3W8,43.4525462,-80.4921940
300,Chicopee Hills Drive,N2A 0J6,43.4452954,-80.4147104
380,Louisa Street,N2H 5N4,43.4611005,-80.4871296
20,Heldmann Road,N2P 0A6,43.4084830,-80.3950098
60,Frederick Street,N2H 0C7,43.4507642,-80.4871143
10,Executive Place,N2P 2N4,43.3803112,-80.4106186
186,Union Boulevard,N2M 2S4,43.4544968,-80.5216887
2727,Kingsway Drive,N2C 1A7,43.4297497,-80.4413346
226,Riverbend Drive,N2B 2E9,43.4693328,-80.4693690
11,Springdale Drive,N2K 1P8,43.4769850,-80.4929305
50,Sportsworld Crossing Road,N2P 0A4,43.4095662,-80.3952437
20,Reichert Drive,N2G 0P9,43.3728225,-80.4223214
460,Belmont Avenue West,N2M 0B3,43.4468228,-80.5121807
85,Gage Avenue,N2G 0B4,43.4490494,-80.5108888
312,King Street West,N2G 1B7,43.4521403,-80.4948974
345,King Street West,N2G 1B8,43.4517210,-80.4955669
80,Louisa Street,N2H 5M1,43.4563267,-80.5007588
246,Wellington Street North,N2H 5K7,43.4585858,-80.4912160
156,Weber Street West,N2H 4A4,43.4574564,-80.4951539
213,Breithaupt Street,N2H 5H3,43.4570932,-80.4905932
109,Wellington Street North,N2H 5J7,43.4559306,-80.4977159
325,Duke Street West,N2G 3X9,43.4559308,-80.4971919
35,Dekay Street,N2H 3T4,43.4583997,-80.5027757
123,Waterloo Street,N2H 3V5,43.4581155,-80.5012569
133,Young Street,N2H 4B6,43.4542778,-80.4893315
127,Young Street,N2H 4Z3,43.4541629,-80.4894448
9,Ahrens Street West,N2H 4B6,43.4533680,-80.4870200
189,Victoria Street North,N2H 5C5,43.4559591,-80.4896292
109,College Street,N2H 5A2,43.4544326,-80.4909412
413,Lancaster Street West,N2H 4VB,43.4718350,-80.4851064
199,Riverbend Drive,N2B 2E8,43.4682773,-80.4695830
2295,Kingsway Drive,N2C 1A3,43.4336955,-80.4505595
2287,Kingsway Drive,N2C 1A3,43.4337551,-80.4506327
2285,Kingsway Drive,N2C 1A3,43.4337580,-80.4507605
693,Belmont Avenue West,N2M 1P1,43.4534568,-80.5184031
"669,671",Belmont Avenue West,N2M 1N8,43.4528357,-80.5179811
100,Trafalgar Avenue,N2A 1Z7,43.4390647,-80.4490877
112,Margaret Avenue,N2H 4H6,43.4582920,-80.4898056
214,Park Street,N2G 1M9,43.4511583,-80.5060627
40,Weber Street East,N2H 6R3,43.4510702,-80.4847281
120,Benton Street,N2G 0C7,43.4461583,-80.4913065
67,Second Avenue,N2C 1N4,43.4336103,-80.4554915
65,Second Avenue,N2C 1N4,43.4336886,-80.4554514
34,Third Avenue,N2C 1N6,43.4342918,-80.4545284
32,Fourth Avenue,N2C 1N5,43.4347485,-80.4556496
34,Fifth Avenue,N2C 1P4,43.4335397,-80.4521495
44,Fifth Avenue,N2C 1P4,43.4332723,-80.4523649
66,Fifth Avenue,N2C 1P4,43.4327253,-80.4526932
92,Fifth Avenue,N2C 1P4,43.4321364,-80.4530551
61,Fourth Avenue,N2C 1N9,43.4331229,-80.4530986
87,Fourth Avenue,N2C 1N9,43.4324336,-80.4535988
27,Fourth Avenue,N2C 1N9,43.4338573,-80.4526488
29,Fourth Avenue,N2C 1N9,43.4337808,-80.4526965
31,Fourth Avenue,N2C 1N9,43.4337033,-80.4527458
60,Fourth Avenue,N2C 1N5,43.4339774,-80.4559670
180,Connaught Street,N2C 2R7,43.4321840,-80.4569962
178,Connaught Street,N2C 2R7,43.4322037,-80.4570569
176,Connaught Street,N2C 2R7,43.4322234,-80.4571177
174,Connaught Street,N2C 2R7,43.4322431,-80.4571785
172,Connaught Street,N2C 2R7,43.4322629,-80.4572393
170,Connaught Street,N2C 2R7,43.4322826,-80.4573001
168,Connaught Street,N2C 2R7,43.4323023,-80.4573608
43,Connaught Place,N2C 2P9,43.4332639,-80.4571429
41,Connaught Place,N2C 2P9,43.4332189,-80.4571703
39,Connaught Place,N2C 2P9,43.4331740,-80.4571978
37,Connaught Place,N2C 2P9,43.4331291,-80.4572251
35,Connaught Place,N2C 2P9,43.4330842,-80.4572525
33,Connaught Place,N2C 2P9,43.4330393,-80.4572800
31,Connaught Place,N2C 2P9,43.4329944,-80.4573074
29,Connaught Place,N2C 2P9,43.4329494,-80.4573348
27,Connaught Place,N2C 2P9,43.4329044,-80.4573622
23,Connaught Place,N2C 2P9,43.4327703,-80.4574506
21,Connaught Place,N2C 2P9,43.4327258,-80.4574774
19,Connaught Place,N2C 2P9,43.4326814,-80.4575042
17,Connaught Place,N2C 2P9,43.4326370,-80.4575310
15,Connaught Place,N2C 2P9,43.4325925,-80.4575578
11,Connaught Place,N2C 2P9,43.4325481,-80.4575845
9,Connaught Place,N2C 2P9,43.4325036,-80.4576113
7,Connaught Place,N2C 2P9,43.4324592,-80.4576381
5,Connaught Place,N2C 2P9,43.4324147,-80.4576648
45,Connaught Place,N2C 2P9,43.4333314,-80.4570728
47,Connaught Place,N2C 2P9,43.4333810,-80.4570426
49,Connaught Place,N2C 2P9,43.4334076,-80.4569440
51,Connaught Place,N2C 2P9,43.4334535,-80.4569171
53,Connaught Place,N2C 2P9,43.4334973,-80.4568912
55,Connaught Place,N2C 2P9,43.4335385,-80.4568667
57,Connaught Place,N2C 2P9,43.4335816,-80.4568416
59,Connaught Place,N2C 2P9,43.4336262,-80.4568153
61,Connaught Place,N2C 2P9,43.4336944,-80.4568588
63,Connaught Place,N2C 2P9,43.4337450,-80.4568290
41,First Avenue,N2C 1N3,43.4346616,-80.4562983
37,First Avenue,N2C 1N3,43.4348219,-80.4561273
31,First Avenue,N2C 1N3,43.4349979,-80.4560662
32,Third Avenue,N2C 1N6,43.4343716,-80.4544784
21,Second Avenue,N2C 1N4,43.4347857,-80.4548116
55,Second Avenue,N2C 1N4,43.4339508,-80.4553063
59,Second Avenue,N2C 1N4,43.4338507,-80.4553702
27,Bradley Drive,N2A 1K3,43.4452688,-80.4472669
262,Breithaupt Street,N2H 5H5,43.4583742,-80.4884106
268,Breithaupt Street,N2H 5H5,43.4585880,-80.4882115
15,Charles Street West,N2G 1H3,43.4494014,-80.4923568
425,Bingemans Centre Drive,N2B 3X7,43.4744200,-80.4484480
207,Glasgow Street,N2M 2M3,43.4514240,-80.5175978
1254,Union Street,N2H 6K4,43.4726113,-80.4788903
1065,Guelph Street,N2B 2E4,43.4681999,-80.4724076
1085,Guelph Street,N2B 2E4,43.4684602,-80.4723670
1020,King Street East,N2G 2M9,43.4425449,-80.4727174
107,Filbert Street,N2H 1U3,43.4570413,-80.4769314
288,Frederick Street,N2H 2N5,43.4559708,-80.4779496
103,Bridge Street East,N2K 1K1,43.4790706,-80.4730999
40,Wilhelm Street,N2H 5S1,43.4591790,-80.4970691
187,Ahrens Street West,N2H 4E1,43.4600720,-80.4951724
211,Ahrens Street West,N2H 4E1,43.4608053,-80.4959767
962,Guelph Street,N2H 5Z6,43.4677547,-80.4767235
56,Edwin Street,N2H 4N9,43.4627621,-80.4868401
772,Queen Street South,N2M 1A4,43.4413478,-80.4981217
83,General Drive,N2K 3F7,43.4788677,-80.4884984
130,Lancaster Street East,N2H 1M1,43.4532181,-80.4815172
21,Lydia Street,N2H 1V2,43.4550720,-80.4774035
309,Frederick Street,N2H 2N6,43.4560472,-80.4769669
321,Frederick Street,N2H 2N8,43.4563364,-80.4764187
67,Hohner Avenue,N2H 2V3,43.4518118,-80.4791091
260,Sheldon Avenue North,N2H 6P2,43.4447100,-80.4604849
171,Fairfield Avenue,N2H 6C4,43.4661050,-80.4901782
63,Scott Street,N2H 0C3,43.4501370,-80.4844722
296,Patricia Avenue,N2M 1K1,43.4447844,-80.5090393
63,West Avenue,N2M 1X4,43.4430975,-80.5046445
394,Alice Avenue,N2M 2A4,43.4426027,-80.5165308
1792,Glasgow Street,N2N 0A7,43.4241357,-80.5606330
1800,Glasgow Street,N2N 0A7,43.4238190,-80.5600259
607,Victoria Street North,N2H 5G3,43.4606408,-80.4750471
116,Tupper Crescent,N2B 2X9,43.4618375,-80.4423011
596,Frederick Street,N2B 2A9,43.4604696,-80.4675333
629,Mill Park Drive,N2P 1V4,43.3926089,-80.4176772
41,Amherst Drive,N2P 1E1,43.3919492,-80.4125449
46,Hillcrest Lane,N2K 1S8,43.4846354,-80.4806238
27,Market Street,N2K 1H1,43.4825627,-80.4766694
133,Bloomingdale Road,N2K 1A5,43.4840260,-80.4696459
34,Bloomingdale Road,N2K 1A2,43.4811051,-80.4762128
7,Schweitzer Street,N2K 1B5,43.4796185,-80.4741514
1418,Huron Road,N2R 1R3,43.3815482,-80.4905053
59,Northforest Trail,N2N 2Z1,43.4408773,-80.5417601
617,Glasgow Street,N2M 2N6,43.4464856,-80.5313913
469,Glasgow Street,N2M 2N3,43.4483298,-80.5264115
388,Plains Road,N2R 1R8,43.3734925,-80.4871162
1798,Trussler Road,N2R 1S5,43.3736295,-80.5133350
226,Ingleside Place,N2M 2H2,43.4387691,-80.5305831
66,Weber Street East,N2H 0E1,43.4505843,-80.4838467
187,Grulke Street,N2A 2S6,43.4349052,-80.4304489
187,Grulke Street,N2A 2S6,43.4350030,-80.4309640
187,Grulke Street,N2A 2S6,43.4353426,-80.4311864
2043,Hidden Valley Crescent,N2C 2R2,43.4127463,-80.4184212
3734,King Street East,N2P 2G5,43.4211118,-80.4097141
67,Stonegate Drive,N2A 2Y8,43.4227793,-80.4163971
85,Grand Crest Place,N2C 2L6,43.4072446,-80.4432070
235,Grand River Boulevard,N2A 3G7,43.4294348,-80.4094110
7,Tinatawa Court,N2A 3G7,43.4295380,-80.4092270
8,Lark Street,N2K 1G3,43.4837457,-80.4632884
32,The Kirksway,N2P 2J3,43.4124428,-80.4043626
8,Jacob Gingrich Drive,N2P 2X9,43.4013515,-80.4148696
87,Wexford Crescent,N2N 2A1,43.4347095,-80.5376388
1460,Highland Road West,N2N 3K6,43.4238637,-80.5507778
431,Otterbein Road,N2B 3V8,43.4640024,-80.4256915
741,King Street West,N2G 1E5,43.4552781,-80.5070951
1241,Weber Street East,N2A 1C2,43.4329505,-80.4447876
250,Huck Crescent,N2N 3M9,43.4325887,-80.5525510
59,Heatherwood Place,N2N 3P4,43.4304845,-80.5419531
155,Sophia Crescent,N2R 1X7,43.3857155,-80.4893389
15,Cora Drive,N2N 3C6,43.4192984,-80.5557462
2315,Shirley Drive,N2B 3X4,43.4775676,-80.4309032
565,Trillium Drive,N2R 1J4,43.3991058,-80.4727458
525,New Dundee Road,N2P 0K8,43.3732240,-80.4199206
49,Queen Street North,N2H 2G9,43.4511203,-80.4875643
911,Queen's Boulevard,N2M 1B2,43.4385327,-80.5014175
250,East Avenue,N2H 1Z4,43.4510188,-80.4706169
