House number,Street name,Postal code,Latitude,Longitude
7755,Bayview Avenue,L3T 4P1,43.8195071,-79.3999182
6031,Highway 7,L3P 3A7,43.8733205,-79.2586723
5,Washington Street,L3P 2R3,43.8748417,-79.2586972
5336,Highway 7,L3P 1B9,43.8687715,-79.2804032
5201,Highway 7,L3R 1N3,43.8658623,-79.2867289
5070,Highway 7,L3R 4M9,43.8666846,-79.2880572
5071,Highway 7,L3R 1N3,43.8659151,-79.2878196
5051,Highway 7,L3R 1N3,43.8656604,-79.2887926
3601,Highway 7,L3R 0M3,43.8537961,-79.3386791
3275,Highway 7,L3R 3P9,43.8502974,-79.3500558
8510,Woodbine Avenue,L3R 4X8,43.8504336,-79.3587987
9270,McCowan Road,L6C 2L1,43.8855367,-79.2897312
8685,McCowan Road,L3P 4H1,43.8724827,-79.2853283
8675,McCowan Road,L3P 4H1,43.8725354,-79.2841422
8187,Yonge Street,L3T 2C6,43.8272249,-79.4263398
7070,Warden Avenue,L3R 5Y2,43.8220321,-79.3263892
392,John Street,L3T 5W6,43.8206476,-79.3882029
7123,Yonge Street,L3T 2A8,43.8015325,-79.4205196
350,John Street,L3T 5W6,43.8207505,-79.3925050
7600,Kennedy Road,L3R 9S5,43.8396267,-79.3050951
7665,Kennedy Road,L3R 0L7,43.8412027,-79.3039448
2715,Bur Oak Avenue,L6B 1K7,43.8967098,-79.2313692
53,Goldenwood Crescent,L6E 1Z2,43.9040784,-79.2510118
63,Goldenwood Crescent,L6E 1Z2,43.9044042,-79.2503046
61,Goldenwood Crescent,L6E 1Z2,43.9043558,-79.2504631
55,Goldenwood Crescent,L6E 1Z2,43.9041418,-79.2509025
51,Goldenwood Crescent,L6E 1Z2,43.9039986,-79.2511200
31,Thunderbird Court,L6C 2T2,43.8790292,-79.3469691
76,Amarillo Avenue,L3R 0V3,43.8351795,-79.3072167
142,Main Street Unionville,L3R 2G5,43.8655725,-79.3109401
55,Water Street,V6B 1A1,43.8717046,-79.2704700
3075,14th Ave,L3R 0G9,43.8316798,-79.3527710
5221,Highway 7,L3R 1N3,43.8656206,-79.2851908
3760,Highway 7,L3R 0N2,43.8566423,-79.3323101
3621,Highway 7,L3R 0G6,43.8542807,-79.3369639
8651,McCowan Road,L3P 4H1,43.8716299,-79.2841651
9570,McCowan Rd,L3P 8M1,43.8926525,-79.2910691
9255,Woodbine Avenue,L6C 1Y9,43.8690033,-79.3603219
9255,Woodbine Avenue,L6C 1Y9,43.8703663,-79.3618912
3175,Highway 7,L3R 0T9,43.8495129,-79.3519177
3225,Highway 7,L3R 3P3,43.8485567,-79.3501301
3229,Highway 7,L3R 3P3,43.8482552,-79.3493463
3229,Highway 7,L3R 3P3,43.8482430,-79.3494948
601,Clark Avenue West,L4J 4E5,43.8168090,-79.4242530
7357,Woodbine Avenue,L3R 1A7,43.8229227,-79.3499579
5000,Highway 7,L3R 4M9,43.8698237,-79.2874945
230,Commerce Valley Drive East,L3T 7Y3,43.8436444,-79.3774199
30,Centurian Drive,L3R 8B8,43.8528813,-79.3632092
2300,John Street,L3T 6G7,43.8230378,-79.3688662
25,South Unionville Avenue,L3R 6B8,43.8552714,-79.3043831
8339,Kennedy Road,L3R 5T5,43.8572775,-79.3035170
10,Unionville Gate,L3R 0W7,43.8563964,-79.3078465
9255,Woodbine Avenue,L6C 1Y9,43.8704699,-79.3614629
5221,Highway 7,L3R 1N3,43.8658559,-79.2858383
5261,Highway 7,L3P 1B8,43.8669683,-79.2839081
1,Raymerville Drive,L3P 5J5,43.8765411,-79.2862039
203,Kentland Street,L6E 0K9,43.9012690,-79.2705228
185,Kentland Street,L6E 0K9,43.9000680,-79.2701472
50,Bur Oak Avenue,L6C 0A2,43.8890148,-79.3150765
1661,Denison Street,L3R 6E4,43.8331438,-79.3056653
156,Main Street Unionville,L3R 2G9,43.8668784,-79.3120972
20,Bur Oak Avenue,L6C 0A2,43.8887364,-79.3162939
3636,Steeles Avenue East,L3R 1K9,43.8184455,-79.3310269
8505,Warden Avenue,L3R 0B5,43.8566898,-79.3335859
230,Commerce Valley Drive East,L3T 7Y3,43.8435762,-79.3773745
7700,Markham Road,L3S 4S1,43.8542115,-79.2573986
3828,Highway 7,L3R 1L7,43.8570182,-79.3310957
8601,Warden Avenue,L3R 0B5,43.8583353,-79.3335982
8601,Warden Avenue,L3R 0B5,43.8574937,-79.3315293
8601,Warden Avenue,L3R 0B5,43.8583353,-79.3325317
3085,Highway 7,L3R 0J5,43.8496231,-79.3549459
3085,Highway 7,L3R 0J5,43.8496309,-79.3551471
3987,Highway 7,L3R 5M6,43.8572341,-79.3237601
3997,Highway 7,L3R 5M6,43.8578880,-79.3226060
3621,Highway 7,L3R 0G6,43.8542443,-79.3371056
3987,Highway 7,L3R 5M6,43.8568247,-79.3235372
3987,Highway 7,L3R 5M6,43.8569490,-79.3235814
3995,Highway 7,L3R 5M6,43.8565348,-79.3220306
3987,Highway 7,L3R 5M6,43.8570573,-79.3236344
4-8601,Warden Avenue,L3R 0B5,43.8584096,-79.3327888
8601,Warden Avenue,L3R 0B5,43.8581211,-79.3321677
8601,Warden Avenue,L3R 0B5,43.8579953,-79.3319424
3760,Highway 7,L3R 0N2,43.8566126,-79.3324814
10080,Kennedy Road,L6C 1N9,43.9020328,-79.3248362
179,Enterprise Boulevard,L6G 0E7,43.8492064,-79.3233669
30,Centurian Drive,L3R 8B8,43.8536168,-79.3617040
4160,19th Avenue,L6C 1L9,43.9315808,-79.3382666
10080,Kennedy Road,L6C 1N9,43.8995867,-79.3197286
202,Main Street Unionville,L3R 2G9,43.8680621,-79.3127617
8200,Bayview Avenue,L3T 2S2,43.8319139,-79.4054467
280,Yorktech Drive,L6G 0A6,43.8469042,-79.3492739
825,Denison Street,L3R 5E4,43.8252935,-79.3344382
9271,Markham Road,L6E 1A1,43.8928281,-79.2629631
17,Wootten Way North,L3P 2Y2,43.8786588,-79.2427572
219,Main Street Markham North,L3P 1Y6,43.8833789,-79.2613655
227,Main Street Markham North,L3P 1Y6,43.8838293,-79.2612768
6545,Highway 7,L3P 3B4,43.8780327,-79.2408764
6545,Highway 7,L3P 3B4,43.8781442,-79.2404855
6545,Highway 7,L3P 3B4,43.8779206,-79.2407994
6545,Highway 7,L3P 3B4,43.8778633,-79.2407734
6545,Highway 7,L3P 3B4,43.8778133,-79.2407547
6545,Highway 7,L3P 3B4,43.8748400,-79.2478741
6545,Highway 7,L3P 3B4,43.8777352,-79.2407113
6545,Highway 7,L3P 3B4,43.8777509,-79.2405668
6545,Highway 7,L3P 3B4,43.8777352,-79.2406362
6545,Highway 7,L3P 3B4,43.8777430,-79.2406073
5970,16th Avenue,L3P 7R1,43.8913572,-79.2664715
5694,Highway 7,L3R 1B4,43.8720349,-79.2683890
227,Main Street Markham North,L3P 1Y6,43.8839956,-79.2613198
227,Main Street Markham North,L3P 1Y6,43.8839492,-79.2612179
124,Main Street,L3P 7T8,43.8784101,-79.2610702
5261,Highway 7,L3P 1B8,43.8667340,-79.2836408
5261,Highway 7,L3P 1B8,43.8666973,-79.2838500
189,Main Street Unionville,L3R 2G8,43.8677621,-79.3119283
8675,McCowan Road,L3P 4H1,43.8727241,-79.2843328
7311,Woodbine Avenue,L3R 3V7,43.8215546,-79.3496981
825,Denison Street,L3R 5E4,43.8254058,-79.3339428
675,Cochrane Drive,L3R 0B8,43.8465360,-79.3665841
209,Main Street Unionville,L3R 8R9,43.8686118,-79.3121228
166,Main Street Unionville,L3R 2G9,43.8669888,-79.3121587
139,Main Street Unionville,L3R 2G6,43.8652987,-79.3103214
139,Main Street Unionville,L3R 2G6,43.8654942,-79.3100848
139,Main Street Unionville,L3R 2G6,43.8653449,-79.3103595
139,Main Street Unionville,L3R 2G6,43.8654674,-79.3102060
150,Main Street Unionville,L3R 2G9,43.8661245,-79.3114246
150,Main Street Unionville,L3R 2G9,43.8661927,-79.3114065
157,Main Street Unionville,L3R 2G9,43.8667154,-79.3115732
149,Main Street Unionville,L3R 2G8,43.8663168,-79.3111446
155,Main Street Unionville,L3R 2G8,43.8666214,-79.3114728
154A,Main Street Unionville,L3R 2G9,43.8665090,-79.3117022
155,Main Street Unionville,L3R 2G9,43.8665347,-79.3114724
205,Main Street,L3R 2G8,43.8684115,-79.3121059
205,Main Street Unionville,L3R 2G8,43.8684821,-79.3121286
169,Enterprise Boulevard,L6G 0E7,43.8487848,-79.3240214
8110,Birchmount Road,L6G 0E4,43.8488179,-79.3239521
187,Main Street Unionville,L3R 2G8,43.8675164,-79.3119218
158,Main Street Unionville,L3R 2G9,43.8667726,-79.3116926
170,Main Street Unionville,L3R 2G9,43.8671153,-79.3121928
177,Main Street Unionville,L3R 2G8,43.8672289,-79.3119619
186,Main Street Unionville,L3R 2G9,43.8675421,-79.3123703
193,Main Street Unionville,L3R 2G8,43.8679843,-79.3119970
169,Enterprise Boulevard,L6G 0E7,43.8488569,-79.3241909
169,Enterprise Boulevard,L6G 1B3,43.8492508,-79.3238582
169,Enterprise Boulevard,L6G 0A2,43.8488293,-79.3238435
169,Enterprise Boulevard,L6G 0E7,43.8490602,-79.3237694
179,Enterprise Boulevard,L6G 1B3,43.8494300,-79.3232064
169,Enterprise Boulevard,L3R 0E7,43.8491441,-79.3243234
169,Enterprise Boulevard,L6G 0E7,43.8488891,-79.3236501
179,Enterprise Boulevard,L6G 0A2,43.8490412,-79.3228249
169,Enterprise Boulevard,L6G 0E7,43.8489663,-79.3237183
179,Enterprise Boulevard,L6G 0E7,43.8492986,-79.3230159
179,Enterprise Boulevard,L6G 0E7,43.8491055,-79.3228888
179,Enterprise Boulevard,L6G 0A2,43.8493804,-79.3234112
179,Enterprise Boulevard,L6G 1B3,43.8490880,-79.3225951
179,Enterprise Boulevard,L6G 0E7,43.8494731,-79.3230051
8110,Birchmount Road,L6G 0E3,43.8503131,-79.3254465
8130,Birchmount Road,L6G 0E4,43.8510930,-79.3255863
8110,Birchmount Road,L6G 0E4,43.8506505,-79.3254871
176,Bullock Drive,L3P 7N1,43.8750354,-79.2798156
15,Allstate Parkway,L3R 5B4,43.8500318,-79.3633554
47,Guardsman Road,L3T 6L2,43.8257339,-79.3955968
47,Guardsman Road,L3T 6L2,43.8256997,-79.3956406
7030,Warden Avenue,L3B 5Y2,43.8208621,-79.3265685
158,Main Street Unionville,L3R 2G9,43.8667469,-79.3119189
115,Apple Creek Boulevard,L3R 6C9,43.8574182,-79.3558869
7701,Woodbine Avenue,L3R 2R4,43.8313799,-79.3524304
7690,Woodbine Avenue,M5H 2V5,43.8305796,-79.3535734
3190,Steeles Avenue East,L3R 1G9,43.8158080,-79.3433268
3760,Highway 7,L3R 0N2,43.8565805,-79.3327380
7370,Woodbine Avenue,L3R 1A5,43.8231631,-79.3516030
3155,Highway 7 East,L3R 0T9,43.8481945,-79.3512936
7701,Woodbine Avenue,L3R2N6,43.8307306,-79.3522921
2929,Elgin Mills Road East,L6C 1K8,43.9030695,-79.3740592
72,Copper Creek Drive,L6B 0P2,43.8671974,-79.2308010
7381,Kennedy Road,L3R 5B5,43.8348514,-79.3036526
600,Alden Road,L3R 0E7,43.8380498,-79.3302192
7390,Woodbine Avenue,L3R 1A5,43.8234324,-79.3519025
9,Wootten Way North,L3P 2Y2,43.8787813,-79.2425850
95,Apple Creek Blvd.,L3R 1C7,43.8573558,-79.3565433
8555,Woodbine Avenue,L3R 4X9,43.8512356,-79.3569815
3229,Highway 7,L3R 3P3,43.8481587,-79.3499397
3229,Highway 7 East,L3R 3P3,43.8481858,-79.3497466
7-110,West Beaver Creek Rd,L4B 1J9,43.8500318,-79.3633554
4412,14th Avenue,L3R 0J3,43.8433828,-79.3084173
77,Steelcase Road West,L3R 2M4,43.8175938,-79.3580530
87,Steelcase Road West,L3R 2M4,43.8181144,-79.3584339
57,Steelcase Road West,L3R 2M4,43.8176188,-79.3568740
67,Steelcase Road West,L3R 2M4,43.8172181,-79.3578127
87,Steelcase Road West,L3R 2M4,43.8182574,-79.3581051
7225,Woodbine Avenue,L3R 1A3,43.8196320,-79.3482590
7155,Woodbine Avenue,L3R 1A3,43.8177662,-79.3492127
7155,Woodbine Avenue,L3R 1A3,43.8178876,-79.3489243
7155,Woodbine Avenue,L3R 1A3,43.8179360,-79.3492444
7050,Woodbine Avenue,L3R 4G8,43.8149781,-79.3499655
7050,Woodbine Avenue,L3R 4G8,43.8150597,-79.3497366
7100,Woodbine Avenue,L3R 5J2,43.8157243,-79.3498386
55,Idema Road,L3R 1B1,43.8158040,-79.3510395
3160,Steeles Avenue East,L3R 4G9,43.8157546,-79.3447262
3160,Steeles Avenue East,L3R 4G9,43.8157953,-79.3445746
8500,Leslie Street,L3T 7M8,43.8434731,-79.3830343
3235,Highway 7,L3R 3P3,43.8485753,-79.3479500
3235,Highway 7,L3R 3P3,43.8487721,-79.3478068
3235,Highway 7,L3R 3P9,43.8487168,-79.3478428
3235,Highway 7,L3R 3P3,43.8484072,-79.3488267
162,Enterprise Boulevard,L6G 0A2,43.8493203,-79.3258843
"8110, Unit 11",Birchmount Road,L6G 0E3,43.8502735,-79.3255973
7700,Markham Road,L3S 4S1,43.8526844,-79.2568329
560,Copper Creek Drive,L6B 0S1,43.8709369,-79.2140337
7750,Kennedy Road,L3R 0A7,43.8425655,-79.3057929
7660,Kennedy Road,L3R 9S5,43.8416197,-79.3070141
144,Main Street Markham North,L3P 5T3,43.8791577,-79.2613386
3201,Bur Oak Avenue,L6B 0T2,43.8844571,-79.2289758
6031,Highway 7,L3P 3A7,43.8734363,-79.2585215
5665,14th Avenue,L3S 3K5,43.8519313,-79.2664355
80,Frontenac Drive,L3R 9T8,43.8519557,-79.3625015
80,Frontenac Drive,L3R 9T8,43.8521334,-79.3625719
80,Frontenac Drive,L3R 9T8,43.8516775,-79.3639125
38,Loweswater Avenue,L3R 7W7,43.8652459,-79.3421738
36,Loweswater Avenue,L3R 7W7,43.8651179,-79.3421385
34,Loweswater Avenue,L3R 7W3,43.8649849,-79.3420998
549,Bur Oak Avenue,L6C 3E5,43.8942313,-79.2923112
549,Bur Oak Avenue,L6C 3E5,43.8941872,-79.2925074
80,Frontenac Drive,L3R 9T8,43.8519319,-79.3624920
80,Frontenac Drive,L3R 9T8,43.8521539,-79.3625801
80,Frontenac Drive,L3R 9T8,43.8517055,-79.3639244
7370,Woodbine Avenue,L3R 1A5,43.8231631,-79.3516030
5284,Highway 7,L3P 1B9,43.8683335,-79.2831373
8636,Reesor Road,L6B 1A6,43.8864342,-79.2125243
3600,Steeles Avenue East,L3R 9Z7,43.8183400,-79.3340066
188,Main Street,L3R 2G9,43.8677741,-79.3123056
178,Main Street,L3R 2G9,43.8672875,-79.3123480
155,Main St,L3R 2G8,43.8666214,-79.3114728
3600,Steeles Avenue East,L3R 9Z7,43.8188348,-79.3341947
9990,Kennedy Road,L6C 0M4,43.8967684,-79.3191540
9255,Woodbine Avenue,L6C 1Y9,43.8703468,-79.3619865
9255,Woodbine Avenue,L6C 1Y9,43.8704462,-79.3615453
5071,Highway 7 East,L3R 1N3,43.8658538,-79.2881084
15-2300,John Street,L3T 6G7,43.8240674,-79.3607044
1,Raymerville Drive,L3P 5J5,43.8765687,-79.2860251
1,Raymerville Drive,L3P 5J5,43.8765920,-79.2858955
1,Raymerville Drive,L3P 5J5,43.8766156,-79.2857877
1,Raymerville Drive,L3P 5J5,43.8766404,-79.2856857
1,Raymerville Drive,L3P 5J5,43.8766542,-79.2856194
1,Raymerville Drive,L3P 5J5,43.8766735,-79.2855608
1,Raymerville Drive,L3P 5J5,43.8768544,-79.2853556
8601,Warden Avenue,L3R 0B5,43.8583933,-79.3330038
8601,Warden Avenue,L3R 0B0,43.8584784,-79.3330225
8601,Warden Avenue,L3R 0B5,43.8580616,-79.3320558
7381,Kennedy Road,L3R 5B5,43.8345648,-79.3033495
227,Main Street Markham North,L3P 1Y6,43.8839881,-79.2613637
115,Torbay Road,L3R 2M9,43.8182527,-79.3466066
5000,Highway 7 East,L3R 4M9,43.8701644,-79.2874601
72,Copper Creek Drive,L6B 0P2,43.8669416,-79.2307761
86,Copper Creek Drive,L6B 0P2,43.8675825,-79.2300503
86,Copper Creek Drive,L6B 0P2,43.8671160,-79.2295329
10,South Unionville Avenue,L3R 4P9,43.8558005,-79.3039396
10992,Kennedy Road,L6C 1P1,43.9206951,-79.3260271
505,Highway 7,L3T 7T1,43.8425862,-79.3880340
8374,Woodbine Avenue,M4L 3P1,43.8466294,-79.3578085
50,Bur Oak Avenue,L6C 0A2,43.8894544,-79.3151649
50,Bur Oak Avenue,L6C 0A2,43.8894133,-79.3151464
50,Bur Oak Avenue,L6C 0A2,43.8893611,-79.3151156
50,Bur Oak Avenue,L6C 0A2,43.8892246,-79.3150525
351,Ferrier Street,L3R 5Z2,43.8218353,-79.3293677
20,Bur Oak Avenue,L6C 0A2,43.8887994,-79.3160341
20,Bur Oak Avenue,L6C 0A2,43.8888572,-79.3157116
20,Bur Oak Avenue,L6C 0A2,43.8888871,-79.3155748
210,Bur Oak Avenue,L6C 0A2,43.8888929,-79.3154219
10,Bur Oak Avenue,L6C 0A2,43.8892650,-79.3163057
20,Gibson Drive,L3R 8B5,43.8244326,-79.3268368
2,Corby Road,L3R 8A9,43.8605875,-79.3451078
2,Corby Road,L3R 8A9,43.8604960,-79.3455396
2,Corby Road,L3R 8A9,43.8605595,-79.3452371
2,Corby Road,L3R 8A9,43.8605489,-79.3453076
2,Corby Road,L3R 8A9,43.8605383,-79.3453649
2,Corby Road,L3R 8A9,43.8605129,-79.3454530
9255,Woodbine Avenue,L6C 1Y9,43.8701465,-79.3610550
350,John Street,L3T 5W6,43.8210728,-79.3926209
179,Enterprise Boulevard,L6G 0A2,43.8495124,-79.3228043
1220,Castlemore Avenue,L6E 0H7,43.9056071,-79.2696250
8630,Woodbine Avenue,L3R 4X8,43.8526307,-79.3591894
170,Enterprise Boulevard,L6G 0E6,43.8496189,-79.3245732
170,Enterprise Boulevard,L6G 0A2,43.8500289,-79.3247678
180,Enterprise Boulevard,L6G 0E6,43.8499403,-79.3233746
6061,Highway 7,L3P 3B2,43.8743534,-79.2563048
19,Laidlaw Boulevard,L3P 1W5,43.8727043,-79.2781910
9750,Markham Road,L6E 0H8,43.9033094,-79.2674287
5261,Highway 7,L3P 1B8,43.8668622,-79.2837643
3000,Highway 7,L3R 4X9,43.8505419,-79.3569818
140,Renfrew Drive,L3R 6B3,43.8592900,-79.3646887
5990,16th Avenue,L3P 7R2,43.8918507,-79.2658669
51,Saddlecreek Drive,L3T 7Z1,43.8405124,-79.3946793
10,Royal Orchard Boulevard,L3T 3C0,43.8236644,-79.4246202
2920,Major MacKenzie Drive East,L6C 0G0,43.8857758,-79.3701568
9255,Woodbine Avenue,L6C 1Y0,43.8694780,-79.3604482
4630,Highway 7,L3R 1M0,43.8631673,-79.3048136
5762,Highway 7,L3P 1B0,43.8723430,-79.2673882
1720,Bur Oak Avenue,L6E 0H0,43.9004429,-79.2666728
6579,Highway 7,L3P 7P0,43.8781144,-79.2391497
2851,John Street,L3R 5R0,43.8245384,-79.3528029
7060,Warden Avenue,L3R 5Y0,43.8215169,-79.3267826
3930,14th Avenue,L3R 3L0,43.8396451,-79.3229247
1661,Denison Street,L3R 6E0,43.8333417,-79.3061639
7700,Markham Road,L3S 4S0,43.8535478,-79.2571291
90,Copper Creek Drive,L6B 0P0,43.8673272,-79.2287044
401,Bentley Street,L3R 9T2,43.8290088,-79.3378807
50,Lockridge Avenue,L3R 7R6,43.8717795,-79.3436226
50,Lockridge Avenue,L3R 8X4,43.8715614,-79.3435745
50,Lockridge Avenue,L3R 8X4,43.8714604,-79.3434972
50,Lockridge Avenue,L3R 8X4,43.8713436,-79.3434425
50,Lockridge Avenue,L3R 8X4,43.8711317,-79.3433728
50,Lockridge Avenue,L3R 8X4,43.8710212,-79.3432866
9255,Woodbine Avenue,L6C 1Y9,43.8700372,-79.3610088
9390,Woodbine Avenue,L6C 0M5,43.8726261,-79.3649845
3275,Highway 7,L3R 3P9,43.8506489,-79.3502505
180,Enterprise Boulevard,L6G 0G4,43.8498690,-79.3235112
180,Enterprise Boulevard,L6G 1B3,43.8498040,-79.3236953
735,Markland Street,L6C0G6,43.8863505,-79.3734294
160,Torbay Road,L3R 1G6,43.8180819,-79.3453867
166,Torbay Road,L3R 1G6,43.8179010,-79.3452915
7393,Markham Road,L3S 0B5,43.8487371,-79.2533171
5384,Highway 7,L3P 1B9,43.8682597,-79.2833226
3621,Highway 7,L3R 0G6,43.8540592,-79.3368995
65,Goldenwood Crescent,L6E 1Z2,43.9044441,-79.2501494
59,Goldenwood Crescent,L6E 1Z2,43.9042914,-79.2506148
57,Goldenwood Crescent,L6E 1Z2,43.9042259,-79.2507606
5970,16th Avenue,L3P 7R1,43.8912475,-79.2664323
8339,Kennedy Road,L3R 1J5,43.8571637,-79.3034325
7060,Warden Avenue,L3B 5V1,43.8210635,-79.3266982
500,"Hood Rd, Suite 400",L3R 9Z3,43.8321226,-79.3302058
25,Emeline Crescent,L3P 4G2,43.8893478,-79.2455243
12,Main Street North,L3P 1X2,43.8743939,-79.2602680
3215,Highway 7,L3R 3P3,43.8492383,-79.3504459
3265,Highway 7,L3R 3P9,43.8503475,-79.3492428
7163,Yonge Street,L3T 0C6,43.8022619,-79.4206799
227,Main Street Markham North,L3P 1Y6,43.8841197,-79.2613660
7600,Kennedy Road,L3R 9S5,43.8407000,-79.3056243
7027,Yonge Street,L3T 2A5,43.7989447,-79.4198567
8131,Yonge Street,L3T 2C6,43.8260216,-79.4261442
5954,Hwy 7,L3P 1A2,43.8741776,-79.2608539
7676,Woodbine Avenue,L3R 2N2,43.8300223,-79.3545407
7181,Yonge Street,L3T 0C7,43.8028551,-79.4192818
150,Bullock Drive,L3P 1R1,43.8768272,-79.2729694
150,Bullock Drive,L3P 1W2,43.8771179,-79.2728113
7165,Yonge Street,L3T 0C9,43.8028971,-79.4194564
83,Glen Cameron Road,L3T 1N8,43.8066758,-79.4144521
21,Fairburn Drive,L6G 0A6,43.8474892,-79.3496727
4641,Highway 7,L3R 1M6,43.8622094,-79.3039867
226,Main Street Markham North,L3P1Y6,43.8836464,-79.2613301
84,Old Kennedy Road,L3R 1K7,43.8275129,-79.3009661
500,Alden Road,L3R 5H5,43.8355438,-79.3334409
7060,Warden Avenue,L3R 5Y2,43.8217390,-79.3267701
9441,Markham Road,L3P 3J3,43.8983147,-79.2644262
9441,Markham Road,L6E0H7,43.8984683,-79.2637222
9441,Markham Road,L6E0H7,43.8983273,-79.2636779
7040,Warden Avenue,L3R 5Y3,43.8210412,-79.3254146
298,John Street,L3T 6M8,43.8197381,-79.3977895
238,Copper Creek Drive,L6B 1N6,43.8702040,-79.2235469
7100,Warden Avenue,L3R 8B5,43.8231407,-79.3272111
5051,Highway 7 East,L3R 1N3,43.8653412,-79.2895956
4981,Highway 7 East,L3R 1N1,43.8649230,-79.2921614
11584,York/Durham Line,L6B 1A8,43.9606634,-79.2172879
176,Bullock Drive,L3P 7N1,43.8750087,-79.2796978
9275,Markham Road,L6E 1A2,43.8940198,-79.2636557
298,John Street,L3T 6M8,43.8197538,-79.3982023
2300,John Street,L3T 6G7,43.8232256,-79.3695527
2300,John Street,L3T 6G7,43.8230732,-79.3687032
2300,John Street,L3T 6G7,43.8230070,-79.3687872
2300,John Street,L3T 6G7,43.8230615,-79.3689189
2300,John Street,L3T 6G7,43.8230851,-79.3689707
2300,John Street,L3T 6G7,43.8231285,-79.3690789
2300,John Street,L3T 6G7,43.8231861,-79.3692127
2300,John Street,L3T 6G7,43.8232108,-79.3692700
2300,John Street,L3T 6G7,43.8233017,-79.3693985
2300,John Street,L3T 6G7,43.8232579,-79.3694411
2300,John Street,L3T 6G7,43.8232436,-79.3694743
2300,John Street,L3T 6G7,43.8232187,-79.3695891
2300,John Street,L3T 6G7,43.8232074,-79.3696484
2300,John Street,L3T 6G7,43.8231968,-79.3696991
2300,John Street,L3T 6G7,43.8231871,-79.3697448
2300,John Street,L3T 6G7,43.8231760,-79.3697947
352,John Street,L3T 5W6,43.8204857,-79.3920294
354,John Street,L3T 5W6,43.8204953,-79.3919171
356,John Street,L3T 5W6,43.8204994,-79.3918693
358,John Street,L3T 5W6,43.8205084,-79.3917635
360,John Street,L3T 5W6,43.8205156,-79.3916788
362,John Street,L3T 5W6,43.8205246,-79.3915746
364,John Street,L3T 5W6,43.8205287,-79.3915264
366,John Street,L3T 5W6,43.8205375,-79.3914232
368,John Street,L3T 5W6,43.8205415,-79.3913769
370,John Street,L3T 5W6,43.8205504,-79.3912727
374,John Street,L3T 5W6,43.8205641,-79.3911129
376,John Street,L3T 5W6,43.8205730,-79.3910085
378,John Street,L3T 5W6,43.8205770,-79.3909619
380,John Street,L3T 5W6,43.8205865,-79.3908509
355,John Street,L3T 5W5,43.8199297,-79.3913426
361,John Street,L3T 5W5,43.8199870,-79.3910953
365,John Street,L3T 5W5,43.8199380,-79.3906444
365,John Street,L3T 5W5,43.8197652,-79.3905207
361,John Street,L3T 5W5,43.8196619,-79.3908403
365,John Street,L3T 5W5,43.8195707,-79.3903813
365,John Street,L3T 5W5,43.8193810,-79.3902455
365,John Street,L3T 5W5,43.8191990,-79.3901151
371,John Street,L3T 5W5,43.8199995,-79.3901292
371,John Street,L3T 5W5,43.8197655,-79.3900052
371,John Street,L3T 5W5,43.8193766,-79.3897990
375,John Street,L3T 5W5,43.8198940,-79.3896811
385,John Street,L3T 5W5,43.8200189,-79.3893835
385,John Street,L3T 5W5,43.8200196,-79.3892607
385,John Street,L3T 5W5,43.8200203,-79.3891397
385,John Street,L3T 5W5,43.8200209,-79.3890220
385,John Street,L3T 5W5,43.8200215,-79.3889117
392,John Street,L3T 5W6,43.8206570,-79.3883849
100,Allstate Parkway,L3R 6H3,43.8542182,-79.3687932
39,Glen Cameron Road,L3T 1P1,43.8056645,-79.4179501
570,Hood Road,L3R 4G7,43.8338253,-79.3309278
2890,Major Mackenzie Dr E,L6C 0G6,43.8853962,-79.3721749
455,Ferrier Street,L3R 5Z2,43.8193468,-79.3286605
7690,Markham Road,L3S 4S1,43.8531543,-79.2559426
5000,Hwy 7,L3P 3M2,43.8706871,-79.2872582
5000,Highway 7,L3R 4M9,43.8676111,-79.2898702
60,Doncaster Avenue,L3T 1L5,43.8046906,-79.4166473
8101,Leslie Street,L3T 7P4,43.8351155,-79.3771562
38,Hillmount Road,L6C 2H4,43.8770738,-79.3684299
8600,McCowan Road,L3P 3M2,43.8731050,-79.2878402
45,Willowbrook Road,L3T 4X6,43.8288147,-79.3975808
8075,Bayview Avenue,L3T 4N4,43.8296639,-79.4013675
8075,Bayview Avenue,L3T 4N4,43.8293187,-79.4025843
135,Green Lane,L3T 6K7,43.8235464,-79.3875685
7859,Yonge Street,L3T 2C4,43.8208250,-79.4138631
41,Porterfield Crescent,L3T 5C3,43.8169896,-79.3969409
42,Limcombe Drive,L3T 2V5,43.8107994,-79.3925364
42,Limcombe Drive,L3T 2V5,43.8105539,-79.3925372
2400,John Street,L3T 6G6,43.8239070,-79.3684910
257,Carlton Road,L3R 2A3,43.8689376,-79.3134758
216,Main Street Unionville,L3R 2H1,43.8693530,-79.3126558
15,Library Lane,L3R 5C4,43.8697001,-79.3103041
130,South Town Centre Boulevard,L6G 1B8,43.8507171,-79.3380307
90,Robinson Street,L3P 1N9,43.8759702,-79.2680421
6041,Highway 7,L3P 3A7,43.8736710,-79.2581830
5762,Highway 7 East,L3P 1A7,43.8723485,-79.2667705
8500,Warden Avenue,L6G 1A5,43.8539957,-79.3351867
15,Allstate Parkway,L3R 5B4,43.8501190,-79.3634120
19,Allstate Parkway,L3R 5A4,43.8507405,-79.3626292
11,Allstate Parkway,L3R 9T8,43.8503367,-79.3645811
27,Allstate Parkway,L3R 5P8,43.8513308,-79.3657374
300,Commerce Valley Drive East,L3T 7X3,43.8445510,-79.3784621
1000,Carlton Road,L3P 7P5,43.8772897,-79.2893988
100,Central Park Drive,L3P 7G2,43.8795858,-79.2926480
75,Waterbridge Lane,L3R 4G3,43.8754207,-79.3052206
11,Major Button's Drive,L3P 3G6,43.8743045,-79.2430179
90,Bur Oak Avenue,L6C 2E6,43.8904404,-79.3132280
130,Castlemore Avenue,L6C 2P9,43.8967733,-79.3075914
256,Ridgecrest Road,L6C 2R5,43.8976823,-79.3039524
168,Stonebridge Drive,L6C 2Z8,43.8908447,-79.2964557
131,Coppard Avenue,L3S 2T5,43.8456110,-79.2730366
11,Coppard Avenue,L3S 2J4,43.8371786,-79.2722511
50,Featherstone Avenue,L3S 2H4,43.8401535,-79.2699257
30,Fonda Road,L3S 3X3,43.8444906,-79.2598685
50,Aldergrove Drive,L3R 7E4,43.8313984,-79.2910415
115,Drakefield Road,L3P 1G9,43.8661137,-79.2754785
120,Carlton Road,L3R 1Z9,43.8720722,-79.3256739
3828,Highway 7,L3R 1L7,43.8570426,-79.3310247
30,Boxwood Crescent,L3S 3P7,43.8556374,-79.2449621
90,Roxbury Street,L3S 3S8,43.8597363,-79.2473871
90,Roxbury Street,L3S 3S8,43.8594480,-79.2472310
7700,Bayview Avenue,L3T 5W1,43.8197911,-79.4035962
120,Royal Orchard Boulevard,L3T 3C9,43.8253861,-79.4137692
201,Bay Thorn Drive,L3T 3V2,43.8275404,-79.4205849
33,Cairns Drive,L3P 7M8,43.8814198,-79.2781456
11,Cairns Drive,L3P 7M8,43.8804708,-79.2777423
150,Aldergrove Drive,L3R 6Z8,43.8294713,-79.2950348
141,Kirk Drive,L3T 3L3,43.8290603,-79.4162951
36,Stornoway Crescent,L3T 3X7,43.8296839,-79.4108546
61,Simonston Boulevard,L3T 4R5,43.8148664,-79.3665466
18,Coxworth Avenue,L3S 3B8,43.8400124,-79.2593243
121,Whitehall Drive,L3R 9T1,43.8571053,-79.3447474
151,Whitehall Drive,L3R 9T1,43.8573231,-79.3438022
81,Whitehall Drive,L3R 9T1,43.8568310,-79.3459031
171,Town Centre Boulevard,L3R 8G5,43.8575989,-79.3363279
2,Corby Road,L3R 8A9,43.8605544,-79.3452810
22,Esna Park Drive,L3R 1E1,43.8282614,-79.3486109
20,Steelcase Road West,L3R1B2,43.8196390,-79.3530200
398,Ferrier Street,L3R 2Z5,43.8199405,-79.3314015
100,Acadia Avenue,L3R 5A2,43.8219325,-79.3286345
825,Denison Street,L3R 5E4,43.8251340,-79.3341800
2,Lang Road,L3T 7E1,43.8312970,-79.3855985
7690,Woodbine Avenue,M5H 2V5,43.8306630,-79.3537460
9441,Markham Road,L3P 3J3,43.8983755,-79.2642881
1,Chatelaine Drive,L3S 3S9,43.8570825,-79.2508520
399,Elson Street,L3S 4R8,43.8443764,-79.2444401
140,Hollingham Road,L3R 8K4,43.8670889,-79.3437454
2130,Rodick Road,L6C 1S7,43.8703566,-79.3533683
181,Whitehall Drive,L3R 9T1,43.8575566,-79.3426564
8700,McCowan Road,L3P 3M2,43.8764124,-79.2874853
1000,Carlton Road,L3P 7P5,43.8774416,-79.2892840
380,Church Street,L6B 1E1,43.8857890,-79.2308315
4175,14th Avenue,L3R 0J2,43.8382735,-79.3153450
7522,Kennedy Road,L3R 9S5,43.8377660,-79.3052635
371,Gough Road,L3R 4B6,43.8383158,-79.3234741
250,Royal Crest Court,L3R 3S1,43.8425079,-79.3221890
90,Royal Crest Court,L3R 9X6,43.8413815,-79.3269771
37,Galleria Parkway,L3T 0A5,43.8394018,-79.3938253
39,Galleria Parkway,L3T 0A5,43.8394053,-79.3927638
281,Hillmount Road,L6C 2S3,43.8782973,-79.3770195
9251,Woodbine Avenue,L6C 1Y9,43.8691218,-79.3623368
9255,Woodbine Avenue,L6C 1Y9,43.8691729,-79.3618642
39,Green Lane,L3T 6K5,43.8214949,-79.3977687
365,John Street,L3T 5W5,43.8195656,-79.3903779
371,John Street,L3T 5W5,43.8196359,-79.3899342
351,John Street,L3T 5W5,43.8197644,-79.3916531
391,John Street,L3T 5W5,43.8198529,-79.3882232
350,John Street,L3T 5W6,43.8210951,-79.3926293
355,John Street,L3T 5W5,43.8197390,-79.3912003
385,John Street,L3T 5W5,43.8196686,-79.3890712
375,John Street,L3T 5W5,43.8196943,-79.3895909
300,Steeles Avenue East,L3T 1A7,43.8043659,-79.3948713
7217,Bayview Avenue,L3T 2R5,43.8083979,-79.3981393
350,Steeles Avenue East,L3T 1A8,43.8051330,-79.3890769
392,John Street,L3T 5W6,43.8206522,-79.3883031
255,Bayview Fairways Drive,L3T 2Z6,43.8184776,-79.3830720
111,Doncaster Avenue,L3T 1L6,43.8046550,-79.4123340
555,Cochrane Drive,L3R 8E3,43.8436955,-79.3669359
140,Allstate Parkway,L3R 5Y8,43.8552971,-79.3693287
275,Renfrew Drive,L3R 6B3,43.8606243,-79.3640710
5396,Highway 7,L3P 1B9,43.8693019,-79.2786797
5336,Highway 7,L3P 1B9,43.8689664,-79.2805469
5051,Highway 7,L3R 1N3,43.8653351,-79.2896133
5362,Highway 7,L3P 1B9,43.8693473,-79.2794895
11,Cairns Drive,L3P 7M8,43.8802835,-79.2775093
145,Anderson Avenue,L6E1A4,43.9030777,-79.2636806
125,Anderson Avenue,L6E1A4,43.9025458,-79.2636504
1330,Castlemore Avenue,L6E 1A4,43.9052155,-79.2639906
9829,Markham Road,L6E2E1,43.9067847,-79.2629711
138,Anderson Avenue,L6E1A4,43.9022990,-79.2653282
91,Anderson Avenue,L6E1A5,43.9015340,-79.2636360
105,Anderson Avenue,L6E1A4,43.9019031,-79.2635753
10243,Reesor Road,L6B 1A8,43.9258834,-79.2187211
35,Highgate Drive,L3R 3R5,43.8270372,-79.3149528
5225,Highway 7,L3R 1N3,43.8664055,-79.2849901
69,Wootten Way North,L3P 2Y5,43.8856621,-79.2436259
33,Brando Avenue,L3S 4K9,43.8490108,-79.2559963
85,Enterprise Boulevard,L6G 0B5,43.8488513,-79.3286249
3990,Major MacKenzie Drive East,L6C 1P8,43.8946366,-79.3362530
300,Main Street,L3R 2H2,43.8743877,-79.3145426
125,Kreighoff Ave,L3R 1V8,43.8640302,-79.3238416
5804,Highway 7 East,L3P 1A6,43.8724190,-79.2651425
60,Wilclay Avenue,L3S 1R4,43.8328930,-79.2826850
167,Dudley Avenue,L3T 2E5,43.8100091,-79.4182613
200,Bullock Drive,L3P 1W2,43.8743322,-79.2847694
192,Bullock Drive,L3P 1W2,43.8742780,-79.2818021
60,Coledale Road,L3R 7W8,43.8644787,-79.3441483
2188,Rodick Road,L6C 1S3,43.8747592,-79.3590365
1,Lyndhurst Drive,L3T 6T5,43.8262855,-79.3704810
66,Henderson Avenue,L3T 2K7,43.8052570,-79.4090319
7271,Warden Avenue,L3R 5X5,43.8291930,-79.3261980
8510,Woodbine Avenue,L3R 4X8,43.8509623,-79.3586677
8510,Woodbine Avenue,L3R 4X8,43.8507447,-79.3588922
300,Allstate Parkway,L3R0P2,43.8570180,-79.3710072
8510,Woodbine Avenue,L3R 4X8,43.8506214,-79.3588062
162,Enterprise Boulevard,L6G 0A2,43.8494077,-79.3262301
4077,Highway 7,L3R 1L5,43.8575255,-79.3204322
2250,Denison Street,L3S 1E9,43.8398800,-79.2835065
2830,Highway 7,L3R 0J4,43.8493526,-79.3621445
2830,Highway 7,L3R 0J4,43.8492492,-79.3626641
8205,McCowan Road,L3P 3J3,43.8605747,-79.2817533
9580,McCowan Road,L3P 3J3,43.8925677,-79.2930829
565,Fred Mclaren Blvd,L6E 1N7,43.9021779,-79.2874620
15,Larkin Avenue,L3P 4P8,43.8907922,-79.2565802
80,Alfred Patterson Drive,L6E 1J5,43.9016116,-79.2449704
186,Country Glen Road,L6B 1B5,43.8911751,-79.2354395
230,Fincham Avenue,L3P 4B5,43.8910671,-79.2477559
280,Yorktech Drive,L6G 0A6,43.8466208,-79.3493781
8250,Warden Avenue,L6G 1B4,43.8505006,-79.3345848
281,Williamson Road,L6E 1X1,43.9027716,-79.2584582
2070,Bur Oak Avenue,L6E 1X5,43.9035641,-79.2530719
290,Calvert Road,L6C 1V1,43.8750573,-79.3529266
230,Calvert Road,L6C 1T5,43.8730893,-79.3590781
840,Bur Oak Avenue,L6E 0E1,43.8977328,-79.2828082
171,Mingay Ave,L6E 1H8,43.8979239,-79.2742432
160,Hazelton Avenue,L6C 3H6,43.8961891,-79.3684018
735,Markland Street,L6C0G6,43.8863585,-79.3734303
2900,Major MacKenzie Drive East,L6C 0G6,43.8865995,-79.3714428
70,Copper Creek Drive,L6B 0S1,43.8707610,-79.2144878
355,South Unionville Avenue,L3R 5C8,43.8565055,-79.2940914
98,Copper Creek Drive,L6B 0P2,43.8684280,-79.2297565
86,Copper Creek Drive,L6B 0P2,43.8671665,-79.2296300
21,Franklin Street,L3P 2S7,43.8799872,-79.2581555
571,Country Glen Road,L6B 1E8,43.9016748,-79.2347854
289,Risebrough Circuit,L3R 3J3,43.8269854,-79.3196332
45,Murison Drive,L6C 0J4,43.8903765,-79.3722384
44,Main Street,L3R 2E4,43.8574012,-79.3114487
525,Highglen Avenue,L3S 3L5,43.8464152,-79.2680903
141,John Button Boulevard,L3R 9C2,43.8648556,-79.3553115
111,John Button Boulevard,L3R 9C1,43.8638941,-79.3580905
22,Fonthill Boulevard,L3R 1V6,43.8672778,-79.3139542
5833,Highway 7 East,L3P 1A4,43.8717735,-79.2639885
5863,Highway 7 East,L3P 1A3,43.8720350,-79.2631875
5871,Highway 7 East,L3P 1A3,43.8720815,-79.2626525
5837,Highway 7 East,L3P 1A4,43.8718985,-79.2636785
5873,Highway 7 East,L3P 1A3,43.8722685,-79.2624285
5797,Highway 7 East,L3P 1A5,43.8713935,-79.2653160
337,John Street,L3T 5W5,43.8192120,-79.3926681
5300,14th Avenue,L3S 3K8,43.8512895,-79.2785645
270,Alfred Paterson Drive,L6E 2G1,43.9088720,-79.2521070
933,Bur Oak Avenue,L6E 1G4,43.8962405,-79.2783312
9305,Markham Road,L3P 3J3,43.8956235,-79.2639060
2780,Bur Oak Avenue,L6B 1C9,43.8942285,-79.2309865
2755,Denison Street,L3S 2J3,43.8413415,-79.2689492
223,Highglen Avenue,L3S 1Y4,43.8437304,-79.2872527
50,Randall Avenue,L3S 1E2,43.8417436,-79.2867034
505,Highway 7,L3T 7T1,43.8423705,-79.3868905
38,Swansea Road,L3R 5K2,43.8630493,-79.2990645
7181,Yonge Street,L3T 0C7,43.8032614,-79.4196898
34,Main Street Unionville,L3R 4Z8,43.8564064,-79.3100428
180,Honda Blvd,L6C0H9,43.9147269,-79.3847476
455,Ferrier Street,L3R 5Z2,43.8193510,-79.3286905
9255,Woodbine Avenue,L6C 1Y9,43.8696259,-79.3626031
3991,Highway 7,L3R 5M6,43.8565090,-79.3232381
3985,Highway 7,L3R 2A2,43.8576257,-79.3238912
165,McIntosh Drive,L3R 6C9,43.8570551,-79.3573726
50,Prince Of Wales Drive,L6C 0K2,43.9072121,-79.3759949
9899,Markham Road,L3P3J3,43.9070087,-79.2666670
9690,Markham Road,L6E0H8,43.9018104,-79.2669338
158,Anderson Avenue,L6E1A9,43.9028097,-79.2653959
135,Anderson Avenue,L6E1A4,43.9027913,-79.2635576
114,Anderson Avenue,L6E1A5,43.9016924,-79.2653345
50,Anderson Avenue,L6E1A6,43.9010502,-79.2651961
77,Anderson Avenue,L6E1A5,43.9012625,-79.2636197
155,Anderson Avenue,L6E1A4,43.9034002,-79.2635888
8636,Reesor Road,L6B 1A8,43.8864070,-79.2125120
1220,Castlemore Avenue,L6E 0H7,43.9056681,-79.2697689
9350,Markham Road,L3P 3J3,43.8934330,-79.2651085
6160,16th Avenue,L3P 3K8,43.8952545,-79.2596279
4340,Highway 7 East,L3X 1L9,43.8612336,-79.3130015
315,Mingay Avenue,L6E 1T5,43.9047110,-79.2761392
8505,Warden Avenue,L3R 0B5,43.8565669,-79.3335279
4530,Steeles Avenue East,L3R 0L2,43.8259840,-79.2987860
31,Porterfield Crescent,L3T 5C3,43.8169442,-79.3979193
30,Centurian Drive,L3R 8B8,43.8534413,-79.3616497
60,Centurian Drive,L3R 8B8,43.8533243,-79.3622498
10638,Ninth Line,L6B 1A8,43.9307386,-79.2491204
30,John Allan Cameron Street,L6B 0P4,43.8937966,-79.2219855
320,Steeles Avenue East,L3T 1A8,43.8048007,-79.3918045
324,Steeles Avenue East,L3T 1A8,43.8048228,-79.3913615
20,Prescott Court,L3T 5W7,43.8112181,-79.3980854
18,Prescott Court,L3T 5W7,43.8116101,-79.3981881
97,Major Button's Drive,L3P 3X4,43.8712260,-79.2428775
95,Major Button's Drive,L3P 3X4,43.8711600,-79.2430135
93,Major Button's Drive,L3P 3X4,43.8710835,-79.2431670
6545,Highway 7,L3P 3B4,43.8778889,-79.2406613
8961,Ninth Line,L6B 1A8,43.8894690,-79.2371935
16,Prescott Court,L3T 5W7,43.8120922,-79.3982573
14,Prescott Court,L3T 5W7,43.8121172,-79.3986790
12,Prescott Court,L3T 5W7,43.8119903,-79.3990119
10,Prescott Court,L3T 5W7,43.8116052,-79.3989195
8,Prescott Court,L3T 5W7,43.8113683,-79.3987781
6,Prescott Court,L3T 5W7,43.8111007,-79.3987374
4,Prescott Court,L3T 5W7,43.8108130,-79.3986770
2,Prescott Court,L3T 5W7,43.8105496,-79.3986269
8510,Woodbine Avenue,L3R 4X8,43.8510191,-79.3590071
16,Sycamore Drive,L3T 5V4,43.8340652,-79.4034293
18,Sycamore Drive,L3T 5V4,43.8341324,-79.4032541
19,Landmark Court,L3R 9N6,43.8614431,-79.3274226
22,Landmark Court,L3R 9N6,43.8618298,-79.3277892
24,Landmark Court,L3R 9N6,43.8617829,-79.3279728
26,Landmark Court,L3R 9N6,43.8617433,-79.3281624
40,Landmark Court,L3R 9N6,43.8620451,-79.3281697
42,Landmark Court,L3R 9N6,43.8621920,-79.3281587
44,Landmark Court,L3R 9N6,43.8623422,-79.3282464
46,Landmark Court,L3R 9N6,43.8624064,-79.3284878
1,Campbell Court,L3R 2B3,43.8629006,-79.2874544
3,Campbell Court,L3R 2B3,43.8627336,-79.2883032
5,Campbell Court,L3R 2B3,43.8630419,-79.2882833
7,Campbell Court,L3R 2B3,43.8633404,-79.2883670
9,Campbell Court,L3R 2B3,43.8636211,-79.2883824
11,Campbell Court,L3R 2B3,43.8638768,-79.2884518
1,Rouge Street,L3P 1K7,43.8671420,-79.2579665
3,Rouge Street,L3P 1K7,43.8671400,-79.2577300
5,Rouge Street,L3P 1K7,43.8672060,-79.2574250
7,Rouge Street,L3P 1K7,43.8673000,-79.2572585
9,Rouge Street,L3P 1K7,43.8673060,-79.2570810
15,Rouge Street,L3P 1K7,43.8673640,-79.2569235
17,Rouge Street,L3P 1K7,43.8673805,-79.2567600
19,Rouge Street,L3P 1K7,43.8674395,-79.2565940
21,Rouge Street,L3P 1K7,43.8673930,-79.2562965
23,Rouge Street,L3P 1K7,43.8677080,-79.2554130
25,Rouge Street,L3P 1K7,43.8677725,-79.2552665
27,Rouge Street,L3P 1K7,43.8678015,-79.2550980
29,Rouge Street,L3P 1K7,43.8678265,-79.2549165
31,Rouge Street,L3P 1K7,43.8678825,-79.2547595
33,Rouge Street,L3P 1K7,43.8679065,-79.2545765
35,Rouge Street,L3P 1K7,43.8679600,-79.2544210
37,Rouge Street,L3P 1K7,43.8680095,-79.2542535
39,Rouge Street,L3P 1K7,43.8680235,-79.2540780
41,Rouge Street,L3P 1K7,43.8680320,-79.2538870
43,Rouge Street,L3P 1K7,43.8681020,-79.2537570
45,Rouge Street,L3P 1K7,43.8681610,-79.2535740
47,Rouge Street,L3P 1K7,43.8681860,-79.2533995
49,Rouge Street,L3P 1K7,43.8681765,-79.2532370
51,Rouge Street,L3P 1K7,43.8682415,-79.2530615
53,Rouge Street,L3P 1K7,43.8683225,-79.2529330
55,Rouge Street,L3P 1K7,43.8683590,-79.2527430
57,Rouge Street,L3P 1K7,43.8683880,-79.2525485
59,Rouge Street,L3P 1K7,43.8684105,-79.2523170
61,Rouge Street,L3P 1K7,43.8680075,-79.2519275
63,Rouge Street,L3P 1K7,43.8684050,-79.2517225
132,Reeve Drive,L3P 6C6,43.8731710,-79.2558115
134,Reeve Drive,L3P 6C6,43.8731700,-79.2560160
136,Reeve Drive,L3P 6C6,43.8731490,-79.2562345
138,Reeve Drive,L3P 6C6,43.8731075,-79.2564120
140,Reeve Drive,L3P 6C6,43.8730740,-79.2566030
128,Reeve Drive,L3P 6C6,43.8732075,-79.2554060
130,Reeve Drive,L3P 6C6,43.8731820,-79.2556030
142,Reeve Drive,L3P 6C6,43.8730560,-79.2568140
2,Parkway Avenue,L3P 2E7,43.8816970,-79.2607695
6,Parkway Avenue,L3P 2E7,43.8817815,-79.2604460
183,Grandview Avenue,L3T 1J3,43.8038356,-79.4039537
185,Grandview Avenue,L3T 1J3,43.8039086,-79.4037438
187,Grandview Avenue,L3T 1J3,43.8039623,-79.4034972
189,Grandview Avenue,L3T 1J3,43.8040063,-79.4032584
191,Grandview Avenue,L3T 1J3,43.8040301,-79.4029963
193,Grandview Avenue,L3T 1J3,43.8040398,-79.4027271
201,Grandview Avenue,L3T 1J3,43.8040318,-79.4024935
203,Grandview Avenue,L3T 1J3,43.8037454,-79.4024493
205,Grandview Avenue,L3T 1J3,43.8035756,-79.4024407
207,Grandview Avenue,L3T 1J3,43.8034162,-79.4024567
209,Grandview Avenue,L3T 1J3,43.8032525,-79.4023762
211,Grandview Avenue,L3T 1J3,43.8030917,-79.4023173
213,Grandview Avenue,L3T 1J3,43.8029329,-79.4022612
215,Grandview Avenue,L3T 1J3,43.8027718,-79.4021994
217,Grandview Avenue,L3T 1J3,43.8026094,-79.4021879
219,Grandview Avenue,L3T 1J3,43.8024518,-79.4021403
221,Grandview Avenue,L3T 1J3,43.8022926,-79.4021001
89,Church Street,L3P 2M3,43.8798380,-79.2506771
7021,Markham Road,L3S 3J9,43.8373515,-79.2505390
42,Ironshield Crescent,L3T 3K6,43.8312715,-79.4089732
46,Ironshield Crescent,L3T 3K6,43.8315894,-79.4089719
44,Ironshield Crescent,L3T 3K6,43.8314297,-79.4089682
38,Ironshield Crescent,L3T 3K6,43.8311316,-79.4089783
28,Ironshield Crescent,L3T 3K6,43.8309845,-79.4090119
26,Ironshield Crescent,L3T 3K6,43.8310659,-79.4093213
24,Ironshield Crescent,L3T 3K6,43.8311374,-79.4095079
22,Ironshield Crescent,L3T 3K6,43.8312114,-79.4096880
20,Ironshield Crescent,L3T 3K6,43.8312715,-79.4098819
18,Ironshield Crescent,L3T 3K6,43.8312887,-79.4100908
16,Ironshield Crescent,L3T 3K6,43.8312981,-79.4102884
14,Ironshield Crescent,L3T 3K6,43.8313442,-79.4105009
12,Ironshield Crescent,L3T 3K6,43.8313529,-79.4106994
10,Ironshield Crescent,L3T 3K6,43.8313883,-79.4109056
8,Ironshield Crescent,L3T 3K6,43.8314151,-79.4111129
6,Ironshield Crescent,L3T 3K6,43.8314639,-79.4113195
4,Ironshield Crescent,L3T 3K6,43.8314822,-79.4115186
2,Ironshield Crescent,L3T 3K6,43.8314710,-79.4118226
99,Laureleaf Road,L3T 2Y5,43.8124976,-79.3992176
97,Laureleaf Road,L3T 2Y5,43.8125331,-79.3988746
95,Laureleaf Road,L3T 2Y5,43.8126359,-79.3984167
10,Ladyslipper Court,L3T 2S4,43.8126051,-79.3979622
8,Ladyslipper Court,L3T 2S4,43.8122622,-79.3977441
6,Ladyslipper Court,L3T 2S4,43.8119040,-79.3976086
4,Ladyslipper Court,L3T 2S4,43.8114807,-79.3975808
2,Ladyslipper Court,L3T 2S4,43.8112365,-79.3973017
3,Ladyslipper Court,L3T 2S5,43.8114359,-79.3966598
5,Ladyslipper Court,L3T 2S5,43.8119305,-79.3968572
7,Ladyslipper Court,L3T 2S5,43.8122073,-79.3970418
9,Ladyslipper Court,L3T 2S5,43.8124548,-79.3971257
11,Ladyslipper Court,L3T 2S5,43.8127468,-79.3972069
26,Poinsetta Drive,L3T 2T5,43.8127757,-79.3965559
24,Poinsetta Drive,L3T 2T5,43.8124162,-79.3964300
6,Poinsetta Drive,L3T 2T5,43.8119729,-79.3961726
2,Poinsetta Drive,L3T 2T5,43.8115952,-79.3960305
15,Doncrest Drive,L3T 4P6,43.8111707,-79.3960215
17,Doncrest Drive,L3T 4P6,43.8110011,-79.3967600
19,Doncrest Drive,L3T 4P6,43.8108654,-79.3973350
21,Doncrest Drive,L3T 4P6,43.8107429,-79.3979321
85,Laureleaf Road,L3T 2Y4,43.8132174,-79.3968294
15,Ladyslipper Court,L3T 2S6,43.8131854,-79.3973617
17,Ladyslipper Court,L3T 2S6,43.8133331,-79.3974340
19,Ladyslipper Court,L3T 2S6,43.8134804,-79.3974537
21,Ladyslipper Court,L3T 2S6,43.8136319,-79.3974623
23,Ladyslipper Court,L3T 2S6,43.8137978,-79.3973941
25,Ladyslipper Court,L3T 2S6,43.8139421,-79.3973087
27,Ladyslipper Court,L3T 2S6,43.8140830,-79.3971981
29,Ladyslipper Court,L3T 2S6,43.8141836,-79.3970784
31,Ladyslipper Court,L3T 2S6,43.8143041,-79.3968957
33,Ladyslipper Court,L3T 2S6,43.8144190,-79.3967317
35,Ladyslipper Court,L3T 2S6,43.8145139,-79.3965255
37,Ladyslipper Court,L3T 2S6,43.8145811,-79.3963226
39,Ladyslipper Court,L3T 2S6,43.8146795,-79.3961313
41,Ladyslipper Court,L3T 2S6,43.8147645,-79.3959267
43,Ladyslipper Court,L3T 2S6,43.8148528,-79.3957267
45,Ladyslipper Court,L3T 2S6,43.8149246,-79.3955207
47,Ladyslipper Court,L3T 2S6,43.8149996,-79.3953422
49,Ladyslipper Court,L3T 2S6,43.8150944,-79.3951464
51,Ladyslipper Court,L3T 2S6,43.8151821,-79.3949555
53,Ladyslipper Court,L3T 2S6,43.8152443,-79.3947538
55,Ladyslipper Court,L3T 2S6,43.8153258,-79.3945438
57,Ladyslipper Court,L3T 2S6,43.8153983,-79.3943422
59,Ladyslipper Court,L3T 2S6,43.8154722,-79.3941483
61,Ladyslipper Court,L3T 2S6,43.8155455,-79.3939267
20,Multiflora Place,L3T 2W5,43.8153145,-79.3937762
18,Multiflora Place,L3T 2W5,43.8151792,-79.3936494
16,Multiflora Place,L3T 2W5,43.8150566,-79.3935188
14,Multiflora Place,L3T 2W5,43.8149238,-79.3934025
12,Multiflora Place,L3T 2W5,43.8147922,-79.3932523
10,Multiflora Place,L3T 2W5,43.8146631,-79.3931266
8,Multiflora Place,L3T 2W5,43.8145369,-79.3929882
6,Multiflora Place,L3T 2W5,43.8144040,-79.3928546
4,Multiflora Place,L3T 2W5,43.8142759,-79.3927098
61,Laureleaf Road,L3T 7S5,43.8141063,-79.3926803
76,Poinsetta Drive,L3T 2T6,43.8139903,-79.3932309
74,Poinsetta Drive,L3T 2T6,43.8141551,-79.3933532
72,Poinsetta Drive,L3T 2T6,43.8143139,-79.3934472
70,Poinsetta Drive,L3T 2T6,43.8144359,-79.3935931
68,Poinsetta Drive,L3T 2T6,43.8145680,-79.3937272
66,Poinsetta Drive,L3T 2T6,43.8147158,-79.3938091
64,Poinsetta Drive,L3T 2T6,43.8148915,-79.3939946
62,Poinsetta Drive,L3T 2T6,43.8149804,-79.3942184
60,Poinsetta Drive,L3T 2T6,43.8149320,-79.3945004
58,Poinsetta Drive,L3T 2T6,43.8148230,-79.3946711
56,Poinsetta Drive,L3T 2T6,43.8147413,-79.3948573
54,Poinsetta Drive,L3T 2T6,43.8146608,-79.3950554
52,Poinsetta Drive,L3T 2T6,43.8145593,-79.3952492
50,Poinsetta Drive,L3T 2T6,43.8144915,-79.3954567
48,Poinsetta Drive,L3T 2T6,43.8144104,-79.3956500
46,Poinsetta Drive,L3T 2T6,43.8143403,-79.3958719
44,Poinsetta Drive,L3T 2T6,43.8142444,-79.3960960
42,Poinsetta Drive,L3T 2T6,43.8141406,-79.3962983
40,Poinsetta Drive,L3T 2T6,43.8140569,-79.3965417
38,Poinsetta Drive,L3T 2T6,43.8139131,-79.3967210
36,Poinsetta Drive,L3T 2T6,43.8137453,-79.3968492
34,Poinsetta Drive,L3T 2T6,43.8135505,-79.3969029
32,Poinsetta Drive,L3T 2T6,43.8133866,-79.3969077
41,Poinsetta Drive,L3T 2T7,43.8136635,-79.3961749
43,Poinsetta Drive,L3T 2T7,43.8137875,-79.3959689
45,Poinsetta Drive,L3T 2T7,43.8138761,-79.3957158
47,Poinsetta Drive,L3T 2T7,43.8139759,-79.3954952
49,Poinsetta Drive,L3T 2T7,43.8140533,-79.3952279
51,Poinsetta Drive,L3T 2T7,43.8141366,-79.3949889
53,Poinsetta Drive,L3T 2T7,43.8142403,-79.3947515
55,Poinsetta Drive,L3T 2T7,43.8143445,-79.3945313
57,Poinsetta Drive,L3T 2T7,43.8144164,-79.3942550
69,Laureleaf Road,L3T 2Y3,43.8138917,-79.3938600
71,Laureleaf Road,L3T 2Y3,43.8138565,-79.3942223
73,Laureleaf Road,L3T 2Y3,43.8137428,-79.3945795
75,Laureleaf Road,L3T 2Y3,43.8136949,-79.3949297
77,Laureleaf Road,L3T 2Y3,43.8136097,-79.3952990
79,Laureleaf Road,L3T 2Y3,43.8134921,-79.3957214
81,Laureleaf Road,L3T 2Y3,43.8133907,-79.3961318
3,Poinsetta Drive,L3T 2T4,43.8119588,-79.3954532
5,Poinsetta Drive,L3T 2T4,43.8124832,-79.3956668
7,Poinsetta Drive,L3T 2T4,43.8129006,-79.3959269
78,Laureleaf Road,L3T 2Y1,43.8130483,-79.3955174
76,Laureleaf Road,L3T 2Y1,43.8131453,-79.3951664
74,Laureleaf Road,L3T 2Y1,43.8131986,-79.3947744
72,Laureleaf Road,L3T 2Y1,43.8132690,-79.3944221
70,Laureleaf Road,L3T 2Y1,43.8133576,-79.3940743
68,Laureleaf Road,L3T 2Y1,43.8134417,-79.3937024
66,Laureleaf Road,L3T 2Y1,43.8135409,-79.3933348
64,Laureleaf Road,L3T 2Y1,43.8136303,-79.3929742
62,Laureleaf Road,L3T 2Y1,43.8137074,-79.3926281
60,Laureleaf Road,L3T 2Y1,43.8137476,-79.3922481
58,Laureleaf Road,L3T 2Y1,43.8137567,-79.3918091
56,Laureleaf Road,L3T 2Y1,43.8136064,-79.3914421
54,Laureleaf Road,L3T 2Y1,43.8133981,-79.3911507
52,Laureleaf Road,L3T 2Y1,43.8131653,-79.3909268
32,Daffodil Avenue,L3T 1N4,43.8128796,-79.3908334
1,Sunflower Court,L3T 2W2,43.8128227,-79.3914963
3,Sunflower Court,L3T 2W2,43.8131642,-79.3916012
5,Sunflower Court,L3T 2W2,43.8133206,-79.3921171
4,Sunflower Court,L3T 2W3,43.8129637,-79.3924607
2,Sunflower Court,L3T 2W3,43.8126318,-79.3922529
1,Spirea Court,L3T 2V9,43.8125093,-79.3928164
3,Spirea Court,L3T 2V9,43.8128831,-79.3929396
5,Spirea Court,L3T 2V9,43.8130370,-79.3934435
4,Spirea Court,L3T 2W1,43.8126624,-79.3937744
2,Spirea Court,L3T 2W1,43.8123113,-79.3935480
1,Rosea Court,L3T 2V3,43.8122073,-79.3941326
3,Rosea Court,L3T 2V3,43.8125850,-79.3942581
5,Rosea Court,L3T 2V3,43.8127568,-79.3947457
4,Rosea Court,L3T 2V4,43.8124233,-79.3951393
2,Rosea Court,L3T 2V4,43.8120258,-79.3949061
9,Daffodil Avenue,L3T 1N2,43.8114293,-79.3952079
11,Daffodil Avenue,L3T 1N2,43.8115267,-79.3947351
15,Daffodil Avenue,L3T 1N2,43.8116088,-79.3943166
17,Daffodil Avenue,L3T 1N2,43.8117351,-79.3938846
19,Daffodil Avenue,L3T 1N2,43.8118052,-79.3933947
21,Daffodil Avenue,L3T 1N2,43.8118831,-79.3930023
23,Daffodil Avenue,L3T 1N2,43.8120107,-79.3925630
27,Daffodil Avenue,L3T 1N3,43.8121635,-79.3918570
29,Daffodil Avenue,L3T 1N3,43.8122557,-79.3914137
31,Daffodil Avenue,L3T 1N3,43.8123734,-79.3910129
33,Daffodil Avenue,L3T 1N3,43.8124362,-79.3906055
46,Laureleaf Road,L3T 2X7,43.8120629,-79.3904436
44,Laureleaf Road,L3T 2X7,43.8118033,-79.3902991
42,Laureleaf Road,L3T 2X7,43.8115330,-79.3902010
40,Laureleaf Road,L3T 2X7,43.8112754,-79.3901141
38,Laureleaf Road,L3T 2X7,43.8109981,-79.3899720
40,Limcombe Drive,L3T 2V5,43.8095778,-79.3929126
38,Limcombe Drive,L3T 2V5,43.8092519,-79.3928515
36,Limcombe Drive,L3T 2V5,43.8089356,-79.3928217
34,Limcombe Drive,L3T 2V5,43.8086253,-79.3927598
32,Limcombe Drive,L3T 2V5,43.8082909,-79.3926553
30,Limcombe Drive,L3T 2V5,43.8079511,-79.3925300
28,Limcombe Drive,L3T 2V5,43.8076718,-79.3925316
26,Limcombe Drive,L3T 2V5,43.8073172,-79.3924032
24,Limcombe Drive,L3T 2V5,43.8069795,-79.3923463
22,Limcombe Drive,L3T 2V5,43.8066390,-79.3922950
20,Limcombe Drive,L3T 2V5,43.8063285,-79.3922232
18,Limcombe Drive,L3T 2V5,43.8059672,-79.3921605
16,Limcombe Drive,L3T 2V5,43.8056791,-79.3920691
15,Huckleberry Lane,L3T 1C6,43.8053477,-79.3920156
11,Huckleberry Lane,L3T 1C6,43.8052790,-79.3910075
9,Huckleberry Lane,L3T 1C6,43.8053585,-79.3905133
7,Huckleberry Lane,L3T 1C6,43.8054788,-79.3900744
5,Huckleberry Lane,L3T 1C6,43.8055603,-79.3896710
3,Huckleberry Lane,L3T 1C6,43.8056579,-79.3892490
1,Huckleberry Lane,L3T 1C6,43.8057450,-79.3887781
344,Steeles Avenue East,L3T 1A8,43.8051265,-79.3895614
338,Steeles Avenue East,L3T 1A8,43.8050139,-79.3899201
336,Steeles Avenue East,L3T 1A8,43.8049412,-79.3903811
330,Steeles Avenue East,L3T 1A8,43.8048303,-79.3908845
59,Stoney Creek Drive,L6E 0K3,43.9082609,-79.2573392
1,Old English Lane,L3T 2T8,43.8044153,-79.3924800
3,Old English Lane,L3T 2T8,43.8046880,-79.3925854
5,Old English Lane,L3T 2T8,43.8050113,-79.3926463
61,Russell Jarvis Drive,L3S 4B1,43.8644868,-79.2338576
388,White's Hill Avenue,L6B 0J3,43.8971116,-79.2227320
10,Aviva Way,L6G 0G1,43.8477559,-79.3247256
5665,14th Avenue,L3S 3K5,43.8519785,-79.2658855
156,Main Street Unionville,L3R 2G9,43.8665772,-79.3118888
2667,Bur Oak Avenue,L6B 1H8,43.8994458,-79.2317707
7,Old English Lane,L3T 2T8,43.8053389,-79.3927080
6,Old English Lane,L3T 2T9,43.8049111,-79.3933385
8,Old English Lane,L3T 2T9,43.8052125,-79.3934393
4,Old English Lane,L3T 2T9,43.8045791,-79.3932437
9,Old English Lane,L3T 2T8,43.8057343,-79.3927109
10,Old English Lane,L3T 2T9,43.8055108,-79.3935527
2,Old English Lane,L3T 2T9,43.8042773,-79.3932149
345,Renfrew Drive,L3R 9S9,43.8636831,-79.3656767
335,Renfrew Drive,L3R 9S9,43.8634381,-79.3655736
8127,Bayview Avenue,L3T 4N4,43.8305881,-79.4029555
11,Old English Lane,L3T 2T8,43.8059497,-79.3930034
81,Alexander Lawrie Avenue,L6E 0J8,43.8915143,-79.2849152
52,Bodrington Court,L6G 0A9,43.8431372,-79.3556333
155,Darren Hill Trail,L6E 0M5,43.9086614,-79.2596797
3160,Steeles Avenue East,L3R 4G9,43.8154595,-79.3447045
45,Riverwalk Drive,L6B 0L9,43.8556699,-79.2255989
20,Mackenzies Stand Avenue,L6G 0A2,43.8512687,-79.3273377
80,Frontenac Drive,L3R 9T8,43.8519739,-79.3623056
80,Frontenac Drive,L3R 9T8,43.8516944,-79.3639141
80,Frontenac Drive,L3R 9T8,43.8519213,-79.3632556
80,Frontenac Drive,L3R 9T8,43.8518245,-79.3632145
80,Frontenac Drive,L3R 9T8,43.8519941,-79.3632864
80,Frontenac Drive,L3R 9T8,43.8519110,-79.3632482
80,Frontenac Drive,L3R 9T8,43.8519595,-79.3623973
78,Beckett Avenue,L3R 0K6,43.8838740,-79.3095906
80,Frontenac Drive,L3R 9T8,43.8516944,-79.3639141
54,Loweswater Avenue,L3R 7W7,43.8660157,-79.3426813
48,Loweswater Avenue,L3R 7W7,43.8659273,-79.3425369
46,Loweswater Avenue,L3R 7W8,43.8657722,-79.3424872
44,Loweswater Avenue,L3R 7W8,43.8656273,-79.3424430
42,Loweswater Avenue,L3R 7W8,43.8655587,-79.3422289
40,Loweswater Avenue,L3R 7W8,43.8653646,-79.3423777
41,Loweswater Avenue,L3R 7W8,43.8655401,-79.3418020
41,Loweswater Avenue,L3R 7W8,43.8655375,-79.3419782
43,Loweswater Avenue,L3R 7W8,43.8656530,-79.3418238
39,Loweswater Avenue,L3R 7W8,43.8654095,-79.3417577
45,Loweswater Avenue,L3R 7W8,43.8657806,-79.3418627
73,Coledale Road,L3R 7W7,43.8657569,-79.3429537
71,Coledale Road,L3R 7W7,43.8656239,-79.3429197
69,Coledale Road,L3R 7W7,43.8654902,-79.3428723
42,Loweswater Avenue,L3R 7W7,43.8655013,-79.3424103
80,Frontenac Drive,L3R 9T8,43.8519450,-79.3625363
80,Frontenac Drive,L3R 9T8,43.8519418,-79.3625363
101,Town Centre Boulevard,L3R 9W3,43.8564500,-79.3358461
8,Carriage Hill Court,L3T 1J8,43.8061603,-79.3932274
6,Carriage Hill Court,L3T 1J8,43.8063964,-79.3928422
4,Carriage Hill Court,L3T 1J8,43.8067160,-79.3928676
17,Old English Lane,L3T 2V1,43.8068242,-79.3933571
21,Old English Lane,L3T 2V1,43.8071036,-79.3934615
6,Hampshire Court,L3T 1J9,43.8073089,-79.3929754
4,Hampshire Court,L3T 1J9,43.8076952,-79.3931443
29,Old English Lane,L3T 2V2,43.8078331,-79.3934526
31,Old English Lane,L3T 2V2,43.8081180,-79.3934728
33,Old English Lane,L3T 2V2,43.8084623,-79.3933650
35,Old English Lane,L3T 2V2,43.8087890,-79.3934098
37,Old English Lane,L3T 2V2,43.8091055,-79.3934916
39,Old English Lane,L3T 2V2,43.8094214,-79.3935479
41,Old English Lane,L3T 2V2,43.8098629,-79.3934248
43,Old English Lane,L3T 2V2,43.8101645,-79.3934943
45,Old English Lane,L3T 2V2,43.8104868,-79.3936005
47,Old English Lane,L3T 2V2,43.8108141,-79.3935679
49,Old English Lane,L3T 2V2,43.8111565,-79.3937024
100,Donald Sim Avenue,L6B 0R4,43.8928787,-79.2290693
51,Old English Lane,L3T 2V2,43.8112073,-79.3942493
53,Old English Lane,L3T 2V2,43.8110144,-79.3947046
57,Old English Lane,L3T 2V2,43.8109381,-79.3952301
7277,14th Ave,L6B 1A8,43.8606850,-79.2109085
33,Almira Avenue,L6B 1B9,43.8930635,-79.2330295
187,Walkerville Road,L6B 1B9,43.8925160,-79.2320830
27,Almira Avenue,L6B 1B9,43.8930280,-79.2333200
3036,Bur Oak Avenue,L6B 0R1,43.8860135,-79.2290216
37,Almira Avenue,L6B 1B9,43.8931040,-79.2328771
29,Almira Avenue,L6B 1B9,43.8930460,-79.2332085
211,Walkerville Road,L6B 1B9,43.8931755,-79.2323305
213,Walkerville Road,L6B 1B9,43.8932475,-79.2323185
199,Walkerville Road,L6B 1B9,43.8928447,-79.2321760
41,Almira Avenue,L6B 1B9,43.8931315,-79.2327100
7842,Highway 7,L0H 1J0,43.8869755,-79.2006165
6360,16th Avenue,L3P 7Y6,43.8952510,-79.2523710
52,Gowland Road,L6B 1B8,43.8941765,-79.2366506
5426,Highway 7,L3P 1B7,43.8697505,-79.2772565
11,Almira Avenue,L6B 1B9,43.8929248,-79.2341450
25,Pingel Road,L6B 1B7,43.8942725,-79.2337580
25,Almira Avenue,L6B 1B9,43.8930300,-79.2334285
18,Pingel Road,L6B 1B7,43.8939065,-79.2341150
13,Pascoe Drive,L6B 1B8,43.8940118,-79.2376293
5,Pingel Road,L6B 1B7,43.8935250,-79.2335655
54,Parkway Avenue,L3P 2G4,43.8837370,-79.2542400
2,Winklers Lane,L6B 1B8,43.8948200,-79.2383675
5799,Highway 7 East,L3P 1A5,43.8715280,-79.2651505
31,Gowland Road,L6B 1B8,43.8934635,-79.2359220
31,Pingel Road,L6B 1B7,43.8944790,-79.2337985
3,Pingel Road,L6B 1B7,43.8934250,-79.2335570
17,White's Hill Avenue,L6B 1C1,43.8946004,-79.2374315
23,Gowland Road,L6B 1B8,43.8931740,-79.2358465
49,Gowland Road,L6B 1B8,43.8942230,-79.2361910
26,Pingel Road,L6B 1B7,43.8942110,-79.2341860
6,Pingel Road,L6B 1B7,43.8934600,-79.2340010
5803,Highway 7 East,L3P 1A5,43.8715435,-79.2646680
19,Gowland Road,L6B 1B8,43.8929995,-79.2358120
21,Pingel Road,L6B 1B7,43.8941160,-79.2337125
13,Pingel Road,L6B 1B7,43.8938500,-79.2336445
35,Monkhouse Road,L6E 1E8,43.8929640,-79.2747365
7,Pingel Road,L6B 1B7,43.8936065,-79.2335835
108,White's Hill Avenue,L6B 1C1,43.8957860,-79.2338375
33,Gowland Road,L6B 1B8,43.8935440,-79.2359515
16,Pingel Road,L6B 1B7,43.8938260,-79.2340795
27,Pingel Road,L6B 1B7,43.8943420,-79.2337770
23,Almira Avenue,L6B 1B9,43.8929930,-79.2335350
51,Gowland Road,L6B 1B8,43.8942910,-79.2362250
28,Pingel Road,L6B 1B7,43.8942815,-79.2342015
8,Pingel Road,L6B 1B7,43.8935390,-79.2340105
43,Gowland Road,L6B 1B8,43.8939815,-79.2361030
22,Heisey Drive,L3P 4P7,43.8899150,-79.2550265
9,Pascoe Drive,L6B 1B8,43.8941330,-79.2376375
15,Pingel Road,L6B 1B7,43.8939265,-79.2336600
5954,Highway 7 East,L3P 1A2,43.8740725,-79.2608140
17,Pingel Road,L6B 1B7,43.8939925,-79.2337070
5775,Highway 7 East,L3P 1A5,43.8714125,-79.2657265
33,Pingel Road,L6B 1B7,43.8945365,-79.2338235
2,Pingel Road,L6B 1B7,43.8932530,-79.2339435
59,Gowland Road,L6B 1B8,43.8945155,-79.2363275
36,Pingel Road,L6B 1B7,43.8945310,-79.2342665
17,Almira Avenue,L6B 1B9,43.8929605,-79.2338175
20,White's Hill Avenue,L6B 1C1,43.8949650,-79.2375548
104,White's Hill Avenue,L6B 1C1,43.8957830,-79.2340126
27,Gowland Road,L6B 1B8,43.8933030,-79.2358845
56,Gowland Road,L6B 1B8,43.8942998,-79.2366981
33,White's Hill Avenue,L6B 1C1,43.8947305,-79.2368592
7,Almira Avenue,L6B 1B9,43.8928975,-79.2343168
29,Pingel Road,L6B 1B7,43.8944075,-79.2337900
21,Almira Avenue,L6B 1B9,43.8929850,-79.2336497
22,Pingel Road,L6B 1B7,43.8940640,-79.2341605
45,Gowland Road,L6B 1B8,43.8940670,-79.2361180
9,Pingel Road,L6B 1B7,43.8936850,-79.2336100
100,White's Hill Avenue,L6B 1C1,43.8957595,-79.2341742
41,Gowland Road,L6B 1B8,43.8938995,-79.2360535
13,Almira Avenue,L6B 1B9,43.8929420,-79.2340390
5739,Highway 7 East,L3P 1A9,43.8710490,-79.2672245
5958,16th Avenue,L3P 3J3,43.8912410,-79.2674815
34,White's Hill Avenue,L6B 1C1,43.8950907,-79.2370665
35,Gowland Road,L6B 1B8,43.8936255,-79.2359620
35,Pingel Road,L6B 1B7,43.8946085,-79.2338335
4,Pingel Road,L6B 1B7,43.8933570,-79.2339655
280,Church Street,L6B 1B3,43.8845955,-79.2357110
17,Pascoe Drive,L6B 1B8,43.8938874,-79.2375907
15,Almira Avenue,L6B 1B9,43.8929460,-79.2339290
29,Gowland Road,L6B 1B8,43.8933805,-79.2359080
55,Gowland Road,L6B 1B8,43.8944030,-79.2362655
32,Pingel Road,L6B 1B7,43.8944040,-79.2342460
10,Pingel Road,L6B 1B7,43.8936195,-79.2340345
5829,Highway 7 East,L3P 1A5,43.8716840,-79.2643655
23,Pingel Road,L6B 1B7,43.8941940,-79.2337475
3,Almira Avenue,L6B 1B9,43.8928650,-79.2344770
47,Gowland Road,L6B 1B8,43.8941485,-79.2361625
24,Pingel Road,L6B 1B7,43.8941430,-79.2341540
20,Pingel Road,L6B 1B7,43.8939840,-79.2341385
11,Pingel Road,L6B 1B7,43.8937690,-79.2336445
37,Gowland Road,L6B 1B8,43.8937020,-79.2359760
112,White's Hill Avenue,L6B 1C1,43.8958003,-79.2336755
21,Gowland Road,L6B 1B8,43.8930885,-79.2358515
97,Roxbury Street,L3S 3S8,43.8585920,-79.2476490
103,Roxbury Street,L3S 3S5,43.8585125,-79.2487395
101,Roxbury Street,L3S 3S8,43.8585495,-79.2482955
107,Roxbury Street,L3S 3S5,43.8584610,-79.2493840
95,Roxbury Street,L3S 3S8,43.8586250,-79.2472065
91,Roxbury Street,L3S 3S8,43.8586745,-79.2465545
111,Forbes Crescent,L3R 6T3,43.8381460,-79.2934970
2,Sun Yat-sen Avenue,L3R 5Z3,43.8271890,-79.2988620
3993,14th Avenue,L3R 4Z6,43.8388670,-79.3211310
4345,14th Avenue,L3R 0J2,43.8416305,-79.3101685
4300,Steeles Avenue East,L3R 0Y5,43.8261924,-79.3062811
401,Alden Road,L3R 4N4,43.8337990,-79.3329645
401,Bentley Street,L3R 9T2,43.8292485,-79.3375665
7163,Yonge Street,L3T 0C6,43.8025595,-79.4206540
560,Denison Street,L3R 2M8,43.8239790,-79.3438600
350,Steelcase Road West,L3R 1B3,43.8236615,-79.3581230
149,Denison Street,L3R 1B5,43.8207840,-79.3536810
55,Cottonwood Court,L3T 5W9,43.8192164,-79.3784890
205,Cottonwood Court,L3T 5W9,43.8202123,-79.3786912
34,Cottonwood Court,L3T 5X1,43.8192638,-79.3791597
102,Cottonwood Court,L3T 5X1,43.8192739,-79.3763601
87,Dawn Hill Trail,L3T 3B4,43.8194836,-79.3807503
74,Cottonwood Court,L3T 5X1,43.8190010,-79.3775509
10,Pine Knoll Gate,L3T 1V5,43.8190354,-79.3800131
99,Cottonwood Court,L3T 5W9,43.8196027,-79.3766120
86,Dawn Hill Trail,L3T 3B3,43.8194273,-79.3813497
110,Cottonwood Court,L3T 5X1,43.8194978,-79.3761223
83,Cottonwood Court,L3T 5W9,43.8194545,-79.3773154
70,Cottonwood Court,L3T 5X1,43.8189765,-79.3777140
181,Cottonwood Court,L3T 5W9,43.8195846,-79.3780625
164,Cottonwood Court,L3T 5X2,43.8201520,-79.3776739
193,Cottonwood Court,L3T 5W9,43.8198500,-79.3785210
40,Cottonwood Court,L3T 5X1,43.8190460,-79.3789792
2,Cottonwood Court,L3T 5X1,43.8202798,-79.3796694
86,Cottonwood Court,L3T 5X1,43.8191135,-79.3770415
90,Dawn Hill Trail,L3T 3B3,43.8197349,-79.3814646
134,Cottonwood Court,L3T 5X1,43.8202917,-79.3763385
60,Cottonwood Court,L3T 5X1,43.8188810,-79.3781594
165,Cottonwood Court,L3T 5W9,43.8197538,-79.3773925
173,Cottonwood Court,L3T 5W9,43.8196346,-79.3777234
189,Cottonwood Court,L3T 5W9,43.8196760,-79.3784155
15,Cottonwood Court,L3T 5W9,43.8200015,-79.3789399
22,Cottonwood Court,L3T 5X1,43.8196835,-79.3793789
90,Cottonwood Court,L3T 5X1,43.8191445,-79.3768805
85,Dawn Hill Trail,L3T 3B4,43.8193255,-79.3806946
87,Cottonwood Court,L3T 5W9,43.8194945,-79.3771555
18,Cottonwood Court,L3T 5X1,43.8198026,-79.3794436
94,Cottonwood Court,L3T 5X1,43.8191823,-79.3767112
84,Dawn Hill Trail,L3T 3B3,43.8192505,-79.3813608
114,Cottonwood Court,L3T 5X1,43.8196398,-79.3761606
126,Cottonwood Court,L3T 5X1,43.8200428,-79.3762629
72,Cottonwood Court,L3T 5X1,43.8189913,-79.3776400
54,Cottonwood Court,L3T 5X1,43.8188223,-79.3784254
174,Cottonwood Court,L3T 5X2,43.8199714,-79.3780912
42,Cottonwood Court,L3T 5X1,43.8189832,-79.3789312
208,Cottonwood Court,L3T 5X2,43.8204789,-79.3780528
27,Pine Knoll Gate,L3T 1V4,43.8190565,-79.3793946
1,Cottonwood Court,L3T 5W9,43.8203618,-79.3791237
78,Cottonwood Court,L3T 5X1,43.8190418,-79.3773860
135,Cottonwood Court,L3T 5W9,43.8201758,-79.3768521
73,Cottonwood Court,L3T 5W9,43.8193756,-79.3777333
155,Cottonwood Court,L3T 5W9,43.8200157,-79.3770395
65,Cottonwood Court,L3T 5W9,43.8193110,-79.3780732
33,Cottonwood Court,L3T 5W9,43.8194209,-79.3786300
211,Cottonwood Court,L3T 5W9,43.8203938,-79.3787449
26,Cottonwood Court,L3T 5X1,43.8195637,-79.3793239
100,Cottonwood Court,L3T 5X1,43.8192508,-79.3764471
89,Cottonwood Court,L3T 5W9,43.8195110,-79.3770714
95,Cottonwood Court,L3T 5W9,43.8195657,-79.3768063
91,Dawn Hill Trail,L3T 3B4,43.8198031,-79.3808266
112,Cottonwood Court,L3T 5X1,43.8195797,-79.3761412
79,Cottonwood Court,L3T 5W9,43.8194193,-79.3774898
66,Cottonwood Court,L3T 5X1,43.8189335,-79.3779159
56,Cottonwood Court,L3T 5X1,43.8188390,-79.3783253
2,Chestnut Gate,L3T 5W8,43.8205330,-79.3776885
44,Cottonwood Court,L3T 5X1,43.8188670,-79.3788947
201,Cottonwood Court,L3T 5W9,43.8200949,-79.3786194
25,Pine Knoll Gate,L3T 1V4,43.8189550,-79.3793265
2,Pine Knoll Gate,L3T 1V5,43.8188840,-79.3806403
82,Cottonwood Court,L3T 5X1,43.8190793,-79.3772198
94,Dawn Hill Trail,L3T 3B3,43.8200738,-79.3815028
142,Cottonwood Court,L3T 5X1,43.8205505,-79.3765988
78,Dawn Hill Trail,L3T 3B3,43.8187277,-79.3815479
75,Cottonwood Court,L3T 5W9,43.8193860,-79.3776534
150,Cottonwood Court,L3T 5X1,43.8205138,-79.3770221
67,Cottonwood Court,L3T 5W9,43.8193304,-79.3779907
27,Cottonwood Court,L3T 5W9,43.8196390,-79.3787816
209,Cottonwood Court,L3T 5W9,43.8203312,-79.3787459
12,Pine Knoll Gate,L3T 1V5,43.8191001,-79.3798813
104,Cottonwood Court,L3T 5X1,43.8192958,-79.3762430
10,Cottonwood Court,L3T 5X1,43.8200411,-79.3795564
97,Cottonwood Court,L3T 5W9,43.8195820,-79.3767232
88,Dawn Hill Trail,L3T 3B3,43.8195862,-79.3813583
118,Cottonwood Court,L3T 5X1,43.8197640,-79.3761969
123,Cottonwood Court,L3T 5W9,43.8198020,-79.3767734
68,Cottonwood Court,L3T 5X1,43.8189570,-79.3777923
50,Cottonwood Court,L3T 5X1,43.8187790,-79.3786172
4,Chestnut Gate,L3T 5W8,43.8204717,-79.3776748
57,Cottonwood Court,L3T 5W9,43.8192302,-79.3784102
197,Cottonwood Court,L3T 5W9,43.8199701,-79.3785788
36,Cottonwood Court,L3T 5X1,43.8191908,-79.3790859
6,Pine Knoll Gate,L3T 1V5,43.8189167,-79.3804143
76,Cottonwood Court,L3T 5X1,43.8190228,-79.3774659
138,Cottonwood Court,L3T 5X1,43.8204434,-79.3764050
89,Dawn Hill Trail,L3T 3B4,43.8196347,-79.3807967
106,Cottonwood Court,L3T 5X1,43.8193541,-79.3761812
77,Cottonwood Court,L3T 5W9,43.8194042,-79.3775748
169,Cottonwood Court,L3T 5W9,43.8196802,-79.3775406
61,Cottonwood Court,L3T 5W9,43.8192748,-79.3782516
29,Cottonwood Court,L3T 5W9,43.8195247,-79.3787345
14,Pine Knoll Gate,L3T 1V5,43.8191143,-79.3797175
96,Cottonwood Court,L3T 5X1,43.8192068,-79.3766157
23,Pine Knoll Gate,L3T 1V4,43.8188342,-79.3792870
14,Cottonwood Court,L3T 5X1,43.8199271,-79.3794764
88,Cottonwood Court,L3T 5X1,43.8191332,-79.3769645
95,Dawn Hill Trail,L3T 3B4,43.8201213,-79.3809404
116,Cottonwood Court,L3T 5X1,43.8197030,-79.3761798
130,Cottonwood Court,L3T 5X1,43.8201655,-79.3763041
62,Cottonwood Court,L3T 5X1,43.8189078,-79.3780770
52,Cottonwood Court,L3T 5X1,43.8187994,-79.3785107
69,Cottonwood Court,L3T 5W9,43.8193483,-79.3779064
59,Cottonwood Court,L3T 5W9,43.8192529,-79.3783356
19,Cottonwood Court,L3T 5W9,43.8198752,-79.3789082
16,Pine Knoll Gate,L3T 1V5,43.8191226,-79.3795517
92,Cottonwood Court,L3T 5X1,43.8191672,-79.3767959
83,Dawn Hill Trail,L3T 3B4,43.8191567,-79.3806987
80,Cottonwood Court,L3T 5X1,43.8190597,-79.3773038
161,Cottonwood Court,L3T 5W9,43.8198474,-79.3772652
82,Dawn Hill Trail,L3T 3B3,43.8191053,-79.3813906
85,Cottonwood Court,L3T 5W9,43.8194745,-79.3772407
158,Cottonwood Court,L3T 5X2,43.8202811,-79.3774843
63,Cottonwood Court,L3T 5W9,43.8192892,-79.3781659
170,Cottonwood Court,L3T 5X2,43.8200099,-79.3779300
204,Cottonwood Court,L3T 5X2,43.8203549,-79.3780100
98,Cottonwood Court,L3T 5X1,43.8192245,-79.3765320
21,Pine Knoll Gate,L3T 1V4,43.8187072,-79.3792869
93,Cottonwood Court,L3T 5W9,43.8195443,-79.3768886
93,Dawn Hill Trail,L3T 3B4,43.8199741,-79.3808580
131,Cottonwood Court,L3T 5W9,43.8200516,-79.3768356
64,Cottonwood Court,L3T 5X1,43.8189255,-79.3779927
46,Cottonwood Court,L3T 5X1,43.8188220,-79.3788117
71,Cottonwood Court,L3T 5W9,43.8193629,-79.3778227
53,Cottonwood Court,L3T 5W9,43.8191965,-79.3785730
23,Cottonwood Court,L3T 5W9,43.8197562,-79.3788359
32,Cottonwood Court,L3T 5X1,43.8193342,-79.3792094
81,Dawn Hill Trail,L3T 3B4,43.8188374,-79.3808580
91,Cottonwood Court,L3T 5W9,43.8195283,-79.3769879
8,Pine Knoll Gate,L3T 1V5,43.8189866,-79.3801739
146,Cottonwood Court,L3T 5X1,43.8205534,-79.3768524
80,Dawn Hill Trail,L3T 3B3,43.8189230,-79.3814409
108,Cottonwood Court,L3T 5X1,43.8194214,-79.3761498
81,Cottonwood Court,L3T 5W9,43.8194394,-79.3773965
154,Cottonwood Court,L3T 5X1,43.8205379,-79.3772001
185,Cottonwood Court,L3T 5W9,43.8195733,-79.3782687
166,Cottonwood Court,L3T 5X2,43.8200643,-79.3777217
200,Cottonwood Court,L3T 5X2,43.8202133,-79.3780359
38,Cottonwood Court,L3T 5X1,43.8191340,-79.3790499
6,Cottonwood Court,L3T 5X1,43.8201672,-79.3795897
84,Cottonwood Court,L3T 5X1,43.8190969,-79.3771179
92,Dawn Hill Trail,L3T 3B3,43.8199039,-79.3814742
122,Cottonwood Court,L3T 5X1,43.8199172,-79.3762287
58,Cottonwood Court,L3T 5X1,43.8188677,-79.3782415
48,Cottonwood Court,L3T 5X1,43.8187983,-79.3787255
177,Cottonwood Court,L3T 5W9,43.8196080,-79.3778883
58,Dawn Hill Trail,L3T 3B2,43.8169734,-79.3814191
5,Pine Knoll Gate,L3T 1V4,43.8184110,-79.3804803
55,Dawn Hill Trail,L3T 3B1,43.8169471,-79.3807450
74,Dawn Hill Trail,L3T 3B3,43.8184183,-79.3816954
63,Dawn Hill Trail,L3T 3B1,43.8175734,-79.3810003
56,Dawn Hill Trail,L3T 3B2,43.8168003,-79.3813506
70,Dawn Hill Trail,L3T 3B3,43.8180155,-79.3817155
53,Dawn Hill Trail,L3T 3B1,43.8167818,-79.3806931
73,Dawn Hill Trail,L3T 3B1,43.8184535,-79.3810860
61,Dawn Hill Trail,L3T 3B1,43.8174296,-79.3809492
54,Dawn Hill Trail,L3T 3B2,43.8166199,-79.3812624
64,Dawn Hill Trail,L3T 3B2,43.8174578,-79.3815420
7,Pine Knoll Gate,L3T 1V4,43.8184447,-79.3802765
59,Dawn Hill Trail,L3T 3B1,43.8172672,-79.3808885
52,Dawn Hill Trail,L3T 3B2,43.8164398,-79.3812194
11,Pine Knoll Gate,L3T 1V4,43.8185305,-79.3798479
71,Dawn Hill Trail,L3T 3B1,43.8182868,-79.3811348
9,Pine Knoll Gate,L3T 1V4,43.8185009,-79.3800308
57,Dawn Hill Trail,L3T 3B1,43.8171093,-79.3808178
51,Dawn Hill Trail,L3T 3B1,43.8165626,-79.3806246
15,Pine Knoll Gate,L3T 1V4,43.8185311,-79.3796976
72,Dawn Hill Trail,L3T 3B3,43.8182479,-79.3817258
69,Dawn Hill Trail,L3T 3B1,43.8180913,-79.3811360
62,Dawn Hill Trail,L3T 3B2,43.8172967,-79.3815154
17,Pine Knoll Gate,L3T 1V4,43.8185728,-79.3795430
67,Dawn Hill Trail,L3T 3B1,43.8179047,-79.3811155
60,Dawn Hill Trail,L3T 3B2,43.8171186,-79.3814742
3,Pine Knoll Gate,L3T 1V4,43.8184072,-79.3807212
19,Pine Knoll Gate,L3T 1V4,43.8186088,-79.3793711
76,Dawn Hill Trail,L3T 3B3,43.8185774,-79.3816315
65,Dawn Hill Trail,L3T 3B1,43.8177405,-79.3810635
63,Romfield Circuit,L3T 3H4,43.8274871,-79.4092629
65,Romfield Circuit,L3T 3H4,43.8275163,-79.4094132
67,Romfield Circuit,L3T 3H4,43.8275522,-79.4095897
69,Romfield Circuit,L3T 3H4,43.8275814,-79.4097397
70,Romfield Circuit,L3T 3H6,43.8279528,-79.4094963
72,Romfield Circuit,L3T 3H6,43.8280682,-79.4098174
3,Stornoway Crescent,L3T 3X8,43.8280956,-79.4094520
5,Stornoway Crescent,L3T 3X8,43.8282423,-79.4093888
7,Stornoway Crescent,L3T 3X8,43.8283785,-79.4093386
15,Stornoway Crescent,L3T 3X8,43.8283765,-79.4096899
71,Romfield Circuit,L3T 3H4,43.8275984,-79.4099278
73,Romfield Circuit,L3T 3H4,43.8276481,-79.4100737
75,Romfield Circuit,L3T 3H4,43.8276914,-79.4102606
74,Romfield Circuit,L3T 3H6,43.8281307,-79.4100127
76,Romfield Circuit,L3T 3H6,43.8281710,-79.4102069
17,Stornoway Crescent,L3T 3X8,43.8284352,-79.4099092
19,Stornoway Crescent,L3T 3X8,43.8284967,-79.4101022
78,Romfield Circuit,L3T 3H6,43.8282248,-79.4103923
21,Stornoway Crescent,L3T 3X8,43.8285432,-79.4102869
80,Romfield Circuit,L3T 3H6,43.8282963,-79.4106025
82,Romfield Circuit,L3T 3H6,43.8283600,-79.4107780
84,Romfield Circuit,L3T 3H6,43.8284321,-79.4109759
86,Romfield Circuit,L3T 3H6,43.8284996,-79.4111455
88,Romfield Circuit,L3T 3H6,43.8285741,-79.4113109
14,Stornoway Crescent,L3T 3X7,43.8287852,-79.4091829
16,Stornoway Crescent,L3T 3X7,43.8288175,-79.4093626
18,Stornoway Crescent,L3T 3X7,43.8288521,-79.4095815
20,Stornoway Crescent,L3T 3X7,43.8289029,-79.4097762
22,Stornoway Crescent,L3T 3X7,43.8289594,-79.4099746
24,Stornoway Crescent,L3T 3X7,43.8290255,-79.4101587
23,Stornoway Crescent,L3T 3X8,43.8286219,-79.4105083
26,Stornoway Crescent,L3T 3X7,43.8290587,-79.4103519
28,Stornoway Crescent,L3T 3X7,43.8291400,-79.4105424
25,Stornoway Crescent,L3T 3X8,43.8287040,-79.4106753
27,Stornoway Crescent,L3T 3X8,43.8287574,-79.4108653
29,Stornoway Crescent,L3T 3X8,43.8288522,-79.4110697
30,Stornoway Crescent,L3T 3X7,43.8292108,-79.4107102
90,Romfield Circuit,L3T 3H6,43.8286750,-79.4115159
31,Stornoway Crescent,L3T 3X8,43.8289744,-79.4113345
100,Romfield Circuit,L3T 3H6,43.8287474,-79.4116511
102,Romfield Circuit,L3T 3H6,43.8288568,-79.4118643
33,Stornoway Crescent,L3T 3X8,43.8290987,-79.4114587
35,Stornoway Crescent,L3T 3X8,43.8292142,-79.4116093
45,Stornoway Crescent,L3T 3X8,43.8294699,-79.4117423
47,Stornoway Crescent,L3T 3X8,43.8293798,-79.4118850
42,Stornoway Crescent,L3T 3X7,43.8299831,-79.4117475
104,Romfield Circuit,L3T 3H6,43.8289530,-79.4119871
106,Romfield Circuit,L3T 3H6,43.8290506,-79.4121794
49,Stornoway Crescent,L3T 3X8,43.8292835,-79.4120319
108,Romfield Circuit,L3T 3H6,43.8291796,-79.4123225
52,Stornoway Crescent,L3T 3X7,43.8294347,-79.4126407
116,Romfield Circuit,L3T 3H8,43.8295459,-79.4127903
44,Stornoway Crescent,L3T 3X7,43.8299383,-79.4119686
46,Stornoway Crescent,L3T 3X7,43.8298378,-79.4121434
50,Stornoway Crescent,L3T 3X7,43.8296244,-79.4124354
48,Stornoway Crescent,L3T 3X7,43.8297127,-79.4122933
118,Romfield Circuit,L3T 3H8,43.8296722,-79.4129391
120,Romfield Circuit,L3T 3H8,43.8297906,-79.4130358
126,Romfield Circuit,L3T 3H9,43.8300711,-79.4133306
128,Romfield Circuit,L3T 3H9,43.8301838,-79.4134763
130,Romfield Circuit,L3T 3H9,43.8303032,-79.4135627
132,Romfield Circuit,L3T 3H9,43.8304204,-79.4137342
134,Romfield Circuit,L3T 3H9,43.8305348,-79.4138588
27,Ironshield Crescent,L3T 3K7,43.8305887,-79.4092994
25,Ironshield Crescent,L3T 3K7,43.8306082,-79.4095097
23,Ironshield Crescent,L3T 3K7,43.8306599,-79.4097068
21,Ironshield Crescent,L3T 3K7,43.8307614,-79.4099056
19,Ironshield Crescent,L3T 3K7,43.8308185,-79.4100962
17,Ironshield Crescent,L3T 3K7,43.8308682,-79.4102927
15,Ironshield Crescent,L3T 3K7,43.8308945,-79.4105058
11,Ironshield Crescent,L3T 3K7,43.8309153,-79.4107021
9,Ironshield Crescent,L3T 3K7,43.8309274,-79.4109107
7,Ironshield Crescent,L3T 3K7,43.8309800,-79.4111127
5,Ironshield Crescent,L3T 3K7,43.8310037,-79.4113560
3,Ironshield Crescent,L3T 3K7,43.8310082,-79.4115503
162,Romfield Circuit,L3T 3H9,43.8317318,-79.4125192
160,Romfield Circuit,L3T 3H9,43.8317055,-79.4127161
158,Romfield Circuit,L3T 3H9,43.8316520,-79.4129145
156,Romfield Circuit,L3T 3H9,43.8316010,-79.4131060
136,Romfield Circuit,L3T 3H9,43.8306635,-79.4139314
152,Romfield Circuit,L3T 3H9,43.8315118,-79.4135083
150,Romfield Circuit,L3T 3H9,43.8314597,-79.4137110
148,Romfield Circuit,L3T 3H9,43.8314185,-79.4138709
138,Romfield Circuit,L3T 3H9,43.8307852,-79.4140711
140,Romfield Circuit,L3T 3H9,43.8309232,-79.4141305
142,Romfield Circuit,L3T 3H9,43.8310615,-79.4141383
144,Romfield Circuit,L3T 3H9,43.8311987,-79.4140930
146,Romfield Circuit,L3T 3H9,43.8313224,-79.4140040
154,Romfield Circuit,L3T 3H9,43.8315572,-79.4133039
145,Romfield Circuit,L3T3H7,43.8306425,-79.4146960
5607,Highway 7,L3P 1B6,43.8693322,-79.2716602
78,Beckett Avenue,L6C 0T3,43.8839248,-79.3101740
201,Town Centre Boulevard,L3R 8G5,43.8587297,-79.3368815
7522,Kennedy Road,L3R 9S5,43.8377220,-79.3054050
2900,Steeles Avenue East,L3T 4X1,43.8129000,-79.3594255
5000,Highway 7,L3R 1N3,43.8677318,-79.2905925
9393,McCowan Road,L3P3J3,43.8890480,-79.2888470
9393,McCowan Road,L3P3J3,43.8890852,-79.2890865
41,Simonston Boulevard,L3T 4R6,43.8140147,-79.3658251
9390,Woodbine Avenue,L6C 0M5,43.8722329,-79.3651306
4331,14th Avenue,L3R 0J2,43.8435251,-79.3102411
50,Bur Oak Avenue,L6C 0A2,43.8892638,-79.3148846
20,Bur Oak Avenue,L6C 0A2,43.8888342,-79.3158580
8977,Woodbine Avenue,L3R 0J9,43.8613139,-79.3607007
25,Romfield Circuit,L3T 3H4,43.8271526,-79.4060003
23,Romfield Circuit,L3T 3H4,43.8273167,-79.4057487
21,Romfield Circuit,L3T 3H4,43.8275444,-79.4049830
3175,Highway 7,L3R 0J5,43.8499878,-79.3520757
377,Church Street,L6B 1A1,43.8844984,-79.2324202
540,Bur Oak Avenue,L6C 0Y2,43.8951734,-79.2928806
5965,Highway 7 East,L3P 1A1,43.8733508,-79.2602986
12,Pingel Road,L6B 1B7,43.8937000,-79.2340545
14,Pingel Road,L6B 1B7,43.8937450,-79.2340810
19,Pingel Road,L6B 1B7,43.8940705,-79.2336865
30,Pingel Road,L6B 1B7,43.8943565,-79.2342405
34,Pingel Road,L6B 1B7,43.8944790,-79.2342675
25,Gowland Road,L6B 1B8,43.8932540,-79.2358600
53,Gowland Road,L6B 1B8,43.8943595,-79.2362525
57,Gowland Road,L6B 1B8,43.8944700,-79.2363200
50,Gowland Road,L6B 1B8,43.8941315,-79.2366250
54,Gowland Road,L6B 1B8,43.8942502,-79.2366710
7,Pascoe Drive,L6B 1B8,43.8941845,-79.2376670
11,Pascoe Drive,L6B 1B8,43.8940592,-79.2376522
15,Pascoe Drive,L6B 1B8,43.8939417,-79.2376094
1,Almira Avenue,L6B 1B9,43.8928665,-79.2345510
5,Almira Avenue,L6B 1B9,43.8928925,-79.2343799
9,Almira Avenue,L6B 1B9,43.8929079,-79.2342167
19,Almira Avenue,L6B 1B9,43.8929803,-79.2337127
31,Almira Avenue,L6B 1B9,43.8930640,-79.2331033
35,Almira Avenue,L6B 1B9,43.8930998,-79.2329425
39,Almira Avenue,L6B 1B9,43.8931165,-79.2327730
2773,Bur Oak Avenue,L6B 1B9,43.8934223,-79.2316825
2775,Bur Oak Avenue,L6B 1B9,43.8933794,-79.2316636
2777,Bur Oak Avenue,L6B 1B9,43.8933347,-79.2316564
189,Walkerville Road,L6B 1B9,43.8925836,-79.2321065
191,Walkerville Road,L6B 1B9,43.8926321,-79.2321237
193,Walkerville Road,L6B 1B9,43.8926878,-79.2321444
197,Walkerville Road,L6B 1B9,43.8927905,-79.2321715
195,Walkerville Road,L6B 1B9,43.8927425,-79.2321487
205,Walkerville Road,L6B 1B9,43.8930215,-79.2322600
201,Walkerville Road,L6B 1B9,43.8929315,-79.2322195
207,Walkerville Road,L6B 1B9,43.8930700,-79.2322675
209,Walkerville Road,L6B 1B9,43.8931268,-79.2322965
203,Walkerville Road,L6B 1B9,43.8929802,-79.2322400
7,White's Hill Avenue,L6B 1C1,43.8945180,-79.2377660
13,White's Hill Avenue,L6B 1C1,43.8945658,-79.2375631
15,White's Hill Avenue,L6B 1C1,43.8945770,-79.2375005
11,White's Hill Avenue,L6B 1C1,43.8945478,-79.2376287
9,White's Hill Avenue,L6B 1C1,43.8945341,-79.2376963
12,White's Hill Avenue,L6B 1C1,43.8948880,-79.2377987
8,White's Hill Avenue,L6B 1C1,43.8948545,-79.2379695
18,White's Hill Avenue,L6B 1C1,43.8949480,-79.2376089
14,White's Hill Avenue,L6B 1C1,43.8949019,-79.2377361
10,White's Hill Avenue,L6B 1C1,43.8948715,-79.2378835
16,White's Hill Avenue,L6B 1C1,43.8949308,-79.2376641
31,White's Hill Avenue,L6B 1C1,43.8947175,-79.2369353
21,White's Hill Avenue,L6B 1C1,43.8946393,-79.2372682
25,White's Hill Avenue,L6B 1C1,43.8946655,-79.2371525
23,White's Hill Avenue,L6B 1C1,43.8946489,-79.2372042
29,White's Hill Avenue,L6B 1C1,43.8946976,-79.2370085
27,White's Hill Avenue,L6B 1C1,43.8946951,-79.2370901
19,White's Hill Avenue,L6B 1C1,43.8946148,-79.2373330
22,White's Hill Avenue,L6B 1C1,43.8949730,-79.2374641
24,White's Hill Avenue,L6B 1C1,43.8949909,-79.2373922
28,White's Hill Avenue,L6B 1C1,43.8950300,-79.2372495
30,White's Hill Avenue,L6B 1C1,43.8950408,-79.2371871
32,White's Hill Avenue,L6B 1C1,43.8950555,-79.2371301
26,White's Hill Avenue,L6B 1C1,43.8950099,-79.2373159
94,White's Hill Avenue,L6B 1C1,43.8957415,-79.2343943
98,White's Hill Avenue,L6B 1C1,43.8957508,-79.2342395
96,White's Hill Avenue,L6B 1C1,43.8957435,-79.2343140
102,White's Hill Avenue,L6B 1C1,43.8957825,-79.2340830
106,White's Hill Avenue,L6B 1C1,43.8957905,-79.2339150
110,White's Hill Avenue,L6B 1C1,43.8958000,-79.2337489
1,Glenridge Drive,L6C 1A1,43.8857166,-79.3381446
2,Glenridge Drive,L6C 1A1,43.8851332,-79.3384297
5,Glenridge Drive,L6C 1A1,43.8854025,-79.3372094
6,Glenridge Drive,L6C 1A1,43.8847023,-79.3375099
18,Glenridge Drive,L6C 1A1,43.8847416,-79.3357197
34,Glenridge Drive,L6C 1A1,43.8840942,-79.3355797
50,Glenridge Drive,L6C 1A1,43.8832726,-79.3355182
3,Walnut Glen Place,L6C 1A1,43.8846137,-79.3364205
9,Glenridge Drive,L6C 1A2,43.8853267,-79.3367296
15,Glenridge Drive,L6C 1A2,43.8854010,-79.3362417
19,Glenridge Drive,L6C 1A2,43.8855498,-79.3356378
23,Glenridge Drive,L6C 1A2,43.8854924,-79.3350925
27,Glenridge Drive,L6C 1A2,43.8850378,-79.3348181
31,Glenridge Drive,L6C 1A2,43.8846063,-79.3347390
35,Glenridge Drive,L6C 1A2,43.8841473,-79.3347095
39,Glenridge Drive,L6C 1A2,43.8837162,-79.3346067
43,Glenridge Drive,L6C 1A2,43.8833071,-79.3346477
47,Glenridge Drive,L6C 1A2,43.8828627,-79.3347216
51,Glenridge Drive,L6C 1A2,43.8826433,-79.3352510
55,Glenridge Drive,L6C 1A2,43.8825693,-79.3357433
59,Glenridge Drive,L6C 1A2,43.8824846,-79.3362568
30,Walnut Glen Place,L6C 1A2,43.8812581,-79.3388763
36,Walnut Glen Place,L6C 1A2,43.8806994,-79.3391807
6,Walnut Glen Place,L6C 1A3,43.8842537,-79.3374317
7,Walnut Glen Place,L6C 1A3,43.8838938,-79.3363729
10,Walnut Glen Place,L6C 1A3,43.8837893,-79.3374263
11,Walnut Glen Place,L6C 1A3,43.8833498,-79.3364437
14,Walnut Glen Place,L6C 1A3,43.8833220,-79.3375507
18,Walnut Glen Place,L6C 1A3,43.8827370,-79.3377340
19,Walnut Glen Place,L6C 1A3,43.8823587,-79.3367663
22,Walnut Glen Place,L6C 1A3,43.8822527,-79.3378951
23,Walnut Glen Place,L6C 1A3,43.8818623,-79.3370633
26,Walnut Glen Place,L6C 1A3,43.8816998,-79.3383715
27,Walnut Glen Place,L6C 1A3,43.8814101,-79.3375915
31,Walnut Glen Place,L6C 1A3,43.8809043,-79.3380556
35,Walnut Glen Place,L6C 1A3,43.8804159,-79.3385650
39,Baymark Road,L3T 3Y5,43.8309596,-79.4073767
35,Baymark Road,L3T 3Y4,43.8305431,-79.4073121
4175,14th Avenue,L3R 0J2,43.8382680,-79.3167419
20,Steelcase Road West,L3R1B2,43.8196771,-79.3530449
150,Bullock Drive,L3P 1R1,43.8768200,-79.2729538
4300,Steeles Avenue East,L3R 0Y5,43.8261938,-79.3065949
8220,Bayview Avenue,L3T 2S2,43.8323191,-79.4049452
12,Gandhi Lane,L3T 0G8,43.8405601,-79.3969674
12,Gandhi Lane,L3T 0G8,43.8404569,-79.3974246
38,Gandhi Lane,L3T 0G8,43.8406644,-79.3965067
115,Anderson Avenue,L6E1A4,43.9022443,-79.2636578
9900,Markham Road,L6E0H7,43.9072203,-79.2680780
6,Chestnut Gate,L3T 5W8,43.8204164,-79.3776610
152,Cottonwood Court,L3T 5X1,43.8205293,-79.3771136
148,Cottonwood Court,L3T 5X1,43.8205247,-79.3769352
144,Cottonwood Court,L3T 5X1,43.8205642,-79.3767656
140,Cottonwood Court,L3T 5X1,43.8205253,-79.3765286
136,Cottonwood Court,L3T 5X1,43.8203869,-79.3763751
132,Cottonwood Court,L3T 5X1,43.8202363,-79.3763230
128,Cottonwood Court,L3T 5X1,43.8201114,-79.3762887
124,Cottonwood Court,L3T 5X1,43.8199879,-79.3762473
120,Cottonwood Court,L3T 5X1,43.8198625,-79.3762129
133,Cottonwood Court,L3T 5W9,43.8201230,-79.3768363
129,Cottonwood Court,L3T 5W9,43.8199971,-79.3768198
125,Cottonwood Court,L3T 5W9,43.8198745,-79.3767763
127,Cottonwood Court,L3T 5W9,43.8199282,-79.3767912
121,Cottonwood Court,L3T 5W9,43.8197467,-79.3767557
157,Cottonwood Court,L3T 5W9,43.8199769,-79.3771086
4,Cottonwood Court,L3T 5X1,43.8202280,-79.3796486
8,Cottonwood Court,L3T 5X1,43.8201142,-79.3795650
12,Cottonwood Court,L3T 5X1,43.8199883,-79.3795322
16,Cottonwood Court,L3T 5X1,43.8198747,-79.3794515
20,Cottonwood Court,L3T 5X1,43.8197493,-79.3794195
24,Cottonwood Court,L3T 5X1,43.8196308,-79.3793542
28,Cottonwood Court,L3T 5X1,43.8195107,-79.3792991
3,Cottonwood Court,L3T 5W9,43.8203074,-79.3790985
7,Cottonwood Court,L3T 5W9,43.8201857,-79.3790314
5,Cottonwood Court,L3T 5W9,43.8202382,-79.3790559
11,Cottonwood Court,L3T 5W9,43.8200602,-79.3789943
9,Cottonwood Court,L3T 5W9,43.8201155,-79.3790190
17,Cottonwood Court,L3T 5W9,43.8199472,-79.3789106
21,Cottonwood Court,L3T 5W9,43.8198211,-79.3788771
25,Cottonwood Court,L3T 5W9,43.8197035,-79.3788180
31,Cottonwood Court,L3T 5W9,43.8194757,-79.3786911
35,Cottonwood Court,L3T 5W9,43.8193650,-79.3786023
207,Cottonwood Court,L3T 5W9,43.8202773,-79.3787210
203,Cottonwood Court,L3T 5W9,43.8201583,-79.3786661
199,Cottonwood Court,L3T 5W9,43.8200408,-79.3785944
195,Cottonwood Court,L3T 5W9,43.8199163,-79.3785534
191,Cottonwood Court,L3T 5W9,43.8197963,-79.3784959
187,Cottonwood Court,L3T 5W9,43.8196217,-79.3783785
183,Cottonwood Court,L3T 5W9,43.8195548,-79.3781954
179,Cottonwood Court,L3T 5W9,43.8195913,-79.3779928
175,Cottonwood Court,L3T 5W9,43.8196205,-79.3778144
171,Cottonwood Court,L3T 5W9,43.8196480,-79.3776463
167,Cottonwood Court,L3T 5W9,43.8197180,-79.3774688
163,Cottonwood Court,L3T 5W9,43.8197878,-79.3773198
159,Cottonwood Court,L3T 5W9,43.8198999,-79.3771979
206,Cottonwood Court,L3T 5X2,43.8204250,-79.3780279
202,Cottonwood Court,L3T 5X2,43.8202948,-79.3780117
198,Cottonwood Court,L3T 5X2,43.8201437,-79.3780780
160,Cottonwood Court,L3T 5X2,43.8202401,-79.3775390
162,Cottonwood Court,L3T 5X2,43.8201980,-79.3776115
168,Cottonwood Court,L3T 5X2,43.8200298,-79.3778524
172,Cottonwood Court,L3T 5X2,43.8199880,-79.3780180
11,Arthur Harper Lane,L3T 0E8,43.8206272,-79.3911094
9,Arthur Harper Lane,L3T 0E8,43.8206333,-79.3910321
7,Arthur Harper Lane,L3T 0E8,43.8206393,-79.3909547
5,Arthur Harper Lane,L3T 0E8,43.8206454,-79.3908709
25,Arthur Harper Lane,L3T 0E9,43.8205815,-79.3916742
23,Arthur Harper Lane,L3T 0E9,43.8205875,-79.3915976
21,Arthur Harper Lane,L3T 0E9,43.8205934,-79.3915229
19,Arthur Harper Lane,L3T 0E8,43.8205993,-79.3914471
17,Arthur Harper Lane,L3T 0E8,43.8206053,-79.3913710
15,Arthur Harper Lane,L3T 0E8,43.8206113,-79.3912948
33,Arthur Harper Lane,L3T 0E9,43.8205500,-79.3920205
31,Arthur Harper Lane,L3T 0E9,43.8205571,-79.3919408
29,Arthur Harper Lane,L3T 0E9,43.8205639,-79.3918632
27,Arthur Harper Lane,L3T 0E9,43.8205706,-79.3917860
87,Harold Lawrie Lane,L3T 0E8,43.8209358,-79.3910097
85,Harold Lawrie Lane,L3T 0E8,43.8209809,-79.3910489
83,Harold Lawrie Lane,L3T 0E8,43.8210249,-79.3910680
81,Harold Lawrie Lane,L3T 0E8,43.8210744,-79.3910841
79,Harold Lawrie Lane,L3T 0E8,43.8211221,-79.3911013
77,Harold Lawrie Lane,L3T 0E8,43.8211714,-79.3911204
75,Harold Lawrie Lane,L3T 0E8,43.8212450,-79.3911463
73,Harold Lawrie Lane,L3T 0E8,43.8212950,-79.3911698
71,Harold Lawrie Lane,L3T 0E8,43.8213418,-79.3911870
69,Harold Lawrie Lane,L3T 0E8,43.8213900,-79.3912167
67,Harold Lawrie Lane,L3T 0E8,43.8214332,-79.3912308
65,Harold Lawrie Lane,L3T 0E8,43.8214830,-79.3912486
63,Harold Lawrie Lane,L3T 0E8,43.8215323,-79.3912576
61,Harold Lawrie Lane,L3T 0E8,43.8215809,-79.3912815
59,Harold Lawrie Lane,L3T 0E8,43.8216518,-79.3913178
57,Harold Lawrie Lane,L3T 0E8,43.8216996,-79.3913380
55,Harold Lawrie Lane,L3T 0G1,43.8217493,-79.3913636
53,Harold Lawrie Lane,L3T 0G1,43.8217858,-79.3914102
51,Harold Lawrie Lane,L3T 0G1,43.8218335,-79.3914386
49,Harold Lawrie Lane,L3T 0G1,43.8218861,-79.3914306
47,Harold Lawrie Lane,L3T 0G1,43.8219342,-79.3914545
86,Harold Lawrie Lane,L3T 0E8,43.8208754,-79.3915168
84,Harold Lawrie Lane,L3T 0E8,43.8209267,-79.3915415
82,Harold Lawrie Lane,L3T 0E8,43.8209744,-79.3915568
80,Harold Lawrie Lane,L3T 0E8,43.8210241,-79.3915726
78,Harold Lawrie Lane,L3T 0E8,43.8210684,-79.3915875
76,Harold Lawrie Lane,L3T 0E8,43.8211185,-79.3916114
74,Harold Lawrie Lane,L3T 0E8,43.8211883,-79.3916423
72,Harold Lawrie Lane,L3T 0E8,43.8212381,-79.3916659
70,Harold Lawrie Lane,L3T 0E8,43.8212855,-79.3916801
68,Harold Lawrie Lane,L3T 0E8,43.8213346,-79.3916972
66,Harold Lawrie Lane,L3T 0E8,43.8213790,-79.3917134
64,Harold Lawrie Lane,L3T 0E8,43.8214301,-79.3917369
62,Harold Lawrie Lane,L3T 0E8,43.8214985,-79.3917630
60,Harold Lawrie Lane,L3T 0E8,43.8215464,-79.3917895
58,Harold Lawrie Lane,L3T 0G1,43.8215913,-79.3918025
56,Harold Lawrie Lane,L3T 0G1,43.8216408,-79.3918328
54,Harold Lawrie Lane,L3T 0G1,43.8216884,-79.3918509
52,Harold Lawrie Lane,L3T 0G1,43.8217336,-79.3918772
43,Harold Lawrie Lane,L3T 0G1,43.8219998,-79.3915961
41,Harold Lawrie Lane,L3T 0G1,43.8220443,-79.3916453
39,Harold Lawrie Lane,L3T 0G1,43.8220820,-79.3916943
37,Harold Lawrie Lane,L3T 0G1,43.8221269,-79.3917436
35,Harold Lawrie Lane,L3T 0G1,43.8222214,-79.3917480
33,Harold Lawrie Lane,L3T 0G1,43.8222667,-79.3917791
31,Harold Lawrie Lane,L3T 0G1,43.8223175,-79.3918048
29,Harold Lawrie Lane,L3T 0G1,43.8223636,-79.3918187
27,Harold Lawrie Lane,L3T 0G1,43.8224129,-79.3918321
46,Harold Lawrie Lane,L3T 0G1,43.8219087,-79.3921930
42,Harold Lawrie Lane,L3T 0G1,43.8219565,-79.3922156
40,Harold Lawrie Lane,L3T 0G1,43.8220031,-79.3922321
38,Harold Lawrie Lane,L3T 0G1,43.8220522,-79.3922453
36,Harold Lawrie Lane,L3T 0G1,43.8220989,-79.3922601
34,Harold Lawrie Lane,L3T 0G1,43.8221468,-79.3922897
32,Harold Lawrie Lane,L3T 0G1,43.8221930,-79.3923071
30,Harold Lawrie Lane,L3T 0G1,43.8222428,-79.3923344
28,Harold Lawrie Lane,L3T 0G1,43.8223114,-79.3923564
26,Harold Lawrie Lane,L3T 0G1,43.8223613,-79.3923792
24,Harold Lawrie Lane,L3T 0G1,43.8224093,-79.3923904
22,Harold Lawrie Lane,L3T 0G1,43.8224581,-79.3924081
20,Harold Lawrie Lane,L3T 0G1,43.8225027,-79.3924295
18,Harold Lawrie Lane,L3T 0G1,43.8225526,-79.3924492
16,Harold Lawrie Lane,L3T 0G1,43.8226213,-79.3924785
14,Harold Lawrie Lane,L3T 0G1,43.8226673,-79.3925141
12,Harold Lawrie Lane,L3T 0G1,43.8227146,-79.3925324
10,Harold Lawrie Lane,L3T 0G1,43.8227638,-79.3925503
8,Harold Lawrie Lane,L3T 0G1,43.8228093,-79.3925651
6,Harold Lawrie Lane,L3T 0G1,43.8228574,-79.3925934
4,Harold Lawrie Lane,L3T 0G1,43.8229029,-79.3926030
2,Harold Lawrie Lane,L3T 0G1,43.8229486,-79.3926312
17,John Stocks Way,L3T 0E9,43.8210809,-79.3920046
15,John Stocks Way,L3T 0E9,43.8210328,-79.3919797
13,John Stocks Way,L3T 0E9,43.8209856,-79.3919661
11,John Stocks Way,L3T 0E9,43.8209367,-79.3919364
9,John Stocks Way,L3T 0E9,43.8208882,-79.3919355
7,John Stocks Way,L3T 0E9,43.8208451,-79.3918986
19,John Stocks Way,L3T 0E9,43.8211542,-79.3920301
21,John Stocks Way,L3T 0E9,43.8212032,-79.3920572
23,John Stocks Way,L3T 0E9,43.8212480,-79.3920757
25,John Stocks Way,L3T 0E9,43.8212951,-79.3921046
27,John Stocks Way,L3T 0E9,43.8213407,-79.3921171
29,John Stocks Way,L3T 0E9,43.8213909,-79.3921431
31,John Stocks Way,L3T 0E9,43.8214633,-79.3921630
33,John Stocks Way,L3T 0G1,43.8215098,-79.3921845
35,John Stocks Way,L3T 0G1,43.8215586,-79.3922116
37,John Stocks Way,L3T 0G1,43.8216041,-79.3922247
39,John Stocks Way,L3T 0G1,43.8216540,-79.3922381
176,Helen Avenue,L3R5R6,43.8543980,-79.3033611
178,Helen Avenue,L3R5R6,43.8544256,-79.3031954
180,Helen Avenue,L3R5R6,43.8545133,-79.3030511
138,Helen Avenue,L3R1J5,43.8546026,-79.3028183
186,Helen Avenue,L3R5R6,43.8546186,-79.3025684
144,Helen Avenue,L3R1J5,43.8547461,-79.3022210
150,Helen Avenue,L3R1J5,43.8548023,-79.3018809
202,Helen Avenue,L3R1J8,43.8549071,-79.3013866
204,Helen Avenue,L3R1J8,43.8548658,-79.3012207
206,Helen Avenue,L3R1J8,43.8548886,-79.3010860
208,Helen Avenue,L3R1J8,43.8549281,-79.3009492
210,Helen Avenue,L3R1J8,43.8549546,-79.3008242
212,Helen Avenue,L3R1J8,43.8549627,-79.3006918
216,Helen Avenue,L3R1J8,43.8550123,-79.3005625
218,Helen Avenue,L3R1J8,43.8550416,-79.3004203
220,Helen Avenue,L3R1J8,43.8550883,-79.3002745
222,Helen Avenue,L3R1J8,43.8551141,-79.3001139
224,Helen Avenue,L3R1J8,43.8551596,-79.2999582
226,Helen Avenue,L3R1J8,43.8551861,-79.2998174
228,Helen Avenue,L3R1J8,43.8552126,-79.2996581
230,Helen Avenue,L3R1J8,43.8552426,-79.2995113
232,Helen Avenue,L3R1J8,43.8552778,-79.2993746
234,Helen Avenue,L3R1J8,43.8553085,-79.2992363
236,Helen Avenue,L3R1K1,43.8553382,-79.2990968
238,Helen Avenue,L3R1K1,43.8553720,-79.2989594
240,Helen Avenue,L3R1K1,43.8554057,-79.2988348
"2,4",Prince William Drive,L3R 7V5,43.8635634,-79.2979761
"6,8",Prince William Drive,L3R 7V5,43.8636058,-79.2977905
"10,12",Prince William Drive,L3R 7V5,43.8636535,-79.2975412
"14,16",Prince William Drive,L3R 7V5,43.8636951,-79.2973590
"18,20",Prince William Drive,L3R 7V5,43.8637356,-79.2971789
"22,24",Prince William Drive,L3R 7V5,43.8637746,-79.2969990
"26,28",Prince William Drive,L3R 7V5,43.8638122,-79.2968163
"30,32",Prince William Drive,L3R 7V5,43.8638339,-79.2966265
"1,3",Prince William Drive,L3R 7V5,43.8631474,-79.2978741
"5,7",Prince William Drive,L3R 7V5,43.8631786,-79.2976815
"9,11",Prince William Drive,L3R 7V5,43.8632399,-79.2974287
"13,15",Prince William Drive,L3R 7V5,43.8632846,-79.2972232
"17,19",Prince William Drive,L3R 7V5,43.8633272,-79.2970210
"21,23",Prince William Drive,L3R 7V5,43.8633708,-79.2968178
"25,27",Prince William Drive,L3R 7V5,43.8633849,-79.2966013
"29,31",Prince William Drive,L3R 7V5,43.8634287,-79.2964022
276,Helen Avenue,L3R1K1,43.8559940,-79.2963123
278,Helen Avenue,L3R1K1,43.8560293,-79.2961697
280,Helen Avenue,L3R1K1,43.8560529,-79.2960220
282,Helen Avenue,L3R1K1,43.8560954,-79.2958735
284,Helen Avenue,L3R1K1,43.8561214,-79.2957427
286,Helen Avenue,L3R1K1,43.8561480,-79.2956269
288,Helen Avenue,L3R1K1,43.8561855,-79.2954893
361,John Street,L3T 5W5,43.8196423,-79.3908322
49,Green Lane,L3T 7M9,43.8216592,-79.3973391
22,Esna Park Drive,L3R 1E1,43.8283524,-79.3480771
4,Charnwood Place,L3T 5H3,43.8310756,-79.3949568
6,Charnwood Place,L3T 5H3,43.8310697,-79.3951708
8,Charnwood Place,L3T 5H3,43.8310319,-79.3953320
10,Charnwood Place,L3T 5H3,43.8310013,-79.3954993
12,Charnwood Place,L3T 5H3,43.8309823,-79.3956352
14,Charnwood Place,L3T 5H3,43.8309577,-79.3957390
16,Charnwood Place,L3T 5H3,43.8309314,-79.3958545
18,Charnwood Place,L3T 5H3,43.8309010,-79.3959474
20,Charnwood Place,L3T 5H3,43.8308885,-79.3960709
22,Charnwood Place,L3T 5H3,43.8308642,-79.3961759
26,Charnwood Place,L3T 5H3,43.8308104,-79.3963876
24,Charnwood Place,L3T 5H3,43.8308414,-79.3962937
28,Charnwood Place,L3T 5H3,43.8308114,-79.3965147
30,Charnwood Place,L3T 5H3,43.8307992,-79.3966267
34,Charnwood Place,L3T 5H3,43.8306851,-79.3968863
32,Charnwood Place,L3T 5H3,43.8307556,-79.3968197
36,Charnwood Place,L3T 5H3,43.8305795,-79.3969372
38,Charnwood Place,L3T 5H3,43.8305090,-79.3969638
40,Charnwood Place,L3T 5H3,43.8303800,-79.3969295
42,Charnwood Place,L3T 5H3,43.8303108,-79.3969014
44,Charnwood Place,L3T 5H3,43.8302233,-79.3968309
46,Charnwood Place,L3T 5H3,43.8301459,-79.3967960
48,Charnwood Place,L3T 5H3,43.8300682,-79.3967255
54,Charnwood Place,L3T 5H3,43.8298344,-79.3966273
52,Charnwood Place,L3T 5H3,43.8299119,-79.3966623
56,Charnwood Place,L3T 5H3,43.8296704,-79.3965357
74,Charnwood Place,L3T 5H3,43.8297218,-79.3954128
58,Charnwood Place,L3T 5H3,43.8296129,-79.3964651
68,Charnwood Place,L3T 5H3,43.8296280,-79.3957754
60,Charnwood Place,L3T 5H3,43.8295468,-79.3962920
62,Charnwood Place,L3T 5H3,43.8295355,-79.3961753
70,Charnwood Place,L3T 5H3,43.8296481,-79.3956675
72,Charnwood Place,L3T 5H3,43.8296910,-79.3955318
78,Charnwood Place,L3T 5H3,43.8297581,-79.3951616
76,Charnwood Place,L3T 5H3,43.8297387,-79.3952691
66,Charnwood Place,L3T 5H3,43.8295720,-79.3959107
64,Charnwood Place,L3T 5H3,43.8295560,-79.3960035
80,Charnwood Place,L3T 5H3,43.8298098,-79.3950172
82,Charnwood Place,L3T 5H3,43.8298405,-79.3948527
84,Charnwood Place,L3T 5H3,43.8298642,-79.3946949
86,Charnwood Place,L3T 5H3,43.8299023,-79.3945140
88,Charnwood Place,L3T 5H3,43.8299437,-79.3943527
90,Charnwood Place,L3T 5H3,43.8299866,-79.3941885
92,Charnwood Place,L3T 5H3,43.8300074,-79.3940411
94,Charnwood Place,L3T 5H3,43.8300426,-79.3938697
96,Charnwood Place,L3T 5H3,43.8300939,-79.3937057
3,Charnwood Place,L3T 5H2,43.8307249,-79.3943512
5,Charnwood Place,L3T 5H2,43.8307269,-79.3945369
7,Charnwood Place,L3T 5H2,43.8306994,-79.3947036
9,Charnwood Place,L3T 5H2,43.8306579,-79.3948622
11,Charnwood Place,L3T 5H2,43.8306302,-79.3950312
15,Charnwood Place,L3T 5H2,43.8305887,-79.3951902
17,Charnwood Place,L3T 5H2,43.8305766,-79.3953343
19,Charnwood Place,L3T 5H2,43.8305462,-79.3954271
21,Charnwood Place,L3T 5H2,43.8305207,-79.3955431
23,Charnwood Place,L3T 5H2,43.8304950,-79.3956460
25,Charnwood Place,L3T 5H2,43.8304654,-79.3957625
27,Charnwood Place,L3T 5H2,43.8304499,-79.3958621
31,Charnwood Place,L3T 5H2,43.8304169,-79.3960852
29,Charnwood Place,L3T 5H2,43.8304314,-79.3959851
33,Charnwood Place,L3T 5H2,43.8303822,-79.3961962
35,Charnwood Place,L3T 5H2,43.8303602,-79.3962878
67,Charnwood Place,L3T 5H2,43.8300542,-79.3960190
65,Charnwood Place,L3T 5H2,43.8300312,-79.3961106
71,Charnwood Place,L3T 5H2,43.8300991,-79.3958029
69,Charnwood Place,L3T 5H2,43.8300663,-79.3958949
73,Charnwood Place,L3T 5H2,43.8301249,-79.3956840
75,Charnwood Place,L3T 5H2,43.8301513,-79.3955811
79,Charnwood Place,L3T 5H2,43.8301963,-79.3953621
77,Charnwood Place,L3T 5H2,43.8301635,-79.3954542
83,Charnwood Place,L3T 5H2,43.8302496,-79.3951371
81,Charnwood Place,L3T 5H2,43.8302231,-79.3952407
85,Charnwood Place,L3T 5H2,43.8302652,-79.3949985
87,Charnwood Place,L3T 5H2,43.8303120,-79.3948251
91,Charnwood Place,L3T 5H2,43.8303943,-79.3945041
95,Charnwood Place,L3T 5H2,43.8304624,-79.3941720
89,Charnwood Place,L3T 5H2,43.8303459,-79.3946607
93,Charnwood Place,L3T 5H2,43.8304160,-79.3943364
97,Charnwood Place,L3T 5H2,43.8304756,-79.3939962
4,Rothsay Road,L3T 3J7,43.8284398,-79.4072580
6,Rothsay Road,L3T 3J7,43.8284570,-79.4070567
8,Rothsay Road,L3T 3J7,43.8284982,-79.4068769
10,Rothsay Road,L3T 3J7,43.8285288,-79.4066653
12,Rothsay Road,L3T 3J7,43.8285863,-79.4064609
14,Rothsay Road,L3T 3J7,43.8286241,-79.4062728
16,Rothsay Road,L3T 3J7,43.8286645,-79.4060712
18,Rothsay Road,L3T 3J7,43.8287144,-79.4058773
20,Rothsay Road,L3T 3J7,43.8287448,-79.4056773
22,Rothsay Road,L3T 3J7,43.8287869,-79.4054747
24,Rothsay Road,L3T 3J7,43.8288472,-79.4052828
26,Rothsay Road,L3T 3J7,43.8288900,-79.4050787
28,Rothsay Road,L3T 3J7,43.8289321,-79.4048890
30,Rothsay Road,L3T 3J7,43.8289896,-79.4046560
32,Rothsay Road,L3T 3J7,43.8289272,-79.4044310
34,Rothsay Road,L3T 3J7,43.8287959,-79.4042424
36,Rothsay Road,L3T 3J7,43.8286335,-79.4041895
38,Rothsay Road,L3T 3J7,43.8284845,-79.4041322
40,Rothsay Road,L3T 3J7,43.8282495,-79.4041211
31,Rothsay Road,L3T 3J6,43.8284872,-79.4047166
29,Rothsay Road,L3T 3J6,43.8284454,-79.4049031
25,Rothsay Road,L3T 3J6,43.8283520,-79.4052975
27,Rothsay Road,L3T 3J6,43.8283928,-79.4051165
23,Rothsay Road,L3T 3J6,43.8283120,-79.4055191
19,Rothsay Road,L3T 3J6,43.8282236,-79.4059175
17,Rothsay Road,L3T 3J6,43.8281750,-79.4060946
15,Rothsay Road,L3T 3J6,43.8281297,-79.4063143
11,Rothsay Road,L3T 3J6,43.8280951,-79.4064975
7,Rothsay Road,L3T 3J6,43.8280005,-79.4068932
5,Rothsay Road,L3T 3J6,43.8279697,-79.4071144
21,Rothsay Road,L3T 3J6,43.8282708,-79.4057004
9,Rothsay Road,L3T 3J6,43.8280501,-79.4067012
3,Rothsay Road,L3T 3J6,43.8279660,-79.4073777
1,Rothsay Road,L3T 3J6,43.8280884,-79.4076563
2,Rothsay Road,L3T 3J7,43.8284367,-79.4075850
39,Rothsay Road,L3T 3J6,43.8281712,-79.4045743
41,Baymark Road,L3T 3Y5,43.8311904,-79.4072846
43,Baymark Road,L3T 3Y5,43.8313411,-79.4072805
45,Baymark Road,L3T 3Y5,43.8314908,-79.4072971
47,Baymark Road,L3T 3Y5,43.8316450,-79.4072683
49,Baymark Road,L3T 3Y5,43.8318043,-79.4073003
50,Baymark Road,L3T 3X9,43.8316752,-79.4079233
48,Baymark Road,L3T 3X9,43.8315248,-79.4079151
46,Baymark Road,L3T 3X9,43.8313621,-79.4079217
44,Baymark Road,L3T 3X9,43.8312196,-79.4079318
42,Baymark Road,L3T 3X9,43.8310596,-79.4079361
40,Baymark Road,L3T 3X9,43.8309176,-79.4079758
38,Baymark Road,L3T 3X9,43.8307587,-79.4079520
36,Baymark Road,L3T 3X9,43.8306152,-79.4079634
2,Baymark Road,L3T 3X9,43.8277899,-79.4083760
4,Baymark Road,L3T 3X9,43.8280467,-79.4083709
6,Baymark Road,L3T 3X9,43.8281793,-79.4083315
8,Baymark Road,L3T 3X9,43.8283334,-79.4082469
10,Baymark Road,L3T 3X9,43.8284788,-79.4081889
12,Baymark Road,L3T 3X9,43.8286393,-79.4081987
14,Baymark Road,L3T 3X9,43.8287886,-79.4081745
16,Baymark Road,L3T 3X9,43.8289259,-79.4081397
18,Baymark Road,L3T 3X9,43.8291059,-79.4081367
20,Baymark Road,L3T 3X9,43.8292539,-79.4080953
22,Baymark Road,L3T 3X9,43.8294025,-79.4080666
24,Baymark Road,L3T 3X9,43.8295473,-79.4080710
26,Baymark Road,L3T 3X9,43.8297036,-79.4080376
28,Baymark Road,L3T 3X9,43.8298501,-79.4080132
30,Baymark Road,L3T 3X9,43.8300141,-79.4080109
31,Baymark Road,L3T 3Y4,43.8302592,-79.4073236
33,Baymark Road,L3T 3Y4,43.8304128,-79.4073398
25,Baymark Road,L3T 3Y3,43.8293594,-79.4074579
27,Baymark Road,L3T 3Y3,43.8295088,-79.4074344
15,Baymark Road,L3T 3Y2,43.8285738,-79.4075414
17,Baymark Road,L3T 3Y2,43.8287281,-79.4075419
3,Baymark Road,L3T 3Y1,43.8277848,-79.4078050
5,Baymark Road,L3T 3Y1,43.8279505,-79.4077516
29,Ironshield Crescent,L3T 3K7,43.8305411,-79.4091004
31,Ironshield Crescent,L3T 3K7,43.8305069,-79.4088883
33,Ironshield Crescent,L3T 3K7,43.8305267,-79.4086608
35,Ironshield Crescent,L3T 3K7,43.8306332,-79.4084358
37,Ironshield Crescent,L3T 3K7,43.8307760,-79.4083607
39,Ironshield Crescent,L3T 3K7,43.8309481,-79.4083498
41,Ironshield Crescent,L3T 3K7,43.8311030,-79.4083433
45,Ironshield Crescent,L3T 3K7,43.8314169,-79.4083303
47,Ironshield Crescent,L3T 3K7,43.8315695,-79.4083154
43,Ironshield Crescent,L3T 3K7,43.8312537,-79.4083391
12,Stornoway Crescent,L3T 3X7,43.8287372,-79.4089398
10,Stornoway Crescent,L3T 3X7,43.8285931,-79.4087002
8,Stornoway Crescent,L3T 3X7,43.8284451,-79.4086862
6,Stornoway Crescent,L3T 3X7,43.8282727,-79.4087138
4,Stornoway Crescent,L3T 3X7,43.8281209,-79.4087840
2,Stornoway Crescent,L3T 3X7,43.8279071,-79.4089590
2,Romfield Circuit,L3T 3H2,43.8282692,-79.4039229
8,Romfield Circuit,L3T 3H3,43.8281081,-79.4047328
10,Romfield Circuit,L3T 3H3,43.8280692,-79.4048955
12,Romfield Circuit,L3T 3H3,43.8280171,-79.4050679
14,Romfield Circuit,L3T 3H3,43.8279974,-79.4052210
16,Romfield Circuit,L3T 3H3,43.8279628,-79.4053851
18,Romfield Circuit,L3T 3H3,43.8279402,-79.4055530
20,Romfield Circuit,L3T 3H3,43.8278877,-79.4057251
22,Romfield Circuit,L3T 3H3,43.8278708,-79.4058911
24,Romfield Circuit,L3T 3H3,43.8278339,-79.4060443
26,Romfield Circuit,L3T 3H3,43.8277986,-79.4062062
28,Romfield Circuit,L3T 3H3,43.8277622,-79.4063912
30,Romfield Circuit,L3T 3H3,43.8277254,-79.4065327
32,Romfield Circuit,L3T 3H3,43.8276811,-79.4066911
34,Romfield Circuit,L3T 3H3,43.8276430,-79.4068551
36,Romfield Circuit,L3T 3H3,43.8275974,-79.4070412
38,Romfield Circuit,L3T 3H3,43.8276130,-79.4072151
40,Romfield Circuit,L3T 3H3,43.8276211,-79.4073967
42,Romfield Circuit,L3T 3H3,43.8276219,-79.4075719
44,Romfield Circuit,L3T 3H3,43.8276500,-79.4078530
56,Romfield Circuit,L3T 3H5,43.8278281,-79.4085596
58,Romfield Circuit,L3T 3H5,43.8278562,-79.4087672
33,Romfield Circuit,L3T 3H4,43.8272835,-79.4063958
31,Romfield Circuit,L3T 3H4,43.8269891,-79.4063977
29,Romfield Circuit,L3T 3H4,43.8268310,-79.4059816
27,Romfield Circuit,L3T 3H4,43.8269017,-79.4056418
35,Romfield Circuit,L3T 3H4,43.8271547,-79.4068935
37,Romfield Circuit,L3T 3H4,43.8271664,-79.4070727
39,Romfield Circuit,L3T 3H4,43.8271631,-79.4072439
41,Romfield Circuit,L3T 3H4,43.8271408,-79.4074258
43,Romfield Circuit,L3T 3H4,43.8271601,-79.4076019
45,Romfield Circuit,L3T 3H4,43.8271929,-79.4077731
47,Romfield Circuit,L3T 3H4,43.8272289,-79.4079420
49,Romfield Circuit,L3T 3H4,43.8272544,-79.4081029
51,Romfield Circuit,L3T 3H4,43.8273132,-79.4082647
53,Romfield Circuit,L3T 3H4,43.8273218,-79.4084380
55,Romfield Circuit,L3T 3H4,43.8273529,-79.4086033
57,Romfield Circuit,L3T 3H4,43.8273910,-79.4087609
59,Romfield Circuit,L3T 3H4,43.8274245,-79.4089309
61,Romfield Circuit,L3T 3H4,43.8274541,-79.4090827
19,Romfield Circuit,L3T 3H4,43.8275583,-79.4049118
17,Romfield Circuit,L3T 3H4,43.8275871,-79.4048400
15,Romfield Circuit,L3T 3H4,43.8276002,-79.4047719
9,Romfield Circuit,L3T 3H4,43.8276229,-79.4046231
11,Romfield Circuit,L3T 3H4,43.8276094,-79.4046922
1,Romfield Circuit,L3T 3H4,43.8276869,-79.4043311
3,Romfield Circuit,L3T 3H4,43.8276736,-79.4044005
5,Romfield Circuit,L3T 3H4,43.8276639,-79.4044814
7,Romfield Circuit,L3T 3H4,43.8276507,-79.4045510
1,Kindale Way,L3T 4Z1,43.8273323,-79.4046625
3,Kindale Way,L3T 4Z1,43.8273377,-79.4045865
5,Kindale Way,L3T 4Z1,43.8273499,-79.4045210
7,Kindale Way,L3T 4Z1,43.8273795,-79.4044491
9,Kindale Way,L3T 4Z1,43.8273921,-79.4043820
11,Kindale Way,L3T 4Z1,43.8274002,-79.4043013
15,Kindale Way,L3T 4Z1,43.8274131,-79.4042336
2,Kindale Way,L3T 4Z3,43.8270263,-79.4044780
4,Kindale Way,L3T 4Z3,43.8270521,-79.4044072
6,Kindale Way,L3T 4Z3,43.8270653,-79.4043386
8,Kindale Way,L3T 4Z3,43.8270883,-79.4042658
10,Kindale Way,L3T 4Z3,43.8271010,-79.4041965
12,Kindale Way,L3T 4Z3,43.8271262,-79.4041233
14,Kindale Way,L3T 4Z3,43.8271393,-79.4040553
16,Kindale Way,L3T 4Z3,43.8271646,-79.4039830
18,Kindale Way,L3T 4Z3,43.8271781,-79.4039116
20,Kindale Way,L3T 4Z3,43.8271962,-79.4038353
22,Kindale Way,L3T 4Z3,43.8272152,-79.4037670
24,Kindale Way,L3T 4Z3,43.8270091,-79.4038482
26,Kindale Way,L3T 4Z3,43.8269574,-79.4038396
28,Kindale Way,L3T 4Z3,43.8269037,-79.4038245
30,Kindale Way,L3T 4Z3,43.8268473,-79.4038049
36,Kindale Way,L3T 4Z3,43.8266864,-79.4037718
38,Kindale Way,L3T 4Z3,43.8266305,-79.4037649
40,Kindale Way,L3T 4Z3,43.8265767,-79.4037494
34,Kindale Way,L3T 4Z3,43.8267391,-79.4037765
32,Kindale Way,L3T 4Z3,43.8267958,-79.4037944
21,Dunkeld Way,L3T 4Y8,43.8269555,-79.4048076
19,Dunkeld Way,L3T 4Y8,43.8270057,-79.4047908
29,Dunkeld Way,L3T 4Y8,43.8267440,-79.4048834
27,Dunkeld Way,L3T 4Y8,43.8267942,-79.4048669
23,Dunkeld Way,L3T 4Y8,43.8269018,-79.4048365
25,Dunkeld Way,L3T 4Y8,43.8268511,-79.4048529
17,Dunkeld Way,L3T 4Y8,43.8270627,-79.4047769
15,Dunkeld Way,L3T 4Y8,43.8271132,-79.4047604
56,Kindale Way,L3T 4Z3,43.8267563,-79.4045153
50,Kindale Way,L3T 4Z3,43.8267200,-79.4043041
52,Kindale Way,L3T 4Z3,43.8267355,-79.4043789
42,Kindale Way,L3T 4Z3,43.8266638,-79.4040328
44,Kindale Way,L3T 4Z3,43.8266756,-79.4040979
46,Kindale Way,L3T 4Z3,43.8266909,-79.4041719
48,Kindale Way,L3T 4Z3,43.8267084,-79.4042398
54,Kindale Way,L3T 4Z3,43.8267448,-79.4044498
58,Kindale Way,L3T 4Z3,43.8267716,-79.4045889
356,Steeles Avenue East,L3T 1A8,43.8052414,-79.3886683
1,Woburn Way,L3T 4Z4,43.8278100,-79.4039849
3,Woburn Way,L3T 4Z4,43.8277576,-79.4039632
5,Woburn Way,L3T 4Z4,43.8277052,-79.4039418
9,Woburn Way,L3T 4Z4,43.8275956,-79.4039211
15,Woburn Way,L3T 4Z4,43.8274879,-79.4038921
17,Woburn Way,L3T 4Z4,43.8274355,-79.4038702
11,Woburn Way,L3T 4Z4,43.8275433,-79.4038996
7,Woburn Way,L3T 4Z4,43.8276529,-79.4039200
36,Dunkeld Way,L3T 4Y9,43.8265681,-79.4053753
34,Dunkeld Way,L3T 4Y9,43.8266169,-79.4053597
32,Dunkeld Way,L3T 4Y9,43.8266716,-79.4053368
28,Dunkeld Way,L3T 4Y9,43.8267705,-79.4052940
22,Dunkeld Way,L3T 4Y9,43.8269260,-79.4052377
18,Dunkeld Way,L3T 4Y9,43.8270317,-79.4052110
16,Dunkeld Way,L3T 4Y9,43.8270858,-79.4051884
14,Dunkeld Way,L3T 4Y9,43.8271334,-79.4051635
30,Dunkeld Way,L3T 4Y9,43.8267209,-79.4053098
26,Dunkeld Way,L3T 4Y9,43.8268266,-79.4052771
24,Dunkeld Way,L3T 4Y9,43.8268774,-79.4052578
20,Dunkeld Way,L3T 4Y9,43.8269824,-79.4052228
2,Dunkeld Way,L3T 4Y9,43.8275262,-79.4052741
6,Dunkeld Way,L3T 4Y9,43.8274263,-79.4052315
4,Dunkeld Way,L3T 4Y9,43.8274762,-79.4052501
12,Dunkeld Way,L3T 4Y9,43.8272766,-79.4051650
10,Dunkeld Way,L3T 4Y9,43.8273266,-79.4051890
8,Dunkeld Way,L3T 4Y9,43.8273765,-79.4052076
63,Kindale Way,L3T 4Z2,43.8265445,-79.4050110
57,Kindale Way,L3T 4Z2,43.8264898,-79.4047937
59,Kindale Way,L3T 4Z2,43.8265066,-79.4048710
55,Kindale Way,L3T 4Z2,43.8264781,-79.4047233
61,Kindale Way,L3T 4Z2,43.8265325,-79.4049403
53,Kindale Way,L3T 4Z2,43.8264734,-79.4046417
51,Kindale Way,L3T 4Z2,43.8264612,-79.4045711
47,Kindale Way,L3T 4Z2,43.8264049,-79.4043425
43,Kindale Way,L3T 4Z2,43.8263767,-79.4041958
41,Kindale Way,L3T 4Z2,43.8263734,-79.4041185
37,Kindale Way,L3T 4Z2,43.8263362,-79.4039792
35,Kindale Way,L3T 4Z2,43.8263197,-79.4039025
33,Kindale Way,L3T 4Z2,43.8263079,-79.4038325
31,Kindale Way,L3T 4Z2,43.8263022,-79.4037518
29,Kindale Way,L3T 4Z2,43.8262902,-79.4036816
39,Kindale Way,L3T 4Z2,43.8263612,-79.4040483
45,Kindale Way,L3T 4Z2,43.8263930,-79.4042726
49,Kindale Way,L3T 4Z2,43.8264304,-79.4044119
2002,John Street,L3T 1Z1,43.8213828,-79.3762268
2004,John Street,L3T 1Z1,43.8214135,-79.3761592
2000,John Street,L3T 1Z1,43.8213413,-79.3762904
2006,John Street,L3T 1Z1,43.8214383,-79.3760750
2008,John Street,L3T 1Z1,43.8214368,-79.3759650
2010,John Street,L3T 1Z1,43.8214105,-79.3758767
2012,John Street,L3T 1Z1,43.8213729,-79.3758081
2014,John Street,L3T 1Z1,43.8213165,-79.3757783
2016,John Street,L3T 1Z1,43.8212651,-79.3757422
1808,John Street,L3T 1Y9,43.8209179,-79.3796410
1810,John Street,L3T 1Y9,43.8209630,-79.3796579
1814,John Street,L3T 1Y9,43.8210616,-79.3796840
1818,John Street,L3T 1Y9,43.8211603,-79.3797069
1820,John Street,L3T 1Y9,43.8212075,-79.3797275
1806,John Street,L3T 1Y9,43.8208706,-79.3796203
1816,John Street,L3T 1Y9,43.8211145,-79.3796900
1812,John Street,L3T 1Y9,43.8210159,-79.3796670
1796,John Street,L3T 1Y9,43.8210253,-79.3801903
1800,John Street,L3T 1Y9,43.8210638,-79.3800656
1802,John Street,L3T 1Y9,43.8210754,-79.3800044
1798,John Street,L3T 1Y9,43.8210375,-79.3801285
1804,John Street,L3T 1Y9,43.8210902,-79.3799403
1778,John Street,L3T 1Y9,43.8213255,-79.3802161
1770,John Street,L3T 1Y9,43.8212612,-79.3804711
1794,John Street,L3T 1Y9,43.8214362,-79.3796993
1792,John Street,L3T 1Y9,43.8214239,-79.3797607
1788,John Street,L3T 1Y9,43.8214046,-79.3798936
1772,John Street,L3T 1Y9,43.8212867,-79.3804082
1764,John Street,L3T 1Y9,43.8212260,-79.3806647
1768,John Street,L3T 1Y9,43.8212488,-79.3805332
1784,John Street,L3T 1Y9,43.8213632,-79.3800172
1774,John Street,L3T 1Y9,43.8212989,-79.3803459
1790,John Street,L3T 1Y9,43.8214165,-79.3798313
1766,John Street,L3T 1Y9,43.8212381,-79.3806032
1776,John Street,L3T 1Y9,43.8213160,-79.3802796
1780,John Street,L3T 1Y9,43.8213428,-79.3801497
1782,John Street,L3T 1Y9,43.8213549,-79.3800874
1786,John Street,L3T 1Y9,43.8213754,-79.3799557
1752,John Street,L3T 1Y9,43.8207861,-79.3803884
1756,John Street,L3T 1Y9,43.8208843,-79.3804113
1758,John Street,L3T 1Y9,43.8209298,-79.3804278
1760,John Street,L3T 1Y9,43.8209825,-79.3804342
1762,John Street,L3T 1Y9,43.8210280,-79.3804508
1754,John Street,L3T 1Y9,43.8208316,-79.3804052
1742,John Street,L3T 1Y9,43.8209959,-79.3808620
1744,John Street,L3T 1Y9,43.8210412,-79.3808791
1746,John Street,L3T 1Y9,43.8210886,-79.3809003
1748,John Street,L3T 1Y9,43.8211352,-79.3809385
1750,John Street,L3T 1Y9,43.8211812,-79.3809554
1740,John Street,L3T 1Y9,43.8207443,-79.3807333
1738,John Street,L3T 1Y9,43.8207361,-79.3808008
1736,John Street,L3T 1Y9,43.8207291,-79.3808669
1734,John Street,L3T 1Y9,43.8207106,-79.3809337
1732,John Street,L3T 1Y9,43.8207037,-79.3810002
1730,John Street,L3T 1Y9,43.8207032,-79.3810707
1728,John Street,L3T 1Y9,43.8206962,-79.3811368
1726,John Street,L3T 1Y9,43.8206777,-79.3812037
1724,John Street,L3T 1Y9,43.8206708,-79.3812702
1716,John Street,L3T 1Y9,43.8209649,-79.3812619
1718,John Street,L3T 1Y9,43.8210092,-79.3812789
1720,John Street,L3T 1Y9,43.8210543,-79.3813149
1722,John Street,L3T 1Y9,43.8210981,-79.3813320
1714,John Street,L3T 1Y9,43.8209190,-79.3812435
1676,John Street,L3T 1Y9,43.8209090,-79.3820232
1678,John Street,L3T 1Y9,43.8209208,-79.3819631
1686,John Street,L3T 1Y9,43.8209786,-79.3817122
1690,John Street,L3T 1Y9,43.8210165,-79.3815901
1668,John Street,L3T 1Y9,43.8208523,-79.3822746
1688,John Street,L3T 1Y9,43.8210049,-79.3816509
1670,John Street,L3T 1Y9,43.8208639,-79.3822139
1672,John Street,L3T 1Y9,43.8208891,-79.3821526
1674,John Street,L3T 1Y9,43.8209008,-79.3820918
1680,John Street,L3T 1Y9,43.8209470,-79.3819017
1682,John Street,L3T 1Y9,43.8209586,-79.3818409
1684,John Street,L3T 1Y9,43.8209667,-79.3817724
1692,John Street,L3T 1Y9,43.8205828,-79.3821698
1696,John Street,L3T 1Y9,43.8206041,-79.3820365
1698,John Street,L3T 1Y9,43.8206166,-79.3819730
1700,John Street,L3T 1Y9,43.8206429,-79.3819091
1704,John Street,L3T 1Y9,43.8206643,-79.3817757
1708,John Street,L3T 1Y9,43.8207030,-79.3816482
1712,John Street,L3T 1Y9,43.8207308,-79.3815205
1710,John Street,L3T 1Y9,43.8207158,-79.3815857
1702,John Street,L3T 1Y9,43.8206558,-79.3818465
1706,John Street,L3T 1Y9,43.8206770,-79.3817122
1694,John Street,L3T 1Y9,43.8205954,-79.3821073
1664,John Street,L3T 1Y9,43.8207684,-79.3825286
1658,John Street,L3T 1Y9,43.8206261,-79.3824839
1654,John Street,L3T 1Y9,43.8205299,-79.3824519
1656,John Street,L3T 1Y9,43.8205750,-79.3824690
1666,John Street,L3T 1Y9,43.8208154,-79.3825492
1662,John Street,L3T 1Y9,43.8207233,-79.3825116
1660,John Street,L3T 1Y9,43.8206717,-79.3825011
1994,John Street,L3T 1Z1,43.8212110,-79.3766443
1990,John Street,L3T 1Z1,43.8213109,-79.3766701
1992,John Street,L3T 1Z1,43.8212616,-79.3766584
1986,John Street,L3T 1Z1,43.8211761,-79.3770072
1984,John Street,L3T 1Z1,43.8211572,-79.3770725
1982,John Street,L3T 1Z1,43.8211512,-79.3771375
1980,John Street,L3T 1Z1,43.8211522,-79.3772065
1978,John Street,L3T 1Z1,43.8211458,-79.3772715
1974,John Street,L3T 1Z1,43.8211195,-79.3774011
1972,John Street,L3T 1Z1,43.8211201,-79.3774702
1970,John Street,L3T 1Z1,43.8211139,-79.3775352
1968,John Street,L3T 1Z1,43.8210981,-79.3776007
1966,John Street,L3T 1Z1,43.8210919,-79.3776654
1976,John Street,L3T 1Z1,43.8211256,-79.3773361
1988,John Street,L3T 1Z1,43.8211823,-79.3769425
1958,John Street,L3T 1Z1,43.8215457,-79.3777776
1956,John Street,L3T 1Z1,43.8215026,-79.3777610
1954,John Street,L3T 1Z1,43.8214582,-79.3777243
1952,John Street,L3T 1Z1,43.8214145,-79.3777079
1950,John Street,L3T 1Z1,43.8213699,-79.3776743
1948,John Street,L3T 1Z1,43.8213263,-79.3776581
1960,John Street,L3T 1Z1,43.8215907,-79.3778090
1962,John Street,L3T 1Z1,43.8216344,-79.3778253
1964,John Street,L3T 1Z1,43.8216766,-79.3778593
1946,John Street,L3T 1Z1,43.8215274,-79.3782311
1944,John Street,L3T 1Z1,43.8214826,-79.3782143
1942,John Street,L3T 1Z1,43.8214356,-79.3781856
1940,John Street,L3T 1Z1,43.8213902,-79.3781685
1938,John Street,L3T 1Z1,43.8213445,-79.3781336
1936,John Street,L3T 1Z1,43.8212993,-79.3781169
1934,John Street,L3T 1Z1,43.8212539,-79.3780814
1932,John Street,L3T 1Z1,43.8212084,-79.3780642
1930,John Street,L3T 1Z1,43.8211633,-79.3780248
1928,John Street,L3T 1Z1,43.8211185,-79.3780080
1926,John Street,L3T 1Z1,43.8210739,-79.3779784
1898,John Street,L3T 1Z1,43.8213719,-79.3785271
1896,John Street,L3T 1Z1,43.8213271,-79.3785102
1894,John Street,L3T 1Z1,43.8212812,-79.3784715
1892,John Street,L3T 1Z1,43.8212357,-79.3784546
1890,John Street,L3T 1Z1,43.8211890,-79.3784228
1888,John Street,L3T 1Z1,43.8211439,-79.3784057
1886,John Street,L3T 1Z1,43.8210980,-79.3783684
1884,John Street,L3T 1Z1,43.8210524,-79.3783514
1882,John Street,L3T 1Z1,43.8210080,-79.3783193
1902,John Street,L3T 1Z1,43.8214635,-79.3785785
1900,John Street,L3T 1Z1,43.8214179,-79.3785623
1920,John Street,L3T 1Z1,43.8217717,-79.3782903
1916,John Street,L3T 1Z1,43.8217365,-79.3784129
1914,John Street,L3T 1Z1,43.8217273,-79.3784811
1910,John Street,L3T 1Z1,43.8216910,-79.3786030
1906,John Street,L3T 1Z1,43.8216684,-79.3787318
1904,John Street,L3T 1Z1,43.8216567,-79.3787917
1912,John Street,L3T 1Z1,43.8217154,-79.3785416
1908,John Street,L3T 1Z1,43.8216794,-79.3786636
1924,John Street,L3T 1Z1,43.8217978,-79.3781678
1922,John Street,L3T 1Z1,43.8217834,-79.3782305
1918,John Street,L3T 1Z1,43.8217484,-79.3783523
1858,John Street,L3T 1Z1,43.8209688,-79.3787153
1856,John Street,L3T 1Z1,43.8209701,-79.3787837
1854,John Street,L3T 1Z1,43.8209639,-79.3788472
1852,John Street,L3T 1Z1,43.8209447,-79.3789114
1850,John Street,L3T 1Z1,43.8209383,-79.3789754
1848,John Street,L3T 1Z1,43.8209397,-79.3790437
1846,John Street,L3T 1Z1,43.8209334,-79.3791073
1842,John Street,L3T 1Z1,43.8209078,-79.3792355
1840,John Street,L3T 1Z1,43.8209003,-79.3793005
1860,John Street,L3T 1Z1,43.8209751,-79.3786513
1844,John Street,L3T 1Z1,43.8209142,-79.3791715
1862,John Street,L3T 1Z1,43.8212099,-79.3788742
1864,John Street,L3T 1Z1,43.8212539,-79.3788904
1866,John Street,L3T 1Z1,43.8212982,-79.3789252
1868,John Street,L3T 1Z1,43.8213423,-79.3789414
1870,John Street,L3T 1Z1,43.8213873,-79.3789733
1872,John Street,L3T 1Z1,43.8214306,-79.3789896
1874,John Street,L3T 1Z1,43.8214775,-79.3790158
1876,John Street,L3T 1Z1,43.8215215,-79.3790318
1878,John Street,L3T 1Z1,43.8215709,-79.3790440
1880,John Street,L3T 1Z1,43.8216151,-79.3790604
1838,John Street,L3T 1Z1,43.8215317,-79.3794317
1836,John Street,L3T 1Z1,43.8214876,-79.3794151
1832,John Street,L3T 1Z1,43.8213935,-79.3793887
1830,John Street,L3T 1Z1,43.8213463,-79.3793625
1828,John Street,L3T 1Z1,43.8213022,-79.3793456
1824,John Street,L3T 1Z1,43.8212133,-79.3792943
1822,John Street,L3T 1Z1,43.8211701,-79.3792636
1826,John Street,L3T 1Z1,43.8212574,-79.3793112
1834,John Street,L3T 1Z1,43.8214371,-79.3794056
32,Harris Way,L3T 5A7,43.8165219,-79.3989820
30,Harris Way,L3T 5A7,43.8165113,-79.3990477
28,Harris Way,L3T 5A7,43.8165042,-79.3991243
26,Harris Way,L3T 5A7,43.8164933,-79.3991900
24,Harris Way,L3T 5A7,43.8164778,-79.3992636
22,Harris Way,L3T 5A7,43.8164670,-79.3993293
20,Harris Way,L3T 5A7,43.8164431,-79.3993999
18,Harris Way,L3T 5A7,43.8164276,-79.3994776
16,Harris Way,L3T 5A7,43.8164122,-79.3995630
14,Harris Way,L3T 5A7,43.8164015,-79.3996288
12,Harris Way,L3T 5A7,43.8163943,-79.3997054
10,Harris Way,L3T 5A7,43.8163836,-79.3997711
8,Harris Way,L3T 5A7,43.8163680,-79.3998448
6,Harris Way,L3T 5A7,43.8163573,-79.3999106
2,Harris Way,L3T 5A7,43.8163226,-79.4000470
4,Harris Way,L3T 5A7,43.8163334,-79.3999812
47,Harris Way,L3T 5A6,43.8165271,-79.3986793
45,Harris Way,L3T 5A6,43.8165746,-79.3986942
43,Harris Way,L3T 5A6,43.8166279,-79.3987158
39,Harris Way,L3T 5A6,43.8167418,-79.3987557
37,Harris Way,L3T 5A6,43.8167888,-79.3987912
35,Harris Way,L3T 5A6,43.8168304,-79.3988614
33,Harris Way,L3T 5A6,43.8168460,-79.3989366
31,Harris Way,L3T 5A6,43.8168486,-79.3990443
29,Harris Way,L3T 5A6,43.8168386,-79.3991123
27,Harris Way,L3T 5A6,43.8168115,-79.3991824
23,Harris Way,L3T 5A6,43.8167655,-79.3993091
21,Harris Way,L3T 5A6,43.8167483,-79.3993827
19,Harris Way,L3T 5A6,43.8167380,-79.3994479
17,Harris Way,L3T 5A6,43.8167234,-79.3995221
41,Harris Way,L3T 5A6,43.8166753,-79.3987307
25,Harris Way,L3T 5A6,43.8167761,-79.3992434
15,Harris Way,L3T 5A6,43.8167129,-79.3995879
1,Harris Way,L3T 5A6,43.8167061,-79.4001635
3,Harris Way,L3T 5A6,43.8166869,-79.4000864
9,Harris Way,L3T 5A6,43.8166638,-79.3998476
5,Harris Way,L3T 5A6,43.8166791,-79.4000035
11,Harris Way,L3T 5A6,43.8166745,-79.3997812
7,Harris Way,L3T 5A6,43.8166480,-79.3999218
3,Reith Way,L3T 5C6,43.8171485,-79.3990960
5,Reith Way,L3T 5C6,43.8171333,-79.3991701
15,Reith Way,L3T 5C6,43.8170645,-79.3994462
17,Reith Way,L3T 5C6,43.8170536,-79.3995064
21,Reith Way,L3T 5C6,43.8170130,-79.3996535
19,Reith Way,L3T 5C6,43.8170241,-79.3995854
9,Reith Way,L3T 5C6,43.8171059,-79.3993086
7,Reith Way,L3T 5C6,43.8171227,-79.3992351
1,Reith Way,L3T 5C6,43.8171591,-79.3990309
38,Reith Way,L3T 5C7,43.8169317,-79.3999164
36,Reith Way,L3T 5C7,43.8169337,-79.4000230
34,Reith Way,L3T 5C7,43.8169559,-79.4001073
32,Reith Way,L3T 5C7,43.8169883,-79.4001625
30,Reith Way,L3T 5C7,43.8170436,-79.4002090
28,Reith Way,L3T 5C7,43.8171066,-79.4002229
26,Reith Way,L3T 5C7,43.8171835,-79.4002182
24,Reith Way,L3T 5C7,43.8172376,-79.4001962
22,Reith Way,L3T 5C7,43.8172884,-79.4001394
20,Reith Way,L3T 5C7,43.8173143,-79.4000739
18,Reith Way,L3T 5C7,43.8173305,-79.3999827
16,Reith Way,L3T 5C7,43.8173307,-79.3999133
14,Reith Way,L3T 5C7,43.8173220,-79.3998251
2,Reith Way,L3T 5C7,43.8173867,-79.3993960
10,Reith Way,L3T 5C7,43.8173405,-79.3996757
12,Reith Way,L3T 5C7,43.8173355,-79.3997430
8,Reith Way,L3T 5C7,43.8173498,-79.3996000
6,Reith Way,L3T 5C7,43.8173605,-79.3995346
4,Reith Way,L3T 5C7,43.8173762,-79.3994613
19,Porterfield Crescent,L3T 4S8,43.8173769,-79.3991556
15,Porterfield Crescent,L3T 4S8,43.8174777,-79.3991917
11,Porterfield Crescent,L3T 4S8,43.8175252,-79.3992061
9,Porterfield Crescent,L3T 4S8,43.8175720,-79.3992435
3,Porterfield Crescent,L3T 4S8,43.8177297,-79.3992818
1,Porterfield Crescent,L3T 4S8,43.8177788,-79.3992961
17,Porterfield Crescent,L3T 4S8,43.8174244,-79.3991700
7,Porterfield Crescent,L3T 4S8,43.8176289,-79.3992460
5,Porterfield Crescent,L3T 4S8,43.8176765,-79.3992602
74,Niles Way,L3T 5B8,43.8176566,-79.3994859
66,Niles Way,L3T 5B8,43.8176189,-79.3997687
64,Niles Way,L3T 5B8,43.8176196,-79.3998480
58,Niles Way,L3T 5B8,43.8175930,-79.4000564
52,Niles Way,L3T 5B8,43.8175404,-79.4002648
56,Niles Way,L3T 5B8,43.8175774,-79.4001298
50,Niles Way,L3T 5B8,43.8175296,-79.4003302
68,Niles Way,L3T 5B8,43.8176167,-79.3996985
70,Niles Way,L3T 5B8,43.8176317,-79.3996248
54,Niles Way,L3T 5B8,43.8175668,-79.4001954
60,Niles Way,L3T 5B8,43.8176037,-79.3999908
62,Niles Way,L3T 5B8,43.8176136,-79.3999152
72,Niles Way,L3T 5B8,43.8176423,-79.3995595
81,Niles Way,L3T 5B7,43.8179919,-79.3993321
75,Niles Way,L3T 5B7,43.8179551,-79.3995374
73,Niles Way,L3T 5B7,43.8179451,-79.3996136
69,Niles Way,L3T 5B7,43.8179188,-79.3997533
71,Niles Way,L3T 5B7,43.8179346,-79.3996791
79,Niles Way,L3T 5B7,43.8179815,-79.3993978
77,Niles Way,L3T 5B7,43.8179656,-79.3994718
47,Niles Way,L3T 5B7,43.8178331,-79.3999542
41,Niles Way,L3T 5B7,43.8179849,-79.3999887
35,Niles Way,L3T 5B7,43.8181340,-79.4000574
45,Niles Way,L3T 5B7,43.8178806,-79.3999685
43,Niles Way,L3T 5B7,43.8179343,-79.3999904
39,Niles Way,L3T 5B7,43.8180356,-79.4000266
37,Niles Way,L3T 5B7,43.8180831,-79.4000410
15,Niles Way,L3T 5B7,43.8181693,-79.3998417
9,Niles Way,L3T 5B7,43.8181957,-79.3997010
3,Niles Way,L3T 5B7,43.8182327,-79.3994843
5,Niles Way,L3T 5B7,43.8182225,-79.3995604
11,Niles Way,L3T 5B7,43.8181850,-79.3997675
7,Niles Way,L3T 5B7,43.8182115,-79.3996268
1,Niles Way,L3T 5B7,43.8182434,-79.3994177
48,Niles Way,L3T 5B8,43.8177569,-79.4003486
46,Niles Way,L3T 5B8,43.8178041,-79.4003629
44,Niles Way,L3T 5B8,43.8178577,-79.4003851
40,Niles Way,L3T 5B8,43.8179607,-79.4004100
38,Niles Way,L3T 5B8,43.8180081,-79.4004243
24,Niles Way,L3T 5B8,43.8183801,-79.4003008
36,Niles Way,L3T 5B8,43.8180631,-79.4004380
34,Niles Way,L3T 5B8,43.8181110,-79.4004483
14,Niles Way,L3T 5B8,43.8184478,-79.3999433
16,Niles Way,L3T 5B8,43.8184375,-79.4000088
6,Niles Way,L3T 5B8,43.8185006,-79.3996633
8,Niles Way,L3T 5B8,43.8184901,-79.3997289
20,Niles Way,L3T 5B8,43.8184060,-79.4001469
18,Niles Way,L3T 5B8,43.8184164,-79.4000812
4,Niles Way,L3T 5B8,43.8185113,-79.3995871
2,Niles Way,L3T 5B8,43.8185218,-79.3995215
12,Niles Way,L3T 5B8,43.8184587,-79.3998670
32,Niles Way,L3T 5B8,43.8181666,-79.4004564
30,Niles Way,L3T 5B8,43.8182405,-79.4004540
28,Niles Way,L3T 5B8,43.8183029,-79.4004217
26,Niles Way,L3T 5B8,43.8183454,-79.4003771
22,Niles Way,L3T 5B8,43.8183911,-79.4002213
10,Niles Way,L3T 5B8,43.8184691,-79.3998013
42,Niles Way,L3T 5B8,43.8179049,-79.4003994
11,Reith Way,L3T 5C6,43.8170804,-79.3993623
2,Norris Way,L3T 5C1,43.8181380,-79.3966968
4,Norris Way,L3T 5C1,43.8180885,-79.3966820
8,Norris Way,L3T 5C1,43.8179870,-79.3966457
10,Norris Way,L3T 5C1,43.8179305,-79.3966382
14,Norris Way,L3T 5C1,43.8178291,-79.3966019
16,Norris Way,L3T 5C1,43.8177841,-79.3965730
18,Norris Way,L3T 5C1,43.8177304,-79.3965514
6,Norris Way,L3T 5C1,43.8180348,-79.3966605
12,Norris Way,L3T 5C1,43.8178829,-79.3966234
20,Norris Way,L3T 5C1,43.8176826,-79.3965366
77,Porterfield Crescent,L3T 5C4,43.8180246,-79.3970481
79,Porterfield Crescent,L3T 5C4,43.8180690,-79.3970632
73,Porterfield Crescent,L3T 5C4,43.8179167,-79.3970117
69,Porterfield Crescent,L3T 5C4,43.8178157,-79.3969755
63,Porterfield Crescent,L3T 5C4,43.8176610,-79.3969177
61,Porterfield Crescent,L3T 5C4,43.8176134,-79.3969030
67,Porterfield Crescent,L3T 5C4,43.8177586,-79.3969728
75,Porterfield Crescent,L3T 5C4,43.8179678,-79.3970085
71,Porterfield Crescent,L3T 5C4,43.8178633,-79.3969903
65,Porterfield Crescent,L3T 5C4,43.8177110,-79.3969580
108,Bowman Way,L3T 4Z8,43.8186956,-79.3957715
110,Bowman Way,L3T 4Z8,43.8186480,-79.3957568
114,Bowman Way,L3T 4Z8,43.8185465,-79.3957204
112,Bowman Way,L3T 4Z8,43.8185941,-79.3957352
106,Bowman Way,L3T 4Z8,43.8187515,-79.3957820
104,Bowman Way,L3T 4Z8,43.8187992,-79.3957968
100,Bowman Way,L3T 4Z8,43.8189007,-79.3958332
102,Bowman Way,L3T 4Z8,43.8188530,-79.3958183
98,Bowman Way,L3T 4Z8,43.8189515,-79.3958513
83,Bowman Way,L3T 4Z6,43.8191815,-79.3959828
87,Bowman Way,L3T 4Z6,43.8191585,-79.3961412
85,Bowman Way,L3T 4Z6,43.8191709,-79.3960606
89,Bowman Way,L3T 4Z6,43.8191250,-79.3962154
91,Bowman Way,L3T 4Z6,43.8190850,-79.3962594
93,Bowman Way,L3T 4Z6,43.8190227,-79.3962902
81,Bowman Way,L3T 4Z6,43.8191922,-79.3959155
95,Bowman Way,L3T 4Z6,43.8189475,-79.3962934
97,Bowman Way,L3T 4Z6,43.8188945,-79.3962755
105,Bowman Way,L3T 4Z6,43.8186859,-79.3962037
103,Bowman Way,L3T 4Z6,43.8187462,-79.3962247
99,Bowman Way,L3T 4Z6,43.8188471,-79.3962609
101,Bowman Way,L3T 4Z6,43.8187935,-79.3962394
107,Bowman Way,L3T 4Z6,43.8186419,-79.3961887
12,Bowman Way,L3T 4Z7,43.8184258,-79.3964405
10,Bowman Way,L3T 4Z7,43.8184150,-79.3965014
8,Bowman Way,L3T 4Z7,43.8183980,-79.3965765
6,Bowman Way,L3T 4Z7,43.8183875,-79.3966420
4,Bowman Way,L3T 4Z7,43.8183642,-79.3967129
2,Bowman Way,L3T 4Z7,43.8183536,-79.3967785
16,Bowman Way,L3T 4Z7,43.8184397,-79.3962844
18,Bowman Way,L3T 4Z7,43.8184551,-79.3962105
20,Bowman Way,L3T 4Z7,43.8184657,-79.3961450
14,Bowman Way,L3T 4Z7,43.8184421,-79.3963560
24,Bowman Way,L3T 4Z7,43.8184917,-79.3960036
22,Bowman Way,L3T 4Z7,43.8184811,-79.3960711
52,Corkory Way,L3T 4Z9,43.8188461,-79.3966359
54,Corkory Way,L3T 4Z9,43.8187694,-79.3966404
60,Corkory Way,L3T 4Z9,43.8186386,-79.3967820
58,Corkory Way,L3T 4Z9,43.8186640,-79.3967184
56,Corkory Way,L3T 4Z9,43.8187148,-79.3966621
62,Corkory Way,L3T 4Z9,43.8186216,-79.3968727
64,Corkory Way,L3T 4Z9,43.8186108,-79.3969398
42,Corkory Way,L3T 4Z9,43.8190677,-79.3968540
44,Corkory Way,L3T 4Z9,43.8190524,-79.3967774
48,Corkory Way,L3T 4Z9,43.8189642,-79.3966725
46,Corkory Way,L3T 4Z9,43.8190111,-79.3967078
50,Corkory Way,L3T 4Z9,43.8188980,-79.3966478
40,Corkory Way,L3T 4Z9,43.8190702,-79.3969585
30,Corkory Way,L3T 4Z9,43.8189600,-79.3973072
32,Corkory Way,L3T 4Z9,43.8189990,-79.3972632
34,Corkory Way,L3T 4Z9,43.8190339,-79.3971875
28,Corkory Way,L3T 4Z9,43.8188980,-79.3973377
26,Corkory Way,L3T 4Z9,43.8188211,-79.3973404
38,Corkory Way,L3T 4Z9,43.8190616,-79.3970283
36,Corkory Way,L3T 4Z9,43.8190457,-79.3971035
10,Corkory Way,L3T 4Z9,43.8184188,-79.3971992
16,Corkory Way,L3T 4Z9,43.8185689,-79.3972397
12,Corkory Way,L3T 4Z9,43.8184682,-79.3972036
2,Corkory Way,L3T 4Z9,43.8182193,-79.3971168
14,Corkory Way,L3T 4Z9,43.8185214,-79.3972250
18,Corkory Way,L3T 4Z9,43.8186202,-79.3972714
22,Corkory Way,L3T 4Z9,43.8187209,-79.3973075
24,Corkory Way,L3T 4Z9,43.8187683,-79.3973222
20,Corkory Way,L3T 4Z9,43.8186677,-79.3972861
8,Corkory Way,L3T 4Z9,43.8183656,-79.3971778
6,Corkory Way,L3T 4Z9,43.8183181,-79.3971633
4,Corkory Way,L3T 4Z9,43.8182668,-79.3971315
96,Porterfield Crescent,L3T 5C5,43.8186533,-79.3979143
92,Porterfield Crescent,L3T 5C5,43.8185525,-79.3978782
88,Porterfield Crescent,L3T 5C5,43.8184517,-79.3978421
82,Porterfield Crescent,L3T 5C5,43.8183035,-79.3977914
94,Porterfield Crescent,L3T 5C5,43.8186060,-79.3978997
90,Porterfield Crescent,L3T 5C5,43.8185051,-79.3978637
80,Porterfield Crescent,L3T 5C5,43.8182532,-79.3977733
84,Porterfield Crescent,L3T 5C5,43.8183509,-79.3978059
86,Porterfield Crescent,L3T 5C5,43.8184044,-79.3978275
63,Gordon Way,L3T 5A1,43.8183040,-79.3980290
59,Gordon Way,L3T 5A1,43.8182843,-79.3981711
57,Gordon Way,L3T 5A1,43.8182740,-79.3982367
53,Gordon Way,L3T 5A1,43.8182415,-79.3983741
51,Gordon Way,L3T 5A1,43.8182258,-79.3984482
61,Gordon Way,L3T 5A1,43.8182937,-79.3980947
55,Gordon Way,L3T 5A1,43.8182519,-79.3983085
49,Gordon Way,L3T 5A1,43.8182155,-79.3985138
21,Gordon Way,L3T 5A1,43.8184799,-79.3985311
19,Gordon Way,L3T 5A1,43.8184903,-79.3984652
9,Gordon Way,L3T 5A1,43.8185485,-79.3981877
7,Gordon Way,L3T 5A1,43.8185567,-79.3981160
11,Gordon Way,L3T 5A1,43.8185380,-79.3982537
15,Gordon Way,L3T 5A1,43.8185225,-79.3983275
17,Gordon Way,L3T 5A1,43.8185119,-79.3983935
24,Gordon Way,L3T 5A2,43.8187413,-79.3987856
26,Gordon Way,L3T 5A2,43.8187163,-79.3988505
28,Gordon Way,L3T 5A2,43.8186660,-79.3989059
30,Gordon Way,L3T 5A2,43.8186096,-79.3989275
32,Gordon Way,L3T 5A2,43.8185334,-79.3989341
34,Gordon Way,L3T 5A2,43.8184821,-79.3989227
38,Gordon Way,L3T 5A2,43.8183786,-79.3988989
46,Gordon Way,L3T 5A2,43.8181784,-79.3988145
48,Gordon Way,L3T 5A2,43.8181278,-79.3987963
16,Gordon Way,L3T 5A2,43.8187945,-79.3984888
4,Gordon Way,L3T 5A2,43.8188484,-79.3980615
14,Gordon Way,L3T 5A2,43.8188060,-79.3984133
6,Gordon Way,L3T 5A2,43.8188380,-79.3981271
22,Gordon Way,L3T 5A2,43.8187594,-79.3986942
12,Gordon Way,L3T 5A2,43.8188163,-79.3983475
10,Gordon Way,L3T 5A2,43.8188363,-79.3982753
8,Gordon Way,L3T 5A2,43.8188466,-79.3982098
20,Gordon Way,L3T 5A2,43.8187697,-79.3986282
18,Gordon Way,L3T 5A2,43.8187841,-79.3985543
2,Gordon Way,L3T 5A2,43.8188640,-79.3979877
42,Gordon Way,L3T 5A2,43.8182776,-79.3988612
36,Gordon Way,L3T 5A2,43.8184264,-79.3989136
40,Gordon Way,L3T 5A2,43.8183251,-79.3988760
44,Gordon Way,L3T 5A2,43.8182264,-79.3988290
72,Gordon Way,L3T 5A2,43.8180295,-79.3976957
70,Gordon Way,L3T 5A2,43.8180280,-79.3977826
68,Gordon Way,L3T 5A2,43.8180265,-79.3978568
56,Gordon Way,L3T 5A2,43.8179640,-79.3982777
54,Gordon Way,L3T 5A2,43.8179237,-79.3983377
50,Gordon Way,L3T 5A2,43.8179111,-79.3984748
74,Gordon Way,L3T 5A2,43.8180402,-79.3976376
66,Gordon Way,L3T 5A2,43.8180269,-79.3979317
64,Gordon Way,L3T 5A2,43.8180164,-79.3979977
52,Gordon Way,L3T 5A2,43.8179218,-79.3984168
58,Gordon Way,L3T 5A2,43.8179745,-79.3982118
60,Gordon Way,L3T 5A2,43.8179901,-79.3981376
62,Gordon Way,L3T 5A2,43.8180007,-79.3980717
26,Porterfield Crescent,L3T 4S7,43.8173177,-79.3985501
24,Porterfield Crescent,L3T 4S7,43.8173673,-79.3985649
18,Porterfield Crescent,L3T 4S7,43.8175327,-79.3986041
14,Porterfield Crescent,L3T 4S7,43.8176349,-79.3986407
12,Porterfield Crescent,L3T 4S7,43.8176775,-79.3986556
10,Porterfield Crescent,L3T 4S7,43.8177280,-79.3986966
4,Porterfield Crescent,L3T 4S7,43.8178812,-79.3987516
2,Porterfield Crescent,L3T 4S7,43.8179294,-79.3987664
6,Porterfield Crescent,L3T 4S7,43.8178272,-79.3987298
22,Porterfield Crescent,L3T 4S7,43.8174214,-79.3985867
20,Porterfield Crescent,L3T 4S7,43.8174695,-79.3986016
16,Porterfield Crescent,L3T 4S7,43.8175753,-79.3986189
8,Porterfield Crescent,L3T 4S7,43.8177790,-79.3987149
48,Porterfield Crescent,L3T 4S7,43.8177575,-79.3978029
50,Porterfield Crescent,L3T 4S7,43.8177411,-79.3977256
52,Porterfield Crescent,L3T 4S7,43.8176994,-79.3976561
54,Porterfield Crescent,L3T 4S7,43.8176537,-79.3976198
58,Porterfield Crescent,L3T 4S7,43.8175399,-79.3975794
46,Porterfield Crescent,L3T 4S7,43.8177606,-79.3979087
44,Porterfield Crescent,L3T 4S7,43.8177515,-79.3979762
42,Porterfield Crescent,L3T 4S7,43.8177322,-79.3980677
40,Porterfield Crescent,L3T 4S7,43.8177077,-79.3981313
38,Porterfield Crescent,L3T 4S7,43.8176582,-79.3981892
36,Porterfield Crescent,L3T 4S7,43.8176016,-79.3982107
34,Porterfield Crescent,L3T 4S7,43.8175253,-79.3982168
32,Porterfield Crescent,L3T 4S7,43.8174747,-79.3982051
30,Porterfield Crescent,L3T 4S7,43.8174210,-79.3981832
28,Porterfield Crescent,L3T 4S7,43.8173726,-79.3981683
60,Porterfield Crescent,L3T 4S7,43.8174865,-79.3975577
56,Porterfield Crescent,L3T 4S7,43.8175881,-79.3975943
102,Harris Way,L3T 5A8,43.8150136,-79.3992408
100,Harris Way,L3T 5A8,43.8150483,-79.3991642
92,Harris Way,L3T 5A8,43.8151729,-79.3988888
88,Harris Way,L3T 5A8,43.8152481,-79.3987664
86,Harris Way,L3T 5A8,43.8152991,-79.3987056
84,Harris Way,L3T 5A8,43.8153099,-79.3986403
96,Harris Way,L3T 5A8,43.8150988,-79.3990174
104,Harris Way,L3T 5A8,43.8150026,-79.3992993
106,Harris Way,L3T 5A8,43.8149942,-79.3993773
90,Harris Way,L3T 5A8,43.8152099,-79.3988276
94,Harris Way,L3T 5A8,43.8151360,-79.3989495
98,Harris Way,L3T 5A8,43.8150818,-79.3990999
108,Harris Way,L3T 5A8,43.8149624,-79.3994362
123,Harris Way,L3T 5A6,43.8152362,-79.3997894
127,Harris Way,L3T 5A6,43.8153435,-79.3998226
129,Harris Way,L3T 5A6,43.8154212,-79.3998189
131,Harris Way,L3T 5A6,43.8154766,-79.3997970
133,Harris Way,L3T 5A6,43.8155275,-79.3997386
135,Harris Way,L3T 5A6,43.8155520,-79.3996765
141,Harris Way,L3T 5A6,43.8155928,-79.3994502
125,Harris Way,L3T 5A6,43.8152942,-79.3998113
121,Harris Way,L3T 5A6,43.8151764,-79.3997667
119,Harris Way,L3T 5A6,43.8151197,-79.3997740
117,Harris Way,L3T 5A6,43.8150656,-79.3997523
107,Harris Way,L3T 5A6,43.8148113,-79.3996839
115,Harris Way,L3T 5A6,43.8150180,-79.3997376
113,Harris Way,L3T 5A6,43.8149605,-79.3997352
111,Harris Way,L3T 5A6,43.8149128,-79.3997205
109,Harris Way,L3T 5A6,43.8148590,-79.3996987
137,Harris Way,L3T 5A6,43.8155690,-79.3995869
139,Harris Way,L3T 5A6,43.8155796,-79.3995207
142,Harris Way,L3T 5A8,43.8153195,-79.3993597
140,Harris Way,L3T 5A8,43.8153037,-79.3994345
144,Harris Way,L3T 5A8,43.8153320,-79.3992789
146,Harris Way,L3T 5A8,43.8153655,-79.3992044
148,Harris Way,L3T 5A8,43.8154064,-79.3991585
152,Harris Way,L3T 5A8,43.8155436,-79.3991241
150,Harris Way,L3T 5A8,43.8154674,-79.3991271
154,Harris Way,L3T 5A8,43.8155970,-79.3991434
160,Harris Way,L3T 5A8,43.8157482,-79.3991840
156,Harris Way,L3T 5A8,43.8156446,-79.3991586
158,Harris Way,L3T 5A8,43.8157005,-79.3991692
80,Harris Way,L3T 5A8,43.8155124,-79.3987392
78,Harris Way,L3T 5A8,43.8155680,-79.3987502
72,Harris Way,L3T 5A8,43.8157190,-79.3987888
82,Harris Way,L3T 5A8,43.8154647,-79.3987245
74,Harris Way,L3T 5A8,43.8156715,-79.3987741
76,Harris Way,L3T 5A8,43.8156156,-79.3987648
70,Harris Way,L3T 5A8,43.8157726,-79.3988104
68,Harris Way,L3T 5A8,43.8158215,-79.3988252
83,Harris Way,L3T 5A6,43.8155192,-79.3983183
81,Harris Way,L3T 5A6,43.8155689,-79.3983219
75,Harris Way,L3T 5A6,43.8157213,-79.3983911
61,Harris Way,L3T 5A6,43.8160948,-79.3985118
59,Harris Way,L3T 5A6,43.8161426,-79.3985263
57,Harris Way,L3T 5A6,43.8161936,-79.3985610
55,Harris Way,L3T 5A6,43.8162413,-79.3985757
77,Harris Way,L3T 5A6,43.8156700,-79.3983583
67,Harris Way,L3T 5A6,43.8159278,-79.3984643
63,Harris Way,L3T 5A6,43.8160391,-79.3985030
49,Harris Way,L3T 5A6,43.8163955,-79.3986174
79,Harris Way,L3T 5A6,43.8156226,-79.3983436
53,Harris Way,L3T 5A6,43.8162971,-79.3985846
51,Harris Way,L3T 5A6,43.8163449,-79.3985991
65,Harris Way,L3T 5A6,43.8159870,-79.3984867
73,Harris Way,L3T 5A6,43.8157690,-79.3984059
71,Harris Way,L3T 5A6,43.8158223,-79.3984274
69,Harris Way,L3T 5A6,43.8158701,-79.3984424
33,Harper Way,L3T 5A4,43.8159984,-79.3987912
31,Harper Way,L3T 5A4,43.8159877,-79.3988574
27,Harper Way,L3T 5A4,43.8159613,-79.3989970
25,Harper Way,L3T 5A4,43.8159399,-79.3990638
23,Harper Way,L3T 5A4,43.8159324,-79.3991405
21,Harper Way,L3T 5A4,43.8159218,-79.3992066
19,Harper Way,L3T 5A4,43.8159060,-79.3992803
17,Harper Way,L3T 5A4,43.8158954,-79.3993464
29,Harper Way,L3T 5A4,43.8159721,-79.3989309
5,Harper Way,L3T 5A3,43.8157961,-79.3998153
1,Harper Way,L3T 5A3,43.8157676,-79.3999471
3,Harper Way,L3T 5A3,43.8157784,-79.3998888
15,Harper Way,L3T 5A3,43.8158586,-79.3995439
11,Harper Way,L3T 5A3,43.8158478,-79.3996093
9,Harper Way,L3T 5A3,43.8158322,-79.3996839
7,Harper Way,L3T 5A3,43.8158214,-79.3997494
6,Harper Way,L3T 5A5,43.8160840,-79.3998853
10,Harper Way,L3T 5A5,43.8161175,-79.3997500
14,Harper Way,L3T 5A5,43.8161362,-79.3996088
18,Harper Way,L3T 5A5,43.8161623,-79.3994706
20,Harper Way,L3T 5A5,43.8161803,-79.3993881
22,Harper Way,L3T 5A5,43.8161958,-79.3993013
24,Harper Way,L3T 5A5,43.8162141,-79.3992379
28,Harper Way,L3T 5A5,43.8162333,-79.3990945
30,Harper Way,L3T 5A5,43.8162490,-79.3990205
16,Harper Way,L3T 5A5,43.8161517,-79.3995359
12,Harper Way,L3T 5A5,43.8161256,-79.3996741
8,Harper Way,L3T 5A5,43.8161070,-79.3998150
26,Harper Way,L3T 5A5,43.8162298,-79.3991635
4,Harper Way,L3T 5A5,43.8160735,-79.3999505
2,Harper Way,L3T 5A5,43.8160603,-79.4000196
14,Kenneth Way,L3T 5B3,43.8174629,-79.3953029
16,Kenneth Way,L3T 5B3,43.8174157,-79.3952882
18,Kenneth Way,L3T 5B3,43.8173636,-79.3952589
20,Kenneth Way,L3T 5B3,43.8173162,-79.3952442
22,Kenneth Way,L3T 5B3,43.8172612,-79.3952305
24,Kenneth Way,L3T 5B3,43.8172140,-79.3952159
26,Kenneth Way,L3T 5B3,43.8171619,-79.3951866
30,Kenneth Way,L3T 5B3,43.8170596,-79.3951584
32,Kenneth Way,L3T 5B3,43.8170123,-79.3951436
10,Kenneth Way,L3T 5B3,43.8175584,-79.3953588
12,Kenneth Way,L3T 5B3,43.8175143,-79.3953436
28,Kenneth Way,L3T 5B3,43.8171146,-79.3951719
25,Kenneth Way,L3T 5B2,43.8173403,-79.3949282
23,Kenneth Way,L3T 5B2,43.8173663,-79.3948645
21,Kenneth Way,L3T 5B2,43.8174175,-79.3948070
19,Kenneth Way,L3T 5B2,43.8174698,-79.3947864
17,Kenneth Way,L3T 5B2,43.8175468,-79.3947821
5,Kenneth Way,L3T 5B2,43.8177764,-79.3950026
11,Kenneth Way,L3T 5B2,43.8176432,-79.3948443
9,Kenneth Way,L3T 5B2,43.8176855,-79.3949587
15,Kenneth Way,L3T 5B2,43.8175985,-79.3947934
7,Kenneth Way,L3T 5B2,43.8177287,-79.3949877
3,Kenneth Way,L3T 5B2,43.8178304,-79.3950241
1,Kenneth Way,L3T 5B2,43.8178782,-79.3950391
37,Nicholson Way,L3T 5B5,43.8177422,-79.3953689
35,Nicholson Way,L3T 5B5,43.8177534,-79.3953038
39,Nicholson Way,L3T 5B5,43.8177192,-79.3954411
25,Nicholson Way,L3T 5B4,43.8180146,-79.3945609
27,Nicholson Way,L3T 5B4,43.8179526,-79.3945916
33,Nicholson Way,L3T 5B4,43.8178667,-79.3947937
31,Nicholson Way,L3T 5B4,43.8178781,-79.3947116
29,Nicholson Way,L3T 5B4,43.8179123,-79.3946346
23,Nicholson Way,L3T 5B4,43.8180905,-79.3945580
19,Nicholson Way,L3T 5B4,43.8181903,-79.3945906
21,Nicholson Way,L3T 5B4,43.8181434,-79.3945759
17,Nicholson Way,L3T 5B4,43.8182541,-79.3945933
15,Nicholson Way,L3T 5B4,43.8182985,-79.3946086
44,Nicholson Way,L3T 5B6,43.8180503,-79.3954133
42,Nicholson Way,L3T 5B6,43.8180617,-79.3953477
40,Nicholson Way,L3T 5B6,43.8180720,-79.3952709
38,Nicholson Way,L3T 5B6,43.8180833,-79.3952051
46,Nicholson Way,L3T 5B6,43.8180402,-79.3954902
48,Nicholson Way,L3T 5B6,43.8180289,-79.3955557
8,Nicholson Way,L3T 5B6,43.8183040,-79.3950470
10,Nicholson Way,L3T 5B6,43.8182567,-79.3950323
12,Nicholson Way,L3T 5B6,43.8182029,-79.3950108
14,Nicholson Way,L3T 5B6,43.8181556,-79.3949960
2,Nicholson Way,L3T 5B6,43.8184571,-79.3950941
4,Nicholson Way,L3T 5B6,43.8184066,-79.3950760
6,Nicholson Way,L3T 5B6,43.8183591,-79.3950612
16,Nicholson Way,L3T 5B6,43.8181033,-79.3949672
18,Nicholson Way,L3T 5B6,43.8180558,-79.3949525
51,Bowman Way,L3T 4Z6,43.8184962,-79.3945030
47,Bowman Way,L3T 4Z6,43.8184629,-79.3946414
43,Bowman Way,L3T 4Z6,43.8184387,-79.3947785
45,Bowman Way,L3T 4Z6,43.8184521,-79.3947081
49,Bowman Way,L3T 4Z6,43.8184854,-79.3945695
21,Bowman Way,L3T 4Z5,43.8182919,-79.3955770
23,Bowman Way,L3T 4Z5,43.8183078,-79.3955029
29,Bowman Way,L3T 4Z5,43.8183366,-79.3952938
19,Bowman Way,L3T 4Z5,43.8182810,-79.3956429
27,Bowman Way,L3T 4Z5,43.8183258,-79.3953596
25,Bowman Way,L3T 4Z5,43.8183186,-79.3954370
40,Norris Way,L3T 5C2,43.8174997,-79.3956748
38,Norris Way,L3T 5C2,43.8174892,-79.3957402
36,Norris Way,L3T 5C2,43.8174682,-79.3958119
34,Norris Way,L3T 5C2,43.8174577,-79.3958774
32,Norris Way,L3T 5C2,43.8174431,-79.3959512
28,Norris Way,L3T 5C2,43.8174222,-79.3960922
24,Norris Way,L3T 5C2,43.8173965,-79.3962312
42,Norris Way,L3T 5C2,43.8175150,-79.3956012
26,Norris Way,L3T 5C2,43.8174117,-79.3961576
30,Norris Way,L3T 5C2,43.8174325,-79.3960165
22,Norris Way,L3T 5C2,43.8173860,-79.3962997
43,Norris Way,L3T 5B9,43.8182269,-79.3959365
41,Norris Way,L3T 5B9,43.8181722,-79.3959223
39,Norris Way,L3T 5B9,43.8181247,-79.3959076
35,Norris Way,L3T 5B9,43.8180236,-79.3958717
33,Norris Way,L3T 5B9,43.8179715,-79.3958432
45,Norris Way,L3T 5B9,43.8182745,-79.3959512
29,Norris Way,L3T 5B9,43.8178692,-79.3958143
27,Norris Way,L3T 5B9,43.8178215,-79.3957996
25,Norris Way,L3T 5B9,43.8177682,-79.3957783
31,Norris Way,L3T 5B9,43.8179239,-79.3958286
37,Norris Way,L3T 5B9,43.8180712,-79.3958863
23,Norris Way,L3T 5B9,43.8177075,-79.3961360
21,Norris Way,L3T 5B9,43.8177552,-79.3961508
19,Norris Way,L3T 5B9,43.8178085,-79.3961721
17,Norris Way,L3T 5B9,43.8178562,-79.3961867
15,Norris Way,L3T 5B9,43.8179109,-79.3962007
11,Norris Way,L3T 5B9,43.8179586,-79.3962154
3,Norris Way,L3T 5B9,43.8181593,-79.3962947
1,Norris Way,L3T 5B9,43.8182113,-79.3963054
9,Norris Way,L3T 5B9,43.8180106,-79.3962440
5,Norris Way,L3T 5B9,43.8181116,-79.3962800
7,Norris Way,L3T 5B9,43.8180583,-79.3962586
50,Bowman Way,L3T 4Z8,43.8187693,-79.3946534
48,Bowman Way,L3T 4Z8,43.8187535,-79.3947273
46,Bowman Way,L3T 4Z8,43.8187427,-79.3947931
30,Bowman Way,L3T 4Z8,43.8186352,-79.3953511
26,Bowman Way,L3T 4Z8,43.8186141,-79.3954926
28,Bowman Way,L3T 4Z8,43.8186249,-79.3954272
32,Bowman Way,L3T 4Z8,43.8186461,-79.3952854
34,Bowman Way,L3T 4Z8,43.8186619,-79.3952115
36,Bowman Way,L3T 4Z8,43.8186727,-79.3951458
38,Bowman Way,L3T 4Z8,43.8186996,-79.3950759
40,Bowman Way,L3T 4Z8,43.8187104,-79.3950105
42,Bowman Way,L3T 4Z8,43.8187262,-79.3949363
44,Bowman Way,L3T 4Z8,43.8187370,-79.3948709
74,Bowman Way,L3T 4Z8,43.8189305,-79.3955329
76,Bowman Way,L3T 4Z8,43.8189194,-79.3955922
54,Bowman Way,L3T 4Z8,43.8190318,-79.3948226
56,Bowman Way,L3T 4Z8,43.8190209,-79.3948883
58,Bowman Way,L3T 4Z8,43.8190051,-79.3949621
60,Bowman Way,L3T 4Z8,43.8189943,-79.3950278
62,Bowman Way,L3T 4Z8,43.8189977,-79.3951086
66,Bowman Way,L3T 4Z8,43.8189711,-79.3952483
68,Bowman Way,L3T 4Z8,43.8189603,-79.3953139
70,Bowman Way,L3T 4Z8,43.8189627,-79.3953944
52,Bowman Way,L3T 4Z8,43.8190390,-79.3947460
64,Bowman Way,L3T 4Z8,43.8189869,-79.3951743
72,Bowman Way,L3T 4Z8,43.8189518,-79.3954600
59,Bowman Way,L3T 4Z6,43.8192979,-79.3950041
57,Bowman Way,L3T 4Z6,43.8193087,-79.3949387
55,Bowman Way,L3T 4Z6,43.8193161,-79.3948618
53,Bowman Way,L3T 4Z6,43.8193269,-79.3947962
73,Bowman Way,L3T 4Z6,43.8192414,-79.3955048
75,Bowman Way,L3T 4Z6,43.8192333,-79.3955763
77,Bowman Way,L3T 4Z6,43.8192250,-79.3956477
79,Bowman Way,L3T 4Z6,43.8192157,-79.3957188
71,Bowman Way,L3T 4Z6,43.8192457,-79.3954318
69,Bowman Way,L3T 4Z6,43.8192564,-79.3953666
65,Bowman Way,L3T 4Z6,43.8192742,-79.3952241
63,Bowman Way,L3T 4Z6,43.8192815,-79.3951470
61,Bowman Way,L3T 4Z6,43.8192923,-79.3950817
67,Bowman Way,L3T 4Z6,43.8192635,-79.3952894
7175,Bayview Avenue,L3T 2R5,43.8071803,-79.3977700
1,University Boulevard,L3R 2E4,43.8543667,-79.3112100
7550,19th Avenue,L6B 1A8,43.9576069,-79.2275724
8623,McCowan Road,L3P 4H1,43.8707083,-79.2845032
15,West Village Lane,L6C 3L5,43.8951080,-79.3264693
7828,Ninth Line,L6B 1A8,43.8613765,-79.2308419
14,Emerson Hill Drive,L3P 7E5,43.8769824,-79.2942945
4300,Highway 7,L3R 1L8,43.8611497,-79.3145595
23,Second Street,L3R 2C2,43.8619705,-79.3014128
80,Frontenac Drive,L3R 9T8,43.8519110,-79.3631711
42,Loweswater Avenue,L3R 7W7,43.8655013,-79.3424103
8510,Woodbine Avenue,L3R 4X8,43.8505918,-79.3588047
10080,Kennedy Road,L6C 1N9,43.8983935,-79.3326971
