House number,Street name,Postal code,Latitude,Longitude
5008,Hurontario Street,L5R 1B2,43.6066731,-79.6537186
3411,Mavis Road,L5C 1T7,43.5751517,-79.6452212
3011,Wolfedale Road,L5C 1V8,43.5638094,-79.6361677
3020,Mavis Road,L5C 1T8,43.5659489,-79.6336014
745,Courtneypark Drive West,L5W 1L9,43.6244885,-79.7118222
1403,Dundas Street East,L4X 1L3,43.6098049,-79.5838687
1202,Dundas Street East,L4Y 2C1,43.6048613,-79.5880533
820,Dundas Street East,L4Y 2B6,43.5971700,-79.5967059
290,Dundas Street East,L5A 1W9,43.5860676,-79.6089287
6990,Hurontario Street,L4W 1N5,43.6453090,-79.7060434
100,City Centre Drive,L5B 2C9,43.5927597,-79.6412017
7895,Tranmere Drive,L5S 1V9,43.6798083,-79.6717045
1125,Bloor Street,L4Y 2N6,43.6111843,-79.6006472
735,Dundas Street West,L5C 3B6,43.5650882,-79.6347146
1240,Eglinton Avenue West,L5V 1N3,43.5796578,-79.6816992
5008,Hurontario Street,L5R 1B2,43.6066811,-79.6535814
601,Lakeshore Road East,L5G 1H9,43.5688498,-79.5686112
189,Queen Street South,L5M 1L4,43.5817627,-79.7135456
5869,Airport Road,L4V 1C9,43.6862719,-79.6076472
1011,Meyerside Drive,L5T 1K8,43.6515622,-79.6651997
4070,Living Arts Drive,L5B 4N3,43.5875662,-79.6449144
251,Queen Street South,L5M 1L7,43.5801262,-79.7113762
263,Queen Street South,L5M 1L9,43.5798325,-79.7109612
90,Absolute Avenue,L4Z 0A3,43.5954754,-79.6338121
90,Burnhamthorpe Road West,L5B 3C3,43.5913021,-79.6367678
3445,Fieldgate Drive,L4X 2J4,43.6245847,-79.5894387
60,Absolute Avenue,L4Z 0A9,43.5944133,-79.6351262
388,Prince of Wales Drive,L5B 0A1,43.5880467,-79.6481106
100,City Centre Drive,L5B 2C9,43.5927505,-79.6424945
6900,Millcreek Drive,L5N 6C1,43.5948050,-79.7555320
19,Dundas Street East,L5A 1V9,43.5811055,-79.6161279
803,Lakeshore Road East,L5E 1C8,43.5722496,-79.5640607
4141,Dixie Road,L4W 1V5,43.6259583,-79.6056548
100,City Centre Drive,L5B 2C9,43.5926689,-79.6421517
6024,Farmstead Lane,L5N 2Z3,43.5667787,-79.7476014
5979,Bell Harbour Drive,L5M 5K5,43.5729713,-79.7345726
6014,Farmstead Lane,L5N 2Z3,43.5665271,-79.7471400
1020,Brevik Place,L4W4N7,43.6348053,-79.6430704
2150,Burnhamthorpe Road,L5M 4Z5,43.5440154,-79.6806703
84,South Service Road,L5G 2R9,43.5698799,-79.5968024
21,Queensway West,L5B 1B6,43.5739950,-79.6081540
360,Revus Avenue,L5G 4S4,43.5648583,-79.5768131
1375,Southdown Road,L5J 2Y9,43.5186978,-79.6394625
1375,Southdown Road,L5J 2Z1,43.5189890,-79.6391212
13,Stavebank Road North,L5G 2T3,43.5526605,-79.5856382
119,Lakeshore Road West,L5H 1E9,43.5495948,-79.5876526
220,Lakeshore Road West,L5H 1G6,43.5466550,-79.5916460
6974,Financial Drive,L5N 8J4,43.6097286,-79.7510596
6990,Financial Drive,L5N 7H5,43.6110120,-79.7493910
6990,Financial Drive,L5N 7H5,43.6109345,-79.7492565
2840,Argentia Road,L5N 8G4,43.5997589,-79.7726930
865,Britannia Road West,L5V 2X8,43.6092302,-79.6996315
5900,Mavis Road,L5R 4G6,43.6091079,-79.6944977
5985,Mavis Road,L5R 3T7,43.6126365,-79.6939586
6045,Creditview Road,L5V 2A8,43.5998275,-79.7102095
6075,Mavis Road,L5R 4G6,43.6144927,-79.6969648
2255,Battleford Road,L5N 8P6,43.5848891,-79.7382097
6780,Meadowvale Town Centre Circle,L5N 4B7,43.5844357,-79.7607348
6605,Hurontario Street,L5T 0A4,43.6377352,-79.6942966
2680,Matheson Boulevard East,L4W 0A5,43.6619550,-79.6002900
985,Eglinton Avenue East,L4W 4H3,43.6266040,-79.6315380
1131,Dundas Street West,L5C 1C4,43.5579320,-79.6450384
5010,Timberlea Boulevard,L4W 2S5,43.6260626,-79.6328294
2825,Eglinton Avenue West,L5M 6J3,43.5529190,-79.7142460
585,Lakeshore Road East,L5G 1H9,43.5686868,-79.5687501
2611,Spruce Needle Drive,L5L 1M8,43.5341465,-79.6918232
2615,Spruce Needle Drive,L5L 1M8,43.5341058,-79.6920252
200,Rathburn Road West,L5B 3C1,43.5937370,-79.6461983
1250,South Service Road,L5E 1V4,43.5927264,-79.5662959
5915,Airport Road,L4V 1T1,43.6873785,-79.6080245
6700,Montevideo Road,L5N 1V1,43.5906987,-79.7584736
2425,Truscott Drive,L5J 2B4,43.5127139,-79.6498602
2425,Truscott Drive,L5J 2B4,43.5119291,-79.6486297
3635,Cawthra Road,L5A 2Y5,43.6072401,-79.6168270
710,Burnhamthorpe Road East,L4Y 2X3,43.6081108,-79.6174689
3050,Vega Boulevard,L5L 5X8,43.5155621,-79.6907649
1,Port Street East,L5G 4N1,43.5513395,-79.5827622
109,Lakeshore Road East,L5G 1E2,43.5536155,-79.5832012
1590,Dundas Street East,L4X 2Z2,43.6134513,-79.5774607
3105,Dundas Street West,L5L 3R8,43.5217093,-79.6855456
3055,Dundas Street West,L5L 3R8,43.5218493,-79.6835339
280,Lakeshore Road East,L5G 1H2,43.5607999,-79.5760869
71,Lakeshore Road East,L5G 1C9,43.5525509,-79.5843671
2157,Royal Windsor Drive,L5J 1K5,43.5087811,-79.6331007
2057,Royal Windsor Drive,L5J 1K5,43.5110366,-79.6307431
960,Southdown Road,L5J 2Y4,43.5090628,-79.6313955
960,Southdown Road,L5J 2Y4,43.5094956,-79.6309261
1077,North Service Road,L4Y 1A6,43.5911249,-79.5767988
600,Lakeshore Road East,L5G 1J4,43.5682895,-79.5676064
85,Lakeshore Road East,L5G 1C9,43.5527962,-79.5841017
1825,Dundas Street East,L4X 2X1,43.6192754,-79.5741062
579,Lakeshore Road East,L5G 1H9,43.5687336,-79.5696569
6999,Hickling Crescent,L5N 5A7,43.5869294,-79.7713992
1001,Lakeshore Road East,L5E 1E6,43.5766738,-79.5594536
84,South Service Road,L5G 2R9,43.5695451,-79.5966104
3115,Dundas Street West,L5L 3R8,43.5210010,-79.6856370
3015,Winston Churchill Boulevard,L5L 2V8,43.5238778,-79.6819266
3087,Winston Churchill Boulevard,L5L 2V8,43.5243767,-79.6833025
3015,Dundas Street West,L5L 2V8,43.5240004,-79.6822363
2681,Dundas Street West,L5K 1R9,43.5238185,-79.6818340
2185,Stavebank Road,L5C 1T3,43.5619924,-79.6166427
7050,Saint Barbara Boulevard,L5W 0E6,43.6378004,-79.7161204
6205,Airport Road,L4V 1E1,43.6894560,-79.6204580
380,Lakeshore Road East,L5G 4S6,43.5633087,-79.5721376
66,Lakeshore Road East,L5G 1E1,43.5528038,-79.5850519
5100,Erin Mills Parkway,L5M 4Z5,43.5586278,-79.7117693
1250,South Service Road,L5E 1V4,43.5931340,-79.5670685
2225,Erin Mills Parkway,L5K 1T9,43.5299696,-79.6534568
3021,Argentia Road,L5N 8P7,43.5961029,-79.7859317
5425,Creditview Road,L5V 2P3,43.5868707,-79.6959697
1834,Lakeshore Road West,L5J 1J7,43.5152143,-79.6248589
1845,Lakeshore Road West,L5J 1J7,43.5160788,-79.6261010
1846,Lakeshore Road West,L5J 1J7,43.5149877,-79.6249885
1710,Lakeshore Road West,L5J 1J5,43.5178946,-79.6217692
1814,Lakeshore Road West,L5J 1J7,43.5156885,-79.6243945
5580,Explorer Drive,L4W 4Y1,43.6588665,-79.6104392
941,Lakeshore Road East,L5E 1E3,43.5754069,-79.5608222
981,Lakeshore Road East,L5E 1E5,43.5760977,-79.5599424
187,Lakeshore Road East,L5G 1G2,43.5573726,-79.5789264
299,Lakeshore Road East,L5G 1H3,43.5611343,-79.5752254
305,Lakeshore Road East,L5G 1H3,43.5612220,-79.5751331
966,Pantera Drive,L4W 2S1,43.6301269,-79.6379248
2575,Dundas Street West,L5K 2M6,43.5258766,-79.6791135
1925,Fowler Drive,L5K 0A2,43.5279408,-79.6522697
3041,Mississauga Road,L5L 0B7,43.5431610,-79.6593561
1900,Dundas Street West,L5K 1P9,43.5391741,-79.6628821
1705,Lakeshore Road West,L5J 1J4,43.5181666,-79.6224529
1731,Lakeshore Road West,L5J 1J4,43.5177573,-79.6228934
980,Eglinton Avenue East,L4W 1K3,43.6271486,-79.6297181
10-1077,North Service Road,L4Y 1A6,43.5916065,-79.5762568
100,City Centre Drive,L5B 2C9,43.5926553,-79.6422645
6110,Midfield Road,L4W 1S9,43.6742131,-79.6293077
3145,Dundas Street West,L5L 5V8,43.5201776,-79.6861506
3145,Dundas Street West,L5L 5V8,43.5203224,-79.6864054
3145,Dundas Street West,L5L 5V8,43.5201153,-79.6860339
3145,Dundas Street West,L5L 5V8,43.5204139,-79.6865542
3145,Dundas Street West,L5L 5V8,43.5203565,-79.6864683
3145,Dundas Street West,L5L 5V8,43.5202096,-79.6861975
200,Statesman Drive,L5S 1X7,43.6512349,-79.7077759
6720,Davand Drive,L5T 2K7,43.6676641,-79.6679816
1714,Lakeshore Road West,L5J 1J5,43.5178167,-79.6218825
7050,Kennedy Road,L5S 0A3,43.6587982,-79.7005189
5223,Fairford Crescent,L5V 2M6,43.5961236,-79.6782968
1566,Dundas Street East,L4X 1L4,43.6115439,-79.5777973
3687,Nashua Drive,L4V 1R3,43.7152771,-79.6259714
980,Southdown Road,L5J 2Y4,43.5101022,-79.6295718
2057 unit 1,Royal Windsor Drive,L5J 1K5,43.5108562,-79.6308390
2425,Truscott Drive,L5J 2B4,43.5129815,-79.6495480
2425,Truscott Drive,L5J 2B4,43.5124603,-79.6497557
2425,Truscott Drive,L5J 2B4,43.5126463,-79.6499496
2425,Truscott Drive,L5J 2B4,43.5128075,-79.6497371
2425,Truscott Drive,L5J 2B4,43.5129235,-79.6496084
2425,Truscott Drive,L5J 2B4,43.5127630,-79.6497947
2425,Truscott Drive,L5J 2B4,43.5128422,-79.6496981
2425,Truscott Drive,L5J 2B4,43.5121314,-79.6491911
2283,Argentia Road,L5N 5Z2,43.5983727,-79.7471674
3087,Winston Churchill Boulevard,L5L 2V8,43.5246714,-79.6830805
2257,Royal Windsor Drive,L5J 1K5,43.5063712,-79.6355851
1801 unit 9,Lakeshore Road West,L5J 1J6,43.5166265,-79.6251296
3550,Derry Road East,L4T 4E3,43.7146445,-79.6293474
1375,Southdown Road,L5J 2Z1,43.5189584,-79.6391632
1375,Southdown Road,L5J 2Z1,43.5194718,-79.6395061
1375,Southdown Road,L5J 2Z1,43.5195793,-79.6396917
2057,Royal Windsor Drive,L5J 2Y4,43.5111067,-79.6307720
2057,Royal Windsor Drive,L5J 2Y4,43.5111467,-79.6308004
1935,Drew Road,L5S 1M7,43.6896227,-79.6708215
2355,Royal Windsor Drive,L5J 4S8,43.5060033,-79.6396193
1030,Dundas Street East,L4Y 2B8,43.6016325,-79.5917235
3635,Cawthra Road,L5A 2Y5,43.6076033,-79.6171953
3635,Cawthra Road,L5A 2Y5,43.6071042,-79.6169665
3643,Cawthra Road,L5A 2Y5,43.6074577,-79.6175386
660,Bloor Street,L5A 3V9,43.5992612,-79.6111390
1125,Bloor Street,L4Y 2N6,43.6116052,-79.6015088
1535,Meyerside Drive,L5T 1M9,43.6616366,-79.6533634
4099,Erin Mills Parkway,L5L 3P9,43.5504399,-79.6882123
4099,Erin Mills Parkway,L5L 3P9,43.5512421,-79.6878626
75,Watline Avenue,L4Z 1N5,43.6223666,-79.6711928
3024,Hurontario Street,L5B 4M4,43.5805334,-79.6172825
4559,Hurontario Street,L4Z 3L9,43.6083833,-79.6503778
1,Port Street East,L5G 4N1,43.5512311,-79.5823287
6905,Millcreek Drive,L5N 6A3,43.5960224,-79.7570160
3077,Mavis Road,L5C 1T7,43.5678191,-79.6347528
3077,Mavis Road,L5C 1T7,43.5678793,-79.6348306
3077,Mavis Road,L5C 1T7,43.5677491,-79.6346590
5025,Orbitor Drive,L4W 4Y5,43.6565924,-79.5986686
3050,Vega Boulevard,L5L 5X8,43.5144538,-79.6924566
660,Eglinton Avenue West,L5R 3V2,43.5925022,-79.6662426
660,Eglinton Avenue West,L5R 3V2,43.5920692,-79.6667591
512,Bristol Road West,L5R 3Z1,43.6021854,-79.6714810
5025,Orbitor Drive,L4W 4Y5,43.6568451,-79.5985312
735,Dundas Street West,L5C 3B6,43.5649849,-79.6349201
2690,Erin Centre Boulevard,L5M 5P5,43.5579531,-79.7166023
3065,Ridgeway Drive,L5L 5M6,43.5188115,-79.6897345
2000,Argentia Road,L5N 1P7,43.5993511,-79.7403307
702,Burnhamthorpe Road East,L4Y 2X3,43.6080116,-79.6176766
704,Burnhamthorpe Road East,L4Y 2X3,43.6080088,-79.6175749
706,Burnhamthorpe Road East,L4Y 2X3,43.6080360,-79.6175387
708,Burnhamthorpe Road East,L4Y 2X3,43.6080787,-79.6174984
712,Burnhamthorpe Road East,L4Y 2X3,43.6081830,-79.6174786
714,Burnhamthorpe Road East,L4Y 2X3,43.6082189,-79.6174371
154,Queen Street South,L5M 2P4,43.5820374,-79.7155149
2661,Dundas Street West,L5K 1R9,43.5240442,-79.6813142
4505,Dixie Road,L4W 5K3,43.6330796,-79.6159725
1520,Aimco Boulevard,L4W 5K1,43.6386324,-79.6237157
1520,Aimco Boulevard,L4W 1H7,43.6386945,-79.6238418
5980,McLaughlin Road,L5R 3X9,43.6153020,-79.6894527
2425,Truscott Drive,L5J 2B4,43.5128931,-79.6496380
2425,Truscott Drive,L5J 2B4,43.5126744,-79.6498974
2535,Derry Road East,L4T 1A1,43.6958222,-79.6521570
1540,Trinity Drive,L5T 1L6,43.6587477,-79.6498383
2520 Unit 1,Eglinton Avenue East,L5M 0Y4,43.5582879,-79.7067611
3050,Argentia Road,L5N 8E1,43.5958462,-79.7841617
4120,Dixie Road,L4W 4V8,43.6243907,-79.6066611
970,Southdown Road,L5J 2Y4,43.5101462,-79.6302455
1565,Dixie Road,L4W 4G1,43.6399312,-79.6251043
3540,Morning Star Drive,L4T 1Y2,43.7235109,-79.6384796
3540,Morning Star Drive,L4T 1Y2,43.7232925,-79.6387000
5500,Explorer Drive,L4W 5C7,43.6597361,-79.6096939
4544,Eastgate Parkway,L4W 3W6,43.6384124,-79.6112677
5950,Rodeo Drive,L5R 3V6,43.6132815,-79.6931459
5935,Mavis Road,L5R 3T7,43.6107443,-79.6921606
815,Britannia Road West,L5V 2X8,43.6103035,-79.6984166
800,Boyer Boulevard,L5V 2Y1,43.6110957,-79.6980092
6085,Creditview Road,L5V 2A8,43.5999000,-79.7125614
720,Burnhamthorpe Road West,L5C 3G1,43.5779254,-79.6525032
3436,Mavis Road,L5C 1T8,43.5739895,-79.6450459
3411,Mavis Road,L5C 1T7,43.5747804,-79.6448820
3411,Mavis Road,L5C 1T7,43.5748542,-79.6447828
80,Port Street East,L5G 4V6,43.5547782,-79.5813814
465,Fairview Road West,L5B 3W7,43.5771850,-79.6350284
27-1100,Burnhamthorpe Road West,L5C 4G4,43.5692336,-79.6612384
3050,Vega Boulevard,L5L 5X8,43.5143134,-79.6927094
3050,Vega Boulevard,L5L 5X8,43.5141237,-79.6930806
3050,Vega Boulevard,L5L 5X8,43.5145074,-79.6949938
3050,Vega Boulevard,L5L 5X8,43.5147684,-79.6920082
12,Front Street South,L5H 2C4,43.5495992,-79.5866040
1235,Aerowood Drive,L4W 1B9,43.6408843,-79.6383610
1575,Trinity Drive,L5T 1K4,43.6598606,-79.6498099
5083,Dixie Road,L4W 5K1,43.6381386,-79.6219576
5083,Dixie Road,L4W 0E6,43.6381730,-79.6220241
5083,Dixie Road,L4W 0E6,43.6380994,-79.6218834
5700,Mavis Road,L5V 2N6,43.6070378,-79.6902179
1715,Bloor Street,L4X 1S5,43.6238367,-79.5878221
1860,Dundas Street East,L4X 1L9,43.6191346,-79.5725709
2225,Dundas Street East,L4X 1L9,43.6271799,-79.5646989
1846,Dundas Street East,L4X 1L9,43.6189225,-79.5727824
4646,Heritage Hills Boulevard,L5R 1Y3,43.5989776,-79.6603825
1125,Dundas Street East,L4Y 2C4,43.6039358,-79.5905079
1133,Dundas Street East,L4Y 2C3,43.6042127,-79.5902473
636,Bloor Street,L5A 3V9,43.5990374,-79.6117418
2100,Burnhamthorpe Road West,L5L 3N1,43.5465485,-79.6823843
6677,Meadowvale Town Centre Circle,L5N 2R5,43.5827888,-79.7592902
4140,Erin Mills Parkway,L5L 3R3,43.5507462,-79.6906176
1170,Burnhamthorpe Road West,L5C 4E6,43.5678643,-79.6625857
1252,Eglinton Avenue West,L5V 1N3,43.5781842,-79.6835305
107,Britannia Road West,L5V 0A7,43.6099778,-79.6970050
660,Eglinton Avenue West,L5R 3V2,43.5917752,-79.6671141
1053,Dundas Street West,L5C 1C3,43.5581390,-79.6426056
40,Bristol Road East,L4Z 3K8,43.6138746,-79.6620302
175,Derry Road East,L5T 2Z7,43.6504652,-79.7020574
225B,Dundas Street East,L5A 1W8,43.5853378,-79.6113929
225,Dundas Street East,L5A 1W8,43.5850110,-79.6116978
5083,Dixie Road,L4W 5K1,43.6382297,-79.6221269
5083,Dixie Road,L4W 5K1,43.6382687,-79.6221859
719,Central Parkway West,L5B 4L1,43.5769874,-79.6455572
719,Central Parkway West,L5B 4L1,43.5769209,-79.6456199
719,Central Parkway West,L5B 4L1,43.5768625,-79.6457110
2458,Dundas Street West,L5K 1R8,43.5269797,-79.6755832
6905,Millcreek Drive,L5N 6A3,43.5958743,-79.7567960
6905,Millcreek Drive,L5N 6A3,43.5961285,-79.7573773
6981,Millcreek Drive,L5N 6B8,43.5972186,-79.7597460
4099,Erin Mills Parkway,L5L 3P9,43.5512230,-79.6877965
925,Rathburn Rd E,L4W 4C3,43.6154063,-79.6178611
833,Westlock Road,L5C 1k7,43.5665524,-79.6424449
1575,Trinity Drive,L5T 1K4,43.6598580,-79.6497032
5060,Spectrum Way,L4W 5N6,43.6485346,-79.6094926
150,Britannia Road East,L4Z 1S6,43.6288326,-79.6754520
3120,Glen Erin Drive,L5L 1R6,43.5326781,-79.6773589
55,Village Centre Place,L4Z 1V9,43.6008244,-79.6410196
3015,Winston Churchill Boulevard,L5L 2V8,43.5239082,-79.6824103
6100,Belgrave Road,L5R 0B7,43.6157626,-79.6950802
2661,Dundas Street West,L5K 1R9,43.5239810,-79.6814064
4288,Village Centre Court,L4Z 1S2,43.6012252,-79.6411416
3095,Wolfedale Road,L5C 1V8,43.5659187,-79.6376177
7171,Torbram Road,L4T 3W4,43.6976142,-79.6565200
223,Ceremonial Drive,L5R 2N3,43.6050489,-79.6632941
223,Ceremonial Drive,L5R 2N3,43.6049525,-79.6633479
223,Ceremonial Drive,L5R 2N3,43.6048726,-79.6633556
223,Ceremonial Drive,L5R 2N3,43.6048357,-79.6633597
223,Ceremonial Drive,L5R 2N3,43.6052151,-79.6630513
223,Ceremonial Drive,L5R 2N3,43.6051209,-79.6632203
223,Ceremonial Drive,L5R 2N3,43.6050823,-79.6632684
223,Ceremonial Drive,L5R 2N3,43.6051553,-79.6631580
223,Ceremonial Drive,L5R 2N3,43.6051775,-79.6631122
223,Ceremonial Drive,L5R 2N3,43.6050104,-79.6633310
4557,Hurontario Street,L4Z 3M2,43.6065809,-79.6490751
5680,Timberlea Boulevard,L4W 4M6,43.6378123,-79.6519424
5640,Timberlea Boulevard,L4W 4M6,43.6365396,-79.6512128
808,Britannia Road West,L5V 0A7,43.6100172,-79.6970205
2446,Cawthra Road,L5A 3K6,43.5908479,-79.5967195
755,Dundas Street West,L5C 3B6,43.5643116,-79.6354155
144,Dundas Street West,L5B 1H9,43.5768372,-79.6198177
1726,Mattawa Avenue,L4X 1K1,43.6134831,-79.5720739
1180,Lorimar Drive,L5S 1M9,43.6698885,-79.6809349
25,Watline Avenue,L4Z 2Z1,43.6217210,-79.6725040
6810,Kitimat Road,L5N 5M2,43.6073761,-79.7355778
4,Robert Speck Pkwy 15th Floor,L4Z 1S1,43.5971910,-79.6358880
2,Robert Speck Parkway,L4Z 1H8,43.5961397,-79.6368374
4900,Dixie Road,L4W 2R1,43.6350586,-79.6207298
2580,Shepard Ave #19,L5A 4K3,43.5803680,-79.6146327
5890,Dixie Road,L4W 1E9,43.6531929,-79.6455810
6880,Financial Drive,L5N 7Y5,43.6088542,-79.7453951
2800,Skymark Avenue,L4W 5A6,43.6635159,-79.5935031
4141,Creditview Road,L5C 3Y8,43.5683210,-79.6653880
1151,Dundas Street West,L5C 1H7,43.5580838,-79.6448299
448,Gibraltar Drive,L5T 2N8,43.6527958,-79.6941128
1310,Dundas Street East,L4Y 2C1,43.6069709,-79.5853615
6956,Financial Drive,L5N 7H5,43.6103505,-79.7485422
1230,Mid-Way Blvd,L5T 2B8,43.6636392,-79.6694324
2273,Dundas Street West,L5K 2L8,43.5321952,-79.6721965
5800,Ambler Dr #110,L4W 4J4,43.6430356,-79.6457897
2901,Eglinton Avenue West,L5M 6J3,43.5523176,-79.7162426
33,City Centre Drive,L5B 2N5,43.5948722,-79.6389248
3015,Winston Churchill Boulevard,L5L 2V8,43.5239753,-79.6825405
1590,Matheson Boulevard,L4W 3Z4,43.6421815,-79.6275799
1590,Matheson Boulevard,L4W 1J1,43.6418787,-79.6279624
1350,Matheson Boulevard East,L4W 4M1,43.6413686,-79.6320904
4580,Eastgate Parkway,L4W 4K4,43.6387719,-79.6128933
3045,Clayhill Road,L5B 4L2,43.5715933,-79.6278075
7125,Pacific Circle,L5T 2A5,43.6589772,-79.6838200
2325,Hurontario Street,L5A 4K4,43.5753952,-79.6076780
100,City Centre Drive,L5B 2C9,43.5926569,-79.6424729
100,City Centre Drive,L5B 2C9,43.5934193,-79.6424125
100,City Centre Drive,L5B 2C9,43.5928799,-79.6422315
6039,Erin Mills Parkway,L5N 0g5,43.5801448,-79.7347948
136,Watline Avenue,L4Z 2E2,43.6232976,-79.6683355
3211,Valcourt Crescent,L5L 5K2,43.5208587,-79.6929835
310,Brunel Road,L4Z 2C2,43.6299984,-79.6686576
3400,Ellengale Drive,L5C 1Z4,43.5614547,-79.6577791
3665,Flamewood Drive,L4Y 3P5,43.6129251,-79.6116566
4890,Tomken Road,L4W 1J8,43.6249627,-79.6303865
4890,Tomken Road,L4W 1J8,43.6256361,-79.6296694
8-125,Traders Boulevard East,L4Z 2H3,43.6256573,-79.6718759
888,Dundas Street East,L4Y 4G6,43.5975407,-79.5941486
888,Dundas Street East,L4Y 4G6,43.5975679,-79.5941151
888,Dundas Street East,L4Y 4G6,43.5975853,-79.5940762
888,Dundas Street East,L4Y 4G6,43.5976300,-79.5940319
888,Dundas Street East,L4Y 4G6,43.5976718,-79.5939729
888,Dundas Street East,L4Y 4G6,43.5977136,-79.5939206
888,Dundas Street East,L4Y 4G6,43.5977777,-79.5937141
888,Dundas Street East,L4Y 4G6,43.5979632,-79.5936899
888,Dundas Street East,L4Y 4G6,43.5980711,-79.5940991
888,Dundas Street East,L4Y 4G6,43.5980971,-79.5938279
1520,Creditview Rd,L5M 4Z9,43.5968386,-79.7114223
6275,Millcreek Drive,L5N 7K6,43.5892322,-79.7349334
190,Britannia Road East,L4Z 1S6,43.6296209,-79.6741024
4188,Living Arts Drive,L5B 0H7,43.5899789,-79.6481618
4092,Confederation Parkway,L5B 0G4,43.5867442,-79.6475503
7686,Kimbel Street,L5S 1E9,43.6973608,-79.6640953
3051,Battleford Road,L5N 6R7,43.5790330,-79.7598305
35,Lakeshore Road East,L5G 1C9,43.5516974,-79.5851862
3185,Unity Drive,L5L 4L4,43.5367568,-79.7106431
800,Boyer Boulevard,L5V 1Y1,43.6123744,-79.6996968
223,Ceremonial Drive,L5R 2N3,43.6049116,-79.6633531
5700,Timberlea Boulevard,L4W 5B9,43.6387098,-79.6515200
6774,Financial Drive,L5N 7J6,43.6084325,-79.7416244
75,Annagem Boulevard,L5T 2Y3,43.6363460,-79.6908539
75,Eglinton Avenue West,L5R 0E5,43.6059662,-79.6546920
55,Eglinton Avenue West,L5R 0E5,43.6063018,-79.6543383
60,Lacoste Boulevard,L6P 2K2,43.6846625,-79.6653031
1575,Trinity Drive,L5T 1K4,43.6599645,-79.6497627
6301,Silver Dart Drive,L5P 1B2,43.6831244,-79.6120273
202-120,Traders Blvd. E.,L4Z 2H7,43.6250640,-79.6710834
2398,Britannia Road West,L5M 6B6,43.5782700,-79.7322889
5800,Ambler Dr,L4W 4J4,43.6429578,-79.6460920
37,William Street,L5M 1J2,43.5862298,-79.7217412
3050,Vega Boulevard,L5L 5X8,43.5141657,-79.6945265
3050,Vega Boulevard,L5L 5X8,43.5139693,-79.6941483
3050,Vega Boulevard,L5L 5X8,43.5139109,-79.6935850
3050,Vega Boulevard,L5L 5X8,43.5142007,-79.6928930
3050,Vega Boulevard,L5L 5X8,43.5152978,-79.6911201
182,Indian Valley Trail,L5G 2K6,43.5610182,-79.5980969
7111,Syntex Drive,L5N 8C3,43.6062647,-79.7576997
3170,Ridgeway Drive,L5L 5R4,43.5169836,-79.6944519
2985,Drew Road,L4T 0A4,43.7111741,-79.6534167
5650,Montevideo Rd,L5N 4E4,43.5781985,-79.7530835
2586,Dunwin Drive,L5L 1J5,43.5276245,-79.6820197
350,Burnhamthorpe Road East,L5A 3S5,43.6003417,-79.6260937
90,Burnhamthorpe Road West,L5B 3C3,43.5913064,-79.6369118
186,Robert Speck Parkway,L4Z 3G1,43.5968269,-79.6327286
377,Burnhamthorpe Road East,L5A 3Y1,43.6031294,-79.6268693
567,Lakeshore Road East,L5G0A9,43.5676543,-79.5689454
3070,Lenworth Drive,L4X 2X1,43.6212140,-79.5742702
3615,Dixie Road,L4Y 4H4,43.6218078,-79.6004678
1224,Dundas Street East,L4Y 4A2,43.6057477,-79.5869860
2-1177,Central Parkway West,L5C 4P3,43.5676569,-79.6620738
2-1177,Central Parkway West,L5C 4P3,43.5675651,-79.6619517
100,City Centre Drive,L5B 2C9,43.5934212,-79.6422891
100,City Centre Drive,L5B 2C9,43.5933464,-79.6425158
100,City Centre Drive,L5B 2C9,43.5932687,-79.6425185
100,City Centre Drive,L5B 2C9,43.5931930,-79.6425171
100,City Centre Drive,L5B 2C9,43.5931153,-79.6425198
100,City Centre Drive,L5B 2C9,43.5928086,-79.6424917
100,City Centre Drive,L5B 2C9,43.5928695,-79.6425012
100,City Centre Drive,L5B 2C9,43.5929397,-79.6425094
100,City Centre Drive,L5B 2C9,43.5929220,-79.6429309
100,City Centre Drive,L5B 2C9,43.5933327,-79.6420647
100,City Centre Drive,L5B 2C9,43.5928569,-79.6431286
100,City Centre Drive,L5B 2C9,43.5930770,-79.6439754
100,City Centre Drive,L5B 2C9,43.5936178,-79.6422403
100,City Centre Drive,L5B 2C9,43.5936148,-79.6424313
100,City Centre Drive,L5B 2C9,43.5936104,-79.6425980
100,City Centre Drive,L5B 2C9,43.5938798,-79.6416406
100,City Centre Drive,L5B 2C9,43.5938739,-79.6418053
100,City Centre Drive,L5B 2C9,43.5938710,-79.6419313
100,City Centre Drive,L5B 2C9,43.5938666,-79.6420675
100,City Centre Drive,L5B 2C9,43.5938548,-79.6422098
100,City Centre Drive,L5B 2C9,43.5938519,-79.6423297
100,City Centre Drive,L5B 1M7,43.5939844,-79.6426448
100,City Centre Drive,L5B 2C9,43.5924605,-79.6430841
100,City Centre Drive,L5B 2C9,43.5926254,-79.6431024
100,City Centre Drive,L5B 2C9,43.5923529,-79.6417520
100,City Centre Drive,L5B 2C9,43.5923488,-79.6418440
100,City Centre Drive,L5B 2C9,43.5923099,-79.6430807
100,City Centre Drive,L5B 2C9,43.5921320,-79.6432681
100,City Centre Drive,L5B 2C9,43.5919342,-79.6434689
100,City Centre Drive,L5B 2C9,43.5923408,-79.6413859
100,City Centre Drive,L5B 2C9,43.5921811,-79.6415752
100,City Centre Drive,L5B 2C9,43.5923953,-79.6433189
100,City Centre Drive,L5B 2C9,43.5926220,-79.6433352
100,City Centre Drive,L5B 2C9,43.5927251,-79.6433454
100,City Centre Drive,L5B 4C1,43.5928281,-79.6433433
100,City Centre Drive,L5B 2C9,43.5928252,-79.6436137
100,City Centre Drive,L5B 2C9,43.5920773,-79.6436991
100,City Centre Drive,L5B 2C9,43.5932537,-79.6443437
100,City Centre Drive,L5B 2C9,43.5928626,-79.6455879
100,City Centre Drive,L5B 2C9,43.5924888,-79.6452382
100,City Centre Drive,L5B 2B0,43.5937166,-79.6440313
100,City Centre Drive,L5B 2C9,43.5929128,-79.6441065
100,City Centre Drive,L5B 2G6,43.5918709,-79.6438756
100,City Centre Drive,L5B 2C9,43.5919603,-79.6440234
100,City Centre Drive,L5B 2C9,43.5926119,-79.6449566
3980,Grand Park Drive,L5B 4M6,43.5810957,-79.6490509
2255,Dundas Street West,L5K 1R6,43.5334469,-79.6713924
6885,Kennedy Road,L5T 2Z2,43.6531398,-79.6908339
7131,Edwards Boulevard,L5S 1Z2,43.6505102,-79.7068244
2161,North Sheridan Way,L5K 1A3,43.5223339,-79.6512266
2575,Dundas Street West,L5K 2M6,43.5258189,-79.6803861
100,City Centre  Drive,L5B 2C9,43.5940622,-79.6440803
780,Burnhamthorpe Road West,L5C 3X3,43.5773529,-79.6531186
1131,Dundas Street West,L5C 1C4,43.5578341,-79.6451743
1177,Central Parkway West,L5C 4P3,43.5681323,-79.6611751
1177,Central Parkway West,L5C 2T1,43.5679263,-79.6607352
777,Dundas Street West,L5C 4P6,43.5646137,-79.6365363
777,Dundas Street West,L5C 4P6,43.5644893,-79.6367938
3069,Wolfedale Road,L5C 1V9,43.5648833,-79.6376984
3136,Mavis Road,L5C 1T9,43.5681668,-79.6367274
3185,Mavis Road,L5C 1T7,43.5698498,-79.6375053
3174,Mavis Road,L5C 1T8,43.5692940,-79.6384709
3235,Mavis Road,L5C 1T7,43.5706737,-79.6384709
3240,Mavis Road,L5C 3K1,43.5701607,-79.6398924
3364,Mavis Road,L5C 1T8,43.5722867,-79.6426068
3354,Mavis Road,L5C 1T8,43.5725004,-79.6428751
3364,Mavis Road,L5C 1T8,43.5727453,-79.6431969
3364,Mavis Road,L5C 1T8,43.5725238,-79.6433632
3364,Mavis Road,L5C 1T8,43.5724111,-79.6435617
3378,Mavis Road,L5C 1T8,43.5728838,-79.6434287
719,Central Parkway West,L5B 4L1,43.5767847,-79.6458319
10,Kerr Street,L5M 1T8,43.5835832,-79.7152104
2132,Dundas Street West,L5K 2K7,43.5348411,-79.6671438
175,Forum Drive,L4Z 4E5,43.6118420,-79.6515790
1060,Eglinton Avenue East,L4W 1K3,43.6283639,-79.6275055
6700,Montevideo Rd,L5N 1V1,43.5905498,-79.7584296
6700,Montevideo Rd,L5N 1V1,43.5906500,-79.7584577
6700,Montevideo Rd,L5N 1V1,43.5906028,-79.7584454
6700,Montevideo Rd,L5N 1V1,43.5905046,-79.7584148
6700,Montevideo Road,L5N 1V1,43.5904627,-79.7584024
6905,Millcreek Drive,L5N 6A3,43.5960727,-79.7566907
8205,Financial Drive,L6Y 1M1,43.6139960,-79.7393022
6795,Airport Road,L4V 1E6,43.7003879,-79.6364858
960,Southdown Road,L5J 2Y4,43.5093250,-79.6311065
3221,Derry Road West,L5N 7L7,43.5836062,-79.7786196
5955,Latimer Drive,L5V 0B5,43.6089281,-79.6966130
2575,Dundas Street West,L5K 2M6,43.5257191,-79.6809694
5805,Whittle Road,L4Z 2J1,43.6246125,-79.6709655
4500,Dixie Road,L4W 1V7,43.6315024,-79.6156361
80,Courtneypark Drive East,L5T 2Y3,43.6370509,-79.6916913
2355,Derry Road East,L5S 1V6,43.6918902,-79.6563694
7895,Tranmere Drive,L5S 1V9,43.6798320,-79.6715171
1230,Lakeshore Rd E,L5E 1E9,43.5820091,-79.5540688
755,Queensway East,L4Y 4C5,43.5900179,-79.5913659
145,Traders Boulevard East,L4Z 3L3,43.6262805,-79.6717534
229-6200,Dixie Road,L5T 2E1,43.6578355,-79.6529850
5100,Orbitor Drive,L4W 4Z4,43.6569279,-79.6024696
2410,Dunwin Drive,L6L 1J9,43.5316316,-79.6780218
3105-2,Glen Erin Drive,L5L 1J3,43.5330606,-79.6758649
1005,Eglinton Avenue West,L5V1R7,43.5860739,-79.6770360
2735,Argentia Road,L5N 0G9,43.6003942,-79.7686817
6039,Erin Mills Parkway,L5N 0g5,43.5800404,-79.7346510
6039,Erin Mills Parkway,L5N 0g5,43.5799376,-79.7345096
6039,Erin Mills Parkway,L5N 0g5,43.5798449,-79.7343818
3182,Orlando Drive,L4V 1R5,43.6979646,-79.6259573
6815,Airport Road,L4V 1E4,43.7004271,-79.6369319
6815,Airport Road,L4V 1E4,43.7003014,-79.6371236
6815,Airport Road,L4V 1E4,43.7003561,-79.6370362
6795,Airport Road,L4V 1E6,43.7001818,-79.6362200
200,Matheson Blvd,L5R 3L7,43.6430279,-79.6281794
55,City Centre Drive,L5B 1M3,43.5935624,-79.6380760
7895,Tranmere Drive,L5S 1V9,43.6792200,-79.6707328
4141,Dixie Road,L4W 1V0,43.6251994,-79.6042163
700,Burnhamthorpe Road East,L4Y 2X0,43.6077386,-79.6176794
3100,Dixie Road,L4Y 3A0,43.6088220,-79.5854544
5035,Hurontario Street,L4Z 3X0,43.6080079,-79.6521928
60,Dundas Street East,L5A 1W0,43.5810589,-79.6138988
377,Burnhamthorpe Road East,L5A 3Y0,43.6027813,-79.6260862
100,City Centre Drive,L5B 3B0,43.5930631,-79.6439234
4040,Creditview Road,L5C 4E0,43.5680241,-79.6663091
2225,Erin Mills Parkway,L5K 2T0,43.5301576,-79.6540377
2126,Burnhamthorpe Road West,L5L 3A0,43.5448588,-79.6815741
224,Queen Street South,L5M 4Z0,43.5806627,-79.7125883
128,Queen Street South,L5M 4Z0,43.5821965,-79.7171189
5636,Glen Erin Drive,L5M 6B0,43.5658754,-79.7296342
5602,Tenth Line West,L5M 7L0,43.5577970,-79.7427472
3221,Derry Road West,L5N 7L0,43.5837264,-79.7783794
4646,Heritage Hills Boulevard,L5R 1Y0,43.5986579,-79.6604881
6435,Dixie Road,L5T 1X0,43.6645084,-79.6587850
1240,Eglinton Avenue West,L5V 1N0,43.5789041,-79.6816411
1300,Kamato Road,L4W 2N2,43.6422545,-79.6392835
20,Stavebank Road,L5G 2T4,43.5525538,-79.5864025
130,Matheson Boulevard East,L4Z 1Y6,43.6226685,-79.6651058
190,Robert Speck Parkway,L4Z 3K3,43.5969815,-79.6322093
533,Ravenstone Court,L5R 4A6,43.6005705,-79.6705303
802,Southdown Road,L5J 2Y4,43.5066958,-79.6259920
1575,Trinity Drive,L5T 1K4,43.6600360,-79.6499655
190,Robert Speck Pkwy,L4Z 3K3,43.5970066,-79.6322481
380,Janene Court,L5A 3Z3,43.5958833,-79.6172021
2555,Erin Centre Boulevard,L5M 5H1,43.5628621,-79.7103102
3050,Artesian Drive,L5M 7P5,43.5454328,-79.7147233
3040,Artesian Drive,L5M 7P5,43.5454558,-79.7148116
507,Lakeshore Rd E,L5G 1H9,43.5655074,-79.5713461
780,Burnhamthorpe Road West,L5C 3X3,43.5772480,-79.6532624
7171,Torbram Road,L4T 3W4,43.6982359,-79.6559780
2295,Dunwin Drive,L5L 3S4,43.5352218,-79.6759665
2301,Royal Windsor Drive,L5J 1K5,43.5063616,-79.6369538
848,Burnhamthorpe Road West,L5C 2S3,43.5752916,-79.6555924
1730,Dundas Street East,L4X 1L8,43.6162045,-79.5754229
5160,Explorer Drive,L4W 4T7,43.6620233,-79.5980341
4,Robert Speck Pkwy,L4Z 1S1,43.5971628,-79.6360268
1051,"Cedarglen GT, #51",L5C 3A7,43.5579352,-79.6409112
4025,Brandon Gate Drive,L4T 3Z9,43.7328921,-79.6347369
35,Watergarden Drive,L5R 0G8,43.6073678,-79.6561386
65,Watergarden Drive,L5R 0G8,43.6070143,-79.6565516
5685,Montevideo Rd,L5N 2M5,43.5770827,-79.7532712
507,Lakeshore Road East,L5G 1H9,43.5653603,-79.5715059
206-C,"Scottâ€™s Directories Attn: Customer Service 507 Lakeshore Rd., East",L5G 1H9,43.5653765,-79.5714862
3755,Laird Road,L5L 0B3,43.5239120,-79.7104145
6895,Pacific Circle,L5T2H3,43.6626347,-79.6824917
100,Emby Drive,L5M1H6,43.5789618,-79.7147502
100,City Centre Drive,L5B 2C9,43.5933215,-79.6446667
5055,Plantation Place,L5M 6J3,43.5525453,-79.7149078
5800,Explorer Drive,L4W 5K9,43.6558797,-79.6166629
5800,Explorer Drive,L4W 5K9,43.6560928,-79.6165044
3450,Ridgeway Drive,L5L 0A2,43.5241190,-79.7078150
1900,Fowler Drive,L5K 0A1,43.5271555,-79.6503765
3150,Ridgeway Drive,L5L 5Y3,43.5179426,-79.6928648
3150,Ridgeway Drive,L5L 5R5,43.5178579,-79.6928666
3150,Ridgeway Drive,L5L 5R5,43.5173857,-79.6929116
3150,Ridgeway Drive,L5L 5Y3,43.5180341,-79.6928438
3150,Ridgeway Drive,L5L 5R5,43.5176623,-79.6928785
3180,Laird Road,L5L 6A5,43.5212836,-79.6884017
888,Dundas Street East,L4Y 2B8,43.5973405,-79.5947202
7125,Mississauga Road,"L5N 0C3,",43.6109569,-79.7524386
2273,Dundas Street West,L5K 2L8,43.5317827,-79.6726861
5602,Tenth Line West,L5M7L9,43.5580582,-79.7430763
4665,Central Parkway East,L4Z 2V4,43.6158040,-79.6401731
100,City Centre Drive,L5B 2C9,43.5932144,-79.6420570
100,City Centre Drive,L5B 2C9,43.5934322,-79.6421058
7125,Goreway Dr,L4T 4H3,43.7161539,-79.6343510
626,Burnhamthorpe Road West,L5B 2C4,43.5801908,-79.6502875
705,Matheson Boulevard East,L4Z 3X9,43.6285391,-79.6493143
2000,Argentia Road,L5N 1W1,43.5986110,-79.7407725
3500,Ridgeway Drive,L5L 0A2,43.5244619,-79.7086887
3525,Platinum Drive,L5M 2R9,43.5370177,-79.7284040
12,Station Gate Road,L5B 4C1,43.5941501,-79.6478554
1075,Fewster Drive,L4W 1A2,43.6286017,-79.6225838
6982,"Forest Park Dr,",L5N 6X9,43.5809985,-79.7786200
6200,Kennedy Road,L5T 2Z1,43.6403484,-79.6752530
2355,Royal Windsor Drive,L5J 4S8,43.5056452,-79.6390727
2355-7,Royal Windsor Drive,L5J4S8,43.5056924,-79.6391449
4052,Brickstone Mews,L5B 0G4,43.5856646,-79.6474564
3573,Wolfedale Road,L5C 3T6,43.5745751,-79.6512941
1630,Sismet Road,4W 1R5,43.6422799,-79.6242819
2180,Meadowvale Boulevard,L5N 5S3,43.6066898,-79.7577243
55,Woodlawn Avenue,L5G 3K7,43.5599000,-79.5820754
2,Robert Speck Parkway,L4Z 1H8,43.5962656,-79.6369096
3180,Laird Road,L5L 6A5,43.5208643,-79.6882035
310,Bristol Road East,L4Z 3V5,43.6160996,-79.6531048
2575,Dundas Street West,L5K 2M6,43.5257741,-79.6807503
2351,Royal Windsor Drive,L5J 4S7,43.5052245,-79.6383116
3975,Grand Park Dr,L5B 0K4,43.5812050,-79.6474126
4120,Dixie Rd,L4W 4V8,43.6247487,-79.6063516
55,Woodlawn Avenue,L5B 4A2,43.5598893,-79.5820584
100,City Centre Drive,L5B 2C9,43.5929767,-79.6431726
100,City Centre Drive,L5B 2C9,43.5923923,-79.6413209
100,City Centre Drive,L5B 2C9,43.5932765,-79.6420611
2560,Shepard Avenue,L5A 4E1,43.5800834,-79.6138006
35,King Street East,L5A 4E2,43.5798346,-79.6134673
2500,Hurontario Street,L5B1N4,43.5771511,-79.6133550
2500,Hurontario Street,L5B1N4,43.5772230,-79.6134382
100,City Centre Drive,L5B 2C9,43.5920330,-79.6441135
719,Central Parkway West,L5B 4L1,43.5772992,-79.6451861
3354,Bobwhite Mews,L5N6E8,43.5686198,-79.7629181
3370,Bobwhite Mews,L5N6E8,43.5680896,-79.7636140
3368,Bobwhite Mews,L5N6E8,43.5681724,-79.7634988
3366,Bobwhite Mews,L5N6E8,43.5682285,-79.7634300
3364,Bobwhite Mews,L5N6E8,43.5683109,-79.7633272
3360,Bobwhite Mews,L5N6E8,43.5684397,-79.7631528
3358,Bobwhite Mews,L5N6E8,43.5685079,-79.7630682
3356,Bobwhite Mews,L5N6E8,43.5685645,-79.7629924
951,Matheson Boulevard East,L4W 2R7,43.6321125,-79.6428308
2255,Dundas Street West,L5K 1R6,43.5334791,-79.6715740
5636,Glen Erin Drive,L5M 6B1,43.5656109,-79.7291876
6677,Meadowvale Town Centre Circle,L5N 2R5,43.5833848,-79.7593463
6677,Meadowvale Town Centre Circle,L5N 2R5,43.5828991,-79.7599482
6677,Meadowvale Town Centre Circle,L5N 2R5,43.5828058,-79.7599357
6855,Meadowvale Town Centre Circle,L5N 2R5,43.5839603,-79.7585894
6975,Meadowvale Town Centre Circle,L5N 2R5,43.5816202,-79.7577728
6975,Meadowvale Town Centre Circle,L5N 2R5,43.5810451,-79.7576405
6677,Meadowvale Town Centre Circle,L5N 2R5,43.5831100,-79.7596897
6677,Meadowvale Town Centre Circle,L5N 2R5,43.5827878,-79.7597782
6677,Meadowvale Town Centre Circle,L5N 2R5,43.5829897,-79.7599591
6975,Meadowvale Town Centre Circle,L5N 2R5,43.5815716,-79.7577361
6975,Meadowvale Town Centre Circle,L5N 2R5,43.5810700,-79.7576431
6855,Meadowvale Town Centre Circle,L5N 2R5,43.5839936,-79.7585298
6855,Meadowvale Town Centre Circle,L5N 2R5,43.5841195,-79.7585736
6855,Meadowvale Town Centre Circle,L5N 2R5,43.5840631,-79.7580639
777,Bancroft Drive,L5V 2Y6,43.6170038,-79.7036079
90,Burnhamthorpe Road West,L5B 3C3,43.5913040,-79.6370045
5975,Whittle Road,L4Z 3N1,43.6279910,-79.6756168
4106,Cawthra Road,L4Z 1A1,43.6098281,-79.6216679
700,Burnhamthorpe Road East,L4Y 2X3,43.6078114,-79.6176781
4141,Dixie Road,L4W 1V5,43.6256331,-79.6046391
376,Barondale Drive,L4Z 3V1,43.6211087,-79.6557911
135,Matheson Boulevard East,L4Z 1R2,43.6215050,-79.6658752
90,Burnhamthorpe Road West,L5B 1M5,43.5919689,-79.6358297
2,Robert Speck Parkway,L4Z 1H8,43.5963938,-79.6368824
155,Hillcrest Avenue,L5B 3Z2,43.5800998,-79.6251319
65,North Service Road,L5A 1A3,43.5718990,-79.5991434
255,North Service Road,L5A 1A5,43.5743763,-79.5945353
1485,Lakeshore Road East,L5E 3G2,43.5880193,-79.5502496
4765,Huron Heights Drive,L4Z 4G9,43.6083042,-79.6429486
4324,Wilcox Road,L4Z 1C2,43.6126351,-79.6292925
4316,Wilcox Road,L4Z 1C2,43.6124944,-79.6290504
4312,Wilcox Road,L4Z 1C2,43.6124384,-79.6288059
4300,Wilcox Road,L4Z 1C2,43.6122628,-79.6285561
4290,Wilcox Road,L4Z 1C2,43.6121210,-79.6283885
4288,Wilcox Road,L4Z 1C2,43.6120207,-79.6282559
4284,Wilcox Road,L4Z 1C2,43.6119213,-79.6281334
4278,Wilcox Road,L4Z 1C2,43.6117972,-79.6279902
4270,Wilcox Road,L4Z 1C2,43.6116851,-79.6278313
4264,Wilcox Road,L4Z 1C2,43.6115759,-79.6276809
1580,Meyerside Drive,L5T 1A3,43.6620148,-79.6508774
5235,Fairwind Drive,L5R 3L2,43.6059239,-79.6653193
5070,Fairwind Drive,L5R 2N4,43.6035512,-79.6614882
55,The Queensway West,L5B 1B5,43.5734035,-79.6096942
2340,Hurontario Street,L5B 1N1,43.5746001,-79.6097614
3065,Mavis Road,L5C 1T7,43.5690238,-79.6328743
3045,Mavis Road,L5C 1T7,43.5675641,-79.6336468
3050,Mavis Road,L5C 1T8,43.5660239,-79.6354708
915,Mcbride Avenue,L5C 1M1,43.5659577,-79.6448517
974,McBride Avenue,L5C 1L6,43.5636117,-79.6466668
3251,The Credit Woodlands,L5C 2J7,43.5573486,-79.6539190
3285,Mavis Road,L5C 1T7,43.5724432,-79.6407684
3300,Mavis Road,L5C 1T8,43.5716587,-79.6422728
4200,Beacon Lane,L5C 3V9,43.5750549,-79.6661912
6930,Forest Park Drive,L5N 6X7,43.5794076,-79.7780857
7270,Copenhagen Road,L5N 2C3,43.5935987,-79.7704332
2060,Stonehouse Crescent,L5H 3J1,43.5405722,-79.6335342
950,Burnhamthorpe Road West,L5C 3B4,43.5729193,-79.6570353
3573,Wolfedale Road,L5C 3T6,43.5745347,-79.6515658
4590,The Gallops,L5M 3A9,43.5611251,-79.6984568
3245,Colonial Drive,L5L 5G2,43.5240882,-79.6932475
3215,Thorncrest Drive,L5L 4K7,43.5330587,-79.7074998
3215,Thorncrest Drive,L5L 4K7,43.5331778,-79.7079476
4105,Colonial Drive,L5L 4E8,43.5323060,-79.7099189
4010,Loyalist Drive,L5L 3Y6,43.5329588,-79.7045607
4050A,Sladeview Crescent,L5L 5Y5,43.5257771,-79.7170224
6135,Lisgar Drive,L5N 7V2,43.5624127,-79.7624644
6234,Osprey Boulevard,L5N 5V5,43.5659978,-79.7587806
3446,Mavis Road,L5C 1T8,43.5741133,-79.6454906
3702,Mavis Road,L5C 1T8,43.5730389,-79.6449963
7370,Terragar Boulevard,L5N 7L8,43.5827858,-79.7891051
6770,Edenwood Drive,L5N 3B2,43.5785711,-79.7643905
3180,Aquitaine Avenue,L5N 3S5,43.5791207,-79.7682266
6735,Shelter Bay Road,L5N 2C5,43.5869782,-79.7630415
6325,Miller Grove Road,L5N 3K2,43.5727155,-79.7560067
2650,Gananoque Drive,L5N 2R2,43.5935439,-79.7608811
1742,Bristol Road West,L5M 1X9,43.5819537,-79.7054820
5440,Durie Road,L5M 2J5,43.5808330,-79.7026919
5180,Fallingbrook Drive,L5V 2C6,43.5858601,-79.6848578
1385,Sherwood Mills Boulevard,L5V 2B8,43.5829737,-79.6846143
2801,Castlebridge Drive,L5M 5J9,43.5682852,-79.7331446
5820,Glen Erin Drive,L5M 5J9,43.5693388,-79.7340936
5482,Middlebury Drive,L5M 5E8,43.5651610,-79.7226668
2640,Thomas Street,L5M 5G8,43.5665328,-79.7254340
6325,Montevideo Road,L5N 4G7,43.5867096,-79.7462810
1910,Broad Hollow Gate,L5L 3T4,43.5425578,-79.6676705
2280,Perran Drive,L5K 1M1,43.5301515,-79.6653027
2730,Thorn Lodge Drive,L5K 1L2,43.5221579,-79.6734173
3055,Vega Boulevard,L5L 5Y3,43.5170332,-79.6903398
1480,Chriseden Drive,L5H 1V4,43.5468220,-79.6136374
930,Owenwood Drive,L5H 3J2,43.5253485,-79.6093375
309,Rathburn Road West,L5B 4C1,43.5922046,-79.6514066
5800,Montevideo Road,L5N 2S1,43.5781082,-79.7504725
5940,Montevideo Road,L5N 3J5,43.5820461,-79.7479322
3025,Ridgeway Drive,L5L 5P8,43.5194638,-79.6867316
3047,Vega Boulevard,L5L 5Y3,43.5161286,-79.6896563
3051,Vega Boulevard,L5L 5Y3,43.5168079,-79.6887999
3255,Dundas Street West,L5L 5V7,43.5176552,-79.6882968
89,Vista Boulevard,L5M 1V8,43.5756510,-79.7255313
1325,Indian Road,L5H 1S3,43.5377014,-79.6278629
2640,South Sheridan Way,L5J 2M4,43.5107898,-79.6611706
2065,Leanne Boulevard,L5K 2L6,43.5248980,-79.6517840
2681,Dundas Street West,L5K 1R9,43.5237200,-79.6815498
3000,Woodchester Drive,L5L 2R4,43.5273872,-79.6787692
2255,Dundas Street West,L5K 1R6,43.5333033,-79.6713559
2160,Dunwin Drive,L5L 5M8,43.5334053,-79.6729186
2840,Duncairn Drive,L5M 5C6,43.5594165,-79.7236223
2665,Erin Centre Boulevard,L5M 5H6,43.5602683,-79.7171432
72,Joymar Drive,L5M 1G3,43.5785737,-79.7200078
2365,Credit Valley Road,L5M 4E8,43.5544571,-79.7070265
32,Suburban Drive,L5N 1G6,43.5932204,-79.7227243
895,Ceremonial Drive,L5R 3B5,43.6038378,-79.6780895
5915,Rodeo Drive,L5R 4C1,43.6116177,-79.6886761
5900,Rodeo Drive,L5R 3S9,43.6122437,-79.6904791
5995,Mavis Road,L5R 3T7,43.6123851,-79.6946964
1075,Swinbourne Drive,L5V 1B9,43.6092783,-79.7074619
1145,Swinbourne Drive,L5V 1C2,43.6062431,-79.7069719
6350,Cantay Road,L5R 4E2,43.6195185,-79.6967916
2480,Thorn Lodge Drive,L5K 1K5,43.5266221,-79.6717556
3351,Kings Masting Crescent,L5L 1G5,43.5320517,-79.6848086
2300,Burnhamthorpe Road West,L5L 3T6,43.5430662,-79.6893522
2126,Burnhamthorpe Road West,L5L 3A2,43.5448087,-79.6816208
2146,Burnhamthorpe Road West,L5L 5Z5,43.5458644,-79.6832488
4140,Glen Erin Drive,L5L 2Z3,43.5455243,-79.6964834
2250,Council Ring Road,L5L 1B7,43.5380179,-79.6758018
3767,Nashua Drive,L4V 1R3,43.7167601,-79.6229933
3295,Derry Road East,L4T 1A8,43.7105828,-79.6358415
3160,Derry Road East,L4T 1A9,43.7065958,-79.6359051
7071,Airport Road,L4T 4J3,43.7053325,-79.6425450
880,Riley Court,L4Y 4E2,43.5988949,-79.5961828
1156,Dundas Street East,L4Y 2C2,43.6036670,-79.5870575
2561,Stanfield Road,L4Y 1S4,43.6027888,-79.5880909
1195,Clarkson Road North,L5J 2W1,43.5216434,-79.6262071
884,Southdown Road,L5J 2Y4,43.5077965,-79.6275381
900,Southdown Road,L5J 2Y4,43.5088517,-79.6289419
2105,Royal Windsor Drive,L5J 1K5,43.5101004,-79.6319873
3125,Dundas Street West,L5L 3R8,43.5204192,-79.6850875
2110,Dundas Street East,L4X 1L9,43.6239584,-79.5667119
5700,Mavis Road,L5V 2N6,43.6070682,-79.6902844
801,Matheson Boulevard West,L5V 2N6,43.6062448,-79.6914603
5650,Mavis Road,L5V 2N6,43.6065622,-79.6892491
2475,Truscott Drive,L5J 2B5,43.5115811,-79.6503215
2301,Royal Windsor Drive,L5J 1K5,43.5064009,-79.6370893
2460,Truscott Drive,L5J 3Z8,43.5103845,-79.6481367
2125,North Sheridan Way,L5K 1A3,43.5236077,-79.6512352
1445,Lewisham Drive,L5J 3R2,43.5166227,-79.6444383
1450,Lewisham Drive,L5J 3R3,43.5157963,-79.6462298
2333,Truscott Drive,L5J 4B7,43.5143396,-79.6459727
2360,Bonner Road,L5J 2C7,43.5145240,-79.6479854
1325,Bodley Road,L5J 3X1,43.5062124,-79.6506409
2425,Truscott Drive,L5J 2B4,43.5127111,-79.6480394
2524,Bromsgrove Road,L5J 1L8,43.5039129,-79.6453517
1455,Samuelson Circle,L5N 7Z2,43.6242080,-79.7463987
6900,Gooderham Estate Boulevard,L5W 1B4,43.6273575,-79.7229119
890,Old Derry Road West,L5W 1A1,43.6273109,-79.7249839
110,Courtneypark Dr E,L5T 2Y3,43.6379254,-79.6907713
6525,Millcreek Drive,L5N7K6,43.5914072,-79.7429990
6750,Mississauga Road,L5N 2L3,43.6012226,-79.7430294
7005,Century Avenue,L5N 7K2,43.6019055,-79.7522687
6740,Campobello Road,L5N 2L8,43.6099626,-79.7320340
1940,Argentia Road,L5N 1P9,43.6009010,-79.7378279
2100,Meadowvale Boulevard,L5N 7J9,43.6094305,-79.7566846
6774,Financial Drive,L5N 7J6,43.6086057,-79.7417694
7075,Financial Drive,L5N 7H5,43.6140683,-79.7502535
7037,Financial Drive,L5N 7H5,43.6129821,-79.7490987
2900,Argentia Road,L5N 7X9,43.5986127,-79.7780983
7540,Winston Churchill Boulevard,L5N8E1,43.5974484,-79.7853446
75,Derry Road West,L5W 1G3,43.6451806,-79.7082856
7040,Edwards Boulevard,L5S 1Z1,43.6490316,-79.7048036
7150,Edwards Boulevard,L5S 1Z1,43.6504787,-79.7085726
270,Export Blvd,L5S 1Y9,43.6513635,-79.7015302
2301,Benedet Drive,L5J 4J8,43.5161119,-79.6553076
1780,Meadowvale boulevard,L5N 7K8,43.6138038,-79.7470789
1830,Meadowvale boulevard,L5N 7L2,43.6142897,-79.7493377
1250,South Service Road,L5E 1V4,43.5929642,-79.5685611
50,Britannia Road East,L4Z 2G2,43.6268371,-79.6777156
60,Britannia Road East,L4Z 3W7,43.6275443,-79.6770387
375,Brunel Road,L4Z 1Z5,43.6319344,-79.6673080
450,Hillcrest Avenue,L5B 4J3,43.5729499,-79.6301265
310,Brunel Road,L4Z 2C2,43.6300220,-79.6686211
240,Traders Boulevard East,L4Z 1W7,43.6274944,-79.6685152
5671,McAdam Road,L4Z 1N9,43.6249079,-79.6659510
5500,Rose Cherry Place,L4Z 4B6,43.6314534,-79.6537283
199,Rathburn Road West,L5B 4C1,43.5942098,-79.6493718
5925,Tomken Road,L4W 4L8,43.6453907,-79.6565664
1285,Shawson Drive,L4W 1C4,43.6494851,-79.6478343
6155,Tomken Road,L5T 1X3,43.6493339,-79.6615067
6090,Dixie Road,L5T 1A6,43.6572005,-79.6508847
1664,Meyerside Drive,L5T 1A3,43.6632053,-79.6497476
1682,Meyerside Drive,L5T 1A3,43.6636233,-79.6491904
6265,Netherhart Road,L5T 1A2,43.6678657,-79.6419538
6275,Netherhart Road,L5T 1A2,43.6681653,-79.6421998
6289,Netherhart Road,L5T 1A2,43.6683397,-79.6425770
6291,Netherhart Road,L5T 1A2,43.6685246,-79.6428777
6295,Netherhart Road,L5T 1A2,43.6686658,-79.6431884
6315,Netherhart Road,L5T 1A2,43.6688124,-79.6435716
6329,Netherhart Road,L5T 1A2,43.6690799,-79.6437143
959,Derry Road East,L5T 2J7,43.6648755,-79.6871096
7895,Tranmere Drive,L5S 1V9,43.6796207,-79.6709199
5430,Timberlea Boulevard,L4W 2T7,43.6317342,-79.6460417
5599,Ambler Drive,L4W 3Z1,43.6459685,-79.6391614
1280,Matheson Boulevard East,L4W 2Z7,43.6391467,-79.6346420
1194,Matheson Boulevard East,L4W 1Y2,43.6373731,-79.6369498
5266,Timberlea Boulevard,L4W 2S6,43.6282464,-79.6424325
5246,Timberlea Boulevard,L4W 2S5,43.6279136,-79.6418013
5226,Timberlea Boulevard,L4W 2S5,43.6275455,-79.6413003
5206,Timberlea Boulevard,L4W 2S5,43.6270624,-79.6408304
5190,Timberlea Boulevard,L4W 2S5,43.6266261,-79.6403624
5170B,Timberlea Boulevard,L4W 2S5,43.6263549,-79.6398246
5150,Timberlea Boulevard,L4W 2S5,43.6259251,-79.6391912
5132,Timberlea Boulevard,L4W 2S5,43.6257528,-79.6386275
5122,Timberlea Boulevard,L4W 2S5,43.6255645,-79.6383605
5112,Timberlea Boulevard,L4W 2S5,43.6250278,-79.6383812
5106,Timberlea Boulevard,L4W 2S5,43.6247831,-79.6377973
5100,Timberlea Boulevard,L4W 2S5,43.6240295,-79.6365865
5040,Timberlea Boulevard,L4W 2S5,43.6253958,-79.6340424
5280,Maingate Drive,L4W 1G5,43.6332290,-79.6324547
5280,Dixie Road,L4W 2A7,43.6406139,-79.6291113
1785,Matheson Boulevard,L4W 1V2,43.6396410,-79.6212527
1500,Matheson Boulevard East,L4W 3Z4,43.6426708,-79.6288932
5165,Dixie Road,L4W 4G1,43.6399720,-79.6246143
4544,Eastgate Parkway,L4W 3W6,43.6381342,-79.6115811
4567,Dixie Road,L4W 1T0,43.6361416,-79.6155349
1550,South Gateway Road,L4W 5G6,43.6321258,-79.6141856
5090,Commerce Boulevard,L4W 5M4,43.6639084,-79.5942099
5580,Explorer Drive,L4W 4Y1,43.6588515,-79.6106658
5800,Explorer Drive,L4W 5K9,43.6560109,-79.6165456
5900,Explorer Drive,L4W 5L2,43.6548892,-79.6156328
5990,Explorer Drive,L4W 5G3,43.6543952,-79.6146281
5825,Explorer Drive,L4W 5P6,43.6543258,-79.6195845
5825,Dixie Road,L4W 4V7,43.6521938,-79.6417893
2525,Royal Windsor Drive,L5J 1K9,43.5006341,-79.6416887
7171,Torbram Road,L4T 3W4,43.6981688,-79.6559748
6875,Professional Court,L4V 1Y3,43.7089660,-79.6320347
6890,Professional Court,L4V 1X6,43.7081190,-79.6321564
6836,Professional Court,L4V 1X6,43.7075165,-79.6310944
6815,Professional Court,L4V 1X6,43.7075217,-79.6298271
6445,Airport Road,L4V 1E4,43.6931218,-79.6273747
3110,American Drive,L4V 1T2,43.6908634,-79.6189519
5915,Airport Road,L4V 1T1,43.6873067,-79.6080352
7207,Cambrett Drive,L4T 2R3,43.7155874,-79.6401512
3470,Clara Drive,L4T 2C7,43.7211190,-79.6461465
7425,Netherwood Road,L4T 2N7,43.7185445,-79.6480316
7455,Redstone Road,L4T 2B3,43.7157527,-79.6527915
3131,Morning Star Drive,L4T 1X3,43.7147200,-79.6484334
1850,Rathburn Road East,L4W 3Z3,43.6348551,-79.5965243
4100,Ponytrail Drive,L4W 3Z3,43.6345827,-79.5951436
3111,Universal Drive,L4X 2E2,43.6247138,-79.5722827
1110,Caven Street,L5G 4N4,43.5698065,-79.5707757
1148,Lower Village Crescent,L5E 3K7,43.5731643,-79.5694707
1172,Lower Village Crescent,L5E 3K7,43.5733467,-79.5699382
1105,Upper Village Drive,L5E 3H9,43.5753212,-79.5672460
1218,West Shore Drive,L5E 3H7,43.5766691,-79.5693050
1246,West Shore Drive,L5E 3H7,43.5771315,-79.5700634
1244,Parkwest Place,L5E 3K2,43.5753195,-79.5713126
1285,Lakeshore Road East,L5E 1G4,43.5827616,-79.5531757
302,City Centre Drive,L5B 3C9,43.5882190,-79.6445289
2495,Credit Valley Road,L5M 4G8,43.5511906,-79.7097770
5610,Heatherleigh Avenue.,L5V 2V7,43.6005808,-79.6900840
945,Bloor Street East,L4Y 2M8,43.6075788,-79.6057816
2214,Cliff Road,L5A 2N9,43.5799373,-79.5995966
11,Thomas Street,L5M 1Y4,43.5798053,-79.7119581
4207,Wilcox Road,L4Z 1B9,43.6110187,-79.6257527
4201,Wilcox Road,L4Z 1B9,43.6108710,-79.6255083
4246,Wilcox Road,L4Z 1C2,43.6113314,-79.6272719
4240,Wilcox Road,L4Z 1C2,43.6112050,-79.6270781
4234,Wilcox Road,L4Z 1C2,43.6110765,-79.6268862
4228,Wilcox Road,L4Z 1C2,43.6109763,-79.6266858
4224,Wilcox Road,L4Z 1C2,43.6108507,-79.6265548
4220,Wilcox Road,L4Z 1C2,43.6107363,-79.6264034
4205,Woodington Drive,L4Z 1K2,43.6023707,-79.6351404
4233,Central Parkway East,L4Z 1M7,43.6057195,-79.6322165
385,Meadows Boulevard,L4Z 1G5,43.6060777,-79.6292855
4205,Woodington Drive,L4Z 1K2,43.6027838,-79.6347628
3590,Joan Drive,L5B 1T8,43.5888267,-79.6370366
3590,Joan Drive,L5B 1T8,43.5886321,-79.6369486
1235,Mississauga Valley Boulevard,L5A 3R8,43.5978835,-79.6229509
855,John Watt Boulevard,L5W 1G2,43.6323961,-79.7278181
3575,Fieldgate Drive,L4X 2J6,43.6276576,-79.5918349
4212,Cawthra Road,L4Z 1A1,43.6120523,-79.6245924
4206,Cawthra Road,L4Z 1A1,43.6119609,-79.6244771
4200,Cawthra Road,L4Z 1A1,43.6118693,-79.6243513
4196,Cawthra Road,L4Z 1A1,43.6117736,-79.6242310
4192,Cawthra Road,L4Z 1A1,43.6116808,-79.6240938
4148,Cawthra Road,L4Z 1A1,43.6108322,-79.6229327
4142,Cawthra Road,L4Z 1A1,43.6107443,-79.6228125
4136,Cawthra Road,L4Z 1A1,43.6106491,-79.6226784
4126,Cawthra Road,L4Z 1A1,43.6105395,-79.6225282
4246,Cawthra Road,L4Z 1A1,43.6127374,-79.6253616
4240,Cawthra Road,L4Z 1A1,43.6125988,-79.6251814
4326,Cawthra Road,L4Z 1A1,43.6124772,-79.6250726
4230,Cawthra Road,L4Z 1A1,43.6123451,-79.6249514
4216,Cawthra Road,L4Z 1A1,43.6121927,-79.6247242
4184,Cawthra Road,L4Z 1A1,43.6115838,-79.6239621
4180,Cawthra Road,L4Z 1A1,43.6115279,-79.6237845
4195,Wilcox Road,L4Z 1B9,43.6107897,-79.6253390
4191,Wilcox Road,L4Z 1B9,43.6106518,-79.6252241
4185,Wilcox Road,L4Z 1B9,43.6105580,-79.6250407
4176,Cawthra Road,L4Z 1A1,43.6113322,-79.6236589
4172,Cawthra Road,L4Z 1A1,43.6112117,-79.6233845
4166,Cawthra Road,L4Z 1A1,43.6110567,-79.6232826
4158,Cawthra Road,L4Z 1A1,43.6109103,-79.6231274
4120,Cawthra Road,L4Z 1A1,43.6104302,-79.6223669
4114,Cawthra Road,L4Z 1A1,43.6102880,-79.6222171
4175,Wilcox Road,L4Z 1B9,43.6104077,-79.6248326
4169,Wilcox Road,L4Z 1B9,43.6102548,-79.6245952
4163,Wilcox Road,L4Z 1B9,43.6101624,-79.6244188
4157,Wilcox Road,L4Z 1B9,43.6100555,-79.6242835
4153,Wilcox Road,L4Z 1B9,43.6099162,-79.6241259
4145,Wilcox Road,L4Z 1B9,43.6098010,-79.6239472
4135,Wilcox Road,L4Z 1B9,43.6096183,-79.6237226
4131,Wilcox Road,L4Z 1B9,43.6095602,-79.6235453
4121,Wilcox Road,L4Z 1B9,43.6094056,-79.6233935
4200,Wilcox Road,L4Z 1C1,43.6104601,-79.6260061
4196,Wilcox Road,L4Z 1C1,43.6103892,-79.6258751
4190,Wilcox Road,L4Z 1C1,43.6102806,-79.6257379
4184,Wilcox Road,L4Z 1C1,43.6101269,-79.6256629
225,Central Parkway West,L5B 3J5,43.5848500,-79.6363153
1760,Bough Beeches Boulevard,L4W 2B9,43.6356995,-79.6023359
4180,Wilcox Road,L4Z 1C1,43.6100830,-79.6254761
4176,Wilcox Road,L4Z 1C1,43.6100093,-79.6253581
4166,Wilcox Road,L4Z 1C1,43.6098890,-79.6252351
4164,Wilcox Road,L4Z 1C1,43.6098026,-79.6251130
4162,Wilcox Road,L4Z 1C1,43.6096853,-79.6250127
4154,Wilcox Road,L4Z 1C1,43.6095923,-79.6248487
4152,Wilcox Road,L4Z 1C1,43.6095347,-79.6246929
4148,Wilcox Road,L4Z 1C1,43.6094359,-79.6245524
4132,Wilcox Road,L4Z 1C1,43.6091669,-79.6241565
4122,Wilcox Road,L4Z 1C1,43.6090621,-79.6240059
4308,Wilcox Road,L4Z 1C2,43.6123404,-79.6286955
3071,Haines Road,L4Y 4B2,43.5993185,-79.5982375
3057,Haines Road,L4Y 4B2,43.5990305,-79.5978834
850,Dundas Street East,L4Y 2B8,43.5977521,-79.5954982
920,Dundas Street East,L4Y 2H5,43.5994958,-79.5941247
3405,South Millway,L5L 3R1,43.5449851,-79.6769369
915,Inverhouse Drive,L5J 4B2,43.5123528,-79.6248910
915,Inverhouse Drive,L5J 4B2,43.5118850,-79.6243784
1800,Lakeshore Road West,L5J 1J7,43.5160560,-79.6238161
915,Inverhouse Drive,L5J 4B2,43.5115948,-79.6249937
915,Inverhouse Drive,L5J 4B2,43.5124127,-79.6240277
915,Inverhouse Drive,L5J 4B2,43.5120835,-79.6246411
915,Inverhouse Drive,L5J 4B2,43.5116661,-79.6241843
2266,Council Ring Road,L5L 1C1,43.5361347,-79.6760617
1180,Dundas Street East,L4Y 2C1,43.6043825,-79.5886743
1161,Dundas Street East,L4Y 2C5,43.6048721,-79.5897178
1248,Dundas Street East,L4Y 2C1,43.6056637,-79.5856570
1706,Dundas Street East,L4X 2Z3,43.6158447,-79.5759202
1655,Dundas Street East,L4X 1L5,43.6152243,-79.5788179
1825,Dundas Street East,L4X 2X1,43.6195170,-79.5750935
1886,Dundas Street West,L4X 1L9,43.6197190,-79.5720244
2150,Dundas Street East,L4X 1L9,43.6250575,-79.5658428
330,Central Parkway West,L5B 3K6,43.5813328,-79.6361708
5735,Whitehorn Avenue,L5V 2A9,43.5953708,-79.7015607
5785,Whitehorn Avenue,L5V 2A9,43.5963345,-79.7023513
6055,Midfield Road,L4W 2P7,43.6715225,-79.6270120
6120,Midfield Road,L5P 1B1,43.6751563,-79.6277339
590,Lolita Gardens,L5A 4N8,43.5931573,-79.6037359
460,Silver Creek Boulevard,L5A 2B3,43.5928912,-79.6102739
1185,Mississauga Valley Boulevard,L5A 3R7,43.5992695,-79.6221589
4081,Wilcox Road,L4Z 1B8,43.6083582,-79.6220958
4101,Wilcox Road,L4Z 1B8,43.6087813,-79.6227360
4093,Wilcox Road,L4Z 1B8,43.6085999,-79.6223718
4112,Wilcox Road,L4Z 1B7,43.6086849,-79.6234732
4115,Wilcox Road,L4Z 1B8,43.6090148,-79.6230909
4106,Wilcox Road,L4Z 1B7,43.6085581,-79.6233046
4107,Wilcox Road,L4Z 1B8,43.6088952,-79.6228979
4097,Wilcox Road,L4Z 1B8,43.6086654,-79.6225782
4096,Wilcox Road,L4Z 1B7,43.6083197,-79.6229666
4100,Wilcox Road,L4Z 1B7,43.6084410,-79.6231301
4071,Wilcox Road,L4Z 1B8,43.6082665,-79.6219170
4087,Wilcox Road,L4Z 1B8,43.6084645,-79.6222363
4065,Wilcox Road,L4Z 1B8,43.6081271,-79.6218434
4072,Wilcox Road,L4Z 1B7,43.6078170,-79.6224457
4030,Wilcox Road,L4Z 1B7,43.6069333,-79.6209817
4034,Wilcox Road,L4Z 1B7,43.6069845,-79.6211949
4040,Wilcox Road,L4Z 1B7,43.6072877,-79.6216075
4026,Wilcox Road,L4Z 1B7,43.6068240,-79.6208254
4046,Wilcox Road,L4Z 1B7,43.6073834,-79.6218119
4060,Wilcox Road,L4Z 1B7,43.6075927,-79.6221218
4054,Wilcox Road,L4Z 1B7,43.6075040,-79.6219740
4004,Wilcox Road,L4Z 1B7,43.6065335,-79.6205560
4068,Wilcox Road,L4Z 1B7,43.6076629,-79.6222927
4038,Wilcox Road,L4Z 1B7,43.6071727,-79.6214762
4092,Wilcox Road,L4Z 1B7,43.6082023,-79.6228597
4082,Wilcox Road,L4Z 1B7,43.6080086,-79.6227561
4036,Wilcox Road,L4Z 1B7,43.6070843,-79.6213382
4076,Wilcox Road,L4Z 1B7,43.6080007,-79.6225383
4008,Wilcox Road,L4Z 1B7,43.6067036,-79.6206838
4054,Cawthra Road,L4Z 1A1,43.6090281,-79.6204552
4055,Wilcox Road,L4Z 1B8,43.6078842,-79.6216135
4066,Cawthra Road,L4Z 1A1,43.6093433,-79.6208620
4076,Cawthra Road,L4Z 1A1,43.6096108,-79.6210052
4058,Cawthra Road,L4Z 1A1,43.6091103,-79.6206172
4048,Cawthra Road,L4Z 1A1,43.6089213,-79.6202181
4062,Cawthra Road,L4Z 1A1,43.6092730,-79.6206433
515,Hartsdale Avenue,L5G 2G7,43.5733302,-79.5797206
498,Hartsdale Avenue,L5G 2G6,43.5723594,-79.5795797
625,Atwater Avenue,L5G 2A8,43.5743715,-79.5739834
1149,Upper Village Drive,L5E 3H9,43.5750780,-79.5679856
753,Village Green Boulevard,L5E 3K2,43.5744684,-79.5711233
659,Dodsworth Crescent,L4Y 2H6,43.5991093,-79.6031708
647,Dodsworth Crescent,L4Y 2H6,43.5993809,-79.6029101
3154,Rymal Road,L4Y 3B7,43.5996464,-79.6024355
653,Dodsworth Crescent,L4Y 2H6,43.5992711,-79.6030967
641,Dodsworth Crescent,L4Y 2H6,43.5994924,-79.6027294
3160,Rymal Road,L4Y 3B7,43.5997486,-79.6026481
30,Eglinton Avenue West,L5R 3E7,43.6060216,-79.6528599
131,Eglinton Avenue East,L4Z 1B2,43.6093354,-79.6518837
4559,Hurontario Street,L4G 3X3,43.6078956,-79.6499143
3730,Corliss Crescent,L4T 2Z4,43.7277516,-79.6352987
50,Bristol Road West,L5R 3K3,43.6122110,-79.6640532
7050,McLaughlin Road,L5W 1W6,43.6369275,-79.7183287
6745,Mavis Road,L5W 1L9,43.6256750,-79.7136966
730,Courtneypark Drive West,L5W 1L9,43.6235017,-79.7091013
155,Square One Drive,L5B 0E2,43.5957545,-79.6447292
3240,Erin Centre Boulevard,L5M 7T9,43.5464550,-79.7283311
3041,Mississauga Road,L5L 0B7,43.5433813,-79.6591323
50,High Street East,L5G 1K1,43.5543153,-79.5851718
12,Helene Street North,L5G 3B5,43.5545658,-79.5849968
11,Peter Street South,L5H 2G1,43.5486107,-79.5881529
1303,Lakeshore Road East,L5E 1G5,43.5834619,-79.5528216
909,Lakeshore Road East,L5E 1E2,43.5746172,-79.5616229
1232,West Shore Drive,L5E 3H7,43.5769191,-79.5696745
1000,Lakeshore Road East,L5E 1E4,43.5759551,-79.5583930
3415,Etude Drive,L4T 1T5,43.7165170,-79.6376386
1725,Mississauga Road,L5H 2K4,43.5510995,-79.6224621
277,Mississauga Valley Boulevard,L5A 1Y6,43.5894019,-79.6209408
515,Mississauga Valley Boulevard,L5A 3G6,43.5931231,-79.6136486
169,McGill Street,L5A 1V1,43.5828749,-79.6108232
3066,Given Road,L5A 2N3,43.5870829,-79.6120090
149,McGill Street,L5A 1V1,43.5824303,-79.6112957
515,Tedwyn Drive,L5A 1J8,43.5836082,-79.5930791
1256,Eglinton Avenue West,L5M 2B5,43.5784201,-79.6840448
1060,White Clover Way,L5V 1G7,43.5814369,-79.6729921
1342,Edenrose Street,L5V 1K9,43.5792561,-79.6754270
33,Queensway West,L5B 1B5,43.5735311,-79.6087814
3700,Trelawny Circle,L5N 5J7,43.5744111,-79.7717059
1752,Coram Crescent,L4X 1K9,43.6158503,-79.5740605
1746,Coram Crescent,L4X 1K9,43.6156873,-79.5742217
1760,Coram Crescent,L4X 1K9,43.6160036,-79.5738993
1734,Coram Crescent,L4X 1K9,43.6155190,-79.5744085
3345,Escada Drive,L5M 7V5,43.5478799,-79.7356413
3050,Artesian Drive,L5M 7P5,43.5453502,-79.7146646
3270,Tacc Drive,L5M 0H3,43.5504540,-79.7337288
2800,Erin Centre Boulevard,L5M 6R5,43.5555562,-79.7175640
3460,Aquinas Avenue,L5M 7L2,43.5405780,-79.7225673
3325,Artesian Drive,L5M 7J8,43.5430737,-79.7194410
3955,Erin Centre Boulevard,L5M 0H1,43.5405207,-79.7396749
79,Cedarglen Gate,L5C 4S3,43.5584348,-79.6426708
770,Dundas Street West,L5C 1C2,43.5636098,-79.6347162
635,Willowbank Trail,L4W 3L6,43.6132056,-79.6202476
665,Willowbank Trail,L4W 3L6,43.6133309,-79.6217712
1180,Mississauga Valley Boulevard,L5A 3M9,43.6000605,-79.6233096
1065,Mississauga Valley Boulevard,L5A 2A1,43.6019084,-79.6190020
1201,Hurontario Street,L5G 3H2,43.5592905,-79.5865649
20,Forest Avenue,L5G 1K7,43.5582940,-79.5827241
14,Stavebank Road South,L5G 2T1,43.5504256,-79.5843505
152,Lakeshore Road East,L5G 1E9,43.5562230,-79.5810283
790,Paisley Boulevard West,L5C 3P5,43.5591422,-79.6299757
1280,Cobalt Street,L5H 4L8,43.5466337,-79.6055449
1376,Glenwood Drive,L5G 2X1,43.5567548,-79.5976484
3010,The Collegeway,L5L 4X9,43.5302200,-79.6926936
2386,Haines Road,L4Y 1Y6,43.5930018,-79.5910355
1971,Lakeshore Road West,L5J 1J6,43.5128504,-79.6284119
3700,Dunrankin Drive,L4T 1V9,43.7226455,-79.6298636
850,Enola Avenue,L5G 4B2,43.5625938,-79.5678335
4046,Erin Mills Parkway,L5L 2W7,43.5489692,-79.6880161
3030,Erindale Station Road,L5C 2T3,43.5575870,-79.6441043
715,Central Parkway West,L5B 4L1,43.5771293,-79.6444298
6509,Glen Erin Drive,L5N 8P9,43.5828227,-79.7529543
3420,Trelawny Circle,L5N 6N6,43.5719737,-79.7689857
3221,Derry Road West,L5N 7L7,43.5838709,-79.7779233
6755,Lisgar Drive,L5N 6S9,43.5726511,-79.7777718
7185,Rosehurst Drive,L5N 7G6,43.5811415,-79.7884697
2021,Dundas Street,L5K 1R2,43.5390758,-79.6673186
345,Fairview Road West,L5B 3W5,43.5791354,-79.6330158
2165,Erin Mills Parkway,L5K1T7,43.5274787,-79.6516259
2657,Dundas Street West,L5K 1R9,43.5245417,-79.6811321
4105,Colonial Drive,L5L4E8,43.5319236,-79.7101727
3071,Palstan Road,L4Y 2Z7,43.6060564,-79.5912287
1300,McBride Avenue,L5C 1M8,43.5586972,-79.6565923
4350,Mississauga Road,L5M 7C8,43.5622759,-79.6886894
1880,Sismet Road,L4W 1W9,43.6487697,-79.6175253
5750,Explorer Drive,L4W 0B1,43.6566113,-79.6152106
6133,Glen Erin Drive,L5N 2T7,43.5777996,-79.7412582
1715,Willow Way,L5M 3W5,43.5880343,-79.7104614
5850,River Grove Avenue,L5M 4W2,43.5917706,-79.7115787
5750,River Grove Avenue,L5M 4R5,43.5888476,-79.7091079
1525,Samuelson Circle,L5N 7Z1,43.6231751,-79.7475742
7640,Anaka Drive,L4T 3H7,43.7225465,-79.6533383
1500,Dundas Street East,L4X 1L4,43.6089982,-79.5774439
2035,Lushes Avenue,L5J 1H3,43.5105420,-79.6284107
325,Burnhamthorpe Road West,L5B 3R2,43.5868332,-79.6443615
620,Twain Avenue,L5W 1M1,43.6402587,-79.7236436
3600,Chiplow Road,N4X 2P9,43.6247094,-79.5960459
346,Marf Avenue,L5G 1T1,43.5655279,-79.5774162
2100,Burnhamthorpe Road West,L5L 3N1,43.5463054,-79.6820864
1569,Cormack Crescent,L5E 2P8,43.5959463,-79.5659252
5570,Explorer Drive,L4W 5J7,43.6582432,-79.6097759
1198,Alexandra Avenue,L5E 2A5,43.5780941,-79.5672064
70,Mineola Road East,L5G 2E5,43.5623897,-79.5874097
787,Bancroft Drive,L5V 2Y6,43.6181787,-79.7051750
1290,Kelly Road,L5J 3V1,43.5087909,-79.6463328
1490,Ogden Avenue,L5E 2H8,43.5852242,-79.5720433
3180,Laird Road,L5L 6A5,43.5210747,-79.6888834
3255,Dundas Street West,L5L 5V7,43.5172704,-79.6883174
5800,Mavis Road,L5V 3B7,43.6078418,-79.6913843
5860,Mavis Road,L5V 3B7,43.6089556,-79.6921076
6965,Professional Court,L4V 1V3,43.7095157,-79.6345554
3050,Argentia Road,L5N 8E1,43.5955904,-79.7840509
1352,Lakeshore Road East,L5E 1E9,43.5836357,-79.5503774
345,Huntington Ridge Drive,L5R 1R6,43.5965958,-79.6578900
5510,Mavis Road,L5V 2X5,43.6047182,-79.6869872
60,South Service Road,L5G 2R9,43.5688646,-79.5961422
1640,Carmen Drive,L5G 3Z1,43.5751441,-79.5911450
6440,Lisgar Drive,L5N 6X3,43.5650466,-79.7696107
2170,South Sheridan Way,L5J 2M4,43.5205174,-79.6484234
6440,Lisgar Drive,L5N 6X3,43.5653236,-79.7699984
3800,Brandon Gate,L4T 3V9,43.7322348,-79.6409725
3615,Morning Star Drive,L4T 1Y4,43.7254990,-79.6367592
550,Courtneypark Drive West,L5W 1L9,43.6245878,-79.7030557
310,Bristol Road East,L4Z 3V5,43.6151534,-79.6548229
175,Nahani Way,L4Z 3J6,43.6138110,-79.6531447
307,Lakeshore Road East,L5G 1H3,43.5612261,-79.5749899
315,Lakeshore Road East,L5G 1H3,43.5615141,-79.5747202
257,Lakeshore Road East,L5G 1G8,43.5597509,-79.5765259
2455,Cashmere Avenue,L5B 2M7,43.5650271,-79.6253951
205,North Service Road,L5A 1A4,43.5735625,-79.5952994
3675,Sawmill Valley Drive,L5L 2Z5,43.5530866,-79.6808145
308,Lakeshore Road East,L5G 1H4,43.5617450,-79.5752222
1255,Old Derry Road,L5N 6R4,43.6235610,-79.7353189
1870,Matheson Boulevard,L4W 0B3,43.6384108,-79.6189481
4567,Dixie Road,M0R 8T0,43.6368287,-79.6153392
1510,Aimco Boulevard,L4W 5K1,43.6382285,-79.6229529
4155,Elora Drive,L5B 3N4,43.5852618,-79.6523265
98,Wanita Road,L5G 1B8,43.5626003,-79.5718717
1150,Dream Crest Road,L5V 1N6,43.5887389,-79.6825386
5187,Fallingbrook Drive,L5V 1N7,43.5871574,-79.6834565
329,North Service Road,L5A 1A4,43.5759425,-79.5924722
2473,Rosemary Drive,L5C 1X1,43.5582399,-79.6351119
2470,Rosemary Drive,L5C 1X2,43.5570858,-79.6364850
3225,Erindale Station Road,L5C 1Y5,43.5624224,-79.6468536
280,Kingsbridge Garden Circle,L5R 1L3,43.5993107,-79.6561997
5875,Airport Road,L4V 1N1,43.6870137,-79.6039193
3240,Garthwood Road,L5L 5A3,43.5242677,-79.6950946
5187,Fallingbrook Drive,L5V1N7,43.5870430,-79.6836335
1390,Ogden Avenue,L5E 2H8,43.5837424,-79.5700363
7040,Financial Drive,L5N 7H5,43.6122115,-79.7506327
1500,Ogden Avenue,L5E 2H8,43.5864013,-79.5738535
1570,Dundas Street East,L4X 1L4,43.6103361,-79.5758389
570,Lolita Gardens,L5A 0A1,43.5927340,-79.6041967
5700,Mavis Road,L5V 2N6,43.6072890,-79.6902584
1324,Lorne Park Road,L5H 3B1,43.5313137,-79.6243167
486,Paisley Boulevard West,L5B 2M4,43.5672053,-79.6240725
2473,Thorn Lodge Drive,L5K 1K8,43.5272977,-79.6727741
3055,Pepper Mill Court,L5L 4X5,43.5400959,-79.7070651
145,Windy Oaks Drive,L5G 1Z4,43.5631650,-79.5855840
1530,Springwell Avenue,L5J 3H6,43.5245290,-79.6392413
2438,Glengarry Road,L5C 1Y2,43.5533396,-79.6377997
155,North Service Road,L5A 1A2,43.5719950,-79.5966433
589,North Service Road,L5A 1B2,43.5817814,-79.5863258
7635,Darcel Avenue,L4T 2Y2,43.7295061,-79.6352052
3545,Morning Star Drive,L4T 1Y3,43.7246855,-79.6403568
1126,Fewster Drive,L4W 2A4,43.6261214,-79.6222619
1550,Green Glade,L5J 1B5,43.5154802,-79.6097127
18,Brookside Drive,L5M 1H3,43.5850020,-79.7222244
249,Church Street,L5M 1N1,43.5810757,-79.7099997
223,Ceremonial Drive,L5R 2N3,43.6050532,-79.6632366
5100,Salishan Circle,L5R 3E3,43.6068651,-79.6589989
3200,Tomken Rd,L4Y2Y6,43.6031995,-79.6000490
3270,Tomken Road,L4Y 2Y7,43.6051040,-79.6022061
3535,Cedar Creek Drive,L4Y 2Y4,43.6070866,-79.6116981
3400,Ponytrail Drive,L4X 1V5,43.6272689,-79.5896301
2389,Cliff Road,L5A 2P1,43.5842900,-79.6010989
275,Rudar Road,L5A 1S2,43.5829294,-79.6063053
1690,Mazo Crescent,L5J 1Y8,43.5271789,-79.6321120
815,Atwater Avenue,L5E 1L8,43.5776757,-79.5715429
1305,Cawthra Road,L5G 4L1,43.5767233,-79.5733908
5555,Creditview Road,L5V 2B9,43.5899064,-79.6992630
2165,Breezy Brae Drive,L4Y 1N3,43.5904108,-79.5828537
100,Barondale Drive,L4Z 3R1,43.6176138,-79.6634752
200,Barondale Drive,L4Z 3N7,43.6182252,-79.6603715
2200,Eglinton Avenue West,L5M 2N1,43.5594464,-79.7037151
3020,Unity Drive,L5L4L1,43.5390135,-79.7049029
4140,Glen Erin Drive,L5L 2Z3,43.5454968,-79.6961319
6675,Montevideo Road,L5N 4E8,43.5916840,-79.7520397
6700,Edenwood Drive,L5N 3B2,43.5779722,-79.7619116
888,Clarkson Road South,L5J 2V3,43.5135680,-79.6221306
3625,Sawmill Valley Drive,L5L 2Z5,43.5524352,-79.6797736
3520,Queenston Drive,L5C 2G6,43.5616170,-79.6625720
2260,Argentia Road,L5N 6H7,43.5968011,-79.7484791
100,Queensway West,L5B 1B8,43.5716539,-79.6083690
6810,Professional Court,L4V 1X6,43.7070034,-79.6307700
1250,Melton Drive,L4Y 1L5,43.5987273,-79.5772649
4555,Tomken Road,L4W 1J9,43.6250854,-79.6252625
7097,Airport Road,L4T2G7,43.7063905,-79.6444861
20,Rosewood Avenue,L5G 3H9,43.5570951,-79.5823676
1510,Dundas Street East,L4X 1L4,43.6110251,-79.5790956
1187,Hurontario Street,L5G 3H2,43.5591606,-79.5865900
3022,Winston Churchill Boulevard,L5L 2V7,43.5231332,-79.6830608
30,John Street North,L5H 2E8,43.5498813,-79.5898787
310,Lakeshore Road West,L5H 1G8,43.5444941,-79.5939590
2575,Dundas Street West,L5K 2M6,43.5257195,-79.6804029
6800,Millcreek Drive,L5N 4J9,43.5945069,-79.7531282
121,Lakeshore Road West,L5H 1E9,43.5494303,-79.5876680
2250,Credit Valley Road,L5M 4L9,43.5558623,-79.7020282
250,Church Street,L5M 1N2,43.5806743,-79.7108968
121,Vista Boulevard,L5M 1W1,43.5759395,-79.7214781
2420,Homelands Drive,L5K 1H2,43.5234149,-79.6665219
235,Nahani Way,L4Z 3J6,43.6149491,-79.6508565
1051,Eglinton Avenue West,L5V 2W3,43.5845555,-79.6787407
1587,Keenleyside Court,L5G 2V8,43.5595128,-79.6054905
1260,Kamato Road,L4W 1Y1,43.6422137,-79.6391138
715,Dundas Street West,L5C 3B6,43.5652782,-79.6345676
915,Inverhouse Drive,L5J 4B2,43.5120324,-79.6243422
1563,Liveoak Drive,L5E 2X4,43.6007005,-79.5630546
1557,Liveoak Drive,L5E 2X4,43.6005435,-79.5632252
1551,Liveoak Drive,L5E 2X4,43.6004021,-79.5633985
1545,Liveoak Drive,L5E 2X4,43.6002599,-79.5635623
1539,Liveoak Drive,L5E 2X4,43.6001003,-79.5636928
1533,Liveoak Drive,L5E 2X4,43.5999529,-79.5638687
1529,Liveoak Drive,L5E 2X4,43.5998101,-79.5640575
1521,Liveoak Drive,L5E 2X4,43.5996576,-79.5642233
1617,Park Royale Boulevard,L5E 2Z9,43.5995108,-79.5643767
1635,Park Royale Boulevard,L5E 2Z9,43.5996681,-79.5647277
1520,Boxwood Way,L5E 2X9,43.5998270,-79.5646148
1526,Boxwood Way,L5E 2X9,43.5999617,-79.5644564
1532,Boxwood Way,L5E 2X9,43.6000735,-79.5643165
1538,Boxwood Way,L5E 2X9,43.6002055,-79.5641756
1606,Muir Road,L5E 2J4,43.5874192,-79.5764368
1164,Lower Village Crescent,L5E 3K7,43.5732222,-79.5697209
1166,Lower Village Crescent,L5E 3K7,43.5732548,-79.5697779
1168,Lower Village Crescent,L5E 3K7,43.5732862,-79.5698325
1170,Lower Village Crescent,L5E 3K7,43.5733170,-79.5698862
1142,Lower Village Crescent,L5E 3K7,43.5730506,-79.5695931
1146,Lower Village Crescent,L5E 3K7,43.5731284,-79.5695098
1144,Lower Village Crescent,L5E 3K7,43.5730911,-79.5695513
1140,Lower Village Crescent,L5E 3K7,43.5730301,-79.5696662
1627,Rometown Drive,L5E 2V4,43.6009660,-79.5610207
1236,Parkwest Place,L5E 3K2,43.5751566,-79.5714922
1232,Parkwest Place,L5E 3K2,43.5750655,-79.5715586
1242,Parkwest Place,L5E 3K2,43.5752792,-79.5713573
1238,Parkwest Place,L5E 3K2,43.5751981,-79.5714458
1234,Parkwest Place,L5E 3K2,43.5751153,-79.5715362
1240,Parkwest Place,L5E 3K2,43.5752392,-79.5714014
1230,Parkwest Place,L5E 3K2,43.5750306,-79.5715991
749,Village Green Boulevard,L5E 3K2,43.5744086,-79.5710217
751,Village Green Boulevard,L5E 3K2,43.5744390,-79.5710771
1251,Canterbury Road,L5G 4A6,43.5695925,-79.5784328
1255,Canterbury Road,L5G 4A6,43.5696799,-79.5786431
1269,Canterbury Road,L5G 4A6,43.5698325,-79.5788885
432,Aqua Drive,L5G 2B6,43.5699624,-79.5788570
438,Aqua Drive,L5G 2B6,43.5700820,-79.5787748
442,Aqua Drive,L5G 2B6,43.5702183,-79.5786832
448,Aqua Drive,L5G 2B6,43.5702835,-79.5784817
1489,Holburne Road,L5E 2L7,43.5871794,-79.5708465
1495,Holburne Road,L5E 2L7,43.5872780,-79.5709959
1070,Ella Avenue,L5E 1H5,43.5784407,-79.5582617
1343,Meredith Avenue,L5E 3J9,43.5826498,-79.5689066
3162,Rymal Road,L4Y 3B7,43.5997913,-79.6027234
3156,Rymal Road,L4Y 3B7,43.5996834,-79.6024948
643,Dodsworth Crescent,L4Y 2H6,43.5994518,-79.6027780
649,Dodsworth Crescent,L4Y 2H6,43.5993324,-79.6029686
655,Dodsworth Crescent,L4Y 2H6,43.5992258,-79.6031488
661,Dodsworth Crescent,L4Y 2H6,43.5990654,-79.6032235
459,Karen Park Crescent,L5A 3C9,43.5944140,-79.6168873
455,Karen Park Crescent,L5A 3C9,43.5943680,-79.6166888
375,Fiona Terrace,L5A 3E5,43.5943145,-79.6162958
371,Fiona Terrace,L5A 3E5,43.5941552,-79.6164179
365,Fiona Terrace,L5A 3E5,43.5940562,-79.6164906
361,Fiona Terrace,L5A 3E5,43.5939164,-79.6165482
355,Fiona Terrace,L5A 3E5,43.5937910,-79.6166104
349,Fiona Terrace,L5A 3E5,43.5936738,-79.6167085
345,Fiona Terrace,L5A 3E5,43.5935452,-79.6167661
341,Fiona Terrace,L5A 3E5,43.5934154,-79.6168483
335,Fiona Terrace,L5A 3E5,43.5932797,-79.6168995
331,Fiona Terrace,L5A 3E5,43.5931543,-79.6170190
325,Fiona Terrace,L5A 3E5,43.5930311,-79.6170800
321,Fiona Terrace,L5A 3E5,43.5928987,-79.6171281
315,Fiona Terrace,L5A 3E5,43.5927892,-79.6172169
311,Fiona Terrace,L5A 3E5,43.5926483,-79.6173263
305,Fiona Terrace,L5A 3E5,43.5925291,-79.6173960
301,Fiona Terrace,L5A 3E5,43.5923922,-79.6174789
791,Mississauga Valley Boulevard,L5A 1Z3,43.5987018,-79.6128435
3055,Haines Road,L4Y 4B2,43.5989914,-79.5978396
3059,Haines Road,L4Y 4B2,43.5990834,-79.5979643
3061,Haines Road,L4Y 4B2,43.5991226,-79.5980082
3063,Haines Road,L4Y 4B2,43.5991822,-79.5980719
3065,Haines Road,L4Y 4B2,43.5992190,-79.5981178
3069,Haines Road,L4Y 4B2,43.5992830,-79.5981962
3073,Haines Road,L4Y 4B2,43.5993766,-79.5983179
3075,Haines Road,L4Y 4B2,43.5994163,-79.5983645
3077,Haines Road,L4Y 4B2,43.5994682,-79.5984393
3079,Haines Road,L4Y 4B2,43.5995063,-79.5984787
3644,Golden Orchard Drive,L4Y 3J1,43.6168761,-79.6050374
3638,Golden Orchard Drive,L4Y 3J1,43.6167186,-79.6048032
3632,Golden Orchard Drive,L4Y 3J1,43.6166157,-79.6046611
3628,Golden Orchard Drive,L4Y 3J1,43.6165491,-79.6044592
1317,North Service Road,L4Y 1A9,43.5965790,-79.5697337
1311,North Service Road,L4Y 1A9,43.5964465,-79.5698656
1244,West Shore Drive,L5E 3H7,43.5770993,-79.5700110
1242,West Shore Drive,L5E 3H7,43.5770644,-79.5699519
1240,West Shore Drive,L5E 3H7,43.5770297,-79.5698936
1238,West Shore Drive,L5E 3H7,43.5769986,-79.5698395
1234,West Shore Drive,L5E 3H7,43.5769515,-79.5697289
1230,West Shore Drive,L5E 3H7,43.5768853,-79.5696186
1228,West Shore Drive,L5E 3H7,43.5768518,-79.5695616
1226,West Shore Drive,L5E 3H7,43.5768171,-79.5695046
1224,West Shore Drive,L5E 3H7,43.5767833,-79.5694462
1222,West Shore Drive,L5E 3H7,43.5767354,-79.5693950
1216,West Shore Drive,L5E 3H7,43.5766352,-79.5692469
1214,West Shore Drive,L5E 3H7,43.5765995,-79.5691871
1212,West Shore Drive,L5E 3H7,43.5765649,-79.5691265
1210,West Shore Drive,L5E 3H7,43.5765314,-79.5690698
1208,West Shore Drive,L5E 3H7,43.5764974,-79.5690140
1206,West Shore Drive,L5E 3H7,43.5764645,-79.5689556
1261,Dexter Crescent,L5G 4R7,43.5755207,-79.5748157
1107,Upper Village Drive,L5E 3H9,43.5752752,-79.5672978
1109,Upper Village Drive,L5E 3H9,43.5752267,-79.5673519
1111,Upper Village Drive,L5E 3H9,43.5751825,-79.5674015
1113,Upper Village Drive,L5E 3H9,43.5751416,-79.5674490
1115,Upper Village Drive,L5E 3H9,43.5750994,-79.5674946
1117,Upper Village Drive,L5E 3H9,43.5750601,-79.5675395
1119,Upper Village Drive,L5E 3H9,43.5750186,-79.5675857
1121,Upper Village Drive,L5E 3H9,43.5749740,-79.5676360
1123,Upper Village Drive,L5E 3H9,43.5749316,-79.5676851
1125,Upper Village Drive,L5E 3H9,43.5748907,-79.5677296
1151,Upper Village Drive,L5E 3H9,43.5751239,-79.5679234
1153,Upper Village Drive,L5E 3H9,43.5751660,-79.5678635
1155,Upper Village Drive,L5E 3H9,43.5752315,-79.5678233
1157,Upper Village Drive,L5E 3H9,43.5752916,-79.5678236
1551,Cormack Crescent,L5E 2P8,43.5953488,-79.5656263
1622,Brentano Boulevard,L4X 2Z8,43.6028783,-79.5630021
1521,Asgard Drive,L5E 2C1,43.5847167,-79.5752702
1525,Asgard Drive,L5E 2C1,43.5848002,-79.5754514
1531,Asgard Drive,L5E 2C1,43.5849094,-79.5755841
1535,Asgard Drive,L5E 2C1,43.5850274,-79.5757491
1541,Asgard Drive,L5E 2C1,43.5851375,-79.5759072
1547,Asgard Drive,L5E 2C1,43.5852440,-79.5760589
1553,Asgard Drive,L5E 2C1,43.5853345,-79.5762237
1559,Asgard Drive,L5E 2C1,43.5854510,-79.5763886
1565,Asgard Drive,L5E 2C1,43.5855752,-79.5765022
1107,Caven Street,L5G 4J6,43.5714044,-79.5698489
1109,Caven Street,L5G 4J6,43.5714349,-79.5700236
1624,Carmen Drive,L5G 3Z1,43.5749415,-79.5906108
1614,Carmen Drive,L5G 3Z1,43.5747677,-79.5903234
1604,Carmen Drive,L5G 3Z1,43.5745489,-79.5900748
1596,Carmen Drive,L5G 3Z1,43.5743801,-79.5897909
1584,Carmen Drive,L5G 3Z1,43.5741264,-79.5895359
1576,Carmen Drive,L5G 3Z1,43.5740145,-79.5892609
1498,Hurontario Street,L5G 3H6,43.5646074,-79.5953626
959,Brigantine Avenue,L5C 2Y7,43.5558903,-79.6344254
967,Brigantine Avenue,L5C 2Y7,43.5556814,-79.6345691
1530,Ballyclare Drive,L5C 1J5,43.5519232,-79.6508937
1510,Ballyclare Drive,L5C 1J5,43.5520064,-79.6510708
1504,Ballyclare Drive,L5C 1J5,43.5521678,-79.6512662
1498,Ballyclare Drive,L5C 1J5,43.5522922,-79.6515133
1492,Ballyclare Drive,L5C 1J5,43.5524292,-79.6517132
3319,Enniskillen Circle,L5C 2M9,43.5565304,-79.6596344
3325,Enniskillen Circle,L5C 2M9,43.5565259,-79.6598711
3329,Enniskillen Circle,L5C 2M9,43.5565292,-79.6600897
170,Lakeshore Road East,L5G 1G1,43.5571942,-79.5805070
481,Bristol Road West,L5R 4G2,43.6034047,-79.6714102
477,Bristol Road West,L5R 4G2,43.6034986,-79.6713074
465,Bristol Road West,L5R 4G2,43.6037800,-79.6709991
483,Bristol Road West,L5R 4G2,43.6033571,-79.6714623
471,Bristol Road West,L5R 4G2,43.6036381,-79.6711545
469,Bristol Road West,L5R 4G2,43.6036850,-79.6711033
479,Bristol Road West,L5R 4G2,43.6034524,-79.6713578
473,Bristol Road West,L5R 4G2,43.6035933,-79.6712036
467,Bristol Road West,L5R 4G2,43.6037328,-79.6710509
463,Bristol Road West,L5R 4G2,43.6038252,-79.6709496
475,Bristol Road West,L5R 4G2,43.6035460,-79.6712555
485,Bristol Road West,L5R 4G2,43.6036679,-79.6716685
485,Bristol Road West,L5R 4G2,43.6039164,-79.6713864
485,Bristol Road West,L5R 4G2,43.6038377,-79.6714754
485,Bristol Road West,L5R 4G2,43.6037505,-79.6715746
485,Bristol Road West,L5R 4G2,43.6039954,-79.6712960
485,Bristol Road West,L5R 4G2,43.6039556,-79.6713414
485,Bristol Road West,L5R 4G2,43.6037101,-79.6716205
485,Bristol Road West,L5R 4G2,43.6038782,-79.6714281
485,Bristol Road West,L5R 4G2,43.6036246,-79.6717178
485,Bristol Road West,L5R 4G2,43.6035815,-79.6717668
485,Bristol Road West,L5R 4G2,43.6040344,-79.6712518
485,Bristol Road West,L5R 4G2,43.6037935,-79.6715258
1203,Hurontario Street,L5G 3H2,43.5593181,-79.5866126
1207,Hurontario Street,L5G 3H2,43.5593806,-79.5867209
1205,Hurontario Street,L5G 3H2,43.5593464,-79.5866617
1211,Hurontario Street,L5G 3H2,43.5596368,-79.5868730
5020,Delaware Drive,L4Z 3C3,43.6128365,-79.6467337
5020,Delaware Drive,L4Z 3C3,43.6129615,-79.6469210
5020,Delaware Drive,L4Z 3C3,43.6128794,-79.6467978
5020,Delaware Drive,L4Z 3C3,43.6130372,-79.6470342
5020,Delaware Drive,L4Z 3C3,43.6129220,-79.6468617
5020,Delaware Drive,L4Z 3C3,43.6130761,-79.6470925
5020,Delaware Drive,L4Z 3C3,43.6129982,-79.6469759
5020,Delaware Drive,L4Z 3C3,43.6128649,-79.6473654
1018,Edgeleigh Avenue,L5E 2G1,43.5766077,-79.5600742
1022,Edgeleigh Avenue,L5E 2G1,43.5766835,-79.5602015
1026,Edgeleigh Avenue,L5E 2G1,43.5767525,-79.5603260
1030,Edgeleigh Avenue,L5E 2G1,43.5767932,-79.5604806
1034,Edgeleigh Avenue,L5E 2G1,43.5768702,-79.5605481
1038,Edgeleigh Avenue,L5E 2G1,43.5769700,-79.5606393
1042,Edgeleigh Avenue,L5E 2G1,43.5770223,-79.5607831
1046,Edgeleigh Avenue,L5E 2G1,43.5771051,-79.5609017
1050,Edgeleigh Avenue,L5E 2G1,43.5772003,-79.5609964
1441,Clarkson Road North,L5J 2W7,43.5257017,-79.6347439
1451,Clarkson Road North,L5J 2W7,43.5260574,-79.6352258
889,Fable Crescent,L5W 1R6,43.6215802,-79.7124580
891,Fable Crescent,L5W 1R6,43.6215532,-79.7125099
895,Fable Crescent,L5W 1R6,43.6215037,-79.7125746
897,Fable Crescent,L5W 1R6,43.6214737,-79.7126297
901,Fable Crescent,L5W 1R6,43.6214313,-79.7127311
903,Fable Crescent,L5W 1R6,43.6214059,-79.7127824
907,Fable Crescent,L5W 1R6,43.6213531,-79.7128699
909,Fable Crescent,L5W 1R6,43.6213266,-79.7129242
913,Fable Crescent,L5W 1R6,43.6212972,-79.7130176
912,Flute Way,L5W 1R6,43.6213135,-79.7136756
914,Flute Way,L5W 1R6,43.6212847,-79.7137311
918,Flute Way,L5W 1R6,43.6212396,-79.7138130
920,Flute Way,L5W 1R6,43.6212116,-79.7138690
924,Flute Way,L5W 1R6,43.6211690,-79.7139558
926,Flute Way,L5W 1R6,43.6211423,-79.7140107
930,Flute Way,L5W 1R6,43.6211040,-79.7140964
932,Flute Way,L5W 1R6,43.6210733,-79.7141572
936,Flute Way,L5W 1R6,43.6210356,-79.7142482
938,Flute Way,L5W 1R6,43.6210099,-79.7143006
942,Flute Way,L5W 1R6,43.6209765,-79.7143937
944,Flute Way,L5W 1R6,43.6209506,-79.7144514
948,Flute Way,L5W 1R6,43.6209289,-79.7145537
950,Flute Way,L5W 1R6,43.6209029,-79.7146054
954,Flute Way,L5W 1R6,43.6208661,-79.7146938
956,Flute Way,L5W 1R6,43.6208377,-79.7147480
960,Flute Way,L5W 1R6,43.6208114,-79.7148536
962,Flute Way,L5W 1R6,43.6207823,-79.7149109
966,Flute Way,L5W 1R6,43.6207635,-79.7150118
968,Flute Way,L5W 1R6,43.6207347,-79.7150696
6623,Nimbus Gate,L5W 1R6,43.6212669,-79.7130777
883,Tambourine Terrace,L5W 1R6,43.6210670,-79.7134511
885,Tambourine Terrace,L5W 1R6,43.6210393,-79.7135068
889,Tambourine Terrace,L5W 1R6,43.6209913,-79.7135962
891,Tambourine Terrace,L5W 1R6,43.6209616,-79.7136549
895,Tambourine Terrace,L5W 1R6,43.6209334,-79.7137435
897,Tambourine Terrace,L5W 1R6,43.6209068,-79.7137984
901,Tambourine Terrace,L5W 1R6,43.6208575,-79.7138835
903,Tambourine Terrace,L5W 1R6,43.6208300,-79.7139436
1484,Sunnycove Drive,L4X 1B5,43.6018139,-79.5657787
1488,Sunnycove Drive,L4X 1B5,43.6019011,-79.5659186
1494,Sunnycove Drive,L4X 1B5,43.6020063,-79.5660515
1498,Sunnycove Drive,L4X 1B5,43.6021312,-79.5662266
1504,Sunnycove Drive,L4X 1B5,43.6022145,-79.5663538
1508,Sunnycove Drive,L4X 1B5,43.6023298,-79.5665030
1516,Sunnycove Drive,L4X 1B5,43.6024609,-79.5667820
1538,Sunnycove Drive,L4X 1B5,43.6025999,-79.5667107
1544,Sunnycove Drive,L4X 1B5,43.6027115,-79.5665719
1548,Sunnycove Drive,L4X 1B5,43.6028130,-79.5664338
1554,Sunnycove Drive,L4X 1B5,43.6029122,-79.5663235
1558,Sunnycove Drive,L4X 1B5,43.6030436,-79.5662006
1564,Sunnycove Drive,L4X 1B5,43.6031373,-79.5660809
1568,Sunnycove Drive,L4X 1B5,43.6032432,-79.5659663
1574,Sunnycove Drive,L4X 1B5,43.6033355,-79.5658416
1578,Sunnycove Drive,L4X 1B5,43.6034604,-79.5657538
1584,Sunnycove Drive,L4X 1B5,43.6035777,-79.5656264
1588,Sunnycove Drive,L4X 1B5,43.6036733,-79.5655068
1594,Sunnycove Drive,L4X 1B5,43.6038675,-79.5653794
2891,Quetta Mews,L5N 1Z6,43.5913168,-79.7718639
2897,Quetta Mews,L5N 1Z6,43.5911629,-79.7719600
2903,Quetta Mews,L5N 1Z6,43.5910550,-79.7720902
2909,Quetta Mews,L5N 1Z6,43.5909422,-79.7722227
2913,Quetta Mews,L5N 1Z6,43.5909693,-79.7725008
2917,Quetta Mews,L5N 1Z6,43.5908757,-79.7727115
2923,Quetta Mews,L5N 1Z6,43.5907760,-79.7729106
2929,Quetta Mews,L5N 1Z6,43.5906933,-79.7729997
2939,Quetta Mews,L5N 1Z6,43.5905822,-79.7731550
2945,Quetta Mews,L5N 1Z6,43.5903886,-79.7732339
2951,Quetta Mews,L5N 1Z6,43.5902358,-79.7732031
2337,Goodison Avenue,L5B 1W5,43.5689325,-79.6154468
2343,Goodison Avenue,L5B 1W5,43.5690158,-79.6155402
2351,Goodison Avenue,L5B 1W5,43.5692057,-79.6158013
2579,Kenna Court,L5K 2K4,43.5254999,-79.6538212
2585,Kenna Court,L5K 2K4,43.5255662,-79.6540617
2589,Kenna Court,L5K 2K4,43.5254728,-79.6543165
2595,Kenna Court,L5K 2K4,43.5253576,-79.6544550
2599,Kenna Court,L5K 2K4,43.5252658,-79.6545711
5030,Timberlea Boulevard,L4W 2S5,43.6260624,-79.6349754
800,Boyer Boulevard,L5V 1Y1,43.6122072,-79.6998172
3030,Thomas Street,L5M 0R4,43.5596142,-79.7337015
5575,Bonnie Street,L5M 0N8,43.5595610,-79.7348411
3730,Laird Road,L5L 5Z7,43.5208647,-79.7075490
465,Fairview Road,L5B 3W7,43.5770976,-79.6353088
75,Eglinton Avenue West,L5R 0E5,43.6061484,-79.6545134
579,Lakeshore Road East,L5G 1H9,43.5686589,-79.5691944
1891,Rathburn Road East,L4W 3Z3,43.6362081,-79.5961434
1172,Greyowl Point,L4Y 2W4,43.6171291,-79.6066771
3476,Glen Erin Drive,L5L 3R4,43.5363585,-79.6874243
3476,Glen Erin Drive,L5L 3R4,43.5364077,-79.6874912
3476,Glen Erin Drive,L5L 3R4,43.5364354,-79.6875462
3476,Glen Erin Drive,L5L 3R4,43.5364735,-79.6875986
3476,Glen Erin Drive,L5L 3R4,43.5365124,-79.6876540
3476,Glen Erin Drive,L5L 3R4,43.5365487,-79.6877054
3476,Glen Erin Drive,L5L 3R4,43.5365855,-79.6877512
1528,Dundas Street West,L5C1E4,43.5466222,-79.6515629
3221,Derry Road West,L5N 7L7,43.5831771,-79.7791280
801,Matheson Boulevard West,L5V 2N6,43.6066048,-79.6914839
6591,Innovator Drive,L5T 2V8,43.6454624,-79.6870219
2695,Credit Valley Road,L5M4S1,43.5475478,-79.7143970
2695,Credit Valley Road,L5M4S1,43.5474246,-79.7143937
1415,Goldthorpe Road,L5G 3R2,43.5677465,-79.5881950
1415,Goldthorpe Road,L5G 3R2,43.5678654,-79.5880520
5400,Dixie Road,L4W 4T4,43.6425019,-79.6316698
2525,Thomas Street,L5M5J3,43.5696490,-79.7235735
2525,Thomas Street,L5M5J3,43.5698653,-79.7238889
2525,Thomas Street,L5M5J3,43.5699304,-79.7237390
223,Ceremonial Drive,L5R 2N3,43.6050613,-79.6632195
680,Novo Star Drive,L5W 1C7,43.6307051,-79.7169798
223,Ceremonial Drive,L5R 2N3,43.6050092,-79.6630682
3566,South Common Court,L5L 2B1,43.5251954,-79.7142161
3625,Ninth Line,L5L 5Z6,43.5217343,-79.7146436
6039,Erin Mills Parkway,L5N 0g5,43.5799427,-79.7346011
3480,Ellengale Drive,L5C 1Z7,43.5632987,-79.6600427
6680,Campobello Road,L5N 2L8,43.6086461,-79.7336717
290,Derry Road West,L5W 1N6,43.6392019,-79.7123106
210,Paisley Boulevard West,L5B 2A4,43.5717147,-79.6153879
1725,Mississauga Road,L5H 2K4,43.5534428,-79.6253992
1120,Runningbrook Drive,L4Y 2T2,43.6123284,-79.6046557
2500,Old Carriage Road,L5C 1Y7,43.5498170,-79.6407164
2350,Hurontario Street North,L5B 1N1,43.5737931,-79.6108746
3100,Hurontario Street,L5B 1N7,43.5805189,-79.6209847
2477,Cobbinshaw Circle,L5N 2G2,43.5822378,-79.7401758
6855,Tenth Line West,L5N 5R2,43.5811762,-79.7707852
3317,Chimo Court,L5B 4C4,43.5808242,-79.6322441
75,Eglinton Avenue West,L5R 0E5,43.6061406,-79.6545455
1333,North Sheridan Way,L5H 2A4,43.5398707,-79.6319170
1309,Gatehouse Drive,L5H 1A6,43.5208233,-79.6040809
1555,Matheson Boulevard East,L4W 3Z4,43.6436887,-79.6271087
2540,Matheson Boulevard East,L4W 4Z2,43.6586275,-79.6032683
1464,North Mill Court,L5V 1S3,43.5831962,-79.6894241
100,City Centre Drive,L5B 2C9,43.5926245,-79.6436967
3546,South Common Court,L5L 2B1,43.5426258,-79.6867046
333,Louis Drive,L5B 1Z2,43.5689496,-79.6183585
337,Louis Drive,L5B 1Z2,43.5688931,-79.6185328
355,Louis Drive,L5B 1Z2,43.5687025,-79.6190428
349,Louis Drive,L5B 1Z2,43.5687453,-79.6188700
343,Louis Drive,L5B 1Z2,43.5688240,-79.6187145
5025,Four Springs Ave,L5R 0G8,43.6064717,-79.6552798
5033,Four Springs,L5R 0G8,43.6066497,-79.6558574
35/65,Watergarden Drive,L5R 0G8,43.6072327,-79.6563553
399,Louis Drive,L5B 1Z2,43.5677677,-79.6204640
395,Louis Drive,L5B 1Z2,43.5678578,-79.6203379
391,Louis Drive,L5B 1Z2,43.5679411,-79.6202155
387,Louis Drive,L5B 1Z2,43.5680360,-79.6200482
381,Louis Drive,L5B 1Z2,43.5681496,-79.6199048
377,Louis Drive,L5B 1Z2,43.5682177,-79.6197973
373,Louis Drive,L5B 1Z2,43.5683099,-79.6196532
369,Louis Drive,L5B 1Z2,43.5684033,-79.6194830
363,Louis Drive,L5B 1Z2,43.5685297,-79.6193651
359,Louis Drive,L5B 1Z2,43.5686008,-79.6191909
293,Louis Drive,L5B 1Z2,43.5694031,-79.6169960
299,Louis Drive,L5B 1Z2,43.5693701,-79.6171798
303,Louis Drive,L5B 1Z2,43.5693290,-79.6173481
309,Louis Drive,L5B 1Z2,43.5692708,-79.6175216
315,Louis Drive,L5B 1Z2,43.5692318,-79.6177134
319,Louis Drive,L5B 1Z2,43.5691286,-79.6178513
323,Louis Drive,L5B 1Z2,43.5690609,-79.6180231
327,Louis Drive,L5B 1Z2,43.5690173,-79.6181808
100,City Centre Drive,L5B 2C9,43.5921924,-79.6409464
100,City Centre Drive,L5B 2C9,43.5942968,-79.6409166
100,City Centre Drive,L5B 2C9,43.5911339,-79.6432947
100,City Centre Drive,M5B 2C9,43.5940095,-79.6440036
6770,Historic Trail,L5W 1J3,43.6199409,-79.7241679
3030,Elmcreek Road,L5B 4M3,43.5676954,-79.6315907
2930,Erin Centre Boulevard,L5M 7M4,43.5529356,-79.7212455
6375,Airport Road,L4V 1E4,43.6923014,-79.6254742
6815,Airport Road,L4V 1E4,43.7004070,-79.6370865
1408,Radcliffe Boulevard,L5G 4G8,43.5759873,-79.5790329
1120,Flagship Drive,L4Y 2K1,43.6074936,-79.5954338
3570,Havenwood Drive,L4X 2M9,43.6222687,-79.5973205
3540,Havenwood Drive,L4X 2M9,43.6215140,-79.5964001
3465,Golden Orchard Drive,L4Y 3H7,43.6171570,-79.5978616
3341,Havenwood Drive,L4X 2M2,43.6188987,-79.5892302
3255,Havenwood Drive,L4X 2M2,43.6182590,-79.5864801
3801,Thomas Street,L5M 7G2,43.5536680,-79.7463916
5605,Freshwater Drive,L5M 7M8,43.5515085,-79.7411820
3675,Thomas Street,L5M 7E6,43.5573687,-79.7447959
3420,McDowell Drive,L5M 6R7,43.5568900,-79.7504237
3310,McDowell Drive,L5M 6R8,43.5593309,-79.7475269
600,Novo Star promenade,L5W 1G4,43.6321921,-79.7153635
5120,Perennial Drive,L5M 7T6,43.5449701,-79.7275331
2230,Corsair Road,L5A 2L9,43.5787016,-79.6001472
201,Cherry Post Drive,L5A 1J1,43.5777966,-79.6010929
4235,Golden Orchard Drive,L4W 3G1,43.6238170,-79.6125225
1530,Aimco Boulevard,L4W 5K1,43.6392308,-79.6225441
5900,Mavis Road,L5V 2P5,43.6094121,-79.6950585
26,Peter Street North,L5H 2G7,43.5496962,-79.5908717
5461,Bestview Way,L5M 0B1,43.5547281,-79.7281691
3200,Thomas Street,L5M0N7,43.5591482,-79.7380390
1180,Mississauga Valley Boulevard,L5A 3M9,43.5998311,-79.6235908
3727,Queenston Drive,L5C2H4,43.5634630,-79.6686224
3721,Queenston Drive,L5C2H4,43.5635900,-79.6685427
3715,Queenston Drive,L5C2H4,43.5636935,-79.6684022
3687,The Credit Woodlands,L5C2L2,43.5637033,-79.6688331
3691,The Credit Woodlands,L5C2L2,43.5637890,-79.6689582
3670,Galeair Court,L5C2H5,43.5638363,-79.6681799
3672,Galeair Court,L5C2H5,43.5639550,-79.6683785
3678,Galeair Court,L5C2H5,43.5640858,-79.6684457
3680,Galeair Court,L5C2H5,43.5642629,-79.6683630
3679,Galeair Court,L5C2H6,43.5643819,-79.6681589
3673,Galeair Court,L5C2H6,43.5643865,-79.6679412
3687,Queenston Drive,L5C2H3,43.5642243,-79.6676983
3681,Queenston Drive,L5C2H3,43.5642923,-79.6675683
3675,Queenston Drive,L5C2H2,43.5643637,-79.6674058
3670,Glencolin Court,L5C2G4,43.5645655,-79.6671965
3676,Glencolin Court,L5C2G4,43.5647041,-79.6674797
3682,Glencolin Court,L5C2G4,43.5648992,-79.6675730
3681,Glencolin Court,L5C2G3,43.5650264,-79.6674603
3673,Glencolin Court,L5C2G3,43.5651046,-79.6671130
3671,Glencolin Court,L5C2G3,43.5650259,-79.6669151
1473,Freeport Drive,L5C1S7,43.5652265,-79.6667439
1465,Freeport Drive,L5C1S7,43.5653437,-79.6665863
3682,Codrington Court,L5C2E9,43.5655246,-79.6663259
3684,Codrington Court,L5C2E9,43.5656174,-79.6664740
3686,Codrington Court,L5C2E9,43.5656706,-79.6665225
3688,Codrington Court,L5C2E9,43.5658117,-79.6665274
3690,Codrington Court,L5C2E9,43.5658727,-79.6664990
3674,Glencolin Court,L5C2G4,43.5646507,-79.6674263
3680,Glencolin Court,L5C2G4,43.5648374,-79.6675742
3672,Freeport Drive,L5C2G4,43.5645829,-79.6672685
3675,Glencolin Court,L5C2G3,43.5651114,-79.6671813
3669,Glencolin Court,L5C2G3,43.5649863,-79.6668520
1465,Freeport Drive,L5C1S7,43.5652740,-79.6666873
1463,Freeport Drive,L5C1S7,43.5653916,-79.6665338
3680,Codrington Court,L5C2E9,43.5654836,-79.6662559
3679,Glencolin Court,L5C2G3,43.5650675,-79.6673988
3689,Codrington Court,L5C2E8,43.5659987,-79.6663659
3687,Codrington Court,L5C2E8,43.5660211,-79.6662908
3685,Codrington Court,L5C2E8,43.5660606,-79.6661069
3683,Codrington Court,L5C2E8,43.5660477,-79.6659996
3681,Codrington Court,L5C2E8,43.5659690,-79.6658694
3679,Codrington Court,L5C2E8,43.5659465,-79.6657815
1435,Freeport Drive,L5C1S5,43.5660086,-79.6652842
1433,Freeport Drive,L5C1S5,43.5660039,-79.6652064
1439,Freeport Drive,L5C1S5,43.5659959,-79.6655566
1437,Freeport Drive,L5C1S5,43.5660019,-79.6654613
1431,Freeport Drive,L5C1S5,43.5659790,-79.6650319
1429,Freeport Drive,L5C1S5,43.5659588,-79.6649620
1585,Finfar Court,L5J 4K1,43.5171872,-79.6506639
2417,Drew Road,L5S 1A1,43.6987946,-79.6606690
2411,Drew Road,L5S 1A1,43.6986633,-79.6608086
2405,Drew Road,L5S 1A1,43.6984746,-79.6610140
2419,Drew Road,L5S 1A1,43.6988581,-79.6605948
2407,Drew Road,L5S 1A1,43.6985356,-79.6609485
2421,Drew Road,L5S 1A1,43.6989222,-79.6605299
2415,Drew Road,L5S 1A1,43.6987297,-79.6607375
2409,Drew Road,L5S 1A1,43.6985982,-79.6608798
6380,Vipond Drive,L5T 1A1,43.6584226,-79.6627227
1400,Toyo Circle,L4W 0E7,43.6509512,-79.6373272
17,Premium Way,L5B 1A1,43.5689414,-79.6022930
19,Premium Way,L5B 1A1,43.5688997,-79.6022223
21,Premium Way,L5B 1A1,43.5688549,-79.6021687
23,Premium Way,L5B 1A1,43.5688038,-79.6021324
25,Premium Way,L5B 1A1,43.5687426,-79.6021003
27,Premium Way,L5B 1A1,43.5686838,-79.6020875
29,Premium Way,L5B 1A1,43.5686192,-79.6020828
33,Premium Way,L5B 1A1,43.5684681,-79.6021781
35,Premium Way,L5B 1A1,43.5683939,-79.6022267
51,Premium Way,L5B 1A1,43.5676655,-79.6028350
61,Premium Way,L5B 1A1,43.5673833,-79.6030094
71,Premium Way,L5B 1A1,43.5671615,-79.6031990
81,Premium Way,L5B 1A1,43.5669217,-79.6033939
93,Premium Way,L5B 1A1,43.5666969,-79.6035737
99,Premium Way,L5B 1A1,43.5664489,-79.6038252
109,Premium Way,L5B 1A1,43.5661973,-79.6039942
121,Premium Way,L5B 1A1,43.5659585,-79.6042249
133,Premium Way,L5B 1A1,43.5657573,-79.6043793
145,Premium Way,L5B 1A1,43.5656016,-79.6045376
155,Premium Way,L5B 1A1,43.5654338,-79.6048862
167,Premium Way,L5B 1A1,43.5651180,-79.6050512
179,Premium Way,L5B 1A1,43.5648271,-79.6052044
197,Premium Way,L5B 1A1,43.5645708,-79.6054706
205,Premium Way,L5B 1A1,43.5643014,-79.6056082
215,Premium Way,L5B 1A1,43.5640640,-79.6056909
36,Lake Street,L5H 1A1,43.5474344,-79.5847840
40,Lake Street,L5H 1A1,43.5473214,-79.5850395
42,Lake Street,L5H 1A1,43.5472385,-79.5850989
46,Lake Street,L5H 1A1,43.5471394,-79.5852575
48,Lake Street,L5H 1A1,43.5470034,-79.5852592
58,Lake Street,L5H 1A3,43.5464949,-79.5857556
1286,Gatehouse Drive,L5H 1A5,43.5203893,-79.6032161
1294,Gatehouse Drive,L5H 1A5,43.5200880,-79.6035146
1302,Gatehouse Drive,L5H 1A5,43.5200996,-79.6038795
1310,Gatehouse Drive,L5H 1A5,43.5200814,-79.6041943
1320,Gatehouse Drive,L5H 1A5,43.5199806,-79.6044239
1332,Gatehouse Drive,L5H 1A5,43.5199084,-79.6047152
1344,Gatehouse Drive,L5H 1A5,43.5198476,-79.6049728
1354,Gatehouse Drive,L5H 1A5,43.5197803,-79.6053146
1362,Gatehouse Drive,L5H 1A5,43.5197180,-79.6055984
1372,Gatehouse Drive,L5H 1A5,43.5196667,-79.6058793
1289,Gatehouse Drive,L5H 1A6,43.5207287,-79.6032898
1301,Gatehouse Drive,L5H 1A6,43.5207641,-79.6037685
1313,Gatehouse Drive,L5H 1A6,43.5207020,-79.6045463
1321,Gatehouse Drive,L5H 1A6,43.5204868,-79.6047234
1333,Gatehouse Drive,L5H 1A6,43.5203989,-79.6049461
1345,Gatehouse Drive,L5H 1A6,43.5203219,-79.6052638
1355,Gatehouse Drive,L5H 1A6,43.5202367,-79.6055548
1363,Gatehouse Drive,L5H 1A6,43.5201831,-79.6058221
1369,Gatehouse Drive,L5H 1A6,43.5201163,-79.6060662
4926,Tomken Road,L4W 1J8,43.6260938,-79.6299993
173,North Service Road,L5A 1A4,43.5724862,-79.5960079
185,North Service Road,L5A 1A4,43.5727081,-79.5958203
199,North Service Road,L5A 1A4,43.5728667,-79.5955425
1022,Eglinton Avenue East,L4W 1K3,43.6277983,-79.6287272
1016,Eglinton Avenue East,L4W 1K3,43.6274909,-79.6291920
6795,Airport Road,L4V 1E6,43.7003853,-79.6363699
20,Stavebank Road,L5G 2T4,43.5525572,-79.5864130
5320,Ninth Line,L5M 0R5,43.5415798,-79.7435975
6305,Kateson Drive,L5W 0H8,43.6309186,-79.6882831
880,Avonhead Road,L5J 2Z5,43.5025378,-79.6342104
2095,Matheson Boulevard East,L4W 0G2,43.6513453,-79.6148104
3020,Unity Drive,L5L4L1,43.5390867,-79.7047742
3255,Dundas Street West,L5L 5V7,43.5175069,-79.6880860
2165,Erin Mills Parkway,L5K1T7,43.5276313,-79.6514571
7540,Winston Churchill Boulevard,L5N8E1,43.5972059,-79.7851963
7540,Winston Churchill Boulevard,L5N8E1,43.5973766,-79.7850071
1855,Balsam Avenue,L5J 1L3,43.5180122,-79.6297129
4620,Kimbermount Avenue,L5M 5W5,43.5494930,-79.7163188
300,City Centre Drive,L5B 3C1,43.5890161,-79.6436329
1100,Canadian Place,L4W 0C5,43.6254822,-79.6272532
3535,Birchmeadow Crescent,L4Y3R8,43.6121573,-79.6079846
3537,Birchmeadow Crescent,L4Y3R8,43.6122141,-79.6079235
3545,Twinmaple Drive,L4Y 3P9,43.6116251,-79.6076099
3546,Twinmaple Drive,L4Y3R1,43.6112652,-79.6079553
3550,Twinmaple Drive,L4Y 3R1,43.6113732,-79.6081132
3556,Twinmaple Drive,L4Y3R1,43.6114854,-79.6083396
3554,Twinmaple Drive,L4Y3R1,43.6114412,-79.6082660
1017,Runningbrook Drive,L4Y 2T1,43.6118581,-79.6073593
1021,Runningbrook Drive,L4Y 2T1,43.6119916,-79.6072510
3562,Twinmaple Drive,L4Y 3R1,43.6115086,-79.6084767
3564,Twinmaple Drive,L4Y3 R1,43.6115811,-79.6085690
3568,Twinmaple Drive,L4Y 3R1,43.6116272,-79.6086863
3570,Twinmaple Drive,L4Y 3R1,43.6116701,-79.6087599
3574,Twinmaple Drive,L4Y 3R1,43.6117403,-79.6088771
3576,Twinmaple Drive,L4Y 3R1,43.6117840,-79.6089527
6699,Falconer Drive,L5N 2E3,43.6058340,-79.7274364
1024,Johnathan Drive,L4Y 1K1,43.5937762,-79.5816315
6024,Farmstead Lane,L5N 2Z3,43.5666539,-79.7477231
6020,Farmstead Lane,L5N 2Z3,43.5665718,-79.7475668
6014,Farmstead Lane,L5N 2Z3,43.5664863,-79.7474127
3492,Kariya Drive,L5B 0L2,43.5873503,-79.6319563
18,John Street South,L5H 2E4,43.5485194,-79.5868076
23,Peter Street South,L5H 2G3,43.5480522,-79.5868712
27,Peter Street South,L5H 2G2,43.5477929,-79.5867816
25,Peter Street South,L5H 2G2,43.5478471,-79.5868994
36,John Street South,L5H 2E6,43.5478049,-79.5855146
34,John Street South,L5H 2E6,43.5478671,-79.5856376
310,Bristol Road East,L4Z 3V5,43.6160341,-79.6533774
2100,Burnhamthorpe Road West,L5L 3N1,43.5464348,-79.6825010
6627,Tenth Line West,L5N 5L3,43.5796915,-79.7698987
368;370,Hyacinthe Boulevard,L5A 3L1,43.5977466,-79.6194090
374;376,Hyacinthe Boulevard,L5A 3L1,43.5979077,-79.6194559
380;382,Hyacinthe Boulevard,L5A 3L1,43.5980754,-79.6195132
386;388,Hyacinthe Boulevard,L5A 3L1,43.5982298,-79.6196209
392;394,Hyacinthe Boulevard,L5A 3L1,43.5983717,-79.6197320
398;400,Hyacinthe Boulevard,L5A 3L1,43.5984961,-79.6199087
404;406,Hyacinthe Boulevard,L5A 3L1,43.5986443,-79.6200480
428;430,Hyacinthe Boulevard,L5A 3L1,43.5988519,-79.6202623
434;436,Hyacinthe Boulevard,L5A 3L1,43.5989437,-79.6200638
440;442,Hyacinthe Boulevard,L5A 3L1,43.5990431,-79.6198707
3365;3367,Galena Crescent,L5A 3L7,43.5988248,-79.6195967
3371;3373,Galena Crescent,L5A 3L7,43.5986927,-79.6194344
3377;3379,Galena Crescent,L5A 3L7,43.5985707,-79.6192782
3383;3385,Galena Crescent,L5A 3L7,43.5984534,-79.6191134
3389;3391,Galena Crescent,L5A 3L7,43.5982560,-79.6190294
3395;3397,Galena Crescent,L5A 3L7,43.5980814,-79.6189165
3401;3403,Galena Crescent,L5A 3L7,43.5980198,-79.6186571
3405;3407,Galena Crescent,L5A 3L7,43.5980445,-79.6183967
3409;3411,Galena Crescent,L5A 3L7,43.5981495,-79.6181814
3415;3417,Galena Crescent,L5A 3L7,43.5981969,-79.6179681
3421;3423,Galena Crescent,L5A 3L7,43.5982293,-79.6177518
3427;3429,Galena Crescent,L5A 3L7,43.5982901,-79.6175205
3433;3435,Galena Crescent,L5A 3L7,43.5982911,-79.6172898
3437;3439,Galena Crescent,L5A 3L7,43.5983680,-79.6170260
3441;3443,Galena Crescent,L5A 3L7,43.5985732,-79.6169316
3445;3447,Galena Crescent,L5A 3L7,43.5987602,-79.6169432
3449;3451,Galena Crescent,L5A 3L7,43.5989205,-79.6170810
3455;3457,Galena Crescent,L5A 3L7,43.5990407,-79.6172602
3461;3463,Galena Crescent,L5A 3L7,43.5991537,-79.6174478
3473;3475,Galena Crescent,L5A 3L7,43.5994039,-79.6177848
3467;3469,Galena Crescent,L5A 3L7,43.5992701,-79.6176330
3479;3481,Galena Crescent,L5A 3L7,43.5995194,-79.6179650
3487,Galena Crescent,L5A 3L7,43.5996666,-79.6182981
492,Hyacinthe Boulevard,L5A 3N3,43.5997793,-79.6181083
496,Hyacinthe Boulevard,L5A 3N3,43.5998582,-79.6179243
5050,Orbitor Drive,L4W 4X2,43.6559817,-79.6000588
245,Markland Drive,M9C 1R1,43.6312492,-79.5769398
7075,Rexwood Road,L4T 4M1,43.7183424,-79.6237376
7625,Finch Avenue,L6T 0B2,43.7364447,-79.6344476
