House number,Street name,Postal code,Latitude,Longitude
115,Mitton Street South,N7T 3C5,42.9700310,-82.3986685
10,Lorne Crescent,N7S 1H8,42.9692438,-82.3757846
983,Eastlawn Avenue,N7S 1X3,42.9855894,-82.3729610
1797,Confederation Line,N7W 1A5,42.9567148,-82.3238542
1362,Lambton Mall Road,N7S 5A1,42.9810471,-82.3558386
759,Exmouth Street,N7T 7S5,42.9849141,-82.3833893
500,Exmouth Street,N7T 5P4,42.9865794,-82.3880463
1670,London Line,N7W 1B2,42.9842176,-82.3311861
1741,London Line,N7T 7H2,42.9832703,-82.3266077
2684,Lakeshore Road,N0N 1C0,43.0277959,-82.2544187
900,Wellington Street,N7T 1J5,42.9686804,-82.3766953
1491,Plank Road,N7T 7H3,42.9346211,-82.3471293
125,Green Street,N7T 2K4,42.9572496,-82.3889155
885,Campbell Street,N7T 1M9,42.9582769,-82.3785270
835,Ontario Street,N7T1N1,42.9580684,-82.3797586
190,Maxwell Street,N7T 4V8,42.9813352,-82.4018406
1464,Blackwell Road,N7S 5M4,43.0103452,-82.3467280
955,Lakeshore Road,N7V 2V3,43.0124163,-82.3734942
283,Christina Street North,N7T 5V4,42.9759318,-82.4058701
1221,Michigan Avenue,N7S 3Y3,42.9989049,-82.3641222
275,Wellington Street,N7T 1H1,42.9679059,-82.4013447
275,Finch Drive,N7S 5A2,42.9606930,-82.3507879
269,Finch Drive,N7S 5A2,42.9614116,-82.3506176
1380,London Road,N7S 1P8,42.9825434,-82.3516413
1400,Wellington Street,N7S 5R5,42.9712347,-82.3562985
49,Finch Drive,N7S 5P5,42.9698133,-82.3545644
1000,Finch Drive,N7S 6E9,42.9713987,-82.3536416
170,Sycamore Drive,N7T 4K7,42.9737749,-82.3801366
150,Christina Street North,N7T 7W5,42.9729666,-82.4061970
134,Brock Street South,N7T 2W2,42.9693361,-82.4033579
160,George Street,N7T 5S6,42.9748290,-82.4055532
124,Christina Street South,N7T 8E1,42.9699464,-82.4076977
229,Wellington Street,N7T 1G9,42.9678130,-82.4038178
749,Devine Street,N7T 1X3,42.9636316,-82.3841086
450,Trudeau Drive,N7S 6H4,42.9607626,-82.3572434
1444,Quinn Drive,N7S 6M8,42.9887131,-82.3480056
180,Canterbury Court,N7T 7S3,42.9630906,-82.3820496
555,Christina Street North,N7T 7X6,42.9848743,-82.4008771
836,Ontario Street,N7T1N1,42.9584642,-82.3793621
720,Elm Avenue,N7T 4H3,42.9731727,-82.3821216
240,London Road,N7T 4V8,42.9791506,-82.3998366
28,Minto Street,N7S 2R5,42.9741846,-82.3734340
32,Minto Street,N7S 2R5,42.9743322,-82.3734371
36,Minto Street,N7S 2R5,42.9745009,-82.3734386
40,Minto Street,N7S 2R5,42.9746380,-82.3734420
46,Minto Street,N7S 2R5,42.9748065,-82.3734365
50,Minto Street,N7S 2R5,42.9750095,-82.3734557
682,Copland Road,N7T 7B4,42.9810989,-82.3812475
686,Copland Road,N7T 7B4,42.9812227,-82.3813394
690,Copland Road,N7T 7B4,42.9813650,-82.3812377
692,Copland Road,N7T 7B4,42.9814776,-82.3813115
696,Copland Road,N7T 7B4,42.9816117,-82.3812985
700,Copland Road,N7T 7B4,42.9817493,-82.3810781
704,Copland Road,N7T 7B4,42.9819015,-82.3811203
708,Copland Road,N7T 7B4,42.9820428,-82.3812897
714,Copland Road,N7T 7B4,42.9821723,-82.3812521
716,Copland Road,N7T 7B4,42.9823200,-82.3812706
720,Copland Road,N7T 7B4,42.9824785,-82.3812451
1493,Evan Street,N7V 3Z3,43.0085529,-82.3773679
301,Talfourd Street,N7T 1P4,42.9662903,-82.4012192
303,Talfourd Street,N7T 1P4,42.9663092,-82.4010987
305,Talfourd Street,N7T 1P4,42.9663090,-82.4009512
307,Talfourd Street,N7T 1P4,42.9663017,-82.4007843
309,Talfourd Street,N7T 1P4,42.9662892,-82.4006101
311,Talfourd Street,N7T 1P4,42.9662874,-82.4004468
313,Talfourd Street,N7T 1P4,42.9662822,-82.4003081
315,Talfourd Street,N7T 1P4,42.9662845,-82.4001760
1315,Exmouth Street,N7S 3Y1,42.9840028,-82.3574401
1380,London Road,N7S 1P7,42.9839921,-82.3536835
1498,Plank Road,N7T 7H3,42.9353541,-82.3464983
1501,Plank Road,N7T 7H5,42.9342433,-82.3459327
1741,London Line,N7T 7H2,42.9827542,-82.3263341
1670,London Line,N7W 1B2,42.9844571,-82.3311889
81,Ube Drive,N7W 1B6,42.9935386,-82.3107438
2097,London Line,N7T 7H2,42.9827588,-82.2997219
1609,London Line,N7W 1A9,42.9831922,-82.3354944
1900,River Road,N7T 7J3,42.9312014,-82.4394692
2612,Hamilton Road,N0N 1C0,43.0307761,-82.2627073
2500,Confederation Line,N7T 7H3,42.9595437,-82.2700667
1930,Wildwood Drive,N0N 1C0,43.0287218,-82.2622729
60,Aberdeen Avenue,N7S 2N8,42.9715133,-82.3720631
95,Lansdowne Avenue South,N7S 1G7,42.9649454,-82.3719013
217,Russell Street South,N7T 3L6,42.9669768,-82.3926772
660,Oakdale Avenue,N7V 2A9,42.9897134,-82.3871334
60,Lorne Crescent,N7S 0C3,42.9700337,-82.3725178
757,Kember Avenue,N7S 2T3,42.9818238,-82.3728275
369,Maria Street,N7T 4T7,42.9753495,-82.3901549
1018,Indian Road North,N7V 4C5,42.9933754,-82.3744020
901,The Rapids Parkway,N7S 6K2,42.9935205,-82.3530033
1103,Michigan Avenue,N7S 2B5,42.9977629,-82.3667268
1257,Michigan Avenue,N7S 3Y3,42.9988711,-82.3617124
1000,The Rapids Parkway,N7S 6K3,42.9955549,-82.3488459
1001,The Rapids Parkway,N7S 6K2,42.9947584,-82.3528041
585,O'Dell Avenue,N7V 4H7,43.0022610,-82.3911911
1411,Lecaron Avenue,N7V 3J1,43.0062480,-82.3901288
1825,Hogan Drive,N7S 6G9,43.0109282,-82.3601214
1219,Cathcart Boulevard,N7S 2H7,43.0101215,-82.3630006
955,Lakeshore Road,N7V 2V3,43.0120156,-82.3736224
931,Champlain Road,N7V 2E9,42.9998609,-82.3764686
989,Errol Road East,N7S 2E6,43.0030618,-82.3736014
940,Michigan Avenue,N7S 2B1,42.9995372,-82.3738632
2618,Hamilton Road,N0N 1C0,43.0304320,-82.2613803
1310,Murphy Road,N7S 6K5,43.0030419,-82.3649658
901,The Rapids Parkway,N7S 6K2,42.9934194,-82.3543015
89,Norman Street,N7T 6S3,42.9767305,-82.3903183
885,Campbell Street,N7T 1M9,42.9582805,-82.3785654
1379,London Road,N7S 1P6,42.9788970,-82.3524575
170,Devine Street,N7T 0A3,42.9658249,-82.4109258
1200,Afton Drive,N7S 6L6,42.9763552,-82.3616042
1243,Arlington Avenue,N7S3V3,42.9965017,-82.3611111
1412,Sylvan Court,N7S4A3,43.0153206,-82.3497193
