House number,Street name,Postal code,Latitude,Longitude
707,James Street South,P7E 2V9,48.3734864,-89.2899333
100,Princess Street,P7E 6S2,48.3719913,-89.3121331
899,Tungsten Street,P7B6H2,48.4120343,-89.2538434
2255,Ponderosa Drive,P7K 1G6,48.3693007,-89.3754881
1047,Dawson Road,P7B 1K7,48.4515058,-89.2543153
394,Oliver Road,P7B 2G3,48.4294224,-89.2387713
493,Oliver Road,P7B 2G8,48.4286922,-89.2443336
10,Court St. South,P7B 2W3,48.4354792,-89.2225310
2201,Sleeping Gaint Pkwy,P7A 0E7,48.4338423,-89.2165486
110,Waterloo Street North,P7C 6A8,48.3852403,-89.2613923
888,Red River Road,P7B 1K2,48.4473743,-89.2487132
832,Red River Road,P7B 1K2,48.4455201,-89.2475851
825,Red River Road,P7B 1K2,48.4448320,-89.2481953
853,Red River Road,P7B 1K3,48.4457102,-89.2487503
230,Van Norman St.,P7A 4B8,48.4364999,-89.2204936
229,Van Norman St.,P7A 4B8,48.4363166,-89.2201368
225,Red River Road,P7B 1A7,48.4350690,-89.2209953
231,Red River Rd.,P7B 1A7,48.4351473,-89.2212420
256,Red River Road,P7B 2W3,48.4359303,-89.2220950
946,Cobalt Crescent,P7B 5W3,48.4099586,-89.2568575
500,Hodder Avenue,P7A 1V5,48.4693300,-89.1818533
915,Memorial Avenue,P7B 4A1,48.4098720,-89.2442471
475,Hodder Avenue,P7A 1V3,48.4682564,-89.1824696
1144,Oliver Rd #2,P7B 7A4,48.4204523,-89.2774749
146,Centennial Square,P7E 1H3,48.3828874,-89.2497040
332,Hallam Street,P7A 1M1,48.4699895,-89.1838973
866,Memorial Ave #1,P7B 3Z9,48.4113761,-89.2458062
361,Hodder Avenue,P7A 1T6,48.4639870,-89.1825060
1401,Walsh Street West,P7E 4X6,48.3738980,-89.3012573
645,Arthur Street West,P7E 5R6,48.3811026,-89.2975783
950,Chippewa Road,P7J 1B6,48.3453128,-89.3029807
720,Hewitson Street,P7B 5Z1,48.4046910,-89.2559120
1120,John Street Road,P7B 2A3,48.4448280,-89.2659115
811,Central Avenue,P7B 6P8,48.4115140,-89.2599460
808,Fort William Road,P7B 3A3,48.4081100,-89.2405060
195,Frederica Street East,P7E 3V4,48.3648493,-89.2732231
408,Frederica Street West,P7E 3W6,48.3648172,-89.2882861
344,Cumberland Street North,P7A 4P2,48.4451870,-89.2054010
28,Cumberland Street North,P7A 4K9,48.4355847,-89.2188123
300,May St S,P7E 1B6,48.3806584,-89.2451046
14,Quebec St,P7E 6T9,48.3605456,-89.2862924
2121,Highway 61,P7J 1G4,48.3171888,-89.3616764
684,City Road,P7J 1K3,48.3563611,-89.2738536
640,River Street,P7A 3S4,48.4485518,-89.2327298
1103,Victoria Avenue East,P7C 1B7,48.3843029,-89.2529105
313,Cameron Street,P7C 2H1,48.3893767,-89.2441256
376,Lisgar Street,P7B 2M4,48.4239956,-89.2374181
951,Memorial Avenue,P7B 4A1,48.4087655,-89.2446127
221,Bay Street,P7B 1R1,48.4299511,-89.2260310
1100,Memorial Avenue,P7B 4A3,48.4042427,-89.2463065
2240,Sleeping Giant Pkwy,P7A 0E7,48.4327930,-89.2183652
1186,Dawson Road,P7G 1H7,48.4559517,-89.2636968
1510,Dawson Road,P7G 1H8,48.4636660,-89.2802089
415,Fort William Road,P7B2Z5,48.4228114,-89.2325995
640,Waterloo Street South,P7E 2C5,48.3745588,-89.2707462
205,South Franklin Street,P7E 1R2,48.3820172,-89.2570609
61,Windemere Avenue North,P7A 6A9,48.4426917,-89.2432706
111,Frederica Street East,P7E 3E4,48.3654423,-89.2777474
17,St Paul Street,P7A 4S4,48.4354657,-89.2191747
122,Frederica Street West,P7E 3V7,48.3648801,-89.2798408
211,Red River Road,P7B 1A5,48.4348604,-89.2203252
211,Red River Road,P7B 1A5,48.4348053,-89.2203641
349,Main Street,P7B 5L6,48.4037946,-89.2368517
389,Oliver Road,P7B 2G1,48.4290671,-89.2381595
915,Memorial Avenue,P7B 4A1,48.4102468,-89.2442892
235,Syndicate Avenue South,P7E 1E1,48.3811047,-89.2481984
819,Gore Street West,P7E 3S7,48.3641216,-89.2946785
800,City Road,P7J 1K4,48.3545351,-89.2849164
1419,Oliver Road,P7G 1N6,48.4172403,-89.2948793
216,Brodie Street South,P7E 1C2,48.3816057,-89.2463076
615,Sibley Drive,P7B 6Z8,48.4056712,-89.2591094
242,Red River Road,P7B 1A6,48.4356089,-89.2214955
242,Red River Road,P7B 1A6,48.4356403,-89.2214085
251,Red River Road,P7B 1A7,48.4353407,-89.2216075
863,Red River Road,P7B 1K3,48.4462872,-89.2494842
870,Red River Road,P7B 1K2,48.4469600,-89.2482434
870,Red River Road,P7B 1K2,48.4468359,-89.2481270
854,Red River Road,P7B 1K2,48.4462920,-89.2480215
640,River Street,P7A 3S4,48.4488667,-89.2342740
640,River Street,P7A 3S4,48.4488653,-89.2339831
863,Red River Road,P7B 1K3,48.4460802,-89.2492736
153,Algoma Street South,P7B 3B7,48.4320818,-89.2285751
500,Oliver Road,P7B 2H1,48.4292935,-89.2454075
70,Court Street North,P7A 4T8,48.4387183,-89.2195660
1000,Fort William Road,P7B 6B9,48.4038142,-89.2436128
414,Grenville Avenue,P7A 1X9,48.4652522,-89.1863044
1101,Arthur St W,P7E 5S2,48.3822947,-89.3081758
340,Waterloo Street South,P7E 6H9,48.3796624,-89.2662198
1450,Nakina Drive,P7C4W1,48.4030214,-89.2684167
1185,Arthur Street West,P7E 6E2,48.3820795,-89.3106886
555,Arthur Street West,P7E 5R5,48.3815533,-89.2927533
984,Oliver Road,P7B 6V4,48.4236922,-89.2692546
708,May Street North,P7C 3R9,48.3897499,-89.2450518
530,Chapples Park Drive,P7C 4L7,48.3942148,-89.2654463
346,Memorial Avenue,P7B 3Y3,48.4263373,-89.2348906
800,City Road,P7J 1K4,48.3544955,-89.2850318
698,City Road,P7J 1K3,48.3560423,-89.2790821
1315,Arthur Street East,P7E 5N3,48.3812640,-89.2558303
539,Grenville Avenue,P7A 2C3,48.4707076,-89.1886334
340-100,Princess Street,P7E 6S2,48.3718925,-89.3121286
271,Glasgow Place,P7A 7Y4,48.4611826,-89.2473078
275,Glasgow Place,P7A 7Y4,48.4612108,-89.2474904
279,Glasgow Place,P7A 7Y4,48.4612392,-89.2476844
283,Glasgow Place,P7A 7Y4,48.4612678,-89.2478818
287,Glasgow Place,P7A 7Y4,48.4612978,-89.2480886
291,Glasgow Place,P7A 7Y4,48.4613195,-89.2482934
295,Glasgow Place,P7A 7Y4,48.4613813,-89.2485287
299,Glasgow Place,P7A 7Y4,48.4615133,-89.2486330
148,Glengarry Drive,P7A 7Y4,48.4612808,-89.2466919
152,Glengarry Drive,P7A 7Y4,48.4611311,-89.2467223
156,Glengarry Drive,P7A 7Y4,48.4609882,-89.2467994
324,Halton Street,P7A 7Y4,48.4608725,-89.2474021
400,Halton Street,P7A 7Y4,48.4607659,-89.2468802
404,Halton Street,P7A 7Y4,48.4607236,-89.2467136
121,McKellar Street South,P7E 1H4,48.3832951,-89.2502674
135,McKellar Street South,P7E 1H4,48.3828594,-89.2502945
139,McKellar Street South,P7E 1H4,48.3827620,-89.2503276
1221,Arthur Street West,P7K 1A7,48.3818854,-89.3129149
1095,Arthur Street West,P7E 5R8,48.3812375,-89.3064705
1200,Hawker Road,P7K 1K2,48.3802686,-89.3124725
1041,Carrick Street,P7B 6L9,48.4056588,-89.2489869
955,Oliver Road,P7B 5E1,48.4203227,-89.2622097
2060,Highway 61,P6C 4Z2,48.3171789,-89.3589525
108,Wardrope Avenue,P7G 2C4,48.4637442,-89.2262615
955,Hudson Avenue,P7A 6J6,48.4632844,-89.2187248
423,Roberta Street,P7A 1A7,48.4580531,-89.1894533
412,Roberta Street,P7A 1A6,48.4584489,-89.1888592
416,Roberta Street,P7A 1A6,48.4584385,-89.1890332
346,Roberta Street,P7A 1A5,48.4584554,-89.1850940
359,Roberta Street,P7A 1A4,48.4581003,-89.1858321
372,Adelaide Street,P7A 1A1,48.4577175,-89.1865026
372,Roberta Street,P7A 1A5,48.4584520,-89.1864346
400,Roberta Street,P7A 1A6,48.4584444,-89.1882226
334,Roberta Street,P7A 1A3,48.4584811,-89.1843214
362,Roberta Street,P7A 1A5,48.4584436,-89.1858921
357,Roberta Street,P7A 1A4,48.4581063,-89.1856377
410,Adelaide Street,P7A 1A2,48.4576694,-89.1886501
380,Roberta Street,P7A 1A5,48.4584363,-89.1868571
406,Adelaide Street,P7A 1A2,48.4576186,-89.1884544
310,Roberta Street,P7A 1A3,48.4585041,-89.1831102
373,Roberta Street,P7A 1A4,48.4580474,-89.1865270
366,Adelaide Street,P7A 1A1,48.4577131,-89.1861121
371,Roberta Street,P7A 1A4,48.4580488,-89.1864263
330,Roberta Street,P7A 1A3,48.4585061,-89.1839746
401,Roberta Street,P7A 1A7,48.4579501,-89.1880876
378,Adelaide Street,P7A 1A1,48.4577038,-89.1868132
350,Roberta Street,P7A 1A5,48.4584495,-89.1853756
381,Roberta Street,P7A 1A4,48.4580556,-89.1869472
351,Roberta Street,P7A 1A4,48.4581009,-89.1854574
363,Roberta Street,P7A 1A4,48.4580662,-89.1860273
409,Roberta Street,P7A 1A7,48.4580661,-89.1885342
354,Roberta Street,P7A 1A5,48.4584472,-89.1856227
345,Roberta Street,P7A 1A4,48.4580881,-89.1850544
405,Roberta Street,P7A 1A7,48.4580622,-89.1882781
390,Roberta Street,P7A 1A5,48.4584248,-89.1873671
416,Adelaide Street,P7A 1A2,48.4576029,-89.1889766
360,Adelaide Street,P7A 1A1,48.4577139,-89.1858125
406,Roberta Street,P7A 1A6,48.4584424,-89.1884778
364,Roberta Street,P7A 1A5,48.4584432,-89.1860415
377,Roberta Street,P7A 1A4,48.4580613,-89.1867389
368,Roberta Street,P7A 1A5,48.4584390,-89.1862728
384,Roberta Street,P7A 1A5,48.4584414,-89.1871009
306,Roberta Street,P7A 1A3,48.4585197,-89.1828519
385,Roberta Street,P7A 1A4,48.4580999,-89.1871371
414,Adelaide Street,P7A 1A2,48.4576174,-89.1888357
342,Roberta Street,P7A 1A3,48.4584631,-89.1846029
347,Roberta Street,P7A 1A4,48.4580531,-89.1852495
400,Adelaide Street,P7A 1A2,48.4576261,-89.1882137
316,Roberta Street,P7A 1A3,48.4584991,-89.1833865
376,Roberta Street,P7A 1A5,48.4584974,-89.1866509
322,Roberta Street,P7A 1A3,48.4584809,-89.1836907
413,Roberta Street,P7A 1A7,48.4581314,-89.1889015
2875,Oliver Road,P7G 1S4,48.4132749,-89.3901204
1419,Oliver Road West,P7G 1N6,48.4171318,-89.2948187
2381,Rosslyn Road,P7K 1G5,48.3628181,-89.3767227
591,John Street,P7B 1Y8,48.4319520,-89.2478948
3130,Dawson Road,P7B 5E3,48.4910892,-89.3725114
137,Hill Street South,P7B 3T9,48.4338915,-89.2394842
1110,Arthur Street West,P7E 6P9,48.3804812,-89.3066831
1425,Walsh Street West,P7E 4X6,48.3735909,-89.3021695
610,Arthur Street West,P7E 5R8,48.3800159,-89.2955963
508,Arthur Street West,P7E 5R4,48.3805359,-89.2904724
600,Arthur Street West,P7E 5R8,48.3805477,-89.2955453
636,Arthur Street West,P7E 5R8,48.3801117,-89.2965156
698,Arthur Street West,P7E 5R8,48.3796922,-89.2991606
500,Arthur Street West,P7E 5R4,48.3803461,-89.2899935
1063,Dawson Road,P7B 1K7,48.4516412,-89.2548858
1186,1186 Dawson Rd,P7G 1H7,48.4558650,-89.2632082
1014,Dawson Road,P7B 5V1,48.4515340,-89.2525476
147,Arthur Street West,P7E 5P7,48.3810898,-89.2808462
115,Arthur Street West,P7E 5P7,48.3811442,-89.2790235
251,Arthur Street West,P7E 5P7,48.3812143,-89.2835996
2060,Highway 61,P6C 4Z2,48.3171743,-89.3588332
1800,Loch Lomond Road,P7J1E9,48.2937585,-89.3469494
2080,Highway 61,P7J 1B8,48.3156442,-89.3599661
1860,Loch Lomond Road,P7J 1E9,48.2937578,-89.3510558
1725,Highway 61,P7J 1G3,48.3305785,-89.3405646
901,Miles Street East,P7C 1J9,48.3861921,-89.2505407
509,Brock Street East,P7E 4H8,48.3686103,-89.2555784
11115,Yonge Street,P7E2T6,48.3689917,-89.2883422
273,Shuniah Street,P7A 3A1,48.4565954,-89.2149213
3,Balsam Street,P7A 5M6,48.4459407,-89.2250752
544,Simpson Street,P7C 3J4,48.3913165,-89.2364298
135,Archibald Street North,P7C 3X7,48.3854398,-89.2491785
850,North May Street,P7C 6A5,48.3985379,-89.2442611
640,Waterloo Street South,P7E 2C5,48.3745955,-89.2705314
301,Syndicate Avenue South,P7E 1E2,48.3805837,-89.2481731
211,Archibald Street South,P7E 1G4,48.3822226,-89.2494858
54,Cumberland Street North,P7A 4L2,48.4365543,-89.2179524
10,Algoma Street South,P7B 37A,48.4369865,-89.2249122
277,Cumberland Street North,P7A 4N7,48.4431537,-89.2081371
100,Cumberland Street North,P7A 4L9,48.4378438,-89.2166314
242,Red River Road,P7B 1A6,48.4357262,-89.2213210
514,Cumberland Street North,P7A 4S1,48.4502868,-89.1960416
806,Red River Road,P7B 1K2,48.4447000,-89.2469046
300,Empress Avenue South,P7B4P2,48.4332779,-89.2509121
901,Red River Road,P7B 1K3,48.4468461,-89.2501136
875,Red River Road,P7B 1K3,48.4466065,-89.2493062
174,Marlborough Street,P7B4G4,48.4343671,-89.2458654
2280,Sleeping Giant Park Way,P7A 0E7,48.4321287,-89.2193275
2280,Sleeping Giant Park Way,P7A 0E7,48.4325619,-89.2187617
915,Red River Road,P7B 1K3,48.4479279,-89.2502985
807,Red River Road,P7B 1K3,48.4443730,-89.2478129
914,Red River Road,P7B 1K4,48.4482029,-89.2491949
915,Red River Road,P7B 1K5,48.4477524,-89.2501274
16,Knight Street,P7A 5M2,48.4449388,-89.2269457
854,Red River Road,P7B 1K2,48.4465379,-89.2481061
684,City Road,P7J 1K3,48.3562837,-89.2737060
676,City Road,P7J 1K3,48.3563481,-89.2728761
686,City Road,P7J 1K3,48.3564034,-89.2755064
656,ci,P7J 1K3,48.3564514,-89.2689920
686,City Road,P7J 1K3,48.3562357,-89.2757792
333,Memorial Avenue,P7B 3Y4,48.4267133,-89.2335579
1034,Oliver Road,P7B 7A5,48.4217065,-89.2708918
950,Memorial Avenue,P7B 4A2,48.4088780,-89.2461019
465,Memorial Avenue,P7B 3Y6,48.4221950,-89.2362414
740,Memorial Avenue,P7B 3Z5,48.4138948,-89.2440026
493,Oliver Road,P7B 2G8,48.4286304,-89.2443283
233,Court Street South,P7B 2X1,48.4277901,-89.2297123
551,10th Avenue,P7B2R3,48.4116667,-89.2474477
782,MacDonell Street,P7B 4A6,48.4148010,-89.2452902
943,Fort William Road,P7B 3A6,48.4025826,-89.2414048
1120,Alloy Drive,P7B 6C5,48.4090816,-89.2571322
377,Memorial Avenue,P7B 3Y4,48.4250386,-89.2347812
390C,Adelaide Street,P7A 1A1,48.4577220,-89.1873066
419,Edward Street North,P7C 4P5,48.3922773,-89.2790223
1265,Arthur Street East,P7E 5N3,48.3813995,-89.2531724
220,Elgin Street,P7A 0A4,48.4408445,-89.2147533
1946,Mountain Road,P7J 1C8,48.3143205,-89.3537432
2025,Dawson Road,P7G 2E9,48.4733089,-89.3097577
2075,Rosslyn Road,P7K 1H7,48.3634063,-89.3599552
655,River Street,P7A 3S5,48.4481195,-89.2363871
370,County Boulevard,P7A 7P5,48.4575595,-89.2463211
333,High Street North,P7A 5S3,48.4493702,-89.2267969
159,Clayte Street,P7A 6S7,48.4551798,-89.2243939
89,Clayte Street,P7A 6S4,48.4549134,-89.2209123
285,Gibson Street,P7A 2J6,48.4528217,-89.1976309
1000,Huron Avenue,P7A 6L4,48.4613065,-89.2217208
867,Woodcrest Road,P7G 1J2,48.4513156,-89.2860818
420,Brittany Drive,P7B 5X8,48.4512809,-89.2616191
140,Clarkson Street South,P7B 4W8,48.4416698,-89.2541554
80,Clarkson Street South,P7B 4W8,48.4433548,-89.2521894
30,Wishart Crescent,P7A 6G3,48.4482370,-89.2425147
175,High Street North,P7A 8C7,48.4436828,-89.2280589
243,St. James Streetl,P7A 3P1,48.4420061,-89.2144602
775,John Street,P7B 1Z7,48.4353875,-89.2563388
174,Marlborough Road,P7B 4G4,48.4344114,-89.2459964
110,Marlborough Road,P7B 4G4,48.4358041,-89.2445461
160,Algonquin Avenue South,P7B 4T1,48.4386573,-89.2512801
600,Redwood Avenue,P7C 5G1,48.3919341,-89.2961019
145,Churchill Drive West,P7C 1V6,48.3908643,-89.2845087
150,West Redwood Ave,P7C 1Z6,48.3931444,-89.2844792
110,Sherbrooke Street,P7C 4R6,48.3960284,-89.2794988
205,Franklin Street South,P7E 1R2,48.3816835,-89.2576040
301,Archibald Street North,P7C 3Y3,48.3872965,-89.2499832
600,McKenzie Street,P7C 4Z3,48.3925798,-89.2375365
345,Ogden Street,P7C 2N4,48.3942518,-89.2422572
1130,Georgina Avenue,P7E 3J1,48.3685232,-89.3007189
315,Empire Avenue,P7E 4R9,48.3726440,-89.2668166
115,Mary Street West,P7E 2L8,48.3700085,-89.2800305
707,James St S,P7E 2V9,48.3733760,-89.2923171
511,Victoria Avenue West,P7C 1H2,48.3850343,-89.2904813
120,Begin Street West,P7E 5M4,48.3792153,-89.2800227
2645,Donald Street East,P7E 5X5,48.3831033,-89.2758532
125,Lillie Street South,P7E 2A3,48.3827114,-89.2687786
735,Selkirk Street South,P7E 1V3,48.3730329,-89.2600275
621,Selkirk Street South,P7E 1T9,48.3751836,-89.2607876
35,Algoma Street North,P7B 5G7,48.4376342,-89.2220373
2240,Sleeping Giant PKWY,P7A 0E7,48.4329342,-89.2182472
130,Churchill Drive West,P7C 1V5,48.3888853,-89.2821407
698,City Road,P7J 1K3,48.3562827,-89.2791042
632,City Road,P7J 1K3,48.3565038,-89.2677297
301,Pearl Street,P7B 1E7,48.4347728,-89.2267207
361,Memorial Avenue,P7B 3Y4,48.4256519,-89.2342767
1195,Arthur Street West,P7E 6E2,48.3811716,-89.3110421
