House number,Street name,Postal code,Latitude,Longitude
8000,Bathurst Street,L4J 0B8,43.8159653,-79.4519089
8000,Bathurst Street,L4J 0B8,43.8158775,-79.4524015
8010,Bathurst Street,L4J 0B8,43.8167782,-79.4522148
10,Disera Drive,L4J 0A7,43.8104723,-79.4541242
1030,Centre Street,L4J 3M8,43.8093410,-79.4592266
1470,Centre Street,L4J 3N1,43.8065666,-79.4741450
7777,Keele Street,L4K 1Y7,43.8012637,-79.4988338
3764,Highway 7,L4L 1A6,43.7896142,-79.5481672
4080,Highway 7,L4L 1A6,43.7875968,-79.5585793
4515,Highway 7,L4L 1S6,43.7836735,-79.5735767
25,Woodstream Boulevard,L4L 7Y8,43.7763589,-79.6046603
25,Woodstream Boulevard,L4L 8C3,43.7758593,-79.6044391
5100,Rutherford Road,L4H 2J2,43.8176710,-79.6027558
9600,Islington Avenue,L4H 2T1,43.8238612,-79.6092957
9600,Islington Avenue,L4L 1A7,43.8251405,-79.6093628
9600,Islington Avenue,L4H 2T1,43.8255490,-79.6096706
9801,Jane Street,L6A 3N9,43.8484815,-79.5358213
9801,Jane Street,L6A 3N9,43.8483810,-79.5357891
3650,Rutherford Road,L4K 5Y6,43.8273395,-79.5521090
4921,Rutherford Road,L4L 1A6,43.8174992,-79.5959370
10,Jacob Keffer Parkway,L4K 5E3,43.8362494,-79.5063595
9151,Keele Street,L4K 5B4,43.8360064,-79.5071401
9151,Keele Street,L4K 5B4,43.8359226,-79.5072090
8520,Jane Street,L4K 5A9,43.8128099,-79.5292582
252,York Hill Boulevard,L4J 2P6,43.7991314,-79.4423087
9306,Bathurst Street,L6A 4N9,43.8477955,-79.4614137
9306,Bathurst Street,L6A 4N7,43.8482970,-79.4615520
9330,Bathurst Street,L6A 4N9,43.8490111,-79.4593914
9320,Bathurst Street,L6A 4N9,43.8485458,-79.4600591
9360,Bathurst Street,L6A 4N9,43.8496616,-79.4603203
9360,Bathurst Street,L6A 4N9,43.8496568,-79.4602138
9310,Bathurst Street,L6A 4N9,43.8486466,-79.4594376
9320,Bathurst Street,L6A 4N9,43.8485866,-79.4597856
9200,Bathurst Street,L4J 8W1,43.8460835,-79.4607236
9200,Bathurst Street,L4J 8W1,43.8470035,-79.4600093
9200,Bathurst Street,L4J 8W1,43.8470296,-79.4599190
9200,Bathurst Street,L4J 8W1,43.8466704,-79.4590547
9200,Bathurst Street,L4J 8W1,43.8467879,-79.4591084
80,Chaiwood Court,L6A 0V9,43.8541118,-79.4734434
176,Creditstone Road,L4K 4H7,43.7930588,-79.5173406
2,Autumn Grove Court,L0J 1C0,43.8305319,-79.6261692
2180,Steeles Avenue West,L4K 2Z5,43.7822810,-79.4934436
88,Steeles Avenue West,L4J 1A1,43.7979212,-79.4229122
2268,Rutherford Road,L4K 2N8,43.8367586,-79.5086949
9222,Keele Street,L4K 5A3,43.8356921,-79.5094743
1011,Rutherford Road,L4J 0E2,43.8449307,-79.4705059
9930,Dufferin Street,L6A 4K5,43.8587415,-79.4873940
9320,Bathurst Street,L6A 4N9,43.8485568,-79.4599568
10700,Bathurst Street,L6A 4B6,43.8834622,-79.4679387
9200,Dufferin Street,L4K 0C6,43.8418504,-79.4835739
1621,Rutherford Road,L4K 0C6,43.8419563,-79.4846707
941,Rutherford Road,L6A 1S2,43.8458614,-79.4643644
1900,Major MacKenzie Drive West,L6A 4R9,43.8597130,-79.5020810
2266,Major MacKenzie Drive West,L6A 3Y7,43.8549980,-79.5128270
10019,Keele Street,L6A 3Y8,43.8553036,-79.5120371
10019,Keele Street,L6A 3Y8,43.8554396,-79.5120932
10019,Keele Street,L6A 3Y8,43.8553904,-79.5120722
3100,Major MacKenzie Drive West,L6A 1S1,43.8499407,-79.5374467
3737,Major Mackenzie Drive West,L4H 0A2,43.8448342,-79.5586329
137,Chrislea Road,L4L 8N6,43.7932778,-79.5423138
8010,Bathurst Street,L4J 0B8,43.8167971,-79.4520840
9360,Bathurst Street,L6A 4N9,43.8496900,-79.4595916
1,Promenade Circle,L4J 4P8,43.8077054,-79.4525763
1000,New Westminster Drive,L4J 8G3,43.8178703,-79.4534713
3330,Steeles Avenue West,L4K 1A2,43.7739701,-79.5314254
8707,Dufferin Street,L4J 0A2,43.8284658,-79.4778706
8727,Dufferin Street,L4J 0A2,43.8291905,-79.4794192
1200,Highway 7,L4J 0E1,43.8234618,-79.4732329
9600,Islington Avenue,L4H 2T1,43.8251373,-79.6096240
1,Thornhill Woods Drive,L4J 8V3,43.8268189,-79.4638476
1,Bass Pro Mills Drive,L4K 5W4,43.8261882,-79.5347725
1,Bass Pro Mills Drive,L4K 5W4,43.8261943,-79.5365745
1949,Highway 7,L4K 1V5,43.8022336,-79.4893995
31,Disera Drive,L4J 0A7,43.8119561,-79.4535878
390,Edgeley Boulevard,L4K 3Z6,43.8023363,-79.5352155
7601,Weston Road,L4L 9J9,43.7867595,-79.5460976
72,Steeles Avenue West,L4J 1A1,43.7980624,-79.4222936
9001,Dufferin Street,L4J 0H7,43.8361318,-79.4802941
3650,Rutherford Road,L4K 5Y6,43.8272973,-79.5524362
7241,Bathurst Street,L4J 3W1,43.7992264,-79.4463363
8010,Bathurst Street,L4J 0B8,43.8167486,-79.4523394
8020,Bathurst Street,L4J 0B8,43.8164420,-79.4531560
8020,Bathurst Street,L4J 0B8,43.8160597,-79.4528982
531,Atkinson Avenue,L4J 8L7,43.8176579,-79.4512375
531,Atkinson Avenue,L4J 8L7,43.8181691,-79.4507454
531,Atkinson Avenue,L4J 8L7,43.8182590,-79.4503678
531,Atkinson Avenue,L4J 8L7,43.8182341,-79.4504595
531,Atkinson Avenue,L4J 8L7,43.8181947,-79.4506485
1641,Langstaff Road,L4K 5X8,43.8232413,-79.4804260
9950,Dufferin Street,L6A 4K5,43.8598556,-79.4879233
1370,Major MacKenzie Drive West,L6A 4H6,43.8624519,-79.4832134
9360,Bathurst Street,L6A 4N9,43.8496525,-79.4601097
1390,Major MacKenzie Drive West,L6A 4H6,43.8635097,-79.4838813
9970,Dufferin Street,L6A 4K5,43.8606533,-79.4881567
9980,Dufferin Street,L6A 4K5,43.8603110,-79.4892135
9980,Dufferin Street,L6a 4K0,43.8604511,-79.4892710
1460,Major MacKenzie Drive West,L6A 4H6,43.8623899,-79.4867700
1400,Major MacKenzie Drive West,L6A 4H6,43.8635155,-79.4844794
681,Chrislea Road,L4L 8A3,43.8081072,-79.5475746
681,Chrislea Road,L4L 8A3,43.8081983,-79.5477564
1600,Langstaff Road,L4K 3S3,43.8243574,-79.4802311
64,Townsgate Drive,L4J 8A4,43.7950565,-79.4438784
70,Townsgate Drive,L4J 8A4,43.7951947,-79.4434894
66,Townsgate Drive,L4J 8A4,43.7950526,-79.4437661
78,Townsgate Drive,L4J 8A4,43.7952271,-79.4430157
72,Townsgate Drive,L4J 8A4,43.7951826,-79.4434373
68,Townsgate Drive,L4J 8A4,43.7951353,-79.4436310
76,Townsgate Drive,L4J 8A4,43.7952566,-79.4430938
74,Townsgate Drive,L4J 8A4,43.7952281,-79.4432224
8700,Dufferin Street,L4K,43.8285267,-79.4801365
800,Steeles Avenue West,L4J 7L2,43.7923973,-79.4484649
180,Steeles Avenue West,L4J 2L1,43.7972389,-79.4261990
1600,Steeles Avenue West,L4K 4M2,43.7873930,-79.4725851
8555,Keele Street,L4K 2N1,43.8191522,-79.5034699
8555,Keele Street,L4K 2N1,43.8194040,-79.5034807
255,Bass Pro Mills Drive,L4K 0A2,43.8227676,-79.5410062
11200,Highway 400 South,L6A 1S8,43.8751756,-79.5572898
2180,Steeles Avenue West,L4K 2Z5,43.7823836,-79.4937091
3737,Major Mackenzie Drive West,L4H 0A2,43.8448143,-79.5573058
2780,Highway 7,L4K 3R9,43.7963658,-79.5174864
7015,Islington Avenue,L4L 1V8,43.7645510,-79.5756212
255,Bass Pro Mills Drive,L4K 0A2,43.8221000,-79.5412422
8100,Highway 27,L4H 3M1,43.7827379,-79.6276075
11200,Highway 400 Southbound,L6A 1S8,43.8748347,-79.5572392
31,Colossus Drive,L4L 9K4,43.7851112,-79.5445615
7575,Weston Road,L4L 9K5,43.7859460,-79.5458103
1500,Major MacKenzie Drive West,L6A 0A9,43.8618867,-79.4883406
8280,Highway 27,L4H 0R9,43.7849524,-79.6258266
8280,Highway 27,L4H 0R9,43.7846889,-79.6260328
8300,Highway 27,L4H 0R9,43.7859717,-79.6273251
6161,Highway 7 West,L4H 0K9,43.7713390,-79.6259503
167,Chrislea Road,L4L 8N6,43.7950875,-79.5419387
595,Cityview Boulevard,L4H 3M7,43.8618995,-79.5537289
10750,Jane Street,L6A 3B1,43.8680345,-79.5417913
12001,Highway 400 Northbound,L7B 1A8,43.8950556,-79.5572436
12001,Highway 400 Northbound,L7B 1A8,43.8955549,-79.5584952
12001,Highway 400 Northbound,L7B 1A8,43.8950965,-79.5576539
12001,Highway 400 Northbound,L7B 1A8,43.8951317,-79.5572565
12001,Highway 400 Northbound,L7B 1A8,43.8952063,-79.5572709
9342,Bathurst Street,L6A 4N9,43.8488159,-79.4608032
9342,Bathurst Street,L6A 4N9,43.8489186,-79.4605452
9330,Bathurst Street,L6A 4N9,43.8489804,-79.4596518
2501,Rutherford Road,L4K 2N6,43.8335306,-79.5196273
25,Woodstream Boulevard,L4L 7Y8,43.7763334,-79.6047806
8300,Highway 27,L4H 0R9,43.7868543,-79.6277207
111,Zenway Boulevard,L4H 3H9,43.7761450,-79.6288889
7235,Keele Street,L4K 5W5,43.7886113,-79.4959092
11,Cidermill Avenue,L4K 4B6,43.8058267,-79.5276547
3120,Rutherford Road,L4K 0B1,43.8314738,-79.5351641
9350,Bathurst Street,L6A 4N9,43.8488459,-79.4618058
191,Rowntree Dairy Road,L4L 8B8,43.7841753,-79.5531030
58,Dina Road,L6A 1L7,43.8402167,-79.5069146
1076,Rutherford Road,L6A 1S2,43.8457203,-79.4698913
1,Hesperus Road,L4J 0G9,43.8437234,-79.4653728
1,Thornhill Woods Drive,L4J 8V3,43.8267941,-79.4639383
4585,Hwy 7,L4L 1S6,43.7834775,-79.5752035
3,Director Court,L4L 4S5,43.7718158,-79.5406771
61,Creditview Road,L4L 9T1,43.8104662,-79.5465188
398,Steeles Avenue West,L4J 6X3,43.7952853,-79.4348313
27-4040,Steeles Avenue West,L4L 4Y5,43.7694979,-79.5539578
1801,Rutherford Road,L4K 5R7,43.8398998,-79.4924915
4555,Highway 7 West,L4L 1S6,43.7833632,-79.5745743
4555,Highway 7 West,L4L 1S6,43.7830048,-79.5744329
90,Edgeley Boulevard,L4K 5W7,43.7965812,-79.5331940
30,Disera Drive,L4J 0A7,43.8118582,-79.4542468
2501,Rutherford Rd #37,L4K 2N6,43.8327393,-79.5198868
7626,Yonge Street,L4J 1V9,43.8134226,-79.4240897
665,Millway Avenue,L4K 3T8,43.8110908,-79.5312818
60,Saramia Crescent,L4K 4J7,43.8150032,-79.5263361
80,Centre Street,L4J 1E9,43.8159657,-79.4273319
101A,Freshway Drive,L4K 1R9,43.7892181,-79.5136689
3570,Rutherford Road,L4H 3T8,43.8277551,-79.5503212
110,Jardin Drive,L4K 2T7,43.7959326,-79.4942860
531,Atkinson Avenue,L4J 8L7,43.8181064,-79.4511049
101,Innovation Drive,L4H 0S3,43.7874438,-79.6290738
11,Director Court,L4L 4S5,43.7730860,-79.5406057
3582,Major MacKenzie Drive West,L4H 3T6,43.8461734,-79.5547050
3560,Major MacKenzie Drive W,L4H4E8,43.8468818,-79.5538330
1420,Major MacKenzie Drive West,L6A 4H6,43.8621482,-79.4851470
1420,Major MacKenzie Drive West,L6A 4H6,43.8621310,-79.4853169
1480,Major MacKenzie Drive West,L6A 4H6,43.8621894,-79.4847086
150,Bradwick Drive,L4K 1K8,43.8169690,-79.4902204
8401,Weston Road,L4L 1A6,43.8069225,-79.5509505
9960,Dufferin Street,L6A 4K5,43.8596259,-79.4889110
8081,Dufferin Street,L4J 8R9,43.8142013,-79.4754895
8081,Dufferin Street,L4J 8R9,43.8140015,-79.4754516
8551,Weston Road,L4L 9R4,43.8095542,-79.5512131
2901,Major MacKenzie Drive West,L6A 3N9,43.8503180,-79.5327709
7850,"Weston Road, Vaughan, ON",L4L 9C3,43.7920610,-79.5494689
8100,Highway 27,L4H 3N2,43.7825444,-79.6274535
7626,Yonge Street,L4J 1V9,43.8133801,-79.4241875
7332,Jane Street,L4K 1A7,43.7833141,-79.5230877
110,Cidermill Ave,L4K 4L9,43.8061080,-79.5318395
3764,Highway 7,L4L 1A6,43.7895519,-79.5483868
14,Connie Crescent,L4K 1L6,43.8210281,-79.4900751
289,Bradwick Drive,L4K 1K5,43.8161614,-79.4858711
7368,Yonge Street,L4J 8H9,43.8072879,-79.4230707
57,Cairnburg Place,L4L 3L4,43.8055020,-79.5981015
20,Staffern Dr #16,L4K 2S4,43.8231007,-79.4863917
9001,Dufferin Street,L4J 0H7,43.8364329,-79.4808357
9001,Dufferin Street,L4J 0H7,43.8364562,-79.4805998
90,Basaltic Rd,L4K 1G6,43.8224030,-79.4977480
67,Colossus Drive,L4L 9J8,43.7843114,-79.5426062
31,Gaudaur Road,L4L 3R8,43.7684973,-79.5602134
56,Romina Drive,L4K 4Z7,43.8160614,-79.5372141
668,Millway Avenue,L4K 3V2,43.8104431,-79.5330914
1206,Centre Street,L4J 3M9,43.8080948,-79.4649629
56,Bay Hill Drive,L4K 1G9,43.7949335,-79.4836794
6150,Highway 7,L4H 0R2,43.7733086,-79.6252200
1430,Major MacKenzie Drive West,L6A 4H6,43.8621977,-79.4858335
1410,Major MacKenzie Drive West,L6A 4H6,43.8636715,-79.4848752
1410,Major MacKenzie Drive West,L6A 4H6,43.8636429,-79.4851075
1410,Major MacKenzie Drive West,L6A 4H6,43.8636138,-79.4853691
1450,Major MacKenzie Drive West,L6A 4H6,43.8627799,-79.4856912
1480,Major MacKenzie Drive West,L6A 4H6,43.8626392,-79.4870759
7368,Yonge Street,L4J 8H9,43.8073296,-79.4230259
10040,Keele Street,L6A 1G3,43.8557425,-79.5134763
7766,Martin Grove Road,L4L 2C7,43.7762126,-79.6108733
6150,Highway 7,L4H 0R2,43.7733206,-79.6251439
25,Woodstream Boulevard,L4L 7Y8,43.7760736,-79.6038518
4585,Highway 7,L4L 9T8,43.7828076,-79.5754309
4555,Highway 7,L4L 1S6,43.7833458,-79.5746587
101,Freshway Drive,L4K 1R9,43.7918359,-79.5143825
1,Bass Pro Mills Drive,L4K 5W4,43.8255867,-79.5410583
1,Bass Pro Mills Drive,L4K 5W4,43.8249208,-79.5406848
1,Bass Pro Mills Drive,L4K 5W4,43.8255827,-79.5388464
1,Bass Pro Mills Drive,L4K 5W4,43.8254203,-79.5383071
1,Bass Pro Mills Drive,L4K 5W4,43.8254682,-79.5383086
1,Promenade Circle,L4J 4P8,43.8065349,-79.4522690
1,Promenade Circle,L4J 4P8,43.8083204,-79.4519454
1,Promenade Circle,L4J 8G7,43.8062707,-79.4523621
7007,Islington Avenue,L4L 4T5,43.7649164,-79.5742482
3850,Steeles Avenue West,L4L4Y6,43.7709495,-79.5457470
3850,Steeles Avenue West,L4L4Y6,43.7709883,-79.5455284
140,Woodbridge Avenue,L4L 4K9,43.7854708,-79.5937988
4431,Highway 7,L4L 5W6,43.7839866,-79.5703587
4431,Highway 7,L4L 5W6,43.7839714,-79.5704458
7600,Weston Road,L4L 8B7,43.7883864,-79.5502169
3764,Highway 7,L4L 1A6,43.7896152,-79.5484098
110,Windflower Gate,L4L 9K8,43.7905773,-79.5537373
101,Freshway Drive,L4K 1R9,43.7917304,-79.5144701
1480,Major MacKenzie Drive West,L6A 4H6,43.8622226,-79.4843736
1480,Major MacKenzie Drive West,L6A 4H6,43.8622148,-79.4844594
1480,Major MacKenzie Drive West,L6A 4H6,43.8622141,-79.4845397
1480,Major MacKenzie Drive West,L6A 4H6,43.8621994,-79.4846257
1430,Major MacKenzie Drive West,L6A 4H6,43.8621588,-79.4856477
1430,Major MacKenzie Drive West,L6A 4H6,43.8621781,-79.4857523
1430,Major MacKenzie Drive West,L6A 4H6,43.8622148,-79.4859347
1430,Major MacKenzie Drive West,L6A 4H6,43.8622264,-79.4860232
1430,Major MacKenzie Drive West,L6A 4H6,43.8622516,-79.4861224
1430,Major MacKenzie Drive West,L6A 4H6,43.8622709,-79.4862270
1430,Major MacKenzie Drive West,L6A 4H6,43.8622922,-79.4863397
1480,Major MacKenzie Drive West,L6A 4H6,43.8628027,-79.4872677
1480,Major MacKenzie Drive West,L6A 4H6,43.8628685,-79.4872999
1480,Major MacKenzie Drive West,L6A 4H6,43.8629090,-79.4873170
1480,Major MacKenzie Drive West,L6A 4H6,43.8629596,-79.4873362
1480,Major MacKenzie Drive West,L6A 4H6,43.8630296,-79.4873542
1480,Major MacKenzie Drive West,L6A 4H6,43.8631153,-79.4873797
1480,Major MacKenzie Drive West,L6A 4H6,43.8631867,-79.4874027
1490,Major MacKenzie Drive West,L6A 4H6,43.8633225,-79.4872990
1490,Major MacKenzie Drive West,L6A 4H6,43.8633400,-79.4871599
1490,Major MacKenzie Drive West,L6A 4H6,43.8633561,-79.4870667
1490,Major MacKenzie Drive West,L6A 4H6,43.8633955,-79.4868750
1490,Major MacKenzie Drive West,L6A 4H6,43.8634628,-79.4865294
1490,Major MacKenzie Drive West,L6A 4H6,43.8634782,-79.4864277
1490,Major MacKenzie Drive West,L6A 4H6,43.8634915,-79.4863380
1410,Major MacKenzie Drive West,L6A 4H6,43.8635547,-79.4858651
1410,Major MacKenzie Drive West,L6A 4H6,43.8635773,-79.4856375
1410,Major MacKenzie Drive West,L6A 4H6,43.8635908,-79.4855558
1410,Major MacKenzie Drive West,L6A 4H6,43.8636084,-79.4854502
1410,Major MacKenzie Drive West,L6A 4H6,43.8636389,-79.4852097
1450,Major MacKenzie Drive West,L6A 4H6,43.8627894,-79.4856141
1450,Major MacKenzie Drive West,L6A 4H6,43.8628046,-79.4857893
1450,Major MacKenzie Drive West,L6A 4H6,43.8627406,-79.4857799
1460,Major MacKenzie Drive West,L6A 4H6,43.8628568,-79.4861815
1460,Major MacKenzie Drive West,L6A 4H6,43.8629376,-79.4862843
1440,Major MacKenzie Drive West,L6A 4H6,43.8628231,-79.4853900
1440,Major MacKenzie Drive West,L6A 4H6,43.8628450,-79.4852148
4040,Steeles Avenue West,L4L 4Y5,43.7694755,-79.5539047
1530,Major MacKenzie Drive West,L6A 0A9,43.8616111,-79.4894610
1530,Major MacKenzie Drive West,L6A 0A9,43.8615705,-79.4896568
1530,Major MacKenzie Drive West,L6A 0A9,43.8615395,-79.4897453
1530,Major MacKenzie Drive West,L6A 0A9,43.8615105,-79.4898526
1530,Major MacKenzie Drive West,L6A 0A9,43.8614680,-79.4900108
1530,Major MacKenzie Drive West,L6A 0A9,43.8614158,-79.4901905
9960,Dufferin Street,L6A 4K5,43.8599561,-79.4890550
9960,Dufferin Street,L6A 4K5,43.8598562,-79.4890150
9960,Dufferin Street,L6A 4K5,43.8597829,-79.4889780
9960,Dufferin Street,L6A 4K5,43.8597051,-79.4889472
9960,Dufferin Street,L6A 4K5,43.8595607,-79.4888948
9960,Dufferin Street,L6A 4K5,43.8594918,-79.4888579
9960,Dufferin Street,L6A 4K5,43.8594163,-79.4888209
9960,Dufferin Street,L6A 4K5,43.8593497,-79.4887839
9940,Dufferin Street,L6A 4K5,43.8589231,-79.4885682
1600,Langstaff Road,L4K 3S3,43.8243795,-79.4801053
7028,Yonge Street,L4J 1V7,43.7985823,-79.4206889
7028,Yonge Street,L4J 1V7,43.7986404,-79.4207174
7007,Islington Avenue,L4L 4T5,43.7650214,-79.5744302
6221,Highway 7,L4H 0L1,43.7710550,-79.6273842
1,Promenade Circle,L4J 4P8,43.8069777,-79.4522804
3560,Rutherford Road,L4H 2J3,43.8284801,-79.5500588
8401,Weston Road,L4L 1A6,43.8069845,-79.5508140
130,Racco Parkway,L4J 8X9,43.8156657,-79.4756114
130,Racco Parkway,L4J 8X9,43.8161541,-79.4756012
130,Racco Parkway,L4J 8X9,43.8160646,-79.4756073
130,Racco Parkway,L4J 8X9,43.8158945,-79.4755910
130,Racco Parkway,L4J 8X9,43.8165193,-79.4755910
130,Racco Parkway,L4J 8X9,43.8168009,-79.4755971
200,Racco Parkway,L4J 8X9,43.8176720,-79.4732595
200,Racco Parkway,L4J 8X9,43.8179681,-79.4727096
155,Racco Parkway,L4J 8X9,43.8163158,-79.4736990
215,Racco Parkway,L4J 8X9,43.8169716,-79.4728086
175,Racco Parkway,L4J 8X9,43.8167293,-79.4731907
251,Racco Parkway,L4J 8X9,43.8181454,-79.4709785
1011,Rutherford Road,L4J 0E2,43.8447379,-79.4704335
1011,Rutherford Road,L4J 0E2,43.8446420,-79.4708608
1011,Rutherford Road,L4J 0E2,43.8447903,-79.4704565
1011,Rutherford Road,L4J 0E2,43.8448427,-79.4704778
1011,Rutherford Road,L4J 0E2,43.8446317,-79.4709264
1011,Rutherford Road,L4J 0E2,43.8446215,-79.4709832
1011,Rutherford Road,L4J 0E2,43.8446062,-79.4710487
1011,Rutherford Road,L4J 0E2,43.8445588,-79.4712810
8707,Dufferin Street,L4J 0A2,43.8295267,-79.4780463
8707,Dufferin Street,L4J 0A2,43.8295229,-79.4781346
8707,Dufferin Street,L4J 0A2,43.8295474,-79.4782234
8707,Dufferin Street,L4J 0A2,43.8295279,-79.4783061
8707,Dufferin Street,L4J 0A2,43.8295160,-79.4783887
8707,Dufferin Street,L4J 0A2,43.8295034,-79.4784621
8707,Dufferin Street,L4J 0A2,43.8294898,-79.4785343
8707,Dufferin Street,L4J 0A2,43.8294788,-79.4786170
8707,Dufferin Street,L4J 0A2,43.8294745,-79.4786891
8707,Dufferin Street,L4J 0A2,43.8294609,-79.4787707
8707,Dufferin Street,L4J 0A2,43.8287159,-79.4792498
8707,Dufferin Street,L4J 0A2,43.8284789,-79.4777686
8707,Dufferin Street,L4J 0A2,43.8284529,-79.4779727
8707,Dufferin Street,L4J 0A2,43.8284351,-79.4780696
8707,Dufferin Street,L4J 0A2,43.8284234,-79.4781834
8707,Dufferin Street,L4J 0A2,43.8283998,-79.4783142
8707,Dufferin Street,L4J 0A2,43.8283853,-79.4784076
8707,Dufferin Street,L4J 0A2,43.8283701,-79.4785060
8707,Dufferin Street,L4J 0A2,43.8283453,-79.4787258
8707,Dufferin Street,L4J 0A2,43.8281208,-79.4790126
8707,Dufferin Street,L4J 0A2,43.8280956,-79.4792114
2901,Major MacKenzie Drive West,L6A 3N9,43.8503373,-79.5326523
2901,Major MacKenzie Drive West,L6A 3N9,43.8503514,-79.5325739
3971,Major MacKenzie Drive West,L4H 4G1,43.8421931,-79.5719651
1890,Major MacKenzie Drive West,L6A 4R9,43.8582535,-79.5022794
1890,Major MacKenzie Drive West,L6A 4R9,43.8583542,-79.5017675
9661,Jane Street,L6A 3X5,43.8435739,-79.5343923
9661,Jane Street,L6A 3X5,43.8430664,-79.5340957
9661,Jane Street,L6A 3X5,43.8431477,-79.5341095
9100,Jane Street,L4K 0A4,43.8299870,-79.5344375
9200,Weston Road,L4H 2P8,43.8282400,-79.5573528
3883,Rutherford Road,L4L 9R8,43.8252314,-79.5579879
8401,Weston Road,L4L 0K8,43.8067275,-79.5508912
10700,Bathurst Street,L6A 4B6,43.8834629,-79.4683005
10700,Bathurst Street,L6A 4B6,43.8833895,-79.4682811
180,Steeles Avenue West,L4J 2L1,43.7980056,-79.4263537
9505,Keele Street,L6A 1W3,43.8413964,-79.5085549
9505,Keele Street,L6A1W3,43.8416353,-79.5086202
9929,Keele Street,L6A 1Y5,43.8534966,-79.5113877
7700,Bathurst Street,L4J 7Y3,43.8099852,-79.4521523
50,Drumlin Circle,L4K 3G1,43.7846673,-79.4887597
10019,Keele Street,L6A 3Y8,43.8553310,-79.5118869
441,Clark Avenue West,L4J 6W7,43.8045072,-79.4384283
2620,Rutherford Road,L4K 0H1,43.8347119,-79.5210939
3604,Major MacKenzie Drive West,L6A 1S1,43.8465094,-79.5564287
8333,Weston Road,L4L 8E2,43.8049868,-79.5503497
3901,Highway 7,L4L 8L5,43.7874434,-79.5542042
8525,Highway 27,L4L 1A7,43.7922919,-79.6258958
3600,Major MacKenzie Drive West,L4H3T6,43.8481323,-79.5549900
411,Cityview Boulevard,L4H 0Z4,43.8560796,-79.5525868
1200,Highway 7,L4J 0E1,43.8235578,-79.4732926
1200,Highway 7,L4J 0E1,43.8236302,-79.4733347
1200,Highway 7,L4J 0E1,43.8237060,-79.4733814
1200,Highway 7,L4J 0E1,43.8238172,-79.4734424
1200,Highway 7,L4J 0E1,43.8239284,-79.4735028
9200,Dufferin Street,L4K 0C0,43.8417065,-79.4835144
9200,Weston Road,L4H 2P0,43.8266557,-79.5570849
7700,Pine Valley Drive,L4L 2X0,43.7827834,-79.5738734
7777,Keele Street,L4K 1Y0,43.8017711,-79.4989355
8000,Bathurst Street,L4J 0B0,43.8159513,-79.4520492
1,Promenade Circle,L4J 4P0,43.8058721,-79.4524524
10156,Highway 27,L4L 1A7,43.8303036,-79.6313200
457,Jevlan Drive,L4L 7Z9,43.8057629,-79.5481148
111,Racco Parkway,L4J 8X9,43.8154104,-79.4738316
111,Racco Parkway,L4J 8X9,43.8156905,-79.4739025
5100,Rutherford Road,L4H 2J2,43.8171274,-79.6021946
190,McNaughton Road,L6A 4E2,43.8627528,-79.5017077
657,Valley Vista Drive,L6A 2E6,43.8584644,-79.4853902
8010,Bathurst Street,L4J 0B8,43.8167130,-79.4525048
220,Viceroy Road,L4K 3C2,43.7894429,-79.4737203
1,Promenade Circle,L4J 4P8,43.8065289,-79.4526239
190,McNaughton Road,L6A 4E2,43.8627733,-79.5015918
1-220,Viceroy Road,L4K 3C2,43.7891705,-79.4736274
231,Trade Valley Drive,L4H 3N6,43.7921250,-79.6611821
231,Trade Valley Drive,L4H 3N6,43.7916768,-79.6609304
9580,Jane Street,L6A 1S6,43.8424062,-79.5395379
35,Maplecrete Road,L4K 1A5,43.7897945,-79.5194667
31,Maplecrete Road,L4K 1A5,43.7896556,-79.5193301
33,Maplecrete Road,L4K 1A5,43.7897216,-79.5193569
941,Rutherford Road,L6A 1S2,43.8458440,-79.4643008
941,Rutherford Road,L6A 1S2,43.8458234,-79.4642378
941,Rutherford Road,L6A 1S2,43.8458015,-79.4641707
9200,Bathurst Street,L4J 8W1,43.8463496,-79.4600736
9200,Bathurst Street,L4J 8W1,43.8463362,-79.4601752
9200,Bathurst Street,L4J 8W1,43.8462762,-79.4600335
9200,Bathurst Street,L4J 8W1,43.8462718,-79.4601444
9200,Bathurst Street,L4J 8W1,43.8461407,-79.4599750
9200,Bathurst Street,L4J 8W1,43.8460429,-79.4599318
9200,Bathurst Street,L4J 8W1,43.8461385,-79.4600951
9200,Bathurst Street,L4J 8W1,43.8460607,-79.4600612
9200,Bathurst Street,L4J 8W1,43.8459874,-79.4600335
9200,Bathurst Street,L4J 8W1,43.8467337,-79.4590799
9200,Bathurst Street,L4J 8W1,43.8468533,-79.4591359
9200,Bathurst Street,L4J 8W1,43.8468887,-79.4590168
9200,Bathurst Street,L4J 8W1,43.8469089,-79.4589304
9200,Bathurst Street,L4J 8W1,43.8470498,-79.4598265
9200,Bathurst Street,L4J 8W1,43.8470743,-79.4597434
9200,Bathurst Street,L4J 8W1,43.8470965,-79.4596694
9200,Bathurst Street,L4J 8W1,43.8471187,-79.4595831
9200,Bathurst Street,L4J 8W1,43.8471387,-79.4594999
9200,Bathurst Street,L4J 8W1,43.8471610,-79.4593983
9200,Bathurst Street,L4J 8W1,43.8471676,-79.4591148
9200,Bathurst Street,L4J 8W1,43.8471565,-79.4592072
9200,Bathurst Street,L4J 8W1,43.8471809,-79.4592935
8700,Bathurst Street,L4J 9J8,43.8344208,-79.4566590
8700,Bathurst Street,L4J 9J8,43.8344357,-79.4565687
8700,Bathurst Street,L4J 9J8,43.8344504,-79.4564864
8700,Bathurst Street,L4J 9J8,43.8345407,-79.4560681
8700,Bathurst Street,L4J 9J8,43.8344688,-79.4564081
8700,Bathurst Street,L4J 9J8,43.8344870,-79.4563229
8700,Bathurst Street,L4J 9J8,43.8345022,-79.4562377
8700,Bathurst Street,L4J 9J8,43.8345175,-79.4561555
8707,Dufferin Street,L4J 0A2,43.8283589,-79.4786005
8727,Dufferin Street,L4J 0A2,43.8292895,-79.4791029
7880,Keele Street,L4K 4G7,43.8017701,-79.5007089
7540,Woodbridge Avenue,L4L 9L9,43.7848182,-79.5923465
190,Marycroft Avenue,L4L 5Y1,43.7845408,-79.5655256
9001,Dufferin Street,L4J 0H7,43.8364392,-79.4807568
9001,Dufferin Street,L4J 0H7,43.8364480,-79.4806836
9001,Dufferin Street,L4J 0H7,43.8364444,-79.4804976
9001,Dufferin Street,L4J 0H7,43.8364068,-79.4804065
9001,Dufferin Street,L4J 0H7,43.8362208,-79.4803106
9001,Dufferin Street,L4J 0H7,43.8363256,-79.4803371
9320,Bathurst Street,L6A 4N9,43.8485757,-79.4598611
9340,Bathurst Street,L6A 4N9,43.8489264,-79.4601420
9340,Bathurst Street,L6A 4N9,43.8489367,-79.4600592
9340,Bathurst Street,L6A 4N9,43.8489476,-79.4599690
9340,Bathurst Street,L6A 4N9,43.8489563,-79.4598885
9330,Bathurst Street,L6A 4N9,43.8489933,-79.4595701
9330,Bathurst Street,L6A 4N9,43.8490014,-79.4594838
9360,Bathurst Street,L6A 4N9,43.8496784,-79.4597002
9360,Bathurst Street,L6A 4N9,43.8496518,-79.4598889
9360,Bathurst Street,L6A 4N9,43.8496471,-79.4600029
9360,Bathurst Street,L6A 4N9,43.8496629,-79.4597910
9342,Bathurst Street,L6A 4N9,43.8489118,-79.4606410
9342,Bathurst Street,L6A 4N9,43.8489037,-79.4607243
9342,Bathurst Street,L6A 4N9,43.8488861,-79.4608179
9306,Bathurst Street,L6A 4N9,43.8481447,-79.4613296
9306,Bathurst Street,L6A 4N9,43.8481058,-79.4613173
9306,Bathurst Street,L6A 4N9,43.8480647,-79.4613050
9306,Bathurst Street,L6A 4N9,43.8476560,-79.4611994
9306,Bathurst Street,L6A 4N9,43.8475887,-79.4611771
1600,Steeles Avenue West,L4K 4M2,43.7878118,-79.4728348
10019,Keele Street,L6A 3Y8,43.8554205,-79.5118224
10055,Keele Street,L6A 3J9,43.8560667,-79.5124173
10055,Keele Street,L6A 3J9,43.8560540,-79.5123075
10055,Keele Street,L6A 3J9,43.8562459,-79.5124774
10055,Keele Street,L6A 3J9,43.8561648,-79.5124481
10175,Keele Street,L6A 3Y9,43.8583963,-79.5128795
10175,Keele Street,L6A 3Y9,43.8585176,-79.5129167
10175,Keele Street,L6A 3Y9,43.8585150,-79.5128105
10175,Keele Street,L6A 3Y9,43.8586005,-79.5129344
10175,Keele Street,L6A 3Y9,43.8586885,-79.5128919
10175,Keele Street,L6A 3Y9,43.8586247,-79.5128565
3280,"Steeles Ave W, Unit 22",L4K 2Y2,43.7750414,-79.5277200
3971,Major MacKenzie Dr W,L4H 4G1,43.8422221,-79.5718150
1900,Major MacKenzie Drive West,L6A 4R9,43.8603211,-79.5024436
3600,Rutherford Road,L4H 3T8,43.8274988,-79.5511627
1840,Major MacKenzie Drive West,L6A 4R9,43.8601303,-79.4998872
2499,Rutherford Road,L4K 0J9,43.8340739,-79.5167041
330,Steeles Avenue West,L4J 6W9,43.7958041,-79.4323541
54,Yellowood Circle,L4J 8M1,43.8223236,-79.4765331
23,McCleary Court,L4K 3R6,43.7970632,-79.5176569
670,Applewood Crescent,L4K 5X3,43.7975769,-79.5391636
700,Centre Street,L4J 0A7,43.8116898,-79.4517147
750,Millway Avenue,L4K 3T8,43.8117487,-79.5331838
100-400,Applewood Crescent,L4K 0C3,43.8040173,-79.5408566
9661,Jane Street,L6A 3X5,43.8434716,-79.5343802
4000,Steeles Avenue West,L4L 4V9,43.7699884,-79.5507900
60,Basaltic Road,L4K 1G6,43.8219931,-79.4976827
9100,Jane Street,L4K 0A4,43.8296836,-79.5328807
51,Caldari Road,L4K 4G3,43.8187877,-79.5264199
3450,Major Mackenzie Drive West,L4L 1A6,43.8464738,-79.5525356
12001,Highway 400 Northbound,L7B 1A8,43.8952631,-79.5573198
12001,Highway 400 Northbound,L7B 1A8,43.8949887,-79.5572179
3604,Major MacKenzie Drive West,L4H 3T6,43.8461768,-79.5564300
3560,Major MacKenzie Drive West,L4H0A2,43.8469006,-79.5534292
19,Hollywood Hill Circle,L4H 2P5,43.8372536,-79.5636351
1390,Major MacKenzie Drive West,L6A 4H6,43.8633371,-79.4835833
467,Edgeley Boulevard,L4K 4E9,43.8047756,-79.5349926
3120,Rutherford Road,L4K 0B1,43.8312443,-79.5357802
15,Connie Crescent,L4K 1L3,43.8200840,-79.4945965
61,Nave Street,L4H 3N5,43.8314196,-79.6425377
3300,Rutherford Road,L4K 5Z2,43.8300465,-79.5421590
955,Major MacKenzie Drive West,L6A 4P9,43.8641794,-79.4687303
9671,Jane Street,L6A 3X5,43.8442037,-79.5345157
4040,Steeles Avenue West,L4L 4Y5,43.7696410,-79.5537785
71,Guery Crescent,L4L9P4,43.7759966,-79.5745899
7575,Weston Road,L4L 9K5,43.7847520,-79.5458072
7250,Keele Street,L4K 1Z8,43.7874612,-79.4975111
3100,Major MacKenzie Drive West,L6A 1S1,43.8497547,-79.5377580
10750,Jane Street,L6A 3B1,43.8677915,-79.5416418
3650,Rutherford Road,L4H 0B9,43.8271646,-79.5524029
7015,Islington Avenue,L4L 1V8,43.7644523,-79.5759873
4515,Highway 7,L4L 1S6,43.7834750,-79.5734214
6161,Highway 7,L4H 0K9,43.7713165,-79.6256299
6545,Langstaff Road,L4H 3N5,43.7860965,-79.6500665
15,Connie Crescent,L4K 1L3,43.8205374,-79.4916782
681,Chrislea Road,L4L 8A3,43.8081288,-79.5478293
7200,Yonge Street,L4J 1V8,43.8017156,-79.4226504
11,Disera Drive,L4J 0A7,43.8105558,-79.4533361
8265,Huntington Road,L4H 0W6,43.7814850,-79.6467936
8265,Huntington Road,L4H 0W6,43.7819407,-79.6444565
310,Millway Ave,L4K 3W3,43.8015416,-79.5296803
100,Steeles Avenue West,L4J 7Y1,43.7982958,-79.4246356
111,Zenway Boulevard,L4H 3H9,43.7764082,-79.6275741
7900,Bathurst Street,L4J 0J9,43.8143819,-79.4514147
3981,Major MacKenzie Drive West,L4H 4G1,43.8421534,-79.5727672
180,Steeles Avenue West,L4J 2L1,43.7974102,-79.4263082
180,Steeles Avenue West,L4J 2L1,43.7975885,-79.4268855
180,Steeles Avenue West,L4J 2L1,43.7974884,-79.4268393
180,Steeles Avenue West,L4J 2L1,43.7980422,-79.4261707
180,Steeles Avenue West,L4J 2L1,43.7971882,-79.4266833
8525,Highway 27,L4L 1A7,43.7920761,-79.6257480
189,Wolf Creek Crescent,L6A 4C1,43.8448489,-79.4745878
187,Wolf Creek Crescent,L6A 4C1,43.8447594,-79.4746923
185,Wolf Creek Crescent,L6A 4C1,43.8447504,-79.4747360
183,Wolf Creek Crescent,L6A 4C1,43.8447355,-79.4748383
177,Wolf Creek Crescent,L6A 4C1,43.8446965,-79.4750059
175,Wolf Creek Crescent,L6A 4C1,43.8446875,-79.4750496
173,Wolf Creek Crescent,L6A 4C1,43.8446655,-79.4751558
171,Wolf Creek Crescent,L6A 4C1,43.8447065,-79.4752688
5731,Highway 7,L4L 4Y9,43.7745476,-79.6130019
8271,Keele Street,L4K 1Z1,43.8149488,-79.5009579
1450,Clark Avenue West,L4J 7R4,43.7983354,-79.4707307
1000,New Westminster Drive,L4J 8G3,43.8179485,-79.4533965
2160,Steeles Avenue West,L4K 2Y7,43.7826434,-79.4923936
200,Interchange Way,L4K 5C3,43.7872929,-79.5293806
531,Atkinson Avenue,L4J 8L7,43.8181738,-79.4508244
4901,Rutherford Road,L4H 3C2,43.8172624,-79.5933037
50,Springside Road,L6A 2W5,43.8403610,-79.5306904
230,Hawker Road,L6A 2R2,43.8439050,-79.5263769
210,Hawker Road,L6A 2J8,43.8428159,-79.5264095
200,Forest Run Boulevard,L4K 5H3,43.8363483,-79.4863056
199,Belview Avenue,L4L 5N9,43.8043629,-79.5572915
120,Andrew Park,L4L 1G2,43.7795518,-79.6049943
206,Glen Shields Avenue,L4K 1T8,43.7934755,-79.4808059
158,Glen Shields Avenue,L4K 1T8,43.7919214,-79.4817632
525,New Westminster Drive,L4J 7X3,43.8034622,-79.4560646
1,Bass Pro Mills Drive,L4K 5W4,43.8254929,-79.5383602
555,Autumn Hill Boulevard,L4J 8X2,43.8352343,-79.4766718
151,Forest Fountain Drive,L4H 1S4,43.8184152,-79.6113428
121,Mistysugar Trail,L4J 8T6,43.8276318,-79.4696598
589,Napa Valley Avenue,L4H 1R1,43.8220735,-79.6209386
451,Napa Valley Avenue,L4H 1Y8,43.8208570,-79.6241024
91,Fiori Drive,L4L 5S4,43.7988682,-79.5602170
500,Aberdeen Avenue,L4L 5J4,43.7928163,-79.5711621
140,Greenpark Boulevard,L4L 6Z6,43.8115152,-79.5582585
391,Velmar Drive,L4L 8J5,43.8178028,-79.5617184
366,Mullen Drive,L4J 2P3,43.7986318,-79.4511817
120,Discovery Trail,L6A 2Z2,43.8580426,-79.5434712
171,Mast Road,L6A 3J7,43.8538106,-79.5451898
71,Bruce Street,L4L 1J3,43.7797256,-79.5815738
240,Killian Road,L6A 1A8,43.8584348,-79.5186989
475,Brownridge Drive,L4J 5Y6,43.8013520,-79.4697127
40,Bainbridge Avenue,L4L 3Y1,43.7858029,-79.6086981
250,Coronation Street,L4L 6H3,43.7902902,-79.6210618
60,Burwick Avenue,L4L 1J7,43.7805036,-79.5948605
191,Crofters Road,L4L 7G3,43.8118025,-79.6004628
30,Margaret Mary Road,L4L 2W8,43.8010753,-79.5874377
7501,Martin Grove Road,L4L 1A5,43.7697151,-79.6051999
120,La Rocca Avenue,L4H 2A9,43.8305687,-79.5620139
60,Vellore Woods Boulevard,L4H 2K8,43.8305967,-79.5525416
150,St Francis Avenue,L4H 2A2,43.8265087,-79.5684675
3200,Rutherford Road,L4K 5R3,43.8306963,-79.5375097
9750,Weston Road,L4H 2Z7,43.8383247,-79.5597407
115,Starling Boulevard,L4H 2T9,43.8380956,-79.5553164
2810,Major MacKenzie Drive West,L6A 1S2,43.8507585,-79.5345440
240,Killian Road,L6A 1A8,43.8585075,-79.5190510
1,St Joan Of Arc Avenue,L6A 1W9,43.8616024,-79.5179600
575,Melville Avenue,L6A 2M4,43.8642267,-79.5310429
10424,Keele Street,L6A 2L1,43.8650530,-79.5158050
155,Melville Avenue,L6A 1Y9,43.8553878,-79.5319416
400,St Joan Of Arc Avenue,L6A 2S8,43.8696413,-79.5246162
9350,Keele Street,L6A 1P4,43.8400570,-79.5099105
50,Naylon Street,L6A 1R8,43.8505413,-79.5187953
79,Avro Road,L6A 1Y3,43.8502570,-79.5242880
9151,Keele Street,L4K 5B4,43.8359630,-79.5071665
79,Avro Road,L6A 1Y3,43.8501345,-79.5244684
2,Firenza Road,L4H 2P5,43.8368565,-79.5655776
157,Rivermede Road,L4K 3M4,43.8108695,-79.4877055
681,Chrislea Road,L4L 8A3,43.8081381,-79.5476507
71,Colossus Drive,L4L 9J8,43.7856240,-79.5415761
1,Auto Park Circle,L4L 8R1,43.7852707,-79.5478728
4114,Highway 7,L4L 1A6,43.7872877,-79.5600435
4100,Highway 7,L4L 8Z2,43.7874056,-79.5594380
589,Napa Valley Avenue,L4H 1R1,43.8222459,-79.6206461
31,Pennsylvania Avenue,L4K 5V5,43.8023453,-79.5273652
71,Four Valley Drive,L4K 4V8,43.8148438,-79.5433584
3650,Langstaff Road,L4L 9A8,43.8086933,-79.5506883
25,Woodstream Boulevard,L4L 7Y8,43.7763556,-79.6047206
341,Thornhill Woods Drive,L4J 8V6,43.8348460,-79.4667626
1,Thornhill Woods Drive,L4J 8V3,43.8266180,-79.4637870
1,Thornhill Woods Drive,L4J 8V3,43.8268255,-79.4638605
9200,Bathurst Street,L4J 8W1,43.8464956,-79.4589253
9200,Bathurst Street,L4J 8W1,43.8460759,-79.4605792
9200,Bathurst Street,L4J 8W1,43.8467256,-79.4614836
9200,Bathurst Street,L4J 8W1,43.8467888,-79.4589814
9200,Bathurst Street,L4J 8W1,43.8471005,-79.4595507
9200,Bathurst Street,L4J 8W1,43.8464779,-79.4602602
1,Hesperus Road,L4J 0G9,43.8438695,-79.4646310
901,Rutherford Road,L6A 1S2,43.8462380,-79.4637240
250,Blue Willow Drive,L4L 9E1,43.7920142,-79.5576864
250,Ansley Grove Road,L4L 3W4,43.7981896,-79.5654950
4431,Highway 7,L4L 5W6,43.7839945,-79.5704006
4535,Highway 7 West,L4L 1S6,43.7834402,-79.5740383
100,Whitmore Road,L4L 7K4,43.7870421,-79.5566077
100,Edgeley Boulevard,L4K 3Y8,43.7957427,-79.5344009
111,Jevlan Drive,L4L 8C2,43.7964221,-79.5462779
2,Chrislea Road,L4L 8V1,43.7938045,-79.5474679
1900,Steeles Avenue West,L4K 1A1,43.7857268,-79.4840535
1401,Clark Avenue West,L4J 7R4,43.7971900,-79.4687365
350,Steeles Avenue West,L4J 1A1,43.7959467,-79.4329401
7200,Yonge Street,L4J 1V8,43.8031666,-79.4230568
226,Bradwick Drive,L4K 1K8,43.8148860,-79.4877290
91,Thornhill Woods Drive,L4J 8S1,43.8303609,-79.4599166
21,Bradwick Drive,L4K 2T4,43.8170175,-79.4842580
7040,Yonge Street,L4J 1V7,43.7988730,-79.4213675
300,Rosedale Heights Drive,L4J 6Y8,43.8171166,-79.4483589
1030,Centre Street,L4J 3M8,43.8093385,-79.4593935
65,Brownridge Drive,L4J 7R8,43.8057392,-79.4614634
835,Clark Avenue West,L4J 7M1,43.8029160,-79.4493510
350,Hilda Avenue,L4J 5K2,43.8036932,-79.4372298
120,Napa Valley Avenue,L4H 1L1,43.8136846,-79.6199569
770,Napa Valley Avenue,L4H 1W9,43.8247776,-79.6153302
171,Maria Antonia Road,L4H 2S8,43.8387939,-79.5661238
53,Maplecrete Road,L4K 1A5,43.7901564,-79.5189624
33,Peelar Road,L4K 1A3,43.7885604,-79.5172050
99,Peelar Road,L4K 1A3,43.7879943,-79.5203207
91,Maplecrete Road,L4K 1A5,43.7911391,-79.5194150
110,Maplecrete Road,L4K 1A4,43.7915256,-79.5209205
133,Maplecrete Road,L4K 1A5,43.7922320,-79.5198501
91,Peelar Road,L4K 1A3,43.7880755,-79.5193817
43,Peelar Road,L4K 1A3,43.7883391,-79.5182533
63,Maplecrete Road,L4K 1A5,43.7904229,-79.5191113
41,Peelar Road,L4K 1A3,43.7885040,-79.5177031
101A,Freshway Drive,L4K 1R9,43.7898412,-79.5139051
112,Maplecrete Road,L4K 1A4,43.7917989,-79.5210407
79,Peelar Road,L4K 1A3,43.7882283,-79.5190760
250,Coronation Street,L4L 6H3,43.7905227,-79.6208127
8881,Martin Grove Road,L4H 1C3,43.8014885,-79.6226248
11290,Pine Valley Drive,L4L 1A6,43.8713781,-79.5951746
6700,Highway 7,L4L 1A5,43.7687635,-79.6452144
7835,Highway 50,L4L 1A5,43.7704229,-79.6493903
2720,King-Vaughan Road,L6A 2A8,43.9081183,-79.5415665
8000,Highway 27,L4H 0A8,43.7775120,-79.6234139
10-111a,Zenway Boulevard,L4H 3H9,43.7760818,-79.6279863
6161,Highway 7,L4H 0K9,43.7714017,-79.6256575
136,Spyglass Hill Road,L4K 2K7,43.7912560,-79.4842565
80,Terra Road,L4L 3J5,43.7778863,-79.5735709
7535,Keele Street,L4K 5W5,43.7885859,-79.4957671
84,Emily Anna Street,L4H 3H5,43.8413383,-79.5627228
80,Emily Anna Street,L4H 3H5,43.8412628,-79.5626852
40,New Westminster Drive,L4J 7Z8,43.7909138,-79.4588433
101,Exchange Avenue,L4K 5R6,43.7863275,-79.5326431
11200,Hwy 400 South,L6A 1S8,43.8755781,-79.5571001
3555,Major MacKenzie Drive West,L4H 2Y8,43.8453606,-79.5526440
170,Yellowood Circle,L4J 8M5,43.8243184,-79.4740129
270,Apple Blossom Drive,L4J 8W5,43.8407268,-79.4726302
10341,Islington Avenue,L0J 1C0,43.8404156,-79.6243203
10110,Islington Avenue,L0J 1C0,43.8345251,-79.6216613
180,Promenade Circle,L4J 0E4,43.8084874,-79.4500274
1900,Major MacKenzie Drive West,L6A 4R9,43.8599025,-79.5027345
600,Valley Vista Drive,L6A 4H2,43.8594513,-79.4820791
300,Peter Rupert Avenue,L6A 4P3,43.8489768,-79.4944698
351,Vellore Park Avenue,L4H 0E4,43.8548083,-79.5582030
675,Vellore Park Avenue,L4H 2G1,43.8602597,-79.5576301
941,Rutherford Road,L6A 1S2,43.8458125,-79.4642825
575,Via Romano Boulevard,L6A 0G1,43.8771732,-79.4772658
401,Grand Trunk Avenue,L6A 0T4,43.8526236,-79.4894048
360,Thomas Cook Avenue,L6A 4M1,43.8544263,-79.4719119
995,Major MacKenzie Drive West,L6A 4P8,43.8641347,-79.4702993
10700,Bathurst Street,L6A 4B6,43.8834823,-79.4679333
10700,Bathurst Street,L6A 4B6,43.8834275,-79.4682875
10710,Bathurst Street,L6A 4B6,43.8832672,-79.4687077
10175,Keele Street,L6A 3Y9,43.8585555,-79.5128110
351,Vellore Park Avenue,L4H 0E4,43.8547578,-79.5582680
533,Cityview Boulevard,L4H 0Z4,43.8602634,-79.5529727
541,Cityview Boulevard,L4H 0Z4,43.8606554,-79.5535833
80,Murray Farm Lane,L6A 3G1,43.8629254,-79.5465942
10610,Jane Street,L6A 3A2,43.8648527,-79.5429879
1520,Major MacKenzie Drive West,L6A 0A9,43.8612673,-79.4891563
470,Via Campanile,L4H 0X9,43.8355157,-79.5775895
3100,Major MacKenzie Drive West,L6A 1S1,43.8498382,-79.5377629
3555,Highway 7 West,L4L 6B1,43.7886606,-79.5430474
7028,Yonge Street,L4J 1V7,43.7986030,-79.4207135
10391,Islington Avenue,L0J 1C0,43.8419709,-79.6243848
8525,Highway 27,L4L 1A7,43.7922956,-79.6258437
8525,Highway 27,L4L 1A7,43.7920761,-79.6257480
3201,Highway 7,L4K 5Z7,43.7921226,-79.5299555
1500,Steeles Avenue West,L4J 4H6,43.7878490,-79.4694270
7554,Yonge Street,L4J 1V8,43.8109604,-79.4245531
7562,Yonge Street,L4J 1V9,43.8118125,-79.4242568
290,York Hill Boulevard,L4J 3B6,43.7999456,-79.4411852
9651,Jane Street,L6A 3X5,43.8431195,-79.5349005
8555,Keele Street,L4K 2N1,43.8193816,-79.5035302
3255,Rutherford Road,L4K 5Y5,43.8286226,-79.5404765
3255,Rutherford Road,L4K 5Y5,43.8285482,-79.5410280
5690,Steeles Avenue West,L4L 9T4,43.7576912,-79.6101571
108,Maplecrete Road,L4K 1A4,43.7912398,-79.5207221
21,Mullen Drive,L4J 2T6,43.7955424,-79.4582437
1200,Highway 7,L4J 0E1,43.8236890,-79.4734204
8081,Dufferin Street,L4J 8R9,43.8141840,-79.4754775
265,Beverley Glen Boulevard,L4J 7S8,43.8129250,-79.4665392
9100,Jane Street,L4K 0A4,43.8291045,-79.5329742
31,Crestlawn Gate,L4H 0H9,43.7949516,-79.6163212
121,Worth Boulevard,L4J 7V5,43.8165374,-79.4643976
4860,Highway 7,L4L 1S8,43.7819686,-79.5850499
3140,Rutherford Road,L4K 5R3,43.8306163,-79.5354621
61,Julliard Drive,L6A 3W7,43.8322704,-79.5354990
9245,Jane Street,L6A 0J9,43.8331474,-79.5314747
7501,Weston Road,L4L 9K6,43.7828184,-79.5454379
8000,Bathurst Street,L4J 0B8,43.8158995,-79.4520870
8010,Bathurst Street,L4J 0B8,43.8167775,-79.4523860
3400,Steeles Avenue West,L4K 1A2,43.7751045,-79.5312962
8201,Islington Avenue,L4L 9S6,43.7934408,-79.5838161
86,Gamble Street,L4L 1R2,43.7978693,-79.5880992
8403,Islington Avenue,L4L 1X3,43.7984648,-79.5841331
531,Atkinson Avenue,L4J 8L7,43.8179496,-79.4507954
7560,Weston Road,L4L 6C5,43.7866867,-79.5472716
8274,Islington Avenue,L4L 1W8,43.7943872,-79.5851343
370;378,Steeles Avenue West,L4J 6X1,43.7956909,-79.4334506
1500,Major MacKenzie Drive West,L6A 0A9,43.8616743,-79.4884032
1500,Major MacKenzie Drive West,L6A 0A9,43.8616021,-79.4888926
1500,Major MacKenzie Drive West,L6A 0A9,43.8618928,-79.4884697
130,Racco Parkway,L4J 8X9,43.8162130,-79.4755510
9280,Keele Street,L6A 1P4,43.8371890,-79.5087115
111,Maplecrete Road,L4K 1A5,43.7917217,-79.5198211
1030,Centre Street,L4J 3M8,43.8096480,-79.4592335
10365,Islington Avenue,L0J 1C0,43.8434783,-79.6164892
395,Pinewood Drive,L4J 5S3,43.7977482,-79.4382924
393,Pinewood Drive,L4J 5S3,43.7977731,-79.4381638
389,Pinewood Drive,L4J 5S3,43.7978037,-79.4380202
387,Pinewood Drive,L4J 5S3,43.7978296,-79.4378993
381,Pinewood Drive,L4J 5S3,43.7978602,-79.4377789
379,Pinewood Drive,L4J 5S3,43.7978810,-79.4376503
373,Pinewood Drive,L4J 5S3,43.7979181,-79.4375184
371,Pinewood Drive,L4J 5S3,43.7979388,-79.4373834
365,Pinewood Drive,L4J 5S3,43.7979701,-79.4372460
363,Pinewood Drive,L4J 5S3,43.7980005,-79.4371105
359,Pinewood Drive,L4J 5S3,43.7980242,-79.4369728
357,Pinewood Drive,L4J 5S3,43.7980524,-79.4368411
351,Pinewood Drive,L4J 5S3,43.7980696,-79.4367140
349,Pinewood Drive,L4J 5S3,43.7981212,-79.4365903
131,Ravineview Drive,L4G 0M1,43.8909383,-79.5143323
300,Ravineview Drive,L6A 3P8,43.8892755,-79.5186000
3310,Steeles Avenue West,L4K 1A2,43.7741569,-79.5304172
3330,Steeles Avenue West,L4K 1A2,43.7740234,-79.5314576
3340,Steeles Avenue West,L4K 1A2,43.7746330,-79.5306006
121,Joseph Aaron Boulevard,L4J 6J5,43.7960811,-79.4642683
8260,Highway 27,L4H 0R9,43.7844892,-79.6252143
7100,Kirby Road,L0J 1C0,43.8583700,-79.6795220
80,Cetona Avenue,L4H 3A2,43.8360095,-79.5664425
15,Clarence Street,L4L 1L2,43.7862776,-79.5910718
23,Clarence Street,L4L 1L2,43.7863895,-79.5914504
31,Clarence Street,L4L 1L2,43.7865157,-79.5916222
43,Clarence Street,L4L 1L2,43.7867784,-79.5917042
51,Clarence Street,L4L 1L2,43.7869361,-79.5920278
57,Clarence Street,L4L 1L2,43.7870665,-79.5921027
61,Clarence Street,L4L 1L2,43.7871811,-79.5922751
69,Clarence Street,L4L 1L2,43.7873150,-79.5923037
79,Antonella Crescent,L4L 7N7,43.7992974,-79.5549681
83,Antonella Crescent,L4L 7N7,43.7992657,-79.5551181
87,Antonella Crescent,L4L 7N7,43.7992380,-79.5552625
91,Antonella Crescent,L4L 7N7,43.7992166,-79.5554038
95,Antonella Crescent,L4L 7N7,43.7991832,-79.5555592
99,Antonella Crescent,L4L 7N7,43.7991595,-79.5557027
103,Antonella Crescent,L4L 7N7,43.7991224,-79.5558538
107,Antonella Crescent,L4L 7N7,43.7990998,-79.5559914
34,Armon Avenue,L4J 8B2,43.8226934,-79.4569669
38,Armon Avenue,L4J 8B2,43.8228287,-79.4569822
39,Armon Avenue,L4J 8B2,43.8228413,-79.4563209
42,Armon Avenue,L4J 8B2,43.8229561,-79.4569643
46,Armon Avenue,L4J 8B2,43.8230689,-79.4569377
50,Armon Avenue,L4J 8B2,43.8231948,-79.4569129
115,Hammerstone Crescent,L4J 8B2,43.8235624,-79.4580619
118,Hammerstone Crescent,L4J 8B2,43.8239770,-79.4584219
122,Hammerstone Crescent,L4J 8B2,43.8240648,-79.4582717
123,Hammerstone Crescent,L4J 8B2,43.8236546,-79.4579146
126,Hammerstone Crescent,L4J 8B2,43.8241210,-79.4580647
129,Hammerstone Crescent,L4J 8B2,43.8236859,-79.4577049
130,Hammerstone Crescent,L4J 8B2,43.8241537,-79.4578747
134,Hammerstone Crescent,L4J 8B2,43.8241864,-79.4576851
135,Hammerstone Crescent,L4J 8B2,43.8237134,-79.4575211
138,Hammerstone Crescent,L4J 8B2,43.8242558,-79.4574870
140,Hammerstone Crescent,L4J 8B2,43.8241936,-79.4572328
144,Hammerstone Crescent,L4J 8B2,43.8240719,-79.4570683
148,Hammerstone Crescent,L4J 8B2,43.8239442,-79.4569806
154,Hammerstone Crescent,L4J 8B2,43.8238142,-79.4569296
155,Hammerstone Crescent,L4J 8B2,43.8235014,-79.4574298
159,Hammerstone Crescent,L4J 8B2,43.8233871,-79.4573283
160,Hammerstone Crescent,L4J 8B2,43.8236814,-79.4568225
163,Hammerstone Crescent,L4J 8B2,43.8233019,-79.4572437
168,Hammerstone Crescent,L4J 8B2,43.8235870,-79.4566804
174,Hammerstone Crescent,L4J 8B2,43.8235501,-79.4565244
180,Hammerstone Crescent,L4J 8B2,43.8235370,-79.4563547
183,Hammerstone Crescent,L4J 8B2,43.8230628,-79.4563671
185,Hammerstone Crescent,L4J 8B2,43.8230839,-79.4561869
186,Hammerstone Crescent,L4J 8B2,43.8235616,-79.4561574
190,Hammerstone Crescent,L4J 8B2,43.8235816,-79.4559622
194,Hammerstone Crescent,L4J 8B2,43.8235929,-79.4557700
76,Cetona Avenue,L4H 3A2,43.8358748,-79.5664265
68,Cetona Avenue,L4H 3A2,43.8357374,-79.5664339
62,Cetona Avenue,L4H 3A2,43.8356021,-79.5664406
58,Cetona Avenue,L4H 3A2,43.8354597,-79.5664401
54,Cetona Avenue,L4H 2Z8,43.8353250,-79.5664358
48,Cetona Avenue,L4H 2Z8,43.8351822,-79.5664491
46,Cetona Avenue,L4H 2Z8,43.8350489,-79.5664442
38,Cetona Avenue,L4H 2Z8,43.8349065,-79.5664454
34,Cetona Avenue,L4H 2Z8,43.8347727,-79.5664330
28,Cetona Avenue,L4H 2Z8,43.8346339,-79.5664507
24,Cetona Avenue,L4H 2Z8,43.8344994,-79.5664455
18,Cetona Avenue,L4H 2Z8,43.8343584,-79.5664576
14,Cetona Avenue,L4H 2Z8,43.8342253,-79.5664617
8,Cetona Avenue,L4H 2Z8,43.8340846,-79.5664594
2,Cetona Avenue,L4H 2Z8,43.8339523,-79.5664632
1,Kingsview Drive,L4H 2X1,43.8339464,-79.5668009
7,Kingsview Drive,L4H 2X1,43.8340855,-79.5668046
11,Kingsview Drive,L4H 2X1,43.8342202,-79.5668109
19,Kingsview Drive,L4H 2X1,43.8343544,-79.5667900
23,Kingsview Drive,L4H 3A2,43.8344951,-79.5667877
29,Kingsview Drive,L4H 3A2,43.8346319,-79.5667911
33,Kingsview Drive,L4H 3A2,43.8347715,-79.5667956
39,Kingsview Drive,L4H 3A2,43.8349118,-79.5667786
43,Kingsview Drive,L4H 3A2,43.8350456,-79.5667742
51,Kingsview Drive,L4H 3A2,43.8351879,-79.5667767
53,Kingsview Drive,L4H 3A2,43.8353235,-79.5667806
59,Kingsview Drive,L4H 3A2,43.8354551,-79.5667685
65,Kingsview Drive,L4H 3A2,43.8355963,-79.5667676
71,Kingsview Drive,L4H 3A2,43.8357424,-79.5667558
75,Kingsview Drive,L4H 3A2,43.8358757,-79.5667543
79,Kingsview Drive,L4H 3A2,43.8360159,-79.5667648
1,Cetona Avenue,L4H 2Z8,43.8339316,-79.5659805
7,Cetona Avenue,L4H 2Z8,43.8340770,-79.5659807
11,Cetona Avenue,L4H 2Z8,43.8342193,-79.5659793
19,Cetona Avenue,L4H 2Z8,43.8343495,-79.5659849
23,Cetona Avenue,L4H 2Z8,43.8344909,-79.5659725
29,Cetona Avenue,L4H 2Z8,43.8346318,-79.5659708
33,Cetona Avenue,L4H 2Z8,43.8347672,-79.5659798
39,Cetona Avenue,L4H 2Z8,43.8349057,-79.5659750
45,Cetona Avenue,L4H 2Z8,43.8350424,-79.5659812
49,Cetona Avenue,L4H 2Z8,43.8351805,-79.5659709
53,Cetona Avenue,L4H 2Z8,43.8353209,-79.5659749
59,Cetona Avenue,L4H 2Z8,43.8354542,-79.5659679
63,Cetona Avenue,L4H 3A2,43.8355961,-79.5659748
67,Cetona Avenue,L4H 3A2,43.8357325,-79.5659645
77,Cetona Avenue,L4H 3A2,43.8358729,-79.5659687
81,Cetona Avenue,L4H 3A2,43.8360052,-79.5659634
78,Lourdes Avenue,L4H 3A3,43.8360048,-79.5656364
74,Lourdes Avenue,L4H 3A3,43.8358662,-79.5656308
70,Lourdes Avenue,L4H 3A3,43.8357300,-79.5656329
64,Lourdes Avenue,L4H 3A3,43.8355924,-79.5656255
60,Lourdes Avenue,L4H 3A3,43.8354523,-79.5656330
54,Lourdes Avenue,L4H 3A3,43.8353129,-79.5656258
48,Lourdes Avenue,L4H 3A3,43.8351868,-79.5656340
44,Lourdes Avenue,L4H 3A4,43.8350278,-79.5656373
38,Lourdes Avenue,L4H 3A4,43.8349038,-79.5656233
34,Lourdes Avenue,L4H 3A4,43.8347614,-79.5656355
28,Lourdes Avenue,L4H 3A4,43.8346331,-79.5656271
22,Lourdes Avenue,L4H 3A4,43.8344877,-79.5656295
18,Lourdes Avenue,L4H 3A4,43.8343588,-79.5656340
12,Lourdes Avenue,L4H 3A4,43.8342085,-79.5656445
8,Lourdes Avenue,L4H 3A4,43.8340771,-79.5656359
2,Lourdes Avenue,L4H 3A4,43.8339449,-79.5656467
199,Davos Road,L4H 2X1,43.8335295,-79.5660133
195,Davos Road,L4H 2X1,43.8335299,-79.5658269
189,Davos Road,L4H 2X3,43.8335368,-79.5656375
51,Toulon Crescent,L4H 2X3,43.8333449,-79.5656644
47,Toulon Crescent,L4H 2X3,43.8332267,-79.5656549
43,Toulon Crescent,L4H 2X3,43.8330980,-79.5656551
37,Toulon Crescent,L4H 2X3,43.8329771,-79.5656719
33,Toulon Crescent,L4H 2X3,43.8328469,-79.5656616
27,Toulon Crescent,L4H 2X3,43.8327087,-79.5656567
23,Toulon Crescent,L4H 2X3,43.8325670,-79.5656597
19,Toulon Crescent,L4H 2X3,43.8323975,-79.5656359
15,Toulon Crescent,L4H 2X3,43.8322625,-79.5654075
11,Toulon Crescent,L4H 2X3,43.8322457,-79.5652192
7,Toulon Crescent,L4H 2X3,43.8322635,-79.5650198
1,Toulon Crescent,L4H 2X3,43.8322799,-79.5648154
2,Saint Etienne Drive,L4H 2X4,43.8320517,-79.5647390
8,Saint Etienne Drive,L4H 2X4,43.8320171,-79.5649079
12,Saint Etienne Drive,L4H 2X4,43.8320039,-79.5650693
16,Saint Etienne Drive,L4H 2X4,43.8319798,-79.5652316
20,Saint Etienne Drive,L4H 2X4,43.8319528,-79.5654066
26,Saint Etienne Drive,L4H 2X4,43.8319485,-79.5655718
32,Saint Etienne Drive,L4H 2X4,43.8319118,-79.5657542
27,Strasbourg Lane,L4H 2X2,43.8318757,-79.5660118
31,Strasbourg Lane,L4H 2X2,43.8320154,-79.5660057
37,Strasbourg Lane,L4H 2X2,43.8321483,-79.5660153
41,Strasbourg Lane,L4H 2X2,43.8322952,-79.5660176
51,Strasbourg Lane,L4H 2X2,43.8325720,-79.5659979
57,Strasbourg Lane,L4H 2X2,43.8327076,-79.5659983
61,Strasbourg Lane,L4H 2X2,43.8328440,-79.5660011
67,Strasbourg Lane,L4H 2X1,43.8329778,-79.5659900
71,Strasbourg Lane,L4H 2X1,43.8331012,-79.5659779
75,Strasbourg Lane,L4H 2X1,43.8332285,-79.5659908
81,Strasbourg Lane,L4H 2X1,43.8333454,-79.5659797
223,Davos Road,L4H 2X1,43.8335397,-79.5668423
217,Davos Road,L4H 2X1,43.8335407,-79.5666361
211,Davos Road,L4H 2X1,43.8335395,-79.5664416
82,Strasbourg Lane,L4H 2X1,43.8333502,-79.5664638
76,Strasbourg Lane,L4H 2X1,43.8332243,-79.5664689
72,Strasbourg Lane,L4H 2X1,43.8331034,-79.5664750
68,Strasbourg Lane,L4H 2X1,43.8329691,-79.5664726
62,Strasbourg Lane,L4H 2X2,43.8328370,-79.5664619
58,Strasbourg Lane,L4H 2X2,43.8326984,-79.5664852
54,Strasbourg Lane,L4H 2X2,43.8325591,-79.5664796
50,Strasbourg Lane,L4H 2X2,43.8324184,-79.5664793
42,Strasbourg Lane,L4H 2X2,43.8322862,-79.5664779
38,Strasbourg Lane,L4H 2X2,43.8321392,-79.5664892
32,Strasbourg Lane,L4H 2X2,43.8320078,-79.5664833
28,Strasbourg Lane,L4H 2X2,43.8318807,-79.5664888
22,Strasbourg Lane,L4H 2X2,43.8317343,-79.5664828
18,Strasbourg Lane,L4H 2X2,43.8315945,-79.5664820
12,Strasbourg Lane,L4H 2X2,43.8314531,-79.5664870
54,Saint Urbain Drive,L4H 2X2,43.8312472,-79.5664290
58,Saint Urbain Drive,L4H 2W8,43.8312225,-79.5666372
88,Saint Urbain Drive,L4H 2W8,43.8311995,-79.5668416
15,Tremblay Avenue,L4H 2W8,43.8314607,-79.5668335
19,Tremblay Avenue,L4H 2W8,43.8315925,-79.5668315
25,Tremblay Avenue,L4H 2W8,43.8317335,-79.5668184
29,Tremblay Avenue,L4H 2W8,43.8318675,-79.5668277
33,Tremblay Avenue,L4H 2W8,43.8320028,-79.5668196
39,Tremblay Avenue,L4H 2W8,43.8321461,-79.5668259
45,Tremblay Avenue,L4H 2W8,43.8322854,-79.5668189
49,Tremblay Avenue,L4H 2X1,43.8324163,-79.5668290
55,Tremblay Avenue,L4H 2X1,43.8325581,-79.5668259
61,Tremblay Avenue,L4H 2X1,43.8326953,-79.5668082
67,Tremblay Avenue,L4H 2X1,43.8328325,-79.5668204
71,Tremblay Avenue,L4H 2X1,43.8329740,-79.5668041
75,Tremblay Avenue,L4H 2X1,43.8331005,-79.5667965
81,Tremblay Avenue,L4H 2X1,43.8332263,-79.5668152
85,Tremblay Avenue,L4H 2X1,43.8333502,-79.5668065
115,Auto Park Circle,L4L 8R1,43.7826623,-79.5488335
8000,Highway 27,L4H 0A8,43.7780667,-79.6238500
8300,Highway 27,L4H 0R9,43.7863509,-79.6270122
9350,Bathurst Street,L6A 4N9,43.8488300,-79.4618470
4515,Highway 7,L4L 1S6,43.7834611,-79.5735344
10503,Islington Avenue,L0J 1C0,43.8441366,-79.6279681
4100,Steeles Avenue West,L4L 3S8,43.7687960,-79.5556590
3350,Steeles Avenue West,L4K 1A2,43.7747133,-79.5316169
3360,Steeles Avenue West,L4K 1A2,43.7749015,-79.5307957
4020,Major Mackenzie Drive West,L4H 4E9,43.8446339,-79.5686574
12001,Highway 400 Northbound,L7B 1A8,43.8950614,-79.5574663
200,Lawford Road,L4H 0Z5,43.8489364,-79.5694829
3600,Major MacKenzie Drive West,L4H3T6,43.8482725,-79.5554086
55,Cityview Boulevard,L4H4E8,43.8481008,-79.5523821
431,Ilan Ramon Boulevard,L6A 0X2,43.8593262,-79.4644941
2191,Major MacKenzie Drive West,L6A 4W2,43.8554580,-79.5104705
12001,Highway 400 Northbound,L7B 1A8,43.8958372,-79.5585898
6130,Highway 7,L4H 0R2,43.7730085,-79.6246469
24,Woodstream Boulevard,L4L 8C3,43.7754326,-79.6055975
12,Woodstream Boulevard,L4L 8C3,43.7761491,-79.6059542
432,Apple Blossom Drive,L4J 9K7,43.8411099,-79.4670752
436,Apple Blossom Drive,L4J 9A2,43.8411366,-79.4669447
374,Apple Blossom Drive,L4J 9K7,43.8406309,-79.4691009
376,Apple Blossom Drive,L4J 9K7,43.8406528,-79.4689816
380,Apple Blossom Drive,L4J 9K7,43.8406732,-79.4688564
382,Apple Blossom Drive,L4J 9K7,43.8406946,-79.4687413
386,Apple Blossom Drive,L4J 9K7,43.8407225,-79.4686238
390,Apple Blossom Drive,L4J 9K7,43.8407380,-79.4685109
370,Apple Blossom Drive,L4J 9K7,43.8405958,-79.4692194
394,Apple Blossom Drive,L4J 9K7,43.8407666,-79.4683859
396,Apple Blossom Drive,L4J 9K7,43.8407926,-79.4682658
400,Apple Blossom Drive,L4J 9K7,43.8408163,-79.4681517
402,Apple Blossom Drive,L4J 9K7,43.8408388,-79.4680388
406,Apple Blossom Drive,L4J 9K7,43.8408757,-79.4679131
410,Apple Blossom Drive,L4J 9K7,43.8409062,-79.4677959
414,Apple Blossom Drive,L4J 9K7,43.8409309,-79.4676795
416,Apple Blossom Drive,L4J 9K7,43.8409628,-79.4675679
420,Apple Blossom Drive,L4J 9K7,43.8409977,-79.4674569
424,Apple Blossom Drive,L4J 9K7,43.8410400,-79.4673370
428,Apple Blossom Drive,L4J 9K7,43.8410738,-79.4672069
"1,5,9,15",Amberty Street,L4J 8W5,43.8407050,-79.4699752
314,Apple Blossom Drive,L4J 8W5,43.8402989,-79.4708000
318,Apple Blossom Drive,L4J 8W5,43.8403246,-79.4706550
322,Apple Blossom Drive,L4J 8W5,43.8403457,-79.4705046
326,Apple Blossom Drive,L4J 8W5,43.8403748,-79.4703521
"21,23,25,27,29,31,33",Amberty Street,L4J 8W5,43.8406033,-79.4705582
330,Apple Blossom Drive,L4J 8W5,43.8404169,-79.4701961
334,Apple Blossom Drive,L4J 8W5,43.8404440,-79.4700456
338,Apple Blossom Drive,L4J 8W5,43.8404705,-79.4698949
342,Apple Blossom Drive,L4J 8W5,43.8404917,-79.4697290
57,Serene Way,L4J 9A2,43.8414731,-79.4670788
565,Thornhill Woods Drive,L4J 8Z9,43.8408559,-79.4691907
569,Thornhill Woods Drive,L4J 8Z9,43.8409464,-79.4691967
573,Thornhill Woods Drive,L4J 8Z9,43.8410477,-79.4691731
"15,17,19,21,23,25",Krisbury Avenue,L4J 8W7,43.8412859,-79.4703131
250,Bathurst Glen Drive,L4J 8A7,43.8391867,-79.4652397
251,Melville Avenue,L6A 1Z1,43.8579717,-79.5315715
550,Peter Rupert Avenue,L6A 0S1,43.8550120,-79.4980958
550,Peter Rupert Avenue,L6A 0S1,43.8553240,-79.4982795
631,Valley Vista Drive,L6A 3V5,43.8583580,-79.4837240
350,Lawford Road,L4H 4C3,43.8518277,-79.5705716
7491,Nashville Road,L0J 1C0,43.8363106,-79.6879367
"9940,9960",Dufferin Street,L6A 4K5,43.8591730,-79.4886620
10750,Jane Street,L6A 3B1,43.8678225,-79.5415288
9255,Jane Street,L6a 0K1,43.8333242,-79.5307442
1890,Major MacKenzie Drive West,L6A 4R9,43.8582530,-79.5019440
7015,Islington Avenue,L4L 1V8,43.7645335,-79.5760185
7015,Islington Avenue,L4L 1V8,43.7647695,-79.5757175
40,Friuli Court,L4L 9T3,43.7662335,-79.5740930
5400,Steeles Avenue West,L4L 9S1,43.7595860,-79.5980270
7845,Kipling Avenue,L4L1Z4,43.7811115,-79.5975110
101 Woodbridge 905-851-1079,Auto Park Circle,L4L 8R1,43.7832975,-79.5480650
2800,Steeles Avenue West,M3J 3A1,43.7779665,-79.5120645
71,Peelar Road,L4K 1A3,43.7884430,-79.5188060
7060,Jane Street,L4K 1A6,43.7767830,-79.5232980
77,Maplecrete Road,L4K 1A5,43.7907665,-79.5194805
600,Tesma Way,L4K 5C2,43.8322910,-79.5152260
2606,Rutherford Road,L4K 0H1,43.8341785,-79.5203810
2610,Rutherford Road,L4K 0H1,43.8341420,-79.5209285
105,Four Valley Drive,L4K 4V8,43.8161265,-79.5437760
1600,Highway 7,L4K 4J8,43.8071490,-79.4834010
8066,Dufferin Street,L4K 1R7,43.8132225,-79.4766755
8090,Dufferin Street,L4K 1R7,43.8136269,-79.4767570
8118,Dufferin Street,L4K 1R7,43.8145290,-79.4769985
251,Racco Parkway,L4J 8X9,43.8181710,-79.4704015
175,Racco Parkway,L4J 8X9,43.8165530,-79.4729815
155,Racco Parkway,L4J 8X9,43.8160420,-79.4734945
111,Racco Parkway,L4J 8X9,43.8155430,-79.4738605
215,Racco Parkway,L4J 8X9,43.8168110,-79.4725905
200,Racco Parkway,L4J 8X9,43.8178415,-79.4730965
111,Rose Green Drive,L4J 4R6,43.8168730,-79.4393090
8020,Bathurst Street,L4J 0B8,43.8161200,-79.4530445
1600,Langstaff Road,L4K 3S3,43.8243720,-79.4801870
8707,Dufferin Street,L4J 0A2,43.8283735,-79.4782760
8707,Dufferin Street,L4J 0A2,43.8280995,-79.4791145
8707,Dufferin Street,L4J 0A2,43.8294930,-79.4784070
8727,Dufferin Street,L4J 0A2,43.8292630,-79.4791025
8707,Dufferin Street,L4J 0A2,43.8287115,-79.4792590
8727,Dufferin Street,L4J 0A2,43.8291915,-79.4794290
400,Spinnaker Way,L4K 5Y9,43.8323760,-79.4956440
8700,Bathurst Street,L4J 8V8,43.8344775,-79.4563365
240,Racco Parkway,L4J 8X9,43.8194025,-79.4722530
9001,Dufferin Street,L4J 0H7,43.8362975,-79.4805135
145,Wolf Creek Crescent,L6A 4C1,43.8450020,-79.4751420
9310,Bathurst Street,L6A 4N9,43.8486415,-79.4594610
9320,Bathurst Street,L6A 4N9,43.8485830,-79.4599280
9330,Bathurst Street,L6A 4N9,43.8489890,-79.4595155
9360,Bathurst Street,L6A 4N9,43.8496740,-79.4599350
9342,Bathurst Street,L6A 4N9,43.8488630,-79.4606715
9340,Bathurst Street,L6A 4N9,43.8489415,-79.4600145
910,Rutherford Road,L6A 1S2,43.8469215,-79.4641475
"3, 7, 9, 11, 15, 17, 19",Honeywood Road,L6A 9C2,43.8439750,-79.4703000
"2, 6, 8, 10,12, 16, 18, 20",Honeywood Road,L6A 9C2,43.8443580,-79.4704860
"2,6,8,10,12,16",Mistywood Crescent,L4J 9E5,43.8434180,-79.4721585
"21, 23, 27, 29, 31, 33, 35, 37",Honeywood Road,L6A 9C2,43.8438365,-79.4709865
"41, 43, 45, 47",Honeywood Road,L6A 9E6,43.8437330,-79.4715535
"22, 26, 28, 30, 32, 36",Honeywood Road,L6A 9C2,43.8442345,-79.4710905
"38, 40, 42,44, 46, 48",Honeywood Road,L6A 9C2,43.8441520,-79.4716150
"18,20,22,26,28,30,32",Mistywood Crescent,L6A 9E6,43.8438400,-79.4722395
"36, 38, 40, 42, 46, 48",Mistywood Crescent,L6A 9E6,43.8442780,-79.4723395
"41, 43, 45, 47, 49, 51",Mistywood Crescent,L6A 9E6,43.8445030,-79.4718150
"1, 3, 7, 9, 11, 15, 17",Rustwood Road,L4J 9E5,43.8433840,-79.4726030
"2, 6, 8, 10, 12, 14",Rustwood Road,L4J 9E5,43.8432970,-79.4731750
"136, 138,140, 142, 144, 146",Mistywood Crescent,L4J 9K3,43.8432255,-79.4736075
"19, 21, 25, 27, 29, 31",Rustwood Road,L4J 9E5,43.8438020,-79.4726995
"33, 35, 37, 39, 41, 43",Rustwood Road,L4J 9K2,43.8441930,-79.4727910
"18, 20, 22, 24, 26, 28",Rustwood Road,L4J 9E5,43.8436880,-79.4732690
"122, 124, 126, 128, 130, 132",Mistywood Crescent,L4J 9K3,43.8436130,-79.4737060
"32, 34, 36, 38, 40, 42",Rustwood Road,L4J 9K2,43.8440855,-79.4733760
"131, 133, 135, 137, 139, 141, 143, 145",Mistywood Crescent,L4J 9K2,43.8432185,-79.4742535
"117,119, 123, 127, 129",Mistywood Crescent,L4J 9K2,43.8436675,-79.4743530
"108, 110, 112, 114, 116, 118",Mistywood Crescent,L4J 9K2,43.8440085,-79.4738020
"105, 107,  109, 111, 115",Mistywood Crescent,L4J 9K2,43.8440300,-79.4744325
209,Wolf Creek Crescent,L6A 4C1,43.8450430,-79.4747875
213,Wolf Creek Crescent,L6A 4C1,43.8451170,-79.4748285
219,Wolf Creek Crescent,L6A 4C1,43.8452240,-79.4748830
23,Jacob Keffer Parkway,L4K 5N8,43.8366457,-79.5048819
12,Old Jane Street,L4J 7K3,43.8151055,-79.4256105
9200,Weston Road,L4L 1A6,43.8271130,-79.5569030
9200,Weston Road,L4H 2P8,43.8275815,-79.5570305
9641,Jane Street,L6A 4G5,43.8425340,-79.5345825
9801,Jane Street,L6A 3N9,43.8484625,-79.5357125
57,Heritage Estates Road,L6A 4J7,43.8575505,-79.4822375
61,Heritage Estates Road,L6A 4J7,43.8575620,-79.4820855
53,Heritage Estates Road,L6A 4J7,43.8575470,-79.4823870
49,Heritage Estates Road,L6A 4J7,43.8575395,-79.4825400
45,Heritage Estates Road,L6A 4J7,43.8575175,-79.4826885
41,Heritage Estates Road,L6A 4J7,43.8575015,-79.4828570
37,Heritage Estates Road,L6A 4J7,43.8574675,-79.4830025
33,Heritage Estates Road,L6A 4J7,43.8574345,-79.4831500
29,Heritage Estates Road,L6A 4J7,43.8574170,-79.4832995
44,Heritage Estates Road,L6A 3V5,43.8579250,-79.4828745
40,Heritage Estates Road,L6A 3V5,43.8578995,-79.4830275
36,Heritage Estates Road,L6A 3V5,43.8578825,-79.4831805
32,Heritage Estates Road,L6A 3V5,43.8578405,-79.4833325
11,Heritage Estates Road,L6A 4J7,43.8573010,-79.4838865
7,Heritage Estates Road,L6A 4J7,43.8572790,-79.4840355
1,Heritage Estates Road,L6A 4J7,43.8572420,-79.4841865
25,Heritage Estates Road,L6A 4J7,43.8573890,-79.4834485
21,Heritage Estates Road,L6A 4J7,43.8573660,-79.4835955
22,Heritage Estates Road,L6A 3V5,43.8577745,-79.4836610
17,Heritage Estates Road,L6A 4J7,43.8573245,-79.4837385
18,Heritage Estates Road,L6A 3V5,43.8577460,-79.4838280
12,Heritage Estates Road,L6A 3V5,43.8577145,-79.4839935
28,Heritage Estates Road,L6A 3V5,43.8578050,-79.4834955
8,Heritage Estates Road,L6A 3V5,43.8576780,-79.4841570
2,Heritage Estates Road,L6A 3V5,43.8576500,-79.4843225
1,Alrob Court,L6a 4J7,43.8576515,-79.4848460
9,Alrob Court,L6A 2E6,43.8576175,-79.4850155
19,Alrob Court,L6A 2E6,43.8575390,-79.4853595
15,Alrob Court,L6A 2E6,43.8575780,-79.4851875
22,Upper Post Road,L6A 2E6,43.8580300,-79.4849415
18,Upper Post Road,L6A 2E6,43.8581505,-79.4849735
14,Upper Post Road,L6A 2E6,43.8582730,-79.4850045
12,Alrob Court,L6A 2E6,43.8580065,-79.4852715
23,Alrob Court,L6A 2E6,43.8575090,-79.4855365
29,Alrob Court,L6A 2E6,43.8574530,-79.4857010
33,Alrob Court,L6A 2E6,43.8573665,-79.4858535
37,Alrob Court,L6A 2E6,43.8573275,-79.4860295
18,Alrob Court,L6A 2E6,43.8579665,-79.4854450
26,Alrob Court,L6A 2E6,43.8578900,-79.4857900
32,Alrob Court,L6A 2E6,43.8579195,-79.4859930
8,Upper Post Road,L6A 2E6,43.8583950,-79.4850290
2,Upper Post Road,L6A 2E6,43.8585140,-79.4850745
657,Valley Vista Drive,L6A 2E6,43.8584225,-79.4853605
661,Valley Vista Drive,L6A 2E6,43.8583830,-79.4855225
667,Valley Vista Drive,L6A 2E6,43.8583440,-79.4857145
671,Valley Vista Drive,L6A 2E6,43.8582980,-79.4859320
1480,Major MacKenzie Drive West,L6A 4H6,43.8622025,-79.4845500
1420,Major MacKenzie Drive West,L6A 4H6,43.8621030,-79.4852375
1430,Major MacKenzie Drive West,L6A 4H6,43.8621980,-79.4860240
1370,Major MacKenzie Drive West,L6A 4H6,43.8624545,-79.4832630
1440,Major MacKenzie Drive West,L6A 4H6,43.8628405,-79.4852985
1450,Major MacKenzie Drive West,L6A 4H6,43.8627885,-79.4857085
"1390,1400,1410",Major MacKenzie Drive West,L6A 4H6,43.8635390,-79.4847521
38,Alrob Court,L6A 2E6,43.8579160,-79.4861830
679,Valley Vista Drive,L6A 2E6,43.8582705,-79.4861465
9930,Dufferin Street,L6A 4K5,43.8587315,-79.4874385
9950,Dufferin Street,L6A 4K5,43.8598815,-79.4879530
9970,Dufferin Street,L6A 4K5,43.8606345,-79.4882240
9980,Dufferin Street,L6A 4K5,43.8602785,-79.4893185
1530,Major MacKenzie Drive West,L6A 0A9,43.8615090,-79.4898150
1460,Major MacKenzie Drive West,L6A 4H6,43.8628960,-79.4861900
1460,Major MacKenzie Drive West,L6A 4H6,43.8623335,-79.4867895
1480,Major MacKenzie Drive West,L6A 4H6,43.8628750,-79.4872475
1490,Major MacKenzie Drive West,L6A 4H6,43.8634175,-79.4868325
2185,Major MacKenzie Drive West,L6A 1P5,43.8543325,-79.5070860
211,McNaughton Road,L6A 4E2,43.8637360,-79.5021645
9860,Keele Street,L6A 3Y4,43.8507510,-79.5120075
9926,Keele Street,L6A 1A0,43.8529785,-79.5123730
2162,Major MacKenzie Drive West,L6A 1P7,43.8563105,-79.5098885
10019,Keele Street,L6A 3Y8,43.8554060,-79.5119560
2266,Major MacKenzie Drive West,L6A 3Y7,43.8550425,-79.5128790
10055,Keele Street,L6A 3J9,43.8561565,-79.5123785
2901,Major MacKenzie Drive West,L6A 3N9,43.8503845,-79.5326905
33,Yarden Drive,L6A 0W4,43.8550200,-79.4656305
209,Roselawn Drive,L4H 1A2,43.8074750,-79.6060245
215,Roselawn Drive,L4H 1A2,43.8075910,-79.6062450
210,Roselawn Drive,L4H 1A2,43.8071195,-79.6064880
220,Roselawn Drive,L4H 1A2,43.8072190,-79.6067320
223,Roselawn Drive,L4H 1A2,43.8076465,-79.6065000
231,Roselawn Drive,L4H 1A2,43.8077530,-79.6067195
9201,Islington Avenue,L4L 1A7,43.8166255,-79.5972585
1000,Murray Ross Parkway,M3J 2P3,43.7749403,-79.5193941
1401,Clark Avenue West,L4J 7R4,43.7965447,-79.4677940
9100,Bathurst Street,L4J 8C7,43.8430497,-79.4609758
2,Davos Road,L4H 2Y1,43.8351168,-79.5603781
15,Secord Avenue,L4H 3Z3,43.8294921,-79.6556237
161,Via Campanile,L4H 3J8,43.8265178,-79.5755593
1,Promenade Circle,L4J 4P8,43.8080407,-79.4520816
3971,Major MacKenzie Dr W,L4H 4G1,43.8421112,-79.5718413
67,Colossus Drive,L4L 9J8,43.7840316,-79.5427995
100,Gibraltar Road,L4L 1A5,43.7573038,-79.6390672
1970,Highway 7,L4K 1W5,43.8029425,-79.4901162
150,McNaughton Road,L6A 4P5,43.8616223,-79.5004887
1500,Major MacKenzie Drive West,L6A 0A9,43.8616473,-79.4885110
190,McNaughton Road,L6A 4E2,43.8627920,-79.5016471
8308,Bathurst Street,L4J 0K4,43.8255219,-79.4522559
170,McNaughton Road,L6A 4E2,43.8622865,-79.5008916
231,Trade Valley Drive,L4H 3N6,43.7918671,-79.6610299
1,Canada's Wonderland Drive,L6A 1S6,43.8420801,-79.5425078
5,Capri Court,L4H 1A1,43.8084178,-79.6086358
6,Capri Court,L4H 1A1,43.8088903,-79.6091613
12,Capri Court,L4H 1A1,43.8090898,-79.6088221
17,Capri Court,L4H 1A1,43.8087321,-79.6082624
16,Capri Court,L4H 1A1,43.8090057,-79.6084279
308,Roselawn Drive,L4H 1A1,43.8084895,-79.6096217
316,Roselawn Drive,L4H 1A1,43.8086160,-79.6097994
319,Roselawn Drive,L4H 1A1,43.8090139,-79.6094691
324,Roselawn Drive,L4H 1A1,43.8087057,-79.6100005
327,Roselawn Drive,L4H 1A1,43.8091582,-79.6096854
332,Roselawn Drive,L4H 1A1,43.8088536,-79.6102306
3,Southlawn Drive,L4H 1A1,43.8081642,-79.6090997
11,Southlawn Drive,L4H 1A1,43.8080320,-79.6092711
17,Southlawn Drive,L4H 1A1,43.8079331,-79.6094590
23,Southlawn Drive,L4H 1A1,43.8078010,-79.6096187
27,Southlawn Drive,L4H 1A1,43.8076171,-79.6098493
31,Southlawn Drive,L4H 1A1,43.8076556,-79.6101016
35,Southlawn Drive,L4H 1A1,43.8077627,-79.6103452
36,Southlawn Drive,L4H 1A1,43.8082012,-79.6099832
39,Southlawn Drive,L4H 1A1,43.8078756,-79.6105102
40,Southlawn Drive,L4H 1A1,43.8083388,-79.6101640
47,Southlawn Drive,L4H 1A1,43.8080258,-79.6107188
48,Southlawn Drive,L4H 1A1,43.8084643,-79.6103699
52,Southlawn Drive,L4H 1A1,43.8085668,-79.6105547
55,Southlawn Drive,L4H 1A1,43.8080987,-79.6108938
58,Southlawn Drive,L4H 1A1,43.8086840,-79.6108087
62,Southlawn Drive,L4H 1A1,43.8086494,-79.6110735
63,Southlawn Drive,L4H 1A1,43.8081926,-79.6111315
66,Southlawn Drive,L4H 1A1,43.8086654,-79.6113248
226,Roselawn Drive,L4H 1A2,43.8072884,-79.6069986
237,Roselawn Drive,L4H 1A2,43.8078535,-79.6069661
234,Roselawn Drive,L4H 1A2,43.8073904,-79.6072003
242,Roselawn Drive,L4H 1A2,43.8074384,-79.6074726
243,Roselawn Drive,L4H 1A2,43.8079335,-79.6072185
250,Roselawn Drive,L4H 1A2,43.8075026,-79.6077526
251,Roselawn Drive,L4H 1A2,43.8079786,-79.6075197
260,Roselawn Drive,L4H 1A2,43.8076301,-79.6081545
261,Roselawn Drive,L4H 1A2,43.8080510,-79.6077660
269,Roselawn Drive,L4H 1A2,43.8081883,-79.6079772
277,Roselawn Drive,L4H 1A2,43.8082969,-79.6082709
138,Shamrock Crescent,L4H 1A2,43.8077588,-79.6088675
139,Shamrock Crescent,L4H 1A2,43.8074986,-79.6083457
144,Shamrock Crescent,L4H 1A2,43.8078972,-79.6086965
85,Millrun Crescent,L4H 1A3,43.8071551,-79.6081741
86,Millrun Crescent,L4H 1A3,43.8067719,-79.6085698
92,Millrun Crescent,L4H 1A3,43.8068709,-79.6088051
100,Millrun Crescent,L4H 1A3,43.8069944,-79.6089997
38,Shamrock Crescent,L4H 1A3,43.8056151,-79.6085583
46,Shamrock Crescent,L4H 1A3,43.8057318,-79.6087393
47,Shamrock Crescent,L4H 1A3,43.8061066,-79.6083377
52,Shamrock Crescent,L4H 1A3,43.8058125,-79.6089350
53,Shamrock Crescent,L4H 1A3,43.8062007,-79.6085107
58,Shamrock Crescent,L4H 1A3,43.8059018,-79.6091374
61,Shamrock Crescent,L4H 1A3,43.8062903,-79.6087334
64,Shamrock Crescent,L4H 1A3,43.8060206,-79.6092804
67,Shamrock Crescent,L4H 1A3,43.8064058,-79.6088649
70,Shamrock Crescent,L4H 1A3,43.8061311,-79.6095025
71,Shamrock Crescent,L4H 1A3,43.8065123,-79.6090741
76,Shamrock Crescent,L4H 1A3,43.8062550,-79.6096109
79,Shamrock Crescent,L4H 1A3,43.8066398,-79.6092147
82,Shamrock Crescent,L4H 1A3,43.8063738,-79.6097745
85,Shamrock Crescent,L4H 1A3,43.8067648,-79.6093600
88,Shamrock Crescent,L4H 1A3,43.8064728,-79.6099817
90,Shamrock Crescent,L4H 1A3,43.8066701,-79.6101494
92,Shamrock Crescent,L4H 1A3,43.8069004,-79.6100690
98,Shamrock Crescent,L4H 1A3,43.8070529,-79.6098580
102,Shamrock Crescent,L4H 1A3,43.8071645,-79.6097356
110,Shamrock Crescent,L4H 1A3,43.8072747,-79.6095406
116,Shamrock Crescent,L4H 1A3,43.8073979,-79.6093745
122,Shamrock Crescent,L4H 1A3,43.8075303,-79.6092348
128,Shamrock Crescent,L4H 1A3,43.8076311,-79.6090647
131,Shamrock Crescent,L4H 1A3,43.8073483,-79.6085268
5800,Steeles Avenue West,L4L 0J4,43.7569309,-79.6125827
69,Maplecrete Road,L4K 1A5,43.7905157,-79.5193326
100,Treasure Road,L6A2Z9,43.8574750,-79.5448910
50,Keyes Crescent,L4L 1A5,43.7860292,-79.6440266
150,Fenyrose Crescent,L4L 7B2,43.8190532,-79.5707400
138,Fenyrose Crescent,L4L 7B2,43.8189625,-79.5713758
120,Fenyrose Crescent,L4L 7B2,43.8187184,-79.5720405
120,Fenyrose Crescent,L4L 7B2,43.8190217,-79.5722991
143,Flatbush Avenue,L4L 8K1,43.8192052,-79.5690458
133,Flatbush Avenue,L4L 8K2,43.8188354,-79.5689628
160,Fenyrose Crescent,L4L 7B2,43.8187815,-79.5697302
160,Fenyrose Crescent,L4L 7B2,43.8188563,-79.5700081
160,Fenyrose Crescent,L4L 7B2,43.8187441,-79.5702169
148,Flatbush Avenue,L4L 8K1,43.8192746,-79.5682438
172,Velmar Drive,L4L 8J9,43.8192978,-79.5676476
140,Flatbush Avenue,L4L 8K1,43.8190679,-79.5682110
130,Flatbush Avenue,L4L 8K1,43.8188425,-79.5681426
178,Velmar Drive,L4L 8J9,43.8191220,-79.5678702
178,Velmar Drive,L4L 8J9,43.8191081,-79.5676139
186,Velmar Drive,L4L 8J9,43.8189249,-79.5675781
192,Velmar Drive,L4L 8J9,43.8187387,-79.5675345
54,Cairnburg Place,L4L 3L4,43.8054480,-79.5984740
12001,Highway 400 Northbound,L7B 1A8,43.8955654,-79.5578053
6800,Highway 7,L4H 4X8,43.7678263,-79.6475611
7491,Nashville Road,L0J 1C0,43.8363198,-79.6880073
55,Confederation Parkway,L4K 4Y7,43.8280877,-79.4821224
72,Gilmore Crescent,l4j3a1,43.7948751,-79.4558593
3600,Steeles Avenue West,L4L 8P5,43.7725931,-79.5390354
10443,Highway 27,L0J 1C0,43.8401453,-79.6309259
7405,Weston Road,L4L 0H3,43.7790631,-79.5435455
