House number,Street name,Postal code,Latitude,Longitude
978,University Avenue West,N9A 5S2,42.3145472,-83.0506921
3400,Ontario Street,N8Y 1N9,42.3177706,-82.9991545
493,University Ave W,N9A 5P8,42.3161236,-83.0445282
2421,Walker Road,N8W 3P8,42.2968729,-82.9912226
401,Pitt Street W.,N8A 0B2,42.3173444,-83.0445868
2570,Central Avenue,N8W 4J5,42.2980725,-82.9750172
616,Irvine Avenue,N8X 2T2,42.2978212,-83.0148362
618,Irvine Avenue,N8X 2T2,42.2977197,-83.0147762
1231,University Avenue West,N9A 5T2,42.3134348,-83.0529179
123,Aylmer Avenue,N9A 1S8,42.3211904,-83.0314526
121,Aylmer Avenue,N9A 1S8,42.3212021,-83.0313992
125,Aylmer Avenue,N9A 1S8,42.3211309,-83.0314321
127,Aylmer Avenue,N9A 1S8,42.3211435,-83.0313797
1801,Drouillard Rd,N8W 3X4,42.3057773,-82.9902847
1670,Wyandotte Street East,N8Y 1C7,42.3221041,-83.0138085
655,Hildegarde Street,N8X 2Z7,42.2876531,-83.0099234
1304,Grand Marais Road West,N9E 1E4,42.2686372,-83.0264873
4141,Tecumseh Road East,N8Y 4K9,42.3061058,-82.9736566
2153,Parkwood Avenue,N8W 2J8,42.2985329,-83.0064461
621,Tecumseh Road E,N8X 2S1,42.2981616,-83.0152280
3390,Walker Road,N8W 3S1,42.2767589,-82.9776911
1827,Gratiot Street,N9E 3S1,42.2585165,-83.0593745
2332,Askin Avenue,N9E 4Y2,42.2751649,-83.0428034
325,Ouellette Avenue,N9A 4J1,42.3171398,-83.0390110
4340,Walker Road,N8W 3T5,42.2565647,-82.9646261
2466,Dougall Avenue,N8X 1T2,42.2878347,-83.0225902
651,Chatham Street East,N9A 2X4,42.3206458,-83.0299118
653,Chatham Street East,N9A 2X4,42.3206013,-83.0298827
655,Chatham Street East,N9A 2X4,42.3206300,-83.0298121
1705,College Avenue,N9B 1M4,42.3032945,-83.0538581
875,Ouellette Avenue,N9A 4J5,42.3108209,-83.0350159
133,Wyandotte Street East,N9A 5W8,42.3135735,-83.0380266
121,Wyandotte Street East,N9A 5W8,42.3136255,-83.0378790
111,Wyandotte Street East,N9A 5W8,42.3136412,-83.0378346
799,Crawford Avenue,N9A 5C7,42.3085258,-83.0461721
1159,Lauzon Road,N8S 3M9,42.3262192,-82.9400288
1400,Windsor Avenue,N8X 3L9,42.3037336,-83.0260508
1526,Wyandotte Street East,N9A 3L2,42.3215919,-83.0165354
2071,Riverside Drive East,N8Y 4S5,42.3264686,-83.0120309
475,Tecumseh Road East,N8X 4W5,42.2973697,-83.0175275
3850,Dougall Avenue,N9G 1X0,42.2565287,-83.0027158
8591,Riverside Drive East,N8S 1G3,42.3419435,-82.9389715
4050,Walker Road,N8W 3T5,42.2620693,-82.9680349
2760,Howard Avenue,N8X 3X6,42.2830177,-83.0103825
2109,Ottawa Street,N8Y 1R8,42.3126613,-83.0028484
3181,Walker Road,N8W 3R6,42.2770075,-82.9785792
298,Walker Road,N8Y 2M9,42.3250610,-83.0071311
1267,Grand Marais Road West,N9E 1E4,42.2685669,-83.0251951
7515,Forest Glade Drive,N8T 3P5,42.2970737,-82.9262508
1695,University Avenue West,N9B 1C3,42.3114787,-83.0585476
1052,Drouillard Road,N8Y 2P8,42.3208066,-82.9994397
3357,Candlewood Crescent,N8W 5M5,42.2757399,-82.9877904
1404,Tecumseh Road East,N8W 1C1,42.3006784,-83.0047768
10630,Tecumseh Road East,N8R 1A8,42.3140555,-82.9100523
4897,Tecumseh Road East,N8T 1B6,42.3075138,-82.9660634
600,Tecumseh Road East,N8X 4W2,42.2986449,-83.0154722
505,Pelissier Street,N9A 4L2,42.3148667,-83.0383612
2470,Dougall Avenue,N9G 1S7,42.2878246,-83.0226619
350,Dougall Avenue,N9A 4P4,42.3163610,-83.0416011
4315,Seminole Street,N8Y 1Z6,42.3171530,-82.9788624
6000,Rhodes Drive,N8N 2M1,42.2886716,-82.9391511
3840,Howard Avenue,N9E 3N9,42.2590760,-82.9949874
2221,Wyandotte Street West,N9B 1K3,42.3054790,-83.0612629
2990,Riverside Drive West,N9C 1A2,42.3075175,-83.0732064
3031,Howard Avenue,N8X 3Y9,42.2749243,-83.0078037
2343,Pillette Road,N8T1P7,42.3069293,-82.9679089
2341,Pillette Road,N8T1P7,42.3069068,-82.9680663
185,Ouellette Avenue,N9A 5S8,42.3185338,-83.0398430
185,Ouellette Avenue,N9A 5S8,42.3183380,-83.0397787
100,Ouellette Avenue,N9A 6T3,42.3194781,-83.0400094
156,Ouellette Avenue,N9A 1A4,42.3187933,-83.0396341
245,Ouellette Avenue,N9A 7J2,42.3180555,-83.0396449
200,Ouellette Avenue,N9A 1A5,42.3181507,-83.0392264
1,Riverside Drive West,N9A 5K3,42.3190501,-83.0402531
485,Pelissier Street,N9A 4L2,42.3149011,-83.0386997
1009,Drouillard Road,N8Y 2P9,42.3214588,-83.0002458
2161,Wyandotte Street West,N9B 1K1,42.3056282,-83.0607727
2212,Huron Church Road,N9C 2L7,42.2751604,-83.0497281
484,Pelissier Street,N9A 4K9,42.3150252,-83.0383837
361,Ouellette Avenue,N9A 4J1,42.3166361,-83.0388319
327,Chatham Street West,N9A 5M8,42.3172443,-83.0428392
5151,Riverside Drive East,N8S 4R5,42.3296116,-82.9764774
1932,Ambassador Drive,N9C 3R4,42.2792979,-83.0551326
862,Walker Road,N8Y 2N5,42.3217339,-83.0067033
2215,Janette Avenue,N8X 1Z9,42.2920471,-83.0306253
787,Ouellette Avenue,N9A 4J4,42.3118664,-83.0358483
3084,Jefferson Boulevard,N8T 3B9,42.2965591,-82.9426779
2590,Ouellette Avenue,N8X 1L7,42.2838230,-83.0157648
1666,Ouellette Avenue,N8X4V2,42.2970807,-83.0252575
3312,Sandwich Street,N9C 1B1,42.2996181,-83.0774628
2475,McDougall Street,N8X 3N9,42.2887218,-83.0186947
2475,McDougall Street,N8X 3N9,42.2886089,-83.0188282
1012,Drouillard Road,N8Y 2P8,42.3215842,-82.9999885
2947,Princess Ave,N8T 3G2,42.2954278,-82.9572214
332,2nd St,N9E 3P7,42.2681143,-83.0574020
3585,Rhodes Drive,N8W 5B3,42.2813840,-82.9658780
109,University Avenue West,N9A 5P4,42.3172071,-83.0401110
511,Cabana Road,N9G 1A5,42.2581102,-82.9949994
511,Cabana Road,N9G 1A5,42.2581092,-82.9951523
1214,"Ottawa St, #202",N8X 2E5,42.3097706,-83.0132364
2405,Dougall Avenue,N8X1T3,42.2886287,-83.0245754
7555,Tecumseh Road East,N8T 1G2,42.3131339,-82.9354613
487,Ouellette Avenue,N9A 4J2,42.3151937,-83.0378137
2670,Tecumseh Road West,N9B 1W0,42.2919993,-83.0587547
1675,Wyandotte Street West,N9B 1H0,42.3069647,-83.0555116
1215,Ouellette Avenue,N8X 1J0,42.3049152,-83.0315951
176,University Avenue West,N9A 4K0,42.3172587,-83.0408309
500,Tecumseh Road East,N8X 2S0,42.2989705,-83.0162092
2109,Ottawa Street,N8Y 4X0,42.3124435,-83.0028351
4835,Wyandotte Street East,N8Y 1H0,42.3261470,-82.9787825
3970,Seminole Street,N8Y 1Y0,42.3163554,-82.9827864
5050,Tecumseh Road East,N8T 1C0,42.3095827,-82.9656009
7980,Menard Street,N8S 1S0,42.3338338,-82.9431427
7720,Tecumseh Road East,N8T 1E0,42.3148851,-82.9347400
11500,Tecumseh Road East,N8N 2L0,42.3134481,-82.9006897
3395,Walker Road,N8W 3R0,42.2762999,-82.9782714
3100,Howard Avenue,N8X 3Y0,42.2731339,-83.0019253
1421,Grand Marais Road West,N9E 4V0,42.2663862,-83.0281786
39,Park St W,N9A 0A5,42.3162159,-83.0383815
1349,Grand Marais Road West,N9E 1E2,42.2675607,-83.0263620
8465,Jerome Street,N8S 1W8,42.3298092,-82.9353699
6200,Edgar Street,N8S 2A6,42.3248978,-82.9594917
6320,Raymond Avenue,N8S 1Z9,42.3270936,-82.9602285
871,St Rose Avenue,N8S 1X4,42.3301385,-82.9543492
5399,Raymond Avenue,N8S 1Z6,42.3235093,-82.9684935
910,Raymo Road,N8Y 4A6,42.3238027,-82.9745027
8405,Cedarview Street,N8S 1K9,42.3366841,-82.9390624
245,Tecumseh Road East,N8X 2R2,42.2957699,-83.0208451
7126,Tecumseh Road East,N8T 1E6,42.3134420,-82.9411762
6265,Roseville Garden Drive,N8T 3B9,42.3064553,-82.9468113
1601,Norfolk Street,N9E 1H6,42.2618008,-83.0278919
1800,Liberty Street,N9E 1J2,42.2607534,-83.0285430
1775,Totten Street,N9B 1X4,42.2883651,-83.0451958
1995,Lens Avenue,N8W 1L9,42.3003141,-82.9971720
441,Tecumseh Road East,N8X 2R7,42.2969613,-83.0183099
3100,Howard Avenue,N8X 3Y8,42.2749593,-83.0020725
3110,Rivard Avenue,N8T 2J2,42.2942989,-82.9522378
2855,Rivard Avenue,N8T 2H9,42.2990137,-82.9541032
1355,Cabana Road,N9G 1C3,42.2535438,-83.0178090
5400,Coronation Drive,N8T 1B1,42.3141555,-82.9621140
1905,Bernard Road,N8W 4R6,42.3089689,-82.9750412
949,Giles Boulevard,N9A 4G2,42.3097941,-83.0172701
874,Giles Boulevard,N9A 4E8,42.3112146,-83.0197893
2100,Richmond Street,N8Y 1L4,42.3174009,-83.0070417
4600,G. N. Booth Drive,N9C 4G8,42.2761620,-83.0848168
1375,California Avenue,N9B 2Z8,42.2929773,-83.0567281
1400,Cousineau Road,N9G 1V9,42.2432948,-83.0125060
3980,Malden Road,N9C 2G2,42.2807167,-83.0597842
3555,Forest Glade Drive,N8R 1X8,42.3008294,-82.9222177
2425,Clover Avenue,N8P 2A3,42.3167266,-82.9129455
8800,Menard Street,N8S 1W4,42.3368303,-82.9347544
6305,Wyandotte Street East,N8S 4S5,42.3298018,-82.9609213
8300,Little River Road,N8S 2B5,42.3276120,-82.9352444
8700,Jerome St.,N8S 1G8,42.3309152,-82.9333186
3181,Meadowbrook Lane,N8T 0A4,42.2990178,-82.9277628
100,Chappus Street,N9V 2Y9,42.2793306,-83.0944578
4375,Sandwich Street,N9C 1C7,42.2809393,-83.0865793
775,Capitol Street,N8X 5E3,42.2835332,-83.0030426
100,Grand Marais Road East,N9A 6N5,42.2796627,-83.0144327
1380,Matthew Brady Boulevard,N8S 4R6,42.3215275,-82.9385906
2199,Chrysler Centre,N8W 3Y3,42.2969348,-82.9863213
1093,Assumption Street,N9A 3C5,42.3206881,-83.0219546
3395,Walker Road,N8W 3T6,42.2591315,-82.9687751
4379,Walker Road,N8W 3T6,42.2565349,-82.9668135
1601,St. James Street,N9C 3P6,42.2835651,-83.0613035
700,Norfolk Street,N9E 1H4,42.2675823,-83.0178514
1400,Roselawn Drive,N9E 1L8,42.2573129,-83.0212530
1200,Grand Marais Road West,N9E 1C9,42.2703318,-83.0259073
366,Sunset Avenue,N9B 3P4,42.3075697,-83.0661369
360,Sunset Avenue,N9B 3A9,42.3076892,-83.0662540
400,Huron Church Road,N9C 2J9,42.3069076,-83.0699082
2955,Dougall Avenue,N9E 1S1,42.2738751,-83.0151455
2100,Richmond Street,N8Y 1L4,42.3174061,-83.0069926
1799,Ottawa Street,N8Y 1R4,42.3112581,-83.0069485
1899,Niagara Street,N8Y 1K3,42.3182413,-83.0105075
853,Chilver Road,N8Y 2K5,42.3193845,-83.0126644
853,Chilver Road,N8Y 2K5,42.3195287,-83.0128257
1093,Assumption Street,N9A 3C5,42.3209118,-83.0222252
694,Bruce Avenue,N9A 4X3,42.3115486,-83.0403560
2500,Labelle Street,N9E 1B6,42.2671605,-83.0404874
1310,Grand Marais Road West,N9E 1E4,42.2682990,-83.0267245
2751,Partington Avenue,N9E 3A9,42.2691352,-83.0355929
2500,Labelle Street,N9E 1B6,42.2675639,-83.0402772
1255,Tecumseh Road East,N8W 1B7,42.2989482,-83.0058105
5400,Coronation Avenue,N8T 1B1,42.3137221,-82.9621886
2855,Rivard Avenue,N8T 2H9,42.2985481,-82.9536736
1360,Lauzon Road,N8S 3N1,42.3231697,-82.9362516
4500,Ypres Avenue,N8W 5X3,42.3056844,-82.9692155
1986,Ottawa Street,N8Y 1R7,42.3125155,-83.0054123
2362,Central Avenue,N8W 4J2,42.3029821,-82.9786788
8210,Riverside Drive East,N8S 1E6,42.3417243,-82.9451020
8230,Riverside Drive East,N8S 1E6,42.3417021,-82.9449104
8240,Riverside Drive East,N8S 1E6,42.3417266,-82.9446730
8254,Riverside Drive East,N8S 1E6,42.3417640,-82.9445214
8266,Riverside Drive East,N8S 1E6,42.3417651,-82.9444017
8280,Riverside Drive East,N8S 1E6,42.3417365,-82.9441593
8300,Riverside Drive East,N8S 1E6,42.3417917,-82.9439311
8312,Riverside Drive East,N8S 1E6,42.3417687,-82.9437470
8320,Riverside Drive East,N8S 1E6,42.3418088,-82.9436022
8326,Riverside Drive East,N8S 1E6,42.3418243,-82.9434881
8332,Riverside Drive East,N8S 1E6,42.3418426,-82.9433763
8344,Riverside Drive East,N8S 1E6,42.3417270,-82.9431492
8358,Riverside Drive East,N8S 1E6,42.3417383,-82.9429699
8366,Riverside Drive East,N8S 1E6,42.3416888,-82.9427570
8378,Riverside Drive East,N8S 1E6,42.3417088,-82.9425689
8390,Riverside Drive East,N8S 1E6,42.3416963,-82.9423314
1547,Blue Heron Drive,N8P 1L7,42.3229190,-82.9002546
1579,Blue Heron Drive,N8P 1L7,42.3227579,-82.9002167
1563,Blue Heron Drive,N8P 1L7,42.3228449,-82.9002380
1595,Blue Heron Drive,N8P 1L7,42.3226784,-82.9002009
1647,Blue Heron Drive,N8P 1L7,42.3222348,-82.9000867
1695,Blue Heron Drive,N8P 1L7,42.3219960,-82.9000334
1663,Blue Heron Drive,N8P 1L7,42.3221597,-82.9000703
1679,Blue Heron Drive,N8P 1L7,42.3220739,-82.9000492
1615,Blue Heron Drive,N8P 1L7,42.3223991,-82.9001249
1631,Blue Heron Drive,N8P 1L7,42.3223213,-82.9001078
11402,Cormorant Street,N8P 1L7,42.3224587,-82.9027182
11429,Cormorant Street,N8P 1L7,42.3221013,-82.9022545
11413,Cormorant Street,N8P 1L7,42.3220779,-82.9024602
11421,Cormorant Street,N8P 1L7,42.3220923,-82.9023608
11405,Cormorant Street,N8P 1L7,42.3220672,-82.9025764
11410,Cormorant Street,N8P 1L7,42.3224690,-82.9025954
11434,Cormorant Street,N8P 1L7,42.3225039,-82.9022751
11442,Cormorant Street,N8P 1L7,42.3225163,-82.9021721
11450,Cormorant Street,N8P 1L7,42.3225254,-82.9020597
11426,Cormorant Street,N8P 1L7,42.3224958,-82.9023872
11482,Cormorant Street,N8P 1L7,42.3225692,-82.9016742
11490,Cormorant Street,N8P 1L7,42.3225785,-82.9015602
11445,Cormorant Street,N8P 1L7,42.3221281,-82.9020425
11533,Cormorant Street,N8P 1L7,42.3222525,-82.9009250
11469,Cormorant Street,N8P 1L7,42.3221623,-82.9017201
11509,Cormorant Street,N8P 1L7,42.3222191,-82.9012185
11485,Cormorant Street,N8P 1L7,42.3221846,-82.9015428
11461,Cormorant Street,N8P 1L7,42.3221532,-82.9018267
11541,Cormorant Street,N8P 1L7,42.3222668,-82.9008256
11525,Cormorant Street,N8P 1L7,42.3222417,-82.9010416
11466,Cormorant Street,N8P 1L7,42.3225487,-82.9018909
11493,Cormorant Street,N8P 1L7,42.3221956,-82.9014255
11474,Cormorant Street,N8P 1L7,42.3225570,-82.9017772
11501,Cormorant Street,N8P 1L7,42.3222099,-82.9013260
11453,Cormorant Street,N8P 1L7,42.3221389,-82.9019262
11549,Cormorant Street,N8P 1L7,42.3222759,-82.9007187
11565,Cormorant Street,N8P 1L7,42.3222931,-82.9005562
11573,Cormorant Street,N8P 1L7,42.3223040,-82.9004364
1111,Whittier Avenue,N9G 2L9,42.2523693,-83.0122702
1639,Cherrylawn Crescent,N9E 1P6,42.2554471,-83.0214100
1649,Cherrylawn Crescent,N9E 1P6,42.2553792,-83.0215990
1659,Cherrylawn Crescent,N9E 1P6,42.2552820,-83.0218306
1669,Cherrylawn Crescent,N9E 1P6,42.2551946,-83.0220118
1679,Cherrylawn Crescent,N9E 1P6,42.2551639,-83.0222203
1689,Cherrylawn Crescent,N9E 1P6,42.2550548,-83.0224115
506,Irvine Avenue,N8X 2T2,42.2974438,-83.0165805
516,Irvine Avenue,N8X 2T2,42.2974833,-83.0163860
526,Irvine Avenue,N8X 2T2,42.2975317,-83.0162444
536,Irvine Avenue,N8X 2T2,42.2975580,-83.0160425
550,Irvine Avenue,N8X 2T2,42.2976067,-83.0158774
560,Irvine Avenue,N8X 2T2,42.2976155,-83.0156781
564,Irvine Avenue,N8X 2T2,42.2976364,-83.0155816
572,Irvine Avenue,N8X 2T2,42.2976529,-83.0154614
576,Irvine Avenue,N8X 2T2,42.2976621,-83.0153537
582,Irvine Avenue,N8X 2T2,42.2976876,-83.0152400
588,Irvine Avenue,N8X 2T2,42.2977291,-83.0151465
596,Irvine Avenue,N8X 2T2,42.2977266,-83.0150326
600,Irvine Avenue,N8X 2T2,42.2977884,-83.0149388
636,Irvine Avenue,N8X 2T2,42.2978036,-83.0145902
648,Irvine Avenue,N8X 2T2,42.2978323,-83.0144945
660,Irvine Avenue,N8X 2T2,42.2978541,-83.0143848
672,Irvine Avenue,N8X 2T2,42.2978745,-83.0142783
682,Irvine Avenue,N8X 2T2,42.2978957,-83.0141651
694,Irvine Avenue,N8X 2T2,42.2979186,-83.0140515
706,Irvine Avenue,N8X 2T2,42.2979407,-83.0139491
718,Irvine Avenue,N8X 2T2,42.2979605,-83.0138405
744,Irvine Avenue,N8X 2T2,42.2980126,-83.0136433
778,Irvine Avenue,N8X 2T2,42.2980901,-83.0133315
790,Irvine Avenue,N8X 2T2,42.2981365,-83.0132293
6045,Wyandotte Street East,N8S 1N3,42.3291123,-82.9646312
6053A,Wyandotte Street East,N8S 1N3,42.3291929,-82.9645888
6053B,Wyandotte Street East,N8S 1N3,42.3291382,-82.9645584
6065,Wyandotte Street East,N8S 1N3,42.3291514,-82.9643760
6075,Wyandotte Street East,N8S 1N3,42.3291930,-82.9641872
803,University Avenue East,N9A 3A1,42.3205759,-83.0269645
811,University Avenue East,N9A 3A1,42.3206034,-83.0268515
817,University Avenue East,N9A 3A1,42.3206403,-83.0267685
825,University Avenue East,N9A 3A1,42.3206767,-83.0266661
839,University Avenue East,N9A 3A1,42.3207404,-83.0264451
845,University Avenue East,N9A 3A1,42.3207781,-83.0263585
855,University Avenue East,N9A 3A1,42.3208208,-83.0262549
857,University Avenue East,N9A 3A1,42.3208500,-83.0261692
863,University Avenue East,N9A 3A1,42.3208690,-83.0261100
865,University Avenue East,N9A 3A1,42.3208834,-83.0259942
7810,Shorain Grove,N8S 4V2,42.3285725,-82.9421892
7826,Shorain Grove,N8S 4V2,42.3286324,-82.9420075
7842,Shorain Grove,N8S 4V2,42.3286865,-82.9418193
7851,Shorain Grove,N8S 4V2,42.3283323,-82.9414025
7858,Shorain Grove,N8S 4V2,42.3287381,-82.9416456
7867,Shorain Grove,N8S 4V2,42.3283945,-82.9412348
7874,Shorain Grove,N8S 4V2,42.3287984,-82.9414829
7883,Shorain Grove,N8S 4V2,42.3284189,-82.9410541
7890,Shorain Grove,N8S 4V2,42.3288484,-82.9413188
561,Riverside Drive East,N9A 2T1,42.3212006,-83.0319348
565,Riverside Drive East,N9A 2T1,42.3212290,-83.0318012
533,Riverside Drive East,N9A 2T1,42.3211079,-83.0321706
575,Riverside Drive East,N9A 2T1,42.3212650,-83.0315733
149,Aylmer Avenue,N9A 1S8,42.3209431,-83.0313225
161,Aylmer Avenue,N9A 1S8,42.3208282,-83.0312203
169,Aylmer Avenue,N9A 1S8,42.3207551,-83.0312127
178,Glengarry Avenue,N9A 1P2,42.3203829,-83.0319769
144,Aylmer Avenue,N9A 1S9,42.3211736,-83.0308705
568,Chatham Street East,N9A 2X1,42.3204843,-83.0312233
631,Riverside Drive East,N9A 2T2,42.3214089,-83.0308643
194,Glengarry Avenue,N9A 1P2,42.3202195,-83.0318497
3640,Curry Avenue,N9E 2T6,42.2561487,-83.0196537
641,Riverside Drive East,N9A 2T2,42.3214558,-83.0307327
1400,Meridian Street,N9G 3E6,42.2476453,-82.9753928
1412,Meridian Street,N9G 3E6,42.2475179,-82.9754053
1392,Meridian Street,N9G 3E6,42.2477690,-82.9753873
1384,Meridian Street,N9G 3E6,42.2478971,-82.9753834
2990,Riverside Drive West,N9C 1A2,42.3080976,-83.0742091
1416,Meridian Street,N9G 3E5,42.2473941,-82.9754134
284,Cameron Avenue,N9B 1A1,42.3136966,-83.0542942
825,Riverside Drive West,N9A 5K9,42.3167851,-83.0498347
4259,Canberra Avenue,N9G 3E5,42.2476307,-82.9749787
4265,Canberra Avenue,N9G 3E5,42.2475027,-82.9749794
880,Goyeau Street,N9A 1H7,42.3114133,-83.0321963
3225,California Avenue,N9E 3K5,42.2595269,-83.0353724
1,Riverside Drive West,N9A 5K3,42.3190297,-83.0410399
201,Riverside Drive West,N9A 5K4,42.3188759,-83.0421965
1279,University Avenue West,N9A5T2,42.3130102,-83.0537796
5050,Tecumseh Road East,N8T 1C1,42.3095017,-82.9654182
3110,Rivard Avenue,N8T 2J2,42.2940406,-82.9524540
3030,Rivard Avenue,N8T 2J2,42.2952728,-82.9532050
85,Park Street,N9A 3A8,42.3164329,-83.0364501
1947,Meldrum Road,N8W 4E3,42.3051303,-82.9844007
3739,Ypres Avenue,N8W 1S9,42.3019640,-82.9768581
1991,Norman Road,N8T 1S1,42.3093934,-82.9677185
1532,Alexis Road,N8Y 4P2,42.3124390,-82.9914090
804,Grand Marais Road East,N8X 3H8,42.2831666,-83.0016372
4611,Walker Road,N8W 3T6,42.2514697,-82.9642160
2600,Airport Road,N8V 1A1,42.2674259,-82.9660552
1,Riverside Drive West,N9A 5K3,42.3191706,-83.0404133
1035,Ellis Street East,N8X 2J2,42.3067756,-83.0141842
172,Aylmer Avenue,N9A 1S9,42.3208814,-83.0306957
559,Chatham Street East,N9A 2X2,42.3201283,-83.0311937
4253,Canberra Avenue,N9G 3E5,42.2477543,-82.9749774
1424,Meridian Street,N9G 3E5,42.2472681,-82.9754218
1376,Meridian Street,N9G 3E6,42.2480228,-82.9753663
4271,Canberra Avenue,N9G 3E5,42.2473777,-82.9749908
4251,Canberra Avenue,N9G 3E5,42.2478815,-82.9749654
1397,Meridian Street,N9G 3E5,42.2477202,-82.9759170
1405,Meridian Street,N9G 3E5,42.2475972,-82.9759136
4277,Canberra Avenue,N9G 3E5,42.2472501,-82.9749968
4241,Canberra Avenue,N9G 3E5,42.2480089,-82.9749465
1432,Meridian Street,N9G 3E5,42.2471424,-82.9754315
1368,Meridian Street,N9G 3E6,42.2481516,-82.9753585
1389,Meridian Street,N9G 3E5,42.2478445,-82.9758987
1413,Meridian Street,N9G 3E5,42.2474717,-82.9759225
1381,Meridian Street,N9G 3E5,42.2479714,-82.9758872
11110,Tecumseh Road East,N8R 1A8,42.3132588,-82.9047575
567,Chatham Street East,N9A 2X2,42.3201615,-83.0311029
238,Glengarry Avenue,N9A 1P4,42.3198026,-83.0316218
229,Aylmer Avenue,N9A 1T1,42.3200772,-83.0307567
677,Riverside Drive East,N9A 2T2,42.3215663,-83.0300853
666,Chatham Street East,N9A 2X3,42.3209776,-83.0298750
668,Chatham Street East,N9A 2X3,42.3210418,-83.0298938
218,Aylmer Avenue,N9A 1T2,42.3203844,-83.0302760
143,Louis Avenue,N9A 1V8,42.3213784,-83.0297781
2330,Huron Church Road,N9E 3S6,42.2731760,-83.0479867
249,Aylmer Avenue,N9A 1T1,42.3199095,-83.0306606
253,Aylmer Avenue,N9A 1T1,42.3199326,-83.0306472
240,Aylmer Avenue,N9A 1T2,42.3202608,-83.0301757
790,Goyeau Street,N9A 1H6,42.3127520,-83.0333542
525,University Avenue West,N9A5R4,42.3158924,-83.0450042
366,Wyandotte Street West,N9A 5X2,42.3130446,-83.0404297
400,University Avenue West,N9A5P8,42.3166443,-83.0435090
468,University Avenue West,N9A5P8,42.3165695,-83.0443635
1880,Totten Street,N9B 1X3,42.2898736,-83.0472722
1039,Janette Avenue,N9A 5A4,42.3040834,-83.0408171
2470,Dougall Avenue,N8X 1T2,42.2878293,-83.0225593
2482,Dougall Avenue,N8X 1T2,42.2873998,-83.0213464
2550,Ouellette Avenue,N8X 1L7,42.2851108,-83.0171312
2595,Ouellette Avenue,N8X 4V8,42.2829732,-83.0180582
1075,Ypres Avenue,N8W 4W4,42.2922514,-83.0044077
5500,Maplewood Drive,N9C 0B9,42.2644518,-83.1011616
5353,Maplewood Drive,N9J 1X6,42.2692108,-83.0969763
200,Morton Drive,N9J 3W9,42.2566329,-83.1038560
4155,Ojibway Parkway,N9C 4A5,42.2824778,-83.0834415
3500,Matchette Road,N9C 3Z1,42.2797355,-83.0747984
30,Prospect Street,N9C 3G3,42.2864294,-83.0899716
3800,Russell Street,N9C 1E6,42.2903056,-83.0877522
1030,Ouellette Avenue,N9A 1E1,42.3084088,-83.0319356
267,Louis Avenue,N9A 1W1,42.3203442,-83.0292067
281,Louis Avenue,N9A 1W1,42.3202609,-83.0291477
293,Louis Avenue,N9A 1W1,42.3201670,-83.0291087
1421,Meridian Street,N9G 3E5,42.2473464,-82.9759314
1429,Meridian Street,N9G 3E5,42.2472209,-82.9759446
280,Aylmer Avenue,N9A 1T2,42.3199485,-83.0300177
295,Aylmer Avenue,N9A 1T1,42.3196361,-83.0304922
3510,Russell Street,N9C 3Z1,42.2961018,-83.0837471
210,Detroit Street,N9C 2P1,42.3050704,-83.0768030
1437,Meridian Street,N9G 3E5,42.2470951,-82.9759505
1453,Meridian Street,N9G 3E5,42.2469655,-82.9759883
1469,Meridian Street,N9G 3E5,42.2468044,-82.9760105
1485,Meridian Street,N9G 3E5,42.2466895,-82.9758502
1501,Meridian Street,N9G 3E5,42.2466575,-82.9756721
1509,Meridian Street,N9G 3E5,42.2466436,-82.9755128
1517,Meridian Street,N9G 3E5,42.2466131,-82.9753819
1525,Meridian Street,N9G 3E5,42.2465755,-82.9752425
1533,Meridian Street,N9G 3E5,42.2465421,-82.9751025
1541,Meridian Street,N9G 3E5,42.2465105,-82.9749623
681,McEwan Avenue,N9B 2E9,42.3064986,-83.0545908
787,Ouellette Avenue,N9A 4J4,42.3118698,-83.0358795
875,Ouellette Avenue,N9A 4J5,42.3108289,-83.0351375
675,Goyeau Street,N9A 1H3,42.3138212,-83.0346718
600,Ouellette Avenue,N9A 6Z3,42.3140413,-83.0362908
628,Ouellette Avenue,N9A 6Z3,42.3138085,-83.0361027
670,Ouellette Avenue,N9A 1B9,42.3133538,-83.0359179
659,Dufferin Place,N9A 6Y6,42.3135767,-83.0354871
706,Goyeau Street,N9A 1H6,42.3135450,-83.0337989
732,Goyeau Street,N9A 1H6,42.3132673,-83.0337606
738,Goyeau Street,N9A 1H6,42.3131975,-83.0337184
746,Goyeau Street,N9A 1H6,42.3131182,-83.0336719
754,Goyeau Street,N9A 1H6,42.3130386,-83.0336324
680,Goyeau Street,N9A 1H4,42.3138852,-83.0342144
670,Goyeau Street,N9A 1H4,42.3140378,-83.0341638
654,Goyeau Street,N9A 1H4,42.3141622,-83.0343466
815,Goyeau Street,N9A 1H7,42.3119919,-83.0335026
980,Louis Avenue,N9A 1X9,42.3128968,-83.0238588
2175,Parent Avenue,N8X 4K2,42.2981163,-83.0110347
810,Ouellette Avenue,N9A 4J5,42.3117197,-83.0348074
830,Ouellette Avenue,N9A 4J5,42.3115243,-83.0346402
841,Ouellette Avenue,N9A 4J5,42.3111278,-83.0353779
895,Ouellette Avenue,N9A 4J5,42.3104029,-83.0350867
880,Ouellette Avenue,N9A 4J5,42.3108329,-83.0342151
920,Ouellette Avenue,N9A 4J5,42.3105393,-83.0338110
640,Victoria Avenue,N9A 4N2,42.3129857,-83.0381097
664,Victoria Avenue,N9A 4N2,42.3127406,-83.0378403
694,Victoria Avenue,N9A 4N2,42.3124016,-83.0377162
706,Victoria Avenue,N9A 4N2,42.3122388,-83.0375997
718,Victoria Avenue,N9A 4N2,42.3121079,-83.0375337
728,Victoria Avenue,N9A 4N2,42.3120074,-83.0374541
734,Victoria Avenue,N9A 4N2,42.3119067,-83.0373733
742,Victoria Avenue,N9A 4N2,42.3118279,-83.0373215
754,Victoria Avenue,N9A 4N2,42.3117039,-83.0373006
762,Victoria Avenue,N9A 4N2,42.3115942,-83.0372474
772,Victoria Avenue,N9A 4N2,42.3114973,-83.0371530
782,Victoria Avenue,N9A 4N2,42.3113492,-83.0370880
628,Monmouth Road,N8Y 3J6,42.3232960,-83.0091441
686,Lincoln Road,N8Y 2G7,42.3209416,-83.0150989
2000,Talbot Road West,N9A 6S4,42.2513400,-83.0200274
1549,Meridian Street,N9G 3E7,42.2464771,-82.9748215
1557,Meridian Street,N9G 3E7,42.2464448,-82.9746837
1565,Meridian Street,N9G 3E7,42.2464105,-82.9745454
1573,Meridian Street,N9G 3E7,42.2463781,-82.9744082
1581,Meridian Street,N9G 3E7,42.2463501,-82.9742648
1589,Meridian Street,N9G 3E7,42.2462955,-82.9741378
1597,Meridian Street,N9G 3E7,42.2462350,-82.9740013
1605,Meridian Street,N9G 3E7,42.2462177,-82.9737185
1612,Meridian Street,N9G 3E7,42.2463422,-82.9735885
1618,Meridian Street,N9G 3E7,42.2465095,-82.9735681
1982,Norman Road,N8T 1S2,42.3104655,-82.9670810
1905,Bernard Road,N8W 4R6,42.3104343,-82.9759715
3145,Wildwood Drive,N8R 1Y1,42.3017309,-82.9206057
1957,Head Avenue,N8W 1V7,42.2910878,-82.9919101
2229,Chilver Road,N8W 2V4,42.2990747,-82.9996290
1995,Lens Avenue,N8W 1L9,42.2998733,-82.9970706
8787,McHugh Street,N8S 0A1,42.3186525,-82.9277192
811,Dougall Avenue,N9A 4R2,42.3104068,-83.0387162
543,Assumption Street,N9A 3B3,42.3184782,-83.0303259
559,Assumption Street,N9A 3B3,42.3185260,-83.0301630
575,Assumption Street,N9A 3B3,42.3186098,-83.0298615
1626,Meridian Street,N9G 3E7,42.2466366,-82.9735989
1632,Meridian Street,N9G 3E7,42.2467567,-82.9735920
1638,Meridian Street,N9G 3E7,42.2468786,-82.9735757
1644,Meridian Street,N9G 3E7,42.2469995,-82.9735603
1650,Meridian Street,N9G 3E7,42.2471200,-82.9735536
1656,Meridian Street,N9G 3E7,42.2472424,-82.9735568
1662,Meridian Street,N9G 3E7,42.2473625,-82.9735432
5305,Tecumseh Road East,N8T 1C5,42.3074597,-82.9595723
6080,Riverside Drive East,N8S 1B6,42.3325307,-82.9658025
234,Windsor Avenue,N9A1J2,42.3184807,-83.0368295
33,Riverside Drive East,N9A 2S4,42.3194636,-83.0393614
185,Ouellette Avenue,N9A 5S8,42.3185043,-83.0402036
401,Riverside Drive,N9A 7J1,42.3183639,-83.0444509
492,University Avenue West,N9A5P8,42.3163383,-83.0447604
480,University Avenue West,N9A5P8,42.3163888,-83.0445830
250,Dougall Avenue,N9A 7C6,42.3172170,-83.0421254
167,Ferry St,N9A 4M5,42.3182221,-83.0418791
1425,Howard Avenue,N8X 5C9,42.3032817,-83.0225703
430,Ouellette Avenue,N9A 1B2,42.3160130,-83.0377706
4007,Sandwich Street,N9C 1C3,42.2859464,-83.0825515
1100,Huron Church Road,N9C 2K7,42.2952113,-83.0601190
1925,Division Road,N8W 1Z7,42.2609644,-82.9734753
6630,Tecumseh Road East,N8T 1E6,42.3137252,-82.9470994
3100,Howard Avenue,N8X 3Y8,42.2742736,-83.0000474
1668,Meridian Street,N9G 3E7,42.2474847,-82.9735314
1674,Meridian Street,N9G 3E7,42.2476101,-82.9735335
1692,Meridian Street,N9G 3E7,42.2478069,-82.9734754
4705,Barcelona Crescent,N9G 3G1,42.2478146,-82.9730869
4711,Barcelona Crescent,N9G 3G1,42.2476870,-82.9730932
4717,Barcelona Crescent,N9G 3G1,42.2475628,-82.9730907
4723,Barcelona Crescent,N9G 3G1,42.2474435,-82.9731044
4729,Barcelona Crescent,N9G 3G1,42.2473218,-82.9731120
4735,Barcelona Crescent,N9G 3G1,42.2472029,-82.9731164
4741,Barcelona Crescent,N9G 3G1,42.2470797,-82.9731321
4747,Barcelona Crescent,N9G 3G1,42.2469583,-82.9731378
4753,Barcelona Crescent,N9G 3E9,42.2468396,-82.9731437
777,Tecumseh Road West,N8X 1H4,42.2936404,-83.0344997
825,Tecumseh Road West,N8X 1H4,42.2940620,-83.0355163
620,University Avenue West,N9A5R5,42.3159348,-83.0463954
4759,Barcelona Crescent,N9G 3E9,42.2467182,-82.9731801
4765,Barcelona Crescent,N9G 3E9,42.2465925,-82.9731668
4771,Barcelona Crescent,N9G 3E9,42.2464721,-82.9731715
4777,Barcelona Crescent,N9G 3E9,42.2463480,-82.9731896
4781,Barcelona Crescent,N9G 3E9,42.2461725,-82.9732329
4785,Barcelona Crescent,N9G 3E9,42.2460493,-82.9731201
4789,Barcelona Crescent,N9G 3E9,42.2460133,-82.9729259
4793,Barcelona Crescent,N9G 3E9,42.2460173,-82.9727689
4797,Barcelona Crescent,N9G 3E9,42.2459873,-82.9726246
4801,Barcelona Crescent,N9G 3E9,42.2459601,-82.9724873
4805,Barcelona Crescent,N9G 3E9,42.2459465,-82.9723431
4809,Barcelona Crescent,N9G 3E9,42.2459119,-82.9722033
4813,Barcelona Crescent,N9G 3E9,42.2458748,-82.9720478
4817,Barcelona Crescent,N9G 3E9,42.2458707,-82.9718572
4820,Barcelona Crescent,N9G 3E9,42.2460363,-82.9716720
4824,Barcelona Crescent,N9G 3E9,42.2461777,-82.9716854
4828,Barcelona Crescent,N9G 3E9,42.2463078,-82.9716948
4832,Barcelona Crescent,N9G 3E9,42.2464272,-82.9716858
4838,Barcelona Crescent,N9G 3E9,42.2465505,-82.9716765
4844,Barcelona Crescent,N9G 3E9,42.2466711,-82.9716692
4850,Barcelona Crescent,N9G 3E9,42.2467932,-82.9716605
4856,Barcelona Crescent,N9G 3G1,42.2469173,-82.9716537
4862,Barcelona Crescent,N9G 3G1,42.2470363,-82.9716464
4868,Barcelona Crescent,N9G 3G1,42.2471555,-82.9716371
4874,Barcelona Crescent,N9G 3G1,42.2472791,-82.9716309
4880,Barcelona Crescent,N9G 3G1,42.2474001,-82.9716199
4886,Barcelona Crescent,N9G 3G1,42.2475230,-82.9716115
4892,Barcelona Crescent,N9G 3G1,42.2476437,-82.9716045
4898,Barcelona Crescent,N9G 3G1,42.2477755,-82.9715961
4705,Periwinkle Crescent,N9G 3G5,42.2477703,-82.9711348
4711,Periwinkle Crescent,N9G 3G5,42.2476468,-82.9711390
4717,Periwinkle Crescent,N9G 3G5,42.2475284,-82.9711470
4723,Periwinkle Crescent,N9G 3G5,42.2474079,-82.9711548
4729,Periwinkle Crescent,N9G 3G5,42.2472896,-82.9711646
4735,Periwinkle Crescent,N9G 3G5,42.2471707,-82.9711717
4741,Periwinkle Crescent,N9G 3G5,42.2470522,-82.9711761
4759,Periwinkle Crescent,N9G 3G8,42.2466970,-82.9712010
4753,Periwinkle Crescent,N9G 3G8,42.2468155,-82.9711958
4747,Periwinkle Crescent,N9G 3G8,42.2469357,-82.9711865
4777,Periwinkle Crescent,N9G 3G8,42.2463404,-82.9712255
4765,Periwinkle Crescent,N9G 3G8,42.2465804,-82.9712097
4771,Periwinkle Crescent,N9G 3G8,42.2464584,-82.9712162
4783,Periwinkle Crescent,N9G 3G8,42.2462236,-82.9712531
4787,Periwinkle Crescent,N9G 3G8,42.2460990,-82.9712792
4791,Periwinkle Crescent,N9G 3G8,42.2459441,-82.9712540
4795,Periwinkle Crescent,N9G 3G8,42.2458620,-82.9710762
4799,Periwinkle Crescent,N9G 3G8,42.2458488,-82.9706996
4797,Periwinkle Crescent,N9G 3G8,42.2458443,-82.9708702
4803,Periwinkle Crescent,N9G 3G8,42.2458667,-82.9703751
4807,Periwinkle Crescent,N9G 3G8,42.2458620,-82.9702139
4801,Periwinkle Crescent,N9G 3G8,42.2458625,-82.9705321
4811,Periwinkle Crescent,N9G 3G8,42.2458257,-82.9700436
4815,Periwinkle Crescent,N9G 3G8,42.2458813,-82.9698056
4822,Periwinkle Crescent,N9G 3G8,42.2461050,-82.9697602
4844,Periwinkle Crescent,N9G 3G8,42.2466066,-82.9697561
4838,Periwinkle Crescent,N9G 3G8,42.2464802,-82.9697672
4826,Periwinkle Crescent,N9G 3G8,42.2462363,-82.9697843
4856,Periwinkle Crescent,N9G 3G8,42.2468506,-82.9697427
4832,Periwinkle Crescent,N9G 3G8,42.2463533,-82.9697710
4850,Periwinkle Crescent,N9G 3G8,42.2467291,-82.9697514
4862,Periwinkle Crescent,N9G 3G5,42.2469755,-82.9697347
4874,Periwinkle Crescent,N9G 3G5,42.2472213,-82.9697182
4868,Periwinkle Crescent,N9G 3G5,42.2470972,-82.9697251
4880,Periwinkle Crescent,N9G 3G5,42.2473432,-82.9697120
3000,Banwell Road,N8N 2M4,42.3106046,-82.8997160
2265,Huron Church Road,N9C 2L9,42.2740473,-83.0509580
2727,Howard Avenue,N8X 3X4,42.2838091,-83.0125450
10715,Eastcourt Drive,N8R 1E9,42.3097241,-82.9094357
3070,Stillmeadow Road,N8R 1N3,42.3078497,-82.9097061
9485,Esplanade Drive,N8R 1J5,42.3100195,-82.9240405
1648,Francois Road,N8Y 4L9,42.3148256,-82.9756721
4195,Milloy Blvd,N8Y 2C2,42.3099091,-82.9895351
1140,Monmouth Road,N8Y 3L8,42.3164996,-83.0046741
1376,Victoria Avenue,N8X 1P1,42.3022544,-83.0309489
465,Victoria Avenue,N9A 4N1,42.3148118,-83.0402805
4000,Ducharme Street,N9G 0A1,42.2521502,-82.9725916
620,Cabana Road,N9G 1A4,42.2601549,-82.9929905
1213,E.C. Row Avenue,N8W 1Y6,42.2798356,-82.9929650
816,Ellis Street East,N8X 2H7,42.3063332,-83.0179055
1275,Campbell Avenue,N9B 3M7,42.2972752,-83.0514868
1295,Campbell Avenue,N9B 3M7,42.2969844,-83.0501173
3557,Melbourne Road,N9C 1Y6,42.2893132,-83.0641964
1920,Grove Avenue,N9B 1P6,42.2998875,-83.0537284
1400,Northwood Street,N9E 1A4,42.2778694,-83.0347163
3312,Sandwich Street,N9C 1B1,42.2994995,-83.0782138
477,Detroit Street,N9C 2P6,42.3028736,-83.0720459
600,E.C. Row Avenue West,N9E 1A5,42.2774625,-83.0207726
1100,Northwood Street,N9E 1A3,42.2786930,-83.0298909
284,Cameron Ave,N9B 1Y6,42.3139326,-83.0543325
1901,E.C. Row Avenue,N8W 1Y6,42.2812044,-82.9860893
1860,Chandler Road,N8W 0A9,42.3053721,-82.9857154
2520,Cabana Road,N9G 1E5,42.2535431,-83.0334154
2475,McDougall Street,N8X 3N9,42.2888046,-83.0184397
900,Howard Avenue,N9A 1S5,42.3134225,-83.0265115
300,Sprucewood Avenue,N9C 0B7,42.2617484,-83.0956824
2750,Ouellette Avenue,N8X 1L7,42.2821495,-83.0157175
11550,McNorton Street,N8P 1T9,42.3175669,-82.8994070
1100,Lauzon Rd.,N8S 3N1,42.3269636,-82.9395075
939,Wyandotte Street East,N9A 3K1,42.3187539,-83.0232375
9550,Riverside Drive East,N8P 1A1,42.3393028,-82.9279994
9716,Riverside Drive East,N8P 1A1,42.3391556,-82.9265195
9740,Riverside Drive East,N8P 1A1,42.3391874,-82.9262955
9760,Riverside Drive East,N8P 1A1,42.3392076,-82.9260943
9780,Riverside Drive East,N8P 1A1,42.3391851,-82.9259136
9790,Riverside Drive East,N8P 1A1,42.3391875,-82.9257344
9808,Riverside Drive East,N8P 1A1,42.3391862,-82.9255302
9828,Riverside Drive East,N8P 1A1,42.3391937,-82.9253253
9860,Riverside Drive East,N8P 1A1,42.3391743,-82.9250295
9880,Riverside Drive East,N8P 1A1,42.3391799,-82.9247074
9906,Riverside Drive East,N8P 1A1,42.3392212,-82.9244177
9930,Riverside Drive East,N8P 1A1,42.3391759,-82.9241026
9944,Riverside Drive East,N8P 1A1,42.3392366,-82.9238810
9966,Riverside Drive East,N8P 1A1,42.3392622,-82.9236085
9990,Riverside Drive East,N8P 1A1,42.3394758,-82.9232971
10120,Riverside Drive East,N8P 1A1,42.3392634,-82.9214387
3640,Wells Street,N9C 1T9,42.2911614,-83.0731832
1453,Prince Road,N9C 3Z4,42.2849809,-83.0642152
1039,Cora Greenwood Drive,N8P1K2,42.3291071,-82.8994348
1033,Cora Greenwood Drive,N8P1K2,42.3292366,-82.8994756
1027,Cora Greenwood Drive,N8P1K2,42.3293694,-82.8995073
1015,Cora Greenwood Drive,N8P1K2,42.3296454,-82.8995848
1009,Cora Greenwood Drive,N8P1K2,42.3297738,-82.8996055
999,Cora Greenwood Drive,N8P1K2,42.3299079,-82.8996380
987,Cora Greenwood Drive,N8P1K2,42.3300407,-82.8996578
975,Cora Greenwood Drive,N8P1K2,42.3301884,-82.8996938
963,Cora Greenwood Drive,N8P1K1,42.3303125,-82.8997260
951,Cora Greenwood Drive,N8P1K1,42.3304523,-82.8997667
939,Cora Greenwood Drive,N8P1K1,42.3305881,-82.8997881
927,Cora Greenwood Drive,N8P1K1,42.3307207,-82.8998131
915,Cora Greenwood Drive,N8P1K1,42.3308555,-82.8998386
1006,Cora Greenwood Drive,N8P1K2,42.3298348,-82.8989735
1012,Cora Greenwood Drive,N8P1K2,42.3297070,-82.8989447
1018,Cora Greenwood Drive,N8P1K2,42.3295720,-82.8988953
1024,Cora Greenwood Drive,N8P1K2,42.3294349,-82.8988848
1030,Cora Greenwood Drive,N8P1K2,42.3292990,-82.8988674
1036,Cora Greenwood Drive,N8P1K2,42.3291590,-82.8988292
1042,Cora Greenwood Drive,N8P1K2,42.3290255,-82.8987933
1048,Cora Greenwood Drive,N8P1K2,42.3288910,-82.8987577
11895,Dillon Drive,N8P1K8,42.3302858,-82.8972043
942,Cora Greenwood Drive,N8P1K1,42.3306681,-82.8991783
954,Cora Greenwood Drive,N8P1K1,42.3305141,-82.8991468
966,Cora Greenwood Drive,N8P1K1,42.3303831,-82.8991046
990,Cora Greenwood Drive,N8P1K2,42.3301134,-82.8990505
1054,Cora Greenwood Drive,N8P1K2,42.3287588,-82.8987281
1060,Cora Greenwood Drive,N8P1K3,42.3286291,-82.8986800
1066,Cora Greenwood Drive,N8P1K3,42.3284835,-82.8986423
1072,Cora Greenwood Drive,N8P1K3,42.3283504,-82.8986226
1078,Cora Greenwood Drive,N8P1K3,42.3282292,-82.8985641
1084,Cora Greenwood Drive,N8P1K3,42.3280908,-82.8985554
1090,Cora Greenwood Drive,N8P1K3,42.3279467,-82.8985132
978,Cora Greenwood Drive,N8P1K2,42.3302474,-82.8990680
11858,Dillon Drive,N8P1S4,42.3309237,-82.8978366
11850,Dillon Drive,N8P1S4,42.3309600,-82.8980306
11842,Dillon Drive,N8P1S4,42.3309783,-82.8982237
11826,Dillon Drive,N8P1S4,42.3310648,-82.8986316
11818,Dillon Drive,N8P1S4,42.3310895,-82.8988139
11808,Dillon Drive,N8P1S4,42.3311310,-82.8990090
11883,Dillon Drive,N8P1K8,42.3303267,-82.8973684
11871,Dillon Drive,N8P1K8,42.3303495,-82.8975289
11863,Dillon Drive,N8P1S4,42.3303922,-82.8977000
11855,Dillon Drive,N8P1S4,42.3304295,-82.8978958
11847,Dillon Drive,N8P1S4,42.3304654,-82.8980907
11839,Dillon Drive,N8P1S4,42.3304986,-82.8982898
11831,Dillon Drive,N8P1S4,42.3305658,-82.8984945
11823,Dillon Drive,N8P1S4,42.3305893,-82.8986560
11815,Dillon Drive,N8P1S4,42.3306051,-82.8988066
1021,Cora Greenwood Drive,N8P1K2,42.3295100,-82.8995576
2335,Dougall Avenue,N8X 1S9,42.2914461,-83.0271364
9855,McHugh Street,N8P 0A6,42.3178261,-82.9201016
5305,Adstoll Avenue,N8T 1G9,42.3055369,-82.9583274
5475,Adstoll Avenue,N8T 1H1,42.3064595,-82.9570490
4599,Brunswick Avenue,N9G3E3,42.2495335,-82.9710326
4663,Brunswick Avenue,N9G3E3,42.2485767,-82.9710952
4655,Brunswick Avenue,N9G3E3,42.2486912,-82.9710841
4679,Brunswick Avenue,N9G3E3,42.2483338,-82.9711100
4671,Brunswick Avenue,N9G3E3,42.2484554,-82.9711017
1587,Provincial Road,N8W 5V7,42.2575725,-82.9773680
1637,Provincial Road,N8W 5V7,42.2568778,-82.9762238
1375,Provincial Road,N8W 5V8,42.2594057,-82.9806494
1357,Arthur Road,N8Y 3Y5,42.3208635,-82.9781147
4285,Seminole Street,N8Y 1Z5,42.3169722,-82.9793145
4560,Howard Avenue,N9G 1V6,42.2426814,-82.9961184
3260,Devon Drive,N8X 4L4,42.2742200,-82.9938322
3121,Milloy Street,N8W 4N1,42.3068758,-82.9866604
2520,Seminole Street,N8Y 1X4,42.3116728,-82.9969305
1501,Drouillard Road,N8Y 2S1,42.3121424,-82.9943251
1112,Drouillard Road,N8Y 2R2,42.3199486,-82.9987893
1207,Drouillard Road,N8Y 2R4,42.3181441,-82.9982751
1229,Drouillard Road,N8Y 1N9,42.3175467,-82.9978233
1220,Drouillard Road,N8Y 1N9,42.3179524,-82.9975526
1151,Drouillard Road,N8Y 1N9,42.3190307,-82.9988383
326,Cabana Road,N9G 1A3,42.2586388,-82.9976201
350,Cabana Road,N9G 1A3,42.2590448,-82.9975895
2334,Elsmere Avenue,N8W2C8,42.2930642,-83.0084544
1235,St. Luke Road,N8Y 4W7,42.3159447,-83.0008334
999,Drouillard Road,N8Y 2P6,42.3218299,-83.0007140
1038,Drouillard Road,N8Y 2P8,42.3211672,-82.9996460
1034,Drouillard Road,N8Y 2P8,42.3212375,-82.9996697
1024,Drouillard Road,N8Y 2P8,42.3213757,-82.9998254
1020,dr,N8Y 2P8,42.3214779,-82.9997465
1093,Drouillard Road,N8Y 2P9,42.3200006,-82.9994919
1089,Drouillard Road,N8Y 2Py,42.3201323,-82.9994938
1067,Drouillard Road,N8Y 1N9,42.3203516,-82.9996206
1800,Talbot Road,N9H 0E3,42.2433237,-83.0146773
2702,Howard Avenue,N8X 3X5,42.2842011,-83.0111310
2698,Howard Avenue,N8X 3X3,42.2844617,-83.0113100
2640,Ouellette Avenue,N8X 1L7,42.2831709,-83.0162559
1725,Langlois Avenue,N8X4L6,42.3090555,-83.0164585
404,Windermere Road,N8Y 3C8-,42.3234051,-83.0156123
3735,Askin Avenue,n9e3k1,42.2534297,-83.0294733
3570,Charlevoix Avenue,N9G3B3,42.2561189,-83.0254272
1881,Cabana Road West,N9G 1C7,42.2522425,-83.0229724
1078,Goyeau Street,N9A 1J1,42.3082585,-83.0305274
795,McDougall Street,N9A 1L7,42.3133639,-83.0313691
350,Elliott Street East,N9A 6Y7,42.3138350,-83.0305508
920,Mercer Street,N9A 1N6,42.3124026,-83.0282676
870,Wyandotte Street East,N9A 3J6,42.3187412,-83.0244945
710,Mercer Street,N9A 1N2,42.3151727,-83.0301357
810,Mercer Street,N9A 1N3,42.3143222,-83.0295869
349,Wyandotte Street East,N9A 3H7,42.3157258,-83.0317626
1932,Everts Avenue,N9B 0B6,42.2852491,-83.0398433
1938,Everts Avenue,N9B 0B6,42.2851464,-83.0397775
1944,Everts Avenue,N9B 0B6,42.2850526,-83.0397001
1950,Everts Avenue,N9B 0B6,42.2849511,-83.0396366
1908,Everts Avenue,N9B 0B6,42.2856513,-83.0401022
1914,Everts Avenue,N9B 0B6,42.2855514,-83.0400387
1920,Everts Avenue,N9B 0B6,42.2854492,-83.0399728
1926,Everts Avenue,N9B 0B6,42.2853512,-83.0398981
1974,Everts Avenue,N9B 0B6,42.2844900,-83.0393438
1956,Everts Avenue,N9B 0B6,42.2848487,-83.0395696
1962,Everts Avenue,N9B 0B6,42.2847303,-83.0395159
1968,Everts Avenue,N9B 0B6,42.2846054,-83.0394327
1980,Everts Avenue,N9B 0B6,42.2843522,-83.0392981
1986,Everts Avenue,N9B 0B6,42.2842397,-83.0391599
2019,Everts Avenue,N9B 0B9,42.2837206,-83.0395652
2025,Everts Avenue,N9B 0B9,42.2836682,-83.0397153
2031,Everts Avenue,N9B 0B9,42.2836162,-83.0398660
2037,Everts Avenue,N9B 0B9,42.2835585,-83.0400034
1992,Everts Avenue,N9B 0B9,42.2841221,-83.0390503
2001,Everts Avenue,N9B 0B9,42.2839015,-83.0390398
2007,Everts Avenue,N9B 0B9,42.2837992,-83.0392159
2013,Everts Avenue,N9B 0B9,42.2837678,-83.0394062
342,Wyandotte Street West,N9A 5X3,42.3128193,-83.0399664
560,Wyandotte Street West,N9A 5X6,42.3120740,-83.0430735
565,Wyandotte Street West,N9A 3J1,42.3117211,-83.0430330
655,Crawford Avenue,N9A 5C7,42.3094663,-83.0468613
885,Wyandotte Street West,N9A 5Y1,42.3104268,-83.0464753
759,Victoria Avenue,N9A4N3,42.3115405,-83.0379703
567,Victoria Avenue,N9A 4N1,42.3136285,-83.0392992
540,Ouellette Avenue,N9A1B7,42.3148903,-83.0369266
553,Ouellette Avenue,N9A 1B2,42.3145291,-83.0374084
559,Pelissier Street,N9A 4L2,42.3141372,-83.0382809
357,Park Street West,N9A 5V2,42.3153907,-83.0419637
53,Pitt Street East,N9A 2V3,42.3189845,-83.0386807
25,Chatham Street East,N9A 2W2,42.3181901,-83.0387606
465,Goyeau Street,N9A 1H1,42.3161353,-83.0362493
150,Park Street West,N9A4K8,42.3166664,-83.0399565
149,Chatham Street West,N9A 5M7,42.3177373,-83.0406249
2650,Northwood Street,N9C 2L7,42.2762623,-83.0489929
466,McEwan Avenue,N9B 2E8,42.3091958,-83.0554958
936,University Avenue West,N9A 5S3,42.3147764,-83.0501921
232-234,Oak Street,N9A5E3,42.3152414,-83.0512452
992,University Avenue West,N9A 5S2;N9A5S2,42.3145425,-83.0508727
954,University Avenue West,N9A 5S2,42.3147458,-83.0504201
2600,College Avenue,N9B 3T1,42.2998171,-83.0630451
363,Mill Street,N9C 2R3,42.3014851,-83.0747032
1235,St. Luke Road,N8Y 4W7,42.3161582,-83.0010244
1106,Walker Road,N8Y 2N7,42.3176409,-83.0035532
890,Walker Road,N8Y 2N5,42.3212002,-83.0059473
1063-1061,Riverside Drive West,N9A 5L2,42.3166420,-83.0532183
1521,Riverside Drive West,N9B1A4,42.3149830,-83.0586809
474,University Avenue West,N9A5P8,42.3164006,-83.0444869
3190,Sandwich Street,N9C1A6,42.3025823,-83.0758939
3211,Forest Glade Drive,N8R 1W7,42.3030722,-82.9158527
1365,Arthur Road,N8Y 3Y5,42.3207484,-82.9780559
494,Pelissier Street,N9A 4K9,42.3149552,-83.0382486
9655,Twin Oaks Drive,N8N5E8,42.2962832,-82.9020797
3136,Jefferson Boulevard,N8T3E8,42.2953533,-82.9417914
3261,Sandwich Street,N9C1A9,42.3004084,-83.0760593
966,Drouillard Rd,N8Y 2P7,42.3223373,-83.0003514
1008,Drouillard Road,N8Y 2P8,42.3216851,-82.9999691
1012,Drouillard Road,N8Y 2P8,42.3216239,-82.9998886
1023,Drouillard Road,N8Y 2P9,42.3213088,-83.0002874
959,Drouillard Road,N8Y 2P6,42.3223908,-83.0010798
561,Wyandotte Street West,N9A 4Z7,42.3117685,-83.0428833
992,Wyandotte Street East,N9A 3K2,42.3192255,-83.0229006
595,Langlois Avenue,N9A 3J9,42.3192967,-83.0229536
575,Langlois Avenue,N9A 2G3,42.3194228,-83.0230174
964,Wyandotte Street East,N9A 3J9,42.3192622,-83.0232050
916,Wyandotte Street East,N9A 3J8,42.3189484,-83.0237699
553,Lincoln Rd,N8Y 2G6,42.3219769,-83.0164627
543,Lincoln Road,N8Y 2G6,42.3220344,-83.0165315
1082,Wyandotte Street East,N9A 3K2,42.3197916,-83.0216518
1074,Wyandotte Street East,N9A 3K2,42.3197509,-83.0217600
1064,Wyandotte Street East,N9A 3K2,42.3196501,-83.0218214
1056,Wyandotte Street East,N9A 3K2,42.3196059,-83.0219378
2465,McDougall Street,N8X 3N9,42.2896983,-83.0186143
635,Maguire Street,n9e 0a6,42.2655855,-82.9958550
1255,North Talbot Road,N9G 3A4,42.2412082,-82.9771609
511,Pelissier Street,N9A4L2,42.3146023,-83.0385888
511,Pelissier Street,N9A4L2,42.3146023,-83.0385888
1018,Drouillard Road,N8Y 2P8,42.3215507,-82.9998435
1000,Drouillard Road,N8Y 2P8,42.3217461,-83.0000810
