House number,Street name,Postal code,Latitude,Longitude
986,Dundas Street,N4S 1H3,43.1337582,-80.7292125
433,Dundas Street,N4S 1B8,43.1299462,-80.7587531
95,Huron Street,N4S 6Z5,43.1349177,-80.7485555
1299,Commerce Way,N4V 0A2,43.1206049,-80.7168112
457,Dundas Street,N4S 1E3,43.1300777,-80.7574852
951,Devonshire Avenue,N4S 5S1,43.1466668,-80.7367265
12,Brock Street,N4S 3B4,43.1292085,-80.7603351
260,Mill Street,N4S 2X4,43.1191430,-80.7628933
258,Mill Street,N4S 2X4,43.1193438,-80.7629616
149,Ingersoll Road,N4S 2R3,43.1232421,-80.7742931
251,Raglan Street,N4S 1B4,43.1245597,-80.7664838
700,Bristol Street,N4T 0E4,43.1490705,-80.7173038
305,Norwich Avenue,N4S 3W1,43.1213443,-80.7392671
685558,Old Highway 2,N4S 7V9,43.1387618,-80.6941965
1474,Dundas Street,N4S 7V9,43.1376002,-80.7031457
960,Dundas Street,N4S 1H3,43.1335774,-80.7311305
503,Norwich Avenue,N4S 9A2,43.1154754,-80.7371601
951,Devonshire Avenue,N4S 5S1,43.1455842,-80.7384181
371,Norwich Avenue,N4S 3W4,43.1200050,-80.7388888
705,Devonshire Avenue,N4S 5R3,43.1436854,-80.7512055
200,Dundas Street,N4S 1A7,43.1281288,-80.7691287
201,Dundas Street,N4S 1A6,43.1284474,-80.7693735
368,Dundas Street,N4S1B7,43.1311766,-80.7578190
878,Dundas Street,N4S 1G7,43.1325377,-80.7380968
344,Parkinson Road,N4S 2N6,43.1164455,-80.7584485
535,Mill Street,N4S 7V6,43.1032229,-80.7563837
95,Huron Street,N4S 6Z5,43.1348964,-80.7485873
951,Devonshire Avenue,N4S 5S1,43.1457540,-80.7385540
535,Norwich Avenue,N4V 1C7,43.1135786,-80.7363384
59,Algonquin Road,N4T 1R8,43.1513020,-80.7335960
100,Victoria Street South,N4S 8R4,43.1263855,-80.7521550
360,Albert Street,N4S 2L4,43.1181929,-80.7581112
65,Aileen Drive,N4S 4A2,43.1255812,-80.7336325
335,Albert Street,N4S 2L3,43.1188477,-80.7606568
431,Juliana Drive,N4V 0B6,43.1130112,-80.7494699
110,Winchester Street,N4S 7K6,43.1367977,-80.7396047
59,Algonquin Road,N4T 1R8,43.1512473,-80.7337307
21,Reeve Street,N4S 7Y3,43.1296424,-80.7556287
980,Dundas Street,N4S 1H3,43.1335920,-80.7296784
410,Hunter Street,N4S 4G4,43.1309376,-80.7597441
700,College Avenue,N4S 2C8,43.1231549,-80.7450254
81,Fyfe Avenue,N4S 8Y2,43.1235608,-80.7422448
290,Victoria Street North,N4S 6W5,43.1405923,-80.7546583
1175,Pattullo Avenue,N4S 7W3,43.1108549,-80.7198891
379,Norwich Avenue,N4S 3W4,43.1194009,-80.7388721
361,Norwich Avenue,N4S 3W1,43.1204999,-80.7388960
1060,Sprucedale Road,N4S 4Z9,43.1413428,-80.7296722
900,Cromwell Street,N4S 5B5,43.1394752,-80.7381931
35,Riddell Street,N4S 6L9,43.1311855,-80.7577170
535,Mill Street,N4S 7V6,43.1029295,-80.7563645
3,Huron Street,N4S 6Y9,43.1316765,-80.7475070
260,Mill Street,N4S 2X4,43.1191438,-80.7628878
258,Mill Street,N4S 2X4,43.1193409,-80.7629589
282,Kendall Avenue,N4S 2B5,43.1226243,-80.7633539
286,Kendall Avenue,N4S 2B5,43.1226571,-80.7631589
292,Kendall Avenue,N4S 2B5,43.1226655,-80.7629379
296,Kendall Avenue,N4S 2B5,43.1227296,-80.7626918
177,Mill Street,N4S 2W7,43.1220945,-80.7631851
175,Mill Street,N4S 2W7,43.1221907,-80.7632072
171,Mill Street,N4S 2W7,43.1223311,-80.7632812
175,Mill Street,N4S 2W7,43.1222658,-80.7631971
295,Hay Street,N4S 2C1,43.1221906,-80.7627145
299,Hay Street,N4S 2C1,43.1222204,-80.7625322
334,Mill Street,N4S 2X7,43.1165312,-80.7620725
328,Mill Street,N4S 2X7,43.1167228,-80.7621903
324,Mill Street,N4S 2X7,43.1169975,-80.7622388
320,Country Road 12,N4S 2X7,43.1171061,-80.7623512
242,Bower Hill Road,N4S 2N4,43.1169390,-80.7626316
236,Bower Hill Road,N4S 2N4,43.1168037,-80.7628506
232,Bower Hill Road,N4S 2N4,43.1166568,-80.7628886
230,Bower Hill Road,N4S 2N4,43.1165569,-80.7630767
228,Bower Hill Road,N4S 2N4,43.1164148,-80.7632554
226,Bower Hill Road,N4S 2N4,43.1163194,-80.7634184
224,Bower Hill Road,N4S 2N4,43.1162161,-80.7635636
222,Bower Hill Road,N4S 2N4,43.1160740,-80.7637132
218,Bower Hill Road,N4S 2N4,43.1157447,-80.7641373
216,Bower Hill Road,N4S 2N4,43.1156555,-80.7642920
212,Bower Hill Road,N4S 2N4,43.1155256,-80.7644684
210,Bower Hill Road,N4S 2N4,43.1153554,-80.7646886
204,Bower Hill Road,N4S 2N4,43.1150871,-80.7651258
206,Bower Hill Road,N4S 2N4,43.1152122,-80.7649037
202,Bower Hill Road,N4S 2N4,43.1149687,-80.7652671
200,Bower Hill Road,N4S 2N4,43.1147454,-80.7653331
308,Kendall Avenue,N4S 2B5,43.1227728,-80.7623932
314,Kendall Avenue,N4S 2B5,43.1227944,-80.7621757
316,Kendall Avenue,N4S 2B5,43.1228094,-80.7619221
318,Kendall Avenue,N4S 2B5,43.1228438,-80.7617532
322,Kendall Avenue,N4S 2B5,43.1228634,-80.7616094
326,Kendall Avenue,N4S 2B5,43.1229128,-80.7614316
330,Kendall Avenue,N4S,43.1229306,-80.7611679
178,Russell Street,N4S,43.1227271,-80.7610930
180,Russell Street,N4S,43.1225900,-80.7610376
186,Russell Street,N4S,43.1224213,-80.7610131
325,Hay Street,N4S 2C1,43.1224649,-80.7613259
321,Hay Street,N4S 2C1,43.1223643,-80.7614904
317,Hay Street,N4S 2C1,43.1223562,-80.7616657
314,Hay Street,N4S 2C1,43.1223404,-80.7617800
311,Hay Street,N4S 2C1,43.1222970,-80.7619986
309,Hay Street,N4S 2C1,43.1223002,-80.7621669
181,Mill Street,N4S 2W9,43.1217863,-80.7630553
187,Mill Street,N4S 2W9,43.1215821,-80.7629937
195,Mill Street,N4S 2W9,43.1214501,-80.7629612
207,Mill Street,N4S 2W9,43.1213013,-80.7628866
299,Bruce Street,N4S 2G5,43.1213042,-80.7625166
303,Bruce Street,N4S 2G5,43.1214907,-80.7622739
307,Bruce Street,N4S 2G5,43.1213995,-80.7619135
315,Bruce Street,N4S 2G5,43.1214751,-80.7616836
317,Bruce Street,N4S 2G5,43.1214543,-80.7615053
325,Bruce Street,N4S 2G5,43.1214947,-80.7612607
210,Russell Street,N4S 2Z2,43.1215712,-80.7607499
204,Russell Street,N4S 2Z2,43.1217001,-80.7608299
200,Russell Street,N4S 2Z2,43.1218547,-80.7608336
196,Russell Street,N4S 2Z2,43.1220005,-80.7608748
296,Hay Street,N4S 2B9,43.1218567,-80.7626404
300,Hay Street,N4S 2B9,43.1218777,-80.7624101
302,Hay Street,N4S 2B9,43.1218583,-80.7621366
310,Hay Street,N4S 2B9,43.1219506,-80.7618876
314,Hay Street,N4S 2B9,43.1220187,-80.7616673
320,Hay Street,N4S 2B9,43.1220308,-80.7614896
326,Hay Street,N4S 2Z2,43.1220824,-80.7611927
211,Mill Street,N4S 2X2,43.1209325,-80.7628317
249,Bruce Street,N4S 2G4,43.1209493,-80.7625747
298,Bruce Street,N4S 2G4,43.1209775,-80.7623487
302,Bruce Street,N4S 2G4,43.1210118,-80.7621392
304,Bruce Street,N4S 2G4,43.1210606,-80.7620236
308,Bruce Street,N4S 2G4,43.1210635,-80.7618196
312,Bruce Street,N4S 2G4,43.1209685,-80.7616786
316,Bruce Street,N4S 2G4,43.1211253,-80.7613860
322,Bruce Street,N4S 2G4,43.1211085,-80.7611975
324,Bruce Street,N4S 2G4,43.1211202,-80.7610732
330,Bruce Street,N4S 2G4,43.1212275,-80.7608689
220,Russell Street,N4S 2Z3,43.1211513,-80.7606488
224,Russell Street,N4S 2Z3,43.1209532,-80.7606366
339,Spencer Street,N4S 2H4,43.1205789,-80.7604398
339,Spencer Street,N4S 2H4,43.1207037,-80.7605904
335,Spencer Street,N4S 2H4,43.1206154,-80.7606569
333,Spencer Street,N4S 2H4,43.1205023,-80.7609213
331,Spencer Street,N4S 2H4,43.1205013,-80.7610945
329,Spencer Street,N4S 2H4,43.1204700,-80.7612819
327,Spencer Street,N4S 2H4,43.1204005,-80.7615411
323,Spencer Street,N4S 2H4,43.1203818,-80.7617713
319,Spencer Street,N4S 2H4,43.1203347,-80.7620072
317,Spencer Street,N4S 2H4,43.1203125,-80.7621999
327,Mill Street,N4S 2X2,43.1202588,-80.7624815
231,Mill Street,N4S 2X2,43.1204113,-80.7625935
225,Mill Street,N4S 2X2,43.1206013,-80.7626491
241B,Mill Street,N4S 2X3,43.1196794,-80.7624397
241,Mill Street,N4S 2X3,43.1198556,-80.7624511
316,Spencer Street,N4S 2H3,43.1199087,-80.7621465
318,Spencer Street,N4S 2H3,43.1199366,-80.7619638
320,Spencer Street,N4S 2H3,43.1199343,-80.7617291
322,Spencer Street,N4S 2H3,43.1199019,-80.7614973
326,Spencer Street,N4S 2H3,43.1200151,-80.7612795
330,Spencer Street,N4S 2H3,43.1200492,-80.7610091
334,Spencer Street,N4S 2H3,43.1201123,-80.7607169
338,Spencer Street,N4S 2H3,43.1201730,-80.7603790
256,Russell Street,N4S 2Z4,43.1199739,-80.7603122
260,Russell Street,N4S 2Z4,43.1198109,-80.7603021
264,Russell Street,N4S 2Z4,43.1196856,-80.7602228
266,Russell Street,N4S 2Z4,43.1194672,-80.7602678
268,Russell Street,N4S 2Z4,43.1192990,-80.7601913
276,Russell Street,N4S 2Z4,43.1191496,-80.7600805
284,Russell Street,N4S 2Z4,43.1189252,-80.7600130
339,Albert Street,N4S 2L3,43.1188854,-80.7604002
323,Albert Street,N4S 2L3,43.1188080,-80.7611194
219,Albert Street,N4S 2L3,43.1187797,-80.7613053
315,Albert Street,N4S 2L3,43.1187533,-80.7614880
311,Albert Street,N4S 2L3,43.1187311,-80.7616928
307,Albert Street,N4S 2L3,43.1186985,-80.7618746
285,Mill Street,N4S 2X3,43.1185790,-80.7621614
265,Mill Street,N4S 2X3,43.1192263,-80.7620859
271,Mill Street,N4S 2X3,43.1190249,-80.7620428
301,Mill Street,N4S 2X6,43.1177402,-80.7618692
297,Mill Street,N4S 2X6,43.1179277,-80.7619213
293,Mill Street,N4S 2X6,43.1181380,-80.7620079
282,Albert Street,N4S 2L2,43.1181913,-80.7616638
290,Albert Street,N4S 2L2,43.1182676,-80.7609911
296,Albert Street,N4S 2L2,43.1182379,-80.7607801
302,Albert Street,N4S 2L2,43.1182762,-80.7605785
308,Albert Street,N4S 2L2,43.1183139,-80.7603773
314,Albert Street,N4S 2L2,43.1183576,-80.7601645
300,Russell Street,N4S 2Z6,43.1184409,-80.7598499
306,Russell Street,N4S 2Z6,43.1182439,-80.7597884
336,Russell Street,N4S 2Z6,43.1173598,-80.7595156
330,Russell Street,N4S 2Z6,43.1175621,-80.7596037
326,Russell Street,N4S 2Z6,43.1177223,-80.7596193
320,Russell Street,N4S 2Z6,43.1178937,-80.7596427
312,Russell Street,N4S 2Z6,43.1180419,-80.7597435
327,Mill Street,N4S,43.1172986,-80.7616593
323,Mill Street,N4S 2X8,43.1171128,-80.7616273
331,County Rd 12,N4S 2X8,43.1167979,-80.7615718
346,Sales Drive,N4S 8K3,43.1167608,-80.7611507
350,Sales Drive,N4S 8K3,43.1165190,-80.7612791
354,Sales Drive,N4S 8K3,43.1163823,-80.7612764
358,Sales Drive,N4S 8K3,43.1162459,-80.7612245
362,Sales Drive,N4S 8K3,43.1161051,-80.7611864
366,Sales Drive,N4S 8K3,43.1159650,-80.7611590
370,Sales Drive,N4S 8K3,43.1158098,-80.7611522
374,Sales Drive,N4S 8K3,43.1156788,-80.7610869
378,Sales Drive,N4S 8K3,43.1155392,-80.7610454
382,Sales Drive,N4S 8K3,43.1153950,-80.7609972
386,Sales Drive,N4S 8K3,43.1152572,-80.7609513
390,Sales Drive,N4S 8K3,43.1151210,-80.7609417
9,Pember's Passage,N4S 8Z5,43.1123883,-80.7601007
13,Pember's Passage,N4S 8Z5,43.1124269,-80.7599700
17,Pember's Passage,N4S 8Z5,43.1124411,-80.7598275
21,Pember's Passage,N4S 8Z5,43.1124529,-80.7596851
25,Pember's Passage,N4S 8Z5,43.1124783,-80.7595285
29,Pember's Passage,N4S 8Z5,43.1124928,-80.7593827
33,Pember's Passage,N4S 8Z5,43.1125318,-80.7592001
41,Pember's Passage,N4S 8Z5,43.1125613,-80.7589835
45,Pember's Passage,N4S 8Z5,43.1125931,-80.7588052
49,Pember's Passage,N4S 8Z5,43.1126057,-80.7586554
53,Pember's Passage,N4S 8Z7,43.1126263,-80.7585141
57,Pember's Passage,N4S 8Z7,43.1126325,-80.7583732
61,Pember's Passage,N4S 8Z7,43.1126623,-80.7582518
65,Pember's Passage,N4S 8Z7,43.1126738,-80.7581106
69,Pember's Passage,N4S 8Z7,43.1126958,-80.7579705
73,Pember's Passage,N4S 8Z7,43.1127066,-80.7578404
77,Pember's Passage,N4S 8Z7,43.1127237,-80.7577079
81,Pember's Passage,N4S 8Z7,43.1127436,-80.7575778
85,Pember's Passage,N4S 8Z7,43.1127689,-80.7574408
89,Pember's Passage,N4S 8Z7,43.1127896,-80.7573059
93,Pember's Passage,N4S 8Z7,43.1128030,-80.7571518
97,Pember's Passage,N4S 8Z7,43.1128422,-80.7569782
186,Butler Street,N4S 3A7,43.1226839,-80.7595717
184,Butler Street,N4S 3A7,43.1228360,-80.7596088
180,Butler Street,N4S 3A7,43.1229588,-80.7596778
358,Kendall Avenue,N4S 2B8,43.1231231,-80.7597504
356,Kendall Avenue,N4S 2B8,43.1230642,-80.7600583
348,Kendall Avenue,N4S 2B8,43.1230568,-80.7602744
342,Kendall Avenue,N4S 2B8,43.1230120,-80.7604482
340,Kendall Avenue,N4S 2B8,43.1229337,-80.7603400
177,Russell Street,N4S 2B5,43.1227121,-80.7606194
181,Russell Street,N4S,43.1226166,-80.7605856
341,Hay Street,N4S 2C2,43.1225411,-80.7604137
345,Hay Street,N4S 2C2,43.1225952,-80.7601906
349,Hay Street,N4S 2C2,43.1226231,-80.7599604
191,Russell Street,N4S 2Z1,43.1221781,-80.7603946
344,Hay Street,N4S 2C3,43.1222253,-80.7601062
348,Hay Street,N4S 2C3,43.1222630,-80.7599113
352,Hay Street,N4S 2C3,43.1223236,-80.7594756
204,Butler Street,N4S 3A9,43.1221235,-80.7594164
208,Butler Street,N4S 3A9,43.1219999,-80.7593679
199,Russell Street,N4S 2Z1,43.1220318,-80.7603506
207,Russell Street,N4S 2Z1,43.1218582,-80.7603146
213,Russell Street,N4S 2Z1,43.1217191,-80.7602691
217,Russell Street,N4S 2Z1,43.1216017,-80.7602007
219,Russell Street,N4S 2Z1,43.1214296,-80.7601661
341,Spencer Street,N4S 2H6,43.1206467,-80.7600243
231,Russell Street,N4S 2Z1,43.1208371,-80.7600298
225,Russell Street,N4S 2Z1,43.1210146,-80.7600791
221,Russell Street,N4S 2Z1,43.1212792,-80.7601255
357,Spencer Street,N4S 2H5,43.1207247,-80.7594752
234,Butler Street,N4S 3A9,43.1207823,-80.7590206
232,Butler Street,N4S 3A9,43.1208579,-80.7590440
230,Butler Street,N4S 3A9,43.1209657,-80.7590829
212,Butler Street,N4S 3A9,43.1218312,-80.7593130
216,Butler Street,N4S 3A9,43.1217079,-80.7592705
220,Butler Street,N4S 3A9,43.1215624,-80.7592605
224,Butler Street,N4S 3A9,43.1214303,-80.7592121
226,Butler Street,N4S 3A9,43.1212782,-80.7591718
228,Butler Street,N4S 3A9,43.1211567,-80.7591346
342,Spencer Street,N4S 2H6,43.1202469,-80.7598609
346,Spencer Street,N4S 2H6,43.1202967,-80.7595553
350,Spencer Street,N4S 2H6,43.1203299,-80.7593380
354,Spencer Street,N4S 2H6,43.1203762,-80.7591601
358,Spencer Street,N4S 2H6,43.1203969,-80.7589938
256,Butler Street,N4S 3B2,43.1201026,-80.7589970
260,Butler Street,N4S 3B2,43.1199591,-80.7589750
264,Butler Street,N4S 3B2,43.1198133,-80.7589200
268,Butler Street,N4S 3B2,43.1196539,-80.7587913
272,Butler Street,N4S 3B2,43.1195380,-80.7587457
276,Butler Street,N4S 3B2,43.1194103,-80.7587143
278,Butler Street,N4S 3B2,43.1192753,-80.7586587
355,Albert Street,N4S 2L5,43.1191354,-80.7588175
353,Albert Street,N4S 2L5,43.1190754,-80.7590828
281,Russell Street,N4S 2Z5,43.1191563,-80.7594955
273,Russell Street,N4S 2Z5,43.1192873,-80.7595233
269,Russell Street,N4S 2Z5,43.1193938,-80.7596052
269,Russell Street,N4S 2Z5,43.1195525,-80.7596593
263,Russell Street,N4S 2Z5,43.1197507,-80.7594068
261,Russell Street,N4S 2Z5,43.1198450,-80.7597298
259,Russell Street,N4S 2Z5,43.1199813,-80.7597938
366,Spencer Street,N4S 2H7,43.1204487,-80.7585593
370,Spencer Street,N4S 2H7,43.1204818,-80.7583784
274,Spencer Street,N4S 2H7,43.1205223,-80.7581962
378,Russell Street,N4S 2H7,43.1205300,-80.7580054
382,Spencer Street,N4S 2H7,43.1205669,-80.7578185
386,Spencer Street,N4S 2H7,43.1205912,-80.7576605
256,Robinson Street,N4S 3B9,43.1203139,-80.7576463
260,Robinson Street,N4S 3B9,43.1201508,-80.7575602
264,Robinson Street,N4S 3B9,43.1200352,-80.7575250
268,Robinson Street,N4S 3B9,43.1198698,-80.7575168
272,Robinson Street,N4S 3B9,43.1197620,-80.7574432
276,Robinson Street,N4S 3B9,43.1196269,-80.7574119
284,Robinson Street,N4S 3B9,43.1193536,-80.7573369
375,Albert Street,N4S 2L6,43.1193166,-80.7577856
277,Butler Street,N4S 3B8,43.1192921,-80.7581263
273,Butler Street,N4S 3B8,43.1194695,-80.7582093
269,Butler Street,N4S 3B3,43.1196391,-80.7582546
165,Butler Street,N4S 3B3,43.1198062,-80.7583004
263,Butler Street,N4S 3B3,43.1199717,-80.7583288
259,Butler Street,N4S 3B3,43.1201530,-80.7583992
375,Spencer Street,N4S 2H8,43.1208712,-80.7585707
237,Butler Street,N4S 3B1,43.1210763,-80.7585948
255,Butler Street,N4S 3B1,43.1213086,-80.7586212
217,Butler Street,N4S 3B1,43.1216311,-80.7587511
378,Argyle Street,N4S 2G6,43.1216718,-80.7585684
362,Argyle Street,N4S 2G6,43.1217027,-80.7583723
386,Argyle Street,N4S 2G6,43.1217365,-80.7581972
390,Argyle Street,N4S 2G6,43.1217651,-80.7579704
394,Argyle Street,N4S 2G6,43.1217874,-80.7577949
398,Argyle Street,N4S 2G6,43.1218155,-80.7576001
402,Argyle Street,N4S 2G6,43.1217382,-80.7573732
406,Argyle Street,N4S 2G6,43.1216322,-80.7571752
410,Argyle Street,N4S 2G6,43.1215794,-80.7569788
414,Argyle Street,N4S 2G6,43.1215340,-80.7567073
418,Argyle Street,N4S 2G6,43.1215665,-80.7565368
422,Argyle Street,N4S 2G6,43.1215847,-80.7563305
426,Argyle Street,N4S 2G6,43.1216595,-80.7561349
430,Argyle Street,N4S 2G6,43.1217168,-80.7559740
434,Argyle Street,N4S 2G6,43.1217929,-80.7557817
234,Finkle Street,N4S 3E3,43.1218557,-80.7553778
236,Finkle Street,N4S 3E3,43.1217457,-80.7553457
238,Finkle Street,N4S 3E3,43.1216524,-80.7553136
258,Finkle Street,N4S 3E3,43.1213766,-80.7552046
457,Spencer Street,N4S 2H8,43.1213488,-80.7554265
452,Spencer Street,N4S 2H8,43.1213179,-80.7556268
451,Spencer Street,N4S 2H8,43.1212792,-80.7557958
447,Spencer Street,N4S 2H8,43.1212578,-80.7559629
441,Spencer Street,N4S 2H8,43.1212214,-80.7561848
435,Spencer Street,N4S 2H8,43.1211735,-80.7564213
429,Spencer Street,N4S 2H8,43.1211500,-80.7566080
423,Spencer Street,N4S 2H8,43.1211344,-80.7568106
419,Spencer Street,N4S 2H8,43.1211138,-80.7569702
415,Spencer Street,N4S 2H8,43.1211162,-80.7571902
411,Spencer Street,N4S 2H8,43.1210602,-80.7573946
409,Spencer Street,N4S 2H8,43.1210333,-80.7576135
383,Spencer Street,N4S 2H8,43.1209635,-80.7578290
379,Spencer Street,N4S 2H8,43.1209276,-80.7580832
377,Spencer Street,N4S 2H8,43.1208968,-80.7582988
253,Robinson Street,N4S 3B8,43.1206383,-80.7571749
255,Robinson Street,N4S 3B8,43.1204818,-80.7570948
261,Robinson Street,N4S 3B8,43.1203240,-80.7570853
269,Robinson Street,N4S 3B8,43.1199546,-80.7568486
275,Robinson Street,N4S 3B8,43.1197668,-80.7568734
279,Robinson Street,N4S 3B8,43.1196060,-80.7568496
283,Robinson Street,N4S 3B8,43.1194442,-80.7568038
309,Robinson Street,N4S 3B8,43.1189066,-80.7566080
311,Robinson Street,N4S 3B8,43.1187412,-80.7566231
313,Robinson Street,N4S 3B8,43.1185937,-80.7565522
315,Robinson Street,N4S 3B8,43.1184186,-80.7565211
317,Robinson Street,N4S 3B8,43.1182434,-80.7564666
319,Robinson Street,N4S 3B8,43.1180820,-80.7564154
415,Parkinson Road,N4S 2N7,43.1179147,-80.7561376
426,Spencer Street,N4S 2H9,43.1207268,-80.7568738
428,Spencer Street,N4S 2H9,43.1205949,-80.7565661
434,Spencer Street,N4S 2H9,43.1207863,-80.7563957
438,Spencer Street,N4S 2H9,43.1208153,-80.7562115
442,Spencer Street,N4S 2H9,43.1208687,-80.7560500
446,Spencer Street,N4S 2H9,43.1208953,-80.7558150
448,Spencer Street,N4S 2H9,43.1208818,-80.7555955
452,Spencer Street,N4S 2H9,43.1209604,-80.7553410
456,Spencer Street,N4S 2H9,43.1209812,-80.7550586
276,Finkle Street,N4S 3E5,43.1206385,-80.7550157
280,Finkle Street,N4S 3E5,43.1204725,-80.7549280
290,Finkle Street,N4S 3E5,43.1202718,-80.7548637
296,Finkle Street,N4S 3E5,43.1201321,-80.7548260
300,Finkle Street,N4S 3E5,43.1196978,-80.7548809
302,Finkle Street,N4S 3E5,43.1197842,-80.7547264
300,Finkle Street,N4S 3E5,43.1199101,-80.7547607
308,Finkle Street,N4S 3E5,43.1192505,-80.7544840
310,Finkle Street,N4S 3E5,43.1190816,-80.7544975
314,Finkle Street,N4S 3E5,43.1188987,-80.7544274
316,Finkle Street,N4S 3E5,43.1187047,-80.7542668
318,Finkle Street,N4S 3E5,43.1185182,-80.7543199
320,Finkle Street,N4S 3E5,43.1183830,-80.7542332
322,Finkle Street,N4S 3E5,43.1181914,-80.7542092
455,Parkinson Road,N4S 2N7,43.1181248,-80.7545822
453,Parkinson Road,N4S 2N7,43.1181381,-80.7549060
451,Parkinson Road,N4S 2N7,43.1180673,-80.7551489
447,Parkinson Road,N4S 2N7,43.1180516,-80.7553520
443,Parkinson Road,N4S 2N7,43.1180008,-80.7555522
308,Robinson Street,N4S 3B9,43.1188407,-80.7571977
310,Robinson Street,N4S 3B9,43.1186774,-80.7571292
312,Robinson Street,N4S 3B9,43.1185023,-80.7570877
316,Robinson Street,N4S 3B9,43.1182448,-80.7570197
322,Robinson Street,N4S 3B9,43.1177772,-80.7569392
320,Robinson Street,N4S 3B9,43.1179458,-80.7569402
301,Finkle Street,N4S 3E4,43.1200914,-80.7542873
297,Finkle Street,N4S 3E4,43.1203122,-80.7543247
285,Finkle Street,N4S 3E4,43.1204531,-80.7543313
281,Finkle Street,N4S 3E4,43.1206072,-80.7544009
277,Finkle Street,N4S 3E4,43.1207903,-80.7544103
275,Finkle Street,N4S 3E4,43.1209019,-80.7544693
273,Finkle Street,N4S 3E4,43.1209897,-80.7544766
271,Finkle Street,N4S 3E4,43.1211701,-80.7545068
265,Finkle Street,N4S 3E4,43.1213284,-80.7546602
255,Finkle Street,N4S 3E4,43.1215872,-80.7547179
225,Finkle Street,N4S 3E3,43.1224778,-80.7550735
226,Finkle Street,N4S 3E3,43.1225391,-80.7556745
228,Finkle Street,N4S 3E3,43.1224081,-80.7556113
230,Finkle Street,N4S 3E3,43.1222331,-80.7555385
419,Argyle Street,N4S 2G7,43.1219719,-80.7565178
415,Argyle Street,N4S 2G7,43.1219687,-80.7567365
409,Argyle Street,N4S 2G7,43.1220226,-80.7569093
405,Argyle Street,N4S 2G7,43.1221311,-80.7570841
401,Argyle Street,N4S 2G7,43.1221927,-80.7572789
397,Argyle Street,N4S 2G7,43.1222128,-80.7574965
393,Argyle Street,N4S 2G7,43.1222010,-80.7577354
391,Argyle Street,N4S 2G7,43.1221644,-80.7579137
387,Argyle Street,N4S 2G7,43.1221122,-80.7581222
383,Argyle Street,N4S 2G7,43.1220917,-80.7583144
379,Argyle Street,N4S 2G7,43.1220657,-80.7585130
209,Butler Street,N4S 3A8,43.1219964,-80.7588277
205,Butler Street,N4S 3A8,43.1221224,-80.7588784
201,Butler Street,N4S 3A8,43.1222776,-80.7589339
197,Butler Street,N4S 3A8,43.1224020,-80.7589702
380,Hay Street,N4S 2C4,43.1224443,-80.7586221
384,Hay Street,N4S 2C4,43.1224761,-80.7584289
388,Hay Street,N4S 2C4,43.1224823,-80.7582402
392,Hay Street,N4S 2C4,43.1225488,-80.7580521
396,Hay Street,N4S 2C4,43.1225874,-80.7578421
400,Hay Street,N4S 2C4,43.1225919,-80.7575927
319,Hay Street,N4S 2C5,43.1228938,-80.7582566
387,Hay Street,N4S 2C5,43.1228687,-80.7584561
383,Hay Street,N4S 2C5,43.1228396,-80.7586698
187,Butler Street,N4S 3A6,43.1227341,-80.7591063
183,Butler Street,N4S 3A6,43.1228865,-80.7591544
179,Butler Street,N4S 3A6,43.1229843,-80.7592073
175,Butler Street,N4S 3A6,43.1231076,-80.7592225
171,Butler Street,N4S 3A6,43.1231992,-80.7592794
51,Park Row,N4S 1V9,43.1238891,-80.7735502
57,Park Row,N4S 1V9,43.1239832,-80.7733362
65,Park Row,N4S 1V9,43.1240217,-80.7730673
71,Park Row,N4S 1V9,43.1240658,-80.7727426
79,Park Row,N4S 1V9,43.1240775,-80.7726305
85,Park Row,N4S 1V9,43.1240757,-80.7723581
89,Park Row,N4S 1V9,43.1241575,-80.7720307
91,Park Row,N4S 1V9,43.1241597,-80.7717907
99,Park Row,N4S 1V9,43.1242371,-80.7716482
103,Park Row,N4S 1V9,43.1242396,-80.7713729
107,Park Row,N4S 1V9,43.1242950,-80.7712052
109,Park Row,N4S 1V9,43.1243050,-80.7708913
125,Park Row,N4S 1V9,43.1243488,-80.7706119
129,Park Row,N4S 1V9,43.1243825,-80.7703451
133,Park Row,N4S 1V9,43.1244097,-80.7700923
139,Park Row,N4S 1V9,43.1244315,-80.7699113
145,Park Row,N4S 1V9,43.1245038,-80.7696256
149,Park Row,N4S 1V9,43.1245293,-80.7694549
153,Park Row,N4S 1V9,43.1245752,-80.7692287
157,Park Row,N4S 1V9,43.1245754,-80.7691168
185,Park Row,N4S 1V9,43.1247480,-80.7679212
181,Park Row,N4S 1V9,43.1247144,-80.7680749
179,Park Row,N4S 1V9,43.1246889,-80.7682589
177,Park Row,N4S 1V9,43.1246454,-80.7684401
173,Park Row,N4S 1V9,43.1246331,-80.7686562
265,Park Row,N4S 1V9,43.1251726,-80.7646224
261,Park Row,N4S 1V9,43.1251691,-80.7647537
259,Park Row,N4S 1V9,43.1251393,-80.7648554
251,Park Row,N4S 1V9,43.1251254,-80.7650273
247,Park Row,N4S 1V9,43.1250917,-80.7652832
245,Park Row,N4S 1V9,43.1250926,-80.7655385
241,Park Row,N4S 1V9,43.1250508,-80.7656723
239,Park Row,N4S 1V9,43.1250453,-80.7658055
235,Park Row,N4S 1V9,43.1250072,-80.7660230
229,Park Row,N4S 1V9,43.1249749,-80.7662160
225,Park Row,N4S 1V9,43.1249452,-80.7664773
221,Park Row,N4S 1V9,43.1249257,-80.7666219
217,Park Row,N4S 1V9,43.1249040,-80.7667864
199,Park Row,N4S 1V9,43.1247881,-80.7674267
187,Park Row,N4S 1V9,43.1247225,-80.7676117
380,Mill Street,N4S 7V6,43.1139113,-80.7616881
366,Mill Street,N4S 7V6,43.1136289,-80.7613875
432,Mill Street,N4S 7V6,43.1114709,-80.7608394
2,Potters Way,N4S 8Z5,43.1120210,-80.7598624
10,Potters Way,N4S 8Z5,43.1119063,-80.7598351
14,Potters Way,N4S 8Z5,43.1117955,-80.7598089
18,Potters Way,N4S 8Z5,43.1116949,-80.7597795
22,Potters Way,N4S 8Z5,43.1115869,-80.7597131
26,Potters Way,N4S 8Z5,43.1114713,-80.7596691
1,Potters Way,N4S 8Z5,43.1121056,-80.7593098
6,Potters Way,N4S 8Z5,43.1119813,-80.7592786
15,Potters Way,N4S 8Z5,43.1118383,-80.7592087
43,Potters Way,N4S 8Z5,43.1116885,-80.7591690
47,Potters Way,N4S 8Z5,43.1117078,-80.7588453
51,Potters Way,N4S 8Z5,43.1117301,-80.7586754
55,Potters Way,N4S 8Z5,43.1117495,-80.7585208
61,Potters Way,N4S 8Z5,43.1117730,-80.7583542
67,Potters Way,N4S 8Z5,43.1118056,-80.7581950
71,Potters Way,N4S 8Z5,43.1118249,-80.7580386
75,Potters Way,N4S 8Z5,43.1118524,-80.7578610
79,Potters Way,N4S 8Z5,43.1118671,-80.7576923
83,Potters Way,N4S 8Z5,43.1118810,-80.7575050
115,Potters Way,N4S 8Z5,43.1120052,-80.7567933
97,Potters Way,N4S 8Z5,43.1119681,-80.7569481
93,Potters Way,N4S 8Z5,43.1119334,-80.7571128
87,Potters Way,N4S 8Z5,43.1119465,-80.7573084
42,Pember's Passage,N4S 8Z5,43.1121222,-80.7589613
98,Pember's Passage,N4S 8Z7,43.1124030,-80.7569989
94,Pember's Passage,N4S 8Z7,43.1123934,-80.7571434
90,Pember's Passage,N4S 8Z7,43.1123596,-80.7572862
425,Henry Street,N4S 1X2,43.1249651,-80.7574755
429,Henry Street,N4S 1X2,43.1249775,-80.7572890
433,Henry Street,N4S 1X2,43.1250086,-80.7571073
435,Henry Street,N4S 1X2,43.1250139,-80.7569260
437,Henry Street,N4S 1X2,43.1250126,-80.7567424
439,Henry Street,N4S 1X2,43.1250265,-80.7565437
123,Finkle Street,N4S 3E1,43.1256552,-80.7560692
125,Finkle Street,N4S 3E1,43.1255514,-80.7560402
129,Finkle Street,N4S 3E1,43.1253949,-80.7560989
471,Henry Street,N4S 1X3,43.1250385,-80.7560501
475,Henry Street,N4S 1X3,43.1250980,-80.7556949
477,Henry Street,N4S 1X3,43.1251472,-80.7555568
499,Henry Street,N4S 1X3,43.1252936,-80.7542774
495,Henry Street,N4S 1X3,43.1252628,-80.7545044
481,Henry Street,N4S 1X3,43.1252044,-80.7549849
479,Henry Street,N4S 1X3,43.1251455,-80.7552369
124,Stoney Road,N4S 3G8,43.1258418,-80.7543964
130,Stoney Road,N4S 3G8,43.1255187,-80.7543237
130,Stoney Road,N4S 3G8,43.1256354,-80.7543548
509,Henry Street,N4S 1X5,43.1253454,-80.7538488
511,Henry Street,N4S 1X5,43.1253765,-80.7537142
136,Stoney Road,N4S 3J1,43.1256838,-80.7536198
134,Stoney Road,N4S 3J1,43.1258149,-80.7536023
61,Mill Street,N4S 8P1,43.1267854,-80.7644562
309,Main Street,N4S 1T3,43.1263377,-80.7637907
154,Finkle Street,N4S 3E3,43.1245588,-80.7563290
150,Finkle Street,N4S 3E3,43.1247022,-80.7563576
438,Henry Street,N4S 1X1,43.1246845,-80.7566776
434,Henry Street,N4S 1X1,43.1246643,-80.7568950
430,Henry Street,N4S 1X1,43.1246469,-80.7570544
426,Henry Street,N4S 1X1,43.1246357,-80.7573072
422,Henry Street,N4S 1X1,43.1246220,-80.7575566
418,Henry Street,N4S 1X1,43.1245581,-80.7577796
478,Henry Street,N4S 1X4,43.1247429,-80.7551972
500,Henry Street,N4S 1X4,43.1248759,-80.7545548
566,Henry Street,N4S 1X7,43.1257540,-80.7511866
310,Juliana Drive,N4V 0A4,43.1069457,-80.7532968
431,Juliana Drive,N4V 1E8,43.1121157,-80.7493827
2,Bernadette Place,N4S 8M5,43.1194695,-80.7476151
4,Bernadette Place,N4S 8M5,43.1195086,-80.7474456
8,Bernadette Place,N4S 8M5,43.1195517,-80.7469719
12,Bernadette Place,N4S 8M5,43.1196044,-80.7467797
16,Bernadette Place,N4S 8M5,43.1195975,-80.7466018
20,Bernadette Place,N4S 8M5,43.1196104,-80.7464408
24,Bernadette Place,N4S 8M5,43.1196626,-80.7462319
28,Bernadette Place,N4S 8M5,43.1197442,-80.7460556
27,Bernadette Place,N4S 8M5,43.1200032,-80.7460115
23,Bernadette Place,N4S 8M5,43.1201380,-80.7460937
19,Bernadette Place,N4S 8M5,43.1202552,-80.7463133
15,Bernadette Place,N4S 8M5,43.1202320,-80.7465704
11,Bernadette Place,N4S 8M5,43.1201475,-80.7467395
173,Dover Street,N4S 3M2,43.1203845,-80.7467901
169,Dover Street,N4S 3M2,43.1205417,-80.7468602
165,Dover Street,N4S 3M2,43.1207084,-80.7469358
159,Dover Street,N4S 3M2,43.1208711,-80.7469909
157,Dover Street,N4S 3M2,43.1210499,-80.7470850
151,Dover Street,N4S 3M2,43.1212319,-80.7471644
149,Dover Street,N4S 3M2,43.1213718,-80.7472001
145,Dover Street,N4S 3M2,43.1215430,-80.7472863
139,Dover Street,N4S 3M2,43.1217138,-80.7473881
135,Dover Street,N4S 3M2,43.1219504,-80.7474512
129,Dover Street,N4S 3M2,43.1221644,-80.7475272
127,Dover Street,N4S 3M2,43.1222949,-80.7475639
125,Dover Street,N4S 3M2,43.1224242,-80.7476046
121,Dover Street,N4S 3M2,43.1225907,-80.7475816
117,Dover Street,N4S 3M2,43.1227246,-80.7477281
113,Dover Street,N4S 3M2,43.1228698,-80.7477420
103,Dover Street,N4S 3M2,43.1230197,-80.7478277
636,Walter Street,N4S 2E3,43.1234745,-80.7480637
169,South Street,N4S 3L3,43.1198736,-80.7476946
161,South Street,N4S 3L3,43.1201466,-80.7478698
157,South Street,N4S 3L3,43.1203242,-80.7479309
153,South Street,N4S 3L3,43.1204955,-80.7479605
147,South Street,N4S 3L3,43.1207012,-80.7480776
143,South Street,N4S 3L3,43.1208282,-80.7480671
135,South Street,N4S 3L3,43.1209412,-80.7481605
131,South Street,N4S 3L3,43.1211538,-80.7480764
127,South Street,N4S 3L3,43.1213016,-80.7482744
125,South Street,N4S 3L3,43.1214293,-80.7483899
474,Dundas Street,N4S 1C4,43.1298943,-80.7570608
164,Fyfe Avenue,N4S 3S6,43.1213181,-80.7440854
840,Sloane Street,N4S 7V3,43.1408055,-80.7413055
1085,Devonshire Avenue,N4S 5S1,43.1476023,-80.7327346
177,Oxford Street,N4S 6A8,43.1346302,-80.7680090
700,Bristol Street,N4T 0E4,43.1497388,-80.7179918
780,Dundas Street,N4S 1E9,43.1316428,-80.7435679
726,Frontenac Crescent,N4V 0B1,43.1083997,-80.7502480
722,Frontenac Crescent,N4V 0B1,43.1084145,-80.7501248
535,Mill Street,N4S 7V6,43.1025690,-80.7554217
426,Ontario Street,N4V1B4,43.1140296,-80.7562861
288,Albert Street,N4S 2L2,43.1182520,-80.7610810
288,Albert Street,N4S 2L2,43.1182220,-80.7613006
288,Albert Street,N4S 2L2,43.1182377,-80.7612107
1400,Commerce Way,N4V 0A2,43.1202565,-80.7094744
310,Juliana Drive,N4V 0A4,43.1063439,-80.7531989
300,Juliana Drive,N4V 0A1,43.1073652,-80.7556766
