House number,Street name,Postal code,Latitude,Longitude
35,Savoie Drive,E1C 8H2,46.1050341,-64.8180384
120,Killam Drive,E1C 3R7,46.0978320,-64.8170414
124,Waverley Avenue,E1C 7V2,46.1020422,-64.8197187
1380,Mountain Road,E1C 2T6,46.1092537,-64.8322443
203,Noel,E1C 8V1,46.1073155,-64.8124546
111,Cedar Street,E1C 7L3,46.1054960,-64.8142146
2600,Mountain Road,E1G 3T6,46.1303870,-64.8818987
1380,Mountain Road,E1C 2T8,46.1102129,-64.8339357
750,Main Street,e1c1e6,46.0881352,-64.7766355
89,Trinity Drive,E1G 2J7,46.1184814,-64.8325128
2731,Mountain Road,E1G 2W5,46.1335786,-64.8855049
1380,Mountain Road,E1C 2T8,46.1088139,-64.8313711
644,Main Street,E1C 1E2,46.0889498,-64.7744805
589,Main Street,E1C 1C6,46.0897198,-64.7737821
721,Main Street,E1C 1E3,46.0887881,-64.7767588
655,Main St,E1C 1E8,46.0887681,-64.7756057
135,MacBeath Ave,E1C 6Z8,46.1048613,-64.8060190
377,Killam Drive,E1C 3T1,46.0946986,-64.8264350
151,Millennium Blvd,E1E 6G7,46.0908389,-64.8111204
4,Flanders Court,E1C 0K6,46.0940413,-64.8002875
1633,Mountain Road,E1G 1A5,46.1171660,-64.8389671
1435,Mountain Road,E1G 1A4,46.1138327,-64.8355864
165,Trinity Drive,E1G 2J7,46.1158075,-64.8346275
1574,Mountain Road,E1G 1A4,46.1157733,-64.8392645
1049,Mountain Road,E1C 2S9,46.1043699,-64.8186916
35,Plaza Boulevard,E1C 0E8,46.1138513,-64.8311732
45,Plaza Boulevard,E1C 0E8,46.1129797,-64.8313331
35,Plaza Boulevard,E1C 0E8,46.1140823,-64.8307107
679,Main Street,E1C 1E3,46.0889953,-64.7761907
811,St. George Bld,E1E 4E7,46.0877933,-64.8183837
1380,Mountain Road,E1C 2T6,46.1097138,-64.8327553
890,Main Street,E1C 1G4,46.0878401,-64.7799955
52,Wyse Street,E1G 0Z5,46.1186191,-64.8269475
52,Wyse Street,E1G 2K5,46.1184567,-64.8268975
79,Wyse Street,E1G 5R1,46.1189085,-64.8241091
500,Mapleton Road,E1G 0N3,46.1208536,-64.8296066
500,Mapleton Road,E1G 0N3,46.1207998,-64.8295734
100,Aboiteaux Street,E1A 7R1,46.1081226,-64.7927299
245,Carson Drive,E1C 0K4,46.1146711,-64.8235147
245,Carson Drive,E1C 0K4,46.1146062,-64.8239064
600,Main Street,e1c0m6,46.0893108,-64.7737771
280,Storey Road East,E1A 5Z3,46.1099781,-64.7544271
122,Shediac Road,E1A 2R9,46.1031672,-64.7620028
71,Filles de Jesus Ave,E1A 9G6,46.1188150,-64.7741088
811,Main Street,E1C 1G1,46.0883165,-64.7790908
759,Main Street,E1C 1E5,46.0885898,-64.7777214
662,Salisbury Road,E1C 1C2,46.0624504,-64.8445244
1909,Mountain Road,E1G 1A8,46.1230027,-64.8515650
20,Lonsdale Drive,E1G 2H9,46.1208885,-64.8473774
1909,Mountain Road,E1G 1A8,46.1229505,-64.8513507
1855,Mountain Road,E1G 1A8,46.1225247,-64.8497628
1855,Mountain Road,E1G 1A8,46.1224648,-64.8495527
1855,Mountain Road,E1G 1A8,46.1225668,-64.8493892
1855,Mountain Road,E1G 1A8,46.1224389,-64.8486712
25,Plaza Boulevard,E1C 0E8,46.1148946,-64.8291148
1405,Mountain Road,E1C 2T9,46.1121203,-64.8334485
1425,Mountain Road,E1C 0E8,46.1123485,-64.8335562
12,Coronation Drive,E1E 2X1,46.0767085,-64.8025071
263,Rue Saint George / St. George Street,E1C 1W7,46.0910550,-64.7844444
1633,Mountain Road,E1G 1A5,46.1180821,-64.8398405
1063,Mountain Road,E1C 2S9,46.1047119,-64.8192581
241,Lewisville Road,E1A 6T1,46.1024262,-64.7661312
808,Mountian Rd,E1C 2R6,46.0997460,-64.8076071
55,Mark Avenue,E1C 7G8,46.0982313,-64.8076121
1655,Mountain Road,E1G 1A5,46.1181244,-64.8408458
1633,Mountain Road,E1G 1A5,46.1180631,-64.8402681
808,Mountain Road,E1C 2R6,46.0997072,-64.8075644
655,Main Street,E1C 1E8,46.0897318,-64.7754754
596,Mapleton Road,E1G 2K5,46.1258190,-64.8303519
655,Main Street,E1C 1E8,46.0895791,-64.7753772
111,Trinity Drive,E1G 2J7,46.1173687,-64.8335864
370,Elmwood Drive,E1A 8R5,46.1153795,-64.7741976
141,Trinity Drive,E1G 2J7,46.1152510,-64.8334343
157,Trinity Drive,E1G 2J7,46.1150090,-64.8339319
117,Trinity Drive,E1G 2J7,46.1153781,-64.8353325
171,Trinity Drive,E1G 2J7,46.1157307,-64.8350570
121,Trinity Drive,E1G 2J7,46.1168646,-64.8340540
107,Trinity Drive,E1G 2J7,46.1177595,-64.8335330
105,Trinity Drive,E1G 2J7,46.1179863,-64.8331051
1380,Mountain Road,E1C 2T8,46.1098130,-64.8332694
1278,Mountain Road,E1C 2T6,46.1091060,-64.8296127
1224,Mountain Road,E1C 2T4,46.1079727,-64.8269619
1224,Mountain Road,E1C 2T6,46.1078559,-64.8270814
179,Trinity Drive,E1G 2J7,46.1155525,-64.8351977
145,Trinity Drive,E1G 2J7,46.1151642,-64.8335691
149,Trinity Drive,E1G 2J7,46.1151193,-64.8336748
1435,Mountain Road,E1G 1A3,46.1139419,-64.8354848
1435,Mountain Road,E1G 1A3,46.1140946,-64.8354942
1435,Mountain Road,E1G 1A3,46.1141678,-64.8356006
1400,Mountain Road,E1C 0S1,46.1115740,-64.8342140
1400,Mountain Road,E1C 0S1,46.1116374,-64.8342805
45,Plaza Boulevard,E1C 0E8,46.1128344,-64.8312421
45,Plaza Boulevard,E1C 0E8,46.1129213,-64.8313040
535,Edinburgh Drive,E1E 4E3,46.0877739,-64.8394494
440,St. George Street,E1C 1X4,46.0892742,-64.7912489
1081,Main Street,E1C 1H1,46.0864758,-64.7851438
1551,Elmwood Drive,E1H 2H5,46.1540263,-64.7778824
70,Twin Oaks Drive,E1G 0A1,46.1088422,-64.8640010
1192,Mountain Road,E1C 2T6,46.1072547,-64.8258310
18,avenue Antonine-Maillet,E1A 3E9,46.1047577,-64.7815202
346,Elmwood Drive,E1A 8R5,46.1147766,-64.7738359
1633,Mountain Road,E1G 1A5,46.1174994,-64.8391414
1690,Mountain Road,E1G 1A6,46.1187300,-64.8434991
1690,Mountain Road,E1G 1A6,46.1186679,-64.8436061
1688,Mountain Road,E1G 1A6,46.1181594,-64.8431358
1688,Mountain Road,E1G1A5,46.1182336,-64.8432393
1855,Mountain Road,E1G 1A8,46.1224856,-64.8489057
1855,Mountain Road,E1G 1A8,46.1225585,-64.8492622
1966,Mountain Road,E1G 1A9,46.1226768,-64.8542274
735,Rue principale / Main Street,E1C 1E5,46.0887256,-64.7771391
111,Trinity Drive,E1G 2J7,46.1174841,-64.8337366
30,boulevard Plaza Boulevard,E1C0G4,46.1133438,-64.8271978
1380,Mountain Road,E1C 2T8,46.1090854,-64.8316484
25,Gorge Road,E1G 1B1,46.1235642,-64.8534869
25,Gorge Road,E1G 1B1,46.1234557,-64.8530471
180,Collishaw Street,E1C 9R3,46.0957555,-64.8048867
460,Rue Saint George / St. George Street,E1C 6K8,46.0889138,-64.7925160
686,St. George Boulevard,E1E 2C6,46.0850610,-64.8096052
31,Providence Street,E1C 8X3,46.0972807,-64.7867140
34,Albert Street,E1C1A9,46.0839369,-64.7818787
151,Horsman Road,E1E 0W6,46.0985230,-64.8595445
698,Main St,E1C1E4,46.0887352,-64.7757671
1036,Mountain Road,E1C 2S8,46.1037350,-64.8187865
860,Mountain Road,E1C 2N7,46.1004025,-64.8113634
170,West Lane,E1C 6V2,46.1046585,-64.8035720
10,Ensley Drive,E1G 2W6,46.1327950,-64.8863925
960,St. George Boulevard,E1E 3Y3,46.0820512,-64.8210721
258,Baig Boulevard,E1E 1C8,46.0739514,-64.8269692
335,Edinburgh Drive,E1E 4A6,46.0809448,-64.8358109
35,West Lane,E1C 6Z8,46.1059954,-64.8041136
80,Echo Drive,E1C 3H8,46.0987135,-64.8104510
226,St. George Street,E1C,46.0908420,-64.7818555
140,Botsford Street,E1C 5A3,46.0932111,-64.7782265
2779,Mountain Road,E1G 2W5,46.1349635,-64.8872940
1212,Mountain Road,E1C 2T6,46.1076170,-64.8267310
1360,Mountain Road,E1C 2T8,46.1104745,-64.8322195
1320,Mountain Road,E1C 2T8,46.1096065,-64.8306390
30,Mapleton Road,E1C 7W8,46.1069335,-64.8229426
1144,Mountain Road,E1C 2T5,46.1064965,-64.8240575
1166,Mountain Rd.,E1C 2T5,46.1067245,-64.8246135
1180,Mountain Road,E1C 2T6,46.1071280,-64.8253215
1201,Mountain Road,E1C 2T4,46.1080190,-64.8254595
1106,Mountain Road,E1C 2T3,46.1047615,-64.8234840
1116,Mountain Road,E1C 2T3,46.1056610,-64.8230160
19,Bronson Street,E1C 8A1,46.1069005,-64.8259035
144,Birchmount Drive,E1C 8E7,46.1068115,-64.8253845
1405,Mountain Road,E1C 2T9,46.1123750,-64.8335555
1313,Mountain Road,E1C 2T9,46.1102640,-64.8298800
50,Plaza Boulevard,E1C 0G4,46.1123975,-64.8301890
25,Plaza Boulevard,E1C 0G3,46.1144305,-64.8294975
19,Plaza Boulevard,E1C 0E8,46.1156995,-64.8270915
15,Plaza Boulevard,E1C 0E8,46.1151125,-64.8267355
225,Mapleton Road,E1C 0G9,46.1143850,-64.8252475
235,Mapleton Road,E1C 9G6,46.1155190,-64.8252675
245,Carson Drive,E1C 0K4,46.1145595,-64.8236695
55,Trinity Drive,E1G 2J7,46.1188895,-64.8306650
25,Trinity Drive,E1G 2J7,46.1183055,-64.8284235
75,Trinity Drive,E1G 2J7,46.1167540,-64.8303190
99,Trinity Drive,E1G 2J7,46.1162645,-64.8323735
135,Trinity Drive,E1G 2J7,46.1156850,-64.8325060
135,MacBeath Avenue,E1C 6Z8,46.1049634,-64.8054307
1240,Main Street,E1C 0E6,46.0833736,-64.7860749
939,Main Street,E1C 8P3,46.0877644,-64.7820490
95,Foundry Street,E1C 5H7,46.0854046,-64.7804354
644,Main Street,E1C 1E2,46.0885804,-64.7743795
520,Main Street,E1C 1C5,46.0895855,-64.7722624
100,Main Street,e1c1b9,46.0921404,-64.7659474
233,Main Street,E1B 1B8,46.0927471,-64.7677007
415,Université Avenue,E1A 3E9,46.1051717,-64.7870661
40,avenue Antonine-Maillet,E1A 3E9,46.1077504,-64.7849398
330,Université Avenue,E1C 2Z3,46.0982296,-64.7871951
1005,Main Street,e1c1g9,46.0870954,-64.7838764
434,Main Street,e1c1b9,46.0903629,-64.7704021
409,Université Avenue,E1A 3E9,46.1046099,-64.7856747
125,Russ Howard Drive,E1C 0L7,46.0928085,-64.8159350
7,Ashley Crescent,E1G 1R5,46.1188415,-64.8570060
1400,Mountain Road,E1C 0S1,46.1115880,-64.8342400
1133,Mountain Road,E1C 2T4,46.1064931,-64.8228434
1036,Mountain Road,E1C 2S8,46.1038696,-64.8186637
1125,Mountain Road,E1C 2T4,46.1063775,-64.8225310
884,Mountain Road,E1C 2S2,46.1008255,-64.8117114
884,Mountain Road,E1C 2S2,46.1006744,-64.8120490
200,Trinity Drive,E1G 5L3,46.1142920,-64.8351119
1435,Mountain Road,E1G 1A3,46.1140968,-64.8355691
1515,Mountain Road,E1G 1A3,46.1146825,-64.8370718
1510,Mountain Road,E1G 1A2,46.1142018,-64.8375568
1515,Mountain Road,E1G 1A3,46.1148750,-64.8368256
20,Plaza Boulevard,E1C 0G4,46.1134240,-64.8265810
10,Plaza Boulevard,E1C 0G4,46.1135495,-64.8260140
199,Mapleton Road,E1C 9G6,46.1128270,-64.8241950
211,Mapleton Road,E1C 0E9,46.1133822,-64.8247343
854,Mountain Road,E1C 2R8,46.1002890,-64.8101055
824,Mountain Road,E1C 2R8,46.0999805,-64.8088355
834,Mountain Road,E1C 2R8,46.1001115,-64.8093121
22,Baig Boulevard,E1E 1C8,46.0743940,-64.8149643
160,Baig boulevard,E1E 1C8,46.0744960,-64.8222321
800,St. George Boulevard,E1E 2C7,46.0840993,-64.8131346
111,Baig Boulevard,E1C 8T6,46.0762169,-64.8206175
118,Albert Street,E1B 4C2,46.0821846,-64.7840150
77,Lewisville Road,E1A 2K3,46.1009730,-64.7740786
207,Church Street,E1C 5A3,46.0951546,-64.7796084
1224,Mountain Road,E1C 2T6,46.1077505,-64.8271740
165,Main Street,E1C 1B3,46.0926877,-64.7664746
1455,Elmwood Drive,E1H 2H5,46.1536299,-64.7690824
135,MacBeath Avenue,E1C 6Z8,46.1053553,-64.8039729
21,Casino Drive,E1G 0R7,46.1286290,-64.8793080
2495,Mountain Road,e1g2w4,46.1311478,-64.8750285
2475,Mountain Road,E1G 2J5,46.1312730,-64.8734287
2505,Mountain Road,E1G 2W4,46.1301850,-64.8758436
2463,Mountain Road,E1G 2J5,46.1301213,-64.8737409
2530,Mountain Road,e1g1b4,46.1293935,-64.8767390
2550,Mountain Road,e1g1b4,46.1295665,-64.8777400
20,Maplewood Drive,E1A 6P9,46.1019873,-64.7633555
1840,Main Street,E1E 4S7,46.0758582,-64.8020803
750,St. George Boulevard,E1E 2C6,46.0847015,-64.8106625
327,Elmwood Drive,E1A 1X6,46.1145325,-64.7729054
333,Gorge Road,E1C 9L7,46.1344962,-64.8611412
333,Gorge Road,E1C 9L7,46.1353390,-64.8612925
1365,Mountain Road,E1C 2T9,46.1115605,-64.8321800
22,Church Street,E1C 0P7,46.0890929,-64.7787546
777,Main Street,E1C 1E9,46.0885828,-64.7782786
1866,Mountain Road,E1G 1A9,46.1216665,-64.8500965
520,St. George Boulevard,E1E 2B5,46.0876353,-64.7964853
20,Mountain Road,E1C 2J8,46.0940351,-64.7747567
1820,Main Street,E1E 4S7,46.0767885,-64.7983600
1810,Main Street,E1E 4S7,46.0772951,-64.7971245
1987,Main Street,E1E 1J1,46.0753383,-64.8074812
701,Ryan Street,E1G 5R2,46.1061890,-64.8643055
35,Morton Avenue,E1A 3H8,46.1129930,-64.7767080
60,Roselin Court,E1A 3X9,46.1096245,-64.7800620
85,Harrisville Boulevard,E1H 3N4,46.1321090,-64.7289905
50,Assomption Boulevard,E1C 0C5,46.0886196,-64.7720288
70,Assomption Boulevard,E1C 1A1,46.0876890,-64.7730354
80,Assomption Boulevard,E1C 1A1,46.0875011,-64.7733449
54,Assomption Boulevard,E1C 0K1,46.0882147,-64.7722696
145,Assomption Boulevard,E1C 0R2,46.0866327,-64.7761871
60,Lewisville Road,E1A 2K2,46.1002491,-64.7730103
110,Wyse Street,E1G 0Z5,46.1177720,-64.8209270
235,Carson Drive,E1C 0E9,46.1146405,-64.8226563
40,Lady Ada Boulevard,E1G 0E3,46.1250885,-64.8276920
565,Mapleton Road,E1G 2K5,46.1244378,-64.8296705
100,Pleasant Street,E1A 2V1,46.1044505,-64.7666445
10,MacNaughton Avenue,E1H 3L9,46.1304761,-64.7306961
245,Horsman Road,E1E 0E8,46.0950830,-64.8613430
200,Horsman Road,E1E 0E8,46.0971585,-64.8616575
151,Horsman Road,E1E 0W6,46.0982660,-64.8584281
151,Horsman Road,E1E 0W6,46.0985230,-64.8595445
1234,Mountain Road,E1C 8H9,46.1079613,-64.8292610
118,Albert Street,E1B 4C2,46.0817484,-64.7848335
90,Wyse Street,E1G 0Z5,46.1177076,-64.8226714
10,Wyse Street,e1g 0z5,46.1212660,-64.8281360
20,Wyse Street,E1G 0Z5,46.1206300,-64.8279375
123,Lutz Street,E1C 5E8,46.0864651,-64.7793386
17,West Street,E1E 3N4,46.0839685,-64.7925470
21,West Street,E1E 3N4,46.0841140,-64.7926163
23,West Street,E1E 3N4,46.0842145,-64.7926362
25,West Street,E1E 3N4,46.0842624,-64.7926524
29,West Street,E1E 3N4,46.0843498,-64.7926909
31,West Street,E1E 3N4,46.0844068,-64.7927137
33,West Street,E1E 3N4,46.0844855,-64.7927473
35,West Street,E1E 3N4,46.0845420,-64.7927705
39,West Street,E1E 3N4,46.0846610,-64.7928372
56,Steadman Street,E1C 8L9,46.0915370,-64.7731009
80,Church Street,E1C 9G1,46.0902700,-64.7793375
51,Church Street,E1C 4Z3,46.0899374,-64.7781612
150,Queen Street,E1C 1K8,46.0893368,-64.7788245
31,Church Street,E1C 4Y8,46.0893310,-64.7780279
101,Archibald Street,E1C 9J7,46.0903330,-64.7824285
2731,Mountain Road,E1E 1G7,46.1333533,-64.8856629
50,Cabela Court,E1G 5V7,46.1274775,-64.8330385
55,Camden Crescent,E1E 4S9,46.0817983,-64.8198828
333,Evergreen Drive,E1G 2J2,46.1131673,-64.8607520
333,Evergreen Drive,E1G 2J2,46.1136655,-64.8595897
79,Rockmaple Drive,E1G 2H1,46.1205480,-64.8662525
700,Mapleton Road,E1G 0L7,46.1302595,-64.8341794
760,Mapleton Road,E1G 2K7,46.1312910,-64.8339990
127,Trinity Drive,E1G 2J7,46.1164143,-64.8344600
99,Hildegard Drive,E1G 4V3,46.1130803,-64.8467660
72,Brandon Street,E1C 7E8,46.0984765,-64.8071305
299,Botsford Street,E1C 4X9,46.0971987,-64.7769484
214,Church Street,E1C 5A2,46.0951285,-64.7806638
125,Church Street,E1C 4Z8,46.0921248,-64.7791758
176,St. George Street,E1C 1V5,46.0915267,-64.7802308
150,Canada Street,E1C 0V2,46.0855697,-64.7844867
27,Alma Street,E1C 1E3,46.0895687,-64.7767405
45,McAuley Drive,E1A 5R8,46.1071570,-64.7410962
1392,Ryan Street,E1G 2V3,46.1233335,-64.8863150
65,Diamond Head Court,E1G 0V6,46.1281840,-64.8719195
44,Diamond Head Court,E1G 5S2,46.1273250,-64.8720092
46,Diamond Head Court,E1G 5S3,46.1271255,-64.8712940
2380,Mountain Road,E1G 1B4,46.1288615,-64.8705379
2290,Mountain Road,E1G 1B4,46.1274320,-64.8688134
2600,Mountain Road,E1G 3T6,46.1303252,-64.8817389
43,Fergus Street,E1C 2W3,46.0969259,-64.7743083
141,Weldon Street,E1C 5W1,46.0897302,-64.7874848
320,Rue Saint George / St. George Street,E1C 1X1,46.0902058,-64.7863307
350,Rue Saint George / St. George Street,E1C 1X1,46.0900761,-64.7867634
75,Fleet Street,E1C 1S3,46.0897987,-64.7863469
89,Fleet Street,E1C 1S3,46.0897116,-64.7867634
119,Weldon Street,E1C 5W1,46.0893640,-64.7871373
170,Botsford Street,E1C 4X6,46.0939135,-64.7784580
140,Longfellow Drive,E1H 0G4,46.1645424,-64.7917384
100,Shediac Road,E1A 2R9,46.1026552,-64.7636997
300,Lewisville Road,E1A 5Y4,46.1009887,-64.7645562
71,Fleet Street,E1C 1S3,46.0898512,-64.7860977
400,Rue Saint George / St. George Street,E1C 1X4,46.0894274,-64.7900039
73,Weldon St,E1C 5V9,46.0879786,-64.7867854
303,Rue Saint George / St. George Street,E1C 1W8,46.0906376,-64.7861486
473,St. George Street,E1C 1Y2,46.0892937,-64.7933349
136,Cornhill Street,E1C 6L2,46.0885648,-64.7933206
449,Rue Saint George / St. George Street,E1C 1X9,46.0894783,-64.7922239
151,Cornhill Street,E1C 6L3,46.0893944,-64.7927184
450,Rue Saint George / St. George Street,E1C 1Y1,46.0891006,-64.7921561
230,Gorge Road,e1g3h9,46.1306410,-64.8621345
164,Broadway Street,E1A 3Y4,46.1080810,-64.7739271
171,Morton Avenue,E1A 9V7,46.1120367,-64.7851220
22,Echo Drive,E1C 0H9,46.0989036,-64.8082905
50,Echo Drive,E1C 3H8,46.0992240,-64.8091635
40,Echo Drive,E1C 3H8,46.0991360,-64.8087530
19,Norman Street,E1C 3H6,46.0988230,-64.8089735
5,Keillor Street,E1C 9N6,46.0994870,-64.8106385
65,Echo Drive,E1C 3H9,46.0997715,-64.8097442
43,Echo Drive,E1C 3H9,46.0997040,-64.8090725
80,Lockhart Avenue,E1C 3B8,46.0955173,-64.7982562
150,Edmonton Avenue,E1C 3B9,46.0953329,-64.8017583
75,Rockmaple Drive,E1G 2H1,46.1204562,-64.8660592
162,Maplehurst Drive,E1G 1Y8,46.1207355,-64.8665000
69,Rockmaple Drive,E1G 2H1,46.1203245,-64.8658970
176,Maplehurst Drive,E1G 2G9,46.1203980,-64.8669836
80,Rockmaple Drive,E1G 2H1,46.1202850,-64.8667250
66,Rockmaple Drive,E1G 2H1,46.1200575,-64.8663665
65,Rockmaple Drive,E1G 2H1,46.1201890,-64.8656725
61,Rockmaple Drive,E1G 2H1,46.1199875,-64.8657075
58,Rockmaple Drive,E1G 2H1,46.1199195,-64.8665315
57,Rockmaple Drive,E1G 2H1,46.1198155,-64.8658659
156,Maplehurst Drive,E1G 1Y8,46.1208871,-64.8663165
4,Sorrento Court,E1G 1Y9,46.1211035,-64.8660220
10,Sorrento Court,E1G 1Y9,46.1209755,-64.8658035
16,Sorrento Court,E1G 1Y9,46.1207905,-64.8656650
22,Sorrento Court,E1G 1Y9,46.1206440,-64.8654730
28,Sorrento Court,E1G 1Y9,46.1205175,-64.8652045
32,Sorrento Court,E1G 1Y9,46.1205780,-64.8647940
27,Sorrento Court,E1G 1Y9,46.1208330,-64.8647215
21,Sorrento Court,E1G 1Y9,46.1210115,-64.8649129
15,Sorrento Court,E1G 1Y9,46.1211845,-64.8652015
9,Sorrento Court,E1G 1Y9,46.1212915,-64.8654040
136,Maplehurst Drive,E1G 1Y9,46.1214655,-64.8655995
165,Maplehurst Drive,E1G 1Y8,46.1210370,-64.8670245
159,Maplehurst Drive,E1G 1Y8,46.1211685,-64.8667970
15,Gorge Road,E1G 0Y4,46.1234184,-64.8540500
1933,Mountain Road,E1G 1A8,46.1230598,-64.8525705
1909,Mountain Road,E1G 1A8,46.1229890,-64.8514785
1985,Mountain Road,E1G 1B1,46.1236160,-64.8549920
1985,Mountain Road,E1G 1B1,46.1235068,-64.8551164
1999,Mountain Road,E1G 1B1,46.1238619,-64.8556193
1855,Mountain Road,E1G 1A8,46.1225705,-64.8492015
1845,Mountain Road,E1G 1A8,46.1220730,-64.8486820
53,Rockmaple Drive,E1G 2H1,46.1197050,-64.8660420
47,Rockmaple Drive,E1G 2H1,46.1195466,-64.8662000
52,Rockmaple Drive,E1G 2H1,46.1197645,-64.8667220
46,Rockmaple Drive,E1G 2H1,46.1196560,-64.8668900
41,Rockmaple Drive,E1G 2H1,46.1194280,-64.8663880
40,Rockmaple Drive,E1G 2H1,46.1194945,-64.8670775
35,Rockmaple Drive,E1G 2H1,46.1192930,-64.8665759
34,Rockmaple Drive,E1G 2H1,46.1193720,-64.8672460
25,Rockmaple Drive,E1G 2H1,46.1191225,-64.8667095
30,Rockmaple Drive,E1G 2H1,46.1191701,-64.8673950
26,Rockmaple Drive,E1G 2H1,46.1190285,-64.8673495
22,Rockmaple Drive,E1G 2H1,46.1188510,-64.8671785
18,Rockmaple Drive,E1G 2H1,46.1187545,-64.8669635
145,Sandalwood Drive,E1G 1Z5,46.1185440,-64.8667305
133,Sandalwood Drive,E1G 1Z5,46.1188910,-64.8662565
100,Rockmaple Drive,E1G 2H1,46.1207240,-64.8674230
108,Rockmaple Drive,E1G 2H1,46.1209075,-64.8677170
109,Rockmaple Drive,E1G 2H1,46.1211675,-64.8672900
115,Rockmaple Drive,E1G 2H1,46.1213065,-64.8674525
120,Rockmaple Drive,E1G 2H1,46.1212185,-64.8682225
153,Maplehurst Drive,E1G 1Y8,46.1213182,-64.8666105
147,Maplehurst Drive,E1G 1Y8,46.1214930,-64.8664019
141,Maplehurst Drive,E1G 1Y8,46.1216590,-64.8662025
135,Maplehurst Drive,E1G 1Y8,46.1218065,-64.8659938
1889,Mountain Road,E1G 1A8,46.1224770,-64.8503565
20,Lonsdale Drive,E1G 2H9,46.1209811,-64.8476886
1830,Mountain Road,E1G 1A9,46.1214140,-64.8483080
1810,Mountain Road,E1G 1A9,46.1211689,-64.8470840
1780,Mountain Road,E1G 1A9,46.1208941,-64.8464055
1789,Mountain Road,E1G 5C4,46.1216125,-64.8460480
77,Hildegard Drive,E1G 0Z6,46.1136550,-64.8459587
2460,Mountain Road,e1g1b4,46.1284311,-64.8747104
777,Mapleton Road,e1g 2k5,46.1312061,-64.8313873
377,Edinburgh Drive,E1E 4A6,46.0819987,-64.8367095
505,Edinburgh Drive,E1C 8N6,46.0864282,-64.8389377
1199,St. George Boulevard,E1E 4N4,46.0810763,-64.8335090
161,MacBeath Avenue,E1C 6Z9,46.1064285,-64.8067505
1852,Mountain Road,E1G 1A9,46.1216381,-64.8490029
1978,Mountain Road,E1G 1A9,46.1228870,-64.8547150
333,Gorge Road,E1C 9L7,46.1352413,-64.8606191
45,Boulevard Babineau,E1A 9P4,46.1151529,-64.7112513
2509,Mountain Road,E1G 2W4,46.1314249,-64.8760885
1528,Mountain Road,E1G 1A2,46.1145735,-64.8382135
58,Hardwood Crescent,E1G 4T6,46.1178814,-64.8689954
264,Maplehurst Drive,E1G 4T8,46.1180515,-64.8696780
14,Woodhaven Court,E1G 1H2,46.1288870,-64.8673875
18,Arbour Green Court,E1G 2G9,46.1206715,-64.8680810
47,Hardwood Crescent,E1G 4T6,46.1178810,-64.8681925
27,Snowdon Court,E1G 1P1,46.1214254,-64.8637690
504,Glencairn Drive,E1G 1G7,46.1226760,-64.8647710
2360,Mountain Road,E1G 1B4,46.1292455,-64.8695740
22,Arbour Green Court,E1G 2G9,46.1205363,-64.8682445
246,Maplehurst Drive,E1G 4T8,46.1185731,-64.8691220
29,Arbour Green Court,E1G 2G9,46.1206374,-64.8688600
2282,Mountain Road,E1G 1B4,46.1277210,-64.8672521
196,Maplehurst Drive,E1G 2G9,46.1199350,-64.8675405
44,Hardwood Crescent,E1G 4T6,46.1182357,-64.8685174
483,Glencairn Drive,E1G 2E3,46.1223910,-64.8634220
7,Woodhaven Court,E1G 1H3,46.1293535,-64.8679710
89,Hardwood Crescent,E1G 4T6,46.1175275,-64.8700515
260,Maplehurst Drive,E1G 4T8,46.1181765,-64.8695390
43,Arbour Green Court,E1G 2G9,46.1201561,-64.8693105
2303,Mountain Road,E1G 1B6,46.1287265,-64.8671430
212,Maplehurst Drive,E1G 2G9,46.1195165,-64.8679210
36,Diamond Head Court,E1G 5Y2,46.1262978,-64.8721213
12,Arbour Green Court,E1G 2G9,46.1207955,-64.8678930
520,Glencairn Drive,E1G 1G7,46.1229610,-64.8652795
6,Bulman Drive,E1G 1H1,46.1254780,-64.8633710
110,Maplehurst Drive,E1G 1R9,46.1220725,-64.8646635
2348,Mountain Road,E1G 1B4,46.1291415,-64.8691099
34,Arbour Green Court,E1G 2G9,46.1202230,-64.8685335
236,Maplehurst Drive,E1G 4T7,46.1188395,-64.8687996
39,Arbour Green Court,E1G 2G9,46.1203505,-64.8693025
10,Hardwood Crescent,E1G 4T7,46.1187625,-64.8685195
2291,Mountain Road,E1G 1B6,46.1283340,-64.8666820
57,Woodhaven Court,E1G 1H3,46.1291220,-64.8662130
48,Hardwood Crescent,E1G 4T6,46.1181105,-64.8686605
21,Woodhaven Court,E1G 1H3,46.1294975,-64.8673154
82,Hardwood Crescent,E1G 4T6,46.1177910,-64.8695620
256,Maplehurst Drive,E1G 4T8,46.1183080,-64.8693985
48,Woodhaven Court,E1G 1H2,46.1284985,-64.8659880
42,Arbour Green Court,E1G 2G9,46.1200130,-64.8690595
40,Woodhaven Court,E1G 1H2,46.1285285,-64.8668575
200,Maplehurst Drive,E1G 2G9,46.1197855,-64.8676305
216,Maplehurst Drive,E1G 2G9,46.1194075,-64.8681180
37,Hardwood Crescent,E1G 4T7,46.1181325,-64.8679230
514,Glencairn Drive,E1G 1G7,46.1228280,-64.8650215
532,Glencairn Drive,E1G 1G7,46.1232845,-64.8657670
38,Arbour Green Court,E1G 2G9,46.1200580,-64.8686840
73,Hardwood Crescent,E1G 4T6,46.1172023,-64.8692357
2228,Mountain Road,E1G 1B4,46.1257775,-64.8663640
240,Maplehurst Drive,E1G 4T7,46.1186985,-64.8689715
336,Twin Oaks Drive,E1G 4W7,46.1171800,-64.8711680
16,Hardwood Crescent,E1G 4T7,46.1186660,-64.8683425
2281,Mountain Road,E1G 1B6,46.1281270,-64.8664502
2308,Mountain Road,E1G 1B4,46.1283682,-64.8680725
38,Hardwood Crescent,E1G 4T7,46.1183625,-64.8684285
24,Snowdon Court,E1G 1K5,46.1212740,-64.8646760
11,Arbour Green Court,E1G 2G9,46.1210375,-64.8683395
83,Hardwood Crescent,E1G 4T6,46.1174221,-64.8698715
250,Maplehurst Drive,E1G 4T8,46.1184437,-64.8692600
56,Woodhaven Court,E1G 1H2,46.1286635,-64.8658155
282,Maplehurst Drive,E1G 4T8,46.1176385,-64.8703680
2270,Mountain Road,E1G 1B4,46.1273350,-64.8669771
84,Bulman Drive,E1G 1M4,46.1234230,-64.8660650
222,Maplehurst Drive,E1G 4T7,46.1191760,-64.8683710
41,Hardwood Crescent,E1G 4T6,46.1180080,-64.8680700
515,Glencairn Drive,E1G 1G6,46.1231640,-64.8646580
482,Glencairn Drive,E1G 1H9,46.1220475,-64.8638110
21,Hardwood Crescent,E1G 4T7,46.1188300,-64.8677657
526,Glencairn Drive,E1G 1G7,46.1231065,-64.8655170
2392,Mountain Road,E1G 1B4,46.1293639,-64.8708130
65,Hardwood Crescent,E1G 4T6,46.1173996,-64.8688375
75,Hardwood Crescent,E1G 4T6,46.1172290,-64.8694897
32,Hardwood Crescent,E1G 4T7,46.1185115,-64.8681485
2271,Mountain Road,E1G 1B6,46.1278989,-64.8661650
2300,Mountain Road,E1G 1B4,46.1281645,-64.8678185
192,Maplehurst Drive,E1G 2G9,46.1200980,-64.8673350
17,Hardwood Crescent,E1G 4T7,46.1189360,-64.8679473
79,Hardwood Crescent,E1G 4T6,46.1173110,-64.8696960
52,Hardwood Crescent,E1G 4T6,46.1180020,-64.8688815
62,Woodhaven Court,E1G 1H2,46.1287020,-64.8655184
333,Twin Oaks Drive,E1G 4W7,46.1174360,-64.8707120
2252,Mountain Road,E1G 1B4,46.1268956,-64.8664880
2224,Mountain Road,E1G 1B4,46.1260835,-64.8656260
184,Maplehurst Drive,E1G 2G9,46.1202160,-64.8671845
11,Hardwood Crescent,E1G 4T7,46.1190370,-64.8681303
29,Hardwood Crescent,E1G 4T7,46.1183645,-64.8675880
476,Glencairn Drive,E1G 1H9,46.1218445,-64.8634780
25,Hardwood Crescent,E1G 4T7,46.1187305,-64.8675765
527,Glencairn Drive,E1G 1G6,46.1234865,-64.8652290
15,Snowdon Court,E1G 1P1,46.1218360,-64.8643790
69,Hardwood Crescent,E1G 4T6,46.1172715,-64.8689995
62,Hardwood Crescent,E1G 4T6,46.1177520,-64.8691290
70,Woodhaven Court,E1G 1H2,46.1288420,-64.8650135
55,Hardwood Crescent,E1G 4T6,46.1176435,-64.8685495
100,Maplehurst Drive,E1G 1R9,46.1223417,-64.8643480
6,Snowdon Court,E1G 1K5,46.1216930,-64.8651775
270,Maplehurst Drive,E1G 4T8,46.1179265,-64.8698450
71,Woodhaven Court,E1G 1H3,46.1290920,-64.8650985
63,Woodhaven Court,E1G 1H3,46.1291997,-64.8658300
316,Maplehurst Drive,E1G 0E4,46.1167909,-64.8718115
206,Maplehurst Drive,E1G 2G9,46.1196840,-64.8678067
61,Hardwood Crescent,E1G 4T6,46.1175170,-64.8686913
85,Maplehurst Drive,E1G 1G1,46.1230025,-64.8643015
21,Snowdon Court,E1G 1P1,46.1216758,-64.8641230
27,Hardwood Crescent,E1G 4T7,46.1185575,-64.8674715
521,Glencairn Drive,E1G 1G6,46.1232880,-64.8649000
488,Glencairn Drive,E1G 1H9,46.1221970,-64.8640125
2332,Mountain Road,E1G 1B4,46.1289662,-64.8687220
72,Hardwood Crescent,E1G 4T6,46.1176310,-64.8693460
2251,Mountain Road,E1G 1B6,46.1275116,-64.8652766
29,Woodhaven Court,E1G 1H3,46.1293970,-64.8668730
51,Hardwood Crescent,E1G 4T6,46.1177605,-64.8683840
36,Snowdon Court,E1G 1K5,46.1211625,-64.8640327
15,Woodhaven Court,E1G 1H3,46.1294595,-64.8676625
14,Snowdon Court,E1G 1K5,46.1215535,-64.8648738
28,Arbour Green Court,E1G 2G9,46.1204015,-64.8684230
17,Arbour Green Court,E1G 2G9,46.1209089,-64.8685035
33,Arbour Green Court,E1G 2G9,46.1205080,-64.8691245
67,Woodhaven Court,E1G 1H3,46.1292926,-64.8655320
235,White Oak Terrace,E1G 2G2,46.1152624,-64.8644700
30,Snowdon Court,E1G 1K5,46.1211325,-64.8644070
33,Hardwood Crescent,E1G 4T7,46.1182435,-64.8677470
70,Bulman Drive,E1G 1H1,46.1237480,-64.8655780
86,Maplehurst Drive,E1G 1E9,46.1226970,-64.8638801
2324,Mountain Road,E1G 1B4,46.1287626,-64.8685329
23,Arbour Green Court,E1G 2G9,46.1207710,-64.8686880
1670,Mountain Road,E1G 1A6,46.1178295,-64.8418212
386,Glencairn Drive,E1G 1Y4,46.1200726,-64.8610485
459,Glencairn Drive,E1G 2A5,46.1218680,-64.8625665
367,Glencairn Drive,E1G 1Y5,46.1199570,-64.8595385
2099,Mountain Road,E1G 1B1,46.1249145,-64.8595830
363,Glencairn Drive,E1G 1Y5,46.1198155,-64.8592875
88,Laurelle Avenue,E1G 1G3,46.1220795,-64.8629305
2132,Mountain Road,E1G 1B2,46.1248753,-64.8613320
2166,Mountain Road,E1G 1B3,46.1252720,-64.8628095
426,Glencairn Drive,E1G 1W9,46.1210305,-64.8622490
19,Brandywood Court,E1G 3V9,46.1188325,-64.8593530
344,Glencairn Drive,E1G 1Y4,46.1187600,-64.8585275
20,Cabela Court,E1G 5V7,46.1271055,-64.8322910
12,Hazelwood Court,E1G 3V9,46.1176775,-64.8602535
2051,Mountain Road,E1G 1B1,46.1243185,-64.8576585
2059,Mountain Road,E1G 1B1,46.1244380,-64.8579825
12,Willowdale Court,E1G 3V9,46.1171590,-64.8611955
1682,Mountain Road,E1G 1A6,46.1180500,-64.8421501
1902,Mountain Road,E1G 1A9,46.1221045,-64.8513821
8,Sandalwood Drive,E1G 1Z9,46.1197905,-64.8606035
410,Glencairn Drive,E1G 1Y4,46.1207190,-64.8619230
322,Glencairn Drive,E1G 2B9,46.1182811,-64.8577485
1555,Mountain Road,E1G 1A3,46.1164470,-64.8365250
450,Glencairn Drive,E1G 1H9,46.1214230,-64.8628427
2169,Mountain Road,E1G 1B5,46.1258210,-64.8626690
398,Glencairn Drive,E1G 1Y4,46.1204035,-64.8615665
348,Glencairn Drive,E1G 1Y4,46.1189100,-64.8587280
349,Glencairn Drive,E1G 3B3,46.1192470,-64.8583510
2038,Mountain Road,E1G 1T9,46.1236105,-64.8572525
2070,Mountain Road,e1g 1b2,46.1239640,-64.8589655
458,Glencairn Drive,E1G 1H9,46.1215555,-64.8630290
30,Wyse Street,e1g 2k5,46.1203385,-64.8277715
595,Lady Ada Boulevard,E1G 2K5,46.1255875,-64.8301210
2175,Mountain Road,E1G 1B5,46.1258960,-64.8629305
327,Glencairn Drive,E1G 3B3,46.1187190,-64.8575125
418,Glencairn Drive,E1G 1W9,46.1208765,-64.8621145
339,Glencairn Drive,E1G 3B3,46.1189765,-64.8579315
355,Glencairn Drive,E1G 1Y5,46.1195350,-64.8587700
1566,Mountain Road,E1G 1A2,46.1151180,-64.8389550
11,Brandywood Court,E1G 3V9,46.1186980,-64.8590480
6,Hazelwood Court,E1G 3V9,46.1175490,-64.8600055
2041,Mountain Road,E1G 1B1,46.1241910,-64.8572715
1657,Mountain Road,E1G 1A5,46.1184685,-64.8413533
385,Glencairn Drive,E1G 1Y5,46.1204000,-64.8605575
1699,Mountain Road,E1G 1A7,46.1192884,-64.8428205
5,Hazelwood Court,E1G 3V9,46.1178950,-64.8595882
371,Glencairn Drive,E1G 1Y5,46.1200405,-64.8597760
162,Rennick Road,E1G 7Y6,46.1121730,-64.8534332
360,Glencairn Drive,E1G 1Y4,46.1191975,-64.8592085
2149,Mountain Road,E1G 1B5,46.1255905,-64.8618325
434,Glencairn Drive,E1G 1W9,46.1211880,-64.8624450
1819,Mountain Road,E1G 1A7,46.1219195,-64.8474815
359,Glencairn Drive,E1G 1Y5,46.1196920,-64.8590490
2156,Mountain Road,E1G 1B3,46.1251950,-64.8623378
391,Glencairn Drive,E1G 1Y5,46.1205495,-64.8608095
5,Rossmount Terrace,E1G 3V9,46.1184525,-64.8580385
20,Cabela Court,E1G 5V7,46.1273685,-64.8323345
6,Brandywood Court,E1G 3V9,46.1182092,-64.8593795
2069,Mountain Road,E1G 1B1,46.1245395,-64.8582680
20,Hazelwood Court,E1G 3V9,46.1179790,-64.8605836
1567,Mountain Road,E1G 1A3,46.1161335,-64.8383120
6,Willowdale Court,E1G 3V9,46.1169340,-64.8607610
9,Oakmoor Terrace,E1G 1T4,46.1234695,-64.8570340
2087,Mountain Road,E1G 1B1,46.1247715,-64.8592020
321,Glencairn Drive,E1G 3B3,46.1185850,-64.8573250
140,Oakmoor Terrace,E1G 1X2,46.1215480,-64.8620320
8,White Oak Terrace,E1G 2A7,46.1193440,-64.8595880
1966,Mountain Road,E1G 1A9,46.1226185,-64.8541720
402,Glencairn Drive,E1G 1Y4,46.1205735,-64.8617775
5,Brandywood Court,E1G 3V9,46.1185445,-64.8588325
1521,Mountain Road,E1G 1A3,46.1150640,-64.8371139
11,Hazelwood Court,E1G 3V9,46.1180385,-64.8597610
2114,Mountain Road,E1G 1B2,46.1246390,-64.8605375
392,Glencairn Drive,E1G 1Y4,46.1202415,-64.8612880
10,Evergreen Drive,E1G 1N1,46.1224860,-64.8536185
379,Glencairn Drive,E1G 1Y5,46.1202665,-64.8603020
2073,Mountain Road,E1G 1B1,46.1246365,-64.8586135
24,Willowdale Court,E1G 3V9,46.1174885,-64.8612595
1888,Mountain Road,E1G 1A9,46.1218270,-64.8511810
468,Glencairn Drive,E1G 1H9,46.1217030,-64.8632730
9,White Oak Terrace,E1G 2A9,46.1195925,-64.8600760
2181,Mountain Road,E1G 1B6,46.1260597,-64.8632030
333,Glencairn Drive,E1G 3B3,46.1188465,-64.8577025
440,Glencairn Drive,E1G 1W9,46.1212900,-64.8626295
343,Glencairn Drive,E1G 3B3,46.1191285,-64.8581880
1655,Mountain Road,E1G 1A5,46.1181599,-64.8408165
2155,Mountain Road,E1G 1B5,46.1257185,-64.8622690
417,Glencairn Drive,E1G 2A4,46.1213405,-64.8617480
24,Brandywood Court,E1G 3V9,46.1187570,-64.8597045
118,Redwood Drive,E1G 2A6,46.1209605,-64.8612783
5,Willowdale Court,E1G 3V9,46.1172750,-64.8603345
376,Glencairn Drive,E1G 1Y4,46.1197200,-64.8603025
1644,Mountain Road,E1G 1A6,46.1175205,-64.8414160
1916,Mountain Road,E1G 1A9,46.1221100,-64.8518320
1844,Mountain Road,E1G 1A9,46.1215535,-64.8485420
1590,Mountain Road,E1G1A4,46.1162635,-64.8399035
166,Rennick Road,E1G 7Y6,46.1119540,-64.8539265
354,Glencairn Drive,E1G 1Y4,46.1190555,-64.8589830
397,Glencairn Drive,E1G 1Y5,46.1207415,-64.8610605
11,Willowdale Court,E1G 3V9,46.1174245,-64.8605080
8,Teakwood Way,E1G 1V3,46.1237175,-64.8576430
375,Glencairn Drive,E1G 1Y5,46.1201600,-64.8600320
15,James Street,E1C 3Z8,46.1046885,-64.8113210
1855,Main Street,E1E 4V8,46.0763765,-64.8034775
81,Regina Street,E1C 7G1,46.0993665,-64.8078785
678,Mountain Road,E1C 2P6,46.0984175,-64.8014969
96,Parkplace Lane,E1A9S9,46.1184845,-64.7931690
80,Parkplace Lane,E1A9S9,46.1183086,-64.7938944
92,Parkplace Lane,E1A9S9,46.1184470,-64.7933505
84,Parkplace Lane,E1A9S9,46.1183580,-64.7937125
76,Parkplace Lane,E1A9S9,46.1182661,-64.7940720
88,Parkplace Lane,E1A9S9,46.1183975,-64.7935315
247,Elmwood Drive,E1A 1X3,46.1114570,-64.7738120
402,Elmwood Drive,E1A 1X9,46.1158620,-64.7732146
221,Drummond Street,E1G 2Z8,46.1106166,-64.7565140
55,Queen Street,e1c1k2,46.0906777,-64.7749493
2580,Mountain Road,e1c2t9,46.1300762,-64.8807514
761,Main st.,E1C 1G1,46.0886460,-64.7778227
751,Main st.,E1C 1E5,46.0886862,-64.7776315
811,Rue principale / Main Street,E1C 1G1,46.0884454,-64.7791524
199,Robinson Street,E1C 1G1,46.0886867,-64.7793483
1000,Main Street,e1c1h5,46.0865967,-64.7830237
100,Roselin Court,E1A 0Z1,46.1094695,-64.7816545
744,Front Mountain Road,E1G 3H3,46.1421385,-64.8868184
33,Diamond Head Court,E1G 6B1,46.1272240,-64.8732052
320,Maplehurst Drive,E1G 0E5,46.1149459,-64.8732250
40,Wyse Street,e1g 0z5,46.1197457,-64.8273298
84,Wyse Street,E1G 0Z5,46.1177856,-64.8234298
4,Timandra Crescent,E1G5Y4,46.1105080,-64.8677416
6,Timandra Crescent,E1G5Y4,46.1104893,-64.8678235
123,Charles Lutes Road,E1A 2G4,46.1267010,-64.8947177
50,Moncton Street,E1G 6G6,46.1271948,-64.8284922
210,Erinvale Drive,E1A 9T4,46.1216153,-64.7359412
