House number,Street name,Postal code,Latitude,Longitude
No.10-11,Jalan Balai Pustaka Timur,13250,-6.1997376,106.8858630
Blok A4 No.13,Penggilingan Elok,13940,-6.1955747,106.9410331
Rt.06/06 No.53,Al Baidho Raya,13810,-6.2930080,106.9008539
No.15,Jl. Protokol Halim Perdana Kusuma,13650,-6.2651474,106.8850270
32,Jalan Mayjend. Sutoyo,13630,-6.2578529,106.8688038
No.12,Jalan Pahlawan Revolusi,13430,-6.2249848,106.8989325
1,Jalan Pemuda,13220,-6.1930627,106.8843726
Kav 99,Jl Perintis Kemerdekaan,13260,-6.1817820,106.9046240
No.76,Jl. Mayjen Sutoyo,13650,-6.2623759,106.8649190
Kav. 125-127,Jalan Otto Iskandar Dinata,13330,-6.2371244,106.8692442
RT.6/RW.12,Jalan Letnan Jenderal MT Haryono,13330,-6.2437083,106.8689193
RW.6,"Jl. Sentra Primer Tim., Pulo Gebang, Cakung",13940,-6.2050110,106.9476617
Kav. 22,Jl. Pulo Mas Selatan,13210,-6.1789536,106.8773059
9,Jalan Pemuda,13220,-6.1926990,106.8806242
15,Jalan Matraman Raya,10310,-6.2005439,106.8528692
No.23,Jl. Perintis Kemerdekaan,13260,-6.1752306,106.8928280
2,Jalan Radin Inten,13440,-6.2224439,106.9234760
No. 1,Jl. Halim Perdana Kusuma,13630,-6.2489648,106.8782631
60 - 62,Jalan Jatinegara Timur,13310,-6.2205795,106.8678824
44,"Jalan Pemuda, Rawamangun,",13220,-6.1933636,106.8988495
3-4,Jalan Pemuda,13220,-6.1938567,106.8900534
76,Jl. Letjend Sutoyo,13640,-6.2626600,106.8653798
60,Jl. Otista 2,13330,-6.2435667,106.8685556
No.88,Jalan Pulo MAS Barat 3,13250,-6.1791793,106.8784888
369,"Jl. Pulo Mas Timur, Pulo Gadung",13210,-6.1754507,106.8876287
9,Jalan Pemuda,13220,-6.1927035,106.8807842
11,"Jl. Pangkalan Jati III, Cipinang Melayu, Makasar",13620,-6.2499015,106.9081626
25,"Jl. Balai Pustaka Tim. , Rawamangun, Pulo Gadung,",13220,-6.1973271,106.8862803
15,"Jalan Otista Raya, Jatinegara",13330,-6.2412822,106.8682859
No. 2,Jl. Pisangan Lama 1,13230,-6.2140252,106.8750837
109,Jl. Jatinegara Timur,13930,-6.2236787,106.8680897
15,"no, Gg. M.Zen",13510,-6.2740707,106.8568264
2C,Jl. Raya Pondok Kelapa Blok C 4,13460,-6.2297876,106.9351000
53,Jl. Pahlawan Revolusi,13470,-6.2206863,106.8991655
54,Jl. Pondok Kopi Raya,13460,-6.2318757,106.9429126
66-67,Jalan Pemuda,13220,-6.1937210,106.8942294
2,Jalan Laksamana Malahayati,13440,-6.2494402,106.9434936
28,Jalan Permata,13650,-6.2542683,106.8768400
9,Jl.Monumen Pancasila Sakti,13810,-6.2857629,106.9044948
4,Jalan Bekasi Barat Raya,13260,-6.1848880,106.9070601
23,Bekasi Raya,13910,-6.1843023,106.9445459
No. 30,Jalan Perumkar DKI Blok M2,13450,-6.2392000,106.9386390
M2 No. 30,Jalan Perumkar DKI,13450,-6.2407234,106.9409851
1A,Cipinang Cempedak II,13340,-6.2373440,106.8702250
10,Pulo Gebang,41581,-6.2068294,106.9552542
44e,Jalan I Gusti Ngurah Rai,13470,-6.2139210,106.8992911
34,Jalan Rahayu,13540,-6.2898060,106.8703377
66,Jalan Rawa Terate,13920,-6.1859453,106.9284659
69,Jl Matraman Raya,13140,-6.2029493,106.8577566
3-4,Jalan Pemuda,13220,-6.1939764,106.8907518
1,Jalan Sunan Sedayu,13220,-6.1973912,106.8917940
Ruko Cibubur Indah Blok F.9,Jalan Lapangan Tembak,13720,-6.3526946,106.8826263
F.8,Jl. Raya Lapangan Tembak,13720,-6.3527082,106.8826697
14,Gang H Daud,13730,-6.3327448,106.8791799
jakarta raya,jakarta raya,15417,-6.1883420,106.8822098
No.74,Jl. Limo,13310,-6.2232540,106.8690187
No.10,"Jalan Raya Pondok Kopi Jl. Arabika VI No.10 Blok Y7, RT.10/RW.06",13460,-6.2301240,106.9434415
3,Jalan Haji Karim,13880,-6.3114726,106.9080666
80,Jalan Pulo Gebang,13950,-6.2163285,106.9549749
RT.006 /RW.006 No.1,Jalan Kp.Kapuk 1,13470,-6.2153042,106.9015346
28,Jalan Taman Sari VI,13940,-6.2140179,106.9264485
46,Jalan Haji Mansur,13460,-6.2321667,106.9379405
RT.6/RW.8,Jalan KH. Abdurrahman,13950,-6.2116980,106.9450500
18,Jalan Malaka Raya,13460,-6.2253344,106.9318736
50,Jalan Kayu Manis Barat,13130,-6.2018764,106.8604935
27,Jalan Panca Warga Satu,13410,-6.2356809,106.8803097
2,Jalan Bambu Kuning I,13220,-6.1985458,106.8882036
147,Jalan Pesantren Al' Bariyah,13540,-6.2861811,106.8632848
37,"Jalan Masjid Al-Munir, RT 011 RW 003",13570,-6.2692695,106.8740437
22,Jalan Kelapa Tunggal,13120,-6.2078757,106.8675387
54,Jalan Kayu Manis VIII,13130,-6.2063650,106.8643925
6,Jalan Komplek PIK,13940,-6.2048870,106.9307315
40,Jalan Haji Ali,13540,-6.2923354,106.8651190
77,Jalan I Gusti Ngurah Rai,13470,-6.2142092,106.9082236
19,"Jl. Balai Pustaka Baru No.19, RT.7/RW.7, Rawamangun, Kec. Pulo Gadung, Kota Jakarta Timur, Daerah Khusus Ibukota Jakarta 13220",13220,-6.1959980,106.8863993
"Ruko Townhouse 3A, Jl. Radar Auri No.99",Jalan Radar Auri,13720,-6.3697773,106.8837636
+010,Jl. Sedayu City Boulevard Blok SCBRA. No. +010,13910,-6.1656078,106.9247833
12,Jalan Mulia,13330,-6.2349320,106.8695891
10,Gang Haji Kaiman,13350,-6.2192656,106.8721131
41,Gang Musholla,13740,-6.3179639,106.8773001
3,Jalan Centex,13740,-6.3171446,106.8788462
31,Jalan Centex,13740,-6.3173639,106.8787644
1,Jalan Jatinegara Timur I,13310,-6.2176028,106.8673930
117,Jalan Balai Rakyat,13910,-6.1828307,106.9565417
98J,Jl. Al-Ikhsan,13810,-6.2914469,106.8948922
2A,Jalan Damai PBSI,13840,-6.3370331,106.8922342
RT.14/RW.2,Jl. Pondok Gede,13560,-6.2912347,106.8864703
1,Jalan Taman Mini I,13650,-6.2928884,106.8807575
37,Jalan Pondok Gede,13560,-6.2906335,106.8841603
58,Jalan Manunggal XVII,13810,-6.2976716,106.8969654
58,Jalan Albaidho,13810,-6.2974707,106.8970459
58,Jalan Albaidho,13810,-6.2975098,106.8970442
1A,Jalan Albaidho,13810,-6.2970333,106.8971908
7,Jalan Albaidho,13810,-6.2966902,106.8973091
55,Jalan Pondok Gede,13560,-6.2906173,106.8826559
13,Pertamina 34-13506,13560,-6.2855076,106.8793008
4,"Jl. SMA Negeri 14 No.4, RT.4/RW.14, Cawang, Kec. Kramat jati, Kota Jakarta Timur, Daerah Khusus Ibukota Jakarta",13640,-6.2581787,106.8689920
no 2,Jalan Cililitan Besar,13570,-6.2654565,106.8775776
8,Jalan Bogor Raya,13740,-6.3311323,106.8676669
15,Jalan Pondok Gede,13650,-6.2910511,106.8817562
220,Jalan Matraman,13310,-6.2142319,106.8623282
14,Jalan DI Panjaitan,13420,-6.2404354,106.8771787
11,Jalan DI Panjaitan,13340,-6.2416412,106.8767596
5,Jalan DI Panjaitan,13340,-6.2440972,106.8756097
37,Jalan Radin Inten II,13440,-6.2340783,106.9232038
1,Jalan Persahabatan Raya,13230,-6.2047966,106.8842734
"No.127, RT.19/RW.8",Jl. Matraman Raya,13110,-6.2081337,106.8597862
No. 7,JL. Jaâ€™ani Nasir,13630,-6.2503209,106.8683778
2A,Jalan Pisangan Baru Timur,13110,-6.2142561,106.8723720
36B,Jalan Pisangan Baru Tengah RT. 06/14,13110,-6.2106703,106.8709552
"No.2, RT.2/RW.4",Jl. Pendidikan III,13770,-6.3168622,106.8617265
96,Jalan Pondok Gede Raya,13810,-6.2906411,106.8898961
Kav. 30,Jl. Pramuka,13120,-6.1927913,106.8690493
Km 21,Jalan Bekasi Raya,13920,-6.1833160,106.9156562
KM 19 No. 24,Bekasi Raya,13910,-6.1870819,106.9491089
88,Jalan Penganten Ali,13740,-6.3241404,106.8852252
6,jalan mungang,13530,-6.2764169,106.8513616
1a -1b,Jalan Pusdiklat Depnaker,13570,-6.2836367,106.8776945
7,Jalan Pondok Gede,13560,-6.2900663,106.8831893
6A,Jalan Pondok Gede,13560,-6.2901563,106.8828655
No. 1,Jalan Persahabatan,13230,-6.2034826,106.8833222
6,jalan mungang,13530,-6.2772658,106.8508635
No.16,Jl. Semar,13850,-6.3484392,106.8995991
kav. 38,Pramuka,13120,-6.1930283,106.8686717
53,Jalan Bekasi Barat Raya,13350,-6.2158963,106.8678711
28,Jalan Bekasi Barat Raya,13350,-6.2157610,106.8684335
36,Jalan Bekasi Barat Raya,13350,-6.2158524,106.8682462
7,Jalan Raya Bogor,13510,-6.2770882,106.8688068
24,Jalan Raya Bogor,13510,-6.2716706,106.8671092
21,Jalan Raya Bogor,13510,-6.2722228,106.8670357
59,Jalan Raya Bogor,13510,-6.2725277,106.8672965
no 12 RT 05,Jalan Harapan III,13620,-6.2469819,106.9011206
33,Jalan Pramuka,13120,-6.1926619,106.8708577
kav. 3-4,"Jalan Pemuda, Rawamangu",13220,-6.1941067,106.8904552
1,Cipinang Indah 1,13420,-6.2384616,106.8885858
"No. 67 BC, RT.12/RW.4",Jalan Matraman Raya,13140,-6.2037365,106.8578328
65,Jalan Cipinang Cempedak I,13340,-6.2364836,106.8767833
Kav. 10A,Jalan Letnan Jenderal MT Haryono,13340,-6.2456382,106.8746447
No. 9,Jalan Letnan Jenderal MT Haryono,13340,-6.2469107,106.8728064
8,Jalan Kalisari Raya,13710,-6.3392640,106.8610795
60,Jalan Komplek Lapan blok g-1,13710,-6.3428206,106.8605209
16A,Jalan Rawamangun Tegalan,13220,-6.1905169,106.8768085
16,Jalan Rawamangun Tegalan,13220,-6.1905169,106.8769520
20,Jalan Rawamangun Tegalan,13220,-6.1904707,106.8765095
"1A, 1B, 1C",Cipinang Cempedak II,13340,-6.2374537,106.8702784
2A,Jl. Pisangan Baru Timur,13110,-6.2144050,106.8721240
7,Jalan Kampung Melayu Besar,13330,-6.2252391,106.8651218
Blok J No 9,Jalan Bumi Pratama IV,13550,-6.2957873,106.8771940
94,"Jl. Satria 6 RW.2, Ujung Menteng, Cakung",13910,-6.1875185,106.9687869
No 11-12,Jl Pedati Timur Dalam RT 6 RW 9,13350,-6.2261623,106.8736649
18,Jalan Pembina I,13420,-6.2299177,106.8842790
No.8 Rt 3/Rw 6,Jalan Jenderal Basuki Rahmat,13410,-6.2278465,106.8822407
No.19-20,Jalan Jend. Basuki Rahmat,13410,-6.2250585,106.8689498
Kav. 98,"Jl. Jend. A. Yani , RT.12/RW.6, Pisangan Timur",13110,-6.2042243,106.8743012
3,Gang Salam VIII,13130,-6.2072412,106.8639531
1,"Jl. Raya Bogor, Cililitan, Kramat Jati, Kramat Jati, Kramatjati",13640,-6.2654295,106.8666730
T4/5,Jalan Kopi Liberika VI,13460,-6.2268683,106.9462285
10,Jalan Perintis Kemerdekaan,13260,-6.1794531,106.9028014
1,Jalan Cipinang Elok I,13420,-6.2206914,106.8880832
9,"Cipinang Elok 1, Blok 1",13420,-6.2203648,106.8874372
RT.14/RW.2,Jl. Jatinegara Timur,13930,-6.2193877,106.8674203
B11 No. 15,Jalan Lembah Aren XI,13450,-6.2322267,106.9292112
38,Jl. Pisangan Baru Tengah,13110,-6.2111930,106.8693478
4,Jalan SMP 126;Jalan Al Bariyah,13540,-6.2901132,106.8645833
1,Jalan Merpati,13540,-6.2901011,106.8690841
17,Jalan Pulo Mas Raya,13210,-6.1767890,106.8805782
19,Jalan Pulo Mas Raya,13210,-6.1768177,106.8807116
Q 226,Jalan Kayu Mas Utara II,13260,-6.1793342,106.9015854
Graha10,Jalan Tengah Gang Musholla,13540,-6.2888054,106.8598960
1,Jalan Pemuda,13220,-6.1940675,106.8897183
25,Jalan Pondok Gede,13560,-6.2911380,106.8845468
85b,"Jl. H Kunjin No.85b, RW.14, Cibubur, Kec. CiracasJl. H Kunjin No.85b, RW.14, Cibubur, Kec. Ciracas",13720,-6.3683577,106.8870820
12,Jalan Sunan Kudus,13220,-6.1947134,106.8851020
44,Jalan Pemuda,13220,-6.1926329,106.8818836
1,Jalan SPG 7,13810,-6.2866709,106.9050990
13,Jalan Rama Wijaya,13850,-6.3462281,106.8978479
14,Jalan Rama Wijaya,13850,-6.3460218,106.8978413
15,Jalan Rama Wijaya,13850,-6.3458905,106.8979005
1,Jalan Rama Wijaya,13850,-6.3456542,106.8978309
2B,Jalan Sunan Drajad,13220,-6.1971555,106.8952027
No. 1-2,Jl. Lapangan Tembak Ruko,13720,-6.3519431,106.8836551
11,Jalan Pulo Asem Utara XII,13220,-6.1887444,106.8945707
11A,Jalan Pulo Asem Utara XII,13220,-6.1887259,106.8946763
1-5,Jalan Pulo Mas Timur,13210,-6.1737102,106.8879879
291,Jalan Werkudoro,13610,-6.2871739,106.8942171
No.101,l. Halim Perdanakusuma,13610,-6.2627474,106.8868083
Rt. 012/04 No. 83,Jalan Batu Kinyang,13520,-6.2767229,106.8589907
No. 4,Jl. Gemini,13610,-6.2616608,106.8827123
12,Jalan Jati Waringin,13620,-6.2482662,106.9073924
4,Jalan Sunan Gunung Jati,13220,-6.1955906,106.8846385
1,Jalan Sunan Kanoman,13220,-6.1957360,106.8847363
3,Jalan Sunan Gunung Jati,13220,-6.1957369,106.8846404
12A,Jalan Pusdiklat Depnaker,13570,-6.2848264,106.8783746
24,Jalan Squadron,13570,-6.2685128,106.8773392
58,Jalan Haji Abdul Gani,13570,-6.2739840,106.8760188
4,Jalan Kerja Bakti,13570,-6.2761451,106.8756408
11,Jalan Pondok Gede,13560,-6.2906784,106.8833038
2,Jalan Pondok Gede,13610,-6.2893247,106.8903205
4,Jalan Pintu II TMII,13560,-6.2912673,106.8883788
49,Jalan Manunggal XVII,13810,-6.2976254,106.8966980
7,Jalan Manunggal XVII,13810,-6.2974652,106.8968517
57,Jalan Albaidho,13810,-6.2973376,106.8969986
47,"Jl. Bunga Rampai XI Gg I, Malaka Jaya Duren Sawit",13460,-6.2215407,106.9347953
9,Jalan Rawamangunmuka Selatan I,13220,-6.2010254,106.8791271
11,Jalan Rawamangunmuka Selatan I,13220,-6.2010364,106.8790535
8,Jalan Rawamangunmuka Selatan I,13220,-6.2007012,106.8791868
12,Jalan Rawamangunmuka Selatan I,13220,-6.2007140,106.8790452
28,Jalan Taman Sari VI No.28,13940,-6.2140403,106.9264406
12B,Jalan Laksamana Malahayati,13440,-6.2477108,106.9143706
30,Jalan Haji Atun,13440,-6.2443700,106.9163243
2A,Jalan Albaidho,13810,-6.2954076,106.8983573
133,Jalan Nusa Indah VI A,13460,-6.2193765,106.9373356
7,Jalan Mabes Hankam,13890,-6.3092105,106.8982625
19,Jalan Setu,13880,-6.3128903,106.9129099
6A,Jalan Raya Mabes Hankkam,13880,-6.3142121,106.9112996
41,Jalan Lingkar I,13810,-6.3008902,106.9133737
1,Jalan Jambore Raya,13720,-6.3696010,106.8941842
09,Gang Damai,13950,-6.1969020,106.9546941
101,Jalan Bambu Hitam,13890,-6.3242530,106.8993135
b9,green royale residence,13890,-6.3246716,106.8976318
7G,Jalan Ceger Residence,13820,-6.3151105,106.8907536
100,Jalan Pahlawan Revolusi,13430,-6.2332796,106.8971964
14b,Jalan Rama Wijaya,13850,-6.3460967,106.8977845
7,Jalan Rama Wijaya,13850,-6.3460361,106.8976910
8,Jalan Rama Wijaya,13850,-6.3461191,106.8976526
9,Jalan Rama Wijaya,13850,-6.3461420,106.8975466
9,Gg Kav. Mandiri,13860,-6.3531685,106.9138302
Km 5,Jalan Raya Bogor,13670,-6.3046362,106.8645039
D80,Jalan Haji Jamin,13720,-6.3567665,106.8832122
52,Jalan Jaha,13790,-6.3337555,106.8569606
26,Jalan Al Ikhlas,13890,-6.3121683,106.8961350
40,Jalan Pondok Gede,13810,-6.2896263,106.8965893
No.1A,Jl. Raya Pemuda,13210,-6.1926993,106.9026918
8,Jalan Cipinang Muara II,13420,-6.2230276,106.8985546
41,GG Firman,13740,-6.3179848,106.8776382
41A-C,GG Firman,13740,-6.3178876,106.8776730
43A-D,GG Firman,13740,-6.3178835,106.8775643
43,Gang Firman,13740,-6.3178941,106.8773501
62,Jalan Radin Inten II,13440,-6.2340462,106.9227624
E2,Komplek Ruko Medikal,13450,-6.2378168,106.9353261
23,Jalan Bakung,13730,-6.3390281,106.8795940
45A,Jalan Rukun II,13720,-6.3476391,106.8707140
32,Jalan Mutiara Asgo,13830,-6.3050771,106.8751922
33,Jalan Mutiara Asgo,13830,-6.3051993,106.8753109
31,Jalan Mutiara Asgo,13830,-6.3051839,106.8751793
30,Jalan Mutiara Asgo,13830,-6.3052746,106.8751746
34,Jalan Mutiara Asgo,13830,-6.3052906,106.8753067
25,Jalan Mutiara Asgo,13830,-6.3054869,106.8754981
26,Jalan Mutiara Asgo,13830,-6.3054802,106.8754101
19,Jalan Mutiara Asgo,13830,-6.3056307,106.8749138
6,Jalan Malaka Raya,13460,-6.2271916,106.9288549
27,Jalan Mutiara Asgo,13830,-6.3054798,106.8753085
28,Jalan Mutiara Asgo,13830,-6.3054812,106.8752200
29,Jalan Mutiara Asgo,13830,-6.3054885,106.8751251
18,Jalan Mutiara Asgo,13830,-6.3055250,106.8749299
17,Jalan Mutiara Asgo,13830,-6.3054160,106.8749488
9,Jalan Mutiara Asgo,13830,-6.3053762,106.8747866
8,Jalan Mutiara Asgo,13830,-6.3054805,106.8747507
7,Jalan Mutiara Asgo,13830,-6.3055771,106.8747191
154,Jalan Haji Darip,13410,-6.2152187,106.8796572
18,Jalan Pusdiklat Depnaker,13570,-6.2853854,106.8794935
No. 17 RT.9 RW.9,Gang Pos 9/9,13650,-6.2591260,106.8774595
08,Jalan Saluran Kali Malang,13420,-6.2391359,106.8935005
7,Jalan Jati Waringin,13620,-6.2510754,106.9087550
"No. (90, 90A, 90B)",Gang Bantar Jati 1st,13880,-6.3063720,106.9203404
66,Jalan Pemuda,13220,-6.1934534,106.8818078
18,Jalan Pondok Gede,13560,-6.2912114,106.8864602
15,Jalan Penganten Ali,13740,-6.3201356,106.8822728
9,J. Perternakan Inpres,13540,-6.2904276,106.8701505
10,Jalan Raya Inpres,13540,-6.2904470,106.8700613
27,Gang Salam 6,13770,-6.3203293,106.8583980
43,Jalan Kamboja II,13650,-6.2639568,106.8796214
33,Jalan Pulo Mas Utara,13210,-6.1743303,106.8870940
45,GG Firman,13740,-6.3178127,106.8776997
14,Jalan Tanjung Lengkong RT.13 RW.07,13330,-6.2392777,106.8639694
14c,Jalan Rama Wijaya,13850,-6.3461177,106.8978277
6,Jalan Rama Wijaya,13850,-6.3459383,106.8976483
5,Jalan Rama Wijaya,13850,-6.3458828,106.8977243
84,Jalan KH. Maisin,13470,-6.2195436,106.9045775
5,Jalan Pondok Gede,13560,-6.2901367,106.8828026
7A,Jalan Pondok Gede,13560,-6.2901784,106.8829650
5A,Jalan Pondok Gede,13560,-6.2902551,106.8826897
5B,Jalan Pondok Gede,13560,-6.2902696,106.8827230
55,Jalan Pondok Gede,13560,-6.2906508,106.8826525
8-9A,Jalan Pondok Gede,13560,-6.2908260,106.8830339
70,Jalan Manunggal XVII,13810,-6.2970070,106.8943159
1,Jalan Rawa Binong,13810,-6.2995790,106.9090936
6,Jalan Rama Raya,13890,-6.3010249,106.9079712
5,Jalan Swadaya Rawa Binong,13890,-6.3045329,106.9112807
19,Jalan Pagelarang,13880,-6.3067807,106.9162027
55,Jalan Setu,13880,-6.3081407,106.9150611
173,Jalan Raya Pagelarang,13880,-6.3053168,106.9213036
10,Jalan Pondok Gede,13560,-6.2904012,106.8833731
5,Jalan Pinang Ranti II,13560,-6.2864391,106.8833705
40,Jalan Komodor Halim Perdana Kusuma,13560,-6.2659161,106.8793725
24,Jalan Cililitan Besar,13570,-6.2651196,106.8751604
9,Jalan Jengki,13650,-6.2555681,106.8791593
16B,Jalan Cilangkap Raya,13870,-6.3386773,106.9004110
2,Jalan Pemuda,13220,-6.1938345,106.8889863
25,Jalan Letnan Jenderal MT Haryono,13630,-6.2438546,106.8644550
13,Jalan Pramuka,13120,-6.1933516,106.8640570
69-71,Jalan Otto Iskandar Dinata,13330,-6.2311809,106.8676847
1,Jalan Mayor Jenderal Sutoyo,13640,-6.2601128,106.8677925
14,Jalan Raya Bogor,13710,-6.3530347,106.8624673
21,Jalan Bekasi Raya,13920,-6.1829455,106.9146841
15,Jalan Kolonel Soegiono,13440,-6.2289272,106.9125095
42,Jalan Laksamana Malahayati,13450,-6.2491014,106.9412821
114,Jalan Jenderal Ahmad Yani,13120,-6.1961728,106.8737161
31,Jalan Raya Cipayung,13840,-6.3322361,106.8887359
47,Jalan Pagelarang,13880,-6.3059402,106.9167028
39,Jalan Pondok Gede,13560,-6.2906362,106.8844977
46-50,Jalan Matraman,13150,-6.2026093,106.8561736
84,Jalan Matraman,13150,-6.2050449,106.8574335
54,Jalan Haji Naman,13450,-6.2374135,106.9409246
RT.1/RW.5,Jl. Rs Polri Sukanto,13510,-6.2694619,106.8707144
