House number,Street name,Postal code,Latitude,Longitude
54,M. Kostava street,2100,42.5063635,41.8689988
8,რუსთაველის ქუჩა,2100,42.5026139,41.8841116
67,Rustaveli St.,2100,42.5052150,41.8765954
45,ზვიად გამსახურდიას გამზირი,2100,42.5039064,41.8678792
118,სოხუმის ქუჩა (Sukhumi Str.),2100,42.5258786,41.8640597
36,სპირიდონ კედიას ქუჩა,2100,42.5071971,41.8659364
25,მარცხენა სანაპიროს ქუჩა,2100,42.5102692,41.8696447
593107833,"ул. Борис Паичадзе, ბორის პაიჭაძის ქუჩა, Boris Paichadze str.",2100,42.5163133,41.8659032
102,რუსთაველის ქუჩა,2100,42.5090297,41.8667001
13,Ferdinandi Str.,2100,42.5102558,41.8656538
13,შ. დარასელიას ქუჩა,2100,42.4899446,41.8721479
2,თეატრის ქუჩა,2100,42.5076955,41.8744310
26,ჯანო რაფავას ქუჩა,2100,42.5056308,41.8595507
32,ჯანო რაფავას ქუჩა,2100,42.5053657,41.8598576
34,ჯანო რაფავას ქუჩა,2100,42.5052975,41.8599594
5,დუტუ მეგრელის ჩიხი (Dutu Megreli Dr),2100,42.5106812,41.8653340
3,დუტუ მეგრელის ჩიხი (Dutu Megreli Dr),2100,42.5108422,41.8654387
67,რუსთაველის ქუჩა (Rustaveli Str.),2100,42.5052418,41.8766648
85,აღმაშენებლის,2100,42.4982498,41.8628125
41,რუსთაველის ქუჩა,2100,42.5046753,41.8791978
186,შოთა რუსთაველის ქუჩა,2100,42.5077002,41.8584024
2,თეატრის ქუჩა,2100,42.5077716,41.8743375
32,ცაიშვილის ქუჩა,2100,42.5145285,41.8877103
186,შოთა რუსთაველის ქუჩა,2100,42.5076678,41.8586050
27,ფოთის ქუჩა,2100,42.5074836,41.8619463
13,ფოთის ქუჩა,2100,42.5077664,41.8611427
11,ფოთის ქუჩა,2100,42.5078211,41.8610394
9,ფოთის ქუჩა,2100,42.5078646,41.8608907
15,ფოთის ქუჩა,2100,42.5079593,41.8607303
3,ფოთის ქუჩა,2100,42.5082457,41.8601654
6,ბაქოს ქუჩა,2100,42.5079446,41.8598293
8,ბაქოს ქუჩა,2100,42.5078668,41.8599461
10,ბაქოს ქუჩა,2100,42.5077060,41.8602175
12,ბაქოს ქუჩა,2100,42.5076487,41.8603556
14,ბაქოს ქუჩა,2100,42.5075949,41.8605230
16,ბაქოს ქუჩა,2100,42.5074877,41.8606234
18,ბაქოს ქუჩა,2100,42.5073979,41.8607465
20,ბაქოს ქუჩა,2100,42.5073454,41.8608659
22,ბაქოს ქუჩა,2100,42.5072554,41.8609768
24,ბაქოს ქუჩა,2100,42.5071827,41.8611095
26,ბაქოს ქუჩა,2100,42.5071252,41.8612615
28,ბაქოს ქუჩა,2100,42.5070332,41.8613778
30,ბაქოს ქუჩა,2100,42.5070521,41.8615767
32,ბაქოს ქუჩა,2100,42.5068839,41.8616064
34,ბაქოს ქუჩა,2100,42.5068317,41.8617532
36,ბაქოს ქუჩა,2100,42.5067523,41.8618498
38,ბაქოს ქუჩა,2100,42.5066770,41.8619561
40,ბაქოს ქუჩა,2100,42.5066307,41.8620741
42,ბაქოს ქუჩა,2100,42.5065783,41.8622279
44,ბაქოს ქუჩა,2100,42.5064635,41.8623650
46,ბაქოს ქუჩა,2100,42.5064151,41.8625135
48,ბაქოს ქუჩა,2100,42.5063086,41.8626172
4,ფოთის ქუჩა,2100,42.5084556,41.8607907
2,ფოთის ქუჩა,2100,42.5085357,41.8606139
22,ფოთის ქუჩა,2100,42.5078362,41.8623964
26,ფოთის ქუჩა,2100,42.5077936,41.8625809
7,ჯანო რაფავას ქუჩა,2100,42.5065376,41.8572074
5,ჯანო რაფავას ქუჩა,2100,42.5066092,41.8571037
3,ჯანო რაფავას ქუჩა,2100,42.5066840,41.8569121
9,ჯანო რაფავას ქუჩა,2100,42.5059528,41.8581214
9,ჯანო რაფავას ქუჩა,2100,42.5058210,41.8582653
11,ჯანო რაფავას ქუჩა,2100,42.5056876,41.8584483
13,ჯანო რაფავას ქუჩა,2100,42.5056321,41.8585599
1,საირმის ქუჩა,2100,42.5055217,41.8582774
3,საირმის ქუჩა,2100,42.5054252,41.8580659
5,საირმის ქუჩა,2100,42.5053139,41.8578670
7,საირმის ქუჩა,2100,42.5051933,41.8577002
9,საირმის ქუჩა,2100,42.5051963,41.8575191
11,საირმის ქუჩა,2100,42.5050288,41.8575086
17,საირმის ქუჩა,2100,42.5048321,41.8569713
15,საირმის ქუჩა,2100,42.5049085,41.8570894
19,საირმის ქუჩა,2100,42.5046964,41.8568712
21,საირმის ქუჩა,2100,42.5045800,41.8568051
23,საირმის ქუჩა,2100,42.5044739,41.8567082
25,საირმის ქუჩა,2100,42.5043871,41.8566338
27,საირმის ქუჩა,2100,42.5043074,41.8565571
29,საირმის ქუჩა,2100,42.5042250,41.8564697
31,საირმის ქუჩა,2100,42.5041418,41.8563584
33,საირმის ქუჩა,2100,42.5040736,41.8562710
35,საირმის ქუჩა,2100,42.5040168,41.8561629
37,საირმის ქუჩა,2100,42.5038399,41.8561128
10,ზვიად გამსახურდიას I შესახვევი,2100,42.5039484,41.8560362
8,ზვიად გამსახურდიას I შესახვევი,2100,42.5040951,41.8558977
6,ზვიად გამსახურდიას I შესახვევი,2100,42.5041946,41.8558199
4,ზვიად გამსახურდიას I შესახვევი,2100,42.5042672,41.8557368
2ა,ზვიად გამსახურდიას I შესახვევი,2100,42.5043486,41.8556532
2ბ,ზვიად გამსახურდიას I შესახვევი,2100,42.5044484,41.8555269
1,ზვიად გამსახურდიას I შესახვევი,2100,42.5039688,41.8551991
3,ზვიად გამსახურდიას I შესახვევი,2100,42.5038556,41.8552950
5,ზვიად გამსახურდიას I შესახვევი,2100,42.5037918,41.8554115
7,ზვიად გამსახურდიას I შესახვევი,2100,42.5036688,41.8554680
9,ზვიად გამსახურდიას I შესახვევი,2100,42.5036252,41.8556153
11,ზვიად გამსახურდიას I შესახვევი,2100,42.5035198,41.8558219
39,საირმის ქუჩა,2100,42.5033861,41.8554108
41,საირმის ქუჩა,2100,42.5032352,41.8552864
13,ზვიად გამსახურდიას I შესახვევი,2100,42.5027867,41.8565722
28,საირმის ქუჩა,2100,42.5036783,41.8564456
18,საირმის ქუჩა,2100,42.5041743,41.8571124
2,საირმის ქუჩა,2100,42.5054001,41.8586257
4,საირმის ქუჩა,2100,42.5052502,41.8585013
6,საირმის ქუჩა,2100,42.5051712,41.8583935
8,საირმის ქუჩა,2100,42.5050744,41.8582275
10,საირმის ქუჩა,2100,42.5049650,41.8581047
12,საირმის ქუჩა,2100,42.5049142,41.8579848
14,საირმის ქუჩა,2100,42.5048101,41.8578294
16,საირმის ქუჩა,2100,42.5047141,41.8576520
31,ჯანო რაფავას ქუჩა,2100,42.5048964,41.8598360
29,ჯანო რაფავას ქუჩა,2100,42.5049718,41.8597463
27,ჯანო რაფავას ქუჩა,2100,42.5049284,41.8595026
25,ჯანო რაფავას ქუჩა,2100,42.5050485,41.8594428
23,ჯანო რაფავას ქუჩა,2100,42.5051354,41.8593634
21,ჯანო რაფავას ქუჩა,2100,42.5052260,41.8591864
19,ჯანო რაფავას ქუჩა,2100,42.5052970,41.8589700
17,ჯანო რაფავას ქუჩა,2100,42.5054542,41.8589307
15,ჯანო რაფავას ქუჩა,2100,42.5055140,41.8587565
33,ჯანო რაფავას ქუჩა,2100,42.5044852,41.8603655
39,ჯანო რაფავას ქუჩა,2100,42.5035896,41.8614271
37,ჯანო რაფავას ქუჩა,2100,42.5036414,41.8612404
35,ჯანო რაფავას ქუჩა,2100,42.5038287,41.8611621
12,ჯანო რაფავას ქუჩა,2100,42.5067750,41.8577265
10,ჯანო რაფავას ქუჩა,2100,42.5068411,41.8575718
8,ჯანო რაფავას ქუჩა,2100,42.5069003,41.8574309
6,ჯანო რაფავას ქუჩა,2100,42.5069512,41.8572367
4,ჯანო რაფავას ქუჩა,2100,42.5070070,41.8570842
2,ჯანო რაფავას ქუჩა,2100,42.5070969,41.8569647
38,ჯანო რაფავას ქუჩა,2100,42.5040492,41.8616188
47,ბაქოს ქუჩა,2100,42.5058372,41.8624409
45,ბაქოს ქუჩა,2100,42.5058880,41.8623075
43,ბაქოს ქუჩა,2100,42.5059515,41.8622421
41,ბაქოს ქუჩა,2100,42.5060081,41.8621352
39,ბაქოს ქუჩა,2100,42.5060495,41.8619945
37,ბაქოს ქუჩა,2100,42.5061704,41.8618312
35,ბაქოს ქუჩა,2100,42.5062385,41.8616536
33,ბაქოს ქუჩა,2100,42.5063265,41.8615451
31,ბაქოს ქუჩა,2100,42.5063971,41.8614198
29,ბაქოს ქუჩა,2100,42.5064668,41.8612836
27,ბაქოს ქუჩა,2100,42.5065417,41.8611174
23,ბაქოს ქუჩა,2100,42.5067961,41.8607989
21,ბაქოს ქუჩა,2100,42.5068805,41.8606956
19,ბაქოს ქუჩა,2100,42.5069521,41.8605771
17,ბაქოს ქუჩა,2100,42.5070142,41.8604572
15,ბაქოს ქუჩა,2100,42.5070905,41.8603486
13,ბაქოს ქუჩა,2100,42.5071781,41.8602322
14,ჯანო რაფავას ქუჩა,2100,42.5064838,41.8581210
16,ჯანო რაფავას ქუჩა,2100,42.5063653,41.8583218
18,ჯანო რაფავას ქუჩა,2100,42.5061870,41.8586435
20,ჯანო რაფავას ქუჩა,2100,42.5061200,41.8587158
11,ბაქოს ქუჩა,2100,42.5073261,41.8599343
9,ბაქოს ქუჩა,2100,42.5073505,41.8597322
7,ბაქოს ქუჩა,2100,42.5072694,41.8595175
5,ბაქოს ქუჩა,2100,42.5074940,41.8596259
3,ბაქოს ქუჩა,2100,42.5076167,41.8594985
1,ბაქოს ქუჩა,2100,42.5077944,41.8593004
20,საირმის ქუჩა,2100,42.5041290,41.8569765
41,ჯანო რაფავას ქუჩა,2100,42.5035245,41.8616285
2,ბაქოს ქუჩა,2100,42.5081610,41.8595845
