House number,Street name,Postal code,Latitude,Longitude
6,Bulevardul Dacia,331130,45.7571005,22.9068027
10,Bulevardul Dacia,331013,45.7577238,22.9090589
7,Strada Ion Creangă,331008,45.7560493,22.9067868
2,Aleea Cocsarilor,331006,45.7554550,22.9051759
2,Aleea Cocsarilor,331006,45.7554254,22.9054028
1A,Strada Ștefan cel Mare,331071,45.7492021,22.9007880
1,Strada Ion Luca Caragiale,331017,45.7539348,22.9106590
1 Bis,Strada Ion Luca Caragiale,331016,45.7539876,22.9107194
1,Strada Carol Davila,331074,45.7512786,22.9157278
6,Bulevardul Dacia,331130,45.7571814,22.9059973
11,Bulevardul Dacia,331013,45.7590590,22.9081851
11,Bulevardul Dacia,331013,45.7592517,22.9082441
23,Bulevardul Dacia,331099,45.7626566,22.9094063
11,Bulevardul Ion Corvin,331056,45.7581739,22.9050070
2,Strada Gheorghe Lazăr,331017,45.7535700,22.9113417
20,Strada Avram Iancu,331039,45.7593739,22.9148876
24,Strada Timotei Cipariu,331122,45.7490361,22.8987543
21,Strada Timotei Ciparu,331122,45.7492368,22.8985581
19A,Strada Timotei Ciparu,331122,45.7492699,22.8983656
19,Strada Timotei Ciparu,331122,45.7492850,22.8981832
17,Strada Timotei Ciparu,331122,45.7493026,22.8979278
15,Strada Timotei Ciparu,331122,45.7493710,22.8977175
13A,Strada Timotei Ciparu,331122,45.7493807,22.8975833
13,Strada Timotei Ciparu,331122,45.7493761,22.8974216
11,Strada Timotei Ciparu,331122,45.7493741,22.8973192
9,Strada Timotei Ciparu,331122,45.7493757,22.8971442
5,Strada Timotei Ciparu,331122,45.7494056,22.8967476
3,Strada Timotei Ciparu,331122,45.7494177,22.8966210
1,Strada Timotei Ciparu,331122,45.7494308,22.8965115
115,Strada Chizid,331079,45.7468441,22.9069288
98,Strada Chizid,331079,45.7464453,22.9065043
113,Strada Chizid,331079,45.7468020,22.9067865
111,Strada Chizid,331079,45.7467457,22.9066343
109,Strada Chizid,331079,45.7466814,22.9064532
107,Strada Chizid,331079,45.7466296,22.9063036
105,Strada Chizid,331079,45.7465458,22.9061502
103,Strada Chizid,331079,45.7465095,22.9060256
93,Strada Chizid,331079,45.7470991,22.9062907
91,Strada Chizid,331079,45.7471522,22.9061471
89,Strada Chizid,331079,45.7470895,22.9060189
87,Strada Chizid,331079,45.7470294,22.9058417
85,Strada Chizid,331079,45.7470359,22.9055943
97,Strada Chizid,331079,45.7468155,22.9056334
99,Strada Chizid,331079,45.7466912,22.9057395
101,Strada Chizid,331079,45.7464592,22.9058752
96,Strada Chizid,331079,45.7463616,22.9062212
94,Strada Chizid,331079,45.7463071,22.9060739
92,Strada Chizid,331079,45.7462522,22.9059521
90,Strada Chizid,331079,45.7461842,22.9058068
88,Strada Chizid,331079,45.7461391,22.9056265
81,Strada Chizid,331079,45.7463027,22.9053634
79,Strada Chizid,331079,45.7462795,22.9052254
77,Strada Chizid,331079,45.7461993,22.9049178
75,Strada Chizid,331079,45.7461861,22.9047725
73,Strada Chizid,331079,45.7461397,22.9045621
86,Strada Chizid,331079,45.7460642,22.9054240
84,Strada Chizid,331079,45.7460250,22.9052268
82,Strada Chizid,331079,45.7459866,22.9050327
80,Strada Chizid,331079,45.7459460,22.9048746
78,Strada Chizid,331079,45.7459105,22.9046920
76,Strada Chizid,331079,45.7458771,22.9045307
74,Strada Chizid,331079,45.7458335,22.9043503
71,Strada Chizid,331079,45.7461411,22.9043934
69,Strada Chizid,331079,45.7460939,22.9041940
67,Strada Chizid,331079,45.7460480,22.9040234
65,Strada Chizid,331079,45.7460177,22.9038359
72,Strada Chizid,331079,45.7457983,22.9041637
70,Strada Chizid,331079,45.7457621,22.9039833
68,Strada Chizid,331079,45.7457333,22.9038351
66,Strada Chizid,331079,45.7456908,22.9036354
63,Strada Chizid,331079,45.7459430,22.9037012
61,Strada Chizid,331079,45.7459120,22.9035627
59,Strada Chizid,331079,45.7458803,22.9033997
57,Strada Chizid,331079,45.7458270,22.9031578
55,Strada Chizid,331079,45.7457952,22.9028974
53,Strada Chizid,331079,45.7457764,22.9027420
58A,Strada Chizid,331079,45.7454544,22.9030645
64,Strada Chizid,331079,45.7456655,22.9034982
62,Strada Chizid,331079,45.7456270,22.9032989
60,Strada Chizid,331079,45.7455668,22.9031512
58,Strada Chizid,331079,45.7455338,22.9029651
56,Strada Chizid,331079,45.7454872,22.9027602
51,Strada Chizid,331079,45.7457550,22.9026117
49,Strada Chizid,331079,45.7457089,22.9023759
54,Strada Chizid,331079,45.7454767,22.9025649
52,Strada Chizid,331079,45.7454446,22.9023977
50,Strada Chizid,331079,45.7454067,22.9022320
48,Strada Chizid,331079,45.7453619,22.9020388
46,Strada Chizid,331079,45.7453015,22.9017515
47,Strada Chizid,331079,45.7455235,22.9016318
45,Strada Chizid,331079,45.7454679,22.9013732
43,Strada Chizid,331079,45.7454278,22.9011762
41,Strada Chizid,331079,45.7453966,22.9010055
39,Strada Chizid,331079,45.7453613,22.9008430
37,Strada Chizid,331079,45.7453510,22.9006630
35,Strada Chizid,331079,45.7452832,22.9005002
33,Strada Chizid,331079,45.7452404,22.9003553
31A,Strada Chizid,331079,45.7452473,22.9002801
31,Strada Chizid,331079,45.7452143,22.9001235
27,Strada Chizid,331079,45.7451812,22.8999534
25,Strada Chizid,331079,45.7451434,22.8997584
23,Strada Chizid,331079,45.7451126,22.8995918
21A,Strada Chizid,331079,45.7450739,22.8993427
18,Strada Chizid,331079,45.7447388,22.8991809
21,Strada Chizid,331079,45.7450265,22.8991662
16,Strada Chizid,331079,45.7447160,22.8986339
19,Strada Chizid,331079,45.7448964,22.8986683
14,Strada Chizid,331079,45.7446679,22.8981761
17A,Strada Chizid,331079,45.7448813,22.8982989
17,Strada Chizid,331079,45.7448449,22.8981180
15,Strada Chizid,331079,45.7448208,22.8978481
11,Strada Chizid,331079,45.7448110,22.8977020
12,Strada Chizid,331079,45.7446468,22.8980123
10,Strada Chizid,331079,45.7446374,22.8978553
8,Strada Chizid,331079,45.7445974,22.8972394
6,Strada Chizid,331079,45.7445896,22.8971148
13,Strada Chizid,331079,45.7448103,22.8976197
9,Strada Chizid,331079,45.7448585,22.8974351
7,Strada Chizid,331079,45.7448457,22.8972918
4,Strada Chizid,331079,45.7447657,22.8969039
5,Strada Chizid,331079,45.7449368,22.8971045
1,Strada Chizid,331079,45.7451199,22.8967409
12,Bulevardul Republicii,331028,45.7585332,22.9018199
7,Traian,331110,45.7664094,22.9038178
3A,Strada Ioan Slavici,331119,45.7408092,22.8925231
1,Strada Dimitrie Cantemir,331119,45.7413471,22.8942571
3,Strada Dimitrie Cantemir,331119,45.7413167,22.8938884
5,Strada Dimitrie Cantemir,331119,45.7413002,22.8933489
2,Strada Dimitrie Cantemir,331119,45.7415366,22.8944677
4,Strada Dimitrie Cantemir,331119,45.7415248,22.8943526
6,Strada Dimitrie Cantemir,331119,45.7415236,22.8941089
8,Strada Dimitrie Cantemir,331119,45.7415203,22.8938526
10,Strada Dimitrie Cantemir,331119,45.7415096,22.8936850
12,Strada Dimitrie Cantemir,331119,45.7415007,22.8934796
16,Strada Dimitrie Cantemir,331119,45.7414660,22.8930662
18,Strada Dimitrie Cantemir,331119,45.7414659,22.8928733
20,Strada Dimitrie Cantemir,331119,45.7414472,22.8926385
22,Strada Dimitrie Cantemir,331119,45.7415670,22.8924231
28,Strada Dimitrie Cantemir,331119,45.7415222,22.8919410
1,Strada Ioan Slavici,331119,45.7411340,22.8927013
1A,Strada Ioan Slavici,331119,45.7410752,22.8927444
2,Strada Ioan Slavici,331119,45.7409845,22.8928038
3,Strada Ioan Slavici,331119,45.7408388,22.8928349
4,Strada Ioan Slavici,331119,45.7406226,22.8929526
4A,Strada Ioan Slavici,331119,45.7405362,22.8930016
5A,Strada Ioan Slavici,331119,45.7404224,22.8929875
5,Strada Ioan Slavici,331119,45.7401862,22.8930908
12,Strada Perintei,331116,45.7452532,22.8928449
8,Strada Perintei,331116,45.7452390,22.8925060
10,Strada Perintei,331116,45.7452092,22.8926260
14,Strada Perintei,331116,45.7452587,22.8930079
16,Strada Perintei,331116,45.7451941,22.8931308
20,Strada Perintei,331116,45.7452270,22.8935416
18,Strada Perintei,331116,45.7452288,22.8933531
35,Strada Perintei,331116,45.7453779,22.8933422
33,Strada Perintei,331116,45.7453783,22.8929537
31,Strada Perintei,331116,45.7453805,22.8927346
29,Strada Perintei,331116,45.7453813,22.8926239
27,Strada Perintei,331116,45.7453943,22.8922489
6A,Strada Perintei,331116,45.7452729,22.8921491
6,Strada Perintei,331116,45.7452794,22.8919159
25,Strada Perintei,331116,45.7454394,22.8919382
1,Strada Perintei,331116,45.7457542,22.8934376
3,Strada Perintei,331116,45.7457559,22.8932831
5,Strada Perintei,331116,45.7457589,22.8931530
7,Strada Perintei,331116,45.7457608,22.8930424
9,Strada Perintei,331116,45.7457601,22.8929082
11,Strada Perintei,331116,45.7457623,22.8928116
13,Strada Perintei,331116,45.7457613,22.8926379
15,Strada Perintei,331116,45.7457596,22.8924716
17,Strada Perintei,331116,45.7457561,22.8922457
19,Strada Perintei,331116,45.7457096,22.8921360
21,Strada Perintei,331116,45.7456505,22.8919915
23,Strada Perintei,331116,45.7457088,22.8918585
2,Strada Perintei,331116,45.7458348,22.8919823
2B,Strada Perintei,331116,45.7458303,22.8917980
2A,Strada Perintei,331116,45.7458448,22.8934626
2,Strada Morii,331116,45.7460688,22.8930106
3,Strada Morii,331116,45.7460767,22.8928867
4,Strada Morii,331116,45.7460776,22.8928077
5,Strada Morii,331116,45.7460435,22.8926898
6,Strada Morii,331116,45.7460525,22.8925038
7,Strada Morii,331116,45.7460506,22.8923860
8,Strada Morii,331116,45.7460353,22.8921512
9,Strada Morii,331116,45.7460300,22.8919406
16,Strada Morii,331116,45.7461427,22.8935492
15,Strada Morii,331116,45.7461631,22.8933524
14,Strada Morii,331116,45.7461695,22.8932163
13,Strada Morii,331116,45.7461824,22.8930817
3BIS,Strada Morii,331116,45.7461932,22.8928983
12,Strada Morii,331116,45.7461598,22.8924409
11,Strada Morii,331116,45.7462205,22.8922630
8,Aleea Retezat,331081,45.7460005,22.9012341
6,Aleea Retezat,331081,45.7459950,22.9010658
4,Aleea Retezat,331081,45.7459721,22.9008994
2,Aleea Retezat,331081,45.7459637,22.9006658
2B,Aleea Retezat,331081,45.7459740,22.9005139
28,Strada Simion Bărnuțiu,331082,45.7465628,22.9010205
7,Aleea Retezat,331081,45.7462128,22.9012005
5,Aleea Retezat,331081,45.7462123,22.9009961
3,Aleea Retezat,331081,45.7462049,22.9008155
1,Aleea Retezat,331081,45.7461864,22.9006674
37A,Aleea Obor,331082,45.7465460,22.9002178
20,Strada Simion Bărnuțiu,331082,45.7465946,22.9003981
22,Strada Simion Bărnuțiu,331082,45.7466017,22.9005532
24,Strada Simion Bărnuțiu,331082,45.7466061,22.9006836
26,Strada Simion Bărnuțiu,331082,45.7466093,22.9008500
35,Strada Simion Bărnuțiu,331082,45.7467331,22.9010306
39,Strada Simion Bărnuțiu,331082,45.7468292,22.9010266
33,Strada Simion Bărnuțiu,331082,45.7467284,22.9008332
31,Strada Simion Bărnuțiu,331082,45.7467222,22.9007084
29,Strada Simion Bărnuțiu,331082,45.7467180,22.9005068
27,Strada Simion Bărnuțiu,331082,45.7467105,22.9003840
35,Aleea Obor,331082,45.7467347,22.9002416
2,Strada Constructorului,331082,45.7471497,22.9005849
4,Strada Constructorului,331082,45.7471340,22.9008139
6,Strada Constructorului,331082,45.7471404,22.9009257
8,Strada Constructorului,331082,45.7471465,22.9012239
7,Strada Constructorului,331082,45.7473656,22.9011795
5,Strada Constructorului,331082,45.7473614,22.9009812
3,Strada Constructorului,331082,45.7473561,22.9008238
1,Strada Constructorului,331082,45.7473555,22.9006220
27A,Aleea Obor,331082,45.7474162,22.9004567
25,Aleea Obor,331082,45.7475321,22.9002054
21,Aleea Obor,331082,45.7476638,22.9002543
19,Aleea Obor,331082,45.7477444,22.9001936
2A,Aleea Drum Nou,331082,45.7479285,22.9002100
2B,Aleea Drum Nou,331082,45.7479278,22.9004084
2,Aleea Drum Nou,331082,45.7478511,22.9005612
4,Aleea Drum Nou,331082,45.7478980,22.9007157
6,Aleea Drum Nou,331082,45.7478654,22.9009518
8,Aleea Drum Nou,331082,45.7478717,22.9011288
7,Aleea Drum Nou,331082,45.7480972,22.9011069
5,Aleea Drum Nou,331082,45.7480930,22.9009617
3,Aleea Drum Nou,331082,45.7480945,22.9007613
1,Aleea Drum Nou,331082,45.7480726,22.9006097
15,Aleea Obor,331082,45.7480607,22.9003381
13,Aleea Obor,331082,45.7481935,22.9001681
11,Aleea Obor,331082,45.7483283,22.9003483
9,Aleea Obor,331082,45.7484394,22.9003194
7,Aleea Obor,331082,45.7485423,22.9002799
3,Aleea Obor,331082,45.7487473,22.9002085
5,Aleea Obor,331082,45.7486454,22.9001115
14,Aleea Obor,331082,45.7483314,22.8998646
12,Aleea Obor,331082,45.7484578,22.8998607
10,Aleea Obor,331082,45.7485654,22.8998564
16,Aleea Obor,331082,45.7481895,22.8998616
18,Aleea Obor,331082,45.7480661,22.8998582
18BIS,Aleea Obor,331082,45.7479264,22.8998508
20,Aleea Obor,331082,45.7477809,22.8998434
22,Aleea Obor,331082,45.7476752,22.8998389
24,Aleea Obor,331082,45.7475335,22.8998732
26,Aleea Obor,331082,45.7474423,22.8998680
28,Aleea Obor,331082,45.7472890,22.8999219
30,Aleea Obor,331082,45.7471675,22.8999324
32,Aleea Obor,331082,45.7470267,22.8999301
34,Aleea Obor,331082,45.7469065,22.8999182
36,Aleea Obor,331082,45.7467906,22.8999130
27,Aleea Obor,331082,45.7473528,22.9002131
29,Aleea Obor,331082,45.7471279,22.9002616
31,Aleea Obor,331082,45.7470356,22.9002625
33,Aleea Obor,331082,45.7469149,22.9002790
37,Aleea Obor,331082,45.7463595,22.9002965
39,Aleea Obor,331082,45.7462854,22.9002631
41,Aleea Obor,331082,45.7461621,22.9002698
43,Aleea Obor,331082,45.7459699,22.9002647
45,Aleea Obor,331082,45.7458594,22.9002815
38,Aleea Obor,331082,45.7464917,22.8999815
46A,Aleea Obor,331082,45.7462650,22.8999457
46,Aleea Obor,331082,45.7461006,22.8999945
48,Aleea Obor,331082,45.7458408,22.8999171
50,Aleea Obor,331082,45.7456072,22.9000527
47,Aleea Obor,331082,45.7456108,22.9002498
2,Strada Doctor Victor Babeș,331074,45.7465899,22.9070715
74,Strada Sarmisegetuza,331079,45.7458432,22.9066574
72,Strada Sarmisegetuza,331079,45.7458134,22.9065129
70,Strada Sarmisegetuza,331079,45.7457806,22.9063584
68,Strada Sarmisegetuza,331079,45.7457194,22.9061269
66,Strada Sarmisegetuza,331079,45.7455551,22.9059013
49,Strada Sarmisegetuza,331080,45.7459320,22.9062078
47A,Strada Sarmisegetuza,331080,45.7458866,22.9060458
47,Strada Sarmisegetuza,331080,45.7458402,22.9058571
45,Strada Sarmisegetuza,331080,45.7457978,22.9056205
64,Strada Sarmisegetuza,331079,45.7456265,22.9056070
62,Strada Sarmisegetuza,331079,45.7454955,22.9052104
43,Strada Sarmisegetuza,331080,45.7456561,22.9051701
43A,Strada Sarmisegetuza,331080,45.7455531,22.9047453
41,Strada Sarmisegetuza,331080,45.7454621,22.9044630
56,Strada Sarmisegetuza,331079,45.7453261,22.9047116
54,Strada Sarmisegetuza,331079,45.7452780,22.9045516
52,Strada Sarmisegetuza,331079,45.7452420,22.9043737
50,Strada Sarmisegetuza,331079,45.7452178,22.9042318
48,Strada Sarmisegetuza,331079,45.7451616,22.9040127
46,Strada Sarmisegetuza,331079,45.7451045,22.9037596
44,Strada Sarmisegetuza,331079,45.7450775,22.9036271
40,Strada Sarmisegetuza,331079,45.7449932,22.9032748
39,Strada Sarmisegetuza,331080,45.7452909,22.9038172
37,Strada Sarmisegetuza,331080,45.7452548,22.9036164
35,Strada Sarmisegetuza,331080,45.7452082,22.9034951
33,Strada Sarmisegetuza,331080,45.7451922,22.9033050
31,Strada Sarmisegetuza,331080,45.7451473,22.9028646
38,Strada Sarmisegetuza,331079,45.7449126,22.9029836
36,Strada Sarmisegetuza,331079,45.7448794,22.9028319
34,Strada Sarmisegetuza,331079,45.7448397,22.9026777
32,Strada Sarmisegetuza,331079,45.7448008,22.9025194
30,Strada Sarmisegetuza,331079,45.7447625,22.9023471
29,Strada Sarmisegetuza,331080,45.7449885,22.9025637
28,Strada Sarmisegetuza,331079,45.7446447,22.9019218
26,Strada Sarmisegetuza,331079,45.7446042,22.9016925
24,Strada Sarmisegetuza,331079,45.7445889,22.9015785
22A,Strada Sarmisegetuza,331079,45.7445524,22.9014612
22,Strada Sarmisegetuza,331079,45.7445149,22.9013449
18,Strada Sarmisegetuza,331079,45.7444456,22.9010695
16,Strada Sarmisegetuza,331079,45.7444118,22.9008967
14,Strada Sarmisegetuza,331079,45.7443654,22.9007240
12,Strada Sarmisegetuza,331079,45.7443182,22.9005048
10,Strada Sarmisegetuza,331079,45.7442855,22.9003744
8,Strada Sarmisegetuza,331079,45.7442495,22.9002227
6A,Strada Sarmisegetuza,331079,45.7441845,22.9000163
6,Strada Sarmisegetuza,331079,45.7441354,22.8998498
4,Strada Sarmisegetuza,331079,45.7440942,22.8996937
2,Strada Sarmisegetuza,331079,45.7440709,22.8995318
35,Strada Timotei Ciparu,331122,45.7491508,22.8997846
33,Strada Timotei Ciparu,331122,45.7491694,22.8995906
31,Strada Timotei Ciparu,331122,45.7491877,22.8994117
29,Strada Timotei Ciparu,331122,45.7492128,22.8992147
13,Strada Tomis,331080,45.7446924,22.9030634
11,Strada Tomis,331080,45.7445758,22.9025993
30,Strada Tomis,331080,45.7442612,22.9020959
28,Strada Tomis,331080,45.7442258,22.9019235
26,Strada Tomis,331080,45.7441852,22.9017884
24A,Strada Tomis,331080,45.7441411,22.9016526
24,Strada Tomis,331080,45.7440862,22.9014342
9,Strada Tomis,331080,45.7444033,22.9019004
7,Strada Tomis,331080,45.7443766,22.9017235
5,Strada Tomis,331080,45.7442289,22.9012137
22,Strada Tomis,331080,45.7440583,22.9012952
20,Strada Tomis,331080,45.7439612,22.9011294
18,Strada Tomis,331080,45.7438797,22.9009737
16,Strada Tomis,331080,45.7439415,22.9007485
12,Strada Tomis,331080,45.7439045,22.9006027
10,Strada Tomis,331080,45.7438558,22.9004404
8,Strada Tomis,331080,45.7438306,22.9002887
6,Strada Tomis,331080,45.7437919,22.9000571
4,Strada Tomis,331080,45.7437175,22.8998081
2,Strada Tomis,331080,45.7436620,22.8996270
60,Strada Doctor Victor Babeș,331074,45.7458773,22.9126761
62,Strada Doctor Victor Babeș,331074,45.7458899,22.9128575
64,Strada Doctor Victor Babeș,331074,45.7458878,22.9129924
66,Strada Doctor Victor Babeș,331074,45.7458892,22.9131931
68,Strada Doctor Victor Babeș,331074,45.7458905,22.9133380
70,Strada Doctor Victor Babeș,331074,45.7459015,22.9135288
72,Strada Doctor Victor Babeș,331074,45.7458964,22.9137005
74,Strada Doctor Victor Babeș,331074,45.7458982,22.9138859
69B,Strada Doctor Victor Babeș,331074,45.7460197,22.9142367
69A,Strada Doctor Victor Babeș,331074,45.7460846,22.9140909
69,Strada Doctor Victor Babeș,331074,45.7460583,22.9138930
67,Strada Doctor Victor Babeș,331074,45.7460532,22.9136961
65,Strada Doctor Victor Babeș,331074,45.7460536,22.9135267
63,Strada Doctor Victor Babeș,331074,45.7460528,22.9133475
61,Strada Doctor Victor Babeș,331074,45.7460414,22.9131489
59,Strada Doctor Victor Babeș,331074,45.7460431,22.9130169
57,Strada Doctor Victor Babeș,331074,45.7460385,22.9128378
55,Strada Doctor Victor Babeș,331074,45.7460469,22.9126417
53,Strada Doctor Victor Babeș,331074,45.7460225,22.9124051
51,Strada Doctor Victor Babeș,331074,45.7460227,22.9122274
49,Strada Doctor Victor Babeș,331074,45.7460094,22.9120837
47,Strada Doctor Victor Babeș,331074,45.7460173,22.9119040
45,Strada Doctor Victor Babeș,331074,45.7460301,22.9116969
43,Strada Doctor Victor Babeș,331074,45.7460591,22.9115009
41,Strada Doctor Victor Babeș,331074,45.7460909,22.9113011
39,Strada Doctor Victor Babeș,331074,45.7461283,22.9111289
37,Strada Doctor Victor Babeș,331074,45.7461718,22.9109578
35,Strada Doctor Victor Babeș,331074,45.7462203,22.9107669
33,Strada Doctor Victor Babeș,331074,45.7462627,22.9106359
31,Strada Doctor Victor Babeș,331074,45.7463070,22.9103451
29,Strada Doctor Victor Babeș,331074,45.7463551,22.9101516
27,Strada Doctor Victor Babeș,331074,45.7463971,22.9099615
25,Strada Doctor Victor Babeș,331074,45.7464396,22.9098081
23,Strada Doctor Victor Babeș,331074,45.7464752,22.9096527
21,Strada Doctor Victor Babeș,331074,45.7465283,22.9094961
19,Strada Doctor Victor Babeș,331074,45.7465668,22.9092814
17,Strada Doctor Victor Babeș,331074,45.7466023,22.9091219
15,Strada Doctor Victor Babeș,331074,45.7466462,22.9089639
13,Strada Doctor Victor Babeș,331074,45.7466948,22.9087144
58,Strada Doctor Victor Babeș,331074,45.7458718,22.9122264
56,Strada Doctor Victor Babeș,331074,45.7458716,22.9121074
54,Strada Doctor Victor Babeș,331074,45.7458671,22.9119232
52,Strada Doctor Victor Babeș,331074,45.7458926,22.9115878
48,Strada Doctor Victor Babeș,331074,45.7459289,22.9112541
46,Strada Doctor Victor Babeș,331074,45.7460218,22.9109091
44,Strada Doctor Victor Babeș,331074,45.7460644,22.9106662
42,Strada Doctor Victor Babeș,331074,45.7460958,22.9105561
40,Strada Doctor Victor Babeș,331074,45.7461445,22.9103822
38,Strada Doctor Victor Babeș,331074,45.7460637,22.9101350
36,Strada Doctor Victor Babeș,331074,45.7462225,22.9100644
34,Strada Doctor Victor Babeș,331074,45.7462538,22.9098110
32,Strada Doctor Victor Babeș,331074,45.7463037,22.9096788
30,Strada Doctor Victor Babeș,331074,45.7462447,22.9095285
28,Strada Doctor Victor Babeș,331074,45.7462898,22.9093389
26,Strada Doctor Victor Babeș,331074,45.7463175,22.9091310
24,Strada Doctor Victor Babeș,331074,45.7464399,22.9090177
22,Strada Doctor Victor Babeș,331074,45.7464703,22.9088578
20,Strada Doctor Victor Babeș,331074,45.7465033,22.9086833
18,Strada Doctor Victor Babeș,331074,45.7465402,22.9085294
16,Strada Doctor Victor Babeș,331074,45.7465720,22.9083552
14,Strada Doctor Victor Babeș,331074,45.7466098,22.9081766
12,Strada Doctor Victor Babeș,331074,45.7466397,22.9079799
10,Strada Doctor Victor Babeș,331074,45.7466455,22.9078205
8,Strada Doctor Victor Babeș,331074,45.7466406,22.9076154
11,Strada Doctor Victor Babeș,331074,45.7467537,22.9084484
9,Strada Doctor Victor Babeș,331074,45.7467908,22.9082254
7,Strada Doctor Victor Babeș,331074,45.7468058,22.9080691
5,Strada Doctor Victor Babeș,331074,45.7468271,22.9078983
3,Strada Doctor Victor Babeș,331074,45.7468266,22.9076856
1,Strada Doctor Victor Babeș,331074,45.7468205,22.9075235
6,Strada Doctor Victor Babeș,331074,45.7466208,22.9074011
4,Strada Doctor Victor Babeș,331074,45.7465979,22.9072500
54,Strada Tudor Vladimirescu,331079,45.7477061,22.9061894
56,Strada Tudor Vladimirescu,331079,45.7476121,22.9063045
58,Strada Tudor Vladimirescu,331079,45.7475079,22.9063860
60,Strada Tudor Vladimirescu,331079,45.7474257,22.9065062
62,Strada Tudor Vladimirescu,331079,45.7473008,22.9066584
64,Strada Tudor Vladimirescu,331079,45.7472093,22.9067554
66,Strada Tudor Vladimirescu,331079,45.7470990,22.9068713
53A,Strada Tudor Vladimirescu,331079,45.7475837,22.9067303
53,Strada Tudor Vladimirescu,331079,45.7476621,22.9066520
51,Strada Tudor Vladimirescu,331079,45.7478896,22.9063948
50,Strada Tudor Vladimirescu,331079,45.7479302,22.9058325
48,Strada Tudor Vladimirescu,331079,45.7480050,22.9056940
46A,Strada Tudor Vladimirescu,331079,45.7481340,22.9055434
44,Strada Tudor Vladimirescu,331079,45.7481479,22.9053526
42,Strada Tudor Vladimirescu,331079,45.7481406,22.9052036
38,Strada Tudor Vladimirescu,331079,45.7480823,22.9049133
36,Strada Tudor Vladimirescu,331079,45.7480077,22.9047141
34,Strada Tudor Vladimirescu,331079,45.7478500,22.9045509
32,Strada Tudor Vladimirescu,331079,45.7477097,22.9044337
30,Strada Tudor Vladimirescu,331079,45.7475714,22.9043411
28,Strada Tudor Vladimirescu,331079,45.7474700,22.9042530
49,Strada Tudor Vladimirescu,331079,45.7481673,22.9059492
47,Strada Tudor Vladimirescu,331079,45.7482635,22.9057902
45,Strada Tudor Vladimirescu,331079,45.7483214,22.9055741
43,Strada Tudor Vladimirescu,331079,45.7483983,22.9054154
41,Strada Tudor Vladimirescu,331079,45.7484065,22.9051789
39,Strada Tudor Vladimirescu,331079,45.7483991,22.9049397
37,Strada Tudor Vladimirescu,331079,45.7484899,22.9046418
37A,Strada Tudor Vladimirescu,331079,45.7483121,22.9045953
35,Strada Tudor Vladimirescu,331079,45.7481880,22.9044916
33,Strada Tudor Vladimirescu,331079,45.7480933,22.9043815
31,Strada Tudor Vladimirescu,331079,45.7479836,22.9042737
29,Strada Tudor Vladimirescu,331079,45.7478762,22.9042034
27,Strada Tudor Vladimirescu,331079,45.7477534,22.9041086
25,Strada Tudor Vladimirescu,331079,45.7476675,22.9040310
23,Strada Tudor Vladimirescu,331079,45.7475318,22.9039658
21,Strada Tudor Vladimirescu,331079,45.7474146,22.9038951
19,Strada Tudor Vladimirescu,331079,45.7473097,22.9038481
17,Strada Tudor Vladimirescu,331079,45.7471867,22.9037255
15,Strada Tudor Vladimirescu,331079,45.7471109,22.9036266
13,Strada Tudor Vladimirescu,331079,45.7470147,22.9035081
9A,Strada Tudor Vladimirescu,331079,45.7469394,22.9033981
26,Strada Tudor Vladimirescu,331079,45.7473340,22.9041677
24,Strada Tudor Vladimirescu,331079,45.7472556,22.9041131
24A,Strada Tudor Vladimirescu,331079,45.7471885,22.9040824
22,Strada Tudor Vladimirescu,331079,45.7471282,22.9040334
20,Strada Tudor Vladimirescu,331079,45.7470293,22.9039464
18,Strada Tudor Vladimirescu,331079,45.7469308,22.9038239
16,Tudor Vladimirescu,331079,45.7468291,22.9036663
14,Strada Tudor Vladimirescu,331079,45.7467284,22.9035656
12,Strada Tudor Vladimirescu,331079,45.7466630,22.9034080
10,Strada Tudor Vladimirescu,331079,45.7465727,22.9032002
8,Strada Tudor Vladimirescu,331079,45.7465297,22.9030462
6,Strada Tudor Vladimirescu,331079,45.7464787,22.9028676
4,Strada Tudor Vladimirescu,331079,45.7464288,22.9026789
1,Strada Tudor Vladimirescu,331079,45.7466378,22.9027288
11,Strada Tudor Vladimirescu,331079,45.7467980,22.9030325
9,Strada Tudor Vladimirescu,331079,45.7468876,22.9030101
7,Strada Tudor Vladimirescu,331079,45.7471017,22.9028414
3,Strada Tudor Vladimirescu,331079,45.7469053,22.9027173
5,Strada Tudor Vladimirescu,331079,45.7470284,22.9026090
1A,Strada Tudor Vladimirescu,331079,45.7466818,22.9024874
2A,Strada Tudor Vladimirescu,331079,45.7463696,22.9023588
38,Strada Roma,331081,45.7444526,22.9038314
36,Strada Roma,331081,45.7443591,22.9036425
34,Strada Roma,331081,45.7442843,22.9034269
32,Strada Roma,331081,45.7441929,22.9032564
30,Strada Roma,331081,45.7441288,22.9031355
28,Strada Roma,331081,45.7440533,22.9029420
26A,Strada Roma,331081,45.7439677,22.9028171
26,Strada Roma,331081,45.7438846,22.9026887
24,Strada Roma,331081,45.7437300,22.9023891
29,Strada Roma,331081,45.7438501,22.9020202
27,Strada Roma,331081,45.7436598,22.9017689
25,Strada Roma,331081,45.7436354,22.9015256
23,Strada Roma,331081,45.7435803,22.9013365
21,Strada Roma,331081,45.7435142,22.9011077
19,Strada Roma,331081,45.7434769,22.9008914
17,Strada Roma,331081,45.7434656,22.9007535
15,Strada Roma,331081,45.7433609,22.9005420
22,Strada Roma,331081,45.7434953,22.9018130
20A,Strada Roma,331081,45.7434307,22.9016237
20,Strada Roma,331081,45.7433886,22.9014006
18,Strada Roma,331081,45.7433446,22.9011716
16,Strada Roma,331081,45.7432879,22.9009750
14,Strada Roma,331081,45.7432671,22.9007290
12,Strada Roma,331081,45.7432055,22.9004970
10,Strada Roma,331081,45.7431398,22.9002635
8,Strada Roma,331081,45.7430963,22.9001034
6,Strada Roma,331081,45.7430416,22.8999107
4,Strada Roma,331081,45.7429846,22.8996986
13,Strada Roma,331081,45.7433089,22.9002450
11,Strada Roma,331081,45.7432574,22.9000969
9,Strada Roma,331081,45.7432209,22.8999214
7,Strada Roma,331081,45.7431642,22.8997646
5,Strada Roma,331081,45.7431314,22.8996357
3,Strada Roma,331081,45.7430887,22.8994706
2,Strada Roma,331081,45.7428332,22.8992219
1,Strada Roma,331081,45.7430024,22.8991814
7,Strada Ion Creangă,331008,45.7558590,22.9067684
1,Aleea Cocsarilor,331006,45.7557174,22.9052525
1,Aleea Cocsarilor,331006,45.7556879,22.9054809
3,Aleea Cocsarilor,331006,45.7551761,22.9053298
3,Aleea Cocsarilor,331006,45.7552057,22.9051029
4,Aleea Cocsarilor,331006,45.7549191,22.9052423
4,Aleea Cocsarilor,331006,45.7549487,22.9050154
5,Aleea Cocsarilor,331006,45.7546610,22.9051603
5,Aleea Cocsarilor,331006,45.7546906,22.9049334
5,Strada Ion Creangă,331008,45.7556256,22.9067160
5,Strada Ion Creangă,331008,45.7554446,22.9067017
3,Strada Ion Creangă,331008,45.7552050,22.9066542
3,Strada Ion Creangă,331008,45.7550279,22.9066388
1,Strada Ion Creangă,331008,45.7544874,22.9064557
1,Strada Ion Creangă,331008,45.7546396,22.9064857
1,Strada Ion Creangă,331008,45.7547922,22.9065078
12,Bulevardul Libertății,331130,45.7508498,22.8953091
11,Bulevardul Libertății,331130,45.7507253,22.8952407
13,Bulevardul Libertății,331130,45.7509718,22.8953608
14,Bulevardul Libertății,331130,45.7512597,22.8962363
15,Bulevardul Libertății,331130,45.7512345,22.8954835
16,Bulevardul Libertății,331130,45.7515370,22.8956149
2,Strada Ion Luca Caragiale,331017,45.7543449,22.9115807
2,Strada Ion Luca Caragiale,331017,45.7544691,22.9116771
4,Strada Ion Luca Caragiale,331017,45.7547524,22.9118656
8,Strada Ion Luca Caragiale,331017,45.7552088,22.9121022
10,Strada Ion Luca Caragiale,331017,45.7555245,22.9121848
10,Strada Ion Luca Caragiale,331017,45.7556693,22.9122181
7,Strada Ion Luca Caragiale,331017,45.7554095,22.9118900
7,Strada Ion Luca Caragiale,331017,45.7555372,22.9119179
9,Strada Ion Luca Caragiale,331017,45.7559914,22.9119999
9,Strada Ion Luca Caragiale,331017,45.7558579,22.9119725
2,Strada George Topârceanu,331018,45.7560111,22.9124600
5,Strada Ion Luca Caragiale,331017,45.7549831,22.9116760
5,Strada Ion Luca Caragiale,331017,45.7551115,22.9117430
3,Strada Ion Luca Caragiale,331017,45.7547037,22.9114987
3,Strada Ion Luca Caragiale,331017,45.7545810,22.9114077
1,Strada Ion Luca Caragiale,331017,45.7542891,22.9111560
1,Strada Ion Luca Caragiale,331017,45.7541736,22.9110652
10,Strada George Topârceanu,331018,45.7558762,22.9139296
8,Strada George Topârceanu,331018,45.7558697,22.9134317
8,Strada George Topârceanu,331018,45.7557270,22.9134032
4,Strada George Topârceanu,331018,45.7559032,22.9129327
4,Strada George Topârceanu,331018,45.7557772,22.9129125
3 Bis,Strada Gheorghe Lazăr,331060,45.7542236,22.9119898
3 Bis,Strada Gheorghe Lazăr,331060,45.7544081,22.9121164
2,Strada Chizid,331079,45.7449240,22.8966157
10,Strada Ion Creangă,331008,45.7560325,22.9070412
10,Strada Ion Creangă,331008,45.7558440,22.9070280
8,Strada Ion Creangă,331008,45.7556190,22.9069919
8,Strada Ion Creangă,331008,45.7554338,22.9069752
6,Strada Ion Creangă,331008,45.7551921,22.9069571
6,Strada Ion Creangă,331008,45.7550102,22.9069442
4,Strada Ion Creangă,331008,45.7547827,22.9068975
4,Strada Ion Creangă,331008,45.7546167,22.9068760
2,Strada Ion Creangă,331008,45.7544632,22.9069795
2,Strada Ion Creangă,331008,45.7544425,22.9072365
2,Aleea Topitorului,331006,45.7560993,22.9054460
2,Aleea Topitorului,331006,45.7559151,22.9054197
4,Aleea Topitorului,331006,45.7560761,22.9059753
4,Aleea Topitorului,331006,45.7558954,22.9059467
6,Aleea Topitorului,331006,45.7560682,22.9062135
6,Aleea Topitorului,331006,45.7558889,22.9061962
3,Strada George Topârceanu,331018,45.7562764,22.9128353
3,Strada George Topârceanu,331018,45.7561805,22.9129923
5,Strada George Topârceanu,331018,45.7561430,22.9134639
5,Strada George Topârceanu,331018,45.7562038,22.9136532
7,Strada George Topârceanu,331018,45.7560819,22.9140172
3,Strada Rândunicii,331136,45.7693553,22.9136300
6,Strada Independenței,331137,45.7704102,22.9150015
7,Strada Eroilor,331163,45.7703159,22.9157258
3,Strada Eroilor,331138,45.7693149,22.9160854
1,Strada Eroilor,331163,45.7683895,22.9161090
9,Strada Mureșului,331134,45.7678975,22.9148255
4,Strada Independenței,331137,45.7694983,22.9148550
4,Strada Rândunicii,331138,45.7693479,22.9152010
2,Strada Rândunicii,331138,45.7692896,22.9155997
5,Strada Eroilor,331163,45.7685534,22.9157991
1,Strada Independenței,331137,45.7702264,22.9144071
5,Strada Ghioceilor,331136,45.7701385,22.9129148
22,Bulevardul Dacia,331136,45.7704206,22.9125851
1,Strada Mioriței,331137,45.7704620,22.9137623
11,Strada Eroilor,331164,45.7710715,22.9128026
20,Bulevardul Dacia,331136,45.7698702,22.9124001
7,Strada Ghioceilor,331137,45.7704605,22.9131530
5,Strada Rândunicii,331135,45.7689435,22.9122915
6,Strada Ghioceilor,331164,45.7708557,22.9137475
9,Strada Eroilor,331164,45.7708974,22.9142071
2,Strada Mioriței,331164,45.7707022,22.9144041
18,Bulevardul Traian,331110,45.7695054,22.9092014
1,Strada Zambilelor,331101,45.7691707,22.9096137
2,Strada Zambilelor,331101,45.7689510,22.9099372
1,Strada Bucegi,331101,45.7686655,22.9102843
8,Strada Zambilelor,331103,45.7705558,22.9113336
5,Strada Zambilelor,331103,45.7706888,22.9109195
24,Bulevardul Traian,331111,45.7707676,22.9103792
26,Bulevardul Traian,331111,45.7711446,22.9105950
7,Strada Zambilelor,331103,45.7711350,22.9111296
28,Bulevardul Traian,331111,45.7714926,22.9109584
22,Bulevardul Traian,331110,45.7704808,22.9099595
4,Strada Zambilelor,331102,45.7697122,22.9107445
2,Strada Bucegi,331110,45.7688109,22.9087014
4,Strada Bucegi,331109,45.7684656,22.9092543
6,Strada Bucegi,331109,45.7680796,22.9098478
8,Strada Bucegi,331109,45.7676908,22.9104489
29,Bulevardul Dacia,331100,45.7670688,22.9107233
12,Strada Cerbului,331108,45.7671735,22.9102460
10,Strada Cerbului,331108,45.7672450,22.9098174
8,Strada Cerbului,331108,45.7673085,22.9093837
2,Strada Căprioarei,331108,45.7668701,22.9098004
6,Strada Cerbului,331053,45.7671518,22.9089574
4,Strada Cerbului,331053,45.7669959,22.9085367
4,Strada Căprioarei,331108,45.7664528,22.9090553
3,Strada Cerbului,331053,45.7666112,22.9083483
3BIS,Strada Cerbului,331053,45.7661069,22.9082025
1,Strada Căprioarei,331107,45.7663041,22.9100017
3A,Strada Căprioarei,331107,45.7659452,22.9095912
27,Bulevardul Dacia,331100,45.7657006,22.9102328
2,Strada Runcului,331107,45.7655133,22.9093943
1,Strada Runcului,331100,45.7649266,22.9095941
25,Bulevardul Dacia,331100,45.7643149,22.9098677
4,Strada Runcului,331107,45.7650635,22.9086803
2,Strada Cerbului,331053,45.7654150,22.9074180
1A,Strada Cerbului,331053,45.7650634,22.9058282
10,Bulevardul Traian,331052,45.7649612,22.9052676
1,Strada Cerbului,331053,45.7652970,22.9063510
12,Bulevardul Traian,331052,45.7659506,22.9061975
14,Bulevardul Traian,331052,45.7669353,22.9071219
16,Bulevardul Traian,331052,45.7679146,22.9080443
7A,Strada Cerbului,331053,45.7678846,22.9086277
5,Strada Cerbului,331053,45.7672773,22.9081877
5A,Strada Cerbului,331053,45.7669135,22.9076672
3,Strada Cerbului,331053,45.7662865,22.9073010
3A,Strada Cerbului,331053,45.7659174,22.9067643
2,Strada Mureșului,331088,45.7668436,22.9133374
5,Bulevardul Dacia,331037,45.7671407,22.9123485
4,Strada Mureșului,331089,45.7670891,22.9139967
6,Strada Mureșului,331089,45.7670483,22.9145683
8,Strada Mureșului,331162,45.7670038,22.9151124
10,Strada Mureșului,331162,45.7669394,22.9156822
12,Strada Mureșului,331162,45.7661547,22.9159858
1,Strada Jiului,331089,45.7661116,22.9153041
1,Strada Crângului,331088,45.7662185,22.9145239
2,Strada Streiului,331046,45.7656712,22.9153227
2,Strada Crângului,331088,45.7660465,22.9137621
2,Aleea Câmpului,331087,45.7655903,22.9124820
1,Aleea Câmpului,331087,45.7652391,22.9118029
8,Bulevardul Dacia,331085,45.7647847,22.9110317
2,Strada Oltului,331045,45.7645218,22.9153654
16,Strada Mureșului,331045,45.7637569,22.9160422
1,Strada Oltului,331045,45.7641235,22.9155484
14,Strada Mureșului,331162,45.7650136,22.9160023
1,Strada Streiului,331046,45.7652433,22.9155077
3,Strada Streiului,331046,45.7650418,22.9149619
4,Strada Oltului,331045,45.7644416,22.9143673
4,Strada Streiului,331046,45.7654522,22.9142909
1,Strada Luncii,331136,45.7644504,22.9130743
12,Bulevardul Dacia,331086,45.7663238,22.9120760
10,Bulevardul Dacia,331013,45.7660209,22.9115195
10,Bulevardul Dacia,331013,45.7657938,22.9112912
2A,Strada Muntenia,331039,45.7632486,22.9081322
1,Strada Muntenia,331039,45.7624550,22.9086614
23,Bulevardul Dacia,331099,45.7630399,22.9093888
21,Bulevardul Dacia,331099,45.7619337,22.9090650
19,Bulevardul Dacia,331099,45.7608616,22.9086960
2,Strada Muntenia,331038,45.7629109,22.9079951
2,Strada Moldova,331040,45.7630591,22.9061349
4,Strada Muntenia,331038,45.7619436,22.9079134
6A,Strada Muntenia,331038,45.7624381,22.9076781
6,Strada Muntenia,331038,45.7614122,22.9071695
1,Strada 22 Decembrie,331021,45.7585816,22.9025380
3,Strada 22 Decembrie,331021,45.7584657,22.9033283
5,Strada 22 Decembrie,331021,45.7583614,22.9041372
2,Bulevardul Dacia,331028,45.7572803,22.9020415
4,Bulevardul Dacia,331028,45.7572312,22.9031357
6,Bulevardul Dacia,331028,45.7571713,22.9042476
9,Bulevardul Ion Corvin,331010,45.7566836,22.9045210
1,Piața Florilor,331029,45.7562334,22.9029331
7,Bulevardul Ion Corvin,331010,45.7561534,22.9043849
5 Bis,Bulevardul Ion Corvin,331010,45.7559930,22.9038808
3 Bis,Bulevardul Ion Corvin,331010,45.7555595,22.9037722
1 Bis,Bulevardul Ion Corvin,331010,45.7551217,22.9036689
5,Bulevardul Ion Corvin,331010,45.7557176,22.9042522
3,Bulevardul Ion Corvin,331010,45.7552714,22.9041411
1BIS,Strada Piața Florilor,331029,45.7555746,22.9027927
1,Bulevardul Ion Corvin,331010,45.7548324,22.9040163
3Bis,Strada George Enescu,331030,45.7549456,22.9027135
3,Strada George Enescu,331030,45.7547601,22.9023740
1Bis,Strada George Enescu,331030,45.7550681,22.9019851
1,Strada George Enescu,331030,45.7548762,22.9016449
1,Strada Piața Florilor,331116,45.7554739,22.9018852
7,Strada George Enescu,331030,45.7545409,22.9037167
10,Bulevardul Ion Corvin,331010,45.7565997,22.9050557
1,Aleea Topitorului,331006,45.7565835,22.9055477
3,Aleea Topitorului,331006,45.7565769,22.9059434
5,Aleea Topitorului,331006,45.7565496,22.9063282
9,Strada Ion Creangă,331006,45.7565226,22.9067366
7,Strada Ion Creangă,331006,45.7559514,22.9066991
6,Aleea Topitorului,331006,45.7559753,22.9062827
4,Aleea Topitorului,331006,45.7559923,22.9058850
2,Aleea Topitorului,331006,45.7560103,22.9055114
5,Strada Ion Creangă,331006,45.7555349,22.9066321
3,Strada Ion Creangă,331006,45.7551202,22.9065736
1,Strada Ion Creangă,331006,45.7546385,22.9065401
13,Strada George Enescu,331056,45.7542620,22.9057361
1,Aleea Cocsarilor,331006,45.7556564,22.9053593
2,Aleea Cocsarilor,331006,45.7553926,22.9052728
3,Aleea Cocsarilor,331006,45.7551433,22.9051998
4,Aleea Cocsarilor,331006,45.7548863,22.9051123
5,Aleea Cocsarilor,331006,45.7546282,22.9050303
8,Bulevardul Ion Corvin,331010,45.7560838,22.9049104
6,Bulevardul Ion Corvin,331010,45.7556438,22.9047958
4,Bulevardul Ion Corvin,331010,45.7551990,22.9046662
2,Bulevardul Ion Corvin,331010,45.7547563,22.9045173
11,Strada George Enescu,331056,45.7543363,22.9051933
7,Aleea Cocsarilor,331009,45.7546679,22.9056760
8,Aleea Cocsarilor,331009,45.7549255,22.9060545
6,Aleea Cocsarilor,331009,45.7555146,22.9058910
5,Strada George Topârceanu,331018,45.7562110,22.9134805
10,Strada George Topârceanu,331018,45.7558044,22.9139195
8,Strada George Topârceanu,331018,45.7557859,22.9134966
3,Strada George Topârceanu,331018,45.7562636,22.9129996
1,Strada George Topârceanu,331018,45.7562950,22.9125084
2,Strada George Topârceanu,331018,45.7559393,22.9124462
4,Strada George Topârceanu,331018,45.7558449,22.9128396
10,Strada Ion Luca Caragiale,331017,45.7555899,22.9122775
8,Strada Ion Luca Caragiale,331017,45.7551950,22.9121971
6,Strada George Topârceanu,331018,45.7555742,22.9131251
4,Strada Ion Luca Caragiale,331017,45.7547247,22.9119616
2,Strada Ion Luca Caragiale,331017,45.7543809,22.9116905
3Bis,Strada Gheorghe Lazăr,331060,45.7542907,22.9121248
1,Strada Gheorghe Lazăr,331060,45.7540419,22.9114991
3,Strada Gheorghe Lazăr,331060,45.7538533,22.9119229
5,Strada Gheorghe Lazăr,331060,45.7536823,22.9123807
7,Strada Gheorghe Lazăr,331060,45.7535573,22.9128812
9,Strada Gheorghe Lazăr,331060,45.7534539,22.9133655
9,Strada Ion Luca Caragiale,331017,45.7559284,22.9119180
7,Strada Ion Luca Caragiale,331017,45.7554792,22.9118348
5,Strada Ion Luca Caragiale,331017,45.7550679,22.9116310
3,Strada Ion Luca Caragiale,331017,45.7546700,22.9113848
1,Strada Ion Luca Caragiale,331017,45.7542635,22.9110454
5,Strada Eliberării,331063,45.7541677,22.9161894
12,Strada Viorele,331064,45.7534751,22.9162455
10,Strada Viorele,331063,45.7538609,22.9167488
8A,Strada Viorele,331064,45.7543438,22.9170186
8,Strada Viorele,331064,45.7546977,22.9172649
6B,Strada Viorele,331064,45.7550978,22.9173769
6A,Strada Viorele,331064,45.7555019,22.9175612
6,Strada Viorele,331064,45.7560507,22.9180954
4,Strada Viorele,331093,45.7568256,22.9185478
1,Strada Eliberării,331064,45.7569075,22.9180914
3,Strada Eliberării,331064,45.7562456,22.9174710
1,Strada Viorele,331155,45.7564120,22.9190053
3,Strada Viorele,331159,45.7553303,22.9184146
1,Strada Pinilor,331159,45.7547584,22.9187578
3,Strada Pinilor,331159,45.7544350,22.9190654
5,Strada Pinilor,331159,45.7540195,22.9192105
7,Strada Pinilor,331158,45.7537401,22.9195261
4,Strada Pinilor,331159,45.7532211,22.9180871
2,Strada Pinilor,331159,45.7536833,22.9185164
6,Strada Pinilor,331158,45.7532072,22.9191092
4,Strada Siretului,331151,45.7615372,22.9176104
5,Strada Batiz,331152,45.7613542,22.9185026
3,Strada Batiz,331152,45.7610787,22.9182897
6,Intrarea Lanului,331095,45.7608954,22.9178823
8,Intrarea Lanului,331095,45.7607454,22.9174740
1,Strada Batiz,331152,45.7606478,22.9182574
4,Intrarea Lanului,331094,45.7602854,22.9180246
4,Strada Batiz,331094,45.7609186,22.9188360
2,Strada Batiz,331094,45.7602894,22.9186067
6,Strada Batiz,331152,45.7605446,22.9191116
8,Strada Batiz,331152,45.7601814,22.9193223
1,Strada Ștrandului,331094,45.7597826,22.9189144
3,Strada Ștrandului,331094,45.7596805,22.9194027
5,Strada Ștrandului,331094,45.7594780,22.9197836
1,Intrarea Lanului,331095,45.7602724,22.9173205
3,Intrarea Lanului,331095,45.7606118,22.9170739
2,Intrarea Lanului,331094,45.7600122,22.9177419
4,Strada Arenei,331095,45.7599531,22.9168071
6,Strada Arenei,331095,45.7603540,22.9166795
2,Strada Arenei,331095,45.7597392,22.9172048
6,Intrarea Spicului,331093,45.7581327,22.9177120
4,Strada Trandafirilor,331148,45.7578457,22.9201052
2,Strada Trandafirilor,331148,45.7584092,22.9203928
2,Strada Ștrandului,331094,45.7587584,22.9195450
1,Strada Trandafirilor,331148,45.7588461,22.9217072
3,Strada Trandafirilor,331148,45.7585119,22.9215851
5,Strada Trandafirilor,331148,45.7581774,22.9214662
6,Strada Trandafirilor,331155,45.7572269,22.9198999
9,Strada Trandafirilor,331155,45.7574020,22.9212705
7,Strada Batiz,331149,45.7617085,22.9191535
9,Strada Batiz,331149,45.7614636,22.9195623
11,Strada Batiz,331149,45.7610878,22.9197712
13,Strada Batiz,331149,45.7607108,22.9199875
15,Strada Batiz,331149,45.7603291,22.9202083
17,Strada Batiz,331149,45.7599495,22.9204316
19,Strada Batiz,331149,45.7595763,22.9206286
2,Strada Barbu Ștefănescu Delavrancea,331093,45.7583732,22.9166869
4,Strada Barbu Ștefănescu Delavrancea,331093,45.7588421,22.9169923
3,Strada Arenei,331096,45.7595623,22.9156449
1,Strada Arenei,331096,45.7593538,22.9166635
1,Strada Barbu Ștefănescu Delavrancea,331096,45.7589399,22.9163630
3,Intrarea Spicului,331093,45.7592471,22.9184330
5,Intrarea Spicului,331093,45.7587147,22.9182707
1,Intrarea Spicului,331093,45.7589083,22.9179135
8,Strada Barbu Ștefănescu Delavrancea,331093,45.7595438,22.9180032
6,Strada Barbu Ștefănescu Delavrancea,331093,45.7592445,22.9175331
4,Strada Ștrandului,331094,45.7588674,22.9204767
1,Strada Prutului,331150,45.7650692,22.9181520
3,Strada Prutului,331150,45.7646778,22.9184171
5,Strada Prutului,331150,45.7642881,22.9186335
7,Strada Prutului,331150,45.7638867,22.9187848
9,Strada Prutului,331149,45.7634125,22.9190638
11,Strada Prutului,331149,45.7629569,22.9192871
13,Strada Prutului,331149,45.7624736,22.9195328
8,Strada Siretului,331151,45.7621769,22.9185401
6,Strada Siretului,331151,45.7618562,22.9180364
10,Strada Siretului,331151,45.7625783,22.9179941
fixme,Strada Prutului,331149,45.7629821,22.9186270
6,Strada Prutului,331150,45.7635573,22.9183155
L2,Strada Viorele,331064,45.7527843,22.9150474
22,Strada George Enescu,331017,45.7539197,22.9102214
10,Strada Ion Creangă,331006,45.7559254,22.9071038
2,Strada Laminatorului,331007,45.7560014,22.9075611
4,Strada Laminatorului,331007,45.7559751,22.9080946
6,Strada Laminatorului,331007,45.7561219,22.9085253
8,Strada Laminatorului,331007,45.7563490,22.9089295
1,Strada Laminatorului,331007,45.7565314,22.9077150
8,Strada Ion Creangă,331006,45.7555168,22.9070580
4,Strada Ion Creangă,331006,45.7551009,22.9070263
1Bis,Strada Oțelarilor,331008,45.7552908,22.9075177
2,Strada Ion Creangă,331006,45.7544072,22.9071068
1,Strada Oțelarilor,331008,45.7546769,22.9074879
2,Strada Oțelarilor,331008,45.7548752,22.9079884
4,Strada Oțelarilor,331008,45.7550552,22.9084219
6,Strada Oțelarilor,331008,45.7552343,22.9088969
3,Strada Oțelarilor,331008,45.7552344,22.9079226
5,Strada Oțelarilor,331008,45.7554133,22.9084294
1,Strada Turnătorului,331016,45.7556242,22.9095906
12,Strada Ion Creangă,331006,45.7565007,22.9071603
5,Strada Turnătorului,331016,45.7558342,22.9103838
7,Strada Turnătorului,331016,45.7560064,22.9107701
9,Strada Turnătorului,331016,45.7561728,22.9111842
2,Strada George Enescu,331030,45.7544756,22.9017368
4,Strada George Enescu,331030,45.7543193,22.9027147
12,Strada George Enescu,331056,45.7539171,22.9052211
14,Strada George Enescu,331056,45.7538483,22.9056844
16,Strada George Enescu,331056,45.7537827,22.9062127
8,Strada Vânătorului,331072,45.7456906,22.9077034
10,Strada Vânătorului,331072,45.7455633,22.9076500
9,Strada Vânătorului,331072,45.7456674,22.9071895
11,Strada Vânătorului,331072,45.7455209,22.9072504
13,Strada Vânătorului,331072,45.7453154,22.9073633
36C,Strada Rotarilor,331116,45.7457401,22.8957495
38,Strada Rotarilor,331116,45.7454108,22.8961275
18,Strada Trandafirilor,331157,45.7530768,22.9199927
8,Strada Pinilor,331158,45.7527238,22.9192053
11,Strada Trandafirilor,331155,45.7569594,22.9208226
8,Strada Trandafirilor,331155,45.7568571,22.9200635
10,Strada Trandafirilor,331155,45.7559803,22.9198238
13,Strada Trandafirilor,331155,45.7562066,22.9207895
15,Strada Trandafirilor,331156,45.7558353,22.9211911
17,Strada Trandafirilor,331156,45.7554891,22.9207495
19,Strada Trandafirilor,331156,45.7551134,22.9211586
12,Strada Trandafirilor,331156,45.7551414,22.9201180
21,Strada Trandafirilor,331156,45.7547713,22.9207229
23,Strada Trandafirilor,331156,45.7543994,22.9211201
18,Strada Trandafirilor,331157,45.7541712,22.9199423
25,Strada Trandafirilor,331157,45.7540525,22.9206680
16,Strada Trandafirilor,331157,45.7535829,22.9199394
29,Strada Trandafirilor,331157,45.7533323,22.9206481
27,Strada Trandafirilor,331157,45.7536851,22.9210968
31,Strada Trandafirilor,331157,45.7529348,22.9209998
33,Strada Trandafirilor,331158,45.7525978,22.9206867
34,Strada Trandafirilor,331158,45.7523944,22.9196845
7,Strada Trandafirilor,331148,45.7577635,22.9209556
18,Strada George Enescu,331056,45.7537287,22.9066745
20,Strada George Enescu,331056,45.7536559,22.9071223
15,Strada Avram Iancu,331037,45.7600524,22.9121667
14,Strada Timotei Ciparu,331122,45.7490621,22.8979770
1,Aleea Tineretului,331074,45.7509830,22.9150864
4,Aleea Tineretului,331074,45.7510241,22.9144455
6,Aleea Tineretului,331074,45.7509113,22.9142085
1A,Aleea Tineretului,331074,45.7508165,22.9152982
3A,Aleea Tineretului,331074,45.7506967,22.9151693
1,Strada Carol Davila,331159,45.7529681,22.9171127
43,Bulevardul Dacia,331111,45.7723949,22.9118342
3,Strada Laminatorului,331007,45.7566900,22.9078256
6A,Bulevardul Dacia,331130,45.7571088,22.9072574
19,Bulevardul Traian,331110,45.7750125,22.9116211
5,Strada Cloșca,331130,45.7536865,22.8943243
1,Piața Gării,331050,45.7613394,22.9012865
1A,Bulevardul Traian,331023,45.7622748,22.9021016
12,Strada Mihai Viteazu,331099,45.7627657,22.9112195
20,Strada Avram Iancu,331039,45.7592360,22.9145281
2,Strada Mihai Viteazu,331023,45.7642522,22.9024339
7,Strada Nicolae Bălcescu,331071,45.7498469,22.9028925
11A,Strada Avram Iancu,331037,45.7604880,22.9127146
27,Bulevardul Dacia,331100,45.7663730,22.9104084
15,Strada George Enescu,331056,45.7542172,22.9063605
20,Strada Avram Iancu,331039,45.7592799,22.9147051
5,Strada Cloșca,331130,45.7541227,22.8944158
4,Strada Rotarilor,331116,45.7488857,22.8939644
13,Strada Victoriei,331078,45.7513706,22.9037893
2A,Strada Voinei,331005,45.7500131,22.8865919
141E,Strada Rotarilor,331124,45.7351292,22.9127335
2,Șoseaua Hunedoarei,331170,45.7937273,22.9214048
7C,Bulevardul Traian,331052,45.7675287,22.9063106
2,Strada Cernii,331130,45.7516959,22.8935743
2,Strada Cernii,331130,45.7517651,22.8938173
29,Strada Timotei Ciparu,331122,45.7492135,22.8992403
29,Strada Timotei Ciparu,331071,45.7493668,22.8993396
7,Bulevardul Traian,331110,45.7664034,22.9034359
2 bis,Strada Transilvania,331024,45.7617125,22.9034093
2 bis,Strada Transilvania,331024,45.7615370,22.9032465
2 bis,Strada Transilvania,331024,45.7613281,22.9033290
9A,Strada Avram Iancu,331037,45.7603586,22.9113162
5,Strada George Enescu,331030,45.7546425,22.9030462
5Bis,Strada George Enescu,331030,45.7548281,22.9033855
2,Strada Laminatorului,331007,45.7558245,22.9075705
6,Strada George Enescu,331030,45.7539596,22.9034147
4,Strada Ștrandului,331094,45.7590384,22.9206083
2,Strada Trandafirilor,331148,45.7582546,22.9202242
2,Strada Ștrandului,331094,45.7588465,22.9198031
2,Strada Ștrandului,331094,45.7589841,22.9199821
31,Strada Trandafirilor,331157,45.7530976,22.9211292
3,Strada Alexandru Vlahuță,331092,45.7579781,22.9152394
16,Strada Trandafirilor,331157,45.7537454,22.9200338
34,Strada Trandafirilor,331158,45.7526010,22.9199472
8,Strada Pinilor,331158,45.7525225,22.9187658
5,Strada Eliberării,331063,45.7538762,22.9159312
5,Strada Eliberării,331063,45.7539927,22.9161338
11,Strada George Enescu,331029,45.7536106,22.9039244
5,Strada Ciprian Porumbescu,331071,45.7526805,22.9043723
1-3,Strada Castelului,331141,45.7491873,22.8882040
