House number,Street name,Postal code,Latitude,Longitude
30,улица Калинина,667003,51.7040867,94.4209929
138,улица Дружбы,667000,51.7185806,94.4441577
7,улица Кечил-оола,667003,51.7077487,94.4249112
5,улица Кечил-оола,667003,51.7080072,94.4277996
7Б,улица Кечил-оола,667003,51.7074635,94.4269136
17В,Паротурбинная улица,667901,51.7006776,94.5405561
17Г,Паротурбинная улица,667901,51.6999112,94.5388529
19В,Паротурбинная улица,667901,51.6995721,94.5390648
19Б,Паротурбинная улица,667901,51.6996818,94.5385820
17Б,Паротурбинная улица,667901,51.7010267,94.5389306
39/1,Паротурбинная улица,667004,51.6984117,94.5376110
39/2,Паротурбинная улица,667004,51.6986694,94.5376056
34,улица Новостроек,667004,51.7060467,94.5069426
31,улица 2-я Листвянка,667004,51.7076440,94.5022085
32,улица 2-я Листвянка,667004,51.7070290,94.5016882
33,улица 2-я Листвянка,667004,51.7077038,94.5018035
4Г,Сочинская улица,667004,51.7074412,94.5060977
52,Колхозная улица,667004,51.7079149,94.5247418
48,Колхозная улица,667004,51.7078218,94.5258173
22/О,Колхозная улица,667004,51.7068154,94.5345372
26/3,Колхозная улица,667004,51.7070107,94.5340168
34,улица Парижских Коммунаров,667004,51.7037512,94.5238835
81,Университетская улица,667004,51.7046039,94.5034370
79,Университетская улица,667004,51.7044692,94.5039493
8Д,Нивелирная улица,667004,51.7152856,94.5111778
10Г,Нивелирная улица,667004,51.7156795,94.5107782
8А,Нивелирная улица,667004,51.7144838,94.5094880
108Ж,Колхозная улица,667004,51.7137767,94.5047647
49А,Сельскохозяйственная улица,667004,51.7110744,94.5166013
72,Колхозная улица,667004,51.7109996,94.5151448
74А,Колхозная улица,667004,51.7107769,94.5137742
70А,Колхозная улица,667004,51.7104694,94.5151287
50,улица Дружбы,667001,51.7191628,94.4728972
1Ж,Лесная улица,667001,51.7160085,94.4996430
18,Пихтовая улица,667001,51.7148669,94.5006555
33,Малоенисейская улица,667001,51.7178182,94.4953206
29,улица Тувинских Добровольцев,667000,51.7172785,94.4423254
14,Небесная улица,667008,51.7005679,94.4833311
18А/1,Взлётная улица,667008,51.7002786,94.4818640
8,Взлётная улица,667008,51.7017614,94.4820330
20,Полигонная улица,667008,51.6984732,94.4744289
2,Радужная улица,667008,51.7025028,94.4848600
4,Радужная улица,667008,51.7022452,94.4848278
36,Полигонная улица,667008,51.6966661,94.4747910
32,Полигонная улица,667008,51.6970518,94.4747159
30,Полигонная улица,667008,51.6972015,94.4746488
48,Полигонная улица,667008,51.6952430,94.4752631
42,Полигонная улица,667008,51.6958465,94.4751263
35 к3,Эрзинская улица,667008,51.6939462,94.4791120
39,Полигонная улица,667008,51.6924449,94.4770306
10А,улица Николая Трофимова,667008,51.6967127,94.4791120
60А,Полигонная улица,667008,51.6937317,94.4755635
2Б,Эрзинская улица,667008,51.6946079,94.4807884
20,15-я линия,667008,51.6974026,94.4938803
32,13-я линия,667008,51.6955473,94.4916138
3Б,10-я линия,667008,51.6969172,94.4889584
2А,10-я линия,667008,51.6972929,94.4882342
12,Кара-Хаакский переулок,667002,51.7780885,94.4637108
5,Кара-Хаакский переулок,667002,51.7794957,94.4642553
3,Кара-Хаакский переулок,667002,51.7799139,94.4643921
1,Приусадебный переулок,667002,51.7832891,94.4597599
3,Приусадебный переулок,667002,51.7831348,94.4597894
31,Вавилинская улица,667002,51.7800268,94.4599691
33,Вавилинская улица,667002,51.7800251,94.4605619
27,Вавилинская улица,667002,51.7800019,94.4585502
9,Вавилинская улица,667002,51.7800782,94.4552940
3,Вавилинская улица,667002,51.7800799,94.4542479
24,Вавилинская улица,667002,51.7796667,94.4578260
14,Вавилинская улица,667002,51.7796053,94.4560182
12,Вавилинская улица,667002,51.7796136,94.4556642
10,Вавилинская улица,667002,51.7796069,94.4553208
1,Удачный проспект,667002,51.7743760,94.4529363
5,Удачный проспект,667002,51.7738781,94.4528586
7,Удачный проспект,667002,51.7724143,94.4528317
11,Удачный проспект,667002,51.7720392,94.4525850
16,1-я Вавилинская улица,667002,51.7666635,94.4546989
14,1-я Вавилинская улица,667002,51.7664720,94.4546771
12,1-я Вавилинская улица,667002,51.7662991,94.4546574
10,1-я Вавилинская улица,667002,51.7661186,94.4546369
4,1-я Вавилинская улица,667002,51.7659409,94.4540146
1,переулок Ромашек,667002,51.7922601,94.4620156
5,переулок Ромашек,667002,51.7922618,94.4610903
8,переулок Полянка,667002,51.7928242,94.4606745
16,переулок Полянка,667002,51.7928175,94.4584939
11,переулок Полянка,667002,51.7931444,94.4606316
9,переулок Полянка,667002,51.7931510,94.4609642
21,переулок Полянка,667002,51.7931543,94.4585422
17,переулок Полянка,667002,51.7931410,94.4593039
7,переулок Самбажык,667002,51.8002707,94.4511420
5,переулок Самбажык,667002,51.8002856,94.4507155
8,переулок Самбажык,667002,51.8005792,94.4511715
7,Чаатынский переулок,667002,51.7820463,94.4606155
1,переулок Полянка,667002,51.7931825,94.4622973
4,Опаловый переулок,667002,51.8056362,94.4615677
1,Опаловый переулок,667002,51.8059049,94.4610527
3,Опаловый переулок,667002,51.8056246,94.4610339
4,Лазуритовый переулок,667002,51.8056461,94.4604009
2,Лазуритовый переулок,667002,51.8059132,94.4604197
1,Лазуритовый переулок,667002,51.8059546,94.4598350
5,Лазуритовый переулок,667002,51.8054057,94.4598350
2,Нефритовый переулок,667002,51.8056958,94.4593141
1,Нефритовый переулок,667002,51.8059895,94.4593254
3,Нефритовый переулок,667002,51.8054322,94.4593039
5,Нефритовый переулок,667002,51.8055400,94.4584161
5А,Нефритовый переулок,667002,51.8055732,94.4577348
5,улица Генерала-майора Александра Захарченко,667002,51.8007616,94.4609106
16,улица Генерала-майора Александра Захарченко,667002,51.7994629,94.4612861
10,улица Генерала-майора Александра Захарченко,667002,51.8002192,94.4613638
23,улица Титова,667000,51.7191555,94.4311057
108,улица Кочетова,667005,51.7181701,94.4215643
99,улица Кочетова,667000,51.7174432,94.4254402
104Б,улица Кочетова,667005,51.7182066,94.4225076
92,улица Кочетова,667005,51.7183337,94.4271973
102,Красноармейская улица,667000,51.7171399,94.4394878
110,улица Кочетова,667005,51.7177024,94.4213046
3,улица Бухтуева,667000,51.7157356,94.4253024
1,улица Бухтуева,667000,51.7166316,94.4246768
8,улица Чехова,667005,51.7187315,94.4267418
106,улица Кочетова,667005,51.7177134,94.4223473
75,улица Ленина,667005,51.7192059,94.4269632
3А,улица Салчака Тока,667005,51.7159914,94.4223784
77,улица Ленина,667005,51.7191883,94.4259570
248,Рабочая улица,667000,51.7144900,94.4274936
100,улица Кочетова,667005,51.7179622,94.4246344
35,улица Титова,667000,51.7162408,94.4320137
91,улица Кочетова,667000,51.7179097,94.4318952
36А,улица Дружбы,667001,51.7171063,94.4797171
6,Медицинский переулок,667001,51.7180587,94.4649391
9,Медицинский переулок,667001,51.7178867,94.4644148
8,Медицинский переулок,667001,51.7181703,94.4643839
44,улица Дружбы,667001,51.7179192,94.4742923
37А,улица Дружбы,667001,51.7184736,94.4650793
15,улица Кочетова,667000,51.7204329,94.4515779
19,Паротурбинная улица,667901,51.7003917,94.5385036
38,Холмистая улица,667002,51.7182577,94.3898994
100,Красноармейская улица,667000,51.7168762,94.4403688
36,улица Ленина,667000,51.7208290,94.4366012
53,улица Кочетова,667000,51.7189148,94.4385688
12,улица Дружбы,667001,51.7162182,94.4850769
14,улица Дружбы,667001,51.7162512,94.4846284
2,улица Дружбы,667001,51.7160264,94.4862978
8,улица Дружбы,667001,51.7161205,94.4854588
18,улица Дружбы,667001,51.7163160,94.4842207
6,улица Дружбы,667001,51.7160626,94.4858382
20,улица Дружбы,667001,51.7163734,94.4838023
22,улица Дружбы,667001,51.7164547,94.4833981
56,улица Дружбы,667001,51.7185630,94.4710478
58,улица Дружбы,667001,51.7185918,94.4705014
52,улица Дружбы,667001,51.7185831,94.4724555
54,улица Дружбы,667001,51.7185598,94.4716711
49,улица Дружбы,667001,51.7190926,94.4617610
115,Красноармейская улица,667000,51.7167314,94.4444496
172,Красноармейская улица,667000,51.7168828,94.4297097
176,Красноармейская улица,667000,51.7159788,94.4284344
97А,улица Кочетова,667001,51.7162869,94.4261379
10,улица Салчака Тока,667005,51.7152503,94.4198610
101,улица Кочетова,667000,51.7172793,94.4231272
14,улица Салчака Тока,667005,51.7148270,94.4187242
16,улица 1-я линия,667008,51.6957223,94.4768931
8,улица 1-я линия,667008,51.6971129,94.4768586
9,Полигонная улица,667008,51.6974344,94.4762442
2,улица Николая Кабака,667008,51.6978315,94.4780425
2,Полигонная улица,667008,51.7017711,94.4735299
1,Полигонная улица,667008,51.6980563,94.4760734
19,улица 1-я линия,667008,51.6950604,94.4773066
13,Полигонная улица,667008,51.6966946,94.4762862
20,улица 1-я линия,667008,51.6953024,94.4769222
4,Взлётная улица,667008,51.7021945,94.4820056
14А,улица 1-я линия,667008,51.6959346,94.4768890
22,улица 1-я линия,667008,51.6951377,94.4769270
10,улица 1-я линия,667008,51.6967460,94.4768633
4,улица Николая Кабака,667008,51.6974769,94.4780550
14,улица 1-я линия,667008,51.6961618,94.4768657
2,улица 1-я линия,667008,51.6982002,94.4770772
67,Звёздная улица,667008,51.6985316,94.4762913
65,Звёздная улица,667008,51.6985598,94.4768375
6,улица 1-я линия,667008,51.6975200,94.4768842
11,Полигонная улица,667008,51.6970674,94.4762822
5,Полигонная улица,667008,51.6978927,94.4761645
1,улица 1-я линия,667008,51.6981561,94.4776797
4,улица 1-я линия,667008,51.6978651,94.4768876
63,Звёздная улица,667008,51.6985172,94.4773006
3,улица 1-я линия,667008,51.6977482,94.4773378
57,Звёздная улица,667008,51.6985247,94.4791256
55,Звёздная улица,667008,51.6985160,94.4796389
61,Звёздная улица,667008,51.6985114,94.4780635
4,улица Николая Трофимова,667008,51.6978896,94.4792094
6,улица Николая Трофимова,667008,51.6974439,94.4790889
2,улица Николая Трофимова,667008,51.6981151,94.4794665
59,Звёздная улица,667008,51.6985191,94.4785790
1,улица Николая Кабака,667008,51.6981208,94.4782902
5,улица Николая Кабака,667008,51.6974429,94.4785476
53,Звёздная улица,667008,51.6985089,94.4803984
4,Эрзинская улица,667008,51.6950071,94.4804588
12,Эрзинская улица,667008,51.6949590,94.4780068
1,улица Николая Трофимова,667008,51.6980375,94.4800253
12,улица Василия Брагина,667008,51.6967192,94.4815593
5,улица Николая Трофимова,667008,51.6976240,94.4796606
16,улица Николая Трофимова,667008,51.6952895,94.4798079
10,улица Василия Брагина,667008,51.6970569,94.4815301
15,улица Николая Трофимова,667008,51.6957815,94.4798336
10,Эрзинская улица,667008,51.6949603,94.4784747
13,улица Николая Трофимова,667008,51.6962036,94.4797097
12,улица Николая Трофимова,667008,51.6958319,94.4792118
7,улица Николая Трофимова,667008,51.6972560,94.4797128
11,улица Николая Кабака,667008,51.6958104,94.4785279
11,улица Николая Трофимова,667008,51.6965368,94.4796625
8,улица Василия Брагина,667008,51.6974308,94.4815247
9,улица Николая Трофимова,667008,51.6969219,94.4796934
20,улица Василия Брагина,667008,51.6954939,94.4816240
18,улица Василия Брагина,667008,51.6957843,94.4815984
17,улица Николая Трофимова,667008,51.6952772,94.4802799
15,улица Николая Кабака,667008,51.6953094,94.4778665
13,улица Николая Кабака,667008,51.6955017,94.4781415
14,улица Николая Трофимова,667008,51.6955514,94.4795160
4,улица Василия Брагина,667008,51.6981513,94.4815174
2,Эрзинская улица,667008,51.6950186,94.4809126
8,Эрзинская улица,667008,51.6949733,94.4790064
6,Эрзинская улица,667008,51.6949837,94.4795510
6,улица Василия Брагина,667008,51.6978178,94.4815241
7,улица Василия Брагина,667008,51.6977672,94.4821386
28,6-я линия,667008,51.6951837,94.4829156
22,улица Животноводов,667008,51.6977725,94.4836811
20,6-я линия,667008,51.6960852,94.4829082
35/5,Эрзинская улица,667008,51.6931948,94.4811515
45,Звёздная улица,667008,51.6985189,94.4831851
13,улица Василия Брагина,667008,51.6968246,94.4821690
37/2,Эрзинская улица,667008,51.6940124,94.4845725
33,Эрзинская улица,667008,51.6941181,94.4850645
3,улица Василия Брагина,667008,51.6982789,94.4822180
39,Эрзинская улица,667008,51.6941872,94.4811608
17,улица Василия Брагина,667008,51.6961865,94.4821871
10,6-я линия,667008,51.6969215,94.4828933
2,6-я линия,667008,51.6977086,94.4830711
1,улица Василия Брагина,667008,51.6985430,94.4824588
19А,улица Василия Брагина,667008,51.6957438,94.4821539
8,6-я линия,667008,51.6971037,94.4829720
21,улица Василия Брагина,667008,51.6954336,94.4821736
31,Эрзинская улица,667008,51.6941995,94.4864293
24,6-я линия,667008,51.6955788,94.4829420
15,улица Василия Брагина,667008,51.6964947,94.4821046
37/1,Эрзинская улица,667008,51.6939264,94.4837576
11,улица Василия Брагина,667008,51.6971191,94.4821872
43,Звёздная улица,667008,51.6985107,94.4836467
37,Эрзинская улица,667008,51.6940799,94.4828538
35 к4,Эрзинская улица,667008,51.6940269,94.4800253
18,6-я линия,667008,51.6962424,94.4829352
21,6-я линия,667008,51.6958902,94.4833488
9,6-я линия,667008,51.6971159,94.4834964
13,6-я линия,667008,51.6967338,94.4834237
14,7-я линия,667008,51.6966299,94.4844073
69,Звёздная улица,667008,51.6985348,94.4849055
16,улица Животноводов,667008,51.6978254,94.4856952
3,7-я линия,667008,51.6980595,94.4847323
17,6-я линия,667008,51.6962226,94.4833882
25,6-я линия,667008,51.6952041,94.4833141
16,7-я линия,667008,51.6963381,94.4844260
2Г,улица Ензаны Пала,667008,51.6984083,94.4856312
12,7-я линия,667008,51.6969220,94.4844417
2В,улица Ензаны Пала,667008,51.6980645,94.4856651
15,6-я линия,667008,51.6964342,94.4834112
11,6-я линия,667008,51.6969668,94.4834843
2В,9-я линия,667008,51.6980700,94.4868693
4,улица Ензаны Пала,667008,51.6968458,94.4857424
2А,9-я линия,667008,51.6976655,94.4869602
19,7-я линия,667008,51.6953328,94.4848657
17,7-я линия,667008,51.6956179,94.4848001
2,улица Ензаны Пала,667008,51.6972832,94.4854107
1В,улица Ензаны Пала,667008,51.6981580,94.4862348
11,7-я линия,667008,51.6965263,94.4847827
9,7-я линия,667008,51.6968522,94.4848550
12,улица Ензаны Пала,667008,51.6956374,94.4857008
15,7-я линия,667008,51.6959322,94.4847659
13,7-я линия,667008,51.6962493,94.4847721
2Г,9-я линия,667008,51.6984116,94.4869973
6,улица Ензаны Пала,667008,51.6965023,94.4856778
1Г,улица Ензаны Пала,667008,51.6985369,94.4861750
7,7-я линия,667008,51.6972480,94.4848549
14,улица Ензаны Пала,667008,51.6953969,94.4856378
2,9-я линия,667008,51.6972670,94.4869602
1,улица Ензаны Пала,667008,51.6972550,94.4861976
16,9-я линия,667008,51.6949868,94.4869264
12,9-я линия,667008,51.6956079,94.4869283
14,9-я линия,667008,51.6953502,94.4869259
19,улица Ензаны Пала,667008,51.6949774,94.4861987
10,9-я линия,667008,51.6959447,94.4869949
8,9-я линия,667008,51.6962322,94.4869378
6,9-я линия,667008,51.6966592,94.4869473
3,улица Ензаны Пала,667008,51.6969096,94.4862362
4,9-я линия,667008,51.6967790,94.4869676
13,улица Ензаны Пала,667008,51.6956586,94.4862074
5,улица Ензаны Пала,667008,51.6965350,94.4862252
15,улица Ензаны Пала,667008,51.6953434,94.4861599
9,улица Ензаны Пала,667008,51.6961452,94.4862078
12,11-я линия,667001,51.6975676,94.4891256
59А,9-я линия,667008,51.6984347,94.4884314
8,11-я линия,667001,51.6985336,94.4891863
51,Звёздная улица,667008,51.6992742,94.4886876
1В,9-я линия,667008,51.6982096,94.4875327
59Б,9-я линия,667008,51.6981734,94.4883469
43Б,Звёздная улица,667008,51.6993899,94.4884668
10,11-я линия,667001,51.6982156,94.4889467
3,9-я линия,667008,51.6976561,94.4875487
4А,11-я линия,667001,51.6993889,94.4894145
6Б,11-я линия,667001,51.6990133,94.4891568
53А,Звёздная улица,667008,51.6989762,94.4883990
4,улица Животноводов,667008,51.6975469,94.4888089
23,9-я линия,667008,51.6953609,94.4876590
4,10-я линия,667008,51.6971064,94.4881934
16,10-я линия,667008,51.6957516,94.4883329
21,9-я линия,667008,51.6957300,94.4876064
15,Эрзинская улица,667008,51.6945823,94.4909352
27,9-я линия,667008,51.6950069,94.4876543
20,10-я линия,667008,51.6952971,94.4883851
1,Эрзинская улица,667008,51.6945086,94.4939945
13,9-я линия,667008,51.6965115,94.4876350
15,9-я линия,667008,51.6963334,94.4876413
23,Эрзинская улица,667008,51.6945839,94.4890657
7,Эрзинская улица,667008,51.6945578,94.4923674
17,Эрзинская улица,667008,51.6945775,94.4904872
9,9-я линия,667008,51.6968667,94.4875708
6,10-я линия,667008,51.6967125,94.4882263
21,Эрзинская улица,667008,51.6945961,94.4896849
18,10-я линия,667008,51.6955404,94.4883678
5,9-я линия,667008,51.6973018,94.4875756
12,10-я линия,667008,51.6961462,94.4883366
14,10-я линия,667008,51.6959840,94.4883498
11,9-я линия,667008,51.6967007,94.4876269
27,Эрзинская улица,667008,51.6945697,94.4878819
14,11-я линия,667001,51.6972768,94.4892628
13,10-я линия,667008,51.6956437,94.4887912
20А,11-я линия,667001,51.6960292,94.4894329
24,11-я линия,667001,51.6955363,94.4895138
9,10-я линия,667008,51.6958113,94.4887187
15,10-я линия,667008,51.6954555,94.4887910
32,11-я линия,667001,51.6951028,94.4895703
16,11-я линия,667001,51.6966147,94.4893859
26,11-я линия,667001,51.6953144,94.4895276
17,10-я линия,667008,51.6953002,94.4887736
18,11-я линия,667001,51.6963421,94.4893917
29,11-я линия,667001,51.6963149,94.4899849
39,11-я линия,667001,51.6952666,94.4898971
1,11-я линия,667001,51.6996002,94.4899410
33,11-я линия,667001,51.6958452,94.4899011
9,11-я линия,667001,51.6988407,94.4898429
4,12-я линия,667008,51.6992872,94.4904717
3,11-я линия,667001,51.6993673,94.4898689
13,11-я линия,667001,51.6981563,94.4898918
2,12-я линия,667008,51.6995928,94.4903594
21,11-я линия,667001,51.6970508,94.4896682
27,11-я линия,667001,51.6965050,94.4897249
7,11-я линия,667001,51.6990347,94.4898372
15,11-я линия,667001,51.6978896,94.4898408
20,12-я линия,667008,51.6958423,94.4904494
16,12-я линия,667008,51.6964134,94.4905236
26,12-я линия,667008,51.6951835,94.4906228
5,11-я линия,667001,51.6991893,94.4898400
17,11-я линия,667001,51.6976780,94.4898395
10,12-я линия,667008,51.6976773,94.4904527
24,12-я линия,667008,51.6954230,94.4906059
31,11-я линия,667001,51.6960280,94.4897899
16,13-я линия,667008,51.6978560,94.4915750
2,13-я линия,667008,51.6995846,94.4915683
17,12-я линия,667008,51.6976236,94.4911578
1,12-я линия,667008,51.6995723,94.4909203
18,13-я линия,667008,51.6972605,94.4915012
19,12-я линия,667008,51.6973108,94.4908542
5,12-я линия,667008,51.6992207,94.4908867
7,12-я линия,667008,51.6990471,94.4908770
6,13-я линия,667008,51.6989908,94.4915698
11,12-я линия,667008,51.6986629,94.4909247
26,13-я линия,667008,51.6962027,94.4916884
21,12-я линия,667008,51.6969805,94.4909632
33,12-я линия,667008,51.6959491,94.4909617
34,13-я линия,667008,51.6952757,94.4916930
14,13-я линия,667008,51.6980455,94.4916255
22,13-я линия,667008,51.6966649,94.4916860
37,12-я линия,667008,51.6952610,94.4909670
36,13-я линия,667008,51.6948834,94.4916721
27,12-я линия,667008,51.6964710,94.4909167
12,13-я линия,667008,51.6983897,94.4916389
35,12-я линия,667008,51.6955713,94.4909554
1,Паротурбинная улица,667004,51.7039701,94.5403147
1,Колхозный переулок,667004,51.7072108,94.5413203
7,Паротурбинная улица,667004,51.7040719,94.5393394
4А,Колхозная улица,667004,51.7051273,94.5406551
8А,Колхозная улица,667004,51.7059921,94.5393465
21А,Паротурбинная улица,667901,51.6995390,94.5434606
21,Паротурбинная улица,667901,51.6996934,94.5413281
15,Паротурбинная улица,667004,51.7034826,94.5400704
10,Колхозная улица,667004,51.7054848,94.5395903
10А,Колхозная улица,667004,51.7062951,94.5383819
6А,Колхозная улица,667004,51.7058895,94.5402997
6,Колхозная улица,667004,51.7054714,94.5407783
3,Колхозный переулок,667004,51.7064902,94.5410601
12,Колхозная улица,667004,51.7055262,94.5390659
8,Колхозная улица,667004,51.7054215,94.5401538
13,Паротурбинная улица,667004,51.7034822,94.5395611
3,Паротурбинная улица,667004,51.7041629,94.5399312
9,Паротурбинная улица,667004,51.7037967,94.5391892
2/2,Магистральная улица,667004,51.7025123,94.5390387
5,Паротурбинная улица,667004,51.7043485,94.5395379
11,Паротурбинная улица,667004,51.7034958,94.5390994
14,Паротурбинная улица,667004,51.7037334,94.5385076
3,Геологическая улица,667004,51.7048705,94.5382262
1,Геологическая улица,667004,51.7051082,94.5384053
7,Геологическая улица,667004,51.7044971,94.5380944
8,Паротурбинная улица,667004,51.7043067,94.5387937
9,Геологическая улица,667004,51.7043731,94.5380230
2,Паротурбинная улица,667004,51.7048300,94.5390025
10,Паротурбинная улица,667004,51.7040882,94.5387195
16,Паротурбинная улица,667004,51.7035859,94.5384520
5,Геологическая улица,667004,51.7047157,94.5381635
4,Паротурбинная улица,667004,51.7046474,94.5389909
17,Геологическая улица,667004,51.7036348,94.5377069
18,Паротурбинная улица,667004,51.7034188,94.5383614
15,Геологическая улица,667004,51.7038350,94.5378142
6,Паротурбинная улица,667004,51.7044364,94.5388657
11,Геологическая улица,667004,51.7042709,94.5379637
19,Геологическая улица,667004,51.7034508,94.5376380
12,Паротурбинная улица,667004,51.7038980,94.5385929
13,Геологическая улица,667004,51.7039881,94.5378532
21,Кок-Тейская улица,667004,51.7034570,94.5364116
23,Солнечная улица,667004,51.7036847,94.5353139
16,Кок-Тейская улица,667004,51.7044600,94.5364261
6,Геологическая улица,667004,51.7049626,94.5378358
14,Геологическая улица,667004,51.7042821,94.5375532
14,Колхозная улица,667004,51.7062419,94.5377023
11,Солнечная улица,667004,51.7047724,94.5357808
8,Геологическая улица,667004,51.7047939,94.5377635
20,Геологическая улица,667004,51.7036743,94.5372572
7,Солнечная улица,667004,51.7051400,94.5359241
12,Кок-Тейская улица,667004,51.7049041,94.5365622
3,Кок-Тейская улица,667004,51.7051837,94.5371492
21,Солнечная улица,667004,51.7038763,94.5353917
19,Кок-Тейская улица,667004,51.7037840,94.5365591
9,Кок-Тейская улица,667004,51.7046821,94.5369547
24,Кок-Тейская улица,667004,51.7038568,94.5361621
17,Кок-Тейская улица,667004,51.7040097,94.5366751
26,Кок-Тейская улица,667004,51.7037044,94.5359945
5,Кок-Тейская улица,667004,51.7050329,94.5371380
20,Кок-Тейская улица,667004,51.7041856,94.5363070
7,Кок-Тейская улица,667004,51.7048437,94.5370138
15,Кок-Тейская улица,667004,51.7041735,94.5367135
6,Кок-Тейская улица,667004,51.7053578,94.5367838
2,Геологическая улица,667004,51.7053319,94.5379103
5,Солнечная улица,667004,51.7053487,94.5360039
14,Кок-Тейская улица,667004,51.7046735,94.5365123
13,Кок-Тейская улица,667004,51.7043060,94.5367662
28,Кок-Тейская улица,667004,51.7034722,94.5359648
1,Солнечная улица,667004,51.7057464,94.5362186
3,Солнечная улица,667004,51.7054940,94.5360569
11,Кок-Тейская улица,667004,51.7045293,94.5368738
10,Кок-Тейская улица,667004,51.7050329,94.5366605
15,Солнечная улица,667004,51.7043941,94.5356264
9,Солнечная улица,667004,51.7049258,94.5358411
1,Кок-Тейская улица,667004,51.7055015,94.5374268
13,Солнечная улица,667004,51.7046062,94.5357063
16,Геологическая улица,667004,51.7041234,94.5374431
10,Геологическая улица,667004,51.7046187,94.5377065
14/5,Колхозная улица,667004,51.7063293,94.5368762
25,Солнечная улица,667004,51.7034821,94.5352450
19,Солнечная улица,667004,51.7040480,94.5354607
8,Кок-Тейская улица,667004,51.7051698,94.5367152
12,Геологическая улица,667004,51.7044118,94.5376047
22,Кок-Тейская улица,667004,51.7040175,94.5362362
18,Геологическая улица,667004,51.7039353,94.5373670
28/1,Колхозная улица,667004,51.7072842,94.5340620
24,Колхозная улица,667004,51.7066456,94.5339414
22,Колхозная улица,667004,51.7066414,94.5342879
26/1,Колхозная улица,667004,51.7071335,94.5352376
24/1,Колхозная улица,667004,51.7069151,94.5357737
26/2,Колхозная улица,667004,51.7072031,94.5345549
8,Солнечная улица,667004,51.7052040,94.5354762
15,Сибирская улица,667004,51.7043841,94.5343993
9,Сибирская улица,667004,51.7049236,94.5346314
20,Солнечная улица,667004,51.7040815,94.5349973
17,Сибирская улица,667004,51.7041854,94.5343108
5,Сибирская улица,667004,51.7053222,94.5347646
22,Солнечная улица,667004,51.7039308,94.5349739
6,Солнечная улица,667004,51.7053693,94.5355625
1,Сибирская улица,667004,51.7056527,94.5349156
12,Солнечная улица,667004,51.7048370,94.5353359
2,Солнечная улица,667004,51.7057566,94.5356953
1А,Сибирская улица,667004,51.7058490,94.5350164
18,Солнечная улица,667004,51.7042740,94.5350879
13,Сибирская улица,667004,51.7045279,94.5344655
7,Сибирская улица,667004,51.7051026,94.5346890
3,Сибирская улица,667004,51.7054933,94.5348439
26,Солнечная улица,667004,51.7035145,94.5347733
16,Солнечная улица,667004,51.7044453,94.5351368
23,Сибирская улица,667004,51.7038161,94.5341746
24,Солнечная улица,667004,51.7037165,94.5348433
25,Сибирская улица,667004,51.7035192,94.5340546
10,Солнечная улица,667004,51.7050082,94.5353808
11,Сибирская улица,667004,51.7047306,94.5345474
14,Солнечная улица,667004,51.7046425,94.5352514
22,Сибирская улица,667004,51.7040703,94.5338211
28,Сибирская улица,667004,51.7035422,94.5336033
21,Песочная улица,667004,51.7035877,94.5328784
1,Песочная улица,667004,51.7060341,94.5338627
24,Сибирская улица,667004,51.7039100,94.5337716
13,Песочная улица,667004,51.7049105,94.5334189
6,Сибирская улица,667004,51.7055251,94.5344172
10,Сибирская улица,667004,51.7051937,94.5342874
8,Сибирская улица,667004,51.7053817,94.5343167
18,Сибирская улица,667004,51.7044252,94.5339800
28,Колхозная улица,667004,51.7069007,94.5332077
26,Сибирская улица,667004,51.7037162,94.5336579
12,Сибирская улица,667004,51.7049929,94.5342296
19,Песочная улица,667004,51.7038311,94.5329964
17,Песочная улица,667004,51.7040410,94.5330770
2,Сибирская улица,667004,51.7059080,94.5346080
9,Песочная улица,667004,51.7050649,94.5334795
20,Сибирская улица,667004,51.7042546,94.5338660
7,Песочная улица,667004,51.7052858,94.5335670
5,Песочная улица,667004,51.7054632,94.5336401
26,Колхозная улица,667004,51.7066846,94.5336066
16,Сибирская улица,667004,51.7046407,94.5340645
14,Сибирская улица,667004,51.7047814,94.5341049
15,Песочная улица,667004,51.7043855,94.5331944
4,Сибирская улица,667004,51.7057247,94.5345066
30,Колхозная улица,667004,51.7068078,94.5326999
34А,Колхозная улица,667004,51.7069068,94.5319744
18,Песочная улица,667004,51.7045599,94.5328535
28,Песочная улица,667004,51.7036270,94.5325155
9,Сарыг-Сепская улица,667004,51.7053639,94.5324196
2,Песочная улица,667004,51.7060709,94.5334207
10,Песочная улица,667004,51.7053284,94.5331386
16,Песочная улица,667004,51.7047532,94.5329328
4,Песочная улица,667004,51.7058701,94.5333533
21,Сарыг-Сепская улица,667004,51.7043268,94.5320267
23,Сарыг-Сепская улица,667004,51.7041007,94.5319569
7,Сарыг-Сепская улица,667004,51.7055347,94.5324557
12,Песочная улица,667004,51.7051433,94.5330881
5,Сарыг-Сепская улица,667004,51.7057164,94.5325289
6,Песочная улица,667004,51.7056737,94.5332767
13,Сарыг-Сепская улица,667004,51.7050138,94.5322750
24,Песочная улица,667004,51.7040375,94.5326571
26,Песочная улица,667004,51.7038440,94.5325834
8,Песочная улица,667004,51.7055124,94.5332102
3,Сарыг-Сепская улица,667004,51.7059553,94.5326287
14,Песочная улица,667004,51.7049447,94.5329895
11,Сарыг-Сепская улица,667004,51.7051874,94.5323071
15,Сарыг-Сепская улица,667004,51.7048337,94.5322024
1А,Сарыг-Сепская улица,667004,51.7061619,94.5327128
19,Сарыг-Сепская улица,667004,51.7044674,94.5320907
20,Песочная улица,667004,51.7044091,94.5328025
17,Сарыг-Сепская улица,667004,51.7046617,94.5321246
25,Сарыг-Сепская улица,667004,51.7039757,94.5318873
27,Сарыг-Сепская улица,667004,51.7037234,94.5317913
22,Песочная улица,667004,51.7042121,94.5327335
29,Сарыг-Сепская улица,667004,51.7035485,94.5317438
2,Сарыг-Сепская улица,667004,51.7062080,94.5322929
1,улица 2-я Серебрянка,667004,51.7062922,94.5315405
12,Сарыг-Сепская улица,667004,51.7052564,94.5319458
17,улица 2-я Серебрянка,667004,51.7048226,94.5310349
29,улица 2-я Серебрянка,667004,51.7035939,94.5306852
24,Сарыг-Сепская улица,667004,51.7042121,94.5315571
4,Сарыг-Сепская улица,667004,51.7060226,94.5322331
28,Сарыг-Сепская улица,667004,51.7037870,94.5314144
32Б,Колхозная улица,667004,51.7075327,94.5312384
16,Сарыг-Сепская улица,667004,51.7048712,94.5318175
14,Сарыг-Сепская улица,667004,51.7050839,94.5318751
23,улица 2-я Серебрянка,667004,51.7042756,94.5308779
21,улица 2-я Серебрянка,667004,51.7044477,94.5309066
36,Колхозная улица,667004,51.7070040,94.5311684
10,Сарыг-Сепская улица,667004,51.7054221,94.5320086
9,улица 2-я Серебрянка,667004,51.7055369,94.5312617
30,Сарыг-Сепская улица,667004,51.7035843,94.5313166
5,улица 2-я Серебрянка,667004,51.7059337,94.5314251
22,Сарыг-Сепская улица,667004,51.7043345,94.5316266
18,Сарыг-Сепская улица,667004,51.7047116,94.5317592
13,улица 2-я Серебрянка,667004,51.7051813,94.5311779
11,улица 2-я Серебрянка,667004,51.7053520,94.5311994
25,улица 2-я Серебрянка,667004,51.7040858,94.5308190
3,улица 2-я Серебрянка,667004,51.7060973,94.5315163
27,улица 2-я Серебрянка,667004,51.7039067,94.5307440
8,Сарыг-Сепская улица,667004,51.7056670,94.5321101
34,Колхозная улица,667004,51.7069692,94.5315972
19,улица 2-я Серебрянка,667004,51.7046247,94.5309618
6,Сарыг-Сепская улица,667004,51.7057641,94.5321232
7,улица 2-я Серебрянка,667004,51.7057060,94.5313447
26,Сарыг-Сепская улица,667004,51.7039727,94.5314756
15,улица 2-я Серебрянка,667004,51.7050292,94.5311056
20,Сарыг-Сепская улица,667004,51.7045287,94.5316158
5,улица Кечил-оола,667003,51.7079807,94.4298776
10Б,улица Калинина,667003,51.7063991,94.4303242
65,улица Кечил-оола,667003,51.7067127,94.4177548
3/4,улица Кечил-оола,667003,51.7073546,94.4298457
2Б,улица Калинина,667003,51.7057660,94.4329009
12,улица Калинина,667003,51.7047869,94.4291036
2/1,улица Калинина,667003,51.7069071,94.4325448
10,улица Калинина,667003,51.7049583,94.4308779
3А,улица Кечил-оола,667003,51.7067736,94.4290246
163,улица Оюна Курседи,667003,51.7108755,94.4246179
5А,улица Кечил-оола,667003,51.7071586,94.4279055
7Е,улица Кечил-оола,667003,51.7054129,94.4251405
19,улица Кечил-оола,667003,51.7069527,94.4195292
4,улица Калинина,667003,51.7059694,94.4311606
5,улица Кечил-оола,667003,51.7080718,94.4281595
157А,улица Оюна Курседи,667003,51.7100540,94.4293749
3,улица Кечил-оола,667003,51.7076765,94.4292373
7Г,улица Кечил-оола,667003,51.7057181,94.4269743
13,улица Кечил-оола,667003,51.7072966,94.4225423
26А,улица Калинина,667003,51.7055358,94.4216100
9,улица Кечил-оола,667003,51.7070351,94.4246527
7,улица Кечил-оола,667003,51.7077823,94.4256373
16,улица Калинина,667003,51.7052050,94.4277919
30,улица Калинина,667003,51.7039389,94.4187123
11А,улица Кечил-оола,667003,51.7073439,94.4233933
11,улица Кечил-оола,667003,51.7067849,94.4239451
2А,улица Калинина,667003,51.7064825,94.4317057
2В,улица Калинина,667000,51.7065558,94.4333218
65,улица Чехова,667003,51.7101216,94.4309619
20,улица Калинина,667003,51.7047211,94.4265021
30,улица Калинина,667003,51.7039726,94.4200511
1,Московская улица,667000,51.7053654,94.4076916
14/5,улица Салчака Тока,667005,51.7154702,94.4182174
14/2,улица Салчака Тока,667005,51.7158539,94.4206181
97/1,улица Кочетова,667000,51.7171003,94.4283373
235/2,Красноармейская улица,667000,51.7144748,94.4283303
137,улица Кочетова,667005,51.7168907,94.4221749
233,Красноармейская улица,667000,51.7151461,94.4280917
30,улица Титова,667000,51.7190049,94.4293587
72,улица Кочетова,667000,51.7188720,94.4279577
146,Красноармейская улица,667000,51.7164575,94.4359310
32,улица Чехова,667000,51.7149460,94.4282094
93,улица Кочетова,667005,51.7179867,94.4305503
63,улица Кочетова,667000,51.7181018,94.4336693
36,улица Ленина,667000,51.7211980,94.4363938
2,Колхозная улица,667004,51.7023900,94.5453897
44,улица Щетинкина-Кравченко,667000,51.7226175,94.4394621
21,Осенняя улица,667008,51.7005313,94.4876961
25,Осенняя улица,667008,51.7002659,94.4874700
23,Осенняя улица,667008,51.7000167,94.4871944
27,Осенняя улица,667008,51.6997841,94.4868325
15,Осенняя улица,667008,51.7009167,94.4881786
11,Осенняя улица,667008,51.7012835,94.4882989
9,Осенняя улица,667008,51.7015435,94.4883005
7,Осенняя улица,667008,51.7017160,94.4882569
5,Осенняя улица,667008,51.7019608,94.4882899
3,Осенняя улица,667008,51.7021943,94.4883013
1,Осенняя улица,667008,51.7024837,94.4884526
2,Осенняя улица,667008,51.7023775,94.4877321
4,Осенняя улица,667008,51.7021660,94.4878164
6А,Осенняя улица,667008,51.7019353,94.4877125
8,Осенняя улица,667008,51.7018075,94.4877997
10,Осенняя улица,667008,51.7014419,94.4877051
12,Осенняя улица,667008,51.7012866,94.4877949
12А,Осенняя улица,667008,51.7011331,94.4877726
14,Осенняя улица,667008,51.7009753,94.4875349
31,улица Чульдума,667000,51.7172714,94.4388774
117,Интернациональная улица,667007,51.7029860,94.4538608
61/11,улица Семирацкого,667005,51.7074145,94.3985888
104,Горная улица,667000,51.7066586,94.4048648
101,Колхозная улица,667004,51.7108101,94.5071845
32,улица Сибиряков-Гвардейцев,667004,51.7036557,94.5288288
32А,Целинная улица,667004,51.7036684,94.5283049
31,улица Новосёлов,667004,51.7036718,94.5273418
26,улица Новосёлов,667004,51.7036992,94.5261771
32,Сумонная улица,667004,51.7037209,94.5250466
4,Солнечная улица,667004,51.7055077,94.5356241
56,Рабочая улица,667001,51.7167914,94.4590036
50,Рабочая улица,667001,51.7169357,94.4599456
4,Медицинский переулок,667001,51.7179620,94.4654566
57,улица Щетинкина-Кравченко,667000,51.7216350,94.4362948
156А,улица Дружбы,667000,51.7184129,94.4402994
7/1,улица Кечил-оола,667003,51.7059313,94.4259021
15/1,улица Кечил-оола,667003,51.7073344,94.4216204
7/1,улица Кечил-оола,667003,51.7061624,94.4258843
26,улица Дружбы,667001,51.7165624,94.4820327
28,улица Дружбы,667001,51.7166631,94.4814102
32Б,улица Дружбы,667001,51.7170701,94.4815792
30А,улица Дружбы,667001,51.7169140,94.4811447
10,Убсу-Нурская улица,667008,51.7008015,94.4782134
91,улица Кечил-оола,667003,51.7056257,94.4091057
2,Убсу-Нурская улица,667008,51.7018243,94.4754607
4,Убсу-Нурская улица,667008,51.7022263,94.4761789
6,Убсу-Нурская улица,667008,51.7022334,94.4791236
8,Убсу-Нурская улица,667008,51.7017954,94.4799032
12,Убсу-Нурская улица,667008,51.7007620,94.4795009
14,Убсу-Нурская улица,667008,51.7004727,94.4802560
16,Убсу-Нурская улица,667008,51.6998660,94.4794795
18,Убсу-Нурская улица,667008,51.6995766,94.4802519
20,Убсу-Нурская улица,667008,51.6993066,94.4794707
24,Убсу-Нурская улица,667008,51.6993269,94.4761783
2А,улица Кечил-оола,667003,51.7087147,94.4283743
121,улица Рихарда Зорге,667001,51.7151211,94.4642587
123,улица Рихарда Зорге,667001,51.7151130,94.4639411
125,улица Рихарда Зорге,667001,51.7151211,94.4635492
127,улица Рихарда Зорге,667001,51.7151014,94.4632630
141,улица Рихарда Зорге,667001,51.7154176,94.4630334
137,улица Рихарда Зорге,667001,51.7152632,94.4632079
135,улица Рихарда Зорге,667001,51.7152889,94.4635830
119,улица Рихарда Зорге,667001,51.7154776,94.4639707
115,улица Рихарда Зорге,667001,51.7154116,94.4644360
113,улица Рихарда Зорге,667001,51.7154859,94.4645764
111,улица Рихарда Зорге,667001,51.7155258,94.4649272
109,улица Рихарда Зорге,667001,51.7155155,94.4653716
22,улица Пушкина,667001,51.7153599,94.4653255
24,улица Пушкина,667001,51.7152030,94.4652308
26,улица Пушкина,667001,51.7150013,94.4651636
28,улица Пушкина,667001,51.7148577,94.4651531
30,улица Пушкина,667001,51.7146805,94.4650721
126,Пролетарская улица,667001,51.7147342,94.4647595
128,Пролетарская улица,667001,51.7149020,94.4645478
130,Пролетарская улица,667001,51.7146757,94.4644569
132,Пролетарская улица,667001,51.7148935,94.4642159
134,Пролетарская улица,667001,51.7146558,94.4641218
136,Пролетарская улица,667001,51.7148834,94.4638657
138,Пролетарская улица,667001,51.7146477,94.4637549
140,Пролетарская улица,667001,51.7146534,94.4634195
142,Пролетарская улица,667001,51.7147714,94.4632733
129,улица Рихарда Зорге,667001,51.7151089,94.4628316
144,Пролетарская улица,667001,51.7146116,94.4628259
146,Пролетарская улица,667001,51.7146679,94.4626556
131,улица Рихарда Зорге,667001,51.7150846,94.4624870
133,улица Рихарда Зорге,667001,51.7149420,94.4623011
143,улица Рихарда Зорге,667001,51.7152499,94.4626252
145,улица Рихарда Зорге,667001,51.7153517,94.4623864
147,улица Рихарда Зорге,667001,51.7153261,94.4620931
148,Пролетарская улица,667001,51.7145937,94.4621878
31,улица Чургуй-Оола,667001,51.7145528,94.4617314
29,улица Чургуй-Оола,667001,51.7148327,94.4616554
27,улица Чургуй-Оола,667001,51.7151045,94.4619050
25,улица Чургуй-Оола,667001,51.7153376,94.4615958
79,улица Ленина,667005,51.7185759,94.4252583
79А,улица Ленина,667005,51.7187171,94.4258100
100А,улица Кочетова,667005,51.7183462,94.4241115
82,Безымянная улица,667000,51.7198301,94.4199593
80,Безымянная улица,667000,51.7198832,94.4201383
84А,Безымянная улица,667000,51.7197447,94.4197384
83,Безымянная улица,667000,51.7198852,94.4217991
101А,Безымянная улица,667000,51.7188565,94.4197025
4,улица Пушкина,667001,51.7179083,94.4662129
3,Медицинский переулок,667001,51.7176794,94.4655868
25,улица Парижских Коммунаров,667004,51.7047615,94.5250332
21,улица Новосёлов,667004,51.7048705,94.5274644
12,Целинная улица,667004,51.7056900,94.5285046
1,улица Новосёлов,667004,51.7067366,94.5281845
2,Сумонная улица,667004,51.7069326,94.5266458
28,улица Сибиряков-Гвардейцев,667004,51.7041311,94.5291627
21,Целинная улица,667004,51.7047910,94.5286293
35,улица 26 Бакинских Комиссаров,667004,51.7040169,94.5235899
24,улица Парижских Коммунаров,667004,51.7050366,94.5247107
27,улица 26 Бакинских Комиссаров,667004,51.7047505,94.5238859
14,Целинная улица,667004,51.7055221,94.5284618
18,улица Парижских Коммунаров,667004,51.7056263,94.5249356
10,улица 2-я Серебрянка,667004,51.7055989,94.5308461
3,улица Парижских Коммунаров,667004,51.7068368,94.5258863
14,Сумонная улица,667004,51.7058287,94.5260478
15,улица Парижских Коммунаров,667004,51.7059505,94.5255142
24,улица Новосёлов,667004,51.7040218,94.5266722
12,улица Парижских Коммунаров,667004,51.7061467,94.5251434
13,улица Новосёлов,667004,51.7056631,94.5277750
3,Сумонная улица,667004,51.7066989,94.5269674
27,улица Сибиряков-Гвардейцев,667004,51.7040399,94.5295285
19,Сумонная улица,667004,51.7046810,94.5262124
30,улица Парижских Коммунаров,667004,51.7043133,94.5244583
26,улица Сибиряков-Гвардейцев,667004,51.7043043,94.5291872
24,Целинная улица,667004,51.7045715,94.5280805
16,улица Сибиряков-Гвардейцев,667004,51.7052032,94.5295356
20,улица Новосёлов,667004,51.7046650,94.5269553
11,улица Сибиряков-Гвардейцев,667004,51.7055041,94.5300917
1,улица Парижских Коммунаров,667004,51.7070261,94.5259358
23,Сумонная улица,667004,51.7042613,94.5260054
17,Сумонная улица,667004,51.7048574,94.5262661
8,улица Парижских Коммунаров,667004,51.7064975,94.5253105
9,Сумонная улица,667004,51.7061168,94.5267493
17,улица 26 Бакинских Комиссаров,667004,51.7056837,94.5242076
18,улица Сибиряков-Гвардейцев,667004,51.7050584,94.5294693
30,Сумонная улица,667004,51.7041795,94.5255882
13,Сумонная улица,667004,51.7058179,94.5266474
22,Целинная улица,667004,51.7047807,94.5281915
22,улица Парижских Коммунаров,667004,51.7052525,94.5248167
1,Целинная улица,667004,51.7065873,94.5294646
4,улица Парижских Коммунаров,667004,51.7068921,94.5254317
28,улица Парижских Коммунаров,667004,51.7046424,94.5246135
15,улица Новосёлов,667004,51.7054873,94.5277187
2,улица Новосёлов,667004,51.7067933,94.5277606
15,Сумонная улица,667004,51.7056087,94.5265578
3,улица 26 Бакинских Комиссаров,667004,51.7069830,94.5247093
6,Сумонная улица,667004,51.7065571,94.5264771
21,улица Парижских Коммунаров,667004,51.7053415,94.5252727
11,улица Парижских Коммунаров,667004,51.7061102,94.5255760
28,улица 2-я Серебрянка,667004,51.7039975,94.5302508
29,улица Новосёлов,667004,51.7041263,94.5271556
7,улица 26 Бакинских Комиссаров,667004,51.7066120,94.5245737
9,улица Новосёлов,667004,51.7060252,94.5279116
12,улица Сибиряков-Гвардейцев,667004,51.7055417,94.5296761
30,улица 2-я Серебрянка,667004,51.7038151,94.5302131
32,улица 2-я Серебрянка,667004,51.7036115,94.5301179
27,улица Новосёлов,667004,51.7043433,94.5272647
19,улица Сибиряков-Гвардейцев,667004,51.7048186,94.5298098
12,Сумонная улица,667004,51.7059775,94.5262651
30,улица Сибиряков-Гвардейцев,667004,51.7039188,94.5290277
29,улица 26 Бакинских Комиссаров,667004,51.7045658,94.5238026
33,улица 26 Бакинских Комиссаров,667004,51.7042110,94.5237057
2,улица Сибиряков-Гвардейцев,667004,51.7064949,94.5300232
20,Целинная улица,667004,51.7049748,94.5282216
26,Сумонная улица,667004,51.7047054,94.5257649
3,Целинная улица,667004,51.7063738,94.5292448
1,улица 26 Бакинских Комиссаров,667004,51.7071789,94.5247652
5,Сумонная улица,667004,51.7065133,94.5269308
21,Сумонная улица,667004,51.7045064,94.5261053
1,Сумонная улица,667004,51.7068682,94.5271824
11,Сумонная улица,667004,51.7059601,94.5266618
18,улица Новосёлов,667004,51.7052822,94.5268527
28,Целинная улица,667004,51.7042142,94.5279269
6,улица Парижских Коммунаров,667004,51.7067179,94.5253666
7,улица Парижских Коммунаров,667004,51.7064840,94.5257062
6,улица Сибиряков-Гвардейцев,667004,51.7060680,94.5298853
16,улица 2-я Серебрянка,667004,51.7050602,94.5306023
3,улица Сибиряков-Гвардейцев,667004,51.7062495,94.5303396
31,улица 26 Бакинских Комиссаров,667004,51.7044319,94.5237823
6,улица 2-я Серебрянка,667004,51.7059974,94.5310241
18,Сумонная улица,667004,51.7054293,94.5260431
4,Целинная улица,667004,51.7064140,94.5288154
24,Сумонная улица,667004,51.7048847,94.5258376
4,улица 2-я Серебрянка,667004,51.7061408,94.5310679
9,Целинная улица,667004,51.7058819,94.5290537
4,улица Новосёлов,667004,51.7065700,94.5276628
8,Целинная улица,667004,51.7060677,94.5286924
19,улица Новосёлов,667004,51.7050549,94.5275396
26,улица Парижских Коммунаров,667004,51.7048604,94.5246913
22,улица Новосёлов,667004,51.7043388,94.5268027
6,Целинная улица,667004,51.7062435,94.5287595
10,Целинная улица,667004,51.7058765,94.5286188
13,улица 26 Бакинских Комиссаров,667004,51.7060752,94.5243422
18,Целинная улица,667004,51.7051454,94.5283267
8,улица Новосёлов,667004,51.7061993,94.5275431
16,Целинная улица,667004,51.7053879,94.5284070
20,улица 2-я Серебрянка,667004,51.7046795,94.5305379
29,улица Сибиряков-Гвардейцев,667004,51.7038204,94.5294665
14,улица Парижских Коммунаров,667004,51.7059651,94.5250805
16,Сумонная улица,667004,51.7056085,94.5261379
1,улица Сибиряков-Гвардейцев,667004,51.7064447,94.5304465
20,улица Парижских Коммунаров,667004,51.7054071,94.5248812
7,Сумонная улица,667004,51.7063079,94.5268477
7,улица Новосёлов,667004,51.7062015,94.5279747
25,Целинная улица,667004,51.7044607,94.5284877
6,улица Новосёлов,667004,51.7064191,94.5276272
13,улица Сибиряков-Гвардейцев,667004,51.7053739,94.5300408
8,Сумонная улица,667004,51.7063447,94.5264062
17,Целинная улица,667004,51.7050957,94.5287299
17,улица Новосёлов,667004,51.7052493,94.5276358
29,улица Парижских Коммунаров,667004,51.7041428,94.5248103
15,улица Сибиряков-Гвардейцев,667004,51.7051591,94.5299477
2,улица Парижских Коммунаров,667004,51.7070952,94.5254942
4,улица Сибиряков-Гвардейцев,667004,51.7062725,94.5299647
22,улица Сибиряков-Гвардейцев,667004,51.7046630,94.5293195
21,улица 26 Бакинских Комиссаров,667004,51.7052688,94.5240675
22,Сумонная улица,667004,51.7050675,94.5259008
23,Целинная улица,667004,51.7045658,94.5285376
11,Целинная улица,667004,51.7056581,94.5289465
27,Целинная улица,667004,51.7042314,94.5284058
7,улица Сибиряков-Гвардейцев,667004,51.7058918,94.5302449
10,улица Сибиряков-Гвардейцев,667004,51.7057563,94.5297711
14,улица 2-я Серебрянка,667004,51.7052513,94.5307427
17,улица Сибиряков-Гвардейцев,667004,51.7049942,94.5299122
24,улица 2-я Серебрянка,667004,51.7043111,94.5303669
29,Целинная улица,667004,51.7040213,94.5283027
5,улица 26 Бакинских Комиссаров,667004,51.7068096,94.5246403
10,улица Новосёлов,667004,51.7060579,94.5275064
12,улица 2-я Серебрянка,667004,51.7054181,94.5307703
20,улица Сибиряков-Гвардейцев,667004,51.7048337,94.5293773
20,Сумонная улица,667004,51.7052230,94.5259650
22,улица 2-я Серебрянка,667004,51.7044982,94.5304699
23,улица 26 Бакинских Комиссаров,667004,51.7051003,94.5240140
16,улица Новосёлов,667004,51.7055496,94.5272794
10,Сумонная улица,667004,51.7061562,94.5263322
26,Целинная улица,667004,51.7043980,94.5280110
2,улица 2-я Серебрянка,667004,51.7063806,94.5311368
5,улица Парижских Коммунаров,667004,51.7066564,94.5257541
21,улица Сибиряков-Гвардейцев,667004,51.7046505,94.5297694
19,улица 26 Бакинских Комиссаров,667004,51.7054924,94.5241446
15,улица 26 Бакинских Комиссаров,667004,51.7058792,94.5242764
14,улица Сибиряков-Гвардейцев,667004,51.7053774,94.5296086
19,Целинная улица,667004,51.7049345,94.5286834
13,Целинная улица,667004,51.7055062,94.5289122
18,улица 2-я Серебрянка,667004,51.7049126,94.5305982
11,улица 26 Бакинских Комиссаров,667004,51.7062207,94.5244185
23,улица Новосёлов,667004,51.7047455,94.5274144
23,улица Сибиряков-Гвардейцев,667004,51.7044386,94.5296673
9,улица Парижских Коммунаров,667004,51.7063043,94.5256559
19,улица Парижских Коммунаров,667004,51.7055349,94.5253601
28,Сумонная улица,667004,51.7044817,94.5256928
2,Целинная улица,667004,51.7066489,94.5288364
25,улица Новосёлов,667004,51.7045502,94.5273411
9,улица Сибиряков-Гвардейцев,667004,51.7057350,94.5301428
15,Целинная улица,667004,51.7052966,94.5288417
9,улица 26 Бакинских Комиссаров,667004,51.7064348,94.5244989
4,Сумонная улица,667004,51.7067370,94.5265379
26,улица 2-я Серебрянка,667004,51.7041445,94.5303407
25,улица 26 Бакинских Комиссаров,667004,51.7049401,94.5239541
31,улица Сибиряков-Гвардейцев,667004,51.7036412,94.5294205
27,улица Парижских Коммунаров,667004,51.7044572,94.5249171
14,улица Новосёлов,667004,51.7056988,94.5273489
31,Целинная улица,667004,51.7040669,94.5278866
23,улица Парижских Коммунаров,667004,51.7049708,94.5251635
11,улица Новосёлов,667004,51.7058272,94.5278600
5,улица Новосёлов,667004,51.7063809,94.5280587
25,улица Сибиряков-Гвардейцев,667004,51.7042350,94.5296288
8,улица 2-я Серебрянка,667004,51.7058421,94.5309850
16,улица Парижских Коммунаров,667004,51.7057703,94.5250056
12,улица Новосёлов,667004,51.7058580,94.5273832
7,Целинная улица,667004,51.7060166,94.5290945
5,Целинная улица,667004,51.7062308,94.5291854
8,улица Сибиряков-Гвардейцев,667004,51.7059263,94.5298260
24,улица Сибиряков-Гвардейцев,667004,51.7044841,94.5293041
3,улица Новосёлов,667004,51.7065441,94.5281051
5,улица Сибиряков-Гвардейцев,667004,51.7060803,94.5303086
2В,Колхозная улица,667004,51.7030464,94.5490612
2 к4,улица Героя России Владимира Жоги,667008,51.7005568,94.4705503
2 к1,улица Героя России Владимира Жоги,667008,51.7008542,94.4699066
2 к5,улица Героя России Владимира Жоги,667008,51.7006458,94.4715968
2 к2,улица Героя России Владимира Жоги,667008,51.7009474,94.4709407
60,улица Семирацкого,667005,51.7084421,94.4016865
2 к3,улица Героя России Владимира Жоги,667008,51.7004604,94.4695290
8,улица Калинина,667003,51.7063729,94.4291374
59,улица Щетинкина-Кравченко,667000,51.7211821,94.4362766
2А,улица Дружбы,667001,51.7154363,94.4977736
108,Малоенисейская улица,667001,51.7181999,94.4877175
56,Колхозная улица,667004,51.7093520,94.5211542
62,Колхозная улица,667004,51.7099115,94.5174938
54,Колхозная улица,667004,51.7080757,94.5236500
54А,Колхозная улица,667004,51.7087065,94.5235022
35/3,Эрзинская улица,667008,51.6924439,94.4840131
46,улица Дружбы,667001,51.7181214,94.4734382
59А,улица Семирацкого,667005,51.7073472,94.3996474
8,Свободная улица,667901,51.6986305,94.5469346
9,12-я линия,667008,51.6988573,94.4909064
8,13-я линия,667008,51.6988512,94.4915837
10,13-я линия,667008,51.6986112,94.4915893
13,12-я линия,667008,51.6984309,94.4909272
16А,13-я линия,667008,51.6976595,94.4916091
15,12-я линия,667008,51.6978402,94.4908901
6,12-я линия,667008,51.6988159,94.4903844
6А,12-я линия,667008,51.6989657,94.4902298
9А,11-я линия,667001,51.6986079,94.4898442
11,11-я линия,667001,51.6982547,94.4898261
8,12-я линия,667008,51.6981221,94.4903135
10А,12-я линия,667008,51.6978702,94.4904792
2,11-я линия,667001,51.6996134,94.4894154
4,11-я линия,667001,51.6991600,94.4892256
6,11-я линия,667001,51.6988480,94.4894312
55А,9-я линия,667008,51.6988230,94.4883339
55Б,Звёздная улица,667008,51.6988625,94.4879806
1,9-я линия,667008,51.6985294,94.4876952
12А,11-я линия,667001,51.6978290,94.4893747
6,улица Животноводов,667008,51.6975618,94.4886080
8,улица Животноводов,667008,51.6976133,94.4881992
8А,улица Животноводов,667008,51.6976470,94.4879030
2Б,9-я линия,667008,51.6979592,94.4870306
1Д,улица Ензаны Пала,667008,51.6984582,94.4864920
2А,улица Ензаны Пала,667008,51.6976142,94.4856809
1,7-я линия,667008,51.6975764,94.4849713
67А,Звёздная улица,667008,51.6985379,94.4843253
37,14-я линия,667008,51.6949175,94.4934570
36,15-я линия,667008,51.6950807,94.4940379
35,14-я линия,667008,51.6951375,94.4934612
34,15-я линия,667008,51.6953019,94.4940415
33,14-я линия,667008,51.6954530,94.4934583
32,15-я линия,667008,51.6956899,94.4940711
31,14-я линия,667008,51.6956605,94.4934452
30,15-я линия,667008,51.6959517,94.4940600
29,14-я линия,667008,51.6959471,94.4934505
27,14-я линия,667008,51.6960747,94.4935634
28,15-я линия,667008,51.6962891,94.4940639
25А,14-я линия,667008,51.6963914,94.4934202
26,15-я линия,667008,51.6965260,94.4940352
25,14-я линия,667008,51.6965692,94.4934429
23,14-я линия,667008,51.6967439,94.4934578
21,14-я линия,667008,51.6971172,94.4936006
32,14-я линия,667008,51.6950315,94.4930890
33,13-я линия,667008,51.6950552,94.4924788
30,14-я линия,667008,51.6952747,94.4930561
28,14-я линия,667008,51.6955103,94.4930311
31,13-я линия,667008,51.6954425,94.4923997
26,14-я линия,667008,51.6957537,94.4928681
29,13-я линия,667008,51.6957044,94.4924345
27,13-я линия,667008,51.6960520,94.4925729
22,14-я линия,667008,51.6961694,94.4930786
27А,13-я линия,667008,51.6962655,94.4925861
25,13-я линия,667008,51.6965441,94.4923907
18,14-я линия,667008,51.6967210,94.4927953
19,13-я линия,667008,51.6968558,94.4921265
18/1,14-я линия,667008,51.6969921,94.4930595
17,13-я линия,667008,51.6970589,94.4921382
14,14-я линия,667008,51.6972660,94.4930271
15,13-я линия,667008,51.6972836,94.4920830
39А,12-я линия,667008,51.6949001,94.4910493
39,12-я линия,667008,51.6950248,94.4910057
30,13-я линия,667008,51.6958524,94.4916824
28,13-я линия,667008,51.6959587,94.4915721
24,13-я линия,667008,51.6964932,94.4916535
25,12-я линия,667008,51.6966088,94.4909128
23,12-я линия,667008,51.6968945,94.4908434
20А,13-я линия,667008,51.6969462,94.4916384
20,13-я линия,667008,51.6971495,94.4916138
22,12-я линия,667008,51.6956396,94.4905510
34А,13-я линия,667008,51.6948412,94.4902331
35,11-я линия,667001,51.6956052,94.4898876
18,12-я линия,667008,51.6959827,94.4904523
14,12-я линия,667008,51.6966055,94.4905168
25,11-я линия,667001,51.6966907,94.4897883
12,12-я линия,667008,51.6968503,94.4904665
23,11-я линия,667001,51.6968841,94.4897800
19,11-я линия,667001,51.6971970,94.4896679
19А,10-я линия,667008,51.6949917,94.4892879
21,10-я линия,667008,51.6950798,94.4888198
19,10-я линия,667008,51.6951791,94.4890934
7А,10-я линия,667008,51.6959642,94.4888682
7,10-я линия,667008,51.6962591,94.4886756
5,10-я линия,667008,51.6967058,94.4887449
3,10-я линия,667008,51.6969413,94.4886044
1,10-я линия,667008,51.6972441,94.4885812
7,9-я линия,667008,51.6971230,94.4875675
8,10-я линия,667008,51.6965175,94.4882933
10,10-я линия,667008,51.6964141,94.4883236
17,9-я линия,667008,51.6960356,94.4876783
22,10-я линия,667008,51.6952005,94.4883817
25,9-я линия,667008,51.6951415,94.4876512
24,10-я линия,667008,51.6949001,94.4884093
7,улица Ензаны Пала,667008,51.6963233,94.4863024
17,улица Ензаны Пала,667008,51.6951109,94.4864841
18,улица Ензаны Пала,667008,51.6946877,94.4854266
16,улица Ензаны Пала,667008,51.6949100,94.4856885
19/2,7-я линия,667008,51.6952815,94.4852137
10,улица Ензаны Пала,667008,51.6958731,94.4857598
8А,улица Ензаны Пала,667008,51.6962214,94.4856882
8,улица Ензаны Пала,667008,51.6962932,94.4854170
24,7-я линия,667008,51.6946404,94.4842270
27,6-я линия,667008,51.6948478,94.4836329
22,7-я линия,667008,51.6952040,94.4840305
23,6-я линия,667008,51.6955310,94.4834036
18,7-я линия,667008,51.6962377,94.4843846
13А,6-я линия,667008,51.6965764,94.4834465
10,7-я линия,667008,51.6971038,94.4844462
2,7-я линия,667008,51.6972627,94.4843988
25,улица Василия Брагина,667008,51.6950975,94.4822653
32,6-я линия,667008,51.6946484,94.4827944
27,улица Василия Брагина,667008,51.6947427,94.4824144
28А,6-я линия,667008,51.6948718,94.4828926
23,улица Василия Брагина,667008,51.6952871,94.4822282
26,6-я линия,667008,51.6953728,94.4828929
22,6-я линия,667008,51.6958750,94.4829474
19,улица Василия Брагина,667008,51.6958298,94.4823375
12,6-я линия,667008,51.6966587,94.4829623
9,улица Василия Брагина,667008,51.6974446,94.4821965
20,улица Животноводов,667008,51.6977969,94.4841500
5,улица Василия Брагина,667008,51.6980564,94.4821672
47А,Звёздная улица,667008,51.6981026,94.4829415
45А,Звёздная улица,667008,51.6981366,94.4831373
43А,Звёздная улица,667008,51.6981715,94.4835766
47,Звёздная улица,667008,51.6985473,94.4827987
2А,Эрзинская улица,667008,51.6946592,94.4811201
2Б/1,Эрзинская улица,667008,51.6946021,94.4804820
22,улица Василия Брагина,667008,51.6951562,94.4816179
16,улица Василия Брагина,667008,51.6961648,94.4815749
14,улица Василия Брагина,667008,51.6963311,94.4816192
14А,улица Василия Брагина,667008,51.6963961,94.4813108
1,улица Василия Полещука,667008,51.6980471,94.4809323
2,улица Василия Брагина,667008,51.6983855,94.4814660
75,Звёздная улица,667008,51.6985476,94.4809292
10В,улица Николая Трофимова,667008,51.6962750,94.4791402
9Б,улица Николая Кабака,667008,51.6962638,94.4785876
9А,улица Николая Кабака,667008,51.6963873,94.4785991
10Б,улица Николая Трофимова,667008,51.6964704,94.4791603
9,улица Николая Кабака,667008,51.6967218,94.4785468
7Б,улица Николая Кабака,667008,51.6969048,94.4786776
10,улица Николая Трофимова,667008,51.6970231,94.4791515
7,улица Николая Кабака,667008,51.6971873,94.4784548
8,улица Николая Трофимова,667008,51.6972023,94.4791308
7А,улица Николая Кабака,667008,51.6970339,94.4784971
3,улица Николая Кабака,667008,51.6978688,94.4784615
13,улица 1-я линия,667008,51.6959016,94.4774368
17,улица 1-я линия,667008,51.6954887,94.4772733
15,улица 1-я линия,667008,51.6956816,94.4773425
12,улица Николая Кабака,667008,51.6959818,94.4780084
10,улица Николая Кабака,667008,51.6963237,94.4780260
11,улица 1-я линия,667008,51.6962703,94.4772620
9,улица 1-я линия,667008,51.6966210,94.4772693
8,улица Николая Кабака,667008,51.6966929,94.4780591
6,улица Николая Кабака,667008,51.6971018,94.4780324
7,улица 1-я линия,667008,51.6970331,94.4773283
5,улица 1-я линия,667008,51.6973831,94.4773404
28,Полигонная улица,667008,51.6973951,94.4746588
4,Полигонная улица,667008,51.6964647,94.4745221
38,Полигонная улица,667008,51.6962443,94.4745751
40,Полигонная улица,667008,51.6959755,94.4750306
44,Полигонная улица,667008,51.6956405,94.4752988
46,Полигонная улица,667008,51.6955620,94.4753057
52,Полигонная улица,667008,51.6947564,94.4753704
54,Полигонная улица,667008,51.6945937,94.4754459
24,улица 1-я линия,667008,51.6945814,94.4768201
29,Полигонная улица,667008,51.6945364,94.4763992
27,Полигонная улица,667008,51.6949001,94.4763776
25,Полигонная улица,667008,51.6952190,94.4764249
23,Полигонная улица,667008,51.6953891,94.4763244
21,Полигонная улица,667008,51.6957180,94.4763610
17,Полигонная улица,667008,51.6960165,94.4764225
12,улица 1-я линия,667008,51.6963522,94.4766076
15,Полигонная улица,667008,51.6963119,94.4762628
7,Полигонная улица,667008,51.6977796,94.4761515
28,Звёздная улица,667008,51.6992012,94.4872728
19,Осенняя улица,667008,51.6993528,94.4867331
26,Звёздная улица,667008,51.6994377,94.4873894
22,Звёздная улица,667008,51.6999333,94.4878701
20А,Звёздная улица,667008,51.7001243,94.4883352
22А,Звёздная улица,667008,51.7001341,94.4880276
20,Звёздная улица,667008,51.7002611,94.4884670
18А,Звёздная улица,667008,51.7003397,94.4885872
18,Звёздная улица,667008,51.7005818,94.4886097
17,Осенняя улица,667008,51.7007215,94.4879164
14,Звёздная улица,667008,51.7008846,94.4890418
16,Звёздная улица,667008,51.7007690,94.4885883
13,Осенняя улица,667008,51.7009418,94.4884958
12,Звёздная улица,667008,51.7011854,94.4891622
10,Звёздная улица,667008,51.7014119,94.4892225
8А,Звёздная улица,667008,51.7017947,94.4888337
8,Звёздная улица,667008,51.7016227,94.4889859
6,Звёздная улица,667008,51.7019359,94.4888223
4,Звёздная улица,667008,51.7022626,94.4888786
2,Звёздная улица,667008,51.7024256,94.4890569
16,Осенняя улица,667008,51.7007911,94.4873970
17А,Летняя улица,667008,51.7002163,94.4867274
17,Летняя улица,667008,51.7005077,94.4867247
15,Летняя улица,667008,51.7008338,94.4868522
13,Летняя улица,667008,51.7010512,94.4867765
11,Летняя улица,667008,51.7012902,94.4868496
9,Летняя улица,667008,51.7014153,94.4867745
6,Осенняя улица,667008,51.7020465,94.4874343
7,Летняя улица,667008,51.7017302,94.4869045
5,Летняя улица,667008,51.7019348,94.4868616
3,Летняя улица,667008,51.7021459,94.4868374
1,Летняя улица,667008,51.7023764,94.4872371
2,Летняя улица,667008,51.7024908,94.4863104
4,Летняя улица,667008,51.7021795,94.4862547
6,Летняя улица,667008,51.7019289,94.4863533
8,Летняя улица,667008,51.7017843,94.4860985
10,Летняя улица,667008,51.7015665,94.4862896
12,Летняя улица,667008,51.7012062,94.4863338
14,Летняя улица,667008,51.7010724,94.4863326
16,Летняя улица,667008,51.7008334,94.4861274
18,Летняя улица,667008,51.7005721,94.4862461
20,Летняя улица,667008,51.7002636,94.4861890
22,Летняя улица,667008,51.6999864,94.4862930
24,Летняя улица,667008,51.6997126,94.4861233
26,Летняя улица,667008,51.6994462,94.4862769
28,Летняя улица,667008,51.6993265,94.4862587
30,Летняя улица,667008,51.6991370,94.4860268
27,Радужная улица,667008,51.6992824,94.4853133
25,Радужная улица,667008,51.6996382,94.4853669
23,Радужная улица,667008,51.6998921,94.4854273
21,Радужная улица,667008,51.7000023,94.4853883
19,Радужная улица,667008,51.7002441,94.4854260
17,Радужная улица,667008,51.7005720,94.4854246
15,Радужная улица,667008,51.7007644,94.4853629
13,Радужная улица,667008,51.7009610,94.4854347
11,Радужная улица,667008,51.7013242,94.4854374
9,Радужная улица,667008,51.7015835,94.4855614
7,Радужная улица,667008,51.7016995,94.4853857
5,Радужная улица,667008,51.7020265,94.4853938
3,Радужная улица,667008,51.7021720,94.4854065
1,Радужная улица,667008,51.7024907,94.4855158
30,Радужная улица,667008,51.6991290,94.4848264
28,Радужная улица,667008,51.6993739,94.4847716
23,Небесная улица,667008,51.6994071,94.4840808
26,Радужная улица,667008,51.6995262,94.4847430
21,Небесная улица,667008,51.6996302,94.4839944
24,Радужная улица,667008,51.6998834,94.4848694
19,Небесная улица,667008,51.6998513,94.4839990
22,Радужная улица,667008,51.6999985,94.4845864
17,Небесная улица,667008,51.7000729,94.4838864
15,Небесная улица,667008,51.7003089,94.4839461
20,Радужная улица,667008,51.7002437,94.4848419
18,Радужная улица,667008,51.7005666,94.4848445
16,Радужная улица,667008,51.7007595,94.4848983
9,Небесная улица,667008,51.7009783,94.4839261
14,Радужная улица,667008,51.7010533,94.4848655
12,Радужная улица,667008,51.7012731,94.4845495
5,Небесная улица,667008,51.7014385,94.4840372
10,Радужная улица,667008,51.7015711,94.4848386
8,Радужная улица,667008,51.7018021,94.4848827
3,Небесная улица,667008,51.7018092,94.4840513
1,Небесная улица,667008,51.7019583,94.4840258
6,Радужная улица,667008,51.7020823,94.4847493
2А,Небесная улица,667008,51.7022034,94.4830834
2,Небесная улица,667008,51.7019767,94.4834881
4,Небесная улица,667008,51.7018345,94.4834351
6,Небесная улица,667008,51.7016076,94.4834216
8,Небесная улица,667008,51.7012590,94.4834646
10,Небесная улица,667008,51.7010736,94.4834096
12,Небесная улица,667008,51.7008426,94.4834810
16,Небесная улица,667008,51.7003876,94.4833371
18,Небесная улица,667008,51.7000370,94.4834002
20,Небесная улица,667008,51.6998811,94.4832784
22,Небесная улица,667008,51.6996286,94.4833875
24,Небесная улица,667008,51.6993030,94.4833664
26,Небесная улица,667008,51.6990663,94.4834042
29А,Взлётная улица,667008,51.6990459,94.4824560
29,Взлётная улица,667008,51.6991681,94.4824588
27,Взлётная улица,667008,51.6993020,94.4824466
25,Взлётная улица,667008,51.6995945,94.4824567
23/1,Взлётная улица,667008,51.6998173,94.4825188
23,Взлётная улица,667008,51.6999058,94.4825053
19А,Взлётная улица,667008,51.7000800,94.4827437
19,Взлётная улица,667008,51.7003656,94.4825124
17,Взлётная улица,667008,51.7005370,94.4825275
15,Взлётная улица,667008,51.7007761,94.4824782
13,Взлётная улица,667008,51.7010961,94.4824829
11,Взлётная улица,667008,51.7012690,94.4825091
9,Взлётная улица,667008,51.7015736,94.4825110
7,Взлётная улица,667008,51.7018259,94.4824829
5,Взлётная улица,667008,51.7019521,94.4825264
3,Взлётная улица,667008,51.7021536,94.4826351
2,Взлётная улица,667008,51.7023832,94.4820081
6,Взлётная улица,667008,51.7019650,94.4820289
10,Взлётная улица,667008,51.7014325,94.4820485
12,Взлётная улица,667008,51.7012924,94.4820231
14,Взлётная улица,667008,51.7010798,94.4820222
16,Взлётная улица,667008,51.7008442,94.4819841
18,Взлётная улица,667008,51.7006207,94.4819840
20,Взлётная улица,667008,51.6998929,94.4820479
18Б,Взлётная улица,667008,51.6999793,94.4818746
24,Взлётная улица,667008,51.6993306,94.4816433
26,Взлётная улица,667008,51.6990318,94.4816221
29,Убсу-Нурская улица,667008,51.6991225,94.4811478
27,Убсу-Нурская улица,667008,51.6994262,94.4810962
25,Убсу-Нурская улица,667008,51.6995280,94.4810861
23,Убсу-Нурская улица,667008,51.6998856,94.4810509
19/1,Убсу-Нурская улица,667008,51.7002152,94.4810830
17,Убсу-Нурская улица,667008,51.7004932,94.4810662
15,Убсу-Нурская улица,667008,51.7007116,94.4811710
13,Убсу-Нурская улица,667008,51.7008567,94.4810895
11,Убсу-Нурская улица,667008,51.7011837,94.4810614
9,Убсу-Нурская улица,667008,51.7016127,94.4811512
7,Убсу-Нурская улица,667008,51.7017066,94.4810647
5,Убсу-Нурская улица,667008,51.7019787,94.4810665
3,Убсу-Нурская улица,667008,51.7022207,94.4810607
1,Убсу-Нурская улица,667008,51.7024977,94.4810733
1Б,Эрзинская улица,667008,51.6940994,94.4946282
1А,Эрзинская улица,667008,51.6944930,94.4943640
3,Эрзинская улица,667008,51.6944953,94.4932808
5,Эрзинская улица,667008,51.6945556,94.4925150
9,Эрзинская улица,667008,51.6943371,94.4919284
11,Эрзинская улица,667008,51.6945588,94.4917018
9А,Эрзинская улица,667008,51.6945875,94.4911585
19А,Эрзинская улица,667008,51.6945875,94.4901848
19,Эрзинская улица,667008,51.6945793,94.4899421
25,Эрзинская улица,667008,51.6945780,94.4884756
27Б,Эрзинская улица,667008,51.6940624,94.4877874
35/6,Эрзинская улица,667008,51.6931993,94.4861146
35/2,Эрзинская улица,667008,51.6940314,94.4787993
35,Эрзинская улица,667008,51.6938796,94.4783807
35Б,Полигонная улица,667008,51.6931515,94.4773404
41,Полигонная улица,667008,51.6922239,94.4771065
37,Полигонная улица,667008,51.6926180,94.4771131
35,Полигонная улица,667008,51.6929103,94.4767858
35А,Полигонная улица,667008,51.6932183,94.4766891
49А,Эрзинская улица,667008,51.6938701,94.4766149
49,Эрзинская улица,667008,51.6939697,94.4771564
60,Полигонная улица,667008,51.6935235,94.4756647
51,Эрзинская улица,667008,51.6936976,94.4751539
2В,Эрзинская улица,667008,51.6945626,94.4794452
2Г,Эрзинская улица,667008,51.6945981,94.4791888
2Д,Эрзинская улица,667008,51.6945459,94.4785042
19,улица Николая Кабака,667008,51.6945278,94.4781511
21,улица 1-я линия,667008,51.6945156,94.4773291
1Е,Звёздная улица,667008,51.6995965,94.5013675
1В,Звёздная улица,667008,51.6995460,94.5001786
1А,Звёздная улица,667008,51.6995194,94.4998907
3А,Звёздная улица,667008,51.6993766,94.4994165
1,Звёздная улица,667008,51.6995971,94.4992350
3,Звёздная улица,667008,51.6996045,94.4985044
11,Звёздная улица,667008,51.6995969,94.4983735
13,Звёздная улица,667008,51.6995998,94.4979196
15,Звёздная улица,667008,51.6993472,94.4977210
3А,18-я линия,667008,51.6992229,94.4980632
4,19-я линия,667008,51.6991147,94.4986674
5А,Звёздная улица,667008,51.6991067,94.4989757
3Б,18-я линия,667008,51.6988795,94.4979777
7,18-я линия,667008,51.6990202,94.4972548
4,18-я линия,667008,51.6991819,94.4972645
2,18-я линия,667008,51.6993980,94.4972760
17,Звёздная улица,667008,51.6995944,94.4972702
19А,Звёздная улица,667008,51.6996001,94.4968309
21,Звёздная улица,667008,51.6994925,94.4964036
1,17-я линия,667008,51.6993853,94.4965289
2Г,18-я линия,667008,51.6993035,94.4968507
4А,18-я линия,667008,51.6990481,94.4968261
3,17-я линия,667008,51.6989480,94.4965665
6,18-я линия,667008,51.6987181,94.4968405
5А,17-я линия,667008,51.6987372,94.4964233
7,17-я линия,667008,51.6984315,94.4964303
8,18-я линия,667008,51.6984498,94.4967139
9,17-я линия,667008,51.6983514,94.4965664
13,17-я линия,667008,51.6978861,94.4965300
11,17-я линия,667008,51.6980061,94.4964691
10,18-я линия,667008,51.6980357,94.4968497
2А,17-я линия,667008,51.6993126,94.4958765
2,17-я линия,667008,51.6991940,94.4960201
4,17-я линия,667008,51.6990365,94.4960429
6,17-я линия,667008,51.6987233,94.4960482
8,17-я линия,667008,51.6984620,94.4960616
10,17-я линия,667008,51.6982437,94.4961002
12,17-я линия,667008,51.6980740,94.4958705
14,17-я линия,667008,51.6978133,94.4959954
15,16-я линия,667008,51.6976256,94.4954795
13,16-я линия,667008,51.6980356,94.4954109
11,16-я линия,667008,51.6982778,94.4953772
9,16-я линия,667008,51.6983720,94.4953870
7,16-я линия,667008,51.6985927,94.4953667
5,16-я линия,667008,51.6987836,94.4954009
1,16-я линия,667008,51.6992006,94.4953268
23,Звёздная улица,667008,51.6995753,94.4958478
1А,16-я линия,667008,51.6994948,94.4954434
2/1,16-я линия,667008,51.6994387,94.4950061
2,16-я линия,667008,51.6992269,94.4949196
4,16-я линия,667008,51.6988038,94.4949742
6,16-я линия,667008,51.6985140,94.4949008
8,16-я линия,667008,51.6983602,94.4949622
10,16-я линия,667008,51.6979630,94.4950082
12,16-я линия,667008,51.6975876,94.4948646
15,15-я линия,667008,51.6976644,94.4945981
11,15-я линия,667008,51.6981121,94.4945785
9,15-я линия,667008,51.6982378,94.4946031
7,15-я линия,667008,51.6986015,94.4945662
5,15-я линия,667008,51.6987963,94.4945487
3,15-я линия,667008,51.6992243,94.4946454
1А,15-я линия,667008,51.6993338,94.4947231
1,15-я линия,667008,51.6995895,94.4946152
14,15-я линия,667008,51.6981802,94.4940850
16,15-я линия,667008,51.6979376,94.4940834
18,15-я линия,667008,51.6976873,94.4941103
19,14-я линия,667008,51.6976701,94.4933900
17,14-я линия,667008,51.6979234,94.4934236
15,14-я линия,667008,51.6981636,94.4933731
13,14-я линия,667008,51.6983519,94.4935876
12,15-я линия,667008,51.6983774,94.4940477
10,15-я линия,667008,51.6986766,94.4939823
11,14-я линия,667008,51.6985501,94.4933836
9,14-я линия,667008,51.6987719,94.4936659
8,15-я линия,667008,51.6987896,94.4941087
7,14-я линия,667008,51.6990505,94.4933851
5,14-я линия,667008,51.6991764,94.4933995
6,15-я линия,667008,51.6991007,94.4939988
4,15-я линия,667008,51.6992776,94.4940895
3,14-я линия,667008,51.6993095,94.4934320
2,15-я линия,667008,51.6995941,94.4939596
27А,Звёздная улица,667008,51.6995991,94.4936349
27,Звёздная улица,667008,51.6994938,94.4934113
1,14-я линия,667008,51.6996025,94.4932276
2А,14-я линия,667008,51.6993174,94.4929663
2,14-я линия,667008,51.6991648,94.4930173
4,14-я линия,667008,51.6989304,94.4930179
6,14-я линия,667008,51.6985763,94.4929710
8,14-я линия,667008,51.6984329,94.4930072
10,14-я линия,667008,51.6982431,94.4929696
12,14-я линия,667008,51.6978775,94.4929853
12А,14-я линия,667008,51.6976648,94.4927822
13,13-я линия,667008,51.6976527,94.4921899
11,13-я линия,667008,51.6979733,94.4921389
9,13-я линия,667008,51.6982209,94.4921670
7,13-я линия,667008,51.6984097,94.4923521
5,13-я линия,667008,51.6985881,94.4923496
3А,13-я линия,667008,51.6989146,94.4921308
1,13-я линия,667008,51.6993372,94.4921262
2Б,14-я линия,667008,51.6995715,94.4926283
1А,13-я линия,667008,51.6995238,94.4921485
3,13-я линия,667008,51.6991856,94.4921037
4,13-я линия,667008,51.6992209,94.4915714
2А,13-я линия,667008,51.6993859,94.4915644
59,Целинная улица,667004,51.7001427,94.5268657
39А,Паротурбинная улица,667004,51.6983553,94.5381072
63/1,Паротурбинная улица,667004,51.6969083,94.5369411
87Б,Паротурбинная улица,667004,51.6949159,94.5356734
87А,Паротурбинная улица,667004,51.6950203,94.5354314
87,Паротурбинная улица,667004,51.6950381,94.5347970
83,Паротурбинная улица,667004,51.6951574,94.5348862
81,Паротурбинная улица,667004,51.6953519,94.5349657
79,Паротурбинная улица,667004,51.6954739,94.5351299
77,Паротурбинная улица,667004,51.6956728,94.5351360
75,Паротурбинная улица,667004,51.6958388,94.5352225
73,Паротурбинная улица,667004,51.6960348,94.5353432
71,Паротурбинная улица,667004,51.6962154,94.5354820
69,Паротурбинная улица,667004,51.6963314,94.5357177
67А,Паротурбинная улица,667004,51.6966229,94.5357251
67,Паротурбинная улица,667004,51.6968106,94.5358502
65,Паротурбинная улица,667004,51.6969191,94.5358710
63,Паротурбинная улица,667004,51.6971117,94.5360204
61,Паротурбинная улица,667004,51.6972943,94.5361190
59,Паротурбинная улица,667004,51.6974564,94.5362833
57,Паротурбинная улица,667004,51.6976454,94.5363289
55,Паротурбинная улица,667004,51.6979182,94.5365374
53,Паротурбинная улица,667004,51.6980358,94.5365331
51,Паротурбинная улица,667004,51.6982189,94.5366642
49,Паротурбинная улица,667004,51.6983693,94.5367788
47,Паротурбинная улица,667004,51.6985471,94.5368884
45А,Паротурбинная улица,667004,51.6987870,94.5371648
45,Паротурбинная улица,667004,51.6988799,94.5371037
43,Паротурбинная улица,667004,51.6991098,94.5372432
41,Паротурбинная улица,667004,51.6993195,94.5373450
19/2,Паротурбинная улица,667004,51.7013463,94.5386910
39,Паротурбинная улица,667004,51.6997523,94.5375587
37,Паротурбинная улица,667004,51.6998928,94.5376170
35,Паротурбинная улица,667004,51.7000833,94.5376572
33,Паротурбинная улица,667004,51.7003066,94.5377743
31,Паротурбинная улица,667004,51.7004606,94.5378081
29,Паротурбинная улица,667004,51.7006435,94.5378886
27,Паротурбинная улица,667004,51.7008398,94.5380023
25А,Паротурбинная улица,667004,51.7010868,94.5380476
25,Паротурбинная улица,667004,51.7013525,94.5381227
23,Паротурбинная улица,667004,51.7015306,94.5381965
24,Паротурбинная улица,667004,51.7015713,94.5377026
26,Паротурбинная улица,667004,51.7014607,94.5375158
28,Паротурбинная улица,667004,51.7011593,94.5375815
30,Паротурбинная улица,667004,51.7009817,94.5374992
28Б,Паротурбинная улица,667004,51.7007555,94.5374236
32А,Паротурбинная улица,667004,51.7005942,94.5373994
32,Паротурбинная улица,667004,51.7003721,94.5372986
34,Паротурбинная улица,667004,51.7001731,94.5372057
36,Паротурбинная улица,667004,51.6999757,94.5371607
38,Паротурбинная улица,667004,51.6997699,94.5370866
40,Паротурбинная улица,667004,51.6994013,94.5369103
42,Паротурбинная улица,667004,51.6991415,94.5367741
44,Паротурбинная улица,667004,51.6989851,94.5367011
46А,Паротурбинная улица,667004,51.6988477,94.5366230
48,Паротурбинная улица,667004,51.6986268,94.5364526
50,Паротурбинная улица,667004,51.6984745,94.5363839
52,Паротурбинная улица,667004,51.6982875,94.5362894
54,Паротурбинная улица,667004,51.6981212,94.5361847
56,Паротурбинная улица,667004,51.6979771,94.5360064
58,Паротурбинная улица,667004,51.6977220,94.5358887
60,Паротурбинная улица,667004,51.6975030,94.5357871
62,Паротурбинная улица,667004,51.6974436,94.5355725
64,Паротурбинная улица,667004,51.6971724,94.5355591
66,Паротурбинная улица,667004,51.6969953,94.5354105
68,Паротурбинная улица,667004,51.6968835,94.5352359
70,Паротурбинная улица,667004,51.6965603,94.5352191
72,Паротурбинная улица,667004,51.6963885,94.5350850
74,Паротурбинная улица,667004,51.6961811,94.5349841
76,Паротурбинная улица,667004,51.6960220,94.5349020
78,Паротурбинная улица,667004,51.6958170,94.5347685
80,Паротурбинная улица,667004,51.6956290,94.5346411
82,Паротурбинная улица,667004,51.6954982,94.5345512
84,Паротурбинная улица,667004,51.6953014,94.5344564
86,Паротурбинная улица,667004,51.6951690,94.5343953
87,Геологическая улица,667004,51.6953098,94.5337949
85,Геологическая улица,667004,51.6955309,94.5337272
83,Геологическая улица,667004,51.6956424,94.5340071
81,Геологическая улица,667004,51.6958698,94.5339968
79,Геологическая улица,667004,51.6960940,94.5343317
77,Геологическая улица,667004,51.6962073,94.5341976
75,Геологическая улица,667004,51.6963943,94.5343173
73,Геологическая улица,667004,51.6965881,94.5344266
71,Геологическая улица,667004,51.6967691,94.5345305
69,Геологическая улица,667004,51.6969471,94.5346224
67,Геологическая улица,667004,51.6971425,94.5347548
65,Геологическая улица,667004,51.6974101,94.5349258
63,Геологическая улица,667004,51.6974847,94.5349754
61,Геологическая улица,667004,51.6976524,94.5350512
59,Геологическая улица,667004,51.6979220,94.5353912
57,Геологическая улица,667004,51.6980502,94.5353174
55,Геологическая улица,667004,51.6982273,94.5354015
53,Геологическая улица,667004,51.6983872,94.5355403
51,Геологическая улица,667004,51.6985568,94.5358270
49,Геологическая улица,667004,51.6987802,94.5357730
47,Геологическая улица,667004,51.6989192,94.5358515
45,Геологическая улица,667004,51.6990769,94.5359474
43,Геологическая улица,667004,51.6993055,94.5360996
41,Геологическая улица,667004,51.6995312,94.5362327
39,Геологическая улица,667004,51.6998942,94.5363557
37,Геологическая улица,667004,51.7001678,94.5364899
35,Геологическая улица,667004,51.7003954,94.5365908
33,Геологическая улица,667004,51.7005819,94.5366223
31А,Геологическая улица,667004,51.7007821,94.5366782
31,Геологическая улица,667004,51.7010178,94.5367597
29,Геологическая улица,667004,51.7011769,94.5368616
27,Геологическая улица,667004,51.7013680,94.5369072
25,Геологическая улица,667004,51.7015553,94.5369709
23,Геологическая улица,667004,51.7017703,94.5370154
80,Геологическая улица,667004,51.6959450,94.5336058
78,Геологическая улица,667004,51.6960404,94.5336491
76,Геологическая улица,667004,51.6962231,94.5337310
74,Геологическая улица,667004,51.6964172,94.5338888
72,Геологическая улица,667004,51.6966292,94.5339870
70,Геологическая улица,667004,51.6968237,94.5341298
68,Геологическая улица,667004,51.6969833,94.5342512
66,Геологическая улица,667004,51.6971772,94.5343370
64,Геологическая улица,667004,51.6973000,94.5344625
62,Геологическая улица,667004,51.6975207,94.5345177
60,Геологическая улица,667004,51.6976959,94.5346471
58,Геологическая улица,667004,51.6979201,94.5347769
56,Геологическая улица,667004,51.6981079,94.5348574
54,Геологическая улица,667004,51.6982802,94.5350089
52,Геологическая улица,667004,51.6984662,94.5350934
50,Геологическая улица,667004,51.6986325,94.5352279
48,Геологическая улица,667004,51.6987941,94.5353325
46,Геологическая улица,667004,51.6990882,94.5351709
44,Геологическая улица,667004,51.6991168,94.5355346
42,Геологическая улица,667004,51.6993244,94.5356456
40,Геологическая улица,667004,51.6995689,94.5357349
40А,Геологическая улица,667004,51.6997377,94.5358770
38А,Геологическая улица,667004,51.6999536,94.5359242
40/1,Геологическая улица,667004,51.7001280,94.5360094
38Б,Геологическая улица,667004,51.7004580,94.5361334
38В,Геологическая улица,667004,51.7006119,94.5361636
38,Геологическая улица,667004,51.7007904,94.5361918
34,Геологическая улица,667004,51.7010570,94.5363024
32,Геологическая улица,667004,51.7012447,94.5363289
30,Геологическая улица,667004,51.7014250,94.5364187
28,Геологическая улица,667004,51.7015944,94.5364801
26,Геологическая улица,667004,51.7017905,94.5365381
25,Кок-Тейская улица,667004,51.7019811,94.5359242
27,Кок-Тейская улица,667004,51.7018138,94.5358132
29,Кок-Тейская улица,667004,51.7016159,94.5357499
31,Кок-Тейская улица,667004,51.7014387,94.5357144
33,Кок-Тейская улица,667004,51.7012345,94.5356493
35,Кок-Тейская улица,667004,51.7010730,94.5355615
37,Кок-Тейская улица,667004,51.7009093,94.5354967
37А,Кок-Тейская улица,667004,51.7007781,94.5354940
39,Кок-Тейская улица,667004,51.7005309,94.5353680
39А,Кок-Тейская улица,667004,51.7002749,94.5352640
39Б,Кок-Тейская улица,667004,51.7000529,94.5352138
39В,Кок-Тейская улица,667004,51.6998469,94.5351697
41,Кок-Тейская улица,667004,51.6996724,94.5350576
43,Кок-Тейская улица,667004,51.6994643,94.5349255
45,Кок-Тейская улица,667004,51.6992413,94.5347906
47,Кок-Тейская улица,667004,51.6990657,94.5346605
49,Кок-Тейская улица,667004,51.6989128,94.5345771
51,Кок-Тейская улица,667004,51.6987498,94.5344960
53,Кок-Тейская улица,667004,51.6985605,94.5344142
55,Кок-Тейская улица,667004,51.6983895,94.5342706
57,Кок-Тейская улица,667004,51.6982467,94.5341583
59,Кок-Тейская улица,667004,51.6980433,94.5340735
61,Кок-Тейская улица,667004,51.6978625,94.5339421
63,Кок-Тейская улица,667004,51.6976585,94.5338281
65,Кок-Тейская улица,667004,51.6974914,94.5337285
67,Кок-Тейская улица,667004,51.6973658,94.5335937
69,Кок-Тейская улица,667004,51.6971602,94.5335077
71,Кок-Тейская улица,667004,51.6970474,94.5334087
73,Кок-Тейская улица,667004,51.6968189,94.5332923
75,Кок-Тейская улица,667004,51.6966154,94.5331525
77,Кок-Тейская улица,667004,51.6964176,94.5330459
79,Кок-Тейская улица,667004,51.6961151,94.5331301
72,Кок-Тейская улица,667004,51.6965316,94.5326147
70,Кок-Тейская улица,667004,51.6967918,94.5327968
68,Кок-Тейская улица,667004,51.6969395,94.5329210
66,Кок-Тейская улица,667004,51.6970915,94.5330365
64,Кок-Тейская улица,667004,51.6973490,94.5332015
62,Кок-Тейская улица,667004,51.6976470,94.5333748
60,Кок-Тейская улица,667004,51.6977873,94.5334452
58,Кок-Тейская улица,667004,51.6979109,94.5333356
58А,Кок-Тейская улица,667004,51.6980953,94.5336185
56,Кок-Тейская улица,667004,51.6982970,94.5337473
54,Кок-Тейская улица,667004,51.6984562,94.5338629
52,Кок-Тейская улица,667004,51.6986484,94.5339750
50,Кок-Тейская улица,667004,51.6988313,94.5340950
48Б,Кок-Тейская улица,667004,51.6989773,94.5341533
46А,Кок-Тейская улица,667004,51.6992187,94.5342834
44А,Кок-Тейская улица,667004,51.6993334,94.5343877
40А,Кок-Тейская улица,667004,51.6999179,94.5346807
48/1,Кок-Тейская улица,667004,51.7003923,94.5348776
48,Кок-Тейская улица,667004,51.7006183,94.5349834
46,Кок-Тейская улица,667004,51.7007877,94.5350656
44,Кок-Тейская улица,667004,51.7009942,94.5350911
42,Кок-Тейская улица,667004,51.7012044,94.5351692
40,Кок-Тейская улица,667004,51.7013360,94.5352222
38,Кок-Тейская улица,667004,51.7014942,94.5352882
36,Кок-Тейская улица,667004,51.7017408,94.5353130
34,Кок-Тейская улица,667004,51.7019237,94.5354190
69,Солнечная улица,667004,51.6969342,94.5321715
67,Солнечная улица,667004,51.6971622,94.5323154
63,Солнечная улица,667004,51.6974927,94.5324944
61,Солнечная улица,667004,51.6976684,94.5326167
59,Солнечная улица,667004,51.6978275,94.5326997
57,Солнечная улица,667004,51.6981092,94.5328994
55,Солнечная улица,667004,51.6983503,94.5330086
53,Солнечная улица,667004,51.6986255,94.5331791
51,Солнечная улица,667004,51.6988950,94.5333385
49Д,Солнечная улица,667004,51.6991201,94.5334847
49Г,Солнечная улица,667004,51.6996496,94.5338167
49,Солнечная улица,667004,51.6997551,94.5338431
49Ж,Солнечная улица,667004,51.7000176,94.5339723
49Е,Солнечная улица,667004,51.7002188,94.5340812
49Б,Солнечная улица,667004,51.7006057,94.5341714
47,Солнечная улица,667004,51.7007956,94.5342659
45,Солнечная улица,667004,51.7009737,94.5343206
43,Солнечная улица,667004,51.7011512,94.5343897
41,Солнечная улица,667004,51.7013379,94.5344604
39,Солнечная улица,667004,51.7014967,94.5345108
37,Солнечная улица,667004,51.7017417,94.5345901
35,Солнечная улица,667004,51.7019057,94.5346555
33,Солнечная улица,667004,51.7020363,94.5346670
32,Кок-Тейская улица,667004,51.7021335,94.5354813
31,Солнечная улица,667004,51.7022439,94.5347739
41,Сибирская улица,667004,51.7000022,94.5327649
43,Сибирская улица,667004,51.6997911,94.5326784
45,Сибирская улица,667004,51.6996032,94.5325721
47,Сибирская улица,667004,51.6993877,94.5324555
49,Сибирская улица,667004,51.6992105,94.5323552
51,Сибирская улица,667004,51.6990445,94.5322580
53,Сибирская улица,667004,51.6988128,94.5321306
55,Сибирская улица,667004,51.6986510,94.5320373
57,Сибирская улица,667004,51.6985112,94.5319918
59,Сибирская улица,667004,51.6982948,94.5318644
61,Сибирская улица,667004,51.6981591,94.5317699
63,Сибирская улица,667004,51.6978843,94.5316240
65,Сибирская улица,667004,51.6976933,94.5315177
67,Сибирская улица,667004,51.6974564,94.5314073
68,Солнечная улица,667004,51.6971258,94.5318731
66,Солнечная улица,667004,51.6974302,94.5320672
64,Солнечная улица,667004,51.6976289,94.5321886
62,Солнечная улица,667004,51.6978174,94.5322610
58,Солнечная улица,667004,51.6985287,94.5326496
56,Солнечная улица,667004,51.6986950,94.5327827
50,Солнечная улица,667004,51.6988599,94.5328927
48,Солнечная улица,667004,51.6990371,94.5329529
46,Солнечная улица,667004,51.6992159,94.5331029
46А,Солнечная улица,667004,51.6994081,94.5332039
44,Солнечная улица,667004,51.6995790,94.5333245
42А,Солнечная улица,667004,51.6998105,94.5334256
39А,Сибирская улица,667004,51.7001789,94.5328833
29,Сибирская улица,667004,51.7013438,94.5334019
31,Сибирская улица,667004,51.7009385,94.5332564
33,Сибирская улица,667004,51.7007536,94.5331757
35,Сибирская улица,667004,51.7005937,94.5331043
37,Сибирская улица,667004,51.7003755,94.5330540
42,Солнечная улица,667004,51.7002817,94.5336681
40,Солнечная улица,667004,51.7006506,94.5337154
38,Солнечная улица,667004,51.7007453,94.5338237
36,Солнечная улица,667004,51.7009450,94.5338864
34,Солнечная улица,667004,51.7010838,94.5338193
32,Солнечная улица,667004,51.7012637,94.5339572
30,Солнечная улица,667004,51.7015691,94.5340384
28,Солнечная улица,667004,51.7019055,94.5341132
28А,Солнечная улица,667004,51.7022892,94.5338834
26Б,Сибирская улица,667004,51.7021735,94.5335095
26А,Сибирская улица,667004,51.7023502,94.5335847
28Б,Сибирская улица,667004,51.7015214,94.5329655
30,Сибирская улица,667004,51.7013506,94.5328906
32,Сибирская улица,667004,51.7011800,94.5328457
34,Сибирская улица,667004,51.7010042,94.5327683
36,Сибирская улица,667004,51.7008130,94.5327314
38,Сибирская улица,667004,51.7006653,94.5326442
40,Сибирская улица,667004,51.7004474,94.5325560
42А,Сибирская улица,667004,51.7002223,94.5324548
42,Сибирская улица,667004,51.7000529,94.5323864
44,Сибирская улица,667004,51.6998252,94.5322587
46,Сибирская улица,667004,51.6996613,94.5321601
48,Сибирская улица,667004,51.6993998,94.5320239
50,Сибирская улица,667004,51.6992728,94.5319362
52,Сибирская улица,667004,51.6990456,94.5318128
54,Сибирская улица,667004,51.6989203,94.5317651
56,Сибирская улица,667004,51.6986989,94.5316552
58,Сибирская улица,667004,51.6985291,94.5315727
60,Сибирская улица,667004,51.6983837,94.5314862
62,Сибирская улица,667004,51.6981752,94.5313709
29,Сибирская улица,667004,51.6979857,94.5312354
66,Сибирская улица,667004,51.6976824,94.5307677
63,Песочная улица,667004,51.6980193,94.5305861
61,Песочная улица,667004,51.6982679,94.5306832
59,Песочная улица,667004,51.6984468,94.5307847
57,Песочная улица,667004,51.6986283,94.5308948
55,Песочная улица,667004,51.6988429,94.5310061
53,Песочная улица,667004,51.6990438,94.5311157
51,Песочная улица,667004,51.6991515,94.5311851
49,Песочная улица,667004,51.6993331,94.5312619
47,Песочная улица,667004,51.6995869,94.5313738
45А,Песочная улица,667004,51.6996735,94.5315016
45,Песочная улица,667004,51.6999360,94.5315743
43,Песочная улица,667004,51.7001417,94.5316608
41А,Песочная улица,667004,51.7003295,94.5317407
41,Песочная улица,667004,51.7005420,94.5318443
39,Песочная улица,667004,51.7007538,94.5319529
37,Песочная улица,667004,51.7009140,94.5319935
35,Песочная улица,667004,51.7011112,94.5321021
33,Песочная улица,667004,51.7012744,94.5321349
31,Песочная улица,667004,51.7014746,94.5322154
29,Песочная улица,667004,51.7016486,94.5322637
27,Песочная улица,667004,51.7018285,94.5323475
25,Песочная улица,667004,51.7020548,94.5325989
23/2,Песочная улица,667004,51.7022994,94.5327741
23,Песочная улица,667004,51.7021795,94.5325148
23/1,Песочная улица,667004,51.7023349,94.5325303
30,Песочная улица,667004,51.7022664,94.5320032
32,Песочная улица,667004,51.7021110,94.5319683
34,Песочная улица,667004,51.7019210,94.5319100
36,Песочная улица,667004,51.7016957,94.5317846
38,Песочная улица,667004,51.7015516,94.5317711
40,Песочная улица,667004,51.7013363,94.5316669
42,Песочная улица,667004,51.7011879,94.5316076
46,Песочная улица,667004,51.7008257,94.5314741
44,Песочная улица,667004,51.7009810,94.5315234
48,Песочная улица,667004,51.7006022,94.5313936
48А,Песочная улица,667004,51.7003936,94.5312015
50,Песочная улица,667004,51.7002284,94.5311318
52,Песочная улица,667004,51.6999611,94.5311137
52А,Песочная улица,667004,51.6997911,94.5310443
54,Песочная улица,667004,51.6995875,94.5309283
56,Песочная улица,667004,51.6993815,94.5308402
58,Песочная улица,667004,51.6991619,94.5307603
60,Песочная улица,667004,51.6989622,94.5306691
62,Песочная улица,667004,51.6987482,94.5305437
64,Песочная улица,667004,51.6985727,94.5304692
66,Песочная улица,667004,51.6983018,94.5303174
68,Песочная улица,667004,51.6981257,94.5301843
63,Сарыг-Сепская улица,667004,51.6988793,94.5299007
61,Сарыг-Сепская улица,667004,51.6990709,94.5299985
59,Сарыг-Сепская улица,667004,51.6992587,94.5301009
57,Сарыг-Сепская улица,667004,51.6995424,94.5301706
55,Сарыг-Сепская улица,667004,51.6996932,94.5302688
53А,Сарыг-Сепская улица,667004,51.6998996,94.5303579
53,Сарыг-Сепская улица,667004,51.7000729,94.5304438
51,Сарыг-Сепская улица,667004,51.7003278,94.5305403
49А,Сарыг-Сепская улица,667004,51.7005006,94.5306255
49,Сарыг-Сепская улица,667004,51.7007962,94.5306808
47,Сарыг-Сепская улица,667004,51.7009265,94.5307650
45,Сарыг-Сепская улица,667004,51.7010917,94.5308261
43,Сарыг-Сепская улица,667004,51.7012819,94.5308948
41,Сарыг-Сепская улица,667004,51.7014211,94.5309897
39,Сарыг-Сепская улица,667004,51.7016386,94.5310506
37,Сарыг-Сепская улица,667004,51.7017876,94.5311110
35,Сарыг-Сепская улица,667004,51.7020147,94.5311935
33,Сарыг-Сепская улица,667004,51.7021780,94.5312150
31,Сарыг-Сепская улица,667004,51.7024749,94.5313711
36,Сарыг-Сепская улица,667004,51.7015571,94.5305743
38,Сарыг-Сепская улица,667004,51.7012664,94.5304616
40,Сарыг-Сепская улица,667004,51.7009295,94.5303138
40/1,Сарыг-Сепская улица,667004,51.7006119,94.5299627
40Б,Сарыг-Сепская улица,667004,51.7005276,94.5301685
42,Сарыг-Сепская улица,667004,51.7003322,94.5300988
44,Сарыг-Сепская улица,667004,51.7001265,94.5300127
46,Сарыг-Сепская улица,667004,51.6998128,94.5298547
48,Сарыг-Сепская улица,667004,51.6996640,94.5297803
50,Сарыг-Сепская улица,667004,51.6994655,94.5296968
52,Сарыг-Сепская улица,667004,51.6992779,94.5296626
56,Сарыг-Сепская улица,667004,51.6987822,94.5293391
54,Сарыг-Сепская улица,667004,51.6990796,94.5292314
53,улица 2-я Серебрянка,667004,51.6993496,94.5290088
51,улица 2-я Серебрянка,667004,51.6995567,94.5290615
49,улица 2-я Серебрянка,667004,51.6996937,94.5291215
47,улица 2-я Серебрянка,667004,51.6998971,94.5291892
45,улица 2-я Серебрянка,667004,51.7001005,94.5292391
43,улица 2-я Серебрянка,667004,51.7002818,94.5293219
41,улица 2-я Серебрянка,667004,51.7004168,94.5293854
39А,улица 2-я Серебрянка,667004,51.7006032,94.5294209
39,улица 2-я Серебрянка,667004,51.7010389,94.5296124
37,улица 2-я Серебрянка,667004,51.7013927,94.5297231
35,улица 2-я Серебрянка,667004,51.7016868,94.5298356
34,Сарыг-Сепская улица,667004,51.7018679,94.5306953
32,Сарыг-Сепская улица,667004,51.7021497,94.5308049
32А,Сарыг-Сепская улица,667004,51.7024794,94.5307768
33,улица 2-я Серебрянка,667004,51.7019877,94.5299503
31,улица 2-я Серебрянка,667004,51.7022923,94.5300610
31А,улица 2-я Серебрянка,667004,51.7024552,94.5302769
36,улица 2-я Серебрянка,667004,51.7023349,94.5296173
38,улица 2-я Серебрянка,667004,51.7021209,94.5295802
40,улица 2-я Серебрянка,667004,51.7019567,94.5295178
42,улица 2-я Серебрянка,667004,51.7017223,94.5294303
44,улица 2-я Серебрянка,667004,51.7015326,94.5293709
46,улица 2-я Серебрянка,667004,51.7013689,94.5293115
48,улица 2-я Серебрянка,667004,51.7011644,94.5292401
50,улица 2-я Серебрянка,667004,51.7010128,94.5291597
52,улица 2-я Серебрянка,667004,51.7007821,94.5291383
54,улица 2-я Серебрянка,667004,51.7004808,94.5289569
56,улица 2-я Серебрянка,667004,51.7002657,94.5289247
56А,улица 2-я Серебрянка,667004,51.7000835,94.5286608
58,улица 2-я Серебрянка,667004,51.6999227,94.5287668
60,улица 2-я Серебрянка,667004,51.6997901,94.5285206
62,улица 2-я Серебрянка,667004,51.6994836,94.5284635
61,улица Сибиряков-Гвардейцев,667004,51.6996149,94.5279745
59,улица Сибиряков-Гвардейцев,667004,51.6997616,94.5278836
57,улица Сибиряков-Гвардейцев,667004,51.7000428,94.5280503
55/1,улица Сибиряков-Гвардейцев,667004,51.7002014,94.5280550
55,улица Сибиряков-Гвардейцев,667004,51.7004634,94.5281784
53,улица Сибиряков-Гвардейцев,667004,51.7006165,94.5282601
51,улица Сибиряков-Гвардейцев,667004,51.7009293,94.5283759
49,улица Сибиряков-Гвардейцев,667004,51.7010906,94.5284392
47,улица Сибиряков-Гвардейцев,667004,51.7012558,94.5285032
45,улица Сибиряков-Гвардейцев,667004,51.7014514,94.5285620
43,улица Сибиряков-Гвардейцев,667004,51.7016619,94.5286229
41,улица Сибиряков-Гвардейцев,667004,51.7018477,94.5287028
39,улица Сибиряков-Гвардейцев,667004,51.7020610,94.5288117
37,улица Сибиряков-Гвардейцев,667004,51.7022450,94.5288815
35,улица Сибиряков-Гвардейцев,667004,51.7024197,94.5289266
36,улица Сибиряков-Гвардейцев,667004,51.7023844,94.5284523
38,улица Сибиряков-Гвардейцев,667004,51.7021355,94.5282890
40,улица Сибиряков-Гвардейцев,667004,51.7019883,94.5283383
42,улица Сибиряков-Гвардейцев,667004,51.7017843,94.5282216
44,улица Сибиряков-Гвардейцев,667004,51.7016879,94.5282112
46,улица Сибиряков-Гвардейцев,667004,51.7014202,94.5281260
48,улица Сибиряков-Гвардейцев,667004,51.7012529,94.5280533
50,улица Сибиряков-Гвардейцев,667004,51.7010346,94.5279819
52,улица Сибиряков-Гвардейцев,667004,51.7007980,94.5278927
54,улица Сибиряков-Гвардейцев,667004,51.7006730,94.5278354
56,улица Сибиряков-Гвардейцев,667004,51.7004575,94.5277385
58,улица Сибиряков-Гвардейцев,667004,51.7002489,94.5276952
60,улица Сибиряков-Гвардейцев,667004,51.7001027,94.5276080
62,улица Сибиряков-Гвардейцев,667004,51.6998715,94.5275177
55,Целинная улица,667004,51.7003296,94.5269301
53,Целинная улица,667004,51.7005494,94.5270260
51,Целинная улица,667004,51.7007873,94.5271407
49А,Целинная улица,667004,51.7009812,94.5271870
49,Целинная улица,667004,51.7011349,94.5272406
47,Целинная улица,667004,51.7012897,94.5273314
45,Целинная улица,667004,51.7014691,94.5273908
43,Целинная улица,667004,51.7016465,94.5274606
41,Целинная улица,667004,51.7018372,94.5275477
39,Целинная улица,667004,51.7020302,94.5275893
37,Целинная улица,667004,51.7022238,94.5276758
35,Целинная улица,667004,51.7024625,94.5277374
36,Целинная улица,667004,51.7023364,94.5272255
38,Целинная улица,667004,51.7021278,94.5271732
40,Целинная улица,667004,51.7019511,94.5271011
42,Целинная улица,667004,51.7017411,94.5270595
44,Целинная улица,667004,51.7015665,94.5269790
46,Целинная улица,667004,51.7013820,94.5269110
48,Целинная улица,667004,51.7011979,94.5268510
48А,Целинная улица,667004,51.7010032,94.5264935
50,Целинная улица,667004,51.7008802,94.5267347
52,Целинная улица,667004,51.7006518,94.5266310
58,Целинная улица,667004,51.7003829,94.5265672
53,улица Новосёлов,667004,51.7004762,94.5258553
51,улица Новосёлов,667004,51.7006994,94.5259582
49,улица Новосёлов,667004,51.7009249,94.5263122
47А,улица Новосёлов,667004,51.7011676,94.5260805
47,улица Новосёлов,667004,51.7013236,94.5261339
45,улица Новосёлов,667004,51.7015189,94.5261845
43,улица Новосёлов,667004,51.7017049,94.5262558
41,улица Новосёлов,667004,51.7018660,94.5263078
39,улица Новосёлов,667004,51.7020307,94.5263772
37,улица Новосёлов,667004,51.7022759,94.5264762
35,улица Новосёлов,667004,51.7024374,94.5265265
33,улица Новосёлов,667004,51.7025598,94.5265415
30,улица Новосёлов,667004,51.7023208,94.5260604
32,улица Новосёлов,667004,51.7021556,94.5260061
34,улица Новосёлов,667004,51.7019617,94.5259085
36,улица Новосёлов,667004,51.7017814,94.5258724
38,улица Новосёлов,667004,51.7016149,94.5257684
40,улица Новосёлов,667004,51.7014286,94.5256849
42,улица Новосёлов,667004,51.7012022,94.5256540
44,улица Новосёлов,667004,51.7010410,94.5255668
46,улица Новосёлов,667004,51.7007727,94.5255098
48,улица Новосёлов,667004,51.7006146,94.5254572
47,Сумонная улица,667004,51.7008087,94.5247006
45,Сумонная улица,667004,51.7009543,94.5247804
43,Сумонная улица,667004,51.7011445,94.5248976
41,Сумонная улица,667004,51.7013201,94.5249255
39,Сумонная улица,667004,51.7015724,94.5250284
37,Сумонная улица,667004,51.7017018,94.5250542
35,Сумонная улица,667004,51.7018624,94.5251190
33,Сумонная улица,667004,51.7020221,94.5251931
31,Сумонная улица,667004,51.7022086,94.5252702
29,Сумонная улица,667004,51.7024107,94.5253329
36,Сумонная улица,667004,51.7023804,94.5249131
38,Сумонная улица,667004,51.7021494,94.5247971
40,Сумонная улица,667004,51.7019507,94.5247317
42,Сумонная улица,667004,51.7017883,94.5246811
44,Сумонная улица,667004,51.7016019,94.5246181
46,Сумонная улица,667004,51.7013965,94.5245489
48,Сумонная улица,667004,51.7011838,94.5244790
50,Сумонная улица,667004,51.7010059,94.5243827
52,Сумонная улица,667004,51.7008945,94.5243797
49,улица Парижских Коммунаров,667004,51.7010784,94.5235955
47,улица Парижских Коммунаров,667004,51.7013060,94.5237192
45,улица Парижских Коммунаров,667004,51.7014940,94.5237973
43,улица Парижских Коммунаров,667004,51.7016810,94.5238895
41,улица Парижских Коммунаров,667004,51.7018940,94.5239682
39,улица Парижских Коммунаров,667004,51.7020465,94.5239548
37,улица Парижских Коммунаров,667004,51.7022805,94.5241171
33,улица Парижских Коммунаров,667004,51.7026780,94.5241500
35,улица Парижских Коммунаров,667004,51.7024539,94.5241537
38,улица Парижских Коммунаров,667004,51.7025138,94.5236347
40,улица Парижских Коммунаров,667004,51.7022049,94.5236199
42,улица Парижских Коммунаров,667004,51.7020533,94.5236019
44,улица Парижских Коммунаров,667004,51.7019297,94.5235575
46,улица Парижских Коммунаров,667004,51.7015878,94.5234647
46А,улица Парижских Коммунаров,667004,51.7014568,94.5233993
48,улица Парижских Коммунаров,667004,51.7013062,94.5233356
52,улица Парижских Коммунаров,667004,51.7010219,94.5232310
49,улица 26 Бакинских Комиссаров,667004,51.7012636,94.5227181
47,улица 26 Бакинских Комиссаров,667004,51.7014448,94.5226748
45,улица 26 Бакинских Комиссаров,667004,51.7016824,94.5226956
43,улица 26 Бакинских Комиссаров,667004,51.7019829,94.5228200
41,улица 26 Бакинских Комиссаров,667004,51.7021441,94.5228810
39,улица 26 Бакинских Комиссаров,667004,51.7023116,94.5230078
37А,улица 26 Бакинских Комиссаров,667004,51.7024841,94.5229982
40,улица 26 Бакинских Комиссаров,667004,51.7024008,94.5225380
42,улица 26 Бакинских Комиссаров,667004,51.7022311,94.5224619
44,улица 26 Бакинских Комиссаров,667004,51.7020449,94.5224290
46,улица 26 Бакинских Комиссаров,667004,51.7018277,94.5220193
48,улица 26 Бакинских Комиссаров,667004,51.7016216,94.5222557
50,улица 26 Бакинских Комиссаров,667004,51.7015327,94.5222258
52,улица 26 Бакинских Комиссаров,667004,51.7012295,94.5221179
49,Профсоюзная улица,667004,51.7014335,94.5216482
47,Профсоюзная улица,667004,51.7015509,94.5214621
45А,Профсоюзная улица,667004,51.7017277,94.5215751
45,Профсоюзная улица,667004,51.7019179,94.5216415
43,Профсоюзная улица,667004,51.7021392,94.5217119
41,Профсоюзная улица,667004,51.7023514,94.5217917
39,Профсоюзная улица,667004,51.7025378,94.5218738
40,Профсоюзная улица,667004,51.7026638,94.5214715
42,Профсоюзная улица,667004,51.7024459,94.5214122
44,Профсоюзная улица,667004,51.7022175,94.5213341
46,Профсоюзная улица,667004,51.7020163,94.5212626
48,Профсоюзная улица,667004,51.7018615,94.5211728
50,Профсоюзная улица,667004,51.7016139,94.5211000
52,Профсоюзная улица,667004,51.7014478,94.5209237
47А,улица Сергея Лазо,667004,51.7015690,94.5203812
47Б,улица Сергея Лазо,667004,51.7016676,94.5203964
45А,улица Сергея Лазо,667004,51.7018310,94.5204593
45,улица Сергея Лазо,667004,51.7020587,94.5205264
43,улица Сергея Лазо,667004,51.7023040,94.5206293
41,улица Сергея Лазо,667004,51.7024937,94.5206584
39,улица Сергея Лазо,667004,51.7026117,94.5207493
38В,улица Сергея Лазо,667004,51.7025009,94.5202249
38Г,улица Сергея Лазо,667004,51.7022768,94.5201961
9,2-я Буренская улица,667004,51.7017654,94.5193153
7,2-я Буренская улица,667004,51.7020028,94.5193982
41,2-я Буренская улица,667004,51.7021735,94.5194135
3,2-я Буренская улица,667004,51.7025741,94.5195722
1,2-я Буренская улица,667004,51.7027487,94.5196049
34,2-я Буренская улица,667004,51.7023376,94.5148203
56,2-я Буренская улица,667004,51.7023229,94.5160531
26,2-я Буренская улица,667004,51.7020816,94.5162298
37Д,Буренская улица,667004,51.7020603,94.5165990
37Б,Буренская улица,667004,51.7020226,94.5168937
16,2-я Буренская улица,667004,51.7019455,94.5176430
14,2-я Буренская улица,667004,51.7019287,94.5182394
8,2-я Буренская улица,667004,51.7021327,94.5190669
6,2-я Буренская улица,667004,51.7023403,94.5190549
4,2-я Буренская улица,667004,51.7025283,94.5191755
2,2-я Буренская улица,667004,51.7027305,94.5192185
36А,Буренская улица,667004,51.7027389,94.5184570
37А,Буренская улица,667004,51.7024807,94.5181006
46,Буренская улица,667004,51.7025423,94.5163163
58,Буренская улица,667004,51.7026844,94.5152863
17,Паротурбинная улица,667901,51.7009943,94.5398815
71А,Колхозная улица,667004,51.7093982,94.5135328
71,Колхозная улица,667004,51.7095721,94.5136700
73,Колхозная улица,667004,51.7096549,94.5132774
75,Колхозная улица,667004,51.7097793,94.5129162
77,Колхозная улица,667004,51.7099303,94.5124878
79,Колхозная улица,667004,51.7099966,94.5122108
81,Колхозная улица,667004,51.7101245,94.5117860
83,Колхозная улица,667004,51.7102180,94.5115785
85,Колхозная улица,667004,51.7103016,94.5112107
87,Колхозная улица,667004,51.7103200,94.5110219
89,Колхозная улица,667004,51.7104271,94.5107732
91,Колхозная улица,667004,51.7105083,94.5104470
93,Колхозная улица,667004,51.7105810,94.5102555
95,Колхозная улица,667004,51.7106876,94.5100174
97,Колхозная улица,667004,51.7107391,94.5096986
99,Колхозная улица,667004,51.7108726,94.5093446
99А,Колхозная улица,667004,51.7109049,94.5091437
32,Анкерный переулок,667004,51.7102646,94.5088668
30,Анкерный переулок,667004,51.7102831,94.5090495
28,Анкерный переулок,667004,51.7100880,94.5093634
26,Анкерный переулок,667004,51.7100114,94.5096000
24,Анкерный переулок,667004,51.7099714,94.5098304
22,Анкерный переулок,667004,51.7099716,94.5100805
20,Анкерный переулок,667004,51.7098003,94.5103091
18,Анкерный переулок,667004,51.7097802,94.5105485
16,Анкерный переулок,667004,51.7096540,94.5108225
14,Анкерный переулок,667004,51.7095998,94.5110116
12,Анкерный переулок,667004,51.7094878,94.5113877
10,Анкерный переулок,667004,51.7094010,94.5117247
8,Анкерный переулок,667004,51.7093152,94.5120207
6,Анкерный переулок,667004,51.7091785,94.5124928
2А,Анкерный переулок,667004,51.7092000,94.5133819
4,Анкерный переулок,667004,51.7090987,94.5127271
2,Анкерный переулок,667004,51.7089907,94.5130645
1,Анкерный переулок,667004,51.7086196,94.5128605
3,Анкерный переулок,667004,51.7087506,94.5124518
5,Анкерный переулок,667004,51.7088346,94.5121427
7,Анкерный переулок,667004,51.7089722,94.5117240
9,Анкерный переулок,667004,51.7089996,94.5114760
11,Анкерный переулок,667004,51.7091849,94.5111199
13,Анкерный переулок,667004,51.7093108,94.5108027
15,Анкерный переулок,667004,51.7094087,94.5103852
17,Анкерный переулок,667004,51.7093586,94.5100262
19,Анкерный переулок,667004,51.7095671,94.5098478
23,Анкерный переулок,667004,51.7097137,94.5093431
25,Анкерный переулок,667004,51.7098302,94.5089523
27,Анкерный переулок,667004,51.7099058,94.5087108
28,Релейная улица,667004,51.7091561,94.5086676
26,Релейная улица,667004,51.7090550,94.5089139
24,Релейная улица,667004,51.7089439,94.5091464
22,Релейная улица,667004,51.7088866,94.5093010
20,Релейная улица,667004,51.7088418,94.5095174
18,Релейная улица,667004,51.7087777,94.5097757
16,Релейная улица,667004,51.7087600,94.5100445
14,Релейная улица,667004,51.7087360,94.5102981
12,Релейная улица,667004,51.7085980,94.5105260
10,Релейная улица,667004,51.7084509,94.5109569
8,Релейная улица,667004,51.7083117,94.5113230
6,Релейная улица,667004,51.7082388,94.5115905
4,Релейная улица,667004,51.7080894,94.5120419
2,Релейная улица,667004,51.7079770,94.5123916
7,Релейная улица,667004,51.7071052,94.5141722
11А,Релейная улица,667004,51.7072937,94.5136217
11,Релейная улица,667004,51.7073517,94.5133632
13,Релейная улица,667004,51.7074836,94.5128907
15,Релейная улица,667004,51.7075667,94.5126755
17,Релейная улица,667004,51.7077836,94.5119165
19,Релейная улица,667004,51.7078550,94.5113425
21,Релейная улица,667004,51.7079911,94.5109404
23,Релейная улица,667004,51.7083063,94.5102820
25,Релейная улица,667004,51.7083720,94.5100523
27,Релейная улица,667004,51.7085320,94.5094793
29,Релейная улица,667004,51.7086210,94.5091226
31,Релейная улица,667004,51.7087202,94.5087304
22,Центральная улица,667004,51.7084205,94.5086056
20,Центральная улица,667004,51.7082093,94.5093576
18,Центральная улица,667004,51.7080838,94.5097938
16,Центральная улица,667004,51.7079320,94.5103216
14,Центральная улица,667004,51.7078139,94.5109848
12,Центральная улица,667004,51.7077985,94.5112358
10,Центральная улица,667004,51.7074526,94.5118645
8,Центральная улица,667004,51.7072874,94.5123513
6,Центральная улица,667004,51.7072214,94.5126883
4,Центральная улица,667004,51.7070841,94.5131251
4А,Центральная улица,667004,51.7069461,94.5135054
1,Центральная улица,667004,51.7066027,94.5136303
3,Центральная улица,667004,51.7068000,94.5129186
5,Центральная улица,667004,51.7069076,94.5123791
7,Центральная улица,667004,51.7071079,94.5118813
9,Центральная улица,667004,51.7071830,94.5115188
11,Центральная улица,667004,51.7072490,94.5111758
13,Центральная улица,667004,51.7074443,94.5106894
15,Центральная улица,667004,51.7077565,94.5098572
17,Центральная улица,667004,51.7078449,94.5095621
19,Центральная улица,667004,51.7078615,94.5089459
21,Центральная улица,667004,51.7081551,94.5086061
22,улица Листвянка,667004,51.7077181,94.5084896
20,улица Листвянка,667004,51.7076325,94.5088152
18,улица Листвянка,667004,51.7074624,94.5093509
16,улица Листвянка,667004,51.7073807,94.5096051
14,улица Листвянка,667004,51.7072129,94.5103015
12,улица Листвянка,667004,51.7070064,94.5108738
10,улица Листвянка,667004,51.7068752,94.5112714
8,улица Листвянка,667004,51.7066772,94.5120190
6А,улица Листвянка,667004,51.7066834,94.5121740
6,улица Листвянка,667004,51.7065640,94.5124506
4,улица Листвянка,667004,51.7063776,94.5130185
2,улица Листвянка,667004,51.7062716,94.5134502
113,Колхозная улица,667004,51.7121998,94.5040240
111А,Колхозная улица,667004,51.7121046,94.5045605
109А,Колхозная улица,667004,51.7120105,94.5049863
107Б,Колхозная улица,667004,51.7119243,94.5054117
107А,Колхозная улица,667004,51.7118634,94.5058241
103Б,Колхозная улица,667004,51.7117358,94.5059773
103А,Колхозная улица,667004,51.7116927,94.5064414
103,Колхозная улица,667004,51.7113659,94.5060890
105,Колхозная улица,667004,51.7113960,94.5055167
107,Колхозная улица,667004,51.7114587,94.5051298
109,Колхозная улица,667004,51.7115631,94.5048522
111,Колхозная улица,667004,51.7117265,94.5045605
115,Колхозная улица,667004,51.7122519,94.5036861
111/1,Колхозная улица,667004,51.7114002,94.5036224
109Б,Колхозная улица,667004,51.7113453,94.5039690
38В,Анкерный переулок,667004,51.7112264,94.5044894
38Б,Анкерный переулок,667004,51.7111695,94.5048834
38А,Анкерный переулок,667004,51.7110653,94.5053380
103А,Анкерный переулок,667004,51.7110187,94.5056920
103Б,Колхозный переулок,667004,51.7104815,94.5057719
34,Анкерный переулок,667004,51.7105528,94.5054818
36,Анкерный переулок,667004,51.7105930,94.5052478
38,Анкерный переулок,667004,51.7107877,94.5042721
40А,Анкерный переулок,667004,51.7108488,94.5040026
42,Анкерный переулок,667004,51.7109902,94.5031707
40Б,Анкерный переулок,667004,51.7109048,94.5038403
40,Анкерный переулок,667004,51.7109042,94.5035864
42,Релейная улица,667004,51.7098829,94.5053812
40,Релейная улица,667004,51.7097115,94.5060820
38/1,Релейная улица,667004,51.7097488,94.5062967
38,Релейная улица,667004,51.7095163,94.5068197
36,Релейная улица,667004,51.7094629,94.5074029
32,Релейная улица,667004,51.7093505,94.5077250
30,Релейная улица,667004,51.7093360,94.5079420
29Б,Анкерный переулок,667004,51.7096717,94.5081017
29А,Анкерный переулок,667004,51.7098098,94.5079521
29,Анкерный переулок,667004,51.7098453,94.5076719
31,Анкерный переулок,667004,51.7098861,94.5073098
33,Анкерный переулок,667004,51.7100851,94.5064283
35,Анкерный переулок,667004,51.7101160,94.5058690
37,Анкерный переулок,667004,51.7101993,94.5054564
37А,Анкерный переулок,667004,51.7102052,94.5049497
39,Анкерный переулок,667004,51.7103431,94.5047935
44,Релейная улица,667004,51.7101840,94.5043999
46,Релейная улица,667004,51.7101497,94.5041770
39А,Анкерный переулок,667004,51.7104231,94.5042366
48,Релейная улица,667004,51.7102243,94.5037016
43,Анкерный переулок,667004,51.7106311,94.5030055
41,Анкерный переулок,667004,51.7105689,94.5035178
33,Релейная улица,667004,51.7089479,94.5079297
26,Центральная улица,667004,51.7087553,94.5074190
35,Релейная улица,667004,51.7090426,94.5075418
28,Центральная улица,667004,51.7088770,94.5071602
37,Релейная улица,667004,51.7091172,94.5069989
39,Релейная улица,667004,51.7092501,94.5066316
30,Центральная улица,667004,51.7090040,94.5064356
30А,Центральная улица,667004,51.7091184,94.5058694
41,Релейная улица,667004,51.7093567,94.5060300
43,Релейная улица,667004,51.7094265,94.5056692
51,Релейная улица,667004,51.7099835,94.5033907
49,Релейная улица,667004,51.7098457,94.5040523
47,Релейная улица,667004,51.7098421,94.5043013
45,Релейная улица,667004,51.7096378,94.5049853
32В,Центральная улица,667004,51.7094915,94.5047532
32,Центральная улица,667004,51.7095223,94.5042933
34,Центральная улица,667004,51.7096252,94.5036650
36,Центральная улица,667004,51.7097192,94.5032351
40,Центральная улица,667004,51.7098378,94.5029026
53,Релейная улица,667004,51.7101009,94.5028758
45,Центральная улица,667004,51.7095441,94.5026293
43,Центральная улица,667004,51.7094191,94.5032701
41/1,Центральная улица,667004,51.7093665,94.5035151
41,Центральная улица,667004,51.7092626,94.5040254
39,Центральная улица,667004,51.7091137,94.5046795
37,Центральная улица,667004,51.7090182,94.5050363
35,Центральная улица,667004,51.7089092,94.5054624
33,Центральная улица,667004,51.7087470,94.5060656
31,Центральная улица,667004,51.7085256,94.5065517
29,Центральная улица,667004,51.7085895,94.5067686
27,Центральная улица,667004,51.7085120,94.5070650
25,Центральная улица,667004,51.7084596,94.5074157
23,Центральная улица,667004,51.7083207,94.5079031
24,улица Листвянка,667004,51.7079194,94.5079907
26,улица Листвянка,667004,51.7080002,94.5073577
28,улица Листвянка,667004,51.7082616,94.5066158
32,улица Листвянка,667004,51.7083142,94.5060160
34,улица Листвянка,667004,51.7083470,94.5058617
36,улица Листвянка,667004,51.7084206,94.5054503
38,улица Листвянка,667004,51.7085652,94.5049086
42,улица Листвянка,667004,51.7087214,94.5042517
40,улица Листвянка,667004,51.7086341,94.5045511
44,улица Листвянка,667004,51.7087717,94.5039697
46,улица Листвянка,667004,51.7088141,94.5037317
48А,улица Листвянка,667004,51.7089151,94.5032643
48,улица Листвянка,667004,51.7091097,94.5031202
50,улица Листвянка,667004,51.7090362,94.5026015
52,улица Листвянка,667004,51.7090769,94.5024050
1,Сочинская улица,667004,51.7070583,94.5063552
3,Сочинская улица,667004,51.7071428,94.5056441
5,Сочинская улица,667004,51.7071779,94.5053803
9,Сочинская улица,667004,51.7072283,94.5049916
11,Сочинская улица,667004,51.7072740,94.5047308
13,Сочинская улица,667004,51.7071892,94.5043419
15,Сочинская улица,667004,51.7072868,94.5042520
17,Сочинская улица,667004,51.7073785,94.5038359
23,Сочинская улица,667004,51.7074657,94.5034819
25,Сочинская улица,667004,51.7076340,94.5027872
4,Сочинская улица,667004,51.7070595,94.5075280
4А,Сочинская улица,667004,51.7072469,94.5071857
4Б,Сочинская улица,667004,51.7071724,94.5069752
4В,Сочинская улица,667004,51.7072893,94.5064266
4Д,Сочинская улица,667004,51.7074027,94.5056126
6,Сочинская улица,667004,51.7075937,94.5050493
20,Сочинская улица,667004,51.7079296,94.5027815
24,Сочинская улица,667004,51.7080312,94.5022062
26,Сочинская улица,667004,51.7083277,94.5019822
51,улица Листвянка,667004,51.7087075,94.5026048
49,улица Листвянка,667004,51.7086106,94.5030230
47А,улица Листвянка,667004,51.7085371,94.5033806
47,улица Листвянка,667004,51.7084794,94.5036891
41,улица Листвянка,667004,51.7082795,94.5047677
45,улица Листвянка,667004,51.7081366,94.5050366
43,улица Листвянка,667004,51.7079887,94.5051610
37,улица Листвянка,667004,51.7080167,94.5054503
35,улица Листвянка,667004,51.7080258,94.5058996
33,улица Листвянка,667004,51.7079603,94.5062400
31,улица Листвянка,667004,51.7078740,94.5065839
29А,улица Листвянка,667004,51.7078319,94.5068905
27,улица Листвянка,667004,51.7077140,94.5072710
25А,улица Листвянка,667004,51.7075966,94.5078214
25,улица Листвянка,667004,51.7075650,94.5079951
21,улица Листвянка,667004,51.7074770,94.5085007
19,улица Листвянка,667004,51.7073685,94.5087229
17,улица Листвянка,667004,51.7073184,94.5090137
15,улица Листвянка,667004,51.7072259,94.5093066
13,улица Листвянка,667004,51.7070984,94.5096681
11,улица Листвянка,667004,51.7069349,94.5096614
9,улица Листвянка,667004,51.7069446,94.5101898
7,улица Листвянка,667004,51.7068663,94.5104245
5,улица Листвянка,667004,51.7068017,94.5107199
3,улица Листвянка,667004,51.7067134,94.5109270
1,улица Листвянка,667004,51.7065689,94.5115251
2,улица 2-я Листвянка,667004,51.7065295,94.5103326
4,улица 2-я Листвянка,667004,51.7065114,94.5095722
6,улица 2-я Листвянка,667004,51.7065068,94.5091501
8,улица 2-я Листвянка,667004,51.7065216,94.5086378
10,улица 2-я Листвянка,667004,51.7065507,94.5081802
12,улица 2-я Листвянка,667004,51.7065518,94.5079271
2,Сочинская улица,667004,51.7067853,94.5075615
14,улица 2-я Листвянка,667004,51.7065784,94.5075250
16А,улица 2-я Листвянка,667004,51.7065900,94.5073188
16,улица 2-я Листвянка,667004,51.7065834,94.5070714
18,улица 2-я Листвянка,667004,51.7066134,94.5067941
18А,улица 2-я Листвянка,667004,51.7066496,94.5064464
20,улица 2-я Листвянка,667004,51.7066297,94.5061581
20А,улица 2-я Листвянка,667004,51.7066135,94.5059244
24,улица 2-я Листвянка,667004,51.7066184,94.5053336
24А,улица 2-я Листвянка,667004,51.7068779,94.5051573
26А,улица 2-я Листвянка,667004,51.7066398,94.5048435
26,улица 2-я Листвянка,667004,51.7066498,94.5046028
28,улица 2-я Листвянка,667004,51.7067172,94.5039416
22,улица 2-я Листвянка,667004,51.7068366,94.5033454
34,улица 2-я Листвянка,667004,51.7069393,94.5030414
36,улица 2-я Листвянка,667004,51.7069022,94.5026309
30,улица 2-я Листвянка,667004,51.7070273,94.5022867
40,улица 2-я Листвянка,667004,51.7067322,94.5014325
26,Буренская улица,667004,51.7055478,94.5124157
5/1,улица Новостроек,667004,51.7055350,94.5121773
30,Буренская улица,667004,51.7056631,94.5117662
32,Буренская улица,667004,51.7055636,94.5110756
34,Буренская улица,667004,51.7056174,94.5105130
38,Буренская улица,667004,51.7055981,94.5099568
40,Буренская улица,667004,51.7056000,94.5092839
42,Буренская улица,667004,51.7056363,94.5084527
101,улица Новостроек,667004,51.7061564,94.5123996
12,улица Новостроек,667004,51.7061590,94.5120348
14,улица Новостроек,667004,51.7061463,94.5116100
16,улица Новостроек,667004,51.7061470,94.5110357
18,улица Новостроек,667004,51.7061651,94.5106303
20,улица Новостроек,667004,51.7061543,94.5103396
22,улица Новостроек,667004,51.7061630,94.5096822
26,улица Новостроек,667004,51.7061327,94.5091605
28,улица Новостроек,667004,51.7061354,94.5085919
30,улица Новостроек,667004,51.7061327,94.5077550
32,улица Новостроек,667004,51.7061365,94.5075300
3,улица 2-я Листвянка,667004,51.7062544,94.5069541
5,улица 2-я Листвянка,667004,51.7062584,94.5064528
7,улица 2-я Листвянка,667004,51.7062343,94.5060468
9,улица 2-я Листвянка,667004,51.7062754,94.5057584
9А,улица 2-я Листвянка,667004,51.7062249,94.5054925
11,улица 2-я Листвянка,667004,51.7062838,94.5052947
13,улица 2-я Листвянка,667004,51.7062883,94.5047235
15,улица 2-я Листвянка,667004,51.7063257,94.5042313
17,улица 2-я Листвянка,667004,51.7063843,94.5039127
19,улица 2-я Листвянка,667004,51.7063161,94.5036421
19А,улица 2-я Листвянка,667004,51.7062135,94.5032727
21,улица 2-я Листвянка,667004,51.7063508,94.5030186
23,улица 2-я Листвянка,667004,51.7063693,94.5024573
25,улица 2-я Листвянка,667004,51.7063702,94.5020339
27,улица 2-я Листвянка,667004,51.7061662,94.5013626
29,улица 2-я Листвянка,667004,51.7059723,94.5013368
78,Буренская улица,667004,51.7057767,94.5014170
76,Буренская улица,667004,51.7057404,94.5020660
70,Буренская улица,667004,51.7057527,94.5025186
86,Буренская улица,667004,51.7057211,94.5027400
54,Буренская улица,667004,51.7056814,94.5053313
21,улица Новостроек,667004,51.7056764,94.5056676
50,Буренская улица,667004,51.7056567,94.5060407
50А,Буренская улица,667004,51.7056530,94.5064524
48,Буренская улица,667004,51.7056346,94.5067200
48Б,Буренская улица,667004,51.7056587,94.5069835
48А,Буренская улица,667004,51.7056513,94.5072964
44,Буренская улица,667004,51.7056369,94.5079430
46А,Буренская улица,667004,51.7056315,94.5076631
19А,улица Новостроек,667004,51.7058721,94.5077172
19,улица Новостроек,667004,51.7058711,94.5079464
17,улица Новостроек,667004,51.7058674,94.5085794
13,улица Новостроек,667004,51.7058674,94.5093093
11,улица Новостроек,667004,51.7058569,94.5103007
9,улица Новостроек,667004,51.7058551,94.5112704
7,улица Новостроек,667004,51.7058531,94.5115181
5,улица Новостроек,667004,51.7058256,94.5120429
3,улица Новостроек,667004,51.7058435,94.5128486
1,улица Новостроек,667004,51.7057786,94.5132029
24/1,Буренская улица,667004,51.7056201,94.5133078
24,Буренская улица,667004,51.7055588,94.5131486
79,Буренская улица,667004,51.7052777,94.5071571
44,Университетская улица,667004,51.7047412,94.5117427
46,Университетская улица,667004,51.7047558,94.5111228
48,Университетская улица,667004,51.7047551,94.5105619
50,Университетская улица,667004,51.7047722,94.5099441
52,Университетская улица,667004,51.7047847,94.5093754
54,Университетская улица,667004,51.7048067,94.5088338
60,Университетская улица,667004,51.7047863,94.5082261
62,Университетская улица,667004,51.7048372,94.5076494
64,Университетская улица,667004,51.7048858,94.5074448
66,Университетская улица,667004,51.7048236,94.5069747
68,Университетская улица,667004,51.7048427,94.5064373
74,Университетская улица,667004,51.7048305,94.5061189
68А,Университетская улица,667004,51.7048219,94.5055177
70,Университетская улица,667004,51.7048308,94.5051644
72,Университетская улица,667004,51.7048956,94.5041216
76А,Университетская улица,667004,51.7049612,94.5029321
78,Университетская улица,667004,51.7049484,94.5026601
78А,Университетская улица,667004,51.7049760,94.5023280
80,Университетская улица,667004,51.7050182,94.5020838
80А,Университетская улица,667004,51.7051000,94.5018036
82,Университетская улица,667004,51.7051173,94.5016681
101,Буренская улица,667004,51.7055017,94.5010998
99,Буренская улица,667004,51.7054940,94.5014297
97,Буренская улица,667004,51.7054543,94.5019839
95,Буренская улица,667004,51.7054059,94.5025897
93,Буренская улица,667004,51.7054059,94.5029086
91,Буренская улица,667004,51.7053583,94.5036881
89,Буренская улица,667004,51.7053425,94.5040402
89А,Буренская улица,667004,51.7053311,94.5044667
85А,Буренская улица,667004,51.7053298,94.5050561
85,Буренская улица,667004,51.7053353,94.5055439
87,Буренская улица,667004,51.7052141,94.5063650
81,Буренская улица,667004,51.7053317,94.5067459
77,Буренская улица,667004,51.7052683,94.5082100
75,Буренская улица,667004,51.7052530,94.5086955
73,Буренская улица,667004,51.7052330,94.5093660
71,Буренская улица,667004,51.7052206,94.5100151
69,Буренская улица,667004,51.7052138,94.5105907
67,Буренская улица,667004,51.7051907,94.5112027
42,Университетская улица,667004,51.7047202,94.5123607
30А,Университетская улица,667004,51.7047793,94.5131328
32А,Университетская улица,667004,51.7050315,94.5131623
63,Буренская улица,667004,51.7051370,94.5123211
65,Буренская улица,667004,51.7051596,94.5118251
104,улица Сергея Лазо,667004,51.7037840,94.5067882
98,улица Сергея Лазо,667004,51.7038147,94.5081426
100А,улица Сергея Лазо,667004,51.7040071,94.5078328
100,улица Сергея Лазо,667004,51.7037520,94.5074147
96,улица Сергея Лазо,667004,51.7037965,94.5086079
94,улица Сергея Лазо,667004,51.7037977,94.5091072
92А,улица Сергея Лазо,667004,51.7037971,94.5095551
92,улица Сергея Лазо,667004,51.7037927,94.5099910
90,улица Сергея Лазо,667004,51.7037969,94.5104127
88,улица Сергея Лазо,667004,51.7038015,94.5110038
86,улица Сергея Лазо,667004,51.7037936,94.5117039
84,улица Сергея Лазо,667004,51.7037859,94.5125068
82,улица Сергея Лазо,667004,51.7037844,94.5129947
49,Университетская улица,667004,51.7043647,94.5130973
51,Университетская улица,667004,51.7043254,94.5123597
53,Университетская улица,667004,51.7043444,94.5117515
55,Университетская улица,667004,51.7043429,94.5111071
57,Университетская улица,667004,51.7043657,94.5105070
59,Университетская улица,667004,51.7043868,94.5099860
61,Университетская улица,667004,51.7043972,94.5095487
63,Университетская улица,667004,51.7044198,94.5091125
65,Университетская улица,667004,51.7043999,94.5086606
65А,Университетская улица,667004,51.7044108,94.5081278
67,Университетская улица,667004,51.7044059,94.5078509
69,Университетская улица,667004,51.7043425,94.5070626
69А,Университетская улица,667004,51.7044543,94.5067535
71,Университетская улица,667004,51.7044389,94.5064981
71А,Университетская улица,667004,51.7045054,94.5062157
73А,Университетская улица,667004,51.7042910,94.5055921
73,Университетская улица,667004,51.7045516,94.5054258
75,Университетская улица,667004,51.7044584,94.5050068
77,Университетская улица,667004,51.7045464,94.5045997
20,Университетская улица,667004,51.7045686,94.5171531
18,Университетская улица,667004,51.7045540,94.5177834
16,Университетская улица,667004,51.7045486,94.5181133
14,Университетская улица,667004,51.7045474,94.5184131
12,Университетская улица,667004,51.7045166,94.5188275
10,Университетская улица,667004,51.7044975,94.5189435
8,Университетская улица,667004,51.7044954,94.5193412
6,Университетская улица,667004,51.7044805,94.5197167
37/1,Буренская улица,667004,51.7049044,94.5197622
39,Буренская улица,667004,51.7049767,94.5194886
41,Буренская улица,667004,51.7049908,94.5192854
43,Буренская улица,667004,51.7050153,94.5189804
45,Буренская улица,667004,51.7050203,94.5183353
47,Буренская улица,667004,51.7050934,94.5177949
22А,Университетская улица,667004,51.7051005,94.5175521
56,улица Сергея Лазо,667004,51.7037298,94.5180540
54,улица Сергея Лазо,667004,51.7036959,94.5181894
52,улица Сергея Лазо,667004,51.7037518,94.5186039
50,улица Сергея Лазо,667004,51.7037127,94.5188831
48,улица Сергея Лазо,667004,51.7037136,94.5191909
46,улица Сергея Лазо,667004,51.7037256,94.5194716
44,улица Сергея Лазо,667004,51.7036799,94.5197465
42,улица Сергея Лазо,667004,51.7036897,94.5200506
40,улица Сергея Лазо,667004,51.7037071,94.5203527
38,улица Сергея Лазо,667004,51.7036701,94.5207010
1,Университетская улица,667004,51.7041518,94.5208086
3,Университетская улица,667004,51.7041567,94.5204835
5,Университетская улица,667004,51.7041335,94.5201746
7,Университетская улица,667004,51.7041796,94.5199114
9,Университетская улица,667004,51.7041765,94.5196007
11,Университетская улица,667004,51.7041861,94.5193351
13,Университетская улица,667004,51.7042039,94.5190075
15,Университетская улица,667004,51.7042109,94.5187689
17,Университетская улица,667004,51.7042179,94.5183986
19,Университетская улица,667004,51.7042428,94.5180268
80,улица Сергея Лазо,667004,51.7037881,94.5135157
78,улица Сергея Лазо,667004,51.7037759,94.5138664
76,улица Сергея Лазо,667004,51.7037732,94.5141011
74,улица Сергея Лазо,667004,51.7037697,94.5145457
72,улица Сергея Лазо,667004,51.7037757,94.5147174
70,улица Сергея Лазо,667004,51.7037923,94.5150077
68,улица Сергея Лазо,667004,51.7037722,94.5153028
58,улица Сергея Лазо,667004,51.7037514,94.5159575
62,улица Сергея Лазо,667004,51.7037576,94.5163116
60,улица Сергея Лазо,667004,51.7037509,94.5167129
60А,улица Сергея Лазо,667004,51.7037437,94.5175675
21,Университетская улица,667004,51.7042456,94.5175179
23,Университетская улица,667004,51.7042571,94.5172021
25,Университетская улица,667004,51.7042706,94.5169547
27,Университетская улица,667004,51.7042579,94.5165536
29,Университетская улица,667004,51.7042785,94.5162968
31,Университетская улица,667004,51.7042872,94.5160172
33,Университетская улица,667004,51.7042881,94.5157065
35,Университетская улица,667004,51.7042953,94.5154077
37,Университетская улица,667004,51.7042814,94.5151465
39,Университетская улица,667004,51.7042926,94.5148270
41,Университетская улица,667004,51.7042873,94.5145554
43,Университетская улица,667004,51.7043031,94.5142269
45,Университетская улица,667004,51.7043038,94.5139084
47,Университетская улица,667004,51.7043321,94.5135549
32,Университетская улица,667004,51.7050149,94.5136260
30,Университетская улица,667004,51.7047522,94.5135945
28,Университетская улица,667004,51.7046596,94.5145218
26,Университетская улица,667004,51.7046297,94.5151642
24,Университетская улица,667004,51.7046167,94.5157705
22,Университетская улица,667004,51.7046205,94.5166985
2,Университетская улица,667004,51.7049372,94.5167327
53,Буренская улица,667004,51.7049987,94.5158791
36,Университетская улица,667004,51.7050394,94.5152126
34,Университетская улица,667004,51.7050560,94.5145359
13,Педагогическая улица,667004,51.7064850,94.5143245
11,Педагогическая улица,667004,51.7066028,94.5145437
9,Педагогическая улица,667004,51.7069265,94.5147415
2,Тоджинский переулок,667004,51.7068572,94.5152457
2,улица Новостроек,667004,51.7061798,94.5153634
4,улица Новостроек,667004,51.7060982,94.5148793
6,улица Новостроек,667004,51.7061148,94.5145225
24А,Буренская улица,667004,51.7058156,94.5137816
6/1,улица Новостроек,667004,51.7058457,94.5151163
20,Буренская улица,667004,51.7056087,94.5151763
18,Буренская улица,667004,51.7055584,94.5157382
16,Буренская улица,667004,51.7055110,94.5161778
14,Буренская улица,667004,51.7054984,94.5166837
12,Буренская улица,667004,51.7054642,94.5171300
10,Буренская улица,667004,51.7054427,94.5175417
8,Буренская улица,667004,51.7053932,94.5181245
6,Буренская улица,667004,51.7053361,94.5187547
4,Буренская улица,667004,51.7053141,94.5191041
2,Буренская улица,667004,51.7052699,94.5197286
1,Релейная улица,667004,51.7067167,94.5163304
2Б,улица Новостроек,667004,51.7060957,94.5163618
5,Тоджинский переулок,667004,51.7061308,94.5157356
3,Тоджинский переулок,667004,51.7064321,94.5157863
3,Релейная улица,667004,51.7067998,94.5158317
7,Педагогическая улица,667004,51.7075758,94.5154701
7А,Педагогическая улица,667004,51.7075272,94.5158194
7Б,Педагогическая улица,667004,51.7073763,94.5164759
7/1,Педагогическая улица,667004,51.7072952,94.5167776
5В,Педагогическая улица,667004,51.7075955,94.5168075
5Б,Педагогическая улица,667004,51.7077356,94.5164453
5А,Педагогическая улица,667004,51.7078719,94.5160319
5,Педагогическая улица,667004,51.7079916,94.5156467
67/1,Колхозная улица,667004,51.7085026,94.5173959
67/2,Колхозная улица,667004,51.7080828,94.5172762
3В,Педагогическая улица,667004,51.7078709,94.5170187
3Б,Педагогическая улица,667004,51.7079236,94.5168034
3А,Педагогическая улица,667004,51.7080358,94.5164652
67В,Колхозная улица,667004,51.7083641,94.5170971
67А,Колхозная улица,667004,51.7083506,94.5166465
67Б,Колхозная улица,667004,51.7085626,94.5159680
3,Педагогическая улица,667004,51.7082670,94.5157950
67/Т,Колхозная улица,667004,51.7071663,94.5174689
35,Буренская улица,667004,51.7044703,94.5201783
33,Буренская улица,667004,51.7047259,94.5202383
31,Буренская улица,667004,51.7049150,94.5203349
29,Буренская улица,667004,51.7051092,94.5203906
27,Буренская улица,667004,51.7052793,94.5204858
25,Буренская улица,667004,51.7054474,94.5205193
23,Буренская улица,667004,51.7056188,94.5205807
21,Буренская улица,667004,51.7057965,94.5206477
19,Буренская улица,667004,51.7059869,94.5207262
17,Буренская улица,667004,51.7061599,94.5207755
15,Буренская улица,667004,51.7063550,94.5208295
13,Буренская улица,667004,51.7065195,94.5208961
11,Буренская улица,667004,51.7066785,94.5209780
9,Буренская улица,667004,51.7068620,94.5210289
7,Буренская улица,667004,51.7070417,94.5210923
5,Буренская улица,667004,51.7072284,94.5211285
3,Буренская улица,667004,51.7074110,94.5212053
1,Буренская улица,667004,51.7076515,94.5212864
2,улица Сергея Лазо,667004,51.7075694,94.5220153
4,улица Сергея Лазо,667004,51.7073483,94.5219382
6,улица Сергея Лазо,667004,51.7071719,94.5218869
8,улица Сергея Лазо,667004,51.7070171,94.5218081
10,улица Сергея Лазо,667004,51.7067772,94.5217478
12,улица Сергея Лазо,667004,51.7065863,94.5216935
14,улица Сергея Лазо,667004,51.7064393,94.5216042
16,улица Сергея Лазо,667004,51.7062831,94.5215774
18,улица Сергея Лазо,667004,51.7060525,94.5214768
20,улица Сергея Лазо,667004,51.7058864,94.5214571
22,улица Сергея Лазо,667004,51.7057359,94.5213833
24,улица Сергея Лазо,667004,51.7055129,94.5213226
26,улица Сергея Лазо,667004,51.7053317,94.5212683
28,улица Сергея Лазо,667004,51.7051561,94.5211969
30,улица Сергея Лазо,667004,51.7049887,94.5211184
32,улица Сергея Лазо,667004,51.7048086,94.5210500
34,улица Сергея Лазо,667004,51.7046222,94.5210229
36,улица Сергея Лазо,667004,51.7044362,94.5209316
3,улица Сергея Лазо,667004,51.7070651,94.5223467
5,улица Сергея Лазо,667004,51.7067541,94.5222641
7,улица Сергея Лазо,667004,51.7064094,94.5221454
9,улица Сергея Лазо,667004,51.7061769,94.5220613
11,улица Сергея Лазо,667004,51.7060188,94.5220381
13,улица Сергея Лазо,667004,51.7057877,94.5219560
15,улица Сергея Лазо,667004,51.7056316,94.5218580
17,улица Сергея Лазо,667004,51.7053670,94.5217806
19,улица Сергея Лазо,667004,51.7051811,94.5217119
21,улица Сергея Лазо,667004,51.7050091,94.5216955
23,улица Сергея Лазо,667004,51.7048337,94.5216515
25,улица Сергея Лазо,667004,51.7046581,94.5215714
27,улица Сергея Лазо,667004,51.7044686,94.5215141
29,улица Сергея Лазо,667004,51.7041927,94.5216535
31,улица Сергея Лазо,667004,51.7041246,94.5213907
33,улица Сергея Лазо,667004,51.7039250,94.5213102
35,улица Сергея Лазо,667004,51.7037729,94.5212950
37,улица Сергея Лазо,667004,51.7036634,94.5212412
42/1,Профсоюзная улица,667004,51.7034056,94.5216090
42А,Профсоюзная улица,667004,51.7036857,94.5220103
40,Профсоюзная улица,667004,51.7039412,94.5220609
38,Профсоюзная улица,667004,51.7041600,94.5221866
36,Профсоюзная улица,667004,51.7042936,94.5221826
34,Профсоюзная улица,667004,51.7044784,94.5222423
32,Профсоюзная улица,667004,51.7046795,94.5223070
30,Профсоюзная улица,667004,51.7048839,94.5223603
26,Профсоюзная улица,667004,51.7050901,94.5224836
24,Профсоюзная улица,667004,51.7052748,94.5225574
22,Профсоюзная улица,667004,51.7054740,94.5226128
20,Профсоюзная улица,667004,51.7056874,94.5226889
18,Профсоюзная улица,667004,51.7058441,94.5227633
16,Профсоюзная улица,667004,51.7060219,94.5228197
14,Профсоюзная улица,667004,51.7062287,94.5228609
12,Профсоюзная улица,667004,51.7063862,94.5229185
10,Профсоюзная улица,667004,51.7065885,94.5229802
8,Профсоюзная улица,667004,51.7067618,94.5230164
6,Профсоюзная улица,667004,51.7069565,94.5231170
4,Профсоюзная улица,667004,51.7072328,94.5230369
2,Профсоюзная улица,667004,51.7074056,94.5232079
1,улица Сергея Лазо,667004,51.7073844,94.5224448
37,Профсоюзная улица,667004,51.7038617,94.5225330
33,Профсоюзная улица,667004,51.7042274,94.5226771
31,Профсоюзная улица,667004,51.7044499,94.5227683
29,Профсоюзная улица,667004,51.7046458,94.5227820
27,Профсоюзная улица,667004,51.7048832,94.5230299
25,Профсоюзная улица,667004,51.7049956,94.5228981
23,Профсоюзная улица,667004,51.7051867,94.5229715
21,Профсоюзная улица,667004,51.7054414,94.5230748
19,Профсоюзная улица,667004,51.7056155,94.5231133
17,Профсоюзная улица,667004,51.7058339,94.5231590
15,Профсоюзная улица,667004,51.7060191,94.5232310
13,Профсоюзная улица,667004,51.7062420,94.5233199
11,Профсоюзная улица,667004,51.7064167,94.5233739
9,Профсоюзная улица,667004,51.7065482,94.5233705
7,Профсоюзная улица,667004,51.7067518,94.5234497
5,Профсоюзная улица,667004,51.7069307,94.5235116
3,Профсоюзная улица,667004,51.7071285,94.5235794
1,Профсоюзная улица,667004,51.7071979,94.5238694
2,улица 26 Бакинских Комиссаров,667004,51.7072240,94.5243522
4,улица 26 Бакинских Комиссаров,667004,51.7070427,94.5242925
6,улица 26 Бакинских Комиссаров,667004,51.7068214,94.5241765
8,улица 26 Бакинских Комиссаров,667004,51.7066687,94.5241762
10,улица 26 Бакинских Комиссаров,667004,51.7064645,94.5240769
12,улица 26 Бакинских Комиссаров,667004,51.7062858,94.5240128
14,улица 26 Бакинских Комиссаров,667004,51.7061040,94.5239619
16,улица 26 Бакинских Комиссаров,667004,51.7059185,94.5238630
18,улица 26 Бакинских Комиссаров,667004,51.7057386,94.5238040
20,улица 26 Бакинских Комиссаров,667004,51.7055771,94.5237507
24,улица 26 Бакинских Комиссаров,667004,51.7053587,94.5236695
26,улица 26 Бакинских Комиссаров,667004,51.7051383,94.5235425
28,улица 26 Бакинских Комиссаров,667004,51.7049349,94.5234912
30,улица 26 Бакинских Комиссаров,667004,51.7046787,94.5234322
32,улица 26 Бакинских Комиссаров,667004,51.7045031,94.5233604
34,улица 26 Бакинских Комиссаров,667004,51.7043348,94.5232937
36,улица 26 Бакинских Комиссаров,667004,51.7042170,94.5232525
38,улица 26 Бакинских Комиссаров,667004,51.7039398,94.5231673
40А,улица 26 Бакинских Комиссаров,667004,51.7037395,94.5230775
17,улица Парижских Коммунаров,667004,51.7056893,94.5253724
2/1,Сибирская улица,667004,51.7060288,94.5343028
21,Сибирская улица,667004,51.7040602,94.5342804
2,Кок-Тейская улица,667004,51.7055766,94.5365704
4,Кок-Тейская улица,667004,51.7056324,94.5369166
4,Геологическая улица,667004,51.7050635,94.5378715
10,улица Парижских Коммунаров,667004,51.7064099,94.5250294
32,улица Парижских Коммунаров,667004,51.7039746,94.5243430
20,Сельскохозяйственная улица,667004,51.7096931,94.5263702
22,Сельскохозяйственная улица,667004,51.7097081,94.5260939
18,Сельскохозяйственная улица,667004,51.7097361,94.5266994
16,Сельскохозяйственная улица,667004,51.7096010,94.5269338
14А,Сельскохозяйственная улица,667004,51.7095500,94.5271484
14,Сельскохозяйственная улица,667004,51.7094702,94.5274568
12,Сельскохозяйственная улица,667004,51.7094140,94.5278907
10,Сельскохозяйственная улица,667004,51.7093436,94.5282849
8,Сельскохозяйственная улица,667004,51.7092365,94.5285307
6,Сельскохозяйственная улица,667004,51.7091471,94.5290366
4,Сельскохозяйственная улица,667004,51.7090728,94.5291768
2,Сельскохозяйственная улица,667004,51.7088739,94.5295205
15,Сельскохозяйственная улица,667004,51.7087619,94.5288238
13,Сельскохозяйственная улица,667004,51.7087176,94.5290853
11,Сельскохозяйственная улица,667004,51.7086435,94.5295060
9,Сельскохозяйственная улица,667004,51.7086036,94.5297542
7,Сельскохозяйственная улица,667004,51.7085394,94.5299993
5,Сельскохозяйственная улица,667004,51.7084979,94.5302302
3,Сельскохозяйственная улица,667004,51.7084369,94.5305839
2,Республиканская улица,667004,51.7081702,94.5307707
4,Республиканская улица,667004,51.7079745,94.5307472
6,Республиканская улица,667004,51.7080377,94.5302651
8,Республиканская улица,667004,51.7081046,94.5300129
10,Республиканская улица,667004,51.7081351,94.5297068
12,Республиканская улица,667004,51.7081980,94.5294819
14,Республиканская улица,667004,51.7082421,94.5291362
16,Республиканская улица,667004,51.7083354,94.5286551
17,Республиканская улица,667004,51.7080724,94.5285739
15,Республиканская улица,667004,51.7080067,94.5289293
13,Республиканская улица,667004,51.7079820,94.5291986
11,Республиканская улица,667004,51.7079122,94.5294826
17А,Республиканская улица,667004,51.7077090,94.5285066
44В,Колхозная улица,667004,51.7075544,94.5284137
44,Колхозная улица,667004,51.7073047,94.5282913
42А,Колхозная улица,667004,51.7072540,94.5286377
42,Колхозная улица,667004,51.7071856,94.5289277
40В,Колхозная улица,667004,51.7074205,94.5296301
9,Республиканская улица,667004,51.7078567,94.5298246
40Б,Колхозная улица,667004,51.7076893,94.5304636
40А,Колхозная улица,667004,51.7074753,94.5303643
40,Колхозная улица,667004,51.7071419,94.5301155
1,Республиканская улица,667004,51.7080794,94.5312046
3,Республиканская улица,667004,51.7079572,94.5311408
5,Республиканская улица,667004,51.7077960,94.5311193
38А,Колхозная улица,667004,51.7072828,94.5309611
38,Колхозная улица,667004,51.7070207,94.5308418
32А,Колхозная улица,667004,51.7076088,94.5320508
30/1,Колхозная улица,667004,51.7071136,94.5328816
32,Колхозная улица,667004,51.7071411,94.5324585
32В,Колхозная улица,667004,51.7074794,94.5327287
28/2,Колхозная улица,667004,51.7073617,94.5333753
2/1,Солнечная улица,667004,51.7064285,94.5356966
18,Колхозная улица,667004,51.7065089,94.5353118
2А,Солнечная улица,667004,51.7066201,94.5359540
20А,Колхозная улица,667004,51.7071366,94.5359487
23,Колхозная улица,667004,51.7073119,94.5361700
1/4,Солнечная улица,667004,51.7072844,94.5368946
1/3,Солнечная улица,667004,51.7070673,94.5366246
2/4,Кок-Тейская улица,667004,51.7071877,94.5373924
2/3,Кок-Тейская улица,667004,51.7070157,94.5373414
2/2,Кок-Тейская улица,667004,51.7067406,94.5372697
1/2,Солнечная улица,667004,51.7068154,94.5365455
2/1,Кок-Тейская улица,667004,51.7064472,94.5371209
1/1,Солнечная улица,667004,51.7065030,94.5365388
1/6,Кок-Тейская улица,667004,51.7072092,94.5383614
1/5,Кок-Тейская улица,667004,51.7071823,94.5379838
1/4,Кок-Тейская улица,667004,51.7069949,94.5378705
1/3,Кок-Тейская улица,667004,51.7067950,94.5378188
1/2,Кок-Тейская улица,667004,51.7066662,94.5377860
14/2,Колхозная улица,667004,51.7059482,94.5379530
2/2,Колхозная улица,667004,51.7062187,94.5412400
2/4,Колхозная улица,667004,51.7062710,94.5408544
2/10,Колхозная улица,667004,51.7061705,94.5397521
2/8,Колхозная улица,667004,51.7061422,94.5401169
2/6,Колхозная улица,667004,51.7061015,94.5404904
2/1,Колхозная улица,667004,51.7065331,94.5405571
2/1,Магистральная улица,667004,51.7022696,94.5411831
4/2,Колхозная улица,667004,51.7069767,94.5421832
2/7,Колхозная улица,667004,51.7040024,94.5498548
2/3,Магистральная улица,667004,51.7026381,94.5377225
24Б,улица 2-я Листвянка,667004,51.7066387,94.5049426
21,Анкерный переулок,667004,51.7096617,94.5095217
29,улица Листвянка,667004,51.7078120,94.5070099
45,Сельскохозяйственная улица,667004,51.7108594,94.5183008
47,Сельскохозяйственная улица,667004,51.7110206,94.5176051
46,Колхозная улица,667004,51.7076095,94.5262137
46А,Колхозная улица,667004,51.7074258,94.5272178
27,Сельскохозяйственная улица,667004,51.7097348,94.5247569
28А,Сельскохозяйственная улица,667004,51.7096775,94.5252913
28,Сельскохозяйственная улица,667004,51.7095755,94.5255981
8,Спортивная улица,667004,51.7091785,94.5260651
10,Спортивная улица,667004,51.7092500,94.5257523
25,Сельскохозяйственная улица,667004,51.7095378,94.5259018
2,Спортивная улица,667004,51.7090245,94.5269573
4,Спортивная улица,667004,51.7090549,94.5266803
6,Спортивная улица,667004,51.7091353,94.5263628
23,Сельскохозяйственная улица,667004,51.7093608,94.5266361
21А,Сельскохозяйственная улица,667004,51.7092931,94.5269995
21,Сельскохозяйственная улица,667004,51.7090865,94.5273136
19А,Сельскохозяйственная улица,667004,51.7091011,94.5277700
37,Сельскохозяйственная улица,667004,51.7094601,94.5241604
37/1,Сельскохозяйственная улица,667004,51.7092441,94.5233966
39,Сельскохозяйственная улица,667004,51.7095906,94.5235248
43,Сельскохозяйственная улица,667004,51.7105895,94.5194756
60,Колхозная улица,667004,51.7089941,94.5191668
38,Республиканская улица,667004,51.7086703,94.5248775
15,Спортивная улица,667004,51.7091319,94.5249859
36,Республиканская улица,667004,51.7089005,94.5252775
34,Республиканская улица,667004,51.7088286,94.5256047
32,Республиканская улица,667004,51.7087795,94.5259162
30,Республиканская улица,667004,51.7087189,94.5262659
28,Республиканская улица,667004,51.7086903,94.5266247
26,Республиканская улица,667004,51.7086296,94.5269019
19,Сельскохозяйственная улица,667004,51.7090498,94.5281455
17,Сельскохозяйственная улица,667004,51.7089921,94.5284878
18А,Республиканская улица,667004,51.7086150,94.5283309
24,Республиканская улица,667004,51.7085855,94.5271668
22,Республиканская улица,667004,51.7084966,94.5275745
20,Республиканская улица,667004,51.7084735,94.5278659
18,Республиканская улица,667004,51.7083894,94.5282501
19,Республиканская улица,667004,51.7081405,94.5281284
21,Республиканская улица,667004,51.7081678,94.5278125
23,Республиканская улица,667004,51.7082267,94.5274716
25,Республиканская улица,667004,51.7082655,94.5271745
27,Республиканская улица,667004,51.7082911,94.5268980
29,Республиканская улица,667004,51.7083125,94.5266146
31,Республиканская улица,667004,51.7083990,94.5262053
33,Республиканская улица,667004,51.7084389,94.5258617
35,Республиканская улица,667004,51.7084750,94.5255009
14,Хвойная улица,667004,51.7081883,94.5255169
52Б,Колхозная улица,667004,51.7084052,94.5250757
50,Колхозная улица,667004,51.7077873,94.5253177
12,Хвойная улица,667004,51.7081243,94.5260524
10,Хвойная улица,667004,51.7080815,94.5264429
8,Хвойная улица,667004,51.7080113,94.5268526
6,Хвойная улица,667004,51.7079714,94.5271913
4,Хвойная улица,667004,51.7078999,94.5275816
2,Хвойная улица,667004,51.7078463,94.5280429
1,Хвойная улица,667004,51.7076429,94.5280094
3,Хвойная улица,667004,51.7076928,94.5276610
5,Хвойная улица,667004,51.7077371,94.5273077
7,Хвойная улица,667004,51.7077690,94.5270307
9,Хвойная улица,667004,51.7077872,94.5267960
11,Хвойная улица,667004,51.7078607,94.5263849
46А,Колхозная улица,667004,51.7075249,94.5266310
46Б,Колхозная улица,667004,51.7074840,94.5269543
44А,Колхозная улица,667004,51.7073970,94.5275547
44Б,Колхозная улица,667004,51.7073643,94.5278900
14/3,Колхозная улица,667004,51.7062963,94.5371343
14/4,Колхозная улица,667004,51.7063130,94.5370032
2/11,Колхозная улица,667004,51.7040755,94.5500398
2/9,Колхозная улица,667004,51.7042667,94.5499810
17,Солнечная улица,667004,51.7042187,94.5354914
8,улица Новостроек,667004,51.7061742,94.5141095
22,Буренская улица,667004,51.7055755,94.5144303
102,улица Сергея Лазо,667004,51.7037806,94.5069348
19,Парковая улица,667004,51.7182835,94.5121775
21,Парковая улица,667004,51.7182881,94.5116903
16,Парковая улица,667004,51.7185485,94.5136931
33,улица Орбита,667004,51.7180029,94.5162304
2,улица Орбита,667004,51.7176441,94.5173371
4,улица Орбита,667004,51.7175353,94.5167706
2Я,Малоенисейская улица,667004,51.7178979,94.5147356
6,улица Орбита,667004,51.7172908,94.5162706
17,Парковая улица,667004,51.7175874,94.5140368
25,Парковая улица,667004,51.7165290,94.5130864
23,Парковая улица,667004,51.7167698,94.5135110
12Г,Нивелирная улица,667004,51.7158205,94.5106823
8Г,Нивелирная улица,667004,51.7154221,94.5109582
6Г,Нивелирная улица,667004,51.7150681,94.5114225
12В,Нивелирная улица,667004,51.7155590,94.5098160
10В,Нивелирная улица,667004,51.7154965,94.5099158
8В,Нивелирная улица,667004,51.7153087,94.5102273
6В,Нивелирная улица,667004,51.7150366,94.5105756
6Д,Нивелирная улица,667004,51.7149290,94.5111255
2Ж,Нивелирная улица,667004,51.7146274,94.5122393
4Б,Нивелирная улица,667004,51.7143860,94.5113834
4В,Нивелирная улица,667004,51.7144846,94.5109316
6Б,Нивелирная улица,667004,51.7145796,94.5104823
19Б,Сельскохозяйственная улица,667004,51.7091143,94.5274495
58,Сельскохозяйственная улица,667004,51.7112408,94.5175833
56А,Сельскохозяйственная улица,667004,51.7113224,94.5179464
56,Сельскохозяйственная улица,667004,51.7111505,94.5180021
54А,Сельскохозяйственная улица,667004,51.7110802,94.5182341
52,Сельскохозяйственная улица,667004,51.7109358,94.5190773
50,Сельскохозяйственная улица,667004,51.7108355,94.5195621
48,Сельскохозяйственная улица,667004,51.7107537,94.5197110
46,Сельскохозяйственная улица,667004,51.7104053,94.5211127
46А,Сельскохозяйственная улица,667004,51.7104403,94.5212954
44,Сельскохозяйственная улица,667004,51.7103248,94.5215104
44А,Сельскохозяйственная улица,667004,51.7103895,94.5219201
42,Сельскохозяйственная улица,667004,51.7101986,94.5221001
42А,Сельскохозяйственная улица,667004,51.7101246,94.5224750
40А,Сельскохозяйственная улица,667004,51.7100972,94.5227177
40,Сельскохозяйственная улица,667004,51.7099252,94.5232821
38,Сельскохозяйственная улица,667004,51.7097780,94.5238831
36,Сельскохозяйственная улица,667004,51.7097038,94.5242767
32,Сельскохозяйственная улица,667004,51.7099297,94.5249704
30,Сельскохозяйственная улица,667004,51.7098657,94.5252923
24,Сельскохозяйственная улица,667004,51.7098080,94.5255682
70А,Сельскохозяйственная улица,667004,51.7123283,94.5154785
1Б,Нивелирная улица,667004,51.7120894,94.5159421
66А,Сельскохозяйственная улица,667004,51.7122535,94.5162806
62А,Сельскохозяйственная улица,667004,51.7116556,94.5167823
60,Сельскохозяйственная улица,667004,51.7115106,94.5173607
60А,Сельскохозяйственная улица,667004,51.7113946,94.5171384
62,Сельскохозяйственная улица,667004,51.7113975,94.5168068
64,Сельскохозяйственная улица,667004,51.7114920,94.5164125
66,Сельскохозяйственная улица,667004,51.7115859,94.5159169
68,Сельскохозяйственная улица,667004,51.7117373,94.5156960
70,Сельскохозяйственная улица,667004,51.7117490,94.5150814
16,Нивелирная улица,667004,51.7149725,94.5081366
6А,Нивелирная улица,667004,51.7143363,94.5100841
2А,Нивелирная улица,667004,51.7136953,94.5113304
2,Нивелирная улица,667004,51.7138198,94.5109921
4/1,Нивелирная улица,667004,51.7138785,94.5107644
4,Нивелирная улица,667004,51.7139840,94.5104084
6,Нивелирная улица,667004,51.7140743,94.5096963
8,Нивелирная улица,667004,51.7142264,94.5093010
10,Нивелирная улица,667004,51.7143686,94.5089191
12,Нивелирная улица,667004,51.7145015,94.5085859
14,Нивелирная улица,667004,51.7146126,94.5083293
14А,Нивелирная улица,667004,51.7147080,94.5080775
18А,Нивелирная улица,667004,51.7148752,94.5075329
18,Нивелирная улица,667004,51.7149628,94.5072469
78,Сельскохозяйственная улица,667004,51.7122114,94.5132102
124,Сельскохозяйственная улица,667004,51.7140970,94.5064994
41,Нивелирная улица,667004,51.7145275,94.5063676
39,Нивелирная улица,667004,51.7145734,94.5069979
37,Нивелирная улица,667004,51.7143469,94.5071756
35,Нивелирная улица,667004,51.7144522,94.5074372
33,Нивелирная улица,667004,51.7141331,94.5074935
31,Нивелирная улица,667004,51.7142698,94.5080316
29,Нивелирная улица,667004,51.7141421,94.5084255
27,Нивелирная улица,667004,51.7140521,94.5086891
25,Нивелирная улица,667004,51.7139360,94.5088226
23,Нивелирная улица,667004,51.7138380,94.5091269
21,Нивелирная улица,667004,51.7137865,94.5093663
19,Нивелирная улица,667004,51.7136498,94.5096161
17,Нивелирная улица,667004,51.7137052,94.5099232
15,Нивелирная улица,667004,51.7136467,94.5101274
13,Нивелирная улица,667004,51.7135172,94.5104211
13А,Нивелирная улица,667004,51.7133627,94.5105157
11,Нивелирная улица,667004,51.7134123,94.5107698
9,Нивелирная улица,667004,51.7132960,94.5111333
7,Нивелирная улица,667004,51.7132073,94.5115731
5,Нивелирная улица,667004,51.7131838,94.5118453
5,Нивелирная улица,667004,51.7130906,94.5120525
3,Нивелирная улица,667004,51.7130415,94.5124130
7/О,Нивелирная улица,667004,51.7129146,94.5127158
1/2,Нивелирная улица,667004,51.7128281,94.5129515
1,Нивелирная улица,667004,51.7124864,94.5134074
1А,Нивелирная улица,667004,51.7126599,94.5131727
72,Сельскохозяйственная улица,667004,51.7118204,94.5146774
74,Сельскохозяйственная улица,667004,51.7119376,94.5142061
76,Сельскохозяйственная улица,667004,51.7120778,94.5138108
76А,Сельскохозяйственная улица,667004,51.7121131,94.5134872
78А,Сельскохозяйственная улица,667004,51.7122360,94.5130848
80,Сельскохозяйственная улица,667004,51.7122926,94.5127215
82,Сельскохозяйственная улица,667004,51.7123285,94.5123842
84А,Сельскохозяйственная улица,667004,51.7123981,94.5120677
86,Сельскохозяйственная улица,667004,51.7124584,94.5119070
88,Сельскохозяйственная улица,667004,51.7125856,94.5113106
90,Сельскохозяйственная улица,667004,51.7126426,94.5110287
92,Сельскохозяйственная улица,667004,51.7126892,94.5107386
94,Сельскохозяйственная улица,667004,51.7127608,94.5105449
94Б,Сельскохозяйственная улица,667004,51.7130485,94.5104077
96,Сельскохозяйственная улица,667004,51.7129593,94.5102180
98,Сельскохозяйственная улица,667004,51.7130281,94.5098840
100,Сельскохозяйственная улица,667004,51.7130716,94.5097083
102,Сельскохозяйственная улица,667004,51.7130588,94.5094083
104,Сельскохозяйственная улица,667004,51.7132174,94.5091823
106,Сельскохозяйственная улица,667004,51.7132633,94.5089382
108,Сельскохозяйственная улица,667004,51.7133440,94.5086220
110,Сельскохозяйственная улица,667004,51.7135909,94.5083863
112,Сельскохозяйственная улица,667004,51.7135712,94.5081899
114,Сельскохозяйственная улица,667004,51.7136233,94.5078817
116,Сельскохозяйственная улица,667004,51.7137632,94.5076943
118,Сельскохозяйственная улица,667004,51.7137958,94.5073721
120,Сельскохозяйственная улица,667004,51.7139454,94.5069896
122,Сельскохозяйственная улица,667004,51.7140062,94.5067921
126,Сельскохозяйственная улица,667004,51.7141737,94.5062738
128,Сельскохозяйственная улица,667004,51.7142813,94.5060127
106А,Колхозная улица,667004,51.7123570,94.5092373
106Б,Колхозная улица,667004,51.7124000,94.5089630
106В,Колхозная улица,667004,51.7123034,94.5087417
106Г,Колхозная улица,667004,51.7124482,94.5083340
106Д,Колхозная улица,667004,51.7125113,94.5081828
106Е,Колхозная улица,667004,51.7127301,94.5078971
106Ж,Колхозная улица,667004,51.7129904,94.5074828
108,Колхозная улица,667004,51.7128641,94.5072344
108А,Колхозная улица,667004,51.7131045,94.5067230
108Б,Колхозная улица,667004,51.7131381,94.5063703
108В,Колхозная улица,667004,51.7132847,94.5059465
108Е,Колхозная улица,667004,51.7136161,94.5051649
108Д,Колхозная улица,667004,51.7135092,94.5053954
108Г,Колхозная улица,667004,51.7135734,94.5057712
127,Сельскохозяйственная улица,667004,51.7140540,94.5054654
125,Сельскохозяйственная улица,667004,51.7139606,94.5056847
123,Сельскохозяйственная улица,667004,51.7138590,94.5058506
121,Сельскохозяйственная улица,667004,51.7137809,94.5060809
119,Сельскохозяйственная улица,667004,51.7137783,94.5063660
117,Сельскохозяйственная улица,667004,51.7136180,94.5066418
115,Сельскохозяйственная улица,667004,51.7135353,94.5069638
113,Сельскохозяйственная улица,667004,51.7134380,94.5072517
111,Сельскохозяйственная улица,667004,51.7132249,94.5075217
109,Сельскохозяйственная улица,667004,51.7132247,94.5078666
107,Сельскохозяйственная улица,667004,51.7131067,94.5081545
105,Сельскохозяйственная улица,667004,51.7130475,94.5084610
103,Сельскохозяйственная улица,667004,51.7129676,94.5086541
101,Сельскохозяйственная улица,667004,51.7128265,94.5088410
99,Сельскохозяйственная улица,667004,51.7127851,94.5091866
97А,Сельскохозяйственная улица,667004,51.7126270,94.5093432
97,Сельскохозяйственная улица,667004,51.7124280,94.5095316
49,Сельскохозяйственная улица,667004,51.7111978,94.5164672
63,Сельскохозяйственная улица,667004,51.7114018,94.5154841
53,Сельскохозяйственная улица,667004,51.7114421,94.5152789
53А,Сельскохозяйственная улица,667004,51.7115067,94.5149554
55,Сельскохозяйственная улица,667004,51.7115267,94.5146985
55А,Сельскохозяйственная улица,667004,51.7115823,94.5144414
57,Сельскохозяйственная улица,667004,51.7116761,94.5139935
61,Сельскохозяйственная улица,667004,51.7117317,94.5137182
73,Сельскохозяйственная улица,667004,51.7118167,94.5134319
75,Сельскохозяйственная улица,667004,51.7118456,94.5131425
77,Сельскохозяйственная улица,667004,51.7119271,94.5129075
79,Сельскохозяйственная улица,667004,51.7119656,94.5124532
84,Сельскохозяйственная улица,667004,51.7120436,94.5122410
81,Сельскохозяйственная улица,667004,51.7121409,94.5119241
83,Сельскохозяйственная улица,667004,51.7122421,94.5113954
91,Сельскохозяйственная улица,667004,51.7123532,94.5108536
85,Сельскохозяйственная улица,667004,51.7124137,94.5106082
95,Сельскохозяйственная улица,667004,51.7125030,94.5102075
106,Колхозная улица,667004,51.7119935,94.5097130
102,Колхозная улица,667004,51.7118956,94.5101442
98Б,Колхозная улица,667004,51.7118248,94.5105485
98,Колхозная улица,667004,51.7117951,94.5109327
96,Колхозная улица,667004,51.7118956,94.5114491
94,Колхозная улица,667004,51.7116129,94.5116211
92,Колхозная улица,667004,51.7115242,94.5118920
88А,Колхозная улица,667004,51.7115132,94.5120690
90,Колхозная улица,667004,51.7114251,94.5125850
88,Колхозная улица,667004,51.7112760,94.5128465
86,Колхозная улица,667004,51.7112626,94.5131214
84,Колхозная улица,667004,51.7111958,94.5134738
82,Колхозная улица,667004,51.7112585,94.5136401
80,Колхозная улица,667004,51.7112734,94.5139623
78,Колхозная улица,667004,51.7110191,94.5141578
76,Колхозная улица,667004,51.7109573,94.5144653
74,Колхозная улица,667004,51.7111112,94.5148089
70,Колхозная улица,667004,51.7108989,94.5155008
68,Колхозная улица,667004,51.7107991,94.5158262
66,Колхозная улица,667004,51.7107416,94.5160672
64,Колхозная улица,667004,51.7107644,94.5163357
76А,Колхозная улица,667004,51.7108308,94.5133045
72А,Колхозная улица,667004,51.7104559,94.5148072
64А,Колхозная улица,667004,51.7103730,94.5161175
66А,Колхозная улица,667004,51.7104269,94.5158455
68А,Колхозная улица,667004,51.7104801,94.5155602
100,Колхозная улица,667004,51.7133502,94.5033353
20А,2-я Лесная улица,667001,51.7159235,94.5001521
2А,Лесная улица,667001,51.7163610,94.4998475
7,Малоенисейская улица,667001,51.7168419,94.5001094
5,Малоенисейская улица,667001,51.7166703,94.5005315
3,Малоенисейская улица,667001,51.7163845,94.5005982
1,Малоенисейская улица,667001,51.7164894,94.5012255
2/1,Лесная улица,667001,51.7160769,94.5010659
1А,Малоенисейская улица,667001,51.7164231,94.5013680
1Б,Малоенисейская улица,667001,51.7163084,94.5017110
1Г,Малоенисейская улица,667001,51.7161213,94.5022934
1Д,Малоенисейская улица,667001,51.7160295,94.5025532
1Е,Малоенисейская улица,667001,51.7159173,94.5028707
1Ж,Малоенисейская улица,667001,51.7158283,94.5030833
12,2-я Лесная улица,667001,51.7153089,94.5034128
12А,2-я Лесная улица,667001,51.7154934,94.5028512
14Б,2-я Лесная улица,667001,51.7155281,94.5021472
14,2-я Лесная улица,667001,51.7155382,94.5017341
14/1,2-я Лесная улица,667001,51.7155766,94.5013275
16,2-я Лесная улица,667001,51.7156589,94.5008429
18,2-я Лесная улица,667001,51.7157480,94.5002300
23,2-я Лесная улица,667001,51.7154979,94.4994686
11,Лесная улица,667001,51.7156375,94.4996232
21,2-я Лесная улица,667001,51.7154805,94.4998019
19,2-я Лесная улица,667001,51.7154391,94.5002072
17,2-я Лесная улица,667001,51.7154246,94.5005586
15,2-я Лесная улица,667001,51.7153904,94.5008762
13,2-я Лесная улица,667001,51.7152969,94.5012489
11,2-я Лесная улица,667001,51.7152480,94.5016044
9,2-я Лесная улица,667001,51.7152320,94.5019118
7,2-я Лесная улица,667001,51.7150800,94.5024274
5,2-я Лесная улица,667001,51.7151251,94.5027278
3,2-я Лесная улица,667001,51.7150717,94.5030792
1,2-я Лесная улица,667001,51.7150089,94.5034159
4,Пихтовая улица,667001,51.7144971,94.5031858
6,Пихтовая улица,667001,51.7145314,94.5028198
8,Пихтовая улица,667001,51.7146113,94.5024064
10,Пихтовая улица,667001,51.7146477,94.5020446
12,Пихтовая улица,667001,51.7147588,94.5017134
16,Пихтовая улица,667001,51.7147895,94.5009677
20,Пихтовая улица,667001,51.7149059,94.5003507
22,Пихтовая улица,667001,51.7149188,94.5000329
24,Пихтовая улица,667001,51.7149656,94.4996319
26,Пихтовая улица,667001,51.7150112,94.4993118
21,Пихтовая улица,667001,51.7146949,94.4994660
19,Пихтовая улица,667001,51.7146602,94.4998566
17,Пихтовая улица,667001,51.7145999,94.5002630
15,Пихтовая улица,667001,51.7145823,94.5005650
13,Пихтовая улица,667001,51.7145337,94.5008496
11,Пихтовая улица,667001,51.7144342,94.5011970
9,Пихтовая улица,667001,51.7143696,94.5016888
7,Пихтовая улица,667001,51.7143629,94.5020634
5,Пихтовая улица,667001,51.7143193,94.5024140
3,Пихтовая улица,667001,51.7143066,94.5027058
1,Пихтовая улица,667001,51.7141774,94.5030551
110,Колхозная улица,667001,51.7138949,94.5029260
112,Колхозная улица,667001,51.7137829,94.5026089
114,Колхозная улица,667001,51.7138351,94.5020915
116,Колхозная улица,667001,51.7138650,94.5018307
118,Колхозная улица,667001,51.7139430,94.5015021
120,Колхозная улица,667001,51.7140203,94.5010310
122,Колхозная улица,667001,51.7139780,94.5007015
124,Колхозная улица,667001,51.7140467,94.5003149
126,Колхозная улица,667001,51.7140914,94.5001087
128,Колхозная улица,667001,51.7141356,94.4997258
130,Колхозная улица,667001,51.7141824,94.4994331
132,Колхозная улица,667001,51.7142519,94.4989316
23,Пихтовая улица,667001,51.7147791,94.4992716
1В,Лесная улица,667001,51.7159462,94.4977903
1Д,Лесная улица,667001,51.7160004,94.4983643
11В,Лесная улица,667001,51.7157177,94.4990790
1Г,Лесная улица,667001,51.7161876,94.4988374
1В/2,Лесная улица,667001,51.7162233,94.4984688
1Б,Лесная улица,667001,51.7162951,94.4980334
8,Лесная улица,667001,51.7168529,94.4978288
6,Лесная улица,667001,51.7167041,94.4984559
4,Лесная улица,667001,51.7166772,94.4988316
4А,Лесная улица,667001,51.7166844,94.4993074
2,Лесная улица,667001,51.7164788,94.4993727
9,Малоенисейская улица,667001,51.7168583,94.4997751
9А,Малоенисейская улица,667001,51.7170417,94.4995435
13,Малоенисейская улица,667001,51.7172665,94.4987737
15,Малоенисейская улица,667001,51.7173341,94.4984819
17,Малоенисейская улица,667001,51.7174061,94.4981140
51А,Малоенисейская улица,667001,51.7180041,94.4924699
51,Малоенисейская улица,667001,51.7181157,94.4926378
49,Малоенисейская улица,667001,51.7180354,94.4930565
45,Малоенисейская улица,667001,51.7179802,94.4936529
47,Малоенисейская улица,667001,51.7179320,94.4934488
43,Малоенисейская улица,667001,51.7179860,94.4939614
41,Малоенисейская улица,667001,51.7178398,94.4943449
39,Малоенисейская улица,667001,51.7179127,94.4946756
37,Малоенисейская улица,667001,51.7178607,94.4949659
35,Малоенисейская улица,667001,51.7178425,94.4951563
33Б,Малоенисейская улица,667001,51.7177698,94.4956136
33А,Малоенисейская улица,667001,51.7176881,94.4953991
31,Малоенисейская улица,667001,51.7177432,94.4957572
29/2,Малоенисейская улица,667001,51.7177482,94.4960320
29,Малоенисейская улица,667001,51.7177312,94.4962245
27,Малоенисейская улица,667001,51.7176697,94.4965752
25,Малоенисейская улица,667001,51.7176180,94.4968223
23,Малоенисейская улица,667001,51.7175647,94.4969447
21,Малоенисейская улица,667001,51.7175299,94.4973966
19,Малоенисейская улица,667001,51.7174549,94.4977242
12,Лесная улица,667001,51.7170729,94.4975200
10,Лесная улица,667001,51.7167551,94.4969705
8А/2,Лесная улица,667001,51.7168506,94.4965571
2В,Луговая улица,667001,51.7164631,94.4967103
2,Луговая улица,667001,51.7162370,94.4958896
4,Луговая улица,667001,51.7162779,94.4955235
6,Луговая улица,667001,51.7163311,94.4953192
1,Лесная улица,667001,51.7166318,94.4957250
8,Луговая улица,667001,51.7164126,94.4952140
10,Луговая улица,667001,51.7164688,94.4949521
5,Лесная улица,667001,51.7167615,94.4950041
14,Луговая улица,667001,51.7167341,94.4946001
26,Луговая улица,667001,51.7169063,94.4927501
28,Луговая улица,667001,51.7169738,94.4926504
30,Луговая улица,667001,51.7170832,94.4922195
30Б,Луговая улица,667001,51.7171802,94.4921490
32,Луговая улица,667001,51.7172501,94.4917924
34,Луговая улица,667001,51.7172876,94.4916525
17/2,Лунная улица,667001,51.7158233,94.4922832
6/1,улица Дружбы,667001,51.7159965,94.4869941
19/3,Луговая улица,667001,51.7165070,94.4911391
17/3,Луговая улица,667001,51.7164051,94.4914284
17/1,Луговая улица,667001,51.7163516,94.4919440
11/1,Луговая улица,667001,51.7162883,94.4921931
15/1,Луговая улица,667001,51.7161011,94.4928588
13/1,Луговая улица,667001,51.7160311,94.4933710
9/1,Луговая улица,667001,51.7159660,94.4935921
3/1,Луговая улица,667001,51.7156338,94.4948415
1Б,Луговая улица,667001,51.7159238,94.4958173
3,Луговая улица,667001,51.7158138,94.4955146
5,Луговая улица,667001,51.7158907,94.4951607
7/1,Луговая улица,667001,51.7162081,94.4946216
1И,Луговая улица,667001,51.7163060,94.4941265
9,Луговая улица,667001,51.7163953,94.4938903
9А,Луговая улица,667001,51.7164284,94.4935728
13,Луговая улица,667001,51.7164959,94.4933496
15,Луговая улица,667001,51.7165187,94.4931936
17,Луговая улица,667001,51.7166130,94.4929529
19,Луговая улица,667001,51.7167102,94.4926042
21,Луговая улица,667001,51.7168147,94.4922871
23,Луговая улица,667001,51.7169073,94.4919642
1/2,Луговая улица,667001,51.7167769,94.4914610
25,Луговая улица,667001,51.7169971,94.4916672
27,Луговая улица,667001,51.7168901,94.4912896
3,Лунная улица,667001,51.7168306,94.4886003
1,Лунная улица,667001,51.7169026,94.4881363
2,Лунная улица,667001,51.7163823,94.4878416
2А,Лунная улица,667001,51.7164205,94.4883222
8,Лунная улица,667001,51.7164680,94.4897263
6,Лунная улица,667001,51.7164383,94.4892350
5,Лунная улица,667001,51.7168095,94.4893708
7,Лунная улица,667001,51.7167987,94.4898683
10,Лунная улица,667001,51.7164146,94.4901848
9А,Лунная улица,667001,51.7165828,94.4905630
9,Лунная улица,667001,51.7167403,94.4903284
39,Луговая улица,667001,51.7174748,94.4896702
31А,Луговая улица,667001,51.7172270,94.4909238
31,Луговая улица,667001,51.7172831,94.4907075
33,Луговая улица,667001,51.7173174,94.4904535
35,Луговая улица,667001,51.7173940,94.4901983
37,Луговая улица,667001,51.7174892,94.4898425
50,Луговая улица,667001,51.7179201,94.4887456
48,Луговая улица,667001,51.7178481,94.4897024
46,Луговая улица,667001,51.7177521,94.4899311
44,Луговая улица,667001,51.7177019,94.4901798
42,Луговая улица,667001,51.7176211,94.4905697
40,Луговая улица,667001,51.7175705,94.4908132
38,Луговая улица,667001,51.7174424,94.4910364
36,Луговая улица,667001,51.7174089,94.4912440
36А,Луговая улица,667001,51.7177893,94.4917033
36Б,Луговая улица,667001,51.7179377,94.4919545
53,Малоенисейская улица,667001,51.7181364,94.4919019
94,Малоенисейская улица,667001,51.7186688,94.4919537
53А,Малоенисейская улица,667001,51.7185245,94.4919015
92,Малоенисейская улица,667001,51.7184143,94.4922496
88,Малоенисейская улица,667001,51.7182923,94.4930447
90,Малоенисейская улица,667001,51.7183651,94.4927468
86,Малоенисейская улица,667001,51.7182339,94.4932566
84,Малоенисейская улица,667001,51.7181961,94.4936144
82,Малоенисейская улица,667001,51.7181923,94.4937987
80,Малоенисейская улица,667001,51.7182195,94.4939711
78,Малоенисейская улица,667001,51.7181837,94.4942099
76,Малоенисейская улица,667001,51.7181341,94.4947584
74,Малоенисейская улица,667001,51.7180880,94.4948756
72,Малоенисейская улица,667001,51.7180383,94.4955117
70,Малоенисейская улица,667001,51.7181600,94.4957379
68,Малоенисейская улица,667001,51.7180002,94.4962085
66,Малоенисейская улица,667001,51.7180003,94.4964207
62,Малоенисейская улица,667001,51.7180717,94.4967425
60,Малоенисейская улица,667001,51.7179808,94.4968830
58,Малоенисейская улица,667001,51.7179791,94.4971238
56,Малоенисейская улица,667001,51.7179395,94.4974050
54,Малоенисейская улица,667001,51.7179111,94.4975984
52,Малоенисейская улица,667001,51.7178880,94.4977700
50,Малоенисейская улица,667001,51.7178713,94.4979735
48,Малоенисейская улица,667001,51.7177928,94.4981681
46,Малоенисейская улица,667001,51.7177035,94.4984129
44,Малоенисейская улица,667001,51.7176672,94.4987471
42,Малоенисейская улица,667001,51.7175309,94.4989553
40,Малоенисейская улица,667001,51.7174611,94.4991720
38,Малоенисейская улица,667001,51.7173897,94.4993671
36,Малоенисейская улица,667001,51.7172712,94.4997482
34,Малоенисейская улица,667001,51.7171736,94.4999877
32,Малоенисейская улица,667001,51.7171474,94.5001761
30,Малоенисейская улица,667001,51.7170155,94.5005034
28,Малоенисейская улица,667001,51.7169483,94.5007836
26,Малоенисейская улица,667001,51.7168403,94.5010789
24,Малоенисейская улица,667001,51.7166637,94.5013492
22,Малоенисейская улица,667001,51.7166990,94.5015085
20,Малоенисейская улица,667001,51.7166012,94.5017536
18,Малоенисейская улица,667001,51.7165540,94.5020389
16А,Малоенисейская улица,667001,51.7164300,94.5022344
16,Малоенисейская улица,667001,51.7163633,94.5024178
14,Малоенисейская улица,667001,51.7162476,94.5027024
12,Малоенисейская улица,667001,51.7160887,94.5031118
10,Малоенисейская улица,667001,51.7160016,94.5032995
8,Малоенисейская улица,667001,51.7159162,94.5035381
6,Малоенисейская улица,667001,51.7158467,94.5037827
4,Малоенисейская улица,667001,51.7156595,94.5041242
2,Малоенисейская улица,667001,51.7155781,94.5043942
2Б,Малоенисейская улица,667001,51.7156332,94.5048369
1А,Пихтовая улица,667001,51.7141307,94.5037300
2,Пихтовая улица,667001,51.7142620,94.5041216
2А,Пихтовая улица,667001,51.7143789,94.5038232
1Г,2-я Лесная улица,667001,51.7148409,94.5040985
1А,2-я Лесная улица,667001,51.7147703,94.5039238
1Б,2-я Лесная улица,667001,51.7145962,94.5043334
1В,2-я Лесная улица,667001,51.7145418,94.5050346
1Д,2-я Лесная улица,667001,51.7144310,94.5047474
10,2-я Лесная улица,667001,51.7151944,94.5040938
8,2-я Лесная улица,667001,51.7150913,94.5043959
6,2-я Лесная улица,667001,51.7149813,94.5047305
4,2-я Лесная улица,667001,51.7148694,94.5050440
2,2-я Лесная улица,667001,51.7147494,94.5054177
2Д,Малоенисейская улица,667001,51.7150681,94.5060139
2Е,Малоенисейская улица,667001,51.7152363,94.5065079
3Б,Малоенисейская улица,667001,51.7155221,94.5071559
3В,Малоенисейская улица,667001,51.7158361,94.5066566
2И/1,Малоенисейская улица,667001,51.7161595,94.5071813
2И/2,Малоенисейская улица,667001,51.7162001,94.5073416
3Г,Малоенисейская улица,667001,51.7159159,94.5080272
2К/1,Малоенисейская улица,667001,51.7162970,94.5077001
2Л,Малоенисейская улица,667001,51.7161352,94.5083894
27,Зелёная улица,667001,51.7163973,94.5088190
11А,Пограничный переулок,667001,51.7196175,94.4750237
8,Пограничный переулок,667001,51.7185431,94.4742586
108/Т,Малоенисейская улица,667001,51.7188601,94.4837762
20,2-я Лесная улица,667001,51.7158915,94.5002961
14,Пихтовая улица,667001,51.7148272,94.5012964
9/2,Лунная улица,667001,51.7154780,94.4937260
128А,Малоенисейская улица,667001,51.7189620,94.4814932
128,Малоенисейская улица,667001,51.7187782,94.4811505
122Г,Малоенисейская улица,667001,51.7189980,94.4808662
122Е,Малоенисейская улица,667001,51.7192910,94.4808387
126А,Малоенисейская улица,667001,51.7196199,94.4815655
126Б,Малоенисейская улица,667001,51.7194988,94.4812330
126,Малоенисейская улица,667001,51.7183854,94.4809774
36В,улица Дружбы,667001,51.7180247,94.4804434
34/1,улица Дружбы,667001,51.7176765,94.4806670
34,улица Дружбы,667001,51.7177226,94.4800533
36Б,улица Дружбы,667001,51.7174148,94.4802338
6А,Пограничный переулок,667001,51.7202633,94.4771266
7Б,Пограничный переулок,667001,51.7203077,94.4766430
11,Пограничный переулок,667001,51.7196691,94.4756479
11В,Пограничный переулок,667001,51.7194124,94.4756543
11Б,Пограничный переулок,667001,51.7196111,94.4748671
12,Пограничный переулок,667001,51.7200251,94.4750394
9/1,Пограничный переулок,667001,51.7196417,94.4743665
9А,Пограничный переулок,667001,51.7196097,94.4739424
9,Пограничный переулок,667001,51.7192867,94.4743414
7,Пограничный переулок,667001,51.7192501,94.4739745
7/3,Пограничный переулок,667001,51.7193505,94.4735803
48,улица Дружбы,667001,51.7186811,94.4732945
46А,улица Дружбы,667001,51.7178847,94.4734995
42А,улица Дружбы,667001,51.7176833,94.4755368
7А/Б,Пограничный переулок,667001,51.7208389,94.4744161
7А,Пограничный переулок,667001,51.7204785,94.4742153
112Д,Малоенисейская улица,667001,51.7200060,94.4844265
112Г,Малоенисейская улица,667001,51.7200105,94.4841247
112В,Малоенисейская улица,667001,51.7199674,94.4838511
112Б,Малоенисейская улица,667001,51.7199738,94.4833878
112А,Малоенисейская улица,667001,51.7200149,94.4831864
112,Малоенисейская улица,667001,51.7199958,94.4828701
114,Малоенисейская улица,667001,51.7199848,94.4826009
116,Малоенисейская улица,667001,51.7201112,94.4823069
118,Малоенисейская улица,667001,51.7201605,94.4819844
120,Малоенисейская улица,667001,51.7201233,94.4816343
122,Малоенисейская улица,667001,51.7200492,94.4810621
110/4,Малоенисейская улица,667001,51.7197071,94.4835480
110/5,Малоенисейская улица,667001,51.7195501,94.4838575
111/1,Малоенисейская улица,667001,51.7194942,94.4841717
110В,Малоенисейская улица,667001,51.7194204,94.4839393
110Б,Малоенисейская улица,667001,51.7192462,94.4839028
110,Малоенисейская улица,667001,51.7191928,94.4834370
110/2,Малоенисейская улица,667001,51.7197275,94.4832158
132,Малоенисейская улица,667001,51.7189618,94.4826875
110А,Малоенисейская улица,667001,51.7192066,94.4826492
110/1,Малоенисейская улица,667001,51.7196568,94.4827658
129,Малоенисейская улица,667001,51.7195963,94.4821949
131,Малоенисейская улица,667001,51.7193178,94.4821077
133,Малоенисейская улица,667001,51.7190362,94.4820383
135,Малоенисейская улица,667001,51.7187251,94.4819431
130,Малоенисейская улица,667001,51.7186270,94.4826537
34Б,улица Дружбы,667001,51.7180379,94.4819441
19/1,Северная улица,667001,51.7168868,94.4829550
28А,улица Дружбы,667001,51.7170251,94.4822220
32А,улица Дружбы,667001,51.7174503,94.4817024
34А,улица Дружбы,667001,51.7174360,94.4813644
2,Виланская улица,667001,51.7177932,94.4868412
4,Виланская улица,667001,51.7179374,94.4860432
6,Виланская улица,667001,51.7180055,94.4856912
8,Виланская улица,667001,51.7180770,94.4853066
10,Виланская улица,667001,51.7181366,94.4849593
12,Виланская улица,667001,51.7182390,94.4840680
1,Виланская улица,667001,51.7174621,94.4867349
3,Виланская улица,667001,51.7175525,94.4863395
5,Виланская улица,667001,51.7176239,94.4859322
13,Виланская улица,667001,51.7178265,94.4843571
11,Виланская улица,667001,51.7177841,94.4848533
15,Виланская улица,667001,51.7178846,94.4839396
10,Северная улица,667001,51.7175783,94.4838271
2,Северная улица,667001,51.7171217,94.4866534
4,Северная улица,667001,51.7172831,94.4857911
8,Северная улица,667001,51.7174756,94.4846888
1,Северная улица,667001,51.7168072,94.4864626
3,Северная улица,667001,51.7168631,94.4860697
5,Северная улица,667001,51.7169080,94.4856858
7,Северная улица,667001,51.7169427,94.4852785
9,Северная улица,667001,51.7170014,94.4848530
11,Северная улица,667001,51.7170727,94.4844677
13,Северная улица,667001,51.7171200,94.4841100
17,Северная улица,667001,51.7171879,94.4836442
19,Северная улица,667001,51.7169688,94.4835611
24,улица Дружбы,667001,51.7166730,94.4833991
16А,улица Дружбы,667001,51.7167148,94.4839749
16,улица Дружбы,667001,51.7166421,94.4845414
10,улица Дружбы,667001,51.7165234,94.4853762
4,улица Дружбы,667001,51.7162747,94.4864419
16А,10-я линия,667008,51.6956340,94.4883788
19,9-я линия,667008,51.6959712,94.4876283
9А,улица Ензаны Пала,667008,51.6960527,94.4863882
19,6-я линия,667008,51.6960660,94.4837683
4,6-я линия,667008,51.6973380,94.4828898
1/1,Полигонная улица,667008,51.6999137,94.4748781
10А,11-я линия,667001,51.6980052,94.4890604
20,14-я линия,667008,51.6965275,94.4931139
16,14-я линия,667008,51.6970681,94.4929252
22,11-я линия,667001,51.6957079,94.4894922
5А,10-я линия,667008,51.6965368,94.4888831
44,Пригородная улица,667000,51.6784603,94.3053678
29,Эрзинская улица,667008,51.6944289,94.4869883
31,Полигонная улица,667008,51.6937502,94.4766557
13,15-я линия,667008,51.6951865,94.4944474
24,14-я линия,667008,51.6959804,94.4930803
3В,18-я линия,667008,51.6990179,94.4983642
11,улица Ензаны Пала,667008,51.6958719,94.4862347
1Б,улица Ензаны Пала,667008,51.6978757,94.4861541
10А,улица Ензаны Пала,667008,51.6960535,94.4856821
1А,6-я линия,667008,51.6972677,94.4834803
14,улица Николая Кабака,667008,51.6957263,94.4777360
71,Звёздная улица,667008,51.6984988,94.4757579
34,Полигонная улица,667008,51.6968251,94.4746027
20А,Полигонная улица,667008,51.6982129,94.4745276
2 к10,улица Героя России Владимира Жоги,667008,51.6997466,94.4705344
2 к9,улица Героя России Владимира Жоги,667008,51.6996519,94.4694856
2 к6,улица Героя России Владимира Жоги,667008,51.6999562,94.4689384
2 к7,улица Героя России Владимира Жоги,667008,51.7000409,94.4699844
2 к8,улица Героя России Владимира Жоги,667008,51.7001439,94.4710037
18,Полигонная улица,667008,51.6996729,94.4737679
24,Звёздная улица,667008,51.6998684,94.4875530
26А,Звёздная улица,667008,51.6995517,94.4875483
29,Радужная улица,667008,51.6991319,94.4853629
25,Небесная улица,667008,51.6990784,94.4838763
13,Небесная улица,667008,51.7005422,94.4838931
11,Небесная улица,667008,51.7008089,94.4839380
7,Небесная улица,667008,51.7012770,94.4839317
22,Взлётная улица,667008,51.6995371,94.4816460
18А,Взлётная улица,667008,51.7003975,94.4820027
21,Убсу-Нурская улица,667008,51.7000750,94.4810610
19,Убсу-Нурская улица,667008,51.7003613,94.4810801
63,улица Кечил-оола,667003,51.7067732,94.4182716
12/1,улица Калинина,667003,51.7047281,94.4284819
94/1,улица Кочетова,667005,51.7180910,94.4258101
83/1,улица Ленина,667005,51.7184661,94.4241746
100/1,улица Кочетова,667005,51.7179953,94.4249408
26,Полигонная улица,667008,51.6975209,94.4744030
39/1,Эрзинская улица,667008,51.6940386,94.4806876
6А,улица Василия Брагина,667008,51.6977257,94.4815234
24А,7-я линия,667008,51.6946320,94.4833586
10А,Звёздная улица,667008,51.7005932,94.4964659
5,Звёздная улица,667008,51.6993333,94.5051435
22,15-я линия,667008,51.6971789,94.4939206
3,12-я линия,667008,51.6994250,94.4910941
8,Никитинский переулок,667002,51.7858781,94.4711510
6,Никитинский переулок,667002,51.7855932,94.4718169
4,Никитинский переулок,667002,51.7852218,94.4721496
2,Никитинский переулок,667002,51.7848571,94.4727562
7,Кара-Хаакский переулок,667002,51.7791132,94.4639468
1,Кара-Хаакский переулок,667002,51.7805772,94.4643588
1А,Кара-Хаакский переулок,667002,51.7806741,94.4646873
1Б,Кара-Хаакский переулок,667002,51.7806602,94.4649433
2,Кара-Хаакский переулок,667002,51.7803741,94.4643622
15,Кара-Хаакский переулок,667002,51.7776869,94.4636102
14,Кара-Хаакский переулок,667002,51.7778313,94.4635867
13,Кара-Хаакский переулок,667002,51.7779474,94.4636860
11,Кара-Хаакский переулок,667002,51.7782918,94.4637148
10,Кара-Хаакский переулок,667002,51.7784476,94.4639079
9,Кара-Хаакский переулок,667002,51.7786092,94.4640219
8,Кара-Хаакский переулок,667002,51.7789560,94.4644605
6,Кара-Хаакский переулок,667002,51.7792954,94.4645282
4,Кара-Хаакский переулок,667002,51.7796791,94.4642727
3,Чаатынский переулок,667002,51.7825465,94.4604506
2,Приусадебный переулок,667002,51.7831340,94.4604858
1,Чаатынский переулок,667002,51.7829339,94.4603412
5,Чаатынский переулок,667002,51.7822279,94.4604627
5,Приусадебный переулок,667002,51.7829768,94.4598524
7,Приусадебный переулок,667002,51.7827925,94.4598913
9,Приусадебный переулок,667002,51.7826128,94.4598987
13,Приусадебный переулок,667002,51.7821603,94.4600905
11,Приусадебный переулок,667002,51.7822702,94.4597588
17,Вавилинская улица,667002,51.7799924,94.4566981
39,Вавилинская улица,667002,51.7800679,94.4616824
37,Вавилинская улица,667002,51.7801919,94.4613960
35,Вавилинская улица,667002,51.7799907,94.4609320
29,Вавилинская улица,667002,51.7799774,94.4592107
25,Вавилинская улица,667002,51.7799919,94.4580835
23,Вавилинская улица,667002,51.7800147,94.4578858
21,Вавилинская улица,667002,51.7799687,94.4574511
19,Вавилинская улица,667002,51.7800247,94.4570435
15,Вавилинская улица,667002,51.7800098,94.4564367
13,Вавилинская улица,667002,51.7800036,94.4559009
11,Вавилинская улица,667002,51.7800915,94.4555716
7,Вавилинская улица,667002,51.7799732,94.4550231
5,Вавилинская улица,667002,51.7800463,94.4547005
1,Вавилинская улица,667002,51.7802131,94.4536739
32,Вавилинская улица,667002,51.7796260,94.4590893
44,Вавилинская улица,667002,51.7795762,94.4618433
54,Вавилинская улица,667002,51.7794003,94.4632944
2,Вавилинская улица,667002,51.7795953,94.4536418
4,Вавилинская улица,667002,51.7797227,94.4541393
6,Вавилинская улица,667002,51.7797231,94.4545242
8,Вавилинская улица,667002,51.7795655,94.4548554
16,Вавилинская улица,667002,51.7797446,94.4563112
18,Вавилинская улица,667002,51.7797243,94.4566894
20,Вавилинская улица,667002,51.7797214,94.4570810
22,Вавилинская улица,667002,51.7797425,94.4574069
26,Вавилинская улица,667002,51.7796621,94.4582317
28,Вавилинская улица,667002,51.7797339,94.4585616
4,Удачный проспект,667002,51.7739961,94.4534707
2,Удачный проспект,667002,51.7742492,94.4534272
2А,Удачный проспект,667002,51.7744143,94.4534186
3,Удачный проспект,667002,51.7741432,94.4530028
6,Удачный проспект,667002,51.7723663,94.4535912
8,Удачный проспект,667002,51.7721485,94.4533402
10,Удачный проспект,667002,51.7719526,94.4535393
12,Удачный проспект,667002,51.7717040,94.4531248
16,Удачный проспект,667002,51.7712516,94.4531435
14,Удачный проспект,667002,51.7714472,94.4530817
9,Удачный проспект,667002,51.7721977,94.4526916
13,Удачный проспект,667002,51.7718256,94.4525547
15,Удачный проспект,667002,51.7716704,94.4525180
17,Удачный проспект,667002,51.7714827,94.4519664
18,Удачный проспект,667002,51.7709525,94.4527484
19,Удачный проспект,667002,51.7712916,94.4523269
21,Удачный проспект,667002,51.7710435,94.4518437
8,1-я Вавилинская улица,667002,51.7658747,94.4544857
6,1-я Вавилинская улица,667002,51.7658821,94.4542723
2,1-я Вавилинская улица,667002,51.7659125,94.4537090
5,1-я Вавилинская улица,667002,51.7655886,94.4532820
1Б,1-я Вавилинская улица,667002,51.7675646,94.4527734
1Г,1-я Вавилинская улица,667002,51.7667951,94.4532946
3,1-я Вавилинская улица,667002,51.7658189,94.4528855
1,1-я Вавилинская улица,667002,51.7662290,94.4523595
1Б литБ,1-я Вавилинская улица,667002,51.7667501,94.4519877
3,Никитинский переулок,667002,51.7855644,94.4724828
5,Никитинский переулок,667002,51.7858737,94.4720401
1,Никитинский переулок,667002,51.7851658,94.4730013
10,переулок Полянка,667002,51.7928412,94.4597974
3,переулок Ромашек,667002,51.7923053,94.4615060
2,переулок Полянка,667002,51.7928685,94.4621813
4,переулок Полянка,667002,51.7927876,94.4615758
6,переулок Полянка,667002,51.7927926,94.4610440
7,переулок Полянка,667002,51.7931394,94.4613887
5,переулок Полянка,667002,51.7931835,94.4617429
3,переулок Полянка,667002,51.7931805,94.4620532
7,переулок Ромашек,667002,51.7921361,94.4605934
9,переулок Ромашек,667002,51.7923058,94.4599564
11,переулок Ромашек,667002,51.7923203,94.4596412
13,переулок Ромашек,667002,51.7922863,94.4592463
15,переулок Ромашек,667002,51.7922846,94.4587521
17,переулок Ромашек,667002,51.7922800,94.4583166
12,переулок Полянка,667002,51.7927599,94.4594374
14,переулок Полянка,667002,51.7928469,94.4590303
19,переулок Полянка,667002,51.7931149,94.4588916
15,переулок Полянка,667002,51.7931394,94.4597519
13,переулок Полянка,667002,51.7931338,94.4600955
8,Опаловый переулок,667002,51.8050503,94.4614323
6,Опаловый переулок,667002,51.8053103,94.4614571
2,Опаловый переулок,667002,51.8059052,94.4618028
7,Лазуритовый переулок,667002,51.8051034,94.4596975
4,Нефритовый переулок,667002,51.8050947,94.4594582
3,Лазуритовый переулок,667002,51.8057722,94.4598477
6,Лазуритовый переулок,667002,51.8054517,94.4603037
5,Опаловый переулок,667002,51.8054268,94.4610641
7,Опаловый переулок,667002,51.8050576,94.4610423
8,Лазуритовый переулок,667002,51.8050665,94.4603929
3,переулок Самбажык,667002,51.8003004,94.4504003
1,переулок Самбажык,667002,51.8003664,94.4498055
6,переулок Самбажык,667002,51.8005651,94.4506525
4,переулок Самбажык,667002,51.8005967,94.4504426
2,переулок Самбажык,667002,51.8006568,94.4498229
14,улица Генерала-майора Александра Захарченко,667002,51.7996814,94.4612572
12,улица Генерала-майора Александра Захарченко,667002,51.8000442,94.4612968
8,улица Генерала-майора Александра Захарченко,667002,51.8005397,94.4613954
6,улица Генерала-майора Александра Захарченко,667002,51.8008045,94.4613934
4,улица Генерала-майора Александра Захарченко,667002,51.8010088,94.4614981
2,улица Генерала-майора Александра Захарченко,667002,51.8012882,94.4614828
15,улица Генерала-майора Александра Захарченко,667002,51.7994143,94.4607985
13,улица Генерала-майора Александра Захарченко,667002,51.7998149,94.4609005
11,улица Генерала-майора Александра Захарченко,667002,51.7999070,94.4606692
9,улица Генерала-майора Александра Захарченко,667002,51.8003129,94.4609172
7,улица Генерала-майора Александра Захарченко,667002,51.8004299,94.4609454
3,улица Генерала-майора Александра Захарченко,667002,51.8009561,94.4609488
1,улица Генерала-майора Александра Захарченко,667002,51.8013426,94.4608019
110А,Московская улица,667010,51.6996463,94.4136917
74,Московская улица,667010,51.6884497,94.4030762
145,Московская улица,667010,51.6759939,94.4051061
58,Рабочая улица,667001,51.7168576,94.4573758
69,Колхозная улица,667004,51.7086833,94.5146019
20,Колхозная улица,667004,51.7066169,94.5349358
67,Колхозная улица,667004,51.7075408,94.5187285
22,Убсу-Нурская улица,667008,51.6996332,94.4780549
6А,Полигонная улица,667008,51.6993956,94.4719284
