House number,Street name,Postal code,Latitude,Longitude
31,улица Свердлова,610011,58.6385004,49.6237103
50,улица Герцена,610000,58.5994712,49.6656347
19,улица 60-летия Комсомола,610040,58.6606310,49.6751841
16,улица 60-летия Комсомола,610040,58.6598232,49.6748667
22,Спасская улица,610000,58.6017406,49.6712730
73,улица Карла Маркса,610000,58.6016978,49.6677712
34,Спасская улица,610000,58.6015309,49.6674827
35,Московская улица,610000,58.6038869,49.6694749
19,Молодёжная улица,610008,58.5257041,49.6799984
9/1,Хлебозаводской проезд,610046,58.5983072,49.6417143
19,Молодёжная улица,610008,58.5257797,49.6800472
17,улица 60-летия Комсомола,610040,58.6602707,49.6757770
83,улица Герцена,610046,58.5999819,49.6492337
102В-25,Московская улица,610021,58.5997124,49.6298332
32,улица Молодой Гвардии,610000,58.5985153,49.6788722
43,Пролетарская улица,610027,58.5897743,49.6675402
125,улица Свободы,610002,58.5928321,49.6769300
28/4,Производственная улица,610035,58.5829055,49.6104765
24,Октябрьский проспект,610006,58.6249184,49.6480092
51А,улица Некрасова,610014,58.5824576,49.6278325
38,улица Некрасова,610014,58.5821796,49.6360228
12А,Комсомольская улица,610001,58.5839082,49.6680466
34,Спасская улица,610000,58.6015197,49.6672601
71,улица Труда,610020,58.6084396,49.6630931
17,улица Красный Химик,610004,58.6208481,49.7090593
18А,Подгорная улица,610011,58.6414319,49.6247231
40,Московская улица,610019,58.6028558,49.6632499
71,улица Карла Либкнехта,610019,58.6028664,49.6647391
19,улица Ленина,610004,58.6131892,49.6785931
8,Клубная улица,610008,58.5140917,49.6983417
43А,Пролетарская улица,610027,58.5902553,49.6676046
57,улица Маклина,610017,58.5960620,49.6480316
8А,улица Азина,610002,58.5853694,49.6793457
57/1,улица Маклина,610017,58.5960628,49.6481854
9Г,улица Металлистов,610044,58.6164159,49.6017960
10,Красноармейская улица,610002,58.5917357,49.6864448
7А,Профсоюзная улица,610004,58.6157280,49.6827200
77,улица Воровского,610000,58.5940757,49.6565324
5А,улица Горького,610046,58.5988350,49.6469116
127 оф606,улица Карла Маркса,610027,58.5913203,49.6678790
25А,улица Лепсе,610042,58.6187601,49.6320131
9,Профсоюзная улица,610004,58.6156627,49.6812384
13,улица Широнинцев,610042,58.6244978,49.6296791
102в,Московская,610046,58.6008823,49.6322109
24,Производственная улица,610035,58.5879141,49.6140929
132Б,Московская улица,610048,58.6009459,49.6064349
14,Сельскохозяйственный проезд,610046,58.6058417,49.6383193
9А,Хлебозаводской проезд,610035,58.5976236,49.6393894
135,улица Воровского,610048,58.5979662,49.6072535
135,улица Воровского,610048,58.5978682,49.6069585
6,улица Лепсе,610006,58.6231199,49.6448767
145/1,Октябрьский проспект,610017,58.5903001,49.6571029
20,Московская улица,610020,58.6032949,49.6753983
20А,улица Мельникова,610006,58.6255293,49.6369866
8А,улица КУТШО,610006,58.6253453,49.6442294
135,улица Воровского,610021,58.5980218,49.6069889
53/2,Луганская улица,610044,58.6166641,49.5957339
5А,улица Горького,610017,58.5985631,49.6472838
43,улица Воровского,610027,58.5943012,49.6661582
46 к6,Комсомольская улица,610001,58.5761081,49.6418366
6,улица Лепсе,610006,58.6233520,49.6444868
6,улица Лепсе,610006,58.6234003,49.6444113
4/4,улица Лепсе,610006,58.6232518,49.6452147
31А,Октябрьский проспект,610016,58.6323771,49.6313544
5А,улица Горького,610017,58.5984876,49.6476837
13/1,Техническая улица,610035,58.5665054,49.5994193
11,Солнечная улица,610033,58.5961844,49.6215388
116А,Московская улица,610033,58.6020496,49.6248764
88А,улица Герцена,610046,58.5991298,49.6441042
6,улица Дзержинского,610016,58.6304302,49.6326480
18а,улица Карла Маркса,610020,58.6141005,49.6675476
104А,улица Воровского,610045,58.5966988,49.5980729
7/3,улица Маршала И.С.Конева,7/3,58.5939214,49.5983930
2 к2,улица Космонавта Владислава Волкова,610021,58.5901486,49.5983656
7/4,улица Маршала И.С.Конева,7/2,58.5939166,49.5973095
31,улица Менделеева,610048,58.5993079,49.5989005
17 к1,Производственная улица,610021,58.5935849,49.6128397
6/2,улица Екатерины Кочкиной,610021,58.5942738,49.6084058
6,улица Екатерины Кочкиной,610021,58.5943020,49.6055815
32,улица Менделеева,610048,58.6000348,49.6039689
34,улица Менделеева,610048,58.5995551,49.6048653
132Б,Московская улица,610048,58.6009142,49.6064391
132А,Московская улица,610048,58.6010882,49.6048496
38,улица Менделеева,610048,58.5981502,49.6032495
28,улица Менделеева,610048,58.6005027,49.6039395
5 к2,проспект Строителей,610048,58.6001301,49.5879133
9,Производственная улица,610010,58.4992202,49.6406284
5,улица Азина,610002,58.5858926,49.6797143
17,улица Красной Звезды,610004,58.6237129,49.6973190
252,улица Павла Корчагина,610040,58.6731257,49.6626945
7,улица Слобода Лянгасы,610047,58.6362220,49.5804383
29,улица Слобода Лянгасы,610047,58.6361383,49.5753966
11,улица Слобода Лянгасы,610047,58.6362019,49.5794914
25,улица Слобода Лянгасы,610047,58.6361358,49.5757800
15,улица Слобода Лянгасы,610047,58.6361315,49.5782970
66,улица Дзержинского,610047,58.6329873,49.6136654
2А,Луганская улица,610047,58.6335796,49.6107435
1,Подгорная улица,610011,58.6392556,49.6130837
5А,улица Дружбы,610011,58.6368258,49.6229074
1А,улица Свердлова,610011,58.6475203,49.6139885
73,улица Щорса,610014,58.5779918,49.6068374
3А,улица Левитана,610014,58.5802749,49.6266993
17,улица Горького,610017,58.5968350,49.6497194
2 к3,улица Красный Химик,610004,58.6210330,49.7010255
2 к1,улица Красный Химик,610004,58.6216730,49.6985870
12 к1,Пятницкая улица,610020,58.6062931,49.6791254
1,улица Чехова,610005,58.6139757,49.6601248
44,Октябрьский проспект,610005,58.6133227,49.6575148
40,Октябрьский проспект,610005,58.6143117,49.6572785
42,Октябрьский проспект,610005,58.6138718,49.6576211
79,Советская улица,610005,58.6128987,49.6585716
8,улица Чехова,610005,58.6133904,49.6584647
82,Профсоюзная улица,610005,58.6145253,49.6590355
84,Профсоюзная улица,610005,58.6145151,49.6577062
24,улица Карла Маркса,610020,58.6122800,49.6677203
26,улица Карла Маркса,610020,58.6120250,49.6680353
57,улица Розы Люксембург,610020,58.6122375,49.6703125
59,улица Розы Люксембург,610020,58.6119437,49.6687286
23,улица Розы Люксембург,610004,58.6123114,49.6775772
54А,улица Володарского,610020,58.6093348,49.6732872
56,улица МОПРа,610020,58.6098598,49.6735427
79А,улица Володарского,610020,58.6073892,49.6709570
16,улица Труда,610020,58.6080285,49.6785732
76,улица Свободы,610000,58.6006787,49.6775708
72,улица Молодой Гвардии,610017,58.5980145,49.6603674
80,Октябрьский проспект,610017,58.5978689,49.6589810
38,Октябрьский проспект,610005,58.6154504,49.6582346
3,улица Гайдара,610006,58.6278490,49.6401470
3,улица Лепсе,610006,58.6244400,49.6452527
129,Октябрьский проспект,610017,58.5972556,49.6567053
37,Комсомольская улица,610001,58.5799796,49.6500996
56,улица Горького,610001,58.5802298,49.6527798
42Б,Комсомольская улица,610001,58.5784924,49.6498639
155,Октябрьский проспект,610001,58.5823642,49.6570635
15,улица Сурикова,610035,58.5886613,49.6348429
46,улица Некрасова,610014,58.5817646,49.6284048
23,улица Короленко,610014,58.5804634,49.6227094
7,улица КУТШО,610006,58.6245642,49.6435331
73,улица Ленина,610014,58.6029551,49.6806087
22,улица Монтажников,6100044,58.6117291,49.6126277
9,улица КУТШО,610006,58.6242364,49.6438176
8,улица Лепсе,610006,58.6229925,49.6440106
101,Московская улица,610033,58.6037646,49.6363149
10А,улица Чапаева,610035,58.5906157,49.6467068
62,Московская улица,610017,58.6029859,49.6552488
81,улица Карла Маркса,610017,58.5987985,49.6677765
86,улица Карла Маркса,610000,58.5991995,49.6692218
16,улица Горького,610017,58.5962533,49.6510206
32,Октябрьский проспект,610005,58.6173915,49.6573228
34,Октябрьский проспект,610005,58.6173248,49.6580019
26,Октябрьский проспект,610006,58.6218508,49.6536055
87А,Октябрьский проспект,610005,58.6168952,49.6557138
91,Октябрьский проспект,610005,58.6165584,49.6548867
87,Октябрьский проспект,610005,58.6175409,49.6557735
87Б,Октябрьский проспект,610005,58.6162740,49.6558087
91 к1,Октябрьский проспект,610005,58.6161496,49.6539475
77,Профсоюзная улица,610005,58.6150103,49.6550220
91 к2,Октябрьский проспект,610005,58.6167377,49.6538887
89,Октябрьский проспект,610005,58.6154703,49.6556520
95,Октябрьский проспект,610005,58.6141985,49.6557890
90,Профсоюзная улица,610005,58.6140157,49.6540089
95А,Октябрьский проспект,610005,58.6138077,49.6551557
3,улица 65-летия Победы,610007,58.5633298,49.6888986
25,Производственная улица,610014,58.5790869,49.6083768
1 к3,Чистопрудненская улица,610025,58.5673711,49.6480157
60 к1,улица Ивана Попова,610025,58.5672911,49.6401865
3 к1,Мостовицкая улица,610025,58.5672550,49.6417308
3,Мостовицкая улица,610025,58.5678489,49.6428559
6,Мостовицкая улица,610025,58.5668727,49.6467393
1 к3Г,Чистопрудненская улица,610025,58.5676143,49.6466844
4,Мостовицкая улица,610025,58.5681938,49.6453767
1 к1,Чистопрудненская улица,610025,58.5683844,49.6495384
1 к2,Чистопрудненская улица,610025,58.5681230,49.6478547
5,Мостовицкая улица,610025,58.5664696,49.6438577
73В,улица Щорса,610014,58.5785863,49.6068707
67,улица Щорса,610014,58.5782903,49.6084011
161,Московская улица,610048,58.6028038,49.6040837
10,Динамовский проезд,610000,58.6055779,49.6869672
3,улица Героя Костина,610007,58.5647998,49.6887090
6,улица Героя Рожнева,610007,58.5660140,49.6884714
5,улица Северная Набережная,610011,58.6490700,49.6177503
57,улица Маклина,610017,58.5960623,49.6484108
25А,улица Некрасова,610035,58.5836876,49.6419381
10Б,улица Сурикова,610035,58.5899991,49.6397533
88А,улица Герцена,610046,58.5990959,49.6443708
18,улица Пугачёва,610014,58.5813441,49.6267477
57,улица Некрасова,610014,58.5827738,49.6266607
18Б,улица Ивана Попова,610035,58.5893193,49.6336660
18А,улица Ивана Попова,610035,58.5892746,49.6319491
145/1,Октябрьский проспект,610017,58.5903272,49.6570855
2Б,улица Красина,610001,58.5794100,49.6461746
50А,Комсомольская улица,610014,58.5740195,49.6366486
4А,улица Красина,610001,58.5793028,49.6439357
46 к6,Комсомольская улица,610001,58.5759828,49.6419483
85,Гороховская улица,610001,58.5788129,49.6436561
50 к3,Комсомольская улица,610014,58.5743237,49.6376682
56А,улица Красина,610014,58.5755940,49.6207690
41Б,Комсомольская улица,610001,58.5784566,49.6444171
55,улица Грибоедова,610014,58.5749726,49.6203148
49,улица Красина,610014,58.5767821,49.6234482
3 к1,улица Энтузиастов,610037,58.5860225,49.5878623
2А,Мельничная улица,610025,58.5800258,49.6595760
9/1,Солнечная улица,610033,58.5972450,49.6227257
151А,Московская улица,610048,58.6040009,49.6088656
16,улица Менделеева,610050,58.6034594,49.6040402
3А,улица Циолковского,610002,58.6064252,49.6085228
9,улица Андрея Упита,610050,58.6043478,49.5883257
11Т,улица Андрея Упита,610050,58.6039181,49.5891895
189/1,Московская улица,610050,58.6029339,49.5868794
34,улица Мира,610044,58.6134614,49.6145379
38,Сормовская улица,610044,58.6158460,49.6231412
39,улица Лепсе,610044,58.6141437,49.6229564
36,улица Лепсе,610033,58.6126840,49.6260311
32,улица Мира,610044,58.6144384,49.6165642
59А,улица Лепсе,610044,58.6132656,49.6174051
50,улица Лепсе,610033,58.6108980,49.6224168
23/2,улица Романа Ердякова,610046,58.6138489,49.6357491
19,улица Романа Ердякова,610046,58.6119386,49.6359828
88,Профсоюзная улица,610005,58.6143863,49.6547307
6,Транспортный проезд,610046,58.6068175,49.6402385
63,Спасская улица,610020,58.6020391,49.6612313
12,Динамовский проезд,610000,58.6051006,49.6865916
1А,Московская улица,610000,58.6041989,49.6874752
14,Динамовский проезд,610000,58.6045007,49.6867095
10А,Лесозаводская улица,610007,58.5958630,49.7050738
1Б,Троллейбусный переулок,610006,58.6198775,49.6480574
67,Октябрьский проспект,610006,58.6225567,49.6474221
6,улица Лепсе,610006,58.6232139,49.6445862
4/4,улица Лепсе,610006,58.6235654,49.6450381
36,Октябрьский проспект,610005,58.6164327,49.6575245
93,Октябрьский проспект,610005,58.6155635,49.6547431
93Г,Октябрьский проспект,610005,58.6158201,49.6543047
85,улица Дзержинского,610047,58.6433679,49.5958202
2А,Слобода Большое Скопино,610016,58.6324891,49.6401191
11А,Загородная улица,610046,58.6070192,49.6469546
96А,Пятницкая улица,610046,58.6058916,49.6553318
11,Загородная улица,610046,58.6067032,49.6469455
16А,Казанская улица,610004,58.6143325,49.6840010
19,улица Слобода Лянгасы,610047,58.6360738,49.5771985
10,улица Слобода Лянгасы,610047,58.6365828,49.5819819
17,улица Слобода Лянгасы,610047,58.6361029,49.5777456
8,улица Слобода Лянгасы,610047,58.6365946,49.5824008
26,улица Слобода Лянгасы,610047,58.6363403,49.5772568
32,улица Слобода Лянгасы,610047,58.6366029,49.5762687
2,улица Слобода Лянгасы,610047,58.6365893,49.5840388
22,улица Слобода Лянгасы,610047,58.6364063,49.5782732
9,улица Слобода Лянгасы,610047,58.6362151,49.5799316
28,улица Слобода Лянгасы,610047,58.6363228,49.5770335
18,улица Слобода Лянгасы,610047,58.6364275,49.5791239
13,улица Слобода Лянгасы,610047,58.6361470,49.5789023
14,улица Слобода Лянгасы,610047,58.6365626,49.5812634
31,улица Слобода Лянгасы,610047,58.6361807,49.5750041
24,улица Слобода Лянгасы,610047,58.6363849,49.5777081
20,улица Слобода Лянгасы,610047,58.6364072,49.5786388
6,улица Слобода Лянгасы,610047,58.6366223,49.5831144
16,улица Слобода Лянгасы,610047,58.6364889,49.5802573
5,улица Слобода Лянгасы,610047,58.6362132,49.5810004
8,Преображенская улица,610000,58.6053288,49.6819490
22,Московская улица,610000,58.6028972,49.6746799
22/1,улица Герцена,610002,58.5998266,49.6752888
26,улица Герцена,610002,58.5998024,49.6744195
84,улица Карла Маркса,610000,58.5995693,49.6686498
107,улица Свободы,610000,58.5968118,49.6757929
31,Октябрьский проспект,610016,58.6325120,49.6307226
14,улица Опарина,610008,58.5080893,49.6922996
21,Орловская улица,610000,58.5964112,49.6810295
90,улица Ленина,610000,58.5994610,49.6816884
25,улица Молодой Гвардии,610000,58.5992294,49.6834268
48,Советская улица,610008,58.5065527,49.7079332
5,улица КУТШО,610006,58.6250929,49.6427582
32,улица Пушкина,610008,58.5118449,49.6897139
10,проспект Строителей,610010,58.5049022,49.6499867
2,улица Конституции,610010,58.5049078,49.6531588
3,улица Конституции,610010,58.5051949,49.6523326
3,улица Мира,610010,58.5056384,49.6503766
3А,улица Конституции,610010,58.5046112,49.6550220
3А,улица Мира,610010,58.5054532,49.6515580
4,Новая улица,610010,58.5051187,49.6452032
4,улица Конституции,610010,58.5044084,49.6526690
4,улица Мира,610010,58.5073034,49.6516520
4А,Индустриальная улица,610010,58.5059742,49.6577794
5,улица Конституции,610010,58.5042040,49.6536275
6,Индустриальная улица,610010,58.5046099,49.6582286
6,улица Мира,610010,58.5069422,49.6511949
6А,Индустриальная улица,610010,58.5048520,49.6575045
6Б,Индустриальная улица,610010,58.5050830,49.6568244
8,улица Мира,610010,58.5064568,49.6505709
8А,Индустриальная улица,610010,58.5041537,49.6563755
8Б,Индустриальная улица,610010,58.5043855,49.6556987
2,Школьный переулок,610010,58.5055418,49.6559077
21,проспект Строителей,610010,58.5043102,49.6487530
8А,улица Конституции,610010,58.5026059,49.6489646
5А,улица Конституции,610010,58.5047004,49.6542271
10,Новая улица,610010,58.5031443,49.6426367
13В,Индустриальная улица,610010,58.4984903,49.6530919
17А,Орловская улица,610002,58.5964942,49.6844334
16А,улица Воровского,610002,58.5935461,49.6759801
217А,улица Павла Корчагина,610040,58.6599308,49.6787794
21,улица 60-летия Комсомола,610040,58.6613691,49.6740528
21 к1,улица 60-летия Комсомола,610040,58.6618316,49.6753564
12,улица Мира,610010,58.5055622,49.6488632
9А,улица Дружбы,610047,58.6349886,49.6218147
34,Комсомольская улица,610001,58.5811293,49.6606888
24,Октябрьский проспект,610006,58.6266827,49.6458607
6,улица Тимирязева,610007,58.5739436,49.6789847
164/3,улица Ленина,610007,58.5769954,49.6892100
10,Молодёжная улица,610008,58.5272628,49.6774688
25,Трудовая улица,610008,58.5266899,49.6800746
2,Молодёжная улица,610008,58.5258113,49.6778049
8,Молодёжная улица,610008,58.5269967,49.6779500
4,Молодёжная улица,610008,58.5262755,49.6778539
1А,улица Красносельский разъезд,610008,58.5303135,49.6727125
23,Трудовая улица,61008,58.5263365,49.6799569
11,Комсомольская улица,610008,58.5263853,49.6811658
20,Трудовая улица,610008,58.5257200,49.6793308
19,Трудовая улица,61008,58.5256583,49.6799709
22А,улица Ленина,610013,58.4926487,49.7387849
33,Трудовая улица,61008,58.5273708,49.6800379
35,Трудовая улица,61008,58.5274935,49.6800913
31,Трудовая улица,61008,58.5271659,49.6800117
36,Трудовая улица,61008,58.5274058,49.6795899
38,Трудовая улица,61008,58.5276394,49.6796040
21,Трудовая улица,61008,58.5260143,49.6799272
9,Комсомольская улица,610008,58.5262398,49.6816103
8,Комсомольская улица,610008,58.5259750,49.6815457
15,Комсомольская улица,610008,58.5262715,49.6804281
13,Комсомольская улица,610008,58.5262692,49.6807437
12,Комсомольская улица,610008,58.5260156,49.6807432
10,Комсомольская улица,610008,58.5259523,49.6811889
14,Комсомольская улица,610008,58.5260294,49.6803885
15,Молодёжная улица,610008,58.5275388,49.6785268
13,Молодёжная улица,610008,58.5273156,49.6784636
26,Трудовая улица,61008,58.5264444,49.6794421
34,Трудовая улица,61008,58.5272207,49.6795298
28,Трудовая улица,61008,58.5266170,49.6794560
22,Трудовая улица,61008,58.5260611,49.6793321
24,Трудовая улица,61008,58.5262610,49.6794082
32,Трудовая улица,61008,58.5270362,49.6794802
30,Трудовая улица,61008,58.5268334,49.6794111
21,улица Бородулина,610960,58.5787221,49.6598596
13/1,Техническая улица,610035,58.5662551,49.5971322
22,улица Красной Звезды,610004,58.6210115,49.6973393
17А,улица Потребкооперации,610014,58.5646175,49.6216947
2,улица Баумана,610030,58.6429229,49.7189616
14,улица Сурикова,610035,58.5878429,49.6395503
4Б,Трактовая улица,610008,58.5237372,49.6805371
79 к5,Деповская улица,610025,58.5733664,49.6406106
24А,Октябрьский проспект,610006,58.6265262,49.6456448
10,Северо-Садовая улица,610044,58.6193075,49.6236222
28,улица Тургенева,610035,58.5888719,49.6404513
15,улица Тургенева,610035,58.5894307,49.6395890
24 к1,Производственная улица,610035,58.5874010,49.6157997
25Д,Производственная улица,610014,58.5809111,49.6046261
23А,Производственная улица,610014,58.5807296,49.6066360
25 к2,Производственная улица,610014,58.5801791,49.6049851
25,Производственная улица,610014,58.5806331,49.6085534
83,улица Щорса,610014,58.5796553,49.6050398
229,улица Павла Корчагина,610040,58.6666325,49.6696946
30,Коммунистическая улица,610013,58.4942416,49.7379864
53,улица Кирова,610013,58.4904528,49.7355200
170,Советская улица,610013,58.4885078,49.7354803
83А,улица Щорса,610014,58.5785844,49.6041948
13,2-й Курский переулок,610037,58.5826522,49.5830289
15,2-й Курский переулок,610037,58.5822993,49.5831306
17Б,улица Красной Звезды,610004,58.6222353,49.6945530
229,улица Павла Корчагина,610040,58.6685475,49.6709319
200Б,улица Ленина,610007,58.5621651,49.6899360
1,улица Баумана,610030,58.6437870,49.7192288
2Б,улица Крутикова,610006,58.6245672,49.6422909
2Г,улица Крутикова,610006,58.6245332,49.6429055
2,улица Потребкооперации,610014,58.5689726,49.6281872
63,улица Блюхера,610027,58.5820034,49.6684444
1,улица Бородулина,610025,58.5803405,49.6648550
2,улица Бородулина,610025,58.5800248,49.6654442
4,улица Бородулина,610025,58.5799233,49.6649848
16,Базовый переулок,610014,58.5628676,49.5841799
6,Производственная улица,610033,58.6003609,49.6160687
1,улица Коммуны,610013,58.4934071,49.7539646
51/2,Советская улица,610008,58.5000155,49.6976016
7/5,Заводская улица,610004,58.6221024,49.6742276
198 к1,улица Ленина,610007,58.5658692,49.6865419
198 к2,улица Ленина,610007,58.5649362,49.6865866
17 к1,улица Красной Звезды,610004,58.6236507,49.6926685
10,улица Мира,610010,58.5060553,49.6498337
2,улица Чехова,610005,58.6135760,49.6606029
198 к4,улица Ленина,610007,58.5633531,49.6865180
102В,Московская улица,610021,58.6001782,49.6298027
8,Красногорская улица,610000,58.5396332,49.6569601
2,Красногорская улица,610000,58.5392593,49.6559965
5,Красногорская улица,610000,58.5392248,49.6569141
22,Красногорская улица,610000,58.5414960,49.6584847
7,Красногорская улица,610000,58.5393425,49.6572175
4,Красногорская улица,610000,58.5393995,49.6563547
10А,Красногорская улица,610000,58.5397826,49.6572123
3,Красногорская улица,610000,58.5391001,49.6565746
9,Красногорская улица,610000,58.5395053,49.6576400
13,Красногорская улица,610000,58.5397917,49.6583975
6,Красногорская улица,610000,58.5394888,49.6566851
3,Молодёжная улица,610008,58.5266106,49.6784756
31,Красногорская улица,610000,58.5417426,49.6589774
16,Красногорская улица,610000,58.5402381,49.6585386
25,Красногорская улица,610000,58.5412210,49.6593596
33,Красногорская улица,610000,58.5419140,49.6586782
2,Мельничная улица,610025,58.5793344,49.6608475
57,улица Горького,610001,58.5828625,49.6503233
11,Восточная улица,610051,58.5181999,49.4577269
10,Спортивная улица,610051,58.5222683,49.4552855
45,Октябрьская улица,610051,58.5195885,49.4524609
45/1,Октябрьская улица,610051,58.5196222,49.4516745
9,Солнечная улица,610033,58.5978768,49.6238442
102В,Московская улица,610021,58.5999082,49.6301562
16,улица Физкультурников,610044,58.6091708,49.6212896
62,улица Ивана Попова,610025,58.5659167,49.6411009
5А,Мостовицкая улица,610025,58.5667289,49.6421871
56 к1,улица Ивана Попова,610025,58.5687901,49.6387333
8,Чистопрудненская улица,610025,58.5654312,49.6450241
4,Чистопрудненская улица,610025,58.5660167,49.6485375
2А,Чистопрудненская улица,610025,58.5654423,49.6498033
10,Мостовицкая улица,610025,58.5651639,49.6482254
1,Севастопольская улица,610010,58.5116382,49.6672595
6,Севастопольская улица,610010,58.5115874,49.6664603
12Т,улица Сурикова,610035,58.5893442,49.6387529
24,Производственная улица,610035,58.5875992,49.6141969
30,Советская улица,610008,58.5088578,49.7030082
38,Боровая улица,610030,58.6384018,49.7414814
36,Боровая улица,610030,58.6386015,49.7413155
3,улица героев Чернобыльцев,610008,58.5293405,49.6906172
17,улица героев Чернобыльцев,610008,58.5272143,49.6920907
1,улица героев Чернобыльцев,610008,58.5294583,49.6902585
15,Полевая улица,610008,58.5294466,49.6928127
14,улица героев Чернобыльцев,610008,58.5278723,49.6923237
14А,улица героев Чернобыльцев,610008,58.5280592,49.6929897
15,улица героев Чернобыльцев,610008,58.5273917,49.6918937
8,улица героев Чернобыльцев,610008,58.5288655,49.6915954
2А,улица героев Чернобыльцев,610008,58.5298632,49.6917969
6,улица героев Чернобыльцев,610008,58.5291432,49.6914072
16А,улица героев Чернобыльцев,610008,58.5277497,49.6932111
10,улица героев Чернобыльцев,610008,58.5284762,49.6919403
5,улица героев Чернобыльцев,610008,58.5290477,49.6907807
4,улица героев Чернобыльцев,610008,58.5295162,49.6913913
12,улица героев Чернобыльцев,610008,58.5282146,49.6922440
18А,улица героев Чернобыльцев,610008,58.5274269,49.6934768
9,улица героев Чернобыльцев,610008,58.5283089,49.6912449
8А,улица героев Чернобыльцев,610008,58.5290206,49.6924157
23,Полевая улица,610008,58.5281472,49.6939871
2,улица героев Чернобыльцев,610008,58.5297306,49.6911328
6А,улица героев Чернобыльцев,610008,58.5292716,49.6921388
19,Красногорская улица,610000,58.5401827,49.6593884
3А,Мостовицкая улица,610025,58.5678411,49.6407905
7,Мостовицкая улица,610025,58.5650153,49.6460060
9,Мостовицкая улица,610025,58.5644692,49.6469608
11,Мостовицкая улица,610025,58.5639872,49.6483137
201,Московская улица,610050,58.6012691,49.5801218
207,Московская улица,610050,58.5996217,49.5756649
10,Краснополянская улица,610050,58.6009819,49.5725250
8,Краснополянская улица,610050,58.6009204,49.5734643
211,Московская улица,610050,58.5999865,49.5740110
73Б,улица Щорса,610014,58.5783578,49.6068750
9 к1,улица Архитектора Валерия Зянкина,610045,58.5854499,49.5740438
1,улица Героя Рослякова,610010,58.5138389,49.6690357
2,улица Героя Рослякова,610010,58.5128218,49.6680294
2,Севастопольская улица,610010,58.5108218,49.6676241
4,Севастопольская улица,610010,58.5112581,49.6671771
4А,Севастопольская улица,610010,58.5108569,49.6666389
6А,Севастопольская улица,610010,58.5112222,49.6658415
12,Севастопольская улица,610010,58.5122283,49.6643860
19,Полевая улица,610008,58.5288844,49.6935027
21,Полевая улица,610008,58.5284870,49.6938318
24А,улица героев Чернобыльцев,610008,58.5265919,49.6937224
23,улица героев Чернобыльцев,610008,58.5263298,49.6926690
55,Солнечная улица,610037,58.5828749,49.5878433
1,улица Воровского,610002,58.5944826,49.6901496
8,Садаковская улица,610050,58.6015457,49.5694558
6,Садаковская улица,610050,58.6024149,49.5693556
8А,Садаковская улица,610050,58.6016303,49.5703601
6А,Садаковская улица,610050,58.6024182,49.5702600
4,Садаковская улица,610050,58.6033731,49.5693025
4А,Садаковская улица,610050,58.6033784,49.5702586
2,Садаковская улица,610050,58.6042465,49.5710338
2А,Садаковская улица,610050,58.6036983,49.5718679
18,Красногорская улица,610000,58.5405208,49.6588484
20А,Красногорская улица,610000,58.5412276,49.6588045
24,Красногорская улица,610000,58.5420103,49.6580113
1А,Молодёжный проезд,610051,58.5213091,49.4582441
8,улица Героя Рожнева,610007,58.5655503,49.6872862
198 к3,улица Ленина,610007,58.5641216,49.6866754
3А,улица Героя Костина,610007,58.5654149,49.6887000
4,улица Героя Рожнева,610007,58.5658749,49.6906159
1,улица Героя Костина,610007,58.5650252,49.6906607
2,улица Героя Костина,610007,58.5640487,49.6902943
4,улица Героя Костина,610007,58.5639936,49.6887505
1,улица 65-летия Победы,610007,58.5632618,49.6904571
15 к1,улица Энтузиастов,610045,58.5838587,49.5739037
10,Тарасовская улица,610047,58.6379946,49.5788784
85Т,улица Дзержинского,610047,58.6416421,49.5938359
10,улица Мельникова,610006,58.6276782,49.6353859
51,Луганская улица,610044,58.6202289,49.6005326
9,Краснополянская улица,610050,58.6021411,49.5743734
11,Краснополянская улица,610050,58.6020116,49.5733872
13,Краснополянская улица,610050,58.6019462,49.5726325
12,Краснополянская улица,610050,58.6006924,49.5716788
6,Краснополянская улица,610050,58.6010364,49.5744140
14,Краснополянская улица,610050,58.6007650,49.5708268
10,Садаковская улица,610050,58.6004753,49.5698780
4,Краснополянская улица,610050,58.6013054,49.5752210
36,улица Потребкооперации,610014,58.5612388,49.6224492
40А,Комсомольская улица,610960,58.5796207,49.6555249
21,улица Бородулина,610025,58.5785097,49.6581057
46,Комсомольская улица,610001,58.5778318,49.6478543
46,Комсомольская улица,610001,58.5769852,49.6457575
112,Московская улица,610033,58.6012214,49.6218836
112,Московская улица,610033,58.5992690,49.6219076
56А,улица Северное Кольцо,610006,58.6235194,49.6524942
51/3,Луганская улица,610044,58.6275893,49.5727649
19А,улица Энтузиастов,610045,58.5821045,49.5709675
19,улица Энтузиастов,610045,58.5823057,49.5717929
20А,улица Анжелия Михеева,610045,58.5827000,49.5710153
17А,улица Энтузиастов,610045,58.5847985,49.5725971
7 к3,улица Архитектора Валерия Зянкина,610045,58.5851820,49.5759877
7 к4,улица Архитектора Валерия Зянкина,610045,58.5849673,49.5765374
10 к2,улица Архитектора Валерия Зянкина,610045,58.5848684,49.5786321
10 к1,улица Архитектора Валерия Зянкина,610045,58.5851550,49.5782378
12,улица Архитектора Валерия Зянкина,610045,58.5840841,49.5775363
10,улица Архитектора Валерия Зянкина,610045,58.5848706,49.5775108
11 к1,улица Архитектора Валерия Зянкина,610045,58.5848006,49.5746412
7,улица Архитектора Валерия Зянкина,610045,58.5859974,49.5764456
7 к2,улица Архитектора Валерия Зянкина,610045,58.5859966,49.5750692
7 к1,улица Архитектора Валерия Зянкина,610045,58.5865290,49.5749559
15 к2,улица Энтузиастов,610045,58.5839536,49.5751808
213,Московская улица,610050,58.5993129,49.5736486
1А,Чистопрудненская улица,610025,58.5695052,49.6484483
38,улица Потребкооперации,610014,58.5610246,49.6244715
7,улица героев Чернобыльцев,610008,58.5287462,49.6910069
215,Московская улица,610050,58.5992821,49.5721274
12,Чистопрудненская улица,610025,58.5649574,49.6425275
13Б,Индустриальная улица,610010,58.4980248,49.6517377
4А с1,улица Карла Маркса,610006,58.6200167,49.6596281
2,улица Бородулина,610025,58.5801369,49.6661156
11,Индустриальная улица,610010,58.4977317,49.6536408
85,улица Ивана Попова,610025,58.5642704,49.6399435
13,Мостовицкая улица,610025,58.5636627,49.6492138
64,улица Ивана Попова,610025,58.5633752,49.6442692
18,Чистопрудненская улица,610025,58.5623097,49.6383021
3,Севастопольская улица,610010,58.5121650,49.6680558
4,улица Героя Рослякова,610010,58.5124607,49.6670299
44,улица Потребкооперации,610014,58.5603525,49.6275390
19,улица Монтажников,610044,58.6113543,49.6113474
4А,улица Василия Жуковского,610047,58.6429396,49.6099117
14,Пролетарская улица,610002,58.5892308,49.6843569
8А,Чистопрудненская улица,610025,58.5640963,49.6452732
23А,улица Энтузиастов,610045,58.5818062,49.5675358
66,улица Ивана Попова,610025,58.5622841,49.6459635
95,улица Ивана Попова,610025,58.5618805,49.6404498
5,Севастопольская улица,610010,58.5126457,49.6655076
3,переулок Южного Ветра,610010,58.5144342,49.6632247
5,переулок Южного Ветра,610010,58.5143458,49.6627347
7,переулок Южного Ветра,610010,58.5142522,49.6623009
9,переулок Южного Ветра,610010,58.5141225,49.6619096
11,переулок Южного Ветра,610010,58.5139885,49.6615779
13,переулок Южного Ветра,610010,58.5138037,49.6611996
15,переулок Южного Ветра,610010,58.5137175,49.6608709
3,улица Героя Рослякова,610010,58.5136106,49.6681993
15,Краснополянская улица,610050,58.6023580,49.5717383
15,улица Энтузиастов,610045,58.5829940,49.5740945
15,Чистопрудненская улица,610025,58.5616018,49.6361471
20,Чистопрудненская улица,610025,58.5612745,49.6384058
22,Чистопрудненская улица,610025,58.5607981,49.6399794
3,улица Капитана Дорофеева,610045,58.5818447,49.5616263
7 к2,улица Капитана Дорофеева,610045,58.5815662,49.5603375
7 к1,улица Капитана Дорофеева,610045,58.5816607,49.5594059
7,улица Капитана Дорофеева,610045,58.5808972,49.5596728
5,улица Капитана Дорофеева,610045,58.5809766,49.5616201
64,улица Энтузиастов,610045,58.5784510,49.5610243
62,улица Энтузиастов,610045,58.5786246,49.5621332
60 к1,улица Энтузиастов,610045,58.5790381,49.5631104
60 к2,улица Энтузиастов,610045,58.5795992,49.5639909
60 к4,улица Энтузиастов,610045,58.5794121,49.5651435
25А,улица Энтузиастов,610045,58.5832989,49.5658820
16,улица Анжелия Михеева,610045,58.5847651,49.5700722
217,Московская улица,610050,58.5989524,49.5704175
12,улица Мельникова,610006,58.6268765,49.6360115
14 к1,улица Сурикова,610035,58.5883142,49.6393429
30,улица Тургенева,610035,58.5885342,49.6410616
9,улица Калинина,610035,58.5879658,49.6405503
17,улица Тургенева,610035,58.5889335,49.6391088
1,переулок Южного Ветра,610010,58.5144015,49.6646555
9,улица Героя Рослякова,610010,58.5140170,49.6644426
11,улица Героя Рослякова,610010,58.5139597,49.6633817
13,улица Героя Рослякова,610010,58.5138022,49.6626577
15,улица Героя Рослякова,610010,58.5135771,49.6620387
6,улица Героя Рослякова,610010,58.5134303,49.6639839
7,улица Героя Рослякова,610010,58.5137156,49.6655828
5,улица Героя Рослякова,610010,58.5136619,49.6670510
20А,улица героев Чернобыльцев,610008,58.5271179,49.6936084
22А,улица героев Чернобыльцев,610008,58.5269575,49.6938563
18,улица героев Чернобыльцев,610008,58.5273514,49.6926173
27,Полевая улица,610008,58.5275960,49.6940733
16,улица героев Чернобыльцев,610008,58.5275138,49.6924840
10А,улица героев Чернобыльцев,610008,58.5286442,49.6924777
11,Полевая улица,610008,58.5299204,49.6927329
13,Полевая улица,610008,58.5296343,49.6927115
17,Полевая улица,610008,58.5291448,49.6931703
25,Полевая улица,610008,58.5279214,49.6938047
15,Красногорская улица,610000,58.5399012,49.6586286
10,Красногорская улица,610000,58.5399120,49.6574893
3,Краснополянская улица,610050,58.6018700,49.5764376
2Б,улица Красина,610001,58.5796183,49.6462814
52А,улица Энтузиастов,610045,58.5836879,49.5814794
28,Курская улица,610045,58.5830762,49.5806092
46,улица Потребкооперации,610014,58.5603746,49.6288359
8Т,улица КУТШО,610006,58.6248171,49.6447682
135,улица Воровского,610048,58.5980613,49.6071934
29,улица Красный Химик,610004,58.6222827,49.6975758
225/5,улица Павла Корчагина,610000,58.6642415,49.6723421
69\2,Октябрьский проспект,610006,58.6219815,49.6481558
21,Трудовая улица,61008,58.5260233,49.6801107
85/2,улица Дзержинского,610047,58.6436908,49.5975973
21,Транспортный проезд,610046,58.6090385,49.6435053
6А,улица Лепсе,610006,58.6227734,49.6452381
26,Студенческий проезд,610033,58.5990635,49.6196348
33,Октябрьский проспект,610016,58.6323626,49.6321742
29А,Октябрьский проспект,610016,58.6330018,49.6304169
59 к4,Луганская улица,610044,58.6218323,49.5843336
8,Промышленный переулок,610044,58.6185929,49.5893262
1,Автотранспортный переулок,610010,58.4970553,49.6400116
9,Индустриальная улица,610010,58.4987979,49.6589711
16А,Мостовая улица,610040,58.6580405,49.6954702
64,улица Филатова,610030,58.6583564,49.7024952
18Г,Мостовая улица,610040,58.6592238,49.6935563
88 к30 с1,улица Павла Корчагина,610030,58.6529857,49.7123776
32,улица Красной Звезды,610004,58.6207656,49.6955306
17,улица Красной Звезды,610004,58.6228977,49.6992237
52А/Т,улица Блюхера,610027,58.5819565,49.6732976
82,Октябрьский проспект,610017,58.5971992,49.6595988
82,Октябрьский проспект,610017,58.5972044,49.6596287
1А/1,улица Свердлова,610011,58.6474309,49.6133890
15,улица Физкультурников,610044,58.6100908,49.6233768
29,Лесозаводская улица,610007,58.5879174,49.7087645
4,улица 60-летия Комсомола,610040,58.6572340,49.6813764
18,Октябрьский проспект,610016,58.6355328,49.6327583
53А,Луганская улица,610044,58.6186883,49.5708142
28,Советская улица,610008,58.5107557,49.7041926
51 к1,Луганская улица,610044,58.6218013,49.5940888
53/2,Луганская улица,610044,58.6165223,49.5957631
26,улица Капитана Дорофеева,610045,58.5813693,49.5639131
20,улица Анжелия Михеева,610045,58.5827638,49.5698853
18А,улица Анжелия Михеева,610045,58.5838592,49.5711631
7,Краснополянская улица,610050,58.6024286,49.5756590
5,Краснополянская улица,610050,58.6025736,49.5769717
203,Московская улица,610050,58.6011137,49.5793917
89,улица Ивана Попова,610025,58.5627409,49.6392506
12,Мостовицкая улица,610025,58.5647212,49.6495670
6,Чистопрудненская улица,610025,58.5657688,49.6471571
2,Чистопрудненская улица,610025,58.5661741,49.6497836
1,Чистопрудненская улица,610025,58.5673038,49.6498587
4 к1,Мостовицкая улица,610025,58.5682192,49.6460706
60,улица Ивана Попова,610025,58.5669703,49.6392082
58,улица Ивана Попова,610025,58.5681108,49.6381239
1,Мостовицкая улица,610025,58.5691837,49.6421581
1 к1,Мостовицкая улица,610025,58.5689580,49.6405340
56,улица Ивана Попова,610025,58.5689453,49.6365957
79Б,улица Щорса,610014,58.5785821,49.6046932
79В,улица Щорса,610014,58.5788853,49.6055392
75Б,улица Щорса,610014,58.5791414,49.6063542
75В,улица Щорса,610014,58.5795046,49.6067391
71А,улица Щорса,610014,58.5794530,49.6075211
75,улица Щорса,610014,58.5797424,49.6067442
25 к1,Производственная улица,610014,58.5794540,49.6079254
25В,Производственная улица,610014,58.5794641,49.6083584
71,улица Щорса,610014,58.5790699,49.6076448
79А,улица Щорса,610014,58.5784268,49.6054787
79,улица Щорса,610014,58.5780206,49.6053663
79Г,улица Щорса,610014,58.5790841,49.6050618
8,Тарасовская улица,610047,58.6378709,49.5803511
42А,Комсомольская улица,610001,58.5789274,49.6530456
1,Привокзальная площадь,610001,58.5797683,49.6503704
73А,улица Ленина,610020,58.6027543,49.6798818
2А,улица Мопра,610008,58.5104822,49.6930979
6 к1,улица Василия Жуковского,610047,58.6422167,49.6104199
42,Комсомольская улица,610001,58.5785520,49.6516454
100,улица Розы Люксембург,610005,58.6140054,49.6470434
79,Преображенская улица,610000,58.6055729,49.6609191
40,улица Калинина,610035,58.5862449,49.6237406
