House number,Street name,Postal code,Latitude,Longitude
202,Pala-Pala Road,4114,14.2985002,120.9565544
44,Naga Street,4115,14.3088648,120.9738039
16,Emmanuel,4115,14.3169892,120.9598569
12,Torres,4115,14.3197245,120.9713098
6,Block F 2,4115,14.3178422,120.9723090
173,Palapala,4114,14.2985453,120.9570251
No 88 Wincopr Building,Molino Road,4114,14.3544381,120.9814240
235,Aguinaldo Highway,4114,14.3557438,120.9380369
130,Atis Street,1900,14.3090765,120.9699638
Lot 13,Hosea Street,4114,14.3496488,120.9273900
14-2,Cleveland,4114,14.2780787,120.9724568
654,Congressional Road,4115,14.3122142,120.9573046
23,D. Mangubat Street,4114,14.3276055,120.9341628
7-19,Colorado,4114,14.2794962,120.9733163
Block 1 Lot 4,Congressional Avenue,4115,14.3232694,120.9639478
L6 Love,Narciso Guevarra,4114,14.3317368,120.9401776
77-2,Saint Irenaeus Street,4114,14.3293882,120.9676246
Blk 43-44,Teacher's Street,4115,14.3104348,120.9727427
Blk 44,Teacher's Street,4114,14.3102804,120.9727645
7-15,Colorado,4114,14.2794052,120.9730741
8-6,Colorado,4114,14.2791602,120.9727650
54-27,Miami,4114,14.2736334,120.9662509
22-5,Dallas,4114,14.2779434,120.9701951
1-42,Emilio Aguinaldo Highway,4114,14.3390424,120.9372993
1-42,Emilio Aguinaldo Highway,4114,14.3390294,120.9373165
35-7,Kentucky,4114,14.2749759,120.9716345
BLK 2 LOT 59,Greenbreeze Avenue,4114,14.3003607,120.9372245
3541,Lorenzo Sico Street,4114,14.3300240,120.9465562
Amaris Homes Dasma Phase 2,Estanislao Carungcong Road,4114,14.3356529,120.9431144
Blk 3 Lot 6 Amaris Homes Phase 2,Estanislao Carungcong Road,4114,14.3363957,120.9442346
BLK 10 Lot 7,San Pablo Street,4114,14.2867359,120.9846193
Blk 9,Toronto Street,4114,14.3395363,120.9338492
Lot 66,Titan Street,4114,14.3355922,120.9414799
172,Governor's Drives,4114,14.2998310,120.9568688
12,Emilio Aguinaldo Highway,4114,14.3014929,120.9543268
11,Emilio Aguinaldo Highway,4114,14.3017271,120.9544403
171,Governor's Drive,4114,14.2998606,120.9568024
170,Governor's Drive,4114,14.2998927,120.9567324
10,Emilio Aguinaldo Highway,4114,14.3018865,120.9543436
3175,Aguinaldo Highway,4114,14.3434101,120.9371396
175,Encino Drive,4114,14.2964735,120.9613136
13-7,Caliandra Street 3,4114,14.2756459,120.9877561
13,Emilio Aguinaldo Highway,4114,14.3012489,120.9544569
13,Emilio Aguinaldo Highway,4114,14.3012164,120.9546597
379,Saratosa Avenue,4114,14.2943711,120.9625099
B9L6,Diamond,4114,14.3460815,120.9267112
24-28,Paliparan Road,4114,14.3451107,120.9819437
70-28,7th Street,4114,14.3048204,120.9448289
32-15,Illinois,4114,14.2756481,120.9695616
301,Finch Street,4114,14.2938338,120.9457150
29,"Jose Abad Santos, Salawag",4114,14.3530285,120.9800487
330,Aguinaldo Highway,4114,14.2914130,120.9585321
18/13,Radium,4114,14.3405770,120.9259440
Lot 02,Texas Street,4114,14.2917972,120.9561532
324,Emilio Aguinaldo Highway,4114,14.2956924,120.9566821
2-30,Berkshire Street,4114,14.3588575,120.9869135
14-60,Berkshire Street,4114,14.3584002,120.9852403
14-32,Boston Street,4114,14.3584807,120.9863514
Blk 8 Lot 1 Phase E,Saint Clement Street,4114,14.3308045,120.9659286
74-8,Texas Avenue,4114,14.2764915,120.9673703
B16A L1,Dogwood Lane,4117,14.2750884,120.9884158
Block 6 Lot 11,Lemon Street,4114,14.3526535,120.9445135
2-13,Tungsten Street,4103,14.3578640,120.9333060
B3 Lt11,Acacia Homes Area C,4115,14.3246477,120.9736561
Block 18 Lot 10,Geneva Street,4114,14.3477424,120.9446183
B7 L5,Santo Niño Street,4115,14.3458172,120.9477976
B7 L3,Santo Niño Street,4115,14.3457296,120.9478268
B7 L9,Santo Niño Street,4115,14.3459990,120.9477371
B7 L23,Santo Niño Street,4115,14.3466511,120.9476245
B7 L15,Santo Niño Street,4115,14.3462652,120.9476726
B7 L17,Santo Niño Street,4115,14.3463647,120.9476609
B7 L11,Santo Niño Street,4115,14.3460826,120.9477285
B7 L21,Santo Niño Street,4115,14.3465389,120.9476382
B7 L19,Santo Niño Street,4115,14.3464537,120.9476126
B7 L13,Santo Niño Street,4115,14.3461771,120.9477148
B7 L7,Santo Niño Street,4115,14.3459089,120.9477636
B7 L1,Santo Niño Street,4115,14.3456425,120.9478340
76-9,Virginia,4114,14.2763763,120.9665312
77-1,Pennsylvania,4114,14.2757451,120.9667770
55-8,Florida,4114,14.2753213,120.9672319
60A-14,5th Avenue,4114,14.2772519,120.9671170
43-5,Miami,4114,14.2745764,120.9656949
76-6,Vermont,4114,14.2761685,120.9667476
76-7,Virginia,4114,14.2762460,120.9665898
76-10,Vermont,4114,14.2763637,120.9666793
76-12,Vermont,4114,14.2764821,120.9666340
77-17,Pennsylvania,4114,14.2759676,120.9675074
55-10,Florida,4114,14.2753358,120.9673146
55-3,Washington Avenue,4114,14.2753928,120.9670040
55-1,Washington Avenue,4114,14.2753508,120.9668932
76-5,Virginia,4114,14.2761722,120.9666140
1,Regency Drive,4114,14.2660773,120.9661142
2,Regency Drive,4114,14.2660335,120.9661643
3,Regency Drive,4114,14.2659772,120.9662291
4,Regency Drive,4114,14.2659045,120.9662786
Block 3 Lot 1,Fairway View Avenue,4114,14.3487025,120.9730296
9/22,zinc,4114,14.3404675,120.9262903
23/78,sodium,4114,14.3403106,120.9264326
23/73,sodium,4114,14.3402251,120.9262671
23/69,sodium,4114,14.3401650,120.9261502
24,Camerino Avenue,4114,14.3284273,120.9380685
B6 L5,Guam,4114,14.3338676,120.9298274
B5 L8,Guam,4114,14.3337227,120.9298591
B6 L22,Guam,4114,14.3337676,120.9291805
B5 L20,Guam,4114,14.3336561,120.9294278
60A-8,5th Avenue,4114,14.2770403,120.9667045
B9 L4,Sardonyx Street,4114,14.3462334,120.9267038
25/3,noah,4114,14.3497800,120.9274997
77,Don Placido Campos Avenue,4114,14.3257817,120.9361863
42,Don Placido Campos Avenue,4114,14.3279524,120.9342884
blk 5 lot 1,paris st. corner rome,4114,14.3254748,120.9772925
Blk 20 Lot 43,Narra Street,4114,14.3185295,120.9369781
122-15,Santa Lucia Street,4115,14.3369449,120.9537957
Blk 16 Lot 7,Narra,4114,14.3395677,120.9465463
45 F,Malihan Street,4114,14.3277934,120.9361074
63-06,Confederation Drive,4115,14.3100859,120.9708001
63-05,Confederation Drive,4115,14.3101134,120.9707229
blk.43 lt.19,confederation drive phase 3,4116,14.3080833,120.9738788
5950,Confederation Drive,4115,14.3101256,120.9709639
5951,Confederation Drive,4115,14.3101889,120.9709835
5949,Confederation Drive,4115,14.3100464,120.9709457
B4 L1,Guam ext,4114,14.3337964,120.9303272
B14 L2,Fiji,4114,14.3350461,120.9298235
B4 L2,Guam ext,4114,14.3338076,120.9302138
B23,gold ave,4114,14.3418405,120.9247645
B10,gold ave,4114,14.3419852,120.9247179
269,Ramona S. Tirona Avenue,4114,14.3139217,120.9486380
265,Ramona S. Tirona Avenue,4114,14.3138357,120.9483709
266,Ramona S. Tirona Avenue,4114,14.3138989,120.9484750
264,Ramona S. Tirona Avenue,4114,14.3138062,120.9482856
263,Ramona S. Tirona Avenue,4114,14.3137518,120.9481526
Blk 33 Lot 8,Bangkok,4114,14.3201839,120.9538676
1-42,Emilio Aguinaldo Highway,4114,14.3389770,120.9373253
27-1,Arkansas,4114,14.3232228,120.9487379
267,Ramona S. Tirona Avenue,4114,14.3139939,120.9484441
188,Trinidad Street,4114,14.3186678,120.9389516
268,Ramona S. Tirona Avenue,4114,14.3140719,120.9485570
105,Don Placido Campos Avenue,4114,14.3201017,120.9401439
427,San Lorenzo Ruiz Crescent,4115,14.3123430,120.9572960
16-12,Saint Martin Bend,4114,14.3020155,120.9671754
Blk 42 Lot 8,Dasmariñas Avenue,4114,14.3415841,120.9780866
9073,Congressional Avenue,4115,14.3228991,120.9637751
73-9,Texas Avenue,4114,14.2766389,120.9675728
76-16,Vermont,4114,14.2766780,120.9665662
9-21,Chicago,4114,14.2787986,120.9732521
56-1,Washington Avenue,4114,14.2749376,120.9658672
69-2,Nevada Street,4114,14.2771745,120.9690186
18-7,Washington Avenue,4114,14.2773073,120.9714474
72-3,Ohio,4114,14.2765243,120.9679760
23-5,Washington Avenue,4114,14.2773957,120.9708426
22-5,Dallas,4114,14.2779711,120.9701720
19-23,Washington Avenue,4114,14.2775811,120.9712655
19-31,Washington Avenue,4114,14.2775307,120.9716663
43-2,Miami,4114,14.2748797,120.9655991
3-1,Alaska,4114,14.2789698,120.9739868
68-32,Pennsylvania,4114,14.2769818,120.9691083
69-16,Nevada,4114,14.2778083,120.9687512
11-6,Alaska,4114,14.2786276,120.9740819
39-2,Kentucky,4114,14.2733651,120.9686358
69-5,New Jersey,4114,14.2772620,120.9688115
9-17,Chicago,4114,14.2787640,120.9731035
32-23,Illinois,4114,14.2752958,120.9696666
9-19,Chicago,4114,14.2787816,120.9731796
76-4,Vermont,4114,14.2760669,120.9667630
32-19,Illinois,4114,14.2754576,120.9696181
73-19,Texas Avenue,4114,14.2769963,120.9674572
32-21,Illinois,4114,14.2753764,120.9696437
37-26,Kentucky,4114,14.2747589,120.9707662
37-34,Kentucky,4114,14.2749036,120.9711209
9-23,Chicago,4114,14.2788164,120.9733236
32-9,Illinois,4114,14.2758232,120.9695057
51-8,Maryland,4114,14.2747619,120.9671661
9-15,Chicago,4114,14.2787458,120.9730288
9-11,Chicago,4114,14.2787265,120.9729604
9-3,Chicago,4114,14.2786685,120.9726783
33-8,Golden State,4114,14.2755200,120.9700644
67-7,Nevada,4114,14.2773337,120.9691189
15-34,Charlotte,4114,14.2780444,120.9737540
15-36,Charlotte,4114,14.2780583,120.9738414
15-37,Washington Avenue,4114,14.2779672,120.9738440
10-20,Chicago,4114,14.2785599,120.9732737
10-16,Chicago,4114,14.2785270,120.9731301
10-18,Chicago,4114,14.2785456,120.9732045
10-22,Chicago,4114,14.2785809,120.9733526
10-24,Chicago,4114,14.2785915,120.9734171
10-26,Chicago,4114,14.2786126,120.9734909
10-30,Chicago,4114,14.2786515,120.9736534
9-25,Chicago,4114,14.2788331,120.9733918
9-9,Chicago,4114,14.2787113,120.9728958
9-7,Chicago,4114,14.2786934,120.9728205
9-5,Chicago,4114,14.2786765,120.9727484
10-12,Chicago,4114,14.2784998,120.9729863
10-10,Chicago,4114,14.2784714,120.9729191
9-27,Chicago,4114,14.2788495,120.9734635
9-29,Chicago,4114,14.2788663,120.9735356
9-33,Chicago,4114,14.2788977,120.9736845
9-31,Chicago,4114,14.2788846,120.9736041
9-34,Chicago,4114,14.2789254,120.9737727
10-32,Chicago,4114,14.2786737,120.9737469
10-2,Chicago,4114,14.2784053,120.9726270
20-20,Alabama,4114,14.2783343,120.9723419
9-10,California,4114,14.2788385,120.9729479
10-8,Chicago,4114,14.2784609,120.9728457
10-6,Chicago,4114,14.2784489,120.9727707
10-4,Chicago,4114,14.2784322,120.9726999
10-19,Cleveland,4114,14.2784165,120.9731431
10-15,Cleveland,4114,14.2783818,120.9730015
10-17,Cleveland,4114,14.2783996,120.9730728
10-21,Cleveland,4114,14.2784328,120.9732134
10-23,Cleveland,4114,14.2784492,120.9732889
10-25,Cleveland,4114,14.2784694,120.9733624
10-27,Cleveland,4114,14.2784941,120.9734290
10-33,Cleveland,4114,14.2785406,120.9736502
10-35,Cleveland,4114,14.2785617,120.9737348
10-36,Cleveland,4114,14.2785890,120.9738420
10-7,Cleveland,4114,14.2783470,120.9727809
10-3,Cleveland,4114,14.2782973,120.9726378
10-5,Cleveland,4114,14.2783154,120.9727132
10-9,Cleveland,4114,14.2783503,120.9728575
10-11,Cleveland,4114,14.2783670,120.9729298
9-4,California,4114,14.2787901,120.9727315
9-6,California,4114,14.2788072,120.9728047
9-2,California,4114,14.2787736,120.9726602
9-8,California,4114,14.2788235,120.9728740
9-12,California,4114,14.2788562,120.9730191
9-14,California,4114,14.2788707,120.9730948
9-16,California,4114,14.2788882,120.9731668
9-18,California,4114,14.2789056,120.9732405
9-20,California,4114,14.2789221,120.9733124
9-22,California,4114,14.2789387,120.9733850
9-24,California,4114,14.2789561,120.9734572
9-26,California,4114,14.2789727,120.9735265
9-28,California,4114,14.2789902,120.9735998
9-30,California,4114,14.2790121,120.9736721
26-11,Washington Avenue,4114,14.2759322,120.9684510
30-1,Florida,4114,14.2757812,120.9688855
26-35,Washington Avenue,4114,14.2766835,120.9693600
26-37,Washington Avenue,4114,14.2767851,120.9694573
68-33,Washington Avenue,4114,14.2769230,120.9692110
67-3,Nevada,4114,14.2772009,120.9692838
67-4,New Mexico,4114,14.2772622,120.9693758
67-6,New Mexico,4114,14.2773157,120.9693012
67-8,New Mexico,4114,14.2773748,120.9692313
19-3,Washington Avenue,4114,14.2777269,120.9704373
19-9,Washington Avenue,4114,14.2776880,120.9707250
19-11,Washington Avenue,4114,14.2776733,120.9708130
19-15,Washington Avenue,4114,14.2776585,120.9709004
19-17,Washington Avenue,4114,14.2776430,120.9709877
19-27,Washington Avenue,4114,14.2775461,120.9714354
19-29,Washington Avenue,4114,14.2775358,120.9715303
64-11,5th Avenue,4114,14.2779486,120.9693594
64-15,5th Avenue,4114,14.2779031,120.9694320
64-18,Nebraska,4114,14.2779312,120.9695565
64-19,Nebraska,4114,14.2780294,120.9695989
64-10,Nashville,4114,14.2781337,120.9692278
64-14,Nashville,4114,14.2781077,120.9694166
64-8,Nashville,4114,14.2781467,120.9691378
64-4,Nashville,4114,14.2781728,120.9689635
64-6,Nashville,4114,14.2781595,120.9690499
61-7,Nashville,4114,14.2784386,120.9685700
62-7,New Orleans,4114,14.2781689,120.9682059
62-5,New Orleans,4114,14.2780696,120.9682359
63-1,New Orleans,4114,14.2780249,120.9685698
70-19,New Orleans,4114,14.2775716,120.9683838
69-14,Nevada,4114,14.2776993,120.9687868
69-12,Nevada,4114,14.2776147,120.9688134
69-10,Nevada,4114,14.2775340,120.9688388
69-8,Nevada,4114,14.2774478,120.9688659
69-6,Nevada,4114,14.2773575,120.9688943
70-17,New Orleans,4114,14.2774784,120.9684138
70-15,New Orleans,4114,14.2773894,120.9684424
69-17,New Jersey,4114,14.2776939,120.9686757
70-11,New Orleans,4114,14.2773036,120.9684701
70-9,New Orleans,4114,14.2772129,120.9684992
70-7,New Orleans,4114,14.2771193,120.9685293
70-5,New Orleans,4114,14.2770396,120.9685549
70-3,New Orleans,4114,14.2769639,120.9685793
70-16,New Jersey,4114,14.2774908,120.9685301
70-14,New Jersey,4114,14.2773997,120.9685590
70-12,New Jersey,4114,14.2773095,120.9685872
70-10,New Jersey,4114,14.2772184,120.9686159
70-8,New Jersey,4114,14.2771351,120.9686420
70-6,New Jersey,4114,14.2770483,120.9686695
70-4,New Jersey,4114,14.2769599,120.9686972
70-20,New Jersey,4114,14.2776988,120.9684616
71-4,New Orleans,4114,14.2768015,120.9683950
71-6,New Orleans,4114,14.2768994,120.9683799
19-8,Charlotte,4114,14.2778985,120.9706009
19-4,Charlotte,4114,14.2779177,120.9703983
19-6,Charlotte,4114,14.2778791,120.9705041
19-2,Dallas,4114,14.2778145,120.9703552
19-35,Washington Avenue,4114,14.2775319,120.9718527
75-4,Utah,4114,14.2761852,120.9671097
17-36,Denver,4114,14.2774434,120.9737964
35-4,Glendale,4114,14.2751965,120.9713955
68-23,Washington Avenue,4114,14.2765321,120.9688340
68-17,Washington Avenue,4114,14.2763172,120.9685849
68-5,Washington Avenue,4114,14.2760352,120.9681059
68-7,Washington Avenue,4114,14.2760855,120.9681983
68-9,Washington Avenue,4114,14.2761394,120.9682934
68-3,Washington Avenue,4114,14.2759869,120.9680038
68-2,Pennsylvania,4114,14.2760379,120.9678342
15-1,Washington Avenue,4114,14.2776044,120.9723286
15-3,Washington Avenue,4114,14.2776229,120.9724055
15-5,Washington Avenue,4114,14.2776432,120.9724906
15-7,Washington Avenue,4114,14.2776645,120.9725794
15-9,Washington Avenue,4114,14.2776860,120.9726694
15-11,Washington Avenue,4114,14.2777093,120.9727663
15-15,Washington Avenue,4114,14.2777300,120.9728531
15-17,Washington Avenue,4114,14.2777521,120.9729452
15-19,Washington Avenue,4114,14.2777735,120.9730348
15-21,Washington Avenue,4114,14.2777954,120.9731260
15-23,Washington Avenue,4114,14.2778155,120.9732100
16-22,Washington Avenue,4114,14.2776205,120.9732937
15-25,Washington Avenue,4114,14.2778370,120.9733000
15-27,Washington Avenue,4114,14.2778598,120.9733952
15-29,Washington Avenue,4114,14.2778815,120.9734859
15-31,Washington Avenue,4114,14.2779035,120.9735782
15-33,Washington Avenue,4114,14.2779241,120.9736641
15-35,Washington Avenue,4114,14.2779501,120.9737722
15-39,Washington Avenue,4114,14.2779908,120.9739426
16-2,Washington Avenue,4114,14.2774116,120.9723779
16-4,Washington Avenue,4114,14.2774287,120.9724724
16-6,Washington Avenue,4114,14.2774508,120.9725618
16-8,Washington Avenue,4114,14.2774718,120.9726548
16-10,Washington Avenue,4114,14.2774839,120.9727334
16-12,Washington Avenue,4114,14.2775112,120.9728360
16-14,Washington Avenue,4114,14.2775329,120.9729253
16-16,Washington Avenue,4114,14.2775539,120.9730160
16-18,Washington Avenue,4114,14.2775716,120.9730907
16-20,Washington Avenue,4114,14.2775966,120.9731993
16-26,Washington Avenue,4114,14.2776589,120.9734568
16-28,Washington Avenue,4114,14.2776815,120.9735605
16-32,Washington Avenue,4114,14.2777241,120.9737429
16-34,Washington Avenue,4114,14.2777433,120.9738272
16-36,Washington Avenue,4114,14.2777624,120.9739082
16-24,Washington Avenue,4114,14.2776404,120.9733787
16-30,Washington Avenue,4114,14.2777017,120.9736480
51-1,Memphis,4114,14.2750069,120.9669486
51-2,Maryland,4114,14.2750310,120.9670964
51-14,Maryland,4114,14.2745014,120.9672523
51-26,Maryland,4114,14.2739614,120.9674134
51-31,Memphis,4114,14.2737998,120.9673389
50-2,Maine,4114,14.2751247,120.9674304
50-1,Maryland,4114,14.2750979,120.9672951
49-2,Madison Avenue,4114,14.2752042,120.9677766
55-15,Washington Avenue,4114,14.2755472,120.9675288
26-4,Florida,4114,14.2755898,120.9680850
26-10,Florida,4114,14.2757369,120.9683919
26-12,Florida,4114,14.2758117,120.9684930
26-20,Florida,4114,14.2760454,120.9688663
26-22,Florida,4114,14.2761181,120.9689563
26-25,Washington Avenue,4114,14.2763002,120.9689829
26-28,Florida,4114,14.2763581,120.9692384
26-30,Florida,4114,14.2764205,120.9693015
55-16,Florida,4114,14.2754360,120.9676478
40-2,Kansas,4114,14.2736598,120.9685197
40-6,Kansas,4114,14.2736996,120.9686862
40-8,Kansas,4114,14.2737077,120.9687775
40-10,Kansas,4114,14.2737318,120.9688734
40-12,Kansas,4114,14.2737528,120.9689596
40-18,Kansas,4114,14.2738192,120.9692308
40-22,Kansas,4114,14.2738685,120.9694200
40-24,Kansas,4114,14.2738890,120.9695007
40-20,Kansas,4114,14.2738418,120.9693172
40-16,Kansas,4114,14.2737976,120.9691388
71-16,New Orleans,4114,14.2773205,120.9682421
71-20,New Orleans,4114,14.2774979,120.9681905
71-18,New Orleans,4114,14.2774157,120.9682059
71-2,Pennsylvania,4114,14.2766287,120.9684211
18-2,Delaware,4114,14.2772821,120.9712257
18-3,Delaware,4114,14.2771884,120.9712337
18-4,Delaware,4114,14.2770794,120.9712574
18-6,Denver,4114,14.2770768,120.9713614
18-5,Washington Avenue,4114,14.2773230,120.9713262
18-9,Washington Avenue,4114,14.2772820,120.9715487
18-10,Denver,4114,14.2771228,120.9715616
18-12,Denver,4114,14.2771463,120.9716565
18-14,Denver,4114,14.2771731,120.9717633
18-16,Denver,4114,14.2771952,120.9718627
18-15,Washington Avenue,4114,14.2772899,120.9717753
18-17,Washington Avenue,4114,14.2772922,120.9718716
18-19,Washington Avenue,4114,14.2773169,120.9719784
18-21,Washington Avenue,4114,14.2773380,120.9720679
18-23,Washington Avenue,4114,14.2773546,120.9721397
19-37,Washington Avenue,4114,14.2775418,120.9719451
18-18,Denver,4114,14.2772179,120.9719508
18-20,Denver,4114,14.2772425,120.9720616
18-22,Denver,4114,14.2772668,120.9721675
17-6,Delaware,4114,14.2768401,120.9711394
17-14,Denver,4114,14.2769729,120.9718069
72-5,Ohio,4114,14.2766277,120.9679562
73-15,Texas Avenue,4114,14.2768149,120.9675133
68-15,Washington Avenue,4114,14.2762576,120.9684907
62-3,New Orleans,4114,14.2779729,120.9682652
62-8,New Jersey,4114,14.2781788,120.9683103
62-4,New Jersey,4114,14.2780036,120.9683645
62-6,New Jersey,4114,14.2780882,120.9683354
63-2,5th Avenue,4114,14.2780262,120.9686584
62-1,New Orleans,4114,14.2778850,120.9683033
43-6,Miami,4114,14.2744857,120.9657269
14-32,Alaska,4114,14.2783771,120.9738833
11-4,Alaska,4114,14.2784197,120.9741063
52-18,Memphis,4114,14.2741868,120.9669952
52-26,Memphis,4114,14.2738294,120.9670805
52-20,Memphis,4114,14.2740954,120.9669923
52-28,Memphis,4114,14.2737350,120.9671077
52-23,Minnesota,4114,14.2739960,120.9668868
50-33,Maryland,4114,14.2737914,120.9677121
50-30,Maine,4114,14.2738952,120.9678019
50-25,Maryland,4114,14.2741506,120.9676018
50-28,Maine,4114,14.2739959,120.9677761
50-20,Maine,4114,14.2743248,120.9676702
49-23,Maine,4114,14.2743268,120.9679164
49-27,Maine,4114,14.2741506,120.9679701
49-29,Maine,4114,14.2740673,120.9679955
49-31,Maine,4114,14.2739798,120.9680221
49-33,Maine,4114,14.2738953,120.9680542
49-28,Madison Avenue,4114,14.2740704,120.9681233
27-33,Madison Avenue,4114,14.2739727,120.9684098
27-31,Madison Avenue,4114,14.2740639,120.9683912
49-25,Maine,4114,14.2742249,120.9679335
49-18,Madison Avenue,4114,14.2744870,120.9679824
49-14,Madison Avenue,4114,14.2746669,120.9679411
49-12,Madison Avenue,4114,14.2747463,120.9679033
49-8,Madison Avenue,4114,14.2749243,120.9678624
49-6,Madison Avenue,4114,14.2750125,120.9678355
49-5,Maine,4114,14.2750150,120.9676927
49-1,Florida,4114,14.2752004,120.9676606
27-3,Madison Avenue,4114,14.2751962,120.9680225
27-5,Madison Avenue,4114,14.2750897,120.9680526
27-7,Madison Avenue,4114,14.2750035,120.9680791
27-11,Madison Avenue,4114,14.2748349,120.9681358
27-15,Madison Avenue,4114,14.2747490,120.9681651
27-17,Madison Avenue,4114,14.2746601,120.9681932
27-19,Madison Avenue,4114,14.2745775,120.9682199
27-21,Madison Avenue,4114,14.2744852,120.9682430
27-27,Madison Avenue,4114,14.2742429,120.9683340
27-25,Madison Avenue,4114,14.2743275,120.9683117
27-23,Madison Avenue,4114,14.2744073,120.9682859
27-1,Madison Avenue,4114,14.2752836,120.9679991
28-1,Louisiana,4114,14.2754267,120.9683196
29-3,Indiana,4114,14.2755200,120.9686143
29-4,Iowa,4114,14.2755225,120.9687350
68-16,Pennsylvania,4114,14.2764444,120.9684944
69-4,Nevada,4114,14.2772599,120.9689249
72-1,Ohio,4114,14.2764344,120.9680044
73-4,Ohio,4114,14.2763943,120.9677986
73-6,Ohio,4114,14.2764843,120.9677682
73-10,Ohio,4114,14.2766514,120.9677224
72-7,Ohio,4114,14.2767119,120.9679168
73-3,Texas Avenue,4114,14.2763781,120.9676503
73-1,Texas Avenue,4114,14.2762958,120.9676904
73-16,Ohio,4114,14.2769123,120.9676322
73-20,Ohio,4114,14.2770892,120.9675653
73-23,Texas Avenue,4114,14.2771532,120.9674098
73-14,Ohio,4114,14.2768274,120.9676567
72-10,Oregon,4114,14.2768082,120.9680366
72-8,Oregon,4114,14.2767227,120.9680635
71-5,Oregon,4114,14.2767962,120.9682592
71-11,Oregon,4114,14.2770605,120.9681749
71-1,Oregon,4114,14.2766217,120.9683229
43-21,Miami,4114,14.2732747,120.9661256
43-23,Miami,4114,14.2731045,120.9662166
47-1,Kansas,4114,14.2729462,120.9664982
45-16,Kansas,4114,14.2731575,120.9665006
45-12,Kansas,4114,14.2732175,120.9667644
45-10,Kansas,4114,14.2732405,120.9668555
45-8,Kansas,4114,14.2732636,120.9669444
46-10,Kansas,4114,14.2734802,120.9678445
46-6,Kansas,4114,14.2734394,120.9676698
46-1,Michigan,4114,14.2735072,120.9674783
46-3,Michigan,4114,14.2735339,120.9675778
45-1,Michigan,4114,14.2734351,120.9672015
46-7,Michigan,4114,14.2735689,120.9677504
46-9,Michigan,4114,14.2735928,120.9678456
46-11,Michigan,4114,14.2736154,120.9679359
46-15,Michigan,4114,14.2736375,120.9680178
46-17,Michigan,4114,14.2736610,120.9681190
46-14,Kansas,4114,14.2735297,120.9680231
46-16,Kansas,4114,14.2735503,120.9681159
46-18,Kansas,4114,14.2735756,120.9682277
46-19,Michigan,4114,14.2736699,120.9682341
48-17,Kansas,4114,14.2733649,120.9682176
48-9,Kansas,4114,14.2732977,120.9679346
48-16,Kentucky,4114,14.2732444,120.9682166
48-18,Kentucky,4114,14.2732671,120.9683203
48-10,Kentucky,4114,14.2731814,120.9679441
41-20,Kentucky,4114,14.2730506,120.9682270
41-17,Kentucky,4114,14.2729600,120.9679580
48-3,Kansas,4114,14.2732307,120.9676630
48-1,Kansas,4114,14.2732073,120.9675667
48-5,Kansas,4114,14.2732535,120.9677549
48-6,Kentucky,4114,14.2731419,120.9677665
39-1,Kansas,4114,14.2734595,120.9686236
39-3,Kansas,4114,14.2734881,120.9687141
41-21,Kentucky,4114,14.2730569,120.9683213
38-4,Kentucky,4114,14.2732218,120.9689369
27-6,Louisiana,4114,14.2751095,120.9681988
14-28,Cleveland,4114,14.2783316,120.9736850
15-8,Charlotte,4114,14.2777733,120.9725827
15-12,Charlotte,4114,14.2778178,120.9727672
15-4,Charlotte,4114,14.2777331,120.9723986
15-10,Charlotte,4114,14.2777986,120.9726728
15-14,Charlotte,4114,14.2778391,120.9728579
15-16,Charlotte,4114,14.2778603,120.9729472
15-2,Charlotte,4114,14.2777010,120.9723006
15-20,Charlotte,4114,14.2779015,120.9731225
15-22,Charlotte,4114,14.2779228,120.9732126
15-24,Charlotte,4114,14.2779446,120.9733083
1-4,Alabama,4114,14.2809135,120.9729963
1-7,Alaska,4114,14.2810263,120.9731187
1-5,Alaska,4114,14.2809336,120.9731419
1-2,Arkansas,4114,14.2807887,120.9730258
1-6,Arkansas,4114,14.2810324,120.9730103
1-3,Arkansas,4114,14.2808257,120.9731187
7-9,Colorado,4114,14.2794049,120.9729346
7-17,Colorado,4114,14.2794663,120.9731445
7-18,Colorado,4114,14.2794815,120.9732158
7-19,Colorado,4114,14.2795071,120.9732937
7-15,Colorado,4114,14.2794507,120.9730737
7-7,Colorado,4114,14.2793942,120.9728621
7-5,Colorado,4114,14.2793742,120.9727908
7-3,Colorado,4114,14.2793532,120.9727202
7-14,Boston,4114,14.2795741,120.9731359
8-21,California,4114,14.2791495,120.9733244
8-19,California,4114,14.2791313,120.9732519
8-23,California,4114,14.2791664,120.9733988
8-15,California,4114,14.2790961,120.9731053
8-11,California,4114,14.2790833,120.9730301
8-17,California,4114,14.2791130,120.9731797
8-3,California,4114,14.2790187,120.9727430
8-7,California,4114,14.2790505,120.9728861
8-9,California,4114,14.2790770,120.9729608
8-5,California,4114,14.2790458,120.9728152
8-22,Colorado,4114,14.2792784,120.9733929
8-12,Colorado,4114,14.2791983,120.9730265
8-14,Colorado,4114,14.2792126,120.9730941
8-20,Colorado,4114,14.2792740,120.9733130
8-18,Colorado,4114,14.2792555,120.9732370
8-16,Colorado,4114,14.2792379,120.9731613
8-4,Colorado,4114,14.2791255,120.9727352
8-6,Colorado,4114,14.2791428,120.9728063
8-2,Colorado,4114,14.2791060,120.9726420
67-10,New Mexico,4114,14.2774822,120.9691684
67-12,New Mexico,4114,14.2775728,120.9691423
67-1,Washington Avenue,4114,14.2771274,120.9693904
69-11,New Jersey,4114,14.2775221,120.9687297
63-3,New Orleans,4114,14.2781269,120.9685376
63-3,New Orleans,4114,14.2780973,120.9686606
64-3,5th Avenue,4114,14.2780507,120.9689643
64-7,5th Avenue,4114,14.2780192,120.9691773
64-5,5th Avenue,4114,14.2780402,120.9690660
71-14,New Orleans,4114,14.2772415,120.9682671
67-15,Nevada,4114,14.2776101,120.9690310
67-11,Nevada,4114,14.2775163,120.9690585
19-7,Washington Avenue,4114,14.2777182,120.9706489
65-3,New Mexico Street,4114,14.2775524,120.9693597
19-12,Charlotte,4114,14.2778369,120.9707720
19-16,Charlotte,4114,14.2778300,120.9709650
19-26,Charlotte,4114,14.2777565,120.9713973
19-10,Charlotte,4114,14.2778849,120.9706929
19-14,Charlotte,4114,14.2778537,120.9708701
19-18,Charlotte,4114,14.2778280,120.9710436
19-22,Charlotte,4114,14.2777991,120.9712334
19-24,Charlotte,4114,14.2777838,120.9713254
19-28,Charlotte,4114,14.2777375,120.9714875
19-30,Charlotte,4114,14.2777443,120.9715941
19-34,Charlotte,4114,14.2776944,120.9717682
19-36,Charlotte,4114,14.2777049,120.9718720
19-38,Charlotte,4114,14.2776839,120.9719557
7-2,Boston,4114,14.2794479,120.9726744
7-12,Boston,4114,14.2795598,120.9730644
7-10,Boston,4114,14.2795438,120.9729913
7-6,Boston,4114,14.2795070,120.9728474
7-8,Boston,4114,14.2795269,120.9729214
7-4,Boston,4114,14.2794878,120.9727607
6-2,Atlanta,4114,14.2797672,120.9725238
6-3,Boston,4114,14.2796919,120.9726784
6-17,Boston,4114,14.2798112,120.9731220
5-11,Atlanta,4114,14.2800851,120.9728440
5-8,Arizona,4114,14.2801570,120.9726959
5-12,Arizona,4114,14.2801913,120.9728457
5-17,Atlanta,4114,14.2801225,120.9729900
5-16,Arizona,4114,14.2802254,120.9729799
5-19,Atlanta,4114,14.2801398,120.9730595
5-18,Arizona,4114,14.2802433,120.9730535
5-4,Arizona,4114,14.2801194,120.9725530
5-6,Arizona,4114,14.2801371,120.9726254
5-10,Arizona,4114,14.2801718,120.9727628
5-3,Atlanta,4114,14.2800138,120.9725648
5-5,Atlanta,4114,14.2800294,120.9726411
5-9,Atlanta,4114,14.2800652,120.9727764
5-7,Atlanta,4114,14.2800472,120.9727084
5-15,Atlanta,4114,14.2801087,120.9729221
6-4,Atlanta,4114,14.2797889,120.9726084
6-10,Atlanta,4114,14.2798429,120.9728319
6-12,Atlanta,4114,14.2798613,120.9729019
6-14,Atlanta,4114,14.2798787,120.9729703
6-5,Boston,4114,14.2797156,120.9727581
6-7,Boston,4114,14.2797332,120.9728336
6-9,Boston,4114,14.2797506,120.9729134
6-15,Boston,4114,14.2797876,120.9730498
2-12,Alaska,4114,14.2805910,120.9731399
2-3,Arizona,4114,14.2803854,120.9726903
30-2,Idaho,4114,14.2757895,120.9689779
30-3,Iowa,4114,14.2756892,120.9688913
25-4,Hawaii,4114,14.2762052,120.9697278
32-8,Hawaii,4114,14.2760027,120.9695758
25-6,Hawaii,4114,14.2760343,120.9697820
32-10,Hawaii,4114,14.2759117,120.9695947
31-23,Idaho,4114,14.2750833,120.9694088
32-5,Illinois,4114,14.2760028,120.9694463
32-7,Illinois,4114,14.2759132,120.9694788
34-3,Golden State,4114,14.2757648,120.9702080
33-2,Golden State,4114,14.2757933,120.9699605
34-4,Georgia,4114,14.2757778,120.9703287
32-18,Hawaii,4114,14.2755565,120.9697102
32-12,Hawaii,4114,14.2758281,120.9696251
32-16,Hawaii,4114,14.2756516,120.9696741
32-17,Illinois,4114,14.2755587,120.9695896
31-6,Illinois,4114,14.2758697,120.9692815
31-17,Idaho,4114,14.2753510,120.9693195
30-21,Iowa,4114,14.2749972,120.9691058
31-11,Idaho,4114,14.2755165,120.9692752
30-16,Idaho,4114,14.2751720,120.9691713
31-5,Idaho,4114,14.2757807,120.9691828
31-32,Illinois,4114,14.2747533,120.9696237
30-12,Idaho,4114,14.2753472,120.9691196
31-19,Idaho,4114,14.2752655,120.9693536
31-20,Illinois,4114,14.2752652,120.9694697
33-17,Hawaii,4114,14.2751684,120.9700641
33-20,Hawaii,4114,14.2750067,120.9701073
33-15,Hawaii,4114,14.2752662,120.9700232
33-9,Hawaii,4114,14.2754352,120.9699732
36-15,Michigan,4114,14.2746244,120.9700978
37-21,Kansas,4114,14.2746277,120.9705083
33-3,Hawaii,4114,14.2756965,120.9699041
37-10,Kentucky,4114,14.2741991,120.9702832
28-6,Indiana,4114,14.2752633,120.9684834
30-6,Idaho,4114,14.2756005,120.9690374
31-4,Illinois,4114,14.2759583,120.9692562
32-2,Hawaii,4114,14.2762565,120.9694970
31-15,Idaho,4114,14.2754380,120.9692955
25-5,Hawaii,4114,14.2761166,120.9697552
31-10,Illinois,4114,14.2756953,120.9693343
32-4,Hawaii,4114,14.2761951,120.9695019
32-3,Illinois,4114,14.2761039,120.9694143
31-25,Idaho,4114,14.2749943,120.9694361
31-27,Idaho,4114,14.2749135,120.9694609
34-10,Georgia,4114,14.2755209,120.9704073
38-9,Kentucky,4114,14.2733203,120.9693595
36-27,Michigan,4114,14.2750738,120.9704821
34-12,Georgia,4114,14.2754214,120.9704362
32-14,Hawaii,4114,14.2757418,120.9696455
32-31,Illinois,4114,14.2749586,120.9697726
34-16,Golden State,4114,14.2752492,120.9703621
38-20,Kentucky,4114,14.2737521,120.9702143
30-19,Iowa,4114,14.2750828,120.9690772
31-3,Idaho,4114,14.2758673,120.9691565
31-8,Illinois,4114,14.2757839,120.9693072
31-12,Illinois,4114,14.2756119,120.9693643
31-9,Idaho,4114,14.2756021,120.9692419
31-7,Idaho,4114,14.2756912,120.9692155
31-14,Illinois,4114,14.2755275,120.9693920
30-8,Idaho,4114,14.2755158,120.9690675
30-14,Idaho,4114,14.2752438,120.9691341
31-18,Illinois,4114,14.2753536,120.9694517
36-21,Michigan,4114,14.2748407,120.9702697
36-19,Michigan,4114,14.2747673,120.9702137
36-17,Michigan,4114,14.2746991,120.9701537
36-32,Kansas,4114,14.2751090,120.9707697
33-11,Hawaii,4114,14.2753364,120.9700026
33-7,Hawaii,4114,14.2755253,120.9699456
30-38,Idaho,4114,14.2741907,120.9694640
33-5,Hawaii,4114,14.2756106,120.9699228
17-2,Delaware,4114,14.2772526,120.9709822
17-3,Delaware,4114,14.2771481,120.9710090
17-4,Delaware,4114,14.2770389,120.9710359
17-5,Delaware,4114,14.2769329,120.9710771
27-2,Louisiana,4114,14.2752970,120.9681410
28-5,Louisiana,4114,14.2752642,120.9683726
28-17,Louisiana,4114,14.2748373,120.9685033
27-12,Louisiana,4114,14.2748489,120.9682792
27-16,Louisiana,4114,14.2746822,120.9683306
27-8,Louisiana,4114,14.2750243,120.9682251
28-7,Louisiana,4114,14.2751753,120.9683981
28-9,Louisiana,4114,14.2750906,120.9684259
49-32,Michigan,4114,14.2738806,120.9681645
27-28,Louisiana,4114,14.2741673,120.9684804
27-30,Louisiana,4114,14.2740671,120.9685113
27-26,Louisiana,4114,14.2742595,120.9684527
27-22,Louisiana,4114,14.2744128,120.9684006
27-20,Louisiana,4114,14.2744951,120.9683793
14-4,Cleveland,4114,14.2780744,120.9725741
14-2,Cleveland,4114,14.2780476,120.9724687
14-8,Cleveland,4114,14.2781215,120.9727707
14-16,Cleveland,4114,14.2782071,120.9731400
14-20,Cleveland,4114,14.2782470,120.9733145
14-22,Cleveland,4114,14.2782679,120.9734090
14-26,Cleveland,4114,14.2783110,120.9735931
14-30,Cleveland,4114,14.2783540,120.9737734
14-18,Cleveland,4114,14.2782268,120.9732288
14-12,Cleveland,4114,14.2781649,120.9729580
14-10,Cleveland,4114,14.2781413,120.9728650
14-3,Charlotte,4114,14.2779407,120.9724643
14-5,Charlotte,4114,14.2779635,120.9725591
14-7,Charlotte,4114,14.2779857,120.9726511
14-9,Charlotte,4114,14.2780110,120.9727574
14-11,Charlotte,4114,14.2780335,120.9728503
19-33,Washington Avenue,4114,14.2775283,120.9717601
14-33,Charlotte,4114,14.2782524,120.9737726
14-34,Charlotte,4114,14.2782749,120.9738634
14-25,Charlotte,4114,14.2781706,120.9734169
14-21,Charlotte,4114,14.2781253,120.9732352
14-19,Charlotte,4114,14.2781039,120.9731474
14-29,Charlotte,4114,14.2782104,120.9736041
14-23,Charlotte,4114,14.2781468,120.9733298
14-15,Charlotte,4114,14.2780589,120.9729622
14-17,Charlotte,4114,14.2780804,120.9730502
49-20,Madison Avenue,4114,14.2744128,120.9680187
49-21,Maine,4114,14.2744060,120.9678923
49-24,Madison Avenue,4114,14.2742462,120.9680561
27-18,Louisiana,4114,14.2745831,120.9683611
27-24,Louisiana,4114,14.2743392,120.9684364
17-32,Denver,4114,14.2773384,120.9734212
30-11,Iowa,4114,14.2753380,120.9690028
30-7,Iowa,4114,14.2755119,120.9689460
30-5,Iowa,4114,14.2755984,120.9689217
30-9,Iowa,4114,14.2754277,120.9689724
30-15,Iowa,4114,14.2752541,120.9690271
30-17,Iowa,4114,14.2751722,120.9690520
32-29,Illinois,4114,14.2750447,120.9697458
38-42,Kentucky,4114,14.2748432,120.9718123
50-8,Maine,4114,14.2748506,120.9675007
50-24,Maine,4114,14.2741523,120.9677222
50-26,Maine,4114,14.2740669,120.9677472
52-31,Minnesota,4114,14.2736327,120.9670125
45-4,Kansas,4114,14.2733135,120.9671239
45-2,Kansas,4114,14.2733279,120.9672381
46-4,Kansas,4114,14.2734257,120.9675892
28-31,Louisiana,4114,14.2742244,120.9686872
28-35,Louisiana,4114,14.2740614,120.9687428
28-34,Indiana,4114,14.2740648,120.9688569
40-5,Michigan,4114,14.2737965,120.9686803
40-14,Kansas,4114,14.2737895,120.9690507
39-4,Kentucky,4114,14.2733693,120.9687258
39-14,Kentucky,4114,14.2734857,120.9691689
39-12,Kentucky,4114,14.2734625,120.9690784
39-16,Kentucky,4114,14.2735090,120.9692594
39-20,Kentucky,4114,14.2735551,120.9694345
39-10,Kentucky,4114,14.2734363,120.9689766
39-15,Kansas,4114,14.2735990,120.9691665
39-17,Kansas,4114,14.2736216,120.9692603
39-19,Kansas,4114,14.2736444,120.9693444
39-9,Kansas,4114,14.2735504,120.9689763
39-11,Kansas,4114,14.2735720,120.9690675
39-7,Kansas,4114,14.2735301,120.9688941
39-5,Kansas,4114,14.2735085,120.9688028
45-3,Michigan,4114,14.2734162,120.9671271
53-17,Montana,4114,14.2741680,120.9664623
52-1,Florida,4114,14.2749300,120.9666311
54-2,Florida,4114,14.2747500,120.9660317
43-4,Miami,4114,14.2746553,120.9657226
43-3,Miami,4114,14.2747752,120.9656859
56-9,Washington Avenue,4114,14.2751229,120.9662180
56-7,Washington Avenue,4114,14.2751000,120.9661422
56-8,Florida,4114,14.2749803,120.9661679
56-17,Florida,4114,14.2751498,120.9666719
56-16,Florida,4114,14.2751210,120.9665830
56-15,Florida,4114,14.2750942,120.9664947
56-14,Florida,4114,14.2750699,120.9664096
56-10,Florida,4114,14.2750001,120.9662432
56-12,Florida,4114,14.2750248,120.9663240
32-27,Illinois,4114,14.2751291,120.9697204
31-28,Illinois,4114,14.2749263,120.9695744
31-30,Illinois,4114,14.2748399,120.9695994
30-33,Iowa,4114,14.2744695,120.9692782
30-35,Iowa,4114,14.2743863,120.9693006
30-36,Idaho,4114,14.2743035,120.9694365
29-35,Indiana,4114,14.2742139,120.9690175
29-37,Indiana,4114,14.2741265,120.9690467
29-28,Iowa,4114,14.2744878,120.9690480
29-29,Indiana,4114,14.2744758,120.9689332
29-17,Indiana,4114,14.2749946,120.9687761
29-9,Indiana,4114,14.2752569,120.9686905
29-7,Indiana,4114,14.2753474,120.9686650
29-5,Indiana,4114,14.2754350,120.9686350
29-11,Indiana,4114,14.2751675,120.9687186
29-15,Indiana,4114,14.2750835,120.9687429
28-19,Louisiana,4114,14.2747498,120.9685293
53-16,Minnesota,4114,14.2741918,120.9666021
53-1,Florida,4114,14.2748398,120.9663000
56-3,Washington Avenue,4114,14.2750382,120.9659317
47-14,Kentucky,4114,14.2729664,120.9670411
47-18,Kentucky,4114,14.2730045,120.9672254
47-19,Kansas,4114,14.2731261,120.9672203
47-15,Kansas,4114,14.2730781,120.9670418
47-17,Kansas,4114,14.2731038,120.9671321
47-16,Kentucky,4114,14.2729907,120.9671404
47-12,Kentucky,4114,14.2729467,120.9669560
70-1,New Orleans,4114,14.2768654,120.9686248
10-34,Alaska,4114,14.2786728,120.9738320
28-21,Louisiana,4114,14.2746598,120.9685536
28-23,Louisiana,4114,14.2745774,120.9685776
28-27,Louisiana,4114,14.2744125,120.9686272
28-25,Louisiana,4114,14.2744900,120.9686018
28-29,Louisiana,4114,14.2743184,120.9686526
28-33,Louisiana,4114,14.2741382,120.9687210
28-15,Louisiana,4114,14.2749317,120.9684739
28-11,Louisiana,4114,14.2750133,120.9684486
27-10,Louisiana,4114,14.2749471,120.9682442
16-1,Denver,4114,14.2773152,120.9723823
16-3,Denver,4114,14.2773324,120.9724581
16-5,Denver,4114,14.2773542,120.9725510
16-7,Denver,4114,14.2773770,120.9726482
16-9,Denver,4114,14.2773999,120.9727457
16-11,Denver,4114,14.2774193,120.9728285
16-15,Denver,4114,14.2774401,120.9729169
16-17,Denver,4114,14.2774607,120.9730050
16-19,Denver,4114,14.2774815,120.9730931
16-21,Denver,4114,14.2775050,120.9731933
16-27,Denver,4114,14.2775687,120.9734806
16-23,Denver,4114,14.2775301,120.9733004
16-25,Denver,4114,14.2775482,120.9733778
16-35,Denver,4114,14.2776536,120.9738263
16-29,Denver,4114,14.2775891,120.9735519
16-31,Denver,4114,14.2776099,120.9736405
16-33,Denver,4114,14.2776309,120.9737300
16-37,Denver,4114,14.2776730,120.9739092
15-26,Charlotte,4114,14.2779657,120.9734026
15-18,Charlotte,4114,14.2778795,120.9730329
15-30,Charlotte,4114,14.2780024,120.9735726
15-32,Charlotte,4114,14.2780239,120.9736678
15-28,Charlotte,4114,14.2779836,120.9734880
14-27,Charlotte,4114,14.2781888,120.9735017
14-31,Charlotte,4114,14.2782275,120.9736774
14-24,Cleveland,4114,14.2782888,120.9735010
29-8,Iowa,4114,14.2753507,120.9687866
29-27,Indiana,4114,14.2745597,120.9689099
40-7,Michigan,4114,14.2738226,120.9687791
40-9,Michigan,4114,14.2738458,120.9688690
40-11,Michigan,4114,14.2738626,120.9689526
40-21,Michigan,4114,14.2739566,120.9693165
40-17,Michigan,4114,14.2739112,120.9691390
40-19,Michigan,4114,14.2739322,120.9692172
40-23,Michigan,4114,14.2739800,120.9694040
40-25,Michigan,4114,14.2740070,120.9694961
40-28,Kansas,4114,14.2739575,120.9696626
2-7,Arizona,4114,14.2804192,120.9728260
2-5,Arizona,4114,14.2804023,120.9727580
2-9,Arizona,4114,14.2804369,120.9729020
2-15,Arizona,4114,14.2804943,120.9731421
2-10,Arkansas,4114,14.2805743,120.9730501
72-6,Oregon,4114,14.2766222,120.9680953
72-9,Ohio,4114,14.2767971,120.9678899
72-17,Ohio,4114,14.2770568,120.9678081
73-12,Ohio,4114,14.2767373,120.9676879
74-4,Texas Avenue,4114,14.2762863,120.9674347
73-18,Ohio,4114,14.2770001,120.9676049
65-2,5th Avenue,4114,14.2776154,120.9694401
65-3,New Mexico Street,4114,14.2775036,120.9693812
73-5,Texas Avenue,4114,14.2764697,120.9676224
172,Governor's Drive,4114,14.2998031,120.9568658
37-36,Kentucky,4114,14.2749276,120.9712220
77-16,Washington Avenue,4114,14.2758374,120.9675224
38-11,Kentucky,4114,14.2733659,120.9695464
38-12,Kentucky,4114,14.2733835,120.9696381
39-22,Kentucky,4114,14.2735663,120.9695242
39-24,Kentucky,4114,14.2735916,120.9696101
26-21,Washington Avenue,4114,14.2761704,120.9688235
73-22,Ohio,4114,14.2771924,120.9675251
29-19,Indiana,4114,14.2749111,120.9687998
29-21,Indiana,4114,14.2748204,120.9688288
29-23,Indiana,4114,14.2747328,120.9688569
28-12,Indiana,4114,14.2750183,120.9685561
28-14,Indiana,4114,14.2749214,120.9685882
28-16,Indiana,4114,14.2748329,120.9686167
28-18,Indiana,4114,14.2747440,120.9686448
28-20,Indiana,4114,14.2746639,120.9686702
71-21,Oregon,4114,14.2773951,120.9680825
65-6,5th Avenue,4114,14.2775013,120.9695847
30-28,Idaho,4114,14.2746565,120.9693194
30-25,Iowa,4114,14.2748222,120.9691743
30-26,Idaho,4114,14.2747338,120.9692960
30-39,Iowa,4114,14.2742084,120.9693540
30-34,Idaho,4114,14.2743929,120.9694062
30-29,Iowa,4114,14.2746360,120.9692193
30-32,Idaho,4114,14.2744850,120.9693788
30-30,Idaho,4114,14.2745791,120.9693506
30-24,Idaho,4114,14.2748215,120.9692738
30-22,Idaho,4114,14.2749142,120.9692467
30-20,Idaho,4114,14.2750025,120.9692204
30-18,Idaho,4114,14.2750840,120.9691991
30-10,Idaho,4114,14.2754266,120.9690925
30-4,Idaho,4114,14.2756988,120.9690116
29-24,Iowa,4114,14.2746562,120.9689995
29-26,Iowa,4114,14.2745689,120.9690189
29-20,Iowa,4114,14.2748227,120.9689418
29-22,Iowa,4114,14.2747431,120.9689716
29-14,Iowa,4114,14.2750848,120.9688723
29-18,Iowa,4114,14.2749156,120.9689231
29-16,Iowa,4114,14.2750022,120.9688954
29-12,Iowa,4114,14.2751700,120.9688418
29-10,Iowa,4114,14.2752623,120.9688139
29-25,Indiana,4114,14.2746498,120.9688839
29-31,Indiana,4114,14.2743915,120.9689571
33-6,Golden State,4114,14.2756133,120.9700333
32-25,Illinois,4114,14.2752125,120.9696910
20-44,Alabama,4114,14.2806224,120.9725193
31-34,Illinois,4114,14.2746671,120.9696370
31-36,Illinois,4114,14.2745826,120.9696813
31-31,Idaho,4114,14.2747440,120.9695129
31-33,Idaho,4114,14.2746603,120.9695382
31-35,Idaho,4114,14.2745725,120.9695707
31-22,Illinois,4114,14.2751726,120.9694999
34-15,Golden State,4114,14.2753332,120.9703397
30-37,Iowa,4114,14.2743016,120.9693224
36-9,Michigan,4114,14.2744805,120.9699881
36-14,Kansas,4114,14.2745419,120.9701729
36-26,Kansas,4114,14.2749663,120.9705263
37-4,Kentucky,4114,14.2739845,120.9701132
37-1,Kansas,4114,14.2739895,120.9699906
37-3,Kansas,4114,14.2740563,120.9700525
36-11,Michigan,4114,14.2745537,120.9700464
36-16,Kansas,4114,14.2746136,120.9702260
36-5,Michigan,4114,14.2743439,120.9698714
36-3,Michigan,4114,14.2742762,120.9698204
36-8,Kansas,4114,14.2743247,120.9700007
36-12,Kansas,4114,14.2744718,120.9701123
36-10,Kansas,4114,14.2744016,120.9700554
37-38,Kentucky,4114,14.2749529,120.9713373
37-27,Kansas,4114,14.2748686,120.9707346
37-31,Kansas,4114,14.2749641,120.9709387
71-3,Oregon,4114,14.2767013,120.9682853
72-18,Oregon,4114,14.2771512,120.9679284
76-1,Virginia,4114,14.2759553,120.9666599
76-2,Pennsylvania,4114,14.2759617,120.9667650
2-14,Arizona,4114,14.2804754,120.9730533
2-6,Arkansas,4114,14.2805513,120.9728962
2-2,Arkansas,4114,14.2805064,120.9727363
37-22,Kentucky,4114,14.2746160,120.9706329
37-25,Kansas,4114,14.2747877,120.9706417
37-12,Kentucky,4114,14.2742631,120.9703367
37-8,Kentucky,4114,14.2741155,120.9702177
37-6,Kentucky,4114,14.2740496,120.9701668
38-23,Kentucky,4114,14.2739648,120.9703813
38-22,Kentucky,4114,14.2738918,120.9703229
37-15,Kansas,4114,14.2744111,120.9703331
37-9,Kansas,4114,14.2742603,120.9702071
36-4,Kansas,4114,14.2741759,120.9698796
36-6,Kansas,4114,14.2742550,120.9699391
37-32,Kentucky,4114,14.2748669,120.9710289
37-28,Kentucky,4114,14.2748046,120.9708452
37-24,Kentucky,4114,14.2747044,120.9707025
37-20,Kentucky,4114,14.2745502,120.9705796
37-17,Kansas,4114,14.2744865,120.9703966
37-14,Kentucky,4114,14.2743357,120.9703993
37-16,Kentucky,4114,14.2743994,120.9704590
37-18,Kentucky,4114,14.2744709,120.9705197
37-33,Kansas,4114,14.2749928,120.9710343
37-29,Kansas,4114,14.2749226,120.9708278
37-30,Kentucky,4114,14.2748446,120.9709338
36-30,Kansas,4114,14.2750746,120.9706944
36-28,Kansas,4114,14.2750292,120.9706092
32-33,Illinois,4114,14.2748756,120.9697987
37-35,Kansas,4114,14.2750136,120.9711235
38-39,Kentucky,4114,14.2747823,120.9715589
38-36,Kentucky,4114,14.2747237,120.9712784
38-35,Kentucky,4114,14.2747055,120.9711914
38-31,Kentucky,4114,14.2745169,120.9708301
32-35,Illinois,4114,14.2747899,120.9698214
37-23,Kansas,4114,14.2747033,120.9705667
36-22,Kansas,4114,14.2748219,120.9703956
36-18,Kansas,4114,14.2746866,120.9702856
36-20,Kansas,4114,14.2747508,120.9703407
36-24,Kansas,4114,14.2748908,120.9704584
9673,Congressional Road,4115,14.3112726,120.9571965
324,Emilio Aguinaldo Highway,4114,14.3114415,120.9409120
20-6,Charlotte,4114,14.2780233,120.9713797
68-8,Pennsylvania,4114,14.2762114,120.9681287
72-14,Oregon,4114,14.2769820,120.9679818
26-23,Washington Avenue,4114,14.2762565,120.9689106
33-4,Golden State,4114,14.2756981,120.9700129
30-23,Iowa,4114,14.2749080,120.9691338
29-32,Iowa,4114,14.2743058,120.9691057
29-33,Indiana,4114,14.2743094,120.9689845
32-11,Illinois,4114,14.2757314,120.9695376
32-30,Hawaii,4114,14.2750571,120.9698608
32-32,Hawaii,4114,14.2749739,120.9698843
32-36,Hawaii,4114,14.2747971,120.9699366
32-34,Hawaii,4114,14.2748843,120.9699144
32-22,Hawaii,4114,14.2753937,120.9697630
32-28,Hawaii,4114,14.2751286,120.9698380
32-24,Hawaii,4114,14.2753118,120.9697864
32-20,Hawaii,4114,14.2754739,120.9697388
28-28,Indiana,4114,14.2743166,120.9687711
28-22,Indiana,4114,14.2745871,120.9686931
28-26,Indiana,4114,14.2744181,120.9687425
28-24,Indiana,4114,14.2745032,120.9687184
28-30,Indiana,4114,14.2742322,120.9687973
28-32,Indiana,4114,14.2741421,120.9688261
28-10,Indiana,4114,14.2750982,120.9685304
39-18,Kentucky,4114,14.2735280,120.9693458
39-21,Kansas,4114,14.2736553,120.9694303
39-23,Kansas,4114,14.2736768,120.9695296
71-10,New Orleans,4114,14.2770715,120.9683175
37-37,Kansas,4114,14.2750318,120.9712039
48-2,Kentucky,4114,14.2730989,120.9675911
53-26,Minnesota,4114,14.2737559,120.9667415
53-27,Montana,4114,14.2737497,120.9665935
18-11,Washington Avenue,4114,14.2772892,120.9716618
20-17,Alabama,4114,14.2780875,120.9722126
72-16,Oregon,4114,14.2770655,120.9679554
76-8,Vermont,4114,14.2762644,120.9667178
2-4,Arkansas,4114,14.2805312,120.9728204
64-2,Nashville,4114,14.2781864,120.9688738
64-9,5th Avenue,4114,14.2779837,120.9692615
67-19,5th Avenue,4114,14.2778507,120.9689670
61-10,Nashville,4114,14.2783924,120.9688429
64-12,Nashville,4114,14.2781213,120.9693240
64-16,Nashville,4114,14.2780769,120.9695169
64-1,5th Avenue,4114,14.2780639,120.9688718
26-29,Washington Avenue,4114,14.2764735,120.9691590
68-29,Washington Avenue,4114,14.2767533,120.9690802
26-17,Washington Avenue,4114,14.2760576,120.9686567
53-28,Minnesota,4114,14.2736721,120.9667469
53-7,Montana,4114,14.2745261,120.9663460
53-9,Montana,4114,14.2744409,120.9663739
53-11,Montana,4114,14.2743517,120.9664085
53-15,Montana,4114,14.2742675,120.9664291
53-8,Minnesota,4114,14.2745371,120.9665021
53-10,Minnesota,4114,14.2744461,120.9665265
53-12,Minnesota,4114,14.2743660,120.9665560
8-1,California,4114,14.2789840,120.9726577
71-17,Oregon,4114,14.2772243,120.9681174
71-19,Oregon,4114,14.2773101,120.9680959
71-15,Oregon,4114,14.2771477,120.9681470
71-7,Oregon,4114,14.2768813,120.9682247
71-9,Oregon,4114,14.2769754,120.9681979
67-17,Nevada,4114,14.2777110,120.9689986
69-9,New Jersey,4114,14.2774448,120.9687540
69-7,New Jersey,4114,14.2773572,120.9687815
54-8,Montana,4114,14.2744744,120.9661316
53-21,Montana,4114,14.2739932,120.9665148
54-25,Miami,4114,14.2737747,120.9662340
54-23,Miami,4114,14.2738565,120.9662094
54-21,Miami,4114,14.2739448,120.9661865
54-20,Montana,4114,14.2739481,120.9663098
54-16,Montana,4114,14.2741183,120.9662604
54-12,Montana,4114,14.2742890,120.9662086
54-14,Montana,4114,14.2741983,120.9662359
54-17,Miami,4114,14.2741039,120.9661145
54-15,Miami,4114,14.2741909,120.9660850
54-11,Miami,4114,14.2742798,120.9660587
34-6,Georgia,4114,14.2756917,120.9703552
34-8,Georgia,4114,14.2756024,120.9703830
34-11,Golden State,4114,14.2754214,120.9703133
34-9,Golden State,4114,14.2755103,120.9702877
34-7,Golden State,4114,14.2755861,120.9702644
34-5,Golden State,4114,14.2756744,120.9702377
30-27,Iowa,4114,14.2747235,120.9691940
30-31,Iowa,4114,14.2745527,120.9692437
53-20,Minnesota,4114,14.2740115,120.9666597
54-18,Montana,4114,14.2740311,120.9662739
53-31,Montana,4114,14.2735573,120.9666480
54-26,Montana,4114,14.2736747,120.9663861
52-24,Memphis,4114,14.2739120,120.9670412
52-22,Memphis,4114,14.2740164,120.9670123
52-10,Memphis,4114,14.2745227,120.9668848
1923,Bulgaria,4114,14.3076188,120.9331739
73-11,Texas Avenue,4114,14.2767356,120.9675391
11-7,Alaska,4114,14.2787375,120.9740624
123,Narciso Guevarra,4114,14.3305900,120.9343841
52-21,Minnesota,4114,14.2740902,120.9668683
52-19,Minnesota,4114,14.2741656,120.9668255
53-19,Montana,4114,14.2740739,120.9664880
53-22,Minnesota,4114,14.2739439,120.9666838
53-14,Minnesota,4114,14.2742716,120.9665791
53-24,Minnesota,4114,14.2738430,120.9667041
53-18,Minnesota,4114,14.2740960,120.9666288
54-10,Montana,4114,14.2743787,120.9661843
53-5,Montana,4114,14.2746090,120.9663264
54-6,Montana,4114,14.2745536,120.9661268
53-6,Minnesota,4114,14.2746259,120.9664762
52-15,Minnesota,4114,14.2743403,120.9667733
52-17,Minnesota,4114,14.2742543,120.9668228
52-11,Minnesota,4114,14.2744302,120.9667463
52-14,Memphis,4114,14.2743420,120.9669389
52-12,Memphis,4114,14.2744361,120.9669107
52-16,Memphis,4114,14.2742577,120.9669381
52-6,Memphis,4114,14.2747084,120.9668293
52-8,Memphis,4114,14.2746126,120.9668579
51-5,Memphis,4114,14.2748270,120.9670034
51-4,Maryland,4114,14.2749303,120.9671293
51-3,Memphis,4114,14.2749265,120.9669731
50-10,Maine,4114,14.2747568,120.9675467
50-4,Maine,4114,14.2750217,120.9674628
50-3,Maryland,4114,14.2750107,120.9673186
55-11,Washington Avenue,4114,14.2755158,120.9674243
26-2,Florida,4114,14.2755593,120.9680020
53-23,Montana,4114,14.2739101,120.9665416
53-25,Montana,4114,14.2738399,120.9665832
54-19,Miami,4114,14.2740321,120.9661549
50-22,Maine,4114,14.2742395,120.9677091
50-18,Maine,4114,14.2744046,120.9676587
50-14,Maine,4114,14.2745871,120.9676011
50-12,Maine,4114,14.2746712,120.9675747
50-31,Maryland,4114,14.2738952,120.9676822
50-29,Maryland,4114,14.2739822,120.9676561
50-27,Maryland,4114,14.2740667,120.9676278
51-28,Maryland,4114,14.2738850,120.9674376
51-30,Maryland,4114,14.2738007,120.9674653
51-27,Memphis,4114,14.2739636,120.9672791
51-21,Memphis,4114,14.2742339,120.9672051
51-19,Memphis,4114,14.2743154,120.9671808
51-23,Memphis,4114,14.2741441,120.9672325
51-29,Memphis,4114,14.2738768,120.9673148
52-29,Minnesota,4114,14.2737321,120.9669656
54-30,Montana,4114,14.2735082,120.9664478
54-28,Montana,4114,14.2735990,120.9663984
54-24,Montana,4114,14.2737630,120.9663492
54-33,Miami,4114,14.2734075,120.9663314
54-31,Miami,4114,14.2734945,120.9663077
54-29,Miami,4114,14.2735784,120.9662839
45-15,Kansas,4114,14.2731719,120.9665926
45-14,Kansas,4114,14.2731966,120.9666811
45-6,Kansas,4114,14.2732896,120.9670326
45-9,Michigan,4114,14.2733476,120.9668549
45-11,Michigan,4114,14.2733244,120.9667628
52-7,Minnesota,4114,14.2746077,120.9666932
51-22,Maryland,4114,14.2741507,120.9673686
51-20,Maryland,4114,14.2742348,120.9673416
51-18,Maryland,4114,14.2743253,120.9673179
51-16,Maryland,4114,14.2744096,120.9672909
51-12,Maryland,4114,14.2745880,120.9672316
51-32,Maryland,4114,14.2737250,120.9674998
51-33,Memphis,4114,14.2736957,120.9673701
47-20,Kentucky,4114,14.2730302,120.9673188
48-4,Kentucky,4114,14.2731164,120.9676619
48-15,Kansas,4114,14.2733426,120.9681183
48-11,Kansas,4114,14.2733221,120.9680269
48-7,Kansas,4114,14.2732769,120.9678454
41-7,Kentucky,4114,14.2727788,120.9671535
41-22,Kentucky,4114,14.2730770,120.9684132
47-2,Kentucky,4114,14.2728320,120.9665062
47-4,Kentucky,4114,14.2728524,120.9665887
47-10,Kentucky,4114,14.2729223,120.9668621
47-6,Kentucky,4114,14.2728787,120.9666918
47-8,Kentucky,4114,14.2729028,120.9667776
47-11,Kansas,4114,14.2730576,120.9669583
47-9,Kansas,4114,14.2730367,120.9668655
47-7,Kansas,4114,14.2730134,120.9667716
47-5,Kansas,4114,14.2729944,120.9666884
51-9,Memphis,4114,14.2746498,120.9670574
51-11,Memphis,4114,14.2745682,120.9670823
51-15,Memphis,4114,14.2744897,120.9671063
55-5,Washington Avenue,4114,14.2754185,120.9671123
55-4,Florida,4114,14.2752407,120.9669969
49-16,Madison Avenue,4114,14.2745849,120.9679661
49-10,Madison Avenue,4114,14.2748319,120.9678772
49-3,Maine,4114,14.2751065,120.9676649
49-17,Maine,4114,14.2745693,120.9678286
50-23,Maryland,4114,14.2742259,120.9675649
50-5,Maryland,4114,14.2749226,120.9673457
50-19,Maryland,4114,14.2744056,120.9675150
50-21,Maryland,4114,14.2743143,120.9675395
55-17,Washington Avenue,4114,14.2755573,120.9676116
68-31,Washington Avenue,4114,14.2768313,120.9691409
72-11,Ohio,4114,14.2768842,120.9678626
72-15,Ohio,4114,14.2769681,120.9678360
61-17,Nashville,4114,14.2783144,120.9693899
71-12,New Orleans,4114,14.2771553,120.9682925
73-21,Texas Avenue,4114,14.2770806,120.9674310
67-14,New Mexico,4114,14.2776664,120.9691154
67-18,5th Avenue,4114,14.2778306,120.9690593
67-9,Nevada,4114,14.2774376,120.9690854
69-15,New Jersey,4114,14.2776046,120.9687038
73-17,Texas Avenue,4114,14.2769076,120.9674840
39-29,Kansas,4114,14.2738035,120.9698233
39-27,Kansas,4114,14.2737451,120.9697201
39-30,Kentucky,4114,14.2737386,120.9698890
39-26,Kentucky,4114,14.2736296,120.9697039
39-28,Kentucky,4114,14.2736739,120.9697915
39-25,Kansas,4114,14.2737064,120.9696180
75-2,Pennsylvania,4114,14.2760638,120.9671082
302,Flamingo Street,4114,14.2937663,120.9457651
501,Canary Street,4114,14.2933455,120.9459390
502,Flowerpecker Street,4114,14.2932696,120.9459869
B57 L12,Brgy Sta. Maria DBB-J,4115,14.3231207,120.9559426
Block 14 Lot 18,Iris Street,4023,14.3458515,121.0068205
43-18,Miami,4114,14.2735389,120.9660506
420,Bluegrass,4023,14.3478901,121.0097150
71-22,Oregon,4114,14.2774742,120.9680551
28-4,Indiana,4114,14.2753488,120.9684562
76-17,Virginia,4114,14.2766735,120.9664327
B85 L35 Mabuhay Homes 2000,Mabuhay Homes Avenue South,4114,14.3406540,120.9789933
20-49,Alabama,4114,14.2811277,120.9727689
55-9,Washington Avenue,4114,14.2754837,120.9673175
9-32,Alaska,4114,14.2790092,120.9737596
33-19,Hawaii,4114,14.2750930,120.9700718
33-14,Golden State,4114,14.2752628,120.9701426
33-12,Golden State,4114,14.2753508,120.9701183
33-10,Golden State,4114,14.2754415,120.9700901
32-26,Hawaii,4114,14.2752293,120.9698078
68-11,Washington Avenue,4114,14.2761888,120.9683848
20-23,Alabama,4114,14.2786068,120.9723962
40-1,Michigan,4114,14.2737427,120.9684813
63-6,New Orleans,4114,14.2781932,120.9686298
64-17,Nebraska,4114,14.2778563,120.9695296
77-3,Pennsylvania,4114,14.2757784,120.9668859
77-14,Washington Avenue,4114,14.2757804,120.9673890
77-7,Pennsylvania,4114,14.2758389,120.9670834
77-9,Pennsylvania,4114,14.2758688,120.9671809
77-11,Pennsylvania,4114,14.2759002,120.9672840
16-38,Washington Avenue,4114,14.2778057,120.9740333
72-19,Ohio,4114,14.2771387,120.9677822
72-12,Oregon,4114,14.2768958,120.9680090
46-8,Kansas,4114,14.2734592,120.9677604
46-12,Kansas,4114,14.2735092,120.9679403
36-29,Michigan,4114,14.2751278,120.9705555
36-25,Michigan,4114,14.2749981,120.9704095
36-23,Michigan,4114,14.2749089,120.9703305
37-11,Kansas,4114,14.2743422,120.9702793
37-19,Kansas,4114,14.2745560,120.9704517
31-23,Idaho,4114,14.2751771,120.9693781
31-29,Idaho,4114,14.2748296,120.9694855
31-16,Illinois,4114,14.2754363,120.9694205
3-5,Alaska,4114,14.2793883,120.9737579
68-28,Pennsylvania,4114,14.2768434,120.9689777
7-11,Colorado,4114,14.2794249,120.9730138
Block 8A,Ania Road,4023,14.3458039,121.0078705
68-22,Pennsylvania,4114,14.2766334,120.9687473
51-24,Maryland,4114,14.2740624,120.9673971
68-24,Pennsylvania,4114,14.2766983,120.9688297
68-4,Pennsylvania,4114,14.2761054,120.9679442
68-6,Pennsylvania,4114,14.2761653,120.9680373
74-10,Texas Avenue,4114,14.2765890,120.9673396
60A-2,5th Avenue,4114,14.2767802,120.9662072
77-2,Washington Avenue,4114,14.2755930,120.9667795
20-10,Charlotte,4114,14.2779474,120.9717301
53-29,Montana,4114,14.2736574,120.9666184
54-4,Montana,4114,14.2746450,120.9661002
49-26,Madison Avenue,4114,14.2741519,120.9680984
49-22,Madison Avenue,4114,14.2743203,120.9680470
49-4,Madison Avenue,4114,14.2751120,120.9678051
52-27,Minnesota,4114,14.2738252,120.9669378
52-4,Memphis,4114,14.2748148,120.9667975
53-30,Minnesota,4114,14.2735462,120.9668139
27-14,Louisiana,4114,14.2747635,120.9683055
75-3,Vermont,4114,14.2761987,120.9669771
37-7,Kansas,4114,14.2741954,120.9701596
37-5,Kansas,4114,14.2741234,120.9701058
37-2,Kentucky,4114,14.2738933,120.9700519
46-2,Kansas,4114,14.2733909,120.9674921
47-3,Kansas,4114,14.2729717,120.9665953
35-7,Glendale,4114,14.2750266,120.9716397
20-7,Charlotte,4114,14.2779904,120.9714776
26-26,Florida,4114,14.2762826,120.9691460
33-1,Hawaii,4114,14.2757791,120.9698661
33-18,Golden State,4114,14.2750058,120.9701803
28-2,Indiana,4114,14.2754730,120.9684094
52-3,Washington Avenue,4114,14.2748189,120.9666301
47-21,Kansas,4114,14.2731436,120.9672906
68-12,Pennsylvania,4114,14.2763070,120.9682865
68-18,Pennsylvania,4114,14.2765076,120.9685802
52-5,Washington Avenue,4114,14.2747081,120.9666632
55-6,Florida,4114,14.2752761,120.9671151
40-2,Madison Avenue,4114,14.2736849,120.9684888
72-4,Oregon,4114,14.2765362,120.9681223
77-4,Washington Avenue,4114,14.2756491,120.9669132
61-18,Nashville,4114,14.2783024,120.9694832
67-16,5th Avenue,4114,14.2777861,120.9691399
6-17,Alaska,4114,14.2798442,120.9731587
50-7,Maryland,4114,14.2748368,120.9673722
50-6,Maine,4114,14.2749353,120.9674892
49-19,Maine,4114,14.2744825,120.9678550
49-15,Maine,4114,14.2746404,120.9678167
49-11,Maine,4114,14.2747259,120.9677808
49-7,Maine,4114,14.2749073,120.9677485
75-14,Utah,4114,14.2767024,120.9669407
51-17,Memphis,4114,14.2743893,120.9671369
45-17,Kansas,4114,14.2731277,120.9664256
52-9,Minnesota,4114,14.2745143,120.9667212
52-25,Minnesota,4114,14.2739070,120.9669133
17-31,Denver,4114,14.2773178,120.9733347
52-2,Memphis,4114,14.2749398,120.9667310
17-18,Denver,4114,14.2770295,120.9720956
54-27,Miami,4114,14.2736734,120.9662554
54-7,Miami,4114,14.2744581,120.9660052
54-5,Miami,4114,14.2745470,120.9659786
Blk 11 Lot 36 Villa Elena Subdivision Phase 1,Langkaan Road,4114,14.2900439,120.9378800
60A-21,5th Avenue,4114,14.2775742,120.9677270
77-8,Washington Avenue,4114,14.2757144,120.9670987
14-14,Cleveland,4114,14.2781742,120.9730412
1-111,Ayala Street,4114,14.2983227,120.9539705
17-21,Denver,4114,14.2770922,120.9723729
50-17,Maryland,4114,14.2744896,120.9674892
Blk 37 Lot 11,Saint Alphonsus Street,4114,14.3282500,120.9649340
54-22,Montana,4114,14.2738535,120.9663383
45-5,Michigan,4114,14.2733935,120.9670349
54-32,Miami,4114,14.2734267,120.9664712
1-1,Arkansas,4114,14.2807895,120.9729263
74-19,5th Avenue,4114,14.2769927,120.9670851
68-20,Pennsylvania,4114,14.2765705,120.9686665
68-25,Washington Avenue,4114,14.2766017,120.9689176
74-16,Texas Avenue,4114,14.2769117,120.9672380
74-18,Texas Avenue,4114,14.2769948,120.9672122
52-30,Memphis,4114,14.2736597,120.9671356
53-4,Minnesota,4114,14.2747038,120.9664537
26-15,Washington Avenue,4114,14.2759868,120.9685565
1-41,Emilio Aguinaldo Highway,4114,14.3388023,120.9373051
Block 9 Lot 5 Villa Elena Phase 2,VIlla Elena Road,4114,14.2908108,120.9389670
24-28,Paliparan Road,4114,14.3451084,120.9819442
24-28,Paliparan Road,4114,14.3450832,120.9819485
24-28,Paliparan Road,4114,14.3450618,120.9819519
24-28,Paliparan Road,4114,14.3450371,120.9819558
24-28,Paliparan Road,4114,14.3451371,120.9819393
24-28,Paliparan Road,4114,14.3451697,120.9819337
24-28,Paliparan Road,4114,14.3452045,120.9819280
24-28,Paliparan Road,4114,14.3450625,120.9819555
24-28,Paliparan Road,4114,14.3451378,120.9819428
24-28,Paliparan Road,4114,14.3451703,120.9819375
24-28,Paliparan Road,4114,14.3450377,120.9819593
77-12,Washington Avenue,4114,14.2757479,120.9672829
77-10,Washington Avenue,4114,14.2757180,120.9671859
68-21,Washington Avenue,4114,14.2764624,120.9687506
26-19,Washington Avenue,4114,14.2761118,120.9687363
68-27,Washington Avenue,4114,14.2766795,120.9690030
74-3,Utah,4114,14.2762839,120.9673087
21-22,Emilio Aguinaldo Highway,4114,14.2922585,120.9581135
26-18,Florida,4114,14.2760010,120.9687795
68-19,Washington Avenue,4114,14.2763966,120.9686610
74-17,Utah,4114,14.2768750,120.9671142
75-1,Pennsylvania,4114,14.2760793,120.9670117
77-5,Pennsylvania,4114,14.2758082,120.9669829
74-14,Texas Avenue,4114,14.2768002,120.9672732
68-14,Pennsylvania,4114,14.2763785,120.9684066
68-26,Pennsylvania,4114,14.2767605,120.9689154
17-26,Denver,4114,14.2772267,120.9728945
17-20,Denver,4114,14.2770743,120.9722972
76-3,Virginia,4114,14.2760693,120.9666354
75-5,Vermont,4114,14.2763060,120.9669409
75-7,Vermont,4114,14.2764030,120.9669093
75-15,Vermont,4114,14.2767106,120.9668093
75-17,Vermont,4114,14.2768055,120.9667784
51-7,Memphis,4114,14.2747369,120.9670310
50-16,Maine,4114,14.2744970,120.9676128
50-11,Maryland,4114,14.2746580,120.9674274
50-9,Maryland,4114,14.2747537,120.9673978
74-15,Utah,4114,14.2767635,120.9671492
74-9,Utah,4114,14.2765523,120.9672157
15-38,Alaska,4114,14.2780777,120.9739585
43-9,Miami,4114,14.2742159,120.9658326
74-6,Texas Avenue,4114,14.2763762,120.9674065
75-12,Utah,4114,14.2765992,120.9669745
75-10,Utah,4114,14.2764972,120.9670078
75-8,Utah,4114,14.2763936,120.9670416
75-6,Utah,4114,14.2762912,120.9670751
76-15,Virginia,4114,14.2765881,120.9664611
76-11,Virginia,4114,14.2764927,120.9664926
54-9,Miami,4114,14.2743689,120.9660321
54-3,Miami,4114,14.2746294,120.9659537
59A-2,Virginia,4114,14.2756510,120.9665346
KM 36,"Governor Juanito R. Remulla, Sr.",4114,14.2972668,120.9654620
7001,Emilio Aguinaldo Highway,4114,14.3562688,120.9353530
29-2,Iowa,4114,14.2756674,120.9686823
17-1,Washington Avenue,4114,14.2773988,120.9709375
60A-27,New Orleans,4114,14.2781300,120.9678195
10-14,Chicago,4114,14.2785161,120.9730496
3B-1,Alaska,4114,14.2803981,120.9733865
3-4,Alaska,4114,14.2792981,120.9738701
3-3,Alaska,4114,14.2792011,120.9739526
19-1,Washington Avenue,4114,14.2776959,120.9703222
22-1,Washington Avenue,4114,14.2775951,120.9700359
20-46,Alabama,4114,14.2807862,120.9726227
20-38,Alabama,4114,14.2800213,120.9721597
38,Bacoor-Dasmariñas National Road,4114,14.3588874,120.9820998
20-19,Alabama,4114,14.2782618,120.9723063
65-8,5th Avenue,4114,14.2774314,120.9696569
65-3,New Mexico Street,4114,14.2775351,120.9693622
8-24,Alaska,4114,14.2793049,120.9734912
20-22,Alabama,4114,14.2785212,120.9723946
20-18,Alabama,4114,14.2781754,120.9722647
20-16,Alabama,4114,14.2780110,120.9721856
20-15,Alabama,4114,14.2779058,120.9721505
3A-5,Alaska,4114,14.2808441,120.9734001
22-4,Dallas,4114,14.2778797,120.9701395
22-2,Dallas,4114,14.2776914,120.9700751
20-21,Alabama,4114,14.2784178,120.9723793
22-3,Charlotte,4114,14.2781465,120.9704471
20-32,Alabama,4114,14.2794766,120.9724432
20-45,Alabama,4114,14.2807095,120.9725572
3-2,Alaska,4114,14.2790588,120.9739750
11-5,Alaska,4114,14.2785238,120.9740959
17-8/9,Denver,4114,14.2768945,120.9714819
69-2,Pennsylvania,4114,14.2771246,120.9689810
65-4,5th Avenue,4114,14.2775573,120.9695095
63-5,New Orleans,4114,14.2782176,120.9685003
26-32,Florida,4114,14.2765284,120.9693985
19-40,Charlotte,4114,14.2776785,120.9720704
19-5,Washington Avenue,4114,14.2777271,120.9705582
7-16,Alaska,4114,14.2795946,120.9732336
18-1,Washington Avenue,4114,14.2773641,120.9711955
19-20,Charlotte,4114,14.2777902,120.9711123
19-21,Washington Avenue,4114,14.2776210,120.9711870
19-19,Washington Avenue,4114,14.2776375,120.9710921
10-28,Chicago,4114,14.2786350,120.9735530
7-1,Colorado,4114,14.2793345,120.9726506
19-39,Washington Avenue,4114,14.2775672,120.9720803
19-25,Washington Avenue,4114,14.2775894,120.9713684
60A-15,5th Avenue,4114,14.2773004,120.9672068
69-3,New Jersey,4114,14.2771387,120.9688438
69-1,New Jersey,4114,14.2770338,120.9688722
14-1,Charlotte,4114,14.2779286,120.9723753
10-1,Cleveland,4114,14.2782763,120.9725481
14-6,Cleveland,4114,14.2780990,120.9726466
16-39,Denver,4114,14.2777000,120.9740355
26-3,Washington Avenue,4114,14.2757268,120.9680501
2-1,Arizona,4114,14.2803567,120.9725866
20-48,Alabama,4114,14.2810349,120.9727515
20-47,Alabama,4114,14.2809009,120.9726971
48-19,Kansas,4114,14.2733902,120.9683241
60A-1,5th Avenue,4114,14.2767433,120.9661385
38-21,Kentucky,4114,14.2738102,120.9702578
43-22,Miami,4114,14.2731980,120.9661637
38-10,Kentucky,4114,14.2733393,120.9694414
40-15,Michigan,4114,14.2738901,120.9690337
35-3,Glendale,4114,14.2752314,120.9712927
38-41,Kentucky,4114,14.2748209,120.9717205
38-40,Kentucky,4114,14.2748011,120.9716283
26-36,Florida,4114,14.2767155,120.9695576
26-34,Florida,4114,14.2766174,120.9694813
46-5,Michigan,4114,14.2735382,120.9676539
41-22,Madison Avenue,4114,14.2730831,120.9684107
45-7,Michigan,4114,14.2733654,120.9669313
20-8,Charlotte,4114,14.2779714,120.9716116
32-1,Illinois,4114,14.2762227,120.9693925
32-6,Hawaii,4114,14.2761128,120.9695335
34-14,Georgia,4114,14.2753145,120.9704562
34-1,Golden State,4114,14.2758802,120.9701782
36-31,Kansas,4114,14.2751643,120.9706709
36-2,Kansas,4114,14.2741210,120.9698203
36-1,Michigan,4114,14.2741778,120.9697393
36-7,Michigan,4114,14.2744069,120.9699169
15-6,Charlotte,4114,14.2777429,120.9724793
26-24,Florida,4114,14.2762173,120.9690676
26-27,Washington Avenue,4114,14.2763813,120.9690652
33-16,Golden State,4114,14.2751939,120.9701675
67-5,Nevada,4114,14.2772479,120.9692251
67-2,New Mexico,4114,14.2772077,120.9694408
68-30,Pennsylvania,4114,14.2769086,120.9690414
29-1,Iowa,4114,14.2756223,120.9685875
62-2,New Jersey,4114,14.2779166,120.9683887
76-14,Vermont,4114,14.2766063,120.9666012
73-2,Ohio,4114,14.2762926,120.9678134
73-7,Texas Avenue,4114,14.2765438,120.9676080
69-18,New Jersey,4114,14.2777917,120.9686439
70-19,New Orleans,4114,14.2776712,120.9683588
70-18,New Jersey,4114,14.2775908,120.9684944
70-2,Pennsylvania,4114,14.2768645,120.9687143
19-32,Charlotte,4114,14.2777018,120.9716650
65-1,New Mexico,4114,14.2776828,120.9693398
55-12,Florida,4114,14.2753850,120.9674427
55-7,Washington Avenue,4114,14.2754371,120.9671963
55-2,Florida,4114,14.2752271,120.9669033
40-26,Kansas,4114,14.2739256,120.9696022
40-27,Michigan,4114,14.2740303,120.9695825
68-1,Washington Avenue,4114,14.2759353,120.9678407
22-3,Dallas,4114,14.2777822,120.9701061
72-2,Oregon,4114,14.2764482,120.9681350
68-10,Pennsylvania,4114,14.2762478,120.9682059
5-2,Arizona,4114,14.2801096,120.9724525
6-1,Boston,4114,14.2796756,120.9725883
5-1,Atlanta,4114,14.2799969,120.9724607
2-11,Arizona,4114,14.2804531,120.9729874
2-8,Arkansas,4114,14.2805651,120.9729589
31-39,Idaho,4114,14.2743721,120.9696113
31-37,Idaho,4114,14.2744713,120.9695856
31-38,Illinois,4114,14.2744621,120.9696977
31-1,Idaho,4114,14.2759928,120.9691333
31-2,Illinois,4114,14.2760823,120.9692194
51-25,Memphis,4114,14.2740398,120.9672644
51-10,Maryland,4114,14.2746781,120.9671968
50-15,Maryland,4114,14.2745609,120.9674667
50-32,Maine,4114,14.2738076,120.9678310
51-6/8,Maryland,4114,14.2748074,120.9671574
49-30,Madison Avenue,4114,14.2739963,120.9681444
55-14,Florida,4114,14.2754163,120.9675474
75-16,Utah,4114,14.2768606,120.9668918
26-33,Washington Avenue,4114,14.2766101,120.9693123
26-31,Washington Avenue,4114,14.2765325,120.9692290
26-16,Florida,4114,14.2759437,120.9686990
26-14,Florida,4114,14.2758774,120.9685942
26-8,Florida,4114,14.2757102,120.9683017
26-6,Florida,4114,14.2756591,120.9682029
26-9,Washington Avenue,4114,14.2758640,120.9683357
26-1,Washington Avenue,4114,14.2756654,120.9679236
27-9,Madison Avenue,4114,14.2749111,120.9681158
27-4,Louisiana,4114,14.2752100,120.9681589
27-32,Louisiana,4114,14.2739824,120.9685333
27-29,Madison Avenue,4114,14.2741313,120.9683562
5-20,Arizona,4114,14.2802696,120.9731198
5-14,Arizona,4114,14.2802181,120.9729003
6-8,Atlanta,4114,14.2798321,120.9727386
6-6,Atlanta,4114,14.2798151,120.9726675
6-16,Atlanta,4114,14.2799024,120.9730323
6-18,Atlanta,4114,14.2799181,120.9731110
6-11,Boston,4114,14.2797661,120.9729925
71-8,New Orleans,4114,14.2769924,120.9683368
3-18,Alaska,4114,14.2807306,120.9733996
77-15,Pennsylvania,4114,14.2759262,120.9673769
77-6,Washington Avenue,4114,14.2756792,120.9670034
28-3,Louisiana,4114,14.2753423,120.9683360
39-6,Kentucky,4114,14.2733963,120.9688168
48-12,Kentucky,4114,14.2732109,120.9680402
61-19,Nashville,4114,14.2782780,120.9695767
28-8,Indiana,4114,14.2751911,120.9685037
48-8,Kentucky,4114,14.2731675,120.9678612
48-14,Kentucky,4114,14.2732333,120.9681318
39-8,Kentucky,4114,14.2734180,120.9689050
32-37,Illinois,4114,14.2746713,120.9698441
31-26,Illinois,4114,14.2750121,120.9695427
31-24,Illinois,4114,14.2750946,120.9695176
29-36,Iowa,4114,14.2741294,120.9691506
29-34,Iowa,4114,14.2742331,120.9691223
29-30,Iowa,4114,14.2744052,120.9690692
29-6,Iowa,4114,14.2754457,120.9687481
43-1,Washington Avenue,4114,14.2749090,120.9655163
53-3,Minnesota,4114,14.2746968,120.9663154
53-2,Minnesota,4114,14.2748497,120.9664028
26-7,Washington Avenue,4114,14.2758170,120.9682445
26-5,Washington Avenue,4114,14.2757709,120.9681489
17-8,Denver,4114,14.2768626,120.9713465
17-7,Denver,4114,14.2768463,120.9712502
17-12,Denver,4114,14.2769501,120.9717173
17-11,Denver,4114,14.2769270,120.9716191
18-8,Denver,4114,14.2771263,120.9714755
17-15,Denver,4114,14.2769927,120.9718980
17-19,Denver,4114,14.2770596,120.9721834
17-17,Denver,4114,14.2770182,120.9720065
43-19,Miami,4114,14.2734555,120.9660774
43-20,Miami,4114,14.2733724,120.9661053
183 R1,Don Placido Campos Avenue,4114,14.3395660,120.9296131
60A-26,New Orleans,4114,14.2778359,120.9680635
5-6A,FCIE Main Drive,4126,14.2846517,120.9345524
74-1,Utah,4114,14.2761571,120.9673425
54-1,Florida,4114,14.2747091,120.9659401
3175,Aguinaldo Highway,4114,14.3434180,120.9369864
