House number,Street name,Postal code,Latitude,Longitude
97,Walcott Street,02860,41.8766419,-71.3775218
825,Mineral Spring Avenue,02860,41.8709903,-71.4157591
755,Central Avenue,02861,41.8877788,-71.3530963
281,Mineral Spring Avenue,02860,41.8742665,-71.4003342
514,Smithfield Avenue,02860,41.8760489,-71.4152408
71,Park Place,02860,41.8764570,-71.3875347
121,Roosevelt Avenue,02860,41.8788000,-71.3822000
178,East Street,02860,41.8905377,-71.3760030
681,Beverage Hill Avenue,02861,41.8599840,-71.3520687
727,East Avenue,02860,41.8581653,-71.3913883
675,Beverage Hill Avenue,02861,41.8605619,-71.3540639
81,Newport Avenue,02861,41.8611452,-71.3541995
1476,Newport Avenue,02861,41.8935372,-71.3542367
1042,Newport Avenue,02861,41.8833724,-71.3544960
337,Armistice Boulevard,02861,41.8798238,-71.3624954
195,Walcott Street,02860,41.8774778,-71.3732842
727,East Avenue,02860,41.8581841,-71.3911658
727,East Avenue,02860,41.8581424,-71.3916012
727,East Avenue,02860,41.8581647,-71.3914615
188,Grotto Avenue,02860,41.8702754,-71.4049007
1571,Newport Avenue,02861,41.8955365,-71.3539913
470,Pawtucket Avenue,02860,41.8614978,-71.3941497
545,Pawtucket Avenue,02860,41.8593300,-71.3984656
545,Pawtucket Avenue,02860,41.8593742,-71.3984025
727,East Avenue,02860,41.8581500,-71.3917100
727,East Avenue,02860,41.8578559,-71.3922659
727,East Avenue,02860,41.8579684,-71.3922901
727,East Avenue,02860,41.8580523,-71.3923001
727,East Avenue,02860,41.8581680,-71.3923186
545,Pawtucket Avenue,02860,41.8590712,-71.3981453
100,Carver Street,02860,41.8596947,-71.3986651
542,Pawtucket Avenue,02860,41.8593386,-71.3974422
545,Pawtucket Avenue,02860,41.8591852,-71.3984078
545,Pawtucket Avenue,02860,41.8592583,-71.3983505
545,Pawtucket Avenue,02860,41.8593342,-71.3983008
350,Prospect Street,02860,41.8668242,-71.3743157
137,Stearns Street,02861,41.8931586,-71.3569996
172,Exchange Street,02860,41.8800391,-71.3799360
13,Summer Street,2860-2106,41.8789700,-71.3842345
645,Broadway,02860,41.8906810,-71.3729220
583,Central Avenue,02861,41.8862697,-71.3605547
650,Newman Avenue,02771,41.8601206,-71.3334828
900,Armistice Boulevard,02861,41.8777496,-71.3372117
973,Newport Avenue,02861,41.8634887,-71.3698891
680,Newport Avenue,02861,41.8750151,-71.3547511
973,Newport Avenue,02861,41.8818419,-71.3535066
285,Armistice Boulevard,02861,41.8802189,-71.3646113
50,Park Place,02860,41.8759805,-71.3865709
13,Summer Street,02860,41.8788158,-71.3844826
13,Summer Street,02860,41.8785538,-71.3841464
333,Roosevelt Avenue,02860,41.8821681,-71.3816651
50,Whitman Street,02860,41.8682495,-71.3963803
285,Smithfield Avenue,02860,41.8676413,-71.4121511
123,Walcott Street,02860,41.8779629,-71.3737160
60,South Bend Street,02860,41.8765974,-71.3718504
350,Division Street,02860,41.8759775,-71.3710754
123,Walcott Street,02860,41.8766332,-71.3765385
1005,Main Street,02904,41.8629962,-71.4006065
342,Power Road,02860,41.8704737,-71.4186947
757,Mineral Spring Avenue,02860,41.8714303,-71.4140457
398,Smithfield Avenue,02860,41.8715552,-71.4140457
755,Mineral Spring Avenue,02860,41.8716280,-71.4134866
749,Mineral Spring Avenue,02860,41.8716939,-71.4131426
750,Mineral Spring Avenue,02860,41.8710952,-71.4133562
376,smithfield Avenue,02860,41.8708824,-71.4132487
381,Smithfield Avenue,02860,41.8709912,-71.4133036
111,Brewster Street,02860,41.8702090,-71.3763572
835,Newport Avenue,02865,41.8787286,-71.3539395
730,Armistice Boulevard,02861,41.8769958,-71.3456507
728,Armistice Boulevard,02861,41.8770175,-71.3458264
10,Daggett Avenue,02861,41.8772239,-71.3456981
195,Walcott Street,02860,41.8773472,-71.3732485
364,East Avenue,02860,41.8688275,-71.3869032
95,Calder Street,02861,41.8916342,-71.3529081
796,Central Avenue,02861,41.8884926,-71.3526365
96,Calder Street,02861,41.8916114,-71.3533415
92,Calder Street,02861,41.8914924,-71.3533597
88,Calder Street,02861,41.8913627,-71.3533857
84,Calder Street,02861,41.8912399,-71.3533490
80,Calder Street,02861,41.8910934,-71.3533515
78,Calder Street,02861,41.8909623,-71.3533281
74,Calder Street,02861,41.8908184,-71.3533660
68,Calder Street,02861,41.8906825,-71.3533532
64,Calder Street,02861,41.8905445,-71.3533536
60,Calder Street,02861,41.8904069,-71.3533937
54,Calder Street,02861,41.8901022,-71.3533307
50,Calder Street,02861,41.8899985,-71.3533355
48,Calder Street,02861,41.8898672,-71.3533735
44,Calder Street,02861,41.8897285,-71.3533733
40,Calder Street,02861,41.8895917,-71.3533532
36,Calder Street,02861,41.8894487,-71.3533751
32,Calder Street,02861,41.8893201,-71.3533599
28,Calder Street,02861,41.8891732,-71.3534056
786,Central Avenue,02861,41.8884708,-71.3529491
790,Central Avenue,02861,41.8884755,-71.3527791
11,Calder Street,02861,41.8886538,-71.3529363
19,Calder Street,02861,41.8888946,-71.3529149
23,Calder Street,02861,41.8890279,-71.3529192
27,Calder Street,02861,41.8891522,-71.3528528
31,Calder Street,02861,41.8893104,-71.3528794
33,Calder Street,02861,41.8894492,-71.3529491
37,Calder Street,02861,41.8895837,-71.3529167
41,Calder Street,02861,41.8897233,-71.3529292
45,Calder Street,02861,41.8898515,-71.3529224
49,Calder Street,02861,41.8899906,-71.3529320
53,Calder Street,02861,41.8901070,-71.3529321
22,Senate Street,02861,41.8904033,-71.3528926
63,Calder Street,02861,41.8905457,-71.3528991
67,Calder Street,02861,41.8906810,-71.3528771
71,Calder Street,02861,41.8908237,-71.3528994
75,Calder Street,02861,41.8909604,-71.3529324
79,Calder Street,02861,41.8910922,-71.3529343
83,Calder Street,02861,41.8912164,-71.3529096
87,Calder Street,02861,41.8913667,-71.3529180
91,Calder Street,02861,41.8915105,-71.3529193
103,Calder Street,02861,41.8917749,-71.3529395
451,Benefit Street,02861,41.8918898,-71.3529077
435,Benefit Street,02861,41.8919597,-71.3534076
55,Clifford Street,02860,41.8674305,-71.3856442
249,High Street,02860,41.8822352,-71.3837452
4,Rhodes Street,02860,41.8667300,-71.3847151
1200,Central Avenue,02861,41.8909579,-71.3408206
27,Exchange Street,02860,41.8796590,-71.3853759
300,Pine Street,02860,41.8787689,-71.3918980
78,Carter Avenue,02861,41.8826228,-71.3607609
526,Pawtucket Avenue,02860,41.8598473,-71.3969991
255,Mineral Spring Avenue,02861,41.8744933,-71.3993637
69,Montgomery Street,02860,41.8808705,-71.3848804
44,Colvin Street,02703,41.8961428,-71.3623657
