House number,Street name,Postal code,Latitude,Longitude
593,Eddy Street,02903,41.8118618,-71.4091293
700,Smith Street,02908,41.8377209,-71.4356559
747,Broad Street,02907,41.8037766,-71.4195558
353,Elmwood Avenue,02907,41.8025479,-71.4263959
297,Laurel Hill Avenue,02909,41.8080096,-71.4534100
525,Branch Avenue,02904,41.8556554,-71.4403358
190,Camp Street,02906,41.8437430,-71.4023881
285A,Chad Brown Street,02908,41.8410299,-71.4225575
593,Eddy Street,02903,41.8112657,-71.4079546
101,Dudley Street,02905,41.8107718,-71.4124738
900,Admiral Street,02904,41.8526520,-71.4458616
857,Eddy Street,02905,41.8045300,-71.4067740
306,Thayer Street,02906,41.8303105,-71.4010636
50,Springfield Street,02909,41.8170000,-71.4648000
152,Springfield Street,02909,41.8187000,-71.4654000
1,Olneyville Square,02909,41.8166237,-71.4429811
233,Veazie Street,02904,41.8514843,-71.4343581
325,Washington Street,02903,41.8202605,-71.4207456
736,Branch Avenue,02904,41.8533221,-71.4286435
1119,North Main Street,02904,41.8512301,-71.4020997
68,Hudson Street,02909,41.8131697,-71.4345946
780,Hope Street,02906,41.8482175,-71.3955814
539,Smith Street,02908-4362,41.8364122,-71.4288542
850,Manton Avenue,02909,41.8323697,-71.4668846
850,Manton Avenue,02909,41.8336108,-71.4672708
333,West River Street,02909,41.8454268,-71.4121232
12,Library Ct.,02909,41.8167897,-71.4415916
579,Atwells Avenue,02909,41.8247977,-71.4360393
579,Atwell Avenue,02909,41.8247977,-71.4361351
218,Thayer Street,02906,41.8275509,-71.4007252
291,Thayer Street,02906,41.8299353,-71.4007520
286,Brook Street,02906,41.8246606,-71.3990628
1003,Smith Street,02908,41.8425327,-71.4446958
1009,Smith Street,02908,41.8426592,-71.4449490
539,Smith Street,02908,41.8362586,-71.4291894
673,Smith Street,02908,41.8378094,-71.4334407
1017,Smith Street,02908,41.8430648,-71.4457869
186,Fountain Street,02903,41.8223638,-71.4168238
820,Hope Street,02906,41.8495814,-71.3950854
700,North Main Street,02904,41.8404173,-71.4093496
235,Thayer Street,02906,41.8282551,-71.4005070
161,Benefit Street,02903,41.8287463,-71.4081066
601,North Main Street,02904,41.8373789,-71.4085328
555,North Main Street,02904,41.8364055,-71.4084124
585,North Main Street,02904-5722,41.8376465,-71.4086488
635,North Main Street,02904,41.8365071,-71.4091457
87,Fones Alley,02906,41.8277863,-71.4002126
207,Wickenden Street,02903,41.8193013,-71.3990975
267,Thayer Street,02906,41.8289570,-71.4006398
224,Thayer Street,02906,41.8277429,-71.4007885
190,Thayer Street,02912,41.8268003,-71.4006833
361,Reservoir Avenue,02907,41.7885040,-71.4315828
361,Reservoir Avenue,02901,41.7886080,-71.4317384
361,Reservoir Avenue,02907,41.7890040,-71.4324036
355,Reservoir Avenue,02907,41.7886538,-71.4326994
361,Reservoir Avenue,02907,41.7881600,-71.4327147
361,Reservoir Avenue,02907,41.7880200,-71.4325162
361,Reservoir Avenue,02907,41.7881000,-71.4326343
322,Reservoir Avenue,02907,41.7877560,-71.4316740
38,Pontiac Avenue,02907,41.7877010,-71.4313468
22,Pontiac Avenue,02907,41.7880460,-71.4312180
24,Pontiac Avenue,02907,41.7880090,-71.4312341
292,Reservoir Avenue,02907,41.7887840,-71.4304885
271,Reservoir Avenue,02907,41.7895089,-71.4300728
255,Reservoir Avenue,02907,41.7896699,-71.4298421
255,Reservoir Avenue,02907,41.7897609,-71.4300446
247,Reservoir Avenue,02907,41.7900949,-71.4294733
243,Reservoir Avenue,02907,41.7902779,-71.4293231
140,Narragansett Avenue,02907,41.7905309,-71.4243328
22,A Street,02907,41.8143698,-71.4231274
685,Admiral Street,02908,41.8495393,-71.4392819
315,Broad Street,02907,41.8144943,-71.4217296
343,Broad Street,02907,41.8138466,-71.4221319
270,Broad Street,02907,41.8153099,-71.4199915
339,Broad Street,02907,41.8142384,-71.4219549
220,Broad Street,02907,41.8162695,-71.4188006
767,Westminster Street,02903,41.8180342,-71.4209310
95,Empire Street,02903,41.8216039,-71.4158592
1331,Broad Street,02905,41.7902978,-71.4055748
15,Hopkins Street,02903,41.8251750,-71.4064822
144,Brook Street,02906,41.8204549,-71.3984789
10,Dorrance Street,02903-2018,41.8241239,-71.4120794
81,Washington Street,02903,41.8236540,-71.4141766
385,Westminster Street,02903,41.8213314,-71.4150161
141,Westminster Street,02903,41.8232343,-71.4109767
127,Dorrance Street,02903,41.8222708,-71.4100808
657,North Main Street,02904,41.8387056,-71.4089448
69,Washington Street,02903,41.8238269,-71.4139146
997,Branch Avenue,02904,41.8554249,-71.4391140
172,Wayland Avenue,02906,41.8287925,-71.3884496
186,Wayland Avenue,02906,41.8290263,-71.3883892
178,Wayland Avenue,02906,41.8288794,-71.3884281
302,Wickenden Street,02903,41.8196308,-71.3971397
268,Wickenden Street,02903,41.8195931,-71.3977989
127,Brook Street,02906,41.8201515,-71.3982233
69,Governor Street,02906,41.8224977,-71.3938392
500,Broadway,02909,41.8183947,-71.4348072
505,Silver Spring Street,02904,41.8562962,-71.4105899
711,Westminster Street,02903-4016,41.8184942,-71.4200312
391,Charles Street,02904,41.8447259,-71.4182058
485,Branch Avenue,02904,41.8511484,-71.4213439
456,Branch Avenue,02904,41.8502892,-71.4205874
460,Wickenden Street,02903,41.8203256,-71.3940658
3,Luongo Square,02903,41.8187293,-71.4265967
1215,North Main Street,02904,41.8532242,-71.4008526
234,Lenox Avenue,02907,41.7954949,-71.4233193
126,North Main Street,02903,41.8283644,-71.4097651
568,Broad Street,02907,41.8090567,-71.4204243
5,Memorial Boulevard,02903,41.8258358,-71.4142351
82,Providence Place,02903,41.8265195,-71.4159484
67,Washington Street,02903,41.8238571,-71.4138683
121,North Main Street,02903,41.8282341,-71.4093122
167,Ives Street,02906,41.8228944,-71.3920491
146,West River Street,02904,41.8436416,-71.4149691
354,Admiral Street,02908,41.8454219,-71.4280199
333,Wickenden Street,02903,41.8194862,-71.3965037
334,South Water Street,02903,41.8208004,-71.4042970
166,Wickenden Street,02903,41.8193461,-71.4000632
40R,Sprague Street,02907,41.8092406,-71.4258944
199,Camp Street,02906,41.8437417,-71.4021237
438,Hope Street,02906,41.8384964,-71.4007090
458,Hope Street,02906,41.8389917,-71.4003943
430,North Main Street,02904,41.8363655,-71.4101806
18,Gesler Street,02909,41.8227348,-71.4305390
472,Atwells Avenue,02909,41.8238547,-71.4328935
1570,Westminster Street,02909,41.8159061,-71.4355665
1084,Hope Street,02906,41.8566692,-71.3914262
1074,Hope Street,02906,41.8564972,-71.3915064
2,River Road,02906,41.8326657,-71.3778717
167,Gano Street,02906,41.8247579,-71.3922947
371,Broadway,02909,41.8197864,-71.4303097
167,Gano Street,02906,41.8247671,-71.3898959
167,Gano Street,02906,41.8247540,-71.3900256
39,East Transit Street,02906,41.8215845,-71.3918424
117-119,Ives Street,02906,41.8215460,-71.3918873
103,Ives Street,02906,41.8210895,-71.3918253
36,Trenton Street,02906,41.8210598,-71.3917465
64,Furnace Street,02903,41.8202587,-71.3907903
67,Furnace Street,02903,41.8202817,-71.3905697
635,Wickenden Street,02903,41.8203267,-71.3904872
607,Wickenden Street,02903,41.8202872,-71.3908593
599,Wickenden Street,02903,41.8202697,-71.3910323
49,Schofield Street,02903,41.8202287,-71.3910873
54,Furnace Street,02903,41.8198929,-71.3907574
52,Furnace Street,02903,41.8198462,-71.3907494
43,Schofield Street,02906,41.8200753,-71.3910431
318,Broadway,02909,41.8199898,-71.4281526
6,Robin St,02908,41.8297847,-71.4351902
345,South Main Street,02903,41.8213221,-71.4044304
14,Olneyville Square,02909,41.8166027,-71.4437203
244,Wickenden Street,02906,41.8195599,-71.3983835
250,Wickenden Street,02903,41.8195828,-71.3980784
214,Wickenden Street,02906,41.8195324,-71.3990208
71,Washington Street,02903,41.8237850,-71.4139705
7,Steeple Street,02903,41.8274207,-71.4094992
1,India Street,02903,41.8154764,-71.3998710
1,Governor Street,02906,41.8202695,-71.3935433
107,Ives Street,02906,41.8212224,-71.3918171
236,Wickenden Street,02903,41.8195589,-71.3985471
234,Wickenden Street,02903,41.8195529,-71.3986235
230,Wickenden Street,02903,41.8195464,-71.3987657
197,Wickenden Street,02903,41.8192965,-71.3992358
140,Wickenden Street,02903,41.8192580,-71.4004973
270,Wickenden Street,02903,41.8195976,-71.3977028
320,Wickenden Street,02903,41.8196433,-71.3968194
65,Weybosset Street,02903,41.8238336,-71.4105889
75,Dorrance Street,02903,41.8232281,-71.4113835
566,South Water Street,02903,41.8175787,-71.4005703
25,India Street,02903,41.8160711,-71.3981301
300,Broadway,02903,41.8201311,-71.4274821
1304,Broad Street,02905,41.7913387,-71.4056847
150,Pocasset Avenue,02909,41.8110810,-71.4540074
118,Willow Street,02909,41.8136950,-71.4369732
460,Harris Avenue,02909,41.8231538,-71.4360672
530,North Main Street,02904,41.8365447,-71.4101482
127,Dorrance Street,02903,41.8222410,-71.4100715
488,Hartford Avenue,02909,41.8187084,-71.4601525
75,Abbott Street,02906,41.8427118,-71.4053200
756,Hope Street,02906,41.8475895,-71.3958994
776,Hope Street,02906,41.8479864,-71.3957014
224,Dexter Street,02907,41.8105198,-71.4282338
55,Cromwell Street,02907,41.8090208,-71.4262467
150,Taber Avenue,02912,41.8342451,-71.3929071
152,Taber Avenue,02912,41.8343232,-71.3927901
154,Taber Avenue,02912,41.8343358,-71.3927943
148,Taber Avenue,02912,41.8342478,-71.3927827
146,Taber Avenue,02912,41.8341517,-71.3927479
75,Abbott St,02906,41.8427237,-71.4052844
1,West Exchange Street,02903,41.8254196,-71.4153478
134,Atwells Avenue,02903,41.8231961,-71.4223666
758,Eddy Street,02903,41.8075160,-71.4069830
13,Waterman Street,02903,41.8269849,-71.4080618
45,King Philip Street,02909,41.8209295,-71.4651159
47,King Philip Street,02909,41.8209221,-71.4650288
19,King Philip Street,02909,41.8201518,-71.4652633
21,King Philip Street,02909,41.8201401,-71.4652041
51,Stella Street,02909,41.8211135,-71.4658432
53,Stella Street,02909,41.8211041,-71.4657835
1215,North Main Street,02904,41.8532233,-71.4005664
440,Smithfield Avenue,02904,41.8577725,-71.4111230
440,Smithfield Avenue,02904,41.8577682,-71.4113827
442,Manton Avenue,02909,41.8252211,-71.4547805
442,Manton Avenue,02909,41.8249850,-71.4547447
55,Union Street,02903,41.8240025,-71.4146341
142,Providence Place,02903,41.8287198,-71.4155637
43,Providence Place,02903,41.8285952,-71.4155779
100,Highland Avenue,02906,41.8497563,-71.4011591
59,Chestnut Street,02903,41.8193577,-71.4129163
321,Harborside Boulevard,02905,41.7874315,-71.3908352
139,Elmgrove Avenue,02906,41.8345935,-71.3907478
342,Broadway,02909,41.8197381,-71.4290550
471,West Fountain Street,02903,41.8186785,-71.4256913
1,"Richmond Square, #105C",02906,41.8270458,-71.3819830
395,Smith Street,02908,41.8349900,-71.4246949
71,Hope Street,02906,41.8206918,-71.3957599
118,Willow Street,02909,41.8136330,-71.4368916
5515,Providence Place Mall,02903,41.8276714,-71.4164764
234,Thayer Street,02906,41.8280190,-71.4007973
154,Atwells Avenue,02903,41.8232067,-71.4232476
1,Empire Street,02903,41.8212415,-71.4162102
64,Eagle Street,02903,41.8259036,-71.4344804
230,Broadway,02903,41.8207044,-71.4250350
245,Carpenter Street,02903,41.8185674,-71.4270236
182,Pine Street,02903,41.8201753,-71.4120789
1005,Smith Street,02908,41.8426062,-71.4448375
11,S Angell St,02906,41.8298445,-71.3876498
401,South Main Street,02903,41.8208539,-71.4038828
10,Sims Avenue,02909,41.8272956,-71.4325987
33,Aborn Street,02903,41.8218994,-71.4153508
150,Washington Street,02903,41.8227140,-71.4150366
50,Aborn Street,02903,41.8219768,-71.4156968
659,Smith Street,02908,41.8375176,-71.4329315
400,Admiral Street,02908,41.8460225,-71.4294266
465,Angell Street,02906,41.8298053,-71.3892516
1080,Hope Street,02906,41.8565872,-71.3914733
959,Hope Street,02906,41.8531626,-71.3928752
737a,Hope Street,02906,41.8468514,-71.3958703
735,Hope Street,02906,41.8467798,-71.3959969
13,South Angell Street,02906,41.8298323,-71.3875809
17,South Angell Street,02906,41.8298018,-71.3874052
199,Wayland Avenue,02906,41.8297476,-71.3879455
18,South Angell Street,02906,41.8300192,-71.3873357
9,Wayland Square,02906,41.8300914,-71.3876447
161,Wayland Avenue,02906,41.8289483,-71.3881138
229,Waterman Street,02906,41.8284522,-71.3882281
485,Angell Street,02906,41.8299775,-71.3883671
131,Elmgrove Avenue,02906,41.8343929,-71.3906349
195,Wayland Avenue,02906,41.8295271,-71.3879950
201,Wayland Avenue,02906,41.8296663,-71.3879537
489,Angell Street,02906,41.8299817,-71.3883086
125,Wickenden Street,02903,41.8186690,-71.4010849
2,Thomas Street,02903,41.8276635,-71.4089521
3,Steeple Street,02903,41.8273682,-71.4096964
335,Wickenden Street,02903,41.8195057,-71.3963255
50,Plainfield Street,02909,41.8160934,-71.4443332
200,Corliss Street,02904,41.8435562,-71.4125851
423,South Main Street,02903,41.8186166,-71.4007014
423,South Main Street,02903,41.8186374,-71.4007233
125,Wickenden Street,02903,41.8186194,-71.4012356
1074,Hope Street,02906,41.8565352,-71.3914903
713,Westminster Street,02903,41.8184884,-71.4200029
7,Central Street,02907,41.8148324,-71.4218295
60,Joseph Street,02904,41.8552962,-71.4444551
182,Wayland Avenue,02906,41.8289868,-71.3884011
208,Wayland Avenue,02906,41.8298566,-71.3881810
206,Wayland Avenue,02906,41.8298046,-71.3882030
140,Medway Street,02906,41.8294955,-71.3876379
9,Wayland Avenue,02906,41.8301272,-71.3876569
100,Gaspee Street,02903,41.8291420,-71.4133878
125,North Main Street,02903,41.8284429,-71.4094040
182,Hope Street,02906,41.8267740,-71.3989130
171,Chestnut Street,02903,41.8179061,-71.4096678
58,Henrietta Street,02904,41.8542048,-71.4373757
78,Sutton St.,02903,41.8227900,-71.4285675
400,Exchange Street,02903,41.8277869,-71.4129551
181,Carpenter Street,02903,41.8195401,-71.4248514
414,Smithfield Avenue,02904,41.8570691,-71.4112324
239,Dyer Street,02903,41.8195821,-71.4082274
783,Hope Street,02906,41.8480492,-71.3951430
783,Hope Street,02906,41.8481165,-71.3951097
783,Hope Street,02906,41.8482109,-71.3950806
225,Wayland Avenue,02906,41.8306448,-71.3876604
275,Thayer Street,02906,41.8296361,-71.4007431
890,Allens Avenue,02905,41.7911988,-71.3966005
514,Broadway,02909,41.8181265,-71.4354171
504,Broadway,02909,41.8183785,-71.4349383
436,Broadway,02909,41.8189703,-71.4324165
432,Broadway,02909,41.8189789,-71.4323350
181,Brook Street,02906,41.8214517,-71.3983647
228,Broadway,02903,41.8207116,-71.4250022
226,Broadway,02903,41.8207185,-71.4249639
1,Olneyville Square,2909,41.8172116,-71.4423669
113,Washington Street,02903,41.8232105,-71.4147515
770,Westminster Street,02903,41.8174941,-71.4207607
2,Russo Street,02904,41.8515069,-71.4207457
101,Sessions Street,02906,41.8404996,-71.3934596
1533,Chalkstone Avenue,02909,41.8368895,-71.4592985
600,Mount Pleasant Avenue,02908,41.8417540,-71.4610128
721,Chalkstone Avenue,02908,41.8345299,-71.4314674
1,Cunningham Sq.,02918,41.8442842,-71.4348034
200,Niantic Avenue,02907,41.7968722,-71.4379124
618-622,Wickenden Street,02903,41.8205124,-71.3907664
65,Trenton Street,02906,41.8209759,-71.3904339
630,Wickenden Street,02903,41.8205037,-71.3905693
49,Trenton Street,02906,41.8209183,-71.3912056
62,Furnace Street,02903,41.8200884,-71.3908410
90,Ives Street,02906,41.8207018,-71.3917103
43,Trenton Street,02906,41.8208958,-71.3915134
59,Trenton Street,02906,41.8209582,-71.3907397
4,Richmond Square,02906,41.8271319,-71.3809388
594,Wickenden Street,02906,41.8204730,-71.3912408
63,Furnace Street,02906,41.8201223,-71.3905100
582,Wickenden Street,02906,41.8204651,-71.3914267
55,Trenton Street,02906,41.8209173,-71.3909486
58,Trenton Street,02906,41.8212196,-71.3908383
61,Trenton Street,02906,41.8209669,-71.3906430
85,Ives Street,02906,41.8205987,-71.3916730
97,Ives Street,02906,41.8208540,-71.3917108
49,Furnace Street,02906,41.8198050,-71.3903988
113,Gano Street,02906,41.8223375,-71.3896025
598,Wickenden Street,02906,41.8204792,-71.3910539
62-64,Trenton Street,02906,41.8211973,-71.3906513
39,Schofield Street,02906,41.8199684,-71.3909737
608,Wickenden Street,02903,41.8204891,-71.3909427
530,Wickenden Street,02906,41.8206127,-71.3924904
79,Ives Street,02906,41.8204542,-71.3916315
51,Trenton Street,02906,41.8209091,-71.3911067
25,Dorrance Street,02903,41.8240350,-71.4129047
82,Smith Street,02903,41.8308966,-71.4149587
5,Exchange Street,02903,41.8265745,-71.4114699
271,Tockwotten Street,02912,41.8185354,-71.3904736
1,West Exchange Street,02903,41.8252102,-71.4158660
150,Union Street,02903,41.8232039,-71.4129409
100,Sabin Street,02903,41.8236022,-71.4163133
1,Park Row West,02903,41.8291859,-71.4114278
51,Washington Street,02903,41.8240908,-71.4140440
36,Pine Street,02903,41.8230774,-71.4089394
350,Eddy Street,02903,41.8183481,-71.4060755
61,Orange Street,02903,41.8229522,-71.4105164
1,Davol Square,02903,41.8173400,-71.4061405
66,Weybosset Street,02903,41.8234884,-71.4097122
79,Washington Street,02903,41.8237349,-71.4145296
80,Washington Street,02903,41.8232070,-71.4138380
123,Dyer Street,02903,41.8231746,-71.4085250
11,Dorrance Street,02903,41.8243656,-71.4134482
317,Iron Horse Wy,02908,41.8289208,-71.4304126
30,Fenner Street,02903-3603,41.8192649,-71.4165316
101,Cadillac Drive,02907,41.7921871,-71.4158279
315,Iron Horse Wy,02908,41.8284397,-71.4315363
475,Valley Street,02908,41.8288433,-71.4330915
5,Edith Street,02908,41.8304712,-71.4201792
10,Memorial Boulevard,02903,41.8265195,-71.4150150
313,Iron Horse Way,02908,41.8287162,-71.4318683
32,Exchange Terrace at Memorial Boulevard,02903,41.8258098,-71.4145917
324,Hope Street,02906,41.8344032,-71.4033624
150,Empire Street,02903,41.8219888,-71.4170081
1,Capitol Hill,02908,41.8329033,-71.4156956
1,Citizens Plaza,02903,41.8274244,-71.4107817
373,Richmond Street,02903,41.8168358,-71.4077401
121,South Main Street,02903,41.8240573,-71.4070587
101,Plain Street,02903,41.8134822,-71.4127195
48,Wesleyan Avenue,02907,41.8077129,-71.4195761
43,Wesleyan Avenue,02907,41.8081025,-71.4193784
21,Wesleyan Avenue,02907,41.8081010,-71.4186509
596,Broad Street,02907,41.8080526,-71.4202500
28,Wesleyan Avenue,02907,41.8077388,-71.4189043
2-4,Wesleyan Avenue,02907,41.8077672,-71.4180369
57-59,Wesleyan Avenue,02907,41.8081008,-71.4199206
34-36,Taylor Street,02907,41.8080863,-71.4177122
46,Taylor Street,02907,41.8077448,-71.4177165
32,Wesleyan Avenue,02907,41.8077193,-71.4190854
1-3,Wesleyan Avenue,02907,41.8080708,-71.4180333
53,Wesleyan Avenue,02907,41.8081223,-71.4197152
45,Wesleyan Avenue,02907,41.8080932,-71.4195341
44,Taylor Street,02907,41.8078636,-71.4177418
25,Wesleyan Avenue,02907,41.8080804,-71.4188506
38-40,Taylor Street,02907,41.8079831,-71.4177492
35,Wesleyan Avenue,02907,41.8080889,-71.4192120
40-42,Wesleyan Avenue,02907,41.8077214,-71.4193419
24,Wesleyan Avenue,02907,41.8077576,-71.4187147
16,Wesleyan Avenue,02907,41.8077617,-71.4185021
15,Wesleyan Avenue,02907,41.8080859,-71.4184958
82,Fones Alley,02912,41.8283008,-71.4003263
49/43,Thayer Street,02906,41.8220172,-71.3997705
48,College Street,02912,41.8262692,-71.4062656
111,Brown Street,02912,41.8299133,-71.4033190
101-109,Thayer Street,02912,41.8269648,-71.4001611
154,Cushing St,02906,41.8302318,-71.4005006
62,Prospect Street,02906,41.8286629,-71.4052953
26,John Street,02906,41.8218076,-71.4000503
166,Cushing St,02906,41.8302494,-71.4001844
30,John Street,02906,41.8218580,-71.3996169
200,Meeting Street,02912,41.8293823,-71.4018010
206,Meeting Street,02912,41.8298673,-71.4016681
211,Bowen Street,02912,41.8305121,-71.4025203
10,Prospect Street,02912,41.8257062,-71.4051440
95,Cushing Street,02912,41.8296763,-71.4027782
185,Meeting Street,02912,41.8287704,-71.4014656
194,Meeting Street,02912,41.8296002,-71.4021211
125,Governor Street,02906,41.8249094,-71.3935925
30-32,Trenton Street,02906,41.8210964,-71.3922578
14,Trenton Street,02903,41.8210028,-71.3929708
107-109,Ives Street,02906,41.8212631,-71.3917584
21-23,East Transit Street,02906,41.8214552,-71.3927466
9,East Transit Street,02906,41.8214057,-71.3932780
47/49,Governor Street,02906,41.8217978,-71.3936335
48,Furnace Street,02903,41.8197773,-71.3907622
104,Ives Street,02906,41.8210784,-71.3920488
18,Trenton Street,02903,41.8210342,-71.3928092
11,East Transit Street,02906,41.8212649,-71.3932023
120,Ives Street,02906,41.8214378,-71.3921427
113,Ives Street,02906,41.8213786,-71.3918044
31,Schofield Street,02906,41.8197671,-71.3910203
12,Trenton Street,02903,41.8209891,-71.3931544
520,Wickenden Street,02903,41.8203276,-71.3927511
27,East Transit Street,02906,41.8213550,-71.3925065
24,Trenton Street,02903,41.8210385,-71.3926399
116,Ives Street,02906,41.8213437,-71.3921324
41,East Transit Street,02906,41.8215220,-71.3916581
510,Wickenden Street,02903,41.8203151,-71.3928893
25,East Transit Street,02906,41.8214608,-71.3926366
15,East Transit Street,02906,41.8214220,-71.3931066
46,Furnace Street,02903,41.8196626,-71.3907506
20,Schofield Street,02906,41.8195197,-71.3912639
108,Ives Street,02906,41.8212322,-71.3920837
117,Ives Street,02906,41.8215510,-71.3918425
56,Trenton Street,02906,41.8213307,-71.3909892
31,East Transit Street,02906,41.8214809,-71.3923665
150,Ives Street,02906,41.8224129,-71.3922932
28,Trenton Street,02906,41.8210428,-71.3924148
500,Wickenden Street,02903,41.8202888,-71.3931220
54,Trenton Street,02906,41.8211596,-71.3910262
27,Schofield Street,02906,41.8196509,-71.3909982
33,East Transit Street,02906,41.8213236,-71.3922741
146,Ives Street,02906,41.8221591,-71.3922429
19,East Transit Street,02906,41.8214417,-71.3928431
7,East Transit Street,02906,41.8214148,-71.3933965
52,Trenton Street,02906,41.8211466,-71.3911215
33,Schofield Street,02906,41.8198622,-71.3910520
42,Schofield Street,02906,41.8198733,-71.3914675
45,East Transit Street,02906,41.8214153,-71.3914079
141,Governor Street,02906,41.8254505,-71.3937132
209,Fountain Street,02903,41.8222088,-71.4178782
1481,Broad Street,02905,41.7863871,-71.4027152
860,Elmwood Avenue,02907,41.7891614,-71.4205872
883,Elmwood Avenue,02907,41.7883089,-71.4211728
852,Elmwood Avenue,02907,41.7894716,-71.4209791
895,Elmwood Avenue,02907,41.7879693,-71.4211191
110,Royal Little Drive,02904,41.8532705,-71.4115646
387,Charles Street,02908,41.8437307,-71.4175111
51,Silver Spring Street,02904,41.8455003,-71.4160483
325,Valley Street,02940,41.8259013,-71.4379098
115,Waterman Street,02912,41.8270237,-71.3995974
79,Waterman Street,02912,41.8265346,-71.4025051
1,Prospect Street,02912,41.8261476,-71.4038479
94,George Street,02912,41.8255865,-71.4024428
75,Waterman Street,02912,41.8268459,-71.4029591
70,George Street,02912,41.8257748,-71.4038519
21,Prospect Street,02912,41.8264647,-71.4038699
71,Waterman Street,02912,41.8267443,-71.4038718
346,Brook Street,02912,41.8266615,-71.3995372
81,Waterman Street,02912,41.8261968,-71.4025844
90,Waterman Street,02912,41.8258766,-71.4024829
60,George Street,02912,41.8254846,-71.4038725
83,Waterman Street,02912,41.8266024,-71.4018592
20-34,Prospect Street,02912,41.8264384,-71.4050001
85,Waterman Street,02912,41.8269068,-71.4019496
69,Brown Street,02912,41.8274508,-71.4028297
108,George Street,02912,41.8259267,-71.4020305
102,George Street,02912,41.8256566,-71.4020224
128,George Street,02912,41.8258390,-71.4007637
106,George Street,02912,41.8255818,-71.4018190
168,Thayer Street,02912,41.8261315,-71.4006574
180,Thayer Street,02912,41.8260339,-71.4012842
109,Brown Street,02912,41.8298050,-71.4032836
172,Meeting Street,02912,41.8292134,-71.4027979
185,Meeting Street,02912,41.8288907,-71.4023143
68,Brown Street,02912,41.8272274,-71.4033051
101,Thayer Street,02912,41.8234911,-71.3996225
180,George Street,02912,41.8259154,-71.3988114
219,Bowen Street,02912,41.8305948,-71.4017541
80,Waterman Street,02912,41.8273121,-71.4025518
169,Angell Street,02912,41.8278670,-71.4008884
345,Brook Street,02912,41.8264230,-71.3985100
340,Brook Street,02912,41.8262783,-71.3993986
113,George Street,02912,41.8244916,-71.4004321
121,Waterman Street,02912,41.8272775,-71.3989761
27,Brown Street,02912,41.8250099,-71.4023872
308,Thayer Street,02912,41.8306243,-71.4014385
21,Brown Street,02912,41.8242942,-71.4022958
101,Thayer Street,02912,41.8233439,-71.3997254
113,George Street,02912,41.8245165,-71.4023411
297,Thayer Street,02906,41.8302178,-71.4007506
68,Waterman Street,02912,41.8272606,-71.4040632
306,Thayer Street,02912,41.8304544,-71.4015081
164-176,Angell Street,02912,41.8283121,-71.4010129
155,Angell Street,02912,41.8277660,-71.4015693
113,George Street,02912,41.8245692,-71.4019287
167,Angell Street,02912,41.8278507,-71.4010717
144,Thayer Street,02912,41.8251132,-71.4008359
27,Brown Street,02912,41.8252780,-71.4017339
13,Brown Street,02912,41.8239738,-71.4023116
300,Thayer Street,02912,41.8303432,-71.4011074
113,George Street,02912,41.8241256,-71.4012238
113,George Street,02912,41.8247200,-71.4012695
355,Brook Street,02912,41.8268165,-71.3985550
135,Angell Street,02912,41.8276624,-71.4021918
125-127,Waterman Street,02912,41.8272841,-71.3985485
315,Thayer Street,02912,41.8306300,-71.4007439
154,Angell Street,02912,41.8282646,-71.4014295
182,George Street,02912,41.8259678,-71.3983712
135,Thayer Street,02912,41.8249806,-71.4000751
113,George Street,02912,41.8240187,-71.4006855
113,George Street,02912,41.8245300,-71.4014537
64,Waterman Street,02912,41.8272086,-71.4043971
79,Brown Street,02912,41.8280888,-71.4029058
96,Waterman Street,02912,41.8274171,-71.4013043
81-89,Brown Street,02912,41.8286465,-71.4023015
36,Prospect Street,02912,41.8267733,-71.4049122
171,Meeting Street,02912,41.8285996,-71.4029220
42,Charlesfield Street,02912,41.8233797,-71.4007687
64,College Street,02912,41.8264690,-71.4054678
45,Prospect Street,02912,41.8275897,-71.4044394
111,Thayer Street,02912,41.8243760,-71.3998490
1,Benevolent Street,02903,41.8243979,-71.4049395
38,Brown Street,02912,41.8251434,-71.4030383
154,Power Street,02912,41.8236420,-71.3962150
4,Young Orchard Avenue,02912,41.8241136,-71.3963657
6,Benevolent Street,02906,41.8248846,-71.4051257
12,Benevolent Street,02906,41.8248019,-71.4043707
86,Waterman Street,02912,41.8273286,-71.4020353
2,Young Orchard Avenue,02912,41.8240636,-71.3968285
10,Young Orchard Avenue,02912,41.8241242,-71.3957634
67,George Street,02912,41.8251142,-71.4035633
1,Young Orchard Avenue,02912,41.8246050,-71.3967313
7,Young Orchard Avenue,02912,41.8244737,-71.3958823
82,Waterman Street,02912,41.8273140,-71.4023203
59,George Street,02912,41.8251160,-71.4038101
1,Magee Street,02912,41.8248372,-71.4037174
114,George Street,02906-1189,41.8257100,-71.4013975
25,George Street,02912,41.8250998,-71.4052846
47-49,George Street,02912,41.8251052,-71.4042936
2,Prospect Street,02912,41.8253937,-71.4047015
449,Brook Street,02906,41.8297191,-71.3989734
171,Cushing Street,02912,41.8300050,-71.3995046
235,Hope Street,02912,41.8310810,-71.3973074
69,Waterman Street,02912,41.8267782,-71.4044887
229,Thayer Street,02906,41.8279662,-71.4004795
261,Thayer Street,02906,41.8289146,-71.4005729
235,Hope Street,02912,41.8313581,-71.3989523
1,Button Hole Drive,02909,41.8259252,-71.4638755
124,Pitman St,02906,41.8269194,-71.3879764
295,Lloyd Avenue,02912,41.8329354,-71.3954740
960,Hope Street,02906,41.8534306,-71.3931318
211,Hope Street,02906,41.8290814,-71.3976470
235,Hope Street,02912,41.8302318,-71.3974695
217,Hope Street,02906,41.8293480,-71.3978030
235,Hope Street,02912,41.8316796,-71.3981444
98,Cushing Street,02912,41.8301797,-71.4027692
118,Cushing Street,02912,41.8302146,-71.4022298
331,Hope Street,02906,41.8344740,-71.4009463
518,Lloyd Avenue,02906,41.8352569,-71.3866962
67,Cole Avenue,02906,41.8354648,-71.3871056
577,South Water Street,02906,41.8172767,-71.4006323
1,India Street,02903,41.8156953,-71.3995059
251,Smith Street,02908,41.8332714,-71.4200887
400,Reservoir Avenue,02907,41.7869458,-71.4325527
77,Reservoir Avenue,02907,41.7943881,-71.4270468
3,Capitol Hill,02908,41.8321742,-71.4147998
1000,Eddy Street,02905,41.8012077,-71.4051300
216,Hope Street,02906,41.8288966,-71.3981786
216,Hope Street,02906,41.8290913,-71.3983625
223,Thayer Street,02906,41.8277996,-71.4003881
455,Wickenden Street,02906,41.8197058,-71.3922806
90,Ives Street,02906,41.8204584,-71.3922082
649,North Main Street,02904,41.8381453,-71.4087809
612,Academy Avenue,02908,41.8412751,-71.4474642
434,Mount Pleasant Avenue,02908,41.8378450,-71.4534380
50,Obadiah Brown Road,02909,41.8346242,-71.4623719
195,Nelson Street,02908,41.8429514,-71.4438071
2,Magee Street,02906,41.8248432,-71.4048542
2,River Road,02906,41.8326357,-71.3778748
52,Power Street,02906,41.8231741,-71.4033187
433,Benefit Street,02903-2996,41.8196853,-71.4008326
173,Wickenden Street,02903,41.8190501,-71.3997602
21,Traverse Street,02906,41.8185522,-71.3996252
39,East Orchard Avenue,02906,41.8324657,-71.3825754
690,Angell Street,02906,41.8318389,-71.3804114
686,Angell Street,02906,41.8318230,-71.3806438
680,Angell Street,02906,41.8317682,-71.3808584
670,Angell Street,02906,41.8317359,-71.3812577
662,Angell Street,02906,41.8316357,-71.3815278
654,Angell Street,02906,41.8315516,-71.3817919
652,Angell Street,02906,41.8315104,-71.3819181
646,Angell Street,02906,41.8315158,-71.3821376
642,Angell Street,02906,41.8315688,-71.3823271
101,Sessions Street,02906,41.8406726,-71.3934975
146,Wayland Avenue,02906,41.8280659,-71.3887294
100,Pine Street,02903,41.8217226,-71.4104052
181,Dorrance Street,02903,41.8204967,-71.4103327
1655,Westminster Street,02909,41.8165113,-71.4374099
5,Bell Street,02908,41.8187984,-71.4360952
51,Manton Avenue,02909,41.8179957,-71.4441428
60,Hartford Avenue,02909,41.8165518,-71.4452771
261,Waterman Street,02906,41.8277605,-71.3863090
250,Washington Street,02903,41.8209467,-71.4172698
25,India Street,02903,41.8162656,-71.3984317
14,Charlesfield Street,02906,41.8235547,-71.4029131
8,Sheldon Street,02906,41.8199271,-71.4008355
12,Sheldon Street,02906,41.8199409,-71.4006507
32,Sheldon Street,02906,41.8200192,-71.3999361
24,Sheldon Street,02906,41.8199728,-71.4002196
14,Sheldon Street,02906,41.8200812,-71.4005505
200,Wickenden Street,02903,41.8195621,-71.3993698
57,Sheldon Street,02906,41.8198142,-71.3990161
50,Sheldon Street,02906,41.8200487,-71.3993827
56,Sheldon Street,02906,41.8200351,-71.3990878
52,Sheldon Street,02906,41.8200312,-71.3992354
62,Sheldon Street,02906,41.8200564,-71.3988837
"66,68",Sheldon Street,02906,41.8201035,-71.3987308
400,Benefit Street,02906,41.8204578,-71.4020241
357,Benefit Street,02903,41.8224359,-71.4030494
5,Brown Street,02906,41.8231576,-71.4023349
133,Gano Street,02906,41.8230610,-71.3897994
101,Dyer Street,02903,41.8236183,-71.4086842
54,South Street,02903,41.8173161,-71.4075931
239,Cranston Street,02907,41.8140559,-71.4275313
149,Gano Street,02906,41.8237826,-71.3898896
149,Gano Street,02906,41.8235997,-71.3898741
135,Gano Street,02906,41.8233364,-71.3898568
190,Hope Street,02906,41.8273751,-71.3975396
481,Angell Street,02906,41.8298498,-71.3886860
471,Angell Street,02906,41.8297883,-71.3889535
468,Angell Street,02906,41.8301280,-71.3890967
731,Eddy Street,02903,41.8078190,-71.4076010
75,Chestnut Street,02903,41.8189687,-71.4128673
600-602,Broad Street,02907,41.8076673,-71.4200561
9,Wesleyan Avenue,02907,41.8080875,-71.4183411
533,Elmwood Avenue,02907,41.7976146,-71.4267304
40,Reservoir Avenue,02907,41.7961791,-71.4257812
60,Reservoir Avenue,02907,41.7952363,-71.4258657
176,Narragansett Avenue,02907,41.7888870,-71.4231848
775,Cranston Street,02907,41.8042798,-71.4391158
265,Gano Street,02906,41.8287009,-71.3905951
93,Atwells Avenue,02903,41.8233510,-71.4210067
1,Enterprise Row,02903,41.8235392,-71.4209700
218,Dexter Street,02907,41.8105322,-71.4278952
230,Dexter Street,02907,41.8100450,-71.4277299
270,Broadway,02907,41.8201441,-71.4262539
30,Barton Street,02909,41.8170610,-71.4364926
29,Bainbridge Avenue,02909,41.8173609,-71.4360047
29,Bainbridge Avenue,02909,41.8170101,-71.4360092
122,Fountain Street,02903,41.8231646,-71.4157818
69-71,Hope Street,02906,41.8206930,-71.3956839
345,Blackstone Boulevard,02906-4800,41.8422204,-71.3811434
121,North Main Street,02903,41.8282415,-71.4092701
208,Meeting Street,02912,41.8302287,-71.4018002
202,Meeting Street,02912,41.8295780,-71.4015294
15,Thurbers Avenue,02907,41.8013457,-71.4014657
34,Elbow Street,02903,41.8173873,-71.4102720
127,Brook Street,02906,41.8201595,-71.3981412
575,South Water Street,02906,41.8172631,-71.4017860
575,South Water Street,02906,41.8170939,-71.4015735
1450,Broad Street,02905,41.7881605,-71.4029723
164,Summit Avenue,02906,41.8520082,-71.3982699
260,Highland Avenue,02906,41.8540450,-71.3986481
830,Chalkstone Avenue,02908,41.8317976,-71.4324920
825,Chalkstone Avenue,02908,41.8343581,-71.4353299
50,Fillmore Street,02908,41.8384514,-71.4223318
1,Hilton Street,02905,41.8074408,-71.4130526
41,Fricker Street,02908,41.8158738,-71.4227209
21,Peace Street,02905,41.8069174,-71.4215875
1,Providence Place,02903,41.8275859,-71.4165831
1,Hoppin Street,02903,41.8162078,-71.4116922
103,Point Street,02903,41.8166328,-71.4076965
370,Richmond Street,02903,41.8171266,-71.4074476
320,Waterman Street,02906,41.8283680,-71.3823788
110,Dorrance Street,02903,41.8227577,-71.4100638
85,Elm Street,02903,41.8174577,-71.4099394
3,Ricom Way,02909,41.8109359,-71.4417608
1413,Westminster Street,02909,41.8165970,-71.4328534
386,Broad Street,02907,41.8129776,-71.4213728
358,Broad Street,02907,41.8136047,-71.4212066
280,Broad Street,02907,41.8149466,-71.4202025
307,Broad Street,02907,41.8146405,-71.4214237
315,Broad Street,02907,41.8145011,-71.4217330
12,Eagle Street,02908,41.8273779,-71.4352136
181,Brook Street,02906,41.8214579,-71.3983139
100,Hope Street,02906,41.8220325,-71.3967933
99,Hope Street,02906,41.8220777,-71.3964081
107,Hope Street,02906,41.8221701,-71.3964917
137,Waterman Street,02912,41.8271496,-71.3978139
133,Waterman Street,02912,41.8273664,-71.3980309
131,Waterman Street,02912,41.8273320,-71.3981716
129,Waterman Street,02912,41.8273231,-71.3983314
152,Governor Street,02906,41.8257257,-71.3940563
146;148,Governor Street,02906,41.8255562,-71.3941372
140,Governor Street,02906,41.8254116,-71.3941430
138,Governor Street,02906,41.8252694,-71.3942008
307,Allens Avenue,02905,41.8047319,-71.4024426
354,Admiral Street,02908,41.8455777,-71.4280317
373,Washington Street,02903,41.8187078,-71.4216538
49,Dyer Street,02903,41.8243773,-71.4088087
690,Hope Street,02906,41.8456418,-71.3969543
330,Eddy Street,02903,41.8187633,-71.4073906
170,George Street,02912,41.8260291,-71.3976011
390,Woodward Road,02904,41.8616111,-71.4350628
"196,198",Wayland Avenue,02906,41.8295918,-71.3883503
761,Hope Street,02906,41.8474865,-71.3954583
708,Hope Street,02906,41.8462913,-71.3966593
721,Hope Street,02906,41.8463465,-71.3961168
184,Hope Street,02912,41.8265440,-71.3978721
26,Ship Street,02903,41.8191371,-71.4085013
456,Branch Avenue,02904,41.8502749,-71.4205920
10,Park Row West,02093,41.8305836,-71.4118058
167,Gano Street,02906,41.8247799,-71.3899852
141,Pitman Street,02906,41.8255431,-71.3869637
29,East Transit Street,02906,41.8214944,-71.3924880
52,Trenton Street,02906,41.8212551,-71.3911427
45,Trenton Street,02906,41.8207084,-71.3913137
40,Westminster Street,02903,41.8249489,-71.4092131
50,Royal Little Drive,02904,41.8469963,-71.4142070
117-135,Dyer Street,02903,41.8232992,-71.4086140
225,Dyer Street,02903,41.8201703,-71.4087273
275,Elmwood Avenue,02907,41.8050570,-71.4259577
603,Broad Street,02907,41.8075987,-71.4206227
601,Broad Street,02907,41.8077205,-71.4206916
595,Broad Street,02907,41.8079787,-71.4207349
222,Daboll Street,02907,41.8046501,-71.4286046
188,Princeton Avenue,02907,41.8047189,-71.4270341
84,Prospect Street,02912,41.8299373,-71.4056822
87,Prospect Street,02912,41.8301053,-71.4047891
54,College Street,02903,41.8263103,-71.4059644
299,Broadway,02903,41.8204643,-71.4276436
157;159,Sutton Street,02903,41.8206202,-71.4278164
289,Broadway,02903,41.8205680,-71.4273313
10,Providence Place,02903,41.8267792,-71.4167097
178,Clifford Street,02903,41.8171911,-71.4124326
170,Clifford Street,02903,41.8176479,-71.4122431
166,Chestnut Street,02903,41.8181180,-71.4091384
60,Ship Street,02903,41.8189426,-71.4095612
219,Richmond Street,02903,41.8189898,-71.4091949
300,Weybosset Street,02903,41.8200514,-71.4138284
280,Richmond Street,02903,41.8184122,-71.4081958
79,Elm Street,02903,41.8174949,-71.4097600
90,Elm Street,02903,41.8170188,-71.4100883
16,Bassett Street,02903,41.8180719,-71.4107684
174,Clifford Street,02903,41.8175005,-71.4123680
65,Eddy Street,02903,41.8233262,-71.4130513
121,South Main Street,02903,41.8238627,-71.4069254
155,South Main Street,02903,41.8235494,-71.4066432
15,Park Row West,02903,41.8283388,-71.4137032
17,Benevolent Street,02912,41.8241784,-71.4030438
13,Benevolent Street,02912,41.8241714,-71.4033748
11,Benevolent Street,02912,41.8241637,-71.4036924
1,Empire Street,02903,41.8214075,-71.4163231
1,West Exchange Street,02903,41.8251516,-71.4152963
40,Westminster Street,02903,41.8249327,-71.4091594
220,South Water Street,02903,41.8221555,-71.4054630
739,Hartford Avenue,02919,41.8200246,-71.4699899
1718,Westminster Street,02909,41.8156487,-71.4383446
165,Reservoir Avenue,02907,41.7917416,-71.4277253
51,King Philip Street,02909,41.8210561,-71.4650368
54,King Philip Street,02909,41.8213843,-71.4653682
48,King Philip Street,02909,41.8211100,-71.4654339
15;17,Winthrop Avenue,02908,41.8329844,-71.4512639
33,Winthrop Avenue,02908,41.8335155,-71.4514052
84,Harold Street,02908,41.8292611,-71.4387917
43,Winthrop Avenue,02908,41.8337995,-71.4514984
21;23,Winthrop Avenue,02908,41.8332018,-71.4513136
180,Pocasset Avenue,02909,41.8100960,-71.4543435
747-749,Atwells Avenue,02909,41.8248753,-71.4417172
25,Stella Street,02909,41.8204690,-71.4660190
20,Cathedral Avenue,02908,41.8439755,-71.4492535
53,King Philip Street,02909,41.8211834,-71.4650149
36,Kinfield Street,02909,41.8206962,-71.4646597
41,King Philip Street,02909,41.8207795,-71.4650673
36,King Philip Street,02909,41.8206842,-71.4655338
617,Hartford Avenue,02909,41.8197076,-71.4652826
22,Kinfield Street,02909,41.8201710,-71.4647272
18,King Philip Street,02909,41.8202055,-71.4657468
41,Stella Street,02909,41.8208915,-71.4658854
611,Hartford Avenue,02909,41.8197701,-71.4648090
37,King Philip Street,02909,41.8206491,-71.4650982
40,Kinfield Street,02909,41.8208456,-71.4646478
59,King Philip Street,02909,41.8213239,-71.4649471
25,Winthrop Avenue,02908,41.8333078,-71.4513412
29,Winthrop Avenue,02908,41.8334113,-71.4513918
5;7,Chalkstone Avenue,02908,41.8328539,-71.4512623
613,Hartford Avenue,02909,41.8197744,-71.4650817
47,Stella Street,02909,41.8210184,-71.4658811
150,Barbara Street,02909,41.8212315,-71.4644666
24,Kinfield Street,02909,41.8202818,-71.4647149
40,King Philip Street,02909,41.8208318,-71.4654848
44,Kinfield Street,02909,41.8209786,-71.4645457
11,King Philip Street,02909,41.8200068,-71.4652399
28,King Philip Street,02909,41.8204079,-71.4655567
1279,Chalkstone Avenue,02908,41.8326968,-71.4512043
28,Kinfield Street,02909,41.8204249,-71.4646957
30,King Philip Street,02909,41.8205627,-71.4655499
61,Stella Street,02909,41.8213742,-71.4657529
16,Kinfield Street,02909,41.8200016,-71.4647599
25,King Philip Street,02909,41.8202909,-71.4652229
37,Stella Street,02909,41.8208070,-71.4659245
621,Hartford Avenue,02909,41.8197087,-71.4654076
57,Stella Street,02909,41.8212247,-71.4657911
29,King Philip Street,02909,41.8204822,-71.4651509
1245,North Main Street,02904,41.8538441,-71.4003731
4,Mount Avenue,02906,41.8414016,-71.3887606
500,Angell Street,02906,41.8306809,-71.3872650
1060,Hope Street,02906,41.8560594,-71.3918661
125,Hillside Avenue,02906,41.8567212,-71.3940034
201,Charles Street,02904,41.8371777,-71.4121717
233,Veazie Street,2904-2118,41.8508767,-71.4337483
1003,Smith Street,02908,41.8425216,-71.4446710
711,Broad Street,02907,41.8045776,-71.4199138
93,Cranston Street,02907,41.8161590,-71.4241321
315,Academy Avenue,02908,41.8334313,-71.4440450
441,Prairie Avenue,2905-2028,41.8019977,-71.4136746
260,Dexter Street,02907,41.8092392,-71.4278872
1076,North Main Street,02904,41.8503487,-71.4037135
31,Candace Street,02908,41.8353735,-71.4221931
445,Hartford Avenue,02909,41.8187735,-71.4585222
1316,Broad Street,02905,41.7909600,-71.4055008
335,Prairie Avenue,02905,41.8050011,-71.4147923
529,Broad Street,02907,41.8096429,-71.4213717
18,South Angell Street,02906,41.8300899,-71.3872972
49,Elmwood Avenue,02907,41.8113761,-71.4234282
29,Elmwood Avenue,02907,41.8119448,-71.4229989
464,Broad Street,02907,41.8113528,-71.4209180
272,Carpenter Street,02909,41.8179699,-71.4279332
432,West Fountain Street,02903,41.8183976,-71.4239807
420,Broad Street,02907,41.8122008,-71.4213443
146;148,Taber Avenue,02912,41.8341836,-71.3928573
632,Hope Street,02906,41.8439455,-71.3977418
30,Halsey Street,02912,41.8338247,-71.4086236
13,Moore Street,02907,41.8050241,-71.4201310
248,Dexter Street,02907,41.8096512,-71.4281089
150;152;154,Taber Avenue,02912,41.8342981,-71.3928798
526,Broad Street,02907,41.8095697,-71.4207127
433,Lloyd Avenue,02906,41.8341217,-71.3900332
20,South Angell Street,02906,41.8300342,-71.3871343
50,Eaton Street,02918,41.8409342,-71.4292854
163,Isabella Avenue,02908,41.8496590,-71.4494060
97,Holden Street,02908,41.8313515,-71.4184425
919,Westminster Street,02903,41.8175497,-71.4234596
95,Cranston Street,02909,41.8165691,-71.4244430
342,Broad Street,02907,41.8138148,-71.4212237
60,Waterman Street,02912,41.8271613,-71.4052492
125,Clifford Street,02903,41.8194517,-71.4113100
550,Veazie Street,02904,41.8580233,-71.4338293
350,Wayland Avenue,02906,41.8341250,-71.3894332
23 1/2,Sheldon Street,02906,41.8196585,-71.4000926
450,Brook Street,02912,41.8296593,-71.3999917
103,Dike Street,02909,41.8160788,-71.4434124
58,Weybosset Street,02903,41.8238119,-71.4096456
91,Chestnut Street,02903,41.8186123,-71.4124098
57,Waterman Street,02912,41.8267302,-71.4051585
580,South Water Street,02903,41.8173278,-71.4001904
130,Angell Street,02906,41.8281872,-71.4022866
100,Mathewson Street,02903,41.8235714,-71.4149658
425,South Main Street,02903,41.8182577,-71.4004502
250,Brook Street,02912,41.8236377,-71.3990627
105,Benevolent Street,02912,41.8249504,-71.3966355
371,Richmond Street,02903,41.8169265,-71.4078055
514,Broadway,02909,41.8181598,-71.4353637
100,Charlesfield Street,02912,41.8238591,-71.3980625
555,South Main Street,02903,41.8178918,-71.4014819
1,Orms Street,02904,41.8356455,-71.4131656
112,Sessions Street,02912,41.8423207,-71.3942550
222,Richmond Street,02903,41.8188816,-71.4084680
235,Promenade Street,02908,41.8287510,-71.4192600
255,Promenade Street,02908,41.8294935,-71.4203969
8,Abbott Park Place,02903,41.8233664,-71.4179623
141-151,Thayer Street,02912,41.8252826,-71.4000460
10,Sims Avenue,02909,41.8270137,-71.4328688
204,Meeting Street,02912,41.8298116,-71.4014862
