House number,Street name,Postal code,Latitude,Longitude
8,улица Вишневского,248007,54.5347065,36.1702869
43,улица Маршала Жукова,248018,54.5188462,36.2912598
25А,улица Кирова,248001,54.5141937,36.2602190
25А,улица Кирова,248001,54.5141692,36.2603519
3,улица Степана Разина,248023,54.5112155,36.2741690
38,улица Фридриха Энгельса,248023,54.5115786,36.2761835
56,Тульская улица,248023,54.5105895,36.2764832
15А,улица Маршала Жукова,248000,54.5155954,36.2797450
4,Школьная улица,248901,54.5301387,36.1116101
1/20,улица Пушкина,248000,54.5123450,36.2430874
1,Автомобильная улица,248926,54.5721850,36.3628805
1,Тульское шоссе,248033,54.4964978,36.2298246
23,улица Фридриха Энгельса,248023,54.5114913,36.2769081
23,улица Фридриха Энгельса,248023,54.5114938,36.2769259
124,улица Ленина,248000,54.5069445,36.2537443
19,улица Глаголева,248023,54.5381378,36.2771343
25,улица Кирова,248001,54.5144363,36.2591691
5,площадь Старый Торг,248000,54.5081485,36.2502047
19 а,Звёздная улица,248031,54.5902281,36.2539384
23,улица Гурьянова,248029,54.5671553,36.2368932
38,Тульская улица,248023,54.5092932,36.2699098
10,улица Кубяка,248012,54.5772372,36.2511303
84,Тульская улица,248003,54.5117542,36.2822646
31,улица Тельмана,248910,54.5343600,36.2644487
56,Тульская улица,248023,54.5104167,36.2756107
5,улица Степана Разина,248023,54.5104101,36.2749573
1,Театральная улица,248001,54.5138364,36.2580248
38,улица Фридриха Энгельса,248023,54.5116553,36.2761450
3,улица Степана Разина,248023,54.5110659,36.2742676
3,улица Степана Разина,248023,54.5106940,36.2744800
3,улица Степана Разина,248023,54.5108749,36.2743737
67,Тульская улица,248023,54.5109838,36.2764760
67,Тульская улица,248023,54.5109345,36.2763380
38,улица Фридриха Энгельса,248023,54.5113837,36.2763038
23,улица Фридриха Энгельса,248023,54.5111609,36.2770623
67,Тульская улица,248023,54.5107345,36.2752440
56,Тульская улица,248023,54.5104754,36.2757671
3,улица Степана Разина,248023,54.5108102,36.2744070
87 к1,улица Болдина,248002,54.5016823,36.3096771
29,улица Кирова,248001,54.5145077,36.2623275
292,Московская улица,248017,54.5561504,36.2641195
36,Московская улица,248001,54.5149660,36.2614407
18,Московская улица,248000,54.5122076,36.2595852
9,Театральная улица,248000,54.5130522,36.2576781
25,Путейская улица,248000,54.5495641,36.2797047
4 к1,улица Труда,248030,54.5206514,36.2595743
9,Театральная улица,248000,54.5131341,36.2577111
7,улица Вишневского,248007,54.5345012,36.1710555
14,улица Вишневского,248007,54.5332752,36.1696416
21А,Тульская улица,248001,54.5104675,36.2683792
121 оф634,улица Суворова,248000,54.5164450,36.2598774
1,улица Гагарина,248000,54.5167535,36.2425990
12,улица Спартака,248033,54.4936609,36.2114752
23А,улица Болотникова,248018,54.5214233,36.2889175
8А,Грабцевское шоссе,248018,54.5201605,36.2826876
39А кК бокс1,улица Комсомольская Роща,248006,54.5429616,36.2610680
46,Зерновая улица,248600,54.5408383,36.3027146
7,площадь Старый Торг,248000,54.5083406,36.2517832
99,улица Степана Разина,248002,54.5004430,36.2809119
72,Хрустальная улица,248028,54.5216020,36.3111778
10,Ольговский переулок,248008,54.5708063,36.3144776
12А,Центральная улица,248031,54.5988051,36.2632738
1,улица Гагарина,248000,54.5161632,36.2425575
85,улица Болдина,248002,54.5010379,36.3067009
65/1,Московская улица,248001,54.5187164,36.2634245
58 к1,улица Дзержинского,248000,54.5122402,36.2584652
2А,улица Нефтебаза,248035,54.5429420,36.3236160
65,улица Гурьянова,248029,54.5658522,36.2255422
65,улица Гурьянова,248029,54.5653008,36.2250179
46,Зерновая улица,248600,54.5408775,36.3027152
45,улица Плеханова,248001,54.5163909,36.2483949
18,улица Плеханова,248030,54.5199291,36.2477275
11А,Привокзальная улица,248022,54.5371699,36.1273632
20,переулок Малинники,248025,54.5529563,36.2972729
33/75,улица Кирова,248001,54.5137111,36.2649740
4 этаж,улица Ленина,248016,54.5130941,36.2639206
20,переулок Малинники,248025,54.5529591,36.2971372
8А,переулок Малинники,248025,54.5537551,36.2939283
93,улица Никитина,248003,54.5089338,36.2886897
326,Московская улица,248017,54.5700686,36.2535558
24/50,улица Космонавта Комарова,248000,54.5113566,36.2367136
1,Театральная площадь,248001,54.5156872,36.2586344
4,улица Герцена,248030,54.5204628,36.2556065
34,улица Маршала Жукова,248018,54.5161628,36.2875279
139,Пролетарская улица,248016,54.5183471,36.2697725
136,улица Баррикад,248016,54.5188518,36.2701771
62,улица Ленина,248016,54.5192490,36.2668313
135,Пролетарская улица,248016,54.5185406,36.2683977
67,улица Ленина,248016,54.5159362,36.2658447
17,Дорожная улица,248031,54.5986870,36.2677093
15,Майская улица,248031,54.5990996,36.2676819
1,Дальняя улица,248031,54.5973878,36.2563999
9,Ольговский переулок,248008,54.5702548,36.3133089
1,Карачевская улица,248029,54.5652395,36.2396972
3,Карачевская улица,248029,54.5651244,36.2384093
5 к1,Карачевская улица,248029,54.5649581,36.2370727
5,улица Гурьянова,248029,54.5646514,36.2424864
5,Карачевская улица,248029,54.5648876,36.2357876
8,Привокзальная улица,248022,54.5395554,36.1302041
8 к2,Привокзальная улица,248022,54.5390423,36.1305815
5,улица Максима Горького,248016,54.5163656,36.2776619
7,улица Максима Горького,248016,54.5158493,36.2776662
8/2,площадь Победы,248600,54.5125454,36.2752306
5,улица Степана Разина,248023,54.5099809,36.2753623
7,улица Маршала Жукова,248018,54.5142531,36.2786445
59,улица Максима Горького,248003,54.5099824,36.2811124
9А,улица Кирова,248001,54.5162600,36.2493707
6,улица Луначарского,248019,54.5101148,36.2622273
23А,улица Кирова,248001,54.5150297,36.2570306
27,улица Вишневского,248007,54.5361399,36.1632539
3,Резванская улица,248007,54.5355351,36.1584311
25,улица Маршала Жукова,248018,54.5164482,36.2870506
27,улица Маршала Жукова,248018,54.5167349,36.2875619
11,улица Кирова,248001,54.5154373,36.2498175
9/7,улица Огарёва,248030,54.5193560,36.2535345
25А,улица Кирова,248001,54.5142091,36.2602234
116,улица Суворова,248001,54.5160314,36.2576530
30А,улица Кирова,248001,54.5139136,36.2533930
11/8,улица Огарёва,248030,54.5192098,36.2547354
19,улица Рылеева,248030,54.5187171,36.2528215
31,улица Герцена,248001,54.5158842,36.2563600
32 к1,улица Кирова,248001,54.5138628,36.2539401
118,улица Суворова,248001,54.5157639,36.2595805
44,Пролетарская улица,248030,54.5193420,36.2565448
25,улица Кирова,248001,54.5147164,36.2593976
3,улица Герцена,248030,54.5203027,36.2565043
1,улица Марата,248001,54.5140157,36.2524100
32 к2,улица Кирова,248001,54.5136810,36.2544822
9,улица Чижевского,248016,54.5178416,36.2685587
9,улица Фридриха Энгельса,248016,54.5160674,36.2751692
118,Пролетарская улица,248016,54.5173616,36.2749881
11,улица Чижевского,248016,54.5174963,36.2692804
13,улица Чижевского,248016,54.5176457,36.2702170
10/15,улица Луначарского,248000,54.5095850,36.2624118
116,Пролетарская улица,248016,54.5175608,36.2733543
155,Пролетарская улица,248016,54.5184876,36.2709605
5,улица Маршала Жукова,248023,54.5135664,36.2774585
43,улица Валентины Никитиной,248025,54.5474775,36.2978979
4/26,улица Максима Горького,248016,54.5159054,36.2769402
85,улица Ленина,248000,54.5109123,36.2613071
3,улица Маршала Жукова,248023,54.5133034,36.2761932
161,Пролетарская улица,248016,54.5181802,36.2738116
85,улица Ленина,248000,54.5107862,36.2619656
6,улица Луначарского,248000,54.5103762,36.2615124
140,улица Баррикад,248016,54.5185596,36.2728385
112,Пролетарская улица,248016,54.5179889,36.2694520
10,улица Максима Горького,248023,54.5138873,36.2780602
157,Пролетарская улица,248016,54.5184217,36.2716949
8,улица Радищева,248025,54.5469077,36.2942317
93,улица Ленина,248000,54.5101064,36.2606404
25,улица Чижевского,248016,54.5168847,36.2759712
32,улица Валентины Никитиной,248025,54.5480795,36.2956121
24,улица Чижевского,248016,54.5158898,36.2762813
23,улица Чижевского,248016,54.5168484,36.2748020
121,улица Баррикад,248016,54.5209291,36.2646843
125 к2,улица Баррикад,248016,54.5216595,36.2663977
55,улица Ленина,248016,54.5208442,36.2700680
40,улица Ленина,248016,54.5239696,36.2703356
123,улица Баррикад,248016,54.5208280,36.2656183
125 к1,улица Баррикад,248016,54.5214259,36.2660843
41,улица Ленина,248016,54.5231030,36.2711676
14,улица Карла Либкнехта,248021,54.5247144,36.2686945
113,Московская улица,248016,54.5221210,36.2649518
16,улица Карла Либкнехта,248021,54.5244511,36.2698680
18,улица Карла Либкнехта,248016,54.5239806,36.2718992
125,улица Баррикад,248016,54.5211088,36.2660408
48,улица Ленина,248016,54.5228288,36.2682918
53,улица Ленина,248016,54.5210958,36.2694082
10,улица Карла Либкнехта,248021,54.5245576,36.2676290
125,Московская улица,248021,54.5234112,36.2668563
129,Московская улица,248021,54.5247559,36.2667094
44,улица Ленина,248016,54.5229181,36.2696381
53 к2,улица Ленина,248016,54.5212824,36.2704095
42,улица Ленина,248016,54.5235292,36.2695248
127,улица Баррикад,248016,54.5207279,36.2664652
56А,улица Ленина,248016,54.5212106,36.2676934
39,улица Ленина,248016,54.5237475,36.2711638
121,Московская улица,248021,54.5230787,36.2661707
14А,улица Карла Либкнехта,248021,54.5240820,36.2691686
58 к1,улица Ленина,248016,54.5212578,36.2668598
115,Московская улица,248016,54.5219059,36.2658607
121 к1,Московская улица,248021,54.5229245,36.2670640
14 к1,улица Карла Либкнехта,248021,54.5235811,36.2682495
111,Московская улица,248016,54.5212449,36.2654105
127,Московская улица,248021,54.5240979,36.2666862
49,улица Ленина,248016,54.5219567,36.2712667
52,улица Ленина,248016,54.5218703,36.2677590
43,улица Ленина,248016,54.5226325,36.2703990
46,улица Ленина,248016,54.5223998,36.2689382
123,Московская улица,248021,54.5235993,36.2659625
56,улица Ленина,248016,54.5212803,36.2685471
8,улица Карла Либкнехта,248021,54.5249915,36.2673556
54,улица Ленина,248016,54.5218248,36.2685752
117,Московская улица,248016,54.5223917,36.2657078
40,улица Фридриха Энгельса,248023,54.5112001,36.2753785
38,улица Фридриха Энгельса,248023,54.5115961,36.2761120
6,улица Степана Разина,248023,54.5107291,36.2736535
4,улица Степана Разина,248023,54.5113567,36.2732970
3,улица Степана Разина,248023,54.5109523,36.2744171
9,площадь Победы,248023,54.5121644,36.2753484
67,Тульская улица,248023,54.5108877,36.2757911
49,Тульская улица,248023,54.5102844,36.2726359
22,улица Ленина,248016,54.5287792,36.2735407
35,улица Ленина,248016,54.5250841,36.2726779
24,улица Ленина,248016,54.5279908,36.2729954
31,улица Ленина,248016,54.5264536,36.2736438
25,улица Ленина,248016,54.5281453,36.2741584
50,улица Билибина,248021,54.5289784,36.2723189
33,улица Ленина,248016,54.5263367,36.2742426
29,улица Ленина,248016,54.5265785,36.2730969
27,улица Ленина,248016,54.5274418,36.2736219
26,улица Ленина,248016,54.5276839,36.2721900
37А,улица Ленина,248016,54.5256579,36.2724276
27 к1,улица Ленина,248016,54.5272336,36.2743181
32,улица Ленина,248016,54.5268422,36.2716393
48,улица Билибина,248021,54.5291026,36.2716656
159,Пролетарская улица,248016,54.5180578,36.2726506
124,улица Баррикад,248016,54.5196595,36.2645288
137,улица Баррикад,248016,54.5196341,36.2717174
61/5,улица Ленина,248016,54.5179885,36.2673222
65/1,Московская улица,248001,54.5184291,36.2637454
66/3,улица Ленина,248016,54.5181482,36.2664097
73 к1,улица Ленина,248001,54.5141627,36.2661649
139,улица Баррикад,248016,54.5190298,36.2721981
33,улица Поле Свободы,248021,54.5281309,36.2661804
182,Московская улица,248021,54.5277718,36.2678167
7,Окружная улица,248021,54.5292090,36.2633387
8,Окружная улица,248021,54.5295706,36.2624594
131,Московская улица,248021,54.5259608,36.2675213
43 к2,улица Пухова,248021,54.5281737,36.2628659
4,улица Билибина,248021,54.5306070,36.2634744
11,улица Карла Либкнехта,248021,54.5258552,36.2697572
11,Телевизионная улица,248010,54.5313372,36.2616453
2,улица Билибина,248021,54.5313031,36.2628394
191,Московская улица,248021,54.5278361,36.2688252
17,улица Карла Либкнехта,248021,54.5248015,36.2702383
195,Московская улица,248021,54.5285738,36.2693073
197,Московская улица,248021,54.5294509,36.2699191
193 к1,Московская улица,248021,54.5284566,36.2699119
10,Окружная улица,248021,54.5306809,36.2624500
6,Окружная улица,248021,54.5297179,36.2631130
193 к2,Московская улица,248021,54.5280731,36.2698372
43 к1,улица Пухова,248021,54.5276556,36.2635962
13,Телевизионная улица,248010,54.5308017,36.2616536
180,Московская улица,248021,54.5269371,36.2672912
184,Московская улица,248021,54.5288211,36.2685072
68/8,улица Ленина,248016,54.5174271,36.2656255
65,улица Ленина,248016,54.5164648,36.2666898
3,площадь Победы,248023,54.5142338,36.2725004
160,улица Суворова,248001,54.5147380,36.2701950
7,улица Чижевского,248016,54.5176434,36.2679182
71,Московская улица,248001,54.5193579,36.2638583
112 к1,Пролетарская улица,248016,54.5181293,36.2680742
133,Пролетарская улица,248016,54.5186550,36.2677575
44,улица Огарёва,248030,54.5183145,36.2587676
56,улица Кирова,248001,54.5134707,36.2606324
108,Грабцевское шоссе,248009,54.5367715,36.3088109
15,улица Маршала Жукова,248018,54.5146478,36.2812703
158,Грабцевское шоссе,248009,54.5315083,36.3103976
130,Грабцевское шоссе,248009,54.5350164,36.3092151
116,Грабцевское шоссе,248009,54.5361772,36.3097817
92,Тульская улица,248003,54.5113806,36.2846770
4,улица Стеклянников Сад,248018,54.5133715,36.2873664
151,улица Суворова,248016,54.5157137,36.2681078
3,улица Максима Горького,248018,54.5163793,36.2785212
45,улица Маяковского,248009,54.5284131,36.3094909
35/46,улица Кутузова,248000,54.5024665,36.2613709
88/36,Тульская улица,248003,54.5114906,36.2831030
18,улица Маршала Жукова,248018,54.5139537,36.2815481
154,Грабцевское шоссе,248009,54.5322580,36.3110710
11,улица Маршала Жукова,248018,54.5141562,36.2802117
44,улица Стеклянников Сад,248003,54.5132291,36.2895865
174,Грабцевское шоссе,248009,54.5383099,36.3137322
47,улица Маяковского,248009,54.5285321,36.3104163
165,Пролетарская улица,248016,54.5176307,36.2767267
9,улица Маршала Жукова,248018,54.5142868,36.2794427
2,Октябрьская улица,248000,54.5177010,36.2401360
11 к1,улица Маршала Жукова,248018,54.5147513,36.2798892
174,улица Суворова,248023,54.5146389,36.2722319
160,Грабцевское шоссе,248009,54.5304227,36.3101666
110,Грабцевское шоссе,248009,54.5373565,36.3087291
13,улица Маршала Жукова,248018,54.5145222,36.2806377
49,улица Маяковского,248009,54.5294470,36.3117903
134,Грабцевское шоссе,248009,54.5308771,36.3110231
13 к1,улица Маршала Жукова,248018,54.5151820,36.2800731
51,улица Маяковского,248009,54.5290217,36.3125153
83,улица Ленина,248000,54.5113696,36.2620003
116 к2,Грабцевское шоссе,248009,54.5364161,36.3105509
81,улица Поле Свободы,248021,54.5239084,36.2635546
130,Московская улица,248021,54.5247776,36.2648440
128,Московская улица,248021,54.5243598,36.2645744
77,улица Поле Свободы,248021,54.5247040,36.2640959
83,улица Поле Свободы,248021,54.5235567,36.2631130
126,Московская улица,248021,54.5241499,36.2654097
82,Московская улица,248021,54.5216762,36.2638403
79,улица Поле Свободы,248021,54.5243078,36.2638234
1,улица Чехова,248018,54.5159750,36.2883491
13,улица Чехова,248018,54.5169061,36.2929964
29,улица Маршала Жукова,248018,54.5171402,36.2882710
3,улица Чехова,248018,54.5162882,36.2895611
11,улица Чехова,248018,54.5171913,36.2922616
5,улица Чехова,248018,54.5164927,36.2907144
36,улица Маршала Жукова,248018,54.5164503,36.2880593
13А,улица Чехова,248018,54.5163685,36.2924843
12,улица Маршала Жукова,248023,54.5131124,36.2784908
103,Тульская улица,248003,54.5118849,36.2809470
19,улица Фридриха Энгельса,248023,54.5120975,36.2772891
6,улица Маршала Жукова,248023,54.5127497,36.2766885
10,улица Маршала Жукова,248023,54.5130488,36.2778510
121,Тульская улица,248003,54.5123619,36.2839386
4,улица Маршала Жукова,248023,54.5126724,36.2760658
8,улица Маршала Жукова,248023,54.5129183,36.2772379
23,улица Фридриха Энгельса,248023,54.5113877,36.2772088
21,улица Фридриха Энгельса,248023,54.5119511,36.2766079
69,Тульская улица,248023,54.5114487,36.2784939
10,улица Глаголева,248021,54.5346979,36.2721948
15,улица Глаголева,248021,54.5358146,36.2747997
211,Московская улица,248021,54.5331515,36.2710202
14,улица Глаголева,248021,54.5354696,36.2738532
6,улица Глаголева,248021,54.5340785,36.2717178
20,улица Глаголева,248021,54.5358598,36.2741611
7,улица Глаголева,248021,54.5331026,36.2723460
48 к1,улица Билибина,248021,54.5286540,36.2710423
12,улица Глаголева,248021,54.5351086,36.2734799
5,улица Глаголева,248021,54.5322767,36.2717153
11,улица Глаголева,248021,54.5346015,36.2736840
2,улица Глаголева,248021,54.5332317,36.2718215
4,улица Глаголева,248021,54.5339396,36.2724288
9,улица Глаголева,248021,54.5338877,36.2730359
8,улица Глаголева,248021,54.5345950,36.2730126
13,улица Глаголева,248021,54.5352652,36.2742993
2,улица Новая Стройка,248021,54.5333625,36.2669394
3,Литейная улица,248010,54.5326727,36.2636964
214,Московская улица,248021,54.5317886,36.2690977
5,Литейная улица,248010,54.5325420,36.2643468
41,улица Тельмана,248010,54.5322329,36.2622743
230,Московская улица,248021,54.5332063,36.2690936
17,улица Билибина,248010,54.5316468,36.2655771
234,Московская улица,248021,54.5342414,36.2679678
7,Литейная улица,248010,54.5324228,36.2649622
218,Московская улица,248021,54.5324753,36.2690906
39,улица Тельмана,248010,54.5328426,36.2627308
17 к1,улица Билибина,248010,54.5319667,36.2647068
19,улица Билибина,248010,54.5310901,36.2667609
225,Московская улица,248021,54.5356876,36.2704114
217,Московская улица,248021,54.5348338,36.2711605
80,Московская улица,248021,54.5212571,36.2634939
2/75,улица Карла Либкнехта,248021,54.5250584,36.2641522
21,улица Чижевского,248016,54.5171782,36.2739098
2,улица Константиновых,248018,54.5177540,36.2813906
6,улица Константиновых,248018,54.5187513,36.2815367
2,улица Болотникова,248018,54.5168917,36.2861482
57,улица Кирова,248000,54.5131680,36.2697492
13,Московская улица,248001,54.5127452,36.2612862
5,улица Марата,248001,54.5126437,36.2519756
66,улица Фридриха Энгельса,248023,54.5095523,36.2771953
31,улица Мичурина,248023,54.5097252,36.2791332
56,Тульская улица,248023,54.5104925,36.2761052
61,улица Фридриха Энгельса,248023,54.5102034,36.2775159
54,улица Максима Горького,248023,54.5098336,36.2803682
63,улица Фридриха Энгельса,248023,54.5094091,36.2779800
29,улица Мичурина,248023,54.5093618,36.2793477
64,улица Фридриха Энгельса,248023,54.5103249,36.2767593
1/46,улица Дзержинского,248000,54.5143036,36.2462460
19,Телевизионная улица,248010,54.5294062,36.2616951
47,улица Пухова,248021,54.5272795,36.2634027
39,улица Пухова,248021,54.5274359,36.2618408
25,Телевизионная улица,248010,54.5285863,36.2617257
17,Телевизионная улица,248010,54.5298598,36.2616629
51,улица Пухова,248021,54.5271720,36.2646797
45,улица Пухова,248021,54.5273203,36.2627468
6,улица Кирова,248000,54.5150809,36.2470469
6,улица Рылеева,248030,54.5197528,36.2525478
3,улица Плеханова,248030,54.5210194,36.2507418
51,улица Плеханова,248001,54.5148657,36.2477269
17,улица Дзержинского,248000,54.5136911,36.2492310
15,улица Дзержинского,248000,54.5138423,36.2479920
44,улица Рылеева,248001,54.5143879,36.2500533
46А,улица Рылеева,248001,54.5141706,36.2494168
18,улица Кирова,248001,54.5149078,36.2492334
110,улица Фридриха Энгельса,248002,54.5055873,36.2792546
77,Николо-Козинская улица,248002,54.5019815,36.2761703
64,улица Степана Разина,248002,54.5016972,36.2779573
79,Николо-Козинская улица,248002,54.5015336,36.2764704
32,улица Никитина,248002,54.5054021,36.2736716
67,улица Степана Разина,248002,54.5049729,36.2785738
36,улица Никитина,248002,54.5054811,36.2751744
54,улица Степана Разина,248002,54.5032990,36.2776262
71,Николо-Козинская улица,248002,54.5032745,36.2765864
50,улица Степана Разина,248002,54.5040604,36.2764094
65,улица Степана Разина,248002,54.5049896,36.2778949
34,улица Никитина,248002,54.5058636,36.2750239
58,улица Степана Разина,248002,54.5025190,36.2770633
73,Николо-Козинская улица,248002,54.5028813,36.2755248
61,Николо-Козинская улица,248002,54.5049736,36.2742674
69,улица Степана Разина,248002,54.5045514,36.2788410
75,Николо-Козинская улица,248002,54.5024329,36.2758164
65,Николо-Козинская улица,248002,54.5045964,36.2745160
52,улица Степана Разина,248002,54.5038579,36.2774299
60,улица Степана Разина,248002,54.5022840,36.2782182
44,улица Степана Разина,248002,54.5053255,36.2761938
56,улица Степана Разина,248002,54.5028075,36.2780367
89,улица Ленина,248000,54.5106662,36.2608078
80,улица Фридриха Энгельса,248002,54.5073547,36.2785322
25,Театральная улица,248000,54.5108151,36.2565072
65,улица Никитина,248002,54.5067410,36.2773703
47,улица Степана Разина,248002,54.5070748,36.2766376
67,улица Никитина,248002,54.5069017,36.2781541
104,улица Ленина,248610,54.5086657,36.2565495
88/1,улица Ленина,248000,54.5108707,36.2603718
78,улица Фридриха Энгельса,248002,54.5084198,36.2779066
87,улица Ленина,248000,54.5107875,36.2609798
86А,улица Ленина,248000,54.5110648,36.2606921
67А,улица Никитина,248002,54.5077393,36.2776343
67,улица Максима Горького,248002,54.5066487,36.2839786
46 к1,улица Достоевского,248000,54.5105042,36.2576885
18,улица Дарвина,248000,54.5092648,36.2565386
29,Театральная улица,248000,54.5104707,36.2559905
86,улица Ленина,248000,54.5112047,36.2609104
4,Паровозный переулок,248016,54.5200878,36.2724482
62А,улица Никитина,248002,54.5066174,36.2804148
125Б,улица Никитина,248003,54.5120399,36.2984628
12,улица Мичурина,248023,54.5079357,36.2741484
91,улица Фридриха Энгельса,248002,54.5076526,36.2792847
123,улица Никитина,248003,54.5114312,36.2979991
10,улица Мичурина,248023,54.5076881,36.2727750
155,улица Баррикад,248016,54.5194390,36.2746922
58,улица Максима Горького,248003,54.5086587,36.2802545
157,улица Баррикад,248016,54.5187083,36.2748905
89,улица Фридриха Энгельса,248002,54.5084188,36.2790117
149,улица Баррикад,248016,54.5195040,36.2731072
36,улица Степана Разина,248002,54.5077646,36.2751774
55,Николо-Козинская улица,248002,54.5071192,36.2724752
36,улица Мичурина,248003,54.5090665,36.2800346
57,Николо-Козинская улица,248002,54.5062560,36.2729941
47,улица Никитина,248002,54.5060503,36.2740067
161,улица Баррикад,248016,54.5187160,36.2759358
143,улица Фридриха Энгельса,248002,54.5050317,36.2812905
40,улица Степана Разина,248002,54.5066934,36.2757852
159,улица Баррикад,248016,54.5192855,36.2755381
53,улица Никитина,248002,54.5062882,36.2752002
34,улица Мичурина,248003,54.5088322,36.2787778
56,улица Максима Горького,248003,54.5090025,36.2808390
49,улица Никитина,248002,54.5065249,36.2744093
13,улица Пестеля,248003,54.5105950,36.2847672
30 к1,1-й переулок Пестеля,248003,54.5106985,36.2882080
85А,улица Никитина,248003,54.5097094,36.2858693
8,Тульский переулок,248000,54.5086777,36.2688790
40,улица Мичурина,248003,54.5094018,36.2830619
38,улица Мичурина,248003,54.5094559,36.2820825
53,Телевизионная улица,248010,54.5226377,36.2606518
45,Телевизионная улица,248010,54.5238315,36.2610269
8,улица Баррикад,248016,54.5200069,36.2590089
43,Телевизионная улица,248010,54.5240947,36.2618980
38,улица Поле Свободы,248021,54.5224762,36.2615830
36,улица Поле Свободы,248021,54.5228382,36.2618818
34,улица Поле Свободы,248021,54.5232295,36.2621527
55,Телевизионная улица,248010,54.5224885,36.2610887
49,Телевизионная улица,248010,54.5234442,36.2608508
32,улица Поле Свободы,248021,54.5235991,36.2623969
51,Телевизионная улица,248010,54.5230664,36.2607466
47,Телевизионная улица,248010,54.5237872,36.2617288
120,Московская улица,248021,54.5237049,36.2649440
84,Московская улица,248021,54.5223730,36.2640464
3,улица Калужского Ополчения,248031,54.6037906,36.2686468
3,переулок Пушкина,248000,54.5123619,36.2391002
20,Октябрьская улица,248000,54.5158854,36.2364709
17А,улица Дарвина,248000,54.5098717,36.2574481
7,площадь Старый Торг,248000,54.5083750,36.2517084
2,Воскресенский переулок,248000,54.5076302,36.2594942
33,улица Циолковского,248000,54.5139218,36.2357941
37,улица Циолковского,248000,54.5141225,36.2350778
47,улица Циолковского,248000,54.5133876,36.2339599
41,улица Циолковского,248000,54.5135263,36.2349552
62,улица Пестеля,248003,54.5094612,36.2839520
7,улица Пухова,248010,54.5284213,36.2515348
3,улица Пухова,248010,54.5293667,36.2508091
1,улица Пухова,248010,54.5282743,36.2497846
36,улица Рылеева,248001,54.5160951,36.2509022
5,улица Пухова,248010,54.5285000,36.2508901
2А,Телевизионная улица,248010,54.5395323,36.2632929
18,улица Чичерина,248010,54.5289788,36.2577527
8,Кооперативная улица,248010,54.5299569,36.2568216
39,Грабцевское шоссе,248009,54.5348987,36.2957818
2,Хрустальная улица,248000,54.5199408,36.2945986
22,Московская улица,248000,54.5128387,36.2604204
67,улица Максима Горького,248002,54.5064312,36.2848183
15,улица Чехова,248018,54.5171874,36.2936537
40,улица Маршала Жукова,248018,54.5171584,36.2897361
44,улица Маршала Жукова,248018,54.5173693,36.2906249
7,улица Декабристов,248000,54.5060792,36.2594242
51,улица Луначарского,248000,54.5041939,36.2623361
27,улица Подвойского,248000,54.5017886,36.2565345
93Б,улица Никитина,248003,54.5091994,36.2875062
13,Больничная улица,248003,54.5057940,36.2880909
89А,улица Никитина,248003,54.5086326,36.2867782
11,Больничная улица,248003,54.5062929,36.2877280
95А,улица Никитина,248003,54.5097091,36.2899270
61,улица Максима Горького,248003,54.5089593,36.2817005
91,улица Никитина,248003,54.5087578,36.2875159
17,Больничная улица,248003,54.5052819,36.2884871
15,Больничная улица,248003,54.5058606,36.2891419
3,Спортивная улица,248003,54.5054095,36.2897657
3А,улица Болдина,248003,54.5080577,36.2891287
93,улица Никитина,248003,54.5089284,36.2883458
11,улица Болдина,248003,54.5067706,36.2908683
5,улица Белинского,248003,54.5077072,36.2925374
10,улица Постовалова,248003,54.5083525,36.2940584
3,улица Белинского,248003,54.5075922,36.2919102
99,улица Степана Разина,248002,54.5006138,36.2817087
99,улица Степана Разина,248002,54.5004440,36.2809061
26,улица Добровольского,248000,54.5160622,36.2378216
24,улица Добровольского,248000,54.5156651,36.2371368
42,улица Плеханова,248001,54.5168730,36.2480410
38,улица Плеханова,248001,54.5174732,36.2483318
13,улица Гагарина,248000,54.5115347,36.2334635
9,улица Гагарина,248000,54.5128795,36.2371413
8А,улица Гагарина,248000,54.5123772,36.2377142
80,улица Плеханова,248000,54.5112332,36.2442921
55,улица Космонавта Комарова,248000,54.5091229,36.2444216
53,улица Космонавта Комарова,248000,54.5092905,36.2436084
61,улица Космонавта Комарова,248000,54.5099045,36.2446834
10/75,улица Пушкина,248000,54.5109435,36.2450257
82,улица Плеханова,248000,54.5112328,36.2433157
38,улица Вилонова,248000,54.5024364,36.2659336
18,Первомайская улица,248000,54.5034289,36.2656528
50,улица Дзержинского,248001,54.5125871,36.2558098
37,улица Дзержинского,248001,54.5131096,36.2552266
16,улица Декабристов,248000,54.5055043,36.2607105
48/24,улица Пухова,248010,54.5272999,36.2576498
33,Телевизионная улица,248010,54.5255820,36.2614762
31,улица Чичерина,248010,54.5264286,36.2585843
39,Телевизионная улица,248010,54.5247227,36.2612273
28,улица Чичерина,248010,54.5265320,36.2576844
26,улица Поле Свободы,248021,54.5248547,36.2632811
59,улица Ленина,248016,54.5188435,36.2678696
24А,улица Поле Свободы,248021,54.5254626,36.2629327
41,Телевизионная улица,248010,54.5242663,36.2612231
18,Азаровская улица,248017,54.5631387,36.2511208
58,улица Ленина,248016,54.5206938,36.2679498
115,улица Баррикад,248016,54.5199805,36.2649611
15,улица Чичерина,248010,54.5308514,36.2589649
23,улица Чичерина,248010,54.5287180,36.2587977
20,Телевизионная улица,248010,54.5293175,36.2608190
22,Телевизионная улица,248010,54.5288002,36.2607988
21,улица Чичерина,248010,54.5292777,36.2590341
50/27,улица Пухова,248010,54.5272557,36.2588679
16,Телевизионная улица,248010,54.5303681,36.2607594
29,улица Пухова,248010,54.5279295,36.2597409
2/7,улица Чичерина,248010,54.5337617,36.2582410
11,Социалистическая улица,248010,54.5338495,36.2567988
5,переулок Калинина,248010,54.5326016,36.2566157
28,переулок Чичерина,248010,54.5320648,36.2563976
9,переулок Калинина,248010,54.5331948,36.2570873
9,Социалистическая улица,248010,54.5339574,36.2576953
4,улица Бутомы,248021,54.5383303,36.2711192
250,Московская улица,248021,54.5384041,36.2687148
30/5,Линейная улица,248017,54.5521271,36.2700587
255,Московская улица,248017,54.5527539,36.2676371
28,Линейная улица,248017,54.5526481,36.2697590
293,Московская улица,248017,54.5666068,36.2591183
295 к1,Московская улица,248017,54.5666324,36.2602983
291 к2,Московская улица,248017,54.5651881,36.2609341
291 к3,Московская улица,248017,54.5651891,36.2600785
291 к1,Московская улица,248017,54.5657886,36.2604089
295,Московская улица,248017,54.5670416,36.2597384
1А,улица Чичерина,248010,54.5343492,36.2591209
42,улица Глаголева,248021,54.5404930,36.2790366
4,Социалистическая улица,248010,54.5342523,36.2600800
11,улица Чичерина,248010,54.5320840,36.2593967
2,Телевизионная улица,248010,54.5343501,36.2609737
1/5,улица Чичерина,248010,54.5337433,36.2591185
9,Переходная улица,248021,54.5375232,36.2730720
7,Переходная улица,248021,54.5376158,36.2725356
2/13,Инженерная улица,248021,54.5375284,36.2742961
11/1,Переходная улица,248021,54.5375229,36.2736640
63,улица Кирова,248001,54.5132436,36.2710397
63,улица Кирова,248001,54.5130549,36.2710340
12,улица Декабристов,248000,54.5056970,36.2600113
4,улица Кутузова,248000,54.5054493,36.2550483
17,улица Дарвина,248000,54.5101743,36.2570975
9,улица Вилонова,248000,54.5044544,36.2586383
9,Григоров переулок,248001,54.5068892,36.2605028
25,улица Кутузова,248000,54.5034760,36.2594072
62,улица Луначарского,248000,54.5008123,36.2603602
7,Знаменская улица,248002,54.4996556,36.2635715
44,улица Суворова,248001,54.5179456,36.2428403
8В,Тульский переулок,248000,54.5091043,36.2676857
8Б,Тульский переулок,248000,54.5088856,36.2676646
274,Московская улица,248021,54.5457917,36.2688790
276,Московская улица,248021,54.5461339,36.2688659
5,бульвар Моторостроителей,248017,54.5651803,36.2675409
4А,бульвар Энтузиастов,248017,54.5694916,36.2698094
1,бульвар Моторостроителей,248017,54.5652488,36.2691567
7,бульвар Моторостроителей,248017,54.5659182,36.2671215
9,бульвар Моторостроителей,248017,54.5658803,36.2680071
3,бульвар Моторостроителей,248017,54.5647204,36.2681900
12,бульвар Моторостроителей,248017,54.5666179,36.2693205
17,улица Суворова,248001,54.5187758,36.2404243
19,улица Суворова,248001,54.5190300,36.2411789
56,Хрустальная улица,248028,54.5213506,36.3107496
32,Новаторская улица,248009,54.5287609,36.3031755
33,Хрустальная улица,248028,54.5220830,36.3031536
54,Хрустальная улица,248028,54.5218658,36.3099426
72,Хрустальная улица,248028,54.5217630,36.3112602
58,Хрустальная улица,248028,54.5212526,36.3099392
50,Хрустальная улица,248028,54.5219718,36.3087615
60,Хрустальная улица,248028,54.5212459,36.3090275
66,Хрустальная улица,248028,54.5202334,36.3104987
13,Новаторская улица,248009,54.5292788,36.3024403
52,Хрустальная улица,248028,54.5223245,36.3097565
68,Хрустальная улица,248028,54.5218548,36.3119349
57,Заводская улица,248018,54.5196602,36.3017517
74,Хрустальная улица,248028,54.5198285,36.3100576
62,Хрустальная улица,248028,54.5205164,36.3092631
70,Хрустальная улица,248028,54.5212288,36.3115872
35,Хрустальная улица,248028,54.5221852,36.3041671
26,Стекольная улица,248028,54.5221994,36.3019393
64,Хрустальная улица,248028,54.5206874,36.3103413
15,улица Болотникова,248018,54.5188144,36.2859955
7,улица Гурьянова,248029,54.5653573,36.2426909
17,улица Гурьянова,248029,54.5664986,36.2384548
10,Карачевская улица,248029,54.5658171,36.2380264
19,улица Гурьянова,248029,54.5668615,36.2384732
15,улица Гурьянова,248029,54.5666774,36.2391136
9,улица Гурьянова,248029,54.5657268,36.2420779
8,Карачевская улица,248029,54.5661070,36.2383315
6,Карачевская улица,248029,54.5661852,36.2390417
13,улица Гурьянова,248029,54.5665408,36.2409291
11,улица Гурьянова,248029,54.5661637,36.2414933
23,улица Постовалова,248003,54.5093710,36.2951369
104,улица Никитина,248003,54.5097447,36.2957983
25,улица Постовалова,248003,54.5096931,36.2968061
68,улица Салтыкова-Щедрина,248002,54.4986574,36.2802096
106,улица Никитина,248003,54.5101496,36.2965676
108,улица Никитина,248003,54.5100961,36.2975809
81,улица Салтыкова-Щедрина,248002,54.4994633,36.2742476
79,улица Салтыкова-Щедрина,248000,54.4995612,36.2735400
71,улица Салтыкова-Щедрина,248002,54.4997319,36.2727707
116,Николо-Козинская улица,248002,54.4995040,36.2764618
133,Николо-Козинская улица,248002,54.4982711,36.2772784
9,улица Генерала Попова,248033,54.4915687,36.2171515
4,улица Георгия Димитрова,248033,54.4934705,36.2138817
6,Академическая улица,248033,54.4911381,36.2193627
8,улица Генерала Попова,248033,54.4929198,36.2153851
14/1,улица Генерала Попова,248033,54.4917854,36.2110539
9,улица Спартака,248033,54.4934806,36.2105668
16/10,Старичков переулок,248000,54.5090529,36.2622950
30,Театральная улица,248000,54.5106979,36.2553140
3,улица Чебышева,248000,54.5110941,36.2548561
48,Московская улица,248001,54.5158191,36.2618355
123/50,улица Суворова,248001,54.5162604,36.2617839
8,улица Вишневского,248007,54.5349214,36.1705420
23А,улица Вишневского,248007,54.5365195,36.1674572
160А,Московская улица,248021,54.5265972,36.2664282
104,улица Суворова,248001,54.5166265,36.2553568
3,Инженерная улица,248021,54.5378299,36.2736991
6,Рубежная улица,248032,54.5252723,36.2481248
8,Рубежная улица,248010,54.5253054,36.2476173
30,Знаменская улица,248002,54.4985437,36.2669496
5,Знаменская улица,248002,54.4997954,36.2628625
29,улица Чичерина,248010,54.5268916,36.2586295
58,улица Салтыкова-Щедрина,248002,54.4990394,36.2740611
56,улица Салтыкова-Щедрина,248002,54.4992053,36.2735531
63,Знаменская улица,248002,54.4986394,36.2740776
54,улица Салтыкова-Щедрина,248002,54.4992930,36.2730136
53,улица Гурьянова,248029,54.5675547,36.2302576
23,Карачевская улица,248029,54.5648394,36.2297006
51,улица Гурьянова,248029,54.5680123,36.2304594
12,Карачевская улица,248029,54.5658375,36.2369425
45,улица Гурьянова,248029,54.5675143,36.2322013
11,Карачевская улица,248029,54.5646225,36.2326658
9,Карачевская улица,248029,54.5642425,36.2333687
57 к4,улица Гурьянова,248029,54.5663692,36.2288299
41,улица Гурьянова,248029,54.5674005,36.2329313
17,Карачевская улица,248029,54.5647369,36.2311742
14,Карачевская улица,248029,54.5664153,36.2367014
33,улица Гурьянова,248029,54.5671466,36.2343933
49,улица Гурьянова,248029,54.5676384,36.2314042
37,улица Гурьянова,248029,54.5672831,36.2336566
25,улица Гурьянова,248029,54.5667741,36.2368143
15,Карачевская улица,248029,54.5647452,36.2319136
43,улица Гурьянова,248029,54.5667390,36.2322192
23,улица Гурьянова,248029,54.5670536,36.2370863
21,Карачевская улица,248029,54.5646251,36.2303705
21,улица Гурьянова,248029,54.5669554,36.2377541
47,улица Гурьянова,248029,54.5668271,36.2314803
39,улица Гурьянова,248029,54.5666354,36.2329618
25,Карачевская улица,248029,54.5656361,36.2303296
27,улица Гурьянова,248029,54.5670605,36.2361312
7,Карачевская улица,248029,54.5646353,36.2344078
13,Карачевская улица,248029,54.5641246,36.2322451
19 к2,Карачевская улица,248029,54.5637254,36.2310183
29,улица Гурьянова,248029,54.5669609,36.2352274
19 к1,Карачевская улица,248029,54.5640935,36.2308704
31,улица Гурьянова,248029,54.5673393,36.2351963
8,улица Гурьянова,248029,54.5672264,36.2405993
6 к1,улица Гурьянова,248029,54.5679881,36.2413051
12,улица Гурьянова,248029,54.5680446,36.2352580
10 к2,улица Гурьянова,248029,54.5684465,36.2372850
14 к3,улица Гурьянова,248029,54.5694111,36.2340993
8 к1,улица Гурьянова,248029,54.5677501,36.2403706
14,улица Гурьянова,248029,54.5681788,36.2335775
16 к1,улица Гурьянова,248029,54.5688460,36.2329371
14 к2,улица Гурьянова,248029,54.5689763,36.2339078
10,улица Гурьянова,248029,54.5677374,36.2373542
18,улица Гурьянова,248029,54.5686290,36.2307083
12 к2,улица Гурьянова,248029,54.5685527,36.2356955
16,улица Гурьянова,248029,54.5684065,36.2320917
18 к1,улица Гурьянова,248029,54.5688710,36.2317497
6,улица Гурьянова,248029,54.5674814,36.2415046
20,улица Гурьянова,248029,54.5690479,36.2302971
14Б,улица Гурьянова,248029,54.5689500,36.2360602
14 к1,улица Гурьянова,248029,54.5687221,36.2347012
28,улица Поле Свободы,248021,54.5244307,36.2629694
59 к4,улица Гурьянова,248029,54.5664476,36.2275589
63А,улица Гурьянова,248029,54.5663198,36.2257430
18 к2,улица Гурьянова,248029,54.5693120,36.2320105
23 к1,Карачевская улица,248029,54.5644860,36.2284029
59 к3,улица Гурьянова,248029,54.5671551,36.2270688
67,улица Гурьянова,248029,54.5679101,36.2259658
61А,улица Гурьянова,248029,54.5667694,36.2263679
15,Рубежная улица,248032,54.5250364,36.2454335
61Б,улица Гурьянова,248029,54.5667876,36.2257390
59 к2,улица Гурьянова,248029,54.5674963,36.2273631
63,улица Гурьянова,248029,54.5662080,36.2268299
27/25,улица Пухова,248010,54.5279672,36.2589849
24,улица Гурьянова,248029,54.5691909,36.2293136
59 к1,улица Гурьянова,248029,54.5678803,36.2274804
61,улица Гурьянова,248029,54.5667692,36.2270495
19,Рубежная улица,248010,54.5251330,36.2444566
65 пом1А,улица Гурьянова,248029,54.5657653,36.2256361
26,улица Гурьянова,248029,54.5691598,36.2285405
83,Грабцевское шоссе,248035,54.5452426,36.3221632
79,Грабцевское шоссе,248035,54.5443061,36.3238592
77,Грабцевское шоссе,248035,54.5444878,36.3225964
81,Грабцевское шоссе,248035,54.5448868,36.3230592
4,переулок Баррикад,248018,54.5209946,36.2764004
23 к1,улица Ленина,248016,54.5279673,36.2794704
35,Грабцевское шоссе,248009,54.5323490,36.2929179
34,Грабцевское шоссе,248009,54.5285796,36.2955132
34А,Грабцевское шоссе,248009,54.5290733,36.2956424
2,Молодёжная улица,248009,54.5297582,36.2960781
6,Молодёжная улица,248009,54.5298001,36.2972820
4,Молодёжная улица,248009,54.5297824,36.2966852
20,Проезжая улица,248009,54.5271020,36.2976309
4,Моторная улица,248009,54.5290608,36.2998475
1,улица Клюквина,248009,54.5295931,36.3013078
23,Проезжая улица,248009,54.5271779,36.2967395
36/1,Грабцевское шоссе,248009,54.5301681,36.2958667
9,улица Маяковского,248009,54.5264965,36.2984462
3,Молодёжная улица,248009,54.5300817,36.2964338
22,улица Чижевского,248016,54.5163181,36.2758640
40,Грабцевское шоссе,248009,54.5315536,36.2966512
46,Грабцевское шоссе,248009,54.5327894,36.2961512
60,Грабцевское шоссе,248009,54.5340007,36.2953741
3,улица Клюквина,248009,54.5309983,36.3011496
13/7,Моторная улица,248009,54.5325108,36.2985205
50,Грабцевское шоссе,248009,54.5330559,36.2964587
1/44,улица Платова,248009,54.5323952,36.2959951
20,Моторная улица,248009,54.5307855,36.2995210
11/10,Моторная улица,248009,54.5317608,36.2987813
27,улица Клюквина,248009,54.5333731,36.3007154
64,Грабцевское шоссе,248009,54.5341057,36.2962856
56,Грабцевское шоссе,248009,54.5332041,36.2954402
66,Грабцевское шоссе,248009,54.5338569,36.2963663
58,Грабцевское шоссе,248009,54.5335677,36.2954107
19,Моторная улица,248009,54.5337170,36.2985451
15,Моторная улица,248009,54.5329671,36.2986543
54,Грабцевское шоссе,248009,54.5334468,36.2960743
7/7,Моторная улица,248009,54.5303813,36.2989457
9,Моторная улица,248009,54.5310398,36.2988695
6,улица Платова,248009,54.5317062,36.2973959
30А,Моторная улица,248009,54.5314661,36.3000332
78,Грабцевское шоссе,248009,54.5341179,36.2985033
5,Молодёжная улица,248009,54.5304029,36.2975363
8,улица Платова,248009,54.5317412,36.2980915
4,улица Платова,248009,54.5319551,36.2965887
62,Грабцевское шоссе,248009,54.5340864,36.2958141
72,Грабцевское шоссе,248009,54.5341552,36.2977134
68,Грабцевское шоссе,248009,54.5338907,36.2969948
19/14,Молодёжная улица,248009,54.5305278,36.3022846
19,улица Клюквина,248009,54.5318666,36.3010269
36/15,Моторная улица,248009,54.5325454,36.2994822
13,Пригородная улица,248009,54.5316264,36.3021425
17,улица Платова,248009,54.5328023,36.3019104
90,Грабцевское шоссе,248009,54.5342723,36.3016328
41,улица Маяковского,248009,54.5281119,36.3062429
37,улица Маяковского,248009,54.5273146,36.3057295
88,Грабцевское шоссе,248009,54.5342818,36.3003619
39,улица Маяковского,248009,54.5276815,36.3064148
11,Пригородная улица,248009,54.5309367,36.3022751
29,Пригородная улица,248009,54.5341897,36.3034972
22,улица Платова,248009,54.5319304,36.3020514
30,улица Клюквина,248009,54.5336274,36.3013007
15,улица Платова,248009,54.5325952,36.3004909
40,улица Платова,248009,54.5322372,36.3048833
26,территория Психбольницы,248009,54.5308940,36.3199284
24,территория Психбольницы,248009,54.5305221,36.3192545
23,территория Психбольницы,248009,54.5302474,36.3191207
3Б,Шахтёрская улица,249850,54.5285820,36.0163907
1,Шахтёрская улица,249850,54.5278536,36.0173298
3А,Шахтёрская улица,249850,54.5283248,36.0167362
2,улица Мира,248903,54.5283788,36.0209215
3,Куровская улица,249850,54.5300599,36.0149181
3В,Шахтёрская улица,249850,54.5286490,36.0169268
1А,улица Мира,248903,54.5280848,36.0192912
16,улица Мира,248903,54.5314683,36.0195206
22,улица Мира,248903,54.5327007,36.0190452
26,улица Мира,248903,54.5351573,36.0184716
20,улица Мира,248903,54.5322360,36.0192027
17,улица Мира,248903,54.5318244,36.0187082
2,проезд Мира,248001,54.5328892,36.0196877
14,улица Кубяка,248012,54.5769292,36.2495809
18,улица Кубяка,248012,54.5773703,36.2488605
16,улица Кубяка,248012,54.5778455,36.2493453
8,улица Кубяка,248012,54.5777004,36.2518947
6,улица Кубяка,248012,54.5781183,36.2526297
12,улица Кубяка,248012,54.5775520,36.2503184
10,улица Кубяка,248012,54.5776269,36.2511183
4,улица Кубяка,248012,54.5772366,36.2529268
2,улица Кубяка,248012,54.5777648,36.2536702
5,улица Кибальчича,248012,54.5826244,36.2507605
4,Малоярославецкая улица,248012,54.5794809,36.2521514
16,Малоярославецкая улица,248012,54.5800467,36.2490818
22,улица Кибальчича,248012,54.5827209,36.2478262
9,улица Кибальчича,248012,54.5812869,36.2484889
4,улица Кибальчича,248012,54.5830543,36.2502679
5,Малоярославецкая улица,248012,54.5786351,36.2503237
8,Малоярославецкая улица,248012,54.5798096,36.2510769
6,Малоярославецкая улица,248012,54.5805299,36.2517513
14,Малоярославецкая улица,248012,54.5798145,36.2501169
5,улица Кубяка,248012,54.5763153,36.2515964
2,Малоярославецкая улица,248012,54.5800845,36.2527859
15,улица Кибальчича,248012,54.5814759,36.2474418
9 к4,улица Кубяка,248012,54.5753043,36.2484223
24,улица Кибальчича,248012,54.5826254,36.2463977
3,Малоярославецкая улица,248012,54.5787659,36.2516974
11,улица Кибальчича,248012,54.5817612,36.2492063
1,Малоярославецкая улица,248012,54.5788649,36.2530260
12,Малоярославецкая улица,248012,54.5792375,36.2493713
9 к2,улица Кубяка,248012,54.5752805,36.2504048
1,улица Кибальчича,248012,54.5815890,36.2512396
20,улица Кибальчича,248012,54.5827922,36.2484172
3,улица Кибальчича,248012,54.5822208,36.2517959
7,улица Кибальчича,248012,54.5820345,36.2500710
28,улица Кибальчича,248012,54.5834891,36.2459026
26,улица Кибальчича,248012,54.5829281,36.2454285
13,улица Кубяка,248012,54.5761232,36.2490837
10,Малоярославецкая улица,248012,54.5795866,36.2483135
11,улица Кубяка,248012,54.5761119,36.2497354
13,улица Кибальчича,248012,54.5821996,36.2480563
7,улица Кубяка,248012,54.5764331,36.2505648
309 к1,Московская улица,248012,54.5769080,36.2598777
4,улица Учхоз,248012,54.5759579,36.2667874
3,улица Учхоз,248012,54.5758196,36.2678254
8А,улица Учхоз,248012,54.5762001,36.2679594
25,территория Психбольницы,248009,54.5290088,36.3176835
12,улица Дубрава,248009,54.5446614,36.3325059
1,Школьная улица,248901,54.5275006,36.1080582
3,Школьная улица,248901,54.5280006,36.1087339
2,Школьная улица,248901,54.5278792,36.1068585
4,Школьная улица,248901,54.5301585,36.1114048
1,Буровая улица,248901,54.5291781,36.1097357
3,Буровая улица,248901,54.5295332,36.1101936
5,Буровая улица,248901,54.5301060,36.1106632
9,Школьная улица,248901,54.5302131,36.1124982
11,Школьная улица,248901,54.5305489,36.1130164
7,Буровая улица,248901,54.5307836,36.1113172
5,Школьная улица,248901,54.5295018,36.1115717
15А,Школьная улица,248901,54.5315191,36.1122823
9,Буровая улица,248901,54.5311856,36.1115449
7,Школьная улица,248901,54.5298557,36.1120775
4/1,улица Льва Толстого,248032,54.5133107,36.3508041
30,улица Льва Толстого,248032,54.5136293,36.3515724
37,улица Льва Толстого,248032,54.5126964,36.3544181
39,улица Льва Толстого,248032,54.5130942,36.3553906
35 к1,улица Льва Толстого,248032,54.5141987,36.3546135
41,улица Льва Толстого,248032,54.5129831,36.3566804
29,улица Льва Толстого,248032,54.5130975,36.3527129
31,улица Льва Толстого,248032,54.5143322,36.3526400
10,Тульское шоссе,248033,54.4835087,36.2283685
9,Одоевское шоссе,248033,54.4758798,36.2626212
11,Одоевское шоссе,248033,54.4755666,36.2625012
25,2-й Академический проезд,248033,54.4800630,36.2209130
7,Одоевское шоссе,248033,54.4760555,36.2619772
14,Звёздная улица,248031,54.5916828,36.2530138
19,Звёздная улица,248031,54.5898887,36.2535630
21,Звёздная улица,248031,54.5903622,36.2531544
11,Звёздная улица,248031,54.5909660,36.2541937
1,Звёздная улица,248031,54.5919509,36.2540709
6,площадь Первых Космонавтов,248031,54.5929460,36.2532254
13,Звёздная улица,248031,54.5914353,36.2537905
5,Звёздная улица,248031,54.5928921,36.2545925
22,Звёздная улица,248031,54.5906249,36.2524169
6,Звёздная улица,248031,54.5931459,36.2538872
12,Звёздная улица,248031,54.5912997,36.2543565
3,Звёздная улица,248031,54.5923059,36.2549411
4,Звёздная улица,248031,54.5927578,36.2551615
2,Звёздная улица,248031,54.5918681,36.2546492
20,Звёздная улица,248031,54.5906461,36.2539676
28,Звёздная улица,248031,54.5890293,36.2523834
29,Звёздная улица,248031,54.5892876,36.2516744
29,Дальняя улица,248031,54.6069039,36.2631537
315 к4,Московская улица,248012,54.5817141,36.2558277
12,Терепецкая улица,248017,54.5679481,36.2554096
315 к5,Московская улица,248012,54.5815949,36.2550020
315 к3,Московская улица,248012,54.5818912,36.2566054
9,Терепецкая улица,248017,54.5687434,36.2541203
315 к1,Московская улица,248012,54.5825199,36.2556132
315 к2,Московская улица,248012,54.5825947,36.2562542
313А,Московская улица,248012,54.5830409,36.2545584
11 к1,Терепецкая улица,248017,54.5679282,36.2541066
315 к6,Московская улица,248012,54.5823683,36.2546996
11 к2,Терепецкая улица,248017,54.5680657,36.2535778
6,Гвардейская улица,248032,54.5067520,36.3177252
7,Гвардейская улица,248032,54.5072999,36.3175211
10,Промежуточная улица,248032,54.5121556,36.3127475
11,улица Первых Коммунаров,248032,54.5133027,36.3128223
9,Промежуточная улица,248032,54.5125308,36.3127332
1,Гвардейская улица,248032,54.5132921,36.3163145
2,Гвардейская улица,248032,54.5124116,36.3166105
9,Гвардейская улица,248032,54.5089326,36.3181219
4,Гвардейская улица,248032,54.5134204,36.3175796
5,Гвардейская улица,248032,54.5122042,36.3160383
3,Гвардейская улица,248032,54.5125355,36.3178777
10,Гвардейская улица,248032,54.5098687,36.3177665
11,Гвардейская улица,248032,54.5101010,36.3164963
43 к2,Грабцевское шоссе,248009,54.5377776,36.2964224
14,Аэропортовская улица,248035,54.5528762,36.3489125
1,Аэропортовская улица,248035,54.5515867,36.3506589
12,Аэропортовская улица,248035,54.5512191,36.3487721
9,Аэропортовская улица,248035,54.5520751,36.3479230
2,Аэропортовская улица,248035,54.5521264,36.3501606
338А,Московская улица,248031,54.5871801,36.2490830
20,улица Пухова,248010,54.5276495,36.2515430
4,Высокая улица,248010,54.5287462,36.2497128
73,улица Плеханова,248000,54.5113804,36.2455439
10,Дорожная улица,248031,54.5981397,36.2650479
13,Центральная улица,248031,54.5982429,36.2641457
18,Центральная улица,248031,54.5977156,36.2627636
20,Центральная улица,248031,54.5971886,36.2623555
5,Комсомольская улица,248031,54.6013541,36.2654278
31,Дорожная улица,248031,54.5975641,36.2679703
33,Дорожная улица,248031,54.5969137,36.2688690
3,Центральная улица,248031,54.6000368,36.2656740
331,Московская улица,248031,54.5974116,36.2614813
8,Дорожная улица,248031,54.5987206,36.2655012
6,Майская улица,248031,54.5992550,36.2638048
13,Дорожная улица,248031,54.5968517,36.2660600
16,Центральная улица,248031,54.5983380,36.2632019
12А,Центральная улица,248031,54.5988081,36.2632611
9,Дорожная улица,248031,54.5970296,36.2653038
337,Московская улица,248031,54.5987595,36.2624626
345,Московская улица,248031,54.6014368,36.2644782
14,Центральная улица,248031,54.5986243,36.2638604
333,Московская улица,248031,54.5979394,36.2619112
8,Майская улица,248031,54.5987825,36.2647791
3,Майская улица,248031,54.5996175,36.2640659
18/2,Отбойная улица,248025,54.5523769,36.2836516
4,Врубовой переулок,248025,54.5531747,36.2834444
27,Театральная улица,248000,54.5108005,36.2570974
256А,Московская улица,248000,54.5411165,36.2683511
32,Театральная улица,248000,54.5104961,36.2549421
305,Московская улица,248012,54.5745469,36.2589244
144,улица Баррикад,248016,54.5181499,36.2762124
22,улица Луначарского,248000,54.5068920,36.2620918
13,улица Шахтёров,248025,54.5564262,36.2840714
11/23,улица Шахтёров,248025,54.5563787,36.2850120
14,Врубовая улица,248025,54.5555028,36.2837428
16/22,улица Шахтёров,248025,54.5562532,36.2829456
3,Забойная улица,248025,54.5568091,36.2839563
94,улица Ленина,248000,54.5099247,36.2589050
111,улица Ленина,248000,54.5080131,36.2566975
20/21,Врубовая улица,248025,54.5560578,36.2819292
45,Врубовая улица,248025,54.5558174,36.2801341
52,Тракторная улица,248008,54.5589277,36.2860098
23,улица Механизаторов,248008,54.5592663,36.2869807
72,Тарутинская улица,248008,54.5562893,36.2934092
21,улица Механизаторов,248008,54.5587588,36.2887377
49,Тракторная улица,248008,54.5588768,36.2852634
42,Тульский переулок,248002,54.5061762,36.2691836
171А,Тарутинская улица,248008,54.5634667,36.2960048
171 к1,Тарутинская улица,248008,54.5644590,36.2970320
171 к2,Тарутинская улица,248008,54.5649212,36.2963563
150,Грабцевское шоссе,248009,54.5334030,36.3095392
75,Грабцевское шоссе,248009,54.5434674,36.3217118
116 к1,Грабцевское шоссе,248009,54.5362962,36.3101699
292,Московская улица,248017,54.5561332,36.2640990
11,Линейная улица,248017,54.5529606,36.2702993
15,Строительный переулок,248017,54.5540304,36.2717140
24/9,Линейная улица,248017,54.5536119,36.2693185
6,Поселковый переулок,248017,54.5529620,36.2726998
17,Строительный переулок,248017,54.5543243,36.2718736
15,улица Калуга-Бор,248007,54.5189029,36.1914465
31,улица Калуга-Бор,248007,54.5237524,36.1701644
194 к1,Тарутинская улица,248008,54.5718298,36.3103524
200 к1,Тарутинская улица,248008,54.5723421,36.3115373
231 к3,Тарутинская улица,248008,54.5779179,36.3140065
10,Ольговский переулок,248008,54.5708224,36.3144846
5,улица Дружбы,248008,54.5706871,36.3157296
232,Тарутинская улица,248008,54.5796320,36.3136477
231 к1,Тарутинская улица,248008,54.5782402,36.3138502
202,Тарутинская улица,248008,54.5726455,36.3119858
231 к2,Тарутинская улица,248008,54.5782854,36.3145945
12 к1,Ольговская улица,248008,54.5711817,36.3112937
13,Ольговская улица,248008,54.5704728,36.3120175
14,Ольговская улица,248008,54.5706579,36.3101584
17,Ольговская улица,248008,54.5698924,36.3119769
186,Тарутинская улица,248008,54.5709095,36.3080732
188,Тарутинская улица,248008,54.5714490,36.3086719
19,Ольговская улица,248008,54.5699108,36.3109747
192 к1,Тарутинская улица,248008,54.5712854,36.3098539
5,Ольговская улица,248008,54.5714785,36.3122209
15,Ольговская улица,248008,54.5704963,36.3110181
7,улица Дружбы,248008,54.5699338,36.3138445
9,улица Дружбы,248008,54.5696306,36.3143751
11,Ольговский переулок,248008,54.5702598,36.3144140
12,улица Дружбы,248008,54.5673823,36.3137368
6,улица Дружбы,248008,54.5683152,36.3139104
186 к1,Тарутинская улица,248008,54.5706676,36.3088902
11,улица Дружбы,248008,54.5694911,36.3122305
17,улица Дружбы,248008,54.5691098,36.3136973
15,улица Дружбы,248008,54.5692185,36.3129565
12,Ольговская улица,248008,54.5712804,36.3107512
16,Ольговская улица,248008,54.5702344,36.3093379
13,улица Дружбы,248008,54.5695442,36.3133818
19,улица Дружбы,248008,54.5687083,36.3130579
321,Московская улица,248012,54.5865074,36.2544631
8А,переулок Малинники,248025,54.5537128,36.2938439
2,Промышленная улица,248025,54.5552714,36.2969195
8,Промышленная улица,248025,54.5569105,36.2980339
17,переулок Малинники,248025,54.5547193,36.2982691
9,переулок Малинники,248025,54.5544260,36.2962972
4,Промышленная улица,248025,54.5556175,36.2981797
6,Промышленная улица,248025,54.5562134,36.2975635
10,Промышленная улица,248025,54.5566577,36.2988288
20,Новослободская улица,248025,54.5578750,36.2979094
15,переулок Малинники,248025,54.5548170,36.2976439
4,Промышленная улица,248025,54.5553287,36.2977868
10,улица Космонавта Пацаева,248000,54.5104546,36.2523365
12,Лесная улица,248025,54.5493469,36.2940742
23 к2,улица Валентины Никитиной,248025,54.5509400,36.2966555
23 к1,улица Валентины Никитиной,248025,54.5507226,36.2970741
27,улица Валентины Никитиной,248025,54.5505257,36.2965291
33,улица Валентины Никитиной,248025,54.5505234,36.2981560
29А,улица Беляева,248002,54.4976220,36.2701260
25,Новослободская улица,248025,54.5601994,36.2978377
25,Новослободская улица,248025,54.5593346,36.2978450
25,Новослободская улица,248025,54.5597964,36.2983684
25,Новослободская улица,248025,54.5595670,36.2971932
38,улица Суворова,248001,54.5180807,36.2422569
46,улица Суворова,248001,54.5177454,36.2426713
9А,улица Кирова,248001,54.5159691,36.2492578
3,Калужская улица,248009,54.5236622,36.2965906
19,1-й переулок Пестеля,248003,54.5098710,36.2866662
55,улица Льва Толстого,248032,54.5140688,36.3517071
43,улица Льва Толстого,248032,54.5139543,36.3555923
5,Советская улица,248032,54.5149778,36.3325608
7,улица Льва Толстого,248032,54.5130395,36.3501727
4/2,улица Льва Толстого,248032,54.5128049,36.3511798
10А,Турынинская улица,248032,54.5155960,36.3403064
6,Советская улица,248032,54.5157488,36.3314915
104,Грабцевское шоссе,248009,54.5359232,36.3056064
10,Моторная улица,248009,54.5295850,36.3006912
33 с7,Грабцевское шоссе,248009,54.5277668,36.2928947
2 к1,Телевизионная улица,248010,54.5390203,36.2626963
43,улица Комсомольская Роща,248010,54.5441708,36.2665408
7,улица Курсантов,248926,54.5624784,36.3718173
1,улица Курсантов,248926,54.5626343,36.3743108
5,улица Курсантов,248926,54.5614525,36.3761380
10 к1,улица Гурьянова,248029,54.5681787,36.2375010
10 к3,улица Гурьянова,248029,54.5687076,36.2370799
4А,Дачная улица,248033,54.4866162,36.2465401
28,улица Генерала Попова,248033,54.4925090,36.2056666
67 к2,улица Гурьянова,248029,54.5669704,36.2240211
4/22,Новаторская улица,248009,54.5278913,36.2972590
11,улица Спартака,248033,54.4942585,36.2101185
11/1,улица Генерала Попова,248033,54.4913935,36.2163317
27,Усадебная улица,248031,54.5982850,36.2793676
31,Усадебная улица,248031,54.5980515,36.2802162
19,Усадебная улица,248031,54.5988613,36.2777990
38,Отбойная улица,248025,54.5530146,36.2808379
25,Дальняя улица,248031,54.6061711,36.2634904
27,Дальняя улица,248031,54.6064685,36.2627932
93,улица Ленина,248000,54.5099132,36.2607708
25,Старообрядческий переулок,248001,54.5088015,36.2665850
39 к1,улица Комсомольская Роща,248006,54.5439500,36.2642261
15,бульвар Моторостроителей,248017,54.5669846,36.2660078
27,Рубежная улица,248010,54.5253839,36.2420290
29,Рубежная улица,248010,54.5255784,36.2424463
9,Новая улица,248031,54.5957169,36.2855795
25,улица 65 лет Победы,248033,54.4869712,36.1986197
5,Азаровская улица,248017,54.5657578,36.2473368
107,Советская улица,248032,54.5137086,36.3582047
6,улица Калужка,248032,54.5133518,36.3795037
4,улица Калужка,248032,54.5132045,36.3787593
2,улица Калужка,248032,54.5129204,36.3779152
24А,улица Киёвка,248003,54.5122808,36.3075108
7,Хрустальная улица,248018,54.5210453,36.2969504
48,Грабцевское шоссе,248009,54.5327857,36.2954806
27,Пригородная улица,248008,54.5336349,36.3026567
12,улица Валентины Никитиной,248025,54.5508140,36.2954714
36,Промышленная улица,248025,54.5575686,36.2990041
8,Новослободская улица,248025,54.5561299,36.2962986
16,Новослободская улица,248025,54.5572266,36.2969722
18,Новослободская улица,248025,54.5575495,36.2972543
25,Новослободская улица,248025,54.5605495,36.2980502
18А,Звёздная улица,248031,54.5897013,36.2525365
23,Промышленная улица,248025,54.5580859,36.2986011
106,Грабцевское шоссе,248009,54.5352247,36.3058415
9 к6,улица Кубяка,248012,54.5746221,36.2508434
50/108,улица Никитина,248002,54.5061123,36.2791489
16А,улица Войкова,248002,54.5013786,36.2782058
91,улица Салтыкова-Щедрина,248002,54.4993667,36.2756694
1,Автомобильная улица,248926,54.5669996,36.3598607
2Б,Телевизионная улица,248000,54.5385047,36.2610416
13,улица Генерала Попова,248033,54.4912377,36.2147164
22,улица Георгия Димитрова,248033,54.4940851,36.2187141
20,улица Георгия Димитрова,248039,54.4939796,36.2176266
6,улица Георгия Димитрова,248033,54.4940491,36.2130545
28,улица Степана Разина,248023,54.5086287,36.2746101
43,улица Маяковского,248009,54.5283201,36.3088061
6,Аллейная улица,248009,54.5259799,36.3136238
22,улица Академика Королёва,248000,54.5122412,36.2401645
34,Азаровская улица,248017,54.5650064,36.2719060
4,улица Краснопивцева,248002,54.4978730,36.2743437
1,Тульский проезд,248003,54.5130677,36.2938986
163,Пролетарская улица,248016,54.5175648,36.2760633
183,Тульская улица,248003,54.5131760,36.2952416
11,улица Гагарина,248000,54.5126173,36.2358864
147,улица Фридриха Энгельса,248002,54.5045192,36.2808970
40,Взлётная улица,248035,54.5455214,36.3654638
44,Взлётная улица,248009,54.5452858,36.3663610
3,улица Постовалова,248003,54.5086486,36.2914194
74/45,Тульская улица,248003,54.5112775,36.2804384
25,Усадебная улица,248031,54.5983893,36.2790632
23,Усадебная улица,248031,54.5985402,36.2786738
29,Усадебная улица,248031,54.5981960,36.2798972
21,Дальняя улица,248031,54.6040986,36.2613925
17,улица Кубяка,248012,54.5761365,36.2485090
1А,улица Кубяка,248012,54.5768827,36.2551810
20,улица Кубяка,248012,54.5776847,36.2466678
13,Аэропортовская улица,248035,54.5523593,36.3475813
2,Аэропортовский переулок,248035,54.5531145,36.3506470
8,Светлая улица,248031,54.6089646,36.2625604
168,улица Баррикад,248016,54.5182594,36.2774491
67 к3,улица Гурьянова,248029,54.5663965,36.2240801
71,улица Гурьянова,248029,54.5665041,36.2249714
2,Азаровская улица,248017,54.5650026,36.2483072
10А,улица Карла Либкнехта,248021,54.5242080,36.2679837
11,Дальний переулок,248031,54.5984943,36.2542735
11,Дальний переулок,248031,54.5981819,36.2550342
20,улица Кирова,248001,54.5148479,36.2499315
74/3,улица Салтыкова-Щедрина,248019,54.4989640,36.2856414
39,улица Комсомольская Роща,248010,54.5442435,36.2629650
65,улица Яновских,248017,54.5758517,36.2902625
109,Московская улица,248016,54.5213387,36.2644192
30,улица Кибальчича,248012,54.5836874,36.2471565
52,Молодёжная улица,248009,54.5336786,36.3158915
72,Хрустальная улица,248028,54.5216183,36.3111796
1А,Киёвский проезд,248003,54.5178483,36.3021160
5,Советский проезд,248032,54.5182285,36.3338194
8,Аллейная улица,248009,54.5259396,36.3123897
34,улица Циолковского,248000,54.5137083,36.2365156
7,3-я Тарусская улица,248032,54.5184400,36.3520504
1,3-я Тарусская улица,248032,54.5184098,36.3532697
4,3-я Тарусская улица,248032,54.5187308,36.3531781
10,3-я Тарусская улица,248032,54.5187631,36.3520251
2,3-я Тарусская улица,248032,54.5188704,36.3537056
5,3-я Тарусская улица,248032,54.5184317,36.3524890
6,3-я Тарусская улица,248032,54.5187435,36.3528033
8,3-я Тарусская улица,248032,54.5187484,36.3524184
3,3-я Тарусская улица,248032,54.5184281,36.3528744
10,Береговая улица,248032,54.5123354,36.3685932
12,Светлая улица,248031,54.6085411,36.2605360
10,Тепличная улица,248031,54.5931642,36.2659104
12,улица Георгия Димитрова,248033,54.4946065,36.2165948
12,Тульское шоссе,248033,54.4826606,36.2296528
24,улица Георгия Димитрова,248039,54.4952478,36.2176736
56,улица Пухова,248021,54.5266279,36.2635910
73,улица Гурьянова,248029,54.5655505,36.2240658
9 к7,улица Кубяка,248012,54.5743954,36.2503420
9 к8,улица Кубяка,248012,54.5742763,36.2512515
11/8,Поселковая улица,248017,54.5525882,36.2727613
245,Московская улица,248081,54.5476498,36.2701795
39А кК,улица Комсомольская Роща,248006,54.5430604,36.2611224
41 к2,улица 65 лет Победы,248033,54.4830010,36.1931564
31 к1,улица 65 лет Победы,248033,54.4836856,36.1962908
41 к1,улица 65 лет Победы,248033,54.4830130,36.1943341
31,улица 65 лет Победы,248033,54.4842162,36.1968933
33,улица 65 лет Победы,248033,54.4845366,36.1956713
35,улица 65 лет Победы,248033,54.4847042,36.1943307
29,улица 65 лет Победы,248033,54.4852107,36.1970228
27,улица 65 лет Победы,248033,54.4862950,36.1972815
18,улица Георгия Димитрова,248033,54.4941216,36.2166962
1Б,улица Кубяка,248012,54.5768445,36.2540900
10,Тульское шоссе,248033,54.4835423,36.2291187
20,Белокирпичная улица,248029,54.5708254,36.2364403
256А,Московская улица,248000,54.5408204,36.2687993
8,Линейная улица,248017,54.5555037,36.2683043
12,Воинская улица,248017,54.5543775,36.2572718
44 к5,Хрустальная улица,248028,54.5197687,36.3031729
43А,Секиотовская улица,248033,54.4672882,36.2427531
129,Николо-Козинская улица,248002,54.5000110,36.2778947
110А,Николо-Козинская улица,248002,54.5008099,36.2751172
23,улица Кирова,248001,54.5151294,36.2563607
9,улица Фомушина,248033,54.4886341,36.2055664
6,Светлая улица,248031,54.6081679,36.2617315
5,улица Постовалова,248003,54.5087480,36.2920146
8,улица Георгия Димитрова,248033,54.4945171,36.2137166
10,улица Георгия Димитрова,248033,54.4946887,36.2150773
171А,Тарутинская улица,248008,54.5635997,36.2955707
40,улица Механизаторов,248008,54.5595550,36.2848932
18,улица Кибальчича,248012,54.5832932,36.2482415
44 к6,Хрустальная улица,248028,54.5201565,36.3046161
167,Московская улица,248021,54.5268296,36.2702799
41,Пригородная улица,248009,54.5345474,36.3056559
44 к2,Хрустальная улица,248028,54.5213569,36.3034909
44 к3,Хрустальная улица,248028,54.5209913,36.3042255
33,Полесская улица,248033,54.4661975,36.2180633
35,Полесская улица,248033,54.4666229,36.2167846
37,Полесская улица,248033,54.4670991,36.2152684
41,Полесская улица,248033,54.4660456,36.2161485
30,Первомайская улица,248002,54.5018597,36.2672595
1,улица Георгия Амелина,248039,54.4933766,36.1824939
11,улица Георгия Амелина,248039,54.4923644,36.1799726
12,улица Георгия Амелина,248039,54.4954595,36.1808180
13,улица Георгия Амелина,248039,54.4927952,36.1786574
14,улица Георгия Амелина,248039,54.4967740,36.1791504
15,улица Георгия Амелина,248039,54.4934153,36.1787516
17,улица Георгия Амелина,248039,54.4935876,36.1791899
19,улица Георгия Амелина,248039,54.4937934,36.1796058
21,улица Георгия Амелина,248039,54.4940507,36.1803875
23,улица Георгия Амелина,248039,54.4942320,36.1808151
25,улица Георгия Амелина,248039,54.4944941,36.1812677
3,улица Георгия Амелина,248039,54.4930684,36.1822424
5,улица Георгия Амелина,248039,54.4928987,36.1817654
7,улица Георгия Амелина,248039,54.4926027,36.1810289
9,улица Георгия Амелина,248039,54.4924220,36.1805749
8,улица Георгия Амелина,248039,54.4958273,36.1817109
5,улица Братьев Луканиных,248039,54.4973283,36.1805072
18,улица Георгия Амелина,248039,54.4971347,36.1800591
7,улица Братьев Луканиных,248039,54.4974980,36.1809360
10,улица Георгия Амелина,248039,54.4956421,36.1812747
4,улица Георгия Амелина,248039,54.4944783,36.1825688
2,улица Георгия Амелина,248039,54.4942668,36.1821334
6,улица Георгия Амелина,248039,54.4947415,36.1828711
16,улица Георгия Амелина,248039,54.4969572,36.1796067
3,улица Братьев Луканиных,248039,54.4960014,36.1821515
6,улица Фомушина,248033,54.4904061,36.2029060
24,улица Георгия Амелина,248039,54.4980020,36.1777748
38,улица Георгия Амелина,248039,54.5014487,36.1735639
13,улица Братьев Луканиных,248039,54.4998716,36.1774767
39,улица Георгия Амелина,248039,54.4984451,36.1764579
20,улица Георгия Амелина,248039,54.4983736,36.1786685
32,улица Георгия Амелина,248039,54.5007612,36.1758031
31,улица Георгия Амелина,248039,54.4951003,36.1791032
49,улица Георгия Амелина,248039,54.4996076,36.1750431
22,улица Георгия Амелина,248039,54.4981897,36.1782192
34,улица Георгия Амелина,248039,54.5005826,36.1753602
33,улица Георгия Амелина,248039,54.4947649,36.1784088
45,улица Георгия Амелина,248039,54.4992454,36.1741607
9,улица Братьев Луканиных,248039,54.4987376,36.1795423
11,улица Братьев Луканиных,248039,54.4985499,36.1790764
35,улица Георгия Амелина,248039,54.4947085,36.1778545
41,улица Георгия Амелина,248039,54.4982740,36.1760462
27,улица Георгия Амелина,248039,54.4954747,36.1800039
29,улица Георгия Амелина,248039,54.4952763,36.1795795
21,Усадебная улица,248031,54.5986492,36.2783201
30,Михалевский переулок,248029,54.5659495,36.2286982
20,Изумрудная улица,248029,54.5647481,36.2240599
45А,Советская улица,248021,54.5144388,36.3414262
23А,улица Маршала Жукова,248018,54.5167137,36.2824488
32,улица Кибальчича,248012,54.5845601,36.2448083
58 к1,улица Дзержинского,248000,54.5122650,36.2584835
27,Прохладная улица,248031,54.6008417,36.2516998
40 к1,Азаровская улица,248017,54.5638935,36.2764166
40 к2,Азаровская улица,248017,54.5638994,36.2756787
105,улица Поле Свободы,248021,54.5229799,36.2631763
14,Изумрудная улица,248029,54.5639201,36.2245937
12,Изумрудная улица,248029,54.5637086,36.2241176
14А,Тульское шоссе,248033,54.4758475,36.2327428
40,улица Анненки,248007,54.5383329,36.1593007
13,улица Петра Тарасова,248039,54.5001323,36.1833684
19,улица Петра Тарасова,248039,54.4995996,36.1819843
21,улица Петра Тарасова,248039,54.4994088,36.1815349
27,улица Петра Тарасова,248039,54.5010139,36.1812120
31,улица Петра Тарасова,248039,54.5006482,36.1802893
41,улица Петра Тарасова,248039,54.5016519,36.1788603
51,улица Георгия Амелина,248039,54.5009692,36.1734342
21,улица Братьев Луканиных,248039,54.5019951,36.1749006
42,улица Георгия Амелина,248039,54.5018191,36.1744817
40,улица Георгия Амелина,248039,54.5016275,36.1739941
36,улица Георгия Амелина,248039,54.5003856,36.1748714
30,улица Георгия Амелина,248039,54.4996908,36.1770032
28,улица Георгия Амелина,248039,54.4994913,36.1765554
26,улица Георгия Амелина,248039,54.4993186,36.1760843
5,Хорошая улица,248033,54.4892524,36.1848734
14,Тульское шоссе,248033,54.4748886,36.2330679
56,Заокская улица,248000,54.4736904,36.2381352
55,Заокская улица,248000,54.4735066,36.2381221
52,Заокская улица,248000,54.4732405,36.2379727
54,Заокская улица,248000,54.4733572,36.2377859
47,улица Георгия Амелина,248039,54.4994377,36.1746315
17,улица Братьев Луканиных,248039,54.5011186,36.1766894
19,улица Братьев Луканиных,248039,54.5009550,36.1762836
43,улица Георгия Амелина,248039,54.4980827,36.1755770
1,улица Петра Тарасова,248039,54.4990245,36.1849178
3,улица Петра Тарасова,248039,54.4988142,36.1845640
5,улица Петра Тарасова,248039,54.4985291,36.1841998
11,улица Петра Тарасова,248039,54.4984149,36.1829674
9,улица Петра Тарасова,248039,54.4976611,36.1839009
7,улица Петра Тарасова,248039,54.4982280,36.1839116
23,улица Братьев Луканиных,248039,54.5021680,36.1753329
33,улица Фомушина,248033,54.4897019,36.1859702
15,улица Петра Тарасова,248039,54.4999600,36.1829190
17,улица Петра Тарасова,248039,54.4997732,36.1824632
29,Хрустальный переулок,248018,54.5184976,36.2964382
4,Кооперативная улица,248010,54.5298997,36.2551869
29,улица Петра Тарасова,248039,54.5008324,36.1807680
33,улица Петра Тарасова,248039,54.5025102,36.1804868
35,улица Петра Тарасова,248039,54.5024224,36.1799584
37,улица Петра Тарасова,248039,54.5022879,36.1794484
39,улица Петра Тарасова,248039,54.5022183,36.1788729
43,улица Петра Тарасова,248039,54.5023984,36.1779833
23,улица Петра Тарасова,248039,54.5013792,36.1821279
25,улица Петра Тарасова,248039,54.5011937,36.1816745
23,Минская улица,248015,54.4877666,36.1762502
22,Минская улица,248015,54.4875911,36.1726631
43,Минская улица,248015,54.4845200,36.1775739
36,Минская улица,248015,54.4852442,36.1768843
33,Минская улица,248015,54.4859606,36.1755879
15,Минская улица,248015,54.4896196,36.1769717
5,Минская улица,248015,54.4912738,36.1758598
9,Тепличная улица,248031,54.5948829,36.2681303
29,Полесская улица,248033,54.4652084,36.2218254
21,улица 65 лет Победы,248033,54.4875216,36.2008011
15,улица 65 лет Победы,248033,54.4887752,36.2026037
1,улица Василия Стригунова,248039,54.5008004,36.1868928
3,улица Василия Стригунова,248039,54.5005878,36.1865066
5,улица Василия Стригунова,248039,54.5003074,36.1861552
6,улица Петра Тарасова,248039,54.5000705,36.1857546
12,улица Петра Тарасова,248039,54.5013779,36.1844196
6,Минская улица,248015,54.4911942,36.1767688
4,3-й Академический проезд,248033,54.4883478,36.2133343
6,улица 65 лет Победы,248015,54.4881582,36.1983736
4,улица 65 лет Победы,248015,54.4883760,36.1972566
3,улица Льва Толстого,248032,54.5143691,36.3500547
8 к1,улица Дружбы,248008,54.5680645,36.3153194
46,Зерновая улица,248600,54.5408307,36.3026577
21А к2,Зерновая улица,248600,54.5406574,36.3061465
4,улица Петра Тарасова,248039,54.4998025,36.1854011
6 к1,Рубежная улица,248010,54.5249390,36.2486071
19,улица Шахтёров,248025,54.5567260,36.2829263
25,Новослободская улица,248025,54.5594099,36.2979927
40 к1,улица Анненки,248007,54.5385820,36.1604701
7,Минская улица,248015,54.4903552,36.1762911
311 к6,Московская улица,248012,54.5794453,36.2566075
6,улица Космонавта Пацаева,248000,54.5108469,36.2521847
10,Изумрудная улица,248029,54.5630560,36.2245645
8,Изумрудная улица,248029,54.5634097,36.2259552
8 к1,Изумрудная улица,248029,54.5630528,36.2259490
13,Минская улица,248015,54.4895580,36.1751294
9,Минская улица,248015,54.4902256,36.1722681
5,Малиновая улица,248031,54.5905130,36.2573347
40 к3,Азаровская улица,248017,54.5638916,36.2749309
13,улица Василия Стригунова,248039,54.5029263,36.1843541
11,улица Василия Стригунова,248039,54.5028384,36.1838298
9,улица Василия Стригунова,248039,54.5026967,36.1833215
18,улица Петра Тарасова,248039,54.5026008,36.1827622
16,улица Петра Тарасова,248039,54.5024569,36.1822432
14,улица Петра Тарасова,248039,54.5024008,36.1816612
10,улица Петра Тарасова,248039,54.5012062,36.1839799
8,улица Петра Тарасова,248039,54.5010204,36.1835469
2,улица Петра Тарасова,248039,54.4995155,36.1850944
41,Минская улица,248015,54.4844573,36.1757753
42,Минская улица,248015,54.4843003,36.1767096
1,улица Братьев Луканиных,248039,54.4961964,36.1826198
99А,улица Ленина,248000,54.5091207,36.2589225
2А,улица Белинского,248003,54.5067044,36.2931101
3,Грабцевское шоссе,248018,54.5203248,36.2802569
18,Солнечный бульвар,248009,54.5339363,36.3070685
14,Тепличная улица,248031,54.5923061,36.2680858
12,Тепличная улица,248031,54.5927103,36.2681357
46,Усадебная улица,248031,54.5980882,36.2788436
7,Хорошая улица,248033,54.4884190,36.1848480
4,Минская улица,248015,54.4911075,36.1749691
2,улица Василия Стригунова,248039,54.5014593,36.1871190
4,улица Василия Стригунова,248039,54.5017292,36.1874656
6,улица Василия Стригунова,248039,54.5019840,36.1877977
8,улица Василия Стригунова,248039,54.5027669,36.1855564
10,улица Василия Стригунова,248039,54.5028683,36.1861143
12,улица Василия Стригунова,248039,54.5029341,36.1866670
1,улица Владимира Козлова,248039,54.5023414,36.1889367
2,улица Владимира Козлова,248039,54.5025785,36.1895187
14,улица Владимира Козлова,248039,54.5030238,36.1881222
13,улица Владимира Козлова,248039,54.5032554,36.1886864
3,улица Владимира Козлова,248039,54.5024866,36.1905943
4,улица Владимира Козлова,248039,54.5023253,36.1912174
5,улица Владимира Козлова,248039,54.5023248,36.1918107
6,улица Владимира Козлова,248039,54.5023241,36.1924079
7,улица Владимира Козлова,248039,54.5033981,36.1923977
8,улица Владимира Козлова,248039,54.5033973,36.1918223
9,улица Владимира Козлова,248039,54.5034002,36.1912253
10,улица Владимира Козлова,248039,54.5034002,36.1907065
11,улица Владимира Козлова,248039,54.5033997,36.1901263
12,улица Владимира Козлова,248039,54.5034024,36.1895578
12,Минская улица,248015,54.4894872,36.1735722
38,Минская улица,248015,54.4851089,36.1728734
7 к1,улица Академика Потехина,248033,54.4884988,36.1826034
7,улица Академика Потехина,248033,54.4882446,36.1819790
11,Хорошая улица,248033,54.4879175,36.1860269
19,Комфортная улица,248033,54.4972329,36.2064904
6,3-й Академический проезд,248033,54.4877240,36.2130080
32,Минская улица,248015,54.4859247,36.1739542
40,Минская улица,248015,54.4842663,36.1741577
6,Изумрудная улица,248029,54.5627190,36.2245165
8,улица Комбата Сергея Козлова,248008,54.5813560,36.3120034
14,проезд Юрия Круглова,248035,54.5482213,36.3227198
10,проезд Юрия Круглова,248035,54.5482645,36.3233238
6,проезд Юрия Круглова,248035,54.5485800,36.3244512
4,улица Павла Ягужинского,248039,54.4925173,36.1877901
1,улица Павла Ягужинского,248039,54.4918555,36.1861114
2,улица Павла Ягужинского,248039,54.4919316,36.1868191
3,улица Павла Ягужинского,248039,54.4921902,36.1874360
1 к4,улица Андрея Алёшина,248039,54.4931810,36.1861968
5,улица Павла Ягужинского,248039,54.4936421,36.1873394
6,улица Павла Ягужинского,248039,54.4934209,36.1868083
1 к3,улица Андрея Алёшина,248039,54.4929691,36.1856228
1 к2,улица Андрея Алёшина,248039,54.4927043,36.1850327
1 к1,улица Андрея Алёшина,248039,54.4924769,36.1844855
1,улица Андрея Алёшина,248039,54.4921444,36.1841038
31,Минская улица,248015,54.4860368,36.1730221
2,улица Андрея Алёшина,248039,54.4938002,36.1846089
2 к1,улица Андрея Алёшина,248039,54.4941617,36.1849951
7,улица Павла Ягужинского,248039,54.4944069,36.1856205
8,улица Павла Ягужинского,248039,54.4944910,36.1863173
9,улица Академика Потехина,248033,54.4873388,36.1830359
8,проезд Юрия Круглова,248035,54.5481774,36.3241277
72,Заречная улица,248033,54.4951530,36.2195288
3,Октябрьская улица,248650,54.5176191,36.2384176
289 с2,Московская улица,248017,54.5630863,36.2625110
8,улица Кибальчича,248012,54.5836472,36.2495916
2,улица Кибальчича,248012,54.5837453,36.2510547
10,улица 65 лет Победы,248033,54.4870260,36.1954657
3,улица Академика Потехина,248033,54.4890865,36.1832031
24,Изумрудная улица,248029,54.5657662,36.2216833
311 к5,Московская улица,248012,54.5799852,36.2562427
2А,Высокая улица,248010,54.5289988,36.2500565
37,улица Академика Королёва,986085,54.5145978,36.2371612
22 к1,Воскресенский переулок,248000,54.5068435,36.2636260
15 к1,улица Пестеля,248003,54.5103583,36.2852792
26,улица Кирова,248001,54.5145341,36.2529792
20,Молодёжная улица,248009,54.5298428,36.3023405
15,улица Братьев Луканиных,248039,54.5000697,36.1779703
