House number,Street name,Postal code,Latitude,Longitude
105,High Street,BA2 1DB,51.3798552,-2.3950273
8-9,North Parade,BA2 4AL,51.3806879,-2.3569238
12,Pierrepont Street,BA1 1LA,51.3803018,-2.3573100
6-7,Union Street,BA1 1RT,51.3819127,-2.3606854
90b,Walcot Street,BA1 5BG,51.3864135,-2.3593844
100,Mount Road,BA2 1LN,51.3715561,-2.3961622
110a,Mount Road,BA2 1LN,51.3718965,-2.3964537
23,Pulteney Gardens,BA2 4HG,51.3795964,-2.3507105
14,Pulteney Gardens,BA2 4HG,51.3797749,-2.3499507
7,Pulteney Gardens,BA2 4HG,51.3798352,-2.3505274
6,Pulteney Gardens,BA2 4HG,51.3798406,-2.3506035
1,Pulteney Gardens,BA2 4HG,51.3799290,-2.3510075
3,Lilliput Court,BA1 1ND,51.3806560,-2.3584315
8,Pierrepont Street,BA1 1LA,51.3800009,-2.3573317
87-88,Wood Street,BA2 3BJ,51.3775426,-2.3629590
85,Bradford Road,BA2 5BP,51.3591209,-2.3601040
7,Minerva Gardens,BA2 1JP,51.3746303,-2.3887543
11,Minerva Gardens,BA2 1JP,51.3742551,-2.3891888
5,Minerva Gardens,BA2 1JP,51.3745566,-2.3885343
3,Minerva Gardens,BA2 1JP,51.3742651,-2.3885933
1,Minerva Gardens,BA2 1JP,51.3741145,-2.3888827
8,Minerva Gardens,BA2 1JP,51.3745031,-2.3888937
6,Minerva Gardens,BA2 1JP,51.3745901,-2.3886202
10,Minerva Gardens,BA2 1JP,51.3743658,-2.3890869
2,Minerva Gardens,BA2 1JP,51.3742049,-2.3887167
9,Minerva Gardens,BA2 1JP,51.3744461,-2.3889796
4,Minerva Gardens,BA2 1JP,51.3744964,-2.3884270
Unit R4,SouthGate Place,BA1 1AP,51.3786490,-2.3583383
79-81,Bradford Road,BA2 5BP,51.3590619,-2.3601754
85,Bradford Road,BA2 5BP,51.3591039,-2.3600619
87,Bradford Road,BA2 5BP,51.3591382,-2.3599862
93,Bradford Road,BA2 5BP,51.3592388,-2.3597919
9,Brunel Square,BA1 1SX,51.3774923,-2.3580964
8,Brunel Square,BA1 1SX,51.3775766,-2.3579082
4-5,Brunel Square,BA1 1SX,51.3775741,-2.3582381
1-3,Brunel Square,BA1 1SX,51.3777530,-2.3583048
4,New Street,BA1 2AF,51.3812317,-2.3637436
91,Bradford Road,BA2 5BP,51.3592112,-2.3598586
124,Walcot Street,BA1 5BG,51.3876832,-2.3590124
12,Brunel Square,BA1 1SX,51.3774759,-2.3575605
7,Dorchester Street,BA1 1SS,51.3780625,-2.3583071
1,Dorchester Street,BA1 1SS,51.3778399,-2.3597475
6-7,Brunel Square,BA1 1SX,51.3775749,-2.3580718
6-8,Dorchester Street,BA1 1SS,51.3780675,-2.3584359
14,Kingsmead Square,BA1 2AD,51.3813527,-2.3635059
5-7,New Street,BA1 2AF,51.3811864,-2.3638942
94,Mount Road,BA2 1LN,51.3714442,-2.3960574
110b,Mount Road,BA2 1LN,51.3718585,-2.3964360
6,Gay Street,BA1 2PH,51.3847387,-2.3637667
32,Milsom Street,BA1 1DG,51.3843329,-2.3615976
8a,George Street,BA1 2EH,51.3846541,-2.3627744
1,North Parade,BA1 1LF,51.3806318,-2.3576561
13,Pierrepont Street,BA1 1LA,51.3803453,-2.3573127
13-15,Great Pulteney Street,BA2 4BS,51.3845248,-2.3546983
12,Argyle Street,BA2 4BQ,51.3832169,-2.3571374
14,Argyle Street,BA2 4BQ,51.3831801,-2.3572863
10,North Parade,BA2 4AL,51.3806924,-2.3565668
64,Great Pulteney Street,BA2 4DN,51.3842613,-2.3541202
69,Great Pulteney Street,BA2 4DL,51.3839716,-2.3549491
35,Great Pulteney Street,BA2 4BY,51.3853090,-2.3525531
1,Abbey Street,BA1 1NN,51.3808060,-2.3590583
1,York Street,BA1 1NG,51.3809426,-2.3580459
110-112,Walcot Street,BA1 5BQ,51.3870930,-2.3591480
27,Queen Square,BA1 2HX,51.3839459,-2.3634359
11,Brunel Square,BA1 1SX,51.3774532,-2.3576410
1,Bartlett Street,BA1 2QZ,51.3856462,-2.3620282
9-13,Alfred Street,BA1 2QX,51.3858328,-2.3622456
26,New Bond Street,BA1 1BA,51.3831765,-2.3596979
19-20,The Corridor,BA1 5AP,51.3822353,-2.3595643
3-4,The Corridor,BA1 5AP,51.3821652,-2.3595651
17,The Corridor,BA1 5AP,51.3822282,-2.3597493
8-10,The Corridor,BA1 5AP,51.3821459,-2.3599064
7,The Corridor,BA1 5AP,51.3821521,-2.3597786
11,The Corridor,BA1 5AP,51.3821368,-2.3600365
18,The Corridor,BA1 5AP,51.3822303,-2.3596528
21-22,The Corridor,BA1 5AP,51.3822403,-2.3594697
5-6,The Corridor,BA1 5AP,51.3821581,-2.3596576
29,Milsom Place,BA1 1BZ,51.3836531,-2.3604538
2-3,Upper Borough Walls,BA1 1RZ,51.3829113,-2.3596801
43,High Street,BA2 1DB,51.3801501,-2.3952402
102,Mount Road,BA2 1LN,51.3716083,-2.3962014
3-7,Milsom Place,BA1 1BZ,51.3840090,-2.3607824
4,Saville Row,BA1 2QP,51.3863699,-2.3620677
6,Queen Square,BA1 2HH,51.3829470,-2.3629353
1,John Street,BA1 2JL,51.3833328,-2.3620984
31,Upper Bristol Road,BA1 2NB,51.3836702,-2.3684413
21,Crescent Gardens,BA1 2NA,51.3838260,-2.3694769
4,London Road,BA1 6AR,51.3931669,-2.3483925
20,Mount Road,BA2 1LD,51.3668122,-2.3939172
7,Lansdown Road,BA1 5DZ,51.3865513,-2.3611465
43,Mendip Gardens,BA2 2UT,51.3546844,-2.3792308
33,Henrietta Street,BA2 6LR,51.3842894,-2.3565340
13,London Road,BA1 6BJ,51.3962108,-2.3428462
86,Holloway,BA2 4PX,51.3760231,-2.3635868
18,Bathwick Hill,BA2 4EH,51.3832823,-2.3497465
15,Charlotte Street,BA1 2ND,51.3832462,-2.3661872
5,Newbridge Hill,BA1 3PW,51.3850464,-2.3879034
6,Henry Street,BA1 1JT,51.3798914,-2.3576688
77,Great Pulteney Street,BA2 4DL,51.3836714,-2.3556676
93a,Sydney Place,BA2 6NR,51.3845820,-2.3499196
9,Charlotte Street,BA1 2NE,51.3834358,-2.3665157
11,Henrietta Street,BA2 6LL,51.3843719,-2.3569295
3,Newbridge Hill,BA1 3PW,51.3849361,-2.3876854
32,Combe Road,BA2 5HY,51.3589293,-2.3511670
55a,North Road,BA2 5DF,51.3617480,-2.3480060
97,Wells Road,BA2 3AN,51.3769145,-2.3652982
1,Upper Oldfield Park,BA2 3JX,51.3753943,-2.3690882
174-176,Newbridge Road,BA1 3LE,51.3871823,-2.3989061
25,New Bond Street,BA1 1BA,51.3831660,-2.3598348
115,High Street,BA2 1DB,51.3796943,-2.3944120
41,Upper Bloomfield Road,BA2 2RY,51.3570973,-2.3813100
108,High Street,BA2 1DB,51.3797623,-2.3947041
104,Mount Road,BA2 1LN,51.3716493,-2.3962388
2,Rivers Street Place,BA1 2RS,51.3878161,-2.3641560
10,Rivers Street Place,BA1 2RS,51.3876949,-2.3635994
106,Mount Road,BA2 1LN,51.3717148,-2.3963070
6,London Street,BA1 5BU,51.3888590,-2.3588573
33,Upper Bloomfield Road,BA2 2RY,51.3572689,-2.3811556
SU31,Southgate Place,BA1 1AP,51.3786941,-2.3583582
84-85,High Street,BA2 1DE,51.3801610,-2.3960412
86,High Street,BA2 1DE,51.3801175,-2.3959420
9-10,London Street,BA1 5BU,51.3889863,-2.3588193
3,New Street,BA1 2AF,51.3812539,-2.3636772
3-4,Manvers Street,BA1 1JQ,51.3793686,-2.3573666
45,Upper Oldfield Park,BA2 3HT,51.3763765,-2.3741144
89,Bradford Road,BA2 5BP,51.3591687,-2.3599159
2,London Road,BA1 5NL,51.3907770,-2.3554939
10,Brunel Square,BA1 1SX,51.3774332,-2.3577335
20,Rush Hill,BA2 2QH,51.3649561,-2.3933190
16,Badminton Gardens,BA1 2XS,51.3886264,-2.3828248
7a,Kingsmead Square,BA1 2AB,51.3810570,-2.3632600
22,Milsom Street,BA1 1DE,51.3846376,-2.3620396
96,Mount Road,BA2 1LN,51.3714860,-2.3960949
15,Old Bond Street,BA1 1BP,51.3829231,-2.3612168
25,Milsom Street,BA1 1DG,51.3847660,-2.3617884
29,Milsom Street,BA1 1DG,51.3845291,-2.3614827
3,Gay Street,BA1 2PH,51.3845179,-2.3636576
3,Bartlett Street,BA1 2QZ,51.3858112,-2.3618404
4-5,Bartlett Street,BA1 2QZ,51.3857602,-2.3618156
9a,Bartlett Street,BA1 2QZ,51.3854797,-2.3616764
8,Bartlett Street,BA1 2QZ,51.3855765,-2.3617298
7,Bartlett Street,BA1 2QZ,51.3856340,-2.3617548
6,Bartlett Street,BA1 2QZ,51.3856667,-2.3617753
41,Milsom Street,BA1 1BZ,51.3838468,-2.3609539
10,Kingsmead Square,BA1 2AB,51.3811191,-2.3634945
15,Kingsmead Square,BA1 2AE,51.3815209,-2.3633389
37,Kingsmead Street,BA1 2AA,51.3815686,-2.3635078
7,London Street,BA1 5BU,51.3889071,-2.3588393
5,London Street,BA1 5BU,51.3888312,-2.3588708
4,London Street,BA1 5BU,51.3887989,-2.3588771
92,Walcot Street,BA1 5BG,51.3864771,-2.3593684
90c,Walcot Street,BA1 5BG,51.3863633,-2.3594059
80,Walcot Street,BA1 5BD,51.3858668,-2.3595514
78,Walcot Street,BA1 5BD,51.3858258,-2.3595592
76,Walcot Street,BA1 5BD,51.3857836,-2.3595700
74,Walcot Street,BA1 5BD,51.3857554,-2.3595808
72,Walcot Street,BA1 5BD,51.3856875,-2.3595945
72,Walcot Street,BA1 5BD,51.3857199,-2.3595916
15,Argyle Street,BA2 4BQ,51.3831182,-2.3573834
6,Bridge Street,BA2 4AS,51.3829367,-2.3586846
4,Abbey Street,BA1 1NN,51.3808049,-2.3592629
11,Milsom Place,BA1 1BZ,51.3838845,-2.3608795
20,Broad Street,BA1 5LN,51.3849181,-2.3606791
17,Argyle Street,BA2 4BQ,51.3829994,-2.3574383
10,Lansdown Road,BA1 5DU,51.3859897,-2.3610036
9,Fountains Buildings,BA1 5DU,51.3855681,-2.3607960
4,James Street West,BA1 2BX,51.3807328,-2.3642498
1-3,James Street West,BA1 2BX,51.3806708,-2.3638344
118a,Walcot Street,BA1 5BG,51.3875127,-2.3590952
118b,Walcot Street,BA1 5BG,51.3875624,-2.3590913
Unit 1 AB,Clarks Way,BA2 2AF,51.3624565,-2.3870141
Unit 1 CD,Clarks Way,BA2 2AF,51.3623879,-2.3867915
3,Saville Row,BA1 2QP,51.3863172,-2.3620482
9a,Bartlett Street,BA1 2QZ,51.3855365,-2.3617057
11,Lansdown Road,BA1 5DZ,51.3860324,-2.3610143
1,Victoria Bridge Road,BA2 3FQ,51.3825909,-2.3730896
12,Milsom Place,BA1 1BZ,51.3840232,-2.3606751
1,Abbey Street,BA1 1NN,51.3807591,-2.3590443
6,Green Street,BA1 2JY,51.3835103,-2.3606284
19,Broad Street,BA1 5LN,51.3849846,-2.3605240
26,Milsom Place,BA1 1BZ,51.3836439,-2.3605222
20,Milsom Place,BA1 1BZ,51.3838274,-2.3611137
2,Gloucester Street,BA1 2SE,51.3879137,-2.3646003
1c,Rivers Street Place,BA1 2RS,51.3878436,-2.3642908
1,Rivers Street Place,BA1 2RS,51.3878556,-2.3643545
2,Rivers Street Place,BA1 2RS,51.3878329,-2.3642335
3,Rivers Street Place,BA1 2RS,51.3877743,-2.3639668
11,Rivers Street Place,BA1 2RS,51.3876764,-2.3634814
6,Julian Road,BA1 2RS,51.3877404,-2.3638106
24,St John's Road,BA1 3BW,51.3852322,-2.3820589
40,Gladstone Road,BA2 5HL,51.3611252,-2.3413499
20,St James Parade,BA1 1UL,51.3789537,-2.3607529
2-4,Hot Bath Street,BA1 1SJ,51.3803806,-2.3614383
8,George Street,BA1 2EE,51.3851126,-2.3617950
13,Northgate Street,BA1 5AS,51.3829881,-2.3592615
13,Northgate Street,BA1 5AS,51.3829932,-2.3592210
Unit 1,Victoria Bridge Road,BA2 3GG,51.3834614,-2.3738552
5,Green Park Road,BA1 1BQ,51.3805400,-2.3661872
Unit 12,Brassmill Lane,BA1 3JL,51.3833144,-2.3955126
2,London Road,BA1 6QB,51.3942801,-2.3467522
6,London Road,BA1 6QA,51.3941182,-2.3469677
5,London Road,BA1 6QA,51.3940802,-2.3470331
90b,Walcot Street,BA1 5BG,51.3864457,-2.3593767
101,Southdown Road,BA2 1HL,51.3709834,-2.3901195
19,High Street,BA1 5AJ,51.3822442,-2.3594139
7a,Sussex Place,BA2 4LA,51.3765953,-2.3535708
279,Bloomfield Road,BA2 2NU,51.3634534,-2.3769696
20,Manvers Street,BA1 1JW,51.3785093,-2.3567390
SU 32,Southgate Place,BA1 1AP,51.3787176,-2.3584561
29,Southgate Place,BA1 1AP,51.3786433,-2.3581311
Unit 1,Midland Road,BA2 3GJ,51.3840636,-2.3765989
9,St James Parade,BA1 1UL,51.3795448,-2.3613768
107,High Street,BA2 1DB,51.3797962,-2.3948802
88,High Street,BA2 1DE,51.3800539,-2.3957918
87,High Street,BA2 1DE,51.3800899,-2.3958655
83,High Street,BA2 1DE,51.3802088,-2.3961512
17,Alfred Street,BA1 2QU,51.3861120,-2.3618667
28,Milsom Place,BA1 1BZ,51.3836383,-2.3606035
20,Bennett Street,BA1 2QL,51.3868244,-2.3620283
114-116,Walcot Street,BA1 5BG,51.3872862,-2.3591118
9-10,Bath Street,BA1 1SN,51.3808981,-2.3611560
19,Union Passage,BA1 1RD,51.3822390,-2.3601911
Unit 3-4,Wells Road,BA2 3AP,51.3770835,-2.3617429
139,Penn Hill Road,BA1 3RU,51.3913861,-2.4017608
107,Purlewent Drive,BA1 4BE,51.3968525,-2.3878137
110c,Mount Road,BA2 1LN,51.3718154,-2.3964136
110c,Mount Road,BA2 1LN,51.3717903,-2.3963940
3,Lansdown Road,BA1 2QN,51.3864315,-2.3614947
98,Mount Road,BA2 1LN,51.3715180,-2.3961288
4,Kingsmead Street,BA1 2AA,51.3814898,-2.3637138
36,Gay Street,BA1 2NT,51.3842915,-2.3632591
1,The Paragon,BA1 5LS,51.3851241,-2.3606143
Units 1a-c,Roseberry Place,BA2 3BW,51.3822965,-2.3815826
"Unit 3,",Roseberry Place,BA2 3GS,51.3823420,-2.3820805
Unit 2,Roseberry Place,BA2 3GS,51.3823054,-2.3818257
152,High Street,BA2 1BY,51.3799740,-2.3912536
16,Southgate Place,BA1 1AP,51.3786711,-2.3582488
8,Lansdown Road,BA1 5DZ,51.3866240,-2.3611494
1,Royal Crescent,BA1 2LR,51.3866328,-2.3671231
2-8,South Parade,BA2 4AA,51.3801621,-2.3567119
35,Saint Kilda's Road,BA2 3QJ,51.3753350,-2.3798425
35 A,Saint Kilda's Road,BA2 3QJ,51.3753765,-2.3799499
52A,Moorland Road,BA2 3PJ,51.3767363,-2.3782719
53 A,Moorland Road,BA2 3PJ,51.3767341,-2.3784078
41A,Moorland Road,BA2 3PN,51.3768994,-2.3782371
43A,Moorland Road,BA2 3PN,51.3768609,-2.3781815
36,Saint Kilda's Road,BA2 3QL,51.3752364,-2.3799021
Unit 1,Victoria Bridge Road,BA1 3FA,51.3838697,-2.3733023
4A,Livingstone Road,BA2 3PQ,51.3778181,-2.3781062
1,Newark Street,BA1 1AT,51.3784355,-2.3590257
123A,Lower Oldfield Park,BA2 3HR,51.3780440,-2.3770694
15A,Moorland Road,BA2 3NY,51.3775856,-2.3794995
108C,Lower Oldfield Park,BA2 3HS,51.3781573,-2.3750997
110C,Lower Oldfield Park,BA2 3HS,51.3782150,-2.3753017
108A,Lower Oldfield Park,BA2 3HS,51.3781174,-2.3751279
110A,Lower Oldfield Park,BA2 3HS,51.3781827,-2.3753245
15,Mayfield Road,BA2 3QA,51.3760489,-2.3816340
Flat 2 Philippa House,South Avenue,BA2 3PU,51.3768608,-2.3804673
Flat 1 Phillipa House,South Avenue,BA2 3PU,51.3768980,-2.3806182
"Flat 3 Philippa House, Flat 4 Philippa House",South Avenue,BA2 3PU,51.3768809,-2.3805488
21B,Brook Road,BA2 3RR,51.3808512,-2.3813331
21A,Brook Road,BA2 3RR,51.3809290,-2.3813327
50,South View Road,BA2 3RW,51.3808752,-2.3812394
85,West Avenue,BA2 3PZ,51.3774419,-2.3822451
43a,Upper Bloomfield Road,BA2 2RY,51.3570443,-2.3813557
39,Upper Bloomfield Road,BA2 2RY,51.3571421,-2.3812726
37,Upper Bloomfield Road,BA2 2RY,51.3571828,-2.3812356
35,Upper Bloomfield Road,BA2 2RY,51.3572257,-2.3812012
43,Upper Bloomfield Road,BA2 2RY,51.3570144,-2.3813811
141,Englishcombe Lane,BA2 2EL,51.3685737,-2.3836650
145,Englishcombe Lane,BA2 2EL,51.3686163,-2.3839234
143,Englishcombe Lane,BA2 2EL,51.3685785,-2.3837618
18-19,Pulteney Road,BA2 4EZ,51.3835075,-2.3519549
9,Kingsmead Square,BA1 2AB,51.3810944,-2.3634056
14,Fountain Buildings,BA1 5DX,51.3855771,-2.3612516
Unit 1,Beehive Yard,BA1 5BT,51.3857289,-2.3589738
13,Northgate Street,BA1 5AS,51.3829854,-2.3592904
9-10,Bath Street,BA1 1SN,51.3808810,-2.3611163
105-107,Walcot Street,BA1 5BW,51.3876841,-2.3593644
36,Monmouth Street,BA1 2AN,51.3818258,-2.3632257
1,Queen Square,BA1 2HA,51.3837134,-2.3629648
3-4,Bath Street,BA1 1SB,51.3807986,-2.3606496
Studio 4,Toll Bridge Road,BA1 7DE,51.4025020,-2.3266225
30,Monmouth Street,BA1 2AP,51.3823259,-2.3640757
43,Saint James's Parade,BA1 1UQ,51.3797292,-2.3612154
43,Saint James's Parade,BA1 1UQ,51.3796982,-2.3611913
43,Saint James's Parade,BA1 1UQ,51.3797137,-2.3611859
43,Saint James's Parade,BA1 1UQ,51.3797053,-2.3611564
9,Julian Road,BA1 2RS,51.3877124,-2.3636675
28,Milsom Street,BA1 1DG,51.3846126,-2.3614025
28,Milsom Street,BA1 1DG,51.3845959,-2.3615205
3,Miles's Buildings,BA1 2QS,51.3849517,-2.3628595
100,Walcot Street,BA1 5BG,51.3866565,-2.3593344
2,Foundry Lane,BA2 3GZ,51.3786384,-2.3656265
19,Union Passage,BA1 1RD,51.3822438,-2.3601525
3,Trinity Close,BA1 1US,51.3798180,-2.3642054
7,Chapel Row,BA1 1HN,51.3827544,-2.3645098
20,London Road,BA1 6AD,51.3911942,-2.3537563
10,Rossiter Road,BA2 4JP,51.3767035,-2.3547110
129,Newbridge Hill,BA1 3PT,51.3877639,-2.3949436
46,Moorland Road,BA2 3PN,51.3767151,-2.3778887
20,Claverton Street,BA2 4LD,51.3766379,-2.3544670
30,Monmouth Street,BA1 2AP,51.3823684,-2.3641367
109,High Street,BA2 1DB,51.3797363,-2.3945833
22,St Lawrence Street,BA1 1AN,51.3781896,-2.3581210
10,Palace Yard Mews,BA1 2NH,51.3830092,-2.3652396
17,Alfred Street,BA1 2QU,51.3861496,-2.3617768
20,Old Bond Street,BA1 1BW,51.3832262,-2.3613597
29,Dominion Road,BA2 1DW,51.3805390,-2.3977184
7,Crown Hill,BA1 4BP,51.3949795,-2.3886484
Unit B,Midland Road,BA2 3FT,51.3836166,-2.3771492
Unit 1B,Midland Road,BA2 3FT,51.3836300,-2.3772082
11,Pierrepont Street,BA1 1LA,51.3802482,-2.3573073
20 - 22,Monmouth Place,BA1 2AY,51.3828359,-2.3663163
8-10,North Parade,BA2 4AL,51.3806651,-2.3568984
91,Walcot Street,BA1 5BW,51.3870528,-2.3594317
5,London Road,BA1 6QA,51.3940597,-2.3466701
Unit 8,Miles Street,BA2 4HX,51.3784507,-2.3545342
4,Queen Street,BA1 1HE,51.3829452,-2.3619403
16-18,Queen Square,BA1 2HN,51.3833202,-2.3643691
Unit C,Lower Bristol Road,BA2 1EP,51.3811699,-2.3885376
18-19,Pulteney Road,BA2 4EZ,51.3835493,-2.3519879
17,Pulteney Road,BA2 4EZ,51.3838249,-2.3519952
103,Locksbrook Road,BA1 3EN,51.3824296,-2.3934986
42,High Street,BA2 1DB,51.3808773,-2.3980582
42,Shophouse Road,BA2 1EF,51.3773549,-2.3892442
1-3,Newbridge Road,BA1 3HE,51.3842362,-2.3865486
21,Newbridge Hill,BA1 3PW,51.3856424,-2.3886571
7,Upper Bristol Road,BA1 3AR,51.3849980,-2.3756892
10,Argyle Street,BA2 4BQ,51.3832580,-2.3569060
2,Argyle Street,BA2 4BA,51.3832840,-2.3576214
1-2,Pulteney Bridge,BA2 4AX,51.3829971,-2.3582064
14,Pulteney Bridge,BA2 4AY,51.3829802,-2.3578674
6,Argyle Street,BA2 4BA,51.3834642,-2.3571984
14,Cheap Street,BA1 1NA,51.3815707,-2.3594203
110,Mount Road,BA2 1LN,51.3720344,-2.3962341
18,Claverton Down Road,BA2 7JX,51.3814723,-2.3247822
10,Claverton Down Road,BA2 7JX,51.3814499,-2.3254311
23,Claverton Down Road,BA2 7JX,51.3815248,-2.3241284
21,Claverton Down Road,BA2 7JX,51.3816410,-2.3243821
25,Claverton Down Road,BA2 7JX,51.3817397,-2.3239203
1,Newark Street,BA1 1AT,51.3784582,-2.3590389
2-3,Marchants Passage,BA1 1AR,51.3785960,-2.3594400
3,Southgate Street,BA1 1AQ,51.3791279,-2.3595016
10,St. Lawrence Street,BA1 1AN,51.3792110,-2.3591793
7,Southgate Street,BA1 1AQ,51.3788659,-2.3594962
8-9,Southgate Street,BA1 1AQ,51.3787784,-2.3594916
2,St. Lawrence Street,BA1 1AN,51.3793944,-2.3594947
12,St. Lawrence Street,BA1 1AN,51.3791683,-2.3591011
6,St. Lawrence Street,BA1 1AN,51.3793001,-2.3593447
8,St. Lawrence Street,BA1 1AN,51.3792556,-2.3592619
2,Southgate Street,BA1 1AQ,51.3792122,-2.3595658
14,St. Lawrence Street,BA1 1AN,51.3791237,-2.3590178
3,St. Lawrence Street,BA1 1AN,51.3794968,-2.3591730
12,St. Lawrence Street,BA1 1AQ,51.3792607,-2.3587154
11,Southgate Street,BA1 1AN,51.3795218,-2.3593275
5a,St. Lawrence Street,BA1 1AN,51.3794274,-2.3588861
1,St. Lawrence Street,BA1 1AN,51.3793167,-2.3587568
4,St. Lawrence Street,BA1 1AN,51.3794520,-2.3589935
50-53,Southgate Street,BA1 1TG,51.3793736,-2.3600389
49,Southgate Street,BA1 1TG,51.3792801,-2.3600018
7,York Street,BA1 1NG,51.3808810,-2.3586840
3,Church Street,BA1 1NL,51.3807159,-2.3586986
1,North Parade Passage,BA1 1NX,51.3807223,-2.3586108
2,North Parade Passage,BA1 1NX,51.3807436,-2.3585270
7,North Parade Passage,BA1 1NX,51.3806386,-2.3585931
1,Terrace Walk,BA1 1LJ,51.3807671,-2.3580838
3,North Parade Passage,BA1 1NX,51.3807520,-2.3584056
4,North Parade Passage,BA1 1NX,51.3807590,-2.3582889
4,North Parade Buildings,BA1 1LF,51.3806077,-2.3575036
6,North Parade,BA1 1LF,51.3806335,-2.3573249
100,Midford Road,BA2 5RU,51.3566799,-2.3683312
1,Old King Street,BA1 2JW,51.3837401,-2.3624916
1,The Paragon,BA1 5LS,51.3851130,-2.3605399
14a,Manvers Street,BA1 1JH,51.3780610,-2.3572222
23,Union Street,BA1 1RS,51.3818072,-2.3602707
13,Queen Square,BA1 2HJ,51.3828171,-2.3638170
5-6,Wood Street,BA1 2JE,51.3830665,-2.3625991
9,Chelsea Road,BA1 3PP,51.3858706,-2.3890494
2,Lower Borough Walls,BA1 1QR,51.3796575,-2.3601232
16-18,Stall Street,BA1 1QB,51.3799613,-2.3590484
7-9,North Parade Buildings,BA1 1NS,51.3803942,-2.3584753
16-18,Queen Square,BA1 2HN,51.3832962,-2.3644073
43,Claverton Down Road,BA2 7JX,51.3811968,-2.3234644
9,Claverton Down Road,BA2 7JX,51.3814417,-2.3255883
15,Claverton Down Road,BA2 7JX,51.3814808,-2.3246269
44,Claverton Down Road,BA2 7JX,51.3812816,-2.3234017
28,Eastwood Upper Walk,BA2 7JX,51.3817780,-2.3235472
4,Claverton Down Road,BA2 7JX,51.3812311,-2.3260870
30,Claverton Down Road,BA2 7JX,51.3816862,-2.3231238
32,Claverton Down Road,BA2 7JX,51.3808457,-2.3245054
24,Claverton Down Road,BA2 7JX,51.3817091,-2.3240616
26,Claverton Down Road,BA2 7JX,51.3816324,-2.3236851
47,Claverton Down Road,BA2 7JX,51.3814612,-2.3232010
2,Claverton Down Road,BA2 7JX,51.3811115,-2.3262417
16,Claverton Down Road,BA2 7JX,51.3813169,-2.3250127
38,Claverton Down Road,BA2 7JX,51.3811761,-2.3240652
41,Claverton Down Road,BA2 7JX,51.3810029,-2.3238192
36,Claverton Down Road,BA2 7JX,51.3811370,-2.3243714
22,Claverton Down Road,BA2 7JX,51.3815933,-2.3241742
35,Claverton Down Road,BA2 7JX,51.3810806,-2.3245134
49,Claverton Down Road,BA2 7JX,51.3814170,-2.3229743
1,Claverton Down Road,BA2 7JX,51.3809692,-2.3261619
17,Claverton Down Road,BA2 7JX,51.3814426,-2.3249207
48,Claverton Down Road,BA2 7JX,51.3814893,-2.3230414
37,Claverton Down Road,BA2 7JX,51.3811636,-2.3242302
19,Claverton Down Road,BA2 7JX,51.3814133,-2.3245799
14,Claverton Down Road,BA2 7JX,51.3815418,-2.3248276
46,Claverton Down Road,BA2 7JX,51.3814242,-2.3233320
45,Claverton Down Road,BA2 7JX,51.3813550,-2.3234616
5,Claverton Down Road,BA2 7JX,51.3813009,-2.3260638
34,Claverton Down Road,BA2 7JX,51.3810035,-2.3244669
50,Claverton Down Road,BA2 7JX,51.3814047,-2.3228308
3,Claverton Down Road,BA2 7JX,51.3810380,-2.3261386
29,Claverton Down Road,BA2 7JX,51.3818187,-2.3234145
7,Claverton Down Road,BA2 7JX,51.3814583,-2.3258962
31,Claverton Down Road,BA2 7JX,51.3816250,-2.3230291
20,Claverton Down Road,BA2 7JX,51.3816033,-2.3245308
13,Claverton Down Road,BA2 7JX,51.3815132,-2.3249673
27,Claverton Down Road,BA2 7JX,51.3817056,-2.3236963
6,Claverton Down Road,BA2 7JX,51.3811803,-2.3262175
12,Claverton Down Road,BA2 7JX,51.3813863,-2.3250591
11,Claverton Down Road,BA2 7JX,51.3814732,-2.3252645
40,Claverton Down Road,BA2 7JX,51.3810755,-2.3238744
33,Claverton Down Road,BA2 7JX,51.3809224,-2.3245525
8,Claverton Down Road,BA2 7JX,51.3814452,-2.3257429
42,Claverton Down Road,BA2 7JX,51.3811236,-2.3234052
51,Claverton Down Road,BA2 7JX,51.3813347,-2.3227620
39,Claverton Down Road,BA2 7JX,51.3810995,-2.3240153
3,Dorchester Street,BA1 1SS,51.3778947,-2.3596062
2,Terrace Walk,BA1 1LN,51.3808678,-2.3579875
1,York Street,BA1 1NG,51.3809437,-2.3579921
Unit 10,Locksbrook Road,BA1 3EU,51.3833474,-2.3859218
25-28,Roseberry Road,BA2 3DX,51.3825674,-2.3836858
38-39,Stall Street,BA1 1QH,51.3809987,-2.3609576
21,Old Bond Street,BA1 2LA,51.3832578,-2.3614504
8-9,Quiet Street,BA1 2JN,51.3831200,-2.3617424
11,Old Bond Street,BA1 1BP,51.3825548,-2.3611578
1,Broad Street,BA1 2EB,51.3848433,-2.3607534
2,George Street,BA1 2EB,51.3848799,-2.3612798
3,"York Buildings, George Street",BA1 2EB,51.3848765,-2.3614794
1,George Street,BA1 2EB,51.3849817,-2.3608138
1,George Street,BA1 2EB,51.3849331,-2.3610245
2,Saracen Street,BA1 5BR,51.3843368,-2.3599631
42,Broad Street,BA1 5LP,51.3838525,-2.3598897
1,London Road,BA1 6QA,51.3939566,-2.3472792
6-7,Ivo Peters Road,BA2 3QS,51.3807589,-2.3707825
4,Ivo Peters Road,BA2 3QS,51.3806212,-2.3700805
43,Hiscocks Drive,BA2 3NU,51.3718826,-2.3738942
1-6,Melcombe Road,BA2 3LP,51.3743402,-2.3792585
24-27,Melcombe Road,BA2 3LP,51.3746347,-2.3799575
"6,8",Durley Park,BA2 3NT,51.3728875,-2.3739439
62B,Hillside Road,BA2 3NX,51.3727424,-2.3764843
4,Bridge Road,BA2 1AA,51.3759658,-2.3827017
11,Bridge Road,BA2 1AA,51.3760883,-2.3822149
2,Bridge Road,BA2 1AA,51.3761186,-2.3825562
7-8,St Johns Place,BA1 1ET,51.3819776,-2.3627811
4,Saw Close,BA1 1EY,51.3816389,-2.3623887
21,Westgate Street,BA1 1EP,51.3815041,-2.3623755
22-23,Westgate Street,BA1 1EP,51.3815765,-2.3622270
41,Monksdale Road,BA2 3PE,51.3731843,-2.3785239
20,Manvers Street,BA1 1JW,51.3785537,-2.3567215
8,Southgate Place,BA1 1AN,51.3790480,-2.3589773
6,Southgate Street,BA1 1AQ,51.3789237,-2.3594971
1-2,North Parade Buildings,BA1 1NS,51.3806243,-2.3581145
14,James Street West,BA1 2BX,51.3810792,-2.3654042
12,James Street West,BA1 2BX,51.3810740,-2.3652159
2,Rosewell Court,BA1 2AG,51.3813685,-2.3649059
13,St. Lawrence Street,BA1 1AQ,51.3791833,-2.3586769
68,Walcot Street,BA1 5BD,51.3856294,-2.3595469
3-4,St. Saviour's Road,BA1 6RT,51.3970269,-2.3450787
7,Lambridge Buildings,BA1 6RS,51.3967661,-2.3455455
7,Saint Saviour's Road,BA1 6RW,51.3961915,-2.3454090
2,Saint Saviour's Road,BA1 6RT,51.3971199,-2.3450678
1,Saint Saviour's Road,BA1 6RT,51.3971688,-2.3450578
2,St. Saviours Road,BA1 6SD,51.3974972,-2.3449472
1,Upper Lambridge Street,BA1 6RY,51.3973140,-2.3449878
2,St. Saviours Road,BA1 6SD,51.3974389,-2.3449666
5,Larkhall Buildings,BA1 6SA,51.3975554,-2.3448641
4,St. Saviours Road,BA1 6SA,51.3976045,-2.3448362
4a,London Road,BA1 6AE,51.3917183,-2.3523755
4,London Road,BA1 6AE,51.3916761,-2.3525886
1,Saint Saviour's Road,BA1 6RS,51.3972099,-2.3452972
4,Saint Saviour's Road,BA1 6RP,51.3970398,-2.3453308
2,Saint Saviour's Road,BA1 6RS,51.3971517,-2.3453078
2,Saint Saviour's Road,BA1 6RP,51.3964822,-2.3453008
1,Saint Saviour's Road,BA1 6RP,51.3965351,-2.3452361
3,Larkhall Square,BA1 6SD,51.3974594,-2.3457148
8,Alfred Street,BA1 2QU,51.3858319,-2.3620439
2,Upper Lambridge Street,BA1 6RY,51.3973089,-2.3448923
3a,Upper Lambridge Street,BA1 6RY,51.3972742,-2.3448257
3b,Upper Lambridge Street,BA1 6RY,51.3973333,-2.3446947
1-2,London Road,BA1 6AA,51.3902817,-2.3559881
1,London Road,BA1 6AD,51.3906699,-2.3551084
23,Bathwick Street,BA2 6NY,51.3870777,-2.3517059
13,Cleveland Place,BA1 5DG,51.3899364,-2.3573595
12,Cleveland Place,BA1 5DG,51.3899321,-2.3572578
4a,Cleveland Place,BA1 5DJ,51.3901398,-2.3564657
26,Walcot Buildings,BA1 6AD,51.3913914,-2.3532339
4,London Road,BA1 6AE,51.3911873,-2.3521577
1-12,London Road,BA1 6AJ,51.3911999,-2.3525444
50,Rivers Street,BA1 2QA,51.3874723,-2.3649969
43,Belgrave Crescent,BA1 5JU,51.3918048,-2.3585250
14,London Street,BA1 5BU,51.3892212,-2.3586883
3,Belvedere,BA1 5ED,51.3876750,-2.3616877
4,Belvedere,BA1 5ED,51.3877304,-2.3616857
36,Thomas Street,BA1 5NN,51.3906377,-2.3558917
1,Gascoyne Place,BA1 1EY,51.3822992,-2.3623272
1,Barton Street,BA1 1HQ,51.3823820,-2.3624135
2,Bath Street,BA1 1SA,51.3807999,-2.3603823
2,John Street,BA1 2JL,51.3833738,-2.3620750
14,Westgate Street,BA1 1EQ,51.3813144,-2.3616858
3,John Street,BA1 2JL,51.3834222,-2.3620604
61,Walcot Street,BA1 5BN,51.3859151,-2.3599149
6,Milsom Street,BA1 1DA,51.3836539,-2.3616360
13,Milsom Street,BA1 1DD,51.3838962,-2.3620400
4-5,Milsom Street,BA1 1DA,51.3835484,-2.3617873
2,Milsom Street,BA1 1DA,51.3834306,-2.3615263
11a,York Street,BA1 1LT,51.3810373,-2.3585209
30,Upper Borough Walls,BA1 1RG,51.3826502,-2.3599151
28,Upper Borough Walls,BA1 1RG,51.3826227,-2.3602344
47,Holloway,BA2 4PT,51.3760516,-2.3627461
11-11a,Queen Street,BA1 1HE,51.3827737,-2.3620351
10a,Queen Street,BA1 1HE,51.3828546,-2.3620684
5,Margaret's Buildings,BA1 2LP,51.3866696,-2.3657325
11,Margaret's Buildings,BA1 2LP,51.3868319,-2.3659096
34,Brock Street,BA1 2LN,51.3862508,-2.3649655
30,Brock Street,BA1 2LN,51.3862900,-2.3653218
24,Brock Street,BA1 2LN,51.3863852,-2.3658595
28,Brock Street,BA1 2LN,51.3863209,-2.3654963
17,Barton Street,BA1 1HQ,51.3823791,-2.3627231
1,Barton Street,BA1 1HQ,51.3822561,-2.3626677
146,Walcot Street,BA1 5BL,51.3885606,-2.3589402
128,Walcot Street,BA1 5BG,51.3878353,-2.3590393
100,Walcot Street,BA1 5BG,51.3866505,-2.3593053
106,Walcot Street,BA1 5BG,51.3867421,-2.3592613
98,Walcot Street,BA1 5BG,51.3866183,-2.3593227
94-96,Walcot Street,BA1 5LX,51.3865665,-2.3593072
104,Walcot Street,BA1 5BG,51.3867099,-2.3592765
90a,Walcot Street,BA1 5BG,51.3862971,-2.3593592
102,Walcot Street,BA1 5BG,51.3866746,-2.3592628
88,Walcot Street,BA1 5BD,51.3861789,-2.3593870
84,Walcot Street,BA1 5BD,51.3859750,-2.3594861
66,Walcot Street,BA1 5BD,51.3855611,-2.3595665
66,Walcot Street,BA1 5BD,51.3854941,-2.3595699
37,Walcot Street,BA1 5BN,51.3849451,-2.3598269
47,Walcot Street,BA1 5BN,51.3853393,-2.3597958
27,Broad Street,BA1 5LW,51.3845908,-2.3603024
7,Saracen Street,BA1 5BR,51.3846444,-2.3599654
3,Saracen Street,BA1 5BR,51.3846197,-2.3600999
46a,Milsom Place,BA1 1BZ,51.3835783,-2.3608825
9,Green Street,BA1 2JY,51.3835553,-2.3601922
47,Milsom Street,BA1 1DN,51.3833819,-2.3610688
22A,New Bond Street,BA1 1BA,51.3831388,-2.3602235
12,Green Street,BA1 2JZ,51.3833616,-2.3602361
46,Milsom Street,BA1 1DN,51.3834661,-2.3611420
8-9,New Bond Street Place,BA1 1BH,51.3828537,-2.3605244
14,New Bond Street,BA1 1BE,51.3829221,-2.3608541
3,New Bond Street Place,BA1 1BH,51.3828466,-2.3603391
15,Union Street,BA1 1RR,51.3823618,-2.3604096
4,George Street,BA1 2EE,51.3850724,-2.3621652
1,George Street,BA1 2DU,51.3850104,-2.3624322
11-12,Bartlett Street,BA1 2QZ,51.3853586,-2.3615915
31,Belvedere,BA1 5HR,51.3883125,-2.3614040
38-41,Broad Street,BA1 5LP,51.3839627,-2.3599252
33,Monmouth Street,BA1 2AN,51.3820803,-2.3636388
18,Westgate Street,BA1 1EQ,51.3812856,-2.3620460
8,Westgate Street,BA1 1EQ,51.3814036,-2.3610381
1-2,Milsom Place,BA1 1BZ,51.3840627,-2.3609944
8,Broad Street,BA1 5LJ,51.3840171,-2.3604285
4,Cheap Street,BA1 1NE,51.3817319,-2.3598554
15-17,High Street,BA1 5AH,51.3820891,-2.3594000
13-14,High Street,BA1 5AQ,51.3819779,-2.3593893
5,Union Street,BA1 1RP,51.3818084,-2.3606469
3,Union Street,BA1 1RP,51.3816735,-2.3606238
4,Union Street,BA1 1RP,51.3817403,-2.3606384
1-2,Union Street,BA1 1RP,51.3815878,-2.3606079
38,Westgate Street,BA1 1EL,51.3815870,-2.3608278
25,Holloway,BA2 4PS,51.3763468,-2.3616571
2,Holloway,BA2 4PT,51.3764108,-2.3620862
1,Alton Place,BA2 4PR,51.3762748,-2.3594224
47,Saint James's Parade,BA1 1UQ,51.3799720,-2.3614814
33-35,Westgate Street,BA1 1EL,51.3815282,-2.3612471
31-32,Westgate Street,BA1 1EL,51.3815180,-2.3613769
33-35,Westgate Street,BA1 1EL,51.3815404,-2.3610996
38,Saint James's Square,BA1 2TU,51.3884839,-2.3680098
10,St James's Street,BA1 2TW,51.3882919,-2.3679005
11,St James's Street,BA1 2TW,51.3882190,-2.3678305
1,Marlborough Lane,BA1 2NQ,51.3841816,-2.3713119
40,Upper Bristol Road,BA1 2NB,51.3835651,-2.3677317
4,James Street West,BA1 2BX,51.3806443,-2.3644776
13a,Westgate Buildings,BA1 1EB,51.3804504,-2.3623798
7,Richmond Place,BA1 5PZ,51.3960219,-2.3623182
105,High Street,BA2 1DB,51.3798563,-2.3951852
105a,High Street,BA2 1DB,51.3797859,-2.3952368
1,Fairfield Park Road,BA1 6JN,51.3971134,-2.3546897
5,Victoria Buildings,BA2 3EH,51.3814037,-2.3745976
4,Victoria Buildings,BA2 3EH,51.3813924,-2.3745107
3,Victoria Buildings,BA2 3EH,51.3813821,-2.3744301
2,Victoria Buildings,BA2 3EH,51.3813715,-2.3743452
1,Victoria Buildings,BA2 3EH,51.3813600,-2.3742554
12,Old Orchard Street,BA1 1JU,51.3800863,-2.3578224
20,Sydney Road,BA2 6NS,51.3862744,-2.3461922
1A,Triangle Villas,BA2 3JF,51.3785394,-2.3806409
2-4,Dorchester Street,BA1 1SS,51.3781773,-2.3590358
209,Whiteway Road,BA2 2RQ,51.3708025,-2.4036908
73,Third Avenue,BA2 3NZ,51.3742174,-2.3769064
10-13,Melcombe Road,BA2 3LP,51.3744762,-2.3793713
1-6,West Avenue,BA2 3QB,51.3788036,-2.3811648
54-56,Moorland Road,BA2 3PJ,51.3767485,-2.3785595
40,High Street,BA1 4BX,51.3959720,-2.3910117
20,Moorland Road,BA2 3PW,51.3780316,-2.3795573
5,Moorland Road,BA2 3PJ,51.3770832,-2.3788840
15,Moorland Road,BA2 3PL,51.3775391,-2.3794191
30-31,Moorland Road,BA2 3PW,51.3774885,-2.3788968
33-34,Moorland Road,BA2 3PN,51.3772705,-2.3786449
128,Coronation Avenue,BA2 2JP,51.3709194,-2.3861230
4,Shaftesbury Mews,BA2 3LU,51.3759387,-2.3773901
5-10,Avon Street,BA1 1UN,51.3805627,-2.3627633
4-5,Westgate Building,BA1 1EB,51.3810457,-2.3626987
20,Westgate Street,BA1 1EQ,51.3812422,-2.3623222
29a,Westgate Street,BA1 1EP,51.3815129,-2.3616228
28,Westgate Street,BA1 1EP,51.3815060,-2.3617070
26,Westgate Street,BA1 1EP,51.3814849,-2.3618806
3-4,Manvers Street,BA1 1JQ,51.3793903,-2.3573665
2-2a,London Road,BA1 6PL,51.3924867,-2.3512458
1,Saville Row,BA1 2QP,51.3862087,-2.3620201
17,Alfred Street,BA1 2QU,51.3861554,-2.3617864
95,Church Street,BA2 5JJ,51.3595497,-2.3458616
93,Church Street,BA2 5JJ,51.3595584,-2.3459550
97,Church Street,BA2 5JJ,51.3595503,-2.3457653
89,Church Street,BA2 5JJ,51.3595582,-2.3460750
83,Church Street,BA2 5JJ,51.3595276,-2.3464110
85,Church Street,BA2 5JJ,51.3595564,-2.3463135
87,Church Street,BA2 5JJ,51.3595828,-2.3461965
8-10,Summerlays Place,BA2 4HN,51.3794728,-2.3514866
5,Terrace Walk,BA1 1LN,51.3811728,-2.3578678
17,York Street,BA1 1NG,51.3810721,-2.3580610
16,York Street,BA1 1NG,51.3810669,-2.3581504
18,York Street,BA1 1NG,51.3810761,-2.3579662
4-5,Lower Borough Walls,BA1 1QR,51.3796895,-2.3603069
3,Lower Borough Walls,BA1 1QR,51.3796704,-2.3601951
6,Lower Borough Walls,BA1 1QR,51.3797036,-2.3604285
1,Lower Borough Walls,BA1 1QR,51.3796181,-2.3600687
13-15,Stall Street,BA1 1QE,51.3802444,-2.3597157
10,Stall Street,BA1 1QE,51.3804334,-2.3598333
11a-12,Stall Street,BA1 1QE,51.3803564,-2.3597623
33-34,Bathwick Street,BA2 6NZ,51.3868882,-2.3523694
47,Forester Road,BA2 6QF,51.3883496,-2.3501616
49,Forester Road,BA2 6QF,51.3881528,-2.3501963
12,Margaret's Buildings,BA1 2LP,51.3867565,-2.3659686
10,Margaret's Buildings,BA1 2LP,51.3868891,-2.3658705
4,Margaret's Buildings,BA1 2LP,51.3866144,-2.3657565
3A,"Burlington Place, Julian Road",BA1 2SQ,51.3879639,-2.3650141
9,Lansdown Road,BA1 5EE,51.3893257,-2.3628697
15a,George Street,BA1 2EN,51.3848773,-2.3627638
5â€“6,George Street,BA1 2EE,51.3851761,-2.3620567
8,George Street,BA1 2EE,51.3851452,-2.3617955
13,Broad Street,BA1 5LJ,51.3845403,-2.3606635
17,George Street,BA1 2EN,51.3849216,-2.3624786
9,Lyncombe Hill,BA2 4PF,51.3763471,-2.3561748
59,Frome Road,BA2 2PW,51.3600513,-2.3786940
2a,Upper Bloomfield Road,BA2 2RX,51.3599627,-2.3792273
2-3,Queen Street,BA1 1HE,51.3828152,-2.3618876
32,Corn Street,BA1 1UF,51.3791260,-2.3616050
6,Abbey Gate Street,BA1 1NP,51.3803102,-2.3590009
18A,Upper Borough Walls,BA1 1RJ,51.3824467,-2.3616836
18,Upper Borough Walls,BA1 1RJ,51.3824320,-2.3617668
3,Trim Bridge,BA1 1HD,51.3824786,-2.3617880
14,Trim Street,BA1 1HB,51.3825585,-2.3617153
1,Trim Street,BA1 1HE,51.3826811,-2.3618176
10,Quiet Street,BA1 2JU,51.3831465,-2.3618653
5,Queen Street,BA1 1HE,51.3829857,-2.3619558
6-7,Queen Street,BA1 1HE,51.3831061,-2.3619737
1,Manvers Street,BA1 1JQ,51.3796498,-2.3573219
8-10,Wellsway,BA2 3AQ,51.3738742,-2.3670712
2,Ringwood Road,BA2 3JN,51.3793878,-2.3845737
5,Grosvenor Bridge Road,BA1 6BB,51.3952567,-2.3427638
49,James Street West,BA1 2DA,51.3808533,-2.3636576
15,Rivers Street,BA1 2PZ,51.3876575,-2.3647086
1,Bathwick Hill,BA2 4EN,51.3827010,-2.3493473
1-4,Bathwick Terrace,BA2 4EL,51.3827192,-2.3497670
3-4,Bathwick Hill,BA2 4EN,51.3827561,-2.3495549
23-24,Monmouth Place,BA1 2AY,51.3828681,-2.3656071
10,Monmouth Place,BA1 2AU,51.3832549,-2.3678801
11,Charlotte Street,BA1 2NE,51.3835083,-2.3662307
36,Arundel Road,BA1 6EF,51.3936015,-2.3552794
28,Southgate Street,BA1 1TP,51.3779628,-2.3599965
8-9,St James Parade,BA1 1UL,51.3795016,-2.3613899
37,Oolite Road,BA2 2UU,51.3581782,-2.3799701
2a,St James's Street,BA1 2TW,51.3882665,-2.3675672
1,Sion Hill Place,BA1 5SJ,51.3953840,-2.3732484
30,St James's Parade,BA1 1UJ,51.3789070,-2.3602736
20,Sulis Manor Road,BA2 2AL,51.3535389,-2.3745637
18,Sulis Manor Road,BA2 2AL,51.3535457,-2.3746531
16,Sulis Manor Road,BA2 2AL,51.3535400,-2.3747080
14,Sulis Manor Road,BA2 2AL,51.3535498,-2.3747799
22,Sulis Manor Road,BA2 2AL,51.3535524,-2.3744046
24,Sulis Manor Road,BA2 2AL,51.3535788,-2.3743069
26,Sulis Manor Road,BA2 2AL,51.3535847,-2.3742550
3,Wood Street,BA1 2JB,51.3831546,-2.3622432
8,Cork Place,BA1 3BB,51.3853979,-2.3801723
1,Cork Place,BA1 3BB,51.3851849,-2.3808185
2,Cork Place,BA1 3BB,51.3852116,-2.3807387
3-4,Cork Place,BA1 3BB,51.3852486,-2.3806311
9,Bridge Street,BA2 4AS,51.3829825,-2.3584579
6-8,Brougham Place,BA1 6SJ,51.3990154,-2.3445705
32,Gay Street,BA1 2NT,51.3844891,-2.3633036
16,Trinity Road,BA2 5AB,51.3627113,-2.3477283
24,Milsom Street,BA1 1DG,51.3848373,-2.3616909
62,Forester Avenue,BA2 6QB,51.3893683,-2.3541840
61,Forester Avenue,BA2 6QB,51.3893354,-2.3540899
4-5,Kingsmead Square,BA1 2AB,51.3810085,-2.3631182
139,Wellsway,BA2 4RY,51.3688110,-2.3656920
44-45,Lower Bristol Road,BA2 3BD,51.3786832,-2.3684160
23,Trinity Road,BA2 5AB,51.3624303,-2.3479859
1a,The Avenue,BA2 5EE,51.3599090,-2.3464338
13,Lansdown Road,BA1 5DX,51.3857981,-2.3612453
14,George Street,BA1 2EN,51.3848036,-2.3630984
54,Combe Road,BA2 5HY,51.3586224,-2.3501143
43,Combe Road,BA2 5QD,51.3588973,-2.3491418
16,High Street,BA1 4BY,51.3967466,-2.3930956
14,High Street,BA1 4BY,51.3967132,-2.3930203
12,High Street,BA1 4BY,51.3966806,-2.3929508
10,High Street,BA1 4BY,51.3966406,-2.3928629
4-8,High Street,BA1 4BY,51.3965705,-2.3927090
15,St Peter's Terrace,BA2 3BT,51.3812668,-2.3757752
31,Bathwick Street,BA2 6NZ,51.3867968,-2.3521125
4,The Avenue,BA2 5EE,51.3596989,-2.3466255
3,High Street,BA1 4BX,51.3950048,-2.3893300
125,High Street,BA1 4DF,51.3963990,-2.3915590
41,High Street,BA1 4BX,51.3960872,-2.3912237
134,High Street,BA1 4DF,51.3963277,-2.3912358
135,High Street,BA1 4DF,51.3963157,-2.3911540
2a,The Avenue,BA2 5EE,51.3598023,-2.3464859
29,Oldfield Road,BA2 3ND,51.3745617,-2.3730845
13,Moorland Road,BA2 3PL,51.3774738,-2.3793394
12,Moorland Road,BA2 3PL,51.3774399,-2.3792981
2,Forester Lane,BA2 6QX,51.3886792,-2.3489411
4,Forester Lane,BA2 6QX,51.3886694,-2.3491981
5,Forester Lane,BA2 6QX,51.3889112,-2.3490085
6,Forester Lane,BA2 6QX,51.3890158,-2.3490094
7,Forester Lane,BA2 6QX,51.3891534,-2.3490101
3,Forester Lane,BA2 6QX,51.3886710,-2.3490984
1,Forester Lane,BA2 6QX,51.3886795,-2.3488426
45,Upper Oldfield Park,BA2 3HT,51.3761722,-2.3739374
1,King Edward Road,BA2 3PB,51.3751711,-2.3745868
122,Wells Road,BA2 3AH,51.3740815,-2.3675381
12,Bennett Street,BA1 2QJ,51.3864231,-2.3634434
15,Cheap Street,BA1 1NA,51.3815860,-2.3595469
16,Cheap Street,BA1 1NA,51.3815691,-2.3596601
14,Abbey Churchyard,BA1 1LY,51.3815339,-2.3595254
8,Abbey Churchyard,BA1 1LY,51.3813732,-2.3600480
6,Abbey Churchyard,BA1 1LY,51.3813431,-2.3602193
9,Abbey Churchyard,BA1 1LY,51.3813820,-2.3599505
19,Cheap Street,BA1 1NA,51.3814788,-2.3600275
3,Stall Street,BA1 1QL,51.3813830,-2.3602505
12a,North Parade,BA2 4AL,51.3806718,-2.3561965
13,Cheap Street,BA1 1NA,51.3815923,-2.3593082
7,Abbey Churchyard,BA1 1LY,51.3813716,-2.3601409
2,Stall Street,BA1 1QL,51.3814320,-2.3602701
11-12,Abbey Churchyard,BA1 1LY,51.3815127,-2.3598070
13,Abbey Churchyard,BA1 1LY,51.3815157,-2.3596394
14,Pierrepont Street,BA1 1LA,51.3804590,-2.3573543
1a,North Parade Buildings,BA1 1LF,51.3806120,-2.3580274
8,York Street,BA1 1NG,51.3808725,-2.3589229
10,Abbey Churchyard,BA1 1LY,51.3814311,-2.3600233
7a,York Street,BA1 1NG,51.3809112,-2.3585618
3,Church Street,BA1 1NL,51.3807581,-2.3587051
1,Pierrepont Street,BA1 1LB,51.3806551,-2.3570098
1,North Parade Buildings,BA1 1LF,51.3805576,-2.3577714
20-21,Cheap Street,BA1 1NA,51.3814620,-2.3602210
21-22,Union Street,BA1 1RS,51.3819043,-2.3602922
24-26,Union Street,BA1 1RS,51.3816824,-2.3602455
7-8,Cheap Street,BA1 1NE,51.3817456,-2.3595939
2,Upper Borough Walls,BA1 1RG,51.3828423,-2.3596560
20,Union Street,BA1 1RS,51.3819968,-2.3603137
10,Upper Borough Walls,BA1 1RG,51.3827502,-2.3602605
4,Upper Borough Walls,BA1 1RG,51.3828228,-2.3597919
44,Stall Street,BA1 1QH,51.3814206,-2.3607337
30,Upper Borough Walls,BA1 1RG,51.3826677,-2.3598123
9-10,High Street,BA1 5AQ,51.3817678,-2.3593116
9,Westgate Street,BA1 1EQ,51.3813888,-2.3611395
29,Upper Borough Walls,BA1 1RG,51.3826325,-2.3600196
19,Union Street,BA1 1RS,51.3820595,-2.3603274
5,Cheap Street,BA1 1NE,51.3817365,-2.3597726
24,Westgate Street,BA1 1EP,51.3815029,-2.3620463
3,Upper Borough Walls,BA1 1RG,51.3828327,-2.3597231
27,Upper Borough Walls,BA1 1RH,51.3825480,-2.3604036
16,Westgate Street,BA1 1EQ,51.3812625,-2.3618914
15,Westgate Street,BA1 1EQ,51.3813151,-2.3617932
9,Cheap Street,BA1 1NE,51.3817651,-2.3594704
9,Union Street,BA1 1RW,51.3820782,-2.3608385
25,Westgate Street,BA1 1EP,51.3814798,-2.3619455
12,Upper Borough Walls,BA1 1RH,51.3827297,-2.3604791
2,Cheap Street,BA1 1NE,51.3817415,-2.3600259
16-17,Union Street,BA1 1RS,51.3822230,-2.3603646
8-10,Old Bond Street,BA1 1BW,51.3827042,-2.3609551
5,Burton Street,BA1 1BN,51.3826550,-2.3606805
13-14,Upper Borough Walls,BA1 1RH,51.3826887,-2.3605652
19,Westgate Street,BA1 1EQ,51.3812729,-2.3621869
3,Cheap Street,BA1 1NE,51.3816948,-2.3599384
11,Westgate Street,BA1 1EQ,51.3813656,-2.3613155
9-10,Cheap Street,BA1 5AQ,51.3817686,-2.3593906
14,Union Street,BA1 1RR,51.3824317,-2.3604696
27,Westgate Street,BA1 1EP,51.3814984,-2.3618020
6-7,Union Street,BA1 1RT,51.3818905,-2.3608003
17,Northumberland Place,BA1 5AR,51.3823807,-2.3597018
12-13,Union Street,BA1 1RR,51.3825248,-2.3605037
42,Stall Street,BA1 1QH,51.3812800,-2.3606917
1,Upper Borough Walls,BA1 1RG,51.3828791,-2.3594422
19a,Westgate Street,BA1 1EQ,51.3812679,-2.3622445
6,Cheap Street,BA1 1NE,51.3817192,-2.3597067
7,Union Passage,BA1 1RD,51.3821213,-2.3602893
11,Upper Borough Walls,BA1 1RG,51.3827686,-2.3603208
11,Union Street,BA1 1RR,51.3822152,-2.3608641
53-54,Great Pulteney Street,BA2 4DN,51.3846323,-2.3531142
3,Argyle Street,BA2 4BA,51.3833147,-2.3575392
37,Milsom Street,BA1 1DN,51.3840297,-2.3613673
43,Milsom Street,BA1 1DN,51.3836665,-2.3612315
39,Milsom Street,BA1 1DN,51.3838801,-2.3612917
32,Milsom Street,BA1 1DG,51.3843270,-2.3615332
42,Milsom Street,BA1 1DN,51.3837271,-2.3612480
25,Milsom Street,BA1 1DG,51.3847475,-2.3617161
34,Milsom Street,BA1 1DN,51.3842035,-2.3614768
31,Milsom Street,BA1 1DG,51.3843849,-2.3615588
4a,Argyle Street,BA2 4BA,51.3833437,-2.3574578
2,George Street,BA1 2EH,51.3846855,-2.3623430
35,Milsom Street,BA1 1DN,51.3841436,-2.3614507
45,Milsom Street,BA1 1DU,51.3835848,-2.3611954
38,Milsom Street,BA1 1DN,51.3839687,-2.3613403
28,Milsom Street,BA1 1DG,51.3845654,-2.3616437
29,Milsom Street,BA1 1DG,51.3845220,-2.3614888
30,Milsom Street,BA1 1DG,51.3844391,-2.3615769
26,Milsom Street,BA1 1DG,51.3846537,-2.3616831
12a,George Street,BA1 2EH,51.3845513,-2.3633251
33,Milsom Street,BA1 1DG,51.3842708,-2.3614773
8,Argyle Street,BA2 4BQ,51.3833149,-2.3567791
1-2,Orange Grove,BA1 1LP,51.3814093,-2.3577565
7,Pulteney Bridge,BA2 4AX,51.3831391,-2.3578291
8,Pulteney Bridge,BA2 4AX,51.3831691,-2.3577496
7,Argyle Street,BA2 4BA,51.3835289,-2.3569426
6,Terrace Walk,BA1 1LN,51.3812314,-2.3578310
14,Argyle Street,BA2 4BQ,51.3831224,-2.3572494
9,Terrace Walk,BA1 1LN,51.3813643,-2.3577107
10,Duke Street,BA2 4AG,51.3805146,-2.3562082
9,Duke Street,BA2 4AG,51.3804495,-2.3562372
13,Argyle Street,BA2 4BQ,51.3831706,-2.3571779
15,Argyle Street,BA2 4BQ,51.3830918,-2.3573142
4-5,New Market Row,BA2 4AN,51.3825261,-2.3580327
3,Newmarket Row,BA2 4AN,51.3826444,-2.3581535
2a,York Street,BA1 1NG,51.3809392,-2.3581090
11,Pulteney Bridge,BA2 4AY,51.3830359,-2.3577118
12,Argyle Street,BA2 4BQ,51.3831996,-2.3570724
11,Argyle Street,BA2 4BQ,51.3832240,-2.3569929
5,Argyle Street,BA2 4BA,51.3833983,-2.3573789
17,Argyle Street,BA2 4BQ,51.3830461,-2.3574810
2,New Market Row,BA2 4AN,51.3827111,-2.3582284
16,Argyle Street,BA2 4BQ,51.3830701,-2.3574132
9-10,Pulteney Bridge,BA2 4AY,51.3830596,-2.3576508
13,Pulteney Bridge,BA2 4AY,51.3830012,-2.3578104
12,Pulteney Bridge,BA2 4AY,51.3830173,-2.3577636
6,Pulteney Bridge,BA2 4AX,51.3831097,-2.3579070
11,Duke Street,BA2 4AG,51.3805834,-2.3562120
15-17,Pulteney Bridge,BA2 4AY,51.3829264,-2.3579995
4,Orange Grove,BA1 1LP,51.3813933,-2.3579445
8,Terrace Walk,BA1 1LN,51.3813220,-2.3577856
4-5,Pulteney Bridge,BA2 4AX,51.3830685,-2.3580157
3,Pulteney Bridge,BA2 4AX,51.3830300,-2.3581182
8,Abbey Green,BA1 1NW,51.3803701,-2.3590518
12-13,York Street,BA1 1NG,51.3810443,-2.3584055
9,Abbey Green,BA1 1NW,51.3804139,-2.3590720
2,Abbey Street,BA1 1NN,51.3806430,-2.3591964
6,Terrace Walk,BA1 1LN,51.3812028,-2.3578490
15,York Street,BA1 1NG,51.3810548,-2.3582263
10,York Street,BA1 1NH,51.3806647,-2.3595600
5,Orange Grove,BA1 1LP,51.3813859,-2.3580375
6-7,Orange Grove,BA1 1LP,51.3813760,-2.3581605
3,Duke Street,BA2 4AR,51.3804356,-2.3558020
6,Manvers Street,BA1 1JQ,51.3790915,-2.3573113
17,Union Passage,BA1 1RE,51.3824759,-2.3601769
11,Northumberland Place,BA1 5AR,51.3823728,-2.3601897
20,High Street,BA1 5AJ,51.3822980,-2.3593999
19,High Street,BA1 5AJ,51.3822539,-2.3593331
24-25,Stall Street,BA1 1QF,51.3800794,-2.3600758
20,Union Passage,BA1 1RD,51.3820654,-2.3601021
41,Stall Street,BA1 1QH,51.3812223,-2.3606669
29,Stall Street,BA1 1QF,51.3802864,-2.3600847
12a,The Corridor,BA1 5AP,51.3822103,-2.3601474
40,Stall Street,BA1 1QH,51.3811628,-2.3606290
21,Union Passage,BA1 1RD,51.3820215,-2.3601104
22,Union Passage,BA1 1RD,51.3819391,-2.3600532
22,Stall Street,BA1 1QF,51.3799097,-2.3599015
10,Northumberland Place,BA1 5AR,51.3822696,-2.3600992
3-4,Bath Street,BA1 1SB,51.3807818,-2.3605814
26,Stall Street,BA1 1QF,51.3802012,-2.3600638
23,Stall Street,BA1 1QF,51.3799684,-2.3599670
32,Stall Street,BA1 1QG,51.3805202,-2.3601706
14a,Westgate Buildings,BA1 1EB,51.3803926,-2.3623401
34-36,Stall Street,BA1 1QG,51.3806851,-2.3603007
5,Old Bond Street,BA1 1BW,51.3829226,-2.3610545
3,Burton Street,BA1 1BN,51.3827486,-2.3607490
2,New Bond Street Place,BA1 1BH,51.3828864,-2.3603545
7,Avon Street,BA1 1UN,51.3807672,-2.3627712
10,New Bond Street,BA1 1BE,51.3829777,-2.3603577
11,New Bond Street,BA1 1BE,51.3829451,-2.3605590
2,Burton Street,BA1 1BN,51.3828014,-2.3607708
11,Stall Street,BA1 1QE,51.3803990,-2.3598187
30-31,Stall Street,BA1 1QG,51.3804631,-2.3601709
4,Burton Street,BA1 1BN,51.3826981,-2.3607240
14,Union Passage,BA1 1RE,51.3824461,-2.3603653
1,Burton Street,BA1 1BN,51.3828549,-2.3607970
33,Stall Street,BA1 1QG,51.3805636,-2.3602825
20-21,Stall Street,BA1 1QF,51.3798257,-2.3599301
7-8,Stall Street,BA1 1QE,51.3805686,-2.3598564
18,Union Street,BA1 1RS,51.3821124,-2.3603896
9,Stall Street,BA1 1QE,51.3804788,-2.3598527
6,Stall Street,BA1 1QE,51.3806378,-2.3599457
1,New Bond Street Place,BA1 1BH,51.3829269,-2.3603535
20,Claverton Street,BA2 4LD,51.3766668,-2.3544922
9,Argyle Street,BA2 4BQ,51.3831945,-2.3568010
10,Claverton Street,BA2 4JT,51.3763194,-2.3540925
131,High Street,BA2 1DA,51.3798362,-2.3932069
24,Moorland Road,BA2 3PW,51.3777660,-2.3791703
11a,The Corridor,BA1 5AP,51.3821178,-2.3601137
38,Monmouth Street,BA1 2AN,51.3816230,-2.3629413
2,Wellsway,BA2 3AQ,51.3741411,-2.3667749
2-8,South Parade,BA2 4AA,51.3802962,-2.3565789
16,Upper Bristol Road,BA1 3DJ,51.3840829,-2.3835176
21-22,High Street,BA1 5AJ,51.3823751,-2.3593922
18,Northumberland Place,BA1 5AR,51.3823843,-2.3596194
6,Quiet Street,BA1 2JS,51.3833724,-2.3616291
19,Northumberland Place,BA1 5AR,51.3823880,-2.3595353
5-8,Saville Row,BA1 2QP,51.3865168,-2.3621055
7,George Street,BA1 2EH,51.3845807,-2.3626715
23,Milsom Street,BA1 1DE,51.3847038,-2.3621615
7,Quiet Street,BA1 2JU,51.3831993,-2.3615734
16,Upper Bristol Road,BA1 3BA,51.3856389,-2.3786606
8,Bridge Street,BA2 4AS,51.3829465,-2.3585247
22,Monmouth Place,BA1 2AY,51.3828953,-2.3657866
1,Saracen Street,BA1 5BR,51.3845989,-2.3601683
27,Walcot Street,BA1 5BN,51.3846237,-2.3598136
7,Bridge Street,BA2 4AS,51.3829267,-2.3586072
6,Bridge Street,BA2 4AS,51.3829068,-2.3586900
13-15,Walcot Street,BA1 5BN,51.3842691,-2.3597753
5,Walcot Street,BA1 5BN,51.3840526,-2.3597631
49-51,Walcot Street,BA1 5BD,51.3854405,-2.3598022
27,High Street,BA1 5AJ,51.3826627,-2.3594979
28,High Street,BA1 5AJ,51.3827189,-2.3595145
45,Walcot Street,BA1 5BN,51.3852815,-2.3597561
9,Saracen Street,BA1 5BR,51.3845723,-2.3598268
7,Walcot Street,BA1 5BN,51.3841053,-2.3597589
35,Walcot Street,BA1 5BN,51.3848624,-2.3598320
23,High Street,BA1 5AJ,51.3824766,-2.3594540
9-11,Walcot Street,BA1 5BN,51.3841611,-2.3597556
29 & 31,Walcot Street,BA1 5BN,51.3846996,-2.3597721
1-5,Bridge Street,BA2 4AP,51.3828518,-2.3589727
14,Northgate Street,BA1 5AS,51.3829281,-2.3592259
15,Northgate Street,BA1 5AS,51.3828654,-2.3591769
33,Walcot Street,BA1 5BN,51.3847774,-2.3598405
5,Saracen Street,BA1 5BR,51.3846321,-2.3600390
25-26,High Street,BA1 5AJ,51.3825885,-2.3594732
57-59,Walcot Street,BA1 5BN,51.3858611,-2.3599263
3,Beau Street,BA1 1QY,51.3802893,-2.3603248
17,Milsom Place,BA1 1BZ,51.3838469,-2.3609636
14,York Street,BA1 1NG,51.3810511,-2.3582911
31-37,London Road West,BA1 7HZ,51.3995085,-2.3357556
11,Wellsway,BA2 4QL,51.3741023,-2.3662887
1,Belvedere,BA1 5ED,51.3874511,-2.3616941
2,Belvedere,BA1 5ED,51.3875409,-2.3616499
14,Park Street Mews,BA1 2SZ,51.3901982,-2.3680046
1,Grove Street,BA2 6PJ,51.3835711,-2.3572794
17-18,Broad Street,BA1 5LN,51.3850494,-2.3605848
2,Bathwick Hill,BA2 4EN,51.3827184,-2.3494328
8,Claverton Street,BA2 4LD,51.3767560,-2.3554372
12-13,Claverton Street,BA2 4LD,51.3766914,-2.3550855
9,Claverton Street,BA2 4LD,51.3767180,-2.3553661
10,Claverton Street,BA2 4LD,51.3767234,-2.3552867
14,Claverton Street,BA2 4LD,51.3766923,-2.3549559
15,Claverton Street,BA2 4LD,51.3766834,-2.3548785
16,Claverton Street,BA2 4LD,51.3766820,-2.3547884
11,Rossiter Road,BA2 4JP,51.3767354,-2.3545972
17;18,Claverton Street,BA2 4LD,51.3766569,-2.3546534
21,Claverton Street,BA2 4LD,51.3766299,-2.3543885
22,Claverton Street,BA2 4LD,51.3766239,-2.3543072
23,Claverton Street,BA2 4LD,51.3766208,-2.3542247
24,Claverton Street,BA2 4LD,51.3766184,-2.3541482
1,Claverton Street,BA2 4LA,51.3766139,-2.3539959
25,Claverton Street,BA2 4LD,51.3766160,-2.3540686
2,Claverton Street,BA2 4LA,51.3766120,-2.3539274
3,Claverton Street,BA2 4LA,51.3766111,-2.3538605
4,Claverton Street,BA2 4LA,51.3766111,-2.3537916
5,Claverton Street,BA2 4LA,51.3766111,-2.3537240
6,Claverton Street,BA2 4LA,51.3766107,-2.3536485
7,Claverton Street,BA2 4LA,51.3766105,-2.3535635
72,Newton Road,BA2 1RW,51.3814981,-2.4043089
20,Green Street,BA1 2JZ,51.3832687,-2.3608283
1,New Bond Street,BA1 1BL,51.3832354,-2.3609526
18,Green Street,BA1 2JZ,51.3832975,-2.3606483
16,Green Street,BA1 2JZ,51.3833228,-2.3605341
17,Green Street,BA1 2JZ,51.3833106,-2.3605858
15,Green Street,BA1 2JZ,51.3833372,-2.3604701
13,Green Street,BA1 2JZ,51.3833450,-2.3603074
14,Green Street,BA1 2JZ,51.3833286,-2.3603802
19,Green Street,BA1 2JZ,51.3832735,-2.3607349
10-11,Green Street,BA1 2JZ,51.3833898,-2.3601285
7,Broad Street,BA1 5LJ,51.3839344,-2.3603943
28,Broad Street,BA1 5LW,51.3845324,-2.3602988
32-33,Broad Street,BA1 5LP,51.3842772,-2.3601729
35,Broad Street,BA1 5LP,51.3841940,-2.3601276
36,Broad Street,BA1 5LP,51.3841453,-2.3601136
6,Broad Street,BA1 5LJ,51.3838418,-2.3603327
4,Broad Street,BA1 5LJ,51.3837997,-2.3603065
3,Broad Street,BA1 5LJ,51.3837327,-2.3603103
8a,Green Street,BA1 2JY,51.3835277,-2.3603408
8,Green Street,BA1 2JY,51.3835113,-2.3604207
12,Northgate Street,BA1 5AS,51.3830394,-2.3592536
10,Green Street,BA1 2JZ,51.3833743,-2.3601894
7,Green Street,BA1 2JY,51.3834931,-2.3605057
4-5,Green Street,BA1 2JY,51.3834490,-2.3607084
6,Green Street,BA1 2JY,51.3834766,-2.3605867
3,Green Street,BA1 2JY,51.3834199,-2.3608484
21,New Bond Street,BA1 1BA,51.3831410,-2.3603254
5,New Bond Street,BA1 1BE,51.3829875,-2.3598215
6-7,New Bond Street,BA1 1BE,51.3829756,-2.3599779
8-9,New Bond Street,BA1 1BE,51.3829495,-2.3601775
19,New Bond Street,BA1 1BA,51.3831294,-2.3605122
20,New Bond Street,BA1 1BA,51.3831349,-2.3604239
18,New Bond Street,BA1 1BA,51.3831261,-2.3605650
18,New Bond Street,BA1 1BA,51.3831233,-2.3606086
17,New Bond Street,BA1 1BA,51.3831182,-2.3606887
16,New Bond Street,BA1 1BA,51.3831131,-2.3607717
15,New Bond Street,BA1 1BA,51.3831237,-2.3608591
3,New Bond Street,BA1 1BL,51.3831380,-2.3609251
12,New Bond Street,BA1 1BE,51.3829410,-2.3606484
14,New Bond Street,BA1 1BE,51.3829301,-2.3608000
2,New Bond Street,BA1 1BL,51.3831692,-2.3609634
49,Moorland Road,BA2 3PJ,51.3765600,-2.3781406
26,Grosvenor Place,BA1 6BA,51.3947122,-2.3446843
129,Newbridge Hill,BA1 3PT,51.3877390,-2.3951033
18,Upper Oldfield Park,BA2 3JZ,51.3761150,-2.3712460
35,Great Pulteney Street,BA2 4BY,51.3853217,-2.3525472
20,Rush Hill,BA2 2QH,51.3649819,-2.3933175
Unit 6,Meadows Lane,BA1 6FB,51.3919416,-2.3494233
32,Moorland Road,BA2 3PW,51.3774734,-2.3787776
46,Moorland Road,BA2 3PN,51.3767761,-2.3778416
1,Combe Road,BA2 5HX,51.3601269,-2.3513949
2,North Road,BA2 5DQ,51.3601902,-2.3513745
1,Claverton Street,BA2 4JT,51.3764476,-2.3551293
2,Claverton Street,BA2 4JT,51.3764263,-2.3550347
4a,Claverton Street,BA2 4JT,51.3764186,-2.3545986
3-4,Claverton Street,BA2 4JT,51.3764246,-2.3548107
5,Claverton Street,BA2 4JT,51.3764216,-2.3545073
6,Claverton Street,BA2 4JT,51.3764200,-2.3544267
7,Claverton Street,BA2 4JT,51.3764195,-2.3543293
8,Widcombe Parade,BA2 4JT,51.3763952,-2.3542632
9,Claverton Street,BA2 4JT,51.3763943,-2.3541587
11,Claverton Street,BA2 4JT,51.3764072,-2.3539788
13,Claverton Street,BA2 4JT,51.3763910,-2.3538817
14,Claverton Street,BA2 4JT,51.3764146,-2.3537508
15,Claverton Street,BA2 4JT,51.3764132,-2.3536602
2,Prior Park Road,BA2 4NG,51.3764072,-2.3535588
4,Prior Park Road,BA2 4NG,51.3763443,-2.3535005
1a,Prior Park Road,BA2 4NG,51.3761667,-2.3530263
27-28,Oldfield Road,BA2 3NG,51.3744765,-2.3736428
1,Hot Bath Street,BA1 1SJ,51.3802278,-2.3616022
11,Southgate Street,BA1 1AQ,51.3785156,-2.3594479
20,St. Lawrence Street,BA1 1AN,51.3783737,-2.3582024
78,Frome Road,BA2 2QG,51.3602275,-2.3798772
132,Walcot Street,BA1 5BG,51.3879868,-2.3589877
130,Walcot Street,BA1 5BG,51.3879475,-2.3589889
132a,Walcot Street,BA1 5BG,51.3880254,-2.3589872
1a,London Road,BA1 6PT,51.3934632,-2.3486309
1,London Road,BA1 6PT,51.3933435,-2.3489223
4,Newark Street,BA1 1AT,51.3782614,-2.3585381
15-18,London Street,BA1 5BX,51.3892460,-2.3582392
15-18,London Street,BA1 5BX,51.3894939,-2.3584008
25,Brock Street,BA1 2LN,51.3863674,-2.3657579
23,Brock Street,BA1 2LW,51.3864352,-2.3660835
32,Livingstone Road,BA2 3PH,51.3779673,-2.3775883
4,Livingstone Road,BA2 3PQ,51.3778066,-2.3780208
17,Livingstone Road,BA2 3PH,51.3776449,-2.3786248
21,Moorland Road,BA2 3PW,51.3779838,-2.3795028
22,Moorland Road,BA2 3PW,51.3779526,-2.3794636
23,Moorland Road,BA2 3PW,51.3778944,-2.3793994
26,Moorland Road,BA2 3PW,51.3776838,-2.3791453
27,Moorland Road,BA2 3PW,51.3776468,-2.3790991
28,Moorland Road,BA2 3PW,51.3776142,-2.3790386
29,Moorland Road,BA2 3PW,51.3775659,-2.3789758
16,Margaret's Buildings,BA1 2LP,51.3865791,-2.3660260
17,Margaret's Buildings,BA1 2LP,51.3865158,-2.3660336
153,Newbridge Road,BA1 3HG,51.3842023,-2.3944053
9c,Margaret's Buildings,BA1 2LP,51.3869789,-2.3655964
9b,Margaret's Buildings,BA1 2LP,51.3869377,-2.3656150
8,Margaret's Buildings,BA1 2LP,51.3868265,-2.3656644
9,Margaret's Buildings,BA1 2LP,51.3868806,-2.3656407
6,Margaret's Buildings,BA1 2LP,51.3867244,-2.3657084
7,Margaret's Buildings,BA1 2LP,51.3867761,-2.3656867
1,Margaret's Buildings,BA1 2LP,51.3864545,-2.3658282
3,Margaret's Buildings,BA1 2LP,51.3865602,-2.3657813
2,Margaret's Buildings,BA1 2LP,51.3865062,-2.3658050
157,Englishcombe Lane,BA2 2EL,51.3684158,-2.3849274
43,High Street,BA2 1DB,51.3802132,-2.3951857
23,Crescent Lane,BA1 2PX,51.3882246,-2.3693681
5,Cleveland Place,BA1 5DJ,51.3900659,-2.3564230
18-19,Old Bond Street,BA1 1BP,51.3831100,-2.3613707
20,Old Bond Street,BA1 1BP,51.3831929,-2.3614249
15,Old Bond Street,BA1 1BP,51.3829008,-2.3612820
17-18,Old Bond Street,BA1 1BP,51.3829964,-2.3613234
13,Old Bond Street,BA1 1BP,51.3827412,-2.3612167
12a,Old Bond Street,BA1 1BP,51.3825971,-2.3611620
1a,Lower East Hayes,BA1 6PL,51.3925739,-2.3511388
4,London Road,BA1 6PT,51.3929818,-2.3501464
4,London Road,BA1 6PT,51.3929306,-2.3502747
9,Crown Hill,BA1 4BP,51.3948912,-2.3890426
36-37,High Street,BA1 4BX,51.3958336,-2.3906263
26-33,High Street,BA1 4BX,51.3957214,-2.3903895
Unit 4,Lower Bristol Road,BA2 1EP,51.3815445,-2.3859131
101,Southdown Road,BA2 1HL,51.3709516,-2.3901912
15 - 18,George Street,BA1 2EN,51.3849016,-2.3625950
3,Milsom Street,BA1 1DA,51.3834840,-2.3615573
1,Milsom Street,BA1 1DA,51.3833768,-2.3615059
3,Orange Grove,BA1 1LP,51.3814005,-2.3578542
7,George Street,BA1 2EE,51.3852217,-2.3619326
3,George Street,BA1 2FJ,51.3850424,-2.3622550
2,George Street,BA1 2EE,51.3850259,-2.3623459
4,George Street,BA1 2EH,51.3846776,-2.3625098
3,George Street,BA1 2EH,51.3846710,-2.3624344
5,George Street,BA1 2EJ,51.3846679,-2.3625659
6,George Street,BA1 2EH,51.3846583,-2.3626268
8-9,George Street,BA1 2EH,51.3845733,-2.3628175
10,George Street,BA1 2EH,51.3845503,-2.3629589
11,George Street,BA1 2EH,51.3845436,-2.3630717
12,George Street,BA1 2EH,51.3845540,-2.3632001
Unit 1 &2,Locksbrook Road,BA1 3EN,51.3823697,-2.3940046
2,Lower Bristol Road,BA2 3GL,51.3813808,-2.3867497
1,Lower Bristol Road,BA2 1ES,51.3812589,-2.3866729
3,Lower Bristol Road,BA2 3GL,51.3815034,-2.3868275
9,Moorland Road,BA2 3PL,51.3773362,-2.3791721
6,Moorland Road,BA2 3PA,51.3772335,-2.3790654
8,Moorland Road,BA2 3PL,51.3773013,-2.3791294
10,Moorland Road,BA2 3PL,51.3773703,-2.3792142
11,Moorland Road,BA2 3PL,51.3774050,-2.3792567
4,Moorland Road,BA2 3PJ,51.3770555,-2.3788243
3,Moorland Road,BA2 3PJ,51.3770225,-2.3787748
2,Moorland Road,BA2 3PJ,51.3769877,-2.3787281
1,Moorland Road,BA2 3PJ,51.3769514,-2.3786774
57,Moorland Road,BA2 3PJ,51.3768522,-2.3786086
53,Moorland Road,BA2 3PJ,51.3767436,-2.3783520
52,Moorland Road,BA2 3PJ,51.3767031,-2.3782931
51,Moorland Road,BA2 3PJ,51.3766619,-2.3782344
50,Moorland Road,BA2 3PJ,51.3766205,-2.3781748
26A,Shaftesbury Road,BA2 3LJ,51.3764896,-2.3782756
26B,Shaftesbury Road,BA2 3LJ,51.3764575,-2.3783288
35,Moorland Road,BA2 3PN,51.3772094,-2.3785662
36,Moorland Road,BA2 3PN,51.3771732,-2.3785117
37,Moorland Road,BA2 3PN,51.3771356,-2.3784623
38,Moorland Road,BA2 3PN,51.3770829,-2.3783661
39,Moorland Road,BA2 3PN,51.3770486,-2.3783024
40,Moorland Road,BA2 3PN,51.3769802,-2.3782955
41,Moorland Road,BA2 3PN,51.3769410,-2.3782412
42,Moorland Road,BA2 3PN,51.3769015,-2.3781874
43,Moorland Road,BA2 3PN,51.3768652,-2.3781339
44,Moorland Road,BA2 3PN,51.3768273,-2.3780823
45,Moorland Road,BA2 3PN,51.3767871,-2.3780256
26,Shaftesbury Road,BA2 3LJ,51.3764691,-2.3779326
34,Shaftesbury Road,BA2 3LJ,51.3766885,-2.3774631
32,Shaftesbury Road,BA2 3LJ,51.3766591,-2.3775366
31,Shaftesbury Road,BA2 3LJ,51.3766208,-2.3775994
30,Shaftesbury Road,BA2 3LJ,51.3765933,-2.3776668
29,Shaftesbury Road,BA2 3LJ,51.3765642,-2.3777313
28,Shaftesbury Road,BA2 3LJ,51.3765340,-2.3777986
84,Saint Kilda's Road,BA2 3QJ,51.3762950,-2.3785726
12,Broad Street,BA1 5LJ,51.3845041,-2.3605874
10,Broad Street,BA1 5LJ,51.3843995,-2.3605466
7,Hayes Place,BA2 4QW,51.3745633,-2.3664973
4-5,Hayes Place,BA2 4QW,51.3744624,-2.3665246
2,Hayes Place,BA2 4QW,51.3743293,-2.3665622
3,Hayes Place,BA2 4QW,51.3743971,-2.3665434
138,Wells Road,BA2 3AH,51.3741425,-2.3669209
136,Wells Road,BA2 3AH,51.3741428,-2.3669903
134,Wells Road,BA2 3AH,51.3741445,-2.3670629
9,Wellsway,BA2 4QL,51.3742287,-2.3662839
5-7,Wellsway,BA2 4QL,51.3743224,-2.3662512
3,Wellsway,BA2 4QL,51.3744006,-2.3662054
1,Wellsway,BA2 4QL,51.3744557,-2.3661716
14a,Margaret's Buildings,BA1 2LP,51.3866917,-2.3659988
15,Margaret's Buildings,BA1 2LP,51.3866385,-2.3660180
9a,Margaret's Buildings,BA1 2LP,51.3869719,-2.3658450
10,Chelsea Road,BA1 3DU,51.3853761,-2.3889934
11,Chelsea Road,BA1 3DU,51.3853269,-2.3889875
14,Chelsea Road,BA1 3DU,51.3851749,-2.3889706
13,Chelsea Road,BA1 3DU,51.3852279,-2.3889765
15,Chelsea Road,BA1 3DU,51.3851188,-2.3890025
12,Chelsea Road,BA1 3DU,51.3852805,-2.3889824
2a,Third Avenue,BA2 3NY,51.3766441,-2.3774231
2,Third Avenue,BA2 3NY,51.3766138,-2.3774059
22,Chelsea Road,BA1 3JZ,51.3844899,-2.3888092
18,Chelsea Road,BA1 3DU,51.3846346,-2.3888605
22,Newbridge Road,BA1 3JZ,51.3844856,-2.3888857
17,Chelsea Road,BA1 3DU,51.3847046,-2.3889084
16,Chelsea Road,BA1 3DU,51.3849138,-2.3889147
20,Newbridge Road,BA1 3JX,51.3845596,-2.3884741
20b,Newbridge Road,BA1 3JX,51.3845546,-2.3885266
1-2,Chelsea Road,BA1 3DU,51.3846803,-2.3885668
5,Beau Street,BA1 1QY,51.3802945,-2.3602130
7a,Bartlett Street,BA1 2ED,51.3852339,-2.3615291
7,George Street,BA1 2ED,51.3851736,-2.3614933
124a,High Street,BA1 4DF,51.3964098,-2.3916707
39,High Street,BA1 4BX,51.3958877,-2.3907586
35,High Street,BA1 4BX,51.3957814,-2.3904931
22a,High Street,BA1 4BX,51.3958044,-2.3900494
7,High Street,BA1 4BX,51.3951921,-2.3894749
8a,High Street,BA1 4BX,51.3952287,-2.3895169
7,High Street,BA1 4BX,51.3951589,-2.3894283
6,High Street,BA1 4BX,51.3950962,-2.3893688
11,Crown Hill,BA1 4BP,51.3948671,-2.3891240
7,Crown Hill,BA1 4BP,51.3949042,-2.3889838
7,Cork Place,BA1 3BB,51.3853735,-2.3802454
5,Cork Place,BA1 3BB,51.3853262,-2.3803969
6,Cork Place,BA1 3BB,51.3853486,-2.3803205
6,Upper Bristol Road,BA1 3DD,51.3850128,-2.3814057
14,Upper Bristol Road,BA1 3BA,51.3856262,-2.3788484
15,Upper Bristol Road,BA1 3BA,51.3856327,-2.3787610
18,Union Passage,BA1 1RE,51.3824230,-2.3601599
6,Upper Borough Walls,BA1 1RG,51.3828019,-2.3599847
8,Upper Borough Walls,BA1 1RG,51.3827663,-2.3601726
5,Upper Borough Walls,BA1 1RG,51.3828146,-2.3599195
1-2,Orange Grove,BA1 1LP,51.3814139,-2.3576808
8a,Terrace Walk,BA1 1LN,51.3813432,-2.3577313
4,Wood Street,BA1 2JQ,51.3833392,-2.3623765
5-6,Harington Place,BA1 1HF,51.3829417,-2.3624592
4,Queen Street,BA1 1HE,51.3829242,-2.3619323
7,New Bond Street Place,BA1 1BH,51.3827724,-2.3604871
7,Upper Borough Walls,BA1 1RG,51.3827894,-2.3600501
43,Stall Street,BA1 1QH,51.3813509,-2.3606982
32,Barton Street,BA1 1HH,51.3829480,-2.3626577
28,Barton Street,BA1 1HH,51.3828910,-2.3626299
5-6,Wood Street,BA1 2JQ,51.3833573,-2.3622663
3,Wood Street,BA1 2JQ,51.3833200,-2.3624999
2a,Wood Street,BA1 2JQ,51.3832955,-2.3626428
1,Wood Street,BA1 2JQ,51.3832707,-2.3627795
4-5,Quiet Street,BA1 2JS,51.3833538,-2.3617649
3,Quiet Street,BA1 2JS,51.3833354,-2.3618930
2,Quiet Street,BA1 2JS,51.3833219,-2.3619866
1,John Street,BA1 2JL,51.3833070,-2.3620889
8a,Quiet Street,BA1 2JS,51.3831318,-2.3616221
2,Wood Street,BA1 2JB,51.3831628,-2.3621900
5,Old King Street,BA1 2JW,51.3838094,-2.3627309
7,Trim Street,BA1 1HB,51.3827681,-2.3615144
4,Trim Street,BA1 1HB,51.3827536,-2.3616050
5,Trim Street,BA1 1HB,51.3827336,-2.3617317
24,Barton Street,BA1 1HG,51.3827316,-2.3625383
19,Barton Street,BA1 1HG,51.3825255,-2.3627728
31,Barton Street,BA1 1HG,51.3826250,-2.3628117
1,Camden Road,BA1 6BT,51.3952983,-2.3527794
5,Camden Road,BA1 6EH,51.3950741,-2.3527810
4,Camden Road,BA1 6EH,51.3950418,-2.3529472
3,Camden Road,BA1 6EH,51.3950196,-2.3530033
2,Camden Road,BA1 6EH,51.3949980,-2.3530549
1,Camden Road,BA1 6EH,51.3949776,-2.3531038
91,Walcot Street,BA1 5BW,51.3869067,-2.3594832
134,Walcot Street,BA1 5BG,51.3880640,-2.3589865
8b,Chelsea Road,BA1 3DU,51.3852781,-2.3886571
8e,Chelsea Road,BA1 3DU,51.3854630,-2.3886665
6,Chelsea Road,BA1 3DU,51.3849947,-2.3885960
5,Chelsea Road,BA1 3DU,51.3849167,-2.3885848
8c,Chelsea Road,BA1 3DU,51.3853314,-2.3886645
8,Chelsea Road,BA1 3DU,51.3851888,-2.3886236
8b,Chelsea Road,BA1 3DU,51.3852411,-2.3886519
8d,Chelsea Road,BA1 3DU,51.3853922,-2.3886706
7a,Chelsea Road,BA1 3DU,51.3851214,-2.3886139
3,Chelsea Road,BA1 3DU,51.3847882,-2.3885702
7,Chelsea Road,BA1 3DU,51.3850687,-2.3886065
4,Chelsea Road,BA1 3DU,51.3848569,-2.3885764
11,Broad Street,BA1 5LJ,51.3844448,-2.3606424
14,Broad Street,BA1 5LJ,51.3845926,-2.3606677
22,Broad street,BA1 5LN,51.3848277,-2.3604260
20,Pulteney Road,BA2 4JH,51.3782049,-2.3510285
15,Milsom Street,BA1 1DE,51.3841952,-2.3619205
16,Milsom Street,BA1 1DE,51.3842560,-2.3619490
17-18,Milsom Street,BA1 1DE,51.3843467,-2.3619601
Unit 2,Clarks Way,BA2 2AF,51.3622138,-2.3863158
5,Northumberland Place,BA1 5AR,51.3822859,-2.3596930
141,High Street,BA2 1BZ,51.3799430,-2.3924802
9,George Street,BA1 2EE,51.3851674,-2.3616973
482,Wellsway,BA2 2UB,51.3575745,-2.3778828
6-7,Piccadilly Place,BA1 6PL,51.3923537,-2.3518033
6-7,Piccadilly Place,BA1 6PL,51.3925761,-2.3520373
39,Woodland Grove,BA2 7AT,51.3750065,-2.3295432
37,Woodland Grove,BA2 7AT,51.3751227,-2.3294301
35,Woodland Grove,BA2 7AT,51.3752465,-2.3293276
33,Woodland Grove,BA2 7AT,51.3753584,-2.3292065
31,Woodland Grove,BA2 7AT,51.3754790,-2.3291030
27,Woodland Grove,BA2 7AT,51.3756931,-2.3288874
25,Woodland Grove,BA2 7AT,51.3756608,-2.3286977
23,Woodland Grove,BA2 7AT,51.3756240,-2.3285532
21,Woodland Grove,BA2 7AT,51.3755570,-2.3281459
19,Woodland Grove,BA2 7AT,51.3754025,-2.3278216
17,Woodland Grove,BA2 7AT,51.3755150,-2.3276419
15,Woodland Grove,BA2 7AT,51.3756461,-2.3275448
5,Woodland Grove,BA2 7AT,51.3759493,-2.3284632
9,Woodland Grove,BA2 7AT,51.3758854,-2.3279565
13,Woodland Grove,BA2 7AT,51.3758231,-2.3275844
7,Woodland Grove,BA2 7AT,51.3758971,-2.3282949
1,Woodland Grove,BA2 7AT,51.3760633,-2.3288230
3,Woodland Grove,BA2 7AT,51.3759643,-2.3286591
29,Woodland Grove,BA2 7AT,51.3757305,-2.3290068
28,Woodland Grove,BA2 7AT,51.3753772,-2.3298217
26,Woodland Grove,BA2 7AT,51.3754776,-2.3299443
24,Woodland Grove,BA2 7AT,51.3755797,-2.3300534
22,Woodland Grove,BA2 7AT,51.3756817,-2.3301603
20,Woodland Grove,BA2 7AT,51.3757839,-2.3302789
18,Woodland Grove,BA2 7AT,51.3759830,-2.3305108
16,Woodland Grove,BA2 7AT,51.3760700,-2.3303315
14,Woodland Grove,BA2 7AT,51.3760158,-2.3300043
12,Woodland Grove,BA2 7AT,51.3758860,-2.3298231
10,Woodland Grove,BA2 7AT,51.3756305,-2.3295732
8,Woodland Grove,BA2 7AT,51.3758114,-2.3294208
4,Woodland Grove,BA2 7AT,51.3760115,-2.3293010
6,Woodland Grove,BA2 7AT,51.3758824,-2.3293410
2,Woodland Grove,BA2 7AT,51.3761781,-2.3292888
18,The Avenue,BA2 7AX,51.3762283,-2.3295234
16,The Avenue,BA2 7AX,51.3762413,-2.3296747
14,The Avenue,BA2 7AX,51.3762458,-2.3298926
12,The Avenue,BA2 7AX,51.3762548,-2.3300140
39-41,Upper Oldfield Park,BA2 3LB,51.3759347,-2.3732451
21,Milsom Street,BA1 1DE,51.3845460,-2.3620513
19,Milsom Street,BA1 1DE,51.3844301,-2.3619987
20,Milsom Street,BA1 1DE,51.3844874,-2.3620249
22,Milsom Street,BA1 1DE,51.3846068,-2.3620783
142,Walcot Street,BA1 5BL,51.3884651,-2.3589741
144,Walcot Street,BA1 5BL,51.3885126,-2.3589571
140,Walcot Street,BA1 5BL,51.3884129,-2.3589673
2,Monmouth Place,BA1 2AT,51.3829670,-2.3669084
134-136,Walcot Street,BA1 5BG,51.3881236,-2.3589862
138a,Walcot Street,BA1 5BG,51.3882113,-2.3590137
7,Saw Close,BA1 1EY,51.3817313,-2.3619526
61,Frome Road,BA2 2PW,51.3599928,-2.3785872
88,Frome Road,BA2 2PP,51.3598162,-2.3789451
2,Saville Row,BA1 2QP,51.3862609,-2.3620270
16,Alfred Street,BA1 2QU,51.3861319,-2.3619972
1b,The Avenue,BA2 5EE,51.3598930,-2.3464926
33a,Combe Road,BA2 5HY,51.3589074,-2.3497727
1,Park Road,BA1 3EE,51.3848843,-2.3890041
1,Kennington Road,BA1 3EA,51.3854256,-2.3890115
18,Newbridge Road,BA1 3JX,51.3845546,-2.3883114
3,The Hollow,BA2 1LX,51.3769678,-2.3888103
36,Milsom Street,BA1 1DN,51.3840836,-2.3614230
8,Saw Close,BA1 1EY,51.3818896,-2.3619537
9,Saw Close,BA1 1EY,51.3820413,-2.3619215
6,Saw Close,BA1 1EY,51.3816604,-2.3620895
4,Fairfield Road,BA1 6EP,51.3954274,-2.3528087
22c,New Bond Street,BA1 1BA,51.3831445,-2.3601334
23,New Bond Street,BA1 1BA,51.3831499,-2.3600469
24,New Bond Street,BA1 1BA,51.3831552,-2.3599618
15,Southgate Place,BA1 1AP,51.3789015,-2.3579117
17,Southgate Place,BA1 1AP,51.3788556,-2.3578208
16,Southgate Place,BA1 1AP,51.3787202,-2.3578451
10-14,Southgate Place,BA1 1PQ,51.3790401,-2.3581829
12,Miles's Buildings,BA1 2QS,51.3848792,-2.3630343
33-34,Pulteney Road,BA2 4EZ,51.3817061,-2.3519448
2,Dorset Close,BA2 3RF,51.3809030,-2.3782508
33,Gay Street,BA1 2NT,51.3844323,-2.3632687
35,Gay Street,BA1 2NT,51.3843386,-2.3632314
34,Gay Street,BA1 2NT,51.3843948,-2.3631774
36,Gay Street,BA1 2NT,51.3842861,-2.3632105
37,Gay Street,BA1 2NT,51.3842322,-2.3631893
39,Gay Street,BA1 2NT,51.3841248,-2.3631464
38,Gay Street,BA1 2NT,51.3841774,-2.3631673
41,Gay Street,BA1 2NT,51.3840022,-2.3630847
40,Gay Street,BA1 2NT,51.3840715,-2.3631252
34,Oldfield Road,BA2 3ND,51.3742350,-2.3710893
20,Chelwood Drive,BA2 2PR,51.3595267,-2.3751409
76,Cranwells Park,BA1 2YE,51.3903623,-2.3787585
3,St James's Street,BA1 2TW,51.3883171,-2.3675897
19,Lower Borough Walls,BA1 1QU,51.3798306,-2.3601021
4,St. James's Street,BA1 2TW,51.3884424,-2.3676597
5-6,St. James's Street,BA1 2TW,51.3884937,-2.3676929
6,Bath Street,BA1 1SA,51.3807347,-2.3608938
12,Manvers Street,BA1 1JQ,51.3787220,-2.3572967
1,Railway Street,BA1 1PF,51.3786669,-2.3573616
34,Wellsway,BA2 2AA,51.3727332,-2.3667448
30-32,Wellsway,BA2 2AA,51.3728299,-2.3667277
12-19,Wellsway,BA2 2AA,51.3735966,-2.3667267
14-18,Wellsway,BA2 2AA,51.3734879,-2.3669129
22,Wellsway,BA2 2AA,51.3732130,-2.3666903
20,Wellsway,BA2 2AA,51.3732691,-2.3666893
33a,Wellsway,BA2 4RR,51.3735086,-2.3662481
21a,Wellsway,BA2 4RR,51.3738781,-2.3662464
23,Wellsway,BA2 4RR,51.3738125,-2.3662417
1,Hayes Place,BA2 4QW,51.3743737,-2.3666881
7,Hayesfield Park,BA2 4QE,51.3745513,-2.3667146
6-10,Westgate Buildings,BA1 1EB,51.3806065,-2.3625223
3-5,Saint James's Parade,BA1 1UG,51.3787363,-2.3604579
10,St James Parade,BA1 1UL,51.3794421,-2.3613091
7,St James Parade,BA1 1UL,51.3795902,-2.3614274
6,St James Parade,BA1 1UL,51.3796346,-2.3614792
11,St James Parade,BA1 1UL,51.3793986,-2.3612582
12,St James Parade,BA1 1UL,51.3793651,-2.3611681
13,St James Parade,BA1 1UL,51.3793104,-2.3611166
14,St James Parade,BA1 1UL,51.3792597,-2.3610663
15,St James Parade,BA1 1UL,51.3792165,-2.3609957
16,St James Parade,BA1 1UL,51.3791684,-2.3609394
17,St James Parade,BA1 1UL,51.3791234,-2.3608867
18,St James Parade,BA1 1UL,51.3790789,-2.3608348
37,Saint James's Parade,BA1 1UH,51.3793883,-2.3607422
19,St James Parade,BA1 1UL,51.3790257,-2.3607726
20,St James Parade,BA1 1UL,51.3789784,-2.3607099
21,Saint James's Parade,BA1 1UL,51.3789537,-2.3606483
30,St James's Parade,BA1 1UJ,51.3789840,-2.3602908
34,Southgate Street,BA1 1TP,51.3782963,-2.3599242
3,Beau Street,BA1 1QY,51.3802960,-2.3602606
16-18,Lower Borough Walls,BA1 1QU,51.3798529,-2.3602445
43,Monmouth Street,BA1 2AN,51.3815341,-2.3627368
24,Westgate Street,BA1 1EP,51.3814766,-2.3619901
34,Monmouth Street,BA1 2AN,51.3820737,-2.3635354
32a,Monmouth Street,BA1 2AN,51.3821369,-2.3637372
11,Sawclose,BA1 1EN,51.3817894,-2.3629901
37,Monmouth Street,BA1 1EN,51.3816534,-2.3629863
4-5,Monmouth Street,BA1 2AJ,51.3816508,-2.3632678
3,Monmouth Street,BA1 2AJ,51.3815799,-2.3631474
39,Monmouth Street,BA1 2AN,51.3815904,-2.3628911
42,Monmouth Street,BA1 2AN,51.3815027,-2.3627670
41,Monmouth Street,BA1 2AN,51.3815270,-2.3627976
3-4,Saw Close,BA1 1EY,51.3816945,-2.3627047
40,Monmouth Street,BA1 2AN,51.3815578,-2.3628425
5-6,Saw Close,BA1 1EN,51.3818337,-2.3627303
11,Princes Street,BA1 1HL,51.3823668,-2.3636630
15,Barton Street,BA1 1HQ,51.3823314,-2.3627006
10a,Princes Street,BA1 1HL,51.3824252,-2.3636843
31,Monmouth Street,BA1 2AN,51.3821403,-2.3637910
12,Princes Street,BA1 1HL,51.3822134,-2.3637583
1,Saint Paul's Place,BA1 2AR,51.3825725,-2.3652837
29,Charles Street,BA1 1HU,51.3825037,-2.3651826
28,Charles Street,BA1 1HU,51.3824846,-2.3652815
30,Monmouth Street,BA1 2AP,51.3823713,-2.3640790
6,Princes Street,BA1 1HL,51.3826215,-2.3639671
5,Princes Street,BA1 1HL,51.3825754,-2.3639490
4,Princes Street,BA1 1HL,51.3825391,-2.3639122
47,Upper Bristol Road,BA1 2NB,51.3833848,-2.3670706
12,Seven Dials,BA1 1EN,51.3816727,-2.3628913
18,Kingsmead Square,BA1 2AE,51.3814720,-2.3631056
1,Chapel Row,BA1 1HN,51.3827852,-2.3640012
5,Chapel Row,BA1 1HN,51.3827400,-2.3643224
6,Chapel Row,BA1 1HN,51.3827089,-2.3643963
7,Chapel Row,BA1 1HN,51.3827319,-2.3644945
8,Chapel Row,BA1 1HN,51.3827404,-2.3645873
9,Chapel Row,BA1 1HN,51.3827282,-2.3646664
12,Chapel Row,BA1 1HN,51.3825828,-2.3648082
3,Wood Street,BA1 2JB,51.3831209,-2.3623923
2,Wood Street,BA1 2JB,51.3831044,-2.3622884
4,Wood Street,BA1 2JB,51.3830806,-2.3624580
12,Laura Place,BA2 4BL,51.3833261,-2.3566120
17,Argyle Street,BA2 4BQ,51.3830277,-2.3575351
3,Abbey Green,BA1 1NW,51.3804724,-2.3586246
4,Abbey Green,BA1 1NW,51.3803983,-2.3586354
1,Abbey Gate Street,BA1 1NP,51.3802245,-2.3594405
2,Abbey Gate Street,BA1 1NP,51.3803005,-2.3593553
3,Abbey Gate Street,BA1 1NP,51.3803189,-2.3592438
4-5,Abbey Gate Street,BA1 1NP,51.3803033,-2.3591180
31,Southgate Street,BA1 1TP,51.3781488,-2.3599950
32,Southgate Street,BA1 1TP,51.3781965,-2.3599448
33,Southgate Street,BA1 1TP,51.3782469,-2.3599787
11,Claverton Street,BA2 4LD,51.3767058,-2.3552085
14,Fountain Buildings,BA1 5DX,51.3855702,-2.3611927
15,Lansdown Road,BA1 5DX,51.3854991,-2.3610399
3,Fountains Buildings,BA1 5DU,51.3856026,-2.3607927
7,The Paragon,BA1 5LS,51.3854633,-2.3604122
4,Bladud Buildings,BA1 5LS,51.3852798,-2.3604383
3,The Paragon,BA1 5LS,51.3852026,-2.3603566
2,The Paragon,BA1 5LS,51.3851641,-2.3605183
2,George Street,BA1 2ED,51.3853397,-2.3610440
4a,George Street,BA1 2ED,51.3852762,-2.3612275
5,George Street,BA1 2ED,51.3852421,-2.3613196
6,George Street,BA1 2ED,51.3852221,-2.3614113
1,George Street,BA1 2EY,51.3853290,-2.3609522
21,Broad Street,BA1 5LN,51.3848784,-2.3604139
23,Broad street,BA1 5LN,51.3847585,-2.3603949
22a,Broad street,BA1 5LN,51.3847965,-2.3604147
24,Broad street,BA1 5LW,51.3847008,-2.3603571
J1,The Paragon,BA1 5LX,51.3865287,-2.3598166
3,James Street West,BA1 2AG,51.3811875,-2.3644351
The Grain Store,Roseberry Road,BA2 3GS,51.3823889,-2.3817891
6-7,St Peter's Terrace,BA2 3BT,51.3812088,-2.3751282
16a,Combe Road,BA2 5HX,51.3596268,-2.3513841
8,Combe Road,BA2 5HX,51.3599202,-2.3516962
14-15,John Street,BA1 2JL,51.3835277,-2.3623470
14-15,John Street,BA1 2JL,51.3836176,-2.3621489
14,Old Bond Street,BA1 1BP,51.3828210,-2.3612490
18,High Street,BA1 5AJ,51.3821746,-2.3593700
54a,Combe Road,BA2 5HZ,51.3587483,-2.3498767
54,First Avenue,BA2 3NW,51.3744423,-2.3749995
13,London Street,BA1 5BU,51.3891239,-2.3587416
23,High Street,BA1 4BX,51.3956329,-2.3900957
1-6,Saint Stephen's Place,BA1 5PJ,51.3918316,-2.3631640
31,James Street West,BA1 2BT,51.3820906,-2.3668639
79,Lower Bristol Road,BA2 3BG,51.3796595,-2.3711262
78,Lower Bristol Road,BA2 3BG,51.3796321,-2.3710508
77,Lower Bristol Road,BA2 3BG,51.3796048,-2.3709758
76,Lower Bristol Road,BA2 3BG,51.3795776,-2.3709008
75,Lower Bristol Road,BA2 3BG,51.3795504,-2.3708259
72,Lower Bristol Road,BA2 3BG,51.3794681,-2.3706012
81,Lower Bristol Road,BA2 3BQ,51.3797428,-2.3713172
82,Lower Bristol Road,BA2 3BQ,51.3797704,-2.3713851
83,Lower Bristol Road,BA2 3BQ,51.3797981,-2.3714530
84,Lower Bristol Road,BA2 3BQ,51.3798257,-2.3715208
85,Lower Bristol Road,BA2 3BQ,51.3798532,-2.3715887
86,Lower Bristol Road,BA2 3BQ,51.3798850,-2.3716498
63,Lower Bristol Road,BA2 3BE,51.3791832,-2.3697861
62,Lower Bristol Road,BA2 3BE,51.3791616,-2.3697256
61,Lower Bristol Road,BA2 3BE,51.3791399,-2.3696651
60,Lower Bristol Road,BA2 3BE,51.3791182,-2.3696044
59,Lower Bristol Road,BA2 3BE,51.3790967,-2.3695439
58,Lower Bristol Road,BA2 3BE,51.3790750,-2.3694834
57,Lower Bristol Road,BA2 3BE,51.3790534,-2.3694229
56,Lower Bristol Road,BA2 3BE,51.3790317,-2.3693624
55,Lower Bristol Road,BA2 3BE,51.3790101,-2.3693017
54,Lower Bristol Road,BA2 3BE,51.3789885,-2.3692412
53,Lower Bristol Road,BA2 3BE,51.3789668,-2.3691807
52,Lower Bristol Road,BA2 3BE,51.3789453,-2.3691202
51,Lower Bristol Road,BA2 3BE,51.3789236,-2.3690597
50,Lower Bristol Road,BA2 3BE,51.3789020,-2.3689991
49,Lower Bristol Road,BA2 3BE,51.3788804,-2.3689385
48,Lower Bristol Road,BA2 3BE,51.3788587,-2.3688780
47,Lower Bristol Road,BA2 3BE,51.3788371,-2.3688174
46,Lower Bristol Road,BA2 3BD,51.3788141,-2.3687284
1,Pulteney Road,BA2 4JH,51.3773711,-2.3518380
2,Pulteney Road,BA2 4JH,51.3774150,-2.3517954
3,Pulteney Road,BA2 4JH,51.3774588,-2.3517528
4,Pulteney Road,BA2 4JH,51.3775027,-2.3517102
5,Pulteney Road,BA2 4JH,51.3775466,-2.3516676
6,Pulteney Road,BA2 4JH,51.3775905,-2.3516249
7,Pulteney Road,BA2 4JH,51.3776344,-2.3515823
8,Pulteney Road,BA2 4JH,51.3776783,-2.3515397
9,Pulteney Road,BA2 4JH,51.3777222,-2.3514971
10,Pulteney Road,BA2 4JH,51.3777661,-2.3514545
11,Pulteney Road,BA2 4JH,51.3778099,-2.3514119
12,Pulteney Road,BA2 4JH,51.3778538,-2.3513693
13,Pulteney Road,BA2 4JH,51.3778977,-2.3513267
14,Pulteney Road,BA2 4JH,51.3779416,-2.3512841
15,Pulteney Road,BA2 4JH,51.3779855,-2.3512415
16,Pulteney Road,BA2 4JH,51.3780294,-2.3511989
17,Pulteney Road,BA2 4JH,51.3780732,-2.3511563
18,Pulteney Road,BA2 4JH,51.3781171,-2.3511137
19,Pulteney Road,BA2 4JH,51.3781610,-2.3510711
25,Pulteney Gardens,BA2 4HG,51.3795744,-2.3508696
5,The Avenue,BA2 5EH,51.3597759,-2.3469773
112,Queen's Drive,BA2 5PE,51.3634192,-2.3573975
160Ð,Bradford Road,BA2 5BZ,51.3592878,-2.3544980
160,Bradford Road,BA2 5BZ,51.3589549,-2.3543575
69,Stirtingale Road,BA2 2NG,51.3665810,-2.3854914
22,Eastbourne Avenue,BA1 6EW,51.3956074,-2.3523467
21,Eastbourne Avenue,BA1 6EW,51.3956269,-2.3522722
20,Eastbourne Avenue,BA1 6EW,51.3956467,-2.3521966
19,Eastbourne Avenue,BA1 6EW,51.3956658,-2.3521238
18,Eastbourne Avenue,BA1 6EW,51.3956845,-2.3520525
17,Eastbourne Avenue,BA1 6EW,51.3957029,-2.3519823
16,Eastbourne Avenue,BA1 6EW,51.3957218,-2.3519103
15,Eastbourne Avenue,BA1 6EW,51.3957418,-2.3518339
14,Eastbourne Avenue,BA1 6EW,51.3957610,-2.3517608
13,Eastbourne Avenue,BA1 6EW,51.3957810,-2.3516843
12,Eastbourne Avenue,BA1 6EW,51.3958008,-2.3516090
11,Eastbourne Avenue,BA1 6EW,51.3958384,-2.3514643
10,Eastbourne Avenue,BA1 6EW,51.3958596,-2.3513915
9,Eastbourne Avenue,BA1 6EW,51.3958808,-2.3513189
8,Eastbourne Avenue,BA1 6EW,51.3959020,-2.3512462
7,Eastbourne Avenue,BA1 6EW,51.3959232,-2.3511736
6,Eastbourne Avenue,BA1 6EW,51.3959445,-2.3511010
5,Eastbourne Avenue,BA1 6EW,51.3959657,-2.3510282
4,Eastbourne Avenue,BA1 6EW,51.3959869,-2.3509556
3,Eastbourne Avenue,BA1 6EW,51.3960082,-2.3508829
2,Eastbourne Avenue,BA1 6EW,51.3960293,-2.3508103
1,Eastbourne Avenue,BA1 6EW,51.3960506,-2.3507376
57,Claude Avenue,BA2 1AG,51.3753442,-2.3826137
56,Claude Avenue,BA2 1AG,51.3752975,-2.3826170
55,Claude Avenue,BA2 1AG,51.3752528,-2.3826172
54,Claude Avenue,BA2 1AG,51.3752094,-2.3826218
53,Claude Avenue,BA2 1AG,51.3751649,-2.3826212
52,Claude Avenue,BA2 1AG,51.3751207,-2.3826216
51,Claude Avenue,BA2 1AG,51.3750785,-2.3826215
50,Claude Avenue,BA2 1AG,51.3750357,-2.3826222
49,Claude Avenue,BA2 1AG,51.3749923,-2.3826224
48,Claude Avenue,BA2 1AG,51.3749495,-2.3826230
47,Claude Avenue,BA2 1AG,51.3749066,-2.3826255
46,Claude Avenue,BA2 1AG,51.3748631,-2.3826255
45,Claude Avenue,BA2 1AG,51.3748191,-2.3826213
44,Claude Avenue,BA2 1AG,51.3747771,-2.3826210
43,Claude Avenue,BA2 1AG,51.3747349,-2.3826214
42,Claude Avenue,BA2 1AG,51.3746926,-2.3826217
41,Claude Avenue,BA2 1AG,51.3746499,-2.3826222
40,Claude Avenue,BA2 1AG,51.3746094,-2.3826224
39,Claude Avenue,BA2 1AG,51.3745678,-2.3826240
38,Claude Avenue,BA2 1AG,51.3745260,-2.3826253
37,Claude Avenue,BA2 1AG,51.3744860,-2.3826262
36,Claude Avenue,BA2 1AG,51.3744461,-2.3826285
35,Claude Avenue,BA2 1AG,51.3744025,-2.3826303
1,Lymore Gardens,BA2 1AQ,51.3743827,-2.3849177
2,Lymore Gardens,BA2 1AQ,51.3744197,-2.3849105
3,Lymore Gardens,BA2 1AQ,51.3744566,-2.3849035
4,Lymore Gardens,BA2 1AQ,51.3744936,-2.3848963
5,Lymore Gardens,BA2 1AQ,51.3745305,-2.3848892
6,Lymore Gardens,BA2 1AQ,51.3745675,-2.3848822
7,Lymore Gardens,BA2 1AQ,51.3746044,-2.3848750
8,Lymore Gardens,BA2 1AQ,51.3746414,-2.3848680
9,Lymore Gardens,BA2 1AQ,51.3746783,-2.3848609
10,Lymore Gardens,BA2 1AQ,51.3747153,-2.3848538
11,Lymore Gardens,BA2 1AQ,51.3747523,-2.3848468
12,Lymore Gardens,BA2 1AQ,51.3747892,-2.3848396
13,Lymore Gardens,BA2 1AQ,51.3748262,-2.3848325
14,Lymore Gardens,BA2 1AQ,51.3748631,-2.3848255
15,Lymore Gardens,BA2 1AQ,51.3749001,-2.3848183
16,Lymore Gardens,BA2 1AQ,51.3749370,-2.3848113
17,Lymore Gardens,BA2 1AQ,51.3749740,-2.3848042
18,Lymore Gardens,BA2 1AQ,51.3750109,-2.3847971
19,Lymore Gardens,BA2 1AQ,51.3750479,-2.3847901
20,Lymore Gardens,BA2 1AQ,51.3750848,-2.3847829
21,Lymore Gardens,BA2 1AQ,51.3751218,-2.3847758
22,Lymore Gardens,BA2 1AQ,51.3751588,-2.3847688
23,Lymore Gardens,BA2 1AQ,51.3751957,-2.3847616
24,Lymore Gardens,BA2 1AQ,51.3752327,-2.3847546
25,Lymore Gardens,BA2 1AQ,51.3752696,-2.3847474
26,Lymore Gardens,BA2 1AQ,51.3753066,-2.3847404
47,Ivy Avenue,BA2 1AJ,51.3727303,-2.3853989
45,Ivy Avenue,BA2 1AJ,51.3727685,-2.3853706
43,Ivy Avenue,BA2 1AJ,51.3728067,-2.3853422
41,Ivy Avenue,BA2 1AJ,51.3728448,-2.3853139
39,Ivy Avenue,BA2 1AJ,51.3728830,-2.3852856
37,Ivy Avenue,BA2 1AJ,51.3729213,-2.3852573
35,Ivy Avenue,BA2 1AJ,51.3729596,-2.3852290
33,Ivy Avenue,BA2 1AJ,51.3729978,-2.3852007
31,Ivy Avenue,BA2 1AJ,51.3730359,-2.3851723
32a,Coronation Avenue,BA2 2JW,51.3728032,-2.3844782
133a,Coronation Avenue,BA2 2JX,51.3708072,-2.3856219
91,Coronation Avenue,BA2 2JX,51.3716440,-2.3849583
49,Monksdale Road,BA2 3PE,51.3727542,-2.3790932
47,Monksdale Road,BA2 3PE,51.3728042,-2.3790331
45,Monksdale Road,BA2 3PE,51.3728542,-2.3789730
43,Monksdale Road,BA2 3PE,51.3729042,-2.3789130
52,Hillside Road,BA2 3NX,51.3724252,-2.3763231
51,Hillside Road,BA2 3NX,51.3724739,-2.3762827
54,Hillside Road,BA2 3NX,51.3723196,-2.3763781
53,Hillside Road,BA2 3NX,51.3723684,-2.3763376
56,Hillside Road,BA2 3NX,51.3722259,-2.3764737
55,Hillside Road,BA2 3NX,51.3722750,-2.3764330
59,Hillside Road,BA2 3NX,51.3724428,-2.3767495
60,Hillside Road,BA2 3NX,51.3724895,-2.3767096
57,Hillside Road,BA2 3NX,51.3723502,-2.3768437
58,Hillside Road,BA2 3NX,51.3723991,-2.3768034
62,Hillside Road,BA2 3NX,51.3725918,-2.3766504
61,Hillside Road,BA2 3NX,51.3725448,-2.3766910
64,Hillside Road,BA2 3NX,51.3726800,-2.3769986
65,Hillside Road,BA2 3NX,51.3726194,-2.3770486
66,Hillside Road,BA2 3NX,51.3725587,-2.3770985
67,Hillside Road,BA2 3NX,51.3725079,-2.3771832
63,Hillside Road,BA2 3NX,51.3727484,-2.3769697
68,Hillside Road,BA2 3NX,51.3726819,-2.3774017
70,Hillside Road,BA2 3NX,51.3727917,-2.3772824
69,Hillside Road,BA2 3NX,51.3727334,-2.3773314
71,Hillside Road,BA2 3NX,51.3728557,-2.3772505
74,Hillside Road,BA2 3NX,51.3730349,-2.3774691
73,Hillside Road,BA2 3NX,51.3730016,-2.3773681
72,Hillside Road,BA2 3NX,51.3729682,-2.3772671
77,Hillside Road,BA2 3NX,51.3728628,-2.3777365
76,Hillside Road,BA2 3NX,51.3729237,-2.3776830
75,Hillside Road,BA2 3NX,51.3729846,-2.3776293
9,Ashford Road,BA2 2DH,51.3712775,-2.3775564
21A,King Edward Road,BA2 3PD,51.3754802,-2.3766739
21B,King Edward Road,BA2 3PD,51.3754564,-2.3766139
22,King Edward Road,BA2 3PD,51.3754325,-2.3765538
23,King Edward Road,BA2 3PD,51.3754085,-2.3764937
24,King Edward Road,BA2 3PD,51.3753846,-2.3764336
25,King Edward Road,BA2 3PD,51.3753607,-2.3763736
26,King Edward Road,BA2 3PD,51.3753368,-2.3763135
27,King Edward Road,BA2 3PD,51.3753129,-2.3762533
28,King Edward Road,BA2 3PD,51.3752889,-2.3761933
29,King Edward Road,BA2 3PD,51.3752650,-2.3761332
30,King Edward Road,BA2 3PD,51.3752410,-2.3760731
31,King Edward Road,BA2 3PD,51.3752171,-2.3760131
32,King Edward Road,BA2 3PD,51.3751932,-2.3759530
33,King Edward Road,BA2 3PD,51.3751693,-2.3758929
34,King Edward Road,BA2 3PD,51.3751454,-2.3758328
35,King Edward Road,BA2 3PD,51.3751214,-2.3757728
36,King Edward Road,BA2 3PB,51.3750163,-2.3755911
37,King Edward Road,BA2 3PB,51.3749883,-2.3755093
38,King Edward Road,BA2 3PB,51.3749632,-2.3754414
39,King Edward Road,BA2 3PB,51.3749377,-2.3753755
40,King Edward Road,BA2 3PB,51.3749151,-2.3753057
41,King Edward Road,BA2 3PB,51.3748921,-2.3752392
42,King Edward Road,BA2 3PB,51.3748661,-2.3751694
43,King Edward Road,BA2 3PB,51.3748427,-2.3751029
44,King Edward Road,BA2 3PB,51.3748184,-2.3750411
45,King Edward Road,BA2 3PB,51.3747925,-2.3749692
46,King Edward Road,BA2 3PB,51.3747666,-2.3748973
47,King Edward Road,BA2 3PB,51.3747245,-2.3747995
27,Beckhampton Road,BA2 3LL,51.3752454,-2.3775873
28,Beckhampton Road,BA2 3LL,51.3752078,-2.3776133
29,Beckhampton Road,BA2 3LL,51.3751701,-2.3776393
30,Beckhampton Road,BA2 3LL,51.3751324,-2.3776654
31,Beckhampton Road,BA2 3LL,51.3750948,-2.3776914
32,Beckhampton Road,BA2 3LL,51.3750571,-2.3777174
33,Beckhampton Road,BA2 3LL,51.3750194,-2.3777435
34,Beckhampton Road,BA2 3LL,51.3749817,-2.3777695
35,Beckhampton Road,BA2 3LL,51.3749441,-2.3777954
36,Beckhampton Road,BA2 3LL,51.3749064,-2.3778214
37,Beckhampton Road,BA2 3LL,51.3748432,-2.3778840
38,Beckhampton Road,BA2 3LL,51.3747896,-2.3778342
39,Beckhampton Road,BA2 3LL,51.3747458,-2.3778134
40,Beckhampton Road,BA2 3LL,51.3747069,-2.3777972
41,Beckhampton Road,BA2 3LL,51.3746726,-2.3777807
42,Beckhampton Road,BA2 3LL,51.3746356,-2.3777640
43,Beckhampton Road,BA2 3LL,51.3745959,-2.3777471
44,Beckhampton Road,BA2 3LL,51.3745577,-2.3777283
45,Beckhampton Road,BA2 3LL,51.3745198,-2.3777140
46,Beckhampton Road,BA2 3LL,51.3744580,-2.3777009
48,Beckhampton Road,BA2 3LL,51.3744064,-2.3776609
50,Beckhampton Road,BA2 3LL,51.3743233,-2.3775859
49,Beckhampton Road,BA2 3LL,51.3743633,-2.3776152
92,Third Avenue,BA2 3NZ,51.3742222,-2.3773744
88,Third Avenue,BA2 3NZ,51.3744760,-2.3772953
86,Third Avenue,BA2 3NZ,51.3745281,-2.3772820
84,Third Avenue,BA2 3NZ,51.3745802,-2.3772687
82,Third Avenue,BA2 3NZ,51.3746322,-2.3772554
80,Third Avenue,BA2 3NZ,51.3746843,-2.3772422
78,Third Avenue,BA2 3NZ,51.3747364,-2.3772289
76,Third Avenue,BA2 3NZ,51.3747884,-2.3772156
74,Third Avenue,BA2 3NZ,51.3748405,-2.3772023
72,Third Avenue,BA2 3NZ,51.3748926,-2.3771890
70,Third Avenue,BA2 3NZ,51.3749447,-2.3771757
68,Third Avenue,BA2 3NZ,51.3749967,-2.3771624
66,Third Avenue,BA2 3NZ,51.3750488,-2.3771491
64,Third Avenue,BA2 3NZ,51.3751008,-2.3771358
62,Third Avenue,BA2 3NZ,51.3751529,-2.3771226
60,Third Avenue,BA2 3NZ,51.3752050,-2.3771093
58,Third Avenue,BA2 3NZ,51.3752571,-2.3770960
56,Third Avenue,BA2 3NZ,51.3753091,-2.3770827
54,Third Avenue,BA2 3NZ,51.3753612,-2.3770694
52,Third Avenue,BA2 3NZ,51.3754132,-2.3770561
50,Third Avenue,BA2 3NZ,51.3754653,-2.3770428
48,Third Avenue,BA2 3NZ,51.3755173,-2.3770295
46,Third Avenue,BA2 3NZ,51.3755694,-2.3770162
37,Third Avenue,BA2 3NZ,51.3751220,-2.3767345
39,Third Avenue,BA2 3NZ,51.3750795,-2.3767464
41,Third Avenue,BA2 3NZ,51.3750370,-2.3767584
43,Third Avenue,BA2 3NZ,51.3749945,-2.3767702
45,Third Avenue,BA2 3NZ,51.3749519,-2.3767822
47,Third Avenue,BA2 3NZ,51.3749094,-2.3767941
49,Third Avenue,BA2 3NZ,51.3748669,-2.3768060
51,Third Avenue,BA2 3NZ,51.3748244,-2.3768179
53,Third Avenue,BA2 3NZ,51.3747819,-2.3768299
55,Third Avenue,BA2 3NZ,51.3747394,-2.3768418
57,Third Avenue,BA2 3NZ,51.3746969,-2.3768537
59,Third Avenue,BA2 3NZ,51.3746544,-2.3768656
61,Third Avenue,BA2 3NZ,51.3746119,-2.3768776
63,Third Avenue,BA2 3NZ,51.3745694,-2.3768895
65,Third Avenue,BA2 3NZ,51.3745268,-2.3769014
67,Third Avenue,BA2 3NZ,51.3744844,-2.3769133
69,Third Avenue,BA2 3NZ,51.3744418,-2.3769252
71,Third Avenue,BA2 3NZ,51.3743993,-2.3769371
24,Second Avenue,BA2 3NN,51.3739136,-2.3763680
23,Second Avenue,BA2 3NN,51.3739571,-2.3763572
22,Second Avenue,BA2 3NN,51.3740005,-2.3763464
21,Second Avenue,BA2 3NN,51.3740440,-2.3763355
20,Second Avenue,BA2 3NN,51.3740875,-2.3763247
19,Second Avenue,BA2 3NN,51.3741309,-2.3763138
18,Second Avenue,BA2 3NN,51.3741743,-2.3763030
17,Second Avenue,BA2 3NN,51.3742178,-2.3762922
16,Second Avenue,BA2 3NN,51.3742613,-2.3762813
15,Second Avenue,BA2 3NN,51.3743048,-2.3762705
14,Second Avenue,BA2 3NN,51.3743482,-2.3762597
13,Second Avenue,BA2 3NN,51.3743916,-2.3762488
12,Second Avenue,BA2 3NN,51.3744351,-2.3762380
11,Second Avenue,BA2 3NN,51.3744786,-2.3762271
10,Second Avenue,BA2 3NN,51.3745221,-2.3762163
9,Second Avenue,BA2 3NN,51.3745655,-2.3762055
8,Second Avenue,BA2 3NN,51.3746090,-2.3761946
7,Second Avenue,BA2 3NN,51.3746524,-2.3761838
6,Second Avenue,BA2 3NN,51.3746959,-2.3761729
5,Second Avenue,BA2 3NN,51.3747393,-2.3761621
4,Second Avenue,BA2 3NN,51.3747828,-2.3761512
3,Second Avenue,BA2 3NN,51.3748263,-2.3761404
2,Second Avenue,BA2 3NN,51.3748698,-2.3761295
1,Second Avenue,BA2 3NN,51.3749132,-2.3761187
51,Second Avenue,BA2 3NN,51.3747527,-2.3756724
50,Second Avenue,BA2 3NN,51.3747074,-2.3756788
49,Second Avenue,BA2 3NN,51.3746663,-2.3756848
48,Second Avenue,BA2 3NN,51.3746252,-2.3756961
47,Second Avenue,BA2 3NN,51.3745808,-2.3757073
46,Second Avenue,BA2 3NN,51.3745368,-2.3757173
45,Second Avenue,BA2 3NN,51.3744932,-2.3757327
44,Second Avenue,BA2 3NN,51.3744501,-2.3757440
43,Second Avenue,BA2 3NN,51.3744085,-2.3757547
42,Second Avenue,BA2 3NN,51.3743640,-2.3757660
41,Second Avenue,BA2 3NN,51.3743205,-2.3757773
40,Second Avenue,BA2 3NN,51.3742764,-2.3757867
39,Second Avenue,BA2 3NN,51.3742324,-2.3757959
38,Second Avenue,BA2 3NN,51.3741885,-2.3758059
37,Second Avenue,BA2 3NN,51.3741445,-2.3758158
36,Second Avenue,BA2 3NN,51.3741033,-2.3758266
35,Second Avenue,BA2 3NN,51.3740584,-2.3758392
34,Second Avenue,BA2 3NN,51.3740157,-2.3758478
33,Second Avenue,BA2 3NN,51.3739721,-2.3758585
32,Second Avenue,BA2 3NN,51.3739298,-2.3758678
31,Second Avenue,BA2 3NN,51.3738853,-2.3758792
30,Second Avenue,BA2 3NN,51.3738405,-2.3758891
29,Second Avenue,BA2 3NN,51.3737981,-2.3759010
28,Second Avenue,BA2 3NN,51.3737549,-2.3759103
27,Second Avenue,BA2 3NN,51.3736895,-2.3759230
53,First Avenue,BA2 3NW,51.3743985,-2.3750091
52,First Avenue,BA2 3NW,51.3743549,-2.3750191
51,First Avenue,BA2 3NW,51.3743122,-2.3750292
50,First Avenue,BA2 3NW,51.3742678,-2.3750393
49,First Avenue,BA2 3NW,51.3742227,-2.3750493
48,First Avenue,BA2 3NW,51.3741775,-2.3750594
47,First Avenue,BA2 3NW,51.3741342,-2.3750705
46,First Avenue,BA2 3NW,51.3740921,-2.3750801
45,First Avenue,BA2 3NW,51.3740480,-2.3750899
44,First Avenue,BA2 3NW,51.3740024,-2.3751015
43,First Avenue,BA2 3NW,51.3739554,-2.3751124
42,First Avenue,BA2 3NW,51.3739036,-2.3751257
41,First Avenue,BA2 3NW,51.3738565,-2.3751355
40,First Avenue,BA2 3NW,51.3738093,-2.3751454
39,First Avenue,BA2 3NW,51.3737621,-2.3751552
38,First Avenue,BA2 3NW,51.3737049,-2.3751690
37,First Avenue,BA2 3NW,51.3736548,-2.3751795
36,First Avenue,BA2 3NW,51.3736055,-2.3751900
35,First Avenue,BA2 3NW,51.3735584,-2.3751999
34,First Avenue,BA2 3NW,51.3735025,-2.3752183
33,First Avenue,BA2 3NW,51.3734408,-2.3752315
49,Saint Kilda's Road,BA2 3QL,51.3748430,-2.3804134
48,Saint Kilda's Road,BA2 3QL,51.3748795,-2.3803773
47,Saint Kilda's Road,BA2 3QL,51.3749161,-2.3803412
46,Saint Kilda's Road,BA2 3QL,51.3749527,-2.3803051
45,Saint Kilda's Road,BA2 3QL,51.3749893,-2.3802691
44,Saint Kilda's Road,BA2 3QL,51.3750259,-2.3802330
43,Saint Kilda's Road,BA2 3QL,51.3750625,-2.3801969
42,Saint Kilda's Road,BA2 3QL,51.3750991,-2.3801608
41,Saint Kilda's Road,BA2 3QL,51.3751356,-2.3801248
40,Saint Kilda's Road,BA2 3QL,51.3751722,-2.3800887
39,Saint Kilda's Road,BA2 3QL,51.3752088,-2.3800526
38,Saint Kilda's Road,BA2 3QL,51.3752454,-2.3800165
63,Saint Kilda's Road,BA2 3QJ,51.3753724,-2.3794207
64,Saint Kilda's Road,BA2 3QJ,51.3754069,-2.3793863
61,Saint Kilda's Road,BA2 3QJ,51.3752997,-2.3794921
62,Saint Kilda's Road,BA2 3QJ,51.3753361,-2.3794563
67,Saint Kilda's Road,BA2 3QJ,51.3755150,-2.3792865
68,Saint Kilda's Road,BA2 3QJ,51.3755485,-2.3792555
65,Saint Kilda's Road,BA2 3QJ,51.3754454,-2.3793553
66,Saint Kilda's Road,BA2 3QJ,51.3754787,-2.3793195
71,Saint Kilda's Road,BA2 3QJ,51.3756544,-2.3791510
72,Saint Kilda's Road,BA2 3QJ,51.3756908,-2.3791152
69,Saint Kilda's Road,BA2 3QJ,51.3755818,-2.3792224
70,Saint Kilda's Road,BA2 3QJ,51.3756181,-2.3791867
75,Saint Kilda's Road,BA2 3QJ,51.3757927,-2.3790182
76,Saint Kilda's Road,BA2 3QJ,51.3758293,-2.3789851
73,Saint Kilda's Road,BA2 3QJ,51.3757233,-2.3790823
74,Saint Kilda's Road,BA2 3QJ,51.3757588,-2.3790506
79,Saint Kilda's Road,BA2 3QJ,51.3759341,-2.3788806
80,Saint Kilda's Road,BA2 3QJ,51.3759678,-2.3788475
77,Saint Kilda's Road,BA2 3QJ,51.3758640,-2.3789494
78,Saint Kilda's Road,BA2 3QJ,51.3758995,-2.3789150
83,Saint Kilda's Road,BA2 3QJ,51.3760743,-2.3787424
81,Saint Kilda's Road,BA2 3QJ,51.3760013,-2.3788112
82,Saint Kilda's Road,BA2 3QJ,51.3760393,-2.3787768
55,Saint Kilda's Road,BA2 3QJ,51.3750802,-2.3797084
56,Saint Kilda's Road,BA2 3QJ,51.3751206,-2.3796660
53,Saint Kilda's Road,BA2 3QJ,51.3750073,-2.3797796
54,Saint Kilda's Road,BA2 3QJ,51.3750426,-2.3797448
59,Saint Kilda's Road,BA2 3QJ,51.3752317,-2.3795569
60,Saint Kilda's Road,BA2 3QJ,51.3752663,-2.3795252
57,Saint Kilda's Road,BA2 3QJ,51.3751578,-2.3796256
58,Saint Kilda's Road,BA2 3QJ,51.3751953,-2.3795939
30-33,Melcombe Road,BA2 3LP,51.3748061,-2.3799766
32,Faulkland Road,BA2 3LS,51.3747983,-2.3794264
31,Faulkland Road,BA2 3LS,51.3748326,-2.3793939
30,Faulkland Road,BA2 3LS,51.3748672,-2.3793624
29,Faulkland Road,BA2 3LS,51.3749014,-2.3793293
28,Faulkland Road,BA2 3LS,51.3749356,-2.3792956
27,Faulkland Road,BA2 3LS,51.3749698,-2.3792604
26,Faulkland Road,BA2 3LS,51.3750062,-2.3792248
25,Faulkland Road,BA2 3LS,51.3750400,-2.3791898
24,Faulkland Road,BA2 3LS,51.3750750,-2.3791533
23,Faulkland Road,BA2 3LS,51.3751080,-2.3791203
22,Faulkland Road,BA2 3LS,51.3751430,-2.3790872
21,Faulkland Road,BA2 3LS,51.3751778,-2.3790549
20,Faulkland Road,BA2 3LS,51.3752136,-2.3790164
19,Faulkland Road,BA2 3LS,51.3752466,-2.3789860
18,Faulkland Road,BA2 3LS,51.3752816,-2.3789524
17,Faulkland Road,BA2 3LS,51.3753179,-2.3789166
16,Faulkland Road,BA2 3LS,51.3753543,-2.3788809
15,Faulkland Road,BA2 3LS,51.3753842,-2.3788431
14,Faulkland Road,BA2 3LS,51.3754173,-2.3788041
13,Faulkland Road,BA2 3LS,51.3754540,-2.3787677
12,Faulkland Road,BA2 3LS,51.3754899,-2.3787307
11,Faulkland Road,BA2 3LS,51.3755241,-2.3787003
10,Faulkland Road,BA2 3LS,51.3755583,-2.3786646
9,Faulkland Road,BA2 3LS,51.3755908,-2.3786289
8,Faulkland Road,BA2 3LS,51.3756255,-2.3785939
7,Faulkland Road,BA2 3LS,51.3756623,-2.3785608
6,Faulkland Road,BA2 3LS,51.3756965,-2.3785298
5,Faulkland Road,BA2 3LS,51.3757286,-2.3784960
4,Faulkland Road,BA2 3LS,51.3757649,-2.3784604
3,Faulkland Road,BA2 3LS,51.3758037,-2.3784246
2,Faulkland Road,BA2 3LS,51.3758400,-2.3783882
1,Faulkland Road,BA2 3LS,51.3758737,-2.3783532
68,Faulkland Road,BA2 3LT,51.3757488,-2.3779869
67,Faulkland Road,BA2 3LT,51.3757143,-2.3780156
66,Faulkland Road,BA2 3LT,51.3756797,-2.3780509
65,Faulkland Road,BA2 3LT,51.3756476,-2.3780794
64,Faulkland Road,BA2 3LT,51.3756105,-2.3781175
63,Faulkland Road,BA2 3LT,51.3755751,-2.3781515
62,Faulkland Road,BA2 3LT,51.3755405,-2.3781854
61,Faulkland Road,BA2 3LT,51.3755050,-2.3782194
60,Faulkland Road,BA2 3LT,51.3754713,-2.3782494
59,Faulkland Road,BA2 3LT,51.3754366,-2.3782834
58,Faulkland Road,BA2 3LT,51.3754021,-2.3783174
57,Faulkland Road,BA2 3LT,51.3753675,-2.3783513
56,Faulkland Road,BA2 3LT,51.3753329,-2.3783853
55,Faulkland Road,BA2 3LT,51.3752983,-2.3784193
54,Faulkland Road,BA2 3LT,51.3752637,-2.3784532
53,Faulkland Road,BA2 3LT,51.3752300,-2.3784885
52,Faulkland Road,BA2 3LT,51.3751962,-2.3785238
51,Faulkland Road,BA2 3LT,51.3751616,-2.3785578
50,Faulkland Road,BA2 3LT,51.3751271,-2.3785918
49,Faulkland Road,BA2 3LT,51.3750924,-2.3786257
48,Faulkland Road,BA2 3LT,51.3750579,-2.3786597
47,Faulkland Road,BA2 3LT,51.3750232,-2.3786937
46,Faulkland Road,BA2 3LT,51.3749887,-2.3787277
45,Faulkland Road,BA2 3LT,51.3749575,-2.3787616
44,Faulkland Road,BA2 3LT,51.3749262,-2.3787956
43,Faulkland Road,BA2 3LT,51.3748916,-2.3788296
42,Faulkland Road,BA2 3LT,51.3748570,-2.3788636
41,Faulkland Road,BA2 3LT,51.3748224,-2.3788976
40,Faulkland Road,BA2 3LT,51.3747878,-2.3789315
39,Faulkland Road,BA2 3LT,51.3747532,-2.3789655
38,Faulkland Road,BA2 3LT,51.3747195,-2.3789982
37,Faulkland Road,BA2 3LT,51.3746857,-2.3790308
36,Faulkland Road,BA2 3LT,51.3746496,-2.3790648
35,Faulkland Road,BA2 3LT,51.3746183,-2.3791735
1,Melcombe Road,BA2 3LR,51.3745396,-2.3781512
3,Melcombe Road,BA2 3LR,51.3744945,-2.3781710
5,Melcombe Road,BA2 3LR,51.3744539,-2.3782036
7,Melcombe Road,BA2 3LR,51.3744126,-2.3782381
9,Melcombe Road,BA2 3LR,51.3743714,-2.3782777
11,Melcombe Road,BA2 3LR,51.3743302,-2.3783173
10,Monksdale Road,BA2 2JF,51.3739053,-2.3782225
9,Monksdale Road,BA2 2JF,51.3739387,-2.3781869
8,Monksdale Road,BA2 2JF,51.3739741,-2.3781510
7,Monksdale Road,BA2 2JF,51.3740075,-2.3781174
6,Monksdale Road,BA2 2JF,51.3740431,-2.3780816
5,Monksdale Road,BA2 2JF,51.3740769,-2.3780458
4,Monksdale Road,BA2 2JF,51.3741092,-2.3780122
3,Monksdale Road,BA2 2JF,51.3741433,-2.3779761
2,Monksdale Road,BA2 2JF,51.3741778,-2.3779388
1,Monksdale Road,BA2 2JF,51.3742104,-2.3779020
30,Melcombe Road,BA2 3LR,51.3743579,-2.3787642
28,Melcombe Road,BA2 3LR,51.3743930,-2.3787297
26,Melcombe Road,BA2 3LR,51.3744282,-2.3786952
24,Melcombe Road,BA2 3LR,51.3744633,-2.3786607
22,Melcombe Road,BA2 3LR,51.3744985,-2.3786261
20,Melcombe Road,BA2 3LR,51.3745336,-2.3785916
18,Melcombe Road,BA2 3LR,51.3745687,-2.3785571
16,Melcombe Road,BA2 3LR,51.3746038,-2.3785226
14,Melcombe Road,BA2 3LR,51.3746390,-2.3784881
12,Melcombe Road,BA2 3LR,51.3746741,-2.3784536
10,Melcombe Road,BA2 3LR,51.3747092,-2.3784191
8,Melcombe Road,BA2 3LR,51.3747444,-2.3783846
6,Melcombe Road,BA2 3LR,51.3747795,-2.3783501
4,Melcombe Road,BA2 3LR,51.3748147,-2.3783156
2,Melcombe Road,BA2 3LR,51.3748498,-2.3782811
35,Durley Park,BA2 3NT,51.3724212,-2.3732005
37,Durley Park,BA2 3NT,51.3724042,-2.3731180
19,Durley Park,BA2 3NT,51.3726051,-2.3738510
21,Durley Park,BA2 3NT,51.3725870,-2.3737693
23,Durley Park,BA2 3NT,51.3725489,-2.3736968
25,Durley Park,BA2 3NT,51.3725312,-2.3736155
27,Durley Park,BA2 3NT,51.3724967,-2.3735435
29,Durley Park,BA2 3NT,51.3724778,-2.3734572
33,Durley Park,BA2 3NT,51.3724246,-2.3732953
31,Durley Park,BA2 3NT,51.3724421,-2.3733802
"13,15,17",Durley Park,BA2 3NT,51.3726925,-2.3739456
"5,7",Durley Park,BA2 3NT,51.3727745,-2.3741460
"1,3",Durley Park,BA2 3NT,51.3727972,-2.3742450
"9,11",Durley Park,BA2 3NT,51.3727347,-2.3740474
10,Durley Park,BA2 3NT,51.3726035,-2.3734462
12,Durley Park,BA2 3NT,51.3726604,-2.3734467
14,Durley Park,BA2 3NT,51.3727202,-2.3734405
16,Durley Park,BA2 3NT,51.3727693,-2.3733832
24,Durley Park,BA2 3NT,51.3725304,-2.3731189
22,Durley Park,BA2 3NT,51.3725899,-2.3731155
20,Durley Park,BA2 3NT,51.3726489,-2.3731106
18,Durley Park,BA2 3NT,51.3726963,-2.3730567
"46,48",Durley Park,BA2 3NT,51.3726216,-2.3720999
"42,44",Durley Park,BA2 3NT,51.3726933,-2.3720995
"38,40",Durley Park,BA2 3NT,51.3727641,-2.3720956
"26,28",Durley Park,BA2 3NT,51.3725989,-2.3724494
"30,32",Durley Park,BA2 3NT,51.3726721,-2.3724423
"34,36",Durley Park,BA2 3NT,51.3727430,-2.3724349
2,Maple Gardens,BA2 3AG,51.3732627,-2.3717212
1,Maple Gardens,BA2 3AG,51.3732500,-2.3716160
4,Maple Gardens,BA2 3AG,51.3732994,-2.3719733
3,Maple Gardens,BA2 3AG,51.3732884,-2.3718722
5,Maple Gardens,BA2 3AG,51.3732798,-2.3721423
6,Maple Gardens,BA2 3AG,51.3732886,-2.3722485
7,Maple Gardens,BA2 3AG,51.3732307,-2.3724373
8,Maple Gardens,BA2 3AG,51.3731644,-2.3724497
9,Maple Gardens,BA2 3AG,51.3730907,-2.3725571
10,Maple Gardens,BA2 3AG,51.3730306,-2.3725713
20,Maple Gardens,BA2 3AG,51.3731091,-2.3734446
19,Maple Gardens,BA2 3AG,51.3730984,-2.3733589
18,Maple Gardens,BA2 3AG,51.3730700,-2.3732796
17,Maple Gardens,BA2 3AG,51.3730606,-2.3731935
16,Maple Gardens,BA2 3AG,51.3730286,-2.3731174
15,Maple Gardens,BA2 3AG,51.3730193,-2.3730317
14,Maple Gardens,BA2 3AG,51.3729886,-2.3729497
13,Maple Gardens,BA2 3AG,51.3729773,-2.3728608
11,Maple Gardens,BA2 3AG,51.3729398,-2.3726661
12,Maple Gardens,BA2 3AG,51.3729513,-2.3727779
1,Oldfield Lane,BA2 3NP,51.3732075,-2.3741858
2,Oldfield Lane,BA2 3NP,51.3732531,-2.3741729
3,Oldfield Lane,BA2 3NP,51.3732986,-2.3741601
4,Oldfield Lane,BA2 3NP,51.3733442,-2.3741473
5,Oldfield Lane,BA2 3NP,51.3733898,-2.3741344
6,Oldfield Lane,BA2 3NP,51.3734354,-2.3741216
7,Oldfield Lane,BA2 3NP,51.3734809,-2.3741088
8,Oldfield Lane,BA2 3NP,51.3735315,-2.3740954
21,Maple Gardens,BA2 3AG,51.3732402,-2.3737275
22,Maple Gardens,BA2 3AG,51.3732986,-2.3737116
25,Maple Gardens,BA2 3AG,51.3733822,-2.3734755
27,Maple Gardens,BA2 3AG,51.3733108,-2.3733017
29,Maple Gardens,BA2 3AG,51.3732689,-2.3731166
31,Maple Gardens,BA2 3AG,51.3732304,-2.3729369
30,Maple Gardens,BA2 3AG,51.3732404,-2.3730281
28,Maple Gardens,BA2 3AG,51.3732789,-2.3732078
26,Maple Gardens,BA2 3AG,51.3733208,-2.3733929
24,Maple Gardens,BA2 3AG,51.3733918,-2.3735617
32,Maple Gardens,BA2 3AG,51.3733883,-2.3728698
34,Maple Gardens,BA2 3AG,51.3734740,-2.3725332
33,Maple Gardens,BA2 3AG,51.3734866,-2.3726512
36,Maple Gardens,BA2 3AG,51.3735624,-2.3721671
35,Maple Gardens,BA2 3AG,51.3735783,-2.3722798
38,Maple Gardens,BA2 3AG,51.3735439,-2.3718935
37,Maple Gardens,BA2 3AG,51.3735598,-2.3720062
39,Maple Gardens,BA2 3AG,51.3735255,-2.3717556
40,Maple Gardens,BA2 3AG,51.3735096,-2.3716429
3,First Avenue,BA2 3NW,51.3744246,-2.3745497
4,First Avenue,BA2 3NW,51.3743816,-2.3745600
5,First Avenue,BA2 3NW,51.3743385,-2.3745702
6,First Avenue,BA2 3NW,51.3742955,-2.3745804
7,First Avenue,BA2 3NW,51.3742525,-2.3745907
8,First Avenue,BA2 3NW,51.3742094,-2.3746009
9,First Avenue,BA2 3NW,51.3741664,-2.3746110
10,First Avenue,BA2 3NW,51.3741235,-2.3746213
11,First Avenue,BA2 3NW,51.3740805,-2.3746316
12,First Avenue,BA2 3NW,51.3740375,-2.3746418
13,First Avenue,BA2 3NW,51.3739928,-2.3746520
14,First Avenue,BA2 3NW,51.3739473,-2.3746622
15,First Avenue,BA2 3NW,51.3739025,-2.3746725
16,First Avenue,BA2 3NW,51.3738578,-2.3746827
17,First Avenue,BA2 3NW,51.3738149,-2.3746915
18,First Avenue,BA2 3NW,51.3737718,-2.3747030
19,First Avenue,BA2 3NW,51.3737297,-2.3747147
20,First Avenue,BA2 3NW,51.3736859,-2.3747263
21,First Avenue,BA2 3NW,51.3736404,-2.3747365
22,First Avenue,BA2 3NW,51.3735956,-2.3747494
23,First Avenue,BA2 3NW,51.3735523,-2.3747587
24,First Avenue,BA2 3NW,51.3735089,-2.3747697
1,First Avenue,BA2 3NW,51.3745840,-2.3744220
2,First Avenue,BA2 3NW,51.3745059,-2.3744935
50,King Edward Road,BA2 3PB,51.3747093,-2.3741846
49,King Edward Road,BA2 3PB,51.3746724,-2.3743055
25,Oldfield Road,BA2 3NF,51.3751175,-2.3737109
24,Oldfield Road,BA2 3NF,51.3751037,-2.3736422
23,Oldfield Road,BA2 3NF,51.3750883,-2.3735733
22,Oldfield Road,BA2 3NF,51.3750739,-2.3735088
21,Oldfield Road,BA2 3NF,51.3750603,-2.3734401
20,Oldfield Road,BA2 3NF,51.3750458,-2.3733726
19,Oldfield Road,BA2 3NF,51.3750321,-2.3733079
18,Oldfield Road,BA2 3NF,51.3750189,-2.3732492
30,Oldfield Road,BA2 3ND,51.3744289,-2.3727545
31,Oldfield Road,BA2 3ND,51.3744276,-2.3724312
32,Oldfield Road,BA2 3ND,51.3744249,-2.3722174
32A,Oldfield Road,BA2 3ND,51.3743729,-2.3719722
1,Junction Road,BA2 3NQ,51.3749208,-2.3727011
2,Junction Road,BA2 3NQ,51.3749681,-2.3727097
3,Junction Road,BA2 3NQ,51.3750173,-2.3727175
4,Junction Road,BA2 3NQ,51.3750664,-2.3727259
5,Junction Road,BA2 3NQ,51.3751156,-2.3727357
6,Junction Road,BA2 3NQ,51.3751630,-2.3727429
7,Junction Road,BA2 3NQ,51.3752122,-2.3727520
8,Junction Road,BA2 3NQ,51.3752661,-2.3727612
9,Junction Road,BA2 3NQ,51.3753198,-2.3727703
10,Junction Road,BA2 3NQ,51.3753735,-2.3727795
11,Junction Road,BA2 3NQ,51.3754273,-2.3727886
16,Oldfield Road,BA2 3ND,51.3748583,-2.3721533
15,Oldfield Road,BA2 3ND,51.3747875,-2.3720169
14,Oldfield Road,BA2 3ND,51.3747687,-2.3717276
13,Oldfield Road,BA2 3ND,51.3747554,-2.3715949
12,Oldfield Road,BA2 3ND,51.3747311,-2.3713914
11,Oldfield Road,BA2 3ND,51.3747179,-2.3712587
9,Oldfield Road,BA2 3ND,51.3746607,-2.3709359
10,Oldfield Road,BA2 3ND,51.3746740,-2.3710686
7,Oldfield Road,BA2 3ND,51.3745908,-2.3705886
8,Oldfield Road,BA2 3ND,51.3746085,-2.3707461
6,Oldfield Road,BA2 3ND,51.3745647,-2.3702794
5,Oldfield Road,BA2 3ND,51.3745739,-2.3701343
4,Oldfield Road,BA2 3NB,51.3745908,-2.3696015
3,Oldfield Road,BA2 3NB,51.3745975,-2.3694669
2,Oldfield Road,BA2 3NB,51.3745938,-2.3691504
1,Oldfield Road,BA2 3NB,51.3746005,-2.3690159
2,Rush Hill,BA2 2QH,51.3654846,-2.3944829
2,Marsden Road,BA2 2LW,51.3663055,-2.3918058
21,Holloway,BA2 4PS,51.3763982,-2.3614618
23,Holloway,BA2 4PS,51.3763725,-2.3615594
6,Holloway,BA2 4PT,51.3764882,-2.3621412
4,Holloway,BA2 4PT,51.3764506,-2.3621135
20,Holloway,BA2 4PU,51.3764544,-2.3625496
27,Holloway,BA2 4PT,51.3763048,-2.3617894
35,Holloway,BA2 4PT,51.3762036,-2.3621721
39,Holloway,BA2 4PT,51.3761529,-2.3623634
41,Holloway,BA2 4PT,51.3761276,-2.3624591
43,Holloway,BA2 4PT,51.3761023,-2.3625548
45,Holloway,BA2 4PT,51.3760769,-2.3626504
15,Calton Walk,BA2 4QQ,51.3760501,-2.3600668
22,Calton Walk,BA2 4QQ,51.3760712,-2.3606045
23,Calton Walk,BA2 4QQ,51.3760778,-2.3606719
28,Calton Walk,BA2 4QQ,51.3761009,-2.3610494
27,Calton Walk,BA2 4QQ,51.3760994,-2.3609843
35,Calton Walk,BA2 4QQ,51.3760695,-2.3615644
37,Calton Walk,BA2 4QQ,51.3760688,-2.3617434
52,Calton Gardens,BA2 4QG,51.3759342,-2.3623716
25,Calton Gardens,BA2 4QG,51.3757920,-2.3598861
7,Calton Walk,BA2 4QQ,51.3759836,-2.3592106
11,Calton Walk,BA2 4QQ,51.3760231,-2.3597772
19,Holloway,BA2 4PS,51.3763304,-2.3611651
11,Holloway,BA2 4PS,51.3762861,-2.3606998
9,Holloway,BA2 4PS,51.3762804,-2.3605519
41,Newbridge Road,BA1 3HF,51.3842127,-2.3888095
43,Newbridge Road,BA1 3HF,51.3842105,-2.3889015
170,Coronation Avenue,BA2 2JR,51.3700422,-2.3865786
2,Maybrick Road,BA2 3PT,51.3773311,-2.3796934
3,Maybrick Road,BA2 3PT,51.3772994,-2.3797344
4,Maybrick Road,BA2 3PT,51.3772642,-2.3797752
5,Maybrick Road,BA2 3PT,51.3772291,-2.3798201
6,Maybrick Road,BA2 3PT,51.3771953,-2.3798610
7,Maybrick Road,BA2 3PT,51.3771644,-2.3798991
8,Maybrick Road,BA2 3PT,51.3771339,-2.3799360
9,Maybrick Road,BA2 3PT,51.3771042,-2.3799708
9,Maybrick Road,BA2 3PT,51.3770684,-2.3799989
10,Maybrick Road,BA2 3PT,51.3770335,-2.3800271
11,Maybrick Road,BA2 3PT,51.3769950,-2.3800448
12,Maybrick Road,BA2 3PT,51.3769566,-2.3800622
13,Maybrick Road,BA2 3PT,51.3769183,-2.3800816
14,Maybrick Road,BA2 3PT,51.3768799,-2.3801010
15,Maybrick Road,BA2 3PT,51.3768415,-2.3801203
16,Maybrick Road,BA2 3PT,51.3768030,-2.3801398
17,Maybrick Road,BA2 3PT,51.3767646,-2.3801591
18,Maybrick Road,BA2 3PT,51.3767263,-2.3801785
19,Maybrick Road,BA2 3PT,51.3766879,-2.3801979
20,Maybrick Road,BA2 3PT,51.3766496,-2.3802182
21,Maybrick Road,BA2 3PT,51.3766142,-2.3802370
22A,Maybrick Road,BA2 3PT,51.3765166,-2.3802946
22B,Maybrick Road,BA2 3PT,51.3764654,-2.3803205
22C,Maybrick Road,BA2 3PT,51.3764139,-2.3803465
23,Herbert Road,BA2 3PP,51.3762449,-2.3800902
22,Herbert Road,BA2 3PP,51.3762819,-2.3800533
21,Herbert Road,BA2 3PP,51.3763189,-2.3800165
20,Herbert Road,BA2 3PP,51.3763560,-2.3799797
19,Herbert Road,BA2 3PP,51.3763930,-2.3799428
18,Herbert Road,BA2 3PP,51.3764301,-2.3799060
17,Herbert Road,BA2 3PP,51.3764671,-2.3798692
16,Herbert Road,BA2 3PP,51.3765041,-2.3798323
15,Herbert Road,BA2 3PP,51.3765412,-2.3797955
14,Herbert Road,BA2 3PP,51.3765782,-2.3797587
13,Herbert Road,BA2 3PP,51.3766153,-2.3797218
12,Herbert Road,BA2 3PP,51.3766523,-2.3796850
11,Herbert Road,BA2 3PP,51.3766893,-2.3796481
10,Herbert Road,BA2 3PP,51.3767264,-2.3796113
9,Herbert Road,BA2 3PP,51.3767634,-2.3795744
8,Herbert Road,BA2 3PP,51.3768005,-2.3795376
7,Herbert Road,BA2 3PP,51.3768375,-2.3795008
6,Herbert Road,BA2 3PP,51.3768745,-2.3794639
5,Herbert Road,BA2 3PP,51.3769116,-2.3794271
4,Herbert Road,BA2 3PP,51.3769487,-2.3793903
3,Herbert Road,BA2 3PP,51.3769857,-2.3793534
2,Herbert Road,BA2 3PP,51.3770227,-2.3793166
1,Herbert Road,BA2 3PP,51.3770598,-2.3792798
27,South Avenue,BA2 3PZ,51.3768839,-2.3812068
28,South Avenue,BA2 3PZ,51.3769087,-2.3812638
29,South Avenue,BA2 3PZ,51.3769336,-2.3813208
30,South Avenue,BA2 3PZ,51.3769585,-2.3813778
31,South Avenue,BA2 3PZ,51.3769834,-2.3814348
32,South Avenue,BA2 3PZ,51.3770083,-2.3814918
33,South Avenue,BA2 3PZ,51.3770331,-2.3815489
34,South Avenue,BA2 3PZ,51.3770580,-2.3816059
35,South Avenue,BA2 3PZ,51.3770829,-2.3816629
36,South Avenue,BA2 3PZ,51.3771076,-2.3817199
37,South Avenue,BA2 3PZ,51.3771325,-2.3817769
38,South Avenue,BA2 3PZ,51.3771574,-2.3818339
39,South Avenue,BA2 3PZ,51.3771822,-2.3818909
40,South Avenue,BA2 3PZ,51.3772071,-2.3819478
37,Cynthia Road,BA2 3QG,51.3764473,-2.3824306
29,Mayfield Road,BA2 3QA,51.3765588,-2.3811547
28,Mayfield Road,BA2 3QA,51.3765239,-2.3811885
27,Mayfield Road,BA2 3QA,51.3764890,-2.3812222
26,Mayfield Road,BA2 3QA,51.3764541,-2.3812559
25,Mayfield Road,BA2 3QA,51.3764192,-2.3812898
24,Mayfield Road,BA2 3QA,51.3763843,-2.3813235
23,Mayfield Road,BA2 3QA,51.3763494,-2.3813572
22,Mayfield Road,BA2 3QA,51.3763145,-2.3813910
21,Mayfield Road,BA2 3QA,51.3762796,-2.3814247
20,Mayfield Road,BA2 3QA,51.3762447,-2.3814585
19,Mayfield Road,BA2 3QA,51.3762098,-2.3814922
18,Mayfield Road,BA2 3QA,51.3761748,-2.3815259
17,Mayfield Road,BA2 3QA,51.3761400,-2.3815596
16,Mayfield Road,BA2 3QA,51.3761051,-2.3815934
25,South Avenue,BA2 3PZ,51.3767582,-2.3808993
26,South Avenue,BA2 3PZ,51.3767943,-2.3809676
59,Maybrick Road,BA2 3PX,51.3760998,-2.3808884
58,Maybrick Road,BA2 3PX,51.3761362,-2.3808705
57,Maybrick Road,BA2 3PX,51.3761727,-2.3808526
56,Maybrick Road,BA2 3PX,51.3762091,-2.3808347
55,Maybrick Road,BA2 3PX,51.3762455,-2.3808168
54,Maybrick Road,BA2 3PX,51.3762820,-2.3807989
53,Maybrick Road,BA2 3PX,51.3763184,-2.3807810
52,Maybrick Road,BA2 3PX,51.3763549,-2.3807631
51,Maybrick Road,BA2 3PX,51.3763914,-2.3807452
50,Maybrick Road,BA2 3PX,51.3764278,-2.3807273
49,Maybrick Road,BA2 3PX,51.3764642,-2.3807094
48,Maybrick Road,BA2 3PX,51.3765007,-2.3806915
47,Maybrick Road,BA2 3PX,51.3765371,-2.3806736
46,Maybrick Road,BA2 3PX,51.3765736,-2.3806557
45,Maybrick Road,BA2 3PX,51.3766101,-2.3806378
44,Maybrick Road,BA2 3PX,51.3766465,-2.3806199
43,Maybrick Road,BA2 3PX,51.3766830,-2.3806021
42,Maybrick Road,BA2 3PX,51.3767194,-2.3805843
58,Claude Avenue,BA2 1AG,51.3754181,-2.3826112
35,Cynthia Road,BA2 3QQ,51.3760035,-2.3812885
34,Cynthia Road,BA2 3QQ,51.3759822,-2.3812319
33,Cynthia Road,BA2 3QQ,51.3759611,-2.3811748
32,Cynthia Road,BA2 3QQ,51.3759410,-2.3811187
31,Cynthia Road,BA2 3QQ,51.3759202,-2.3810619
30,Cynthia Road,BA2 3QQ,51.3758996,-2.3810046
29,Cynthia Road,BA2 3QQ,51.3758786,-2.3809479
28,Cynthia Road,BA2 3QQ,51.3758582,-2.3808934
1,Belvoir Road,BA2 3PS,51.3760597,-2.3802109
2,Belvoir Road,BA2 3PS,51.3760827,-2.3802711
3,Belvoir Road,BA2 3PS,51.3761057,-2.3803313
4,Belvoir Road,BA2 3PS,51.3761288,-2.3803914
5,Belvoir Road,BA2 3PS,51.3761518,-2.3804516
6,Belvoir Road,BA2 3PS,51.3761748,-2.3805118
7,Belvoir Road,BA2 3PS,51.3761978,-2.3805718
29,Herbert Road,BA2 3PR,51.3757536,-2.3806252
28,Herbert Road,BA2 3PR,51.3757894,-2.3805905
27,Herbert Road,BA2 3PR,51.3758253,-2.3805558
26,Herbert Road,BA2 3PR,51.3758597,-2.3805236
25,Herbert Road,BA2 3PR,51.3758950,-2.3804891
24,Herbert Road,BA2 3PR,51.3759297,-2.3804556
65,Herbert Road,BA2 3PP,51.3767816,-2.3791297
64,Herbert Road,BA2 3PP,51.3767450,-2.3791681
63,Herbert Road,BA2 3PP,51.3767091,-2.3792018
62,Herbert Road,BA2 3PP,51.3766738,-2.3792374
61,Herbert Road,BA2 3PP,51.3766366,-2.3792751
60,Herbert Road,BA2 3PP,51.3766004,-2.3793122
59,Herbert Road,BA2 3PP,51.3765670,-2.3793466
58,Herbert Road,BA2 3PP,51.3765317,-2.3793817
57,Herbert Road,BA2 3PP,51.3764962,-2.3794179
56,Herbert Road,BA2 3PP,51.3764595,-2.3794523
55,Herbert Road,BA2 3PP,51.3764253,-2.3794887
54,Herbert Road,BA2 3PP,51.3763903,-2.3795250
53,Herbert Road,BA2 3PP,51.3763575,-2.3795581
52,Herbert Road,BA2 3PP,51.3763232,-2.3795924
51,Herbert Road,BA2 3PP,51.3762883,-2.3796288
50,Herbert Road,BA2 3PP,51.3762533,-2.3796645
49,Herbert Road,BA2 3PP,51.3762179,-2.3796982
48,Herbert Road,BA2 3PP,51.3761849,-2.3797333
47,Herbert Road,BA2 3PP,51.3761495,-2.3797695
46,Herbert Road,BA2 3PP,51.3761166,-2.3798052
45,Herbert Road,BA2 3PR,51.3760816,-2.3798382
44,Herbert Road,BA2 3PR,51.3760466,-2.3798727
43,Herbert Road,BA2 3PR,51.3760128,-2.3799084
42,Herbert Road,BA2 3PR,51.3759795,-2.3799441
41,Herbert Road,BA2 3PR,51.3759440,-2.3799770
40,Herbert Road,BA2 3PR,51.3759070,-2.3800147
39,Herbert Road,BA2 3PR,51.3758716,-2.3800505
38,Herbert Road,BA2 3PR,51.3758366,-2.3800862
37,Herbert Road,BA2 3PR,51.3757985,-2.3801246
36,Herbert Road,BA2 3PR,51.3757615,-2.3801615
35,Herbert Road,BA2 3PR,51.3757265,-2.3801959
34,Herbert Road,BA2 3PR,51.3756919,-2.3802296
33,Herbert Road,BA2 3PR,51.3756553,-2.3802633
32,Herbert Road,BA2 3PR,51.3756202,-2.3802984
31,Herbert Road,BA2 3PR,51.3755869,-2.3803341
34,Saint Kilda's Road,BA2 3QJ,51.3754070,-2.3798430
33,Saint Kilda's Road,BA2 3QJ,51.3754416,-2.3798086
32,Saint Kilda's Road,BA2 3QJ,51.3754762,-2.3797743
31,Saint Kilda's Road,BA2 3QJ,51.3755108,-2.3797399
30,Saint Kilda's Road,BA2 3QJ,51.3755454,-2.3797056
29,Saint Kilda's Road,BA2 3QJ,51.3755801,-2.3796713
28,Saint Kilda's Road,BA2 3QJ,51.3756147,-2.3796370
27,Saint Kilda's Road,BA2 3QJ,51.3756493,-2.3796026
26,Saint Kilda's Road,BA2 3QJ,51.3756839,-2.3795683
25,Saint Kilda's Road,BA2 3QJ,51.3757186,-2.3795339
24,Saint Kilda's Road,BA2 3QJ,51.3757531,-2.3794996
23,Saint Kilda's Road,BA2 3QJ,51.3757878,-2.3794653
22,Saint Kilda's Road,BA2 3QJ,51.3758224,-2.3794310
21,Saint Kilda's Road,BA2 3QJ,51.3758570,-2.3793966
20,Saint Kilda's Road,BA2 3QJ,51.3758916,-2.3793623
19,Saint Kilda's Road,BA2 3QJ,51.3759263,-2.3793280
18,Saint Kilda's Road,BA2 3QJ,51.3759609,-2.3792936
17,Saint Kilda's Road,BA2 3QJ,51.3759955,-2.3792593
16,Saint Kilda's Road,BA2 3QJ,51.3760301,-2.3792250
15,Saint Kilda's Road,BA2 3QJ,51.3760647,-2.3791906
14,Saint Kilda's Road,BA2 3QJ,51.3760993,-2.3791563
13,Saint Kilda's Road,BA2 3QJ,51.3761340,-2.3791220
12,Saint Kilda's Road,BA2 3QJ,51.3761686,-2.3790876
11,Saint Kilda's Road,BA2 3QJ,51.3762032,-2.3790533
10,Saint Kilda's Road,BA2 3QJ,51.3762378,-2.3790190
9,Saint Kilda's Road,BA2 3QJ,51.3762725,-2.3789847
8,Saint Kilda's Road,BA2 3QJ,51.3763070,-2.3789503
7,Saint Kilda's Road,BA2 3QJ,51.3763417,-2.3789160
6,Saint Kilda's Road,BA2 3QJ,51.3763763,-2.3788816
5,Saint Kilda's Road,BA2 3QJ,51.3764109,-2.3788473
4,Saint Kilda's Road,BA2 3QJ,51.3764455,-2.3788130
3,Saint Kilda's Road,BA2 3QJ,51.3764802,-2.3787787
2,Saint Kilda's Road,BA2 3QJ,51.3765147,-2.3787443
1,Saint Kilda's Road,BA2 3QJ,51.3765494,-2.3787100
37,Saint Kilda's Road,BA2 3QL,51.3753033,-2.3800318
27,Cynthia Road,BA2 3QH,51.3753315,-2.3802864
26,Cynthia Road,BA2 3QH,51.3753531,-2.3803449
25,Cynthia Road,BA2 3QH,51.3753747,-2.3804034
24,Cynthia Road,BA2 3QH,51.3753963,-2.3804619
23,Cynthia Road,BA2 3QH,51.3754179,-2.3805205
22,Cynthia Road,BA2 3QH,51.3754395,-2.3805790
21,Cynthia Road,BA2 3QH,51.3754590,-2.3806323
20,Cynthia Road,BA2 3QH,51.3754784,-2.3806860
19,Cynthia Road,BA2 3QH,51.3754988,-2.3807421
17,Cynthia Road,BA2 3QH,51.3755517,-2.3808868
16,Cynthia Road,BA2 3QH,51.3755741,-2.3809438
15,Cynthia Road,BA2 3QH,51.3755977,-2.3810035
14,Cynthia Road,BA2 3QH,51.3756162,-2.3810563
13,Cynthia Road,BA2 3QH,51.3756357,-2.3811064
12,Cynthia Road,BA2 3QH,51.3756562,-2.3811650
11,Cynthia Road,BA2 3QH,51.3756863,-2.3812427
10,Cynthia Road,BA2 3QH,51.3757135,-2.3813162
9,Cynthia Road,BA2 3QH,51.3757569,-2.3813911
8,Cynthia Road,BA2 3QH,51.3757768,-2.3814489
7,Cynthia Road,BA2 3QH,51.3757967,-2.3815067
6,Cynthia Road,BA2 3QH,51.3758209,-2.3816039
5,Cynthia Road,BA2 3QH,51.3758478,-2.3816812
4,Cynthia Road,BA2 3QH,51.3758843,-2.3817784
3,Cynthia Road,BA2 3QH,51.3759113,-2.3818555
2,Cynthia Road,BA2 3QH,51.3759501,-2.3819558
1,Cynthia Road,BA2 3QH,51.3759781,-2.3820320
84A,Saint Kilda's Road,BA2 3QJ,51.3761785,-2.3787075
65,Beckhampton Road,BA2 3LN,51.3759901,-2.3782159
62,Beckhampton Road,BA2 3LN,51.3760268,-2.3782596
67,Beckhampton Road,BA2 3LN,51.3760636,-2.3783034
68,Beckhampton Road,BA2 3LN,51.3761005,-2.3783471
69,Beckhampton Road,BA2 3LN,51.3761373,-2.3783909
70,Beckhampton Road,BA2 3LN,51.3761742,-2.3784347
71,Beckhampton Road,BA2 3LN,51.3762110,-2.3784785
72,Beckhampton Road,BA2 3LN,51.3762478,-2.3785223
64,Beckhampton Road,BA2 3LN,51.3759408,-2.3781756
19,Beckhampton Road,BA2 3LL,51.3756030,-2.3775357
20,Beckhampton Road,BA2 3LL,51.3755629,-2.3775384
21,Beckhampton Road,BA2 3LL,51.3755201,-2.3775412
22,Beckhampton Road,BA2 3LL,51.3754780,-2.3775438
23,Beckhampton Road,BA2 3LL,51.3754368,-2.3775486
24,Beckhampton Road,BA2 3LL,51.3753959,-2.3775526
25,Beckhampton Road,BA2 3LL,51.3753549,-2.3775566
26,Beckhampton Road,BA2 3LL,51.3753125,-2.3775593
13,Beckhampton Road,BA2 3LL,51.3758763,-2.3776442
14,Beckhampton Road,BA2 3LL,51.3758385,-2.3776277
15,Beckhampton Road,BA2 3LL,51.3758007,-2.3776112
16,Beckhampton Road,BA2 3LL,51.3757629,-2.3775947
17,Beckhampton Road,BA2 3LL,51.3757251,-2.3775782
18,Beckhampton Road,BA2 3LL,51.3756873,-2.3775617
1,Beckhampton Road,BA2 3LL,51.3763529,-2.3781446
2,Beckhampton Road,BA2 3LL,51.3763165,-2.3781050
3,Beckhampton Road,BA2 3LL,51.3762801,-2.3780656
4,Beckhampton Road,BA2 3LL,51.3762437,-2.3780260
5,Beckhampton Road,BA2 3LL,51.3762073,-2.3779864
7,Beckhampton Road,BA2 3LL,51.3761373,-2.3779106
8,Beckhampton Road,BA2 3LL,51.3760997,-2.3778604
9,Beckhampton Road,BA2 3LL,51.3760658,-2.3778214
10,Beckhampton Road,BA2 3LL,51.3760294,-2.3777818
11,Beckhampton Road,BA2 3LL,51.3759930,-2.3777424
12,Beckhampton Road,BA2 3LL,51.3759566,-2.3777028
1,Shaftesbury Mews,BA2 3LU,51.3762303,-2.3776588
3,Shaftesbury Mews,BA2 3LU,51.3760574,-2.3774814
5,Shaftesbury Mews,BA2 3LU,51.3757670,-2.3773218
21,King Edward Road,BA2 3PD,51.3757105,-2.3764893
20,King Edward Road,BA2 3PD,51.3756854,-2.3764230
19,King Edward Road,BA2 3PD,51.3756604,-2.3763568
18,King Edward Road,BA2 3PD,51.3756353,-2.3762905
17,King Edward Road,BA2 3PD,51.3756103,-2.3762242
16,King Edward Road,BA2 3PD,51.3755852,-2.3761580
15,King Edward Road,BA2 3PD,51.3755602,-2.3760918
14,King Edward Road,BA2 3PD,51.3755351,-2.3760255
13,King Edward Road,BA2 3PD,51.3755101,-2.3759592
12,King Edward Road,BA2 3PD,51.3754850,-2.3758930
11,King Edward Road,BA2 3PD,51.3754599,-2.3758267
10,King Edward Road,BA2 3PD,51.3754349,-2.3757605
9,King Edward Road,BA2 3PD,51.3754098,-2.3756942
8,King Edward Road,BA2 3PD,51.3753848,-2.3756280
7,King Edward Road,BA2 3PD,51.3753598,-2.3755617
6,King Edward Road,BA2 3PD,51.3753347,-2.3754954
44,Third Avenue,BA2 3NZ,51.3756155,-2.3770038
40,Third Avenue,BA2 3NY,51.3757530,-2.3770370
38,Third Avenue,BA2 3NY,51.3757942,-2.3770598
36,Third Avenue,BA2 3NY,51.3758355,-2.3770827
34,Third Avenue,BA2 3NY,51.3758768,-2.3771055
32,Third Avenue,BA2 3NY,51.3759182,-2.3771283
30,Third Avenue,BA2 3NY,51.3759594,-2.3771511
28,Third Avenue,BA2 3NY,51.3760008,-2.3771739
24,Third Avenue,BA2 3NY,51.3760421,-2.3771968
22,Third Avenue,BA2 3NY,51.3760833,-2.3772196
20,Third Avenue,BA2 3NY,51.3761246,-2.3772424
18,Third Avenue,BA2 3NY,51.3761659,-2.3772653
16,Third Avenue,BA2 3NY,51.3762072,-2.3772881
14,Third Avenue,BA2 3NY,51.3762485,-2.3773110
12,Third Avenue,BA2 3NY,51.3762898,-2.3773338
10,Third Avenue,BA2 3NY,51.3763311,-2.3773566
8,Third Avenue,BA2 3NY,51.3763724,-2.3773795
6,Third Avenue,BA2 3NY,51.3764137,-2.3774023
25,Third Avenue,BA2 3NY,51.3760055,-2.3767208
27,Third Avenue,BA2 3NY,51.3759635,-2.3766983
29,Third Avenue,BA2 3NY,51.3759215,-2.3766757
31,Third Avenue,BA2 3NY,51.3758794,-2.3766532
33,Third Avenue,BA2 3NY,51.3758374,-2.3766305
35,Third Avenue,BA2 3NY,51.3757953,-2.3766080
1,Third Avenue,BA2 3NY,51.3765988,-2.3770770
3,Third Avenue,BA2 3NY,51.3765502,-2.3770494
5,Third Avenue,BA2 3NY,51.3765016,-2.3770217
7,Third Avenue,BA2 3NY,51.3764529,-2.3769943
9,Third Avenue,BA2 3NY,51.3764043,-2.3769666
11,Third Avenue,BA2 3NY,51.3763557,-2.3769390
13,Third Avenue,BA2 3NY,51.3763071,-2.3769115
15,Third Avenue,BA2 3NY,51.3762585,-2.3768839
17,Third Avenue,BA2 3NY,51.3762098,-2.3768564
19,Third Avenue,BA2 3NY,51.3761612,-2.3768288
21,Third Avenue,BA2 3NY,51.3761125,-2.3768013
23,Third Avenue,BA2 3NY,51.3760639,-2.3767737
4,Canterbury Road,BA2 3LG,51.3766447,-2.3766939
2,Canterbury Road,BA2 3LG,51.3766991,-2.3767141
8,Canterbury Road,BA2 3LG,51.3765352,-2.3766534
6,Canterbury Road,BA2 3LG,51.3765907,-2.3766733
16,Canterbury Road,BA2 3LG,51.3762940,-2.3765691
14,Canterbury Road,BA2 3LG,51.3763514,-2.3765902
12,Canterbury Road,BA2 3LG,51.3764053,-2.3766121
10,Canterbury Road,BA2 3LG,51.3764613,-2.3766355
20,Canterbury Road,BA2 3LG,51.3761613,-2.3765269
18,Canterbury Road,BA2 3LG,51.3762174,-2.3765417
23,Canterbury Road,BA2 3LG,51.3758250,-2.3759961
21,Canterbury Road,BA2 3LG,51.3758779,-2.3760091
19,Canterbury Road,BA2 3LG,51.3759308,-2.3760222
17,Canterbury Road,BA2 3LG,51.3759836,-2.3760353
15,Canterbury Road,BA2 3LG,51.3760355,-2.3760481
1,Canterbury Road,BA2 3LG,51.3763632,-2.3761555
3,Canterbury Road,BA2 3LG,51.3763190,-2.3761418
5,Canterbury Road,BA2 3LG,51.3762740,-2.3761316
7,Canterbury Road,BA2 3LG,51.3762290,-2.3761199
9,Canterbury Road,BA2 3LG,51.3761815,-2.3761076
11,Canterbury Road,BA2 3LG,51.3761364,-2.3760954
13,Canterbury Road,BA2 3LG,51.3760910,-2.3760817
1,Winchester Road,BA2 3LF,51.3765035,-2.3748754
3,Winchester Road,BA2 3LF,51.3765076,-2.3749440
5,Winchester Road,BA2 3LF,51.3765120,-2.3750151
7,Winchester Road,BA2 3LF,51.3765161,-2.3750853
9,Winchester Road,BA2 3LF,51.3765231,-2.3751780
11,Winchester Road,BA2 3LF,51.3765287,-2.3752559
13,Winchester Road,BA2 3LF,51.3765398,-2.3753452
15,Winchester Road,BA2 3LF,51.3765454,-2.3754231
17,Winchester Road,BA2 3LF,51.3765509,-2.3755010
19,Winchester Road,BA2 3LF,51.3765566,-2.3755789
21,Winchester Road,BA2 3LF,51.3765621,-2.3756568
23,Winchester Road,BA2 3LF,51.3765677,-2.3757348
25,Winchester Road,BA2 3LF,51.3765724,-2.3758013
27,Winchester Road,BA2 3LF,51.3765758,-2.3758718
29,Winchester Road,BA2 3LF,51.3765823,-2.3759463
31,Winchester Road,BA2 3LF,51.3765875,-2.3760188
33,Winchester Road,BA2 3LF,51.3765930,-2.3760921
35,Winchester Road,BA2 3LF,51.3765983,-2.3761633
37,Winchester Road,BA2 3LF,51.3766030,-2.3762391
39,Winchester Road,BA2 3LF,51.3766090,-2.3763108
39A,Winchester Road,BA2 3LF,51.3766456,-2.3763718
1,Junction Road,BA2 3LE,51.3765692,-2.3746095
2,Junction Road,BA2 3LE,51.3765174,-2.3746029
3,Junction Road,BA2 3LE,51.3764727,-2.3746064
4,Junction Road,BA2 3LE,51.3764298,-2.3746091
5,Junction Road,BA2 3LE,51.3763867,-2.3746107
6,Junction Road,BA2 3LE,51.3763411,-2.3746136
63,Second Avenue,BA2 3NL,51.3761835,-2.3747556
62,Second Avenue,BA2 3NL,51.3761326,-2.3747650
58,Second Avenue,BA2 3NL,51.3759414,-2.3749912
59,Second Avenue,BA2 3NL,51.3759819,-2.3749418
60,Second Avenue,BA2 3NL,51.3760223,-2.3748926
61,Second Avenue,BA2 3NL,51.3760626,-2.3748433
52,Second Avenue,BA2 3NL,51.3756713,-2.3752993
53,Second Avenue,BA2 3NL,51.3757129,-2.3752515
54,Second Avenue,BA2 3NL,51.3757546,-2.3752037
55,Second Avenue,BA2 3NL,51.3757963,-2.3751560
56,Second Avenue,BA2 3NL,51.3758379,-2.3751083
57,Second Avenue,BA2 3NL,51.3758796,-2.3750605
5,King Edward Road,BA2 3PB,51.3753154,-2.3752493
4,King Edward Road,BA2 3PB,51.3752863,-2.3751667
3,King Edward Road,BA2 3PB,51.3752480,-2.3750593
2,King Edward Road,BA2 3PB,51.3752187,-2.3749760
8,Junction Avenue,BA2 3NJ,51.3753849,-2.3745327
6,Junction Avenue,BA2 3NJ,51.3754343,-2.3745044
4,Junction Avenue,BA2 3NJ,51.3754838,-2.3744762
2,Junction Avenue,BA2 3NJ,51.3755332,-2.3744480
32,Junction Road,BA2 3NH,51.3757588,-2.3746183
31,Junction Road,BA2 3NH,51.3757402,-2.3745433
30,Junction Road,BA2 3NH,51.3757216,-2.3744684
29,Junction Road,BA2 3NH,51.3757030,-2.3743934
28,Junction Road,BA2 3NH,51.3756844,-2.3743184
27,Junction Road,BA2 3NH,51.3756659,-2.3742435
1,Junction Avenue,BA2 3NJ,51.3754358,-2.3740416
3,Junction Avenue,BA2 3NJ,51.3753929,-2.3740657
5,Junction Avenue,BA2 3NJ,51.3753499,-2.3740898
7,Junction Avenue,BA2 3NJ,51.3753070,-2.3741139
9,Junction Avenue,BA2 3NJ,51.3752640,-2.3741381
11,Junction Avenue,BA2 3NJ,51.3752211,-2.3741622
12,Junction Road,BA2 3NH,51.3754416,-2.3731476
13,Junction Road,BA2 3NH,51.3754563,-2.3732112
14,Junction Road,BA2 3NH,51.3754711,-2.3732749
15,Junction Road,BA2 3NH,51.3754858,-2.3733386
16,Junction Road,BA2 3NH,51.3755005,-2.3734023
17,Junction Road,BA2 3NH,51.3755153,-2.3734659
18,Junction Road,BA2 3NH,51.3755300,-2.3735297
19,Junction Road,BA2 3NH,51.3755448,-2.3735934
20,Junction Road,BA2 3NH,51.3755596,-2.3736570
21,Junction Road,BA2 3NH,51.3755743,-2.3737207
22,Junction Avenue,BA2 3NH,51.3755890,-2.3737844
23,Junction Road,BA2 3NH,51.3756038,-2.3738480
24,Junction Road,BA2 3NH,51.3756185,-2.3739117
25,Junction Road,BA2 3NH,51.3756333,-2.3739754
26,Junction Road,BA2 3NH,51.3756480,-2.3740390
43,Upper Oldfield Park,BA2 3LB,51.3761025,-2.3735890
60,Junction Road,BA2 3NQ,51.3752140,-2.3719430
61,Junction Road,BA2 3NQ,51.3753660,-2.3722637
33,Upper Oldfield Park,BA2 3JX,51.3758379,-2.3723460
37,Upper Oldfield Park,BA2 3JX,51.3759378,-2.3728633
35,Upper Oldfield Park,BA2 3JX,51.3759043,-2.3726800
16A,Upper Oldfield Park,BA2 3JZ,51.3760100,-2.3710243
31,Upper Oldfield Park,BA2 3JX,51.3757520,-2.3719749
29,Upper Oldfield Park,BA2 3JX,51.3757145,-2.3718163
27,Upper Oldfield Park,BA2 3JX,51.3756577,-2.3715497
27,Upper Oldfield Park,BA2 3JX,51.3756048,-2.3714249
21,Upper Oldfield Park,BA2 3JX,51.3754833,-2.3711352
23,Upper Oldfield Park,BA2 3JX,51.3755343,-2.3712569
17,Upper Oldfield Park,BA2 3JX,51.3753530,-2.3708316
19,Upper Oldfield Park,BA2 3JX,51.3754001,-2.3709548
15,Upper Oldfield Park,BA2 3JX,51.3753029,-2.3706192
13,Upper Oldfield Park,BA2 3JX,51.3752730,-2.3704929
11,Upper Oldfield Park,BA2 3JX,51.3752570,-2.3702352
9,Upper Oldfield Park,BA2 3JX,51.3752018,-2.3701226
139,Wells Road,BA2 3AL,51.3758349,-2.3678679
1,Lower Oldfield Park,BA2 3HL,51.3776715,-2.3688343
3,Lower Oldfield Park,BA2 3HL,51.3776211,-2.3689032
5,Lower Oldfield Park,BA2 3HL,51.3775742,-2.3689707
9,Lower Oldfield Park,BA2 3HL,51.3774552,-2.3691056
7,Lower Oldfield Park,BA2 3HL,51.3775003,-2.3690426
13,Lower Oldfield Park,BA2 3HL,51.3773550,-2.3692524
11,Lower Oldfield Park,BA2 3HL,51.3773961,-2.3691911
15,Lower Oldfield Park,BA2 3HL,51.3772939,-2.3693652
17,Lower Oldfield Park,BA2 3HL,51.3772440,-2.3694431
57,Upper Oldfield Park,BA2 3LB,51.3769716,-2.3739183
55,Upper Oldfield Park,BA2 3LB,51.3768698,-2.3739172
61,Upper Oldfield Park,BA2 3LB,51.3772876,-2.3739840
59,Upper Oldfield Park,BA2 3LB,51.3771878,-2.3739705
75,Lower Oldfield Park,BA2 3HR,51.3774080,-2.3742956
75,Lower Oldfield Park,BA2 3HR,51.3775296,-2.3741017
103,Lower Oldfield Park,BA2 3HR,51.3779783,-2.3759841
101,Lower Oldfield Park,BA2 3HR,51.3779561,-2.3758868
99,Lower Oldfield Park,BA2 3HR,51.3779189,-2.3757313
97,Lower Oldfield Park,BA2 3HR,51.3778986,-2.3756454
93,Lower Oldfield Park,BA2 3HR,51.3778547,-2.3754203
95,Lower Oldfield Park,BA2 3HR,51.3778869,-2.3755204
89,Lower Oldfield Park,BA2 3HR,51.3777788,-2.3751769
91,Lower Oldfield Park,BA2 3HR,51.3778109,-2.3752770
85,Lower Oldfield Park,BA2 3HR,51.3777118,-2.3749573
87,Lower Oldfield Park,BA2 3HR,51.3777439,-2.3750574
83,Lower Oldfield Park,BA2 3HR,51.3776608,-2.3748314
81,Lower Oldfield Park,BA2 3HR,51.3776335,-2.3747230
77,Lower Oldfield Park,BA2 3HR,51.3775698,-2.3744772
79,Lower Oldfield Park,BA2 3HR,51.3775969,-2.3745855
105,Lower Oldfield Park,BA2 3HR,51.3779930,-2.3761332
107,Lower Oldfield Park,BA2 3HR,51.3780052,-2.3762363
109,Lower Oldfield Park,BA2 3HR,51.3780732,-2.3763676
111,Lower Oldfield Park,BA2 3HR,51.3780881,-2.3764778
113,Lower Oldfield Park,BA2 3HR,51.3781709,-2.3766071
115,Lower Oldfield Park,BA2 3HR,51.3781676,-2.3767257
117,Lower Oldfield Park,BA2 3HR,51.3781177,-2.3768399
119,Lower Oldfield Park,BA2 3HR,51.3780971,-2.3769058
121,Lower Oldfield Park,BA2 3HR,51.3780764,-2.3769716
123,Lower Oldfield Park,BA2 3HR,51.3780557,-2.3770375
1,Arlington Road,BA2 3PG,51.3778038,-2.3767316
2,Arlington Road,BA2 3PG,51.3777672,-2.3766983
3,Arlington Road,BA2 3PG,51.3777306,-2.3766650
4,Arlington Road,BA2 3PG,51.3776939,-2.3766317
5,Arlington Road,BA2 3PG,51.3776573,-2.3765984
6,Arlington Road,BA2 3PG,51.3776207,-2.3765651
7,Arlington Road,BA2 3PG,51.3775840,-2.3765318
8,Arlington Road,BA2 3PG,51.3775474,-2.3764985
9,Arlington Road,BA2 3PG,51.3775108,-2.3764652
10,Arlington Road,BA2 3PG,51.3774742,-2.3764319
11,Arlington Road,BA2 3PG,51.3774375,-2.3763987
12,Arlington Road,BA2 3PG,51.3774009,-2.3763654
12A,Arlington Road,BA2 3PG,51.3773643,-2.3763321
14,Arlington Road,BA2 3PG,51.3773276,-2.3762988
25,Shaftesbury Road,BA2 3LQ,51.3772435,-2.3762479
24,Shaftesbury Road,BA2 3LQ,51.3772417,-2.3761439
23,Shaftesbury Road,BA2 3LQ,51.3772405,-2.3760736
22,Shaftesbury Road,BA2 3LQ,51.3772391,-2.3760039
21,Shaftesbury Road,BA2 3LQ,51.3772378,-2.3759342
20,Shaftesbury Road,BA2 3LQ,51.3772365,-2.3758645
19,Shaftesbury Road,BA2 3LQ,51.3772352,-2.3757948
18,Shaftesbury Road,BA2 3LQ,51.3772339,-2.3757251
17,Shaftesbury Road,BA2 3LQ,51.3772325,-2.3756554
16,Shaftesbury Road,BA2 3LQ,51.3772312,-2.3755857
15,Shaftesbury Road,BA2 3LQ,51.3772299,-2.3755160
14,Shaftesbury Road,BA2 3LQ,51.3772286,-2.3754463
13,Shaftesbury Road,BA2 3LQ,51.3772272,-2.3753766
12,Shaftesbury Road,BA2 3LQ,51.3772259,-2.3753069
11,Shaftesbury Road,BA2 3LQ,51.3772246,-2.3752372
10,Shaftesbury Road,BA2 3LQ,51.3772233,-2.3751675
9,Shaftesbury Road,BA2 3LQ,51.3772220,-2.3750978
8,Shaftesbury Road,BA2 3LQ,51.3772207,-2.3750281
7,Shaftesbury Road,BA2 3LQ,51.3772193,-2.3749583
6,Shaftesbury Road,BA2 3LQ,51.3772180,-2.3748886
5,Shaftesbury Road,BA2 3LQ,51.3772167,-2.3748189
4,Shaftesbury Road,BA2 3LQ,51.3772154,-2.3747492
3,Shaftesbury Road,BA2 3LQ,51.3772140,-2.3746795
2,Shaftesbury Road,BA2 3LQ,51.3772127,-2.3746098
1,Shaftesbury Road,BA2 3LQ,51.3772114,-2.3745401
20,Winchester Road,BA2 3LF,51.3768163,-2.3751402
22,Winchester Road,BA2 3LF,51.3768208,-2.3752212
54,Winchester Road,BA2 3LF,51.3768873,-2.3764630
52,Winchester Road,BA2 3LF,51.3769071,-2.3763822
50,Winchester Road,BA2 3LF,51.3769018,-2.3763081
48,Winchester Road,BA2 3LF,51.3768962,-2.3762333
46,Winchester Road,BA2 3LF,51.3768907,-2.3761584
44,Winchester Road,BA2 3LF,51.3768851,-2.3760835
42,Winchester Road,BA2 3LF,51.3768797,-2.3760087
40,Winchester Road,BA2 3LF,51.3768741,-2.3759338
38,Winchester Road,BA2 3LF,51.3768686,-2.3758590
36,Winchester Road,BA2 3LF,51.3768630,-2.3757841
34,Winchester Road,BA2 3LF,51.3768575,-2.3757093
32,Winchester Road,BA2 3LF,51.3768520,-2.3756344
30,Winchester Road,BA2 3LF,51.3768465,-2.3755596
28,Winchester Road,BA2 3LF,51.3768410,-2.3754847
26,Winchester Road,BA2 3LF,51.3768355,-2.3754099
24,Winchester Road,BA2 3LF,51.3768300,-2.3753350
41,Junction Road,BA2 3LD,51.3767354,-2.3746585
42,Junction Road,BA2 3LD,51.3767921,-2.3746527
43,Junction Road,BA2 3LD,51.3768488,-2.3746469
44,Junction Road,BA2 3LD,51.3769055,-2.3746412
45,Junction Road,BA2 3LD,51.3769621,-2.3746354
46,Junction Road,BA2 3LD,51.3770188,-2.3746297
16,Arlington Road,BA2 3PG,51.3772169,-2.3766522
17,Arlington Road,BA2 3PG,51.3772648,-2.3766961
18,Arlington Road,BA2 3PG,51.3773025,-2.3767297
19,Arlington Road,BA2 3PG,51.3773422,-2.3767647
20,Arlington Road,BA2 3PG,51.3773788,-2.3767981
21,Arlington Road,BA2 3PG,51.3774132,-2.3768292
22,Arlington Road,BA2 3PG,51.3774477,-2.3768595
23,Arlington Road,BA2 3PG,51.3774826,-2.3768884
24,Arlington Road,BA2 3PG,51.3775166,-2.3769198
25,Arlington Road,BA2 3PG,51.3775527,-2.3769506
26,Arlington Road,BA2 3PG,51.3775883,-2.3769821
27,Arlington Road,BA2 3PG,51.3776195,-2.3770098
28,Arlington Road,BA2 3PG,51.3776533,-2.3770380
29,Arlington Road,BA2 3PG,51.3776910,-2.3770714
30,Arlington Road,BA2 3PG,51.3777289,-2.3771049
5,Livingstone Road,BA2 3PQ,51.3777469,-2.3780201
6,Livingstone Road,BA2 3PQ,51.3777136,-2.3780570
7,Livingstone Road,BA2 3PQ,51.3776804,-2.3780953
8,Livingstone Road,BA2 3PQ,51.3776457,-2.3781349
9,Livingstone Road,BA2 3PQ,51.3776130,-2.3781720
10,Livingstone Road,BA2 3PQ,51.3775784,-2.3782109
11,Livingstone Road,BA2 3PQ,51.3775424,-2.3782508
12,Livingstone Road,BA2 3PQ,51.3775093,-2.3782879
13,Livingstone Road,BA2 3PQ,51.3774751,-2.3783266
14,Livingstone Road,BA2 3PQ,51.3774400,-2.3783671
15,Livingstone Road,BA2 3PQ,51.3774049,-2.3784082
1A,Livingstone Road,BA2 3PQ,51.3778080,-2.3777527
2,Livingstone Road,BA2 3PQ,51.3778082,-2.3778402
3,Livingstone Road,BA2 3PQ,51.3778077,-2.3779102
18,Livingstone Road,BA2 3PH,51.3776819,-2.3785837
19,Livingstone Road,BA2 3PH,51.3777145,-2.3785446
20,Livingstone Road,BA2 3PH,51.3777472,-2.3785052
21,Livingstone Road,BA2 3PH,51.3777798,-2.3784657
22,Livingstone Road,BA2 3PH,51.3778126,-2.3784263
23,Livingstone Road,BA2 3PH,51.3778452,-2.3783869
24,Livingstone Road,BA2 3PH,51.3778779,-2.3783474
25,Livingstone Road,BA2 3PH,51.3779107,-2.3783080
26,Livingstone Road,BA2 3PH,51.3779433,-2.3782686
27,Livingstone Road,BA2 3PH,51.3779760,-2.3782291
28,Livingstone Road,BA2 3PH,51.3780087,-2.3781897
29,Livingstone Road,BA2 3PH,51.3780414,-2.3781502
30,Livingstone Road,BA2 3PH,51.3780741,-2.3781108
31,Livingstone Road,BA2 3PH,51.3781068,-2.3780713
17,Crandale Road,BA2 3HX,51.3783876,-2.3783777
16,Crandale Road,BA2 3HX,51.3783549,-2.3784183
15,Crandale Road,BA2 3HX,51.3783241,-2.3784596
14,Crandale Road,BA2 3HX,51.3782872,-2.3784994
13,Crandale Road,BA2 3HX,51.3782582,-2.3785418
12,Crandale Road,BA2 3HX,51.3782239,-2.3785785
11,Crandale Road,BA2 3HX,51.3781945,-2.3786183
10,Crandale Road,BA2 3HX,51.3781606,-2.3786508
9,Crandale Road,BA2 3HX,51.3781300,-2.3786995
8,Crandale Road,BA2 3HX,51.3780931,-2.3787406
7,Crandale Road,BA2 3HX,51.3780592,-2.3787825
6,Crandale Road,BA2 3HX,51.3780277,-2.3788210
5,Crandale Road,BA2 3HX,51.3779967,-2.3788589
4,Crandale Road,BA2 3HX,51.3779641,-2.3788974
3,Crandale Road,BA2 3HX,51.3779284,-2.3789426
2,Crandale Road,BA2 3HX,51.3778936,-2.3789846
1,Crandale Road,BA2 3HX,51.3778622,-2.3790230
26,Crandale Road,BA2 3HX,51.3782998,-2.3789712
25,Crandale Road,BA2 3HX,51.3783319,-2.3789316
24,Crandale Road,BA2 3HX,51.3783629,-2.3788921
23,Crandale Road,BA2 3HX,51.3783940,-2.3788526
22,Crandale Road,BA2 3HX,51.3784251,-2.3788130
21,Crandale Road,BA2 3HX,51.3784561,-2.3787735
20,Crandale Road,BA2 3HX,51.3784871,-2.3787339
19,Crandale Road,BA2 3HX,51.3785181,-2.3786944
18,Crandale Road,BA2 3HX,51.3785491,-2.3786548
34,Crandale Road,BA2 3HX,51.3779918,-2.3792767
33,Crandale Road,BA2 3HX,51.3780601,-2.3792316
32,Crandale Road,BA2 3HX,51.3780945,-2.3791898
31,Crandale Road,BA2 3HX,51.3781262,-2.3791478
30,Crandale Road,BA2 3HX,51.3781607,-2.3791100
29,Crandale Road,BA2 3HX,51.3781921,-2.3790701
28,Crandale Road,BA2 3HX,51.3782250,-2.3790292
27,Crandale Road,BA2 3HX,51.3782548,-2.3789893
2,Triangle East,BA2 3HY,51.3786161,-2.3792540
3,Triangle East,BA2 3HY,51.3785618,-2.3793200
4,Triangle East,BA2 3HY,51.3785289,-2.3793622
5,Triangle East,BA2 3HY,51.3784962,-2.3794046
6,Triangle East,BA2 3HY,51.3784634,-2.3794470
7,Triangle East,BA2 3HY,51.3784307,-2.3794894
8,Triangle East,BA2 3HY,51.3783980,-2.3795319
9,Triangle East,BA2 3HY,51.3783652,-2.3795743
10,Triangle East,BA2 3HY,51.3783325,-2.3796166
11,Triangle East,BA2 3HY,51.3782998,-2.3796591
12,Triangle East,BA2 3HY,51.3782670,-2.3797015
13,Triangle East,BA2 3HY,51.3782343,-2.3797439
14,Triangle East,BA2 3HY,51.3782015,-2.3797863
15,Triangle East,BA2 3HY,51.3781688,-2.3798288
16,Triangle East,BA2 3HY,51.3781361,-2.3798712
33,Livingstone Road,BA2 3PH,51.3780145,-2.3775334
34,Livingstone Road,BA2 3PH,51.3780556,-2.3774961
36,Livingstone Road,BA2 3PH,51.3781320,-2.3774247
37,Livingstone Road,BA2 3PH,51.3781719,-2.3773875
38,Livingstone Road,BA2 3PH,51.3782082,-2.3773527
39,Livingstone Road,BA2 3PH,51.3782489,-2.3773174
40,Livingstone Road,BA2 3PH,51.3782956,-2.3772749
41,Livingstone Road,BA2 3PH,51.3783423,-2.3772325
34,Stanley Road West,BA2 3HU,51.3783912,-2.3776531
33,Stanley Road West,BA2 3HU,51.3784058,-2.3777290
32,Stanley Road West,BA2 3HU,51.3784196,-2.3777996
31,Stanley Road West,BA2 3HU,51.3784317,-2.3778682
30,Stanley Road West,BA2 3HU,51.3784451,-2.3779369
29,Stanley Road West,BA2 3HU,51.3784585,-2.3780088
26,Stanley Road West,BA2 3HU,51.3785238,-2.3783420
4,Stanley Road West,BA2 3HU,51.3785082,-2.3770001
3,Stanley Road West,BA2 3HU,51.3785154,-2.3769224
2,Stanley Road West,BA2 3HU,51.3785225,-2.3768445
1,Stanley Road West,BA2 3HU,51.3785296,-2.3767668
25,Stanley Road West,BA2 3HU,51.3787638,-2.3784934
24,Stanley Road West,BA2 3HU,51.3787504,-2.3784247
23,Stanley Road West,BA2 3HU,51.3787370,-2.3783562
22,Stanley Road West,BA2 3HU,51.3787236,-2.3782876
21,Stanley Road West,BA2 3HU,51.3787102,-2.3782190
20,Stanley Road West,BA2 3HU,51.3786968,-2.3781504
19,Stanley Road West,BA2 3HU,51.3786834,-2.3780818
18,Stanley Road West,BA2 3HU,51.3786700,-2.3780132
17,Stanley Road West,BA2 3HU,51.3786566,-2.3779446
16,Stanley Road West,BA2 3HU,51.3786432,-2.3778761
15,Stanley Road West,BA2 3HU,51.3786298,-2.3778075
14,Stanley Road West,BA2 3HU,51.3786164,-2.3777389
13,Stanley Road West,BA2 3HU,51.3786030,-2.3776703
12,Stanley Road West,BA2 3HU,51.3785896,-2.3776017
11,Stanley Road West,BA2 3HU,51.3785762,-2.3775331
10,Stanley Road West,BA2 3HU,51.3785628,-2.3774645
9,Stanley Road West,BA2 3HU,51.3785494,-2.3773959
8,Stanley Road West,BA2 3HU,51.3785360,-2.3773273
7,Stanley Road West,BA2 3HU,51.3785226,-2.3772588
6,Stanley Road West,BA2 3HU,51.3785092,-2.3771902
5,Stanley Road West,BA2 3HU,51.3784958,-2.3771216
31,West Avenue,BA2 3QB,51.3779813,-2.3824943
30,West Avenue,BA2 3QB,51.3780244,-2.3824779
29,West Avenue,BA2 3QB,51.3780674,-2.3824615
28,West Avenue,BA2 3QB,51.3781104,-2.3824451
27,West Avenue,BA2 3QB,51.3781534,-2.3824287
26,West Avenue,BA2 3QB,51.3781964,-2.3824124
25,West Avenue,BA2 3QB,51.3782395,-2.3823960
24,West Avenue,BA2 3QB,51.3782825,-2.3823796
23,West Avenue,BA2 3QB,51.3783255,-2.3823631
22,West Avenue,BA2 3QB,51.3783685,-2.3823468
21,West Avenue,BA2 3QB,51.3784116,-2.3823304
20,West Avenue,BA2 3QB,51.3784546,-2.3823140
19,West Avenue,BA2 3QB,51.3784976,-2.3822976
18,West Avenue,BA2 3QB,51.3785406,-2.3822812
17,West Avenue,BA2 3QB,51.3785836,-2.3822648
16,West Avenue,BA2 3QB,51.3786267,-2.3822485
15,West Avenue,BA2 3QB,51.3786697,-2.3822320
14,West Avenue,BA2 3QB,51.3787127,-2.3822157
13,West Avenue,BA2 3QB,51.3787557,-2.3821993
109,West Avenue,BA2 3QB,51.3786972,-2.3817970
108,West Avenue,BA2 3QB,51.3786558,-2.3818123
107,West Avenue,BA2 3QB,51.3786144,-2.3818277
106,West Avenue,BA2 3QB,51.3785730,-2.3818430
105,West Avenue,BA2 3QB,51.3785317,-2.3818583
104,West Avenue,BA2 3QB,51.3784903,-2.3818737
103,West Avenue,BA2 3QB,51.3784489,-2.3818890
102,West Avenue,BA2 3QB,51.3784076,-2.3819043
101,West Avenue,BA2 3QB,51.3783662,-2.3819197
100,West Avenue,BA2 3QB,51.3783248,-2.3819350
99,West Avenue,BA2 3QB,51.3782834,-2.3819503
98,West Avenue,BA2 3QB,51.3782421,-2.3819657
97,West Avenue,BA2 3QB,51.3782007,-2.3819810
96,West Avenue,BA2 3QB,51.3781593,-2.3819964
95,West Avenue,BA2 3QB,51.3781179,-2.3820117
94,West Avenue,BA2 3QB,51.3780766,-2.3820270
93,West Avenue,BA2 3QB,51.3780352,-2.3820424
92,West Avenue,BA2 3QB,51.3779930,-2.3820591
91,West Avenue,BA2 3QB,51.3779508,-2.3820757
90,West Avenue,BA2 3QB,51.3779095,-2.3820911
89,West Avenue,BA2 3QB,51.3778681,-2.3821064
88,West Avenue,BA2 3QB,51.3778267,-2.3821218
87,West Avenue,BA2 3QB,51.3777853,-2.3821371
86,West Avenue,BA2 3QB,51.3777373,-2.3821544
57,Triangle West,BA2 3JA,51.3786394,-2.3810590
35,Triangle West,BA2 3JA,51.3776979,-2.3813642
36,Triangle West,BA2 3JA,51.3777402,-2.3813504
37,Triangle West,BA2 3JA,51.3777824,-2.3813368
38,Triangle West,BA2 3JA,51.3778245,-2.3813229
39,Triangle West,BA2 3JA,51.3778667,-2.3813093
40,Triangle West,BA2 3JA,51.3779088,-2.3812955
41,Triangle West,BA2 3JA,51.3779510,-2.3812817
42,Triangle West,BA2 3JA,51.3779932,-2.3812681
43,Triangle West,BA2 3JA,51.3780354,-2.3812543
44,Triangle West,BA2 3JA,51.3780738,-2.3812418
45,Triangle West,BA2 3JA,51.3781117,-2.3812290
46,Triangle West,BA2 3JA,51.3781539,-2.3812149
47,Triangle West,BA2 3JA,51.3781960,-2.3812008
48,Triangle West,BA2 3JA,51.3782381,-2.3811867
49,Triangle West,BA2 3JA,51.3782802,-2.3811725
50,Triangle West,BA2 3JA,51.3783223,-2.3811585
51,Triangle West,BA2 3JA,51.3783645,-2.3811444
52,Triangle West,BA2 3JA,51.3784067,-2.3811303
53,Triangle West,BA2 3JA,51.3784488,-2.3811162
54,Triangle West,BA2 3JA,51.3784909,-2.3811021
55,Triangle West,BA2 3JA,51.3785331,-2.3810880
56,Triangle West,BA2 3JA,51.3785752,-2.3810738
2,Triangle West,BA2 3JF,51.3784490,-2.3806497
1,Triangle West,BA2 3JF,51.3785017,-2.3806502
3,Triangle West,BA2 3JF,51.3783567,-2.3806955
4,Triangle West,BA2 3JF,51.3783062,-2.3807125
6,Triangle West,BA2 3JF,51.3781149,-2.3808222
5,Triangle West,BA2 3JF,51.3782011,-2.3807930
11,Triangle East,BA2 3JG,51.3781943,-2.3803871
12,Triangle East,BA2 3JG,51.3782333,-2.3803363
9,Triangle East,BA2 3JG,51.3780764,-2.3805397
10,Triangle East,BA2 3JG,51.3781147,-2.3804904
17,Triangle East,BA2 3HZ,51.3780380,-2.3800526
18,Triangle East,BA2 3HZ,51.3780048,-2.3800950
19,Triangle East,BA2 3HZ,51.3779715,-2.3801374
20,Triangle East,BA2 3HZ,51.3779384,-2.3801797
21,Triangle East,BA2 3HZ,51.3779052,-2.3802220
22,Triangle East,BA2 3HZ,51.3778719,-2.3802645
23,Triangle East,BA2 3HZ,51.3778387,-2.3803069
24,Triangle East,BA2 3HZ,51.3778056,-2.3803493
25,Triangle East,BA2 3HZ,51.3777724,-2.3803915
26,Triangle East,BA2 3HZ,51.3777391,-2.3804340
27,Triangle East,BA2 3HZ,51.3777059,-2.3804764
28,Triangle East,BA2 3HZ,51.3776728,-2.3805186
29,Triangle East,BA2 3HZ,51.3776395,-2.3805610
30,Triangle East,BA2 3HZ,51.3776063,-2.3806034
31,Triangle East,BA2 3HZ,51.3775732,-2.3806458
32,Triangle East,BA2 3HZ,51.3775400,-2.3806882
33,Triangle East,BA2 3HZ,51.3775068,-2.3807306
34,Triangle East,BA2 3HZ,51.3774736,-2.3807729
8,Triangle East,BA2 3JG,51.3779803,-2.3806449
7,Triangle East,BA2 3JG,51.3779404,-2.3806948
7A,Triangle East,BA2 3JG,51.3778582,-2.3807721
16,Moorland Road,BA2 3PL,51.3776982,-2.3796636
17,Moorland Road,BA2 3PL,51.3777388,-2.3797122
18,Moorland Road,BA2 3PL,51.3777794,-2.3797609
19,Moorland Road,BA2 3PL,51.3778200,-2.3798096
34,Maybrick Road,BA2 3PU,51.3771818,-2.3803314
35,Maybrick Road,BA2 3PU,51.3771430,-2.3803615
36,Maybrick Road,BA2 3PU,51.3771040,-2.3803916
37,Maybrick Road,BA2 3PU,51.3770651,-2.3804218
38,Maybrick Road,BA2 3PU,51.3770263,-2.3804519
39,Maybrick Road,BA2 3PU,51.3769874,-2.3804820
40,Maybrick Road,BA2 3PU,51.3769485,-2.3805121
33,Maybrick Road,BA2 3PU,51.3772173,-2.3802941
32,Maybrick Road,BA2 3PU,51.3772512,-2.3802538
31,Maybrick Road,BA2 3PU,51.3772851,-2.3802135
30,Maybrick Road,BA2 3PU,51.3773190,-2.3801732
29,Maybrick Road,BA2 3PU,51.3773530,-2.3801330
28,Maybrick Road,BA2 3PU,51.3773868,-2.3800926
27,Maybrick Road,BA2 3PU,51.3774207,-2.3800524
26,Maybrick Road,BA2 3PU,51.3774547,-2.3800121
25,Maybrick Road,BA2 3PU,51.3774886,-2.3799718
24,Maybrick Road,BA2 3PU,51.3775225,-2.3799315
23,Maybrick Road,BA2 3PU,51.3775564,-2.3798912
19,South Avenue,BA2 3PY,51.3771784,-2.3810636
20,South Avenue,BA2 3PY,51.3771539,-2.3810079
21,South Avenue,BA2 3PY,51.3771289,-2.3809510
22,South Avenue,BA2 3PY,51.3771053,-2.3808926
23,South Avenue,BA2 3PY,51.3770804,-2.3808403
24,South Avenue,BA2 3PY,51.3770442,-2.3807592
64-76,Dartmouth Avenue,BA2 1AT,51.3760460,-2.3845554
3,Bridge Road,BA2 1AA,51.3760338,-2.3826386
1,Bridge Road,BA2 1AA,51.3761861,-2.3824954
40,West Avenue,BA2 3QD,51.3775064,-2.3827649
39,West Avenue,BA2 3QD,51.3775465,-2.3827405
38,West Avenue,BA2 3QD,51.3775858,-2.3827172
37,West Avenue,BA2 3QD,51.3776293,-2.3826921
36,West Avenue,BA2 3QD,51.3776702,-2.3826662
35,West Avenue,BA2 3QD,51.3777133,-2.3826404
34,West Avenue,BA2 3QD,51.3777563,-2.3826145
33,West Avenue,BA2 3QD,51.3777994,-2.3825886
32,West Avenue,BA2 3QD,51.3778424,-2.3825628
25,Millmead Road,BA2 3JP,51.3775187,-2.3836333
27,Millmead Road,BA2 3JP,51.3774773,-2.3836564
29,Millmead Road,BA2 3JP,51.3774360,-2.3836796
31,Millmead Road,BA2 3JP,51.3773945,-2.3837027
33,Millmead Road,BA2 3JP,51.3773532,-2.3837259
35,Millmead Road,BA2 3JP,51.3773118,-2.3837490
37,Millmead Road,BA2 3JP,51.3772704,-2.3837721
39,Millmead Road,BA2 3JP,51.3772290,-2.3837953
41,Millmead Road,BA2 3JP,51.3771876,-2.3838184
43,Millmead Road,BA2 3JP,51.3771462,-2.3838416
45,Millmead Road,BA2 3JP,51.3771049,-2.3838647
47,Millmead Road,BA2 3JP,51.3770635,-2.3838879
49,Millmead Road,BA2 3JP,51.3770221,-2.3839110
44,Millmead Road,BA2 3JP,51.3771590,-2.3842582
42,Millmead Road,BA2 3JP,51.3771999,-2.3842370
40,Millmead Road,BA2 3JP,51.3772407,-2.3842158
38,Millmead Road,BA2 3JP,51.3772815,-2.3841946
36,Millmead Road,BA2 3JP,51.3773224,-2.3841734
34,Millmead Road,BA2 3JP,51.3773633,-2.3841522
30,Millmead Road,BA2 3JW,51.3780012,-2.3838048
28,Millmead Road,BA2 3JW,51.3780438,-2.3837824
26,Millmead Road,BA2 3JW,51.3780855,-2.3837616
24,Millmead Road,BA2 3JW,51.3781293,-2.3837412
22,Millmead Road,BA2 3JW,51.3781702,-2.3837196
20,Millmead Road,BA2 3JW,51.3782107,-2.3836960
18,Millmead Road,BA2 3JW,51.3782525,-2.3836724
16,Millmead Road,BA2 3JW,51.3782942,-2.3836514
14,Millmead Road,BA2 3JW,51.3783347,-2.3836290
12,Millmead Road,BA2 3JW,51.3783772,-2.3836074
10,Millmead Road,BA2 3JW,51.3784186,-2.3835831
8,Millmead Road,BA2 3JW,51.3784604,-2.3835615
6,Millmead Road,BA2 3JW,51.3785021,-2.3835419
4,Millmead Road,BA2 3JW,51.3785450,-2.3835215
2,Millmead Road,BA2 3JW,51.3785893,-2.3835012
11,Lyndhurst Road,BA2 3JH,51.3787792,-2.3833105
13,Lyndhurst Road,BA2 3JH,51.3787876,-2.3833839
15,Lyndhurst Road,BA2 3JH,51.3787961,-2.3834573
17,Lyndhurst Road,BA2 3JH,51.3788046,-2.3835307
19,Lyndhurst Road,BA2 3JH,51.3788131,-2.3836041
21,Lyndhurst Road,BA2 3JH,51.3788216,-2.3836775
23,Lyndhurst Road,BA2 3JH,51.3788301,-2.3837509
25,Lyndhurst Road,BA2 3JH,51.3788385,-2.3838243
27,Lyndhurst Road,BA2 3JH,51.3788470,-2.3838977
29,Lyndhurst Road,BA2 3JH,51.3788555,-2.3839711
31,Lyndhurst Road,BA2 3JH,51.3788640,-2.3840445
33,Lyndhurst Road,BA2 3JH,51.3788725,-2.3841179
35,Lyndhurst Road,BA2 3JH,51.3788810,-2.3841913
37,Lyndhurst Road,BA2 3JH,51.3788894,-2.3842647
39,Lyndhurst Road,BA2 3JH,51.3788979,-2.3843381
43,Lyndhurst Road,BA2 3JH,51.3789064,-2.3844115
45,Lyndhurst Road,BA2 3JH,51.3789149,-2.3844849
1,Millmead Road,BA2 3JW,51.3785693,-2.3830458
3,Millmead Road,BA2 3JW,51.3785282,-2.3830666
5,Millmead Road,BA2 3JW,51.3784872,-2.3830875
7,Millmead Road,BA2 3JW,51.3784462,-2.3831082
9,Millmead Road,BA2 3JW,51.3784052,-2.3831290
11,Millmead Road,BA2 3JW,51.3783641,-2.3831498
13,Millmead Road,BA2 3JW,51.3783231,-2.3831706
15,Millmead Road,BA2 3JW,51.3782821,-2.3831914
17,Millmead Road,BA2 3JW,51.3782410,-2.3832122
19,Millmead Road,BA2 3JW,51.3782000,-2.3832330
21,Millmead Road,BA2 3JW,51.3781590,-2.3832538
23,Millmead Road,BA2 3JW,51.3781180,-2.3832746
1,Lyndhurst Road,BA2 3JH,51.3787204,-2.3827533
3,Lyndhurst Road,BA2 3JH,51.3787289,-2.3828316
5,Lyndhurst Road,BA2 3JH,51.3787374,-2.3829098
7,Lyndhurst Road,BA2 3JH,51.3787459,-2.3829881
9,Lyndhurst Road,BA2 3JH,51.3787543,-2.3830663
16A,Lyndhurst Road,BA2 3JH,51.3790340,-2.3831918
54,Lyndhurst Road,BA2 3JH,51.3791909,-2.3844954
52,Lyndhurst Road,BA2 3JH,51.3791822,-2.3844231
50,Lyndhurst Road,BA2 3JH,51.3791735,-2.3843509
48,Lyndhurst Road,BA2 3JH,51.3791648,-2.3842786
46,Lyndhurst Road,BA2 3JH,51.3791560,-2.3842063
44,Lyndhurst Road,BA2 3JH,51.3791473,-2.3841341
42,Lyndhurst Road,BA2 3JH,51.3791386,-2.3840618
40,Lyndhurst Road,BA2 3JH,51.3791297,-2.3839895
38,Lyndhurst Road,BA2 3JH,51.3791210,-2.3839172
36,Lyndhurst Road,BA2 3JH,51.3791123,-2.3838450
34,Lyndhurst Road,BA2 3JH,51.3791035,-2.3837727
32,Lyndhurst Road,BA2 3JH,51.3790947,-2.3837005
30,Lyndhurst Road,BA2 3JH,51.3790860,-2.3836282
28,Lyndhurst Road,BA2 3JH,51.3790777,-2.3835613
26,Lyndhurst Road,BA2 3JH,51.3790698,-2.3834957
24,Lyndhurst Road,BA2 3JH,51.3790616,-2.3834269
22,Lyndhurst Road,BA2 3JH,51.3790523,-2.3833566
20,Lyndhurst Road,BA2 3JH,51.3790448,-2.3832874
14,Lyndhurst Road,BA2 3JH,51.3790169,-2.3830598
12,Lyndhurst Road,BA2 3JH,51.3790093,-2.3829944
10,Lyndhurst Road,BA2 3JH,51.3790001,-2.3829180
8,Lyndhurst Road,BA2 3JH,51.3789909,-2.3828418
6,Lyndhurst Road,BA2 3JH,51.3789817,-2.3827655
4,Lyndhurst Road,BA2 3JH,51.3789724,-2.3826892
2,Lyndhurst Road,BA2 3JH,51.3789632,-2.3826129
4,Lyndhurst Mews,BA2 3FZ,51.3793175,-2.3831046
12,West Avenue,BA2 3QE,51.3789309,-2.3824283
11,West Avenue,BA2 3QE,51.3789232,-2.3823592
10,West Avenue,BA2 3QE,51.3789155,-2.3822901
9,West Avenue,BA2 3QE,51.3789078,-2.3822211
8,West Avenue,BA2 3QE,51.3789001,-2.3821520
7,West Avenue,BA2 3QE,51.3788924,-2.3820829
6,West Avenue,BA2 3QE,51.3788847,-2.3820139
5,West Avenue,BA2 3QE,51.3788770,-2.3819448
4,West Avenue,BA2 3QE,51.3788694,-2.3818757
3,West Avenue,BA2 3QE,51.3788617,-2.3818067
2,West Avenue,BA2 3QE,51.3788540,-2.3817376
1,West Avenue,BA2 3QE,51.3788463,-2.3816685
85,Triangle North,BA2 3JB,51.3788133,-2.3789104
84,Triangle North,BA2 3JB,51.3788170,-2.3789787
83,Triangle North,BA2 3JB,51.3788208,-2.3790471
82,Triangle North,BA2 3JB,51.3788246,-2.3791154
81,Triangle North,BA2 3JB,51.3788283,-2.3791837
80,Triangle North,BA2 3JB,51.3788320,-2.3792520
79,Triangle North,BA2 3JB,51.3788358,-2.3793203
78,Triangle North,BA2 3JB,51.3788395,-2.3793886
77,Triangle North,BA2 3JB,51.3788433,-2.3794569
76,Triangle North,BA2 3JB,51.3788471,-2.3795252
75,Triangle North,BA2 3JB,51.3788508,-2.3795935
74,Triangle North,BA2 3JB,51.3788545,-2.3796618
73,Triangle North,BA2 3JB,51.3788583,-2.3797301
72,Triangle North,BA2 3JB,51.3788620,-2.3797984
71,Triangle North,BA2 3JB,51.3788658,-2.3798667
70,Triangle North,BA2 3JB,51.3788696,-2.3799350
69,Triangle North,BA2 3JB,51.3788733,-2.3800033
68,Triangle North,BA2 3JB,51.3788770,-2.3800717
67,Triangle North,BA2 3JB,51.3788808,-2.3801400
66,Triangle North,BA2 3JB,51.3788845,-2.3802083
65,Triangle North,BA2 3JB,51.3788883,-2.3802766
64,Triangle North,BA2 3JB,51.3788921,-2.3803449
63,Triangle North,BA2 3JB,51.3788958,-2.3804132
62,Triangle North,BA2 3JB,51.3788995,-2.3804815
61,Triangle North,BA2 3JB,51.3789033,-2.3805498
60,Triangle North,BA2 3JB,51.3789070,-2.3806181
59,Triangle North,BA2 3JB,51.3789108,-2.3806864
58,Triangle North,BA2 3JB,51.3789141,-2.3807476
28,Stanley Road West,BA2 3HU,51.3784777,-2.3781001
27,Stanley Road West,BA2 3HU,51.3785001,-2.3782191
4,Lower Oldfield Park,BA2 3HL,51.3777597,-2.3692639
2,Lower Oldfield Park,BA2 3HL,51.3778317,-2.3691646
6,Lower Oldfield Park,BA2 3HL,51.3776941,-2.3694059
8,Lower Oldfield Park,BA2 3HL,51.3776532,-2.3694628
"10,10A",Lower Oldfield Park,BA2 3HL,51.3775936,-2.3695549
12,Lower Oldfield Park,BA2 3HL,51.3775491,-2.3696212
14,Lower Oldfield Park,BA2 3HL,51.3774811,-2.3697145
16,Lower Oldfield Park,BA2 3HL,51.3774426,-2.3697925
18,Lower Oldfield Park,BA2 3HP,51.3773508,-2.3698995
20,Lower Oldfield Park,BA2 3HP,51.3773278,-2.3700006
22,Lower Oldfield Park,BA2 3HP,51.3773247,-2.3701404
26,Lower Oldfield Park,BA2 3HP,51.3773370,-2.3703050
28,Lower Oldfield Park,BA2 3HP,51.3773398,-2.3703975
30,Lower Oldfield Park,BA2 3HP,51.3773289,-2.3705842
32,Lower Oldfield Park,BA2 3HP,51.3773314,-2.3706888
34,Lower Oldfield Park,BA2 3HP,51.3773597,-2.3708381
36,Lower Oldfield Park,BA2 3HP,51.3773556,-2.3709228
38,Lower Oldfield Park,BA2 3HP,51.3773522,-2.3710017
42,Lower Oldfield Park,BA2 3HP,51.3773449,-2.3712206
40,Lower Oldfield Park,BA2 3HP,51.3773502,-2.3711247
44,Lower Oldfield Park,BA2 3HP,51.3773368,-2.3713403
42,Lower Oldfield Park,BA2 3HP,51.3773308,-2.3714328
48,Lower Oldfield Park,BA2 3HP,51.3772947,-2.3715618
50,Lower Oldfield Park,BA2 3HP,51.3772827,-2.3716527
54,Lower Oldfield Park,BA2 3HP,51.3772450,-2.3718702
52,Lower Oldfield Park,BA2 3HP,51.3772588,-2.3717882
56,Lower Oldfield Park,BA2 3HP,51.3772107,-2.3719988
58,Lower Oldfield Park,BA2 3HP,51.3771953,-2.3721098
62,Lower Oldfield Park,BA2 3HP,51.3773235,-2.3723828
60,Lower Oldfield Park,BA2 3HP,51.3772630,-2.3723135
66,Lower Oldfield Park,BA2 3HP,51.3774728,-2.3725487
64,Lower Oldfield Park,BA2 3HP,51.3774124,-2.3724840
70,Lower Oldfield Park,BA2 3HP,51.3776196,-2.3727425
68,Lower Oldfield Park,BA2 3HP,51.3775667,-2.3726686
74,Lower Oldfield Park,BA2 3HP,51.3777192,-2.3729962
72,Lower Oldfield Park,BA2 3HP,51.3776903,-2.3728868
76,Lower Oldfield Park,BA2 3HP,51.3777798,-2.3732181
78,Lower Oldfield Park,BA2 3HP,51.3777749,-2.3733239
80,Lower Oldfield Park,BA2 3HS,51.3777223,-2.3734553
82,Lower Oldfield Park,BA2 3HS,51.3777281,-2.3735724
86,Lower Oldfield Park,BA2 3HS,51.3777747,-2.3738132
84,Lower Oldfield Park,BA2 3HS,51.3777462,-2.3737233
88,Lower Oldfield Park,BA2 3HS,51.3778030,-2.3739265
90,Lower Oldfield Park,BA2 3HS,51.3778253,-2.3739991
94,Lower Oldfield Park,BA2 3HS,51.3778973,-2.3742253
92,Lower Oldfield Park,BA2 3HS,51.3778629,-2.3741194
98,Lower Oldfield Park,BA2 3HS,51.3779632,-2.3744492
96,Lower Oldfield Park,BA2 3HS,51.3779347,-2.3743566
102,Lower Oldfield Park,BA2 3HS,51.3780625,-2.3747542
100,Lower Oldfield Park,BA2 3HS,51.3780140,-2.3746026
106,Lower Oldfield Park,BA2 3HS,51.3781189,-2.3750261
104,Lower Oldfield Park,BA2 3HS,51.3780880,-2.3749336
110B,Lower Oldfield Park,BA2 3HS,51.3781812,-2.3752649
108B,Lower Oldfield Park,BA2 3HS,51.3781533,-2.3751632
114,Lower Oldfield Park,BA2 3HS,51.3782537,-2.3755138
112,Lower Oldfield Park,BA2 3HS,51.3782284,-2.3754071
118,Lower Oldfield Park,BA2 3HS,51.3783019,-2.3757604
116,Lower Oldfield Park,BA2 3HS,51.3782784,-2.3756609
122,Lower Oldfield Park,BA2 3HS,51.3783476,-2.3760366
120,Lower Oldfield Park,BA2 3HS,51.3783280,-2.3759128
128,Lower Oldfield Park,BA2 3HS,51.3785008,-2.3764205
126,Lower Oldfield Park,BA2 3HS,51.3784449,-2.3763310
124,Lower Oldfield Park,BA2 3HS,51.3783890,-2.3762415
27,Lymore Gardens,BA2 1AQ,51.3752957,-2.3844314
28,Lymore Gardens,BA2 1AQ,51.3752550,-2.3844387
29,Lymore Gardens,BA2 1AQ,51.3752143,-2.3844459
30,Lymore Gardens,BA2 1AQ,51.3751737,-2.3844532
31,Lymore Gardens,BA2 1AQ,51.3751330,-2.3844605
32,Lymore Gardens,BA2 1AQ,51.3750924,-2.3844678
33,Lymore Gardens,BA2 1AQ,51.3750517,-2.3844751
73,Ivy Avenue,BA2 1AW,51.3717010,-2.3862224
75,Ivy Avenue,BA2 1AW,51.3716350,-2.3862748
77,Ivy Avenue,BA2 1AW,51.3715500,-2.3863598
79,Ivy Avenue,BA2 1AW,51.3714975,-2.3864054
81,Ivy Avenue,BA2 1AW,51.3714028,-2.3864793
83,Ivy Avenue,BA2 1AW,51.3713504,-2.3865248
85,Ivy Avenue,BA2 1AW,51.3712757,-2.3865998
87,Ivy Avenue,BA2 1AW,51.3712295,-2.3866398
89,Ivy Avenue,BA2 1AW,51.3711212,-2.3867141
91,Ivy Avenue,BA2 1AW,51.3710751,-2.3867541
93,Ivy Avenue,BA2 1AW,51.3709483,-2.3868747
95,Ivy Avenue,BA2 1AW,51.3708925,-2.3869179
97,Ivy Avenue,BA2 1AW,51.3707708,-2.3868874
99,Ivy Avenue,BA2 1AW,51.3707150,-2.3869305
101,Ivy Avenue,BA2 1AW,51.3705787,-2.3868826
20,Westmoreland Street,BA2 3HE,51.3784440,-2.3709922
19,Westmoreland Street,BA2 3HE,51.3784979,-2.3709738
18,Westmoreland Street,BA2 3HE,51.3785415,-2.3709603
17,Westmoreland Street,BA2 3HE,51.3785836,-2.3709467
16,Westmoreland Street,BA2 3HE,51.3786221,-2.3709331
15,Westmoreland Street,BA2 3HE,51.3786670,-2.3709206
14,Westmoreland Street,BA2 3HE,51.3787065,-2.3709067
13,Westmoreland Street,BA2 3HE,51.3787487,-2.3708941
12,Westmoreland Street,BA2 3HE,51.3787913,-2.3708793
11,Westmoreland Street,BA2 3HE,51.3788365,-2.3708656
23,The Brow,BA2 1EA,51.3771508,-2.3920679
62,Dartmouth Avenue,BA2 1AT,51.3758711,-2.3843089
54,Dartmouth Avenue,BA2 1AT,51.3758899,-2.3839605
56,Dartmouth Avenue,BA2 1AT,51.3758880,-2.3840487
58,Dartmouth Avenue,BA2 1AT,51.3758860,-2.3841371
48,Dartmouth Avenue,BA2 1AT,51.3763255,-2.3840863
50,Dartmouth Avenue,BA2 1AT,51.3762659,-2.3841130
52,Dartmouth Avenue,BA2 1AT,51.3762062,-2.3841396
46,Dartmouth Avenue,BA2 1AT,51.3764322,-2.3843206
21,Inverness Road,BA2 3RX,51.3804370,-2.3847564
23,Inverness Road,BA2 3RX,51.3805112,-2.3849861
22,Inverness Road,BA2 3RX,51.3804892,-2.3849162
25,Inverness Road,BA2 3RX,51.3805973,-2.3851518
26,Inverness Road,BA2 3RX,51.3806183,-2.3852150
27,Inverness Road,BA2 3RX,51.3806393,-2.3852782
28,Inverness Road,BA2 3RX,51.3806604,-2.3853417
29,Inverness Road,BA2 3RX,51.3806862,-2.3854194
43,Inverness Road,BA2 3RX,51.3808504,-2.3859061
42,Inverness Road,BA2 3RX,51.3808302,-2.3858447
41,Inverness Road,BA2 3RX,51.3808100,-2.3857832
40,Inverness Road,BA2 3RX,51.3807899,-2.3857218
39,Inverness Road,BA2 3RX,51.3807697,-2.3856602
38,Inverness Road,BA2 3RX,51.3807496,-2.3855988
20,Inverness Road,BA2 3RX,51.3802770,-2.3849319
21A,Inverness Road,BA2 3RX,51.3802079,-2.3848886
38,King George's Road,BA2 1BJ,51.3786202,-2.3854974
39,King George's Road,BA2 1BJ,51.3786200,-2.3856065
44,King George's Road,BA2 1BJ,51.3784438,-2.3859942
42,King George's Road,BA2 1BJ,51.3784445,-2.3857793
43,King George's Road,BA2 1BJ,51.3784440,-2.3858865
41,King George's Road,BA2 1BJ,51.3784323,-2.3856435
40,King George's Road,BA2 1BJ,51.3784319,-2.3855369
146,High Street,BA2 1BZ,51.3799240,-2.3921355
37,Newbridge Road,BA1 3HE,51.3842257,-2.3885173
32,Ashley Avenue,BA1 3DS,51.3838107,-2.3884295
1,Lorne Road,BA2 3BY,51.3810393,-2.3749459
2,Lorne Road,BA2 3BY,51.3809753,-2.3750104
3,Lorne Road,BA2 3BY,51.3809133,-2.3750764
4,Lorne Road,BA2 3BY,51.3808637,-2.3751242
5,Lorne Road,BA2 3BY,51.3808228,-2.3751624
32-33,Lower Bristol Road,BA2 3EH,51.3816068,-2.3766901
31,Lower Bristol Road,BA2 3EH,51.3816015,-2.3766130
26-27,Lower Bristol Road,BA2 3EH,51.3816434,-2.3761790
16,St Peter's Terrace,BA2 3BT,51.3812928,-2.3758831
10,St Peter's Terrace,BA2 3BU,51.3812368,-2.3753916
11,St Peter's Terrace,BA2 3BT,51.3812425,-2.3754643
12,St Peter's Terrace,BA2 3BT,51.3812482,-2.3755371
12A,St Peter's Terrace,BA2 3BT,51.3812538,-2.3756065
14,St Peter's Terrace,BA2 3BT,51.3812585,-2.3756667
17,St Peter's Terrace,BA2 3BT,51.3812995,-2.3759634
18,St Peter's Terrace,BA2 3BT,51.3812846,-2.3760977
69,Lorne Road,BA2 3BZ,51.3808978,-2.3759752
70,Lorne Road,BA2 3BZ,51.3808898,-2.3759116
71,Lorne Road,BA2 3BZ,51.3808828,-2.3758425
72,Lorne Road,BA2 3BZ,51.3808755,-2.3757751
73,Lorne Road,BA2 3BZ,51.3808680,-2.3757034
74,Lorne Road,BA2 3BZ,51.3808603,-2.3756321
75,Lorne Road,BA2 3BZ,51.3808529,-2.3755637
42,Lorne Road,BA2 3BZ,51.3799924,-2.3772323
43,Lorne Road,BA2 3BZ,51.3800330,-2.3771939
44,Lorne Road,BA2 3BZ,51.3800584,-2.3771456
45,Lorne Road,BA2 3BZ,51.3800940,-2.3771053
46,Lorne Road,BA2 3BZ,51.3801332,-2.3770646
47,Lorne Road,BA2 3BZ,51.3801614,-2.3770163
48,Lorne Road,BA2 3BZ,51.3801936,-2.3769712
49,Lorne Road,BA2 3BZ,51.3802348,-2.3769279
50,Lorne Road,BA2 3BZ,51.3802628,-2.3768820
51,Lorne Road,BA2 3BZ,51.3803034,-2.3768500
52,Lorne Road,BA2 3BZ,51.3803363,-2.3767942
53,Lorne Road,BA2 3BZ,51.3803705,-2.3767630
54,Lorne Road,BA2 3BZ,51.3804049,-2.3767156
55,Lorne Road,BA2 3BZ,51.3804319,-2.3766647
56,Lorne Road,BA2 3BZ,51.3804653,-2.3766210
57,Lorne Road,BA2 3BZ,51.3805064,-2.3765854
58,Lorne Road,BA2 3BZ,51.3805353,-2.3765372
59,Lorne Road,BA2 3BZ,51.3805636,-2.3764944
60,Lorne Road,BA2 3BZ,51.3806010,-2.3764553
61,Lorne Road,BA2 3BZ,51.3806353,-2.3764158
62,Lorne Road,BA2 3BZ,51.3806689,-2.3763735
63,Lorne Road,BA2 3BZ,51.3806956,-2.3763255
64,Lorne Road,BA2 3BZ,51.3807318,-2.3762824
65,Lorne Road,BA2 3BZ,51.3807674,-2.3762448
66,Lorne Road,BA2 3BZ,51.3807914,-2.3761993
67,Lorne Road,BA2 3BZ,51.3808223,-2.3761601
68,Lorne Road,BA2 3BZ,51.3808595,-2.3761071
41,Lorne Road,BA2 3BZ,51.3798771,-2.3772213
40,Lorne Road,BA2 3BZ,51.3798396,-2.3771687
39,Lorne Road,BA2 3BY,51.3798119,-2.3771112
38,Lorne Road,BA2 3BY,51.3797915,-2.3770170
8,Lorne Road,BA2 3BY,51.3806528,-2.3755133
9,Lorne Road,BA2 3BY,51.3806365,-2.3756171
10,Lorne Road,BA2 3BY,51.3806528,-2.3756709
11,Lorne Road,BA2 3BY,51.3806736,-2.3757233
12,Lorne Road,BA2 3BY,51.3806768,-2.3758117
13,Lorne Road,BA2 3BY,51.3806309,-2.3758376
14,Lorne Road,BA2 3BY,51.3806053,-2.3758731
15,Lorne Road,BA2 3BY,51.3805566,-2.3759091
16,Lorne Road,BA2 3BY,51.3805300,-2.3759433
17,Lorne Road,BA2 3BY,51.3804920,-2.3759979
18,Lorne Road,BA2 3BY,51.3804627,-2.3760338
19,Lorne Road,BA2 3BY,51.3804173,-2.3760771
20,Lorne Road,BA2 3BY,51.3804021,-2.3761322
21,Lorne Road,BA2 3BY,51.3803523,-2.3761705
22,Lorne Road,BA2 3BY,51.3803197,-2.3762048
23,Lorne Road,BA2 3BY,51.3802912,-2.3762711
24,Lorne Road,BA2 3BY,51.3802635,-2.3763059
25,Lorne Road,BA2 3BY,51.3802194,-2.3763476
26,Lorne Road,BA2 3BY,51.3801866,-2.3763711
27,Lorne Road,BA2 3BY,51.3801409,-2.3764199
28,Lorne Road,BA2 3BY,51.3801148,-2.3764572
29,Lorne Road,BA2 3BY,51.3800802,-2.3765225
30,Lorne Road,BA2 3BY,51.3800499,-2.3765505
31,Lorne Road,BA2 3BY,51.3800154,-2.3766165
32,Lorne Road,BA2 3BY,51.3799726,-2.3766308
33,Lorne Road,BA2 3BY,51.3799391,-2.3766606
34,Lorne Road,BA2 3BY,51.3799082,-2.3767159
35,Lorne Road,BA2 3BY,51.3798703,-2.3767788
36,Lorne Road,BA2 3BY,51.3798496,-2.3768248
37,Lorne Road,BA2 3BY,51.3798156,-2.3768888
45,Brougham Hayes,BA2 3QU,51.3795564,-2.3759672
44,Brougham Hayes,BA2 3QU,51.3795908,-2.3758780
43,Brougham Hayes,BA2 3QU,51.3796354,-2.3758538
42,Brougham Hayes,BA2 3QU,51.3796714,-2.3758161
41,Brougham Hayes,BA2 3QU,51.3797089,-2.3757842
40,Brougham Hayes,BA2 3QU,51.3797355,-2.3757306
39,Brougham Hayes,BA2 3QU,51.3797769,-2.3757082
38,Brougham Hayes,BA2 3QU,51.3798205,-2.3757011
37,Brougham Hayes,BA2 3QU,51.3798448,-2.3756351
36,Brougham Hayes,BA2 3QU,51.3798788,-2.3756050
35,Brougham Hayes,BA2 3QU,51.3799213,-2.3755897
34,Brougham Hayes,BA2 3QU,51.3799572,-2.3755681
33,Brougham Hayes,BA2 3QU,51.3799830,-2.3755244
32,Brougham Hayes,BA2 3QU,51.3800186,-2.3754913
31,Brougham Hayes,BA2 3QU,51.3800509,-2.3754720
30,Brougham Hayes,BA2 3QU,51.3800883,-2.3754443
29,Brougham Hayes,BA2 3QU,51.3801188,-2.3754121
28,Brougham Hayes,BA2 3QU,51.3801600,-2.3754038
27,Brougham Hayes,BA2 3QU,51.3801827,-2.3753459
26,Brougham Hayes,BA2 3QU,51.3802148,-2.3753176
25,Brougham Hayes,BA2 3QU,51.3802516,-2.3752989
24,Brougham Hayes,BA2 3QU,51.3802953,-2.3752969
23,Brougham Hayes,BA2 3QU,51.3803206,-2.3752399
22,Brougham Hayes,BA2 3QU,51.3803443,-2.3751760
21,Brougham Hayes,BA2 3QU,51.3803910,-2.3751767
20,Brougham Hayes,BA2 3QU,51.3804203,-2.3751249
19,Brougham Hayes,BA2 3QU,51.3804589,-2.3751190
18,Brougham Hayes,BA2 3QU,51.3804895,-2.3750913
2,Victoria Road,BA2 3QY,51.3791810,-2.3764249
3,Victoria Road,BA2 3QY,51.3791849,-2.3765070
4,Victoria Road,BA2 3QY,51.3791806,-2.3765858
5,Victoria Road,BA2 3QY,51.3791862,-2.3766548
6,Victoria Road,BA2 3QY,51.3791995,-2.3767419
7,Victoria Road,BA2 3QY,51.3792163,-2.3768033
8,Victoria Road,BA2 3QY,51.3792199,-2.3768833
9,Victoria Road,BA2 3QY,51.3792267,-2.3769538
10,Victoria Road,BA2 3QY,51.3792383,-2.3770247
11,Victoria Road,BA2 3QY,51.3792457,-2.3770917
12,Victoria Road,BA2 3QY,51.3792541,-2.3771742
13,Victoria Road,BA2 3QY,51.3795265,-2.3770318
14,Victoria Road,BA2 3QY,51.3795159,-2.3769510
15,Victoria Road,BA2 3QY,51.3795070,-2.3768800
16,Victoria Road,BA2 3QY,51.3795003,-2.3768030
17,Victoria Road,BA2 3QY,51.3794873,-2.3767330
18,Victoria Road,BA2 3QY,51.3794680,-2.3766628
19,Victoria Road,BA2 3QY,51.3794605,-2.3765925
20,Victoria Road,BA2 3QY,51.3794575,-2.3765127
21,Victoria Road,BA2 3QY,51.3794513,-2.3764433
22,Victoria Road,BA2 3QY,51.3794382,-2.3763684
23,Victoria Road,BA2 3QY,51.3794322,-2.3763056
24,Victoria Road,BA2 3QY,51.3794191,-2.3762225
25,Victoria Road,BA2 3QY,51.3794117,-2.3761535
19,Victoria Terrace,BA2 3QZ,51.3797463,-2.3772105
20,Victoria Terrace,BA2 3QZ,51.3797089,-2.3772301
21,Victoria Terrace,BA2 3QZ,51.3796681,-2.3772643
22,Victoria Terrace,BA2 3QZ,51.3796343,-2.3772840
23,Victoria Terrace,BA2 3QZ,51.3795897,-2.3773157
24,Victoria Terrace,BA2 3QZ,51.3795482,-2.3773370
25,Victoria Terrace,BA2 3QZ,51.3795050,-2.3773602
26,Victoria Terrace,BA2 3QZ,51.3793791,-2.3774297
27,Victoria Terrace,BA2 3QZ,51.3793419,-2.3774739
28,Victoria Terrace,BA2 3QZ,51.3793009,-2.3774999
29,Victoria Terrace,BA2 3QZ,51.3792618,-2.3775261
30,Victoria Terrace,BA2 3QZ,51.3792209,-2.3775541
31,Victoria Terrace,BA2 3QZ,51.3791812,-2.3775772
32,Victoria Terrace,BA2 3QZ,51.3791392,-2.3775911
33,Victoria Terrace,BA2 3QZ,51.3791067,-2.3776299
1,Victoria Terrace,BA2 3QZ,51.3791561,-2.3780541
2,Victoria Terrace,BA2 3QZ,51.3791989,-2.3780260
3,Victoria Terrace,BA2 3QZ,51.3792416,-2.3779979
4,Victoria Terrace,BA2 3QZ,51.3792844,-2.3779698
5,Victoria Terrace,BA2 3QZ,51.3793271,-2.3779417
6,Victoria Terrace,BA2 3QZ,51.3793699,-2.3779137
7,Victoria Terrace,BA2 3QZ,51.3794127,-2.3778856
8,Victoria Terrace,BA2 3QZ,51.3794555,-2.3778575
9,Victoria Terrace,BA2 3QZ,51.3794982,-2.3778295
10,Victoria Terrace,BA2 3QZ,51.3795410,-2.3778013
11,Victoria Terrace,BA2 3QZ,51.3795837,-2.3777734
12,Victoria Terrace,BA2 3QZ,51.3796265,-2.3777453
13,Victoria Terrace,BA2 3QZ,51.3796693,-2.3777172
14,Victoria Terrace,BA2 3QZ,51.3797120,-2.3776891
15,Victoria Terrace,BA2 3QZ,51.3797548,-2.3776610
16,Victoria Terrace,BA2 3QZ,51.3797975,-2.3776330
17,Victoria Terrace,BA2 3QZ,51.3798403,-2.3776049
14,Caledonian Road,BA2 3RA,51.3800158,-2.3779057
13,Caledonian Road,BA2 3RA,51.3800578,-2.3778850
12,Caledonian Road,BA2 3RA,51.3800997,-2.3778650
11,Caledonian Road,BA2 3RA,51.3801408,-2.3778443
10,Caledonian Road,BA2 3RA,51.3801844,-2.3778223
9,Caledonian Road,BA2 3RA,51.3802258,-2.3778002
8,Caledonian Road,BA2 3RA,51.3802632,-2.3777837
15,Caledonian Road,BA2 3RA,51.3799614,-2.3779356
16,Caledonian Road,BA2 3RA,51.3799624,-2.3780533
17,Dorset Street,BA2 3RA,51.3799939,-2.3781720
18,Dorset Street,BA2 3RA,51.3799524,-2.3781991
19,Dorset Street,BA2 3RA,51.3799109,-2.3782265
20,Dorset Street,BA2 3RA,51.3798694,-2.3782536
21,Dorset Street,BA2 3RA,51.3798279,-2.3782808
22,Dorset Street,BA2 3RA,51.3797864,-2.3783082
23,Dorset Street,BA2 3RA,51.3797449,-2.3783353
24,Dorset Street,BA2 3RA,51.3797034,-2.3783627
25,Dorset Street,BA2 3RA,51.3796619,-2.3783899
26,Dorset Street,BA2 3RA,51.3796204,-2.3784172
27,Dorset Street,BA2 3RA,51.3795789,-2.3784444
28,Dorset Street,BA2 3RA,51.3795374,-2.3784716
29,Dorset Street,BA2 3RA,51.3794959,-2.3784989
30,Dorset Street,BA2 3RA,51.3794544,-2.3785261
31,Dorset Street,BA2 3RA,51.3794129,-2.3785533
32,Dorset Street,BA2 3RA,51.3793714,-2.3785806
33,Dorset Street,BA2 3RA,51.3793299,-2.3786078
34,Dorset Street,BA2 3RA,51.3792884,-2.3786351
35,Dorset Street,BA2 3RA,51.3792469,-2.3786623
3,Dorset Close,BA2 3RF,51.3807960,-2.3782930
36,Dorset Street,BA2 3RA,51.3792583,-2.3790186
37,Dorset Street,BA2 3RA,51.3793035,-2.3789882
38,Dorset Street,BA2 3RA,51.3793411,-2.3789599
39,Dorset Street,BA2 3RA,51.3793813,-2.3789342
40,Dorset Street,BA2 3RA,51.3794216,-2.3789057
41,Dorset Street,BA2 3RA,51.3794601,-2.3788788
42,Dorset Street,BA2 3RA,51.3794996,-2.3788538
43,Dorset Street,BA2 3RA,51.3795394,-2.3788288
44,Dorset Street,BA2 3RA,51.3795787,-2.3788004
45,Dorset Street,BA2 3RA,51.3796194,-2.3787727
46,Dorset Street,BA2 3RA,51.3796600,-2.3787450
47,Dorset Street,BA2 3RA,51.3797007,-2.3787160
48,Dorset Street,BA2 3RA,51.3797405,-2.3786883
49,Dorset Street,BA2 3RA,51.3797807,-2.3786620
50,Dorset Street,BA2 3RA,51.3798226,-2.3786336
51,Dorset Street,BA2 3RA,51.3798608,-2.3786065
52,Dorset Street,BA2 3RA,51.3799015,-2.3785789
53,Dorset Street,BA2 3RA,51.3799413,-2.3785519
54,Dorset Street,BA2 3RA,51.3799803,-2.3785275
55,Dorset Street,BA2 3RA,51.3800184,-2.3785005
56,Dorset Street,BA2 3RA,51.3800607,-2.3784748
19,Stuart Place,BA2 3RQ,51.3793224,-2.3793802
18,Stuart Place,BA2 3RQ,51.3793641,-2.3793679
17,Stuart Place,BA2 3RQ,51.3794059,-2.3793555
16,Stuart Place,BA2 3RQ,51.3794477,-2.3793432
15,Stuart Place,BA2 3RQ,51.3794894,-2.3793309
14,Stuart Place,BA2 3RQ,51.3795312,-2.3793187
13,Stuart Place,BA2 3RQ,51.3795730,-2.3793064
12,Stuart Place,BA2 3RQ,51.3796147,-2.3792941
11,Stuart Place,BA2 3RQ,51.3796565,-2.3792817
10,Stuart Place,BA2 3RQ,51.3796983,-2.3792694
9,Stuart Place,BA2 3RQ,51.3797400,-2.3792571
8,Stuart Place,BA2 3RQ,51.3797818,-2.3792449
7,Stuart Place,BA2 3RQ,51.3798236,-2.3792326
6,Stuart Place,BA2 3RQ,51.3798653,-2.3792203
5,Stuart Place,BA2 3RQ,51.3799071,-2.3792079
4,Stuart Place,BA2 3RQ,51.3799489,-2.3791956
3,Stuart Place,BA2 3RQ,51.3799906,-2.3791833
2,Stuart Place,BA2 3RQ,51.3800324,-2.3791711
21,Caledonian Road,BA2 3RB,51.3801427,-2.3787356
22,Caledonian Road,BA2 3RB,51.3801498,-2.3788091
23,Caledonian Road,BA2 3RB,51.3801568,-2.3788824
24,Caledonian Road,BA2 3RB,51.3801639,-2.3789559
25,Caledonian Road,BA2 3RB,51.3801710,-2.3790292
26,Caledonian Road,BA2 3RB,51.3801781,-2.3791026
27,Caledonian Road,BA2 3RB,51.3801852,-2.3791760
2,Ayr Street,BA2 3RJ,51.3796332,-2.3795598
3,Ayr Street,BA2 3RJ,51.3796400,-2.3796292
4,Ayr Street,BA2 3RJ,51.3796468,-2.3796986
5,Ayr Street,BA2 3RJ,51.3796536,-2.3797680
6,Ayr Street,BA2 3RJ,51.3796603,-2.3798374
7,Ayr Street,BA2 3RJ,51.3796672,-2.3799069
8,Ayr Street,BA2 3RJ,51.3796739,-2.3799763
9,Ayr Street,BA2 3RJ,51.3796808,-2.3800457
10,Ayr Street,BA2 3RJ,51.3796875,-2.3801151
11,Ayr Street,BA2 3RJ,51.3796943,-2.3801846
12,Ayr Street,BA2 3RJ,51.3797012,-2.3802540
13,Ayr Street,BA2 3RJ,51.3797079,-2.3803234
14,Ayr Street,BA2 3RJ,51.3797148,-2.3803928
24,Stuart Place,BA2 3RQ,51.3795272,-2.3795960
23,Stuart Place,BA2 3RQ,51.3794757,-2.3796079
22,Stuart Place,BA2 3RQ,51.3794321,-2.3796192
21,Stuart Place,BA2 3RQ,51.3793898,-2.3796298
20,Stuart Place,BA2 3RQ,51.3793484,-2.3796397
10,Highland Terrace,BA2 3RN,51.3794267,-2.3798459
9,Highland Terrace,BA2 3RN,51.3794338,-2.3799103
8,Highland Terrace,BA2 3RN,51.3794400,-2.3799739
7,Highland Terrace,BA2 3RN,51.3794465,-2.3800382
6,Highland Terrace,BA2 3RN,51.3794523,-2.3801011
5,Highland Terrace,BA2 3RN,51.3794590,-2.3801655
4,Highland Terrace,BA2 3RN,51.3794656,-2.3802345
3,Highland Terrace,BA2 3RN,51.3794723,-2.3803035
2,Highland Terrace,BA2 3RN,51.3794788,-2.3803725
1,Highland Terrace,BA2 3RN,51.3794855,-2.3804416
35,Caledonian Road,BA2 3RD,51.3802723,-2.3802246
34,Caledonian Road,BA2 3RD,51.3802641,-2.3801561
33,Caledonian Road,BA2 3RD,51.3802550,-2.3800798
32,Caledonian Road,BA2 3RD,51.3802457,-2.3800038
31,Caledonian Road,BA2 3RD,51.3802364,-2.3799276
30,Caledonian Road,BA2 3RD,51.3802271,-2.3798514
29,Caledonian Road,BA2 3RD,51.3802179,-2.3797752
27,South View Road,BA2 3RW,51.3809727,-2.3797232
26,South View Road,BA2 3RW,51.3809753,-2.3797792
25,South View Road,BA2 3RW,51.3809780,-2.3798352
24,South View Road,BA2 3RW,51.3809806,-2.3798911
23,South View Road,BA2 3RW,51.3809832,-2.3799471
22,South View Road,BA2 3RW,51.3809858,-2.3800031
21,South View Road,BA2 3RW,51.3809884,-2.3800590
20,South View Road,BA2 3RW,51.3809910,-2.3801150
19,South View Road,BA2 3RW,51.3809937,-2.3801710
18,South View Road,BA2 3RW,51.3809963,-2.3802270
17,South View Road,BA2 3RW,51.3809989,-2.3802829
16,South View Road,BA2 3RW,51.3810015,-2.3803389
15,South View Road,BA2 3RW,51.3810041,-2.3803949
14,South View Road,BA2 3RW,51.3810068,-2.3804508
13,South View Road,BA2 3RW,51.3810094,-2.3805068
12,South View Road,BA2 3RW,51.3810120,-2.3805628
11,South View Road,BA2 3RW,51.3810146,-2.3806188
10,South View Road,BA2 3RW,51.3810172,-2.3806747
9,South View Road,BA2 3RW,51.3810198,-2.3807307
8,South View Road,BA2 3RW,51.3810225,-2.3807867
7,South View Road,BA2 3RW,51.3810251,-2.3808426
6,South View Road,BA2 3RW,51.3810277,-2.3808986
5,South View Road,BA2 3RW,51.3810303,-2.3809546
4,South View Road,BA2 3RW,51.3810329,-2.3810106
3,South View Road,BA2 3RW,51.3810356,-2.3810665
2,South View Road,BA2 3RW,51.3810382,-2.3811225
1,South View Road,BA2 3RW,51.3810408,-2.3811785
28,South View Road,BA2 3RW,51.3807987,-2.3798325
29,South View Road,BA2 3RW,51.3808047,-2.3798950
30,South View Road,BA2 3RW,51.3808077,-2.3799540
31,South View Road,BA2 3RW,51.3808099,-2.3800078
32,South View Road,BA2 3RW,51.3808130,-2.3800668
33,South View Road,BA2 3RW,51.3808161,-2.3801219
34,South View Road,BA2 3RW,51.3808204,-2.3801803
35,South View Road,BA2 3RW,51.3808248,-2.3802373
36,South View Road,BA2 3RW,51.3808294,-2.3802911
37,South View Road,BA2 3RW,51.3808326,-2.3803502
38,South View Road,BA2 3RW,51.3808360,-2.3804099
39,South View Road,BA2 3RW,51.3808425,-2.3804770
40,South View Road,BA2 3RW,51.3808459,-2.3805429
41,South View Road,BA2 3RW,51.3808490,-2.3806134
42,South View Road,BA2 3RW,51.3808537,-2.3806791
43,South View Road,BA2 3RW,51.3808560,-2.3807436
44,South View Road,BA2 3RW,51.3808595,-2.3808054
45,South View Road,BA2 3RW,51.3808621,-2.3808644
46,South View Road,BA2 3RW,51.3808648,-2.3809245
49,South View Road,BA2 3RW,51.3808740,-2.3811312
59,Caledonian Road,BA2 3RD,51.3804908,-2.3806337
60,Caledonian Road,BA2 3RD,51.3804861,-2.3805702
61,Caledonian Road,BA2 3RD,51.3804815,-2.3805068
62,Caledonian Road,BA2 3RD,51.3804769,-2.3804434
63,Caledonian Road,BA2 3RD,51.3804722,-2.3803799
64,Caledonian Road,BA2 3RD,51.3804676,-2.3803165
65,Caledonian Road,BA2 3RD,51.3804630,-2.3802531
25,Brook Road,BA2 3RR,51.3805390,-2.3813264
51,Caledonian Road,BA2 3RD,51.3805435,-2.3812397
52,Caledonian Road,BA2 3RD,51.3805409,-2.3811644
53,Caledonian Road,BA2 3RD,51.3805375,-2.3810877
54,Caledonian Road,BA2 3RD,51.3805332,-2.3810103
55,Caledonian Road,BA2 3RD,51.3805302,-2.3809370
56,Caledonian Road,BA2 3RD,51.3805259,-2.3808657
57,Caledonian Road,BA2 3RD,51.3805220,-2.3807963
58,Caledonian Road,BA2 3RD,51.3805207,-2.3807304
24,Brook Road,BA2 3RR,51.3806128,-2.3813543
23,Brook Road,BA2 3RR,51.3806703,-2.3813536
36,Caledonian Road,BA2 3RD,51.3803012,-2.3803143
37,Caledonian Road,BA2 3RD,51.3803053,-2.3803855
38,Caledonian Road,BA2 3RD,51.3803094,-2.3804567
39,Caledonian Road,BA2 3RD,51.3803133,-2.3805280
40,Caledonian Road,BA2 3RD,51.3803173,-2.3805992
41,Caledonian Road,BA2 3RD,51.3803213,-2.3806705
42,Caledonian Road,BA2 3RD,51.3803252,-2.3807417
43,Caledonian Road,BA2 3RD,51.3803293,-2.3808130
44,Caledonian Road,BA2 3RD,51.3803332,-2.3808843
45,Caledonian Road,BA2 3RD,51.3803372,-2.3809555
46,Caledonian Road,BA2 3RD,51.3803411,-2.3810268
47,Caledonian Road,BA2 3RD,51.3803451,-2.3810980
48,Caledonian Road,BA2 3RD,51.3803491,-2.3811693
49,Caledonian Road,BA2 3RD,51.3803530,-2.3812405
50,Caledonian Road,BA2 3RD,51.3803571,-2.3813118
28,Brook Road,BA2 3RS,51.3800267,-2.3810601
29,Brook Road,BA2 3RS,51.3799830,-2.3810480
30,Brook Road,BA2 3RS,51.3799415,-2.3810359
31,Brook Road,BA2 3RS,51.3798990,-2.3810250
32,Brook Road,BA2 3RS,51.3798558,-2.3810142
33,Brook Road,BA2 3RS,51.3798121,-2.3810033
34,Brook Road,BA2 3RS,51.3797685,-2.3809924
35,Brook Road,BA2 3RS,51.3797273,-2.3809783
36,Brook Road,BA2 3RS,51.3796858,-2.3809660
37,Brook Road,BA2 3RS,51.3796397,-2.3809539
38,Brook Road,BA2 3RS,51.3795989,-2.3809436
39,Brook Road,BA2 3RS,51.3795557,-2.3809308
40,Brook Road,BA2 3RS,51.3795099,-2.3809166
71,Brook Road,BA2 3RR,51.3809140,-2.3816092
72,Brook Road,BA2 3RR,51.3809847,-2.3816210
73,Brook Road,BA2 3RR,51.3810500,-2.3816396
74,Brook Road,BA2 3RR,51.3811026,-2.3816587
75,Brook Road,BA2 3RR,51.3811599,-2.3816793
75A,Brook Road,BA2 3RR,51.3812196,-2.3816979
65,Brook Road,BA2 3RR,51.3805003,-2.3816134
66,Brook Road,BA2 3RR,51.3805564,-2.3816070
67,Brook Road,BA2 3RR,51.3806271,-2.3815986
68,Brook Road,BA2 3RR,51.3807003,-2.3815950
64,Brook Road,BA2 3RR,51.3804543,-2.3816068
41,Brook Road,BA2 3RS,51.3795145,-2.3812865
42,Brook Road,BA2 3RS,51.3795569,-2.3812977
43,Brook Road,BA2 3RS,51.3795980,-2.3813096
44,Brook Road,BA2 3RS,51.3796384,-2.3813222
45,Brook Road,BA2 3RS,51.3796791,-2.3813347
46,Brook Road,BA2 3RS,51.3797187,-2.3813473
47,Brook Road,BA2 3RS,51.3797589,-2.3813605
48,Brook Road,BA2 3RS,51.3797997,-2.3813730
49,Brook Road,BA2 3RS,51.3798410,-2.3813863
50,Brook Road,BA2 3RS,51.3798804,-2.3814001
51,Brook Road,BA2 3RS,51.3799224,-2.3814127
52,Brook Road,BA2 3RS,51.3799623,-2.3814286
53,Brook Road,BA2 3RS,51.3800002,-2.3814452
54,Brook Road,BA2 3RS,51.3800405,-2.3814604
55,Brook Road,BA2 3RS,51.3800829,-2.3814776
56,Brook Road,BA2 3RS,51.3801233,-2.3814969
57,Brook Road,BA2 3RS,51.3801636,-2.3815128
58,Brook Road,BA2 3RS,51.3802056,-2.3815301
59,Brook Road,BA2 3RS,51.3802480,-2.3815486
60,Brook Road,BA2 3RS,51.3802888,-2.3815645
61,Brook Road,BA2 3RS,51.3803291,-2.3815804
33,Brock Street,BA1 2LN,51.3862437,-2.3650602
32,Brock Street,BA1 2LN,51.3862591,-2.3651474
31,Brock Street,BA1 2LN,51.3862746,-2.3652346
3,Miles's Buildings,BA1 2QS,51.3849606,-2.3628190
36,Brock Street,BA1 2LN,51.3861899,-2.3647613
2,Gay Street,BA1 2PH,51.3844574,-2.3636636
3,Gay Street,BA1 2PH,51.3845166,-2.3636887
1,Lansdown Road,BA1 5EE,51.3890755,-2.3621045
2a,Rivers Street Place,BA1 2RS,51.3878036,-2.3640767
34,Belvedere,BA1 5HR,51.3881780,-2.3612567
26a,Belvedere,BA1 5HR,51.3887602,-2.3617563
27,Belvedere,BA1 5HR,51.3887132,-2.3617380
25,Belvedere,BA1 5ED,51.3887862,-2.3622130
24,Belvedere,BA1 5ED,51.3887148,-2.3621793
23,Belvedere,BA1 5ED,51.3886566,-2.3621391
22,Belvedere,BA1 5ED,51.3885991,-2.3621000
21,Belvedere,BA1 5ED,51.3885440,-2.3620620
20,Belvedere,BA1 5ED,51.3884914,-2.3620281
19,Belvedere,BA1 5ED,51.3884403,-2.3619983
18,Belvedere,BA1 5ED,51.3883890,-2.3619664
17,Belvedere,BA1 5ED,51.3883367,-2.3619337
16,Belvedere,BA1 5ED,51.3882890,-2.3619024
15,Belvedere,BA1 5ED,51.3882399,-2.3618637
14,Belvedere,BA1 5ED,51.3881950,-2.3618305
13,Belvedere,BA1 5ED,51.3881437,-2.3618063
12,Belvedere,BA1 5ED,51.3880963,-2.3617836
11,Belvedere,BA1 5ED,51.3880519,-2.3617670
10,Belvedere,BA1 5ED,51.3880073,-2.3617490
9,Belvedere,BA1 5ED,51.3879629,-2.3617319
8,Belvedere,BA1 5ED,51.3879142,-2.3617086
7,Belvedere,BA1 5ED,51.3878754,-2.3616909
6,Belvedere,BA1 5ED,51.3878302,-2.3616867
5,Belvedere,BA1 5ED,51.3877839,-2.3616835
3,Montpelier,BA1 2RF,51.3874994,-2.3619915
1,Belgrave Crescent,BA1 5JU,51.3933370,-2.3563234
7a,Anglo Terrace,BA1 5NH,51.3905668,-2.3560454
94,Sydney Place,BA2 6NE,51.3848613,-2.3501642
95,Sydney Place,BA2 6NE,51.3848823,-2.3502818
56,Bay Tree Road,BA1 6NE,51.3985564,-2.3516833
24,Eastbourne Avenue,BA1 6EN,51.3953233,-2.3521006
23,Eastbourne Avenue,BA1 6EN,51.3953035,-2.3521726
48,Eastbourne Avenue,BA1 6EN,51.3957920,-2.3503654
27,Arundel Road,BA1 6EF,51.3940154,-2.3549278
28,Arundel Road,BA1 6EF,51.3939688,-2.3549698
29,Arundel Road,BA1 6EF,51.3939251,-2.3550165
30,Arundel Road,BA1 6EF,51.3938755,-2.3550515
31,Arundel Road,BA1 6EF,51.3938304,-2.3550936
32,Arundel Road,BA1 6EF,51.3937867,-2.3551379
33,Arundel Road,BA1 6EF,51.3937429,-2.3551800
34,Arundel Road,BA1 6EF,51.3936949,-2.3552157
35,Arundel Road,BA1 6EF,51.3936499,-2.3552500
1,Saint Saviour's Road,BA1 6RW,51.3958882,-2.3456535
2,Saint Saviour's Road,BA1 6RW,51.3959391,-2.3456124
3,Saint Saviour's Road,BA1 6RW,51.3959939,-2.3455694
4,Saint Saviour's Road,BA1 6RW,51.3960442,-2.3455282
5,Saint Saviour's Road,BA1 6RW,51.3960918,-2.3454887
6,Saint Saviour's Road,BA1 6RW,51.3961428,-2.3454480
3-4,London Road,BA1 6QA,51.3940625,-2.3471370
2,London Road,BA1 6QA,51.3939795,-2.3471890
27-29,Henrietta Street,BA2 6LR,51.3846385,-2.3565542
18,London Road,BA1 6AD,51.3911284,-2.3538942
17,London Road,BA1 6AD,51.3910994,-2.3539697
16,London Road,BA1 6AD,51.3910704,-2.3540430
15,London Road,BA1 6AD,51.3910431,-2.3541137
14,London Road,BA1 6AD,51.3910139,-2.3541828
13,London Road,BA1 6AD,51.3909870,-2.3542517
12,London Road,BA1 6AD,51.3909632,-2.3543142
11,London Road,BA1 6AD,51.3909392,-2.3543743
10,London Road,BA1 6AD,51.3909148,-2.3544391
7a-9,London Road,BA1 6AD,51.3908591,-2.3545532
7,London Road,BA1 6AD,51.3908225,-2.3547030
6,London Road,BA1 6AD,51.3907916,-2.3547843
5,London Road,BA1 6AD,51.3907612,-2.3548649
4,London Road,BA1 6AD,51.3907340,-2.3549352
3,London Road,BA1 6AD,51.3907102,-2.3549964
2,London Road,BA1 6AD,51.3906888,-2.3550527
4,London Road,BA1 5DA,51.3895802,-2.3582544
3,London Road,BA1 5DA,51.3895498,-2.3583080
2,London Road,BA1 5DA,51.3895206,-2.3583580
11,London Street,BA1 5BU,51.3889963,-2.3587355
19,Brock Street,BA1 2LW,51.3865127,-2.3665071
18,Crescent Lane,BA1 2PX,51.3883011,-2.3682631
51,Newbridge Hill,BA1 3PR,51.3865536,-2.3908005
8,Saint Saviour's Road,BA1 6RW,51.3962389,-2.3453911
30,Wells Road,BA2 3AP,51.3773174,-2.3637213
12,High Street,BA2 1BZ,51.3801774,-2.3921674
108,High Street,BA2 1DB,51.3800640,-2.3931635
117,High Street,BA2 1DA,51.3796918,-2.3940632
58,Mulberry Way,BA2 5BU,51.3613352,-2.3541017
56,Mulberry Way,BA2 5BU,51.3613000,-2.3540856
66,Mulberry Way,BA2 5BU,51.3615461,-2.3541996
68,Mulberry Way,BA2 5BU,51.3616116,-2.3542305
70,Mulberry Way,BA2 5BU,51.3616466,-2.3542466
64,Mulberry Way,BA2 5BU,51.3615111,-2.3541835
62,Mulberry Way,BA2 5BU,51.3614415,-2.3541514
60,Mulberry Way,BA2 5BU,51.3614063,-2.3541352
71,Mulberry Way,BA2 5BQ,51.3615645,-2.3546704
69,Mulberry Way,BA2 5BQ,51.3615294,-2.3546543
67,Mulberry Way,BA2 5BQ,51.3614641,-2.3546235
65,Mulberry Way,BA2 5BQ,51.3614290,-2.3546073
59,Mulberry Way,BA2 5BQ,51.3612531,-2.3545255
57,Mulberry Way,BA2 5BQ,51.3612179,-2.3545094
63,Mulberry Way,BA2 5BQ,51.3613594,-2.3545752
61,Mulberry Way,BA2 5BQ,51.3613243,-2.3545590
47,Mulberry Way,BA2 5BQ,51.3608649,-2.3543318
35,Mulberry Way,BA2 5BQ,51.3605667,-2.3541937
49,Mulberry Way,BA2 5BQ,51.3609378,-2.3543660
53,Mulberry Way,BA2 5BQ,51.3610076,-2.3543982
55,Mulberry Way,BA2 5BQ,51.3610425,-2.3544143
41,Mulberry Way,BA2 5BQ,51.3607181,-2.3542635
51,Mulberry Way,BA2 5BQ,51.3609727,-2.3543821
37,Mulberry Way,BA2 5BQ,51.3606016,-2.3542097
45,Mulberry Way,BA2 5BQ,51.3608299,-2.3543157
39,Mulberry Way,BA2 5BQ,51.3606365,-2.3542257
43,Mulberry Way,BA2 5BQ,51.3607532,-2.3542796
48,Mulberry Way,BA2 5BU,51.3610191,-2.3539489
52,Mulberry Way,BA2 5BU,51.3610889,-2.3539811
54,Mulberry Way,BA2 5BU,51.3611238,-2.3539972
50,Mulberry Way,BA2 5BU,51.3610540,-2.3539650
3-4,Northumberland Place,BA1 5AR,51.3822897,-2.3595859
12-13,The Corridor,BA1 5AP,51.3822162,-2.3600337
14-16,The Corridor,BA1 5AP,51.3822516,-2.3598923
6-7,Northumberland Place,BA1 5AR,51.3822813,-2.3598079
2,Grove Street,BA2 6PJ,51.3834708,-2.3574795
1,Church Street,BA1 4BU,51.3962224,-2.3906729
14a,Chatham Row,BA1 5BS,51.3873783,-2.3591075
26,Broad street,BA1 5LW,51.3846283,-2.3603219
41-42,Saint James's Parade,BA1 1UQ,51.3796277,-2.3610885
43,Saint James's Parade,BA1 1UQ,51.3797100,-2.3611924
69-71,Lower Bristol Road,BA2 3BE,51.3793167,-2.3703673
8,Bartlett Street,BA1 2QZ,51.3854659,-2.3618352
8,Bartlett Street,BA1 2QZ,51.3853757,-2.3617915
114B,Mount Road,BA2 1NZ,51.3724359,-2.3958072
208,Whiteway Road,BA2 2RJ,51.3706670,-2.4008720
239,Englishcombe Lane,BA2 2ER,51.3665459,-2.3908411
3,Battle Walk,BA1 9AX,51.4057473,-2.3755558
6,Hayes Place,BA2 4QW,51.3745174,-2.3665098
73-74,Lower Bristol Road,BA2 3BG,51.3795096,-2.3707135
18-19,Stall Street,BA1 1QB,51.3798016,-2.3594007
1,New Orchard Street,BA1 1BY,51.3797967,-2.3590373
169,Newbridge Hill,BA1 3PX,51.3886365,-2.3980019
85,Penn Hill Road,BA1 3RT,51.3934201,-2.3987146
83,Penn Hill Road,BA1 3RT,51.3934894,-2.3985328
7,Duke Street,BA2 4AG,51.3803353,-2.3562273
Unit C,Avon Street,BA1 1UN,51.3808984,-2.3631461
6,Avon Street,BA1 1UN,51.3809081,-2.3627845
86-88,Holloway,BA2 4PX,51.3759590,-2.3642579
2,Shaftesbury Mews,BA2 3LU,51.3761279,-2.3775561
11,Lyncombe Hill,BA2 4PF,51.3763285,-2.3561612
13,Lyncombe Hill,BA2 4PF,51.3763080,-2.3561464
15,Lyncombe Hill,BA2 4PF,51.3762811,-2.3561398
2,Alton Place,BA2 4PR,51.3762827,-2.3594982
3,Alton Place,BA2 4PR,51.3762916,-2.3595728
4,Alton Place,BA2 4PR,51.3763001,-2.3596430
5,Alton Place,BA2 4PR,51.3763075,-2.3597110
6,Alton Place,BA2 4PR,51.3763162,-2.3597839
12,Calton Walk,BA2 4QQ,51.3760467,-2.3599267
60,Dartmouth Avenue,BA2 1AT,51.3758728,-2.3842217
33,Faulkland Road,BA2 3LS,51.3747582,-2.3794665
2,Kingsmead Street,BA1 2AA,51.3814604,-2.3636240
1,Kingsmead Street,BA1 2AA,51.3814221,-2.3634920
30,Westgate Building,BA1 1EF,51.3811385,-2.3623329
Unit 2,Avon Street,BA1 1UN,51.3807224,-2.3632741
1,James Street West,BA1 2AG,51.3813090,-2.3647551
5,Saint Saviour's Road,BA1 6RS,51.3969836,-2.3453421
1,Ringwood Road,BA2 3JN,51.3794534,-2.3846367
7,Junction Road,BA2 3LE,51.3762978,-2.3746176
8,Junction Road,BA2 3LE,51.3762527,-2.3746311
34,Faulkland Road,BA2 3LT,51.3745870,-2.3791007
73A,Ivy Avenue,BA2 1AW,51.3717496,-2.3861868
90,Third Avenue,BA2 3NZ,51.3742666,-2.3773634
52,Saint Kilda's Road,BA2 3QJ,51.3749631,-2.3798231
7-9,Melcombe Road,BA2 3LP,51.3742577,-2.3793438
48,King Edward Road,BA2 3PB,51.3746977,-2.3747263
20-23,Melcombe Road,BA2 3LP,51.3745507,-2.3798176
16-19,Melcombe Road,BA2 3LP,51.3744637,-2.3796773
28-29,Melcombe Road,BA2 3LP,51.3747387,-2.3798622
14-15,Melcombe Road,BA2 3LP,51.3745435,-2.3794864
11,Monksdale Road,BA2 2JF,51.3738740,-2.3782570
55,First Avenue,BA2 3NW,51.3744868,-2.3749891
39,Monksdale Road,BA2 3PE,51.3732392,-2.3784817
37,Monksdale Road,BA2 3PE,51.3732746,-2.3784422
35,Monksdale Road,BA2 3PE,51.3733076,-2.3784054
33,Monksdale Road,BA2 3PE,51.3733421,-2.3783672
30,Herbert Road,BA2 3PR,51.3757141,-2.3806620
35,Livingstone Road,BA2 3PH,51.3780944,-2.3774603
26,Oldfield Road,BA2 3NF,51.3751322,-2.3737828
49,Ivy Avenue,BA2 1AJ,51.3726911,-2.3854277
39,Newbridge Road,BA1 3HF,51.3842145,-2.3887411
"33A,34A",Moorland Road,BA2 3PN,51.3773259,-2.3785707
16,Livingstone Road,BA2 3PH,51.3776189,-2.3786873
82-83,Walcot Street,BA1 5BD,51.3859185,-2.3594571
66,Herbert Road,BA2 3PP,51.3768228,-2.3790907
67,Herbert Road,BA2 3PP,51.3768623,-2.3790508
68,Herbert Road,BA2 3PP,51.3769007,-2.3790140
5,London Road,BA1 5DA,51.3896096,-2.3582028
28A,Cynthia Road,BA2 3QQ,51.3758418,-2.3808486
6,Beckhampton Road,BA2 3LL,51.3761709,-2.3779468
"63,63A",Upper Oldfield Park,BA2 3LB,51.3774954,-2.3739787
81,Hillside Road,BA2 3PE,51.3729870,-2.3787677
80,Hillside Road,BA2 3PE,51.3729487,-2.3786818
79,Hillside Road,BA2 3PE,51.3729099,-2.3785956
78,Hillside Road,BA2 3PE,51.3728684,-2.3785092
62A,Hillside Road,BA2 3NX,51.3726860,-2.3765311
24,Inverness Road,BA2 3RX,51.3805325,-2.3850541
17,Oldfield Road,BA2 3NF,51.3748650,-2.3727476
9,Oldfield Lane,BA2 3NP,51.3736121,-2.3740357
23,Maple Gardens,BA2 3AG,51.3733518,-2.3736966
10,Bridge Road,BA2 1AA,51.3760485,-2.3822516
9,Bridge Road,BA2 1AA,51.3760081,-2.3822878
8,Bridge Road,BA2 1AA,51.3759693,-2.3823242
7,Bridge Road,BA2 1AA,51.3759299,-2.3823578
6,Bridge Road,BA2 1AA,51.3758912,-2.3823907
5,Bridge Road,BA2 1AA,51.3758500,-2.3824218
36,Cynthia Road,BA2 3QG,51.3764226,-2.3823666
1,Maybrick Road,BA2 3PT,51.3773666,-2.3796539
22,Maybrick Road,BA2 3PT,51.3765724,-2.3802593
44,Hiscocks Drive,BA2 3NU,51.3718330,-2.3739025
45,Hiscocks Drive,BA2 3NU,51.3717848,-2.3739085
48,South View Road,BA2 3RW,51.3808731,-2.3810553
47,South View Road,BA2 3RW,51.3808693,-2.3809908
62,Brook Road,BA2 3RS,51.3803702,-2.3815997
63,Brook Road,BA2 3RS,51.3804096,-2.3816172
27,Brook Road,BA2 3RS,51.3800648,-2.3810737
26,Brook Road,BA2 3RS,51.3801107,-2.3810855
"2,4",Durley Park,BA2 3NT,51.3728630,-2.3738373
1,Dorset Close,BA2 3RF,51.3809117,-2.3781684
57,Dorset Street,BA2 3RA,51.3801045,-2.3784418
9,St Peter's Terrace,BA2 3BT,51.3811874,-2.3753247
79,Lorne Road,BA2 3BZ,51.3811246,-2.3751703
78,Lorne Road,BA2 3BZ,51.3810860,-2.3752310
77,Lorne Road,BA2 3BZ,51.3810313,-2.3752629
76,Lorne Road,BA2 3BZ,51.3809525,-2.3753731
24,Lower Oldfield Park,BA2 3HP,51.3773256,-2.3702063
53,Upper Oldfield Park,BA2 3LB,51.3766522,-2.3740580
51,Upper Oldfield Park,BA2 3LB,51.3765715,-2.3740526
39,Durley Park,BA2 3NT,51.3724501,-2.3726187
41,Durley Park,BA2 3NT,51.3724592,-2.3725315
43,Durley Park,BA2 3NT,51.3724689,-2.3724410
45,Durley Park,BA2 3NT,51.3724634,-2.3723491
47,Durley Park,BA2 3NT,51.3724611,-2.3722562
49,Durley Park,BA2 3NT,51.3724565,-2.3721606
51,Durley Park,BA2 3NT,51.3724534,-2.3720641
53,Durley Park,BA2 3NT,51.3724610,-2.3719761
32,Monmouth Street,BA1 2AN,51.3821090,-2.3637105
33a,Monmouth Street,BA1 2AN,51.3820977,-2.3636818
15,Northumberland Place,BA1 5AR,51.3823757,-2.3598392
12,Northumberland Place,BA1 5AR,51.3823749,-2.3600633
16,Northumberland Place,BA1 5AR,51.3823770,-2.3597736
13,Northumberland Place,BA1 5AR,51.3823719,-2.3599692
14,Northumberland Place,BA1 5AR,51.3823741,-2.3599040
11,Cleveland Place,BA1 5DG,51.3898600,-2.3572296
69A,Stirtingale Road,BA2 2NG,51.3666056,-2.3854086
143,Wells Road,BA2 3AL,51.3753649,-2.3681700
7-9,Lower Borough Walls,BA1 1QR,51.3798128,-2.3610000
29,Southgate Street,BA1 1TP,51.3780402,-2.3600281
6,Saint Saviour's Road,BA1 6RS,51.3969297,-2.3453526
41,Wedgwood Road,BA2 1NT,51.3763271,-2.4041419
17,Monmouth Place,BA1 2AX,51.3834764,-2.3692724
22,Milk Street,BA1 1UT,51.3796165,-2.3641141
9a,York Street,BA1 1NH,51.3807829,-2.3593748
19-21,St. Lawrence Street,BA1 1AN,51.3781692,-2.3578545
6,London Road,BA1 5DF,51.3898105,-2.3577986
25,Broad street,BA1 5LW,51.3846647,-2.3603395
1,Claverton Street,BA2 4LE,51.3765452,-2.3560928
5-10,James Street West,BA1 2BX,51.3808293,-2.3645607
5,Abbeygate Street,BA1 1NP,51.3802718,-2.3587739
7,Julian Road,BA1 2RS,51.3877219,-2.3637420
93-95,Walcot Street,BA1 5BW,51.3872719,-2.3594198
1-9,Livingstone Road,BA2 3PQ,51.3778400,-2.3773164
1,Livingstone Road,BA2 3PQ,51.3778055,-2.3776617
1-4,New Bond Street,BA1 1BE,51.3829879,-2.3595935
35,Brock Street,BA1 2LN,51.3862128,-2.3648854
29,Brock Street,BA1 2LN,51.3863055,-2.3654091
27,Brock Street,BA1 2LN,51.3863365,-2.3655835
26,Brock Street,BA1 2LN,51.3863519,-2.3656708
32,Ashley Avenue,BA1 3DS,51.3838105,-2.3882874
4,London Road,BA1 6AE,51.3915357,-2.3524364
2a,Abbey Green,BA1 1NW,51.3805840,-2.3586368
56,Winchester Road,BA2 3LF,51.3769258,-2.3764910
6,Windsor Bridge Road,BA2 3AY,51.3831965,-2.3815777
1b,London Road,BA1 6PT,51.3934616,-2.3485159
68,Lower Bristol Road,BA2 3BE,51.3793516,-2.3701939
67,Lower Bristol Road,BA2 3BE,51.3793271,-2.3701202
65,Lower Bristol Road,BA2 3BE,51.3792807,-2.3699941
96,Holloway,BA2 4PY,51.3757306,-2.3654599
108,Walcot Street,BA1 5BG,51.3868336,-2.3592164
137,Penn Hill Road,BA1 3RU,51.3914976,-2.4016665
135,Penn Hill Road,BA1 3RU,51.3917757,-2.4014963
133,Penn Hill Road,BA1 3RU,51.3919023,-2.4014151
7,Meadow Gardens,BA1 3RY,51.3923204,-2.3997548
8,Meadow Gardens,BA1 3RY,51.3923166,-2.3996439
9,Meadow Gardens,BA1 3RY,51.3923130,-2.3995358
10,Meadow Gardens,BA1 3RY,51.3921250,-2.3997770
11,Meadow Gardens,BA1 3RY,51.3921204,-2.3996661
12,Meadow Gardens,BA1 3RY,51.3921158,-2.3995581
18,Meadow Gardens,BA1 3RY,51.3923886,-2.4001819
17,Meadow Gardens,BA1 3RY,51.3923842,-2.4000728
16,Meadow Gardens,BA1 3RY,51.3923798,-2.3999644
19,Meadow Gardens,BA1 3RY,51.3923931,-2.4002931
4,Meadow Gardens,BA1 3RY,51.3925129,-2.3997348
5,Meadow Gardens,BA1 3RY,51.3925083,-2.3996239
6,Meadow Gardens,BA1 3RY,51.3925036,-2.3995158
1,Meadow Gardens,BA1 3RY,51.3926831,-2.3997991
2,Meadow Gardens,BA1 3RY,51.3926795,-2.3996881
3,Meadow Gardens,BA1 3RY,51.3926757,-2.3995800
22,Meadow Gardens,BA1 3RY,51.3921534,-2.4005122
21,Meadow Gardens,BA1 3RY,51.3922227,-2.4005062
20,Meadow Gardens,BA1 3RY,51.3922901,-2.4005002
13,Meadow Gardens,BA1 3RY,51.3920787,-2.4001337
14,Meadow Gardens,BA1 3RY,51.3921480,-2.4001277
15,Meadow Gardens,BA1 3RY,51.3922154,-2.4001218
131,Penn Hill Road,BA1 3RU,51.3919986,-2.4013833
129,Penn Hill Road,BA1 3RU,51.3920676,-2.4013519
127,Penn Hill Road,BA1 3RU,51.3921571,-2.4012707
125,Penn Hill Road,BA1 3RU,51.3922206,-2.4012117
123,Penn Hill Road,BA1 3RU,51.3923181,-2.4011702
121,Penn Hill Road,BA1 3RU,51.3923688,-2.4010986
119,Penn Hill Road,BA1 3RU,51.3924471,-2.4010308
117,Penn Hill Road,BA1 3RU,51.3925093,-2.4009408
115,Penn Hill Road,BA1 3RU,51.3925987,-2.4008936
113,Penn Hill Road,BA1 3RU,51.3926503,-2.4008246
111,Penn Hill Road,BA1 3RU,51.3927149,-2.4007142
109,Penn Hill Road,BA1 3RU,51.3927557,-2.4006041
107,Penn Hill Road,BA1 3RU,51.3927823,-2.4004868
105,Penn Hill Road,BA1 3RU,51.3928539,-2.4003946
103,Penn Hill Road,BA1 3RU,51.3928918,-2.4002527
101,Penn Hill Road,BA1 3RU,51.3929437,-2.4001378
99,Penn Hill Road,BA1 3RT,51.3930413,-2.3998506
97,Penn Hill Road,BA1 3RT,51.3930683,-2.3997256
95,Penn Hill Road,BA1 3RT,51.3931224,-2.3995630
93,Penn Hill Road,BA1 3RT,51.3931713,-2.3993931
91,Penn Hill Road,BA1 3RT,51.3932260,-2.3991894
89,Penn Hill Road,BA1 3RT,51.3932830,-2.3990259
87,Penn Hill Road,BA1 3RT,51.3933399,-2.3988609
2,London Road,BA1 6PT,51.3932985,-2.3491365
1,Henry Street,BA1 1JS,51.3795846,-2.3582772
20,London Road,BA1 6AD,51.3911832,-2.3537439
19,London Road,BA1 6AD,51.3911566,-2.3538181
4,Duke Street,BA2 4AH,51.3803473,-2.3558170
4,Duke Street,BA2 4AH,51.3802722,-2.3558259
8,Duke Street,BA2 4AG,51.3803917,-2.3562256
6,Marlborough Lane,BA1 2NQ,51.3845119,-2.3710841
10,Devonshire Buildings,BA2 4RY,51.3693589,-2.3656032
1,Upper Bristol Road,BA1 2NA,51.3841360,-2.3711607
26,Belvedere,BA1 5HR,51.3887824,-2.3618417
06,Green Park Road,BA1 1BQ,51.3805370,-2.3658960
19a,Monmouth Place,BA1 2AY,51.3830471,-2.3660205
42,Third Avenue,BA2 3NZ,51.3756757,-2.3771013
18,Cynthia Road,BA2 3QH,51.3755250,-2.3808139
