House number,Street name,Postal code,Latitude,Longitude
29-31,English Street,CA3 8JX,54.8937866,-2.9350143
33,English Street,CA3 8JX,54.8935333,-2.9348924
43-49,Bank Street,CA3 8JU,54.8933539,-2.9348266
30,Lismore Street,CA1 2AH,54.8929398,-2.9232872
254,Kingstown Road,CA3 0BW,54.9237946,-2.9447705
56-58,Scotch Street,CA3 8PN,54.8953452,-2.9356884
69,Wigton Road,CA2 7AY,54.8909617,-2.9540275
11,Warwick Road,CA1 1DH,54.8928299,-2.9321621
51-53,English Street,CA3 8JY,54.8932639,-2.9346444
92,English Street,CA3 8NF,54.8927905,-2.9347856
1,Heads' Lane,CA3 8AQ,54.8934700,-2.9367572
4,English Street,CA3 8HZ,54.8944195,-2.9364734
28,Castle Street,CA3 8TP,54.8955056,-2.9397059
8-9,Paternoster Row,CA3 8TT,54.8953160,-2.9392485
110,Warwick Road,CA1 1JU,54.8942374,-2.9243060
109,Newtown Road,CA2 7JJ,54.8943006,-2.9589658
226,Blackwell Road,CA2 4RR,54.8746107,-2.9325198
264,Warwick Road,CA1 2BX,54.8942483,-2.9129661
123,Newlaithes Avenue,CA2 6PP,54.8789860,-2.9631791
17,Shadygrove Road,CA2 7LE,54.8901429,-2.9672215
1,Wood Street,CA1 2SF,54.8921065,-2.9027086
20-22,Scotch Street,CA3 8PX,54.8962231,-2.9357113
83,Blackwell Road,CA2 4AJ,54.8822090,-2.9280029
107,Lowther Street,CA3 8ED,54.8956196,-2.9339899
54,Scotland Road,CA3 9DB,54.9065610,-2.9369412
33b,Scotland Road,CA3 9HS,54.9053014,-2.9374892
66-68,Scotch Street,CA3 8PN,54.8950372,-2.9356260
50,Botchergate,CA1 1QS,54.8905844,-2.9305960
28,Blackwell Road,CA2 4EQ,54.8822380,-2.9284408
7,Central Avenue,CA1 3QB,54.8815029,-2.9018284
1,English Street,CA3 8JW,54.8945289,-2.9351629
29,Lowther Street,CA3 8EE,54.8931470,-2.9333505
11,Bank Street,CA3 8HG,54.8938324,-2.9346588
82,English Street,CA3 8HP,54.8930729,-2.9350595
21,Lowther Street,CA3 8ES,54.8929188,-2.9333056
66-68,Scotch Street,CA3 8PN,54.8950334,-2.9357500
19,Scotch Street,CA3 8PY,54.8961182,-2.9353319
29,Scotch Street,CA3 8PY,54.8959312,-2.9353261
24,Scotch Street,CA3 8PX,54.8960784,-2.9357075
42,Scotch Street,CA3 8PN,54.8956414,-2.9356961
2-4,Warwick Road,CA1 1QN,54.8924696,-2.9326640
91,London Road,CA1 2LG,54.8871001,-2.9227421
89,Blackwell Road,CA2 4EH,54.8818804,-2.9284703
229,Blackwell Road,CA2 4DN,54.8781559,-2.9320396
79,Blackwell Road,CA2 4AJ,54.8823209,-2.9279011
8,St Nicholas Street,CA1 2EE,54.8887449,-2.9270278
67A,English Street,CA3 8JZ,54.8928644,-2.9343640
6,Grapes Lane,CA3 8NX,54.8946629,-2.9343537
11A,Scotland Road,CA3 9HR,54.9041946,-2.9373570
57,Scotland Road,CA3 9HT,54.9063490,-2.9375555
18,Shady Grove Road,CA2 7LE,54.8899894,-2.9669387
12-16,Hutton Way,CA2 7TH,54.8882710,-2.9792550
6,Petteril Bank Road,CA1 3AH,54.8756501,-2.9085947
10-12,Petteril Bank Road,CA1 3AH,54.8755137,-2.9089026
14,Petteril Bank Road,CA1 3AH,54.8754669,-2.9090655
4-5,Fusehill Street,CA1 2ES,54.8913119,-2.9242160
51-53,English Street,CA3 8JY,54.8932299,-2.9347178
57,English Street,CA3 8JU,54.8931673,-2.9346714
74-76,English Street,CA3 8HP,54.8931804,-2.9351644
2-2a,Lowther Street,CA3 8ES,54.8926927,-2.9328428
8,Lowther Street,CA3 8DA,54.8930365,-2.9329035
10-16,Botchergate,CA1 1QS,54.8912209,-2.9319498
48,Botchergate,CA1 1QS,54.8906562,-2.9307515
30-34,Botchergate,CA1 1QS,54.8908703,-2.9311670
9,Botchergate,CA1 1QP,54.8916210,-2.9321424
11,Botchergate,CA1 1QP,54.8906646,-2.9301663
39,London Road,CA1 2JZ,54.8882618,-2.9251749
87,London Road,CA1 2LG,54.8871702,-2.9228641
13,Norfolk Street,CA2 5JQ,54.8856135,-2.9418044
193,Denton Street,CA2 5JP,54.8857075,-2.9407770
161,Denton Street,CA2 5HB,54.8858691,-2.9406972
116,Denton Street,CA2 5HB,54.8858499,-2.9410759
114,Denton Street,CA2 5HB,54.8859305,-2.9410409
110,Denton Street,CA2 5HB,54.8859936,-2.9409988
110a,Denton Street,CA2 5HB,54.8860635,-2.9409358
106,Denton Street,CA2 5HB,54.8861548,-2.9408447
139,Denton Street,CA2 5HB,54.8863321,-2.9404548
137,Denton Street,CA2 5EN,54.8864894,-2.9402875
136,Denton Street,CA2 5EN,54.8865488,-2.9402536
131,Denton Street,CA2 5EN,54.8866037,-2.9402217
94,Denton Street,CA2 5EN,54.8865836,-2.9406514
91,Denton Street,CA2 5EN,54.8866413,-2.9406140
62-66,Denton Street,CA2 5EH,54.8872311,-2.9402489
117,Denton Street,CA2 5EH,54.8871470,-2.9399237
113,Denton Street,CA2 5EH,54.8872592,-2.9398708
60,Denton Street,CA2 5EH,54.8873294,-2.9401798
107,Denton Street,CA2 5EH,54.8873591,-2.9398151
54,Denton Street,CA2 5EH,54.8874907,-2.9401093
52,Denton Street,CA2 5EG,54.8876498,-2.9399903
92,Denton Street,CA2 5EG,54.8877923,-2.9395741
89,Denton Street,CA2 5EG,54.8878974,-2.9395308
87,Denton Street,CA2 5EG,54.8879437,-2.9395040
53,Denton Street,CA2 5DY,54.8888553,-2.9388618
309,Blackwell Road,CA2 4RS,54.8745117,-2.9321148
226,Blackwell Road,CA2 4RR,54.8746227,-2.9324421
224,Blackwell Road,CA2 4RR,54.8747107,-2.9324367
313,Blackwell Road,CA2 4RS,54.8744264,-2.9321530
5,Ridley Road,CA2 4LB,54.8782762,-2.9262584
7,Scalegate Road,CA2 4LA,54.8782314,-2.9264071
14,Scalegate Road,CA2 4LA,54.8787059,-2.9267468
95,blackwell Road,CA2 4EH,54.8817699,-2.9285392
93,Blackwell Road,CA2 4EH,54.8818284,-2.9284905
28,Blackwell Road,CA2 4EQ,54.8820552,-2.9285799
87,Blackwell Road,CA2 4EH,54.8819406,-2.9283400
85,Blackwell Road,CA2 4AJ,54.8821675,-2.9280717
81,Blackwell Road,CA2 4AJ,54.8822640,-2.9279604
75-77,Blackwell Road,CA2 4AJ,54.8824054,-2.9278161
73a,Blackwell Road,CA2 4AJ,54.8824624,-2.9277542
11,Cecil Street,CA1 1NL,54.8925614,-2.9303184
9,Cecil Street,CA1 1NL,54.8926070,-2.9303530
7,Cecil Street,CA1 1NL,54.8926596,-2.9303896
5,Cecil Street,CA1 1NL,54.8927117,-2.9304189
3,Cecil Street,CA1 1DH,54.8927708,-2.9304563
1,Cecil Street,CA1 1NL,54.8928530,-2.9304999
52,Warwick Road,CA1 1DR,54.8929690,-2.9305743
54,Warwick Road,CA1 1DR,54.8930219,-2.9304256
62,Warwick Road,CA1 1DR,54.8930986,-2.9300505
64,Warwick Road,CA1 1DR,54.8931217,-2.9299674
68,Warwick Road,CA1 1DR,54.8931680,-2.9298064
29,Warwick Road,CA1 1DH,54.8929737,-2.9316458
25,Warwick Road,CA1 1DH,54.8929375,-2.9317881
23,Warwick Road,CA1 1DH,54.8929181,-2.9318583
19,Warwick Road,CA1 1DH,54.8928966,-2.9319202
17,Warwick Road,CA1 1DH,54.8928790,-2.9319873
15,Warwick Road,CA1 1DH,54.8928591,-2.9320707
7-9,Warwick Road,CA1 1DH,54.8927785,-2.9324040
5,Warwick Road,CA1 1DH,54.8927411,-2.9325341
20-34,Warwick Road,CA1 1DN,54.8925877,-2.9321720
42,Earl Street,CA1 1DN,54.8927781,-2.9313786
98-104,English Street,CA3 8ND,54.8923536,-2.9344461
112-114,English Street,CA3 8ND,54.8921623,-2.9340974
9,Devonshire Street,CA3 8LG,54.8930989,-2.9335336
18-22,Devonshire Street,CA3 8LP,54.8928814,-2.9334577
18-24,English Street,CA3 8HX,54.8942703,-2.9360793
35-37,Fisher Street,CA3 8RF,54.8949001,-2.9361537
4,Devonshire Street,CA3 8LP,54.8927229,-2.9341022
12,Devonshire Street,CA3 8LP,54.8928083,-2.9337550
16,Devonshire Street,CA3 8LP,54.8928452,-2.9336048
5,Devonshire Street,CA3 8LG,54.8931275,-2.9334247
3,Devonshire Street,CA3 8LG,54.8930496,-2.9337210
1,Devonshire Street,CA3 8LG,54.8929663,-2.9340382
9B,Lowther Street,CA3 8ES,54.8926261,-2.9331963
14-16,Lowther Arcade,CA3 8LX,54.8927121,-2.9332080
17,Lowther Street,CA3 8ES,54.8927609,-2.9332266
4,Lowther Street,CA3 8DA,54.8927389,-2.9328717
6A,Lowther Street,CA3 8DA,54.8928114,-2.9328857
12,Lowther Street,CA3 8DA,54.8933728,-2.9329815
16-20,Lowther Street,CA3 8DA,54.8934788,-2.9329978
24,Lowther Street,CA3 8DA,54.8936225,-2.9330399
26,Lowther Street,CA3 8DA,54.8937461,-2.9330609
31,Lowther Street,CA3 8EJ,54.8932895,-2.9333971
35,Lowther Street,CA3 8EJ,54.8933848,-2.9335162
37,Lowther Street,CA3 8EL,54.8934842,-2.9335419
39,Lowther Street,CA3 8EP,54.8935957,-2.9335606
41,Lowther Street,CA3 8EJ,54.8937165,-2.9334905
28-32,Bank Street,CA3 8EU,54.8937686,-2.9335036
30,Lowther Street,CA3 8DH,54.8940898,-2.9331531
34,Lowther Street,CA3 8DH,54.8942192,-2.9331849
36,Lowther Street,CA3 8DH,54.8943025,-2.9331983
48,Lowther Street,CA3 8DP,54.8947930,-2.9333163
52,Lowther Street,CA3 8DP,54.8948655,-2.9333351
66,Lowther Street,CA3 8DP,54.8952650,-2.9334182
Unit 21,The Lanes Shopping Centre,CA3 8NX,54.8960020,-2.9340128
103,Lowther Street,CA3 8ED,54.8955509,-2.9339729
97-99,Lowther Street,CA3 8ED,54.8954373,-2.9339449
77,Lowther Street,CA3 8EF,54.8947393,-2.9337617
51,Lowther Street,CA3 8EQ,54.8942963,-2.9336261
39,Bank Street,CA3 8HJ,54.8939245,-2.9339441
27-31,Bank Street,CA3 8HJ,54.8938924,-2.9341936
21,Bank Street,CA3 8HJ,54.8938751,-2.9343277
5,Bank Street,CA3 8HG,54.8938187,-2.9347652
14,Bank Street,CA3 8EU,54.8936494,-2.9342793
10-14,Bank Street,CA3 8EU,54.8936735,-2.9341227
16,Bank Street,CA3 8HE,54.8937031,-2.9339295
26,Bank Street,CA3 8EU,54.8937339,-2.9337295
58-60,English Street,CA3 8HS,54.8934274,-2.9354053
62-64,English Street,CA3 8HS,54.8933954,-2.9353741
68,English Street,CA3 8HP,54.8933399,-2.9353199
90,English Street,CA3 8NF,54.8929595,-2.9349490
43-49,English Street,CA3 8JU,54.8934163,-2.9346808
15,English Street,CA3 8JW,54.8941599,-2.9351966
9,English Street,CA3 8JW,54.8942206,-2.9352130
1,English Street,CA3 8JW,54.8943753,-2.9348829
72,Scotch Street,CA3 8PN,54.8948007,-2.9355944
70,Scotch Street,CA3 8PN,54.8949514,-2.9355871
27,Scotch Street,CA3 8PY,54.8960186,-2.9353288
37,Scotch Street,CA3 8PY,54.8956927,-2.9352844
39,Scotch Street,CA3 8PT,54.8956181,-2.9352717
41,Scotch Street,CA3 8PT,54.8955570,-2.9352614
43,Scotch Street,CA3 8PT,54.8954753,-2.9352475
45,Scotch Street,CA3 8PT,54.8953961,-2.9352341
49A,Scotch Street,CA3 8NT,54.8952084,-2.9352394
55,Scotch Street,CA3 8PD,54.8947891,-2.9351922
57,Scotch Street,CA3 8JF,54.8947254,-2.9351851
59,Scotch Street,CA3 8PD,54.8946581,-2.9351775
13,Globe Lane,CA3 8NX,54.8953514,-2.9343575
12,Globe Lane,CA3 8EJ,54.8952638,-2.9344812
2-4,English Street,CA3 8HX,54.8944689,-2.9366504
50-54,Castle Street,CA3 8JA,54.8945977,-2.9369863
3,Green Market,CA3 8JE,54.8948143,-2.9365754
1,Green Market,CA3 8JE,54.8947680,-2.9367134
77,Castle Street,CA3 8SL,54.8948039,-2.9368329
39,Castle Street,CA3 8SY,54.8952377,-2.9382195
31,Castle Street,CA3 8SY,54.8953457,-2.9385360
29,Castle Street,CA3 8SY,54.8953688,-2.9386031
27,Castle Street,CA3 8SY,54.8953997,-2.9386674
23-25,Castle Street,CA3 8SY,54.8954411,-2.9387988
21,Castle Street,CA3 8SY,54.8954727,-2.9389614
17-19,Castle Street,CA3 8SY,54.8955592,-2.9392297
13,Castle Street,CA3 8SY,54.8957462,-2.9396220
32,Castle Street,CA3 8TP,54.8954631,-2.9396032
34,Castle Street,CA3 8TP,54.8954267,-2.9395154
36,Castle Street,CA3 8TP,54.8953854,-2.9394157
6,Paternoster Row,CA3 8TT,54.8951313,-2.9395732
4-5,Paternoster Row,CA3 8TT,54.8950425,-2.9397521
3,Paternoster Row,CA3 8TT,54.8949677,-2.9399147
2,Paternoster Row,CA3 8TT,54.8949022,-2.9400408
1,Abbey Street,CA3 8TX,54.8955457,-2.9420272
10-16,Abbey Street,CA3 8TX,54.8952081,-2.9418022
2-4,Abbey Street,CA3 8TX,54.8953746,-2.9422738
16,Fisher Street,CA3 8RN,54.8962559,-2.9386832
26,Fisher Street,CA3 8RY,54.8956545,-2.9375329
5,Carlyle's Court,CA3 8RY,54.8955111,-2.9373106
34,Fisher Street,CA3 8RH,54.8953923,-2.9371262
1,Carlyle's Court,CA3 8RY,54.8952137,-2.9374323
1,Carlyle's Court,CA3 8RY,54.8953320,-2.9373618
3,Market Street,CA3 8QJ,54.8962697,-2.9371458
15-17,West Tower Street,CA3 8QT,54.8965552,-2.9376135
2,West Tower Street,CA3 8QT,54.8967466,-2.9371421
4,West Tower Street,CA3 8QT,54.8968901,-2.9375334
3,Lonsdale Street,CA1 1BJ,54.8940872,-2.9329579
7,Lonsdale Street,CA1 1BJ,54.8941248,-2.9326007
21,Lonsdale Street,CA1 1BJ,54.8942241,-2.9314729
32,Lonsdale Street,CA1 1DH,54.8939937,-2.9312967
30,Lonsdale Street,CA1 1DB,54.8939884,-2.9313744
26-32,Lonsdale Street,CA1 1DB,54.8939776,-2.9315332
24,Lonsdale Street,CA1 1DB,54.8939657,-2.9317066
22,Lonsdale Street,CA1 1DB,54.8939609,-2.9317770
18,Lonsdale Street,CA1 1DB,54.8939563,-2.9318451
12-16,Lonsdale Street,CA1 1DB,54.8939434,-2.9320333
4-10,Lonsdale Street,CA1 1DB,54.8939306,-2.9322214
2,Lonsdale Street,CA1 1DB,54.8939197,-2.9323810
74,Warwick Road,CA1 1DU,54.8933273,-2.9290770
Unit 7,Englishgate Plaza,CA1 1QS,54.8910633,-2.9299592
18,Abbey Street,CA3 8TX,54.8951804,-2.9417278
1,Market Street,CA3 8QJ,54.8963917,-2.9370945
5-6,Green Market,CA3 8JE,54.8949131,-2.9363791
1,The Crescent,CA1 1QN,54.8923433,-2.9324183
44,Victoria Place,CA1 1EX,54.8955879,-2.9303536
5-6,Old Post Office Court,CA3 8LE,54.8932372,-2.9342283
75,English Street,CA3 8LU,54.8925913,-2.9341833
20-34,Warwick Road,CA1 1AB,54.8925599,-2.9322875
127,Denton Street,CA2 5EN,54.8866662,-2.9401801
21a,English Street,CA3 8JW,54.8940951,-2.9351791
7,Paternoster Row,CA3 8TT,54.8952269,-2.9393919
17-19,English Street,CA3 8JW,54.8941289,-2.9351882
7,St Albans Row,CA3 8JF,54.8947628,-2.9359437
70,Botchergate,CA1 1QL,54.8903435,-2.9300270
3,Thomson Street,CA1 2LW,54.8870760,-2.9217627
1,Cecil Street,CA1 1NL,54.8928694,-2.9304407
12,Edward Street,CA1 2JE,54.8895541,-2.9247045
49,Newtown Road,CA2 7JA,54.8940946,-2.9558468
6,Warwick Road,CA1 1DN,54.8925117,-2.9324884
1,Cumwhinton Road,CA1 3LA,54.8767000,-2.9051000
42,Victoria Place,CA1 1EX,54.8955772,-2.9304607
8,Millcroft,CA3 0HU,54.9106837,-2.9197033
6,Wavell Drive,CA1 2ST,54.8929958,-2.8944809
2,The Crescent,CA1 1QN,54.8923144,-2.9323769
16,St Albans Row,CA3 8JF,54.8949062,-2.9359525
1,Central Avenue,CA1 3QB,54.8817725,-2.9025127
70-78,Lowther Street,CA3 8DP,54.8956264,-2.9333286
68,Lowther Street,CA3 8DP,54.8953671,-2.9333454
42,English Street,CA3 8HS,54.8935290,-2.9359583
2B,Park House Road,CA3 0JR,54.9273379,-2.9477232
42,Lowther Street,CA3 8DH,54.8944586,-2.9331088
Unit 1,London Road,CA1 2EA,54.8860823,-2.9219910
3,James Street,CA2 5AP,54.8887591,-2.9348092
34,Central Avenue,CA1 3QB,54.8818419,-2.9015286
1,Cumwhinton Road,CA1 3LA,54.8766897,-2.9050353
55-59,Warwick Road,CA1 1EE,54.8934245,-2.9299789
12,Chapel Street,CA1 1JA,54.8957343,-2.9324369
26-40,English Street,CA3 8HU,54.8938840,-2.9362744
2,Lancaster Street,CA1 1TF,54.8882407,-2.9295387
1,Merchant's Drive,CA3 0JW,54.9298741,-2.9556201
14,Fisher Street,CA3 8RN,54.8962460,-2.9389715
5-10,Lowther Arcade,CA3 8LX,54.8926909,-2.9335669
81-85,English Street,CA3 8LU,54.8923549,-2.9337868
77,English Street,CA3 8LU,54.8925078,-2.9340119
491,Warwick Road,CA1 2SB,54.8957311,-2.8971799
9,Grearshill Road,CA3 0ET,54.9253899,-2.9472658
64,Millbrook Road,CA3 0EU,54.9253723,-2.9509875
88,Kingstown Broadway,CA3 0HA,54.9254922,-2.9536056
1a,Wavell Drive,CA1 2ST,54.8926913,-2.8951582
5a,Wavell Drive,CA1 2ST,54.8925959,-2.8955183
1b,Wavell Drive,CA1 2ST,54.8928566,-2.8939408
4,Montgomery Way,CA1 2RW,54.8925466,-2.8934591
1a,Wavell Drive,CA1 2ST,54.8929313,-2.8937930
50,Kingstown Road,CA3 0AD,54.9149535,-2.9407904
325,Kingstown Road,CA3 0BJ,54.9259926,-2.9461788
19,Church Street,CA2 5TJ,54.8942480,-2.9470331
10,Church Street,CA2 5TF,54.8945765,-2.9473840
64,Dalston Road,CA2 5NW,54.8887769,-2.9490352
101,Moorhouse Road,CA2 7QJ,54.8958777,-2.9809147
53,Church Street,CA3 9DS,54.9053411,-2.9349374
23,Scotland Road,CA3 9HS,54.9050398,-2.9375513
32,Scotland Road,CA3 9DG,54.9052892,-2.9369871
53,Scotland Road,CA3 9HT,54.9061767,-2.9375060
234,Kingstown Road,CA3 0DE,54.9230991,-2.9444233
51,Parkside,CA3 9SF,54.9102036,-2.9482199
1A,Kingmoor Road,CA3 9PS,54.9074050,-2.9526433
39-43,Shady Grove Road,CA2 7LD,54.8911172,-2.9671024
48,Shaddongate,CA2 5UB,54.8929545,-2.9458292
72,Denton Street,CA2 5EN,54.8868984,-2.9407768
10,St Nicholas Bridge,CA2 4BA,54.8856718,-2.9243755
1,Eastern Way,CA1 3QZ,54.8792977,-2.9092665
41-43,Boundary Road,CA2 4HH,54.8811314,-2.9276833
264,London Road,CA1 2QS,54.8796497,-2.9110172
121,Edgehill Road,CA1 3SB,54.8821018,-2.8906959
38,Victoria Road,CA1 2SJ,54.8920911,-2.9032025
264,Warwick Road,CA1 2BX,54.8942956,-2.9129505
18-20,Orton Road,CA2 7EZ,54.8880219,-2.9623921
36,Lamb Street,CA2 4NF,54.8717542,-2.9219877
2,Currock Street,CA2 5AG,54.8880762,-2.9340402
117,Botchergate,CA1 1RD,54.8902859,-2.9284747
15,Collier Lane,CA1 1QY,54.8908400,-2.9317205
5,Palmer Road,CA2 7NE,54.8971063,-2.9832249
7,Palmer Road,CA2 7NE,54.8972279,-2.9829614
9,Palmer Road,CA2 7NE,54.8973153,-2.9827240
11,Palmer Road,CA2 7NE,54.8974168,-2.9824863
13,Palmer Road,CA2 7NE,54.8975140,-2.9822241
15,Palmer Road,CA2 7NE,54.8976466,-2.9819748
17,Palmer Road,CA2 7NE,54.8977498,-2.9816977
19,Palmer Road,CA2 7NE,54.8978317,-2.9813857
21,Palmer Road,CA2 7NE,54.8979363,-2.9811504
23,Palmer Road,CA2 7NE,54.8980459,-2.9809024
25,Palmer Road,CA2 7NE,54.8981432,-2.9806397
27,Palmer Road,CA2 7NE,54.8982328,-2.9803837
2,Millrace Road,CA2 5RS,54.8984476,-2.9537762
17,Sewell Road,CA2 4RS,54.8761466,-2.9305755
108,Welsh Road,CA1 3AY,54.8739629,-2.9036880
106,Welsh Road,CA1 3AY,54.8740298,-2.9037875
104,Welsh Road,CA1 3AY,54.8740993,-2.9038898
102,Welsh Road,CA1 3AY,54.8741619,-2.9039832
110,Welsh Road,CA1 3AY,54.8738886,-2.9036006
112,Welsh Road,CA1 3AY,54.8738471,-2.9035360
94,Welsh Road,CA1 3AY,54.8743816,-2.9043237
96,Welsh Road,CA1 3AY,54.8743401,-2.9042578
98,Welsh Road,CA1 3AY,54.8742727,-2.9041571
90,Welsh Road,CA1 3AY,54.8744491,-2.9045326
92,Welsh Road,CA1 3AY,54.8744635,-2.9044486
3,Hayton Road,CA1 3AX,54.8743407,-2.9047394
1,Hayton Road,CA1 3AX,54.8743795,-2.9046744
11,Hayton Road,CA1 3AX,54.8740808,-2.9051525
9,Hayton Road,CA1 3AX,54.8741462,-2.9050559
5,Hayton Road,CA1 3AX,54.8742766,-2.9048601
7,Hayton Road,CA1 3AX,54.8742134,-2.9049546
31,Hayton Road,CA1 3AX,54.8734669,-2.9059901
29,Hayton Road,CA1 3AX,54.8735360,-2.9058903
25,Hayton Road,CA1 3AX,54.8736662,-2.9057037
27,Hayton Road,CA1 3AX,54.8736040,-2.9057914
15,Hayton Road,CA1 3AX,54.8739703,-2.9052868
13,Hayton Road,CA1 3AX,54.8740124,-2.9052281
19,Hayton Road,CA1 3AX,54.8738569,-2.9054463
17,Hayton Road,CA1 3AX,54.8738985,-2.9053883
23,Hayton Road,CA1 3AX,54.8737426,-2.9055954
21,Hayton Road,CA1 3AX,54.8737886,-2.9055285
26,Hayton Road,CA1 3AX,54.8736023,-2.9063551
24,Hayton Road,CA1 3AX,54.8736712,-2.9062602
22,Hayton Road,CA1 3AX,54.8737410,-2.9061654
20,Hayton Road,CA1 3AX,54.8738067,-2.9060775
8,Hayton Road,CA1 3AX,54.8744470,-2.9051815
6,Hayton Road,CA1 3AX,54.8745148,-2.9050638
4,Hayton Road,CA1 3AX,54.8745806,-2.9049520
2,Hayton Road,CA1 3AX,54.8746428,-2.9048469
8,Haig Road,CA1 3AS,54.8752886,-2.9063787
6,Haig Road,CA1 3AS,54.8753281,-2.9063118
2,Haig Road,CA1 3AS,54.8754182,-2.9061477
4,Haig Road,CA1 3AS,54.8753806,-2.9062106
10,Haig Road,CA1 3AS,54.8752310,-2.9064921
12,Haig Road,CA1 3AS,54.8751922,-2.9065573
14,Haig Road,CA1 3AS,54.8751435,-2.9066370
16,Haig Road,CA1 3AS,54.8751040,-2.9067019
9,Haig Road,CA1 3AS,54.8749739,-2.9063519
11,Haig Road,CA1 3AS,54.8749298,-2.9064267
40,Welsh Road,CA1 3AR,54.8756054,-2.9066088
38,Welsh Road,CA1 3AR,54.8755685,-2.9066757
36,Welsh Road,CA1 3AR,54.8755145,-2.9067761
34,Welsh Road,CA1 3AR,54.8754792,-2.9068401
14,Welsh Road,CA1 3AR,54.8757002,-2.9070824
16,Welsh Road,CA1 3AR,54.8756619,-2.9071478
10,Welsh Road,CA1 3AR,54.8757914,-2.9069198
12,Welsh Road,CA1 3AR,54.8757593,-2.9069790
7,Haig Road,CA1 3AS,54.8750861,-2.9061725
5,Haig Road,CA1 3AS,54.8751195,-2.9061101
31,Lightfoot Drive,CA1 3BN,54.8749626,-2.9077667
29,Lightfoot Drive,CA1 3BN,54.8749973,-2.9077056
27,Lightfoot Drive,CA1 3BN,54.8750474,-2.9076113
25,Lightfoot Drive,CA1 3BN,54.8750791,-2.9075562
35,Lightfoot Drive,CA1 3BN,54.8748809,-2.9079173
33,Lightfoot Drive,CA1 3BN,54.8749118,-2.9078586
39,Lightfoot Drive,CA1 3BN,54.8747995,-2.9080712
37,Lightfoot Drive,CA1 3BN,54.8748314,-2.9080118
77,Lightfoot Drive,CA1 3BP,54.8738329,-2.9067153
79,Lightfoot Drive,CA1 3BP,54.8738024,-2.9067820
57,Lightfoot Drive,CA1 3BP,54.8740470,-2.9071833
59,Lightfoot Drive,CA1 3BP,54.8740903,-2.9071163
61,Lightfoot Drive,CA1 3BP,54.8741395,-2.9070284
63,Lightfoot Drive,CA1 3BP,54.8741763,-2.9069559
65,Lightfoot Drive,CA1 3BP,54.8741697,-2.9067498
67,Lightfoot Drive,CA1 3BP,54.8741300,-2.9066893
69,Lightfoot Drive,CA1 3BP,54.8740736,-2.9066019
71,Lightfoot Drive,CA1 3BP,54.8740371,-2.9065405
73,Lightfoot Drive,CA1 3BP,54.8739228,-2.9065443
75,Lightfoot Drive,CA1 3BP,54.8738841,-2.9066143
14,Lightfoot Drive,CA1 3BP,54.8738251,-2.9076140
16,Lightfoot Drive,CA1 3BP,54.8737782,-2.9075523
18,Lightfoot Drive,CA1 3BP,54.8737151,-2.9074726
20,Lightfoot Drive,CA1 3BP,54.8736708,-2.9074145
22,Lightfoot Drive,CA1 3BP,54.8736110,-2.9073393
24,Lightfoot Drive,CA1 3BP,54.8735663,-2.9072819
26,Lightfoot Drive,CA1 3BP,54.8735028,-2.9072058
28,Lightfoot Drive,CA1 3BP,54.8734570,-2.9071445
81,Lightfoot Drive,CA1 3BP,54.8736492,-2.9068384
83,Lightfoot Drive,CA1 3BP,54.8736105,-2.9067868
12,Lightfoot Drive,CA1 3BP,54.8738899,-2.9076935
10,Lightfoot Drive,CA1 3BP,54.8739355,-2.9077499
8,Lightfoot Drive,CA1 3BP,54.8740304,-2.9078880
6,Lightfoot Drive,CA1 3BP,54.8740335,-2.9079792
30,Lightfoot Drive,CA1 3BP,54.8732983,-2.9071110
17,Haig Road,CA1 3AS,54.8745867,-2.9062613
19,Haig Road,CA1 3AS,54.8745359,-2.9063564
13,Haig Road,CA1 3AS,54.8747741,-2.9062532
23,Haig Road,CA1 3AS,54.8745411,-2.9066747
55,Lightfoot Drive,CA1 3BP,54.8740905,-2.9073971
53,Lightfoot Drive,CA1 3BP,54.8741284,-2.9074454
51,Lightfoot Drive,CA1 3BP,54.8742295,-2.9075299
49,Lightfoot Drive,CA1 3BP,54.8742843,-2.9075219
33,Haig Road,CA1 3AS,54.8743861,-2.9073113
35,Haig Road,CA1 3AS,54.8743568,-2.9073730
18,Hayton Road,CA1 3BE,54.8739518,-2.9059290
16,Hayton Road,CA1 3BE,54.8740356,-2.9058314
14,Hayton Road,CA1 3BE,54.8740906,-2.9057729
14,Hayton Road,CA1 3BE,54.8741429,-2.9057083
12,Hayton Road,CA1 3BE,54.8742072,-2.9056289
10,Hayton Road,CA1 3BE,54.8742537,-2.9055319
10,Hayton Road,CA1 3BE,54.8743180,-2.9054391
10,Hayton Road,CA1 3BE,54.8743813,-2.9053286
33,Hayton Road,CA1 3AX,54.8733895,-2.9060839
35,Hayton Road,CA1 3AX,54.8733498,-2.9061416
100,Welsh Road,CA1 3AY,54.8742177,-2.9041053
26,Harris Crescent,CA1 3BA,54.8736800,-2.9051115
28,Harris Crescent,CA1 3BA,54.8736380,-2.9051653
32,Harris Crescent,CA1 3BA,54.8735973,-2.9052175
86,Welsh Road,CA1 3AU,54.8749122,-2.9051421
88,Welsh Road,CA1 3AU,54.8748582,-2.9050535
80,Welsh Road,CA1 3AU,54.8748234,-2.9052259
78,Welsh Road,CA1 3AU,54.8747922,-2.9052829
76,Welsh Road,CA1 3AU,54.8747605,-2.9053452
72,Welsh Road,CA1 3AU,54.8747521,-2.9056128
74,Welsh Road,CA1 3AU,54.8747486,-2.9055310
70,Welsh Road,CA1 3AU,54.8748532,-2.9057644
68,Welsh Road,CA1 3AU,54.8748999,-2.9057617
66,Welsh Road,CA1 3AU,54.8749986,-2.9057180
64,Welsh Road,CA1 3AU,54.8750275,-2.9056557
62,Welsh Road,CA1 3AU,54.8750596,-2.9055900
60,Welsh Road,CA1 3AU,54.8751094,-2.9054392
58,Welsh Road,CA1 3AU,54.8751633,-2.9055236
56,Welsh Road,CA1 3AU,54.8752826,-2.9057106
54,Welsh Road,CA1 3AU,54.8752841,-2.9057996
1,Haig Road,CA1 3AS,54.8752101,-2.9059599
3,Haig Road,CA1 3AS,54.8751776,-2.9060153
52,Welsh Road,CA1 3AR,54.8755094,-2.9061172
50,Welsh Road,CA1 3AR,54.8755589,-2.9061251
29,Haig Road,CA1 3AS,54.8744830,-2.9071294
31,Haig Road,CA1 3AS,54.8744372,-2.9072156
25,Haig Road,CA1 3AS,54.8746240,-2.9069029
27,Haig Road,CA1 3AS,54.8745812,-2.9069772
21,Haig Road,CA1 3AS,54.8744995,-2.9066080
15,Haig Road,CA1 3AS,54.8747320,-2.9061882
24,Haig Road,CA1 3AS,54.8748851,-2.9070535
18,Haig Road,CA1 3AS,54.8750364,-2.9068207
20,Haig Road,CA1 3AS,54.8749881,-2.9068958
22,Haig Road,CA1 3AS,54.8749384,-2.9069703
48,Welsh Road,CA1 3AR,54.8756368,-2.9062246
46,Welsh Road,CA1 3AR,54.8756711,-2.9062776
44,Welsh Road,CA1 3AR,54.8756889,-2.9064620
42,Welsh Road,CA1 3AR,54.8756533,-2.9065247
32,Welsh Road,CA1 3AR,54.8754251,-2.9069391
30,Welsh Road,CA1 3AR,54.8753929,-2.9069963
28,Welsh Road,CA1 3AR,54.8753955,-2.9071923
24,Welsh Road,CA1 3AR,54.8754329,-2.9072531
22,Welsh Road,CA1 3AR,54.8754682,-2.9073121
18,Welsh Road,CA1 3AR,54.8756075,-2.9072441
20,Welsh Road,CA1 3AR,54.8755742,-2.9073019
8,Welsh Road,CA1 3AR,54.8758368,-2.9068288
6,Welsh Road,CA1 3AR,54.8758694,-2.9067686
26,Haig Road,CA1 3AS,54.8748163,-2.9071345
28,Haig Road,CA1 3AS,54.8747836,-2.9071914
30,Haig Road,CA1 3AS,54.8747225,-2.9072856
32,Haig Road,CA1 3AS,54.8746840,-2.9073453
34,Haig Road,CA1 3AS,54.8746271,-2.9074468
36,Haig Road,CA1 3AS,54.8745906,-2.9075157
38,Haig Road,CA1 3AS,54.8745308,-2.9076252
40,Haig Road,CA1 3AS,54.8745019,-2.9076831
47,Lightfoot Drive,CA1 3BN,54.8745263,-2.9079358
45,Lightfoot Drive,CA1 3BN,54.8745618,-2.9079850
43,Lightfoot Drive,CA1 3BN,54.8746301,-2.9080689
41,Lightfoot Drive,CA1 3BN,54.8746695,-2.9081191
88,London Road,CA1 2PR,54.8827644,-2.9143689
3,Palmer Road,CA2 7NE,54.8969908,-2.9835129
1,Palmer Road,CA2 7NE,54.8968310,-2.9836030
31,Palmer Road,CA2 7NE,54.8978989,-2.9803415
29,Palmer Road,CA2 7NE,54.8979087,-2.9799651
2,Palmer Road,CA2 7NE,54.8968974,-2.9835716
4,Palmer Road,CA2 7NE,54.8970361,-2.9833680
6,Palmer Road,CA2 7NE,54.8971472,-2.9831083
8,Palmer Road,CA2 7NE,54.8972564,-2.9828523
10,Palmer Road,CA2 7NE,54.8973496,-2.9826289
12,Palmer Road,CA2 7NE,54.8974723,-2.9823675
14,Palmer Road,CA2 7NE,54.8975734,-2.9821066
16,Palmer Road,CA2 7NE,54.8976859,-2.9818711
18,Palmer Road,CA2 7NE,54.8977990,-2.9815575
20,Palmer Road,CA2 7NE,54.8978697,-2.9812850
22,Palmer Road,CA2 7NE,54.8979730,-2.9810313
24,Palmer Road,CA2 7NE,54.8980801,-2.9807995
26,Palmer Road,CA2 7NE,54.8981742,-2.9805410
28,Palmer Road,CA2 7NE,54.8982777,-2.9802517
30,Palmer Road,CA2 7NE,54.8979304,-2.9800900
32,Palmer Road,CA2 7NE,54.8978496,-2.9804841
11,Scotland Road,CA3 9HR,54.9041788,-2.9373661
7,Scotland Road,CA3 9HR,54.9040830,-2.9373676
1,Scotland Road,CA3 9HR,54.9039565,-2.9373688
105,Wigton Road,CA2 7EL,54.8885008,-2.9594843
1,Etterby Lea Road,CA3 9JW,54.9063273,-2.9423629
5,Etterby Lea Road,CA3 9JW,54.9064592,-2.9422579
9,Etterby Lea Road,CA3 9JW,54.9066110,-2.9421647
15,Etterby Lea Road,CA3 9JW,54.9067410,-2.9425301
19,Etterby Lea Road,CA3 9JW,54.9068033,-2.9427351
23,Etterby Lea Road,CA3 9JW,54.9068294,-2.9430179
131-141,Scotland Road,CA3 9HF,54.9094257,-2.9379709
143,Scotland Road,CA3 9HF,54.9096113,-2.9380378
87,Etterby Lea Road,CA3 9JP,54.9085326,-2.9406940
83,Etterby Lea Road,CA3 9JP,54.9084158,-2.9407819
79,Etterby Lea Road,CA3 9JP,54.9082744,-2.9408893
75,Etterby Lea Road,CA3 9JP,54.9081393,-2.9409953
71,Etterby Lea Road,CA3 9JP,54.9080065,-2.9411056
67,Etterby Lea Road,CA3 9JP,54.9078792,-2.9411908
63,Etterby Lea Road,CA3 9JP,54.9077582,-2.9412895
59,Etterby Lea Road,CA3 9JP,54.9076104,-2.9413953
55,Etterby Lea Road,CA3 9JP,54.9074832,-2.9414988
2,Etterby Lea Grove,CA3 9LF,54.9076047,-2.9420233
6,Etterby Lea Grove,CA3 9LF,54.9077554,-2.9419043
10,Etterby Lea Grove,CA3 9LF,54.9079021,-2.9417697
14,Etterby Lea Grove,CA3 9LF,54.9080426,-2.9416529
18,Etterby Lea Grove,CA3 9LF,54.9081625,-2.9415439
22,Etterby Lea Grove,CA3 9LF,54.9083092,-2.9414023
26,Etterby Lea Grove,CA3 9LF,54.9084381,-2.9412917
30,Etterby Lea Grove,CA3 9LF,54.9085751,-2.9411510
33,Etterby Lea Grove,CA3 9LF,54.9087626,-2.9414967
31,Etterby Lea Grove,CA3 9LF,54.9087035,-2.9415853
25,Etterby Lea Grove,CA3 9LF,54.9085159,-2.9417587
21,Etterby Lea Grove,CA3 9LF,54.9083898,-2.9418707
17,Etterby Lea Grove,CA3 9LF,54.9082547,-2.9419891
13,Etterby Lea Grove,CA3 9LF,54.9081213,-2.9421105
9,Etterby Lea Grove,CA3 9LF,54.9079960,-2.9422226
5,Etterby Lea Grove,CA3 9LF,54.9078600,-2.9423223
1,Etterby Lea Grove,CA3 9LF,54.9077311,-2.9424405
2,Etterby Lea Crescent,CA3 9LG,54.9078660,-2.9429257
6,Etterby Lea Crescent,CA3 9LG,54.9080082,-2.9428074
10,Etterby Lea Crescent,CA3 9LG,54.9081425,-2.9427062
14,Etterby Lea Crescent,CA3 9LG,54.9082642,-2.9425972
18,Etterby Lea Crescent,CA3 9LG,54.9084002,-2.9424976
22,Etterby Lea Crescent,CA3 9LG,54.9085389,-2.9423980
26,Etterby Lea Crescent,CA3 9LG,54.9086669,-2.9423046
30,Etterby Lea Crescent,CA3 9LE,54.9088038,-2.9421894
47,Etterby Lea Crescent,CA3 9LG,54.9084457,-2.9429662
43,Etterby Lea Crescent,CA3 9LG,54.9083090,-2.9430708
39,Etterby Lea Crescent,CA3 9LG,54.9081764,-2.9431852
35,Etterby Lea Crescent,CA3 9LG,54.9080376,-2.9432997
31,Etterby Lea Crescent,CA3 9LG,54.9078988,-2.9433945
27,Etterby Lea Crescent,CA3 9LG,54.9077443,-2.9433497
23,Etterby Lea Crescent,CA3 9LG,54.9076434,-2.9431321
19,Etterby Lea Crescent,CA3 9LG,54.9075705,-2.9428829
15,Etterby Lea Crescent,CA3 9LG,54.9075084,-2.9426795
11,Etterby Lea Crescent,CA3 9LG,54.9074461,-2.9424631
7,Etterby Lea Crescent,CA3 9LG,54.9073722,-2.9422164
3,Etterby Lea Crescent,CA3 9LG,54.9073125,-2.9419946
49,Etterby Lea Road,CA3 9JW,54.9070243,-2.9418286
41,Etterby Lea Road,CA3 9JW,54.9069727,-2.9423580
37,Etterby Lea Road,CA3 9JW,54.9070343,-2.9425869
27,Etterby Lea Road,CA3 9JW,54.9069966,-2.9431706
31,Etterby Lea Road,CA3 9JW,54.9071225,-2.9430033
33,Etterby Lea Road,CA3 9JW,54.9071311,-2.9427879
1,Etterby Lea Crescent,CA3 9LG,54.9072365,-2.9417545
47,Etterby Lea Road,CA3 9JW,54.9069484,-2.9418924
34,Etterby Lea Crescent,CA3 9LE,54.9089878,-2.9419458
103,Etterby Lea Crescent,CA3 9JS,54.9088433,-2.9406117
99,Etterby Lea Crescent,CA3 9JS,54.9088960,-2.9408874
95,Etterby Lea Crescent,CA3 9JS,54.9089708,-2.9410806
91,Etterby Lea Crescent,CA3 9JS,54.9090732,-2.9412441
87,Etterby Lea Crescent,CA3 9JS,54.9091760,-2.9414188
83,Etterby Lea Crescent,CA3 9JS,54.9092781,-2.9415882
51,Etterby Lea Crescent,CA3 9LG,54.9086249,-2.9428608
55,Etterby Lea Crescent,CA3 9LE,54.9089372,-2.9426663
59,Etterby Lea Crescent,CA3 9LE,54.9090491,-2.9424711
63,Etterby Lea Crescent,CA3 9LE,54.9091655,-2.9423212
67,Etterby Lea Crescent,CA3 9LE,54.9092742,-2.9421535
71,Etterby Lea Crescent,CA3 9LD,54.9093713,-2.9419888
75,Etterby Lea Crescent,CA3 9LD,54.9094764,-2.9418208
79,Etterby Lea Crescent,CA3 9LD,54.9095739,-2.9416325
82,Eden Street,CA3 9LA,54.9091212,-2.9430534
"33,35",Belah Crescent,CA3 9TZ,54.9110927,-2.9395700
"29,31",Belah Crescent,CA3 9TZ,54.9109312,-2.9397074
25,Belah Crescent,CA3 9TZ,54.9107380,-2.9397310
3,The Nook,CA3 9TY,54.9106071,-2.9393420
21,Belah Crescent,CA3 9TZ,54.9105660,-2.9397063
2,The Nook,CA3 9TY,54.9104808,-2.9395875
4,The Nook,CA3 9TY,54.9106055,-2.9390670
5,The Nook,CA3 9TY,54.9104419,-2.9389309
6,The Nook,CA3 9TY,54.9103420,-2.9391035
17,Belah Crescent,CA3 9TX,54.9102285,-2.9394910
15,Belah Crescent,CA3 9TX,54.9101371,-2.9393523
9,Belah Crescent,CA3 9TX,54.9100051,-2.9390313
5,Belah Crescent,CA3 9TX,54.9099312,-2.9387903
1,Belah Crescent,CA3 9TX,54.9098853,-2.9385150
2,Belah Crescent,CA3 9TX,54.9095814,-2.9384967
6,Belah Crescent,CA3 9TX,54.9096297,-2.9388283
10,Belah Crescent,CA3 9TX,54.9097031,-2.9391031
14,Belah Crescent,CA3 9TX,54.9097755,-2.9393556
18,Belah Crescent,CA3 9TX,54.9098759,-2.9396063
22,Belah Crescent,CA3 9TX,54.9099729,-2.9397966
26,Belah Crescent,CA3 9TX,54.9100957,-2.9399809
30,Belah Crescent,CA3 9TX,54.9102778,-2.9401506
32,Belah Crescent,CA3 9TZ,54.9103886,-2.9402006
36,Belah Crescent,CA3 9TZ,54.9105282,-2.9402802
38,Belah Crescent,CA3 9TZ,54.9106678,-2.9402605
40,Belah Crescent,CA3 9TZ,54.9107824,-2.9402737
42-44,Belah Crescent,CA3 9TZ,54.9109049,-2.9402726
46-48,Belah Crescent,CA3 9TZ,54.9110935,-2.9402251
17,Waverley Road,CA3 9JU,54.9111211,-2.9408526
21,Waverley Road,CA3 9JU,54.9109694,-2.9410249
27,Waverley Road,CA3 9JU,54.9107592,-2.9411945
1,Walden Grove,CA3 9JT,54.9106115,-2.9409360
5,Walden Grove,CA3 9JT,54.9104400,-2.9408766
9,Walden Grove,CA3 9JT,54.9102688,-2.9408277
13,Walden Grove,CA3 9JT,54.9101132,-2.9407765
15,Walden Grove,CA3 9JT,54.9100102,-2.9406203
19,Walden Grove,CA3 9JT,54.9098559,-2.9402833
12,Crossfield,CA3 9HQ,54.9096671,-2.9400377
6,Crossfield,CA3 9HQ,54.9095169,-2.9394746
2,Crossfield,CA3 9HQ,54.9093378,-2.9393588
1,Crossfield,CA3 9HQ,54.9090336,-2.9396997
5,Crossfield,CA3 9HQ,54.9092493,-2.9398540
7,Crossfield,CA3 9HQ,54.9093431,-2.9400455
11,Crossfield,CA3 9HQ,54.9094995,-2.9403198
24,Walden Grove,CA3 9JT,54.9095756,-2.9406784
20,Walden Grove,CA3 9JT,54.9097280,-2.9410175
16,Walden Grove,CA3 9JT,54.9098874,-2.9411995
12,Walden Grove,CA3 9JT,54.9100692,-2.9413413
8,Walden Grove,CA3 9JT,54.9102391,-2.9413701
4,Walden Grove,CA3 9JT,54.9104126,-2.9414121
2,Walden Grove,CA3 9JT,54.9105321,-2.9415189
112,Eden Street,CA3 9LA,54.9102902,-2.9418773
108,Eden Street,CA3 9LA,54.9101784,-2.9419675
104,Eden Street,CA3 9LA,54.9100396,-2.9420851
100,Eden Street,CA3 9LA,54.9099011,-2.9422350
"96,98",Eden Street,CA3 9LA,54.9097577,-2.9424241
92,Eden Street,CA3 9LA,54.9095573,-2.9425739
88,Eden Street,CA3 9LA,54.9094213,-2.9427382
1,Eden Crescent,CA3 9LB,54.9095966,-2.9421971
84,Eden Street,CA3 9LA,54.9092544,-2.9429856
76,Eden Street,CA3 9LH,54.9087459,-2.9434215
64,Eden Street,CA3 9LH,54.9084752,-2.9436756
54,Eden Street,CA3 9LH,54.9081614,-2.9439271
48,Eden Street,CA3 9LH,54.9079975,-2.9440598
12,Kelbarrow Road,CA3 0FE,54.9187259,-2.9358132
10,Kelbarrow Road,CA3 0FE,54.9186951,-2.9358483
8,Kelbarrow Road,CA3 0FE,54.9186421,-2.9359081
6,Kelbarrow Road,CA3 0FE,54.9185945,-2.9359646
4,Kelbarrow Road,CA3 0FE,54.9185384,-2.9360336
2,Kelbarrow Road,CA3 0FE,54.9184998,-2.9360794
43,Edderside Drive,CA3 0BF,54.9184508,-2.9361699
7,Hailforth Road,CA3 0FF,54.9186127,-2.9353915
5,Hailforth Road,CA3 0FF,54.9185720,-2.9354388
1,Hailforth Road,CA3 0FF,54.9184713,-2.9355462
3,Hailforth Road,CA3 0FF,54.9185082,-2.9355054
45,Edderside Drive,CA3 0BF,54.9183613,-2.9357575
45,Edderside Drive,CA3 0BF,54.9183887,-2.9358305
49,Edderside Drive,CA3 0BF,54.9182860,-2.9356837
11,Hailforth Road,CA3 0FF,54.9186981,-2.9352978
9,Hailforth Road,CA3 0FF,54.9186718,-2.9353251
12,Hailforth Road,CA3 0FF,54.9186485,-2.9348143
1,Carwinley Close,CA3 0FH,54.9184839,-2.9343714
3,Carwinley Close,CA3 0FH,54.9185664,-2.9342922
5,Carwinley Close,CA3 0FH,54.9186312,-2.9342380
10,Hailforth Road,CA3 0FF,54.9185152,-2.9349554
8,Hailforth Road,CA3 0FF,54.9184400,-2.9349843
2,Carwinley Close,CA3 0FH,54.9183467,-2.9345357
4,Carwinley Close,CA3 0FH,54.9182836,-2.9346322
6,Carwinley Close,CA3 0FH,54.9182138,-2.9347127
65,Edderside Drive,CA3 0BF,54.9179883,-2.9348281
63A,Edderside Drive,CA3 0BF,54.9180190,-2.9348911
63,Edderside Drive,CA3 0BF,54.9180407,-2.9349474
61,Edderside Drive,CA3 0BF,54.9180777,-2.9350186
59,Edderside Drive,CA3 0BF,54.9180984,-2.9350725
57,Edderside Drive,CA3 0BF,54.9181192,-2.9351253
55,Edderside Drive,CA3 0BF,54.9181403,-2.9351787
53,Edderside Drive,CA3 0BF,54.9181669,-2.9352614
51,Edderside Drive,CA3 0BF,54.9181883,-2.9353167
2,Hailforth Road,CA3 0FF,54.9182115,-2.9353921
6,Hailforth Road,CA3 0FF,54.9183945,-2.9350567
4,Hailforth Road,CA3 0FF,54.9183544,-2.9351050
36a,Edderside Drive,CA3 0BF,54.9187199,-2.9370287
36,Edderside Drive,CA3 0BF,54.9188066,-2.9370651
78,Newfield Park,CA3 0AH,54.9189656,-2.9387434
80,Newfield Park,CA3 0AH,54.9189334,-2.9384752
82,Newfield Park,CA3 0AH,54.9189113,-2.9383397
84,Newfield Park,CA3 0AH,54.9188890,-2.9382440
86,Newfield Park,CA3 0AH,54.9188780,-2.9381833
88,Newfield Park,CA3 0AH,54.9188664,-2.9381229
90,Newfield Park,CA3 0AH,54.9188541,-2.9380581
92,Newfield Park,CA3 0AH,54.9188368,-2.9379575
94,Newfield Park,CA3 0AH,54.9188047,-2.9378350
96,Newfield Park,CA3 0AH,54.9188014,-2.9377711
98,Newfield Park,CA3 0AH,54.9187978,-2.9377116
100,Newfield Park,CA3 0AH,54.9187950,-2.9376477
102,Newfield Park,CA3 0AH,54.9188158,-2.9375418
106,Newfield Park,CA3 0AH,54.9188199,-2.9373647
104,Newfield Park,CA3 0AH,54.9188171,-2.9374285
53,Newfield Park,CA3 0AG,54.9190835,-2.9377054
145,Scotland Road,CA3 9HF,54.9096683,-2.9380605
1,The Nook,CA3 9TY,54.9104550,-2.9396939
19,Belah Crescent,CA3 9TX,54.9102852,-2.9395068
13,Belah Crescent,CA3 9TX,54.9100952,-2.9392518
3,Belah Crescent,CA3 9TX,54.9098981,-2.9386229
7,Belah Crescent,CA3 9TX,54.9099506,-2.9388875
11,Belah Crescent,CA3 9TX,54.9100349,-2.9391400
52,Eden Street,CA3 9LH,54.9081101,-2.9439748
50,Eden Street,CA3 9LH,54.9080537,-2.9440173
10,Crossfield,CA3 9HQ,54.9097097,-2.9398716
11,Walden Grove,CA3 9JT,54.9102057,-2.9408015
17,Walden Grove,CA3 9JT,54.9099333,-2.9406364
21,Walden Grove,CA3 9JT,54.9097852,-2.9402774
22,Walden Grove,CA3 9JT,54.9096619,-2.9409784
16,Cross Street,CA3 9HG,54.9091101,-2.9392745
10,Cross Street,CA3 9HG,54.9091827,-2.9389105
6,Cross Street,CA3 9HG,54.9092414,-2.9386092
4,Cross Street,CA3 9HG,54.9092703,-2.9384548
2,Cross Street,CA3 9HG,54.9092885,-2.9383621
8,Cross Street,CA3 9HG,54.9092197,-2.9387200
12,Cross Street,CA3 9HG,54.9091648,-2.9390022
14,Cross Street,CA3 9HG,54.9091280,-2.9391833
3,Crossfield,CA3 9HQ,54.9091824,-2.9397747
80,Eden Street,CA3 9LA,54.9090471,-2.9431233
78,Eden Street,CA3 9LH,54.9088076,-2.9433760
74,Eden Street,CA3 9LH,54.9086906,-2.9435073
72,Eden Street,CA3 9LH,54.9086475,-2.9435410
70,Eden Street,CA3 9LH,54.9086044,-2.9435746
68,Eden Street,CA3 9LH,54.9085613,-2.9436083
66,Eden Street,CA3 9LH,54.9085183,-2.9436419
62,Eden Street,CA3 9LH,54.9083617,-2.9437760
60,Eden Street,CA3 9LH,54.9083116,-2.9438138
58,Eden Street,CA3 9LH,54.9082616,-2.9438515
56,Eden Street,CA3 9LH,54.9082115,-2.9438893
4,Belah Crescent,CA3 9TX,54.9095831,-2.9386157
8,Belah Crescent,CA3 9TX,54.9096517,-2.9389230
12,Belah Crescent,CA3 9TX,54.9097311,-2.9392060
16,Belah Crescent,CA3 9TX,54.9098094,-2.9394529
24,Belah Crescent,CA3 9TX,54.9100140,-2.9398735
20,Belah Crescent,CA3 9TX,54.9099117,-2.9396847
28,Belah Crescent,CA3 9TX,54.9101454,-2.9400424
27,Belah Crescent,CA3 9TZ,54.9107974,-2.9397316
23,Belah Crescent,CA3 9TZ,54.9106320,-2.9397185
25,Waverley Road,CA3 9JU,54.9108350,-2.9411794
19,Waverley Road,CA3 9JU,54.9110644,-2.9409107
23,Waverley Road,CA3 9JU,54.9109129,-2.9410830
3,Walden Grove,CA3 9JT,54.9105424,-2.9409590
7,Walden Grove,CA3 9JT,54.9103763,-2.9408708
114,Eden Street,CA3 9LA,54.9103303,-2.9418345
110,Eden Street,CA3 9LA,54.9102186,-2.9419248
106,Eden Street,CA3 9LA,54.9100940,-2.9420209
102,Eden Street,CA3 9LA,54.9099544,-2.9421772
94,Eden Street,CA3 9LA,54.9096106,-2.9425153
90,Eden Street,CA3 9LA,54.9094702,-2.9426864
86,Eden Street,CA3 9LA,54.9093058,-2.9429288
6,Walden Grove,CA3 9JT,54.9103460,-2.9413870
10,Walden Grove,CA3 9JT,54.9101761,-2.9413459
14,Walden Grove,CA3 9JT,54.9100105,-2.9413210
18,Walden Grove,CA3 9JT,54.9098149,-2.9411571
26,Walden Grove,CA3 9JT,54.9095983,-2.9405616
9,Crossfield,CA3 9HQ,54.9094068,-2.9400864
8,Crossfield,CA3 9HQ,54.9095811,-2.9395118
4,Crossfield,CA3 9HQ,54.9094047,-2.9393925
25,Etterby Lea Road,CA3 9JW,54.9069157,-2.9431821
35,Etterby Lea Road,CA3 9JW,54.9070989,-2.9427023
39,Etterby Lea Road,CA3 9JW,54.9070093,-2.9425025
43,Etterby Lea Road,CA3 9JW,54.9069475,-2.9422736
29,Etterby Lea Road,CA3 9JW,54.9070782,-2.9430650
21,Etterby Lea Road,CA3 9JW,54.9068058,-2.9429303
17,Etterby Lea Road,CA3 9JW,54.9067797,-2.9426475
13,Etterby Lea Road,CA3 9JW,54.9067174,-2.9424425
85,Etterby Lea Road,CA3 9JP,54.9084661,-2.9407416
69,Etterby Lea Road,CA3 9JP,54.9079212,-2.9411577
73,Etterby Lea Road,CA3 9JP,54.9080604,-2.9410450
3,Etterby Lea Road,CA3 9JW,54.9063754,-2.9423268
65,Etterby Lea Road,CA3 9JP,54.9078083,-2.9412490
61,Etterby Lea Road,CA3 9JP,54.9076606,-2.9413549
57,Etterby Lea Road,CA3 9JP,54.9075315,-2.9414613
89,Etterby Lea Road,CA3 9JP,54.9085828,-2.9406536
77,Etterby Lea Road,CA3 9JP,54.9081894,-2.9409548
81,Etterby Lea Road,CA3 9JP,54.9083246,-2.9408490
45,Etterby Lea Road,CA3 9JW,54.9069005,-2.9419718
11,Etterby Lea Road,CA3 9JW,54.9066811,-2.9421574
7,Etterby Lea Road,CA3 9JW,54.9065073,-2.9422217
4,Etterby Lea Grove,CA3 9LF,54.9076656,-2.9419705
12,Etterby Lea Grove,CA3 9LF,54.9079516,-2.9417301
8,Etterby Lea Grove,CA3 9LF,54.9078056,-2.9418639
19,Etterby Lea Grove,CA3 9LF,54.9083042,-2.9419495
23,Etterby Lea Grove,CA3 9LF,54.9084393,-2.9418312
11,Etterby Lea Grove,CA3 9LF,54.9080455,-2.9421830
15,Etterby Lea Grove,CA3 9LF,54.9081709,-2.9420710
3,Etterby Lea Grove,CA3 9LF,54.9077807,-2.9424010
7,Etterby Lea Grove,CA3 9LF,54.9079095,-2.9422827
20,Etterby Lea Grove,CA3 9LF,54.9082120,-2.9415043
16,Etterby Lea Grove,CA3 9LF,54.9080921,-2.9416133
28,Etterby Lea Grove,CA3 9LF,54.9084876,-2.9412522
24,Etterby Lea Grove,CA3 9LF,54.9083588,-2.9413627
35,Etterby Lea Grove,CA3 9LF,54.9088097,-2.9414488
32,Etterby Lea Grove,CA3 9LF,54.9086214,-2.9411081
27,Etterby Lea Grove,CA3 9LF,54.9085655,-2.9417192
29,Etterby Lea Grove,CA3 9LF,54.9086411,-2.9416250
37,Etterby Lea Crescent,CA3 9LG,54.9080872,-2.9432602
41,Etterby Lea Crescent,CA3 9LG,54.9082259,-2.9431458
29,Etterby Lea Crescent,CA3 9LG,54.9077904,-2.9433990
33,Etterby Lea Crescent,CA3 9LG,54.9079483,-2.9433550
21,Etterby Lea Crescent,CA3 9LG,54.9075951,-2.9429762
25,Etterby Lea Crescent,CA3 9LG,54.9076708,-2.9432116
13,Etterby Lea Crescent,CA3 9LG,54.9074712,-2.9425475
17,Etterby Lea Crescent,CA3 9LG,54.9075334,-2.9427639
16,Etterby Lea Crescent,CA3 9LG,54.9083137,-2.9425577
12,Etterby Lea Crescent,CA3 9LG,54.9081920,-2.9426667
24,Etterby Lea Crescent,CA3 9LG,54.9085884,-2.9423584
20,Etterby Lea Crescent,CA3 9LG,54.9084498,-2.9424581
32,Etterby Lea Crescent,CA3 9LE,54.9088534,-2.9421498
28,Etterby Lea Crescent,CA3 9LG,54.9087164,-2.9422651
45,Etterby Lea Crescent,CA3 9LG,54.9083585,-2.9430314
49,Etterby Lea Crescent,CA3 9LG,54.9084952,-2.9429266
105,Etterby Lea Crescent,CA3 9JS,54.9088361,-2.9405221
36,Etterby Lea Crescent,CA3 9LE,54.9090081,-2.9418315
97,Etterby Lea Crescent,CA3 9JS,54.9089322,-2.9410106
101,Etterby Lea Crescent,CA3 9JS,54.9088730,-2.9407749
89,Etterby Lea Crescent,CA3 9JS,54.9091412,-2.9413574
93,Etterby Lea Crescent,CA3 9JS,54.9090383,-2.9411825
5,Etterby Lea Crescent,CA3 9LG,54.9073376,-2.9420790
9,Etterby Lea Crescent,CA3 9LG,54.9073971,-2.9423008
81,Etterby Lea Crescent,CA3 9LD,54.9096100,-2.9415687
53,Etterby Lea Crescent,CA3 9LG,54.9086727,-2.9428877
85,Etterby Lea Crescent,CA3 9JS,54.9092432,-2.9415267
61,Etterby Lea Crescent,CA3 9LE,54.9090955,-2.9424198
57,Etterby Lea Crescent,CA3 9LE,54.9089530,-2.9425777
69,Etterby Lea Crescent,CA3 9LE,54.9093105,-2.9420897
65,Etterby Lea Crescent,CA3 9LE,54.9092076,-2.9422520
77,Etterby Lea Crescent,CA3 9LD,54.9095126,-2.9417570
73,Etterby Lea Crescent,CA3 9LD,54.9094074,-2.9419251
8,Etterby Lea Crescent,CA3 9LG,54.9080578,-2.9427678
4,Etterby Lea Crescent,CA3 9LG,54.9079155,-2.9428862
51,Etterby Lea Road,CA3 9JW,54.9070726,-2.9417911
53,Etterby Lea Road,CA3 9JW,54.9071864,-2.9417274
275,Wigton Road,CA2 6JY,54.8786557,-2.9719448
Site 18,Willowholme Road,CA2 5RT,54.8993648,-2.9483826
