House number,Street name,Postal code,Latitude,Longitude
133,High Street,LN5 7PJ,53.2235776,-0.5436811
40,High Street,LN5 8AS,53.2175551,-0.5457211
105,High Street,LN5 7QB,53.2216992,-0.5446202
33,Steep Hill,LN2 1LU,53.2342290,-0.5388918
18-20,Saltergate,LN2 1DH,53.2289965,-0.5397891
12-14,Moor Street,LN1 1PR,53.2332246,-0.5536285
24,Sincil Street,LN5 7ET,53.2269858,-0.5387023
27,Broadgate,LN2 5AQ,53.2302424,-0.5361113
173,High Street,LN5 7AF,53.2263304,-0.5420972
21,High Street,LN5 8BD,53.2164605,-0.5459852
58a,Woodfield Avenue,LN6 0LE,53.2212995,-0.6008291
88,High Street,LN5 7QW,53.2206410,-0.5449525
233-237,High Street,LN2 1AT,53.2302312,-0.5401490
342,High Street,LN5 7DQ,53.2257149,-0.5420822
365,High Street,LN5 7RN,53.2240275,-0.5431099
406,High Street,LN5 7TE,53.2202760,-0.5446063
427,Newark Road,LN6 8RS,53.2022703,-0.5585859
425,Newark Road,LN6 8RS,53.2023223,-0.5584330
423,Newark Road,LN6 8RS,53.2023676,-0.5583257
421,Newark Road,LN6 8RR,53.2024255,-0.5582077
1,Rookery Lane,LN6 7PX,53.2024544,-0.5581806
3,Rookery Lane,LN6 7PX,53.2024930,-0.5581380
7,Rookery Lane,LN6 7PX,53.2025618,-0.5581109
104,Grange Crescent,LN6 8DA,53.1924897,-0.5714485
102,Grange Crescent,LN6 8DA,53.1924288,-0.5715217
266,Hykeham Road,LN6 8BJ,53.1950342,-0.5701325
260-266,Hykeham Road,LN6 8BJ,53.1951210,-0.5700360
42,Hykeham Road,LN6 8AB,53.2007372,-0.5600394
17,Scorer Street,LN5 7XE,53.2199616,-0.5390669
65,Saint Andrews Street,LN5 7UE,53.2209600,-0.5361582
14-16,High Street,LN5 8BS,53.2153699,-0.5463219
9 Newporte Business Park,Bishops Road,LN2 4SY,53.2379977,-0.5102142
370,High Street,LN5 7RU,53.2234330,-0.5434506
43c,Carholme Road,LN1 1RN,53.2309615,-0.5491063
115D,High Street,LN5 7PR,53.2224752,-0.5442246
41,Monks Road,LN2 5HN,53.2306704,-0.5333734
417,High Street,LN5 8HX,53.2193167,-0.5448980
166a,Monks Road,LN2 5PN,53.2305123,-0.5176577
373-374,High Street,LN5 7RU,53.2232325,-0.5435842
207-209,High Street,LN5 7AU,53.2285275,-0.5408398
204-206,High Street,LN5 7AU,53.2284197,-0.5414794
313,High Street,LN5 7DR,53.2278052,-0.5407739
311-312,High Street,LN5 7DZ,53.2279144,-0.5407463
310,High Street,LN5 7DR,53.2280140,-0.5406953
18-20,Sincil Street,LN5 7ET,53.2267879,-0.5386019
Unit 20,Carlton Centre,LN2 4UX,53.2421225,-0.5096865
450,High Street,LN5 8HZ,53.2176684,-0.5453049
448,High Street,LN5 8HZ,53.2177521,-0.5452797
445-446,High Street,LN5 8HZ,53.2178695,-0.5452544
147,High Street,LN5 8HZ,53.2178265,-0.5452661
280-281,High Street,LN2 1JG,53.2306874,-0.5397768
13-14,Silver Street,LN2 1DY,53.2300291,-0.5380336
3,Florence Street,LN2 5LR,53.2304452,-0.5242750
116,High Street,LN5 7PR,53.2226069,-0.5441937
164,High Street,LN5 7AF,53.2257983,-0.5423639
264,High Street,LN2 1HW,53.2314963,-0.5396455
261,High Street,LN2 1HW,53.2312515,-0.5397710
262A,High Street,LN2 1HW,53.2313624,-0.5397286
233-237,High Street,LN2 1AT,53.2301294,-0.5401976
233-235,High Street,LN2 1AT,53.2299832,-0.5402365
290-291,High Street,LN2 1AT,53.2300671,-0.5400391
210,High Street,LN2 1AP,53.2285863,-0.5408246
2,Waterside South,LN5 7DU,53.2283845,-0.5402091
305-306,High Street,LN5 7DR,53.2281980,-0.5406276
321-322,High Street,LN5 7DW,53.2272538,-0.5411165
319,High Street,LN5 7DW,53.2273472,-0.5410345
334-337,High Street,LN5 7DQ,53.2260710,-0.5418499
339,High Street,LN5 7DQ,53.2259306,-0.5419706
28-30,Station Street,LN5 7TP,53.2250858,-0.5434820
341a,High Street,LN5 7DQ,53.2257700,-0.5420532
368,High Street,LN5 7RN,53.2238538,-0.5431771
376,High Street,LN5 7RY,53.2230443,-0.5435996
376a,High Street,LN5 7RY,53.2230093,-0.5436243
130,High Street,LN5 7PJ,53.2234122,-0.5437427
128,High Street,LN5 7PJ,53.2233091,-0.5437896
122,High Street,LN5 7PR,53.2229103,-0.5440422
131,High Street,LN5 7PJ,53.2234484,-0.5437337
118,High Street,LN5 7PR,53.2227418,-0.5441249
170,High Street,LN5 7AF,53.2261141,-0.5422106
2,St Mary's Street,LN5 7EQ,53.2269416,-0.5407975
5,Cornhill,LN5 7HE,53.2277033,-0.5403847
2,Cornhill,LN5 7HE,53.2277113,-0.5406180
32,Sincil Street,LN5 7ET,53.2274093,-0.5387062
22,Newland,LN1 1XD,53.2295996,-0.5430293
72a,Newark Road,LN5 8PY,53.2094165,-0.5486512
16-17,Clifton Street,LN5 8LQ,53.2239262,-0.5343436
1,Addison Drive,LN2 4LF,53.2413065,-0.5220757
17,Addison Drive,LN2 4LF,53.2416885,-0.5210216
19,Addison Drive,LN2 4LG,53.2419341,-0.5204651
51,Addison Drive,LN2 4LG,53.2426965,-0.5185419
53,Addison Drive,LN2 4LQ,53.2428490,-0.5182147
65,Addison Drive,LN2 4LF,53.2431107,-0.5175522
2,Addison Drive,LN2 4LF,53.2412648,-0.5213341
8,Addison Drive,LN2 4LF,53.2414510,-0.5208137
10,Addison Drive,LN2 4LG,53.2416965,-0.5202518
38,Addison Drive,LN2 4LF,53.2424124,-0.5185325
68,Addison Drive,LN2 4LH,53.2436451,-0.5154882
76,Addison Drive,LN2 4LH,53.2438426,-0.5149893
67,Addison Drive,LN2 4LH,53.2438361,-0.5157779
79,Addison Drive,LN2 4LH,53.2440962,-0.5151234
40,Addison Drive,LN2 4LQ,53.2427006,-0.5178150
50,Addison Drive,LN2 4LF,53.2431291,-0.5167368
111,Addison Drive,LN2 4LZ,53.2451878,-0.5125391
113,Addison Drive,LN2 4LZ,53.2452536,-0.5123514
115,Addison Drive,LN2 4LZ,53.2452905,-0.5122495
106,Addison Drive,LN2 4LZ,53.2449293,-0.5122924
108,Addison Drive,LN2 4LZ,53.2450096,-0.5121153
110,Addison Drive,LN2 4LZ,53.2450610,-0.5119786
78,Addison Drive,LN2 4JH,53.2441292,-0.5143094
104,Addison Drive,LN2 4JH,53.2446589,-0.5129495
81,Addison Drive,LN2 4LH,53.2442348,-0.5147777
109,Addison Drive,LN2 4JH,53.2448833,-0.5132059
95,Addison Drive,LN2 4JH,53.2445526,-0.5140160
101,Addison Drive,LN2 4JH,53.2446971,-0.5136485
20,Brayford Wharf North,LN1 1BN,53.2299512,-0.5475341
53,Croft Street,LN2 5AZ,53.2294023,-0.5319546
173a,Burton Road,LN1 3LW,53.2404297,-0.5458181
169,Burton Road,LN1 3LW,53.2402769,-0.5456586
413,High Street,LN5 8HX,53.2197023,-0.5447379
63,West Parade,LN1 1QL,53.2330723,-0.5489320
142A,High Street,LN5 7PJ,53.2240860,-0.5433755
204-206,High Street,LN5 7AU,53.2284128,-0.5409083
3rd Floor,Silver Street,LN2 1DY,53.2296138,-0.5389420
5,Station Street,LN5 7EX,53.2249834,-0.5439485
45,Sincil Street,LN5 7ET,53.2278577,-0.5385756
21,Sincil Street,LN5 7ET,53.2268313,-0.5386257
31,Sincil Street,LN5 7ET,53.2273363,-0.5387298
46,Sincil Street,LN5 7ET,53.2279102,-0.5385510
3B,Brayford Wharf North,LN1 1YX,53.2286373,-0.5436046
Unit 3,Brayford Wharf North,LN1 1YW,53.2286678,-0.5437347
Unit 4A,Wigford Way,LN1 1YX,53.2289969,-0.5431956
307,High Street,LN5 7DR,53.2281301,-0.5406688
3-4,Cornhill,LN5 7HE,53.2277080,-0.5405124
42,Sincil Street,LN5 7ET,53.2277706,-0.5385912
43,Sincil Street,LN5 7ET,53.2278070,-0.5385787
44,Sincil Street,LN5 7ET,53.2278392,-0.5385680
41,Sincil Street,LN5 7ET,53.2277213,-0.5386181
36-37,Sincil Street,LN5 7ET,53.2275252,-0.5386718
34-35,Sincil Street,LN5 7ET,53.2274674,-0.5386933
5,Cornhill Pavement,LN5 7BT,53.2272670,-0.5393859
1,Sincil Street,LN5 7ET,53.2277334,-0.5388132
"13, 14",Cornhill,LN5 7HE,53.2276445,-0.5398160
30,Sincil Street,LN5 7ET,53.2272143,-0.5387484
28,Sincil Street,LN5 7ET,53.2271713,-0.5387454
22,Sincil Street,LN5 7ET,53.2268732,-0.5386453
26-27,Sincil Street,LN5 7ET,53.2271180,-0.5387314
15,Sincil Street,LN5 7ET,53.2268126,-0.5388414
23,Sincil Street,LN5 7ET,53.2269188,-0.5386649
5-6,Cornhill Pavement,LN5 7HB,53.2272802,-0.5397214
34,Newland,LN1 1XP,53.2300664,-0.5448438
11,Union Road,LN1 3BJ,53.2355257,-0.5427365
6,West Parade,LN1 1JT,53.2310688,-0.5412846
15,Beaumont Fee,LN1 1UH,53.2311507,-0.5419347
123,High Street,LN5 7PR,53.2230569,-0.5442623
41,West Bight,LN1 3BE,53.2365195,-0.5393159
33,Union Road,LN1 3BJ,53.2345648,-0.5427058
49,West Bight,LN1 3BE,53.2363362,-0.5392817
80,Great Northern Terrace,LN5 8HJ,53.2248608,-0.5260073
5,Christ's Hospital Terrace,LN2 1LY,53.2334856,-0.5384516
20,Michaelgate,LN1 3BT,53.2329778,-0.5391366
18-28,Clasketgate,LN2 1JN,53.2303753,-0.5388811
13-14,Silver Street,LN2 1DY,53.2298946,-0.5381311
61,Danesgate,LN2 1ND,53.2328853,-0.5383581
2,Well Lane,LN2 1NA,53.2325254,-0.5381350
4-5,St. Clements Court,LN1 3AD,53.2365854,-0.5396755
6,St. Clements Court,LN1 3AD,53.2363926,-0.5396048
1,St. Clements Court,LN1 3AD,53.2367483,-0.5394938
186,Wragby Road,LN2 4QQ,53.2388348,-0.5154221
3,Greestone Place,LN2 1PP,53.2332634,-0.5343479
323,Wolsey Way,LN2 4SX,53.2508844,-0.5170086
323,Wolsey Way,LN2 4SX,53.2502772,-0.5156732
107-115,Newark Road,LN5 8NQ,53.2093685,-0.5493101
72A,Newark Road,LN5 8PY,53.2094548,-0.5485986
178,Newark Road,LN5 8QJ,53.2039242,-0.5516112
156-158,Newark Road,LN5 8QJ,53.2044124,-0.5511166
42,St Catherine's,LN5 8LZ,53.2107371,-0.5479020
106,High Street,LN5 7PY,53.2218809,-0.5447108
90,Bailgate,LN1 3AE,53.2349015,-0.5383775
299,Brant Road,LN5 9AQ,53.1863705,-0.5583098
1-7,Greenstone Mount,LN2 1PS,53.2324758,-0.5340486
8-15,Greenstone Mount,LN2 1PS,53.2324852,-0.5337854
16-19,Greenstone Mount,LN2 1PS,53.2324857,-0.5335146
2,Searby Road,LN2 4DW,53.2501936,-0.5199790
10,Lucy Tower Street,LN1 1XL,53.2296992,-0.5446157
34,Newland,LN1 1XP,53.2300137,-0.5448253
1-8,Brayford Wharf North,LN1 1YW,53.2297339,-0.5456882
21,Newland,LN1 1XG,53.2299513,-0.5437911
6-7,Brayford Wharf North,LN1 1YX,53.2291860,-0.5448579
22,Newland,LN1 1XD,53.2297011,-0.5430704
32,Newland,LN1 1XJ,53.2295962,-0.5442194
303,High Street,LN5 7DR,53.2283802,-0.5404694
260-266,Wragby Road,LN2 4PX,53.2405263,-0.5137323
991,Doddington Road,LN6 3AA,53.2065039,-0.6124399
950,Doddington Road,LN6 3RS,53.2069914,-0.6134100
5,Water Lane,LN1 1TY,53.2288838,-0.5424023
6,Kelsey Street,LN1 1XA,53.2290869,-0.5426675
216-219,High Street,LN2 1AA,53.2288621,-0.5414230
6,The Sidings,LN6 7TP,53.2258387,-0.5463816
63,Steep Hill,LN2 1LR,53.2321949,-0.5383692
1B,Danes Terrace,LN2 1LP,53.2321564,-0.5378177
3,St Mark Street,LN5 7BD,53.2257743,-0.5447170
1,St Mark Street,LN5 7TP,53.2254389,-0.5438540
155,High Street,LN5 7AA,53.2251514,-0.5429031
158B,High Street,LN5 7AA,53.2255352,-0.5428977
158A,High Street,LN5 7TP,53.2254133,-0.5429396
154,High Street,LN5 7AA,53.2250983,-0.5429312
156,High Street,LN5 7AA,53.2252413,-0.5429083
1,Exchange Arcade,LN5 7HJ,53.2275094,-0.5400797
6-7,Cornhill,LN5 7HE,53.2277357,-0.5402300
8,Cornhill,LN5 7HE,53.2277340,-0.5401201
9-12,Cornhill,LN5 7HE,53.2277172,-0.5400167
12,Silver Street,LN2 1DY,53.2295851,-0.5389033
5-9,Newland,LN1 1UY,53.2295739,-0.5425233
358b,High Street,LN5 7BN,53.2245118,-0.5428234
6,Union Road,LN1 3BJ,53.2358812,-0.5427209
38,St Catherines,LN5 8LY,53.2108659,-0.5477288
36,St Catherines,LN5 8LY,53.2109297,-0.5476521
34,St Catherines,LN5 8LY,53.2109792,-0.5476193
4,Castle Hill,LN1 3AA,53.2341883,-0.5393061
55a,Steep Hill,LN2 1LR,53.2329804,-0.5381470
1,Saint Paul's Lane,LN1 3AX,53.2356202,-0.5395071
13,The Avenue,LN1 1PA,53.2318745,-0.5461540
1,Henley Way,LN6 3QR,53.2042966,-0.6017643
12-15,Guildhall Street,LN1 1TT,53.2291757,-0.5417185
3,Proctors Road,LN2 4HQ,53.2391152,-0.5105339
Unit 1,Dixon Close,LN6 7UB,53.2186048,-0.5567945
17,Guildhall Street,LN1 1TR,53.2294130,-0.5419121
4,Silver Street,LN2 1DY,53.2293946,-0.5399269
25,Lindum Road,LN2 1NT,53.2332269,-0.5322387
82,Jasmin Road,LN6 0QQ,53.2159774,-0.6061117
96,Burton Road,LN1 3LJ,53.2391071,-0.5452735
38,Westgate,LN1 3BD,53.2362081,-0.5407549
16,Chapel Lane,LN1 3AZ,53.2368704,-0.5392686
12,Chapel Lane,LN1 3AZ,53.2369152,-0.5390772
6,Chapel Lane,LN1 3AZ,53.2370039,-0.5388442
4,Burton Road,LN1 3LB,53.2364691,-0.5431598
37,Broadgate,LN2 5AE,53.2299668,-0.5366764
Unit 2,Edgewest Road,LN6 7EL,53.2295483,-0.5579804
18,Silver Street,LN2 1EW,53.2303191,-0.5367283
13,Stonebow Centre,LN2 1DQ,53.2291802,-0.5390242
8,Webb Street,LN5 8DL,53.2146236,-0.5495877
90,Jasmin Road,LN6 0QQ,53.2155489,-0.6045385
61,Steep Hill,LN2 1LR,53.2322892,-0.5383644
188,High Street,LN5 7AL,53.2271600,-0.5415967
3,St. Benedict's Square,LN5 7AR,53.2279946,-0.5415762
202,High Street,LN5 7AP,53.2279137,-0.5411417
4,St Benedicts Square,LN5 7AR,53.2279474,-0.5417094
201,High Street,LN2 1AL,53.2278554,-0.5413448
194,High Street,LN5 7AL,53.2274513,-0.5413825
21,Union Road,LN1 3BJ,53.2351067,-0.5428373
32,Union Road,LN1 3BJ,53.2346546,-0.5428873
30,Union Road,LN1 3BJ,53.2347329,-0.5428782
29,Union Road,LN1 3BJ,53.2347738,-0.5428743
28,Union Road,LN1 3BJ,53.2348150,-0.5428685
27,Union Road,LN1 3BJ,53.2348544,-0.5428648
26,Union Road,LN1 3BJ,53.2348962,-0.5428589
25,Union Road,LN1 3BJ,53.2349346,-0.5428557
24,Union Road,LN1 3BJ,53.2349751,-0.5428504
23,Union Road,LN1 3BJ,53.2350151,-0.5428470
22,Union Road,LN1 3BJ,53.2350564,-0.5428416
20,Union Road,LN1 3BJ,53.2351477,-0.5428317
19,Union Road,LN1 3BJ,53.2351872,-0.5428285
18,Union Road,LN1 3BJ,53.2352301,-0.5428229
17,Union Road,LN1 3BJ,53.2352698,-0.5428195
16,Union Road,LN1 3BJ,53.2353112,-0.5428139
15,Union Road,LN1 3BJ,53.2353505,-0.5428104
14,Union Road,LN1 3BJ,53.2353921,-0.5428049
13,Union Road,LN1 3BJ,53.2354320,-0.5428013
12,Union Road,LN1 3BJ,53.2354739,-0.5427956
31,Union Road,LN1 3BJ,53.2346923,-0.5428837
30,Steep Hill,LN2 1LU,53.2340919,-0.5389726
27,Steep Hill,LN2 1LU,53.2338766,-0.5389766
29,Steep Hill,LN2 1LU,53.2339958,-0.5390714
8-9,Castle Hill,LN1 3AA,53.2344638,-0.5386719
3,Bailgate,LN1 3AE,53.2345967,-0.5386779
5,Bailgate,LN1 3AE,53.2346941,-0.5386951
6-7,Bailgate,LN1 3AE,53.2347601,-0.5386422
9,Bailgate,LN1 3AE,53.2348589,-0.5386513
8,Bailgate,LN1 3AE,53.2348150,-0.5387438
11-12,Bailgate,LN1 3AE,53.2349464,-0.5388644
4,Bailgate,LN1 3AE,53.2346377,-0.5386147
10,Bailgate,LN1 3AE,53.2348868,-0.5387376
12A,Bailgate,LN1 3AE,53.2349993,-0.5387087
41,Westgate,LN1 3BG,53.2358912,-0.5410443
45,Westgate,LN1 3BG,53.2359273,-0.5411675
59,Westgate,LN1 3BG,53.2360211,-0.5416381
53,Westgate,LN1 3BG,53.2359786,-0.5414246
51,Westgate,LN1 3BG,53.2359695,-0.5413776
57,Westgate,LN1 3BG,53.2360045,-0.5415541
55,Westgate,LN1 3BG,53.2359953,-0.5415089
49,Westgate,LN1 3BG,53.2359529,-0.5412945
47,Westgate,LN1 3BG,53.2359439,-0.5412504
43,Westgate,LN1 3BG,53.2359180,-0.5411213
14,Bailgate,LN1 3AE,53.2350708,-0.5388843
9-10,St. Clements Court,LN1 3AD,53.2364512,-0.5398626
6,West Bight,LN1 3BE,53.2361891,-0.5398132
5,West Bight,LN1 3BE,53.2360724,-0.5397167
16,Westgate,LN1 3BD,53.2360141,-0.5399614
18,Westgate,LN1 3BD,53.2360870,-0.5400700
34-36,Westgate,LN1 3BD,53.2362576,-0.5404919
28,Westgate,LN1 3BD,53.2360924,-0.5405429
24,Westgate,LN1 3BD,53.2360400,-0.5403392
7,West Bight,LN1 3BE,53.2362212,-0.5397798
4,West Bight,LN1 3BE,53.2360401,-0.5396983
3,West Bight,LN1 3BE,53.2360043,-0.5396991
2,West Bight,LN1 3BE,53.2359370,-0.5397176
30,Westgate,LN1 3BD,53.2361181,-0.5406279
32,Westgate,LN1 3BD,53.2361317,-0.5406718
26,Westgate,LN1 3BD,53.2361088,-0.5404260
10,Westgate,LN1 3AS,53.2359555,-0.5389776
51,West Bight,LN1 3BE,53.2363172,-0.5392067
47,West Bight,LN1 3BE,53.2363428,-0.5393557
45,West Bight,LN1 3BE,53.2363447,-0.5394326
43,West Bight,LN1 3BE,53.2364632,-0.5393264
39,West Bight,LN1 3BE,53.2365742,-0.5392828
37,West Bight,LN1 3BE,53.2366299,-0.5392727
35,West Bight,LN1 3BE,53.2366862,-0.5392871
33,West Bight,LN1 3BE,53.2367372,-0.5392645
11-12,St. Clements Court,LN1 3AD,53.2365085,-0.5398578
7-8,St. Clements Court,LN1 3AD,53.2363948,-0.5398671
2-3,St. Clements Court,LN1 3AD,53.2365882,-0.5395798
8,Chapel Lane,LN1 3AZ,53.2369859,-0.5389578
25,Bailgate,LN1 3AP,53.2358967,-0.5385454
48,Bailgate,LN1 3AP,53.2369975,-0.5384484
46,Bailgate,LN1 3AP,53.2368840,-0.5384035
47,Bailgate,LN1 3AP,53.2369334,-0.5384910
2,Westgate,LN1 3AS,53.2358426,-0.5386538
30,Bailgate,LN1 3AP,53.2360953,-0.5385462
31,Bailgate,LN1 3AP,53.2361450,-0.5384664
32-33,Bailgate,LN1 3AP,53.2362172,-0.5384700
34,Bailgate,LN1 3AP,53.2363377,-0.5387407
35-36,Bailgate,LN1 3AP,53.2364037,-0.5384845
37,Bailgate,LN1 3AP,53.2364920,-0.5385271
38,Bailgate,LN1 3AP,53.2365383,-0.5384105
40,Bailgate,LN1 3AP,53.2366351,-0.5384116
39,Bailgate,LN1 3AP,53.2365875,-0.5384248
42-44,Bailgate,LN1 3AP,53.2367205,-0.5385351
45,Bailgate,LN1 3AP,53.2368288,-0.5384217
23-24,Bailgate,LN1 3AP,53.2358267,-0.5385661
26,Bailgate,LN1 3AP,53.2359506,-0.5385882
27,Bailgate,LN1 3AP,53.2359953,-0.5385733
29,Bailgate,LN1 3AP,53.2360429,-0.5385562
4,Chapel Lane,LN1 3AZ,53.2370193,-0.5387496
2,Chapel Lane,LN1 3AZ,53.2370352,-0.5386578
10,Chapel Lane,LN1 3AZ,53.2369419,-0.5390062
14,Chapel Lane,LN1 3AZ,53.2369056,-0.5391307
4,Westgate,LN1 3AS,53.2358761,-0.5387521
6,Westgate,LN1 3AS,53.2359069,-0.5388291
8,Westgate,LN1 3AS,53.2358905,-0.5388997
82-83,Bailgate,LN1 3AR,53.2352758,-0.5383547
79,Bailgate,LN1 3AR,53.2354611,-0.5382613
1,James Street,LN2 1QD,53.2351908,-0.5373184
2,James Street,LN2 1QD,53.2352823,-0.5373059
3,James Street,LN2 1QD,53.2353469,-0.5373611
5A,Eastgate,LN2 1QA,53.2350038,-0.5379237
1-2,Eastgate,LN2 1QA,53.2349425,-0.5382750
3,Eastgate,LN2 1QA,53.2349640,-0.5381682
4A,Eastgate,LN2 1QA,53.2350942,-0.5382087
4,Eastgate,LN2 1QA,53.2350192,-0.5380674
3,Eastgate,LN2 1QA,53.2350656,-0.5378791
6A,Eastgate,LN2 1QA,53.2351041,-0.5378125
6,Eastgate,LN2 1QA,53.2351614,-0.5376640
7,Eastgate,LN2 1QA,53.2351427,-0.5375125
4A,Eastgate,LN2 1QA,53.2350100,-0.5379739
89,Bailgate,LN1 3AR,53.2349455,-0.5383952
85-86,Bailgate,LN1 3AR,53.2351919,-0.5384583
87,Bailgate,LN1 3AR,53.2351566,-0.5384273
88 A-C,Bailgate,LN1 3AR,53.2350914,-0.5384187
88C,Bailgate,LN1 3AR,53.2350321,-0.5384009
1,Bailgate,LN1 3AR,53.2353550,-0.5383866
84,Bailgate,LN1 3AR,53.2352402,-0.5383818
64,Bailgate,LN1 3AR,53.2364272,-0.5380054
71,Bailgate,LN1 3AR,53.2361619,-0.5381430
72,Bailgate,LN1 3AR,53.2361188,-0.5381417
73,Bailgate,LN1 3AR,53.2360755,-0.5381314
74,Bailgate,LN1 3AR,53.2360399,-0.5382086
75,Bailgate,LN1 3AR,53.2360002,-0.5381857
69,Bailgate,LN1 3AR,53.2362085,-0.5380993
68,Bailgate,LN1 3AR,53.2362640,-0.5380431
60,Bailgate,LN1 3AR,53.2365884,-0.5380007
60 1/2,Bailgate,LN1 3AR,53.2365649,-0.5380050
59,Bailgate,LN1 3AR,53.2366239,-0.5379931
58,Bailgate,LN1 3AR,53.2366579,-0.5379762
62,Bailgate,LN1 3AR,53.2365113,-0.5380160
63,Bailgate,LN1 3AR,53.2364788,-0.5380228
66,Bailgate,LN1 3AR,53.2363499,-0.5380227
61,Bailgate,LN1 3AR,53.2365433,-0.5380096
65,Bailgate,LN1 3AR,53.2363950,-0.5380115
67,Bailgate,LN1 3AR,53.2363190,-0.5380430
36,Park Street,LN1 1UQ,53.2306126,-0.5415573
3,Beaumont Fee,LN1 1UH,53.2307722,-0.5419285
13,Beaumont Fee,LN1 1UH,53.2310783,-0.5419297
11,Beaumont Fee,LN1 1UH,53.2310207,-0.5418982
9,Beaumont Fee,LN1 1UH,53.2309689,-0.5418939
5,Beaumont Fee,LN1 1UH,53.2308599,-0.5418783
7,Beaumont Fee,LN1 1UH,53.2309133,-0.5418901
1,Beaumont Fee,LN1 1UH,53.2306512,-0.5419397
40,Park Street,LN1 1UQ,53.2306410,-0.5418753
38,Park Street,LN1 1UQ,53.2306259,-0.5417943
3-5,West Parade,LN1 1NL,53.2307632,-0.5413362
1,West Parade,LN1 1NL,53.2306581,-0.5412404
7,West Parade,LN1 1NL,53.2307961,-0.5414349
9,West Parade,LN1 1NL,53.2308769,-0.5415482
11,West Parade,LN1 1NL,53.2309764,-0.5416263
8A,Park Street,LN1 1UF,53.2304010,-0.5405328
56,Hungate,LN1 1ER,53.2305442,-0.5409821
10,Park Street,LN1 1UF,53.2304539,-0.5408445
238-244,High Street,LN2 1AT,53.2303768,-0.5401978
9,Corporation Street,LN2 1HL,53.2304580,-0.5403034
29,Corporation Street,LN2 1HL,53.2305903,-0.5409455
27,Corporation Street,LN2 1HL,53.2305737,-0.5408607
25,Corporation Street,LN2 1HL,53.2305619,-0.5408083
23,Corporation Street,LN2 1HL,53.2305514,-0.5407614
21,Corporation Street,LN2 1HL,53.2305345,-0.5406872
19,Corporation Street,LN2 1HL,53.2305183,-0.5406036
17,Corporation Street,LN2 1HL,53.2305079,-0.5405360
15,Corporation Street,LN2 1HL,53.2305002,-0.5404908
13,Corporation Street,LN2 1HL,53.2304935,-0.5404528
11,Corporation Street,LN2 1HL,53.2304844,-0.5403984
2,Park Street,LN1 1UF,53.2303682,-0.5405439
12,Mint Lane,LN1 1UD,53.2299553,-0.5417308
2-6,Mint Lane,LN1 1UD,53.2297968,-0.5416251
3,Newland,LN1 1UX,53.2296130,-0.5423348
4,Park Street,LN1 1UF,53.2301936,-0.5411272
226-231,High Street,LN2 1AY,53.2297542,-0.5408351
30,Clasketgate,LN2 1JN,53.2304009,-0.5385091
37,Silver Street,LN2 1EH,53.2301057,-0.5384552
287,High Street,LN2 1AL,53.2301679,-0.5396408
6,Silver Street,LN2 1EA,53.2296827,-0.5397561
5,Silver Street,LN2 1EA,53.2296644,-0.5398519
7-8,Silver Street,LN2 1EA,53.2296956,-0.5396547
1,High Street,LN2 1AJ,53.2298401,-0.5397969
3,High Street,LN2 1AJ,53.2297160,-0.5399734
4,High Street,LN2 1AJ,53.2296261,-0.5399988
2,High Street,LN2 1AJ,53.2297895,-0.5398082
284,High Street,LN2 1AL,53.2303401,-0.5397275
285,High Street,LN2 1AL,53.2303195,-0.5398132
290-291,High Street,LN2 1AL,53.2300058,-0.5398628
292-293,High Street,LN2 1AL,53.2299293,-0.5398874
288-289,High Street,LN2 1AL,53.2300551,-0.5395977
286,High Street,LN2 1AL,53.2302666,-0.5398027
10,Clasketgate,LN2 1JS,53.2303847,-0.5394494
12,Clasketgate,LN2 1JS,53.2303675,-0.5394083
6,Clasketgate,LN2 1JS,53.2303926,-0.5395693
14,Clasketgate,LN2 1JS,53.2303205,-0.5393680
16,Clasketgate,LN2 1JS,53.2303785,-0.5392421
2-4,Clasketgate,LN2 1JS,53.2304246,-0.5396944
282-283,High Street,LN2 1AL,53.2304086,-0.5397500
8,Clasketgate,LN2 1JS,53.2303908,-0.5395007
38,Silver Street,LN2 1EH,53.2300325,-0.5385031
39,Silver Street,LN2 1EH,53.2300678,-0.5386038
40,Silver Street,LN2 1EH,53.2300920,-0.5387950
42,Silver Street,LN2 1EH,53.2299233,-0.5389188
41,Silver Street,LN2 1EH,53.2299395,-0.5388388
44-45,Silver Street,LN2 1EH,53.2298928,-0.5390640
43,Silver Street,LN2 1EH,53.2299069,-0.5389886
46,Silver Street,LN2 1EH,53.2298109,-0.5392241
47,Silver Street,LN2 1EH,53.2297750,-0.5393419
47,Silver Street,LN2 1EH,53.2297093,-0.5394276
32,Clasketgate,LN2 1JS,53.2304032,-0.5382391
40,Silver Street,LN2 1EH,53.2299530,-0.5387030
21-23,Silver Street,LN2 1EW,53.2305816,-0.5367188
24,Silver Street,LN2 1EW,53.2305648,-0.5368632
25-26,Silver Street,LN2 1EW,53.2305480,-0.5369751
27-28,Silver Street,LN2 1EW,53.2305348,-0.5370645
29-30,Silver Street,LN2 1EW,53.2305146,-0.5371779
31,Silver Street,LN2 1EW,53.2304901,-0.5372716
36,Silver Street,LN2 1EW,53.2303362,-0.5377805
40,Clasketgate,LN2 1JZ,53.2304923,-0.5379401
42-46,Clasketgate,LN2 1JZ,53.2304920,-0.5377888
36A,Silver Street,LN2 1EW,53.2303470,-0.5379198
34-35,Silver Street,LN2 1EW,53.2304234,-0.5375935
32,Silver Street,LN2 1EW,53.2304700,-0.5373697
33,Silver Street,LN2 1EW,53.2304492,-0.5374588
41,Broadgate,LN2 5AE,53.2298451,-0.5366725
2,Free School Lane,LN2 1EY,53.2295531,-0.5378428
11,Silver Street,LN2 1DY,53.2295307,-0.5391191
9,Stonebow Centre,LN2 1DQ,53.2294315,-0.5391377
10,Stonebow Centre,LN2 1DQ,53.2293748,-0.5391330
11,Stonebow Centre,LN2 1DQ,53.2293110,-0.5391286
8,Stonebow Centre,LN2 1DQ,53.2295076,-0.5392249
1-2,Stonebow Centre,LN2 1DQ,53.2292139,-0.5393763
5,Saltergate,LN2 1DH,53.2292211,-0.5395821
3,Stonebow Centre,LN2 1DQ,53.2293472,-0.5393947
5,Stonebow Centre,LN2 1DQ,53.2294467,-0.5394758
9,Silver Street,LN2 1DY,53.2294565,-0.5394002
4,Stonebow Centre,LN2 1DQ,53.2294199,-0.5395510
6,Silver Street,LN2 1DY,53.2294076,-0.5397088
5,Silver Street,LN2 1DY,53.2293574,-0.5397897
4,Saltergate,LN2 1DH,53.2291938,-0.5397968
1,Silver Street,LN2 1DY,53.2293483,-0.5402863
2,Silver Street,LN2 1DY,53.2293875,-0.5401379
3,Silver Street,LN2 1DY,53.2293954,-0.5400311
295,High Street,LN2 1AH,53.2292740,-0.5403022
3,Saltergate,LN2 1DH,53.2291789,-0.5399126
2,Saltergate,LN2 1DH,53.2291839,-0.5399900
24,24 Guildhall Street,LN1 1TR,53.2292966,-0.5409238
18,Guildhall Street,LN1 1TR,53.2294196,-0.5417947
19-20,Guildhall Street,LN1 1TR,53.2294148,-0.5415548
21,Guildhall Street,LN1 1TR,53.2293232,-0.5413286
22,Guildhall Street,LN1 1TR,53.2293415,-0.5411898
23,Guildhall Street,LN1 1TR,53.2293124,-0.5410108
26-27,Guildhall Street,LN1 1TR,53.2292785,-0.5407517
4A,Beaumont Fee,LN1 1UU,53.2297126,-0.5425222
3A,Beaumont Fee,LN1 1UU,53.2296777,-0.5425298
1,Newland,LN1 1UX,53.2295294,-0.5422227
29-31,Mint Lane,LN1 1UB,53.2295786,-0.5418799
27,Mint Lane,LN1 1UB,53.2295922,-0.5416839
33-37,Mint Street,LN1 1UB,53.2295723,-0.5420246
37,Mint Lane,LN1 1UB,53.2295620,-0.5421183
1,Mint Lane,LN1 1UD,53.2296973,-0.5417653
21,Waterside North,LN2 5DQ,53.2284581,-0.5379008
3-5,St. Swithins Square,LN2 1HA,53.2286987,-0.5374724
Unit 2,St. Swithins Square,LN2 1HA,53.2287767,-0.5368799
Unit 2,St. Swithins Square,LN2 1HA,53.2287816,-0.5371359
1,St. Swithins Square,LN2 1HA,53.2287374,-0.5376594
302B,High Street,LN2 1AF,53.2285856,-0.5404035
298-299,High Street,LN2 1AF,53.2289097,-0.5403693
300,High Street,LN2 1AF,53.2288381,-0.5403775
301,High Street,LN2 1AF,53.2287713,-0.5403844
297,High Street,LN5 7AU,53.2289390,-0.5402586
297,High Street,LN2 1AF,53.2290405,-0.5402336
302A,High Street,LN2 1AF,53.2286432,-0.5403980
212,High Street,LN2 1AA,53.2286831,-0.5409507
214-215,High Street,LN2 1AA,53.2287290,-0.5409426
211,High Street,LN2 1AA,53.2286430,-0.5408135
6,Guildhall Street,LN1 1TT,53.2291183,-0.5410550
220-221,High Street,LN1 1TS,53.2290570,-0.5408380
16,Guildhall Street,LN1 1TT,53.2292637,-0.5420471
8-10,Guildhall Street,LN1 1TT,53.2291352,-0.5412891
7,Guildhall Street,LN1 1TT,53.2291111,-0.5411508
6A,Guildhall Street,LN1 1TT,53.2291235,-0.5411019
5,Guildhall Street,LN1 1TT,53.2291127,-0.5409972
4,Guildhall Street,LN1 1TT,53.2291033,-0.5409378
16,Guildhall Street,LN1 1TT,53.2291786,-0.5420699
11,Guildhall Street,LN1 1TT,53.2291507,-0.5414431
7,Kelsey Street,LN1 1XA,53.2290874,-0.5425916
2,Kelsey Street,LN1 1XA,53.2288950,-0.5425182
3,Kelsey Street,LN1 1XA,53.2289059,-0.5425776
4,Kelsey Street,LN1 1XA,53.2289074,-0.5426475
2,Newland,LN1 1XD,53.2292798,-0.5423661
4-10,Newland,LN1 1XD,53.2292923,-0.5425130
6,Water Lane,LN1 1TY,53.2291878,-0.5424150
22,Newland,LN1 1XD,53.2293869,-0.5432543
26-30,Newland,LN1 1XG,53.2294162,-0.5437570
2,Brayford Wharf North,LN1 1YX,53.2289501,-0.5436253
1,Brayford Wharf North,LN1 1YX,53.2286439,-0.5432990
3-4,Brayford Wharf North,LN1 1YW,53.2288232,-0.5437664
5,Brayford Wharf North,LN1 1YX,53.2288942,-0.5441938
130,Nettleham Road,LN2 1RX,53.2435206,-0.5262883
128,Nettleham Road,LN2 1RX,53.2434629,-0.5263533
124,Nettleham Road,LN2 1RX,53.2433286,-0.5265281
126,Nettleham Road,LN2 1RX,53.2433834,-0.5264660
132,Nettleham Road,LN2 1RX,53.2436077,-0.5262132
134,Nettleham Road,LN2 1RX,53.2436625,-0.5261561
136,Nettleham Road,LN2 1RX,53.2437341,-0.5260685
138,Nettleham Road,LN2 1RX,53.2437922,-0.5260105
142,Nettleham Road,LN2 1RX,53.2439354,-0.5258863
140,Nettleham Road,LN2 1RX,53.2438789,-0.5259450
146,Nettleham Road,LN2 1RX,53.2440842,-0.5257378
144,Nettleham Road,LN2 1RX,53.2440343,-0.5257924
9-38,Brayford Wharf North,LN1 1YW,53.2295355,-0.5454287
38-56,Brayford Wharf North,LN1 1YW,53.2300597,-0.5453352
Unit 5,Wigford Way,LN1 1YX,53.2289326,-0.5432278
4A,Wigford Way,LN1 1YX,53.2290685,-0.5432167
Unit 4,Wigford Way,LN1 1YX,53.2288072,-0.5432643
24,Newland,LN1 1XG,53.2294246,-0.5433982
9,Brayford Wharf North,LN1 1YX,53.2292827,-0.5452273
8,Brayford Wharf North,LN1 1YX,53.2292559,-0.5450719
9,Lucy Tower Street,LN1 1XW,53.2294787,-0.5446692
34,Newland,LN1 1XP,53.2299423,-0.5446226
72,Park Street,LN1 1UR,53.2298308,-0.5428126
68,Park Street,LN1 1UR,53.2299458,-0.5432375
15,Newland,LN1 1XG,53.2297696,-0.5434708
1,Park Street,LN1 1UR,53.2301047,-0.5427632
60,Park Street,LN1 1UR,53.2301478,-0.5431129
21,Newland,LN1 1XP,53.2300771,-0.5436245
25,Newland,LN1 1XP,53.2302145,-0.5440231
70,Park Street,LN1 1UR,53.2298568,-0.5429471
68A,Park Street,LN1 1UR,53.2298813,-0.5430252
27,Newland,LN1 1XP,53.2301997,-0.5441007
29,Newland,LN1 1XP,53.2302235,-0.5442125
31A,Newland,LN1 1XP,53.2302176,-0.5442951
62,Park Street,LN1 1UR,53.2301181,-0.5431168
64,Park Street,LN1 1UR,53.2300837,-0.5431237
58,Park Street,LN1 1UR,53.2301900,-0.5431045
56,Park Street,LN1 1UR,53.2302227,-0.5431009
54,Park Street,LN1 1UR,53.2302587,-0.5430953
52,Park Street,LN1 1UR,53.2302966,-0.5431056
66,Park Street,LN1 1UR,53.2300500,-0.5431276
28,West Parade,LN1 1JT,53.2314390,-0.5418888
19,Beaumont Fee,LN1 1EY,53.2315562,-0.5420541
21,Hungate,LN1 1ES,53.2315676,-0.5409063
16,Motherby Lane,LN1 1EX,53.2315641,-0.5412913
9,Hungate,LN1 1ES,53.2310151,-0.5410609
19-20,Hungate,LN1 1ES,53.2314548,-0.5408563
21,Beaumont Fee,LN1 1EY,53.2315924,-0.5420790
17,Beaumont Fee,LN1 1EY,53.2315216,-0.5420460
26,West Parade,LN1 1JT,53.2314085,-0.5417937
24,West Parade,LN1 1JT,53.2313580,-0.5417366
22,West Parade,LN1 1JT,53.2313333,-0.5416953
20,West Parade,LN1 1JT,53.2312939,-0.5416344
18,West Parade,LN1 1JT,53.2312687,-0.5415946
16,West Parade,LN1 1JT,53.2312369,-0.5415216
14,West Parade,LN1 1JT,53.2312117,-0.5414813
12,West Parade,LN1 1JT,53.2311616,-0.5414537
10,West Parade,LN1 1JT,53.2311284,-0.5414016
8,West Parade,LN1 1JT,53.2311204,-0.5413191
2,West Parade,LN1 1JT,53.2309271,-0.5410598
4,West Parade,LN1 1JT,53.2309578,-0.5411113
17,Motherby Lane,LN1 1EX,53.2315633,-0.5412359
15,Motherby Lane,LN1 1EX,53.2315653,-0.5413503
14,Motherby Lane,LN1 1EX,53.2315661,-0.5414063
13,Motherby Lane,LN1 1EX,53.2315667,-0.5414685
12,Motherby Lane,LN1 1EX,53.2315783,-0.5415447
11,Motherby Lane,LN1 1EX,53.2315694,-0.5416203
10,Hungate,LN1 1ES,53.2310593,-0.5410093
11,Hungate,LN1 1ES,53.2310834,-0.5409946
12,Hungate,LN1 1ES,53.2311276,-0.5409517
13,Hungate,LN1 1ES,53.2311598,-0.5409636
14,Hungate,LN1 1ES,53.2312017,-0.5409192
15,Hungate,LN1 1ES,53.2312377,-0.5409076
16,Hungate,LN1 1ES,53.2312766,-0.5408996
17-18,Hungate,LN1 1ES,53.2313367,-0.5408623
B,Grantham Street,LN2 1BD,53.2313378,-0.5381949
1-7,Museum Court,LN2 1JB,53.2313147,-0.5386442
4-7,Neustadt Court,LN2 1PG,53.2319940,-0.5386066
12,Neustadt Court,LN2 1PG,53.2319698,-0.5380026
C,Grantham Street,LN2 1BD,53.2314351,-0.5380229
1,Danes Terrace,LN2 1LP,53.2317363,-0.5373693
15,The Strait,LN2 1JD,53.2321413,-0.5388489
22,St. Martins Street,LN2 1JA,53.2322222,-0.5390335
14,The Strait,LN2 1JD,53.2320889,-0.5388970
58,Steep Hill,LN2 1LR,53.2324845,-0.5383380
3,Danesgate,LN2 1NB,53.2326092,-0.5377829
16,Corporation Street,LN2 1HN,53.2307265,-0.5404168
14,Corporation Street,LN2 1HN,53.2307141,-0.5403410
18,Corporation Street,LN2 1HN,53.2307395,-0.5404974
20-22,Corporation Street,LN2 1HN,53.2307876,-0.5406088
24,Corporation Street,LN2 1HN,53.2308072,-0.5407477
26,Corporation Street,LN2 1HN,53.2308206,-0.5408312
256,High Street,LN2 1HW,53.2310114,-0.5400254
245-246,High Street,LN2 1HW,53.2306465,-0.5401010
247,High Street,LN2 1HW,53.2307249,-0.5400654
255,High Street,LN2 1HW,53.2309543,-0.5400429
254,High Street,LN2 1HW,53.2308809,-0.5400114
253,High Street,LN2 1HW,53.2308139,-0.5400366
252,High Street,LN2 1HW,53.2307623,-0.5399961
257-259,High Street,LN2 1HX,53.2310923,-0.5398695
41 & A Half,Hungate,LN1 1ES,53.2312272,-0.5405872
41,Hungate,LN1 1ES,53.2312756,-0.5405464
107-115,Newark Road,LN5 8NQ,53.2094333,-0.5494709
280-281,High Street,LN2 1JG,53.2306450,-0.5396200
279A,High Street,LN2 1JG,53.2308204,-0.5396624
279,High Street,LN2 1JG,53.2307609,-0.5393705
271,High Street,LN2 1JG,53.2312395,-0.5395284
272,High Street,LN2 1JG,53.2311674,-0.5395592
270,High Street,LN2 1JG,53.2311658,-0.5393253
274-277,High Street,LN2 1JG,53.2310293,-0.5395063
278,High Street,LN2 1JG,53.2308910,-0.5396049
279,High Street,LN2 1JG,53.2307770,-0.5396222
5-7,Clasketgate,LN2 1LD,53.2306069,-0.5393735
269,High Street,LN2 1JG,53.2313011,-0.5393126
17,Clasketgate,LN2 1JJ,53.2306061,-0.5389148
19,Clasketgate,LN2 1JJ,53.2305925,-0.5387442
21-23,Clasketgate,LN2 1JJ,53.2305975,-0.5386575
27-29,Clasketgate,LN2 1JJ,53.2306459,-0.5384262
25,Clasketgate,LN2 1JJ,53.2306625,-0.5385413
1-8,Clasketgate,LN2 1LD,53.2307247,-0.5379402
53-57,Clasketgate,LN2 1BA,53.2307783,-0.5371879
51,Clasketgate,LN2 1LA,53.2307615,-0.5373591
49,Clasketgate,LN2 1LA,53.2307533,-0.5374456
41-47,Clasketgate,LN2 1LA,53.2307304,-0.5376497
62,Steep Hill,LN2 1LR,53.2322319,-0.5383958
59,Steep Hill,LN2 1LR,53.2324202,-0.5383581
60,Steep Hill,LN2 1LR,53.2323762,-0.5383628
64-65,Steep Hill,LN2 1LR,53.2321386,-0.5383635
1A,Danes Terrace,LN2 1LP,53.2321586,-0.5378897
1C,Danes Terrace,LN2 1LP,53.2321551,-0.5377668
13,Neustadt Court,LN2 1PG,53.2319344,-0.5379087
11,Neustadt Court,LN2 1PG,53.2319722,-0.5380989
10,Neustadt Court,LN2 1PG,53.2319727,-0.5381927
9,Neustadt Court,LN2 1PG,53.2319750,-0.5382863
8,Neustadt Court,LN2 1PG,53.2319772,-0.5383830
3,Neustadt Court,LN2 1PG,53.2319409,-0.5387549
2,Neustadt Court,LN2 1PG,53.2319042,-0.5388055
1,Neustadt Court,LN2 1PG,53.2318655,-0.5388481
A,Grantham Street,LN2 1BD,53.2312427,-0.5382292
8-18,Grantham Street,LN2 1JB,53.2314968,-0.5384667
268,High Street,LN2 1HW,53.2314455,-0.5393711
33,The Strait,LN2 1JD,53.2315335,-0.5391996
20,Museum Court,LN2 1JB,53.2316130,-0.5389086
21,Museum Court,LN2 1JB,53.2315760,-0.5387760
29-31,The Strait,LN2 1JD,53.2316377,-0.5391442
34,The Strait,LN2 1JD,53.2315409,-0.5393343
27,The Strait,LN2 1JD,53.2317316,-0.5390063
28,The Strait,LN2 1JD,53.2317006,-0.5390540
25-26,The Strait,LN2 1JF,53.2317731,-0.5388875
15,The Strait,LN2 1JD,53.2321228,-0.5388686
5,The Strait,LN2 1JD,53.2318207,-0.5392898
3-4,The Strait,LN2 1JD,53.2317389,-0.5392784
2,The Strait,LN2 1JD,53.2316956,-0.5393623
13,The Strait,LN2 1JD,53.2320498,-0.5389093
12,The Strait,LN2 1JD,53.2320321,-0.5389690
10,The Strait,LN2 1JD,53.2319921,-0.5389966
8-9,The Strait,LN2 1JD,53.2319422,-0.5390890
7,The Strait,LN2 1JD,53.2318871,-0.5391651
6,The Strait,LN2 1JD,53.2318523,-0.5392239
266,High Street,LN2 1HW,53.2316444,-0.5394678
4,Danesgate,LN2 1NB,53.2326343,-0.5377190
7,Danesgate,LN2 1NB,53.2326627,-0.5375561
6,Danesgate,LN2 1NB,53.2326537,-0.5376082
5,Danesgate,LN2 1NB,53.2326442,-0.5376639
2,Danesgate,LN2 1NB,53.2326035,-0.5378401
1,Danesgate,LN2 1NB,53.2325924,-0.5378915
4,Well Lane,LN2 1NA,53.2325374,-0.5379539
3,Well Lane,LN2 1NA,53.2325686,-0.5380348
45,Danesgate,LN2 1ND,53.2324232,-0.5372583
47,Danesgate,LN2 1ND,53.2324847,-0.5372832
49,Danesgate,LN2 1ND,53.2325314,-0.5373141
51,Danesgate,LN2 1ND,53.2325857,-0.5373192
53,Danesgate,LN2 1ND,53.2326348,-0.5373484
20,Minster Yard,LN2 1PY,53.2345303,-0.5378342
45,Steep Hill,LN2 1LU,53.2337743,-0.5386868
18,Minster Yard,LN2 1PX,53.2340770,-0.5381097
23,Minster Yard,LN2 1PY,53.2347476,-0.5375062
21,Minster Yard,LN2 1PY,53.2346002,-0.5377100
22,Minster Yard,LN2 1PY,53.2346731,-0.5376197
19,Minster Yard,LN2 1PY,53.2344179,-0.5379401
27,Minster Yard,LN2 1PY,53.2349114,-0.5371590
25,Minster Yard,LN2 1PY,53.2349116,-0.5373006
91,Bailgate,LN1 3AR,53.2347093,-0.5379746
49,Steep Hill,LN2 1LR,53.2333377,-0.5383893
4,Ventnor Terrace,LN2 1LZ,53.2329095,-0.5375481
2,Greestone Place,LN2 1PP,53.2332797,-0.5348818
1,Vicar's Court,LN2 1PT,53.2334791,-0.5351941
16,Minster Yard,LN2 1PX,53.2336756,-0.5356652
1,Exchequergate,LN2 1PZ,53.2342592,-0.5385391
1,Exchequergate,LN2 1PZ,53.2342316,-0.5383623
46,Steep Hill,LN2 1LU,53.2337003,-0.5386082
47,Steep Hill,LN2 1LU,53.2336413,-0.5385910
44,Steep Hill,LN2 1LU,53.2338637,-0.5386958
43,Steep Hill,LN2 1LU,53.2339192,-0.5386807
41,Steep Hill,LN2 1LU,53.2339872,-0.5386540
40,Steep Hill,LN2 1LU,53.2340298,-0.5386468
39,Steep Hill,LN2 1LU,53.2340817,-0.5386565
37,Steep Hill,LN2 1LU,53.2341310,-0.5386423
36,Steep Hill,LN2 1LU,53.2341453,-0.5385574
1,Christ's Hospital Terrace,LN2 1LY,53.2336200,-0.5385214
14,Minster Yard,LN2 1PW,53.2337056,-0.5343088
13A,Minster Yard,LN2 1PW,53.2337474,-0.5339125
16A,Minster Yard,LN2 1PX,53.2337791,-0.5356547
4,Lindum Road,LN2 1NN,53.2320837,-0.5348780
1,Lindum Road,LN2 1NN,53.2319503,-0.5353325
2,Lindum Road,LN2 1NN,53.2320093,-0.5351891
2,Greestone Terrace,LN2 1PR,53.2327884,-0.5337178
20,Lindum Road,LN2 1NS,53.2327193,-0.5325438
11,Lindum Road,LN2 1NS,53.2325215,-0.5332466
13,Minster Yard,LN2 1PW,53.2337244,-0.5340638
14,Minster Yard,LN2 1PW,53.2335796,-0.5350726
1,Greestone Place,LN2 1PP,53.2334909,-0.5349641
1A,Vicar's Court,LN2 1PT,53.2335698,-0.5352341
2A,Vicar's Court,LN2 1PT,53.2333481,-0.5351379
2,Vicar's Court,LN2 1PT,53.2332272,-0.5351217
4A,Vicar's Court,LN2 1PT,53.2335142,-0.5357606
4,Vicar's Court,LN2 1PT,53.2333968,-0.5357612
59,Danesgate,LN2 1ND,53.2328302,-0.5382170
57,Danesgate,LN2 1ND,53.2327807,-0.5381178
52-53,Steep Hill,LN2 1LR,53.2331138,-0.5383745
51,Steep Hill,LN2 1LR,53.2331739,-0.5383841
3,Ventnor Terrace,LN2 1LZ,53.2328930,-0.5376613
2,Ventnor Terrace,LN2 1LZ,53.2328816,-0.5377395
42,Steep Hill,LN2 1LU,53.2339540,-0.5386937
2,Christ's Hospital Terrace,LN2 1LY,53.2336310,-0.5383992
4,Christ's Hospital Terrace,LN2 1LY,53.2336252,-0.5382700
49-50,Steep Hill,LN2 1LR,53.2332526,-0.5383975
12,Lindum Road,LN2 1NS,53.2325464,-0.5331562
13,Lindum Road,LN2 1NS,53.2325756,-0.5330720
14,Lindum Road,LN2 1NS,53.2325687,-0.5329845
15,Lindum Road,LN2 1NS,53.2325861,-0.5329105
16,Lindum Road,LN2 1NS,53.2326044,-0.5328405
17,Lindum Road,LN2 1NS,53.2326366,-0.5327719
18,Lindum Road,LN2 1NS,53.2326259,-0.5326943
19,Lindum Road,LN2 1NS,53.2326464,-0.5326087
19A,Lindum Road,LN2 1NS,53.2326796,-0.5325381
21,Lindum Road,LN2 1NS,53.2327503,-0.5325613
22,Lindum Road,LN2 1NS,53.2327857,-0.5326178
2,Greestone Terrace,LN2 1PR,53.2328065,-0.5340355
1,Greestone Terrace,LN2 1PR,53.2328190,-0.5342124
3,Lindum Road,LN2 1NN,53.2320406,-0.5350831
34,Hungate,LN1 1ET,53.2320739,-0.5404505
34 and a half,Hungate,LN1 1ET,53.2319976,-0.5404953
11,Garmston Street,LN2 1HZ,53.2319358,-0.5400787
12,St. Martins Street,LN2 1JA,53.2323127,-0.5393334
31 and a half,Hungate,LN1 1ET,53.2322511,-0.5403257
21-22,Steep Hill,LN2 1LT,53.2333860,-0.5386248
10,Steep Hill,LN2 1LT,53.2326779,-0.5386244
36,Michaelgate,LN1 3BT,53.2331734,-0.5389583
10,St. Martins Street,LN2 1JA,53.2322482,-0.5393763
8,St. Martins Street,LN2 1JA,53.2321854,-0.5394197
4,St. Martins Street,LN2 1JA,53.2320972,-0.5394796
2,St. Martins Street,LN2 1JA,53.2320522,-0.5395096
6,St. Martins Street,LN2 1JA,53.2321411,-0.5394500
10,Garmston Street,LN2 1HZ,53.2319284,-0.5400042
12,Garmston Street,LN2 1HZ,53.2319390,-0.5401374
13,Garmston Street,LN2 1HZ,53.2319567,-0.5402754
13,Garmston Street,LN2 1HZ,53.2319500,-0.5402094
33 and a half,Hungate,LN1 1ET,53.2321211,-0.5404288
32,Hungate,LN1 1ET,53.2322013,-0.5403795
9,Steep Hill,LN2 1LT,53.2325891,-0.5386802
8,Steep Hill,LN2 1LT,53.2325479,-0.5386652
35,Newland,LN1 1XP,53.2303257,-0.5444694
42,Michaelgate,LN1 3BT,53.2333868,-0.5387236
14,Steep Hill,LN2 1LT,53.2330676,-0.5385813
20,Steep Hill,LN2 1LT,53.2333075,-0.5386057
19,Steep Hill,LN2 1LT,53.2332542,-0.5386160
18,Steep Hill,LN2 1LT,53.2332222,-0.5385746
17,Steep Hill,LN2 1LT,53.2331851,-0.5385899
15,Steep Hill,LN2 1LT,53.2331080,-0.5385899
16,Steep Hill,LN2 1LT,53.2331511,-0.5385924
13,Steep Hill,LN2 1LT,53.2330183,-0.5386654
12,Steep Hill,LN2 1LT,53.2329700,-0.5385943
11A,Steep Hill,LN2 1LT,53.2329134,-0.5386553
11,Steep Hill,LN2 1LT,53.2328756,-0.5387956
40,Michaelgate,LN1 3BT,53.2333438,-0.5387784
143-147,High Street,LN5 7PJ,53.2242710,-0.5435335
18A,Carholme Road,LN1 1RR,53.2310640,-0.5507281
55,Croft Street,LN2 5AZ,53.2294255,-0.5320879
55,Croft Street,LN2 5AZ,53.2296139,-0.5320856
55,Croft Street,LN2 5AZ,53.2294970,-0.5320887
1,Lawn Cottages,LN1 3BH,53.2364771,-0.5439003
9,Moorland Way,LN6 7JW,53.2031334,-0.5822068
