House number,Street name,Postal code,Latitude,Longitude
125,Buckingham Road,MK3 5HZ,51.9910348,-0.7541852
602,Marlborough Gate,MK9 3XA,52.0411239,-0.7487835
602,Marlborough Gate,MK9 3XA,52.0411241,-0.7496565
23,Farthing Grove,MK6 4JH,52.0225780,-0.7342061
15,Newport Road,MK15 0AE,52.0449488,-0.7273497
8,Swinden Court,MK13 7PN,52.0507315,-0.7798389
2,Wandsworth Place,MK13 8BT,52.0451769,-0.7680359
1,Germander Place,MK14 7DU,52.0484985,-0.7626394
2,Bradwell Road,MK5 8AJ,52.0285226,-0.7844244
41,Dulverton Drive,MK4 1EN,52.0088739,-0.7725619
101,Bradwell Road,MK13 7AW,52.0593281,-0.7850991
103-105,Bradwell Road,MK13 7AW,52.0591309,-0.7850897
1,Pimlico Court,MK10 9RH,52.0341254,-0.7102997
24,Mercers Drive,MK13 7AY,52.0597116,-0.7791943
127,Bradwell Common Boulevard,MK13 8DY,52.0446113,-0.7715526
127,Downs Barn Boulevard,MK14 7QB,52.0538922,-0.7477036
11,Duckworth Court,MK6 2RX,52.0291456,-0.7602478
19,North Street,MK13 0EE,52.0652423,-0.7892129
124,Newport Road,MK13 0AA,52.0658450,-0.7908877
21,Newport Road,MK13 0AG,52.0660538,-0.7894924
9,Granville Square,MK15 9JL,52.0626431,-0.7322080
11,Granville Square,MK15 9JL,52.0626848,-0.7319250
63-65,Dulverton Drive,MK4 1EW,52.0090586,-0.7730860
22,Fyfield Barrow,MK7 7AN,52.0225764,-0.6902004
20,Fyfield Barrow,MK7 7AN,52.0226019,-0.6900463
18,Fyfield Barrow,MK7 7AN,52.0226099,-0.6899851
12,Fyfield Barrow,MK7 7AN,52.0226629,-0.6895125
33,Tickford Street,MK16 9AE,52.0851573,-0.7181195
6,Coopers Mews,MK14 6HD,52.0597359,-0.7538813
247,Oldbrook Boulevard,MK6 2QA,52.0340833,-0.7523078
4,Harrier Court,MK6 5BZ,52.0323697,-0.7409079
5,Harrier Court,MK6 5BZ,52.0323209,-0.7406525
6,Vicarage Road,MK13 9AQ,52.0486692,-0.7878977
11,Lock View Lane,MK1 1BY,52.0006568,-0.7148741
361,Midsummer Boulevard,MK9 3HP,52.0396775,-0.7627773
312,Midsummer Boulevard,MK9 2EA,52.0384770,-0.7633272
34a,Mortimer Square,MK9 2FB,52.0378418,-0.7627290
4,Mortimer Square,MK9 2FB,52.0376288,-0.7627995
5,Mortimer Square,MK9 2FB,52.0375355,-0.7630229
10,Mortimer Square,MK9 2FB,52.0375011,-0.7634532
3,Holkham Walk,MK9 2FS,52.0372322,-0.7632159
301,Avebury Boulevard,MK9 2GA,52.0369723,-0.7629248
556,Elder Gate,MK9 1LR,52.0341182,-0.7717213
552,Elder Gate,MK9 1LR,52.0338474,-0.7723784
500,Elder Gate,MK9 1BB,52.0340582,-0.7732511
500,Elder Gate,MK9 1BB,52.0348254,-0.7740859
26,Gurnards Avenue,MK6 2BL,52.0386917,-0.7471830
806-808,Midsummer Boulevard,MK9 3BD,52.0439172,-0.7504493
316,Midsummer Boulevard,MK9 2EA,52.0386269,-0.7629125
54,Lennon Drive,MK8 0AS,52.0264193,-0.8025477
71,London Road,MK5 8AF,52.0259784,-0.7841516
130,Dunthorne Way,MK8 0LW,52.0220557,-0.8066328
31,Singleton Drive,MK8 0PX,52.0218503,-0.8073181
20,Mortimer Square,MK9 2FB,52.0377099,-0.7637013
1,Mortimer Square,MK9 2FB,52.0377266,-0.7625686
25,Mortimer Square,MK9 2EA,52.0381752,-0.7637110
14,Duckworth Court,MK6 2RX,52.0290865,-0.7616486
6,Duckworth Court,MK6 2RX,52.0294614,-0.7608096
28,Buckingham Road,MK3 5HL,51.9927694,-0.7415789
8,Shenley Road,MK3 6EZ,51.9920168,-0.7537877
14,White Horse Drive,MK4 2AS,52.0016775,-0.7674790
6,Colossus Way,MK3 6GW,52.0001313,-0.7435951
22,St James Street,MK13 0BJ,52.0649533,-0.7934710
189,Newport Road,MK13 0AL,52.0646418,-0.7978628
26b,Fyfield Barrow,MK7 7AN,52.0222681,-0.6904807
12a,Station Road,MK17 8RW,52.0124556,-0.6477650
16,Elthorne Way,MK16 0JR,52.0785780,-0.7292476
18,Elthorne Way,MK16 0JQ,52.0783769,-0.7296392
82,High Street,MK16 8AQ,52.0865724,-0.7247006
5,Cofferidge Close,MK11 1BY,52.0558238,-0.8522395
52-56,Midsummer Arcade,MK9 3BB,52.0426257,-0.7566791
602,Marlborough Gate,MK9 3XA,52.0421195,-0.7481389
602,Marlborough Gate,MK9 3XA,52.0410800,-0.7484640
2,Sunset Walk,MK9 3PD,52.0417942,-0.7592306
11,Field Walk,MK9 3EP,52.0451385,-0.7518995
500,Midsummer Boulevard,MK9 3NZ,52.0443240,-0.7490010
68,Bradwell Common Boulevard,MK13 8RN,52.0420041,-0.7751155
117,High Street,MK16 8EN,52.0854976,-0.7260892
84,The High Street,MK8 8HL,52.0379510,-0.8015510
8,Wolverton Road,MK11 1DX,52.0560148,-0.8502117
1a,Roebuck Way,MK5 8HL,52.0213052,-0.7706910
15,Duckworth Court,MK6 2RX,52.0292483,-0.7612631
149,Grafton Gate East,MK9 1AE,52.0386723,-0.7720047
17,Carters Lane,MK11 3ER,52.0457337,-0.8295224
2,Carters Lane,MK11 3AA,52.0477379,-0.8286319
3,Erica Road,MK12 6HS,52.0513245,-0.7981970
100,Queensway,MK2 2RU,51.9944127,-0.7312901
75-77,Queensway,MK2 2DW,51.9947723,-0.7305661
87,Queensway,MK2 2DW,51.9948275,-0.7302302
140,Queensway,MK2 2AA,51.9946432,-0.7294598
127-129,Queensway,MK2 2DH,51.9950920,-0.7286859
9,London Road,MK11 1JA,52.0555169,-0.8501261
68,Bradwell Common Boulevard,MK13 8RN,52.0419918,-0.7754018
51,Dulverton Drive,MK4 1EN,52.0087294,-0.7727823
19,Farthing Grove,MK6 4JH,52.0227464,-0.7343456
18,Carters Lane,MK11 3ES,52.0455060,-0.8297173
35-37,Silbury Arcade,MK9 3AG,52.0430154,-0.7580023
615,Silbury Boulevard,MK9 3AR,52.0439707,-0.7585379
121,Bradwell Common Boulevard,MK13 8DY,52.0443335,-0.7719893
25,Witham Court,MK3 7QU,51.9999184,-0.7668863
602,Marlborough Gate,MK9 3XA,52.0418811,-0.7489833
3,Swinden Court,MK13 7PN,52.0507570,-0.7793842
6,Swinden Court,MK13 7PN,52.0507356,-0.7796981
7,Swinden Court,MK13 7PN,52.0507324,-0.7797628
30-32,High Street,MK16 8AQ,52.0870983,-0.7213102
1,Saville Lane,MK4 4EN,52.0063682,-0.7957249
602,Marlborough Gate,MK9 3XA,52.0415421,-0.7500105
261,Conniburrow Boulevard,MK14 7AE,52.0503644,-0.7579157
263,Conniburrow Boulevard,MK14 7AF,52.0505591,-0.7574611
5,Tower Crescent,MK14 6JY,52.0603570,-0.7471027
3,Tower Crescent,MK14 6JY,52.0604926,-0.7473192
3,Tower Crescent,MK14 6JY,52.0604585,-0.7472557
17,Tower Crescent,MK14 6JY,52.0606168,-0.7480113
1,Wolverton Road,MK16 8BG,52.0823676,-0.7414060
50,High Street,MK16 8AQ,52.0868783,-0.7224475
50,Wordsworth Avenue,MK16 8SB,52.0875624,-0.7436646
6,Wordsworth Avenue,MK16 8SB,52.0866916,-0.7432514
175,Newport Road,MK13 0AL,52.0648848,-0.7973877
30,St James Street,MK13 0BJ,52.0646752,-0.7932998
4,Tower Crescent,MK14 6JY,52.0603991,-0.7471689
2,The Square,MK12 5DG,52.0609127,-0.8103519
11,Stratford Road,MK12 5LJ,52.0631445,-0.8094983
52,Church Street,MK12 5JW,52.0623008,-0.8106446
22,High Street,MK13 0BT,52.0651009,-0.7906620
48,High Street,MK13 0BT,52.0647532,-0.7916960
32,St James Street,MK13 0BH,52.0645554,-0.7931517
44B,High Street,MK13 0BT,52.0648425,-0.7914214
42,High Street,MK13 0BT,52.0648767,-0.7913270
64,High Street,MK11 1AQ,52.0572820,-0.8533739
72-74,High Street,MK11 1AH,52.0575704,-0.8538605
9,Market Square,MK11 1BE,52.0558284,-0.8540071
87,High Street,MK11 1AT,52.0579698,-0.8551141
64,High Street,MK11 1AQ,52.0573326,-0.8534698
602,Marlborough Gate,MK9 3XA,52.0410190,-0.7494973
602,Marlborough Gate,MK9 3XA,52.0411924,-0.7494671
602,Marlborough Gate,MK9 3XA,52.0417195,-0.7495810
57,Dulverton Drive,MK4 1EN,52.0086996,-0.7728517
2,Barford,MK11 1PE,52.0516923,-0.8373339
7,St Pauls Court,MK11 1LJ,52.0591932,-0.8561089
602,Marlborough Gate,MK9 3XA,52.0420420,-0.7483743
2,Redgrave Drive,MK4 4TB,52.0074872,-0.8035555
76,Holst Crescent,MK7 8QU,52.0150970,-0.6785826
19,St John Street,MK16 8HE,52.0863248,-0.7213987
180,Waterside,MK6 3PE,52.0281129,-0.7308815
25,Mortimer Square,MK9 2FB,52.0379697,-0.7635995
45,Winchester Circle,MK10 0AH,52.0368564,-0.6913171
44,Winchester Circle,MK10 0AH,52.0367958,-0.6911796
"15,17",Melrose Avenue,MK3 6PB,52.0058966,-0.7487375
1-3,Melrose Avenue,MK3 6PB,52.0058983,-0.7492498
28,Mortimer Square,MK9 2FB,52.0380360,-0.7634049
108a,Church Street,MK12 5JW,52.0623286,-0.8125703
50,Egerton Gate,MK5 7HH,52.0142676,-0.7811355
132,Dunthorne Way,MK8 0LW,52.0215891,-0.8069908
56,Egerton Gate,MK5 7HH,52.0144343,-0.7814198
14,Barnsdale Drive,MK4 4DD,52.0042400,-0.7951350
45,Singleton Drive,MK8 0PX,52.0218077,-0.8072618
49,High Street,MK17 8YX,52.0120239,-0.6472105
3,Wolverton Road,MK11 1DZ,52.0559955,-0.8508392
41,High Street,MK11 1AA,52.0566882,-0.8526509
61,Wolverton Road,MK11 1ED,52.0574427,-0.8476789
1,St John Street,MK16 8HE,52.0867117,-0.7220629
5,St John Street,MK16 8HE,52.0865815,-0.7219796
7-9,St John Street,MK16 8HE,52.0865118,-0.7218524
8,St John Street,MK16 8HN,52.0864952,-0.7222771
18-20,St John Street,MK16 8HJ,52.0862323,-0.7216890
44,High Street,MK16 8AQ,52.0869423,-0.7221235
57,High Street,MK16 8AT,52.0866924,-0.7226327
63,High Street,MK16 8AT,52.0866375,-0.7229175
33,High Street,MK16 8AR,52.0869265,-0.7212902
22-24,High Street,MK16 8YX,52.0871809,-0.7210099
13,High Street,MK16 8AR,52.0871836,-0.7204696
20-22,Elthorne Way,MK16 0JR,52.0784363,-0.7295399
198,Water Eaton Road,MK2 3AQ,51.9891012,-0.7229323
34,High Street,MK16 8AQ,52.0870459,-0.7216077
89a,High Street,MK16 8AB,52.0862157,-0.7248172
48,High Street,MK16 8AQ,52.0869014,-0.7223040
101,High Street,MK16 8EN,52.0858885,-0.7254609
85,High Street,MK16 8AB,52.0863171,-0.7244564
93,High Street,MK16 8EN,52.0860435,-0.7252517
95,High Street,MK16 8EN,52.0859999,-0.7253322
66,High Street,MK16 8AQ,52.0867077,-0.7234077
107,High Street,MK16 8EN,52.0858078,-0.7256299
54,High Street,MK16 8AQ,52.0868420,-0.7226352
32a,High Street,MK16 8AQ,52.0870530,-0.7215503
8,Colossus Way,MK3 6GW,52.0001007,-0.7434773
1,Stadium Way West,MK1 1ST,52.0102030,-0.7378123
25,Farthing Grove,MK6 4JH,52.0225144,-0.7341733
802,Midsummer Boulevard,MK9 3QA,52.0438715,-0.7507391
101-103,Queensway,MK2 2DW,51.9949004,-0.7297213
107,Chepstow Drive,MK3 5DA,51.9889826,-0.7693043
105,Chepstow Drive,MK3 5NG,51.9889279,-0.7691635
8/10,High Street,MK17 8RN,52.0123577,-0.6477249
25-27,High Street,MK17 8RF,52.0113259,-0.6468026
51,High Street,MK17 8QY,52.0120869,-0.6472591
33,High Street,MK17 8RB,52.0115851,-0.6470231
12,High Street,MK17 8RB,52.0114621,-0.6469426
23,High Street,MK17 8RF,52.0112437,-0.6467502
55,High Street,MK17 8QY,52.0121786,-0.6472993
53,High Street,MK17 8QY,52.0121307,-0.6472806
57,High Street,MK17 8QY,52.0122157,-0.6473195
148-150,Station Road,MK17 8SG,52.0181068,-0.6539114
500,Elder Gate,MK9 1BB,52.0346063,-0.7738449
86,Kirkwood Grove,MK5 6FP,52.0192033,-0.8072078
500,Elder Gate,MK9 1BB,52.0347244,-0.7739820
1,Elder Gate,MK9 1BE,52.0353571,-0.7744852
600,Elder Gate,MK9 1LR,52.0342539,-0.7713901
500,Elder Gate,MK9 1BB,52.0349205,-0.7741901
302,Elder Gate,MK9 1LA,52.0337832,-0.7745546
302,Elder Gate,MK9 1LA,52.0338553,-0.7743622
302,Elder Gate,MK9 1LA,52.0339556,-0.7741507
215,Queensway,MK2 2YY,51.9959487,-0.7250591
49,Singleton Drive,MK8 0PX,52.0217055,-0.8071327
4a,Benbow Court,MK5 6JG,52.0264027,-0.7888211
1,Harnett Drive,MK12 5RT,52.0599323,-0.8343324
436,Midsummer Boulevard,MK9 2EA,52.0397409,-0.7602333
1,Potters Lane,MK11 3HE,52.0486944,-0.8202404
49,High Street,MK11 1AA,52.0568872,-0.8530163
602,Marlborough Gate,MK9 3XS,52.0419132,-0.7476997
330,Saxon Gate West,MK9 2ES,52.0408413,-0.7612045
55,Milton Drive,MK16 9BT,52.0861952,-0.7119126
2,Cannon Harnett Court,MK12 5NF,52.0596954,-0.8351844
28,Heathfield,MK12 6HR,52.0490733,-0.8019943
18,Crown Walk,MK9 3AH,52.0429939,-0.7562933
93,Midsummer Arcade,MK9 3BB,52.0433903,-0.7551990
94-98,Silbury Arcade,MK9 3AG,52.0437353,-0.7552620
1,Babbage Gate,MK10 9SU,52.0387510,-0.7134137
1a-1b,Syward Row,MK12 5QA,52.0581183,-0.8251482
11,Stadium Way West,MK1 1ST,52.0108627,-0.7344770
8,Stadium Way West,MK1 1ST,52.0105441,-0.7362728
10,Stadium Way West,MK1 1ST,52.0108330,-0.7346219
14,Stadium Way West,MK1 1ST,52.0110014,-0.7338815
13,Stadium Way West,MK1 1ST,52.0109156,-0.7342358
4,Granville Square,MK15 9JL,52.0624723,-0.7318294
4a,Snowdon Drive,MK6 1AJ,52.0305200,-0.7651456
95,Manor Road,MK2 2GT,51.9893484,-0.7216604
16,The Square,MK12 5DG,52.0613033,-0.8104072
36,Church Street,MK12 5JN,52.0624438,-0.8094460
1,Stratford Road,MK12 5LJ,52.0632959,-0.8084774
6,Church Street,MK11 1EJ,52.0578838,-0.8538912
42-44,High Street,MK11 1AQ,52.0568537,-0.8526077
34,High Street,MK11 1AF,52.0566473,-0.8522920
6,High Street,MK11 1AF,52.0561191,-0.8512632
10,High Street,MK11 1AF,52.0561659,-0.8513624
173,Newport Road,MK13 0AJ,52.0649590,-0.7971946
28,Secklow Gate West,MK9 3EH,52.0447383,-0.7571442
42,Church Street,MK12 5JN,52.0623856,-0.8100372
8,Church Street,MK12 5JN,52.0625732,-0.8083226
50,Winchester Circle,MK10 0BA,52.0348659,-0.6903864
2a,Winchester Circle,MK10 0BA,52.0347282,-0.6901977
161A,Ramsons Avenue,MK14 7BE,52.0503416,-0.7539508
60 The Triangle,Wolverton Park Road,MK12 5FJ,52.0643643,-0.8060258
113,Serpentine Court,MK2 3QN,51.9806941,-0.7257340
106,Serpentine Court,MK2 3QL,51.9806565,-0.7259408
48,Winchester Circle,MK10 0BA,52.0349917,-0.6905860
46,Wordsworth Avenue,MK16 8SB,52.0874077,-0.7436064
44,Wordsworth Avenue,MK16 8SB,52.0872808,-0.7431621
50,Lennon Drive,MK8 0AS,52.0263071,-0.8022447
2,Dunthorne Way,MK8 0DZ,52.0235883,-0.8089636
Newhill Place,Singleton Drive,MK8 0PX,52.0219535,-0.8074649
29,Singleton Drive,MK8 0PX,52.0218754,-0.8073634
6,Cochran Close,MK8 0AJ,52.0275936,-0.7992253
2,Darin Court,MK8 0AD,52.0305658,-0.7984523
2A,Benbow Court,MK5 6JG,52.0266988,-0.7885876
13,Benbow Court,MK5 6JG,52.0263982,-0.7882741
2,Benbow Court,MK5 6JG,52.0260569,-0.7892717
32,Benbow Court,MK5 6JG,52.0261704,-0.7889688
4,Benbow Court,MK5 6JG,52.0260554,-0.7890955
24,Stratford Road,MK12 5LW,52.0629283,-0.8109716
28,Stratford Road,MK12 5LW,52.0628640,-0.8113310
49-50,Stratford Road,MK12 5LT,52.0626501,-0.8134541
42,Church Street,MK12 5JN,52.0624009,-0.8099180
34,Church Street,MK12 5JN,52.0624561,-0.8093631
25,Buckingham Street,MK12 5JA,52.0614550,-0.8097881
8,The Square,MK12 5DG,52.0610956,-0.8103551
5,Radcliffe Street,MK12 5DQ,52.0613472,-0.8097493
15-17,The Square,MK12 5DG,52.0611155,-0.8097175
5,Glyn Square,MK12 5JQ,52.0628088,-0.8071771
3,Glyn Square,MK12 5JQ,52.0631458,-0.8073153
4,Glyn Square,MK12 5JQ,52.0630102,-0.8072337
1-2,Glyn Square,MK12 5JQ,52.0632766,-0.8074008
8,Barnsdale Drive,MK4 4DD,52.0043145,-0.7945616
5,Barnsdale Drive,MK4 4DD,52.0041875,-0.7943759
6,Barnsdale Drive,MK4 4DD,52.0042241,-0.7944272
7,Barnsdale Drive,MK4 4DD,52.0042605,-0.7944917
17-18,Barnsdale Drive,MK4 4DD,52.0040640,-0.7954477
4,Wimborne Crescent,MK4 4DE,52.0041811,-0.7954430
9,Barnsdale Drive,MK4 4DD,52.0043501,-0.7946213
19,St. Marys Avenue,MK3 5DT,51.9899478,-0.7582781
13,St. Marys Avenue,MK3 5DT,51.9898881,-0.7582082
27,St. Marys Avenue,MK3 5DT,51.9900755,-0.7584199
28,St. Marys Avenue,MK3 5DT,51.9901979,-0.7581138
20,St. Marys Avenue,MK3 5DT,51.9900815,-0.7579832
14,St. Marys Avenue,MK3 5DT,51.9900270,-0.7579157
22,Winfold Lane,MK4 3DA,52.0018368,-0.7789180
55-57,Silbury Arcade,MK9 3AG,52.0433395,-0.7572293
309,Avebury Boulevard,MK9 2GA,52.0371039,-0.7625675
5,Oliver Road,MK2 2SF,51.9939458,-0.7326567
3,Oliver Road,MK2 2SF,51.9941341,-0.7327788
96,Queensway,MK2 2SA,51.9943872,-0.7314319
68,Queensway,MK2 2SA,51.9942844,-0.7322899
58,Queensway,MK2 2SA,51.9942423,-0.7325517
112,Queensway,MK2 2RU,51.9944652,-0.7308525
60,Queensway,MK2 2SA,51.9942569,-0.7324489
13,Dukes Drive,MK2 2QG,51.9982850,-0.7329212
1,Dukes Drive,MK2 2QG,51.9973424,-0.7336676
5-11,Dukes Drive,MK2 2QG,51.9979976,-0.7334174
77,High Street,MK11 1AY,52.0577620,-0.8545712
52,High Street,MK11 1AQ,52.0570516,-0.8529455
51,High Street,MK11 1AA,52.0569475,-0.8531540
45b,High Street,MK11 1AA,52.0568301,-0.8528734
43,High Street,MK11 1AA,52.0567453,-0.8527784
34,Benbow Court,MK5 6JG,52.0261508,-0.7887707
8,White Horse Drive,MK4 2AS,52.0016775,-0.7670000
6,White Horse Drive,MK4 2AS,52.0015740,-0.7668972
12,White Horse Drive,MK4 2AS,52.0017709,-0.7672942
53,Winchester Circle,MK10 0BA,52.0346751,-0.6901245
51,Winchester Circle,MK10 0BA,52.0347943,-0.6902864
49,Winchester Circle,MK10 0BA,52.0349294,-0.6904894
47,Winchester Circle,MK10 0BA,52.0350899,-0.6907087
7-9,Blackmoor Gate,MK4 1DS,52.0088804,-0.7571940
15,Blackmoor Gate,MK4 1DS,52.0090088,-0.7574022
14,Horwood Court,MK1 1RD,52.0025226,-0.7196649
326,Midsummer Boulevard,MK9 2EA,52.0388477,-0.7624151
800,Holkham Walk,MK9 2HP,52.0371934,-0.7626905
4,Rillaton Walk,MK9 2FZ,52.0374924,-0.7623499
3,Rillaton Walk,MK9 2FZ,52.0373138,-0.7623985
320,Midsummer Boulevard,MK9 2EA,52.0387293,-0.7626805
31,Claridge Drive,MK10 9BJ,52.0395789,-0.7000887
33,Claridge Drive,MK10 9BJ,52.0395784,-0.7000085
35,Claridge Drive,MK10 9BJ,52.0394284,-0.7001751
37,Claridge Drive,MK10 9BJ,52.0393973,-0.7001108
74c,High Street,MK16 8AQ,52.0866325,-0.7239182
15,Tower Crescent,MK14 6JY,52.0604497,-0.7479309
10,Tower Crescent,MK14 6JY,52.0601892,-0.7477344
16,Tower Crescent,MK14 6JY,52.0605312,-0.7479728
9,Tower Crescent,MK14 6JY,52.0600521,-0.7475184
1,Market Square,MK11 1BE,52.0563042,-0.8538111
801,Avebury Boulevard,MK9 3JT,52.0430092,-0.7495104
33,Cross End,MK17 8AQ,52.0247674,-0.6616631
12,High Street,MK11 1AF,52.0561837,-0.8514100
7,High Street,MK11 1AA,52.0559978,-0.8512339
2a,Watling Street,MK1 1BN,52.0029513,-0.7251341
7,Sunset Walk,MK9 3PD,52.0424839,-0.7592384
31,The High Street,MK8 8HA,52.0384279,-0.8032603
72-74,The High Street,MK8 8HD,52.0379342,-0.8018070
602,Marlborough Gate,MK9 3XA,52.0414590,-0.7482200
602,Marlborough Gate,MK9 3XA,52.0415708,-0.7479389
15,Savoy Crescent,MK9 3PU,52.0436636,-0.7491671
3,Savoy Crescent,MK9 3PU,52.0441031,-0.7495127
12,Savoy Crescent,MK9 3PU,52.0437860,-0.7498729
8,Savoy Crescent,MK9 3PU,52.0438765,-0.7499539
4,Savoy Crescent,MK9 3PU,52.0439669,-0.7500448
21,Savoy Crescent,MK9 3PU,52.0434164,-0.7488243
5,Savoy Crescent,MK9 3PU,52.0440407,-0.7495709
7,Savoy Crescent,MK9 3PU,52.0438785,-0.7494259
1,North Tenth Street,MK9 3EL,52.0452336,-0.7586515
3,High Street,MK16 8AR,52.0875589,-0.7202088
25,High Street,MK16 8AR,52.0870110,-0.7208898
27,High Street,MK16 8AR,52.0870024,-0.7209372
35,High Street,MK16 8AR,52.0868812,-0.7214962
45,High Street,MK16 8AR,52.0868453,-0.7217542
47,High Street,MK16 8AR,52.0868182,-0.7219932
53,High Street,MK16 8AU,52.0867181,-0.7224291
65,High Street,MK16 8AB,52.0865708,-0.7232345
3,St John Street,MK16 8HE,52.0866574,-0.7220417
6a,St John Street,MK16 8HN,52.0865711,-0.7223000
15,St John Street,MK16 8HE,52.0863919,-0.7216062
11-13,St John Street,MK16 8HE,52.0864399,-0.7217289
183,Queensway,MK2 2ED,51.9957713,-0.7263349
29a,Farthing Grove,MK6 4JH,52.0223261,-0.7340475
6,Harrier Court,MK6 5BZ,52.0323105,-0.7404446
602,Marlborough Gate,MK9 3XA,52.0418037,-0.7478873
100,Watling Street,MK1 1BW,52.0005604,-0.7204869
9,Stadium Way West,MK1 1ST,52.0108040,-0.7347751
12,Stadium Way West,MK1 1ST,52.0108866,-0.7343298
14,Stadium Way West,MK1 1ST,52.0109658,-0.7340616
16-17,Stadium Way West,MK1 1ST,52.0110285,-0.7336968
1-3,Ward Road,MK1 1JA,52.0063496,-0.7195133
37,Winchester Circle,MK10 0BA,52.0354927,-0.6883031
1,Newmarket Court,MK10 0AG,52.0386334,-0.6875682
12,Bodmin Place,MK10 7DP,52.0436472,-0.6840894
10,Pimlico Court,MK10 9RH,52.0338740,-0.7094188
1a,Maida Vale,MK10 9RF,52.0343781,-0.7106741
1,Maida Vale,MK10 9RF,52.0343203,-0.7106043
139,Tanfield Lane,MK10 9NJ,52.0494288,-0.6960010
29,Tanfield Lane,MK10 9NH,52.0476146,-0.6993243
81,Tanfield Lane,MK10 9NJ,52.0480550,-0.6987906
60,Tanfield Lane,MK10 9NY,52.0479660,-0.6985009
58,Tanfield Lane,MK10 9NY,52.0478686,-0.6985948
56,Tanfield Lane,MK10 9NY,52.0476942,-0.6987153
54,Tanfield Lane,MK10 9HB,52.0475948,-0.6988469
32,High Street,MK11 1AF,52.0565965,-0.8522062
35-37,High Street,MK11 1AA,52.0565709,-0.8524087
75,High Street,MK11 1AY,52.0577171,-0.8544888
48,High Street,MK11 1AQ,52.0569609,-0.8528017
6,Wolverton Road,MK11 1DX,52.0560036,-0.8502898
13,Wolverton Road,MK11 1DZ,52.0562435,-0.8506438
13,Wolverton Road,MK11 1DZ,52.0561371,-0.8506157
11,Wolverton Road,MK11 1DZ,52.0561174,-0.8506519
7,Wolverton Road,MK11 1DZ,52.0560819,-0.8507417
5,Wolverton Road,MK11 1DZ,52.0560555,-0.8507860
142,London Road,MK11 1JH,52.0515520,-0.8435735
15-17,London Road,MK11 1JA,52.0553471,-0.8498123
51,Wolverton Road,MK11 1ED,52.0573065,-0.8481038
49d,Wolverton Road,MK11 1ED,52.0572966,-0.8482486
2,Barford,MK11 1PA,52.0517548,-0.8372542
76,Shearmans,MK11 2BQ,52.0487627,-0.8292264
77,Shearmans,MK11 2BQ,52.0487000,-0.8293363
79,Shearmans,MK11 2BQ,52.0486472,-0.8294839
9,Potters Lane,MK11 3HE,52.0487429,-0.8195222
16-20,Burners Lane,MK11 3HB,52.0470603,-0.8235133
22-24,The Square,MK12 5DG,52.0613798,-0.8104013
18,The Square,MK12 5DG,52.0613460,-0.8104214
2-8,The Square,MK12 5DG,52.0611316,-0.8103570
4,The Square,MK12 5DG,52.0609808,-0.8103530
44,Windsor Street,MK12 5AT,52.0605075,-0.8142167
103,Church Street,MK12 5LD,52.0618993,-0.8128649
173a,Church Street,MK12 5JZ,52.0615843,-0.8171564
50,Church Street,MK12 5JW,52.0623132,-0.8105743
30,Church Street,MK12 5JN,52.0624707,-0.8092037
81-82,Stratford Road,MK12 5LT,52.0624212,-0.8164725
21a,Stratford Road,MK12 5LJ,52.0628772,-0.8102752
21,Stratford Road,MK12 5LJ,52.0630239,-0.8103329
14,Stratford Road,MK12 5LJ,52.0631064,-0.8098233
8,Stratford Road,MK12 5LJ,52.0631839,-0.8091930
7,Stratford Road,MK12 5LJ,52.0631921,-0.8091219
3,Stratford Road,MK12 5LJ,52.0632639,-0.8088577
1a,Stratford Road,MK12 5LJ,52.0632746,-0.8086874
25,Stratford Road,MK12 5LW,52.0628887,-0.8110571
29,Stratford Road,MK12 5LW,52.0628343,-0.8114178
31,Stratford Road,MK12 5LW,52.0628170,-0.8115828
32,Stratford Road,MK12 5LW,52.0628079,-0.8116713
33,Stratford Road,MK12 5LW,52.0627997,-0.8117625
34,Stratford Road,MK12 5LW,52.0627939,-0.8118550
40,Stratford Road,MK12 5LW,52.0627321,-0.8123915
42,Stratford Road,MK12 5LW,52.0627329,-0.8125685
43,Stratford Road,MK12 5LW,52.0627288,-0.8126342
1a,Walker Avenue,MK12 5TW,52.0598330,-0.8301330
6,Ardwell Lane,MK12 6AX,52.0535857,-0.8173844
7,Ardwell Lane,MK12 6AX,52.0535345,-0.8172074
3,Ardwell Lane,MK12 6AU,52.0537110,-0.8177653
3a,Ardwell Lane,MK12 6AX,52.0536929,-0.8176929
4,Ardwell Lane,MK12 6AX,52.0536632,-0.8176044
5,Ardwell Lane,MK12 6AX,52.0536335,-0.8175212
11,Brookside,MK12 6JP,52.0498448,-0.8093405
1,Briar Hill,MK12 6HX,52.0528204,-0.8078599
3,Heathfield,MK12 6HP,52.0499470,-0.8034825
5,Heathfield,MK12 6HP,52.0498745,-0.8037347
50,High Street,MK13 0BT,52.0647306,-0.7917559
199,Newport Road,MK13 0AN,52.0646713,-0.7984883
1,Constantine Way,MK13 0RA,52.0568909,-0.7967180
1a,Bradwell Road,MK13 0BX,52.0654100,-0.7893473
20,High Street,MK13 0BT,52.0651989,-0.7903665
24a,High Street,MK13 0BT,52.0650588,-0.7907823
26,High Street,MK13 0BT,52.0650307,-0.7908547
28,High Street,MK13 0BT,52.0650142,-0.7909137
2,Swinden Court,MK13 7PN,52.0507503,-0.7793212
4,Swinden Court,MK13 7PN,52.0507470,-0.7795291
5,Swinden Court,MK13 7PN,52.0507396,-0.7796082
61,Alston Drive,MK13 9HB,52.0456120,-0.7964739
54,Alston Drive,MK13 9HB,52.0459732,-0.7970318
4-5,St Leger Court,MK14 5HA,52.0660184,-0.7601354
45,Crosslands,MK14 6AY,52.0665081,-0.7628202
21,Ramsons Avenue,MK14 7BE,52.0481689,-0.7592154
198,Conniburrow Boulevard,MK14 7DL,52.0489590,-0.7595319
200,Conniburrow Boulevard,MK14 7AH,52.0491520,-0.7590383
330,Conniburrow Boulevard,MK14 7AG,52.0508097,-0.7552189
33,Newport Road,MK15 0AA,52.0418143,-0.7262778
8,Granville Square,MK15 9JL,52.0626991,-0.7321090
9/10,Granville Square,MK15 9JL,52.0626117,-0.7320365
18,Elthorne Way,MK16 0JR,52.0784741,-0.7294482
28-30,Silver Street,MK16 0EN,52.0853805,-0.7228392
42,Annesley Road,MK16 0BG,52.0811709,-0.7354698
1,Station Road,MK16 0AG,52.0852173,-0.7273132
127,High Street,MK16 8EH,52.0853195,-0.7272260
105,High Street,MK16 8EN,52.0858453,-0.7255670
26,High Street,MK16 8AQ,52.0871391,-0.7211159
114,High Street,MK16 8EH,52.0856014,-0.7270235
118-120,High Street,MK16 8EH,52.0855618,-0.7272059
122,High Street,MK16 8EH,52.0855354,-0.7273722
16,Lakes Lane,MK16 8HP,52.0864683,-0.7305425
28,St John Street,MK16 8HJ,52.0861181,-0.7213734
61,Union Street,MK16 8ET,52.0868540,-0.7238612
15,Wolverton Road,MK16 8BG,52.0824763,-0.7399853
87,Tickford Street,MK16 9AW,52.0843570,-0.7145968
20,Plover Close,MK16 9PS,52.0804983,-0.7039297
2,Plover Close,MK16 9PS,52.0810884,-0.7042247
98,Station Road,MK17 8SB,52.0164730,-0.6504089
62,Station Road,MK17 8RZ,52.0154685,-0.6497745
21,High Street,MK17 8RF,52.0111908,-0.6467141
31,High Street,MK17 8RB,52.0115312,-0.6469877
37,High Street,MK17 8RB,52.0116650,-0.6470668
45,High Street,MK17 8RB,52.0118507,-0.6471688
47,High Street,MK17 8QY,52.0119522,-0.6472036
61,High Street,MK17 8QY,52.0123039,-0.6473337
73,High Street,MK17 8QY,52.0125647,-0.6474303
47,Aylesbury Street,MK2 2BQ,51.9972916,-0.7171945
45,Aylesbury Street,MK2 2BQ,51.9972007,-0.7172401
43,Aylesbury Street,MK2 2BQ,51.9970736,-0.7173152
41,Aylesbury Street,MK2 2BQ,51.9969811,-0.7173689
37a,Aylesbury Street,MK2 2BQ,51.9968391,-0.7174279
37,Aylesbury Street,MK2 2BQ,51.9967581,-0.7174587
35a,Aylesbury Street,MK2 2BH,51.9966896,-0.7175070
10-14,Aylesbury Street,MK2 2BA,51.9958911,-0.7174493
30,Aylesbury Street,MK2 2BA,51.9967185,-0.7170725
40,Aylesbury Street,MK2 2BA,51.9970513,-0.7169303
42,Aylesbury Street,MK2 2BA,51.9970909,-0.7169169
46,Aylesbury Street,MK2 2BA,51.9971660,-0.7168740
56,Aylesbury Street,MK2 2BA,51.9973741,-0.7167949
86,Aylesbury Street,MK2 2BA,51.9979034,-0.7163590
48,Watling Street,MK2 2BY,51.9988918,-0.7166152
20,Watling Street,MK2 2BL,51.9983518,-0.7151923
36,Watling Street,MK2 2BL,51.9986300,-0.7158387
169,Queensway,MK2 2DZ,51.9954469,-0.7270986
175,Queensway,MK2 2DZ,51.9954840,-0.7269524
187,Queensway,MK2 2ED,51.9957813,-0.7260297
189,Queensway,MK2 2ED,51.9957937,-0.7259546
239,Queensway,MK2 2EH,51.9961867,-0.7234575
263,Queensway,MK2 2BZ,51.9963577,-0.7210904
105-111,Queensway,MK2 2DN,51.9950067,-0.7294536
113,Queensway,MK2 2DH,51.9950299,-0.7291210
117,Queensway,MK2 2DH,51.9950555,-0.7290284
125,Queensway,MK2 2DH,51.9950678,-0.7288353
143,Queensway,MK2 2DY,51.9952264,-0.7279797
143a,Queensway,MK2 2DY,51.9952388,-0.7279019
151-153,Queensway,MK2 2DY,51.9953139,-0.7275894
3A,Chandos Place,MK2 2SQ,51.9939019,-0.7345659
3b,Chandos Place,MK2 2SQ,51.9938886,-0.7346946
55,Queensway,MK2 2DR,51.9946657,-0.7314639
36b,Victoria Road,MK2 2NQ,51.9972717,-0.7197936
34,Victoria Road,MK2 2NQ,51.9970719,-0.7198700
25,Victoria Road,MK2 2NG,51.9970009,-0.7202911
23,Victoria Road,MK2 2NG,51.9969530,-0.7202992
11,Victoria Road,MK2 2NG,51.9965946,-0.7206425
7,Victoria Road,MK2 2NG,51.9965245,-0.7207283
1,Victoria Road,MK2 2NG,51.9964188,-0.7208571
4,Duncombe Street,MK2 2LY,51.9934625,-0.7351184
6,Duncombe Street,MK2 2LY,51.9934179,-0.7350889
2,Windsor Street,MK2 2LN,51.9934097,-0.7317415
158,Queensway,MK2 2RS,51.9948086,-0.7286154
162,Queensway,MK2 2SW,51.9948647,-0.7283029
164,Queensway,MK2 2SW,51.9948812,-0.7282265
174,Queensway,MK2 2SW,51.9948895,-0.7279596
176,Queensway,MK2 2SW,51.9949109,-0.7278644
178,Queensway,MK2 2SW,51.9949233,-0.7278080
182,Queensway,MK2 2SW,51.9949844,-0.7275425
184,Queensway,MK2 2SW,51.9949993,-0.7274902
186,Queensway,MK2 2SW,51.9950166,-0.7274218
200,Queensway,MK2 2ST,51.9952338,-0.7267781
2c,Brooklands Road,MK2 2RN,51.9942553,-0.7302555
11,Dukes Drive,MK2 2QG,51.9974889,-0.7336593
79,Victoria Road,MK2 2NZ,51.9990585,-0.7198003
2a,Albert Street,MK2 2UG,51.9948688,-0.7321921
2a,Cambridge Street,MK2 2TP,51.9953569,-0.7284491
2a,Cambridge Street,MK2 2TP,51.9954733,-0.7284987
2a,Cambridge Street,MK2 2TP,51.9955848,-0.7285403
94,Queensway,MK2 2RU,51.9943792,-0.7315135
108,Queensway,MK2 2RU,51.9944452,-0.7310119
116-118,Queensway,MK2 2RU,51.9944849,-0.7307343
138,Queensway,MK2 2RS,51.9945939,-0.7297044
144,Queensway,MK2 2RS,51.9947603,-0.7289258
146,Queensway,MK2 2RS,51.9947549,-0.7288743
150-154,Queensway,MK2 2RS,51.9947541,-0.7287951
29,Barton Road,MK2 3HU,51.9843119,-0.7323235
1-9,Barton Road,MK2 3HU,51.9855475,-0.7295609
22,Drayton Road,MK2 3EJ,51.9879658,-0.7227615
169,Water Eaton Road,MK2 3AG,51.9895647,-0.7230645
37,Epsom Grove,MK3 5NR,51.9882135,-0.7668167
16,Buckingham Road,MK3 5HL,51.9928861,-0.7407886
22,St. Marys Avenue,MK3 5DT,51.9901395,-0.7580473
13,Melrose Avenue,MK3 6PB,52.0059071,-0.7488245
9,Melrose Avenue,MK3 6PB,52.0059021,-0.7489827
5,Melrose Avenue,MK3 6PB,52.0058972,-0.7491383
220,Whaddon Way,MK3 7DE,51.9965104,-0.7555045
208,Whaddon Way,MK3 7DG,51.9961413,-0.7554549
210-216,Whaddon Way,MK3 7DE,51.9963329,-0.7553798
200,Whaddon Way,MK3 7DE,51.9963048,-0.7556909
1,Porchester Close,MK3 6FF,51.9961529,-0.7552162
206,Whaddon Way,MK3 7DG,51.9961776,-0.7555166
218,Whaddon Way,MK3 7DE,51.9964171,-0.7554925
1,Dulverton Drive,MK4 1EA,52.0068086,-0.7616723
37,Belvoir Avenue,MK4 2JA,51.9994541,-0.7740051
12,Wimborne Crescent,MK4 4DE,52.0048157,-0.7951677
20,Cushing Drive,MK4 4TJ,52.0071190,-0.8050543
10,Cushing Drive,MK4 4TJ,52.0072048,-0.8047190
66,Redgrave Drive,MK4 4TB,52.0072428,-0.8046171
10,Redgrave Drive,MK4 4TB,52.0073254,-0.8046627
9a,Redgrave Drive,MK4 4TB,52.0074607,-0.8047673
8,Redgrave Drive,MK4 4TB,52.0074822,-0.8044320
42,Redgrave Drive,MK4 4TB,52.0075218,-0.8043060
32,Redgrave Drive,MK4 4TB,52.0075912,-0.8040592
5,Redgrave Drive,MK4 4TB,52.0075565,-0.8039466
20,Redgrave Drive,MK4 4TB,52.0074327,-0.8038178
1,Hepburn Crescent,MK4 4TD,52.0076589,-0.8034691
3,Hepburn Crescent,MK4 4TD,52.0077678,-0.8035710
31,Pascal Drive,MK5 6LS,52.0189688,-0.8027369
1b,Benbow Court,MK5 6JG,52.0266337,-0.7886177
5,Faraday Drive,MK5 7DE,52.0199361,-0.7715695
28,Bradwell Road,MK5 8AJ,52.0282955,-0.7846937
159,Watling Street,MK5 8AA,52.0145696,-0.7556842
90,Penryn Avenue,MK6 2BE,52.0386273,-0.7439051
159,Fishermead Boulevard,MK6 2AB,52.0379569,-0.7431669
10,Duckworth Court,MK6 2RX,52.0293847,-0.7609413
12a,Duckworth Court,MK6 2RX,52.0289293,-0.7608381
177,Oldbrook Boulevard,MK6 2QB,52.0333039,-0.7541326
25,Gurnards Avenue,MK6 2BW,52.0389529,-0.7474804
25,Penryn Avenue,MK6 2BQ,52.0379612,-0.7463703
26,Penryn Avenue,MK6 2BG,52.0376934,-0.7460674
1,Chadds Lane,MK6 3EB,52.0340860,-0.7330155
186,Waterside,MK6 3BX,52.0276899,-0.7318515
44,Old Groveway,MK6 3AA,52.0169682,-0.7217181
2,Perrydown,MK6 4NE,52.0199938,-0.7378677
27a,Farthing Grove,MK6 4JH,52.0224548,-0.7341582
21,Farthing Grove,MK6 4JH,52.0226528,-0.7342762
15-17,Farthing Grove,MK6 4JH,52.0229268,-0.7344827
13,Farthing Grove,MK6 4JH,52.0230226,-0.7345605
11,Farthing Grove,MK6 4JH,52.0230803,-0.7346007
9,Farthing Grove,MK6 4JH,52.0231480,-0.7346356
1,Farthing Grove,MK6 4JH,52.0233865,-0.7345069
10,Yearlstone Square,MK6 4AT,52.0151243,-0.7275492
26,Yearlstone Square,MK6 4AT,52.0152101,-0.7269537
28,Yearlstone Square,MK6 4AT,52.0152597,-0.7268518
52,Garraways,MK6 5EG,52.0231496,-0.7454744
50,Garraways,MK6 5EG,52.0231447,-0.7453376
97-99,Jonathans,MK6 5DR,52.0218441,-0.7456327
1a,Felsted,MK7 8FD,52.0065312,-0.7007164
128,Dunthorne Way,MK8 0LW,52.0222410,-0.8065000
54,Monro Avenue,MK8 0BF,52.0251813,-0.8060896
19,Darin Court,MK8 0AD,52.0312754,-0.7982559
54,Haddon,MK8 9HP,52.0321571,-0.7917345
87,Kensington Drive,MK8 9AY,52.0340006,-0.7937410
2,Church Hill,MK8 8EQ,52.0381368,-0.7990515
57,"Caxton Court, Garamonde Drive",MK8 8DD,52.0440464,-0.8001351
43,"Caxton Court, Garamonde Drive",MK8 8DD,52.0444836,-0.7997382
280,Witan Gate West,MK9 1EJ,52.0390954,-0.7667121
315-325,Upper Fourth Street,MK9 1EH,52.0382490,-0.7668516
500,Elder Gate,MK9 1BB,52.0350686,-0.7743403
599,Grafton Gate,MK9 1AT,52.0350306,-0.7679772
222,Upper Fifth Street,MK9 2HR,52.0396365,-0.7641935
321,Avebury Boulevard,MK9 2FZ,52.0373003,-0.7620317
300-350,Saxon Gate West,MK9 2ES,52.0409828,-0.7611197
40,Saxon Gate West,MK9 2DH,52.0429972,-0.7632279
76,Saxon Gate West,MK9 2DH,52.0429164,-0.7631448
158,Midsummer Arcade,MK9 3BA,52.0442609,-0.7528076
142-144,Midsummer Arcade,MK9 3BA,52.0440299,-0.7534003
27-29,Eagle Walk,MK9 3AJ,52.0441306,-0.7535183
23-25,Eagle Walk,MK9 3AJ,52.0442625,-0.7536551
15-17,Eagle Walk,MK9 3BA,52.0444638,-0.7538617
11-13,Eagle Walk,MK9 3AJ,52.0445727,-0.7539958
141-163,Silbury Arcade,MK9 3AQ,52.0448465,-0.7536659
117-121,Silbury Arcade,MK9 3AQ,52.0443318,-0.7548058
13/14,Deer Walk,MK9 3AD,52.0442526,-0.7550418
99,Silbury Arcade,MK9 3AG,52.0439738,-0.7556373
93-95,Silbury Arcade,MK9 3AG,52.0438930,-0.7558277
104,Silbury Arcade,MK9 3BE,52.0440085,-0.7552967
17-19,Crown Walk,MK9 3AH,52.0434377,-0.7560128
25,Crown Walk,MK9 3AH,52.0432892,-0.7558653
89,Midsummer Arcade,MK9 3BB,52.0433304,-0.7553369
126,Midsummer Arcade,MK9 3BA,52.0429840,-0.7557634
571,Midsummer Boulevard,MK9 3BD,52.0420024,-0.7575014
26-28,Midsummer Arcade,MK9 3BB,52.0422400,-0.7575390
8-10,Midsummer Arcade,MK9 3BB,52.0419793,-0.7582149
67,Silbury Arcade,MK9 3AG,52.0434822,-0.7568041
647,Silbury Boulevard,MK9 3BE,52.0436422,-0.7571661
59,Silbury Arcade,MK9 3AG,52.0433882,-0.7570884
45,Silbury Arcade,MK9 3AG,52.0431853,-0.7575014
39-41,Silbury Arcade,MK9 3AG,52.0430929,-0.7577455
9,Silbury Arcade,MK9 3AG,52.0426540,-0.7588345
1,Sunset Walk,MK9 3PD,52.0423736,-0.7595533
21-25,Acorn Walk,MK9 3AD,52.0432034,-0.7553369
108-110,Silbury Arcade,MK9 3AB,52.0440943,-0.7550472
16-18,Secklow Gate,MK9 3AT,52.0449422,-0.7573056
637,Silbury Boulevard,MK9 3AR,52.0441372,-0.7581264
696,North Row,MK9 3AP,52.0454404,-0.7582283
7,Stratford Road,MK12 5LJ,52.0632300,-0.8089620
602,Marlborough Gate,MK9 3XS,52.0412913,-0.7491973
602,Marlborough Gate,MK9 3XA,52.0418952,-0.7479608
602,Marlborough Gate,MK9 3XA,52.0412897,-0.7488781
602,Marlborough Gate,MK9 3XA,52.0411874,-0.7491249
602,Marlborough Gate,MK9 3XA,52.0418341,-0.7492027
602,Midsummer Boulevard,MK9 3NB,52.0417038,-0.7558921
10,Darin Court,MK8 0AD,52.0311336,-0.7994809
40-41,Marshworth,MK6 3DD,52.0192928,-0.7204794
51,The High Street,MK8 8HA,52.0384244,-0.8030298
449-499,Midsummer Boulevard,MK9 3BN,52.0403800,-0.7611802
Unit 1-2 Arden Park,Old Wolverton Road,MK12 5RH,52.0655803,-0.8209576
Unit 6/Arden Park,Old Wolverton Road,MK12 5RH,52.0655957,-0.8205141
"Unit 5, Arden Park",Old Wolverton Road,MK12 5RH,52.0652870,-0.8202882
21,Witham Court,MK3 7QU,51.9998725,-0.7664417
1,Winchester Circle,MK10 0AH,52.0365100,-0.6870352
103,Waitling Street,MK1 1HS,52.0007023,-0.7231822
2,Harrier Court,MK6 5BZ,52.0322296,-0.7409618
4,Knebworth Gate,MK14 5QD,52.0736323,-0.7450264
2,St Leger Court,MK14 5HA,52.0656740,-0.7600471
66,Tanners Drive,MK14 5BP,52.0781096,-0.7418283
Unit 6,Islay Court,MK3 5QW,51.9746350,-0.7328050
116,Silbury Arcade,MK9 3BE,52.0442038,-0.7541302
302,Elder Gate,MK9 1LA,52.0342006,-0.7748261
30,Texel Close,MK14 6GL,52.0686413,-0.7774147
4,Benbow Court,MK5 6JG,52.0260411,-0.7890616
5,Coronation Road,MK11 1JJ,52.0531160,-0.8473330
15,St John Street,MK16 8HE,52.0864264,-0.7215681
4,White Horse Drive,MK4 2AS,52.0013894,-0.7670648
500,Elder Gate,MK9 1BB,52.0341149,-0.7732787
B23 Harben House,Tickford Street,MK16 9EY,52.0835576,-0.7141247
7 Swinfens Yard,High Street,MK11 1SY,52.0557964,-0.8511345
352,Silbury Boulevard,MK9 2AF,52.0404450,-0.7644914
406,Silbury Boulevard,MK9 2AF,52.0411613,-0.7628030
300,Saxon Gate West,MK9 2ES,52.0411987,-0.7614007
3,Swinden Court,MK13 7PN,52.0507553,-0.7794466
4,Ardwell Lane,MK12 6AX,52.0536711,-0.8175672
39,Carters Lane,MK11 3HL,52.0453941,-0.8280140
1-2,Barford,MK11 1NJ,52.0517235,-0.8372855
51,High Street,MK11 1AA,52.0569759,-0.8532097
6,Duckworth Court,MK6 2RX,52.0295073,-0.7606214
1,Bradwell Common Boulevard,MK13 8BF,52.0428933,-0.7760818
197,Avebury Boulevard,MK9 1AU,52.0351884,-0.7674346
4,High Street,MK17 8RH,52.0110241,-0.6472919
14,High Street,MK11 1AF,52.0562382,-0.8515008
62-68,Guildford Avenue,MK4 4JZ,51.9972153,-0.8033104
"15,17",Melrose Avenue,MK3 6PB,52.0059409,-0.7487078
21,Simpson Road,MK2 2DD,51.9998230,-0.7159485
4,Mortimer Square,MK9 2FB,52.0376019,-0.7628908
23,Walker Avenue,MK12 5TW,52.0592826,-0.8308895
139,Tanfield Lane,MK10 9NJ,52.0494194,-0.6958677
12,Burnet,MK14 6AJ,52.0651099,-0.7703003
466,Midsummer Boulevard,MK9 2EA,52.0392856,-0.7608948
488,Midsummer Boulevard,MK9 2EA,52.0389828,-0.7604229
368-370,Midsummer Boulevard,MK9 2EA,52.0390541,-0.7619619
381,Midsummer Boulevard,MK9 3HP,52.0396283,-0.7629168
1,Grafton Gate,MK9 1AH,52.0389848,-0.7722241
149A,Grafton Gate,MK9 1AE,52.0386524,-0.7718901
151,Grafton Gate,MK9 1AE,52.0385979,-0.7719773
103,V4 Watling Street,MK1 1BN,52.0004626,-0.7219163
50,Tilers Road,MK11 3EA,52.0421158,-0.8217768
Great Holm Fire Station,Haddon,MK8 9HP,52.0309352,-0.7945762
41,Springfield Boulevard,MK6 3JH,52.0402552,-0.7367670
19,Boycott Avenue,MK6 2PN,52.0338802,-0.7588869
403,Midsummer Boulevard,MK9 3BN,52.0400561,-0.7619945
500,Saxon Gate West,MK9 2HQ,52.0393756,-0.7594564
489-499,Avebury Boulevard,MK9 2NW,52.0387668,-0.7595749
477-488,Midsummer Boulevard,MK9 3DB,52.0387867,-0.7606060
312,Midsummer Boulevard,MK9 2EA,52.0383252,-0.7631600
401,Witan Gate,MK9 2BQ,52.0379602,-0.7640154
308,Midsummer Boulevard,MK9 2HP,52.0381815,-0.7636205
700,Grafton Gate,MK9 1DL,52.0333122,-0.7690862
599,Grafton Gate,MK9 1AT,52.0350969,-0.7679120
201,Grafton Gate East,MK9 1AN,52.0373245,-0.7699799
201,Midsummer Boulevard,MK9 1EA,52.0376734,-0.7676713
199,Midsummer Boulevard,MK9 1EA,52.0374161,-0.7682701
200,Silbury Boulevard,MK9 1LT,52.0383257,-0.7692234
202-216,Silbury Boulevard,MK9 1LW,52.0385686,-0.7686572
252-260,Upper Fourth Street,MK9 1DP,52.0385374,-0.7677772
270-344,Witan Gate,MK9 1EJ,52.0387840,-0.7665903
300,Silbury Boulevard,MK9 2AZ,52.0391489,-0.7673176
249,Upper Third Street,MK9 1DS,52.0388080,-0.7681748
249,Midsummer Boulevard,MK9 1EA,52.0380334,-0.7673642
799,Witan Gate,MK9 2FW,52.0362507,-0.7617031
1,North Fourth Street,MK9 1NE,52.0406998,-0.7691275
199,Grafton Gate East,MK9 1AL,52.0384845,-0.7713844
800,Grafton Gate,MK9 1DL,52.0327006,-0.7682950
20,Redland Drive,MK5 8HD,52.0272952,-0.7754375
96,Bradwell Road,MK8 9LA,52.0381785,-0.7849747
602,Midsummer Boulevard,MK9 3NB,52.0415345,-0.7555555
1,Germander Place,MK14 7DU,52.0486502,-0.7630840
404,Silbury Boulevard,MK9 2AF,52.0410597,-0.7630202
157,Fishermead Boulevard,MK6 2AD,52.0377758,-0.7437451
95,Fishermead Boulevard,MK6 2AG,52.0371093,-0.7453948
1,Veryan Place,MK6 2DH,52.0383562,-0.7401899
144,Watling Street,MK1 1YY,52.0034576,-0.7276981
74,Holst Crescent,MK7 8QU,52.0149609,-0.6788129
41,Winchester Circle,MK10 0BA,52.0356787,-0.6904374
1,Winchester Circle,MK10 0AH,52.0364850,-0.6874883
1,Peverel Drive,MK1 1NL,52.0086810,-0.7380223
1,Bradwell Common Boulevard,MK13 8BF,52.0429761,-0.7760567
40-41,Marshworth,MK6 3DD,52.0192235,-0.7204303
1,Chapman Avenue,MK14 7NH,52.0557086,-0.7467947
16,Bradbourne Drive,MK7 8BJ,52.0085713,-0.6925364
23,Bradbourne Drive,MK7 8AT,52.0065132,-0.6926479
3,Bradbourne Drive,MK7 8AJ,52.0080667,-0.6899857
300,Saxon Gate West,MK9 2ES,52.0410180,-0.7614610
499,Lower Twelfth Street,MK9 3PY,52.0433592,-0.7498737
1,Savoy Crescent,MK9 3PU,52.0442587,-0.7497997
12,Garrick Walk,MK9 3PT,52.0435991,-0.7501848
40,Penn Road,MK2 2AU,51.9965284,-0.7121899
2,Watling Street,MK2 2BS,51.9973511,-0.7122191
13,Russell Street,MK17 8NU,52.0125358,-0.6458054
2,Tanners Drive,MK14 5BN,52.0762385,-0.7450525
Unit 19,Tanners Drive,MK14 5BP,52.0788817,-0.7426376
1,Wadesmill Lane,MK7 7ED,52.0151952,-0.6952833
3,Wadesmill Lane,MK7 7ED,52.0151829,-0.6954079
1,Morley Crescent,MK7 8HT,52.0152755,-0.6825386
76,Holst Crescent,MK7 8QU,52.0150701,-0.6785817
28,Fyfield Barrow,MK7 7AN,52.0227064,-0.6889442
8,Seagrave Court,MK7 7HA,52.0146655,-0.7028904
Hilltops Medical Centre,Kensington Drive,MK8 9HN,52.0358649,-0.7978011
2,Church Hill,MK8 8EQ,52.0381510,-0.7989180
63,The High Street,MK8 8HG,52.0381755,-0.8021605
43,Winchester Circle,MK10 0BA,52.0373790,-0.6910348
9,Northfield Drive,MK15 0DQ,52.0533812,-0.7105961
8,Northfield Drive,MK15 0DQ,52.0529557,-0.7062609
7,Northfield Drive,MK15 0DD,52.0526610,-0.7078349
5,Tippett Close,MK7 8EJ,52.0124517,-0.6830789
8,Tippett Close,MK7 8EJ,52.0124765,-0.6823780
3,Tippett Close,MK7 8EJ,52.0124496,-0.6826542
7,Tippett Close,MK7 8EJ,52.0125067,-0.6821793
4,Tippett Close,MK7 8EJ,52.0124222,-0.6828547
6,Tippett Close,MK7 8EJ,52.0125769,-0.6819180
4,Chandos Place,MK2 2SQ,51.9937798,-0.7348737
1,Chandos Place,MK2 2SQ,51.9937728,-0.7342045
3,Wellington Place,MK3 5NA,51.9918146,-0.7371213
2,Harrier Court,MK6 5BZ,52.0322497,-0.7410308
182,Waterside,MK6 3BX,52.0281909,-0.7321351
152,Fen Street,MK10 7EU,52.0493885,-0.6876423
20,Bourton Low,MK7 7DE,52.0147196,-0.6914701
1,Tippett Close,MK7 8EJ,52.0122297,-0.6826276
10,Tippett Close,MK7 8EJ,52.0122611,-0.6822891
2,Tippett Close,MK7 8EJ,52.0122867,-0.6826264
9,Tippett Close,MK7 8EJ,52.0123121,-0.6823030
88-103,Caldecotte Lake Drive,MK7 8JT,52.0027566,-0.7024639
1300,Silbury Boulevard,MK9 4AD,52.0499004,-0.7367402
8,Duncombe Street,MK2 2LY,51.9933513,-0.7351060
7,Penhale Close,MK4 3DZ,51.9971047,-0.7827789
4,Barnsdale Drive,MK4 4DD,52.0035848,-0.7943267
19,Barnsdale Drive,MK4 4DD,52.0050061,-0.7948492
24,Winfold Lane,MK4 3DA,52.0019217,-0.7791153
22a,Barnsdale Drive,MK4 4DD,52.0057539,-0.7937131
21,Barnsdale Drive,MK4 4DD,52.0052862,-0.7943647
22b,Barnsdale Drive,MK4 4DD,52.0055968,-0.7939815
103,Tickford Street,MK16 9BA,52.0837514,-0.7132028
62,High Street,MK16 8AQ,52.0868783,-0.7231865
75-77,High Street,MK16 8AB,52.0863258,-0.7237482
39,Winchester Circle,MK10 0AH,52.0348166,-0.6890098
110-112,Buckingham Road,MK3 5HL,51.9917253,-0.7494800
112,Newport Road,MK13 0AA,52.0660624,-0.7900836
6-12,Capital Drive,MK14 6XT,52.0592532,-0.7588938
146,Station Road,MK17 8SG,52.0178445,-0.6532614
153,Sherwood Drive,MK3 6RT,52.0008166,-0.7394561
184,Severn Way,MK3 7QB,51.9976679,-0.7620318
52,Lundholme,MK13 7QH,52.0537635,-0.7835681
50,Lundholme,MK13 7QH,52.0538164,-0.7835785
4,High Street,MK17 8RL,52.0110751,-0.6471738
14-16,Theydon Avenue,MK17 8PL,52.0134538,-0.6503218
18,Theydon Avenue,MK17 8PL,52.0134246,-0.6507290
Petworth House,Petworth,MK8 9ED,52.0353459,-0.7973314
50,Calverleigh Crescent,MK4 1HU,52.0078754,-0.7692662
52,Calverleigh Crescent,MK4 1HU,52.0079018,-0.7691870
54,Calverleigh Crescent,MK4 1HU,52.0079843,-0.7691247
56,Calverleigh Crescent,MK4 1HU,52.0080282,-0.7690916
10,Daubeney Gate,MK5 6EH,52.0239627,-0.7960577
25a,Barnsdale Drive,MK4 4DD,52.0054397,-0.7922756
25,Barnsdale Drive,MK4 4DD,52.0057515,-0.7926467
26,Barnsdale Drive,MK4 4DD,52.0052189,-0.7915253
4,Barnsdale Drive,MK4 4DD,52.0045580,-0.7909344
16,Erica Road,MK12 6HS,52.0504621,-0.7978037
14,Erica Road,MK12 6HS,52.0502515,-0.7976322
15,Erica Road,MK12 6HS,52.0503631,-0.7977231
18,Erica Road,MK12 6HS,52.0505897,-0.7980649
21,Erica Road,MK12 6HS,52.0506491,-0.7981131
24,Erica Road,MK12 6HS,52.0508000,-0.7980787
25,Erica Road,MK12 6HS,52.0508676,-0.7981338
26,Erica Road,MK12 6HS,52.0509790,-0.7982244
27,Erica Road,MK12 6HS,52.0502534,-0.7982205
6,Harpers Lane,MK14 5BA,52.0673032,-0.7512524
1,Grafton Gate East,MK9 1AN,52.0391731,-0.7723061
55,Kirkstall Place,MK6 2XE,52.0333890,-0.7611166
67,Adelphi Street,MK9 4AE,52.0492866,-0.7498354
71,Adelphi Street,MK9 4AE,52.0492073,-0.7497456
69,Adelphi Street,MK9 4AE,52.0492470,-0.7497905
73,Adelphi Street,MK9 4AE,52.0491677,-0.7497009
75,Adelphi Street,MK9 4AE,52.0491762,-0.7494814
77,Adelphi Street,MK9 4AE,52.0491324,-0.7494326
79,Adelphi Street,MK9 4AE,52.0490071,-0.7495190
81,Adelphi Street,MK9 4AE,52.0489673,-0.7494743
83,Adelphi Street,MK9 4AE,52.0489276,-0.7494295
85,Adelphi Street,MK9 4AE,52.0488879,-0.7493847
87,Adelphi Street,MK9 4AE,52.0488974,-0.7491709
1,Adelphi Street,MK9 4AE,52.0487830,-0.7490417
3,Adelphi Street,MK9 4AE,52.0486612,-0.7491293
5,Adelphi Street,MK9 4AE,52.0486216,-0.7490847
7,Adelphi Street,MK9 4AE,52.0485818,-0.7490400
9,Adelphi Street,MK9 4AE,52.0485424,-0.7489955
11,Adelphi Street,MK9 4AE,52.0485473,-0.7487792
13,Adelphi Street,MK9 4AE,52.0485027,-0.7487290
15,Adelphi Street,MK9 4AE,52.0483802,-0.7488143
17,Adelphi Street,MK9 4AE,52.0483402,-0.7487691
19,Adelphi Street,MK9 4AE,52.0482999,-0.7487238
21,Adelphi Street,MK9 4AE,52.0482588,-0.7486784
23,Adelphi Street,MK9 4AE,52.0480806,-0.7489887
25,Adelphi Street,MK9 4AE,52.0480459,-0.7490695
27,Adelphi Street,MK9 4AE,52.0481975,-0.7492999
29,Adelphi Street,MK9 4AE,52.0482636,-0.7491448
31,Adelphi Street,MK9 4AE,52.0483021,-0.7491959
33,Adelphi Street,MK9 4AE,52.0483441,-0.7492433
35,Adelphi Street,MK9 4AE,52.0483871,-0.7492843
37,Adelphi Street,MK9 4AE,52.0483203,-0.7494386
39,Adelphi Street,MK9 4AE,52.0484791,-0.7496182
41,Adelphi Street,MK9 4AE,52.0485452,-0.7494633
43,Adelphi Street,MK9 4AE,52.0485825,-0.7495133
45,Adelphi Street,MK9 4AE,52.0486123,-0.7495732
47,Adelphi Street,MK9 4AE,52.0486467,-0.7496122
49,Adelphi Street,MK9 4AE,52.0486914,-0.7496368
51,Adelphi Street,MK9 4AE,52.0487335,-0.7496764
53,Adelphi Street,MK9 4AE,52.0486667,-0.7498307
55,Adelphi Street,MK9 4AE,52.0488244,-0.7500096
57,Adelphi Street,MK9 4AE,52.0488906,-0.7498540
59,Adelphi Street,MK9 4AE,52.0489288,-0.7499050
61,Adelphi Street,MK9 4AE,52.0489707,-0.7499525
63,Adelphi Street,MK9 4AE,52.0490138,-0.7499931
65,Adelphi Street,MK9 4AE,52.0489469,-0.7501475
2,St Leger Court,MK14 5HA,52.0656769,-0.7599232
6a,Tower Crescent,MK14 6JY,52.0602271,-0.7468453
2,Tower Crescent,MK14 6JY,52.0606593,-0.7474123
602,Marlborough Gate,MK9 3XS,52.0422456,-0.7468116
1-3,Highgrove Hill,MK8 9AQ,52.0322752,-0.7962523
1,Girton Way,MK3 6EL,51.9936797,-0.7420486
1,Barnsdale Drive,MK4 4DD,52.0031556,-0.7933760
2,White Horse Drive,MK4 2AS,52.0011581,-0.7675513
4,White Horse Drive,MK4 2AS,52.0014302,-0.7671052
1,Seebeck Place,MK5 8FR,52.0261843,-0.7740444
33,London Road,MK5 8AB,52.0271910,-0.7871065
33,London Road,MK5 8AB,52.0272900,-0.7867128
33,London Road,MK5 8AB,52.0274893,-0.7871297
1,Blackmoor Gate,MK4 1DS,52.0093185,-0.7567476
5,Blackmoor Gate,MK4 1DS,52.0089406,-0.7569075
3,Blackmoor Gate,MK4 1DS,52.0090785,-0.7566936
2,High Street,MK17 8RH,52.0106009,-0.6468447
11-17,Vicarage Road,MK13 9AG,52.0482447,-0.7879254
79,Garamonde Drive,MK8 8DD,52.0438915,-0.8012329
2,Engaine Drive,MK5 6JU,52.0273951,-0.7900840
4,Knebworth Gate,MK14 5QD,52.0735516,-0.7449645
34,Newport Road,MK15 0AA,52.0417692,-0.7268294
1,South Row,MK9 1DL,52.0323232,-0.7711434
198,Whaddon Way,MK3 7DE,51.9963102,-0.7558414
27,Barnsdale Drive,MK4 4DD,52.0063879,-0.7936250
144,Buckingham Road,MK3 5JB,51.9915679,-0.7543773
12,Granville Square,MK15 9JL,52.0630239,-0.7319917
2,Granville Square,MK15 9JL,52.0622253,-0.7316540
7,Tower Crescent,MK14 6JY,52.0599325,-0.7470586
31,Pascal Drive,MK5 6LS,52.0188650,-0.8027263
3,Babbage Gate,MK10 9SU,52.0384804,-0.7142580
1,Danbury Court,MK14 6LR,52.0541709,-0.7591416
3b,Barnsdale Drive,MK4 4DD,52.0054116,-0.7941521
2,Fyfield Barrow,MK7 7AN,52.0228019,-0.6889121
2,Walton Road,MK7 7AE,52.0200312,-0.7005220
42,Garraways,MK6 5DD,52.0237563,-0.7452664
59,Stratford Road,MK12 5LT,52.0624070,-0.8145967
63,Stratford Road,MK12 5LT,52.0623734,-0.8150062
122,Church Street,MK12 5JR,52.0621293,-0.8133758
10,Pitcher Lane,MK5 8AU,52.0332242,-0.7792033
50,Tunbridge Grove,MK7 6JD,52.0317755,-0.6945921
9,Station Road,MK17 8RR,52.0134876,-0.6474369
258,Conniburrow Boulevard,MK14 7AH,52.0498444,-0.7573924
33,Dulverton Drive,MK4 1NA,52.0084922,-0.7701340
17,Walton Road,MK10 9AQ,52.0416462,-0.7038354
10-11,Walton Road,MK10 9AG,52.0420129,-0.7047025
2,Leonora Walk,MK9 4BA,52.0445657,-0.7437715
1,Ousebank Street,MK16 8AN,52.0877445,-0.7199425
500,Elder Gate,MK9 1BB,52.0344421,-0.7737737
5,Faraday Drive,MK5 7DE,52.0199031,-0.7714901
3,Faraday Drive,MK5 7DE,52.0199056,-0.7716763
1,Claridge Drive,MK10 9BJ,52.0426816,-0.6981142
3,Claridge Drive,MK10 9BJ,52.0425884,-0.6980471
5,Claridge Drive,MK10 9BJ,52.0425160,-0.6979864
7,Claridge Drive,MK10 9BJ,52.0424137,-0.6979294
9,Claridge Drive,MK10 9BJ,52.0422576,-0.6977454
11,Claridge Drive,MK10 9BJ,52.0421842,-0.6976218
13,Claridge Drive,MK10 9BJ,52.0420376,-0.6975231
15,Claridge Drive,MK10 9BJ,52.0419645,-0.6974408
17,Claridge Drive,MK10 9BJ,52.0418652,-0.6974267
2,Bradwell Road,MK13 0EN,52.0636528,-0.7881202
1,Hopkins Close,MK10 9AS,52.0413951,-0.7037856
13,Hopkins Close,MK10 9AS,52.0412461,-0.7029041
2,Hopkins Close,MK10 9AS,52.0414842,-0.7034692
3,Hopkins Close,MK10 9AS,52.0414962,-0.7032241
4,Hopkins Close,MK10 9AS,52.0415471,-0.7029832
5,Hopkins Close,MK10 9AS,52.0415259,-0.7028146
6,Hopkins Close,MK10 9AS,52.0416857,-0.7026178
7,Hopkins Close,MK10 9AS,52.0418812,-0.7025128
16,Walton Road,MK10 9AQ,52.0407200,-0.7033097
15,Walton Road,MK10 9AQ,52.0405045,-0.7032107
12,Hopkins Close,MK10 9AS,52.0412843,-0.7025748
11,Hopkins Close,MK10 9AS,52.0412696,-0.7023210
8,Hopkins Close,MK10 9AS,52.0414231,-0.7018184
9,Hopkins Close,MK10 9AS,52.0412547,-0.7016834
5,Walton Road,MK10 9AX,52.0399789,-0.7023109
4,Walton Road,MK10 9AX,52.0400921,-0.7021172
3,Walton Road,MK10 9AX,52.0399637,-0.7019116
2,Walton Road,MK10 9AX,52.0399095,-0.7010306
1,Walton Road,MK10 9AX,52.0399252,-0.7007517
54,Claridge Drive,MK10 9BP,52.0399583,-0.7005701
40,Claridge Drive,MK10 9BP,52.0404420,-0.6986926
42,Claridge Drive,MK10 9BP,52.0403613,-0.6988675
44,Claridge Drive,MK10 9BP,52.0402885,-0.6990378
46,Claridge Drive,MK10 9BP,52.0402305,-0.6992531
48,Claridge Drive,MK10 9BP,52.0402050,-0.6994932
50,Claridge Drive,MK10 9BP,52.0401904,-0.6996918
52,Claridge Drive,MK10 9BP,52.0401560,-0.6998372
34,Claridge Drive,MK10 9GB,52.0407585,-0.6982461
32,Claridge Drive,MK10 9GB,52.0408723,-0.6981200
30,Claridge Drive,MK10 9GB,52.0409707,-0.6980555
14,Claridge Drive,MK10 9BJ,52.0412890,-0.6979201
12,Claridge Drive,MK10 9BJ,52.0414010,-0.6979518
10,Claridge Drive,MK10 9BJ,52.0415427,-0.6979758
8,Claridge Drive,MK10 9BJ,52.0417056,-0.6980232
6,Claridge Drive,MK10 9BJ,52.0418430,-0.6980624
4,Claridge Drive,MK10 9BJ,52.0419619,-0.6981764
4,Kingsoe Leys,MK10 9BG,52.0417530,-0.6986025
3,Kingsoe Leys,MK10 9BG,52.0418827,-0.6986513
2,Kingsoe Leys,MK10 9BG,52.0420846,-0.6985621
1,Kingsoe Leys,MK10 9BG,52.0421714,-0.6983599
7,Kingsoe Leys,MK10 9BG,52.0417524,-0.6991856
6,Kingsoe Leys,MK10 9BG,52.0417643,-0.6989881
5,Kingsoe Leys,MK10 9BG,52.0420182,-0.6991772
8,Kingsoe Leys,MK10 9BG,52.0418138,-0.6995054
9,Kingsoe Leys,MK10 9BG,52.0420222,-0.6996133
10,Kingsoe Leys,MK10 9BG,52.0422335,-0.6997606
11,Kingsoe Leys,MK10 9BG,52.0423328,-0.6995337
12,Kingsoe Leys,MK10 9BG,52.0422511,-0.6991759
13,Kingsoe Leys,MK10 9BG,52.0423401,-0.6985853
2,Claridge Drive,MK10 9BJ,52.0425013,-0.6987822
9,Great Linch,MK10 9BF,52.0408231,-0.6964278
10,Great Linch,MK10 9BF,52.0408123,-0.6962436
12,Great Linch,MK10 9BF,52.0407859,-0.6959232
13,Great Linch,MK10 9BF,52.0406933,-0.6958091
16,Great Linch,MK10 9BF,52.0408363,-0.6954293
15,Great Linch,MK10 9BF,52.0407281,-0.6954807
14,Great Linch,MK10 9BF,52.0406004,-0.6955487
1,Great Linch,MK10 9BF,52.0409308,-0.6973315
2,Great Linch,MK10 9BF,52.0407217,-0.6974852
7,Great Linch,MK10 9BF,52.0409171,-0.6968733
6,Great Linch,MK10 9BF,52.0408149,-0.6968921
5,Great Linch,MK10 9BF,52.0406823,-0.6969280
4,Great Linch,MK10 9BF,52.0405231,-0.6970848
3,Great Linch,MK10 9BF,52.0406517,-0.6972240
23,Great Linch,MK10 9BF,52.0406301,-0.6965731
25,Great Linch,MK10 9BF,52.0404066,-0.6967401
26,Great Linch,MK10 9BF,52.0403152,-0.6969303
24,Great Linch,MK10 9BF,52.0405077,-0.6965805
21,Great Linch,MK10 9BF,52.0405251,-0.6959458
22,Great Linch,MK10 9BF,52.0405761,-0.6962721
20,Great Linch,MK10 9BF,52.0403797,-0.6960838
19,Great Linch,MK10 9BF,52.0403012,-0.6963197
36,Great Linch,MK10 9BF,52.0405488,-0.6976922
35,Great Linch,MK10 9BF,52.0404410,-0.6974778
34,Great Linch,MK10 9BF,52.0403155,-0.6973263
33,Great Linch,MK10 9BF,52.0401869,-0.6972326
25,Claridge Drive,MK10 9BJ,52.0403683,-0.6978887
32,Great Linch,MK10 9BF,52.0400602,-0.6971324
27,Claridge Drive,MK10 9BJ,52.0402276,-0.6980690
72-74,The High Street,MK8 8HD,52.0379521,-0.8018796
801,Avebury Boulevard,MK9 3JT,52.0431705,-0.7493956
27,Great Linch,MK10 9BF,52.0401612,-0.6967772
17,Great Linch,MK10 9BF,52.0400839,-0.6962913
18,Great Linch,MK10 9BF,52.0401971,-0.6964562
28,Great Linch,MK10 9BF,52.0400595,-0.6965790
29,Great Linch,MK10 9BF,52.0399851,-0.6967288
30,Great Linch,MK10 9BF,52.0399252,-0.6968770
31,Great Linch,MK10 9BF,52.0399041,-0.6971200
99,Wolverton Road,MK16 8HX,52.0854873,-0.7329389
2,The Green,MK16 0JW,52.0841688,-0.7286320
2,The Green,MK16 0JW,52.0840534,-0.7284926
144,Watling Street,MK1 1YY,52.0036788,-0.7274622
10,Pimlico Court,MK10 9RH,52.0338781,-0.7095354
74-76,Silver Street,MK16 0EG,52.0841463,-0.7241108
3,Stoke Road,MK2 3AB,51.9884243,-0.7202051
274C+RH,Bramley Road,MK1 1LZ,52.0073089,-0.7276093
2,Willen Road,MK16 0DF,52.0815214,-0.7229435
11,Great Linch,MK10 9BF,52.0408061,-0.6960613
8,Great Linch,MK10 9BF,52.0408274,-0.6965661
400,Marlborough Gate,MK9 3FP,52.0457200,-0.7494071
13a,Moorfoot,MK11 2BD,52.0518430,-0.8322052
48,Dunchurch Dale,MK7 7BT,52.0180280,-0.6951263
48,Dunchurch Dale,MK7 7BT,52.0180239,-0.6952919
2,Brooklands Road,MK10 7NF,52.0466074,-0.6783193
50,Garthwaite Crescent,MK5 7AX,52.0119038,-0.7906760
46,Garthwaite Crescent,MK5 7AX,52.0120200,-0.7902883
86,High Street,MK16 8PY,52.0865079,-0.7251496
1,Tenterden Crescent,MK7 6HH,52.0256331,-0.6956465
4,Calverton Lane,MK19 6EW,52.0350684,-0.8282561
34,Vicarage Road,MK11 1BN,52.0589718,-0.8532958
10,Hopkins Close,MK10 9AS,52.0411523,-0.7018494
18,Walton Road,MK10 9AQ,52.0417733,-0.7039140
19,Walton Road,MK10 9AQ,52.0418626,-0.7039712
2,Burley Cottages,MK10 9AQ,52.0410329,-0.7033220
1,Burley Cottages,MK10 9AQ,52.0409373,-0.7032946
10,Denmark Street,MK2 2NH,51.9966909,-0.7191565
8,Denmark Street,MK2 2NH,51.9967361,-0.7192761
12,Denmark Street,MK2 2NH,51.9966631,-0.7190147
14,Denmark Street,MK2 2NH,51.9966621,-0.7189363
16,Denmark Street,MK2 2NH,51.9966440,-0.7188279
18,Denmark Street,MK2 2NH,51.9966276,-0.7187494
17,Magnus Grove,MK11 4DG,52.0454396,-0.8418632
2,Magnus Grove,MK11 4DG,52.0462842,-0.8419277
27,Ashfield,MK14 6AU,52.0677060,-0.7680259
197,Avebury Boulevard,MK9 1AU,52.0352963,-0.7674526
331,Avebury Boulevard,MK9 2GA,52.0376763,-0.7619106
82,Bradwell Road,MK13 7AD,52.0592545,-0.7858888
16,Cranwell Crescent,MK17 9GT,51.9902904,-0.7072243
401,Elder Gate,MK9 1LR,52.0345734,-0.7707587
27,Atlas Way,MK10 9SG,52.0391954,-0.7149441
80,High Street,MK16 8AQ,52.0865960,-0.7243519
47,Cranwell Crescent,MK17 9GS,51.9900502,-0.7082975
46,Clifton Moor,MK5 6GA,52.0176151,-0.8101587
117,Priestley Drive,MK4 4PW,51.9938112,-0.7983104
4,Constantine Way,MK13 0RA,52.0560215,-0.7967367
5,Constantine Way,MK13 0RA,52.0559520,-0.7967381
6,Constantine Way,MK13 0RA,52.0558962,-0.7967465
7,Constantine Way,MK13 0RA,52.0558385,-0.7967830
8,Constantine Way,MK13 0RA,52.0557623,-0.7967442
9,Constantine Way,MK13 0RA,52.0556206,-0.7968133
3,Constantine Way,MK13 0RA,52.0561434,-0.7968300
1,Lullingstone Drive,MK13 0RB,52.0560843,-0.7970134
2,Lullingstone Drive,MK13 0RB,52.0560192,-0.7971965
3,Lullingstone Drive,MK13 0RB,52.0560052,-0.7972613
4,Lullingstone Drive,MK13 0RB,52.0559424,-0.7974320
5,Lullingstone Drive,MK13 0RB,52.0558600,-0.7971292
6,Lullingstone Drive,MK13 0RB,52.0556831,-0.7973360
7,Lullingstone Drive,MK13 0RB,52.0556639,-0.7971922
8,Lullingstone Drive,MK13 0RB,52.0556624,-0.7971116
9,Lullingstone Drive,MK13 0RB,52.0556599,-0.7970293
10,Lullingstone Drive,MK13 0RB,52.0555621,-0.7975551
11,Lullingstone Drive,MK13 0RB,52.0556027,-0.7975475
12,Lullingstone Drive,MK13 0RB,52.0556434,-0.7975446
13,Lullingstone Drive,MK13 0RB,52.0557123,-0.7977240
10,Constantine Way,MK13 0RA,52.0550841,-0.7965605
11,Constantine Way,MK13 0RA,52.0552373,-0.7963545
12,Constantine Way,MK13 0RA,52.0548202,-0.7965499
13,Constantine Way,MK13 0RA,52.0549271,-0.7968667
14,Constantine Way,MK13 0RA,52.0548027,-0.7969658
15,Constantine Way,MK13 0RA,52.0546537,-0.7966443
16,Constantine Way,MK13 0RA,52.0545530,-0.7967709
14,Lullingstone Drive,MK13 0RB,52.0558769,-0.7977053
15,Lullingstone Drive,MK13 0RB,52.0558346,-0.7979233
16,Lullingstone Drive,MK13 0RB,52.0556347,-0.7980243
17,Lullingstone Drive,MK13 0RB,52.0556225,-0.7979208
18,Lullingstone Drive,MK13 0RB,52.0556211,-0.7978443
19,Lullingstone Drive,MK13 0RB,52.0556376,-0.7983694
20,Lullingstone Drive,MK13 0RB,52.0556301,-0.7982878
21,Lullingstone Drive,MK13 0RB,52.0556210,-0.7982083
22,Lullingstone Drive,MK13 0RB,52.0558381,-0.7982267
23,Lullingstone Drive,MK13 0RB,52.0558182,-0.7985315
24,Lullingstone Drive,MK13 0RB,52.0556815,-0.7986412
25,Lullingstone Drive,MK13 0RB,52.0558788,-0.7991590
26,Lullingstone Drive,MK13 0RB,52.0558498,-0.7991329
27,Lullingstone Drive,MK13 0RB,52.0558089,-0.7990780
28,Lullingstone Drive,MK13 0RB,52.0559392,-0.7988616
29,Lullingstone Drive,MK13 0RB,52.0559643,-0.7988118
30,Lullingstone Drive,MK13 0RB,52.0560460,-0.7986189
31,Lullingstone Drive,MK13 0RB,52.0560758,-0.7984695
32,Lullingstone Drive,MK13 0RB,52.0560447,-0.7981438
33,Lullingstone Drive,MK13 0RB,52.0561923,-0.7982811
34,Lullingstone Drive,MK13 0RB,52.0562561,-0.7981195
35,Lullingstone Drive,MK13 0RB,52.0563140,-0.7980002
36,Lullingstone Drive,MK13 0RB,52.0560675,-0.7978781
37,Lullingstone Drive,MK13 0RB,52.0561173,-0.7976489
38,Lullingstone Drive,MK13 0RB,52.0561883,-0.7974063
39,Lullingstone Drive,MK13 0RB,52.0562840,-0.7974815
40,Lullingstone Drive,MK13 0RB,52.0563233,-0.7975105
41,Lullingstone Drive,MK13 0RB,52.0563735,-0.7977407
42,Lullingstone Drive,MK13 0RB,52.0564591,-0.7977457
43,Lullingstone Drive,MK13 0RB,52.0565291,-0.7976393
44,Lullingstone Drive,MK13 0RB,52.0565913,-0.7974158
45,Lullingstone Drive,MK13 0RB,52.0566299,-0.7974536
46,Lullingstone Drive,MK13 0RB,52.0565234,-0.7971639
47,Lullingstone Drive,MK13 0RB,52.0564942,-0.7973214
48,Lullingstone Drive,MK13 0RB,52.0562959,-0.7971165
2,Constantine Way,MK13 0RA,52.0563656,-0.7969297
1,Willowford,MK13 0RH,52.0544429,-0.7973360
2,Willowford,MK13 0RH,52.0543777,-0.7977123
3,Willowford,MK13 0RH,52.0541740,-0.7975549
4,Willowford,MK13 0RH,52.0542898,-0.7972816
5,Willowford,MK13 0RH,52.0539738,-0.7979672
6,Willowford,MK13 0RH,52.0540742,-0.7978258
3,Dalesbred Grove,MK8 1DW,52.0341123,-0.8126996
1,Oakley Gardens,MK15 9BH,52.0551898,-0.7403099
65,The High Street,MK8 8HA,52.0387730,-0.8023320
105,High Street,MK11 1AT,52.0583258,-0.8561840
1,Twain Way,MK4 4SQ,51.9910236,-0.8027642
13,Morris Grove,MK17 9GW,51.9909677,-0.7063142
19,Crowborough Lane,MK7 6HE,52.0276492,-0.6990136
30,High Street,MK14 5AX,52.0710574,-0.7581942
1,Wimborne Crescent,MK4 4DB,52.0037314,-0.7960861
6,Atlas Way,MK10 9SG,52.0393578,-0.7130184
19,High Street,MK17 8RF,52.0110655,-0.6462751
19a,High Street,MK17 8RF,52.0109755,-0.6465297
5,High Street,MK17 8RQ,52.0106366,-0.6462522
100,Chadwick Drive,MK6 5LS,52.0277468,-0.7414417
