House number,Street name,Postal code,Latitude,Longitude
5,улица Академика Королёва,423822,55.7135400,52.3952931
3,проспект Мира,423822,55.7245160,52.3811804
12,бульвар Энтузиастов,423810,55.7418198,52.4205256
115,улица Ахметшина,423812,55.7212591,52.4083166
45А,Набережночелнинский проспект,423822,55.7188756,52.3684843
42/09,проспект Хасана Туфана,423831,55.7460983,52.3838846
42/09,проспект Хасана Туфана,423831,55.7461286,52.3837642
65/35,проспект Сююмбике,423800,55.7531535,52.4081922
35Б,улица Комарова,423803,55.7011846,52.3374704
7,Набережночелнинский проспект,423822,55.7029993,52.3318491
35Б,улица Комарова,423803,55.7015354,52.3372533
29В,проспект Хасана Туфана,423831,55.7429849,52.3936196
76/39,улица Шамиля Усманова,423800,55.7550419,52.4061519
1А к2,проспект Раиса Беляева,423800,55.7244271,52.4135620
49А,улица Раскольникова,423832,55.7369202,52.3718919
33Б,проспект Мира,423812,55.7257432,52.3872829
12,улица Академика Рубаненко,423810,55.7451908,52.4184250
49А,проспект Мира,423800,55.7398942,52.4044970
47,Индустриальный проезд,423800,55.7179121,52.4383738
22,Линейный проезд,423800,55.6803124,52.4589715
10/70,проспект Мусы Джалиля,423802,55.6990469,52.3179845
2,Автозаводский проспект,423815,55.7477855,52.4469809
3,проспект Хасана Туфана,423810,55.7352385,52.4213049
8,проспект Чулман,423822,55.7216600,52.3635970
70/56,Набережночелнинский проспект,423822,55.7195902,52.3759709
16А,проспект Вахитова,423815,55.7468872,52.4254417
50,проспект Чулман,423831,55.7461890,52.3838076
50,проспект Чулман,423831,55.7460962,52.3837982
60,Сармановский тракт,423803,55.6989437,52.3333534
8,проспект Чулман,423822,55.7215346,52.3634121
3Е,улица Шамиля Усманова,423822,55.7220422,52.3693827
39/06А,проспект Чулман,423832,55.7357677,52.3764761
106,Московский проспект,423810,55.7341247,52.4156937
89/57,проспект Чулман,423832,55.7452985,52.3802025
115,улица Ахметшина,423812,55.7213307,52.4084383
2Б,Машиностроительная улица,423800,55.7116732,52.3959039
27,проезд Тозелеш,423800,55.7390320,52.4895344
80Б,улица Шамиля Усманова,423816,55.7569839,52.4079498
140А,Московский проспект,423827,55.7488437,52.4430188
22,Машиностроительная улица,423800,55.7244274,52.4183100
48,улица 40 лет Победы,423812,55.7259016,52.4114447
2/19,проспект Сююмбике,423812,55.7307437,52.3925078
81,Московский проспект,423814,55.7248582,52.3906932
18А,проспект Мира,423814,55.7273940,52.3912347
3,проспект Мира,423822,55.7249060,52.3810960
20А,улица Академика Королёва,423822,55.7254651,52.3783748
18,улица Шамиля Усманова,423822,55.7266760,52.3798108
13,проспект Мира,423812,55.7272318,52.3849636
16А,проспект Мира,423822,55.7289823,52.3866512
72А,Московский проспект,423814,55.7193013,52.3881985
1А/1,проспект Раиса Беляева,423800,55.7226351,52.4149307
14,улица Железнодорожников,423806,55.6997876,52.3628625
33,проспект Чулман,423838,55.7290738,52.3712297
9,Мензелинский тракт,423800,55.7051285,52.3951510
6,улица Низаметдинова,423806,55.6975037,52.3669675
131/6,Московский проспект,423810,55.7382573,52.4198657
114,Московский проспект,423810,55.7395363,52.4264214
68,улица 40 лет Победы,423800,55.7370581,52.4318731
13,бульвар Автомобилестроителей,423827,55.7529962,52.4536806
108А,улица Ахметшина,423814,55.7159838,52.4006013
104,Московский проспект,423810,55.7309591,52.4158512
89/57,проспект Чулман,423832,55.7451651,52.3797506
128А,Московский проспект,423815,55.7435575,52.4329220
136,Московский проспект,423815,55.7434309,52.4349288
14,проспект Яшьлек,423827,55.7616880,52.4530668
7,улица Академика Королёва,423822,55.7158573,52.3913533
74Б,Московский проспект,423814,55.7214300,52.3921028
102,улица Ахметшина,423814,55.7145765,52.3979662
101/2,улица Ахметшина,423814,55.7146570,52.3964060
3Г,проспект Хасана Туфана,423810,55.7361090,52.4190478
3А/1,проспект Хасана Туфана,423810,55.7352449,52.4209201
3В,проспект Хасана Туфана,423810,55.7357307,52.4199665
3Б,проспект Хасана Туфана,423810,55.7354695,52.4205075
128,Московский проспект,423815,55.7439753,52.4343438
64,улица 40 лет Победы,423800,55.7477955,52.4521536
1А,улица Шамиля Усманова,423822,55.7200680,52.3651646
42А,улица Шамиля Усманова,423831,55.7396639,52.3872467
18,бульвар Энтузиастов,423810,55.7445601,52.4193600
13А,проспект Вахитова,423810,55.7454802,52.4223656
19А,бульвар Энтузиастов,423810,55.7449868,52.4203698
66А,проспект Мира,423810,55.7470813,52.4162707
159Г,Московский проспект,423815,55.7453845,52.4315536
161А,Московский проспект,423815,55.7448459,52.4315405
20Б,проспект Вахитова,423815,55.7469476,52.4230173
157Б,Московский проспект,423815,55.7439087,52.4303792
23А,Автозаводский проспект,423818,55.7515600,52.4318027
54В,проспект Вахитова,423816,55.7581150,52.4041268
80Б,улица Шамиля Усманова,423816,55.7569839,52.4079498
4А,бульвар Бердаха,423823,55.7539122,52.4032950
60А,улица Шамиля Усманова,423831,55.7490801,52.3935685
80,Московский проспект,423814,55.7225282,52.3941805
79,улица Железнодорожников,423806,55.6999750,52.3618876
1,улица Низаметдинова,423806,55.6955395,52.3662357
25,улица Академика Королёва,423822,55.7213526,52.3813853
18,проспект КАМАЗа,423800,55.7251970,52.4421847
24,улица Низаметдинова,423806,55.7017636,52.3519149
14,улица Низаметдинова,423806,55.6990938,52.3605984
45А,Набережночелнинский проспект,423822,55.7189299,52.3683071
54,Набережночелнинский проспект,423822,55.7163292,52.3698335
68,улица Раскольникова,423832,55.7454154,52.3712817
62,улица Раскольникова,423832,55.7434147,52.3701250
60,улица Раскольникова,423832,55.7428177,52.3692838
66,улица Раскольникова,423832,55.7447271,52.3705067
10,Полиграфическая улица,423800,55.6472790,52.3402249
1,Мелиораторная улица,423800,55.6623151,52.3353140
13,Дорожная улица,423800,55.6627869,52.3322248
8,проезд Огнеборья,423800,55.6511910,52.3332873
21,Фабричный проезд,423800,55.6486079,52.3131772
84,Профильная улица,423800,55.6557140,52.3127594
38,Полиграфическая улица,423800,55.6463827,52.3231139
34,Полиграфическая улица,423800,55.6462478,52.3240684
32,Полиграфическая улица,423800,55.6465474,52.3248657
88,Профильная улица,423800,55.6557854,52.3109192
25/12,улица Тимер,423800,55.6487104,52.3299037
25,Профильная улица,423800,55.6545682,52.3218222
1,Мензелинский тракт,423800,55.7066783,52.3913869
29,Старосармановская улица,423807,55.6693389,52.3421977
4,Профильная улица,423800,55.6565842,52.3312865
24,Профильная улица,423800,55.6562550,52.3252550
31,Дорожная улица,423800,55.6626720,52.3287659
4,Профильная улица,423800,55.6565157,52.3309876
1,Народная улица,423800,55.6436275,52.3348113
1,Народная улица,423800,55.6434476,52.3342107
19А,Набережночелнинский проспект,423822,55.7097720,52.3582333
19,Набережночелнинский проспект,423822,55.7105378,52.3589313
25,Набережночелнинский проспект,423822,55.7115793,52.3588142
3А,Набережночелнинский проспект,423803,55.7026141,52.3295501
20,бульвар Энтузиастов,423810,55.7435607,52.4192316
4А,Автозаводский проспект,423827,55.7476928,52.4446521
11,Машиностроительная улица,423800,55.7092304,52.3977849
15,Трубный проезд,423800,55.7136916,52.4234846
17А/24Б,Набережночелнинский проспект,423803,55.7035697,52.3289028
59,улица Сергея Титова,423803,55.7077620,52.3446262
10,Набережночелнинский проспект,423803,55.7018998,52.3347703
34А,улица Хади Такташа,423806,55.6942012,52.3465205
36,улица Комарова,423803,55.6992516,52.3409319
34,улица Хади Такташа,423806,55.6935819,52.3459594
29,улица Маршала Жукова,423803,55.6992830,52.3417872
8,переулок Автомобилистов,423806,55.6989912,52.3478896
4,переулок Автомобилистов,423806,55.6984785,52.3466808
45,улица Хади Такташа,423806,55.6974255,52.3478500
47,улица Хади Такташа,423806,55.6978328,52.3482337
57,улица Хади Такташа,423806,55.6988484,52.3496311
6,переулок Автомобилистов,423806,55.6990585,52.3472517
11,Садовый переулок,423806,55.6993819,52.3482287
49,улица Хади Такташа,423806,55.6981763,52.3477302
55,улица Хади Такташа,423806,55.6986299,52.3490266
9,Садовый переулок,423806,55.6990226,52.3490561
53,улица Хади Такташа,423806,55.6987283,52.3482750
2,переулок Автомобилистов,423806,55.6977243,52.3468917
1,переулок Автомобилистов,423806,55.6980411,52.3458971
25,улица Низаметдинова,423806,55.7002982,52.3523900
38,улица Хади Такташа,423806,55.6966268,52.3485600
40,улица Хади Такташа,423806,55.6973082,52.3492590
73А,улица Железнодорожников,423806,55.6975204,52.3598448
24,Набережночелнинский проспект,423803,55.7034680,52.3482341
18,улица Низаметдинова,423806,55.7000591,52.3568172
20,улица Низаметдинова,423806,55.7008041,52.3556097
61/44,Промышленная улица,423800,55.7078372,52.4795759
50А,проспект Мира,423827,55.7401122,52.4078668
1,улица Гидростроителей,423800,55.6837331,52.2970126
1/18,Парковый переулок,423800,55.6839952,52.2885179
25,проспект Мусы Джалиля,423800,55.6822579,52.2949501
2,Парковый переулок,423800,55.6832816,52.2956914
19,улица Гидростроителей,423800,55.6872503,52.2887420
21,улица Гидростроителей,423800,55.6879390,52.2884768
17,улица Гидростроителей,423800,55.6871900,52.2895321
1,улица Гидростроителей,423800,55.6833344,52.2968002
14А,бульвар Строителей,423819,55.7363592,52.4134223
130В,Московский проспект,423815,55.7448707,52.4354116
4,бульвар Ямашева,423800,55.6866560,52.2984162
6,улица Гидростроителей,423800,55.6848349,52.2981023
12,улица Гидростроителей,423800,55.6855209,52.2969228
4/12,проспект Мусы Джалиля,423800,55.6887991,52.3026964
29/2,проспект Мусы Джалиля,423800,55.6846941,52.2991761
29,улица Низаметдинова,423806,55.7006925,52.3484313
140А,Московский проспект,423827,55.7488503,52.4429830
138А,Московский проспект,423827,55.7488356,52.4423945
140,Московский проспект,423827,55.7485087,52.4442065
30А,проспект Сююмбике,423823,55.7472721,52.4004204
209,Казанский проспект,423800,55.6845562,52.3515513
16,набережная Габдуллы Тукая,423850,55.6799027,52.3018017
9/3А,проспект Мусы Джалиля,423802,55.6971864,52.3124531
18,улица Батенчука,423800,55.6907142,52.3030799
33,бульвар Ямашева,423800,55.6915849,52.3017223
21,Набережночелнинский проспект,423822,55.7101530,52.3560083
6А,проспект Мусы Джалиля,423820,55.6685094,52.2801367
2,бульвар Сайдашева,423800,55.6931702,52.3009394
19,Производственный проезд,423800,55.6992346,52.4169140
44,Мензелинский тракт,423800,55.6959677,52.4149794
7,Орловская улица,423822,55.7165647,52.3742252
1А/2,проспект Раиса Беляева,423800,55.7219397,52.4152195
19,проспект Вахитова,423810,55.7466315,52.4198818
51,проспект КАМАЗа,423800,55.7126929,52.4501602
10,Пролетарский проезд,423800,55.7205480,52.4300894
51/2,Резервный проезд,423800,55.7170903,52.4238190
62/21,Индустриальный проезд,423800,55.7214810,52.4410561
253,Казанский проспект,423800,55.7014881,52.3803274
25А,Набережночелнинский проспект,423822,55.7122083,52.3561590
8,улица Низаметдинова,423806,55.6977649,52.3657432
89,проспект Мира,423821,55.7570134,52.4303307
81А,проспект Сююмбике,423826,55.7598062,52.4214461
22,Набережночелнинский проспект,423803,55.7039167,52.3475966
1,Садовая улица,423822,55.7124635,52.3667226
47А,Орловская улица,423822,55.7147207,52.3683021
72,Орловская улица,423822,55.7152215,52.3688221
53,Орловская улица,423822,55.7151537,52.3702104
66,Орловская улица,423822,55.7150245,52.3680091
88,Орловская улица,423822,55.7158359,52.3715744
4,улица Земляков,423822,55.7145006,52.3696889
51,Орловская улица,423822,55.7150360,52.3697021
86,Орловская улица,423822,55.7157935,52.3713487
2А,улица Земляков,423822,55.7143092,52.3686901
76,Орловская улица,423822,55.7155300,52.3695097
67,Орловская улица,423822,55.7153397,52.3732148
49,Орловская улица,423822,55.7149568,52.3693130
12А,Садовая улица,423822,55.7119645,52.3685076
11А,Садовая улица,423822,55.7123148,52.3682395
19,Садовая улица,423822,55.7129047,52.3687309
17,Садовая улица,423822,55.7128531,52.3683362
74,Орловская улица,423822,55.7153008,52.3690670
35,Пролетарская улица,423822,55.7121086,52.3670724
78,Орловская улица,423822,55.7154973,52.3699857
11,Садовая улица,423822,55.7120827,52.3684210
5,Садовая улица,423822,55.7126290,52.3674034
6,улица Земляков,423822,55.7145639,52.3700470
19А,Садовая улица,423822,55.7129329,52.3689306
8,улица Земляков,423822,55.7146273,52.3705591
47,Орловская улица,423822,55.7147688,52.3688506
57А,Орловская улица,423822,55.7153796,52.3715046
13,Садовая улица,423822,55.7124618,52.3681486
33,Пролетарская улица,423822,55.7119367,52.3672407
2/4А,Альметьевский тракт,423800,55.6604277,52.2616941
1А,Магистральная улица,423800,55.6521078,52.2662453
10,Альметьевский тракт,423800,55.6536736,52.2645437
22,Альметьевский тракт,423800,55.6605536,52.2635283
20/2,Мензелинский тракт,423800,55.7058034,52.3988013
37,Хлебный проезд,423800,55.7127914,52.4173845
27,проезд Тозелеш,423800,55.7390217,52.4897120
25А,Ремонтный проезд,423800,55.7506956,52.4763609
3/2,Машиностроительная улица,423800,55.7080215,52.3966473
14,Мензелинский тракт,423800,55.7068102,52.3968113
24,Мензелинский тракт,423800,55.7037097,52.4015187
8,Мензелинский тракт,423800,55.7071413,52.3961724
16,Мензелинский тракт,423800,55.7064857,52.3971445
4В,Альметьевский тракт,423800,55.6572351,52.2572280
22,проезд Тизлек,423800,55.6835756,52.4420235
9А,переулок Железнодорожников,423806,55.7015220,52.3606013
69,Промышленная улица,423800,55.7117968,52.4877083
69Б,Промышленная улица,423800,55.7110375,52.4924008
4А/1,Альметьевский тракт,423800,55.6573003,52.2561838
4А/3,Альметьевский тракт,423800,55.6573627,52.2565181
2,Альметьевский тракт,423800,55.6567898,52.2556933
1А,Мензелинский тракт,423800,55.7064558,52.3897175
2,улица Низаметдинова,423806,55.6964767,52.3675578
129,проспект Чулман,423826,55.7779318,52.4277622
4,переулок Ивана Можарова,423826,55.7780627,52.4262982
2А,проспект Хасана Туфана,423800,55.7343545,52.4260328
8,Ленинградская улица,423826,55.7767269,52.4267830
6,Ленинградская улица,423826,55.7769719,52.4269870
10,Ленинградская улица,423826,55.7764740,52.4264442
9,переулок Ивана Можарова,423826,55.7776348,52.4260816
2,Ленинградская улица,423826,55.7777024,52.4272377
211,Орловская улица,423822,55.7107901,52.3945230
25А,проспект Яшьлек,423825,55.7638365,52.4424183
2А,улица Абдуллы Алиша,423825,55.7633243,52.4471525
17/1,переулок Железнодорожников,423806,55.7015581,52.3590120
100,улица Ахметшина,423814,55.7140228,52.3969442
6,Центральная улица,423802,55.7023155,52.3115975
1А,Красногвардейская улица,423850,55.7007442,52.3105911
89,улица Земляков,423822,55.7142125,52.3743429
17,переулок Железнодорожников,423806,55.7017553,52.3581772
9,переулок Железнодорожников,423806,55.7010493,52.3603071
33,бульвар Ямашева,423800,55.6918261,52.3016516
52А,проспект Мира,423810,55.7420563,52.4093806
3В,Набережночелнинский проспект,423803,55.7027176,52.3269350
60,улица Жданова,423803,55.6855526,52.3200185
60/1,улица Жданова,423803,55.6862316,52.3207180
60В,улица Жданова,423803,55.6872874,52.3222312
60Б,улица Жданова,423803,55.6874752,52.3213230
60А,улица Жданова,423803,55.6869304,52.3210014
16,Магистральная улица,423820,55.6602779,52.2758584
36Д,проспект Вахитова,423816,55.7539893,52.4099650
88Б,улица Шамиля Усманова,423816,55.7594586,52.4121451
15 с1,Металлургическая улица,423800,55.6737627,52.4589765
15,Металлургическая улица,423800,55.6734788,52.4584732
36,улица Сергея Титова,423803,55.7057875,52.3457301
36,улица Сергея Титова,423803,55.7069635,52.3461479
21,улица Гидростроителей,423800,55.6882204,52.2889092
1А,улица Вахитовское кольцо,423800,55.7375214,52.4398687
1А,проспект Раиса Беляева,423812,55.7218700,52.4147428
5,проезд Тозелеш,423800,55.7459462,52.4759059
8,проспект КАМАЗа,423800,55.7270339,52.4392946
8/2,проспект КАМАЗа,423800,55.7280035,52.4379649
19А,Цветочный бульвар,423821,55.7607511,52.4301693
73Б,Промышленная улица,423800,55.7145665,52.4874189
71,Промышленная улица,423800,55.7128575,52.4862178
79,Промышленная улица,423800,55.7148282,52.4910677
77,Промышленная улица,423800,55.7139122,52.4868484
69А,Промышленная улица,423800,55.7119699,52.4935502
11,Магистральная улица,423800,55.6598871,52.2689492
36А,улица Шамиля Усманова,423832,55.7366423,52.3855083
133,Казанский проспект,423800,55.6663822,52.3143735
59А,улица 40 лет Победы,423815,55.7444684,52.4400233
18А,Альметьевский тракт,423800,55.6562657,52.2642272
119,Казанский проспект,423800,55.6748717,52.3282138
1/1,улица Академика Королёва,423822,55.7126589,52.3950194
226,Казанский проспект,423800,55.6904071,52.3600503
225,Казанский проспект,423800,55.6910290,52.3611488
4А/2,Альметьевский тракт,423800,55.6571151,52.2564213
2,улица Назипа Зиатдинова,423838,55.7256624,52.3481941
15,бульвар Юных Ленинцев,423827,55.7558266,52.4468255
19,бульвар Юных Ленинцев,423827,55.7560730,52.4469991
57,Автозаводский проспект,423816,55.7626170,52.4144725
154,Казанский проспект,423806,55.6916226,52.3593543
40А,улица Шамиля Усманова,423832,55.7380545,52.3863204
42,Машиностроительная улица,423800,55.7292951,52.4269858
2,Магистральная улица,423820,55.6524161,52.2761757
121,улица Ахметшина,423812,55.7231237,52.4116353
19Г,Набережночелнинский проспект,423803,55.7051889,52.3470717
149,Казанский проспект,423800,55.6683280,52.3223345
36/2,Мензелинский тракт,423800,55.7017888,52.4060193
17А,улица Виктора Полякова,423827,55.7613083,52.4609388
84,проспект Раиса Беляева,423832,55.7420037,52.3730995
2,проспект Сююмбике,423812,55.7319847,52.3914213
25Б,Набережночелнинский проспект,423822,55.7110577,52.3590812
41,проспект Яшьлек,423825,55.7666684,52.4403230
31А,Автозаводский проспект,423818,55.7529804,52.4308594
113,проспект Чулман,423826,55.7697385,52.4175551
99,проспект Чулман,423826,55.7662066,52.4123812
99/1,проспект Чулман,423826,55.7655874,52.4123858
106,улица Ахметшина,423814,55.7141712,52.3990601
22/15,Пролетарский проезд,423800,55.7230675,52.4386530
1-2,Машиностроительная улица,423800,55.7086944,52.3947492
258,Казанский проспект,423800,55.7041940,52.3854969
24,Линейный проезд,423800,55.6789976,52.4609019
45,Металлургическая улица,423800,55.6774811,52.4643595
81,Транспортный проезд,423800,55.7235266,52.4353957
65,Машиностроительная улица,423800,55.7195821,52.4195577
22,Резервный проезд,423800,55.7181460,52.4209339
20,Резервный проезд,423800,55.7069800,52.4410405
26/25,Производственный проезд,423800,55.7083163,52.4294268
49,Промышленная улица,423800,55.6999398,52.4591325
51,Промышленная улица,423800,55.7003557,52.4588301
29/3,Промышленная улица,423800,55.6939711,52.4476703
29Б,Промышленная улица,423800,55.6903971,52.4411664
45/2,Промышленная улица,423800,55.6910100,52.4551802
27/1,Промышленная улица,423800,55.6920568,52.4447807
17,улица Железнодорожников,423806,55.7000835,52.3642510
239,Казанский проспект,423800,55.6962050,52.3707175
61,Автозаводский проспект,423800,55.7419208,52.4496784
90,улица 40 лет Победы,423800,55.7439169,52.4435692
90Б,улица 40 лет Победы,423800,55.7443299,52.4443639
88,улица 40 лет Победы,423800,55.7435540,52.4428455
94,улица 40 лет Победы,423800,55.7445030,52.4452394
30,Промышленная улица,423800,55.7034916,52.4555628
15,Мензелинский тракт,423800,55.7043841,52.3962650
44,Машиностроительная улица,423800,55.7306310,52.4272343
136,Московский проспект,423815,55.7433821,52.4357145
5,бульвар Домостроителей,423826,55.7658821,52.4194478
40,Промышленная улица,423800,55.7178048,52.4840190
54,Промышленная улица,423800,55.7214114,52.4909713
50,Промышленная улица,423800,55.7204633,52.4886970
68,Промышленная улица,423800,55.7264925,52.4995632
20,проспект Мира,423821,55.7581317,52.4317559
16Б,Цветочный бульвар,423821,55.7597713,52.4315716
27/34,улица Маршала Жукова,423803,55.6987936,52.3418824
27/34,улица Маршала Жукова,423803,55.6987553,52.3410213
30,улица Низаметдинова,423803,55.7035277,52.3455711
7А,Автозаводский проспект,423815,55.7493284,52.4364544
58,улица Назыма Якупова,423803,55.6874080,52.3343634
18,Тэцовский проезд,423800,55.6943595,52.4630810
14,Тэцовский проезд,423800,55.6950386,52.4623824
12,Тэцовский проезд,423800,55.6949608,52.4621451
20,Тэцовский проезд,423800,55.6945592,52.4630653
12Б,проспект Мира,423814,55.7264110,52.3886192
128Б,Московский проспект,423815,55.7435064,52.4341043
49,Металлургическая улица,423800,55.6775167,52.4658835
35,проспект КАМАЗа,423800,55.7192198,52.4479322
11Б,Металлургическая улица,423800,55.6719973,52.4578226
60,Автозаводский проспект,423800,55.7424753,52.4512660
123,улица Ахметшина,423812,55.7235762,52.4120419
238,Казанский проспект,423800,55.6949937,52.3684441
8А,Набережночелнинский проспект,423803,55.7017228,52.3334147
3А,Автозаводский проспект,423815,55.7458026,52.4405241
17В,проспект Мира,423822,55.7290499,52.3884801
17А,проспект Мира,423822,55.7287700,52.3876360
17Б,проспект Мира,423822,55.7287436,52.3881807
17Г,проспект Мира,423822,55.7293839,52.3885553
15А,проспект Мира,423822,55.7294394,52.3855635
20Б,улица Академика Королёва,423822,55.7256358,52.3775763
10,проспект Чулман,423822,55.7222275,52.3645554
8,проспект Чулман,423822,55.7216437,52.3634937
11А,Автозаводский проспект,423815,55.7486354,52.4356036
16/1,Магистральная улица,423820,55.6587186,52.2760235
26,улица Низаметдинова,423806,55.7025466,52.3511872
7,переулок Железнодорожников,423806,55.7008821,52.3595270
7А,переулок Железнодорожников,423806,55.7003397,52.3600394
16,улица Низаметдинова,423806,55.6994947,52.3584780
77,переулок Железнодорожников,423806,55.7003772,52.3608168
10,улица Низаметдинова,423806,55.6980192,52.3630409
1,Мелекесская улица,423800,55.6746894,52.3073801
212,Орловская улица,423822,55.7110805,52.3952817
210,Орловская улица,423822,55.7116384,52.3951272
208,Орловская улица,423822,55.7118981,52.3940923
25,улица Чкалова,423822,55.7122835,52.3925714
202,Орловская улица,423822,55.7126823,52.3932121
48,Автозаводский проспект,423826,55.7639752,52.4143579
70,улица 40 лет Победы,423800,55.7378879,52.4327528
60А,улица 40 лет Победы,423800,55.7345807,52.4266889
58/1,улица 40 лет Победы,423800,55.7331269,52.4239536
58,улица 40 лет Победы,423800,55.7328795,52.4239253
3,Машиностроительная улица,423800,55.7083847,52.3974210
6,Мензелинский тракт,423800,55.7079393,52.3959018
248 c2,Казанский проспект,423800,55.6976689,52.3738625
206/5,Казанский проспект,423800,55.6829616,52.3508547
207,Казанский проспект,423800,55.6831622,52.3513381
207,Казанский проспект,423800,55.6827702,52.3513552
200,Казанский проспект,423800,55.6832522,52.3485084
14,Старосармановская улица,423800,55.6742475,52.3459996
23,Старосармановская улица,423800,55.6725883,52.3366360
6,Спартаковская улица,423801,55.7059880,52.3218873
35А,улица Лермонтова,423801,55.7091998,52.3338052
35А/1,улица Лермонтова,423801,55.7111291,52.3371004
92,улица Лермонтова,423801,55.7112521,52.3390279
94,улица Лермонтова,423801,55.7120283,52.3398366
54,улица Лермонтова,423801,55.7131257,52.3407552
50А,улица Лермонтова,423801,55.7130041,52.3397732
35Б,улица Лермонтова,423801,55.7124526,52.3385425
55А с2,улица Лермонтова,423801,55.7126691,52.3414175
8(102),улица Лермонтова,423801,55.7130411,52.3425711
104,улица Лермонтова,423801,55.7131637,52.3435637
131А,проспект Чулман,423826,55.7802732,52.4272413
27,Хлебный проезд,423800,55.7117079,52.4139057
237,Казанский проспект,423800,55.6958494,52.3701879
237,Казанский проспект,423800,55.6959657,52.3702797
129,Казанский проспект,423800,55.6655533,52.3112831
123,Казанский проспект,423800,55.6655382,52.3130970
133/3,Казанский проспект,423800,55.6656107,52.3124090
129/1,Казанский проспект,423800,55.6652140,52.3122119
124,Казанский проспект,423800,55.6778683,52.3342971
16А,бульвар Галиаскара Камала,423827,55.7533832,52.4383770
51,Машиностроительная улица,423800,55.7165018,52.4103290
90/1,Машиностроительная улица,423800,55.7392938,52.4474316
81,Машиностроительная улица,423800,55.7258967,52.4270862
79,Машиностроительная улица,423800,55.7256019,52.4268857
81,Машиностроительная улица,423800,55.7255371,52.4264910
21,Мелиораторная улица,423800,55.6587259,52.3386438
72Б,улица 40 лет Победы,423800,55.7370775,52.4370129
72Б,улица 40 лет Победы,423800,55.7371865,52.4368292
72Б,улица 40 лет Победы,423800,55.7372717,52.4366854
72Б,улица 40 лет Победы,423800,55.7373765,52.4365089
60/1,улица 40 лет Победы,423800,55.7328206,52.4282521
66,улица 40 лет Победы,423800,55.7362371,52.4304489
66,улица 40 лет Победы,423800,55.7361471,52.4302669
68/1,улица 40 лет Победы,423800,55.7355951,52.4285165
28,Альметьевский тракт,423800,55.6639725,52.2693722
26,Альметьевский тракт,423800,55.6591851,52.2655515
26/1,Альметьевский тракт,423800,55.6592018,52.2671968
26/2,Альметьевский тракт,423800,55.6594497,52.2678058
12,Альметьевский тракт,423800,55.6533296,52.2654542
115,улица Ахметшина,423812,55.7212545,52.4082387
8А,улица Гидростроителей,423850,55.6846234,52.2968975
1В,проспект Раиса Беляева,423812,55.7247206,52.4169554
38Г,улица Шамиля Усманова,423832,55.7365602,52.3857537
38В,улица Шамиля Усманова,423832,55.7365380,52.3858824
236,Казанский проспект,423800,55.6956282,52.3696857
236 с3,Казанский проспект,423800,55.6951720,52.3702746
22,улица Гагарина,423850,55.6964839,52.3088757
20,улица Гагарина,423850,55.6965894,52.3091826
18,улица Гагарина,423850,55.6967247,52.3096036
13,Автозаводстроевский проезд,423800,55.7357187,52.5024015
16,Автозаводстроевский проезд,423800,55.7352182,52.5044848
10,Автозаводстроевский проезд,423800,55.7354693,52.5034492
112,проезд Тозелеш,423800,55.7323643,52.5038060
116,проезд Тозелеш,423800,55.7326119,52.5055553
100/3,проезд Тозелеш,423800,55.7330370,52.5018996
100/2,проезд Тозелеш,423800,55.7335516,52.5007773
80,проезд Тозелеш,423800,55.7367826,52.4989112
82,проезд Тозелеш,423800,55.7364123,52.4981721
98/2Б,проезд Тозелеш,423800,55.7362057,52.4991931
98/1,проезд Тозелеш,423800,55.7344757,52.4995725
96,проезд Тозелеш,423800,55.7349017,52.4988827
98/2,проезд Тозелеш,423800,55.7354546,52.4978270
98/3,проезд Тозелеш,423800,55.7360728,52.4968487
35,проезд Тозелеш,423800,55.7350566,52.4969399
18,Механизаторный проезд,423800,55.7387836,52.4983389
26,проезд Тозелеш,423800,55.7440491,52.4826690
28,проезд Тозелеш,423800,55.7436880,52.4833068
20,проезд Тозелеш,423800,55.7454089,52.4807926
18,проезд Тозелеш,423800,55.7456497,52.4803825
14,проезд Тозелеш,423800,55.7461886,52.4797927
22,Арматурный проезд,423800,55.6861831,52.4439730
12,Арматурный проезд,423800,55.6857971,52.4431011
20,Арматурный проезд,423800,55.6870662,52.4416710
22,Арматурный проезд,423800,55.6861957,52.4435233
32/1,Арматурный проезд,423800,55.6891413,52.4480662
42,проезд Тизлек,423800,55.6885227,52.4425248
10,Арматурный проезд,423800,55.6861180,52.4406183
32,проезд Тизлек,423800,55.6854084,52.4375435
19,Арматурный проезд,423800,55.6847799,52.4442184
122,Мензелинский тракт,423800,55.6818672,52.4407445
122 с1,Мензелинский тракт,423800,55.6826130,52.4405061
20,проезд Тизлек,423800,55.6830879,52.4415400
14,проезд Тизлек,423800,55.6819934,52.4429830
16,Ресурсный проезд,423800,55.6910032,52.4499620
18,Ресурсный проезд,423800,55.6911623,52.4506503
51,Арматурный проезд,423800,55.6872233,52.4473780
51А,Арматурный проезд,423800,55.6865837,52.4476755
49,Арматурный проезд,423800,55.6865649,52.4489791
35,Арматурный проезд,423800,55.6848384,52.4465498
19,Ресурсный проезд,423800,55.6850361,52.4487582
16,проезд Тизлек,423800,55.6827444,52.4452357
19А,Арматурный проезд,423800,55.6842098,52.4438650
22/25,Линейный проезд,423800,55.6858867,52.4576777
11/2,Гвардейская улица,423820,55.6688551,52.2860125
4,Гвардейская улица,423820,55.6684957,52.2852750
3,Дорожная улица,423800,55.6663667,52.3431621
31,Индустриальный проезд,423800,55.7136942,52.4317448
44В,Сармановский тракт,423803,55.6856662,52.3348292
37,Индустриальный проезд,423800,55.7164889,52.4362343
45,Индустриальный проезд,423800,55.7171183,52.4377862
55,Индустриальный проезд,423800,55.7185665,52.4402597
33,Индустриальный проезд,423800,55.7142495,52.4346460
12,Резервный проезд,423800,55.7112331,52.4327397
10,Резервный проезд,423800,55.7115978,52.4329233
8,Резервный проезд,423800,55.7121974,52.4310947
38/17,Индустриальный проезд,423800,55.7111038,52.4236046
30,Индустриальный проезд,423800,55.7090023,52.4197524
19,Индустриальный проезд,423800,55.7102659,52.4252762
23,Трубный проезд,423800,55.7103383,52.4292602
15,Машиностроительная улица,423800,55.7092444,52.3992658
48,Моторная улица,423800,55.7161639,52.5249487
54,Моторная улица,423800,55.7154665,52.5269388
47,Моторная улица,423800,55.7123771,52.5266188
22,Тэцовский проезд,423800,55.6952510,52.4635824
24,Тэцовский проезд,423800,55.6951069,52.4647813
32,Тэцовский проезд,423800,55.6935753,52.4643925
36,Тэцовский проезд,423800,55.6920957,52.4657842
42,Тэцовский проезд,423800,55.6925198,52.4668741
58,Тэцовский проезд,423800,55.6904723,52.4694902
60,Тэцовский проезд,423800,55.6891904,52.4716996
38,Производственный проезд,423800,55.7136269,52.4370974
18,Индустриальный проезд,423800,55.7063659,52.4148810
57,Индустриальный проезд,423800,55.7198624,52.4422595
26,улица Железнодорожников,423806,55.6993310,52.3632525
1Б,Ленинградская улица,423826,55.7758988,52.4267215
1А-1,Ленинградская улица,423826,55.7757477,52.4266297
2,Ленинградская улица,423826,55.7755678,52.4264599
1,Красногвардейская улица,423850,55.7006885,52.3108146
30А,Мензелинский тракт,423800,55.7028261,52.4029458
30,Мензелинский тракт,423800,55.7024608,52.4036629
43,Мензелинский тракт,423800,55.6988068,52.4047992
29/5,Мензелинский тракт,423800,55.6985187,52.4035996
40,Мензелинский тракт,423800,55.6988539,52.4103465
7,Мензелинский тракт,423800,55.7071517,52.3946490
52,Мензелинский тракт,423800,55.6955999,52.4166723
46,Мензелинский тракт,423800,55.6972468,52.4158734
45,Мензелинский тракт,423800,55.6964438,52.4170209
48,Мензелинский тракт,423800,55.6972791,52.4169510
50,Мензелинский тракт,423800,55.6978725,52.4185751
54,Мензелинский тракт,423800,55.6978768,52.4203395
25,Производственный проезд,423800,55.6982869,52.4187381
25,Производственный проезд,423800,55.6993138,52.4200255
23,Производственный проезд,423800,55.6998864,52.4193971
18,Мензелинский тракт,423800,55.7064539,52.3975925
18А,Мензелинский тракт,423800,55.7062009,52.3976011
152,Мензелинский тракт,423800,55.6736294,52.4531567
154,Мензелинский тракт,423800,55.6742467,52.4546682
11 с2,Металлургическая улица,423800,55.6734367,52.4554440
11 с3,Металлургическая улица,423800,55.6735771,52.4550222
11 с1,Металлургическая улица,423800,55.6730225,52.4561784
11Г с1,Металлургическая улица,423800,55.6725282,52.4552538
11В,Металлургическая улица,423800,55.6722011,52.4549856
11,Металлургическая улица,423800,55.6726173,52.4568430
23,Металлургическая улица,423800,55.6744569,52.4601511
27,Металлургическая улица,423800,55.6751848,52.4615505
93/2,Машиностроительная улица,423800,55.7411627,52.4542751
92,Машиностроительная улица,423800,55.7400421,52.4474230
116,Машиностроительная улица,423800,55.7452225,52.4586637
13,Машиностроительная улица,423800,55.7108370,52.3978005
21А,Набережночелнинский проспект,423822,55.7092012,52.3563908
5,проезд Огнеборья,423800,55.6523210,52.3268378
186,Орловская улица,423800,55.7140732,52.3907297
29А,Полевая улица,423850,55.6965762,52.3055415
29А/1,Полевая улица,423850,55.6966647,52.3059293
29Б,Полевая улица,423850,55.6967568,52.3063898
29Б/1,Полевая улица,423850,55.6968230,52.3066900
29,улица Дзержинского,423850,55.6969992,52.3066838
29В,Полевая улица,423850,55.6969373,52.3071909
38/1,Полевая улица,423850,55.6969648,52.3077604
38А,улица Гагарина,423850,55.6965216,52.3067057
29Г,Полевая улица,423850,55.6963874,52.3058063
79,улица Железнодорожников,423806,55.7010616,52.3633146
60А,улица Лермонтова,423801,55.7112002,52.3458095
2/15,Моторная улица,423800,55.7503034,52.4710941
17,Ремонтный проезд,423800,55.7520892,52.4732106
17А,Ремонтный проезд,423800,55.7518900,52.4734106
19,Ремонтный проезд,423800,55.7525454,52.4736973
15,Ремонтный проезд,423800,55.7515098,52.4727958
41,Ремонтный проезд,423800,55.7519318,52.4748519
39,Ремонтный проезд,423800,55.7517790,52.4751014
51,Ремонтный проезд,423800,55.7522688,52.4748684
31,Ремонтный проезд,423800,55.7512891,52.4765880
35,Ремонтный проезд,423800,55.7518103,52.4763504
37,Ремонтный проезд,423800,55.7518075,52.4761915
29,Ремонтный проезд,423800,55.7511427,52.4770141
57,Ремонтный проезд,423800,55.7523877,52.4771372
59,Ремонтный проезд,423800,55.7521388,52.4775257
63,Ремонтный проезд,423800,55.7517406,52.4780088
61,Ремонтный проезд,423800,55.7519157,52.4783812
26,Ремонтный проезд,423800,55.7511690,52.4800018
79,Ремонтный проезд,423800,55.7527307,52.4797354
87,Ремонтный проезд,423800,55.7528166,52.4802236
28,Ремонтный проезд,423800,55.7517809,52.4813365
46,Ремонтный проезд,423800,55.7526407,52.4827452
40,Ремонтный проезд,423800,55.7514609,52.4848484
52,Ремонтный проезд,423800,55.7532738,52.4839614
65,Ремонтный проезд,423800,55.7532471,52.4761354
53,Ремонтный проезд,423800,55.7530588,52.4758214
55,Ремонтный проезд,423800,55.7533338,52.4766688
99,Ремонтный проезд,423800,55.7554381,52.4800228
22,Ремонтный проезд,423800,55.7508121,52.4806247
22Б,проезд Тизлек,423800,55.6839089,52.4402638
114/3,Мензелинский тракт,423800,55.6842525,52.4363154
19,проезд Тизлек,423800,55.6851613,52.4361769
5,Промышленная улица,423800,55.6857534,52.4349499
3,Промышленная улица,423800,55.6853196,52.4336833
7,Промышленная улица,423800,55.6863953,52.4340431
9,Промышленная улица,423800,55.6869574,52.4346431
15А,Промышленная улица,423800,55.6874842,52.4355182
15,Промышленная улица,423800,55.6878172,52.4366411
15Б,Промышленная улица,423800,55.6885242,52.4359620
20,Линейный проезд,423800,55.6760355,52.4544486
18,Линейный проезд,423800,55.6755404,52.4540687
15/4,Металлургическая улица,423800,55.6751958,52.4549648
21,Металлургическая улица,423800,55.6760103,52.4564854
17,Металлургическая улица,423800,55.6743143,52.4560557
1А,проспект Хасана Туфана,423800,55.7316752,52.4269944
39,Хлебный проезд,423800,55.7146388,52.4191949
5,Пролетарский проезд,423800,55.7170946,52.4317748
7,Пролетарский проезд,423800,55.7172959,52.4311065
75/18,Пролетарский проезд,423800,55.7209747,52.4359850
63,улица Чапаева,423801,55.7130478,52.3270669
24,улица Чехова,423801,55.7132526,52.3358748
51,улица Лермонтова,423801,55.7123537,52.3364560
35Б/1,улица Лермонтова,423801,55.7118175,52.3379160
35Г,улица Лермонтова,423801,55.7103072,52.3340915
16А,набережная Габдуллы Тукая,423850,55.6811346,52.3047842
14А,проспект Мусы Джалиля,423850,55.6708209,52.2820559
46Б,проспект Мусы Джалиля,423850,55.6830945,52.2987490
27/2,Металлургическая улица,423800,55.6764919,52.4617339
27/1,Металлургическая улица,423800,55.6757658,52.4626285
55/2,Металлургическая улица,423800,55.6788373,52.4665601
56,Мензелинский тракт,423800,55.6973608,52.4252540
82 с8,Мензелинский тракт,423800,55.6973676,52.4277452
82 с6,Мензелинский тракт,423800,55.6981911,52.4284725
82 с7,Мензелинский тракт,423800,55.6979122,52.4286257
82 с5,Мензелинский тракт,423800,55.6984768,52.4298213
82 с4,Мензелинский тракт,423800,55.6990459,52.4309018
82 с3,Мензелинский тракт,423800,55.6994442,52.4309478
82 с2,Мензелинский тракт,423800,55.6997524,52.4308010
82 с1,Мензелинский тракт,423800,55.6999349,52.4315931
82,Мензелинский тракт,423800,55.7003997,52.4298875
16,проезд Тизлек,423800,55.6767250,52.4520283
3,Производственный проезд,423800,55.6987333,52.4153187
39А,Производственный проезд,423800,55.7031121,52.4237672
12,Трубный проезд,423800,55.7084411,52.4341024
45,Трубный проезд,423800,55.7059862,52.4356545
37,Трубный проезд,423800,55.7067749,52.4342206
49,Трубный проезд,423800,55.7055824,52.4372266
57,Трубный проезд,423800,55.7048425,52.4385944
28,Резервный проезд,423800,55.7051776,52.4435434
32,Резервный проезд,423800,55.7047875,52.4461606
34,Производственный проезд,423800,55.7120551,52.4369983
23/4,Старосармановская улица,423800,55.6724107,52.3369782
6А,проезд Тизлек,423800,55.6819271,52.4445467
6Б,проезд Тизлек,423800,55.6822755,52.4451861
6,проезд Тизлек,423800,55.6811005,52.4444120
8,проезд Тизлек,423800,55.6817762,52.4456231
15,проезд Тизлек,423800,55.6814474,52.4427847
118 с2,Мензелинский тракт,423800,55.6827524,52.4381839
118 с1,Мензелинский тракт,423800,55.6825405,52.4377908
118/1,Мензелинский тракт,423800,55.6821065,52.4386161
120,Мензелинский тракт,423800,55.6818711,52.4389269
3 с1,проезд Тизлек,423800,55.6806435,52.4439075
126А,Мензелинский тракт,423800,55.6811956,52.4412899
126,Мензелинский тракт,423800,55.6805162,52.4400275
133,Мензелинский тракт,423800,55.6773029,52.4433444
136/2,Мензелинский тракт,423800,55.6790482,52.4459756
22Б/1,Альметьевский тракт,423800,55.6587978,52.2636717
20,Альметьевский тракт,423800,55.6573583,52.2596030
29,Магистральная улица,423820,55.6535479,52.2760323
8,Магистральная улица,423820,55.6537889,52.2757199
30,Магистральная улица,423820,55.6538763,52.2764365
24,Магистральная улица,423820,55.6543239,52.2758900
10,Магистральная улица,423820,55.6546866,52.2761096
12,Магистральная улица,423820,55.6573313,52.2754951
14А,Магистральная улица,423820,55.6588054,52.2781031
2А,Магистральная улица,423820,55.6523868,52.2752802
9Е,Магистральная улица,423800,55.6590832,52.2696820
9Б,Магистральная улица,423800,55.6587535,52.2702553
26/3,Альметьевский тракт,423800,55.6590993,52.2682022
26/4,Альметьевский тракт,423800,55.6600507,52.2677046
28/1,Альметьевский тракт,423800,55.6622410,52.2672280
28/2,Альметьевский тракт,423800,55.6627874,52.2672371
28/3,Альметьевский тракт,423800,55.6627549,52.2681997
28/4,Альметьевский тракт,423800,55.6625276,52.2677083
65,Магистральная улица,423800,55.6625708,52.2698937
67,Магистральная улица,423800,55.6629415,52.2708488
59,Магистральная улица,423800,55.6630605,52.2719412
61,Магистральная улица,423800,55.6622871,52.2712640
61А,Магистральная улица,423800,55.6619571,52.2708595
13А,проспект Мира,423812,55.7277586,52.3857890
9,улица Академика Королёва,423822,55.7143676,52.3936200
9А,улица Академика Королёва,423822,55.7139995,52.3946058
1,улица Академика Королёва,423822,55.7123500,52.3963217
72,улица 40 лет Победы,423800,55.7382406,52.4342886
115 с4,улица Ахметшина,423812,55.7220236,52.4080334
115 с3,улица Ахметшина,423812,55.7218926,52.4074173
115 с2,улица Ахметшина,423812,55.7216819,52.4070239
115 с1,улица Ахметшина,423812,55.7214492,52.4066079
32,Магистральная улица,423820,55.6631091,52.2763195
73,Магистральная улица,423800,55.6637590,52.2717643
7,Магистральная улица,423820,55.6654184,52.2734947
7А,Магистральная улица,423820,55.6652354,52.2743117
52,Мензелинский тракт,423800,55.6951326,52.4160672
132/1,Мензелинский тракт,423800,55.6792234,52.4432726
3/2,Линейный проезд,423800,55.6800182,52.4465315
9,Линейный проезд,423800,55.6811734,52.4486147
112,Мензелинский тракт,423800,55.6840260,52.4346436
112А,Мензелинский тракт,423800,55.6844183,52.4349950
6,Моторная улица,423800,55.7487898,52.4727800
25/1,Ремонтный проезд,423800,55.7507614,52.4747482
24/1,Ремонтный проезд,423800,55.7500400,52.4784368
24,Ремонтный проезд,423800,55.7504166,52.4791020
20,Ремонтный проезд,423800,55.7502462,52.4797267
6,проезд Тозелеш,423800,55.7474162,52.4771265
10,проезд Тозелеш,423800,55.7464839,52.4785545
34,Ремонтный проезд,423800,55.7488200,52.4845432
24А,Полиграфическая улица,423800,55.6462935,52.3297245
1/2,Народная улица,423800,55.6437792,52.3391469
21,улица Тимер,423800,55.6488526,52.3319119
69,Транспортный проезд,423800,55.7221707,52.4335096
73,Транспортный проезд,423800,55.7226089,52.4339885
79,Транспортный проезд,423800,55.7224233,52.4356879
4,Трубный проезд,423800,55.7196352,52.4186767
22/11,Трубный проезд,423800,55.7162430,52.4194485
7,Трубный проезд,423800,55.7171836,52.4179119
9,Трубный проезд,423800,55.7165122,52.4182949
37,Хлебный проезд,423800,55.7136656,52.4175104
76,Тэцовский проезд,423800,55.6895769,52.4809070
7А,Тэцовский проезд,423800,55.6907138,52.4617274
45/1,Промышленная улица,423800,55.6936999,52.4552712
29/2,Промышленная улица,423800,55.6928631,52.4471448
4,Ресурсный проезд,423800,55.6922297,52.4481930
27/2,Промышленная улица,423800,55.6927759,52.4457200
17,Фабричный проезд,423800,55.6500151,52.3163782
18А,улица Татарстан,423826,55.7657825,52.4324162
10А,Набережночелнинский проспект,423803,55.7018461,52.3341564
59,Профильная улица,423800,55.6524407,52.2977127
121,проспект Чулман,423826,55.7707066,52.4188046
35,Элеваторская улица,423801,55.7118264,52.3145117
37,Элеваторская улица,423801,55.7120785,52.3150581
9,Трактовая улица,423801,55.7090005,52.3160199
2Б/1,улица Шамиля Усманова,423822,55.7191458,52.3639183
43А,проспект Хасана Туфана,423831,55.7436120,52.3916418
47,Магистральная улица,423800,55.6612736,52.2734312
18,проспект Мира,423814,55.7271624,52.3907562
35А,Мензелинский тракт,423800,55.7022381,52.4006617
3,улица Команды КАМАЗ-Мастер,423823,55.7465605,52.4030877
161В,Московский проспект,423815,55.7446931,52.4317583
42Б,проспект Вахитова,423816,55.7555782,52.4082009
2,проспект Сююмбике,423812,55.7321496,52.3917041
213,Казанский проспект,423806,55.6875736,52.3546688
29А,бульвар Ямашева,423800,55.6893741,52.2984120
5,Индустриальный проезд,423800,55.7026403,52.4122629
1В,улица Академика Королёва,421814,55.7125249,52.3969552
11,проспект КАМАЗа,423800,55.7243242,52.4394477
22/1,проспект КАМАЗа,423800,55.7247409,52.4436161
22/2,проспект КАМАЗа,423800,55.7252910,52.4446323
22А/2,проспект КАМАЗа,423800,55.7242163,52.4452014
53А,проспект КАМАЗа,423800,55.7106242,52.4607117
13Б,проспект Вахитова,423810,55.7450042,52.4229049
5,Портовая улица,423838,55.7318243,52.3610595
9,Портовая улица,423838,55.7315402,52.3606168
13,Портовая улица,423838,55.7312395,52.3601869
7,Портовая улица,423838,55.7312570,52.3612311
11,Камская улица,423801,55.7167766,52.3308337
91/41А,улица Шамиля Усманова,423823,55.7567474,52.4021648
157В,Московский проспект,423815,55.7437927,52.4301443
11,улица Виктора Полякова,423827,55.7594237,52.4588473
12В,проспект Яшьлек,423827,55.7591192,52.4552211
38,улица Орджоникидзе,423801,55.7069072,52.3290060
10,проспект КАМАЗа,423800,55.7267901,52.4389958
18Б,проспект Мира,423814,55.7268952,52.3900584
65З,проспект КАМАЗа,423800,55.7022927,52.4776715
6,Спартаковская улица,423801,55.7055609,52.3219115
119 ст1,Казанский проспект,423800,55.6751086,52.3285360
24/1,Цветочный бульвар,423821,55.7567518,52.4267536
39,Портовая улица,423838,55.7288057,52.3586267
55,Портовая улица,423838,55.7278807,52.3572868
49,Портовая улица,423838,55.7281782,52.3577161
45,Портовая улица,423838,55.7284877,52.3582002
47,Портовая улица,423838,55.7290648,52.3569703
53,Портовая улица,423838,55.7287431,52.3565038
51,Портовая улица,423838,55.7284614,52.3570965
59,Портовая улица,423838,55.7284448,52.3560679
57,Портовая улица,423838,55.7281669,52.3566713
61,Портовая улица,423838,55.7278460,52.3562381
63,Портовая улица,423838,55.7281313,52.3556333
19,Портовая улица,423838,55.7309376,52.3597519
23,Портовая улица,423838,55.7305819,52.3592153
27,Портовая улица,423838,55.7302897,52.3587728
33,Портовая улица,423838,55.7299944,52.3583383
31,Портовая улица,423838,55.7297097,52.3589271
29,Портовая улица,423838,55.7294326,52.3595399
25,Портовая улица,423838,55.7297233,52.3599973
21,Портовая улица,423838,55.7300262,52.3604505
15,Портовая улица,423838,55.7303943,52.3609520
17,Портовая улица,423838,55.7306741,52.3603397
11,Портовая улица,423838,55.7308281,52.3610983
41,Портовая улица,423838,55.7290905,52.3580125
29Б,Портовая улица,423838,55.7294653,52.3603955
37,Портовая улица,423838,55.7296728,52.3578581
43,Портовая улица,423838,55.7293661,52.3574103
35,Портовая улица,423838,55.7291109,52.3590732
3,Верхняя Береговая улица,423838,55.7261189,52.3481729
15,Верхняя Береговая улица,423838,55.7250350,52.3461833
43,улица Абдуллы Алиша,423825,55.7686495,52.4604376
7,улица Абдуллы Алиша,423825,55.7658783,52.4479560
7,Металлургическая улица,423800,55.6723628,52.4563708
93Д,проспект Мира,423821,55.7597137,52.4363664
2В,Нижняя Боровецкая улица,423826,55.7780376,52.4248765
2Б,Нижняя Боровецкая улица,423826,55.7778444,52.4247108
7А,Нижняя Боровецкая улица,423826,55.7782278,52.4249272
9А,Нижняя Боровецкая улица,423826,55.7783742,52.4249996
11А,Нижняя Боровецкая улица,423826,55.7785116,52.4250720
2,Вознесенская улица,423826,55.7785280,52.4237225
9,Вознесенская улица,423826,55.7779699,52.4240528
7,Вознесенская улица,423826,55.7781187,52.4241390
5,Вознесенская улица,423826,55.7782848,52.4242309
3,Вознесенская улица,423826,55.7784240,52.4243197
1,Вознесенская улица,423826,55.7786253,52.4244307
4Б,Нижняя Боровецкая улица,423826,55.7779800,52.4255797
4А,Нижняя Боровецкая улица,423826,55.7778269,52.4255217
2А,Нижняя Боровецкая улица,423826,55.7776749,52.4254364
36,улица Орджоникидзе,423801,55.7070088,52.3288275
9Б,улица Академика Королёва,423822,55.7140151,52.3932269
37,улица Орджоникидзе,423801,55.7072158,52.3292907
2Б/2,улица Шамиля Усманова,423822,55.7191609,52.3636322
5,проспект Дружбы Народов,423814,55.7217514,52.4016785
25,улица Гидростроителей,423800,55.6886993,52.2876517
5Б,переулок Гайдара,423800,55.6884820,52.2927665
5В,переулок Гайдара,423800,55.6887679,52.2922449
24Б,проспект Мира,423812,55.7304864,52.3960089
14,Ленинградская улица,423826,55.7759298,52.4257932
3,улица Виктора Полякова,423827,55.7583634,52.4569008
10,проспект Яшьлек,423827,55.7578238,52.4557729
29А,Портовая улица,423838,55.7302127,52.3614125
65,Портовая улица,423838,55.7277698,52.3550300
3,Портовая улица,423838,55.7324162,52.3622269
22/5,проспект КАМАЗа,423800,55.7251431,52.4456457
22/4,проспект КАМАЗа,423800,55.7248543,52.4451161
22/3,проспект КАМАЗа,423800,55.7245689,52.4445963
22А/1,проспект КАМАЗа,423800,55.7236605,52.4454829
22А/6,проспект КАМАЗа,423800,55.7238639,52.4446293
15,улица Абдуллы Алиша,423825,55.7680008,52.4568398
18Б/1,Автозаводский проспект,423827,55.7542207,52.4319470
18А,Автозаводский проспект,423827,55.7538580,52.4325965
3А,проспект Хасана Туфана,423810,55.7346100,52.4221029
96,Мензелинский тракт,423800,55.6918677,52.4216639
31А,набережная Габдуллы Тукая,423850,55.6813083,52.3012037
102,улица 40 лет Победы,423827,55.7458648,52.4488219
37А,проспект Хасана Туфана,423831,55.7423717,52.3913374
73,улица Фрунзе,423802,55.6978362,52.3105310
2А,улица Академика Королёва,423814,55.7138945,52.3979803
42Б,проспект Раиса Беляева,423831,55.7403854,52.3905064
17А,проспект Яшьлек,423827,55.7595362,52.4444453
15Б,проспект Яшьлек,423827,55.7591759,52.4450865
18,улица Раскольникова,423838,55.7249208,52.3596649
1А,улица Вазила Мавликова,423822,55.7106299,52.3729049
3Е,улица Шамиля Усманова,423822,55.7220829,52.3693576
3Б,улица Шамиля Усманова,423822,55.7219764,52.3686146
22/09,22 квартал,423800,55.6707179,52.3195815
1А,улица Николая Иванцова,423838,55.7255101,52.3491501
1,улица Николая Иванцова,423838,55.7262535,52.3498280
1Б,улица Николая Иванцова,423838,55.7255524,52.3500523
1Д,улица Николая Иванцова,423838,55.7242775,52.3486755
3,улица Николая Иванцова,423838,55.7240242,52.3470244
1,улица Назипа Зиатдинова,423838,55.7247398,52.3476991
1В,улица Николая Иванцова,423838,55.7247788,52.3486677
1Г,улица Николая Иванцова,423838,55.7249488,52.3499294
22,улица Виктора Полякова,423827,55.7581759,52.4646017
14Б,Садовая улица,423822,55.7115855,52.3691448
16,Садовая улица,423822,55.7116233,52.3696367
14А,Садовая улица,423822,55.7118563,52.3697320
33,Вторая Береговая улица,423838,55.7350903,52.3616895
13,улица Виктора Полякова,423827,55.7602045,52.4566119
5А,улица Виктора Полякова,423827,55.7599247,52.4560981
18А,проспект КАМАЗа,423800,55.7254743,52.4432239
80,Машиностроительная улица,423800,55.7373800,52.4400541
107,Машиностроительная улица,423800,55.7433140,52.4578482
48/2,улица Раскольникова,423832,55.7358946,52.3660917
22,улица Назипа Зиатдинова,423838,55.7232251,52.3436298
20,улица Назипа Зиатдинова,423838,55.7233740,52.3438752
5,улица Николая Иванцова,423838,55.7230797,52.3455691
3,улица Назипа Зиатдинова,423838,55.7236208,52.3460045
13,Верхняя Береговая улица,423838,55.7252699,52.3465459
11,Верхняя Береговая улица,423838,55.7254141,52.3468883
9,Верхняя Береговая улица,423838,55.7255352,52.3472294
7,Верхняя Береговая улица,423838,55.7257358,52.3474020
5,Верхняя Береговая улица,423838,55.7259128,52.3477844
1,Верхняя Береговая улица,423838,55.7261194,52.3485683
23,улица Земляков,423822,55.7141673,52.3692031
8А,улица Земляков,423822,55.7143592,52.3704209
22А,улица Земляков,423822,55.7142466,52.3733491
12,Вознесенская улица,423826,55.7777427,52.4232272
6А,Нижняя Боровецкая улица,423826,55.7781289,52.4256419
44/1,Производственный проезд,423800,55.7153119,52.4401184
22А/4,проспект КАМАЗа,423800,55.7247955,52.4462454
22А/3,проспект КАМАЗа,423800,55.7245090,52.4457249
22/6,проспект КАМАЗа,423800,55.7242166,52.4438845
22А,проспект КАМАЗа,423800,55.7242019,52.4464790
2,улица Земляков,423822,55.7144096,52.3691764
2,Садовая улица,423822,55.7127294,52.3679341
2А,Садовая улица,423822,55.7126015,52.3679770
9Г,Садовая улица,423822,55.7113056,52.3683530
8,улица Назыма Якупова,423803,55.6830058,52.3290774
95,проспект Фоменко,423803,55.6833779,52.3316772
12,улица Николая Иванцова,423838,55.7224801,52.3456257
5,улица Назипа Зиатдинова,423838,55.7229711,52.3445337
1Н,Набережночелнинский проспект,423803,55.7025381,52.3242551
18Б/2,Автозаводский проспект,423827,55.7542902,52.4328297
5А,бульвар Домостроителей,423826,55.7663742,52.4201397
70В,улица Шамиля Усманова,423823,55.7529239,52.4001674
17А,проспект Раиса Беляева,423812,55.7359188,52.3988518
4,улица Габдрауфа Каюмова,423838,55.7219137,52.3463051
18Д,улица Шамиля Усманова,423822,55.7269401,52.3827897
22А/5,проспект КАМАЗа,423800,55.7249494,52.4465260
101,проспект Чулман,423826,55.7663787,52.4128821
23Б,Прибрежная улица,423826,55.7659484,52.4101227
127,проспект Чулман,423826,55.7743126,52.4249747
10,Вознесенская улица,423826,55.7779230,52.4233552
8,Вознесенская улица,423826,55.7780724,52.4234437
6,Вознесенская улица,423826,55.7782270,52.4235456
4,Вознесенская улица,423826,55.7783786,52.4236274
22/1,Прибрежная улица,423826,55.7704377,52.4156086
2В,улица Виктора Полякова,423827,55.7567385,52.4588534
2А,улица Виктора Полякова,423827,55.7573898,52.4580896
21Б,проспект Абдурахмана Абсалямова,423827,55.7564462,52.4690470
15,улица Виктора Полякова,423827,55.7604592,52.4570794
53,улица В.Гостева,423800,55.6787614,52.3297336
10А,улица Назыма Якупова,423803,55.6836787,52.3309355
95Б,проспект Фоменко,423803,55.6842014,52.3325470
3,улица Вазила Мавликова,423822,55.7111216,52.3713738
1,улица Николая Мальнева,423847,55.7102258,52.3711653
3А,улица Николая Мальнева,423822,55.7097858,52.3720469
7А,улица Команды КАМАЗ-Мастер,423823,55.7497185,52.4073875
18Е,улица Шамиля Усманова,423822,55.7274894,52.3828525
7,улица Назипа Зиатдинова,423838,55.7223845,52.3432711
2В,улица Назипа Зиатдинова,423838,55.7250059,52.3469932
2Б,улица Назипа Зиатдинова,423838,55.7252267,52.3473971
2А,улица Назипа Зиатдинова,423838,55.7254435,52.3477938
45,улица Абдуллы Алиша,423825,55.7687007,52.4613378
23А,Прибрежная улица,423826,55.7661489,52.4110208
14,улица Назыма Якупова,423803,55.6855250,52.3340927
11,Мензелинский тракт,423800,55.7051713,52.3957996
9А,улица Виктора Полякова,423827,55.7593962,52.4569835
9Б,улица Виктора Полякова,423827,55.7596260,52.4574054
9В,улица Виктора Полякова,423827,55.7598980,52.4579046
10Г/1,проспект Яшьлек,423827,55.7556593,52.4608734
62,Мензелинский тракт,423800,55.6931475,52.4193242
8В,проспект Яшьлек,423827,55.7550439,52.4611605
18,улица Назипа Зиатдинова,423838,55.7235080,52.3441823
16,улица Назипа Зиатдинова,423838,55.7237058,52.3446010
7,улица Николая Иванцова,423838,55.7221216,52.3437874
49,Верхняя Береговая улица,423838,55.7233800,52.3431346
47,Верхняя Береговая улица,423838,55.7234593,52.3432796
45,Верхняя Береговая улица,423838,55.7235768,52.3434933
43,Верхняя Береговая улица,423838,55.7236561,52.3436384
41,Верхняя Береговая улица,423838,55.7237717,52.3438554
39,Верхняя Береговая улица,423838,55.7238510,52.3440005
37,Верхняя Береговая улица,423838,55.7239703,52.3442229
35,Верхняя Береговая улица,423838,55.7240496,52.3443679
33,Верхняя Береговая улица,423838,55.7241674,52.3445877
31,Верхняя Береговая улица,423838,55.7242468,52.3447327
29,Верхняя Береговая улица,423838,55.7243657,52.3449517
27,Верхняя Береговая улица,423838,55.7244450,52.3450968
25,Верхняя Береговая улица,423838,55.7245636,52.3453138
23,Верхняя Береговая улица,423838,55.7246429,52.3454590
21,Верхняя Береговая улица,423838,55.7247592,52.3456813
17,Верхняя Береговая улица,423838,55.7248385,52.3458265
15А,Верхняя Береговая улица,423838,55.7249556,52.3460381
53,Верхняя Береговая улица,423838,55.7230040,52.3424603
55,Верхняя Береговая улица,423838,55.7229246,52.3423151
57,Верхняя Береговая улица,423838,55.7228110,52.3420921
59,Верхняя Береговая улица,423838,55.7227316,52.3419471
61,Верхняя Береговая улица,423838,55.7226184,52.3417451
63,Верхняя Береговая улица,423838,55.7225385,52.3416010
65,Верхняя Береговая улица,423838,55.7224253,52.3413886
67,Верхняя Береговая улица,423838,55.7223460,52.3412436
69,Верхняя Береговая улица,423838,55.7222283,52.3410279
71,Верхняя Береговая улица,423838,55.7221489,52.3408828
73,Верхняя Береговая улица,423838,55.7220341,52.3406739
75,Верхняя Береговая улица,423838,55.7219547,52.3405287
79,Верхняя Береговая улица,423838,55.7217621,52.3401734
77,Верхняя Береговая улица,423838,55.7218414,52.3403184
18Б,Автозаводский проспект,423827,55.7540312,52.4322652
77,Московский проспект,423814,55.7210220,52.3879150
5,улица Абдуллы Алиша,423825,55.7659649,52.4472236
5А,улица Абдуллы Алиша,423825,55.7655998,52.4475375
25,улица Земляков,423822,55.7140816,52.3690022
24А,улица Земляков,423822,55.7141020,52.3738388
22А,Пролетарская улица,423822,55.7114134,52.3664765
9Б,Садовая улица,423822,55.7118410,52.3679842
82,проспект В.Фоменко,423803,55.6840903,52.3359136
6,улица Габдрауфа Каюмова,423838,55.7215044,52.3470104
Остановка Райсполком,проспект Мира,423810,55.7422371,52.4089125
4,улица Марата Юсупова,423838,55.7222602,52.3597946
18Ж,улица Шамиля Усманова,423822,55.7278698,52.3822062
99,проспект В.Фоменко,423803,55.6849051,52.3347545
4,Альметьевский тракт,423800,55.6570336,52.2560592
83А,проспект Сююмбике,423826,55.7617757,52.4224991
72А,Залесный проспект,423887,55.7820038,52.4649784
1Б,Альметьевский тракт,423877,55.6595485,52.2363955
111В с2,Казанский проспект,423800,55.6717911,52.3233610
24,Цветочный бульвар,423821,55.7569400,52.4264307
56,Сармановский тракт,423803,55.6977755,52.3338658
1,улица Академика Королёва,423822,55.7170463,52.3882823
91А,проспект Мира,423821,55.7584727,52.4334159
70,Транспортный проезд,423800,55.7256752,52.4336349
10,улица Нур Баян,423800,55.6748137,52.3239949
36А,проспект Сююмбике,423823,55.7496284,52.4063748
36,проспект Сююмбике,423823,55.7498686,52.4058918
2,Автозаводский проспект,423827,55.7473316,52.4467899
6,улица Назыма Якупова,423803,55.6819146,52.3280262
29А,проспект Дружбы Народов,423838,55.7325960,52.3715871
27А,Сармановский тракт,423803,55.6925976,52.3336946
27,Сармановский тракт,423803,55.6922299,52.3338521
49,Сармановский тракт,423803,55.6995208,52.3306937
21В,проспект Абдурахмана Абсалямова,423827,55.7546805,52.4688218
6,проспект Мусы Джалиля,423820,55.6679987,52.2780729
3,проспект Хасана Туфана,423810,55.7349016,52.4213020
48/1,улица Раскольникова,423832,55.7352994,52.3660720
48,улица Раскольникова,423832,55.7347873,52.3657752
35,Вторая Береговая улица,423838,55.7348749,52.3627218
37,Вторая Береговая улица,423838,55.7343357,52.3629035
8,улица Николая Иванцова,423838,55.7234417,52.3471320
11А,улица Раскольникова,423838,55.7219211,52.3587397
11,улица Раскольникова,423838,55.7223752,52.3579785
11Б,улица Раскольникова,423838,55.7214366,52.3582814
9,улица Раскольникова,423838,55.7215237,52.3570477
8А,проспект Яшьлек,423827,55.7546496,52.4614237
8Г,проспект Яшьлек,423827,55.7550644,52.4622564
8Б,проспект Яшьлек,423827,55.7548539,52.4618646
8Е,проспект Яшьлек,423827,55.7556196,52.4622326
8Д,проспект Яшьлек,423827,55.7553187,52.4626358
9,улица Виктора Полякова,423827,55.7591242,52.4582975
10А,проспект Яшьлек,423827,55.7559378,52.4596140
10В,проспект Яшьлек,423827,55.7564291,52.4605541
10Б,проспект Яшьлек,423827,55.7564978,52.4595578
7Б,улица Команды КАМАЗ-Мастер,423823,55.7492205,52.4076017
7А,улица Гостева,423800,55.6795473,52.3247310
3,улица Николая Мальнева,423822,55.7098548,52.3730175
1,улица Вазила Мавликова,423822,55.7106988,52.3738747
3А,улица Вазила Мавликова,423822,55.7111967,52.3723313
23,Сармановский тракт,423803,55.6905114,52.3346279
25,Сармановский тракт,423803,55.6908713,52.3344783
53,Сармановский тракт,423803,55.7003325,52.3296421
51,Сармановский тракт,423803,55.6999266,52.3301769
80Б,Московский проспект,423814,55.7219106,52.3929617
74В,Московский проспект,423814,55.7211307,52.3913724
25В,проспект Мусы Джалиля,423800,55.6805289,52.2922339
25Ж,проспект Мусы Джалиля,423800,55.6811134,52.2932036
25Е,проспект Мусы Джалиля,423800,55.6807826,52.2926549
3Д,улица Шамиля Усманова,423822,55.7224456,52.3693827
7А,улица Низаметдинова,423806,55.6964429,52.3633212
29Г,Портовая улица,423838,55.7288021,52.3594204
29В,Портовая улица,423838,55.7291203,52.3598882
9А,Набережночелнинский проспект,423803,55.7037713,52.3369214
59А,Автозаводский проспект,423816,55.7633390,52.4131299
18В,улица Шамиля Усманова,423822,55.7270257,52.3817717
18Г,улица Шамиля Усманова,423822,55.7273092,52.3812899
4А,Цветочный бульвар,423821,55.7532620,52.4169192
5Б,улица Шамиля Усманова,423822,55.7234117,52.3717545
111А,улица Шамиля Усманова,423826,55.7658972,52.4209279
7,бульвар Домостроителей,423826,55.7639431,52.4244587
15,улица Татарстан,423821,55.7641263,52.4330219
15,улица Татарстан,423821,55.7641309,52.4330219
