House number,Street name,Postal code,Latitude,Longitude
15/a,Rakatboshi ko'chasi,100031,41.3010161,69.2595860
ИНН 204393073,Osiyo ko'chasi,100000,41.3275760,69.2841827
9,Shota Rustaveli ko'chasi,100060,41.2950521,69.2686836
36,Fidokor ko'chasi,100015,41.2978048,69.2795851
73,Rakatboshi ko'chasi,100031,41.2983099,69.2557670
55,Sulton Sanjar ko'chasi,100076,41.2915283,69.3140569
68,Sodiq Azimov ko'chasi,100005,41.3038301,69.2890054
7,Mirzo Ulug'bek shoh ko'chasi,100014,41.3063833,69.3076424
40,Sharof Rashidov ko'chasi,100029,41.3074745,69.2662797
30,Ko'ngil ko'chasi,100179,41.3754311,69.2130973
1,Toytepa ko'chasi,100047,41.3051240,69.2892995
2A,Sebzor ko‘chasi,100017,41.3307437,69.2489449
5,Шохсанам улица,100091,41.2660401,69.3559506
33,Labzak,100128,41.3248823,69.2608892
R21,Toshkent halqa avtomobil yo'li,100000,41.2470506,69.1651958
42,Bunyodkor shoh ko'chasi,100097,41.2823757,69.2108319
76,Uchuvchilar ko'chasi,10166,41.2683340,69.2795688
32,Mironshoh ko'chasi,100025,41.2866846,69.2786206
77,Sharof Rashidov ko'chasi,100029,41.3063332,69.2667061
38,Kichik Beshyog'och ko'chasi,100070,41.2867096,69.2624826
91,Avliyoota ko'chasi,100000,41.2905394,69.2794950
11,Bratislava ko'chasi,100070,41.2899543,69.2569104
4,Amir Temur shoh ko'chasi,100047,41.3100217,69.2777861
79a,Nukus ko'chasi,100015,41.2871784,69.2724833
41,Тафаккур улица,100052,41.2911196,69.2582101
27/6,Shahrisabz ko'chasi,100015,41.2965094,69.2701915
107,Kichik Halqa yo'li,100115,41.2654275,69.2176681
1A,Damariq ko'chasi,100000,41.2852740,69.2628326
43,Mirobod 1-o'tish ko'chasi,100015,41.2923681,69.2655457
142/2,Muqimiy ko'chasi,100096,41.2933292,69.2218586
24A,Lutfiy ko'chasi,100131,41.2771961,69.1751502
24A,Lutfiy ko'chasi,100131,41.2771498,69.1749920
34,Shota Rustaveli ko'chasi,100070,41.2901539,69.2584158
34,Shota Rustaveli ko'chasi,100070,41.2902622,69.2585456
4,Sebzor ko‘chasi,100017,41.3317163,69.2494170
2 корпус 3,Navoiy shoh ko'chasi,100011,41.3213350,69.2671037
5,Rakatboshi ko'chasi,100031,41.3029207,69.2610528
1,Rakatboshi ko'chasi,100031,41.3040627,69.2611880
10 Б,Shahrisabz ko'chasi,100015,41.2975855,69.2730428
2,Muqimiy ko'chasi,10096,41.2911590,69.2205351
1,Amir Temur shoh ko'chasi,100000,41.3313045,69.2844475
6,Abay ko'chasi,100011,41.3238658,69.2554106
19,Amir Temur shoh ko'chasi,100060,41.3040512,69.2785684
12,Zulfiyakhonim ko'chasi,100017,41.3288253,69.2731945
40,Fidokor ko'chasi,100000,41.2950106,69.2715977
171,Furkat ko'chasi,100066,41.3028841,69.2484672
47,Лутфкор улица,100061,41.2126964,69.2244009
25,Cho'ponota ko'chasi,100097,41.2897313,69.2006584
25,Cho'ponota ko'chasi,100097,41.2894950,69.2008790
60,Amir Temur shoh ko'chasi,100000,41.3238768,69.2779569
86,Назимхонум улица,100179,41.3603974,69.1886308
89,Nukus ko'chasi,100015,41.2847477,69.2678956
2,Navoiy shoh ko'chasi,100000,41.3196972,69.2665223
2,Rakatboshi ko'chasi,100031,41.3042453,69.2609293
22,Дехконобод улица,100014,41.3781543,69.3131008
7/1,Muqimiy ko'chasi,100100,41.2785954,69.2490323
74/1,Parkent ko'chasi,100007,41.3143694,69.3238757
66,Firdavsiy ko'chasi,100084,41.3376394,69.2959787
2,O'zbekiston Ovozi ko'chasi,100047,41.3110060,69.2856424
15,Istiqbol ko'chasi,100047,41.3081345,69.2832301
15,Furqat ko'chasi,100003,41.3091800,69.2436331
23a,Nukus ko'chasi,100060,41.2953013,69.2842100
84,Amir Temur shoh ko'chasi,100017,41.3282548,69.2827245
31,Lutfiy 5-o'tish ko'chasi,100054,41.2980940,69.1988482
107,Mustaqillik shoh ko'chasi,100077,41.3257386,69.3227818
12б,Ohangaron shossesi,100014,41.2920391,69.3576549
5,Nukus 1-berk ko'chasi,100060,41.2958940,69.2882471
1,Boyqo'rg'on 1-berk ko'chasi,100007,41.3152237,69.3149716
3,Ziyo ko'chasi,100096,41.3535375,69.2183091
35,Oqqo'rg'on ko'chasi,100052,41.3325991,69.3033156
26Б,Ahmad Yugnakiy ko'chasi,100142,41.3448244,69.3827468
44,Navoiy shoh ko'chasi,100011,41.3226095,69.2376716
73,Buyuk Turon ko'chasi,10000,41.3074151,69.2685797
73,Buyuk Turon ko'chasi,100000,41.3072966,69.2685209
29,Шохжахон улица,100000,41.2835643,69.2420045
7,Sariko'l ko'chasi,100167,41.2857364,69.2836587
7,Sariko'l ko'chasi,100167,41.2855225,69.2836689
4g,Minor 1-berk ko'chasi,100000,41.3378813,69.2762185
26,Хамроева улица,100187,41.3340924,69.3737053
30,Мажлиси проезд,100086,41.3078408,69.2018935
40,Yuzrabot ko'chasi,100142,41.3584819,69.3790037
16,Oybek ko'chasi,100015,41.2969597,69.2745388
32a,Shota Rustaveli ko'chasi,100070,41.2910684,69.2594456
284,Qorasaroy ko'chasi,100069,41.3517242,69.2423001
2,Sayram 7-o'tish ko'chasi,100077,41.3256320,69.3185617
24,Zulfiyakhonim ko'chasi,100000,41.3294761,69.2626049
12,Talimarjon ko'chasi,100105,41.2755991,69.3006336
44,Sodiq Azimov ko'chasi,100047,41.3097309,69.2916794
40,Yuzrabot ko'chasi,100142,41.3588998,69.3876369
1А,Abay ko'chasi,100128,41.3280111,69.2550791
42,Abdulla Kahhar ko'chasi,100025,41.2781582,69.2620329
30,Oybek ko'chasi,100015,41.2932129,69.2784065
69,Yusuf Xos Hojib ko'chasi,100070,41.2961819,69.2566471
2a,Qoratosh ko'chasi,100100,41.3140487,69.2374956
111,Gavhar ko'chasi,100209,41.2597274,69.2156378
69,Mustaqillik shoh ko'chasi,100000,41.2974238,69.2808732
53,Биллур улица,100158,41.2285061,69.3413042
5,Rakatboshi ko'chasi,100031,41.3031949,69.2612644
8,Quruvchilar ko'chasi,100146,41.2526752,69.3440726
45,Oybek ko'chasi,100015,41.2980301,69.2751374
6,Mirzo Ulug'bek shoh ko'chasi,100014,41.3063348,69.3074935
1,Botkin ko'chasi,100014,41.3065596,69.3062493
6-61,Mirzo Ulug'bek shoh ko'chasi,100014,41.3066885,69.3069547
1,Botkin ko'chasi,100014,41.3061868,69.3058542
196,Bektemir yo'li ko'chasi,111700,41.2154992,69.3339962
98,Amir Temur shoh ko'chasi,100084,41.3371275,69.2854586
7,Gagarin ko'chasi,100115,41.2823451,69.2253451
7,Sebzor ko‘chasi,100019,41.3362095,69.2563551
7,Ahmad Donish ko'chasi,100,41.3691235,69.2926963
24,Amir Temur shoh ko'chasi,100060,41.2983914,69.2838379
18/1,Oybek ko'chasi,100015,41.2963611,69.2750331
42/44,Kichik Beshyog'och ko'chasi,100070,41.2862462,69.2634135
96,Shiroq ko`chasi,100069,41.3591437,69.2487941
110,Shiroq ko`chasi,100057,41.3612128,69.2491937
51,улица Султанали Машхади,100047,41.3121767,69.3167666
1,Ahmad Donish ko'chasi,100000,41.3678134,69.2938999
79,Kichik Beshyog'och ko'chasi,100029,41.2868372,69.2628024
50,Oybek ko'chasi,100015,41.2897536,69.2814752
1A,Ismoil-ota ko'chasi,100170,41.3331864,69.3228328
15a,Abay ko'chasi,100128,41.3277601,69.2557737
16 A,Naqqoshlik ko'chasi,100185,41.2658606,69.2005499
38,Taras Shevchenko ko'chasi,100060,41.2968602,69.2806719
100,Мойкурган улица,100093,41.3640086,69.2751261
1,Иссиксув улица,111200,41.3212083,69.3632394
74,Сайрам тупик,100170,41.3326649,69.3234316
44,Navoiy shoh ko'chasi,100011,41.3227159,69.2376616
44,Navoiy shoh ko'chasi,100011,41.3227853,69.2376733
44,Navoiy shoh ko'chasi,100011,41.3227166,69.2377164
2,Самарканд Дарбаза улица,100021,41.3186810,69.2326834
25,Qatortol ko'chasi,100096,41.2950544,69.2156327
22,Sodiq Azimov 3-o'tish ko'chasi,100047,41.3047522,69.2944257
10A,Кирк-киз улица,100115,41.2755785,69.2196219
12,Qo'rg'on 2-o'tish ko'chasi,100052,41.3316820,69.3001040
15,Yassi ko'chasi,100170,41.3345522,69.3251979
101a,Kichik Halqa yo'li,1000049,41.3439892,69.2128340
50,Сариосиё улица,100000,41.3466954,69.1939609
128 б,Sariko'l ko'chasi,200007,41.2820259,69.2848714
20A,Sodiq Azimov 3-o'tish ko'chasi,100047,41.3050645,69.2939784
1,Niyozbek yo'li 5-otish ko'chasi,100000,41.3206348,69.2899990
115,Beshariq 1-o'tish ko'chasi,100204,41.2876354,69.3505667
11а,Taras Shevchenko ko'chasi,100060,41.3005831,69.2772044
17,Mehrigiyo ko'chasi,100085,41.2249357,69.2154949
45,Чорбог улица,100061,41.2307231,69.1799212
14,Muqimiy ko'chasi,100003,41.2872359,69.2305010
3,Sogdiana ko'chasi,100209,41.2207324,69.2323316
22,Shahrisabz ko'chasi,100015,41.3001265,69.2756756
83a,Nukus ko'chasi,100015,41.2862751,69.2711540
71a,Дийдор улица,100270,41.2594069,69.1625937
53,Порлок улица,100026,41.2352854,69.3153558
40а,Sharof Rashidov ko'chasi,100029,41.3079445,69.2664714
12,Shams Kulol ko'chasi,100025,41.2821041,69.2661037
6/101,Osiyo ko'chasi,100000,41.3267510,69.2848498
6,Navoiy shoh ko'chasi,100000,41.3210407,69.2511316
2,Navoiy shoh ko'chasi,100000,41.3227022,69.2420082
2,Navoiy shoh ko'chasi,100000,41.3226330,69.2419253
429,Kukcha Darvoza ko'chasi,100042,41.3177481,69.1946733
55a,Chilonzor ko'chasi,100115,41.2820033,69.2216764
45/1,Chilonzor ko'chasi,100115,41.2842975,69.2244911
39,Mirobod 2-o'tish ko'chasi,100015,41.2924701,69.2744497
2,Qatortol ko'chasi,100097,41.2848215,69.2036565
35A,Salarbo'yi ko'chasi,100000,41.3265545,69.3133550
25,Хамроева улица,100187,41.3345683,69.3718265
64A,Янгишахар улица,100206,41.3648534,69.2959057
64Б,Янгишахар улица,100206,41.3647301,69.2960853
4,Бешчинар улица,100031,41.2954021,69.2593840
68А,Ohangaron shossesi,100040,41.2828524,69.3597145
7А,массив БУЗ-2,100125,41.3480609,69.3530303
77 А,Kichik Halqa yo'li,100069,41.3487221,69.2354935
3,Avliyoota ko'chasi,100015,41.2931153,69.2779329
20A,Oybek ko'chasi,100060,41.2962473,69.2752776
32,Fidokor ko'chasi,100015,41.2958609,69.2739570
148,Temiryo'lchilar ko'chasi,100089,41.2796649,69.2761105
89,Nukus ko'chasi,10015,41.2843294,69.2678824
1,Yangi sirg'ali ko'chasi,100012,41.2124300,69.2290011
18/1,Oybek ko'chasi,100015,41.2963174,69.2749439
9,Курувчи улица,100132,41.3149755,69.1715966
24,Muqimiy ko'chasi,100096,41.2951054,69.2178285
2,Олтин водий улица,100044,41.2607596,69.2440155
18,Nukus ko'chasi,100015,41.2962728,69.2844461
80/82,Abdulla Avloni ko'chasi,100100,41.2889594,69.2388178
6,Navnihol 3-ko'chasi,100041,41.3460466,69.3380543
40,Oltintopgan ko'chasi,100033,41.2236654,69.3191347
71,Nukus ko'chasi,100015,41.2891213,69.2751040
10-A,Богистон улица,100054,41.2991992,69.2017383
14,Feruza ko'chasi,100124,41.3547571,69.3686379
60,Qatortol 1-o'tish ko'chasi,100096,41.2938201,69.2126475
29/38,Labzak ko'chasi,100128,41.3262549,69.2636981
70а,Nurafshon aylanma ko'chasi,100128,41.3335268,69.2655812
4,Oltintopgan ko'chasi,100033,41.2315672,69.3314286
40,Sharof Rashidov ko'chasi,100029,41.3074226,69.2662579
33,Bodomzor yo'l ko'chasi,100084,41.3321224,69.2915925
50,Aviasozlar ko'chasi,100147,41.2881386,69.3443846
37,Shirin koʻchasi,100000,41.2795744,69.1846568
16/3,Kichik Halqa yo'li,100084,41.3489870,69.2328985
12,Mirobod ko'chasi,100060,41.2983231,69.2677053
43,Джаркурганская,100090,41.2787212,69.2600617
5,Пахтакор улица,100011,41.3179785,69.2613686
6,Шифокор улица,100109,41.3618321,69.1818771
26/1,Farg'ona Yo'li 1-o'tish ko'chasi,100005,41.2867802,69.3021892
236A,Навруз улица,111802,41.2159090,69.1896525
79а,Sodiq Azimov ko'chasi,100060,41.3025139,69.2877191
2,Kichik Halqa yo'li,100022,41.2663372,69.2458128
1 б,Моштабиб улица,100060,41.2976951,69.2862268
17/18,Себзар улица,1000019,41.3312725,69.2495561
9A,Янгишахар улица,100206,41.3611766,69.3054999
Д-2,Bratislava ko'chasi,100070,41.2855688,69.2544122
30А,Катта Хурмонтепа,100131,41.2742322,69.1747859
13,Amir Temur Avenue,100047,41.3653842,69.2860659
66,Gagarin ko'chasi,100115,41.2828984,69.2254267
44Б,Shirin koʻchasi,100139,41.2845590,69.1763011
20A,Kichik Halqa yo'li,100121,41.2655515,69.2190668
68А,Лянгар улица,100003,41.3277634,69.2277153
30a,Beruniy shoh ko'chasi,100090,41.3343340,69.2149040
71-4,Mirzo Ulug'bek shoh ko'chasi,100170,41.3304107,69.3299617
2,Farhod ko'chasi,100123,41.2828073,69.1909342
66,Gagarin ko'chasi,100115,41.2829691,69.2253117
3,Mehrigiyo ko'chasi,100000,41.2255038,69.2154357
45,Бешчинар улица,100000,41.2941077,69.2615633
9,So'kin ko'chasi,10071,41.2888682,69.3667317
18,Санъаткорлар,111900,41.2859905,69.5131443
52A,Imom-at-Termiziy ko'chasi,100100,41.2886245,69.2428731
16б,Said Baraka ko'chasi,100060,41.2959055,69.2804588
58,Hamid Suleymanov ko'chasi,100070,41.2895623,69.2640428
2AB 275,JANGOH Ko’chasi,100019,41.3314362,69.2513853
35,Dadil 1-o'tish ko'chasi,100151,41.3202914,69.1776170
6 G,Нодира улица,700019,41.3400778,69.2515143
3,Muhammad Yusuf ko'chasi,100077,41.3162740,69.3279573
8,Дархан улица,100000,41.3175856,69.3009307
8,Дархан улица,100000,41.3175997,69.3008851
2,O'zbekiston Ovozi ko'chasi,100047,41.3108030,69.2858918
25,Asaka 2-tor kochasi,100000,41.3182789,69.3025011
27,Шастри улица,100000,41.3129744,69.2918231
104A,Kichik Beshyog'och ko'chasi,100015,41.2809799,69.2677587
15,Amir Temur shoh ko'chasi,100000,41.3156544,69.2789859
13,Tansiqboev bozori,11011,41.3667914,69.2045747
103,Buyuk Ipak Yo'li ko'chasi,100077,41.3266756,69.3296697
5A,Kichik Halqa yo'li,100000,41.3392096,69.2704797
8,Себзар улица,100128,41.3364421,69.2565749
20,Лабзак,100000,41.3270091,69.2662448
3/29,Said Baraka ko'chasi,100060,41.3004872,69.2880016
3,Said Baraka ko'chasi,100060,41.3006656,69.2885518
34а,Said Baraka ko'chasi,100060,41.3012047,69.2883763
150,Shota Rustaveli ko'chasi,100015,41.2600309,69.2235824
163,Ravnaq ko'chasi,100170,41.3415208,69.3239164
"333 А, 333 Б",улица Фаробий,100174,41.3410285,69.2121052
20,Shota Rustaveli ko'chasi,100070,41.2933649,69.2635614
16,Furkat ko'chasi,100003,41.3070580,69.2454840
1,Ziyolilar ko'chasi,700007,41.3371353,69.3250200
21a,Lutfiy ko'chasi,100123,41.2851335,69.1850519
89/25,Nukus ko'chasi,100015,41.2848886,69.2680646
51,Amir Temur shoh ko'chasi,100005,41.3270289,69.2827731
127,Sariko'l ko'chasi,100105,41.2707132,69.2955946
47,Кухинур улица,100163,41.2972953,69.2659911
7,Sariko'l ko'chasi,100167,41.2859004,69.2836262
R-83,Toshkent savdo markazi,100068,41.2466646,69.1663252
86/3,Nurafshon aylanma ko'chasi,100128,41.3345384,69.2649100
85,чинобод,100039,41.3649074,69.2884420
40,Fidokor ko'chasi,100007,41.2952960,69.2710337
39,Shashara Street,100031,41.3006538,69.2553070
39,kori niyoziy kochasi,100000,41.3234781,69.2951942
36,qorg’on 5-to’r ko’chasi,100056,41.3340030,69.3021582
1A,Nasirov 2-o'tish ko'chasi,10001,41.3288389,69.2905010
5,Muqimiy ko'chasi,100096,41.2977269,69.2136930
69,Buz 2 daxasi,100125,41.3470255,69.3512028
22,Kichik Halqa yo'li,100057,41.2643825,69.2366479
156a,Buyuk Ipak Yo'li ko'chasi,100077,41.3276800,69.3419614
9,Янгишахар улица,100194,41.3610841,69.2981685
34,Хамроева улица,100187,41.3354169,69.3757659
29,Хамроева улица,100187,41.3345181,69.3753631
2,Хамроева улица,100187,41.3336430,69.3749385
3B,Zarqaynar ko'chasi,100029,41.3236813,69.2420130
21,Muqimiy ko'chasi,100131,41.2862692,69.2320228
1,Chilonzor ko'chasi,100115,41.2830778,69.2238733
7,Arnasoy ko'chasi,100115,41.2850463,69.2332104
1 б,Моштабиб улица,100060,41.2977171,69.2861905
3,Lutfiy ko'chasi,100173,41.2922437,69.1937566
3Г,Kichik Halqa yo'li,100075,41.3482436,69.2462404
22,Kichik Mirobod ko'chasi,100000,41.2910204,69.2643612
17a,To'rtko'l 1-o'tish ko'chasi,100016,41.2952112,69.3295254
2,Chilonzor ko'chasi,100115,41.2944289,69.2355054
189,Oltintepa ko'chasi,100077,41.3149171,69.3348307
189,Oltintepa ko'chasi,100077,41.3153547,69.3355491
17,Mirzo Ulug'bek shoh ko'chasi,100007,41.3148094,69.3145473
381,Choshtepa 381,100149,41.2266742,69.1829951
381,Choshtepa,100149,41.2266587,69.1827889
1,Дехконобод улица,100114,41.3778444,69.3132688
55,Islom Karimov ko'chasi,100066,41.3111145,69.2469781
3A,Said Baraka ko'chasi,100060,41.3007068,69.2881632
12B,Foziltepa ko'chasi,100152,41.2835372,69.1649348
47,Amir Temur shoh ko'chasi,100060,41.2971671,69.2859803
18,Katta Darhon ko'chasi,100052,41.3312940,69.3105893
80,Iftihor ko'chasi,100057,41.3452436,69.2765201
3,Buyuk Ipak Yo'li ko'chasi,100077,41.3263198,69.3275040
52/2,Bunyodkor shoh ko'chasi,100135,41.2754254,69.2041797
51,Yangi Olmazor ko'chasi,100069,41.3511832,69.2479441
6,Анхор Буйи улица,100011,41.3184017,69.2661046
4,улица Узумзор,111220,41.3137678,69.3522213
7A,Arnasoy ko'chasi,100115,41.2809208,69.2284901
105,Mustaqillik shoh ko'chasi,100059,41.3256510,69.3222996
5,Muqimiy ko'chasi,100096,41.2976829,69.2135984
29,Navoiy shoh ko'chasi,100000,41.3210077,69.2517160
60,Vosit Vohidov ko'chasi,100031,41.2986436,69.2606379
39,Olmachi 1-o'tish ko'chasi,100060,41.3181410,69.3170948
23,Беларик улица,100013,41.2880544,69.2406132
12,Imom-at-Termiziy ko'chasi,100100,41.2846229,69.2444266
14-16,Шохжахон улица,100100,41.2845690,69.2452127
7a,Taraqqiyot ko'chasi,100096,41.3538575,69.2346190
25,Istiqbol ko'chasi,100047,41.3053170,69.2862760
59,Osiyo ko'chasi,100017,41.3280773,69.2759177
1,Muhammad Yusuf ko'chasi,100077,41.3155566,69.3280641
83,Muqimiy ko'chasi,100043,41.2946805,69.2213415
68,Sodiq Azimov ko'chasi,100005,41.3038293,69.2888753
9,Авиасозлар - 1,100204,41.2886911,69.3583469
1,Muhammad Yusuf ko'chasi,100077,41.3160829,69.3280166
39,Abdulla Kahhar ko'chasi,100100,41.2803704,69.2606357
31-21,Oqqo'rg'on ko'chasi,100052,41.3252837,69.3034683
11,Yangi sirg'ali ko'chasi 8А,100012,41.2260766,69.2199948
70,Amir Temur shoh ko'chasi,100084,41.3285465,69.2838571
12,Beruniy shoh ko'chasi,100000,41.3274517,69.2282937
97,Жумамасжид улица,100000,41.3571069,69.2697870
7A,Hadra (C-14) dahasi,100011,41.3261630,69.2463350
4a,Osiyo ko'chasi,100000,41.3272115,69.2857356
21a,Taras Shevchenko ko'chasi,100060,41.2971168,69.2813743
117A,Bektemir yo'li ko'chasi,10000,41.2231243,69.3343692
50,"Chilonzor tumani, Kichik xalqa yo'li ko'chasi, 50 uy",100009,41.2883126,69.1949218
122/2,Usta Shirin ko'chasi,100057,41.3557238,69.2535420
8,Sho'ta Rustaveli 1-tor ko'chasi,100022,41.2707965,69.2410952
104 Б,Kichik Beshyog'och ko'chasi,100025,41.2816695,69.2677957
10,Osiyo ko'chasi,100078,41.3267956,69.2894605
1,Nurmakon ko'chasi,100009,41.3770159,69.2674845
2,Qatortol ko'chasi,100097,41.2848572,69.2036908
2,Qatortol ko'chasi,100097,41.2846172,69.2034547
1,Yangi Jarariq 11-tor ko'chasi,100169,41.3396676,69.1898018
152,Birodarlik (Sputnik) 16 dahasi,100112,41.2027238,69.2041748
14Б,Lutfiy 1-o'tish ko'chasi,100054,41.2981766,69.2034462
14Б,Lutfiy 1-o'tish ko'chasi,100054,41.2981730,69.2034335
26,Амиробод улица,100167,41.2753150,69.2775418
15/6,Карасу-1,100187,41.3356736,69.3698350
24,Bunyodkor shoh ko'chasi,100105,41.2717883,69.2019274
48a,Bektemir (Suvchi) dahasi,100213,41.2543170,69.3805357
17,TashGosMi Shifokorlar dahasi,100109,41.3613090,69.1773150
40,Каракум улица,100100,41.2837382,69.2439218
2,Эшона Бобохонова улица,100169,41.3404931,69.1940917
125,Gavhar ko'chasi,100081,41.2537322,69.1942815
11А,Furqat ko'chasi,100003,41.3081255,69.2450972
2,Islam Karimov Street,100027,41.3140026,69.2492982
2,"Islam Karimov Street, Floor 1",100027,41.3141027,69.2492061
2,"Islam Karimov Street, Floor 21",100027,41.3140766,69.2490801
2,"Islam Karimov Street, Floors 3 and 4",100027,41.3140778,69.2491644
дом-2 кв-75,Farg'ona Yo'li,100147,41.2404083,69.3299417
47,Salarbo'yi ko'chasi,100052,41.3304083,69.3130989
47,Salarbo'yi ko'chasi,100052,41.3303916,69.3131045
5,Katta Mirobod 1-o'tish ko'chasi,100000,41.2885676,69.2661984
22 блок,Бог улица,100020,41.3273721,69.2172112
21,Qatortol ko'chasi,100096,41.2901950,69.2103682
18А,Массив Себзар,100019,41.3332348,69.2450420
18А,Массив Себзар,100019,41.3337948,69.2451999
16/2,Gulbadanbegim ko'chasi,100041,41.3432792,69.3341245
4 B,Sarabuston ko'chasi,100014,41.3004754,69.2632795
10,"Мирзо-Улугбекский район, массив Карасу, 6-й квартал",100050,41.3207636,69.3550902
4A,Beruniy shoh ko'chasi,100002,41.3264312,69.2301978
1,Toytepa ko'chasi,100047,41.3047930,69.2889765
104,8 Mart ko'chasi,100000,41.2812145,69.2949635
85,Chinobod ko'chasi,100039,41.3556769,69.3069207
7/А,Muqimiy ko'chasi,100100,41.2785808,69.2489307
180,Parkent ko'chasi,100000,41.3089107,69.3358252
16,Shahrisabz ko'chasi,100060,41.2991807,69.2747291
55,Mirzo Ulug'bek shoh ko'chasi,100007,41.3157053,69.3153365
100,Kichik Mirobod ko'chasi,100000,41.2868323,69.2658739
57,Mironshoh ko'chasi,100025,41.2854252,69.2766035
112b,Kichik Mirobod ko'chasi,100025,41.2862427,69.2659609
21,Usta-Olim o'tish yo'li,100019,41.3401789,69.2550290
43,Glinka ko'chasi,100070,41.2849016,69.2643977
37-39,Olmachi 1-o'tish ko'chasi,100052,41.3181396,69.3170086
85,Chinobod ko'chasi,100039,41.3557118,69.3071088
Литер 150,"Буюк Ипак Йули 434, Ташкент, 100142",100142,41.3448840,69.4006817
31A,Makhmud Tarabi ko'chasi,100100,41.2842592,69.2573133
114a,Mahtumquli ko'chasi,100047,41.3028746,69.3149452
48,Kichik Halqa yo'li,100001,41.2658966,69.2172079
32,Arnasoy ko'chasi,100115,41.2835281,69.2308248
177А,Bektemir yo'li ko'chasi,100033,41.2236976,69.3344490
10,Navoiy shoh ko'chasi,100128,41.3208457,69.2639895
123,Buyuk Ipak Yo'li ko'chasi,100019,41.3275481,69.3375048
48а,Водник массив,100213,41.2496573,69.3769516
48a,Bektemir (Suvchi) daxasi,100213,41.2552163,69.3810892
170,Parkent ko'chasi,100000,41.3108686,69.3332944
178,Muqimiy ko'chasi,100096,41.2953466,69.2176279
4/1,Muminov ko'chasi,100164,41.3414061,69.3367103
20 дом,11-й квартал,100037,41.3678204,69.2862501
30,Проспект Мирзо Улугбека,100007,41.3191800,69.3195830
10,улица Рохат 5 Тор,100213,41.2521127,69.3837276
2,Shahrisabz ko'chasi,100000,41.3150958,69.2824617
67,O'riqzor 3-o'tish ko'chasi,100100,41.2942940,69.2447095
156A,Bunyodkor shoh ko'chasi,100068,41.2471090,69.1686968
120,Kamolon ko'chasi,100027,41.3063489,69.2345841
9а,Chilonzor 23 mavzesi,100139,41.2859156,69.1735952
14-15-01,Kichik Halqa yo'li,100106,41.2963837,69.1937076
417,Farobiy ko'chasi,100000,41.3496421,69.1887475
4/2,Turkiston 4/2,1000017,41.2941731,69.2906579
10,Elbek ko'chasi,100060,41.2996563,69.2964008
4d,Minor 1-berk ko'chasi,100000,41.3384256,69.2819175
112,Шохидонтепа улица,100128,41.3357652,69.2658287
112,Labzak ko'chasi,100128,41.3357027,69.2656575
1А,Sharq Tongi ​ko'chasi,100043,41.3002400,69.2278394
1А,Sharq Tongi ​ko'chasi,100043,41.3000014,69.2277326
8/1,Shifokorlar ko'chasi,100086,41.3530476,69.1787881
3,Temur Malik ko'chasi,100000,41.3536732,69.3522457
23,Bog'kocha  улица,100000,41.3162656,69.2170269
54,Farhod ko'chasi,100138,41.2901699,69.1817404
3,Temur Malik ko'chasi,100000,41.3537084,69.3519012
1,Navoiy shoh ko'chasi,100000,41.3164818,69.2770586
74,6 Chilonzor ko'chasi,100115,41.2793678,69.2132076
17A,Farhod ko'chasi,100000,41.2803850,69.1947271
80,Chilonzor ko'chasi,100115,41.2810998,69.2197987
292,Paxtachi ko'chasi,100169,41.3390518,69.1910570
21,Inoqobod 2-o'tish ko'chasi,100065,41.2843416,69.2938173
9,Abdulla Qodiriy ko'chasi,100128,41.3268550,69.2528575
12,Feruza ko'chasi,100124,41.3548108,69.3683162
"Ground Zero, 33",Lutfiy ko'chasi,100152,41.2763158,69.1678351
1/4,Mahtumquli ko'chasi,100047,41.3032110,69.3181388
Хакитат тор 2,Улица Маннона Уйгура,100021,41.3249922,69.2399326
23,Cho'ponota ko'chasi,100097,41.2886350,69.1998980
1a,Abdulla Kahhar 9-o'tish ko'chasi,10010,41.2714334,69.2617748
21,Yuzrabot ko'chasi,100142,41.3631921,69.3931054
8,Charbog' 2-chi o'tish yo'li,100161,41.2394637,69.1888447
43,Mirobod ko'chasi,100015,41.2907237,69.2742065
69,Mahtumquli ko'chasi,100047,41.3053165,69.3088245
67,Mahtumquli ko'chasi,100047,41.3070490,69.3044455
70,Yaxyo Gulomov ko'chasi,100047,41.3066514,69.2865300
42,Shahrisabz ko'chasi,100060,41.3058197,69.2837860
1,Shahrisabz ko'chasi,100000,41.3171677,69.2818237
3,Shahrisabz ko'chasi,100000,41.3170429,69.2823026
107 B,Amir Temur shoh ko'chasi,100084,41.3362245,69.2825800
1а/1,Zulfiyakhonim ko'chasi,100128,41.3297828,69.2647965
80/1,Mahtumquli ko'chasi,100047,41.3074319,69.2954531
104,Kichik Beshyog'och ko'chasi,10019,41.2814874,69.2674777
8,Sagbon,100069,41.3457270,69.2326033
80/1,Mahtumquli ko'chasi,100047,41.3056012,69.2959915
39A,O'zbekiston Ovozi ko'chasi,100000,41.3113500,69.2910230
1000,Ziyolilar ko'chasi,100170,41.3361597,69.3217290
62,Amir Temur shoh ko'chasi,100000,41.3266461,69.2836556
23,Bobur ko'chasi,100100,41.2910721,69.2516093
3,Qatortol ko'chasi,100183,41.2562035,69.1834611
75,Mirzo Ulug'bek shoh ko'chasi,100007,41.3155486,69.3151618
57,Mirzo Ulug'bek shoh ko'chasi,100007,41.3161012,69.3154793
2,Qorasaroy ko'chasi,10069,41.3481081,69.2427300
1А,Qoraqamish 4-ko'chasi,100178,41.3644967,69.2044346
2,Бог куча,100020,41.3311040,69.2200164
5,Nurafshon aylanma ko'chasi,100876,41.3305639,69.2208678
107 A,Amir Temur shoh ko'chasi,100084,41.3357590,69.2829784
101,Amir Temur shoh ko'chasi,100084,41.3357746,69.2835319
107,Amir Temur shoh ko'chasi,100084,41.3373110,69.2823654
87,Sodiq Azimov ko'chasi,100060,41.3009617,69.2859059
22,Amir Temur shoh ko'chasi,100060,41.3006415,69.2811351
2,Fidokor ko'chasi,100060,41.2995632,69.2812105
39,Amir Temur shoh ko'chasi,100061,41.3008939,69.2826563
35,Afrosiyob ko'chasi,100015,41.3012912,69.2721746
35/1,Afrosiyob ko'chasi,100015,41.3009603,69.2722624
37,Afrosiyob ko'chasi,100015,41.3005243,69.2730825
11,Shahrisabz ko'chasi,100015,41.3001502,69.2741385
15,Shahrisabz ko'chasi,100015,41.3007715,69.2751443
75,Buyuk Turon ko'chasi,100029,41.3054541,69.2681850
17,Chimkent ko'chasi,100029,41.3054177,69.2729063
8,Taras Shevchenko ko'chasi,100029,41.3053579,69.2747188
6,Taras Shevchenko ko'chasi,100029,41.3059354,69.2745223
4,Taras Shevchenko ko'chasi,100029,41.3065174,69.2738959
2,Taras Shevchenko ko'chasi,100029,41.3069723,69.2739721
42,Shahrisabz ko'chasi,100060,41.3058039,69.2838111
85,Shahrisabz ko'chasi,100000,41.3076099,69.2859682
21,Istiqbol ko'chasi,100047,41.3067528,69.2849093
70,Yaxyo Gulomov ko'chasi,100047,41.3066216,69.2864943
68,Yax'yo Gulomov ko'chasi,100047,41.3072085,69.2871540
2,Sodiq Azimov ko'chasi,100016,41.3076046,69.2905674
1,Toytepa ko'chasi,100047,41.3048471,69.2889231
81,Sodiq Azimov ko'chasi,100060,41.3019526,69.2866123
1,Amir Temur shoh ko'chasi,100000,41.3136825,69.2789874
93,Yaxyo Gulomov ko'chasi,100060,41.3046959,69.2851954
32,Oybek ko'chasi,100015,41.2930169,69.2785553
72 A,Sodiq Azimov ko'chasi,100060,41.3021370,69.2854586
79,Sodiq Azimov ko'chasi,100060,41.3023732,69.2873526
32,Istiqbol ko'chasi,100060,41.3020676,69.2878437
34,Istiqbol ko'chasi,100060,41.3016007,69.2885359
36,Istiqbol ko'chasi,100060,41.3007701,69.2891568
2,Nukus ko'chasi,100000,41.2999586,69.2899655
4,Nukus ko'chasi,100000,41.2991549,69.2891674
6,Nukus ko'chasi,100060,41.2988658,69.2881977
8,Nukus ko'chasi,100060,41.2980551,69.2873273
47,Amir Temur shoh ko'chasi,100060,41.2973978,69.2861803
74,Yax'yo Gulomov ko'chasi,100060,41.3052174,69.2843621
2A,Toytepa ko'chasi,100047,41.3057664,69.2883408
47,Sodiq Azimov ko'chasi,100000,41.3085483,69.2915753
22,Mustaqillik shoh ko'chasi,100000,41.3158262,69.2913375
40,Mustaqillik shoh ko'chasi,100000,41.3157755,69.2917967
22,Mustaqillik shoh ko'chasi,100000,41.3159025,69.2920532
2,Sodiq Azimov 5-o'tish ko'chasi,100000,41.3028028,69.2932406
78,Mahtumquli ko'chasi,100000,41.3063523,69.2934310
79,Yax'yo Gulomov ko'chasi,100047,41.3066270,69.2879022
18,Nukus ko'chasi,100015,41.2962936,69.2844568
21,Nukus ko'chasi,100000,41.2970966,69.2874155
13A,Xamid Olimjon maydoni,100000,41.3185625,69.2944001
89,Sodiq Azimov ko'chasi,100060,41.3006194,69.2844032
89/2,Sodiq Azimov ko'chasi,100060,41.3003361,69.2849472
43,Amir Temur shoh ko'chasi,100060,41.2991493,69.2839051
85,Sodiq Azimov ko'chasi,100060,41.3014955,69.2866084
83,Sodiq Azimov ko'chasi,100060,41.3017683,69.2870259
59,Mahtumquli ko'chasi,100000,41.3091567,69.2880665
33 А,Shahrisabz ko'chasi,100047,41.3103931,69.2874129
23а,Nukus ko'chasi,100000,41.2956949,69.2847314
29,Taras Shevchenko ko'chasi,100015,41.2946757,69.2842012
8,Turkiston ko'chasi,100015,41.2937026,69.2874969
10,Turkiston ko'chasi,100015,41.2930992,69.2865109
8A,Turkiston ko'chasi,100015,41.2938149,69.2867311
64,Taras Shevchenko ko'chasi,100015,41.2927240,69.2847280
47,Yaxyo Gulomov ko'chasi,100000,41.3122126,69.2897832
27/7,Mirobod ko'chasi,100015,41.2966968,69.2705900
42,Fidokor ko'chasi,100015,41.2948635,69.2709483
25,Fidokor ko'chasi,100015,41.2946046,69.2713148
30,Fidokor ko'chasi,100015,41.2947344,69.2726716
41,Shota Rustaveli ko'chasi,100070,41.2890771,69.2585188
45,Bobur ko'chasi,100100,41.2877753,69.2541810
13,Amir Temur shoh ko'chasi,100000,41.3144236,69.2798738
36,Navoiy shoh ko'chasi,100011,41.3223166,69.2443391
28А,Navoiy shoh ko'chasi,100011,41.3224819,69.2529012
5A,Elbek ko'chasi,100060,41.2988042,69.2933589
5,Elbek ko'chasi,100060,41.2983410,69.2937481
7,Elbek ko'chasi,100060,41.2980295,69.2944084
13,Elbek ko'chasi,100060,41.2998104,69.2955623
11A,Elbek ko'chasi,100060,41.2993973,69.2954902
11,Elbek ko'chasi,100060,41.2990006,69.2952899
9,Elbek ko'chasi,100060,41.2984642,69.2948419
7 А,Elbek ko'chasi,100060,41.2988431,69.2937973
15,Elbek ko'chasi,100060,41.2997839,69.2943288
1,Elbek ko'chasi,100060,41.2994197,69.2942210
2,Elbek ko'chasi,100060,41.2989795,69.2944164
3,Said Baraka ko'chasi,100000,41.3004504,69.2881014
5,Моштабиб улица,100000,41.2994375,69.2886436
3,Моштабиб улица,100000,41.2997886,69.2891880
4,Моштабиб улица,100000,41.3002088,69.2888330
6,Моштабиб улица,100000,41.2999350,69.2883785
1Б,Моштабиб улица,100000,41.2990364,69.2870002
1,Моштабиб улица,100000,41.2986176,69.2866499
5,Mustaqillik shoh ko'chasi,100000,41.3126367,69.2823684
25,Istiqlol ko'chasi,100000,41.3124267,69.2812466
46,Amir Temur shoh ko'chasi,100017,41.3247379,69.2821766
3,Katta Mirobod 1-o'tish ko'chasi,100015,41.2897491,69.2726687
55,Osiyo ko'chasi,100017,41.3275086,69.2807942
25,Amir Temur shoh ko'chasi,100017,41.3183911,69.2806998
7/8,Amir Temur shoh ko'chasi,100000,41.3176212,69.2801290
23,Qashg'ar (C-4) dahasi,100000,41.3214602,69.2746045
22,Qashg'ar (C-4) dahasi,100000,41.3211441,69.2741142
1,Abdulla Qodiriy ko'chasi,100128,41.3249730,69.2636345
18,Zulfiyakhonim ko'chasi,100128,41.3293156,69.2574512
9,Abdulla Qodiriy ko'chasi,100128,41.3264772,69.2534746
45,Sebzor daxasi,100019,41.3335404,69.2510869
1/1,Sebzor daxasi,100069,41.3377417,69.2536803
1,Sebzor ko‘chasi,100019,41.3301888,69.2472238
1 а,Labzak ko'chasi,100128,41.3290421,69.2640401
1а/1,Zulfiyakhonim ko'chasi,100128,41.3297831,69.2647968
97,Zulfiyakhonim ko'chasi,100128,41.3300844,69.2678833
3,Zulfiyakhonim ko'chasi,100128,41.3297819,69.2705780
96а,Sharof Rashidov ko'chasi,100084,41.3316621,69.2776397
95,Amir Temur shoh ko'chasi,100084,41.3315087,69.2831150
84,Amir Temur shoh ko'chasi,100017,41.3283579,69.2826408
72,Amir Temur shoh ko'chasi,100084,41.3299796,69.2844314
4A,Xalqobod 3-o'tish ko'chasi,100084,41.3297753,69.2894232
72,Osiyo ko'chasi,100052,41.3266836,69.2936138
2,Chingiz Aytmatov ko'chasi,100078,41.3282373,69.2918125
Block B,C-11,100011,41.3215531,69.2618734
Block A,C-11,100011,41.3216625,69.2613331
18A,Navoiy shoh ko'chasi,100011,41.3213480,69.2591257
22,Navoiy shoh ko'chasi,100011,41.3218875,69.2567033
4,Abay ko'chasi,100011,41.3227904,69.2556561
13,Alisher Navoiy shoh ko'chasi,100011,41.3201344,69.2616264
7A,Navoiy shoh ko'chasi,100011,41.3192069,69.2640669
4,Navoiy shoh ko'chasi,100004,41.3207976,69.2661645
2,Navoiy shoh ko'chasi,100000,41.3209659,69.2696060
88,Amir Temur shoh ko'chasi,100084,41.3345294,69.2852163
102,Amir Temur shoh ko'chasi,100084,41.3387813,69.2859060
12,Bogishamol ko'chasi,100202,41.3388559,69.2886221
7A,Bogishamol ko'chasi,100084,41.3401585,69.2905071
59A,Mustaqillik shoh ko'chasi,100000,41.3188887,69.2962534
65,Mustaqillik shoh ko'chasi,100000,41.3193984,69.2974803
63,Mustaqillik shoh ko'chasi,100000,41.3195087,69.2967481
68,Mustaqillik shoh ko'chasi,100000,41.3182609,69.2968279
66,Mustaqillik shoh ko'chasi,100000,41.3168826,69.2954541
8,Pushkinskiy o'tish ko'chasi,100000,41.3181067,69.3000708
11,Darxon ko'chasi,100000,41.3178973,69.3007539
5,Tamaraxonim ko'chasi,100000,41.3184600,69.3030316
4,Tamaraxonim ko'chasi,100000,41.3191993,69.3022334
9A,Tamaraxonim ko'chasi,100000,41.3190508,69.3001502
1,Tamaraxonim ko'chasi,100000,41.3190882,69.3010355
1A,M. Ismoiliy ko'chasi,100000,41.3185971,69.3050454
2,M. Ismoiliy ko'chasi,100000,41.3177966,69.3048863
3,M. Ismoiliy ko'chasi,100000,41.3177245,69.3054307
79,Mustaqillik shoh ko'chasi,100000,41.3219655,69.3021978
83,Mustaqillik shoh ko'chasi,100000,41.3227144,69.3014141
81,Mustaqillik shoh ko'chasi,100000,41.3229815,69.3021236
77,Mustaqillik shoh ko'chasi,100000,41.3210727,69.3008293
39,Kari Niyoziy ko'chasi,100000,41.3232835,69.2960627
2,Oqqo'rg'on ko'chasi,100052,41.3226973,69.3045265
16,Oqqo'rg'on ko'chasi,100052,41.3238006,69.3042723
18,Oqqo'rg'on ko'chasi,100052,41.3266231,69.3051119
2,Parkent ko'chasi,100023,41.3175326,69.3079035
1,Botkin ko'chasi,100047,41.3065018,69.3059722
8a,Botkin ko'chasi,100047,41.3082458,69.3101032
35,Oqqo'rg'on ko'chasi,100052,41.3327266,69.3032446
5,Katta Darhon ko'chasi,100052,41.3310336,69.3070777
6,Amir Temur 1-o'tish ko'chasi,100000,41.3171327,69.2831209
24,Amir Temur shoh ko'chasi,100000,41.3176495,69.2815913
107,Mustaqillik shoh ko'chasi,100077,41.3259882,69.3231479
63,Mustaqillik shoh ko'chasi,100077,41.3245183,69.3179322
2,Sayram 7-o'tish ko'chasi,100077,41.3255987,69.3185706
39b,Sayram ko'chasi,100077,41.3278993,69.3259414
2,Сайрам тупик,100,41.3292498,69.3267319
4,Sayram ko'chasi 1 tor.,100170,41.3293767,69.3274792
103,Buyuk Ipak Yo'li ko'chasi,100077,41.3266058,69.3285861
26,Ziyolilar ko'chasi,100170,41.3374771,69.3336578
38,Ziyolilar ko'chasi,100170,41.3391554,69.3340402
29,Chilonzor ko'chasi,100115,41.2886163,69.2302120
76,Yusuf Xos Hojib ko'chasi,100100,41.2942621,69.2529863
1,Chilonzor ko'chasi,100115,41.2943648,69.2374619
72,Yusuf Xos Hojib ko'chasi,100070,41.2946305,69.2537408
21,Bobur ko'chasi,100070,41.2918544,69.2513469
20,Bobur ko'chasi,100100,41.2917886,69.2496718
64,Shota Rustaveli ko'chasi,100100,41.2795506,69.2463296
66,Shota Rustaveli ko'chasi,100100,41.2792934,69.2460447
53Б,Shota Rustaveli ko'chasi,100100,41.2837875,69.2524206
37,Кухинур улица,100031,41.2975765,69.2654096
3,Belariq ko'chasi,100000,41.2887034,69.2450633
1,Ракат улица,100100,41.2872289,69.2406303
14,Bobur ko'chasi,100100,41.2946764,69.2502269
1,O'rikzor 3-o'tish ko'chasi,100000,41.2963094,69.2491017
2,Shota Rustaveli 2-o'tish ko'chasi,100059,41.2654494,69.2350220
7/1,Muqimiy ko'chasi,100100,41.2786048,69.2490892
11,Bratislava ko'chasi,100070,41.2900621,69.2569151
68A,Тафаккур улица,100070,41.2922559,69.2571828
57,Nukus ko'chasi,100090,41.2811917,69.2592122
2А,Nukus ko'chasi,100090,41.2806987,69.2567006
60A,Bobur ko'chasi,100060,41.2731130,69.2586204
85,Bobur ko'chasi,100025,41.2703985,69.2618710
1А,просп. Бунёдкор,100000,41.2912326,69.2238264
1,Buxoro ko'chasi,100043,41.3082550,69.2777597
1,Istiqbol ko'chasi,100047,41.3095402,69.2825797
1,Muqimiy ko'chasi,100115,41.2876573,69.2296892
15в,Bunyodkor shoh ko'chasi,100115,41.2937432,69.2237870
15/1,Bunyodkor shoh ko'chasi,100000,41.2930223,69.2230662
4,Islom Karimov ko'chasi,100001,41.3075243,69.2738962
14,Afrosiyob ko'chasi,100015,41.2998864,69.2714283
24,Zarafshan ko'chasi,100029,41.3103268,69.2725732
26,Amir Temur shoh ko'chasi,100060,41.2976032,69.2842232
12Б,Afrosiyob ko'chasi,100015,41.3000778,69.2711776
18,Yunus Rajabi ko'chasi,100031,41.3056632,69.2614843
64 Б,Yunus Rajabi ko'chasi,100031,41.3058074,69.2601797
122,Mustaqillik shoh ko'chasi,100052,41.3201606,69.3066211
4B,Afrosiyob ko'chasi,100031,41.3021078,69.2690219
87,Sodiq Azimov ko'chasi,100060,41.3010196,69.2859019
28/14,Oybek ko'chasi,100031,41.2953485,69.2761027
14,Kalandar ko'chasi,100170,41.3344320,69.3293846
42,Bunyodkor shoh ko'chasi,100059,41.2881128,69.2149156
11A,Bunyodkor shoh ko'chasi,100043,41.2888502,69.2209826
21,Qatortol ko'chasi,100096,41.2903216,69.2105615
1/1,Talimarjon ko'chasi,100105,41.2786538,69.3059016
12,Talimarjon ko'chasi,100105,41.2757874,69.3007174
11,Yangizamon ko'chasi,100015,41.2787902,69.2996805
3,Yangizamon 4-o'tish ko'chasi,100105,41.2762624,69.2969124
5,Yangizamon 4-o'tish ko'chasi,100105,41.2760427,69.2972410
5/1,Yangizamon 4-o'tish ko'chasi,100105,41.2762292,69.2976325
24,Oybek ko'chasi,100031,41.2946075,69.2768723
41,Afrosiyob ko'chasi,100015,41.3000162,69.2727536
3/1,Elbek ko'chasi,100060,41.2994313,69.2929287
10,Elbek ko'chasi,100060,41.2997591,69.2963096
32,Elbek ko'chasi,100060,41.2985540,69.2952243
4,Turkiston ko'chasi,100015,41.2936972,69.2904535
4,Abdurauf Fitrat ko'chasi,100072,41.2727513,69.3088355
26,Abdurauf Fitrat ko'chasi,100072,41.2720378,69.3060299
1A,Uchuvchilar shaharchasi,100167,41.2703427,69.2820031
5A,Uchuvchilar shaharchasi,100167,41.2699590,69.2820852
6A,Uchuvchilar shaharchasi,100167,41.2696294,69.2823357
7A,Uchuvchilar shaharchasi,100167,41.2699258,69.2833414
40,Uchuvchilar shaharchasi,100167,41.2692693,69.2825434
41,Uchuvchilar shaharchasi,100167,41.2693979,69.2832342
47,Kanora ko'chasi,100112,41.2057946,69.2311926
13,Kanora ko'chasi,100112,41.2060467,69.2316429
53,Kanora ko'chasi,100112,41.2066385,69.2322316
33,Do'stlik ko'chasi,100102,41.1993751,69.2243683
35,Do'stlik ko'chasi,100102,41.1991710,69.2245218
35,Do'stlik ko'chasi,100102,41.1939425,69.2101083
71,Shokirariq ko'chasi,100050,41.2190928,69.2212002
76,Uchuvchilar ko'chasi,100167,41.2681927,69.2792783
24,Uchuvchilar ko'chasi,100167,41.2690654,69.2770791
82,Uchuvchilar shaharchasi,100167,41.2673968,69.2826458
78,Uchuvchilar shaharchasi,100167,41.2672617,69.2795576
77,Uchuvchilar shaharchasi,100167,41.2675952,69.2794641
80,Uchuvchilar shaharchasi,100167,41.2674991,69.2818559
80Б,Uchuvchilar shaharchasi,100167,41.2670563,69.2820631
1,Aeroport 1-o'tish ko'chasi,100167,41.2695812,69.2769440
84,Uchuvchilar shaharchasi,100167,41.2677724,69.2805183
80А,Uchuvchilar shaharchasi,100167,41.2685194,69.2813776
79,Uchuvchilar shaharchasi,100167,41.2680728,69.2815838
83,Uchuvchilar shaharchasi,100167,41.2674464,69.2806230
6,Uchuvchilar shaharchasi,100167,41.2702020,69.2804122
20,Uchuvchilar shaharchasi,100167,41.2697143,69.2807250
35,Sayilgoh ko'chasi,100000,41.3110825,69.2776089
77,Bobur ko'chasi,100090,41.2719232,69.2601953
36,Aviasozlar 3 daxasi,100204,41.2891697,69.3435121
51,Aviasozlar 4 dahasi,100171,41.2932191,69.3483903
49,Aviasozlar 4 dahasi,100171,41.2938701,69.3497395
45,Birlashgan 2-berk ko'chasi,100171,41.2945918,69.3500706
331,Parkent ko'chasi,100207,41.2980329,69.3516144
52,Aviasozlar 4 dahasi,100171,41.2936673,69.3478114
1,Temirchi ko'chasi,100207,41.3001120,69.3529630
69,OHANGARON SHOSESSI,100040,41.2844749,69.3593858
2,Mahtumquli ko'chasi,100014,41.3055501,69.3050203
7,Farg'ona Yo'li,100005,41.2953091,69.2967623
2,Birlashgan ko'chasi,100171,41.2899261,69.3480797
4,Birlashgan ko'chasi,700171,41.2900203,69.3473850
204,Geydar Aliev ko'chasi,100167,41.2722852,69.2786020
4,Buyuk Ipak Yo'li ko'chasi,100077,41.3267538,69.3301058
75,Mustaqillik shoh ko'chasi,100000,41.3207066,69.3002025
75,Mustaqillik shoh ko'chasi,100000,41.3209732,69.3000978
2/1,Mirzo Ulug'bek shoh ko'chasi,100000,41.3059687,69.3098825
17,Quruvchilar ko'chasi,100146,41.2542524,69.3419764
3,Chashma 3-o'tish ko'chasi,100146,41.2572041,69.3447057
17,Nukus ko'chasi,100000,41.2975566,69.2881570
15,Nukus ko'chasi,100000,41.2978107,69.2885576
19,Nukus ko'chasi,100000,41.2973133,69.2877508
13,Nukus ko'chasi,100000,41.2980231,69.2888908
2A,Mahtumquli ko'chasi,100047,41.3061680,69.3040019
210,Sultonali Mashhadiy ko'chasi,100007,41.3080263,69.3255119
11,Shahriobod ko'chasi,100000,41.3482039,69.3418754
19,Кадырова кучаси,100024,41.3541610,69.3672224
93,Mirzo Ulug'bek shoh ko'chasi,100125,41.3464729,69.3468777
20,Gulsanam 1-o'tish ko`chasi,100024,41.3541967,69.3681115
69,Uzumzor ko'chasi,100125,41.3472063,69.3513142
40,Oltintopgan ko'chasi,100033,41.2228005,69.3108385
9,Farg'ona Yo'li,100147,41.2408794,69.3336695
68,Muhammad Yusuf ko'chasi,100077,41.3244561,69.3262830
50,Mustaqillik shoh ko'chasi,100077,41.3250043,69.3230957
55,Muhammad Yusuf ko'chasi,100077,41.3230101,69.3260371
131,Buyuk Ipak Yo'li ko'chasi,100077,41.3279529,69.3396885
100,Mirzo Ulug'bek shoh ko'chasi,100000,41.3331039,69.3351933
58,Mirzo Ulug'bek shoh ko'chasi,100000,41.3269867,69.3276976
135,Buyuk Ipak Yo'li ko'chasi,100077,41.3280798,69.3406515
117,Buyuk Ipak Yo'li ko'chasi,100077,41.3293715,69.3350787
129,Buyuk Ipak Yo'li ko'chasi,100077,41.3278147,69.3385695
137,Buyuk Ipak Yo'li ko'chasi,100077,41.3282594,69.3419212
107,Buyuk Ipak Yo'li ko'chasi,100077,41.3270364,69.3293461
6,Amir Temur 2-o'tish ko'chasi,100047,41.3056191,69.2814859
1,Birlashgan ko'chasi,100171,41.2919696,69.3506498
37/1,Birlashgan ko'chasi,100171,41.2908494,69.3516273
15/3,Furkat ko'chasi,100003,41.3069420,69.2459282
5,Furkat ko'chasi,100003,41.3056387,69.2437499
8,OHANGARON SHOSESSI,100040,41.2784338,69.3602663
1A,Qoratosh ko'chasi,100027,41.3119962,69.2376088
9,Beshyog'och dahasi,100027,41.3088602,69.2364630
18,Beshyog'och dahasi,100027,41.3097628,69.2365589
7,Beshyog'och dahasi,100027,41.3093265,69.2366278
9,Beshyog'och dahasi,100027,41.3091123,69.2355530
Офис фабрики Файз,Обихаёт улица,100209,41.2157972,69.2335787
1/1,Amirobod 1-o'tish ko'chasi,100167,41.2793884,69.2789822
1/2,Amirobod 1-o'tish ko'chasi,100167,41.2788812,69.2789291
1/3,Amirobod 1-o'tish ko'chasi,100167,41.2782843,69.2788582
1,Shifonur ko'chasi,100095,41.3519886,69.2184534
2,Qoraqamish 3-ko'chasi,100000,41.3712530,69.2110067
4,Qoraqamish 3-ko'chasi,100000,41.3708485,69.2134186
3а,Qoraqamish 3-ko'chasi,100000,41.3709719,69.2096566
1А,Qoraqamish 3-ko'chasi,100000,41.3708673,69.2062787
1,Qoraqamish 3-ko'chasi,100000,41.3708450,69.2107836
6,Qoraqamish 3-ko'chasi,100000,41.3709949,69.2120571
89,Nukus ko'chasi,100015,41.2848092,69.2680844
22,Shahrisabz ko'chasi,100015,41.3000739,69.2757981
10,Fidokor ko'chasi,100015,41.2981467,69.2782486
34А,Taras Shevchenko ko'chasi,100015,41.2982006,69.2790376
78,Said Baraka ko'chasi,100060,41.2950506,69.2781105
2/1,Abdurauf Fitrat ko'chasi,100072,41.2731168,69.3098408
3,Muqimiy ko'chasi,100000,41.2789483,69.2421530
7,Muqimiy ko'chasi,100000,41.2796690,69.2412562
2,Mironshoh 7-o'tish ko'chasi,100015,41.2860760,69.2736333
2,Mironshoh 7-o'tish ko'chasi,100015,41.2860460,69.2734143
3,Mironshoh 7-o'tish ko'chasi,100015,41.2856192,69.2735519
1А,Mironshoh 7-o'tish ko'chasi,100015,41.2860743,69.2740898
31,Зохидова улица,100073,41.2690015,69.3151341
37,Зохидова улица,100073,41.2688003,69.3144959
25A,Kalandar ko'chasi,100170,41.3327667,69.3290115
7,Navoiy shoh ko'chasi,100038,41.3198809,69.2639251
1,Botir Zokirov ko'chasi,100027,41.3142415,69.2552941
3,Darxon ko'chasi,100000,41.3184757,69.3014875
2,Tamaraxonim ko'chasi,100000,41.3187931,69.3012842
63,Mustaqillik shoh ko'chasi,100000,41.3198307,69.2968759
3,Мойкурган улица,100093,41.3671357,69.2728207
73,Buyuk Turon ko'chasi,100029,41.3068645,69.2687995
16,Yunus Rajabi ko'chasi,100031,41.3049294,69.2615622
72,Yunus Rajabi ko'chasi,100031,41.3055953,69.2574507
43,Muqimiy ko'chasi,100096,41.2935814,69.2195502
80,Mahtumquli ko'chasi,100047,41.3063574,69.2949100
42 корпус 7,Куддус 4-й проезд,100105,41.2760230,69.2942022
38,Sariko'l ko'chasi,100105,41.2719538,69.2941533
16А/7,Куддус 4-й проезд,100105,41.2766553,69.2933890
38,Sariko'l ko'chasi,100005,41.2697317,69.2946748
5,Yangizamon 4-o'tish ko'chasi,100105,41.2753250,69.2969492
42 корпус 5,Yangizamon ko'chasi,100105,41.2770869,69.2938124
165,Abu Sulaymon Banokatiy ko'chasi,100005,41.2779371,69.2890259
16,Sharof Rashidov ko'chasi,100029,41.3177083,69.2722092
23,Bobur ko'chasi,100100,41.2910678,69.2515954
30,Oybek ko'chasi,100015,41.2932418,69.2784128
14,Kichik Halqa yo'li,100173,41.2992485,69.1931631
44,Salarbo'yi ko'chasi,100071,41.3279892,69.3137307
20,Parkent ko'chasi,100007,41.3168118,69.3148215
116,Shota Rustaveli ko'chasi,100059,41.2700164,69.2359075
112,Shota Rustaveli ko'chasi,100059,41.2710766,69.2371420
32,Arnasoy ko'chasi,100115,41.2790322,69.2251922
123,Buyuk Ipak Yo'li ko'chasi,100077,41.3278909,69.3371439
152,Buyuk Ipak Yo'li ko'chasi,100077,41.3270699,69.3382763
4,Yangi Yunusobod ko'chasi,100114,41.3719658,69.3137186
5,Yangi Yunusobod ko'chasi,100114,41.3725030,69.3133882
2,Yangi Yunusobod ko'chasi,100114,41.3720041,69.3158030
6,Yangi Yunusobod ko'chasi,100114,41.3728519,69.3135754
1,Yangi Yunusobod ko'chasi,100114,41.3714497,69.3137715
51,Yangi Yunusobod ko'chasi,100194,41.3671260,69.3001531
41,Yunusobod 11 mavzesi,100000,41.3734047,69.2888910
49,Yunusobod 11 mavzesi,100000,41.3725580,69.2919361
47,Yunusobod 11 mavzesi,100000,41.3734525,69.2908858
58,Yunusobod 11 mavzesi,100000,41.3731457,69.2928234
40,Yunusobod 11 mavzesi,100000,41.3728452,69.2887182
20,Yunusobod 11 mavzesi,100000,41.3681706,69.2864321
56,Yunusobod 11 mavzesi,100000,41.3721934,69.2927354
22,Yunusobod 11 mavzesi,100000,41.3685729,69.2880477
55,Yunusobod 11 mavzesi,100000,41.3717841,69.2924806
48,Yunusobod 11 mavzesi,100000,41.3732735,69.2919883
11,Yunusobod 11 mavzesi,100000,41.3691810,69.2909656
34,Yunusobod 11 mavzesi,100000,41.3713310,69.2872914
27,Yunusobod 11 mavzesi,100000,41.3700257,69.2880249
9,Yunusobod 11 mavzesi,100000,41.3700256,69.2921263
36,Yunusobod 11 mavzesi,100000,41.3718282,69.2884116
31,Yunusobod 11 mavzesi,100000,41.3708606,69.2881609
43,Yunusobod 11 mavzesi,100000,41.3735315,69.2899789
38,Yunusobod 11 mavzesi,100000,41.3718973,69.2892969
30,Yunusobod 11 mavzesi,100000,41.3704740,69.2880337
39,Yunusobod 11 mavzesi,100000,41.3724066,69.2887849
50,Yunusobod 11 mavzesi,100000,41.3717427,69.2916865
51,Yunusobod 11 mavzesi,100000,41.3710793,69.2919541
10,Yunusobod 11 mavzesi,100000,41.3697089,69.2915524
37,Yunusobod 11 mavzesi,100000,41.3715140,69.2889401
33,Yunusobod 11 mavzesi,100000,41.3712204,69.2883882
57,Yunusobod 11 mavzesi,100000,41.3728053,69.2927956
28,Amir Temur shoh ko'chasi,100000,41.3699642,69.2888608
54,Yunusobod 11 mavzesi,100000,41.3713997,69.2922108
32,Yunusobod 11 mavzesi,100000,41.3710420,69.2890489
42,Yunusobod 11 mavzesi,100000,41.3737557,69.2889199
32,Yangishahar ko'chasi,100037,41.3674645,69.2884570
6,Yunusobod 11 mavzesi,100000,41.3692831,69.2916038
29,Amir Temur shoh ko'chasi,100000,41.3701705,69.2869489
26,Yunusobod 11 mavzesi,100000,41.3696008,69.2879551
8,Yunusobod 17 mavzesi,100206,41.3654131,69.3082842
7A,Yangishahar ko‘chasi,100093,41.3604684,69.3007136
4,Xushnavo ko'chasi,100099,41.3594346,69.2901170
3,Shahriobod ko'chasi,100000,41.3457580,69.3399730
320,Shahriobod ko'chasi,100000,41.3452336,69.3407966
1,Shahriobod ko'chasi,100000,41.3461852,69.3391815
2,Shahriobod ko'chasi,100000,41.3459849,69.3395823
321,Shahriobod ko'chasi,100000,41.3454969,69.3403440
3а,Temur Malik ko'chasi,100000,41.3533272,69.3511257
3,Kichik Halqa yo'li,100173,41.3014036,69.1932115
2,Furkat ko'chasi,100021,41.3202123,69.2415852
9,Furkat ko'chasi,100021,41.3189931,69.2414543
1,Yunusobod 17 mavzesi,100206,41.3674404,69.3069024
1,Talimarjon ko'chasi,100105,41.2765004,69.3038270
28,Mahtumquli ko'chasi,100047,41.3024203,69.3162267
7а,Naqqoshlik ko'chasi,100000,41.2704718,69.2064936
41,Проспект Беруни,100174,41.3449452,69.2052049
383,Farobiy ko'chasi,100179,41.3458130,69.2020932
186,Sultonali Mashhadiy ko'chasi,100007,41.3084856,69.3222662
106,Botkin ko'chasi,100000,41.3075073,69.3145609
16A,Islom Karimov ko'chasi,7,41.3128038,69.2430113
55,Islom Karimov ko'chasi,100003,41.3109649,69.2467094
60,Самарканд Дарбаза улица,100071,41.3048990,69.2147068
60А,Самарканд Дарбаза улица,100071,41.3044128,69.2140260
1,Sharq Tongi ​ko'chasi,100043,41.3000669,69.2279250
217,Sultonali Mashhadiy ko'chasi,100007,41.3080528,69.3298982
37,Yunusobod 8 mavzesi,100000,41.3690158,69.2845267
11,Yunusobod 8 mavzesi,100000,41.3713864,69.2821373
19,Yunusobod 8 mavzesi,100000,41.3709910,69.2792288
36,Yunusobod 8 mavzesi,100000,41.3694367,69.2846524
39,Yunusobod 8 mavzesi,100093,41.3681767,69.2843659
28,Yunusobod 8 mavzesi,100000,41.3689782,69.2825275
30,Yunusobod 8 mavzesi,100000,41.3690814,69.2831870
21,Yunusobod 8 mavzesi,100000,41.3704869,69.2804750
27,Quloqtepa ko'chasi,100283,41.3696664,69.2820941
29,Yunusobod 8 mavzesi,100000,41.3685171,69.2831614
23,Yunusobod 8 mavzesi,100000,41.3695809,69.2813525
22,Yunusobod 8 mavzesi,100000,41.3699073,69.2801923
38,Yunusobod 8 mavzesi,100000,41.3685852,69.2844094
40,Yunusobod 8 mavzesi,100000,41.3682289,69.2853362
26,Yunusobod 8 mavzesi,100000,41.3700423,69.2817098
31,Yunusobod 8 mavzesi,100000,41.3698803,69.2847321
14-15,Yunusobod 8 mavzesi,100000,41.3716014,69.2807631
356,Farobiy ko'chasi,100174,41.3451403,69.2097673
44,Qovunchi berk ko'cha,100208,41.2691601,69.1535268
40,Qurilish ko'chasi,100208,41.2672771,69.1485505
48,Zargarlik ko'chasi,100208,41.2583823,69.1592253
2,Xonobod ko'chasi,100155,41.2130661,69.2637619
16,Yunusobod 8 mavzesi,100000,41.3715304,69.2800544
20,Yunusobod 8 mavzesi,100000,41.3703850,69.2797173
49,Yunusobod 8 mavzesi,100000,41.3710864,69.2780462
43,Yunusobod 8 mavzesi,100000,41.3746594,69.2802197
15б,Yunusobod 9 mavzesi,100000,41.3782398,69.2782756
15a,Yunusobod 9 mavzesi,100000,41.3784926,69.2779839
19,Yunusobod 9 mavzesi,100000,41.3772390,69.2795412
16,Yunusobod 9 mavzesi,100000,41.3780256,69.2785372
17,Yunusobod 9 mavzesi,100000,41.3777728,69.2788439
46,Yunusobod 8 mavzesi,100000,41.3732659,69.2774778
18,Yunusobod 9 mavzesi,100000,41.3776438,69.2793487
41,Yunusobod 8 mavzesi,100000,41.3744931,69.2806753
47,Yunusobod 8 mavzesi,100000,41.3729618,69.2777703
14,Yunusobod 9 mavzesi,100000,41.3786415,69.2783620
14,Бинкад улица,100000,41.3711555,69.2727168
41,Yuqori Qoraqamish ko'chasi,100000,41.3699468,69.2640412
2Б,Ahmad Donish ko'chasi,100057,41.3672615,69.2910552
505,Farg'ona Yo'li,100147,41.2505431,69.3241785
67,Mahtumquli ko'chasi,100047,41.3070440,69.3044560
2,Lutfiy ko'chasi,100096,41.2999327,69.2093175
4,Lutfiy ko'chasi,100096,41.2993176,69.2083467
51,Shirin koʻchasi,100139,41.2854018,69.1784434
4а,Казырабад 2-й проезд,100071,41.3038655,69.2228429
1,Beshyogʻoch koʻchasi,100003,41.3068821,69.2548283
17,Elbek ko'chasi,100060,41.2997650,69.2930951
4А,Uchuvchilar shaharchasi,100167,41.2704147,69.2831797
127,Amir Temur shoh ko'chasi,100099,41.3542513,69.2872506
10,Чинобад улица,100000,41.3506067,69.2912463
1,Iftihor ko'chasi,100017,41.3485816,69.2865018
13,Abdulla Qodiriy ko'chasi,100011,41.3240817,69.2542696
10,Quloqtepa ko'chasi,100000,41.3718784,69.2818948
42,Yunusobod 8 mavzesi,100000,41.3707237,69.2815038
12,Yunusobod 8 mavzesi,100000,41.3711435,69.2817652
6,Kichik Halqa yo'li,100121,41.2630477,69.2232226
3,Kichik Halqa yo'li,100121,41.2623480,69.2229866
6A,Kichik Halqa yo'li,100121,41.2626686,69.2243346
9В,Cho'ponota ko'chasi,100059,41.2702166,69.2298593
76,Chilonzor 2 mavzesi,100115,41.2752849,69.2238655
1,Farg'ona Yo'li,100005,41.2866192,69.3046662
3б,Qorasuv 4 dahasi,700187,41.3322863,69.3743566
30,Mehrjon ko'chasi,100015,41.2790749,69.2981694
55,Sulton Sanjar ko'chasi,100076,41.2915043,69.3140642
269,Qorasaroy ko'chasi,100069,41.3506636,69.2413851
10А,Olmachi 4-o'tish ko'chasi,100007,41.3208541,69.3168118
42,Mustaqillik shoh ko'chasi,100077,41.3229736,69.3169401
28,Abdurauf Fitrat ko'chasi,100072,41.2717182,69.3055959
32,Abdurauf Fitrat ko'chasi,100072,41.2711135,69.3015105
30,Abdurauf Fitrat ko'chasi,100072,41.2714494,69.3048547
15,Sharof Rashidov ko'chasi,100017,41.3256398,69.2722899
95,Yax'yo Gulomov ko'chasi,100060,41.3043990,69.2840073
7,Qushbegi ko'chasi,100022,41.2669734,69.2445160
72,Bodomzor yo'l 1-o'tish ko'chasi,100052,41.3269013,69.2941120
8,Зохидова улица,100073,41.2703528,69.3203321
6,Зохидова улица,100073,41.2701718,69.3196004
3,Qorasaroy ko'chasi,100069,41.3486468,69.2426016
52А,Bunyodkor shoh ko'chasi,100135,41.2762156,69.2049511
52A,Bunyodkor shoh ko'chasi,100135,41.2761627,69.2044609
48a,Zargarlik ko'chasi,100123,41.2748480,69.1905415
8,Qorasuv ko'chasi,100171,41.2943773,69.3422538
23,Lutfiy ko'chasi,100123,41.2837716,69.1842855
25,Lutfiy ko'chasi,100123,41.2830634,69.1840148
27,Lutfiy ko'chasi,100123,41.2832108,69.1851712
26,Lutfiy ko'chasi,100123,41.2835081,69.1846865
5А,Chilonzor 19 mavzesi,100117,41.2688421,69.1810675
24,Zargarlik ko'chasi,100156,41.2731009,69.1866833
11,Lutfiy ko'chasi,100131,41.2790829,69.1783128
47,Farhod ko'chasi,100138,41.2905593,69.1821295
54,Farhod ko'chasi,100138,41.2901699,69.1817404
21,Farhod ko'chasi,100126,41.2954339,69.1749700
35,Bunyodkor shoh ko'chasi,100185,41.2675867,69.2017063
83,Mahtumquli ko'chasi,100047,41.3082423,69.2862399
83,Mahtumquli ko'chasi,100047,41.3085707,69.2870716
66,Yax'yo Gulomov ko'chasi,100047,41.3077909,69.2876798
5/1,Шохжахон улица,100100,41.2839236,69.2454398
4,Amir Temur shoh ko'chasi,100047,41.3097073,69.2782015
2,Ahmad Yugnakiy ko'chasi,100201,41.3441545,69.3862776
31,Humayun ko'chasi,100201,41.3403325,69.3873533
2A,Beshkayrogoch ko'chasi,100042,41.3245659,69.1976096
14,Mironshoh ko'chasi,100025,41.2816252,69.2683296
34,Yunusobod 8 mavzesi,100000,41.3695762,69.2854757
6,M. Ismoiliy ko'chasi,100000,41.3163853,69.3039523
5,M. Ismoiliy ko'chasi,100000,41.3169627,69.3048252
7,M. Ismoiliy ko'chasi,100000,41.3162932,69.3044010
4,M. Ismoiliy ko'chasi,100000,41.3170659,69.3043713
8,Botkin ko'chasi,100047,41.3078651,69.3095434
70,Yunus Rajabi ko'chasi,100031,41.3059483,69.2585644
9в,Mingbuloq ko'chasi,100187,41.3367640,69.3701755
31,Hamroyev ko'chasi,100187,41.3346418,69.3761437
8б,Mingbuloq ko'chasi,100187,41.3381830,69.3703863
29,Hamroyev ko'chasi,100187,41.3344327,69.3748207
18,Карасу 1 массив,100187,41.3364241,69.3723236
25,Hamroyev ko'chasi,100187,41.3341953,69.3724703
26,Hamroyev ko'chasi,100187,41.3341168,69.3735537
75,Yax'yo Gulomov ko'chasi,100047,41.3074699,69.2887590
80,Munis ko'chasi,100080,41.2462011,69.3188416
20,Yangi Olmazor ko'chasi,100069,41.3508760,69.2515368
1,Sogdiana ko'chasi,100085,41.2203894,69.2250916
109A,Amir Temur shoh ko'chasi,100202,41.3462128,69.2859702
12,Mehrjon ko'chasi,100005,41.2849222,69.2923000
2A,Turkiston ko'chasi,100015,41.2930149,69.2891361
14,Lutfiy ko'chasi,100096,41.2976326,69.2045845
8,Lutfiy ko'chasi,100000,41.2980404,69.2054621
1,Qorasuv 4 dahasi,100000,41.3329768,69.3735696
15,Qorasuv 3 dahasi,100000,41.3335662,69.3712168
17,Qorasuv 3 dahasi,100000,41.3332152,69.3721935
8,Qorasuv 3 dahasi,100000,41.3333721,69.3693401
5,Qorasuv 3 dahasi,100000,41.3329700,69.3683636
16,Qorasuv 3 dahasi,100000,41.3333636,69.3716685
6,Qorasuv 3 dahasi,100000,41.3327302,69.3687731
3,Qorasuv 3 dahasi,100000,41.3320979,69.3674490
11,Qorasuv 3 dahasi,100000,41.3324584,69.3693831
9,Qorasuv 3 dahasi,100000,41.3337134,69.3697009
12,Qorasuv 3 dahasi,100000,41.3326616,69.3698346
24,Yunusobod 8 mavzesi,100000,41.3727011,69.2780677
6,Мингурюк улица,100053,41.3432392,69.2985397
1,Quruvchilar ko'chasi,100146,41.2522737,69.3450655
37,Sodiq Azimov ko'chasi,100047,41.3108894,69.2924106
3,Сайрам проезд,100170,41.3337671,69.3273617
4б,Ahmad Yugnakiy ko'chasi,100142,41.3500205,69.3888297
31а,Chilonzor 15 mavzesi,100000,41.2911634,69.1809491
31а,Chilonzor 15 mavzesi,100000,41.2924052,69.1805739
2,Shifonur ko'chasi,100095,41.3529292,69.2186624
1/2,Muqimiy ko'chasi,100100,41.2964726,69.2158079
40,Chilonzor 7 mavzesi,100000,41.2964722,69.2085291
39,Chilonzor 7 mavzesi,100000,41.2966076,69.2075751
10,Chilonzor 6 mavze,100096,41.2869545,69.2133753
11A,Bunyodkor shoh ko'chasi,100115,41.2853178,69.2167965
27A,Chilonzor ko'chasi,100115,41.2853999,69.2257268
24,Chilonzor 3 mavzesi,100000,41.2857997,69.2260964
74,6 Chilonzor ko'chasi,100115,41.2830177,69.2201720
22,Qushbegi ko'chasi,100015,41.2696281,69.2453375
5,Qorasuv 4 dahasi,100000,41.3306303,69.3731047
6,Qorasuv 4 dahasi,100000,41.3301302,69.3722236
38,Mingbuloq ko'chasi,100187,41.3304587,69.3651264
1,Farg'ona Yo'li,100147,41.2418213,69.3310433
10A,Foziltepa ko'chasi,100117,41.2946328,69.1761817
2,Abdurauf Fitrat ko'chasi,100072,41.2730322,69.3093664
223,Bogishamol ko'chasi,100140,41.3540710,69.3316327
21,Nurxon ko'chasi,100115,41.2737169,69.2205705
178,Muqimiy ko'chasi,100096,41.2971862,69.2159534
96,Muqimiy ko'chasi,100000,41.2860618,69.2336200
64 А,Yunus Rajabi ko'chasi,100031,41.3053743,69.2586619
66/1,Yunus Rajabi ko'chasi,100031,41.3047640,69.2565511
66/2,Yunus Rajabi ko'chasi,100031,41.3049725,69.2572046
66/3,Yunus Rajabi ko'chasi,100031,41.3051856,69.2578749
68,Yunus Rajabi ko'chasi,100031,41.3043982,69.2558872
18Б,Navoiy shoh ko'chasi,100011,41.3218209,69.2594049
13,Milliy bog‘ shox ko‘chasi,100056,41.3329602,69.4070625
7,Milliy bog‘ shox ko‘chasi,111221,41.3329137,69.4115761
19,Milliy bog‘ shox ko‘chasi,100056,41.3339223,69.4095935
1,Quruvchilar ko'chasi,100146,41.2529081,69.3452846
13/9,Farg'ona Yo'li,100005,41.2968010,69.2976338
1,Muxbir ko'chasi,100179,41.3639055,69.1928660
61,Yuqori Chirchiq ko'chasi,100158,41.2353931,69.3512357
4A,Husan Boyqaro ko'chasi,100104,41.2344883,69.3382946
2,Husan Boyqaro ko'chasi,100104,41.2341094,69.3377669
15,Bositxon 1-o'tish ko'chasi,100210,41.2878884,69.1442239
6,Glinka ko'chasi,100000,41.2879498,69.2590194
8,Glinka ko'chasi,100000,41.2876572,69.2594451
2,Бешчинар улица,100073,41.2954086,69.2587728
35,Yunusobod 8 mavzesi,100000,41.3689698,69.2855361
25,Yunusobod 8 mavzesi,100000,41.3701207,69.2811955
9,Yunusobod 8 mavzesi,100000,41.3717101,69.2814089
18,Oybek ko'chasi,100015,41.2966909,69.2746826
18/1,Oybek ko'chasi,100015,41.2964233,69.2749856
133,Amir Temur shoh ko'chasi,100093,41.3575805,69.2882017
131,Amir Temur shoh ko'chasi,100099,41.3547910,69.2869755
5,Muqimiy ko'chasi,100000,41.2793516,69.2417715
412,Buyuk Ipak Yo'li ko'chasi,100142,41.3512764,69.3833899
469,Buyuk Ipak Yo'li ko'chasi,100142,41.3521729,69.3846202
471,Buyuk Ipak Yo'li ko'chasi,100142,41.3524406,69.3852006
475,Buyuk Ipak Yo'li ko'chasi,100142,41.3530599,69.3865919
477,Buyuk Ipak Yo'li ko'chasi,100142,41.3532812,69.3871391
479,Buyuk Ipak Yo'li ko'chasi,100142,41.3534674,69.3875722
4,Navnihol 3-ko'chasi,100000,41.3457942,69.3384818
6,Qorako'l ko'chasi,100000,41.3456046,69.3381341
2,Navnihol 3-ko'chasi,100000,41.3455202,69.3390137
2A,Qorako'l ko'chasi,100000,41.3448401,69.3379642
4,Qorako'l ko'chasi,100000,41.3453394,69.3376489
2,Qorako'l ko'chasi,100000,41.3449348,69.3371944
8,Тинчлик 1 проезд,100049,41.3372689,69.2094815
17/3,Kichik Halqa yo'li,100095,41.3507148,69.2197283
2Б,Universitet ko'chasi,100095,41.3523428,69.2079209
2/5,Shifokor 2-ko'chasi,100109,41.3592637,69.1800727
1,Qamarniso ko'chasi,100179,41.3570110,69.1964813
3,Shifokor 1-ko'chasi,100109,41.3566189,69.1737307
49,Islom Karimov ko'chasi,100066,41.3108266,69.2493677
2,Muxbir ko'chasi,100179,41.3612202,69.1968200
77,Minor tor ko'chasi,100084,41.3329555,69.2814390
32a,Fidokor ko'chasi,100015,41.2953357,69.2739459
1,Abdulla Qodiriy ko'chasi,100000,41.3216847,69.2850830
3,Мойкурган улица,100093,41.3668488,69.2728502
107B,Amir Temur shoh ko'chasi,100084,41.3396216,69.2769541
79A,Mustaqillik shoh ko'chasi,100000,41.3212548,69.3013501
2,Мингурюк улица,100053,41.3435598,69.3009977
390,Buyuk Ipak Yo'li ko'chasi,100144,41.3490804,69.3703017
394,Buyuk Ipak Yo'li ko'chasi,100144,41.3492988,69.3709954
392,Buyuk Ipak Yo'li ko'chasi,100144,41.3492553,69.3706089
398,Buyuk Ipak Yo'li ko'chasi,100144,41.3494226,69.3722398
396,Buyuk Ipak Yo'li ko'chasi,100144,41.3493575,69.3715880
131А,Parkent ko'chasi,100000,41.3150198,69.3290770
19,Сайрам улица,100170,41.3332659,69.3249367
16,Makhmud Tarabi ko'chasi,100100,41.2823344,69.2575930
64A,Yusuf Xos Hojib ko'chasi,100071,41.2955074,69.2548048
64,Yusuf Xos Hojib ko'chasi,100031,41.2959307,69.2538891
40,Мохларойим улица,100143,41.3375568,69.3593969
40,Yusuf Xos Hojib ko'chasi,100031,41.2987967,69.2586822
8а,Mingbuloq ko'chasi,100187,41.3385320,69.3704265
8в,Mingbuloq ko'chasi,100187,41.3378505,69.3703455
9б,Mingbuloq ko'chasi,100187,41.3364210,69.3701362
9а,Mingbuloq ko'chasi,100187,41.3360873,69.3700979
3а,Qorasuv 4 dahasi,100000,41.3313625,69.3740830
3,Qorasuv 4 dahasi,100000,41.3305678,69.3739068
4,Birlashgan ko'chasi,100171,41.2911529,69.3508089
7,Qoratosh ko'chasi,100021,41.3168259,69.2331272
6-A,Furkat ko'chasi,100021,41.3192510,69.2402581
27,Glinka ko'chasi,100000,41.2870979,69.2612012
33,Glinka ko'chasi,100000,41.2863538,69.2622844
2,Шохсанам улица,100091,41.2638078,69.3534363
37,Glinka ko'chasi,100000,41.2854812,69.2635556
1,Shahrisabz ko'chasi,100000,41.3171105,69.2817373
3,Shahrisabz ko'chasi,100000,41.3169839,69.2822249
29,Quruvchilar ko'chasi,100146,41.2573527,69.3460675
46A,Amir Temur shoh ko'chasi,100017,41.3241220,69.2819947
8,Mumtoz 3-o'tish ko'chasi,100147,41.2502933,69.3286110
29,Yuqori Chirchiq ko'chasi,100158,41.2327305,69.3485646
65a,Shota Rustaveli ko'chasi,100000,41.2762018,69.2439610
4,Do'stlik ko'chasi,100102,41.1926148,69.2100962
1б,Talimarjon ko'chasi,100105,41.2784360,69.3056539
3/1,Yangizamon 4-o'tish ko'chasi,100106,41.2756272,69.2967325
4,Bobur ko'chasi,700063,41.2990189,69.2488470
171,Furqat ko'chasi,100066,41.3029077,69.2485043
122/12,Oqdaryo ko'chasi,100073,41.2664594,69.3250723
42,Amir Temur shoh ko'chasi,100000,41.3206149,69.2829777
25,Farg'ona Yo'li,100147,41.2847355,69.3055881
12,Порлок улица,100026,41.2315192,69.3113680
1,Nilufar 3-tor ko'chasi,100155,41.2039628,69.2563808
3,Nilufar 3-tor ko'chasi,100155,41.2037505,69.2556308
5,Nilufar 3-tor ko'chasi,100155,41.2035204,69.2548079
7,Nilufar 3-tor ko'chasi,100155,41.2032839,69.2540009
13,Nilufar 3-tor ko'chasi,100155,41.2026249,69.2516504
5,Nilufar 3-tor ko'chasi,100155,41.2030757,69.2532004
33,Nilufar 3-tor ko'chasi,100155,41.2014368,69.2489517
21,Nilufar 3-tor ko'chasi,100155,41.2021550,69.2500198
11,Nilufar 3-tor ko'chasi,100155,41.2027272,69.2520516
29,Nilufar 3-tor ko'chasi,100155,41.2019423,69.2491720
9,Nilufar 3-tor ko'chasi,100155,41.2028670,69.2524677
15,Nilufar 3-tor ko'chasi,100155,41.2025146,69.2512644
19,Nilufar 3-tor ko'chasi,100155,41.2022616,69.2504086
27,Nilufar 3-tor ko'chasi,100155,41.2020261,69.2496015
17,Nilufar 3-tor ko'chasi,100155,41.2024007,69.2507570
31,Nilufar 3-tor ko'chasi,100155,41.2012035,69.2495324
24,Qumariq ko'chasi,100160,41.2455762,69.2560464
9,Beruniy shoh ko'chasi,100020,41.3325919,69.2210472
72,Shokirariq ko'chasi,100050,41.2184077,69.2209778
43,Kanora ko'chasi,100112,41.2071064,69.2320197
45A,Islom Karimov nom. ko'chasi,100003,41.3104191,69.2572302
43,Salarbo'yi ko'chasi,100071,41.3275943,69.3136972
122,Bunyodkor shoh ko'chasi,100161,41.2536474,69.1869277
15,Mirobod ko'chasi,100100,41.3000603,69.2680636
24A,Abdulla Kahhar ko'chasi,100100,41.2846023,69.2579561
34,Abdulla Kahhar ko'chasi,100100,41.2821349,69.2588961
31A,Mahmud Tarobiy ko'chasi,100100,41.2834699,69.2572091
1,Катта Хирмонтепа улица,100131,41.2752123,69.1726526
4A,Юсуфа Саккокий улица,100106,41.3005936,69.1777976
1/1,Qorasuv ko'chasi,100171,41.2922480,69.3418434
160А,Bogishamol ko'chasi,100053,41.3414785,69.3025443
6,Abay ko'chasi,100011,41.3236613,69.2557310
1A,Yangishahar ko‘chasi,100093,41.3619305,69.3021554
44,Bunyodkor shoh ko'chasi,100097,41.2802877,69.2089968
40Б,Navoiy shoh ko'chasi,100021,41.3230143,69.2394115
1,Navoiy - Zarqaynar ko'chasi,100021,41.3231741,69.2409435
4а,Шохжахон улица,100100,41.2852012,69.2475473
144/1,Muqimiy ko'chasi,100043,41.2945491,69.2228692
12,Turkiston ko'chasi,100015,41.2923201,69.2850789
21,Farg'ona Yo'li,100005,41.2867470,69.3040790
76,Jarqo'rg'on ko'chasi,100073,41.2712333,69.3316582
76,Jarqo'rg'on ko'chasi,100073,41.2713376,69.3323650
49,Uysozlar ko'chasi,100146,41.2599232,69.3412686
95,Farg'ona Yo'li,100074,41.2765838,69.3134625
32,Alimkent 1-o'tish ko'chasi,100016,41.2939221,69.3331939
65,Aviasozlar 1-o'tish ko'chasi,100204,41.2934556,69.3377574
33 A,Alimkent 2-o'tish ko'chasi,100016,41.2941983,69.3343026
1/6,Mahtumquli ko'chasi,100047,41.3068673,69.3049204
41,Glinka ko'chasi,100000,41.2851055,69.2641656
14,Glinka ko'chasi,100000,41.2869013,69.2604798
29,Glinka ko'chasi,100100,41.2868477,69.2615481
35,Bo'zbozor 7-o'tish ko'chasi,100007,41.3160483,69.3249696
16,Корабулок улица,100052,41.3252539,69.3101829
51,Parkent ko'chasi,100007,41.3177273,69.3159623
51,Parkent ko'chasi,100007,41.3177868,69.3166545
4g,Ziyolilar ko'chasi,100170,41.3372802,69.3304179
1a,Ismoil-ota ko'chasi,100100,41.3331072,69.3226360
53Б,Shota Rustaveli ko'chasi,100100,41.2813024,69.2505994
53Б,Shota Rustaveli ko'chasi,100100,41.2806008,69.2511842
9,Muqimiy ko'chasi,100000,41.2784337,69.2523061
27А,Nukus ko'chasi,100115,41.2827853,69.2628882
104A,Kichik Beshyog'och ko'chasi,100015,41.2809860,69.2676366
86,Kichik Beshyog'och ko'chasi,100025,41.2831757,69.2664439
35,Glinka ko'chasi,100070,41.2857889,69.2631415
2A,Beshchinor ko'chasi,100000,41.2961174,69.2585282
121,Zulfiyakhonim ko'chasi,100128,41.3305559,69.2658747
120/2,Zulfiyakhonim ko'chasi,100128,41.3306465,69.2668364
112/1,Zulfiyakhonim ko'chasi,100128,41.3306388,69.2652590
136,Labzak ko'chasi,100128,41.3390603,69.2692608
39,Qori Niyoziy 1-berk ko'chasi,100000,41.3233820,69.2951514
31A,Шастри улица,100000,41.3131195,69.2925307
3,Хонзодабегим улица,100015,41.2930568,69.2830132
27/6,Mirobod ko'chasi,100015,41.2964119,69.2701534
16А,Amir Temur shoh ko'chasi,100060,41.3049312,69.2778194
39а,Humayun ko'chasi,100201,41.3412760,69.3898927
5,So'galli ota ko'chasi,100185,41.2596780,69.1891119
86 А,Nukus ko'chasi,100015,41.2888054,69.2728910
86a,Nukus ko'chasi,100015,41.2886745,69.2728839
80,Chilonzor ko'chasi,100115,41.2811452,69.2196128
1,Yusuf Xos Hojib ko'chasi,100029,41.3033674,69.2642880
1,Yunus Rajabi ko'chasi,100029,41.3046078,69.2643361
1,Yusuf Xos Hojib ko'chasi,100029,41.3039284,69.2647171
45A,Oltintopgan ko'chasi,100033,41.2200959,69.3135420
13/12,Farg'ona Yo'li,100005,41.2969882,69.2968842
25,Shahrisabz ko'chasi,100047,41.3062805,69.2826678
8,Istiqbol ko'chasi,100047,41.3077623,69.2824602
60,Mirzo Ulug'bek shoh ko'chasi,100000,41.3271303,69.3278703
50,Nukus ko'chasi,100000,41.2814049,69.2567829
52,Nukus ko'chasi,100000,41.2812650,69.2561706
2А,Xalqobod ko'chasi,100084,41.3291718,69.2847641
48,Nukus ko'chasi,100000,41.2815527,69.2573266
21,Nurmakon ko'chasi,100009,41.3780498,69.2640557
3,Nurmakon ko'chasi,100009,41.3771866,69.2661818
39,Nurmakon ko'chasi,100009,41.3791195,69.2624617
1,Nurmakon ko'chasi,100009,41.3769796,69.2673258
10в/1,Cho'ponota ko'chasi,100115,41.2746574,69.2237867
3/1,Nurxon ko'chasi,100115,41.2754216,69.2221126
5,1 проезд Мукими,100000,41.2765077,69.2466845
28,Farobiy ko'chasi,100000,41.3463759,69.2046784
88A,Amir Temur shoh ko'chasi,100084,41.3337631,69.2851785
3Б,Farobiy ko'chasi,100109,41.3485864,69.1724220
5Б,Xamid Olimjon maydoni,100000,41.3169987,69.2896925
35A,Salarbo'yi ko'chasi,100000,41.3266150,69.3133225
3A,Beruniy shoh ko'chasi,100000,41.3264718,69.2283518
2A,Navnihol 3-ko'chasi,100000,41.3448585,69.3396023
2B,Navnihol 3-ko'chasi,100000,41.3450703,69.3392060
4,Qorasuv 4 dahasi,100000,41.3300580,69.3732524
51а,Kichik Halqa yo'li,100115,41.2665520,69.2179541
42,Mirzo Jahongir ko'chasi,100067,41.2702894,69.2735808
2,Nurxon ko'chasi,100115,41.2755943,69.2222448
12,Dashnobod ko'chasi,100167,41.2719254,69.2761703
14,Dashnobod ko'chasi,100167,41.2718495,69.2763561
16,Dashnobod ko'chasi,100167,41.2717607,69.2764358
20,Dashnobod ko'chasi,100167,41.2717036,69.2766464
2A,Abay ko'chasi,100128,41.3278890,69.2550217
1a,Abay ko'chasi,100128,41.3280733,69.2550357
8,Мойкурган улица,100092,41.3615905,69.2762316
1,Nurafshon aylanma ko'chasi,100069,41.3390824,69.2561224
222/7,Farg'ona Yo'li,100100,41.2811907,69.3056390
4,Zarafshan ko'chasi,100047,41.3150427,69.2750599
53А,Оромбахш,100124,41.3604855,69.3744096
45,Оромбахш,100124,41.3600871,69.3744198
41,Оромбахш,100124,41.3598708,69.3746225
33,Оромбахш,100124,41.3598248,69.3750283
49,Оромбахш,100124,41.3603758,69.3743798
31,Оромбахш,100124,41.3596326,69.3752720
43,Оромбахш,100124,41.3599757,69.3744998
142,Muqimiy ko'chasi,100096,41.2932961,69.2220759
142/2,Muqimiy ko'chasi,100096,41.2934063,69.2218769
24A,Lutfiy ko'chasi,100131,41.2771154,69.1750317
1/1,Furkat ko'chasi,100027,41.3126171,69.2405011
1,Furqat ko'chasi,100027,41.3130670,69.2401593
142/1,Muqimiy ko'chasi,100096,41.2935617,69.2223563
51Б,Mirzo Ulug'bek shoh ko'chasi,100077,41.3245639,69.3230791
9,Ahmad Donish ko'chasi,100019,41.3402617,69.2567235
24A,Lutfiy ko'chasi,100123,41.2837181,69.1835019
1/4,Mahtumquli ko'chasi,100047,41.3030607,69.3181651
14,Afrosiyob ko'chasi,100015,41.2994619,69.2718495
12B,Afrosiyob ko'chasi,100015,41.2997199,69.2716616
5/1,Mustaqillik shoh ko'chasi,100000,41.3146058,69.2867371
7,Botkin ko'chasi,100047,41.3067438,69.3078966
84,Ohangaron shossesi,100213,41.2541200,69.3820564
15,Mirzo Ulug'bek shoh ko'chasi,100027,41.3104146,69.3117108
5,Yakkasaroy ko'chasi,100000,41.2663193,69.2281811
21,O'zbekiston Ovozi ko'chasi,100000,41.3120789,69.2914162
89Б,Kichik Halqa yo'li,100140,41.2776303,69.2709009
47,Salarbo'yi ko'chasi,100052,41.3309160,69.3127120
120,Parkent ko'chasi,100007,41.3114178,69.3324331
86/3,Nukus ko'chasi,100015,41.2892290,69.2725250
83,Guruch ariq 1-o'tish ko'chasi,100069,41.3483093,69.2377618
7,Uysozlar ko'chasi,100116,41.2536238,69.3243765
294,ул. Паркент,100171,41.3042826,69.3390872
7a,Chimkent ko'chasi,100029,41.3055537,69.2723108
24,Кирки улица,1000027,41.3111062,69.2311953
122/2,Usta Shirin ko'chasi,100057,41.3557912,69.2532033
5,Джами улица,100057,41.3554646,69.2541533
19,Яшна улица,100142,41.3499173,69.3810759
26,Яшна улица,100142,41.3499017,69.3819426
28,Яшна улица,100142,41.3499737,69.3821717
29,Яшна улица,100142,41.3502287,69.3821919
30,Яшна улица,100142,41.3501114,69.3826052
30A,Яшна улица,100142,41.3500119,69.3823439
31,Яшна улица,100142,41.3502828,69.3823639
33,Яшна улица,100142,41.3503156,69.3824501
34,Яшна улица,100142,41.3502746,69.3829607
35,Яшна улица,100142,41.3503751,69.3825795
36,Яшна улица,100142,41.3504388,69.3827541
39,Яшна улица,100142,41.3507039,69.3832836
41,Яшна улица,100142,41.3507559,69.3836261
17,Яшна улица,100142,41.3498482,69.3809145
90,Сандикли улица,100007,41.3096211,69.3270979
69,Mahtumquli ko'chasi,100047,41.3053410,69.3088560
1,Islom Karimov ko'chasi,100029,41.3057975,69.2768101
41,Тафаккур улица,100073,41.2939406,69.2600745
13A,Abay ko'chasi,100128,41.3269687,69.2557053
61,Xo'jaobod ko'chasi,100009,41.3826816,69.2606312
42,Мавлоно Риёзий (Mavlono Riyoziy),100007,41.3136803,69.3213040
38,Мавлоно Риёзий (Mavlono Riyoziy),100007,41.3135985,69.3225122
40,Мавлоно Риёзий (Mavlono Riyoziy),100007,41.3138610,69.3220067
36,Мавлоно Риёзий Mavlono Riyoziy,100007,41.3137856,69.3232134
41,Мавлоно Риёзий (Mavlono Riyoziy),100007,41.3135535,69.3218285
15A,Sultoniya ko'chasi,100000,41.3481948,69.3734130
6,Olmazor ko'chasi,100027,41.3164953,69.2553646
4A,Abay ko'chasi,100011,41.3225319,69.2553190
6а,Abay ko'chasi,100011,41.3235313,69.2554396
130,Mustaqillik shoh ko'chasi,100077,41.3228501,69.3163846
21A,Bobur ko'chasi,100070,41.2918902,69.2520440
120,Дархан улица,1000027,41.3074246,69.2329214
31,Zarbuloq ko'chasi,100058,41.3557358,69.3252824
1a,Naqqoshlik ko'chasi,100038,41.2718874,69.2078189
28а,Milliy bog‘ shox ko‘chasi,100056,41.3318815,69.4090398
1-1A,Shivli 2-berk ko'chasi,100084,41.3348295,69.2861017
6,Botkin ko'chasi,100047,41.3065108,69.3073349
75,Mirzo Ulug'bek shoh ko'chasi,100007,41.3155489,69.3151616
3,Oyshaxonum 1-berk ko'chasi,100143,41.3318338,69.3522287
3,Qatortol ko'chasi,100183,41.2562276,69.1835023
1К2,Qamarniso ko'chasi,100179,41.3561452,69.1977931
3,Muhammad Yusuf ko'chasi,100000,41.3162454,69.3279410
1A,Talimarjon ko'chasi,101105,41.2779115,69.3034615
34,Bositxon 2-o'tish ko'chasi,100210,41.2866940,69.1427717
45,Тахтапуль улица,100200,41.3378741,69.2607577
8,Mirobod ko'chasi,100031,41.3003240,69.2662910
10,Qirq-qiz ko'chasi,100118,41.2755805,69.2200357
39,Mavlono Riyoziy ko'chasi,100007,41.3141551,69.3165211
9А,Ясси улица,100170,41.3346298,69.3266340
16,Amir Temur shoh ko'chasi,100060,41.3027880,69.2779676
8,Qushqo'ndi ko'chasi,100000,41.3478722,69.1840490
33,Мирзо Галиба,100174,41.3521759,69.1978611
32,Arnasoy ko'chasi,100115,41.2793520,69.2240485
7А,Arnasoy ko'chasi,100115,41.2813291,69.2297514
28,Tiklanish 7-tor ko'chasi,100009,41.3774349,69.2546571
24,Niyozbek yo'li ko'chasi,100000,41.3250389,69.2872541
36B,Abdulla Qodiriy ko'chasi,100017,41.3232578,69.2744175
1b,Ismoil-ota ko'chasi,100170,41.3326296,69.3218902
5,Джами улица,100057,41.3586598,69.2554172
41/4,Mirobod ko'chasi,100015,41.2929194,69.2727007
27,Чорбог улица,100161,41.2401617,69.1836584
1А,Amir Temur shoh ko'chasi,100093,41.3655413,69.2858665
53А,Shota Rustaveli ko'chasi,100100,41.2842756,69.2529619
77a/1,Chilonzor ko'chasi,100003,41.2817233,69.2196517
45/2,Chilonzor ko'chasi,100000,41.2839622,69.2241963
189а,Олтинтепа улица,100056,41.3149146,69.3339631
7A,Arnasoy ko'chasi,100000,41.2802013,69.2280406
74,Parkent ko'chasi,100007,41.3145789,69.3228474
7,1 проезд Мукими,100000,41.2766402,69.2476834
9,Сайрам 1-й проезд,100170,41.3327126,69.3270039
11,Сайрам 1-й проезд,100170,41.3325816,69.3268891
11а,Сайрам 1-й проезд,100170,41.3325133,69.3268162
8,Sag'bon 30-berk ko'chasi,100069,41.3457288,69.2331425
37,Мавлоно Риёзий (Mavlono Riyoziy),100007,41.3134309,69.3230305
5,Botkin ko'chasi,100047,41.3067939,69.3068122
25,Husan Boyqaro ko'chasi,100104,41.2360441,69.3400622
100,Карасу,111900,41.3023324,69.5240051
51,Xavastkor ko'chasi,100116,41.2779688,69.3457841
8,Arhitektorlar tor ko'chasi,100128,41.3409750,69.2643881
41,Гуллола улица,100000,41.3570912,69.3340234
9/3,Iftihor ko'chasi,100057,41.3405110,69.2701631
13,Yõldosh Спутник 16А,100102,41.1954061,69.2029497
10,Qipchoq ko'chasi,100102,41.1962012,69.2022457
14,Qipchoq ko'chasi,100102,41.1954795,69.2036644
12,Qipchoq ko'chasi,100102,41.1958712,69.2033059
16,Qipchoq ko'chasi,100102,41.1967140,69.2032225
11,Qipchoq ko'chasi,100102,41.1962707,69.2029443
6,Qipchoq ko'chasi,100102,41.1985590,69.2059295
4,Qipchoq ko'chasi,100102,41.1980053,69.2063232
3,Qipchoq ko'chasi,100102,41.1977207,69.2057375
7,Qipchoq ko'chasi,100102,41.1982132,69.2049971
8,Qipchoq ko'chasi,100102,41.1976571,69.2038673
27,Sa'diy ko'chasi,100070,41.2577671,69.2277396
39A,O'zbekiston Ovozi ko'chasi,100000,41.3113500,69.2910230
332/1,Sebzor ko‘chasi,100011,41.3255643,69.2440523
67,Yaxyo Gulomov ko'chasi,100000,41.3091800,69.2896129
2,Qipchoq ko'chasi,100102,41.1973655,69.2065515
15,Qipchoq ko'chasi,100102,41.1961139,69.2037668
28/1,Arnasoy ko'chasi,100115,41.2785702,69.2273272
1,Uqchi ko'chasi,100027,41.3140172,69.2490978
87,Yax'yo Gulomov ko'chasi,100047,41.3059866,69.2873980
39,Оромбахш,100124,41.3596527,69.3746372
37,Оромбахш,100124,41.3596339,69.3748125
47,Оромбахш,100124,41.3602387,69.3744874
43,Оромбахш,100124,41.3599972,69.3743864
7,Arnasay,100115,41.2850108,69.2332763
23,Pahlavon Mahmud ko'chasi,100047,41.3028494,69.3062514
20,Mirtemir ko'chasi,100057,41.3471193,69.2693441
243,Бешкайрогоч улица,100132,41.3138450,69.1602507
7,Qurg'oncha ko'chasi,100042,41.3254897,69.2007426
28,Mahtumquli ko'chasi,100047,41.3026379,69.3158346
22,Sodiq Azimov 3-o'tish ko'chasi,100047,41.3047612,69.2944192
1/5,Mahtumquli ko'chasi,100047,41.3033084,69.3190517
80/1,Mahtumquli ko'chasi,100047,41.3074185,69.2954204
7,Nilufar 3-tor ko'chasi,100155,41.2029839,69.2528826
53А/1,Shota Rustaveli ko'chasi,100100,41.2843894,69.2534515
17,Qorabuloq 2-o'tish ko'chasi,100125,41.3226774,69.3118448
17а,Salarbo'yi ko'chasi,100125,41.3228601,69.3122929
4A,Furqat ko'chasi,100043,41.3193495,69.2436206
122/2,Mahtumquli ko'chasi,100047,41.3023929,69.3183317
122,Mahtumquli ko'chasi,100047,41.3018886,69.3180129
3,Temur Malik ko'chasi,100000,41.3536734,69.3530635
12,Feruza ko'chasi,100124,41.3548108,69.3683162
1B,Yangi Qo'yliq ko'chasi,100080,41.2527929,69.3126627
9,1 проезд Мукими,100000,41.2767268,69.2486670
1,Окибат улица,100050,41.3292068,69.1797751
4,Farg'ona Yo'li 23,100005,41.2866944,69.3064874
2,Farg'ona Yo'li 23,100005,41.2865977,69.3054915
18b,Mironshoh 6-o'tish ko'chasi,100015,41.2868704,69.2727649
23,Мумтоз улица,100147,41.2502741,69.3250041
40/2,Abdurauf Fitrat ko'chasi,100005,41.2706785,69.3023630
21,Мумтоз улица,100147,41.2501953,69.3247821
2,Parkent ko'chasi,100023,41.3172894,69.3054925
2,Parkent ko'chasi,100023,41.3158787,69.3049084
2,Parkent ko'chasi,100023,41.3187448,69.3057724
25/4,Farg'ona Yo'li,100105,41.2833959,69.3075075
34,Lokomotiv ko'chasi,100067,41.2702429,69.2734813
4А,Chilonzor 19 mavzesi,100117,41.2692438,69.1804057
1,Lashkarbegi ko'chasi,100000,41.3196829,69.2933675
57,Beshqo'rg'on 8-chi o'tish yo'li,100161,41.2328652,69.1771988
30,Афганская улица,100161,41.3212921,69.3381557
100,Sultonali Mashhadiy ko'chasi,100007,41.3112733,69.3180359
51,улица Султанали Машхади,100047,41.3122498,69.3168231
24Б,Anorzor ko'chasi,100099,41.3556212,69.2855694
7,Beshog'aynilar ko'chasi,100052,41.3256887,69.3073556
23,Amir Temur shoh ko'chasi,100000,41.3724158,69.2865766
199,Abu Sulaymon Banokatiy ko'chasi,100167,41.2749026,69.2857906
29,Katta Soy 3-o'tish ko'chasi,100009,41.3858465,69.2534601
8,Kattasoy 1-berk,100009,41.3856124,69.2533998
100,Kichik Mirobod ko'chasi,100000,41.2868094,69.2658735
72,Muqimiy ko'chasi,100070,41.2825155,69.2391490
27,Muqimiy ko'chasi,100000,41.2813641,69.2394810
27,4-ko'chasi,100000,41.2793836,69.2385014
14,Saroy ko‘chasi,100100,41.2736796,69.2319983
141,Dombrobod ​ko'chasi,100185,41.2592825,69.2054479
114a,Mahtumquli ko'chasi,100047,41.3027610,69.3147831
122/3,Mahtumquli ko'chasi,100047,41.3020222,69.3185136
9,Курувчи улица,100132,41.3150478,69.1715466
4 B,Sarabuston ko'chasi,100014,41.3004746,69.2632744
28/1,Arnasoy ko'chasi,100115,41.2785937,69.2272809
6,Xushnavo ko'chasi,100099,41.3596111,69.2903101
17,Istiqbol ko'chasi,100047,41.3075817,69.2841409
41,Хислат улица,227111,41.3354172,69.3906034
8A,Farhod ko'chasi,100138,41.2945785,69.1823667
40,Qoraqum 1-o'tish ko'chasi,100000,41.2835407,69.2438774
29/2,Niyozbek yo'li ko'chasi,100085,41.3253722,69.2904525
717,Yangi sirg'ali ko'chasi,100000,41.2424309,69.2205890
57,Mirzo Ulug'bek shoh ko'chasi,100007,41.3161341,69.3154353
34,Sarbaland ko'chasi,100125,41.3430874,69.3501298
34,Niyozbek yo'li ko'chasi,100000,41.3244648,69.2912947
7,Botir Zokirov ko'chasi,100011,41.3162921,69.2524375
3A,Rakatboshi ko'chasi,100100,41.3038328,69.2614386
1,Chinobod ko'chasi,100039,41.3516210,69.2899581
94,улица Фаровон Хаёт,100056,41.3350951,69.4073936
33,Milliy bog' ko'chasi,100000,41.3355591,69.4014160
32,Zarbuloq ko'chasi,100058,41.3559260,69.3248959
2Б,Nukus ko'chasi,100090,41.2808450,69.2572226
2В,Nukus ko'chasi,100090,41.2809908,69.2577685
9,Uchuvchilar ko'chasi,100000,41.2722280,69.2959641
52,Kichik Mirobod ko'chasi,100015,41.2890647,69.2647934
4/1,Muminov ko'chasi,100164,41.3414904,69.3365685
4/2,Muminov ko'chasi,100000,41.3412340,69.3362658
4/4,Muminov ko'chasi,100000,41.3414099,69.3352854
4/3,Muminov ko'chasi,100000,41.3411997,69.3356359
7/2,Muminov ko'chasi,100000,41.3423062,69.3368951
7/1,Muminov ko'chasi,100000,41.3422216,69.3361984
7,Muminov ko'chasi,100000,41.3422048,69.3365666
2,Shahrisabz ko'chasi,100017,41.3157380,69.2827413
76,Parkent ko'chasi,100077,41.3143372,69.3275372
31A,Mahmud Tarobiy ko'chasi,100100,41.2843127,69.2576010
4a,Muminov ko'chasi,100000,41.3420341,69.3373072
3А,Uchuvchilar shaharchasi,100167,41.2704294,69.2829796
2А,Uchuvchilar shaharchasi,100167,41.2704443,69.2827789
26,Oybek ko'chasi,100015,41.2950117,69.2764365
204,Qorasaroy ko'chasi,10000,41.3423062,69.2426617
7/1,Seul ko'chasi,100000,41.2988654,69.2405662
10A,Qirq-qiz ko'chasi,100115,41.2756170,69.2196383
11,Cho'ponota ko'chasi,100115,41.2743958,69.2238048
144,Muqimiy ko'chasi,100096,41.2939923,69.2228392
82,Chilonzor ko'chasi,100115,41.2800856,69.2186177
10,Arhitektorlar tor ko'chasi,100128,41.3410772,69.2645182
1A,Жумамасжид улица,100190,41.3644982,69.2623130
33,Каттакурган улица,100128,41.3344027,69.2714201
268,Qorasaroy ko'chasi,100069,41.3501237,69.2409164
22B,Kichik Halqa yo'li,10012,41.2619873,69.2321415
49,Gulnora ko'chasi,100125,41.3436044,69.3500526
53,Gulnora ko'chasi,100125,41.3433885,69.3502308
4b,Шохжахон улица,100100,41.2853369,69.2481667
83,Bobur ko'chasi,100025,41.2703540,69.2614110
5,Kyzylarvat Street,100167,41.2771257,69.2765522
4a,Milliy bog‘ shox ko‘chasi,100056,41.3318259,69.4093963
16a,Bobur ko'chasi,100100,41.2941023,69.2499759
1A,Anorzor 3-o'tish ko'chasi,100099,41.3559686,69.2849090
43,Mirobod ko'chasi,100015,41.2907220,69.2742028
73,Shokirariq ko'chasi,100050,41.2195324,69.2205511
75,Shokirariq ko'chasi,100050,41.2188197,69.2200674
78,Shokirariq ko'chasi,100050,41.2185479,69.2190601
74,Shokirariq ko'chasi,100050,41.2193998,69.2195698
79,Shokirariq ko'chasi,100050,41.2192645,69.2185874
122/4,Mahtumquli ko'chasi,100047,41.3016604,69.3183160
122/1,Mahtumquli ko'chasi,100047,41.3025404,69.3178596
122/5,Mahtumquli ko'chasi,100047,41.3015314,69.3178504
2А,Amir Temur shoh ko'chasi,100017,41.3259067,69.2821926
80/1,Mahtumquli ko'chasi,100047,41.3055810,69.2959570
2,Sayram ko'chasi 1 tor.,100170,41.3289664,69.3275972
3,Sayram ko'chasi 1 tor.,100170,41.3283766,69.3269748
40В,Sharof Rashidov ko'chasi,100029,41.3082582,69.2663080
21,Movarounnahr ko'chasi,100000,41.3123336,69.2987198
7,Shahrisabz ko'chasi,100000,41.3168877,69.2840575
7,Turkiston ko'chasi,100015,41.2912178,69.2868516
12,Istiqbol ko'chasi,100047,41.3066127,69.2818410
6,Istiqlol ko'chasi,100000,41.3136317,69.2815319
2,Parkent ko'chasi,100023,41.3163859,69.3077170
102,Mirzo Ulug'bek shoh ko'chasi,100000,41.3364616,69.3379977
60A,Bobur ko'chasi,100060,41.2730064,69.2582168
5,Шахджахан улица,100100,41.2836054,69.2469775
86A,Osiyo ko'chasi,100202,41.3290843,69.2800434
28,Bunyodkor shoh ko'chasi,100185,41.2693697,69.2028719
28,Bunyodkor shoh ko'chasi,100185,41.2694321,69.2035482
30,Amir Temur shoh ko'chasi,100060,41.2953880,69.2863620
15,Istiqbol ko'chasi,100047,41.3082578,69.2837765
103,Mahtumquli ko'chasi,100047,41.3103316,69.3026398
77A,Yax'yo Gulomov ko'chasi,100000,41.3068780,69.2884300
103,Mahtumquli ko'chasi,100047,41.3103316,69.3026398
82A,Chorbog' улица,100000,41.2300845,69.1802620
15,Amir Temur shoh ko'chasi,100000,41.3160370,69.2795571
91,Husan Boyqaro ko'chasi,100182,41.2512909,69.3639515
4,Oltintopgan ko'chasi,100033,41.2316440,69.3314098
5A,Kichik Halqa yo'li,100211,41.3428458,69.2090609
100,Mirzo Ulug'bek shoh ko'chasi,100000,41.3330294,69.3355769
34,Durmon yo'li,100125,41.3358070,69.3422786
102А,Mirzo Ulug'bek shoh ko'chasi,100170,41.3342709,69.3393969
6,Rakatboshi ko'chasi,100031,41.3035598,69.2605548
3,Uqchi ko'chasi,100011,41.3147716,69.2445987
9,Islom Karimov shoh ko'chasi,100029,41.3073842,69.2722461
7,Abdulla Qodiriy ko'chasi,100128,41.3226976,69.2618969
7,Abdulla Qodiriy ko'chasi,100128,41.3226976,69.2618969
1,Navoiy shoh ko'chasi,100017,41.3170876,69.2744341
108,Amir Temur shoh ko'chasi,100084,41.3409389,69.2872398
80/1,Mahtumquli ko'chasi,100047,41.3056286,69.2959954
