House number,Street name,Postal code,Latitude,Longitude
48,улица Ватутина,432030,54.3458692,48.3706173
49,проспект Нариманова,432030,54.3462845,48.3710963
1,Пожарный переулок,432000,54.3172738,48.3994385
4,площадь 100-летия со дня рождения В.И.Ленина,432000,54.3133942,48.4031170
26,улица Кузнецова,432000,54.3132795,48.4023720
1,улица Советской Армии,432031,54.3290714,48.4761282
2,улица Советской Армии,432031,54.3292542,48.4757576
3,улица Советской Армии,432031,54.3290191,48.4761036
16,улица Металлистов,432031,54.3310572,48.4795842
3,улица 1-я Линия,432031,54.3290994,48.4721049
6,улица 1-я Линия,432031,54.3291878,48.4717066
1,Заводской проезд,432031,54.3296153,48.4707975
9,улица Академика Сахарова,432031,54.3346117,48.4757877
2А,Фестивальный бульвар,432067,54.3742688,48.5753238
42,проспект Ленинского Комсомола,432067,54.3741537,48.5779891
64,улица Тельмана,432010,54.3481634,48.5479256
70,улица 9 Мая,432010,54.3477878,48.5469149
71,улица Жуковского,432010,54.3478117,48.5476566
68,улица 9 Мая,432010,54.3477527,48.5463435
72,улица 9 Мая,432010,54.3483910,48.5462870
98,улица Пархоменко,432030,54.3490273,48.3628539
8,Дачная улица,432030,54.3489180,48.3638883
32,Московское шоссе,432045,54.2985797,48.2830763
47,проспект Ленинского Комсомола,432067,54.3738211,48.5799805
82,улица 9 Мая,432010,54.3503214,48.5460484
1,Сиреневый проезд,432010,54.3479529,48.5341549
2,улица Калинина,432007,54.3361671,48.5008907
2,улица Мира,432011,54.3216347,48.4006806
98,проспект Созидателей,432059,54.3648683,48.5801167
1,проспект Туполева,432059,54.3655147,48.5801720
1,переулок Гоголя,432071,54.3289278,48.3987745
2,улица Кролюницкого,432002,54.3321205,48.3865767
25,переулок Гоголя,432011,54.3294264,48.4016174
11,улица Железной Дивизии,432000,54.3120645,48.3872379
5А,улица Железной Дивизии,432017,54.3090674,48.3881689
1,улица Минаева,432017,54.3072155,48.3795848
93,улица Льва Толстого,432000,54.3125333,48.3926609
15,улица Александра Матросова,432000,54.3124137,48.3920323
1,улица Мира,432011,54.3214927,48.4003499
9,улица Железной Дивизии,432000,54.3112272,48.3874806
46,Лесная улица,432011,54.3303201,48.3948495
51,Красноармейская улица,432011,54.3273653,48.3983525
2,улица Кролюницкого,432002,54.3316670,48.3866817
2,улица Архитектора Ливчака,432063,54.3096701,48.3807221
2,переулок Гоголя,432071,54.3287388,48.3988917
10,улица Калинина,432007,54.3352772,48.5002982
12,улица Калинина,432007,54.3350229,48.5001126
14,улица Калинина,432007,54.3347826,48.4999440
16,улица Калинина,432007,54.3345694,48.4998030
4,улица Калинина,432007,54.3359079,48.5007424
44,улица Калинина,432007,54.3312961,48.4975655
6,улица Калинина,432007,54.3356869,48.5005673
8,улица Калинина,432007,54.3354857,48.5004409
203,Заволжский разъезд,432031,54.3188787,48.4739708
206,Заволжский разъезд,432031,54.3195705,48.4760828
106А,улица Рябикова,432066,54.2700043,48.2844400
4,улица Гагарина,432071,54.3234498,48.3890845
67,улица Ленина,432063,54.3137556,48.3899042
62,Старосельдинская улица,432055,54.3375445,48.3089096
31,Тихая улица,432046,54.3396666,48.5322245
1,улица Федерации,432001,54.3203103,48.3939809
23,улица Ефремова,432042,54.2923910,48.3007136
7,улица Федерации,432001,54.3211929,48.3948736
28,улица Ефремова,432042,54.2927488,48.3007818
3,улица Лихачёва,432008,54.3049435,48.3162898
6,улица Полбина,432008,54.3048747,48.3179849
9,улица Достоевского,432008,54.3033879,48.3176978
17,улица Лихачёва,432008,54.3015715,48.3159569
10,улица Достоевского,432008,54.3031734,48.3163420
35,улица Марата,432071,54.3200902,48.3902765
9,улица Кузнецова,432000,54.3126701,48.4011970
22,улица Белинского,432002,54.3357385,48.3667073
12,улица Минаева,432017,54.3061062,48.3759805
7,Ульяновский проспект,432067,54.3732002,48.5814003
23А,улица Урицкого,432071,54.3333818,48.3753660
4,улица Федерации,432071,54.3202541,48.3943318
43А,Октябрьская улица,432032,54.2992653,48.3359293
65А,улица Полбина,432032,54.3046633,48.3482034
50,улица Ленина,432063,54.3122564,48.3781355
11,улица Гончарова,432017,54.3135444,48.3953792
16,улица Димитрова,432046,54.3436449,48.5426964
10А,улица 40-летия Победы,432072,54.3726343,48.5894824
8,улица Марата,432071,54.3236750,48.3905700
8,улица Репина,432030,54.3502596,48.3522011
24,Ульяновский проспект,432072,54.3790303,48.5767302
98,улица Пархоменко,432030,54.3485782,48.3635316
6,улица Минаева,432017,54.3058689,48.3746019
1,проспект Антонова,432072,54.3700574,48.6047306
1,проспект Антонова,432059,54.3695439,48.6041384
432008,Автозаводская улица,432008,54.2961123,48.3169418
37В,улица Репина,432026,54.3484797,48.3521488
46Е,улица Рябикова,432045,54.2802818,48.2954546
2,Ульяновский проспект,432059,54.3698997,48.5883894
2,проспект Нариманова,432002,54.3346998,48.3851090
29,Заводской проезд,432007,54.3240063,48.4844630
31,Заречная улица,432031,54.3227018,48.4719786
5,Заречная улица,432031,54.3221049,48.4764940
9,Заречная улица,432031,54.3210630,48.4745920
33,Заречная улица,432031,54.3228365,48.4708700
1,Заречная улица,432031,54.3216735,48.4769692
23,Заводской проезд,432031,54.3256705,48.4845930
17,Пионерская улица,432031,54.3243988,48.4747067
27,Заводской проезд,432031,54.3255123,48.4865987
3,Заречная улица,432031,54.3213071,48.4761991
27,Заречная улица,432031,54.3215212,48.4711601
7,Заречная улица,432031,54.3217013,48.4755976
35,Заречная улица,432031,54.3232710,48.4716806
29,Заречная улица,432031,54.3219272,48.4720327
22,Заречная улица,432031,54.3240762,48.4718659
10,улица Рябикова,432042,54.2902886,48.3065045
12,улица Рябикова,432042,54.2900236,48.3058609
28,улица Гоголя,432046,54.3402514,48.5380941
32,улица Гоголя,432046,54.3407273,48.5386240
30,улица Гоголя,432046,54.3405182,48.5379273
34,улица Гоголя,432046,54.3409816,48.5403113
9,проспект Ленинского Комсомола,432063,54.3840133,48.6052189
19,проспект Академика Филатова,432064,54.3948653,48.5917227
15,Киевский бульвар,432059,54.3809392,48.6015448
44,проспект Созидателей,432059,54.3721291,48.5963851
48,проспект Созидателей,432059,54.3714940,48.5949486
25,проспект Врача Сурова,432064,54.3910156,48.5858316
37,улица Карбышева,432064,54.3852621,48.5871410
50,проспект Созидателей,432059,54.3719068,48.5938493
28,проспект Созидателей,432059,54.3761075,48.6052493
1,проспект Дружбы Народов,432063,54.3831974,48.6178464
35,улица Карбышева,432064,54.3845278,48.5865150
46,проспект Созидателей,432059,54.3723042,48.5947269
20,проспект Врача Сурова,432064,54.3909360,48.5895115
21,улица Карбышева,432064,54.3821310,48.5896190
23,проспект Врача Сурова,432064,54.3900187,48.5873402
36,улица Карбышева,432064,54.3895108,48.5849750
14,проспект Ленинского Комсомола,432064,54.3808714,48.5921556
12,проспект Авиастроителей,432064,54.3886816,48.5879387
5,проспект Авиастроителей,432064,54.3868461,48.5874072
23,улица Карбышева,432064,54.3821016,48.5912582
27,проспект Врача Сурова,432064,54.3910484,48.5840472
36,проспект Генерала Тюленева,432064,54.3886356,48.5799778
35,проспект Врача Сурова,432064,54.3919330,48.5807859
11,проспект Ленинского Комсомола,432063,54.3836175,48.6043117
7,проспект Авиастроителей,432064,54.3859166,48.5853111
60,проспект Созидателей,432059,54.3706969,48.5912206
33,проспект Врача Сурова,432064,54.3916436,48.5825473
20,улица Карбышева,432048,54.3834826,48.5912020
26,проспект Созидателей,432059,54.3766612,48.6066147
38,проспект Созидателей,432059,54.3726933,48.5976987
5,проспект Врача Сурова,432064,54.3837435,48.5948376
30,проспект Созидателей,432059,54.3755779,48.6041606
19,улица Карбышева,432064,54.3811017,48.5909494
22,проспект Врача Сурова,432064,54.3919393,48.5879196
16,проспект Генерала Тюленева,432064,54.3811197,48.5892979
1,проспект Врача Сурова,432064,54.3827025,48.5961375
17,Киевский бульвар,432059,54.3805378,48.6006096
1,проспект Генерала Тюленева,432059,54.3733789,48.5974961
16,улица Карбышева,432064,54.3826652,48.5928291
54,проспект Созидателей,432059,54.3709483,48.5937109
25,улица Карбышева,432064,54.3828536,48.5895316
32,улица Карбышева,432064,54.3883942,48.5848340
7,проспект Врача Сурова,432064,54.3838173,48.5933002
27,улица Карбышева,432064,54.3841089,48.5887544
28,улица Карбышева,432064,54.3856284,48.5885039
10,проспект Авиастроителей,432064,54.3900884,48.5911219
19,Киевский бульвар,432059,54.3801615,48.5997072
7,Киевский бульвар,432059,54.3765960,48.6025574
47,улица Карбышева,432064,54.3898949,48.5803652
33,проспект Врача Сурова,432064,54.3923071,48.5824478
28,проспект Генерала Тюленева,432064,54.3840690,48.5854750
24,проспект Созидателей,432059,54.3772647,48.6078258
56,проспект Созидателей,432059,54.3710835,48.5920805
40,проспект Созидателей,432059,54.3729997,48.5966481
33,проспект Врача Сурова,432064,54.3925168,48.5817305
20 к2,проспект Врача Сурова,432064,54.3907603,48.5904562
38,улица Карбышева,432064,54.3904524,48.5820320
32А,улица Карбышева,432064,54.3888781,48.5854158
54,улица Рябикова,432045,54.2789052,48.2926365
1,Ветеринарная улица,432030,54.3620232,48.3483703
44,улица Врача Михайлова,432057,54.3541453,48.5357243
21,проспект Генерала Тюленева,432064,54.3812793,48.5871477
25,проспект Генерала Тюленева,432064,54.3823828,48.5857025
13,Западный бульвар,432028,54.3014675,48.3233117
45,улица Ефремова,432045,54.2882048,48.2919679
47,улица Ефремова,432045,54.2876279,48.2912551
69,улица Ефремова,432045,54.2859094,48.2870595
51,улица Ефремова,432045,54.2873218,48.2899674
73А,улица Ефремова,432045,54.2853416,48.2851206
9 к2,Отрадная улица,432073,54.2664520,48.2958390
3,Пожарный переулок,432000,54.3167975,48.3994964
1А,улица Бебеля,432000,54.3161207,48.3996327
4А,Дворцовая улица,432000,54.3173907,48.3999576
16,Самарская улица,432073,54.2727562,48.2931064
59,улица Рябикова,432029,54.2758296,48.2938789
6,Самарская улица,432029,54.2758328,48.2955387
12,Самарская улица,432029,54.2751586,48.2951810
18,Камышинская улица,432073,54.2736900,48.2932377
14,Самарская улица,432073,54.2732323,48.2935410
25 к1,Камышинская улица,432029,54.2725965,48.2998094
25,Камышинская улица,432029,54.2733173,48.2982133
77,улица Рябикова,432073,54.2707475,48.2879517
55,улица Рябикова,432029,54.2767905,48.2967165
18А,Самарская улица,432073,54.2732238,48.2922744
17,улица Железной Дивизии,432000,54.3128846,48.3867891
19,улица Железной Дивизии,432000,54.3134221,48.3866803
101,улица 12 Сентября,432017,54.3075289,48.3781675
29,улица Артёма,432049,54.3202218,48.3626923
10,улица Льва Толстого,432063,54.3097920,48.3767224
21,улица Железной Дивизии,432099,54.3138962,48.3861066
25,улица Рябикова,432045,54.2818426,48.3006763
75,Промышленная улица,432013,54.2815845,48.3128807
34,улица Кирова,432048,54.2949097,48.3737536
20,улица Кирова,432048,54.2979155,48.3778180
24,улица Кирова,432048,54.2968713,48.3769733
22,улица Кирова,432048,54.2970658,48.3767110
32,улица Кирова,432048,54.2953641,48.3744553
28,улица Кирова,432048,54.2959636,48.3757207
26,улица Кирова,432048,54.2967848,48.3760013
30,улица Кирова,432048,54.2952595,48.3748314
14,Октябрьский переулок,432008,54.2968523,48.3186923
27,Западный бульвар,432028,54.2949306,48.3197194
12,Октябрьский переулок,432008,54.2967259,48.3178080
30,улица Богдана Хмельницкого,432042,54.2864188,48.3063600
2/19,улица Корунковой,432029,54.2729406,48.3081251
4,Цветной бульвар,432073,54.2649246,48.2983293
13,проспект Хо Ши Мина,432073,54.2683712,48.2989661
3,улица Гимова,432011,54.3174156,48.4041031
8,улица Рябикова,432042,54.2903975,48.3074692
42,улица Полбина,432032,54.3028135,48.3425053
44А,улица Полбина,432032,54.3023881,48.3435074
40,Октябрьская улица,432032,54.3005572,48.3482139
44,улица Полбина,432032,54.3032955,48.3437400
48А,улица Полбина,432032,54.3035619,48.3458646
40А,улица Полбина,432032,54.3021508,48.3425674
34,Октябрьская улица,432032,54.3006581,48.3464962
34,улица Полбина,432032,54.3023742,48.3393383
32,Октябрьская улица,432032,54.3001673,48.3452605
55А,Октябрьская улица,432032,54.3017840,48.3431153
46,улица Полбина,432032,54.3026187,48.3449217
25А,Кузоватовская улица,432045,54.2831369,48.2904599
2,бульвар Пластова,432011,54.3211954,48.4021214
18,улица Плеханова,432000,54.3125282,48.4043769
3,проспект Генерала Тюленева,432059,54.3745371,48.5959508
2Б,проспект Генерала Тюленева,432059,54.3745296,48.5979564
4Б,проспект Генерала Тюленева,432059,54.3752269,48.5988098
13А,проспект Созидателей,432072,54.3702410,48.5976985
34,Краснопролетарская улица,432007,54.3412411,48.4938085
40А,улица Гончарова,432011,54.3190010,48.3990165
2А,улица Богдана Хмельницкого,432042,54.2949747,48.2955676
145,улица Ефремова,432066,54.2700662,48.2746798
141,улица Ефремова,432066,54.2705192,48.2746850
143,улица Ефремова,432066,54.2700465,48.2737111
15А,Пионерская улица,432031,54.3256144,48.4753825
30,Заречная улица,432031,54.3236576,48.4748851
6,Цветной бульвар,432073,54.2654271,48.2972008
17,улица Шигаева,432066,54.2670587,48.2750187
11,улица Шигаева,432066,54.2671742,48.2775100
145А,улица Ефремова,432066,54.2697771,48.2755570
137,улица Ефремова,432066,54.2712032,48.2756079
19,улица Шигаева,432066,54.2676950,48.2757073
9,улица Шигаева,432066,54.2664348,48.2777563
15А,улица Шигаева,432066,54.2678833,48.2770209
79 к2,Отрадная улица,432066,54.2695591,48.2799922
116,улица Рябикова,432066,54.2682015,48.2798146
15,улица Шигаева,432066,54.2673085,48.2765025
85,Отрадная улица,432066,54.2712303,48.2768420
112,улица Рябикова,432066,54.2687558,48.2826269
13,улица Шигаева,432066,54.2664499,48.2766448
44,Оренбургская улица,432057,54.3542064,48.5283194
44А,Оренбургская улица,432057,54.3541646,48.5276520
53,улица Врача Михайлова,432010,54.3522125,48.5264369
50,Оренбургская улица,432010,54.3517897,48.5266888
46,Оренбургская улица,432057,54.3538734,48.5275833
56,улица Врача Михайлова,432057,54.3538863,48.5295419
8Б,Димитровградское шоссе,432031,54.3206881,48.4825376
8А,Димитровградское шоссе,432031,54.3203780,48.4814670
21,Рабочая улица,432007,54.3361874,48.4908144
17 к1,Рабочая улица,432007,54.3360068,48.4916578
17,Рабочая улица,432007,54.3356306,48.4912298
7,Димитровградское шоссе,432031,54.3226410,48.4807869
29 к1,Почтовая улица,432007,54.3275503,48.4848320
25,Заводской проезд,432031,54.3264782,48.4862470
29,Почтовая улица,432007,54.3275644,48.4855174
23А,Заводской проезд,432007,54.3249227,48.4843320
24,Почтовая улица,432031,54.3293606,48.4798709
35,Оренбургская улица,432057,54.3571723,48.5302238
36,Оренбургская улица,432057,54.3562632,48.5319765
22,Краснопролетарская улица,432007,54.3322377,48.4858708
10,улица Шофёров,432007,54.3322023,48.4870077
20,Краснопролетарская улица,432007,54.3313441,48.4864710
15,Пионерская улица,432031,54.3267388,48.4760438
18,Заводской проезд,432031,54.3277327,48.4766883
2,улица Шофёров,432031,54.3347813,48.4797417
3А,Заречная улица,432031,54.3209715,48.4757417
8 к3,Димитровградское шоссе,432031,54.3206777,48.4790836
24,улица Кузнецова,432000,54.3131152,48.4023646
20,улица Кузнецова,432000,54.3128567,48.4020636
6,улица Гончарова,432063,54.3098285,48.3970171
18А,улица Кузнецова,432000,54.3124536,48.4018223
18,улица Кузнецова,432063,54.3119690,48.4013062
15,Западный бульвар,432028,54.3004210,48.3236505
23А,проспект 50-летия ВЛКСМ,432028,54.2999571,48.3292104
8,улица Гончарова,432063,54.3105477,48.3974246
2А,Заречная улица,432031,54.3241224,48.4772799
30Б,Заводской проезд,432031,54.3259951,48.4792480
22,Заводской проезд,432031,54.3274739,48.4786996
26,Заводской проезд,432031,54.3267439,48.4798450
30А,Заводской проезд,432031,54.3250083,48.4788096
19,Фестивальный бульвар,432067,54.3773398,48.5690860
26,Фестивальный бульвар,432067,54.3778882,48.5712154
26,проспект Туполева,432067,54.3759621,48.5686836
31,проспект Авиастроителей,432067,54.3788808,48.5693981
28,проспект Туполева,432067,54.3770452,48.5676761
33,проспект Авиастроителей,432067,54.3783345,48.5687169
71,улица Димитрова,432046,54.3393857,48.5617058
27А,Заводской проезд,432031,54.3252449,48.4853862
4,Краснопролетарская улица,432031,54.3265819,48.4819659
6,Краснопролетарская улица,432031,54.3269510,48.4838362
8,Краснопролетарская улица,432031,54.3273955,48.4825029
2,Краснопролетарская улица,432031,54.3261074,48.4815907
17,Заречная улица,432031,54.3231921,48.4738993
30,Ленинградская улица,432031,54.3258129,48.4711780
8,улица Спортплощадь,432031,54.3257841,48.4682026
4,улица Спортплощадь,432031,54.3265840,48.4687019
6,улица Спортплощадь,432031,54.3261872,48.4684533
29,проспект Генерала Тюленева,432071,54.3844515,48.5832835
25,Ленинградская улица,432031,54.3263977,48.4726289
12,Пионерская улица,432031,54.3292223,48.4769646
11,Пионерская улица,432031,54.3297543,48.4782625
15,Заводской проезд,432031,54.3286062,48.4765841
16,Почтовая улица,432031,54.3299133,48.4769266
10,Почтовая улица,432031,54.3306217,48.4738047
18,Пионерская улица,432031,54.3266025,48.4752475
5,улица 1-я Линия,432031,54.3279433,48.4715149
7,улица Советской Армии,432031,54.3274018,48.4751171
10,улица Советской Армии,432031,54.3268558,48.4740605
12,Заводской проезд,432031,54.3281943,48.4748961
12,улица Советской Армии,432031,54.3262155,48.4736550
16,Заводской проезд,432031,54.3278770,48.4760645
15,Ленинградская улица,432031,54.3297489,48.4747832
22,Ленинградская улица,432031,54.3285816,48.4732287
17,Почтовая улица,432031,54.3295067,48.4758069
19,Почтовая улица,432031,54.3293153,48.4764267
32,Ленинградская улица,432031,54.3264165,48.4699811
11,Заводской проезд,432031,54.3288359,48.4753467
8,улица Советской Армии,432031,54.3275349,48.4745051
9,улица Советской Армии,432031,54.3267172,48.4746383
13,Заводской проезд,432031,54.3287252,48.4760129
17,Ленинградская улица,432031,54.3290794,48.4742616
14,Заводской проезд,432031,54.3280197,48.4755432
24,Ленинградская улица,432031,54.3279146,48.4727481
9,Пионерская улица,432031,54.3302918,48.4789057
5,Краснопролетарская улица,432031,54.3299016,48.4832321
18,улица Металлистов,432031,54.3305435,48.4797810
20,улица Металлистов,432031,54.3305562,48.4807225
3,Краснопролетарская улица,432031,54.3293855,48.4823526
10,Пионерская улица,432031,54.3303497,48.4777864
7,Пионерская улица,432031,54.3309229,48.4791326
22,Почтовая улица,432031,54.3297459,48.4792061
26,Почтовая улица,432031,54.3300167,48.4800617
1,Краснопролетарская улица,432031,54.3300852,48.4823137
19,Ленинградская улица,432031,54.3284454,48.4738770
8,улица Калнина,432031,54.3300459,48.4701192
6,Заводской проезд,432031,54.3288442,48.4720746
4,Заводской проезд,432031,54.3290205,48.4714516
18,Ленинградская улица,432031,54.3299140,48.4740795
20,Ленинградская улица,432031,54.3292298,48.4736008
5,Заводской проезд,432031,54.3294855,48.4725140
3,Заводской проезд,432031,54.3296419,48.4719252
11,улица Калнина,432031,54.3298762,48.4708315
21,Ленинградская улица,432031,54.3277621,48.4733977
11,Краснопролетарская улица,432007,54.3314795,48.4841824
12,Краснопролетарская улица,432007,54.3293560,48.4855049
17,улица Металлистов,432007,54.3308370,48.4833874
13,Краснопролетарская улица,432007,54.3321346,48.4842001
10,Краснопролетарская улица,432007,54.3289282,48.4843946
2В,улица Академика Сахарова,432031,54.3359028,48.4666695
2,улица Калнина,432031,54.3321653,48.4715708
6,улица Калнина,432031,54.3307151,48.4705960
4,Ленинградская улица,432031,54.3345733,48.4765018
7,Почтовая улица,432031,54.3305639,48.4712638
1,улица Металлистов,432067,54.3334289,48.4738040
9,улица Шофёров,432007,54.3313176,48.4916446
5,улица Шофёров,432007,54.3321225,48.4889204
7,улица Шофёров,432007,54.3317260,48.4902672
1А,улица Шофёров,432007,54.3330450,48.4870727
3,улица Шофёров,432007,54.3326512,48.4880090
13,Рабочая улица,432007,54.3362182,48.4897698
30,Краснопролетарская улица,432007,54.3356343,48.4880819
26,Краснопролетарская улица,432007,54.3335644,48.4866699
32,Краснопролетарская улица,432007,54.3361783,48.4887540
22,Фестивальный бульвар,432067,54.3761918,48.5739382
29,проспект Авиастроителей,432067,54.3794632,48.5713034
38,проспект Ленинского Комсомола,432067,54.3744714,48.5784634
32,Ленинградская улица,432031,54.3258859,48.4701613
32,Ленинградская улица,432031,54.3261682,48.4700178
32,Ленинградская улица,432031,54.3267954,48.4700164
2,улица Куйбышева,432017,54.3049877,48.3785966
4,улица Минаева,432017,54.3055462,48.3732259
4,улица Куйбышева,432017,54.3047859,48.3771563
12,улица Куйбышева,432017,54.3044335,48.3750869
95,улица 12 Сентября,432017,54.3055510,48.3786081
16,улица Куйбышева,432017,54.3046581,48.3740105
99,улица 12 Сентября,432017,54.3061037,48.3785908
12,улица Минаева,432017,54.3061654,48.3765392
6,улица Минаева,432017,54.3058088,48.3744767
16,улица Минаева,432017,54.3062258,48.3777532
8,улица Куйбышева,432017,54.3045325,48.3764052
18,улица Минаева,432017,54.3058557,48.3777906
10,улица Куйбышева,432017,54.3044814,48.3757394
2,улица Минаева,432017,54.3048189,48.3731961
10,улица Минаева,432017,54.3059492,48.3762167
14,улица Куйбышева,432017,54.3045012,48.3746001
4,улица Тельмана,432046,54.3474882,48.5355276
6,улица Тельмана,432046,54.3469843,48.5364395
2,улица Тельмана,432046,54.3469998,48.5348724
8,Почтовая улица,432031,54.3309315,48.4724685
6,Почтовая улица,432031,54.3312015,48.4717567
9,Почтовая улица,432031,54.3303255,48.4723147
3,Почтовая улица,432031,54.3310057,48.4702710
2,Офицерская улица,432031,54.3305824,48.4695330
5,улица Калнина,432031,54.3318568,48.4721435
4,улица Калнина,432031,54.3316212,48.4709675
1,Почтовая улица,432031,54.3310544,48.4696359
11,Почтовая улица,432031,54.3300974,48.4731697
24,улица Спортплощадь,432031,54.3271355,48.4700426
11,Ленинградская улица,432031,54.3309756,48.4760318
14,Почтовая улица,432031,54.3300920,48.4763035
20,Пионерская улица,432031,54.3260652,48.4745290
12,Почтовая улица,432031,54.3301991,48.4756474
40,улица Полбина,432032,54.3027201,48.3417982
36,улица Полбина,432032,54.3025317,48.3403839
48,улица Полбина,432032,54.3033817,48.3472460
38,улица Полбина,432032,54.3026258,48.3410879
51,Октябрьская улица,432032,54.3002791,48.3410540
53,Октябрьская улица,432032,54.3007520,48.3426676
7,улица Терешковой,432032,54.3015104,48.3392557
55,Октябрьская улица,432032,54.3010316,48.3433105
59,Октябрьская улица,432032,54.3015553,48.3445842
57,Октябрьская улица,432032,54.3013081,48.3439476
53А,Октябрьская улица,432032,54.3014760,48.3423629
21,улица Металлистов,432007,54.3298913,48.4873676
18,Краснопролетарская улица,432007,54.3307584,48.4861800
14,улица Шофёров,432007,54.3306619,48.4878611
23,улица Металлистов,432007,54.3296091,48.4894216
16А,Краснопролетарская улица,432007,54.3304976,48.4847087
16,Краснопролетарская улица,432007,54.3310037,48.4850736
19,улица Металлистов,432007,54.3302799,48.4856632
20А,Краснопролетарская улица,432007,54.3316127,48.4854467
12,улица Пушкарёва,432005,54.3081332,48.3519670
43А,улица Аблукова,432049,54.3146654,48.3607202
69,Московское шоссе,432032,54.3066195,48.3411220
1,улица Терешковой,432032,54.3062646,48.3390488
77,Московское шоссе,432032,54.3063194,48.3451848
73,Московское шоссе,432032,54.3065130,48.3425628
79,Московское шоссе,432032,54.3062670,48.3459038
71,Московское шоссе,432032,54.3065665,48.3418366
1А,улица Терешковой,432032,54.3059783,48.3401541
75Г,Московское шоссе,432032,54.3068829,48.3433208
75Б,Московское шоссе,432032,54.3067646,48.3446171
67,Московское шоссе,432032,54.3070978,48.3400654
75Б,Московское шоссе,432032,54.3068699,48.3439733
81,Московское шоссе,432032,54.3062144,48.3466150
75,Московское шоссе,432032,54.3063957,48.3438566
75А,Московское шоссе,432032,54.3061146,48.3439587
75В,Московское шоссе,432032,54.3068519,48.3435700
24,улица Рябикова,432045,54.2839455,48.2989222
36,Промышленная улица,432045,54.2849228,48.2946070
15,Новосондецкий бульвар,432072,54.3800153,48.5807942
24,проспект Ленинского Комсомола,432064,54.3783478,48.5869730
20,проспект Ленинского Комсомола,432064,54.3789131,48.5886465
18,проспект Ленинского Комсомола,432064,54.3794212,48.5893569
12,Новосондецкий бульвар,432064,54.3791731,48.5864126
20,проспект Туполева,432067,54.3733191,48.5724164
2А,проспект Врача Сурова,432064,54.3839210,48.5987540
13,Фестивальный бульвар,432067,54.3746882,48.5723530
17,Фестивальный бульвар,432067,54.3765229,48.5699627
17,Фестивальный бульвар,432067,54.3760947,48.5708655
27,проспект Генерала Тюленева,432064,54.3834348,48.5843909
16,Новосондецкий бульвар,432064,54.3807731,48.5840236
42,проспект Ленинского Комсомола,432067,54.3740846,48.5766565
13,Фестивальный бульвар,432067,54.3742259,48.5733403
18,Новосондецкий бульвар,432064,54.3815264,48.5833275
24,проспект Туполева,432067,54.3751815,48.5699812
44,проспект Ленинского Комсомола,432067,54.3728930,48.5745478
20,Фестивальный бульвар,432072,54.3770892,48.5750993
40,проспект Ленинского Комсомола,432067,54.3749356,48.5775686
11,Фестивальный бульвар,432067,54.3736607,48.5738448
15,Фестивальный бульвар,432067,54.3755048,48.5714852
27,проспект Авиастроителей,432067,54.3791705,48.5724846
17А,Фестивальный бульвар,432067,54.3759630,48.5701392
13А,Фестивальный бульвар,432072,54.3741234,48.5726315
22,проспект Туполева,432067,54.3741009,48.5710032
11,улица 40-летия Октября,432010,54.3485470,48.5434195
7А,Сиреневый проезд,432010,54.3495982,48.5325135
54,Оренбургская улица,432010,54.3498592,48.5288604
17,улица 19-го Партсъезда,432010,54.3469090,48.5514131
15,улица 19-го Партсъезда,432010,54.3468790,48.5511549
9,улица 19-го Партсъезда,432010,54.3468364,48.5502878
11,улица 19-го Партсъезда,432010,54.3468403,48.5506056
7,улица 19-го Партсъезда,432010,54.3468240,48.5500483
13,улица 19-го Партсъезда,432010,54.3468773,48.5508446
5,улица 19-го Партсъезда,432010,54.3468194,48.5497800
4,улица 19-го Партсъезда,432010,54.3465631,48.5497855
19,улица 19-го Партсъезда,432010,54.3468888,48.5517910
8,улица 19-го Партсъезда,432010,54.3460546,48.5525626
6А,улица 19-го Партсъезда,432010,54.3466088,48.5512260
21,улица 19-го Партсъезда,432010,54.3469318,48.5524304
23,улица 19-го Партсъезда,432010,54.3469450,48.5528908
68,улица Победы,432010,54.3466925,48.5528807
25,улица 19-го Партсъезда,432010,54.3469735,48.5534782
4А,улица 19-го Партсъезда,432010,54.3465501,48.5509059
64,1-й Советский переулок,432010,54.3475107,48.5498369
6,переулок Тузова,432010,54.3460555,48.5505318
8,переулок Тузова,432010,54.3460652,48.5508924
2,переулок Тузова,432010,54.3460108,48.5499643
10,переулок Тузова,432010,54.3460817,48.5512059
4,переулок Тузова,432010,54.3460494,48.5503163
12,переулок Тузова,432010,54.3460350,48.5514008
3,переулок Тузова,432010,54.3463332,48.5509062
59,улица Жуковского,432046,54.3464159,48.5482479
64,улица 9 Мая,432046,54.3471954,48.5473560
67,улица Жуковского,432010,54.3475467,48.5481403
65,улица Жуковского,432046,54.3469948,48.5480958
27,улица Тельмана,432010,54.3484739,48.5495757
73,улица Жуковского,432010,54.3483993,48.5478542
63,улица Жуковского,432046,54.3467307,48.5473170
70,улица Тельмана,432010,54.3482143,48.5496273
68,улица Тельмана,432010,54.3481463,48.5491842
69,улица Жуковского,432010,54.3480006,48.5480709
21,улица Тельмана,432010,54.3483394,48.5465707
60,улица Тельмана,432010,54.3479539,48.5470062
62,улица Тельмана,432010,54.3479722,48.5475115
23,улица Тельмана,432010,54.3485204,48.5471998
58,улица Тельмана,432010,54.3479291,48.5464453
6,улица Архитектора Шодэ,432030,54.3475575,48.3470425
1,бульвар Архитекторов,432030,54.3479527,48.3469621
1,улица Скочилова,432030,54.3488424,48.3474916
3,бульвар Архитекторов,432030,54.3478693,48.3458937
47,улица Репина,432030,54.3468776,48.3504077
37,улица Репина,432030,54.3489804,48.3526050
39,улица Репина,432030,54.3493862,48.3508784
49,улица Репина,432030,54.3476685,48.3504631
45,улица Репина,432030,54.3476043,48.3492375
43,улица Репина,432030,54.3488929,48.3491781
55А,улица Репина,432030,54.3463771,48.3521922
5,улица Скочилова,432030,54.3484229,48.3460490
53,улица Репина,432030,54.3471287,48.3526707
51,улица Репина,432030,54.3477894,48.3524777
7,улица Скочилова,432030,54.3488536,48.3446320
37Б,улица Репина,432030,54.3482101,48.3526610
3,улица Скочилова,432030,54.3491973,48.3457112
9,улица Скочилова,432030,54.3489852,48.3430343
5,бульвар Архитекторов,432030,54.3479208,48.3448796
7,бульвар Архитекторов,432030,54.3476625,48.3441603
3,улица Жиркевича,432030,54.3475645,48.3427012
5,улица Жиркевича,432030,54.3472862,48.3452752
22,улица Терешковой,432032,54.3001000,48.3361650
30А,проезд Полбина,432032,54.3013226,48.3355091
98,улица Пархоменко,432030,54.3489720,48.3633711
26А,проспект 50-летия ВЛКСМ,432028,54.3001354,48.3315949
24А,проспект 50-летия ВЛКСМ,432028,54.2996732,48.3314904
12,проезд Полбина,432028,54.3009943,48.3265044
33А,проспект Авиастроителей,432067,54.3778327,48.5682826
52,проспект Созидателей,432059,54.3715427,48.5928246
26,Новосондецкий бульвар,432064,54.3815012,48.5792140
23,проспект Авиастроителей,432064,54.3822132,48.5778807
17,проспект Авиастроителей,432064,54.3837855,48.5800845
21,проспект Авиастроителей,432064,54.3830249,48.5788117
15,проспект Авиастроителей,432064,54.3830357,48.5809554
24,Ульяновский проспект,432072,54.3793034,48.5762878
16,Ульяновский проспект,432072,54.3770702,48.5792096
32,проспект Ленинского Комсомола,432072,54.3765112,48.5816856
7,улица Кузнецова,432000,54.3120667,48.4003110
11,Ульяновский проспект,432072,54.3753784,48.5792384
13,Ульяновский проспект,432067,54.3763905,48.5776565
15,Ульяновский проспект,432067,54.3775723,48.5765207
17,Ульяновский проспект,432067,54.3785795,48.5747924
19,Ульяновский проспект,432067,54.3796919,48.5736121
17,Новосондецкий бульвар,432072,54.3792489,48.5797731
11,Новосондецкий бульвар,432072,54.3778212,48.5837906
26,проспект Ленинского Комсомола,432072,54.3770033,48.5842895
28,проспект Ленинского Комсомола,432072,54.3764072,48.5831091
19,проспект Генерала Тюленева,432064,54.3803929,48.5884183
22,проспект Ленинского Комсомола,432064,54.3795632,48.5879361
9,Новосондецкий бульвар,432072,54.3776347,48.5853093
10,Хлебозаводская улица,432048,54.3027403,48.3697376
7А,улица Марата,432030,54.3232967,48.3939053
13,проспект Генерала Тюленева,432072,54.3779750,48.5915928
7,проспект Генерала Тюленева,432072,54.3768199,48.5928476
5,проспект Генерала Тюленева,432072,54.3758630,48.5943129
6,улица Корюкина,432011,54.3231452,48.4077080
33,проспект Ленинского Комсомола,432072,54.3779335,48.5895329
35А,проспект Ленинского Комсомола,432072,54.3773353,48.5880413
16,улица 40-летия Победы,432067,54.3721855,48.5878979
10,улица 40-летия Победы,432067,54.3737844,48.5893569
5,улица 40-летия Победы,432059,54.3727408,48.5923492
10,Фестивальный бульвар,432067,54.3714632,48.5791446
49,проспект Ленинского Комсомола,432067,54.3732086,48.5792565
8,Ульяновский проспект,432067,54.3730432,48.5857980
12,улица Крымова,432001,54.3167224,48.3837507
51 с1,Октябрьская улица,432032,54.3002278,48.3420466
51 с3,Октябрьская улица,432032,54.3006144,48.3416122
3,Пензенский бульвар,432063,54.3825278,48.6170204
53,проспект Ленинского Комсомола,432067,54.3716285,48.5762682
62,улица Врача Михайлова,432057,54.3531488,48.5281802
58,улица Врача Михайлова,432057,54.3534072,48.5287312
15,Сиреневый проезд,432010,54.3504724,48.5338752
7,Сиреневый проезд,432010,54.3487581,48.5340966
5,Сиреневый проезд,432010,54.3496193,48.5344312
46,улица Врача Михайлова,432057,54.3535564,48.5342894
19,Сиреневый проезд,432010,54.3522297,48.5336183
60,улица Врача Михайлова,432057,54.3536645,48.5279928
60,Оренбургская улица,432010,54.3491939,48.5310929
28,Почтовая улица,432007,54.3279579,48.4867473
52,улица Врача Михайлова,432057,54.3534089,48.5311944
64,улица Врача Михайлова,432057,54.3533338,48.5274247
58,Оренбургская улица,432010,54.3487688,48.5304071
36,улица Врача Михайлова,432057,54.3542414,48.5388237
50,улица Врача Михайлова,432057,54.3539877,48.5327656
54,улица Врача Михайлова,432057,54.3541763,48.5311968
42,улица Врача Михайлова,432057,54.3536821,48.5373351
13,Сиреневый проезд,432010,54.3513715,48.5341312
9,Ульяновский проспект,432067,54.3736312,48.5806113
34А,Октябрьская улица,432032,54.3007446,48.3457849
38А,Октябрьская улица,432032,54.3011876,48.3470384
32Б,Октябрьская улица,432032,54.3002187,48.3446011
30,Октябрьская улица,432032,54.2992861,48.3422556
75,улица Димитрова,432046,54.3395148,48.5640929
4,Мелекесская улица,432046,54.3401072,48.5625103
73,улица Димитрова,432046,54.3394535,48.5628103
38,улица Врача Михайлова,432057,54.3556317,48.5375031
40,Оренбургская улица,432057,54.3552278,48.5317875
38,Оренбургская улица,432057,54.3557005,48.5335737
32,Оренбургская улица,432057,54.3572863,48.5335578
36А,улица Врача Михайлова,432057,54.3545336,48.5371583
30,Оренбургская улица,432057,54.3570087,48.5350786
42,Оренбургская улица,432057,54.3551860,48.5303700
10,улица Гоголя,432046,54.3382177,48.5400480
5А,Ульяновский проспект,432067,54.3719680,48.5839409
5,улица Димитрова,432046,54.3381398,48.5443466
6,улица Димитрова,432046,54.3389996,48.5445597
2,улица Димитрова,432046,54.3393455,48.5423536
4,улица Димитрова,432046,54.3389502,48.5436166
8,улица Димитрова,432046,54.3407393,48.5423147
26,улица Гоголя,432046,54.3400592,48.5384899
10,улица Димитрова,432046,54.3419540,48.5433429
1А,Ульяновский проспект,432059,54.3684626,48.5882828
1,Ульяновский проспект,432059,54.3691673,48.5872014
15,улица 40-летия Победы,432059,54.3698380,48.5862780
43,проспект Ленинского Комсомола,432067,54.3746493,48.5840702
70,проспект Созидателей,432059,54.3683055,48.5873682
6,Фестивальный бульвар,432067,54.3713673,48.5803808
29,улица 40-летия Победы,432059,54.3687441,48.5844585
19,улица 40-летия Победы,432059,54.3691465,48.5857334
7,Ульяновский проспект,432067,54.3729545,48.5821880
19,улица 40-летия Победы,432059,54.3694608,48.5848642
3,Ульяновский проспект,432067,54.3708837,48.5851004
5,Ульяновский проспект,432067,54.3718790,48.5836244
70,проспект Созидателей,432059,54.3684636,48.5866781
72,проспект Созидателей,432059,54.3680229,48.5865613
80,проспект Созидателей,432059,54.3674161,48.5848868
74,проспект Созидателей,432059,54.3677692,48.5857034
82,проспект Созидателей,432059,54.3670096,48.5840320
80,проспект Созидателей,432059,54.3671025,48.5851176
74,проспект Созидателей,432059,54.3680871,48.5857802
74,проспект Созидателей,432059,54.3675433,48.5861448
82,проспект Созидателей,432059,54.3673428,48.5841270
80,проспект Созидателей,432059,54.3677331,48.5849719
88,проспект Созидателей,432059,54.3669244,48.5829917
4,проспект Туполева,432059,54.3667633,48.5809565
6,проспект Туполева,432059,54.3671687,48.5804335
86,проспект Созидателей,432059,54.3664859,48.5836310
2,проспект Туполева,432059,54.3663238,48.5812206
96А,проспект Созидателей,432059,54.3657123,48.5819713
88,проспект Созидателей,432059,54.3666071,48.5827740
2,проспект Туполева,432059,54.3661787,48.5817372
37,улица 40-летия Победы,432059,54.3675676,48.5799012
26,улица 40-летия Победы,432067,54.3694967,48.5817891
24,улица 40-летия Победы,432067,54.3701597,48.5819252
28,улица 40-летия Победы,432067,54.3687616,48.5799183
3,Фестивальный бульвар,432067,54.3697795,48.5786725
16,проспект Ленинского Комсомола,432064,54.3799016,48.5906432
15,проспект Генерала Тюленева,432072,54.3785334,48.5908273
6,Ульяновский проспект,432067,54.3725286,48.5851585
12Б,Ульяновский проспект,432067,54.3731858,48.5835693
13А,Краснопролетарская улица,432007,54.3330369,48.4849233
30А,Краснопролетарская улица,432007,54.3351171,48.4896822
28А,Краснопролетарская улица,432007,54.3335250,48.4876868
5,Рабочая улица,432007,54.3341030,48.4901389
2,Рабочая улица,432007,54.3324848,48.4897989
6,Рабочая улица,432007,54.3336134,48.4909169
19,Краснопролетарская улица,432007,54.3348606,48.4864524
21,Краснопролетарская улица,432007,54.3357417,48.4866019
1,Рабочая улица,432007,54.3330721,48.4889104
4,Рабочая улица,432007,54.3330863,48.4899954
28,Краснопролетарская улица,432007,54.3344932,48.4870414
7,Рабочая улица,432007,54.3344827,48.4905046
3,Рабочая улица,432007,54.3340467,48.4890156
11,Рабочая улица,432007,54.3349890,48.4883096
30,Краснопролетарская улица,432007,54.3352776,48.4876625
25,Краснопролетарская улица,432007,54.3364359,48.4875098
27,улица 40-летия Победы,432059,54.3682430,48.5849707
22,улица 40-летия Победы,432067,54.3700808,48.5832260
10,Ульяновский проспект,432067,54.3742350,48.5858107
8,улица 40-летия Победы,432072,54.3747377,48.5919377
4,улица 40-летия Победы,432072,54.3755610,48.5930147
11,проспект Генерала Тюленева,432072,54.3774906,48.5905039
9,проспект Генерала Тюленева,432072,54.3771480,48.5915756
36А,проспект Созидателей,432059,54.3746977,48.6013782
4В,проспект Генерала Тюленева,432059,54.3758042,48.6005705
20А,Киевский бульвар,432072,54.3801876,48.6037575
4,проспект Генерала Тюленева,432059,54.3741781,48.5996326
5,Фестивальный бульвар,432067,54.3706007,48.5774155
8,Фестивальный бульвар,432067,54.3722604,48.5804764
12,Фестивальный бульвар,432067,54.3722968,48.5785807
51,проспект Ленинского Комсомола,432067,54.3721481,48.5774474
1Б,улица Гончарова,432063,54.3092241,48.3949348
4,улица Александра Матросова,432063,54.3090165,48.3944276
29,улица Карла Либкнехта,432063,54.3101847,48.3944711
1А,улица Гончарова,432063,54.3089760,48.3952531
3,улица Гончарова,432063,54.3095897,48.3954666
5,улица Гончарова,432063,54.3106047,48.3955613
2,улица Гончарова,432063,54.3089867,48.3969926
36,улица Карла Либкнехта,432063,54.3096368,48.3945902
15,улица Минаева,432000,54.3082034,48.3920509
3,улица Александра Матросова,432063,54.3088014,48.3931046
10,улица Александра Матросова,432063,54.3104773,48.3939489
7,улица Гончарова,432063,54.3114220,48.3956293
54,улица Льва Толстого,432063,54.3119262,48.3929415
10,улица Гончарова,432063,54.3110941,48.3969398
60,улица Льва Толстого,432063,54.3121815,48.3946616
9,улица Гончарова,432063,54.3121795,48.3953629
58,улица Льва Толстого,432063,54.3120989,48.3938553
130,улица Ленина,432071,54.3140890,48.3935795
11А,улица Гончарова,432000,54.3137374,48.3945524
18,улица Гончарова,432000,54.3136056,48.3963990
11,улица Гончарова,432000,54.3135966,48.3952790
48,улица Минаева,432063,54.3070949,48.3917810
142,Красноармейская улица,432071,54.3322386,48.3983056
83,улица Федерации,432001,54.3275119,48.3963326
53,Красноармейская улица,432011,54.3281121,48.3979025
13,проспект Авиастроителей,432064,54.3838440,48.5824503
7А,проспект Авиастроителей,432064,54.3852953,48.5837748
11,проспект Авиастроителей,432064,54.3842686,48.5816619
138,улица Радищева,432027,54.3417791,48.3997995
43,улица Мостостроителей,432069,54.3498754,48.5067411
35,улица Мостостроителей,432069,54.3505282,48.5067205
48,улица Мостостроителей,432069,54.3484953,48.5056718
2,улица Металлистов,432031,54.3323677,48.4730178
31,улица Мостостроителей,432069,54.3518911,48.5067372
6,улица Академика Сахарова,432031,54.3343365,48.4754277
25,улица Мостостроителей,432069,54.3525549,48.5067520
24,улица Мостостроителей,432069,54.3525669,48.5056869
19,улица Мостостроителей,432069,54.3532524,48.5067665
23,Краснопролетарская улица,432007,54.3365829,48.4867953
10,улица Академика Сахарова,432031,54.3340378,48.4767355
55,улица Мостостроителей,432069,54.3484898,48.5067439
30,улица Мостостроителей,432069,54.3518802,48.5056776
48,улица Мостостроителей,432069,54.3491741,48.5056843
49,улица Мостостроителей,432069,54.3491784,48.5067324
18,улица Мостостроителей,432069,54.3532615,48.5057244
8,Ленинградская улица,432031,54.3332946,48.4763372
8,улица Академика Сахарова,432031,54.3341863,48.4761128
4,улица Металлистов,432031,54.3321306,48.4746645
2А,улица Металлистов,432031,54.3322668,48.4740611
12,Ленинградская улица,432031,54.3319609,48.4753258
27 к3,Оренбургская улица,432057,54.3620025,48.5327778
32А,Оренбургская улица,432057,54.3566275,48.5294009
27 к1,Оренбургская улица,432057,54.3603598,48.5341010
27 к2,Оренбургская улица,432057,54.3608347,48.5331746
78,Брестская улица,432010,54.3605405,48.5488513
10,улица Металлистов,432031,54.3315951,48.4769469
11,улица Металлистов,432031,54.3320096,48.4779787
3,улица Металлистов,432031,54.3326451,48.4751430
8,улица Металлистов,432031,54.3317277,48.4763403
8,Пионерская улица,432031,54.3313157,48.4782249
13,улица Металлистов,432031,54.3318634,48.4785890
9,улица Металлистов,432031,54.3321546,48.4773225
1А,улица Металлистов,432031,54.3328432,48.4744172
7,улица Металлистов,432031,54.3323016,48.4766660
5,Ленинградская улица,432031,54.3329201,48.4772701
15,Краснопролетарская улица,432007,54.3342250,48.4856331
14,улица Академика Сахарова,432031,54.3336624,48.4783713
9,Краснопролетарская улица,432007,54.3316505,48.4833878
5,улица Металлистов,432031,54.3325290,48.4756818
17,Краснопролетарская улица,432007,54.3350310,48.4856536
9,Рабочая улица,432007,54.3349737,48.4907514
8,Рабочая улица,432007,54.3347960,48.4915967
3,улица 40-летия Победы,432072,54.3739772,48.5945928
42,проспект Созидателей,432059,54.3727345,48.5955442
14,улица 40-летия Победы,432067,54.3726084,48.5891033
15,улица 40-летия Октября,432010,54.3498544,48.5432380
46,улица Тельмана,432046,54.3463109,48.5423952
43А,улица Врача Михайлова,432010,54.3517090,48.5385991
4,проезд Менделеева,432010,54.3495067,48.5364867
26,улица Тельмана,432046,54.3455828,48.5395278
33,улица Врача Михайлова,432010,54.3526016,48.5414558
14,Сиреневый проезд,432010,54.3518991,48.5354449
18,проезд Менделеева,432010,54.3498180,48.5425244
28,улица Тельмана,432046,54.3449298,48.5401145
43,улица Врача Михайлова,432010,54.3517365,48.5394552
37,улица Врача Михайлова,432010,54.3518371,48.5407681
10,улица Тельмана,432046,54.3476096,48.5380481
6,проезд Менделеева,432010,54.3495410,48.5372062
2,Сиреневый проезд,432010,54.3484130,48.5359053
14,проезд Менделеева,432010,54.3497621,48.5410836
14,улица Тельмана,432046,54.3470059,48.5398932
22,улица Тельмана,432046,54.3467227,48.5407666
16,проезд Менделеева,432010,54.3497859,48.5418010
44,улица Тельмана,432046,54.3454315,48.5417648
39,улица Врача Михайлова,432010,54.3525651,48.5406924
35,улица Врача Михайлова,432010,54.3518722,48.5415077
12,улица Тельмана,432046,54.3470972,48.5389378
45,улица Врача Михайлова,432010,54.3519814,48.5376152
41А,улица Врача Михайлова,432010,54.3527972,48.5383600
13,улица Тельмана,432010,54.3484825,48.5419477
10,Сиреневый проезд,432010,54.3506302,48.5355978
11,улица Тельмана,432010,54.3484465,48.5412205
9,улица 40-летия Октября,432046,54.3474158,48.5429673
25,улица 40-летия Октября,432010,54.3509475,48.5431089
47,улица Врача Михайлова,432010,54.3519397,48.5368706
3,улица Тельмана,432010,54.3483084,48.5366270
24,улица Тельмана,432046,54.3458275,48.5404142
33,улица 40-летия Октября,432010,54.3519255,48.5430014
18,улица Тельмана,432046,54.3477603,48.5420543
8,проезд Менделеева,432010,54.3495729,48.5380032
49,улица Врача Михайлова,432010,54.3526923,48.5363670
30,улица Тельмана,432046,54.3446282,48.5410592
12,Сиреневый проезд,432010,54.3511546,48.5362579
6,Сиреневый проезд,432010,54.3494950,48.5357495
20,улица Тельмана,432046,54.3468890,48.5423346
35,улица 40-летия Октября,432010,54.3527027,48.5429254
15,улица Тельмана,432010,54.3485094,48.5426690
5,улица Тельмана,432010,54.3482840,48.5373824
17,Сиреневый проезд,432010,54.3519942,48.5346445
8,улица Тельмана,432046,54.3470668,48.5374293
13,улица 40-летия Октября,432010,54.3491910,48.5429620
39,проспект Ленинского Комсомола,432067,54.3750981,48.5850955
62,проспект Созидателей,432059,54.3700866,48.5899096
5,Новосондецкий бульвар,432067,54.3755096,48.5869437
5,Новосондецкий бульвар,432067,54.3755343,48.5859331
41,проспект Ленинского Комсомола,432067,54.3755992,48.5841967
6,Новосондецкий бульвар,432072,54.3767776,48.5891057
37,проспект Ленинского Комсомола,432067,54.3762216,48.5860474
24,Балтийская улица,432022,54.3322701,48.5313443
4,Московская улица,432010,54.3503949,48.5463163
53,улица Жуковского,432046,54.3455781,48.5482879
74,улица 9 Мая,432010,54.3486502,48.5463819
80,улица 9 Мая,432010,54.3500030,48.5462108
58,улица 9 Мая,432046,54.3459034,48.5467003
62,улица 9 Мая,432046,54.3469254,48.5465634
66,улица 9 Мая,432046,54.3474314,48.5465143
51,улица Жуковского,432046,54.3451918,48.5483197
77,улица Жуковского,432010,54.3488799,48.5479482
78,улица 9 Мая,432010,54.3495235,48.5463163
57,улица Жуковского,432046,54.3460183,48.5482752
89,улица Жуковского,432010,54.3499010,48.5478376
6,Московская улица,432010,54.3503868,48.5469776
83,улица Жуковского,432010,54.3493726,48.5478703
8,Московская улица,432010,54.3504473,48.5475819
47,улица Жуковского,432046,54.3447986,48.5483955
60,улица 9 Мая,432046,54.3463953,48.5466407
76,улица 9 Мая,432010,54.3490844,48.5463606
61,улица Жуковского,432046,54.3459749,48.5475120
3,улица Димитрова,432046,54.3382452,48.5425327
8 к1,Димитровградское шоссе,432031,54.3204494,48.4774015
8В,Димитровградское шоссе,432031,54.3215510,48.4825616
39А,улица Свердлова,432007,54.3299763,48.4985805
19,Рабочая улица,432007,54.3356912,48.4904524
38,улица Тельмана,432046,54.3450452,48.5375293
42,улица Тельмана,432046,54.3439915,48.5399310
8,улица Гоголя,432046,54.3387020,48.5393195
13,улица Нахимова,432046,54.3416162,48.5348879
9,1-й Рабочий переулок,432007,54.3336380,48.4925667
12,1-й Рабочий переулок,432007,54.3342010,48.4922955
8,1-й Рабочий переулок,432007,54.3334033,48.4917777
7,1-й Рабочий переулок,432007,54.3332864,48.4923294
9А,улица 40-летия Октября,432046,54.3478278,48.5434682
14,1-й Рабочий переулок,432007,54.3346803,48.4926355
13,1-й Рабочий переулок,432007,54.3345657,48.4931644
6,1-й Рабочий переулок,432007,54.3330250,48.4915364
16,2-й Рабочий переулок,432007,54.3342985,48.4942548
10,1-й Рабочий переулок,432007,54.3337652,48.4919871
2,Ленинградская улица,432031,54.3356922,48.4780452
74А,улица Мостостроителей,432069,54.3445572,48.5047252
26,улица Мостостроителей,432069,54.3523245,48.5054368
7,улица Мостостроителей,432069,54.3539935,48.5073120
41,улица Мостостроителей,432069,54.3501277,48.5070176
5,улица Мостостроителей,432069,54.3542324,48.5065570
72А,улица Мостостроителей,432069,54.3448964,48.5047314
3,улица Мостостроителей,432069,54.3542396,48.5073146
79,улица Мостостроителей,432069,54.3435988,48.5057224
22А,улица Мостостроителей,432069,54.3528228,48.5059919
16,улица Мостостроителей,432069,54.3535172,48.5059775
12,улица Мостостроителей,432069,54.3537589,48.5059646
73,улица Мостостроителей,432069,54.3445457,48.5057350
75,улица Мостостроителей,432069,54.3442426,48.5057324
28А,улица Мостостроителей,432069,54.3521307,48.5059837
71,улица Мостостроителей,432069,54.3448930,48.5057216
21А,улица Мостостроителей,432069,54.3528194,48.5070350
23А,улица Мостостроителей,432069,54.3528234,48.5065053
9,улица Мостостроителей,432069,54.3540022,48.5065618
8,улица Мостостроителей,432069,54.3542438,48.5059943
17,улица Мостостроителей,432069,54.3535234,48.5065398
26А,улица Мостостроителей,432069,54.3521509,48.5054316
1,улица Мостостроителей,432069,54.3544818,48.5065665
10,улица Мостостроителей,432069,54.3540059,48.5059830
15,улица Мостостроителей,432069,54.3535186,48.5073028
11,улица Мостостроителей,432069,54.3537570,48.5073161
78А,улица Мостостроителей,432069,54.3439145,48.5047342
4,улица Мостостроителей,432069,54.3544890,48.5059926
20А,улица Мостостроителей,432069,54.3528260,48.5054495
68А,улица Мостостроителей,432069,54.3455315,48.5047368
76А,улица Мостостроителей,432069,54.3442529,48.5047262
70А,улица Мостостроителей,432069,54.3451831,48.5047366
80А,улица Мостостроителей,432069,54.3435976,48.5047215
77,улица Мостостроителей,432069,54.3438888,48.5056972
69,улица Мостостроителей,432069,54.3451927,48.5057350
3,проспект Туполева,432059,54.3659948,48.5786521
29,улица Мостостроителей,432069,54.3522298,48.5070207
27,улица Мостостроителей,432069,54.3522472,48.5064813
34,улица Мостостроителей,432069,54.3507517,48.5056247
30А,Заречная улица,432046,54.3233936,48.4757692
2,1-й Рабочий переулок,432007,54.3322172,48.4910085
12,2-й Рабочий переулок,432007,54.3334124,48.4936303
10Б,Краснопролетарская улица,432007,54.3300224,48.4842316
4,1-й Рабочий переулок,432007,54.3326130,48.4912667
14,2-й Рабочий переулок,432007,54.3338431,48.4939304
11А,проезд Менделеева,432010,54.3504317,48.5425375
13Б,улица 40-летия Октября,432010,54.3492244,48.5433957
31,улица Врача Михайлова,432010,54.3529743,48.5421907
49А,улица Врача Михайлова,432010,54.3524612,48.5344749
1,улица Радищева,432011,54.3224933,48.4038465
9,Сиреневый проезд,432010,54.3488650,48.5351299
3,Сиреневый проезд,432010,54.3484982,48.5351078
5,Димитровградское шоссе,432007,54.3276680,48.4939415
13,улица Мостостроителей,432069,54.3537441,48.5066317
14,улица Мостостроителей,432069,54.3538734,48.5054265
1А,улица Мостостроителей,432069,54.3547150,48.5065422
2,улица Мостостроителей,432069,54.3547382,48.5059660
20,улица Мостостроителей,432069,54.3530325,48.5054329
21,улица Мостостроителей,432069,54.3530267,48.5070352
22,улица Мостостроителей,432069,54.3530291,48.5059921
23,улица Мостостроителей,432069,54.3530329,48.5065369
28,улица Мостостроителей,432069,54.3523226,48.5059884
6,улица Мостостроителей,432069,54.3544664,48.5054406
32,улица Тельмана,432046,54.3461263,48.5386316
34,улица Тельмана,432046,54.3458116,48.5378301
36,улица Тельмана,432046,54.3457908,48.5366351
34А,улица Гоголя,432046,54.3419888,48.5404865
10,улица Строителей,432006,54.2888142,48.3699335
40,проспект Гая,432035,54.2715546,48.3323928
11,улица Луначарского,432012,54.2640892,48.3315164
42,проспект Гая,432035,54.2712198,48.3317613
17,улица Луначарского,432012,54.2638195,48.3330476
38,проспект Гая,432035,54.2717861,48.3327980
15,улица Луначарского,432012,54.2648458,48.3322032
14,Хрустальная улица,432012,54.2662972,48.3330957
3,улица Луначарского,432012,54.2638834,48.3277176
13,улица Луначарского,432012,54.2640796,48.3321782
3В с1,Кольцевая улица,432044,54.2631713,48.3353800
36,проспект Гая,432035,54.2720103,48.3332054
31А,проспект Гая,432035,54.2622435,48.3252096
5,улица Луначарского,432012,54.2641164,48.3292867
17,проспект Гая,432012,54.2672576,48.3291682
20,Солнечная улица,432022,54.3586654,48.5422630
66А,улица Мостостроителей,432069,54.3457771,48.5047383
70,улица Мостостроителей,432069,54.3452302,48.5052889
58,улица Мостостроителей,432069,54.3475698,48.5058777
56,улица Мостостроителей,432069,54.3475718,48.5053908
62,улица Мостостроителей,432069,54.3473168,48.5059014
65,улица Мостостроителей,432069,54.3458019,48.5057368
64,улица Мостостроителей,432069,54.3461274,48.5052996
60,улица Мостостроителей,432069,54.3471954,48.5053481
68,улица Мостостроителей,432069,54.3454973,48.5052884
81,улица Мостостроителей,432069,54.3431001,48.5057372
59,улица Мостостроителей,432069,54.3477649,48.5063955
83,улица Мостостроителей,432069,54.3429014,48.5057408
67,улица Мостостроителей,432069,54.3455159,48.5057538
66,улица Мостостроителей,432069,54.3458522,48.5052830
72,улица Мостостроителей,432069,54.3448622,48.5052607
63,улица Мостостроителей,432069,54.3461366,48.5057633
50,Хрустальная улица,432044,54.2586618,48.3299259
7,улица Луначарского,432012,54.2641049,48.3300288
9,улица Луначарского,432012,54.2640986,48.3306977
26А,улица Димитрова,432022,54.3375971,48.5560447
40,улица Гоголя,432046,54.3396340,48.5399417
10А,улица Димитрова,432046,54.3429065,48.5423176
10Б,улица Димитрова,432046,54.3415905,48.5433805
12,улица Димитрова,432046,54.3415926,48.5444652
7,улица Димитрова,432046,54.3399834,48.5443140
2,Почтовая улица,432031,54.3314661,48.4698526
4,Офицерская улица,432031,54.3299623,48.4695667
12,улица Металлистов,432031,54.3314354,48.4776729
16,улица Академика Сахарова,432031,54.3335222,48.4789836
6,Пионерская улица,432031,54.3333724,48.4796554
3,Ленинградская улица,432031,54.3338138,48.4777092
1А,Краснопролетарская улица,432031,54.3288038,48.4814861
13Б,Краснопролетарская улица,432007,54.3323749,48.4845552
10А к1,Краснопролетарская улица,432007,54.3284550,48.4833218
10А,Краснопролетарская улица,432007,54.3281327,48.4835013
26,улица Металлистов,432007,54.3288092,48.4870412
26А,улица Металлистов,432007,54.3294751,48.4869248
2А,Краснопролетарская улица,432031,54.3261928,48.4823514
28,улица Металлистов,432007,54.3281717,48.4899281
28А,Почтовая улица,432007,54.3277289,48.4883504
15А,Краснопролетарская улица,432007,54.3336817,48.4856965
10,2-й Рабочий переулок,432007,54.3330561,48.4934581
11,1-й Рабочий переулок,432007,54.3340975,48.4928792
2,2-й Рабочий переулок,432007,54.3318460,48.4926594
3,1-й Рабочий переулок,432007,54.3325070,48.4919590
4,2-й Рабочий переулок,432007,54.3321160,48.4928491
5,2-й Рабочий переулок,432007,54.3324073,48.4925774
6,2-й Рабочий переулок,432007,54.3324916,48.4930726
7А,1-й Рабочий переулок,432007,54.3330670,48.4927103
8,2-й Рабочий переулок,432007,54.3327573,48.4932653
34,Оренбургская улица,432057,54.3563551,48.5334603
32,улица Мостостроителей,432069,54.3513444,48.5060133
37,улица Мостостроителей,432069,54.3503292,48.5070286
38,улица Мостостроителей,432069,54.3494659,48.5054181
44,улица Мостостроителей,432069,54.3494647,48.5059897
45,улица Мостостроителей,432069,54.3495118,48.5070057
1,улица Академика Сахарова,432031,54.3360556,48.4702423
2,улица Академика Сахарова,432031,54.3352060,48.4715811
3,улица Академика Сахарова,432031,54.3362238,48.4715003
5,улица Академика Сахарова,432031,54.3359683,48.4717870
7,улица Академика Сахарова,432031,54.3356235,48.4731760
34,улица Врача Михайлова,432057,54.3545522,48.5399068
32Б,улица Врача Михайлова,432057,54.3539625,48.5394271
38А,улица Врача Михайлова,432057,54.3555264,48.5384093
42А,улица Врача Михайлова,432057,54.3532834,48.5382008
48,улица Врача Михайлова,432057,54.3543799,48.5341821
1,проезд Менделеева,432010,54.3502019,48.5364087
11,Сиреневый проезд,432010,54.3510250,48.5348582
3,проезд Менделеева,432010,54.3504166,48.5374988
31,улица 40-летия Октября,432010,54.3514137,48.5423762
31А,улица 40-летия Октября,432010,54.3514476,48.5431181
41,улица Врача Михайлова,432010,54.3528508,48.5395470
5,проезд Менделеева,432010,54.3510385,48.5374152
54А,Оренбургская улица,432010,54.3495158,48.5292770
56,Оренбургская улица,432010,54.3490993,48.5301773
7,проезд Менделеева,432010,54.3505779,48.5412836
8,Сиреневый проезд,432010,54.3499451,48.5350828
9А,проезд Менделеева,432010,54.3511532,48.5411759
10,проезд Менделеева,432010,54.3496265,48.5388078
12,проезд Менделеева,432010,54.3496717,48.5400992
7,улица Тельмана,432010,54.3485380,48.5386031
9,улица Тельмана,432010,54.3485816,48.5400717
12,улица Тельмана,432046,54.3475435,48.5391079
18А,улица Тельмана,432046,54.3473409,48.5417262
24А,улица Тельмана,432046,54.3458745,48.5414478
44Б,улица Тельмана,432046,54.3452684,48.5408727
46А,улица Тельмана,432046,54.3458362,48.5422032
43,Садовая улица,432046,54.3417086,48.5336437
37,Садовая улица,432046,54.3411598,48.5337159
34,Садовая улица,432046,54.3415164,48.5343866
28,Тихая улица,432046,54.3402155,48.5328236
30,Тихая улица,432046,54.3403990,48.5328121
45,Новая улица,432046,54.3410046,48.5302903
43,Новая улица,432046,54.3408341,48.5302613
44,Новая улица,432046,54.3412607,48.5309575
31,Садовая улица,432046,54.3406127,48.5337534
39,Тихая улица,432046,54.3406666,48.5320382
38,Тихая улица,432046,54.3411278,48.5326994
40,Тихая улица,432046,54.3413063,48.5326937
38,Тенистая улица,432046,54.3411257,48.5294042
36,Тенистая улица,432046,54.3408451,48.5294249
36,Тихая улица,432046,54.3409427,48.5328236
45,Тихая улица,432046,54.3412895,48.5320238
28,Садовая улица,432046,54.3404952,48.5344726
40,Новая улица,432046,54.3408474,48.5309986
38,Новая улица,432046,54.3406719,48.5310245
23,Тенистая улица,432046,54.3405190,48.5288180
42,Тихая улица,432046,54.3414864,48.5326886
41,Садовая улица,432046,54.3415234,48.5336726
39,Садовая улица,432046,54.3413332,48.5336899
25,Садовая улица,432046,54.3401834,48.5333874
41,Новая улица,432046,54.3404946,48.5303168
29,Садовая улица,432046,54.3404444,48.5337939
27,Садовая улица,432046,54.3401210,48.5338591
47,Новая улица,432046,54.3411954,48.5302791
42,Новая улица,432046,54.3410056,48.5310176
35,Тихая улица,432046,54.3403097,48.5321306
37,Тихая улица,432046,54.3404781,48.5320671
34,Тенистая улица,432046,54.3406599,48.5294184
34,Тихая улица,432046,54.3407215,48.5327926
32,Тихая улица,432046,54.3405504,48.5327919
43,Тихая улица,432046,54.3410337,48.5320687
39,Новая улица,432046,54.3403489,48.5303781
36,Новая улица,432046,54.3404629,48.5310799
31А,Тихая улица,432046,54.3402637,48.5316110
32,Садовая улица,432046,54.3411800,48.5344061
30,Садовая улица,432046,54.3408989,48.5343945
35,Садовая улица,432046,54.3409764,48.5337332
44,Тихая улица,432046,54.3416480,48.5326619
33,Садовая улица,432046,54.3408063,48.5337564
25,Тенистая улица,432046,54.3408163,48.5288155
27,Тенистая улица,432046,54.3411043,48.5287394
1,улица Карла Либкнехта,432063,54.3093850,48.3810036
6,Дворцовая улица,432000,54.3178259,48.3991532
3,Московское шоссе,432045,54.2921440,48.2775613
23,проспект Генерала Тюленева,432064,54.3819109,48.5849457
2,Садовая улица,432046,54.3371516,48.5352488
12,Ульяновский проспект,432067,54.3737639,48.5838058
2,проспект Генерала Тюленева,432059,54.3736787,48.5989344
138,Красноармейская улица,432011,54.3318319,48.3980202
29,улица Пушкарёва,432049,54.3198526,48.3557462
20,улица Гончарова,432000,54.3144505,48.3966196
100,улица Ленина,432063,54.3129147,48.3875896
35,улица Гончарова,432011,54.3219606,48.4014744
33,улица Гончарова,432011,54.3216593,48.4010215
2,улица Димитрова,432046,54.3393829,48.5424032
4,Ульяновский проспект,432067,54.3715375,48.5867017
12,улица 40-летия Победы,432067,54.3730595,48.5879675
35,проспект Ленинского Комсомола,432072,54.3769346,48.5874775
26,улица Академика Павлова,432022,54.3334548,48.5411268
61,Красноармейская улица,432011,54.3288320,48.3978960
84,Красноармейская улица,432071,54.3289928,48.3986041
30,улица Орлова,432011,54.3274790,48.3978435
68,Красноармейская улица,432011,54.3274993,48.3990129
32,улица Орлова,432011,54.3274414,48.3981744
31,улица Гагарина,432002,54.3319884,48.3867316
28,Ульяновский проспект,432072,54.3803885,48.5750981
136,Красноармейская улица,432011,54.3315680,48.3980799
1,улица Рылеева,432071,54.3277816,48.3987613
104,Красноармейская улица,432011,54.3308243,48.3981716
120,Красноармейская улица,432011,54.3309838,48.3981730
126,Красноармейская улица,432011,54.3313817,48.3983938
92А,Красноармейская улица,432011,54.3298271,48.3986489
94,Красноармейская улица,432011,54.3299636,48.3983643
98,Красноармейская улица,432071,54.3303462,48.3986334
14,улица Артёма,432049,54.3189021,48.3624294
48,улица Пушкарёва,432049,54.3139394,48.3569990
51,проспект Нариманова,432030,54.3465567,48.3707227
72,проспект Нариманова,432002,54.3431395,48.3768707
74,проспект Нариманова,432002,54.3435317,48.3765016
76,проспект Нариманова,432002,54.3439423,48.3761117
1А,Новосондецкий бульвар,432067,54.3747659,48.5891590
4А,Новосондецкий бульвар,432072,54.3767837,48.5912098
6,улица 40-летия Победы,432072,54.3750670,48.5943269
9,улица 40-летия Победы,432059,54.3713679,48.5909386
17,Верхнеполевая улица,432002,54.3296414,48.3865689
21,Верхнеполевая улица,432002,54.3306964,48.3862540
44,улица Минаева,432017,54.3069298,48.3861189
3,улица Минаева,432017,54.3075219,48.3812353
11,Железнодорожная улица,432048,54.3006211,48.3738450
85,улица 12 Сентября,432048,54.3023108,48.3784703
63,улица Радищева,432011,54.3295430,48.4016482
2А,улица Ульяны Громовой,432027,54.3560755,48.3846915
37,улица Полбина,432034,54.3038929,48.3339649
4,проспект 50-летия ВЛКСМ,432034,54.3065792,48.3318907
2,проезд Караганова,432034,54.3047339,48.3285975
4,улица Шигаева,432018,54.2651869,48.2776556
41,Кузоватовская улица,432045,54.2838893,48.2895625
28,Промышленная улица,432045,54.2868043,48.2948133
17,улица Богдана Хмельницкого,432042,54.2914824,48.3028583
13,улица Богдана Хмельницкого,432042,54.2914608,48.3017975
79,улица Жуковского,432010,54.3491772,48.5468960
81,улица Жуковского,432010,54.3491896,48.5472804
25,улица Гагарина,432002,54.3297281,48.3871757
20,проспект Генерала Тюленева,432064,54.3832602,48.5883386
21А,улица Карбышева,432064,54.3816666,48.5902047
24,проспект Генерала Тюленева,432064,54.3841145,48.5872778
26,проспект Генерала Тюленева,432064,54.3850998,48.5857144
23Б,проспект Созидателей,432059,54.3649080,48.5832284
25,Портовая улица,432048,54.2984200,48.3941846
43,улица Льва Толстого,432000,54.3110890,48.3816090
69,улица Льва Толстого,432000,54.3117061,48.3868008
67,улица Льва Толстого,432000,54.3116727,48.3863169
71,улица Льва Толстого,432000,54.3118645,48.3872018
24,2-й переулок Мира,432011,54.3208925,48.3978726
2В,Железнодорожная улица,432011,54.3028066,48.3712696
7,Водопроводная улица,432048,54.3009225,48.3668426
7,Водопроводная улица,432048,54.3013323,48.3666044
2А,Водопроводная улица,432048,54.3013223,48.3681362
2,Транспортная улица,432048,54.3016425,48.3693971
2,Водопроводная улица,432048,54.3018766,48.3684661
5,улица Университетская Набережная,432048,54.3021486,48.3666992
4,Транспортная улица,432048,54.3007237,48.3684315
106А,улица Рябикова,432066,54.2699165,48.2846658
22Ж,Октябрьская улица,432028,54.2951267,48.3266530
6Б,улица Шигаева,432018,54.2656556,48.2764154
134,улица Рябикова,432066,54.2634389,48.2781264
6В,улица Шигаева,432018,54.2650566,48.2756124
6А,улица Шигаева,432018,54.2658469,48.2764577
1,Тихая улица,432046,54.3368840,48.5327508
1,улица Гусева,432010,54.3375066,48.5384190
32,Тенистая улица,432046,54.3404686,48.5294289
14,улица Карбышева,432072,54.3817150,48.5932801
1А,проспект Врача Сурова,432064,54.3825262,48.5949867
12,проспект Ленинского Комсомола,432064,54.3814411,48.5943642
3,проспект Врача Сурова,432064,54.3832799,48.5940089
30,улица Карбышева,432064,54.3863650,48.5873022
20А,улица Карбышева,432064,54.3844816,48.5897601
24 с1,улица Карла Либкнехта,432017,54.3091838,48.3879896
5,улица Минаева,432019,54.3081069,48.3829817
103,улица Ленина,432000,54.3153554,48.3997433
2В,9-й Инженерный проезд,432072,54.3466237,48.5680697
108,улица 12 Сентября,432017,54.3078239,48.3793486
7,улица Университетская Набережная,432048,54.3027420,48.3661140
9,улица Университетская Набережная,432048,54.3024459,48.3658911
11,улица Университетская Набережная,432048,54.3021521,48.3656777
13,улица Университетская Набережная,432048,54.3016753,48.3653185
2,улица Карла Либкнехта,432017,54.3086729,48.3797899
4,улица Карла Либкнехта,432017,54.3081683,48.3804590
20,улица Александра Матросова,432000,54.3126236,48.3924727
91,улица Льва Толстого,432000,54.3123133,48.3918813
2,Тенистая улица,432046,54.3368883,48.5296718
83,улица 12 Сентября,432048,54.3017646,48.3784455
89,улица 12 Сентября,432048,54.3034109,48.3784761
87,улица 12 Сентября,432048,54.3028624,48.3784829
91,улица 12 Сентября,432048,54.3039507,48.3784930
13,улица Железной Дивизии,432000,54.3122338,48.3870754
15,улица Железной Дивизии,432000,54.3124822,48.3869709
30А,улица Орлова,432011,54.3274264,48.3974626
31,улица Гончарова,432011,54.3212745,48.4003995
22,улица Карла Либкнехта,432017,54.3083775,48.3865896
1 к1,проспект Туполева,432059,54.3646537,48.5793664
1 к3,проспект Туполева,432059,54.3658684,48.5795943
5,улица Железной Дивизии,432000,54.3096722,48.3878154
59,улица Ленина,432000,54.3134855,48.3880678
36,улица Льва Толстого,432000,54.3112252,48.3869282
6,улица Карла Либкнехта,432017,54.3082122,48.3810983
8,улица Карла Либкнехта,432017,54.3082537,48.3817568
10,улица Карла Либкнехта,432017,54.3088677,48.3822244
16,улица Карла Либкнехта,432017,54.3085027,48.3847383
20,улица Карла Либкнехта,432017,54.3091393,48.3858511
14,улица Карла Либкнехта,432017,54.3084501,48.3840934
12,улица Карла Либкнехта,432017,54.3089552,48.3834074
18,улица Карла Либкнехта,432017,54.3085536,48.3853733
144,улица Ленина,432000,54.3148439,48.3988071
121,улица Карла Маркса,432071,54.3263205,48.3642598
62,улица Карла Маркса,432001,54.3255890,48.3602293
9,улица Можайского,432001,54.3242563,48.3902986
31,улица Карла Маркса,432071,54.3216032,48.3906865
10,Хрустальный переулок,432012,54.2723613,48.3328623
48,проспект Гая,432035,54.2703389,48.3305057
69,Красноармейская улица,432011,54.3305088,48.3974984
105,улица Федерации,432011,54.3304712,48.3950617
102,Красноармейская улица,432011,54.3306159,48.3983275
2,улица 3 Интернационала,432048,54.3061329,48.3885828
4,улица 3 Интернационала,432048,54.3059342,48.3876628
41,Красноармейская улица,432063,54.3265646,48.3987609
23,Верхнеполевая улица,432002,54.3312957,48.3860186
21,улица Железной Дивизии,432099,54.3142157,48.3861368
30,улица Гагарина,432071,54.3327087,48.3875231
4,улица Федерации,432001,54.3203520,48.3945437
31,Оренбургская улица,432057,54.3590040,48.5314091
104,Московское шоссе,432049,54.3063782,48.3567451
1,Верхнеполевая улица,432002,54.3253629,48.3864789
11А,переулок Гоголя,432071,54.3295707,48.4000488
12,переулок Гоголя,432071,54.3287400,48.4003264
15,переулок Гоголя,432071,54.3295812,48.4003754
21,переулок Гоголя,432071,54.3296767,48.4010080
23,переулок Гоголя,432071,54.3294648,48.4013695
2А,переулок Радищева,432011,54.3307275,48.4005965
3,переулок Гоголя,432071,54.3290193,48.3989227
4,переулок Гоголя,432071,54.3287061,48.3991445
4,переулок Радищева,432011,54.3307384,48.4001200
6,переулок Гоголя,432071,54.3287291,48.3994594
6,переулок Радищева,432011,54.3306839,48.3998819
82,Красноармейская улица,432071,54.3285850,48.3987262
65,улица Радищева,432011,54.3297661,48.4014243
67,улица Радищева,432011,54.3299726,48.4014841
7,переулок Радищева,432011,54.3298922,48.3995073
73,улица Радищева,432011,54.3304361,48.4011343
75,улица Радищева,432011,54.3307358,48.4009929
79,улица Радищева,432011,54.3309886,48.4009257
8,переулок Гоголя,432071,54.3288228,48.3997872
8,переулок Радищева,432011,54.3307212,48.3993890
81,улица Радищева,432011,54.3311932,48.4008015
83,улица Радищева,432011,54.3315445,48.4005943
96,улица Радищева,432011,54.3310869,48.4016413
5,переулок Радищева,432011,54.3301830,48.3994095
18,переулок Гоголя,432071,54.3291540,48.4017666
7А,Заречная улица,432031,54.3222544,48.4754488
63,Красноармейская улица,432011,54.3294644,48.3975050
65,Красноармейская улица,432011,54.3297321,48.3976411
86,Красноармейская улица,432011,54.3292182,48.3985323
90,Красноармейская улица,432011,54.3294624,48.3986420
92,Красноармейская улица,432011,54.3296645,48.3985608
12,улица Гагарина,432002,54.3263338,48.3887086
81,Локомотивная улица,432012,54.2730888,48.3312783
8,улица Кролюницкого,432002,54.3323598,48.3889286
6,улица Кролюницкого,432002,54.3322581,48.3880997
28,улица Гагарина,432002,54.3319774,48.3875885
74,улица Радищева,432071,54.3289818,48.4030953
18,Краснодонская улица,432031,54.3231324,48.4792567
19,улица Марата,432071,54.3223830,48.3929055
29,улица Орлова,432071,54.3287397,48.3931574
17,улица Александра Матросова,432000,54.3125235,48.3918173
19,улица Александра Матросова,432000,54.3127308,48.3917287
21,улица Александра Матросова,432000,54.3129873,48.3915252
22,улица Александра Матросова,432000,54.3129603,48.3925086
23,улица Александра Матросова,432000,54.3131702,48.3915734
24,улица Александра Матросова,432000,54.3132189,48.3921809
25,улица Александра Матросова,432000,54.3135130,48.3912071
28,улица Александра Матросова,432000,54.3135915,48.3919322
5В,Московское шоссе,432045,54.2938164,48.2751040
13А,Ульяновский проспект,432067,54.3764667,48.5780507
7,улица Федерации,432001,54.3212601,48.3948606
23,Балтийская улица,432022,54.3305187,48.5374848
14,Балтийская улица,432022,54.3334346,48.5405192
17,Балтийская улица,432022,54.3305856,48.5350615
42,улица Жуковского,432046,54.3441024,48.5495253
28А,Красноармейская улица,432063,54.3256262,48.4016115
28Б,Красноармейская улица,432063,54.3255807,48.4012437
30,Красноармейская улица,432063,54.3258833,48.4020083
38,Красноармейская улица,432063,54.3256560,48.4008509
30А,улица Калинина,432007,54.3327013,48.4989467
92,Московское шоссе,432034,54.3092927,48.3315664
6,улица Ульяны Громовой,432027,54.3581229,48.3827424
61А,улица Любови Шевцовой,432027,54.3568397,48.3878718
4,улица Ульяны Громовой,432027,54.3570682,48.3836860
59А,улица Любови Шевцовой,432027,54.3561342,48.3868495
10,улица Корюкина,432071,54.3233869,48.4088292
12,улица Корюкина,432071,54.3237836,48.4075853
14,улица Корюкина,432071,54.3240473,48.4076361
21,Пролетарская улица,432071,54.3231019,48.4088574
5,переулок Гоголя,432071,54.3291127,48.3993422
72,улица Радищева,432071,54.3287440,48.4026272
78,улица Радищева,432071,54.3291033,48.4024584
8,улица Корюкина,432071,54.3234986,48.4075431
83,проспект Нариманова,432030,54.3574211,48.3509999
85,проспект Нариманова,432030,54.3567068,48.3508015
89,проспект Нариманова,432030,54.3569321,48.3524252
91,проспект Нариманова,432030,54.3579700,48.3496464
6,Мелекесская улица,432010,54.3416684,48.5612455
4 к2,Мелекесская улица,432046,54.3407467,48.5613544
120,улица 12 Сентября,432063,54.3133502,48.3796355
22,улица Артёма,432061,54.3193426,48.3615942
13,проспект Нариманова,432030,54.3380884,48.3798496
1 с2,проспект Нариманова,432030,54.3334955,48.3842946
10,улица Кролюницкого,432002,54.3322123,48.3895584
11,проспект Нариманова,432030,54.3377912,48.3805648
15,проспект Нариманова,432030,54.3386115,48.3798033
17,проспект Нариманова,432030,54.3389478,48.3794980
19,проспект Нариманова,432030,54.3392263,48.3791857
1А,проспект Нариманова,432030,54.3350932,48.3829396
1Б,проспект Нариманова,432030,54.3348129,48.3830381
1В,проспект Нариманова,432030,54.3355616,48.3825314
23,проспект Нариманова,432030,54.3400144,48.3785032
27,проспект Нариманова,432030,54.3406842,48.3778925
29,проспект Нариманова,432030,54.3409814,48.3776149
31,проспект Нариманова,432030,54.3415219,48.3770629
52,проспект Нариманова,432030,54.3385405,48.3812018
33,проспект Нариманова,432030,54.3420018,48.3766228
35,проспект Нариманова,432030,54.3424555,48.3759301
37,проспект Нариманова,432030,54.3430365,48.3756439
39,проспект Нариманова,432030,54.3434976,48.3751915
41,проспект Нариманова,432030,54.3442140,48.3743142
45,проспект Нариманова,432030,54.3453492,48.3725735
47,проспект Нариманова,432030,54.3458223,48.3718393
5,проспект Нариманова,432030,54.3366132,48.3816558
51А,проспект Нариманова,432030,54.3463003,48.3712733
7,проспект Нариманова,432030,54.3371422,48.3812135
9,проспект Нариманова,432030,54.3374696,48.3808495
25,проспект Нариманова,432030,54.3402320,48.3777861
1 с1,проспект Нариманова,432030,54.3332312,48.3844471
41Б,Оренбургская улица,432057,54.3670492,48.5303456
2,Заречная улица,432031,54.3227257,48.4774592
9,1-й переулок Воровского,432023,54.2497831,48.3061439
12,улица Кролюницкого,432002,54.3317046,48.3896355
112,улица Федерации,432027,54.3354306,48.3952338
7,переулок Гоголя,432071,54.3291463,48.3995020
86,улица Радищева,432011,54.3300840,48.4024364
9,переулок Гоголя,432071,54.3292170,48.3998313
90,улица Радищева,432011,54.3304518,48.4023336
92,улица Радищева,432011,54.3306574,48.4017276
106,улица Ленина,432071,54.3131327,48.3884208
108,улица Ленина,432071,54.3131966,48.3887668
116,улица Ленина,432071,54.3133683,48.3895184
118,улица Ленина,432071,54.3134407,48.3900739
120,улица Ленина,432071,54.3135707,48.3906944
126,улица Ленина,432071,54.3138297,48.3924689
132,улица Ленина,432071,54.3141801,48.3942432
8,Спасская улица,432000,54.3136889,48.4011944
138,улица Ленина,432000,54.3145366,48.3969912
53Б,Волжская улица,432046,54.3446133,48.5567866
1А,улица Энтузиастов,432071,54.3329203,48.3637045
30,улица Гончарова,432000,54.3168663,48.3965127
30,Заводской проезд,432031,54.3262787,48.4775913
3Б,улица Энтузиастов,432071,54.3334119,48.3637709
1 к31/1,улица Антонова,432072,54.3630708,48.6080041
32,Кольцевая улица,432044,54.2580358,48.3391520
31,улица Ефремова,432042,54.2905903,48.2976551
11,улица Станкостроителей,432042,54.2903004,48.2969497
21,улица Полбина,432034,54.3048207,48.3275134
57А,улица Полбина,432032,54.3051189,48.3418940
6,улица Пушкарёва,432005,54.3069739,48.3528070
2,проспект 50-летия ВЛКСМ,432034,54.3073563,48.3320631
4,улица Гончарова,432063,54.3094289,48.3973031
83/1,проспект Нариманова,432030,54.3575668,48.3515659
91/1,проспект Нариманова,432030,54.3580469,48.3502775
13,улица Белинского,432071,54.3345272,48.3661788
5,проспект Туполева,432072,54.3667126,48.5777952
87Б,проспект Гая,432035,54.2334709,48.3054491
85,проспект Гая,432035,54.2338584,48.3036257
32,улица Калинина,432007,54.3324746,48.4983011
34,улица Калинина,432007,54.3322272,48.4981466
36,улица Калинина,432007,54.3320337,48.4980495
38,улица Калинина,432007,54.3317937,48.4978968
40,улица Калинина,432007,54.3316148,48.4977437
42,улица Калинина,432007,54.3314296,48.4976199
46,улица Калинина,432007,54.3311827,48.4974301
50,улица Калинина,432007,54.3308881,48.4972612
52,улица Калинина,432007,54.3305949,48.4975564
54,улица Калинина,432007,54.3304260,48.4974502
54А,улица Калинина,432007,54.3305207,48.4970436
56,улица Калинина,432007,54.3307445,48.4971508
58,улица Калинина,432007,54.3303657,48.4969052
60,улица Калинина,432007,54.3302652,48.4968605
62,улица Калинина,432007,54.3300879,48.4967743
18,улица Калинина,432007,54.3343000,48.4996235
20,улица Калинина,432007,54.3340873,48.4994966
22,улица Калинина,432007,54.3338683,48.4993264
24,улица Калинина,432007,54.3336577,48.4991940
24/1,улица Калинина,432007,54.3333898,48.4990036
26,улица Калинина,432007,54.3331625,48.4988310
28,улица Калинина,432007,54.3330012,48.4987032
30,улица Калинина,432007,54.3327609,48.4985211
48,улица Калинина,432007,54.3310017,48.4973150
11,улица Свердлова,432007,54.3345869,48.5016859
1,Тенистая улица,432046,54.3373456,48.5289375
1,улица Нахимова,432046,54.3384527,48.5282027
10,Тенистая улица,432046,54.3377947,48.5294088
11,Тенистая улица,432046,54.3388360,48.5285055
11,улица Нахимова,432046,54.3386081,48.5274304
12,Тенистая улица,432046,54.3380472,48.5293576
13,Тенистая улица,432046,54.3388524,48.5279644
14,Тенистая улица,432046,54.3382759,48.5293449
16,Тенистая улица,432046,54.3384797,48.5293013
18,Тенистая улица,432046,54.3387047,48.5292473
2,улица Нахимова,432046,54.3378776,48.5272318
20,Тенистая улица,432046,54.3389897,48.5292398
22,Тенистая улица,432046,54.3391796,48.5292181
24,Тенистая улица,432046,54.3394364,48.5291130
26,Тенистая улица,432046,54.3396279,48.5291787
28,Тенистая улица,432046,54.3398951,48.5291996
3,Тенистая улица,432046,54.3377423,48.5288344
3,улица Нахимова,432046,54.3374325,48.5274766
30,Тенистая улица,432046,54.3401238,48.5292322
4,Тенистая улица,432046,54.3371444,48.5295038
4,улица Нахимова,432046,54.3369300,48.5269328
5,Тенистая улица,432046,54.3379784,48.5287788
5,улица Нахимова,432046,54.3364716,48.5267831
6,Тенистая улица,432046,54.3373788,48.5294778
6,улица Нахимова,432046,54.3362792,48.5272662
7,Тенистая улица,432046,54.3382934,48.5286803
8,Тенистая улица,432046,54.3376007,48.5294260
9,Тенистая улица,432046,54.3385562,48.5287510
33,Новая улица,432046,54.3395886,48.5301796
34,Новая улица,432046,54.3402400,48.5310597
35,Новая улица,432046,54.3398032,48.5301411
37,Новая улица,432046,54.3400302,48.5301467
17,Тихая улица,432046,54.3384873,48.5324452
18,Тихая улица,432046,54.3389008,48.5330408
19,Тихая улица,432046,54.3386723,48.5324092
20,Тихая улица,432046,54.3391987,48.5329569
21,Тихая улица,432046,54.3388270,48.5323163
22,Тихая улица,432046,54.3393901,48.5328988
23,Тихая улица,432046,54.3390127,48.5323311
24,Тихая улица,432046,54.3395819,48.5328717
25,Тихая улица,432046,54.3392085,48.5323178
26,Тихая улица,432046,54.3397344,48.5328127
26А,Тихая улица,432046,54.3398832,48.5327870
27,Тихая улица,432046,54.3394020,48.5322656
29,Тихая улица,432046,54.3395696,48.5322147
33,Тихая улица,432046,54.3399555,48.5321232
41,Тихая улица,432046,54.3408600,48.5320719
10,Тихая улица,432046,54.3380803,48.5331876
11,Тихая улица,432046,54.3379070,48.5325823
12,Тихая улица,432046,54.3382999,48.5331214
13,Тихая улица,432046,54.3380871,48.5325404
14,Тихая улица,432046,54.3385330,48.5331051
15,Тихая улица,432046,54.3382670,48.5324916
16,Тихая улица,432046,54.3387309,48.5330828
2,Тихая улица,432046,54.3369934,48.5334375
3,Тихая улица,432046,54.3371717,48.5327163
4,Тихая улица,432046,54.3372949,48.5333495
5,Тихая улица,432046,54.3373692,48.5327044
6,Тихая улица,432046,54.3376231,48.5332799
7,Тихая улица,432046,54.3375604,48.5326901
8,Тихая улица,432046,54.3378163,48.5332358
9,Тихая улица,432046,54.3377351,48.5326180
30,Новая улица,432046,54.3395967,48.5307303
32,Новая улица,432046,54.3400233,48.5307129
28,Новая улица,432046,54.3395084,48.5307615
39,улица Свердлова,432007,54.3304232,48.4988522
41,улица Свердлова,432007,54.3294161,48.4983768
43,улица Свердлова,432007,54.3292521,48.4980805
45,улица Свердлова,432007,54.3290381,48.4979232
47,улица Свердлова,432007,54.3288337,48.4977676
49,улица Свердлова,432007,54.3286187,48.4976411
50,улица Свердлова,432007,54.3305347,48.4983363
51,улица Свердлова,432007,54.3283963,48.4974840
52,улица Свердлова,432007,54.3302669,48.4981618
53,улица Свердлова,432007,54.3282254,48.4973732
54,улица Свердлова,432007,54.3300574,48.4979874
56,улица Свердлова,432007,54.3293931,48.4975273
58,улица Свердлова,432007,54.3291382,48.4973845
60,улица Свердлова,432007,54.3289771,48.4972852
62,улица Свердлова,432007,54.3288020,48.4971460
64,улица Свердлова,432007,54.3286112,48.4970466
66,улица Свердлова,432007,54.3284072,48.4969234
23,улица Аблукова,432005,54.3089100,48.3561847
8А,проспект 50-летия ВЛКСМ,432034,54.3060402,48.3338875
63,Московское шоссе,432034,54.3069913,48.3367863
61,Московское шоссе,432034,54.3071008,48.3361222
59,Московское шоссе,432034,54.3071494,48.3354414
2,улица Терешковой,432034,54.3067301,48.3382716
4,улица Терешковой,432034,54.3064126,48.3370975
55,Московское шоссе,432034,54.3071383,48.3347675
6,проспект 50-летия ВЛКСМ,432034,54.3064688,48.3332978
47,Московское шоссе,432034,54.3075379,48.3328190
57А,Московское шоссе,432034,54.3066865,48.3354390
49,Московское шоссе,432034,54.3072278,48.3334762
8,проспект 50-летия ВЛКСМ,432034,54.3061577,48.3325256
51,Московское шоссе,432034,54.3076013,48.3342164
65,Московское шоссе,432034,54.3073558,48.3376275
50,улица Розы Люксембург,432027,54.3566712,48.3772374
42,улица Минаева,432017,54.3066831,48.3857744
3,Комсомольский переулок,432063,54.3140652,48.3883230
3,Комсомольский переулок,432063,54.3142246,48.3881091
17,Локомотивная улица,432006,54.2827942,48.3554387
2,улица Станкостроителей,432045,54.2961342,48.2859370
72А,Московское шоссе,432045,54.3059143,48.3088268
72,Московское шоссе,432045,54.3065944,48.3075879
49,улица Ефремова,432045,54.2873326,48.2926114
55,улица Ефремова,432045,54.2861384,48.2922700
59,улица Ефремова,432045,54.2862739,48.2895446
42Е,Московское шоссе,432045,54.3063619,48.2898833
59,улица Любови Шевцовой,432027,54.3562279,48.3827813
5,улица Ульяны Громовой,432027,54.3571381,48.3818585
164,улица Радищева,432027,54.3463354,48.3919411
47,улица Тимирязева,432027,54.3447817,48.3868241
14,улица Маяковского,432030,54.3423634,48.3706143
100Д,улица Урицкого,432071,54.3302317,48.3548995
13,улица Урицкого,432002,54.3355981,48.3784828
11Б,улица Урицкого,432071,54.3357328,48.3791834
146,Локомотивная улица,432035,54.2600195,48.3184420
60,Профсоюзная улица,432023,54.2395054,48.3000536
1,проезд Энергетиков,432035,54.2453484,48.3156299
39А,улица Карла Маркса,432001,54.3243229,48.3827597
100,улица Робеспьера,432001,54.3192829,48.3820252
89,улица Робеспьера,432001,54.3219550,48.3816863
99,улица Воробьёва,432001,54.3188840,48.3823330
3В,улица Энтузиастов,432071,54.3334099,48.3629509
3Д,улица Энтузиастов,432071,54.3337456,48.3623480
5,улица Энтузиастов,432071,54.3341247,48.3634150
16,улица Энтузиастов,432002,54.3355227,48.3648899
3,улица Урицкого,432002,54.3365809,48.3809512
38,улица Маяковского,432025,54.3395426,48.3638272
23,улица Маяковского,432030,54.3405161,48.3677791
84,улица Радищева,432011,54.3297570,48.4022682
96,проспект Нариманова,432030,54.3479053,48.3701368
102,проспект Нариманова,432030,54.3493331,48.3679224
106,проспект Нариманова,432030,54.3504034,48.3662647
100,проспект Нариманова,432030,54.3487926,48.3687633
104,проспект Нариманова,432030,54.3498693,48.3670942
63,проспект Нариманова,432030,54.3500338,48.3649064
54,улица Ватутина,432030,54.3471390,48.3685258
4Б,улица Кузнецова,432000,54.3096915,48.3983946
2,Пушкинская улица,432017,54.2989690,48.3741072
95,проспект Гая,432035,54.2355022,48.3136322
8А,Московское шоссе,432045,54.2967397,48.2610964
5,Автозаводская улица,432008,54.3052338,48.3190141
15,улица Богдана Хмельницкого,432042,54.2919569,48.3026670
5,улица Лихачёва,432008,54.3045503,48.3162909
4,Автозаводская улица,432008,54.3052833,48.3180230
11,улица Богдана Хмельницкого,432042,54.2920694,48.3010079
1,улица Полбина,432008,54.3052697,48.3164194
2,улица Полбина,432008,54.3049247,48.3165373
3,улица Полбина,432008,54.3052131,48.3173130
7,улица Полбина,432008,54.3051222,48.3200618
3,Автозаводская улица,432008,54.3056754,48.3190982
3А,Автозаводская улица,432008,54.3055629,48.3201656
13,Октябрьский переулок,432008,54.2970756,48.3179921
63 к2,улица Крымова,432001,54.3199258,48.3841613
10,улица Крымова,432001,54.3169697,48.3831249
63,улица Крымова,432001,54.3196880,48.3829306
9 к3,Отрадная улица,432073,54.2660113,48.2959021
123,улица Карла Маркса,432071,54.3263617,48.3631227
9,улица Гагарина,432002,54.3251313,48.3879221
13,улица Можайского,432001,54.3243554,48.3892800
11,улица Можайского,432001,54.3243086,48.3897654
29,улица Крымова,432001,54.3169706,48.3823999
31,улица Крымова,432001,54.3171923,48.3826729
101,улица Шевченко,432001,54.3163965,48.3841902
95,улица Шевченко,432001,54.3159590,48.3829236
4,улица Крымова,432001,54.3161956,48.3824789
8,улица Крымова,432001,54.3166912,48.3828428
6,улица Крымова,432001,54.3164338,48.3825819
3,улица Крымова,432001,54.3155673,48.3805928
1,улица Крымова,432001,54.3153521,48.3808561
28,Ленинградская улица,432031,54.3265612,48.4713760
36Б,улица Розы Люксембург,432027,54.3528201,48.3805305
59Б,улица Любови Шевцовой,432027,54.3553574,48.3856556
2,Автозаводская улица,432008,54.3058031,48.3178344
1,Автозаводская улица,432008,54.3061057,48.3193306
27,Московское шоссе,432008,54.3063248,48.3201277
29,Московское шоссе,432008,54.3064353,48.3210304
27А,Московское шоссе,432008,54.3059551,48.3202878
4,улица Мира,432011,54.3219220,48.4004328
4А,улица Мира,432011,54.3218429,48.4005827
6,улица Мира,432011,54.3220359,48.4006241
8,улица Мира,432011,54.3220069,48.4001825
12,улица Воробьёва,432011,54.3160158,48.3750776
8,улица Артёма,432049,54.3166584,48.3627568
60А,улица Пушкарёва,432049,54.3169202,48.3593419
16,улица Некрасова,432001,54.3272923,48.3777599
12,Комсомольский переулок,432063,54.3147048,48.3885583
9,проезд Легран Волга,432072,54.3700394,48.6793948
1,улица Генерала Мельникова,432045,54.2826091,48.2749819
3,улица Генерала Мельникова,432045,54.2822805,48.2738607
5,улица Генерала Мельникова,432045,54.2819241,48.2740881
7,улица Генерала Мельникова,432045,54.2816904,48.2735027
73,Камышинская улица,432045,54.2812651,48.2744420
75,Камышинская улица,432045,54.2818135,48.2746317
16,улица Генерала Мельникова,432054,54.2763105,48.2674755
12,улица Генерала Мельникова,432054,54.2764654,48.2688174
20,улица Генерала Мельникова,432054,54.2768480,48.2666713
22,улица Генерала Мельникова,432054,54.2774441,48.2664260
23,Автозаводская улица,432008,54.3027738,48.3185060
7,площадь Горького,432008,54.3016587,48.3191927
16,улица Федерации,432001,54.3218446,48.3961921
6,Вольная улица,432023,54.2521356,48.3046322
83,улица Ленина,432017,54.3148091,48.3943773
110 к1,улица Рябикова,432066,54.2692610,48.2839468
30,улица Рябикова,432045,54.2841136,48.2956038
29А,Кузоватовская улица,432045,54.2834760,48.2926962
53,улица Ефремова,432045,54.2869307,48.2912398
49А,Кузоватовская улица,432045,54.2853849,48.2892034
59А,улица Ефремова,432045,54.2859840,48.2902300
29,Кузоватовская улица,432045,54.2841300,48.2932288
60,Александровская улица,432066,54.2731459,48.2653404
67,улица Ефремова,432045,54.2859933,48.2885265
71,улица Ефремова,432045,54.2854265,48.2873406
68А,Московское шоссе,432045,54.3052881,48.3025863
87А,Отрадная улица,432066,54.2730986,48.2756954
13А,улица Богдана Хмельницкого,432042,54.2907836,48.3028294
1,улица Богдана Хмельницкого,432042,54.2938913,48.2987017
5,улица Богдана Хмельницкого,432042,54.2933345,48.2998318
7,улица Богдана Хмельницкого,432042,54.2929325,48.2999281
3,улица Богдана Хмельницкого,432042,54.2934828,48.2992220
9,улица Богдана Хмельницкого,432042,54.2926984,48.3004519
54,Камышинская улица,432045,54.2805633,48.2713052
65,Камышинская улица,432045,54.2805994,48.2740873
79,Камышинская улица,432045,54.2808296,48.2733049
79 с1,Камышинская улица,432045,54.2809824,48.2727012
67,Камышинская улица,432045,54.2808007,48.2744068
81,Камышинская улица,432045,54.2812222,48.2720372
2,улица Генерала Мельникова,432045,54.2815004,48.2724011
71,Камышинская улица,432045,54.2811849,48.2735031
69,Камышинская улица,432045,54.2809721,48.2739304
9,улица Генерала Мельникова,432045,54.2812768,48.2730484
4,улица Полбина,432008,54.3048671,48.3173019
6,Автозаводская улица,432008,54.3047487,48.3178911
8,Автозаводская улица,432008,54.3043645,48.3177954
8А,Автозаводская улица,432008,54.3041389,48.3172938
10,Автозаводская улица,432008,54.3038518,48.3177120
12,Автозаводская улица,432008,54.3034523,48.3175862
7,улица Достоевского,432008,54.3034276,48.3170132
7,улица Лихачёва,432008,54.3039862,48.3165373
9,улица Лихачёва,432008,54.3035591,48.3164428
12,улица Достоевского,432008,54.3030976,48.3169438
11,улица Лихачёва,432008,54.3029721,48.3163034
14,Автозаводская улица,432008,54.3028843,48.3175180
13,улица Лихачёва,432008,54.3024244,48.3161797
7,улица Горького,432008,54.3015474,48.3161587
15,улица Лихачёва,432008,54.3018805,48.3160699
114,улица Робеспьера,432001,54.3209097,48.3829463
14,улица Карла Маркса,432071,54.3195525,48.3904657
41,улица Репина,432030,54.3487391,48.3507039
105,улица Ленина,432000,54.3154118,48.4001672
2,Спасская улица,432000,54.3127648,48.4011165
6,улица Шигаева,432018,54.2655628,48.2755420
1Б с2,улица Доватора,432045,54.2971745,48.3073134
31,Кузоватовская улица,432045,54.2845100,48.2916891
39,Кузоватовская улица,432045,54.2849752,48.2911059
43,Кузоватовская улица,432045,54.2842417,48.2904218
37,Кузоватовская улица,432045,54.2850689,48.2900647
35,Кузоватовская улица,432045,54.2840839,48.2918599
11,1-й переулок Воровского,432023,54.2496759,48.3064697
13,1-й переулок Воровского,432023,54.2495894,48.3067151
15,1-й переулок Воровского,432023,54.2494936,48.3070156
17,1-й переулок Воровского,432023,54.2494203,48.3073185
19А,1-й переулок Воровского,432023,54.2492644,48.3078389
21,1-й переулок Воровского,432023,54.2491355,48.3081993
1,1-й переулок Воровского,432023,54.2501729,48.3049067
3,1-й переулок Воровского,432023,54.2500510,48.3052637
5,1-й переулок Воровского,432023,54.2499728,48.3055469
7,1-й переулок Воровского,432023,54.2498858,48.3057946
5,2-й переулок Воровского,432023,54.2491654,48.3060440
7,2-й переулок Воровского,432023,54.2490717,48.3063829
21,2-й переулок Воровского,432023,54.2481072,48.3093602
19,2-й переулок Воровского,432023,54.2482115,48.3090280
7,улица Пархоменко,432002,54.3367243,48.3769779
27,переулок Суворова,432048,54.2988275,48.3617969
21,улица Тухачевского,432071,54.3364401,48.4000867
17,улица Скочилова,432030,54.3492291,48.3389763
15,улица Скочилова,432030,54.3492270,48.3395728
19,улица Скочилова,432030,54.3489007,48.3384503
18,бульвар Архитекторов,432030,54.3488589,48.3392608
21,улица Скочилова,432030,54.3492339,48.3379371
23,улица Скочилова,432030,54.3492353,48.3373443
24,бульвар Архитекторов,432030,54.3488642,48.3376449
22,бульвар Архитекторов,432030,54.3485532,48.3381553
20,бульвар Архитекторов,432030,54.3485486,48.3387484
16,бульвар Архитекторов,432030,54.3485512,48.3397794
26,бульвар Архитекторов,432030,54.3485563,48.3371335
25,улица Скочилова,432030,54.3489070,48.3368224
28,бульвар Архитекторов,432030,54.3485498,48.3365245
13,улица Скочилова,432030,54.3488929,48.3400843
14,бульвар Архитекторов,432030,54.3485475,48.3403892
10,бульвар Архитекторов,432030,54.3485409,48.3414119
17,улица Тухачевского,432071,54.3366487,48.3997461
1,улица Хваткова,432018,54.2602984,48.2787778
48,улица Розы Люксембург,432027,54.3557201,48.3780043
57,улица Любови Шевцовой,432027,54.3549346,48.3832281
21,улица Толбухина,432002,54.3376839,48.3698488
47,Кузоватовская улица,432045,54.2846443,48.2885233
87,Ташлинская улица,432018,54.2531970,48.2810475
97,Ташлинская улица,432018,54.2527740,48.2819744
99,Ташлинская улица,432018,54.2526441,48.2822568
89,Ташлинская улица,432018,54.2530936,48.2812311
95,Ташлинская улица,432018,54.2528394,48.2818042
101,Ташлинская улица,432018,54.2525378,48.2824016
83,Ташлинская улица,432018,54.2534139,48.2804397
85,Ташлинская улица,432018,54.2533231,48.2807088
93,Ташлинская улица,432018,54.2529836,48.2814960
91,Ташлинская улица,432018,54.2530436,48.2813472
107,Ташлинская улица,432018,54.2522442,48.2830058
103,Ташлинская улица,432018,54.2524890,48.2826480
137 к2,улица Ефремова,432066,54.2704690,48.2761172
112А,улица Рябикова,432054,54.2682052,48.2814995
21 к2,улица Шигаева,432066,54.2678233,48.2737161
21 к1,улица Шигаева,432066,54.2677799,48.2727859
5,Юго-Западная улица,432054,54.2803656,48.2660775
83А,Камышинская улица,432045,54.2816649,48.2718421
83Б,Камышинская улица,432045,54.2818678,48.2714648
83В,Камышинская улица,432045,54.2819859,48.2710130
17Е,улица Хваткова,432018,54.2561405,48.2578638
13,проспект Столыпина,432067,54.3629880,48.5688473
17,проспект Столыпина,432067,54.3633380,48.5696536
19,проспект Столыпина,432067,54.3635152,48.5700604
15,проспект Столыпина,432067,54.3631705,48.5692633
7,проспект Столыпина,432067,54.3643336,48.5709417
68,улица Немировича-Данченко,432002,54.3357721,48.3667795
11,Заречная улица,432031,54.3210794,48.4726071
3,проспект Дружбы Народов,432063,54.3842029,48.6165316
10,проспект Созидателей,432063,54.3809701,48.6159696
4,проспект Маршала Устинова,432051,54.3862533,48.5623837
49,улица Ватутина,432025,54.3445784,48.3716870
51,улица Ватутина,432025,54.3447088,48.3714753
93,Камышинская улица,432054,54.2830692,48.2660390
89Б,Камышинская улица,432045,54.2829709,48.2685468
49,улица Юности,432027,54.3580605,48.3761387
65Б,проспект Гая,432035,54.2534125,48.3189392
47,улица Ватутина,432025,54.3443971,48.3720658
35,Кольцевая улица,432044,54.2557346,48.3430128
33,Кольцевая улица,432044,54.2560014,48.3430381
5,1-й переулок Олега Кошевого,432027,54.3427100,48.3861480
1,Хлебозаводская улица,432048,54.3056402,48.3712539
18,Озёрный переулок,432044,54.2681896,48.3469094
2,улица Алексея Наганова,432072,54.3647667,48.5777643
23,проспект Столыпина,432067,54.3635832,48.5713057
11,проспект Столыпина,432067,54.3626196,48.5687026
3,улица Генерала Кашубы,432067,54.3620911,48.5674751
9,проспект Столыпина,432067,54.3624370,48.5682869
5,улица Генерала Кашубы,432067,54.3622511,48.5678682
27,проспект Столыпина,432067,54.3623186,48.5693883
6,проспект Маршала Устинова,432051,54.3866961,48.5633988
8,проспект Маршала Устинова,432051,54.3872728,48.5639726
2А,9-й Инженерный проезд,432072,54.3463422,48.5684022
2,9-й Инженерный проезд,432072,54.3463214,48.5671124
109,Ташлинская улица,432018,54.2521816,48.2833185
102,улица Шевченко,432045,54.3156536,48.3833972
83,Камышинская улица,432045,54.2814930,48.2711259
44А,улица Ефремова,432045,54.2902540,48.2943148
42,Старосельдинская улица,432055,54.3376543,48.3099974
1,2-й Винновский переулок,432012,54.2766237,48.3394396
50А,улица Полбина,432032,54.3038875,48.3480869
93,Промышленная улица,432013,54.2824868,48.3150505
6,улица Шигаева,432066,54.2659525,48.2757972
4А,Ипподромная улица,432030,54.3627031,48.3527216
79Б,Промышленная улица,432013,54.2810316,48.3128775
1,Киевский бульвар,432072,54.3756766,48.6030252
3,Киевский бульвар,432072,54.3758128,48.6033233
35А,улица Карла Маркса,432071,54.3228919,48.3865036
1Д,улица Доватора,432045,54.2972864,48.3057462
18А,улица Лихачёва,432008,54.3006338,48.3147651
69,улица Радищева,432011,54.3299028,48.4006377
24,улица Деева,432010,54.3576940,48.5573800
2,улица Бебеля,432000,54.3157203,48.4003335
12,3-й переулок Тимирязева,432027,54.3449013,48.3811726
23А,улица Урицкого,432071,54.3343960,48.3747001
1Г,проспект Нариманова,432030,54.3341748,48.3836862
66,улица Городская Усадьба,432026,54.3503019,48.3363889
66 к1,улица Городская Усадьба,432026,54.3507390,48.3364445
66 к2,улица Городская Усадьба,432026,54.3511003,48.3364942
66 к3,улица Городская Усадьба,432026,54.3516471,48.3365756
4Б,Ипподромная улица,432030,54.3634967,48.3523885
24,3-й Благодатный переулок,432044,54.2551098,48.3456896
36А,улица Карбышева,432064,54.3902802,48.5848534
2,улица Свердлова,432007,54.3359293,48.5019246
50,Бакинская улица,432027,54.3463909,48.3848533
51,улица Тимирязева,432027,54.3459743,48.3890593
7,улица Ульяны Громовой,432027,54.3580412,48.3813663
93,улица Городская Усадьба,432026,54.3517214,48.3400744
83,улица Городская Усадьба,432026,54.3519081,48.3394038
75,улица Городская Усадьба,432026,54.3523837,48.3391718
86,улица Городская Усадьба,432026,54.3515099,48.3379807
53,улица Городская Усадьба,432026,54.3527535,48.3360079
54,улица Городская Усадьба,432026,54.3524889,48.3358056
44,улица Городская Усадьба,432026,54.3522399,48.3352383
55,улица Городская Усадьба,432026,54.3521639,48.3357906
57,улица Городская Усадьба,432026,54.3515170,48.3358033
58,улица Городская Усадьба,432026,54.3513084,48.3358126
59,улица Городская Усадьба,432026,54.3510831,48.3357300
60,улица Городская Усадьба,432026,54.3508616,48.3357512
49,улица Городская Усадьба,432026,54.3509113,48.3351488
52,улица Городская Усадьба,432026,54.3502321,48.3349122
51,улица Городская Усадьба,432026,54.3504773,48.3349971
39,улица Городская Усадьба,432026,54.3506668,48.3343433
38,улица Городская Усадьба,432026,54.3508973,48.3343070
25,улица Городская Усадьба,432026,54.3509263,48.3337329
26,улица Городская Усадьба,432026,54.3506883,48.3336849
27,улица Городская Усадьба,432026,54.3504779,48.3336615
28,улица Городская Усадьба,432026,54.3502389,48.3336830
2,улица Городская Усадьба,432026,54.3503404,48.3329184
3,улица Городская Усадьба,432026,54.3506117,48.3328120
47,улица Городская Усадьба,432026,54.3513274,48.3351825
22,улица Городская Усадьба,432026,54.3515936,48.3337662
21,улица Городская Усадьба,432026,54.3518141,48.3339125
35,улица Городская Усадьба,432026,54.3515316,48.3344103
34,улица Городская Усадьба,432026,54.3518168,48.3344754
7,улица Городская Усадьба,432026,54.3516576,48.3330684
33,улица Городская Усадьба,432026,54.3522706,48.3345336
31,улица Городская Усадьба,432026,54.3527982,48.3346148
18,улица Городская Усадьба,432026,54.3528491,48.3339646
30,улица Городская Усадьба,432026,54.3531123,48.3346586
17,улица Городская Усадьба,432026,54.3530687,48.3339810
29,улица Городская Усадьба,432026,54.3533766,48.3345776
15,улица Городская Усадьба,432026,54.3536288,48.3340417
12,улица Городская Усадьба,432026,54.3533319,48.3331352
11,улица Городская Усадьба,432026,54.3529750,48.3332376
47А,Хрустальная улица,432044,54.2523358,48.3357908
2,бульвар имени Ильюшина,442051,54.3830660,48.5676153
34,улица Якурнова,432051,54.3863492,48.5603900
30А,проспект Созидателей,432072,54.3752128,48.6032971
7А,проспект Туполева,432067,54.3670352,48.5766507
26,1-й Одесский переулок,432010,54.3547898,48.5529226
105 с1,улица Ленина,432000,54.3155185,48.4002719
10,Олимпийский проспект,432045,54.2909442,48.2685101
15А,Октябрьский переулок,432008,54.2972374,48.3183894
104,Красноармейская улица,432011,54.3308418,48.3983768
12А,улица Кирова,432048,54.2988299,48.3791625
50 помещение 1,улица Карла Либкнехта,432000,54.3085748,48.3923412
80А,проспект Гая,432035,54.2629669,48.3247819
19,проспект Врача Сурова,432064,54.3866082,48.5895408
18,улица Кузнецова,432063,54.3121904,48.4015001
18,улица Кузнецова,432063,54.3117886,48.4010377
10,улица Городская Усадьба,432026,54.3526650,48.3332405
6Б,проспект Генерала Тюленева,432059,54.3757526,48.5978444
61,улица Городская Усадьба,432026,54.3504434,48.3356740
41,улица Городская Усадьба,432026,54.3502332,48.3342648
42,улица Городская Усадьба,432026,54.3528046,48.3352601
10А,улица Городская Усадьба,432026,54.3524215,48.3329921
19,улица Городская Усадьба,432026,54.3525644,48.3338719
14А,улица Городская Усадьба,432026,54.3545105,48.3333614
101,улица Городская Усадьба,432026,54.3499642,48.3357185
12А,улица Корунковой,432029,54.2743538,48.3066565
105,Ташлинская улица,432018,54.2523172,48.2828497
8,Московское шоссе,432045,54.2966191,48.2625059
19Е,Камышинская улица,432029,54.2708158,48.3032142
96,улица Городская Усадьба,432026,54.3526488,48.3386924
81,улица Городская Усадьба,432026,54.3518941,48.3386131
80Б,Московское шоссе,432008,54.3072190,48.3192262
26,проспект Врача Сурова,432064,54.3931081,48.5861390
27,улица Гагарина,432002,54.3302313,48.3870667
9Д,Кузоватовская улица,432045,54.2787963,48.3017268
45,улица Городская Усадьба,432026,54.3518194,48.3351327
40,улица Городская Усадьба,432026,54.3504297,48.3342504
43,улица Городская Усадьба,432026,54.3525226,48.3352169
74Б,улица Радищева,432071,54.3289192,48.4025278
89А,улица Городская Усадьба,432026,54.3514280,48.3390658
6Е,Московское шоссе,432045,54.2952210,48.2558198
28,проспект Врача Сурова,432064,54.3929843,48.5856103
14,проспект Маршала Устинова,432051,54.3861890,48.5611798
32,улица Якурнова,432051,54.3858858,48.5606540
2,проспект Маршала Устинова,432051,54.3858010,48.5613600
10,проспект Маршала Устинова,432051,54.3870877,48.5629430
12,проспект Маршала Устинова,432051,54.3866196,48.5619286
9 к1,Отрадная улица,432073,54.2664847,48.2965612
28,проспект Маршала Устинова,432051,54.3880099,48.5630793
24,проспект Маршала Устинова,432051,54.3876685,48.5623523
22,проспект Маршала Устинова,432051,54.3874374,48.5618110
18,проспект Маршала Устинова,432051,54.3871002,48.5610633
26,проспект Маршала Устинова,432051,54.3883892,48.5619615
20,проспект Маршала Устинова,432051,54.3879182,48.5605890
64/2,Камышинская улица,432006,54.2825459,48.2645319
13,улица Городская Усадьба,432026,54.3537580,48.3334063
84,улица Городская Усадьба,432026,54.3515920,48.3372149
2,бульвар Галушина,432067,54.3650369,48.5654374
16,проспект Маршала Устинова,432051,54.3870302,48.5603337
80,Московское шоссе,432008,54.3073448,48.3196083
82,улица Городская Усадьба,432026,54.3518913,48.3389206
74,улица Городская Усадьба,432026,54.3523021,48.3387841
10Б,проспект Авиастроителей,432064,54.3902593,48.5909024
36,улица Якурнова,432051,54.3870637,48.5593550
3,проспект Зырина,432072,54.3663305,48.5700396
5,проспект Зырина,432072,54.3661769,48.5695276
7,проспект Зырина,432072,54.3658728,48.5690056
9,проспект Зырина,432072,54.3657015,48.5684382
7,Димитровградское шоссе,432031,54.3227033,48.4810422
2А,улица Скочилова,432026,54.3502906,48.3400543
78Д,улица Ефремова,432045,54.2795722,48.2776813
34,проспект Маршала Устинова,432051,54.3886284,48.5634218
54,1-й Мелекесский переулок,432046,54.3439142,48.5597500
47Б,Хрустальная улица,432044,54.2525160,48.3361931
89,улица Городская Усадьба,432026,54.3514156,48.3392109
4,Водопроводная улица,432048,54.3008072,48.3676514
1,бульвар Военных строителей,432072,54.3650548,48.5674810
3,бульвар Военных строителей,432072,54.3654437,48.5669597
30,проспект Маршала Устинова,432051,54.3873037,48.5646609
32,проспект Маршала Устинова,432051,54.3879702,48.5645768
30,проспект Врача Сурова,432064,54.3936640,48.5847568
116А,улица Рябикова,432066,54.2684479,48.2789779
2А,проспект Столыпина,432072,54.3639438,48.5674944
7,бульвар Военных Строителей,432072,54.3677744,48.5676887
18Г,улица Шигаева,432066,54.2627147,48.2750415
7,проспект 50-летия ВЛКСМ,432034,54.3054815,48.3305436
56,Хрустальная улица,432044,54.2538502,48.3333503
5А,улица Пожарского,432008,54.2924767,48.3188875
14,Новосондецкий бульвар,432064,54.3799675,48.5851632
18,Фестивальный бульвар,432067,54.3753922,48.5754678
24,Фестивальный бульвар,432067,54.3774977,48.5727402
13,Новосондецкий бульвар,432072,54.3784707,48.5817277
11,проспект Созидателей,432072,54.3718145,48.6025467
26,улица Карбышева,432064,54.3859264,48.5902268
11,проспект Врача Сурова,432064,54.3843824,48.5922176
3,Новосондецкий бульвар,432067,54.3746141,48.5874691
4,Новосондецкий бульвар,432072,54.3757612,48.5904697
4,Фестивальный бульвар,432067,54.3709045,48.5814114
32,улица Врача Михайлова,432057,54.3539524,48.5406044
15,Спасская улица,432011,54.3182140,48.4019314
41,улица Орлова,432071,54.3281551,48.3971770
23,Почтовая улица,432031,54.3289644,48.4787375
14,Ульяновский проспект,432067,54.3744875,48.5826144
27,Оренбургская улица,432057,54.3611679,48.5358715
6А,Дворцовая улица,432000,54.3180852,48.3987269
34,улица Гончарова,432063,54.3177067,48.3973842
12А,Спасская улица,432000,54.3149485,48.4015129
11,улица Александра Матросова,432017,54.3110699,48.3927809
3,Водопроводная улица,432048,54.3016581,48.3674123
1,Водопроводная улица,432048,54.3021863,48.3677070
15,улица Станкостроителей,432042,54.2893671,48.2997597
1,улица Гончарова,432063,54.3087004,48.3952258
3,Верхнеполевая улица,432001,54.3263750,48.3868116
35,улица 40-летия Победы,432067,54.3683271,48.5814697
3,улица Федерации,432001,54.3206320,48.3940052
25,улица Гончарова,432071,54.3205662,48.3989255
27,улица Пушкарёва,432049,54.3190368,48.3560507
2,Ульяновский проспект,432059,54.3701149,48.5892949
2,Красноармейская улица,432017,54.3222826,48.4030022
9,улица Железной Дивизии,432017,54.3083337,48.3895409
6,улица Железной Дивизии,432017,54.3088379,48.3891947
12,Кольцевая улица,432044,54.2598797,48.3391662
70,улица Рябикова,432054,54.2765198,48.2900908
32А,Октябрьская улица,432032,54.2997424,48.3460755
36,Октябрьская улица,432032,54.3002360,48.3473011
57,улица Толбухина,432030,54.3431951,48.3624636
11,улица Академика Сахарова,432031,54.3344135,48.4787645
2Д,улица Варейкиса,432035,54.2573967,48.3217318
1,улица Калнина,432031,54.3343514,48.4739837
24,Заречная улица,432031,54.3251032,48.4725702
94,проспект Созидателей,432059,54.3659761,48.5823490
70,улица Пушкарёва,432049,54.3200345,48.3575790
7,улица Минаева,432017,54.3077622,48.3848889
2,Ульяновская улица,432017,54.3076303,48.3754033
6,площадь Ленина,432000,54.3128409,48.4046288
94,улица Радищева,432011,54.3309458,48.4021626
2Б,Ульяновская улица,432017,54.3073733,48.3767691
50,улица Минаева,432063,54.3072197,48.3939958
22А,Заречная улица,432031,54.3245363,48.4700613
20,Ульяновский проспект,432072,54.3781613,48.5778974
32,проспект Ливанова,432064,54.3855726,48.5729827
48,проспект Генерала Тюленева,432064,54.3904862,48.5772278
2Е,улица Александра Невского,432013,54.2844661,48.3161171
60Г,улица Ефремова,432066,54.2721794,48.2812142
60Б,улица Ефремова,432066,54.2721146,48.2815136
60А,улица Ефремова,432066,54.2718354,48.2816296
