House number,Street name,Postal code,Latitude,Longitude
35Б,улица Ленина,166000,67.6367041,52.9884577
42,улица им. В.И. Ленина,166000,67.6363741,52.9870442
33Б,улица Ленина,166000,67.6361857,52.9915997
17,Оленная улица,166000,67.6427282,52.9962574
42,улица им. В.И. Ленина,166000,67.6366819,52.9852679
48А,улица имени 60-летия Октября,166000,67.6448127,53.0471648
46,улица Ленина,166000,67.6371382,52.9824985
2,улица И.П. Выучейского,166000,67.6464442,52.9953204
14,улица А.П. Пырерко,166000,67.6422679,53.0062077
6,улица В.В. Сущинского,166000,67.6302022,53.0187978
42,улица им. В.И. Ленина,166000,67.6364722,52.9865536
21,улица И.П. Выучейского,166000,67.6428905,52.9996518
3,Студенческая улица,166000,67.6352816,52.9892385
42,улица им. В.И. Ленина,166000,67.6364486,52.9867482
42,улица им. В.И. Ленина,166000,67.6365607,52.9860835
42,улица им. В.И. Ленина,166000,67.6365337,52.9857826
42,улица им. В.И. Ленина,166000,67.6365174,52.9859940
42,улица им. В.И. Ленина,166000,67.6365012,52.9861709
42,улица им. В.И. Ленина,166000,67.6364447,52.9865246
42,улица им. В.И. Ленина,166000,67.6364285,52.9866901
42,улица им. В.И. Ленина,166000,67.6364802,52.9861416
42,улица им. В.И. Ленина,166000,67.6364925,52.9859726
42,улица им. В.И. Ленина,166000,67.6366134,52.9855789
29А,улица им. В.И. Ленина,166000,67.6368623,52.9945367
10,улица имени 60-летия СССР,166000,67.6361021,52.9844977
2,проезд Капитана Матросова,166000,67.6398885,52.9953417
2,проезд Капитана Матросова,166000,67.6398262,52.9953954
5,Полярная улица,166000,67.6440371,52.9988074
5,Полярная улица,166000,67.6440545,52.9989271
5,Полярная улица,166000,67.6440221,52.9986749
5,Полярная улица,166000,67.6439960,52.9985877
"16А, стр 1",улица Авиаторов,166000,67.6328563,53.0165596
"16А, стр 1",улица Авиаторов,166000,67.6327991,53.0166588
"16А, стр 1",улица Авиаторов,166000,67.6326858,53.0162243
9В,улица им. Н.Е. Сапрыгина,166000,67.6458357,52.9947956
4,улица им. В.В. Сущинского,166000,67.6313389,53.0175954
19,улица им. В.И. Ленина,166000,67.6377277,53.0044335
25А,улица им. В.И. Ленина,166000,67.6378585,52.9982757
25А,улица им. В.И. Ленина,166000,67.6376105,52.9985493
25А,улица им. В.И. Ленина,166000,67.6376059,52.9984259
20А,улица Смидовича,166000,67.6400741,53.0039430
21А,улица Ленина,166000,67.6373992,53.0003049
5,Полярная улица,166000,67.6440227,52.9989520
4А,Рабочая улица,166000,67.6420674,53.0440806
6А,улица Рыбников,166000,67.6397206,52.9821497
20,Рабочая улица,166000,67.6389951,53.0510178
15,Октябрьская улица,166000,67.6350096,52.9986679
24,Южная улица,166000,67.6329311,53.0023549
43Б,Южная улица,166000,67.6315730,53.0089794
52Б,улица Ленина,166000,67.6367935,52.9775641
16А,Южная улица,166000,67.6322662,52.9958496
39А,Рабочая улица,166000,67.6394657,53.0599628
3,улица имени С.Н.Явтысого,166000,67.6313827,53.0018498
12,улица Меньшикова,166000,67.6349926,52.9791968
3Б,Строительная улица,166000,67.6434373,53.0481123
4,улица имени 60-летия Октября,166000,67.6363408,53.0351522
23,улица им. В.И. Ленина,166000,67.6379349,53.0019404
22,Ноябрьский проезд,166000,67.6382702,53.0509722
14,улица имени 60-летия Октября,166000,67.6376009,53.0370092
35А,улица Ленина,166000,67.6366790,52.9893346
29,улица Ленина,166000,67.6391227,52.9962577
28,Пионерская улица,166000,67.6317626,53.0055223
7,улица Ленина,166000,67.6383917,53.0098761
43,Южная улица,166000,67.6319084,53.0097591
3,улица имени 60-летия СССР,166000,67.6349784,52.9822116
35,улица имени 60-летия Октября,166000,67.6414039,53.0402719
35,Южная улица,166000,67.6331064,53.0075334
14,улица Меньшикова,166000,67.6345391,52.9804458
22,переулок Малый Качгорт,166000,67.6346745,53.0338345
8А,Строительная улица,166000,67.6419507,53.0487325
27,улица Ленина,166000,67.6370043,52.9962138
54А,улица Ленина,166000,67.6373575,52.9765819
12,улица Ленина,166000,67.6377406,53.0072525
15,Рабочая улица,166000,67.6405685,53.0511050
39,улица Ленина,166000,67.6381006,52.9911875
33,улица Ленина,166000,67.6367205,52.9931500
6,улица имени 60-летия Октября,166000,67.6366153,53.0354217
8,улица Авиаторов,166000,67.6359944,53.0112083
34,Октябрьская улица,166000,67.6357050,53.0053549
41А,улица Ленина,166000,67.6376779,52.9892870
1,улица имени 60-летия Октября,166000,67.6369643,53.0340422
19,улица Ленина,166000,67.6378711,53.0041739
3А,улица Рыбников,166000,67.6394069,52.9839700
37,Южная улица,166000,67.6332155,53.0081563
4А,улица Меньшикова,166000,67.6366798,52.9759961
38,улица Ленина,166000,67.6356589,52.9900104
3,улица А.Ф.Титова,166000,67.6398830,53.0555706
35,Рабочая улица,166000,67.6396380,53.0590146
52А,улица Ленина,166000,67.6371525,52.9777422
29А,улица Ленина,166000,67.6367858,52.9943652
10А,улица Рыбников,166000,67.6383703,52.9819849
34,улица им. В.И. Ленина,166000,67.6355626,52.9944008
27В,улица Ленина,166000,67.6365508,52.9959609
10,улица Меньшикова,166000,67.6353579,52.9780443
7А,Строительная улица,166000,67.6437716,53.0481401
23А,улица Ленина,166000,67.6382347,53.0008445
11,улица Рыбников,166000,67.6386975,52.9801614
8А,улица Меньшикова,166000,67.6359604,52.9778279
26,Южная улица,166000,67.6330945,53.0035142
23,Зелёная улица,166000,67.6421622,53.0537646
4,улица А.Ф.Титова,166000,67.6402552,53.0559931
45,Южная улица,166000,67.6312399,53.0104865
17Б,Рабочая улица,166000,67.6407543,53.0523192
37,Рабочая улица,166000,67.6392273,53.0598009
2,улица имени 60-летия Октября,166000,67.6360784,53.0346863
39,Рабочая улица,166000,67.6389060,53.0605781
5А,улица имени С.Н.Явтысого,166000,67.6314377,53.0033875
5А,улица имени 60-летия Октября,166000,67.6380660,53.0343278
27Г,улица им. В.И. Ленина,166000,67.6375695,52.9955213
13,Октябрьская улица,166000,67.6347874,52.9974500
6,улица Меньшикова,166000,67.6361732,52.9757331
5,улица А.Ф.Титова,166000,67.6399996,53.0567563
20,Южная улица,166000,67.6323594,52.9987337
1А,улица имени С.Н.Явтысого,166000,67.6318872,52.9989562
32,Южная улица,166000,67.6336465,53.0060816
6,улица Авиаторов,166000,67.6364761,53.0111489
35,улица Ленина,166000,67.6372015,52.9937734
8,улица имени 60-летия Октября,166000,67.6368609,53.0357670
33А,улица Ленина,166000,67.6360129,52.9925597
6,проезд Капитана Матросова,166000,67.6385868,52.9929200
28,улица Ленина,166000,67.6362411,52.9979352
1Б,улица Рыбников,166000,67.6389181,52.9841779
33,Рабочая улица,166000,67.6391931,53.0585586
27,Рабочая улица,166000,67.6400745,53.0581124
41,Южная улица,166000,67.6322548,53.0087233
45Б,Южная улица,166000,67.6311151,53.0081768
8,проезд Капитана Матросова,166000,67.6390389,52.9905849
16Б корп. 1,улица Авиаторов,166000,67.6324428,53.0179123
45,улица Ленина,166000,67.6373045,52.9840173
41,улица Ленина,166000,67.6374892,52.9903327
18,улица Меньшикова,166000,67.6337707,52.9835699
9,Рабочая улица,166000,67.6416844,53.0480087
27А,улица Ленина,166000,67.6373489,52.9946981
11А,Октябрьская улица,166000,67.6349800,52.9957974
17,Рабочая улица,166000,67.6402274,53.0519817
9,Октябрьская улица,166000,67.6343952,52.9949184
55,улица Ленина,166000,67.6385212,52.9769842
1А,улица Рыбников,166000,67.6384673,52.9832583
29,Рабочая улица,166000,67.6395363,53.0577188
8,улица А.Ф.Титова,166000,67.6413407,53.0580747
26А,Пионерская улица,166000,67.6319649,53.0041131
31,Рабочая улица,166000,67.6394796,53.0565632
8Б,улица Рыбников,166000,67.6400834,52.9802086
28А,Пионерская улица,166000,67.6316605,53.0045489
8Б,улица Меньшикова,166000,67.6364320,52.9783571
21,Зелёная улица,166000,67.6425637,53.0543678
36,Октябрьская улица,166000,67.6347470,53.0074110
2,улица имени 60-летия СССР,166000,67.6346227,52.9832376
10,Рабочая улица,166000,67.6404431,53.0493607
36,Южная улица,166000,67.6338537,53.0074201
47,Южная улица,166000,67.6308473,53.0096058
6,улица А.Ф.Титова,166000,67.6406363,53.0573774
32,улица имени 60-летия Октября,166000,67.6401137,53.0400312
3А,улица имени С.Н.Явтысого,166000,67.6316700,53.0015863
1Б,улица имени С.Н.Явтысого,166000,67.6317629,52.9981138
3А,Строительная улица,166000,67.6432622,53.0469314
7А,улица имени 60-летия Октября,166000,67.6383384,53.0347003
45А,Южная улица,166000,67.6312238,53.0093697
10Б,улица Меньшикова,166000,67.6363389,52.9790907
5,улица Ленина,166000,67.6385468,53.0125436
48Д,улица имени 60-летия Октября,166000,67.6440827,53.0501845
2,проезд Капитана Матросова,166000,67.6395538,52.9937722
11,Октябрьская улица,166000,67.6346078,52.9962400
4,улица Меньшикова,166000,67.6365306,52.9746121
17А,Зелёная улица,166000,67.6424758,53.0553701
39А,Южная улица,166000,67.6325437,53.0076250
47,улица Ленина,166000,67.6375082,52.9829381
18,улица Ленина,166000,67.6370492,53.0028912
16,улица Меньшикова,166000,67.6339638,52.9824398
7,Рабочая улица,166000,67.6419133,53.0469106
31А,улица Ленина,166000,67.6368776,52.9917724
27Б,улица Ленина,166000,67.6375445,52.9972248
17,Октябрьская улица,166000,67.6351466,52.9995384
5А,улица имени 60-летия СССР,166000,67.6356926,52.9806066
32А,улица Ленина,166000,67.6353621,52.9953944
53,улица Ленина,166000,67.6383272,52.9781287
14,Рабочая улица,166000,67.6401073,53.0505495
23А,улица Ленина,166000,67.6384856,53.0025837
10,улица Рыбников,166000,67.6385894,52.9808428
12,Рабочая улица,166000,67.6392678,53.0499028
12,Пионерская улица,166000,67.6356209,53.0011580
3А,улица имени 60-летия Октября,166000,67.6377674,53.0338912
33,улица И.П. Выучейского,166000,67.6368881,53.0071722
43,улица Ленина,166000,67.6371015,52.9852897
16Б,Южная улица,166000,67.6325829,52.9955790
19,Рабочая улица,166000,67.6403339,53.0534057
55А,улица Рыбников,166000,67.6378646,52.9744690
43А,улица имени 60-летия Октября,166000,67.6423226,53.0398275
1,улица Ленина,166000,67.6378998,53.0178878
27Д,улица им. В.И. Ленина,166000,67.6376609,52.9961026
29Б,улица Ленина,166000,67.6381253,52.9953347
8,Снежный переулок,166000,67.6380318,53.0403571
41Б,улица Ленина,166000,67.6377870,52.9881958
47А,улица Ленина,166000,67.6378780,52.9831176
37А,Рабочая улица,166000,67.6396990,53.0604530
18,Южная улица,166000,67.6321934,52.9976008
8,Рабочая улица,166000,67.6408012,53.0492182
45А,улица имени 60-летия Октября,166000,67.6427993,53.0402382
10А,улица Меньшикова,166000,67.6356859,52.9791233
48Г,улица имени 60-летия Октября,166000,67.6441953,53.0489745
10,улица имени 60-летия Октября,166000,67.6371139,53.0361208
32,улица И.П. Выучейского,166000,67.6384778,53.0036591
20А,Ноябрьский проезд,166000,67.6389220,53.0495042
24,Пионерская улица,166000,67.6326459,53.0038474
25,Пионерская улица,166000,67.6325499,53.0063617
25,улица Ленина,166000,67.6372987,52.9982694
5,улица имени 60-летия Октября,166000,67.6376844,53.0350853
41Б,Южная улица,166000,67.6316216,53.0076953
4,улица имени 60-летия СССР,166000,67.6343307,52.9825680
5,Рабочая улица,166000,67.6421405,53.0458008
44,Южная улица,166000,67.6319845,53.0111890
23Б,улица Ленина,166000,67.6389274,52.9983350
21А,улица Ленина,166000,67.6373679,53.0011509
12А,улица Меньшикова,166000,67.6354542,52.9796228
20,улица Меньшикова,166000,67.6339507,52.9847689
5А,Строительная улица,166000,67.6431170,53.0491332
56А,улица Ленина,166000,67.6375556,52.9754291
37,улица Ленина,166000,67.6374423,52.9923387
14Б,Рабочая улица,166000,67.6394628,53.0512638
26,Пионерская улица,166000,67.6323871,53.0048603
19,Октябрьская улица,166000,67.6353170,53.0005242
18А,Южная улица,166000,67.6327394,52.9970197
9Б,Строительная улица,166000,67.6430127,53.0524458
16,улица имени 60-летия Октября,166000,67.6378575,53.0373675
41,Рабочая улица,166000,67.6392184,53.0612993
1,улица имени 60-летия СССР,166000,67.6344402,52.9815665
33,Южная улица,166000,67.6330089,53.0068629
49,улица Ленина,166000,67.6378078,52.9810736
10,Пионерская улица,166000,67.6357276,53.0002085
43,Рабочая улица,166000,67.6398785,53.0619533
18,Рабочая улица,166000,67.6390615,53.0523416
14А,Рабочая улица,166000,67.6396673,53.0499500
3Б,улица имени С.Н.Явтысого,166000,67.6320007,53.0003892
7,Строительная улица,166000,67.6435438,53.0493978
9А,улица Рыбников,166000,67.6398202,52.9780845
15,Пионерская улица,166000,67.6351530,53.0028351
43А,Южная улица,166000,67.6319110,53.0085615
49А,улица Ленина,166000,67.6378411,52.9822184
3,улица имени 60-летия Октября,166000,67.6373119,53.0345615
39,Южная улица,166000,67.6326892,53.0087782
43А,улица Ленина,166000,67.6374013,52.9859177
16,Южная улица,166000,67.6319728,52.9961947
20,переулок Малый Качгорт,166000,67.6343497,53.0358700
56Б,улица Ленина,166000,67.6370928,52.9756062
23,Пионерская улица,166000,67.6334246,53.0046155
47А,улица имени 60-летия Октября,166000,67.6431811,53.0409960
24А,Пионерская улица,166000,67.6324580,53.0027968
8,улица имени 60-летия СССР,166000,67.6344272,52.9843955
12,улица имени 60-летия Октября,166000,67.6373433,53.0365960
21,улица Ленина,166000,67.6381636,53.0029607
52,улица Ленина,166000,67.6378277,52.9781711
5,улица имени 60-летия СССР,166000,67.6352566,52.9813735
9,улица имени 60-летия СССР,166000,67.6362532,52.9837112
48,улица Ленина,166000,67.6371379,52.9818815
50А,улица Ленина,166000,67.6372255,52.9802351
17Б,улица Рыбников,166000,67.6413882,52.9759474
3А,улица имени 60-летия СССР,166000,67.6349952,52.9809767
46,улица Ленина,166000,67.6370276,52.9829687
1,Студенческая улица,166000,67.6335681,52.9889007
22,улица Меньшикова,166000,67.6335214,52.9863704
40,улица им. В.И. Ленина,166000,67.6361394,52.9880090
15,улица Меньшикова,166000,67.6332911,52.9820516
6,улица имени 60-летия СССР,166000,67.6351542,52.9838386
13,улица Меньшикова,166000,67.6337713,52.9810292
17,улица Меньшикова,166000,67.6333841,52.9808115
7,улица имени 60-летия СССР,166000,67.6357929,52.9820244
11,улица Меньшикова,166000,67.6337435,52.9794256
1А,Студенческая улица,166000,67.6340659,52.9878225
8,Строительная улица,166000,67.6423621,53.0483119
17,Морская улица,166000,67.6394788,53.0329468
50Б,улица имени 60-летия Октября,166000,67.6453085,53.0497292
11,Строительная улица,166000,67.6442521,53.0457730
29,Печорская улица,166000,67.6339338,53.0014082
34,Лесной переулок,166000,67.6351154,53.0058661
18,улица Смидовича,166000,67.6406810,53.0048252
13А,Первомайская улица,166000,67.6440255,53.0088432
13,Оленная улица,166000,67.6434280,52.9953621
50В,улица имени 60-летия Октября,166000,67.6453415,53.0489736
17,Первомайская улица,166000,67.6432068,53.0096987
16,улица им. Н.Е. Сапрыгина,166000,67.6466785,53.0029668
19Б,Первомайская улица,166000,67.6430042,53.0125386
25,Южная улица,166000,67.6332977,53.0021385
21,улица имени 60-летия Октября,166000,67.6396622,53.0378178
27,Лесной переулок,166000,67.6354451,53.0046794
9А,улица И.П. Выучейского,166000,67.6460555,52.9953709
3,улица Сапрыгина,166000,67.6450475,52.9891741
1,Строительная улица,166000,67.6431456,53.0459062
16,Полярная улица,166000,67.6445731,53.0057281
3,улица Смидовича,166000,67.6451456,53.0009089
44А,улица имени 60-летия Октября,166000,67.6431055,53.0441687
11А,Портовая улица,166000,67.6468053,52.9948586
1А,улица Хатанзейского,166000,67.6439980,52.9904775
7,улица Победы,166000,67.6405379,53.0118718
42,улица имени 60-летия Октября,166000,67.6421538,53.0435168
30,улица имени 60-летия Октября,166000,67.6394254,53.0389155
34,Полярная улица,166000,67.6446689,53.0114264
50Г,улица имени 60-летия Октября,166000,67.6452527,53.0506659
8,Оленная улица,166000,67.6419932,52.9951460
4,Ненецкая улица,166000,67.6415898,52.9988048
23,Печорская улица,166000,67.6336135,52.9995964
17Б,Первомайская улица,166000,67.6435664,53.0118878
12,Морская улица,166000,67.6389230,53.0334174
29,Лесной переулок,166000,67.6353613,53.0055197
44,улица имени 60-летия Октября,166000,67.6427556,53.0436134
17,улица имени 60-летия Октября,166000,67.6393063,53.0374101
3,Строительная улица,166000,67.6428723,53.0473043
23,Полярная улица,166000,67.6456430,53.0084560
2А,улица И.П. Выучейского,166000,67.6465233,52.9950422
19,Первомайская улица,166000,67.6426387,53.0103305
20,Первомайская улица,166000,67.6417508,53.0104633
15,Морская улица,166000,67.6393049,53.0325857
7А,улица им. Н.Е. Сапрыгина,166000,67.6455157,52.9921736
8,Первомайская улица,166000,67.6452312,53.0062433
3,улица Авиаторов,166000,67.6368174,53.0122922
27,Южная улица,166000,67.6334141,53.0027319
13А,улица Ленина,166000,67.6445627,53.0094670
9А,Полярная улица,166000,67.6443654,52.9996077
2,Ненецкая улица,166000,67.6411910,52.9982140
48В,улица имени 60-летия Октября,166000,67.6445678,53.0499427
15,улица И.П. Выучейского,166000,67.6442670,52.9982324
48,улица имени 60-летия Октября,166000,67.6447986,53.0456951
1,Первомайская улица,166000,67.6467326,53.0049189
15,Первомайская улица,166000,67.6434798,53.0106277
5,Речная улица,166000,67.6390673,53.0341255
24,Лесной переулок,166000,67.6340407,52.9997205
19,улица имени 60-летия Октября,166000,67.6394796,53.0376502
4,Зимняя улица,166000,67.6392613,53.0398802
48Б,улица имени 60-летия Октября,166000,67.6447440,53.0482497
4Б,Зимняя улица,166000,67.6403916,53.0372970
11,Рабочая улица,166000,67.6414212,53.0499204
6А,улица им. Н.Е. Сапрыгина,166000,67.6450129,52.9928472
3,Рабочая улица,166000,67.6425078,53.0445918
27А,Октябрьская улица,166000,67.6359496,53.0044276
52В,улица имени 60-летия Октября,166000,67.6454435,53.0507059
46,улица имени 60-летия Октября,166000,67.6439935,53.0451466
7,Портовая улица,166000,67.6462237,52.9943021
7А,Первомайская улица,166000,67.6459351,53.0078573
19А,Первомайская улица,166000,67.6426098,53.0116603
13,Морская улица,166000,67.6391005,53.0326096
27,Печорская улица,166000,67.6338492,53.0008735
3,улица Хатанзейского,166000,67.6447903,52.9935183
4А,улица Ленина,166000,67.6361833,53.0180675
9,Полярная улица,166000,67.6442418,53.0003092
13,улица А.П. Пырерки,166000,67.6435853,53.0058918
24,улица И.П. Выучейского,166000,67.6409041,53.0007092
7,Полярная улица,166000,67.6440673,52.9993470
6А,Оленная улица,166000,67.6438966,52.9957102
12А,улица Авиаторов,166000,67.6337744,53.0141678
13,Набережная улица,166000,67.6393054,53.0319377
9,Строительная улица,166000,67.6425026,53.0494307
14,Морская улица,166000,67.6392121,53.0334834
48А,улица имени 60-летия Октября,166000,67.6446650,53.0469779
2,Первомайская улица,166000,67.6466041,53.0041986
32,Лесной переулок,166000,67.6352488,53.0048656
24А,Лесной переулок,166000,67.6341358,53.0002293
35А,Печорская улица,166000,67.6345967,53.0055057
30,Октябрьская улица,166000,67.6354446,53.0036468
26,Октябрьская улица,166000,67.6350432,53.0015304
5,Строительная улица,166000,67.6426004,53.0485874
17,Ненецкая улица,166000,67.6436713,53.0070182
14,Набережная улица,166000,67.6394524,53.0319728
10А,Строительная улица,166000,67.6442066,53.0476437
5,улица Хатанзейского,166000,67.6451240,52.9946709
26,Лесной переулок,166000,67.6342185,53.0007796
17А,Первомайская улица,166000,67.6431609,53.0108735
18,Пионерская улица,166000,67.6341670,53.0028515
54В,улица имени 60-летия Октября,166000,67.6458080,53.0499413
3,Первомайская улица,166000,67.6468013,53.0059688
36,Октябрьская улица,166000,67.6359537,53.0075025
6,Рабочая улица,166000,67.6408222,53.0478259
10,Строительная улица,166000,67.6440307,53.0467925
34А,Морская улица,166000,67.6408964,53.0366171
9А,улица Авиаторов,166000,67.6352007,53.0136309
4,улица им. Н.Е. Сапрыгина,166000,67.6449465,52.9915589
4,Первомайская улица,166000,67.6461051,53.0048071
50А,улица имени 60-летия Октября,166000,67.6453538,53.0484463
32,Октябрьская улица,166000,67.6355651,53.0044010
2,улица И.П. Выучейского,166000,67.6462949,52.9952114
25,улица И.П. Выучейского,166000,67.6416143,53.0016258
1А,Строительная улица,166000,67.6434850,53.0449797
25,Оленная улица,166000,67.6405591,52.9989682
16,улица Авиаторов,166000,67.6331448,53.0166202
9,улица А.П. Пырерки,166000,67.6444408,53.0047364
5,улица Авиаторов,166000,67.6364855,53.0121260
19,Оленная улица,166000,67.6422938,52.9969119
17,Оленная улица,166000,67.6427260,52.9963034
22,Полярная улица,166000,67.6450440,53.0098421
11А,Пионерская улица,166000,67.6364698,53.0036884
6,улица И.П. Выучейского,166000,67.6447788,52.9963876
22,улица И.П. Выучейского,166000,67.6414876,52.9999531
30,улица И.П. Выучейского,166000,67.6392477,53.0021926
14/36,улица Ленина,166000,67.6373013,53.0050654
7,улица Профессора Г.А.Чернова,166000,67.6403307,52.9960618
10,улица им. Н.Е. Сапрыгина,166000,67.6459741,52.9987786
17,улица им. Н.Е. Сапрыгина,166000,67.6466671,53.0006719
2,улица Тыко-Вылко,166000,67.6397223,52.9977909
11,улица Хатанзейского,166000,67.6456099,52.9989169
27,улица И.П. Выучейского,166000,67.6410623,53.0025038
33,Первомайская улица,166000,67.6382126,53.0157469
5,улица Авиаторов,166000,67.6361055,53.0121606
21Б,улица Смидовича,166000,67.6407463,53.0077615
20,улица Смидовича,166000,67.6388283,53.0058310
11,улица Смидовича,166000,67.6424150,53.0039165
14,улица А.П. Пырерки,166000,67.6422044,53.0061530
31Б,улица Ленина,166000,67.6362850,52.9951887
4,проезд Капитана Матросова,166000,67.6389609,52.9944662
9А,Октябрьская улица,166000,67.6346812,52.9939464
36,улица Ленина,166000,67.6354187,52.9935290
2Б,улица Тыко Вылки,166000,67.6411346,53.0060267
7,улица Авиаторов,166000,67.6357244,53.0125926
8,улица Тыко Вылки,166000,67.6416232,53.0085782
4,улица Ленина,166000,67.6346892,52.9922651
22А,Первомайская улица,166000,67.6409023,53.0099248
37,Первомайская улица,166000,67.6385473,53.0153689
23,Первомайская улица,166000,67.6416599,53.0125137
25А,улица И.П. Выучейского,166000,67.6416976,53.0026682
7,Октябрьская улица,166000,67.6342573,52.9940078
8А,улица Победы,166000,67.6391753,53.0114034
15,улица А.П. Пырерки,166000,67.6427766,53.0067115
25,улица Смидовича,166000,67.6391805,53.0079144
8,улица Победы,166000,67.6397248,53.0113434
7,улица М.Баева,166000,67.6602907,53.0746264
7,Заполярный переулок,166000,67.6611068,53.0717947
2,Заводская улица,166000,67.6579682,53.0518467
2,Комсомольская улица,166000,67.6592267,53.0539711
11,улица М.Баева,166000,67.6615265,53.0748916
27,Комсомольская улица,166000,67.6568879,53.0658657
9А,Заводская улица,166000,67.6579328,53.0578843
7,Заводская улица,166000,67.6578921,53.0558520
2,улица С.Н.Калмыкова,166000,67.6601497,53.0674997
15А,Бондарная улица,166000,67.6641773,53.0647039
2,Заполярный переулок,166000,67.6606620,53.0699788
23,Заводская улица,166000,67.6562765,53.0663823
12А,улица С.Н.Калмыкова,166000,67.6579253,53.0701837
15,Бондарная улица,166000,67.6645673,53.0638047
1,Заполярный переулок,166000,67.6602761,53.0697072
34А,Юбилейная улица,166000,67.6647926,53.0819865
8,улица С.Н.Калмыкова,166000,67.6583401,53.0675793
8,Заводская улица,166000,67.6575099,53.0554279
8,улица М.Баева,166000,67.6605846,53.0746162
16,Бондарная улица,166000,67.6647842,53.0639898
18,Заводская улица,166000,67.6566094,53.0599863
5,Северный переулок,166000,67.6606274,53.0715272
12,улица С.Н.Калмыкова,166000,67.6583623,53.0712540
12,улица М.Баева,166000,67.6606221,53.0773003
10,улица С.Н.Калмыкова,166000,67.6583535,53.0686984
13,улица С.Н.Калмыкова,166000,67.6588216,53.0731358
10,Комсомольская улица,166000,67.6581060,53.0598400
17,Заводская улица,166000,67.6569199,53.0628772
13,Заводская улица,166000,67.6570157,53.0605088
9,улица М.Баева,166000,67.6608630,53.0745944
1,улица М.Баева,166000,67.6592877,53.0736187
3,Комсомольская улица,166000,67.6595028,53.0568139
10,улица М.Баева,166000,67.6608542,53.0758958
8,Комсомольская улица,166000,67.6583701,53.0580866
5,Заполярный переулок,166000,67.6618422,53.0717693
30,Заводская улица,166000,67.6554744,53.0666150
8,Биржевой переулок,166000,67.6602437,53.0581647
3,улица М.Баева,166000,67.6599856,53.0735948
7,улица С.Н.Калмыкова,166000,67.6594039,53.0685525
2,Бондарная улица,166000,67.6651434,53.0624749
14,улица С.Н.Калмыкова,166000,67.6585599,53.0731759
19,Заводская улица,166000,67.6566945,53.0639217
13,улица М.Баева,166000,67.6615160,53.0764325
5,улица С.Н.Калмыкова,166000,67.6599085,53.0687303
3А,Бондарная улица,166000,67.6654970,53.0606113
25,Заводская улица,166000,67.6560356,53.0672512
9,улица М.Баева,166000,67.6616928,53.0729852
28,Заводская улица,166000,67.6556996,53.0657331
4,Биржевой переулок,166000,67.6597939,53.0571885
6,Северный переулок,166000,67.6604108,53.0723750
12А,Бондарная улица,166000,67.6649854,53.0618226
4,улица С.Н.Калмыкова,166000,67.6596726,53.0675345
9,Заводская улица,166000,67.6576128,53.0577366
11,улица С.Н.Калмыкова,166000,67.6588262,53.0709442
13,Юбилейная улица,166000,67.6644007,53.0732811
21,Заводская улица,166000,67.6564637,53.0652428
16,Заводская улица,166000,67.6567567,53.0590231
18,Дорожный переулок,166000,67.6558419,53.0847243
42,Юбилейная улица,166000,67.6662168,53.0838369
11,Юбилейная улица,166000,67.6628964,53.0709166
3,Заполярный переулок,166000,67.6600662,53.0708845
1,Заводская улица,166000,67.6583498,53.0503815
40,Юбилейная улица,166000,67.6661066,53.0831072
8А,улица С.Н.Калмыкова,166000,67.6579077,53.0684510
4А,Комсомольская улица,166000,67.6588429,53.0558238
3,Заполярный переулок,166000,67.6611058,53.0705118
18,Бондарная улица,166000,67.6657585,53.0647392
8,Северный переулок,166000,67.6608352,53.0729333
2,Северный переулок,166000,67.6593966,53.0711028
2,улица М.Баева,166000,67.6590966,53.0748649
10,Северный переулок,166000,67.6612332,53.0733982
26,Заводская улица,166000,67.6559054,53.0645640
4А,Биржевой переулок,166000,67.6599593,53.0564612
4,Заполярный переулок,166000,67.6615195,53.0710442
24,Заводская улица,166000,67.6561273,53.0632294
19А,Бондарная улица,166000,67.6653571,53.0636425
6А,Комсомольская улица,166000,67.6589194,53.0572535
6,улица С.Н.Калмыкова,166000,67.6588545,53.0675932
5,Заводская улица,166000,67.6579931,53.0548517
4,улица М.Баева,166000,67.6595043,53.0748437
3,улица С.Н.Калмыкова,166000,67.6603932,53.0685062
10,Бондарная улица,166000,67.6648799,53.0631685
2Б,улица С.Н.Калмыкова,166000,67.6605658,53.0674661
36А,Юбилейная улица,166000,67.6650422,53.0828463
19,улица М.Баева,166000,67.6614392,53.0782488
3А,Комсомольская улица,166000,67.6596745,53.0559261
6,Бондарная улица,166000,67.6658140,53.0635334
6,улица М.Баева,166000,67.6599928,53.0746127
4,Северный переулок,166000,67.6599781,53.0718094
9,улица С.Н.Калмыкова,166000,67.6588207,53.0696520
15А,Бондарная улица,166000,67.6644090,53.0643302
14,Заводская улица,166000,67.6569415,53.0582788
6,Заводская улица,166000,67.6576674,53.0541639
1,улица С.Н.Калмыкова,166000,67.6610011,53.0684610
4,Заводская улица,166000,67.6577768,53.0530964
30,улица Рыбников,166000,67.6374190,52.9724961
9Б,улица Рыбников,166000,67.6396850,52.9790533
27,улица Рыбников,166000,67.6383501,52.9721665
13,улица Рыбников,166000,67.6390315,52.9783922
59А,улица Рыбников,166000,67.6367745,52.9698451
2,улица Меньшикова,166000,67.6369626,52.9734788
51,улица Ленина,166000,67.6381327,52.9793584
30А,улица Рыбников,166000,67.6372160,52.9727577
16,улица Ленина,166000,67.6372019,53.0039950
20,улица Ленина,166000,67.6368860,53.0019183
10,Сахалинский переулок,166000,67.6495800,53.0441728
66А,улица имени 60-летия Октября,166000,67.6492093,53.0501294
20А,Сахалинский переулок,166000,67.6505463,53.0461126
8А,Сахалинский переулок,166000,67.6493314,53.0446146
49А,улица имени 60-летия Октября,166000,67.6435025,53.0379075
81,улица имени 60-летия Октября,166000,67.6479647,53.0445969
74А,улица имени 60-летия Октября,166000,67.6502105,53.0494604
64А,улица имени 60-летия Октября,166000,67.6485848,53.0499578
85,улица имени 60-летия Октября,166000,67.6485700,53.0461687
77,улица имени 60-летия Октября,166000,67.6474037,53.0455569
66Б,улица имени 60-летия Октября,166000,67.6489505,53.0514291
74Б,улица имени 60-летия Октября,166001,67.6495883,53.0508159
62А,улица имени 60-летия Октября,166000,67.6476030,53.0476294
85А,улица имени 60-летия Октября,166000,67.6484277,53.0451123
73,улица имени 60-летия Октября,166000,67.6468464,53.0453203
54Б,улица имени 60-летия Октября,166000,67.6459909,53.0485149
7,Сахалинский переулок,166000,67.6489035,53.0432395
105,улица имени 60-летия Октября,166000,67.6508515,53.0475693
52Б,улица имени 60-летия Октября,166000,67.6455878,53.0498800
54Г,улица имени 60-летия Октября,166000,67.6457430,53.0507974
11А/11Б,Сахалинский переулок,166000,67.6493706,53.0432179
24А,Сахалинский переулок,166000,67.6510422,53.0467175
16,Сахалинский переулок,166000,67.6502022,53.0444577
18А,Сахалинский переулок,166000,67.6503024,53.0458529
8,Сахалинский переулок,166000,67.6494289,53.0438882
69Б,улица имени 60-летия Октября,166000,67.6462024,53.0439332
77А,улица имени 60-летия Октября,166000,67.6474633,53.0444913
79А,улица имени 60-летия Октября,166000,67.6477572,53.0444923
68А,улица имени 60-летия Октября,166000,67.6494145,53.0488965
87,улица имени 60-летия Октября,166000,67.6487745,53.0462522
54А,улица имени 60-летия Октября,166000,67.6460084,53.0465270
10,Совхозная улица,166000,67.6538730,53.0389648
66,улица имени 60-летия Октября,166000,67.6494738,53.0477833
2,Совхозная улица,166000,67.6519857,53.0393768
58,улица имени 60-летия Октября,166000,67.6465353,53.0459876
69,улица имени 60-летия Октября,166000,67.6464654,53.0450323
5,Сахалинский переулок,166000,67.6486212,53.0434352
19,Сахалинский переулок,166000,67.6502895,53.0436608
74,улица имени 60-летия Октября,166000,67.6503346,53.0484533
39,Сахалинский переулок,166000,67.6523531,53.0462375
17,Сахалинский переулок,166000,67.6500961,53.0436688
12В,Сахалинский переулок,166000,67.6496709,53.0451872
68Б,улица имени 60-летия Октября,166000,67.6494103,53.0513574
95А,улица имени 60-летия Октября,166000,67.6498550,53.0460559
4,Совхозная улица,166000,67.6525177,53.0377779
72А,улица имени 60-летия Октября,166000,67.6499781,53.0495197
23,Сахалинский переулок,166000,67.6507953,53.0447506
62,улица имени 60-летия Октября,166000,67.6474147,53.0468991
70Б,улица имени 60-летия Октября,166001,67.6496146,53.0498977
34,Набережная улица,166000,67.6435301,53.0372151
71,улица имени 60-летия Октября,166000,67.6466671,53.0451451
6,Совхозная улица,166000,67.6533783,53.0391920
62В,улица имени 60-летия Октября,166000,67.6482459,53.0468778
56А,улица имени 60-летия Октября,166000,67.6462877,53.0464827
56,улица имени 60-летия Октября,166000,67.6462911,53.0457799
2,Сахалинский переулок,166000,67.6484963,53.0443774
68,улица имени 60-летия Октября,166000,67.6497332,53.0478940
54,улица имени 60-летия Октября,166000,67.6460771,53.0456587
70,улица имени 60-летия Октября,166000,67.6499420,53.0481288
60А,улица имени 60-летия Октября,166000,67.6468279,53.0474989
22,Сахалинский переулок,166000,67.6509356,53.0452823
14А,Сахалинский переулок,166000,67.6499062,53.0454328
58А,улица имени 60-летия Октября,166000,67.6465721,53.0468105
72,улица имени 60-летия Октября,166000,67.6501386,53.0482323
4А,Совхозная улица,166000,67.6527032,53.0382579
22А,Сахалинский переулок,166000,67.6508157,53.0461930
12,Сахалинский переулок,166000,67.6497642,53.0441584
7А,Совхозная улица,166000,67.6524572,53.0394774
74Б,улица имени 60-летия Октября,166001,67.6495640,53.0505478
20,Сахалинский переулок,166000,67.6506761,53.0453950
79,улица имени 60-летия Октября,166000,67.6476570,53.0457299
16А,Сахалинский переулок,166000,67.6501056,53.0456511
75А,улица имени 60-летия Октября,166000,67.6471906,53.0444866
69А,улица имени 60-летия Октября,166000,67.6459129,53.0445485
95,улица имени 60-летия Октября,166000,67.6498359,53.0469843
9,Сахалинский переулок,166000,67.6491219,53.0431584
93,улица имени 60-летия Октября,166000,67.6495350,53.0467584
8,Совхозная улица,166000,67.6531366,53.0409018
6,Сахалинский переулок,166000,67.6491855,53.0439856
18,Сахалинский переулок,166000,67.6504558,53.0449899
32Б,улица Ленина,166000,67.6357355,52.9951479
19,улица И.П. Выучейского,166000,67.6432720,52.9994272
21,улица И.П. Выучейского,166000,67.6429082,52.9997446
51А,улица имени 60-летия Октября,166000,67.6434460,53.0417258
8В,Заводская улица,166000,67.6578608,53.0671951
36,Полярная улица,166000,67.6447598,53.0123275
21,Лесной переулок,166000,67.6345036,53.0005034
17А,Рабочая улица,166000,67.6399241,53.0530205
26,Комсомольская улица,166000,67.6568170,53.0649628
9,улица Авиаторов,166000,67.6351793,53.0129996
25А,улица Ленина,166000,67.6377060,52.9982862
12,улица А.Ф.Титова,166000,67.6412342,53.0598756
27,Первомайская улица,166000,67.6404162,53.0135207
17Б,улица Рыбников,166000,67.6412626,52.9775414
25,улица Ленина,166000,67.6370006,52.9985730
37,Полярная улица,166000,67.6463349,53.0121591
8Б,улица С.Н.Калмыкова,166000,67.6575178,53.0675833
24,Полярная улица,166000,67.6451373,53.0119563
10А,Пионерская улица,166000,67.6356655,52.9985837
26,Полярная улица,166700,67.6453970,53.0115069
13А,улица А.П. Пырерки,166000,67.6432327,53.0062250
3,Ненецкая улица,166000,67.6418354,52.9978460
10,улица А.Ф.Титова,166000,67.6414323,53.0590076
35Б,улица Ленина,166000,67.6368846,52.9875576
32,Набережная улица,166000,67.6445278,53.0337574
8,Полярная улица,166000,67.6435057,52.9995034
9Б,улица И.П. Выучейского,166000,67.6456013,52.9941719
9Б,Полярная улица,166000,67.6441095,52.9998765
6А,улица Смидовича,166000,67.6433325,53.0013194
6,Полярная улица,166000,67.6436979,53.0008924
5,улица Победы,166000,67.6405024,53.0104518
6А,улица А.Ф.Титова,166000,67.6403691,53.0580183
26,улица Ленина,166000,67.6364326,52.9991754
9В,улица им. Н.Е. Сапрыгина,166000,67.6457916,52.9948328
20,Ненецкая улица,166000,67.6430825,53.0079170
3А,Первомайская улица,166000,67.6468576,53.0081177
11,улица Победы,166000,67.6408211,53.0134305
6,улица Рыбников,166000,67.6394317,52.9813055
25,Первомайская улица,166000,67.6406585,53.0127378
14,улица им. Н.Е. Сапрыгина,166000,67.6463634,53.0009327
39,Полярная улица,166000,67.6466175,53.0118722
17А,улица Авиаторов,166000,67.6323485,53.0211258
15Б,улица Меньшикова,166000,67.6332717,52.9798351
1,Печорская улица,166000,67.6326709,52.9939685
11,Южная улица,166000,67.6326764,52.9978957
7,Лесной переулок,166000,67.6336554,52.9956741
21,улица Авиаторов,166000,67.6327012,53.0234374
10,Оленная улица,166000,67.6408339,52.9967322
5А,Пустозёрская улица,166000,67.6322522,52.9927768
15Д,улица Авиаторов,166000,67.6332283,53.0210323
25,Печорская улица,166000,67.6337590,53.0002339
1,Октябрьская улица,166000,67.6338238,52.9925755
2,Октябрьская улица,166000,67.6336258,52.9928517
17Б,улица Авиаторов,166000,67.6328992,53.0221119
14А,улица Ленина,166000,67.6370658,53.0047528
15А,улица Меньшикова,166000,67.6330964,52.9807946
15А,улица Авиаторов,166000,67.6329694,53.0185315
42,улица И.П. Выучейского,166000,67.6364531,53.0064014
12,Печорская улица,166000,67.6329082,52.9976501
27,Октябрьская улица,166000,67.6361563,53.0040891
13,Южная улица,166000,67.6327155,52.9984393
3,Октябрьская улица,166000,67.6339452,52.9930606
9,улица Хатанзейского,166000,67.6454868,52.9980132
8,Рябиновая улица,166000,67.6277962,53.0329672
25,Рябиновая улица,166000,67.6268148,53.0410852
13,Рябиновая улица,166000,67.6278071,53.0351224
17,Светлая улица,166000,67.6269122,53.0361319
14,Рябиновая улица,166000,67.6273762,53.0357076
10,Российская улица,166000,67.6284645,53.0329911
20,Рябиновая улица,166000,67.6267692,53.0383271
10,Рябиновая улица,166000,67.6275808,53.0342009
13,Светлая улица,166000,67.6271315,53.0344600
4,Аэродромная улица,166000,67.6285019,53.0382063
23,Рябиновая улица,166000,67.6269816,53.0398828
6,Рябиновая улица,166000,67.6278869,53.0323720
1А,Светлая улица,166000,67.6280845,53.0298025
9,Рябиновая улица,166000,67.6280265,53.0338183
9,Светлая улица,166000,67.6274100,53.0324658
12,Рябиновая улица,166000,67.6274021,53.0350926
5,Рябиновая улица,166000,67.6284358,53.0312632
28,Российская улица,166000,67.6270963,53.0413720
12,Российская улица,166000,67.6284185,53.0337837
18,улица Полярных Лётчиков,166000,67.6294812,53.0365436
17,Рябиновая улица,166000,67.6275163,53.0371192
16,Рябиновая улица,166000,67.6271594,53.0367516
1Б,Светлая улица,166000,67.6279282,53.0302324
11,Светлая улица,166000,67.6272170,53.0336664
24,Рябиновая улица,166000,67.6263543,53.0390006
14,Российская улица,166000,67.6282959,53.0345955
20,Российская улица,166000,67.6277909,53.0374292
16,Российская улица,166000,67.6280423,53.0354766
3,Рябиновая улица,166000,67.6289061,53.0291278
18,Рябиновая улица,166000,67.6269662,53.0376656
6,Аэродромная улица,166000,67.6282171,53.0394328
21,Рябиновая улица,166000,67.6271514,53.0391089
3,Светлая улица,166000,67.6277531,53.0311054
22,Рябиновая улица,166000,67.6266159,53.0392694
8,Октябрьская улица,166000,67.6339110,52.9943777
10,Октябрьская улица,166000,67.6339782,52.9950332
6,Октябрьская улица,166000,67.6338037,52.9938861
5,Октябрьская улица,166000,67.6340374,52.9935687
7,Октябрьская улица,166000,67.6340707,52.9938937
1,Лесной переулок,166000,67.6332410,52.9932035
3,Лесной переулок,166000,67.6333152,52.9939347
5,Лесной переулок,166000,67.6334725,52.9942617
4,Лесной переулок,166000,67.6330660,52.9939437
2,Лесной переулок,166000,67.6329030,52.9935938
19,Печорская улица,166000,67.6335170,52.9987647
31,Печорская улица,166000,67.6339886,53.0019036
15,Печорская улица,166000,67.6333854,52.9977643
21,Печорская улица,166000,67.6335569,52.9992204
11,Печорская улица,166000,67.6333011,52.9972250
17,Печорская улица,166000,67.6334610,52.9983261
30,Печорская улица,166000,67.6336875,53.0030079
28,Печорская улица,166000,67.6336825,53.0023415
24,Печорская улица,166000,67.6335086,53.0011482
26,Печорская улица,166000,67.6336129,53.0017921
18,Печорская улица,166000,67.6332467,52.9995460
22,Печорская улица,166000,67.6334320,53.0006346
20,Печорская улица,166000,67.6333432,53.0000759
13А,Лесной переулок,166000,67.6341034,52.9982000
20,Октябрьская улица,166000,67.6344887,52.9979688
9,Лесной переулок,166000,67.6338382,52.9964348
16,Октябрьская улица,166000,67.6342170,52.9965146
14,Октябрьская улица,166000,67.6341419,52.9959718
11,Лесной переулок,166000,67.6339484,52.9970047
13,Лесной переулок,166000,67.6340587,52.9976347
7,Печорская улица,166000,67.6329838,52.9957555
10,Лесной переулок,166000,67.6333661,52.9958210
8,Лесной переулок,166000,67.6332699,52.9951344
9,Печорская улица,166000,67.6331678,52.9965261
5А,Печорская улица,166000,67.6329157,52.9952613
20,улица Рыбников,166000,67.6391740,52.9760080
5,улица Рыбников,166000,67.6392350,52.9809895
16,улица Рыбников,166000,67.6394703,52.9763565
15,улица Рыбников,166000,67.6393090,52.9770001
43,улица имени 60-летия Октября,166000,67.6423525,53.0415579
40,улица имени 60-летия Октября,166000,67.6420795,53.0426749
38,улица имени 60-летия Октября,166000,67.6419231,53.0424730
18,Лесной переулок,166000,67.6337534,52.9980350
16,Лесной переулок,166000,67.6336529,52.9974284
19,Лесной переулок,166000,67.6343942,52.9999925
17,Лесной переулок,166000,67.6343171,52.9993478
20,Лесной переулок,166000,67.6338692,52.9985303
15,Лесной переулок,166000,67.6342166,52.9988008
14,Лесной переулок,166000,67.6335399,52.9967999
16,Пустозёрская улица,166000,67.6340582,52.9923486
27,Полярная улица,166000,67.6457002,53.0089844
25,Полярная улица,166000,67.6456418,53.0093540
23,Южная улица,166000,67.6332739,53.0010113
15,Южная улица,166000,67.6328954,52.9995620
19,Южная улица,166000,67.6331075,53.0007660
17,Южная улица,166000,67.6329897,53.0001374
24,улица имени 60-летия Октября,166000,67.6387630,53.0381783
9,улица имени 60-летия Октября,166000,67.6383510,53.0360266
28,улица имени 60-летия Октября,166000,67.6391735,53.0385619
18,улица имени 60-летия Октября,166000,67.6382115,53.0372102
20,улица имени 60-летия Октября,166000,67.6384299,53.0374451
22,улица имени 60-летия Октября,166000,67.6386359,53.0377590
13,улица имени 60-летия Октября,166000,67.6388164,53.0366699
15,улица имени 60-летия Октября,166000,67.6389997,53.0370456
11,улица имени 60-летия Октября,166000,67.6385822,53.0363976
26,улица имени 60-летия Октября,166000,67.6389858,53.0383092
22,улица Мира,166000,67.6545055,53.0736471
7А,улица Мира,166000,67.6547176,53.0722739
7,улица Мира,166000,67.6546095,53.0728958
34,улица Мира,166000,67.6545646,53.0747334
32,улица Мира,166000,67.6551001,53.0752258
35,улица Мира,166000,67.6542990,53.0744009
36,улица Мира,166000,67.6540309,53.0742645
51,улица Мира,166000,67.6550828,53.0761081
37,улица Мира,166000,67.6538733,53.0739007
50,улица Мира,166000,67.6547624,53.0763224
12,улица Мира,166000,67.6549758,53.0734140
7Б,улица Мира,166000,67.6544296,53.0715223
5А,улица Мира,166000,67.6548259,53.0716606
27,улица Мира,166000,67.6556060,53.0750092
26,улица Мира,166000,67.6553591,53.0747461
25,улица Мира,166000,67.6551693,53.0744319
49,улица Мира,166000,67.6545433,53.0754765
20,улица Мира,166000,67.6537756,53.0728704
47,улица Мира,166000,67.6537837,53.0747035
46,улица Мира,166000,67.6535180,53.0744095
5,улица Мира,166000,67.6549052,53.0741509
3А,Колхозная улица,166000,67.6306296,52.9951256
2А,Пустозёрская улица,166000,67.6305555,52.9940843
3Б,Колхозная улица,166000,67.6304361,52.9947714
23А,улица Рыбников,166000,67.6384437,52.9744331
30Б,улица Рыбников,166000,67.6376587,52.9726476
6,Лесной переулок,166000,67.6331164,52.9945288
22,Лесной переулок,166000,67.6339683,52.9990926
14,Печорская улица,166000,67.6330236,52.9981633
21А,Пионерская улица,166000,67.6341635,53.0054612
2,Портовая улица,166000,67.6459299,52.9914383
4,Рождественский переулок,166000,67.6530769,53.0802221
5,Оленная улица,166000,67.6441840,52.9941674
7,Оленная улица,166000,67.6439718,52.9944712
4,проезд Капитана Матросова,166000,67.6402744,52.9938772
72,Юбилейная улица,166700,67.6674883,53.0955379
66,Юбилейная улица,166700,67.6672348,53.0909587
70,Юбилейная улица,166700,67.6674532,53.0949070
66Б,Юбилейная улица,166700,67.6672307,53.0932349
73,Юбилейная улица,166700,67.6679897,53.0937466
77,Юбилейная улица,166700,67.6678469,53.0944926
75,Юбилейная улица,166700,67.6681534,53.0942624
83,Юбилейная улица,166700,67.6682875,53.0949660
68А,Юбилейная улица,166700,67.6671750,53.0945531
9,Песчаный проезд,166700,67.6672653,53.0943035
8А,Песчаный проезд,166700,67.6673012,53.0936833
68,Юбилейная улица,166700,67.6674358,53.0940224
85,Юбилейная улица,166700,67.6683024,53.0958993
66А,Юбилейная улица,166700,67.6672111,53.0925370
87,Юбилейная улица,166700,67.6684872,53.0961753
8,Мурманская улица,166000,67.6660300,53.0881036
1,Мурманская улица,166000,67.6649812,53.0858690
10,Мурманская улица,166000,67.6662066,53.0887498
7,Мурманская улица,166000,67.6657231,53.0891821
4,Мурманская улица,166000,67.6646841,53.0838407
1А,Мурманская улица,166000,67.6651467,53.0865846
6,Мурманская улица,166000,67.6657511,53.0870455
10А,Мурманская улица,166000,67.6663404,53.0895030
12,Мурманская улица,166000,67.6664606,53.0900853
5,Мурманская улица,166000,67.6655112,53.0881681
9,Мурманская улица,166000,67.6658559,53.0897156
28,Юбилейная улица,166000,67.6651187,53.0793744
43,Юбилейная улица,166000,67.6665560,53.0825531
56,Юбилейная улица,166000,67.6669081,53.0882190
23,Юбилейная улица,166000,67.6650526,53.0764442
19А,Юбилейная улица,166000,67.6649479,53.0744719
51А,Юбилейная улица,166000,67.6674972,53.0841394
47А,Юбилейная улица,166000,67.6672352,53.0827675
20,Юбилейная улица,166000,67.6641923,53.0752535
51,Юбилейная улица,166000,67.6669152,53.0850997
16,Юбилейная улица,166000,67.6638710,53.0742182
46,Юбилейная улица,166000,67.6663799,53.0858639
28А,Юбилейная улица,166000,67.6648957,53.0796783
41,Юбилейная улица,166000,67.6662710,53.0814160
38,Юбилейная улица,166000,67.6658298,53.0821419
35А,Юбилейная улица,166000,67.6662411,53.0785288
47,Юбилейная улица,166000,67.6668678,53.0838499
69А,Юбилейная улица,166000,67.6679417,53.0912623
54,Юбилейная улица,166000,67.6668055,53.0877907
39,Юбилейная улица,166000,67.6659980,53.0804132
27,Юбилейная улица,166000,67.6652982,53.0775289
17,Юбилейная улица,166000,67.6646252,53.0744849
35,Юбилейная улица,166000,67.6657927,53.0795495
53А,Юбилейная улица,166000,67.6676858,53.0849783
14,Юбилейная улица,166000,67.6637091,53.0738055
46А,Юбилейная улица,166000,67.6660157,53.0862779
64,Юбилейная улица,166000,67.6671863,53.0903248
31,Юбилейная улица,166000,67.6655604,53.0785245
45,Юбилейная улица,166000,67.6666939,53.0831432
62,Юбилейная улица,166000,67.6670909,53.0895554
41А,Юбилейная улица,166000,67.6658326,53.0839429
37,Юбилейная улица,166000,67.6659156,53.0800231
15,Юбилейная улица,166000,67.6644356,53.0741129
21,Юбилейная улица,166000,67.6649143,53.0758580
57,Юбилейная улица,166000,67.6672285,53.0868903
58А,Юбилейная улица,166000,67.6667193,53.0895798
44А,Юбилейная улица,166000,67.6658884,53.0857361
19,Юбилейная улица,166000,67.6647749,53.0753090
49А,Юбилейная улица,166000,67.6673704,53.0835038
48А,Юбилейная улица,166000,67.6662238,53.0870905
40Б,Юбилейная улица,166000,67.6654637,53.0844139
50,Юбилейная улица,166000,67.6666388,53.0869131
18,Юбилейная улица,166000,67.6640461,53.0747473
48,Юбилейная улица,166000,67.6665024,53.0862881
36,Юбилейная улица,166000,67.6656144,53.0814394
29,Юбилейная улица,166000,67.6654410,53.0780723
32,Юбилейная улица,166000,67.6653525,53.0804415
52,Юбилейная улица,166000,67.6667254,53.0874101
49,Юбилейная улица,166000,67.6669595,53.0843174
33,Юбилейная улица,166000,67.6656610,53.0790113
38,Юбилейная улица,166000,67.6654047,53.0835523
29А,Юбилейная улица,166000,67.6655190,53.0767734
25,Юбилейная улица,166000,67.6651835,53.0769812
53,Юбилейная улица,166000,67.6670632,53.0856930
64А,Юбилейная улица,166000,67.6668873,53.0908219
57А,Юбилейная улица,166000,67.6674775,53.0866394
30,Юбилейная улица,166000,67.6652649,53.0798427
44,Юбилейная улица,166000,67.6662684,53.0852539
30А,Юбилейная улица,166000,67.6649000,53.0804921
58,Юбилейная улица,166000,67.6669639,53.0886877
55,Юбилейная улица,166000,67.6671538,53.0861274
1,Комсомольская улица,166000,67.6593536,53.0545380
26А,Комсомольская улица,166000,67.6568020,53.0668450
12,Комсомольская улица,166000,67.6579974,53.0604264
13,Комсомольская улица,166000,67.6578437,53.0617330
17,Комсомольская улица,166000,67.6574958,53.0629480
9,Комсомольская улица,166000,67.6581952,53.0616490
25,Комсомольская улица,166000,67.6571555,53.0649777
7,Комсомольская улица,166000,67.6583284,53.0613587
21,Комсомольская улица,166000,67.6573793,53.0641296
18,улица Мира,166000,67.6534833,53.0725973
5,переулок Высоцкого,166000,67.6535894,53.0764640
63,улица Мира,166000,67.6535510,53.0754238
61,улица Мира,166000,67.6540223,53.0760046
8,Полевой переулок,166000,67.6534465,53.0789367
7,Рождественский переулок,166000,67.6539909,53.0801738
9,Рождественский переулок,166000,67.6542866,53.0805458
4,переулок Антипина,166000,67.6538982,53.0866011
6А,Рождественский переулок,166000,67.6532477,53.0811219
29,улица Мира,166000,67.6555336,53.0764750
4,Полевой переулок,166000,67.6530372,53.0785403
60,улица Мира,166000,67.6542270,53.0763004
59А,улица Мира,166000,67.6547879,53.0770331
29А,улица Мира,166000,67.6557085,53.0771630
9,переулок Высоцкого,166000,67.6540448,53.0770630
74/1,улица Мира,166000,67.6527208,53.0789819
28,улица Мира,166000,67.6556271,53.0758681
12,Дорожный переулок,166000,67.6548810,53.0838457
62,улица Мира,166000,67.6537441,53.0757349
12,Полевой переулок,166000,67.6540420,53.0795772
15,Полевой переулок,166000,67.6552366,53.0799048
13,переулок Высоцкого,166000,67.6547800,53.0778329
14,переулок Высоцкого,166000,67.6544277,53.0784827
31,улица Мира,166000,67.6553672,53.0755128
22,Полевой переулок,166000,67.6551039,53.0806353
9,Дорожный переулок,166000,67.6547522,53.0826706
5,Полевой переулок,166000,67.6537823,53.0783616
74/2,улица Мира,166000,67.6526621,53.0783642
11,Полевой переулок,166000,67.6548886,53.0795793
64,улица Мира,166000,67.6533295,53.0751664
7,Полевой переулок,166000,67.6539939,53.0785861
33,улица Мира,166000,67.6548099,53.0749181
14,Рождественский переулок,166000,67.6547453,53.0818800
13,Рождественский переулок,166000,67.6550003,53.0812106
1,Полевой переулок,166000,67.6529130,53.0775320
6,переулок Высоцкого,166000,67.6534481,53.0773017
6,Рождественский переулок,166000,67.6532679,53.0803746
10,Рождественский переулок,166000,67.6539791,53.0811757
4,переулок Высоцкого,166000,67.6532827,53.0771035
1,переулок Высоцкого,166000,67.6531845,53.0760306
778/2,улица Мира,166000,67.6528059,53.0799210
57,улица Мира,166000,67.6552655,53.0776911
5,Дорожный переулок,166000,67.6539549,53.0819695
8,переулок Высоцкого,166000,67.6536102,53.0774463
3,Дорожный переулок,166000,67.6536091,53.0815755
1,Дорожный переулок,166000,67.6528649,53.0810741
3,Рождественский переулок,166000,67.6533709,53.0795543
10,Полевой переулок,166000,67.6538773,53.0793704
15,переулок Высоцкого,166000,67.6551516,53.0783562
11,улица Мира,166000,67.6536070,53.0719912
8,Рождественский переулок,166000,67.6534946,53.0806714
6,Полевой переулок,166000,67.6532295,53.0787190
8,переулок Мартина Ульсена,166000,67.6542123,53.0849869
9Б,улица Смидовича,166000,67.6431778,53.0030455
44,улица Мира,166000,67.6528021,53.0734583
66,улица Мира,166000,67.6527940,53.0745593
65,улица Мира,166000,67.6530546,53.0747738
20,Бондарная улица,166000,67.6659827,53.0669826
14,Бондарная улица,166000,67.6652849,53.0621606
12,Бондарная улица,166000,67.6651598,53.0612333
3,Бондарная улица,166000,67.6655110,53.0617029
5А,Бондарная улица,166000,67.6659107,53.0617380
1,Бондарная улица,166000,67.6653794,53.0628253
11,Бондарная улица,166000,67.6654661,53.0651076
19,Бондарная улица,166000,67.6655693,53.0639842
9,Бондарная улица,166000,67.6661337,53.0639113
7,Бондарная улица,166000,67.6659549,53.0630577
12-14,улица И.П. Выучейского,166000,67.6426534,52.9985882
13А,переулок Малый Качгорт,166000,67.6336025,53.0386105
12А,переулок Малый Качгорт,166000,67.6345696,53.0386867
20А,переулок Малый Качгорт,166000,67.6345956,53.0350354
12Б,переулок Малый Качгорт,166000,67.6344556,53.0393931
26,переулок Малый Качгорт,166000,67.6332461,53.0400885
14А,переулок Малый Качгорт,166000,67.6339541,53.0374322
4,Снежный переулок,166000,67.6383850,53.0385886
26А,улица имени 60-летия Октября,166000,67.6388691,53.0391549
1,2-й переулок,166000,67.6400299,53.0450704
1,Речная улица,166000,67.6386071,53.0333758
26,Набережная улица,166000,67.6423990,53.0345763
14,Качгортский проезд,166000,67.6387276,53.0423068
10,2-й переулок,166000,67.6392522,53.0447719
5,Зимняя улица,166000,67.6398740,53.0361932
18,Набережная улица,166000,67.6409039,53.0330823
5,Морская улица,166000,67.6383001,53.0321221
6,1-й переулок,166000,67.6396087,53.0436818
13,Речная улица,166000,67.6398009,53.0352626
16,Морская улица,166000,67.6394909,53.0337562
12А,Зимняя улица,166000,67.6404811,53.0351441
19,Морская улица,166000,67.6398602,53.0325667
6А,Речная улица,166000,67.6389605,53.0355874
1,Школьная улица,166000,67.6403234,53.0434948
8,2-й переулок,166000,67.6395157,53.0450804
24,Морская улица,166000,67.6405507,53.0344444
34,Морская улица,166000,67.6409015,53.0359493
28,Набережная улица,166000,67.6426739,53.0350918
6,Морская улица,166000,67.6382758,53.0326729
32,Морская улица,166000,67.6411404,53.0358267
17,Набережная улица,166000,67.6401122,53.0325598
28,Набережная улица,166000,67.6428714,53.0353905
37,улица имени 60-летия Октября,166000,67.6416555,53.0397138
12А,Речная улица,166000,67.6391627,53.0359662
2,2-й переулок,166000,67.6398775,53.0456664
7,2-й переулок,166000,67.6396027,53.0444591
7,Морская улица,166000,67.6384124,53.0321999
3А,Зимняя улица,166000,67.6395078,53.0366002
10,Качгортский проезд,166000,67.6388373,53.0418883
11,Морская улица,166000,67.6388172,53.0324188
30,Морская улица,166000,67.6413627,53.0349522
36,Морская улица,166000,67.6407050,53.0354614
9,2-й переулок,166000,67.6394133,53.0440550
9,1-й переулок,166000,67.6395273,53.0419900
24,Набережная улица,166000,67.6419828,53.0340400
1,Морская улица,166000,67.6380741,53.0320957
25,Морская улица,166000,67.6405978,53.0335662
55А,улица имени 60-летия Октября,166000,67.6438034,53.0421351
8,Речная улица,166000,67.6387081,53.0344836
1А,Школьная улица,166000,67.6404459,53.0426596
23,Морская улица,166000,67.6404099,53.0332886
35,Морская улица,166000,67.6413552,53.0339658
28,Морская улица,166000,67.6409842,53.0347836
25,Набережная улица,166000,67.6421863,53.0342778
10,Зимняя улица,166000,67.6401858,53.0357269
6,Зимняя улица,166000,67.6400206,53.0369691
7,1-й переулок,166000,67.6396661,53.0424542
3,2-й переулок,166000,67.6398882,53.0448633
9,Речная улица,166000,67.6394026,53.0344143
4,1-й переулок,166000,67.6398942,53.0439960
37,Морская улица,166000,67.6415434,53.0338004
5,Школьная улица,166000,67.6398080,53.0426691
21,Морская улица,166000,67.6402021,53.0332728
26,Морская улица,166000,67.6407681,53.0345976
12,Зимняя улица,166000,67.6402593,53.0351805
16,Речная улица,166000,67.6396749,53.0359194
10,Морская улица,166000,67.6387002,53.0329652
7,Зимняя улица,166000,67.6400041,53.0354922
4,Морская улица,166000,67.6380390,53.0328803
19,Морская улица,166000,67.6399883,53.0334107
9,Набережная улица,166000,67.6388694,53.0311421
30,Набережная улица,166000,67.6434569,53.0364589
29,Морская улица,166000,67.6410556,53.0335068
14,Речная улица,166000,67.6394543,53.0356565
6,Набережная улица,166000,67.6383226,53.0312680
11,Речная улица,166000,67.6396221,53.0349985
4,Набережная улица,166000,67.6380054,53.0314845
8,Школьная улица,166000,67.6391675,53.0427087
27,Набережная улица,166000,67.6425319,53.0350499
7,Речная улица,166000,67.6392089,53.0343668
3,Зимняя улица,166000,67.6397675,53.0369561
6,2-й переулок,166000,67.6396253,53.0452255
22,Морская улица,166000,67.6402846,53.0342901
23,Набережная улица,166000,67.6416881,53.0335403
33,Морская улица,166000,67.6411851,53.0341150
5,2-й переулок,166000,67.6397184,53.0445560
3,Школьная улица,166000,67.6399784,53.0430053
7,Набережная улица,166000,67.6384757,53.0309583
20,Набережная улица,166000,67.6412684,53.0330291
8,1-й переулок,166000,67.6393313,53.0428515
15,Набережная улица,166000,67.6397947,53.0320925
29,Набережная улица,166000,67.6432851,53.0360819
19,Набережная улица,166000,67.6411104,53.0329134
53А,улица имени 60-летия Октября,166000,67.6436363,53.0420223
12,Речная улица,166000,67.6390131,53.0349920
2,1-й переулок,166000,67.6401151,53.0443713
28А,улица имени 60-летия Октября,166000,67.6391232,53.0397660
5,Набережная улица,166000,67.6381263,53.0310783
16,Набережная улица,166000,67.6399682,53.0320975
18,Морская улица,166000,67.6397453,53.0338200
1,Сахалинский переулок,166000,67.6480859,53.0437766
4,Сахалинский переулок,166000,67.6488675,53.0444905
60Б,улица имени 60-летия Октября,166000,67.6467187,53.0482636
35,Сахалинский переулок,166000,67.6519212,53.0453388
15,Сахалинский переулок,166000,67.6499220,53.0433321
29,Сахалинский переулок,166000,67.6514191,53.0447582
89Б,улица имени 60-летия Октября,166000,67.6490986,53.0456683
33,Сахалинский переулок,166000,67.6517905,53.0448012
6А,Сахалинский переулок,166000,67.6490590,53.0445651
3,Сахалинский переулок,166000,67.6482633,53.0436840
25,Сахалинский переулок,166000,67.6510575,53.0447385
76,улица имени 60-летия Октября,166000,67.6505114,53.0484581
111,улица имени 60-летия Октября,166000,67.6516017,53.0470246
31,Сахалинский переулок,166000,67.6516288,53.0448910
109,улица имени 60-летия Октября,166000,67.6513844,53.0470007
13,Сахалинский переулок,166000,67.6496741,53.0431119
27,Сахалинский переулок,166000,67.6512399,53.0447489
97,улица имени 60-летия Октября,166000,67.6500575,53.0471279
78,улица имени 60-летия Октября,166000,67.6507792,53.0486381
101,улица имени 60-летия Октября,166000,67.6504743,53.0473237
89А,улица имени 60-летия Октября,166000,67.6489591,53.0453859
28А,Сахалинский переулок,166000,67.6514490,53.0463141
99А,улица имени 60-летия Октября,166000,67.6502435,53.0463972
28,Сахалинский переулок,166000,67.6515693,53.0455330
99,улица имени 60-летия Октября,166000,67.6502806,53.0472218
91,улица имени 60-летия Октября,166000,67.6490885,53.0464712
14,Сахалинский переулок,166000,67.6499429,53.0442562
37,Сахалинский переулок,166000,67.6521472,53.0456063
51,улица имени 60-летия Октября,166000,67.6433730,53.0427640
55,улица имени 60-летия Октября,166000,67.6435609,53.0430799
61А,улица имени 60-летия Октября,166000,67.6450843,53.0427492
59А,улица имени 60-летия Октября,166000,67.6448017,53.0426537
64,улица имени 60-летия Октября,166000,67.6492429,53.0475280
53,улица имени 60-летия Октября,166000,67.6434536,53.0431387
47,улица имени 60-летия Октября,166000,67.6428662,53.0422167
59,улица имени 60-летия Октября,166000,67.6446622,53.0435075
70А,улица имени 60-летия Октября,166000,67.6497053,53.0490178
21,Сахалинский переулок,166000,67.6505541,53.0438723
35,Полярная улица,166000,67.6462743,53.0115045
26,Сахалинский переулок,166000,67.6512936,53.0454996
24,Сахалинский переулок,166000,67.6511416,53.0454493
103,улица имени 60-летия Октября,166000,67.6506409,53.0474756
4А,улица Ленина,166000,67.6361438,53.0164157
39Б,улица Мира,166000,67.6533084,53.0732292
39,улица Мира,166000,67.6531751,53.0740074
48,улица Мира,166000,67.6540400,53.0749231
59,улица Мира,166000,67.6545865,53.0767447
30,улица Мира,166000,67.6553849,53.0780771
5,Рождественский переулок,166000,67.6535127,53.0796284
9,Полевой переулок,166000,67.6543343,53.0788159
6,Дорожный переулок,166000,67.6538938,53.0827191
2,Дорожный переулок,166000,67.6529693,53.0826126
12,Рождественский переулок,166000,67.6542008,53.0814091
2,переулок Высоцкого,166000,67.6529618,53.0770204
16,Полевой переулок,166000,67.6543938,53.0798553
8,Дорожный переулок,166000,67.6543013,53.0832721
3,переулок Высоцкого,166000,67.6533762,53.0763081
3,Полевой переулок,166000,67.6533086,53.0779190
33Б,улица Ленина,166000,67.6364058,52.9906987
25А,Полярная улица,166000,67.6458943,53.0099502
9,Песчаная улица,166000,67.6405427,52.9718328
21,Красная улица,166000,67.6404990,52.9730460
14,Красная улица,166000,67.6391623,52.9702559
24,Красная улица,166000,67.6398862,52.9721805
8,Красная улица,166000,67.6387039,52.9692269
7,Песчаная улица,166000,67.6403338,52.9712208
4,Песчаная улица,166000,67.6398320,52.9700336
15,Красная улица,166000,67.6400449,52.9715716
19,Красная улица,166000,67.6403951,52.9726041
9,Красная улица,166000,67.6395645,52.9701270
31А,Красная улица,166000,67.6401066,52.9739383
13,Красная улица,166000,67.6399031,52.9711051
8,Песчаная улица,166000,67.6404135,52.9715283
3,Песчаная улица,166000,67.6394648,52.9691149
1,Песчаная улица,166000,67.6392867,52.9681899
31,Красная улица,166000,67.6398927,52.9740507
23,улица Рыбников,166000,67.6389201,52.9735255
1А,Песчаная улица,166000,67.6390994,52.9678731
26,Красная улица,166000,67.6396659,52.9732107
35,Красная улица,166000,67.6405709,52.9741171
12А,Красная улица,166000,67.6387823,52.9704408
29,Красная улица,166000,67.6399843,52.9729798
10А,Красная улица,166000,67.6385862,52.9698313
22В,Красная улица,166000,67.6392594,52.9727036
17,Красная улица,166000,67.6401633,52.9722539
20,Красная улица,166000,67.6396831,52.9715745
22А,Красная улица,166000,67.6388929,52.9718693
25А,улица Рыбников,166000,67.6382488,52.9728136
2,Песчаная улица,166000,67.6393008,52.9686969
33,Красная улица,166000,67.6404548,52.9746658
10А,Песчаная улица,166000,67.6407164,52.9725212
25,Красная улица,166000,67.6409732,52.9742246
23,Красная улица,166000,67.6407551,52.9735693
14А,Красная улица,166000,67.6389602,52.9708605
30,Красная улица,166000,67.6402095,52.9733191
11,Красная улица,166000,67.6397448,52.9707456
5,Песчаная улица,166000,67.6400063,52.9705158
6,Песчаная улица,166000,67.6402018,52.9708375
27А,Красная улица,166000,67.6394095,52.9731374
24А,Красная улица,166000,67.6397095,52.9721730
18,Красная улица,166000,67.6395185,52.9711359
12,Красная улица,166000,67.6389946,52.9699055
10,Песчаная улица,166000,67.6407733,52.9721082
11Б,Песчаная улица,166000,67.6409526,52.9719726
10,Песчаная улица,166000,67.6409245,52.9723465
22Б,Полярная улица,166000,67.6449282,53.0107936
93А,улица имени 60-летия Октября,166000,67.6496697,53.0458210
20А,улица Смидовича,166000,67.6402794,53.0042299
13,улица Хатанзейского,166000,67.6459491,53.0007418
34,Первомайская улица,166000,67.6385174,53.0138707
1,Российская улица,166000,67.6291888,53.0294974
3Б,улица Рыбников,166000,67.6395831,52.9872346
3,проезд Капитана Матросова,166000,67.6393361,52.9893080
14,Первомайская улица,166000,67.6446659,53.0067045
2,Ольховый переулок,166000,67.6404146,53.0606283
15,Мурманская улица,166000,67.6662778,53.0913307
19А,Бондарная улица,166000,67.6660363,53.0662655
7,Первомайская улица,166000,67.6463124,53.0065260
15,Полярная улица,166000,67.6450789,53.0054149
26Б,улица имени 60-летия Октября,166000,67.6387570,53.0399883
10,улица имени 60-летия СССР,166000,67.6361125,52.9846072
31,улица Ленина,166000,67.6363187,52.9937571
14,улица Рыбников,166000,67.6391421,52.9776667
32,Красная улица,166000,67.6403044,52.9741607
35А,Полярная улица,166000,67.6465702,53.0108508
27,Полярная улица,166000,67.6464024,53.0102794
16,Первомайская улица,166000,67.6428145,53.0090242
19,улица Смидовича,166000,67.6409467,53.0055904
32,улица Смидовича,166000,67.6368538,53.0092231
29,Пионерская улица,166000,67.6310920,53.0061986
6,Российская улица,166000,67.6287923,53.0315894
15,Рябиновая улица,166000,67.6276696,53.0360481
18,Российская улица,166000,67.6279691,53.0364893
30,Российская улица,166000,67.6269247,53.0421803
4,Рябиновая улица,166000,67.6280132,53.0315287
5,Светлая улица,166000,67.6275607,53.0318813
10А,улица имени 60-летия Октября,166000,67.6367706,53.0370099
11,Комсомольская улица,166000,67.6580923,53.0624453
4,Бондарная улица,166000,67.6655615,53.0624397
3,Брусничный переулок,166000,67.6536495,53.0877802
7,Брусничный переулок,166000,67.6541798,53.0884130
9,Брусничный переулок,166000,67.6545607,53.0886073
11,Брусничный переулок,166000,67.6548301,53.0887685
13,Брусничный переулок,166000,67.6551049,53.0893474
15,Брусничный переулок,166000,67.6553053,53.0896166
17,Брусничный переулок,166000,67.6555876,53.0897915
21,Брусничный переулок,166000,67.6561323,53.0899340
20,переулок Антипина,166000,67.6557662,53.0886310
16,переулок Антипина,166000,67.6553076,53.0880466
14,переулок Антипина,166000,67.6550781,53.0878353
12,переулок Антипина,166000,67.6547709,53.0874867
10,переулок Антипина,166000,67.6543032,53.0873571
8,переулок Антипина,166000,67.6541163,53.0868337
2,переулок Антипина,166000,67.6533992,53.0860445
1,улица Мира,166000,67.6532100,53.0847935
1,переулок Антипина,166000,67.6535335,53.0851016
5,переулок Антипина,166000,67.6537925,53.0854534
7,переулок Антипина,166000,67.6540789,53.0856385
9,переулок Антипина,166000,67.6544159,53.0860521
13,переулок Антипина,166000,67.6553780,53.0870966
15,переулок Антипина,166000,67.6556075,53.0873210
17,переулок Антипина,166000,67.6559309,53.0876487
19,переулок Антипина,166000,67.6562981,53.0880930
2,переулок Мартина Ульсена,166000,67.6533048,53.0838639
4,переулок Мартина Ульсена,166000,67.6536394,53.0843785
6,переулок Мартина Ульсена,166000,67.6539368,53.0846066
10,переулок Мартина Ульсена,166000,67.6543487,53.0853846
12,переулок Мартина Ульсена,166000,67.6551705,53.0859001
14,переулок Мартина Ульсена,166000,67.6554809,53.0861941
16,переулок Мартина Ульсена,166000,67.6557677,53.0867041
18,переулок Мартина Ульсена,166000,67.6561414,53.0871269
20,переулок Мартина Ульсена,166000,67.6564007,53.0874484
22,переулок Мартина Ульсена,166000,67.6568438,53.0877657
27,Дорожный переулок,166000,67.6571730,53.0867387
25,переулок Мартина Ульсена,166000,67.6567160,53.0865493
23,переулок Мартина Ульсена,166000,67.6564624,53.0861304
21,переулок Мартина Ульсена,166000,67.6561381,53.0860489
19,переулок Мартина Ульсена,166000,67.6558855,53.0857817
17,переулок Мартина Ульсена,166000,67.6556705,53.0853812
13,Берёзовая улица,166000,67.6552017,53.0850222
11,переулок Мартина Ульсена,166000,67.6545856,53.0843339
9,переулок Мартина Ульсена,166000,67.6543278,53.0840523
7,переулок Мартина Ульсена,166000,67.6540565,53.0838191
3,переулок Мартина Ульсена,166000,67.6537233,53.0834924
82,улица Мира,166000,67.6524370,53.0808048
11,Дорожный переулок,166000,67.6550882,53.0829829
10,Дорожный переулок,166000,67.6546090,53.0835110
24,Дорожный переулок,166000,67.6567286,53.0857575
20,Дорожный переулок,166000,67.6563319,53.0851309
26,Дорожный переулок,166000,67.6572005,53.0860967
17,Дорожный переулок,166000,67.6558910,53.0839060
19,Дорожный переулок,166000,67.6560756,53.0841152
21,Дорожный переулок,166000,67.6563340,53.0843304
23,Дорожный переулок,166000,67.6565399,53.0845409
23,Дорожный переулок,166000,67.6567509,53.0845203
25,Дорожный переулок,166000,67.6570244,53.0847957
71,улица Мира,166000,67.6521524,53.0785200
2,Полевой переулок,166000,67.6528424,53.0784874
16,Полевой переулок,166000,67.6546587,53.0801106
9А,Полевой переулок,166000,67.6545838,53.0790629
16,Рождественский переулок,166000,67.6551855,53.0825016
13,Полевой переулок,166000,67.6552849,53.0793506
16,переулок Высоцкого,166000,67.6549964,53.0788527
12,переулок Высоцкого,166000,67.6542734,53.0780905
2А,переулок Высоцкого,166000,67.6525863,53.0760751
11,переулок Высоцкого,166000,67.6543458,53.0773684
22Б,улица Мира,166000,67.6539733,53.0722102
1,улица Мира,166000,67.6545176,53.0696037
22А,улица Мира,166000,67.6542297,53.0724587
3,улица Мира,166000,67.6550297,53.0701499
3А,улица Мира,166000,67.6549364,53.0707945
10,улица Мира,166000,67.6551278,53.0729588
8,улица Мира,166000,67.6552072,53.0723579
6,улица Мира,166000,67.6552899,53.0717313
4,улица Мира,166000,67.6553969,53.0711210
2,улица Мира,166000,67.6554835,53.0706072
10,улица им. В.В. Сущинского,166000,67.6292322,53.0152709
5,улица И.К. Швецова,166000,67.6301057,53.0138222
6,улица им. В.В. Сущинского,166000,67.6302090,53.0187777
27,Аэродромная улица,166000,67.6287566,53.0388605
25,Аэродромная улица,166000,67.6288202,53.0383702
21,Аэродромная улица,166000,67.6291085,53.0375705
19,Аэродромная улица,166000,67.6292649,53.0370466
17,Аэродромная улица,166000,67.6292534,53.0360361
15,Аэродромная улица,166000,67.6290700,53.0346611
11,Аэродромная улица,166000,67.6290216,53.0339172
10,улица И.П. Выучейского,166000,67.6429098,52.9971167
16,Ненецкая улица,166000,67.6408671,52.9912536
10,Ненецкая улица,166000,67.6411934,52.9935562
21Б,Пионерская улица,166000,67.6423453,53.0119150
30,Пионерская улица,166000,67.6308425,53.0051271
2,улица В.В. Сущинского,166000,67.6308872,53.0204778
14А,улица им. Н.Е. Сапрыгина,166000,67.6463748,53.0015373
5,Звёздная улица,166000,67.6305710,53.0277703
3,Пионерская улица,166000,67.6362626,53.0015156
2,улица им. И.К. Швецова,166000,67.6320958,53.0180719
3,улица Ленина,166000,67.6380623,53.0137030
27Б,улица им. В.И. Ленина,166000,67.6378492,52.9968880
7А,Полярная улица,166000,67.6438715,52.9987879
3,улица им. В.В. Сущинского,166000,67.6294527,53.0207934
54,улица им. В.И. Ленина,166004,67.6380080,52.9769695
50,улица им. В.И. Ленина,166004,67.6376049,52.9793277
4,улица им. И.К. Швецова,166000,67.6315214,53.0133819
11,улица А.П. Пырерки,166000,67.6441769,53.0051305
12,Звёздная улица,166000,67.6309586,53.0281725
7,Звёздная улица,166000,67.6306820,53.0272948
9,Звёздная улица,166000,67.6308621,53.0268614
"16А, стр 1",улица Авиаторов,166000,67.6327162,53.0163893
96А,улица Мира,166002,67.6530925,53.0902794
3,Звёздная улица,166000,67.6304208,53.0284121
16А,улица Авиаторов,166000,67.6325403,53.0173978
