House number,Street name,Postal code,Latitude,Longitude
142,Calea Națională,710370,47.7297669,26.6721366
7,Strada Grivița,710270,47.7484964,26.6669762
4,Strada Unirii,717113,47.7451446,26.6605187
4,Strada Unirii,710029,47.7450798,26.6610617
2,Strada Ștefan cel Mare,710039,47.7502407,26.6504277
7,Strada Octav Onicescu,710114,47.7434856,26.6488984
44,Bulevardul George Enescu,710145,47.7404050,26.6567178
8,Strada Mihail Kogălniceanu,710211,47.7404362,26.6635040
13,Piața Revoluției,710237,47.7445343,26.6641220
68,Calea Națională,710028,47.7441496,26.6651750
1,Strada Mihail Kogălniceanu,710210,47.7413732,26.6655032
29,Strada Cuza Vodă,710211,47.7396603,26.6648573
14,Strada Nicolae Iorga,710212,47.7378642,26.6629604
3,Piața Revoluției,710236,47.7444505,26.6635953
15,Strada Unirii,710221,47.7433780,26.6573326
15,Strada Unirii,710221,47.7395539,26.6611263
20,Strada AS Pușkin,710350,47.7379857,26.6746902
20,Strada AS Pușkin,710350,47.7373995,26.6746839
25,Strada AS Pușkin,710350,47.7388268,26.6748648
65,Strada I.C. Brătianu,710319,47.7434776,26.6803147
60,Strada Dragoș Vodă,710319,47.7420912,26.6800344
76,Strada Victoriei,710328,47.7404740,26.6803948
33,Strada Bucovina,710213,47.7352742,26.6594872
29,Strada Mihail Kogălniceanu,710185,47.7370962,26.6596495
3,Aleea Școlii,710174,47.7380202,26.6566444
17,Strada Armeană,710359,47.7399911,26.6717704
5,Strada Armeană,710359,47.7411863,26.6699776
30,Bulevardul Mihai Eminescu,710105,47.7448291,26.6542210
57,Bulevardul Mihai Eminescu,710220,47.7442283,26.6563778
3,Piața Revoluției,710236,47.7449641,26.6634886
2,Piața Revoluției,710236,47.7451735,26.6633957
91,Calea Națională,710048,47.7476376,26.6663432
8,Strada Bucovina,710174,47.7382116,26.6572192
15,Strada Primăverii,710174,47.7415220,26.6492964
52,Calea Națională,710014,47.7474569,26.6585629
2,Strada Aprodu Purice,710430,47.7526616,26.6451082
6,Strada Adrian Adamiu,710013,47.7537765,26.6290649
2,Bulevardul Mihai Eminescu,710014,47.7496965,26.6433632
3,Strada Primăverii,710087,47.7445261,26.6501768
42,Strada Armeană,710359,47.7392566,26.6719128
2,Strada A.S. Pușkin,710348,47.7410054,26.6727336
13,Strada Armeană,710359,47.7404198,26.6712199
2,Strada Armeană,710357,47.7423430,26.6674716
34,Bulevardul Mihai Eminescu,710030,47.7428877,26.6563141
8,Strada Maxim Gorki,710171,47.7421277,26.6562365
38,Bulevardul Mihai Eminescu,710400,47.7419151,26.6572437
26,Strada Ion Pillat,710318,47.7460716,26.6743434
65,Calea Națională,710006,47.7496169,26.6520996
65,Calea Națională,710006,47.7497705,26.6514811
33,Strada Primăverii,710182,47.7369836,26.6538542
8,Strada Maxim Gorki,710222,47.7420638,26.6563524
5,Piața Revoluției,710236,47.7457464,26.6639810
19,Strada 1 Decembrie,710244,47.7458713,26.6663230
7D,Strada Ion Pillat,710335,47.7438327,26.6710088
1,Strada Victoriei,717113,47.7451393,26.6679642
1A,Strada Victoriei,710245,47.7450365,26.6682941
65,Strada 1 Decembrie 1918,710245,47.7452583,26.6700992
77,Calea Națională,710019,47.7480780,26.6583477
7,Pietonalul Unirii,710221,47.7446633,26.6606464
11,Piața Revoluției,710237,47.7446379,26.6646585
11,Piața Revoluției,710237,47.7446867,26.6647894
3,Strada Ion Pillat,710345,47.7421419,26.6687162
6-8,Strada Maxim Gorki,710171,47.7422232,26.6561829
6-8,Strada Maxim Gorki,710171,47.7416442,26.6569083
38,Bulevardul Mihai Eminescu,710171,47.7416365,26.6568269
91,Calea Națională,710048,47.7475467,26.6659087
2,Strada Victoriei,710355,47.7449283,26.6665376
25,Strada 1 Decembrie 1918,710245,47.7458796,26.6669522
83,Calea Națională,710038,47.7474669,26.6612113
85,Calea Națională,710048,47.7474800,26.6613511
85,Calea Națională,710048,47.7474943,26.6612201
81,Calea Națională,710038,47.7476038,26.6607247
68,Calea Națională,710028,47.7440672,26.6652163
77,Calea Națională,710019,47.7480221,26.6585409
18E,Aleea Grivița,710261,47.7497004,26.6683546
3,Strada Arhimandrit Marchian,710211,47.7432371,26.6639887
10,Strada Arhimandrit Marchian,710224,47.7420729,26.6608459
8,Strada Arhimandrit Marchian,710224,47.7425977,26.6615004
46,Bulevardul Mihai Eminescu,710186,47.7398000,26.6591845
22,Strada Mihail Kogălniceanu,710185,47.7381128,26.6587645
29,Șoseaua Iașului,710380,47.7193487,26.6829191
99,Calea Națională,710050,47.7449782,26.6663764
5,Piața 1 Decembrie 1918,710245,47.7448657,26.6694681
6,Strada Octav Onicescu,710114,47.7428624,26.6489075
1,Strada Mihail Kogălniceanu,710210,47.7413314,26.6654079
1,Strada Mihail Kogălniceanu,710210,47.7413736,26.6654931
9,Strada Teatrului,710238,47.7414146,26.6656959
3,Strada Teatrului,710238,47.7443788,26.6627874
8,Strada Arhimandrit Marchian,710224,47.7425402,26.6613974
110-112,Strada I.C. Brătianu,710319,47.7364282,26.6875332
13,Strada Victoriei,710336,47.7418180,26.6727066
15,Strada Victoriei,710336,47.7417112,26.6728301
18,Strada Victoriei,710336,47.7413426,26.6725446
81,Calea Națională,710038,47.7477053,26.6606754
1,Piața Revoluției,710236,47.7453990,26.6629677
64,Calea Națională,710028,47.7453971,26.6650403
9,Strada Dimitrie Rallet,710202,47.7355398,26.6624301
20,Strada AS Pușkin,710350,47.7376601,26.6745082
2,Strada AS Pușkin,710348,47.7409403,26.6725801
11,Strada Arhimandrit Marchian,710211,47.7410349,26.6610334
57,Bulevardul Mihai Eminescu,710220,47.7444007,26.6558632
14,Strada Arhimandrit Marchian,710210,47.7415241,26.6598685
3,Strada Uzinei,710020,47.7519324,26.6481523
105,Calea Națională,710051,47.7419097,26.6670270
10,Strada Cornișa,710010,47.7562709,26.6226401
84,Strada Armeană,710052,47.7430461,26.6674655
167,Calea Națională,710001,47.7339593,26.6713836
59,Strada I.C. Brătianu,710319,47.7437692,26.6797216
22,Strada I.C. Brătianu,710319,47.7441583,26.6754375
144,Calea Națională,710039,47.7289272,26.6720363
3,Strada Nicolae Iorga,710210,47.7398477,26.6657618
7,Strada Călugăreni,710256,47.7473524,26.6734994
24,Strada Trandafirilor,710202,47.7344591,26.6639843
116,Strada I.C. Brătianu,710319,47.7338683,26.6907079
118,Strada I.C. Brătianu,710319,47.7351013,26.6931566
4-8,Strada Nicolae Iorga,710210,47.7403865,26.6653539
2,Calea Națională,710010,47.7530063,26.6363407
142,Calea Națională,710370,47.7297751,26.6721233
142,Calea Națională,710370,47.7295462,26.6721385
1,Strada Independeței,710252,47.7478093,26.6673178
40,Bulevardul Mihai Eminescu,717113,47.7413430,26.6577501
9,Strada Tudor Vladimirescu,710307,47.7492076,26.6718264
6,Strada Dimitrie Rallet,710203,47.7345753,26.6617767
75,Strada General Gheorghe Avramescu,710028,47.7484683,26.6577527
43,Strada 1 Decembrie 1918,710376,47.7460498,26.6687045
1,Strada Arhimandrit Marchian,710210,47.7431895,26.6650974
15A,Strada Victoriei,710336,47.7416163,26.6731323
26A,Strada Independeței,710252,47.7457597,26.6718094
8,Strada Independeței,710246,47.7456461,26.6737912
28,Strada Ion Pillat,710318,47.7460889,26.6751723
19,Strada Tudor Vladimirescu,710311,47.7477413,26.6752629
16,Aleea Unirii,710233,47.7444155,26.6574483
15,Strada Octav Băncilă,710085,47.7463449,26.6555658
11,Strada Octav Băncilă,710085,47.7471176,26.6556923
16,Strada Codrului,710028,47.7303721,26.6762231
2,Strada Eternității,710321,47.7385762,26.6897493
6,Strada Eternității,710321,47.7397447,26.6895380
2,Strada Eternității,710321,47.7391368,26.6884679
26,Strada Virnav,710166,47.7423761,26.6505217
2,Aleea Curcubeului,710142,47.7404849,26.6476183
7,Strada Octav Onicescu,710114,47.7436118,26.6483731
47,Strada Pacea,710135,47.7444012,26.6433897
5,Strada Libertății,710050,47.7498088,26.6546337
35,Strada Primăverii,710174,47.7366594,26.6542924
6,Aleea Școlii,710714,47.7379393,26.6564828
3,Aleea Școlii,710714,47.7376189,26.6563739
3,Aleea Școlii,710714,47.7378887,26.6563425
34,Strada Nicolae Iorga,710203,47.7354328,26.6604285
37,Strada Dimitrie Rallet,710203,47.7356372,26.6613560
11,Strada Arhimandrit Marchian,710211,47.7405487,26.6611123
36,Strada Ștefan Luchian,717113,47.7458833,26.6610316
2,Calea Națională,717113,47.7468683,26.6631775
38,Strada Ștefan Luchian,717113,47.7465904,26.6595855
69,Bulevardul Mihai Eminescu,717113,47.7417540,26.6587938
10,Strada Ștefan cel Mare și Sfânt,710022,47.7516848,26.6497578
4,Bulevardul Mihai Eminescu,710014,47.7277553,26.6722347
1A,Calea Națională,156,47.7244022,26.6748346
4,Strada Independenței,710252,47.7465526,26.6678105
356,Calea Națională,717110,47.7274192,26.6730407
193A,Bulevardul Mihai Eminescu,710376,47.7281697,26.6711976
9,Strada Colonel Tomoroveanu,710076,47.7478757,26.6457740
