House number,Street name,Postal code,Latitude,Longitude
14А,улица Зои Космодемьянской,410064,51.5891426,45.9373534
10,Гвардейская улица,410033,51.5869212,45.9378539
20,Гвардейская улица,410033,51.5880297,45.9318758
6,Соколовогорская улица,410038,51.5527738,46.0519442
1А,Усть-Курдюмское шоссе,410050,51.5770362,46.0876250
41,Тульская улица,410048,51.4779037,45.8967766
2,улица Чехова,410007,51.6021145,46.0046779
2,Международная улица,410052,51.5811611,45.9682537
3,Усть-Курдюмская улица,410018,51.5699107,46.0668616
19,улица Киселёва,410012,51.5342545,46.0276143
65/71,2-я Садовая улица,410054,51.5295776,45.9868718
94,Большая Садовая улица,410054,51.5283161,45.9829793
280,улица Рахова,410005,51.5500990,46.0248903
6,2-й Московский проезд,410062,51.5984653,45.9223438
8А,Барнаульская улица,410015,51.5025713,45.9401836
19Б,проспект 50 лет Октября,410009,51.5635723,45.9899389
19,проспект 50 лет Октября,410009,51.5629337,45.9914518
59,2-й Детский проезд,410054,51.5352921,45.9743133
6,Безымянная улица,410010,51.5612156,46.0174354
6,улица Ломоносова,410004,51.5995801,45.9604912
10,Электронная улица,410064,51.6051448,45.9825655
11,Буровая улица,410086,51.6013006,45.9051831
4,Студёная улица,410044,51.5923640,45.9669986
10,Электронная улица,410064,51.6051024,45.9824281
64,улица Танкистов,410000,51.5618453,46.0213898
1,Весенний проезд,410017,51.5198950,46.0063264
19,проспект 50 лет Октября,410009,51.5626084,45.9919947
110Ак7,проспект 50 лет Октября,410040,51.5700232,45.9844549
62,улица Танкистов,410019,51.5610451,46.0215972
22,Высокая улица,410019,51.5618274,46.0257028
100,Большая Казачья улица,410012,51.5366053,46.0147210
1,улица Осипова,410010,51.5665915,46.0282556
8,площадь Кирова,410600,51.5341392,46.0195796
211,улица Чернышевского,410002,51.5285829,46.0503579
10,Перспективная улица,410064,51.6046516,45.9866141
16,улица Куприянова,410069,51.5868956,45.9761076
22,проспект Столыпина,410600,51.5312660,46.0292384
88,улица Лебедева-Кумача,410090,51.6141291,45.9837189
6,проспект Строителей,410069,51.5865122,45.9680503
12,улица Строителей,410507,51.5870402,45.8539815
13,улица Хомяковой,410022,51.4688110,45.9160009
49,3-й Парковый проезд,410008,51.5233290,45.9774811
42,улица Хвесина,410031,51.5315868,46.0675528
141,улица Чернышевского,410028,51.5215317,46.0261554
13,улица Вавилова,410056,51.5333830,46.0133507
103А,2-я Садовая улица,410054,51.5312577,45.9780419
1к15,3-я Дачная улица,410000,51.5747072,45.9745413
21,проспект Строителей,410041,51.5982149,45.9679590
6/1,проспект Строителей,410041,51.5939281,45.9707803
101,проспект 50 лет Октября,410033,51.5897258,45.9439990
14,улица Зои Космодемьянской,410033,51.5886734,45.9377310
61,улица Сакко и Ванцетти,410600,51.5310400,46.0206760
8,Высокая улица,410019,51.5617140,46.0272185
49,3-й Парковый проезд,410008,51.5232513,45.9774875
49,3-й Парковый проезд,410008,51.5232944,45.9774863
77,улица Клочкова,410053,51.5286224,45.9643824
201,улица Танкистов,410047,51.5868956,46.0296534
15,Бакинская улица,410038,51.5555279,46.0511062
13,проспект Строителей,410044,51.5943808,45.9663809
9А,3-й Московский проезд,410062,51.5976215,45.9197738
15,Азовская улица,410048,51.4763342,45.8954939
28,проспект Энтузиастов,410015,51.5020321,45.9424714
3,5-й Нагорный проезд,410001,51.5104997,45.9541663
48,проспект Энтузиастов,410049,51.4978276,45.9345212
6А,1-й Тульский проезд,410048,51.4758461,45.9009372
75А,проспект 50 лет Октября,410000,51.5692997,45.9830339
4,2-й Московский проезд,410062,51.5989382,45.9229089
28,Ульяновская улица,410056,51.5275858,46.0163298
8,улица Академика Антонова,410080,51.6024687,45.9751893
15/1,проспект Столыпина,410012,51.5301294,46.0310920
8,Петровский тракт,410086,51.6054945,45.9416569
133,улица Чернышевского,413503,51.5196245,46.0190949
5,2-й Московский проезд,410062,51.5979572,45.9229831
5,2-й Московский проезд,410062,51.5982316,45.9229921
15,10-й Парусный проезд,410074,51.5760506,46.1054156
6,улица Шехурдина,410010,51.5698318,45.9967199
14,улица Максима Горького,410028,51.5280328,46.0283069
6А,Саловская улица,410018,51.5698058,46.0644929
6,2-й Московский проезд,410062,51.5984311,45.9223737
6,2-й Московский проезд,410062,51.5984998,45.9225109
24/2,Одесская улица,410052,51.5785809,45.9622277
137,улица Рахова,410000,51.5351483,46.0154681
203 оф311,улица Чернышевского,410002,51.5277608,46.0479053
14А/2,Мостовая улица,410051,51.5713718,45.8855970
14А/1,Мостовая улица,410051,51.5713201,45.8856896
7А,улица 1-я Гуселка,410047,51.5971046,46.0201100
18,улица Гоголя,410003,51.5367730,46.0358932
14/7,Автокомбинатовская улица,410062,51.6062906,45.9254130
206,улица Посадского,410005,51.5423858,46.0263607
30,улица Аэропорт,410038,51.5582719,46.0459884
55,улица Максима Горького,410000,51.5352814,46.0322160
127,Крайняя улица,410019,51.5541190,46.0181639
5,2-й Овсяной проезд,410050,51.5841220,46.1245492
45,улица Степана Разина,410078,51.5363267,45.9997706
5Д,3-й Кавказский тупик,410049,51.4908579,45.9357144
8,улица Максима Горького,410028,51.5263228,46.0272078
62А,1-й проезд Танкистов,410047,51.5941277,46.0195160
8,улица Академика Антонова,410080,51.6023083,45.9751257
118А с1,Большая Казачья улица,410012,51.5396333,46.0010278
16,улица Блинова Ф. А.,410080,51.5998941,45.9822784
28,Наумовская улица,410009,51.5614495,45.9903246
17/25,улица Пушкина,410056,51.5292545,46.0240642
1А,Московское шоссе,410062,51.5931851,45.9407542
30,улица Аэропорт,410038,51.5582516,46.0458585
29,улица Лермонтова,410002,51.5271230,46.0526119
55А,Симбирская улица,410003,51.5432816,46.0349922
6А,улица Чапаева,410056,51.5229454,46.0166664
1,Университетская улица,410012,51.5329383,45.9978603
18,Volzhskaya Ulitsa,410002,51.5289952,46.0414752
3,2-й Московский проезд,410062,51.5990483,45.9237784
3,2-й Московский проезд,410062,51.5989319,45.9235148
3,2-й Московский проезд,410062,51.5990395,45.9235277
65A,Курдюмская улица,410009,51.5650497,45.9797707
6,2-й Московский проезд,410062,51.5983928,45.9219175
6,2-й Московский проезд,410062,51.5983722,45.9216715
7,3-й Московский проезд,410062,51.5980385,45.9209274
9,3-й Московский проезд,410062,51.5977463,45.9208447
9А,2-й Московский проезд,410062,51.5956054,45.9208036
9А,2-й Московский проезд,410062,51.5956060,45.9207389
9А,2-й Московский проезд,410062,51.5956536,45.9207347
26А,улица Танкистов,410019,51.5507100,46.0187211
107А,проспект 50 лет Октября,410052,51.5836110,45.9649138
11/15,Шелковичная улица,410056,51.5200784,46.0134658
9/30,Советская улица,410028,51.5268049,46.0305271
9А,3-й Московский проезд,410062,51.5976071,45.9198037
159,Московская улица,410600,51.5405001,46.0042487
2/10,Валовая улица,410031,51.5277135,46.0598676
2/10,Валовая улица,410031,51.5278840,46.0598548
2/10,Валовая улица,410028,51.5283514,46.0588276
2/10,Валовая улица,410031,51.5277900,46.0596228
1,3-я Дачная улица,410009,51.5763863,45.9721200
167,улица Зарубина,410012,51.5407979,46.0142966
1,площадь Орджоникидзе,410039,51.5018364,45.9446156
47,Советская улица,410600,51.5292472,46.0196062
27,проспект Столыпина,410028,51.5314244,46.0268771
15,Отрядная улица,410047,51.5764150,46.0333717
13,Отрядная улица,410047,51.5764373,46.0331121
18,Порядковая улица,410047,51.5766211,46.0337475
4,Загорная улица,410038,51.5550711,46.0502489
1,4-й Соколовогорский проезд,410038,51.5546364,46.0515979
13,Соколовогорская улица,410038,51.5547645,46.0519728
13,Соколовогорская улица,410038,51.5547532,46.0520882
7,Соколовогорская улица,410038,51.5532540,46.0515978
7,Соколовогорская улица,410038,51.5534185,46.0515108
8к1,Соколовогорская улица,410038,51.5531819,46.0520824
1,2-й Соколовогорский проезд,410038,51.5531124,46.0502708
7,Соколовогорская улица,410038,51.5532621,46.0514626
6,Соколовогорская улица,410038,51.5530072,46.0519924
12,6-й Соколовогорский проезд,410000,51.5578723,46.0503329
110Ак7,проспект 50 лет Октября,410040,51.5700521,45.9846873
16,Вишнёвая улица,410040,51.5653661,45.9805759
16,Вишнёвая улица,410040,51.5650679,45.9808940
16,Вишнёвая улица,410040,51.5654299,45.9815492
61/71,улица Рахова,410056,51.5265051,46.0103479
12,проспект Столыпина,410012,51.5306230,46.0321541
14,Заводская улица,410076,51.5069786,45.9800720
120,Большая Казачья улица,410012,51.5395522,46.0015360
161 к6,Московская улица,410012,51.5408441,46.0022959
1,Фёдоровская улица,410018,51.5745526,46.0704035
7,Усть-Курдюмская улица,410018,51.5728084,46.0683916
7Д,Усть-Курдюмская улица,410018,51.5722406,46.0669828
5,Усть-Курдюмская улица,410018,51.5707593,46.0679675
3,Усть-Курдюмская улица,410018,51.5701782,46.0658789
8,Саловская улица,410018,51.5701296,46.0639209
6,Саловская улица,410018,51.5697315,46.0632112
5А,Саловская улица,410018,51.5691222,46.0633893
5,Саловская улица,410018,51.5689028,46.0641218
1,Усть-Курдюмская улица,410018,51.5683686,46.0643058
10,Саловская улица,410018,51.5710007,46.0632468
12,Саловская улица,410018,51.5716001,46.0631118
6,Шевырёвская улица,410018,51.5715855,46.0644601
6А,Шевырёвская улица,410018,51.5715482,46.0639496
2,улица Братьев Никитиных,410018,51.5722006,46.0631006
5,Державинская улица,410018,51.5726418,46.0647829
4А,улица Братьев Никитиных,410018,51.5731303,46.0639193
8 к1,улица Братьев Никитиных,410018,51.5746092,46.0666114
8Д,улица Братьев Никитиных,410018,51.5754790,46.0682683
2 к2,Фёдоровская улица,410018,51.5744517,46.0682602
8 к6,улица Братьев Никитиных,410018,51.5760136,46.0687959
8 к2,улица Братьев Никитиных,410018,51.5752709,46.0664314
21,улица Лебедева-Кумача,410080,51.5981007,45.9744389
21/29,Наумовская улица,410000,51.5612583,45.9892808
31/37,Наумовская улица,410009,51.5614859,45.9877344
1,Привокзальная площадь,410012,51.5426001,46.0000904
1,Привокзальная площадь,410012,51.5431557,46.0005300
44Д,улица Емлютина,410012,51.5413598,45.9957347
164,Московская улица,410012,51.5412726,46.0025440
4,Фабричная улица,410015,51.5024175,45.9662235
5,2-й Московский проезд,410062,51.5981158,45.9233385
2,1-й Придорожный проезд,410009,51.5661257,45.9982644
160/164,улица Мичурина,410002,51.5273581,46.0447281
96А,Большая Садовая улица,410054,51.5292200,45.9843205
8,Беговая улица,410054,51.5281155,45.9859240
10,Беговая улица,410054,51.5282243,45.9852601
13,Беговая улица,410054,51.5283366,45.9846127
5,улица Степана Разина,410054,51.5280031,45.9865798
152,Московская улица,410012,51.5387941,46.0171737
36,Тверская улица,410065,51.5720042,45.9746170
40,Тверская улица,410065,51.5730604,45.9731504
42/2,проспект Строителей,410041,51.6017973,45.9692721
40,проспект Строителей,410041,51.6010931,45.9692001
38,Тверская улица,410065,51.5725001,45.9738351
12,Сапёрная улица,410065,51.5708348,45.9758740
34,Тверская улица,410065,51.5713848,45.9752065
1,улица Блинова Ф. А.,410080,51.6010717,45.9733807
6А,улица Академика Антонова,410080,51.6014572,45.9709646
68,Астраханская улица,410004,51.5270127,46.0009171
20/28,Советская улица,410600,51.5285423,46.0256589
45,Тверская улица,410052,51.5711734,45.9739637
75,проспект 50 лет Октября,410040,51.5695831,45.9823533
14,Вишнёвый проезд,410000,51.5688036,45.9802515
6,Деловая улица,410000,51.5690769,45.9808087
8,Высокая улица,410019,51.5616862,46.0271925
4,Артиллерийская улица,410010,51.5677274,46.0145611
24,Международная улица,410052,51.5842125,45.9572448
58,проспект 50 лет Октября,410009,51.5600146,45.9965359
26/32,Цветочная улица,410009,51.5598973,45.9975818
8,улица Бардина,410035,51.6084792,45.9924369
4А,улица Уфимцева,410035,51.6119506,45.9959239
6,проспект Строителей,410069,51.5868892,45.9681121
19,проспект Строителей,410041,51.5975301,45.9678777
39,Наумовская улица,410000,51.5626124,45.9858538
130,улица Гоголя,410012,51.5402172,46.0207825
16,Волжская улица,410002,51.5290685,46.0420318
2Д,улица Орджоникидзе,410015,51.5005628,45.9546772
61,улица Чернышевского,410004,51.5135435,45.9949911
61/69,Железнодорожная улица,410005,51.5458209,46.0117058
1,улица Танкистов,410000,51.5469836,46.0148595
107,Астраханская улица,410005,51.5448385,46.0137673
157,Московская улица,410012,51.5398839,46.0054018
138,Астраханская улица,410005,51.5428374,46.0147269
49,Мельничная улица,410009,51.5626617,45.9969271
108Л,проспект 50 лет Октября,410040,51.5677623,45.9875470
52,2-й Магнитный проезд,410019,51.5612389,46.0226950
8,Волгоградская улица,410009,51.5583206,45.9936008
7,Одесская улица,410052,51.5777210,45.9638631
162/166,Большая Садовая улица,410012,51.5424601,45.9926269
163/165,Белоглинская улица,410071,51.5391609,45.9826684
154/156,Белоглинская улица,410071,51.5393022,45.9847250
19,Свинцовая улица,410071,51.5395567,45.9849571
4,2-й Телевизионный проезд,410017,51.5194457,46.0094362
5,2-й Чернышёвский проезд,410017,51.5173185,46.0085084
11/15,Шелковичная улица,410017,51.5199951,46.0134275
88,Курдюмская улица,410000,51.5659337,45.9795838
31/1,Тверская улица,410000,51.5671210,45.9793890
29А,Тверская улица,410000,51.5661590,45.9800540
29,Тверская улица,410000,51.5663780,45.9805407
31/3,Тверская улица,410000,51.5667237,45.9799214
62/66,Астраханская улица,410004,51.5267849,45.9994779
47/53,Первомайская улица,410031,51.5299937,46.0446240
14/26,улица Чапаева,410056,51.5241212,46.0164368
14/26,улица Чапаева,410056,51.5247723,46.0168686
25/1,улица Лермонтова,410002,51.5269967,46.0516667
12,Соляная улица,410002,51.5281860,46.0523817
7,Деловая улица,410000,51.5681141,45.9811922
7,Вишнёвый проезд,410000,51.5672902,45.9814421
11,Деловая улица,410000,51.5674665,45.9800556
8,Вишнёвый проезд,410000,51.5669469,45.9824869
9,Деловая улица,410000,51.5678337,45.9805859
24Б,Тверская улица,410000,51.5670982,45.9807604
22,Вольская улица,410056,51.5276943,46.0221408
7,Соборная площадь,410028,51.5270352,46.0350901
11,проспект Столыпина,410600,51.5302076,46.0316354
98/100,улица имени Пугачёва Е.И.,410012,51.5356084,46.0136792
66,Аткарская улица,410012,51.5370363,45.9999411
43,улица Степана Разина,410078,51.5358719,45.9988204
2,Беговая улица,410054,51.5273715,45.9870355
2,улица Степана Разина,410078,51.5280389,45.9876606
1/5,2-й Товарный проезд,410008,51.5222965,45.9827377
63/71,Большая Садовая улица,410008,51.5219870,45.9834586
1,Беговая улица,410054,51.5272523,45.9857502
51/53,Политехническая улица,410008,51.5229736,45.9794203
19,Беговая улица,410054,51.5282349,45.9807680
55/59,Политехническая улица,410008,51.5233798,45.9796411
13/31,улица Степана Разина,410054,51.5303746,45.9898259
129/135,Большая Садовая улица,410054,51.5301575,45.9827356
22,Беговая улица,410054,51.5285597,45.9811377
126,Политехническая улица,410054,51.5309692,45.9805622
99,2-я Садовая улица,410054,51.5310193,45.9814982
28/34,Полевой проезд,410054,51.5303268,45.9818274
19,Полевой проезд,410054,51.5292582,45.9809419
97,2-я Садовая улица,410054,51.5308069,45.9825429
22,2-я Прокатная улица,410041,51.5975910,45.9571160
20,2-я Прокатная улица,410041,51.5978841,45.9576320
21,проспект Строителей,410041,51.5983004,45.9678945
19,1-я Прокатная улица,410041,51.5986802,45.9559697
21,1-я Прокатная улица,410041,51.5981719,45.9550871
24,2-я Прокатная улица,410041,51.5972702,45.9565137
18,2-я Прокатная улица,410041,51.5982360,45.9582147
4,улица Измайлова,410041,51.5986993,45.9574772
2,улица Измайлова,410041,51.5991798,45.9569392
15,4-я Прокатная улица,410041,51.5943487,45.9630894
4А,улица Уфимцева,410035,51.6120198,45.9958328
5,Ламповая улица,410044,51.5906536,45.9625829
43Б,улица Шехурдина,410044,51.5908011,45.9576528
40,улица Максима Горького,410730,51.5339828,46.0320199
74,улица Клочкова,410053,51.5296252,45.9656568
24,Одесская улица,410052,51.5776579,45.9602938
46А,Лунная улица,410052,51.5772518,45.9644758
15,Одесская улица,410052,51.5759538,45.9583108
7А,Одесская улица,410052,51.5770050,45.9655981
46А,Одесская улица,410052,51.5773583,45.9564020
26,Одесская улица,410052,51.5769552,45.9581833
13,Одесская улица,410052,51.5762302,45.9591404
46,Лунная улица,410052,51.5770246,45.9639776
11,Одесская улица,410052,51.5765380,45.9600911
11А,Гусарская улица,410000,51.5854114,45.8463628
168,Шелковичная улица,410071,51.5396008,45.9784707
2,улица Чехова,410007,51.6027672,46.0039323
25,улица Блинова Ф. А.,410007,51.5999105,46.0004974
25А,улица Блинова Ф. А.,410007,51.6004650,45.9999479
4,улица Блинова Ф. А.,410080,51.6000624,45.9748663
27,Комсомольская улица,410002,51.5289918,46.0424929
21В,улица Хользунова,410017,51.5268076,46.0063711
17,улица Некрасова,410002,51.5272248,46.0395690
21,улица Мелиораторов,410000,51.5819469,45.8315295
39,площадь Советско-Чехословацкой Дружбы,410059,51.4485744,45.9057524
31,площадь Советско-Чехословацкой Дружбы,410059,51.4491559,45.9062495
34,площадь Советско-Чехословацкой Дружбы,410059,51.4488972,45.9053602
42,площадь Советско-Чехословацкой Дружбы,410059,51.4492442,45.9049526
41,площадь Советско-Чехословацкой Дружбы,410059,51.4496440,45.9057462
16,Тульская улица,410048,51.4778655,45.9052841
29,Тульская улица,410048,51.4781464,45.9013492
49Д,Тульская улица,410048,51.4772961,45.8935016
5,Химическая улица,410048,51.4820850,45.8899006
10,Гвардейская улица,410033,51.5869287,45.9380680
4,улица Щорса,410033,51.5871678,45.9389185
14,улица Зои Космодемьянской,410033,51.5886301,45.9377097
41,Тульская улица,410048,51.4779154,45.8968973
15,Гвардейская улица,410033,51.5868491,45.9313123
134,проспект 50 лет Октября,410052,51.5903280,45.9535963
101,проспект 50 лет Октября,410033,51.5897273,45.9443768
130,проспект 50 лет Октября,410052,51.5848074,45.9643285
21с1,Международная улица,410033,51.5849056,45.9595958
10А,Московское шоссе,410062,51.5964987,45.9349118
2А,улица Благодарова,410086,51.5968222,45.9045878
14В,Техническая улица,410040,51.5641506,45.9859798
16,Техническая улица,410010,51.5645491,45.9854993
73,проспект 50 лет Октября,410000,51.5688655,45.9833098
10,Техническая улица,410000,51.5637342,45.9878354
15,Деловой проезд,410000,51.5684343,45.9819971
12,Техническая улица,410000,51.5638809,45.9868788
65А,Курдюмская улица,410009,51.5650670,45.9797664
30,Аптечная улица,410009,51.5628510,45.9904786
35/45,Техническая улица,410000,51.5627973,45.9885835
49/53,Аптечная улица,410000,51.5621256,45.9880621
39А,Наумовская улица,410009,51.5621393,45.9872957
91,проспект 50 лет Октября,410000,51.5739491,45.9725155
20,улица Рамаева,410031,51.5320399,46.0517598
40/40,Первомайская улица,410031,51.5302858,46.0462094
46,Октябрьская улица,410031,51.5318495,46.0470316
2/10,Валовая улица,410031,51.5283346,46.0589913
2/10,Валовая улица,410031,51.5278205,46.0597207
2/10,Валовая улица,410031,51.5280591,46.0593570
43 стр. 1,Большая Горная улица,410031,51.5342739,46.0563543
3Б,Топольчанская улица,410007,51.6054603,46.0066078
2А,улица Чехова,410007,51.6049221,46.0031384
9/19,5-й Крекингский проезд,410048,51.4776059,45.9083524
5,улица с/х ЦДК,410038,51.5800284,46.1090620
4,улица с/х ЦДК,410038,51.5800555,46.1097394
3,улица с/х ЦДК,410038,51.5801006,46.1103782
1,улица с/х ЦДК,410038,51.5801737,46.1116676
2,улица с/х ЦДК,410038,51.5801252,46.1110039
8,улица с/х ЦДК,410038,51.5805153,46.1106334
7,улица с/х ЦДК,410038,51.5805467,46.1112818
6,улица с/х ЦДК,410038,51.5805819,46.1119470
5А,улица с/х ЦДК,410018,51.5801528,46.1086227
10,улица с/х ЦДК,410038,51.5804649,46.1092896
1,Молодёжная улица,410050,51.5853861,46.1093987
9,Молодёжная улица,410050,51.5862598,46.1110175
3,Молодёжная улица,410050,51.5853830,46.1099784
7А,Молодёжная улица,410050,51.5856898,46.1107382
5,Молодёжная улица,410050,51.5858343,46.1100702
7,Молодёжная улица,410050,51.5861639,46.1102541
1А,Молодёжная улица,410050,51.5850239,46.1092508
3А,Молодёжная улица,410050,51.5846639,46.1092412
4,Молодёжная улица,410050,51.5875857,46.1108974
63,улица Челюскинцев,410031,51.5333235,46.0419824
4,улица Братьев Никитиных,410018,51.5734942,46.0642563
44,Производственная улица,410080,51.6015781,45.9724049
5Б,1-й проезд Строителей,410041,51.5966284,45.9708972
3А,1-й проезд Строителей,410041,51.5965023,45.9694819
25,Офицерская улица,410040,51.5640578,45.9817166
47/61,Техническая улица,410040,51.5633689,45.9867940
41,Наумовская улица,410000,51.5634699,45.9853359
23,Офицерская улица,410040,51.5642261,45.9819851
1,Ильинская площадь,410056,51.5212238,46.0139512
7,1-й проезд Первомайского посёлка,410004,51.5218054,45.9991064
7,улица Симбирцева,410004,51.5184261,46.0026591
8,улица Серова,410017,51.5182626,46.0094955
71/81,Шелковичная улица,410004,51.5270363,46.0016688
6 к2,Шевырёвская улица,410018,51.5712390,46.0663657
8,2-й Телевизионный проезд,410017,51.5192928,46.0088802
6,2-й Телевизионный проезд,410017,51.5193438,46.0092060
25А,Мостовая улица,410051,51.5713111,45.8846685
4А,Мостовая улица,410051,51.5697792,45.8880249
201,Соколовая улица,410003,51.5435662,46.0345577
15,Бакинская улица,410038,51.5555298,46.0510726
6,Соколовогорская улица,410038,51.5528753,46.0521737
5,Деловой тупик,410010,51.5666377,45.9813494
5,Вишнёвый проезд,410000,51.5665889,45.9822176
31/2,Тверская улица,410000,51.5669323,45.9796656
108,проспект 50 лет Октября,410040,51.5660521,45.9896303
9,Вишнёвый проезд,410040,51.5684369,45.9798598
110Ак7,проспект 50 лет Октября,410000,51.5701452,45.9845868
110Ак7,проспект 50 лет Октября,410000,51.5707231,45.9838476
12,Вишнёвый проезд,410000,51.5677309,45.9815460
11,Деловой проезд,410000,51.5677491,45.9828098
10,Вишнёвый проезд,410000,51.5673689,45.9819949
13,Деловой проезд,410000,51.5681152,45.9823832
2А,Карьерная улица,410001,51.5160306,45.9704295
49/53,7-й Динамовский проезд,410060,51.5051962,45.9127579
69,Миллеровская улица,410060,51.5007449,45.9158734
192,Шелковичная улица,410071,51.5438815,45.9696410
184А,Шелковичная улица,410071,51.5413275,45.9716872
6/8,проспект Столыпина,410012,51.5304485,46.0332243
83,Вольская улица,410012,51.5329153,46.0241045
22,проспект Столыпина,410600,51.5315036,46.0293099
1,площадь Кирова,410012,51.5325976,46.0182226
24,улица Некрасова,410002,51.5268190,46.0406945
28,проспект Энтузиастов,410015,51.5019520,45.9423935
13,улица Хомяковой,410022,51.4688417,45.9160617
53,1-я Силикатная улица,410053,51.5256677,45.9553038
4,Деловая улица,410000,51.5691295,45.9813819
6,Порядковая улица,410047,51.5768360,46.0315947
19,Отрядная улица,410047,51.5763595,46.0340855
7,Отрядная улица,410047,51.5765958,46.0315442
36,Волжская улица,410031,51.5302157,46.0358216
41/43,улица Григорьева,410002,51.5295566,46.0424460
104,1-я Садовая улица,410005,51.5497679,46.0221632
6,Безымянная улица,410010,51.5614876,46.0175563
49,3-й Парковый проезд,410008,51.5233108,45.9775814
23А,1-й Вольский проезд,410069,51.5886408,45.9710946
16,улица Куприянова,410069,51.5868613,45.9767985
11,3-я Степная улица,410086,51.6020530,45.9105004
5А,улица Тулайкова,410010,51.5721865,45.9964845
161,улица имени Пугачёва Е.И.,410005,51.5433867,46.0168838
137/149,Московская улица,410012,51.5378092,46.0158160
4А,Днепропетровская улица,410007,51.6038574,45.9988389
1А,улица Чехова,410007,51.6031487,46.0005920
88,улица Лебедева-Кумача,410090,51.6141498,45.9837531
11,улица Зои Космодемьянской,410033,51.5881084,45.9385896
24А,2-я Прокатная улица,410041,51.5977128,45.9557095
2,улица Уфимцева,410035,51.6106261,45.9946010
9,улица Батавина,410035,51.6129842,46.0068264
10,Перспективная улица,410064,51.6046417,45.9868551
15,Валовая улица,410031,51.5296062,46.0565276
20,улица Гоголя,410003,51.5368756,46.0355877
18,улица Зарубина,410003,51.5376245,46.0369764
28,улица Зарубина,410003,51.5379427,46.0351754
20,улица Зарубина,410003,51.5376516,46.0364054
10,Перспективная улица,410064,51.6047718,45.9864400
6,улица Братьев Никитиных,410018,51.5743913,46.0651229
11Б,улица Орджоникидзе,410015,51.5015587,45.9538949
11,улица Орджоникидзе,410015,51.5018881,45.9542177
204,Огородная улица,410060,51.4968707,45.9186983
64/66,Шелковичная улица,410017,51.5271439,46.0038675
55А,улица Танкистов,410019,51.5556582,46.0177556
25,улица Жуковского,410010,51.5583274,46.0311964
8 к3,улица Братьев Никитиных,410018,51.5756838,46.0669752
8 к4,улица Братьев Никитиных,410018,51.5761004,46.0675240
7А,Усть-Курдюмская улица,410018,51.5715393,46.0683214
7Б,Усть-Курдюмская улица,410018,51.5723846,46.0694430
2,Шевырёвская улица,410018,51.5720119,46.0679266
2А,Шевырёвская улица,410018,51.5722710,46.0684990
7Г,Усть-Курдюмская улица,410018,51.5727509,46.0672969
9А,Усть-Курдюмская улица,410018,51.5729153,46.0708687
11,Усть-Курдюмская улица,410018,51.5742654,46.0710960
2 к3,Фёдоровская улица,410018,51.5749622,46.0686940
2 к1,Фёдоровская улица,410018,51.5748128,46.0677837
2 к4,Фёдоровская улица,410018,51.5751014,46.0675448
8 к5,улица Братьев Никитиных,410018,51.5764065,46.0683006
10,улица Братьев Никитиных,410018,51.5769743,46.0684622
7,Фёдоровская улица,410018,51.5768844,46.0697552
5,Фёдоровская улица,410018,51.5764337,46.0711530
4,Усть-Курдюмская улица,410018,51.5753932,46.0729147
1А,улица Менякина,410018,51.5752076,46.0737242
3А,улица Менякина,410018,51.5759245,46.0735138
98А,Большая Садовая улица,410054,51.5300127,45.9847227
12В,Беговая улица,410054,51.5282438,45.9833926
22,Полевой проезд,410054,51.5291141,45.9814080
20,Полевой проезд,410054,51.5289051,45.9813135
24,Полевой проезд,410054,51.5293349,45.9815153
7,13-й Белоглинский проезд,410078,51.5361790,45.9947832
10,1-й Аткарский проезд,410078,51.5362171,45.9941247
13/17А,Аткарская улица,410078,51.5357549,45.9936854
13/17,Аткарская улица,410078,51.5353660,45.9942279
72,улица имени Пугачёва Е.И.,410056,51.5321802,46.0116696
13/1,улица Орджоникидзе,410015,51.5029677,45.9540322
13,улица Орджоникидзе,410015,51.5025375,45.9551627
13/2,улица Орджоникидзе,410015,51.5034000,45.9529620
13/3,улица Орджоникидзе,410015,51.5032250,45.9521929
13/4,улица Орджоникидзе,410015,51.5027852,45.9528441
129,Крайняя улица,410019,51.5537054,46.0167432
129,Крайняя улица,410019,51.5539154,46.0171117
55,улица Танкистов,410019,51.5550042,46.0179597
100,Большая Садовая улица,410054,51.5312699,45.9841690
2,улица Блинова Ф. А.,410080,51.6002423,45.9730333
343,Соколовая улица,410005,51.5550625,46.0070872
10А,Перспективная улица,410064,51.6042195,45.9884127
8В,Перспективная улица,410064,51.6039573,45.9902189
4А,Перспективная улица,410064,51.6031899,45.9907247
3,Огородная улица,410008,51.5145311,45.9751224
40,площадь Советско-Чехословацкой Дружбы,410059,51.4498760,45.9063820
1,площадь Советско-Чехословацкой Дружбы,410059,51.4501165,45.9045529
336,площадь Советско-Чехословацкой Дружбы,410059,51.4497166,45.9037056
90,проспект Энтузиастов,410022,51.4664618,45.9324664
137/149,Московская улица,410012,51.5378594,46.0158850
149А,Московская улица,410012,51.5381198,46.0146975
137А,Московская улица,410012,51.5376088,46.0170409
186,Шелковичная улица,410071,51.5423727,45.9706602
186 к9,Шелковичная улица,410071,51.5423551,45.9699786
186 к8,Шелковичная улица,410071,51.5427177,45.9707126
186 к2,Шелковичная улица,410071,51.5417222,45.9689431
186 к6,Шелковичная улица,410071,51.5428136,45.9689114
186 к3,Шелковичная улица,410071,51.5418712,45.9675523
2/15,Фёдоровская улица,410018,51.5747334,46.0733808
14Б,Большая Садовая улица,410004,51.5106727,45.9900638
1А,Федоровская улица,410037,51.5744789,46.0691294
280,улица Рахова,410005,51.5500205,46.0249003
2А,улица имени Н. В. Исаева,410018,51.5794593,46.0741578
8,улица имени Н. В. Исаева,410018,51.5810762,46.0746037
2Б,улица имени Н. В. Исаева,410018,51.5803752,46.0737520
6,улица имени Н. В. Исаева,410018,51.5816864,46.0750188
12/1,Усть-Курдюмская улица,410000,51.5730494,46.0755420
3,улица имени Академика Семёнова Н. Н.,410030,51.6017578,46.0133053
1,3-я Дачная улица,410000,51.5778392,45.9710865
15А,Деловой проезд,410000,51.5680498,45.9818425
140А,Астраханская улица,410005,51.5431468,46.0147828
20/28,Советская улица,410600,51.5282329,46.0263321
20/28,Советская улица,410600,51.5285950,46.0248155
341,Соколовая улица,410005,51.5544648,46.0076091
18/40,Соколовая улица,410031,51.5318289,46.0630381
72,Московская улица,410000,51.5347315,46.0338680
100,Мостовая улица,410051,51.5733077,45.8803062
26,Московское шоссе,410062,51.5988048,45.9259845
6,1-й Широкий проезд,410051,51.5742139,45.8863723
10,1-й Широкий проезд,410051,51.5743953,45.8860295
2,1-й Широкий проезд,410051,51.5737894,45.8870818
10,Большой Поливановский проезд,410051,51.5744245,45.8854810
28,Большой Поливановский проезд,410051,51.5732149,45.8837745
8,Большой Поливановский проезд,410051,51.5745834,45.8857159
30,Большой Поливановский проезд,410051,51.5731065,45.8836004
4,Большой Поливановский проезд,410051,51.5748095,45.8860760
99,Мостовая улица,410051,51.5731062,45.8800054
12,Большой Поливановский проезд,410051,51.5743460,45.8853630
2,Большой Поливановский проезд,410051,51.5749203,45.8862342
22,Большой Поливановский проезд,410051,51.5736431,45.8843983
26,Большой Поливановский проезд,410051,51.5733535,45.8839635
29А,Мостовая улица,410051,51.5718485,45.8834521
9,Таганрогский переулок,410086,51.6086380,45.9174324
1,Камская улица,410086,51.6112439,45.9101325
34,Широкая улица,410051,51.5726417,45.8844566
80,проспект 50 лет Октября,410009,51.5638097,45.9920554
1,улица Лысая Гора,410071,51.5491124,45.9642329
8А,Барнаульская улица,410015,51.5023874,45.9397961
294А,улица Рахова,410005,51.5471351,46.0231921
20А,улица Тархова,410064,51.6099883,45.9836993
19В,улица Тархова,410064,51.6115126,45.9836766
23А,улица Блинова Ф. А.,410007,51.6004461,45.9990060
8А,Мостовая улица,410051,51.5710613,45.8865553
15А,Мостовая улица,410051,51.5706345,45.8861335
23А,Мостовая улица,410051,51.5711194,45.8851869
10А,Мостовая улица,410051,51.5711947,45.8859332
16А,Мостовая улица,410051,51.5715284,45.8855370
19А,Мостовая улица,410051,51.5709670,45.8857168
3А,3-й Сосновый проезд,410051,51.5733293,45.8796125
67/69,Луговая улица,410009,51.5605499,45.9968827
12,Усть-Курдюмская улица,410018,51.5734325,46.0750181
65/71,Мясницкая улица,410003,51.5440538,46.0406991
20/1,Усть-Курдюмское шоссе,410050,51.5796284,46.1046281
10/5,1-й Елшанский тупик,410051,51.5714167,45.8952117
56А,улица Шехурдина,410044,51.5933548,45.9552853
16,улица Загороднева,410041,51.5955648,45.9570555
19,улица Загороднева,410041,51.5955400,45.9599457
7А,Бульварная улица,410044,51.5922075,45.9604285
1Б,улица Крылова,410033,51.5896418,45.9149448
27,Гвардейская улица,410033,51.5881125,45.9206049
2,3-й проезд Панфилова,410033,51.5911492,45.9283736
28,улица Зои Космодемьянской,410033,51.5903345,45.9280561
3,1-й проезд Панфилова,410033,51.5912500,45.9300140
5,1-й проезд Панфилова,410033,51.5910741,45.9315003
7,Одесская улица,410052,51.5780182,45.9637458
21,Рябиновская улица,410009,51.5591480,45.9932928
119,улица имени Пугачёва Е.И.,410012,51.5363532,46.0127844
69,Мельничная улица,410009,51.5653100,45.9951573
1,Артельная улица,410001,51.5155891,45.9725119
1А,Артельная улица,410001,51.5178370,45.9738907
78,Старополянская улица,410009,51.5650998,45.9940576
79А,проспект 50 лет Октября,410000,51.5705841,45.9803937
3,Зоологическая улица,410044,51.5698014,45.9810881
10/12,улица Зарубина,410003,51.5374081,46.0381339
102,Донская улица,410001,51.5190518,45.9424992
155,Московская улица,410000,51.5396265,46.0063628
28 к6,5-й Нагорный проезд,410001,51.5183148,45.9516830
3,улица имени Н. В. Исаева,410018,51.5810166,46.0728630
5,улица имени Н. В. Исаева,410018,51.5815128,46.0730796
3,Одесская улица,410052,51.5765804,45.9637111
15,Ленинградская улица,410039,51.4748859,45.9289393
15А,Ленинградская улица,410039,51.4745116,45.9289812
9,улица имени Н. В. Исаева,410018,51.5824250,46.0739263
16А/2,Техническая улица,410010,51.5779989,46.0142367
18,Радужная улица,410018,51.5807274,46.0712403
14А,улица Братьев Никитиных,410018,51.5811345,46.0708734
14,улица Братьев Никитиных,410018,51.5809100,46.0696424
16,улица Братьев Никитиных,410037,51.5814295,46.0701848
7,улица имени Н. В. Исаева,410018,51.5820207,46.0735079
16А,улица Братьев Никитиных,410018,51.5817418,46.0719321
9А,улица имени Н. В. Исаева,410037,51.5821229,46.0722722
18,улица Братьев Никитиных,410037,51.5817287,46.0700595
91Д,проспект 50 лет Октября,410000,51.5760189,45.9725416
1/1,улица Механизаторов,410059,51.4451467,45.9293553
1к3,улица Осипова,410010,51.5664936,46.0317417
2,улица Загороднева,410041,51.5995381,45.9643130
12,улица Братьев Никитиных,410018,51.5804498,46.0696532
25,Самойловская улица,410018,51.5879187,46.0722967
1,улица Менякина,410018,51.5755730,46.0747070
48,Воскресенская улица,410037,51.5854475,46.0750585
50,Воскресенская улица,410037,51.5855088,46.0759733
25,улица имени Н. В. Исаева,410037,51.5851110,46.0755243
4,улица Менякина,410018,51.5758465,46.0762291
75А,проспект 50 лет Октября,410040,51.5692504,45.9829050
б/н,улица Мелиораторов,410507,51.5840411,45.8369498
4А,улица Ломоносова,410041,51.5996006,45.9591676
13А,2-я Прокатная улица,410041,51.5963882,45.9545459
72А,улица Лебедева-Кумача,410064,51.6082824,45.9775963
8,улица Академика Антонова,410080,51.6024073,45.9751684
10В,улица Бардина,410035,51.6089600,45.9922682
4А,улица Бардина,410035,51.6071270,45.9955794
3,3-й проезд Строителей,410064,51.6053837,45.9730821
4А,улица Уфимцева,410035,51.6118445,45.9956862
29,Перспективная улица,410090,51.6134498,45.9861074
3,улица Бардина,410035,51.6074921,45.9966251
б/н,улица Лебедева-Кумача,410064,51.6123906,45.9760487
6А,улица Батавина,410035,51.6115755,46.0058452
69А,улица Лебедева-Кумача,410064,51.6099559,45.9743122
67Б,улица Лебедева-Кумача,410064,51.6095119,45.9742896
5,Селекционный проезд,410010,51.5699629,46.0019509
8,улица Бардина,410035,51.6082937,45.9936482
8,Стахановская улица,410086,51.6032504,45.9088074
6А,улица Бардина,410035,51.6083778,45.9953056
6А,Сапёрная улица,410065,51.5721284,45.9765065
10,улица Академика Антонова,410080,51.6010730,45.9816693
3,Селекционный проезд,410010,51.5704751,46.0011394
б/н,Ипподромная улица,410069,51.5875288,45.9852844
3Б,Одесская улица,410052,51.5778166,45.9657304
6,3-я Степная улица,410086,51.6016217,45.9077817
5,Мало-Елшанская улица,410086,51.6093660,45.9121527
9,1-й проезд Азина,410059,51.4550881,45.9142320
2,улица Трынина,410015,51.5000162,45.9561058
3,улица Плякина,410015,51.4992580,45.9571191
1А,улица Плякина,410015,51.4992399,45.9551919
3А,улица Плякина,410015,51.4988390,45.9554610
4А,улица Трынина,410015,51.4992395,45.9562674
5,улица Левина,410015,51.4976375,45.9540557
7,улица Левина,410015,51.4968313,45.9552675
44,улица Орджоникидзе,410076,51.5064780,45.9772095
9,Верхняя улица,410076,51.5083182,45.9773021
1 к3,улица Чернышевского,410076,51.5082067,45.9783024
44/46,Парковая улица,410048,51.4781394,45.8873995
24А,Международная улица,410033,51.5834445,45.9569517
б/н,улица Мелиораторов,410507,51.5857849,45.8329357
1,улица Моисеева,410507,51.5876940,45.8591634
35А,улица Тархова,410035,51.6106141,46.0071080
42А,проспект Строителей,410080,51.6014843,45.9699509
40,Тверская улица,410065,51.5738669,45.9747976
4А,Ламповая улица,410044,51.5915867,45.9640761
б/н,2-я Степная улица,410086,51.6024383,45.9097473
б/н,3-й Студёный проезд,410044,51.5937981,45.9560389
4,Ламповая улица,410044,51.5910350,45.9640226
15А,Вишнёвый проезд,410065,51.5695054,45.9778015
8А,улица Уфимцева,410035,51.6124611,45.9991662
10,Учительская улица,410086,51.6107195,45.9135212
16А,улица Ломоносова,410041,51.5967237,45.9629074
23А,Перспективная улица,410064,51.6080273,45.9849241
5А,улица Академика Антонова,410080,51.6041104,45.9726624
6А,Студёная улица,410044,51.5929036,45.9656866
10А,улица Чемодурова,410064,51.6060274,45.9738120
66А,проспект Строителей,410064,51.6095874,45.9718778
5,Деловой проезд,410040,51.5662715,45.9842467
8,улица Уфимцева,410035,51.6134098,45.9992541
15,улица Батавина,410035,51.6134984,46.0068257
8,улица Мира,410052,51.5813820,45.9647910
28Б,Гвардейская улица,410033,51.5894732,45.9261714
72А,улица Лебедева-Кумача,410064,51.6092524,45.9812094
8,улица Тулайкова,410010,51.5712773,46.0016105
65А,проспект 50 лет Октября,410040,51.5666770,45.9853531
5А,Сапёрная улица,410065,51.5703953,45.9794441
12А,улица Строителей,413007,51.5873550,45.8531411
26Б,улица Мира,410033,51.5819356,45.9575331
1Б,улица Благодарова,410086,51.5988873,45.9068307
28,Зелёная улица,410019,51.5486102,46.0363878
16А,улица Жуковского,410010,51.5640461,46.0289226
52А,2-й Магнитный проезд,410019,51.5609163,46.0238490
17А,улица Батавина,410035,51.6126775,46.0141287
5А,1-й Топольчанский проезд,410035,51.6109607,46.0129493
25,Артиллерийская улица,410010,51.5686192,46.0076741
42,улица Гоголя,410012,51.5379614,46.0313763
224А,Большая Садовая улица,410005,51.5510537,46.0123779
67,улица Гоголя,410012,51.5387765,46.0252148
35,1-я Садовая улица,410005,51.5464941,46.0354791
89,улица Степана Разина,410005,51.5472896,46.0067304
27,Артиллерийская улица,410010,51.5691494,46.0057884
17,Высокая улица,410019,51.5594758,46.0280190
85,улица Степана Разина,410005,51.5469363,46.0064607
2/12,улица Мичурина,410056,51.5301034,46.0091451
224,Шелковичная улица,410071,51.5446307,45.9700644
2,1-я Садовая улица,410003,51.5446981,46.0429035
28/32,улица Некрасова,410002,51.5279503,46.0405588
26,улица Григорьева,410002,51.5292418,46.0465304
141,Большая Горная улица,410003,51.5385051,46.0450911
67/69,Соборная улица,410003,51.5387219,46.0427849
1,Камчатская улица,410074,51.5702829,46.0614655
10Б,улица Уфимцева,410035,51.6116873,45.9972695
72Б,улица Лебедева-Кумача,410064,51.6087319,45.9779211
7,Песчаная улица,410053,51.5370756,45.9599777
42,улица Хвесина,410031,51.5317836,46.0679145
5,улица Дубовикова,410065,51.5741964,45.9756236
75,проспект 50 лет Октября,410040,51.5694120,45.9829718
26/30Б,улица Симбирцева,410017,51.5208108,46.0094545
51,Межовражная улица,410047,51.5789266,46.0409431
17А,улица Симбирцева,410017,51.5208321,46.0079396
184А,Шелковичная улица,410071,51.5412180,45.9717395
3,1-й Придорожный проезд,410009,51.5655908,45.9989169
1Б с3,улица Панфилова,410033,51.5913065,45.9460493
13,2-й Заповедный проезд,410051,51.5684050,45.9009557
29,Мостовая улица,410051,51.5763345,45.8767448
39,Мостовая улица,410051,51.5769281,45.8759562
23А,улица Малая Поливановка,410051,51.5722599,45.9048327
37,Мостовая улица,410051,51.5768070,45.8762168
47,Мостовая улица,410051,51.5772555,45.8753779
51,Мостовая улица,410051,51.5776445,45.8746845
29,улица Малая Поливановка,410051,51.5724747,45.9063714
43,Мостовая улица,410051,51.5771563,45.8755914
29А,улица Малая Поливановка,410051,51.5723215,45.9057113
7А,Мостовая улица,410051,51.5686114,45.8888120
25А,улица Малая Поливановка,410051,51.5723318,45.9052877
7,6-я Зеленогорская улица,410051,51.5792735,45.9034078
27,Мостовая улица,410051,51.5760467,45.8771360
1,6-я Зеленогорская улица,410051,51.5791655,45.9040710
21,Мостовая улица,410051,51.5755457,45.8776103
27,улица Малая Поливановка,410051,51.5726794,45.9062702
35,Мостовая улица,410051,51.5765366,45.8765135
25,улица Малая Поливановка,410051,51.5728354,45.9060187
5,Елшанская улица,410086,51.6155003,45.9140587
8Б,Елшанская улица,410086,51.6124371,45.9091998
9,Отрядная улица,410047,51.5765235,46.0321729
6,улица Зои Космодемьянской,410033,51.5886364,45.9408610
19,проспект 50 лет Октября,410009,51.5626456,45.9921655
32,улица Симбирцева,410017,51.5215725,46.0096291
112/116,улица Гоголя,410012,51.5402322,46.0219105
4А,2-я Прокатная улица,410041,51.6011172,45.9629877
6,2-й Перспективный проезд,410064,51.6109718,45.9890598
8,улица Менякина,410018,51.5773119,46.0755828
48,улица Тархова,410000,51.6083770,46.0150328
44В,улица Тархова,410000,51.6085293,46.0124609
23Б,Московское шоссе,410062,51.5961717,45.9275952
15/31б,улица Рахова,410017,51.5239430,46.0076938
2,улица Кривохижина Александра,410015,51.4987889,45.9578853
7,улица Плякина,410015,51.4975022,45.9573283
11,Отрядная улица,410047,51.5764700,46.0327823
17,Отрядная улица,410047,51.5763934,46.0335912
20,Порядковая улица,410047,51.5765985,46.0341143
7А,улица имени Ерёмина Б. Н.,410030,51.6046261,46.0218286
7,улица имени Ерёмина Б. Н.,410030,51.6046053,46.0225942
1,улица Слонова,410012,51.5327151,46.0056671
4,улица имени Лисина С. П.,410030,51.6026327,46.0134187
26,10-я линия,410053,51.5272253,45.9646117
55,Мостовая улица,410051,51.5778450,45.8742917
53,Мостовая улица,410051,51.5777356,45.8745022
43,Усть-Курдюмская улица,410050,51.5778471,46.0933474
1Б,Усть-Курдюмское шоссе,410050,51.5777842,46.0923639
37,Усть-Курдюмская улица,410050,51.5774626,46.0910434
39,Усть-Курдюмская улица,410050,51.5776726,46.0915298
11,Ямальская улица,410038,51.5736656,46.0917328
12,3-й Овсяной проезд,410050,51.5864615,46.1281508
25Д,улица Тархова,410064,51.6102611,45.9881707
3,1-й Перспективный проезд,410064,51.6107892,45.9883312
4А,1-й Перспективный проезд,410064,51.6104996,45.9880740
6А,1-й Перспективный проезд,410064,51.6104914,45.9883930
8,1-й Перспективный проезд,410064,51.6104191,45.9886901
12,1-й Перспективный проезд,410064,51.6102740,45.9892083
11,улица имени Кузнецова Н. В.,410030,51.6053761,46.0277887
9,улица имени Кузнецова Н. В.,410030,51.6044539,46.0282632
47А,улица Тархова,410082,51.6097675,46.0203688
2,улица Мысникова,410000,51.6099033,46.0161787
15/2,улица имени Академика Семёнова Н. Н.,410030,51.6002277,46.0236209
52А,3-й Тепличный проезд,410511,51.4805610,45.8830047
13,13-й Шелковичный проезд,410071,51.5398748,45.9819998
40А,улица Симбирцева,410000,51.5224123,46.0133338
5А,улица Блинова Ф. А.,410080,51.6005787,45.9755360
14,Новосамарский проезд,410053,51.5285617,45.9584964
11Б,Мостовая улица,410051,51.5690322,45.8877917
17А,Мостовая улица,410051,51.5708578,45.8859008
30А,Мостовая улица,410051,51.5720411,45.8828856
13,Мостовая улица,410051,51.5749381,45.8782343
15,Мостовая улица,410051,51.5750851,45.8780741
17,Мостовая улица,410051,51.5752672,45.8779406
19,Мостовая улица,410051,51.5754410,45.8778159
23,Мостовая улица,410051,51.5756789,45.8774848
25,Мостовая улица,410051,51.5758152,45.8773573
3,3-й Сосновый проезд,410051,51.5732816,45.8796873
1/3,улица Тулайкова,410010,51.5721786,45.9950715
15,улица Ломоносова,410041,51.5976785,45.9646142
14/11,2-й Телевизионный проезд,410017,51.5190465,46.0079735
12,2-й Телевизионный проезд,410017,51.5191418,46.0082974
17,1-я линия,410008,51.5218730,45.9743482
11,Парусная улица,410037,51.5726676,46.1027613
13,Парусная улица,410037,51.5727718,46.1029745
6,Парусная улица,410037,51.5722483,46.1026191
8,Парусная улица,410037,51.5724167,46.1029075
10,Парусная улица,410037,51.5726435,46.1034011
8,2-й проезд Блинова,410007,51.5970265,45.9971282
8А,2-й проезд Блинова,410007,51.5975542,45.9962419
44,улица Романтиков,410007,51.5961487,45.9962962
21А,улица Суворова,410040,51.5626271,45.9814825
57,Мостовая улица,410051,51.5780132,45.8736373
14Б,Мостовая улица,410051,51.5712626,45.8857821
б/н,9-я Дачная улица,410051,51.5712409,45.8986446
6,2-й Тюльпановый проезд,410051,51.5730882,45.9015261
25Б,улица Малая Поливановка,410051,51.5727907,45.9061973
9,6-я Зеленогорская улица,410051,51.5793096,45.9031674
13,7-я Зеленогорская улица,410051,51.5787213,45.9029361
46,улица Романтиков,410007,51.5963170,45.9946044
52В,улица Блинова Ф. А.,410007,51.5978511,46.0065216
52,улица Блинова Ф. А.,410007,51.5977203,46.0056004
21А,Гвардейская улица,410033,51.5875963,45.9251334
1,Бережная улица,410033,51.5887769,45.9357839
7А,улица Благодарова,410086,51.5989430,45.9100198
2 к2,Московское шоссе,410086,51.6054548,45.9148805
39,Комсомольская улица,410031,51.5309551,46.0436781
18,улица Рамаева,410031,51.5317002,46.0524111
2/10,Валовая улица,410031,51.5281344,46.0593233
36,улица Лермонтова,410031,51.5276961,46.0566887
43А,Усть-Курдюмская улица,410050,51.5780110,46.0937800
62,Московская улица,410031,51.5331450,46.0392796
49А,улица Некрасова,410031,51.5331864,46.0424696
16,улица Блинова Ф. А.,410080,51.5995537,45.9827078
52Б,улица Блинова Ф. А.,410007,51.5981871,46.0071333
77,Октябрьская улица,410003,51.5372107,46.0494551
31,Вознесенская улица,410003,51.5365312,46.0511671
43,Большая Горная улица,410030,51.5333186,46.0578493
43,Большая Горная улица,410030,51.5340394,46.0563492
59,Первомайская улица,410028,51.5304620,46.0426647
22,Соборная улица,410002,51.5285437,46.0387851
16,Бабушкин взвоз,410002,51.5261794,46.0384164
20,улица Братьев Никитиных,410037,51.5819935,46.0692445
33,Красногорская улица,410037,51.5821360,46.0698516
7,улица имени Кузнецова Н. В.,410030,51.6034600,46.0279033
29,Красногорская улица,410037,51.5822848,46.0704856
27,Красногорская улица,410037,51.5822572,46.0707964
25,Красногорская улица,410037,51.5822649,46.0711163
21,Красногорская улица,410037,51.5823834,46.0717259
26,улица Гоголя,410003,51.5370653,46.0348855
24,улица Гоголя,410003,51.5370338,46.0350828
43,Мясницкая улица,410003,51.5415395,46.0385383
100,Мясницкая улица,410050,51.5457988,46.0433637
201,Соколовая улица,410003,51.5435372,46.0347952
46Б,улица Романтиков,410007,51.5971727,45.9937972
6А,улица Чехова,410007,51.6048505,46.0045799
9,2-й Московский проезд,410062,51.5967194,45.9201252
208,улица Посадского,410005,51.5426762,46.0259577
3Б,Подстанция № 23,413007,51.6192121,45.9564273
128,2-я Поперечная улица,410053,51.5280604,45.9561511
82,Песчаная улица,410053,51.5282064,45.9557783
80,Песчаная улица,410053,51.5284593,45.9560766
89,Самарская улица,410053,51.5282004,45.9567910
87,Самарская улица,410053,51.5284320,45.9568965
78/1,Песчаная улица,410053,51.5285028,45.9563589
23,Саратовская улица,410053,51.5288660,45.9564815
19,Саратовская улица,410053,51.5286762,45.9569482
85,Самарская улица,410053,51.5285121,45.9572096
79,Самарская улица,410053,51.5290967,45.9574671
74,Песчаная улица,410053,51.5291265,45.9567211
70А,Песчаная улица,410053,51.5293736,45.9574030
70,Песчаная улица,410053,51.5295787,45.9572117
79,1-я Поперечная улица,410053,51.5296088,45.9578635
81,1-я Поперечная улица,410053,51.5296587,45.9577370
93,улица Клочкова,410053,51.5299194,45.9586609
95,улица Клочкова,410053,51.5299897,45.9583401
99,улица Клочкова,410053,51.5301246,45.9578562
72,1-я Поперечная улица,410053,51.5297482,45.9581576
76,1-я Поперечная улица,410053,51.5298715,45.9578392
77,Самарская улица,410053,51.5292029,45.9578645
72,Песчаная улица,410053,51.5294072,45.9569999
81,Самарская улица,410053,51.5288975,45.9575651
14,4-й Рабочий проезд,410071,51.5410210,45.9847608
21,улица Суворова,410040,51.5627653,45.9817761
38 с1,Автомобильная улица,410037,51.5837734,46.0763717
23,улица имени Скоморохова Н. М.,410037,51.5842859,46.0796262
2,Заводская улица,410076,51.5048169,45.9794319
39,Заводская улица,410076,51.5085078,45.9776970
143,Московская улица,410012,51.5373243,46.0157425
8,6-й Малахитовый проезд,410050,51.5784360,46.0923274
18,5-й Малахитовый проезд,410050,51.5789022,46.0944177
17,6-й Малахитовый проезд,410050,51.5787647,46.0944292
9,6-й Малахитовый проезд,410050,51.5786968,46.0928509
14,5-й Малахитовый проезд,410050,51.5788873,46.0936935
16,5-й Малахитовый проезд,410050,51.5789040,46.0940499
16,6-й Малахитовый проезд,410050,51.5783000,46.0937012
49А,Усть-Курдюмская улица,410050,51.5796593,46.0968203
44,улица Сакко и Ванцетти,410012,51.5305166,46.0247842
9,улица Левина,410015,51.4959702,45.9566037
9,улица Плякина,410015,51.4963961,45.9572363
8А с1,улица Плякина,410015,51.4964506,45.9565166
163,Белоглинская улица,410071,51.5396808,45.9825311
61/69,Железнодорожная улица,410005,51.5462180,46.0116378
61/69,Железнодорожная улица,410005,51.5458421,46.0113226
127,Крайняя улица,410019,51.5540599,46.0166663
129,Крайняя улица,410019,51.5537016,46.0175572
51,улица Танкистов,410019,51.5541921,46.0181480
127,Крайняя улица,410019,51.5544020,46.0180146
127,Крайняя улица,410019,51.5543648,46.0174014
127,Крайняя улица,410019,51.5541687,46.0174911
127,Крайняя улица,410019,51.5541499,46.0170471
55,улица Танкистов,410019,51.5547262,46.0176790
127,Крайняя улица,410019,51.5545956,46.0178420
1,Привокзальная площадь,410012,51.5438106,46.0013516
18/68,улица Мичурина,410056,51.5291459,46.0113881
10,2-й Телевизионный проезд,410017,51.5191957,46.0084959
50Г,улица Чернышевского,410004,51.5111176,45.9922909
82,Курдюмская улица,410040,51.5637580,45.9821002
2,4-й Чернышёвский проезд,410076,51.5077200,45.9814870
5,бульвар имени Денисова Николая,410015,51.4958108,45.9537681
8А,1-я Беговая улица,410054,51.5272139,45.9840864
13/31,улица Степана Разина,410054,51.5298763,45.9888047
11,улица Левина,410015,51.4951439,45.9578798
7,бульвар имени Денисова Николая,410015,51.4948092,45.9543862
8,бульвар имени Денисова Николая,410015,51.4941992,45.9540253
6,бульвар имени Денисова Николая,410015,51.4948725,45.9531056
4,бульвар имени Денисова Николая,410015,51.4956729,45.9513130
8А,Барнаульская улица,410015,51.5020875,45.9392894
8Б,улица Академика Антонова,410080,51.6025089,45.9749955
6,улица Михаила Булгакова,410069,51.5871212,45.9919856
12,улица Марины Расковой,410039,51.4910994,45.9250309
29Б/1,улица Тархова,410035,51.6112297,45.9964701
2,Карьерная улица,410001,51.5158808,45.9704438
2Д,Карьерная улица,410001,51.5167306,45.9724654
7,3-й Артельный проезд,410008,51.5154357,45.9739917
2Б,Карьерная улица,410008,51.5163802,45.9715305
2В,Карьерная улица,410008,51.5161910,45.9722393
2Г,Карьерная улица,410001,51.5162909,45.9730724
10А,улица Лопатина Гора,410008,51.5175814,45.9716459
10Б,улица Лопатина Гора,410008,51.5172408,45.9713286
12А,улица Лопатина Гора,410008,51.5173736,45.9707036
14 к2,улица Лопатина Гора,410008,51.5174873,45.9698822
12,улица Лопатина Гора,410001,51.5178394,45.9706182
14 к1,улица Лопатина Гора,410008,51.5178131,45.9695522
4,улица имени Ерёмина Б. Н.,410030,51.6008825,46.0237069
6,улица имени Ерёмина Б. Н.,410030,51.6013414,46.0237164
8,улица имени Ерёмина Б. Н.,410030,51.6018191,46.0237841
14А,улица имени Лисина С. П.,410030,51.6015793,46.0256552
14,улица имени Ерёмина Б. Н.,410030,51.6037092,46.0238079
20,улица имени Ерёмина Б. Н.,410030,51.6052361,46.0239247
48А,улица Романтиков,410007,51.5971998,45.9928140
48,улица Романтиков,410007,51.5962092,45.9928380
48Б,улица Романтиков,410007,51.5970959,45.9921089
4А,проспект Героев Отечества,410030,51.6079133,46.0126427
4,проспект Героев Отечества,410030,51.6074614,46.0125965
93,Самарская улица,410053,51.5279048,45.9565048
87/1,Самарская улица,410053,51.5283048,45.9568137
97,улица Клочкова,410053,51.5300544,45.9580833
74,1-я Поперечная улица,410053,51.5298167,45.9579831
73,Самарская улица,410053,51.5294467,45.9581779
75,Самарская улица,410053,51.5292936,45.9579580
6А,проспект Героев Отечества,410030,51.6078584,46.0139383
21,6-й Малахитовый проезд,410050,51.5787639,46.0952383
22,5-й Малахитовый проезд,410050,51.5789262,46.0952478
12,5-й Малахитовый проезд,410050,51.5788912,46.0933231
8,5-й Малахитовый проезд,410050,51.5788860,46.0926087
15,6-й Малахитовый проезд,410050,51.5787478,46.0940496
13,6-й Малахитовый проезд,410050,51.5787395,46.0937079
10,5-й Малахитовый проезд,410050,51.5788927,46.0929714
9А,6-й Малахитовый проезд,410050,51.5787032,46.0931097
5,6-я Зеленогорская улица,410051,51.5792551,45.9036740
15,7-я Зеленогорская улица,410051,51.5786254,45.9025470
17,7-я Зеленогорская улица,410051,51.5784862,45.9025396
4,Верхняя улица,410076,51.5082796,45.9777198
16А,Новоастраханская улица,410001,51.5112139,45.9612269
186 к2,Шелковичная улица,410071,51.5415112,45.9695040
186 к1,Шелковичная улица,410071,51.5418389,45.9706902
186 к1,Шелковичная улица,410071,51.5415166,45.9703753
1,6-й Малахитовый проезд,410050,51.5786881,46.0915174
3,6-й Малахитовый проезд,410050,51.5786962,46.0918868
5,6-й Малахитовый проезд,410050,51.5787014,46.0922603
7,6-й Малахитовый проезд,410050,51.5787077,46.0925247
16,4-й Малахитовый проезд,410050,51.5793834,46.0938873
20А,3-й Малахитовый проезд,410050,51.5796230,46.0952525
19А,5-й Малахитовый проезд,410050,51.5794155,46.0949979
19,5-й Малахитовый проезд,410050,51.5792567,46.0949719
20,5-й Малахитовый проезд,410050,51.5789257,46.0948694
19,6-й Малахитовый проезд,410050,51.5787452,46.0948795
23,6-й Малахитовый проезд,410050,51.5787689,46.0955120
30Б,3-й Малахитовый проезд,410050,51.5802700,46.0960204
32,3-й Малахитовый проезд,410050,51.5804921,46.0960874
30,3-й Малахитовый проезд,410050,51.5804134,46.0958698
28А,3-й Малахитовый проезд,410050,51.5801452,46.0956795
28,3-й Малахитовый проезд,410050,51.5802786,46.0955483
12,3-й Малахитовый проезд,410050,51.5798096,46.0927452
14,3-й Малахитовый проезд,410050,51.5798283,46.0931117
13,4-й Малахитовый проезд,410050,51.5796726,46.0931938
11,4-й Малахитовый проезд,410050,51.5796629,46.0928508
14,4-й Малахитовый проезд,410050,51.5793936,46.0935619
13,5-й Малахитовый проезд,410050,51.5792117,46.0934761
11,5-й Малахитовый проезд,410050,51.5792514,46.0932214
8,4-й Малахитовый проезд,410050,51.5793967,46.0924610
7,5-й Малахитовый проезд,410050,51.5792194,46.0924564
5,5-й Малахитовый проезд,410050,51.5792201,46.0921692
6,4-й Малахитовый проезд,410050,51.5793732,46.0921482
6,5-й Малахитовый проезд,410050,51.5788675,46.0922569
4,5-й Малахитовый проезд,410050,51.5788521,46.0918681
2,5-й Малахитовый проезд,410050,51.5788228,46.0915083
16,1-й Малахитовый проезд,410050,51.5813858,46.0929882
16А,1-й Малахитовый проезд,410050,51.5812440,46.0931223
14А,1-й Малахитовый проезд,410050,51.5811025,46.0928207
14,1-й Малахитовый проезд,410050,51.5812574,46.0926855
9А,2-й Малахитовый проезд,410050,51.5809773,46.0929491
9,2-й Малахитовый проезд,410050,51.5808269,46.0930941
8,1-й Малахитовый проезд,410050,51.5808593,46.0915766
8А,1-й Малахитовый проезд,410050,51.5807236,46.0917060
10,1-й Малахитовый проезд,410050,51.5810166,46.0919977
10А,1-й Малахитовый проезд,410050,51.5808845,46.0921640
5А,2-й Малахитовый проезд,410050,51.5807331,46.0922920
5,2-й Малахитовый проезд,410050,51.5805910,46.0924846
4,2-й Малахитовый проезд,410050,51.5803796,46.0929251
6,2-й Малахитовый проезд,410050,51.5804608,46.0931601
8,2-й Малахитовый проезд,410050,51.5805479,46.0933807
10,2-й Малахитовый проезд,410050,51.5806623,46.0937513
10А,2-й Малахитовый проезд,410050,51.5804968,46.0938926
12,2-й Малахитовый проезд,410050,51.5808042,46.0941067
18,2-й Малахитовый проезд,410050,51.5810193,46.0947017
22,2-й Малахитовый проезд,410050,51.5811595,46.0951260
15,3-й Малахитовый проезд,410050,51.5803455,46.0945463
17,3-й Малахитовый проезд,410050,51.5804180,46.0947386
19,3-й Малахитовый проезд,410050,51.5805250,46.0949377
21,3-й Малахитовый проезд,410050,51.5805911,46.0951411
25,3-й Малахитовый проезд,410050,51.5807420,46.0955493
23А,Усть-Курдюмская улица,410037,51.5768145,46.0770309
2,1-й Малахитовый проезд,410050,51.5801284,46.0911426
6,1-й Малахитовый проезд,410050,51.5805707,46.0913077
3,4-й Малахитовый проезд,410050,51.5796376,46.0914375
4,улица Евгения Долгина,410069,51.5864235,45.9937657
3,улица Евгения Долгина,410069,51.5849301,45.9930515
3А,улица имени Виктора Аржаного,410069,51.5865766,45.9923156
10,улица имени Виктора Аржаного,410069,51.5840908,45.9895629
11,улица Михаила Галкина-Враского,410069,51.5838662,45.9882005
9,улица Михаила Галкина-Враского,410069,51.5844339,45.9885616
7,улица Михаила Галкина-Враского,410069,51.5849931,45.9880414
7А,улица Михаила Галкина-Враского,410069,51.5847561,45.9887849
8,улица имени Виктора Аржаного,410069,51.5849607,45.9895678
6,улица имени Виктора Аржаного,410069,51.5855050,45.9891677
4А,улица имени Виктора Аржаного,410069,51.5861318,45.9894829
4А,улица Михаила Булгакова,410069,51.5866323,45.9893631
52А,улица Блинова Ф. А.,410007,51.5985913,46.0061473
16,улица имени Ерёмина Б. Н.,410030,51.6043009,46.0241426
18,улица имени Ерёмина Б. Н.,410030,51.6048191,46.0241792
5А,проспект Героев Отечества,410030,51.6056915,46.0202292
3А,проспект Героев Отечества,410030,51.6057260,46.0188317
2,улица имени Оржевского В. И.,410030,51.6038503,46.0134055
5А,улица имени Лисина С. П.,410030,51.6038623,46.0143100
3,улица имени Панченко К. П.,410030,51.6037920,46.0152445
8Б,2-й проезд Блинова,410007,51.5969841,45.9961644
8,проспект Героев Отечества,410030,51.6073824,46.0152009
9,улица имени Панченко К. П.,410030,51.6078146,46.0152456
5В,Техническая улица,410000,51.5760145,46.0101085
191Д,улица Танкистов,410047,51.5864574,46.0292825
25Б,улица Блинова Ф. А.,410007,51.6004309,46.0010846
32,улица Академика Антонова,410007,51.6011631,46.0062997
16,Вишнёвая улица,410040,51.5653330,45.9810377
4,улица имени Николая Нишнева,410047,51.5804837,46.0185336
6,улица имени Николая Нишнева,410047,51.5797853,46.0181633
22,улица имени Юрия Чернышова,410047,51.5794066,46.0194976
5,1-й Сокурский проезд,410080,51.6128375,45.9577933
15,улица Суворова,410040,51.5630652,45.9831375
13А,улица Суворова,410040,51.5633967,45.9839749
11А,Наумовская улица,410009,51.5600452,45.9909169
1А,улица Менякина,410018,51.5752253,46.0738179
22А,2-я Прокатная улица,410041,51.5978626,45.9563004
17,2-й Станционный проезд,410004,51.5210004,45.9896507
140,Огородная улица,410036,51.5079127,45.9379003
11,6-й Малахитовый проезд,410050,51.5787233,46.0933160
16А,6-й Малахитовый проезд,410050,51.5784766,46.0936540
6,6-й Малахитовый проезд,410050,51.5784467,46.0920238
4,6-й Малахитовый проезд,410050,51.5784287,46.0916138
10,6-й Малахитовый проезд,410050,51.5784745,46.0927376
9А,3-й Малахитовый проезд,410050,51.5801627,46.0934864
9Б,3-й Малахитовый проезд,410050,51.5802956,46.0933688
11,3-й Малахитовый проезд,410050,51.5800752,46.0939045
11А,3-й Малахитовый проезд,410050,51.5802545,46.0937724
7,2-й Малахитовый проезд,410050,51.5806972,46.0927530
7А,2-й Малахитовый проезд,410050,51.5808368,46.0925874
12,1-й Малахитовый проезд,410050,51.5810007,46.0924573
4,1-й Малахитовый проезд,410050,51.5803697,46.0911082
3,2-й Малахитовый проезд,410050,51.5805375,46.0918368
1,2-й Малахитовый проезд,410050,51.5802734,46.0916722
3,3-й Малахитовый проезд,410050,51.5801158,46.0915466
16,3-й Малахитовый проезд,410050,51.5796469,46.0935381
2,4-й Малахитовый проезд,410050,51.5793582,46.0913937
4,3-й Малахитовый проезд,410050,51.5798015,46.0913179
5,4-й Малахитовый проезд,410050,51.5796278,46.0917805
6,3-й Малахитовый проезд,410050,51.5798078,46.0917861
10,3-й Малахитовый проезд,410050,51.5797578,46.0924955
14А,улица имени Ерёмина Б. Н.,410030,51.6036397,46.0233281
20А,улица имени Ерёмина Б. Н.,410030,51.6052834,46.0234634
29,Вольская улица,410056,51.5236479,46.0188058
27,3-й Малахитовый проезд,410050,51.5808078,46.0956752
23,3-й Малахитовый проезд,410050,51.5808033,46.0951754
26,2-й Малахитовый проезд,410050,51.5812250,46.0955845
14,2-й Малахитовый проезд,410050,51.5808373,46.0943118
29,2-й Малахитовый проезд,410050,51.5816799,46.0954377
15,2-й Малахитовый проезд,410050,51.5811830,46.0940445
13,2-й Малахитовый проезд,410050,51.5812391,46.0936489
21,2-й Малахитовый проезд,410050,51.5813907,46.0946411
24,1-й Малахитовый проезд,410050,51.5817634,46.0941658
2,2-й Перспективный проезд,410064,51.6110433,45.9883808
2А,2-й Перспективный проезд,410064,51.6109962,45.9883186
4,2-й Перспективный проезд,410064,51.6110075,45.9886215
1А,1-й Перспективный проезд,410064,51.6108498,45.9880692
1,1-й Перспективный проезд,410064,51.6108027,45.9880071
4А,2-й Перспективный проезд,410064,51.6109697,45.9886923
5,1-й Перспективный проезд,410064,51.6107580,45.9886412
6,1-й Перспективный проезд,410064,51.6105218,45.9883171
4,1-й Перспективный проезд,410064,51.6105371,45.9879849
36,3-й Малахитовый проезд,410050,51.5806062,46.0964908
52/58,2-я Садовая улица,410017,51.5232257,45.9998430
14,Техническая улица,410010,51.5751200,46.0132718
7,улица имени Оржевского В. И.,410007,51.6062245,46.0116696
5,бульвар имени Денисова Николая,410015,51.4976173,45.9540421
6,улица имени Фёдора Пяткова,410047,51.5798956,46.0195716
10Б,улица Бардина,410035,51.6092531,45.9921022
3,5-й Нагорный проезд,410001,51.5104220,45.9538558
83,Астраханская улица,410012,51.5318987,46.0121729
1 с1,Державинская улица,410018,51.5737922,46.0675324
10,Державинская улица,410018,51.5734795,46.0659907
138,улица Чернышевского,410002,51.5247289,46.0400604
141,Шелковичная улица,410071,51.5366636,45.9841356
11А,Южно-Зелёная улица,410022,51.4695597,45.9221436
1/9,Лесная улица,410009,51.5628141,45.9997039
16,улица Мичурина,410056,51.5294718,46.0102336
121,Большая Казачья улица,410012,51.5384197,46.0034934
5,2-й Московский проезд,410062,51.5980781,45.9235833
107,проспект 50 лет Октября,410052,51.5847201,45.9618725
3,Мирный переулок,410600,51.5314859,46.0155288
124,улица Рахова,410012,51.5346742,46.0166665
75,проспект 50 лет Октября,410040,51.5695204,45.9820925
4А,улица Чехова,410007,51.6036244,46.0043038
24,Международная улица,410052,51.5841672,45.9570680
10А,Тверская улица,410065,51.5734369,45.9739725
4А,Молодёжный проезд,410028,51.5862604,45.9520326
29А,Московское шоссе,410062,51.5986263,45.9245942
13Б,Гвардейская улица,410033,51.5859917,45.9385357
9В,улица Мира,410052,51.5798077,45.9615962
7,2-й Московский проезд,410062,51.5974216,45.9226769
9А,улица Мира,410052,51.5804067,45.9616033
б/н,улица Строителей,413007,51.5898102,45.8538895
4А,Международный проезд,410052,51.5823886,45.9624024
130А,проспект 50 лет Октября,410052,51.5848960,45.9653285
132А,проспект 50 лет Октября,410052,51.5861016,45.9630202
158,Московская улица,410023,51.5406021,46.0090450
59,Университетская улица,410012,51.5412401,46.0062798
186А,улица Зарубина,410005,51.5450224,46.0073747
72А,улица Слонова,410012,51.5417644,45.9940882
239,Большая Садовая улица,410009,51.5521024,46.0058459
239А,Большая Садовая улица,410009,51.5539238,46.0050604
33/47,Аптечная улица,410009,51.5619859,45.9896674
11,Наумовская улица,410009,51.5595332,45.9914129
308А,улица Посадского,410005,51.5465959,46.0085987
83,улица Максима Горького,410003,51.5398933,46.0347421
193,улица Посадского,410005,51.5418660,46.0236098
24,улица Жуковского,410010,51.5647754,46.0249655
33,Тракторная улица,410009,51.5533699,45.9999169
240,Большая Садовая улица,410005,51.5514812,46.0148800
126,улица Танкистов,410047,51.5860672,46.0313754
44,2-й Магнитный проезд,410019,51.5593591,46.0255171
1,Вольская улица,410056,51.5426801,46.0150047
112,Большая Казачья улица,410012,51.5310886,46.0036797
43/45,Большая Казачья улица,410012,51.5336654,46.0233813
162,Новоузенская улица,410054,51.5350448,45.9796171
10А,Свинцовая улица,410071,51.5383820,45.9851043
14,улица Сакко и Ванцетти,410012,51.5292545,46.0303079
79,Астраханская улица,410012,51.5368595,46.0090451
37/41,улица Слонова,410012,51.5365398,45.9986706
79,Астраханская улица,410078,51.5365685,46.0088989
32,улица Степана Разина,410078,51.5367105,46.0016665
5,Вознесенская улица,410031,51.5318694,46.0484219
3Б,Загорная улица,410038,51.5549814,46.0492314
46А,Октябрьская улица,410031,51.5319277,46.0476539
128,улица Чернышевского,410028,51.5236069,46.0358644
157,Мясницкая улица,410003,51.5508422,46.0480424
32А,улица Хвесина,410031,51.5312094,46.0659852
39,Мясницкая улица,410003,51.5409527,46.0384294
12,улица Челюскинцев,410031,51.5286495,46.0567981
17,Соляная улица,410002,51.5291874,46.0497752
24,Рабочая улица,410028,51.5255506,46.0212669
77,улица Клочкова,410053,51.5283158,45.9643737
32,проспект Строителей,410000,51.5978400,45.9693508
40,Московская улица,410031,51.5321725,46.0443018
46,Октябрьская улица,410031,51.5318432,46.0470858
93,улица Танкистов,410010,51.5654904,46.0195700
16,улица Бирюзова,410010,51.5699775,46.0303237
123,улица имени Пугачёва Е.И.,410012,51.5379584,46.0136479
41,улица Сакко и Ванцетти,410056,51.5298166,46.0256693
129,Крайняя улица,410019,51.5540658,46.0138360
127,Крайняя улица,410019,51.5548716,46.0151305
144,Рабочая улица,410078,51.5371576,45.9964043
78,улица Мичурина,410056,51.5266527,46.0224353
141,улица Чернышевского,410028,51.5215310,46.0243169
6,Вольская улица,410028,51.5208452,46.0204672
36,улица Хользунова,410017,51.5260739,46.0070707
8,Новоузенская улица,410017,51.5187635,46.0115775
58,Шелковичная улица,410017,51.5260928,46.0052810
55,улица Чернышевского,410076,51.5121373,45.9900945
104,улица Чернышевского,410056,51.5184677,46.0201842
177,Шелковичная улица,410071,51.5391660,45.9760056
3,4-й Рабочий проезд,410071,51.5404811,45.9847616
186,Шелковичная улица,410071,51.5421302,45.9687478
153/163,Большая Садовая улица,410012,51.5414780,45.9898823
45,Тверская улица,410065,51.5711246,45.9736535
8Д,улица Лесная Республика,410065,51.5695000,45.9613363
91,проспект 50 лет Октября,410000,51.5738916,45.9725589
9Б,улица Мира,410052,51.5793007,45.9616570
9Д,улица Мира,410052,51.5792572,45.9622737
34,Международная улица,410033,51.5836091,45.9526515
15Б,Гвардейская улица,410033,51.5864309,45.9351107
3,2-й Красноармейский тупик,410009,51.5743798,45.9803641
110А,проспект 50 лет Октября,410040,51.5686719,45.9863882
110Ак1Б,проспект 50 лет Октября,410040,51.5686611,45.9864049
3,Мурманский проезд,410009,51.5549818,46.0058573
306,Соколовая улица,410005,51.5528661,46.0078789
60,Советская улица,410012,51.5305455,46.0178185
4,улица Трынина,410015,51.4984296,45.9558921
1,улица Плякина,410015,51.4994100,45.9546558
4,улица Плякина,410015,51.4978891,45.9546953
48,проспект Энтузиастов,410049,51.4980937,45.9341027
7,Барнаульская улица,410039,51.4972822,45.9295970
15,Крымский проезд,410039,51.4883253,45.9203857
15,Крымская улица,410039,51.4892747,45.9200033
2Д,Заречная улица,410022,51.4742883,45.9125217
6,Больничный проезд,410022,51.4655908,45.9293982
1,1-й Акмолинский проезд,410022,51.4646433,45.9325580
6А,1-й проезд Азина,410059,51.4539831,45.9133786
6,1-й проезд Азина,410059,51.4546709,45.9125404
7,1-й проезд Азина,410059,51.4551036,45.9133599
1В,Фруктовый проезд,410048,51.4886235,45.9129689
17/39,улица Маркина,410048,51.4818185,45.8870385
15,Азовская улица,410048,51.4763556,45.8958424
6А,1-й Тульский проезд,410048,51.4760402,45.9000200
8,улица имени Лисина С. П.,410030,51.6025255,46.0192591
50,улица Штейнберга С.И.,410060,51.4967130,45.8977067
7,Верхняя улица,410076,51.5079651,45.9771742
11,Верхняя улица,410076,51.5084211,45.9775294
37/6,Заводская улица,410076,51.5084384,45.9779792
46,Южная улица,410060,51.5027199,45.9125321
22,улица Гоголя,410003,51.5370401,46.0353998
3,5-й Нагорный проезд,410001,51.5103025,45.9532331
186 к12,Шелковичная улица,410071,51.5415843,45.9685751
33А,Огородная улица,410001,51.5165764,45.9630377
18,улица Блинова Ф. А.,410080,51.5993804,45.9842474
1,Ильинская площадь,410056,51.5210767,46.0160067
46,Советская улица,410056,51.5297403,46.0204922
9/4,1-я линия,410008,51.5227897,45.9764952
24/32,улица Рогожина,410030,51.5358440,46.0593042
3/1,Техническая улица,410000,51.5742054,46.0100091
5,Производственная улица,410041,51.5977654,45.9708368
9А,Перспективная улица,410064,51.6068919,45.9843616
9/10,Перспективная улица,410064,51.6065357,45.9832076
13,4-я Прокатная улица,410041,51.5982838,45.9667279
15А,улица Ломоносова,410041,51.5981757,45.9655767
15А,улица Ломоносова,410041,51.5985938,45.9649589
15А,Ипподромная улица,410069,51.5857489,45.9795663
15Б,Ипподромная улица,410069,51.5853837,45.9785854
64А,улица Шехурдина,410044,51.5934626,45.9514598
27А,2-я Прокатная улица,410044,51.5940093,45.9515863
16/20,Ново-Астраханская улица,410001,51.5113268,45.9604843
22/26,Ново-Астраханская улица,410001,51.5109089,45.9589066
74,Городская улица,410047,51.5868312,46.0305001
2/1,Прудная улица,410048,51.4759239,45.9086804
2/2,Прудная улица,410048,51.4757233,45.9091239
16,Порядковая улица,410047,51.5766720,46.0333162
14,Порядковая улица,410047,51.5767385,46.0328500
12,Порядковая улица,410047,51.5767524,46.0325103
10,Порядковая улица,410047,51.5767605,46.0323318
8,Порядковая улица,410047,51.5768048,46.0320485
79,Ново-Астраханское шоссе,410039,51.5000732,45.9285579
62/70,Политехническая улица,410008,51.5217954,45.9822295
74,улица Клочкова,410053,51.5296865,45.9657472
33,Зерновая улица,410047,51.5850796,46.0432668
30,проспект Строителей,410080,51.5998267,45.9698774
36А,проспект Строителей,410080,51.5997813,45.9709046
5,Осенняя улица,410064,51.5894742,45.9637425
1А,Привокзальная площадь,410012,51.5418831,45.9987589
8,Фёдоровская улица,410018,51.5772977,46.0725152
4,Фёдоровская улица,410018,51.5762854,46.0730626
3,Загорная улица,410038,51.5541624,46.0488698
13,Загорная улица,410038,51.5559773,46.0498015
2А,1-й Соколовогорский проезд,410038,51.5521850,46.0533251
10,Первомайская улица,410002,51.5277717,46.0515310
122/126,Московская улица,410012,51.5368744,46.0227349
29/45,7-й Динамовский проезд,410060,51.5036286,45.9145807
46А,улица Романтиков,410007,51.5971420,45.9949015
3,улица имени Виктора Аржаного,410069,51.5864435,45.9915101
8,улица Михаила Булгакова,410069,51.5871670,45.9934856
4,улица имени Виктора Аржаного,410069,51.5860647,45.9905138
3,улица Михаила Галкина-Враского,410069,51.5861089,45.9881728
1,улица Михаила Галкина-Враского,410069,51.5868873,45.9882257
2,улица Виктора Аржанова,410069,51.5870333,45.9905325
4,улица Михаила Булгакова,410069,51.5871993,45.9893899
7Б,Алексеевская улица,410009,51.5604635,45.9893263
7А,Алексеевская улица,410009,51.5606624,45.9896924
7/15,Алексеевская улица,410009,51.5608364,45.9899988
1/1,улица Тулайкова,410009,51.5722512,45.9938948
47,улица Тархова,410082,51.6092193,46.0200018
4,улица имени Оржевского В. И.,410030,51.6048122,46.0137877
5,улица имени Панченко К. П.,410030,51.6047715,46.0150479
9/22,проспект Героев Отечества,410030,51.6059116,46.0242918
11А,проспект Героев Отечества,410030,51.6045375,46.0254169
17,улица имени Лисина С. П.,410030,51.6031480,46.0258241
12/10,улица имени Лисина С. П.,410030,51.6024570,46.0237705
16А,улица имени Лисина С. П.,410030,51.6015303,46.0270393
3,улица имени Кузнецова Н. В.,410030,51.6012781,46.0279564
14,улица имени Лисина С. П.,410030,51.6023331,46.0256989
19,улица имени Академика Семёнова Н. Н.,410030,51.6002340,46.0253906
17,улица имени Академика Семёнова Н. Н.,410030,51.6006170,46.0247079
10,улица Бардина,410035,51.6087692,45.9916665
8,Осенняя улица,410044,51.5903525,45.9639577
2,Ламповая улица,410044,51.5905596,45.9631934
47/53,Гвардейская улица,410033,51.5858702,45.9073606
43В,Лунная улица,410052,51.5746180,45.9648544
