House number,Street name,Postal code,Latitude,Longitude
28,бульвар Мира,640011,55.4566134,65.3689229
41,улица Гагарина,640015,55.4611104,65.4140836
53,улица Гоголя,640000,55.4397341,65.3395277
42,Станционная улица,640000,55.4438880,65.3306531
55А,улица Гоголя,640000,55.4407698,65.3393924
103,улица Гоголя,640000,55.4423517,65.3456527
61,улица Коли Мяготина,640003,55.4339600,65.3053055
62,улица Радионова,640003,55.4389534,65.3140182
19/1,улица Радионова,640003,55.4394951,65.3142700
115,улица Коли Мяготина,640001,55.4388867,65.3304950
12,Станционная улица,640001,55.4403995,65.3200530
35,улица Куйбышева,640020,55.4319752,65.3429967
175,улица Коли Мяготина,640002,55.4475221,65.3484337
14,посёлок Керамзитный улица,640037,55.4168376,65.4310469
98,улица Максима Горького,640002,55.4379616,65.3485269
51,улица Куйбышева,640020,55.4335318,65.3460659
72,Советская улица,640020,55.4346275,65.3456268
24,улица Некрасова,640027,55.4548759,65.3504468
42,улица Красина,640020,55.4312294,65.3388018
1,улица Бажова,640008,55.4252565,65.2736632
6,проспект Маршала Голикова,640023,55.4718455,65.2918903
508А/1,Малиновая снт,640023,55.4901382,65.2121784
146,Советская улица,640018,55.4403311,65.3573227
146,Советская улица,640018,55.4404907,65.3576397
136,Советская улица,640018,55.4395015,65.3556885
16А,улица Гоголя,640020,55.4345390,65.3305218
24,улица Василия Блюхера,640006,55.4450971,65.3694940
131 с1,Омская улица,640007,55.4547386,65.3558578
19,Бахчисарайская улица,640023,55.4857440,65.2531985
44,Артековская улица,640023,55.4876678,65.2523457
48,Артековская улица,640023,55.4878435,65.2529489
21,Артековская улица,640023,55.4866885,65.2474407
17,Артековская улица,640023,55.4864128,65.2467210
17,Приморская улица,640023,55.4857018,65.2489210
18,Приморская улица,640023,55.4854881,65.2496811
14,Приморская улица,640023,55.4852804,65.2490021
1,Бахчисарайская улица,640023,55.4845570,65.2492476
8,Бахчисарайская улица,640023,55.4844814,65.2504921
10,Бахчисарайская улица,640023,55.4845657,65.2507765
21,улица Содружества,640023,55.4837196,65.2512031
19,улица Содружества,640023,55.4836367,65.2509135
15,улица Содружества,640023,55.4834743,65.2503204
78,улица Коли Мяготина,640026,55.4373184,65.3259146
43,Симферопольская улица,640023,55.4879364,65.2490780
41,Симферопольская улица,640023,55.4877420,65.2492601
38,Симферопольская улица,640023,55.4887627,65.2492511
35,Артековская улица,640023,55.4876486,65.2507566
37,Артековская улица,640023,55.4877492,65.2510835
13,Ялтинская улица,640023,55.4871712,65.2447195
24,Приморская улица,640023,55.4857796,65.2506734
26,Симферопольская улица,640023,55.4868396,65.2510700
33,Приморская улица,640023,55.4868028,65.2524198
35,Приморская улица,640023,55.4868876,65.2527153
39,Приморская улица,640023,55.4870554,65.2533184
41,Приморская улица,640023,55.4871334,65.2536147
50,Артековская улица,640023,55.4880042,65.2535030
25,Морская улица,640023,55.4875567,65.2539147
23,Морская улица,640023,55.4867459,65.2547654
22,Бахчисарайская улица,640023,55.4854483,65.2536902
24,Бахчисарайская улица,640023,55.4855368,65.2539817
28,Бахчисарайская улица,640023,55.4857258,65.2545827
30,Бахчисарайская улица,640023,55.4858024,65.2548772
35,улица Содружества,640023,55.4846871,65.2544024
29,улица Содружества,640023,55.4840972,65.2524116
4,Туристическая улица,640023,55.4912216,65.2519926
8,Туристическая улица,640023,55.4914769,65.2527061
6,Туристическая улица,640023,55.4913751,65.2523413
14,Туристическая улица,640023,55.4918051,65.2538165
16,Туристическая улица,640023,55.4919160,65.2541867
37,Ялтинская улица,640023,55.4910271,65.2540767
29,Ялтинская улица,640023,55.4905667,65.2526015
47,Симферопольская улица,640023,55.4883414,65.2487101
39,Бахчисарайская улица,640023,55.4870617,65.2575212
33,Бахчисарайская улица,640023,55.4866863,65.2562820
32,Морская улица,640023,55.4871455,65.2552826
52,Приморская улица,640023,55.4879036,65.2578028
46,Приморская улица,640023,55.4875207,65.2565529
44,Приморская улица,640023,55.4873960,65.2561452
42,Приморская улица,640023,55.4872714,65.2557349
37,Угловая улица,640023,55.4817070,65.2441529
36,Ялтинская улица,640023,55.4892916,65.2500143
28,улица Содружества,640023,55.4844319,65.2550709
34,улица Содружества,640023,55.4847374,65.2560499
2,улица Содружества,640023,55.4829942,65.2502295
6,улица Содружества,640023,55.4831781,65.2508357
8,улица Содружества,640023,55.4832769,65.2511495
27,Бахчисарайская улица,640023,55.4861478,65.2545264
14,Керченская улица,640023,55.4826051,65.2502429
16,Керченская улица,640023,55.4832449,65.2496099
18,Керченская улица,640023,55.4836203,65.2492586
19,Керченская улица,640023,55.4838042,65.2490923
20,Керченская улица,640023,55.4839897,65.2489260
21,Керченская улица,640023,55.4843666,65.2486095
22,Керченская улица,640023,55.4845763,65.2484405
23,Керченская улица,640023,55.4847800,65.2482635
24,Керченская улица,640023,55.4849715,65.2480650
6,Адмиральский переулок,640023,55.4878302,65.2478612
24,Ялтинская улица,640023,55.4876686,65.2471532
29,Морская улица,640023,55.4888134,65.2527938
43,Артековская улица,640023,55.4881927,65.2525109
47,Артековская улица,640023,55.4883985,65.2531931
27,Морская улица,640023,55.4877780,65.2536969
21,Морская улица,640023,55.4865451,65.2549402
29,Бахчисарайская улица,640023,55.4863538,65.2551243
19,Морская улица,640023,55.4857740,65.2556534
17,Морская улица,640023,55.4855955,65.2558201
1,Морская улица,640023,55.4815417,65.2595665
2,Морская улица,640023,55.4817511,65.2602740
4,Морская улица,640023,55.4819654,65.2600836
33,улица Андрея Миронова,640023,55.4815716,65.2604906
31,улица Андрея Миронова,640023,55.4813341,65.2597537
29,улица Андрея Миронова,640023,55.4811704,65.2592521
27,улица Андрея Миронова,640023,55.4810701,65.2589302
25,улица Андрея Миронова,640023,55.4809622,65.2585896
23,улица Андрея Миронова,640023,55.4808665,65.2582624
21,улица Андрея Миронова,640023,55.4807707,65.2579378
19,улица Андрея Миронова,640023,55.4806795,65.2576213
17,улица Андрея Миронова,640023,55.4805265,65.2570951
15,улица Андрея Миронова,640023,55.4803241,65.2563553
13,улица Андрея Миронова,640023,55.4801566,65.2558645
11,улица Андрея Миронова,640023,55.4800593,65.2555265
9,улица Андрея Миронова,640023,55.4799590,65.2551912
7,улица Андрея Миронова,640023,55.4798617,65.2548747
5,улица Андрея Миронова,640023,55.4797614,65.2545475
3,улица Андрея Миронова,640023,55.4796657,65.2542149
1,улица Андрея Миронова,640023,55.4795168,65.2537035
37,улица Андрея Миронова,640023,55.4818088,65.2613254
39,улица Андрея Миронова,640023,55.4819167,65.2616607
41,улица Андрея Миронова,640023,55.4820155,65.2619906
43,улица Андрея Миронова,640023,55.4821219,65.2623152
45,улица Андрея Миронова,640023,55.4822238,65.2626585
47,улица Андрея Миронова,640023,55.4823644,65.2630616
38,улица Леонида Гайдая,640023,55.4828333,65.2620657
36,улица Леонида Гайдая,640023,55.4827299,65.2617304
34,улица Леонида Гайдая,640023,55.4826372,65.2614006
32,улица Леонида Гайдая,640023,55.4825307,65.2610679
30,улица Леонида Гайдая,640023,55.4824304,65.2607354
28,улица Леонида Гайдая,640023,55.4823271,65.2604027
34,Симферопольская улица,640023,55.4883591,65.2496310
32,Симферопольская улица,640023,55.4881601,65.2498161
7,Крымский переулок,640023,55.4888637,65.2504799
5,Крымский переулок,640023,55.4886646,65.2506731
4,Крымский переулок,640023,55.4887041,65.2515850
3,Крымский переулок,640023,55.4884610,65.2508528
1,Крымский переулок,640023,55.4882664,65.2510351
18,Ялтинская улица,640023,55.4871692,65.2461106
39,Симферопольская улица,640023,55.4867123,65.2502079
16,Бахчисарайская улица,640023,55.4848455,65.2516762
14,улица Содружества,640023,55.4836372,65.2523682
16,улица Содружества,640023,55.4837239,65.2526793
18,улица Содружества,640023,55.4838151,65.2529825
15,улица Александра Демьяненко,640023,55.4843112,65.2564463
13,улица Александра Демьяненко,640023,55.4842201,65.2561164
9,улица Александра Демьяненко,640023,55.4840194,65.2554539
7,улица Александра Демьяненко,640023,55.4839294,65.2551109
5,улица Александра Демьяненко,640023,55.4838262,65.2547864
3,улица Александра Демьяненко,640023,55.4837332,65.2544590
1,улица Александра Демьяненко,640023,55.4836400,65.2541150
97 Б,улица Карла Маркса,640018,55.4412356,65.3506915
97 Б,улица Карла Маркса,640018,55.4411322,65.3503857
42,улица Содружества,640023,55.4852369,65.2576855
38,улица Содружества,640023,55.4850651,65.2570900
40,улица Содружества,640023,55.4851502,65.2573824
46,улица Содружества,640023,55.4854375,65.2582863
48,улица Содружества,640023,55.4856244,65.2589113
50,улица Содружества,640023,55.4857095,65.2592170
52,улица Содружества,640023,55.4858022,65.2595147
54,улица Содружества,640023,55.4858995,65.2598098
47,улица Содружества,640023,55.4857095,65.2577391
45,улица Содружества,640023,55.4855895,65.2573153
49,улица Содружества,640023,55.4858417,65.2581414
51,улица Содружества,640023,55.4859694,65.2585625
53,улица Содружества,640023,55.4861031,65.2589890
55,улица Содружества,640023,55.4862247,65.2593699
57,улица Содружества,640023,55.4863467,65.2597702
1,улица Сергея Бондарчука,640023,55.4841654,65.2594799
2,улица Сергея Бондарчука,640023,55.4843706,65.2601290
4,улица Сергея Бондарчука,640023,55.4845621,65.2599573
5,улица Сергея Бондарчука,640023,55.4845545,65.2591178
6,улица Сергея Бондарчука,640023,55.4847490,65.2597937
7,улица Сергея Бондарчука,640023,55.4847460,65.2589354
8,улица Сергея Бондарчука,640023,55.4849451,65.2596006
9,улица Сергея Бондарчука,640023,55.4849420,65.2587530
11,улица Сергея Бондарчука,640023,55.4851305,65.2585760
20,улица Леонида Гайдая,640023,55.4814782,65.2576721
1,улица Леонида Гайдая,640023,55.4805465,65.2529138
2,улица Леонида Гайдая,640023,55.4801607,65.2532992
3,улица Леонида Гайдая,640023,55.4806529,65.2532437
4,улица Леонида Гайдая,640023,55.4802623,65.2536407
5,улица Леонида Гайдая,640023,55.4807563,65.2535710
6,улица Леонида Гайдая,640023,55.4803596,65.2539599
7,улица Леонида Гайдая,640023,55.4808596,65.2538982
8,улица Леонида Гайдая,640023,55.4804660,65.2542764
9,улица Леонида Гайдая,640023,55.4809523,65.2542174
10,улица Леонида Гайдая,640023,55.4805648,65.2546036
11,улица Леонида Гайдая,640023,55.4810527,65.2545526
12,улица Леонида Гайдая,640023,55.4806636,65.2549308
13,улица Леонида Гайдая,640023,55.4811545,65.2548799
14,улица Леонида Гайдая,640023,55.4807654,65.2552581
15,улица Леонида Гайдая,640023,55.4816723,65.2566658
16,улица Леонида Гайдая,640023,55.4812807,65.2570230
18,улица Леонида Гайдая,640023,55.4813840,65.2573475
22,улица Леонида Гайдая,640023,55.4815786,65.2579966
24,улица Леонида Гайдая,640023,55.4816819,65.2583238
26,улица Леонида Гайдая,640023,55.4817868,65.2586564
19,улица Леонида Гайдая,640023,55.4821644,65.2582902
21,улица Леонида Гайдая,640023,55.4827063,65.2600378
23,улица Леонида Гайдая,640023,55.4828173,65.2603704
25,улица Леонида Гайдая,640023,55.4829176,65.2607056
27,улица Леонида Гайдая,640023,55.4830118,65.2610329
29,улица Леонида Гайдая,640023,55.4831137,65.2613601
31,улица Леонида Гайдая,640023,55.4832155,65.2616954
33,улица Леонида Гайдая,640023,55.4833097,65.2620226
5,Морская улица,640023,55.4819274,65.2592050
6,Морская улица,640023,55.4821593,65.2599305
7,Морская улица,640023,55.4823184,65.2588270
8,Морская улица,640023,55.4825285,65.2595448
9,Морская улица,640023,55.4824746,65.2586697
10,Морская улица,640023,55.4826881,65.2593753
13,Морская улица,640023,55.4827778,65.2583560
14,Морская улица,640023,55.4829890,65.2590775
9,Симферопольская улица,640023,55.4814548,65.2552807
10,Симферопольская улица,640023,55.4816531,65.2559738
7,Симферопольская улица,640023,55.4812969,65.2554298
8,Симферопольская улица,640023,55.4814959,65.2561283
6,Симферопольская улица,640023,55.4811199,65.2565235
5,Симферопольская улица,640023,55.4809219,65.2558165
4,Симферопольская улица,640023,55.4809250,65.2566877
3,Симферопольская улица,640023,55.4807198,65.2559876
2,Симферопольская улица,640023,55.4807168,65.2568889
1,Симферопольская улица,640023,55.4805252,65.2561834
11,Симферопольская улица,640023,55.4816077,65.2551270
12,Симферопольская улица,640023,55.4818142,65.2558240
13,Симферопольская улица,640023,55.4817614,65.2549692
14,Симферопольская улица,640023,55.4819737,65.2556738
25,Симферопольская улица,640023,55.4835134,65.2532464
23,Симферопольская улица,640023,55.4833173,65.2534315
21,Симферопольская улица,640023,55.4831289,65.2536219
16,Морская улица,640023,55.4838077,65.2583245
18,Морская улица,640023,55.4840037,65.2581555
22,Морская улица,640023,55.4843867,65.2577693
26,Морская улица,640023,55.4847773,65.2573991
96,Тенистая улица,640023,55.4830842,65.2486049
94,Тенистая улица,640023,55.4833411,65.2483842
92,Тенистая улица,640023,55.4835762,65.2481514
90,Тенистая улица,640023,55.4838046,65.2479416
33,Угловая улица,640023,55.4822376,65.2437467
31,Угловая улица,640023,55.4824732,65.2435455
29,Угловая улица,640023,55.4827119,65.2433470
23,улица Юрия Никулина,640023,55.4902325,65.2562430
64,Артековская улица,640023,55.4889757,65.2568010
62,Артековская улица,640023,55.4888587,65.2563798
60,Артековская улица,640023,55.4887432,65.2559721
25,улица Юрия Никулина,640023,55.4904467,65.2560499
27,улица Юрия Никулина,640023,55.4906747,65.2558460
21,улица Юрия Никулина,640023,55.4900106,65.2564334
2,Туристическая улица,640023,55.4910576,65.2517208
33,Ялтинская улица,640023,55.4908114,65.2533355
35,Ялтинская улица,640023,55.4909208,65.2537003
3,Причальная улица,640023,55.4935010,65.2496501
1,Причальная улица,640023,55.4933870,65.2492719
7,Причальная улица,640023,55.4937471,65.2504307
9,Причальная улица,640023,55.4938702,65.2508249
9,Капитанская улица,640023,55.4958455,65.2480488
7,Угловая улица,640023,55.4839386,65.2358327
1,Капитанская улица,640023,55.4953995,65.2465508
3,Капитанская улица,640023,55.4954998,65.2468834
4,Капитанская улица,640023,55.4951747,65.2476827
5,Капитанская улица,640023,55.4956214,65.2472858
7,Капитанская улица,640023,55.4957308,65.2476666
8,Капитанская улица,640023,55.4954147,65.2484659
10,Капитанская улица,640023,55.4955332,65.2488307
11,Капитанская улица,640023,55.4959617,65.2484338
13,Капитанская улица,640023,55.4960772,65.2488039
14,Капитанская улица,640023,55.4957672,65.2495871
15,Капитанская улица,640023,55.4961926,65.2491580
16,Капитанская улица,640023,55.4958705,65.2499519
17,Капитанская улица,640023,55.4963051,65.2495442
18,Капитанская улица,640023,55.4959921,65.2503220
19,Капитанская улица,640023,55.4964236,65.2499143
20,Капитанская улица,640023,55.4961045,65.2506922
1,Круизная улица,640023,55.4944149,65.2479456
2,Круизная улица,640023,55.4940490,65.2485661
3,Круизная улица,640023,55.4945243,65.2482943
4,Круизная улица,640023,55.4941718,65.2490185
5,Круизная улица,640023,55.4946489,65.2486805
6,Круизная улица,640023,55.4942964,65.2494101
7,Круизная улица,640023,55.4947614,65.2490614
8,Круизная улица,640023,55.4944149,65.2498070
9,Круизная улица,640023,55.4948799,65.2494369
11,Круизная улица,640023,55.4949954,65.2498178
12,Круизная улица,640023,55.4946550,65.2505956
13,Круизная улица,640023,55.4951048,65.2501879
14,Круизная улица,640023,55.4947735,65.2509711
15,Круизная улица,640023,55.4952142,65.2505420
16,Круизная улица,640023,55.4949012,65.2513735
17,Круизная улица,640023,55.4953327,65.2509443
19,Круизная улица,640023,55.4954390,65.2513198
2,Капитанская улица,640023,55.4950626,65.2472595
9,Керченская улица,640023,55.4816267,65.2512043
8,Курортная улица,640023,55.4963966,65.2470608
6,Курортная улица,640023,55.4962861,65.2466621
4,Курортная улица,640023,55.4961709,65.2462760
2,Курортная улица,640023,55.4960567,65.2458553
10,Курортная улица,640023,55.4965137,65.2474239
12,Курортная улица,640023,55.4966260,65.2477944
14,Курортная улица,640023,55.4967476,65.2481662
16,Курортная улица,640023,55.4968599,65.2485269
18,Курортная улица,640023,55.4969689,65.2489058
20,Курортная улица,640023,55.4970782,65.2492919
40,Приморская улица,640023,55.4869417,65.2545745
30,Морская улица,640023,55.4865618,65.2558443
34,Бахчисарайская улица,640023,55.4863918,65.2570841
36,Бахчисарайская улица,640023,55.4865189,65.2575016
38,Бахчисарайская улица,640023,55.4866431,65.2579190
40,Бахчисарайская улица,640023,55.4867702,65.2583416
42,Бахчисарайская улица,640023,55.4868855,65.2587486
44,Бахчисарайская улица,640023,55.4870179,65.2591268
54,Приморская улица,640023,55.4880245,65.2582037
43,Бахчисарайская улица,640023,55.4873279,65.2583667
45,Бахчисарайская улица,640023,55.4874383,65.2587453
66,Артековская улица,640023,55.4890919,65.2571644
1,улица Юрия Никулина,640023,55.4828689,65.2630539
3,улица Юрия Никулина,640023,55.4836537,65.2623009
5,улица Юрия Никулина,640023,55.4838472,65.2621166
7,улица Юрия Никулина,640023,55.4847138,65.2612631
9,улица Юрия Никулина,640023,55.4849034,65.2610822
13,улица Юрия Никулина,640023,55.4852903,65.2607100
15,улица Юрия Никулина,640023,55.4854818,65.2605291
17,улица Юрия Никулина,640023,55.4856733,65.2603550
42,улица Леонида Гайдая,640023,55.4830709,65.2628550
34,улица Леонида Гайдая,640023,55.4834578,65.2624947
105Б,Чернореченская улица,640014,55.4888907,65.3264253
13,улица Содружества,640023,55.4828156,65.2481571
7,улица Содружества,640023,55.4822807,65.2464391
5,улица Содружества,640023,55.4820210,65.2455672
3,улица Содружества,640023,55.4819029,65.2451936
1,улица Содружества,640023,55.4817759,65.2447610
1,улица Леонида Быкова,640023,55.4819870,65.2523406
3,улица Леонида Быкова,640023,55.4821846,65.2521549
5,улица Леонида Быкова,640023,55.4823771,65.2519746
7,улица Леонида Быкова,640023,55.4825695,65.2517973
9,улица Леонида Быкова,640023,55.4827653,65.2516260
11,улица Леонида Быкова,640023,55.4829696,65.2514307
2,улица Леонида Быкова,640023,55.4821880,65.2530234
6,улица Леонида Быкова,640023,55.4825746,65.2526718
8,улица Леонида Быкова,640023,55.4827772,65.2524854
10,улица Леонида Быкова,640023,55.4829696,65.2523172
12,улица Леонида Быкова,640023,55.4831655,65.2521158
1,улица Надежды Румянцевой,640023,55.4814248,65.2517651
25,улица Пушкина,640000,55.4323128,65.3196972
56,улица Содружества,640023,55.4860110,65.2601770
3,улица Надежды Румянцевой,640023,55.4815143,65.2520482
5,улица Надежды Румянцевой,640023,55.4816114,65.2523456
6,улица Суховарова,640023,55.4881978,65.2330495
30А,улица Мостостроителей,640023,55.4861456,65.2219092
2,улица Надежды Румянцевой,640023,55.4811101,65.2523609
4,улица Надежды Румянцевой,640023,55.4812076,65.2526780
8,улица Надежды Румянцевой,640023,55.4814203,65.2533360
10,улица Надежды Румянцевой,640023,55.4815194,65.2536499
12,улица Надежды Румянцевой,640023,55.4816230,65.2539818
14,улица Надежды Румянцевой,640023,55.4817207,65.2543060
7,улица Надежды Румянцевой,640023,55.4817075,65.2526439
16,улица Надежды Румянцевой,640023,55.4819160,65.2548219
18,улица Надежды Румянцевой,640023,55.4821287,65.2555344
20,улица Надежды Румянцевой,640023,55.4822849,65.2560828
8,Керченская улица,640023,55.4813389,65.2514711
7,Керченская улица,640023,55.4809656,65.2518416
6,Керченская улица,640023,55.4807732,65.2520345
5,Керченская улица,640023,55.4805793,65.2522069
4,Керченская улица,640023,55.4803883,65.2523999
24Б,улица Мостостроителей,640023,55.4845559,65.2309832
4Б,Карьерная улица,640023,55.4854337,65.2350663
44,Усадебная улица,640023,55.4886750,65.2369472
41,Ялтинская улица,640023,55.4912616,65.2548091
43,Ялтинская улица,640023,55.4913751,65.2551730
20,Артековская улица,640023,55.4862353,65.2476513
19,улица Надежды Румянцевой,640023,55.4836608,65.2589484
3,Керченская улица,640023,55.4799966,65.2527877
2,Керченская улица,640023,55.4797926,65.2529860
26,улица Надежды Румянцевой,640023,55.4827769,65.2576898
28,улица Надежды Румянцевой,640023,55.4829432,65.2582156
21,улица Надежды Румянцевой,640023,55.4838969,65.2596938
27,улица Надежды Румянцевой,640023,55.4842799,65.2609706
31,улица Надежды Румянцевой,640023,55.4844521,65.2615441
30,улица Надежды Румянцевой,640023,55.4831599,65.2589359
32,улица Надежды Румянцевой,640023,55.4832953,65.2594753
34,улица Надежды Румянцевой,640023,55.4833978,65.2598031
36,улица Надежды Румянцевой,640023,55.4834907,65.2601376
38,улица Надежды Румянцевой,640023,55.4835932,65.2604688
40,улица Надежды Румянцевой,640023,55.4836938,65.2607931
42,улица Надежды Румянцевой,640023,55.4838021,65.2611413
44,улица Надежды Румянцевой,640023,55.4839027,65.2614588
46,улица Надежды Румянцевой,640023,55.4840401,65.2619299
22,Симферопольская улица,640023,55.4857844,65.2520722
34,улица Томина,640020,55.4333551,65.3443748
1,площадь Ленина,640000,55.4413090,65.3407054
69,улица Пушкина,640000,55.4346371,65.3256995
70,улица Коли Мяготина,640000,55.4368360,65.3224059
72,улица Коли Мяготина,640000,55.4369516,65.3237482
11,улица Карла Маркса,640000,55.4324706,65.3314011
65,улица Пушкина,640000,55.4341651,65.3245687
85,улица Коли Мяготина,640000,55.4370199,65.3172231
67А,улица Красина,640000,55.4387828,65.3238901
74,улица Коли Мяготина,640000,55.4369906,65.3249788
5,улица Югова,640000,55.4356654,65.3199025
54,улица Рихарда Зорге,640000,55.4378198,65.3175933
29,улица Володарского,640000,55.4341517,65.3463710
1,Троицкая площадь,640018,55.4362438,65.3547480
59,проспект Конституции,640008,55.4216632,65.2547295
61,проспект Конституции,640008,55.4220363,65.2559429
8,Краснодонская улица,640008,55.4225220,65.2545193
12,Краснодонская улица,640008,55.4228170,65.2562628
40,проспект Конституции,640008,55.4203353,65.2539421
42,проспект Конституции,640008,55.4209305,65.2558918
4,Юргамышская улица,640008,55.4192847,65.2447636
41,проспект Конституции,640008,55.4186691,65.2456330
43,проспект Конституции,640008,55.4189863,65.2465627
45,проспект Конституции,640008,55.4193154,65.2476801
10,улица Алексеева,640023,55.4727218,65.2551418
1,улица Алексеева,640023,55.4716652,65.2491601
3,улица Алексеева,640023,55.4720686,65.2528431
2,улица Алексеева,640023,55.4718079,65.2522027
1А,улица Алексеева,640023,55.4712507,65.2508821
9,улица Алексеева,640023,55.4721503,65.2544655
15,улица Алексеева,640023,55.4742085,65.2563397
108,улица Куйбышева,640022,55.4433852,65.3678364
116,улица Куйбышева,640022,55.4443639,65.3705777
35,Уральская улица,640022,55.4430514,65.3687082
92,улица Куйбышева,640022,55.4426716,65.3668038
81,улица Коли Мяготина,640003,55.4366441,65.3137091
79,улица Коли Мяготина,640003,55.4366274,65.3123523
77,улица Коли Мяготина,640003,55.4363296,65.3111973
75,улица Коли Мяготина,640003,55.4362159,65.3101717
83,улица Коли Мяготина,640003,55.4367881,65.3152127
151,улица Максима Горького,640000,55.4420133,65.3559250
155,улица Максима Горького,640000,55.4425120,65.3570058
153,улица Максима Горького,640000,55.4423658,65.3556360
149,улица Максима Горького,640018,55.4413968,65.3549541
3,улица Чкалова,640004,55.4598964,65.2992701
8,улица Коли Мяготина,640003,55.4268167,65.2814824
6,Краснодонская улица,640008,55.4224106,65.2538487
10,Краснодонская улица,640008,55.4227324,65.2555318
4,Краснодонская улица,640008,55.4223338,65.2531594
2,Краснодонская улица,640008,55.4222233,65.2524829
57,проспект Конституции,640008,55.4211839,65.2538358
69А,проспект Конституции,640008,55.4234081,65.2595858
73,проспект Конституции,640008,55.4236090,65.2617731
71,проспект Конституции,640008,55.4234947,65.2605040
66,проспект Конституции,640008,55.4245848,65.2680311
64А,проспект Конституции,640008,55.4236012,65.2668937
47,проспект Конституции,640008,55.4197232,65.2490265
51,проспект Конституции,640008,55.4204014,65.2512669
49,проспект Конституции,640008,55.4201008,65.2502892
6,Юргамышская улица,640008,55.4203323,65.2441548
50,проспект Конституции,640008,55.4206589,65.2572833
32,проспект Конституции,640008,55.4185278,65.2483576
34,проспект Конституции,640008,55.4188866,65.2492620
36,проспект Конституции,640008,55.4193432,65.2508093
36А,проспект Конституции,640008,55.4188340,65.2510946
38А,проспект Конституции,640008,55.4192272,65.2547769
46,проспект Конституции,640008,55.4195613,65.2562707
48,проспект Конституции,640008,55.4196149,65.2574893
44,проспект Конституции,640008,55.4201218,65.2563629
2,улица Тельмана,640008,55.4228886,65.2697256
3,переулок Спартака,640008,55.4207396,65.2755768
12,улица Тельмана,640008,55.4205693,65.2745038
62,проспект Конституции,640008,55.4235923,65.2648609
58А,проспект Конституции,640008,55.4226900,65.2629438
58,проспект Конституции,640008,55.4227556,65.2624689
62А,проспект Конституции,640008,55.4241696,65.2667435
62А,проспект Конституции,640008,55.4239573,65.2658084
16,улица Тельмана,640008,55.4199799,65.2755374
4,улица Тельмана,640008,55.4222592,65.2705737
8,улица Тельмана,640008,55.4216467,65.2719728
6,улица Дружбы,640008,55.4212215,65.2749821
8/2,улица Тельмана,640008,55.4219794,65.2712697
10,улица Тельмана,640008,55.4211631,65.2730911
8,улица Дружбы,640008,55.4206947,65.2766992
29,Краснодонская улица,640008,55.4240445,65.2587054
25А,Краснодонская улица,640008,55.4233883,65.2573878
17,Краснодонская улица,640008,55.4232735,65.2529498
55,проспект Конституции,640008,55.4215475,65.2530299
15,Краснодонская улица,640008,55.4229345,65.2521289
14,Краснодонская улица,640008,55.4230281,65.2568024
21,Краснодонская улица,640008,55.4237415,65.2556655
23,Краснодонская улица,640008,55.4237696,65.2565251
27,Краснодонская улица,640008,55.4239235,65.2580131
25,Краснодонская улица,640008,55.4238195,65.2572053
1А,Краснодонская улица,640008,55.4212956,65.2447277
5Б,Техническая улица,640008,55.4215204,65.2463554
31А,проспект Конституции,640008,55.4147125,65.2408019
31,проспект Конституции,640008,55.4144139,65.2397477
12,улица Глинки,640008,55.3999043,65.2359163
4,улица Карла Маркса,640000,55.4323481,65.3337422
55,улица Кирова,640000,55.4330376,65.3393946
22,Советская улица,640020,55.4312230,65.3388214
48,улица Красина,640020,55.4324383,65.3372527
23,улица Красина,640000,55.4308927,65.3384817
6,улица Максима Горького,640000,55.4307667,65.3341413
46,улица Красина,640020,55.4321568,65.3377850
7,улица Максима Горького,640000,55.4313626,65.3337935
29,Советская улица,640000,55.4306737,65.3355907
21,улица Красина,640000,55.4304268,65.3391891
31,улица Красина,640000,55.4330698,65.3349045
29,улица Красина,640000,55.4326320,65.3357942
4,улица Максима Горького,640000,55.4304821,65.3335154
44,улица Красина,640000,55.4317553,65.3381314
37,Советская улица,640000,55.4316137,65.3385856
6,улица Карла Маркса,640000,55.4327436,65.3343505
40,Советская улица,640000,55.4326161,65.3415088
51,улица Кирова,640020,55.4317578,65.3411870
31,Советская улица,640000,55.4306293,65.3366109
13,улица Карла Маркса,640000,55.4330938,65.3335000
39,Советская улица,640000,55.4322416,65.3393156
46,улица Кирова,640000,55.4321493,65.3416823
10,улица Максима Горького,640000,55.4313595,65.3354792
43,улица Куйбышева,640020,55.4326747,65.3442924
35,улица Куйбышева,640020,55.4321201,65.3430890
41,улица Куйбышева,640020,55.4325744,65.3437327
45,улица Куйбышева,640020,55.4329388,65.3448375
52,улица Климова,640000,55.4315575,65.3478692
34,улица Томина,640020,55.4333334,65.3444227
43,улица Климова,640000,55.4327404,65.3483016
24,улица Володарского,640000,55.4334552,65.3488812
56,улица Климова,640000,55.4320569,65.3489241
41,улица Климова,640000,55.4327431,65.3473118
24 с2,улица Володарского,640000,55.4334681,65.3498634
60,улица Климова,640000,55.4332746,65.3507372
82,улица Климова,640002,55.4348313,65.3538256
6 с2,улица Пичугина,640018,55.4365678,65.3570055
103,улица Куйбышева,640018,55.4383881,65.3555370
6,улица Пичугина,640018,55.4369705,65.3564884
72Б,улица Куйбышева,640000,55.4383434,65.3574085
70Б,улица Куйбышева,640018,55.4368413,65.3582219
44,улица Гоголя,640002,55.4385786,65.3395722
147,Советская улица,640018,55.4414693,65.3575677
140,улица Максима Горького,640018,55.4409687,65.3553865
40,улица Максима Горького,640020,55.4339983,65.3406682
20 к1,Пролетарская улица,640018,55.4408450,65.3566161
16,улица Пичугина,640000,55.4392094,65.3528564
17,улица Карла Маркса,640000,55.4333464,65.3327907
78,улица Карла Маркса,640000,55.4429962,65.3556476
33,улица Карла Маркса,640000,55.4342818,65.3359709
20,Пролетарская улица,640018,55.4404029,65.3556707
146,Советская улица,640018,55.4404202,65.3576123
45,улица Томина,640000,55.4343270,65.3417730
40,улица Карла Маркса,640000,55.4353696,65.3396295
21,улица Пичугина,640000,55.4390549,65.3524464
4,улица Урицкого,640000,55.4328943,65.3307803
78А,улица Карла Маркса,640000,55.4432027,65.3569658
37,улица Карла Маркса,640000,55.4345792,65.3366533
110,улица Максима Горького,640000,55.4393020,65.3514565
54,Тобольная улица,640000,55.4331475,65.3319935
35,улица Карла Маркса,640000,55.4346340,65.3359739
156,улица Максима Горького,640018,55.4420789,65.3580198
150,улица Максима Горького,640018,55.4418402,65.3568153
112,улица Максима Горького,640000,55.4397477,65.3528841
106,улица Максима Горького,640000,55.4388267,65.3504320
138,улица Максима Горького,640018,55.4407078,65.3553661
39,улица Красина,640000,55.4336461,65.3344073
17,Пролетарская улица,640000,55.4399632,65.3550886
37,улица Гоголя,640000,55.4386051,65.3373761
88,улица Томина,640000,55.4387489,65.3360608
37А,улица Гоголя,640002,55.4390880,65.3368660
114А,улица Пушкина,640002,55.4417565,65.3427288
54,улица Володарского,640002,55.4410489,65.3373768
114,улица Пушкина,640002,55.4421337,65.3420685
58,улица Гоголя,640000,55.4409493,65.3443863
116,улица Пушкина,640002,55.4421915,65.3422144
56,улица Гоголя,640000,55.4401968,65.3423020
38А,Комсомольская улица,640000,55.4418863,65.3417221
111,улица Кирова,640000,55.4399115,65.3286893
103,улица Володарского,640000,55.4423223,65.3343459
100,улица Кирова,640000,55.4402642,65.3295108
83,Комсомольская улица,640000,55.4431088,65.3363395
110,улица Томина,640000,55.4418909,65.3317302
108,улица Кирова,640000,55.4413562,65.3275363
109,улица Кирова,640000,55.4394312,65.3295830
36,Станционная улица,640000,55.4421294,65.3287489
60,улица Володарского,640000,55.4426819,65.3351304
117,улица Кирова,640000,55.4413490,65.3265891
81А,Комсомольская улица,640000,55.4440360,65.3373191
81,Комсомольская улица,640000,55.4433827,65.3368248
108,улица Томина,640000,55.4415774,65.3328530
115А,улица Кирова,640000,55.4406496,65.3268200
109,улица Володарского,640000,55.4425743,65.3331165
98А,улица Кирова,640000,55.4401048,65.3313500
39А,Советская улица,640020,55.4325647,65.3401822
104,улица Кирова,640000,55.4414084,65.3288462
106,улица Кирова,640000,55.4413208,65.3297012
105,улица Томина,640000,55.4424929,65.3298543
62,улица Володарского,640000,55.4429358,65.3357093
108А,улица Кирова,640000,55.4417203,65.3280257
111А,улица Коли Мяготина,640000,55.4386210,65.3286046
70,Комсомольская улица,640000,55.4441187,65.3355115
106,улица Томина,640000,55.4413507,65.3323368
83,улица Томина,640000,55.4411822,65.3317619
102,улица Кирова,640000,55.4406678,65.3285695
105,улица Володарского,640000,55.4420614,65.3338459
98,улица Кирова,640000,55.4396762,65.3300673
32,Станционная улица,640000,55.4426672,65.3290363
113,улица Кирова,640000,55.4404333,65.3280254
5,Товарная улица,640000,55.4393346,65.3274726
109А,улица Кирова,640000,55.4393461,65.3285291
30,Станционная улица,640000,55.4423530,65.3277708
112,улица Томина,640000,55.4418258,65.3333676
53,Советская улица,640020,55.4337383,65.3421897
25,улица Красина,640000,55.4313939,65.3376647
17,улица Максима Горького,640000,55.4319660,65.3346658
52,улица Кирова,640020,55.4334125,65.3405671
51,Советская улица,640020,55.4330434,65.3411942
28,улица Максима Горького,640000,55.4320376,65.3361113
27,улица Красина,640000,55.4319795,65.3367602
67,Советская улица,640002,55.4354859,65.3462095
72,Советская улица,640020,55.4345906,65.3456498
30,улица Володарского,640000,55.4346054,65.3465653
34А,улица Максима Горького,640020,55.4324852,65.3387421
41,улица Рихарда Зорге,640000,55.4396049,65.3163999
37,улица Рихарда Зорге,640003,55.4381910,65.3159926
5,улица Куйбышева,640000,55.4299913,65.3387076
40,улица Куйбышева,640020,55.4329369,65.3461039
47,улица Климова,640000,55.4329700,65.3490143
191,улица Куйбышева,640006,55.4458240,65.3885143
142,улица Куйбышева,640022,55.4443999,65.3828289
66 к1,Советская улица,640020,55.4341954,65.3446450
60,Советская улица,640020,55.4338666,65.3439835
70,Советская улица,640020,55.4343446,65.3450564
66,Советская улица,640020,55.4340217,65.3443336
24,Комсомольская улица,640000,55.4365691,65.3479662
9,улица Ленина,640000,55.4378110,65.3497142
11,улица Ленина,640000,55.4381302,65.3492984
26,Комсомольская улица,640000,55.4369715,65.3472801
87,Советская улица,640000,55.4373993,65.3500839
86,улица Максима Горького,640000,55.4373332,65.3473309
98,улица Максима Горького,640000,55.4377372,65.3483729
31,Комсомольская улица,640002,55.4369272,65.3466298
42,улица Карла Маркса,640000,55.4357808,65.3407479
51,улица Володарского,640000,55.4365396,65.3428452
29,Комсомольская улица,640000,55.4363818,65.3474725
69,Советская улица,640002,55.4357895,65.3470915
44,улица Карла Маркса,640000,55.4360707,65.3416544
75,Советская улица,640002,55.4361396,65.3477539
61,улица Максима Горького,640000,55.4353548,65.3417625
63,улица Максима Горького,640000,55.4358853,65.3429831
80,улица Максима Горького,640002,55.4367710,65.3461439
78,улица Максима Горького,640002,55.4363652,65.3458965
2/1,улица Максима Горького,640020,55.4302087,65.3333098
2,улица Максима Горького,640020,55.4305101,65.3328508
35,улица Максима Горького,640000,55.4339235,65.3391880
46,улица Карла Маркса,640000,55.4365733,65.3421162
76,улица Максима Горького,640002,55.4359846,65.3457068
60,улица Кирова,640000,55.4341869,65.3385294
29А,Комсомольская улица,640002,55.4366618,65.3469159
74,улица Максима Горького,640002,55.4362183,65.3451479
52,улица Карла Маркса,640000,55.4373628,65.3438471
79,улица Максима Горького,640000,55.4368723,65.3447993
75,улица Максима Горького,640002,55.4363497,65.3442193
36,улица Володарского,640002,55.4364985,65.3437890
95,улица Максима Горького,640000,55.4379813,65.3477170
60,улица Карла Маркса,640000,55.4388426,65.3469228
107,улица Максима Горького,640000,55.4385735,65.3484641
30,Комсомольская улица,640000,55.4379352,65.3460329
61,улица Карла Маркса,640000,55.4371003,65.3418520
21,улица Ленина,640002,55.4395792,65.3469035
42,улица Гоголя,640002,55.4381395,65.3380887
59,улица Карла Маркса,640002,55.4370180,65.3408803
87,улица Карла Маркса,640002,55.4390775,65.3461680
78,улица Томина,640000,55.4364615,65.3397343
82,улица Томина,640002,55.4373943,65.3381526
57,улица Карла Маркса,640000,55.4365146,65.3404863
33,улица Урицкого,640000,55.4355311,65.3350194
53,улица Томина,640000,55.4361114,65.3393244
28,улица Кирова,640000,55.4353499,65.3356160
56,улица Красина,640000,55.4352171,65.3332179
79,улица Кирова,640000,55.4361055,65.3347507
54,улица Красина,640020,55.4344500,65.3341743
29,улица Урицкого,640000,55.4355527,65.3338898
49,улица Карла Маркса,640000,55.4354584,65.3382479
78,улица Кирова,640000,55.4360757,65.3358681
30,улица Гоголя,640000,55.4357961,65.3329886
56,Тобольная улица,640000,55.4338834,65.3313637
43,улица Красина,640000,55.4342408,65.3331345
58,Тобольная улица,640000,55.4342501,65.3308179
13,улица Урицкого,640000,55.4345245,65.3317608
12,улица Урицкого,640000,55.4337941,65.3322955
41,улица Красина,640000,55.4338298,65.3336343
49,улица Красина,640000,55.4350772,65.3319568
16,улица Гоголя,640000,55.4348421,65.3309891
41,улица Красина,640000,55.4336390,65.3333313
13,улица Карельцева,640000,55.4329891,65.3290238
47,улица Красина,640000,55.4345934,65.3328666
58А,улица Гоголя,640000,55.4393243,65.3417022
120,улица Коли Мяготина,640002,55.4423443,65.3388857
118,улица Коли Мяготина,640000,55.4419538,65.3380313
147,улица Пушкина,640000,55.4409265,65.3383589
122,улица Коли Мяготина,640002,55.4426590,65.3398073
167,улица Пушкина,640002,55.4426446,65.3421595
163,улица Пушкина,640002,55.4423917,65.3410057
124,улица Коли Мяготина,640000,55.4431662,65.3404955
124А,улица Коли Мяготина,640002,55.4428142,65.3412536
106,улица Коли Мяготина,640000,55.4401883,65.3343502
112,улица Коли Мяготина,640000,55.4404640,65.3352657
116,улица Коли Мяготина,640000,55.4414541,65.3369809
122/1,улица Коли Мяготина,640002,55.4427588,65.3403421
161,улица Пушкина,640002,55.4421058,65.3408411
33,улица Ленина,640002,55.4433191,65.3414154
137,улица Пушкина,640000,55.4405136,65.3373663
123,улица Пушкина,640000,55.4399978,65.3359017
35,улица Ленина,640000,55.4440406,65.3402589
104,улица Коли Мяготина,640001,55.4397693,65.3335626
147,улица Коли Мяготина,640001,55.4433953,65.3397436
145,улица Коли Мяготина,640000,55.4430234,65.3390986
102,улица Коли Мяготина,640001,55.4394571,65.3329232
143А,улица Коли Мяготина,640001,55.4429350,65.3383338
143,улица Коли Мяготина,640001,55.4425030,65.3379403
129,улица Коли Мяготина,640000,55.4410506,65.3345092
43,улица Ленина,640000,55.4453180,65.3371933
44,Станционная улица,640000,55.4437920,65.3322823
87,Комсомольская улица,640000,55.4441965,65.3364007
39,улица Ленина,640000,55.4448346,65.3390517
50,Станционная улица,640000,55.4446610,65.3345018
44А,Станционная улица,640000,55.4442251,65.3330607
54,Станционная улица,640000,55.4451507,65.3364508
41,улица Ленина,640000,55.4454667,65.3380621
48А,Станционная улица,640000,55.4436534,65.3346283
131,улица Коли Мяготина,640000,55.4422411,65.3369532
52,Станционная улица,640000,55.4446322,65.3359279
58,Станционная улица,640000,55.4456785,65.3368268
46,Станционная улица,640000,55.4444113,65.3336646
99,улица Володарского,640000,55.4415234,65.3353290
127,улица Коли Мяготина,640000,55.4406918,65.3336032
85,Комсомольская улица,640000,55.4445638,65.3369814
81,улица Томина,640001,55.4405303,65.3326602
40,Станционная улица,640000,55.4433617,65.3300810
38,Станционная улица,640000,55.4431835,65.3294620
28,Станционная улица,640000,55.4429304,65.3277121
117,улица Коли Мяготина,640001,55.4392136,65.3309677
100А,улица Кирова,640000,55.4406976,65.3309743
42,Станционная улица,640000,55.4438296,65.3307000
113,улица Коли Мяготина,640001,55.4386638,65.3300042
107,улица Кирова,640001,55.4389688,65.3302988
111,улица Коли Мяготина,640001,55.4385260,65.3294400
41,Станционная улица,640000,55.4440149,65.3299698
37,Станционная улица,640000,55.4435828,65.3284285
49,Станционная улица,640000,55.4451460,65.3336934
31,Станционная улица,640000,55.4431226,65.3268212
43,Станционная улица,640000,55.4443950,65.3306805
29,Станционная улица,640000,55.4428168,65.3257185
39,Станционная улица,640000,55.4438794,65.3289788
35,Станционная улица,640000,55.4433765,65.3277491
4,Проходная улица,640000,55.4394913,65.3266228
24,Станционная улица,640000,55.4420641,65.3248084
6,площадь Слосмана,640000,55.4415745,65.3197692
76,улица Красина,640000,55.4383913,65.3276887
90,улица Красина,640000,55.4406601,65.3228821
88,улица Красина,640000,55.4403962,65.3234504
74,улица Красина,640000,55.4388126,65.3276453
82,улица Красина,640000,55.4395490,65.3254438
80,улица Красина,640000,55.4390867,65.3262393
84,улица Красина,640000,55.4397936,65.3247734
72,улица Красина,640000,55.4380744,65.3284408
86,улица Красина,640000,55.4400957,65.3241146
119,улица Кирова,640000,55.4418911,65.3257755
94,улица Красина,640000,55.4411830,65.3221051
78,улица Красина,640000,55.4387589,65.3269284
20,Станционная улица,640000,55.4416340,65.3233007
11,Товарная улица,640000,55.4404772,65.3250973
115Б,улица Кирова,640000,55.4404772,65.3260829
22,Станционная улица,640000,55.4416544,65.3242409
67,улица Томина,640000,55.4392395,65.3345538
72,улица Пушкина,640000,55.4370979,65.3316959
21,улица Гоголя,640002,55.4362886,65.3328125
66,улица Красина,640000,55.4364116,65.3311165
17,улица Гоголя,640000,55.4362691,65.3322092
84,улица Кирова,640002,55.4382058,65.3325610
85,улица Кирова,640000,55.4374777,65.3326592
19,улица Гоголя,640002,55.4361301,65.3324967
23,улица Гоголя,640000,55.4364042,65.3330825
77,улица Томина,640002,55.4395878,65.3339833
105,улица Кирова,640000,55.4381299,65.3316730
68,улица Красина,640000,55.4370787,65.3301062
91,улица Пушкина,640000,55.4374855,65.3313719
70,улица Красина,640000,55.4375603,65.3294323
96,улица Коли Мяготина,640000,55.4379426,65.3297639
85,улица Пушкина,640000,55.4363119,65.3290344
62,Тобольная улица,640000,55.4351297,65.3290330
90,улица Коли Мяготина,640000,55.4372014,65.3266912
7,улица Гоголя,640000,55.4348240,65.3296988
55,улица Красина,640000,55.4361854,65.3298931
83,улица Пушкина,640000,55.4360475,65.3284525
57,улица Красина,640000,55.4367345,65.3296409
55 с1,улица Красина,640000,55.4359228,65.3293398
68,Тобольная улица,640000,55.4362783,65.3273390
83,улица Пушкина,640000,55.4365258,65.3282684
60,улица Пушкина,640000,55.4355939,65.3286735
90А,улица Коли Мяготина,640000,55.4368563,65.3273814
53,улица Красина,640000,55.4358714,65.3305820
9,улица Гоголя,640000,55.4351157,65.3304265
83/1,улица Пушкина,640000,55.4358406,65.3280174
30,улица Сергея Васильева,640000,55.4357230,65.3252468
67,улица Пушкина,640000,55.4349883,65.3246577
71,улица Пушкина,640000,55.4352465,65.3251801
97,улица Коли Мяготина,640000,55.4376090,65.3227799
32,улица Сергея Васильева,640000,55.4362976,65.3265718
64,улица Коли Мяготина,640000,55.4365431,65.3189765
9,улица Сергея Васильева,640000,55.4361608,65.3247108
76,улица Коли Мяготина,640000,55.4366281,65.3259101
68,улица Коли Мяготина,640000,55.4367219,65.3210905
41,Тобольная улица,640000,55.4357393,65.3272231
5,улица Сергея Васильева,640000,55.4353296,65.3229650
47,улица Пушкина,640000,55.4340340,65.3214228
3,улица Югова,640000,55.4354770,65.3190345
66,улица Коли Мяготина,640000,55.4364514,65.3200987
62,улица Коли Мяготина,640000,55.4360568,65.3191587
7,улица Сергея Васильева,640000,55.4356432,65.3222114
45,улица Пушкина,640000,55.4342585,65.3206688
1,улица Сергея Васильева,640000,55.4347167,65.3216842
72А,улица Коли Мяготина,640000,55.4363684,65.3234990
4,улица Югова,640000,55.4350739,65.3203965
13,улица 9 Января,640000,55.4337999,65.3202681
66А,улица Коли Мяготина,640000,55.4359680,65.3205174
93,улица Коли Мяготина,640000,55.4374311,65.3206838
105,улица Коли Мяготина,640000,55.4379534,65.3269104
77,улица Красина,640000,55.4406474,65.3215196
73А,улица Красина,640000,55.4395231,65.3221903
75,улица Красина,640000,55.4403336,65.3224058
101А,улица Коли Мяготина,640001,55.4382703,65.3243767
101,улица Коли Мяготина,640000,55.4374674,65.3246064
67,улица Красина,640000,55.4388169,65.3250453
95,улица Коли Мяготина,640000,55.4379699,65.3216277
87А,улица Коли Мяготина,640000,55.4375400,65.3185654
103,улица Коли Мяготина,640000,55.4375563,65.3258110
89Б,улица Коли Мяготина,640000,55.4374855,65.3195949
91Б,улица Коли Мяготина,640000,55.4381030,65.3204954
87,улица Коли Мяготина,640000,55.4369122,65.3183243
56,улица Рихарда Зорге,640000,55.4385561,65.3172863
75А,улица Красина,640000,55.4400089,65.3211911
71,улица Красина,640000,55.4397738,65.3236108
10,Станционная улица,640000,55.4399210,65.3201590
73,улица Красина,640000,55.4400448,65.3230289
10А,Станционная улица,640000,55.4401701,65.3195968
65,улица Красина,640000,55.4385312,65.3261878
69,улица Красина,640000,55.4393613,65.3244421
63А,улица Красина,640000,55.4381099,65.3254951
99А,улица Коли Мяготина,640000,55.4378370,65.3243049
99Б,улица Коли Мяготина,640001,55.4380891,65.3231154
52,улица Радионова,640003,55.4374556,65.3147992
48,улица Рихарда Зорге,640000,55.4362064,65.3162563
24,улица Рихарда Зорге,640000,55.4339255,65.3164503
28,улица Рихарда Зорге,640000,55.4345018,65.3156683
58,улица Коли Мяготина,640000,55.4363254,65.3169535
32,улица Рихарда Зорге,640000,55.4351705,65.3160228
30,улица Рихарда Зорге,640000,55.4348760,65.3158815
26,улица Рихарда Зорге,640000,55.4345383,65.3163787
46,улица Рихарда Зорге,640000,55.4356253,65.3159914
35,улица Рихарда Зорге,640000,55.4372956,65.3159991
6,улица 1 Мая,640003,55.4335802,65.3100242
48,улица Коли Мяготина,640003,55.4344787,65.3076496
16,улица Рихарда Зорге,640003,55.4321446,65.3138804
11,улица 1 Мая,640003,55.4331107,65.3123874
8,улица 1 Мая,640003,55.4345763,65.3090886
36,улица Свердлова,640003,55.4322424,65.3125512
10/1,улица 1 Мая,640003,55.4360581,65.3069963
11Б,улица 1 Мая,640003,55.4343742,65.3133549
30,улица Радионова,640003,55.4364063,65.3089093
13,улица 1 Мая,640003,55.4328799,65.3119243
11А,улица 1 Мая,640003,55.4342343,65.3125013
10,улица 1 Мая,640003,55.4360071,65.3068954
50,улица Коли Мяготина,640003,55.4350034,65.3082833
4,улица 1 Мая,640003,55.4328699,65.3102903
18,улица Рихарда Зорге,640003,55.4329874,65.3145296
19,улица 1 Мая,640003,55.4345923,65.3100832
18,улица Рихарда Зорге,640003,55.4324611,65.3149205
30,улица Радионова,640003,55.4368121,65.3084241
21,улица 1 Мая,640003,55.4353122,65.3096771
17,улица 1 Мая,640003,55.4339181,65.3107986
34,улица Свердлова,640003,55.4319899,65.3128844
13А,улица 1 Мая,640003,55.4334669,65.3115130
50,улица Радионова,640003,55.4381083,65.3146187
60,улица Радионова,640000,55.4376357,65.3094279
42,улица Радионова,640003,55.4374535,65.3122574
60,улица Радионова,640003,55.4375187,65.3095491
32,улица Радионова,640003,55.4369406,65.3094887
39,улица Рихарда Зорге,640003,55.4389441,65.3161487
44,улица Радионова,640003,55.4376441,65.3127785
19А,улица 1 Мая,640000,55.4351419,65.3119592
56,улица Коли Мяготина,640000,55.4361314,65.3135180
28,улица Войкова,640003,55.4339621,65.3078886
15,улица Рихарда Зорге,640003,55.4348545,65.3146778
40,улица Радионова,640003,55.4373179,65.3116505
77А,улица Коли Мяготина,640003,55.4368302,65.3105779
52,Линейная улица,640003,55.4373090,65.3102227
26,улица Войкова,640003,55.4338287,65.3089128
81Б,улица Коли Мяготина,640003,55.4372240,65.3133991
46,улица Радионова,640003,55.4378144,65.3133475
54,улица Коли Мяготина,640000,55.4360011,65.3119643
56,улица Радионова,640003,55.4380608,65.3115097
58,улица Радионова,640003,55.4377651,65.3104785
15,улица Рихарда Зорге,640003,55.4348992,65.3145483
30,улица Радионова,640003,55.4372324,65.3083231
48,улица Радионова,640003,55.4380006,65.3139564
90 к1,улица Карельцева,640000,55.4240932,65.3244498
24,улица Криволапова,640000,55.4272434,65.3214959
115,улица Карельцева,640000,55.4271002,65.3234527
19,улица Криволапова,640000,55.4275778,65.3194979
119,улица Карельцева,640000,55.4250124,65.3249789
7,улица Радионова,640000,55.4380264,65.3086141
117,улица Карельцева,640000,55.4264216,65.3244677
46,улица Криволапова,640000,55.4287811,65.3209678
5,4-я Больничная улица,640000,55.4283846,65.3187746
10,4-я Больничная улица,640000,55.4282923,65.3217392
17,улица Криволапова,640000,55.4269545,65.3204554
18,улица Пушкина,640000,55.4304282,65.3168022
21,улица Криволапова,640000,55.4279143,65.3190527
84,улица Карельцева,640000,55.4264671,65.3229820
8,4-я Больничная улица,640000,55.4283058,65.3209287
48,улица Криволапова,640000,55.4291500,65.3198938
48А,улица Криволапова,640000,55.4298409,65.3204264
13А,улица Криволапова,640000,55.4254023,65.3203185
22,улица Криволапова,640000,55.4268578,65.3217537
52,улица Криволапова,640000,55.4305105,65.3196913
20,улица Пушкина,640000,55.4310373,65.3176010
12,улица Криволапова,640000,55.4254602,65.3223377
105,улица Карельцева,640000,55.4299823,65.3218100
15,улица Криволапова,640000,55.4263422,65.3204133
117,улица Карельцева,640000,55.4263446,65.3240227
13,улица Криволапова,640000,55.4257477,65.3210036
61,улица Криволапова,640000,55.4299963,65.3179612
21,улица Криволапова,640000,55.4277851,65.3182367
50,улица Криволапова,640000,55.4299141,65.3194642
111,улица Карельцева,640000,55.4277407,65.3231409
38А,7-я Больничная улица,640000,55.4265695,65.3267267
26,улица Криволапова,640000,55.4276692,65.3215247
62,улица Радионова,640003,55.4389679,65.3144588
36,7-я Больничная улица,640000,55.4261798,65.3251595
14,улица Ленина,640000,55.4385190,65.3498570
14,улица Ленина,640000,55.4381399,65.3501731
6,улица Ленина,640000,55.4377094,65.3508631
19,улица Савельева,640018,55.4421969,65.3597107
153,Советская улица,640018,55.4416626,65.3592747
151,Советская улица,640018,55.4417514,65.3583134
125,улица Куйбышева,640018,55.4403593,65.3596542
151 к1,Советская улица,640018,55.4415186,65.3589775
151,Советская улица,640018,55.4419153,65.3585851
129,Советская улица,640018,55.4400648,65.3559089
157,Советская улица,640018,55.4421121,65.3603227
158,улица Максима Горького,640018,55.4422779,65.3588939
155,Советская улица,640018,55.4419092,65.3598646
1,Сибирская улица,640022,55.4392665,65.3637459
139,улица Куйбышева,640022,55.4416064,65.3631123
137,улица Куйбышева,640022,55.4413484,65.3625146
137А,улица Куйбышева,640022,55.4417671,65.3627925
48А,улица Ленина,640002,55.4453083,65.3411859
48Б,улица Ленина,640002,55.4456330,65.3418541
144 с41,улица Куйбышева,640006,55.4448852,65.3859155
148,улица Куйбышева,640022,55.4433482,65.3818335
167,улица Куйбышева,640006,55.4466477,65.3805909
6,улица Василия Блюхера,640022,55.4430686,65.3720186
7,улица Орлова,640022,55.4438643,65.3719470
23,улица Кравченко,640022,55.4408720,65.3666607
9,улица Бурова-Петрова,640022,55.4423125,65.3692717
7,улица Василия Блюхера,640022,55.4419735,65.3726429
146,улица Куйбышева,640022,55.4438518,65.3819361
2,Половинская улица,640006,55.4480710,65.3800974
2,улица Василия Блюхера,640006,55.4420933,65.3735384
4,Половинская улица,640006,55.4475983,65.3801340
22,улица Аргентовского,640022,55.4426435,65.3681556
157,улица Куйбышева,640022,55.4458675,65.3750287
22,улица Василия Блюхера,640022,55.4438340,65.3709963
144,улица Куйбышева,640006,55.4443824,65.3847966
6,улица Савельева,640022,55.4395649,65.3650997
26,улица Кравченко,640022,55.4410450,65.3678370
114А,улица Куйбышева,640006,55.4438035,65.3704521
58,Сибирская улица,640006,55.4425848,65.3732608
151,улица Куйбышева,640022,55.4449102,65.3703247
14,улица Бурова-Петрова,640022,55.4435065,65.3700797
3,улица Бурова-Петрова,640022,55.4413105,65.3694135
19,Сибирская улица,640022,55.4408880,65.3685282
144,улица Куйбышева,640006,55.4446092,65.3852776
24,Уральская улица,640006,55.4416960,65.3682697
187,улица Куйбышева,640022,55.4464921,65.3829544
4А,Половинская улица,640006,55.4469342,65.3821660
153,улица Куйбышева,640022,55.4451605,65.3713458
187,улица Куйбышева,640022,55.4466817,65.3837855
155,улица Куйбышева,640022,55.4455169,65.3726865
122,улица Куйбышева,640022,55.4451382,65.3757898
142А,улица Куйбышева,640022,55.4445794,65.3822410
3,Уральская улица,640022,55.4409103,65.3653837
187,улица Куйбышева,640022,55.4465831,65.3833781
171,улица Куйбышева,640006,55.4463096,65.3820312
144Б,улица Куйбышева,640006,55.4455909,65.3855904
142А,улица Куйбышева,640022,55.4442524,65.3815343
3,улица Бурова-Петрова,640022,55.4415415,65.3692444
163,улица Куйбышева,640006,55.4466527,65.3799034
187,улица Куйбышева,640022,55.4467763,65.3841896
169,улица Куйбышева,640022,55.4467549,65.3812730
161,улица Куйбышева,640022,55.4461441,65.3806589
14,Половинская улица,640022,55.4475353,65.3820970
12,улица Бурова-Петрова,640022,55.4429789,65.3709015
1,улица Бурова-Петрова,640022,55.4401697,65.3695740
3,улица Бурова-Петрова,640022,55.4417607,65.3693464
165,улица Куйбышева,640022,55.4471938,65.3803193
142А,улица Куйбышева,640022,55.4450406,65.3826977
5,улица Орлова,640022,55.4432766,65.3728109
3А,Сибирская улица,640006,55.4397337,65.3656694
127,улица Максима Горького,640018,55.4404706,65.3527605
66,улица Гоголя,640000,55.4422731,65.3464008
129,улица Максима Горького,640018,55.4410118,65.3534805
93,улица Карла Маркса,640018,55.4402068,65.3484891
79/1,улица Урицкого,640018,55.4421068,65.3484798
64,улица Гоголя,640000,55.4417607,65.3466360
19,Пролетарская улица,640018,55.4411608,65.3530827
30А,улица Ленина,640018,55.4408101,65.3470058
66,улица Карла Маркса,640018,55.4397350,65.3487954
99,улица Карла Маркса,640018,55.4416012,65.3515033
60,улица Гоголя,640000,55.4415210,65.3450239
62,улица Гоголя,640000,55.4418801,65.3456142
79,улица Урицкого,640018,55.4424159,65.3491850
95,улица Карла Маркса,640018,55.4406795,65.3495012
74,улица Гоголя,640018,55.4426888,65.3485897
68,улица Карла Маркса,640000,55.4396484,65.3494151
113,улица Максима Горького,640000,55.4395892,65.3510916
22,улица Ленина,640000,55.4399256,65.3475149
18,улица Ленина,640000,55.4389949,65.3488023
127,улица Максима Горького,640018,55.4400477,65.3519109
37,улица Пичугина,640000,55.4412587,65.3491824
77,улица Урицкого,640018,55.4417534,65.3478303
70,улица Карла Маркса,640000,55.4400158,65.3502604
68,улица Гоголя,640018,55.4420510,65.3472572
74,улица Урицкого,640000,55.4414293,65.3482293
74,улица Карла Маркса,640018,55.4410898,65.3516845
20,улица Ленина,640000,55.4394599,65.3481544
26,улица Пичугина,640000,55.4404499,65.3511367
35,Пролетарская улица,640000,55.4414708,65.3527904
28,улица Ленина,640018,55.4412404,65.3472737
36,улица Пичугина,640018,55.4417327,65.3503281
78/1,улица Гоголя,640018,55.4428549,65.3497157
37,Пролетарская улица,640000,55.4420052,65.3520318
78,улица Гоголя,640018,55.4430759,65.3494620
93А,улица Карла Маркса,640018,55.4408369,65.3482801
36А,улица Ленина,640002,55.4427504,65.3444195
38,улица Ленина,640000,55.4423910,65.3435593
39,Пролетарская улица,640000,55.4424379,65.3516321
88,улица Урицкого,640018,55.4426910,65.3506949
57,Пролетарская улица,640000,55.4435646,65.3496020
78/1,улица Гоголя,640018,55.4427641,65.3492991
41,Пролетарская улица,640000,55.4430383,65.3508123
40,улица Ленина,640002,55.4428597,65.3435487
37А,Пролетарская улица,640018,55.4422177,65.3510285
76,улица Гоголя,640000,55.4432133,65.3483575
10В,Половинская улица,640006,55.4476377,65.3786879
10Б,Половинская улица,640006,55.4477415,65.3779737
10А,Половинская улица,640006,55.4471745,65.3784653
8Б,Половинская улица,640006,55.4483640,65.3792117
7,улица Криволапова,640000,55.4247862,65.3215838
38В,7-я Больничная улица,640000,55.4257839,65.3264458
38Б,7-я Больничная улица,640000,55.4261998,65.3270932
38,7-я Больничная улица,640000,55.4265994,65.3259050
2,улица Гоголя,640020,55.4335569,65.3284812
130,улица Коли Мяготина,640002,55.4437340,65.3428854
189,улица Пушкина,640002,55.4450756,65.3467097
107А,улица Гоголя,640002,55.4439358,65.3466341
61,Пролетарская улица,640000,55.4447004,65.3479937
59,Пролетарская улица,640000,55.4440896,65.3487167
42,улица Ленина,640000,55.4430842,65.3425944
63,Пролетарская улица,640000,55.4457038,65.3468931
128,улица Коли Мяготина,640000,55.4438261,65.3418938
107А,улица Гоголя,640002,55.4441337,65.3472627
109,улица Гоголя,640000,55.4436972,65.3479128
187,улица Пушкина,640000,55.4446935,65.3459884
107А,улица Гоголя,640002,55.4436686,65.3460125
136,улица Коли Мяготина,640000,55.4449791,65.3442754
138,улица Коли Мяготина,640000,55.4451953,65.3454257
107,улица Гоголя,640000,55.4432903,65.3473924
61А,Пролетарская улица,640000,55.4451674,65.3476762
132,улица Коли Мяготина,640000,55.4442788,65.3428142
105,улица Гоголя,640000,55.4429751,65.3465776
134,улица Коли Мяготина,640002,55.4443633,65.3439422
48,улица Ленина,640002,55.4445564,65.3403558
140,улица Коли Мяготина,640000,55.4457229,65.3458148
74А,Станционная улица,640002,55.4490554,65.3461545
195,улица Коли Мяготина,640000,55.4493248,65.3522043
151,улица Гоголя,640022,55.4476216,65.3551286
62,Станционная улица,640000,55.4472468,65.3416221
17,Ипподромная улица,640002,55.4507545,65.3518280
121,улица Гоголя,640000,55.4448434,65.3505730
82,Пролетарская улица,640000,55.4481776,65.3453607
165А,улица Коли Мяготина,640000,55.4461681,65.3436997
84,улица Гоголя,640000,55.4444997,65.3511091
76А,Станционная улица,640002,55.4495207,65.3474216
76А/1,Станционная улица,640002,55.4494324,65.3465177
63,1-я Заводская улица,640002,55.4467965,65.3494640
82,Станционная улица,640000,55.4497340,65.3499018
84,Станционная улица,640000,55.4502150,65.3515299
66,Пролетарская улица,640000,55.4461048,65.3479272
41,улица Савельева,640000,55.4474415,65.3521981
129,улица Гоголя,640000,55.4459118,65.3528865
179,улица Коли Мяготина,640002,55.4478330,65.3489553
150,улица Коли Мяготина,640002,55.4475317,65.3497537
52,Пролетарская улица,640000,55.4445788,65.3499764
48,улица Ленина,640002,55.4448663,65.3404733
2,Савельевский переезд,640002,55.4507206,65.3508423
144,улица Коли Мяготина,640000,55.4463560,65.3473195
1,Савельевский переезд,640002,55.4505954,65.3504276
148,улица Коли Мяготина,640002,55.4471197,65.3488412
70,Станционная улица,640000,55.4483022,65.3467970
86,Станционная улица,640000,55.4495902,65.3512444
167,улица Коли Мяготина,640002,55.4456675,65.3445430
64,Пролетарская улица,640000,55.4456068,65.3483031
163А,улица Коли Мяготина,640002,55.4459343,65.3432841
68,Станционная улица,640000,55.4481174,65.3461480
161А,улица Коли Мяготина,640000,55.4457772,65.3426477
153,улица Коли Мяготина,640000,55.4441337,65.3412377
74,Станционная улица,640000,55.4486832,65.3464948
13,Ипподромная улица,640000,55.4501591,65.3527771
152,улица Коли Мяготина,640002,55.4480423,65.3506796
76,Станционная улица,640000,55.4487134,65.3481652
146,улица Коли Мяготина,640000,55.4467823,65.3479974
131,улица Гоголя,640000,55.4464263,65.3534423
80,Станционная улица,640000,55.4491589,65.3480565
169,улица Коли Мяготина,640002,55.4460728,65.3453732
39,улица Савельева,640000,55.4469512,65.3531191
3,Савельевский переезд,640002,55.4503661,65.3496468
165,улица Коли Мяготина,640002,55.4453605,65.3439384
4,Савельевский переезд,640002,55.4501341,65.3488612
19,Ипподромная улица,640002,55.4508665,65.3513690
173А,улица Коли Мяготина,640000,55.4475629,65.3468261
92,улица Савельева,640000,55.4492451,65.3505594
80,Пролетарская улица,640000,55.4475152,65.3457461
50,Пролетарская улица,640000,55.4442169,65.3504818
161,улица Коли Мяготина,640002,55.4452326,65.3425327
163,улица Коли Мяготина,640002,55.4450764,65.3433436
193,улица Коли Мяготина,640002,55.4489421,65.3513069
72,Станционная улица,640000,55.4485138,65.3474878
205,улица Пушкина,640002,55.4464051,65.3498831
175,улица Коли Мяготина,640002,55.4474857,65.3482106
31,улица Савельева,640000,55.4444821,65.3567753
129А,улица Урицкого,640000,55.4452144,65.3536399
86,улица Гоголя,640000,55.4451088,65.3527184
113,улица Урицкого,640018,55.4438209,65.3519453
105А,улица Карла Маркса,640000,55.4439588,65.3534973
90А,улица Гоголя,640000,55.4462329,65.3543628
109А,улица Карла Маркса,640000,55.4445501,65.3548690
151,улица Урицкого,640022,55.4463300,65.3563830
33,улица Савельева,640000,55.4449126,65.3555036
92,улица Гоголя,640022,55.4468688,65.3558938
88,улица Гоголя,640000,55.4455966,65.3533318
85,Станционная улица,640002,55.4510253,65.3528936
107,улица Карла Маркса,640000,55.4432107,65.3549580
107А,улица Карла Маркса,640000,55.4436736,65.3545656
105,улица Карла Маркса,640000,55.4430820,65.3539717
42,Пролетарская улица,640000,55.4443704,65.3526031
44,Пролетарская улица,640000,55.4447433,65.3520065
178,улица Коли Мяготина,640002,55.4505040,65.3554169
90,улица Гоголя,640000,55.4458820,65.3542405
217,улица Коли Мяготина,640002,55.4508468,65.3549455
111А,улица Карла Маркса,640000,55.4441987,65.3556212
35,улица Савельева,640000,55.4455781,65.3551100
48,Пролетарская улица,640000,55.4441315,65.3514249
38,Пролетарская улица,640000,55.4436391,65.3530199
56,улица Савельева,640022,55.4460555,65.3555409
111,улица Карла Маркса,640000,55.4439331,65.3564434
178,улица Коли Мяготина,640002,55.4508558,65.3561142
124,улица Урицкого,640022,55.4455886,65.3571618
117,улица Карла Маркса,640022,55.4449347,65.3583984
128,улица Урицкого,640022,55.4460029,65.3583448
130,улица Урицкого,640022,55.4462842,65.3589312
54,улица Савельева,640022,55.4453367,65.3566708
123,улица Карла Маркса,640022,55.4454460,65.3595177
52,улица Савельева,640022,55.4448472,65.3574098
123А,улица Карла Маркса,640022,55.4455016,65.3584478
126,улица Урицкого,640022,55.4458395,65.3577047
134,улица Урицкого,640000,55.4472362,65.3605788
170,улица Максима Горького,640022,55.4431292,65.3599174
53,улица Кравченко,640000,55.4435653,65.3630375
209,улица Максима Горького,640022,55.4455637,65.3639086
186,улица Максима Горького,640022,55.4445940,65.3627345
100,улица Гоголя,640000,55.4477250,65.3586363
108,улица Гоголя,640000,55.4484244,65.3600639
127,улица Карла Маркса,640022,55.4460061,65.3607840
84,улица Карла Маркса,640022,55.4444550,65.3600400
61,улица Кравченко,640022,55.4447445,65.3608272
129,улица Карла Маркса,640022,55.4466636,65.3610371
161 к2,Советская улица,640022,55.4435673,65.3610381
157,улица Урицкого,640022,55.4475499,65.3598240
94,улица Кравченко,640000,55.4472971,65.3583220
86,улица Карла Маркса,640022,55.4458703,65.3620577
102,улица Гоголя,640000,55.4480794,65.3593484
188,улица Максима Горького,640022,55.4447414,65.3635374
44,улица Аргентовского,640022,55.4475161,65.3626400
55,улица Кравченко,640000,55.4437745,65.3620982
46,улица Аргентовского,640022,55.4484567,65.3612737
42,улица Аргентовского,640022,55.4462229,65.3643462
92,улица Кравченко,640022,55.4464428,65.3597385
207,улица Максима Горького,640022,55.4448532,65.3623879
40,улица Аргентовского,640022,55.4452164,65.3656797
131,улица Карла Маркса,640022,55.4467165,65.3623047
161,Советская улица,640022,55.4429875,65.3614530
42,улица Савельева,640000,55.4439382,65.3589778
149А,улица Куйбышева,640022,55.4446389,65.3685385
62,улица Бурова-Петрова,640022,55.4496996,65.3619223
30,улица Василия Блюхера,640022,55.4472565,65.3664969
30В,улица Василия Блюхера,640022,55.4469624,65.3668549
189,улица Урицкого,640000,55.4497365,65.3645202
110А,улица Гоголя,640000,55.4501652,65.3637811
149/2,улица Карла Маркса,640022,55.4518105,65.3698737
85,улица Орлова,640022,55.4519986,65.3609899
60,улица Бурова-Петрова,640022,55.4479288,65.3648348
110,улица Гоголя,640000,55.4504639,65.3632859
166,Советская улица,640022,55.4427278,65.3625937
147А,улица Карла Маркса,640000,55.4506061,65.3683742
60,улица Бурова-Петрова,640022,55.4480217,65.3643820
128,улица Гоголя,640000,55.4520008,65.3679016
141,улица Карла Маркса,640022,55.4492193,65.3665102
147,улица Карла Маркса,640022,55.4502008,65.3689562
6,Новая улица,640022,55.4461421,65.3712518
4,Новая улица,640022,55.4462111,65.3721888
104,улица Орлова,640022,55.4524566,65.3615585
9,Новая улица,640022,55.4461551,65.3704680
28,улица Кравченко,640006,55.4420219,65.3666721
195,улица Урицкого,640022,55.4508589,65.3666709
193,улица Урицкого,640000,55.4504168,65.3654547
141,улица Куйбышева,640022,55.4420908,65.3636313
143А,улица Карла Маркса,640022,55.4498378,65.3661343
122,улица Гоголя,640000,55.4514620,65.3671231
114,улица Гоголя,640000,55.4511407,65.3647790
137,улица Карла Маркса,640022,55.4486691,65.3654213
145,улица Карла Маркса,640022,55.4494616,65.3672634
78А,улица Куйбышева,640006,55.4409617,65.3644951
183,улица Гоголя,640022,55.4506836,65.3623312
116,улица Гоголя,640000,55.4516764,65.3659732
116А,улица Гоголя,640000,55.4516680,65.3664014
28,улица Василия Блюхера,640022,55.4463044,65.3678120
80,улица Куйбышева,640022,55.4415383,65.3648534
124,улица Гоголя,640000,55.4514491,65.3677813
66,улица Василия Блюхера,640022,55.4492488,65.3637383
135,улица Карла Маркса,640022,55.4483969,65.3648812
30,улица Василия Блюхера,640022,55.4470739,65.3671064
149 с1,улица Карла Маркса,640022,55.4516695,65.3693800
100,улица Карла Маркса,640022,55.4495618,65.3699725
196,Советская улица,640022,55.4459746,65.3694602
143,улица Куйбышева,640022,55.4424251,65.3644860
26,улица Василия Блюхера,640022,55.4454291,65.3689995
49,улица Кравченко,640022,55.4429580,65.3637450
195,улица Гоголя,640022,55.4515735,65.3641448
72,улица Василия Блюхера,640022,55.4510751,65.3613109
83,улица Орлова,640022,55.4513411,65.3618924
139,улица Карла Маркса,640022,55.4489279,65.3658362
151,улица Карла Маркса,640022,55.4507646,65.3703372
174,Советская улица,640022,55.4425458,65.3629556
60,улица Бурова-Петрова,640022,55.4486061,65.3635154
126,улица Гоголя,640000,55.4514528,65.3684426
149,улица Карла Маркса,640022,55.4513073,65.3705753
145,улица Куйбышева,640000,55.4426631,65.3650755
145А,улица Карла Маркса,640022,55.4498311,65.3675730
6,переулок Куйбышева,640022,55.4455540,65.3701157
24,улица Василия Блюхера,640022,55.4449778,65.3695441
8,Половинская улица,640006,55.4485687,65.3784744
8/1,Половинская улица,640006,55.4488368,65.3782875
10,Новая улица,640022,55.4475117,65.3702252
253,улица Максима Горького,640022,55.4486469,65.3698149
8А,Половинская улица,640006,55.4488245,65.3777562
42Б,Сибирская улица,640006,55.4413747,65.3722181
30,улица Некрасова,640007,55.4552055,65.3531263
50,улица Дзержинского,640007,55.4580397,65.3472223
8,проспект Машиностроителей,640007,55.4555223,65.3386541
4,проспект Машиностроителей,640007,55.4540406,65.3398913
2,проспект Машиностроителей,640007,55.4533441,65.3407653
34,улица Дзержинского,640007,55.4562474,65.3417257
44,улица Дзержинского,640007,55.4574501,65.3442074
6,проспект Машиностроителей,640007,55.4547905,65.3392727
30,улица Дзержинского,640007,55.4564891,65.3404854
36,улица Дзержинского,640007,55.4563435,65.3423672
38,улица Дзержинского,640007,55.4571157,65.3429474
28А,улица Дзержинского,640007,55.4559871,65.3405559
32,улица Дзержинского,640007,55.4567838,65.3416942
4Б,проспект Машиностроителей,640007,55.4548360,65.3417119
46А,улица Дзержинского,640007,55.4579813,65.3462421
36А,улица Дзержинского,640007,55.4554753,65.3425660
28,улица Дзержинского,640007,55.4561080,65.3391428
52,улица Дзержинского,640007,55.4584218,65.3487079
40А,улица Дзержинского,640007,55.4559769,65.3428438
42,улица Дзержинского,640007,55.4576445,65.3453817
79,улица Бурова-Петрова,640007,55.4569360,65.3512054
95А,улица Пугачёва,640011,55.4579927,65.3742299
95Б,улица Пугачёва,640011,55.4572873,65.3750121
95,улица Пугачёва,640011,55.4581438,65.3754926
96,улица Бурова-Петрова,640007,55.4571020,65.3544575
96Г,улица Бурова-Петрова,640007,55.4565358,65.3536522
96Г к1,улица Бурова-Петрова,640007,55.4560457,65.3541853
120,улица Бурова-Петрова,640027,55.4687628,65.3435629
37,улица Дзержинского,640007,55.4585540,65.3448503
31Б,улица Дзержинского,640007,55.4577593,65.3417828
14 с9,проспект Машиностроителей,640006,55.4582210,65.3377184
29А,улица Дзержинского,640007,55.4569646,65.3400121
41,улица Дзержинского,640007,55.4591640,65.3471473
37А,улица Дзержинского,640007,55.4590547,65.3440808
39,улица Дзержинского,640007,55.4588289,65.3460339
33Б,улица Дзержинского,640007,55.4579332,65.3424933
30А,проспект Машиностроителей,640007,55.4691469,65.3280390
85,улица Зайцева,640007,55.4526812,65.3294007
14,улица Дзержинского,640007,55.4538850,65.3321096
18,улица Дзержинского,640007,55.4540339,65.3327568
14,Рабоче-Крестьянская улица,640007,55.4530043,65.3283237
9,проспект Машиностроителей,640007,55.4552658,65.3376824
7,проспект Машиностроителей,640007,55.4545104,65.3383007
13,улица Дзержинского,640007,55.4549314,65.3317658
12,улица Дзержинского,640007,55.4537176,65.3315312
10А,улица Дзержинского,640007,55.4527247,65.3318665
3,проспект Машиностроителей,640007,55.4531231,65.3394122
11,улица Дзержинского,640007,55.4547089,65.3312192
6А,улица Дзержинского,640007,55.4525703,65.3311604
8,Рабоче-Крестьянская улица,640007,55.4522937,65.3304141
16,улица Дзержинского,640007,55.4543726,65.3323827
5,проспект Машиностроителей,640007,55.4537522,65.3389394
6,улица Дзержинского,640007,55.4533819,65.3302761
2,улица Луначарского,640004,55.4471382,65.3169515
4,Зелёная улица,640007,55.4484814,65.3223559
6,Зелёная улица,640007,55.4474125,65.3226763
7,улица Дзержинского,640007,55.4546720,65.3299109
23,улица Дзержинского,640007,55.4559756,65.3348149
17А,улица Дзержинского,640007,55.4555832,65.3327758
44,улица Отдыха,640007,55.4489313,65.3177282
12,Зелёная улица,640007,55.4506292,65.3193657
6А,улица Зайцева,640007,55.4473787,65.3194967
9,улица Дзержинского,640007,55.4548200,65.3305031
3,улица Дзержинского,640007,55.4542206,65.3282435
53,улица Отдыха,640007,55.4509490,65.3204223
103,Садовая улица,640007,55.4512086,65.3184804
1А,улица Дзержинского,640007,55.4524111,65.3233613
50,Садовая улица,640007,55.4497616,65.3171728
4,Зелёная улица,640007,55.4481642,65.3231422
6А,Зелёная улица,640007,55.4476639,65.3234048
1А,Зелёная улица,640007,55.4479187,65.3216584
8,Зелёная улица,640007,55.4489777,65.3211224
53,улица Отдыха,640007,55.4504592,65.3213173
4,улица Луначарского,640004,55.4472598,65.3160053
10,Зелёная улица,640007,55.4498134,65.3200110
5,улица Дзержинского,640007,55.4545088,65.3293197
2,улица Калинина,640004,55.4470489,65.3182130
20,улица Губанова,640007,55.4486939,65.3196024
8,улица Зайцева,640007,55.4477848,65.3204036
15,улица Дзержинского,640007,55.4549753,65.3325309
53,улица Отдыха,640007,55.4497091,65.3212257
8,улица Отдыха,640004,55.4468547,65.3144267
40А,улица Ястржембского,640007,55.4556447,65.3253553
1,улица Механический посёлок,640007,55.4544109,65.3252606
4,улица Механический посёлок,640007,55.4547290,65.3266667
7А,Механический поселок,640007,55.4555492,65.3273992
11А,улица Механический посёлок,640007,55.4559162,65.3278561
40/1,улица Ястржембского,640007,55.4558735,65.3237380
1,улица Дзержинского,640007,55.4535123,65.3261242
7,улица Механический посёлок,640007,55.4554617,65.3266881
9,Механический поселок,640007,55.4559690,65.3263994
40,улица Ястржембского,640007,55.4556264,65.3244040
5,улица Механический посёлок,640007,55.4549444,65.3271445
5Б,улица Механический посёлок,640007,55.4551822,65.3281932
5А,улица Механический посёлок,640007,55.4550220,65.3277541
40Б,улица Ястржембского,640007,55.4546443,65.3260295
10А,улица Механический посёлок,640007,55.4555335,65.3281688
2,улица Механический посёлок,640007,55.4550276,65.3248814
42,Механический поселок,640007,55.4561663,65.3269146
1 с1,улица Дзержинского,640007,55.4539709,65.3263265
10,улица Карбышева,640014,55.4867372,65.3153730
93,Чернореченская улица,640014,55.4880024,65.3221650
3,улица Карбышева,640014,55.4864386,65.3143682
57,Чернореченская улица,640014,55.4849002,65.3089906
87,Чернореченская улица,640014,55.4874698,65.3197545
59,Чернореченская улица,640014,55.4842327,65.3093474
45,Чернореченская улица,640014,55.4842484,65.3077130
1,улица Карбышева,640014,55.4857910,65.3142448
83,Чернореченская улица,640014,55.4870942,65.3184227
100,улица Анфиногенова,640014,55.4886683,65.3190359
12,улица Карбышева,640014,55.4882745,65.3171177
4,улица Карбышева,640014,55.4862275,65.3152484
106,улица Анфиногенова,640014,55.4894771,65.3208426
2,улица Карбышева,640014,55.4857277,65.3153962
63А,Чернореченская улица,640014,55.4845362,65.3101075
5,улица Карбышева,640014,55.4871635,65.3145471
85,Чернореченская улица,640014,55.4872581,65.3190916
63,Чернореченская улица,640014,55.4842756,65.3110372
102,улица Анфиногенова,640014,55.4892210,65.3194430
89,Чернореченская улица,640014,55.4876337,65.3204174
13,Школьная улица,640014,55.4875229,65.3164330
81,Чернореченская улица,640014,55.4865874,65.3192656
59,Чернореченская улица,640014,55.4843492,65.3087228
5,Школьная улица,640014,55.4854746,65.3085369
7,Школьная улица,640014,55.4857093,65.3093966
5,улица Анфиногенова,640014,55.4855939,65.3068516
11,улица Анфиногенова,640014,55.4869371,65.3104510
3,Школьная улица,640014,55.4849849,65.3078185
9,улица Анфиногенова,640014,55.4863957,65.3089339
11,Школьная улица,640014,55.4859791,65.3113161
7,улица Анфиногенова,640014,55.4861234,65.3074945
9,Школьная улица,640014,55.4859215,65.3101506
109,Чернореченская улица,640014,55.4891520,65.3279320
95,Чернореченская улица,640014,55.4882990,65.3227749
107,Чернореченская улица,640014,55.4893404,65.3266225
89А,Чернореченская улица,640014,55.4879971,65.3215654
109А,Чернореченская улица,640014,55.4895931,65.3284810
105,Чернореченская улица,640014,55.4889811,65.3252578
125,Чернореченская улица,640014,55.4916047,65.3313981
97,Чернореченская улица,640014,55.4884608,65.3235028
8Б,улица Черняховского,640014,55.4964818,65.3180050
46,улица Карбышева,640014,55.4965306,65.3109050
44А,улица Карбышева,640014,55.4961350,65.3126391
44Б,улица Карбышева,640014,55.4960092,65.3116662
42,улица Карбышева,640014,55.4946733,65.3121508
12,улица Перова,640014,55.4975958,65.3144848
6,улица Черняховского,640014,55.4956956,65.3142651
14,улица Перова,640014,55.4971311,65.3154071
44,улица Карбышева,640014,55.4953946,65.3116672
8,улица Черняховского,640014,55.4960065,65.3157355
16,улица Перова,640014,55.4973555,65.3165341
10,улица Черняховского,640014,55.4965556,65.3159591
8А,улица Черняховского,640014,55.4962597,65.3169563
4,улица Перова,640014,55.4969693,65.3115689
10,улица Перова,640014,55.4967819,65.3146077
12,улица Черняховского,640014,55.4967054,65.3190612
4,улица Черняховского,640014,55.4953668,65.3127626
8,улица Перова,640014,55.4972651,65.3129757
18,улица Перова,640014,55.4976824,65.3180585
4А,улица Черняховского,640014,55.4961092,65.3138502
1А,улица Яблочкина,640014,55.4917112,65.3024940
2Д,улица 9 Мая,640014,55.4873188,65.2959582
1В,улица 9 Мая,640014,55.4868742,65.2944524
2А,улица 9 Мая,640014,55.4865120,65.2966267
4А,улица 9 Мая,640014,55.4874550,65.2948339
14,2-я Часовая улица,640008,55.4343088,65.2701342
8,2-я Часовая улица,640008,55.4340399,65.2685317
6,2-я Часовая улица,640008,55.4339359,65.2679050
10,2-я Часовая улица,640008,55.4341384,65.2690798
4,2-я Часовая улица,640008,55.4337831,65.2671117
20,Куртамышская улица,640003,55.4329366,65.2962866
17,улица Тимофея Невежина,640003,55.4333288,65.2980360
51,улица Коли Мяготина,640003,55.4315586,65.2963577
13,улица Тимофея Невежина,640003,55.4336341,65.2993508
22,Куртамышская улица,640003,55.4331716,65.2973614
12,улица Коли Мяготина,640003,55.4281967,65.2833975
15,улица Тимофея Невежина,640003,55.4334819,65.2986326
12,улица Радионова,640003,55.4354310,65.3022049
7,улица Кремлёва,640003,55.4314550,65.3035643
15,улица Сухэ-Батора,640003,55.4338868,65.3030191
18,улица Радионова,640003,55.4352337,65.3046591
3,улица Победы,640003,55.4311793,65.3030902
1,улица Тимофея Невежина,640003,55.4285365,65.3027165
71,улица Бажова,640032,55.4236143,65.2849040
22,улица Радионова,640000,55.4364434,65.3054925
16,улица Радионова,640003,55.4351298,65.3037766
26 с2,улица Тимофея Невежина,640003,55.4349358,65.3006013
55А,улица Коли Мяготина,640003,55.4333199,65.3018948
18А,улица Радионова,640003,55.4353899,65.3057639
5,улица Тимофея Невежина,640003,55.4316087,65.3007175
65,улица Коли Мяготина,640003,55.4342835,65.3055365
13,Куртамышская улица,640003,55.4342812,65.2983988
3 с26,улица Тимофея Невежина,640003,55.4312457,65.3010416
26,улица Тимофея Невежина,640000,55.4343679,65.2999340
10,улица Сухэ-Батора,640003,55.4338755,65.3041542
4,улица Тимофея Невежина,640003,55.4295997,65.3034858
32,улица Коли Мяготина,640003,55.4314200,65.3025743
69,улица Коли Мяготина,640003,55.4351274,65.3070943
6А,улица Тимофея Невежина,640003,55.4300497,65.3032805
1,улица Свердлова,640003,55.4288138,65.3038418
14,улица Радионова,640003,55.4357825,65.3033746
12,улица Сухэ-Батора,640003,55.4344399,65.3045292
61,улица Коли Мяготина,640003,55.4338625,65.3050700
3,улица Тимофея Невежина,640003,55.4305195,65.3014797
14,улица Сухэ-Батора,640003,55.4345728,65.3030505
10,улица Свердлова,640003,55.4281939,65.3044374
8,улица Свердлова,640003,55.4279843,65.3038395
20,улица Свердлова,640003,55.4287261,65.3060797
6,улица Свердлова,640003,55.4277726,65.3032616
24,улица Свердлова,640003,55.4289340,65.3067081
16,улица Свердлова,640003,55.4285153,65.3054990
12,улица Свердлова,640003,55.4270000,65.3044756
10,улица Кремлёва,640003,55.4313965,65.3048625
8,улица Кремлёва,640003,55.4308757,65.3051832
132,улица Бажова,640008,55.4260183,65.2981460
66,Красномаячная улица,640008,55.4265154,65.3036161
6,улица Кремлёва,640003,55.4304841,65.3050344
24А,улица Свердлова,640003,55.4295832,65.3075807
42,улица Коли Мяготина,640003,55.4324836,65.3041243
11,улица Свердлова,640003,55.4306314,65.3084081
46,улица Коли Мяготина,640003,55.4338855,65.3065460
11,улица Сухэ-Батора,640003,55.4327545,65.3048461
144,улица Бажова,640008,55.4272582,65.3023772
2,улица Кремлёва,640003,55.4295522,65.3056414
19,улица Войкова,640003,55.4321729,65.3100126
4,Профсоюзная улица,640008,55.4240221,65.2957497
9,улица Свердлова,640003,55.4305439,65.3075485
7,улица Свердлова,640003,55.4301937,65.3070100
44,улица Коли Мяготина,640003,55.4335088,65.3054513
12,улица Кремлёва,640003,55.4316670,65.3043244
49А,Галкинская улица,640008,55.4232529,65.2978533
1,улица Сухэ-Батора,640003,55.4311295,65.3076334
49,Красномаячная улица,640008,55.4243426,65.2973462
6А,улица Кремлёва,640003,55.4306934,65.3058317
15,улица Свердлова,640003,55.4316767,65.3099845
23,улица Войкова,640003,55.4337189,65.3074901
50,Красномаячная улица,640008,55.4236190,65.2972997
13,улица Свердлова,640003,55.4312435,65.3090835
7,Песчаный переулок,640008,55.4250880,65.2978521
44А,улица Коли Мяготина,640003,55.4332709,65.3064729
10,улица Победы,640003,55.4312283,65.3063300
7,улица Сухэ-Батора,640003,55.4322245,65.3057838
21,Интернациональная улица,640003,55.4322203,65.3090863
5,улица Сухэ-Батора,640003,55.4319706,65.3061402
53,Галкинская улица,640008,55.4240636,65.3007133
4,улица Сухэ-Батора,640003,55.4316738,65.3078682
9,улица Сухэ-Батора,640003,55.4325040,65.3053451
21,улица Войкова,640003,55.4329874,65.3086579
5,улица Свердлова,640003,55.4297528,65.3064778
6,улица Сухэ-Батора,640003,55.4321752,65.3070395
14,улица Свердлова,640003,55.4275319,65.3052440
4А,Профсоюзная улица,640008,55.4231459,65.2968159
71,Галкинская улица,640008,55.4230673,65.2985209
9,улица Победы,640003,55.4317076,65.3056393
4А,улица Кремлёва,640003,55.4302005,65.3061888
8,улица Сухэ-Батора,640003,55.4328372,65.3061033
18,улица Тимофея Невежина,640003,55.4332206,65.3005319
16,улица Сухэ-Батора,640003,55.4347396,65.3020863
8А,Садовая улица,640004,55.4462226,65.3093880
2Б,улица Отдыха,640004,55.4455021,65.3110311
4Б,улица Отдыха,640004,55.4459236,65.3120790
3,Озёрная улица,640004,55.4447764,65.3122820
1,улица Гагарина,640011,55.4486888,65.3893534
41Д,улица Гагарина,640015,55.4628257,65.4114272
37 к1,улица Гагарина,640015,55.4573941,65.4049275
41Б,улица Гагарина,640015,55.4619177,65.4107763
41 с14,улица Гагарина,640015,55.4618755,65.4102711
11А,улица Гагарина,640011,55.4499593,65.3930812
41 с12,улица Гагарина,640015,55.4606137,65.4116560
61,улица Достоевского,640011,55.4615728,65.3754637
57,улица Достоевского,640011,55.4608247,65.3741124
59,улица Достоевского,640011,55.4612136,65.3747762
63,улица Достоевского,640011,55.4616154,65.3765099
65,улица Достоевского,640011,55.4620113,65.3773867
123,улица Герцена,640011,55.4626073,65.3847481
72,улица Достоевского,640011,55.4630566,65.3804873
95,улица Макаренко,640011,55.4622130,65.3827218
87,улица Котовского,640011,55.4607393,65.3804143
72А,улица Достоевского,640011,55.4625871,65.3812636
74,улица Достоевского,640011,55.4635248,65.3820343
70,улица Достоевского,640011,55.4624635,65.3791548
76,улица Достоевского,640011,55.4629587,65.3815138
78,улица Достоевского,640011,55.4639809,65.3818537
88,улица Котовского,640011,55.4609089,65.3812930
96,улица Макаренко,640011,55.4623462,65.3835677
104,улица Фрунзе,640011,55.4645907,65.3844698
70А,улица Достоевского,640011,55.4623366,65.3807903
56Б,улица Карбышева,640014,55.5002815,65.3103355
42,улица Володарского,640002,55.4390221,65.3426572
41 с38,улица Гагарина,640015,55.4622220,65.4127111
44,Станционная улица,640000,55.4434615,65.3324375
14,улица Черняховского,640014,55.4970418,65.3205528
20,улица Перова,640014,55.4977781,65.3192353
16,улица Черняховского,640014,55.4974458,65.3205263
16,улица Черняховского,640014,55.4979560,65.3209267
11,Солнечный бульвар,640032,55.4165375,65.2754244
10,Солнечный бульвар,640008,55.4173321,65.2775955
9,Солнечный бульвар,640008,55.4178716,65.2800514
1,Солнечный бульвар,640008,55.4181450,65.2819828
4,Солнечный бульвар,640008,55.4185273,65.2835132
17,Солнечный бульвар,640008,55.4148167,65.2811097
13,Солнечный бульвар,640008,55.4161982,65.2817036
14,Солнечный бульвар,640008,55.4157949,65.2810221
6,Солнечный бульвар,640008,55.4168138,65.2838392
6,Солнечный бульвар,640008,55.4164151,65.2833754
37,Новогалкинская улица,640008,55.4221723,65.2958426
91,Чернореченская улица,640014,55.4869333,65.3204745
99,Чернореченская улица,640014,55.4878394,65.3235164
101,Чернореченская улица,640014,55.4882357,65.3249170
54,улица Карбышева,640014,55.4993619,65.3102143
58,улица Карбышева,640014,55.5030433,65.3103478
60,улица Карбышева,640014,55.5035966,65.3111947
62,улица Карбышева,640014,55.5034177,65.3130401
54,улица Дзержинского,640007,55.4581407,65.3502920
21,улица Чапаева,640007,55.4497310,65.3235024
19,Краснодонская улица,640008,55.4229771,65.2537875
5,улица Алексеева,640023,55.4722851,65.2535866
5 к1,улица Алексеева,640023,55.4725075,65.2541999
56А,улица Карбышева,640014,55.5031795,65.3144933
66,улица Карбышева,640014,55.5035250,65.3148532
56,улица Карбышева,640014,55.5017883,65.3112333
56В,улица Карбышева,640014,55.5025360,65.3105910
56/1,улица Карбышева,640014,55.5025703,65.3101982
26,Станционная улица,640000,55.4423090,65.3267187
1А,Троицкая площадь,640018,55.4359145,65.3552868
1,улица Пирогова,640014,55.5017724,65.3137241
7,улица Пирогова,640014,55.5022843,65.3129901
5,улица Пирогова,640014,55.5023001,65.3135701
11,улица Пирогова,640014,55.5031083,65.3123346
9,улица Пирогова,640014,55.5027213,65.3126036
3,улица Пирогова,640014,55.5015718,65.3128855
13,улица Пирогова,640014,55.5024837,65.3142564
15,улица Пирогова,640014,55.5023541,65.3149614
15А,улица Пирогова,640014,55.5019678,65.3146320
56А,улица Карбышева,640014,55.5033329,65.3148738
6,проспект Маршала Голикова,640023,55.4718687,65.2922079
64,улица Добролюбова,640014,55.5002144,65.3249628
66А,улица Гоголя,640018,55.4425678,65.3471408
39,улица Карбышева,640014,55.5036712,65.3080829
39,улица Карбышева,640014,55.5034710,65.3067128
5,Солнечный бульвар,640008,55.4173248,65.2831718
15,улица Куйбышева,640000,55.4312436,65.3402689
10,улица Гоголя,640020,55.4338564,65.3292632
128/1,улица Гоголя,640022,55.4523786,65.3673300
12А,Солнечный бульвар,640032,55.4161517,65.2765682
8,Солнечный бульвар,640008,55.4173545,65.2804275
21,Солнечный бульвар,640008,55.4189563,65.2853020
20 с3,Солнечный бульвар,640008,55.4169948,65.2852965
1Б,улица Кулибина,640014,55.4895393,65.2942302
4Б,улица 9 Мая,640014,55.4874459,65.2938754
4Б к1,улица 9 Мая,640014,55.4873611,65.2931492
4В,улица 9 Мая,640014,55.4867528,65.2930520
76А,улица Достоевского,640011,55.4633501,65.3825803
187Б,улица Куйбышева,640006,55.4468508,65.3847521
45,Станционная улица,640000,55.4444991,65.3315943
47,Станционная улица,640000,55.4447792,65.3325473
19А,улица 1 Мая,640000,55.4351429,65.3116312
36,улица Урицкого,640000,55.4365837,65.3373356
39А,проспект Конституции,640008,55.4169821,65.2451889
15 к7,Солнечный бульвар,640008,55.4151908,65.2777387
15 к6,Солнечный бульвар,640008,55.4153448,65.2770046
15 к8,Солнечный бульвар,640008,55.4150669,65.2782024
31А/1,проспект Конституции,640008,55.4145367,65.2415235
15 к5,Солнечный бульвар,640008,55.4143548,65.2771816
15 к4,Солнечный бульвар,640008,55.4144897,65.2770296
15,Солнечный бульвар,640008,55.4142398,65.2774115
15 к3,Солнечный бульвар,640008,55.4147788,65.2770184
16,Солнечный бульвар,640008,55.4142282,65.2783424
61,улица Красина,640000,55.4371718,65.3290117
12,Станционная улица,640000,55.4404170,65.3201267
14,Станционная улица,640000,55.4406010,65.3207282
60А,улица Кирова,640000,55.4345193,65.3380447
28,улица Карла Маркса,640000,55.4348719,65.3385923
80,улица Кирова,640000,55.4364558,65.3351729
22,улица Перова,640014,55.4986445,65.3192875
144Г,улица Куйбышева,640022,55.4457777,65.3843745
144 с33,улица Куйбышева,640022,55.4428005,65.3828537
30,улица Савельева,640022,55.4420876,65.3616715
30Б,улица Савельева,640022,55.4423058,65.3618949
71,Советская улица,640000,55.4359975,65.3472751
73,Советская улица,640000,55.4360075,65.3474660
89,улица Коли Мяготина,640000,55.4369836,65.3191873
137/3,Омская улица,640027,55.4579899,65.3577617
137/1,Омская улица,640027,55.4575575,65.3582775
137,Омская улица,640027,55.4573819,65.3580833
137/2,Омская улица,640027,55.4573756,65.3588845
1А,Сибирская улица,640022,55.4397931,65.3627678
176,улица Коли Мяготина,640002,55.4498925,65.3561174
155,улица Гоголя,640022,55.4492728,65.3570121
2,улица Плеханова,640004,55.4639498,65.2928815
20,улица Плеханова,640004,55.4641239,65.2949749
19,улица Мечникова,640004,55.4631478,65.2952576
90А,Советская улица,640000,55.4352580,65.3482554
119Б,улица Кирова,640000,55.4412549,65.3249204
97Б,улица Карла Маркса,640018,55.4412030,65.3504992
13,Техническая улица,640008,55.4211028,65.2496924
13А,Станционная улица,640000,55.4420557,65.3213810
52А,Станционная улица,640000,55.4452070,65.3352918
4,улица Коли Мяготина,640003,55.4268360,65.2784201
51,улица Коли Мяготина,640003,55.4314519,65.2959176
55А,улица Коли Мяготина,640003,55.4335135,65.3020511
78,улица Климова,640000,55.4342689,65.3529504
7,улица Сергея Васильева,640000,55.4357958,65.3219938
7,улица Сергея Васильева,640000,55.4359240,65.3217402
83,улица Бажова,640032,55.4247438,65.2907499
83,улица Бажова,640032,55.4245355,65.2898801
116,улица Бажова,640032,55.4237639,65.2910590
12,2-я Часовая улица,640008,55.4342190,65.2695800
30,улица Кравченко,640022,55.4435555,65.3638240
25,Солнечный бульвар,640008,55.4176466,65.2741849
25 к1,Солнечный бульвар,640008,55.4173594,65.2731543
25 к2,Солнечный бульвар,640008,55.4180000,65.2730141
26 к4,Солнечный бульвар,640008,55.4186744,65.2726319
26 к3,Солнечный бульвар,640008,55.4179678,65.2722883
26 к2,Солнечный бульвар,640008,55.4178335,65.2712718
129А,улица Гоголя,640000,55.4455324,65.3521116
67,Пролетарская улица,640000,55.4469639,65.3445937
71,Пролетарская улица,640000,55.4474717,65.3438657
173,улица Коли Мяготина,640000,55.4469453,65.3471540
64,Станционная улица,640000,55.4476049,65.3429508
78,Пролетарская улица,640000,55.4469017,65.3462036
183А,улица Гоголя,640022,55.4510213,65.3630463
179,Советская улица,640022,55.4442415,65.3646529
179/1,Советская улица,640022,55.4436611,65.3634513
179,Советская улица,640022,55.4438148,65.3632804
34,улица Гоголя,640000,55.4362420,65.3339273
79,улица Кирова,640000,55.4364037,65.3343168
50,улица Володарского,640000,55.4401591,65.3384587
108,улица Пушкина,640000,55.4405135,65.3387240
53,улица Гоголя,640000,55.4397871,65.3393097
55,улица Гоголя,640000,55.4402640,65.3402003
55А,улица Гоголя,640000,55.4407557,65.3396314
38,Комсомольская улица,640002,55.4416401,65.3418992
61,улица Гоголя,640002,55.4413896,65.3425163
27,улица Ленина,640002,55.4422726,65.3428318
83,улица Гоголя,640002,55.4417909,65.3433937
38,улица Гоголя,640002,55.4371997,65.3358976
36,улица Гоголя,640002,55.4368729,65.3352140
36,улица Ленина,640002,55.4421952,65.3443652
72,улица Гоголя,640018,55.4426754,65.3479769
70,улица Гоголя,640018,55.4423966,65.3473902
65,Пролетарская улица,640002,55.4465499,65.3455724
159,улица Коли Мяготина,640002,55.4447456,65.3425958
155,улица Коли Мяготина,640002,55.4444615,65.3419942
46,улица Орлова,640022,55.4478239,65.3671798
96,улица Карла Маркса,640022,55.4484722,65.3674160
98,улица Карла Маркса,640022,55.4489291,65.3684076
26,Пролетарская улица,640018,55.4414604,65.3540427
21,улица Савельева,640018,55.4433734,65.3584208
80,улица Карла Маркса,640018,55.4436865,65.3570620
157,улица Максима Горького,640018,55.4430430,65.3581349
23,улица Савельева,640018,55.4438344,65.3577621
19,улица Савельева,640018,55.4426069,65.3596593
19/1,улица Савельева,640018,55.4428349,65.3593075
155А,Советская улица,640018,55.4418610,65.3595543
45А,улица Савельева,640002,55.4482357,65.3511233
45,улица Савельева,640002,55.4479809,65.3515416
56,улица Володарского,640001,55.4419420,65.3358173
131А,улица Коли Мяготина,640001,55.4417876,65.3363582
107А,улица Гоголя,640002,55.4438057,65.3464499
203,улица Пушкина,640002,55.4458621,65.3489010
201,улица Пушкина,640002,55.4460273,65.3492567
3,улица Кремлёва,640003,55.4301844,65.3042955
1А,улица Свердлова,640003,55.4290954,65.3044536
4,улица Победы,640003,55.4304520,65.3035801
3А,улица Сухэ-Батора,640003,55.4317758,65.3064590
3,улица Сухэ-Батора,640003,55.4315348,65.3068576
64/1,улица Радионова,640003,55.4390543,65.3150415
64,улица Радионова,640003,55.4388209,65.3151495
125,улица Коли Мяготина,640001,55.4401606,65.3330103
80,улица Томина,640002,55.4369787,65.3387788
2,Тенистая улица,640023,55.4885259,65.2213146
14,Тенистая улица,640023,55.4894814,65.2244382
13,Таёжная улица,640023,55.4892217,65.2247464
11,Таёжная улица,640023,55.4890214,65.2242021
10,Тенистая улица,640023,55.4891495,65.2233667
4А,Тенистая улица,640023,55.4884285,65.2221292
5,Таёжная улица,640023,55.4881854,65.2230281
1А,Таёжная улица,640023,55.4880355,65.2216215
5А,Таёжная улица,640023,55.4883724,65.2227484
8,Тенистая улица,640023,55.4889256,65.2227853
12,Тенистая улица,640023,55.4893502,65.2240318
9,Таёжная улица,640023,55.4888797,65.2237550
7,Таёжная улица,640023,55.4882215,65.2235760
8А,Тенистая улица,640023,55.4887263,65.2231391
6А,Тенистая улица,640023,55.4885627,65.2225627
3,Июльская улица,640023,55.4874891,65.2234936
1,Июльская улица,640023,55.4873517,65.2231241
5,Майская улица,640023,55.4870140,65.2248017
1,Майская улица,640023,55.4867688,65.2239879
8,Таёжная улица,640023,55.4880910,65.2244657
4,Июльская улица,640023,55.4871848,65.2240724
6,Июльская улица,640023,55.4873432,65.2245401
6А,Таёжная улица,640023,55.4878919,65.2239447
2,Таёжная улица,640023,55.4876172,65.2227458
6,Таёжная улица,640023,55.4879203,65.2236494
2,Июльская улица,640023,55.4870887,65.2236390
9,Июльская улица,640023,55.4879761,65.2252914
3,Майская улица,640023,55.4868867,65.2243574
7,Майская улица,640023,55.4870483,65.2251333
5,Июльская улица,640023,55.4876405,65.2240752
4,Таёжная улица,640023,55.4877943,65.2232517
7,Июльская улица,640023,55.4878739,65.2245029
11,Июльская улица,640023,55.4881961,65.2256323
15,Таёжная улица,640023,55.4893429,65.2251365
19,Июльская улица,640023,55.4887941,65.2279335
13,Июльская улица,640023,55.4882693,65.2262463
22А,Тенистая улица,640023,55.4898981,65.2267255
15,Июльская улица,640023,55.4884408,65.2267880
21А,Таёжная улица,640023,55.4896119,65.2271284
23А,Таёжная улица,640023,55.4898191,65.2274251
22Б,Тенистая улица,640023,55.4900698,65.2272314
19,Таёжная улица,640023,55.4891468,65.2267646
22,Тенистая улица,640023,55.4901600,65.2265645
21,Таёжная улица,640023,55.4893477,65.2273687
70,Тенистая улица,640023,55.4876502,65.2405210
57,Июльская улица,640023,55.4865701,65.2390372
72Б,Тенистая улица,640023,55.4873577,65.2413409
59А,Июльская улица,640023,55.4866040,65.2398663
57А,Июльская улица,640023,55.4868005,65.2393051
57Б,Июльская улица,640023,55.4870655,65.2396581
72,Тенистая улица,640023,55.4874985,65.2410471
59В,Июльская улица,640023,55.4869463,65.2405123
57В,Июльская улица,640023,55.4871948,65.2398566
57Г,Июльская улица,640023,55.4874531,65.2402234
72А,Тенистая улица,640023,55.4871656,65.2408693
55А,Июльская улица,640023,55.4869932,65.2389137
53,Июльская улица,640023,55.4870977,65.2379188
68,Тенистая улица,640023,55.4879334,65.2399147
55Б,Июльская улица,640023,55.4872378,65.2392591
24,Карьерная улица,640023,55.4881972,65.2394228
18,Карьерная улица,640023,55.4875569,65.2385593
55В,Июльская улица,640023,55.4875161,65.2391665
22,Карьерная улица,640023,55.4879690,65.2390967
20,Карьерная улица,640023,55.4877558,65.2388478
55,Июльская улица,640023,55.4868898,65.2383787
35,Карьерная улица,640023,55.4876296,65.2377944
41,Карьерная улица,640023,55.4883483,65.2388782
39,Карьерная улица,640023,55.4881170,65.2384483
51А,Июльская улица,640023,55.4878432,65.2373185
51Б,Июльская улица,640023,55.4881098,65.2376755
37,Карьерная улица,640023,55.4878956,65.2381804
51,Июльская улица,640023,55.4875233,65.2368615
40,Усадебная улица,640023,55.4882729,65.2364706
60,Тенистая улица,640023,55.4888388,65.2380617
38,Усадебная улица,640023,55.4879812,65.2360093
49,Июльская улица,640023,55.4877530,65.2364479
46А,Усадебная улица,640023,55.4889746,65.2375699
49Б,Июльская улица,640023,55.4882217,65.2371463
49А,Июльская улица,640023,55.4880318,65.2368824
42,Усадебная улица,640023,55.4885145,65.2367427
24,Тенистая улица,640023,55.4905207,65.2276332
26А,Тенистая улица,640023,55.4902769,65.2278350
23,Таёжная улица,640023,55.4895908,65.2276619
25А,Таёжная улица,640023,55.4900203,65.2280641
25,Таёжная улица,640023,55.4898017,65.2283235
28А,Тенистая улица,640023,55.4903959,65.2282545
30А,Тенистая улица,640023,55.4905309,65.2289158
28,Тенистая улица,640023,55.4905908,65.2281275
29,Таёжная улица,640023,55.4900315,65.2292099
29А,Таёжная улица,640023,55.4902512,65.2290720
30,Тенистая улица,640023,55.4907952,65.2286527
43А,Таёжная улица,640023,55.4905281,65.2325558
39,Таёжная улица,640023,55.4902924,65.2313575
33А,Таёжная улица,640023,55.4905907,65.2296402
38,Тенистая улица,640023,55.4910151,65.2314703
35,Таёжная улица,640023,55.4902466,65.2302691
34,Тенистая улица,640023,55.4910453,65.2301572
39А,Таёжная улица,640023,55.4906710,65.2314124
33,Таёжная улица,640023,55.4901308,65.2299077
37А,Таёжная улица,640023,55.4907935,65.2307601
40,Тенистая улица,640023,55.4910389,65.2321653
41,Таёжная улица,640023,55.4902417,65.2318948
43,Таёжная улица,640023,55.4901606,65.2323567
40А,Тенистая улица,640023,55.4906361,65.2320488
37,Таёжная улица,640023,55.4902886,65.2309528
32,Тенистая улица,640023,55.4907807,65.2293018
36,Тенистая улица,640023,55.4911991,65.2305643
41,Июльская улица,640023,55.4887078,65.2339352
48А,Тенистая улица,640023,55.4900371,65.2342437
49,Таёжная улица,640023,55.4897854,65.2340248
47,Таёжная улица,640023,55.4898612,65.2333309
50Б,Тенистая улица,640023,55.4899434,65.2351693
46А,Тенистая улица,640023,55.4901194,65.2338587
48,Тенистая улица,640023,55.4902402,65.2346624
45,Таёжная улица,640023,55.4900483,65.2329097
50А,Тенистая улица,640023,55.4897653,65.2344721
44,Тенистая улица,640023,55.4907478,65.2334202
50,Тенистая улица,640023,55.4901978,65.2351080
51,Таёжная улица,640023,55.4894424,65.2342383
35,улица Суховарова,640023,55.4897226,65.2358967
46,Тенистая улица,640023,55.4905349,65.2340412
33,улица Суховарова,640023,55.4895791,65.2354577
46,Усадебная улица,640023,55.4887850,65.2371020
33,Усадебная улица,640023,55.4886707,65.2362476
35,Усадебная улица,640023,55.4889309,65.2366153
31,Усадебная улица,640023,55.4884054,65.2358449
37,Усадебная улица,640023,55.4892626,65.2371204
21,Июльская улица,640023,55.4890956,65.2288630
36,Таёжная улица,640023,55.4896762,65.2294269
23,Июльская улица,640023,55.4892777,65.2294630
34,Таёжная улица,640023,55.4895294,65.2291599
32,Таёжная улица,640023,55.4892646,65.2280545
25,Июльская улица,640023,55.4894020,65.2299299
17,Июльская улица,640023,55.4886724,65.2271655
29,Июльская улица,640023,55.4894987,65.2304261
40,Таёжная улица,640023,55.4899985,65.2307655
42,Таёжная улица,640023,55.4900107,65.2312232
44,Таёжная улица,640023,55.4899702,65.2317943
35,Июльская улица,640023,55.4895927,65.2319703
31,Июльская улица,640023,55.4896279,65.2309950
10,Июльская улица,640023,55.4876300,65.2255835
39,Июльская улица,640023,55.4889418,65.2335130
13А,Майская улица,640023,55.4873063,65.2264558
50,Таёжная улица,640023,55.4894706,65.2334606
52,Таёжная улица,640023,55.4891828,65.2340191
12,Июльская улица,640023,55.4877436,65.2259524
12А,Июльская улица,640023,55.4875497,65.2261870
10А,Июльская улица,640023,55.4873921,65.2256895
16,Июльская улица,640023,55.4881173,65.2270735
14,Июльская улица,640023,55.4879376,65.2264744
15А,Майская улица,640023,55.4874538,65.2269691
9,улица Суховарова,640023,55.4864443,65.2274891
11,улица Суховарова,640023,55.4866136,65.2279842
8,Майская улица,640023,55.4862140,65.2264616
13,улица Суховарова,640023,55.4867452,65.2284500
10,Майская улица,640023,55.4864126,65.2265115
12,Майская улица,640023,55.4868197,65.2271338
14,Майская улица,640023,55.4869894,65.2277437
2А,Майская улица,640023,55.4861854,65.2246849
22,Июльская улица,640023,55.4887757,65.2292809
20,Июльская улица,640023,55.4884361,65.2282555
19,Майская улица,640023,55.4881461,65.2285676
2,Майская улица,640023,55.4864346,65.2246066
8,улица Куксилова,640023,55.4879670,65.2279219
18,Июльская улица,640023,55.4883084,65.2278319
26,Июльская улица,640023,55.4890706,65.2302832
25,Майская улица,640023,55.4884151,65.2295079
24,Июльская улица,640023,55.4889453,65.2297749
6,Майская улица,640023,55.4864504,65.2253477
33,Майская улица,640023,55.4887659,65.2318720
28,Июльская улица,640023,55.4892090,65.2307905
28Б,Июльская улица,640023,55.4890534,65.2322662
31,Майская улица,640023,55.4888264,65.2313335
30,Июльская улица,640023,55.4885752,65.2330833
32,Июльская улица,640023,55.4884445,65.2335568
28В,Июльская улица,640023,55.4887401,65.2327322
2В,улица Суховарова,640023,55.4856822,65.2265151
1,Усадебная улица,640023,55.4848567,65.2270283
6А,Карьерная улица,640023,55.4859375,65.2352954
8,Карьерная улица,640023,55.4863968,65.2361732
8А,Карьерная улица,640023,55.4862509,65.2362983
8Б,Карьерная улица,640023,55.4860680,65.2364519
4А,Карьерная улица,640023,55.4857071,65.2349205
6,Карьерная улица,640023,55.4862367,65.2354802
44,Июльская улица,640023,55.4867392,65.2371710
4,Карьерная улица,640023,55.4859453,65.2347148
48,Июльская улица,640023,55.4860716,65.2375995
2А,Карьерная улица,640023,55.4855572,65.2343054
9,Лучистая улица,640023,55.4860260,65.2373638
2Б,Карьерная улица,640023,55.4853552,65.2344425
6В,Карьерная улица,640023,55.4858267,65.2354985
8В,Карьерная улица,640023,55.4857007,65.2363007
12А,улица Тельмана,640008,55.4208956,65.2738080
3А,переулок Спартака,640008,55.4205287,65.2758827
93,улица Бажова,640032,55.4252786,65.2929221
2А,Керамзитный,640037,55.4139261,65.4315244
79,улица 9 Мая,640014,55.4905587,65.3113996
98,улица Пушкина,640002,55.4392881,65.3362595
104,улица Пушкина,640002,55.4396150,65.3369411
106,улица Пушкина,640002,55.4397274,65.3378532
24,улица Димитрова,640014,55.4931316,65.3188547
28,улица Димитрова,640014,55.4933810,65.3192846
25,улица Богдана Хмельницкого,640014,55.4928653,65.3179388
26,улица Димитрова,640014,55.4932104,65.3193797
23,улица Богдана Хмельницкого,640014,55.4930057,65.3183035
29,улица Богдана Хмельницкого,640014,55.4931290,65.3181963
19,улица Богдана Хмельницкого,640014,55.4924661,65.3182288
20,улица Димитрова,640014,55.4930075,65.3194948
24,улица Салавата Юлаева,640014,55.4935983,65.3177423
21,улица Богдана Хмельницкого,640014,55.4926638,65.3180293
21А,улица Богдана Хмельницкого,640014,55.4927941,65.3184686
30,улица Салавата Юлаева,640014,55.4937884,65.3186537
33,улица Богдана Хмельницкого,640014,55.4933156,65.3176106
32,улица Салавата Юлаева,640014,55.4938484,65.3189411
23,улица Огарёва,640014,55.4925379,65.3185851
31,улица Богдана Хмельницкого,640014,55.4933800,65.3180382
27,улица Богдана Хмельницкого,640014,55.4930627,65.3177578
29,улица Огарёва,640014,55.4927195,65.3194026
28,улица Салавата Юлаева,640014,55.4937330,65.3183361
27,улица Огарёва,640014,55.4926567,65.3190821
22,улица Салавата Юлаева,640014,55.4935528,65.3175266
149,улица Пушкина,640000,55.4413021,65.3391825
1,Таёжная улица,640023,55.4877951,65.2221258
4,Тенистая улица,640023,55.4886807,65.2218607
3,Таёжная улица,640023,55.4879311,65.2226641
2А,Тенистая улица,640023,55.4884044,65.2209621
6,Тенистая улица,640023,55.4888593,65.2223369
1Б,Таёжная улица,640023,55.4882823,65.2214044
21,улица Куксилова,640023,55.4898464,65.2254920
2,улица Суховарова,640023,55.4854980,65.2260343
38А,Тенистая улица,640023,55.4914983,65.2315074
38Б,Тенистая улица,640023,55.4914765,65.2320479
48,Таёжная улица,640023,55.4896561,65.2329881
40Б,Тенистая улица,640023,55.4908822,65.2319381
4В,Карьерная улица,640023,55.4860905,65.2351501
46,Таёжная улица,640023,55.4898636,65.2324018
20А,Июльская улица,640023,55.4885848,65.2288052
14А,Июльская улица,640023,55.4876910,65.2267752
10,Карьерная улица,640023,55.4865446,65.2367454
1,улица Суховарова,640023,55.4857955,65.2254084
38,Таёжная улица,640023,55.4897850,65.2302301
5,Лучистая улица,640023,55.4855632,65.2356334
9,Майская улица,640023,55.4871310,65.2259402
59Б,Июльская улица,640023,55.4867549,65.2401684
2,Карьерная улица,640023,55.4858037,65.2340674
79,Урожайная улица,640015,55.4614294,65.4175573
85,Урожайная улица,640015,55.4618157,65.4184547
82А,Урожайная улица,640015,55.4616110,65.4195448
88,Урожайная улица,640015,55.4618026,65.4192661
82,Урожайная улица,640015,55.4613487,65.4182431
84А,Урожайная улица,640015,55.4614069,65.4198450
86,Урожайная улица,640015,55.4616288,65.4188347
9,Фестивальная улица,640040,55.3486075,65.2306066
21,Фестивальная улица,640040,55.3483369,65.2334962
13,Фестивальная улица,640040,55.3483265,65.2317317
1,Фестивальная улица,640040,55.3482975,65.2288952
7,Фестивальная улица,640040,55.3485589,65.2303618
11,Фестивальная улица,640040,55.3482925,65.2311807
17,Фестивальная улица,640040,55.3482982,65.2326005
19,Фестивальная улица,640040,55.3483477,65.2330851
3,Фестивальная улица,640040,55.3483107,65.2292437
5,Фестивальная улица,640040,55.3482970,65.2298076
30,Пихтовая улица,640040,55.3565366,65.2293914
18А,Полевая улица,640040,55.3583969,65.2353354
14А,Тихая улица,640040,55.3577609,65.2340760
18,Полевая улица,640040,55.3582926,65.2356328
20,Полевая улица,640040,55.3585771,65.2337292
30,Полевая улица,640040,55.3589744,65.2362583
20Г,Полевая улица,640040,55.3582760,65.2327346
132Д,Омская улица,640007,55.4726338,65.3787395
132Е,Омская улица,640007,55.4726647,65.3789148
26,улица Свердлова,640003,55.4297165,65.3080755
26,Солнечный бульвар,640008,55.4190236,65.2711925
26 к6,Солнечный бульвар,640008,55.4183743,65.2716340
26 к1,Солнечный бульвар,640008,55.4183459,65.2708420
26 к5,Солнечный бульвар,640008,55.4191838,65.2721054
18,Солнечный бульвар,640008,55.4168458,65.2780067
15 к2,Солнечный бульвар,640008,55.4149533,65.2773996
15 к1,Солнечный бульвар,640008,55.4146372,65.2775931
70,улица Куйбышева,640018,55.4376143,65.3558282
72,улица Куйбышева,640018,55.4379998,65.3566607
107А,Советская улица,640018,55.4386523,65.3529176
58,улица Савельева,640022,55.4473852,65.3538325
133,улица Гоголя,640022,55.4469852,65.3545096
8,16-й микрорайон,640023,55.4793418,65.2817476
10,16-й микрорайон,640023,55.4788657,65.2810934
11,16-й микрорайон,640023,55.4793481,65.2806159
2,16-й микрорайон,640023,55.4804649,65.2840800
31,улица Томина,640020,55.4331089,65.3436835
42,Советская улица,640020,55.4331265,65.3425423
44,Советская улица,640020,55.4334038,65.3431490
3,улица Климова,640020,55.4292281,65.3407000
197,улица Коли Мяготина,640000,55.4496501,65.3529188
129,улица Бажова,640032,55.4267380,65.2981097
13А,Ипподромная улица,640002,55.4505695,65.3525101
46,Пролетарская улица,640000,55.4435755,65.3512906
40,Пролетарская улица,640000,55.4434579,65.3520871
14/1,Половинская улица,640022,55.4480092,65.3808950
16А,Солнечный бульвар,640008,55.4145042,65.2792132
123,Чернореченская улица,640014,55.4913378,65.3324833
123В,Чернореченская улица,640014,55.4913278,65.3315975
123Б,Чернореченская улица,640014,55.4909655,65.3319770
127,Чернореченская улица,640014,55.4921946,65.3325670
127 к1,Чернореченская улица,640014,55.4917949,65.3337318
127 к2,Чернореченская улица,640014,55.4922641,65.3332820
6,улица Зайцева,640007,55.4472728,65.3207080
76А,улица Карла Маркса,640018,55.4425911,65.3543797
98А,улица Гоголя,640022,55.4490145,65.3604888
2,Режим аналитики представлений,640008,55.4185050,65.2825592
32,улица Максима Горького,640000,55.4327612,65.3377119
34,улица Максима Горького,640000,55.4330764,65.3383685
46А,улица Аргентовского,640022,55.4476848,65.3610916
31,улица Ленина,640002,55.4430424,65.3418706
126,улица Коли Мяготина,640002,55.4434086,65.3410062
37Б,Полевая улица,640014,55.4881516,65.2953789
4 с1,улица Тельмана,640008,55.4221205,65.2717073
88,улица Карла Маркса,640022,55.4468534,65.3637097
102,улица Урицкого,640018,55.4442965,65.3538383
36,улица Максима Горького,640020,55.4336348,65.3395146
52,улица Красина,640020,55.4339535,65.3348001
31,улица Карла Маркса,640000,55.4339746,65.3353667
3 с8,улица Тимофея Невежина,640003,55.4296360,65.3018667
1А,улица Тимофея Невежина,640003,55.4291567,65.3022224
3Д,улица Тимофея Невежина,640003,55.4293973,65.3021518
1Д,улица Тимофея Невежина,640003,55.4299465,65.3018304
3А,улица Тимофея Невежина,640003,55.4289859,65.3023277
8/1,улица Сухэ-Батора,640003,55.4332098,65.3055128
20,Солнечный бульвар,640008,55.4179725,65.2846818
22 к3,Солнечный бульвар,640008,55.4183952,65.2865188
22 к1,Солнечный бульвар,640008,55.4183091,65.2860961
20Б,Солнечный бульвар,640008,55.4176285,65.2852687
22,Солнечный бульвар,640008,55.4182676,65.2858873
22 к2,Солнечный бульвар,640008,55.4183526,65.2863105
23 к1,Солнечный бульвар,640008,55.4189402,65.2862942
24/1,Солнечный бульвар,640008,55.4190503,65.2868000
24/2,Солнечный бульвар,640008,55.4189308,65.2868764
24,Солнечный бульвар,640008,55.4191723,65.2867221
24/3,Солнечный бульвар,640008,55.4188177,65.2869481
23 к2,Солнечный бульвар,640008,55.4188203,65.2863702
23 к3,Солнечный бульвар,640008,55.4187095,65.2864414
23,Солнечный бульвар,640008,55.4190633,65.2862171
7,Солнечный бульвар,640008,55.4165614,65.2840578
8Б,Солнечный бульвар,640008,55.4172652,65.2792985
10/1,Солнечный бульвар,640008,55.4176217,65.2785770
56,улица Кравченко,640022,55.4443119,65.3629270
56/1,улица Савельева,640022,55.4464992,65.3549886
100/1,улица Томина,640002,55.4395342,65.3353609
98А,улица Коли Мяготина,640000,55.4382013,65.3302801
98,улица Коли Мяготина,640000,55.4383956,65.3308696
40А,улица Радионова,640003,55.4379567,65.3118212
91,улица Коли Мяготина,640000,55.4370959,65.3202400
91А,улица Коли Мяготина,640000,55.4371427,65.3208431
97А,улица Коли Мяготина,640000,55.4373162,65.3227746
99,улица Коли Мяготина,640000,55.4373629,65.3233695
89А/1,улица Коли Мяготина,640001,55.4378605,65.3194984
149 с9,улица Карла Маркса,640022,55.4518707,65.3693229
123А,Чернореченская улица,640014,55.4910351,65.3310827
7,улица Рихарда Зорге,640003,55.4341577,65.3141182
84А,улица Гоголя,640018,55.4447372,65.3514497
88А,улица Гоголя,640000,55.4459756,65.3538705
116А,улица Куйбышева,640022,55.4444078,65.3712179
56,Сибирская улица,640006,55.4419067,65.3719567
22,Сибирская улица,640006,55.4402508,65.3685602
78,улица Куйбышева,640006,55.4413690,65.3637152
76,улица Куйбышева,640006,55.4410854,65.3631302
18,улица Савельева,640006,55.4407122,65.3633982
155А,улица Куйбышева,640006,55.4459763,65.3739063
144 с37,улица Куйбышева,640006,55.4449953,65.3863241
6,16-й микрорайон,640023,55.4796575,65.2837191
24,Советская улица,640000,55.4317756,65.3399045
28А,улица Криволапова,640000,55.4281680,65.3204344
28,улица Криволапова,640000,55.4279449,65.3205201
27,Советская улица,640020,55.4303132,65.3347291
11,Пролетарская улица,640018,55.4390609,65.3563786
17,улица Панфилова,640004,55.4472148,65.3011590
144,улица Бажова,640008,55.4274497,65.3019240
8,11-й микрорайон,640023,55.4690171,65.2946763
508А/1,СНТ Малиновка,640023,55.4903722,65.2118021
100Б,улица Анфиногенова,640014,55.4887855,65.3178535
56,улица Гоголя,640000,55.4401968,65.3424601
56А,улица Коли Мяготина,640003,55.4358332,65.3148270
45,улица Кирова,640020,55.4304460,65.3431863
181,улица Коли Мяготина,640002,55.4485667,65.3502335
71,Набережная улица,640006,55.4395593,65.3716791
69,Набережная улица,640006,55.4393012,65.3714131
172,улица Климова,640006,55.4401202,65.3716554
168А,улица Климова,640006,55.4397412,65.3713757
159,улица Климова,640006,55.4402317,65.3711873
157,улица Климова,640006,55.4402733,65.3707838
3,улица Аргентовского,640006,55.4405613,65.3712874
1,улица Аргентовского,640006,55.4404304,65.3715877
4,улица Аргентовского,640006,55.4407427,65.3715077
8,улица Аргентовского,640006,55.4410829,65.3709227
46А,Сибирская улица,640006,55.4411848,65.3707404
6,улица Аргентовского,640006,55.4409321,65.3712168
174,улица Климова,640006,55.4402506,65.3719158
2,улица Аргентовского,640006,55.4405632,65.3718353
5,улица Аргентовского,640006,55.4407108,65.3710698
69А,Набережная улица,640006,55.4398324,65.3710348
168,улица Климова,640006,55.4400373,65.3714835
4А,Трактовая улица,640016,55.3817911,65.3801381
133,улица Молодёжи,640004,55.4637296,65.2921704
135,улица Молодёжи,640004,55.4641987,65.2920693
137,улица Молодёжи,640004,55.4646125,65.2919640
131,улица Молодёжи,640004,55.4634521,65.2922091
20,Комсомольская улица,640002,55.4358138,65.3493957
5,Станционная улица,640000,55.4402033,65.3185513
37,Симферопольская улица,640023,55.4865327,65.2504262
32,Артековская улица,640023,55.4868039,65.2494186
28,Артековская улица,640023,55.4865919,65.2488802
25,Керченская улица,640023,55.4853161,65.2477225
11,Приморская улица,640023,55.4854265,65.2481086
27,Керченская улица,640023,55.4857312,65.2473194
28,Керченская улица,640023,55.4858064,65.2477259
59,Июльская улица,640023,55.4862842,65.2395604
22,Фруктовая улица,640040,55.3573552,65.2316332
18,Пихтовая улица,640040,55.3564766,65.2289033
20,Пихтовая улица,640040,55.3566778,65.2289066
22,Пихтовая улица,640040,55.3569074,65.2289018
24,Пихтовая улица,640040,55.3571363,65.2289660
26,Пихтовая улица,640040,55.3569023,65.2293363
28,Пихтовая улица,640040,55.3566970,65.2293709
34,Пихтовая улица,640040,55.3568504,65.2304956
13,Фруктовая улица,640040,55.3567774,65.2317531
15,Фруктовая улица,640040,55.3569478,65.2315062
17,Фруктовая улица,640040,55.3571372,65.2312659
19,Фруктовая улица,640040,55.3573660,65.2307578
21,Фруктовая улица,640040,55.3574879,65.2310684
21,Полевая улица,640040,55.3581398,65.2334245
28,Полевая улица,640040,55.3588400,65.2355739
32,Полевая улица,640040,55.3592276,65.2360027
26,Полевая улица,640040,55.3587601,65.2350562
6,Туманная улица,640040,55.3572211,65.2337060
8,Туманная улица,640040,55.3574502,65.2334624
10,Туманная улица,640040,55.3576030,65.2333404
12,Туманная улица,640040,55.3577585,65.2331710
14,Туманная улица,640040,55.3579360,65.2329326
20Д,Полевая улица,640040,55.3580338,65.2323296
24,Полевая улица,640040,55.3587240,65.2345866
22,Полевая улица,640040,55.3586241,65.2342033
5,Угловая улица,640023,55.4842511,65.2355463
30ст1,улица Мостостроителей,640023,55.4854340,65.2227496
36,Симферопольская улица,640023,55.4886057,65.2494263
34,Ялтинская улица,640023,55.4891856,65.2496548
9,Крымский переулок,640023,55.4891087,65.2502482
30,Ялтинская улица,640023,55.4887575,65.2484221
33,Артековская улица,640023,55.4875455,65.2504038
36,Артековская улица,640023,55.4872327,65.2508635
29,Артековская улица,640023,55.4872567,65.2493328
2,Адмиральский переулок,640023,55.4874620,65.2482112
38,Артековская улица,640023,55.4873963,65.2514823
40,Артековская улица,640023,55.4874908,65.2517238
24,Симферопольская улица,640023,55.4866982,65.2512207
31,Керченская улица,640023,55.4867595,65.2464135
3,Адмиральский переулок,640023,55.4872829,65.2473479
5,Адмиральский переулок,640023,55.4874282,65.2472741
20,Ялтинская улица,640023,55.4872255,65.2464272
22,Артековская улица,640023,55.4862819,65.2479747
16,Приморская улица,640023,55.4853566,65.2494053
22,Приморская улица,640023,55.4856638,65.2504311
26,Приморская улица,640023,55.4858371,65.2510832
28А,Приморская улица,640023,55.4861231,65.2517091
28,Приморская улица,640023,55.4862107,65.2523907
30,Приморская улица,640023,55.4863599,65.2526989
32,Приморская улица,640023,55.4864479,65.2529226
15,Бахчисарайская улица,640023,55.4854809,65.2523527
17,Бахчисарайская улица,640023,55.4856865,65.2528827
21,Бахчисарайская улица,640023,55.4858746,65.2535775
33,Симферопольская улица,640023,55.4855288,65.2513958
13,Бахчисарайская улица,640023,55.4852915,65.2514288
9,Бахчисарайская улица,640023,55.4849831,65.2505211
5,Бахчисарайская улица,640023,55.4849561,65.2498131
2,Бахчисарайская улица,640023,55.4842133,65.2496918
23,Артековская улица,640023,55.4868424,65.2477511
28,Ялтинская улица,640023,55.4885067,65.2480445
19,улица Ленина,640000,55.4390889,65.3476481
45,Симферопольская улица,640023,55.4880893,65.2488662
1,Адмиральский переулок,640023,55.4870973,65.2475945
19,Артековская улица,640023,55.4865671,65.2469587
32,Керченская улица,640023,55.4869395,65.2462475
27,Артековская улица,640023,55.4871576,65.2489868
31,Артековская улица,640023,55.4874456,65.2496792
2А,Крымский переулок,640023,55.4885667,65.2518575
6,Крымский переулок,640023,55.4891523,65.2511356
8,Крымский переулок,640023,55.4893711,65.2510209
38,Ялтинская улица,640023,55.4895603,65.2508330
31,Морская улица,640023,55.4890451,65.2524450
33,Морская улица,640023,55.4892229,65.2524146
35,Морская улица,640023,55.4894360,65.2522089
46,Артековская улица,640023,55.4877441,65.2526120
27,Приморская улица,640023,55.4864993,65.2515427
37,Приморская улица,640023,55.4870339,65.2530108
43,Приморская улица,640023,55.4873010,65.2541114
25,Бахчисарайская улица,640023,55.4860813,65.2542418
15,Приморская улица,640023,55.4857046,65.2485958
21,Приморская улица,640023,55.4859246,65.2495320
25,Приморская улица,640023,55.4860793,65.2501318
20,Приморская улица,640023,55.4855637,65.2500521
12,Приморская улица,640023,55.4852037,65.2487747
35,Симферопольская улица,640023,55.4856088,65.2508456
4,Бахчисарайская улица,640023,55.4842696,65.2499292
6,Бахчисарайская улица,640023,55.4843511,65.2502649
12,Бахчисарайская улица,640023,55.4846290,65.2511444
14,Бахчисарайская улица,640023,55.4847142,65.2514298
29,Симферопольская улица,640023,55.4845639,65.2521235
27,Симферопольская улица,640023,55.4843228,65.2524553
27,улица Содружества,640023,55.4840015,65.2520875
25,улица Содружества,640023,55.4841929,65.2514118
23,улица Содружества,640023,55.4838624,65.2514714
17,улица Содружества,640023,55.4835838,65.2506048
17,Керченская улица,640023,55.4834474,65.2494927
18,Бахчисарайская улица,640023,55.4851481,65.2526591
20,Бахчисарайская улица,640023,55.4853530,65.2534376
45,улица Содружества,640023,55.4852217,65.2562045
41,улица Содружества,640023,55.4849938,65.2553033
39,улица Содружества,640023,55.4848590,65.2549288
33,улица Содружества,640023,55.4846214,65.2541168
31,улица Содружества,640023,55.4844267,65.2533547
16,Симферопольская улица,640023,55.4846203,65.2532185
20,улица Содружества,640023,55.4840320,65.2537922
22,улица Содружества,640023,55.4841253,65.2540075
24,улица Содружества,640023,55.4842433,65.2542459
26,улица Содружества,640023,55.4843256,65.2546608
15,Керченская улица,640023,55.4828696,65.2499356
4,улица Содружества,640023,55.4830388,65.2505096
11,Керченская улица,640023,55.4820623,65.2508472
12,Керченская улица,640023,55.4822054,65.2506911
10,Керченская улица,640023,55.4818685,65.2509901
10,улица Содружества,640023,55.4834336,65.2519436
12,улица Содружества,640023,55.4835453,65.2520449
11,улица Александра Демьяненко,640023,55.4841031,65.2556666
36,улица Содружества,640023,55.4848303,65.2563214
10,Туристическая улица,640023,55.4915635,65.2531192
27,Ялтинская улица,640023,55.4904831,65.2523326
31,Ялтинская улица,640023,55.4906787,65.2529958
39,Ялтинская улица,640023,55.4912110,65.2542508
40,Ялтинская улица,640023,55.4896889,65.2512519
41,Бахчисарайская улица,640023,55.4871791,65.2578106
37,Бахчисарайская улица,640023,55.4869822,65.2572618
35,Бахчисарайская улица,640023,55.4867773,65.2566665
28,Морская улица,640023,55.4857334,65.2565824
15,Симферопольская улица,640023,55.4825232,65.2540362
19,Симферопольская улица,640023,55.4828785,65.2538295
35,Угловая улица,640023,55.4819836,65.2440999
1,Угловая улица,640023,55.4846258,65.2351706
3,Угловая улица,640023,55.4844054,65.2354543
11,улица Содружества,640023,55.4825999,65.2475915
7,Бахчисарайская улица,640023,55.4851491,65.2500814
18,Симферопольская улица,640023,55.4847351,65.2530422
77,Июльская улица,640023,55.4826812,65.2459133
24,Морская улица,640023,55.4845576,65.2575812
10,улица Сергея Бондарчука,640023,55.4851805,65.2592740
56,улица Содружества,640023,55.4859888,65.2600643
25,улица Надежды Румянцевой,640023,55.4843331,65.2606350
12,Морская улица,640023,55.4829669,65.2594613
3,Морская улица,640023,55.4817449,65.2593717
35,улица Андрея Миронова,640023,55.4817749,65.2610057
40,улица Леонида Гайдая,640023,55.4829298,65.2623939
11,Морская улица,640023,55.4826955,65.2585466
9,улица Содружества,640023,55.4823945,65.2469254
18,Артековская улица,640023,55.4860673,65.2472365
34,Артековская улица,640023,55.4869295,65.2500033
6,Лучистая улица,640023,55.4852430,65.2367125
50,Июльская улица,640023,55.4859991,65.2382990
6,Капитанская улица,640023,55.4952457,65.2482461
12,Капитанская улица,640023,55.4956542,65.2491097
37,Июльская улица,640023,55.4894244,65.2325326
23,Фестивальная улица,640040,55.3483689,65.2340598
15,Фестивальная улица,640040,55.3483026,65.2319749
38,улица Суховарова,640023,55.4892838,65.2362756
40,улица Суховарова,640023,55.4895201,65.2366866
44,улица Содружества,640023,55.4852992,65.2579334
17,улица Александра Демьяненко,640023,55.4846069,65.2566116
42,Ялтинская улица,640023,55.4897897,65.2517146
3,улица Суховарова,640023,55.4860433,65.2252294
23,улица Надежды Румянцевой,640023,55.4841402,65.2603328
3,улица Сергея Бондарчука,640023,55.4843908,65.2591751
20,Морская улица,640023,55.4843481,65.2583597
11,улица Юрия Никулина,640023,55.4851085,65.2608357
1А,улица Суховарова,640023,55.4859361,65.2257992
44,улица Ленина,640000,55.4435125,65.3418722
84,Урожайная улица,640015,55.4614984,65.4185744
62,Тенистая улица,640023,55.4886738,65.2383963
105Б,Чернореченская улица,640014,55.4891942,65.3261574
20,улица Рихарда Зорге,640003,55.4327289,65.3166494
19,Солнечный бульвар,640032,55.4146583,65.2800471
4,Адмиральский переулок,640023,55.4876620,65.2480638
30,Симферопольская улица,640023,55.4880993,65.2502109
39,Артековская улица,640023,55.4879540,65.2514424
19,Приморская улица,640023,55.4858184,65.2492118
23,Приморская улица,640023,55.4860111,65.2498341
30,Артековская улица,640023,55.4866387,65.2491992
24,Артековская улица,640023,55.4863332,65.2482653
29,Керченская улица,640023,55.4859587,65.2470783
26,Керченская улица,640023,55.4854965,65.2473980
28,Симферопольская улица,640023,55.4870519,65.2509974
41,Артековская улица,640023,55.4881273,65.2521890
48,Приморская улица,640023,55.4876098,65.2569533
50,Приморская улица,640023,55.4876711,65.2573368
32,Бахчисарайская улица,640023,55.4859687,65.2554348
26,Бахчисарайская улица,640023,55.4855921,65.2543461
20,Симферопольская улица,640023,55.4849176,65.2528785
31,Симферопольская улица,640023,55.4847364,65.2520900
75,Июльская улица,640023,55.4829105,65.2459489
43,улица Содружества,640023,55.4851032,65.2555612
3,Бахчисарайская улица,640023,55.4846723,65.2496103
23,Бахчисарайская улица,640023,55.4859846,65.2538430
34,Приморская улица,640023,55.4865327,65.2533439
36,Приморская улица,640023,55.4866634,65.2536813
38,Приморская улица,640023,55.4867423,65.2539848
17,Симферопольская улица,640023,55.4827471,65.2539029
4,улица Леонида Быкова,640023,55.4825624,65.2533008
5,Причальная улица,640023,55.4936612,65.2500895
10,Круизная улица,640023,55.4945556,65.2502228
26,Артековская улица,640023,55.4864859,65.2486083
32,Ялтинская улица,640023,55.4889027,65.2490614
13,Керченская улица,640023,55.4824616,65.2505532
22,Ялтинская улица,640023,55.4875758,65.2467394
32,улица Содружества,640023,55.4846296,65.2557852
30,улица Содружества,640023,55.4845170,65.2554462
6,улица Надежды Румянцевой,640023,55.4812950,65.2529640
12,улица Сергея Бондарчука,640023,55.4853869,65.2591609
29,улица Надежды Румянцевой,640023,55.4843922,65.2613420
17,улица Надежды Румянцевой,640023,55.4835516,65.2585768
15,Морская улица,640023,55.4854210,65.2559232
37,улица Содружества,640023,55.4847600,65.2546886
25,Артековская улица,640023,55.4871027,65.2486167
16,Тенистая улица,640023,55.4895007,65.2248258
17,Таёжная улица,640023,55.4895205,65.2257044
7А,Таёжная улица,640023,55.4885222,65.2233338
14,улица Куксилова,640023,55.4897514,65.2261605
22В,Тенистая улица,640023,55.4902719,65.2270137
42,Тенистая улица,640023,55.4908951,65.2327503
33,Июльская улица,640023,55.4896065,65.2316150
30,Таёжная улица,640023,55.4890350,65.2275375
10,улица Куксилова,640023,55.4890304,65.2272222
28А,Июльская улица,640023,55.4892253,65.2315178
29,Майская улица,640023,55.4887749,65.2304678
27,Майская улица,640023,55.4884859,65.2299421
39А,Июльская улица,640023,55.4890935,65.2331263
30,улица Мостостроителей,640023,55.4856865,65.2231678
8,Июльская улица,640023,55.4874302,65.2249197
4,Майская улица,640023,55.4865973,65.2246187
4А,Майская улица,640023,55.4866676,65.2248618
5,улица Суховарова,640023,55.4861778,65.2254942
12А,Майская улица,640023,55.4867067,65.2269563
7,улица Суховарова,640023,55.4862813,65.2270282
24А,улица Мостостроителей,640023,55.4847685,65.2315964
3,Весенний переулок,640023,55.4858351,65.2366490
36,улица Суховарова,640023,55.4889305,65.2357384
60А,Тенистая улица,640023,55.4885777,65.2375909
62А,Тенистая улица,640023,55.4882824,65.2378721
33,Карьерная улица,640023,55.4872626,65.2373377
55Г,Июльская улица,640023,55.4876680,65.2397620
46,Июльская улица,640023,55.4865333,65.2373795
42,Артековская улица,640023,55.4875352,65.2520713
1А/1,Сибирская улица,640022,55.4469390,65.4437367
90,улица Молодёжи,640004,55.4615467,65.2934823
2,Мечникова,640004,55.4627037,65.2932124
10,улица Мечникова,640004,55.4628175,65.2940684
129,улица Молодёжи,640004,55.4632044,65.2925579
104/1,улица Молодёжи,640004,55.4629750,65.2931233
3,улица Мечникова,640004,55.4630543,65.2936342
108,улица Молодёжи,640004,55.4634080,65.2929912
5,улица Мечникова,640004,55.4633460,65.2936288
124,Молодёжи,​640004,55.4649469,65.2926382
120,улица Молодёжи,​640004,55.4646104,65.2926805
14,Фурманова,640004,55.4650501,65.2938546
17,Плеханова,640004,55.4643146,65.2944443
131,Луначарского,640004,55.4654796,65.2969414
35,Плеханова,640004,55.4648589,65.2968144
34,Фурманова,640004,55.4651858,65.2963781
33,Плеханова,640004,55.4648186,65.2964780
31,Плеханова,640004,55.4645277,65.2965488
29,Плеханова,640004,55.4644735,65.2961728
23,Плеханова,640004,55.4644404,65.2958357
27,Плеханова,640004,55.4648231,65.2959640
21,Плеханова,640004,55.4644369,65.2953827
116,Комиссаров улица,640004,55.4646085,65.2954614
45,Артековская улица,640023,55.4883405,65.2527938
31,Морская улица,640023,55.4891123,65.2526349
12,Туристическая улица,640023,55.4915704,65.2535701
18,Туристическая улица,640023,55.4918491,65.2546616
19,улица Юрия Никулина,640023,55.4897766,65.2563672
26,улица Ялтинская,640023,55.4883108,65.2478766
8,Адмиральский переулок,640023,55.4880336,65.2477089
11,Ялтинская улица,640023,55.4869260,65.2441517
13,Приморская улица,640023,55.4855662,65.2483418
11,улица Бахчисарайская,640023,55.4851064,65.2509383
37,Комсомольская улица,640000,55.4372856,65.3455760
13,улица Сухэ-Батора,640003,55.4332157,65.3035201
92,улица Коли Мяготина,640000,55.4373097,65.3280201
17,улица Радионова,640003,55.4391873,65.3131882
69,Чернореченская улица,640014,55.4849681,65.3131730
11,улица Гоголя,640002,55.4355564,65.3310958
76,улица Карла Маркса,640000,55.4421725,65.3541694
38,улица Володарского,640002,55.4369468,65.3431887
