House number,Street name,Postal code,Latitude,Longitude
59,Deakin Avenue,3500,-34.1854375,142.1617048
26,Langtree Avenue,3500,-34.1834728,142.1626349
293,Walnut Avenue,3500,-34.1836384,142.1624490
20,Langtree Avenue,3500,-34.1833548,142.1627989
18,Langtree Avenue,3500,-34.1832372,142.1629464
40A,Langtree Avenue,3500,-34.1838857,142.1621348
51,Deakin Avenue,3500,-34.1851880,142.1620149
163-165,Tenth Street,3500,-34.1856909,142.1559917
129-137,Seventh Street,3500,-34.1830237,142.1634148
110,Eighth Street,3500,-34.1862761,142.1645660
32,Orange Avenue,3500,-34.1864694,142.1655465
134-164,Deakin Avenue,3500,-34.1891534,142.1582682
141,Eighth Street,3500,-34.1839014,142.1609704
58,Lime Avenue,3500,-34.1839719,142.1600182
303,Deakin Avenue,3500,-34.1976579,142.1469474
303,Deakin Avenue,3500,-34.1976036,142.1470093
38-40,Madden Avenue,3500,-34.1857713,142.1643888
62,Lime Avenue,3500,-34.1841096,142.1599281
104,Eighth Street,3500,-34.1873627,142.1656211
832,Fifteenth Street,3500,-34.2108564,142.1400220
134a,Ninth Street,3500,-34.1857368,142.1601588
785,Walnut Avenue,3501,-34.2190665,142.1108889
840,Fifteenth Street,3500,-34.2088283,142.1383007
42,Lemon Avenue,3500,-34.1876037,142.1661594
36,Winton Drive,3500,-34.1599085,142.1278684
832,Fifteenth Street,3500,-34.2109499,142.1401173
832,Fifteenth Street,3500,-34.2108266,142.1396072
120,Hugh King Drive,3500,-34.1807265,142.1640963
90,Seventh Street,3500,-34.1866649,142.1685569
109-111,Seventh Street,3500,-34.1852745,142.1661169
141,Eighth Street,3500,-34.1840044,142.1610741
31,Alan Mathews Drive,3501,-34.2305700,142.0845549
445A,Eleventh Street,3500,-34.1715200,142.1339455
100-110,Deakin Avenue,3502,-34.1876481,142.1603393
760,Benetook Avenue,3500,-34.2201748,142.1506544
760,Benetook Avenue,3500,-34.2200576,142.1507699
95-103,Langtree Avenue,3500,-34.1861785,142.1583527
179,Walnut Avenue,3500,-34.1857399,142.1514363
138,Eighth Street,3500,-34.1842729,142.1619880
463-469,Deakin Avenue,3500,-34.2063519,142.1363299
203,Ontario Avenue,3500,-34.1836514,142.1440413
463-469,Deakin Avenue,3500,-34.2061392,142.1364470
433,Deakin Avenue,3500,-34.2046571,142.1383002
441,Deakin Avenue,3500,-34.2052423,142.1374676
213,San Mateo Avenue,3500,-34.1966546,142.1584591
225,San Mateo Avenue,3500,-34.1968565,142.1582199
218,San Mateo Avenue,3500,-34.1971356,142.1586802
826,Fifteenth Street,3500,-34.2106209,142.1395428
31,Langtree Avenue,3500,-34.1834577,142.1621182
62,Orange Avenue,3500,-34.1876327,142.1641721
218,Eighth Street,3500,-34.1773713,142.1549613
481,Deakin Avenue,3500,-34.2069238,142.1345708
481,Deakin Avenue,3500,-34.2068004,142.1347393
199 - 205,Flora Avenue,3500,-34.1742718,142.1236161
287,Twelfth Street,3500,-34.1797968,142.1354113
831,Fifteenth Street,3500,-34.2081762,142.1399770
219-227,Ninth Street,3500,-34.1795810,142.1513756
216,Ontario Avenue,3500,-34.1862443,142.1430602
20,Pine Avenue,3500,-34.1820972,142.1608675
45-65,Lime Avenue,3500,-34.1833877,142.1598920
199,Cureton Avenue,3500,-34.1776597,142.1584491
180,Deakin Avenue,3500,-34.1911726,142.1568736
140,Eighth Street,3500,-34.1829040,142.1595046
138,Deakin Avenue,3500,-34.1889301,142.1588403
914-918,Fifteenth Street,3500,-34.2020559,142.1301517
795-807,Fifteenth Street,3500,-34.2101876,142.1415267
822,Fifteenth Street,3500,-34.2123282,142.1420087
395,Deakin Avenue,3500,-34.2026324,142.1403480
856,Fifteenth Street,3500,-34.2074826,142.1365577
301,Deakin Avenue,3500,-34.1972461,142.1470973
291,Deakin Avenue,3500,-34.1968737,142.1475335
453-455,Deakin Avenue,3500,-34.2056097,142.1371405
639-665,Fifteenth Street,3500,-34.2175622,142.1511276
570,Fifteenth Street,3500,-34.2198865,142.1510226
637,Fifteenth Street,3500,-34.2185918,142.1512330
95-103,Langtree Avenue,3500,-34.1860071,142.1587083
18,Lime Avenue,3500,-34.1825740,142.1619834
100-110,Deakin Avenue,3502,-34.1876407,142.1604183
62,Deakin Avenue,3500,-34.1863055,142.1622181
56,Deakin Avenue,3500,-34.1858978,142.1625428
157,Seventh Street,3500,-34.1813805,142.1613130
73,Lime Avenue,3500,-34.1841845,142.1591399
81,Lime Avenue,3500,-34.1844269,142.1588122
86,Deakin Avenue,3500,-34.1871759,142.1611307
93,Deakin Avenue,3500,-34.1866961,142.1599126
122,Ninth Street,3500,-34.1869847,142.1618912
56,Lime Avenue,3500,-34.1839799,142.1602811
97,Lime Avenue,3500,-34.1850760,142.1578391
121,Pine Avenue,3500,-34.1851501,142.1559859
156,Tenth Street,3500,-34.1850396,142.1558546
158,Tenth Street,3500,-34.1849999,142.1558255
160,Tenth Street,3500,-34.1849197,142.1557295
125,Lime Avenue,3500,-34.1861932,142.1566227
110-114,Eighth Street,3500,-34.1863151,142.1648573
118,Langtree Avenue,3500,-34.1869327,142.1586659
98,Eighth Street,3500,-34.1877849,142.1662045
165,Deakin Avenue,3500,-34.1893334,142.1565264
125,Deakin Avenue,3500,-34.1878945,142.1584184
237,Deakin Avenue,3500,-34.1936659,142.1514636
46,Madden Avenue,3500,-34.1862947,142.1637920
257,Eleventh Street,3500,-34.1881494,142.1548263
326,San Mateo Avenue,3500,-34.2045966,142.1499189
596,Deakin Avenue,3505,-34.2146295,142.1281012
513,Deakin Avenue,3500,-34.2091591,142.1327819
427,Deakin Avenue,3500,-34.2041962,142.1388374
634,Benetook Avenue,3500,-34.2136635,142.1583843
711,Benetook Avenue,3500,-34.2166043,142.1537562
617-633,Fifteenth Street,3500,-34.2192590,142.1523095
1,King Avenue,3500,-34.1900898,142.1711611
255,Deakin Avenue,3500,-34.1947998,142.1499663
121,San Mateo Avenue,3500,-34.1918259,142.1642815
858,Fifteenth Street,3500,-34.2064562,142.1349576
36,Winton Drive,3500,-34.1597836,142.1279118
426,Benetook Avenue,3500,-34.2032765,142.1712770
94A,Seventh Street,3500,-34.1862426,142.1681631
314,Deakin Avenue,3000,-34.1993364,142.1461119
227,Tenth Street,3500,-34.1808273,142.1501043
111,Ranfurly Way,3500,-34.1781972,142.1113070
406,Benetook Avenue,3500,-34.2025789,142.1718131
435,Cureton Avenue,3500,-34.1537535,142.1635147
760,Benetook Avenue,3500,-34.2203576,142.1505645
220-228,Thirteenth Street,3500,-34.1848421,142.1457019
214,Eighth Street,3500,-34.1777992,142.1546535
199,Cureton Avenue,3500,-34.1775425,142.1586754
178,Deakin Avenue,3500,-34.1908005,142.1575254
528,Ontario Avenue,3500,-34.2006340,142.1244119
333,Eighth Street,3500,-34.1719306,142.1455527
518,Deakin Avenue,3500,-34.2097606,142.1343854
