House number,Street name,Postal code,Latitude,Longitude
1301,Dallas Road,37405,35.0791631,-85.3033777
7815,Shallowford Road,37421,35.0347439,-85.1338428
6310,Dayton Boulevard,37343,35.1775700,-85.2482915
848,Ashland Terrace,37415,35.1156581,-85.2702636
1815,McCallie Avenue,37404,35.0362105,-85.2746680
1200,Dodson Avenue,37406,35.0504172,-85.2616491
709,Walnut Street,37402,35.0476832,-85.3077233
2903,East 37th Street,37407,34.9987581,-85.2811353
650,McCallie Avenue,37402,35.0449104,-85.2997292
554,McCallie Avenue,37402,35.0457736,-85.3021069
5950,Winding Lane,37343,35.1492980,-85.2461679
3330,Hixon Pike,37415,35.1020167,-85.2744022
2200,Morris Hill Road,37421,35.0270191,-85.1218963
300,Brookfield Avenue,37411,35.0121949,-85.2397598
4302,Bonny Oaks Drive,37416,35.0807773,-85.2103039
2626,Walker Road,37421,35.0557270,-85.1337214
208,Frazier Avenue,37405,35.0622017,-85.3063231
151,River Street,37405,35.0622122,-85.3076172
301,Manufacturers Road,37405,35.0631389,-85.3138807
1900,Broad Street,37408,35.0339642,-85.3130138
973,Market Street,37402,35.0449892,-85.3096024
417,Market Street,37402,35.0517045,-85.3098125
301,Manufacturers Road,37405,35.0631727,-85.3142592
5210,5210 Brainerd Road,37411,35.0110046,-85.2242764
1414,Jenkins Road,37421,35.0083421,-85.1523042
8934,Lee Highway,37363-8752,35.0867343,-85.0711030
3903,Hixson Pike,37415,35.1137829,-85.2618617
541,Signal Mountain Road,37405,35.0960448,-85.3309254
4827,Hixson Pike,37343-4448,35.1271130,-85.2474470
218,Jarnigan Avenue,37405,35.0630253,-85.3007282
216,Jarnigan Avenue,37405,35.0629622,-85.3008509
220,Jarnigan Avenue,37405,35.0630989,-85.3005915
228,Jarnigan Avenue,37405,35.0634575,-85.2999973
233,Jarnigan Avenue,37405,35.0638082,-85.2998698
237,Jarnigan Avenue,37405,35.0635409,-85.3003183
241,Jarnigan Avenue,37405,35.0641124,-85.2992984
31,Patten Parkway,37402,35.0461204,-85.3067761
826,Georgia Avenue,37402,35.0461399,-85.3079001
35,Patten Parkway,37402,35.0460516,-85.3066306
832,Georgia Avenue,37402,35.0460433,-85.3079478
835,Georgia Avenue,37402,35.0461724,-85.3081776
818,Georgia Avenue,37402,35.0464749,-85.3077057
850,Market St,37402,35.0463976,-85.3085148
1308,Dorchester Road,37405,35.0692596,-85.2883894
1203,Hixson Pike,37405,35.0695626,-85.2894534
25,Patten Parkway,37402,35.0461535,-85.3068653
23,Patten Parkway,37402,35.0462155,-85.3070399
828,Georgia Avenue,37402,35.0460915,-85.3079277
19,Patten Parkway,37402,35.0462742,-85.3072048
21,Patten Parkway,37402,35.0462481,-85.3071281
1500,Broad Street,37408-1109,35.0372672,-85.3110610
1110,Market Street,37402,35.0431284,-85.3087033
1110,Market Street,37402,35.0425735,-85.3089119
2025,Broad Street,37408,35.0328082,-85.3142209
1110,Market Street,37402,35.0422872,-85.3085374
1900,Broad Street,37408,35.0339171,-85.3130851
100,West 20th Street,37408,35.0320142,-85.3112114
3908,Hixson Pike,37415,35.1131071,-85.2615007
5918,Hixson Pike,37343,35.1491012,-85.2071451
410,East 8th Street,37403,35.0456206,-85.3041028
48,East Main Street,37408,35.0355459,-85.3060689
5928,Hixson Pike,37343-4839,35.1473504,-85.2072757
3410,Brainerd Road,37411,35.0262990,-85.2526774
3250,Brainerd Road,37411,35.0290381,-85.2577687
6233,Dayton Boulevard,37343,35.1756455,-85.2535484
5238,Highway 153,37343,35.1249154,-85.2401254
5084,New Country Drive,37343,35.1215720,-85.2393235
5110,Hixson Pike,37343,35.1354243,-85.2388295
26,East Main Street,37408,35.0356965,-85.3064901
1437,Market Street,37402,35.0373161,-85.3075561
5237,Hixson Pike,37343,35.1398161,-85.2345648
5450,Highway 153,37343,35.1404697,-85.2474502
5450,Highway 153,37343,35.1406715,-85.2462056
3300,Adkins Lane,37419,35.0341560,-85.3610258
1350,Mackey Branch Drive,37421,35.0133441,-85.1559472
7647,East Brainerd Road,37421,35.0121373,-85.1569772
7655,East Brainerd Road,37421,35.0118930,-85.1563622
3903,Volunteer Drive,37416,35.0705434,-85.1975152
301,Manufacturers Road,37405,35.0632254,-85.3144362
1467,Market St #102,37402,35.0364478,-85.3074877
3901,Hixson Pike,37415,35.1148054,-85.2633246
7550,East Brainerd Road,37421,35.0089261,-85.1529147
1110,Market Street,37402,35.0429747,-85.3090152
6219,Lee Highway,37421,35.0316214,-85.1846449
6219,Lee Highway,37421,35.0320273,-85.1846818
6219,Lee Highway,37421,35.0314161,-85.1846148
6219,Lee Highway,37421,35.0319600,-85.1846760
6219,Lee Highway,37421,35.0318913,-85.1846729
6219,Lee Highway,37421,35.0317007,-85.1846547
6219,Lee Highway,37421,35.0318353,-85.1846681
217,East Main Street,37408,35.0352293,-85.3045576
313,Manufacturers Road,37405,35.0626734,-85.3145121
313,Manufacturers Road,37405,35.0625354,-85.3145176
313,Manufacturers Road,37405,35.0627936,-85.3144904
313,Manufacturers Road,37405,35.0629227,-85.3144849
313,Manufacturers Road,37405,35.0629094,-85.3143598
307,Manufacturers Road,37405,35.0627535,-85.3141259
307,Manufacturers Road,37405,35.0627090,-85.3141259
307,Manufacturers Road,37405,35.0626467,-85.3141259
307,Manufacturers Road,37405,35.0624775,-85.3141423
2925,New York Avenue,37406,35.0731181,-85.2372545
1444,Market Street,37402,35.0368597,-85.3068970
1439,Market Street,37402,35.0372634,-85.3075485
930,McCallie Avenue,37403,35.0418769,-85.2916073
1313,Hanover Street,37405,35.0679727,-85.2883072
1100,Hixson Pike,37405,35.0686801,-85.2889961
302,West 6th Street,37402,35.0491226,-85.3134799
6238,Bonny Oaks Drive,37416,35.0739351,-85.1757036
917,E 16th Street,37408,35.0308442,-85.2955283
1600,Broad Street,37408,35.0363357,-85.3114835
871,McCallie Ave,37403,35.0429149,-85.2927402
737,McCallie Avenue,37403,35.0443726,-85.2969742
507,W 26th St,37408,35.0285926,-85.3178657
1400,Market Street,37402,35.0370612,-85.3069210
26,East Main Street,37408,35.0358769,-85.3070081
(423) 238-8880,6059 Arbury Way Suite 101,37363,35.0835013,-85.0562999
5794,Brainerd Road,37411,35.0125348,-85.2111706
5600,Brainerd Road,37411,35.0098096,-85.2163634
541,Signal Mountain Road,37405,35.0957171,-85.3298302
330,Frazier Avenue,37405,35.0619039,-85.3055455
6221,Shallowford Road,37421,35.0520269,-85.1771856
336,East Martin Luther King Boulevard,37403,35.0440967,-85.3042124
431,East Martin Luther King Boulevard,37403,35.0439639,-85.3031308
541,Signal Mountain Road,37405,35.0961287,-85.3306486
7613,Shallowford Road,37421,35.0371565,-85.1401992
3901,Hixson Pike,37415,35.1153680,-85.2626990
2301,East 28th Street,37407,35.0109431,-85.2810287
2321,Lifestyle Way,37421,35.0415527,-85.1521219
279,Cherry Street,37403,35.0539239,-85.3087515
7620,Shallowford Road,37421,35.0363018,-85.1404595
20,Cherokee Boulevard,37405,35.0630862,-85.3097646
235,East Martin Luther King Boulevard,37403,35.0449903,-85.3056420
4904,Waterstone Dr,37416,35.0996367,-85.1815288
5100,Waterstone Dr,37416,35.1012651,-85.1806113
910,Creekside Rd,37406,35.0906764,-85.2551441
3810,Cummings Highway,37419,35.0168439,-85.3871072
3700,Cummings Highway,37419,35.0177888,-85.3792817
6020,Cornelison Road,37412,35.0061114,-85.2043888
6021,Cornelison Road,37411,35.0080888,-85.2033425
7741,Lee Highway,37421,35.0641427,-85.1296963
2318,East Main Street,37404,35.0232624,-85.2730205
1001,Airport Road,37421,35.0373694,-85.1967492
951,Eastgate Loop,37411,35.0105654,-85.2131998
2929,Calhoun Avenue,37407,35.0102071,-85.2953190
722,Glenwood Drive,37404,35.0408629,-85.2586786
7459,Twinbrook Drive,37421,35.0490208,-85.1378236
1309,Panorama Drive,37421,35.0175595,-85.1697129
509,East Main Street,37408,35.0340356,-85.3013770
5922,Hixson Pike,37343,35.1486253,-85.2073184
5051,Gann Store Road,37343,35.1253809,-85.2175729
6601,Lee Highway,37421,35.0381945,-85.1799604
6621,Lee Highway,37421,35.0381303,-85.1793506
4303,Bonny Oaks Drive,37416,35.0812984,-85.2081359
4608,Highway 58,37416,35.0846451,-85.1933646
5579,TN 153,37343,35.1459607,-85.2518512
5579,TN 153,37343,35.1458387,-85.2518841
1816,Gunbarrel Road,37421,35.0245251,-85.1556435
1816,Gunbarrel Road,37421,35.0246701,-85.1556006
191,Chestnut Street,37402,35.0551601,-85.3120492
517,East Martin Luther King Boulevard,37403,35.0436257,-85.3022048
405,Market Street,37402,35.0519545,-85.3098182
401,Broad Street,37402,35.0521115,-85.3109327
1301,Hickory Valley Road,37421,35.0174740,-85.1824616
6025,East Brainerd Road,37421,35.0175989,-85.2045170
6025,East Brainerd Road,37421,35.0174584,-85.2046511
6795,Lee Highway,37421,35.0411376,-85.1693093
6740,Lee Highway,37421,35.0397939,-85.1701253
6933,Lee Highway,37421,35.0446302,-85.1660483
6933,Lee Highway,37421,35.0448253,-85.1663824
6901,Lee Highway,37421,35.0430841,-85.1673549
6901,Lee Highway,37421,35.0433216,-85.1671743
6901,Lee Highway,37421,35.0435422,-85.1669316
2202,North Chamberlain Avenue,37406,35.0615230,-85.2503973
3551,Harrison Pike,37416,35.0966756,-85.2093870
701,Mountain Creek Road,37405,35.0980693,-85.3281686
405,Signal Mountain Boulevard,37405,35.0887964,-85.3305916
102,Signal Mountain Boulevard,37405,35.0836782,-85.3182915
135,North Market Street,37405,35.0640810,-85.3091331
2009,Dayton Boulevard,37405,35.0901737,-85.3122685
608,S Holtzclaw Ave,37404,35.0357276,-85.2841621
1920,Northpoint Boulevard,37343,35.1382936,-85.2448368
1900,Broad Street,37408,35.0338907,-85.3130997
45,East Main Street,37408,35.0361059,-85.3059608
26,East Main Street,37408,35.0357697,-85.3066933
7420,Bonny Oaks Drive,37421,35.0611915,-85.1363437
7420,Bonny Oaks Drive,37421,35.0609728,-85.1365135
1330,East 3rd Street,37404,35.0432941,-85.2792136
1330,East 3rd Street,37404,35.0430866,-85.2793115
6121,Lee Highway,37421,35.0298998,-85.1876927
6121,Lee Highway,37421,35.0296845,-85.1875412
3956,Brainerd Road,37411,35.0189041,-85.2406378
3956,Brainerd Road,37411,35.0189777,-85.2403575
2120,Polymer Drive,37421,35.0438812,-85.1975365
5930,Quintus Loop,37421,35.0494660,-85.1996260
5910,Quintus Loop,37421,35.0514839,-85.2003042
3800,Tag Road,37416,35.0706221,-85.2062047
4019,Industry Drive,37416,35.0717463,-85.2054667
1411,East 41th Street,37407,34.9976050,-85.2939436
2591,East 44th Street,37407,34.9927525,-85.2893609
2605,East 39th Street,37407,34.9996905,-85.2852804
4608,Kirkland Avenue,37410,34.9988581,-85.3160619
2,East 38th Street,37410,35.0051914,-85.3106281
103,West 45th Street,37410,35.0004875,-85.3142153
3406,Alton Park Boulevard,37409,35.0130560,-85.3142488
6038,Hixson Pike,37343,35.1496967,-85.2025065
6401 Suite B1,Hixson Pike,37343,35.1559756,-85.1982189
5723,Hixson Pike,37343,35.1520922,-85.2180816
3815,Hamill Road,37343,35.1285391,-85.2009713
5933,Hixson Pike,37344,35.1497488,-85.2064008
7675,Volkswagen Drive,37416,35.0757905,-85.1399738
3819,Brainerd Road,37411,35.0223971,-85.2417667
25,Cherokee Boulevard,37405,35.0635581,-85.3099816
304,Cherokee Boulevard,37405,35.0643292,-85.3119100
1464,Market Street,37408,35.0366208,-85.3070900
817,North Market Street,37405,35.0730810,-85.3086348
1701,East Main Street,37404,35.0271881,-85.2825507
825,Dodson Avenue,37406,35.0456671,-85.2641028
3535,Broad Street,37409,35.0149590,-85.3255214
2111,Gunbarrel Road,37421,35.0328677,-85.1545251
3933,St Elmo Avenue,37409,35.0093011,-85.3283083
3935,St Elmo Avenue,37409,35.0092340,-85.3282699
7601,E Brainerd Rd,37421,35.0137659,-85.1575325
515,North Holtzclaw Avenue,37404,35.0457827,-85.2794866
328,Cherokee Boulevard,37405,35.0656602,-85.3136685
1250,Market Street,37402,35.0408736,-85.3080928
1250,Market Street,37402,35.0410212,-85.3078458
1201,Market Street,37402,35.0412793,-85.3089581
1201,Market Street,37402,35.0412752,-85.3089324
1201,Market Street,37402,35.0414187,-85.3088683
1201,Market Street,37402,35.0414007,-85.3088900
1201,Market Street,37402,35.0414390,-85.3089038
1201,Market Street,37402,35.0414386,-85.3088767
1110,Market Street,37402,35.0427951,-85.3087888
1110,Market Street,37402,35.0422639,-85.3085242
827,Broad Street,37402,35.0460002,-85.3107158
1616,Broad Street,37408,35.0361611,-85.3116534
1814,Gunbarrel Road,37421,35.0237093,-85.1559440
3554,Broad Street,37409,35.0137620,-85.3267822
2110,Chapman Road,37421,35.0550819,-85.1877462
2120,Chapman Road,37421,35.0569459,-85.1880035
6007,Shallowford Road,37421,35.0540105,-85.1876528
2627,Broad Street,37408,35.0264825,-85.3177976
5207,Highway 153,37343,35.1235793,-85.2406854
5251,Highway 153 Suite,37343,35.1269764,-85.2425225
632,Morrison Springs Road,37415,35.1235127,-85.3021075
5936,Hixson Pike,37343,35.1487990,-85.2061698
4543,Turntable Road,37421,35.0651885,-85.2057484
4543,Turntable Road,37421,35.0651474,-85.2057473
5023,Hixson Pike,37343,35.1344650,-85.2418268
5023,Hixson Pike,37343,35.1345659,-85.2417212
5441,Highway 153,37343,35.1411858,-85.2493000
5441,Highway 153,37343,35.1411679,-85.2495312
5414,Hixson Pike,37343-3253,35.1415901,-85.2299700
100,West Martin Luther King Boulevard,37402,35.0454148,-85.3097563
437,West 24th Street,37408,35.0305857,-85.3164427
3742,Tennessee Avenue,37409,35.0112340,-85.3265950
801,Ashland Terrace,37415,35.1164945,-85.2728648
771,Ashland Terrace,37415,35.1164126,-85.2735190
1008,Baldwin Street,37403,35.0413176,-85.3005727
6623,Lee Highway,37421,35.0379862,-85.1785482
5591,TN 153,37343,35.1479216,-85.2514433
401,Broad St,37402,35.0519267,-85.3109135
9203,Lee Highway,37363,35.0854982,-85.0625236
848,Ashland Terrace,37415,35.1155830,-85.2699170
4791A,Hal Drive,37416,35.0860651,-85.1894302
3356,Elder Mountain Road,37419-1056,35.0415280,-85.3619796
2421,4th Avenue,37407-1118,35.0149403,-85.2816367
3101,William Street,37410-1032,35.0206396,-85.3185596
721,Broad St,37402,35.0977644,-85.2376359
3500,Rossville Boulevard,37407-2465,35.0034845,-85.2922623
443,Roberts Street,37404-2119,35.0437034,-85.2732980
441,Roberts Street,37404-2119,35.0435936,-85.2734055
2303,Green Forrest Drive,37406-2611,35.0577622,-85.2316373
2304,Green Forrest Drive,37406-2607,35.0574895,-85.2320592
719,Hargraves Avenue,37411-2203,35.0309994,-85.2298496
1203,North Holtzclaw Avenue,37406,35.0541126,-85.2731190
1521,Riverside Drive,37406,35.0581372,-85.2797243
1223,Latta Street,37406,35.0704565,-85.2647713
1635,East 25th Street,37404,35.0180483,-85.2902300
2440,Rossville Boulevard,37408,35.0206450,-85.2936757
3480,Dorthas Trail,37419,35.0480252,-85.3600544
101,Stringer Street,37405,35.0641446,-85.3145755
3217,Wilcox Boulevard,37411,35.0489459,-85.2395945
3433,Plumwood Road,37411,35.0531899,-85.2383344
3713,Cross Street,37411,35.0366038,-85.2352796
813,Aubrey Avenue,37411,35.0362352,-85.2350330
95,Lost Mound Drive,37406,35.0913243,-85.2633586
3890,Agawela Drive,37411,35.0434586,-85.2222393
4651,Shallowford Road,37411,35.0538248,-85.2138281
4325,Amnicola Highway,37406,35.0995885,-85.2441392
904,Creekside Road,37406,35.0908285,-85.2561541
5093,North Terrace,37411,35.0052371,-85.2249831
1003,West 55th Street,37410,34.9917549,-85.3229970
1001,West 55th Street,37410,34.9899632,-85.3236286
4073,South Access Road,37406,35.0860007,-85.2156703
100,Bledsoe Terrace,37405,35.1013129,-85.3325540
158,Signal Mountain Road,37405,35.0828907,-85.3210943
326,Patten Chapel Road,37419,35.0297550,-85.3593794
3630,Ridgeside Road,37411-2823,35.0305487,-85.2400295
3536,Cummings Highway,37419,35.0167612,-85.3740939
6379,Bonny Oaks Drive,37416,35.0750777,-85.1707452
7360,Commons Boulevard,37421,35.0370100,-85.1531655
2611,Belle Arbor Avenue,37406,35.0734101,-85.2666216
1111,Oak Street,37403,35.0424713,-85.2871324
822,East Main Street,37408-1428,35.0318413,-85.2966196
436,Frazier Avenue,37405,35.0610732,-85.3034930
6050,Shallowford Road,37404,35.0341112,-85.2775563
5595,Highway 153,37343,35.1479441,-85.2498920
2318,Shallowford Village Drive,37421,35.0437031,-85.1568945
2342,Shallowford Village Drive,37421,35.0446232,-85.1555033
6219,Lee Highway,37421,35.0317730,-85.1846608
14,West Kent Street,37405,35.0644703,-85.3097430
5450,Highway 153,37343,35.1405701,-85.2454275
713,Mountain Creek Road,37405,35.0999057,-85.3279579
118,Cross Street,37405,35.1000865,-85.3280802
705,Signal Mountain Road,37405,35.0986221,-85.3289165
707,Signal Mountain Road,37405,35.0986574,-85.3287630
709,Signal Mountain Road,37405,35.0986740,-85.3286491
711,Signal Mountain Road,37405,35.0987001,-85.3285490
715,Signal Mountain Road,37405,35.0992139,-85.3289440
715,Signal Mountain Road,37405,35.0993490,-85.3290808
801,Signal Mountain Road,37405,35.1000419,-85.3294889
801,Signal Mountain Road,37405,35.0999568,-85.3294172
801,Signal Mountain Road,37405,35.0998878,-85.3293677
7524,"Shallowford Road, Building 2",37421,35.0371994,-85.1450276
7524,Shallowford Road,37421,35.0376486,-85.1448201
414,Beck Avenue,37405,35.0666613,-85.2985151
2017,Gunbarrel Road,37421,35.0316673,-85.1552221
6425,"Hixson Pike, STE 4",37343,35.1575411,-85.1964804
6550,Standifer Gap Road,37421,35.0562486,-85.1716261
6501 #130,Lee Highway,37421,35.0352529,-85.1789808
208,Frazier Avenue,37405,35.0621521,-85.3063454
1009,Mississippi Avenue,37405,35.0686851,-85.2944844
110,North Market Street,37405,35.0632606,-85.3083181
300,Cherokee Boulevard,37405,35.0637718,-85.3120943
1100,Hixson Pike,37405,35.0685495,-85.2890610
1211,Dartmouth Street,37343,35.0697769,-85.2897002
200,Chestnut Street,37402,35.0544281,-85.3116143
201,High Street,37403,35.0547297,-85.3057668
215,Chestnut Street,37402,35.0537674,-85.3123341
311,Chestnut Street,37402,35.0531795,-85.3123791
1899,Dayton Boulevard,37405,35.0853901,-85.3157538
1900,Dayton Boulevard,37405,35.0856276,-85.3152719
1800,Dayton Boulevard,37405,35.0842923,-85.3171109
632,Vine Street,37403,35.0469293,-85.2982707
620,East 5th Street,37403,35.0476566,-85.2965775
642,East 5th Street,37403,35.0479019,-85.2984200
615,McCallie Avenue,37403,35.0460688,-85.2997002
1464,Market Street,37408,35.0366099,-85.3070959
1478,Market Street,37402,35.0361966,-85.3070271
1601,Market Street,37408,35.0356235,-85.3079422
1743,Dayton Boulevard,37405,35.0832381,-85.3180028
1801,Dayton Boulevard,37405,35.0845792,-85.3178508
1870,Hedgewood Drive,37405,35.0860881,-85.3164872
1866,Dayton Boulevard,37405,35.0851726,-85.3161485
1901,Dayton Boulevard,37405,35.0861508,-85.3147369
1915,Merriman Avenue,37405,35.0868173,-85.3141531
2011,Dayton Boulevard,37405,35.0904514,-85.3120715
2303,Dayton Boulevard,37415,35.0949617,-85.3075621
615,McCallie Avenue,37403,35.0461190,-85.3010667
815,University Street,37403,35.0444978,-85.3011608
408,Market Street,37402,35.0520377,-85.3092833
2040,Hamilton Place Boulevard,37421,35.0303374,-85.1595860
2020,Gunbarrel Road,37421,35.0299942,-85.1530712
2119,Gunbarrel Road,37421,35.0355946,-85.1531195
1920,Chestnut Street,37408,35.0343571,-85.3150855
1818,Chestnut Street,37408,35.0354910,-85.3145125
5518,Brainerd Road,37411,35.0095625,-85.2185530
5610,Brainerd Road,37411,35.0110110,-85.2148108
490,Greenway View Drive,37411,35.0083429,-85.2052161
5839,Brainerd Road,37411,35.0147742,-85.2120919
6025,East Brainerd Road,37421,35.0174797,-85.2045288
5420,Brainerd Road,37411,35.0096658,-85.2205534
5503,Brainerd Road,37411,35.0103699,-85.2196704
909,Forest Avenue,37405,35.0708870,-85.3019587
541,Signal Mountain Road,37405,35.0959180,-85.3306005
501,Signal Mountain Road,37405,35.0944645,-85.3319283
703,Signal Mountain Road,37405,35.0986223,-85.3293424
1944,Northpoint Boulevard,37343,35.1369117,-85.2435228
5428,Highway 153,37343,35.1376379,-85.2454561
5450,Highway 153,37343,35.1405810,-85.2451261
5450,Highway 153,37343,35.1397387,-85.2437970
5450,Highway 153,37343,35.1404962,-85.2468774
4416,Dayton Boulevard,37415,35.1280564,-85.2833515
4123,Hixson Pike,37415,35.1152449,-85.2544850
5348,Highway 153,37343,35.1342680,-85.2449201
501,Northgate Mall,37415,35.1281337,-85.2421281
562,Northgate Mall Drive,37415,35.1322677,-85.2423787
123,Northgate Mall Drive,37415,35.1326005,-85.2411283
5579,TN 153,37343,35.1461316,-85.2522082
4700,Stagg Road,37415,35.1299586,-85.2718048
412,Market Street,37402,35.0517476,-85.3092261
407,Chestnut Street,37402,35.0512080,-85.3122956
230,Manufacturers Road,37405,35.0623809,-85.3129002
230,Manufacturers Road,37405,35.0620301,-85.3126202
230,Manufacturers Road,37405,35.0625367,-85.3122043
633,Chestnut Street,37450,35.0485286,-85.3121374
605,Chestnut Street,37450,35.0493173,-85.3119751
735,Vine Street,37403,35.0465559,-85.2952940
755,East 5th Street,37403,35.0477661,-85.2946850
865,East 3rd Street,37403,35.0502497,-85.2948477
541,Vine Street,37403,35.0486281,-85.3007685
541,Vine Street,37403,35.0486784,-85.3014040
541,Vine Street,37403,35.0489917,-85.3012112
541,Vine Street,37403,35.0491119,-85.3015649
541,Vine Street,37403,35.0487600,-85.3017275
835,Georgia Ave,37402,35.0463336,-85.3081437
10,W M L King Boulevard,37402,35.0452503,-85.3099098
1001,Broad Street,37402;37402-2620,35.0443671,-85.3108290
3953,Dayton Boulevard,37415,35.1204703,-85.2893768
4020,Dayton Boulevard,37415,35.1208231,-85.2881359
4100,Dayton Boulevard,37415,35.1225808,-85.2866667
3711,Redding Road,37415,35.1158974,-85.2905729
3715,Redding Road,37415,35.1160092,-85.2903501
3501,Redding Road,37415,35.1126261,-85.2920411
3719,Redding Road,37415,35.1162430,-85.2901327
3511,Redding Road,37415,35.1131613,-85.2918102
3509,Redding Road,37415,35.1128949,-85.2919735
3515,Redding Road,37415,35.1136641,-85.2915517
3613,Redding Road,37415,35.1148413,-85.2909637
3603,Redding Road,37415,35.1140918,-85.2913626
3707,Redding Road,37415,35.1154950,-85.2905923
3605,Redding Road,37415,35.1142554,-85.2912482
3703,Redding Road,37415,35.1151558,-85.2908131
3609,Redding Road,37415,35.1146340,-85.2910816
3705,Redding Road,37415,35.1153295,-85.2906775
3500,Redding Road,37415,35.1123611,-85.2916196
3501,Tacoma Avenue,37415,35.1122983,-85.2907615
3506,Redding Road,37415,35.1127367,-85.2913965
3505,Tacoma Avenue,37415,35.1126180,-85.2906954
4101,Dayton Boulevard,37415,35.1230527,-85.2873909
4106,Dayton Boulevard,37415,35.1243058,-85.2870656
4106,Dayton Boulevard,37415,35.1233406,-85.2861394
229,Jarnigan Avenue,37405,35.0637360,-85.3002262
236,Jarnigan Avenue,37405,35.0637266,-85.2993743
224,Jarnigan Avenue,37405,35.0632264,-85.3002532
234,Jarnigan Avenue,37405,35.0636796,-85.2995571
243,Jarnigan Avenue,37405,35.0642805,-85.2991918
230,Jarnigan Avenue,37405,35.0635020,-85.2998168
203,Jarnigan Avenue,37405,35.0626334,-85.3020428
222,Jarnigan Avenue,37405,35.0631373,-85.3003784
212,Jarnigan Avenue,37405,35.0627592,-85.3011051
207,Jarnigan Avenue,37405,35.0627809,-85.3017372
217,Jarnigan Avenue,37405,35.0631645,-85.3010527
223,Jarnigan Avenue,37405,35.0634370,-85.3006453
201,Jarnigan Avenue,37405,35.0625298,-85.3021701
242,Jarnigan Avenue,37405,35.0639714,-85.2989306
238,Jarnigan Avenue,37405,35.0637973,-85.2992471
245,Jarnigan Avenue,37405,35.0643622,-85.2990584
235,Jarnigan Avenue,37405,35.0640010,-85.2998419
226,Jarnigan Avenue,37405,35.0633342,-85.3000903
240,Jarnigan Avenue,37405,35.0638734,-85.2990884
232,Jarnigan Avenue,37405,35.0635815,-85.2996938
214,Jarnigan Avenue,37405,35.0628498,-85.3009401
231,Jarnigan Avenue,37405,35.0638102,-85.3000607
219,Jarnigan Avenue,37405,35.0632410,-85.3009028
210,Jarnigan Avenue,37405,35.0626812,-85.3012391
213,Jarnigan Avenue,37405,35.0630153,-85.3013188
205,Jarnigan Avenue,37405,35.0627180,-85.3018855
211,Jarnigan Avenue,37405,35.0629824,-85.3015138
225,Jarnigan Avenue,37405,35.0635465,-85.3005107
209,Jarnigan Avenue,37405,35.0628806,-85.3016113
107,Jarnigan Avenue,37405,35.0624441,-85.3024523
215,Jarnigan Avenue,37405,35.0630975,-85.3011769
221,Jarnigan Avenue,37405,35.0633526,-85.3007906
237,Jarnigan Avenue,37405,35.0640846,-85.2996944
100,Moccasin Bend Road,37405,35.0254791,-85.3355242
324,East Main Street,37408,35.0343153,-85.3032236
1250,Market Street,37402,35.0407328,-85.3078719
1201,Broad Street,37402,35.0408348,-85.3103100
427,East Main Street,37408,35.0351419,-85.3020390
200,East Martin Luther King Boulevard,37403,35.0445706,-85.3065903
301,East 11th Street,37403,35.0427684,-85.3055952
31,East 11th Street,37402,35.0438130,-85.3081225
120,East 10th Street,37402,35.0441258,-85.3078677
300,East Martin Luther King Boulevard,37403,35.0443208,-85.3053568
1300,Broad Street,37402,35.0394997,-85.3099638
1101,Market Street,37402,35.0430696,-85.3102046
2,Carter Plaza,37402,35.0423725,-85.3127141
1200,Bailey Avenue,37404,35.0349736,-85.2897253
100,West 20th Street,37408,35.0320523,-85.3112688
1700,Broad Street,37408,35.0355132,-85.3117652
501,Oak Street,37403,35.0480808,-85.3032494
718,East 8th Street,37403,35.0436513,-85.2994025
805,Douglas Street,37403,35.0446016,-85.3031611
607,Douglas Street,37403,35.0476856,-85.3009313
529,Oak Street,37403,35.0475306,-85.3021421
801,East 8th Street,37403,35.0440523,-85.2987114
612,McCallie Avenue,37403,35.0454727,-85.3011079
500,Cloudview Lane,37415,35.1351893,-85.2869405
1301,Dallas Road,37405,35.0791863,-85.3035069
2512,Woodfin Avenue,37415,35.0996858,-85.3066639
3813,Pickering Avenue,37415,35.1167546,-85.2872417
1406,Jenkins Road,37421,35.0080604,-85.1525688
7804,East Brainerd Road,37421,35.0081160,-85.1547664
7745,East Brainerd Road,37421,35.0114091,-85.1537133
4007,morrison springs rd,37415-2741,35.1218359,-85.2934729
1810,Gunbarrel Road,37421,35.0254672,-85.1575321
1619,Auburndale ave.,37415,35.0817594,-85.3001900
735,Old Dallas Road,37405,35.0812907,-85.2994781
5510,A Highway 153,37343,35.1428512,-85.2483325
3710,Modern Industries Parkway,37419,35.0152013,-85.3842546
3550,Cummings Highway,37419,35.0157337,-85.3765512
5764,Highway 153,37343,35.1530072,-85.2452701
6139,Preservation Drive,37416,35.0753845,-85.1844778
6990,East Brainerd Road,37421,35.0173826,-85.1740315
220,Browns Ferry Road,37419-1722,35.0265305,-85.3633417
156,Browns Ferry Road,00003-7419,35.0254297,-85.3638651
9652,East Brainerd Road,37421,35.0177444,-85.1722894
954-3032,4829 Brainerd Road,37416,35.0135317,-85.2284580
1543,Mercer Street,37351,35.1059611,-85.2613497
3830,South Quail Lane,37415,35.1248559,-85.3098710
3834,South Quail Lane,37415,35.1247701,-85.3094674
3832,South Quail Lane,37415,35.1247716,-85.3096950
8451,East Brainerd Road,37421,35.0034496,-85.1400184
1414,Gunbarrel Road,37421,35.0165248,-85.1624185
5219,Creeks Bend Lane,37343,35.1399474,-85.2637016
4211,Rossville Boulevard,37407-2925,34.9940653,-85.2916366
503,Tremont Street,37405,35.0664698,-85.2997999
6806,East Brainerd Road,37421,35.0151066,-85.1825918
3826,South Quail Lane,37415,35.1250321,-85.3102181
5428,Mountain Creek Road,37415,35.1558866,-85.2816442
650,Moonlit Trail,37415,35.1534700,-85.2832658
4734,Winifred Avenue,37415,35.1398035,-85.2859356
4979,Browntown Road,37415,35.1431323,-85.2896414
4979,Browntown Road,37415,35.1413842,-85.2896655
4407,Highway 58,37416,35.0846801,-85.2027244
4515,Highway 58,37416,35.0853670,-85.1975103
8705,East Brainerd Road,37421,35.0011761,-85.1314088
8312,East Brainerd Road,37421,35.0027255,-85.1421902
2301,East 3rd Street,37404,35.0392304,-85.2667469
408,Dodson Avenue,37404,35.0396133,-85.2665767
829,Dallas Road,37405,35.0726803,-85.3068278
819,Spears Avenue,37406,35.0732405,-85.3099059
20,Highland Terrace Drive,37415,35.1146813,-85.2717298
17,Chumley Lane,37415,35.1153719,-85.2712533
19,Highland Terrace Drive,37415,35.1149420,-85.2716815
15,Chumley Lane,37415,35.1162611,-85.2707286
16,Chumley Lane,37415,35.1155699,-85.2711266
3511,Clio Avenue,37407-2038,35.0038445,-85.2917819
4500,Highway 58,37416,35.0842364,-85.1983127
4831,Highway 58,37416-1826,35.0920585,-85.1842825
3704,Rossville Boulevard,37407-2472,35.0007747,-85.2916486
3501,Rossville Boulevard,37407-2466,35.0035008,-85.2929369
4921,Highway 58,37416,35.0940212,-85.1801851
1214,Dartmouth Street,37405,35.0701107,-85.2898431
3758,Premium Drive,37415,35.1139139,-85.2800780
3748,Premium Drive,37415,35.1137679,-85.2803428
3745,Premium Drive,37415,35.1140247,-85.2807088
3742,Premium Drive,37415,35.1136055,-85.2805048
3719,Premium Drive,37415,35.1132601,-85.2814872
3727,Premium Drive,37415,35.1134545,-85.2813031
3739,Premium Drive,37415,35.1138144,-85.2809487
3733,Premium Drive,37415,35.1136334,-85.2811175
3757,Premium Drive,37415,35.1142475,-85.2803991
3769,Premium Drive,37415,35.1139417,-85.2797411
4709,Delashmitt Road,37343,35.1325614,-85.2670451
2100,Hamilton Place Boulevard,37421,35.0345332,-85.1587263
1100,Gateway Avenue,37402,35.0452664,-85.3192507
955,Boynton Drive,37402,35.0470024,-85.3206081
953,Boynton Drive,37402,35.0474202,-85.3207195
959,Gateway Avenue,37402,35.0466853,-85.3194511
959,Boynton Drive,37402,35.0465573,-85.3205984
951,Boynton Drive,37402,35.0478584,-85.3206052
1101,Carter Street,37402,35.0431834,-85.3135998
500,West Martin Luther King Boulevard,37402,35.0477691,-85.3191923
1293,Riverfront Parkway,37402,35.0415632,-85.3204228
1720,South Scenic Highway,37409,35.0189243,-85.3394304
925,West 39Th Street,37410-1501,35.0086715,-85.3205404
5705,Marlin Road,37411-5508,35.0087076,-85.2111323
629,Valley Bridge Road,37405,35.1184369,-85.3094240
5958,Snow Hill Road,37363-7834,35.0905947,-85.0643332
3614,Navajo Drive,37411,35.0163249,-85.2492122
239,Jarnigan Avenue,37405,35.0642365,-85.2996270
832,Georgia Avenue,37402,35.0459256,-85.3077530
921,East 3rd Street,37403,35.0488651,-85.2922217
1227,Mississippi Avenue,37405,35.0662057,-85.2935293
4115,Hixson Pike;Hixson pike,37415,35.1151652,-85.2554266
4004,Michelin Lane,37415,35.1163958,-85.2526335
4305,Hixson Pike,37415,35.1169071,-85.2510602
4445,Hixson Pike,37343,35.1182606,-85.2507162
5740,Highway 153,37343,35.1544752,-85.2481879
4860,Hixson Pike,37343,35.1283715,-85.2452227
5323,Highway 153,37343,35.1288979,-85.2438451
2215,Olan Mills Drive,37421,35.0511419,-85.1845754
5922,Hixson Pike,37343,35.1488836,-85.2073042
4844,Hixson Pike,37343,35.1280190,-85.2463020
4503,Hixson Pike,37343,35.1189277,-85.2501232
612,Barton Avenue,37405,35.0650125,-85.2943297
614,Barton Avenue,37405,35.0650953,-85.2941780
616,Barton Avenue,37405,35.0651362,-85.2940211
620,Barton Avenue,37405,35.0652488,-85.2937177
618,Barton Avenue,37405,35.0651875,-85.2938792
622,Barton Avenue,37405,35.0653003,-85.2935571
624,Barton Avenue,37405,35.0653391,-85.2934274
606,Barton Avenue,37405,35.0648370,-85.2947847
626,Barton Avenue,37405,35.0653752,-85.2932591
5001,Hixson Pike,37343,35.1333421,-85.2445903
6216,Hixson Pike,37343,35.1529490,-85.1997588
6210,Hixson Pike,37343,35.1520826,-85.1998450
6401,Lee Highway,37421,35.0356713,-85.1825190
6101,Lee Highway,37421,35.0305332,-85.1898596
5311,Highway 153,37343,35.1282511,-85.2434231
1717,Williams Road,37343,35.1245676,-85.2437441
5764,Highway 153,37343,35.1529041,-85.2495855
5104,Hixson Pike,37343,35.1343691,-85.2391362
1808,Williams Road,37343,35.1235195,-85.2430552
1810,Williams Road,37343,35.1235329,-85.2427932
1804,Williams Road,37343,35.1236793,-85.2435844
3180,Stage Run,37343,35.1357580,-85.2127655
6233,Airpark Drive,37421,35.0354621,-85.1861468
6232,Airpark Drive,37421,35.0356763,-85.1849503
4236982541,7414 Old Lee Hwy,37421,35.0602566,-85.1264996
2929,Hamill Road,37343,35.1306134,-85.2173822
1720,Green Hills Drive,37343,35.1248577,-85.2427818
1717,Green Hills Drive,37343,35.1250965,-85.2423223
1719,Green Hills Drive,37343,35.1248339,-85.2421676
1721,Green Hills Drive,37343,35.1246104,-85.2422602
1725,Green Hills Drive,37343,35.1243034,-85.2427127
1807,Williams Road,37343,35.1239519,-85.2427651
1809,Williams Road,37343,35.1240204,-85.2425196
1811,Williams Road,37343,35.1240432,-85.2422265
1813,Williams Road,37343,35.1240975,-85.2419727
1815,Williams Road,37343,35.1241426,-85.2417049
1812,Williams Road,37343,35.1236914,-85.2419005
1915,Dupont Street,37343,35.1232748,-85.2419024
1912,Dupont Street,37343,35.1230799,-85.2419949
1911,Dupont Street,37343,35.1230378,-85.2424984
1909,Dupont Street,37343,35.1228285,-85.2425793
1907,Dupont Street,37343,35.1226408,-85.2426945
1905,Dupont Street,37343,35.1224649,-85.2427804
650,McCallie Avenue,37403,35.0448951,-85.2997125
235,East Martin Luther King Boulevard,37403,35.0450109,-85.3056914
518,Oak Street,37403,35.0470342,-85.3036580
818,University Street,37403,35.0438149,-85.3004923
501,Oak Street,37403,35.0479940,-85.3027649
100,West Bell Avenue,37405,35.0682486,-85.3103114
3805,Oakland Terrace,37415,35.1185267,-85.2934879
3806,Oakland Terrace,37415,35.1182478,-85.2929343
205,West Leawood Avenue,37415,35.1184391,-85.2940831
5424,Mountain Creek Road,37415,35.1567256,-85.2827025
5426,Mountain Creek Road,37415,35.1564504,-85.2822972
3838,South Quail Lane,37415,35.1247722,-85.3090032
3836,South Quail Lane,37415,35.1248390,-85.3092751
3828,South Quail Lane,37415,35.1249452,-85.3100356
3116,Broad Street,37408-3057,35.0204413,-85.3203116
701,Market Street,37402,35.0482082,-85.3098159
2501,Broad Street,37408,35.0284354,-85.3168122
3151,Broad Street,37408,35.0192864,-85.3217200
201,Broad Street,37408,35.0301132,-85.3157517
3201,Broad Street,37408,35.0188614,-85.3218792
400,East 11th Street,37403,35.0415224,-85.3052321
720,East 4th Street,37403,35.0503620,-85.3009503
504,Manning Street,37405,35.0650799,-85.3155998
504,Manning Street,37405,35.0652409,-85.3155529
214,East 8th Street,37402,35.0466486,-85.3070318
410,East 8th Street,37403,35.0454038,-85.3042357
540,McCallie Avenue,37402,35.0461273,-85.3032897
431,East Martin Luther King Boulevard,37403,35.0440451,-85.3031027
901,Carter Street,37402,35.0453205,-85.3124298
801,Pine Street,37402,35.0471674,-85.3130792
735,Broad Street,37402,35.0473087,-85.3108837
3401,Amnicola Highway,37406-1761,35.0810923,-85.2648696
721,Broad Street,37402,35.0476556,-85.3109052
4869,Hixson Pike,37343,35.1289019,-85.2458773
400,Chestnut Street,37402,35.0518326,-85.3114494
532,Lookout Street,37403,35.0500350,-85.3061432
4315,Brainerd Road,37411,35.0163736,-85.2344151
554,McCallie Avenue,37402,35.0456977,-85.3021786
542,McCallie Avenue,37402,35.0460941,-85.3025536
5203,Old Mission Road,37411,35.0185843,-85.2193353
1300,Carter Street,37402,35.0409810,-85.3137765
275,Northgate Mall Drive,37415,35.1316103,-85.2370558
5510,Highway 153,37343,35.1437389,-85.2474645
1,Broad Street,37402,35.0558394,-85.3110230
9307,Lee Highway,37363,35.0833293,-85.0577272
423,Lullwater Road,37405,35.0899941,-85.3222090
625,North Valley Drive,37415,35.1207029,-85.3096802
617,North Valley Drive,37415,35.1201539,-85.3078360
641,North Valley Drive,37415,35.1192361,-85.3116500
637,North Valley Drive,37415,35.1197548,-85.3113713
633,North Valley Drive,37415,35.1202801,-85.3109929
631,North Valley Drive,37415,35.1205020,-85.3106863
634,North Valley Drive,37415,35.1199135,-85.3106701
638,North Valley Drive,37415,35.1192637,-85.3110866
636,North Valley Drive,37415,35.1195947,-85.3108609
635,North Valley Drive,37415,35.1199981,-85.3112129
629,North Valley Drive,37415,35.1206529,-85.3103735
4500,Dayton Boulevard,37415,35.1293353,-85.2831451
5601,Mcabbe Ln,37415,35.1515650,-85.2714919
1945,Dayton Boulevard,37415,35.0893533,-85.3130848
615,North Valley Drive,37415,35.1200359,-85.3074434
623,North Valley Drive,37415,35.1206144,-85.3093133
607,North Valley Drive,37415,35.1196210,-85.3061051
609,North Valley Drive,37415,35.1196814,-85.3064583
600,Spring Valley Lane,37415,35.1188440,-85.3054350
601,North Valley Drive,37415,35.1191552,-85.3050162
604,North Valley Drive,37415,35.1189948,-85.3057891
608,Werner St,37415,35.1055405,-85.2827910
3313,Redding Road,37415,35.1096188,-85.2942244
603,North Valley Drive,37415,35.1193810,-85.3054383
122,Valley View Drive,37415,35.1257871,-85.2826122
4039,Dayton Boulevard,37415,35.1222069,-85.2882036
5595,Highway 153,37343,35.1479353,-85.2498797
3514,Redding Road,37415,35.1134384,-85.2910414
3616,Tacoma Avenue,37415,35.1142058,-85.2891507
1939,Dayton Boulevard,37405,35.0888128,-85.3135103
5301,Old Hixson Pike,37343,35.1424019,-85.2361829
5440,Highway 153,37343,35.1387734,-85.2472012
4302,Bonny Oaks Drive,37416,35.0803471,-85.2104155
5208,Hixson Pike,37343,35.1370353,-85.2355525
3717,Tacoma Avenue,37415,35.1156396,-85.2891293
3709,Tacoma Avenue,37415,35.1152013,-85.2893861
3608,Tacoma Avenue,37415,35.1136482,-85.2895633
3606,Tacoma Avenue,37415,35.1135087,-85.2896763
3708,Redding Road,37415,35.1152579,-85.2901234
3718,Tacoma Avenue,37415,35.1156899,-85.2885681
3607,Tacoma Avenue,37415,35.1136951,-85.2901954
3511,Tacoma Avenue,37415,35.1130674,-85.2904230
3512,Redding Road,37415,35.1132823,-85.2911277
3609,Tacoma Avenue,37415,35.1138408,-85.2900896
3502,Redding Road,37415,35.1125276,-85.2915072
3711,Tacoma Avenue,37415,35.1153429,-85.2892894
3715,Tacoma Avenue,37415,35.1154979,-85.2892075
3508,Redding Road,37415,35.1129691,-85.2912319
3704,Redding Road,37415,35.1151287,-85.2902561
3510,Redding Road,37415,35.1131158,-85.2911790
3700,Redding Road,37415,35.1147959,-85.2903275
3708,Redding Road,37415,35.1154249,-85.2900272
3708,Tacoma Avenue,37415,35.1148105,-85.2889950
3507,Tacoma Avenue,37415,35.1127443,-85.2905212
3719,Tacoma Avenue,37415,35.1158731,-85.2890305
3602,Redding Road,37415,35.1139641,-85.2907012
3714,Tacoma Avenue,37415,35.1154019,-85.2886809
3509,Tacoma Avenue,37415,35.1129361,-85.2905071
3702,Tacoma Avenue,37415,35.1144042,-85.2891500
3702,Redding Road,37415,35.1149662,-85.2902409
3602,Tacoma Avenue,37415,35.1132101,-85.2898005
3716,Redding Road,37415,35.1160044,-85.2897635
3705,Tacoma Avenue,37415,35.1147667,-85.2896619
3513,Tacoma Avenue,37415,35.1131920,-85.2903233
3718,Redding Road,37415,35.1161664,-85.2896802
3615,Tacoma Avenue,37415,35.1142921,-85.2898273
3707,Tacoma Avenue,37415,35.1150307,-85.2894602
3703,Tacoma Avenue,37415,35.1145914,-85.2897100
3506,Tacoma Avenue,37415,35.1125126,-85.2896641
3601,Tacoma Avenue,37415,35.1134462,-85.2902574
3613,Tacoma Avenue,37415,35.1141296,-85.2899190
3710,Tacoma Avenue,37415,35.1150225,-85.2888630
3701,Tacoma Avenue,37415,35.1144204,-85.2897356
1943,Dayton Boulevard,37405,35.0887043,-85.3124562
3606,Redding Road,37415,35.1142320,-85.2905913
3610,Redding Road,37415,35.1145066,-85.2905274
4411,Dayton Boulevard,37415,35.1282640,-85.2844362
2,Johnson Boulevard,37415,35.1283545,-85.2846673
4,Johnson Boulevard,37415,35.1284515,-85.2848690
6,Johnson Boulevard,37415,35.1285501,-85.2851022
4400,High Top Road,37415,35.1285022,-85.2890515
4403,High Top Road,37415,35.1292437,-85.2886122
4407,High Top Road,37415,35.1297735,-85.2883139
4417,High Top Road,37415,35.1302493,-85.2879004
18,Johnson Boulevard,37415,35.1291917,-85.2866903
22,Johnson Boulevard,37415,35.1294340,-85.2872671
14,Johnson Boulevard,37415,35.1289452,-85.2859720
19,Johnson Boulevard,37415,35.1295569,-85.2864486
16,Johnson Boulevard,37415,35.1290370,-85.2862370
15,Johnson Boulevard,37415,35.1293967,-85.2861451
13,Johnson Boulevard,37415,35.1292477,-85.2858087
11,Johnson Boulevard,37415,35.1291525,-85.2855821
12,Johnson Boulevard,37415,35.1288473,-85.2857691
4845,McCahill Road,37415,35.1400081,-85.2835434
4897,McCahill Road,37415,35.1404490,-85.2834026
712,Signal Mountain Road,37405,35.0995501,-85.3280125
713,Mountain Creek Road,37405,35.0999057,-85.3279579
116,Cross Street,37405,35.1000930,-85.3282359
118,Cross Street,37405,35.1000865,-85.3280802
5,Johnson Boulevard,37415,35.1288719,-85.2849320
3,Johnson Boulevard,37415,35.1287635,-85.2846532
1,Johnson Boulevard,37415,35.1286286,-85.2843749
10,Johnson Boulevard,37415,35.1287540,-85.2855246
9,Johnson Boulevard,37415,35.1290050,-85.2853161
3813,Forest Highland Drive,37415,35.1142150,-85.2677465
3814,Forest Highland Drive,37415,35.1143216,-85.2682731
3805,Forest Highland Circle,37415,35.1150510,-85.2672157
3727,Forest Highland Circle,37415,35.1155375,-85.2661529
3802,Forest Highland Circle,37415,35.1155747,-85.2671728
3811,Forest Highland Drive,37415,35.1144525,-85.2676439
3903,Forest Highland Drive,37415,35.1138121,-85.2670217
3816,Forest Highland Drive,37415,35.1140613,-85.2682504
3815,Forest Highland Drive,37415,35.1140122,-85.2675286
3801,Forest Highland Circle,37415,35.1151679,-85.2669151
3729,Forest Highland Circle,37415,35.1152980,-85.2665730
3812,Forest Highland Drive,37415,35.1145433,-85.2681933
3804,Forest Highland Circle,37415,35.1153563,-85.2675570
3809,Forest Highland Drive,37415,35.1146701,-85.2675783
3728,Forest Highland Circle,37415,35.1157409,-85.2668457
3726,Forest Highland Circle,37415,35.1159773,-85.2664070
3909,Forest Highland Drive,37415,35.1137405,-85.2667103
3818,Forest Highland Drive,37415,35.1137846,-85.2680279
933,Signal Mountain Road,37405,35.1017140,-85.3311714
5025,Dayton Boulevard,37415,35.1438273,-85.2760636
4501,Spring Lake Road,37415-2000,35.1296491,-85.3018330
4505,Spring Lake Road,37415-2000,35.1300340,-85.3015372
4503,Spring Lake Road,37415-2000,35.1298514,-85.3016788
3821,Hixson Pike,37415,35.1115303,-85.2700337
357,Reads Lake Road,37415,35.1267120,-85.2953208
369,Reads Lake Road,37415,35.1265242,-85.2951604
3545,Probasco Place,37411,35.0256408,-85.2470569
4501,Amnicola Highway,37406,35.1007271,-85.2428805
1032,McCallie Avenue,37403,35.0408191,-85.2888120
1117,East 3rd Street,37403,35.0467726,-85.2869968
514,Palmetto Street,37403,35.0463667,-85.2940998
139,East 25th Street Place,37408,35.0266860,-85.3084124
2420,Williams Street,37408,35.0287353,-85.3131501
51,West 25th Street,37408,35.0273838,-85.3125869
4808,Brainerd Road,37411,35.0125319,-85.2299416
927,West 37th Street,37410,35.0108856,-85.3181625
2700,East 34th Street,37407,35.0013160,-85.2821246
1815,East 32nd Street,37407,35.0085130,-85.2903629
4850,Jersey Pike,37416,35.0912271,-85.1783315
5210,Cassandra Smith Road,37343,35.1316901,-85.2110833
4134,Hixson Pike,37415,35.1139880,-85.2532607
6579,East Brainerd Road,37421,35.0199294,-85.1895562
1603,South Lyerly Street,37403,35.0232928,-85.2761623
800,Woodmore Lane,37411,35.0317322,-85.2263662
5705,Middle Valley Road,37343,35.1547629,-85.2227137
455,North Highland Park Avenue,37404,35.0446675,-85.2777658
2500,South Market Street,37408,35.0258407,-85.3098882
6837,Tyner Road,37421,35.0621977,-85.1535341
2100,Glass Street,37406,35.0620570,-85.2574394
6836,Tyner Road,37421,35.0611308,-85.1541165
3504,Dayton Boulevard,37415,35.1128001,-85.2928994
5530,Hixson Pike,37343,35.1448966,-85.2220870
4706,Haney Drive,37411,35.0133037,-85.2306352
502,Orr Street,37405,35.0667557,-85.2955597
613,Barton Avenue,37405,35.0655545,-85.2942680
607,Barton Avenue,37405,35.0654184,-85.2947427
605,Barton Avenue,37405,35.0653595,-85.2948966
603,Barton Avenue,37405,35.0653002,-85.2950371
609,Barton Avenue,37405,35.0654637,-85.2945637
611,Barton Avenue,37405,35.0655091,-85.2944141
601,Barton Avenue,37405,35.0652731,-85.2951800
400,Garden Road,37419,35.0101005,-85.3648371
2000,East 3rd Street,37404-2609,35.0395080,-85.2706492
2525,Woodfin Avenue,37415,35.1010524,-85.3063061
212,Masters Road East,37343,35.1563113,-85.2099542
210,Masters Road East,37343,35.1564038,-85.2103606
204,Masters Road East,37343,35.1567779,-85.2113795
1269,Echo Drive,37415,35.1234287,-85.2529211
216,Masters Road East,37343,35.1569773,-85.2099053
1277,Echo Drive,37415,35.1235414,-85.2526306
114,Masters Road East,37343,35.1567118,-85.2097089
214,Masters Road East,37343,35.1567256,-85.2105294
206,Masters Road East,37343,35.1566621,-85.2109355
218,Masters Road East,37343,35.1573266,-85.2096294
209,Masters Road East,37343,35.1573562,-85.2107446
202,Masters Road East,37343,35.1569214,-85.2117655
201,Masters Road East,37343,35.1574094,-85.2115013
219,Masters Road East,37343,35.1574532,-85.2103776
221,Masters Road East,37343,35.1577913,-85.2102807
220,Masters Road East,37343,35.1576482,-85.2094446
208,Masters Road,37343,35.1577603,-85.2111595
1202,Cranbrook Drive,37415,35.1236092,-85.2552278
1204,Cranbrook Drive,37415,35.1236458,-85.2549483
1206,Cranbrook Drive,37415,35.1236728,-85.2546918
1208,Cranbrook Drive,37415,35.1236958,-85.2544217
1210,Cranbrook Drive,37415,35.1237232,-85.2541222
1212,Cranbrook Drive,37415,35.1237706,-85.2536800
1214,Cranbrook Drive,37415,35.1238008,-85.2534043
1216,Cranbrook Drive,37415,35.1238351,-85.2531520
1218,Cranbrook Drive,37415,35.1238585,-85.2528867
1220,Cranbrook Drive,37415,35.1238744,-85.2526252
4841,Hixson Pike,37343,35.1278415,-85.2473629
4827,Hixson Pike,37343,35.1271186,-85.2478323
5084,New Country Drive,37343,35.1214831,-85.2393086
4500,Pinnacle Lane,37415,35.1080256,-85.2364020
4531,North Access Road,37415,35.1096019,-85.2409954
3918,Forest Highland Drive,37415,35.1134118,-85.2658462
930,Ashland Terrace,37415,35.1152224,-85.2643460
5439,Highway 153,37343,35.1406636,-85.2490270
1023,East Elmwood Drive,37405,35.0740681,-85.3224394
928,East Elmwood Drive,37405,35.0693506,-85.3251475
4801,Brainerd Road,37411,35.0137211,-85.2291867
1503,Pin Oak Drive,37411-1617,35.0424838,-85.2335332
3801,Larry Drive,37411-1610,35.0422892,-85.2330724
3805,Larry Drive,37411-1610,35.0422024,-85.2328064
3819,Larry Drive,37411-1610,35.0413814,-85.2318660
3823,Larry Drive,37411-1610,35.0412030,-85.2320417
3825,Larry Drive,37411-1610,35.0410489,-85.2322410
3827,Larry Drive,37411-1610,35.0409237,-85.2325049
3831,Larry Drive,37411-1610,35.0409511,-85.2328762
3835,Larry Drive,37411-1610,35.0411941,-85.2330932
3837,Larry Drive,37411-1610,35.0414141,-85.2331688
3841,Larry Drive,37411-1610,35.0416486,-85.2331734
3804,Larry Drive,37411-1698,35.0418803,-85.2332216
2200,North Chamberlain Avenue,37406,35.0621639,-85.2494195
2202,North Chamberlain Avenue,37406,35.0614086,-85.2503987
4119,Cromwell Road,37421,35.0678869,-85.2061379
809,Market Street,37402,35.0467802,-85.3097735
3407,Redding Road,37415,35.1104321,-85.2935135
3405,Redding Road,37415,35.1102975,-85.2936285
3403,Redding Road,37415,35.1101720,-85.2937486
3409,Redding Road,37415,35.1105565,-85.2933606
3401,Redding Road,37415,35.1100542,-85.2938963
3315,Redding Road,37415,35.1097973,-85.2940615
3508,Dayton Boulevard,37415,35.1130639,-85.2930011
3305,Redding Road,37415,35.1092114,-85.2946399
3406,Redding Road,37415,35.1102087,-85.2931446
3404,Redding Road,37415,35.1100574,-85.2932397
3402,Redding Road,37415,35.1099026,-85.2934508
3400,Redding Road,37415,35.1097553,-85.2936157
3314,Redding Road,37415,35.1094894,-85.2938667
229,Vreeland Street,37415,35.0944783,-85.3131814
3570,Lamar Avenue,37415,35.1157944,-85.2996753
3569,Lamar Avenue,37415,35.1161325,-85.2993251
3571,Lamar Avenue,37415,35.1156227,-85.2999268
3572,Lamar Avenue,37415,35.1154180,-85.3000493
210,Hendricks Road,37405,35.0961616,-85.3146500
133,Hendricks Road,37405,35.0962763,-85.3151412
131,Hendricks Road,37405,35.0961213,-85.3152998
3569,Lamar Avenue,37415,35.1159425,-85.2995217
3568,Lamar Avenue,37415,35.1162624,-85.2992120
3567,Lamar Avenue,37415,35.1164901,-85.2990391
3566,Lamar Avenue,37415,35.1166316,-85.2989166
3710,Rossville Boulevard,37407-2472,35.0006317,-85.2916387
3565,Lamar Avenue,37415,35.1169909,-85.2986502
3573,Lamar Avenue,37415,35.1150006,-85.3002147
5111,Hixson Pike,37343,35.1360434,-85.2393246
4035,Knollwood Drive,37415,35.1193304,-85.2827565
104,Norman Ln,37405,35.0980214,-85.3334931
3800,Redding Road,37415,35.1164152,-85.2895726
3802,Redding Road,37415,35.1165726,-85.2894841
211,Gadd Road,37415,35.1454468,-85.2704651
4509,Crestview Drive,37415,35.1266619,-85.2787647
4507,Crestview Drive,37415,35.1263999,-85.2790062
3805,Tacoma Avenue,37415,35.1164824,-85.2887717
841,Manchester Drive,37415,35.1087148,-85.2724349
3804,Tacoma Avenue,37415,35.1164830,-85.2881932
833,Manchester Drive,37415,35.1088335,-85.2726986
3802,Tacoma Avenue,37415,35.1160865,-85.2883543
3801,Tacoma Avenue,37415,35.1162495,-85.2889177
30=802,Tacoma Avenue,37415,35.1163552,-85.2882945
1806,Dogwood Drive,37406,35.0497688,-85.2290074
850,Manchester Drive,37415,35.1082570,-85.2726163
846,Manchester Drive,37415,35.1083657,-85.2728419
827,Manchester Drive,37415,35.1089268,-85.2729680
838,Manchester Drive,37415,35.1084409,-85.2730995
3610,Premium Drive,37415,35.1110194,-85.2821148
832,Manchester Drive,37415,35.1085357,-85.2733634
926,East Elmwood Drive,37405,35.0684773,-85.3258580
1904,Hickory Valley Road,37421,35.0330942,-85.1728303
924,East Elmwood Drive,37405,35.0682283,-85.3260695
819,Manchester Drive,37415,35.1090201,-85.2732151
922,East Elmwood Drive,37405,35.0680603,-85.3263894
813,Manchester Drive,37415,35.1090803,-85.2734555
3910,Tacoma Avenue,37415,35.1187849,-85.2869562
3908,Tacoma Avenue,37415,35.1187664,-85.2872161
806,Manchester Drive,37415,35.1091693,-85.2737434
818,Manchester Drive,37415,35.1086666,-85.2738865
810,Manchester Drive,37415,35.1087288,-85.2741301
3825,Pickering Avenue,37415,35.1177134,-85.2868106
3820,Pickering Avenue,37415,35.1170535,-85.2866639
804,Manchester Drive,37415,35.1088187,-85.2743976
751,Manchester Drive,37415,35.1092571,-85.2743784
3817,Tacoma Avenue,37415,35.1174561,-85.2883091
3815,Tacoma Avenue,37415,35.1172713,-85.2883822
3813,Tacoma Avenue,37415,35.1171304,-85.2884793
4515,Crerar Street,37415,35.1310628,-85.2845926
4505,Crerar Street,37415,35.1306422,-85.2847561
4503,Crerar Street,37415,35.1304374,-85.2848066
770,Manchester Drive,37415,35.1087976,-85.2746602
3812,Tacoma Avenue,37415,35.1168332,-85.2876870
3810,Tacoma Avenue,37415,35.1167826,-85.2880538
3811,Pickering Avenue,37415,35.1165534,-85.2873491
3807,Pickering Avenue,37415,35.1162460,-85.2874784
201,Thueler Street,37415,35.1302927,-85.2850295
110,Thueler Street,37415,35.1297738,-85.2847783
747,Manchester Drive,37415,35.1092840,-85.2747583
200,Thueler Street,37415,35.1298824,-85.2850233
3802,Pickering Avenue,37415,35.1153791,-85.2872981
204,Thueler Street,37415,35.1299870,-85.2852755
208,Thueler Street,37415,35.1301109,-85.2855539
210,Thueler Street,37415,35.1302192,-85.2857993
112,Thueler Street,37415,35.1303101,-85.2860213
764,Manchester Drive,37415,35.1088265,-85.2749135
709,Moccasin Bend Road,37405,35.0595214,-85.3310465
743,Manchester Drive,37415,35.1093399,-85.2750645
631,Stonebrook Drive,37415,35.1460312,-85.2962371
739,Manchester Drive,37415,35.1094158,-85.2753254
3623,Morton Drive,37415,35.1112490,-85.2815428
1,Fernway Road,37405,35.0839193,-85.2940896
3802,Jarren court,37415,35.1139006,-85.2687928
3810,Forest Highland Drive,37415,35.1147970,-85.2681103
3808,Forest Highland Drive,37415,35.1150503,-85.2681342
3724,Jarren Drive,37415,35.1148101,-85.2685585
3808,Jarren Court,37415,35.1132576,-85.2689338
5830,Brainerd Road,37411,35.0122397,-85.2122090
120,Valley View Drive,37415,35.1255100,-85.2829935
122,Valley View Drive,37415,35.1256705,-85.2827483
512,Lancaster Avenue,37415,35.1064990,-85.3036012
515,Lancaster Avenue,37415,35.1062210,-85.3042154
599,Lancaster Avenue,37415,35.1058927,-85.3049636
4101,Norcross Road,37343,35.1171485,-85.2602855
509,Lancaster Avenue,37415,35.1080554,-85.3036264
507,Lancaster Avenue,37415,35.1072875,-85.3029389
503,Lancaster Avenue,37415,35.1073827,-85.3025397
503,Lancaster Avenue,37415,35.1077430,-85.3020581
3034,Lancaster Circle,37415,35.1068321,-85.3030913
3010,Lancaster Circle,37415,35.1066163,-85.3030801
3006,Lancaster Circle,37415,35.1057388,-85.3029847
3008,Lancaster Circle,37415,35.1062898,-85.3026190
3096,Lancaster Avenue,37415,35.1067380,-85.3024643
402,Lancaster Avenue,37415,35.1069353,-85.3018249
3006,Lancaster Avenue,37415,35.1064867,-85.3012650
3004,Lancaster Avenue,37415,35.1064044,-85.3011277
3810,Oakland Terrace,37415,35.1186060,-85.2926939
3805,Sliger Circle,37415,35.1181414,-85.2922308
111,West Leawood Avenue,37415,35.1179372,-85.2928408
432,Lullwater Road,37415,35.0917762,-85.3204246
4510,Crerar Street,37415,35.1308698,-85.2841105
3517,Lamar Avenue,37415,35.1168663,-85.2982799
4423,Dayton Boulevard,37415,35.1292362,-85.2839810
15,Orlando Drive,37415,35.1313431,-85.2803922
529,Lullwater Road,37405,35.0951115,-85.3183203
4813,Viola Drive,37415,35.1372555,-85.2760445
4811,Viola Drive,37415,35.1370668,-85.2761278
4809,Viola Drive,37415,35.1368541,-85.2762276
4801,Viola Drive,37415,35.1361112,-85.2766563
510,Lancaster Avenue,37415,35.1067367,-85.3035340
513,Lancaster Avenue,37415,35.1064654,-85.3041601
511,Lancaster Avenue,37415,35.1068749,-85.3043082
514,Lancaster Avenue,37415,35.1061798,-85.3035805
3004,Lancaster Circle,37415,35.1058698,-85.3035091
3000,Berkley Dr,37415,35.1056138,-85.3025095
2884,Berkley Dr,37415,35.1056798,-85.3018011
321,Lancaster Avenue,37415,35.1062591,-85.3009031
234,Lancaster Avenue,37415,35.1061031,-85.3006473
206,Lancaster Avenue,37415,35.1058426,-85.3003916
203,Lancaster Avenue,37415,35.1057244,-85.3002755
2900,Berkley Dr,37415,35.1053038,-85.3016560
2902,Berkley Dr,37415,35.1055121,-85.3012667
204,Lancaster Avenue,37415,35.1056236,-85.3008004
204,Lancaster Avenue,37415,35.1054838,-85.3006905
202,Lancaster Avenue,37415,35.1053144,-85.3005540
204,Lancaster Avenue,37415,35.1051373,-85.3003833
105,Lancaster Avenue,37415,35.1047706,-85.2998202
109,Lancaster Avenue,37415,35.1051098,-85.2994970
117,Lancaster Avenue,37415,35.1052448,-85.2996420
110,Glendale Drive,37405,35.1060187,-85.3319578
1001,Mountain Creek Road,37405,35.1078888,-85.3259159
3540,Cummings Highway,37419,35.0181441,-85.3764110
3002,Lancaster Circle,37415,35.1053799,-85.3032216
628,Intermont Road,37415,35.1084258,-85.2772176
4608,St Elmo Avenue,37409,34.9980373,-85.3291677
636,Intermont Road,37415,35.1082831,-85.2768938
714,Intermont Road,37415,35.1081332,-85.2766219
3710,Modern Industries Parkway,37419,35.0155090,-85.3851016
7345,Courage Way,37421,35.0531128,-85.1437741
7351,Courage Way,37421,35.0537592,-85.1433830
2207,Allin Street,37406,35.0763338,-85.2472114
2210,Allin Street,37406,35.0759866,-85.2474043
2212,Allin Street,37406,35.0759167,-85.2472209
2213,Allin Street,37406,35.0762659,-85.2469970
2214,Allin Street,37406,35.0758636,-85.2470858
2215,Allin Street,37406,35.0762190,-85.2468547
2217,Allin Street,37406,35.0761583,-85.2467092
2219,Allin Street,37406,35.0760893,-85.2465697
3315,Allin Street,37406,35.0757598,-85.2467817
3819,Pickering Avenue,37415,35.1171062,-85.2871040
3808,Tacoma Avenue,37415,35.1166647,-85.2881042
6311,Dayton Boulevard,37343,35.1771354,-85.2514858
1623,Auburndale ave.,37415,35.0819081,-85.2998492
1621,Auburndale ave.,37415,35.0818287,-85.3000072
304,Elderberry Lane,37411,35.0227043,-85.2562842
321,Elderberry Lane,37411,35.0226555,-85.2547292
5205,Tacoa Circle,37411,35.0125890,-85.2222922
995,Elaine Trail,37421,35.0077890,-85.1697217
101,Lawn Street,37405,35.0755918,-85.3096551
344,Dodds Avenue,37404,35.0310134,-85.2633094
310,Dodds Avenue,37404-3906,35.0311068,-85.2638751
4136,Jersey Pike,37421,35.0628045,-85.1957011
4140,Jersey Pike,37421,35.0628241,-85.1949714
4120,Jersey Pike,37421,35.0592633,-85.1961831
3002,Jersey Pike,37421,35.0574810,-85.1963145
4130,Jersey Pike,37421,35.0606323,-85.1939058
4132,Jersey Pike,37421,35.0612303,-85.1947741
4134,Jersey Pike,37421,35.0616030,-85.1958068
3600,Dayton Boulevard,37415,35.1144256,-85.2921510
3616,Thrushwood Drive,37415,35.1111822,-85.2837495
3131,Mountain Creek Road,37415,35.1222093,-85.3164970
3609,Premium Drive,37415,35.1108251,-85.2827109
3611,Premium Drive,37415,35.1110648,-85.2826985
3612,Thrushwood Drive,37415,35.1109333,-85.2837023
3608,Premium Drive,37415,35.1107703,-85.2820438
3614,Premium Drive,37415,35.1114445,-85.2821779
4198,Norwood Avenue,37415,35.1230650,-85.2896784
4800,Viola Drive,37415,35.1359318,-85.2761835
4802,Viola Drive,37415,35.1360936,-85.2760325
4806,Viola Drive,37415,35.1365127,-85.2757984
4804,Viola Drive,37415,35.1363085,-85.2759845
4808,Viola Drive,37415,35.1366979,-85.2757708
4810,Viola Drive,37415,35.1368712,-85.2756227
3613,Premium Drive,37415,35.1112546,-85.2826232
3638,Thrushwood Drive,37415,35.1117661,-85.2838112
3615,Premium Drive,37415,35.1115021,-85.2826046
1712,Edgehill Drive,37405,35.0820289,-85.3017441
3629,Premium Drive,37415,35.1116814,-85.2826450
3635,Premium Drive,37415,35.1119275,-85.2827009
3698,Premium Drive,37415,35.1122360,-85.2821253
3641,Premium Drive,37415,35.1121259,-85.2826398
3602,Premium Drive,37415,35.1104264,-85.2823392
426,Manchester Drive,37415,35.1122192,-85.2818348
432,Manchester Drive,37415,35.1124512,-85.2811119
428,Manchester Drive,37415,35.1121025,-85.2816180
432,Manchester Drive,37415,35.1120335,-85.2813592
3631,Morton Drive,37415,35.1117444,-85.2816242
3617,Morton Drive,37415,35.1110367,-85.2815667
3601,Morton Drive,37415,35.1105019,-85.2816241
3602,Morton Drive,37415,35.1104614,-85.2811976
506,Acort Court,37415,35.1109261,-85.2810649
430,Intermont Drive,37415,35.1103248,-85.2828320
3627,Morton Drive,37415,35.1114533,-85.2809716
3131,Mountain Creek Road,37415,35.1238270,-85.3170216
3527,Thrushwood Drive,37415,35.1099886,-85.2839920
512,Acort Court,37415,35.1108573,-85.2807685
3609,Knollwood Drive,37415,35.1101771,-85.2844132
520,Acort Court,37415,35.1108189,-85.2805116
3615,Knollwood Drive,37415,35.1102068,-85.2846488
3621,Knollwood Drive,37415,35.1102632,-85.2849374
3631,Knollwood Drive,37415,35.1102743,-85.2852024
540,Acort Court,37415,35.1107129,-85.2802592
604,Semi Circle,37415,35.1098636,-85.2852802
550,Acort Court,37415,35.1103694,-85.2804395
528,Semi Circle,37415,35.1100098,-85.2862870
526,Semi Circle,37415,35.1097864,-85.2864498
524,Semi Circle,37415,35.1094844,-85.2866662
555,Acort Court,37415,35.1099791,-85.2799954
535,Semi Circle,37415,35.1103168,-85.2867708
545,Acort Court,37415,35.1103658,-85.2798498
537,Acort Court,37415,35.1106017,-85.2797820
515,Semi Circle,37415,35.1096487,-85.2875912
531,Acort Court,37415,35.1108628,-85.2797546
525,Acort Court,37415,35.1111047,-85.2800053
519,Acort Court,37415,35.1112172,-85.2803125
102,Norman Ln,37405,35.0981528,-85.3334202
511,Acort Court,37415,35.1113521,-85.2806485
171,Signal Hills Drive,37405,35.0982179,-85.3350780
163,Signal Hills Drive,37405,35.0984037,-85.3344087
175,Signal Hills Drive,37405,35.0986119,-85.3353587
4198,Norwood Avenue,37415,35.1229328,-85.2891450
3702,Premium Drive,37415,35.1128267,-85.2820680
112,Signal Hills Drive,37405,35.0994625,-85.3303171
110,Signal Hills Drive,37405,35.0995209,-85.3301910
4186,Norwood Avenue,37415,35.1227168,-85.2892416
3702,Premium Drive,37415,35.1126047,-85.2815500
3703,Premium Drive,37415,35.1129516,-85.2818406
4158,Norwood Avenue,37415,35.1225352,-85.2893868
126,Signal Hills Drive,37405,35.0988397,-85.3313902
128,Signal Hills Drive,37405,35.0987618,-85.3315904
134,Signal Hills Drive,37405,35.0984776,-85.3320699
138,Signal Hills Drive,37405,35.0984943,-85.3323006
101,Norman Ln,37405,35.0982978,-85.3337581
152,Signal Hills Drive,37405,35.0981588,-85.3339769
158,Signal Hills Drive,37405,35.0980660,-85.3344433
160,Signal Hills Drive,37405,35.0980239,-85.3345817
102,D Street,37405,35.0976796,-85.3348556
104,D Street,37405,35.0975818,-85.3350648
106,D Street,37405,35.0974995,-85.3351861
917,Federal Street,37405,35.0734333,-85.2946522
600,Douglas Street,37403,35.0473968,-85.3001340
4700,Stagg Road,37421,35.1302390,-85.2714104
3513,Van Winkle Circle,37415,35.1074993,-85.2821134
5606,Old Dayton Pike,37415,35.1540365,-85.2708904
3807,Jarren Court,37415,35.1135066,-85.2697801
3517,Van Winkle Circle,37415,35.1076021,-85.2819025
3738,Knollwood Drive,37415,35.1139646,-85.2858472
3722,Knollwood Drive,37415,35.1134580,-85.2860764
3714,Knollwood Drive,37415,35.1132181,-85.2862224
3410,Redding Road,37415,35.1105104,-85.2925660
3706,Knollwood Drive,37415,35.1129149,-85.2862603
3414,Redding Road,37415,35.1110529,-85.2922584
3418,Redding Road,37415,35.1112475,-85.2920984
3420,Redding Road,37415,35.1114252,-85.2920784
3426,Redding Road,37415,35.1119607,-85.2917992
2804,Berkley Dr,37415,35.1051432,-85.3024105
2806,Berkley Dr,37415,35.1051962,-85.3022308
2808,Berkley Dr,37415,35.1051904,-85.3020148
1416,Oneal Road,37415,35.1251427,-85.2548151
3905,Robbinsdale Lane,37415,35.1222722,-85.2950801
3811,Jarren Court,37415,35.1138331,-85.2704940
3538,Sleepy Hollow Road,37415,35.1083843,-85.2824676
3809,Jarren Court,37415,35.1135891,-85.2700014
3813,Jarren Court,37415,35.1139110,-85.2707847
3530,Sleepy Hollow Road,37415,35.1082673,-85.2826841
3824,Jarren Court,37415,35.1136812,-85.2709617
3524,Sleepy Hollow Road,37415,35.1081196,-85.2828839
3822,Jarren Court,37415,35.1133923,-85.2705897
3119,Ozark Road,37415,35.1018602,-85.2814796
3820,Jarren Court,37415,35.1132867,-85.2702704
3542,Sleepy Hollow Road,37415,35.1085238,-85.2822504
3818,Jarren Court,37415,35.1131148,-85.2698228
1250,West Fairfax Drive,37415,35.1093597,-85.2623757
3816,Jarren Court,37415,35.1129695,-85.2694532
3546,Sleepy Hollow Road,37415,35.1082483,-85.2818980
3805,Jarren Court,37415,35.1133598,-85.2694556
3536,Sleepy Hollow Road,37415,35.1080889,-85.2821215
5605,Old Dayton Pike,37415,35.1538783,-85.2710084
5604,Old Dayton Pike,37415,35.1537113,-85.2711814
3814,Jarren Court,37415,35.1128411,-85.2692261
3140,Social Circle,37415,35.1021317,-85.2825164
3812,jarren ct,37415,35.1127651,-85.2689636
3530,Sleepy Hollow Road,37415,35.1079374,-85.2823149
3810,Jarren Court,37415,35.1130194,-85.2688733
3522,Sleepy Hollow Road,37415,35.1078289,-85.2829979
3907,Robbinsdale Lane,37415,35.1225337,-85.2949419
3806,Jarren Court,37415,35.1135855,-85.2693037
3909,Robbinsdale Lane,37415,35.1227848,-85.2948205
3801,Jarren Court,37415,35.1135077,-85.2687926
3210,Social Circle,37415,35.1025940,-85.2831459
3803,Jarren Court,37415,35.1137979,-85.2692339
3115,Ozark Road,37415,35.1017875,-85.2817745
3804,Jarren Court,37415,35.1136816,-85.2687585
3111,Ozark Road,37415,35.1017209,-85.2821327
3800,Jarren Court,37415,35.1142285,-85.2687702
3911,Robbinsdale Lane,37415,35.1231015,-85.2949313
3722,Jarren Drive,37415,35.1145741,-85.2686284
3913,Robbinsdale Lane,37415,35.1232427,-85.2946305
3175,Paul Kern Lane,37415,35.1029451,-85.2823386
5608,Old Dayton Pike,37415,35.1543029,-85.2705631
3317,Van Buren Street,37415,35.1027838,-85.2821754
3719,Jarren Drive,37415,35.1148685,-85.2691058
3311,Van Buren Street,37415,35.1025729,-85.2820500
3725,Jarren Drive,37415,35.1151692,-85.2695846
3231,Van Buren Street,37415,35.1023883,-85.2817447
3287,Van Buren Street,37415,35.1021696,-85.2816293
213,Euclid Avenue,37415,35.1122293,-85.2900355
3717,Jarren Drive,37415,35.1147507,-85.2699814
3717,Jarren Drive,37415,35.1143090,-85.2702833
3914,Robbinsdale Lane,37415,35.1231704,-85.2942179
3716,Jarren Drive,37415,35.1142013,-85.2704620
3231,Van Buren Street,37415,35.1005539,-85.2806183
3716,Jarren Drive,37415,35.1140268,-85.2703365
3249,Van Buren Street,37415,35.1008114,-85.2807153
3914,Robbinsdale Lane,37415,35.1228612,-85.2941247
3227,Van Buren Street,37415,35.1003174,-85.2804964
3211,Van Buren Street,37415,35.1000162,-85.2800132
3721,Jarren Drive,37415,35.1152274,-85.2691218
3504,Sleepy Hollow Road,37415,35.1072082,-85.2828756
3207,Van Buren Street,37415,35.0998179,-85.2796472
3723,Jarren Drive,37415,35.1154461,-85.2688563
3910,Robbinsdale Lane,37415,35.1226538,-85.2942877
3806,Pickering Avenue,37415,35.1159680,-85.2871033
3714,Forest Highland Drive,37415,35.1156704,-85.2686997
3112,Ozark Road,37415,35.1010398,-85.2818693
3712,Forest Highland Drive,37415,35.1158723,-85.2690466
3804,Pickering Avenue,37415,35.1155935,-85.2872661
3715,Forest Highland Drive,37415,35.1158788,-85.2682353
3118,Ozark Road,37415,35.1010801,-85.2815977
3709,Forest Highland Drive,37415,35.1160815,-85.2683909
3906,Robbinsdale Lane,37415,35.1221601,-85.2945506
3710,Forest Highland Drive,37415,35.1161828,-85.2690059
3505,Van Winkle Circle,37415,35.1073560,-85.2823913
3103,Ozark Road,37415,35.1008384,-85.2824201
3717,Forest Highland Drive,37415,35.1156009,-85.2678486
3110,Ozark Road,37415,35.1009257,-85.2822240
3706,Forest Highland Drive,37415,35.1165874,-85.2687404
3006,Ozark Road,37415,35.1004518,-85.2832734
3702,Forest Highland Drive,37415,35.1167849,-85.2686157
1024,Englewood Avenue,37405,35.0768727,-85.2916376
177,Hendricks Road,37405,35.0950857,-85.3161776
5466,Highway 153,37343,35.1396470,-85.2476716
1010,Gadd Road,37343,35.1410827,-85.2500045
2510,Stuart Street,37406,35.0698828,-85.2456562
2512,Stuart Street,37406,35.0698623,-85.2454776
2508,Stuart Street,37406,35.0699983,-85.2458295
105,Joyce Avenue,37415,35.1306985,-85.2814426
239,Peace Street,37415,35.0976180,-85.3101996
109,Joyce Avenue,37415,35.1305111,-85.2809608
111,Joyce Avenue,37415,35.1304262,-85.2806872
247-249,Peace Street,37415,35.0975180,-85.3109147
227-225,Peace Street,37415,35.0970462,-85.3095249
235,Peace Street,37415,35.0974902,-85.3095765
4723,Winifred Drive,37415,35.1388875,-85.2853463
4712,Winifred Drive,37415,35.1387199,-85.2859666
235-239,Peace Street,37415,35.0971626,-85.3102467
239-247,Peace Street,37415,35.0973840,-85.3106656
4714,Winifred Drive,37415,35.1384872,-85.2854004
4724,Winifred Drive,37415,35.1385215,-85.2849829
4720,Winifred Drive,37415,35.1390261,-85.2846172
4722,Winifred Drive,37415,35.1387802,-85.2847880
227,Peace Street,37415,35.0974673,-85.3086321
4708,Winifred Drive,37415,35.1391683,-85.2862935
4710,Winifred Drive,37415,35.1389361,-85.2861860
221,Peace Street,37415,35.0970825,-85.3081112
207,Peace Street,37415,35.0968791,-85.3079048
204,Peace Street,37415,35.0965540,-85.3081525
4807,McCahill Road,37415,35.1392817,-85.2839209
225,Peace Street,37415,35.0969445,-85.3089696
233,Peace Street,37415,35.0970451,-85.3092982
239,Peace Street,37415,35.0971026,-85.3099501
3120,Ozark Road,37415,35.1013240,-85.2812368
3257,Van Buren Street,37415,35.1011844,-85.2810334
107,Baxter Street,37415,35.1015349,-85.2983280
3532,Van Winkle Circle,37415,35.1071755,-85.2813507
727,Ely Road,37343,35.1227230,-85.2730941
3746,Valerian Drive,37415,35.1092670,-85.2660740
1039,Maybelle Lane,37343,35.1233479,-85.2731143
3748,Valerian Drive,37415,35.1087467,-85.2658688
205,Daytona Dr W,37415,35.1337725,-85.2841401
207,Daytona Dr W,37415,35.1338810,-85.2843898
3807,Tacoma Avenue,37415,35.1166768,-85.2887152
3811,Tacoma Avenue,37415,35.1169301,-85.2885151
3821,Tacoma Avenue,37415,35.1177471,-85.2881514
3823,Tacoma Avenue,37415,35.1178836,-85.2880923
209,Daytona Dr W,37415,35.1339447,-85.2846210
210,Unaka Street,37415,35.1181871,-85.2880196
211,Dayton Dr W,37415,35.1340196,-85.2848492
3907,Tacoma Avenue,37415,35.1187939,-85.2877626
3909,Tacoma Avenue,37415,35.1189309,-85.2876451
3911,Tacoma Avenue,37415,35.1191069,-85.2876018
213,Daytona Dr W,37415,35.1341340,-85.2850620
103,Daytona Dr W,37415,35.1331893,-85.2826312
107,Daytona Dr W,37415,35.1333712,-85.2830321
109,Daytona Dr W,37415,35.1334381,-85.2832786
3816,Tacoma Avenue,37415,35.1172720,-85.2878880
408,Victoria Avenue,37415,35.1012149,-85.3078034
3822,Tacoma Avenue,37415,35.1177072,-85.2876049
3824,Tacoma Avenue,37415,35.1179398,-85.2875868
400,Lowell Street,37415,35.1016738,-85.3077665
106,Daytona Dr W,37415,35.1329057,-85.2829518
3708,Forest Highland Drive,37415,35.1163789,-85.2689430
4006,Tacoma Avenue,37415,35.1196615,-85.2868177
3707,Forest Highland Drive,37415,35.1163350,-85.2683321
410,Victoria Avenue,37415,35.1013959,-85.3080839
3705,Forest Highland Drive,37415,35.1165320,-85.2681918
108,Daytona Dr W,37415,35.1329784,-85.2832134
3820,Redding Road,37415,35.1178548,-85.2889893
3818,Redding Road,37415,35.1176042,-85.2889099
3703,Forest Highland Drive,37415,35.1167233,-85.2681126
3814,Redding Road,37415,35.1173344,-85.2891207
3810,Redding Road,37415,35.1170423,-85.2892590
110,Daytona Dr W,37415,35.1330634,-85.2834386
401,Lowell Street,37415,35.1018224,-85.3081825
3279,Van Buren Street,37415,35.1021122,-85.2809204
3267,Van Buren Street,37415,35.1019038,-85.2808256
200,Daytona Drive W,37415,35.1332191,-85.2838301
3287,Van Buren Street,37415,35.1023033,-85.2809734
401,Lowell Street,37415,35.1019518,-85.3082292
3807,Forest Highland Drive,37415,35.1149100,-85.2674459
403,Lowell Street,37415,35.1019911,-85.3080231
202,Daytona Dr W,37415,35.1333025,-85.2840942
3351,Van Buren Street,37415,35.1058336,-85.2816564
405,Lowell Street,37415,35.1021761,-85.3078914
206,Daytona Dr W,37415,35.1334769,-85.2845683
3240,Oak Knoll Drive,37415,35.1025165,-85.2810971
3305,Van Buren Street,37415,35.1028489,-85.2813392
3290,Van Buren Street,37415,35.1059556,-85.2814569
3262,Van Buren Street,37415,35.1060285,-85.2812455
409,Lowell Street,37415,35.1024409,-85.3075958
3312,Van Buren Street,37415,35.1029800,-85.2815031
208,Daytona Dr W,37415,35.1335429,-85.2848092
3206,Van Buren Street,37415,35.1060994,-85.2809678
428,Lowell Street,37415,35.1019360,-85.3072112
3317,Van Buren Street,37415,35.1031994,-85.2816394
210,Daytona Dr W,37415,35.1336473,-85.2850280
212,Daytona Dr W,37415,35.1337766,-85.2852730
3228,Van Buren Street,37415,35.1061769,-85.2802833
310,Martin Road,37415,35.1020940,-85.3060418
4609,Summitt Avenue,37415,35.1342049,-85.2855357
3108,Social Circle,37415,35.1016219,-85.2826072
4607,Summitt Avenue,37415,35.1339585,-85.2856423
4005,Homer Street,37406,35.0799560,-85.2271899
4015,Homer Street,37406,35.0803623,-85.2269412
4023,Homer Street,37406,35.0805387,-85.2267399
4025,Homer Street,37406,35.0807385,-85.2264999
4037,Homer Street,37406,35.0808686,-85.2263315
4049,Homer Street,37406,35.0810322,-85.2261193
4053,Homer Street,37406,35.0814115,-85.2256597
410,Browntown Road,37415,35.1404641,-85.2866857
412,Browntown Road,37415,35.1407033,-85.2871792
104,Lavonia Street,37415,35.1267468,-85.2861281
411,Browntown Road,37415,35.1413917,-85.2865633
116,Lavonia Street,37415,35.1273193,-85.2874732
145,Ridgeway Drive,37415,35.1405605,-85.2753068
108,Lavonia Street,37415,35.1270300,-85.2867892
4978,Browntown Road,37415,35.1422872,-85.2879417
106,Lavonia Street,37415,35.1269077,-85.2863387
5003,Kenner Avenue,37415,35.1407892,-85.2744886
108,Lavonia Street,37415,35.1269482,-85.2866017
4976,Browntown Road,37415,35.1417168,-85.2877045
112,Lavonia Street,37415,35.1272322,-85.2872981
202,Lancaster Avenue,37415,35.1056352,-85.3001099
76,Oak street,37415,35.1413243,-85.2747318
107,Lavonia Street,37415,35.1272589,-85.2860725
288,Ridgeway Drive,37415,35.1405018,-85.2740788
105,Lavonia Street,37415,35.1271772,-85.2858613
101,Lavonia Street,37415,35.1270783,-85.2856048
4316,McCahill Road,37415,35.1276425,-85.2905991
278,Ridgeway Drive,37415,35.1403154,-85.2747174
118,Lavonia Street,37415,35.1273618,-85.2877583
3206,Van Buren Street,37415,35.1058904,-85.2799280
301,Ridgeway Drive,37415,35.1400210,-85.2739742
303,Ridgeway Drive,37415,35.1399734,-85.2738135
4813,McCahill Road,37415,35.1395961,-85.2836722
608,Social Circle,37415,35.1055588,-85.2836779
108,Freudenberg Lane,37415,35.1392743,-85.2742477
602,Wood Lane,37415,35.1251403,-85.2747460
4051,Homer Street,37406,35.0812261,-85.2259102
3015,Addison Road,37406,35.0800395,-85.2275594
3009,Addison Road,37406,35.0802503,-85.2277458
3003,Addison Road,37406,35.0803097,-85.2280490
3904,Forest Highland Circle,37415,35.1134446,-85.2681886
3905,Forest Highland Circle,37415,35.1132335,-85.2677427
3906,Forest Highland Circle,37415,35.1132272,-85.2683033
2920,Addison Road,37406,35.0804986,-85.2285386
3908,Forest Highland Circle,37415,35.1129763,-85.2683804
2918,Addison Road,37406,35.0805876,-85.2288440
4002,Denham Road,37406,35.0807213,-85.2292221
3909,Forest Highland Circle,37415,35.1129708,-85.2678868
2815,Addison Road,37406,35.0810130,-85.2298900
3910,Forest Highland Circle,37415,35.1127032,-85.2683574
3912,Forest Highland Circle,37415,35.1124990,-85.2682751
2813,Addison Road,37406,35.0811412,-85.2301640
3911,Forest Highland Circle,37415,35.1126697,-85.2677235
2803,Addison Road,37406,35.0812367,-85.2304022
3900,Forest Highland Drive,37415,35.1135351,-85.2675404
2801,Addison Road,37406,35.0813271,-85.2306362
2747,Addison Road,37406,35.0815024,-85.2308679
3901,Forest Highland Drive,37415,35.1139061,-85.2672928
2448,Meade Circle,37406,35.0811087,-85.2313101
3902,Forest Highland Drive,37415,35.1134417,-85.2672904
2446,Meade Circle,37406,35.0808748,-85.2314524
2444,Meade Circle,37406,35.0806724,-85.2316191
3906,Forest Highland Drive,37415,35.1133407,-85.2670265
3910,Forest Highland Drive,37415,35.1132505,-85.2667227
2447,Meade Circle,37406,35.0813234,-85.2317953
2445,Meade Circle,37406,35.0810926,-85.2319700
3912,Forest Highland Drive,37415,35.1132944,-85.2664049
2443,Meade Circle,37406,35.0808797,-85.2320830
2441,Meade Circle,37406,35.0806668,-85.2322596
3911,Forest Highland Drive,37415,35.1137354,-85.2664130
2439,Meade Circle,37406,35.0804712,-85.2323487
2442,Meade Circle,37406,35.0804599,-85.2317566
2438,Meade Circle,37406,35.0802409,-85.2317986
2430,Meade Circle,37406,35.0799763,-85.2317857
2428,Meade Circle,37406,35.0797996,-85.2314122
3914,Forest Highland Drive,37415,35.1133424,-85.2661206
2426,Meade Circle,37406,35.0796601,-85.2311366
3915,Forest Highland Drive,37415,35.1137888,-85.2661353
2422,Meade Circle,37406,35.0795580,-85.2308990
2419,Meade Circle,37406,35.0791192,-85.2308926
2421,Meade Circle,37406,35.0792107,-85.2311667
2425,Meade Circle,37406,35.0793117,-85.2314077
2427,Meade Circle,37406,35.0793988,-85.2316821
2437,Meade Circle,37406,35.0802494,-85.2324491
2435,Meade Circle,37406,35.0799769,-85.2324553
3922,Forest Highland Drive,37415,35.1134584,-85.2655642
3926,Forest Highland Drive,37415,35.1134925,-85.2652786
2417,Meade Circle,37406,35.0790185,-85.2306037
3930,Forest Highland Drive,37415,35.1135308,-85.2649940
3934,Forest Highland Drive,37415,35.1135799,-85.2647084
3936,Forest Highland Drive,37415,35.1136081,-85.2644340
3942,Forest Highland Drive,37415,35.1136639,-85.2641529
3659,Knollwood Drive,37415,35.1114223,-85.2858217
3651,Knollwood Drive,37415,35.1112220,-85.2857139
3645,Knollwood Drive,37415,35.1110201,-85.2856915
3665,Knollwood Drive,37415,35.1115954,-85.2859696
3671,Knollwood Drive,37415,35.1117899,-85.2861208
3672,Knollwood Drive,37415,35.1120772,-85.2857257
3677,Knollwood Drive,37415,35.1119865,-85.2862310
3674,Knollwood Drive,37415,35.1122273,-85.2858475
3686,Knollwood Drive,37415,35.1124211,-85.2859935
3683,Knollwood Drive,37415,35.1121641,-85.2863837
3598,Knollwood Hills Drive,37415,35.1123934,-85.2866434
3596,Knollwood Hills Drive,37415,35.1121676,-85.2868338
3627,Woodmont Drive,37415,35.1127287,-85.2854848
3639,Woodmont Drive,37415,35.1130912,-85.2853084
525,Morton Circle,37415,35.1125414,-85.2790940
531,Morton Circle,37415,35.1123009,-85.2790971
519,Morton Circle,37415,35.1127830,-85.2791248
513,Morton Circle,37415,35.1129927,-85.2792592
508,Morton Circle,37415,35.1129479,-85.2798057
516,Morton Circle,37415,35.1127333,-85.2796338
524,Morton Circle,37415,35.1125004,-85.2795960
534,Morton Circle,37415,35.1122974,-85.2797065
599,Morton Circle,37415,35.1120270,-85.2795852
3624,Morton Drive,37415,35.1127790,-85.2800457
3739,Morton Circle,37415,35.1134401,-85.2799767
3733,Morton Drive,37415,35.1132722,-85.2801708
3727,Morton Drive,37415,35.1131146,-85.2803462
3721,Morton Drive,37415,35.1129396,-85.2805343
507,Morton Circle,37415,35.1132482,-85.2794172
3745,Morton Drive,37415,35.1135936,-85.2797551
23,Lilac Avenue,37419,35.0210709,-85.3725268
3933,Forest Highland Drive,37415,35.1139986,-85.2647191
4812,Viola Drive,37415,35.1371129,-85.2754695
4204,Seneca Avenue,37409,35.0052255,-85.3261087
4202,Seneca Avenue,37409,35.0055199,-85.3261165
1834,River Chase Road,37343,35.1315766,-85.1961000
6220,Airpark Drive,37421,35.0343248,-85.1843069
6224,Airpark Drive,37421,35.0347193,-85.1844306
6219,Lee Highway,37421,35.0316771,-85.1847229
6210,Airpark Drive,37421,35.0339700,-85.1857389
3948,Brainerd Road,37411,35.0200360,-85.2407204
3952,Brainerd Road,37411,35.0194080,-85.2404220
3816,Brainerd Road,37411,35.0221879,-85.2423873
3907,Brainerd Road,37411,35.0209230,-85.2403973
4417,Highway 58,37416,35.0847240,-85.2022810
206,Hendricks Road,37405,35.0964814,-85.3149843
214,Hendricks Road,37405,35.0967381,-85.3148672
222,Hendricks Road,37405,35.0969930,-85.3146893
964,East Elmwood Drive,37415,35.0714416,-85.3240634
226,Hendricks Road,37405,35.0974768,-85.3143711
232,Hendricks Road,37405,35.0977114,-85.3141982
247,Jarnigan Avenue,37405,35.0644554,-85.2989381
204,Hendricks Road,37405,35.0964739,-85.3145148
4795,Forrest Wood Lane,37343,35.1317171,-85.2627545
230,Hendricks Road,37405,35.0968581,-85.3143683
200,Sims Drive,37415,35.0990189,-85.3128268
216,Hendricks Road,37405,35.0970322,-85.3142256
228,Hendricks Road,37405,35.0972751,-85.3140088
4792,Forrest Wood Lane,37343,35.1314782,-85.2629388
101,Masters Road,37343,35.1519739,-85.2149631
1420,Oneal Road,37415,35.1251320,-85.2542799
348,Celestial Lane,37343,35.1701496,-85.2357707
1430,Oneal Road,37415,35.1254206,-85.2533707
1418,Oneal Road,37415,35.1247305,-85.2545995
1416,Oneal Road,37415,35.1247202,-85.2548554
105,Masters Road,37343,35.1523025,-85.2148240
5749,Hixson Pike,37343,35.1520935,-85.2152716
110,Masters Lane,37343,35.1524393,-85.2151080
106,Masters Lane,37343,35.1525392,-85.2155099
102,Masters Lane,37343,35.1525666,-85.2158466
5745,Hixson Pike,37343,35.1521694,-85.2156282
5741,Hixson Pike,37343,35.1522716,-85.2159717
5733,Hixson Pike,37343,35.1524531,-85.2166660
103,Masters Lane,37343,35.1530213,-85.2160618
107,Masters Lane,37343,35.1532231,-85.2155099
105,Rolling Hills Drive,37343,35.1529176,-85.2148725
103,Masters Road,37343,35.1529147,-85.2141498
107,Rolling Hills Drive,37343,35.1532450,-85.2142911
111,Rolling Hills Drive,37343,35.1532796,-85.2150066
113,Rolling Hills Drive,37343,35.1535287,-85.2144544
117,Rolling Hills Drive,37343,35.1537746,-85.2145572
115,Rolling Hills Drive,37343,35.1536061,-85.2152119
121,Rolling Hills Drive,37343,35.1539511,-85.2151899
125,Rolling Hills Drive,37343,35.1542774,-85.2148510
179,Baltsrol Road,37343,35.1540430,-85.2141732
157,Baltsrol Road,37343,35.1537076,-85.2139868
185,Baltsrol Road,37343,35.1543665,-85.2137276
167,Baltsrol Road,37343,35.1540568,-85.2135433
151,Baltsrol Road,37343,35.1537420,-85.2133632
139,Baltsrol Road,37343,35.1534808,-85.2133022
133,Baltsrol Road,37343,35.1533187,-85.2138661
107,Baltsrol Road,37343,35.1530256,-85.2138336
117,Baltsrol Road,37343,35.1531573,-85.2132491
110,Masters Road,37343,35.1524199,-85.2139820
113,Masters Road,37343,35.1525321,-85.2136650
116,Masters Road,37343,35.1526070,-85.2132299
120,Masters Road,37343,35.1527349,-85.2128265
122,Masters Road,37343,35.1529003,-85.2125002
128,Masters Road,37343,35.1531662,-85.2121912
126,Masters Road,37343,35.1533266,-85.2127909
105,Baltusrol Road,37343,35.1536373,-85.2127309
127,Masters Road,37343,35.1534894,-85.2119225
135,Masters Road,37343,35.1540667,-85.2122612
137,Masters Road,37343,35.1537158,-85.2116784
141,Masters Road,37343,35.1540124,-85.2114083
145,Masters Road,37343,35.1543796,-85.2113543
149,Masters Road,37343,35.1547286,-85.2115371
151,Masters Road,37343,35.1545693,-85.2121471
155,Masters Road,37343,35.1548666,-85.2122897
153,Masters Road,37343,35.1549850,-85.2116900
157,Masters Road,37343,35.1553182,-85.2119451
159,Masters Road,37343,35.1551828,-85.2125566
161,Masters Road,37343,35.1555828,-85.2122000
163,Masters Road,37343,35.1554555,-85.2128283
162,Masters Road,37343,35.1558482,-85.2124132
111,Masters Road,37343,35.1560639,-85.2126388
153,Rolling Hills Drive,37343,35.1559741,-85.2133776
151,Rolling Hills Drive,37343,35.1557088,-85.2136539
129,Rolling Hills Drive,37343,35.1545189,-85.2145554
142,Rolling Hills Drive,37343,35.1551435,-85.2142018
138,Rolling Hills Drive,37343,35.1548759,-85.2143829
144,Rolling Hills Drive,37343,35.1554068,-85.2139061
147,Baltusrol Road,37343,35.1552620,-85.2131284
143,Baltusrol Road,37343,35.1549841,-85.2129245
139,Baltusrol Road,37343,35.1546784,-85.2127239
121,Baltusrol Road,37343,35.1539706,-85.2128862
135,Baltusrol Road,37343,35.1542928,-85.2131179
141,Baltusrol Road,37343,35.1546068,-85.2133264
145,Baltusrol Road,37343,35.1549434,-85.2135751
140,Rolling Hills Drive,37343,35.1547080,-85.2138272
4790,Forrest Wood Lane,37343,35.1312264,-85.2629290
4788,Forrest Wood Lane,37343,35.1310232,-85.2630806
4704,Forrest Wood Lane,37343,35.1306665,-85.2634360
1412,Oneal Road,37415,35.1251776,-85.2551896
4746,Forrest Wood Lane,37343,35.1308470,-85.2632804
346,Celestial Lane,37343,35.1703446,-85.2359249
344,Celestial Lane,37343,35.1704715,-85.2361495
1412,Oneal Road,37415,35.1246982,-85.2552013
1410,Oneal Road,37415,35.1252547,-85.2555333
342,Celestial Lane,37343,35.1705672,-85.2364308
340,Celestial Lane,37343,35.1706765,-85.2367156
338,Celestial Lane,37343,35.1706974,-85.2369784
1410,Oneal Road,37415,35.1245815,-85.2556839
4790,Forrest Wood Lane,37343,35.1308403,-85.2626473
4788,Forrest Wood Lane,37343,35.1306220,-85.2627398
4704,Forrest Wood Lane,37343,35.1303868,-85.2628495
4792,Forrest Wood Lane,37343,35.1310630,-85.2625324
4794,Forrest Wood Lane,37343,35.1313169,-85.2624007
4796,Forrest Wood Lane,37343,35.1316169,-85.2622729
4798,Forrest Wood Lane,37343,35.1318959,-85.2621870
336,Celestial Lane,37343,35.1706955,-85.2373490
1408,Oneal Road,37415,35.1247272,-85.2561154
334,Celestial Lane,37343,35.1706368,-85.2376622
822,Forrest Dale Lane,37343,35.1319923,-85.2626631
903,Forrest Dale Lane,37343,35.1322397,-85.2619282
901,Forrest Dale Lane,37343,35.1322974,-85.2622013
332,Celestial Lane,37343,35.1705714,-85.2379871
905,Forrest Dale Lane,37343,35.1324313,-85.2616125
822,Forrest Dale Lane,37343,35.1323538,-85.2624708
811,Forrest Dale Lane,37343,35.1324025,-85.2627366
806,Forrest Dale Lane,37343,35.1324591,-85.2630312
804,Forrest Dale Lane,37343,35.1325085,-85.2632912
800,Forrest Dale Lane,37343,35.1325991,-85.2635886
802,Forrest Dale Lane,37343,35.1321894,-85.2637895
804,Forrest Dale Lane,37343,35.1321212,-85.2634795
806,Forrest Dale Lane,37343,35.1321282,-85.2631720
808,Forrest Dale Lane,37343,35.1320779,-85.2629203
905,Forrest Dale Lane,37343,35.1318545,-85.2618760
4804,Eldridge Road,37343,35.1322158,-85.2611678
4804,Eldridge Road,37343,35.1320295,-85.2606248
4802,Eldridge Road,37343,35.1318468,-85.2607330
4806,Eldridge Road,37343,35.1322291,-85.2605311
4806,Eldridge Road,37343,35.1324155,-85.2610446
4713,Eldridge Road,37343,35.1313707,-85.2610219
4715,Eldridge Road,37343,35.1314021,-85.2615605
4713,Eldridge Road,37343,35.1311866,-85.2616776
4703,Eldridge Road,37343,35.1303785,-85.2615001
4711,Eldridge Road,37343,35.1309245,-85.2618190
4709,Eldridge Road,37343,35.1309018,-85.2612602
4709,Eldridge Road,37343,35.1306677,-85.2619512
4615,Eldridge Road,37343,35.1300862,-85.2617034
4707,Eldridge Road,37343,35.1302629,-85.2621704
4712,Eldridge Road,37343,35.1298805,-85.2617892
4701,Eldridge Road,37343,35.1296497,-85.2624222
4703,Eldridge Road,37343,35.1298880,-85.2623184
4711,Eldridge Road,37343,35.1295942,-85.2618877
330,Celestial Lane,37343,35.1705261,-85.2382841
1424,Oneal Road,37415,35.1246440,-85.2540621
4706,Eldridge Road,37343,35.1306334,-85.2613997
328,Celestial Lane,37343,35.1705002,-85.2385726
4717,Eldridge Road,37343,35.1317068,-85.2614115
4711,Eldridge Road,37343,35.1311316,-85.2611397
326,Celestial Lane,37343,35.1705962,-85.2389215
324,Celestial Lane,37343,35.1707063,-85.2391588
1201,Westwood Avenue,37405,35.0735706,-85.2913100
4615,Eldridge Road,37343,35.1293487,-85.2625401
4605,Eldridge Road,37343,35.1291597,-85.2619455
322,Celestial Lane,37343,35.1708493,-85.2393968
1205,Highland Drive,37405,35.0737273,-85.2913116
1207,Highland Drive,37405,35.0739015,-85.2912672
1209,Highland Drive,37405,35.0740810,-85.2912998
349,Celestial Lane,37343,35.1704452,-85.2354001
1426,Oneal Road,37415,35.1246012,-85.2536123
1428,Oneal Road,37415,35.1247175,-85.2532832
1211,Highland Drive,37405,35.0742308,-85.2913269
1333,dreamcatcher way,37415,35.1542755,-85.2345404
347,Celestial Lane,37343,35.1706275,-85.2356023
1217,Highland Drive,37405,35.0745285,-85.2913558
1219,Highland Drive,37405,35.0747196,-85.2914335
345,Celestial Lane,37343,35.1707624,-85.2358244
1434,Oneal Road,37415,35.1247533,-85.2526386
1221,Highland Drive,37405,35.0748822,-85.2914297
343,Celestial Lane,37343,35.1708750,-85.2360715
1436,Oneal Road,37415,35.1247906,-85.2522824
1223,Highland Drive,37405,35.0750398,-85.2914713
1227,Highland Drive,37405,35.0752037,-85.2915614
1229,Highland Drive,37405,35.0753601,-85.2916292
341,Celestial Lane,37343,35.1709702,-85.2363081
1482,Oneal Road,37415,35.1258474,-85.2515222
1231,Highland Drive,37405,35.0755246,-85.2917439
339,Celestial Lane,37343,35.1711114,-85.2365537
1233,Highland Drive,37405,35.0757049,-85.2919427
1137,Westwood Avenue,37405,35.0736321,-85.2917620
337,Celestial Lane,37343,35.1711682,-85.2368479
1131,Westwood Avenue,37405,35.0738237,-85.2918619
335,Celestial Lane,37343,35.1711309,-85.2371557
1129,Westwood Avenue,37405,35.0739845,-85.2918773
1412,Oneal Road,37415,35.1249599,-85.2562442
1127,Westwood Avenue,37405,35.0741322,-85.2919874
1125,Westwood Avenue,37405,35.0743094,-85.2920532
4613,Eldridge Road,37343,35.1290649,-85.2625622
4611,Eldridge Road,37343,35.1288157,-85.2626115
4609,Eldridge Road,37343,35.1285286,-85.2627057
1121,Westwood Avenue,37405,35.0745026,-85.2920954
333,Celestial Lane,37343,35.1710680,-85.2374988
1402,Oneal Road,37415,35.1256852,-85.2560586
1117,Westwood Avenue,37405,35.0747886,-85.2920793
4607,Eldridge Road,37343,35.1282515,-85.2627300
331,Celestial Lane,37343,35.1710103,-85.2377901
4605,Eldridge Road,37343,35.1279790,-85.2627733
1115,Westwood Avenue,37405,35.0749767,-85.2920893
1404,Oneal Road,37415,35.1253962,-85.2559031
4603,Eldridge Road,37343,35.1277305,-85.2628315
1113,Westwood Avenue,37405,35.0751326,-85.2921331
421,Glenhill Drive,37415,35.1059641,-85.3075979
157,Masters Road,37343,35.1564317,-85.2132282
981,Soaring Eagle Circle,37343,35.1329503,-85.2605223
949,Soaring Eagle Circle,37343,35.1331391,-85.2610318
923,Soaring Eagle Circle,37343,35.1327476,-85.2613830
615,Soaring Eagle Circle,37343,35.1329436,-85.2624508
923,Soaring Eagle Circle,37343,35.1331706,-85.2614373
4604,Eldridge Road,37343,35.1289062,-85.2621033
4602,Eldridge Road,37343,35.1286294,-85.2621727
4506,Eldridge Road,37343,35.1283369,-85.2621860
4504,Eldridge Road,37343,35.1280913,-85.2622705
4564,Eldridge Road,37343,35.1273001,-85.2629307
4601,Eldridge Road,37343,35.1275174,-85.2628474
5208,Donlyn Drive,37343,35.1274861,-85.2617448
5214,Donlyn Drive,37343,35.1274184,-85.2614693
5298,Donlyn Drive,37343,35.1304975,-85.2599870
5298,Donlyn Drive,37343,35.1302304,-85.2608494
5254,Donlyn Drive,37343,35.1300760,-85.2609921
5240,Donlyn Drive,37343,35.1298765,-85.2611299
5232,Donlyn Drive,37343,35.1297340,-85.2607108
5238,Donlyn Drive,37343,35.1294634,-85.2608029
5238,Donlyn Drive,37343,35.1296794,-85.2612249
5236,West Donlyn Drive,37343,35.1294613,-85.2612872
5236,Donlyn Drive,37343,35.1292470,-85.2608156
5232,Donlyn Drive,37343,35.1290293,-85.2608373
5232,Donlyn Drive,37343,35.1290587,-85.2613085
5230,Donlyn Drive,37343,35.1287874,-85.2608527
5230,Donlyn Drive,37343,35.1288151,-85.2613640
5228,Donlyn Drive,37343,35.1285360,-85.2608707
5228,Donlyn Drive,37343,35.1285564,-85.2615184
5222,Donlyn Drive,37343,35.1281299,-85.2609838
5220,Donlyn Drive,37343,35.1279032,-85.2609592
5224,Donlyn Drive,37343,35.1282425,-85.2614969
5222,Donlyn Drive,37343,35.1279909,-85.2614848
5218,Donlyn Drive,37343,35.1276918,-85.2609006
5220,Donlyn Drive,37343,35.1277206,-85.2614859
5216,Donlyn Drive,37343,35.1274633,-85.2609126
5208,Donlyn Drive,37343,35.1270434,-85.2619090
5210,Donlyn Drive,37343,35.1270015,-85.2616194
5212,Donlyn Drive,37343,35.1269776,-85.2612690
5214,Donlyn Drive,37343,35.1271736,-85.2609701
20,Johnson Boulevard,37415,35.1293272,-85.2869303
4425,High Top Road,37415,35.1307106,-85.2875223
1103,Westwood Avenue,37405,35.0757494,-85.2923474
1109,Westwood Avenue,37405,35.0752715,-85.2921739
1107,Westwood Avenue,37405,35.0754337,-85.2922557
1105,Westwood Avenue,37405,35.0755912,-85.2923159
1201,Highland Drive,37405,35.0736020,-85.2907962
4425,Thueler Street,37415,35.1294259,-85.2838716
106,Thueler Street,37415,35.1294998,-85.2842745
4501,Thueler Street,37415,35.1297780,-85.2837013
108,Thueler Street,37415,35.1296555,-85.2845466
4500,Crerar Street,37415,35.1300590,-85.2844185
4502,Crerar Street,37415,35.1302435,-85.2843716
4504,Crerar Street,37415,35.1304629,-85.2843147
4506,Crerar Street,37415,35.1306459,-85.2842206
4507,Crerar Street,37415,35.1308181,-85.2846594
1203,Westwood Avenue,37405,35.0738393,-85.2904494
1207,Westwood Avenue,37405,35.0739644,-85.2902713
1213,Westwood Avenue,37405,35.0741323,-85.2902412
1215,Westwood Court,37405,35.0742967,-85.2901847
1212,Highland Drive,37405,35.0743937,-85.2907964
1210,Highland Drive,37405,35.0742298,-85.2908032
1216,Highland Drive,37405,35.0746851,-85.2908730
1220,Highland Drive,37405,35.0750667,-85.2907980
1222,Highland Drive,37405,35.0752716,-85.2908901
1226,Highland Drive,37405,35.0755202,-85.2911531
1228,Highland Drive,37405,35.0756021,-85.2912628
1232,Highland Drive,37405,35.0757476,-85.2913837
1234,Highland Drive,37405,35.0758697,-85.2914658
1236,Highland Drive,37405,35.0760005,-85.2915974
1238,Nason Street,37405,35.0760372,-85.2918322
1248,Highland Drive,37405,35.0762819,-85.2920884
1032,Westwood Avenue,37405,35.0758386,-85.2927218
1030,Westwood Avenue,37405,35.0760084,-85.2927242
1028,Westwood Avenue,37405,35.0761703,-85.2927902
1026,Westwood Avenue,37405,35.0763440,-85.2928414
1022,Westwood Avenue,37405,35.0764953,-85.2929245
1018,Westwood Avenue,37405,35.0767716,-85.2930774
1023,Westwood Avenue,37405,35.0762840,-85.2924932
1251,Highland Drive,37405,35.0764287,-85.2924230
1253,Highland Drive,37405,35.0765656,-85.2923840
1259,Highland Drive,37405,35.0766835,-85.2924599
1261,Highland Drive,37405,35.0767583,-85.2926329
1156,Highland Drive,37405,35.0736043,-85.2899327
1154,Highland Drive,37405,35.0734975,-85.2895973
1150,Highland Drive,37405,35.0733034,-85.2894991
1148,Highland Drive,37405,35.0730985,-85.2894204
1140,Highland Drive,37405,35.0725161,-85.2894549
1138,Highland Drive,37405,35.0723087,-85.2895639
1134,Highland Drive,37405,35.0722066,-85.2899554
1132,Highland Drive,37405,35.0721869,-85.2901298
1126,Highland Drive,37405,35.0722022,-85.2905871
1122,Highland Drive,37405,35.0723460,-85.2910203
1143,Highland Drive,37405,35.0728135,-85.2898665
1141,Highland Drive,37405,35.0726331,-85.2899599
1139,Highland Drive,37405,35.0725792,-85.2901289
1131,Highland Drive,37405,35.0726344,-85.2903778
1129,Highland Drive,37405,35.0726727,-85.2905888
1127,Highland Drive,37405,35.0727123,-85.2908092
1125,Highland Drive,37405,35.0726993,-85.2909782
1123,Highland Drive,37405,35.0727519,-85.2911859
1121,Highland Drive,37405,35.0728194,-85.2913794
1119,Highland Drive,37405,35.0729186,-85.2915452
1157,Highland Drive,37405,35.0731704,-85.2901392
1159,Highland Drive,37405,35.0731465,-85.2903112
1159,Highland Drive,37405,35.0729421,-85.2903056
1163,Highland Drive,37405,35.0731562,-85.2905377
1167,Highland Drive,37405,35.0732216,-85.2909649
1165,Highland Drive,37405,35.0731822,-85.2907646
1188-1198,Westwood Avenue,37405,35.0732378,-85.2912760
1136,Westwood Avenue,37405,35.0732555,-85.2917717
1109,Westwood Avenue,37405,35.0735142,-85.2925061
1223,Westwood Avenue,37405,35.0748818,-85.2917050
1208,Westwood Avenue,37405,35.0738662,-85.2896394
1212,Westwood Avenue,37405,35.0740666,-85.2894486
1216,Westwood Avenue,37405,35.0741274,-85.2892183
1349,Hixson Pike,37405,35.0742100,-85.2888056
1136,Englewood Avenue,37405,35.0745268,-85.2890412
1217,Westwood Court,37405,35.0745395,-85.2898412
1219,Westwood Avenue,37405,35.0746064,-85.2896880
12-1298,Westwood Court,37405,35.0747772,-85.2901260
1210,Westwood Court,37405,35.0751778,-85.2901672
1130,Englewood Avenue,37405,35.0747051,-85.2892067
329,Celestial Lane,37343,35.1709544,-85.2380898
1128,Englewood Avenue,37405,35.0748123,-85.2893339
327,Celestial Lane,37343,35.1709073,-85.2384444
1126,Englewood Avenue,37405,35.0749111,-85.2894613
1124,Englewood Avenue,37405,35.0750220,-85.2895821
1120,Englewood Avenue,37405,35.0752228,-85.2898060
1112,Englewood Avenue,37405,35.0756751,-85.2903093
1110,Englewood Avenue,37405,35.0757898,-85.2904325
325,Celestial Lane,37343,35.1709588,-85.2386788
1403,Hixson Pike,37405,35.0747497,-85.2887025
1106,Englewood Avenue,37405,35.0759429,-85.2905919
1055,Englewood Avenue,37405,35.0752686,-85.2892431
323,Celestial Lane,37343,35.1710369,-85.2389414
1053,Englewood Avenue,37405,35.0754236,-85.2893944
1051,Englewood Avenue,37405,35.0755938,-85.2895545
1049,Englewood Avenue,37405,35.0757451,-85.2897377
1045,Englewood Avenue,37405,35.0759037,-85.2898527
321,Celestial Lane,37343,35.1711894,-85.2391730
1043,Englewood Avenue,37405,35.0760123,-85.2899712
1041,Englewood Avenue,37405,35.0761159,-85.2900995
86,Rainbow Circle,37405,35.0770062,-85.2909930
1033,Englewood Avenue,37405,35.0767699,-85.2907665
316,Celestial Lane,37343,35.1713324,-85.2398192
1035,Englewood Avenue,37405,35.0765803,-85.2905530
1037,Englewood Avenue,37405,35.0764139,-85.2903802
1039,Englewood Avenue,37405,35.0762659,-85.2902379
1104,Englewood Avenue,37405,35.0760631,-85.2907556
1100,Englewood Avenue,37405,35.0762342,-85.2911432
1026,Englewood Avenue,37405,35.0767082,-85.2914784
317,Celestial Lane,37343,35.1713988,-85.2392820
1020,Englewood Avenue,37405,35.0770618,-85.2918465
1014,Englewood Avenue,37405,35.0774079,-85.2920898
1014,Englewood Avenue,37405,35.0771647,-85.2921349
314,Celestial Lane,37343,35.1715734,-85.2398691
1207,Cranbrook Drive,37415,35.1240797,-85.2546177
1209,Cranbrook Drive,37415,35.1241111,-85.2543508
1211,Cranbrook Drive,37415,35.1241319,-85.2540707
111,Rainbow Circle,37405,35.0777861,-85.2917589
107,Rainbow Circle,37405,35.0777861,-85.2914643
1213,Cranbrook Drive,37415,35.1241918,-85.2536932
103,Rainbow Circle,37405,35.0776035,-85.2912183
1215,Cranbrook Drive,37415,35.1242121,-85.2534289
101,Rainbow Circle,37405,35.0774783,-85.2911546
1217,Cranbrook Drive,37415,35.1242436,-85.2531645
1219,Cranbrook Drive,37415,35.1242633,-85.2528948
1221,Cranbrook Drive,37415,35.1242928,-85.2526338
1223,Cranbrook Drive,37415,35.1243215,-85.2523840
1187,Cranbrook Drive,37415,35.1239094,-85.2562223
1189,Cranbrook Drive,37415,35.1239242,-85.2559551
1199,Cranbrook Drive,37415,35.1239553,-85.2556972
1201,Cranbrook Drive,37415,35.1239894,-85.2554079
1203,Cranbrook Drive,37415,35.1240386,-85.2551450
1205,Cranbrook Drive,37415,35.1240704,-85.2548769
1224,Cranbrook Drive,37415,35.1243566,-85.2521099
1226,Cranbrook Drive,37415,35.1243821,-85.2518403
1228,Cranbrook Drive,37415,35.1243946,-85.2515841
1230,Cranbrook Drive,37415,35.1242611,-85.2511343
1232,Cranbrook Drive,37415,35.1239933,-85.2510650
1234,Cranbrook Drive,37415,35.1237744,-85.2510685
1236,Cranbrook Drive,37415,35.1235688,-85.2510841
1238,Cranbrook Drive,37415,35.1233515,-85.2510831
1240,Cranbrook Drive,37415,35.1231299,-85.2510663
1232,Cranbrook Drive,37415,35.1231600,-85.2516094
1297,Echo Drive,37415,35.1237953,-85.2520368
1345,Newberry Street West,37415,35.1075538,-85.2996493
117,Joyce Avenue,37415,35.1300735,-85.2798484
1309,Hixson Pike,37343,35.0709848,-85.2895535
1309,Hixson Pike,37343,35.0708978,-85.2894748
1309,Hixson Pike,37343,35.0708352,-85.2895731
112,Orlando Drive,37415,35.1303932,-85.2780561
923,West Elmwood Drive,37405,35.0686558,-85.3266233
961,West Elmwood Drive,37405,35.0719419,-85.3247955
963,West Elmwood Drive,37405,35.0721291,-85.3245395
965,West Elmwood Drive,37405,35.0723079,-85.3244651
3521,Lamar Avenue,37415,35.1159092,-85.2988229
221,Martin Road,37415,35.1014723,-85.3050295
219,Martin Road,37415,35.1013775,-85.3049528
217,Martin Road,37415,35.1012639,-85.3048617
115,Peace Street,37415,35.0957496,-85.3081666
215,Martin Road,37415,35.1011040,-85.3048019
213,Martin Road,37415,35.1009156,-85.3047055
2525,Woodfin Avenue,37415,35.1006954,-85.3059437
3413,Redding Road,37415,35.1109749,-85.2931099
5207,Austin Road,37343,35.1398340,-85.2399185
5211,Austin Road,37343,35.1399744,-85.2401023
5203,Austin Road,37343,35.1396750,-85.2397304
5226,Hickory Woods Lane,37343,35.1405649,-85.2393756
4213,Oakland Terrace,37415,35.1250687,-85.2888382
4209,Oakland Terrace,37415,35.1248723,-85.2889723
5224,Hickory Woods Lane,37343,35.1403720,-85.2391082
5222,Hickory Woods Lane,37343,35.1402135,-85.2388548
4220,Oakland Terrace,37415,35.1248809,-85.2883883
5225,Hickory Woods Lane,37343,35.1400827,-85.2394077
503,Briar Park Lane,37343-3858,35.1446468,-85.2604454
508,Briar Park Lane,37343-3823,35.1441599,-85.2600506
419,Glenhill Drive,37415,35.1058553,-85.3073930
417,Glenhill Drive,37415,35.1057343,-85.3071786
422,Glenhill Drive,37415,35.1056781,-85.3080173
2232,Center Street,37421,35.0410573,-85.1613235
7035,Amin Drive,37421,35.0422451,-85.1593309
400,Navajo Drive,37411,35.0167353,-85.2502161
923,Mississippi Avenue,37405,35.0692441,-85.2947281
3725,Modern Industries Parkway,37419,35.0155821,-85.3834485
2014,Hamilton Place Boulevard,37421,35.0327355,-85.1636953
3104,Scenic Waters Lane,37419,35.0665268,-85.3426316
9407,Lee Highway,37363,35.0827155,-85.0570833
6020,Arbury Way,37363,35.0830056,-85.0561316
598,Barton Avenue,37405,35.0648001,-85.2951241
166,Signal Hills Drive,37405,35.0979807,-85.3352932
3113,Rose Terrace,37404,35.0295552,-85.2561846
105,West Leawood Avenue,37415,35.1175433,-85.2915423
7,Clearview Avenue,37404,35.0296897,-85.2556307
2,Clearview Avenue,37404,35.0290320,-85.2554473
173,Signal Hills Drive,37405,35.0988242,-85.3358484
172,Signal Hills Drive,37405,35.0984542,-85.3356771
3106,East Court Drive,37404,35.0301345,-85.2561276
168,Signal Hills Drive,37405,35.0983198,-85.3355604
4,Clearview Avenue,37404,35.0292942,-85.2553280
8,Clearview Avenue,37404,35.0294290,-85.2552709
10,Clearview Avenue,37404,35.0295459,-85.2552056
12,Clearview Avenue,37404,35.0298571,-85.2551840
3125,Rose Terrace,37404,35.0288897,-85.2551808
1320,Rose Terrace,37404,35.0287968,-85.2559365
3114,Rose Terrace,37404,35.0290173,-85.2563828
3112,Rose Terrace,37404,35.0291327,-85.2565683
3110,Rose Terrace,37404,35.0292355,-85.2567408
863,Intermont Road,37415,35.1076879,-85.2734617
3109,East Court Drive,37404,35.0302806,-85.2554147
3107,East Court Drive,37404,35.0303825,-85.2556273
3108,East Court Drive,37404,35.0305338,-85.2558375
162,Signal Hills Drive,37405,35.0979888,-85.3347771
156,Signal Hills Drive,37405,35.0980976,-85.3342835
124,Signal Hills Drive,37405,35.0988202,-85.3312161
132,Signal Hills Drive,37405,35.0987348,-85.3318776
4,North Crest Road,37404,35.0299012,-85.2569940
3104,Rose Terrace,37404,35.0294247,-85.2570326
754,Manchester Drive,37415,35.1088515,-85.2752218
744,Manchester Drive,37415,35.1090635,-85.2758366
114,Signal Hills Drive,37405,35.0993801,-85.3304532
8,North Crest Road,37404,35.0301330,-85.2569204
3522,Lamar Avenue,37415,35.1157424,-85.2991840
3112,East Court Drive,37404,35.0307901,-85.2566044
735,Manchester Drive,37415,35.1095082,-85.2755368
727,Manchester Drive,37415,35.1098753,-85.2759368
3122,Rose Terrace,37404,35.0286809,-85.2556148
721,Manchester Drive,37415,35.1100299,-85.2761253
715,Manchester Drive,37415,35.1101525,-85.2763253
2,South Crest Road,37404,35.0293176,-85.2572603
3520,Lamar Avenue,37415,35.1161460,-85.2986718
3519,Lamar Avenue,37415,35.1162293,-85.2982479
3518,Lamar Avenue,37415,35.1165255,-85.2985041
736,market street,37402,35.0473280,-85.3088983
730,Hargraves Avenue,37411-2202,35.0319343,-85.2289362
728,Hargraves Avenue,37411-2202,35.0317418,-85.2289799
724,Hargraves Avenue,37411-2202,35.0315408,-85.2290993
722,Hargraves Avenue,37411-2202,35.0312849,-85.2292232
720,Hargraves Avenue,37411-2202,35.0310558,-85.2293485
718,Hargraves Avenue,37411-2202,35.0307753,-85.2294998
716,Hargraves Avenue,37411-2202,35.0306100,-85.2295716
714,Hargraves Avenue,37411-2202,35.0304746,-85.2296511
700,Hargraves Avenue,37411-2202,35.0297435,-85.2300528
707,Hargraves Avenue,37411-2203,35.0302730,-85.2302740
3109,Redding Road,37415,35.1157015,-85.2905592
3601,Redding Road,37415,35.1138732,-85.2914402
3600,Redding Road,37415,35.1136488,-85.2908887
3306,Redding Road,37415,35.1091286,-85.2940617
3304,Redding Road,37415,35.1089947,-85.2942498
302,Redding Road,37415,35.1088064,-85.2944017
1937,Dayton Boulevard,37405,35.0883183,-85.3129576
1929,Dayton Boulevard,37405,35.0878498,-85.3131274
2003,Dayton Boulevard,37405,35.0898039,-85.3125751
3063,Claude Ramsey Parkway,37421,35.0756678,-85.1569518
1812,Gunbarrel Road,37421,35.0230460,-85.1560384
1816,Gunbarrel Road,37421,35.0243802,-85.1552557
1751,Gunbarrel Road,37421,35.0227540,-85.1608896
7216,Tyner Road,37421,35.0581789,-85.1474420
2333,McCallie Avenue,37404,35.0346645,-85.2679864
2525,Desales Avenue,37404,35.0432832,-85.2598974
2412,McCallie Avenue,37404,35.0322332,-85.2665183
865,East 3rd Street,37403,35.0503832,-85.2947027
975,East 3rd Street,37403,35.0488541,-85.2899230
2051,Hamill Road,37343,35.1250844,-85.2372788
6009,Ooltewah Georgetown Road,37363,35.0833867,-85.0586063
9201,Lee Highway,37363-8828,35.0849080,-85.0628816
6145,Weir Way,37363,35.0867150,-85.0640731
1510,Riverside Drive,37406,35.0551090,-85.2817477
3950,Brainerd Road,37411,35.0196572,-85.2405431
5001,Brainerd Road,37421,35.0122103,-85.2254999
400,North Market Street,37405-4433,35.0650768,-85.3083981
627,Signal Mountain Road,37405,35.0964683,-85.3284457
625,Signal Mountain Road,37405,35.0962308,-85.3285211
815,University Street,37403,35.0443886,-85.3018367
105,Trail End,37415,35.1289592,-85.2723547
495,Riverfront Parkway,37402,35.0541423,-85.3205773
4850,Brainerd Road,37411-3831,35.0127353,-85.2287340
4727,Brainerd Road,37411,35.0139025,-85.2297035
617,Hudson Road,37405,35.0796017,-85.3352364
313,North Moore Road,37411,35.0176739,-85.2260460
1100,Market Street,37402,35.0436034,-85.3089203
730,Signal Mountain Road,37405,35.1000580,-85.3286316
3914,Lawton Street,37415,35.1191807,-85.2870333
312,Lawton Street,37415,35.1189141,-85.2866253
3908,Tacoma Avenue,37415,35.1186203,-85.2872605
3906,Tacoma Avenue,37415,35.1183417,-85.2873663
3824,Redding Road,37415,35.1182943,-85.2887781
3819,Pickering Avenue,37415,35.1172604,-85.2872111
3821,Pickering Avenue,37415,35.1173131,-85.2870091
3823,Pickering Avenue,37415,35.1174547,-85.2869183
3816,Pickering Avenue,37415,35.1167994,-85.2867118
3307,Redding Road,37415,35.1094180,-85.2944804
3419,Redding Road,37415,35.1113656,-85.2927419
3417,Redding Road,37415,35.1111993,-85.2928656
300,ashland Terrace,37415,35.1203449,-85.2863207
4010,Tacoma Avenue,37415,35.1198994,-85.2867418
3424,Redding Road,37415,35.1117192,-85.2919536
103,Woodrow Avenue,37415,35.1224272,-85.2862494
3577,Knollwood Hills Drive,37415,35.1101942,-85.2887292
518,Semi Circle,37415,35.1092473,-85.2872296
514,Semi Circle,37415,35.1092352,-85.2875486
444,Intermont Road,37415,35.1101056,-85.2823039
3611,Tacoma Avenue,37415,35.1139748,-85.2899717
3754,Knollwood Drive,37415,35.1145198,-85.2856191
501,Semi Circle,37415,35.1101152,-85.2880407
3756,Knollwood Drive,37415,35.1147686,-85.2855400
676,Signal Mountain Road,37405-1932,35.0976407,-85.3270540
107,Signal Hills Drive,37405,35.0998552,-85.3298162
104,Joyce Avenue,37415,35.1304231,-85.2818884
520,Intermont Road,37415,35.1097569,-85.2808501
528,Intermont Road,37415,35.1096614,-85.2805574
466,Intermont Road,37415,35.1098722,-85.2811966
2535,Woodfin Avenue,37415,35.1018478,-85.3058738
1943,Dayton Boulevard,37405,35.0890769,-85.3131594
1924,Dayton Boulevard,37405,35.0878401,-85.3142762
1937,Dayton Boulevard,37405,35.0883889,-85.3138125
1939,Dayton Boulevard,37405,35.0885480,-85.3127624
1922,Merriman Avenue,37405,35.0873976,-85.3138220
3701,Tom Weathers Drive,37415,35.1209464,-85.3055681
301,Sunrise lane,37411,35.1223906,-85.3058708
9211,Lawford Way,37363,35.0874849,-85.0578326
151,Integra Vistas Drive,37343,35.1776489,-85.2438864
1804,Chestnut Street,37408,35.0361036,-85.3143893
26,East Main Street,37408,35.0357388,-85.3068592
102,Walnut Street,37403,35.0552655,-85.3073627
418,Cumberland Street,37404,35.0447814,-85.2800123
2610,Amnicola Highway,37406,35.0737951,-85.2678074
4040,Dayton Boulevard,37415,35.1219840,-85.2872251
3806,Tacoma Avenue,37415,35.1165092,-85.2879966
3702,Morton Drive,37415,35.1126226,-85.2809165
3707,Morton Drive,37415,35.1127800,-85.2807407
3713,Premium Drive,37415,35.1127757,-85.2813613
3716,Premium Drive,37415,35.1129427,-85.2811879
3722,Premium Drive,37415,35.1130943,-85.2810422
3730,Premium Drive,37415,35.1132806,-85.2808388
3308,Redding Road,37415,35.1093105,-85.2939298
3736,Premium Drive,37415,35.1134309,-85.2806757
3761,Premium Drive,37415,35.1143547,-85.2800930
3769,Premium Drive,37415,35.1143710,-85.2797948
3783,Premium Drive,37415,35.1145535,-85.2794545
3787,Premium Drive,37415,35.1147055,-85.2793266
3814,Tacoma Avenue,37415,35.1171224,-85.2879013
929,West Elmwood Drive,37405,35.0694444,-85.3259121
931,West Elmwood Drive,37405,35.0698269,-85.3261350
3015,Tacoma Avenue,37415,35.1193557,-85.2875467
927,West Elmwood Drive,37405,35.0692499,-85.3260120
3912,Tacoma Avenue,37415,35.1189822,-85.2870953
925,West Elmwood Drive,37405,35.0688540,-85.3263757
933,West Elmwood Drive,37405,35.0699558,-85.3257775
921,West Elmwood Drive,37405,35.0685457,-85.3267486
919,West Elmwood Drive,37405,35.0681602,-85.3274924
3763,Morton Drive,37415,35.1139630,-85.2790923
504,Manning Street,37405,35.0657073,-85.3154495
3820,Tacoma Avenue,37415,35.1176094,-85.2877736
3819,Pickering Avenue,37415,35.1152663,-85.2879837
3715,Pickering Avenue,37415,35.1148689,-85.2881170
3709,Pickering Avenue,37415,35.1144698,-85.2882965
3809,Tacoma Avenue,37415,35.1168038,-85.2886018
3705,Pickering Avenue,37415,35.1143088,-85.2883695
3913,Pickering Avenue,37415,35.1185501,-85.2863883
3910,Pickering Avenue,37415,35.1185136,-85.2859127
3610,Pickering Avenue,37415,35.1134783,-85.2882839
3608,Pickering Avenue,37415,35.1133032,-85.2883581
4043,Dayton Boulevard,37415,35.1225828,-85.2876005
3609,Pickering Avenue,37415,35.1135870,-85.2887758
3507,Pickering Avenue,37415,35.1134182,-85.2888375
3605,Pickering Avenue,37415,35.1125025,-85.2893060
3604,Pickering Avenue,37415,35.1129944,-85.2885513
3606,Pickering Avenue,37415,35.1131550,-85.2884559
125,Cherokee Boulevard,37405,35.0633897,-85.3091680
3501,Pickering Avenue,37415,35.1122685,-85.2894534
3500,Tacoma Avenue,37415,35.1122564,-85.2902720
3500,Tacoma Avenue,37415,35.1124025,-85.2901668
110,Lavonia Street,37415,35.1271850,-85.2870446
3510,Tacoma Avenue,37415,35.1128543,-85.2895990
3610,Tacoma Avenue,37415,35.1138170,-85.2894742
3612,Tacoma Avenue,37415,35.1139644,-85.2893854
310,East Leawood Avenue,37415,35.1155818,-85.2882336
2575,Knollwood Hills Drive,37415,35.1102712,-85.2891904
3579,Knollwood Hills Drive,37415,35.1104543,-85.2885064
3581,Knollwood Hills Drive,37415,35.1108538,-85.2882415
3587,Knollwood Hills Drive,37415,35.1120412,-85.2874375
3583,Knollwood Hills Drive,37415,35.1114024,-85.2877731
3591,Knollwood Hills Drive,37415,35.1124063,-85.2872099
3780,Morton Drive,37415,35.1142193,-85.2787479
3593,Knollwood Hills Drive,37415,35.1126197,-85.2870588
3788,Premium Drive,37415,35.1144414,-85.2789982
3705,Knollwood Hills Drive,37415,35.1131057,-85.2867777
3707,Knollwood Drive,37415,35.1133331,-85.2866598
3731,Knollwood Drive,37415,35.1138333,-85.2864414
3749,Knollwood Drive,37415,35.1141442,-85.2862660
3751,Knollwood Drive,37415,35.1143717,-85.2861616
3753,Knollwood Drive,37415,35.1146710,-85.2860512
3609,Knollwood Drive,37415,35.1154886,-85.2858429
3805,Knollwood Drive,37415,35.1157899,-85.2858322
3613,Knollwood Drive,37415,35.1163703,-85.2855249
1813,Hamill Road,37343,35.1218879,-85.2430762
1903,Dupont Street,37343,35.1222385,-85.2428675
3826,Hixson Pike,37415,35.1124376,-85.2691932
1901,Hamill Road,37343,35.1220738,-85.2429225
120,Alden Avenue,37405,35.0873270,-85.3179996
3241,Claude Ramsey Parkway,37421,35.0810478,-85.1536864
930,East Elmwood Drive,37405,35.0696642,-85.3248830
601,Semi Circle,37415,35.1106683,-85.2862929
3817,Redding Road,37415,35.1183397,-85.2898732
1809,Hamill Road,37343,35.1217070,-85.2432522
3715,Conner Street,37411,35.0183337,-85.2458441
1816,Hamill Road,37343,35.1216248,-85.2424553
3719,Conner Street,37411,35.0180605,-85.2452527
3713,Conner Street,37411,35.0184087,-85.2460836
3717,Conner Street,37411,35.0182153,-85.2456837
506,Semi Circle,37415,35.1094800,-85.2882357
1820,Hamill Road,37343,35.1219552,-85.2421631
129,Hill Top Drive,37411,35.0174705,-85.2454855
127,Hill Top Drive,37411,35.0176698,-85.2454268
204,Hill Top Drive,37411,35.0166516,-85.2450666
211,Martin Road,37415,35.1007770,-85.3045355
3801,Conner Street,37411,35.0173207,-85.2448049
3724,Knollwood Drive,37415,35.1137181,-85.2859512
3628,Glendon Drive,37411,35.0167973,-85.2465493
3626,Glendon Drive,37411,35.0170979,-85.2463903
1920,Hamill Road,37343,35.1222610,-85.2410047
3696,Knollwood Drive,37415,35.1125925,-85.2861028
3621,Glendon Drive,37411,35.0175135,-85.2459547
3653,Woodmont Drive,37415,35.1140013,-85.2848814
1807,Hamill Road,37343,35.1224934,-85.2421510
3619,Glendon Drive,37411,35.0179616,-85.2466417
3617,Glendon Drive,37411,35.0180987,-85.2468426
3800,Conner Street,37411,35.0169304,-85.2450820
3627,Glendon Drive,37411,35.0165372,-85.2461049
3625,Glendon Drive,37411,35.0167735,-85.2458949
502,Semi Circle,37415,35.1096636,-85.2883917
1802,Hamill Road,37343,35.1213389,-85.2429698
1802,Hamill Road,37343,35.1211030,-85.2427468
1802,Hamill Road,37343,35.1211421,-85.2431385
3805,Conner Street,37411,35.0170220,-85.2441626
602,Semi Circle,37415,35.1103389,-85.2859368
3806,Conner Street,37411,35.0167041,-85.2445316
3616,Glendon Drive,37411,35.0180826,-85.2474793
3614,Glendon Drive,37411,35.0183287,-85.2476593
3603,Conner Street,37411,35.0181317,-85.2482387
3616,Conner Street,37411,35.0176510,-85.2482434
3620,Conner Street,37411,35.0176141,-85.2477339
3614,Conner Street,37411,35.0176626,-85.2485050
3618,Conner Street,37411,35.0176224,-85.2479836
3707,Chula Vista Drive,37411,35.0187949,-85.2453313
3705,Chula Vista Drive,37411,35.0188782,-85.2455493
1802,Albert Lane,37343,35.1237172,-85.2438692
1805,Hamill Road,37343,35.1214671,-85.2435754
1721,Bagwell Avenue,37343,35.1213107,-85.2437501
1916,Dupont Street,37343,35.1233729,-85.2424382
2518,Woodfin Avenue,37415,35.1001277,-85.3060521
3703,Chula Vista Drive,37411,35.0190649,-85.2457170
1817,Williams Road,37343,35.1242205,-85.2414629
402,Victoria Avenue,37415,35.1010427,-85.3074853
2519,Woodfin Avenue,37415,35.1007003,-85.3066892
2523,Woodfin Avenue,37415,35.1008604,-85.3065240
3376,Easton Avenue,37415,35.1081242,-85.2886410
1806,Williams Road,37343,35.1236340,-85.2433353
1803,Williams Road,37343,35.1241633,-85.2434885
1805,Williams Road,37343,35.1240794,-85.2432527
1723,Green Hills Drive,37343,35.1244983,-85.2424879
1722,Green Hills Drive,37343,35.1246218,-85.2430540
2023,Dayton Boulevard,37405,35.0907894,-85.3117576
1801,Williams Road,37343,35.1241921,-85.2437010
1715,Williams Road,37343,35.1246921,-85.2440735
3611,Glendon Drive,37411,35.0186630,-85.2472425
3613,Glendon Drive,37411,35.0184377,-85.2471377
3609,Glendon Drive,37411,35.0188574,-85.2473027
1714,Broadview Drive,37343,35.1234953,-85.2448395
1712,Broadview Drive,37343,35.1235821,-85.2450647
1710,Broadview Drive,37343,35.1236648,-85.2453395
1708,Broadview Drive,37343,35.1237323,-85.2455638
1706,Broadview Drive,37343,35.1237886,-85.2458244
1704,Broadview Drive,37343,35.1238861,-85.2460760
1702,Broadview Drive,37343,35.1239385,-85.2463197
4700,Clover Lane,37343,35.1235762,-85.2464605
1703,Albert Lane,37343,35.1234406,-85.2462297
1705,Albert Lane,37343,35.1233497,-85.2459928
1707,Albert Lane,37343,35.1232966,-85.2457441
1709,Albert Lane,37343,35.1232044,-85.2454995
3423,Redding Road,37415,35.1116673,-85.2924294
1711,Albert Lane,37343,35.1231342,-85.2452481
1713,Albert Lane,37343,35.1230477,-85.2450233
3421,Redding Road,37415,35.1114830,-85.2925662
3610,Conner Street,37411,35.0178217,-85.2486682
1728,Albert Lane,37343,35.1234965,-85.2440235
1726,Albert Lane,37343,35.1233006,-85.2440945
1724,Albert Lane,37343,35.1230843,-85.2441990
1722,Albert Lane,37343,35.1228930,-85.2442918
3411,Redding Road,37415,35.1108487,-85.2933465
1720,Albert Lane,37343,35.1226798,-85.2443997
1608,Albert Lane,37343,35.1232008,-85.2470771
1606,Albert Lane,37343,35.1232703,-85.2473442
2705,East 47th Street,37407-3325,34.9893382,-85.2882874
2707,East 47th Street,37407-3325,34.9892687,-85.2881167
876,W 9th Ave,37402,35.0504382,-85.3240493
3218,13th Avenue,37407-1809,35.0020776,-85.2785359
3220,13th Avenue,37407-1809,35.0019448,-85.2785684
721,Latitude Circle,37402,35.0541008,-85.3213956
803,Snow Street,37406,35.0722050,-85.3108675
357,Lookout High Street,37419,35.0347689,-85.3653249
930,Douglas Street,37403,35.0427892,-85.3026093
1346,Gunbarrel Road,37421,35.0117357,-85.1642114
350,Lookout High Street,37419,35.0333246,-85.3661498
350,Lookout High Street,37419,35.0335137,-85.3654123
3330,Hixson Pike,37415,35.1018992,-85.2740129
400,Garden Road,37419,35.0035798,-85.3661610
110,East Manning Street,37405,35.0655434,-85.3061502
7647,East Brainerd Road,37421,35.0121630,-85.1569961
7621,E Brainerd Road,37421,35.0139550,-85.1577219
309,East Main Street,37409,35.0350263,-85.3038824
3074,Claude Ramsey Parkway,37421,35.0730916,-85.1542839
6414,Bonny Oaks Drive,37416,35.0743070,-85.1677438
3018,South Hickory Valley Road,37421,35.0717269,-85.1550728
3055,Claude Ramsey Parkway,37421,35.0734038,-85.1568330
591050,Winding Lane,37343,35.1491192,-85.2460629
6025,Mountain View Road,37363,35.0890506,-85.0641706
3600,13th Avenue,37407,34.9987193,-85.2794670
3913,Saint Elmo Avenue,37409,35.0099101,-85.3285123
7025,East Brainerd Road,37421,35.0185495,-85.1724172
1607,West 43rd Street,37409,35.0038281,-85.3297812
1220,King Street,37403,35.0399910,-85.3070771
6734,Lee Highway,37421,35.0388596,-85.1711536
7314,Shallowford Road,37421,35.0408632,-85.1524467
2217,Hamilton Place Boulevard,37421,35.0403243,-85.1557792
2211,Overnite Drive,37421,35.0406897,-85.1595715
1815,East 32nd Street,37407,35.0088332,-85.2901091
1815,East 32nd Street,37407,35.0088486,-85.2903833
1815,East 32nd Street,37407,35.0088656,-85.2906119
1815,East 32nd Street,37407,35.0087525,-85.2906711
6496,East Brainerd Road,37421,35.0178362,-85.1932508
5808,Lee Highway,37421,35.0202957,-85.2007770
5706,Lee Highway,37421,35.0180744,-85.2041310
5665,Brainerd Road,37411,35.0117750,-85.2147486
5906,Lee Highway,37421,35.0223813,-85.1975326
400,Chickamauga Road,37421,35.0217296,-85.1981683
6101,Lee Highway,37421,35.0286484,-85.1891046
6119,Lee Highway,37421,35.0291785,-85.1883338
7421,Commons Boulevard,37421,35.0360210,-85.1466639
7660,Goodwin Road,37421,35.0255774,-85.1466542
6903,Lee Highway,37421,35.0431034,-85.1659582
2201,Park Drive,37421,35.0440360,-85.1622971
2321,Lifestyle Way,37421,35.0418825,-85.1517530
2507,Lifestyle Way,37421,35.0437863,-85.1531379
2521,Lifestyle Way,37421,35.0443954,-85.1525933
9225,Lee Highway,37363,35.0839985,-85.0603803
1613,E 14th St,37404,35.0282655,-85.2827554
5972,East Brainerd Road,37421,35.0169238,-85.2062021
7601,East Brainerd Road,37421,35.0137128,-85.1569425
1321,Mayfield Lane,37343,35.1413345,-85.2401404
611,Bitsy Lane,37343,35.1238232,-85.2743907
1929,Dayton Boulevard,37405,35.0886188,-85.3136681
5756,Highway 153,37343,35.1568959,-85.2476382
4528,Highland Avenue,37410,35.0001310,-85.3172890
5188,TN 153,37343,35.1235342,-85.2391636
5110,TN 153,37343,35.1220553,-85.2380416
5108,TN 153,37343,35.1217943,-85.2375861
5104,TN 153,37343,35.1213085,-85.2374251
5100,TN 153,37343,35.1210632,-85.2373754
5433,Highway 153,37343-3720,35.1392107,-85.2486955
6210,Lee Highway,37421,35.0298774,-85.1853175
6220,Lee Highway,37421,35.0302955,-85.1846573
6236,Lee Highway,37421,35.0306635,-85.1840105
615,McCallie Avenue,37403,35.0482475,-85.3020234
728,Market Street,37042,35.0477665,-85.3090992
993,Georgia Avenue,37402,35.0449256,-85.3090582
661,Douglas Street,37403,35.0465391,-85.3014851
663,Douglas Street,37403,35.0462808,-85.3016847
3644,Cummings Highway,37419-2313,35.0178586,-85.3785637
40,Starview Lane,37419,35.0195399,-85.3804416
6053,Artesian Circle,37363,35.0859689,-85.0658352
7610,East Brainerd Road,37421,35.0119550,-85.1582986
7630,East Brainerd Road,37421,35.0115793,-85.1578248
8101,East Brainerd Road,37421,35.0054424,-85.1491700
7304,Shallowford Road,37421,35.0412201,-85.1533916
2210,Bams Drive,37421,35.0395849,-85.1571883
2200,Hamilton Place Boulevard,37421-6015,35.0359899,-85.1540526
2200,Hamilton Place Boulevard,37421,35.0356801,-85.1542265
2122,Gunbarrel Road,37421,35.0344752,-85.1526014
2118,Gunbarrel Road,37421-2607,35.0334926,-85.1531736
2115,Gunbarrel Road,37421,35.0343406,-85.1544653
200,West 38th Street,37410-1317,35.0057665,-85.3125695
1503,Dodds Avenue,37404,35.0217709,-85.2703120
2108,East Main Street,37404-5132,35.0245993,-85.2767563
2106,East Main Street,37404-5132,35.0247459,-85.2769387
2100,East Main Street,37404-5132,35.0247689,-85.2770711
2099,East Main Street,37404-5131,35.0254075,-85.2772517
4716,Rossville Boulevard,37407-3238,34.9883417,-85.2886009
4706,Rossville Boulevard,37407-3238,34.9883894,-85.2887439
4701,Dodds Avenue,37407-3331,34.9887107,-85.2881247
4707,Dodds Avenue,37407-3331,34.9885800,-85.2881810
2110,East Main Street,37404-5132,35.0244856,-85.2764677
2607,East 47th Street,37407-3323,34.9897092,-85.2889722
4801,English Avenue,37407-3525,34.9874552,-85.2889940
2301,Dodds Avenue,37407-1241,35.0156442,-85.2739174
2115,Dodds Avenue,37404-5437,35.0162348,-85.2737915
4109,Dodds Avenue,37407-2737,34.9947598,-85.2849581
1831,Hickory Valley Road,37421,35.0313478,-85.1754521
1290,Premier Drive,37421,35.0149544,-85.1908343
1000,Alhambra Drive,37421,35.0160851,-85.1867196
1029,Roselawn Drive,37421,35.0147069,-85.1845764
1041,Roselawn Drive,37421,35.0153170,-85.1843300
7950,East Brainerd Road,37421-4246,35.0050932,-85.1533431
7987,East Brainerd Road,37421,35.0052428,-85.1516643
1058,Graysville Road,37421,35.0022655,-85.1491510
8164,East Brainerd Road,37421,35.0025661,-85.1477845
8214,East Brainerd Road,37421,35.0024210,-85.1453601
8644,East Brainerd Road,37421,34.9991533,-85.1339152
8701,East Brainerd Road,37421,35.0012455,-85.1320658
2318,Shallowford Village Drive,37421,35.0437009,-85.1568941
7019,Shallowford Road,37421,35.0437892,-85.1582582
6925,Shallowford Road,37421,35.0450374,-85.1602776
5904,Lee Highway,37421,35.0222508,-85.1982117
1507,Hickory Valley Road,37421,35.0242745,-85.1803734
1519,Hickory Valley Road,37421,35.0241970,-85.1785223
1521,Hickory Valley Road,37421,35.0254266,-85.1797119
1832,Hickory Valley Road,37421,35.0311778,-85.1734388
6795,Lee Highway,37421,35.0410885,-85.1693429
6802,Lee Highway,37421,35.0406366,-85.1684553
6740,Lee Highway,37421,35.0397212,-85.1701067
6705,Ballard Drive,37421,35.0416277,-85.1715841
4540,Turntable Road,37421,35.0656880,-85.2071347
4543,Turntable Road,37421,35.0650495,-85.2057750
4123,Cromwell Road,37421,35.0672184,-85.2051135
4119,Cromwell Road,37421,35.0668145,-85.2040842
74,Starview Lane,37419,35.0200531,-85.3801992
3801,Cummings Highway,37419,35.0197023,-85.3846315
3712,Cummings Highway,37419-2315,35.0175556,-85.3798141
7326,McCutcheon Road,37421,35.0437903,-85.1500023
1906,Gunbarrel road,37421,35.0274642,-85.1564896
7407,Igou Gap Road,37421,35.0269173,-85.1562141
7407,Igou Gap Road,37421,35.0268448,-85.1560211
1820,Gunbarrel Road,37421,35.0255309,-85.1561825
1804,Gunbarrel Road,37421,35.0236970,-85.1585070
2130,Gunbarrel Road,37421,35.0343770,-85.1515928
2180,Gunbarrel Road,37421,35.0348482,-85.1494757
2132,Gunbarrel Road,37421,35.0340439,-85.1501215
2273,Gunbarrel Road,37421,35.0389410,-85.1528042
2288,Gunbarrel Road,37421-3895,35.0371194,-85.1497105
2288,Gunbarrel Road,37421,35.0374439,-85.1495681
2342,Shallowford Village Drive,37421,35.0446244,-85.1554983
2346,Shallowford Village Drive,37421,35.0449966,-85.1549120
2350,Shallowford Village Drive,37421-6768,35.0455332,-85.1543526
2361,Shallowford Village Drive,37421,35.0460368,-85.1553936
7024,McCutcheon Road,37421,35.0460878,-85.1562359
2345,Shallowford Village Drive,37421,35.0454034,-85.1560122
2343,Shallowford Village Drive,37421,35.0450838,-85.1564721
2340,Center Street,37421,35.0466038,-85.1580972
3551,Harrison Pike,37416,35.0964762,-85.2089261
7421,Bonny Oaks Drive,37421-1084,35.0614771,-85.1347973
7420,East Brainerd Road,37421,35.0144795,-85.1632309
7428,East Brainerd Road,37421,35.0141911,-85.1627869
2020,Gunbarrel Road,37421-2663,35.0306207,-85.1511943
2020,Gunbarrel Road,37421,35.0311499,-85.1512326
2020,Gunbarrel Road,37421,35.0312020,-85.1507768
2020,Gunbarrel Road,37421,35.0332994,-85.1512558
2020,Gunbarrel Road,37421,35.0334951,-85.1519210
2341,Shallowford Village Drive,37421,35.0445420,-85.1571234
7017,Shallowford Road,37421,35.0448171,-85.1579153
2330,Center Street,37421,35.0458221,-85.1584123
7010,McCutcheon Road,37421,35.0464161,-85.1571032
7008,Shallowford Road,37421,35.0431941,-85.1595353
3905,Tacoma Avenue,37415,35.1185349,-85.2879363
824,Lullwater Road,37415,35.0992550,-85.3146642
1001,Airport Road,37421,35.0323872,-85.2024043
2250,Center Street,37421,35.0428760,-85.1603856
6915,Shallowford Road,37421,35.0447324,-85.1610087
2029,East 23rd Street,37404-5807,35.0191515,-85.2812596
1805,East 23rd Street,37404-5712,35.0204032,-85.2857953
203,Martin Road,37415,35.1001788,-85.3041567
515,Woodland Avenue,37405,35.0673441,-85.3075032
448,hedgewood drive,37415,35.0930034,-85.3175628
505,Woodland Avenue,37405,35.0668024,-85.3076432
929,Mountain Creek Road,37405,35.1062078,-85.3268398
931,Mountain Creek Road,37405,35.1064239,-85.3267583
31,Maryland Street,37406,35.0737304,-85.3094854
1,Hedgewood Drive,37415,35.0927601,-85.3175835
207,Martin Road,37415,35.1003431,-85.3042665
630,North Valley Drive,37415,35.1201328,-85.3104012
628,North Valley Drive,37415,35.1202298,-85.3100906
624,North Valley Drive,37415,35.1202036,-85.3096198
622,North Valley Drive,37415,35.1200941,-85.3091858
619,North Valley Drive,37415,35.1202290,-85.3081434
640,Valley Bridge Road,37415,35.1190161,-85.3111442
6429,Lee Highway,37421,35.0347529,-85.1799151
6914,Shallowford Road,37421,35.0440253,-85.1612304
900,Mountain Creek Road,37405,35.1047335,-85.3253581
1204,Clermont Drive,37415,35.1106209,-85.2655190
1325,Woodmore Lane,37411,35.0368769,-85.2245101
772,Mountain Creek Road,37405-1631,35.1002547,-85.3262992
621,North Valley Drive,37415,35.1205061,-85.3089383
627,North Valley Drive,37415,35.1207108,-85.3100001
639,North Valley Drive,37415,35.1194422,-85.3115011
1204,Clermont Drive,37415,35.1105210,-85.2657765
1325,Woodmore Lane,37411,35.0302759,-85.2276958
637,Mundy Street,37405,35.0977082,-85.3257258
3101,Martin Road,37415,35.1090238,-85.3048203
7307,Lee Highway,37421,35.0528970,-85.1499069
20,Birmingham Highway,37419,35.0168809,-85.3813675
1908,Bailey Avenue,37404,35.0325789,-85.2749996
2000,Union Avenue,37404,35.0314792,-85.2746088
3315,Broad Street,37408,35.0169936,-85.3236370
4786,Highway 58,37416,35.0891563,-85.1864696
4535,Highway 58,37416,35.0857249,-85.1948366
5888,Brainerd Road,37411,35.0130051,-85.2111079
2303,East 23rd Street,37407-1110,35.0173357,-85.2765634
2201,East 23rd Street,37407-1108,35.0180819,-85.2791262
2210,Hamilton Parkway Boulevard,37421,35.0389446,-85.1539442
2220,Hamilton Place Boulevard,37421,35.0393898,-85.1539907
2220,Hamilton Place Boulevard,37421,35.0400478,-85.1537591
2220,Hamilton Place Boulevard,37421,35.0402745,-85.1536470
2972,Alexander Drive,37405,35.0977541,-85.2881077
1029,River Hills Drive,37405,35.0939916,-85.2823823
1105,River Hills Drive East,37405,35.0938695,-85.2812352
101,Lavonia Ave,37415,35.1269836,-85.2850031
611,North Valley Drive,37415,35.1197875,-85.3067635
1305,Dodson Ave.,37406-3554,35.0524411,-85.2613169
1915,Dayton Boulevard,37405,35.0871800,-85.3148083
3955,Dayton Boulevard,37415,35.1207528,-85.2891948
3961,Dayton Boulevard,37415,35.1209207,-85.2892752
1941,Dayton Boulevard,37405,35.0889658,-85.3133118
1937,Dayton Boulevard,37405,35.0883446,-85.3139290
3216,Rosemont Drive,37411,35.0261186,-85.2537719
3117,Parker Lane,37419,35.0258744,-85.3630283
150,Browns Ferry Road,37419,35.0251393,-85.3642069
311,Browns Ferry Road,37419,35.0303441,-85.3629833
7547,East Brainerd Road,37421,35.0136927,-85.1590116
2401,East 23rd Street,37407,35.0168448,-85.2758621
6001,Lee Highway,37421,35.0258304,-85.1948569
706,Middleton Lane,37405,35.0796482,-85.2995838
1391,Carrington Way,37405,35.0798969,-85.2992414
1383,Carrington Way,37405,35.0797910,-85.2991617
1701,Broad Street,37408,35.0357882,-85.3129403
2119,East 23rd Street,37404-5809,35.0185412,-85.2804341
2298,East 23rd Street,37407,35.0167985,-85.2773710
2405,East 13th Street,37404-4622,35.0252770,-85.2715525
2407,East 13th Street,37404,35.0252120,-85.2713940
2413,East 13th Street,37404-4622,35.0250650,-85.2709175
2434,Rossville Boulevard,37408-2324,35.0209720,-85.2940870
3334,Broad Street,37408,35.0166214,-85.3223526
3210,Cummings Highway,37419,35.0190061,-85.3705136
1624,Hickory Place,37404-2120,35.0423895,-85.2750970
1620,Hickory Place,37404-2120,35.0426485,-85.2751720
1625,Hickory Place,37404-2121,35.0427740,-85.2748710
2415,Apex Lane,37343,35.1306644,-85.2334489
2726,Kanasita Drive,37343,35.1333717,-85.2303137
216,Woodrow Avenue,37415,35.1209626,-85.2840051
103,Joyce Avenue,37415,35.1307707,-85.2816408
4650,Sherry Lane,37343,35.1307833,-85.2678806
2833,Dayton Boulevard,37415,35.1026315,-85.3010584
801,Barton Avenue,37405,35.0664692,-85.2916301
3131,Mountain Creek Road,37415,35.1216126,-85.3150533
2253,Olan Mills Drive,37421,35.0526445,-85.1835899
505,Airport Road,37421,35.0236802,-85.1985105
4103,Rossville Boulevard,37407,34.9967295,-85.2916085
4001,Rossville Boulevard,37407,34.9973330,-85.2917030
4115,Rossville Boulevard,37407,34.9954680,-85.2913795
2108,Cleveland Avenue,37404,35.0418370,-85.2678345
2106,Cleveland Avenue,37404-2205,35.0418820,-85.2679505
2104,Cleveland Avenue,37404-2205,35.0419255,-85.2680710
2102,Cleveland Avenue,37404-2205,35.0419765,-85.2681920
101,West 38th Street,37410-1316,35.0053925,-85.3110570
4503,Highway 58,37416,35.0852445,-85.1988645
6048,Century Oaks Drive,37416,35.0758943,-85.1845468
3615,Rossville Boulevard,37407-2468,35.0015400,-85.2925895
3700,Rossville Boulevard,37407-2472,35.0011670,-85.2916645
3215,13th Avenue,37407-1810,35.0024870,-85.2788480
3212,13th Avenue,37407-1809,35.0024245,-85.2782330
3210,13th Avenue,37407-1809,35.0025930,-85.2782815
2120,Cleveland Avenue,37404-2234,35.0416810,-85.2673665
2122,Cleveland Avenue,37404-2234,35.0416500,-85.2672395
2126,Cleveland Avenue,37404-2234,35.0415485,-85.2669984
2127,Cleveland Avenue,37404-2235,35.0417750,-85.2668790
2125,Cleveland Avenue,37404-2235,35.0418395,-85.2670230
2113,Cleveland Avenue,37404-2206,35.0421050,-85.2676880
2003,East 5th Street,37404-2617,35.0387975,-85.2709570
2001,East 5th Street,37404-2617,35.0388300,-85.2712570
2000,East 5th Street,37404-2616,35.0384040,-85.2713370
2004,East 5th Street,37404-2616,35.0383025,-85.2710455
2006,East 5th Street,37404-2616,35.0382070,-85.2709245
7111,Lee Highway,37421,35.0484190,-85.1578065
1432,Shawhan Terrace,37411-2222,35.0390100,-85.2240415
1428,Shawhan Terrace,37411-2222,35.0387405,-85.2241600
1424,Shawhan Terrace,37411-2222,35.0384835,-85.2243140
1420,Shawhan Terrace,37411-2222,35.0382465,-85.2244565
1416,Shawhan Terrace,37411-2222,35.0380500,-85.2246435
1414,Shawhan Terrace,37411-2222,35.0378385,-85.2248405
1410,Shawhan Terrace,37411-2222,35.0379095,-85.2251825
1415,Shawhan Terrace,37411-2222,35.0383870,-85.2250645
1417,Shawhan Terrace,37411-2222,35.0386515,-85.2249155
1421,Shawhan Terrace,37411-2222,35.0389085,-85.2247750
1425,Shawhan Terrace,37411-2222,35.0391780,-85.2246315
729,Hargraves Avenue,37411-2203,35.0320435,-85.2292875
727,Hargraves Avenue,37411-2203,35.0317215,-85.2294965
725,Hargraves Avenue,37411-2203,35.0314765,-85.2296095
721,Hargraves Avenue,37411-2203,35.0312240,-85.2298035
3826,Larry Drive,37411-1609,35.0414405,-85.2325695
2109,East Main Street,37404-5133,35.0249845,-85.2763430
2310,Bailey Avenue,37404-3212,35.0312045,-85.2694855
2269,Union Avenue,37404-3712,35.0306470,-85.2707075
541,Browns Ferry Road,37419-1507,35.0405400,-85.3581850
3204,Hixson Pike,37415,35.0993370,-85.2780340
906,Ashland Terrace,37415,35.1165470,-85.2675755
4766,Highway 58,37416,35.0883785,-85.1875410
4856,Highway 58,37416,35.0923280,-85.1805550
2214,Union Avenue,37404-3712,35.0303475,-85.2710410
2309,Bailey Avenue,37404-3213,35.0307065,-85.2694015
2410,East 13th Street,37404-4621,35.0247210,-85.2712700
2412,East 13th Street,37404-4621,35.0246585,-85.2711185
2414,East 13th Street,37404-4621,35.0246275,-85.2709675
2420,East 13th Street,37404-4621,35.0245080,-85.2706785
4409,Rossville Boulevard,37407-2917,34.9917566,-85.2908004
4502,Rossville Boulevard,37407,34.9912655,-85.2894296
2833,Dayton Boulevard,37415,35.1026402,-85.3012891
208,Frazier Avenue,37405,35.0621113,-85.3063135
5816,Talladega Drive,37421,35.0414356,-85.1913043
2518,Woodfin Avenue,37415,35.1002016,-85.3062705
2535,Woodfin Avenue,37415,35.1016936,-85.3057104
4808,Eldridge Road,37343,35.1323606,-85.2602677
4812,Eldridge Road,37343,35.1325036,-85.2600174
102,Everett Street,37409,35.0076065,-85.3313485
4510,Turntable Road,37421,35.0660665,-85.2091509
6046,Relocation Way,37363,35.0863133,-85.0598002
4119,Cromwell Road,37421,35.0669245,-85.2076941
4921,Highway 58,37416,35.0936144,-85.1804422
5401,Hixson Pike,37343,35.1416913,-85.2311651
1223,East 34th Street,37407,35.0049799,-85.2962960
4300,Locksley Lane,37416,35.0846372,-85.2068091
1204,Hixson Pike,37405,35.0700168,-85.2889240
531,Strong Ave,37343,35.1327184,-85.2688659
535,Strong Ave,37343,35.1326622,-85.2687076
543,Strong Ave,37343,35.1326055,-85.2685424
549,Strong Ave,37343,35.1325521,-85.2683886
553,Strong Ave,37343,35.1324956,-85.2682406
557,Strong Ave,37343,35.1324358,-85.2680926
561,Strong Ave,37343,35.1323887,-85.2679389
565,Strong Ave,37343,35.1323195,-85.2677698
573,Strong Ave,37343,35.1322692,-85.2676199
577,Strong Ave,37343,35.1322094,-85.2674854
585,Strong Ave,37343,35.1321560,-85.2673124
591,Strong Ave,37343,35.1321026,-85.2671625
594,Strong Ave,37343,35.1316782,-85.2671548
590,Strong Ave,37343,35.1317285,-85.2673200
586,Strong Ave,37343,35.1317977,-85.2674777
578,Strong Ave,37343,35.1318669,-85.2676506
574,Strong Ave,37343,35.1319108,-85.2677852
566,Strong Ave,37343,35.1319737,-85.2679505
562,Strong Ave,37343,35.1320146,-85.2680926
558,Strong Ave,37343,35.1320680,-85.2682233
554,Strong Ave,37343,35.1321151,-85.2683848
550,Strong Ave,37343,35.1321655,-85.2685385
4735,Stunner Lane,37343,35.1323620,-85.2689171
4731,Stunner Lane,37343,35.1322220,-85.2689613
4727,Stunner Lane,37343,35.1321026,-85.2690382
4721,Stunner Lane,37343,35.1319706,-85.2691228
4717,Stunner Lane,37343,35.1318449,-85.2691804
4713,Stunner Lane,37343,35.1317002,-85.2692573
4706,Stunner Lane,37343,35.1313828,-85.2689345
4710,Stunner Lane,37343,35.1314927,-85.2688614
4714,Stunner Lane,37343,35.1316154,-85.2687999
4718,Stunner Lane,37343,35.1317222,-85.2687653
4722,Stunner Lane,37343,35.1318354,-85.2686923
4726,Stunner Lane,37343,35.1319611,-85.2686154
3354,Charger Drive,37409,35.0141710,-85.3211836
8641,Citrine Way,37421,35.0171962,-85.1284490
8637,Citrine Way,37421,35.0170552,-85.1285241
113,Johnson Street,37408,35.0357689,-85.3038044
2701,East 47th Street,37407-3325,34.9895194,-85.2884864
7525,Min Tom Road,37421,35.0441205,-85.1404079
930,Ashland Terrace,37415,35.1155195,-85.2650265
2709,East 47th Street,37407-3325,34.9892306,-85.2879669
2800,McCallie Avenue,37404,35.0313899,-85.2610687
2437,Rossville Boulevard,37408-2325,35.0202869,-85.2944040
3401,Cummings Highway,37419,35.0195346,-85.3737643
3511,Rossville Boulevard,37407-2466,35.0030719,-85.2928900
3515,Rossville Boulevard,37407-2466,35.0028920,-85.2927972
2115,Cleveland Avenue,37404-2235,35.0420280,-85.2674665
442,Roberts Street,37404-2114,35.0435935,-85.2729751
2305,Green Forrest Drive,37406-2611,35.0578460,-85.2319112
2115,Gunbarrel Road,37421,35.0343195,-85.1544059
2115,Gunbarrel Road,37421,35.0342974,-85.1543415
6812,Gayda Lane,37421-5677,35.0198392,-85.1787705
735,Julian Road,37421-4256,34.9952132,-85.1556352
6810,Gayda Lane,37421-5677,35.0199501,-85.1791178
4917,15th Avenue,37407,34.9863729,-85.2837340
1307,Broad Street,37402,35.0395074,-85.3108561
1225,Cowart Street,37402,35.0405004,-85.3087209
7310,Standifer Gap Road,37421,35.0502165,-85.1485805
7302,Lee Highway,37421,35.0523579,-85.1488026
1014,Dartmouth Street,37405,35.0755645,-85.2938010
2110,Northpoint Boulevard,37343,35.1346791,-85.2389578
1600,Lynnbrook Avenue,37404,35.0251241,-85.2812894
1915,Northpoint Boulevard,37343,35.1390081,-85.2461878
776,Mountain Creek Road,37405,35.0996222,-85.3270443
1414,Jenkins Road,37421,35.0085097,-85.1520982
4713,Privateer Road,37343,35.1216204,-85.1923955
5595,Hixson Pike,37343,35.1465994,-85.2215268
5596,Hixson Pike,37343,35.1461731,-85.2207760
5600,Lake Resort Terrace,37415,35.1089557,-85.2167567
205,Island Avenue,37405,35.0616603,-85.2994841
10,Bluff View Avenue,37403,35.0558415,-85.3062145
1020,North Moore Road,37411,35.0283226,-85.2180004
20,Belvoir Avenue,37411,35.0177909,-85.2396279
501,Oak Street,37403,35.0485489,-85.3026764
6123,Mountain View Road,37363,35.0932109,-85.0628817
1300,Shallowford Road,37411,35.0407470,-85.2214917
615,McCallie Avenue,37403,35.0469609,-85.2988639
100,Council Fire Drive,37421,34.9868362,-85.1660492
305,West 7th Street,37402,35.0485934,-85.3130969
805,Canal St,37402,35.0520083,-85.3220171
1,Cameron Hill Circle,37402,35.0520844,-85.3177506
