House number,Street name,Postal code,Latitude,Longitude
3064,Columbia Ave,37064,35.8927954,-86.8810549
3054,Columbia Avenue,37064,35.8937063,-86.8808919
3084,Columbia Ave,37064,35.8919617,-86.8778183
3046,Columbia Avenue,37064,35.8940052,-86.8779650
3046,Columbia Avenue,37064,35.8940330,-86.8782627
3046,Columbia Ave,37064,35.8940469,-86.8784859
449,Cool Springs Boulevard,37067,35.9464860,-86.8243405
501,Cool Springs Boulevard,37067,35.9469016,-86.8233934
430,Cool Springs Boulevard,37067,35.9452739,-86.8251114
401,Cool Springs Boulevard,37067,35.9456562,-86.8283730
555,Cool Springs Road,37067,35.9476574,-86.8216783
2050,Mallory Lane,37067,35.9484461,-86.8192541
2020,Mallory Lane,37067,35.9508016,-86.8167650
3064,Columbia Avenue,37064,35.8926987,-86.8810713
102,Lumber Dr,37064,35.8994424,-86.8757764
102,Lumber Dr,37064,35.8993958,-86.8755526
1325,W Main St,37064,35.9140000,-86.8837586
3046,Columbia Ave,37064,35.8940190,-86.8781365
1735,Galleria Blvd,37064,35.9627218,-86.8126063
3021,Mallory Lane,37067,35.9458732,-86.8201034
2000,Mallory Lane,37067,35.9510975,-86.8171827
1911,Mallory Lane,37067-8224,35.9561826,-86.8177323
1566,West McEwen Drive,37067,35.9344202,-86.8250035
3021,Mallory Lane,37067,35.9455909,-86.8207715
1320,West Main Street,37064,35.9158226,-86.8842142
419,Main Street,37064,35.9241465,-86.8708818
421,Main Street,37064,35.9240537,-86.8710583
4400,Peytonsville Road,37064,35.8599332,-86.8297176
2408,Goose Creek Bypass,37064,35.8601491,-86.8343267
1403,Lewisburg Avenue,37064,35.8605967,-86.8461145
500,West Main Street,37064,35.9239595,-86.8718240
3794,Carothers Parkway,37067,35.9083174,-86.8235196
1212,Murfreesboro Road,37067,35.9173612,-86.8304342
1725,Columbia Avenue,37064,35.9006522,-86.8736459
2000,Mallory Lane,37067,35.9498006,-86.8151789
2000,Mallory Lane,37067-4825,35.9496411,-86.8152484
2000,Malory Lane,37067,35.9493583,-86.8154802
2000,Mallory Lane,37067,35.9488758,-86.8157584
2021,Mallory Lane,37067,35.9504963,-86.8196571
1800,Galleria Blvd Ste 1522,37067,35.9573531,-86.8139062
110,Cadet Lane,37064,35.9302861,-86.8475578
1124,Harpeth Industrial Ct,37064,35.9328715,-86.8578817
118,Pebble Creek Road,37064,35.9026325,-86.8293281
1140,Columbia Avenue,37064,35.9170445,-86.8734712
1945,Mallory Lane,37067,35.9540838,-86.8195996
535,Cool Springs Boulevard,37067,35.9474604,-86.8228902
6100,Tower Circle,37067,35.9345081,-86.8139687
318,Seaboard Ln,37067,35.9486467,-86.8309256
1420,W Main St,37064,35.9124637,-86.8891255
1120,Lakeview Drive,37067,35.9184721,-86.8246034
100,D Mill Courts,37067,35.9394758,-86.8324839
390,Mallory Station Rd,37067,35.9532791,-86.8212100
725,Cool Springs Blvd,37067,35.9440011,-86.8062551
345,Main Street,37064,35.9245324,-86.8700187
334,Main Street,37064,35.9248949,-86.8698110
317,Main Street,37064,35.9246998,-86.8696750
324,Main Street,37064,35.9250141,-86.8695441
332,Main Street,37064,35.9249456,-86.8696909
1725,Columbia Avenue,37064,35.9009986,-86.8735884
2020,Fieldstone Parkway,37069,35.9647564,-86.8834125
2020,Fieldstone Parkway,37069,35.9648536,-86.8836034
2020,Fieldstone Parkway,37069-4337,35.9645443,-86.8829564
1735,Galleria Boulevard,37067,35.9628214,-86.8128358
151,Rosa Helm Way,37067,35.9088162,-86.8211067
1500,Columbia Avenue,37064,35.9093079,-86.8749419
2068,Mainstream Drive,37064,35.8825376,-86.8199284
2062,Mainstream Drive,37064,35.8825668,-86.8198320
2056,Mainstream Drive,37064,35.8825937,-86.8197430
2050,Mainstream Drive,37064,35.8826213,-86.8196515
1909,Mallory Lane,37067,35.9568324,-86.8175820
600A,Frazier Drive,37067,35.9449984,-86.8201970
324,Franklin Road,37069,35.9371210,-86.8577786
94,E Main Street,37064,35.9269873,-86.8662222
3058,Mallory Lane,37067,35.9447170,-86.8187526
6700,Tower Circle,37067,35.9345140,-86.8157777
545,Cool Springs Boulevard,37067,35.9499353,-86.8213257
539,Cool Springs Boulevard,37067,35.9475287,-86.8251487
11102,Champions Circle,37064,35.9079182,-86.8461019
5050,Carothers Parkway,37067,35.9257835,-86.8159475
1010,Murfreesboro Road,37064,35.9156351,-86.8383976
1299,Highway 96 East,37064,35.9158969,-86.8292031
1319,Murfreesboro Road,37064,35.9151124,-86.8260510
1315,Murfreesboro Road,37064,35.9152506,-86.8264574
1313,Murfreesboro Road,37064,35.9153451,-86.8268865
204,South Royal Oaks Boulevard,37064,35.9139299,-86.8290988
1020,Riverside Drive,37064,35.9136139,-86.8294746
1031,Riverside Drive,37064,35.9119579,-86.8283281
9100,Carothers Parkway,37067,35.9596472,-86.8012424
9100,Carothers Parkway,37067,35.9593382,-86.8012950
9175,Carothers Parkway,37067,35.9600988,-86.8027995
7086,Bakers Bridge Avenue,37067,35.9621595,-86.8134723
1735,Galleria Boulevard,37067,35.9626225,-86.8122771
1715,Galleria Boulevard,37067,35.9645122,-86.8116101
9040,Carothers Parkway,37067,35.9568494,-86.8024230
330,Mayfield Drive,37067,35.9540771,-86.8025888
2001,Meridian Boulevard,37067,35.9508772,-86.8082816
3991,Carothers Parkway,37067,35.9126440,-86.8203019
3963,Carothers Parkway,37067,35.9121877,-86.8208245
3915,Carothers Parkway,37064,35.9113766,-86.8217333
4202,Franklin Common Court,37067,35.9107464,-86.8224593
278,Seaboard Lane,37067,35.9517482,-86.8276713
1701,Galleria Boulevard,37067,35.9658241,-86.8125486
405,Downs Boulevard,37064,35.9077476,-86.8831804
405,Downs Boulevard,37064,35.9077078,-86.8830000
405,Downs Boulevard,37064,35.9076779,-86.8831025
130,2nd Avenue North,37064,35.9265574,-86.8678833
1441,New Hwy 96 W Ste 2,37064,35.9293432,-86.8969462
1441,New Highway 96 West,37064,35.9293289,-86.8968943
407,Independence Square,37064,35.9328559,-86.8785797
1214,Murfreesboro Road,37064,35.9149388,-86.8299381
545,Cool Springs Boulevard,37067,35.9496844,-86.8215994
1400,Liberty Pike,37067-8628,35.9248059,-86.7955552
5021,Hughes Crossing Boulevard,37064,35.8636156,-86.8430869
104,South Margin Street,37064,35.9233743,-86.8645686
1003,Village Plains Boulevard,37064,35.8609282,-86.8404125
1709,Galleria Boulevard,37067,35.9653270,-86.8137097
1894,General George Patton Dr STE 100,37067,35.9568223,-86.8313136
230,Franklin Road,37064,35.9325320,-86.8605262
653,Frazier Drive,37067,35.9453721,-86.8237323
4101,Mallory Lane,37067,35.9318068,-86.8246901
3063,Mallory Lane,37067,35.9441284,-86.8207471
3060,Mallory Lane,37067,35.9442004,-86.8173932
3070,Mallory Lane,37067,35.9424407,-86.8204649
3070,Mallory Lane,37067,35.9425970,-86.8179449
3600,Mallory Lane,37067,35.9391187,-86.8191474
300,Spring Creek Drive,37067,35.9367672,-86.8195110
5050,Mallory Lane,37067,35.9299731,-86.8223967
3009,Columbia Ave,37064,35.8923289,-86.8743455
203,Downs Boulevard,37064,35.9073804,-86.8756725
3064,Columbia Avenue,37064-7424,35.8926876,-86.8812909
810,hills,36711,35.9412297,-86.8772853
810,Hillsboro Drive,37064,35.9393232,-86.8778731
1925,Mallory Lane,37067,35.9545286,-86.8182154
1704,Galleria Boulevard,37067,35.9660904,-86.8110066
1701,Galleria Boulevard,37067,35.9661655,-86.8127540
1144,Liberty Pike,37067,35.9270098,-86.8250140
438,Main Street,37064,35.9241418,-86.8716368
510,Columbia Avenue,37064,35.9232575,-86.8714846
1708,Galleria Boulevard,37067,35.9660542,-86.8105394
4270,Long Lane,37064,35.8704667,-86.8265480
BLDG 10,Champions Circle,37064,35.9084840,-86.8464582
1000,Champions Circle,37064,35.9072141,-86.8467898
600,Burghley Place,37064,35.9086013,-86.8479977
604,Burghley Place,37064,35.9087273,-86.8482620
608,Burghley Place,37064,35.9087042,-86.8486015
612,Burghley Place,37064,35.9087129,-86.8488840
616,Burghley Place,37064,35.9085939,-86.8491962
620,Burghley Place,37064,35.9085147,-86.8494914
624,Burghley Place,37064,35.9085701,-86.8497953
628,Burghley Place,37064,35.9086649,-86.8501328
644,Burghley Place,37064,35.9078464,-86.8497608
640,Burghley Place,37064,35.9079647,-86.8504588
648,Burghley Place,37064,35.9078751,-86.8494089
672,Ayrshire Circle,37064,35.9077602,-86.8482649
668,Ayrshire Circle,37064,35.9074337,-86.8484090
664,Ayrshire Circle,37064,35.9071991,-86.8486111
660,Ayrshire Circle,37064,35.9070956,-86.8489802
656,Ayrshire Circle,37064,35.9072778,-86.8492683
652,Ayrshire Circle,37064,35.9074959,-86.8496041
750,State Highway 96,37064,35.9315913,-86.8924598
2959,Del Rio Pike,37064,35.9347710,-86.8918075
205,Lyle Ct,37064,35.9108872,-86.8473484
208,Lyle Ct,37064,35.9109122,-86.8463464
306,Battery Court,37064,35.9111188,-86.8480818
632,Burghley Place,37064,35.9085013,-86.8504807
636,Burghley Place,37064,35.9082427,-86.8505220
303,Battery Court,37064,35.9114237,-86.8486398
303,Battery Court,37064,35.9117683,-86.8485066
123,Deejay Dr,37064,35.9118013,-86.8487267
125,Deejay Dr,37064,35.9118312,-86.8489501
404,Luna Ct,37064,35.9114812,-86.8491680
406,Luna Ct,37064,35.9111990,-86.8491743
410,Luna Ct,37064,35.9107395,-86.8492397
412,Luna Ct,37064,35.9104709,-86.8491512
411,Luna Court,37064,35.9106006,-86.8500034
405,Luna Ct,37064,35.9113035,-86.8497539
403,Luna Ct,37064,35.9115979,-86.8497040
118,Deejay Dr,37064,35.9123134,-86.8480455
120,Deejay Dr,37064,35.9123086,-86.8482871
124,Deejay Dr,37064,35.9123359,-86.8487728
126,Deejay Dr,37064,35.9123350,-86.8490149
828,Murfreesboro Road,37064,35.9145881,-86.8475893
128,Deejay Dr,37064,35.9124067,-86.8493245
603,Band Drive,37064,35.9125135,-86.8499247
605,Band Drive,37064,35.9127935,-86.8498382
609,Band Drive,37064,35.9132345,-86.8498070
501,Braylon Circle,37064,35.9127860,-86.8493137
503,Braylon Circle,37064,35.9127848,-86.8490788
505,Braylon Circle,37064,35.9127735,-86.8488087
508,Braylon Circle,37064,35.9131655,-86.8485910
506,Braylon Circle,37064,35.9133738,-86.8486857
502,Braylon Circle,37064,35.9134282,-86.8489967
614,Band Drive,37064,35.9137681,-86.8491430
616,Band Drive,37064,35.9139604,-86.8491583
617,Band Drive,37064,35.9140983,-86.8497014
619,Band Drive,37064,35.9143184,-86.8496856
621,Band Drive,37064,35.9145411,-86.8496535
623,Band Drive,37064,35.9147586,-86.8496449
622,Band Drive,37064,35.9144625,-86.8490025
624,Band Drive,37064,35.9146533,-86.8489555
630,Band Drive,37064,35.9153143,-86.8490017
632,Band Drive,37064,35.9154921,-86.8489367
633,Band Drive,37064,35.9155398,-86.8495166
625,Band Drive,37064,35.9149671,-86.8496233
635,Band Drive,37064,35.9159652,-86.8494966
634,Band Drive,37064,35.9156744,-86.8488851
636,Band Drive,37064,35.9158423,-86.8488703
638,Band Drive,37064,35.9160365,-86.8488591
641,Band Drive,37064,35.9166140,-86.8493922
643,Band Drive,37064,35.9168195,-86.8493293
103,Forrest Crossing Boulevard,37064,35.9066326,-86.8412527
735,Watson Branch Drive,37064,35.9090607,-86.8387637
731,Watson Branch Drive,37064,35.9090660,-86.8389859
725,Watson Branch Drive,37064,35.9090672,-86.8394923
727,Watson Branch Drive,37064,35.9090414,-86.8392171
723,Watson Branch Drive,37064,35.9090611,-86.8397398
721,Watson Branch Drive,37064,35.9090983,-86.8399730
719,Watson Branch Drive,37064,35.9091252,-86.8401913
717,Watson Branch Drive,37064,35.9091699,-86.8404340
713,Watson Branch Drive,37064,35.9091911,-86.8406640
709,Watson Branch Drive,37064,35.9092270,-86.8408824
707,Watson Branch Drive,37064,35.9092593,-86.8411145
705,Watson Branch Drive,37064,35.9092745,-86.8413686
701,Watson Branch Drive,37064,35.9093164,-86.8416021
697,Watson Branch Drive,37064,35.9093225,-86.8418442
693,Watson Branch Drive,37064,35.9093659,-86.8420706
685,Watson Branch Drive,37064,35.9094010,-86.8423135
683,Watson Branch Drive,37064,35.9094198,-86.8425328
681,Watson Branch Drive,37064,35.9094232,-86.8427688
675,Watson Branch Drive,37064,35.9094646,-86.8430292
673,Watson Branch Drive,37064,35.9095339,-86.8432886
671,Watson Branch Drive,37064,35.9095822,-86.8435392
669,Watson Branch Drive,37064,35.9096921,-86.8437566
667,Watson Branch Drive,37064,35.9098254,-86.8440613
665,Watson Branch Drive,37064,35.9101220,-86.8442595
663,Watson Branch Drive,37064,35.9103087,-86.8443544
661,Watson Branch Drive,37064,35.9105094,-86.8444150
659,Watson Branch Drive,37064,35.9107227,-86.8444375
810,Oak Meadow Drive,37064,35.9090623,-86.8337056
231,South Royal Oaks Boulevard,37064,35.9091973,-86.8327576
229,South Royal Oaks Boulevard,37064,35.9098889,-86.8322915
1008,Center Point Place,37064,35.9141785,-86.8305093
1014,Murfreesboro Road,37064,35.9148426,-86.8299095
1208,Murfreesboro Road,37064,35.9151727,-86.8309058
1004,Center Point Place,37064,35.9147182,-86.8308311
1020,Riverside Drive,37064,35.9135787,-86.8295092
204,South Royal Oaks Boulevard,37064,35.9139511,-86.8291306
1021,Riverside Drive,37064,35.9125642,-86.8283637
1015,Center Point Place,37064,35.9134933,-86.8309890
1017,Riverside Drive,37064,35.9126872,-86.8300350
3400,Mallory Lane,37064,35.9403143,-86.8208755
209,South Royal Oaks Boulevard,37064,35.9116928,-86.8316067
209,South Royal Oaks Boulevard,37064,35.9117944,-86.8315586
209,South Royal Oaks Boulevard,37064,35.9119248,-86.8315018
209,South Royal Oaks Boulevard,37064,35.9120326,-86.8314568
1031,Riverside Drive,37064,35.9120718,-86.8286222
1031,Riverside Drive,37064,35.9120089,-86.8282051
209,South Royal Oaks Boulevard,37064,35.9121134,-86.8316120
209,South Royal Oaks Boulevard,37064,35.9120288,-86.8318867
209,South Royal Oaks Boulevard,37064,35.9120905,-86.8322717
209,South Royal Oaks Boulevard,37064,35.9123418,-86.8323937
209,South Royal Oaks Boulevard,37064,35.9124077,-86.8325386
209,South Royal Oaks Boulevard,37064,35.9123069,-86.8329719
209,South Royal Oaks Boulevard,37064,35.9126486,-86.8333249
209,South Royal Oaks Boulevard,37064,35.9128754,-86.8332961
209,South Royal Oaks Boulevard,37064,35.9130303,-86.8332508
209,South Royal Oaks Boulevard,37064,35.9131809,-86.8331801
209,South Royal Oaks Boulevard,37064,35.9133275,-86.8330103
209,South Royal Oaks Boulevard,37064,35.9134406,-86.8329271
209,South Royal Oaks Boulevard,37064,35.9135448,-86.8328509
209,South Royal Oaks Boulevard,37064,35.9136524,-86.8327665
209,South Royal Oaks Boulevard,37064,35.9137433,-86.8326742
209,South Royal Oaks Boulevard,37064,35.9143446,-86.8328403
210,South Royal Oaks Boulevard,37064,35.9122687,-86.8302027
840,Glass Lane,37064,35.9276570,-86.8848913
109,3rd Avenue South,37064,35.9245295,-86.8679088
231,Public Square,37064,35.9252856,-86.8682368
224,South Royal Oaks Boulevard,37064,35.9101460,-86.8276209
112,Rand Place,37064,35.9114275,-86.8333410
108,Rand Place,37064,35.9112249,-86.8323846
229,South Royal Oaks Boulevard,37064,35.9108370,-86.8318029
150,Rand Place,37064,35.9101879,-86.8318225
109,Rand Place,37064,35.9102526,-86.8327542
813,Oak Meadow Drive,37064,35.9103778,-86.8333631
114,Rand Place,37064,35.9105276,-86.8343208
228,South Royal Oaks Boulevard,37064,35.9098889,-86.8308096
220,South Royal Oaks Boulevard,37064,35.9107292,-86.8305330
216,South Royal Oaks Boulevard,37064,35.9113814,-86.8304180
347,Riverside Drive,37064,35.9127164,-86.8271807
357,Riverside Drive,37064,35.9127818,-86.8260812
367,Riverside Drive,37064,35.9123903,-86.8260162
377,Riverside Drive,37064,35.9116799,-86.8262191
381,Riverside Drive,37064,35.9118837,-86.8268535
1021,Riverside Drive,37064,35.9129293,-86.8299846
1304,Murfreesboro Road,37064,35.9146240,-86.8287360
1306,Murfreesboro Road,37064,35.9144721,-86.8279668
1020,Riverside Drive,37064,35.9142504,-86.8288082
1308,Murfreesboro Road,37064,35.9138966,-86.8277320
1206,Murfreesboro Road,37064,35.9152487,-86.8318165
1202,Murfreesboro Road,37064,35.9153952,-86.8330938
1212,Murfreesboro Road,37064,35.9151284,-86.8303043
1210,Murfreesboro Road,37064,35.9151946,-86.8306269
1314;105,Columbia Avenue;Columbia Ave;South Porter Street,37064;37064-3626;37398-1546,35.9147819,-86.8746871
108,Everbright Ave,37064,35.9135483,-86.8748498
1500,Columbia Avenue,37064,35.9092895,-86.8750357
1130,Murfreesboro Road,37064,35.9153651,-86.8336067
1124,Murfreesboro Road,37064,35.9150920,-86.8358864
1130,Murfreesboro Road,37064,35.9154513,-86.8340050
BLDG 6,Thornton Drive,37064,35.9127573,-86.8361134
311,South Royal Oaks Boulevard,37064,35.9077164,-86.8385559
303,South Royal Oaks Boulevard,37064,35.9081532,-86.8378757
303,South Royal Oaks Boulevard,37064,35.9080977,-86.8367196
936,Lewisburg Pike,37064,35.9002615,-86.8497297
932,Lewisburg Pike,37064,35.9008518,-86.8497352
928,Lewisburg Pike,37064,35.9013362,-86.8497771
924,Lewisburg Pike,37064,35.9016457,-86.8497407
925,Lewisburg Pike,37064,35.9011628,-86.8484932
1101,Gardner Drive,37064,35.8984044,-86.8486180
655,Watson Branch Drive,37064,35.9109374,-86.8444061
653,Watson Branch Drive,37064,35.9111337,-86.8443209
651,Watson Branch Drive,37064,35.9113050,-86.8442308
649,Watson Branch Drive,37064,35.9114954,-86.8441519
641,Watson Branch Drive,37064,35.9117316,-86.8440447
550,Maplegrove Drive,37064,35.9118219,-86.8443180
548,Maplegrove Drive,37064,35.9119618,-86.8444800
542,Maplegrove Drive,37064,35.9125734,-86.8445639
538,Maplegrove Drive,37064,35.9127675,-86.8445524
534,Maplegrove Drive,37064,35.9129548,-86.8445399
530,Maplegrove Drive,37064,35.9131404,-86.8445319
526,Maplegrove Drive,37064,35.9133238,-86.8445081
522,Maplegrove Drive,37064,35.9135269,-86.8444975
518,Maplegrove Drive,37064,35.9137116,-86.8444999
514,Maplegrove Drive,37064,35.9138843,-86.8444939
512,Maplegrove Drive,37064,35.9140697,-86.8444356
510,Maplegrove Drive,37064,35.9142587,-86.8443426
544,Maplegrove Drive,37064,35.9123912,-86.8445739
508,Maplegrove Drive,37064,35.9143915,-86.8441378
506,Maplegrove Drive,37064,35.9144711,-86.8439282
504,Maplegrove Drive,37064,35.9145187,-86.8436775
551,Watson Branch Drive,37064,35.9145470,-86.8434155
555,Watson Branch Drive,37064,35.9147709,-86.8434416
559,Watson Branch Drive,37064,35.9148366,-86.8437179
563,Watson Branch Drive,37064,35.9147592,-86.8439261
565,Watson Branch Drive,37064,35.9147133,-86.8442115
568,Watson Branch Drive,37064,35.9148558,-86.8444212
566,Watson Branch Drive,37064,35.9151169,-86.8443838
564,Watson Branch Drive,37064,35.9152554,-86.8441560
562,Watson Branch Drive,37064,35.9152048,-86.8438995
560,Watson Branch Drive,37064,35.9151793,-86.8436680
558,Watson Branch Drive,37064,35.9151740,-86.8434352
556,Watson Branch Drive,37064,35.9151058,-86.8431877
554,Watson Branch Drive,37064,35.9149273,-86.8430354
550,Watson Branch Drive,37064,35.9145251,-86.8429825
615,Watson Branch Drive,37064,35.9140761,-86.8434945
507,Maplegrove Drive,37064,35.9141289,-86.8437654
507,Maplegrove Drive,37064,35.9139861,-86.8439413
617,Watson Branch Drive,37064,35.9138537,-86.8435054
513,Maplegrove Drive,37064,35.9137700,-86.8439825
619,Watson Branch Drive,37064,35.9136709,-86.8435255
517,Maplegrove Drive,37064,35.9135864,-86.8440231
621,Watson Branch Drive,37064,35.9134774,-86.8435513
521,Maplegrove Drive,37064,35.9133943,-86.8440414
623,Watson Branch Drive,37064,35.9132875,-86.8435717
525,Maplegrove Drive,37064,35.9132075,-86.8440437
625,Watson Branch Drive,37064,35.9130959,-86.8436160
529,Maplegrove Drive,37064,35.9130049,-86.8440714
629,Watson Branch Drive,37064,35.9129029,-86.8436343
533,Maplegrove Drive,37064,35.9127895,-86.8440956
631,Watson Branch Drive,37064,35.9127107,-86.8436560
537,Maplegrove Drive,37064,35.9125893,-86.8441005
635,Watson Branch Drive,37064,35.9125168,-86.8436964
541,Maplegrove Drive,37064,35.9123846,-86.8441081
637,Watson Branch Drive,37064,35.9123301,-86.8437777
637,Watson Branch Drive,37064,35.9121665,-86.8439082
429,Maplegrove Drive,37064,35.9140965,-86.8429650
616,Watson Branch Drive,37064,35.9138784,-86.8429945
618,Watson Branch Drive,37064,35.9136318,-86.8430525
620,Watson Branch Drive,37064,35.9134361,-86.8430537
624,Watson Branch Drive,37064,35.9132257,-86.8430849
626,Watson Branch Drive,37064,35.9130224,-86.8431025
628,Watson Branch Drive,37064,35.9128141,-86.8431018
630,Watson Branch Drive,37064,35.9126065,-86.8431641
634,Watson Branch Drive,37064,35.9124088,-86.8432379
636,Watson Branch Drive,37064,35.9122153,-86.8433261
638,Watson Branch Drive,37064,35.9120121,-86.8434098
640,Watson Branch Drive,37064,35.9118202,-86.8434928
642,Watson Branch Drive,37064,35.9116430,-86.8435789
646,Watson Branch Drive,37064,35.9114480,-86.8436802
648,Watson Branch Drive,37064,35.9112442,-86.8437227
650,Watson Branch Drive,37064,35.9110678,-86.8438053
390,Southwinds Drive,37064,35.9148924,-86.8370245
394,Southwinds Drive,37064,35.9147266,-86.8376080
100,Westwind Court,37064,35.9140094,-86.8369476
1120,Murfreesboro Road,37064,35.9156512,-86.8373995
1308,Murfreesboro Road,37064,35.9142335,-86.8276574
1312,Murfreesboro Road,37064,35.9143035,-86.8267060
1316,Murfreesboro Road,37064,35.9141883,-86.8261830
1316,Murfreesboro Road,37064,35.9138166,-86.8261672
104,Claude Yates Drive,37064,35.9428500,-86.8782974
654,Watson Branch Drive,37064,35.9108912,-86.8439250
656,Watson Branch Drive,37064,35.9106736,-86.8439478
660,Watson Branch Drive,37064,35.9104897,-86.8439293
664,Watson Branch Drive,37064,35.9103226,-86.8438291
668,Watson Branch Drive,37064,35.9101444,-86.8436675
670,Watson Branch Drive,37064,35.9099976,-86.8434946
674,Watson Branch Drive,37064,35.9099257,-86.8432697
678,Watson Branch Drive,37064,35.9098771,-86.8429555
424,Maplewood Drive,37064,35.9100898,-86.8428431
420,Maplewood Drive,37064,35.9104495,-86.8425746
110,Amy Court,37064,35.9106034,-86.8431205
109,Amy Court,37064,35.9104078,-86.8432837
108,Amy Court,37064,35.9102072,-86.8431726
111,Amy Court,37064,35.9106126,-86.8428219
416,Maplewood Drive,37064,35.9105099,-86.8423198
412,Maplewood Drive,37064,35.9105772,-86.8420145
408,Maplewood Drive,37064,35.9106819,-86.8416766
402,Maplewood Drive,37064,35.9107093,-86.8414092
400,Maplewood Drive,37064,35.9108051,-86.8411263
708,Shadycrest Lane,37064,35.9110098,-86.8413221
434,Maplegrove Drive,37064,35.9144777,-86.8427330
429,Maplegrove Drive,37064,35.9140587,-86.8426603
430,Maplegrove Drive,37064,35.9144604,-86.8424815
426,Maplegrove Drive,37064,35.9144114,-86.8422674
422,Maplegrove Drive,37064,35.9143992,-86.8420421
700,Cool Springs Court,37064,35.9140155,-86.8424462
704,Cool Springs Court,37064,35.9137563,-86.8424041
707,Cool Springs Court,37064,35.9136416,-86.8421762
705,Cool Springs Court,37064,35.9137237,-86.8419171
701,Cool Springs Court,37064,35.9139776,-86.8418391
420,Maplegrove Drive,37064,35.9143929,-86.8418184
415,Maplegrove Drive,37064,35.9140244,-86.8416252
411,Maplegrove Drive,37064,35.9140662,-86.8414039
416,Maplegrove Drive,37064,35.9144292,-86.8415928
412,Maplegrove Drive,37064,35.9144843,-86.8413910
608,Laurel Court,37064,35.9136574,-86.8415867
611,Laurel Court,37064,35.9135518,-86.8412874
609,Laurel Court,37064,35.9137263,-86.8409745
605,Laurel Court,37064,35.9139591,-86.8408644
407,Maplegrove Drive,37064,35.9142183,-86.8409030
501,Maplegrove Court,37064,35.9145587,-86.8411880
505,Maplegrove Court,37064,35.9147598,-86.8415055
509,Maplegrove Court,37064,35.9150020,-86.8414848
508,Maplegrove Court,37064,35.9151292,-86.8412906
504,Maplegrove Court,37064,35.9150701,-86.8410059
500,Maplegrove Court,37064,35.9147671,-86.8408103
405,Maplegrove Drive,37064,35.9143349,-86.8406307
403,Maplegrove Drive,37064,35.9144785,-86.8404593
404,Sugartree Lane,37064,35.9149060,-86.8406217
402,Sugartree Lane,37064,35.9150960,-86.8406933
910,Murfreesboro Road,37064,35.9160143,-86.8422168
400,Sugartree Lane,37064,35.9159526,-86.8409237
400,Sugartree Lane,37064,35.9157860,-86.8409477
400,Sugartree Lane,37064,35.9161277,-86.8413845
423,Maplewood Drive,37064,35.9097885,-86.8423989
690,Watson Branch Drive,37064,35.9097511,-86.8421431
419,Maplewood Drive,37064,35.9100840,-86.8422009
415,Maplewood Drive,37064,35.9101997,-86.8419118
411,Maplewood Drive,37064,35.9102463,-86.8416846
407,Maplewood Drive,37064,35.9103121,-86.8414403
694,Watson Branch Drive,37064,35.9097298,-86.8419133
698,Watson Branch Drive,37064,35.9097145,-86.8416797
706,Watson Branch Drive,37064,35.9096903,-86.8414462
708,Branch Court,37064,35.9096729,-86.8411739
704,Branch Court,37064,35.9099073,-86.8411484
700,Branch Court,37064,35.9101032,-86.8409570
701,Branch Court,37064,35.9101183,-86.8406636
705,Branch Court,37064,35.9099253,-86.8404733
708,Watson Branch Drive,37064,35.9096253,-86.8406840
712,Watson Branch Drive,37064,35.9095776,-86.8404809
716,Watson Branch Drive,37064,35.9095285,-86.8402461
720,Watson Branch Drive,37064,35.9094978,-86.8400046
724,Watson Branch Drive,37064,35.9094776,-86.8397235
713,Sugartree Lane,37064,35.9094532,-86.8392467
732,Watson Branch Drive,37064,35.9094350,-86.8389638
736,Watson Branch Drive,37064,35.9094393,-86.8387236
1004,Murfreesboro Road,37064,35.9162560,-86.8399318
1010,Murfreesboro Road,37064,35.9154822,-86.8390143
400,Sugartree Lane,37064,35.9154706,-86.8413161
401,Sugartree Lane,37064,35.9154365,-86.8409457
BLDG 7,Thornton Drive,37064,35.9125695,-86.8353863
BLDG 8,Thornton Drive,37064,35.9120994,-86.8349317
BLDG 9,Thornton Drive,37064,35.9114850,-86.8348698
BLDG 10,Thornton Drive,37064,35.9108772,-86.8350546
BLDG 5,Thornton Drive,37064,35.9111185,-86.8355615
BLDG 4,Thornton Drive,37064,35.9118406,-86.8354825
BLDG 3,Thornton Drive,37064,35.9122808,-86.8360785
BLDG 2,Hatfield Drive,37064,35.9112994,-86.8360784
BLDG 1,Hatfield Drive,37064,35.9118357,-86.8362852
BLDG 14,Hatfield Drive,37064,35.9102071,-86.8364586
BLDG 15,Hatfield Drive,37064,35.9095731,-86.8364557
BLDG 16,Hatfield Drive,37064,35.9090542,-86.8360256
BLDG 11,Houchin Drive,37064,35.9104448,-86.8370913
BLDG 12,Houchin Drive,37064,35.9098681,-86.8373309
BLDG 13,Houchin Drive,37064,35.9094129,-86.8378289
2209-2211,Emery Lane,37064,35.9116433,-86.8378795
704,Shadycrest Lane,37064,35.9111129,-86.8414945
700,Shadycrest Lane,37064,35.9113306,-86.8415901
101,Crestview Court,37064,35.9111872,-86.8419859
100,Crestview Court,37064,35.9113386,-86.8422058
102,Crestview Court,37064,35.9116159,-86.8421406
628,Shadycrest Lane,37064,35.9116990,-86.8417705
624,Shadycrest Lane,37064,35.9118925,-86.8416774
201,Julia Court,37064,35.9114514,-86.8410640
705,Shadycrest Lane,37064,35.9112235,-86.8409213
707,Shadycrest Lane,37064,35.9110660,-86.8406739
203,Julia Court,37064,35.9115101,-86.8407950
405,Maplewood Drive,37064,35.9103595,-86.8411617
403,Maplewood Drive,37064,35.9104426,-86.8409136
401,Maplewood Drive,37064,35.9105814,-86.8406916
207,Julia Court,37064,35.9115240,-86.8405422
211,Julia Court,37064,35.9114856,-86.8403246
215,Julia Court,37064,35.9113061,-86.8401484
219,Julia Court,37064,35.9112046,-86.8399000
223,Julia Court,37064,35.9112875,-86.8396433
224,Julia Court,37064,35.9115011,-86.8395764
222,Julia Court,37064,35.9117470,-86.8397102
220,Julia Court,37064,35.9117856,-86.8399505
214,Julia Court,37064,35.9118487,-86.8401789
210,Julia Court,37064,35.9118944,-86.8404132
206,Julia Court,37064,35.9118887,-86.8406634
202,Julia Court,37064,35.9118469,-86.8409075
621,Shadycrest Lane,37064,35.9118225,-86.8412288
709,Sugartree Lane,37064,35.9096428,-86.8392111
708,Sugartree Lane,37064,35.9097101,-86.8396718
704,Sugartree Lane,37064,35.9099055,-86.8395842
705,Sugartree Lane,37064,35.9098234,-86.8390952
730,Shadycrest Lane,37064,35.9100933,-86.8395203
726,Shadycrest Lane,37064,35.9101829,-86.8397412
422,Shadycrest Lane,37064,35.9103167,-86.8400219
720,Shadycrest Lane,37064,35.9104146,-86.8401928
718,Shadycrest Lane,37064,35.9104953,-86.8404298
701,Shadycrest Lane,37064,35.9098836,-86.8387385
641,Sugartree Lane,37064,35.9101121,-86.8386551
637,Sugartree Lane,37064,35.9103459,-86.8388067
633,Sugartree Lane,37064,35.9105495,-86.8387159
629,Sugartree Lane,37064,35.9107445,-86.8386809
625,Sugartree Lane,37064,35.9109340,-86.8386568
621,Sugartree Lane,37064,35.9111289,-86.8386171
617,Sugartree Lane,37064,35.9113253,-86.8385803
613,Sugartree Lane,37064,35.9115170,-86.8385556
609,Sugartree Lane,37064,35.9117076,-86.8385450
605,Sugartree Lane,37064,35.9119004,-86.8385171
601,Jennette Place,37064,35.9120997,-86.8384224
533,Sugartree Lane,37064,35.9124736,-86.8384127
533,Sugartree Lane,37064,35.9126578,-86.8384107
529,Sugartree Lane,37064,35.9128452,-86.8383642
525,Sugartree Lane,37064,35.9130269,-86.8383580
521,Sugartree Lane,37064,35.9132274,-86.8383640
515,Sugartree Lane,37064,35.9134166,-86.8383860
513,Sugartree Lane,37064,35.9136008,-86.8384784
509,Sugartree Lane,37064,35.9137759,-86.8385615
505,Sugartree Lane,37064,35.9139538,-86.8386622
413,Shadycrest Lane,37064,35.9141829,-86.8387715
409,Shadycrest Lane,37064,35.9143143,-86.8385212
405,Shadycrest Lane,37064,35.9142794,-86.8382329
401,Shadycrest Lane,37064,35.9145428,-86.8381132
400,Shadycrest Lane,37064,35.9147101,-86.8382850
404,Shadycrest Lane,37064,35.9148744,-86.8384286
404,Shadycrest Lane,37064,35.9148657,-86.8387218
412,Shadycrest Lane,37064,35.9146347,-86.8388442
417,Sugartree Lane,37064,35.9144695,-86.8390864
413,Sugartree Lane,37064,35.9146215,-86.8393131
409,Sugartree Lane,37064,35.9147416,-86.8395491
405,Sugartree Lane,37064,35.9149046,-86.8397681
401,Sugartree Lane,37064,35.9150837,-86.8400002
406,Sugartree Lane,37064,35.9145715,-86.8402168
408,Sugartree Lane,37064,35.9144311,-86.8399587
500,Shadycrest Lane,37064,35.9141510,-86.8395696
504,Shadycrest Lane,37064,35.9140385,-86.8397373
508,Shadycrest Lane,37064,35.9139209,-86.8399226
512,Shadycrest Lane,37064,35.9137836,-86.8401193
516,Shadycrest Lane,37064,35.9136774,-86.8402942
520,Shadycrest Lane,37064,35.9135449,-86.8404909
524,Shadycrest Lane,37064,35.9134007,-86.8406527
528,Shadycrest Lane,37064,35.9132963,-86.8408771
530,Shadycrest Lane,37064,35.9131676,-86.8410363
600,Shadycrest Lane,37064,35.9130318,-86.8411747
604,Shadycrest Lane,37064,35.9128931,-86.8413384
608,Shadycrest Lane,37064,35.9127080,-86.8414304
620,Shadycrest Lane,37064,35.9120829,-86.8416634
616,Shadycrest Lane,37064,35.9122867,-86.8416662
612,Shadycrest Lane,37064,35.9125192,-86.8415473
408,Main Street,37064,35.9245817,-86.8707434
120,4th Avenue South,37064,35.9237555,-86.8699755
711,Shadycrest Lane,37064,35.9109650,-86.8404513
432,Main Street,37064,35.9242187,-86.8714636
715,Shadycrest Lane,37064,35.9108685,-86.8402332
719,Shadycrest Lane,37064,35.9107782,-86.8400035
723,Shadycrest Lane,37064,35.9106824,-86.8397949
725,Shadycrest Lane,37064,35.9105613,-86.8395668
632,Sugartree Lane,37064,35.9104534,-86.8393222
628,Sugartree Lane,37064,35.9106630,-86.8391821
624,Sugartree Lane,37064,35.9108693,-86.8391686
620,Sugartree Lane,37064,35.9110798,-86.8391316
616,Sugartree Lane,37064,35.9112747,-86.8390989
612,Sugartree Lane,37064,35.9114666,-86.8390648
608,Sugartree Lane,37064,35.9116551,-86.8390471
604,Sugartree Lane,37064,35.9118485,-86.8390191
600,Sugartree Lane,37064,35.9120830,-86.8389446
223,Jennette Place,37064,35.9121692,-86.8392238
219,Jennette Place,37064,35.9121868,-86.8394660
217,Jennette Place,37064,35.9122232,-86.8397064
215,Jennette Place,37064,35.9122474,-86.8399664
213,Jennette Place,37064,35.9123059,-86.8402279
209,Jennette Place,37064,35.9123880,-86.8404694
205,Jennette Place,37064,35.9124797,-86.8407151
601,Shadycrest Lane,37064,35.9126224,-86.8409858
609,Shadycrest Lane,37064,35.9124330,-86.8411089
613,Shadycrest Lane,37064,35.9122346,-86.8411731
617,Shadycrest Lane,37064,35.9120275,-86.8412041
1201,Murfreesboro Road,37067,35.9162928,-86.8315334
1299,Murfreesboro Road;Murfreesboro Rd,37064,35.9159102,-86.8292010
903,Murfreesboro Road,37064,35.9173091,-86.8423931
506,Jordan Road,37067,35.9325903,-86.8376925
1203,Murfreesboro Road,37064,35.9177217,-86.8315563
1319,Murfreesboro Road,37064,35.9151143,-86.8260504
1315,Murfreesboro Road,37064,35.9152371,-86.8264772
1313,Murfreesboro Road,37064,35.9153164,-86.8268853
112,2nd Avenue South,37064,35.9246310,-86.8670394
750,Riverview Drive,37064,35.8935044,-86.8389336
4000,Golf Club Lane,37064,35.9360251,-86.9407781
308,Jordan Road,37067,35.9266271,-86.8409885
1505,Murfreesboro Road,37068,35.9139085,-86.8201337
633,Frazier Drive,37064,35.9429957,-86.8239040
4321,Carothers Parkway,37067,35.9164389,-86.8201944
6700,Tower Circle,37067,35.9345310,-86.8157954
305,5th Avenue North,37064,35.9267570,-86.8742501
135,4th Avenue South,37064,35.9237737,-86.8691636
117,4th Avenue North,37064,35.9251039,-86.8712666
6100,Tower Circle,37067,35.9346119,-86.8140504
1109,Davenport Boulevard,37064,35.9713963,-86.8357097
113,Beasley Drive,37064,35.8988205,-86.8791048
1101,Hillview Lane,37064,35.8907130,-86.8778250
1215,Hillsboro Road,37069,35.9513277,-86.8841040
1113,Murfreesboro Road,37064,35.9187595,-86.8352167
1061,Lewisburg Pike,37064,35.8937875,-86.8488355
1056,Lewisburg Pike,37064,35.8952697,-86.8504391
1820,Downs Boulevard,37064,35.9177633,-86.8990767
1350,West Main Street,37064,35.9138127,-86.8869231
700,State Highway 96,37064,35.9291528,-86.8906676
8000,Archdale Drive,37064,35.8891434,-86.8196273
9000,Archdale Drive,37064,35.8887373,-86.8192420
1001,Archdale Drive,37064,35.8899568,-86.8201929
5020,Carothers Parkway,37067,35.9239625,-86.8146182
331,Mallory Station Road,37067,35.9538746,-86.8237860
3401,Mallory Lane,37067,35.9406338,-86.8226289
1122,Murfreesboro Road,37064,35.9159306,-86.8367044
5001,Ryecroft St,37064,35.8778119,-86.8141823
2001,Meridian Boulevard,37067,35.9506801,-86.8083409
2009,Meridian Boulevard,37607,35.9499772,-86.8089363
700,Cool Springs Boulevard,37067,35.9474300,-86.8061995
8078,Berry Farms Crossing,37064,35.8643588,-86.8385630
3501,Mallory Lane,37067,35.9390305,-86.8229033
3601,Mallory Lane,37067,35.9390548,-86.8222808
5011,Aspen Grove Drive,37067,35.9366939,-86.8276110
7109,South Springs Drive,37067,35.9516681,-86.8141073
7153,South Springs Drive,37067,35.9533787,-86.8142673
2045,Fieldstone Parkway,37069,35.9626373,-86.8840792
2039,Fieldstone Parkway,37069,35.9630289,-86.8831976
1010,Fulton Greer Lane,37064,35.9472633,-86.8803111
1811,Townsend Boulevard,37064,35.9244375,-86.9201393
1811,Townsend Boulevard,37064,35.9243787,-86.9201139
411,Whitman Street,37064,35.9289389,-86.9183708
7141,South Springs Drive,37067,35.9524473,-86.8137421
1728,Liberty Pike,37067,35.9255420,-86.7825190
1730,Liberty Pike,37067,35.9254640,-86.7822059
1732,Liberty Pike,37067,35.9254012,-86.7819419
1734,Liberty Pike,37067,35.9253324,-86.7816588
1736,Liberty Pike,37067,35.9252830,-86.7813777
1738,Liberty Pike,37067,35.9252458,-86.7810730
1740,Liberty Pike,37067,35.9252215,-86.7807938
1742,Liberty Pike,37067,35.9252092,-86.7804505
1744,Liberty Pike,37067,35.9252211,-86.7801456
1746,Liberty Pike,37067,35.9252648,-86.7798520
1748,Liberty Pike,37067,35.9252736,-86.7795878
1726,Liberty Pike,37067,35.9256132,-86.7828037
1724,Liberty Pike,37067,35.9256637,-86.7830686
1722,Liberty Pike,37067,35.9257257,-86.7833570
1720,Liberty Pike,37067,35.9257847,-86.7837239
1721,Liberty Pike,37067,35.9252337,-86.7839498
1723,Liberty Pike,37067,35.9251994,-86.7837055
1725,Liberty Pike,37067,35.9251523,-86.7834184
1727,Liberty Pike,37067,35.9250842,-86.7830791
1729,Liberty Pike,37067,35.9250362,-86.7828593
1731,Liberty Pike,37067,35.9249525,-86.7825408
1733,Liberty Pike,37067,35.9248918,-86.7823106
1735,Liberty Pike,37067,35.9248204,-86.7820114
1737,Liberty Pike,37067,35.9247436,-86.7816826
1743,Liberty Pike,37067,35.9246239,-86.7805408
1745,Liberty Pike,37067,35.9246300,-86.7802846
1747,Liberty Pike,37067,35.9246390,-86.7800595
1749,Liberty Pike,37067,35.9246869,-86.7797429
1751,Liberty Pike,37067,35.9247037,-86.7794995
3048,Mallory Lane,37067,35.9456117,-86.8184539
3068,Mallory Lane,37067,35.9430910,-86.8196000
320,Spring Creek Drive,37067,35.9373922,-86.8215786
1874,West McEwen Drive,37067,35.9334858,-86.8209050
1864,West McEwen Drive,37067,35.9335306,-86.8214833
1844,West McEwen Drive,37067,35.9345069,-86.8223043
820,Crescent Center,37067,35.9446212,-86.8135854
4321,Carothers Parkway,37067,35.9169356,-86.8180140
4600,Carothers Parkway,37067,35.9204203,-86.8155401
4206,Franklin Commons Court,37067,35.9115486,-86.8223964
446,11th Avenue North,37064,35.9255724,-86.8798649
214,South Margin Street,37064,35.9226255,-86.8660415
1011,Reams Fleming Blvd,37064,35.8424834,-86.8310083
9150,Carothers Parkway,37067,35.9594469,-86.8003068
650,Bakers Bridge Avenue,37067,35.9608281,-86.8062181
630,Bakers Bridge Avenue,37067,35.9598874,-86.8048499
1735,Galleria Boulevard,37067,35.9628585,-86.8133331
3830,Carothers Parkway,37067,35.9088827,-86.8229889
121,1st Avenue South,37064,35.9259695,-86.8656103
611,West Main Street,37064,35.9230333,-86.8721456
3665,Carothers Parkway,37067,35.9044180,-86.8251303
232,Seaboard Lane,37067,35.9545101,-86.8256325
327,Cummins Street,37064,35.9202585,-86.8713393
901,Columbia Avenue,37064,35.9199416,-86.8722240
111,Columbia Avenue,37064,35.9177682,-86.8726789
7101,Berry Farms Crossing,37064,35.8618915,-86.8372141
595,Hillsboro Road,37064,35.9329822,-86.8802146
601,Hillsboro Road,37064,35.9330401,-86.8778472
425,Duke Drive,37067,35.9510450,-86.8334060
2225,East McEwen Drive,37067,35.9336518,-86.8131963
601,Corporate Center Drive,37607,35.9480318,-86.8101868
401,Hillsboro Road,37064,35.9285001,-86.8755191
2016,Columbia Avenue,37064,35.8953602,-86.8773202
106,Highway 96 West,37064,35.9253437,-86.8741352
1710,Columbia Avenue,37064,35.9046200,-86.8760076
2130,Edward Curd Lane,37067,35.9201629,-86.8211445
459,Duke Drive,37067,35.9519443,-86.8358618
500,Liberty Pike,37064,35.9288818,-86.8536801
255,Pebble Glen Drive,37064,35.9204089,-86.8520446
1810,Columbia Avenue,37064,35.9005925,-86.8776070
427,Nichol Mill Lane,37067,35.9568436,-86.8189382
1035,Fulton Greer Lane,37064,35.9465175,-86.8779439
