House number,Street name,Postal code,Latitude,Longitude
100,East Maple Street,37601,36.3141900,-82.3473985
1735,West State of Franklin Road,37604,36.3006202,-82.3776483
2120,South Roan Street,37601,36.3018838,-82.3385383
1909,South Roan Street,37601,36.3062178,-82.3404319
1903,South Roan Street,37601,36.3067823,-82.3407564
1910,South Roan Street,37601,36.3060881,-82.3414244
1950,South Roan Street,37601,36.3046182,-82.3403247
1430,South Roan Street,37601,36.3075644,-82.3426501
826,West Walnut Street,37604,36.3077770,-82.3642499
2610,Plymouth Road,37601,36.2995061,-82.3283803
607,Twin Oaks Drive,37601,36.3087017,-82.3313857
1710,West Market Street,37601,36.3129004,-82.3844794
1806,West Market Street,37601,36.3122672,-82.3865604
500,Borla Drive,37604,36.2747756,-82.3218279
100,Dyer Street,37601,36.3171031,-82.3383067
126,Buffalo Street,37604,36.3144835,-82.3536373
126,Buffalo Street,37604,36.3148340,-82.3533852
111,McClure Street,37604,36.3174646,-82.3544427
1701,West State of Franklin Road,37604,36.3021939,-82.3752082
421,North State of Franklin Road,37604,36.3100152,-82.3878701
421,North State of Franklin Road,37604,36.3102419,-82.3878215
257,East Main Street,37604,36.3172200,-82.3507930
300,East Main Street,37601,36.3171572,-82.3505146
210,West Oakland Avenue,37604,36.3597989,-82.3886953
4804,North Roan Street,37615,36.3928175,-82.4111712
701,North State of Franklin Road,37604,36.3166171,-82.3912649
3101,Browns Mill Road,37604,36.3570369,-82.3962918
18,Dennis Drive,37601,36.3240869,-82.3429257
801,Sunset Drive,37604,36.3346518,-82.3863434
3100,Brownsmill Road,37604,36.3585725,-82.3943952
735,West Walnut Street,37604,36.3087017,-82.3609029
2929,North Roan Street,37601,36.3592716,-82.3874307
3001,North Roan Street,37601,36.3597340,-82.3879362
2909,North Roan Street,37601,36.3578197,-82.3857742
10,Mark Twain Ct,37601,36.3528615,-82.3830444
112,Sunset Drive,37604,36.3444363,-82.3793054
3300,Browns Mill Road,37604,36.3604974,-82.3973580
1013,Hamilton Place,37604,36.3341590,-82.4054313
Bldg. 52,Lake Drive,37684,36.3067835,-82.3794841
2514,Wesley Street,37601,36.3552727,-82.3707779
301,Med Tech Parkway,37604,36.3390694,-82.4023196
301,Med Tech Parkway,37604,36.3391505,-82.4020834
301,Med Tech Parkway,37604,36.3395331,-82.4018938
301,Med Tech Parkway,37604,36.3396624,-82.4018447
301,Med Tech Parkway,37604,36.3394085,-82.4019512
301,Med Tech Parkway,37604,36.3393708,-82.4016888
301,Med Tech Parkway,37604,36.3391872,-82.4017660
301,Med Tech Parkway,37604,36.3388711,-82.4019295
303,Med Tech Parkway,37604,36.3401530,-82.4013271
303,Med Tech Parkway,37604,36.3403507,-82.4011921
303,Med Tech Parkway,37604,36.3402716,-82.4012762
303,Med Tech Parkway,37604,36.3402024,-82.4010168
818,Sunset Drive,37604,36.3347694,-82.3876171
818,Sunset Drive,37604,36.3349079,-82.3877317
818,Sunset Drive,37604,36.3349744,-82.3874280
316,Marketplace Boulevard,37604,36.3397859,-82.4071075
1900,North Roan Street,37601,36.3358291,-82.3716692
2111,North Roan Street,37601,36.3416572,-82.3763122
2111,North Roan Street,37601,36.3410510,-82.3764764
6591,Bristol Highway,37686,36.4249280,-82.3186258
4307,North Roan Street,37615,36.3789058,-82.4092189
4307,North Roan Street,37615,36.3781247,-82.4089447
112,Sunset Drive,37604,36.3440818,-82.3778927
1041,Hamilton Place,37604,36.3344417,-82.4052560
1045,Hamilton Place,37604,36.3345328,-82.4053222
1097,Hamilton Place,37604,36.3343508,-82.4059395
1057,Hamilton Place,37604,36.3346111,-82.4053769
1033,Hamilton Place,37604,36.3343344,-82.4051674
1061,Hamilton Place,37604,36.3346858,-82.4054388
205,Colonial Way,37601,36.3172259,-82.3493071
410,South Roan Street,37601,36.3165559,-82.3504633
325,East Main Street,37601,36.3177998,-82.3501143
327,East Main Street,37601,36.3177482,-82.3499643
323,East Main Street,37601,36.3176134,-82.3499210
242,East Main Street,37604,36.3170275,-82.3508502
240,East Main Street,37604,36.3169889,-82.3509375
240,East Main Street,37601,36.3167754,-82.3507355
1922,S Roan Street Space East,37601,36.3049631,-82.3406738
1920,South Roan Street,37601,36.3050270,-82.3408356
85,Buffalo Street,37604,36.3165305,-82.3527202
110,West Market Street,37604,36.3169944,-82.3535031
1412,Knob Creek Road,37604,36.3233235,-82.3812396
404,South Roan Street,37601,36.3167120,-82.3505733
1702 1/2,West Market Street,37604,36.3130937,-82.3837800
300,East Main Street,37601,36.3172619,-82.3502748
219,University Parkway,37604,36.3039782,-82.3438130
104,University Parkway,37604,36.3073626,-82.3431365
112,Sunset Drive,37604,36.3434266,-82.3796494
213,University Parkway,37604,36.3033334,-82.3413361
1805,West State of Franklin Road,37604,36.3007236,-82.3809869
2108,West Market Street,37604,36.3115547,-82.3892208
509,North State of Franklin Road,37604,36.3131079,-82.3891131
510,North State of Franklin Road,37604,36.3133631,-82.3877855
508,North State of Franklin Road,37604,36.3132359,-82.3869318
1209,West Market Street,37604,36.3130537,-82.3806478
509,North State of Franklin Road,37604,36.3130348,-82.3887271
2108,West Market Street,37604,36.3119027,-82.3893798
2511,Wesley Street,37601,36.3537786,-82.3717817
1900,South Roan Street,37601,36.3066769,-82.3419513
319,East Main Street,37601,36.3176307,-82.3500761
221,East Main Street,37604,36.3167598,-82.3518777
508,East Unaka Avenue,37601,36.3274050,-82.3515961
6634,Bristol Highway,37686,36.4246878,-82.3173044
202,E Main St,37604,36.3164532,-82.3521433
327,East Main Street,37601,36.3176685,-82.3498628
200,East Main Street,37604,36.3163791,-82.3523687
322,East Main Street,37601,36.3175391,-82.3496505
100,Spring Street,37604,36.3162413,-82.3524084
520,West Oakland Avenue,37604,36.3578566,-82.3931217
2685,Boones Creek Road,37615,36.3732669,-82.4286512
2695,Boones Creek Road,37615,36.3749734,-82.4285588
5583,Bobby Hicks Road,37615,36.4237130,-82.4636361
127,Spring Street,37604,36.3157265,-82.3515756
117,Spring Street,37604,36.3159487,-82.3519154
122,Spring Street,37604,36.3157196,-82.3519218
110,Tipton Street,37604,36.3154248,-82.3525478
827,West Walnut Street,37604,36.3071285,-82.3642609
2013,North Roan Street,37601,36.3398547,-82.3756038
2108,West Mountcastle Drive,37604,36.3407333,-82.3778706
3206,Peoples Street,37604,36.3501108,-82.3999574
116,East Market Street,37604,36.3171352,-82.3521489
214,East Main Street,37604,36.3165903,-82.3518486
601,Spring Street,37604,36.3150063,-82.3509739
1805,North Roan Street,37601,36.3341043,-82.3751051
2300,South Greenwood Drive,37601,36.2932196,-82.3872247
1404,West State of Franklin Road,37604,36.3037611,-82.3737104
404,S Roan St,37601,36.3167777,-82.3504250
2685,Boones Creek Road,37615,36.3733737,-82.4285696
106,Pinnacle Drive,37615,36.3736405,-82.4267765
106,Pinnacle Drive,37615,36.3736378,-82.4268725
106,Pinnacle Drive,37615,36.3736392,-82.4270289
106,Pinnacle Drive,37615,36.3736346,-82.4272756
316,East Main Street,37601,36.3174747,-82.3498000
640,East Maple Street,37601,36.3148539,-82.3378526
640,East Maple Street,37601,36.3148469,-82.3378682
707,South Roan Street,37601,36.3154057,-82.3486758
601,Spring Street,37604,36.3150550,-82.3509155
113,Cherry Street,37604,36.3152119,-82.3506329
113,Cherry Street,37604,36.3153199,-82.3504646
113,Cherry Street,37604,36.3154206,-82.3502839
109,Cherry Street,37604,36.3154576,-82.3501853
109,Cherry Street,37601,36.3155026,-82.3501125
109,Cherry Street,37604,36.3155724,-82.3499799
236,East Main Street,37604,36.3169572,-82.3510381
109,Cherry Street,37604,36.3155509,-82.3500472
316,Market Place Boulevard,37604,36.3404453,-82.4076117
2111,North Roan Street,37601,36.3415294,-82.3763728
737,West Walnut Street,37604,36.3086758,-82.3610017
603,West Walnut Street,37604,36.3102265,-82.3568606
698,Green Lane,37601,36.3313093,-82.3554267
702,Green Lane,37601,36.3313174,-82.3550589
707,Hillrise Boulevard,37601,36.3314594,-82.3544804
705,Hillrise Boulevard,37601,36.3311661,-82.3544588
502,Mountain View Circle North,37601,36.3306662,-82.3547802
500,Mountain View Circle North,37601,36.3304933,-82.3543113
700,Hillrise Boulevard,37601,36.3305149,-82.3534573
702,Hillrise Boulevard,37601,36.3308544,-82.3535184
704,Hillrise Boulevard,37601,36.3311302,-82.3535712
706,Hillrise Boulevard,37601,36.3312963,-82.3535944
708,Hillrise Boulevard,37601,36.3316118,-82.3535909
714,Green Lane,37601,36.3316424,-82.3527972
711,Mountain View Circle South,37601,36.3313094,-82.3527879
709,Mountain View Circle South,37601,36.3309210,-82.3528020
707,Mountain View Circle South,37601,36.3307264,-82.3530758
801,Hillrise Boulevard,37601,36.3319345,-82.3547983
700,Mountain View Circle North,37601,36.3318486,-82.3556084
704,Mountain View Circle North,37601,36.3323829,-82.3553420
805,Hillrise Boulevard,37601,36.3324001,-82.3546171
807,Hillrise Boulevard,37601,36.3328241,-82.3549281
800,Hillrise Boulevard,37601,36.3320103,-82.3536999
804,Hillrise Boulevard,37601,36.3323085,-82.3536950
715,Green Lane,37601,36.3321055,-82.3528888
803,Mountain View Circle South,37601,36.3323835,-82.3530383
805,Mountain View Circle South,37601,36.3327523,-82.3529447
806,Hillrise Boulevard,37601,36.3326634,-82.3538523
808,Hillrise Boulevard,37601,36.3329903,-82.3538963
807,Mountain View Circle South,37601,36.3331208,-82.3529091
809,Mountain View Circle South,37601,36.3334373,-82.3527423
812,Mountain View Circle North,37601,36.3340492,-82.3535051
806,Mountain View Circle North,37601,36.3337864,-82.3538094
800,Mountain View Circle North,37601,36.3335195,-82.3540841
422,Mizpah Hills Drive,37604,36.3415318,-82.4258222
426,Mizpah Hills Drive,37604,36.3413133,-82.4261681
493,Sanctuary Court,37615,36.3483033,-82.4340805
417,Sanctuary Court,37615,36.3485924,-82.4326315
408,Sanctuary Court,37615,36.3490770,-82.4331935
382,Sanctuary Court,37615,36.3494123,-82.4330361
2354,Crescent Lake Place,37615,36.3478224,-82.4364985
2440,Grand Oaks Drive,37615,36.3470070,-82.4386264
2341,Grand Oaks Drive,37615,36.3457772,-82.4381862
1171,Highland Ridge Boulevard,37615,36.3432260,-82.4367325
2838,Highland Glen Court,37615,36.3456157,-82.4391695
2820,Highland Glen Court,37615,36.3454260,-82.4389500
2847,Highland Glen Court,37615,36.3459108,-82.4394721
1399,Reserve Place,37615,36.3468743,-82.4334095
1355,Reserve Place,37615,36.3461759,-82.4337942
1329,Reserve Place,37615,36.3459218,-82.4340716
1313,Reserve Place,37615,36.3456398,-82.4343592
1159,Reserve Place,37615,36.3441159,-82.4360076
2597,Grand Oaks Drive,37615,36.3484018,-82.4398107
4704,N Roan St,37615,36.3909846,-82.4106885
4725,N Roan St,37615,36.3920183,-82.4117525
4700,N Roan St,37615,36.3904557,-82.4106326
4709,North Roan Street,37615,36.3910490,-82.4115397
4524,North Roan Street,37615,36.3896579,-82.4103147
4469,N Roan St,37615,36.3859051,-82.4101514
4471,N Roan St,37615,36.3860609,-82.4102531
1210,North Roan Street,37601,36.3254450,-82.3619318
4100,North Roan Street,37601,36.3748218,-82.4058807
1137,Waterbrooke Lane,37604,36.3400094,-82.3962715
709,Clamar Street,37604,36.3435321,-82.3917827
2313,Rambling Road,37604,36.3423325,-82.3871770
2306,Rambling Road,37604,36.3417951,-82.3863731
2,Sundale Circle,37604,36.3417994,-82.3873885
701,Judith Drive,37604,36.3437378,-82.3895467
715,Woodhaven Drive,37604,36.3368221,-82.3877696
710,Woodhaven Drive,37604,36.3376357,-82.3876285
2306,Knob Creek Road,37604,36.3387604,-82.3938737
2306,Knob Creek Road,37604,36.3387229,-82.3938000
2306,Knob Creek Road,37604,36.3386951,-82.3937266
2306,Knob Creek Road,37604,36.3386608,-82.3936377
2205,Knob Creek Road,37604,36.3368502,-82.3909590
714,Woodhaven Drive,37604,36.3371626,-82.3880471
2324,Camelot Circle,37604,36.3389292,-82.3926276
994,Estate Drive,37604,36.3379401,-82.3937664
1002,Woodside Drive,37604,36.3325768,-82.3909929
904,Sunset Drive,37604,36.3330329,-82.3901970
902,Sunset Drive,37604,36.3331975,-82.3908170
902,Sunset Drive,37604,36.3330340,-82.3909775
902,Sunset Drive,37604,36.3330274,-82.3909486
902,Sunset Drive,37604,36.3331028,-82.3909540
902,Sunset Drive,37604,36.3330999,-82.3909293
902,Sunset Drive,37604,36.3331540,-82.3909437
902,Sunset Drive,37604,36.3331469,-82.3909201
902,Sunset Drive,37604,36.3332036,-82.3909281
902,Sunset Drive,37604,36.3332014,-82.3909017
902,Sunset Drive,37604,36.3332490,-82.3909137
902,Sunset Drive,37604,36.3332468,-82.3908864
902,Sunset Drive,37604,36.3333318,-82.3908825
902,Sunset Drive,37604,36.3333296,-82.3908543
904,Sunset Drive,37604,36.3329476,-82.3902867
904,Sunset Drive,37604,36.3330519,-82.3902811
904,Sunset Drive,37604,36.3331532,-82.3902703
900,Sunset Drive,37604,36.3335071,-82.3901096
900,Sunset Drive,37604,36.3336044,-82.3900606
161,Technology Lane,37604,36.3347449,-82.3977607
509,Med Tech Parkway,37604,36.3373550,-82.3981120
509,Med Tech Parkway,37604,36.3373703,-82.3976378
509,Med Tech Parkway,37604,36.3375510,-82.3977340
509,Med Tech Parkway,37604,36.3374424,-82.3983777
2111,Knob Creek Road,37604,36.3355788,-82.3901864
2111,Knob Creek Road,37604,36.3358642,-82.3900761
2111,Knob Creek Road,37604,36.3358709,-82.3901406
2111,Knob Creek Road,37604,36.3358188,-82.3901519
2111,Knob Creek Road,37604,36.3357288,-82.3901766
2111,Knob Creek Road,37604,36.3356835,-82.3901757
2111,Knob Creek Road,37604,36.3356454,-82.3901775
1002,Woodside Drive,37604,36.3327041,-82.3910523
1002,Woodside Drive,37604,36.3326992,-82.3909912
1002,Woodside Drive,37604,36.3326684,-82.3910520
1002,Woodside Drive,37604,36.3326649,-82.3909851
1002,Woodside Drive,37604,36.3326868,-82.3908347
1002,Woodside Drive,37604,36.3326816,-82.3911816
1118,Oakdell Court,37604,36.3340019,-82.3950458
1116,Oakdell Court,37604,36.3340690,-82.3953506
2111,Knob Creek Road,37604,36.3357433,-82.3899813
900,Sunset Drive,37604,36.3335733,-82.3898484
1030,Greenfield Drive,37604,36.3331719,-82.3945960
1114,Estate Drive,37604,36.3332990,-82.3974705
1112,Estate Drive,37604,36.3333896,-82.3974907
1110,Estate Drive,37604,36.3335753,-82.3975926
1108,Estate Drive,37604,36.3336722,-82.3975595
1106,Estate Drive,37604,36.3338333,-82.3974743
1104,Estate Drive,37604,36.3339286,-82.3973893
1102,Estate Drive,37604,36.3340790,-82.3973499
1100,Estate Drive,37604,36.3341422,-82.3972928
1034,Estate Drive,37604,36.3345566,-82.3968297
1032,Estate Drive,37604,36.3346390,-82.3967482
1101,Woodside Drive,37604,36.3320914,-82.3904128
1003,Grace Drive,37604,36.3364051,-82.3912328
1015,Somerset Drive,37604,36.3346281,-82.3919700
1105,Estate Drive,37604,36.3337381,-82.3968902
1107,Estate Drive,37604,36.3334846,-82.3969281
1109,Estate Drive,37604,36.3333294,-82.3969554
1103,Estate Drive,37604,36.3338386,-82.3967865
1101,Estate Drive,37604,36.3339350,-82.3966884
1037,Estate Drive,37604,36.3341665,-82.3965576
1039,Estate Drive,37604,36.3340493,-82.3966046
1035,Estate Drive,37604,36.3342442,-82.3964819
1033,Estate Drive,37604,36.3343498,-82.3963682
1031,Estate Drive,37604,36.3344666,-82.3962691
1029,Estate Drive,37604,36.3345697,-82.3961739
1027,Estate Drive,37604,36.3346699,-82.3960536
1019,Estate Drive,37604,36.3355546,-82.3953241
509,Med Tech Parkway,37604,36.3373444,-82.3982915
2428,Knob Creek Road,37604,36.3436185,-82.3990357
2428,Knob Creek Road,37604,36.3434304,-82.3990647
2333,Knob Creek Road,37604,36.3380730,-82.3973756
2319,Knob Creek Road,37604,36.3379583,-82.3960627
2323,Knob Creek Road,37604,36.3384202,-82.3966081
2316,Knob Creek Road,37604,36.3390044,-82.3951290
2328,Knob Creek Road,37604,36.3389789,-82.3965769
2328,Knob Creek Road,37604,36.3389852,-82.3962176
2340,Knob Creek Road,37604,36.3395988,-82.3970759
2328,Knob Creek Road,37604,36.3388970,-82.3966329
2320,Knob Creek Road,37604,36.3389622,-82.3958041
2320,Knob Creek Road,37604,36.3389680,-82.3957114
2320,Knob Creek Road,37604,36.3389609,-82.3956381
2320,Knob Creek Road,37604,36.3388092,-82.3957521
2320,Knob Creek Road,37604,36.3389576,-82.3958871
2316,Knob Creek Road,37604,36.3389144,-82.3951380
184,Avonlea Place,37604,36.3457657,-82.3908441
186,Avonlea Place,37604,36.3456712,-82.3907396
2335,Knob Creek Road,37604,36.3383182,-82.3977180
2335,Knob Creek Road,37604,36.3382717,-82.3978405
2335,Knob Creek Road,37604,36.3383274,-82.3979751
2335,Knob Creek Road,37604,36.3384301,-82.3982059
2335,Knob Creek Road,37604,36.3384726,-82.3983273
1072,Stonecrest Court,37604,36.3442306,-82.3979738
2306,Knob Creek Road,37604,36.3387644,-82.3941355
2428,Knob Creek Road,37604,36.3433899,-82.3991683
110,Corporate Drive,37604,36.3382724,-82.3989140
2333,Knob Creek Road,37604,36.3383947,-82.3970604
189,Corporate Drive,37604,36.3390894,-82.3988113
2312,Knob Creek Road,37604,36.3389532,-82.3944966
2428,Knob Creek Road,37604,36.3436205,-82.3993020
2333,Knob Creek Road,37604,36.3382197,-82.3970584
2333,Knob Creek Road,37604,36.3382889,-82.3970175
2333,Knob Creek Road,37604,36.3381350,-82.3971130
2333,Knob Creek Road,37604,36.3380041,-82.3971945
2333,Knob Creek Road,37604,36.3381267,-82.3975031
2335,Knob Creek Road,37604,36.3383872,-82.3981146
1245,Stonecrest Court,37604,36.3452993,-82.3988107
1243,Stonecrest Court,37604,36.3452510,-82.3988433
1241,Stonecrest Court,37604,36.3452042,-82.3988672
1239,Stonecrest Court,37604,36.3451624,-82.3988822
1237,Stonecrest Court,37604,36.3451243,-82.3989035
1233,Stonecrest Court,37604,36.3450569,-82.3989457
1231,Stonecrest Court,37604,36.3450135,-82.3989651
1229,Stonecrest Court,37604,36.3449702,-82.3989888
1227,Stonecrest Court,37604,36.3449216,-82.3990128
1225,Stonecrest Court,37604,36.3448815,-82.3990233
1221,Stonecrest Court,37604,36.3448090,-82.3990723
1219,Stonecrest Court,37604,36.3447762,-82.3990934
1217,Stonecrest Court,37604,36.3447294,-82.3991194
1215,Stonecrest Court,37604,36.3446832,-82.3991346
1213,Stonecrest Court,37604,36.3446469,-82.3991558
1209,Stonecrest Court,37604,36.3445760,-82.3991982
1207,Stonecrest Court,37604,36.3445345,-82.3992240
1205,Stonecrest Court,37604,36.3444871,-82.3992775
1203,Stonecrest Court,37604,36.3444440,-82.3992863
1201,Stonecrest Court,37604,36.3444034,-82.3993025
1183,Stonecrest Court,37604,36.3456000,-82.3982565
1181,Stonecrest Court,37604,36.3455741,-82.3982729
1179,Stonecrest Court,37604,36.3455429,-82.3982896
1177,Stonecrest Court,37604,36.3455051,-82.3983196
1175,Stonecrest Court,37604,36.3454687,-82.3983387
1173,Stonecrest Court,37604,36.3454063,-82.3983720
1171,Stonecrest Court,37604,36.3453491,-82.3984007
1161,Stonecrest Court,37604,36.3456680,-82.3985415
1159,Stonecrest Court,37604,36.3456281,-82.3985607
1157,Stonecrest Court,37604,36.3455899,-82.3985799
1155,Stonecrest Court,37604,36.3455519,-82.3986034
1153,Stonecrest Court,37604,36.3455034,-82.3986317
1151,Stonecrest Court,37604,36.3454481,-82.3986646
1145,Stonecrest Court,37604,36.3451725,-82.3984835
1143,Stonecrest Court,37604,36.3451291,-82.3985029
1141,Stonecrest Court,37604,36.3450896,-82.3985352
1139,Stonecrest Court,37604,36.3450443,-82.3985525
1137,Stonecrest Court,37604,36.3450096,-82.3985693
1133,Stonecrest Court,37604,36.3449422,-82.3986115
1131,Stonecrest Court,37604,36.3448989,-82.3986352
1129,Stonecrest Court,37604,36.3448472,-82.3986702
1127,Stonecrest Court,37604,36.3447948,-82.3986835
1125,Stonecrest Court,37604,36.3447603,-82.3987068
1121,Stonecrest Court,37604,36.3446907,-82.3987361
1119,Stonecrest Court,37604,36.3446443,-82.3987730
1117,Stonecrest Court,37604,36.3445993,-82.3987968
1115,Stonecrest Court,37604,36.3445489,-82.3988209
1113,Stonecrest Court,37604,36.3445161,-82.3988398
1109,Stonecrest Court,37604,36.3444553,-82.3988686
1107,Stonecrest Court,37604,36.3443982,-82.3989017
1105,Stonecrest Court,37604,36.3443600,-82.3989187
1103,Stonecrest Court,37604,36.3443186,-82.3989488
1101,Stonecrest Court,37604,36.3442784,-82.3989572
2312,Knob Creek Road,37604,36.3389708,-82.3945545
2312,Knob Creek Road,37604,36.3389082,-82.3944092
2312,Knob Creek Road,37604,36.3388592,-82.3943014
189,Corporate Drive,37604,36.3391624,-82.3986002
189,Corporate Drive,37604,36.3391626,-82.3988550
189,Corporate Drive,37604,36.3390041,-82.3990222
110,Corporate Drive,37604,36.3381964,-82.3989022
110,Corporate Drive,37604,36.3380834,-82.3989646
110,Corporate Drive,37604,36.3379702,-82.3990317
110,Corporate Drive,37604,36.3377722,-82.3991367
110,Corporate Drive,37604,36.3378450,-82.3991011
2340,Knob Creek Road,37604,36.3397832,-82.3974341
2340,Knob Creek Road,37604,36.3397072,-82.3972687
2340,Knob Creek Road,37604,36.3398171,-82.3975629
2340,Knob Creek Road,37604,36.3398204,-82.3976485
2340,Knob Creek Road,37604,36.3398600,-82.3977301
1098,Stonecrest Court,37604,36.3439130,-82.3974748
1096,Stonecrest Court,37604,36.3439390,-82.3975193
1094,Stonecrest Court,37604,36.3439577,-82.3975576
1092,Stonecrest Court,37604,36.3439978,-82.3976036
1088,Stonecrest Court,37604,36.3440349,-82.3976672
1086,Stonecrest Court,37604,36.3440644,-82.3977094
1084,Stonecrest Court,37604,36.3440921,-82.3977538
1082,Stonecrest Court,37604,36.3441269,-82.3978001
1078,Stonecrest Court,37604,36.3443083,-82.3981008
1076,Stonecrest Court,37604,36.3442862,-82.3980648
1074,Stonecrest Court,37604,36.3442602,-82.3980203
1066,Stonecrest Court,37604,36.3444245,-82.3982783
1064,Stonecrest Court,37604,36.3443894,-82.3982233
1062,Stonecrest Court,37604,36.3443667,-82.3981678
1058,Stonecrest Court,37604,36.3436759,-82.3976683
1056,Stonecrest Court,37604,36.3437058,-82.3977279
1054,Stonecrest Court,37604,36.3437366,-82.3977569
1052,Stonecrest Court,37604,36.3437680,-82.3978056
1048,Stonecrest Court,37604,36.3438052,-82.3978713
1046,Stonecrest Court,37604,36.3438384,-82.3979242
1044,Stonecrest Court,37604,36.3438646,-82.3979752
1042,Stonecrest Court,37604,36.3438921,-82.3980131
1032,Stonecrest Court,37604,36.3440475,-82.3981475
1034,Stonecrest Court,37604,36.3440861,-82.3982023
1036,Stonecrest Court,37604,36.3441126,-82.3982642
1028,Stonecrest Court,37604,36.3434079,-82.3978650
1026,Stonecrest Court,37604,36.3434215,-82.3979164
1024,Stonecrest Court,37604,36.3434532,-82.3979744
1022,Stonecrest Court,37604,36.3434963,-82.3980096
1010,Stonecrest Court,37604,36.3435431,-82.3980669
1008,Stonecrest Court,37604,36.3435687,-82.3981177
1006,Stonecrest Court,37604,36.3435910,-82.3981613
1004,Stonecrest Court,37604,36.3436227,-82.3982155
1002,Stonecrest Court,37604,36.3436512,-82.3982662
2332,Knob Creek Road,37604,36.3389977,-82.3972942
704,Woodhaven Drive,37604,36.3383702,-82.3870714
708,Woodhaven Drive,37604,36.3379120,-82.3874228
706,Woodhaven Drive,37604,36.3381874,-82.3872877
709,Woodhaven Drive,37604,36.3377266,-82.3867779
711,Woodhaven Drive,37604,36.3375471,-82.3870465
713,Woodhaven Drive,37604,36.3372705,-82.3872629
2203,Camelot Circle,37604,36.3377592,-82.3891975
2360,Knob Creek Road,37604,36.3406980,-82.3982462
234,Denny Mill Road,37604,36.3471832,-82.4045211
1019,West Oakland Avenue,37604,36.3488474,-82.4020570
1019,West Oakland Avenue,37604,36.3485454,-82.4023633
1019,West Oakland Avenue,37604,36.3486962,-82.4022998
1019,West Oakland Avenue,37604,36.3489049,-82.4021936
1019,West Oakland Avenue,37604,36.3490122,-82.4021439
1021,West Oakland Avenue,37604,36.3483811,-82.4029801
1021,West Oakland Avenue,37604,36.3483394,-82.4025881
135,Marketplace Boulevard,37604,36.3468757,-82.4029191
135,Marketplace Boulevard,37604,36.3466965,-82.4032496
135,Marketplace Boulevard,37604,36.3468037,-82.4031931
1021,West Oakland Avenue,37604,36.3480705,-82.4027284
1021,West Oakland Avenue,37604,36.3482050,-82.4025828
1021,West Oakland Avenue,37604,36.3480170,-82.4027331
1021,West Oakland Avenue,37604,36.3481547,-82.4025714
1021,West Oakland Avenue,37604,36.3481042,-82.4025554
1021,West Oakland Avenue,37604,36.3482757,-82.4027809
1021,West Oakland Avenue,37604,36.3481343,-82.4028811
1021,West Oakland Avenue,37604,36.3480963,-82.4029743
1021,West Oakland Avenue,37604,36.3481669,-82.4029802
1021,West Oakland Avenue,37604,36.3483271,-82.4027953
1021,West Oakland Avenue,37604,36.3482292,-82.4027686
1004,West Oakland Avenue,37604,36.3501499,-82.4030657
246,Avonlea Place,37604,36.3470874,-82.3881121
244,Avonlea Place,37604,36.3470279,-82.3882432
242,Avonlea Place,37604,36.3473143,-82.3882736
240,Avonlea Place,37604,36.3472212,-82.3883983
238,Avonlea Place,37604,36.3469361,-82.3884143
236,Avonlea Place,37604,36.3468509,-82.3885318
235,Avonlea Place,37604,36.3474069,-82.3893561
233,Avonlea Place,37604,36.3473275,-82.3894567
230,Avonlea Place,37604,36.3467270,-82.3887930
229,Avonlea Place,37604,36.3471748,-82.3892791
227,Avonlea Place,37604,36.3471969,-82.3896488
226,Avonlea Place,37604,36.3468725,-82.3889321
225,Avonlea Place,37604,36.3471126,-82.3897722
224,Avonlea Place,37604,36.3468075,-82.3890483
223,Avonlea Place,37604,36.3470232,-82.3895374
222,Avonlea Place,37604,36.3465051,-82.3891064
221,Avonlea Place,37604,36.3469609,-82.3896319
220,Avonlea Place,37604,36.3464224,-82.3892037
217,Avonlea Place,37604,36.3469474,-82.3900766
216,Avonlea Place,37604,36.3465531,-82.3894005
215,Avonlea Place,37604,36.3468569,-82.3898045
213,Avonlea Place,37604,36.3467714,-82.3899355
200,Avonlea Place,37604,36.3461427,-82.3900661
202,Avonlea Place,37604,36.3460033,-82.3898814
204,Avonlea Place,37604,36.3462257,-82.3899556
206,Avonlea Place,37604,36.3460668,-82.3897836
214,Avonlea Place,37604,36.3462995,-82.3894418
208,Avonlea Place,37604,36.3463917,-82.3897078
210,Avonlea Place,37604,36.3464815,-82.3895631
212,Avonlea Place,37604,36.3461886,-82.3895701
218,Avonlea Place,37604,36.3466604,-82.3892543
228,Avonlea Place,37604,36.3466161,-82.3888825
234,Avonlea Place,37604,36.3470861,-82.3885864
232,Avonlea Place,37604,36.3470185,-82.3887058
231,Avonlea Place,37604,36.3472377,-82.3892059
219,Avonlea Place,37604,36.3470084,-82.3899395
207,Avonlea Place,37604,36.3465920,-82.3902177
205,Avonlea Place,37604,36.3466370,-82.3901379
211,Avonlea Place,37604,36.3468025,-82.3902790
209,Avonlea Place,37604,36.3467331,-82.3903715
201,Avonlea Place,37604,36.3464689,-82.3904380
203,Avonlea Place,37604,36.3466074,-82.3905735
148,Avonlea Place,37604,36.3467673,-82.3911698
150,Avonlea Place,37604,36.3466534,-82.3912926
152,Avonlea Place,37604,36.3469328,-82.3912962
154,Avonlea Place,37604,36.3468246,-82.3914667
173,Avonlea Place,37604,36.3463708,-82.3905176
167,Avonlea Place,37604,36.3465278,-82.3906622
164,Avonlea Place,37604,36.3464173,-82.3912270
170,Avonlea Place,37604,36.3461570,-82.3913047
174,Avonlea Place,37604,36.3460362,-82.3908187
180,Avonlea Place,37604,36.3459147,-82.3906565
172,Avonlea Place,37604,36.3461807,-82.3909383
178,Avonlea Place,37604,36.3458952,-82.3910096
166,Avonlea Place,37604,36.3462851,-82.3910924
168,Avonlea Place,37604,36.3462934,-82.3914158
176,Avonlea Place,37604,36.3460206,-82.3911474
182,Avonlea Place,37604,36.3457900,-82.3905407
162,Avonlea Place,37604,36.3464596,-82.3916217
160,Avonlea Place,37604,36.3466123,-82.3918019
158,Avonlea Place,37604,36.3465279,-82.3915068
156,Avonlea Place,37604,36.3467130,-82.3916639
146,Avonlea Place,37604,36.3470610,-82.3911233
144,Avonlea Place,37604,36.3471513,-82.3909977
142,Avonlea Place,37604,36.3469051,-82.3909556
140,Avonlea Place,37604,36.3469561,-82.3908531
136,Avonlea Place,37604,36.3474443,-82.3905458
134,Avonlea Place,37604,36.3471933,-82.3905478
132,Avonlea Place,37604,36.3473010,-82.3903494
138,Avonlea Place,37604,36.3473897,-82.3906934
377,Villa View Point,37604,36.3476764,-82.3916433
379,Villa View Point,37604,36.3476183,-82.3917303
383,Villa View Point,37604,36.3473882,-82.3920884
372,Villa View Point,37604,36.3481547,-82.3902775
366,Villa View Point,37604,36.3477432,-82.3908642
368,Villa View Point,37604,36.3479172,-82.3906132
364,Villa View Point,37604,36.3476617,-82.3909582
382,Villa View Point,37604,36.3482693,-82.3907704
376,Villa View Point,37604,36.3479561,-82.3911994
378,Villa View Point,37604,36.3480088,-82.3910924
387,Villa View Point,37604,36.3471433,-82.3924542
385,Villa View Point,37604,36.3472387,-82.3923446
381,Villa View Point,37604,36.3474580,-82.3920093
370,Villa View Point,37604,36.3479786,-82.3905282
374,Villa View Point,37604,36.3482258,-82.3901900
380,Villa View Point,37604,36.3482008,-82.3908676
384,Villa View Point,37604,36.3484452,-82.3905226
386,Villa View Point,37604,36.3485226,-82.3904490
120,Avonlea Place,37604,36.3479326,-82.3899486
603,Douglas Drive,37604,36.3476930,-82.3931020
114,Avonlea Place,37604,36.3480339,-82.3896951
112,Avonlea Place,37604,36.3481236,-82.3896119
110,Avonlea Place,37604,36.3478857,-82.3895275
108,Avonlea Place,37604,36.3479586,-82.3894502
106,Avonlea Place,37604,36.3482612,-82.3894105
102,Avonlea Place,37604,36.3481093,-82.3892535
130,Avonlea Place,37604,36.3476215,-82.3903364
128,Avonlea Place,37604,36.3477106,-82.3902666
126,Avonlea Place,37604,36.3474107,-82.3902659
124,Avonlea Place,37604,36.3475323,-82.3900989
122,Avonlea Place,37604,36.3478475,-82.3900479
118,Avonlea Place,37604,36.3476355,-82.3899094
116,Avonlea Place,37604,36.3477503,-82.3897928
104,Avonlea Place,37604,36.3483404,-82.3892529
100,Avonlea Place,37604,36.3481792,-82.3890751
365,Villa View Point,37604,36.3473736,-82.3913276
369,Villa View Point,37604,36.3471401,-82.3916858
371,Villa View Point,37604,36.3470819,-82.3918133
375,Villa View Point,37604,36.3468916,-82.3921421
373,Villa View Point,37604,36.3469308,-82.3920312
367,Villa View Point,37604,36.3473226,-82.3913955
702,Sharon Drive,37604,36.3466825,-82.3958800
2310,Larkspur Drive,37604,36.3434872,-82.3853677
3135,People's Street,37604,36.3498920,-82.3982368
1805,North Roan Street,37601,36.3345548,-82.3740865
1193,West Mountainview Road,37604,36.3428358,-82.4151418
143,Simmons Ridge,37604,36.3414028,-82.4271581
3330,Bondwood Circle,37604,36.3496124,-82.4139337
3326,Bondwood Circle,37604,36.3497175,-82.4146216
3322,Bondwood Circle,37604,36.3495497,-82.4149631
3418,Redstone Road,37604,36.3444580,-82.4236923
3,Pine Timbers Court,37604,36.3490793,-82.4140666
1185,West Mountainview Road,37604,36.3438017,-82.4145058
1185,West Mountainview Road,37604,36.3441749,-82.4139193
1185,West Mountainview Road,37604,36.3442570,-82.4138736
1185,West Mountainview Road,37604,36.3441814,-82.4139328
1185,West Mountainview Road,37604,36.3442631,-82.4138884
1185,West Mountainview Road,37604,36.3441957,-82.4139923
1185,West Mountainview Road,37604,36.3442931,-82.4139573
1185,West Mountainview Road,37604,36.3442007,-82.4140027
1185,West Mountainview Road,37604,36.3442970,-82.4139673
1185,West Mountainview Road,37604,36.3443720,-82.4139033
1185,West Mountainview Road,37604,36.3443781,-82.4139141
1185,West Mountainview Road,37604,36.3442065,-82.4140555
1185,West Mountainview Road,37604,36.3443037,-82.4140033
1185,West Mountainview Road,37604,36.3443907,-82.4139410
1185,West Mountainview Road,37604,36.3444624,-82.4138988
2302,Granite Drive,37604,36.3472182,-82.4207530
2230,Granite Court,37604,36.3485886,-82.4207336
122,Simmons Ridge,37604,36.3428842,-82.4261077
132,Simmons Ridge,37604,36.3423342,-82.4267652
3328,Bondwood Circle,37604,36.3496680,-82.4143268
3316,Bondwood Circle,37604,36.3488691,-82.4147391
3314,Bondwood Circle,37604,36.3487108,-82.4144766
3312,Bondwood Circle,37604,36.3485445,-82.4141363
3343,Bondwood Circle,37604,36.3501658,-82.4139293
3341,Bondwood Circle,37604,36.3501713,-82.4142856
3339,Bondwood Circle,37604,36.3502259,-82.4146084
3337,Bondwood Circle,37604,36.3502393,-82.4148630
3335,Bondwood Circle,37604,36.3502780,-82.4152632
3333,Bondwood Circle,37604,36.3503005,-82.4157171
3315,Bondwood Circle,37604,36.3483116,-82.4145720
3313,Bondwood Circle,37604,36.3481156,-82.4143046
3310,Bondwood Circle,37604,36.3483773,-82.4138694
3311,Bondwood Circle,37604,36.3479200,-82.4140450
3425,Berkshire Circle,37604,36.3462893,-82.4146862
3401,Berkshire Circle,37604,36.3476944,-82.4189373
3432,Berkshire Circle,37604,36.3456665,-82.4139394
3430,Berkshire Circle,37604,36.3457653,-82.4142896
3428,Berkshire Circle,37604,36.3458108,-82.4147259
3339,Berkshire Circle,37604,36.3483359,-82.4190733
3311,Berkshire Circle,37604,36.3469930,-82.4145771
3309,Berkshire Circle,37604,36.3466909,-82.4142771
3310,Berkshire Circle,37604,36.3471914,-82.4140613
3312,Berkshire Circle,37604,36.3473531,-82.4144449
3314,Berkshire Circle,37604,36.3475437,-82.4147471
2853,Knob Creek Road,37604,36.3439060,-82.4241129
3424,Stoneridge Drive,37604,36.3450135,-82.4243490
3420,Stoneridge Drive,37604,36.3455410,-82.4246830
3404,Stoneridge Drive,37604,36.3477210,-82.4214320
3416,Redstone Road,37604,36.3446272,-82.4235613
148,Simmons Ridge,37604,36.3414231,-82.4279929
106,Simmons Ridge,37604,36.3433197,-82.4244718
144,Simmons Ridge,37604,36.3417144,-82.4275636
138,Simmons Ridge,37604,36.3421710,-82.4274478
2,Pine Timbers Court,37604,36.3492973,-82.4140560
8,Blackberry Court,37604,36.3500919,-82.4166939
6,Blackberry Court,37604,36.3495634,-82.4163768
2303,Granite Drive,37604,36.3474082,-82.4202786
3417,Stoneridge Drive,37604,36.3454829,-82.4231322
3415,Stoneridge Drive,37604,36.3455911,-82.4227550
3413,Redstone Road,37604,36.3444480,-82.4233531
137,Simmons Ridge,37604,36.3417267,-82.4268219
125,Simmons Ridge,37604,36.3423906,-82.4261982
119,Simmons Ridge,37604,36.3426405,-82.4257349
113,Simmons Ridge,37604,36.3430331,-82.4254905
2103,Millbrook Drive,37604,36.3502172,-82.4181429
102,Fink Drive,37604,36.3452196,-82.4143662
2842,Knob Creek Road,37604,36.3440301,-82.4228080
2678,Knob Creek Road,37604,36.3413875,-82.4151962
3741,West Market Street,37604,36.3107878,-82.4334249
3741,West Market Street,37604,36.3107305,-82.4335821
408,Shade Tree Way,37604,36.3352885,-82.4330023
224,Strawberry Field Drive,37604,36.3343725,-82.4319164
407,Shade Tree Way,37604,36.3351520,-82.4322620
401,Shade Tree Way,37604,36.3359498,-82.4316816
223,Strawberry Field Drive,37604,36.3342748,-82.4311762
542,Wind Tree Lane,37604,36.3365079,-82.4332198
2193,Sawyers Pond Drive,37604,36.3346279,-82.4256122
108,Countryside Drive,37604,36.3342159,-82.4254982
111,Countryside Drive,37604,36.3343836,-82.4256546
414,Shade Tree Way,37604,36.3344074,-82.4339129
4,Green Leaf Court,37604,36.3334458,-82.4256671
110,Brooke Green Drive,37604,36.3357049,-82.4304161
229,Sterling Springs Drive,37604,36.3368428,-82.4267265
3101,Peoples Street,37604,36.3508794,-82.3977501
3101,Peoples Street,37604,36.3509275,-82.3976681
3101,People Street,37604,36.3508494,-82.3978918
3101,Peoples Street,37604,36.3509420,-82.3980431
409,West Oakland Avenue,37604,36.3582160,-82.3900233
617,Hazel Street,37604,36.3530016,-82.3920715
617,Hazel Street,37604,36.3529522,-82.3913786
617,Hazel Street,37604,36.3529992,-82.3914340
617,Hazel Street,37604,36.3530422,-82.3914763
617,Hazel Street,37604,36.3530863,-82.3915170
617,Hazel Street,37604,36.3531343,-82.3915665
617,Hazel Street,37604,36.3531758,-82.3916124
617,Hazel Street,37604,36.3533851,-82.3918078
617,Hazel Street,37604,36.3533535,-82.3918697
617,Hazel Street,37604,36.3532612,-82.3920140
617,Hazel Street,37604,36.3532317,-82.3920655
617,Hazel Street,37604,36.3527647,-82.3916473
617,Hazel Street,37604,36.3528117,-82.3917026
617,Hazel Street,37604,36.3528547,-82.3917449
617,Hazel Street,37604,36.3528989,-82.3917857
617,Hazel Street,37604,36.3529469,-82.3918351
617,Hazel Street,37604,36.3529883,-82.3918810
525,West Oakland Avenue,37604,36.3571579,-82.3927289
411,West Oakland Avenue,37604,36.3581348,-82.3904987
525,West Oakland Avenue,37604,36.3572136,-82.3925699
409,West Oakland Avenue,37604,36.3581063,-82.3902800
409,West Oakland Avenue,37604,36.3581445,-82.3902080
409,West Oakland Avenue,37604,36.3581785,-82.3901180
409,West Oakland Avenue,37604,36.3582570,-82.3899217
525,West Oakland Avenue,37604,36.3571104,-82.3923071
525,West Oakland Avenue,37604,36.3570691,-82.3923951
525,West Oakland Avenue,37604,36.3569635,-82.3926759
525,West Oakland Avenue,37604,36.3569160,-82.3927989
525,West Oakland Avenue,37604,36.3570877,-82.3928976
525,West Oakland Avenue,37604,36.3571240,-82.3928234
525,West Oakland Avenue,37604,36.3572442,-82.3924869
525,West Oakland Avenue,37604,36.3572746,-82.3923993
501,West Oakland Avenue,37604,36.3577738,-82.3911840
501,West Oakland Avenue,37604,36.3578111,-82.3910825
501,West Oakland Avenue,37604,36.3579067,-82.3908424
501,West Oakland Avenue,37604,36.3578587,-82.3909556
401,West Oakland Avenue,37604,36.3582934,-82.3897908
401,West Oakland Avenue,37604,36.3583253,-82.3896919
401,West Oakland Avenue,37604,36.3583628,-82.3895949
2912,Dorothy Street,37604,36.3582917,-82.3874601
515,West Oakland Avenue,37604,36.3575693,-82.3919506
518,Central Street,37604,36.3569426,-82.3919066
525,Central Street,37604,36.3564632,-82.3921892
600,West Oakland Court,37604,36.3568676,-82.3940613
204,West Oakland Avenue,37604,36.3596758,-82.3880755
210,West Oakland Avenue,37604,36.3596654,-82.3886001
3101,North Roan Street,37601,36.3590363,-82.3908393
3101,North Roan Street,37601,36.3590734,-82.3907624
3101,North Roan Street,37601,36.3591033,-82.3906858
3101,North Roan Street,37601,36.3591259,-82.3906051
3101,North Roan Street,37601,36.3591598,-82.3905416
3101,North Roan Street,37601,36.3594871,-82.3899957
3101,North Roan Street,37601,36.3595591,-82.3898906
3101,North Roan Street,37601,36.3595960,-82.3898049
3101,North Roan Street,37601,36.3596439,-82.3897319
3101,North Roan Street,37601,36.3601307,-82.3888955
3101,North Roan Street,37601,36.3601613,-82.3888410
3101,North Roan Street,37601,36.3601953,-82.3887819
3101,North Roan Street,37601,36.3602431,-82.3887045
3101,North Roan Street,37601,36.3602668,-82.3886592
3101,North Roan Street,37601,36.3602937,-82.3886004
3101,North Roan Street,37601,36.3603276,-82.3885369
3123,North Roan Street,37604,36.3606217,-82.3911125
3123,North Roan Street,37604,36.3595214,-82.3916272
3123,North Roan Street,37604,36.3594770,-82.3915631
3123,North Roan Street,37604,36.3605490,-82.3909790
210,West Oakland Avenue,37604,36.3594868,-82.3884938
210,West Oakland Avenue,37604,36.3599109,-82.3887625
202,West Oakland Avenue,37604,36.3599888,-82.3882896
414,West Oakland Avenue,37601,36.3586806,-82.3907186
408,West Oakland Avenue,37604,36.3587437,-82.3904369
300,West Oakland Avenue,37604,36.3593106,-82.3886177
206,West Oakland Avenue,37604,36.3597750,-82.3883891
502,West Oakland Avenue,37604,36.3583122,-82.3912184
508,West Oakland Avenue,37604,36.3582030,-82.3917954
508,West Oakland Avenue,37604,36.3581770,-82.3918761
414,West Oakland Avenue,37604,36.3585891,-82.3909722
414,West Oakland Avenue,37604,36.3586192,-82.3908756
414,West Oakland Avenue,37604,36.3586481,-82.3907972
516,West Oakland Avenue,37604,36.3579981,-82.3920717
516,West Oakland Avenue,37604,36.3581007,-82.3921275
516,West Oakland Avenue,37604,36.3581585,-82.3921702
516,West Oakland Avenue,37604,36.3581274,-82.3922547
516,West Oakland Avenue,37604,36.3580986,-82.3923127
520,West Oakland Avenue,37604,36.3576767,-82.3930056
520,West Oakland Avenue,37604,36.3577619,-82.3930548
504,West Oakland Avenue,37604,36.3582395,-82.3913623
3300,Browns Mill Road,37604,36.3604615,-82.3973693
3300,Browns Mill Road,37604,36.3613998,-82.3968340
3300,Browns Mill Road,37604,36.3614275,-82.3967776
3300,Browns Mill Road,37604,36.3614570,-82.3967354
3300,Browns Mill Road,37604,36.3615328,-82.3959694
3300,Browns Mill Road,37604,36.3614642,-82.3960715
3300,Browns Mill Road,37604,36.3613643,-82.3964938
3300,Browns Mill Road,37604,36.3613177,-82.3965688
3300,Browns Mill Road,37604,36.3612667,-82.3966340
3300,Browns Mill Road,37604,36.3612290,-82.3966950
3300,Browns Mill Road,37604,36.3617758,-82.3957953
3300,Browns Mill Road,37604,36.3618760,-82.3958904
3300,Browns Mill Road,37604,36.3619779,-82.3959836
3300,Browns Mill Road,37604,36.3610877,-82.3968769
3300,Browns Mill Road,37604,36.3612297,-82.3969672
3300,Browns Mill Road,37604,36.3612831,-82.3970167
3300,Browns Mill Road,37604,36.3607880,-82.3972721
3300,Browns Mill Road,37604,36.3608970,-82.3974300
3300,Browns Mill Road,37604,36.3603529,-82.3972378
3300,Browns Mill Road,37604,36.3604094,-82.3973031
3300,Browns Mill Road,37604,36.3606368,-82.3975771
3300,Browns Mill Road,37604,36.3607081,-82.3976508
3300,Browns Mill Road,37604,36.3607542,-82.3976975
3300,Browns Mill Road,37604,36.3621324,-82.3955447
3300,Browns Mill Road,37604,36.3619843,-82.3954753
3300,Browns Mill Road,37604,36.3609391,-82.3974812
3300,Browns Mill Road,37604,36.3608280,-82.3973322
3120,Browns Mill Road,37604,36.3610021,-82.3967494
3120,Browns Mill Road,37604,36.3608237,-82.3970007
3120,Browns Mill Road,37604,36.3608495,-82.3968075
3120,Browns Mill Road,37604,36.3608655,-82.3969387
3120,Browns Mill Road,37604,36.3609143,-82.3968838
3120,Browns Mill Road,37604,36.3608780,-82.3968434
3120,Browns Mill Road,37604,36.3609570,-82.3968169
3120,Browns Mill Road,37604,36.3610408,-82.3966931
3120,Browns Mill Road,37604,36.3610820,-82.3966276
3120,Browns Mill Road,37604,36.3609582,-82.3965893
3120,Browns Mill Road,37604,36.3608767,-82.3966856
3120,Browns Mill Road,37604,36.3608154,-82.3967737
3120,Browns Mill Road,37604,36.3607338,-82.3968979
3419,North Roan Street,37601,36.3638897,-82.3946633
3417,North Roan Street,37601,36.3640452,-82.3946106
3101,Browns Mill Road,37604,36.3580268,-82.3950196
3101,Browns Mill Road,37604,36.3579474,-82.3948585
3101,Browns Mill Road,37604,36.3583012,-82.3952648
3101,Browns Mill Road,37604,36.3579458,-82.3950846
3101,Browns Mill Road,37604,36.3577388,-82.3953259
3101,Browns Mill Road,37604,36.3578108,-82.3952461
3101,Browns Mill Road,37604,36.3578756,-82.3951666
108,Car Mol Drive,37601,36.3695137,-82.4030888
106,Car Mol Drive,37601,36.3692788,-82.4034459
110,Car Mol Drive,37601,36.3695256,-82.4027254
110,Car Mol Drive,37601,36.3695721,-82.4026038
112,Car Mol Drive,37601,36.3696395,-82.4023111
112,Car Mol Drive,37601,36.3696109,-82.4022885
112,Car Mol Drive,37601,36.3696353,-82.4022210
112,Car Mol Drive,37601,36.3696725,-82.4022414
108,Car Mol Drive,37601,36.3690209,-82.4026469
108,Car Mol Drive,37601,36.3690531,-82.4025866
108,Car Mol Drive,37601,36.3691983,-82.4027165
108,Car Mol Drive,37601,36.3692427,-82.4027602
108,Car Mol Drive,37601,36.3693548,-82.4028813
108,Car Mol Drive,37601,36.3694040,-82.4029286
106,Car Mol Drive,37601,36.3691056,-82.4030599
106,Car Mol Drive,37601,36.3691610,-82.4031069
106,Car Mol Drive,37601,36.3692557,-82.4032019
106,Car Mol Drive,37601,36.3693061,-82.4032377
106,Car Mol Drive,37601,36.3689022,-82.4033674
106,Car Mol Drive,37601,36.3689667,-82.4034120
106,Car Mol Drive,37601,36.3690612,-82.4034995
106,Car Mol Drive,37601,36.3691151,-82.4035265
102,Car Mol Drive,37601,36.3686091,-82.4034826
102,Car Mol Drive,37601,36.3686643,-82.4035342
102,Car Mol Drive,37601,36.3687845,-82.4036372
102,Car Mol Drive,37601,36.3688401,-82.4036837
102,Car Mol Drive,37601,36.3688995,-82.4037506
102,Car Mol Drive,37601,36.3689498,-82.4038041
312,Car Mol Drive,37601,36.3716429,-82.3991624
400,Car Mol Drive,37601,36.3719039,-82.3988613
308,Car Mol Drive,37601,36.3710285,-82.3996914
308,Car Mol Drive,37601,36.3710745,-82.3996219
308,Car Mol Drive,37601,36.3711140,-82.3995494
308,Car Mol Drive,37601,36.3712774,-82.3998395
308,Car Mol Drive,37601,36.3712362,-82.3998992
308,Car Mol Drive,37601,36.3711994,-82.3999732
308,Car Mol Drive,37601,36.3711664,-82.4000438
308,Car Mol Drive,37601,36.3711443,-82.4002000
308,Car Mol Drive,37601,36.3711035,-82.4002710
308,Car Mol Drive,37601,36.3710635,-82.4003243
308,Car Mol Drive,37601,36.3710253,-82.4003983
310,Car Mol Drive,37601,36.3712897,-82.3993949
310,Car Mol Drive,37601,36.3713573,-82.3994572
310,Car Mol Drive,37601,36.3714248,-82.3995174
310,Car Mol Drive,37601,36.3714742,-82.3995627
310,Car Mol Drive,37601,36.3715322,-82.3996274
310,Car Mol Drive,37601,36.3715761,-82.3996612
312,Car Mol Drive,37601,36.3715209,-82.3990472
312,Car Mol Drive,37601,36.3715771,-82.3991040
312,Car Mol Drive,37601,36.3714722,-82.3991326
312,Car Mol Drive,37601,36.3715409,-82.3991809
312,Car Mol Drive,37601,36.3717003,-82.3992053
312,Car Mol Drive,37601,36.3716055,-82.3992493
312,Car Mol Drive,37601,36.3716598,-82.3992982
312,Car Mol Drive,37601,36.3717614,-82.3992679
312,Car Mol Drive,37601,36.3718384,-82.3993238
312,Car Mol Drive,37601,36.3717271,-82.3993546
312,Car Mol Drive,37601,36.3717874,-82.3993950
400,Car Mol Drive,37601,36.3718279,-82.3987951
3,Ridgewood Terrace,37601,36.3696959,-82.4014109
300,Car Mol Drive,37601,36.3706444,-82.4007978
300,Car Mol Drive,37601,36.3705864,-82.4007467
300,Car Mol Drive,37601,36.3705972,-82.4009031
300,Car Mol Drive,37601,36.3705210,-82.4008296
210,Car Mol Drive,37601,36.3703489,-82.4012797
210,Car Mol Drive,37601,36.3703937,-82.4012091
4,Ridgewood Terrace,37601,36.3699608,-82.4011825
2,Ridgewood Terrace,37601,36.3696875,-82.4018752
4,Ridgewood Terrace,37601,36.3700461,-82.4011821
5,Ridgewood Terrace,37601,36.3701643,-82.4015159
5,Ridgewood Terrace,37601,36.3702362,-82.4015525
1,Ridgewood Terrace,37601,36.3699944,-82.4021839
1,Ridgewood Terrace,37601,36.3698875,-82.4020011
308,Car Mol Drive,37601,36.3707313,-82.4002212
308,Car Mol Drive,37601,36.3707735,-82.4001534
308,Car Mol Drive,37601,36.3708130,-82.4000825
308,Car Mol Drive,37601,36.3708535,-82.4000019
308,Car Mol Drive,37601,36.3708985,-82.3999387
308,Car Mol Drive,37601,36.3709477,-82.3998173
308,Car Mol Drive,37601,36.3709904,-82.3997655
308,Car Mol Drive,37601,36.3709840,-82.4004743
302,Car Mol Drive,37601,36.3708517,-82.4006263
302,Car Mol Drive,37601,36.3709254,-82.4006902
302,Car Mol Drive,37601,36.3707105,-82.4005092
302,Car Mol Drive,37601,36.3707844,-82.4005686
3,Ridgewood Terrace,37601,36.3696640,-82.4014897
2,Ridgewood Terrace,37601,36.3696559,-82.4017862
108,Tamassee Drive,37601,36.3677048,-82.3985463
106,Tamassee Drive,37601,36.3674655,-82.3987674
104,Tamassee Drive,37601,36.3673661,-82.3991753
3712,North Roan Street,37601,36.3673919,-82.4011297
3,Catoosa Court,37601,36.3682110,-82.3996293
103,Sequoyah Drive,37604,36.3669196,-82.4017100
103,Sequoyah Drive,37604,36.3668033,-82.4016812
3711,North Roan Street,37601,36.3665299,-82.4009171
103,Sequoyah Drive,37604,36.3668633,-82.4020741
3711,North Roan Street,37601,36.3671533,-82.4015572
103,Sequoyah Drive,37604,36.3668789,-82.4016972
103,Sequoyah Drive,37604,36.3668381,-82.4016889
103,Sequoyah Drive,37604,36.3667701,-82.4016753
103,Sequoyah Drive,37604,36.3667568,-82.4017101
103,Sequoyah Drive,37604,36.3667459,-82.4017662
103,Sequoyah Drive,37604,36.3667374,-82.4018184
103,Sequoyah Drive,37604,36.3667253,-82.4018772
103,Sequoyah Drive,37604,36.3667122,-82.4019922
103,Sequoyah Drive,37604,36.3666991,-82.4020484
103,Sequoyah Drive,37604,36.3667192,-82.4019369
3711,North Roan Street,37601,36.3664647,-82.4011302
3711,North Roan Street,37601,36.3664880,-82.4010600
3711,North Roan Street,37601,36.3667466,-82.4002227
3711,North Roan Street,37601,36.3668755,-82.4005879
3711,North Roan Street,37601,36.3667889,-82.4003314
3711,North Roan Street,37601,36.3668426,-82.4004640
3711,North Roan Street,37601,36.3668501,-82.4005226
3711,North Roan Street,37601,36.3667663,-82.4002759
3711,North Roan Street,37601,36.3669810,-82.4013756
3711,North Roan Street,37601,36.3668934,-82.4006517
3711,North Roan Street,37601,36.3667661,-82.4009632
3711,North Roan Street,37601,36.3669247,-82.4007572
3711,North Roan Street,37601,36.3667399,-82.4010813
3711,North Roan Street,37601,36.3667242,-82.4011274
3711,North Roan Street,37601,36.3667089,-82.4011803
3711,North Roan Street,37601,36.3666889,-82.4012358
3711,North Roan Street,37601,36.3669827,-82.4013097
3711,North Roan Street,37601,36.3666720,-82.4012977
3711,North Roan Street,37601,36.3669959,-82.4012500
3711,North Roan Street,37601,36.3670009,-82.4011913
3711,North Roan Street,37601,36.3670100,-82.4011346
3711,North Roan Street,37601,36.3666516,-82.4013626
3711,North Roan Street,37601,36.3667544,-82.4010164
3711,North Roan Street,37601,36.3668034,-82.4003835
3711,North Roan Street,37601,36.3665631,-82.4007972
3711,North Roan Street,37601,36.3665482,-82.4008569
3711,North Roan Street,37601,36.3665098,-82.4009916
3711,North Roan Street,37601,36.3669714,-82.4014427
3711,North Roan Street,37601,36.3669061,-82.4007075
104,Sequoyah Drive,37604,36.3668193,-82.4023347
3508,Cimarron Drive,37601,36.3677394,-82.3916386
3506,Cimarron Drive,37601,36.3674525,-82.3914523
3512,Cimarron Drive,37601,36.3679207,-82.3923612
3510,Cimarron Drive,37601,36.3679141,-82.3919743
3413,Linkwood Drive,37601,36.3679909,-82.3962257
3415,Linkwood Drive,37601,36.3682026,-82.3966009
3411,Linkwood Drive,37601,36.3676487,-82.3957896
203,East Mountainview Road,37601,36.3661934,-82.3932699
202,White Way,37601,36.3664265,-82.3940483
105,White Way,37601,36.3664598,-82.3947236
103,White Way,37601,36.3662992,-82.3951286
101,White Way,37601,36.3663105,-82.3961180
108,White Way,37601,36.3662286,-82.3943354
1735,West State of Franklin Road,37604,36.3009411,-82.3771604
1735,West State of Franklin Road,37604,36.3010353,-82.3769560
2708,North Roan Street,37601,36.3555334,-82.3823718
1735,West State of Franklin Road,37604,36.3012325,-82.3766651
5,Worth Circle,37601,36.3507217,-82.3661875
5,Worth Circle,37601,36.3507511,-82.3662755
1412,College Heights Road,37604,36.2980298,-82.3688105
1216,West State of Franklin Road,37604,36.3056028,-82.3703601
501,South Roan Street,37601,36.3161771,-82.3495427
807,West Locust Street,37604,36.3051797,-82.3608639
211,West Walnut Street,37604,36.3135595,-82.3511258
734,West Locust Street,37604,36.3061359,-82.3600129
801,West Walnut Street,37604,36.3082120,-82.3618781
715,West Maple Street,37604,36.3080017,-82.3596176
722,West Walnut Street,37604,36.3087106,-82.3605802
807,West Walnut Street,37604,36.3078553,-82.3624834
1000,South Roan Street,37604,36.3131835,-82.3473595
300,Buffalo Street,37604,36.3141809,-82.3531391
426,West Walnut Street,37604,36.3120212,-82.3547066
401,Ashe Street,37604,36.3129124,-82.3531464
108,University Parkway,37604,36.3068817,-82.3438026
627,West Walnut Street,37604,36.3096266,-82.3586125
458,West Walnut Street,37604,36.3116499,-82.3554109
745,West Walnut Street,37604,36.3083129,-82.3613964
1210,Harris West Drive,37604,36.3040545,-82.3731495
1805,West State of Franklin Road,37604,36.2998576,-82.3802546
1823,West State of Franklin Road,37604,36.3013990,-82.3812139
1204,West State Of Franklin Road,37604,36.3065151,-82.3686420
Bldg. 52,Lake Drive,37684,36.3067861,-82.3794858
2915,West Market Street,37604,36.3089681,-82.4036900
949,Hamilton Place Drive,37604,36.3336416,-82.4069372
2102,West Market Street,37604,36.3118281,-82.3883871
2100,West Market Street,37604,36.3120338,-82.3876464
400,North State of Franklin Road,37604,36.3078354,-82.3844371
429,North State of Franklin Road,37604,36.3109216,-82.3873223
2013,West Market Street,37604,36.3109496,-82.3882878
3101,East Oakland Avenue,37601,36.3592400,-82.3850421
2116,North Roan Street,37601,36.3424806,-82.3734806
2116,North Roan Street,37601,36.3424498,-82.3745622
2116,North Roan Street,37601,36.3425342,-82.3726467
2112,North Roan Street,37601,36.3417692,-82.3744334
112,Broyles Drive,37601,36.3438486,-82.3744138
2120,North Roan Street,37601,36.3437660,-82.3752638
21o,Broyles Drive,37601,36.3436210,-82.3717516
200,East Mountcastle Drive,37601,36.3413045,-82.3711970
2008,North Roan Street,37604,36.3398485,-82.3742038
2100,North Roan Street,37604,36.3401937,-82.3741064
2000,North Roan Street,37604,36.3389367,-82.3737073
2805,North Roan Street,37601,36.3561947,-82.3851684
2715,North Roan Street,37601,36.3557244,-82.3833868
2707,North Roan Street,37601,36.3550180,-82.3830368
2702,North Roan Street,37601,36.3550421,-82.3821502
2619,North Roan Street,37601,36.3537013,-82.3824389
4,Mark Twain Ct,37601,36.3534907,-82.3829053
2612,North Roan Street,37601,36.3538943,-82.3796559
2607,North Roan Street,37601,36.3526132,-82.3818869
2531,North Roan Street,37601,36.3515830,-82.3820124
130,West Springbrook Drive,37601,36.3511907,-82.3830104
2602,North Roan Street,37601,36.3518991,-82.3802310
101,West Springbrook Drive,37601,36.3495799,-82.3817260
2510,North Roan Street,37601,36.3510465,-82.3794018
108,Wesley Street,37601,36.3512860,-82.3786942
219,Princeton Road,37601,36.3491348,-82.3745715
207,Princeton Road,37601,36.3482525,-82.3750790
257,Old Gray Station Road,37615,36.4094541,-82.4704265
5016,Bobby Hicks Highway,37615,36.4083149,-82.4752927
2801,Boones Creek Road,37615,36.3802729,-82.4254460
4470,North Roan Street,37604,36.3853607,-82.4082202
1909,North Roan Street,37604,36.3375731,-82.3741676
2101,North Roan Street,37604,36.3405140,-82.3755704
2111,North Roan Street,37601,36.3416688,-82.3773540
1910,North Roan Street,37601,36.3368485,-82.3722373
1902,North Roan Street,37601,36.3360841,-82.3721815
1808,North Roan Street,37601,36.3352510,-82.3718121
1903,North Roan Street,37601,36.3358565,-82.3733756
1905,North Roan Street,37601,36.3363557,-82.3736565
1907,North Roan Street,37601,36.3368999,-82.3738820
1916,North Roan Street,37601,36.3383071,-82.3731048
1920,North Roan Street,37601,36.3386102,-82.3733474
2004,North Roan Street,37601,36.3393342,-82.3735534
2006,North Roan Street,37601,36.3398843,-82.3731966
3300,West Market Street,37604,36.3121455,-82.4122310
3302,West Market Street,37604,36.3132954,-82.4130412
3302,West Market Street #4,37604,36.3132942,-82.4126903
3302,West Market Street #6,37604,36.3131037,-82.4134817
3302,West Market Street,37604,36.3132475,-82.4124632
504,North State of Franklin Road,37604,36.3127747,-82.3869220
1800,West Market Street,37604,36.3124269,-82.3859478
1802,West Market Street,37604,36.3123508,-82.3861872
1100,West Market Street,37604,36.3140355,-82.3796721
840,West Market Street,37604,36.3155789,-82.3739926
716,West Market Street,37604,36.3162704,-82.3703199
417,East Main Street,37601,36.3196500,-82.3455750
402,East Main Street,37601,36.3202170,-82.3444334
603,East Market Street,37601,36.3214994,-82.3434326
1005,South Roan Street,37601,36.3129923,-82.3466839
1001,South Roan Street,37601,36.3134314,-82.3468699
338,East Main Street,37601,36.3176119,-82.3489244
333,East Main Street,37601,36.3178685,-82.3498754
335,East Main Street,37601,36.3180960,-82.3492178
120,Commerce Sreet,37604,36.3139773,-82.3549161
111,McClure Street,37604,36.3174683,-82.3544427
112,Tipton Street,37604,36.3154146,-82.3522966
8,Wilson Avenue,37604,36.3157501,-82.3537247
2011,North Roan Street,37601,36.3379782,-82.3774289
3211,Peoples Street,37604-4108,36.3465039,-82.3998876
3211,Peoples Street,37604,36.3457307,-82.4002677
3211,Peoples Street,37604,36.3453600,-82.4004446
3211,Peoples Street,37604,36.3430161,-82.4019103
3207,Peoples Street,37604,36.3476183,-82.3982519
3222,Peoples Street,37604,36.3478846,-82.4007382
3201,Peoples Street,37604,36.3492768,-82.3989399
3140,Peoples Street,37604,36.3508222,-82.3994963
3206,Bristol Highway,37601,36.3654576,-82.3799158
205,East Mountcastle Drive,37601,36.3427594,-82.3714704
117,Broyles Drive,37601,36.3450205,-82.3736734
207,East Mountcastle Drive,37601,36.3428468,-82.3708175
2012,Sherwood Drive,37601,36.3401065,-82.3704844
1805,North Roan Street,37601,36.3343910,-82.3744008
2280,North Roan Street,37601,36.3459770,-82.3766110
2111,North Roan Street,37601,36.3410520,-82.3764747
3409,West Market Street,37604,36.3121736,-82.4173052
6681,Bristol Highway,37686,36.4261793,-82.3194559
5955,Highway 11 East,37686,36.4255659,-82.3162281
6740,Bristol Highway,37686,36.4260009,-82.3157333
951,Ashley Road,37604,36.2989003,-82.3808111
403,North State of Franklin Road,37684,36.3077533,-82.3876439
215,Heroes Drive,37684,36.3118518,-82.3767215
400,North State of Franklin Road,37604,36.3076839,-82.3842711
2120,South Roan Street,37601,36.3016422,-82.3379772
3211,Hanover Road,37604,36.3530406,-82.4063789
2303,Indian Ridge Road,37604,36.3209634,-82.4057667
300,Med Tech Parkway,37604,36.3365812,-82.4019081
1276,Gilbreath Drive,37614,36.3024354,-82.3706492
3111,Browns Mill Road,37604,36.3595140,-82.3990149
510,Bert Street,37601,36.3199552,-82.3397754
303,Med Tech Parkway,37604,36.3402216,-82.4011373
301,Med Tech Parkway,37604,36.3392090,-82.4021154
3060,Franklin Terrace Drive,37604,36.3552488,-82.4007907
2535,Park Avenue,37601,36.3531746,-82.3322814
2533,Park Avenue,37601,36.3530453,-82.3323844
2531,Park Avenue,37601,36.3529435,-82.3324920
2529,Park Avenue,37601,36.3528210,-82.3325742
2527,Park Avenue,37601,36.3527011,-82.3326653
2525,Park Avenue,37601,36.3526020,-82.3327402
2523,Park Avenue,37601,36.3524823,-82.3328342
2521,Park Avenue,37601,36.3523829,-82.3329791
2519,Park Avenue,37601,36.3522530,-82.3330306
2517,Park Avenue,37601,36.3521071,-82.3330784
2513,Park Avenue,37601,36.3518765,-82.3332265
2507,Park Avenue,37601,36.3515161,-82.3334943
2512,Long Street,37601,36.3524980,-82.3334502
1001,McArthur Street,37601,36.3535016,-82.3326357
2509,Long Street,37601,36.3525548,-82.3339445
2507,Long Street,37601,36.3524303,-82.3341132
2508,Long Street,37601,36.3522193,-82.3337783
2505,Long Street,37601,36.3522927,-82.3342967
2506,Long Street,37601,36.3521052,-82.3339150
2503,Long Street,37601,36.3521706,-82.3344932
2504,Long Street,37601,36.3519682,-82.3340809
2502,Long Street,37601,36.3518817,-82.3342674
909,McArthur Street,37601,36.3530952,-82.3319168
2534,Park Avenue,37601,36.3528805,-82.3320452
2532,Park Avenue,37601,36.3527705,-82.3321458
2530,Park Avenue,37601,36.3526622,-82.3322289
2526,Park Avenue,37601,36.3524028,-82.3324128
2524,Park Avenue,37601,36.3523153,-82.3325163
2522,Park Avenue,37601,36.3521952,-82.3325961
2520,Park Avenue,37601,36.3520457,-82.3326250
2518,Park Avenue,37601,36.3519542,-82.3327330
2516,Park Avenue,37601,36.3518282,-82.3327709
2514,Park Avenue,37601,36.3517272,-82.3329042
2512,Park Avenue,37601,36.3515952,-82.3329986
2510,Park Avenue,37601,36.3514791,-82.3331090
2508,Park Avenue,37601,36.3513648,-82.3331338
903,McArthur Street,37601,36.3528888,-82.3314751
2533,Louise Street,37601,36.3527652,-82.3312978
2527,Louise Street,37601,36.3524750,-82.3315085
2525,Louise Street,37601,36.3522518,-82.3316682
2523,Louise Street,37601,36.3521364,-82.3317364
2521,Louise Street,37601,36.3519937,-82.3318237
2519,Louise Street,37601,36.3518844,-82.3319364
2517,Louise Street,37601,36.3517585,-82.3319753
2515,Louise Street,37601,36.3516457,-82.3320843
2513,Louise Street,37601,36.3515413,-82.3321835
2511,Louise Street,37601,36.3514098,-82.3322433
2509,Louise Street,37601,36.3513045,-82.3323577
2507,Louise Street,37601,36.3511465,-82.3324299
2507,Louise Street,37601,36.3511359,-82.3326231
2501,Louise Street,37601,36.3507606,-82.3327077
2500,Louise Street,37601,36.3505542,-82.3324276
2510,Louise Street,37601,36.3511108,-82.3319694
2514,Louise Street,37601,36.3513407,-82.3318110
2516,Louise Street,37601,36.3514803,-82.3317224
2518,Louise Street,37601,36.3515845,-82.3316183
2533,Watauga Road,37601,36.3523031,-82.3303288
809,McArthur Street,37601,36.3526027,-82.3309545
2601,Watauga Road,37601,36.3525032,-82.3302235
1002,McArthur Street,37601,36.3537484,-82.3324083
1000,McArthur Street,37601,36.3535895,-82.3322185
900,McArthur Street,37601,36.3530605,-82.3310576
902,McArthur Street,37601,36.3531357,-82.3312054
904,McArthur Street,37601,36.3531859,-82.3313265
906,McArthur Street,37601,36.3532759,-82.3315230
908,McArthur Street,37601,36.3533450,-82.3316679
910,McArthur Street,37601,36.3534085,-82.3317710
1013,Long Street,37601,36.3514087,-82.3347939
1011,Long Street,37601,36.3513260,-82.3346510
1009,Long Street,37601,36.3512471,-82.3345095
1007,Long Street,37601,36.3511644,-82.3343701
1005,Long Street,37601,36.3511019,-82.3342188
1003,Long Street,37601,36.3510198,-82.3340226
2413,Park Avenue,37601,36.3506820,-82.3339577
2411,Park Avenue,37601,36.3505751,-82.3340482
2409,Park Avenue,37601,36.3504516,-82.3341509
2407,Park Avenue,37601,36.3503331,-82.3342389
2408,Park Avenue,37601,36.3501935,-82.3339213
2410,Park Avenue,37601,36.3502968,-82.3338054
2412,Park Avenue,37601,36.3504093,-82.3337024
2414,Park Avenue,37601,36.3505147,-82.3336035
2417,Louise Street,37601,36.3504564,-82.3327799
2413,Louise Street,37601,36.3502254,-82.3329362
2425,Charles Street,37601,36.3502829,-82.3331969
2417,Charles Street,37601,36.3502076,-82.3333319
2413,Charles Street,37601,36.3500266,-82.3335682
2422,Charles Street,37601,36.3500743,-82.3330113
2414,Charles Street,37601,36.3499067,-82.3331398
2418,Charles Street,37601,36.3497013,-82.3333318
2410,Mose Street,37601,36.3496036,-82.3335383
807,Long Street,37601,36.3502473,-82.3323738
2416,Sarah Street,37601,36.3501773,-82.3325178
803,Long Street,37601,36.3500949,-82.3321150
801,Long Street,37601,36.3500052,-82.3319377
1320,West State of Franklin Road,37614,36.3049324,-82.3719266
928,North State of Franklin Road,37604,36.3242502,-82.3942600
920,North State of Franklin Road,37604,36.3244534,-82.3921163
922,North State Of Franklin Road,37604,36.3238299,-82.3942849
930,North State of Franklin Road,37604,36.3246303,-82.3942671
932,North State of Franklin Road,37604,36.3250254,-82.3943036
4025,Hamilton Place,37604,36.3356987,-82.4078258
3078,Hamilton Place,37604,36.3373218,-82.4077246
2528,Park Avenue,37601,36.3525433,-82.3323152
2501,Long Street,37601,36.3520497,-82.3346587
2520,Louise Street,37601,36.3517145,-82.3315106
300,South Roan Street,37601,36.3175611,-82.3510264
226-228,East Market Street,37601,36.3185641,-82.3485170
530,East Main Street,37601,36.3199454,-82.3423230
1150,West State of Franklin Road,37604,36.3076363,-82.3669570
2509,Park Avenue,37601,36.3516364,-82.3333930
2529,Louise Street,37601,36.3526127,-82.3314036
1003,McArthur Street,37601,36.3534979,-82.3329399
2415,Louise Street,37601,36.3503664,-82.3328920
905,McArthur Street,37601,36.3528764,-82.3317316
1528,Old Gray Station Road,37615,36.3899597,-82.4210482
101,Med Tech Parkway,37604,36.3423007,-82.4006562
300,Med Tech Parkway,37604,36.3360963,-82.4022406
2343,Knob Creek Road,37604,36.3410176,-82.3990538
818,Sunset Drive,37604,36.3349088,-82.3875260
215,East Springbrook Drive,37601,36.3557324,-82.3789402
1400,West Market Street,37604,36.3140446,-82.3814889
211,Mockingbird Lane,37604,36.3348412,-82.3764015
2111,North Roan Street,37601,36.3416945,-82.3761605
2111,North Roan Street,37601,36.3414796,-82.3764628
2606,North Roan Street,37601,36.3530788,-82.3803281
2406,North Roan Street,37601,36.3495364,-82.3784065
6701,Bristol Highway,37686,36.4259385,-82.3176464
6721,Bristol Highway,37686,36.4262273,-82.3172395
6681,Bristol Highway,37686,36.4258817,-82.3183949
6681,Bristol Highway,37686,36.4253981,-82.3189933
6655,Bristol Highway,37686,36.4255611,-82.3180675
6576,Highway 11 E,37686,36.4246274,-82.3189564
6547,Highway 11 E,37686,36.4243949,-82.3192935
6460,Bristol Highway,37686,36.4229490,-82.3193838
6670,Bristol Highway,37686,36.4251940,-82.3166864
4470,North Roan Street,37604,36.3844923,-82.4089861
4525,North Roan Street,37615,36.3890024,-82.4112166
4210,North Roan Street,37601,36.3778206,-82.4067862
4307,North Roan Street,37615,36.3789741,-82.4083646
414,South Roan Street,37601,36.3164276,-82.3503847
248,E Main St,37604,36.3169548,-82.3506509
238,East Main Street,37601,36.3168539,-82.3508931
232,East Main Street,37604,36.3167614,-82.3510999
3120,Bristol Highway,37601,36.3624228,-82.3815080
190,Marketplace Boulevard,37604,36.3424856,-82.4087725
180,Marketplace Boulevard,37604,36.3441447,-82.4076025
401,Roy Martin Road,37615,36.4180672,-82.4694820
3030,Franklin Terrace,37604,36.3531009,-82.4001944
378,378 Marketplace Blvd,37604,36.3341597,-82.3893294
3710,North Roan Street,37601,36.3674558,-82.4007485
3118,Browns Mill Road,37604,36.3601899,-82.3962897
2927,Antioch Road,37604,36.2878866,-82.3997512
2929,Antioch Road,37604,36.2877401,-82.3999869
2931,Antioch Road,37604,36.2875296,-82.4002981
2925,Antioch Road,37604,36.2880648,-82.3995124
2923,Antioch Road,37604,36.2882357,-82.3993382
2921,Antioch Road,37604,36.2884777,-82.3991709
100,West Millard Street,37604,36.3197795,-82.3544940
312,East Main Street,37601,36.3172155,-82.3498609
308,East Main Street,37601,36.3171488,-82.3500575
208,East Market Street,37601,36.3176767,-82.3503291
216,East Main Street,37604,36.3165216,-82.3516437
212,East Main Street,37604,36.3164357,-82.3518441
227,East Main Street,37604,36.3170695,-82.3517252
215,East Market Street,37604,36.3168556,-82.3522147
205,East Main Street,37604,36.3167186,-82.3525448
203,East Main Street,37604,36.3164946,-82.3525777
105,East Walnut Street,37601,36.3158094,-82.3480723
2620,South Roan Street,37601,36.2944921,-82.3336470
109,Buffalo Street,37604,36.3159175,-82.3527586
3208,Bristol Highway,37601,36.3659643,-82.3791915
137,W Market Street A,37604,36.3168056,-82.3549727
2100,Cherokee Road,37604,36.2805675,-82.3808975
2620,South Roan Street,37601,36.2943075,-82.3331310
3105,North Roan Street,37601,36.3605675,-82.3893535
230,Marketplace Blvd,37604,36.3408084,-82.4070932
175,Market Place Boulevard,37604,36.3440801,-82.4049871
3023,Peoples Street,37604,36.3524476,-82.3969928
3000,Franklin Terrace Drive,37604,36.3525139,-82.4014061
3040,Franklin Terrace,37604,36.3532348,-82.3995661
3104,Browns Mill Road,37604,36.3597720,-82.3936632
2700,Boones Creek Road,37615,36.3758966,-82.4270437
2866,Boones Creek Road,37615,36.3823635,-82.4217437
1631,Old Gray Station Road,37615,36.3875758,-82.4145142
3104,Boones Creek Road,37615,36.3867869,-82.4137659
1106,Spratlin Park Drive,37615,36.4160526,-82.4693320
5201,Bobby Hicks Highway,37615,36.4129166,-82.4724853
5050,Bobby Hicks Highway,37615,36.4110433,-82.4729668
5029,Bobby Hicks Highway,37615-6209,36.4099452,-82.4752744
4534,Bristol Highway,37601,36.4024549,-82.3456064
117,Spring Street,37604,36.3160398,-82.3518490
104,East Main Street,37604,36.3161276,-82.3526706
121,Spring Street,37604,36.3159266,-82.3517453
111,Spring Street,37604,36.3161250,-82.3519222
124,Tipton Street,37604,36.3156866,-82.3521086
126,Spring Street,37604,36.3155784,-82.3520058
101,Buffalo Street,37604,36.3160805,-82.3528434
106,Tipton Street,37604,36.3152720,-82.3525331
104,Tipton Street,37604,36.3152141,-82.3525779
2300,South Greenwood Drive,37601,36.2932098,-82.3870464
348,Christian Church Road,37615,36.3714264,-82.4247779
2600,Boones Creek Road,37615,36.3697301,-82.4278987
2681,Boones Creek Road,37615,36.3728441,-82.4289653
135,Pinnacle Drive,37615,36.3733302,-82.4251516
106,Pinnacle Drive,37615,36.3736348,-82.4270055
505,East Main Street,37601,36.3203000,-82.3439916
601,East Main Street,37601,36.3212129,-82.3422646
103,L P Auer Road,37601,36.3047387,-82.3938177
2211,East Lakeview Drive,37601,36.3508770,-82.3503124
500,North Roan Street,37601,36.3207117,-82.3547779
212,Sunset Drive,37604,36.3414562,-82.3792600
201,East Watauga Avenue,37601,36.3232392,-82.3550788
701,South Roan Street,37601,36.3155879,-82.3488343
702,Cherokee Road,37604,36.3001142,-82.3529902
121,North Commerce Street,37604,36.3174727,-82.3531764
121,North Commerce Street,37604,36.3173861,-82.3532064
119,Pinnacle Drive,37615,36.3740125,-82.4257397
2362,Boones Creek Road,37615,36.3630824,-82.4375393
1033,West Oakland Avenue,37604,36.3479804,-82.4048601
2509,South Roan Street,37601,36.2982433,-82.3322823
5026,Bobby Hicks Hwy,37615-6206,36.4093590,-82.4745665
422,Marketplace Boulevard,37604,36.3385102,-82.4076742
900,Sunset Drive,37604,36.3335316,-82.3901657
3027,Peoples Street,37604,36.3517903,-82.3972681
188,Marketplace Boulevard,37601,36.3429046,-82.4081708
188,Marketplace Boulevard,37604,36.3427807,-82.4082541
255,Marketplace Boulevard,37604,36.3406877,-82.4061997
204,Strawberry Field Drive,37604,36.3336573,-82.4280877
222,Strawberry Field Drive,37604,36.3347780,-82.4317430
405,Shade Tree Way,37604,36.3354348,-82.4319790
206,Strawberry Field Drive,37604,36.3338207,-82.4284100
105,Sugar Mill Drive,37604,36.3321132,-82.4286742
2223,Sawyers Pond Drive,37604,36.3346079,-82.4260110
2214,Sawyers Pond Drive,37604,36.3350144,-82.4256652
2,Strawflower Place,37604,36.3331734,-82.4315763
218,Strawberry Field Drive,37604,36.3349723,-82.4305171
103,Brooke Green Drive,37604,36.3353542,-82.4311087
1,Windlesham Court,37604,36.3346447,-82.4272861
412,Shade Tree Way,37604,36.3348098,-82.4336747
2,Clarks Court,37604,36.3323209,-82.4243441
213,Strawberry Field Drive,37604,36.3339272,-82.4297873
114,Strawberry Field Drive,37604,36.3329006,-82.4270205
107,Countryside Drive,37604,36.3340632,-82.4263987
2165,Sawyers Pond Drive,37604,36.3342256,-82.4252739
4,Strawflower Place,37604,36.3328402,-82.4306620
217,Strawberry Field Drive,37604,36.3343605,-82.4303400
2388,Sawyers Pond Drive,37604,36.3353436,-82.4289558
2018,Sawyers Pond Drive,37604,36.3338012,-82.4231630
2230,Sawyers Pond Drive,37604,36.3351272,-82.4260575
207,Strawberry Field Drive,37604,36.3333631,-82.4287892
105,Countryside Drive,37604,36.3338399,-82.4267416
3,Green Leaf Court,37604,36.3331550,-82.4254265
5,Strawflower Place,37604,36.3327118,-82.4302664
2389,Sawyers Pond Drive,37604,36.3350996,-82.4292554
109,Strawberry Field Drive,37604,36.3319661,-82.4261563
216,Strawberry Field Drive,37604,36.3348684,-82.4300272
304,Berry Patch Lane,37604,36.3347463,-82.4324508
101,Brooke Green Drive,37604,36.3350213,-82.4313212
201,Strawberry Field Drive,37604,36.3326445,-82.4276910
403,Shade Tree Way,37604,36.3356529,-82.4316689
2138,Sawyers Pond Drive,37604,36.3343589,-82.4245226
2122,Sawyers Pond Drive,37604,36.3341596,-82.4243562
103,Countryside Drive,37604,36.3335795,-82.4271361
2248,Sawyers Pond Drive,37604,36.3351568,-82.4264117
104,Brooke Green Drive,37604,36.3353729,-82.4304963
111,Strawberry Field Drive,37604,36.3321004,-82.4265806
103,Sugar Mill Drive,37604,36.3318235,-82.4278262
400,Shade Tree Way,37604,36.3361204,-82.4320357
2099,Sawyers Pond Drive,37604,36.3335522,-82.4244264
594,Claude Simmons Road,37604,36.3331013,-82.4233896
113,Strawberry Field Drive,37604,36.3322492,-82.4269351
211,Strawberry Field Drive,37604,36.3337935,-82.4294517
1,Clarks Court,37604,36.3320518,-82.4245462
101,Countryside Drive,37604,36.3331946,-82.4274851
2085,Sawyers Pond Drive,37604,36.3334180,-82.4240908
606,Claude Simmons Road,37604,36.3334211,-82.4230317
4,Windlesham Court,37604,36.3341398,-82.4279333
108,Strawberry Field Drive,37604,36.3324534,-82.4257714
105,Strawberry Field Drive,37604,36.3317269,-82.4254332
2357,Sawyers Pond Drive,37604,36.3346321,-82.4284035
2076,Sawyers Pond Drive,37604,36.3338581,-82.4238728
6,Clarks Court,37604,36.3326165,-82.4249982
2104,Sawyers Pond Drive,37604,36.3340107,-82.4241077
6,Strawflower Place,37604,36.3326452,-82.4298504
209,Strawberry Field Drive,37604,36.3335577,-82.4290931
406,Shade Tree Way,37604,36.3356103,-82.4327629
110,Strawberry Field Drive,37604,36.3325774,-82.4261831
2373,Sawyers Pond Drive,37604,36.3347940,-82.4288784
212,Strawberry Field Drive,37604,36.3344504,-82.4293796
7,Strawflower Place,37604,36.3329844,-82.4296470
417,Shade Tree Way,37604,36.3339208,-82.4339847
101,Strawberry Field Drive,37604,36.3315291,-82.4246697
2059,Sawyers Pond Drive,37604,36.3333728,-82.4237701
2131,Sawyers Pond Drive,37604,36.3339157,-82.4248630
2380,Sawyers Pond Drive,37604,36.3353625,-82.4284756
203,Strawberry Field Drive,37604,36.3328482,-82.4280474
2320,Sawyers Pond Drive,37604,36.3350257,-82.4276517
210,Strawberry Field Drive,37604,36.3342816,-82.4290924
300,Berry Patch Lane,37604,36.3341500,-82.4322415
214,Strawberry Field Drive,37604,36.3346213,-82.4297797
2154,Sawyers Pond Drive,37604,36.3345506,-82.4247181
301,Berry Patch Lane,37604,36.3335025,-82.4325885
219,Strawberry Field Drive,37604,36.3344937,-82.4306841
112,Strawberry Field Drive,37604,36.3327156,-82.4265695
10,Strawflower Place,37604,36.3334353,-82.4308676
1,Green Leaf Court,37604,36.3333073,-82.4264454
2263,Sawyers Pond Drive,37604,36.3346712,-82.4265617
416,Shade Tree Way,37604,36.3342135,-82.4345125
104,Sugar Mill Drive,37604,36.3324039,-82.4292482
2172,Sawyers Pond Drive,37604,36.3347399,-82.4249818
102,Sugar Mill Drive,37604,36.3326878,-82.4289121
2,Green Leaf Court,37604,36.3329983,-82.4258982
2190,Sawyers Pond Drive,37604,36.3348941,-82.4253197
109,Countryside Drive,37604,36.3342920,-82.4261415
2,Windlesham Court,37604,36.3343207,-82.4272352
115,Strawberry Field Drive,37604,36.3324141,-82.4273161
103,Strawberry Field Drive,37604,36.3316174,-82.4250361
106,Countryside Drive,37604,36.3337044,-82.4259866
410,Shade Tree Way,37604,36.3350809,-82.4334331
107,Strawberry Field Drive,37604,36.3318395,-82.4258234
3,Windlesham Court,37604,36.3340097,-82.4273654
105,Brooke Green Drive,37604,36.3357343,-82.4310687
208,Strawberry Field Drive,37604,36.3340538,-82.4287752
202,Strawberry Field Drive,37604,36.3334437,-82.4277898
7,Clarks Court,37604,36.3323200,-82.4252898
3,Strawflower Place,37604,36.3329656,-82.4310842
2266,Sawyers Pond Drive,37604,36.3352316,-82.4268355
1,Strawflower Place,37604,36.3332790,-82.4320622
303,Berry Patch Lane,37604,36.3337151,-82.4328962
12,Strawflower Place,37604,36.3337808,-82.4315991
215,Strawberry Field Drive,37604,36.3341939,-82.4300281
2050,Sawyers Pond Drive,37604,36.3338015,-82.4235335
2115,Sawyers Pond Drive,37604,36.3337397,-82.4246389
413,Shade Tree Way,37604,36.3340199,-82.4332726
3,Clarks Court,37604,36.3325552,-82.4240490
11,Strawflower Place,37604,36.3335994,-82.4311996
5,Clarks Court,37604,36.3329052,-82.4247764
2147,Sawyers Pond Drive,37604,36.3340896,-82.4251153
8,Strawflower Place,37604,36.3332003,-82.4300601
5,Windlesham Court,37604,36.3345414,-82.4280641
9,Strawflower Place,37604,36.3333230,-82.4304738
205,Strawberry Field Drive,37604,36.3331481,-82.4285000
116,Sterling Springs Drive,37604,36.3382478,-82.4228449
215,Sterling Springs Drive,37604,36.3374455,-82.4256304
9,Carriage Court,37604,36.3366091,-82.4203530
111,Sterling Springs Drive,37604,36.3363172,-82.4235367
108,Surrey Lane,37604,36.3396560,-82.4230421
103,Surrey Lane,37604,36.3398876,-82.4245081
21,Carriage Court,37604,36.3387752,-82.4228096
107,Surrey Lane,37604,36.3402181,-82.4238244
210,Sterling Springs Drive,37604,36.3402386,-82.4253508
105,Sterling Springs Drive,37604,36.3361010,-82.4225536
108,Sterling Springs Drive,37604,36.3368044,-82.4222066
16,Carriage Court,37604,36.3382454,-82.4212854
106,Surrey Lane,37604,36.3397667,-82.4235374
200,Sterling Springs Drive,37604,36.3389092,-82.4232907
652,Claude Simmons Road,37604,36.3361470,-82.4213250
207,Sterling Springs Drive,37604,36.3390152,-82.4250413
117,Sterling Springs Drive,37604,36.3376022,-82.4237894
206,Sterling Springs Drive,37604,36.3395298,-82.4247309
217,Sterling Springs Drive,37604,36.3370120,-82.4257942
230,Sterling Springs Drive,37604,36.3370666,-82.4271920
115,Sterling Springs Drive,37604,36.3369789,-82.4243081
103,Sterling Springs Drive,37604,36.3357659,-82.4222428
112,Sterling Springs Drive,37604,36.3373933,-82.4227610
10,Carriage Court,37604,36.3368013,-82.4200195
211,Sterling Springs Drive,37604,36.3383301,-82.4257006
113,Sterling Springs Drive,37604,36.3366217,-82.4238653
212,Sterling Springs Drive,37604,36.3399262,-82.4259793
15,Carriage Court,37604,36.3380085,-82.4210497
8,Carriage Court,37604,36.3367487,-82.4208053
110,Sterling Springs Drive,37604,36.3370432,-82.4224945
222,Sterling Springs Drive,37604,36.3384485,-82.4277953
12,Carriage Court,37604,36.3374317,-82.4203279
11,Carriage Court,37604,36.3371973,-82.4200284
105,Surrey Lane,37604,36.3401047,-82.4241783
5,Carriage Court,37604,36.3374992,-82.4215377
110,Surrey Lane,37604,36.3395740,-82.4223994
106,Sterling Springs Drive,37604,36.3365122,-82.4219156
205,Sterling Springs Drive,37604,36.3387511,-82.4244603
17,Carriage Court,37604,36.3385161,-82.4214830
213,Sterling Springs Drive,37604,36.3378480,-82.4257004
100,Surrey Lane,37604,36.3391072,-82.4239831
119,Sterling Springs Drive,37604,36.3380123,-82.4236244
224,Sterling Springs Drive,37604,36.3378100,-82.4264755
3,Carriage Court,37604,36.3380825,-82.4219918
226,Sterling Springs Drive,37604,36.3374227,-82.4268022
6,Carriage Court,37604,36.3372820,-82.4212721
7,Carriage Court,37604,36.3370418,-82.4210707
13,Carriage Court,37604,36.3375759,-82.4206540
20,Carriage Court,37604,36.3391915,-82.4220217
114,Sterling Springs Drive,37604,36.3378132,-82.4226821
218,Sterling Springs Drive,37604,36.3391279,-82.4267817
214,Sterling Springs Drive,37604,36.3396481,-82.4265497
109,Surrey Lane,37604,36.3401540,-82.4229532
112,Surrey Lane,37604,36.3398503,-82.4218515
201,Sterling Springs Drive,37604,36.3384574,-82.4240806
4,Carriage Court,37604,36.3377491,-82.4217828
656,Claude Simmons Road,37604,36.3364283,-82.4210549
102,Surrey Lane,37604,36.3394306,-82.4236964
114,Surrey Lane,37604,36.3400460,-82.4215295
14,Carriage Court,37604,36.3377617,-82.4208747
149,Fitness Way,37604,36.3411791,-82.4054896
107,Alexander Drive,37604,36.3321406,-82.4211386
119,Alexander Drive,37604,36.3313492,-82.4200510
127,Burnt Hickory Lane,37604,36.3344551,-82.4186581
120,Alexander Drive,37604,36.3305671,-82.4205719
18,McCormick Court,37604,36.3319366,-82.4176844
108,Burnt Hickory Lane,37604,36.3318020,-82.4192139
643,Claude Simmons Road,37604,36.3343410,-82.4204363
123,Burnt Hickory Lane,37604,36.3339692,-82.4192220
101,Alexander Drive,37604,36.3327454,-82.4219643
126,Alexander Drive,37604,36.3301188,-82.4197846
131,Alexander Drive,37604,36.3305273,-82.4184246
109,Burnt Hickory Lane,37604,36.3323250,-82.4206436
122,Burnt Hickory Lane,37604,36.3332429,-82.4180938
23,McCormick Court,37604,36.3312145,-82.4169633
110,Alexander Drive,37604,36.3310512,-82.4211643
135,Alexander Drive,37604,36.3297947,-82.4184632
113,Burnt Hickory Lane,37604,36.3331277,-82.4202279
9,McCormick Court,37604,36.3328978,-82.4167681
125,Alexander Drive,37604,36.3306415,-82.4192804
106,Alexander Drive,37604,36.3312622,-82.4219489
132,Alexander Drive,37604,36.3294498,-82.4191424
636,Claude Simmons Road,37604,36.3351148,-82.4234273
100,Alexander Drive,37604,36.3319533,-82.4224686
22,McCormick Court,37604,36.3311740,-82.4175891
106,Bent Oak Drive,37604,36.3315136,-82.4228562
19,McCormick Court,37604,36.3317766,-82.4163762
105,Alexander Drive,37604,36.3338760,-82.4207465
420,Mizpah Hills Drive,37604,36.3416930,-82.4253107
419,Mizpah Hills Drive,37604,36.3409662,-82.4252298
406,Mizpah Hills Drive,37604,36.3411788,-82.4221198
416,Mizpah Hills Drive,37604,36.3415039,-82.4244169
413,Mizpah Hills Drive,37604,36.3408341,-82.4238237
414,Mizpah Hills Drive,37604,36.3414043,-82.4240061
410,Mizpah Hills Drive,37604,36.3413355,-82.4230528
2779,Knob Creek Road,37604,36.3412250,-82.4207730
402,Mizpah Hills Drive,37604,36.3410718,-82.4212439
417,Mizpah Hills Drive,37604,36.3408917,-82.4248160
404,Mizpah Hills Drive,37604,36.3411044,-82.4217393
408,Mizpah Hills Drive,37604,36.3412389,-82.4226019
412,Mizpah Hills Drive,37604,36.3414074,-82.4234976
421,Mizpah Hills Drive,37604,36.3409871,-82.4256695
415,Mizpah Hills Drive,37604,36.3408643,-82.4243515
407,Mizpah Hills Drive,37604,36.3406492,-82.4221398
411,Mizpah Hills Drive,37604,36.3407845,-82.4232509
409,Mizpah Hills Drive,37604,36.3407048,-82.4228443
2181,Highland Falls Court,37615,36.3466417,-82.4354807
2138,Highland Falls Court,37615,36.3466266,-82.4365124
2333,Crescent Lake Place,37615,36.3482529,-82.4367405
2473,Crescent Lake Place,37615,36.3473867,-82.4342161
464,Sanctuary Court,37615,36.3486494,-82.4339557
2477,Crescent Lake Place,37615,36.3470150,-82.4343157
467,Sanctuary Court,37615,36.3479642,-82.4338622
2087,Highland Falls Court,37615,36.3468609,-82.4374291
2800,Highland Glen Court,37615,36.3450586,-82.4389674
2379,Crescent Lake Place,37615,36.3480271,-82.4360431
2674,Grand Oaks Drive,37615,36.3493798,-82.4385101
2638,Grand Oaks Drive,37615,36.3486074,-82.4387735
2032,Highland Falls Court,37615,36.3458832,-82.4370699
2760,Highland Glen Court,37615,36.3446858,-82.4389508
1870,Villa Court,37615,36.3446401,-82.4366639
2588,Grand Oaks Drive,37615,36.3480035,-82.4391185
2415,Crescent Lake Place,37615,36.3477981,-82.4353292
395,Sanctuary Court,37615,36.3489166,-82.4324437
2289,Crescent Lake Place,37615,36.3484352,-82.4379397
439,Sanctuary Court,37615,36.3481316,-82.4330404
3044,Highland Grove Drive,37615,36.3448085,-82.4408021
1817,Villa Court,37615,36.3449539,-82.4375836
2198,Highland Falls Court,37615,36.3460504,-82.4352545
2160,Highland Falls Court,37615,36.3464516,-82.4361768
2071,Highland Falls Court,37615,36.3465820,-82.4374365
1123,Reserve Place,37615,36.3437995,-82.4362914
1209,Reserve Place,37615,36.3445682,-82.4353993
3023,Highland Grove Drive,37615,36.3440621,-82.4408192
1836,Villa Court,37615,36.3443350,-82.4374867
2839,Highland Glen Court,37615,36.3455220,-82.4396516
2761,Highland Glen Court,37615,36.3444228,-82.4394513
1931,Villa Court,37615,36.3456566,-82.4365042
2353,Crescent Lake Place,37615,36.3481417,-82.4363772
2253,Crescent Lake Place,37615,36.3477374,-82.4382878
1944,Villa Court,37615,36.3457730,-82.4359076
1912,Villa Court,37615,36.3451785,-82.4361737
2966,Highland Grove Drive,37615,36.3438130,-82.4399016
2612,Grand Oaks Drive,37615,36.3482793,-82.4389362
2199,Highland Falls Court,37615,36.3462597,-82.4350075
2111,Highland Falls Court,37615,36.3471470,-82.4367759
2129,Highland Falls Court,37615,36.3470617,-82.4364698
2097,Highland Falls Court,37615,36.3470768,-82.4371661
1913,Villa Court,37615,36.3454617,-82.4366407
1883,Villa Court,37615,36.3451198,-82.4369818
1233,Reserve Place,37615,36.3448759,-82.4351167
1940,Villa Court,37615,36.3454752,-82.4356916
2295,Crescent Lake Place,37615,36.3484775,-82.4375119
2182,Highland Falls Court,37615,36.3463148,-82.4358792
2195,Highland Falls Court,37615,36.3465306,-82.4351830
205,Hays Farms Court,37615,36.3490411,-82.4355391
2275,Crescent Lake Place,37615,36.3481308,-82.4382084
2388,Crescent Lake Place,37615,36.3475418,-82.4359949
2660,Grand Oaks Drive,37615,36.3489388,-82.4385669
2545,Grand Oaks Drive,37615,36.3477916,-82.4402913
3121,Highland Grove Court,37615,36.3451776,-82.4406963
1839,Villa Court,37615,36.3448921,-82.4372710
2562,Grand Oaks Drive,37615,36.3477141,-82.4393041
1930,Villa Court,37615,36.3453053,-82.4359970
2056,Highland Falls Court,37615,36.3463118,-82.4368741
2229,Crescent Lake Place,37615,36.3474849,-82.4384972
1279,Reserve Place,37615,36.3454198,-82.4345996
2476,Crescent Lake Place,37615,36.3468631,-82.4346659
2042,Highland Falls Court,37615,36.3460619,-82.4368981
2439,Crescent Lake Place,37615,36.3476583,-82.4349673
1848,Villa Court,37615,36.3443195,-82.4371644
2194,Highland Falls Court,37615,36.3461543,-82.4356291
2163,Highland Falls Court,37615,36.3468401,-82.4358335
2364,Crescent Lake Place,37615,36.3476157,-82.4363759
2311,Crescent Lake Place,37615,36.3484138,-82.4371647
1943,Villa Court,37615,36.3458311,-82.4363192
2399,Crescent Lake Place,37615,36.3479282,-82.4356751
3016,Highland Grove Drive,37615,36.3444741,-82.4404544
206,Hays Farms Court,37615,36.3491395,-82.4365926
1183,Reserve Place,37615,36.3443070,-82.4356772
2432,Crescent Lake Place,37615,36.3472688,-82.4353056
2846,Highland Glen Court,37615,36.3459153,-82.4391630
2701,Carroll Creek Road,37615,36.3437948,-82.4352607
2657,Grand Oaks Drive,37615,36.3494744,-82.4399727
2450,Crescent Lake Place,37615,36.3470846,-82.4349912
3105,Highland Grove Court,37615,36.3456026,-82.4405160
1901,Villa Court,37615,36.3453003,-82.4368139
2453,Crescent Lake Place,37615,36.3475355,-82.4345991
1818,Villa Court,37615,36.3444085,-82.4377663
2147,Highland Falls Court,37615,36.3469288,-82.4361409
1886,Villa Court,37615,36.3448220,-82.4365030
2785,Highland Glen Court,37615,36.3447972,-82.4396671
2412,Crescent Lake Place,37615,36.3474063,-82.4356633
1257,Reserve Place,37615,36.3451406,-82.4348634
2994,Highland Grove Drive,37615,36.3441716,-82.4401151
2022,Highland Falls Court,37615,36.3457803,-82.4374418
3177,Highland Grove Court,37615,36.3443502,-82.4411962
1900,Villa Court,37615,36.3450014,-82.4363462
2811,Highland Glen Court,37615,36.3451789,-82.4396634
2625,Grand Oaks Drive,37615,36.3488327,-82.4395602
2023,Highland Falls Court,37615,36.3461968,-82.4374338
1385,Reserve Place,37615,36.3465732,-82.4335234
1409,Reserve Place,37615,36.3470225,-82.4329295
2108,Highland Falls Court,37615,36.3466778,-82.4369081
1858,Villa Court,37615,36.3444579,-82.4368388
1054,Waterbrooke Lane,37604,36.3416600,-82.3939587
1141,Waterbrooke Lane,37604,36.3401447,-82.3968136
1118,Waterbrooke Lane,37604,36.3409804,-82.3943884
1031,Waterbrooke Lane,37604,36.3420905,-82.3955121
1040,Waterbrooke Lane,37604,36.3422506,-82.3944530
1037,Waterbrooke Lane,37604,36.3425030,-82.3950512
1029,Waterbrooke Lane,37604,36.3419802,-82.3956982
1023,Waterbrooke Lane,37604,36.3416032,-82.3961839
1126,Waterbrooke Lane,37604,36.3406896,-82.3952806
1110,Waterbrooke Lane,37604,36.3408825,-82.3934586
1050,Waterbrooke Lane,37604,36.3419525,-82.3942027
1107,Waterbrooke Lane,37604,36.3407591,-82.3927900
1139,Waterbrooke Lane,37604,36.3400364,-82.3965999
1143,Waterbrooke Lane,37604,36.3402793,-82.3969825
1035,Waterbrooke Lane,37604,36.3423192,-82.3951768
1015,Waterbrooke Lane,37604,36.3411189,-82.3968732
1124,Waterbrooke Lane,37604,36.3407733,-82.3950586
1133,Waterbrooke Lane,37604,36.3400537,-82.3960104
1038,Waterbrooke Lane,37604,36.3421259,-82.3946506
1116,Waterbrooke Lane,37604,36.3409536,-82.3941655
1018,Waterbrooke Lane,37604,36.3408536,-82.3962893
1028,Waterbrooke Lane,37604,36.3414012,-82.3953054
1122,Waterbrooke Lane,37604,36.3408930,-82.3948351
1131,Waterbrooke Lane,37604,36.3401177,-82.3958229
1119,Waterbrooke Lane,37604,36.3403729,-82.3944263
1132,Waterbrooke Lane,37604,36.3405622,-82.3959439
1121,Waterbrooke Lane,37604,36.3403285,-82.3946432
1014,Waterbrooke Lane,37604,36.3405578,-82.3965549
1022,Waterbrooke Lane,37604,36.3411205,-82.3959763
1060,Waterbrooke Lane,37604,36.3412534,-82.3934757
1058,Waterbrooke Lane,37604,36.3413808,-82.3936516
1039,Waterbrooke Lane,37604,36.3426283,-82.3948851
1059,Waterbrooke Lane,37604,36.3416758,-82.3931317
1057,Waterbrooke Lane,37604,36.3417759,-82.3932981
1030,Waterbrooke Lane,37604,36.3415350,-82.3951189
1051,Waterbrooke Lane,37604,36.3422469,-82.3937351
1034,Waterbrooke Lane,37604,36.3418476,-82.3949183
1053,Waterbrooke Lane,37604,36.3420848,-82.3935987
1056,Waterbrooke Lane,37604,36.3415068,-82.3937765
1115,Waterbrooke Lane,37604,36.3404389,-82.3939520
1043,Waterbrooke Lane,37604,36.3427867,-82.3944278
1130,Waterbrooke Lane,37604,36.3406013,-82.3957246
1025,Waterbrooke Lane,37604,36.3416933,-82.3959955
1055,Waterbrooke Lane,37604,36.3419096,-82.3934748
1032,Waterbrooke Lane,37604,36.3416813,-82.3950180
1036,Waterbrooke Lane,37604,36.3419951,-82.3948075
1047,Waterbrooke Lane,37604,36.3425303,-82.3940380
1129,Waterbrooke Lane,37604,36.3401796,-82.3955764
1101,Waterbrooke Lane,37604,36.3414019,-82.3927937
1045,Waterbrooke Lane,37604,36.3426416,-82.3941904
1017,Waterbrooke Lane,37604,36.3412149,-82.3966522
1117,Waterbrooke Lane,37604,36.3404179,-82.3941967
1111,Waterbrooke Lane,37604,36.3404393,-82.3934727
1127,Waterbrooke Lane,37604,36.3401855,-82.3953218
1113,Waterbrooke Lane,37604,36.3404640,-82.3937323
1020,Waterbrooke Lane,37604,36.3409839,-82.3961435
1103,Waterbrooke Lane,37604,36.3411878,-82.3927143
1026,Waterbrooke Lane,37604,36.3413127,-82.3955749
1033,Waterbrooke Lane,37604,36.3421897,-82.3953382
1105,Waterbrooke Lane,37604,36.3409743,-82.3927040
1125,Waterbrooke Lane,37604,36.3402179,-82.3950829
1104,Waterbrooke Lane,37604,36.3411194,-82.3932864
1019,Waterbrooke Lane,37604,36.3413019,-82.3964894
1027,Waterbrooke Lane,37604,36.3418561,-82.3958416
1049,Waterbrooke Lane,37604,36.3424081,-82.3938744
1016,Waterbrooke Lane,37604,36.3407307,-82.3964506
1128,Waterbrooke Lane,37604,36.3406693,-82.3955018
1123,Waterbrooke Lane,37604,36.3402861,-82.3948799
1041,Waterbrooke Lane,37604,36.3427692,-82.3946974
1120,Waterbrooke Lane,37604,36.3409578,-82.3946081
1052,Waterbrooke Lane,37604,36.3418043,-82.3940805
1109,Waterbrooke Lane,37604,36.3404875,-82.3931909
1112,Waterbrooke Lane,37604,36.3409035,-82.3937277
1021,Waterbrooke Lane,37604,36.3414960,-82.3963592
1024,Waterbrooke Lane,37604,36.3412326,-82.3957977
1114,Waterbrooke Lane,37604,36.3409295,-82.3939468
713,Montclair Drive,37604,36.3421241,-82.3900287
710,Montclair Drive,37604,36.3426056,-82.3901981
707,Willmar Street,37604,36.3444704,-82.3921695
715,Montclair Drive,37604,36.3419490,-82.3902873
704,Judith Drive,37604,36.3435809,-82.3906501
705,Judith Drive,37604,36.3434105,-82.3900487
706,Judith Drive,37604,36.3433565,-82.3908985
706,Montclair Drive,37604,36.3429842,-82.3896869
714,Montclair Drive,37604,36.3422232,-82.3907300
702,Judith Drive,37604,36.3437621,-82.3904025
713,Judith Drive,37604,36.3425597,-82.3910523
705,Clamar Street,37604,36.3439026,-82.3910469
707,Clamar Street,37604,36.3437427,-82.3912538
717,Montclair Drive,37604,36.3417998,-82.3905178
602,Judith Drive,37604,36.3442944,-82.3897057
708,Montclair Drive,37604,36.3428303,-82.3899091
716,Willmar Street,37604,36.3439364,-82.3936735
704,Clamar Street,37604,36.3442549,-82.3914855
717,Judith Drive,37604,36.3422235,-82.3916055
711,Judith Drive,37604,36.3428328,-82.3908229
703,Clamar Street,37604,36.3440972,-82.3907894
719,Judith Drive,37604,36.3420554,-82.3918835
718,Montclair Drive,37604,36.3418088,-82.3913233
2605,Avondale Drive,37604,36.3424887,-82.3931674
2703,Steven Drive,37604,36.3442652,-82.3905246
2701,Avondale Drive,37604,36.3426393,-82.3934843
708,Clamar Street,37604,36.3439338,-82.3919827
2603,Avondale Drive,37604,36.3422236,-82.3929807
708,Judith Drive,37604,36.3431926,-82.3911197
714,Judith Drive,37604,36.3426617,-82.3919128
711,Clamar Street,37604,36.3431286,-82.3920842
715,Judith Drive,37604,36.3424146,-82.3913922
2606,Avondale Drive,37604,36.3427853,-82.3926918
700,Judith Drive,37604,36.3439710,-82.3901430
716,Montclair Drive,37604,36.3420512,-82.3909789
703,Judith Drive,37604,36.3435572,-82.3897839
2703,Avondale Drive,37604,36.3428756,-82.3936132
717,Willmar Street,37604,36.3437147,-82.3931403
709,Judith Drive,37604,36.3429052,-82.3904848
2604,Avondale Drive,37604,36.3425864,-82.3923909
712,Judith Drive,37604,36.3428275,-82.3916347
710,Judith Drive,37604,36.3429976,-82.3914083
707,Judith Drive,37604,36.3431998,-82.3903570
2705,Avondale Drive,37604,36.3431111,-82.3938845
711,Willmar Street,37604,36.3440680,-82.3926348
715,Willmar Street,37604,36.3438915,-82.3929345
2700,Avondale Drive,37604,36.3430800,-82.3930077
709,Willmar Street,37604,36.3442839,-82.3924107
711,Montclair Drive,37604,36.3423156,-82.3897637
713,Clamar Street,37604,36.3430119,-82.3923588
712,Montclair Drive,37604,36.3424336,-82.3904439
706,Clamar Street,37604,36.3440999,-82.3917419
718,Willmar Street,37604,36.3437716,-82.3938891
712,Clamar Street,37604,36.3435467,-82.3925041
2601,Avondale Drive,37604,36.3420056,-82.3926984
702,Clamar Street,37604,36.3445010,-82.3912294
714,Clamar Street,37604,36.3433184,-82.3927300
714,Willmar Street,37604,36.3441432,-82.3934034
2702,Avondale Drive,37604,36.3432664,-82.3932642
2602,Avondale Drive,37604,36.3424370,-82.3921662
7,Willmar Circle,37604,36.3444754,-82.3937391
2503,Avondale Drive,37604,36.3416677,-82.3923790
2704,Avondale Drive,37604,36.3434654,-82.3934956
710,Clamar Street,37604,36.3437254,-82.3922432
2305,Larkspur Drive,37604,36.3417511,-82.3856475
717,Ferndale Road,37604,36.3409496,-82.3896069
2300,Rambling Road,37604,36.3409683,-82.3862334
708,Ferndale Road,37604,36.3420191,-82.3890014
719,Ferndale Road,37604,36.3407536,-82.3898559
2303,Avondale Drive,37604,36.3394833,-82.3895647
2306,Avondale Drive,37604,36.3400615,-82.3894997
2402,Avondale Drive,37604,36.3411989,-82.3907477
713,Rambling Road,37604,36.3393855,-82.3876626
708,Rambling Road,37604,36.3397692,-82.3884154
2309,Camelot Circle,37604,36.3390653,-82.3908265
2403,Rambling Road,37604,36.3430288,-82.3881607
600,Woodhaven Drive,37604,36.3397861,-82.3856357
604,Woodhaven Drive,37604,36.3392437,-82.3860724
2307,Larkspur Drive,37604,36.3422117,-82.3856862
2405,Rambling Road,37604,36.3432950,-82.3884494
710,Rambling Road,37604,36.3395185,-82.3887141
2311,Larkspur Drive,37604,36.3427486,-82.3861804
2405,Larkspur Drive,37604,36.3438853,-82.3875075
2403,Larkspur Drive,37604,36.3436758,-82.3872657
2308,Camelot Circle,37604,36.3396295,-82.3906308
707,Rambling Road,37604,36.3396659,-82.3872852
2311,Rambling Road,37604,36.3419948,-82.3870487
2302,Avondale Drive,37604,36.3396971,-82.3890389
2407,Larkspur Drive,37604,36.3441243,-82.3877212
2309,Avondale Drive,37604,36.3400587,-82.3903138
2400,Larkspur Drive,37604,36.3438562,-82.3867167
705,Rambling Road,37604,36.3399114,-82.3867805
4,Sundale Circle,37604,36.3412264,-82.3877447
700,Rambling Road,37604,36.3405939,-82.3871526
2406,Rambling Road,37604,36.3438005,-82.3882442
715,Rambling Road,37604,36.3391728,-82.3883630
7,Rambling Circle,37604,36.3399724,-82.3881967
2205,Sundale Road,37604,36.3403785,-82.3862760
2312,Rambling Road,37604,36.3426001,-82.3869229
2313,Avondale Drive,37604,36.3404725,-82.3907676
713,Ferndale Road,37604,36.3413410,-82.3890984
719,Montclair Drive,37604,36.3415644,-82.3907384
2305,Avondale Drive,37604,36.3396658,-82.3898509
5,Rambling Circle,37604,36.3402589,-82.3889287
703,Montclair Drive,37604,36.3430591,-82.3888089
707,Montclair Drive,37604,36.3426869,-82.3893070
601,Ferndale Road,37604,36.3428467,-82.3870960
700,Montclair Drive,37604,36.3436209,-82.3888838
3,Rambling Circle,37604,36.3407068,-82.3884389
2320,Camelot Circle,37604,36.3393128,-82.3922592
2405,Avondale Drive,37604,36.3410010,-82.3915267
2308,Avondale Drive,37604,36.3403074,-82.3897966
2310,Camelot Circle,37604,36.3398080,-82.3909004
720,Ferndale Road,37604,36.3409099,-82.3905036
2316,Camelot Circle,37604,36.3397032,-82.3918418
2309,Rambling Road,37604,36.3416820,-82.3868648
702,Montclair Drive,37604,36.3434006,-82.3891460
2306,Camelot Circle,37604,36.3394364,-82.3903734
800,Rambling Road,37604,36.3391977,-82.3892086
721,Ferndale Road,37604,36.3405800,-82.3901295
715,Ferndale Road,37604,36.3411555,-82.3893527
705,Ferndale Road,37604,36.3419456,-82.3881758
706,Ferndale Road,37604,36.3422089,-82.3887225
2304,Camelot Circle,37604,36.3392320,-82.3901456
2322,Camelot Circle,37604,36.3390940,-82.3925152
2315,Camelot Circle,37604,36.3391311,-82.3917610
2,Breakaway Trail,37604,36.3402349,-82.3922556
1,Rambling Circle,37604,36.3402065,-82.3877777
2303,Larkspur Drive,37604,36.3414260,-82.3856813
2404,Rambling Road,37604,36.3436094,-82.3879503
705,Montclair Drive,37604,36.3428483,-82.3890706
2315,Larkspur Drive,37604,36.3431130,-82.3866637
5,Sundale Circle,37604,36.3409870,-82.3872766
2500,Rambling Road,37604,36.3440408,-82.3885113
2313,Camelot Circle,37604,36.3393118,-82.3914537
2313,Larkspur Drive,37604,36.3429327,-82.3864019
721,Montclair Drive,37604,36.3413796,-82.3910264
2312,Camelot Circle,37604,36.3398433,-82.3912092
714,Ferndale Road,37604,36.3414443,-82.3897486
709,Montclair Drive,37604,36.3425142,-82.3895262
2314,Camelot Circle,37604,36.3398694,-82.3915814
710,Ferndale Road,37604,36.3418352,-82.3892514
2400,Rambling Road,37604,36.3431565,-82.3874346
704,Ferndale Road,37604,36.3423881,-82.3884684
3,Sundale Circle,37604,36.3416123,-82.3878462
711,Ferndale Road,37604,36.3415330,-82.3888351
716,Ferndale Road,37604,36.3412794,-82.3899731
2311,Avondale Drive,37604,36.3402363,-82.3905692
709,Ferndale Road,37604,36.3417577,-82.3885120
2402,Larkspur Drive,37604,36.3440617,-82.3869411
702,Rambling Road,37604,36.3404136,-82.3874598
2311,Camelot Circle,37604,36.3393754,-82.3911196
2318,Camelot Circle,37604,36.3394943,-82.3920784
701,Ferndale Road,37604,36.3424876,-82.3875530
2310,Rambling Road,37604,36.3423508,-82.3866383
2304,Avondale Drive,37604,36.3399098,-82.3892911
2307,Rambling Road,37604,36.3412837,-82.3868291
703,Rambling Road,37604,36.3401117,-82.3865519
2402,Rambling Road,37604,36.3433759,-82.3877710
2304,Rambling Road,37604,36.3415154,-82.3862527
2307,Avondale Drive,37604,36.3398282,-82.3900705
2,Rambling Circle,37604,36.3405163,-82.3880499
2301,Larkspur Drive,37604,36.3410882,-82.3854853
2309,Larkspur Drive,37604,36.3425187,-82.3859226
2302,Rambling Road,37604,36.3412207,-82.3862364
2501,Avondale Drive,37604,36.3413426,-82.3918439
718,Ferndale Road,37604,36.3411051,-82.3902247
704,Montclair Drive,37604,36.3431809,-82.3894208
2401,Larkspur Drive,37604,36.3434709,-82.3870337
2308,Rambling Road,37604,36.3420970,-82.3863593
712,Ferndale Road,37604,36.3416450,-82.3895087
700,Ferndale Road,37604,36.3428002,-82.3879276
703,Ferndale Road,37604,36.3421930,-82.3879008
702,Ferndale Road,37604,36.3425950,-82.3882048
906,Grady Drive,37604,36.3384564,-82.3911513
2400,Camelot Circle,37604,36.3386717,-82.3927906
2201,Camelot Circle,37604,36.3374447,-82.3894018
2305,Camelot Circle,37604,36.3387566,-82.3903822
2214,Knob Creek Road,37604,36.3376180,-82.3920593
902,Grady Drive,37604,36.3382036,-82.3905135
915,Grady Drive,37604,36.3380429,-82.3915286
2202,Knob Creek Road,37604,36.3370961,-82.3900801
909,Grady Drive,37604,36.3377402,-82.3906520
2208,Camelot Circle,37604,36.3381747,-82.3887440
2301,Camelot Circle,37604,36.3384148,-82.3899445
2403,Camelot Circle,37604,36.3381751,-82.3923596
2210,Camelot Circle,37604,36.3383413,-82.3890785
2103,Camelot Circle,37604,36.3371462,-82.3895234
904,Grady Drive,37604,36.3383631,-82.3908836
903,Grady Drive,37604,36.3375680,-82.3896980
2216,Knob Creek Road,37604,36.3377621,-82.3923231
2307,Camelot Circle,37604,36.3389440,-82.3906161
905,Grady Drive,37604,36.3374821,-82.3900234
913,Grady Drive,37604,36.3379350,-82.3912271
2303,Camelot Circle,37604,36.3385863,-82.3901786
2210,Knob Creek Road,37604,36.3373874,-82.3913964
2402,Camelot Circle,37604,36.3383731,-82.3929469
2204,Knob Creek Road,37604,36.3371742,-82.3904440
2401,Camelot Circle,37604,36.3384293,-82.3922758
2208,Knob Creek Road,37604,36.3373221,-82.3911042
2317,Camelot Circle,37604,36.3388498,-82.3920515
2212,Knob Creek Road,37604,36.3374833,-82.3917338
2101,Camelot Circle,37604,36.3368962,-82.3897786
2,Avondale Circle,37604,36.3385563,-82.3885610
910,Grady Drive,37604,36.3387593,-82.3917165
2404,Camelot Circle,37604,36.3381382,-82.3930916
2300,Camelot Circle,37604,36.3389468,-82.3896692
907,Grady Drive,37604,36.3376527,-82.3903465
2206,Knob Creek Road,37604,36.3372308,-82.3907753
900,Grady Drive,37604,36.3381167,-82.3901405
803,Rambling Road,37604,36.3385760,-82.3893233
1,Avondale Circle,37604,36.3388545,-82.3887886
2405,Camelot Circle,37604,36.3379352,-82.3925437
2205,Camelot Circle,37604,36.3378326,-82.3892428
911,Grady Drive,37604,36.3378469,-82.3909210
1000,Grace Drive,37604,36.3367523,-82.3915432
1018,Somerset Drive,37604,36.3344102,-82.3928197
1025,Estate Drive,37604,36.3348182,-82.3959514
1026,Somerset Drive,37604,36.3333765,-82.3932035
1912,Forest View Drive,37604,36.3322433,-82.3940936
1032,Greenfield Drive,37604,36.3329213,-82.3947411
1017,Somerset Drive,37604,36.3344465,-82.3921704
1205,Oakdell Court,37604,36.3320244,-82.3957726
2202,Camelot Circle,37604,36.3374460,-82.3886603
1034,Grace Drive,37604,36.3329564,-82.3928310
1014,Estate Drive,37604,36.3364166,-82.3951951
1033,Grace Drive,37604,36.3323259,-82.3924595
2200,Camelot Circle,37604,36.3371244,-82.3888505
7,Estate Court,37604,36.3354263,-82.3944085
2315,Knob Creek Road,37604,36.3377328,-82.3955213
1904,Forest View Drive,37604,36.3318559,-82.3928787
1202,Oakdell Court,37604,36.3324295,-82.3961748
1016,Grace Drive,37604,36.3342099,-82.3916998
1025,Grace Drive,37604,36.3331125,-82.3914601
1020,Grace Drive,37604,36.3336241,-82.3918595
601,Med Tech Parkway,37604,36.3354817,-82.3982345
1028,Somerset Drive,37604,36.3331005,-82.3933401
1025,Greenfield Drive,37604,36.3335773,-82.3938071
2206,Camelot Circle,37604,36.3378487,-82.3884379
2201,Knob Creek Road,37604,36.3363460,-82.3901572
1905,Knob Creek Road,37604,36.3320462,-82.3896403
1030,Estate Drive,37604,36.3348179,-82.3966288
1024,Somerset Drive,37604,36.3336490,-82.3930977
1023,Grace Drive,37604,36.3334485,-82.3913517
2311,Knob Creek Road,37604,36.3381591,-82.3948477
1013,Somerset Drive,37604,36.3350310,-82.3919820
2,Estate Court,37604,36.3367121,-82.3938111
1011,Estate Drive,37604,36.3362934,-82.3945430
2319,Knob Creek Road,37604,36.3378999,-82.3963579
1015,Grace Drive,37604,36.3345803,-82.3908864
1007,Somerset Drive,37604,36.3360379,-82.3920486
2113,Valley Lane,37604,36.3365417,-82.3884298
12,Estate Court,37604,36.3362323,-82.3930563
1018,Grace Drive,37604,36.3339409,-82.3917474
100,Technology Lane,37604,36.3367624,-82.3978274
1022,Estate Drive,37604,36.3356130,-82.3959294
1908,Forest View Drive,37604,36.3320381,-82.3934715
1015,Estate Drive,37604,36.3359280,-82.3948778
2105,Knob Creek Road,37604,36.3349774,-82.3900244
1204,Oakdell Court,37604,36.3321792,-82.3962764
2211,Knob Creek Road,37604,36.3368955,-82.3917882
1024,Greenfield Drive,37604,36.3339209,-82.3943259
1910,Forest View Drive,37604,36.3321489,-82.3937780
1012,Somerset Drive,37604,36.3352731,-82.3925644
1006,Grace Drive,37604,36.3356677,-82.3914474
2217,Knob Creek Road,37604,36.3373058,-82.3926828
1009,Estate Drive,37604,36.3365652,-82.3943220
1010,Somerset Drive,37604,36.3355854,-82.3925708
1027,Greenfield Drive,37604,36.3332824,-82.3939571
1026,Estate Drive,37604,36.3352328,-82.3963217
1011,Somerset Drive,37604,36.3354191,-82.3919829
1022,Grace Drive,37604,36.3333906,-82.3919806
1011,Grace Drive,37604,36.3351663,-82.3908914
1014,Somerset Drive,37604,36.3350336,-82.3926452
2215,Knob Creek Road,37604,36.3369987,-82.3921069
6,Estate Court,37604,36.3358382,-82.3943436
1023,Greenfield Drive,37604,36.3338716,-82.3936484
2219,Knob Creek Road,37604,36.3373914,-82.3930201
1012,Grace Drive,37604,36.3347825,-82.3915043
1036,Estate Drive,37604,36.3344358,-82.3970588
8,Estate Court,37604,36.3353483,-82.3939788
1006,Somerset Drive,37604,36.3361557,-82.3926340
2101,Knob Creek Road,37604,36.3342702,-82.3900776
140,Technology Lane,37604,36.3356062,-82.3968693
2103,Knob Creek Road,37604,36.3346079,-82.3901782
2102,Camelot Circle,37604,36.3368812,-82.3889965
1004,Somerset Drive,37604,36.3365933,-82.3927398
1009,Grace Drive,37604,36.3354641,-82.3908527
1007,Grace Drive,37604,36.3357907,-82.3909248
1114,Oakdell Court,37604,36.3339252,-82.3959197
1035,Grace Drive,37604,36.3324158,-82.3927670
1019,Somerset Drive,37604,36.3341154,-82.3922324
1020,Estate Drive,37604,36.3357926,-82.3957109
5,Estate Court,37604,36.3360702,-82.3941698
1018,Estate Drive,37604,36.3360035,-82.3955122
1023,Somerset Drive,37604,36.3335569,-82.3925061
1005,Grace Drive,37604,36.3361325,-82.3910158
2107,Knob Creek Road,37604,36.3352486,-82.3900111
1021,Estate Drive,37604,36.3353408,-82.3954659
1028,Greenfield Drive,37604,36.3334187,-82.3945687
1021,Somerset Drive,37604,36.3338416,-82.3923938
1024,Grace Drive,37604,36.3331008,-82.3920703
1014,Grace Drive,37604,36.3345039,-82.3915778
1206,Oakdell Court,37604,36.3319390,-82.3963444
1024,Estate Drive,37604,36.3354042,-82.3960971
1198,Greenfield Drive,37604,36.3322861,-82.3949220
1914,Forest View Drive,37604,36.3323425,-82.3943970
1112,Oakdell Court,37604,36.3337168,-82.3956200
1008,Estate Drive,37604,36.3370012,-82.3946323
3,Deerpark Lane,37604,36.3344937,-82.3953793
1030,Grace Drive,37604,36.3327853,-82.3922370
5,Deerpark Lane,37604,36.3345331,-82.3947455
1906,Forest View Drive,37604,36.3319398,-82.3931524
1031,Grace Drive,37604,36.3322511,-82.3920481
1120,Oakdell Court,37604,36.3336774,-82.3951050
1002,Somerset Drive,37604,36.3369647,-82.3927192
6,Deerpark Lane,37604,36.3349198,-82.3945567
1108,Oakdell Court,37604,36.3331816,-82.3958399
1110,Oakdell Court,37604,36.3335156,-82.3956637
906,Sunset Drive,37604,36.3326547,-82.3904340
1017,Grace Drive,37604,36.3343093,-82.3909862
1103,Woodside Drive,37604,36.3321389,-82.3908282
1006,Estate Drive,37604,36.3372516,-82.3944333
1001,Estate Drive,37604,36.3375376,-82.3934322
1200,Greenfield Drive,37604,36.3320521,-82.3950030
1002,Grace Drive,37604,36.3364165,-82.3916358
1008,Grace Drive,37604,36.3353589,-82.3914307
2109,Knob Creek Road,37604,36.3354041,-82.3900785
3,Estate Court,37604,36.3365143,-82.3939089
1013,Estate Drive,37604,36.3361202,-82.3946958
15,Estate Court,37604,36.3370305,-82.3933452
1196,Greenfield Drive,37604,36.3325568,-82.3948434
1010,Grace Drive,37604,36.3350638,-82.3914573
1029,Grace Drive,37604,36.3325610,-82.3916717
1019,Grace Drive,37604,36.3339679,-82.3910841
1039,Grace Drive,37604,36.3326607,-82.3935165
1016,Estate Drive,37604,36.3362092,-82.3953714
1007,Estate Drive,37604,36.3368471,-82.3940653
1013,Grace Drive,37604,36.3348825,-82.3908824
2300,Knob Creek Road,37604,36.3385115,-82.3933938
1203,Oakdell Court,37604,36.3323067,-82.3956679
1032,Grace Drive,37604,36.3328379,-82.3925129
716,Woodhaven Drive,37604,36.3369684,-82.3883348
1017,Estate Drive,37604,36.3357258,-82.3950805
1003,Somerset Drive,37604,36.3366352,-82.3921632
1009,Somerset Drive,37604,36.3357088,-82.3920078
1027,Grace Drive,37604,36.3328269,-82.3915630
2,Deerpark Lane,37604,36.3345617,-82.3956712
1008,Somerset Drive,37604,36.3358268,-82.3926109
1200,Oakdell Court,37604,36.3326795,-82.3960883
2007,Almeda Drive,37604,36.3347225,-82.3939736
14,Estate Court,37604,36.3367094,-82.3932300
1016,Somerset Drive,37604,36.3346505,-82.3927554
1005,Somerset Drive,37604,36.3363509,-82.3920564
4,Deerpark Lane,37604,36.3344568,-82.3950732
1025,Somerset Drive,37604,36.3332950,-82.3926498
1021,Grace Drive,37604,36.3337035,-82.3912220
1022,Somerset Drive,37604,36.3339405,-82.3929904
1004,Grace Drive,37604,36.3361527,-82.3915964
1037,Grace Drive,37604,36.3325561,-82.3931210
2319,Knob Creek Road,37604,36.3374733,-82.3963516
1012,Estate Drive,37604,36.3366251,-82.3950190
1022,Greenfield Drive,37604,36.3341498,-82.3941299
1023,Estate Drive,37604,36.3351291,-82.3956362
1026,Greenfield Drive,37604,36.3337029,-82.3944435
1010,Estate Drive,37604,36.3367999,-82.3948543
1201,Oakdell Court,37604,36.3325894,-82.3955543
4,Estate Court,37604,36.3362695,-82.3940504
1020,Somerset Drive,37604,36.3341585,-82.3929041
9,Estate Court,37604,36.3352896,-82.3934673
1028,Estate Drive,37604,36.3350281,-82.3964843
710,Willmar Street,37604,36.3445609,-82.3930135
6,Willmar Circle,37604,36.3448874,-82.3935064
3,Avondale Circle,37604,36.3382926,-82.3881175
712,Sharon Drive,37604,36.3455708,-82.3971156
2807,Avondale Drive,37604,36.3442430,-82.3952575
820,Lizabeth Drive,37604,36.3417738,-82.3975310
705,Douglas Drive,37604,36.3454335,-82.3950420
2801,Avondale Drive,37604,36.3435089,-82.3944707
815,Lizabeth Drive,37604,36.3421049,-82.3965257
809,Lizabeth Drive,37604,36.3427238,-82.3957903
2801,Steven Drive,37604,36.3453844,-82.3919180
2811,Steven Drive,37604,36.3454890,-82.3935433
2412,Knob Creek Road,37604,36.3426783,-82.3982488
2817,Avondale Drive,37604,36.3452907,-82.3943752
4,Willmar Circle,37604,36.3451201,-82.3931748
5,Avondale Circle,37604,36.3390347,-82.3879809
708,Douglas Drive,37604,36.3454165,-82.3958536
2812,Avondale Drive,37604,36.3452269,-82.3940965
819,Lizabeth Drive,37604,36.3413940,-82.3971956
806,Lizabeth Drive,37604,36.3434268,-82.3960374
711,Sharon Drive,37604,36.3452884,-82.3966433
600,Judith Drive,37604,36.3446342,-82.3892751
810,Lizabeth Drive,37604,36.3430565,-82.3965924
2702,Steven Drive,37604,36.3446529,-82.3901977
720,Sharon Drive,37604,36.3449452,-82.3972621
2,Willmar Circle,37604,36.3451561,-82.3924650
2806,Avondale Drive,37604,36.3445200,-82.3944957
2807,Steven Drive,37604,36.3456757,-82.3928602
818,Lizabeth Drive,37604,36.3420968,-82.3973551
813,Lizabeth Drive,37604,36.3423767,-82.3963726
3,Willmar Circle,37604,36.3452159,-82.3928109
10,Willmar Circle,37604,36.3447273,-82.3926910
2706,Steven Drive,37604,36.3451206,-82.3906793
703,Douglas Drive,37604,36.3457740,-82.3946981
2808,Avondale Drive,37604,36.3446921,-82.3942116
709,Douglas Drive,37604,36.3448547,-82.3955514
816,Lizabeth Drive,37604,36.3423837,-82.3972237
2800,Steven Drive,37604,36.3453713,-82.3910742
703,Willmar Street,37604,36.3448446,-82.3916591
2803,Avondale Drive,37604,36.3437553,-82.3946586
2802,Avondale Drive,37604,36.3440870,-82.3942251
2803,Steven Drive,37604,36.3455735,-82.3922096
4,Avondale Circle,37604,36.3386252,-82.3878554
2704,Steven Drive,37604,36.3448736,-82.3904485
817,Lizabeth Drive,37604,36.3417879,-82.3967629
707,Sharon Drive,37604,36.3457728,-82.3961753
2815,Avondale Drive,37604,36.3451385,-82.3947020
807,Lizabeth Drive,37604,36.3429459,-82.3954853
821,Lizabeth Drive,37604,36.3411535,-82.3975442
711,Douglas Drive,37604,36.3446490,-82.3957755
2802,Steven Drive,37604,36.3455657,-82.3913001
707,Douglas Drive,37604,36.3451441,-82.3953408
2809,Avondale Drive,37604,36.3444503,-82.3951948
2815,Steven Drive,37604,36.3457725,-82.3941830
804,Lizabeth Drive,37604,36.3436186,-82.3956471
2809,Steven Drive,37604,36.3455748,-82.3931989
709,Sharon Drive,37604,36.3455331,-82.3964052
2805,Avondale Drive,37604,36.3440244,-82.3950544
2811,Avondale Drive,37604,36.3446606,-82.3950793
710,Sharon Drive,37604,36.3458394,-82.3968555
710,Douglas Drive,37604,36.3451859,-82.3960388
2705,Steven Drive,37604,36.3446719,-82.3909896
712,Douglas Drive,37604,36.3449453,-82.3962475
812,Lizabeth Drive,37604,36.3428477,-82.3967654
805,Lizabeth Drive,37604,36.3432375,-82.3953313
803,Lizabeth Drive,37604,36.3434584,-82.3950056
2813,Steven Drive,37604,36.3455902,-82.3938788
2806,Steven Drive,37604,36.3459325,-82.3917663
2502,Rambling Road,37604,36.3443569,-82.3887863
704,Douglas Drive,37604,36.3458887,-82.3954247
802,Lizabeth Drive,37604,36.3437993,-82.3953649
705,Willmar Street,37604,36.3446582,-82.3919014
706,Douglas Drive,37604,36.3456470,-82.3956199
2810,Avondale Drive,37604,36.3449123,-82.3939864
814,Lizabeth Drive,37604,36.3425824,-82.3970070
2804,Steven Drive,37604,36.3457426,-82.3915444
823,Lizabeth Drive,37604,36.3410577,-82.3978700
2707,Steven Drive,37604,36.3449760,-82.3913742
2813,Avondale Drive,37604,36.3448601,-82.3947802
2707,Avondale Drive,37604,36.3432854,-82.3942454
1099,Stonecrest Court,37604,36.3443739,-82.3985506
822,Lizabeth Drive,37604,36.3415885,-82.3978244
811,Lizabeth Drive,37604,36.3425855,-82.3961070
248,Denny Mill Road,37604,36.3476926,-82.4047604
610,Sharon Drive,37604,36.3472536,-82.3955615
2810,Steven Drive,37604,36.3461971,-82.3923124
600,Sharon Drive,37604,36.3486329,-82.3942002
2812,Steven Drive,37604,36.3461695,-82.3925996
601,Douglas Drive,37604,36.3476902,-82.3926879
518,Douglas Drive,37604,36.3482666,-82.3928335
516,Douglas Drive,37604,36.3484885,-82.3925124
605,Ayshire Avenue,37604,36.3479349,-82.3957303
2818,Steven Drive,37604,36.3461298,-82.3937966
602,Douglas Drive,37604,36.3479016,-82.3934603
608,Douglas Drive,37604,36.3471760,-82.3942399
609,Sharon Drive,37604,36.3472083,-82.3948822
605,Douglas Drive,37604,36.3473419,-82.3932594
602,Sharon Drive,37604,36.3483971,-82.3945958
700,Sharon Drive,37604,36.3470285,-82.3957709
2814,Steven Drive,37604,36.3461070,-82.3930566
519,Douglas Drive,37604,36.3478876,-82.3924083
700,Douglas Drive,37604,36.3463501,-82.3950028
601,Sharon Drive,37604,36.3483058,-82.3937432
5,Steven Circle,37604,36.3466748,-82.3931955
607,Sharon Drive,37604,36.3474688,-82.3946160
704,Sharon Drive,37604,36.3465282,-82.3962027
2903,Greenline Road,37604,36.3483088,-82.3953626
514,Douglas Drive,37604,36.3486890,-82.3922503
611,Douglas Drive,37604,36.3466001,-82.3939362
4,Steven Circle,37604,36.3469847,-82.3928939
701,Sharon Drive,37604,36.3465522,-82.3954657
703,Sharon Drive,37604,36.3462942,-82.3956463
2816,Steven Drive,37604,36.3460631,-82.3934242
2,Steven Circle,37604,36.3465514,-82.3923574
611,Sharon Drive,37604,36.3469539,-82.3950932
705,Sharon Drive,37604,36.3460348,-82.3958853
2902,Greenline Road,37604,36.3485921,-82.3949456
603,Sharon Drive,37604,36.3480140,-82.3941327
606,Douglas Drive,37604,36.3474089,-82.3940119
606,Sharon Drive,37604,36.3477546,-82.3951068
3,Steven Circle,37604,36.3467844,-82.3926076
609,Douglas Drive,37604,36.3468830,-82.3936769
517,Douglas Drive,37604,36.3480897,-82.3920620
605,Sharon Drive,37604,36.3477341,-82.3943648
600,Douglas Drive,37604,36.3481231,-82.3931149
706,Sharon Drive,37604,36.3463074,-82.3964590
2905,Greenline Road,37604,36.3485228,-82.3958009
701,Douglas Drive,37604,36.3460013,-82.3945117
613,Douglas Drive,37604,36.3463895,-82.3941454
610,Douglas Drive,37604,36.3469488,-82.3944430
523,Sharon Drive,37604,36.3485362,-82.3934962
607,Douglas Drive,37604,36.3471020,-82.3934751
604,Sharon Drive,37604,36.3479993,-82.3948763
604,Douglas Drive,37604,36.3476685,-82.3938208
612,Douglas Drive,37604,36.3466781,-82.3946732
702,Douglas Drive,37604,36.3460992,-82.3952193
2808,Steven Drive,37604,36.3461580,-82.3920009
708,Sharon Drive,37604,36.3460939,-82.3966612
101,Avonlea Place,37604,36.3476688,-82.3888671
608,Sharon Drive,37604,36.3475194,-82.3953245
2515,Larkspur Drive,37604,36.3453206,-82.3846621
2415,Larkspur Drive,37604,36.3451413,-82.3868417
2502,Jennifer Drive,37604,36.3459371,-82.3875859
502,Ferndale Road,37604,36.3446660,-82.3856312
2508,Larkspur Drive,37604,36.3451047,-82.3851729
2501,Larkspur Drive,37604,36.3453161,-82.3865853
2510,Larkspur Drive,37604,36.3447587,-82.3851394
2511,Larkspur Drive,37604,36.3457059,-82.3850445
2413,Larkspur Drive,37604,36.3448628,-82.3873077
2410,Larkspur Drive,37604,36.3449397,-82.3862899
2509,Larkspur Drive,37604,36.3458355,-82.3853819
2504,Larkspur Drive,37604,36.3452790,-82.3857800
2506,Larkspur Drive,37604,36.3453771,-82.3854221
2406,Larkspur Drive,37604,36.3445528,-82.3868355
412,Ferndale Road,37604,36.3446054,-82.3846127
506,Ferndale Road,37604,36.3443606,-82.3861527
2411,Larkspur Drive,37604,36.3446657,-82.3875412
2507,Larkspur Drive,37604,36.3458508,-82.3857704
2408,Larkspur Drive,37604,36.3447503,-82.3865724
2409,Larkspur Drive,37604,36.3444490,-82.3877860
508,Ferndale Road,37604,36.3441556,-82.3863853
2412,Larkspur Drive,37604,36.3451101,-82.3860524
504,Ferndale Road,37604,36.3445447,-82.3858951
2404,Larkspur Drive,37604,36.3443315,-82.3871382
2513,Larkspur Drive,37604,36.3455140,-82.3847844
3325,Bondwood Circle,37604,36.3490910,-82.4159631
107,Simmons Ridge,37604,36.3428505,-82.4250061
3406,Stoneridge Drive,37604,36.3476540,-82.4219213
2407,Granite Drive,37604,36.3444860,-82.4204550
3416,Stoneridge Drive,37604,36.3460879,-82.4230091
3407,Berkshire Circle,37604,36.3472814,-82.4177189
3340,Berkshire Circle,37604,36.3491896,-82.4188112
3405,Stoneridge Drive,37604,36.3469884,-82.4214809
3411,Berkshire Circle,37604,36.3470542,-82.4170256
114,Fink Drive,37604,36.3453883,-82.4150735
3331,Berkshire Circle,37604,36.3483358,-82.4175082
3333,Redstone Road,37604,36.3440613,-82.4213266
3403,Redstone Road,37604,36.3444339,-82.4218203
3325,Berkshire Circle,37604,36.3479314,-82.4166476
3413,Berkshire Circle,37604,36.3469498,-82.4167365
2401,Granite Drive,37604,36.3454532,-82.4204250
3,Blackberry Court,37604,36.3495791,-82.4174985
3329,Redstone Road,37604,36.3436189,-82.4208095
3421,Berkshire Circle,37604,36.3465525,-82.4153656
3406,Redstone Road,37604,36.3452366,-82.4219285
3317,Bondwood Circle,37604,36.3483964,-82.4149012
3315,Berkshire Circle,37604,36.3472135,-82.4151772
2310,Granite Drive,37604,36.3459533,-82.4209735
2313,Granite Drive,37604,36.3459073,-82.4203420
3321,Bondwood Circle,37604,36.3487540,-82.4154258
3342,Berkshire Circle,37604,36.3491679,-82.4191661
3401,Redstone Road,37604,36.3442394,-82.4215588
2305,Granite Drive,37604,36.3470769,-82.4202805
2138,Carroll Creek Road,37615,36.3478282,-82.4244885
4,Blackberry Court,37604,36.3493248,-82.4171238
3341,Berkshire Circle,37604,36.3480193,-82.4189487
3322,Berkshire Circle,37604,36.3481351,-82.4158661
3324,Berkshire Circle,37604,36.3482762,-82.4161507
3407,Stoneridge Drive,37604,36.3467110,-82.4216773
2400,Granite Drive,37604,36.3454882,-82.4210369
2231,Granite Court,37604,36.3480183,-82.4202499
2122,Carroll Creek Road,37615,36.3499009,-82.4227265
2404,Granite Drive,37604,36.3448898,-82.4210763
3316,Berkshire Circle,37604,36.3477080,-82.4150065
3412,Stoneridge Drive,37604,36.3467812,-82.4225269
3334,Berkshire Circle,37604,36.3489678,-82.4176250
2304,Granite Drive,37604,36.3468532,-82.4208960
3404,Redstone Road,37604,36.3450360,-82.4216736
3417,Berkshire Circle,37604,36.3467337,-82.4160486
3335,Berkshire Circle,37604,36.3486243,-82.4181859
3414,Stoneridge Drive,37604,36.3463984,-82.4227736
3413,Stoneridge Drive,37604,36.3458413,-82.4223517
116,Simmons Ridge,37604,36.3433006,-82.4259690
3414,Berkshire Circle,37604,36.3465809,-82.4172844
3409,Berkshire Circle,37604,36.3471612,-82.4173795
3323,Berkshire Circle,37604,36.3478016,-82.4163521
3412,Berkshire Circle,37604,36.3466290,-82.4176061
3317,Berkshire Circle,37604,36.3473519,-82.4154845
4,Flint Court,37604,36.3454778,-82.4215193
2227,Granite Court,37604,36.3486214,-82.4202513
3408,Stoneridge Drive,37604,36.3473405,-82.4222013
3402,Redstone Road,37604,36.3448337,-82.4214453
3408,Berkshire Circle,37604,36.3468923,-82.4182870
2229,Granite Court,37604,36.3483107,-82.4202892
112,Simmons Ridge,37604,36.3433662,-82.4249604
3320,Berkshire Circle,37604,36.3479762,-82.4155775
2301,Granite Drive,37604,36.3476829,-82.4202590
3410,Berkshire Circle,37604,36.3467646,-82.4179344
3400,Berkshire Circle,37604,36.3473950,-82.4196974
3406,Berkshire Circle,37604,36.3469982,-82.4186284
5,Blackberry Court,37604,36.3493361,-82.4166314
3324,Bondwood Circle,37604,36.3497583,-82.4150899
3327,Berkshire Circle,37604,36.3480352,-82.4169458
3405,Redstone Road,37604,36.3446387,-82.4220905
3326,Berkshire Circle,37604,36.3484180,-82.4164580
3313,Berkshire Circle,37604,36.3470504,-82.4149019
2107,Millbrook Drive,37604,36.3498612,-82.4194097
3348,Berkshire Circle,37604,36.3482343,-82.4196192
2228,Granite Court,37604,36.3490272,-82.4209199
2225,Granite Court,37604,36.3489267,-82.4201509
3319,Bondwood Circle,37604,36.3485528,-82.4151326
3332,Berkshire Circle,37604,36.3488492,-82.4173036
3423,Berkshire Circle,37604,36.3464245,-82.4150423
3319,Berkshire Circle,37604,36.3474880,-82.4157933
2307,Granite Drive,37604,36.3467831,-82.4202817
3329,Bondwood Circle,37604,36.3497638,-82.4159181
2403,Granite Drive,37604,36.3451283,-82.4204453
3403,Stoneridge Drive,37604,36.3472611,-82.4212199
3331,Redstone Road,37604,36.3438623,-82.4210650
3415,Berkshire Circle,37604,36.3468493,-82.4163923
2306,Granite Drive,37604,36.3465221,-82.4209326
2311,Granite Drive,37604,36.3461533,-82.4203512
3344,Berkshire Circle,37604,36.3489952,-82.4195926
3346,Berkshire Circle,37604,36.3485541,-82.4195992
3327,Redstone Road,37604,36.3434253,-82.4205771
2896,Knob Creek Road,37604,36.3455179,-82.4257692
3404,Berkshire Circle,37604,36.3471216,-82.4189934
3424,Berkshire Circle,37604,36.3460407,-82.4156308
2402,Granite Drive,37604,36.3451721,-82.4210693
3337,Berkshire Circle,37604,36.3484033,-82.4187524
3327,Bondwood Circle,37604,36.3495100,-82.4159101
3,Flint Court,37604,36.3457536,-82.4216769
3333,Berkshire Circle,37604,36.3484572,-82.4178323
3318,Berkshire Circle,37604,36.3478381,-82.4152792
3419,Berkshire Circle,37604,36.3466041,-82.4157075
3331,Bondwood Circle,37604,36.3501059,-82.4158900
3416,Berkshire Circle,37604,36.3464595,-82.4169457
3407,Redstone Road,37604,36.3448066,-82.4224224
3422,Stoneridge Drive,37604,36.3451798,-82.4247206
3409,Stoneridge Drive,37604,36.3464226,-82.4219056
3418,Berkshire Circle,37604,36.3463797,-82.4165923
3426,Berkshire Circle,37604,36.3459292,-82.4152648
2406,Granite Drive,37604,36.3445384,-82.4211415
3402,Stoneridge Drive,37604,36.3481255,-82.4211531
2134,Carroll Creek Road,37615,36.3485551,-82.4242018
3422,Berkshire Circle,37604,36.3461536,-82.4159540
2309,Granite Drive,37604,36.3464763,-82.4202853
3418,Stoneridge Drive,37604,36.3459819,-82.4235469
3330,Redstone Road,37604,36.3441825,-82.4206508
2,Blackberry Court,37604,36.3499621,-82.4175019
2405,Granite Drive,37604,36.3448067,-82.4204204
126,Simmons Ridge,37604,36.3428269,-82.4267869
131,Simmons Ridge,37604,36.3420495,-82.4265021
3318,Bondwood Circle,37604,36.3490262,-82.4149965
2224,Granite Court,37604,36.3497612,-82.4205018
2105,Millbrook Drive,37604,36.3497734,-82.4187825
3350,Berkshire Circle,37604,36.3479271,-82.4197235
3320,Bondwood Circle,37604,36.3492774,-82.4152151
3321,Berkshire Circle,37604,36.3476357,-82.4160543
3330,Berkshire Circle,37604,36.3487055,-82.4169988
3328,Berkshire Circle,37604,36.3485619,-82.4167303
3401,Stoneridge Drive,37604,36.3475776,-82.4208950
2308,Granite Drive,37604,36.3462155,-82.4209540
3403,Berkshire Circle,37604,36.3474549,-82.4184205
3338,Berkshire Circle,37604,36.3491934,-82.4183543
3411,Stoneridge Drive,37604,36.3461388,-82.4221525
3405,Berkshire Circle,37604,36.3473683,-82.4180496
7,Blackberry Court,37604,36.3498426,-82.4164248
2226,Granite Court,37604,36.3493617,-82.4207645
3329,Berkshire Circle,37604,36.3482040,-82.4172205
2788,Carroll Creek Road,37615,36.3368321,-82.4354451
147,Simmons Ridge,37604,36.3411511,-82.4275200
512,Claude Simmons Road,37604,36.3306942,-82.4275858
1705,West Market Street,37604,36.3121728,-82.3839305
3028,Peoples Street,37604,36.3521050,-82.3982522
3020,Peoples Street,37604,36.3530328,-82.3976591
909,Chase Drive,37604,36.3524920,-82.4034380
608,Ridgeview Drive,37604,36.3547934,-82.3923166
304,Chapman Street,37604,36.3574804,-82.3877557
525,West Oakland Avenue,37604,36.3571054,-82.3926063
610,Ridgeview Drive,37604,36.3545833,-82.3926333
2903,Browns Mill Road,37604,36.3554010,-82.3916881
4,Scott Court,37604,36.3557669,-82.3938639
2907,Dorothy Street,37604,36.3576787,-82.3875697
2825,Browns Mill Road,37604,36.3546573,-82.3909609
408,Chapman Street,37604,36.3568986,-82.3894356
605,Foxx Street,37604,36.3552476,-82.3927804
500,Chapman Street,37604,36.3565761,-82.3899982
609,Foxx Street,37604,36.3548587,-82.3932746
512,Burkley Court,37604,36.3545527,-82.3900258
312,Central Street,37604,36.3581323,-82.3890080
2814,Browns Mill Road,37604,36.3538345,-82.3891902
314,Central Street,37604,36.3580627,-82.3891731
404,Chapman Street,37604,36.3570225,-82.3891072
504,Central Street,37604,36.3573294,-82.3908450
616,Ridgeview Drive,37604,36.3541136,-82.3933676
501,West Oakland Avenue,37604,36.3578402,-82.3910141
407,Central Street,37604,36.3574556,-82.3896089
302,Central Street,37604,36.3584511,-82.3883022
2909,Browns Mill Extension,37604,36.3560512,-82.3924343
2800,Browns Mill Road,37604,36.3529705,-82.3882349
607,Hazel Street,37604,36.3536974,-82.3912550
519,Central Street,37604,36.3565883,-82.3917102
405,Central Street,37604,36.3575561,-82.3894806
2806,Browns Mill Road,37604,36.3533611,-82.3887326
308,Central Street,37604,36.3582343,-82.3887965
2917,Dorothy Street,37604,36.3585655,-82.3881076
2902,Dorothy Street,37604,36.3576644,-82.3871063
611,Ridgeview Drive,37604,36.3542879,-82.3922297
513,Central Street,37604,36.3568834,-82.3910945
307,Central Street,37604,36.3579881,-82.3884228
611,West Oakland Court,37604,36.3555739,-82.3950468
2908,Dorothy Street,37604,36.3581771,-82.3874163
603,West Oakland Court,37604,36.3563720,-82.3940816
612,Ridgeview Drive,37604,36.3544437,-82.3928565
401,Central Street,37604,36.3576641,-82.3891894
607,West Oakland Court,37604,36.3559694,-82.3945314
510,Central Street,37604,36.3571487,-82.3912726
2824,Browns Mill Road,37604,36.3550193,-82.3904859
2905,Browns Mill Road,37604,36.3555897,-82.3918810
602,Ridgeview Drive,37604,36.3551801,-82.3916661
2828,Browns Mill Road,37604,36.3553816,-82.3908918
412,Central Street,37604,36.3576132,-82.3902203
2818,Browns Mill Road,37604,36.3540888,-82.3894932
312,Chapman Street,37604,36.3572232,-82.3885790
2917,Browns Mill Extension,37604,36.3567272,-82.3932102
2827,Browns Mill Road,37604,36.3548469,-82.3910895
613,Ridgeview Drive,37604,36.3541300,-82.3924892
605,West Oakland Court,37604,36.3561697,-82.3943111
2907,Browns Mill Road,37604,36.3557683,-82.3921515
402,Central Street,37604,36.3579290,-82.3895218
2902,Browns Mill Road,37604,36.3555492,-82.3911720
2919,Browns Mill Extension,37604,36.3569004,-82.3933864
506,Burkley Court,37604,36.3551093,-82.3893092
615,Foxx Street,37604,36.3542676,-82.3940721
400,Chapman Street,37604,36.3571642,-82.3887390
402,Chapman Street,37604,36.3570964,-82.3889032
311,Central Street,37604,36.3578082,-82.3888766
403,Central Street,37604,36.3576169,-82.3893365
405,Chapman Street,37604,36.3565866,-82.3890876
2915,Browns Mill Extension,37604,36.3565653,-82.3929798
613,Foxx Street,37604,36.3544878,-82.3937773
618,Ridgeview Drive,37604,36.3539656,-82.3936088
509,Burkley Court,37604,36.3545191,-82.3891404
313,West Oakland Avenue,37604,36.3585865,-82.3891749
2826,Browns Mill Road,37604,36.3552146,-82.3906937
11,Parton Circle,37604,36.3548865,-82.3945236
3,Scott Court,37604,36.3560716,-82.3934713
511,West Oakland Avenue,37604,36.3576643,-82.3916027
615,Ridgeview Drive,37604,36.3539449,-82.3927682
501,Chapman Street,37604,36.3561825,-82.3898140
406,Chapman Street,37604,36.3569464,-82.3892953
2913,Vernon Street,37604,36.3574626,-82.3905853
316,Swanee Drive,37604,36.3536330,-82.3874579
306,Chapman Street,37604,36.3574189,-82.3879894
607,Ridgeview Drive,37604,36.3546288,-82.3917223
503,Chapman Street,37604,36.3560789,-82.3900729
2802,Browns Mill Road,37604,36.3531359,-82.3884814
508,Burkley Court,37604,36.3549419,-82.3895073
504,Burkley Court,37604,36.3553122,-82.3890675
701,West Oakland Court,37604,36.3554102,-82.3952800
503,Burkley Court,37604,36.3550554,-82.3885156
601,West Oakland Court,37604,36.3565709,-82.3938153
5,Scott Court,37604,36.3555600,-82.3936695
401,West Oakland Avenue,37604,36.3583379,-82.3897008
2822,Browns Mill Road,37604,36.3548434,-82.3902829
501,Central Street,37604,36.3572056,-82.3903860
505,Burkley Court,37604,36.3548764,-82.3887346
318,Swanee Drive,37604,36.3533918,-82.3877413
604,Ridgeview Drive,37604,36.3549685,-82.3920509
511,Burkley Court,37604,36.3543534,-82.3893746
608,Foxx Street,37604,36.3550011,-82.3938706
612,Hazel Street,37604,36.3535127,-82.3923477
310,Chapman Street,37604,36.3573186,-82.3883057
505,Chapman Street,37604,36.3559185,-82.3903787
609,Hazel Street,37604,36.3535436,-82.3915201
2904,Dorothy Street,37604,36.3577796,-82.3871553
620,Hazel Street,37604,36.3533454,-82.3926005
609,Ridgeview Drive,37604,36.3544591,-82.3919614
306,Central Street,37604,36.3582915,-82.3886307
2810,Browns Mill Road,37604,36.3539423,-82.3886696
2911,Browns Mill Extension,37604,36.3562250,-82.3926492
304,Central Street,37604,36.3583591,-82.3884823
501,Burkley Court,37604,36.3552362,-82.3882768
413,Central Street,37604,36.3572998,-82.3900715
409,West Oakland Avenue,37604,36.3581896,-82.3901032
409,Central Street,37604,36.3573756,-82.3897755
309,Central Street,37604,36.3578943,-82.3886207
603,Ridgeview Drive,37604,36.3548885,-82.3913967
409,Chapman Street,37604,36.3563059,-82.3895857
10,Parton Circle,37604,36.3551370,-82.3947285
2908,Browns Mill Road,37604,36.3561488,-82.3916693
608,Hazel Street,37604,36.3538719,-82.3918451
2904,Browns Mill Road,37604,36.3558405,-82.3913324
505,Central Street,37604,36.3569710,-82.3908535
2909,Vernon Street,37604,36.3569987,-82.3902561
8,Parton Circle,37604,36.3552026,-82.3940839
610,Foxx Street,37604,36.3546530,-82.3943377
610,Hazel Street,37604,36.3536924,-82.3920978
2819,Browns Mill Road,37604,36.3538318,-82.3902195
609,West Oakland Court,37604,36.3557733,-82.3948051
510,Burkley Court,37604,36.3547404,-82.3897526
502,Burkley Court,37604,36.3554885,-82.3888665
305,Central Street,37604,36.3580466,-82.3882742
512,Chapman Street,37604,36.3561908,-82.3908865
500,Burkley Court,37604,36.3556854,-82.3886163
320,Swanee Drive,37604,36.3532609,-82.3879247
603,Foxx Street,37604,36.3554439,-82.3925104
507,Chapman Street,37604,36.3557577,-82.3905164
617,Ridgeview Drive,37604,36.3537490,-82.3930420
6,Scott Court,37604,36.3553621,-82.3934172
607,Foxx Street,37604,36.3550510,-82.3930446
604,Hazel Street,37604,36.3542452,-82.3913108
315,Central Street,37604,36.3577396,-82.3890332
606,Hazel Street,37604,36.3540543,-82.3915673
515,Central Street,37604,36.3567725,-82.3913665
2906,Browns Mill Road,37604,36.3559982,-82.3915485
2906,Dorothy Street,37604,36.3579711,-82.3872858
2823,Browns Mill Road,37604,36.3544558,-82.3908215
605,Hazel Street,37604,36.3538830,-82.3909735
2821,Browns Mill Road,37604,36.3541562,-82.3905419
508,Chapman Street,37604,36.3563290,-82.3905364
614,Ridgeview Drive,37604,36.3542772,-82.3931234
512,Central Street,37604,36.3571115,-82.3914710
9,Parton Circle,37604,36.3554338,-82.3943034
407,Chapman Street,37604,36.3564504,-82.3893327
611,Foxx Street,37604,36.3546777,-82.3935498
314,Swanee Drive,37604,36.3537839,-82.3872683
2817,Browns Mill Road,37604,36.3536150,-82.3899564
507,Burkley Court,37604,36.3546834,-82.3889695
2900,Vernon Street,37604,36.3567008,-82.3896873
2900,Dorothy Street,37604,36.3575443,-82.3870366
2915,Vernon Street,37604,36.3576426,-82.3906938
510,Chapman Street,37604,36.3562430,-82.3907314
2813,Browns Mill Road,37604,36.3534078,-82.3895783
2913,Browns Mill Extension,37604,36.3564145,-82.3928274
2911,Dorothy Street,37604,36.3580955,-82.3877452
3101,North Roan Street,37601,36.3592838,-82.3903911
508,West Oakland Avenue,37604,36.3582841,-82.3916269
3115,North Roan Street,37604,36.3609034,-82.3900492
516,West Oakland Avenue,37604,36.3581328,-82.3921850
3101,North Roan Street,37601,36.3602237,-82.3886750
302,West Oakland Avenue,37604,36.3592890,-82.3888056
3123,North Roan Street,37604,36.3596627,-82.3918410
3101,North Roan Street,37601,36.3599276,-82.3892086
500,West Oakland Avenue,37604,36.3583722,-82.3910608
3123,North Roan Street,37604,36.3599725,-82.3910394
3103,North Roan Street,37601,36.3595775,-82.3903359
506,West Oakland Avenue,37604,36.3581786,-82.3915305
3101,North Roan Street,37601,36.3597793,-82.3895079
518,West Oakland Avenue,37604,36.3579600,-82.3928074
3123,North Roan Street,37604,36.3601537,-82.3912812
210,West Oakland Avenue,37604,36.3596664,-82.3886530
304,West Oakland Avenue,37604,36.3594022,-82.3891325
508,West Oakland Avenue,37604,36.3583220,-82.3918284
414,West Oakland Avenue,37601,36.3586453,-82.3908610
3211,North Roan Street,37601,36.3618692,-82.3914266
3109,Browns Mill Road,37604,36.3584009,-82.3965051
3300,Browns Mill Road,37604,36.3611286,-82.3960885
3303,North Roan Street,37601,36.3629080,-82.3928126
3411,North Roan Street,37601,36.3626053,-82.3944831
3207,North Roan Street,37601,36.3603954,-82.3929898
3304,Browns Mill Road,37604,36.3610933,-82.3981282
3301,North Roan Street,37601,36.3625746,-82.3921026
3300,Browns Mill Road,37604,36.3610123,-82.3953182
205,West Mountainview Road,37604,36.3636933,-82.3984849
3100,Browns Mill Road,37604,36.3586261,-82.3943627
3120,Browns Mill Road,37604,36.3608387,-82.3968380
3110,Browns Mill Road,37604,36.3593888,-82.3948120
3300,Browns Mill Road,37604,36.3608916,-82.3954756
3112,Browns Mill Road,37604,36.3597542,-82.3957137
3300,Browns Mill Road,37604,36.3616856,-82.3953973
3314,Browns Mill Road,37604,36.3626036,-82.3994934
3213,North Roan Street,37601,36.3618600,-82.3928802
3114,Browns Mill Road,37604,36.3605275,-82.3946165
3122,Browns Mill Road,37604,36.3604515,-82.3972502
3209,North Roan Street,37601,36.3611125,-82.3920316
3300,Browns Mill Road,37604,36.3607276,-82.3975782
3300,Browns Mill Road,37604,36.3610973,-82.3952106
4,Ridgewood Terrace,37601,36.3700012,-82.4012177
2,Ridgewood Terrace,37601,36.3696212,-82.4017802
5,Ridgewood Terrace,37601,36.3702063,-82.4014917
102,Car Mol Drive,37601,36.3688012,-82.4036277
112,Car Mol Drive,37601,36.3696234,-82.4022916
1,Ridgewood Terrace,37601,36.3699193,-82.4021253
310,Car Mol Drive,37601,36.3714216,-82.3995692
312,Car Mol Drive,37601,36.3716486,-82.3992303
210,Car Mol Drive,37601,36.3703596,-82.4012156
3,Ridgewood Terrace,37601,36.3696304,-82.4014722
300,Car Mol Drive,37601,36.3705803,-82.4008082
400,Car Mol Drive,37601,36.3718406,-82.3988357
107,Tamassee Drive,37601,36.3682555,-82.3990629
3800,North Roan Street,37601,36.3689407,-82.4000986
105,Tamassee Drive,37601,36.3677762,-82.3993824
103,Tamassee Drive,37601,36.3675304,-82.3995635
203,Tamassee Drive,37601,36.3686873,-82.3984934
202,Tamassee Drive,37601,36.3686317,-82.3976095
206,Tamassee Drive,37601,36.3690188,-82.3970298
402,Car Mol Drive,37601,36.3718668,-82.3978695
204,Tamassee Drive,37601,36.3688425,-82.3973684
207,Tamassee Drive,37601,36.3691048,-82.3980567
205,Tamassee Drive,37601,36.3688907,-82.3982907
3427,Linkwood Drive,37601,36.3710529,-82.3970729
3422,Linkwood Drive,37601,36.3696290,-82.3967638
201,Tamassee Drive,37601,36.3686769,-82.3989496
200,Tamassee Drive,37601,36.3684858,-82.3980145
3420,Linkwood Drive,37601,36.3692668,-82.3965002
7,Crosstimber Court,37601,36.3680772,-82.3977730
4,Catoosa Court,37601,36.3679385,-82.3998173
3704,North Roan Street,37601,36.3672906,-82.3999679
2,Catoosa Court,37601,36.3684516,-82.3992831
213,Tamassee Drive,37601,36.3695014,-82.3975418
3419,Linkwood Drive,37601,36.3685708,-82.3970472
105,Sequoyah Drive,37604,36.3665090,-82.4017847
205,Sequoyah Drive,37604,36.3654535,-82.4019931
221,Sequoyah Drive,37604,36.3649932,-82.4043886
3406,Browns Mill Road,37604,36.3632865,-82.4029537
211,Chickasaw Street,37604,36.3657205,-82.4041695
207,Chickasaw Street,37604,36.3659478,-82.4035631
209,Sequoyah Drive,37604,36.3650812,-82.4026672
212,Sequoyah Drive,37604,36.3651349,-82.4038482
219,Sequoyah Drive,37604,36.3647515,-82.4042662
205,Chickasaw Street,37604,36.3660867,-82.4031162
201,Chickasaw Street,37604,36.3659661,-82.4024666
223,Sequoyah Drive,37604,36.3652514,-82.4045236
217,Sequoyah Drive,37604,36.3644800,-82.4039642
225,Sequoyah Drive,37604,36.3655419,-82.4046345
206,Chickasaw Street,37604,36.3665077,-82.4033895
201,Sequoyah Drive,37604,36.3659253,-82.4018357
203,Chickasaw Street,37604,36.3660140,-82.4028225
226,Chickasaw Street,37604,36.3650168,-82.4064796
207,Sequoyah Drive,37604,36.3650964,-82.4021936
211,Sequoyah Drive,37604,36.3649295,-82.4029462
107,Sequoyah Drive,37604,36.3662919,-82.4017982
204,Chickasaw Street,37604,36.3664496,-82.4030735
208,Sequoyah Drive,37604,36.3654971,-82.4028941
209,Chickasaw Street,37604,36.3658759,-82.4038853
220,Chickasaw Street,37604,36.3656107,-82.4053179
106,Sequoyah Drive,37604,36.3663870,-82.4024021
206,Sequoyah Drive,37604,36.3653641,-82.4032690
3601,Cimarron Drive,37601,36.3677945,-82.3930108
3606,Cimarron Drive,37601,36.3689679,-82.3933367
3607,Cimarron Drive,37601,36.3684986,-82.3935975
3415,Amoyee Drive,37601,36.3685606,-82.3956065
205,White Way,37601,36.3671632,-82.3938772
3404,Linkwood Drive,37601,36.3674173,-82.3949259
3408,Amoyee Drive,37601,36.3684210,-82.3943264
3403,Amoyee Drive,37601,36.3674836,-82.3942021
3402,Amoyee Drive,37601,36.3676748,-82.3936882
3406,Linkwood Drive,37601,36.3676801,-82.3950888
306,White Way,37601,36.3669541,-82.3933168
3407,Linkwood Drive,37601,36.3672351,-82.3955270
201,White Way,37601,36.3668144,-82.3943888
3405,Linkwood Drive,37601,36.3670182,-82.3953002
3406,Amoyee Drive,37601,36.3681541,-82.3940639
3412,Amoyee Drive,37601,36.3689046,-82.3949117
4,Wanee Court,37601,36.3671742,-82.3962571
3411,Amoyee Drive,37601,36.3683339,-82.3949023
3609,Cimarron Drive,37601,36.3687322,-82.3938558
3405,Amoyee Drive,37601,36.3678006,-82.3944991
206,White Way,37601,36.3667602,-82.3936020
204,White Way,37601,36.3665923,-82.3938330
3600,Cimarron Drive,37601,36.3681429,-82.3925830
3410,Amoyee Drive,37601,36.3686444,-82.3945045
3604,Cimarron Drive,37601,36.3685745,-82.3930237
3438,Linkwood Drive,37601,36.3690684,-82.3957866
3402,Linkwood Drive,37601,36.3671388,-82.3946363
3511,Cimarron Drive,37601,36.3674815,-82.3923810
209,East Mountainview Road,37601,36.3665130,-82.3923941
3413,Amoyee Drive,37601,36.3683480,-82.3953628
3408,Linkwood Drive,37601,36.3678451,-82.3953518
203,White Way,37601,36.3670196,-82.3941346
3400,Amoyee Drive,37601,36.3674323,-82.3934819
3602,Cimarron Drive,37601,36.3683443,-82.3927706
3409,Amoyee Drive,37601,36.3681271,-82.3947470
3404,Amoyee Drive,37601,36.3679299,-82.3938946
3603,Cimarron Drive,37601,36.3680201,-82.3931948
3605,Cimarron Drive,37601,36.3682718,-82.3934378
3403,Linkwood Drive,37601,36.3668272,-82.3951320
308,White Way,37601,36.3671631,-82.3930831
3611,Cimarron Drive,37601,36.3689618,-82.3940703
5,Worth Circle,37601,36.3507671,-82.3663308
2151,Century Lane,37604,36.3080297,-82.3897742
101,East Market Street,37601,36.3176652,-82.3520916
