House number,Street name,Postal code,Latitude,Longitude
2521,West Division Street,37122,36.2014064,-86.5629268
12695,Lebanon Rd,37122,36.2272397,-86.5384036
302,Cobblestone Landing,37122,36.1829530,-86.5701082
11203,Lebanon Road,37122,36.2327609,-86.5134219
1075,Charlie Daniels Parkway,37122,36.2230549,-86.5090396
1622,Eagle Trace Drive,37122,36.1921354,-86.5721184
11205,Lebanon Road,37122,36.2328467,-86.5137786
56,Belinda Parkway,37122,36.1712555,-86.5084407
1400,Trailridge Cir,37122,36.2145626,-86.5042834
4110,North Mount Juliet Road,37122,36.2277511,-86.5146874
12115,Lebanon Road,37122,36.2312871,-86.5297701
12115,Lebanon Road,37122,36.2315186,-86.5298277
11279,Lebanon Road,37122,36.2314237,-86.5143809
11247,Lebanon Road,37122,36.2313069,-86.5138417
11247,Lebanon Road,37122,36.2316780,-86.5138847
11185,Lebanon Road,37122,36.2316092,-86.5127572
11207,Lebanon Road,37122,36.2328436,-86.5144059
4120,North Mount Juliet Road,37122,36.2294451,-86.5162450
1209,North Mount Juliet Road,37122,36.1885160,-86.5112984
75,Industrial Drive,37122,36.2018438,-86.5170966
1420,North Mount Juliet Road,37122-3341,36.1910826,-86.5150612
543,Pleasant Grove Road,37122,36.1717157,-86.5225948
126,North Mount Juliet Road,37122,36.1733179,-86.5139361
2031 suite 201,North Mount Juliet Road,37122,36.1977622,-86.5178015
3425B,North Mount Juliet Road,37122,36.2169847,-86.5149574
401,South Mount Juliet Road,37122,36.1701232,-86.5084966
300,Pleasant Grove Road,37122,36.1789733,-86.5198266
1539,North Mount Juliet Road,37122,36.1931814,-86.5151787
1075,Charlie Daniels Parkway,37122,36.2232846,-86.5093229
1622,Eagle Trace Drive,37122,36.1918980,-86.5723603
401,South Mount Juliet Road,37122,36.1665566,-86.5137712
401,South Mount Juliet Road,37122,36.1655483,-86.5139406
401,South Mount Juliet Road,37122,36.1648301,-86.5119438
401,South Mount Juliet Road,37122-6309,36.1690534,-86.5079104
401,South Mount Juliet Road,37122,36.1677245,-86.5111098
250,Cobblestone Landing,37122,36.1880250,-86.5721384
2002,Carphilly Court,37122,36.1862193,-86.5673353
1940,North Mount Juliet Road,37122,36.1971623,-86.5201479
1800,Lacie Court,37122,36.2056705,-86.5475593
1802,Lacie Court,37122,36.2055669,-86.5471382
1804,Lacie Court,37122,36.2057407,-86.5467642
12065,Lebanon Road,37122,36.2322584,-86.5270893
85,Athens Drive,37122,36.1725037,-86.4973423
401,South Mount Juliet Road,37122,36.1642253,-86.5101587
35,Old Pleasant Grove Road,37122,36.1756121,-86.5147243
300,Pleasant Grove Road,37122,36.1798922,-86.5146967
315,North Mount Juliet Road,37122,36.1761843,-86.5117339
401,South Mount Juliet Road,37122,36.1675430,-86.5074776
11185,Lebanon Road,37122,36.2314859,-86.5128422
65,Belinda Parkway,37122,36.1698332,-86.5065667
110,Providence Trail,37122,36.1687815,-86.5040844
600,Red Ink Drive,37122,36.1726847,-86.5120457
2765,North Mt. Juliet Road,37122-3041,36.2083837,-86.5157638
4440,Old Lebanon Dirt Road,37122,36.1897464,-86.5137250
