House number,Street name,Postal code,Latitude,Longitude
11100,Lake June Road,75180,32.7336358,-96.6360560
11221,Lake June Road,75180,32.7343949,-96.6327139
11007,Lake June Road,75180,32.7344751,-96.6370726
4295,South Belt Line Road,75181,32.7058937,-96.5857280
13000,Seagoville Road,75180,32.7032570,-96.6069969
2497,South Peachtree Road,75180,32.7348470,-96.6316332
11331,Lake June Road,75180,32.7346543,-96.6316358
11903,Lake June Road,75180,32.7355492,-96.6222152
11915,Lake June Road,75180,32.7354059,-96.6213345
12350,Lake June Road,75180,32.7332524,-96.6143311
12250,Lake June Road,75180,32.7323199,-96.6165486
12250,Lake June Road,75180,32.7322714,-96.6175313
12250,Lake June Road,75180,32.7322520,-96.6173180
12350,Lake June Road,75180,32.7327529,-96.6143679
12300,Lake June Road,75180,32.7319990,-96.6161876
11925,Elam Road,75180,32.7202270,-96.6206145
11820,Elam Road,75180,32.7197169,-96.6235829
12350,Lake June Road,75180,32.7329824,-96.6143421
13004,Spring Oaks Drive,75180,32.7117034,-96.6049612
12325,Elam Road,75180,32.7198107,-96.6150457
4628,Indian Creek Drive,75180,32.7097533,-96.5904273
4633,Indian Creek Drive,75180,32.7095640,-96.5909446
4624,Indian Creek Drive,75180,32.7099302,-96.5904626
14824,South Spring Ridge Circle,75180,32.7100201,-96.5900396
4640,Indian Creek Drive,75180,32.7092538,-96.5903850
4636,Indian Creek Drive,75180,32.7093907,-96.5903914
14828,South Spring Ridge Circle,75180,32.7098286,-96.5898849
4632,Indian Creek Drive,75180,32.7095676,-96.5904105
4621,Indian Creek Drive,75180,32.7100837,-96.5910501
4625,Indian Creek Drive,75180,32.7099114,-96.5910162
3400,Hickory Tree Road,75180,32.7231840,-96.6221980
710,Cheyenne Road,75180,32.7258270,-96.6376756
11911,Rylie Crest Drive,75180,32.7006932,-96.6168677
3700,South Belt Line Road,75181,32.7188562,-96.5944279
1700,Hickory Tree Road,75149,32.7458932,-96.6214506
14900,North Spring Ridge Circle,75180,32.7110387,-96.5878976
14401,Spring Oak Drive,75180,32.7143540,-96.5991870
3500,Pioneer Road,75180,32.7211493,-96.6039942
3025,Hickory Tree Road,75180,32.7280749,-96.6244879
12649,Lake June Road,75180,32.7398746,-96.6086597
10910,Bruton Road,75217,32.7482381,-96.6393485
102,South Beltline Road,75253,32.7029737,-96.5855934
102,South Beltline Road,75253,32.7029637,-96.5859689
11925,Elam Road,75180,32.7203151,-96.6207757
12005,Elam Road,75180,32.7211567,-96.6186085
3535,Glenshire Drive,75180,32.7198138,-96.6175512
4025,Pioneer Road,75180,32.7143082,-96.6062062
3920,Pioneer Road,75180,32.7167711,-96.6050405
1804,Hickory Tree Road,75149,32.7446026,-96.6221012
12531,Lake June Road,75180,32.7347116,-96.6133796
11931,Lake June Road,75180,32.7343941,-96.6209935
24315,Lyndon B Johnson Freeway,75180,32.7354422,-96.6132792
12325,Lake June Road,75180,32.7344177,-96.6155612
12415,Lake June Road,75180,32.7343182,-96.6141577
11913,Lake June Road,75180,32.7343475,-96.6223848
12329,Lake June Road,75180,32.7344472,-96.6150532
2326,Hickory Tree Road,75180,32.7373372,-96.6220534
11924,Carson Drive,75180,32.7366185,-96.6216549
11917,Carson Drive,75180,32.7370768,-96.6217267
2418,Hickory Tree Road,75180,32.7361577,-96.6223692
11940,Carson Drive,75180,32.7366560,-96.6209539
2228,Hickory Tree Road,75180,32.7384718,-96.6222514
2236,Hickory Tree Road,75180,32.7378737,-96.6222320
11928,Carson Drive,75180,32.7366526,-96.6214917
11933,Carson Drive,75180,32.7371686,-96.6211186
11925,Carson Drive,75180,32.7371252,-96.6215033
11936,Carson Drive,75180,32.7366324,-96.6211262
2232,Hickory Tree Road,75180,32.7380809,-96.6222319
11932,Carson Drive,75180,32.7366583,-96.6213052
2316,Bruton Road,75180,32.7484040,-96.6341396
2312,Bruton Road,75180,32.7484285,-96.6339171
2320,Bruton Road,75180,32.7484122,-96.6343721
2616,Bruton Road,75180,32.7483939,-96.6384967
2522,Bruton Road,75180,32.7483347,-96.6374605
2606,Bruton Road,75180,32.7483781,-96.6379635
2206,Bruton Road,75180,32.7477389,-96.6322967
4290,South Belt Line Road,75181,32.7058716,-96.5872220
4210,Caprock Court,75180,32.7151856,-96.5909531
4213,Caprock Court,75180,32.7148895,-96.5915051
4214,Caprock Court,75180,32.7149805,-96.5909631
4209,Caprock Court,75180,32.7150812,-96.5916166
4205,Caprock Court,75180,32.7152869,-96.5915710
4218,Caprock Court,75180,32.7148191,-96.5912034
4206,Caprock Court,75180,32.7153478,-96.5910441
14600,Pawnee Drive,75180,32.7082245,-96.5940713
14601,Otoe Drive,75180,32.7078430,-96.5940743
14604,Pawnee Drive,75180,32.7082290,-96.5938598
14605,Otoe Drive,75180,32.7078160,-96.5938598
4295,South Belt Line Road,75181,32.7056775,-96.5856162
14816,Bell Manor Court,75180,32.7080488,-96.5905645
4616,Leslie Lane,75180,32.7088702,-96.5873763
14809,Broadview Drive,75180,32.7077018,-96.5909670
14868,Bell Manor Court,75180,32.7079388,-96.5877520
14809,North Spring Ridge Circle,75180,32.7116188,-96.5894501
14816,Broadview Drive,75180,32.7072808,-96.5907345
14804,Ledgeview Court,75180,32.7088203,-96.5911560
14808,South Spring Ridge Circle,75180,32.7107058,-96.5901770
14820,Ledgeview Court,75180,32.7088268,-96.5903190
4700,Bear Creek Drive,75180,32.7080138,-96.5897020
14710,Broadview Drive,75180,32.7072698,-96.5928735
14801,North Spring Ridge Circle,75180,32.7114511,-96.5898058
4613,Timbercrest Way,75180,32.7092108,-96.5869500
14857,Bell Manor Court,75180,32.7083783,-96.5883465
14714,Broadview Drive,75180,32.7072698,-96.5926805
14845,Ledgeview Court,75180,32.7091148,-96.5888570
14706,Broadview Drive,75180,32.7072868,-96.5930920
14825,Broadview Drive,75180,32.7076988,-96.5901945
14824,Broadview Drive,75180,32.7072610,-96.5903572
4609,Timbercrest Way,75180,32.7093942,-96.5869646
14801,Broadview Drive,75180,32.7077198,-96.5913355
14820,Broadview Drive,75180,32.7072638,-96.5905375
14836,South Spring Ridge Circle,75180,32.7095223,-96.5893951
4620,Leslie Lane,75180,32.7086865,-96.5873980
14805,Bell Manor Court,75180,32.7085203,-96.5911400
4629,Indian Creek Drive,75180,32.7097433,-96.5909681
14800,Ledgeview Court,75180,32.7088383,-96.5913285
14841,North Spring Ridge Circle,75180,32.7120357,-96.5879635
14832,Ledgeview Court,75180,32.7087458,-96.5896798
4617,Indian Creek Drive,75180,32.7102572,-96.5910985
4601,Little Creek Drive,75180,32.7096390,-96.5899388
4605,Little Creek Drive,75180,32.7094260,-96.5899696
14808,Ledgeview Court,75180,32.7088203,-96.5909320
14833,Bell Manor Court,75180,32.7084555,-96.5896820
14841,Bell Manor Court,75180,32.7084083,-96.5892490
14800,South Spring Ridge Circle,75180,32.7110427,-96.5901330
14844,Bell Manor Court,75180,32.7079673,-96.5891630
14864,South Spring Ridge Circle,75180,32.7094523,-96.5880165
4605,Timbercrest Way,75180,32.7095788,-96.5869580
14824,Ledgeview Court,75180,32.7088278,-96.5901310
14853,Ledgeview Court,75180,32.7091113,-96.5884920
14702,Broadview Drive,75180,32.7072697,-96.5933176
14865,Bell Manor Court,75180,32.7083788,-96.5879090
14836,Ledgeview Court,75180,32.7086992,-96.5894778
14853,Bell Manor Court,75180,32.7083708,-96.5885770
4601,Indian Creek Drive,75180,32.7109683,-96.5912416
14800,Bell Manor Court,75180,32.7080568,-96.5913315
14817,Broadview Drive,75180,32.7076998,-96.5905765
14801,Bell Manor Court,75180,32.7085068,-96.5913330
14868,South Spring Ridge Circle,75180,32.7094338,-96.5878380
4704,Bear Creek Drive,75180,32.7078418,-96.5897100
4604,Leslie Lane,75180,32.7094173,-96.5873135
4708,Bear Creek Drive,75180,32.7076568,-96.5897030
14856,Bell Manor Court,75180,32.7079398,-96.5884455
14734,Broadview Drive,75180,32.7072858,-96.5917095
14848,Bell Manor Court,75180,32.7079478,-96.5889240
14812,Ledgeview Court,75180,32.7088203,-96.5907230
14816,South Spring Ridge Circle,75180,32.7103510,-96.5901655
4704,Timbercrest Way,75180,32.7080660,-96.5866170
14813,North Spring Ridge Circle,75180,32.7116718,-96.5892621
14816,Ledgeview Court,75180,32.7088133,-96.5905185
14825,Bell Manor Court,75180,32.7084953,-96.5901195
4620,Indian Creek Drive,75180,32.7101264,-96.5905096
14849,Bell Manor Court,75180,32.7083723,-96.5888020
14845,Bell Manor Court,75180,32.7083908,-96.5890315
14904,Bell Manor Court,75180,32.7079278,-96.5872750
14817,North Spring Ridge Circle,75180,32.7117190,-96.5891030
14864,Ledgeview Court,75180,32.7086578,-96.5878940
4620,Timbercrest Way,75180,32.7090518,-96.5864955
14813,Broadview Drive,75180,32.7077018,-96.5907720
4612,Indian Creek Drive,75180,32.7104638,-96.5905873
4600,Indian Creek Drive,75180,32.7110042,-96.5906996
14840,Ledgeview Court,75180,32.7086738,-96.5892601
14804,South Spring Ridge Circle,75180,32.7108775,-96.5901765
4712,Bear Creek Drive,75180,32.7074610,-96.5897233
4601,Timbercrest Way,75180,32.7097710,-96.5869316
4617,Timbercrest Way,75180,32.7090535,-96.5870113
14828,Broadview Drive,75180,32.7072391,-96.5901848
14821,Broadview Drive,75180,32.7077153,-96.5903595
14860,Ledgeview Court,75180,32.7086653,-96.5881165
14718,Broadview Drive,75180,32.7072798,-96.5924875
14861,Ledgeview Court,75180,32.7091083,-96.5880805
4616,Indian Creek Drive,75180,32.7103257,-96.5905558
14837,Bell Manor Court,75180,32.7083905,-96.5894866
14840,Bell Manor Court,75180,32.7079478,-96.5893950
14813,Bell Manor Court,75180,32.7085158,-96.5907290
4609,Little Creek Drive,75180,32.7092395,-96.5900016
14812,South Spring Ridge Circle,75180,32.7105127,-96.5901985
14837,North Spring Ridge Circle,75180,32.7119893,-96.5881258
14841,Ledgeview Court,75180,32.7090948,-96.5890515
14820,Bell Manor Court,75180,32.7080718,-96.5903595
14837,Ledgeview Court,75180,32.7091165,-96.5892846
14808,Bell Manor Court,75180,32.7080788,-96.5909610
14900,Bell Manor Court,75180,32.7079325,-96.5875123
14857,Ledgeview Court,75180,32.7091043,-96.5882500
14840,South Spring Ridge Circle,75180,32.7094598,-96.5891811
4604,Indian Creek Drive,75180,32.7108352,-96.5906708
14821,Bell Manor Court,75180,32.7085113,-96.5903375
14852,Ledgeview Court,75180,32.7086598,-96.5885745
14912,Bell Manor Court,75180,32.7079640,-96.5868218
4624,Timbercrest Way,75180,32.7088713,-96.5864720
14844,South Spring Ridge Circle,75180,32.7094388,-96.5889725
4621,Timbercrest Way,75180,32.7088775,-96.5870423
14821,North Spring Ridge Circle,75180,32.7117712,-96.5889188
14860,South Spring Ridge Circle,75180,32.7094293,-96.5882265
14848,Ledgeview Court,75180,32.7086633,-96.5888020
4641,Indian Creek Drive,75180,32.7092178,-96.5909355
14833,Ledgeview Court,75180,32.7091880,-96.5894931
14817,Bell Manor Court,75180,32.7085153,-96.5905255
14829,Bell Manor Court,75180,32.7085067,-96.5898740
14852,South Spring Ridge Circle,75180,32.7094383,-96.5886105
14805,Broadview Drive,75180,32.7077203,-96.5911523
14865,Ledgeview Court,75180,32.7091023,-96.5878685
4613,Indian Creek Drive,75180,32.7104324,-96.5911301
14860,Bell Manor Court,75180,32.7079423,-96.5882215
14856,South Spring Ridge Circle,75180,32.7094318,-96.5883900
4624,Leslie Lane,75180,32.7085025,-96.5874080
14844,Ledgeview Court,75180,32.7086598,-96.5890260
14908,Bell Manor Court,75180,32.7079528,-96.5870535
14805,North Spring Ridge Circle,75180,32.7115376,-96.5896234
14852,Bell Manor Court,75180,32.7079498,-96.5886830
14828,Ledgeview Court,75180,32.7087932,-96.5898910
4605,Indian Creek Drive,75180,32.7107892,-96.5912046
14825,North Spring Ridge Circle,75180,32.7118192,-96.5887338
14832,Broadview Drive,75180,32.7073092,-96.5898485
14820,South Spring Ridge Circle,75180,32.7101958,-96.5901229
14833,North Spring Ridge Circle,75180,32.7119282,-96.5883476
4608,Indian Creek Drive,75180,32.7106688,-96.5906270
14809,Bell Manor Court,75180,32.7085168,-96.5909130
4609,Indian Creek Drive,75180,32.7106117,-96.5911700
4616,Timbercrest Way,75180,32.7092272,-96.5864563
4600,Leslie Lane,75180,32.7095933,-96.5873460
14849,Ledgeview Court,75180,32.7091138,-96.5886670
14864,Bell Manor Court,75180,32.7079558,-96.5879785
14824,Bell Manor Court,75180,32.7080608,-96.5901970
14812,Bell Manor Court,75180,32.7080778,-96.5907670
14856,Ledgeview Court,75180,32.7086563,-96.5883475
14804,Bell Manor Court,75180,32.7080608,-96.5911560
4628,Leslie Lane,75180,32.7083395,-96.5874247
14861,Bell Manor Court,75180,32.7083918,-96.5881210
14848,South Spring Ridge Circle,75180,32.7094365,-96.5887800
13881,Interstate 20,75181,32.7051428,-96.5802606
13503,Alexander Road,75181,32.7078826,-96.5824586
1717,McKenzie Road,75181,32.7196695,-96.5799684
1038,McKenzie Road,75181,32.7239470,-96.5888441
104,Post Road,75181,32.7237189,-96.5882981
2836,South Belt Line Road,75181,32.7281631,-96.6019460
14109,Golden Pass Road,75181,32.7327335,-96.6005487
14121,Golden Pass Road,75181,32.7327435,-96.6000512
14112,Golden Pass Road,75181,32.7322730,-96.6001817
14112,South Pass Road,75181,32.7292915,-96.6001312
14108,Golden Pass Road,75181,32.7322605,-96.6003812
14116,South Pass Road,75181,32.7293748,-96.6000032
14117,Golden Pass Road,75181,32.7327160,-96.6002192
14124,South Pass Road,75181,32.7295595,-96.5997622
14104,South Pass Road,75181,32.7290893,-96.6003560
14113,South Pass Road,75181,32.7298335,-96.6002202
14105,Golden Pass Road,75181,32.7327140,-96.6007127
14120,South Pass Road,75181,32.7294720,-96.5998892
14108,South Pass Road,75181,32.7292081,-96.6002590
14101,South Pass Road,75181,32.7295563,-96.6005737
14109,South Pass Road,75181,32.7297365,-96.6003303
14128,South Pass Road,75181,32.7296391,-96.5996476
14132,South Pass Road,75181,32.7297535,-96.5995317
14113,Golden Pass Road,75181,32.7327235,-96.6003852
14116,Golden Pass Road,75181,32.7322563,-96.6000001
14101,Golden Pass Road,75181,32.7327480,-96.6008787
14104,Golden Pass Road,75181,32.7322620,-96.6005747
14100,South Pass Road,75181,32.7289990,-96.6004918
14125,South Pass Road,75181,32.7301188,-96.5998662
14100,Golden Pass Road,75181,32.7322630,-96.6007577
14121,South Pass Road,75181,32.7300253,-96.5999815
14105,South Pass Road,75181,32.7296542,-96.6004433
14117,South Pass Road,75181,32.7299335,-96.6001068
12939,Parker Court,75180,32.7461377,-96.6031333
12935,Parker Court,75180,32.7460746,-96.6032761
12931,Parker Court,75180,32.7460353,-96.6034589
12927,Parker Court,75180,32.7459957,-96.6036653
12940,Parker Court,75180,32.7457570,-96.6029953
12936,Parker Court,75180,32.7456755,-96.6031162
12932,Parker Court,75180,32.7455377,-96.6032589
12928,Parker Court,75180,32.7454496,-96.6034287
12933,Hilltop Drive,75180,32.7454419,-96.6029200
12929,Hilltop Drive,75180,32.7453943,-96.6030485
12925,Hilltop Drive,75180,32.7452337,-96.6032367
12921,Hilltop Drive,75180,32.7451322,-96.6032724
12917,Hilltop Drive,75180,32.7449640,-96.6032599
12950,Hilltop Drive,75180,32.7461609,-96.6026875
12946,Hilltop Drive,75180,32.7460310,-96.6026279
12942,Hilltop Drive,75180,32.7458765,-96.6025303
12938,Hilltop Drive,75180,32.7457335,-96.6025480
12934,Hilltop Drive,75180,32.7455859,-96.6025146
12930,Hilltop Drive,75180,32.7454081,-96.6024757
12926,Hilltop Drive,75180,32.7452538,-96.6024992
800,West Cartwright Road,75149,32.7466937,-96.6081672
500,West Cartwright Road,75149,32.7453643,-96.6084379
1708,Beau Court,75180,32.7448488,-96.6036737
1712,Beau Court,75180,32.7447175,-96.6036462
1701,Beau Court,75180,32.7448261,-96.6043840
1705,Beau Court,75180,32.7446855,-96.6042349
1709,Beau Court,75180,32.7445452,-96.6040990
1713,Beau Court,75180,32.7444616,-96.6040276
1702,Brooksview Lane,75180,32.7447149,-96.6046121
1706,Brooksview Lane,75180,32.7444470,-96.6044974
1710,Brooksview Lane,75180,32.7443340,-96.6043873
1714,Brooksview Lane,75180,32.7442511,-96.6043118
1703,Brooksview Lane,75180,32.7445968,-96.6052408
1707,Brooksview Lane,75180,32.7444453,-96.6051582
1711,Brooksview Lane,75180,32.7442953,-96.6049642
1715,Brooksview Lane,75180,32.7441817,-96.6048728
1719,Brooksview Lane,75180,32.7440938,-96.6047875
1723,Brooksview Lane,75180,32.7439861,-96.6046918
12834,Park Hill Court,75180,32.7445211,-96.6056006
12830,Park Hill Court,75180,32.7443879,-96.6054783
12826,Park Hill Court,75180,32.7441883,-96.6053306
12922,Hilltop Drive,75180,32.7450352,-96.6026060
12918,Hilltop Drive,75180,32.7448940,-96.6027173
12914,Hilltop Drive,75180,32.7447848,-96.6028356
12910,Hilltop Drive,75180,32.7447079,-96.6029334
12906,Hilltop Drive,75180,32.7445900,-96.6031312
12902,Hilltop Drive,75180,32.7444716,-96.6032794
12852,Hilltop Drive,75180,32.7443947,-96.6033843
12848,Hilltop Drive,75180,32.7442809,-96.6035304
12844,Hilltop Drive,75180,32.7441449,-96.6037242
12840,Hilltop Drive,75180,32.7440764,-96.6038296
12836,Hilltop Drive,75180,32.7439308,-96.6040245
12833,Park Hill Court,75180,32.7443985,-96.6062961
12829,Park Hill Court,75180,32.7442680,-96.6062638
12825,Park Hill Court,75180,32.7441482,-96.6061021
12821,Park Hill Court,75180,32.7440574,-96.6059155
12822,Park Hill Court,75180,32.7439448,-96.6053689
12818,Park Hill Court,75180,32.7438651,-96.6055007
12814,Park Hill Court,75180,32.7437572,-96.6056125
12810,Park Hill Court,75180,32.7436819,-96.6057468
12806,Park Hill Court,75180,32.7436043,-96.6058622
12802,Park Hill Court,75180,32.7434785,-96.6060177
12823,Hilltop Drive,75180,32.7438205,-96.6049823
12819,Hilltop Drive,75180,32.7437164,-96.6050910
12815,Hilltop Drive,75180,32.7436071,-96.6052294
12811,Hilltop Drive,75180,32.7435187,-96.6053691
12807,Hilltop Drive,75180,32.7434630,-96.6054946
12803,Hilltop Drive,75180,32.7433636,-96.6056131
12801,Hilltop Drive,75180,32.7432858,-96.6057227
1700,Hillside Drive,75180,32.7440502,-96.6069547
1704,Hillside Drive,75180,32.7441198,-96.6068355
1708,Hillside Drive,75180,32.7441107,-96.6066299
1712,Hillside Drive,75180,32.7440122,-96.6064531
1716,Hillside Drive,75180,32.7439206,-96.6063719
1720,Hillside Drive,75180,32.7438189,-96.6062582
12650,Hilltop Drive,75180,32.7433650,-96.6089422
12654,Hilltop Drive,75180,32.7431976,-96.6089372
1702,Bluffview Drive,75180,32.7434366,-96.6093192
1706,Bluffview Drive,75180,32.7432686,-96.6093394
1710,Bluffview Drive,75180,32.7430725,-96.6093756
1714,Bluffview Drive,75180,32.7429327,-96.6094012
12659,Ridgeside Drive,75180,32.7429506,-96.6087426
12651,Ridgeside Drive,75180,32.7429151,-96.6090484
12655,Ridgeside Drive,75180,32.7429111,-96.6088541
12752,Bluffview Drive,75180,32.7448974,-96.6069344
12748,Bluffview Drive,75180,32.7447928,-96.6068886
12740,Bluffview Drive,75180,32.7444358,-96.6070511
12736,Bluffview Drive,75180,32.7443461,-96.6071586
12732,Bluffview Drive,75180,32.7442303,-96.6072556
12728,Bluffview Drive,75180,32.7441583,-96.6073960
12716,Bluffview Drive,75180,32.7438721,-96.6076760
12712,Bluffview Drive,75180,32.7437830,-96.6077722
12708,Bluffview Drive,75180,32.7436564,-96.6079236
12704,Bluffview Drive,75180,32.7435451,-96.6080276
12753,Hilltop Drive,75180,32.7430114,-96.6060787
12749,Hilltop Drive,75180,32.7429298,-96.6061684
12745,Hilltop Drive,75180,32.7428033,-96.6063745
12741,Hilltop Drive,75180,32.7426980,-96.6065383
12737,Hilltop Drive,75180,32.7426336,-96.6066780
1746,Patrick Circle,75180,32.7423002,-96.6065620
1750,Patrick Circle,75180,32.7421353,-96.6064559
1745,Patrick Circle,75180,32.7421818,-96.6070137
1749,Patrick Circle,75180,32.7420117,-96.6070790
1753,Patrick Circle,75180,32.7418932,-96.6070677
1757,Patrick Circle,75180,32.7417507,-96.6069518
1744,Julie Court,75180,32.7421931,-96.6074882
1748,Julie Court,75180,32.7420703,-96.6075017
1752,Julie Court,75180,32.7419339,-96.6075455
1756,Julie Court,75180,32.7417592,-96.6074077
1760,Julie Court,75180,32.7415873,-96.6073870
1764,Julie Court,75180,32.7414936,-96.6074357
1749,Julie Court,75180,32.7420796,-96.6080240
1753,Julie Court,75180,32.7419299,-96.6080410
1757,Julie Court,75180,32.7417663,-96.6080640
1761,Julie Court,75180,32.7416601,-96.6081100
12702,Hilltop Drive,75180,32.7426670,-96.6085109
12706,Hilltop Drive,75180,32.7425399,-96.6083576
12710,Hilltop Drive,75180,32.7424333,-96.6082051
12714,Hilltop Drive,75180,32.7423554,-96.6080457
12718,Hilltop Drive,75180,32.7423101,-96.6079350
12607,Ridgeside Drive,75180,32.7431370,-96.6110340
12611,Ridgeside Drive,75180,32.7431680,-96.6108549
12615,Ridgeside Drive,75180,32.7431149,-96.6107137
12619,Ridgeside Drive,75180,32.7430685,-96.6105506
12623,Ridgeside Drive,75180,32.7430570,-96.6103818
12627,Ridgeside Drive,75180,32.7430402,-96.6102424
12600,Ridgeside Drive,75180,32.7427838,-96.6113904
12604,Ridgeside Drive,75180,32.7427550,-96.6112288
12608,Ridgeside Drive,75180,32.7427196,-96.6110655
12612,Ridgeside Drive,75180,32.7427195,-96.6109055
12616,Ridgeside Drive,75180,32.7426867,-96.6107353
12620,Ridgeside Drive,75180,32.7426763,-96.6105864
12624,Ridgeside Drive,75180,32.7426471,-96.6104012
12628,Ridgeside Drive,75180,32.7426431,-96.6102641
12632,Ridgeside Drive,75180,32.7426085,-96.6099790
12636,Ridgeside Drive,75180,32.7425778,-96.6098346
12640,Ridgeside Drive,75180,32.7425407,-96.6096514
12644,Ridgeside Drive,75180,32.7425229,-96.6094985
12648,Ridgeside Drive,75180,32.7425093,-96.6093355
12652,Ridgeside Drive,75180,32.7425100,-96.6091770
12656,Ridgeside Drive,75180,32.7424772,-96.6090068
12660,Ridgeside Drive,75180,32.7424761,-96.6088020
12649,Hilltop Drive,75180,32.7433699,-96.6084355
12653,Hilltop Drive,75180,32.7432638,-96.6084207
12657,Hilltop Drive,75180,32.7431299,-96.6083489
12701,Hilltop Drive,75180,32.7430183,-96.6082260
12705,Hilltop Drive,75180,32.7429017,-96.6080959
12709,Hilltop Drive,75180,32.7428157,-96.6079721
12713,Hilltop Drive,75180,32.7427427,-96.6078632
12717,Hilltop Drive,75180,32.7426588,-96.6077023
12721,Hilltop Drive,75180,32.7425974,-96.6075638
12725,Hilltop Drive,75180,32.7425561,-96.6074280
12729,Hilltop Drive,75180,32.7425618,-96.6072476
12733,Hilltop Drive,75180,32.7425693,-96.6070851
1701,Hillside Drive,75180,32.7436977,-96.6073739
1705,Hillside Drive,75180,32.7436689,-96.6072309
1709,Hillside Drive,75180,32.7436415,-96.6069887
1713,Hillside Drive,75180,32.7436176,-96.6068276
1717,Hillside Drive,75180,32.7435505,-96.6066387
1721,Hillside Drive,75180,32.7434715,-96.6065420
1725,Hillside Drive,75180,32.7433265,-96.6063949
1729,Hillside Drive,75180,32.7432370,-96.6062907
1713,Hillcrest Court,75180,32.7428941,-96.6071853
1709,Hillcrest Court,75180,32.7428884,-96.6073222
1705,Hillcrest Court,75180,32.7428772,-96.6075127
1701,Hillcrest Court,75180,32.7430702,-96.6077958
1700,Hillcrest Court,75180,32.7432138,-96.6078491
1702,Hillcrest Court,75180,32.7433459,-96.6077179
1706,Hillcrest Court,75180,32.7434322,-96.6075810
1710,Hillcrest Court,75180,32.7433980,-96.6073449
1714,Hillcrest Court,75180,32.7433037,-96.6071735
1718,Hillcrest Court,75180,32.7433088,-96.6069996
1722,Hillcrest Court,75180,32.7432248,-96.6067869
1726,Hillcrest Court,75180,32.7430995,-96.6067221
1730,Hillcrest Court,75180,32.7429694,-96.6066765
12832,Hilltop Drive,75180,32.7436960,-96.6043508
12828,Hilltop Drive,75180,32.7435570,-96.6045543
12824,Hilltop Drive,75180,32.7434896,-96.6046714
12820,Hilltop Drive,75180,32.7433797,-96.6048032
12816,Hilltop Drive,75180,32.7432920,-96.6049264
12812,Hilltop Drive,75180,32.7432007,-96.6050515
12808,Hilltop Drive,75180,32.7431030,-96.6051799
12804,Hilltop Drive,75180,32.7430244,-96.6053002
12800,Hilltop Drive,75180,32.7429376,-96.6054229
12762,Hilltop Drive,75180,32.7428466,-96.6055466
12758,Hilltop Drive,75180,32.7427557,-96.6056766
12754,Hilltop Drive,75180,32.7426756,-96.6058077
12750,Hilltop Drive,75180,32.7425944,-96.6059041
12746,Hilltop Drive,75180,32.7424955,-96.6060653
12742,Hilltop Drive,75180,32.7424081,-96.6061768
12738,Hilltop Drive,75180,32.7423464,-96.6063138
1723,Bluffview Drive,75180,32.7429896,-96.6099059
1719,Bluffview Drive,75180,32.7430948,-96.6098722
1715,Bluffview Drive,75180,32.7432311,-96.6098529
1711,Bluffview Drive,75180,32.7433933,-96.6098174
1707,Bluffview Drive,75180,32.7435008,-96.6098392
1703,Bluffview Drive,75180,32.7436976,-96.6097936
12635,Bluffview Drive,75180,32.7437888,-96.6097183
12639,Bluffview Drive,75180,32.7438417,-96.6095411
12643,Bluffview Drive,75180,32.7438322,-96.6093259
12647,Bluffview Drive,75180,32.7438035,-96.6091722
12651,Bluffview Drive,75180,32.7437757,-96.6090310
12655,Bluffview Drive,75180,32.7437451,-96.6088337
12659,Bluffview Drive,75180,32.7437338,-96.6086951
12707,Bluffview Drive,75180,32.7439206,-96.6083199
12711,Bluffview Drive,75180,32.7440215,-96.6081845
12715,Bluffview Drive,75180,32.7441330,-96.6081112
12719,Bluffview Drive,75180,32.7442163,-96.6079634
12723,Bluffview Drive,75180,32.7443250,-96.6078491
12727,Bluffview Drive,75180,32.7444361,-96.6077572
12731,Bluffview Drive,75180,32.7445100,-96.6076498
12735,Bluffview Drive,75180,32.7445978,-96.6075553
12450,Elam Road,75180,32.7188200,-96.6118706
12500,Elam Road,75180,32.7188698,-96.6108991
3636,Shepherd Lane,75180,32.7198394,-96.6134449
3628,Shepherd Lane,75180,32.7207611,-96.6136872
3620,Shepherd Lane,75180,32.7213583,-96.6135847
3641,Shepherd Lane,75180,32.7203184,-96.6149972
3617,Shepherd Lane,75180,32.7208013,-96.6149510
12325,Elam Road,75180,32.7198107,-96.6150317
12315,Elam Road,75180,32.7198203,-96.6152922
12813,Triangle Drive,75180,32.7038864,-96.6075395
12905,Triangle Drive,75180,32.7038677,-96.6064845
12817,Triangle Drive,75180,32.7038792,-96.6073621
12829,Triangle Drive,75180,32.7038859,-96.6068808
12825,Triangle Drive,75180,32.7039011,-96.6070440
12901,Triangle Drive,75180,32.7038732,-96.6067116
4409,Pioneer Road,75180,32.7099920,-96.6059840
12875,Seagoville Road,75180,32.7052796,-96.6067332
12908,Seagoville Road,75180,32.7045355,-96.6059979
12631,Lake June Road,75180,32.7371100,-96.6108287
1700,Beau Court,75180,32.7451620,-96.6037738
1704,Beau Court,75180,32.7450705,-96.6036793
1700,Bruton Road,75180,32.7481745,-96.6230277
1820,Bruton Road,75180,32.7482480,-96.6251317
1734,Bruton Road,75180,32.7482610,-96.6242650
11910,Brook Valley Circle,75180,32.7141870,-96.6214352
11917,Brook Valley Circle,75180,32.7145670,-96.6205854
11926,Brook Valley Circle,75180,32.7141855,-96.6197432
11914,Brook Valley Circle,75180,32.7141870,-96.6210087
11906,Brook Valley Circle,75180,32.7141878,-96.6218592
11902,Brook Valley Circle,75180,32.7141905,-96.6222817
11922,Brook Valley Circle,75180,32.7141870,-96.6201667
11901,Brook Valley Circle,75180,32.7145695,-96.6222817
11918,Brook Valley Circle,75180,32.7141880,-96.6205702
11905,Brook Valley Circle,75180,32.7145695,-96.6218547
11909,Brook Valley Circle,75180,32.7145695,-96.6214272
11925,Brook Valley Circle,75180,32.7145650,-96.6197417
11921,Brook Valley Circle,75180,32.7145673,-96.6201612
11913,Brook Valley Circle,75180,32.7145690,-96.6210097
11820,Elam Road,75180,32.7196178,-96.6234281
11901,Elam Road,75180,32.7197611,-96.6223065
11709,Seagoville Road,75180,32.7054200,-96.6251089
11850,Elam Road,75180,32.7188145,-96.6230000
12002,Elam Road,75180,32.7190030,-96.6187032
12008,Elam Road,75180,32.7190240,-96.6176717
12011,Elam Road,75180,32.7197611,-96.6184866
12001,Elam Road,75180,32.7198190,-96.6193091
3200,Hickory Tree Road,75180,32.7260737,-96.6219734
12330,Lake June Road,75180,32.7336801,-96.6159555
12150,Lake June Road,75180,32.7334797,-96.6176825
12300,Lake June Road,75180,32.7318276,-96.6153779
11501,Lake June Road,75180,32.7346961,-96.6294877
11814,Eloise Drive,75180,32.7372380,-96.6235854
2312,Rodney Lane,75180,32.7379285,-96.6229479
2207,Sunset Drive,75180,32.7394510,-96.6252924
2100,Rodney Lane,75180,32.7410415,-96.6229054
2106,Rodney Lane,75180,32.7405620,-96.6229249
2305,Sunset Drive,75180,32.7381445,-96.6252699
2306,Rodney Lane,75180,32.7383580,-96.6229264
2102,Rodney Lane,75180,32.7408565,-96.6229109
2104,Rodney Lane,75180,32.7407055,-96.6229109
11809,Eloise Drive,75180,32.7376430,-96.6241119
11806,Eloise Drive,75180,32.7372480,-96.6242904
2317,Sunset Drive,75180,32.7371843,-96.6250517
2212,Rodney Lane,75180,32.7389735,-96.6229519
11812,Eloise Drive,75180,32.7372445,-96.6237499
2310,Rodney Lane,75180,32.7380715,-96.6229264
11800,Eloise Drive,75180,32.7372365,-96.6248244
11810,Eloise Drive,75180,32.7372365,-96.6239404
2112,Rodney Lane,75180,32.7401380,-96.6229279
2210,Rodney Lane,75180,32.7391215,-96.6229294
11808,Eloise Drive,75180,32.7372310,-96.6241029
11805,Eloise Drive,75180,32.7376380,-96.6244914
2110,Rodney Lane,75180,32.7402745,-96.6229218
2314,Rodney Lane,75180,32.7377805,-96.6229224
2108,Rodney Lane,75180,32.7404235,-96.6229289
2217,Sunset Drive,75180,32.7386480,-96.6252734
11813,Eloise Drive,75180,32.7376385,-96.6237414
11820,Eloise Drive,75180,32.7372390,-96.6230419
2302,Rodney Lane,75180,32.7386505,-96.6229362
2208,Rodney Lane,75180,32.7392660,-96.6229314
11804,Eloise Drive,75180,32.7372375,-96.6244824
2311,Sunset Drive,75180,32.7376295,-96.6252814
2209,Sunset Drive,75180,32.7393305,-96.6252534
2313,Sunset Drive,75180,32.7374725,-96.6253189
11816,Eloise Drive,75180,32.7372490,-96.6233989
11815,Eloise Drive,75180,32.7376560,-96.6235544
2315,Sunset Drive,75180,32.7372910,-96.6252531
11811,Eloise Drive,75180,32.7376615,-96.6239214
2307,Sunset Drive,75180,32.7379745,-96.6252789
2316,Rodney Lane,75180,32.7375985,-96.6229334
11822,Eloise Drive,75180,32.7372420,-96.6227994
11802,Eloise Drive,75180,32.7372455,-96.6246569
2200,Rodney Lane,75180,32.7398470,-96.6229279
2211,Sunset Drive,75180,32.7391645,-96.6252654
2308,Rodney Lane,75180,32.7382135,-96.6229334
2202,Rodney Lane,75180,32.7396970,-96.6229239
2301,Sunset Drive,75180,32.7384800,-96.6252684
11807,Eloise Drive,75180,32.7376315,-96.6242934
11817,Eloise Drive,75180,32.7376650,-96.6233624
2213,Sunset Drive,75180,32.7389735,-96.6252804
11818,Eloise Drive,75180,32.7372435,-96.6232269
2309,Sunset Drive,75180,32.7378050,-96.6252709
2304,Rodney Lane,75180,32.7385080,-96.6229229
11803,Eloise Drive,75180,32.7376575,-96.6246619
2114,Rodney Lane,75180,32.7399926,-96.6229339
11801,Eloise Drive,75180,32.7376420,-96.6248414
2300,Rodney Lane,75180,32.7387890,-96.6229254
2215,Sunset Drive,75180,32.7388170,-96.6252554
2204,Rodney Lane,75180,32.7395605,-96.6229119
2206,Rodney Lane,75180,32.7394105,-96.6229119
2303,Sunset Drive,75180,32.7383255,-96.6252684
11429,Ravenview Road,75253,32.6908418,-96.6265744
2411,Hickory Tree Road,75180,32.7362373,-96.6230785
2417,Hickory Tree Road,75180,32.7359476,-96.6233508
11855,Lake June Road,75180,32.7344171,-96.6232641
2515,Hickory Tree Road,75180,32.7346778,-96.6229893
2429,Hickory Tree Road,75180,32.7350767,-96.6230619
2300,Hickory Tree Road,75180,32.7375915,-96.6219717
13105,Seagoville Road,75180,32.7034195,-96.6050410
12918,Seagoville Road,75180,32.7039847,-96.6061004
13420,Alexander Road,75181,32.7053576,-96.5830510
13498,Alexander Road,75181,32.7054661,-96.5823123
3475,South Belt Line Road,75181,32.7211619,-96.5950988
610,Comanche Drive,75181,32.7221170,-96.5945442
302,Comanche Drive,75181,32.7217911,-96.5954718
3000,South Belt Line Road,75181,32.7262929,-96.6025317
3112,Pioneer Road,75181,32.7257606,-96.6028769
3108,Pioneer Road,75181,32.7259767,-96.6028409
4260,Lasater Road,75181,32.7097920,-96.5835415
100,South Belt Line Road,75253,32.7023997,-96.5841656
4011,South Belt Line Road,75181,32.7091900,-96.5843440
4317,Shepherd Lane,75180,32.7098220,-96.6163385
4400,Ambassador Way,75180,32.7093615,-96.6190700
4520,Ambassador Way,75180,32.7073695,-96.6211850
3601,Pioneer Road,75180,32.7203290,-96.6062170
12374,Lake June Road,75180,32.7335785,-96.6064090
3211,Hickory Tree Road,75180,32.7242215,-96.6244230
11900,Quail Drive,75180,32.7242030,-96.6220860
1499,South Peachtree Road,75180,32.7484146,-96.6316225
1499,South Peachtree Road,75180,32.7483135,-96.6315474
11409,Lake June Road,75180,32.7344133,-96.6306272
11403,Lake June Road,75180,32.7344302,-96.6308203
11401,Lake June Road,75180,32.7344315,-96.6309767
12136,Lake June Road,75180,32.7335090,-96.6181143
12100,Lake June Road,75180,32.7334889,-96.6185372
12050,Lake June Road,75180,32.7334526,-96.6190677
2601,Dean Street,75180,32.7335134,-96.6136867
12500,Lake June Road,75180,32.7336044,-96.6131638
2616,Dean Street,75180,32.7329529,-96.6131472
4125,South Belt Line Road,75181,32.7069233,-96.5857262
4105,South Belt Line Road,75181,32.7072701,-96.5856797
12649,Lake June Road,75180,32.7381223,-96.6098963
2300,Dunson Drive,75180,32.7389145,-96.6111322
4019,South Belt Line Road,75181,32.7080891,-96.5850644
12227,Quail Drive,75180,32.7267830,-96.6160865
3301,Glenshire Drive,75180,32.7231575,-96.6176763
3401,Hickory Tree Road,75180,32.7233702,-96.6248976
4637,Indian Creek Drive,75180,32.7093936,-96.5909355
4608,Leslie Lane,75180,32.7092340,-96.5873252
4612,Leslie Lane,75180,32.7090537,-96.5873474
4625,Timbercrest Way,75180,32.7086798,-96.5870218
4629,Timbercrest Way,75180,32.7085067,-96.5870904
4633,Timbercrest Way,75180,32.7083444,-96.5870759
4628,Timbercrest Way,75180,32.7087000,-96.5865019
4612,Timbercrest Way,75180,32.7094110,-96.5864148
4608,Timbercrest Way,75180,32.7095905,-96.5864070
4604,Timbercrest Way,75180,32.7097738,-96.5863998
4600,Timbercrest Way,75180,32.7099329,-96.5864065
4700,Timbercrest Way,75180,32.7082728,-96.5865529
4502,Maplewood Avenue,75180,32.7135666,-96.5876164
4506,Maplewood Avenue,75180,32.7134412,-96.5874785
4510,Maplewood Avenue,75180,32.7133056,-96.5873706
4514,Maplewood Avenue,75180,32.7131853,-96.5872145
4518,Maplewood Avenue,75180,32.7130632,-96.5870810
4522,Maplewood Avenue,75180,32.7129450,-96.5869392
4530,Maplewood Avenue,75180,32.7126544,-96.5867351
4534,Maplewood Avenue,75180,32.7125057,-96.5866549
4526,Maplewood Avenue,75180,32.7128001,-96.5868155
4513,Maplewood Avenue,75180,32.7127582,-96.5874697
4509,Maplewood Avenue,75180,32.7129018,-96.5876410
4505,Maplewood Avenue,75180,32.7130403,-96.5877886
4501,Maplewood Avenue,75180,32.7131791,-96.5879283
4502,Evergreen Lane,75180,32.7130797,-96.5882914
4510,Evergreen Lane,75180,32.7127710,-96.5879983
4514,Evergreen Lane,75180,32.7126477,-96.5878487
4506,Evergreen Lane,75180,32.7129208,-96.5881540
4518,Evergreen Lane,75180,32.7125028,-96.5876586
4522,Evergreen Lane,75180,32.7123150,-96.5875681
4517,Maplewood Avenue,75180,32.7126088,-96.5873203
4525,Maplewood Avenue,75180,32.7122816,-96.5870810
4521,Maplewood Avenue,75180,32.7124302,-96.5872052
4526,Evergreen Lane,75180,32.7121140,-96.5874866
14829,North Spring Ridge Circle,75180,32.7118753,-96.5885330
3212,Balch Springs Road,75180,32.7252927,-96.6095043
12721,Quail Drive,75180,32.7247566,-96.6091213
12709,Quail Drive,75180,32.7247169,-96.6100642
