House number,Street name,Postal code,Latitude,Longitude
445,E FM 1382,75104,32.5915296,-96.9358843
739,North Highway 67,75104-2142,32.6029703,-96.9372727
223,East Farm-to-Market Road 1382,75104,32.5997814,-96.9414442
428,North Highway 67,75104-2135,32.5966259,-96.9363291
428,N Highway 67,75104-2135,32.5965318,-96.9363663
445,East FM 1382 Road,75104,32.5916592,-96.9359950
433,East FM 1382 Bld H,75104,32.5925748,-96.9352356
455,East Farm-to-Market Road 1382,75104,32.5911811,-96.9355432
455,East Farm-to-Market Road 1382,75104,32.5912697,-96.9356517
229,East Farm-to-Market Road 1382,75104,32.5991896,-96.9405101
229,East Farm-to-Market Road 1382,75104,32.5989047,-96.9401883
305,West FM 1382,75104,32.6015743,-96.9432342
637,Uptown Boulevard,75104,32.5975631,-96.9436445
140,West Farm-to-Market Road 1382,75104,32.5994056,-96.9440729
305,W Fm 1382 Ste 610,75104,32.6025995,-96.9426881
427,East FM 1382,75104,32.5928415,-96.9354388
731,North Highway 67,75104,32.6019905,-96.9368761
305,West FM 1382,75104,32.6017102,-96.9424085
416,West Farm to Market Road,75104,32.6014545,-96.9416706
751,North Highway 67,75104,32.6037860,-96.9368222
352,North Highway 67,75104,32.5927296,-96.9396510
101,North Highway 67,75104,32.5905017,-96.9465920
202,South Clark Road,75104,32.5871128,-96.9418092
425,East Pleasant Run Road,75104,32.6048151,-96.9334595
715,North Highway 67,75104,32.6004214,-96.9372029
805,East Belt Line Road,75104,32.5903992,-96.9247469
218,West Belt Line Road,75104,32.5897373,-96.9490897
425,East Pleasant Run Road,75104,32.6049158,-96.9334550
501,East Belt Line Road,75104,32.5906224,-96.9327486
621,Uptown Boulevard,75104,32.5980028,-96.9475248
235,East Farm-to-Market Road 1382,75104,32.5985700,-96.9398189
739,North Highway 67,75104,32.6026283,-96.9370294
1435,North Highway 67,75104,32.6179212,-96.9178521
362,East FM 1382,75104,32.5926000,-96.9392700
2610,Creekwood Drive,75104,32.5483499,-97.0057653
2517,Hardwick Lane,75104,32.5420518,-97.0051291
2139,Rohne Drive,75104,32.5450098,-97.0048126
2164,Tar Road,75104,32.5424489,-96.9501817
2310,Autumn Run Court,75104,32.5444098,-96.9957173
2488,Creekwood Drive,75104,32.5479385,-97.0038709
1822,Sunset Crossing,75104,32.5440117,-96.9983298
2603,Gannon Way,75104,32.5391744,-97.0072136
2442,Creekwood Drive,75104,32.5444268,-97.0001689
1933,Mount Mc Kinley Place,75104,32.5423094,-97.0019321
2643,Gannon Way,75104,32.5392522,-97.0114427
2626,Mason Lane,75104,32.5401554,-97.0097400
2222,Alyssum Drive,75104,32.5423752,-97.0119159
2471,Creekwood Drive,75104,32.5475442,-97.0015835
2474,Creekwood Drive,75104,32.5467750,-97.0026172
2476,Creekwood Drive,75104,32.5470877,-97.0029569
2425,Waterstone Drive,75104,32.5482296,-96.9987449
2440,Waterstone Drive,75104,32.5480332,-97.0006609
501,Knight Street,75104,32.5473331,-96.9490088
551,Knight Street,75104,32.5473711,-96.9520893
5725,Highway 67,75104,32.5439238,-96.9811381
2442,Hardwick Drive,75104,32.5410474,-97.0006511
2446,Hardwick Drive,75104,32.5410265,-97.0010914
5991,Joe Wilson Road,75104,32.5459069,-96.9263978
2206,Janet Court,75104,32.5438439,-97.0076418
2603,Wells Court,75104,32.5479860,-97.0065719
2630,Wells Court,75104,32.5479804,-97.0101857
2124,Becky Lane,75104,32.5455834,-97.0094484
2618,Wells Court,75104,32.5475406,-97.0088081
2518,Garrett Court,75104,32.5447052,-97.0061534
2507,Mosley Court,75104,32.5440212,-97.0058389
2602,Mosley Court,75104,32.5428874,-97.0071885
2644,Wells Court,75104,32.5482089,-97.0114874
2222,Becky Lane,75104,32.5422547,-97.0094479
585,Tar Road,75104,32.5464339,-96.9558965
2162,Rohne Drive,75104,32.5429672,-97.0031804
2525,Hardwick Lane,75104,32.5419437,-97.0059518
2444,Waterstone Drive,75104,32.5481868,-97.0010584
2040,South Highway 67,75104,32.5455845,-96.9719660
2223,Becky Lane,75104,32.5422800,-97.0109632
2607,Wells Court,75104,32.5481797,-97.0072022
2118,Rohne Drive,75104,32.5467994,-97.0040212
2530,Hardwick Lane,75104,32.5408479,-97.0060614
502,Knight Street,75104,32.5465156,-96.9481098
2142,Rohne Drive,75104,32.5447238,-97.0035653
2166,Rohne Drive,75104,32.5425376,-97.0030297
2426,Creekwood Drive,75104,32.5431644,-96.9993672
5524,Tar Road,75104,32.5412697,-96.9504799
5526,Tar Road,75104,32.5413344,-96.9483833
2021,Blue Ridge Drive,75104,32.5397520,-96.9985347
2542,Town View Drive,75104,32.5391125,-97.0065523
2541,Town View Drive,75104,32.5401861,-97.0065419
2470,Creekwood Drive,75104,32.5462387,-97.0018848
2318,Autumn Run Court,75104,32.5447114,-96.9963988
2311,Timber Creek Court,75104,32.5440922,-96.9966680
2303,Summer Brook Court,75104,32.5467238,-96.9953661
2484,Creekwood Drive,75104,32.5476516,-97.0035785
2463,Creekwood Drive,75104,32.5467393,-97.0007572
2436,Waterstone Drive,75104,32.5478711,-97.0002498
2014,Alps Court,75104,32.5400521,-96.9995474
2306,Big Horn Drive,75104,32.5386092,-96.9986754
2302,Big Horn Drive,75104,32.5382767,-96.9984026
2016,Blue Ridge Drive,75104,32.5393988,-96.9971256
2611,Gannon Way,75104,32.5391833,-97.0080727
2466,Creekwood Drive,75104,32.5460319,-97.0015252
2302,Summer Brook Court,75104,32.5462259,-96.9953389
2492,Creekwood Drive,75104,32.5481479,-97.0042348
1819,Magic Valley Lane,75104,32.5445038,-96.9971883
1806,Sunset Crossing,75104,32.5452942,-96.9976341
965,Johnson Lane,75154,32.5470399,-96.9216564
2503,Pikes Peak,75104,32.5392344,-97.0018558
2306,Rockies Lane,75104,32.5387255,-97.0001800
2115,Rohne Drive,75104,32.5463852,-97.0052149
2521,Garrett Court,75104,32.5452722,-97.0071461
2514,Garrett Court,75104,32.5448229,-97.0056569
2516,Mosley Court,75104,32.5428123,-97.0064405
2215,Janet Court,75104,32.5431698,-97.0085885
2123,Becky Lane,75104,32.5459775,-97.0107379
2207,Becky Lane,75104,32.5438739,-97.0107926
2108,Becky Lane,75104,32.5470305,-97.0094952
2307,Summer Brook Court,75104,32.5468651,-96.9956430
2475,Creekwood Drive,75104,32.5478882,-97.0019334
2410,Summer Brook Court,75104,32.5460106,-96.9975201
2450,Creekwood Drive,75104,32.5450376,-97.0002079
2434,Creekwood Drive,75104,32.5436100,-96.9999818
2403,Summer Brook Court,75104,32.5466827,-96.9967430
2050,Tar Road,75104,32.5473678,-96.9531188
2416,Waterstone Drive,75104,32.5474733,-96.9980147
2521,Town View Drive,75104,32.5406912,-97.0037074
2060,Tar Road,75104,32.5465451,-96.9518469
2128,Tar Road,75104,32.5428514,-96.9518277
2082,Tar Road,75104,32.5447422,-96.9518289
2511,Mosley Court,75104,32.5438407,-97.0064510
1988,Tar Road,75104,32.5473916,-96.9556115
2222,Janet Court,75104,32.5419261,-97.0077041
2111,Becky Lane,75104,32.5470498,-97.0107077
2202,Becky Lane,75104,32.5442396,-97.0095052
2513,Town View Drive,75104,32.5408942,-97.0028306
2610,Mason Lane,75104,32.5401068,-97.0080572
2110,Rohne Drive,75104,32.5473728,-97.0046274
2502,Hardwick Lane,75104,32.5418489,-97.0028596
2167,Rohne Drive,75104,32.5422424,-97.0043535
2410,Creekwood Drive,75104,32.5426340,-96.9980269
2603,Mason Lane,75104,32.5412253,-97.0071830
2607,Mason Lane,75104,32.5412288,-97.0076117
2122,Rohne Drive,75104,32.5465127,-97.0037181
2521,Hardwick Lane,75104,32.5417319,-97.0056025
2143,Rohne Drive,75104,32.5445872,-97.0048277
2461,Shiloh Road,75104,32.5406201,-96.9622028
1649,South Highway 67,75104,32.5474802,-96.9643869
2502,Garrett Court,75104,32.5462983,-97.0061845
2522,Garrett Court,75104,32.5445309,-97.0066462
2218,Janet Court,75104,32.5422133,-97.0073164
2706,Melissa Court,75104,32.5450014,-97.0120247
2636,Wells Court,75104,32.5480596,-97.0106386
2622,Wells Court,75104,32.5476455,-97.0091655
1937,Mount Mc Kinley Place,75104,32.5419183,-97.0016403
2015,Alps Court,75104,32.5399167,-97.0000194
2025,Blue Ridge Drive,75104,32.5396225,-96.9990466
2004,Blue Ridge Drive,75104,32.5401911,-96.9958548
2502,Pikes Peak,76065,32.5384612,-97.0010747
2427,Hardwick Drive,75104,32.5419541,-96.9985197
2210,Alyssum Drive,75104,32.5434471,-97.0118965
2618,Mason Lane,75104,32.5401169,-97.0089009
2614,Mason Lane,75104,32.5401118,-97.0084790
2309,Autumn Run Court,75104,32.5453631,-96.9958262
2467,Creekwood Drive,75104,32.5471080,-97.0012361
2414,Summer Brook Court,75104,32.5461894,-96.9980057
1811,Magic Valley Lane,75104,32.5451978,-96.9969729
1803,Sunset Crossing,75104,32.5457659,-96.9984165
1744,Magic Valley Lane,75104,32.5478628,-96.9957352
540,Knight Street,75104,32.5463196,-96.9508218
509,Knight Street,75104,32.5473393,-96.9498333
2415,Hardwick Drive,75104,32.5415807,-96.9972571
2423,Hardwick Drive,75104,32.5418116,-96.9981324
2518,Pikes Peak,75104,32.5376933,-97.0024938
1926,Mount Mc Kinley Place,75104,32.5433028,-97.0009026
1906,Mount Mc Kinley Place,75104,32.5450674,-97.0012492
480,Tar Road,75104,32.5474029,-96.9540371
2214,Alyssum Drive,75104,32.5430898,-97.0119030
2619,Gannon Way,75104,32.5391934,-97.0089163
2607,Gannon Way,75104,32.5391782,-97.0076509
2615,Gannon Way,75104,32.5391884,-97.0084945
2403,Creekwood Drive,75104,32.5425808,-96.9967166
2402,Creekwood Drive,75104,32.5422928,-96.9971671
2306,Autumn Run Court,75104,32.5444161,-96.9953385
2472,Creekwood Drive,75104,32.5464914,-97.0022274
1815,Sunset Crossing,75104,32.5448247,-96.9988028
2412,Waterstone Drive,75104,32.5474789,-96.9975928
2404,Waterstone Drive,75104,32.5474904,-96.9967329
545,Knight Street,75104,32.5473658,-96.9512511
5303,Highway 67 Bypass,76065,32.5399110,-96.9784853
1925,Mount Mc Kinley Place,75104,32.5430094,-97.0020926
2123,Rohne Drive,75104,32.5458608,-97.0044610
2511,Garrett Court,75104,32.5455251,-97.0067094
2508,Mosley Court,75104,32.5430044,-97.0055376
2211,Janet Court,75104,32.5435983,-97.0085728
2648,Wells Court,75104,32.5482149,-97.0119604
2102,Rohne Drive,75104,32.5479483,-97.0052338
2138,Rohne Drive,75104,32.5451099,-97.0037392
2506,Hardwick Lane,75104,32.5417303,-97.0034237
2414,Creekwood Drive,75104,32.5427850,-96.9983333
2438,Hardwick Drive,75104,32.5410650,-97.0002127
2450,Hardwick Drive,75104,32.5409972,-97.0016244
2511,Pikes Peak,75104,32.5387734,-97.0027865
2326,Rockies Lane,75104,32.5401646,-97.0016479
2508,Town View Drive,75104,32.5405928,-97.0023280
2227,Janet Court,75104,32.5419448,-97.0084449
2203,Janet Court,75104,32.5445205,-97.0083399
2218,Becky Lane,75104,32.5427314,-97.0095584
2116,Becky Lane,75104,32.5462980,-97.0094355
2438,Creekwood Drive,75104,32.5440407,-97.0001769
2413,Waterstone Drive,75104,32.5482019,-96.9976442
2409,Waterstone Drive,75104,32.5482024,-96.9971573
1800,Joe Wilson Road,75104,32.5471467,-96.9262760
1217,Dawson Drive,76065,32.5389925,-96.9802441
2126,Rohne Drive,75104,32.5462507,-97.0033587
2151,Rohne Drive,75104,32.5438925,-97.0046606
1901,Mount Mc Kinley Place,75104,32.5453090,-97.0021500
1909,Mount Mc Kinley Place,75104,32.5444339,-97.0025455
1917,Mount Mc Kinley Place,75104,32.5437120,-97.0022469
2631,Gannon Way,75104,32.5392370,-97.0101773
2643,Mason Lane,75104,32.5412672,-97.0114099
2138,South Highway 67,75104,32.5439278,-96.9729422
5590,Edgefield Lane,75104,32.5431423,-96.9659381
2406,Creekwood Drive,75104,32.5423986,-96.9977196
2310,Timber Creek Court,75104,32.5432152,-96.9968147
2314,Summer Brook Court,75104,32.5459031,-96.9961205
1811,Sunset Crossing,75104,32.5452869,-96.9987581
1802,Sunset Crossing,75104,32.5455998,-96.9979284
2460,Creekwood Drive,75104,32.5457402,-97.0007636
2072,Tar Road,75104,32.5460309,-96.9518372
2078,Tar Road,75104,32.5457423,-96.9518376
2420,Waterstone Drive,75104,32.5474466,-96.9984245
1752,Magic Valley Lane,75104,32.5472715,-96.9957970
2010,Hardwick Drive,75104,32.5403593,-96.9975470
2024,Blue Ridge Drive,75104,32.5389305,-96.9979395
1930,Mount Mc Kinley Place,75104,32.5429662,-97.0007674
2627,Gannon Way,75104,32.5392319,-97.0097554
2639,Gannon Way,75104,32.5392471,-97.0110209
2651,Gannon Way,75104,32.5392630,-97.0122959
2534,Town View Drive,75104,32.5390668,-97.0056831
5191,North Highway 67,76065,32.5395248,-96.9793902
2626,Wells Court,75104,32.5477648,-97.0095741
1807,Magic Valley Lane,75104,32.5454871,-96.9968970
1827,Magic Valley Lane,75104,32.5436640,-96.9977470
1810,Sunset Crossing,75104,32.5448923,-96.9978775
2017,Blue Ridge Drive,75104,32.5399562,-96.9981413
2310,Big Horn Drive,75104,32.5387688,-96.9991148
2020,Blue Ridge Drive,75104,32.5391392,-96.9975329
2407,Hardwick Lane,75104,32.5408971,-96.9960366
2431,Hardwick Drive,75104,32.5421478,-96.9991975
1921,Mount Mc Kinley Place,75104,32.5433607,-97.0021697
2634,Mason Lane,75104,32.5401655,-97.0105836
2639,Mason Lane,75104,32.5412590,-97.0109872
2538,Town View Drive,75104,32.5391098,-97.0061129
2537,Town View Drive,75104,32.5400246,-97.0059664
2314,Autumn Run Court,75104,32.5446249,-96.9960830
2415,Summer Brook Court,75104,32.5468656,-96.9977612
2406,Summer Brook Court,75104,32.5459169,-96.9971212
1831,Magic Valley Lane,75104,32.5434075,-96.9979789
1814,Sunset Crossing,75104,32.5446200,-96.9980071
2430,Creekwood Drive,75104,32.5433552,-96.9996495
521,Knight Street,75104,32.5473413,-96.9502410
505,Knight Street,75104,32.5473308,-96.9494212
2523,Pikes Peak,75104,32.5383780,-97.0039245
2529,Town View Drive,75104,32.5399028,-97.0047574
2202,Janet Court,75104,32.5446323,-97.0077056
2115,Becky Lane,75104,32.5466907,-97.0107195
2203,Becky Lane,75104,32.5442425,-97.0107893
2135,Becky Lane,75104,32.5448949,-97.0107674
2120,Becky Lane,75104,32.5459407,-97.0094419
2248,Waterstone Drive,75104,32.5483035,-97.0013596
2144,Tar Road,75104,32.5421569,-96.9519650
2526,Pikes Peak,75104,32.5374239,-97.0032119
2534,Pikes Peak,75104,32.5371165,-97.0040295
2526,Town View Drive,75104,32.5389501,-97.0046959
2310,Rockies Lane,75104,32.5390274,-97.0004237
2512,Town View Drive,75104,32.5401770,-97.0023142
2603,Mosley Court,75104,32.5438836,-97.0072046
2219,Janet Court,75104,32.5427503,-97.0085959
2703,Melissa Court,75104,32.5458436,-97.0115694
2107,Becky Lane,75104,32.5474457,-97.0107724
2119,Becky Lane,75104,32.5463341,-97.0107287
2215,Becky Lane,75104,32.5428685,-97.0108137
2614,Wells Court,75104,32.5474356,-97.0084506
529,Knight Street,75104,32.5473439,-96.9506528
2623,Wells Court,75104,32.5483413,-97.0088571
2619,Wells Court,75104,32.5482879,-97.0084889
2106,Rohne Drive,75104,32.5476595,-97.0049304
2163,Rohne Drive,75104,32.5427149,-97.0046271
2133,Tar Road,75104,32.5430450,-96.9590586
2322,Rockies Lane,75104,32.5399801,-97.0012498
2141,Tar Road,75104,32.5419465,-96.9541782
2606,Mosley Court,75104,32.5428869,-97.0076868
2211,Becky Lane,75104,32.5434280,-97.0108066
2226,Becky Lane,75104,32.5419438,-97.0098075
2227,Becky Lane,75104,32.5419561,-97.0106111
2206,Becky Lane,75104,32.5438525,-97.0095381
2128,Becky Lane,75104,32.5452261,-97.0094549
5795,Edgefield Lane,75104,32.5458416,-96.9682955
2602,Mason Lane,75104,32.5400951,-97.0071982
2522,Hardwick Lane,75104,32.5408531,-97.0050758
2529,Hardwick Lane,75104,32.5420692,-97.0064074
2155,Rohne Drive,75104,32.5435412,-97.0045835
2008,Blue Ridge Drive,75104,32.5399617,-96.9964952
2506,Pikes Peak,75104,32.5382624,-97.0014245
1934,Mount Mc Kinley Place,76065,32.5426272,-97.0007155
1914,Mount Mc Kinley Place,75104,32.5443625,-97.0010707
2651,Mason Lane,75104,32.5413180,-97.0122618
2622,Mason Lane,75104,32.5401220,-97.0093206
2302,Autumn Run Court,75104,32.5449601,-96.9952891
2306,Summer Brook Court,75104,32.5458580,-96.9954113
2418,Summer Brook Court,75104,32.5466195,-96.9984446
520,Knight Street,75104,32.5463103,-96.9501447
2647,Gannon Way,75104,32.5392572,-97.0118645
2646,Mason Lane,75104,32.5401807,-97.0118491
2102,Tar Road,75104,32.5437945,-96.9518256
2419,Hardwick Drive,75104,32.5416768,-96.9977345
2522,Pikes Peak,75104,32.5375643,-97.0028705
2314,Timber Creek Court,75104,32.5434230,-96.9970924
2307,Timber Creek Court,75104,32.5440439,-96.9962561
2479,Creekwood Drive,75104,32.5480630,-97.0023584
2480,Creekwood Drive,75104,32.5473656,-97.0032740
1815,Magic Valley Lane,75104,32.5449086,-96.9970732
2459,Creekwood Drive,75104,32.5463368,-97.0000224
1823,Sunset Crossing,75104,32.5444087,-96.9990303
2454,Creekwood Drive,75104,32.5453483,-97.0002613
2538,Pikes Peak,75104,32.5372506,-97.0046614
2314,Rockies Lane,75104,32.5393540,-97.0006603
2318,Rockies Lane,75104,32.5396735,-97.0009469
2202,Alyssum Drive,75104,32.5442079,-97.0118807
2135,Rohne Drive,75104,32.5454494,-97.0046936
2503,Mosley Court,75104,32.5436615,-97.0054737
2512,Mosley Court,75104,32.5427381,-97.0059529
2210,Becky Lane,75104,32.5434787,-97.0095449
2112,Becky Lane,75104,32.5466553,-97.0094290
2611,Mason Lane,75104,32.5412338,-97.0080335
2606,Wells Court,75104,32.5470524,-97.0075585
2611,Wells Court,75104,32.5481717,-97.0076873
2602,Wells Court,75104,32.5472884,-97.0070606
3211,Shiloh Road,75104,32.5387879,-96.9565965
2160,Tar Road,75104,32.5416574,-96.9519258
2174,Tar Road,75104,32.5408812,-96.9526785
5150,Highway 67,75104,32.5402961,-96.9735700
2011,Alps Court,75104,32.5403362,-97.0004463
2527,Pikes Peak,75104,32.5382353,-97.0044193
2519,Pikes Peak,75104,32.5385191,-97.0034254
2207,Janet Court,75104,32.5440806,-97.0086419
2146,Rohne Drive,75104,32.5443724,-97.0034890
2526,Hardwick Lane,75104,32.5407284,-97.0055407
2518,Hardwick Lane,75104,32.5411086,-97.0047648
2510,Hardwick Lane,75104,32.5415036,-97.0041472
2159,Rohne Drive,75104,32.5431650,-97.0045251
2422,Creekwood Drive,75104,32.5429994,-96.9988609
2533,Town View Drive,75104,32.5400351,-97.0053496
1918,Mount Mc Kinley Place,75104,32.5438412,-97.0009987
1913,Mount Mc Kinley Place,75104,32.5440634,-97.0023241
2154,Rohne Drive,75104,32.5436698,-97.0033347
2650,Mason Lane,75104,32.5401848,-97.0122799
2638,Mason Lane,75104,32.5401706,-97.0110054
2630,Mason Lane,75104,32.5401605,-97.0101618
2080,Tar Road,75104,32.5453135,-96.9518351
2418,Hardwick Drive,75104,32.5407554,-96.9982966
2514,Pikes Peak,76065,32.5378635,-97.0021253
2435,Hardwick Drive,75104,32.5423107,-96.9999265
1942,Mount Mc Kinley Place,75104,32.5420711,-97.0005814
2206,Alyssum Drive,75104,32.5438044,-97.0118901
2302,Timber Creek Court,75104,32.5431432,-96.9956965
2306,Timber Creek Court,75104,32.5429299,-96.9962779
2487,Creekwood Drive,75104,32.5483148,-97.0032084
2483,Creekwood Drive,75104,32.5482042,-97.0028342
2496,Creekwood Drive,75104,32.5482837,-97.0046822
1823,Magic Valley Lane,75104,32.5440124,-96.9974784
2407,Creekwood Drive,75104,32.5430486,-96.9972539
2311,Summer Brook Court,75104,32.5466943,-96.9960774
2453,Creekwood Drive,75104,32.5460519,-96.9994351
2417,Waterstone Drive,75104,32.5482004,-96.9981971
1461,Dawson Drive,76065,32.5389883,-96.9776171
2012,Blue Ridge Drive,75104,32.5396903,-96.9968137
2411,Hardwick Drive,76065,32.5414789,-96.9967920
2510,Pikes Peak,76065,32.5380620,-97.0017738
2635,Gannon Way,75104,32.5392420,-97.0105991
2642,Mason Lane,75104,32.5401756,-97.0114272
2226,Alyssum Drive,75104,32.5419898,-97.0118992
2454,Hardwick Drive,75104,32.5413223,-97.0023520
2531,Pikes Peak,75104,32.5378663,-97.0047394
2520,Town View Drive,75104,32.5394504,-97.0031350
2428,Waterstone Drive,75104,32.5472253,-96.9996605
2408,Waterstone Drive,75104,32.5474845,-96.9971710
2707,Melissa Court,75104,32.5460544,-97.0119973
2214,Becky Lane,75104,32.5431049,-97.0095516
2010,Alps Court,75104,32.5403447,-96.9991113
5511,Tar Road,75104,32.5409921,-96.9548302
5521,Edgefield Lane,75104,32.5415192,-96.9694897
5191,Highway 67,76065,32.5396746,-96.9774466
449,Edgefield Lane,75104,32.5445288,-96.9675577
5510,Edgefield Lane,75104,32.5408477,-96.9668692
2530,Pikes Peak,75104,32.5372395,-97.0035172
2507,Pikes Peak,76065,32.5390803,-97.0022525
2522,Town View Drive,75104,32.5391722,-97.0040994
2530,Town View Drive,75104,32.5389176,-97.0051955
2702,Melissa Court,75104,32.5452044,-97.0115888
2131,Becky Lane,75104,32.5452644,-97.0107564
2610,Wells Court,75104,32.5473169,-97.0080534
2111,Rohne Drive,75104,32.5466751,-97.0055086
2107,Rohne Drive,75104,32.5469645,-97.0058248
2506,Garrett Court,75104,32.5457574,-97.0057968
2223,Janet Court,75104,32.5422782,-97.0087127
2127,Becky Lane,75104,32.5456210,-97.0107472
2627,Wells Court,75104,32.5483958,-97.0092350
2134,Rohne Drive,75104,32.5454263,-97.0033896
2114,Rohne Drive,75104,32.5470861,-97.0043243
2150,Rohne Drive,75104,32.5440211,-97.0034118
2158,Rohne Drive,75104,32.5433185,-97.0032576
2534,Hardwick Lane,75104,32.5410545,-97.0065193
1818,Sunset Crossing,75104,32.5442952,-96.9981212
5532,Tar Road,75104,32.5444402,-96.9501034
2615,Mason Lane,75104,32.5412389,-97.0084553
1929,Mount Mckinley Place,75104,32.5426581,-97.0020155
2029,Blue Ridge Drive,75104,32.5392417,-96.9994141
2414,Hardwick Drive,75104,32.5406028,-96.9978857
2426,Hardwick Lane,75104,32.5410911,-96.9990920
2130,Rohne Drive,75104,32.5458465,-97.0029934
2623,Gannon Way,75104,32.5391985,-97.0093361
2303,Timber Creek Court,75104,32.5437359,-96.9956871
2310,Summer Brook Court,75104,32.5458029,-96.9957608
2432,Waterstone Drive,75104,32.5476468,-96.9999420
2606,Mason Lane,76065,32.5401017,-97.0076354
2615,Wells Court,75104,32.5482324,-97.0081063
2147,Rohne Drive,75104,32.5442438,-97.0047378
2446,Creekwood Drive,75104,32.5447289,-97.0002056
2405,Waterstone Drive,75104,32.5482058,-96.9966896
2647,Mason Lane,75104,32.5412910,-97.0118320
2218,Alyssum Drive,75104,32.5427325,-97.0119094
2315,Autumn Run Court,75104,32.5453992,-96.9962040
2303,Autumn Run Court,75104,32.5453474,-96.9953848
2409,Summer Brook Court,75104,32.5466658,-96.9971713
2402,Summer Brook Court,75104,32.5458964,-96.9966997
1827,Sunset Crossing,75104,32.5441352,-96.9992770
2525,Town View Drive,75104,32.5399807,-97.0039068
2424,Waterstone Drive,75104,32.5471918,-96.9989671
2611,Shiloh Road,75104,32.5391459,-96.9631906
487,Tar Road,75104,32.5464570,-96.9592620
2119,Rohne Drive,75104,32.5461094,-97.0049189
2503,Garrett Court,75104,32.5461929,-97.0066567
2103,Rohne Drive,75104,32.5472234,-97.0061177
2510,Garrett Court,75104,32.5453639,-97.0055225
2706,Mandy Court,75104,32.5466255,-97.0119838
2640,Wells Court,75104,32.5481474,-97.0110476
2132,Becky Lane,75104,32.5448767,-97.0095014
491,Hidden Valley Lane,75104,32.5472672,-96.9431314
482,Tar Road,75104,32.5473823,-96.9547541
1211,Industrial Way,75104,32.5658182,-96.9666232
1570,FM 1382,75104,32.6099877,-96.9963982
621,Uptown Boulevard,75104,32.5973856,-96.9469613
280,Uptown Boulevard,75051;75104,32.5920785,-96.9499009
1212,West Belt Line Road,75104,32.5897987,-96.9657952
1314,N Joe Wilson Road,75104,32.6149658,-96.9245143
1420,N Joe Wilson Road,75104,32.6178486,-96.9250769
1424,N Joe Wilson Road,75104,32.6180544,-96.9251081
820,East Wintergreen Road,75104,32.6178176,-96.9237283
1414,N Joe Wilson Road,75104,32.6175447,-96.9250733
1428,N Joe Wilson Road,75104,32.6182869,-96.9249827
1340,N Joe Wilson Road,75104,32.6163289,-96.9251488
1404,N Joe Wilson Road,75104,32.6170143,-96.9251343
1408,N Joe Wilson Road,75104,32.6172081,-96.9251103
1038,East Wintergreen Road,75104,32.6185666,-96.9183920
1419,North Highway 67,75104,32.6171362,-96.9187822
1395,North Highway 67,75104,32.6164894,-96.9189949
1439,North Highway 67,75104,32.6182675,-96.9173561
1431,North Highway 67,75104,32.6178533,-96.9176934
1421,North Highway 67,75104,32.6174887,-96.9182997
1427,North Highway 67,75104,32.6175786,-96.9178408
1425,North Highway 67,75104,32.6178209,-96.9182535
1335,Shields Avenue,75104,32.6181157,-96.9221043
1327,Shields Avenue,75104,32.6177122,-96.9221558
1343,Shields Avenue,75104,32.6185181,-96.9219513
1323,Shields Avenue,75104,32.6175103,-96.9221385
1331,Shields Avenue,75104,32.6179170,-96.9221523
1311,Shields Avenue,75104,32.6169313,-96.9221442
1025,Ruth Street,75104,32.6167930,-96.9200799
1006,Ruth Street,75104,32.6163666,-96.9214784
1022,Ruth Street,75104,32.6163344,-96.9203853
1014,Ruth Street,75104,32.6163515,-96.9210298
1320,Elise Street,75104,32.6174168,-96.9197917
1324,Elise Street,75104,32.6176112,-96.9197860
1006,Molly Court,75104,32.6180987,-96.9212806
1316,Elise Street,75104,32.6172038,-96.9198679
1002,Grover Court,75104,32.6171542,-96.9216602
1332,Elise Street,75104,32.6180246,-96.9197922
1336,Elise Street,75104,32.6182223,-96.9197821
1018,Grover Court,75104,32.6171511,-96.9206757
1007,Molly Court,75104,32.6185811,-96.9211022
1340,Elise Street,75104,32.6184311,-96.9196894
1018,Molly Court,75104,32.6180776,-96.9205368
1014,Molly Court,75104,32.6180947,-96.9207857
1010,Molly Court,75104,32.6180977,-96.9210479
1023,Grover Court,75104,32.6177313,-96.9204977
1328,Elise Street,75104,32.6178309,-96.9197813
1019,Grover Court,75104,32.6177297,-96.9207423
1011,Grover Court,75104,32.6176125,-96.9212304
1015,Grover Court,75104,32.6176305,-96.9209970
1155,North Highway 67,75104,32.6133256,-96.9239687
1113 #5,North Highway 67,75104,32.6118893,-96.9245414
1109,North Highway 67,75104,32.6117023,-96.9248320
1231,East Pleasant Run Road,75104,32.6056639,-96.9137037
1231,East Pleasant Run Road,75104,32.6056374,-96.9149166
1231,East Pleasant Run Road,75104,32.6049541,-96.9128550
1459,Oxbow Drive,75104,32.6185783,-96.9124332
1188,North Highway 67,75104,32.6120267,-96.9217177
1014,N Joe Wilson Road,75104,32.6069319,-96.9247022
1447,Oxbow Drive,75104,32.6180087,-96.9124660
1451,Oxbow Drive,75104,32.6182055,-96.9124398
1455,Oxbow Drive,75104,32.6184039,-96.9124704
1443,Oxbow Drive,75104,32.6178119,-96.9124358
1439,Oxbow Drive,75104,32.6176171,-96.9124562
1232,North Highway 67,75104,32.6124718,-96.9203463
1423,Oxbow Drive,75104,32.6168203,-96.9124737
1403,Oxbow Drive,75104,32.6157727,-96.9124665
910,Wooded Creek Drive,75104,32.6060279,-96.9241555
1407,Oxbow Drive,75104,32.6160294,-96.9124854
1415,Oxbow Drive,75104,32.6164207,-96.9124417
1200,North Highway 67,75104,32.6111590,-96.9224990
1318,North Highway 67,75104,32.6137197,-96.9185015
1435,Oxbow Drive,75104,32.6174121,-96.9124415
1431,Oxbow Drive,75104,32.6172177,-96.9124435
1411,Oxbow Drive,75104,32.6162240,-96.9124455
1400,North Highway 67,75104,32.6152683,-96.9160402
1419,Oxbow Drive,75104,32.6166194,-96.9124424
1427,Oxbow Drive,75104,32.6170277,-96.9124333
962,Wooded Creek Drive,75104,32.6084867,-96.9222804
970,Wooded Creek Drive,75104,32.6086054,-96.9217792
918,Wooded Creek Drive,75104,32.6062874,-96.9237749
934,Wooded Creek Drive,75104,32.6071488,-96.9233250
946,Wooded Creek Drive,75104,32.6077724,-96.9231525
942,Wooded Creek Drive,75104,32.6076124,-96.9232267
950,Wooded Creek Drive,75104,32.6079747,-96.9230194
914,Wooded Creek Drive,75104,32.6060927,-96.9239896
922,Wooded Creek Drive,75104,32.6064721,-96.9235738
966,Wooded Creek Drive,75104,32.6085699,-96.9220036
938,Wooded Creek Drive,75104,32.6073856,-96.9232809
1438,Oxbow Drive,75104,32.6175937,-96.9119163
1426,Oxbow Drive,75104,32.6170213,-96.9118796
1454,Oxbow Drive,75104,32.6183643,-96.9118891
1434,Oxbow Drive,75104,32.6174089,-96.9119106
1442,Oxbow Drive,75104,32.6177873,-96.9119030
1422,Oxbow Drive,75104,32.6168191,-96.9118894
1450,Oxbow Drive,75104,32.6181723,-96.9118916
1430,Oxbow Drive,75104,32.6172143,-96.9119106
1458,Oxbow Drive,75104,32.6185415,-96.9119053
1418,Oxbow Drive,75104,32.6166219,-96.9119070
1446,Oxbow Drive,75104,32.6179787,-96.9119133
1403,Levee Lane,75104,32.6160312,-96.9114801
1419,Levee Lane,75104,32.6168325,-96.9114857
1427,Levee Lane,75104,32.6172234,-96.9114987
1415,Levee Lane,75104,32.6166419,-96.9114862
1406,Oxbow Drive,75104,32.6160310,-96.9119139
1407,Levee Lane,75104,32.6162094,-96.9114786
1414,Oxbow Drive,75104,32.6164185,-96.9119098
1423,Levee Lane,75104,32.6170261,-96.9114883
1411,Levee Lane,75104,32.6164224,-96.9114927
1410,Oxbow Drive,75104,32.6162160,-96.9118917
1454,Levee Lane,75104,32.6185484,-96.9109675
1431,Levee Lane,75104,32.6174035,-96.9114917
1446,Levee Lane,75104,32.6181671,-96.9109623
1439,Levee Lane,75104,32.6177951,-96.9114912
1451,Levee Lane,75104,32.6183754,-96.9115059
1447,Levee Lane,75104,32.6181752,-96.9115130
1450,Levee Lane,75104,32.6183638,-96.9109615
1442,Levee Lane,75104,32.6179696,-96.9109396
1435,Levee Lane,75104,32.6175995,-96.9114960
1443,Levee Lane,75104,32.6179639,-96.9114907
1455,Levee Lane,75104,32.6185629,-96.9114921
1402,Levee Lane,75104,32.6158870,-96.9109203
1422,Levee Lane,75104,32.6170131,-96.9109449
1414,Levee Lane,75104,32.6166301,-96.9109578
1410,Levee Lane,75104,32.6164530,-96.9109671
1426,Levee Lane,75104,32.6171964,-96.9109641
1438,Levee Lane,75104,32.6177813,-96.9109585
1430,Levee Lane,75104,32.6173949,-96.9109529
1406,Levee Lane,75104,32.6160590,-96.9109303
1434,Levee Lane,75104,32.6175872,-96.9109354
1418,Levee Lane,75104,32.6168237,-96.9109606
1403,Delta Drive,75104,32.6169537,-96.9104145
1410,Delta Drive,75104,32.6176881,-96.9100342
1407,Delta Drive,75104,32.6171247,-96.9105252
1419,Delta Drive,75104,32.6177582,-96.9105489
1414,Delta Drive,75104,32.6178940,-96.9100389
1435,Delta Drive,75104,32.6185300,-96.9105717
1411,Delta Drive,75104,32.6173554,-96.9105526
1411,Watercourse Way,75104,32.6179239,-96.9096643
1431,Delta Drive,75104,32.6183405,-96.9105658
1423,Delta Drive,75104,32.6179602,-96.9105583
1407,Watercourse Way,75104,32.6176960,-96.9096751
1418,Delta Drive,75104,32.6181168,-96.9100285
1406,Delta Drive,75104,32.6174748,-96.9100143
1426,Delta Drive,75104,32.6185406,-96.9100257
1415,Delta Drive,75104,32.6175429,-96.9105564
1403,Watercourse Way,75104,32.6174921,-96.9096643
1427,Delta Drive,75104,32.6181340,-96.9105648
1422,Delta Drive,75104,32.6183279,-96.9100309
1402,Delta Drive,75104,32.6172627,-96.9099978
1307,Watercourse Way,75104,32.6167542,-96.9105966
1415,Watercourse Way,75104,32.6181459,-96.9096507
1419,Watercourse Way,75104,32.6183437,-96.9096616
982,Wooded Creek Drive,75104,32.6087025,-96.9209737
1414,Watercourse Way,75104,32.6181480,-96.9091295
978,Wooded Creek Drive,75104,32.6086675,-96.9212570
1402,Watercourse Way,75104,32.6175482,-96.9091436
1422,Watercourse Way,75104,32.6185146,-96.9091289
1410,Watercourse Way,75104,32.6179510,-96.9091244
1418,Watercourse Way,75104,32.6183354,-96.9091322
974,Wooded Creek Drive,75104,32.6086403,-96.9215054
1423,Watercourse Way,75104,32.6185209,-96.9096689
1406,Watercourse Way,75104,32.6177541,-96.9090839
986,Wooded Creek Drive,75104,32.6087360,-96.9207021
1002,Wooded Creek Drive,75104,32.6087968,-96.9202392
1022,Wooded Creek Drive,75104,32.6093977,-96.9187410
1018,Wooded Creek Drive,75104,32.6092616,-96.9189202
1010,Wooded Creek Drive,75104,32.6088862,-96.9197457
1014,Wooded Creek Drive,75104,32.6090813,-96.9192098
1014,Fieldstone Drive,75104,32.6047170,-96.9205305
1042,Fieldstone Drive,75104,32.6047054,-96.9188984
1010,Fieldstone Drive,75104,32.6047195,-96.9207655
1007,Pagewood Court,75104,32.6088893,-96.9187027
1006,Fieldstone Drive,75104,32.6047206,-96.9210055
1022,Fieldstone Drive,75104,32.6047136,-96.9200594
1002,Fieldstone Drive,75104,32.6047189,-96.9212307
910,Fieldstone Drive,75104,32.6047280,-96.9227614
1030,Fieldstone Drive,75104,32.6047085,-96.9196001
906,Fieldstone Drive,75104,32.6047058,-96.9229889
922,Fieldstone Drive,75104,32.6047268,-96.9220506
1026,Fieldstone Drive,75104,32.6047147,-96.9198112
1015,Pagewood Court,75104,32.6092786,-96.9183625
1046,Fieldstone Drive,75104,32.6047014,-96.9186486
902,Fieldstone Drive,75104,32.6047048,-96.9233035
1038,Fieldstone Drive,75104,32.6047103,-96.9191029
1003,Pagewood Court,75104,32.6085241,-96.9184782
1018,Fieldstone Drive,75104,32.6047216,-96.9202978
1011,Pagewood Court,75104,32.6091146,-96.9185428
1034,Fieldstone Drive,75104,32.6047068,-96.9193588
1003,Hollow Creek Drive,75104,32.6058596,-96.9229868
1019,Hollow Creek Drive,75104,32.6067220,-96.9227875
1023,Hollow Creek Drive,75104,32.6069417,-96.9227453
1027,Hollow Creek Drive,75104,32.6071556,-96.9227054
1015,Hollow Creek Drive,75104,32.6064829,-96.9228242
1007,Hollow Creek Drive,75104,32.6060529,-96.9229181
1031,Hollow Creek Drive,75104,32.6073406,-96.9226483
1035,Hollow Creek Drive,75104,32.6075842,-96.9225278
902,Countryside Drive,75104,32.6055638,-96.9229091
1011,Hollow Creek Drive,75104,32.6062636,-96.9228898
1039,Hollow Creek Drive,75104,32.6078551,-96.9223636
1050,Greenbriar Trail,75104,32.6084998,-96.9201593
1024,Ravine Trail,75104,32.6081605,-96.9186174
1047,Hollow Creek Drive,75104,32.6081327,-96.9219439
1018,Southwestern Drive,75104,32.6078870,-96.9171701
1032,Ravine Trail,75104,32.6085722,-96.9189967
1051,Hollow Creek Drive,75104,32.6082349,-96.9216900
1043,Hollow Creek Drive,75104,32.6079972,-96.9221742
1020,Ravine Trail,75104,32.6080707,-96.9183590
1055,Hollow Creek Drive,75104,32.6083088,-96.9213998
1039,Ravine Trail,75104,32.6085688,-96.9196479
1028,Ravine Trail,75104,32.6083540,-96.9188281
1019,Ravine Trail,75104,32.6076731,-96.9187236
910,Southwestern Drive,75104,32.6054038,-96.9171588
1110,Fieldstone Drive,75104,32.6047005,-96.9177224
934,Southwestern Drive,75104,32.6065323,-96.9171449
1015,Ravine Trail,75104,32.6075796,-96.9185395
1102,Fieldstone Drive,75104,32.6047330,-96.9181541
918,Southwestern Drive,75104,32.6057765,-96.9171808
1118,Fieldstone Drive,75104,32.6047639,-96.9171666
938,Southwestern Drive,75104,32.6067342,-96.9171538
1010,Southwestern Drive,75104,32.6075169,-96.9171529
1011,Ravine Trail,75104,32.6074997,-96.9182380
1035,Ravine Trail,75104,32.6083366,-96.9195285
906,Southwestern Drive,75104,32.6052017,-96.9171468
1002,Greenbriar Trail,75104,32.6070955,-96.9177498
1023,Greenbriar Trail,75104,32.6068500,-96.9189928
1026,Greenbriar Trail,75104,32.6074577,-96.9190872
1015,Greenbriar Trail,75104,32.6067047,-96.9185179
1003,Greenbriar Trail,75104,32.6066020,-96.9177019
1039,Greenbriar Trail,75104,32.6074031,-96.9199358
1051,Greenbriar Trail,75104,32.6079126,-96.9205427
1018,Greenbriar Trail,75104,32.6072618,-96.9186124
1030,Greenbriar Trail,75104,32.6075882,-96.9193327
1035,Greenbriar Trail,75104,32.6071748,-96.9196575
1042,Greenbriar Trail,75104,32.6080227,-96.9199280
1034,Greenbriar Trail,75104,32.6076989,-96.9194516
1038,Greenbriar Trail,75104,32.6078992,-96.9196881
907,Fieldstone Drive,75104,32.6051889,-96.9228723
907,Southwestern Drive,75104,32.6053415,-96.9177309
911,Southwestern Drive,75104,32.6055740,-96.9177289
903,Fieldstone Drive,75104,32.6052765,-96.9231779
919,Southwestern Drive,75104,32.6060744,-96.9177337
923,Southwestern Drive,75104,32.6062867,-96.9177342
903,Southwestern Drive,75104,32.6051455,-96.9177146
1419,Windmill Hill Lane,75104,32.6142073,-96.9104149
1423,Windmill Hill Lane,75104,32.6143083,-96.9099802
1427,Windmill Hill Lane,75104,32.6143863,-96.9096157
1431,Windmill Hill Lane,75104,32.6143341,-96.9092187
1435,Windmill Hill Lane,75104,32.6143764,-96.9088254
920,Bending Oak Drive,75104,32.6051132,-96.9181133
928,Bending Oak Drive,75104,32.6055881,-96.9181866
936,Bending Oak Drive,75104,32.6060504,-96.9183406
1040,Bending Oak Drive,75104,32.6077137,-96.9208738
1004,Bending Oak Drive,75104,32.6064974,-96.9190281
1008,Bending Oak Drive,75104,32.6065954,-96.9192666
1016,Bending Oak Drive,75104,32.6068188,-96.9197140
932,Bending Oak Drive,75104,32.6057857,-96.9182351
1032,Bending Oak Drive,75104,32.6073987,-96.9205387
1000,Bending Oak Drive,75104,32.6063904,-96.9188348
1028,Bending Oak Drive,75104,32.6072300,-96.9203214
940,Bending Oak Drive,75104,32.6062735,-96.9185175
1036,Bending Oak Drive,75104,32.6075437,-96.9207164
1024,Bending Oak Drive,75104,32.6071025,-96.9201293
924,Bending Oak Drive,75104,32.6053318,-96.9181282
1044,Bending Oak Drive,75104,32.6078797,-96.9209845
1012,Bending Oak Drive,75104,32.6067386,-96.9195440
1020,Bending Oak Drive,75104,32.6069541,-96.9199364
919,Fieldstone Drive,75104,32.6051883,-96.9221826
923,Fieldstone Drive,75104,32.6051975,-96.9219660
1039,Fieldstone Drive,75104,32.6051727,-96.9191631
1031,Fieldstone Drive,75104,32.6051750,-96.9196373
1011,Fieldstone Drive,75104,32.6051845,-96.9208166
1035,Fieldstone Drive,75104,32.6051730,-96.9193976
1027,Fieldstone Drive,75104,32.6051764,-96.9198727
915,Fieldstone Drive,75104,32.6051845,-96.9224217
1043,Fieldstone Drive,75104,32.6051718,-96.9189257
1015,Fieldstone Drive,75104,32.6051641,-96.9205661
1412,Windmill Hill Lane,75104,32.6135867,-96.9112134
1019,Fieldstone Drive,75104,32.6051756,-96.9203557
927,Fieldstone Drive,75104,32.6051869,-96.9217351
1023,Fieldstone Drive,75104,32.6051722,-96.9201125
1003,Fieldstone Drive,75104,32.6051788,-96.9213380
1007,Fieldstone Drive,75104,32.6051793,-96.9210595
1047,Fieldstone Drive,75104,32.6051922,-96.9186873
1010,Countryside Drive,75104,32.6055251,-96.9207986
906,Countryside Drive,75104,32.6055181,-96.9225495
1026,Countryside Drive,75104,32.6055248,-96.9197018
1018,Countryside Drive,75104,32.6055515,-96.9202306
1022,Countryside Drive,75104,32.6055282,-96.9199613
1030,Countryside Drive,75104,32.6055407,-96.9194314
1034,Countryside Drive,75104,32.6055978,-96.9191869
918,Countryside Drive,75104,32.6055479,-96.9217881
1014,Countryside Drive,75104,32.6055260,-96.9205255
910,Countryside Drive,75104,32.6055384,-96.9222806
1002,Countryside Drive,75104,32.6055442,-96.9212818
1006,Countryside Drive,75104,32.6055494,-96.9210545
914,Countryside Drive,75104,32.6055377,-96.9219780
925,Bending Oak Drive,75104,32.6055067,-96.9187678
929,Bending Oak Drive,75104,32.6057136,-96.9188576
911,Countryside Drive,75104,32.6060257,-96.9220391
907,Countryside Drive,75104,32.6060259,-96.9223309
1015,Countryside Drive,75104,32.6060167,-96.9203663
1027,Countryside Drive,75104,32.6060155,-96.9196117
1031,Countryside Drive,75104,32.6060797,-96.9193666
1011,Countryside Drive,75104,32.6060177,-96.9206254
1019,Countryside Drive,75104,32.6060135,-96.9201396
1023,Countryside Drive,75104,32.6060116,-96.9199066
915,Countryside Drive,75104,32.6060243,-96.9217933
1002,Parkwood Drive,75104,32.6060419,-96.9212306
1007,Countryside Drive,75104,32.6060211,-96.9209231
1420,Windmill Hill Lane,75104,32.6136489,-96.9103914
1014,Hollow Creek Drive,75104,32.6065500,-96.9222776
1006,Parkwood Drive,75104,32.6062210,-96.9212505
1019,Bending Oak Drive,75104,32.6066011,-96.9203354
1027,Bending Oak Drive,75104,32.6069105,-96.9207691
1027,Parkwood Drive,75104,32.6074915,-96.9212902
1018,Hollow Creek Drive,75104,32.6067111,-96.9222362
1010,Hollow Creek Drive,75104,32.6063087,-96.9222877
1011,Parkwood Drive,75104,32.6065499,-96.9217822
1011,Bending Oak Drive,75104,32.6063657,-96.9198703
1015,Bending Oak Drive,75104,32.6064479,-96.9200947
1038,Hollow Creek Drive,75104,32.6076681,-96.9217294
1034,Hollow Creek Drive,75104,32.6075395,-96.9219025
1022,Parkwood Drive,75104,32.6070577,-96.9210002
1015,Parkwood Drive,75104,32.6068050,-96.9217594
1042,Hollow Creek Drive,75104,32.6077612,-96.9215186
1030,Hollow Creek Drive,75104,32.6073669,-96.9220124
1026,Hollow Creek Drive,75104,32.6071638,-96.9221026
1022,Hollow Creek Drive,75104,32.6069576,-96.9221407
1018,Parkwood Drive,75104,32.6069124,-96.9211557
1007,Parkwood Drive,75104,32.6063126,-96.9218002
1019,Parkwood Drive,75104,32.6070526,-96.9217057
1010,Parkwood Drive,75104,32.6064566,-96.9212420
1014,Parkwood Drive,75104,32.6067006,-96.9212247
1413,Peak Street,75104,32.6132213,-96.9111781
1023,Bending Oak Drive,75104,32.6067283,-96.9205716
1023,Parkwood Drive,75104,32.6072825,-96.9215331
1417,Peak Street,75104,32.6132037,-96.9108085
1432,Windmill Hill Lane,75104,32.6138189,-96.9092187
1437,Peak Street,75104,32.6133674,-96.9088129
1424,Windmill Hill Lane,75104,32.6137238,-96.9099957
1433,Peak Street,75104,32.6133172,-96.9092462
1436,Windmill Hill Lane,75104,32.6137358,-96.9088267
1429,Peak Street,75104,32.6132970,-96.9096165
1425,Peak Street,75104,32.6132405,-96.9099557
1003,Essex Drive,75104,32.6048739,-96.9105273
1428,Windmill Hill Lane,75104,32.6138576,-96.9095865
1005,Essex Drive,75104,32.6049876,-96.9106507
1001,Essex Drive,75104,32.6047843,-96.9102683
1430,Peak Street,75104,32.6127664,-96.9096216
1438,Peak Street,75104,32.6127102,-96.9088397
1414,Peak Street,75104,32.6126889,-96.9113448
1418,Peak Street,75104,32.6127141,-96.9109886
1434,Peak Street,75104,32.6128278,-96.9092268
1431,Driftwood Lane,75104,32.6123119,-96.9100156
1435,Driftwood Lane,75104,32.6123409,-96.9095967
1427,Driftwood Lane,75104,32.6123348,-96.9103559
1439,Driftwood Lane,75104,32.6123452,-96.9092159
1443,Driftwood Lane,75104,32.6123061,-96.9087811
1436,Driftwood Lane,75104,32.6118172,-96.9095334
1428,Driftwood Lane,75104,32.6118204,-96.9103160
1007,Essex Drive,75104,32.6051024,-96.9108116
1440,Driftwood Lane,75104,32.6118436,-96.9091459
1432,Driftwood Lane,75104,32.6118579,-96.9099440
1424,Driftwood Lane,75104,32.6118356,-96.9107413
1403,Birkshire Lane,75104,32.6111753,-96.9114356
1009,Essex Drive,75104,32.6052280,-96.9109465
1443,Birkshire Lane,75104,32.6111528,-96.9094738
1427,Birkshire Lane,75104,32.6111607,-96.9102313
1411,Birkshire Lane,75104,32.6111610,-96.9110292
1435,Birkshire Lane,75104,32.6111596,-96.9098587
1447,Birkshire Lane,75104,32.6111586,-96.9092764
1415,Birkshire Lane,75104,32.6111610,-96.9108356
1455,Birkshire Lane,75104,32.6111621,-96.9088709
1423,Birkshire Lane,75104,32.6111563,-96.9104502
1431,Birkshire Lane,75104,32.6111601,-96.9100523
1439,Birkshire Lane,75104,32.6111552,-96.9096656
1407,Birkshire Lane,75104,32.6111643,-96.9112299
1459,Birkshire Lane,75104,32.6111607,-96.9086609
1451,Birkshire Lane,75104,32.6111553,-96.9090650
1419,Birkshire Lane,75104,32.6111594,-96.9106416
1149,Essex Drive,75104,32.6107299,-96.9113289
1113,Essex Drive,75104,32.6092524,-96.9113143
1121,Essex Drive,75104,32.6095792,-96.9113052
1125,Essex Drive,75104,32.6097387,-96.9113235
1117,Essex Drive,75104,32.6094181,-96.9113105
1129,Essex Drive,75104,32.6099145,-96.9113089
1141,Essex Drive,75104,32.6104107,-96.9113104
1109,Essex Drive,75104,32.6090887,-96.9113201
1137,Essex Drive,75104,32.6102444,-96.9113276
1145,Essex Drive,75104,32.6105781,-96.9113040
1105,Essex Drive,75104,32.6089297,-96.9113123
1101,Essex Drive,75104,32.6087633,-96.9112809
1133,Essex Drive,75104,32.6100783,-96.9113101
1047,Essex Drive,75104,32.6083807,-96.9112830
1037,Essex Drive,75104,32.6075558,-96.9112871
1039,Essex Drive,75104,32.6077192,-96.9113163
1031,Essex Drive,75104,32.6070617,-96.9113060
1049,Essex Drive,75104,32.6085392,-96.9113180
1041,Essex Drive,75104,32.6078829,-96.9113053
1035,Essex Drive,75104,32.6073836,-96.9113189
1045,Essex Drive,75104,32.6082128,-96.9113272
1033,Essex Drive,75104,32.6072218,-96.9113168
1043,Essex Drive,75104,32.6080493,-96.9113205
1017,Essex Drive,75104,32.6058474,-96.9113066
1013,Essex Drive,75104,32.6054997,-96.9112545
1025,Essex Drive,75104,32.6065703,-96.9113002
1011,Essex Drive,75104,32.6053476,-96.9110831
1023,Essex Drive,75104,32.6063371,-96.9113119
1027,Essex Drive,75104,32.6067309,-96.9113160
1029,Essex Drive,75104,32.6069059,-96.9113062
1021,Essex Drive,75104,32.6061794,-96.9113162
1015,Essex Drive,75104,32.6056802,-96.9113155
1019,Essex Drive,75104,32.6060109,-96.9112952
1148,Essex Drive,75104,32.6107118,-96.9107457
1144,Essex Drive,75104,32.6105507,-96.9107710
1140,Essex Drive,75104,32.6103862,-96.9107683
1132,Essex Drive,75104,32.6100559,-96.9107454
1136,Essex Drive,75104,32.6102213,-96.9107672
1116,Essex Drive,75104,32.6093932,-96.9107713
1108,Essex Drive,75104,32.6090692,-96.9107524
1050,Essex Drive,75104,32.6085582,-96.9108119
1124,Essex Drive,75104,32.6097234,-96.9107436
1128,Essex Drive,75104,32.6098886,-96.9107671
1120,Essex Drive,75104,32.6095593,-96.9107706
1046,Essex Drive,75104,32.6082289,-96.9107549
1048,Essex Drive,75104,32.6083906,-96.9107554
1104,Essex Drive,75104,32.6089016,-96.9107713
1112,Essex Drive,75104,32.6092289,-96.9107695
1038,Essex Drive,75104,32.6075661,-96.9107954
1044,Essex Drive,75104,32.6080617,-96.9107568
1028,Essex Drive,75104,32.6067401,-96.9107923
1042,Essex Drive,75104,32.6078971,-96.9107563
1024,Essex Drive,75104,32.6064123,-96.9107546
1034,Essex Drive,75104,32.6072281,-96.9107648
1040,Essex Drive,75104,32.6077326,-96.9107646
1026,Essex Drive,75104,32.6065794,-96.9107888
1022,Essex Drive,75104,32.6062377,-96.9107647
1014,Essex Drive,75104,32.6057560,-96.9107501
1018,Essex Drive,75104,32.6059197,-96.9107647
1036,Essex Drive,75104,32.6074069,-96.9107501
1032,Essex Drive,75104,32.6070731,-96.9107563
1030,Essex Drive,75104,32.6069068,-96.9107679
1020,Essex Drive,75104,32.6060845,-96.9107666
1123,Hampshire Lane,75104,32.6097196,-96.9103300
1041,Hampshire Lane,75104,32.6079095,-96.9102884
1111,Hampshire Lane,75104,32.6092261,-96.9103185
1119,Hampshire Lane,75104,32.6095564,-96.9103188
1115,Hampshire Lane,75104,32.6093823,-96.9103364
1139,Hampshire Lane,75104,32.6103827,-96.9103227
1103,Hampshire Lane,75104,32.6088969,-96.9103398
1047,Hampshire Lane,75104,32.6083972,-96.9103286
1143,Hampshire Lane,75104,32.6105414,-96.9103152
1039,Hampshire Lane,75104,32.6077365,-96.9102921
1037,Hampshire Lane,75104,32.6075715,-96.9103214
1045,Hampshire Lane,75104,32.6082250,-96.9103252
1049,Hampshire Lane,75104,32.6085515,-96.9103150
1107,Hampshire Lane,75104,32.6090626,-96.9103418
1147,Hampshire Lane,75104,32.6107104,-96.9103166
1135,Hampshire Lane,75104,32.6102174,-96.9103194
1131,Hampshire Lane,75104,32.6100506,-96.9103176
1127,Hampshire Lane,75104,32.6098871,-96.9103310
1043,Hampshire Lane,75104,32.6080597,-96.9103328
1029,Hampshire Lane,75104,32.6069048,-96.9102969
1025,Hampshire Lane,75104,32.6065706,-96.9102892
1146,Hampshire Lane,75104,32.6107139,-96.9097825
1017,Hampshire Lane,75104,32.6059313,-96.9102902
1033,Hampshire Lane,75104,32.6072386,-96.9103237
1428,Meadow Vista Drive,75104,32.6054976,-96.9091328
1021,Hampshire Lane,75104,32.6062426,-96.9103243
1432,Meadow Vista Drive,75104,32.6054964,-96.9089330
1436,Meadow Vista Drive,75104,32.6055143,-96.9086775
1400,Meadow Vista Drive,75104,32.6053792,-96.9105010
1404,Meadow Vista Drive,75104,32.6054697,-96.9103243
1147,Suffolk Lane,75104,32.6107106,-96.9093505
1412,Meadow Vista Drive,75104,32.6055045,-96.9099173
1023,Hampshire Lane,75104,32.6064060,-96.9103074
1035,Hampshire Lane,75104,32.6074077,-96.9103066
1408,Meadow Vista Drive,75104,32.6055061,-96.9101099
1019,Hampshire Lane,75104,32.6060807,-96.9103191
1420,Meadow Vista Drive,75104,32.6055051,-96.9095218
1027,Hampshire Lane,75104,32.6067386,-96.9102886
1424,Meadow Vista Drive,75104,32.6055094,-96.9093221
1031,Hampshire Lane,75104,32.6070680,-96.9103196
1416,Meadow Vista Drive,75104,32.6055048,-96.9097227
1146,Suffolk Lane,75104,32.6107164,-96.9087880
1142,Hampshire Lane,75104,32.6105503,-96.9097833
1134,Hampshire Lane,75104,32.6102188,-96.9097545
1130,Hampshire Lane,75104,32.6100510,-96.9097560
1138,Hampshire Lane,75104,32.6103822,-96.9097766
1138,Suffolk Lane,75104,32.6103270,-96.9087895
1134,Suffolk Lane,75104,32.6101653,-96.9087883
1127,Suffolk Lane,75104,32.6098834,-96.9093282
1139,Suffolk Lane,75104,32.6103641,-96.9093286
1131,Suffolk Lane,75104,32.6100490,-96.9093405
1130,Suffolk Lane,75104,32.6099945,-96.9087661
1142,Suffolk Lane,75104,32.6104946,-96.9087911
1135,Suffolk Lane,75104,32.6102165,-96.9093505
1122,Hampshire Lane,75104,32.6097236,-96.9097505
1143,Suffolk Lane,75104,32.6105441,-96.9093539
1126,Hampshire Lane,75104,32.6098909,-96.9097792
1126,Suffolk Lane,75104,32.6098285,-96.9087823
1122,Suffolk Lane,75104,32.6096636,-96.9087843
1123,Suffolk Lane,75104,32.6097205,-96.9093255
1106,Suffolk Lane,75104,32.6090073,-96.9087804
1107,Suffolk Lane,75104,32.6090649,-96.9093228
1110,Suffolk Lane,75104,32.6091735,-96.9087878
1103,Suffolk Lane,75104,32.6088951,-96.9093434
1111,Suffolk Lane,75104,32.6092303,-96.9093257
1114,Suffolk Lane,75104,32.6093414,-96.9087697
1114,Hampshire Lane,75104,32.6093931,-96.9097819
1102,Hampshire Lane,75104,32.6089067,-96.9097618
1115,Suffolk Lane,75104,32.6093883,-96.9093249
1118,Suffolk Lane,75104,32.6095040,-96.9087890
1119,Suffolk Lane,75104,32.6095542,-96.9093227
1102,Suffolk Lane,75104,32.6088355,-96.9087806
1106,Hampshire Lane,75104,32.6090708,-96.9097786
1118,Hampshire Lane,75104,32.6095616,-96.9097851
1110,Hampshire Lane,75104,32.6092273,-96.9097759
1044,Hampshire Lane,75104,32.6080469,-96.9097703
1069,Suffolk Lane,75104,32.6080572,-96.9093217
1077,Suffolk Lane,75104,32.6083917,-96.9093446
1073,Suffolk Lane,75104,32.6082286,-96.9093237
1081,Suffolk Lane,75104,32.6085641,-96.9093445
1078,Suffolk Lane,75104,32.6084500,-96.9087671
1070,Suffolk Lane,75104,32.6081153,-96.9087771
1050,Hampshire Lane,75104,32.6085547,-96.9097616
1066,Suffolk Lane,75104,32.6079467,-96.9087645
1082,Suffolk Lane,75104,32.6086163,-96.9087907
1065,Suffolk Lane,75104,32.6078924,-96.9093209
1048,Hampshire Lane,75104,32.6083872,-96.9097607
1042,Hampshire Lane,75104,32.6078914,-96.9097582
1074,Suffolk Lane,75104,32.6082831,-96.9087608
1046,Hampshire Lane,75104,32.6082251,-96.9097740
1040,Hampshire Lane,75104,32.6077231,-96.9097563
1034,Hampshire Lane,75104,32.6072216,-96.9097707
1038,Hampshire Lane,75104,32.6075669,-96.9097551
1050,Suffolk Lane,75104,32.6072941,-96.9087789
1057,Suffolk Lane,75104,32.6075669,-96.9093461
1058,Suffolk Lane,75104,32.6076067,-96.9087823
1036,Hampshire Lane,75104,32.6074101,-96.9097669
1062,Suffolk Lane,75104,32.6077856,-96.9087592
1053,Suffolk Lane,75104,32.6074005,-96.9093458
1061,Suffolk Lane,75104,32.6077299,-96.9093224
1054,Suffolk Lane,75104,32.6074579,-96.9087828
1049,Suffolk Lane,75104,32.6072344,-96.9093182
1030,Hampshire Lane,75104,32.6069016,-96.9097570
1037,Suffolk Lane,75104,32.6067444,-96.9093414
1028,Hampshire Lane,75104,32.6067443,-96.9097804
1038,Suffolk Lane,75104,32.6068010,-96.9087758
1042,Suffolk Lane,75104,32.6069638,-96.9087796
1045,Suffolk Lane,75104,32.6070683,-96.9093428
1041,Suffolk Lane,75104,32.6069046,-96.9093431
1032,Hampshire Lane,75104,32.6070686,-96.9097738
1046,Suffolk Lane,75104,32.6071278,-96.9087760
1029,Suffolk Lane,75104,32.6064106,-96.9093172
1022,Suffolk Lane,75104,32.6061512,-96.9087593
1020,Hampshire Lane,75104,32.6060849,-96.9097610
1018,Suffolk Lane,75104,32.6059085,-96.9087603
1026,Suffolk Lane,75104,32.6063055,-96.9087584
1018,Hampshire Lane,75104,32.6059087,-96.9097568
1030,Suffolk Lane,75104,32.6064691,-96.9087608
1024,Hampshire Lane,75104,32.6064232,-96.9097651
1022,Hampshire Lane,75104,32.6062462,-96.9097756
1026,Hampshire Lane,75104,32.6065766,-96.9097968
1021,Suffolk Lane,75104,32.6060823,-96.9093142
1025,Suffolk Lane,75104,32.6062452,-96.9093405
1017,Suffolk Lane,75104,32.6059172,-96.9093173
1033,Suffolk Lane,75104,32.6065779,-96.9093399
1034,Suffolk Lane,75104,32.6066316,-96.9087796
1445,N Joe Wilson Road,75104,32.6196513,-96.9258347
1413,N Joe Wilson Road,75104,32.6175878,-96.9265464
1005,East Wintergreen Road,75104,32.6192535,-96.9213333
813,East Wintergreen Road,75104,32.6194459,-96.9239685
905,East Wintergreen Road,75104,32.6195237,-96.9232273
1111,East Wintergreen Road,75104,32.6193379,-96.9172475
805,East Wintergreen Road,75104,32.6192485,-96.9245331
909,East Wintergreen Road,75104,32.6194405,-96.9228232
913,East Wintergreen Road,75104,32.6193792,-96.9225626
1440,N Joe Wilson Road,75104,32.6192651,-96.9249729
917,East Wintergreen Road,75104,32.6193960,-96.9219350
817,East Wintergreen Road,75104,32.6195385,-96.9235963
1021,East Wintergreen Road,75104,32.6197741,-96.9196146
1011,East Wintergreen Road,75104,32.6192717,-96.9206908
1027,East Wintergreen Road,75104,32.6192934,-96.9191881
1041,East Wintergreen Road,75104,32.6192926,-96.9180013
1037,East Wintergreen Road,75104,32.6193501,-96.9184870
1150,East Pleasant Run Road,75104,32.6038010,-96.9173610
1150,East Pleasant Run Road,75104,32.6037629,-96.9177943
1455,N Joe Wilson Road,75104,32.6200907,-96.9260939
1427,N Joe Wilson Road,75104,32.6183290,-96.9271849
1317,N Joe Wilson Road,75104,32.6153495,-96.9258164
1441,N Joe Wilson Road,75104,32.6192285,-96.9268286
1435,North Highway 67,75104,32.6180498,-96.9179168
1429,North Highway 67,75104,32.6176816,-96.9178352
1210,East Pleasant Run Road,75104,32.6039687,-96.9139774
1210,East Pleasant Run Road,75104,32.6036436,-96.9140819
855,North Duncanville Road,75104,32.6039394,-96.9091121
1444,N Joe Wilson Road,75104,32.6194999,-96.9250493
1448,N Joe Wilson Road,75104,32.6197596,-96.9250198
1456,N Joe Wilson Road,75104,32.6201628,-96.9249238
1461,N Joe Wilson Road,75104,32.6206144,-96.9263007
1040,Sherman Drive,75104,32.6214236,-96.9179481
1046,Sherman Drive,75104,32.6212731,-96.9174067
1420,Shields Avenue,75104,32.6205923,-96.9212570
1428,Shields Avenue,75104,32.6212324,-96.9212309
1034,Sherman Drive,75104,32.6215468,-96.9183355
1501,North J. Elmer Weaver Freeway,75104,32.6207332,-96.9141676
1424,Shields Avenue,75104,32.6208940,-96.9212151
1028,Sherman Drive,75104,32.6214231,-96.9190196
1008,Sherman Drive,75104,32.6214487,-96.9206400
1016,Sherman Drive,75104,32.6214728,-96.9201657
1432,Shields Avenue,75104,32.6215690,-96.9212381
1019,Sherman Drive,75104,32.6221870,-96.9197780
1515,Shields Avenue,75104,32.6226797,-96.9218951
1043,Sherman Drive,75104,32.6220758,-96.9174779
1503,Shields Avenue,75104,32.6219370,-96.9220321
1011,Sherman Drive,75104,32.6220765,-96.9207413
1421,Shields Avenue,75104,32.6206094,-96.9219075
1511,Shields Avenue,75104,32.6224082,-96.9220252
1508,Shields Avenue,75104,32.6224260,-96.9211682
1415,Shields Avenue,75104,32.6202382,-96.9218451
1431,Shields Avenue,75104,32.6210243,-96.9220335
1504,Shields Avenue,75104,32.6221156,-96.9212305
1035,Sherman Drive,75104,32.6220963,-96.9181807
1027,Sherman Drive,75104,32.6221647,-96.9188505
1007,Grover Court,75104,32.6176142,-96.9214700
1501,N Joe Wilson Road,75104,32.6209711,-96.9261767
1508,N Joe Wilson Road,75104,32.6210462,-96.9246799
1507,N Joe Wilson Road,75104,32.6212690,-96.9259929
1530,N Joe Wilson Road,75104,32.6226546,-96.9248593
1520,N Joe Wilson Road,75104,32.6214921,-96.9243769
1523,N Joe Wilson Road,75104,32.6221675,-96.9258225
1545,N Joe Wilson Road,75104,32.6226208,-96.9259995
1515,N Joe Wilson Road,75104,32.6217627,-96.9260326
1425,Shields Avenue,75104,32.6205720,-96.9232499
490,East Farm-to-Market Road 1382,75104,32.5913816,-96.9342943
7171,Mountain Creek Parkway,75249,32.6341187,-96.9647606
401,Straus Road,75051,32.5960337,-96.9545807
285,Uptown Boulevard,75051,32.5931396,-96.9509506
303,Cooper Street,75104,32.5861649,-96.9514807
387,East Farm-to-Market Road 1382,75104,32.5931275,-96.9372814
235,East Farm-to-Market Road 1382,75104,32.5984693,-96.9395078
489,East Belt Line Road,75104,32.5903732,-96.9339252
501,East Belt Line Road,75104,32.5905408,-96.9328465
385,East Belt Line Road,75104,32.5906505,-96.9367821
373,East FM 1382,75104,32.5940630,-96.9359925
428,East FM 1382,75104,32.5909124,-96.9382212
971,North Highway 67,75116,32.6059256,-96.9312217
430,East Pleasant Run Road,75104,32.6037814,-96.9335053
376,North Highway 67,75104,32.5937908,-96.9401211
131,Sims Drive,75104,32.5879742,-96.9303683
207,East FM 1382,75104,32.5975199,-96.9407207
201,East FM 1382,75104,32.5971172,-96.9405371
205,East Farm-to-Market Road 1382,75104,32.5974453,-96.9398398
211,East FM 1382,75104,32.5981173,-96.9413234
217,West FM 1382,75104,32.5990033,-96.9421384
650,Uptown Boulevard,75104,32.5998778,-96.9446320
210,East FM 1382,75104,32.5977467,-96.9421144
216,East FM 1382,75104,32.5972422,-96.9417489
222,East FM 1382,75104,32.5969554,-96.9417419
226,East FM 1382,75104,32.5966283,-96.9414015
395,North Highway 67,75104,32.5963087,-96.9415099
389,North Highway 67,75104,32.5959716,-96.9417741
381,North Highway 67,75104,32.5956708,-96.9418941
375,North Highway 67,75104,32.5949676,-96.9420119
311,North Clark Road,75104,32.5944521,-96.9429827
345,North Highway 67,75104,32.5937499,-96.9433992
1,Longhorn Boulevard,75104,32.5831402,-96.9490361
1515,West Belt Line Road,75104,32.5952734,-96.9743015
431,West Parkerville Road,75104,32.5767069,-96.9490122
1533,High Pointe Lane,75104,32.6230836,-96.9555931
1208,East Pleasant Run Road,75104,32.6026665,-96.9155782
1203,South Clark Road,75104,32.5653111,-96.9413162
1020,Lake Ridge Parkway,75104,32.5693849,-97.0053949
131,Sims Drive,75104,32.5879240,-96.9304176
1351,High Pointe Lane,75104,32.6165915,-96.9535255
975,Pickard Drive,75104,32.5722534,-96.9267149
218,North Broad Street,75104,32.5924622,-96.9576467
425,East Parkerville Road,75104,32.5766189,-96.9348514
200,Lakeside Drive,75104,32.5867503,-96.9154251
916-964,Moore Street,75104,32.5948238,-96.9268253
1313,High Pointe Lane,75104,32.6151905,-96.9530960
837,Weaver Street,75104,32.5836301,-96.9298792
605,Uptown Boulevard,75104,32.6004166,-96.9454480
649,Uptown Boulevard,75104,32.5997204,-96.9458393
600,Cedar Street,75104,32.5885469,-96.9565864
940,Black Walnut Trail,75104,32.5717691,-96.9569085
1401,South Clark Road,75104,32.5596885,-96.9436962
301,Capricorn Drive,75104,32.5615580,-96.9465287
310,East Parkerville Road,75104,32.5744536,-96.9379387
2600,Prairie View Boulevard,75104,32.5459365,-97.0080373
1026,North Highway 67,75104,32.6079459,-96.9262531
106,East Belt Line Road,75104,32.5894781,-96.9417305
142,North Highway 67,75104,32.5917555,-96.9432437
820,East Belt Line Road,75104,32.5882370,-96.9245941
509,East Belt Line Road,75104,32.5904463,-96.9320216
1003,Molly Court,75104,32.6185807,-96.9213858
1019,Molly Court,75104,32.6186532,-96.9203974
1015,Molly Court,75104,32.6186125,-96.9206526
1011,Molly Court,75104,32.6185735,-96.9208546
1347,Shields Avenue,75104,32.6187105,-96.9219350
1344,Elise Street,75104,32.6186884,-96.9197224
1339,Shields Avenue,75104,32.6183383,-96.9220464
1010,Ruth Street,75104,32.6163462,-96.9212529
1002,Ruth Street,75104,32.6163709,-96.9217264
1307,Shields Avenue,75104,32.6166845,-96.9221489
1315,Shields Avenue,75104,32.6170918,-96.9221678
1319,Shields Avenue,75104,32.6173007,-96.9221459
1002,Molly Court,75104,32.6181089,-96.9215650
1003,Grover Court,75104,32.6176356,-96.9216727
1014,Grover Court,75104,32.6171533,-96.9209065
1010,Grover Court,75104,32.6171603,-96.9211444
1006,Grover Court,75104,32.6171441,-96.9214326
1003,Ruth Street,75104,32.6168403,-96.9215937
1007,Ruth Street,75104,32.6168242,-96.9213692
1011,Ruth Street,75104,32.6168192,-96.9211853
1015,Ruth Street,75104,32.6168170,-96.9209131
1019,Ruth Street,75104,32.6167893,-96.9207075
1029,Ruth Street,75104,32.6168666,-96.9198610
1033,Ruth Street,75104,32.6169262,-96.9196414
1034,Ruth Street,75104,32.6163101,-96.9196142
1030,Ruth Street,75104,32.6163365,-96.9199104
1026,Ruth Street,75104,32.6163257,-96.9201613
1018,Ruth Street,75104,32.6163359,-96.9208051
1549,N Joe Wilson Road,75104,32.6230148,-96.9257831
904,Clover Hill Lane,75104,32.6131526,-96.9281788
906,Clover Hill Lane,75104,32.6131413,-96.9279719
908,Clover Hill Lane,75104,32.6131420,-96.9277756
910,Clover Hill Lane,75104,32.6131707,-96.9275919
912,Clover Hill Lane,75104,32.6131575,-96.9273679
914,Clover Hill Lane,75104,32.6131591,-96.9271935
916,Clover Hill Lane,75104,32.6131794,-96.9269980
918,Clover Hill Lane,75104,32.6131526,-96.9267880
920,Clover Hill Lane,75104,32.6131618,-96.9266140
922,Clover Hill Lane,75104,32.6131497,-96.9264152
924,Clover Hill Lane,75104,32.6131654,-96.9262211
926,Clover Hill Lane,75104,32.6131788,-96.9260213
928,Clover Hill Lane,75104,32.6131808,-96.9258277
801,Clover Hill Lane,75104,32.6126843,-96.9315268
802,Clover Hill Lane,75104,32.6131464,-96.9314983
804,Clover Hill Lane,75104,32.6131628,-96.9313032
806,Clover Hill Lane,75104,32.6131448,-96.9311078
808,Clover Hill Lane,75104,32.6131582,-96.9309007
810,Clover Hill Lane,75104,32.6131629,-96.9307165
812,Clover Hill Lane,75104,32.6131634,-96.9305124
814,Clover Hill Lane,75104,32.6131456,-96.9303278
816,Clover Hill Lane,75104,32.6131634,-96.9301347
818,Clover Hill Lane,75104,32.6131702,-96.9299374
820,Clover Hill Lane,75104,32.6131616,-96.9297422
822,Clover Hill Lane,75104,32.6131348,-96.9295293
824,Clover Hill Lane,75104,32.6131476,-96.9293418
826,Clover Hill Lane,75104,32.6131661,-96.9291526
828,Clover Hill Lane,75104,32.6131693,-96.9289495
830,Clover Hill Lane,75104,32.6131387,-96.9287503
900,Clover Hill Lane,75104,32.6131410,-96.9285537
902,Clover Hill Lane,75104,32.6131506,-96.9283419
829,Clover Hill Lane,75104,32.6126993,-96.9288158
827,Clover Hill Lane,75104,32.6127100,-96.9289970
825,Clover Hill Lane,75104,32.6126915,-96.9291923
823,Clover Hill Lane,75104,32.6126948,-96.9293818
821,Clover Hill Lane,75104,32.6126930,-96.9295802
819,Clover Hill Lane,75104,32.6127048,-96.9297813
817,Clover Hill Lane,75104,32.6126930,-96.9299604
815,Clover Hill Lane,75104,32.6126896,-96.9301664
813,Clover Hill Lane,75104,32.6127026,-96.9303687
811,Clover Hill Lane,75104,32.6126922,-96.9305523
809,Clover Hill Lane,75104,32.6127034,-96.9307573
807,Clover Hill Lane,75104,32.6126931,-96.9309504
805,Clover Hill Lane,75104,32.6126910,-96.9311341
803,Clover Hill Lane,75104,32.6126919,-96.9313414
927,Clover Hill Lane,75104,32.6127195,-96.9258255
925,Clover Hill Lane,75104,32.6127317,-96.9260143
923,Clover Hill Lane,75104,32.6127001,-96.9262124
921,Clover Hill Lane,75104,32.6127244,-96.9264078
919,Clover Hill Lane,75104,32.6127236,-96.9266023
917,Clover Hill Lane,75104,32.6127070,-96.9267956
915,Clover Hill Lane,75104,32.6127242,-96.9269902
913,Clover Hill Lane,75104,32.6127230,-96.9271831
911,Clover Hill Lane,75104,32.6127225,-96.9273836
909,Clover Hill Lane,75104,32.6127223,-96.9275781
907,Clover Hill Lane,75104,32.6127093,-96.9277702
905,Clover Hill Lane,75104,32.6127186,-96.9279645
903,Clover Hill Lane,75104,32.6127203,-96.9281527
901,Clover Hill Lane,75104,32.6127133,-96.9283523
927,Shady Brook Lane,75104,32.6118405,-96.9258219
800,Shady Brook Lane,75104,32.6119723,-96.9315330
802,Shady Brook Lane,75104,32.6119928,-96.9313331
804,Shady Brook Lane,75104,32.6120783,-96.9311265
806,Shady Brook Lane,75104,32.6121683,-96.9309308
808,Shady Brook Lane,75104,32.6122170,-96.9307428
810,Shady Brook Lane,75104,32.6122909,-96.9305456
812,Shady Brook Lane,75104,32.6123102,-96.9303546
814,Shady Brook Lane,75104,32.6123213,-96.9301604
816,Shady Brook Lane,75104,32.6123206,-96.9299695
818,Shady Brook Lane,75104,32.6123223,-96.9297705
820,Shady Brook Lane,75104,32.6123223,-96.9295717
822,Shady Brook Lane,75104,32.6123253,-96.9293837
824,Shady Brook Lane,75104,32.6123091,-96.9291908
826,Shady Brook Lane,75104,32.6123285,-96.9289884
828,Shady Brook Lane,75104,32.6123318,-96.9288059
900,Shady Brook Lane,75104,32.6122987,-96.9283295
902,Shady Brook Lane,75104,32.6122989,-96.9281501
904,Shady Brook Lane,75104,32.6123058,-96.9279608
906,Shady Brook Lane,75104,32.6123370,-96.9277518
908,Shady Brook Lane,75104,32.6123356,-96.9275621
910,Shady Brook Lane,75104,32.6123304,-96.9273790
912,Shady Brook Lane,75104,32.6123063,-96.9271791
914,Shady Brook Lane,75104,32.6123064,-96.9269881
916,Shady Brook Lane,75104,32.6123203,-96.9267932
918,Shady Brook Lane,75104,32.6123379,-96.9265981
920,Shady Brook Lane,75104,32.6123022,-96.9264013
922,Shady Brook Lane,75104,32.6123365,-96.9262183
924,Shady Brook Lane,75104,32.6123138,-96.9260233
926,Shady Brook Lane,75104,32.6123559,-96.9258234
923,Shady Brook Lane,75104,32.6118349,-96.9262059
925,Shady Brook Lane,75104,32.6118412,-96.9260049
1240,Cedar Circle,75104,32.6136648,-96.9321278
1208,Cedar Circle,75104,32.6133205,-96.9328000
1206,Cedar Circle,75104,32.6127828,-96.9328144
1202,Cedar Circle,75104,32.6122320,-96.9328020
1203,Dandelion Drive,75104,32.6122623,-96.9314039
1205,Dandelion Drive,75104,32.6124068,-96.9314030
1121,N Joe Wilson Road,75104,32.6114993,-96.9259368
901,Shady Brook Lane,75104,32.6118529,-96.9283452
903,Shady Brook Lane,75104,32.6118566,-96.9281529
905,Shady Brook Lane,75104,32.6118556,-96.9279583
907,Shady Brook Lane,75104,32.6118537,-96.9277679
909,Shady Brook Lane,75104,32.6118561,-96.9275702
911,Shady Brook Lane,75104,32.6118424,-96.9273732
913,Shady Brook Lane,75104,32.6118582,-96.9271789
915,Shady Brook Lane,75104,32.6118516,-96.9269850
917,Shady Brook Lane,75104,32.6118545,-96.9267905
919,Shady Brook Lane,75104,32.6118515,-96.9265951
921,Shady Brook Lane,75104,32.6118547,-96.9264006
809,Shady Brook Lane,75104,32.6117283,-96.9307224
811,Shady Brook Lane,75104,32.6117599,-96.9305219
813,Shady Brook Lane,75104,32.6118007,-96.9303247
815,Shady Brook Lane,75104,32.6118338,-96.9301395
817,Shady Brook Lane,75104,32.6118229,-96.9299451
819,Shady Brook Lane,75104,32.6118339,-96.9297428
821,Shady Brook Lane,75104,32.6118444,-96.9295521
823,Shady Brook Lane,75104,32.6118285,-96.9293596
825,Shady Brook Lane,75104,32.6118324,-96.9291392
827,Shady Brook Lane,75104,32.6118428,-96.9289692
829,Shady Brook Lane,75104,32.6118294,-96.9287737
700,Hillside Drive,75104,32.6114595,-96.9315609
710,Hillside Drive,75104,32.6114326,-96.9313899
720,Hillside Drive,75104,32.6114375,-96.9311934
730,Hillside Drive,75104,32.6114363,-96.9309943
740,Hillside Drive,75104,32.6114369,-96.9307979
750,Hillside Drive,75104,32.6114441,-96.9305994
760,Hillside Drive,75104,32.6114352,-96.9304041
800,Hillside Drive,75104,32.6114514,-96.9302036
810,Hillside Drive,75104,32.6114466,-96.9300063
820,Hillside Drive,75104,32.6114460,-96.9298084
830,Hillside Drive,75104,32.6114467,-96.9296093
840,Hillside Drive,75104,32.6114349,-96.9293949
850,Hillside Drive,75104,32.6113742,-96.9292100
1130,Holly Lane,75104,32.6106288,-96.9288186
1140,Holly Lane,75104,32.6107475,-96.9287167
1150,Holly Lane,75104,32.6108892,-96.9285950
1160,Holly Lane,75104,32.6110113,-96.9284902
1170,Holly Lane,75104,32.6111967,-96.9284066
1180,Holly Lane,75104,32.6113500,-96.9283263
1190,Holly Lane,75104,32.6115238,-96.9282916
1181,Holly Lane,75104,32.6112767,-96.9289690
1191,Holly Lane,75104,32.6114962,-96.9288758
1100,Holly Lane,75104,32.6102087,-96.9291274
1110,Holly Lane,75104,32.6103310,-96.9290374
1120,Holly Lane,75104,32.6104928,-96.9289210
1141,Brookside Drive,75104,32.6108004,-96.9346772
1151,Brookside Drive,75104,32.6109418,-96.9345881
1161,Brookside Drive,75104,32.6111041,-96.9345506
1171,Brookside Drive,75104,32.6112634,-96.9344491
1181,Brookside Drive,75104,32.6114185,-96.9343874
1191,Brookside Drive,75104,32.6115785,-96.9342529
590,Hillside Drive,75104,32.6115680,-96.9338713
600,Hillside Drive,75104,32.6115270,-96.9335780
610,Hillside Drive,75104,32.6115280,-96.9333699
620,Hillside Drive,75104,32.6114953,-96.9331758
630,Hillside Drive,75104,32.6114943,-96.9329709
640,Hillside Drive,75104,32.6114852,-96.9327678
650,Hillside Drive,75104,32.6114757,-96.9325688
660,Hillside Drive,75104,32.6114631,-96.9323689
670,Hillside Drive,75104,32.6114535,-96.9321727
680,Hillside Drive,75104,32.6114519,-96.9319760
1000,Holly Lane,75104,32.6087960,-96.9302498
1010,Holly Lane,75104,32.6089631,-96.9301224
1020,Holly Lane,75104,32.6091027,-96.9300069
1030,Holly Lane,75104,32.6092544,-96.9298924
1040,Holly Lane,75104,32.6093797,-96.9297662
1050,Holly Lane,75104,32.6095179,-96.9296762
1060,Holly Lane,75104,32.6096710,-96.9295883
1070,Holly Lane,75104,32.6097979,-96.9294472
1080,Holly Lane,75104,32.6099427,-96.9293691
1090,Holly Lane,75104,32.6100661,-96.9292473
721,Brookside Drive,75104,32.6078536,-96.9313927
731,Brookside Drive,75104,32.6078647,-96.9311947
940,Holly Lane,75104,32.6079121,-96.9309598
950,Holly Lane,75104,32.6080594,-96.9307943
960,Holly Lane,75104,32.6082171,-96.9307104
970,Holly Lane,75104,32.6083434,-96.9306078
980,Holly Lane,75104,32.6084761,-96.9304820
990,Holly Lane,75104,32.6086299,-96.9303462
971,Brookside Drive,75104,32.6084797,-96.9346934
961,Brookside Drive,75104,32.6083258,-96.9345573
951,Brookside Drive,75104,32.6081937,-96.9344577
941,Brookside Drive,75104,32.6079898,-96.9343566
931,Brookside Drive,75104,32.6079117,-96.9341728
921,Brookside Drive,75104,32.6078639,-96.9339222
661,Brookside Drive,75104,32.6078434,-96.9325619
601,Brookside Drive,75104,32.6078464,-96.9337285
611,Brookside Drive,75104,32.6078683,-96.9335334
621,Brookside Drive,75104,32.6078647,-96.9333476
631,Brookside Drive,75104,32.6078456,-96.9331489
641,Brookside Drive,75104,32.6078606,-96.9329544
651,Brookside Drive,75104,32.6078560,-96.9327569
671,Brookside Drive,75104,32.6078509,-96.9323644
681,Brookside Drive,75104,32.6078525,-96.9321741
691,Brookside Drive,75104,32.6078656,-96.9319796
701,Brookside Drive,75104,32.6078620,-96.9317875
711,Brookside Drive,75104,32.6078493,-96.9315889
1131,Brookside Drive,75104,32.6106304,-96.9347556
1121,Brookside Drive,75104,32.6104809,-96.9348294
1111,Brookside Drive,75104,32.6103152,-96.9349069
1101,Brookside Drive,75104,32.6101778,-96.9349703
1061,Brookside Drive,75104,32.6100018,-96.9350362
1051,Brookside Drive,75104,32.6098393,-96.9350877
1041,Brookside Drive,75104,32.6096837,-96.9351283
1031,Brookside Drive,75104,32.6095159,-96.9352473
1021,Brookside Drive,75104,32.6093457,-96.9352431
1011,Brookside Drive,75104,32.6091529,-96.9352075
1001,Brookside Drive,75104,32.6089828,-96.9351093
991,Brookside Drive,75104,32.6088546,-96.9350089
981,Brookside Drive,75104,32.6086818,-96.9348444
2715,Point View Drive,75104,32.5806351,-97.0063780
2711,Point View Drive,75104,32.5806243,-97.0061786
2707,Point View Drive,75104,32.5806911,-97.0059572
701,Hillside Drive,75104,32.6109903,-96.9316117
711,Hillside Drive,75104,32.6109702,-96.9313990
721,Hillside Drive,75104,32.6109769,-96.9311995
731,Hillside Drive,75104,32.6109807,-96.9310034
741,Hillside Drive,75104,32.6109758,-96.9308104
751,Hillside Drive,75104,32.6109973,-96.9306155
761,Hillside Drive,75104,32.6110037,-96.9304181
801,Hillside Drive,75104,32.6109827,-96.9302288
811,Hillside Drive,75104,32.6109794,-96.9300320
821,Hillside Drive,75104,32.6109608,-96.9298212
831,Hillside Drive,75104,32.6110020,-96.9296269
841,Hillside Drive,75104,32.6109690,-96.9294115
851,Hillside Drive,75104,32.6108616,-96.9292257
2743,Point View Drive,75104,32.5808369,-97.0077314
2739,Point View Drive,75104,32.5807867,-97.0075413
2735,Point View Drive,75104,32.5807189,-97.0073531
2731,Point View Drive,75104,32.5806905,-97.0071565
2727,Point View Drive,75104,32.5807101,-97.0069623
2723,Point View Drive,75104,32.5806663,-97.0067735
2719,Point View Drive,75104,32.5806526,-97.0065764
581,Hillside Drive,75104,32.6111067,-96.9340068
591,Hillside Drive,75104,32.6110791,-96.9337826
601,Hillside Drive,75104,32.6110671,-96.9335848
611,Hillside Drive,75104,32.6110774,-96.9333884
621,Hillside Drive,75104,32.6110712,-96.9331917
631,Hillside Drive,75104,32.6110488,-96.9330015
641,Hillside Drive,75104,32.6110280,-96.9328039
651,Hillside Drive,75104,32.6110236,-96.9326094
661,Hillside Drive,75104,32.6110366,-96.9324175
671,Hillside Drive,75104,32.6110221,-96.9322216
681,Hillside Drive,75104,32.6110229,-96.9320105
700,Rosehill Lane,75104,32.6106673,-96.9316325
710,Rosehill Lane,75104,32.6106678,-96.9314197
720,Rosehill Lane,75104,32.6106634,-96.9312230
730,Rosehill Lane,75104,32.6106683,-96.9310397
740,Rosehill Lane,75104,32.6106632,-96.9308353
750,Rosehill Lane,75104,32.6106600,-96.9306433
760,Rosehill Lane,75104,32.6106720,-96.9304528
800,Rosehill Lane,75104,32.6106818,-96.9302454
810,Rosehill Lane,75104,32.6106831,-96.9300374
820,Rosehill Lane,75104,32.6106711,-96.9298534
830,Rosehill Lane,75104,32.6106626,-96.9296696
840,Rosehill Lane,75104,32.6105724,-96.9294364
1007,US 67 (TX),75104,32.6069819,-96.9302630
811,Honeysuckle Lane,75104,32.6102295,-96.9305697
801,Rosehill Lane,75104,32.6102238,-96.9302488
811,Rosehill Lane,75104,32.6102310,-96.9300424
821,Rosehill Lane,75104,32.6101926,-96.9297974
570,Rosehill Lane,75104,32.6108157,-96.9341319
580,Rosehill Lane,75104,32.6107666,-96.9339114
590,Rosehill Lane,75104,32.6107575,-96.9336956
600,Rosehill Lane,75104,32.6107460,-96.9334899
610,Rosehill Lane,75104,32.6107212,-96.9332804
620,Rosehill Lane,75104,32.6107164,-96.9330713
630,Rosehill Lane,75104,32.6107149,-96.9328655
640,Rosehill Lane,75104,32.6106951,-96.9326585
650,Rosehill Lane,75104,32.6106835,-96.9324525
660,Rosehill Lane,75104,32.6106865,-96.9322442
670,Rosehill Lane,75104,32.6106979,-96.9320548
571,Rosehill Lane,75104,32.6103907,-96.9343384
581,Rosehill Lane,75104,32.6103337,-96.9341232
591,Rosehill Lane,75104,32.6103143,-96.9339285
601,Rosehill Lane,75104,32.6103139,-96.9337239
611,Rosehill Lane,75104,32.6102964,-96.9335292
621,Rosehill Lane,75104,32.6102890,-96.9333381
631,Rosehill Lane,75104,32.6102875,-96.9331414
641,Rosehill Lane,75104,32.6102692,-96.9329508
651,Rosehill Lane,75104,32.6102343,-96.9327631
661,Rosehill Lane,75104,32.6102432,-96.9325763
671,Rosehill Lane,75104,32.6102242,-96.9323562
681,Rosehill Lane,75104,32.6102306,-96.9321151
711,Rosehill Lane,75104,32.6101958,-96.9316031
721,Rosehill Lane,75104,32.6102039,-96.9313517
731,Rosehill Lane,75104,32.6102099,-96.9311063
700,Brookside Drive,75104,32.6083232,-96.9318658
710,Brookside Drive,75104,32.6082860,-96.9316697
720,Brookside Drive,75104,32.6083124,-96.9314730
961,Holly Lane,75104,32.6083737,-96.9311874
971,Holly Lane,75104,32.6085528,-96.9310947
981,Holly Lane,75104,32.6086721,-96.9309976
991,Holly Lane,75104,32.6088033,-96.9308588
1001,Holly Lane,75104,32.6089476,-96.9307934
1011,Holly Lane,75104,32.6090762,-96.9306402
1021,Holly Lane,75104,32.6092268,-96.9305699
1031,Holly Lane,75104,32.6093562,-96.9304337
1041,Holly Lane,75104,32.6095238,-96.9303630
1051,Holly Lane,75104,32.6096365,-96.9302451
1061,Holly Lane,75104,32.6097746,-96.9301257
1071,Holly Lane,75104,32.6099188,-96.9300172
601,Honeysuckle Lane,75104,32.6087248,-96.9336621
591,Honeysuckle Lane,75104,32.6088523,-96.9338232
581,Honeysuckle Lane,75104,32.6089794,-96.9339490
571,Honeysuckle Lane,75104,32.6091029,-96.9340306
561,Honeysuckle Lane,75104,32.6092921,-96.9341259
551,Honeysuckle Lane,75104,32.6095061,-96.9341644
571,Dandelion Drive,75104,32.6095917,-96.9344091
561,Dandelion Drive,75104,32.6096296,-96.9346225
1020,Brookside Drive,75104,32.6093753,-96.9346864
1010,Brookside Drive,75104,32.6091875,-96.9345749
1000,Brookside Drive,75104,32.6090456,-96.9344896
990,Brookside Drive,75104,32.6089056,-96.9343969
980,Brookside Drive,75104,32.6087670,-96.9342645
970,Brookside Drive,75104,32.6086392,-96.9341713
960,Brookside Drive,75104,32.6085012,-96.9340358
950,Brookside Drive,75104,32.6083371,-96.9338752
600,Brookside Drive,75104,32.6083156,-96.9336144
610,Brookside Drive,75104,32.6083107,-96.9334224
620,Brookside Drive,75104,32.6082974,-96.9332289
630,Brookside Drive,75104,32.6083016,-96.9330335
640,Brookside Drive,75104,32.6082986,-96.9328369
650,Brookside Drive,75104,32.6083178,-96.9326441
660,Brookside Drive,75104,32.6082933,-96.9324548
670,Brookside Drive,75104,32.6082884,-96.9322542
680,Brookside Drive,75104,32.6082855,-96.9320584
801,Honeysuckle Lane,75104,32.6100250,-96.9305706
791,Honeysuckle Lane,75104,32.6098451,-96.9305534
781,Honeysuckle Lane,75104,32.6097047,-96.9306740
771,Honeysuckle Lane,75104,32.6095481,-96.9307789
761,Honeysuckle Lane,75104,32.6094137,-96.9308681
751,Honeysuckle Lane,75104,32.6092710,-96.9309946
741,Honeysuckle Lane,75104,32.6091476,-96.9310592
731,Honeysuckle Lane,75104,32.6089809,-96.9311965
721,Honeysuckle Lane,75104,32.6088598,-96.9313203
711,Honeysuckle Lane,75104,32.6087180,-96.9314714
701,Honeysuckle Lane,75104,32.6086376,-96.9316696
691,Honeysuckle Lane,75104,32.6086357,-96.9318822
681,Honeysuckle Lane,75104,32.6086288,-96.9320762
671,Honeysuckle Lane,75104,32.6086272,-96.9322690
661,Honeysuckle Lane,75104,32.6086435,-96.9324599
651,Honeysuckle Lane,75104,32.6086336,-96.9326588
641,Honeysuckle Lane,75104,32.6086428,-96.9328536
631,Honeysuckle Lane,75104,32.6086257,-96.9330468
611,Honeysuckle Lane,75104,32.6086379,-96.9334339
670,Dandelion Drive,75104,32.6099729,-96.9322016
660,Dandelion Drive,75104,32.6098910,-96.9324461
650,Dandelion Drive,75104,32.6098653,-96.9326462
640,Dandelion Drive,75104,32.6098852,-96.9328406
630,Dandelion Drive,75104,32.6099238,-96.9330442
620,Dandelion Drive,75104,32.6099235,-96.9332490
610,Dandelion Drive,75104,32.6099604,-96.9334482
600,Dandelion Drive,75104,32.6099631,-96.9336609
590,Dandelion Drive,75104,32.6099781,-96.9338565
580,Dandelion Drive,75104,32.6099799,-96.9340563
570,Dandelion Drive,75104,32.6100164,-96.9342663
560,Dandelion Drive,75104,32.6100802,-96.9344753
701,Dandelion Drive,75104,32.6099435,-96.9316253
691,Dandelion Drive,75104,32.6097850,-96.9317109
681,Dandelion Drive,75104,32.6095958,-96.9318345
671,Dandelion Drive,75104,32.6095069,-96.9320237
661,Dandelion Drive,75104,32.6094231,-96.9321993
651,Dandelion Drive,75104,32.6093793,-96.9324224
641,Dandelion Drive,75104,32.6093963,-96.9326321
631,Dandelion Drive,75104,32.6094124,-96.9328527
621,Dandelion Drive,75104,32.6094676,-96.9330574
611,Dandelion Drive,75104,32.6094649,-96.9332656
590,Honeysuckle Lane,75104,32.6094990,-96.9336043
600,Honeysuckle Lane,75104,32.6093130,-96.9335242
620,Honeysuckle Lane,75104,32.6090936,-96.9332968
630,Honeysuckle Lane,75104,32.6090785,-96.9330241
640,Honeysuckle Lane,75104,32.6090910,-96.9328077
650,Honeysuckle Lane,75104,32.6090952,-96.9326115
660,Honeysuckle Lane,75104,32.6090796,-96.9323869
670,Honeysuckle Lane,75104,32.6090912,-96.9321717
680,Honeysuckle Lane,75104,32.6090876,-96.9319747
690,Honeysuckle Lane,75104,32.6091672,-96.9317068
700,Honeysuckle Lane,75104,32.6093034,-96.9316183
710,Honeysuckle Lane,75104,32.6094675,-96.9314713
720,Honeysuckle Lane,75104,32.6096038,-96.9313727
730,Honeysuckle Lane,75104,32.6097538,-96.9312608
740,Honeysuckle Lane,75104,32.6099097,-96.9311589
1650,South Highway 67,75104,32.5556599,-96.9709271
451,Shady Brook Lane,75104,32.6108398,-96.9352944
428,Antoine Street,75104,32.6062007,-96.9327341
424,Antoine Street,75104,32.6062995,-96.9329876
420,Antoine Street,75104,32.6062226,-96.9333288
416,Antoine Street,75104,32.6062011,-96.9336651
411,Antoine Street,75104,32.6072692,-96.9341544
425,Antoine Street,75104,32.6067367,-96.9330596
429,Antoine Street,75104,32.6067619,-96.9326660
433,Antoine Street,75104,32.6067770,-96.9324769
503,Antoine Street,75104,32.6067915,-96.9321765
507,Antoine Street,75104,32.6067477,-96.9319057
511,Antoine Street,75104,32.6067668,-96.9313644
519,Antoine Street,75104,32.6067453,-96.9308270
1538,North Cedar Hill Road,75104,32.6207854,-96.9277139
1542,North Cedar Hill Road,75104,32.6213954,-96.9273641
1534,North Cedar Hill Road,75104,32.6214492,-96.9287118
1548,North Cedar Hill Road,75104,32.6223723,-96.9275440
1552,North Cedar Hill Road,75104,32.6226532,-96.9274262
1531,N Joe Wilson Road,75104,32.6218617,-96.9269977
1537,N Joe Wilson Road,75104,32.6223253,-96.9266327
1556,North Cedar Hill Road,75104,32.6228930,-96.9270313
1564,North Cedar Hill Road,75104,32.6232551,-96.9267203
1566,North Cedar Hill Road,75104,32.6234974,-96.9260571
601,West Belt Line Road,75104,32.5902419,-96.9566705
332,Texas Street,75104,32.5877049,-96.9537314
1320,North Cedar Hill Road,75104,32.6154172,-96.9333716
1334,North Cedar Hill Road,75104,32.6163804,-96.9326273
1408,North Cedar Hill Road,75104,32.6168802,-96.9324228
1448,North Cedar Hill Road,75104,32.6188850,-96.9301440
1522,North Cedar Hill Road,75104,32.6201329,-96.9286910
1528,North Cedar Hill Road,75104,32.6205481,-96.9284057
1303,Shields Avenue,75104,32.6164455,-96.9220305
1430,High Pointe Lane,75104,32.6194550,-96.9521780
401,North Waterford Oaks Drive,75104,32.5976532,-96.9160354
409,North Clark Road,75104,32.5966748,-96.9429979
401,Straus Road,75104,32.5952137,-96.9550488
106,South Highway 67,75104,32.5893278,-96.9454802
1107,North J Elmer Weaver Freeway,75104,32.6106306,-96.9264821
1103,North J Elmer Weaver Freeway,75104,32.6100296,-96.9269671
