House number,Street name,Postal code,Latitude,Longitude
1525,Cypress Creek Road,78613,30.4817012,-97.8341789
12920,West Parmer Lane,78613,30.5318611,-97.7802162
920,North Vista Ridge Boulevard,78613,30.5307603,-97.7909051
1201,North Lakeline Boulevard,78613,30.5170398,-97.8526666
1201,"North Lakeline Boulevard, Ste. 400",78613,30.5169150,-97.8526236
170,East Whitestone Boulevard,78613,30.5224769,-97.8288766
2800,East Whitestone Boulevard,78613,30.5324018,-97.7847043
930,"S Bell Blvd., Suite 301",78613,30.4997644,-97.8134229
1400,Cypress Creek Road,78613,30.4830345,-97.8295714
909,East Whitestone Boulevard,78613,30.5248264,-97.8196822
1335,East Whitestone Boulevard,78613,30.5268729,-97.8144446
13010,West Parmer Lane,78613,30.5338284,-97.7807988
1910,North Bell Boulevard,78717,30.4874960,-97.8075270
1700,Hur Industrial Boulevard,78613,30.5204570,-97.8730620
1701,Hur Industrial Boulevard,78613,30.5181340,-97.8744790
1709,Hur Industrial Boulevard,78613,30.5192070,-97.8747210
1805,Hur Industrial Boulevard,78613,30.5198630,-97.8749960
1900,Hur Industrial Boulevard,78613,30.5210500,-97.8741020
1904,Hur Industrial Boulevard,78613,30.5216090,-97.8738410
1905,Hur Industrial Boulevard,78613,30.5215070,-97.8751450
1908,Hur Industrial Boulevard,78613,30.5228250,-97.8729350
1909,Hur Industrial Boulevard,78613,30.5219700,-97.8749760
1913,Hur Industrial Boulevard,78613,30.5224420,-97.8747390
2225,West Whitestone Boulevard,78613,30.5123330,-97.8605490
2413,Granite Hill Drive,78641,30.5239592,-97.8726089
2441,West Whitestone Boulevard,78613,30.5169629,-97.8680970
2665,West Whitestone Boulevard,78613,30.5161360,-97.8683180
2801,Woodall Dr,78613,30.5171290,-97.8725390
2814,West Whitestone Boulevard,78613,30.5193770,-97.8714300
3101,Woodall Dr,78613,30.5169500,-97.8770440
12128,Ranch Road 620,78613,30.4618620,-97.8181890
11906,Anderson Mill Road,78613,30.4563600,-97.8267900
11908,Anderson Mill Road,78613,30.4568210,-97.8283660
12006,Anderson Mill Road,78613,30.4566190,-97.8294970
1208,Rowley Drive,78613,30.4830590,-97.8575720
12110,Anderson Mill Road,78613,30.4584640,-97.8309780
12200,Anderson Mill Road,78613,30.4587220,-97.8318480
12400,Anderson Mill Road,78613,30.4595630,-97.8350280
12450,Anderson Mill Road,78613,30.4599160,-97.8356920
12601,Lime Creek Road,78613,30.4895490,-97.8614590
12905,Trails End Road,78641,30.5111650,-97.8854270
13406,Anderson Mill Road,78613,30.4672730,-97.8435710
13442,Anderson Mill Road,78613,30.4680500,-97.8438640
13467,Vista Oaks Drive,78641,30.5122710,-97.8660140
15700,Anderson Mill Road,78613,30.5039550,-97.8561430
1707,Catchfly Cove,78613,30.4746530,-97.8540400
1806,Purple Sage Drive,78613,30.4737980,-97.8521990
1811,Azalea Drive,78613,30.4782400,-97.8481640
2000,Windy Terrace,78613,30.4616100,-97.8332260
2003,Windy Terrace,78613,30.4601650,-97.8340690
2004,Windy Terrace,78613,30.4599850,-97.8332270
2009,Windy Terrace,78613,30.4583980,-97.8345870
2202,Aldworth Drive,78613,30.4681460,-97.8536410
2205,Tattler Drive,78613,30.4682610,-97.8490290
2224,Heather Drive,78613,30.4780140,-97.8481050
2300,Pipit Cove,78613,30.4681750,-97.8481010
2305,Birchington Drive,78613,30.4662030,-97.8527550
2307,Birchington Drive,78613,30.4660460,-97.8525690
2313,Birchington Drive,78613,30.4654960,-97.8521100
2400,Powderham Lane,78613,30.4699800,-97.8460850
2400,Tivoli Drive,78613,30.4658770,-97.8504010
2407,Guara Drive,78613,30.4672180,-97.8459900
2460,West Whitestone Boulevard,78641,30.5125600,-97.8649850
2500,Ben Doran Court,78613,30.4627620,-97.8550190
2500,Farleigh Lane,78613,30.4637490,-97.8534050
2500,Terlingua Drive,78613,30.4643090,-97.8528630
2500,West Whitestone Boulevard,78641,30.5136280,-97.8658570
2501,Moray Lane,78613,30.4617730,-97.8562140
2501,Zambia Drive,78613,30.4725890,-97.8497590
2503,Zennor Court,78613,30.4647810,-97.8475110
2508,Dartford Bend,78613,30.4672670,-97.8476370
2520,West Whitestone Boulevard,78641,30.5139770,-97.8667370
2540,West Whitestone Boulevard,78641,30.5145330,-97.8673650
2600,Quiet Moon Trail,78613,30.4732619,-97.8518154
2600,Rolling Plains Court,78613,30.4601630,-97.8560790
2600,West Whitestone Boulevard,78641,30.5137350,-97.8693870
2601,Orsobello Place,78613,30.4651720,-97.8467200
2603,Orsobello Place,78613,30.4646870,-97.8467950
2606,Bonnyrigg Court,78613,30.4609827,-97.8528602
2620,West Whitestone Boulevard,78641,30.5141560,-97.8700830
2632,Izoro Bend,78613,30.4633460,-97.8482120
2700,Giacomo Cove,78613,30.4590917,-97.8475185
2700,Rambler Valley Drive,78613,30.4801050,-97.8569600
2700,West Whitestone Boulevard,78641,30.5145190,-97.8707910
2701,Grand Oaks Loop,78613,30.4590720,-97.8570230
2706,Zambia Drive,78613,30.4713950,-97.8537410
2708,Yalding Drive,78613,30.4655240,-97.8517560
2708,Zambia Drive,78613,30.4713240,-97.8539710
2709,Benevento Way,78613,30.4604730,-97.8481960
2709,Gholson Drive,78613,30.4784500,-97.8552170
2710,Azzuro Way,78613,30.4579790,-97.8481740
2710,Lovett Lane,78613,30.4848750,-97.8582300
2711,Azzuro Way,78613,30.4586080,-97.8484630
2725,Lovett Lane,78613,30.4861750,-97.8584970
2726,Grand Oaks Loop,78613,30.4581600,-97.8547800
2800,Woodall Drive,78641,30.5162447,-97.8711402
2801,Copford Lane,78613,30.4708150,-97.8548680
2807,Rambler Valley Drive,78613,30.4799530,-97.8589990
2811,Grand Oaks Loop,78613,30.4544170,-97.8581480
2820,West Whitestone Boulevard,78641,30.5146730,-97.8722120
2820,Zambia Drive,78613,30.4756110,-97.8557410
2840,Woodall Dr,78641,30.5163780,-97.8724940
2900,West Whitestone Boulevard,78641,30.5152040,-97.8736010
2900,Zambia Drive,78613,30.4758090,-97.8557080
2902,Appennini Way,78613,30.4547210,-97.8502920
2905,Welton Cliff Drive,78613,30.4657320,-97.8544990
2906,Appennini Way,78613,30.4546830,-97.8508800
2907,Dunbar Court,78613,30.4619710,-97.8529010
2910,Grand Oaks Loop,78613,30.4566330,-97.8592180
3000,Woodall Dr,78641,30.5165770,-97.8743610
3006,Welton Cliff Drive,78613,30.4638140,-97.8546740
3008,Welton Cliff Drive,78613,30.4635060,-97.8549460
3100,Woodall Dr,78641,30.5163040,-97.8765920
3103,Fiorellino Place,78613,30.4567540,-97.8484280
3106,Welton Cliff Drive,78613,30.4632760,-97.8564160
3108,Lombardi Way,78613,30.4566980,-97.8466110
3109,Shadow Canyon,78613,30.4528860,-97.8546610
3200,Sky Ridge Lane,78613,30.4543390,-97.8550080
3201,Fiorellino Place,78613,30.4542120,-97.8497000
3210,Twin Creeks Club Drive,78613,30.4605060,-97.8567830
3230,Woodall Dr,78641,30.5136100,-97.8775890
3300,Sky Ridge Lane,78613,30.4534330,-97.8554340
3300,Woodall Dr,78641,30.5135870,-97.8787010
3308,Mystic Summit Drive,78613,30.4578470,-97.8575870
3400,West Whitestone Boulevard,78641,30.5124590,-97.8797070
3414,Crystal Hill Drive,78613,30.4579190,-97.8598180
3500,West Whitestone Boulevard,78641,30.5116840,-97.8806380
701,Canyon Springs Dr,78641,30.4885070,-97.8632540
12300,Ranch Road 620,78613,30.4630830,-97.8147740
11620,Ranch Road 620,78613,30.4567000,-97.8253180
11630,Ranch Road 620,78613,30.4571680,-97.8248540
11720,Ranch Road 620,78613,30.4579600,-97.8240470
11800,Anderson Mill Road,78613,30.4559680,-97.8263440
11806,Ranch Road 620,78613,30.4582920,-97.8230600
12102,Anderson Mill Road,78613,30.4600970,-97.8291410
12112,Anderson Mill Road,78613,30.4610200,-97.8301760
15916,Anderson Mill Road,78613,30.5065170,-97.8537840
3300,Brushy Creek Road,78613,30.5105290,-97.7695290
13010,West Parmer Lane,78717,30.5337294,-97.7810721
1201,North Bell Boulevard,78613,30.5232219,-97.8317501
2800,East Whitestone Boulevard,78613,30.5328201,-97.7835653
1851,South Lakeline Boulevard,78613,30.4806705,-97.8296934
2051,Cypress Creek Road,78613,30.4761556,-97.8402535
1455,E Whitestone Blvd Ste G-145,78613,30.5277737,-97.8103558
1400,Cypress Creek Road,78613,30.4827212,-97.8298303
500,Bushy Creek Road,78613,30.5043099,-97.8145849
908,West Whitestone,78613,30.5215778,-97.8319967
603,Cypress Creek Road,78613,30.4955301,-97.8241308
200,Buttercup Creek Boulevard,78613,30.5024867,-97.8215509
5001,183A Toll Road,78613,30.5314349,-97.8194630
5001,183 A Toll Road,78613,30.5316660,-97.8184029
401,West Whitestone Boulevard,78613,30.5206879,-97.8338872
401,West Whitestone Boulevard,78613,30.5200946,-97.8342864
1400,East Whitestone Boulevard,78613,30.5257741,-97.8122529
1525,Cypress Creek Road,78613,30.4816045,-97.8342451
2011,Little Elm Trail,78613,30.4798502,-97.8290922
2011,Little Elm Trail,78613,30.4799024,-97.8290463
1420,Cypress Creek Road,78613,30.4818293,-97.8302693
1420,Cypress Creek Road,78613,30.4822129,-97.8300854
1420,Cypress Creek Road,78613,30.4820577,-97.8301572
305,Spanish Mustang Drive,78613,30.5251378,-97.7587237
401,East Whitestone Boulevard,78613,30.5231118,-97.8262869
1130,Cottonwood Creek Trail,78613,30.5314474,-97.8059487
1514,Dandridge Dr,78613,30.5065574,-97.8170658
111,North Vista Ridge Boulevard,78613,30.5181697,-97.7905478
1540,Cypress Creek Road,78613,30.4789834,-97.8327107
1540,Cypress Creek Road,78613,30.4786972,-97.8328450
605,S Bell Blvd,78613,30.5028992,-97.8189041
2930,Grand Oaks Loop,78613,30.4587079,-97.8594013
2100,Cypress Creek Road,78613,30.4746352,-97.8414742
200,Buttercup Creek Boulevard,78613,30.5023217,-97.8219243
3109,Kenai Drive,78613,30.5232130,-97.7767582
1320,East Whitestone Boulevard,78613,30.5251015,-97.8140513
1320,Cypress Creek Road,78613,30.4839678,-97.8308122
1821,South Lakeline Boulevard,78613,30.4799843,-97.8319791
200,Buttercup Creek Boulevard,78613,30.5026623,-97.8210497
1101,C-Bar Ranch Trail,78613,30.5284893,-97.8134031
1335,East Whitestone Boulevard,78613,30.5295943,-97.8153992
5001,183A Toll Road,78613,30.5360449,-97.8191894
850,North Bell Boulevard,78613,30.5200016,-97.8277813
850,North Bell Boulevard,78613,30.5197186,-97.8278332
1320,East Whitestone Boulevard,78613,30.5251812,-97.8138276
200,Buttercup Creek Boulevard,78613,30.5030349,-97.8202996
2111,East Park Street,78613,30.5178670,-97.7912667
3101,East Whitestone Boulevard,78613,30.5361003,-97.7825614
13530,Ronald W Reagan Boulevard,78613,30.5369840,-97.7832269
13010,West Parmer Lane,78613,30.5336190,-97.7812345
2507,South Bell Boulevard,78613,30.4801960,-97.8044430
2407,South Bell Boulevard,78613,30.4813737,-97.8053925
2423,South Bell Boulevard,78613,30.4806158,-97.8046364
2419,South Bell Boulevard,78613,30.4808836,-97.8048384
2415,South Bell Boulevard,78613,30.4810714,-97.8049726
2407,South Bell Boulevard,78613,30.4814636,-97.8052586
2403,South Bell Boulevard,78613,30.4816170,-97.8054142
2403,South Bell Boulevard,78613,30.4816933,-97.8054463
1911,South Bell Boulevard,78613,30.4870533,-97.8081388
1911,South Bell Boulevard,78613,30.4869352,-97.8080814
12600,Avery Ranch Road,78613,30.4848050,-97.8100256
1465,East Whitestone Boulevard,78613,30.5278156,-97.8097015
1335,East Whitestone Boulevard,78613,30.5280567,-97.8148835
1401,Medical Parkway,78613,30.5319579,-97.8109681
201,Walton Way,78613,30.5228817,-97.8343461
201,Walton Way,78613,30.5219898,-97.8339757
1615,Scottsdale Drive,78641,30.5506264,-97.8144955
201,S Lakeline Blvd,78613,30.5000770,-97.8485274
1335,East Whitestone Boulevard,78613,30.5272644,-97.8144876
1320,"Arrow Point Dr, Ste 501",78613,30.5354740,-97.8012843
2005,N. Lakeline Blvd,78613,30.5274104,-97.8558640
12820,West Parmer Lane,78613,30.5324006,-97.7788757
1001,Cypress Creek Road,78613,30.4952442,-97.8248610
115,South Lakeline Boulevard,78613,30.5009838,-97.8482643
2515,South Lakeline Boulevard,78613,30.4753540,-97.8161097
503,Dry Bean Cove,78613,30.5173919,-97.8209583
1510,Cypress Creek Road,78613,30.4802096,-97.8325534
3101,East Whitestone Boulevard,78613,30.5365831,-97.7828029
3101,East Whitestone Boulevard,78613,30.5362144,-97.7823605
1420,Cypress Creek Road,78613,30.4823918,-97.8300398
1420,Cypress Creek Road,78613,30.4822974,-97.8300637
1420,Cypress Creek Road,78613,30.4821439,-97.8301180
1420,Cypress Creek Road,78613,30.4819692,-97.8302022
2005,N. Lakeline Blvd,78613,30.5275485,-97.8559870
1841,South Lakeline Boulevard,78613,30.4790596,-97.8319087
1841,South Lakeline Boulevard,78613,30.4790494,-97.8316483
1821,South Lakeline Boulevard,78613,30.4799851,-97.8316840
1907,Cypress Creek Road,78613,30.4770540,-97.8368354
1907,Cypress Creek Road,78613,30.4770228,-97.8370003
1907,Cypress Creek Road,78613,30.4769506,-97.8372136
1907,Cypress Creek Road,78613,30.4769350,-97.8372893
1907,Cypress Creek Road,78613,30.4768934,-97.8373671
1909,Cypress Creek Road,78613,30.4766183,-97.8375100
2004,Sun Chase Boulevard,78613,30.4778180,-97.8376105
2006,Sun Chase Boulevard,78613,30.4775383,-97.8376105
2000,Sun Chase Boulevard,78613,30.4782052,-97.8385064
2105,Cypress Creek Road,78613,30.4753998,-97.8421482
2071,Cypress Creek Road,78613,30.4755231,-97.8410965
2051,Cypress Creek Road,78613,30.4762764,-97.8413442
2051,Cypress Creek Road,78613,30.4764002,-97.8409337
2051,Cypress Creek Road,78613,30.4765208,-97.8405376
2051,Cypress Creek Road,78613,30.4762180,-97.8402832
2051,Cypress Creek Road,78613,30.4763186,-97.8412026
2051,Cypress Creek Road,78613,30.4763422,-97.8411236
2051,Cypress Creek Road,78613,30.4763624,-97.8410550
2051,Cypress Creek Road,78613,30.4763818,-97.8409929
2051,Cypress Creek Road,78613,30.4764396,-97.8408299
2051,Cypress Creek Road,78613,30.4764581,-97.8407504
2051,Cypress Creek Road,78613,30.4764986,-97.8406074
2051,Cypress Creek Road,78613,30.4764842,-97.8406579
2051,Cypress Creek Road,78613,30.4765284,-97.8404275
1201,South Bell Boulevard,78613,30.4945661,-97.8120846
13920,Ronald W Reagan Boulevard,78641,30.5436765,-97.7914081
1310,East Whitestone Boulevard,78613,30.5240369,-97.8146870
3820,Brushy Creek Road,78613,30.5103216,-97.7615755
1310,Cypress Creek Road,78613,30.4846244,-97.8306404
3823,Brushy Creek Road,78613,30.5125099,-97.7615548
2015,Little Elm Trail,78613,30.4793944,-97.8293102
2100,Cypress Creek Road,78613,30.4743736,-97.8413822
2100,Cypress Creek Road,78613,30.4745984,-97.8414639
2100,Cypress Creek Road,78613,30.4745656,-97.8414476
2100,Cypress Creek Road,78613,30.4744925,-97.8414170
1900,Cypress Creek Road,78613,30.4749444,-97.8406137
1201,North Lakeline Boulevard,78613,30.5172789,-97.8528271
1400,North Bell Boulevard,78613,30.5257107,-97.8318228
1312,North Bell Boulevard,78613,30.5255225,-97.8315548
1464,East Whitestone Boulevard,78613,30.5241669,-97.8080880
1841,South Lakeline Boulevard,78613,30.4790548,-97.8317173
1525,Cypress Creek Road,78613,30.4812899,-97.8343872
1525,Cypress Creek Road,78613,30.4813671,-97.8343462
800,West Park Street,78613,30.5059602,-97.8320313
901,South Bell Boulevard,78613,30.5000305,-97.8162945
13402,Anderson Mill Road,78613,30.4670321,-97.8427575
2011,Little Elm Trail,78613,30.4799603,-97.8289969
2011,Little Elm Trail,78613,30.4800036,-97.8289588
2011,Little Elm Trail,78613,30.4800570,-97.8289202
2011,Little Elm Trail,78613,30.4801319,-97.8288638
1310,Cypress Creek Road,78613,30.4848079,-97.8305730
2303,North Lakeline Boulevard,78613,30.5309686,-97.8608933
1500,Timberwood Drive,78613,30.5244431,-97.8445562
1501,North Lakeline Boulevard,78613,30.5211137,-97.8554822
3301,South Bagdad Road,78641,30.5365057,-97.8526786
2420,Zeppelin Drive,78613,30.4824662,-97.8528282
2303,North Lakeline Boulevard,78613,30.5310948,-97.8616835
201,Walton Way,78613,30.5224542,-97.8345161
1109,North Bell Boulevard,78613,30.5221142,-97.8313617
1105,North Bell Boulevard,78613,30.5217598,-97.8311556
1103,North Bell,78613-7087,30.5213113,-97.8309881
1040,East Whitestone Boulevard,78613,30.5214881,-97.8299853
713,North Bell Boulevard,78613-2209,30.5177425,-97.8287507
110,East Whitestone Boulevard,78613,30.5205701,-97.8288143
950,North Bell Boulevard,78613,30.5200235,-97.8291206
810,North Bell Boulevard,78613,30.5189799,-97.8283457
710,North Bell Boulevard,78613,30.5182478,-97.8276025
606,North Bell Boulevard,78613-2277,30.5168998,-97.8268604
500,North Bell Boulevard,78613,30.5149877,-97.8257605
425,East Whitestone Boulevard,78613-9014,30.5234159,-97.8256490
500,East Whitestone Boulevard,78613,30.5217968,-97.8246673
911,Quest Parkway,78613,30.5202514,-97.8246312
300,East Whitestone Boulevard,78613,30.5212409,-97.8264007
2305,South Bell Boulevard,78613,30.4822141,-97.8062364
2305,North Bell Boulevard,78613,30.4823269,-97.8060071
2315,South Bell Boulevard,78613,30.4820200,-97.8057624
2403,South Bell Boulevard,78613,30.4816002,-97.8054950
2407,South Bell Boulevard,78613,30.4814148,-97.8053813
2409,South Bell Boulevard,78613,30.4812129,-97.8051780
2415,South Bell Boulevard,78613,30.4810290,-97.8050947
2419,South Bell Boulevard,78613,30.4808469,-97.8049516
2501,South Bell Boulevard,78613,30.4803947,-97.8047001
2507,South Bell Boulevard,78613,30.4801873,-97.8044747
1335,East Whitestone Boulevard,78613,30.5285512,-97.8113413
319,North Bell Boulevard,78613,30.5125763,-97.8251365
103,North Bell Boulevard,78613,30.5097079,-97.8238920
1623,West New Hope Drive,78613,30.5273145,-97.8567706
2720,East Whitestone Boulevard,78613,30.5320269,-97.7898086
2740,East Whitestone Boulevard,78613,30.5327327,-97.7871906
2700,Whitestone Boulevard,78613,30.5311002,-97.7884588
2800,East Whitestone Boulevard,78613,30.5321109,-97.7852458
3100,East Whitestone Boulevard,78613,30.5342611,-97.7814440
3220,East Whitestone Boulevard,78613,30.5349564,-97.7796927
3001,East Whitestone Boulevard,78613,30.5350864,-97.7837141
3001,East Whitestone Boulevard,78613,30.5348598,-97.7836132
2901,East Whitestone Boulevard,78613,30.5347403,-97.7846545
2801,South Highway 183,78641,30.5439409,-97.8405106
2000,North Bell Boulevard,78613,30.5339573,-97.8346959
200,West New Hope Drive,78613,30.5319772,-97.8363504
1050,North Lakeline Boulevard,78613,30.5158027,-97.8510036
1505,West Whitestone Boulevard,78613,30.5152741,-97.8507290
350,Discovery Boulevard,78613,30.5188941,-97.8257952
550,Discovery Boulevard,78613,30.5188992,-97.8239851
1901,Bagdad Road,78613,30.5293538,-97.8452516
1101,West New Hope Drive,78613,30.5299739,-97.8494096
1101,West New Hope Drive,78613,30.5296817,-97.8487676
100,North Vista Ridge Boulevard,78613,30.5212469,-97.7887185
200,South Vista Ridge Boulevard,78613,30.5179374,-97.7867983
200,South Vista Ridge Boulevard,78613,30.5153902,-97.7867410
1001,Brushy Creek Road,78613,30.5038278,-97.8057642
1001,Brushy Creek Road,78613,30.5037817,-97.8054210
1920,East Whitestone Boulevard,78613,30.5288357,-97.7984177
2101,Cougar Country Drive,78613,30.5317986,-97.8648496
600,West New Hope Drive,78613,30.5300830,-97.8412626
204,East Little Elm Trail,78613,30.4936205,-97.8095813
109,Cypress Creek Road,78613,30.5004644,-97.8182279
1400,Cypress Creek Road,78613,30.4827779,-97.8295882
1410,Cypress Creek Road,78613,30.4826603,-97.8313348
1400,Cypress Creek Road,78613,30.4817598,-97.8319549
1810,South Lakeline Boulevard,78613,30.4815323,-97.8312641
1515,Cypress Creek Road,78613,30.4813966,-97.8334302
2121,Cypress Creek Road,78613,30.4765763,-97.8480897
11300,West Parmer Lane,78717,30.5101953,-97.7728470
1555,Cypress Creek Road,78613,30.4798570,-97.8351354
1301,West Whitestone Boulevard,78613,30.5166758,-97.8473621
1949,West Whitestone Boulevard,78613,30.5135785,-97.8567932
2301,West Whitestone Boulevard,78613,30.5127838,-97.8617415
1713,Hur Industrial Boulevard,78613,30.5184875,-97.8756113
3051,Woodall Dr,78613,30.5175208,-97.8759562
1809,Hur Industrial Boulevard,78613,30.5205236,-97.8756662
1801,Hur Industrial Boulevard,78613,30.5201191,-97.8757826
3200,Woodall Dr,78641,30.5151740,-97.8771732
3310,West Whitestone Boulevard,78641,30.5119104,-97.8783480
3600,Farm-to-Market Road 1431,78641,30.5111780,-97.8825401
3520,West Whitestone Boulevard,78641,30.5111349,-97.8815794
11810,Ranch Road 620,78613,30.4588107,-97.8232290
1605,East Whitestone Boulevard,78613,30.5291395,-97.8049822
1325,East Whitestone Boulevard,78613,30.5265077,-97.8144108
1335,East Whitestone Boulevard,78613,30.5304577,-97.8152513
1425,East Whitestone Boulevard,78613,30.5271552,-97.8118658
4710,183A Toll Road,78613,30.5298695,-97.8160544
810,East Whitestone Boulevard,78613,30.5230798,-97.8208818
401,East Whitestone Boulevard,78613,30.5233211,-97.8268630
1700,East Whitestone Boulevard,78613,30.5280049,-97.8036735
2000,Bagdad Road,78613,30.5315433,-97.8451657
12304,Ranch Road 620,78613,30.4630933,-97.8144433
200,Gupton Way,78613,30.5152229,-97.7919577
11606,Ranch Road 620 North,78750,30.4564467,-97.8256432
11620,RM 620,78750,30.4569179,-97.8252322
11900,RM 620,78750,30.4592232,-97.8227762
12000,Ranch Road 620,78613,30.4598056,-97.8220400
12010,RM 620,78750,30.4604368,-97.8215893
12020,Ranch Road 620,78613,30.4609017,-97.8206596
12112,RM 620,78750,30.4615712,-97.8196109
12218,RM 620,78750,30.4624618,-97.8164921
12226,Ranch Road 620,78750,30.4626953,-97.8157610
12234,Ranch Road 620,78750,30.4629839,-97.8153281
12308,Ranch Road 620,78613,30.4633163,-97.8135631
800,Arrow Point Drive,78613,30.5279814,-97.7993535
1100,Cottonwood Creek Trail,78613,30.5296849,-97.8055864
1345,East Whitestone Boulevard,78613,30.5267884,-97.8134028
1315,East Whitestone Boulevard,78613,30.5262583,-97.8149642
1010,East Whitestone Boulevard,78613,30.5240851,-97.8176903
401,West Whitestone Boulevard,78613,30.5200987,-97.8345482
401,West Whitestone Boulevard,78613,30.5202203,-97.8339714
401,West Whitestone Boulevard,78613,30.5207067,-97.8339900
920,South Lakeline Boulevard,78613,30.5142925,-97.8500602
2509,South Bell Boulevard,78613,30.4797748,-97.8042276
2423,South Bell Boulevard,78613,30.4805323,-97.8047844
2304,Mayfield Way,78613,30.5286198,-97.8629463
11300,West Parmer Lane,78613,30.5106382,-97.7733478
2121,Geoscience Drive,78726,30.4609245,-97.8395941
2121,Geoscience Drive,78613,30.4609124,-97.8395319
15000,Anderson Mill Road,78613,30.4903909,-97.8550629
204,East Little Elm Trail,78613,30.4911900,-97.8069298
1520,Cypress Creek Road,78613,30.4798883,-97.8328058
1503,Continental Pass,78613,30.5183785,-97.8517756
844,Zappa Drive,78613,30.4866888,-97.8620811
1301,North Lakeline Boulevard,78613,30.5185769,-97.8533356
4601,183A Toll Road,78613,30.5276589,-97.8196325
4501,183A Toll Road,78613,30.5255136,-97.8173785
4801,183A Toll Road,78613,30.5293084,-97.8198392
901,East Whitestone Boulevard,78613,30.5246229,-97.8205531
1001,East Whitestone Boulevard,78613,30.5251465,-97.8188497
909,East Whitestone Boulevard,78613,30.5249298,-97.8195671
905,East Whitestone Boulevard,78613,30.5253094,-97.8203276
4501,183A Toll Road,78613,30.5260406,-97.8177921
201,South Bell Boulevard,78613,30.5077171,-97.8227883
1900,Cypress Creek Road,78613,30.4748481,-97.8406801
12124,Ranch Road 620,78750,30.4644743,-97.8192752
1300,Medical Parkway,78613,30.5309550,-97.8163120
170,East Whitestone Boulevard,78613,30.5222602,-97.8283677
801,Big Spring Drive,78613,30.5312275,-97.8245215
1500,North Lakeline Boulevard,78613,30.5221230,-97.8532485
2509,West New Hope Drive,78613,30.5219760,-97.8676938
2500,West New Hope Drive,78613,30.5236505,-97.8648710
403,Paseo Grand Drive,78613,30.5218790,-97.7923350
2209,Kasdan Pass,78613,30.5232910,-97.7917970
619,Clover Flat Road,78613,30.5252475,-97.7957425
2114,Howell Mountain Drive,78613,30.5204575,-97.7919195
512,Clover Flat Road,78613,30.5229475,-97.7943310
2303,Sage Canyon Drive,78613,30.5257145,-97.7922255
2118,Townsman Trail,78613,30.5196605,-97.7915300
2120,Golden Arrow Avenue,78613,30.5212765,-97.7924795
512,Trail Dust,78613,30.5245650,-97.7910055
2203,Esra Court,78613,30.5240235,-97.7927080
2102,Outpost Drive,78613,30.5185970,-97.7924000
2117,Townsman Trail,78613,30.5200450,-97.7918165
2405,Hollis Lane,78613,30.5266955,-97.7919140
413,Paseo Grand Drive,78613,30.5225690,-97.7925840
2104,Howell Mountain Drive,78613,30.5202330,-97.7928515
203,Settlers Home Drive,78613,30.5187415,-97.7931185
508,Tyree Road,78613,30.5229480,-97.7933265
2214,Old Sterling Road,78613,30.5257415,-97.7926860
410,Tyree Road,78613,30.5223110,-97.7929585
2407,Hollis Lane,78613,30.5267480,-97.7917675
301,Settlers Home Drive,78613,30.5192505,-97.7933615
505,Paseo Grand Drive,78613,30.5230455,-97.7929180
2215,Sage Canyon Drive,78613,30.5254355,-97.7923855
2117,Outpost Drive,78613,30.5192970,-97.7914230
2120,Howell Mountain Drive,78613,30.5205830,-97.7913290
501,Trail Dust,78613,30.5239690,-97.7918530
2111,Golden Arrow Avenue,78613,30.5215090,-97.7934255
2109,Outpost Drive,78613,30.5191240,-97.7920900
2311,Hollis Lane,78613,30.5265945,-97.7925410
519,Paseo Grand Drive,78613,30.5239715,-97.7933075
2109,Golden Arrow Avenue,78613,30.5214690,-97.7935730
511,Clover Flat Road,78613,30.5226555,-97.7947360
2113,Howell Mountain Drive,78613,30.5208915,-97.7922205
621,Clover Flat Road,78613,30.5254080,-97.7956140
612,Trail Dust,78613,30.5259155,-97.7907220
2121,Sage Canyon Drive,78613,30.5246675,-97.7933960
2403,Hollis Lane,78613,30.5266570,-97.7920680
2206,Old Sterling Road,78613,30.5252090,-97.7930745
604,Trail Dust,78613,30.5253375,-97.7907495
524,Tyree Road,78613,30.5240905,-97.7938150
2218,Hollis Lane,78613,30.5260935,-97.7926635
2108,Howell Mountain Drive,78613,30.5203510,-97.7924815
508,Clover Flat Road,78613,30.5226890,-97.7942070
516,Clover Flat Road,78613,30.5232045,-97.7944360
2207,Sage Canyon Drive,78613,30.5249790,-97.7928155
520,Clover Flat Road,78613,30.5234740,-97.7945255
2122,Golden Arrow Avenue,78613,30.5212980,-97.7923030
2106,Golden Arrow Avenue,78613,30.5209700,-97.7935720
509,Paseo Grand Drive,78613,30.5233170,-97.7930230
2124,Outpost Drive,78613,30.5189710,-97.7905400
510,Tyree Road,78613,30.5230930,-97.7934160
2112,Howell Mountain Drive,78613,30.5204365,-97.7920840
2114,Townsman Trail,78613,30.5195965,-97.7918335
617,Clover Flat Road,78613,30.5250710,-97.7957190
2204,Sage Canyon Drive,78613,30.5244705,-97.7926585
2119,Townsman Trail,78613,30.5201225,-97.7916540
2111,Townsman Trail,78613,30.5199460,-97.7923180
501,Clover Flat Road,78613,30.5220020,-97.7943610
2313,Hollis Lane,78613,30.5265960,-97.7923775
2106,Old Sterling Road,78613,30.5246690,-97.7945530
2105,Outpost Drive,78613,30.5190595,-97.7924455
208,Gold Star Drive,78613,30.5197470,-97.7907265
2213,Kasdan Pass,78613,30.5233240,-97.7914710
2413,Hollis Lane,78613,30.5268785,-97.7913095
507,Clover Flat Road,78613,30.5223775,-97.7946010
2119,Outpost Drive,78613,30.5193535,-97.7912690
504,Clover Flat Road,78613,30.5224335,-97.7940490
2116,Howell Mountain Drive,78613,30.5205155,-97.7917230
507,Trail Dust,78613,30.5245010,-97.7917845
519,Tyree Road,78613,30.5235855,-97.7941640
106,Outpost Cove,78613,30.5187940,-97.7912535
2111,Howell Mountain Drive,78613,30.5208665,-97.7924505
618,Trail Dust,78613,30.5266515,-97.7908525
507,Paseo Grand Drive,78613,30.5231730,-97.7929875
2105,Townsman Trail,78613,30.5198080,-97.7927600
107,Settlers Home Drive,78613,30.5183190,-97.7929635
2120,Townsman Trail,78613,30.5196715,-97.7913565
2112,Townsman Trail,78613,30.5195680,-97.7920020
526,Clover Flat Road,78613,30.5238500,-97.7947065
515,Paseo Grand Drive,78613,30.5237090,-97.7932035
200,Gold Star Drive,78613,30.5191800,-97.7904915
2200,Esra Court,78613,30.5234610,-97.7926295
2122,Townsman Trail,78613,30.5197155,-97.7912070
514,Tyree Road,78613,30.5233780,-97.7935305
2411,Hollis Lane,78613,30.5267945,-97.7914540
507,Tyree Road,78613,30.5228070,-97.7938235
306,Gold Star Drive,78613,30.5203545,-97.7907925
1916,Laminar Creek Road,78613,30.5220420,-97.7956060
501,Tyree Road,78613,30.5223700,-97.7935650
101,Settlers Home Drive,78613,30.5179250,-97.7926835
2107,Golden Arrow Avenue,78613,30.5214235,-97.7937295
2302,Sage Canyon Drive,78613,30.5255150,-97.7917380
2115,Townsman Trail,78613,30.5200510,-97.7920000
2109,Townsman Trail,78613,30.5198905,-97.7924565
601,Clover Flat Road,78613,30.5240250,-97.7953030
2113,Townsman Trail,78613,30.5200180,-97.7921690
500,Glacial Stream Lane,78613,30.5211345,-97.7945265
2104,Townsman Trail,78613,30.5193645,-97.7925845
2108,Old Sterling Road,78613,30.5247505,-97.7944115
2103,Townsman Trail,78613,30.5198035,-97.7929275
2111,Sage Canyon Drive,78613,30.5244240,-97.7941500
2304,Sage Canyon Drive,78613,30.5256610,-97.7917020
207,Settlers Home Drive,78613,30.5189925,-97.7932585
401,Paseo Grand Drive,78613,30.5217550,-97.7922840
2107,Sage Canyon Drive,78613,30.5243310,-97.7944470
513,Tyree Road,78613,30.5231975,-97.7939975
613,Trail Dust,78613,30.5262080,-97.7913530
2402,Henry Rifle Road,78613,30.5249480,-97.7920145
510,Trail Dust,78613,30.5244305,-97.7910045
2300,Sage Canyon Drive,78613,30.5253715,-97.7917755
511,Trail Dust,78613,30.5247905,-97.7915140
504,Tyree Road,78613,30.5226805,-97.7931770
502,Glacial Stream Lane,78613,30.5212605,-97.7946005
2117,Howell Mountain Drive,78613,30.5209760,-97.7918345
2123,Townsman Trail,78613,30.5201730,-97.7912425
2116,Golden Arrow Avenue,78613,30.5211460,-97.7927985
521,Tyree Road,78613,30.5237160,-97.7941860
2106,Outpost Drive,78613,30.5186535,-97.7920675
2210,Kasdan Pass,78613,30.5223050,-97.7915580
606,Trail Dust,78613,30.5254880,-97.7907320
500,Tyree Road,78613,30.5224515,-97.7929920
517,Paseo Grand Drive,78613,30.5238365,-97.7932815
2409,Hollis Lane,78613,30.5267580,-97.7916095
415,Paseo Grand Drive,78613,30.5226910,-97.7926465
2206,Esra Court,78613,30.5237280,-97.7921775
2101,Howell Mountain Drive,78613,30.5205595,-97.7933940
2208,Sage Canyon Drive,78613,30.5247070,-97.7924015
1910,Laminar Creek Road,78613,30.5219000,-97.7960590
2207,Kasdan Pass,78613,30.5232835,-97.7919585
2115,Sage Canyon Drive,78613,30.5245115,-97.7938420
2200,Old Sterling Road,78613,30.5249725,-97.7936010
2104,Conn Creek Road,78613,30.5217160,-97.7940470
512,Tyree Road,78613,30.5232345,-97.7934605
524,Clover Flat Road,78613,30.5237205,-97.7946435
2126,Golden Arrow Avenue,78613,30.5213285,-97.7919897
523,Tyree Road,78613,30.5238490,-97.7942435
515,Tyree Road,78613,30.5233220,-97.7940835
311,Settlers Home Drive,78613,30.5199000,-97.7936280
615,Trail Dust,78613,30.5263580,-97.7913900
1917,Laminar Creek Road,78613,30.5224880,-97.7957930
2308,Sage Canyon Drive,78613,30.5259755,-97.7917055
100,Settlers Home Drive,78613,30.5180550,-97.7922005
405,Paseo Grand Drive,78613,30.5220325,-97.7923185
1915,Laminar Creek Road,78613,30.5224395,-97.7959425
2211,Kasdan Pass,78613,30.5233595,-97.7916405
614,Clover Flat Road,78613,30.5250705,-97.7951035
2102,Old Sterling Road,78613,30.5245900,-97.7948765
2309,Sage Canyon Drive,78613,30.5262155,-97.7922800
2215,Kasdan Pass,78613,30.5232990,-97.7913010
2113,Old Sterling Road,78613,30.5252915,-97.7941445
108,Outpost Cove,78613,30.5189200,-97.7913165
511,Tyree Road,78613,30.5230715,-97.7939050
2113,Outpost Drive,78613,30.5192090,-97.7917350
2105,Howell Mountain Drive,78613,30.5206745,-97.7930180
504,Glacial Stream Lane,78613,30.5213855,-97.7946775
603,Trail Dust,78613,30.5254050,-97.7912760
607,Trail Dust,78613,30.5257450,-97.7912300
2115,Golden Arrow Avenue,78613,30.5216060,-97.7931355
2209,Sage Canyon Drive,78613,30.5250875,-97.7926835
2109,Sage Canyon Drive,78613,30.5243865,-97.7943040
2121,Townsman Trail,78613,30.5201340,-97.7914345
315,Settlers Home Drive,78613,30.5202500,-97.7937450
509,Clover Flat Road,78613,30.5225135,-97.7946620
202,Gold Star Drive,78613,30.5193299,-97.7905471
503,Paseo Grand Drive,78613,30.5229310,-97.7928080
2201,Kasdan Pass,78613,30.5230910,-97.7924270
2212,Old Sterling Road,78613,30.5256015,-97.7927910
406,Tyree Road,78613,30.5220450,-97.7928345
2207,Esra Court,78613,30.5239495,-97.7923010
517,Clover Flat Road,78613,30.5230680,-97.7948885
517,Tyree Road,78613,30.5234650,-97.7940900
2209,Old Sterling Road,78613,30.5259725,-97.7932190
2202,Old Sterling Road,78613,30.5250395,-97.7933945
2110,Golden Arrow Avenue,78613,30.5210140,-97.7932645
2203,Sage Canyon Drive,78613,30.5247905,-97.7930600
307,Settlers Home Drive,78613,30.5196365,-97.7935175
317,Settlers Home Drive,78613,30.5203900,-97.7938365
2105,Sage Canyon Drive,78613,30.5243015,-97.7946030
2201,Old Sterling Road,78613,30.5254375,-97.7936545
2115,Outpost Drive,78613,30.5192650,-97.7915965
2213,Sage Canyon Drive,78613,30.5252935,-97.7924390
2103,Outpost Drive,78613,30.5190010,-97.7926035
2200,Sage Canyon Drive,78613,30.5243360,-97.7929665
2309,Hollis Lane,78613,30.5265510,-97.7926945
411,Paseo Grand Drive,78613,30.5224275,-97.7925460
2108,Golden Arrow Avenue,78613,30.5209830,-97.7934040
513,Paseo Grand Drive,78613,30.5235845,-97.7931610
2211,Sage Canyon Drive,78613,30.5251990,-97.7925520
2201,Sage Canyon Drive,78613,30.5247080,-97.7932235
523,Clover Flat Road,78613,30.5234580,-97.7950590
2104,Outpost Drive,78613,30.5186130,-97.7922205
404,Tyree Road,78613,30.5219145,-97.7928085
2116,Old Sterling Road,78613,30.5249395,-97.7937715
511,Paseo Grand Drive,78613,30.5234540,-97.7931140
2117,Old Sterling Road,78613,30.5253740,-97.7938115
2105,Old Sterling Road,78613,30.5250860,-97.7947820
2307,Hollis Lane,78613,30.5265250,-97.7928475
103,Settlers Home Drive,78613,30.5180395,-97.7927960
2103,Howell Mountain Drive,78613,30.5205845,-97.7932110
2100,Old Sterling Road,78613,30.5245450,-97.7950365
2132,Golden Arrow Avenue,78613,30.5214545,-97.7915305
503,Tyree Road,78613,30.5225315,-97.7936470
402,Tyree Road,78613,30.5217960,-97.7927120
107,Outpost Cove,78613,30.5186325,-97.7917740
304,Gold Star Drive,78613,30.5201795,-97.7907535
2105,Golden Arrow Avenue,78613,30.5213670,-97.7938740
2100,Conn Creek Road,78613,30.5215845,-97.7944225
500,Clover Flat Road,78613,30.5221830,-97.7939105
2205,Sage Canyon Drive,78613,30.5248680,-97.7929235
616,Clover Flat Road,78613,30.5252745,-97.7950695
520,Tyree Road,78613,30.5238080,-97.7936975
1914,Laminar Creek Road,78613,30.5220055,-97.7957655
609,Clover Flat Road,78613,30.5245480,-97.7955205
525,Clover Flat Road,78613,30.5235870,-97.7951175
1903,Laminar Creek Road,78613,30.5221380,-97.7968540
518,Tyree Road,78613,30.5236600,-97.7936475
109,Outpost Cove,78613,30.5187735,-97.7918260
2305,Sage Canyon Drive,78613,30.5259255,-97.7922760
505,Trail Dust,78613,30.5243640,-97.7918735
2404,Henry Rifle Road,78613,30.5248620,-97.7917855
2106,Conn Creek Road,78613,30.5217605,-97.7938830
100,Outpost Cove,78613,30.5183475,-97.7911410
518,Clover Flat Road,78613,30.5233345,-97.7944995
321,Settlers Home Drive,78613,30.5207115,-97.7939720
609,Trail Dust,78613,30.5259070,-97.7912580
509,Tyree Road,78613,30.5229420,-97.7938635
513,Clover Flat Road,78613,30.5228085,-97.7947840
613,Clover Flat Road,78613,30.5248095,-97.7956270
2111,Outpost Drive,78613,30.5191720,-97.7918975
502,Trail Dust,78613,30.5238530,-97.7914190
2101,Townsman Trail,78613,30.5197045,-97.7930550
2205,Old Sterling Road,78613,30.5256350,-97.7933255
1908,Laminar Creek Road,78613,30.5218760,-97.7962320
2121,Howell Mountain Drive,78613,30.5210485,-97.7914385
2110,Howell Mountain Drive,78613,30.5203915,-97.7922900
101,Outpost Cove,78613,30.5182267,-97.7916105
2203,Old Sterling Road,78613,30.5255250,-97.7934835
2306,Sage Canyon Drive,78613,30.5258110,-97.7916950
102,Outpost Cove,78613,30.5185150,-97.7911110
109,Settlers Home Drive,78613,30.5184600,-97.7930375
3000,Colonial Parkway,78613,30.5310640,-97.7815155
2114,Conn Creek Road,78613,30.5219825,-97.7932815
2107,Townsman Trail,78613,30.5198480,-97.7926155
2305,Hollis Lane,78613,30.5265150,-97.7930255
506,Tyree Road,78613,30.5228275,-97.7932265
2202,Esra Court,78613,30.5234480,-97.7924510
2116,Townsman Trail,78613,30.5196120,-97.7916730
2130,Golden Arrow Avenue,78613,30.5214450,-97.7916915
600,Trail Dust,78613,30.5250770,-97.7908390
309,Settlers Home Drive,78613,30.5197790,-97.7935580
502,Tyree Road,78613,30.5225800,-97.7930740
2208,Old Sterling Road,78613,30.5253170,-97.7929350
2114,Golden Arrow Avenue,78613,30.5210860,-97.7929425
501,Paseo Grand Drive,78613,30.5228010,-97.7927685
205,Settlers Home Drive,78613,30.5188580,-97.7931630
503,Clover Flat Road,78613,30.5221470,-97.7944325
2110,Townsman Trail,78613,30.5195340,-97.7921485
2301,Sage Canyon Drive,78613,30.5255630,-97.7922890
104,Settlers Home Drive,78613,30.5183570,-97.7922315
313,Settlers Home Drive,78613,30.5200860,-97.7936665
506,Trail Dust,78613,30.5241700,-97.7911705
2211,Old Sterling Road,78613,30.5261285,-97.7932595
510,Clover Flat Road,78613,30.5228125,-97.7943010
2107,Outpost Drive,78613,30.5190830,-97.7922540
2203,Kasdan Pass,78613,30.5231705,-97.7922800
2100,Townsman Trail,78613,30.5193085,-97.7928935
2104,Old Sterling Road,78613,30.5246315,-97.7947085
2101,Golden Arrow Avenue,78613,30.5212200,-97.7942605
319,Settlers Home Drive,78613,30.5205390,-97.7939005
618,Clover Flat Road,78613,30.5254010,-97.7952100
2106,Howell Mountain Drive,78613,30.5202975,-97.7926570
2301,Hollis Lane,78613,30.5262610,-97.7933120
2113,Sage Canyon Drive,78613,30.5244665,-97.7939920
2124,Golden Arrow Avenue,78613,30.5213355,-97.7921430
1911,Laminar Creek Road,78613,30.5223280,-97.7962365
2103,Golden Arrow Avenue,78613,30.5213075,-97.7940450
505,Tyree Road,78613,30.5226730,-97.7937565
2107,Old Sterling Road,78613,30.5251680,-97.7945940
516,Tyree Road,78613,30.5235340,-97.7935715
314,Gold Star Drive,78613,30.5210600,-97.7909550
2112,Golden Arrow Avenue,78613,30.5210465,-97.7930945
2307,Sage Canyon Drive,78613,30.5260750,-97.7922620
2415,Hollis Lane,78613,30.5268985,-97.7911365
2205,Esra Court,78613,30.5240525,-97.7925140
519,Clover Flat Road,78613,30.5231885,-97.7949680
500,Trail Dust,78613,30.5238650,-97.7916200
2202,Sage Canyon Drive,78613,30.5243930,-97.7927975
2118,Howell Mountain Drive,78613,30.5205400,-97.7915300
1912,Laminar Creek Road,78613,30.5219575,-97.7959160
2112,Old Sterling Road,78613,30.5248380,-97.7940905
527,Clover Flat Road,78613,30.5237040,-97.7951775
1340,East Whitestone Boulevard,78613,30.5254754,-97.8132623
2210,Sage Canyon Drive,78613,30.5247950,-97.7922515
206,Gold Star Drive,78613,30.5196105,-97.7906895
2108,Conn Creek Road,78613,30.5218220,-97.7937315
2204,Esra Court,78613,30.5235450,-97.7922725
2206,Sage Canyon Drive,78613,30.5245415,-97.7924760
305,Settlers Home Drive,78613,30.5195070,-97.7934505
102,Settlers Home Drive,78613,30.5182270,-97.7921535
612,Clover Flat Road,78613,30.5249240,-97.7951465
2417,Hollis Lane,78613,30.5268300,-97.7909260
409,Paseo Grand Drive,78613,30.5223120,-97.7924695
2107,Howell Mountain Drive,78613,30.5207175,-97.7928340
607,Clover Flat Road,78613,30.5244080,-97.7954975
303,Settlers Home Drive,78613,30.5193775,-97.7934080
308,Gold Star Drive,78613,30.5205075,-97.7908515
2113,Golden Arrow Avenue,78613,30.5215465,-97.7932765
615,Clover Flat Road,78613,30.5249300,-97.7956930
400,Tyree Road,78613,30.5216670,-97.7926680
514,Trail Dust,78613,30.5246875,-97.7909510
2400,Henry Rifle Road,78613,30.5250460,-97.7921370
407,Paseo Grand Drive,78613,30.5221655,-97.7924120
2110,Old Sterling Road,78613,30.5247665,-97.7942390
521,Clover Flat Road,78613,30.5233200,-97.7950210
2103,Sage Canyon Drive,78613,30.5242660,-97.7947590
2303,Hollis Lane,78613,30.5264515,-97.7931890
2110,Conn Creek Road,78613,30.5218735,-97.7935850
2201,Esra Court,78613,30.5238885,-97.7928400
506,Clover Flat Road,78613,30.5225625,-97.7941050
2109,Old Sterling Road,78613,30.5252900,-97.7944785
505,Clover Flat Road,78613,30.5222615,-97.7945435
508,Trail Dust,78613,30.5242945,-97.7910830
2108,Townsman Trail,78613,30.5194795,-97.7922960
525,Tyree Road,78613,30.5239685,-97.7943195
2210,Old Sterling Road,78613,30.5254345,-97.7928520
1905,Laminar Creek Road,78613,30.5222020,-97.7966995
2114,Old Sterling Road,78613,30.5248675,-97.7939245
602,Trail Dust,78613,30.5252010,-97.7907955
2120,Outpost Drive,78613,30.5188865,-97.7909610
310,Gold Star Drive,78613,30.5207110,-97.7908680
523,Paseo Grand Drive,78613,30.5242280,-97.7934360
521,Paseo Grand Drive,78613,30.5240905,-97.7933935
608,Trail Dust,78613,30.5256280,-97.7906640
2101,Outpost Drive,78613,30.5189545,-97.7927555
2106,Townsman Trail,78613,30.5194205,-97.7924355
515,Clover Flat Road,78613,30.5229395,-97.7948410
2101,Sage Canyon Drive,78613,30.5242180,-97.7949085
2112,Conn Creek Road,78613,30.5219230,-97.7934300
2119,Sage Canyon Drive,78613,30.5245785,-97.7935375
506,Glacial Stream Lane,78613,30.5215375,-97.7946940
620,Clover Flat Road,78613,30.5255125,-97.7954315
2115,Howell Mountain Drive,78613,30.5209385,-97.7920590
408,Tyree Road,78613,30.5221845,-97.7928910
2117,Sage Canyon Drive,78613,30.5245860,-97.7937060
2111,Old Sterling Road,78613,30.5252645,-97.7943040
2312,Sage Canyon Drive,78613,30.5263225,-97.7917820
2207,Old Sterling Road,78613,30.5258000,-97.7932685
105,Settlers Home Drive,78613,30.5181800,-97.7928915
2204,Old Sterling Road,78613,30.5251145,-97.7932150
2310,Sage Canyon Drive,78613,30.5261600,-97.7917520
2216,Old Sterling Road,78613,30.5259165,-97.7926655
2102,Conn Creek Road,78613,30.5216220,-97.7942230
209,Settlers Home Drive,78613,30.5191340,-97.7932760
522,Tyree Road,78613,30.5239645,-97.7937330
611,Clover Flat Road,78613,30.5246735,-97.7955805
522,Clover Flat Road,78613,30.5236010,-97.7945735
502,Clover Flat Road,78613,30.5223265,-97.7939580
603,Clover Flat Road,78613,30.5241475,-97.7953705
2401,Hollis Lane,78613,30.5266420,-97.7922270
605,Trail Dust,78613,30.5255790,-97.7913120
504,Trail Dust,78613,30.5240085,-97.7912420
2118,Golden Arrow Avenue,78613,30.5212235,-97.7926610
2122,Outpost Drive,78613,30.5189165,-97.7907935
514,Clover Flat Road,78613,30.5230715,-97.7944050
104,Outpost Cove,78613,30.5186640,-97.7912195
103,Outpost Cove,78613,30.5183400,-97.7917660
605,Clover Flat Road,78613,30.5242880,-97.7953975
611,Trail Dust,78613,30.5260555,-97.7913070
610,Trail Dust,78613,30.5257825,-97.7906950
601,Trail Dust,78613,30.5252620,-97.7913870
1907,Laminar Creek Road,78613,30.5222610,-97.7965595
2121,Outpost Drive,78613,30.5193935,-97.7911010
503,Trail Dust,78613,30.5241790,-97.7919390
2102,Townsman Trail,78613,30.5193070,-97.7927325
1002,Rhondstat Run,78613,30.4844105,-97.8595610
2802,Mancini Cove,78613,30.4814640,-97.8589660
604,Basie Bend,78613,30.4889525,-97.8611765
2715,Lovett Lane,78613,30.4855315,-97.8580735
2805,Grand Oaks Loop,78613,30.4540590,-97.8572700
2803,Mancini Cove,78613,30.4819935,-97.8593095
909,Canyon Springs Drive,78613,30.4846245,-97.8618835
614,Basie Bend,78613,30.4885395,-97.8619190
2800,Mancini Cove,78613,30.4816320,-97.8587925
2911,Lady Day Cove,78641,30.4857965,-97.8637325
3303,Sky Ridge Lane,78613,30.4535565,-97.8560730
1106,Rhondstat Run,78613,30.4827870,-97.8589200
3310,Sky Ridge Lane,78613,30.4526895,-97.8568765
1004,Rhondstat Run,78613,30.4842060,-97.8595270
1107,Rhondstat Run,78613,30.4823420,-97.8592895
3201,Twin Creeks Club Drive,78613,30.4617285,-97.8575280
3305,Sky Ridge Lane,78613,30.4533855,-97.8562615
1102,Canyon Springs Drive,78613,30.4841085,-97.8606980
3204,Sky Ridge Lane,78613,30.4538830,-97.8548680
2810,Ely Court,78613,30.4850605,-97.8616065
2802,Ely Court,78613,30.4854030,-97.8607340
3403,Granite Basin Court,78613,30.4549100,-97.8599935
1208,Ritter Drive,78613,30.4828050,-97.8542975
1202,Ritter Drive,78613,30.4832390,-97.8540285
2101,South Lakeline Boulevard,78613,30.4789590,-97.8236145
2201,South Lakeline Boulevard,78613,30.4787220,-97.8221850
1812,Conn Creek Road,78613,30.5206455,-97.7974850
1802,Laminar Creek Road,78613,30.5212440,-97.7982105
1813,Saline Creek Drive,78613,30.5226060,-97.7980820
505,Yazoo Creek Lane,78613,30.5208370,-97.7987130
501,Yazoo Creek Lane,78613,30.5205440,-97.7986345
503,Yazoo Creek Lane,78613,30.5207035,-97.7986760
608,Mandarin Flyway,78613,30.5074285,-97.7993385
1802,Conn Creek Road,78613,30.5203365,-97.7982470
1806,Conn Creek Road,78613,30.5205080,-97.7979325
1811,Saline Creek Drive,78613,30.5226095,-97.7982505
1800,Conn Creek Road,78613,30.5203375,-97.7984965
507,Yazoo Creek Lane,78613,30.5209640,-97.7987700
1819,Saline Creek Drive,78613,30.5227325,-97.7974400
1701,East Park Street,78613,30.5161020,-97.7974775
1700,East Park Street,78613,30.5145008,-97.7963575
1814,Conn Creek Road,78613,30.5207090,-97.7973370
1810,Conn Creek Road,78613,30.5206085,-97.7976350
1804,Conn Creek Road,78613,30.5204340,-97.7980810
900,Discovery Boulevard,78613,30.5222790,-97.8187350
104,North Lynnwood Trail,78613,30.5143830,-97.8130070
200,West Whitestone Boulevard,78613,30.5198555,-97.8316395
212,Escarpment Way,78613,30.5099260,-97.8300440
343,Shea Drive,78613,30.4923220,-97.8502105
408,Ridgewood Drive,78613,30.5021880,-97.8270660
405,Brushy Creek Road,78613,30.5053460,-97.8147060
2400,East Riviera Drive,78613,30.4792900,-97.8129945
2402,Dijon Drive,78613,30.4800175,-97.8096370
12720,Avery Ranch Road,78613,30.4859485,-97.8080212
1901,South Bell Blvd,78613,30.4875391,-97.8085230
1915,South Bell Boulevard,78613,30.4862862,-97.8079253
1915,South Bell Boulevard,78613,30.4863468,-97.8083573
1911,South Bell Boulevard,78613,30.4868051,-97.8083467
1503,Menteer Drive,78613,30.4869045,-97.8388501
1211,Stepp Bend,78613,30.4899995,-97.8313260
304,Walsh Hill Trail,78613,30.5261590,-97.7550200
300,Walsh Hill Trail,78613,30.5265360,-97.7550450
310,Walsh Glenn Drive,78613,30.5275560,-97.7528465
4516,Zacharys Run,78613,30.5256405,-97.7534915
213,Kati Lane,78613,30.5275025,-97.7548125
304,Kati Lane,78613,30.5271265,-97.7538355
329,Spanish Mustang Drive,78613,30.5248190,-97.7574055
333,Spanish Mustang Drive,78613,30.5245425,-97.7570400
4508,Zacharys Run,78613,30.5255155,-97.7543610
4217,Arrow Wood Road,78613,30.5267658,-97.7585841
208,Kati Lane,78613,30.5278315,-97.7543920
306,Walsh Glenn Drive,78613,30.5277570,-97.7531425
4422,Zacharys Run,78613,30.5256295,-97.7555971
205,Kati Lane,78613,30.5280910,-97.7551950
306,Kati Lane,78613,30.5270020,-97.7537155
209,Kati Lane,78613,30.5278000,-97.7550125
4408,Zacharys Run,78613,30.5260794,-97.7568427
319,Spanish Mustang Drive,78613,30.5249655,-97.7583420
402,Kati Lane,78613,30.5267320,-97.7535130
402,Bluff Point Bend,78613,30.5268955,-97.7628145
305,Kati Lane,78613,30.5270905,-97.7544910
4103,Arrow Wood Road,78613,30.5274456,-97.7618847
4512,Zacharys Run,78613,30.5255005,-97.7539425
4506,Zacharys Run,78613,30.5255100,-97.7545470
211,Kati Lane,78613,30.5276565,-97.7549100
205,Crosswind Court,78613,30.5256365,-97.7643000
3903,Arrow Wood Road,78613,30.5278150,-97.7652080
4600,St Marys,78613,30.5274490,-97.7541880
201,Kati Lane,78613,30.5284190,-97.7553030
207,Kati Lane,78613,30.5279440,-97.7550980
4602,St Marys,78613,30.5275525,-97.7540190
325,Spanish Mustang Drive,78613,30.5249415,-97.7577020
4409,Zacharys Run,78613,30.5266180,-97.7569866
4604,Zacharys Run,78613,30.5259900,-97.7528015
4612,Zacharys Run,78613,30.5263455,-97.7521195
4511,Zacharys Run,78613,30.5260200,-97.7538340
4602,Zacharys Run,78613,30.5259035,-97.7529815
4413,Zacharys Run,78613,30.5264846,-97.7566127
4202,Zacharys Run,78613,30.5261268,-97.7574392
4208,Tiger Horse Trail,78613,30.5245350,-97.7585240
4610,Zacharys Run,78613,30.5262525,-97.7523265
4502,Connor Mason Court,78613,30.5264065,-97.7541515
301,Kati Lane,78613,30.5273710,-97.7547245
302,Walsh Hill Trail,78613,30.5263425,-97.7550515
4513,Zacharys Run,78613,30.5261140,-97.7536645
3909,Arrow Wood Road,78613,30.5278405,-97.7643850
204,Kati Lane,78613,30.5280945,-97.7545890
304,Walsh Glenn Drive,78613,30.5278600,-97.7533095
204,Crosswind Court,78613,30.5259740,-97.7637335
207,Crosswind Court,78613,30.5258300,-97.7645010
4417,Zacharys Run,78613,30.5263880,-97.7562547
309,Walsh Glenn Drive,78613,30.5271285,-97.7531285
4603,Zacharys Run,78613,30.5263655,-97.7531030
4406,Zacharys Run,78613,30.5261275,-97.7570280
150,Church Park Road,78613,30.5248660,-97.7709155
4005,Arrow Wood Road,78613,30.5276810,-97.7633765
305,Walsh Glenn Drive,78613,30.5273355,-97.7534145
307,Walsh Glenn Drive,78613,30.5272340,-97.7532545
203,Kati Lane,78613,30.5282455,-97.7552655
308,Walsh Glenn Drive,78613,30.5276845,-97.7529670
213,North Frontier Lane,78613,30.5247005,-97.7684970
201,Crosswind Court,78613,30.5253960,-97.7638265
4003,Arrow Wood Road,78613,30.5277295,-97.7636115
311,Walsh Glenn Drive,78613,30.5270285,-97.7529760
303,Kati Lane,78613,30.5272370,-97.7545910
4206,Tiger Horse Trail,78613,30.5243585,-97.7585445
400,Kati Lane,78613,30.5268535,-97.7536285
4107,Arrow Wood Road,78613,30.5273761,-97.7614257
4001,Arrow Wood Road,78613,30.5277255,-97.7638655
4601,Zacharys Run,78613,30.5262865,-97.7532840
3911,Arrow Wood Road,78613,30.5277865,-97.7641130
207,North Frontier Lane,78613,30.5240230,-97.7687945
300,Clydesdale Drive,78613,30.5255440,-97.7608105
4410,Zacharys Run,78613,30.5260108,-97.7566658
4401,Zacharys Run,78613,30.5265271,-97.7578694
4211,Brady Ridge Drive,78613,30.5287485,-97.7588190
201,North Frontier Lane,78613,30.5233500,-97.7686605
400,Bluff Point Bend,78613,30.5266425,-97.7628270
3905,Arrow Wood Road,78613,30.5278755,-97.7649230
4201,Brady Ridge Drive,78613,30.5289076,-97.7603110
4011,Arrow Wood Road,78613,30.5275795,-97.7626025
321,Spanish Mustang Drive,78613,30.5249530,-97.7581130
4504,Connor Mason Court,78613,30.5265090,-97.7539145
4504,Zacharys Run,78613,30.5255265,-97.7547220
4604,St Marys,78613,30.5276490,-97.7538240
404,Kati Lane,78613,30.5265570,-97.7534280
404,Bluff Point Bend,78613,30.5271075,-97.7627675
322,Bluff Point Bend,78613,30.5264480,-97.7630120
202,Crosswind Court,78613,30.5257980,-97.7634955
203,Crosswind Court,78613,30.5255565,-97.7640430
3907,Arrow Wood Road,78613,30.5278815,-97.7646415
4608,Zacharys Run,78613,30.5261683,-97.7524827
405,Spanish Mustang Drive,78613,30.5239261,-97.7566499
3115,East Whitestone Boulevard,78613,30.5358421,-97.7811486
302,Walsh Glenn Drive,78613,30.5279705,-97.7534330
206,Kati Lane,78613,30.5279705,-97.7544945
314,Walsh Glenn Drive,78613,30.5273220,-97.7525780
4507,Zacharys Run,78613,30.5259930,-97.7542615
4514,Zacharys Run,78613,30.5255810,-97.7537305
4105,Arrow Wood Road,78613,30.5274130,-97.7616614
4510,Zacharys Run,78613,30.5255075,-97.7541510
1501,East New Hope Drive,78613,30.5363465,-97.8131350
2517,Peterson Drive,78613,30.5273935,-97.7870970
116,Breakaway Road,78613,30.5248935,-97.7878525
107,Breakaway Road,78613,30.5249505,-97.7887870
608,Paden Drive,78613,30.5251460,-97.7869095
2505,Henry Rifle Road,78613,30.5247270,-97.7890680
2502,McKendrick Drive,78613,30.5233905,-97.7876665
2508,Peterson Drive,78613,30.5267475,-97.7880250
2520,Peterson Drive,78613,30.5268820,-97.7868510
114,Breakaway Road,78613,30.5250265,-97.7880265
2510,Peterson Drive,78613,30.5267790,-97.7878475
2308,McKendrick Drive,78613,30.5224990,-97.7893775
112,Breakaway Road,78613,30.5251330,-97.7881685
100,Breakaway Road,78613,30.5256055,-97.7892230
102,Breakaway Road,78613,30.5255595,-97.7890460
2509,Henry Rifle Road,78613,30.5244925,-97.7887365
2501,Peterson Drive,78613,30.5271835,-97.7886995
501,Sang Saloon Road,78613,30.5229390,-97.7894495
516,Whistlers Walk Trail,78613,30.5243605,-97.7895715
612,Paden Drive,78613,30.5254485,-97.7868075
507,Whistlers Walk Trail,78613,30.5229740,-97.7904235
2515,Peterson Drive,78613,30.5273675,-97.7872980
120,Breakaway Road,78613,30.5244685,-97.7873385
2521,Midnight Star Drive,78613,30.5264885,-97.7868285
509,Whistlers Walk Trail,78613,30.5231565,-97.7904435
2404,McKendrick Drive,78613,30.5226695,-97.7886140
2517,Henry Rifle Road,78613,30.5239975,-97.7881805
2506,Midnight Star Drive,78613,30.5258390,-97.7884735
2511,Peterson Drive,78613,30.5272915,-97.7876875
2502,Midnight Star Drive,78613,30.5258865,-97.7889195
515,Sang Saloon Road,78613,30.5240985,-97.7890355
2509,Peterson Drive,78613,30.5272720,-97.7878710
507,Sang Saloon Road,78613,30.5234735,-97.7894065
601,Whistlers Walk Trail,78613,30.5248730,-97.7899860
2518,Midnight Star Drive,78613,30.5260540,-97.7872485
2411,McKendrick Drive,78613,30.5234935,-97.7884080
2503,McKendrick Drive,78613,30.5238640,-97.7879060
614,Paden Drive,78613,30.5256170,-97.7866845
615,Whistlers Walk Trail,78613,30.5261030,-97.7895480
2506,McKendrick Drive,78613,30.5236405,-97.7873885
701,Whistlers Walk Trail,78613,30.5264950,-97.7894350
502,Whistlers Walk Trail,78613,30.5231215,-97.7898615
122,Breakaway Road,78613,30.5243580,-97.7871900
2517,Midnight Star Drive,78613,30.5265270,-97.7872750
606,Paden Drive,78613,30.5250015,-97.7870315
2919,Bellamy Circle,78613,30.5286795,-97.7833355
2402,McKendrick Drive,78613,30.5226180,-97.7888085
603,Whistlers Walk Trail,78613,30.5250405,-97.7898960
2310,McKendrick Drive,78613,30.5224900,-97.7891790
2412,McKendrick Drive,78613,30.5231225,-97.7880110
105,Breakaway Road,78613,30.5250345,-97.7889905
602,Paden Drive,78613,30.5246860,-97.7871825
104,Breakaway Road,78613,30.5255135,-97.7888615
2507,McKendrick Drive,78613,30.5241040,-97.7876015
2510,Midnight Star Drive,78613,30.5258710,-97.7880390
2918,Bellamy Circle,78613,30.5289900,-97.7834970
2519,Midnight Star Drive,78613,30.5265060,-97.7870540
2406,McKendrick Drive,78613,30.5228105,-97.7884670
515,Whistlers Walk Trail,78613,30.5237615,-97.7903130
124,Breakaway Road,78613,30.5242300,-97.7870715
115,Breakaway Road,78613,30.5245205,-97.7881455
2504,Midnight Star Drive,78613,30.5258510,-97.7886835
2513,Midnight Star Drive,78613,30.5264685,-97.7876825
503,Sang Saloon Road,78613,30.5231100,-97.7894830
11951,West Parmer Lane,78613,30.5201346,-97.7747452
2515,Henry Rifle Road,78613,30.5241130,-97.7883170
2505,Peterson Drive,78613,30.5271770,-97.7882535
103,Breakaway Road,78613,30.5250940,-97.7891620
505,Whistlers Walk Trail,78613,30.5227965,-97.7904125
2512,Midnight Star Drive,78613,30.5259440,-97.7878490
706,Paden Drive,78613,30.5265605,-97.7862880
2503,Midnight Star Drive,78613,30.5263105,-97.7887490
1150,South Bell Boulevard,78613,30.4975823,-97.8127563
618,Paden Drive,78613,30.5259220,-97.7865520
2511,Midnight Star Drive,78613,30.5263930,-97.7878820
2515,Midnight Star Drive,78613,30.5264870,-97.7874865
607,Whistlers Walk Trail,78613,30.5253975,-97.7897980
2502,Peterson Drive,78613,30.5267115,-97.7886420
2501,McKendrick Drive,78613,30.5237845,-97.7880515
2505,Midnight Star Drive,78613,30.5263355,-97.7885245
605,Whistlers Walk Trail,78613,30.5252165,-97.7898425
2519,Peterson Drive,78613,30.5273860,-97.7868860
2503,Henry Rifle Road,78613,30.5247335,-97.7893000
108,Breakaway Road,78613,30.5253445,-97.7884895
513,Sang Saloon Road,78613,30.5239660,-97.7891715
2507,Peterson Drive,78613,30.5272205,-97.7880520
2503,Paden Circle,78613,30.5256765,-97.7872025
2501,Midnight Star Drive,78613,30.5264010,-97.7889535
111,Breakaway Road,78613,30.5247235,-97.7884335
519,Whistlers Walk Trail,78613,30.5241375,-97.7902000
613,Whistlers Walk Trail,78613,30.5259125,-97.7896185
2508,McKendrick Drive,78613,30.5237580,-97.7872500
506,Whistlers Walk Trail,78613,30.5234945,-97.7898115
2504,McKendrick Drive,78613,30.5235080,-97.7875315
2501,Paden Circle,78613,30.5256880,-97.7874355
2516,Peterson Drive,78613,30.5269075,-97.7872945
2802,Bellamy Circle,78613,30.5285200,-97.7826375
2920,Bellamy Circle,78613,30.5290390,-97.7832805
2507,Midnight Star Drive,78613,30.5263125,-97.7882845
2800,Bellamy Circle,78613,30.5286670,-97.7827740
501,Whistlers Walk Trail,78613,30.5225400,-97.7903975
110,Breakaway Road,78613,30.5252445,-97.7883035
514,Whistlers Walk Trail,78613,30.5241985,-97.7896005
118,Breakaway Road,78613,30.5247950,-97.7876705
708,Paden Drive,78613,30.5266895,-97.7861255
2504,Paden Circle,78613,30.5250985,-97.7874970
2500,McKendrick Drive,78613,30.5233080,-97.7878185
2500,Paden Circle,78613,30.5255445,-97.7877445
2410,McKendrick Drive,78613,30.5230000,-97.7881380
117,Breakaway Road,78613,30.5243745,-97.7880145
504,Sang Saloon Road,78613,30.5234215,-97.7888690
119,Breakaway Road,78613,30.5243140,-97.7878535
512,Whistlers Walk Trail,78613,30.5240130,-97.7896400
504,Whistlers Walk Trail,78613,30.5233045,-97.7898660
500,Whistlers Walk Trail,78613,30.5228945,-97.7898375
2916,Bellamy Circle,78613,30.5289640,-97.7836865
101,Breakaway Road,78613,30.5251225,-97.7893760
2520,Midnight Star Drive,78613,30.5260170,-97.7870125
611,Whistlers Walk Trail,78613,30.5257435,-97.7897080
513,Whistlers Walk Trail,78613,30.5235655,-97.7903995
2513,Henry Rifle Road,78613,30.5242215,-97.7884915
511,Whistlers Walk Trail,78613,30.5233465,-97.7904415
2300,McKendrick Drive,78613,30.5223750,-97.7902135
2504,Peterson Drive,78613,30.5266780,-97.7884210
2400,McKendrick Drive,78613,30.5225870,-97.7889950
2408,McKendrick Drive,78613,30.5228760,-97.7882860
2500,Peterson Drive,78613,30.5267375,-97.7888555
710,Paden Drive,78613,30.5268855,-97.7860310
2518,Peterson Drive,78613,30.5269330,-97.7870670
506,Sang Saloon Road,78613,30.5236085,-97.7888115
2500,Midnight Star Drive,78613,30.5259180,-97.7891135
2922,Bellamy Circle,78613,30.5289610,-97.7830625
2505,McKendrick Drive,78613,30.5239685,-97.7877395
502,Sang Saloon Road,78613,30.5232430,-97.7889350
704,Paden Drive,78613,30.5264055,-97.7863715
510,Whistlers Walk Trail,78613,30.5238410,-97.7897065
610,Paden Drive,78613,30.5253020,-97.7868735
2522,Peterson Drive,78613,30.5268035,-97.7866680
500,Sang Saloon Road,78613,30.5230695,-97.7889005
523,Whistlers Walk Trail,78613,30.5244670,-97.7900585
2507,Henry Rifle Road,78613,30.5245680,-97.7889140
702,Paden Drive,78613,30.5262480,-97.7864330
616,Paden Drive,78613,30.5257765,-97.7866420
508,Whistlers Walk Trail,78613,30.5236810,-97.7897970
604,Paden Drive,78613,30.5248455,-97.7871190
511,Sang Saloon Road,78613,30.5238265,-97.7892805
2501,Henry Rifle Road,78613,30.5247715,-97.7894860
2514,Peterson Drive,78613,30.5268685,-97.7874670
2302,McKendrick Drive,78613,30.5223720,-97.7899365
106,Breakaway Road,78613,30.5254310,-97.7886740
113,Breakaway Road,78613,30.5246350,-97.7882835
2516,Midnight Star Drive,78613,30.5260375,-97.7874740
2506,Peterson Drive,78613,30.5267150,-97.7882190
2514,Midnight Star Drive,78613,30.5259775,-97.7876575
2508,Midnight Star Drive,78613,30.5257110,-97.7882275
521,Whistlers Walk Trail,78613,30.5243155,-97.7901380
505,Sang Saloon Road,78613,30.5233010,-97.7894675
2512,Peterson Drive,78613,30.5268175,-97.7876495
517,Whistlers Walk Trail,78613,30.5239350,-97.7902655
2502,Paden Circle,78613,30.5251895,-97.7876960
509,Sang Saloon Road,78613,30.5236410,-97.7893910
2304,McKendrick Drive,78613,30.5224650,-97.7897615
2509,Midnight Star Drive,78613,30.5263705,-97.7880765
1150,South Bell Boulevard,78613,30.4965295,-97.8118161
109,Breakaway Road,78613,30.5248540,-97.7885765
609,Whistlers Walk Trail,78613,30.5255660,-97.7897125
2503,Peterson Drive,78613,30.5271610,-97.7884775
2511,Henry Rifle Road,78613,30.5243605,-97.7885950
2306,McKendrick Drive,78613,30.5223955,-97.7895525
2409,McKendrick Drive,78613,30.5233345,-97.7885205
2513,Peterson Drive,78613,30.5273585,-97.7875000
508,Sang Saloon Road,78613,30.5237625,-97.7886675
200,South Vista Ridge Boulevard,78613,30.5161556,-97.7861289
200,South Vista Ridge Boulevard,78613,30.5168959,-97.7869163
1701,South Bell Boulevard,78613,30.4903512,-97.8102310
13521,Ronald W Reagan Boulevard,78613,30.5356176,-97.7840834
105,Outpost Cove,78613,30.5184703,-97.7917926
1530,Cypress Creek Road,78613,30.4788631,-97.8322023
5001,183A Toll Road,78613,30.5358552,-97.8177075
1210,East New Hope Drive,78613,30.5371265,-97.8188195
1220,East New Hope Drive,78613,30.5368190,-97.8182669
1221,East New Hope Drive,78613,30.5380215,-97.8173321
900,East Whitestone Boulevard,78613,30.5233155,-97.8197500
910,East Whitestone Boulevard,78613,30.5236146,-97.8185608
1504,East Whitestone Boulevard,78613,30.5270489,-97.8074120
1600,East Whitestone Boulevard,78613,30.5272986,-97.8065033
204,Gold Star Drive,78613,30.5194690,-97.7906705
2100,Outpost Drive,78613,30.5185300,-97.7925562
2102,Howell Mountain Drive,78613,30.5202169,-97.7930394
2100,Howell Mountain Drive,78613,30.5200979,-97.7932332
2109,Howell Mountain Drive,78613,30.5208674,-97.7926717
2128,Golden Arrow Avenue,78613,30.5213930,-97.7918481
316,Gold Star Drive,78613,30.5212490,-97.7910194
318,Gold Star Drive,78613,30.5213965,-97.7910727
320,Gold Star Drive,78613,30.5215860,-97.7911177
2119,Howell Mountain Drive,78613,30.5210152,-97.7916525
312,Gold Star Drive,78613,30.5208976,-97.7909349
323,Settlers Home Drive,78613,30.5208785,-97.7940286
2205,Kasdan Pass,78613,30.5232099,-97.7921075
509,Trail Dust,78613,30.5246254,-97.7915168
1801,East Park Street,78613,30.5165837,-97.7956398
2101,East Park Street,78613,30.5176273,-97.7924234
1401,Medical Parkway,78613,30.5320976,-97.8117031
1320,Arrow Point Drive,78613,30.5345591,-97.7997544
1906,Camino Alemeda,78641,30.5479852,-97.7862424
350,Cypress Creek Road,78613,30.4962963,-97.8188456
1435,Main Street,78613,30.5272213,-97.8241388
1906,South Lakeline Boulevard,78613,30.4816779,-97.8272056
1315,East New Hope Drive,78641,30.5371242,-97.8143678
1520,Juliette Way,78613,30.4876626,-97.8280431
1531,Juliette Way,78613,30.4853310,-97.8282459
875,Quest Parkway,78613,30.5210671,-97.8234036
1110,Discovery Boulevard,78613,30.5260710,-97.8207776
805,Wilson Ranch Place,78613,30.5114260,-97.7806200
807,Wilson Ranch Place,78613,30.5112640,-97.7805254
809,Wilson Ranch Place,78613,30.5110845,-97.7804905
813,Wilson Ranch Place,78613,30.5107504,-97.7803144
811,Wilson Ranch Place,78613,30.5109244,-97.7804124
815,Wilson Ranch Place,78613,30.5105860,-97.7802535
901,Wilson Ranch Place,78613,30.5104110,-97.7801563
903,Wilson Ranch Place,78613,30.5102503,-97.7800721
905,Wilson Ranch Place,78613,30.5100885,-97.7800265
907,Wilson Ranch Place,78613,30.5099195,-97.7799521
909,Wilson Ranch Place,78613,30.5097465,-97.7798747
911,Wilson Ranch Place,78613,30.5095776,-97.7798246
913,Wilson Ranch Place,78613,30.5094188,-97.7797211
2609,Lou Hollow Place,78613,30.5091741,-97.7795613
2607,Lou Hollow Place,78613,30.5091119,-97.7797792
2605,Lou Hollow Place,78613,30.5090652,-97.7799732
2603,Lou Hollow Place,78613,30.5089969,-97.7801857
2601,Lou Hollow Place,78613,30.5089639,-97.7803593
2511,Lou Hollow Place,78613,30.5088952,-97.7805416
2509,Lou Hollow Place,78613,30.5088545,-97.7807429
2507,Lou Hollow Place,78613,30.5087873,-97.7809395
2505,Lou Hollow Place,78613,30.5087342,-97.7811226
2503,Lou Hollow Place,78613,30.5086610,-97.7813197
2501,Lou Hollow Place,78613,30.5086186,-97.7815108
2411,Lou Hollow Place,78613,30.5085500,-97.7817259
2409,Lou Hollow Place,78613,30.5085013,-97.7819057
2407,Lou Hollow Place,78613,30.5084382,-97.7821239
2405,Lou Hollow Place,78613,30.5083599,-97.7823031
2400,Lou Hollow Place,78613,30.5078527,-97.7821311
2403,Lou Hollow Place,78613,30.5082731,-97.7825051
2401,Lou Hollow Place,78613,30.5080728,-97.7826764
917,Copper Lake Road,78613,30.5093240,-97.7787101
915,Copper Lake Road,78613,30.5095393,-97.7787988
913,Copper Lake Road,78613,30.5097152,-97.7788602
911,Copper Lake Road,78613,30.5098882,-97.7789675
909,Copper Lake Road,78613,30.5100440,-97.7790368
907,Copper Lake Road,78613,30.5102260,-97.7791069
905,Copper Lake Road,78613,30.5103843,-97.7791596
903,Copper Lake Road,78613,30.5105718,-97.7792144
901,Copper Lake Road,78613,30.5107270,-97.7792941
811,Copper Lake Road,78613,30.5110566,-97.7794703
809,Copper Lake Road,78613,30.5112170,-97.7795390
807,Copper Lake Road,78613,30.5113997,-97.7796106
803,Copper Lake Road,78613,30.5117478,-97.7797538
801,Copper Lake Road,78613,30.5119081,-97.7798302
800,Wilson Ranch Place,78613,30.5118071,-97.7801559
802,Wilson Ranch Place,78613,30.5116260,-97.7800772
804,Wilson Ranch Place,78613,30.5114431,-97.7800001
806,Wilson Ranch Place,78613,30.5112823,-97.7799409
808,Wilson Ranch Place,78613,30.5111141,-97.7798618
810,Wilson Ranch Place,78613,30.5109534,-97.7798102
812,Wilson Ranch Place,78613,30.5107792,-97.7797174
900,Wilson Ranch Place,78613,30.5106067,-97.7796356
902,Wilson Ranch Place,78613,30.5104460,-97.7795466
904,Wilson Ranch Place,78613,30.5102820,-97.7794965
908,Wilson Ranch Place,78613,30.5099611,-97.7793674
910,Wilson Ranch Place,78613,30.5097677,-97.7792931
912,Wilson Ranch Place,78613,30.5096121,-97.7791968
914,Wilson Ranch Place,78613,30.5094237,-97.7791271
916,Wilson Ranch Place,78613,30.5092652,-97.7790504
2402,Lou Hollow Place,78613,30.5079436,-97.7819267
2404,Lou Hollow Place,78613,30.5080050,-97.7817265
2406,Lou Hollow Place,78613,30.5080523,-97.7815448
2500,Lou Hollow Place,78613,30.5081267,-97.7813327
2502,Lou Hollow Place,78613,30.5081783,-97.7811377
2504,Lou Hollow Place,78613,30.5082458,-97.7809209
2506,Lou Hollow Place,78613,30.5083161,-97.7807702
2508,Lou Hollow Place,78613,30.5083713,-97.7805651
2510,Lou Hollow Place,78613,30.5084408,-97.7803657
2600,Lou Hollow Place,78613,30.5084855,-97.7801592
2602,Lou Hollow Place,78613,30.5085463,-97.7799720
2604,Lou Hollow Place,78613,30.5086008,-97.7797742
2606,Lou Hollow Place,78613,30.5086568,-97.7795757
2608,Lou Hollow Place,78613,30.5086980,-97.7793960
2700,Lou Hollow Place,78613,30.5088146,-97.7789408
2702,Lou Hollow Place,78613,30.5088831,-97.7787507
2704,Lou Hollow Place,78613,30.5089450,-97.7785329
1000,Copper Lake Road,78613,30.5091307,-97.7780681
916,Copper Lake Road,78613,30.5095408,-97.7782275
914,Copper Lake Road,78613,30.5097277,-97.7782670
912,Copper Lake Road,78613,30.5098943,-97.7783279
910,Copper Lake Road,78613,30.5100639,-97.7784101
908,Copper Lake Road,78613,30.5102460,-97.7785004
906,Copper Lake Road,78613,30.5104142,-97.7785624
904,Copper Lake Road,78613,30.5105650,-97.7786146
902,Copper Lake Road,78613,30.5107326,-97.7786793
900,Copper Lake Road,78613,30.5109210,-97.7787732
812,Copper Lake Road,78613,30.5112307,-97.7789349
810,Copper Lake Road,78613,30.5113943,-97.7790456
808,Copper Lake Road,78613,30.5115882,-97.7790781
806,Copper Lake Road,78613,30.5117397,-97.7791330
804,Copper Lake Road,78613,30.5119069,-97.7792202
802,Copper Lake Road,78613,30.5120821,-97.7792614
800,Copper Lake Road,78613,30.5122667,-97.7793031
2613,Honey Springs Lane,78613,30.5124690,-97.7795283
2611,Honey Springs Lane,78613,30.5124685,-97.7797925
2609,Honey Springs Lane,78613,30.5123179,-97.7799676
2607,Honey Springs Lane,78613,30.5123141,-97.7801582
2605,Honey Springs Lane,78613,30.5122078,-97.7803588
2603,Honey Springs Lane,78613,30.5122119,-97.7805542
2601,Honey Springs Lane,78613,30.5120675,-97.7808121
801,Wilson Ranch Place,78613,30.5117590,-97.7808117
803,Wilson Ranch Place,78613,30.5115730,-97.7806795
701,North Vista Ridge Boulevard,78613,30.5276345,-97.7926274
2729,East Whitestone Boulevard,78613,30.5341111,-97.7897023
2721,East Whitestone Boulevard,78613,30.5332889,-97.7897021
2733,East Whitestone Boulevard,78613,30.5337009,-97.7882882
2741,Market Street,78613,30.5341314,-97.7878989
2725,East Whitestone Boulevard,78613,30.5334565,-97.7888554
1900,East Whitestone Boulevard,78613,30.5291394,-97.8001034
900,Arrow Point Drive,78613,30.5283141,-97.7999145
1701,East Whitestone Boulevard,78613-2499,30.5293600,-97.8042694
300,Ryan Jordan Lane,78613,30.4969458,-97.8529960
2910,South Lakeline Boulevard,78613,30.4788364,-97.8053580
2920,South Lakeline Boulevard,78613,30.4793394,-97.8046240
201,Walton Way,78613,30.5212531,-97.8339161
4911,183A Toll Road,78613,30.5322274,-97.8183006
2219,South Lakeline Boulevard,78613,30.4783724,-97.8196348
1850,South Lakeline Boulevard,78613,30.4816000,-97.8294063
1801,C-Bar Ranch Trail,78613,30.5235809,-97.8112495
4807,183A Toll Road,78613,30.5296690,-97.8183713
5011,183A Toll Road,78613,30.5330055,-97.8181929
5111,183A Toll Road,78613,30.5343485,-97.8178520
2017,Colina Cove,78613,30.5270615,-97.7949233
2016,Colina Cove,78613,30.5268406,-97.7946560
2014,Colina Cove,78613,30.5265491,-97.7946539
2012,Colina Cove,78613,30.5263859,-97.7950123
2010,Colina Cove,78613,30.5263314,-97.7952578
2015,Colina Cove,78613,30.5269702,-97.7953632
2013,Colina Cove,78613,30.5268365,-97.7956293
2011,Colina Cove,78613,30.5267157,-97.7958414
2008,Colina Cove,78613,30.5262380,-97.7955199
2009,Colina Cove,78613,30.5266233,-97.7961273
2007,Colina Cove,78613,30.5265366,-97.7964018
2006,Colina Cove,78613,30.5261445,-97.7958007
2004,Colina Cove,78613,30.5260207,-97.7960757
2005,Colina Cove,78613,30.5264220,-97.7966904
2003,Colina Cove,78613,30.5262348,-97.7969184
2001,Colina Cove,78613,30.5260004,-97.7971467
2002,Colina Cove,78613,30.5259474,-97.7963807
2000,Colina Cove,78613,30.5257044,-97.7965959
616,Glacial Stream Lane,78613,30.5254046,-97.7963350
614,Glacial Stream Lane,78613,30.5251763,-97.7962514
608,Glacial Stream Lane,78613,30.5245661,-97.7959762
606,Glacial Stream Lane,78613,30.5243470,-97.7959507
604,Glacial Stream Lane,78613,30.5241552,-97.7958135
602,Glacial Stream Lane,78613,30.5239339,-97.7956903
1906,Floresta Drive,78613,30.5236395,-97.7962481
1902,Floresta Drive,78613,30.5234597,-97.7967507
1900,Floresta Drive,78613,30.5234198,-97.7970016
1816,Floresta Drive,78613,30.5233352,-97.7972751
1814,Floresta Drive,78613,30.5232057,-97.7975633
1800,Floresta Drive,78613,30.5227514,-97.7994411
1801,Floresta Drive,78613,30.5230893,-97.7995572
1803,Floresta Drive,78613,30.5233460,-97.7992555
1805,Floresta Drive,78613,30.5233939,-97.7989416
1807,Floresta Drive,78613,30.5234770,-97.7986533
1809,Floresta Drive,78613,30.5235328,-97.7983473
601,Girassol Cove,78613,30.5237093,-97.7976209
603,Girassol Cove,78613,30.5239012,-97.7977734
605,Girassol Cove,78613,30.5240747,-97.7979788
607,Girassol Cove,78613,30.5242756,-97.7981806
608,Girassol Cove,78613,30.5247358,-97.7977594
606,Girassol Cove,78613,30.5246924,-97.7974129
604,Girassol Cove,78613,30.5243759,-97.7973071
602,Girassol Cove,78613,30.5241707,-97.7971309
600,Girassol Cove,78613,30.5239243,-97.7970211
605,Glacial Stream Lane,78613,30.5240856,-97.7964401
607,Glacial Stream Lane,78613,30.5243067,-97.7965707
609,Glacial Stream Lane,78613,30.5245065,-97.7966550
611,Glacial Stream Lane,78613,30.5247336,-97.7967108
617,Glacial Stream Lane,78613,30.5253511,-97.7969933
701,Glacial Stream Lane,78613,30.5254693,-97.7973562
703,Glacial Stream Lane,78613,30.5255314,-97.7976525
709,Glacial Stream Lane,78613,30.5257335,-97.7986537
710,Glacial Stream Lane,78613,30.5262886,-97.7984761
712,Glacial Stream Lane,78613,30.5262875,-97.7987963
716,Glacial Stream Lane,78613,30.5261481,-97.7993949
711,Glacial Stream Lane,78613,30.5257517,-97.7989757
713,Glacial Stream Lane,78613,30.5256227,-97.7992102
710,Arrow Point Drive,78613,30.5270023,-97.7996873
710,Arrow Point Drive,78613,30.5270399,-97.7994435
710,Arrow Point Drive,78613,30.5266657,-97.7995860
710,Arrow Point Drive,78613,30.5266549,-97.7993793
710,Arrow Point Drive,78613,30.5266583,-97.7991863
710,Arrow Point Drive,78613,30.5266641,-97.7989938
710,Arrow Point Drive,78613,30.5271255,-97.7988801
710,Arrow Point Drive,78613,30.5269458,-97.7988547
710,Arrow Point Drive,78613,30.5269540,-97.7986422
710,Arrow Point Drive,78613,30.5266723,-97.7986123
710,Arrow Point Drive,78613,30.5266754,-97.7984225
710,Arrow Point Drive,78613,30.5267913,-97.7982501
710,Arrow Point Drive,78613,30.5272624,-97.7987516
710,Arrow Point Drive,78613,30.5271346,-97.7983114
710,Arrow Point Drive,78613,30.5272795,-97.7984280
710,Arrow Point Drive,78613,30.5273961,-97.7985743
710,Arrow Point Drive,78613,30.5272576,-97.7981779
710,Arrow Point Drive,78613,30.5274332,-97.7983041
710,Arrow Point Drive,78613,30.5274598,-97.7979486
710,Arrow Point Drive,78613,30.5275248,-97.7977798
710,Arrow Point Drive,78613,30.5276445,-97.7976524
710,Arrow Point Drive,78613,30.5277134,-97.7974602
710,Arrow Point Drive,78613,30.5277796,-97.7971716
710,Arrow Point Drive,78613,30.5273426,-97.7974937
710,Arrow Point Drive,78613,30.5272435,-97.7976709
710,Arrow Point Drive,78613,30.5271337,-97.7978185
710,Arrow Point Drive,78613,30.5270151,-97.7979708
710,Arrow Point Drive,78613,30.5269081,-97.7981074
1817,Saline Creek Drive,78613,30.5228199,-97.7977097
1815,Saline Creek Drive,78613,30.5227363,-97.7979304
1818,Saline Creek Drive,78613,30.5225235,-97.7972747
1816,Saline Creek Drive,78613,30.5223189,-97.7973312
1814,Saline Creek Drive,78613,30.5222365,-97.7975568
1810,Saline Creek Drive,78613,30.5221896,-97.7977407
1810,Saline Creek Drive,78613,30.5221978,-97.7979149
1808,Saline Creek Drive,78613,30.5221521,-97.7980683
1806,Saline Creek Drive,78613,30.5220907,-97.7982013
1804,Saline Creek Drive,78613,30.5220660,-97.7983688
1802,Saline Creek Drive,78613,30.5220051,-97.7985212
1800,Saline Creek Drive,78613,30.5219554,-97.7986564
1809,Saline Creek Drive,78613,30.5225158,-97.7983682
1807,Saline Creek Drive,78613,30.5225267,-97.7985408
1805,Saline Creek Drive,78613,30.5224603,-97.7986822
1803,Saline Creek Drive,78613,30.5224237,-97.7988478
1801,Saline Creek Drive,78613,30.5223899,-97.7990467
613,Yazoo Creek Lane,78613,30.5222409,-97.7992723
611,Yazoo Creek Lane,78613,30.5220386,-97.7992414
609,Yazoo Creek Lane,78613,30.5218790,-97.7991543
607,Yazoo Creek Lane,78613,30.5217491,-97.7990707
605,Yazoo Creek Lane,78613,30.5216330,-97.7989992
603,Yazoo Creek Lane,78613,30.5214945,-97.7989980
601,Yazoo Creek Lane,78613,30.5213588,-97.7989168
511,Yazoo Creek Lane,78613,30.5212435,-97.7988260
509,Yazoo Creek Lane,78613,30.5210991,-97.7988087
1801,Laminar Creek Road,78613,30.5216270,-97.7985195
1803,Laminar Creek Road,78613,30.5216994,-97.7983775
1805,Laminar Creek Road,78613,30.5217732,-97.7982282
1800,Laminar Creek Road,78613,30.5212142,-97.7983615
1804,Laminar Creek Road,78613,30.5212997,-97.7980501
1807,Laminar Creek Road,78613,30.5217666,-97.7980582
1809,Laminar Creek Road,78613,30.5218472,-97.7979227
1811,Laminar Creek Road,78613,30.5218637,-97.7977530
1806,Laminar Creek Road,78613,30.5213243,-97.7978964
1808,Laminar Creek Road,78613,30.5213958,-97.7977458
1810,Laminar Creek Road,78613,30.5214458,-97.7975943
1813,Laminar Creek Road,78613,30.5219461,-97.7976149
1815,Laminar Creek Road,78613,30.5219527,-97.7974448
1812,Laminar Creek Road,78613,30.5215101,-97.7974387
1814,Laminar Creek Road,78613,30.5215462,-97.7972992
1816,Laminar Creek Road,78613,30.5216000,-97.7971361
1817,Laminar Creek Road,78613,30.5220327,-97.7973087
1819,Laminar Creek Road,78613,30.5220763,-97.7971640
1901,Laminar Creek Road,78613,30.5221249,-97.7970117
1909,Laminar Creek Road,78613,30.5223164,-97.7963979
1913,Laminar Creek Road,78613,30.5223768,-97.7960812
1919,Laminar Creek Road,78613,30.5225660,-97.7956352
1918,Laminar Creek Road,78613,30.5220959,-97.7954509
1906,Laminar Creek Road,78613,30.5218139,-97.7963539
1904,Laminar Creek Road,78613,30.5217744,-97.7965209
1902,Laminar Creek Road,78613,30.5217209,-97.7966589
1900,Laminar Creek Road,78613,30.5216955,-97.7968306
1818,Laminar Creek Road,78613,30.5216283,-97.7969811
1005,Kingston Place,78613,30.5103540,-97.7760406
1003,Kingston Place,78613,30.5105046,-97.7760685
1001,Kingston Place,78613,30.5106447,-97.7761340
925,Kingston Place,78613,30.5108026,-97.7762434
1014,Clearwell Street,78613,30.5106782,-97.7756143
1010,Clearwell Street,78613,30.5108643,-97.7753401
1008,Clearwell Street,78613,30.5109951,-97.7752119
920,Kingston Place,78613,30.5112155,-97.7758827
1003,Clearwell Street,78613,30.5113629,-97.7755982
916,Kingston Place,78613,30.5114294,-97.7760515
919,Astoria Street,78613,30.5116399,-97.7756245
917,Astoria Street,78613,30.5117369,-97.7757596
915,Astoria Street,78613,30.5118293,-97.7758728
909,Astoria Street,78613,30.5121718,-97.7761720
902,Kingston Place,78613,30.5122109,-97.7767665
900,Kingston Place,78613,30.5123519,-97.7768918
907,Astoria Street,78613,30.5122709,-97.7762723
905,Astoria Street,78613,30.5123874,-97.7763646
903,Astoria Street,78613,30.5124852,-97.7764886
901,Astoria Street,78613,30.5125930,-97.7765919
2903,Zelma Drive,78613,30.5128020,-97.7769987
2905,Zelma Drive,78613,30.5129241,-97.7768796
2909,Zelma Drive,78613,30.5130859,-97.7766311
2911,Zelma Drive,78613,30.5131838,-97.7765060
900,Astoria Street,78613,30.5129148,-97.7761571
902,Astoria Street,78613,30.5128061,-97.7760538
904,Astoria Street,78613,30.5126941,-97.7759322
817,Clearwell Street,78613,30.5126521,-97.7751771
709,Kodiak Trail,78613,30.5137742,-97.7782758
704,Kodiak Trail,78613,30.5143781,-97.7773910
2901,Kodiak Cove,78613,30.5153506,-97.7778521
605,Kodiak Trail,78613,30.5152201,-97.7786603
3016,Polar Lane,78613,30.5161565,-97.7751886
11801,West Parmer Lane,78613,30.5185604,-97.7748746
3001,Glacier Pass Lane,78613,30.5192700,-97.7764910
3109,Kenai Drive,78613,30.5229870,-97.7767745
3115,Kenai Drive,78613,30.5231226,-97.7763268
201,Church Park Road,78613,30.5266030,-97.7735311
203,North Frontier Lane,78613,30.5235791,-97.7687096
211,North Frontier Lane,78613,30.5245129,-97.7686523
318,Bluff Point Bend,78613,30.5265390,-97.7636222
320,Bluff Point Bend,78613,30.5265238,-97.7633591
4101,Avery Woods Lane,78613,30.5274772,-97.7621506
4009,Arrow Wood Road,78613,30.5276005,-97.7628613
4007,Arrow Wood Road,78613,30.5276391,-97.7631183
700,Mandarin Flyway,78613,30.5072360,-97.7987265
700,Mandarin Flyway,78613,30.5074098,-97.7981680
700,Mandarin Flyway,78613,30.5071013,-97.7980952
700,Mandarin Flyway,78613,30.5074253,-97.7970167
700,Mandarin Flyway,78613,30.5075148,-97.7967379
700,Mandarin Flyway,78613,30.5076071,-97.7963637
700,Mandarin Flyway,78613,30.5073913,-97.7962840
700,Mandarin Flyway,78613,30.5070090,-97.7961681
700,Mandarin Flyway,78613,30.5069153,-97.7964885
700,Mandarin Flyway,78613,30.5068107,-97.7968293
604,Mandarin Flyway,78613,30.5077813,-97.7995353
606,Mandarin Flyway,78613,30.5076004,-97.7994378
407,Bufflehead Lane,78613,30.5096443,-97.7999165
1505,Flyway Lane,78613,30.5106130,-97.8003217
306,South Gadwall Lane,78613,30.5112249,-97.7988616
1320,East Whitestone Boulevard,78613,30.5251302,-97.8139322
407,Friesian Lane,78613,30.5270303,-97.7620882
405,Friesian Lane,78613,30.5268227,-97.7621213
403,Friesian Lane,78613,30.5266371,-97.7622005
404,Friesian Lane,78613,30.5269689,-97.7615493
402,Friesian Lane,78613,30.5267760,-97.7615596
400,Friesian Lane,78613,30.5265767,-97.7616140
4100,Zacharys Run,78613,30.5263286,-97.7622209
4102,Zacharys Run,78613,30.5261696,-97.7619850
4104,Zacharys Run,78613,30.5261174,-97.7617527
4106,Zacharys Run,78613,30.5260492,-97.7615365
4108,Zacharys Run,78613,30.5259387,-97.7613138
405,Brahman Road,78613,30.5268871,-97.7610864
403,Brahman Road,78613,30.5266537,-97.7611704
401,Brahman Road,78613,30.5264261,-97.7611970
406,Brahman Road,78613,30.5268204,-97.7605697
404,Brahman Road,78613,30.5266061,-97.7606097
402,Brahman Road,78613,30.5263966,-97.7606487
400,Brahman Road,78613,30.5261853,-97.7607094
407,Cisco Cove,78613,30.5267226,-97.7601463
405,Cisco Cove,78613,30.5265058,-97.7601544
403,Cisco Cove,78613,30.5263036,-97.7602092
401,Cisco Cove,78613,30.5260823,-97.7603193
408,Cisco Cove,78613,30.5266197,-97.7596525
406,Cisco Cove,78613,30.5263996,-97.7596499
404,Cisco Cove,78613,30.5261622,-97.7596169
402,Cisco Cove,78613,30.5259475,-97.7595878
4218,Arrow Wood Road,78613,30.5264150,-97.7590275
4220,Arrow Wood Road,78613,30.5261990,-97.7589341
4221,Arrow Wood Road,78613,30.5264088,-97.7582225
4219,Arrow Wood Road,78613,30.5265884,-97.7584259
4215,Arrow Wood Road,78613,30.5268802,-97.7588569
4213,Arrow Wood Road,78613,30.5269521,-97.7590829
4211,Arrow Wood Road,78613,30.5270050,-97.7593056
4209,Arrow Wood Road,78613,30.5270999,-97.7595481
4207,Arrow Wood Road,78613,30.5271325,-97.7597898
4205,Arrow Wood Road,78613,30.5271669,-97.7600257
4203,Arrow Wood Road,78613,30.5272152,-97.7602668
4201,Arrow Wood Road,78613,30.5272587,-97.7604852
4113,Arrow Wood Road,78613,30.5272714,-97.7607292
4111,Arrow Wood Road,78613,30.5273211,-97.7609654
4109,Arrow Wood Road,78613,30.5273438,-97.7611961
4202,Zacharys Run,78613,30.5255417,-97.7604677
4204,Zacharys Run,78613,30.5255544,-97.7602393
4206,Zacharys Run,78613,30.5255368,-97.7600253
4208,Zacharys Run,78613,30.5255202,-97.7598348
4210,Zacharys Run,78613,30.5254952,-97.7596442
4212,Zacharys Run,78613,30.5254852,-97.7594310
4214,Zacharys Run,78613,30.5255313,-97.7592157
4216,Zacharys Run,78613,30.5255913,-97.7590321
4218,Zacharys Run,78613,30.5256590,-97.7588650
4300,Zacharys Run,78613,30.5257207,-97.7585863
4302,Zacharys Run,78613,30.5257901,-97.7584089
4304,Zacharys Run,78613,30.5258531,-97.7582072
4306,Zacharys Run,78613,30.5259212,-97.7580225
4308,Zacharys Run,78613,30.5259870,-97.7578118
4400,Zacharys Run,78613,30.5260581,-97.7576265
4403,Zacharys Run,78613,30.5266268,-97.7576194
4405,Zacharys Run,78613,30.5266222,-97.7574139
4407,Zacharys Run,78613,30.5266364,-97.7572025
4404,Zacharys Run,78613,30.5261629,-97.7572336
4411,Zacharys Run,78613,30.5265696,-97.7567985
4415,Zacharys Run,78613,30.5264506,-97.7564357
4419,Zacharys Run,78613,30.5263279,-97.7560776
4421,Zacharys Run,78613,30.5262153,-97.7559078
4412,Zacharys Run,78613,30.5259371,-97.7564871
4414,Zacharys Run,78613,30.5258974,-97.7563239
4416,Zacharys Run,78613,30.5258222,-97.7561531
4418,Zacharys Run,78613,30.5257563,-97.7559817
4420,Zacharys Run,78613,30.5257032,-97.7557918
307,Walsh Hill Trail,78613,30.5261067,-97.7556001
305,Walsh Hill Trail,78613,30.5262783,-97.7555880
303,Walsh Hill Trail,78613,30.5264623,-97.7556406
301,Walsh Hill Trail,78613,30.5266355,-97.7557097
306,Walsh Hill Trail,78613,30.5259912,-97.7550460
4503,Zacharys Run,78613,30.5260022,-97.7546439
4505,Zacharys Run,78613,30.5259950,-97.7544527
4509,Zacharys Run,78613,30.5259841,-97.7540687
4500,Zacharys Run,78613,30.5255512,-97.7551154
4502,Zacharys Run,78613,30.5255436,-97.7549217
4518,Zacharys Run,78613,30.5257500,-97.7533078
4600,Zacharys Run,78613,30.5258448,-97.7531531
4606,Zacharys Run,78613,30.5260741,-97.7526346
4605,Zacharys Run,78613,30.5264823,-97.7529409
4607,Zacharys Run,78613,30.5265626,-97.7527644
4609,Zacharys Run,78613,30.5266436,-97.7526278
4611,Zacharys Run,78613,30.5267268,-97.7524404
302,Kati Lane,78613,30.5272796,-97.7539173
4500,Connor Mason Court,78613,30.5264048,-97.7545223
4501,Connor Mason Court,78613,30.5267073,-97.7546730
307,Kati Lane,78613,30.5269580,-97.7543411
303,Walsh Glenn Drive,78613,30.5274444,-97.7535886
401,Walsh Glenn Drive,78613,30.5269040,-97.7527885
410,Walsh Glenn Drive,78613,30.5264106,-97.7515679
408,Walsh Glenn Drive,78613,30.5266464,-97.7517419
406,Walsh Glenn Drive,78613,30.5268450,-97.7519116
404,Walsh Glenn Drive,78613,30.5270194,-97.7521182
402,Walsh Glenn Drive,78613,30.5271222,-97.7522738
400,Walsh Glenn Drive,78613,30.5272427,-97.7524303
312,Walsh Glenn Drive,78613,30.5274364,-97.7527205
4308,Logan Ridge Drive,78613,30.5271881,-97.7579061
4306,Logan Ridge Drive,78613,30.5272618,-97.7581127
4305,Logan Ridge Drive,78613,30.5277152,-97.7578719
4303,Logan Ridge Drive,78613,30.5277422,-97.7580903
4301,Logan Ridge Drive,78613,30.5278122,-97.7582742
4304,Logan Ridge Drive,78613,30.5273225,-97.7583059
4302,Logan Ridge Drive,78613,30.5273784,-97.7584926
4300,Logan Ridge Drive,78613,30.5274426,-97.7586987
4214,Logan Ridge Drive,78613,30.5274849,-97.7589076
4212,Logan Ridge Drive,78613,30.5275238,-97.7591072
4210,Logan Ridge Drive,78613,30.5275725,-97.7593192
4215,Logan Ridge Drive,78613,30.5279671,-97.7588990
4213,Logan Ridge Drive,78613,30.5280038,-97.7591043
4211,Logan Ridge Drive,78613,30.5280352,-97.7593119
4209,Logan Ridge Drive,78613,30.5281110,-97.7595078
4207,Logan Ridge Drive,78613,30.5281336,-97.7597177
4208,Logan Ridge Drive,78613,30.5276109,-97.7594986
4206,Logan Ridge Drive,78613,30.5276753,-97.7597194
4204,Logan Ridge Drive,78613,30.5276821,-97.7599319
4202,Logan Ridge Drive,78613,30.5276995,-97.7601351
4200,Logan Ridge Drive,78613,30.5277313,-97.7603378
4114,Logan Ridge Drive,78613,30.5277753,-97.7605828
4112,Logan Ridge Drive,78613,30.5278133,-97.7607785
4110,Logan Ridge Drive,78613,30.5278128,-97.7609652
4108,Logan Ridge Drive,78613,30.5278473,-97.7611867
4106,Logan Ridge Drive,78613,30.5278721,-97.7613923
4104,Logan Ridge Drive,78613,30.5279016,-97.7615871
4102,Logan Ridge Drive,78613,30.5279601,-97.7617999
4100,Logan Ridge Drive,78613,30.5279710,-97.7620129
4103,Logan Ridge Drive,78613,30.5284147,-97.7617991
4105,Logan Ridge Drive,78613,30.5283956,-97.7615869
4107,Logan Ridge Drive,78613,30.5283407,-97.7613896
4109,Logan Ridge Drive,78613,30.5283332,-97.7611785
4111,Logan Ridge Drive,78613,30.5282968,-97.7609720
4113,Logan Ridge Drive,78613,30.5282506,-97.7607808
4315,Logan Ridge Drive,78613,30.5282514,-97.7605644
4201,Logan Ridge Drive,78613,30.5281966,-97.7603278
4203,Logan Ridge Drive,78613,30.5281879,-97.7601317
4205,Logan Ridge Drive,78613,30.5281590,-97.7599234
4213,Brady Ridge Drive,78613,30.5285728,-97.7584341
4209,Brady Ridge Drive,78613,30.5286784,-97.7592157
4207,Brady Ridge Drive,78613,30.5287446,-97.7594601
4205,Brady Ridge Drive,78613,30.5287675,-97.7597188
4203,Brady Ridge Drive,78613,30.5287494,-97.7599532
4113,Brady Ridge Drive,78613,30.5287658,-97.7607314
4111,Brady Ridge Drive,78613,30.5288189,-97.7609771
4109,Brady Ridge Drive,78613,30.5288599,-97.7612122
4107,Brady Ridge Drive,78613,30.5289220,-97.7614337
4032,Logan Ridge Drive,78613,30.5280535,-97.7625469
4030,Logan Ridge Drive,78613,30.5280861,-97.7627690
4028,Logan Ridge Drive,78613,30.5281418,-97.7629681
4026,Logan Ridge Drive,78613,30.5281613,-97.7631703
4024,Logan Ridge Drive,78613,30.5281959,-97.7633782
4033,Logan Ridge Drive,78613,30.5285284,-97.7624323
4031,Logan Ridge Drive,78613,30.5285549,-97.7626387
4029,Logan Ridge Drive,78613,30.5285994,-97.7628538
4027,Logan Ridge Drive,78613,30.5286274,-97.7630595
4025,Logan Ridge Drive,78613,30.5286624,-97.7632610
4021,Logan Ridge Drive,78613,30.5287004,-97.7635466
4019,Logan Ridge Drive,78613,30.5287206,-97.7637497
4017,Logan Ridge Drive,78613,30.5287728,-97.7639486
4022,Logan Ridge Drive,78613,30.5282412,-97.7635736
4020,Logan Ridge Drive,78613,30.5282533,-97.7637687
4018,Logan Ridge Drive,78613,30.5282817,-97.7639888
4016,Logan Ridge Drive,78613,30.5283388,-97.7641924
4014,Logan Ridge Drive,78613,30.5283513,-97.7643997
4015,Logan Ridge Drive,78613,30.5287876,-97.7641564
4013,Logan Ridge Drive,78613,30.5288235,-97.7643604
4011,Logan Ridge Drive,78613,30.5288585,-97.7645703
4009,Logan Ridge Drive,78613,30.5288643,-97.7647701
4007,Logan Ridge Drive,78613,30.5289056,-97.7649717
4005,Logan Ridge Drive,78613,30.5288999,-97.7651884
4003,Logan Ridge Drive,78613,30.5289659,-97.7653940
4001,Logan Ridge Drive,78613,30.5289926,-97.7656334
4000,Logan Ridge Drive,78613,30.5285562,-97.7658533
4002,Logan Ridge Drive,78613,30.5285186,-97.7656369
4004,Logan Ridge Drive,78613,30.5284940,-97.7654383
4006,Logan Ridge Drive,78613,30.5284368,-97.7652053
4008,Logan Ridge Drive,78613,30.5284235,-97.7650129
4010,Logan Ridge Drive,78613,30.5283904,-97.7648049
4012,Logan Ridge Drive,78613,30.5283881,-97.7646027
3920,Logan Ridge Drive,78613,30.5286602,-97.7662002
3918,Logan Ridge Drive,78613,30.5289002,-97.7663121
3916,Logan Ridge Drive,78613,30.5290920,-97.7662887
3914,Logan Ridge Drive,78613,30.5292709,-97.7663304
3912,Logan Ridge Drive,78613,30.5294366,-97.7664081
3910,Logan Ridge Drive,78613,30.5296143,-97.7664700
3908,Logan Ridge Drive,78613,30.5298060,-97.7665138
3909,Logan Ridge Drive,78613,30.5297408,-97.7659129
3907,Logan Ridge Drive,78613,30.5299547,-97.7659991
3906,Logan Ridge Drive,78613,30.5300220,-97.7666121
3905,Logan Ridge Drive,78613,30.5301600,-97.7660541
3903,Logan Ridge Drive,78613,30.5303642,-97.7661110
3901,Logan Ridge Drive,78613,30.5305577,-97.7661360
3904,Logan Ridge Drive,78613,30.5302173,-97.7666224
3902,Logan Ridge Drive,78613,30.5304211,-97.7666929
3900,Logan Ridge Drive,78613,30.5306923,-97.7668144
4007,Anderson Bluff Drive,78613,30.5310001,-97.7660370
4005,Anderson Bluff Drive,78613,30.5310182,-97.7662787
4003,Anderson Bluff Drive,78613,30.5310223,-97.7665631
4000,Brady Ridge Drive,78613,30.5293147,-97.7658383
4002,Brady Ridge Drive,78613,30.5293775,-97.7655880
4004,Brady Ridge Drive,78613,30.5294272,-97.7653494
4006,Brady Ridge Drive,78613,30.5294193,-97.7650879
4008,Brady Ridge Drive,78613,30.5294269,-97.7648200
4010,Brady Ridge Drive,78613,30.5293190,-97.7645597
4012,Brady Ridge Drive,78613,30.5292078,-97.7642595
4005,Brady Ridge Drive,78613,30.5299050,-97.7654418
4007,Brady Ridge Drive,78613,30.5298917,-97.7652049
4009,Brady Ridge Drive,78613,30.5299188,-97.7649662
4011,Brady Ridge Drive,78613,30.5298818,-97.7647258
4015,Brady Ridge Drive,78613,30.5297139,-97.7641768
4017,Brady Ridge Drive,78613,30.5296090,-97.7639723
4019,Brady Ridge Drive,78613,30.5295117,-97.7637657
4021,Brady Ridge Drive,78613,30.5293829,-97.7635625
4023,Brady Ridge Drive,78613,30.5292278,-97.7633280
4025,Brady Ridge Drive,78613,30.5292121,-97.7630597
4027,Brady Ridge Drive,78613,30.5292075,-97.7628346
4029,Brady Ridge Drive,78613,30.5291644,-97.7626060
4031,Brady Ridge Drive,78613,30.5290917,-97.7623539
4010,Anderson Bluff Drive,78613,30.5305698,-97.7655294
4012,Anderson Bluff Drive,78613,30.5305775,-97.7652854
4014,Anderson Bluff Drive,78613,30.5305676,-97.7650524
4011,Anderson Bluff Drive,78613,30.5310761,-97.7652135
4013,Anderson Bluff Drive,78613,30.5310683,-97.7649734
4015,Anderson Bluff Drive,78613,30.5310447,-97.7647314
4017,Anderson Bluff Drive,78613,30.5310350,-97.7644850
4019,Anderson Bluff Drive,78613,30.5309830,-97.7642444
4021,Anderson Bluff Drive,78613,30.5309522,-97.7640057
4023,Anderson Bluff Drive,78613,30.5309325,-97.7637694
4025,Anderson Bluff Drive,78613,30.5308380,-97.7635429
4022,Anderson Bluff Drive,78613,30.5305033,-97.7642062
4026,Anderson Bluff Drive,78613,30.5304064,-97.7637366
4028,Anderson Bluff Drive,78613,30.5303350,-97.7634940
4030,Anderson Bluff Drive,78613,30.5302153,-97.7633084
4029,Anderson Bluff Drive,78613,30.5306908,-97.7630611
4031,Anderson Bluff Drive,78613,30.5306164,-97.7628484
4033,Anderson Bluff Drive,78613,30.5304551,-97.7625827
4035,Anderson Bluff Drive,78613,30.5302033,-97.7625330
4034,Anderson Bluff Drive,78613,30.5300035,-97.7627076
4204,Tiger Horse Trail,78613,30.5241891,-97.7586338
4202,Tiger Horse Trail,78613,30.5240394,-97.7587556
4200,Tiger Horse Trail,78613,30.5239053,-97.7589161
317,Spanish Mustang Drive,78613,30.5249679,-97.7585522
323,Spanish Mustang Drive,78613,30.5249643,-97.7579144
331,Spanish Mustang Drive,78613,30.5246881,-97.7572145
326,Spanish Mustang Drive,78613,30.5244644,-97.7577865
328,Spanish Mustang Drive,78613,30.5243733,-97.7575783
330,Spanish Mustang Drive,78613,30.5242044,-97.7574132
335,Spanish Mustang Drive,78613,30.5243948,-97.7569437
401,Spanish Mustang Drive,78613,30.5242461,-97.7568231
403,Spanish Mustang Drive,78613,30.5240811,-97.7567678
407,Spanish Mustang Drive,78613,30.5237645,-97.7565928
409,Spanish Mustang Drive,78613,30.5235963,-97.7564819
411,Spanish Mustang Drive,78613,30.5234162,-97.7563754
413,Spanish Mustang Drive,78613,30.5232513,-97.7562965
415,Spanish Mustang Drive,78613,30.5230749,-97.7561812
417,Spanish Mustang Drive,78613,30.5229028,-97.7560805
419,Spanish Mustang Drive,78613,30.5227352,-97.7559535
421,Spanish Mustang Drive,78613,30.5225621,-97.7558765
200,Crosswind Court,78613,30.5256312,-97.7633204
209,North Frontier Lane,78613,30.5242717,-97.7687217
922,Kingston Place,78613,30.5110928,-97.7757878
918,Kingston Place,78613,30.5113158,-97.7759607
2907,Zelma Drive,78613,30.5129779,-97.7767563
722,Kingston Place,78613,30.5132833,-97.7770245
720,Kingston Place,78613,30.5133653,-97.7768973
718,Kingston Place,78613,30.5134377,-97.7767840
716,Kingston Place,78613,30.5135403,-97.7766617
714,Kingston Place,78613,30.5136341,-97.7765372
712,Kingston Place,78613,30.5137274,-97.7764132
710,Kingston Place,78613,30.5138102,-97.7762961
708,Kingston Place,78613,30.5138823,-97.7761503
706,Kingston Place,78613,30.5139558,-97.7759730
704,Kingston Place,78613,30.5140136,-97.7758214
717,Kingston Place,78613,30.5138593,-97.7770945
715,Kingston Place,78613,30.5139757,-97.7769505
713,Kingston Place,78613,30.5140802,-97.7767879
711,Kingston Place,78613,30.5141985,-97.7766546
709,Kingston Place,78613,30.5143033,-97.7764831
707,Kingston Place,78613,30.5143743,-97.7762922
705,Kingston Place,78613,30.5144345,-97.7761182
600,Achilles Street,78613,30.5147863,-97.7752225
602,Achilles Street,78613,30.5146152,-97.7751319
604,Achilles Street,78613,30.5144598,-97.7750493
606,Achilles Street,78613,30.5142977,-97.7750481
2923,Zelma Drive,78613,30.5137104,-97.7757802
2921,Zelma Drive,78613,30.5136175,-97.7759061
2919,Zelma Drive,78613,30.5135403,-97.7760241
2917,Zelma Drive,78613,30.5134181,-97.7761393
2915,Zelma Drive,78613,30.5133512,-97.7762629
2913,Zelma Drive,78613,30.5132503,-97.7763714
2914,Zelma Drive,78613,30.5130113,-97.7758544
2916,Zelma Drive,78613,30.5130921,-97.7757395
2918,Zelma Drive,78613,30.5131889,-97.7756133
2920,Zelma Drive,78613,30.5132808,-97.7754860
2922,Zelma Drive,78613,30.5133827,-97.7753134
3000,Zelma Drive,78613,30.5134174,-97.7750883
3002,Zelma Drive,78613,30.5134051,-97.7749124
3001,Zelma Drive,78613,30.5139677,-97.7750313
3003,Zelma Drive,78613,30.5138922,-97.7748651
3005,Zelma Drive,78613,30.5139232,-97.7746990
3007,Zelma Drive,78613,30.5138834,-97.7744766
800,Clearwell Street,78613,30.5137447,-97.7743027
809,Clearwell Street,78613,30.5132038,-97.7750264
811,Clearwell Street,78613,30.5130600,-97.7750506
813,Clearwell Street,78613,30.5129233,-97.7751041
808,Clearwell Street,78613,30.5131123,-97.7744605
810,Clearwell Street,78613,30.5129763,-97.7745091
815,Clearwell Street,78613,30.5127940,-97.7751294
814,Clearwell Street,78613,30.5126801,-97.7745725
816,Clearwell Street,78613,30.5125268,-97.7746199
906,Astoria Street,78613,30.5125884,-97.7758424
908,Astoria Street,78613,30.5124748,-97.7757136
910,Astoria Street,78613,30.5123669,-97.7755996
900,Clearwell Street,78613,30.5120600,-97.7747543
902,Clearwell Street,78613,30.5119139,-97.7748229
904,Clearwell Street,78613,30.5117835,-97.7748476
906,Clearwell Street,78613,30.5116581,-97.7748963
1000,Clearwell Street,78613,30.5115306,-97.7749407
1002,Clearwell Street,78613,30.5113898,-97.7749744
1004,Clearwell Street,78613,30.5112507,-97.7750367
1006,Clearwell Street,78613,30.5111111,-97.7751097
2105,East Park Street,78613,30.5177014,-97.7917432
2111,East Park Street,78613,30.5179155,-97.7911227
610,Glacial Stream Lane,78613,30.5247625,-97.7961311
612,Glacial Stream Lane,78613,30.5249706,-97.7962351
613,Glacial Stream Lane,78613,30.5249372,-97.7968058
615,Glacial Stream Lane,78613,30.5251353,-97.7969012
714,Glacial Stream Lane,78613,30.5262172,-97.7991134
715,Glacial Stream Lane,78613,30.5255735,-97.7995006
610,Campino Drive,78613,30.5255054,-97.7999250
608,Campino Drive,78613,30.5252776,-97.7998714
606,Campino Drive,78613,30.5250393,-97.7996587
604,Campino Drive,78613,30.5249143,-97.7992888
602,Campino Drive,78613,30.5246317,-97.7992133
600,Campino Drive,78613,30.5243412,-97.7993927
601,Campino Drive,78613,30.5243107,-97.7997828
603,Campino Drive,78613,30.5245179,-97.8000559
605,Campino Drive,78613,30.5247423,-97.8002808
607,Campino Drive,78613,30.5250088,-97.8003674
609,Campino Drive,78613,30.5252289,-97.8004431
611,Campino Drive,78613,30.5254450,-97.8005403
703,Campino Drive,78613,30.5258984,-97.8007318
705,Campino Drive,78613,30.5260867,-97.8009196
707,Campino Drive,78613,30.5264091,-97.8009032
706,Campino Drive,78613,30.5265911,-97.8005006
700,Campino Drive,78613,30.5258769,-97.8001071
710,Arrow Point Drive,78613,30.5271485,-97.7992224
710,Arrow Point Drive,78613,30.5269671,-97.7992033
710,Arrow Point Drive,78613,30.5266684,-97.7988107
2914,Bellamy Circle,78613,30.5289400,-97.7838738
2912,Bellamy Circle,78613,30.5289507,-97.7840854
2910,Bellamy Circle,78613,30.5287555,-97.7841565
2908,Bellamy Circle,78613,30.5285714,-97.7841915
2906,Bellamy Circle,78613,30.5283930,-97.7842223
2904,Bellamy Circle,78613,30.5281842,-97.7841889
2902,Bellamy Circle,78613,30.5280522,-97.7843479
2900,Bellamy Circle,78613,30.5278637,-97.7844435
2822,Bellamy Circle,78613,30.5277680,-97.7842917
2820,Bellamy Circle,78613,30.5278481,-97.7840910
2818,Bellamy Circle,78613,30.5279631,-97.7839612
2816,Bellamy Circle,78613,30.5279779,-97.7837240
2814,Bellamy Circle,78613,30.5280050,-97.7835302
2812,Bellamy Circle,78613,30.5280751,-97.7833408
2810,Bellamy Circle,78613,30.5281421,-97.7831329
2808,Bellamy Circle,78613,30.5282126,-97.7829548
2806,Bellamy Circle,78613,30.5282577,-97.7827819
2804,Bellamy Circle,78613,30.5283416,-97.7825184
2807,Bellamy Circle,78613,30.5284747,-97.7831784
2809,Bellamy Circle,78613,30.5284149,-97.7833533
2811,Bellamy Circle,78613,30.5283521,-97.7835352
2905,Bellamy Circle,78613,30.5282881,-97.7837372
2907,Bellamy Circle,78613,30.5284594,-97.7838289
2909,Bellamy Circle,78613,30.5286322,-97.7837301
2917,Bellamy Circle,78613,30.5286545,-97.7835229
3240,East Whitestone Boulevard,78613,30.5354107,-97.7779986
3240,East Whitestone Boulevard,78613,30.5353492,-97.7778896
3240,East Whitestone Boulevard,78613,30.5353133,-97.7777720
3240,East Whitestone Boulevard,78613,30.5352299,-97.7776772
3240,East Whitestone Boulevard,78613,30.5351987,-97.7775544
3240,East Whitestone Boulevard,78613,30.5351418,-97.7774388
3240,East Whitestone Boulevard,78613,30.5351162,-97.7772297
3240,East Whitestone Boulevard,78613,30.5351308,-97.7771007
3240,East Whitestone Boulevard,78613,30.5351480,-97.7769710
3240,East Whitestone Boulevard,78613,30.5351666,-97.7768535
3240,East Whitestone Boulevard,78613,30.5351729,-97.7767300
3240,East Whitestone Boulevard,78613,30.5351928,-97.7765907
3240,East Whitestone Boulevard,78613,30.5351444,-97.7764559
3240,East Whitestone Boulevard,78613,30.5351157,-97.7763348
3240,East Whitestone Boulevard,78613,30.5350906,-97.7762060
3240,East Whitestone Boulevard,78613,30.5350605,-97.7760846
3240,East Whitestone Boulevard,78613,30.5350214,-97.7759602
3240,East Whitestone Boulevard,78613,30.5349876,-97.7758375
3240,East Whitestone Boulevard,78613,30.5349554,-97.7757193
3240,East Whitestone Boulevard,78613,30.5349095,-97.7756006
3240,East Whitestone Boulevard,78613,30.5348738,-97.7754786
3240,East Whitestone Boulevard,78613,30.5348401,-97.7753592
3240,East Whitestone Boulevard,78613,30.5348155,-97.7752296
3240,East Whitestone Boulevard,78613,30.5347886,-97.7751076
3240,East Whitestone Boulevard,78613,30.5347384,-97.7749864
3240,East Whitestone Boulevard,78613,30.5346799,-97.7748742
3240,East Whitestone Boulevard,78613,30.5346281,-97.7747607
3240,East Whitestone Boulevard,78613,30.5345702,-97.7746487
3240,East Whitestone Boulevard,78613,30.5344488,-97.7752305
3240,East Whitestone Boulevard,78613,30.5344962,-97.7753486
3240,East Whitestone Boulevard,78613,30.5346084,-97.7755388
3240,East Whitestone Boulevard,78613,30.5345061,-97.7755800
3240,East Whitestone Boulevard,78613,30.5343691,-97.7756050
3240,East Whitestone Boulevard,78613,30.5343056,-97.7757735
3240,East Whitestone Boulevard,78613,30.5342971,-97.7758962
3240,East Whitestone Boulevard,78613,30.5342753,-97.7760257
3240,East Whitestone Boulevard,78613,30.5342615,-97.7761523
3240,East Whitestone Boulevard,78613,30.5342478,-97.7762796
3240,East Whitestone Boulevard,78613,30.5342342,-97.7764044
3240,East Whitestone Boulevard,78613,30.5342225,-97.7765328
3240,East Whitestone Boulevard,78613,30.5342041,-97.7766592
3240,East Whitestone Boulevard,78613,30.5341949,-97.7767858
3240,East Whitestone Boulevard,78613,30.5341761,-97.7768995
3240,East Whitestone Boulevard,78613,30.5341748,-97.7770288
3240,East Whitestone Boulevard,78613,30.5341601,-97.7771547
3240,East Whitestone Boulevard,78613,30.5341319,-97.7772806
3240,East Whitestone Boulevard,78613,30.5341308,-97.7774117
3240,East Whitestone Boulevard,78613,30.5341519,-97.7775793
3240,East Whitestone Boulevard,78613,30.5341883,-97.7777032
3240,East Whitestone Boulevard,78613,30.5342316,-97.7778209
3240,East Whitestone Boulevard,78613,30.5342720,-97.7779307
3240,East Whitestone Boulevard,78613,30.5343610,-97.7781686
3240,East Whitestone Boulevard,78613,30.5344118,-97.7782888
3240,East Whitestone Boulevard,78613,30.5344516,-97.7784003
3240,East Whitestone Boulevard,78613,30.5344967,-97.7785289
3240,East Whitestone Boulevard,78613,30.5345793,-97.7786479
3240,East Whitestone Boulevard,78613,30.5346941,-97.7787419
3240,East Whitestone Boulevard,78613,30.5345690,-97.7789117
3240,East Whitestone Boulevard,78613,30.5345315,-97.7790270
3240,East Whitestone Boulevard,78613,30.5349271,-97.7792407
3240,East Whitestone Boulevard,78613,30.5349268,-97.7791036
3240,East Whitestone Boulevard,78613,30.5349163,-97.7789576
3240,East Whitestone Boulevard,78613,30.5349578,-97.7788552
3240,East Whitestone Boulevard,78613,30.5349923,-97.7787296
3240,East Whitestone Boulevard,78613,30.5350316,-97.7786167
3240,East Whitestone Boulevard,78613,30.5350868,-97.7785016
3240,East Whitestone Boulevard,78613,30.5351244,-97.7783807
3240,East Whitestone Boulevard,78613,30.5351676,-97.7782672
3240,East Whitestone Boulevard,78613,30.5349456,-97.7778705
3240,East Whitestone Boulevard,78613,30.5348959,-97.7777636
3240,East Whitestone Boulevard,78613,30.5348630,-97.7776463
3240,East Whitestone Boulevard,78613,30.5348038,-97.7775279
3240,East Whitestone Boulevard,78613,30.5347628,-97.7773786
3240,East Whitestone Boulevard,78613,30.5347739,-97.7772283
3240,East Whitestone Boulevard,78613,30.5347851,-97.7771010
3240,East Whitestone Boulevard,78613,30.5348008,-97.7769774
3240,East Whitestone Boulevard,78613,30.5348129,-97.7768528
3240,East Whitestone Boulevard,78613,30.5348306,-97.7767349
3240,East Whitestone Boulevard,78613,30.5348414,-97.7766094
3240,East Whitestone Boulevard,78613,30.5346396,-97.7759339
3240,East Whitestone Boulevard,78613,30.5346190,-97.7760557
3240,East Whitestone Boulevard,78613,30.5346044,-97.7761859
3240,East Whitestone Boulevard,78613,30.5345992,-97.7763111
3240,East Whitestone Boulevard,78613,30.5345833,-97.7764414
3240,East Whitestone Boulevard,78613,30.5345676,-97.7765685
3240,East Whitestone Boulevard,78613,30.5345490,-97.7766911
3240,East Whitestone Boulevard,78613,30.5345339,-97.7768151
3240,East Whitestone Boulevard,78613,30.5345247,-97.7769343
3240,East Whitestone Boulevard,78613,30.5345104,-97.7770624
3240,East Whitestone Boulevard,78613,30.5344943,-97.7771891
3240,East Whitestone Boulevard,78613,30.5344783,-97.7773135
3240,East Whitestone Boulevard,78613,30.5344923,-97.7774827
3240,East Whitestone Boulevard,78613,30.5345298,-97.7776276
3240,East Whitestone Boulevard,78613,30.5345824,-97.7777392
3240,East Whitestone Boulevard,78613,30.5346316,-97.7778531
3240,East Whitestone Boulevard,78613,30.5346570,-97.7779761
3240,East Whitestone Boulevard,78613,30.5347200,-97.7780918
3240,East Whitestone Boulevard,78613,30.5347642,-97.7782051
3240,East Whitestone Boulevard,78613,30.5348068,-97.7783243
3219,East Whitestone Boulevard,78613,30.5362744,-97.7801831
2801,East Whitestone Boulevard,78613,30.5355991,-97.7867134
2725,East Whitestone Boulevard,78613,30.5334052,-97.7892415
3201,East Whitestone Boulevard,78613,30.5360621,-97.7807504
3810,Brushy Creek Road,78613,30.5109245,-97.7663770
3810,Brushy Creek Road,78613,30.5107172,-97.7663568
3810,Brushy Creek Road,78613,30.5105676,-97.7662570
3810,Brushy Creek Road,78613,30.5104181,-97.7661140
3810,Brushy Creek Road,78613,30.5103493,-97.7659800
3810,Brushy Creek Road,78613,30.5102587,-97.7658629
3810,Brushy Creek Road,78613,30.5105099,-97.7651261
3810,Brushy Creek Road,78613,30.5103807,-97.7652446
3810,Brushy Creek Road,78613,30.5102844,-97.7653453
3810,Brushy Creek Road,78613,30.5101465,-97.7654399
3810,Brushy Creek Road,78613,30.5100356,-97.7655618
3810,Brushy Creek Road,78613,30.5102671,-97.7649048
3810,Brushy Creek Road,78613,30.5101727,-97.7650034
3810,Brushy Creek Road,78613,30.5100627,-97.7650978
3810,Brushy Creek Road,78613,30.5099684,-97.7651929
3810,Brushy Creek Road,78613,30.5098577,-97.7652950
3810,Brushy Creek Road,78613,30.5097793,-97.7658913
3810,Brushy Creek Road,78613,30.5096777,-97.7657662
3810,Brushy Creek Road,78613,30.5096007,-97.7655257
3810,Brushy Creek Road,78613,30.5094896,-97.7656268
3810,Brushy Creek Road,78613,30.5093780,-97.7657300
3810,Brushy Creek Road,78613,30.5091167,-97.7653329
3810,Brushy Creek Road,78613,30.5092258,-97.7652324
3810,Brushy Creek Road,78613,30.5093368,-97.7651348
3810,Brushy Creek Road,78613,30.5096118,-97.7649090
3810,Brushy Creek Road,78613,30.5097075,-97.7648108
3810,Brushy Creek Road,78613,30.5098154,-97.7647147
3810,Brushy Creek Road,78613,30.5099294,-97.7646215
3810,Brushy Creek Road,78613,30.5100238,-97.7645221
3810,Brushy Creek Road,78613,30.5101724,-97.7644176
3810,Brushy Creek Road,78613,30.5101669,-97.7640424
3810,Brushy Creek Road,78613,30.5100279,-97.7640421
3810,Brushy Creek Road,78613,30.5098867,-97.7640103
3810,Brushy Creek Road,78613,30.5091924,-97.7648861
3810,Brushy Creek Road,78613,30.5091919,-97.7646640
3810,Brushy Creek Road,78613,30.5092552,-97.7645048
3810,Brushy Creek Road,78613,30.5092996,-97.7643365
3810,Brushy Creek Road,78613,30.5093419,-97.7641690
3810,Brushy Creek Road,78613,30.5101803,-97.7635585
3810,Brushy Creek Road,78613,30.5100472,-97.7635400
3810,Brushy Creek Road,78613,30.5099100,-97.7635240
3810,Brushy Creek Road,78613,30.5101504,-97.7632317
3810,Brushy Creek Road,78613,30.5101685,-97.7630608
3810,Brushy Creek Road,78613,30.5107439,-97.7647611
3810,Brushy Creek Road,78613,30.5106490,-97.7646080
3810,Brushy Creek Road,78613,30.5108097,-97.7643019
3810,Brushy Creek Road,78613,30.5106417,-97.7642972
3810,Brushy Creek Road,78613,30.5104901,-97.7642761
3810,Brushy Creek Road,78613,30.5104393,-97.7637943
3810,Brushy Creek Road,78613,30.5105726,-97.7638034
3810,Brushy Creek Road,78613,30.5107167,-97.7638174
3810,Brushy Creek Road,78613,30.5108563,-97.7638296
3810,Brushy Creek Road,78613,30.5108739,-97.7635023
3810,Brushy Creek Road,78613,30.5107338,-97.7634812
3810,Brushy Creek Road,78613,30.5105918,-97.7634676
3810,Brushy Creek Road,78613,30.5104627,-97.7634591
3810,Brushy Creek Road,78613,30.5111886,-97.7642183
3810,Brushy Creek Road,78613,30.5112028,-97.7640588
3810,Brushy Creek Road,78613,30.5112296,-97.7639028
3810,Brushy Creek Road,78613,30.5112199,-97.7637417
3810,Brushy Creek Road,78613,30.5112315,-97.7635832
3810,Brushy Creek Road,78613,30.5112503,-97.7634216
3810,Brushy Creek Road,78613,30.5112337,-97.7631874
3810,Brushy Creek Road,78613,30.5111682,-97.7630340
3810,Brushy Creek Road,78613,30.5109439,-97.7629819
3810,Brushy Creek Road,78613,30.5107942,-97.7630075
3810,Brushy Creek Road,78613,30.5106648,-97.7629859
3810,Brushy Creek Road,78613,30.5114721,-97.7616526
3810,Brushy Creek Road,78613,30.5115212,-97.7613378
3810,Brushy Creek Road,78613,30.5115450,-97.7611703
3810,Brushy Creek Road,78613,30.5115381,-97.7609431
3810,Brushy Creek Road,78613,30.5114567,-97.7607879
3810,Brushy Creek Road,78613,30.5108799,-97.7605643
3810,Brushy Creek Road,78613,30.5106284,-97.7604601
3810,Brushy Creek Road,78613,30.5110934,-97.7614362
3810,Brushy Creek Road,78613,30.5111130,-97.7612782
3810,Brushy Creek Road,78613,30.5111199,-97.7611132
3810,Brushy Creek Road,78613,30.5107985,-97.7613124
3810,Brushy Creek Road,78613,30.5108504,-97.7610024
3810,Brushy Creek Road,78613,30.5104222,-97.7610284
3810,Brushy Creek Road,78613,30.5104287,-97.7608532
3810,Brushy Creek Road,78613,30.5101653,-97.7607090
3810,Brushy Creek Road,78613,30.5101421,-97.7608636
3810,Brushy Creek Road,78613,30.5101257,-97.7610300
3810,Brushy Creek Road,78613,30.5097502,-97.7605458
3810,Brushy Creek Road,78613,30.5097218,-97.7607076
3810,Brushy Creek Road,78613,30.5096805,-97.7610221
3810,Brushy Creek Road,78613,30.5092746,-97.7598985
3810,Brushy Creek Road,78613,30.5095793,-97.7600267
3810,Brushy Creek Road,78613,30.5102393,-97.7602758
3600,Brushy Creek Road,78613,30.5107986,-97.7691033
3600,Brushy Creek Road,78613,30.5109548,-97.7688207
3600,Brushy Creek Road,78613,30.5110428,-97.7686164
3600,Brushy Creek Road,78613,30.5111807,-97.7681962
3600,Brushy Creek Road,78613,30.5113189,-97.7678087
3600,Brushy Creek Road,78613,30.5113688,-97.7674507
3600,Brushy Creek Road,78613,30.5108298,-97.7673805
3600,Brushy Creek Road,78613,30.5106998,-97.7673338
3600,Brushy Creek Road,78613,30.5105637,-97.7673118
3600,Brushy Creek Road,78613,30.5107850,-97.7680946
3600,Brushy Creek Road,78613,30.5106873,-97.7679405
3600,Brushy Creek Road,78613,30.5105708,-97.7678246
3600,Brushy Creek Road,78613,30.5102728,-97.7674871
3600,Brushy Creek Road,78613,30.5101796,-97.7677598
3600,Brushy Creek Road,78613,30.5101814,-97.7680537
3600,Brushy Creek Road,78613,30.5104019,-97.7683701
3600,Brushy Creek Road,78613,30.5105054,-97.7684848
3600,Brushy Creek Road,78613,30.5105767,-97.7686853
704,Campino Drive,78613,30.5264093,-97.8002137
702,Campino Drive,78613,30.5260915,-97.8002128
701,Campino Drive,78613,30.5256911,-97.8006528
1802,Floresta Drive,78613,30.5226903,-97.7990380
1804,Floresta Drive,78613,30.5228023,-97.7987989
1806,Floresta Drive,78613,30.5229231,-97.7985560
1808,Floresta Drive,78613,30.5229956,-97.7983122
1810,Floresta Drive,78613,30.5230949,-97.7980759
1812,Floresta Drive,78613,30.5231609,-97.7978135
805,Copper Lake Road,78613,30.5115878,-97.7796312
813,Copper Lake Road,78613,30.5109056,-97.7793378
906,Wilson Ranch Place,78613,30.5101065,-97.7794121
2501,Brushy Creek Road,78613,30.5077828,-97.7803140
1950,Brushy Creek Road,78613,30.5079753,-97.7920075
2500,Brushy Creek Loop,78613,30.5002868,-97.8040701
1017,Innovation Way,78613,30.5001889,-97.8010629
1110,Arrow Point Drive,78613,30.5315528,-97.8007078
1717,Scottsdale Drive,78641,30.5479256,-97.8136118
1950,Brushy Creek Road,78613,30.5078945,-97.7929151
2201,South Lakeline Boulevard,78613,30.4778717,-97.8221513
2101,South Lakeline Boulevard,78613,30.4781979,-97.8238155
701,North Vista Ridge Boulevard,78613,30.5280717,-97.7924227
2800,South Lakeline Boulevard,78613,30.4769160,-97.8095567
12600,Avery Ranch Road,78613,30.4838533,-97.8089036
2121,North Bell Boulevard,78613,30.4846076,-97.8077098
2315,Brushy Creek Loop,78613,30.4960321,-97.8057008
400,Cypress Creek Road,78613,30.5023493,-97.8114918
920,Old Mill Road,78613,30.4751212,-97.8229623
1501,East Whitestone Boulevard,78613,30.5290973,-97.8092797
1335,East Whitestone Boulevard,78613,30.5285609,-97.8141768
1105,Bar Ranch Trail,78613,30.5289558,-97.8121952
1101,C-Bar Ranch Trail,78613-7595,30.5288616,-97.8131950
1335,East Whitestone Boulevard,78613,30.5279886,-97.8152738
5001,183A Toll Road,78613,30.5317287,-97.8197291
1801,Bagdad Road,78613,30.5284105,-97.8451905
804,West New Hope Drive,78613,30.5298288,-97.8434008
102,Split Oak Drive,78613,30.5085146,-97.8284896
100,Split Oak Drive,78613,30.5083124,-97.8284096
104,Split Oak Drive,78613,30.5087071,-97.8285864
101,Split Oak Drive,78613,30.5081312,-97.8289743
103,Split Oak Drive,78613,30.5083121,-97.8290293
105,Split Oak Drive,78613,30.5085264,-97.8291172
201,Escarpment Way,78613,30.5088037,-97.8291916
106,Split Oak Drive,78613,30.5089256,-97.8286638
108,Split Oak Drive,78613,30.5091405,-97.8287530
208,Escarpment Way,78613,30.5094813,-97.8301680
2002,Windy Terrace,78613,30.4605652,-97.8330173
700,Central Park Drive,78613,30.5252322,-97.8245211
3300,Woodall Drive,78613,30.5135622,-97.8786463
3301,Mystic Summit Drive,78613,30.4576695,-97.8565791
3303,Mystic Summit Drive,78613,30.4577260,-97.8567683
3305,Mystic Summit Drive,78613,30.4578223,-97.8569167
3307,Mystic Summit Drive,78613,30.4580216,-97.8570153
3311,Mystic Summit Drive,78613,30.4581607,-97.8573829
3309,Mystic Summit Drive,78613,30.4581230,-97.8571848
3200,Mystic Summit Drive,78613,30.4568725,-97.8560109
3202,Mystic Summit Drive,78613,30.4569620,-97.8561775
3204,Mystic Summit Drive,78613,30.4570620,-97.8563551
3206,Mystic Summit Drive,78613,30.4571242,-97.8565294
3208,Mystic Summit Drive,78613,30.4571862,-97.8567058
3300,Mystic Summit Drive,78613,30.4572721,-97.8568690
3302,Mystic Summit Drive,78613,30.4573342,-97.8570436
3304,Mystic Summit Drive,78613,30.4574294,-97.8572040
3306,Mystic Summit Drive,78613,30.4575103,-97.8574178
2754,Grand Oaks Loop,78613,30.4549048,-97.8557447
2752,Grand Oaks Loop,78613,30.4551617,-97.8557742
2750,Grand Oaks Loop,78613,30.4554237,-97.8558467
2748,Grand Oaks Loop,78613,30.4556653,-97.8559199
2738,Grand Oaks Loop,78613,30.4568250,-97.8554898
2734,Grand Oaks Loop,78613,30.4570916,-97.8552617
3201,Winged Elm Drive,78613,30.4555777,-97.8563999
3203,Winged Elm Drive,78613,30.4555435,-97.8566067
3207,Winged Elm Drive,78613,30.4551632,-97.8573191
3209,Winged Elm Drive,78613,30.4551393,-97.8575578
3211,Winged Elm Drive,78613,30.4550966,-97.8577519
3303,Crystal Hill Drive,78613,30.4573890,-97.8579453
3305,Crystal Hill Drive,78613,30.4573560,-97.8581904
3300,Crystal Hill Drive,78613,30.4568179,-97.8577944
3302,Crystal Hill Drive,78613,30.4567919,-97.8579939
3304,Crystal Hill Drive,78613,30.4568845,-97.8582032
3306,Crystal Hill Drive,78613,30.4569179,-97.8584251
2803,Sugar Maple Court,78613,30.4570507,-97.8547789
2801,Sugar Maple Court,78613,30.4571779,-97.8546347
2804,Sugar Maple Court,78613,30.4565683,-97.8543557
2807,Sugar Maple Court,78613,30.4566230,-97.8548731
2805,Sugar Maple Court,78613,30.4568460,-97.8549570
3200,Rocky Top Lane,78613,30.4559978,-97.8564608
3202,Rocky Top Lane,78613,30.4560668,-97.8566582
3204,Rocky Top Lane,78613,30.4561623,-97.8568350
3210,Rocky Top Lane,78613,30.4561950,-97.8574453
3201,Rocky Top Lane,78613,30.4564437,-97.8563320
3203,Rocky Top Lane,78613,30.4565628,-97.8564977
3205,Rocky Top Lane,78613,30.4566530,-97.8566820
3207,Rocky Top Lane,78613,30.4567405,-97.8568669
3209,Rocky Top Lane,78613,30.4567785,-97.8570607
3211,Rocky Top Lane,78613,30.4568822,-97.8572473
3305,Mossy Grove Court,78613,30.4554596,-97.8579661
3301,Mossy Grove Court,78613,30.4549960,-97.8583934
3300,Mossy Grove Court,78613,30.4551080,-97.8585728
3302,Mossy Grove Court,78613,30.4552758,-97.8586888
3304,Mossy Grove Court,78613,30.4554642,-97.8587198
3306,Mossy Grove Court,78613,30.4556350,-97.8586862
3307,Mossy Grove Court,78613,30.4556058,-97.8580882
3309,Mossy Grove Court,78613,30.4557696,-97.8581174
3308,Mossy Grove Court,78613,30.4558179,-97.8587182
2801,Prairie Mist Court,78613,30.4562871,-97.8578362
2803,Prairie Mist Court,78613,30.4563181,-97.8580175
2805,Prairie Mist Court,78613,30.4562498,-97.8582359
3315,Mossy Grove Court,78613,30.4562991,-97.8584498
3317,Mossy Grove Court,78613,30.4563881,-97.8586346
3319,Mossy Grove Court,78613,30.4564938,-97.8587976
3401,Crystal Hill Drive,78613,30.4575274,-97.8586409
3403,Crystal Hill Drive,78613,30.4576304,-97.8588114
3405,Crystal Hill Drive,78613,30.4577512,-97.8589638
3407,Crystal Hill Drive,78613,30.4578749,-97.8590589
3409,Crystal Hill Drive,78613,30.4580968,-97.8591251
3411,Crystal Hill Drive,78613,30.4582153,-97.8592804
3413,Crystal Hill Drive,78613,30.4581927,-97.8596126
3410,Crystal Hill Drive,78613,30.4576136,-97.8596587
3408,Crystal Hill Drive,78613,30.4575433,-97.8594561
3406,Crystal Hill Drive,78613,30.4574233,-97.8593185
3404,Crystal Hill Drive,78613,30.4572741,-97.8591995
2921,Grand Oaks Loop,78613,30.4577458,-97.8580259
2923,Grand Oaks Loop,78613,30.4580032,-97.8579879
2925,Grand Oaks Loop,78613,30.4582508,-97.8579534
2758,Grand Oaks Loop,78613,30.4543704,-97.8559226
2756,Grand Oaks Loop,78613,30.4546256,-97.8558143
3200,Winged Elm Drive,78613,30.4551107,-97.8562962
3202,Winged Elm Drive,78613,30.4550714,-97.8565186
3204,Winged Elm Drive,78613,30.4550263,-97.8567412
3206,Winged Elm Drive,78613,30.4548821,-97.8568881
3208,Winged Elm Drive,78613,30.4547814,-97.8570329
3210,Winged Elm Drive,78613,30.4545762,-97.8571163
3212,Winged Elm Drive,78613,30.4545582,-97.8573552
3214,Winged Elm Drive,78613,30.4545108,-97.8576001
3216,Winged Elm Drive,78613,30.4545843,-97.8578112
2807,Grand Oaks Loop,78613,30.4540886,-97.8576265
2809,Grand Oaks Loop,78613,30.4541921,-97.8579817
2800,Grand Oaks Loop,78613,30.4539913,-97.8562548
2806,Grand Oaks Loop,78613,30.4536057,-97.8570382
2808,Grand Oaks Loop,78613,30.4535363,-97.8573962
3401,Sterling Heights Court,78613,30.4538366,-97.8584116
3403,Sterling Heights Court,78613,30.4536693,-97.8586436
3405,Sterling Heights Court,78613,30.4534528,-97.8587780
3407,Sterling Heights Court,78613,30.4531984,-97.8588895
3400,Sterling Heights Court,78613,30.4535837,-97.8578649
3402,Sterling Heights Court,78613,30.4533746,-97.8581315
3409,Sterling Heights Court,78613,30.4528696,-97.8589930
2815,Grand Oaks Loop,78613,30.4547418,-97.8587787
2817,Grand Oaks Loop,78613,30.4549239,-97.8590471
2901,Grand Oaks Loop,78613,30.4551866,-97.8592001
2903,Grand Oaks Loop,78613,30.4554928,-97.8592674
2907,Grand Oaks Loop,78613,30.4560762,-97.8590573
2814,Grand Oaks Loop,78613,30.4541217,-97.8590132
2816,Grand Oaks Loop,78613,30.4543355,-97.8591823
3400,Granite Basin Court,78613,30.4545082,-97.8594413
3401,Granite Basin Court,78613,30.4551353,-97.8597872
2904,Grand Oaks Loop,78613,30.4558036,-97.8598056
2906,Grand Oaks Loop,78613,30.4560433,-97.8596869
2908,Grand Oaks Loop,78613,30.4562693,-97.8596084
3203,Sky Ridge Lane,78613,30.4541034,-97.8554647
3201,Sky Ridge Lane,78613,30.4544080,-97.8553323
3202,Sky Ridge Lane,78613,30.4541121,-97.8547492
3100,Hidden Hills Lane,78613,30.4538108,-97.8533836
3102,Hidden Hills Lane,78613,30.4536339,-97.8531689
3104,Hidden Hills Lane,78613,30.4533656,-97.8531066
3106,Hidden Hills Lane,78613,30.4531416,-97.8530363
3200,Hidden Hills Lane,78613,30.4527600,-97.8529666
3202,Hidden Hills Lane,78613,30.4526051,-97.8533487
3204,Hidden Hills Lane,78613,30.4526356,-97.8536582
3206,Hidden Hills Lane,78613,30.4525888,-97.8539364
3208,Hidden Hills Lane,78613,30.4524906,-97.8542577
3300,Hidden Hills Lane,78613,30.4523582,-97.8546744
3302,Hidden Hills Lane,78613,30.4522415,-97.8549587
3304,Hidden Hills Lane,78613,30.4521508,-97.8553490
3306,Hidden Hills Lane,78613,30.4520983,-97.8557456
3308,Hidden Hills Lane,78613,30.4519916,-97.8561442
3310,Hidden Hills Lane,78613,30.4518711,-97.8565607
3205,Hidden Hills Lane,78613,30.4531227,-97.8540710
3103,Hidden Hills Lane,78613,30.4533416,-97.8544201
3206,Sky Ridge Lane,78613,30.4537125,-97.8550506
3106,Shadow Canyon,78613,30.4535826,-97.8546747
3107,Shadow Canyon,78613,30.4531346,-97.8550544
2725,Grand Oaks Loop,78613,30.4578327,-97.8553657
2727,Grand Oaks Loop,78613,30.4576851,-97.8555164
2729,Grand Oaks Loop,78613,30.4575226,-97.8555787
2731,Grand Oaks Loop,78613,30.4573929,-97.8557119
2733,Grand Oaks Loop,78613,30.4572558,-97.8558217
2703,Feathergrass Court,78613,30.4584621,-97.8567567
2705,Feathergrass Court,78613,30.4582166,-97.8566431
2707,Feathergrass Court,78613,30.4581247,-97.8564058
2701,Feathergrass Court,78613,30.4587069,-97.8566247
2700,Feathergrass Court,78613,30.4587826,-97.8563570
2702,Feathergrass Court,78613,30.4587053,-97.8561025
2704,Feathergrass Court,78613,30.4585062,-97.8559886
2708,Feathergrass Court,78613,30.4581420,-97.8558584
2710,Feathergrass Court,78613,30.4579619,-97.8559000
2712,Feathergrass Court,78613,30.4577871,-97.8559644
13625,Ronald W Reagan Boulevard,78613,30.5374332,-97.7860754
1700,East Park Street,78613,30.5141640,-97.7960839
1101,Brushy Creek Road,78613,30.5043867,-97.8024518
700,Mandarin Flyway,78613,30.5072351,-97.7976236
2101,East Park Street,78613,30.5176814,-97.7925518
1951,Bagdad Road,78613,30.5301507,-97.8455699
819,Clearwell Street,78613,30.5124820,-97.7752003
2005,N. Lakeline Blvd,78613,30.5274280,-97.8559354
5210,183A Toll Road,78613,30.5384313,-97.8147290
700,Cluck Creek Trail,78613,30.4983615,-97.8272429
1407,Cedar Park Drive,78613,30.5091914,-97.8452453
1100,Bagdad Road,78613,30.5191349,-97.8400556
120,South Lakeline Boulevard,78613,30.5006926,-97.8466782
120,South Lakeline Boulevard,78613,30.5014578,-97.8467546
425,South Parkwest Drive,78613,30.5050820,-97.8229671
5202,183A Toll Road,78613,30.5370308,-97.8151924
2525,West New Hope Drheaton Trail,78613,30.5212208,-97.8701236
2525,West New Hope Drheaton Trail,78613,30.5212164,-97.8702052
2525,West New Hope Drheaton Trail,78613,30.5212104,-97.8703105
2525,West New Hope Drheaton Trail,78613,30.5212041,-97.8703936
900,Holy Cross Drive,78613,30.5064389,-97.7860133
4216,Arrow Wood Road,78613,30.5265011,-97.7592774
100,North Vista Ridge Boulevard,78613,30.5212492,-97.7886249
2509,West New Hope Drive,78613,30.5230453,-97.8670748
1500,Timberwood Drive,78613,30.5240182,-97.8449088
3300,Brushy Creek Road,78613,30.5073072,-97.7721552
2310,Brushy Creek Road,78613,30.5057025,-97.7801846
2101,Cougar Country Drive,78613,30.5313248,-97.8651076
1501,North Lakeline Boulevard,78613,30.5210895,-97.8552488
1301,Cottonwood Creek Trail,78613,30.5321539,-97.8086514
1700,Bagdad Road,78613,30.5258160,-97.8414889
900,Discovery Boulevard,78613,30.5225284,-97.8180716
101,Vale Drive,78613,30.5146895,-97.8239472
335,Cypress Creek Road,78613,30.5007702,-97.8203644
5001,183A Frontage Road,78613,30.5313230,-97.8187799
1430,Main Street,78613,30.5285792,-97.8246566
