House number,Street name,Postal code,Latitude,Longitude
300,West Chapoy Street,78840,29.3545977,-100.8922709
200,Veterans Boulevard,78840,29.3660601,-100.8993690
206,Parkway Avenue,78840,29.3450351,-100.8945283
700,W Gibbs St,78840,29.3618600,-100.9088390
3607,Veterans Boulevard,78840,29.4048103,-100.9040590
205,Memorial Drive,78840,29.3851214,-100.9211205
100,Serafini Drive,78840,29.3443693,-100.9023926
504,West Garza Street,78840,29.3546090,-100.8905920
2600,Veterans Boulevard,78840,29.4000585,-100.9059000
2415,Veterans Blvd,78840,29.3959242,-100.9036400
100,Memorial Drive,78840,29.3808313,-100.9187576
2003,North Main Street,78840,29.3817294,-100.9100838
720,Raymond Lozano Memorial Drive,78842,29.3759230,-100.8757687
1009,Avenue J,78840,29.3750156,-100.8957276
100,Echo Valley Drive,78840,29.4087174,-100.9190592
1524,East Gibbs Street,78840,29.3729260,-100.8840660
330,Braddie Drive,78840,29.3936908,-100.9012212
2219,Bedell Avenue,78840,29.3924916,-100.9006815
2410,Dodson Avenue,78840,29.3955893,-100.9009179
2427,Veterans Boulevard,78840,29.3965753,-100.9041625
2415,Veterans Blvd,78840,29.3959248,-100.9036418
100,Braddie Drive,78840,29.3937144,-100.9044110
2213,Veterans Boulevard,78840,29.3931395,-100.9043681
2415,Veterans Boulevard,78840,29.3960120,-100.9042176
2001,North Bedell Avenue,78840-9998,29.3844219,-100.9009568
2115,Veterans Boulevard,78840,29.3882948,-100.9041536
2005,Veterans Boulevard,78840,29.3848993,-100.9042173
2101,Veterans Boulevard,78840,29.3863030,-100.9044689
2050,North Bedell Avenue,78840,29.3870328,-100.9022068
2113,Veterans Boulevard,78840,29.3878721,-100.9047559
110,Miers Street,78840,29.3876717,-100.9033685
2700,Veterans Boulevard,78840,29.4022620,-100.9056680
3616,Veterans Boulevard,78840,29.4064614,-100.9054541
3808,Veterans Boulevard,78840,29.4103303,-100.9054764
2454,Veterans Boulevard,78840,29.3947513,-100.9066673
2900,Veterans Boulevard,78840,29.4044739,-100.9053185
1701,Veterans Boulevard,78840-3346,29.3800929,-100.9037324
200,Veterans Boulevard,78840,29.3662357,-100.8998989
505,Veterans Boulevard,78840,29.3693474,-100.8989756
1504,East Gibbs Street,78840,29.3696500,-100.8870693
1307,East 1st Street,78840,29.3695821,-100.8890739
1510,East Gibbs Street,78840,29.3697551,-100.8860741
500,Pecan Street,78840,29.3580286,-100.8972203
90,Memorial Drive,78840,29.3833532,-100.9159581
1900,US Highway 90,78840,29.3733150,-100.8766725
905,West Cantu Road,78840,29.3875041,-100.9253811
300,West Martin Street,78840,29.3586920,-100.9027544
301,Waters Avenue,78840,29.3603093,-100.8843835
1207,West Garza Street,78840,29.3574986,-100.8811538
803,Texas Spur 239,78840,29.3629700,-100.9106224
253,Hamilton Lane,78840,29.3727154,-100.8477680
200,Avenue C,78840,29.3649841,-100.9014647
2209,North Veterans Boulevard,78840,29.3920685,-100.9046344
2207,Veterans Boulevard,78840,29.3904276,-100.9047024
2204,Veterans Boulevard,78840-3121,29.3889632,-100.9058016
801,North Bedell Avenue,78840,29.3749716,-100.8921625
509,West Garza Street,78840,29.3545784,-100.8895216
205,Wildcat Drive,78840,29.3843844,-100.9230266
207,Wildcat Drive,78840,29.3832422,-100.9228801
207,Wildcat Drive,78840,29.3845593,-100.9218977
207,Wildcat Drive,78840,29.3844402,-100.9225293
205 1/2,Wildcat Drive,78840,29.3840190,-100.9225741
207,Wildcat Drive,78840,29.3839349,-100.9239415
207,Wildcat Drive,78840,29.3841990,-100.9239379
207,Wildcat Drive,78840,29.3840590,-100.9241537
205,Wildcat Drive,78840,29.3835014,-100.9227846
205,Wildcat Drive,78840,29.3831502,-100.9228153
205,Wildcat Drive,78840,29.3833488,-100.9223569
205,Wildcat Drive,78840,29.3834327,-100.9220397
205,Memorial Drive,78840,29.3851186,-100.9211385
404,West Chapoy Street,78840,29.3551013,-100.8914184
504,West Garza Street,78840,29.3548053,-100.8906384
1809,Veterans Boulevard,78840,29.3813522,-100.9046194
3811,Veterans Boulevard,78840,29.4092998,-100.9034319
1300,East Gibbs Street,78840,29.3694110,-100.8884071
1302,East Gibbs Street,78840,29.3689662,-100.8894514
5842,US Highway 90 East,78840,29.3688628,-100.8147723
115,Wild Wood Drive,78840,29.4260363,-100.9095404
3616,Veterans Boulevard,78840,29.4063611,-100.9037399
333,Yucca Trailer Park Road,78840,29.4037802,-100.9063709
2800,Veterans Boulevard,78840,29.4032444,-100.9078623
409,Veterans Boulevard,78840,29.3683274,-100.8984762
908,West 10th Street,78840,29.3697407,-100.9163032
904,West 10th Street,78840,29.3699162,-100.9160065
902,West 10th Street,78840,29.3700167,-100.9158780
900,West 10th Street,78840,29.3700244,-100.9157014
901,West 9th Street,78840,29.3696697,-100.9155667
903,West 9th Street,78840,29.3696174,-100.9156870
911,West 9th Street,78840,29.3693483,-100.9163676
907,West 9th Street,78840,29.3694501,-100.9161293
905,West 9th Street,78840,29.3695103,-100.9160014
903 1/2,West 9th Street,78840,29.3695351,-100.9158259
1210,Avenue U,78840,29.3692114,-100.9154305
904,West 9th Street,78840,29.3691763,-100.9156947
906,West 9th Street,78840,29.3691209,-100.9158286
908,West 9th Street,78840,29.3690737,-100.9159764
910,West 9th Street,78840,29.3690047,-100.9160964
329,Airport Boulevard,78840,29.3688615,-100.9163708
915,Burnett Street,78840,29.3685461,-100.9162447
913,Burnett Street,78840,29.3685566,-100.9160726
909,Burnett Street,78840,29.3686357,-100.9157865
1200,Avenue U,78840,29.3689344,-100.9152505
903,Burnett Street,78840,29.3688450,-100.9153587
905,Burnett Street,78840,29.3687329,-100.9154724
907,Burnett Street,78840,29.3687061,-100.9156310
900,Burnett Street,78840,29.3684833,-100.9150461
902,Burnett Street,78840,29.3684301,-100.9152180
906,Burnett Street,78840,29.3682761,-100.9156024
910,Burnett Street,78840,29.3681578,-100.9159255
912,Burnett Street,78840,29.3681249,-100.9160900
916,Burnett Street,78840,29.3680214,-100.9164017
914,Burnett Street,78840,29.3680614,-100.9162605
919,Howell Street,78840,29.3675769,-100.9163731
911,Howell Street,78840,29.3677863,-100.9157770
909,Howell Street,78840,29.3678023,-100.9155555
907,Howell Street,78840,29.3678639,-100.9153812
905,Howell Street,78840,29.3679364,-100.9152098
903,Howell Street,78840,29.3680170,-100.9150362
901,Howell Street,78840,29.3680154,-100.9148481
920,Howell Street,78840,29.3670927,-100.9163226
912,Howell Street,78840,29.3672715,-100.9157554
923,Clayton Street,78840,29.3665943,-100.9164187
914,Howell Street,78840,29.3672464,-100.9159350
902,Howell Street,78840,29.3676513,-100.9149245
900,Howell Street,78840,29.3676369,-100.9147175
103,Clayton Street,78840,29.3672161,-100.9146631
105,Clayton Street,78840,29.3671745,-100.9148039
107,Clayton Street,78840,29.3671239,-100.9149700
905,Clayton Street,78840,29.3670231,-100.9151930
911,Clayton Street,78840,29.3669940,-100.9153901
913,Clayton Street,78840,29.3668942,-100.9155505
915,Clayton Street,78840,29.3668578,-100.9157660
915,Howell Street,78840,29.3676397,-100.9160817
917,Howell Street,78840,29.3677367,-100.9162930
908,Howell Street,78840,29.3674731,-100.9153187
910,Howell Street,78840,29.3672984,-100.9155614
916,Howell Street,78840,29.3671049,-100.9160878
901,Avenue U,78840,29.3672715,-100.9144885
917,Clayton Street,78840,29.3667700,-100.9158833
919,Clayton Street,78840,29.3667181,-100.9160596
921,Clayton Street,78840,29.3666573,-100.9162540
101,Lowe Drive,78841,29.3833122,-100.9030001
613,North Bedell Avenue,78840,29.3748184,-100.8907386
298,Hamilton Lane,78840,29.3740622,-100.8467711
