House number,Street name,Postal code,Latitude,Longitude
1113,West US Highway 290,78621,30.3483842,-97.3834266
1080,East US Highway 290,78621,30.3465576,-97.3843649
201,North Main Street,78621,30.3496401,-97.3710416
111,South Main Street,78621,30.3463718,-97.3696924
18015,Highway 290,78621,30.3514490,-97.4273380
18401,Highway 290,78621,30.3516490,-97.4211050
13314,County Line Road,78621,30.3547640,-97.4112970
13501,County Line Road,78621,30.3571530,-97.4083790
13611,County Line Road,78621,30.3579110,-97.4080270
13708,County Line Road,78621,30.3616450,-97.4061660
13817,County Line Road,78621,30.3624350,-97.4051600
14201,County Line Road,78621,30.3672620,-97.4006740
14517,Gurney's Eagle Drive,78621,30.3737320,-97.3998310
18338,Crestwind Cove,78621,30.3558960,-97.4192760
18400,Highway 290,78621,30.3528580,-97.4210680
18700,Imperial Eagle Lane,78621,30.3730719,-97.4023634
18701,Golden Eagle Way,78621,30.3734729,-97.4021081
18704,Imperial Eagle Lane,78621,30.3730427,-97.4022973
18705,Golden Eagle Way,78621,30.3734393,-97.4020348
18708,Imperial Eagle Lane,78621,30.3729929,-97.4021817
18712,Highway 290,78621,30.3529720,-97.4142320
18712,Imperial Eagle Lane,78621,30.3729650,-97.4021278
18713,Golden Eagle Way,78621,30.3733670,-97.4018808
18716,Imperial Eagle Lane,78621,30.3729176,-97.4020239
18717,Golden Eagle Way,78621,30.3733241,-97.4017644
18720,Highway 290,78621,30.3529680,-97.4134860
18720,Imperial Eagle Lane,78621,30.3728880,-97.4019616
18721,Golden Eagle Way,78621,30.3732835,-97.4016911
18724,Imperial Eagle Lane,78621,30.3728363,-97.4018593
18725,Golden Eagle Way,78621,30.3732455,-97.4015979
18728,Imperial Eagle Lane,78621,30.3728079,-97.4017898
18729,Golden Eagle Way,78621,30.3732163,-97.4015258
18732,Imperial Eagle Lane,78621,30.3727634,-97.4016919
18733,Golden Eagle Way,78621,30.3731688,-97.4014249
18736,Imperial Eagle Lane,78621,30.3727372,-97.4016299
18737,Golden Eagle Way,78621,30.3731371,-97.4013571
18740,Imperial Eagle Lane,78621,30.3726791,-97.4015222
18741,Golden Eagle Way,78621,30.3730901,-97.4012607
18744,Imperial Eagle Lane,78621,30.3726501,-97.4014466
18745,Golden Eagle Way,78621,30.3730622,-97.4012006
18748,Imperial Eagle Lane,78621,30.3726031,-97.4013680
18749,Golden Eagle Way,78621,30.3730151,-97.4010981
18752,Golden Eagle Way,78621,30.3733454,-97.4008080
18752,Imperial Eagle Lane,78621,30.3725744,-97.4012908
18753,Golden Eagle Way,78621,30.3729770,-97.4010291
18756,Imperial Eagle Lane,78621,30.3725271,-97.4012170
18757,Golden Eagle Way,78621,30.3729344,-97.4009247
18760,Imperial Eagle Lane,78621,30.3724741,-97.4010935
18761,Golden Eagle Way,78621,30.3729013,-97.4008561
18810,Highway 290,78621,30.3530209,-97.4122371
18810,Highway 290,78621,30.3530428,-97.4126207
108,West 1st Street,78621,30.3485802,-97.3713277
201,West US Highway 290,78621,30.3384231,-97.3712892
121,Anderson Drive,78621,30.3515221,-97.3850181
18517,US 290,78621,30.3513823,-97.4187648
28,North Main Street,78621,30.3482173,-97.3708591
18709,Highway 290,78621,30.3513482,-97.4154327
18709,Highway 290,78621,30.3513550,-97.4154964
18810,Highway 290,78621,30.3530466,-97.4127333
18810,Highway 290,78621,30.3530287,-97.4119808
1380,West US Highway 290,78621,30.3514127,-97.3927776
1380,West US Highway 290,78621,30.3514162,-97.3928856
1342,West US Highway 290,78621,30.3513944,-97.3916079
13704,County Line Road,78621,30.3615507,-97.4068167
1002,North Avenue C,78621,30.3522424,-97.3779732
805,West 10th Street,78621,30.3466301,-97.3805753
509,Martin Luther King Boulevard,78621,30.3426516,-97.3647311
611,South Main Street,78621,30.3398067,-97.3668764
206,West US Highway 290,78621,30.3365683,-97.3716735
204,West US Highway 290,78621,30.3365406,-97.3716009
250,West US Highway 290,78621,30.3375442,-97.3732603
250,West US Highway 290,78621,30.3375001,-97.3731885
244,West US Highway 290,78621,30.3371328,-97.3733028
242,West US Highway 290,78621,30.3370762,-97.3731855
240,West US Highway 290,78621,30.3369790,-97.3729670
230,West US Highway 290,78621,30.3369495,-97.3729108
226,West US Highway 290,78621,30.3369183,-97.3728394
224,West US Highway 290,78621,30.3368948,-97.3727847
222,West US Highway 290,78621,30.3368609,-97.3727032
218,West US Highway 290,78621,30.3368407,-97.3726237
216,West US Highway 290,78621,30.3367939,-97.3724937
214,West US Highway 290,78621,30.3367485,-97.3723698
214,West US Highway 290,78621,30.3366892,-97.3721514
212,West US Highway 290,78621,30.3366334,-97.3718901
208,West US Highway 290,78621,30.3366156,-97.3718218
201,West US Highway 290,78621,30.3384893,-97.3714257
209,North Avenue C,78621,30.3496780,-97.3721849
108,N Main Street,78621,30.3489593,-97.3711787
104,North Main Street,78621,30.3488651,-97.3711246
100,North Main Street,78621,30.3486603,-97.3710553
103,North Main Street,78621,30.3488521,-97.3707037
114,North Main Street,78621,30.3492416,-97.3712885
202,Depot Street,78621,30.3473601,-97.3717020
200,Depot Street,78621,30.3473848,-97.3716312
102,North Main Street,78621,30.3487968,-97.3711017
20,North Main Street,78621,30.3478790,-97.3707657
600,South Main Street,78621,30.3401118,-97.3678207
600,North Main Street,78621,30.3515833,-97.3724032
516,State Highway 95 North,78621,30.3613218,-97.3790468
18748,Golden Eagle Way,78621,30.3733734,-97.4008771
18709,Golden Eagle Way,78621,30.3733905,-97.4019398
109,Central Avenue,78621,30.3466191,-97.3704611
310,North Main Street,78621,30.3507317,-97.3720659
109,Depot Street,78621,30.3472026,-97.3708209
18810,Highway 290,78621,30.3530667,-97.4126799
1395,West US Highway 290,78621,30.3528269,-97.3957296
1391,West US Highway 290,78621,30.3526468,-97.3946701
1080,East US Highway 290,78621,30.3461743,-97.3841544
18800,Imperial Eagle Lane,78621,30.3723253,-97.4008595
18804,Imperial Eagle Lane,78621,30.3722822,-97.4007038
14409,Martial Eagle Drive,78621,30.3725659,-97.4025300
18709,Golden Eagle Way,78621,30.3733710,-97.4019210
14509,Gurney's Eagle Drive,78621,30.3733710,-97.4001605
14413,Little Eagle Court,78621,30.3723643,-97.4017477
1320,West US Highway 290,78621,30.3494515,-97.3901350
106,Roy Rivers Road,78621,30.3511720,-97.3937820
1399,West US Highway 290,78621,30.3532670,-97.3984868
1131,West US Highway 290,78621,30.3494863,-97.3842970
1113,West US Highway 290,78621,30.3486908,-97.3832737
1121,West US Highway 290,78621,30.3489302,-97.3839347
1100,West US Highway 290,78621,30.3477368,-97.3841094
1090,West US Highway 290,78621,30.3473660,-97.3835982
910,Lee Dildy Boulevard,78621,30.3476338,-97.3849994
305,McClendon Drive,78621,30.3571975,-97.3854200
215,Loesch Drive,78621,30.3580095,-97.3835555
114,Stubblefield Drive,78621,30.3586470,-97.3825665
117,Watt Drive,78621,30.3599050,-97.3835455
214,Loesch Drive,78621,30.3580045,-97.3841630
106,Stubblefield Drive,78621,30.3578035,-97.3832460
218,Loesch Drive,78621,30.3584375,-97.3838340
316,McClendon Drive,78621,30.3586080,-97.3848265
200,Loesch Drive,78621,30.3566155,-97.3853640
323,McClendon Drive,78621,30.3590185,-97.3838850
312,McClendon Drive,78621,30.3582135,-97.3851860
105,Watt Drive,78621,30.3591925,-97.3820040
221,Loesch Drive,78621,30.3586310,-97.3830860
319,McClendon Drive,78621,30.3586175,-97.3842185
222,Loesch Drive,78621,30.3588215,-97.3835205
1103,Robin Road,78621,30.3574385,-97.3758005
217,Loesch Drive,78621,30.3582050,-97.3834180
212,Loesch Drive,78621,30.3578060,-97.3843225
301,McClendon Drive,78621,30.3567980,-97.3857155
100,Stubblefield Drive,78621,30.3571915,-97.3837930
119,Watt Drive,78621,30.3600235,-97.3837745
213,Loesch Drive,78621,30.3578080,-97.3837445
1100,North Avenue F,78621,30.3569445,-97.3763255
107,Watt Drive,78621,30.3592865,-97.3822710
320,McClendon Drive,78621,30.3590355,-97.3845050
113,Watt Drive,78621,30.3596535,-97.3830435
206,Loesch Drive,78621,30.3571875,-97.3848210
321,McClendon Drive,78621,30.3588075,-97.3840415
105,Wildcat Drive,78621,30.3569920,-97.3840050
115,Watt Drive,78621,30.3598080,-97.3833015
317,McClendon Drive,78621,30.3584180,-97.3844045
303,McClendon Drive,78621,30.3569820,-97.3855740
211,Loesch Drive,78621,30.3575955,-97.3839125
307,McClendon Drive,78621,30.3573960,-97.3852030
205,Loesch Drive,78621,30.3570035,-97.3844275
219,Loesch Drive,78621,30.3584025,-97.3832300
104,Stubblefield Drive,78621,30.3576005,-97.3834295
210,Loesch Drive,78621,30.3575910,-97.3844700
313,McClendon Drive,78621,30.3580145,-97.3847320
220,Loesch Drive,78621,30.3586265,-97.3836570
224,Loesch Drive,78621,30.3590365,-97.3833265
204,Loesch Drive,78621,30.3570175,-97.3850055
119,Stubblefield Drive,78621,30.3586050,-97.3819800
300,McClendon Drive,78621,30.3570130,-97.3861950
1105,Robin Road,78621,30.3576500,-97.3758150
604,State Highway 95 North,78621,30.3619373,-97.3790263
401,East 8th Street,78621,30.3557339,-97.3718942
709,State Highway 95 North,78621,30.3633804,-97.3752576
1107,Robin Road,78621,30.3578680,-97.3758455
327,McClendon Drive,78621,30.3594295,-97.3836175
117,Louise Street,78621,30.3590985,-97.3685200
516,State Highway 95 North,78621,30.3613380,-97.3790753
115,Stubblefield Drive,78621,30.3581890,-97.3823390
111,Stubblefield Drive,78621,30.3578305,-97.3826290
223,Loesch Drive,78621,30.3588215,-97.3829005
209,Loesch Drive,78621,30.3574075,-97.3840775
107,Stubblefield Drive,78621,30.3575160,-97.3829240
108,Wildcat Drive,78621,30.3565820,-97.3847035
325,McClendon Drive,78621,30.3592345,-97.3837455
314,McClendon Drive,78621,30.3584065,-97.3850065
109,Stubblefield Drive,78621,30.3576915,-97.3827815
111,Watt Drive,78621,30.3595585,-97.3827795
103,Watt Drive,78621,30.3590385,-97.3817395
326,McClendon Drive,78621,30.3596755,-97.3840205
322,McClendon Drive,78621,30.3592335,-97.3843275
109,Watt Drive,78621,30.3593975,-97.3825230
116,Stubblefield Drive,78621,30.3588710,-97.3824065
106,Wildcat Drive,78621,30.3565460,-97.3843965
306,McClendon Drive,78621,30.3576015,-97.3856695
311,McClendon Drive,78621,30.3578085,-97.3848935
324,McClendon Drive,78621,30.3594310,-97.3841680
315,McClendon Drive,78621,30.3582295,-97.3845665
113,Stubblefield Drive,78621,30.3580250,-97.3824610
104,Wildcat Drive,78621,30.3565685,-97.3840875
105,Stubblefield Drive,78621,30.3572930,-97.3830575
117,Stubblefield Drive,78621,30.3583860,-97.3821660
112,Stubblefield Drive,78621,30.3584405,-97.3827305
108,Stubblefield Drive,78621,30.3580150,-97.3830725
525,State Highway 95 North,78621,30.3608715,-97.3780900
1373,North Avenue C,78621,30.3588050,-97.3886575
103,Stubblefield Drive,78621,30.3571120,-97.3832055
226,Loesch Drive,78621,30.3592480,-97.3831300
207,Loesch Drive,78621,30.3571890,-97.3842480
216,Loesch Drive,78621,30.3582035,-97.3840010
308,McClendon Drive,78621,30.3578070,-97.3855060
208,Loesch Drive,78621,30.3574085,-97.3846570
309,McClendon Drive,78621,30.3575975,-97.3850610
101,Stubblefield Drive,78621,30.3568700,-97.3834085
302,McClendon Drive,78621,30.3571830,-97.3860035
110,Stubblefield Drive,78621,30.3582260,-97.3829015
402,State Highway 95 North,78621,30.3565370,-97.3837820
102,Stubblefield Drive,78621,30.3574025,-97.3836085
304,McClendon Drive,78621,30.3573940,-97.3858435
225,Loesch Drive,78621,30.3590120,-97.3827090
1395,North Avenue C,78621,30.3592997,-97.3908370
318,McClendon Drive,78621,30.3588165,-97.3846710
809,North Main Street,78621,30.3535231,-97.3747968
301,Gettysburg Loop,78621,30.3568000,-97.3915970
501,Gettysburg Loop,78621,30.3584410,-97.3924535
203,Gettysburg Loop,78621,30.3574820,-97.3912440
711,Lavaca Loop,78621,30.3587505,-97.4008940
103,Antietam Trail,78621,30.3581050,-97.3900200
818,Lavaca Loop,78621,30.3603150,-97.4015515
423,Gettysburg Loop,78621,30.3585200,-97.3928655
329,Gettysburg Loop,78621,30.3569860,-97.3938960
105,Antietam Trail,78621,30.3579510,-97.3900575
154,Vicksburg Loop,78621,30.3566495,-97.3869915
204,Antietam Drive,78621,30.3569855,-97.3907850
100,Antietam Drive,78621,30.3580830,-97.3896550
201,Antietam Drive,78621,30.3571180,-97.3899430
107,Antietam Drive,78621,30.3574785,-97.3895505
201,Gettysburg Loop,78621,30.3576165,-97.3912040
210,Valley Run Trail,78621,30.3578870,-97.3967840
146,Vicksburg Loop,78621,30.3561290,-97.3874205
313,Gettysburg Loop,78621,30.3566320,-97.3925690
108,Antietam Trail,78621,30.3578130,-97.3905940
513,Gettysburg Loop,78621,30.3580845,-97.3916015
605,Lavaca Loop,78621,30.3580940,-97.4013980
814,Lavaca Loop,78621,30.3601955,-97.4012590
100,Vicksburg Cove,78621,30.3570465,-97.3885300
104,Vicksburg Loop,78621,30.3573475,-97.3888055
158,Shenandoah Trail,78621,30.3583295,-97.3964300
150,Shenandoah Trail,78621,30.3586180,-97.3969750
117,Gillespie Lane,78621,30.3593505,-97.4010890
114,Gillespie Lane,78621,30.3595590,-97.4015285
705,Lavaca Loop,78621,30.3583105,-97.4009490
216,Valley Run Trail,78621,30.3573385,-97.3967235
103,Gettysburg Loop,78621,30.3585770,-97.3910705
700,Lavaca Loop,78621,30.3580610,-97.4003145
712,Lavaca Loop,78621,30.3588870,-97.4002815
140,Shenandoah Trail,78621,30.3589195,-97.3976935
108,Gettysburg Loop,78621,30.3583485,-97.3916055
304,Gettysburg Loop,78621,30.3571840,-97.3920695
510,Gettysburg Loop,78621,30.3576790,-97.3918535
913,Lavaca Loop,78621,30.3592745,-97.4022645
138,Shenandoah Trail,78621,30.3589465,-97.3978680
108,Vicksburg Loop,78621,30.3571220,-97.3890575
203,Cavalry Trail,78621,30.3576110,-97.3951010
700,Cardinal Street,78621,30.3501915,-97.3838075
205,Cavalry Trail,78621,30.3574460,-97.3951015
1134,West US Highway 290,78621,30.3489620,-97.3852615
105,Vicksburg Cove,78621,30.3571320,-97.3878800
122,Vicksburg Loop,78621,30.3563225,-97.3888515
124,Vicksburg Loop,78621,30.3561810,-97.3887275
716,Lavaca Loop,78621,30.3591440,-97.4001575
214,Valley Run Trail,78621,30.3575675,-97.3969095
602,Lavaca Loop,78621,30.3576450,-97.4015950
824,Lavaca Loop,78621,30.3604975,-97.4020030
202,Antietam Drive,78621,30.3571300,-97.3906540
610,Lavaca Loop,78621,30.3576395,-97.4009440
109,Antietam Drive,78621,30.3573815,-97.3896820
906,Lavaca Loop,78621,30.3598310,-97.4023810
614,Lavaca Loop,78621,30.3575735,-97.4006245
142,Vicksburg Loop,78621,30.3558455,-97.3876290
156,Shenandoah Trail,78621,30.3584090,-97.3965560
802,Lavaca Loop,78621,30.3597895,-97.4004220
106,Vicksburg Loop,78621,30.3572175,-97.3889275
100,Vicksburg Loop,78621,30.3575615,-97.3885720
904,Lavaca Loop,78621,30.3599760,-97.4023085
109,Gillespie Lane,78621,30.3588595,-97.4013990
112,Gillespie Lane,78621,30.3594535,-97.4016155
206,Valley Run Trail,78621,30.3580760,-97.3965305
302,Gettysburg Loop,78621,30.3572385,-97.3919225
323,Gettysburg Loop,78621,30.3567120,-97.3933885
601,Lavaca Loop,78621,30.3580895,-97.4017145
144,Shenandoah Trail,78621,30.3588165,-97.3973915
327,Gettysburg Loop,78621,30.3568080,-97.3938355
127,Vicksburg Loop,78621,30.3564565,-97.3883680
144,Vicksburg Loop,78621,30.3559810,-97.3875260
416,Gettysburg Loop,78621,30.3579240,-97.3927100
102,Antietam Trail,78621,30.3583040,-97.3905560
511,Gettysburg Loop,78621,30.3581095,-97.3917645
106,Antietam Trail,78621,30.3579770,-97.3906090
113,Gettysburg Loop,78621,30.3578940,-97.3911865
150,Vicksburg Loop,78621,30.3564005,-97.3872100
205,Gettysburg Loop,78621,30.3573465,-97.3912905
224,State Highway 95 North,78621,30.3539040,-97.3856700
105,Gettysburg Loop,78621,30.3584375,-97.3910790
107,Gettysburg Loop,78621,30.3582945,-97.3910805
208,Wilderness Trail,78621,30.3569675,-97.3948695
403,Gettysburg Loop,78621,30.3572705,-97.3936735
141,Vicksburg Loop,78621,30.3560440,-97.3880535
138,Vicksburg Loop,78621,30.3555600,-97.3877670
1213,West US Highway 290,78621,30.3509410,-97.3847640
105,Antietam Drive,78621,30.3576120,-97.3894215
104,Antietam Drive,78621,30.3578325,-97.3898765
101,Vicksburg Cove,78621,30.3573455,-97.3881890
512,Gettysburg Loop,78621,30.3576295,-97.3916955
506,Gettysburg Loop,78621,30.3577850,-97.3922330
808,Lavaca Loop,78621,30.3599955,-97.4008430
126,Vicksburg Loop,78621,30.3560555,-97.3886500
110,Vicksburg Loop,78621,30.3569885,-97.3891850
309,Gettysburg Loop,78621,30.3566995,-97.3922375
108,Antietam Drive,78621,30.3575895,-97.3901235
107,Antietam Trail,78621,30.3577355,-97.3900710
128,Vicksburg Loop,78621,30.3559155,-97.3885405
118,Vicksburg Loop,78621,30.3564305,-97.3892195
104,Vicksburg Cove,78621,30.3567705,-97.3882535
112,Vicksburg Loop,78621,30.3569000,-97.3893610
102,Gettysburg Loop,78621,30.3588325,-97.3916435
206,Cavalry Trail,78621,30.3576135,-97.3957730
109,Gettysburg Loop,78621,30.3581530,-97.3910675
211,Gettysburg Loop,78621,30.3568770,-97.3913900
207,Gettysburg Loop,78621,30.3572210,-97.3913465
152,Vicksburg Loop,78621,30.3565395,-97.3871080
149,Vicksburg Loop,78621,30.3565870,-97.3876390
134,Vicksburg Loop,78621,30.3554525,-97.3881720
1312,West US Highway 290,78621,30.3507910,-97.3883085
136,Vicksburg Loop,78621,30.3554360,-97.3879330
100,Gettysburg Loop,78621,30.3589625,-97.3915855
507,Gettysburg Loop,78621,30.3582470,-97.3920550
208,Gettysburg Loop,78621,30.3573700,-97.3918135
208,Antietam Drive,78621,30.3566600,-97.3906630
508,Gettysburg Loop,78621,30.3577055,-97.3920525
151,Vicksburg Loop,78621,30.3567275,-97.3875430
155,Vicksburg Loop,78621,30.3569960,-97.3873810
207,Antietam Drive,78621,30.3566995,-97.3902065
156,Vicksburg Loop,78621,30.3567865,-97.3869295
703,North Avenue C,78621,30.3515451,-97.3746116
147,Vicksburg Loop,78621,30.3564525,-97.3877635
101,Antietam Trail,78621,30.3582570,-97.3900185
505,Gettysburg Loop,78621,30.3582935,-97.3921835
115,Gettysburg Loop,78621,30.3577515,-97.3911885
111,Gettysburg Loop,78621,30.3580190,-97.3911080
306,State Highway 95 North,78621,30.3545556,-97.3848708
600,North Main Street,78621,30.3515887,-97.3724858
107,Vicksburg Cove,78621,30.3569405,-97.3878630
319,Gettysburg Loop,78621,30.3566475,-97.3930760
1205,West US Highway 290,78621,30.3500126,-97.3843974
1209,North Avenue C,78621,30.3551348,-97.3819985
1212,West US Highway 290,78621,30.3496425,-97.3863360
902,West 2nd Street,78621,30.3480553,-97.3793218
801,West 11th Street,78621,30.3475070,-97.3820873
1109,West US Highway 290,78621,30.3478097,-97.3828051
205,Wilderness Trail,78621,30.3570880,-97.3942360
715,Lavaca Loop,78621,30.3590100,-97.4007585
102,Gillespie Lane,78621,30.3588305,-97.4020510
714,Lavaca Loop,78621,30.3590325,-97.4002540
205,Valley Run Trail,78621,30.3578950,-97.3960130
907,Lavaca Loop,78621,30.3596280,-97.4019900
618,Lavaca Loop,78621,30.3577500,-97.4002550
508,Lavaca Loop,78621,30.3576655,-97.4019125
701,Lavaca Loop,78621,30.3580290,-97.4008605
111,Gillespie Lane,78621,30.3589980,-97.4013420
302,West 11th Street,78621,30.3521631,-97.3796677
805,West 10th Street,78621,30.3466017,-97.3805933
804,Lavaca Loop,78621,30.3598420,-97.4005760
822,Lavaca Loop,78621,30.3605045,-97.4018055
805,West 10th Street,78621,30.3467398,-97.3807714
702,Lavaca Loop,78621,30.3581910,-97.4004290
209,Cavalry Trail,78621,30.3571640,-97.3953625
142,Shenandoah Trail,78621,30.3588630,-97.3975425
154,Shenandoah Trail,78621,30.3584740,-97.3967005
113,Gillespie Lane,78621,30.3591235,-97.4012735
805,West 10th Street,78621,30.3469065,-97.3811225
603,Lavaca Loop,78621,30.3580740,-97.4015560
101,Gillespie Lane,78621,30.3584360,-97.4018700
104,Gillespie Lane,78621,30.3589445,-97.4019100
812,Lavaca Loop,78621,30.3601095,-97.4011315
800,Lavaca Loop,78621,30.3597575,-97.4002655
100,Gillespie Lane,78621,30.3587705,-97.4022240
206,Wilderness Trail,78621,30.3571905,-97.3949000
119,Gillespie Lane,78621,30.3594800,-97.4010320
722,Lavaca Loop,78621,30.3595955,-97.3999350
208,Valley Run Trail,78621,30.3579805,-97.3966600
620,Lavaca Loop,78621,30.3579120,-97.4002030
107,Gillespie Lane,78621,30.3587515,-97.4015110
211,Valley Run Trail,78621,30.3575105,-97.3962450
901,Lavaca Loop,78621,30.3599970,-97.4017690
720,Lavaca Loop,78621,30.3594225,-97.3999885
706,Lavaca Loop,78621,30.3584895,-97.4004645
1131,West US Highway 290,78621,30.3492450,-97.3838745
608,Lavaca Loop,78621,30.3576620,-97.4011030
719,Lavaca Loop,78621,30.3592790,-97.4006450
209,Wilderness Trail,78621,30.3568485,-97.3944715
421,Gettysburg Loop,78621,30.3583665,-97.3930070
203,Antietam Drive,78621,30.3570245,-97.3901055
202,Cavalry Trail,78621,30.3578230,-97.3955280
201,Valley Run Trail,78621,30.3581405,-97.3958590
143,Vicksburg Loop,78621,30.3561820,-97.3879545
209,Gettysburg Loop,78621,30.3570755,-97.3913250
201,Wilderness Trail,78621,30.3573435,-97.3941150
207,Wilderness Trail,78621,30.3569475,-97.3942930
201,Cavalry Trail,78621,30.3577275,-97.3950015
202,Wilderness Trail,78621,30.3574165,-97.3946740
414,Gettysburg Loop,78621,30.3577610,-97.3927635
606,Lavaca Loop,78621,30.3576460,-97.4012545
111,Antietam Drive,78621,30.3572505,-97.3898115
209,Antietam Drive,78621,30.3566230,-97.3903900
408,Gettysburg Loop,78621,30.3573820,-97.3930230
203,Valley Run Trail,78621,30.3580195,-97.3959435
106,Gillespie Lane,78621,30.3590735,-97.4018160
612,Lavaca Loop,78621,30.3576480,-97.4007860
1406,North Avenue C,78621,30.3590145,-97.3920720
152,Shenandoah Trail,78621,30.3585330,-97.3968515
118,Gillespie Lane,78621,30.3598035,-97.4013790
909,Lavaca Loop,78621,30.3595000,-97.4020405
810,Lavaca Loop,78621,30.3600670,-97.4009835
418,Gettysburg Loop,78621,30.3580355,-97.3926030
820,Lavaca Loop,78621,30.3604545,-97.4016435
148,Vicksburg Loop,78621,30.3562605,-97.3873100
806,Lavaca Loop,78621,30.3599240,-97.4007105
204,Cavalry Trail,78621,30.3577145,-97.3956415
208,Cavalry Trail,78621,30.3574435,-97.3958190
604,Lavaca Loop,78621,30.3576570,-97.4014370
710,Lavaca Loop,78621,30.3587695,-97.4003425
425,Gettysburg Loop,78621,30.3585370,-97.3926380
125,Vicksburg Loop,78621,30.3566025,-97.3884890
200,Wilderness Trail,78621,30.3575315,-97.3945860
703,Lavaca Loop,78621,30.3581700,-97.4009205
903,Lavaca Loop,78621,30.3598605,-97.4018140
105,Gillespie Lane,78621,30.3586305,-97.4015960
110,Gillespie Lane,78621,30.3593370,-97.4016910
130,Vicksburg Loop,78621,30.3557700,-97.3884510
616,Lavaca Loop,78621,30.3575935,-97.4004140
146,Shenandoah Trail,78621,30.3587340,-97.3972625
104,Gettysburg Loop,78621,30.3586485,-97.3916715
717,Lavaca Loop,78621,30.3591505,-97.4007030
200,Antietam Drive,78621,30.3572830,-97.3905355
721,Lavaca Loop,78621,30.3594010,-97.4005695
213,Valley Run Trail,78621,30.3573495,-97.3964005
207,Cavalry Trail,78621,30.3573115,-97.3951595
205,Antietam Drive,78621,30.3568285,-97.3901315
200,Cavalry Trail,78621,30.3579415,-97.3954420
136,Shenandoah Trail,78621,30.3591015,-97.3980505
102,Vicksburg Cove,78621,30.3568790,-97.3884310
108,Gillespie Lane,78621,30.3592125,-97.4017590
121,Gillespie Lane,78621,30.3595845,-97.4009495
707,Lavaca Loop,78621,30.3584560,-97.4009295
103,Gillespie Lane,78621,30.3585155,-97.4017030
718,Lavaca Loop,78621,30.3592575,-97.4000825
210,Cavalry Trail,78621,30.3572490,-97.3956705
900,Lavaca Loop,78621,30.3602555,-97.4022185
129,Vicksburg Loop,78621,30.3563655,-97.3882505
905,Lavaca Loop,78621,30.3597480,-97.4018965
116,Gillespie Lane,78621,30.3596730,-97.4014270
724,Lavaca Loop,78621,30.3597035,-97.4001070
908,Lavaca Loop,78621,30.3596925,-97.4024905
115,Gillespie Lane,78621,30.3592370,-97.4011705
708,Lavaca Loop,78621,30.3586400,-97.4004295
910,Lavaca Loop,78621,30.3596070,-97.4026290
902,Lavaca Loop,78621,30.3601010,-97.4022345
704,Lavaca Loop,78621,30.3583390,-97.4004350
816,Lavaca Loop,78621,30.3602455,-97.4014065
145,Vicksburg Loop,78621,30.3563255,-97.3878540
104,Antietam Trail,78621,30.3581415,-97.3905770
709,Lavaca Loop,78621,30.3586045,-97.4009125
207,Valley Run Trail,78621,30.3577695,-97.3960965
114,Vicksburg Loop,78621,30.3567395,-97.3894255
102,Antietam Drive,78621,30.3579680,-97.3897400
103,Antietam Drive,78621,30.3577430,-97.3892965
102,Vicksburg Loop,78621,30.3574760,-97.3886915
1193,West US Highway 290,78621,30.3486808,-97.3837132
140,Vicksburg Loop,78621,30.3557110,-97.3877015
101,Gettysburg Loop,78621,30.3587265,-97.3910155
607,Lavaca Loop,78621,30.3580550,-97.4012220
600,Lavaca Loop,78621,30.3576800,-97.4017530
703,North Avenue C,78621,30.3513900,-97.3743193
101,Antietam Drive,78621,30.3578605,-97.3891770
203,Wilderness Trail,78621,30.3572105,-97.3941565
410,Gettysburg Loop,78621,30.3575060,-97.3929365
1109,West US Highway 290,78621,30.3480318,-97.3829584
100,Antietam Trail,78621,30.3584935,-97.3905635
911,Lavaca Loop,78621,30.3593675,-97.4021115
201,Robin Street,78621,30.3483215,-97.3802465
120,Vicksburg Loop,78621,30.3563765,-97.3890505
704,Cardinal Street,78621,30.3500840,-97.3840785
212,Valley Run Trail,78621,30.3577680,-97.3968650
153,Vicksburg Loop,78621,30.3568535,-97.3874400
503,Gettysburg Loop,78621,30.3583725,-97.3923325
900,West 2nd Street,78621,30.3478072,-97.3784993
504,Gettysburg Loop,78621,30.3578735,-97.3923900
509,Gettysburg Loop,78621,30.3581405,-97.3919320
112,Antietam Trail,78621,30.3574800,-97.3905960
206,Antietam Drive,78621,30.3567680,-97.3908165
116,Vicksburg Loop,78621,30.3565445,-97.3893645
826,Lavaca Loop,78621,30.3603890,-97.4021435
713,Lavaca Loop,78621,30.3588765,-97.4008045
106,Vicksburg Cove,78621,30.3567755,-97.3880205
325,Gettysburg Loop,78621,30.3567085,-97.3936355
1126,West US Highway 290,78621,30.3482895,-97.3845345
303,Gettysburg Loop,78621,30.3568140,-97.3917750
123,Vicksburg Loop,78621,30.3567135,-97.3886255
106,Gettysburg Loop,78621,30.3584965,-97.3916655
121,Vicksburg Loop,78621,30.3567715,-97.3888000
148,Shenandoah Trail,78621,30.3586505,-97.3971435
160,Shenandoah Trail,78621,30.3582705,-97.3962775
103,Vicksburg Cove,78621,30.3572635,-97.3880055
209,Valley Run Trail,78621,30.3576525,-97.3961635
110,Antietam Trail,78621,30.3576470,-97.3906020
132,Vicksburg Loop,78621,30.3556190,-97.3883865
1155,Dildy Drive,78621,30.3409830,-97.3818815
1115,Dildy Drive,78621,30.3435816,-97.3828172
18709,Highway 290,78621,30.3512966,-97.4156040
18709,Highway 290,78621,30.3515754,-97.4156310
13108,County Line Road,78621,30.3513941,-97.4128434
13620,Sierra Wind Lane,78621,30.3564996,-97.4207036
13624,Sierra Wind Lane,78621,30.3566145,-97.4206344
13700,County Line Road,78621,30.3605833,-97.4081916
13717,County Line Road,78621,30.3618008,-97.4056006
14412,Gurney's Eagle Drive,78621,30.3720930,-97.4014840
14416,Gurney's Eagle Drive,78621,30.3722130,-97.4013945
14521,Gurney's Eagle Drive,78621,30.3738775,-97.3998030
14525,Gurney's Eagle Drive,78621,30.3739910,-97.3997275
14529,Gurney's Eagle Drive,78621,30.3741205,-97.3996500
14533,Gurney's Eagle Drive,78621,30.3742380,-97.3995695
14537,Gurney's Eagle Drive,78621,30.3743645,-97.3994900
18618,Highway 290,78621,30.3530341,-97.4151859
18810,Highway 290,78621,30.3530867,-97.4120880
19008,Highway 290,78621,30.3536405,-97.4093926
18429,Sun Haven Cove,78621,30.3540300,-97.4182755
18401,Sun Haven Cove,78621,30.3544850,-97.4192475
18417,Sun Haven Cove,78621,30.3542215,-97.4186855
18408,Sun Haven Cove,78621,30.3546730,-97.4186725
18421,Sun Haven Cove,78621,30.3541600,-97.4185480
18432,Sun Haven Cove,78621,30.3542745,-97.4178300
18456,Sun Haven Cove,78621,30.3537540,-97.4171415
13560,Western Sky Boulevard,78621,30.3551080,-97.4195270
18452,Sun Haven Cove,78621,30.3539300,-97.4170580
18810,Highway 290,78621,30.3528058,-97.4120832
13500,Western Sky Boulevard,78621,30.3546500,-97.4203986
13548,Western Sky Boulevard,78621,30.3547145,-97.4197835
18420,Sun Haven Cove,78621,30.3544540,-97.4182670
18445,Sun Haven Cove,78621,30.3537505,-97.4177125
18409,Sun Haven Cove,78621,30.3543775,-97.4189560
18448,Sun Haven Cove,78621,30.3540670,-97.4172005
18433,Sun Haven Cove,78621,30.3539825,-97.4181185
18449,Sun Haven Cove,78621,30.3536510,-97.4175635
13564,Western Sky Boulevard,78621,30.3550510,-97.4193200
18436,Sun Haven Cove,78621,30.3542045,-97.4176875
18413,Sun Haven Cove,78621,30.3542950,-97.4188225
18453,Sun Haven Cove,78621,30.3535885,-97.4173595
18400,Sun Haven Cove,78621,30.3547855,-97.4189385
18405,Sun Haven Cove,78621,30.3544260,-97.4191020
18416,Sun Haven Cove,78621,30.3545240,-97.4183880
18444,Sun Haven Cove,78621,30.3541265,-97.4173640
18428,Sun Haven Cove,78621,30.3543355,-97.4179710
18424,Sun Haven Cove,78621,30.3544115,-97.4181190
18425,Sun Haven Cove,78621,30.3540950,-97.4184030
18441,Sun Haven Cove,78621,30.3538330,-97.4178455
18437,Sun Haven Cove,78621,30.3538985,-97.4179865
18440,Sun Haven Cove,78621,30.3541380,-97.4175530
18412,Sun Haven Cove,78621,30.3545975,-97.4185290
18404,Sun Haven Cove,78621,30.3547330,-97.4188025
13552,Western Sky Boulevard,78621,30.3549230,-97.4198025
13717,County Line Road,78621,30.3615297,-97.4054063
13556,Western Sky Boulevard,78621,30.3550950,-97.4197200
901,West 2nd Street,78621,30.3490234,-97.3779176
14,Depot Square,78621,30.3476805,-97.3696839
1334,West US Highway 290,78621,30.3512979,-97.3906391
1342,West US Highway 290,78621,30.3513520,-97.3917474
802,North Avenue C,78621,30.3506291,-97.3769463
1127,North Main Street,78621,30.3565343,-97.3800684
1338,West US Highway 290,78621,30.3513549,-97.3912172
1501,US 290,78621,30.3539892,-97.4059553
900,Lee Dildy Boulevard,78621,30.3472214,-97.3849580
1300,West US Highway 290,78621,30.3505086,-97.3877320
100,Jim Dandy Drive,78621,30.3488505,-97.3888809
102,Jim Dandy Drive,78621,30.3488146,-97.3887124
104,Jim Dandy Drive,78621,30.3487935,-97.3885309
106,Jim Dandy Drive,78621,30.3487730,-97.3883394
108,Jim Dandy Drive,78621,30.3487299,-97.3881340
110,Jim Dandy Drive,78621,30.3486784,-97.3879481
112,Jim Dandy Drive,78621,30.3485863,-97.3877504
114,Jim Dandy Drive,78621,30.3485070,-97.3876001
116,Jim Dandy Drive,78621,30.3484431,-97.3874220
118,Jim Dandy Drive,78621,30.3483633,-97.3872483
122,Jim Dandy Drive,78621,30.3482052,-97.3869149
124,Jim Dandy Drive,78621,30.3481547,-97.3867432
126,Jim Dandy Drive,78621,30.3480880,-97.3865256
128,Jim Dandy Drive,78621,30.3478415,-97.3864260
505,West US Highway 290,78621,30.3487540,-97.3860327
205,West 2nd Street,78621,30.3487709,-97.3725822
111,North Avenue C,78621,30.3487697,-97.3717216
21,North Avenue C,78621,30.3480345,-97.3714529
116,Depot Street,78621,30.3475332,-97.3713067
200,Depot Street,78621,30.3474778,-97.3716687
20,North Main Street,78621,30.3478653,-97.3707972
28,North Main Street,78621,30.3481915,-97.3709528
100,North Main Street,78621,30.3486861,-97.3711197
102,North Main Street,78621,30.3487707,-97.3711903
106,North Main Street,78621,30.3488287,-97.3712402
108,N Main Street,78621,30.3489205,-97.3712958
112,North Main Street,78621,30.3490478,-97.3713477
114,North Main Street,78621,30.3491764,-97.3714014
100,West 2nd Street,78621,30.3495768,-97.3715713
212,North Main Street,78621,30.3498882,-97.3716458
207,North Main Street,78621,30.3498966,-97.3710497
303,North Avenue C,78621,30.3504583,-97.3724065
216,West 3rd Street,78621,30.3499032,-97.3736141
118,Old Sayers Road,78621,30.3275414,-97.3624518
118,Old Sayers Road,78621,30.3274521,-97.3628144
910,Lee Dildy Boulevard,78621,30.3476815,-97.3850397
910,Lee Dildy Boulevard,78621,30.3472654,-97.3848933
910,Lee Dildy Boulevard,78621,30.3473520,-97.3847868
1121,West US Highway 290,78621,30.3487723,-97.3837961
600,West US Highway 290,78621,30.3417413,-97.3783509
505,West US Highway 290,78621,30.3422918,-97.3755556
608,West Alamo Street,78621,30.3415457,-97.3759316
411,West US Highway 290,78621,30.3409789,-97.3757524
343,West US Highway 290,78621,30.3399741,-97.3750902
405,West US Highway 290,78621,30.3404626,-97.3752525
245,West US Highway 290,78621,30.3384574,-97.3724429
254,West US Highway 290,78621,30.3377021,-97.3736205
250,West US Highway 290,78621,30.3374996,-97.3732692
258,West US Highway 290,78621,30.3371966,-97.3736977
242,West US Highway 290,78621,30.3369553,-97.3732579
214,West US Highway 290,78621,30.3365061,-97.3721819
214,West US Highway 290,78621,30.3365982,-97.3724321
206,West US Highway 290,78621,30.3365094,-97.3716493
216,West US Highway 290,78621,30.3366666,-97.3725447
101,Jim Dandy Drive,78621,30.3484114,-97.3890320
103,Jim Dandy Drive,78621,30.3483866,-97.3888483
107,Jim Dandy Drive,78621,30.3483412,-97.3884746
109,Jim Dandy Drive,78621,30.3483210,-97.3882734
111,Jim Dandy Drive,78621,30.3482587,-97.3880563
113,Jim Dandy Drive,78621,30.3481729,-97.3878876
115,Jim Dandy Drive,78621,30.3480941,-97.3877276
117,Jim Dandy Drive,78621,30.3480070,-97.3875649
119,Jim Dandy Drive,78621,30.3479330,-97.3874067
121,Jim Dandy Drive,78621,30.3478458,-97.3872260
123,Jim Dandy Drive,78621,30.3477626,-97.3870624
125,Jim Dandy Drive,78621,30.3476199,-97.3869111
127,Jim Dandy Drive,78621,30.3476340,-97.3866083
120,Jim Dandy Drive,78621,30.3482900,-97.3870940
105,Jim Dandy Drive,78621,30.3483623,-97.3886732
119,North Main Street,78621,30.3493981,-97.3707835
117,North Main Street,78621,30.3493204,-97.3707839
115,North Main Street,78621,30.3492653,-97.3707664
113,North Main Street,78621,30.3492023,-97.3707404
111,North Main Street,78621,30.3491372,-97.3707140
109,North Main Street,78621,30.3490701,-97.3706858
105,North Main Street,78621,30.3489450,-97.3706303
101,North Main Street,78621,30.3488180,-97.3705824
103,North Main Street,78621,30.3488837,-97.3706049
233,East US Highway 290,78621,30.3338383,-97.3604890
200,West US Highway 290,78621,30.3368805,-97.3714636
220,West US Highway 290,78621,30.3374599,-97.3724917
188,West US Highway 290,78621,30.3368364,-97.3701858
411,Madison Street,78621,30.3433379,-97.3624669
401,East Alamo Street,78621,30.3442032,-97.3648414
407,West US Highway 290,78621,30.3406352,-97.3756078
102,Lake Placid Run,78621,30.3470439,-97.3926209
103,Lake Placid Run,78621,30.3468691,-97.3920293
105,Lake Placid Run,78621,30.3466904,-97.3921773
107,Lake Placid Run,78621,30.3465632,-97.3923152
109,Lake Placid Run,78621,30.3464240,-97.3923816
110,Lake Placid Run,78621,30.3464722,-97.3929050
112,Lake Placid Run,78621,30.3463302,-97.3929491
118,Lake Placid Run,78621,30.3459338,-97.3931766
116,Lake Placid Run,78621,30.3460590,-97.3931280
102,Cates Cove,78621,30.3465854,-97.3911123
108,Cates Cove,78621,30.3464316,-97.3905759
111,Saranac Drive,78621,30.3437642,-97.3928946
102,Schuylerville Drive,78621,30.3475142,-97.3933309
104,Schuylerville Drive,78621,30.3473817,-97.3933782
110,Schuylerville Drive,78621,30.3469796,-97.3936592
112,Schuylerville Drive,78621,30.3468365,-97.3936905
114,Schuylerville Drive,78621,30.3467040,-97.3938009
120,Schuylerville Drive,78621,30.3463144,-97.3940287
202,Schuylerville Drive,78621,30.3460156,-97.3942146
210,Schuylerville Drive,78621,30.3454567,-97.3945403
523,Martin Luther King Boulevard,78621,30.3415671,-97.3641688
527,Martin Luther King Boulevard,78621,30.3412603,-97.3640854
519,Martin Luther King Boulevard,78621,30.3417660,-97.3642968
515,Martin Luther King Boulevard,78621,30.3420693,-97.3644127
217,Church Street,78621,30.3392424,-97.3643982
701,South Main Street,78621,30.3387283,-97.3664117
233,East US Highway 290,78621,30.3340117,-97.3606941
233,East US Highway 290,78621,30.3336280,-97.3606640
132,State Highway 95 South,78621,30.3327583,-97.3622966
401,State Highway 95 North,78621,30.3578282,-97.3803890
405,State Highway 95 North,78621,30.3582074,-97.3800500
201,West US Highway 290,78621,30.3385177,-97.3714100
201,West US Highway 290,78621,30.3382237,-97.3715783
312,Gettysburg Loop,78621,30.3570644,-97.3926963
310,Gettysburg Loop,78621,30.3571018,-97.3925205
320,Gettysburg Loop,78621,30.3571204,-97.3931829
314,Gettysburg Loop,78621,30.3570796,-97.3928844
419,Gettysburg Loop,78621,30.3582540,-97.3930780
417,Gettysburg Loop,78621,30.3581330,-97.3931515
413,Gettysburg Loop,78621,30.3578797,-97.3933020
411,Gettysburg Loop,78621,30.3577694,-97.3933689
409,Gettysburg Loop,78621,30.3576282,-97.3934150
405,Gettysburg Loop,78621,30.3573909,-97.3936015
412,Gettysburg Loop,78621,30.3576193,-97.3927817
307,Gettysburg Loop,78621,30.3567332,-97.3920714
1002,North Avenue C,78621,30.3522336,-97.3779601
1301,North Avenue C,78621,30.3561762,-97.3839201
202,Loesch Drive,78621,30.3567914,-97.3851816
361,State Highway 95 North,78621,30.3575174,-97.3813500
810,Martin Luther King Boulevard,78621,30.3361333,-97.3632690
104,Lake Placid Run,78621,30.3468870,-97.3926826
106,Lake Placid Run,78621,30.3467244,-97.3927136
108,Lake Placid Run,78621,30.3465941,-97.3927858
114,Lake Placid Run,78621,30.3462013,-97.3930566
115,Lake Placid Run,78621,30.3460181,-97.3926110
111,Lake Placid Run,78621,30.3462993,-97.3924613
113,Lake Placid Run,78621,30.3461717,-97.3925663
117,Lake Placid Run,78621,30.3458959,-97.3927191
119,Lake Placid Run,78621,30.3457591,-97.3927897
120,Four Star Drive,78621,30.3455693,-97.3923533
118,Four Star Drive,78621,30.3456952,-97.3922812
116,Four Star Drive,78621,30.3458280,-97.3921830
114,Four Star Drive,78621,30.3459704,-97.3921241
112,Four Star Drive,78621,30.3461101,-97.3920681
110,Four Star Drive,78621,30.3462289,-97.3919599
108,Four Star Drive,78621,30.3463765,-97.3919068
106,Four Star Drive,78621,30.3465057,-97.3918199
104,Four Star Drive,78621,30.3466489,-97.3917563
102,Four Star Drive,78621,30.3467829,-97.3916694
103,Cates Cove,78621,30.3462320,-97.3913018
105,Cates Cove,78621,30.3461487,-97.3911581
104,Cates Cove,78621,30.3464945,-97.3909500
106,Cates Cove,78621,30.3464486,-97.3907951
107,Cates Cove,78621,30.3460828,-97.3909993
109,Cates Cove,78621,30.3459665,-97.3908234
111,Cates Cove,78621,30.3459383,-97.3905252
111,Four Star Drive,78621,30.3460348,-97.3915452
113,Four Star Drive,78621,30.3458881,-97.3916034
115,Four Star Drive,78621,30.3457588,-97.3917203
117,Four Star Drive,78621,30.3456303,-97.3918188
119,Four Star Drive,78621,30.3454871,-97.3918743
121,Four Star Drive,78621,30.3453395,-97.3919659
205,East 2nd Street,78621,30.3496314,-97.3696308
1501,West US Highway 290,78621,30.3556428,-97.4064199
18517,US 290,78621,30.3513393,-97.4187686
1392,West US Highway 290,78621,30.3513979,-97.3942299
1380,West US Highway 290,78621,30.3513562,-97.3928365
1222,West US Highway 290,78621,30.3499919,-97.3868407
13704,County Line Road,78621,30.3615515,-97.4068205
1002,North Avenue C,78621,30.3513983,-97.3779536
902,West 2nd Street,78621,30.3471676,-97.3797631
1113,West US Highway 290,78621,30.3484232,-97.3833645
216,West 3rd Street,78621,30.3500440,-97.3737987
303,North Avenue C,78621,30.3504333,-97.3726367
310,North Main Street,78621,30.3502808,-97.3719075
302,West 11th Street,78621,30.3521896,-97.3805746
31,North Main Street,78621,30.3485290,-97.3704126
114,Central Avenue,78621,30.3469235,-97.3708826
412,Depot Street,78621,30.3466928,-97.3747499
510,Martin Luther King Boulevard,78621,30.3418864,-97.3653835
510,Martin Luther King Boulevard,78621,30.3411738,-97.3648851
510,Martin Luther King Boulevard,78621,30.3423283,-97.3652651
511,Madison Street,78621,30.3425356,-97.3644226
509,Martin Luther King Boulevard,78621,30.3426506,-97.3647275
215,Church Street,78621,30.3390304,-97.3647548
605,Madison Street,78621,30.3394363,-97.3626661
611,South Main Street,78621,30.3398005,-97.3668685
611,South Main Street,78621,30.3397244,-97.3671003
305,Ochoa Street,78621,30.3345435,-97.3714524
507,State Highway 95 North,78621,30.3594625,-97.3794952
301,South Main Street,78621,30.3450323,-97.3691463
511,North Main Street,78621,30.3517478,-97.3717683
511,North Main Street,78621,30.3516352,-97.3716831
107,North Main Street,78621,30.3490166,-97.3706198
202,Depot Street,78621,30.3474574,-97.3717365
108,West 1st Street,78621,30.3485902,-97.3713299
106,West 1st Street,78621,30.3486417,-97.3712647
111,South Main Street,78621,30.3463972,-97.3696279
600,South Main Street,78621,30.3400257,-97.3679008
712,North Avenue C,78621,30.3510969,-97.3755918
401,East 8th Street,78621,30.3556867,-97.3715686
1221,North Avenue C,78621,30.3553331,-97.3828612
506,East 10th Street,78621,30.3596125,-97.3735898
118,Saranac Drive,78621,30.3440661,-97.3937245
116,Saranac Drive,78621,30.3441177,-97.3935446
212,Four Star Drive,78621,30.3444985,-97.3926997
114,Saranac Drive,78621,30.3441531,-97.3933016
112,Saranac Drive,78621,30.3441954,-97.3931198
110,Saranac Drive,78621,30.3442279,-97.3929403
215,Lake Placid Run,78621,30.3444813,-97.3936315
214,Lake Placid Run,78621,30.3446332,-97.3938351
212,Lake Placid Run,78621,30.3448384,-97.3938169
210,Lake Placid Run,78621,30.3449738,-97.3937490
208,Lake Placid Run,78621,30.3451029,-97.3936900
206,Lake Placid Run,78621,30.3452543,-97.3936343
204,Lake Placid Run,78621,30.3453777,-97.3935404
202,Lake Placid Run,78621,30.3455309,-97.3934475
200,Lake Placid Run,78621,30.3456594,-97.3933693
100,Schuylerville Drive,78621,30.3476481,-97.3932494
118,Schuylerville Drive,78621,30.3464360,-97.3939419
116,Schuylerville Drive,78621,30.3465664,-97.3938496
108,Schuylerville Drive,78621,30.3471067,-97.3935426
106,Schuylerville Drive,78621,30.3472416,-97.3934665
101,Lake Placid Run,78621,30.3470565,-97.3920914
100,Lake Placid Run,78621,30.3471911,-97.3923539
101,Schuylerville Drive,78621,30.3474530,-97.3928027
103,Schuylerville Drive,78621,30.3473267,-97.3929087
105,Schuylerville Drive,78621,30.3471935,-97.3929634
121,Schuylerville Drive,78621,30.3461285,-97.3936113
119,Schuylerville Drive,78621,30.3462509,-97.3935125
117,Schuylerville Drive,78621,30.3463792,-97.3934189
115,Schuylerville Drive,78621,30.3465105,-97.3933550
113,Schuylerville Drive,78621,30.3466424,-97.3932670
111,Schuylerville Drive,78621,30.3467786,-97.3931824
109,Schuylerville Drive,78621,30.3469253,-97.3931300
107,Schuylerville Drive,78621,30.3470533,-97.3930194
223,Schuylerville Drive,78621,30.3444164,-97.3945820
221,Schuylerville Drive,78621,30.3445618,-97.3944819
222,Schuylerville Drive,78621,30.3446137,-97.3950171
204,Schuylerville Drive,78621,30.3458751,-97.3942656
208,Schuylerville Drive,78621,30.3455971,-97.3944313
201,Lake Placid Run,78621,30.3454716,-97.3929581
202,Four Star Drive,78621,30.3452758,-97.3925336
213,Lake Placid Run,78621,30.3445027,-97.3933427
211,Lake Placid Run,78621,30.3446890,-97.3932063
209,Lake Placid Run,78621,30.3448831,-97.3932507
207,Lake Placid Run,78621,30.3450412,-97.3931955
205,Lake Placid Run,78621,30.3451767,-97.3930871
203,Lake Placid Run,78621,30.3453271,-97.3930233
203,Schuylerville Drive,78621,30.3458362,-97.3937471
204,Four Star Drive,78621,30.3451444,-97.3926306
206,Four Star Drive,78621,30.3449869,-97.3926691
208,Four Star Drive,78621,30.3448121,-97.3927221
210,Four Star Drive,78621,30.3446509,-97.3927128
209,Four Star Drive,78621,30.3447305,-97.3922158
104,Saranac Drive,78621,30.3442588,-97.3925741
108,Saranac Drive,78621,30.3442524,-97.3927551
107,Saranac Drive,78621,30.3438295,-97.3925591
105,Saranac Drive,78621,30.3438003,-97.3923737
205,Schuylerville Drive,78621,30.3456849,-97.3938477
207,Schuylerville Drive,78621,30.3455396,-97.3939247
209,Schuylerville Drive,78621,30.3454043,-97.3939976
211,Schuylerville Drive,78621,30.3452562,-97.3940879
212,Schuylerville Drive,78621,30.3453202,-97.3946144
213,Schuylerville Drive,78621,30.3451270,-97.3941649
214,Schuylerville Drive,78621,30.3451792,-97.3946811
216,Schuylerville Drive,78621,30.3450350,-97.3947716
218,Schuylerville Drive,78621,30.3448943,-97.3948364
220,Schuylerville Drive,78621,30.3447599,-97.3949416
215,Schuylerville Drive,78621,30.3449828,-97.3942477
217,Schuylerville Drive,78621,30.3448425,-97.3943225
219,Schuylerville Drive,78621,30.3447019,-97.3944095
214,Saranac Drive,78621,30.3447589,-97.3962442
212,Saranac Drive,78621,30.3446798,-97.3960914
210,Saranac Drive,78621,30.3446335,-97.3959340
208,Saranac Drive,78621,30.3445423,-97.3957800
206,Saranac Drive,78621,30.3444876,-97.3956219
204,Saranac Drive,78621,30.3444112,-97.3954674
202,Saranac Drive,78621,30.3443483,-97.3953159
200,Saranac Drive,78621,30.3442681,-97.3951799
301,Schuylerville Drive,78621,30.3437433,-97.3949789
303,Schuylerville Drive,78621,30.3436338,-97.3951143
305,Schuylerville Drive,78621,30.3435183,-97.3952513
307,Schuylerville Drive,78621,30.3434039,-97.3954168
309,Schuylerville Drive,78621,30.3433524,-97.3955934
311,Schuylerville Drive,78621,30.3433363,-97.3957855
313,Schuylerville Drive,78621,30.3433298,-97.3959566
315,Schuylerville Drive,78621,30.3432725,-97.3961369
317,Schuylerville Drive,78621,30.3432395,-97.3962947
319,Schuylerville Drive,78621,30.3432093,-97.3964741
323,Schuylerville Drive,78621,30.3430892,-97.3971845
325,Schuylerville Drive,78621,30.3430625,-97.3973400
327,Schuylerville Drive,78621,30.3430248,-97.3975350
203,West Point Way,78621,30.3431398,-97.3978487
205,West Point Way,78621,30.3429724,-97.3978452
207,West Point Way,78621,30.3428223,-97.3980014
209,West Point Way,78621,30.3427694,-97.3983033
208,West Point Way,78621,30.3428847,-97.3984928
206,West Point Way,78621,30.3430785,-97.3985369
320,Schuylerville Drive,78621,30.3436107,-97.3966630
318,Schuylerville Drive,78621,30.3436102,-97.3964907
316,Schuylerville Drive,78621,30.3436457,-97.3963139
314,Schuylerville Drive,78621,30.3437061,-97.3961499
312,Schuylerville Drive,78621,30.3437306,-97.3959784
308,Schuylerville Drive,78621,30.3437301,-97.3958024
100,Cates Cove,78621,30.3466870,-97.3912275
101,Cates Cove,78621,30.3462907,-97.3914615
110,Cates Cove,78621,30.3462436,-97.3903540
113,Saranac Drive,78621,30.3437714,-97.3930761
119,Saranac Drive,78621,30.3436742,-97.3936346
121,Saranac Drive,78621,30.3436242,-97.3938048
123,Saranac Drive,78621,30.3436191,-97.3939838
125,Saranac Drive,78621,30.3435881,-97.3941536
127,Saranac Drive,78621,30.3435512,-97.3943340
129,Saranac Drive,78621,30.3435944,-97.3945207
131,Saranac Drive,78621,30.3436233,-97.3947089
109,Saranac Drive,78621,30.3438480,-97.3927335
103,Saranac Drive,78621,30.3438750,-97.3921629
101,Saranac Drive,78621,30.3440364,-97.3920206
126,Saranac Drive,78621,30.3440405,-97.3944961
19012,Bear Grass Drive,78621,30.3665681,-97.4017358
19000,Bear Grass Drive,78621,30.3667230,-97.4020543
19016,Bear Grass Drive,78621,30.3665379,-97.4016130
19020,Bear Grass Drive,78621,30.3664830,-97.4015015
19024,Bear Grass Drive,78621,30.3664218,-97.4013852
19028,Bear Grass Drive,78621,30.3663714,-97.4012894
19100,Bear Grass Drive,78621,30.3663131,-97.4011698
19104,Bear Grass Drive,78621,30.3662598,-97.4010534
19108,Bear Grass Drive,78621,30.3662061,-97.4009341
19112,Bear Grass Drive,78621,30.3661438,-97.4008118
19116,Bear Grass Drive,78621,30.3660901,-97.4006923
19120,Bear Grass Drive,78621,30.3660258,-97.4005731
18401,Weatherby Lane,78621,30.3570703,-97.4173414
18405,Weatherby Lane,78621,30.3569914,-97.4172005
18409,Weatherby Lane,78621,30.3569300,-97.4170668
18413,Weatherby Lane,78621,30.3568456,-97.4169318
18417,Weatherby Lane,78621,30.3568063,-97.4167887
14116,Ballast Drive,78621,30.3663701,-97.4025629
14112,Ballast Drive,78621,30.3662674,-97.4026206
14108,Ballast Drive,78621,30.3661708,-97.4026981
14104,Ballast Drive,78621,30.3660755,-97.4027574
14100,Ballast Drive,78621,30.3659841,-97.4028145
14032,Ballast Drive,78621,30.3658740,-97.4028584
14028,Ballast Drive,78621,30.3657804,-97.4029371
14024,Ballast Drive,78621,30.3656907,-97.4029977
14020,Ballast Drive,78621,30.3656042,-97.4030621
103,Forego Drive,78621,30.3466874,-97.3871974
105,Forego Drive,78621,30.3468197,-97.3871056
107,Forego Drive,78621,30.3469686,-97.3869741
109,Forego Drive,78621,30.3471386,-97.3868365
111,Forego Drive,78621,30.3473167,-97.3869038
208,Travers Stake Trail,78621,30.3474611,-97.3871131
206,Travers Stake Trail,78621,30.3474636,-97.3872986
204,Travers Stake Trail,78621,30.3475380,-97.3874632
202,Travers Stake Trail,78621,30.3476148,-97.3876159
200,Travers Stake Trail,78621,30.3476870,-97.3877789
114,Travers Stake Trail,78621,30.3477698,-97.3879142
112,Travers Stake Trail,78621,30.3478446,-97.3880787
110,Travers Stake Trail,78621,30.3479018,-97.3882488
100,Travers Stake Trail,78621,30.3480247,-97.3891263
102,Travers Stake Trail,78621,30.3479989,-97.3889517
104,Travers Stake Trail,78621,30.3479910,-97.3887913
106,Travers Stake Trail,78621,30.3479793,-97.3886123
108,Travers Stake Trail,78621,30.3479663,-97.3884251
100,Forego Drive,78621,30.3465847,-97.3876885
102,Forego Drive,78621,30.3467286,-97.3877175
104,Forego Drive,78621,30.3468823,-97.3876319
207,Travers Stake Trail,78621,30.3470712,-97.3874321
205,Travers Stake Trail,78621,30.3471208,-97.3875991
203,Travers Stake Trail,78621,30.3471932,-97.3877361
201,Travers Stake Trail,78621,30.3472918,-97.3878843
107,Whitney Drive,78621,30.3470262,-97.3879803
105,Whitney Drive,78621,30.3469101,-97.3880630
103,Whitney Drive,78621,30.3467638,-97.3881648
101,Whitney Drive,78621,30.3466072,-97.3881868
101,Travers Stake Trail,78621,30.3476444,-97.3892403
103,Travers Stake Trail,78621,30.3476034,-97.3890800
105,Travers Stake Trail,78621,30.3475940,-97.3889051
107,Travers Stake Trail,78621,30.3475621,-97.3887276
100,Four Star Drive,78621,30.3469249,-97.3916013
18312,Wind Tree Lane,78621,30.3562508,-97.4182566
201,Four Star Drive,78621,30.3452228,-97.3920676
203,Four Star Drive,78621,30.3450920,-97.3921360
205,Four Star Drive,78621,30.3449176,-97.3921702
213,Four Star Drive,78621,30.3445491,-97.3921883
215,Four Star Drive,78621,30.3443969,-97.3921287
217,Four Star Drive,78621,30.3442562,-97.3920862
14501,Gurney's Eagle Drive,78621,30.3731033,-97.4003120
1490,North Avenue C,78621,30.3608502,-97.3982452
103,Blanco Woods Boulevard,78621,30.3613436,-97.4057109
109,Travers Stake Trail,78621,30.3475459,-97.3885543
111,Travers Stake Trail,78621,30.3475007,-97.3883823
113,Travers Stake Trail,78621,30.3474159,-97.3882360
108,Whitney Drive,78621,30.3472369,-97.3884146
106,Whitney Drive,78621,30.3470960,-97.3884755
104,Whitney Drive,78621,30.3469696,-97.3885838
102,Whitney Drive,78621,30.3468034,-97.3886477
100,Whitney Drive,78621,30.3466588,-97.3886502
13628,Sierra Wind Lane,78621,30.3567597,-97.4205999
18301,Rock Sage Cove,78621,30.3566779,-97.4201541
18305,Rock Sage Cove,78621,30.3566114,-97.4200152
18309,Rock Sage Cove,78621,30.3565161,-97.4198958
18313,Rock Sage Cove,78621,30.3563958,-97.4197343
18320,Rock Sage Cove,78621,30.3565421,-97.4193106
18316,Rock Sage Cove,78621,30.3567561,-97.4193136
18300,Rock Sage Cove,78621,30.3570414,-97.4199162
18304,Rock Sage Cove,78621,30.3569671,-97.4197889
18308,Rock Sage Cove,78621,30.3569297,-97.4196275
18312,Rock Sage Cove,78621,30.3568723,-97.4194504
18317,Rock Sage Cove,78621,30.3563454,-97.4194807
18421,Weatherby Lane,78621,30.3567348,-97.4166460
18425,Weatherby Lane,78621,30.3566385,-97.4165332
18429,Weatherby Lane,78621,30.3565348,-97.4163695
18433,Weatherby Lane,78621,30.3565313,-97.4161796
18309,Weatherby Lane,78621,30.3575102,-97.4184437
18313,Weatherby Lane,78621,30.3575010,-97.4182632
18317,Weatherby Lane,78621,30.3574438,-97.4181188
18321,Weatherby Lane,78621,30.3573703,-97.4179849
18325,Weatherby Lane,78621,30.3573029,-97.4178476
18329,Weatherby Lane,78621,30.3572440,-97.4177026
18300,Weatherby Lane,78621,30.3580694,-97.4185927
18304,Weatherby Lane,78621,30.3580655,-97.4183654
18301,Weatherby Lane,78621,30.3578577,-97.4186669
18305,Weatherby Lane,78621,30.3576391,-97.4186098
18308,Weatherby Lane,78621,30.3579804,-97.4181909
18312,Weatherby Lane,78621,30.3578646,-97.4180603
18316,Weatherby Lane,78621,30.3578195,-97.4179091
18320,Weatherby Lane,78621,30.3577359,-97.4177783
18328,Weatherby Lane,78621,30.3575932,-97.4175145
18324,Weatherby Lane,78621,30.3576690,-97.4176288
18400,Weatherby Lane,78621,30.3574344,-97.4171270
18404,Weatherby Lane,78621,30.3573669,-97.4169864
18408,Weatherby Lane,78621,30.3572944,-97.4168559
18412,Weatherby Lane,78621,30.3572349,-97.4167167
18416,Weatherby Lane,78621,30.3571671,-97.4165770
18420,Weatherby Lane,78621,30.3571061,-97.4164192
18436,Weatherby Lane,78621,30.3566974,-97.4159777
18428,Weatherby Lane,78621,30.3570075,-97.4160957
18424,Weatherby Lane,78621,30.3570723,-97.4162701
18432,Weatherby Lane,78621,30.3568967,-97.4159542
18300,Cloudmore Lane,78621,30.3571004,-97.4186464
18304,Cloudmore Lane,78621,30.3572256,-97.4184858
18308,Cloudmore Lane,78621,30.3571828,-97.4182826
18312,Cloudmore Lane,78621,30.3571005,-97.4181223
18316,Cloudmore Lane,78621,30.3570081,-97.4179982
18320,Cloudmore Lane,78621,30.3569004,-97.4178800
18313,Cloudmore Lane,78621,30.3566186,-97.4182246
18309,Cloudmore Lane,78621,30.3566364,-97.4183923
18317,Cloudmore Lane,78621,30.3565409,-97.4180832
18301,Cloudmore Lane,78621,30.3568643,-97.4186897
18305,Cloudmore Lane,78621,30.3567042,-97.4185601
102,Insider Loop,78621,30.3461106,-97.3891512
100,Insider Loop,78621,30.3462613,-97.3891087
101,Insider Loop,78621,30.3462272,-97.3885521
103,Insider Loop,78621,30.3460768,-97.3886216
325,Insider Loop,78621,30.3461536,-97.3881890
321,Insider Loop,78621,30.3459882,-97.3882311
324,Insider Loop,78621,30.3461565,-97.3876712
322,Insider Loop,78621,30.3460005,-97.3877258
320,Insider Loop,78621,30.3458441,-97.3877629
318,Insider Loop,78621,30.3457004,-97.3878153
319,Insider Loop,78621,30.3458413,-97.3882879
105,Insider Loop,78621,30.3459328,-97.3887282
106,Insider Loop,78621,30.3459664,-97.3892515
110,Insider Loop,78621,30.3458282,-97.3893384
107,Insider Loop,78621,30.3457889,-97.3887825
109,Insider Loop,78621,30.3456621,-97.3888523
317,Insider Loop,78621,30.3457085,-97.3883989
315,Insider Loop,78621,30.3455754,-97.3884483
316,Insider Loop,78621,30.3455648,-97.3879150
314,Insider Loop,78621,30.3454377,-97.3880161
312,Insider Loop,78621,30.3453138,-97.3880910
313,Insider Loop,78621,30.3454487,-97.3885614
111,Insider Loop,78621,30.3455348,-97.3889728
202,Insider Loop,78621,30.3452880,-97.3897539
200,Insider Loop,78621,30.3454996,-97.3897541
112,Insider Loop,78621,30.3457102,-97.3894644
114,Insider Loop,78621,30.3456416,-97.3896478
115,Insider Loop,78621,30.3452907,-97.3891925
113,Insider Loop,78621,30.3454014,-97.3890898
206,Insider Loop,78621,30.3450296,-97.3895651
204,Insider Loop,78621,30.3451697,-97.3896504
208,Insider Loop,78621,30.3448797,-97.3895042
216,Insider Loop,78621,30.3444477,-97.3889300
300,Insider Loop,78621,30.3446019,-97.3888009
302,Insider Loop,78621,30.3446678,-97.3886369
214,Insider Loop,78621,30.3444225,-97.3891194
210,Insider Loop,78621,30.3447260,-97.3894511
212,Insider Loop,78621,30.3445449,-97.3893262
309,Insider Loop,78621,30.3453074,-97.3886463
303,Insider Loop,78621,30.3450651,-97.3888896
307,Insider Loop,78621,30.3451637,-97.3887356
301,Insider Loop,78621,30.3449709,-97.3890382
304,Insider Loop,78621,30.3448015,-97.3884981
308,Insider Loop,78621,30.3450378,-97.3882572
306,Insider Loop,78621,30.3449292,-97.3883512
310,Insider Loop,78621,30.3451638,-97.3881635
132,Saranac Drive,78621,30.3441097,-97.3948416
130,Saranac Drive,78621,30.3440487,-97.3946708
204,West Point Way,78621,30.3432209,-97.3983881
202,West Point Way,78621,30.3433511,-97.3983035
200,West Point Way,78621,30.3434838,-97.3982204
120,West Point Way,78621,30.3437589,-97.3980683
118,West Point Way,78621,30.3438814,-97.3979402
122,West Point Way,78621,30.3436186,-97.3981276
114,West Point Way,78621,30.3441548,-97.3978011
112,West Point Way,78621,30.3442880,-97.3977314
116,West Point Way,78621,30.3440202,-97.3978881
110,West Point Way,78621,30.3444209,-97.3976530
104,West Point Way,78621,30.3448355,-97.3974147
106,West Point Way,78621,30.3447056,-97.3975003
108,West Point Way,78621,30.3445570,-97.3975742
218,Saranac Drive,78621,30.3449712,-97.3966694
220,Saranac Drive,78621,30.3450546,-97.3968062
216,Saranac Drive,78621,30.3448855,-97.3965112
100,West Point Way,78621,30.3451536,-97.3972135
222,Saranac Drive,78621,30.3451461,-97.3969446
102,West Point Way,78621,30.3450039,-97.3973697
203,Saranac Drive,78621,30.3440107,-97.3955887
201,Saranac Drive,78621,30.3439070,-97.3954459
207,Saranac Drive,78621,30.3441371,-97.3958976
205,Saranac Drive,78621,30.3440628,-97.3957519
211,Saranac Drive,78621,30.3442569,-97.3962239
213,Saranac Drive,78621,30.3443307,-97.3963706
209,Saranac Drive,78621,30.3442042,-97.3960596
123,West Point Way,78621,30.3434610,-97.3976775
121,West Point Way,78621,30.3435970,-97.3976166
119,West Point Way,78621,30.3437250,-97.3975143
117,West Point Way,78621,30.3438657,-97.3974550
113,West Point Way,78621,30.3441174,-97.3972745
115,West Point Way,78621,30.3439954,-97.3973660
109,West Point Way,78621,30.3443911,-97.3971088
111,West Point Way,78621,30.3442664,-97.3972046
105,West Point Way,78621,30.3446509,-97.3969188
107,West Point Way,78621,30.3445373,-97.3970338
18300,Willow Sage Lane,78621,30.3592458,-97.4191947
18304,Willow Sage Lane,78621,30.3591883,-97.4190492
18308,Willow Sage Lane,78621,30.3591351,-97.4188951
18312,Willow Sage Lane,78621,30.3590575,-97.4187690
18316,Willow Sage Lane,78621,30.3589799,-97.4186369
18320,Willow Sage Lane,78621,30.3589249,-97.4184924
18324,Willow Sage Lane,78621,30.3588614,-97.4183361
18328,Willow Sage Lane,78621,30.3587459,-97.4180979
18332,Willow Sage Lane,78621,30.3586830,-97.4179467
18336,Willow Sage Lane,78621,30.3586067,-97.4178251
18340,Willow Sage Lane,78621,30.3585380,-97.4176775
18344,Willow Sage Lane,78621,30.3584739,-97.4175426
18348,Willow Sage Lane,78621,30.3584094,-97.4174028
18356,Willow Sage Lane,78621,30.3582713,-97.4171260
18352,Willow Sage Lane,78621,30.3583535,-97.4172478
18325,Willow Sage Lane,78621,30.3584457,-97.4184488
18329,Willow Sage Lane,78621,30.3583834,-97.4183006
18337,Willow Sage Lane,78621,30.3582514,-97.4180250
18333,Willow Sage Lane,78621,30.3583182,-97.4181655
18341,Willow Sage Lane,78621,30.3581863,-97.4178896
18345,Willow Sage Lane,78621,30.3580989,-97.4177579
18349,Willow Sage Lane,78621,30.3580430,-97.4176170
18357,Willow Sage Lane,78621,30.3578846,-97.4173541
18353,Willow Sage Lane,78621,30.3579872,-97.4174701
18400,Willow Sage Lane,78621,30.3581189,-97.4167456
18404,Willow Sage Lane,78621,30.3580535,-97.4166163
18408,Willow Sage Lane,78621,30.3579841,-97.4164771
18412,Willow Sage Lane,78621,30.3579093,-97.4163425
18416,Willow Sage Lane,78621,30.3578426,-97.4162063
18420,Willow Sage Lane,78621,30.3578032,-97.4160610
18424,Willow Sage Lane,78621,30.3577455,-97.4158951
18428,Willow Sage Lane,78621,30.3576979,-97.4157235
18432,Willow Sage Lane,78621,30.3575752,-97.4155799
18436,Willow Sage Lane,78621,30.3573899,-97.4156229
18429,Willow Sage Lane,78621,30.3572066,-97.4159997
18433,Willow Sage Lane,78621,30.3571874,-97.4157712
18401,Willow Sage Lane,78621,30.3577565,-97.4169691
18405,Willow Sage Lane,78621,30.3576859,-97.4168353
18409,Willow Sage Lane,78621,30.3576310,-97.4166945
18413,Willow Sage Lane,78621,30.3575403,-97.4165661
18417,Willow Sage Lane,78621,30.3574876,-97.4164128
18421,Willow Sage Lane,78621,30.3574078,-97.4162840
18425,Willow Sage Lane,78621,30.3572979,-97.4161637
13632,Sierra Wind Lane,78621,30.3568720,-97.4205062
13636,Sierra Wind Lane,78621,30.3569953,-97.4204314
13700,Sierra Wind Lane,78621,30.3571312,-97.4203700
13704,Sierra Wind Lane,78621,30.3572532,-97.4202778
13708,Sierra Wind Lane,78621,30.3573622,-97.4201753
13712,Sierra Wind Lane,78621,30.3575127,-97.4201307
13716,Sierra Wind Lane,78621,30.3576155,-97.4200205
13720,Sierra Wind Lane,78621,30.3577529,-97.4199646
13724,Sierra Wind Lane,78621,30.3578782,-97.4198970
13728,Sierra Wind Lane,78621,30.3580145,-97.4198247
13800,Sierra Wind Lane,78621,30.3581271,-97.4197324
13808,Sierra Wind Lane,78621,30.3583858,-97.4195793
13804,Sierra Wind Lane,78621,30.3582587,-97.4196513
13812,Sierra Wind Lane,78621,30.3585160,-97.4195171
13816,Sierra Wind Lane,78621,30.3586384,-97.4194156
13824,Sierra Wind Lane,78621,30.3588812,-97.4192658
13820,Sierra Wind Lane,78621,30.3587628,-97.4193434
13825,Sierra Wind Lane,78621,30.3586920,-97.4188900
13821,Sierra Wind Lane,78621,30.3585603,-97.4189452
13817,Sierra Wind Lane,78621,30.3584340,-97.4190074
13813,Sierra Wind Lane,78621,30.3583223,-97.4191114
13805,Sierra Wind Lane,78621,30.3580688,-97.4192278
13809,Sierra Wind Lane,78621,30.3581971,-97.4191680
13801,Sierra Wind Lane,78621,30.3579610,-97.4193315
13729,Sierra Wind Lane,78621,30.3578332,-97.4193934
13725,Sierra Wind Lane,78621,30.3577182,-97.4194851
13721,Sierra Wind Lane,78621,30.3575820,-97.4195275
13717,Sierra Wind Lane,78621,30.3574794,-97.4196148
13709,Sierra Wind Lane,78621,30.3572270,-97.4197724
13713,Sierra Wind Lane,78621,30.3573525,-97.4196942
18801,Golden Eagle Way,78621,30.3727124,-97.4005935
18805,Golden Eagle Way,78621,30.3726415,-97.4004365
18825,Golden Eagle Way,78621,30.3722541,-97.3997179
18817,Golden Eagle Way,78621,30.3723937,-97.4000192
18821,Golden Eagle Way,78621,30.3723271,-97.3998673
18809,Golden Eagle Way,78621,30.3725680,-97.4002989
18813,Golden Eagle Way,78621,30.3724945,-97.4001434
18760,Golden Eagle Way,78621,30.3732808,-97.4006857
18740,Golden Eagle Way,78621,30.3734426,-97.4010061
18732,Golden Eagle Way,78621,30.3735127,-97.4011786
18724,Golden Eagle Way,78621,30.3735821,-97.4013333
18716,Golden Eagle Way,78621,30.3736774,-97.4015086
18700,Golden Eagle Way,78621,30.3738300,-97.4018330
18708,Golden Eagle Way,78621,30.3737475,-97.4016735
14532,Gurney's Eagle Drive,78621,30.3745426,-97.3999154
14528,Gurney's Eagle Drive,78621,30.3743780,-97.4000161
14524,Gurney's Eagle Drive,78621,30.3742528,-97.4001066
14516,Gurney's Eagle Drive,78621,30.3740081,-97.4002713
14520,Gurney's Eagle Drive,78621,30.3741110,-97.4001825
18701,Spotted Eagle Lane,78621,30.3742106,-97.4015873
18705,Spotted Eagle Lane,78621,30.3741367,-97.4014358
18709,Spotted Eagle Lane,78621,30.3740577,-97.4012677
18713,Spotted Eagle Lane,78621,30.3739829,-97.4010957
18729,Spotted Eagle Lane,78621,30.3736622,-97.4004379
18721,Spotted Eagle Lane,78621,30.3738294,-97.4007704
18725,Spotted Eagle Lane,78621,30.3737558,-97.4005818
18717,Spotted Eagle Lane,78621,30.3738938,-97.4009365
14504,Martial Eagle Drive,78621,30.3748567,-97.4017275
14508,Martial Eagle Drive,78621,30.3749841,-97.4016395
14512,Martial Eagle Drive,78621,30.3751467,-97.4014780
14500,Martial Eagle Drive,78621,30.3746975,-97.4017571
14501,Martial Eagle Drive,78621,30.3745141,-97.4013808
14509,Martial Eagle Drive,78621,30.3747425,-97.4011334
14505,Martial Eagle Drive,78621,30.3746243,-97.4012332
14516,Martial Eagle Drive,78621,30.3751128,-97.4012472
14513,Martial Eagle Drive,78621,30.3749589,-97.4010954
14512,Big Eagle Cove,78621,30.3747877,-97.4007281
14508,Big Eagle Cove,78621,30.3746284,-97.4008890
14504,Big Eagle Cove,78621,30.3744882,-97.4009682
14500,Big Eagle Cove,78621,30.3743468,-97.4010138
14501,Big Eagle Cove,78621,30.3741519,-97.4006176
14509,Big Eagle Cove,78621,30.3743918,-97.4003799
14505,Big Eagle Cove,78621,30.3742666,-97.4004918
14516,Big Eagle Cove,78621,30.3747467,-97.4004981
14513,Big Eagle Cove,78621,30.3745970,-97.4003699
19428,Bear Grass Drive,78621,30.3636707,-97.4001443
19424,Bear Grass Drive,78621,30.3637599,-97.4000625
19416,Bear Grass Drive,78621,30.3639553,-97.3999391
19420,Bear Grass Drive,78621,30.3638578,-97.4000122
19404,Bear Grass Drive,78621,30.3642404,-97.3997567
19408,Bear Grass Drive,78621,30.3641470,-97.3998242
19412,Bear Grass Drive,78621,30.3640509,-97.3998809
19401,Bear Grass Drive,78621,30.3645379,-97.4001899
19405,Bear Grass Drive,78621,30.3644420,-97.4002528
19409,Bear Grass Drive,78621,30.3643438,-97.4003182
19413,Bear Grass Drive,78621,30.3642468,-97.4003612
19429,Bear Grass Drive,78621,30.3638695,-97.4006189
19421,Bear Grass Drive,78621,30.3640459,-97.4004830
19417,Bear Grass Drive,78621,30.3641524,-97.4004298
19425,Bear Grass Drive,78621,30.3639611,-97.4005595
14016,Ballast Drive,78621,30.3655006,-97.4031271
14012,Ballast Drive,78621,30.3654034,-97.4031874
14004,Ballast Drive,78621,30.3652066,-97.4033050
14008,Ballast Drive,78621,30.3653022,-97.4032460
14009,Ballast Drive,78621,30.3650916,-97.4026170
14005,Ballast Drive,78621,30.3649760,-97.4026297
14001,Ballast Drive,78621,30.3648845,-97.4027081
14013,Ballast Drive,78621,30.3652586,-97.4026970
14017,Ballast Drive,78621,30.3653545,-97.4026355
19001,Romano Drive,78621,30.3655745,-97.4025667
19005,Romano Drive,78621,30.3655122,-97.4024462
19013,Romano Drive,78621,30.3654017,-97.4021996
19009,Romano Drive,78621,30.3654545,-97.4023254
19017,Romano Drive,78621,30.3653422,-97.4020800
19025,Romano Drive,78621,30.3652150,-97.4018380
19021,Romano Drive,78621,30.3652756,-97.4019580
19024,Romano Drive,78621,30.3656080,-97.4015928
19101,Bear Grass Drive,78621,30.3658963,-97.4014218
19029,Bear Grass Drive,78621,30.3659577,-97.4015397
19013,Bear Grass Drive,78621,30.3661903,-97.4020040
19017,Bear Grass Drive,78621,30.3661276,-97.4018923
19021,Bear Grass Drive,78621,30.3660802,-97.4017793
19025,Bear Grass Drive,78621,30.3660300,-97.4016498
19000,Romano Drive,78621,30.3659630,-97.4023256
19004,Romano Drive,78621,30.3659033,-97.4022008
19016,Romano Drive,78621,30.3657267,-97.4018462
19020,Romano Drive,78621,30.3656552,-97.4017336
19012,Romano Drive,78621,30.3657843,-97.4019663
19008,Romano Drive,78621,30.3658479,-97.4020844
19300,Bear Grass Drive,78621,30.3648721,-97.3994951
19304,Bear Grass Drive,78621,30.3647501,-97.3995053
19308,Bear Grass Drive,78621,30.3646308,-97.3995331
19312,Bear Grass Drive,78621,30.3645196,-97.3995848
19305,Bear Grass Drive,78621,30.3648394,-97.4000568
19309,Bear Grass Drive,78621,30.3646983,-97.4000789
19213,Bear Grass Drive,78621,30.3652326,-97.4001826
19225,Bear Grass Drive,78621,30.3651136,-97.4000956
19301,Bear Grass Drive,78621,30.3649826,-97.4000686
19201,Bear Grass Drive,78621,30.3654245,-97.4004009
19205,Bear Grass Drive,78621,30.3653428,-97.4002839
14029,Prasky Trail,78621,30.3648006,-97.4007194
14025,Prasky Trail,78621,30.3646989,-97.4007879
14021,Prasky Trail,78621,30.3646123,-97.4008544
14017,Prasky Trail,78621,30.3644379,-97.4007754
14001,Prasky Trail,78621,30.3640575,-97.4010153
14005,Prasky Trail,78621,30.3641175,-97.4008896
14013,Prasky Trail,78621,30.3643172,-97.4007792
14009,Prasky Trail,78621,30.3642174,-97.4008348
14008,Prasky Trail,78621,30.3644227,-97.4014954
14004,Prasky Trail,78621,30.3642797,-97.4014552
14020,Prasky Trail,78621,30.3647329,-97.4013454
14016,Prasky Trail,78621,30.3646426,-97.4014061
14012,Prasky Trail,78621,30.3645371,-97.4014622
19101,Romano Drive,78621,30.3651638,-97.4017059
19105,Romano Drive,78621,30.3651164,-97.4015933
19109,Romano Drive,78621,30.3650572,-97.4014935
19117,Romano Drive,78621,30.3649461,-97.4012757
19113,Romano Drive,78621,30.3649973,-97.4013798
19121,Romano Drive,78621,30.3648929,-97.4011603
19125,Bear Grass Drive,78621,30.3655695,-97.4007278
19120,Romano Drive,78621,30.3652783,-97.4009184
19100,Romano Drive,78621,30.3655536,-97.4014762
19104,Romano Drive,78621,30.3654967,-97.4013695
19108,Romano Drive,78621,30.3654421,-97.4012559
19112,Romano Drive,78621,30.3653731,-97.4011498
19116,Romano Drive,78621,30.3653380,-97.4010297
19121,Bear Grass Drive,78621,30.3656268,-97.4008489
19117,Bear Grass Drive,78621,30.3656938,-97.4009490
19105,Bear Grass Drive,78621,30.3658401,-97.4013068
19109,Bear Grass Drive,78621,30.3657875,-97.4011790
19113,Bear Grass Drive,78621,30.3657379,-97.4010729
19200,Bear Grass Drive,78621,30.3658248,-97.4001363
19208,Bear Grass Drive,78621,30.3656589,-97.3999004
19204,Bear Grass Drive,78621,30.3657478,-97.4000017
19212,Bear Grass Drive,78621,30.3655748,-97.3997940
19216,Bear Grass Drive,78621,30.3654585,-97.3997033
19224,Bear Grass Drive,78621,30.3652244,-97.3995718
19220,Bear Grass Drive,78621,30.3653326,-97.3996409
19124,Bear Grass Drive,78621,30.3659697,-97.4004668
700,South Avenue F,78621,30.3357756,-97.3624996
18004,Speculator Lane,78621,30.3748992,-97.4092843
18104,Speculator Lane,78621,30.3746861,-97.4087942
18200,Speculator Lane,78621,30.3745553,-97.4085123
11500,Rush Lane,78621,30.3661924,-97.4004121
11504,Rush Lane,78621,30.3662805,-97.4003471
11508,Rush Lane,78621,30.3663726,-97.4002792
11512,Rush Lane,78621,30.3664767,-97.4002283
11516,Rush Lane,78621,30.3665774,-97.4001669
11520,Rush Lane,78621,30.3666716,-97.4001120
11524,Rush Lane,78621,30.3667667,-97.4000370
11600,Rush Lane,78621,30.3668654,-97.3999786
11604,Rush Lane,78621,30.3669540,-97.3999058
11608,Rush Lane,78621,30.3670441,-97.3998553
11612,Rush Lane,78621,30.3671596,-97.3998352
11616,Rush Lane,78621,30.3672621,-97.3997851
11620,Rush Lane,78621,30.3673878,-97.3996171
11624,Rush Lane,78621,30.3673378,-97.3993267
11700,Rush Lane,78621,30.3672807,-97.3992305
11704,Rush Lane,78621,30.3672019,-97.3991420
11708,Rush Lane,78621,30.3671494,-97.3990300
11712,Rush Lane,78621,30.3670926,-97.3989156
11716,Rush Lane,78621,30.3670199,-97.3988103
11720,Rush Lane,78621,30.3669650,-97.3987041
11800,Rush Lane,78621,30.3669340,-97.3985865
11804,Rush Lane,78621,30.3668832,-97.3984716
11806,Rush Lane,78621,30.3668344,-97.3983672
11808,Rush Lane,78621,30.3667708,-97.3982623
11812,Rush Lane,78621,30.3667174,-97.3981448
11816,Rush Lane,78621,30.3666754,-97.3980306
11820,Rush Lane,78621,30.3666182,-97.3979262
11824,Rush Lane,78621,30.3665595,-97.3978174
11900,Rush Lane,78621,30.3665054,-97.3977060
11904,Rush Lane,78621,30.3664429,-97.3975919
11908,Rush Lane,78621,30.3663956,-97.3974735
11912,Rush Lane,78621,30.3663798,-97.3973444
11916,Rush Lane,78621,30.3663449,-97.3972093
11920,Rush Lane,78621,30.3661750,-97.3970606
11924,Rush Lane,78621,30.3660413,-97.3970448
11701,Rush Lane,78621,30.3668526,-97.3994768
11705,Rush Lane,78621,30.3668016,-97.3993758
11709,Rush Lane,78621,30.3667423,-97.3992535
11713,Rush Lane,78621,30.3666895,-97.3991473
11717,Rush Lane,78621,30.3666250,-97.3990255
11721,Rush Lane,78621,30.3665758,-97.3989088
11725,Rush Lane,78621,30.3665256,-97.3987992
11801,Rush Lane,78621,30.3664720,-97.3986854
11805,Rush Lane,78621,30.3664005,-97.3985737
11809,Rush Lane,78621,30.3663638,-97.3984666
11813,Rush Lane,78621,30.3663119,-97.3983463
11817,Rush Lane,78621,30.3662530,-97.3982300
11821,Rush Lane,78621,30.3662056,-97.3981209
11825,Rush Lane,78621,30.3661410,-97.3980021
11901,Rush Lane,78621,30.3660900,-97.3978986
11905,Rush Lane,78621,30.3660285,-97.3977773
11909,Rush Lane,78621,30.3659640,-97.3976630
17401,Ginning Court,78621,30.3640837,-97.3994016
17405,Ginning Court,78621,30.3639870,-97.3994647
17409,Ginning Court,78621,30.3638864,-97.3995240
17413,Ginning Court,78621,30.3637919,-97.3995841
17417,Ginning Court,78621,30.3636988,-97.3996549
17421,Ginning Court,78621,30.3635905,-97.3996949
17425,Ginning Court,78621,30.3634581,-97.3996962
17424,Ginning Court,78621,30.3632361,-97.3992287
17420,Ginning Court,78621,30.3632974,-97.3990822
17416,Ginning Court,78621,30.3633682,-97.3990078
17412,Ginning Court,78621,30.3634718,-97.3989558
17408,Ginning Court,78621,30.3636204,-97.3989979
17404,Ginning Court,78621,30.3637480,-97.3990114
17400,Ginning Court,78621,30.3638529,-97.3989591
11000,Roving Pass,78621,30.3644569,-97.3993033
11004,Roving Pass,78621,30.3643963,-97.3991997
11008,Roving Pass,78621,30.3643496,-97.3990836
11100,Roving Pass,78621,30.3642799,-97.3989796
11104,Roving Pass,78621,30.3642258,-97.3988556
11108,Roving Pass,78621,30.3641872,-97.3987474
11112,Roving Pass,78621,30.3641389,-97.3986332
11116,Roving Pass,78621,30.3640832,-97.3985269
13509,Open Wagon Trail,78621,30.3647904,-97.3991357
13513,Open Wagon Trail,78621,30.3647182,-97.3989906
13517,Roving Pass,78621,30.3646678,-97.3988795
13521,Open Wagon Trail,78621,30.3646170,-97.3987753
13525,Open Wagon Trail,78621,30.3645564,-97.3986556
13601,Open Wagon Trail,78621,30.3645074,-97.3985465
13605,Open Wagon Trail,78621,30.3644549,-97.3984409
13609,Open Wagon Trail,78621,30.3644021,-97.3983243
13612,Open Wagon Trail,78621,30.3647698,-97.3980761
13608,Open Wagon Trail,78621,30.3648510,-97.3981822
13604,Open Wagon Trail,78621,30.3648988,-97.3982923
13600,Open Wagon Trail,78621,30.3649447,-97.3984105
13524,Open Wagon Trail,78621,30.3650067,-97.3985161
13520,Open Wagon Trail,78621,30.3650548,-97.3986292
13516,Open Wagon Trail,78621,30.3651082,-97.3987409
13512,Open Wagon Trail,78621,30.3651623,-97.3988600
13508,Open Wagon Trail,78621,30.3652252,-97.3989816
13504,Open Wagon Trail,78621,30.3652587,-97.3991157
13500,Open Wagon Trail,78621,30.3652734,-97.3992762
12201,Token Trail,78621,30.3661002,-97.3999593
12205,Token Trail,78621,30.3660483,-97.3998477
12209,Token Trail,78621,30.3659987,-97.3997385
12213,Token Trail,78621,30.3659455,-97.3996152
12217,Token Trail,78621,30.3658897,-97.3995063
12221,Token Trail,78621,30.3658298,-97.3993966
12225,Token Trail,78621,30.3657770,-97.3992806
12301,Token Trail,78621,30.3657248,-97.3991788
12305,Token Trail,78621,30.3656671,-97.3990537
12309,Token Trail,78621,30.3656127,-97.3989350
12313,Token Trail,78621,30.3655566,-97.3988286
12317,Token Trail,78621,30.3655089,-97.3987223
12321,Token Trail,78621,30.3654451,-97.3985999
12325,Token Trail,78621,30.3653825,-97.3984820
12401,Token Trail,78621,30.3653333,-97.3983648
12405,Token Trail,78621,30.3652733,-97.3982554
12409,Token Trail,78621,30.3652357,-97.3981300
12413,Token Trail,78621,30.3651965,-97.3979891
12417,Token Trail,78621,30.3651687,-97.3978727
12412,Roving Pass,78621,30.3655911,-97.3977335
12408,Token Trail,78621,30.3656348,-97.3978744
12404,Token Trail,78621,30.3656727,-97.3980014
12400,Token Trail,78621,30.3657308,-97.3981208
12324,Token Trail,78621,30.3657755,-97.3982380
12320,Token Trail,78621,30.3658260,-97.3983518
12316,Token Trail,78621,30.3658983,-97.3984660
12312,Token Trail,78621,30.3659443,-97.3985746
12308,Token Trail,78621,30.3660047,-97.3986869
12304,Token Trail,78621,30.3660370,-97.3988074
12300,Token Trail,78621,30.3660956,-97.3989228
12224,Token Trail,78621,30.3661664,-97.3990298
12220,Token Trail,78621,30.3662224,-97.3991440
12216,Token Trail,78621,30.3662824,-97.3992608
12212,Token Trail,78621,30.3663288,-97.3993721
12208,Token Trail,78621,30.3663783,-97.3994926
12204,Token Trail,78621,30.3664370,-97.3995970
12200,Token Trail,78621,30.3664914,-97.3997105
13220,Roving Pass,78621,30.3636485,-97.3987890
13212,Roving Pass,78621,30.3635601,-97.3986899
13208,Roving Pass,78621,30.3634946,-97.3985130
13204,Roving Pass,78621,30.3636609,-97.3982168
13200,Roving Pass,78621,30.3637740,-97.3981775
13124,Roving Pass,78621,30.3638913,-97.3981512
13120,Roving Pass,78621,30.3639907,-97.3980929
13116,Roving Pass,78621,30.3640755,-97.3980396
13112,Roving Pass,78621,30.3641700,-97.3979657
13108,Roving Pass,78621,30.3642724,-97.3979068
13104,Roving Pass,78621,30.3643718,-97.3978463
13028,Roving Pass,78621,30.3645176,-97.3977466
13020,Roving Pass,78621,30.3646935,-97.3976291
13016,Roving Pass,78621,30.3648044,-97.3975750
13012,Roving Pass,78621,30.3649099,-97.3975057
13008,Roving Pass,78621,30.3650191,-97.3974603
13004,Roving Pass,78621,30.3651310,-97.3974117
13000,Roving Pass,78621,30.3652319,-97.3973893
12024,Roving Pass,78621,30.3654539,-97.3973140
12020,Roving Pass,78621,30.3655565,-97.3972801
12016,Roving Pass,78621,30.3656606,-97.3972438
12008,Roving Pass,78621,30.3657661,-97.3972169
12004,Roving Pass,78621,30.3658608,-97.3971481
19001,Bear Grass Drive,78621,30.3662450,-97.4021448
14120,Ballast Drive,78621,30.3664731,-97.4024811
19008,Bear Grass Drive,78621,30.3666387,-97.4018253
19004,Bear Grass Drive,78621,30.3666725,-97.4019384
18904,Bear Grass Drive,78621,30.3668990,-97.4024006
18912,Bear Grass Drive,78621,30.3667822,-97.4021810
18908,Bear Grass Drive,78621,30.3668388,-97.4022942
14101,Prasky Trail,78621,30.3649518,-97.4006304
14109,Prasky Trail,78621,30.3651414,-97.4005097
14105,Prasky Trail,78621,30.3650444,-97.4005720
