House number,Street name,Postal code,Latitude,Longitude
2424,East 38th Street,75261,32.8581303,-97.0356435
2424,East 38th Street,75261,32.8570969,-97.0356115
2424,East 38th Street,75261,32.8581195,-97.0351231
2424,East 38th Street,75261,32.8572047,-97.0351298
2424,East 38th Street,75261,32.8574613,-97.0351279
2424,East 38th Street,75261,32.8570894,-97.0352767
2424,East 38th Street,75261,32.8578896,-97.0351248
2424,East 38th Street,75261,32.8576967,-97.0351262
2344,Rental Car Road,76039,32.8523050,-97.0386801
2424,East 38th Street,75261,32.8581253,-97.0353894
2309,Airport Freeway,76040,32.8367777,-97.1205388
2323,West Airport Freeway,76040,32.8366966,-97.1213971
3010,State Highway 121,76039,32.8800427,-97.0981186
2750,State Highway121,76039,32.8780461,-97.0979102
1101,Arwine Court,76040,32.8228445,-97.1553906
2301,West Airport Freeway,76040,32.8366579,-97.1201128
203,Ross Avenue,76040,32.8356056,-97.0849748
1201,Airport Freeway,76040,32.8353592,-97.1006662
1201,West Airport Freeway,76040,32.8353757,-97.1009936
201,South Industrial Boulevard,76040,32.8363475,-97.0983712
1114,South Airport Circle,76040,32.8209097,-97.1133270
2424,East 38th Street,75261,32.8560422,-97.0355873
2424,East 38th Street,75261,32.8575056,-97.0352641
2424,East 38th Street,75261,32.8560790,-97.0347061
2701,Rio Grande Boulevard,76039,32.8770936,-97.1026799
2501,Rio Grande Boulevard,76039,32.8721467,-97.1034470
1310,Chisholm Trail,75065,32.8753846,-97.1033721
1155,North Main Street,76039,32.8533050,-97.0833653
1060,North Main Street,76039,32.8513875,-97.0808119
1401,West Glade Road,76039,32.8802900,-97.1047130
711,South Industrial Boulevard,76040,32.8282820,-97.0991274
711,South Industrial Boulevard,76040,32.8282215,-97.0991237
711,South Industrial Boulevard,76040,32.8279513,-97.0991163
3050,Highway 360,76039,32.8807049,-97.0739481
2570,State Highway 121,76039,32.8739015,-97.0985037
2570,State Highway 121,76039,32.8747666,-97.0983321
2550,State Highway 121,76039,32.8729290,-97.0987035
125,South Ector Drive,76040,32.8360361,-97.0903426
203,South Ector Drive,76040,32.8352985,-97.0899187
2500,S Garage Drive,75261,32.8571868,-97.0353926
300,West Midway Drive,76039,32.8449873,-97.0858808
100,East Euless Boulevard,76040,32.8367540,-97.0821246
106,North Main Street,76040,32.8378112,-97.0818555
105,North Main Street,76040,32.8398038,-97.0831540
301,North Main Street,76039-3636,32.8402748,-97.0831077
1200,North Main Street,76039,32.8533673,-97.0819521
2401,State Highway 121,76039,32.8715228,-97.1019162
2200,West 32nd Street,75261,32.8749394,-97.0451188
3500,Bear Creek Ct,75261,32.8600616,-97.0579365
1400,Texas Star Parkway,76040,32.8150056,-97.1111696
2424,East 38th Street,75261,32.8575988,-97.0353819
300,West Midway Drive,76039,32.8451040,-97.0852634
306,West Airport Freeway,76039,32.8389395,-97.0878735
409,North Ector Drive,76039,32.8421813,-97.0931511
1101,Denton Drive,76039,32.8527812,-97.0884563
1201,West Glade Road,76039,32.8809415,-97.1012391
1401,West Glade Road,76039,32.8805116,-97.1050300
3003,TX 121,76039,32.8803962,-97.1004224
901,East Mid Cities Boulevard,76039,32.8677932,-97.0687639
3150,North Service Road,75261,32.8763694,-97.0384883
2155,West Airport Freeway,76040,32.8366470,-97.1180878
2830,State Highway 121,76039,32.8794170,-97.0981490
500,North Industrial Boulevard,76039,32.8433372,-97.0957652
1100,Raider Drive,76040,32.8208773,-97.1358816
3191,West Pipeline Road,76040,32.8202592,-97.1371941
420,Wilshire Drive,76040,32.8326096,-97.1093804
605,South Main Street,76040,32.8288656,-97.0810354
700,Ranger Drive,76040,32.8271441,-97.0936957
1600,Donley Drive,76039,32.8601322,-97.0942768
401,Bear Creek Drive,76039,32.8708423,-97.0872231
1003,Tuscany Trail,76039,32.8432167,-97.0669011
1005,Tuscany Trail,76039,32.8431761,-97.0667724
1007,Tuscany Trail,76039,32.8431333,-97.0666424
1009,Tuscany Trail,76039,32.8430947,-97.0665240
1011,Tuscany Trail,76039,32.8430541,-97.0663978
1001,Tuscany Trail,76039,32.8432574,-97.0670285
503,Garden Avenue,76039,32.8434328,-97.0674335
505,Garden Avenue,76039,32.8435438,-97.0674066
507,Garden Avenue,76039,32.8436553,-97.0673798
509,Garden Avenue,76039,32.8437613,-97.0673542
511,Garden Avenue,76039,32.8438683,-97.0673302
513,Garden Avenue,76039,32.8439776,-97.0673047
515,Garden Avenue,76039,32.8440857,-97.0672805
517,Garden Avenue,76039,32.8441917,-97.0672550
519,Garden Avenue,76039,32.8442964,-97.0672296
514,Garden Avenue,76039,32.8442666,-97.0666877
501,Rustic Lane,76039,32.8433923,-97.0664544
505,Rustic Lane,76039,32.8436086,-97.0664062
503,Rustic Lane,76039,32.8435004,-97.0664302
501,Garden Avenue,76039,32.8432770,-97.0674710
502,Garden Avenue,76039,32.8436161,-97.0668433
507,Rustic Lane,76039,32.8437176,-97.0663795
509,Rustic Lane,76039,32.8438291,-97.0663541
511,Rustic Lane,76039,32.8439384,-97.0663300
513,Rustic Lane,76039,32.8440455,-97.0663031
515,Rustic Lane,76039,32.8441525,-97.0662763
517,Rustic Lane,76039,32.8442618,-97.0662482
504,Garden Avenue,76039,32.8437254,-97.0668185
508,Garden Avenue,76039,32.8439439,-97.0667648
506,Garden Avenue,76039,32.8438358,-97.0667916
510,Garden Avenue,76039,32.8440544,-97.0667380
512,Garden Avenue,76039,32.8441603,-97.0667140
500,Garden Avenue,76039,32.8435045,-97.0668694
518,Rustic Lane,76039,32.8437620,-97.0656915
502,Rustic Lane,76039,32.8428815,-97.0657001
504,Rustic Lane,76039,32.8429948,-97.0656982
516,Rustic Lane,76039,32.8436550,-97.0656933
506,Rustic Lane,76039,32.8431085,-97.0656968
514,Rustic Lane,76039,32.8435469,-97.0656948
512,Rustic Lane,76039,32.8434369,-97.0656944
510,Rustic Lane,76039,32.8433255,-97.0656952
508,Rustic Lane,76039,32.8432166,-97.0656952
520,Rustic Lane,76039,32.8438716,-97.0656925
522,Rustic Lane,76039,32.8439796,-97.0656910
524,Rustic Lane,76039,32.8440864,-97.0656891
500,Rustic Lane,76039,32.8426785,-97.0656931
601,Garden Avenue,76039,32.8444046,-97.0672033
603,Garden Avenue,76039,32.8445849,-97.0671629
1001,Vineyard Drive,76039,32.8446547,-97.0670504
1013,Vineyard Drive,76039,32.8446322,-97.0661437
1011,Vineyard Drive,76039,32.8446322,-97.0662724
1009,Vineyard Drive,76039,32.8446345,-97.0664066
1007,Vineyard Drive,76039,32.8446345,-97.0665353
1005,Vineyard Drive,76039,32.8446367,-97.0667097
1003,Vineyard Drive,76039,32.8446480,-97.0668384
1015,Vineyard Drive,76039,32.8446457,-97.0660149
604,Rustic Lane,76039,32.8445569,-97.0656838
1017,Vineyard Drive,76039,32.8446400,-97.0657829
602,Rustic Lane,76039,32.8443640,-97.0656758
600,Rustic Lane,76039,32.8442558,-97.0656888
114,Griffith Court,76039,32.8628630,-97.0807860
112,Griffith Court,76039,32.8628308,-97.0809900
110,Griffith Court,76039,32.8628253,-97.0811799
108,Griffith Court,76039,32.8629425,-97.0813727
106,Griffith Court,76039,32.8629514,-97.0816265
104,Griffith Court,76039,32.8629566,-97.0818398
102,Griffith Court,76039,32.8629061,-97.0820525
100,Griffith Court,76039,32.8629277,-97.0822642
310,Himes Drive,76039,32.8413057,-97.0857414
3000,Hwy 121,76039,32.8798067,-97.0962337
2601,Brazos Boulevard,76039,32.8748645,-97.1049450
1201,West Glade Road,76039,32.8810251,-97.1008580
2400,Aviation Drive,75261,32.8555450,-97.0380913
1060,North Main Street,76039,32.8509479,-97.0806466
108,Ross Avenue,76040,32.8362970,-97.0837922
431,Airport Freeway,76040,32.8360646,-97.0893146
2720,West Euless Boulevard,76040,32.8332650,-97.0927897
1011,West Airport Freeway,76040,32.8368750,-97.0980841
251,South Industrial Boulevard,76040,32.8348079,-97.0982441
1155,North Main Street,76039,32.8533786,-97.0835601
230,West Harwood Road,76039,32.8523629,-97.0852791
2800,State Highway 121,76039,32.8781332,-97.0962645
2800,State Highway 121,76039,32.8786708,-97.0962770
1102,West Euless Boulevard,76039,32.8290391,-97.1021912
304,Calvary Drive,76040,32.8338705,-97.1039070
3011,William D Tate Avenue,76039,32.8807697,-97.1005379
2525,State Highway 360,76039,32.8726682,-97.0714120
2001,State Highway 360,76039,32.8646281,-97.0677104
1401,State Highway 360,76039,32.8559350,-97.0682927
1130,Bear Creek Parkway,76039,32.8531934,-97.0695113
3520,International Parkway,75261,32.8659873,-97.0405834
2321,SH 121 Frontage Road,76039,32.8704927,-97.1022363
2350,Global Drive,75261,32.8543397,-97.0387726
1803,W. Airport Freeway,76040,32.8366137,-97.1124856
2344,East Rental Car Drive,76039,32.8521937,-97.0387349
2420,Innovation Drive,75261,32.8534821,-97.0368903
2360,Innovation Drive,75261,32.8533852,-97.0386150
3756,Cheek Sparger Road,76021,32.8655395,-97.1041529
610,West Euless Boulevard,76040,32.8338978,-97.0914111
610,West Euless Boulevard,76040,32.8337540,-97.0914044
1301,Chisholm Trail,76039,32.8743952,-97.1027618
3801,Cheek Sparger Road,76039,32.8665094,-97.1031603
1000,East Harwood Road,76039,32.8509532,-97.0658066
1300,North Main Street,76039,32.8546373,-97.0817017
2400,Aviation Drive,75261,32.8964574,-97.0397856
