House number,Street name,Postal code,Latitude,Longitude
105,East Missouri Street,79235,33.9858368,-101.3344879
112,North Wall Street,79235,33.9864944,-101.3331158
110,North Wall Street,79235,33.9862309,-101.3331644
309,South Wall Street,79235,33.9828868,-101.3329929
209,East Kentucky Street,79235,33.9824833,-101.3322777
319,South Main Street,79235,33.9823612,-101.3345465
106,East Mississippi Street,79235,33.9830963,-101.3342237
117,West Mississippi Street,79235,33.9829940,-101.3356332
308,South Main Street,79235,33.9828777,-101.3351957
217,East Tennessee Street,79235,33.9813113,-101.3324360
303,East Tennessee Street,79235,33.9813048,-101.3312663
301,East Tennessee Street,79235,33.9812850,-101.3314106
301,South 8th Street,79235,33.9813797,-101.3315980
308,East Tennessee Street,79235,33.9808861,-101.3309963
304,East Tennessee Street,79235,33.9808824,-101.3312702
412,South 4th Street,79235,33.9814700,-101.3381984
500,West Kentucky Street,79235,33.9823449,-101.3415154
204,West Virginia Street,79235,33.9869072,-101.3368208
205,West Jackson Street,79235,33.9875701,-101.3370173
220,West Jackson Street,79235,33.9879937,-101.3378398
408,West Jackson Street,79235,33.9879801,-101.3400669
412,West Jackson Street,79235,33.9879815,-101.3403009
331,West Lee Street,79235,33.9885934,-101.3394301
401,West Lee Street,79235,33.9886525,-101.3398217
407,West Lee Street,79235,33.9886071,-101.3402002
320,North 2nd Street,79235,33.9886089,-101.3407501
316,North 2nd Street,79235,33.9883742,-101.3408112
319,North 2nd Street,79235,33.9885735,-101.3419430
607,West Lee Street,79235,33.9885285,-101.3431307
522,West Lee Street,79235,33.9890624,-101.3423223
528,West Lee Street,79235,33.9890574,-101.3426103
402,North 2nd Street,79235,33.9890409,-101.3408982
400,West Lee Street,79235,33.9891307,-101.3399083
417,West Grover Street,79235,33.9897259,-101.3404690
415,North 2nd Street,79235,33.9895375,-101.3414858
504,North 2nd Street,79235,33.9902049,-101.3407935
709,West Ross Street,79235,33.9907823,-101.3452505
705,West Ross Street,79235,33.9907735,-101.3450342
737,West Price Street,79235,33.9918769,-101.3459184
739,West Price Street,79235,33.9918829,-101.3461861
613,North Massie Street,79235,33.9916657,-101.3470565
908,West Ross Street,79235,33.9912367,-101.3492045
628,North Sunset Avenue,79235,33.9917491,-101.3497131
910,West Ross Street,79235,33.9912640,-101.3497253
906,West Ross Street,79235,33.9912033,-101.3489298
902,West Ross Street,79235,33.9912460,-101.3483883
907,West Grover Street,79235,33.9895906,-101.3494110
909,West Grover Street,79235,33.9896050,-101.3496869
905,West Lee Street,79235,33.9884726,-101.3490508
909,West Lee Street,79235,33.9884617,-101.3496694
903,West Lee Street,79235,33.9884905,-101.3487016
901,West Lee Street,79235,33.9884817,-101.3483723
705,West Missouri Street,79235,33.9851051,-101.3450320
715,West Missouri Street,79235,33.9851411,-101.3458627
801,West Missouri Street,79235,33.9851589,-101.3463893
812,West California Street,79235,33.9845912,-101.3473309
903,West California Street,79235,33.9839270,-101.3488172
905,West California Street,79235,33.9839283,-101.3491379
901,West California Street,79235,33.9839245,-101.3483340
904,West Kentucky Street,79235,33.9823559,-101.3487448
905,West Kentucky Street,79235,33.9817173,-101.3491522
862,West Crockett Street,79235,33.9782089,-101.3468900
513,West Georgia Street,79235,33.9797010,-101.3422570
601,South 2nd Street,79235,33.9796757,-101.3405337
420,West Georgia Street,79235,33.9802517,-101.3402959
511,South 2nd Street,79235,33.9801126,-101.3407390
329,West Tennessee Street,79235,33.9808245,-101.3392666
505,South 3rd Street,79235,33.9805877,-101.3393217
226,West Tennessee Street,79235,33.9812412,-101.3375683
218,East Kentucky Street,79235,33.9819910,-101.3323544
400,South 8th Street,79235,33.9820185,-101.3319883
300,East Kentucky Street,79235,33.9819819,-101.3315783
306,East Kentucky Street,79235,33.9819991,-101.3312819
409,South 9th Street,79235,33.9817367,-101.3299966
308,East Mississippi Street,79235,33.9830508,-101.3310810
602,East California Street,79235,33.9841503,-101.3267338
100,North 12th Street,79235,33.9858208,-101.3252222
202,North 12th Street,79235,33.9871810,-101.3252136
204,North 12th Street,79235,33.9873347,-101.3252739
205,North 12th Street,79235,33.9874522,-101.3259537
234,North 12th Street,79235,33.9883602,-101.3253562
701,East Lee Street,79235,33.9889210,-101.3253132
311,North 12th Street,79235,33.9887171,-101.3259810
703,East Lee Street,79235,33.9888097,-101.3247048
604,East Lee Street,79235,33.9886857,-101.3268023
602,East Lee Street,79235,33.9886619,-101.3269432
504,East Lee Street,79235,33.9887249,-101.3283768
511,East Lee Street,79235,33.9891816,-101.3276930
501,East Lee Street,79235,33.9891478,-101.3284895
423,East Lee Street,79235,33.9892406,-101.3298028
426,East Lee Street,79235,33.9886997,-101.3290169
315,West Grover Street,79235,33.9896880,-101.3392587
617,West Price Street,79235,33.9918641,-101.3436531
619,West Price Street,79235,33.9917770,-101.3442037
626,West Ross Street,79235,33.9912630,-101.3441601
702,West Ross Street,79235,33.9913646,-101.3447282
706,West Ross Street,79235,33.9912372,-101.3449499
716,West Ross Street,79235,33.9912274,-101.3451617
211,West California Street,79235,33.9841759,-101.3369437
109,East Missouri Street,79235,33.9858383,-101.3343620
101,East Missouri Street,79235,33.9858354,-101.3346138
125,East California Street,79235,33.9847789,-101.3337593
105,South Main Street,79235,33.9849875,-101.3341208
111,South Wall Street,79235,33.9849877,-101.3331199
120,West Missouri Street,79235,33.9858982,-101.3357324
111,East Missouri Street,79235,33.9859104,-101.3342277
113,East Missouri Street,79235,33.9859115,-101.3341454
115,East Missouri Street,79235,33.9857826,-101.3340570
117,East Missouri Street,79235,33.9859139,-101.3339693
119,East Missouri Street,79235,33.9859151,-101.3338820
121,East Missouri Street,79235,33.9859102,-101.3337834
123,East Missouri Street,79235,33.9859117,-101.3336647
101,South Wall Street,79235,33.9853857,-101.3331454
105,South Wall Street,79235,33.9852004,-101.3331845
124,South Main Street,79235,33.9846349,-101.3352226
210,South Main Street,79235,33.9839093,-101.3351371
208,South Main Street,79235,33.9840473,-101.3351383
200,South Main Street,79235,33.9841852,-101.3352184
215,South Main Street,79235,33.9836786,-101.3344406
221,South Main Street,79235,33.9834716,-101.3343885
112,East California Street,79235,33.9841269,-101.3341042
124,East California Street,79235,33.9840907,-101.3336054
116,East California Street,79235,33.9841281,-101.3339392
122,East California Street,79235,33.9840901,-101.3336866
120,East California Street,79235,33.9840893,-101.3338124
114,East California Street,79235,33.9841275,-101.3340216
110,East California Street,79235,33.9841264,-101.3341870
108,East California Street,79235,33.9841258,-101.3342692
104-106,East California Street,79235,33.9841249,-101.3343935
102,East California Street,79235,33.9841241,-101.3345164
100,East California Street,79235,33.9841235,-101.3345993
211,South Main Street,79235,33.9839015,-101.3345978
221,South Main Street,79235,33.9834508,-101.3352084
214,South Wall Street,79235,33.9837452,-101.3338141
800,East Price Street,79235,33.9913953,-101.3241294
128,West California Street,79235,33.9846128,-101.3362482
120,West California Street,79235,33.9846599,-101.3359687
129,West California Street,79235,33.9841784,-101.3360919
121,West California Street,79235,33.9841122,-101.3358558
117,West California Street,79235,33.9841071,-101.3356983
113,West California Street,79235,33.9841409,-101.3355918
128,West J.B. Avenue,79235,33.9730791,-101.3376091
122,West J.B. Avenue,79235,33.9730755,-101.3369075
124,West J.B. Avenue,79235,33.9730899,-101.3371381
126,West J.B. Avenue,79235,33.9730880,-101.3373720
120,West J.B. Avenue,79235,33.9730960,-101.3366985
118,West J.B. Avenue,79235,33.9731001,-101.3364887
116,West J.B. Avenue,79235,33.9730947,-101.3362931
114,West J.B. Avenue,79235,33.9730941,-101.3360945
108,West J.B. Avenue,79235,33.9730910,-101.3354983
1011,South 8th Street,79235,33.9758927,-101.3303955
110,West J.B. Avenue,79235,33.9730885,-101.3356971
112,West J.B. Avenue,79235,33.9730884,-101.3358997
106,West J.B. Avenue,79235,33.9730895,-101.3353030
102,West J.B. Avenue,79235,33.9731115,-101.3349066
104,West J.B. Avenue,79235,33.9730931,-101.3351076
127,West J.B. Avenue,79235,33.9726636,-101.3375847
125,West J.B. Avenue,79235,33.9726589,-101.3373697
123,West J.B. Avenue,79235,33.9726643,-101.3371384
121,West J.B. Avenue,79235,33.9726778,-101.3369120
109,West J.B. Avenue,79235,33.9726971,-101.3356885
119,West J.B. Avenue,79235,33.9726851,-101.3366978
111,West J.B. Avenue,79235,33.9726760,-101.3358881
107,West J.B. Avenue,79235,33.9726901,-101.3354975
113,West J.B. Avenue,79235,33.9726895,-101.3360878
115,West J.B. Avenue,79235,33.9726781,-101.3362873
117,West J.B. Avenue,79235,33.9726641,-101.3364880
105,West J.B. Avenue,79235,33.9726959,-101.3352977
103,West J.B. Avenue,79235,33.9726986,-101.3350983
101,West J.B. Avenue,79235,33.9726879,-101.3348984
124,West Mae Avenue,79235,33.9722248,-101.3370490
126,West Mae Avenue,79235,33.9722546,-101.3373285
128,West Mae Avenue,79235,33.9722260,-101.3376053
119,West Mae Avenue,79235,33.9718234,-101.3366822
127,West Mae Avenue,79235,33.9718153,-101.3375950
121,West Mae Avenue,79235,33.9718058,-101.3368999
123,West Mae Avenue,79235,33.9718164,-101.3371632
120,West Mae Avenue,79235,33.9722766,-101.3367282
118,West Mae Avenue,79235,33.9722334,-101.3364817
112,West Mae Avenue,79235,33.9722314,-101.3358879
116,West Mae Avenue,79235,33.9722312,-101.3362825
113,West Mae Avenue,79235,33.9718233,-101.3360798
111,West Mae Avenue,79235,33.9718407,-101.3358834
109,West Mae Avenue,79235,33.9718288,-101.3356860
117,West Mae Avenue,79235,33.9718404,-101.3364045
102,West Mae Avenue,79235,33.9722454,-101.3348969
110,West Mae Avenue,79235,33.9722481,-101.3356894
308B,East Hallie Street,79235,33.9745413,-101.3308541
306B,East Hallie Street,79235,33.9745387,-101.3310585
304B,East Hallie Street,79235,33.9745366,-101.3312275
310B,East Hallie Street,79235,33.9745722,-101.3306918
302B,East Hallie Street,79235,33.9745340,-101.3314318
304A,East Hallie Street,79235,33.9746474,-101.3312294
302A,East Hallie Street,79235,33.9746448,-101.3314337
306A,East Hallie Street,79235,33.9746496,-101.3310604
308A,East Hallie Street,79235,33.9746521,-101.3308560
310 A,East Hallie Street,79235,33.9746681,-101.3306247
130,West Ollie Street,79235,33.9740976,-101.3360206
108,West Ollie Street,79235,33.9739918,-101.3352166
112,West Ollie Street,79235,33.9740100,-101.3353656
116,West Ollie Street,79235,33.9740625,-101.3356395
1122,South Main Street,79235,33.9740317,-101.3349568
1120,South Main Street,79235,33.9742166,-101.3349297
1113,South Main Street,79235,33.9741911,-101.3344405
1121,South Wall Street,79235,33.9739861,-101.3330271
1120,South Wall Street,79235,33.9740259,-101.3335369
103,West Ollie Street,79235,33.9735711,-101.3352316
129,West Ollie Street,79235,33.9735447,-101.3359957
131,West Ollie Street,79235,33.9735809,-101.3363008
211,West Ollie Street,79235,33.9735438,-101.3365500
213,West Ollie Street,79235,33.9736024,-101.3368369
215,West Ollie Street,79235,33.9736043,-101.3369957
101,West Ollie Street,79235,33.9735640,-101.3349414
105,West Ollie Street,79235,33.9735284,-101.3355222
219,West Ollie Street,79235,33.9735861,-101.3371674
223,West Ollie Street,79235,33.9735091,-101.3376024
114,West Jeffie Street,79235,33.9760007,-101.3354383
126,West Jeffie Street,79235,33.9759522,-101.3356255
124,West Jeffie Street,79235,33.9759787,-101.3357864
130,West Jeffie Street,79235,33.9759899,-101.3360745
215,East Jeffie Street,79235,33.9760697,-101.3320076
211,East Jeffie Street,79235,33.9760067,-101.3323600
205,East Jeffie Street,79235,33.9760263,-101.3327464
203,East Jeffie Street,79235,33.9760380,-101.3329528
917,South Wall Street,79235,33.9760807,-101.3331194
914,South Wall Street,79235,33.9762067,-101.3335394
918,South Wall Street,79235,33.9760553,-101.3335742
913,South Main Street,79235,33.9762152,-101.3344477
915,South Main Street,79235,33.9760225,-101.3343071
115,West Jeffie Street,79235,33.9756229,-101.3354155
123,West Jeffie Street,79235,33.9756153,-101.3357848
127,West Jeffie Street,79235,33.9756088,-101.3359507
129,West Jeffie Street,79235,33.9755569,-101.3360979
111,West Hallie Street,79235,33.9745301,-101.3352169
109,West Hallie Street,79235,33.9745781,-101.3353969
212,East Hallie Street,79235,33.9746457,-101.3319713
210,East Hallie Street,79235,33.9746422,-101.3321562
208,East Hallie Street,79235,33.9746418,-101.3323372
206,East Hallie Street,79235,33.9746465,-101.3325260
204,East Hallie Street,79235,33.9746286,-101.3328504
202,East Hallie Street,79235,33.9745823,-101.3330957
129,West Hallie Street,79235,33.9745782,-101.3360339
124,West Hallie Street,79235,33.9750384,-101.3360425
904,South Wall Street,79235,33.9764410,-101.3335711
902,South Wall Street,79235,33.9765961,-101.3336062
911,South Main Street,79235,33.9763936,-101.3345201
918,South Main Street,79235,33.9759634,-101.3350085
912,South Main Street,79235,33.9761649,-101.3350080
900,South Main Street,79235,33.9766071,-101.3350536
820,South Main Street,79235,33.9769670,-101.3350155
108,West Marivena Street,79235,33.9770013,-101.3354394
117,West Marivena Street,79235,33.9765439,-101.3354470
131,West Marivena Street,79235,33.9765718,-101.3361262
119,West Marivena Street,79235,33.9765855,-101.3356507
110,West Marivena Street,79235,33.9769552,-101.3356448
130,West Marivena Street,79235,33.9769703,-101.3361436
209,East Marivena Street,79235,33.9770386,-101.3326797
818,South Wall Street,79235,33.9769818,-101.3336563
202,East Marivena Street,79235,33.9765544,-101.3331087
208,East Marivena Street,79235,33.9765980,-101.3327708
210,East Marivena Street,79235,33.9766073,-101.3326050
224,East Marivena Street,79235,33.9764453,-101.3322168
226,East Marivena Street,79235,33.9766069,-101.3319970
818,South 8th Street,79235,33.9770162,-101.3319594
115,East Hallie Street,79235,33.9749733,-101.3340843
105,East Hallie Street,79235,33.9750276,-101.3342736
106,East Jeffie Street,79235,33.9756047,-101.3341597
207,East Hallie Street,79235,33.9750338,-101.3325284
1020,South Wall Street,79235,33.9749822,-101.3336066
205,East Hallie Street,79235,33.9750269,-101.3327158
214,East Jeffie Street,79235,33.9756067,-101.3319882
212,East Jeffie Street,79235,33.9756341,-101.3321663
210,East Jeffie Street,79235,33.9756017,-101.3323517
208,East Jeffie Street,79235,33.9756273,-101.3325339
202,East Jeffie Street,79235,33.9755868,-101.3330923
204,East Jeffie Street,79235,33.9756121,-101.3329059
206,East Jeffie Street,79235,33.9756329,-101.3327229
1002,South Main Street,79235,33.9756149,-101.3349433
102,East Jeffie Street,79235,33.9756022,-101.3344772
1116,South Main Street,79235,33.9744383,-101.3349291
1021,South Main Street,79235,33.9750096,-101.3344912
1020,South Main Street,79235,33.9749786,-101.3349653
1102,South Main Street,79235,33.9746168,-101.3349380
123,West Hallie Street,79235,33.9746166,-101.3357459
209,East Hallie Street,79235,33.9750430,-101.3323455
211,East Hallie Street,79235,33.9750384,-101.3321644
213,East Hallie Street,79235,33.9750346,-101.3319750
203,East Hallie Street,79235,33.9750285,-101.3329002
201,East Hallie Street,79235,33.9750396,-101.3330842
110,East Hallie Street,79235,33.9746085,-101.3342737
1100,South Wall Street,79235,33.9746236,-101.3335275
1113A,South 8th Street,79235,33.9740856,-101.3314108
1113B,South 8th Street,79235,33.9740871,-101.3313078
1109A,South 8th Street,79235,33.9742596,-101.3314144
1109B,South 8th Street,79235,33.9742611,-101.3313113
1111B,South 8th Street,79235,33.9741394,-101.3311267
1111A,South 8th Street,79235,33.9742248,-101.3311284
720,West Ollie Street,79235,33.9742578,-101.3435635
1105,South Ralls Highway,79235,33.9748012,-101.3446200
1109,South Ralls Highway,79235,33.9741365,-101.3454945
1208,South Ralls Highway,79235,33.9730907,-101.3479230
1218,South Ralls Highway,79235,33.9721274,-101.3491490
1210,South Ralls Highway,79235,33.9729514,-101.3481886
1212,South Ralls Highway,79235,33.9727040,-101.3483862
1214,South Ralls Highway,79235,33.9724823,-101.3486630
1202,South Ralls Highway,79235,33.9737324,-101.3472862
1206,South Ralls Highway,79235,33.9733278,-101.3476423
1204,South Ralls Highway,79235,33.9735078,-101.3474170
1216,South Ralls Highway,79235,33.9723287,-101.3488668
1220,South Ralls Highway,79235,33.9719219,-101.3493160
1224,South Ralls Highway,79235,33.9715274,-101.3497806
1222,South Ralls Highway,79235,33.9717380,-101.3495204
908,South Garrison Street,79235,33.9758463,-101.3423826
916,South Garrison Street,79235,33.9752341,-101.3424452
914,South Garrison Street,79235,33.9755487,-101.3423906
902,South Garrison Street,79235,33.9761893,-101.3423375
904,South Garrison Street,79235,33.9760504,-101.3423495
910,South Garrison Street,79235,33.9757500,-101.3424033
912,South Garrison Street,79235,33.9756535,-101.3424053
1101,South Ralls Highway,79235,33.9760890,-101.3430054
1103,South Ralls Highway,79235,33.9757564,-101.3432867
331,West Crockett Street,79235,33.9773609,-101.3395174
800,South 3rd Street,79235,33.9775944,-101.3400352
804,South 3rd Street,79235,33.9774377,-101.3400292
806,South 3rd Street,79235,33.9772891,-101.3400321
808,South 3rd Street,79235,33.9771814,-101.3400358
810,South 3rd Street,79235,33.9767200,-101.3401520
901,South Leonard Street,79235,33.9761746,-101.3407098
915,South Leonard Street,79235,33.9755594,-101.3406460
917,South Leonard Street,79235,33.9753200,-101.3406121
1005,South Leonard Street,79235,33.9745379,-101.3405920
916,South Leonard Street,79235,33.9752998,-101.3412368
912,South Leonard Street,79235,33.9755495,-101.3412317
908,South Leonard Street,79235,33.9758692,-101.3412288
902,South Leonard Street,79235,33.9761012,-101.3412818
1003,South Leonard Street,79235,33.9748007,-101.3406960
1104,South 3rd Street,79235,33.9747634,-101.3400532
1102,South 3rd Street,79235,33.9749056,-101.3400546
1108,South 3rd Street,79235,33.9744904,-101.3400914
1106,South 3rd Street,79235,33.9746305,-101.3400932
1110,South 3rd Street,79235,33.9743569,-101.3400902
1112,South 3rd Street,79235,33.9742168,-101.3400883
1116,South 3rd Street,79235,33.9739457,-101.3400438
1114,South 3rd Street,79235,33.9740838,-101.3400472
416,West Ollie Street,79235,33.9739969,-101.3406117
530,West Ollie Street,79235,33.9740179,-101.3417907
1025,South Garrison Street,79235,33.9742708,-101.3417641
1026,South Leonard Street,79235,33.9741617,-101.3411963
1024,South Leonard Street,79235,33.9743318,-101.3411667
1022,South Leonard Street,79235,33.9745189,-101.3411812
1004,South Leonard Street,79235,33.9748875,-101.3412311
507,West Burrus Street,79235,33.9748304,-101.3418651
915,South Garrison Street,79235,33.9752888,-101.3417858
911,South Garrison Street,79235,33.9755029,-101.3418048
907,South Garrison Street,79235,33.9757204,-101.3418135
901,South Garrison Street,79235,33.9761592,-101.3418467
905,South Garrison Street,79235,33.9759441,-101.3418099
1110,South 4th Street,79235,33.9743821,-101.3381945
328,West Ollie Street,79235,33.9740055,-101.3392646
316,West Ollie Street,79235,33.9740076,-101.3390289
306,West Ollie Street,79235,33.9740096,-101.3386006
308,West Ollie Street,79235,33.9740266,-101.3387702
302,West Ollie Street,79235,33.9739831,-101.3381641
1118,South 4th Street,79235,33.9741854,-101.3381806
330,West Ollie Street,79235,33.9740335,-101.3395505
1115,South 3rd Street,79235,33.9743355,-101.3395938
336,West Hallie Street,79235,33.9749574,-101.3393147
337,West Hallie Street,79235,33.9745428,-101.3395778
311,West Hallie Street,79235,33.9745652,-101.3386047
315,West Hallie Street,79235,33.9745775,-101.3387681
317,West Hallie Street,79235,33.9745781,-101.3389634
319,West Hallie Street,79235,33.9745755,-101.3392265
316,West Hallie Street,79235,33.9749510,-101.3389528
320,West Hallie Street,79235,33.9749577,-101.3391179
338,West Hallie Street,79235,33.9749526,-101.3395738
1006,South 4th Street,79235,33.9754838,-101.3383953
312,West Hallie Street,79235,33.9749643,-101.3386280
1026,South 4th Street,79235,33.9749355,-101.3381361
1022,South 4th Street,79235,33.9750595,-101.3381590
1010,South 4th Street,79235,33.9752257,-101.3381220
1002,South 4th Street,79235,33.9756372,-101.3381331
910,South 4th Street,79235,33.9759648,-101.3381749
908,South 4th Street,79235,33.9761403,-101.3381484
906,South 4th Street,79235,33.9763119,-101.3381804
904,South 4th Street,79235,33.9764762,-101.3381857
314,West Jeffie Street,79235,33.9759563,-101.3386706
320,West Jeffie Street,79235,33.9759734,-101.3389080
315,West Jeffie Street,79235,33.9755346,-101.3387817
313,West Jeffie Street,79235,33.9755608,-101.3386240
317,West Jeffie Street,79235,33.9755680,-101.3389488
322,West Jeffie Street,79235,33.9759465,-101.3391082
324,West Jeffie Street,79235,33.9759388,-101.3392812
328,West Jeffie Street,79235,33.9759544,-101.3394372
323,West Jeffie Street,79235,33.9755439,-101.3391237
325,West Jeffie Street,79235,33.9755621,-101.3393991
327,West Jeffie Street,79235,33.9755580,-101.3396093
1006,South 3rd Street,79235,33.9752432,-101.3400776
1004,South 3rd Street,79235,33.9754354,-101.3400883
1005,South 4th Street,79235,33.9755304,-101.3375546
1002,South 3rd Street,79235,33.9755945,-101.3400747
618,Whirlwind Alley,79235,33.9790988,-101.3452381
215,North White Street,79235,33.9876985,-101.3454661
905,West Crockett Street,79235,33.9766445,-101.3494711
925,West Crockett Street,79235,33.9771162,-101.3505821
901,West Crockett Street,79235,33.9773598,-101.3497426
730,West Georgia Street,79235,33.9800815,-101.3458241
718,West Georgia Street,79235,33.9801159,-101.3455234
716,West Georgia Street,79235,33.9800983,-101.3452851
714,West Georgia Street,79235,33.9801265,-101.3450001
506,South White Street,79235,33.9801589,-101.3445498
505,South White Street,79235,33.9801894,-101.3439248
610,West Georgia Street,79235,33.9801499,-101.3435520
517,West Tennessee Street,79235,33.9807281,-101.3420316
521,West Tennessee Street,79235,33.9806716,-101.3423984
513,West Tennessee Street,79235,33.9807596,-101.3416352
502,South 2nd Street,79235,33.9806867,-101.3414384
508,West California Street,79235,33.9846466,-101.3416097
420,South 2nd Street,79235,33.9813805,-101.3414499
516,South 1st Street,79235,33.9802459,-101.3432016
507,West Georgia Street,79235,33.9796808,-101.3417591
508,South 2nd Street,79235,33.9801885,-101.3414345
502,West Georgia Street,79235,33.9802282,-101.3416166
508,West Georgia Street,79235,33.9801973,-101.3417948
530,West Georgia Street,79235,33.9802293,-101.3423112
411,West Houston Street,79235,33.9783937,-101.3406288
500,West Houston Street,79235,33.9792074,-101.3418613
416,West Crockett Street,79235,33.9779477,-101.3401953
420,West Crockett Street,79235,33.9779330,-101.3403536
409,East Kentucky Street,79235,33.9827701,-101.3288241
301,East Missouri Street,79235,33.9858690,-101.3315805
800,West Marivena Street,79235,33.9768313,-101.3467968
802,West Marivena Street,79235,33.9767681,-101.3471608
804,West Marivena Street,79235,33.9767541,-101.3474145
806,West Marivena Street,79235,33.9767376,-101.3479110
808,West Marivena Street,79235,33.9767325,-101.3481604
810,West Marivena Street,79235,33.9767472,-101.3484137
812,West Marivena Street,79235,33.9767504,-101.3486118
803,West Crockett Street,79235,33.9773431,-101.3472344
899,West Crockett Street,79235,33.9772868,-101.3482752
907,West Houston Street,79235,33.9784421,-101.3492314
906,West Houston Street,79235,33.9790377,-101.3489107
902,West Crockett Street,79235,33.9779469,-101.3482785
904,West Crockett Street,79235,33.9779119,-101.3486865
906,West Crockett Street,79235,33.9778904,-101.3491226
910,West Crockett Street,79235,33.9779116,-101.3495403
909,West Houston Street,79235,33.9784329,-101.3495647
901,West Houston Street,79235,33.9784703,-101.3482447
903,West Houston Street,79235,33.9784554,-101.3485720
905,West Houston Street,79235,33.9784431,-101.3489037
902,West Houston Street,79235,33.9790403,-101.3482494
904,West Houston Street,79235,33.9790432,-101.3485816
908,West Houston Street,79235,33.9790194,-101.3492418
901,West Georgia Street,79235,33.9795548,-101.3482513
903,West Georgia Street,79235,33.9795445,-101.3485865
905,West Georgia Street,79235,33.9795501,-101.3489204
907,West Georgia Street,79235,33.9795701,-101.3492469
909,West Georgia Street,79235,33.9795364,-101.3495786
910,West Georgia Street,79235,33.9801286,-101.3495801
908,West Georgia Street,79235,33.9801307,-101.3492384
906,West Georgia Street,79235,33.9801137,-101.3489234
904,West Georgia Street,79235,33.9801411,-101.3485960
902,West Georgia Street,79235,33.9801472,-101.3482535
818,West Georgia Street,79235,33.9801121,-101.3476210
814,West Georgia Street,79235,33.9801043,-101.3473117
810,West Georgia Street,79235,33.9801597,-101.3470157
804,West Georgia Street,79235,33.9801305,-101.3467079
800,West Georgia Street,79235,33.9801548,-101.3463553
629,West Tennessee Street,79235,33.9807330,-101.3439265
904,West Missouri Street,79235,33.9857968,-101.3487955
901,West Missouri Street,79235,33.9850836,-101.3485845
909,West Missouri Street,79235,33.9851161,-101.3495283
909,West California Street,79235,33.9839438,-101.3495908
900,West California Street,79235,33.9846478,-101.3483701
910,West California Street,79235,33.9846075,-101.3494970
902,West Mississippi Street,79235,33.9834548,-101.3487606
904,West Mississippi Street,79235,33.9834281,-101.3491731
906,West Mississippi Street,79235,33.9834451,-101.3495848
900,West Mississippi Street,79235,33.9834421,-101.3483478
901,West Mississippi Street,79235,33.9827959,-101.3483320
903,West Mississippi Street,79235,33.9828429,-101.3487464
905,West Mississippi Street,79235,33.9828177,-101.3491757
907,West Mississippi Street,79235,33.9828430,-101.3495773
920,West Kentucky Street,79235,33.9823211,-101.3495620
906,West Kentucky Street,79235,33.9823281,-101.3491577
901,West Kentucky Street,79235,33.9817522,-101.3483277
907,West Kentucky Street,79235,33.9817258,-101.3495593
908,West Tennessee Street,79235,33.9812620,-101.3495753
906,West Tennessee Street,79235,33.9812336,-101.3491411
904,West Tennessee Street,79235,33.9812265,-101.3487316
902,West Tennessee Street,79235,33.9812173,-101.3483390
901,West Tennessee Street,79235,33.9806365,-101.3482925
903,West Tennessee Street,79235,33.9806477,-101.3487231
905,West Tennessee Street,79235,33.9806328,-101.3491355
907,West Tennessee Street,79235,33.9806180,-101.3495071
802,West Cedar Street,79235,33.9755905,-101.3467112
804,West Cedar Street,79235,33.9756316,-101.3470898
806,West Cedar Street,79235,33.9755871,-101.3473239
808,West Cedar Street,79235,33.9755853,-101.3475217
810,West Cedar Street,79235,33.9756125,-101.3477166
812,West Cedar Street,79235,33.9755807,-101.3479339
816,West Cedar Street,79235,33.9756027,-101.3481328
818,West Cedar Street,79235,33.9755485,-101.3483318
820,West Cedar Street,79235,33.9755968,-101.3485368
1011,South Menefee Street,79235,33.9750253,-101.3461434
801,West Cedar Street,79235,33.9751000,-101.3467231
807,West Cedar Street,79235,33.9750970,-101.3470219
809,West Cedar Street,79235,33.9751107,-101.3472675
811,West Cedar Street,79235,33.9750739,-101.3474654
813,West Cedar Street,79235,33.9751022,-101.3476726
815,West Cedar Street,79235,33.9750730,-101.3478874
817,West Cedar Street,79235,33.9750938,-101.3481098
819,West Cedar Street,79235,33.9750795,-101.3483384
821,West Cedar Street,79235,33.9750699,-101.3485539
819,West Mesquite Street,79235,33.9742045,-101.3482187
802,West Mesquite Street,79235,33.9746849,-101.3467338
804,West Mesquite Street,79235,33.9746970,-101.3469989
806,West Mesquite Street,79235,33.9746991,-101.3473035
810,West Mesquite Street,79235,33.9747007,-101.3476580
812,West Mesquite Street,79235,33.9747163,-101.3479990
816,West Mesquite Street,79235,33.9746811,-101.3482585
818,West Mesquite Street,79235,33.9746958,-101.3485260
821,West Mesquite Street,79235,33.9741919,-101.3485033
813,West Mesquite Street,79235,33.9742216,-101.3479409
809,West Mesquite Street,79235,33.9742176,-101.3476606
807,West Mesquite Street,79235,33.9742208,-101.3473812
803,West Mesquite Street,79235,33.9742040,-101.3471016
801,West Mesquite Street,79235,33.9742143,-101.3467682
1116,South Ralls Highway,79235,33.9745270,-101.3461688
1114,South Ralls Highway,79235,33.9747234,-101.3460655
1112,South Ralls Highway,79235,33.9749690,-101.3457916
1102,South Ralls Highway,79235,33.9756536,-101.3448522
1110,South Ralls Highway,79235,33.9752295,-101.3455335
1009,South Menefee Street,79235,33.9752781,-101.3460441
1009,South Menefee Street,79235,33.9753620,-101.3460455
1009,South Menefee Street,79235,33.9751829,-101.3461561
1009,South Menefee Street,79235,33.9751818,-101.3462592
1009,South Menefee Street,79235,33.9754547,-101.3461604
1009,South Menefee Street,79235,33.9754536,-101.3462636
1005A,South Menefee Street,79235,33.9757490,-101.3462151
1005B,South Menefee Street,79235,33.9756894,-101.3462142
1007B,South Menefee Street,79235,33.9755542,-101.3462120
1007A,South Menefee Street,79235,33.9756138,-101.3462130
306,South White Street,79235,33.9824744,-101.3446171
728,West Kentucky Street,79235,33.9823280,-101.3458389
704,West Kentucky Street,79235,33.9822854,-101.3446100
712,West Kentucky Street,79235,33.9823032,-101.3449765
404,South White Street,79235,33.9818185,-101.3448135
723,West Kentucky Street,79235,33.9817824,-101.3455013
725,West Kentucky Street,79235,33.9817894,-101.3458619
724,West Tennessee Street,79235,33.9812479,-101.3453488
725,West Tennessee Street,79235,33.9807020,-101.3455405
729,West Tennessee Street,79235,33.9807006,-101.3458531
209,South Tree Street,79235,33.9838374,-101.3459317
740,West Mississippi Street,79235,33.9834715,-101.3458056
206,South White Street,79235,33.9833988,-101.3445734
204,South White Street,79235,33.9836159,-101.3445814
716,West Mississippi Street,79235,33.9835127,-101.3450325
736,West Mississippi Street,79235,33.9834511,-101.3453671
202,South White Street,79235,33.9839875,-101.3446462
711,West California Street,79235,33.9840019,-101.3451659
719,West California Street,79235,33.9840297,-101.3458878
715,West California Street,79235,33.9839902,-101.3455530
704,West California Street,79235,33.9845438,-101.3446294
714,West California Street,79235,33.9845999,-101.3451979
716,West California Street,79235,33.9845907,-101.3455244
718,West California Street,79235,33.9846056,-101.3458565
302,South White Street,79235,33.9829238,-101.3446252
711,West Mississippi Street,79235,33.9829135,-101.3452483
806,West California Street,79235,33.9846091,-101.3467644
802,West California Street,79235,33.9845958,-101.3464459
810,West California Street,79235,33.9846061,-101.3470418
820,West California Street,79235,33.9846038,-101.3476655
812,West Mississippi Street,79235,33.9834936,-101.3466126
816,West Mississippi Street,79235,33.9834391,-101.3469272
820,West Mississippi Street,79235,33.9834511,-101.3472694
715,West Kentucky Street,79235,33.9818293,-101.3451796
714,West Kentucky Street,79235,33.9823055,-101.3452128
716,West Kentucky Street,79235,33.9823139,-101.3455158
715,West Mississippi Street,79235,33.9828102,-101.3455481
717,West Mississippi Street,79235,33.9829244,-101.3458395
800,West Mississippi Street,79235,33.9834909,-101.3463687
838,West Mississippi Street,79235,33.9834658,-101.3477020
805,West California Street,79235,33.9840134,-101.3464340
807,West California Street,79235,33.9840056,-101.3468501
811,West California Street,79235,33.9839945,-101.3472317
815,West California Street,79235,33.9839185,-101.3476430
800,West Kentucky Street,79235,33.9824075,-101.3465097
816,West Kentucky Street,79235,33.9823336,-101.3468711
818,West Kentucky Street,79235,33.9823373,-101.3472478
308,South Tree Street,79235,33.9828464,-101.3465480
815,West Mississippi Street,79235,33.9828824,-101.3469200
825,West Mississippi Street,79235,33.9828793,-101.3472682
833,West Mississippi Street,79235,33.9828704,-101.3476867
820,West Kentucky Street,79235,33.9823136,-101.3476019
819,West Kentucky Street,79235,33.9817917,-101.3469149
827,West Kentucky Street,79235,33.9817770,-101.3476310
825,West Kentucky Street,79235,33.9817945,-101.3472265
836,West Tennessee Street,79235,33.9812430,-101.3476761
830,West Tennessee Street,79235,33.9811964,-101.3473772
824,West Tennessee Street,79235,33.9811890,-101.3470564
800,West Tennessee Street,79235,33.9812022,-101.3463659
814,West Tennessee Street,79235,33.9812287,-101.3467059
801,West Tennessee Street,79235,33.9806980,-101.3463714
815,West Tennessee Street,79235,33.9806915,-101.3467820
825,West Tennessee Street,79235,33.9806964,-101.3471968
833,West Tennessee Street,79235,33.9806930,-101.3475839
629,West Missouri Street,79235,33.9852202,-101.3440537
625,West Missouri Street,79235,33.9852139,-101.3438836
621,West Missouri Street,79235,33.9852142,-101.3437213
617,West Missouri Street,79235,33.9852093,-101.3435979
615,West Missouri Street,79235,33.9851921,-101.3434122
529,West Missouri Street,79235,33.9852429,-101.3425125
515,West Missouri Street,79235,33.9852374,-101.3418374
519,West Missouri Street,79235,33.9852349,-101.3420154
521,West Missouri Street,79235,33.9852449,-101.3421876
102,South 1st Street,79235,33.9852415,-101.3430372
110,South 1st Street,79235,33.9850147,-101.3430493
112,South 1st Street,79235,33.9847865,-101.3430826
115,South 1st Street,79235,33.9847672,-101.3424968
516,West California Street,79235,33.9846450,-101.3419468
522,West California Street,79235,33.9845660,-101.3424845
120,South 1st Street,79235,33.9845812,-101.3431375
616,West California Street,79235,33.9845773,-101.3435829
618,West California Street,79235,33.9845448,-101.3437447
622,West California Street,79235,33.9845681,-101.3439000
626,West California Street,79235,33.9845847,-101.3440654
630,West Mississippi Street,79235,33.9834785,-101.3440680
628,West Mississippi Street,79235,33.9833910,-101.3438560
620,West Mississippi Street,79235,33.9834459,-101.3437309
602,West Mississippi Street,79235,33.9833930,-101.3430074
606,West Mississippi Street,79235,33.9834081,-101.3432976
616,West Mississippi Street,79235,33.9834036,-101.3435401
302,South 2nd Street,79235,33.9828955,-101.3414309
515,West Mississippi Street,79235,33.9829178,-101.3417173
521,West Mississippi Street,79235,33.9829399,-101.3420582
809,West Missouri Street,79235,33.9851576,-101.3467758
815,West Missouri Street,79235,33.9851568,-101.3470254
819,West Missouri Street,79235,33.9851098,-101.3476478
518,West Mississippi Street,79235,33.9834335,-101.3419878
522,West Mississippi Street,79235,33.9834764,-101.3421433
528,West Mississippi Street,79235,33.9834425,-101.3423095
530,West Mississippi Street,79235,33.9834244,-101.3424852
214,South 1st Street,79235,33.9836493,-101.3429718
517,West California Street,79235,33.9839932,-101.3419521
208,South 1st Street,79235,33.9838779,-101.3429764
202,South 1st Street,79235,33.9840933,-101.3429805
519,West California Street,79235,33.9840665,-101.3421832
529,West California Street,79235,33.9840225,-101.3424404
615,West California Street,79235,33.9840302,-101.3433882
619,West California Street,79235,33.9840426,-101.3436216
627,West California Street,79235,33.9840490,-101.3440671
629,West Mississippi Street,79235,33.9828535,-101.3439988
625,West Mississippi Street,79235,33.9828993,-101.3436251
615,West Mississippi Street,79235,33.9829218,-101.3433254
603,West Mississippi Street,79235,33.9828665,-101.3429399
615,West Kentucky Street,79235,33.9817891,-101.3433629
621,West Kentucky Street,79235,33.9817806,-101.3436301
525,West Mississippi Street,79235,33.9829489,-101.3424864
220,South 2nd Street,79235,33.9835359,-101.3416622
625,West Kentucky Street,79235,33.9817819,-101.3439393
613,West Kentucky Street,79235,33.9818047,-101.3432069
605,West Kentucky Street,79235,33.9817392,-101.3429772
512,West Kentucky Street,79235,33.9823579,-101.3419502
521,West Kentucky Street,79235,33.9818427,-101.3421256
529,West Kentucky Street,79235,33.9817809,-101.3424405
515,West Kentucky Street,79235,33.9818753,-101.3418470
610,West Kentucky Street,79235,33.9823618,-101.3432207
522,West Kentucky Street,79235,33.9824088,-101.3423570
600,West Kentucky Street,79235,33.9823582,-101.3429995
616,West Kentucky Street,79235,33.9823690,-101.3436424
620,West Kentucky Street,79235,33.9824282,-101.3439469
721,West Tennessee Street,79235,33.9806407,-101.3452448
424,South White Street,79235,33.9813976,-101.3445866
428,South White Street,79235,33.9811933,-101.3446007
716,West Tennessee Street,79235,33.9811888,-101.3449221
720,West Tennessee Street,79235,33.9811879,-101.3450874
736,West Tennessee Street,79235,33.9812215,-101.3458395
730,West Tennessee Street,79235,33.9811792,-101.3455799
717,West Tennessee Street,79235,33.9807119,-101.3449507
504,South White Street,79235,33.9805317,-101.3445615
500,South White Street,79235,33.9808136,-101.3445675
618,West Tennessee Street,79235,33.9812398,-101.3437719
606,West Tennessee Street,79235,33.9812295,-101.3431810
616,West Tennessee Street,79235,33.9812647,-101.3434228
518,West Tennessee Street,79235,33.9812562,-101.3421551
516,West Tennessee Street,79235,33.9812100,-101.3419531
514,West Tennessee Street,79235,33.9813050,-101.3417826
630,West Tennessee Street,79235,33.9812670,-101.3440000
600,West Tennessee Street,79235,33.9812135,-101.3428793
520,West Tennessee Street,79235,33.9812299,-101.3424670
500,South 1st Street,79235,33.9807749,-101.3429911
625,West Tennessee Street,79235,33.9807612,-101.3435951
230,West Marivena Street,79235,33.9769466,-101.3376748
224,West Marivena Street,79235,33.9769662,-101.3374641
216,West Marivena Street,79235,33.9769882,-101.3370363
214,West Marivena Street,79235,33.9769216,-101.3368801
816,South 5th Street,79235,33.9770291,-101.3366296
223,West Crockett Street,79235,33.9775473,-101.3373613
228,West Crockett Street,79235,33.9779801,-101.3375616
230,West Crockett Street,79235,33.9779981,-101.3377029
720,South 5th Street,79235,33.9779419,-101.3365664
216,West Crockett Street,79235,33.9779460,-101.3370329
214,West Crockett Street,79235,33.9779788,-101.3368489
215,West Crockett Street,79235,33.9775110,-101.3370449
203,West Kentucky Street,79235,33.9818104,-101.3369318
228,West Tennessee Street,79235,33.9812483,-101.3377672
202,West Tennessee Street,79235,33.9812694,-101.3365994
214,West Tennessee Street,79235,33.9812422,-101.3371522
220,West Tennessee Street,79235,33.9812765,-101.3373702
510,South 4th Street,79235,33.9806539,-101.3381552
700,South 5th Street,79235,33.9786576,-101.3365821
207,West Houston Street,79235,33.9786361,-101.3367528
209,West Houston Street,79235,33.9786214,-101.3370059
301,West Houston Street,79235,33.9786460,-101.3381253
325,West Houston Street,79235,33.9786165,-101.3389569
329,West Houston Street,79235,33.9786121,-101.3392724
704,South 3rd Street,79235,33.9783779,-101.3398179
413,West Houston Street,79235,33.9785938,-101.3402014
305,West Houston Street,79235,33.9786420,-101.3382905
229,West Houston Street,79235,33.9786367,-101.3377184
225,West Houston Street,79235,33.9786335,-101.3375653
217,West Houston Street,79235,33.9786300,-101.3372215
221,West Houston Street,79235,33.9786105,-101.3373734
312,West Georgia Street,79235,33.9801418,-101.3383602
305,West Georgia Street,79235,33.9797251,-101.3384722
303,West Georgia Street,79235,33.9797419,-101.3383309
309,West Georgia Street,79235,33.9796860,-101.3386754
321,West Georgia Street,79235,33.9796913,-101.3389415
327,West Georgia Street,79235,33.9796593,-101.3392877
605,South 4th Street,79235,33.9795362,-101.3377352
301,West Georgia Street,79235,33.9797062,-101.3381596
130,West Tennessee Street,79235,33.9812947,-101.3361664
208,West Tennessee Street,79235,33.9812845,-101.3369085
305,West Tennessee Street,79235,33.9808610,-101.3381830
604,South 3rd Street,79235,33.9796527,-101.3398454
614,South 3rd Street,79235,33.9792157,-101.3398114
324,West Houston Street,79235,33.9790371,-101.3390561
316,West Houston Street,79235,33.9790601,-101.3386231
322,West Houston Street,79235,33.9790615,-101.3387927
314,West Houston Street,79235,33.9790465,-101.3382142
107,West Tennessee Street,79235,33.9808499,-101.3356246
505,South 5th Street,79235,33.9807598,-101.3361263
509,South 5th Street,79235,33.9801963,-101.3361091
221,West Georgia Street,79235,33.9797306,-101.3373950
227,West Georgia Street,79235,33.9797621,-101.3377327
209,West Georgia Street,79235,33.9797195,-101.3370957
602,South 5th Street,79235,33.9797664,-101.3366183
203,West Crockett Street,79235,33.9775440,-101.3366043
211,West Crockett Street,79235,33.9775447,-101.3368660
229,West Crockett Street,79235,33.9775348,-101.3376987
222,West Houston Street,79235,33.9792805,-101.3375603
210,West Houston Street,79235,33.9793174,-101.3370613
206,West Houston Street,79235,33.9791359,-101.3366868
225,East Crockett Street,79235,33.9780562,-101.3320084
817,South Wall Street,79235,33.9769524,-101.3330758
801,South Wall Street,79235,33.9776200,-101.3329933
226,East Crockett Street,79235,33.9776283,-101.3320055
208,East Houston Street,79235,33.9786528,-101.3327847
704,South Wall Street,79235,33.9785671,-101.3336747
708,South Wall Street,79235,33.9784336,-101.3337327
721,South Wall Street,79235,33.9780022,-101.3330218
720,South Wall Street,79235,33.9779774,-101.3336413
712,South Wall Street,79235,33.9782188,-101.3336961
302,East Crockett Street,79235,33.9775728,-101.3314644
801,South Main Street,79235,33.9775522,-101.3344798
702,South Main Street,79235,33.9786362,-101.3350590
717,South Main Street,79235,33.9781009,-101.3344584
714,South Main Street,79235,33.9781836,-101.3350597
800,South Wall Street,79235,33.9776071,-101.3336238
812,South Wall Street,79235,33.9771840,-101.3335965
128,West Houston Street,79235,33.9791125,-101.3361432
618,South Main Street,79235,33.9790963,-101.3351329
116,West Houston Street,79235,33.9790741,-101.3356064
122,West Houston Street,79235,33.9790992,-101.3358724
704,South Main Street,79235,33.9784330,-101.3350699
117,West Houston Street,79235,33.9786413,-101.3356533
121,West Houston Street,79235,33.9786495,-101.3358548
129,West Houston Street,79235,33.9785948,-101.3360893
128,West Crockett Street,79235,33.9780261,-101.3361258
102,East Houston Street,79235,33.9784743,-101.3343800
814,South Main Street,79235,33.9771368,-101.3350083
118,West Crockett Street,79235,33.9779885,-101.3356141
800,South Main Street,79235,33.9775810,-101.3350126
115,West Crockett Street,79235,33.9775623,-101.3354321
119,West Crockett Street,79235,33.9775749,-101.3356519
125,West Crockett Street,79235,33.9775152,-101.3358391
129,West Crockett Street,79235,33.9775264,-101.3360928
812,South 4th Street,79235,33.9769457,-101.3381719
810,South 4th Street,79235,33.9771515,-101.3381926
308,West Marivena Street,79235,33.9769464,-101.3386422
320,West Marivena Street,79235,33.9769084,-101.3396341
318,West Marivena Street,79235,33.9769339,-101.3394634
316,West Marivena Street,79235,33.9769466,-101.3393029
314,West Marivena Street,79235,33.9769393,-101.3391275
312,West Marivena Street,79235,33.9769610,-101.3389623
305,West Marivena Street,79235,33.9766085,-101.3384187
307,West Marivena Street,79235,33.9765831,-101.3386278
309,West Marivena Street,79235,33.9765667,-101.3388100
311,West Marivena Street,79235,33.9765763,-101.3389606
317,West Marivena Street,79235,33.9765549,-101.3394717
328,West Crockett Street,79235,33.9779340,-101.3391246
312,West Crockett Street,79235,33.9779353,-101.3389384
308,West Crockett Street,79235,33.9779316,-101.3386326
303,West Crockett Street,79235,33.9775188,-101.3382830
800,South 4th Street,79235,33.9775060,-101.3381268
304,West Crockett Street,79235,33.9779401,-101.3382951
309,West Crockett Street,79235,33.9775581,-101.3387018
306,West Crockett Street,79235,33.9779271,-101.3384520
302,West Crockett Street,79235,33.9779567,-101.3381012
412,West Crockett Street,79235,33.9781307,-101.3398684
702,US 70,79235,33.9773406,-101.3245673
703,US 70,79235,33.9791474,-101.3242291
400,West Price Street,79235,33.9925400,-101.3399275
720,North 2nd Street,79235,33.9930008,-101.3407186
802,North 2nd Street,79235,33.9938563,-101.3408977
900,North 2nd Street,79235,33.9946168,-101.3404437
901,North 2nd Street,79235,33.9946247,-101.3415838
708,North 2nd Street,79235,33.9928778,-101.3424754
801,North 2nd Street,79235,33.9936788,-101.3418848
314,West Jackson Street,79235,33.9879816,-101.3388865
316,West Jackson Street,79235,33.9879568,-101.3390608
225,West Jackson Street,79235,33.9875167,-101.3375219
301,West Jackson Street,79235,33.9875351,-101.3382575
315,West Jackson Street,79235,33.9875417,-101.3387395
317,West Jackson Street,79235,33.9874965,-101.3389478
329,West Jackson Street,79235,33.9875607,-101.3394141
402,West Jackson Street,79235,33.9879258,-101.3398238
227,West Jackson Street,79235,33.9875707,-101.3376789
309,West Jackson Street,79235,33.9875622,-101.3384903
306,West Jackson Street,79235,33.9879840,-101.3383922
302,West Jackson Street,79235,33.9879956,-101.3382448
208,West Jackson Street,79235,33.9879995,-101.3371737
316,West Lee Street,79235,33.9890937,-101.3387264
313,West Lee Street,79235,33.9886612,-101.3387684
508,West Lee Street,79235,33.9891043,-101.3417261
301,West Lee Street,79235,33.9886392,-101.3382575
403,West Jackson Street,79235,33.9875139,-101.3399857
420,West Jackson Street,79235,33.9880052,-101.3408898
418,West Jackson Street,79235,33.9879865,-101.3406592
416,West Jackson Street,79235,33.9879989,-101.3404968
221,North 3rd Street,79235,33.9875604,-101.3398097
405,West Jackson Street,79235,33.9875418,-101.3401556
415,West Jackson Street,79235,33.9875297,-101.3403075
419,West Jackson Street,79235,33.9875162,-101.3404487
416,West Lee Street,79235,33.9890989,-101.3404592
424,West Lee Street,79235,33.9891982,-101.3406252
505,North 2nd Street,79235,33.9902418,-101.3415831
425,West Jackson Street,79235,33.9875456,-101.3408079
423,West Jackson Street,79235,33.9875443,-101.3406390
429,West Jackson Street,79235,33.9875043,-101.3409520
501,West Jackson Street,79235,33.9875153,-101.3413805
505,West Jackson Street,79235,33.9873887,-101.3415031
509,West Jackson Street,79235,33.9875115,-101.3417316
525,West Jackson Street,79235,33.9875415,-101.3422008
529,West Jackson Street,79235,33.9875251,-101.3425301
502,West Jackson Street,79235,33.9880298,-101.3415539
504,West Jackson Street,79235,33.9879508,-101.3417181
506,West Jackson Street,79235,33.9879415,-101.3418920
512,West Jackson Street,79235,33.9879487,-101.3422187
528,West Jackson Street,79235,33.9879422,-101.3425294
308,North 1st Street,79235,33.9883957,-101.3424883
421,West Lee Street,79235,33.9886203,-101.3404440
303,North 2nd Street,79235,33.9881471,-101.3413969
301,North 2nd Street,79235,33.9879506,-101.3413934
401,North 1st Street,79235,33.9890422,-101.3430346
610,West Lee Street,79235,33.9890375,-101.3433132
614,West Lee Street,79235,33.9890354,-101.3434774
616,West Lee Street,79235,33.9890132,-101.3437004
622,West Lee Street,79235,33.9890124,-101.3443429
621,West Lee Street,79235,33.9886125,-101.3437790
818,West Ross Street,79235,33.9912421,-101.3474571
824,West Ross Street,79235,33.9912160,-101.3477907
815,West Ross Street,79235,33.9907556,-101.3474419
901,West Ross Street,79235,33.9907359,-101.3483628
903,West Ross Street,79235,33.9907331,-101.3486491
905,West Ross Street,79235,33.9907297,-101.3489263
907,West Ross Street,79235,33.9907326,-101.3491968
909,West Ross Street,79235,33.9907195,-101.3494288
825,West Price Street,79235,33.9917830,-101.3477800
804,West Ross Street,79235,33.9911965,-101.3469347
812,West Ross Street,79235,33.9912009,-101.3471966
819,West Ross Street,79235,33.9907367,-101.3477858
809,West Ross Street,79235,33.9907567,-101.3471799
801,West Ross Street,79235,33.9907415,-101.3469156
803,West Grover Street,79235,33.9896494,-101.3469019
809,West Grover Street,79235,33.9896422,-101.3471646
815,West Grover Street,79235,33.9896440,-101.3474422
804,West Grover Street,79235,33.9901206,-101.3469416
812,West Grover Street,79235,33.9901155,-101.3472287
816,West Grover Street,79235,33.9901108,-101.3474767
822,West Grover Street,79235,33.9901102,-101.3477625
902,West Grover Street,79235,33.9901847,-101.3483533
906,West Grover Street,79235,33.9901780,-101.3486429
910,West Grover Street,79235,33.9901571,-101.3496766
800,West Missouri Street,79235,33.9857851,-101.3464694
806,West Missouri Street,79235,33.9857799,-101.3468582
810,West Missouri Street,79235,33.9857773,-101.3472564
820,West Missouri Street,79235,33.9857841,-101.3476457
821,West Grover Street,79235,33.9896300,-101.3477470
813,West Virginia Street,79235,33.9863037,-101.3473189
820,West Virginia Street,79235,33.9868486,-101.3476989
904,West Virginia Street,79235,33.9868724,-101.3487063
902,West Virginia Street,79235,33.9868806,-101.3483502
816,West Virginia Street,79235,33.9867909,-101.3474060
814,West Virginia Street,79235,33.9868039,-101.3471292
809,West Virginia Street,79235,33.9863345,-101.3470233
805,West Virginia Street,79235,33.9863431,-101.3467267
801,West Virginia Street,79235,33.9863211,-101.3464312
812,West Virginia Street,79235,33.9868814,-101.3468619
914,West Lee Street,79235,33.9890931,-101.3493740
901,West Virginia Street,79235,33.9862800,-101.3483262
905,West Virginia Street,79235,33.9862910,-101.3486737
909,West Virginia Street,79235,33.9862870,-101.3490061
911,West Virginia Street,79235,33.9862762,-101.3493364
817,West Virginia Street,79235,33.9863027,-101.3476746
906,West Virginia Street,79235,33.9868538,-101.3490130
908,West Virginia Street,79235,33.9868438,-101.3493416
910,West Virginia Street,79235,33.9868456,-101.3496737
909,West Jackson Street,79235,33.9873793,-101.3496809
907,West Jackson Street,79235,33.9873643,-101.3493490
905,West Jackson Street,79235,33.9873854,-101.3490179
903,West Jackson Street,79235,33.9873825,-101.3486914
901,West Jackson Street,79235,33.9874102,-101.3483568
827,West Jackson Street,79235,33.9874418,-101.3477069
815,West Jackson Street,79235,33.9874718,-101.3473887
811,West Jackson Street,79235,33.9874595,-101.3471399
803,West Jackson Street,79235,33.9874324,-101.3468741
902,West Jackson Street,79235,33.9879847,-101.3483628
906,West Jackson Street,79235,33.9879339,-101.3486965
908,West Jackson Street,79235,33.9879580,-101.3490261
910,West Jackson Street,79235,33.9879309,-101.3493548
912,West Jackson Street,79235,33.9879467,-101.3496865
812,West Jackson Street,79235,33.9879112,-101.3471430
802,West Jackson Street,79235,33.9879562,-101.3468770
816,West Jackson Street,79235,33.9878867,-101.3473877
820,West Jackson Street,79235,33.9879191,-101.3477032
619,West Lee Street,79235,33.9886061,-101.3436257
629,West Lee Street,79235,33.9885684,-101.3440226
618,West Lee Street,79235,33.9890399,-101.3438877
620,West Lee Street,79235,33.9890731,-101.3440456
918,West Lee Street,79235,33.9890901,-101.3496818
912,West Lee Street,79235,33.9890951,-101.3490446
904,West Lee Street,79235,33.9890786,-101.3487105
902,West Lee Street,79235,33.9890941,-101.3483796
804,West Lee Street,79235,33.9890104,-101.3469010
822,West Lee Street,79235,33.9890484,-101.3476572
812,West Lee Street,79235,33.9889982,-101.3471642
816,West Lee Street,79235,33.9890086,-101.3474456
813,West Lee Street,79235,33.9885779,-101.3471828
803,West Lee Street,79235,33.9885574,-101.3468879
815,West Lee Street,79235,33.9885675,-101.3474101
819,West Lee Street,79235,33.9885465,-101.3477135
109,North Main Street,79235,33.9864844,-101.3352050
102,West Virginia Street,79235,33.9869646,-101.3352083
114,West Virginia Street,79235,33.9869170,-101.3359594
111,South 5th Street,79235,33.9848016,-101.3362419
109,South 5th Street,79235,33.9848862,-101.3362288
107,South 5th Street,79235,33.9850377,-101.3362353
105,South 5th Street,79235,33.9851064,-101.3361872
110,North 5th Street,79235,33.9863819,-101.3359650
105,North 5th Street,79235,33.9863636,-101.3367598
202,West Missouri Street,79235,33.9858883,-101.3367227
110,South 5th Street,79235,33.9850510,-101.3366503
102,South 5th Street,79235,33.9852603,-101.3367163
226,West Missouri Street,79235,33.9859313,-101.3375108
215,North 1st Street,79235,33.9873152,-101.3429883
221,North 1st Street,79235,33.9874986,-101.3429901
613,West Jackson Street,79235,33.9875332,-101.3432872
615,West Jackson Street,79235,33.9875065,-101.3434378
617,West Jackson Street,79235,33.9875064,-101.3436236
618,West Virginia Street,79235,33.9869015,-101.3436200
612,West Virginia Street,79235,33.9868486,-101.3434254
608,West Virginia Street,79235,33.9868310,-101.3432868
121,North 1st Street,79235,33.9864569,-101.3430312
613,West Virginia Street,79235,33.9864081,-101.3433224
529,West Virginia Street,79235,33.9863943,-101.3425181
525,West Virginia Street,79235,33.9863949,-101.3423530
515,West Virginia Street,79235,33.9864307,-101.3418580
505,West Virginia Street,79235,33.9864270,-101.3416911
626,West Missouri Street,79235,33.9857377,-101.3440542
624,West Missouri Street,79235,33.9857376,-101.3439081
620,West Missouri Street,79235,33.9857425,-101.3437398
618,West Missouri Street,79235,33.9857369,-101.3435844
101,North 1st Street,79235,33.9857308,-101.3430017
510,West Missouri Street,79235,33.9857413,-101.3417075
514,West Missouri Street,79235,33.9858092,-101.3418281
520,West Missouri Street,79235,33.9858182,-101.3422370
528,West Missouri Street,79235,33.9857580,-101.3425213
512,West Virginia Street,79235,33.9868857,-101.3417688
604,West Jackson Street,79235,33.9879548,-101.3431390
610,West Jackson Street,79235,33.9879333,-101.3432902
614,West Jackson Street,79235,33.9879238,-101.3434430
618,West Jackson Street,79235,33.9879160,-101.3436348
602,West Jackson Street,79235,33.9879431,-101.3429618
628,West Jackson Street,79235,33.9879706,-101.3440747
629,West Jackson Street,79235,33.9874859,-101.3440552
205,North 2nd Street,79235,33.9870655,-101.3414135
203,North 2nd Street,79235,33.9868551,-101.3414643
516,West Virginia Street,79235,33.9868850,-101.3420261
520,West Virginia Street,79235,33.9868979,-101.3421926
720,West Missouri Street,79235,33.9857900,-101.3458710
702,West Missouri Street,79235,33.9858231,-101.3445931
708,West Missouri Street,79235,33.9857983,-101.3448891
710,West Missouri Street,79235,33.9858107,-101.3452155
714,West Missouri Street,79235,33.9857943,-101.3454963
521,West Virginia Street,79235,33.9864034,-101.3421670
109,North 1st Street,79235,33.9859685,-101.3430055
115,North 1st Street,79235,33.9862013,-101.3430159
602,West Virginia Street,79235,33.9868681,-101.3429863
528,West Virginia Street,79235,33.9868812,-101.3425036
624,West Virginia Street,79235,33.9868485,-101.3439360
628,West Virginia Street,79235,33.9868361,-101.3441088
621,West Virginia Street,79235,33.9864101,-101.3435995
623,West Virginia Street,79235,33.9863797,-101.3437715
713,West Virginia Street,79235,33.9863381,-101.3456174
715,West Virginia Street,79235,33.9863598,-101.3458909
629,West Virginia Street,79235,33.9864073,-101.3440653
701,West Virginia Street,79235,33.9863628,-101.3445487
705,West Virginia Street,79235,33.9863523,-101.3448151
709,West Virginia Street,79235,33.9863630,-101.3451022
711,West Virginia Street,79235,33.9863474,-101.3453495
102,South 2nd Street,79235,33.9851845,-101.3414473
108,South 2nd Street,79235,33.9850544,-101.3414269
416,West Missouri Street,79235,33.9857465,-101.3404522
420,West Missouri Street,79235,33.9857769,-101.3406113
618,North 12th Street,79235,33.9920126,-101.3252538
514,East Price Street,79235,33.9919741,-101.3275791
2250,State Highway 207,79235,34.0002135,-101.3283608
401,North 12th Street,79235,33.9893475,-101.3261226
406,North 10th Street,79235,33.9896800,-101.3284787
408,North 10th Street,79235,33.9897699,-101.3284799
606,North 10th Street,79235,33.9916027,-101.3285026
604,North 10th Street,79235,33.9915128,-101.3285015
610,North 11th Street,79235,33.9920437,-101.3274042
407,North 11th Street,79235,33.9897787,-101.3274324
405,North 11th Street,79235,33.9896887,-101.3274312
624,West Grover Street,79235,33.9901294,-101.3441188
622,West Grover Street,79235,33.9901304,-101.3440102
619,West Grover Street,79235,33.9896964,-101.3438761
601,West Grover Street,79235,33.9897102,-101.3430300
420,North 2nd Street,79235,33.9896035,-101.3406930
517,West Ross Street,79235,33.9908297,-101.3425639
515,West Ross Street,79235,33.9907489,-101.3423252
507,West Ross Street,79235,33.9908367,-101.3418966
509,North 2nd Street,79235,33.9907425,-101.3414858
516,West Lee Street,79235,33.9890329,-101.3419046
518,West Lee Street,79235,33.9890295,-101.3420722
403,North 1st Street,79235,33.9892255,-101.3429722
629,West Ross Street,79235,33.9908231,-101.3444023
628,West Ross Street,79235,33.9913014,-101.3443730
610,North 10th Street,79235,33.9918529,-101.3285376
511,East Ross Street,79235,33.9913696,-101.3274624
509,East Ross Street,79235,33.9913688,-101.3276101
503,East Ross Street,79235,33.9913613,-101.3282672
501,East Ross Street,79235,33.9913606,-101.3284149
512,East Grover Street,79235,33.9898396,-101.3276750
510,East Grover Street,79235,33.9898389,-101.3278227
508,East Grover Street,79235,33.9898354,-101.3280874
506,East Grover Street,79235,33.9898346,-101.3282350
605,West Grover Street,79235,33.9897351,-101.3432754
613,West Grover Street,79235,33.9897031,-101.3434556
614,West Grover Street,79235,33.9901289,-101.3438027
600,West Grover Street,79235,33.9901438,-101.3429716
604,West Grover Street,79235,33.9901537,-101.3431624
610,West Grover Street,79235,33.9901542,-101.3433299
509,West Grover Street,79235,33.9896992,-101.3420635
513,West Grover Street,79235,33.9897062,-101.3422125
517,West Grover Street,79235,33.9897251,-101.3425371
510,West Grover Street,79235,33.9901612,-101.3420763
526,West Grover Street,79235,33.9901494,-101.3423905
528,West Grover Street,79235,33.9901763,-101.3426110
724,West Lee Street,79235,33.9889973,-101.3455587
700,West Lee Street,79235,33.9890143,-101.3447141
706,West Lee Street,79235,33.9890525,-101.3448821
718,West Lee Street,79235,33.9890006,-101.3453124
728,West Lee Street,79235,33.9890141,-101.3457471
730,West Lee Street,79235,33.9890315,-101.3460042
732,West Lee Street,79235,33.9889919,-101.3461884
734,West Lee Street,79235,33.9889965,-101.3464220
740,West Grover Street,79235,33.9901019,-101.3464106
738,West Grover Street,79235,33.9901172,-101.3462133
736,West Grover Street,79235,33.9901030,-101.3460472
730,West Grover Street,79235,33.9901508,-101.3458774
726,West Grover Street,79235,33.9901296,-101.3456364
724,West Grover Street,79235,33.9901178,-101.3453468
700,West Grover Street,79235,33.9901212,-101.3447238
702,West Grover Street,79235,33.9901274,-101.3448807
722,West Grover Street,79235,33.9901477,-101.3451129
701,West Grover Street,79235,33.9896942,-101.3447303
703,West Grover Street,79235,33.9897034,-101.3448889
705,West Grover Street,79235,33.9896924,-101.3450548
707,West Grover Street,79235,33.9896833,-101.3452181
715,West Grover Street,79235,33.9896804,-101.3453822
721,West Grover Street,79235,33.9896889,-101.3455515
725,West Grover Street,79235,33.9896742,-101.3457104
729,West Grover Street,79235,33.9896678,-101.3459404
739,West Grover Street,79235,33.9896578,-101.3462041
745,West Grover Street,79235,33.9896549,-101.3464057
600,North 2nd Street,79235,33.9913506,-101.3409293
416,West Ross Street,79235,33.9912574,-101.3403096
621,North 3rd Street,79235,33.9919401,-101.3399309
312,West Ross Street,79235,33.9913681,-101.3394229
421,West Price Street,79235,33.9919400,-101.3403681
608,North 2nd Street,79235,33.9918286,-101.3409089
609,North 2nd Street,79235,33.9918299,-101.3416830
603,North 1st Street,79235,33.9913873,-101.3430396
605,North 1st Street,79235,33.9914698,-101.3430406
621,North 1st Street,79235,33.9918948,-101.3430767
627,West Ross Street,79235,33.9907155,-101.3441859
625,West Ross Street,79235,33.9907467,-101.3439742
604,West Ross Street,79235,33.9912333,-101.3431068
606,West Ross Street,79235,33.9912324,-101.3432545
610,West Ross Street,79235,33.9912292,-101.3434692
612,West Ross Street,79235,33.9912282,-101.3436167
504,North Henry Street,79235,33.9902078,-101.3443183
506,North Henry Street,79235,33.9903304,-101.3443187
701,West Ross Street,79235,33.9907811,-101.3447943
717,West Ross Street,79235,33.9907281,-101.3460594
724,West Ross Street,79235,33.9912220,-101.3461770
718,West Ross Street,79235,33.9912315,-101.3454791
722,West Ross Street,79235,33.9912040,-101.3457899
711,West Ross Street,79235,33.9907822,-101.3454924
740,West Ross Street,79235,33.9912199,-101.3464176
300,West California Street,79235,33.9846569,-101.3382413
308,West California Street,79235,33.9846149,-101.3384798
328,West California Street,79235,33.9846309,-101.3392976
316,West California Street,79235,33.9846347,-101.3388474
322,West California Street,79235,33.9846342,-101.3391146
207,South 2nd Street,79235,33.9841159,-101.3408667
429,West California Street,79235,33.9840962,-101.3407560
417,West California Street,79235,33.9840928,-101.3404220
421,West California Street,79235,33.9840913,-101.3406188
401,West California Street,79235,33.9841121,-101.3398026
415,West California Street,79235,33.9841197,-101.3402252
203,South 4th Street,79235,33.9841070,-101.3378141
227,West California Street,79235,33.9841121,-101.3377095
225,West California Street,79235,33.9841129,-101.3375828
201,West California Street,79235,33.9841091,-101.3366733
217,West California Street,79235,33.9841768,-101.3372119
228,West California Street,79235,33.9845809,-101.3376582
230,West California Street,79235,33.9845914,-101.3377829
226,West California Street,79235,33.9846413,-101.3374328
210,West California Street,79235,33.9846895,-101.3369515
206,West California Street,79235,33.9845627,-101.3368309
200,West California Street,79235,33.9846737,-101.3366805
224,West Virginia Street,79235,33.9868964,-101.3376491
230,West Virginia Street,79235,33.9869238,-101.3378177
209,North Main Street,79235,33.9873542,-101.3352650
211,West Virginia Street,79235,33.9864550,-101.3369659
215,West Virginia Street,79235,33.9864477,-101.3371549
219,West Virginia Street,79235,33.9864539,-101.3373201
225,West Virginia Street,79235,33.9864583,-101.3376603
429,West Mississippi Street,79235,33.9828871,-101.3408805
415,West Mississippi Street,79235,33.9830044,-101.3402508
411,West Mississippi Street,79235,33.9829915,-101.3400777
401,West Mississippi Street,79235,33.9829673,-101.3398068
417,West Mississippi Street,79235,33.9829864,-101.3404198
425,West Mississippi Street,79235,33.9829440,-101.3406831
321,South 3rd Street,79235,33.9822776,-101.3408432
319,South 3rd Street,79235,33.9823550,-101.3408801
317,South 3rd Street,79235,33.9824609,-101.3408821
315,South 3rd Street,79235,33.9825683,-101.3408843
425,West Missouri Street,79235,33.9852544,-101.3407246
429,West Missouri Street,79235,33.9852372,-101.3409459
419,West Missouri Street,79235,33.9852594,-101.3404757
415,West Missouri Street,79235,33.9852529,-101.3402342
409,West Missouri Street,79235,33.9852585,-101.3400841
407,West Missouri Street,79235,33.9852018,-101.3399383
329,West Missouri Street,79235,33.9852510,-101.3393702
325,West Missouri Street,79235,33.9852502,-101.3391244
301,West Missouri Street,79235,33.9851974,-101.3383733
400,West Missouri Street,79235,33.9857883,-101.3397843
402,West Missouri Street,79235,33.9857816,-101.3399687
406,West California Street,79235,33.9846040,-101.3400742
408,West California Street,79235,33.9846245,-101.3402560
418,West California Street,79235,33.9846249,-101.3404988
424,West California Street,79235,33.9846001,-101.3407853
428,West California Street,79235,33.9846521,-101.3409391
314,West Grover Street,79235,33.9902025,-101.3392853
504,North 3rd Street,79235,33.9902008,-101.3394043
400,West Grover Street,79235,33.9901504,-101.3398141
305,West Grover Street,79235,33.9897565,-101.3387041
313,West Grover Street,79235,33.9897352,-101.3390952
428,North 3rd Street,79235,33.9897297,-101.3394021
401,West Grover Street,79235,33.9897353,-101.3397990
413,West Grover Street,79235,33.9897079,-101.3403195
412,West Grover Street,79235,33.9901625,-101.3404900
424,West Virginia Street,79235,33.9868355,-101.3407797
414,West Virginia Street,79235,33.9868542,-101.3402962
420,West Virginia Street,79235,33.9868454,-101.3406205
303,West California Street,79235,33.9841013,-101.3382375
309,West California Street,79235,33.9840996,-101.3385244
311,West California Street,79235,33.9841034,-101.3387908
321,West California Street,79235,33.9840697,-101.3389776
329,West California Street,79235,33.9840135,-101.3392872
420,West Kentucky Street,79235,33.9823254,-101.3405800
418,West Kentucky Street,79235,33.9823305,-101.3404127
416,West Kentucky Street,79235,33.9823097,-101.3402307
414,West Kentucky Street,79235,33.9823517,-101.3399996
405,West Grover Street,79235,33.9897471,-101.3400284
415,West Virginia Street,79235,33.9864392,-101.3403035
421,West Virginia Street,79235,33.9864235,-101.3406100
209,North 3rd Street,79235,33.9870545,-101.3398581
402,West Virginia Street,79235,33.9868392,-101.3398564
410,West Virginia Street,79235,33.9868681,-101.3401310
223,West Virginia Street,79235,33.9864178,-101.3374992
229,West Virginia Street,79235,33.9864555,-101.3378192
318,West Missouri Street,79235,33.9857771,-101.3387125
322,West Missouri Street,79235,33.9857736,-101.3389430
326,West Missouri Street,79235,33.9857675,-101.3393736
324,West Missouri Street,79235,33.9857577,-101.3391672
305,West Virginia Street,79235,33.9864298,-101.3385300
325,West Virginia Street,79235,33.9864637,-101.3392183
319,West Virginia Street,79235,33.9863879,-101.3388858
329,West Virginia Street,79235,33.9864571,-101.3394000
302,West Virginia Street,79235,33.9869052,-101.3382204
306,West Virginia Street,79235,33.9868587,-101.3385603
318,West Virginia Street,79235,33.9868927,-101.3388994
324,West Virginia Street,79235,33.9868379,-101.3390629
328,West Virginia Street,79235,33.9868733,-101.3392839
208,West Virginia Street,79235,33.9868942,-101.3369976
401,East Houston Street,79235,33.9791605,-101.3298526
301,East Houston Street,79235,33.9791393,-101.3313871
307,East Houston Street,79235,33.9791094,-101.3310116
325,East Houston Street,79235,33.9791829,-101.3305740
321,East Houston Street,79235,33.9791811,-101.3306704
304,East Houston Street,79235,33.9785748,-101.3313800
410,East Houston Street,79235,33.9786771,-101.3299282
416,East Houston Street,79235,33.9786910,-101.3291093
320,East Houston Street,79235,33.9785258,-101.3307239
2402,FM 1958,79235,33.9771194,-101.3266843
221,South Wall Street,79235,33.9834904,-101.3330553
210,East California Street,79235,33.9840881,-101.3323257
211,South Wall Street,79235,33.9838971,-101.3330796
119,East Kentucky Street,79235,33.9823456,-101.3338514
119,West Mississippi Street,79235,33.9830496,-101.3358645
116,West Mississippi Street,79235,33.9835031,-101.3356632
118,West Mississippi Street,79235,33.9834770,-101.3358575
128,West Mississippi Street,79235,33.9834659,-101.3361330
421,West Kentucky Street,79235,33.9818840,-101.3405604
419,West Kentucky Street,79235,33.9818499,-101.3404091
415,West Kentucky Street,79235,33.9819068,-101.3402324
409,West Kentucky Street,79235,33.9818899,-101.3400563
401,West Kentucky Street,79235,33.9818795,-101.3397256
222,West Kentucky Street,79235,33.9823847,-101.3374296
214,West Kentucky Street,79235,33.9823857,-101.3370922
216,West Kentucky Street,79235,33.9823803,-101.3372492
228,West Kentucky Street,79235,33.9823824,-101.3377421
309,South 4th Street,79235,33.9825564,-101.3377992
318,West Kentucky Street,79235,33.9823610,-101.3388545
327,West Kentucky Street,79235,33.9819154,-101.3391477
321,West Kentucky Street,79235,33.9819039,-101.3389975
410,South 4th Street,79235,33.9816729,-101.3381591
301,West Kentucky Street,79235,33.9819081,-101.3382345
319,West Kentucky Street,79235,33.9819155,-101.3388317
315,West Kentucky Street,79235,33.9818948,-101.3386654
320,West Kentucky Street,79235,33.9823623,-101.3390280
312,West Kentucky Street,79235,33.9823491,-101.3386787
320,South 4th Street,79235,33.9823714,-101.3382046
308,South 5th Street,79235,33.9828333,-101.3366350
217,West Mississippi Street,79235,33.9830341,-101.3372851
211,West Mississippi Street,79235,33.9830180,-101.3369462
229,West Mississippi Street,79235,33.9830229,-101.3377862
219,West Mississippi Street,79235,33.9830397,-101.3374162
302,South 5th Street,79235,33.9830582,-101.3366433
215,West Mississippi Street,79235,33.9830374,-101.3371076
216,West Mississippi Street,79235,33.9834272,-101.3372791
222,West Mississippi Street,79235,33.9835154,-101.3374353
224,West Mississippi Street,79235,33.9835029,-101.3376295
220,South 4th Street,79235,33.9834138,-101.3382108
310,West Mississippi Street,79235,33.9834321,-101.3385056
318,West Mississippi Street,79235,33.9834519,-101.3388568
328,West Mississippi Street,79235,33.9834240,-101.3393451
325,West Mississippi Street,79235,33.9828659,-101.3392046
321,West Mississippi Street,79235,33.9830060,-101.3389872
328,West Kentucky Street,79235,33.9824445,-101.3393059
301,West Mississippi Street,79235,33.9830044,-101.3381970
305,West Mississippi Street,79235,33.9830174,-101.3383447
315,West Mississippi Street,79235,33.9829852,-101.3387034
422,West Mississippi Street,79235,33.9834889,-101.3405772
414,West Mississippi Street,79235,33.9834159,-101.3402382
406,West Mississippi Street,79235,33.9834411,-101.3400893
416,West Mississippi Street,79235,33.9834229,-101.3403951
402,West Mississippi Street,79235,33.9834819,-101.3398048
503,South Wall Street,79235,33.9808162,-101.3329647
401,South Main Street,79235,33.9816525,-101.3343631
114,West Kentucky Street,79235,33.9823748,-101.3356074
227,West Kentucky Street,79235,33.9818924,-101.3377762
322,West Tennessee Street,79235,33.9812382,-101.3393130
316,West Tennessee Street,79235,33.9812710,-101.3390863
308,West Tennessee Street,79235,33.9812467,-101.3386892
311,West Tennessee Street,79235,33.9808040,-101.3386379
309,West Tennessee Street,79235,33.9807897,-101.3384943
314,West Georgia Street,79235,33.9802086,-101.3385401
316,West Georgia Street,79235,33.9801572,-101.3388788
318,West Georgia Street,79235,33.9801626,-101.3391484
319,West Tennessee Street,79235,33.9808297,-101.3388003
516,South 3rd Street,79235,33.9801230,-101.3397896
514,South 3rd Street,79235,33.9803640,-101.3397980
504,South 3rd Street,79235,33.9806231,-101.3397627
411,West Tennessee Street,79235,33.9808029,-101.3400764
400,West Tennessee Street,79235,33.9812582,-101.3398117
420,West Tennessee Street,79235,33.9812258,-101.3405406
428,West Tennessee Street,79235,33.9812207,-101.3408315
1010,South Wall Street,79235,33.9751962,-101.3335647
300,East Georgia Street,79235,33.9797714,-101.3315281
207,East Houston Street,79235,33.9790764,-101.3327627
112,East Georgia Street,79235,33.9798121,-101.3342126
518,South Wall Street,79235,33.9802714,-101.3336621
522,South Wall Street,79235,33.9801431,-101.3336957
519,South Main Street,79235,33.9804196,-101.3344830
523,South Main Street,79235,33.9801401,-101.3344989
512,South Main Street,79235,33.9804175,-101.3350649
520,South Main Street,79235,33.9801217,-101.3350735
516,South Main Street,79235,33.9802726,-101.3351179
601,South Main Street,79235,33.9798079,-101.3344766
602,South Main Street,79235,33.9797796,-101.3350740
117,West Georgia Street,79235,33.9797332,-101.3355955
123,West Georgia Street,79235,33.9796797,-101.3358319
129,West Georgia Street,79235,33.9794796,-101.3360069
608,South Main Street,79235,33.9795186,-101.3350956
613,South Main Street,79235,33.9795287,-101.3344424
615,South Main Street,79235,33.9793176,-101.3344616
101,East Houston Street,79235,33.9791005,-101.3344960
621,South Wall Street,79235,33.9790557,-101.3330275
615,South Wall Street,79235,33.9793408,-101.3330533
612,South Wall Street,79235,33.9793173,-101.3336608
608,South Wall Street,79235,33.9795315,-101.3336502
602,South Wall Street,79235,33.9797558,-101.3336742
603,South Wall Street,79235,33.9797571,-101.3329685
218,East Georgia Street,79235,33.9797957,-101.3322855
214,East Georgia Street,79235,33.9797851,-101.3324466
211,East Georgia Street,79235,33.9801871,-101.3324377
223,East Georgia Street,79235,33.9802209,-101.3321117
508,South 8th Street,79235,33.9802138,-101.3319208
301,East Georgia Street,79235,33.9802649,-101.3315377
310,East Mississippi Street,79235,33.9830390,-101.3308580
306,East Mississippi Street,79235,33.9830591,-101.3312538
303,East Kentucky Street,79235,33.9824172,-101.3315266
305,East Kentucky Street,79235,33.9824152,-101.3312639
307,East Kentucky Street,79235,33.9823946,-101.3310780
309,East Kentucky Street,79235,33.9823966,-101.3309167
325,East Kentucky Street,79235,33.9824207,-101.3305615
316 1/2,East Kentucky Street,79235,33.9817772,-101.3304486
316,East Kentucky Street,79235,33.9819847,-101.3304148
403,East Georgia Street,79235,33.9802182,-101.3298473
323,East Georgia Street,79235,33.9802893,-101.3307379
321,East Georgia Street,79235,33.9802769,-101.3308470
510,South 9th Street,79235,33.9803038,-101.3304308
330,East Tennessee Street,79235,33.9808791,-101.3304312
326,East Tennessee Street,79235,33.9808994,-101.3306902
310,East Tennessee Street,79235,33.9808864,-101.3308968
306,East Tennessee Street,79235,33.9808829,-101.3311616
302,East Tennessee Street,79235,33.9808900,-101.3314947
519,South Wall Street,79235,33.9802937,-101.3330745
505,South 8th Street,79235,33.9806560,-101.3314987
503,South 8th Street,79235,33.9807459,-101.3314999
226,East Tennessee Street,79235,33.9808377,-101.3320010
212,East Tennessee Street,79235,33.9808927,-101.3325428
504,South Wall Street,79235,33.9807166,-101.3336893
108,East Tennessee Street,79235,33.9807823,-101.3341745
501,South Main Street,79235,33.9808701,-101.3344528
502,South Main Street,79235,33.9808559,-101.3351109
114,West Tennessee Street,79235,33.9812568,-101.3356409
124,West Tennessee Street,79235,33.9812749,-101.3358360
128,West Tennessee Street,79235,33.9812790,-101.3359950
407,South 5th Street,79235,33.9815213,-101.3362087
111,North Wall Street,79235,33.9863015,-101.3337733
402,South Main Street,79235,33.9819684,-101.3350981
408,South Main Street,79235,33.9817479,-101.3350897
412,South Main Street,79235,33.9815068,-101.3351227
115,West Kentucky Street,79235,33.9819062,-101.3356306
117,West Kentucky Street,79235,33.9819039,-101.3358468
127,West Kentucky Street,79235,33.9818287,-101.3361142
609,East Jackson Street,79235,33.9880733,-101.3262906
217,North 14th Street,79235,33.9881209,-101.3234817
415,East Missouri Street,79235,33.9859436,-101.3289153
621,East Grover Street,79235,33.9902983,-101.3258885
619,East Grover Street,79235,33.9903176,-101.3261488
706,East Grover Street,79235,33.9902493,-101.3248648
502,North 12th Street,79235,33.9906135,-101.3253384
604,North 12th Street,79235,33.9915301,-101.3253056
610,East Ross Street,79235,33.9909604,-101.3261542
600,East Grover Street,79235,33.9898509,-101.3269619
615,East Grover Street,79235,33.9903143,-101.3264433
515,East Grover Street,79235,33.9903089,-101.3273769
509,East Grover Street,79235,33.9902420,-101.3278410
507,East Grover Street,79235,33.9902414,-101.3280502
403,East Jackson Street,79235,33.9882135,-101.3297278
405,East Jackson Street,79235,33.9880244,-101.3295724
425,East Lee Street,79235,33.9891730,-101.3292889
429,East Lee Street,79235,33.9891832,-101.3289404
509,East Lee Street,79235,33.9891522,-101.3278687
605,East Lee Street,79235,33.9891467,-101.3266254
510,East Lee Street,79235,33.9887583,-101.3278412
508,East Lee Street,79235,33.9887550,-101.3280818
516,East California Street,79235,33.9841963,-101.3272763
514,East California Street,79235,33.9841948,-101.3274743
506,East California Street,79235,33.9841573,-101.3283166
510,East California Street,79235,33.9842164,-101.3278245
508,East California Street,79235,33.9841883,-101.3279748
405,East Missouri Street,79235,33.9858835,-101.3298692
406,East Missouri Street,79235,33.9852931,-101.3297596
402,East Missouri Street,79235,33.9852883,-101.3299310
508,East Missouri Street,79235,33.9852362,-101.3280560
504,East Missouri Street,79235,33.9853123,-101.3284850
103,South 11th Street,79235,33.9851792,-101.3269038
108,South 12th Street,79235,33.9848772,-101.3258343
106,South 12th Street,79235,33.9849672,-101.3258353
107,South 11th Street,79235,33.9848237,-101.3268617
105,South 11th Street,79235,33.9849461,-101.3268624
626,East Mississippi Street,79235,33.9831421,-101.3258908
609,East Mississippi Street,79235,33.9835827,-101.3259382
607,East Mississippi Street,79235,33.9835133,-101.3263980
608,East Mississippi Street,79235,33.9831158,-101.3265472
611,East California Street,79235,33.9847215,-101.3258455
609,East California Street,79235,33.9847209,-101.3259932
603,East California Street,79235,33.9847157,-101.3265458
601,East California Street,79235,33.9847150,-101.3266935
607,East California Street,79235,33.9847456,-101.3261964
605,East California Street,79235,33.9847449,-101.3263440
604,East Mississippi Street,79235,33.9831011,-101.3267997
631,East Kentucky Street,79235,33.9825301,-101.3258534
609,East Kentucky Street,79235,33.9824018,-101.3263051
601,East Kentucky Street,79235,33.9824376,-101.3268746
603,East Kentucky Street,79235,33.9824000,-101.3266755
604,East Kentucky Street,79235,33.9820002,-101.3265332
510,East Tennessee Street,79235,33.9808663,-101.3277641
508,East Tennessee Street,79235,33.9809160,-101.3279649
506,East Tennessee Street,79235,33.9809079,-101.3282478
429,East Tennessee Street,79235,33.9813369,-101.3288316
511,East Tennessee Street,79235,33.9813663,-101.3277331
505,East Tennessee Street,79235,33.9813147,-101.3281549
512,East Kentucky Street,79235,33.9819591,-101.3274425
508,East Kentucky Street,79235,33.9820198,-101.3278759
424,East Kentucky Street,79235,33.9820084,-101.3290193
713,East Thornton Street,79235,33.9897180,-101.3243934
307,North 14th Street,79235,33.9893610,-101.3234748
700,East Thornton Street,79235,33.9893432,-101.3253653
702,East Thornton Street,79235,33.9893140,-101.3251281
706,East Thornton Street,79235,33.9893359,-101.3246334
704,East Thornton Street,79235,33.9893363,-101.3248795
710,East Thornton Street,79235,33.9893466,-101.3241661
708,East Thornton Street,79235,33.9893440,-101.3243972
630,East Virginia Street,79235,33.9865666,-101.3259843
111,North 12th Street,79235,33.9863491,-101.3259901
607,East Missouri Street,79235,33.9861056,-101.3263092
232,North 12th Street,79235,33.9881413,-101.3252751
208,North 12th Street,79235,33.9877043,-101.3252607
705,East Lee Street,79235,33.9888735,-101.3241258
231,North 13th Street,79235,33.9884300,-101.3246238
225,North 13th Street,79235,33.9878849,-101.3246075
211,North 13th Street,79235,33.9872623,-101.3245342
209,North 11th Street,79235,33.9875850,-101.3273736
600,East Virginia Street,79235,33.9865392,-101.3269371
503,East Missouri Street,79235,33.9860026,-101.3283990
514,East Virginia Street,79235,33.9865534,-101.3275326
510,East Virginia Street,79235,33.9864662,-101.3279956
502,East Virginia Street,79235,33.9863510,-101.3281641
104,North 10th Street,79235,33.9863713,-101.3284814
501,East Virginia Street,79235,33.9870459,-101.3285082
417,East Virginia Street,79235,33.9869437,-101.3290958
429,East Virginia Street,79235,33.9870004,-101.3289277
709,South Wall Street,79235,33.9784763,-101.3329882
633,East Georgia Street,79235,33.9802710,-101.3257880
629,East Georgia Street,79235,33.9803134,-101.3262184
517,East Houston Street,79235,33.9794975,-101.3275748
319,North 5th Street,79235,33.9931181,-101.3364258
