House number,Street name,Postal code,Latitude,Longitude
231,South FM 548,75126,32.7369257,-96.4525840
231,South FM 548,75126,32.7368264,-96.4527101
351,North FM 548,75126,32.7444119,-96.4484063
209,East Main Street,75126,32.7468901,-96.4704341
427,Pinson Road,75126,32.7547906,-96.4704192
351,North FM 548,75126,32.7444913,-96.4483666
215,South Bois d'Arc Street,75126,32.7474774,-96.4723225
201,South Bois d'Arc Street,75126,32.7477003,-96.4719512
106,East Main Street,75126,32.7476225,-96.4718172
750,East US Highway 80,75126,32.7439480,-96.4493996
750,East US Highway 80,75126,32.7438907,-96.4492758
724,East US Highway 80,75126,32.7442423,-96.4500778
724,East US Highway 80,75126,32.7445470,-96.4506754
724,East US Highway 80,75126,32.7445809,-96.4498796
724,East US Highway 80,75126,32.7443465,-96.4502264
724,East US Highway 80,75126,32.7443934,-96.4503502
724,East US Highway 80,75126,32.7444429,-96.4504896
780,East US Highway 80,75126,32.7438454,-96.4486416
780,East US Highway 80,75126,32.7436951,-96.4487012
780,East US Highway 80,75126,32.7438220,-96.4490704
780,East US Highway 80,75126,32.7437753,-96.4488759
426,North FM 548,75126,32.7457141,-96.4491738
426,North FM 548,75126,32.7453373,-96.4494181
425,Pinson Road,75126,32.7540889,-96.4712219
425,Pinson Road,75126,32.7541823,-96.4711157
425,Pinson Road,75126,32.7540182,-96.4711295
425,Pinson Road,75126,32.7538515,-96.4709159
534,Pinson Road,75126,32.7544453,-96.4692258
528,Pinson Road,75126,32.7542188,-96.4689286
100,West Broad Street,75126,32.7494344,-96.4703292
1012,East US Highway 80,75126,32.7430962,-96.4428522
1012,East US Highway 80,75126,32.7430803,-96.4424418
375,North FM 548,75126,32.7452425,-96.4494329
375,North FM 548,75126,32.7451892,-96.4494840
485,Marketplace Boulevard,75126,32.7475247,-96.4486967
485,Marketplace Boulevard,75126,32.7473880,-96.4488732
1102,Ranch Road,75126,32.7649183,-96.4568844
1102,Ranch Road,75126,32.7650033,-96.4568215
1102,Ranch Road,75126,32.7650676,-96.4567630
1102,Ranch Road,75126,32.7651300,-96.4566821
1102,Ranch Road,75126,32.7654210,-96.4563719
1102,Ranch Road,75126,32.7652934,-96.4564958
1102,Ranch Road,75126,32.7652613,-96.4565594
1102,Ranch Road,75126,32.7652206,-96.4566052
1104,Ranch Road,75126,32.7653619,-96.4571397
1104,Ranch Road,75126,32.7655224,-96.4569615
205,West Broad Street,75126,32.7502110,-96.4717203
207,West Broad Street,75126,32.7502557,-96.4721091
802,East US Highway 80,75126,32.7448788,-96.4453131
500,Marketplace Boulevard,75126,32.7490595,-96.4495170
451,North FM 548,75126,32.7459439,-96.4483399
775,Innovation Boulevard,75126,32.7736195,-96.4603603
651,Innovation Boulevard,75126,32.7730557,-96.4588608
30,Mustang Ct.,75126,32.7502837,-96.4559513
101,East Main Street,75126,32.7479893,-96.4715464
102,East Broad Street,75126,32.7491181,-96.4694764
241,South FM 548,75126,32.7375121,-96.4575095
855,East US Highway 80,75126,32.7362096,-96.4377152
775,East US Highway 80,75126,32.7421118,-96.4501943
769,East US Highway 80,75126,32.7429893,-96.4512223
771,East US Highway 80,75126,32.7422363,-96.4509672
111,East Main Street,75126,32.7476742,-96.4712779
103,East Broad Street,75126,32.7485978,-96.4703069
100,East Broad Street,75126,32.7487287,-96.4705148
824,East US Highway 80,75126,32.7432109,-96.4471806
902,East US Highway 80,75126,32.7441857,-96.4433518
802,East US Highway 80,75126,32.7452696,-96.4456200
950,East US Highway 80,75126,32.7423150,-96.4443016
900,East US Highway 80,75126,32.7425256,-96.4452770
1032,East US Highway 80,75126,32.7422609,-96.4415092
972,East US Highway 80,75126,32.7423011,-96.4434245
924,East US Highway 80,75126,32.7424589,-96.4446561
802,East US Highway 80,75126,32.7435391,-96.4477368
982,East US Highway 80,75126,32.7422245,-96.4428286
850,East US Highway 80,75126,32.7429313,-96.4466271
986,East US Highway 80,75126,32.7421206,-96.4421020
962,East US Highway 80,75126,32.7423256,-96.4438517
862,East US Highway 80,75126,32.7429120,-96.4461391
1003,College Avenue,75126,32.7350022,-96.4640452
929,College Avenue,75126,32.7362952,-96.4667004
1121,College Avenue,75126,32.7308575,-96.4616405
1125,College Avenue,75126,32.7304078,-96.4611294
1129,College Avenue,75126,32.7299047,-96.4604619
1127,College Avenue,75126,32.7301613,-96.4607945
1119,College Avenue,75126,32.7311517,-96.4619647
1123,College Avenue,75126,32.7306502,-96.4613696
1131,College Avenue,75126,32.7296727,-96.4602013
1011,College Avenue,75126,32.7324540,-96.4651942
751,South Bois d'Arc Street,75126,32.7380386,-96.4774312
200,East Main Street,75126,32.7467088,-96.4713484
1800,College Avenue,75126,32.7243238,-96.4575921
701,South Bois d'Arc Street,75126,32.7409597,-96.4767480
202,FM 1641,75126,32.7373471,-96.4459497
204,FM 1641,75126,32.7371414,-96.4454364
906,East Aimee Street,75126,32.7438005,-96.4630748
304,West Broad Street,75126,32.7519417,-96.4718991
107,North McGraw Street,75126,32.7514879,-96.4713414
320,West Buffalo Street,75126,32.7531704,-96.4707687
590,Pinson Road,75126,32.7545044,-96.4689172
202,East US Highway 80,75126,32.7533398,-96.4624228
760,Pinson Road,75126,32.7569767,-96.4657404
748,Pinson Road,75126,32.7567399,-96.4660408
1000,Hampton Drive,75126,32.7419278,-96.4075691
594,West US Highway 80,75126,32.7690759,-96.4868365
100,West US Highway 80,75126,32.7572345,-96.4686008
100,East US Highway 80,75126,32.7564886,-96.4663922
130,Paige Court,75126,32.7652920,-96.4781030
101,Darcie Drive,75126,32.7654010,-96.4763085
102,Cassandra Drive,75126,32.7614020,-96.4771745
122,Jason Drive,75126,32.7641405,-96.4764160
601,FM 740,75126,32.7714125,-96.4655415
114,Cole Street,75126,32.7623600,-96.4770515
108,Darcie Drive,75126,32.7660245,-96.4772740
115,Cassandra Drive,75126,32.7622560,-96.4775360
117,Cassandra Drive,75126,32.7623730,-96.4776990
24,Lovers Lane,75126,32.7691020,-96.4664495
132,Cole Street,75126,32.7636705,-96.4782675
124,Cole Street,75126,32.7629875,-96.4778590
508,Pinyon Place,75126,32.7681500,-96.4621850
613,FM 740,75126,32.7735950,-96.4681785
138,Paige Court,75126,32.7658480,-96.4783465
116,Cassandra Drive,75126,32.7622720,-96.4783505
500,Pinyon Place,75126,32.7675825,-96.4617470
134,Paige Court,75126,32.7654500,-96.4787205
31,Lovers Lane,75126,32.7704785,-96.4667795
520,Pinyon Place,75126,32.7677300,-96.4612025
121,Stone Street,75126,32.7643870,-96.4785995
404,Crestview Drive,75126,32.7547210,-96.4758230
101,Cole Street,75126,32.7618055,-96.4754650
113,Paige Lane,75126,32.7634120,-96.4762780
105,Kelli Drive,75126,32.7628775,-96.4804160
123,Paige Lane,75126,32.7647670,-96.4770790
907,Pinson Road,75126,32.7587655,-96.4646995
104,Kelli Drive,75126,32.7632635,-96.4808930
113,Cassandra Drive,75126,32.7621385,-96.4773715
105,Cassandra Drive,75126,32.7616550,-96.4767145
103,Cassandra Drive,75126,32.7615190,-96.4765410
121,Paige Lane,75126,32.7644580,-96.4769550
116,Cole Street,75126,32.7624720,-96.4772285
122,Stone Street,75126,32.7648605,-96.4786000
111,Kelli Drive,75126,32.7631685,-96.4798460
504,Pinyon Place,75126,32.7677535,-96.4620615
135,Paige Lane,75126,32.7662505,-96.4781460
400,Crestview Drive,75126,32.7551695,-96.4752730
104,Paige Lane,75126,32.7623890,-96.4756645
408,Crestview Drive,75126,32.7542485,-96.4763440
112,Cassandra Drive,75126,32.7620050,-96.4780250
117,Cole Street,75126,32.7627750,-96.4767775
114,Cassandra Drive,75126,32.7621160,-96.4781975
133,Paige Lane,75126,32.7660510,-96.4779270
102,Darcie Drive,75126,32.7654625,-96.4768915
506,Crestline Drive,75126,32.7552305,-96.4767155
402,Crestview Drive,75126,32.7549602,-96.4755587
103,Jason Drive,75126,32.7631335,-96.4744005
103,Darcie Drive,75126,32.7655785,-96.4763695
110,Jason Drive,75126,32.7632995,-96.4754480
103,Kelli Drive,75126,32.7627615,-96.4805730
124,Stone Street,75126,32.7649155,-96.4783915
123,Cole Street,75126,32.7631420,-96.4772745
114,Stone Street,75126,32.7646570,-96.4794500
3,Lovers Lane,75126,32.7660455,-96.4729260
111,West Trinity Street,75126,32.7479650,-96.4732925
136,Paige Court,75126,32.7657285,-96.4785830
126,Cole Street,75126,32.7631645,-96.4779905
313,Hillside Drive,75126,32.7651620,-96.4793865
111,Cole Street,75126,32.7624185,-96.4762855
506,Pinyon Place,75126,32.7678905,-96.4621850
905,Pinson Road,75126,32.7586440,-96.4648620
120,Stone Street,75126,32.7648290,-96.4788060
125,Cassandra Drive,75126,32.7629345,-96.4782725
909,Pinson Road,75126,32.7588985,-96.4645480
113,Cole Street,75126,32.7625300,-96.4764615
407,Crestview Drive,75126,32.7548005,-96.4763880
101,Kelli Drive,75126,32.7626440,-96.4807445
611,FM 740,75126,32.7732170,-96.4677120
105,Cole Street,75126,32.7620495,-96.4757820
131,Cassandra Drive,75126,32.7634220,-96.4785820
409,Crestview Drive,75126,32.7545635,-96.4767275
121,Cole Street,75126,32.7630085,-96.4771230
131,Paige Lane,75126,32.7659105,-96.4777050
114,Jason Drive,75126,32.7635400,-96.4758025
120,Cole Street,75126,32.7627235,-96.4775545
113,Stone Street,75126,32.7641800,-96.4794135
106,Jason Drive,75126,32.7630435,-96.4751135
406,Crestview Drive,75126,32.7544585,-96.4760935
116,Stone Street,75126,32.7647155,-96.4792340
100,Cassandra Drive,75126,32.7612755,-96.4770275
516,Pinyon Place,75126,32.7679845,-96.4614750
107,Paige Lane,75126,32.7629495,-96.4755740
119,Jason Drive,75126,32.7641035,-96.4757435
129,Stone Street,75126,32.7645955,-96.4778060
106,Stone Street,75126,32.7644130,-96.4803475
141,Stone Street,75126,32.7650065,-96.4762180
100,Paige Lane,75126,32.7620740,-96.4752510
103,Cole Street,75126,32.7619230,-96.4756235
115,Cole Street,75126,32.7626455,-96.4766155
116,Paige Lane,75126,32.7634330,-96.4770590
500,Crestline Drive,75126,32.7559985,-96.4760075
100,Kelli Drive,75126,32.7630640,-96.4812415
913,Pinson Road,75126,32.7591985,-96.4642425
113,Kelli Drive,75126,32.7632450,-96.4796440
100,Darcie Drive,75126,32.7652850,-96.4768275
112,Stone Street,75126,32.7646070,-96.4796565
19,Lovers Lane,75126,32.7694505,-96.4681505
919,Pinson Road,75126,32.7595724,-96.4637703
133,Cassandra Drive,75126,32.7635920,-96.4786455
306,Hillside Drive,75126,32.7661950,-96.4792825
114,Paige Lane,75126,32.7632195,-96.4767805
417,Pinson Road,75126,32.7536760,-96.4712845
120,Paige Lane,75126,32.7639005,-96.4773425
116,Jason Drive,75126,32.7636735,-96.4759650
911,Pinson Road,75126,32.7590395,-96.4644015
915,Pinson Road,75126,32.7593265,-96.4640710
122,Cole Street,75126,32.7628505,-96.4777195
917,Pinson Road,75126,32.7594170,-96.4639365
502,Crestline Drive,75126,32.7557855,-96.4762625
131,Stone Street,75126,32.7646425,-96.4775515
100,Jason Drive,75126,32.7626560,-96.4745875
123,Stone Street,75126,32.7644435,-96.4784015
112,Jason Drive,75126,32.7634170,-96.4756250
118,Jason Drive,75126,32.7637925,-96.4761590
118,Paige Lane,75126,32.7636270,-96.4772025
107,Stone Street,75126,32.7640165,-96.4800595
138,Kelli Drive,75126,32.7646765,-96.4760850
119,Darcie Drive,75126,32.7667660,-96.4774220
127,Cole Street,75126,32.7634455,-96.4775490
102,Cole Street,75126,32.7616290,-96.4760555
125,Cole Street,75126,32.7632895,-96.4774295
131,Cole Street,75126,32.7637970,-96.4777360
109,Kelli Drive,75126,32.7630550,-96.4800370
309,Hillside Drive,75126,32.7655180,-96.4791900
302,Hillside Drive,75126,32.7665785,-96.4788910
118,Cole Street,75126,32.7625900,-96.4773815
311,Hillside Drive,75126,32.7653445,-96.4793085
113,Jason Drive,75126,32.7637435,-96.4752195
119,Stone Street,75126,32.7643355,-96.4788105
130,Stone Street,75126,32.7651160,-96.4777350
300,Hillside Drive,75126,32.7667650,-96.4786880
405,Crestview Drive,75126,32.7550610,-96.4760985
105,Jason Drive,75126,32.7632575,-96.4745615
20,Lovers Lane,75126,32.7689925,-96.4673980
123,Cassandra Drive,75126,32.7627725,-96.4781640
116,Darcie Drive,75126,32.7665440,-96.4779470
104,Stone Street,75126,32.7643545,-96.4805795
106,Cole Street,75126,32.7618645,-96.4763870
322,Hillside Drive,75126,32.7647855,-96.4801975
108,Stone Street,75126,32.7644680,-96.4801380
510,Pinyon Place,75126,32.7683150,-96.4619860
134,Kelli Drive,75126,32.7645215,-96.4766750
107,Jason Drive,75126,32.7633825,-96.4747205
505,Crestline Drive,75126,32.7558000,-96.4769355
427,Pinson Road,75126,32.7549705,-96.4703630
603,FM 740,75126,32.7717795,-96.4659685
33,Lovers Lane,75126,32.7707950,-96.4661535
137,Paige Lane,75126,32.7663960,-96.4783750
117,Paige Lane,75126,32.7637985,-96.4766725
401,Crestview Drive,75126,32.7555075,-96.4755760
502,Pinyon Place,75126,32.7676850,-96.4618990
118,Hillside Drive,75126,32.7666720,-96.4781105
504,Crestline Drive,75126,32.7556065,-96.4764925
17,Lovers Lane,75126,32.7694880,-96.4686450
117,Jason Drive,75126,32.7639730,-96.4755530
109,Darcie Drive,75126,32.7661035,-96.4766475
100,Cole Street,75126,32.7615040,-96.4758780
109,Cassandra Drive,75126,32.7619025,-96.4770320
128,Paige Court,75126,32.7654595,-96.4779085
5,Lovers Lane,75126,32.7680865,-96.4704480
125,Paige Lane,75126,32.7651955,-96.4772100
110,Cole Street,75126,32.7621115,-96.4767175
342,Hillside Drive,75126,32.7635075,-96.4806340
106,Darcie Drive,75126,32.7658405,-96.4771010
128,Cassandra Drive,75126,32.7630730,-96.4790035
109,Stone Street,75126,32.7640695,-96.4798440
403,Crestview Drive,75126,32.7552675,-96.4758770
127,Stone Street,75126,32.7645430,-96.4780020
112,Cole Street,75126,32.7622355,-96.4768795
111,Jason Drive,75126,32.7636135,-96.4750545
111,Cassandra Drive,75126,32.7620180,-96.4772100
119,Cole Street,75126,32.7628910,-96.4769530
514,Pinyon Place,75126,32.7681050,-96.4615585
109,Cole Street,75126,32.7622905,-96.4761160
314,Hillside Drive,75126,32.7654900,-96.4798365
103,Paige Lane,75126,32.7625895,-96.4751240
28,Lovers Lane,75126,32.7696090,-96.4660205
102,Jason Drive,75126,32.7627940,-96.4747605
118,Stone Street,75126,32.7647545,-96.4790190
121,Darcie Drive,75126,32.7668875,-96.4775960
619,West Broad Street,75126,32.7575395,-96.4788595
605,FM 740,75126,32.7721100,-96.4663925
129,Paige Lane,75126,32.7656915,-96.4774700
104,Cole Street,75126,32.7617475,-96.4762205
119,Cassandra Drive,75126,32.7625125,-96.4778595
109,Jason Drive,75126,32.7634950,-96.4748775
115,Kelli Drive,75126,32.7633240,-96.4794345
119,Paige Lane,75126,32.7640320,-96.4767845
410,West Broad Street,75126,32.7536710,-96.4722955
431,Pinson Road,75126,32.7549995,-96.4695730
101,Paige Lane,75126,32.7624170,-96.4748955
501,Crestline Drive,75126,32.7562985,-96.4763730
512,Pinyon Place,75126,32.7682440,-96.4616720
16,Lovers Lane,75126,32.7687820,-96.4680290
107,Kelli Drive,75126,32.7629970,-96.4802305
23,Lovers Lane,75126,32.7698740,-96.4676795
115,Stone Street,75126,32.7642345,-96.4791855
112,Darcie Drive,75126,32.7662810,-96.4776035
107,Cassandra Drive,75126,32.7617935,-96.4768685
110,Paige Lane,75126,32.7628835,-96.4763480
104,Jason Drive,75126,32.7629150,-96.4749295
110,Darcie Drive,75126,32.7661495,-96.4774290
109,Paige Lane,75126,32.7630930,-96.4758165
304,Hillside Drive,75126,32.7663700,-96.4790975
128,Stone Street,75126,32.7650380,-96.4779705
111,Darcie Drive,75126,32.7662460,-96.4767865
312,Hillside Drive,75126,32.7656660,-96.4797015
115,Darcie Drive,75126,32.7665280,-96.4771115
106,Cassandra Drive,75126,32.7616300,-96.4775160
130,Cassandra Drive,75126,32.7632565,-96.4790970
111,Stone Street,75126,32.7641305,-96.4796155
107,Darcie Drive,75126,32.7659330,-96.4765335
316,Hillside Drive,75126,32.7653360,-96.4799415
105,Paige Lane,75126,32.7627715,-96.4753350
115,Paige Lane,75126,32.7636135,-96.4764795
128,Cole Street,75126,32.7633345,-96.4780965
112,Paige Lane,75126,32.7630430,-96.4765615
104,Darcie Drive,75126,32.7656620,-96.4769705
132,Cassandra Drive,75126,32.7634300,-96.4791800
107,Cole Street,75126,32.7621660,-96.4759650
117,Darcie Drive,75126,32.7666465,-96.4772725
110,Cassandra Drive,75126,32.7618780,-96.4778625
125,Stone Street,75126,32.7645065,-96.4782070
303,Hillside Drive,75126,32.7660615,-96.4786645
121,Cassandra Drive,75126,32.7626410,-96.4780075
105,Stone Street,75126,32.7639535,-96.4802900
318,Hillside Drive,75126,32.7651585,-96.4800475
105,Darcie Drive,75126,32.7657495,-96.4764370
307,Hillside Drive,75126,32.7656980,-96.4790595
921,Pinson Road,75126,32.7597386,-96.4635923
106,Paige Lane,75126,32.7625500,-96.4758970
101,Hillside Drive,75126,32.7739165,-96.4686405
503,Crestline Drive,75126,32.7561100,-96.4765720
508,Crestline Drive,75126,32.7550425,-96.4769920
104,Cassandra Drive,75126,32.7615140,-96.4773460
600,South Bois d'Arc Street,75126,32.7439300,-96.4766475
346,Hillside Drive,75126,32.7633565,-96.4805365
315,Hillside Drive,75126,32.7649495,-96.4795600
101,Jason Drive,75126,32.7630175,-96.4742145
136,Kelli Drive,75126,32.7645900,-96.4764595
129,Cassandra Drive,75126,32.7632515,-96.4784820
518,Pinyon Place,75126,32.7678190,-96.4613555
129,Cole Street,75126,32.7636270,-96.4776520
111,Paige Lane,75126,32.7632610,-96.4760090
108,Paige Lane,75126,32.7627020,-96.4761285
114,Darcie Drive,75126,32.7664050,-96.4777775
32,Lovers Lane,75126,32.7703810,-96.4651850
305,Hillside Drive,75126,32.7658820,-96.4788685
127,Paige Lane,75126,32.7654515,-96.4772965
507,Crestline Drive,75126,32.7555200,-96.4773815
101,Cassandra Drive,75126,32.7613440,-96.4764260
102,Paige Lane,75126,32.7622385,-96.4754685
609,FM 740,75126,32.7728975,-96.4672745
123,Hillside Drive,75126,32.7670105,-96.4777605
102,Kelli Drive,75126,32.7631810,-96.4810645
120,Jason Drive,75126,32.7639510,-96.4763215
113,Darcie Drive,75126,32.7663980,-96.4769390
607,FM 740,75126,32.7724970,-96.4668225
126,Stone Street,75126,32.7649745,-96.4781785
12,Lovers Lane,75126,32.7685660,-96.4689000
130,Cole Street,75126,32.7635095,-96.4782005
127,Cassandra Drive,75126,32.7630830,-96.4783890
117,Stone Street,75126,32.7642825,-96.4790015
126,Cassandra Drive,75126,32.7629065,-96.4788965
115,Jason Drive,75126,32.7638560,-96.4753785
108,Jason Drive,75126,32.7631745,-96.4752790
320,Hillside Drive,75126,32.7649800,-96.4801545
132,Paige Court,75126,32.7652290,-96.4784985
298,Hillside Drive,75126,32.7669240,-96.4784980
108,Cassandra Drive,75126,32.7617560,-96.4776925
103,West US Highway 80,75126,32.7553905,-96.4695710
401,Pinson Road,75126,32.7527710,-96.4721790
124,Cassandra Drive,75126,32.7627270,-96.4787890
121,Jason Drive,75126,32.7642665,-96.4758870
108,Cole Street,75126,32.7619895,-96.4765490
516,Pinson Road,75126,32.7537015,-96.4700725
902,East Aimee Street,75126,32.7440850,-96.4633150
900,East Aimee Street,75126,32.7442050,-96.4634275
902,East Buffalo Street,75126,32.7443365,-96.4629655
12020,Currency Circle,75126,32.7337275,-96.4421135
105,Mesquite Street,75126,32.7444685,-96.4622685
500,Mesquite Street,75126,32.7435582,-96.4624774
303,East US Highway 80,75126,32.7508435,-96.4622605
254,FM 1641,75126,32.7365020,-96.4452065
505,East US Highway 80,75126,32.7448990,-96.4545850
508,Pinson Road,75126,32.7534090,-96.4704040
133,East US Highway 80,75126,32.7528445,-96.4643976
900,East Buffalo Street,75126,32.7444760,-96.4630895
802,East Broad Street,75126,32.7440100,-96.4646255
401,East US Highway 80,75126,32.7476095,-96.4576850
300,FM 1641,75126,32.7359970,-96.4439340
13300,FM 1641,75126,32.7335870,-96.4417065
515,South Bois d'Arc Street,75126,32.7433855,-96.4756230
406,Pinson Road,75126,32.7522770,-96.4717415
408,Pinson Road,75126,32.7523800,-96.4715065
111,East US Highway 80,75126,32.7543117,-96.4663529
12021,Currency Circle,75126,32.7342305,-96.4427175
300,West Broad Street,75126,32.7513816,-96.4716418
601,South Bois d'Arc Street,75126,32.7431180,-96.4759690
119,College Avenue,75126,32.7425765,-96.4748155
115,College Avenue,75126,32.7427535,-96.4749265
104,East Aimee Street,75126,32.7494215,-96.4686660
203,East US Highway 80,75126,32.7522505,-96.4636765
1001,East Buffalo Street,75126,32.7440870,-96.4619000
627,FM 548,75126,32.7291091,-96.4645962
208,College Avenue,75126,32.7427127,-96.4756917
200,West Broad Street,75126,32.7501340,-96.4709210
201,East US Highway 80,75126,32.7526085,-96.4639040
207,East US Highway 80,75126,32.7515640,-96.4630980
124,East US Highway 80,75126,32.7539760,-96.4632090
752,Pinson Road,75126,32.7565445,-96.4650875
1305,Highspire Drive,75126,32.7548130,-96.4438770
561,Ridge Crest Road,75126,32.7530030,-96.4454078
1309,Highspire Drive,75126,32.7548570,-96.4436340
1301,Highspire Drive,75126,32.7547275,-96.4440810
1321,Highspire Drive,75126,32.7547725,-96.4428750
1325,Highspire Drive,75126,32.7547490,-96.4426845
2109,Cardinal Drive,75126,32.7550235,-96.4449975
633,Marlee Drive,75126,32.7541345,-96.4426230
103,Liberty Circle,75126,32.7662560,-96.4579315
637,Marlee Drive,75126,32.7539795,-96.4425520
645,Marlee Drive,75126,32.7537175,-96.4422005
900,Pinson Road,75126,32.7580385,-96.4645810
629,Marlee Drive,75126,32.7543290,-96.4427215
770,Pinson Road,75126,32.7572240,-96.4653665
648,Ridge Crest Road,75126,32.7521275,-96.4433410
107,Liberty Circle,75126,32.7659430,-96.4575420
120,East US Highway 80,75126,32.7544295,-96.4638980
552,FM 740,75126,32.7718635,-96.4642910
1317,Highspire Drive,75126,32.7548290,-96.4431605
641,Marlee Drive,75126,32.7538550,-96.4423400
124,East US Highway 80,75126,32.7544680,-96.4626255
1313,Highspire Drive,75126,32.7548300,-96.4434145
2105,Cardinal Drive,75126,32.7546895,-96.4447210
400,East US Highway 80,75126,32.7497595,-96.4575665
2101,Cardinal Drive,75126,32.7544065,-96.4444230
2103,Cardinal Drive,75126,32.7545535,-96.4445945
2107,Cardinal Drive,75126,32.7548205,-96.4449290
649,Marlee Drive,75126,32.7536185,-96.4420665
102,East US Highway 80,75126,32.7558205,-96.4659375
10462,West US Highway 80,75126,32.7419740,-96.4358800
12583,Reeder Lane,75126,32.7422540,-96.4352985
10308,West US Highway 80,75126,32.7418425,-96.4332675
10470,West US Highway 80,75126,32.7419875,-96.4363700
401,North FM 548,75126,32.7451135,-96.4482590
451,North FM 548,75126,32.7458105,-96.4482600
10580,West US Highway 80,75126,32.7420615,-96.4385730
12744,County Road 217,75126,32.7429700,-96.4321155
10478,West US Highway 80,75126,32.7419970,-96.4366115
12521,Reeder Road,75126,32.7419640,-96.4355705
10380,West US Highway 80,75126,32.7420785,-96.4344010
505,North FM 548,75126,32.7472005,-96.4475900
10600,West US Highway 80,75126,32.7420675,-96.4388135
503,North FM 548,75126,32.7467730,-96.4478975
10330,West US Highway 80,75126,32.7420570,-96.4334900
12817,Reeder Road,75126,32.7459400,-96.4314535
10640,West US Highway 80,75126,32.7420815,-96.4393005
12712,County Road 217,75126,32.7434536,-96.4326033
10486,West US Highway 80,75126,32.7420215,-96.4373445
600,North FM 548,75126,32.7480910,-96.4458195
490,South FM 548,75126,32.7293801,-96.4580831
500,Marketplace Boulevard,75126,32.7481603,-96.4479466
500,Marketplace Boulevard,75126,32.7487861,-96.4501106
1851,College Avenue,75126,32.7262239,-96.4541967
590,South FM 548,75126,32.7284917,-96.4593904
895,North FM 548,75126,32.7514554,-96.4443748
600,Pinson Road,75126,32.7547486,-96.4683943
518,Pinson Road,75126,32.7538219,-96.4696562
811,South Bois d'Arc Street,75126,32.7355700,-96.4794534
899,Pinson Road,75126,32.7582328,-96.4660584
100,North FM 548,75126,32.7415885,-96.4484146
30,North FM 548,75126,32.7400366,-96.4481134
725,East US Highway 80,75126,32.7433031,-96.4519256
104,Regal Drive,75126,32.7442285,-96.4532820
401,FM 740,75126,32.7650936,-96.4593313
114,East US Highway 80,75126,32.7548622,-96.4645042
110,East US Highway 80,75126,32.7556973,-96.4639221
980,Reeder Lane,75126,32.7573076,-96.4327948
1000,Reeder Lane,75126,32.7560821,-96.4314960
1100,North Gateway Boulevard,75126,32.7513429,-96.4337619
1105,North Gateway Boulevard,75126,32.7537922,-96.4324366
495,Diamond Creek Drive,75126,32.7592226,-96.4423372
865,North FM 548,75126,32.7510521,-96.4447741
1300,College Avenue,75126,32.7284660,-96.4586159
406,East Broad Street,75126,32.7467742,-96.4675486
650,Summerhaven,75126,32.7478271,-96.4609686
615,Cedar Street,75126,32.7498800,-96.4636369
630,Cedar Street,75126,32.7504213,-96.4630608
300,Trailhouse Lane,75126,32.7519031,-96.4522462
1007,East Buffalo Street,75126,32.7438962,-96.4616932
906,East Buffalo Street,75126,32.7440830,-96.4627333
904,East Aimee Street,75126,32.7439735,-96.4632046
250,Monitor Boulevard,75126,32.7285283,-96.4450472
1451,Whaley Drive,75126,32.7570956,-96.4345139
10274,West US Highway 80,75126,32.7419356,-96.4325449
10306,West US Highway 80,75126,32.7419521,-96.4329967
10354,West US Highway 80,75126,32.7420765,-96.4340477
10342,West US Highway 80,75126,32.7420680,-96.4337693
12639,Reeder Lane,75126,32.7428591,-96.4346687
248,Pennridge Drive,75126,32.7547819,-96.4463123
101,Liberty Circle,75126,32.7664210,-96.4580074
105,Liberty Circle,75126,32.7660581,-96.4578561
104,Liberty Circle,75126,32.7660797,-96.4572729
102,Liberty Circle,75126,32.7662835,-96.4572301
100,Liberty Circle,75126,32.7664748,-96.4573458
1500,Akron Way,75126,32.7381683,-96.4198469
1101,South Gateway Boulevard,75126,32.7346146,-96.4101111
1475,Akron Way,75126,32.7345175,-96.4164977
1309,Caprock Drive,75126,32.7210498,-96.4131602
680,East US Highway 80,75126,32.7451320,-96.4516571
50,North FM 548,75126,32.7404440,-96.4484709
60,FM 1641,75126,32.7392943,-96.4479549
825,East US Highway 80,75126,32.7414304,-96.4477908
101,West US Highway 80,75126,32.7557267,-96.4691689
110,Justice Center Drive,75126,32.7338722,-96.4553858
