House number,Street name,Postal code,Latitude,Longitude
407,South Adams Street,78624,30.2701145,-98.8749759
1618,East US Highway 290,78624,30.2471119,-98.8457873
207,E. Main Street,78624,30.2735093,-98.8704748
1017,Highway 16 South,78624,30.2628154,-98.8792320
1039,Kerr Rd,78624,30.2534709,-98.9055121
1420,East Main Street,78624,30.2583658,-98.8516561
1426,East Main Street,78624,30.2578301,-98.8517029
1426,East Main Street,78624,30.2576536,-98.8514904
621,Longhorn Street,78624,30.2625294,-98.8683495
1107,N. Llano,78624,30.2833981,-98.8612113
726,Mustang St #1,78624,30.2599515,-98.8697410
1107,South State Highway 16,78624,30.2590452,-98.8809268
101,West Main Street,78624,30.2750837,-98.8730138
407,South Adams Street,78624,30.2700977,-98.8754824
1435,East Main Street,78624,30.2551436,-98.8524980
341,Golfers Loop,78624,30.2431707,-98.9169689
1618,East US Highway 290,78624,30.2464704,-98.8460439
191,Airport Road,78624,30.2437919,-98.9089357
432,Lady Bird Drive,78624,30.2411840,-98.9105078
1608,North Adams Street,78624,30.2892027,-98.8561229
110,West Travis Street,78624,30.2798577,-98.8702345
1110,South Adams Street,78624,30.2596004,-98.8796425
1020,South State Highway 16,78624,30.2622318,-98.8819850
1311,South State Highway 16,78624,30.2544698,-98.8913585
340,East Main Street,78624,30.2730453,-98.8676399
515,East Main Street,78624,30.2691231,-98.8649277
501,East Main Street,78624,30.2696976,-98.8655584
514,East Main Street,78624,30.2700293,-98.8642026
506,East Main Street,78624,30.2704327,-98.8644384
601,East Main Street,78624,30.2687258,-98.8640182
500,South Washington Street,78624,30.2659070,-98.8721604
314,East Highway Street,78624,30.2624767,-98.8727686
723,South Washington Street,78624,30.2595087,-98.8711912
513,Friendship Lane,78624,30.2553354,-98.8692247
758,South Washington Street,78624,30.2566934,-98.8725183
726,South Washington Street,78624,30.2592767,-98.8722651
705,South Washington Street,78624,30.2613771,-98.8706575
520,Granite Avenue,78624,30.2666117,-98.8720480
411,South Washington Street,78624,30.2671551,-98.8708753
413,South Washington Street,78624,30.2669037,-98.8709250
516,Granite Avenue,78624,30.2670220,-98.8720690
204,East Main Street,78624,30.2739286,-98.8702684
260,East Main Street,78624,30.2730238,-98.8688173
102,East San Antonio Street,78624,30.2741569,-98.8727370
100,South Nimitz Parkway,78624,30.2746840,-98.8737535
115,West Main Street,78624,30.2752974,-98.8735534
125,West Main Street,78624,30.2759235,-98.8739768
126,West Main Street,78624,30.2765010,-98.8735541
124,West Main Street,78624,30.2763998,-98.8733881
204,West Main Street,78624,30.2768955,-98.8741818
247,West Main Street,78624,30.2767421,-98.8756351
228,West Main Street,78624,30.2772971,-98.8747779
310,East Main Street,78624,30.2725368,-98.8682140
110,West Austin Street,78624,30.2768825,-98.8715786
100,South Nimitz Parkway,78624,30.2751815,-98.8744200
502,South Adams Street,78624,30.2703166,-98.8772273
2204,South State Highway 16,78624,30.2511229,-98.8952415
78,FM 2093,78624,30.2534602,-98.8950362
1141,West US Highway 290,78624,30.2848541,-98.8878770
905,West Main Street,78624,30.2849732,-98.8868990
1150,North US Highway 87,78624,30.2861705,-98.8865920
810,West Main Street,78624,30.2846597,-98.8846338
805,West Main Street,78624,30.2836533,-98.8849912
528,West Main Street,78624,30.2814136,-98.8801553
522,West Main Street,78624,30.2810510,-98.8799366
300,West Main Street,78624,30.2782043,-98.8757374
126,West Main Street,78624,30.2762702,-98.8726350
308,North Llano Street,78624,30.2766832,-98.8686194
2818,East US Highway 290,78624,30.2467821,-98.8427906
1430,East Main Street,78624,30.2573609,-98.8509725
1301,East Main Street,78624,30.2610410,-98.8566336
1465,East Main Street,78624,30.2542493,-98.8498680
1511,East Main Street,78624,30.2528995,-98.8508722
1279,South US Highway 87,78624,30.2541208,-98.8706224
1102,South State Highway 16,78624,30.2604975,-98.8840330
516,South Adams Street,78624,30.2690991,-98.8782765
512,South Adams Street,78624,30.2695560,-98.8780402
607,West Main Street,78624,30.2813951,-98.8816557
305,East Highway Street,78624,30.2604452,-98.8737439
1625,North Adams Street,78624,30.2872415,-98.8557785
108,East Lower Crabapple Road,78624,30.2869919,-98.8571417
1424,East Main Street,78624,30.2579418,-98.8519913
712,West Main Street,78624,30.2835823,-98.8833219
1220,North US Highway 87,78624,30.2867531,-98.8878364
1102,East Main Street,78624,30.2644388,-98.8565574
155,Airport Road,78624,30.2449644,-98.9078937
408,West Austin Street,78624,30.2804548,-98.8767906
320,FM 2093,78624,30.2527531,-98.8997160
808,South Adams Street,78624,30.2654956,-98.8795281
1308,East Main Street,78624,30.2604418,-98.8555471
507,North Llano Street,78624,30.2779447,-98.8662059
810,South Adams Street,78624,30.2652155,-98.8792481
201,South Washington Street,78624,30.2694666,-98.8685143
1800,North Llano Street,78624,30.2867798,-98.8536828
910,East Main Street,78624,30.2656669,-98.8581873
304,South Washington Street,78624,30.2694410,-98.8696667
111,FM 2093,78624,30.2511627,-98.8961466
803,East Main Street,78624,30.2661335,-98.8600713
900,South Adams Street,78624,30.2647337,-98.8792160
908,South Adams Street,78624,30.2642754,-98.8793595
305,South Lincoln Street,78624,30.2702634,-98.8708235
102,East Ufer Street,78624,30.2719212,-98.8749218
1108,South State Highway 16,78624,30.2601751,-98.8845075
1125,South State Highway 16,76824,30.2576577,-98.8867077
1001,South State Highway 16,78624,30.2633947,-98.8787018
98,East Highway Street,78624,30.2622213,-98.8787824
1710,North Llano Street,78624,30.2862853,-98.8544929
101,East Driftwood Drive,78624,30.2880215,-98.8535167
106,East Driftwood Drive,78624,30.2879310,-98.8522531
1902,North Llano Street,78624,30.2866664,-98.8525232
1003,North Llano Street,78624,30.2822745,-98.8621360
522,East Travis Street,78624,30.2737378,-98.8603380
1302,North Llano Street,78624,30.2848604,-98.8594426
1208,North Llano Street,78624,30.2848790,-98.8604687
103,East Trailmoor Drive,78624,30.2858618,-98.8608270
107,East Lower Crabapple Road,78624,30.2863578,-98.8588232
308,South Washington Street,78624,30.2693038,-98.8700569
610,East Main Street,78624,30.2689252,-98.8629075
605,East Main Street,78624,30.2683812,-98.8637727
609,East Main Street,78624,30.2681968,-98.8634355
611,East Main Street,78624,30.2679282,-98.8628712
614,East Main Street,78624,30.2678580,-98.8614469
619,East Main Street,78624,30.2671085,-98.8614998
701,East Main Street,78624,30.2667999,-98.8611795
706,East Main Street,78624,30.2671056,-98.8605191
902,East Main Street,78624,30.2660496,-98.8589933
1104,East Main Street,78624,30.2640012,-98.8567438
1106,East Main Street,78624,30.2638319,-98.8565783
1110,East Main Street,78624,30.2635279,-98.8563168
604,South Eagle Street,78624,30.2607811,-98.8588070
1003,East Highway Street,78624,30.2608036,-98.8576038
1303,East Main Street,78624,30.2606886,-98.8563822
1423,East Main Street,78624,30.2574002,-98.8530763
1460,East Main Street,78624,30.2533851,-98.8474809
318,East Austin Street,78624,30.2729102,-98.8662901
316,East Austin Street,78624,30.2730297,-98.8664688
241,East Austin Street,78624,30.2736266,-98.8683631
504,Granite Avenue,78624,30.2676480,-98.8717975
714,South Washington Street,78624,30.2605065,-98.8719842
902,South Adams Street,78624,30.2648891,-98.8789366
103,South Llano Street,78624,30.2733814,-98.8707675
105,South Llano Street,78624,30.2732805,-98.8708443
224,FM 2093,78624,30.2527332,-98.8982971
149,FM 2093,78624,30.2510385,-98.8968076
199,FM 2093,78624,30.2512373,-98.8977023
383,FM 2093,78624,30.2502135,-98.9011906
1225,South State Highway 16,78624,30.2551954,-98.8894561
1240,South State Highway 16,78624,30.2561903,-98.8904264
1107,North Llano Street,78624,30.2832962,-98.8607741
