House number,Street name,Postal code,Latitude,Longitude
2300,Marie Curie Drive,75042,32.9193043,-96.6618669
3178,Lavon Drive,75040,32.9447994,-96.6191262
205,Coneflower Drive,75040,32.9514370,-96.6141400
2645,Arapaho Road,75044,32.9606882,-96.6662260
117,Main Street,75040,32.9120488,-96.6392145
402,Oaks Trail,75043,32.8478984,-96.5701675
5435,North Garland Avenue,75040,32.9666694,-96.6452577
5345,North Garland Avenue,75040,32.9643642,-96.6444982
435,Coneflower Drive,75040,32.9528817,-96.6126396
520,Tower Street,75040,32.9077260,-96.6031834
201,Lavon Drive,75040,32.9132983,-96.6292463
634,Apollo Road,75040,32.9453125,-96.6383503
201,Georgetown Drive,75043,32.8648617,-96.6197440
4170,Lavon Drive,75040,32.9555479,-96.6168994
4280,Lavon Drive,75040,32.9566408,-96.6161467
2602,Industrial Ln,75041,32.8861448,-96.6790866
1926,South 1st Street,75040-8409,32.8948805,-96.6305587
106,South First Street,75040-7220,32.9116626,-96.6303473
109,First Street,75040,32.9115722,-96.6312242
3001,West Campbell Road,75044,32.9728774,-96.6737351
6541,Duck Creek Drive,75043,32.8463727,-96.5974831
629,West Centerville Road,75041,32.8636378,-96.6406353
843,West Miller Road,75041,32.8947885,-96.6431113
2647,South Garland Avenue,75041,32.8857686,-96.6557678
2601,Meadowridge Dr,75044,32.9423028,-96.6674857
3301,South Country Club Road,75043,32.8755991,-96.6062064
3161,Broadway Boulevard,75043,32.8768834,-96.6222257
1215,Thomasville Court,75044,32.9810623,-96.6145890
180,Cedar Sage Drive,75040,32.9537269,-96.6134160
625,Town Square Boulevard,75040,32.9541150,-96.6119367
3285,Broadway Boulevard,75043,32.8760314,-96.6189650
119,East Buckingham,75040-4707,32.9312131,-96.6297233
3315,North President George Bush Highway,75040,32.9479167,-96.6175297
3315,North President George Bush Highway,75040,32.9477860,-96.6173739
2006,West Campbell Road,75044,32.9747558,-96.6595663
2315,Guthrie Road,75043,32.8371394,-96.5945004
2313,Guthrie Road,75043,32.8371498,-96.5946008
2309,Guthrie Road,75043,32.8371526,-96.5947239
2311,Guthrie Road,75043,32.8371484,-96.5948969
510,West Interstate 30,75043,32.8374476,-96.5962041
510,West Interstate 30,75043,32.8378313,-96.5961713
552,West Interstate 30,75043,32.8378261,-96.5972774
1518,West Buckingham Road,75042,32.9302343,-96.6510663
4445,Saturn Road,75041,32.8629535,-96.6500818
3161,Broadway Boulevard,75043,32.8771742,-96.6221279
861,West Miller Road,75041,32.8957083,-96.6419959
1406,West Walnut Street,75042,32.9148164,-96.6503284
1406,West Walnut Street,75042,32.9148297,-96.6497022
4002,West Miller Road,75041,32.8940274,-96.6920575
2441,Goldfinch Lane,75042,32.9020762,-96.6649598
4430,Lavon Drive,75040,32.9570631,-96.6153964
4430,Lavon Drive,75040,32.9571250,-96.6153578
4430,Lavon Drive,75040,32.9573768,-96.6151807
5966,Broadway Boulevard,75043,32.8429891,-96.5949393
580,Castleglen Drive,75043,32.8448266,-96.5939310
6246,Broadway Boulevard,75043,32.8380547,-96.5944974
3420,Broadway Boulevard,75043,32.8736880,-96.6141614
3529,W Miller Rd,75041,32.8950508,-96.6841035
1202,Northwest Highway,75041,32.8629822,-96.6451546
675,Town Square Blvd,75040,32.9543547,-96.6118188
532,West Interstate 30,75043,32.8377767,-96.5970433
555,West Interstate 30,75043,32.8422252,-96.5974966
5950,Broadway Boulevard,75043,32.8434015,-96.5944590
5710,Broadway Boulevard,75043,32.8458431,-96.5940902
101,West Buckingham Road,75040,32.9318659,-96.6312455
5150,North Garland Avenue,75040,32.9609684,-96.6447195
5301,North Garland Avenue,75040,32.9656470,-96.6467714
5302,North Garland Avenue,75040,32.9626434,-96.6427246
1801,Marketplace Drive,75041,32.8626799,-96.6529154
1202,West Centerville Road,75041,32.8565040,-96.6454799
950,West Centerville Road,75041,32.8588041,-96.6436202
909,West Centerville Road,75041,32.8602356,-96.6443395
825,West Centerville Road,75041,32.8611837,-96.6440157
1401,Northwest Highway,75041,32.8646594,-96.6487826
3034,South 1st Street,75041,32.8795630,-96.6302906
149,West Kingsley,75041,32.8809683,-96.6313233
1855,South Garland Avenue,75040,32.8964324,-96.6498801
2645,Arapaho Road,75044,32.9606983,-96.6675076
6850,North Shiloh Road,75044,32.9770309,-96.6640127
5986,Broadway Boulevard,75043,32.8427423,-96.5949258
5952,Broadway Boulevard,75043,32.8432188,-96.5949366
915,West Centerville Road,75041,32.8601299,-96.6444851
903,West Centerville Road,75041,32.8603884,-96.6443335
629,Trailwood Court,75043,32.8410071,-96.6122838
619,Trailwood Court,75043,32.8409638,-96.6119333
621,Trailwood Court,75043,32.8410093,-96.6120087
623,Trailwood Court,75043,32.8409660,-96.6120748
625,Trailwood Court,75043,32.8410171,-96.6121476
627,Trailwood Court,75043,32.8409715,-96.6122098
636,Trails Parkway,75043,32.8414005,-96.6124042
634,Trails Parkway,75043,32.8413460,-96.6123473
632,Trails Parkway,75043,32.8414205,-96.6122719
630,Trails Parkway,75043,32.8413505,-96.6122124
628,Trails Parkway,75043,32.8414194,-96.6121423
626,Trails Parkway,75043,32.8413505,-96.6120682
624,Trails Parkway,75043,32.8414194,-96.6119995
622,Trails Parkway,75043,32.8413549,-96.6119227
802,Saint Andrew's Court,75043,32.8412729,-96.6150133
804,Saint Andrew's Court,75043,32.8411359,-96.6151001
806,Saint Andrew's Court,75043,32.8412370,-96.6152174
808,Saint Andrew's Court,75043,32.8411666,-96.6152906
810,Saint Andrew's Court,75043,32.8412281,-96.6153972
812,Saint Andrew's Court,75043,32.8411205,-96.6154703
4229,Glenhaven Dr,75042,32.9122421,-96.6967631
3265,Broadway Boulevard,75043,32.8758532,-96.6205291
2635,South Garland Avenue,75041,32.8863001,-96.6555367
4441,Bass Pro Drive,75043,32.8639871,-96.5416654
4441,Bass Pro Drive,75043,32.8637308,-96.5420560
4125,Broadway Boulevard,75043,32.8632976,-96.6043594
5435,North Garland Avenue,75040,32.9669231,-96.6455299
3313,Belt Line Road,75044,32.9456429,-96.6786787
1436,Beltline Road,75044,32.9447750,-96.6490020
1382,Belt Line Road,75040,32.9446660,-96.6476030
1430,West Buckingham Road,75042,32.9303440,-96.6490070
1529,West Buckingham Road,75040,32.9311061,-96.6509718
2334,West Buckingham Road,75042,32.9291777,-96.6626653
1906,South Jupiter Road,75042,32.8954465,-96.6822084
4750,North Jupiter Road,75044,32.9597715,-96.6819979
4015,Bobtown Road,75043,32.8516770,-96.5699480
1546,Rowlett Road,75043,32.8579181,-96.5798955
1902,Northwest Highway,75041,32.8637276,-96.6563369
803,West Centerville Road,75041,32.8612360,-96.6430640
1251,Northwest Highway,75041,32.8638510,-96.6450290
1905,Garland Avenue,75040,32.8953717,-96.6494134
1625,South 1st Street,75040,32.8969707,-96.6314539
3028,South First Street,75042,32.8800191,-96.6304583
3040,Broadway Boulevard,75041,32.8799500,-96.6220830
627,East Walnut Circle,75040,32.9165108,-96.6266496
802,Alamo Lane,75040,32.9275361,-96.6400217
3033,Saturn Road,75041,32.8800067,-96.6481363
2722,S Jupiter Rd,75041,32.8835982,-96.6797931
3225,South Garland Avenue,75041,32.8768043,-96.6622809
3522,North Garland Avenue,75040,32.9495561,-96.6501854
2901,West Kingsley Road,75041,32.8796499,-96.6738064
825,Interstate 30,75150,32.8393309,-96.6126949
4010,Distribution Drive,75041,32.8908030,-96.6920843
3840,Distribution Drive,75041,32.8908962,-96.6892795
2149,South Jupiter Road,75041,32.8919700,-96.6852240
3502,Regency Crest Drive,75041,32.8880593,-96.6842884
2333,South Jupiter Road,75041,32.8899174,-96.6851829
4009,Distribution Drive,75041,32.8926634,-96.6920751
3838,West Miller Road,75041,32.8935702,-96.6891978
4002,West Miller Road,75041,32.8939245,-96.6921109
3630,West Miller Road,75041,32.8938721,-96.6861652
3520,West Miller Road,75041,32.8938685,-96.6841353
3540,West Miller Road,75041,32.8929172,-96.6841697
3650,West Miller Road,75041,32.8929244,-96.6861523
4999,Naaman Forest Boulevard,75040,32.9593216,-96.6416987
2535,Firewheel Parkway,75040,32.9374396,-96.6055387
5150,North Garland Avenue,75040,32.9610486,-96.6442342
5302,North Garland Avenue,75040,32.9624658,-96.6425080
2645,Arapaho Road,75044,32.9608252,-96.6669988
2645,Arapaho Road,75044,32.9599198,-96.6658738
5101,President George Bush Highway,75040,32.9612545,-96.6395545
1000,West Walnut Street,75040,32.9156792,-96.6433190
3260,Saturn Road,75041,32.8767726,-96.6459949
501,East Oates Road,75043,32.8576579,-96.6038010
2346,Belt Line Road,75044,32.9440055,-96.6635558
4500,Bass Pro Drive,75043,32.8646896,-96.5419860
725,East Centerville Road,75041,32.8783949,-96.6226120
5806,Broadway Boulevard,75043,32.8450797,-96.5950960
1506,West Buckingham Road,75042,32.9302765,-96.6498909
555,West Interstate 30,75043,32.8423539,-96.5977603
5825,Broadway Boulevard,75043,32.8444211,-96.5961791
6075,Broadway Boulevard,75043,32.8423258,-96.5959943
5836,Broadway Boulevard,75043,32.8441473,-96.5950486
5950,Broadway Boulevard,75043,32.8435174,-96.5946244
5709,Broadway Boulevard,75043,32.8455841,-96.5959816
5710,Broadway Boulevard,75043,32.8461026,-96.5939088
5610,Broadway Boulevard,75043,32.8469156,-96.5953720
5602,Broadway Boulevard,75043,32.8473665,-96.5958456
5435,Broadway Boulevard,75043,32.8490652,-96.5979616
5335,Broadway Boulevard,75043,32.8504986,-96.5987193
5621,Broadway Boulevard,75043,32.8465019,-96.5962642
4845,Broadway Boulevard,75043,32.8552113,-96.6024968
6122,Broadway Boulevard,75043,32.8412794,-96.5948720
501,West Interstate 30,75043,32.8407933,-96.5963093
509,West Interstate 30,75043,32.8403462,-96.5970456
535,West Interstate 30,75043,32.8396857,-96.5985553
3959,Broadway Boulevard,75043,32.8647124,-96.6070031
600,Colonel Drive,75043,32.8725773,-96.6195758
3330,Broadway Boulevard,75043,32.8747171,-96.6174036
3327,Broadway Boulevard,75043,32.8749988,-96.6176674
3285,Broadway Boulevard,75043,32.8760353,-96.6189586
1787,Holford Road,75044,32.9660911,-96.6588691
245,Cedar Sage,75040,32.9530677,-96.6128662
11611,Lyndon B Johnson Freeway,75041,32.8739988,-96.6799130
10330,Bunchberry Drive,75243,32.9209244,-96.7068218
10330,Lawler Road,75243,32.9228863,-96.7073628
5602,Naaman Forest Boulevard,75044,32.9645284,-96.6480710
100,Coneflower Drive,75040,32.9504430,-96.6139480
701,Horseshoe Drive,75040,32.9520447,-96.6092694
241,East Interstate 30,75043,32.8493798,-96.5757464
4550,North Garland Avenue,75040,32.9565737,-96.6506086
5425,North President George Bush Highway,75044,32.9657894,-96.6439732
5235,North Garland Road,75040,32.9637725,-96.6452662
5445,North President George Bush Highway,75044,32.9661025,-96.6445451
5401,North President George Bush Highway,75044,32.9654285,-96.6434775
5301,North Garland Avenue,75040-2716,32.9658667,-96.6467794
5020,North Garland Avenue,75040,32.9612497,-96.6466030
1301,Campbell Road,75044,32.9741509,-96.6793708
4100,Tynes Drive,75042,32.9263921,-96.6937641
630,Stroud Lane,75043,32.8473859,-96.6236602
5001,Bass Pro Drive,75043,32.8660428,-96.5377712
4400,Bass Pro Drive,75043,32.8644846,-96.5424198
2545,Firewheel Parkway,75040,32.9386055,-96.6050479
4550,North Garland Avenue (Spring Creek Way),75040,32.9542937,-96.6535579
2800,Diamond Oaks Drive,75044,32.9388160,-96.6745089
2121,Apollo Road,75044,32.9528100,-96.6602780
150,Town Center Boulevard,75040,32.9540935,-96.6174868
200,Town Center Boulevard,75040,32.9538210,-96.6168415
335,South Garland Avenue,75040,32.9101440,-96.6484071
11413,Lyndon B Johnson Freeway,75041,32.8753820,-96.6820885
11421,Lyndon B Johnson Freeway,75041,32.8751309,-96.6818521
11675,Lyndon B Johnson Freeway,75041,32.8728356,-96.6777429
12215,Lyndon B Johnson Freeway,75041,32.8700500,-96.6682131
3635,South Shiloh Road,75041,32.8720004,-96.6661576
2650,McCree Road,75041,32.8719597,-96.6673986
3601,South Shiloh Road,75041,32.8733046,-96.6668389
2610,Oakland Avenue,75041,32.8757542,-96.6679653
494,West Interstate 30,75043,32.8396885,-96.5945255
6202,Broadway Boulevard,75043,32.8393158,-96.5950035
6122,Broadway Boulevard,75043,32.8411515,-96.5951433
200,East Interstate 30,75043,32.8461217,-96.5772554
501,East Interstate 30,75043,32.8516162,-96.5692632
375,East Interstate 30,75043,32.8500672,-96.5734779
532,West Interstate 30,75043,32.8376624,-96.5968705
6452,Broadway Boulevard,75043,32.8358613,-96.5946660
6421,Broadway Boulevard,75043,32.8362027,-96.5965485
514,Apollo Road,75040,32.9442338,-96.6367369
634,Apollo Road,75040,32.9452438,-96.6385080
634,Apollo Road,75040,32.9450406,-96.6382729
634,Apollo Road,75040,32.9451324,-96.6390634
634,Apollo Road,75040,32.9454065,-96.6386653
514,Apollo Road,75040,32.9445408,-96.6364913
618,Apollo Road,75040,32.9450833,-96.6375776
514,Apollo Road,75040,32.9444407,-96.6364076
634,Apollo Road,75040,32.9451376,-96.6389296
1330,Spring Creek Drive,75040,32.9526810,-96.6493978
1330,Spring Creek Drive,75040,32.9529701,-96.6493631
1610,Spring Creek Drive,75040,32.9533274,-96.6518008
1510,Spring Creek Drive,75040,32.9545832,-96.6504925
3301,West Miller Road,75041,32.8964403,-96.6785764
11405,Lyndon B Johnson Freeway,75041,32.8757886,-96.6824223
2020,State Highway 66,75040,32.9091840,-96.5985304
2002,State Highway 66,75040,32.9094178,-96.5996081
1355,State Highway 66,75040,32.9114992,-96.6132248
502,South Garland Avenue,75040,32.9087957,-96.6477348
201,Georgetown Drive,75043,32.8647754,-96.6201172
335,Clover Lane,75043,32.8617779,-96.6154600
130,East Interstate 30,75043,32.8451167,-96.5804922
130,East I-30,75043,32.8448924,-96.5807790
1322,West Kingsley Road,75041,32.8783318,-96.6467701
521,West State Street,75040,32.9136468,-96.6375995
513,West State Street,75040,32.9135961,-96.6371783
1221,Spring Creek Drive,75040,32.9510238,-96.6481057
509,West State Street,75040,32.9136155,-96.6370522
505,West State Street,75040,32.9135214,-96.6369065
203,North 5th Street,75040,32.9136403,-96.6367828
601,West State Street,75040,32.9136130,-96.6379321
605,West State Street,75040,32.9136138,-96.6380116
613,West State Street,75040,32.9136223,-96.6382584
603,Main Street,75040,32.9128127,-96.6380463
103,North 6th Street,75040,32.9129071,-96.6380439
107,North 6th Street,75040,32.9129975,-96.6381104
111,North 6th Street,75040,32.9130696,-96.6381317
219,North 7th Street,75040,32.9139821,-96.6393354
113,North 6th Street,75040,32.9131418,-96.6381300
117,North 6th Street,75040,32.9132147,-96.6380361
610,West State Street,75040,32.9132186,-96.6382598
609,Main Street,75040,32.9128162,-96.6382470
627,Main Street,75040,32.9129014,-96.6387886
614,Main Street,75040,32.9124448,-96.6384362
620,Main Street,75040,32.9124470,-96.6388352
610,Main Street,75040,32.9125153,-96.6382562
3110,Saturn Road,75041,32.8783159,-96.6474592
3222,Ranch Drive,75041,32.8762158,-96.6410727
3217,Ranch Drive,75041,32.8764887,-96.6414639
3221,Ranch Drive,75041,32.8762696,-96.6415831
3301,Ranch Drive,75041,32.8761041,-96.6416588
3030,Saturn Road,75041,32.8796780,-96.6472293
2020,Saturn Road,75041,32.8933890,-96.6473198
2022,Saturn Road,75041,32.8928209,-96.6473076
1302,West Miller Road,75041,32.8939833,-96.6471900
1330,West Miller Road,75041,32.8940765,-96.6478130
1115,Mayfield Avenue,75041,32.8687254,-96.6445071
3218,Ranch Drive,75041,32.8764383,-96.6409147
3305,Ranch Drive,75041,32.8759353,-96.6417550
3213,Ranch Drive,75041,32.8766798,-96.6413982
3302,Ranch Drive,75041,32.8757943,-96.6412631
820,West Miller Road,75041,32.8941873,-96.6418059
1246,Mc Donald Drive,75041,32.8734138,-96.6470782
1247,Ravina Drive,75041,32.8730813,-96.6470197
1243,Ravina Drive,75041,32.8730378,-96.6467822
1246,Ravina Drive,75041,32.8728493,-96.6474002
3400,Saturn Road,75041,32.8759290,-96.6474451
1320,West Kingsley Road,75041,32.8784005,-96.6451092
1201,Winifred Drive,75041,32.8775430,-96.6450543
2900,Anita Drive,75041,32.8833111,-96.6488889
2800,Saturn Road,75041,32.8842210,-96.6473325
2617,Anita Drive,75041,32.8865809,-96.6520310
2625,Anita Drive,75041,32.8857936,-96.6501480
1648,Axe Drive,75041,32.8824649,-96.6551851
3308,Ranch Drive,75041,32.8755633,-96.6414287
3313,Ranch Drive,75041,32.8755704,-96.6419918
620,Main Street,75040,32.9124454,-96.6386579
617,West State Street,75040,32.9136325,-96.6385210
618,West State Street,75040,32.9131235,-96.6386582
625,Main Street,75040,32.9128995,-96.6386490
615,Main Street,75040,32.9128987,-96.6385638
613,Main Street,75040,32.9128977,-96.6384709
3213,Collins Boulevard,75044,32.9684250,-96.6782124
3310,Collins Boulevard,75044,32.9679567,-96.6796513
520,West State Street,75040,32.9129941,-96.6371618
409,Main Street,75040,32.9128871,-96.6358640
6850,North Shiloh Road,75044,32.9772946,-96.6637831
4881,Bass Pro Drive,75043,32.8648593,-96.5376001
4861,Bass Pro Drive,75043,32.8645131,-96.5378658
4821,Bass Pro Drive,75043,32.8643116,-96.5382035
4781,Bass Pro Drive,75043,32.8641955,-96.5387508
1200,Kingsbridge Drive,75040,32.9343749,-96.6457870
2510,North Glenbrook Drive,75040,32.9388682,-96.6390800
2510,North Glenbrook Drive,75040,32.9390168,-96.6395616
2696,West Walnut Street,75042,32.9136572,-96.6696855
3101,Edgewood Drive,75042,32.9146885,-96.6759933
6130,North Jupiter Road,75044,32.9711183,-96.6820839
401,Tina Drive,75041,32.9339030,-96.6342753
534,Apollo Road,75040,32.9443753,-96.6378526
502,Belt Line Road,75040,32.9376609,-96.6346415
2422,North Glenbrook Drive,75040,32.9358312,-96.6391436
3225,South Garland Avenue,75041,32.8768030,-96.6622789
3205,South Garland Avenue,75041,32.8771116,-96.6620488
3900,Distribution Drive,75041,32.8908886,-96.6877257
3901,West Miller Road,75041,32.8962858,-96.6905310
3737,West Miller Road,75041,32.8963883,-96.6882843
3633,West Miller Road,75041,32.8950233,-96.6865863
3629,West Miller Road,75041,32.8949523,-96.6856101
3541,West Miller Road,75041,32.8950184,-96.6847012
3533,West Miller Road,75041,32.8948752,-96.6844557
3529,West Miller Road,75041,32.8949861,-96.6840558
3513,West Miller Road,75041,32.8949721,-96.6837022
4843,Naaman Forest Boulevard,75040,32.9575176,-96.6386363
4885,North President George Bush Highway,75040,32.9593921,-96.6361161
1419,Spring Creek Drive,75040,32.9552093,-96.6470148
4695,Ranger Drive,75044,32.9552560,-96.6372348
6006,North Shiloh Road,75044,32.9689088,-96.6621600
3131,Mars Drive,75040,32.9437073,-96.6136745
457,West Interstate 30,75043,32.8416797,-96.5936190
451,West Interstate 30,75043,32.8422407,-96.5943444
3330,Springpark Way,75044,32.9803420,-96.6804179
3112,North Jupiter Road,75044,32.9461860,-96.6806768
3212,North Jupiter Road,75044,32.9472744,-96.6807254
565,West Interstate 30,75043,32.8391949,-96.5997877
561,West Interstate 30,75043,32.8393874,-96.5993862
1310,Marketplace Drive,75041,32.8591125,-96.6474775
12925,Lyndon B Johnson Freeway,75041,32.8629406,-96.6575675
2002,Eastgate Drive,75041,32.8624809,-96.6571961
1910,Eastgate Drive,75041,32.8622250,-96.6566450
1901,Pendleton Drive,75041,32.8619520,-96.6548938
2018,Northwest Highway,75041,32.8635049,-96.6585116
1801,Marketplace Drive,75041,32.8631003,-96.6520192
1313,West Centerville Road,75041,32.8574180,-96.6477700
1001,West Centerville Road,75041,32.8589857,-96.6458365
12715,Lyndon B Johnson Freeway,75041,32.8672976,-96.6613631
12635,Lyndon B Johnson Freeway,75041,32.8667661,-96.6631000
1601,Nortwest Highway,75041,32.8647983,-96.6519508
3505,Lamesa Drive,75041,32.8740403,-96.6530995
3503,Lamesa Drive,75041,32.8739693,-96.6528830
3501,Lamesa Drive,75041,32.8739653,-96.6526715
2135,Northwest Highway,75041,32.8644515,-96.6602625
12721,Lyndon B Johnson Freeway,75041,32.8654195,-96.6609682
12733,Lyndon B Johnson Freeway,75041,32.8648969,-96.6608714
3645,Leon Road,75041,32.8743411,-96.6625101
1775,Northwest Highway,75041,32.8645605,-96.6546035
3101,South 1st Street,75041,32.8785195,-96.6312743
520,Shepherd Drive,75042,32.9082558,-96.6960850
2901,West Kingsley Road,75041,32.8800981,-96.6737315
2159,South Shiloh Road,75041,32.8918270,-96.6661276
2179,South Shiloh Road,75041,32.8918395,-96.6670578
4412,Bass Pro Drive,75043,32.8643212,-96.5407795
1502,East Interstate 30,75043,32.8630575,-96.5450879
1538,East Interstate 30,75043,32.8638045,-96.5439289
3788,Zion Road,75043,32.8627416,-96.5496644
3780,Zion Road,75043,32.8629562,-96.5494415
3802,Zion Road,75043,32.8625591,-96.5499195
3810,Zion Road,75043,32.8623815,-96.5501326
1785,East Interstate 30,75043,32.8671376,-96.5409117
4270,Bass Pro Drive,75043,32.8664180,-96.5444405
1635,East Interstate 30,75043,32.8659175,-96.5435600
5724,Broadway Boulevard,75043,32.8456477,-96.5950908
6118,Broadway Boulevard,75043,32.8416839,-96.5950585
3505,Hayman Drive,75043,32.8575668,-96.5761381
3520,Guthrie Road,75043,32.8382404,-96.5779514
450,East Interstate 30,75043,32.8493470,-96.5700547
6025,Silverleaf Lane,75043,32.8420350,-96.5722072
6017,Silverleaf Lane,75043,32.8422900,-96.5718412
6001,Silverleaf Lane,75043,32.8429880,-96.5711037
6010,Silverleaf Lane,75043,32.8426090,-96.5711402
6021,Silverleaf Lane,75043,32.8421995,-96.5720817
6029,Silverleaf Lane,75043,32.8418350,-96.5721912
6033,Silverleaf Lane,75043,32.8416785,-96.5721342
6006,Silverleaf Lane,75043,32.8428050,-96.5710887
7125,Barnes Bridge Road,75043,32.8333788,-96.5642099
5422,Bobtown Road,75043,32.8396493,-96.5609244
5414,Bobtown Road,75043,32.8399943,-96.5609444
5410,Bobtown Road,75043,32.8401813,-96.5609679
5406,Bobtown Road,75043,32.8403603,-96.5609529
5418,Bobtown Road,75043,32.8398188,-96.5609394
480,West Interstate 30,75043,32.8402835,-96.5932912
484,West Interstate 30,75043,32.8395951,-96.5935149
436,West Interstate 30,75043,32.8403260,-96.5926166
6310,Broadway Boulevard,75043,32.8378752,-96.5951869
2319,Guthrie Road,75043,32.8373218,-96.5941993
488,West Interstate 30,75043,32.8397327,-96.5943657
252,West Interstate 30,75043,32.8425960,-96.5872939
350,West Interstate 30,75043,32.8409724,-96.5904708
336,West Interstate 30,75043,32.8415665,-96.5900224
6510,Casa Vista Circle,75043,32.8353065,-96.5887175
2709,Cedar Elm Lane,75043,32.8349425,-96.5885825
2622,Cedar Elm Lane,75043,32.8344930,-96.5900765
2722,Cedar Elm Lane,75043,32.8345110,-96.5880095
2513,Dove Meadow Drive,75043,32.8355665,-96.5880310
6509,Casa Vista Circle,75043,32.8354815,-96.5892135
2502,Dove Meadow Drive,75043,32.8349695,-96.5874690
2730,Dove Meadow Drive,75043,32.8345630,-96.5875325
2621,Cedar Elm Lane,75043,32.8349270,-96.5900080
2505,Dove Meadow Drive,75043,32.8352450,-96.5879710
2606,Cedar Elm Lane,75043,32.8345155,-96.5908875
2726,Cedar Elm Lane,75043,32.8345005,-96.5876620
2609,Cedar Elm Lane,75043,32.8349225,-96.5906005
2705,Cedar Elm Lane,75043,32.8349370,-96.5887860
2714,Cedar Elm Lane,75043,32.8345145,-96.5884175
2710,Cedar Elm Lane,75043,32.8345110,-96.5886280
2634,Cedar Elm Lane,75043,32.8345065,-96.5894400
2618,Cedar Elm Lane,75043,32.8344940,-96.5902620
2630,Cedar Elm Lane,75043,32.8345030,-96.5896645
2610,Cedar Elm Lane,75043,32.8344950,-96.5906920
2713,Cedar Elm Lane,75043,32.8349505,-96.5883685
6505,Casa Vista Circle,75043,32.8356595,-96.5892015
2514,Dove Meadow Drive,75043,32.8354700,-96.5874840
2617,Cedar Elm Lane,75043,32.8349195,-96.5902005
2734,Cedar Elm Lane,75043,32.8347920,-96.5874030
2702,Cedar Elm Lane,75043,32.8344995,-96.5890285
6502,Guthrie Road,75043,32.8356315,-96.5885670
2510,Dove Meadow Drive,75043,32.8353045,-96.5874600
2721,Cedar Elm Lane,75043,32.8349405,-96.5879680
2509,Dove Meadow Drive,75043,32.8354100,-96.5879990
6513,Casa Vista Circle,75043,32.8353035,-96.5890680
2602,Cedar Elm Lane,75043,32.8344840,-96.5910860
6501,Casa Vista Circle,75043,32.8358185,-96.5891590
2633,Cedar Elm Lane,75043,32.8349450,-96.5893775
2637,Cedar Elm Lane,75043,32.8349245,-96.5891895
2706,Cedar Elm Lane,75043,32.8345055,-96.5888195
2614,Cedar Elm Lane,75043,32.8344755,-96.5904775
2718,Cedar Elm Lane,75043,32.8345155,-96.5881985
2638,Cedar Elm Lane,75043,32.8345065,-96.5892510
2601,Cedar Elm Lane,75043,32.8349470,-96.5909950
2626,Cedar Elm Lane,75043,32.8345100,-96.5898670
2605,Cedar Elm Lane,75043,32.8349225,-96.5908030
2613,Cedar Elm Lane,75043,32.8349290,-96.5904140
2717,Cedar Elm Lane,75043,32.8349210,-96.5881690
2629,Cedar Elm Lane,75043,32.8349290,-96.5895880
2506,Dove Meadow Drive,75043,32.8351340,-96.5874580
2625,Cedar Elm Lane,75043,32.8349620,-96.5898055
2701,Cedar Elm Lane,75043,32.8349350,-96.5889915
3217,Guthrie Road,75043,32.8368966,-96.5817143
5545,Valley Mills Drive,75043,32.8477859,-96.6263063
5741,Valley Mills Drive,75043,32.8445234,-96.6225063
5517,Valley Mills Drive,75043,32.8486249,-96.6273148
5637,Valley Mills Drive,75043,32.8465129,-96.6248008
5613,Valley Mills Drive,75043,32.8472929,-96.6257058
5753,Valley Mills Drive,75043,32.8441744,-96.6221093
5505,Valley Mills Drive,75043,32.8490104,-96.6277428
5617,Valley Mills Drive,75043,32.8471714,-96.6255693
5701,Valley Mills Drive,75043,32.8457349,-96.6239013
5745,Valley Mills Drive,75043,32.8444279,-96.6223953
5733,Valley Mills Drive,75043,32.8447739,-96.6228033
5749,Valley Mills Drive,75043,32.8442859,-96.6222588
5705,Valley Mills Drive,75043,32.8456279,-96.6237848
5501,Valley Mills Drive,75043,32.8491174,-96.6279108
5641,Valley Mills Drive,75043,32.8463614,-96.6246703
5609,Valley Mills Drive,75043,32.8473984,-96.6258493
5713,Valley Mills Drive,75043,32.8453644,-96.6235068
5525,Valley Mills Drive,75043,32.8483899,-96.6270478
5649,Valley Mills Drive,75043,32.8461204,-96.6243778
5653,Valley Mills Drive,75043,32.8460099,-96.6242463
5645,Valley Mills Drive,75043,32.8462449,-96.6245173
5529,Valley Mills Drive,75043,32.8482574,-96.6268693
5513,Valley Mills Drive,75043,32.8487504,-96.6274658
5533,Valley Mills Drive,75043,32.8481604,-96.6267238
5521,Valley Mills Drive,75043,32.8485169,-96.6271848
706,Stroud Lane,75043,32.8467524,-96.6253188
5709,Valley Mills Drive,75043,32.8454779,-96.6236233
5725,Valley Mills Drive,75043,32.8450024,-96.6230768
5601,Valley Mills Drive,75043,32.8476639,-96.6261648
5633,Valley Mills Drive,75043,32.8466129,-96.6249253
5729,Valley Mills Drive,75043,32.8448864,-96.6229523
5737,Valley Mills Drive,75043,32.8446489,-96.6226743
5605,Valley Mills Drive,75043,32.8475494,-96.6259913
5509,Valley Mills Drive,75043,32.8488854,-96.6275938
702,Stroud Lane,75043,32.8468644,-96.6251633
5717,Valley Mills Drive,75043,32.8452534,-96.6233498
5541,Valley Mills Drive,75043,32.8478854,-96.6264358
5721,Valley Mills Drive,75043,32.8451414,-96.6232163
5537,Valley Mills Drive,75043,32.8480064,-96.6265863
914,Heritage Circle,75043,32.8472993,-96.6324181
1121,Rockledge Drive,75043,32.8508388,-96.6409281
5313,La Jolla Drive,75043,32.8532973,-96.6437406
1218,Rockledge Drive,75043,32.8504098,-96.6397471
1406,Park East Drive,75043,32.8485633,-96.6376206
909,Hudson Drive,75043,32.8471468,-96.6320316
1205,Rockledge Drive,75043,32.8505823,-96.6406551
930,Briar Way,75043,32.8477698,-96.6334846
1226,Rockledge Drive,75043,32.8501798,-96.6394776
5317,La Jolla Drive,75043,32.8531708,-96.6436186
1005,Heritage Drive,75043,32.8469713,-96.6336691
1505,Heritage Drive,75043,32.8465983,-96.6360191
5430,La Jolla Drive,75043,32.8522268,-96.6419461
918,Hudson Drive,75043,32.8470788,-96.6313931
5410,La Jolla Drive,75043,32.8528178,-96.6425661
5434,La Jolla Drive,75043,32.8521208,-96.6417601
921,Heritage Circle,75043,32.8473873,-96.6331716
1301,Rockledge Drive,75043,32.8496729,-96.6395921
1013,Briar Way,75043,32.8473558,-96.6346106
1018,Briar Way,75043,32.8468748,-96.6343671
901,Hudson Drive,75043,32.8474018,-96.6316981
913,Hudson Drive,75043,32.8470283,-96.6321981
5325,La Jolla Drive,75043,32.8529283,-96.6433126
926,Hudson Drive,75043,32.8468483,-96.6317001
5425,La Jolla Drive,75043,32.8520698,-96.6424006
1521,Heritage Drive,75043,32.8460598,-96.6354406
1537,Heritage Drive,75043,32.8455733,-96.6347636
1022,Heritage Drive,75043,32.8461518,-96.6338761
1309,Rockledge Drive,75043,32.8494273,-96.6393126
1010,Briar Way,75043,32.8471368,-96.6341356
1001,Heritage Drive,75043,32.8470553,-96.6335031
930,Hudson Drive,75043,32.8466918,-96.6317956
806,Hudson Drive,75043,32.8485428,-96.6323036
1006,Briar Way,75043,32.8473028,-96.6339726
1217,Rockledge Drive,75043,32.8501893,-96.6401876
1310,Rockledge Drive,75043,32.8495908,-96.6387581
929,Briar Way,75043,32.8481178,-96.6338501
1510,Heritage Drive,75043,32.8466803,-96.6354551
5309,La Jolla Drive,75043,32.8534203,-96.6439076
1518,Heritage Drive,75043,32.8464263,-96.6351531
1530,Heritage Drive,75043,32.8460393,-96.6347071
921,Hudson Drive,75043,32.8468043,-96.6324896
934,Hudson Drive,75043,32.8465923,-96.6319951
5437,La Jolla Drive,75043,32.8517218,-96.6419671
1006,Heritage Drive,75043,32.8466508,-96.6332921
830,Hudson Drive,75043,32.8478043,-96.6314151
1302,Rockledge Drive,75043,32.8498932,-96.6391164
1002,Briar Way,75043,32.8474593,-96.6338886
1506,Heritage Drive,75043,32.8468008,-96.6355861
1417,Park East Drive,75043,32.8479763,-96.6376731
5417,La Jolla Drive,75043,32.8522903,-96.6426631
1405,Park East Drive,75043,32.8483653,-96.6380911
901,Briar Way,75043,32.8490598,-96.6327246
906,Hudson Drive,75043,32.8475693,-96.6310436
914,Hudson Drive,75043,32.8471688,-96.6311856
1023,Heritage Drive,75043,32.8463318,-96.6344326
5414,La Jolla Drive,75043,32.8526988,-96.6424291
1513,Heritage Drive,75043,32.8463458,-96.6357196
1225,Rockledge Drive,75043,32.8499558,-96.6398966
917,Heritage Circle,75043,32.8475188,-96.6330641
1009,Heritage Drive,75043,32.8468533,-96.6338251
1529,Heritage Drive,75043,32.8457998,-96.6351836
801,Hudson Drive,75043,32.8483748,-96.6327936
1422,Park East Drive,75043,32.8480583,-96.6370401
5409,La Jolla Drive,75043,32.8525423,-96.6429331
1430,Park East Drive,75043,32.8477913,-96.6367511
913,Briar Way,75043,32.8486633,-96.6332056
917,Briar Way,75043,32.8484783,-96.6333421
1305,Rockledge Drive,75043,32.8495563,-96.6394511
1401,Park East Drive,75043,32.8484798,-96.6382301
5405,La Jolla Drive,75043,32.8526763,-96.6430486
1021,Briar Way,75043,32.8470953,-96.6349931
1209,Rockledge Drive,75043,32.8504643,-96.6404851
1425,Park East Drive,75043,32.8477468,-96.6373431
1526,Heritage Drive,75043,32.8461738,-96.6348631
1206,Rockledge Drive,75043,32.8507953,-96.6401966
1014,Briar Way,75043,32.8470083,-96.6342881
902,Hudson Drive,75043,32.8477053,-96.6312376
909,Heritage Circle,75043,32.8477028,-96.6326466
1210,Rockledge Drive,75043,32.8506673,-96.6400416
918,Heritage Circle,75043,32.8471688,-96.6326691
1010,Heritage Drive,75043,32.8465343,-96.6334731
1201,Rockledge Drive,75043,32.8507268,-96.6407776
1522,Heritage Drive,75043,32.8462963,-96.6350036
5401,La Jolla Drive,75043,32.8528028,-96.6431891
1017,Heritage Drive,75043,32.8465928,-96.6341351
938,Hudson Drive,75043,32.8464528,-96.6321001
5314,La Jolla Drive,75043,32.8535903,-96.6434421
1026,Briar Way,75043,32.8466598,-96.6347996
1533,Heritage Drive,75043,32.8456903,-96.6349776
813,Hudson Drive,75043,32.8480338,-96.6323291
926,Briar Way,75043,32.8479028,-96.6333271
818,Hudson Drive,75043,32.8481888,-96.6318626
922,Briar Way,75043,32.8480338,-96.6331676
922,Heritage Circle,75043,32.8470558,-96.6328056
922,Hudson Drive,75043,32.8469593,-96.6315426
1002,Heritage Drive,75043,32.8467813,-96.6331361
905,Briar Way,75043,32.8489083,-96.6329011
826,Hudson Drive,75043,32.8479168,-96.6315506
1306,Rockledge Drive,75043,32.8497193,-96.6389756
805,Hudson Drive,75043,32.8482816,-96.6326552
1009,Briar Way,75043,32.8474853,-96.6343986
1013,Heritage Drive,75043,32.8466728,-96.6339736
1222,Rockledge Drive,75043,32.8502953,-96.6395971
1014,Heritage Drive,75043,32.8463735,-96.6335833
1414,Park East Drive,75043,32.8483208,-96.6373041
821,Hudson Drive,75043,32.8477853,-96.6320591
1114,Heritage Drive,75043,32.8456238,-96.6345291
1502,Heritage Drive,75043,32.8469478,-96.6357821
802,Hudson Drive,75043,32.8486723,-96.6324366
817,Hudson Drive,75043,32.8479053,-96.6321931
1102,Heritage Drive,75043,32.8460148,-96.6340706
814,Hudson Drive,75043,32.8483308,-96.6319991
5322,La Jolla Drive,75043,32.8532998,-96.6430801
5421,La Jolla Drive,75043,32.8521973,-96.6425111
909,Briar Way,75043,32.8487438,-96.6330236
5321,La Jolla Drive,75043,32.8530418,-96.6434971
1005,Briar Way,75043,32.8476373,-96.6343326
5433,La Jolla Drive,75043,32.8518418,-96.6421026
1421,Park East Drive,75043,32.8478633,-96.6374946
1525,Heritage Drive,75043,32.8459208,-96.6353046
1018,Heritage Drive,75043,32.8462718,-96.6337921
5305,La Jolla Drive,75043,32.8535473,-96.6440296
905,Hudson Drive,75043,32.8472778,-96.6318841
917,Hudson Drive,75043,32.8468713,-96.6323316
1409,Park East Drive,75043,32.8482462,-96.6379514
1402,Park East Drive,75043,32.8487163,-96.6377971
5413,La Jolla Drive,75043,32.8524203,-96.6428126
1213,Rockledge Drive,75043,32.8503363,-96.6403366
1501,Heritage Drive,75043,32.8467143,-96.6361701
1110,Heritage Drive,75043,32.8457883,-96.6343751
1202,Rockledge Drive,75043,32.8509243,-96.6403366
5318,La Jolla Drive,75043,32.8534583,-96.6432701
913,Heritage Circle,75043,32.8476943,-96.6329171
1022,Briar Way,75043,32.8466928,-96.6345636
1021,Heritage Drive,75043,32.8464173,-96.6342896
1413,Park East Drive,75043,32.8480938,-96.6377556
1433,Park East Drive,75043,32.8474853,-96.6370541
810,Hudson Drive,75043,32.8484388,-96.6321541
1517,Heritage Drive,75043,32.8461778,-96.6355666
910,Heritage Circle,75043,32.8475333,-96.6324431
1229,Rockledge Drive,75043,32.8498283,-96.6397401
1313,Rockledge Drive,75043,32.8493028,-96.6391516
1418,Park East Drive,75043,32.8481843,-96.6371671
825,Hudson Drive,75043,32.8476639,-96.6319093
5426,La Jolla Drive,75043,32.8524098,-96.6421146
822,Hudson Drive,75043,32.8480453,-96.6317186
1106,Heritage Drive,75043,32.8459033,-96.6341786
1025,Briar Way,75043,32.8469033,-96.6350276
1017,Briar Way,75043,32.8472128,-96.6347456
809,Hudson Drive,75043,32.8481503,-96.6324821
1001,Briar Way,75043,32.8477733,-96.6341811
1410,Park East Drive,75043,32.8484368,-96.6374756
918,Briar Way,75043,32.8481668,-96.6330091
1509,Heritage Drive,75043,32.8464663,-96.6358726
5301,La Jolla Drive,75043,32.8536793,-96.6441796
1426,Park East Drive,75043,32.8479428,-96.6369291
921,Briar Way,75043,32.8483913,-96.6335056
925,Briar Way,75043,32.8482098,-96.6336751
1514,Heritage Drive,75043,32.8465488,-96.6352801
1221,Rockledge Drive,75043,32.8500778,-96.6400131
806,West Centerville Road,75041,32.8605574,-96.6424660
1122,West Centerville Road,75041,32.8550624,-96.6438800
1360,West Centerville Road,75041,32.8545781,-96.6449093
1340,West Centerville Road,75041,32.8550930,-96.6456975
1334,West Centerville Road,75041,32.8554915,-96.6460485
1310,West Centerville Road,75041,32.8567800,-96.6471713
1328,West Centerville Road,75041,32.8560376,-96.6469919
1214,West Centerville Road,75041,32.8569624,-96.6467181
1318,West Centerville Road,75041,32.8563389,-96.6475353
1110,West Centerville Road,75041,32.8578664,-96.6458251
1000,West Centerville Road,75041,32.8582495,-96.6450164
738,West Centerville Road,75041,32.8611966,-96.6416764
131,Lavon Drive,75040,32.9130479,-96.6300207
214,South Garland Avenue,75040,32.9123214,-96.6470135
1404,West Walnut,75042,32.9157488,-96.6487470
702,Main Street,75040,32.9124092,-96.6393054
600,West Avenue A,75040,32.9112709,-96.6378172
316,Main Street,75040,32.9123753,-96.6351509
713,Main Street,75040,32.9130475,-96.6398933
520,Main Street,75040,32.9124822,-96.6371340
532,Main Street,75040,32.9124824,-96.6374774
532,Main Street,75040,32.9124571,-96.6376077
4555,Forest Lane,75042,32.9094658,-96.7001581
450,North Plano Road,75042,32.9157806,-96.6997296
2520,West Walnut Street,75042,32.9160250,-96.6664746
2437,Cardinal Lane,75042,32.9040408,-96.6648390
721,Marion Drive,75042,32.9062188,-96.6534830
1855,South Garland Avenue,75040,32.8965851,-96.6495357
525,West Interstate 30,75043,32.8404841,-96.5980182
601,Trailwood Court,75043,32.8410006,-96.6112233
603,Trailwood Court,75043,32.8410003,-96.6112973
605,Trailwood Court,75043,32.8410000,-96.6113737
607,Trailwood Court,75043,32.8409998,-96.6114503
609,Trailwood Court,75043,32.8409994,-96.6115215
611,Trailwood Court,75043,32.8409992,-96.6115927
613,Trailwood Court,75043,32.8409988,-96.6116665
620,Trailwood Court,75043,32.8404760,-96.6120873
618,Trailwood Court,75043,32.8404580,-96.6120004
616,Trailwood Court,75043,32.8404400,-96.6119135
614,Trailwood Court,75043,32.8404219,-96.6118267
630,Trailwood Court,75043,32.8406190,-96.6125301
628,Trailwood Court,75043,32.8405875,-96.6124517
626,Trailwood Court,75043,32.8405559,-96.6123732
624,Trailwood Court,75043,32.8405244,-96.6122948
610,Trailwood Court,75043,32.8404148,-96.6116180
608,Trailwood Court,75043,32.8404199,-96.6115290
606,Trailwood Court,75043,32.8404252,-96.6114399
604,Trailwood Court,75043,32.8404302,-96.6113509
602,Trailwood Court,75043,32.8404355,-96.6112618
950,Trails Parkway,75043,32.8404213,-96.6174931
602,Trails Parkway,75043,32.8413917,-96.6112319
606,Trails Parkway,75043,32.8413898,-96.6113788
615,Trailwood Court,75043,32.8409986,-96.6117404
616,Trails Parkway,75043,32.8413855,-96.6117203
612,Trails Parkway,75043,32.8413873,-96.6115761
614,Trails Parkway,75043,32.8413864,-96.6116419
608,Trails Parkway,75043,32.8413890,-96.6114446
610,Trails Parkway,75043,32.8413882,-96.6115103
604,Trails Parkway,75043,32.8413908,-96.6113079
577,Trails Parkway,75043,32.8418729,-96.6104813
510,Briarcliff Drive,75043,32.8405144,-96.6080638
582,Trailcrest Drive,75043,32.8410004,-96.6104878
502,Briarcliff Drive,75043,32.8406329,-96.6078218
502,Country View Lane,75043,32.8449519,-96.6126863
226,Country View Lane,75043,32.8441899,-96.6114828
505,Country View Lane,75043,32.8450789,-96.6132388
575,Briarcliff Drive,75043,32.8407924,-96.6102253
6005,Hillside Lane,75043,32.8430804,-96.6076048
317,Hillside Court,75043,32.8441249,-96.6090738
6101,Hillside Lane,75043,32.8417354,-96.6071563
6119,Ridge Top Lane,75043,32.8406419,-96.6074048
6105,Ridge Top Lane,75043,32.8417494,-96.6085648
430,Country View Lane,75043,32.8460219,-96.6113923
5805,Timberview Circle,75043,32.8454339,-96.6108318
457,Country View Lane,75043,32.8454279,-96.6128898
317,Indian Trail Lane,75043,32.8433449,-96.6086598
606,Country View Lane,75043,32.8431899,-96.6148098
6118,Ridge Top Lane,75043,32.8410394,-96.6070963
526,Country View Lane,75043,32.8441269,-96.6136858
305,Allegheny Trail Lane,75043,32.8451539,-96.6086403
6006,Hillside Lane,75043,32.8433139,-96.6071598
325,Trail View Lane,75043,32.8440919,-96.6099683
542,Country View Lane,75043,32.8436024,-96.6143158
614,Country View Lane,75043,32.8429099,-96.6151208
109,Country View Lane,75043,32.8422269,-96.6131178
6021,Hillside Lane,75043,32.8423158,-96.6073612
725,Trails Parkway,75043,32.8418708,-96.6144964
622,Country View Lane,75043,32.8426314,-96.6154553
209,Trail View Lane,75043,32.8427324,-96.6089613
325,Country View Lane,75043,32.8456584,-96.6089538
433,Country View Lane,75043,32.8462294,-96.6119438
445,Country View Lane,75043,32.8458359,-96.6124018
634,Country View Lane,75043,32.8422469,-96.6159398
417,Trails Court,75043,32.8451834,-96.6117378
5809,Timberview Circle,75043,32.8456364,-96.6109978
6014,Ozark Trail Lane,75043,32.8426374,-96.6100273
5918,Hillside Lane,75043,32.8444004,-96.6076708
218,Country View Lane,75043,32.8439274,-96.6117868
306,Hillside Court,75043,32.8439409,-96.6081823
5926,Hillside Lane,75043,32.8440679,-96.6074138
6006,Ridge Top Lane,75043,32.8429169,-96.6080094
598,Briarcliff Drive,75043,32.8407344,-96.6109088
318,Trail View Lane,75043,32.8434754,-96.6101663
412,Trail View Lane,75043,32.8445474,-96.6114853
434,Trail View Lane,75043,32.8442014,-96.6120823
555,Briarcliff Drive,75043,32.8407854,-96.6095718
314,Hillside Court,75043,32.8437779,-96.6085923
206,Trail View Lane,75043,32.8424559,-96.6094363
437,Country View Lane,75043,32.8460734,-96.6120988
437,Trail View Lane,75043,32.8443909,-96.6127188
5813,Timberview Circle,75043,32.8459124,-96.6109258
6005,Ozark Trail Lane,75043,32.8426995,-96.6106822
326,Trail View Lane,75043,32.8437849,-96.6104298
633,Country View Lane,75043,32.8425749,-96.6162473
519,Briarcliff Drive,75043,32.8408464,-96.6085568
530,Trailcrest Drive,75043,32.8412319,-96.6093088
318,Country View Lane,75043,32.8458114,-96.6096133
442,Trail View Lane,75043,32.8439344,-96.6124018
446,Trail View Lane,75043,32.8437984,-96.6125628
313,Hillside Court,75043,32.8441699,-96.6088433
6001,Ozark Trail Lane,75043,32.8428769,-96.6108488
210,Trail View Lane,75043,32.8426924,-96.6095388
625,Country View Lane,75043,32.8428579,-96.6159243
506,Briarcliff Drive,75043,32.8405524,-96.6079263
6113,Ridge Top Lane,75043,32.8410914,-96.6078268
421,Country View Lane,75043,32.8466379,-96.6114343
558,Trailcrest Drive,75043,32.8410049,-96.6097043
6006,Ponderosa Trail Court,75043,32.8428194,-96.6113173
426,Country View Lane,75043,32.8461599,-96.6112403
602,Country View Lane,75043,32.8432964,-96.6146398
321,Allegheny Trail Lane,75043,32.8448149,-96.6094308
6106,Ridge Top Lane,75043,32.8417234,-96.6075938
6109,Hillside Lane,75043,32.8412219,-96.6069483
510,Trail View Lane,75043,32.8432629,-96.6132208
582,Briarcliff Drive,75043,32.8403604,-96.6104973
322,Hillside Court,75043,32.8436719,-96.6091198
537,Country View Lane,75043,32.8439784,-96.6145548
429,Trail View Lane,75043,32.8446634,-96.6123303
322,Country View Lane,75043,32.8459329,-96.6094128
402,Country View Lane,75043,32.8461359,-96.6098528
122,Country View Lane,75043,32.8429574,-96.6129523
605,Trail View Lane,75043,32.8428779,-96.6144388
113,Country View Lane,75043,32.8423649,-96.6129133
610,Briarcliff Drive,75043,32.8410704,-96.6109133
509,Trail View Lane,75043,32.8435799,-96.6136583
5934,Hillside Lane,75043,32.8436924,-96.6072863
309,Indian Trail Lane,75043,32.8435254,-96.6082388
541,Country View Lane,75043,32.8438439,-96.6147273
449,Country View Lane,75043,32.8456904,-96.6125783
581,Trails Parkway,75043,32.8418344,-96.6107133
526,Briarcliff Drive,75043,32.8403584,-96.6086683
326,Allegheny Trail Lane,75043,32.8443529,-96.6094423
554,Briarcliff Drive,75043,32.8403549,-96.6095798
6018,Ridge Top Lane,75043,32.8423324,-96.6078288
6009,Hillside Lane,75043,32.8428889,-96.6075208
422,Trail View Lane,75043,32.8444799,-96.6117383
637,Country View Lane,75043,32.8424294,-96.6164248
521,Trail View Lane,75043,32.8431894,-96.6141053
314,Country View Lane,75043,32.8457254,-96.6098858
809,Trails Parkway,75043,32.8416939,-96.6157653
539,Briarcliff Drive,75043,32.8407864,-96.6090438
510,Country View Lane,75043,32.8446729,-96.6130198
121,Country View Lane,75043,32.8426449,-96.6125743
305,Country View Lane,75043,32.8451594,-96.6101528
613,Trail View Lane,75043,32.8426204,-96.6147523
527,Trailcrest Drive,75043,32.8413779,-96.6087743
649,Country View Lane,75043,32.8418749,-96.6167248
202,Country View Lane,75043,32.8433764,-96.6124538
305,Indian Trail Lane,75043,32.8436214,-96.6080243
513,Country View Lane,75043,32.8448199,-96.6135733
6001,Hillside Lane,75043,32.8432724,-96.6076588
6021,Ponderosa Trail Court,75043,32.8420129,-96.6116258
526,Trailcrest Drive,75043,32.8411459,-96.6092243
617,Country View Lane,75043,32.8431194,-96.6156033
105,Country View Lane,75043,32.8419954,-96.6132398
562,Briarcliff Drive,75043,32.8403559,-96.6098388
421,Trails Court,75043,32.8449689,-96.6119018
566,Briarcliff Drive,75043,32.8403514,-96.6099703
322,Allegheny Trail Lane,75043,32.8444209,-96.6092083
562,Trailcrest Drive,75043,32.8410004,-96.6098278
6103,Ridge Top Lane,75043,32.8419984,-96.6085508
513,Briarcliff Drive,75043,32.8409189,-96.6084578
5914,Ozark Trail Lane,75043,32.8434259,-96.6106748
606,Briarcliff Drive,75043,32.8409629,-96.6109103
551,Briarcliff Drive,75043,32.8407834,-96.6094433
201,Country View Lane,75043,32.8430689,-96.6120748
525,Country View Lane,75043,32.8443694,-96.6141003
317,Country View Lane,75043,32.8454284,-96.6094103
517,Trail View Lane,75043,32.8433129,-96.6139703
6029,Hillside Lane,75043,32.8419264,-96.6072363
645,Country View Lane,75043,32.8420924,-96.6167008
550,Trailcrest Drive,75043,32.8410474,-96.6093993
314,Allegheny Trail Lane,75043,32.8446009,-96.6087893
301,Country View Lane,75043,32.8448559,-96.6103093
301,Trail View Lane,75043,32.8431069,-96.6091688
610,Country View Lane,75043,32.8430454,-96.6149748
546,Country View Lane,75043,32.8434669,-96.6144628
6017,Shady Valley Court,75043,32.8421739,-96.6125033
101,Country View Lane,75043,32.8418109,-96.6132168
5914,Hillside Lane,75043,32.8445754,-96.6077748
519,Trailcrest Drive,75043,32.8411584,-96.6085958
578,Briarcliff Drive,75043,32.8403624,-96.6103633
325,Allegheny Trail Lane,75043,32.8447064,-96.6096408
458,Country View Lane,75043,32.8450639,-96.6125398
330,Allegheny Trail Lane,75043,32.8442284,-96.6096718
549,Trailcrest Drive,75043,32.8415924,-96.6094293
6018,Ozark Trail Lane,75043,32.8424784,-96.6099128
590,Briarcliff Drive,75043,32.8404774,-96.6108048
6030,Hillside Lane,75043,32.8422159,-96.6067973
6010,Hillside Lane,75043,32.8431454,-96.6070848
110,Country View Lane,75043,32.8424864,-96.6135093
442,Country View Lane,75043,32.8455899,-96.6118863
6110,Ridge Top Lane,75043,32.8415094,-96.6074978
6102,Ridge Top Lane,75043,32.8418904,-96.6076898
6010,Ozark Trail Lane,75043,32.8427859,-96.6101623
557,Trailcrest Drive,75043,32.8414479,-96.6096743
6005,Ponderosa Trail Court,75043,32.8425344,-96.6119363
6022,Shady Valley Court,75043,32.8420204,-96.6120588
621,Country View Lane,75043,32.8429769,-96.6157943
514,Briarcliff Drive,75043,32.8404944,-96.6082143
531,Trailcrest Drive,75043,32.8415149,-96.6087748
5918,Ozark Trail Lane,75043,32.8432649,-96.6105488
318,Hillside Court,75043,32.8436349,-96.6087968
6002,Ridge Top Lane,75043,32.8431024,-96.6081043
530,Country View Lane,75043,32.8439999,-96.6137973
6106,Hillside Lane,75043,32.8416714,-96.6065128
501,Country View Lane,75043,32.8452294,-96.6130928
313,Trail View Lane,75043,32.8435859,-96.6095578
601,Trail View Lane,75043,32.8430259,-96.6143003
310,Trail View Lane,75043,32.8431454,-96.6099208
5917,Ozark Trail Lane,75043,32.8430228,-96.6109637
530,Briarcliff Drive,75043,32.8403524,-96.6087978
618,Country View Lane,75043,32.8427674,-96.6152863
309,Country View Lane,75043,32.8453004,-96.6099173
6025,Hillside Lane,75043,32.8421319,-96.6073103
653,Country View Lane,75043,32.8416774,-96.6167283
6114,Ridge Top Lane,75043,32.8413289,-96.6073598
6001,Ridge Top Lane,75043,32.8429199,-96.6085303
585,Trailcrest Drive,75043,32.8414364,-96.6107078
625,Trail View Lane,75043,32.8421894,-96.6152418
338,Trail View Lane,75043,32.8442434,-96.6107728
543,Briarcliff Drive,75043,32.8407854,-96.6091788
125,Country View Lane,75043,32.8427928,-96.6124314
518,Trail View Lane,75043,32.8429874,-96.6135768
547,Briarcliff Drive,75043,32.8407799,-96.6093108
5910,Hillside Lane,75043,32.8447424,-96.6079063
446,Country View Lane,75043,32.8454874,-96.6120203
210,Country View Lane,75043,32.8436514,-96.6121188
222,Country View Lane,75043,32.8440629,-96.6116163
6034,Hillside Lane,75043,32.8420384,-96.6067033
6017,Ozark Trail Lane,75043,32.8421979,-96.6103253
513,Trail View Lane,75043,32.8434279,-96.6138333
117,Country View Lane,75043,32.8424979,-96.6127428
6114,Hillside Lane,75043,32.8412604,-96.6063973
6102,Hillside Lane,75043,32.8418404,-96.6066368
330,Trail View Lane,75043,32.8439409,-96.6105583
217,Country View Lane,75043,32.8436243,-96.6114371
309,Hillside Court,75043,32.8442569,-96.6086523
302,Trail View Lane,75043,32.8428469,-96.6096568
6014,Hillside Lane,75043,32.8429439,-96.6070453
6013,Ridge Top Lane,75043,32.8423684,-96.6083793
6022,Ridge Top Lane,75043,32.8421059,-96.6077723
334,Trail View Lane,75043,32.8441019,-96.6106893
817,Trails Parkway,75043,32.8415854,-96.6161768
6111,Ridge Top Lane,75043,32.8412699,-96.6079558
6105,Hillside Lane,75043,32.8415609,-96.6070708
6121,Ridge Top Lane,75043,32.8404569,-96.6071423
517,Country View Lane,75043,32.8446889,-96.6137246
6022,Ozark Trail Lane,75043,32.8423344,-96.6098373
538,Briarcliff Drive,75043,32.8403549,-96.6090608
337,Allegheny Trail Lane,75043,32.8443774,-96.6102723
561,Trails Parkway,75043,32.8419149,-96.6097858
425,Country View Lane,75043,32.8464899,-96.6116033
6117,Ridge Top Lane,75043,32.8407904,-96.6075298
5906,Hillside Lane,75043,32.8449269,-96.6079823
5810,Timberview Circle,75043,32.8459934,-96.6107043
578,Trailcrest Drive,75043,32.8409879,-96.6103513
433,Trail View Lane,75043,32.8444934,-96.6125128
6017,Hillside Lane,75043,32.8424954,-96.6074343
6002,Hillside Lane,75043,32.8434994,-96.6072323
409,Trails Court,75043,32.8452054,-96.6112128
535,Trailcrest Drive,75043,32.8416079,-96.6088498
6013,Hillside Lane,75043,32.8426879,-96.6075238
5802,Timberview Circle,75043,32.8456779,-96.6102373
605,Country View Lane,75043,32.8435344,-96.6151223
621,Trail View Lane,75043,32.8423379,-96.6151133
5913,Ozark Trail Lane,75043,32.8431819,-96.6110703
310,Hillside Court,75043,32.8438564,-96.6083918
566,Trailcrest Drive,75043,32.8410049,-96.6099608
306,Trail View Lane,75043,32.8429894,-96.6097778
6010,Ridge Top Lane,75043,32.8426939,-96.6079668
6002,Ozark Trail Lane,75043,32.8431209,-96.6104053
6001,Ponderosa Trail Court,75043,32.8427739,-96.6117933
534,Country View Lane,75043,32.8438494,-96.6140013
6014,Ponderosa Trail Court,75043,32.8424169,-96.6111183
522,Briarcliff Drive,75043,32.8403929,-96.6085143
509,Country View Lane,75043,32.8449479,-96.6134068
617,Trail View Lane,75043,32.8425049,-96.6149538
505,Trail View Lane,75043,32.8437339,-96.6134823
506,Country View Lane,75043,32.8448059,-96.6128558
209,Country View Lane,75043,32.8433494,-96.6117643
205,Country View Lane,75043,32.8432074,-96.6119063
521,Country View Lane,75043,32.8445269,-96.6138988
401,Trail View Lane,75043,32.8449484,-96.6108028
579,Briarcliff Drive,75043,32.8407904,-96.6103588
201,Trail View Lane,75043,32.8421454,-96.6089353
6025,Shady Valley Court,75043,32.8418164,-96.6127433
402,Trail View Lane,75043,32.8445584,-96.6111613
6018,Shady Valley Court,75043,32.8422054,-96.6121783
557,Trails Parkway,75043,32.8420519,-96.6095618
574,Trailcrest Drive,75043,32.8409944,-96.6102278
321,Trail View Lane,75043,32.8439104,-96.6098548
554,Trailcrest Drive,75043,32.8410264,-96.6095473
6130,Hillside Lane,75043,32.8405009,-96.6068873
405,Trail View Lane,75043,32.8450074,-96.6111213
441,Country View Lane,75043,32.8459414,-96.6122298
302,Hillside Court,75043,32.8440254,-96.6079788
5930,Hillside Lane,75043,32.8438734,-96.6073613
333,Allegheny Trail Lane,75043,32.8445044,-96.6100453
313,Allegheny Trail Lane,75043,32.8449689,-96.6090313
6126,Hillside Lane,75043,32.8407064,-96.6067528
514,Trail View Lane,75043,32.8431139,-96.6133773
502,Trail View Lane,75043,32.8435064,-96.6128913
205,Trail View Lane,75043,32.8424369,-96.6089038
570,Trailcrest Drive,75043,32.8410049,-96.6100908
317,Trail View Lane,75043,32.8437489,-96.6096938
522,Trail View Lane,75043,32.8428449,-96.6137048
438,Trail View Lane,75043,32.8440714,-96.6122418
535,Briarcliff Drive,75043,32.8407804,-96.6089213
545,Trailcrest Drive,75043,32.8416644,-96.6093108
413,Trails Court,75043,32.8453134,-96.6114913
450,Trail View Lane,75043,32.8436444,-96.6127163
594,Briarcliff Drive,75043,32.8405864,-96.6108948
6026,Ponderosa Trail Court,75043,32.8418229,-96.6110728
329,Allegheny Trail Lane,75043,32.8446214,-96.6098428
571,Briarcliff Drive,75043,32.8407899,-96.6100923
417,Country View Lane,75043,32.8468174,-96.6111538
589,Trailcrest Drive,75043,32.8413379,-96.6108318
450,Country View Lane,75043,32.8453514,-96.6121733
429,Country View Lane,75043,32.8463604,-96.6117658
5806,Timberview Circle,75043,32.8458824,-96.6104228
541,Trailcrest Drive,75043,32.8417464,-96.6091523
6002,Ponderosa Trail Court,75043,32.8429174,-96.6115793
301,Indian Trail Lane,75043,32.8436844,-96.6078113
581,Trailcrest Drive,75043,32.8414274,-96.6105533
118,Country View Lane,75043,32.8428089,-96.6131158
6017,Ponderosa Trail Court,75043,32.8422094,-96.6115918
206,Country View Lane,75043,32.8435059,-96.6122808
570,Briarcliff Drive,75043,32.8403604,-96.6101043
425,Trail View Lane,75043,32.8447649,-96.6121828
602,Briarcliff Drive,75043,32.8408379,-96.6109248
318,Allegheny Trail Lane,75043,32.8445089,-96.6090078
6018,Ponderosa Trail Court,75043,32.8422084,-96.6110863
626,Country View Lane,75043,32.8425074,-96.6155908
514,Country View Lane,75043,32.8445319,-96.6131853
5910,Ozark Trail Lane,75043,32.8436049,-96.6108138
317,Allegheny Trail Lane,75043,32.8448939,-96.6092568
507,Briarcliff Drive,75043,32.8409924,-96.6083593
322,Trail View Lane,75043,32.8436219,-96.6103113
5909,Ozark Trail Lane,75043,32.8433199,-96.6111948
445,Trail View Lane,75043,32.8441074,-96.6129653
6025,Ponderosa Trail Court,75043,32.8418254,-96.6116228
574,Briarcliff Drive,75043,32.8403614,-96.6102328
301,Hillside Court,75043,32.8444194,-96.6082438
321,Country View Lane,75043,32.8454784,-96.6091648
558,Briarcliff Drive,75043,32.8403514,-96.6097113
321,Hillside Court,75043,32.8438799,-96.6093188
6122,Hillside Lane,75043,32.8408639,-96.6066068
542,Briarcliff Drive,75043,32.8403549,-96.6091908
5902,Ozark Trail Lane,75043,32.8439169,-96.6110388
214,Country View Lane,75043,32.8437919,-96.6119468
310,Allegheny Trail Lane,75043,32.8446709,-96.6085733
430,Trail View Lane,75043,32.8443384,-96.6119168
314,Trail View Lane,75043,32.8433099,-96.6100473
329,Country View Lane,75043,32.8458714,-96.6087603
6005,Ridge Top Lane,75043,32.8427584,-96.6084823
441,Trail View Lane,75043,32.8442304,-96.6128218
609,Country View Lane,75043,32.8434009,-96.6152843
414,Country View Lane,75043,32.8463644,-96.6105258
533,Country View Lane,75043,32.8441099,-96.6144058
313,Country View Lane,75043,32.8453384,-96.6096548
501,Briarcliff Drive,75043,32.8410574,-96.6082458
6109,Ridge Top Lane,75043,32.8415714,-96.6080713
586,Briarcliff Drive,75043,32.8403899,-96.6106668
6118,Hillside Lane,75043,32.8410484,-96.6064563
6107,Ridge Top Lane,75043,32.8415299,-96.6083333
583,Briarcliff Drive,75043,32.8407899,-96.6104828
630,Country View Lane,75043,32.8423584,-96.6157753
522,Trailcrest Drive,75043,32.8410494,-96.6091238
518,Briarcliff Drive,75043,32.8404359,-96.6083663
638,Country View Lane,75043,32.8420924,-96.6160593
641,Country View Lane,75043,32.8423204,-96.6165848
410,Country View Lane,75043,32.8463329,-96.6103293
563,Briarcliff Drive,75043,32.8407729,-96.6098293
305,Trail View Lane,75043,32.8432499,-96.6093343
813,Trails Parkway,75043,32.8416509,-96.6159523
130,Country View Lane,75043,32.8432324,-96.6126348
6006,Ozark Trail Lane,75043,32.8429609,-96.6102823
550,Briarcliff Drive,75043,32.8403524,-96.6094528
6115,Ridge Top Lane,75043,32.8409449,-96.6076703
422,Country View Lane,75043,32.8463009,-96.6110858
6009,Ridge Top Lane,75043,32.8425584,-96.6084273
609,Trail View Lane,75043,32.8427814,-96.6146238
321,Indian Trail Lane,75043,32.8432534,-96.6088603
538,Country View Lane,75043,32.8437124,-96.6141503
454,Country View Lane,75043,32.8452114,-96.6123903
523,Trailcrest Drive,75043,32.8412814,-96.6086978
6022,Ponderosa Trail Court,75043,32.8420159,-96.6110728
309,Trail View Lane,75043,32.8434184,-96.6094488
202,Trail View Lane,75043,32.8422349,-96.6094638
559,Briarcliff Drive,75043,32.8407714,-96.6097003
567,Briarcliff Drive,75043,32.8407739,-96.6099608
5902,Hillside Lane,75043,32.8450884,-96.6081358
6018,Hillside Lane,75043,32.8427658,-96.6069821
418,Country View Lane,75043,32.8464329,-96.6109143
5922,Hillside Lane,75043,32.8442519,-96.6075588
6021,Shady Valley Court,75043,32.8420159,-96.6127608
6026,Hillside Lane,75043,32.8423924,-96.6068593
553,Trailcrest Drive,75043,32.8415079,-96.6095348
613,Country View Lane,75043,32.8432679,-96.6154268
657,Country View Lane,75043,32.8414054,-96.6167283
5906,Ozark Trail Lane,75043,32.8437509,-96.6109308
539,Trailcrest Drive,75043,32.8416999,-96.6089708
126,Country View Lane,75043,32.8430934,-96.6127798
6026,Shady Valley Court,75043,32.8418014,-96.6120228
313,Indian Trail Lane,75043,32.8434264,-96.6084383
546,Briarcliff Drive,75043,32.8403524,-96.6093213
6110,Hillside Lane,75043,32.8414709,-96.6064328
801,Trails Parkway,75043,32.8418189,-96.6152798
6013,Ozark Trail Lane,75043,32.8422309,-96.6105438
453,Country View Lane,75043,32.8455554,-96.6127238
309,Allegheny Trail Lane,75043,32.8451019,-96.6088233
129,Country View Lane,75043,32.8429294,-96.6122758
6009,Ozark Trail Lane,75043,32.8424609,-96.6107023
529,Country View Lane,75043,32.8442369,-96.6142593
573,Trails Parkway,75043,32.8418354,-96.6102548
561,Trailcrest Drive,75043,32.8414394,-96.6098318
5801,Timberview Circle,75043,32.8453339,-96.6106663
6010,Ponderosa Trail Court,75043,32.8426079,-96.6112328
614,Briarcliff Drive,75043,32.8411784,-96.6108888
573,Trailcrest Drive,75043,32.8414309,-96.6102908
506,Trail View Lane,75043,32.8433919,-96.6130498
601,Country View Lane,75043,32.8436448,-96.6149491
6101,Ridge Top Lane,75043,32.8421074,-96.6082608
114,Country View Lane,75043,32.8426464,-96.6132708
518,Country View Lane,75043,32.8443934,-96.6133223
406,Country View Lane,75043,32.8462314,-96.6101073
805,Trails Parkway,75043,32.8417709,-96.6155193
305,Hillside Court,75043,32.8443334,-96.6084463
213,Country View Lane,75043,32.8434809,-96.6115693
629,Country View Lane,75043,32.8427149,-96.6160923
6014,Ridge Top Lane,75043,32.8425119,-96.6078738
6022,Hillside Lane,75043,32.8425864,-96.6069108
301,Allegheny Trail Lane,75043,32.8452209,-96.6083613
577,Trailcrest Drive,75043,32.8414229,-96.6104208
6009,Ponderosa Trail Court,75043,32.8423819,-96.6118008
501,Trail View Lane,75043,32.8438559,-96.6133033
5706,Valley Mills Drive,75043,32.8459610,-96.6233669
5746,Valley Mills Drive,75043,32.8448190,-96.6219409
5738,Valley Mills Drive,75043,32.8450505,-96.6222134
5710,Valley Mills Drive,75043,32.8458765,-96.6232304
5726,Valley Mills Drive,75043,32.8454065,-96.6226494
5718,Valley Mills Drive,75043,32.8456455,-96.6229439
5722,Valley Mills Drive,75043,32.8455305,-96.6227629
5750,Valley Mills Drive,75043,32.8446725,-96.6217874
5702,Valley Mills Drive,75043,32.8460890,-96.6234919
5754,Valley Mills Drive,75043,32.8445745,-96.6216419
5714,Valley Mills Drive,75043,32.8457680,-96.6230244
5734,Valley Mills Drive,75043,32.8451735,-96.6223734
5730,Valley Mills Drive,75043,32.8452685,-96.6224864
5742,Valley Mills Drive,75043,32.8449175,-96.6220649
800,South 6th Street,75040,32.9058118,-96.6375445
101,West Buckingham Road,75040,32.9320043,-96.6316058
2701,North Garland Avenue,75042,32.9407718,-96.6488688
2140,Jupiter Road,75044,32.9330536,-96.6806740
3347,West Walnut Street,75042,32.9186600,-96.6800135
3178,Lavon Drive,75040,32.9457573,-96.6202565
2814,Lavon Dr.,75040,32.9415417,-96.6215832
3232,Lavon Drive,75040,32.9466248,-96.6200662
2949,North President George Bush Highway,75040,32.9441602,-96.6106827
3335,North President George Bush Highway,75040,32.9476430,-96.6183770
3271,North President George Bush Highway,75040,32.9476827,-96.6166484
3171,North President George Bush Highway,75040,32.9454178,-96.6141527
3261,North President George Bush Highway,75040,32.9459373,-96.6157337
3353,North President George Bush Highway,75040,32.9462375,-96.6178135
318,North Shiloh Road,75042,32.9145273,-96.6644558
1891,Forest Lane,75042,32.9103834,-96.6556906
1914,North Plano Road,75042,32.9303475,-96.6995535
1922,North Plano Road,75042,32.9309292,-96.6996017
4570,West Buckingham Road,75042,32.9308120,-96.7024280
522,North Plano Road,75042-5908,32.9176380,-96.6998198
1014,Bard Drive,75040,32.9028028,-96.6110655
3209,Mallards Pond Street,75043,32.8775353,-96.5967451
4618,Duck Creek Drive,75043,32.8558725,-96.6150404
4606,Duck Creek Drive,75043,32.8563575,-96.6154294
4702,Duck Creek Drive,75043,32.8557475,-96.6149054
4726,Duck Creek Drive,75043,32.8549225,-96.6140354
4742,Duck Creek Drive,75043,32.8545505,-96.6133354
4718,Duck Creek Drive,75043,32.8551960,-96.6143329
4734,Duck Creek Drive,75043,32.8546870,-96.6137289
4602,Duck Creek Drive,75043,32.8565145,-96.6155359
4730,Duck Creek Drive,75043,32.8548075,-96.6138479
4614,Duck Creek Drive,75043,32.8560485,-96.6151944
4706,Duck Creek Drive,75043,32.8555925,-96.6147419
4722,Duck Creek Drive,75043,32.8550520,-96.6141769
4710,Duck Creek Drive,75043,32.8554740,-96.6146029
4714,Duck Creek Drive,75043,32.8553275,-96.6144724
4610,Duck Creek Drive,75043,32.8561760,-96.6153009
4738,Duck Creek Drive,75043,32.8546235,-96.6135409
3480,Arapaho Road,75044,32.9602103,-96.6822144
3045,Broadway Boulevard,75041,32.8792202,-96.6228628
3034,South 1st Street,75041,32.8794340,-96.6303262
627,East Walnut Circle,75040,32.9164820,-96.6266541
1500,Eastgate Drive,75041,32.8582490,-96.6503989
1420,Eastgate Drive,75041,32.8581201,-96.6488059
834,West Centerville Road,75041,32.8597185,-96.6427099
1565,"TX-66,",75040,32.9116837,-96.6083306
7220,Telecom Parkway,75044,32.9806641,-96.6622651
7235,North President George Bush Highway,75044,32.9793595,-96.6643477
190,Shiloh,75044,32.9790100,-96.6638674
584,West Interstate 30,75043,32.8376629,-96.5981082
870,West Interstate 30,75043,32.8349799,-96.6046441
4209,West Walnut Street,75042,32.9174357,-96.6971860
4362,West Walnut Street,75042,32.9157773,-96.6970082
5309,Bobtown Road,75043,32.8412720,-96.5609665
5313,Bobtown Road,75043,32.8411295,-96.5609800
5305,Bobtown Road,75043,32.8414400,-96.5609515
5209,Bobtown Road,75043,32.8424605,-96.5609355
5117,Bobtown Road,75043,32.8429605,-96.5609420
5113,Bobtown Road,75043,32.8431285,-96.5609515
5109,Bobtown Road,75043,32.8432695,-96.5609395
5105,Bobtown Road,75043,32.8436585,-96.5608870
5213,Bobtown Road,75043,32.8422885,-96.5609300
5217,Bobtown Road,75043,32.8421260,-96.5609230
5205,Bobtown Road,75043,32.8426225,-96.5609450
5201,Bobtown Road,75043,32.8427930,-96.5609500
5101,Bobtown Road,75043,32.8438385,-96.5609195
5301,Bobtown Road,75043,32.8415805,-96.5609340
5221,Bobtown Road,75043,32.8419615,-96.5609325
4655,South Country Club Road,75043,32.8611863,-96.5901044
4726,Rosehill Road,75043,32.8595011,-96.5929073
4922,Rosehill Road,75043,32.8556036,-96.5888601
2121,Rowlett Road,75043,32.8629277,-96.5759343
2129,Rowlett Road,75043,32.8630760,-96.5751944
4714,Broadway Boulevard,75043,32.8575190,-96.6015671
4646,Broadway Boulevard,75043,32.8581570,-96.6022442
3106,North Shiloh Road,75044,32.9459935,-96.6646200
2121,Apollo Road,75044,32.9528676,-96.6600516
5401,North Garland Avenue,75040,32.9665490,-96.6455904
5325,North Garland Avenue,75040,32.9663142,-96.6458805
5205,North Garland Avenue,75040,32.9650789,-96.6473804
101,S Coit Rd,75080,32.9661358,-96.6783552
2300,Marie Curie Blvd,75042,32.9195750,-96.6621540
4950,North Garland Avenue,75040,32.9600664,-96.6480709
4940,North Garland Avenue,75040,32.9603327,-96.6477614
5322,North Garland Avenue,75040,32.9638110,-96.6436052
5055,North President George Bush Highway,75040,32.9606430,-96.6386619
5915,Murphy Road,75048,32.9689889,-96.6081889
5012,North President George Bush Highway,75040,32.9632148,-96.6367077
4992,North President George Bush Highway,75040,32.9626888,-96.6359023
4902,North President George Bush Highway,75040,32.9617315,-96.6346295
4840,North President George Bush Highway,75040,32.9613373,-96.6342084
4970,North President George Bush Highway,75040,32.9620374,-96.6349941
5705,Murphy Road,75048,32.9754548,-96.6140482
1415,Talley Road,75044,32.9738480,-96.6136223
6425,Murphy Road,75048,32.9748385,-96.6139262
6417,Murphy Road,75048,32.9743878,-96.6138956
5701,Murphy Road,75048,32.9751707,-96.6139726
1201,East Campbell Road,75044,32.9834488,-96.6152895
6810,Galway Drive,75044,32.9787957,-96.6169645
5556,Locust Grove Road,75043,32.8504879,-96.5474507
438,Country View Lane,75043,32.8457032,-96.6116243
434,Country View Lane,75043,32.8458491,-96.6114750
724,Champion Court,75043,32.8411630,-96.6146844
722,Champion Court,75043,32.8411821,-96.6146010
720,Champion Court,75043,32.8411866,-96.6145149
718,Champion Court,75043,32.8411807,-96.6144253
716,Pebblebeach Drive,75043,32.8411553,-96.6143396
714,Champion Court,75043,32.8411360,-96.6142429
702,Champion Court,75043,32.8411554,-96.6136699
704,Champion Court,75043,32.8411506,-96.6137662
712,Champion Court,75043,32.8411696,-96.6141322
710,Champion Court,75043,32.8411830,-96.6140365
708,Champion Court,75043,32.8411812,-96.6139445
706,Champion Court,75043,32.8411585,-96.6138542
950,West Interstate 30,75043,32.8338163,-96.6082806
1365,East Interstate 30,75043,32.8621340,-96.5491138
3750,Zion Road,75043,32.8630286,-96.5485493
3310,Lavon Drive,75040,32.9473103,-96.6194091
802,Broadway Commons,75043,32.8437243,-96.5915011
6337,Duck Creek Drive,75043,32.8435677,-96.5988822
3002,Firewheel Parkway,75040,32.9458127,-96.6076142
5601,Duck Creek Drive,75043,32.8484370,-96.6078316
1440,Eastgate Drive,75041,32.8580653,-96.6498548
11010,Harmony Hill Lane,75089,32.9470096,-96.5650435
930,West Interstate 30,75043,32.8343369,-96.6061881
801,Interstate 30,75150,32.8363467,-96.6075350
6327,Broadway Boulevard,75043,32.8371858,-96.5962252
4351,Point Boulevard,75043,32.8615441,-96.5453231
4202,Bass Pro Drive,75043,32.8667016,-96.5449218
4188,Bass Pro Drive,75043,32.8660132,-96.5444881
801,La Prada Drive,75043,32.8485116,-96.6300990
2500,East Centerville Road,75040,32.9030222,-96.5984288
2001,State Highway 66,75040,32.9106303,-96.5981973
4214,Forest Lane,75042,32.9083993,-96.6926271
1301,South Country Club Road West,75040,32.8989584,-96.6116133
5402,North President George Bush Highway,75044,32.9669571,-96.6411179
5102,North President George Bush Highway,75040,32.9638378,-96.6375134
5106,North President George Bush Highway,75040,32.9643462,-96.6380406
825,East Interstate 30,75043,32.8553675,-96.5595629
2822,Guthrie Road,75043,32.8349897,-96.5858085
6506,Casa Vista Circle,75043,32.8355010,-96.5885689
238,East Oates Road,75043,32.8518553,-96.6074358
5109,Locust Grove Road,75043,32.8534720,-96.5548735
4901,Peninsula Way,75043,32.8561423,-96.5528101
3305,Zion Road,75043,32.8667129,-96.5459506
5501,Naaman Forest Boulevard,75040,32.9621995,-96.6502737
4545,West Walnut Street,75042,32.9170003,-96.7014207
3215,Broadway Boulevard,75043,32.8773186,-96.6203314
1902,Highway 66,75040,32.9096247,-96.6030157
534,Briarcliff Drive,75043,32.8403551,-96.6089292
820,Saint Andrew's Court,75043,32.8410875,-96.6158813
818,Saint Andrew's Court,75043,32.8410903,-96.6157926
816,Saint Andrew's Court,75043,32.8410960,-96.6157094
814,Saint Andrew's Court,75043,32.8411124,-96.6156017
5429,La Jolla Drive,75043,32.8518999,-96.6422734
1214,Rockledge Drive,75043,32.8505229,-96.6398947
910,Hudson Drive,75043,32.8473671,-96.6309760
5601,Duck Creek Drive,75043,32.8465221,-96.6074215
4413,North Shiloh Road,75044,32.9572063,-96.6669668
1935,East Centerville Road,75041,32.8931746,-96.6039259
2701-2805,South Shiloh Road,75041,32.8826857,-96.6663937
4917,Duck Creek Drive,75043,32.8527798,-96.6119743
600,Colonel Drive,75043,32.8732518,-96.6180504
1221,West Miller Road,75041,32.8948304,-96.6461840
1700,West Kingsley Road,75041,32.8782290,-96.6528713
601,Rowlett Road,75043,32.8482015,-96.5936791
515,East Avenue B,75040,32.9119247,-96.6243294
