House number,Street name,Postal code,Latitude,Longitude
1701,South Beckley Road,75154,32.5604137,-96.8236494
109,West Ovilla Road,75154,32.5321993,-96.8576897
1519,South Hampton Road,75154,32.5658763,-96.8571873
2641,Sagebrush Drive,75154,32.5360347,-96.8658344
2704,Cinnamon Springs Road,75154,32.5352553,-96.8655578
213,Red River Drive,75154,32.5381017,-96.8645760
2609,Beech Creek Road,75154,32.5379467,-96.8661064
2604,Beech Creek Road,75154,32.5378586,-96.8655178
1124,Archdale Lane,75154,32.5440035,-96.8501582
335,Green Mound Drive,75154,32.5455106,-96.8489566
2214 (140),Lake Shore Lane,75154,32.5428208,-96.8461562
310,Lin Dell Drive,75154,32.5417893,-96.8475421
2805,Cinnamon Springs Street,75154,32.5335269,-96.8639857
2702,Lake Ridge Drive,75154,32.5348256,-96.8618428
621,Golden Bell Drive,75154,32.5377685,-96.8415878
2620,Lavender Lane,75154,32.5381786,-96.8412399
301,Tradd Street,75154,32.5412617,-96.8523643
223,Maybank Street,75154,32.5404775,-96.8535200
303,Tradd Street,75154,32.5412626,-96.8521677
230,Tradd Street,75154,32.5407982,-96.8526030
2503,Marsh Street,75154,32.5409090,-96.8551592
217,Maybank Street,75154,32.5404788,-96.8541093
2515,Chalmers Road,75154,32.5395462,-96.8517316
2365,Timbercreek Drive,75154,32.5423591,-96.8621213
316,Frio River Road,75154,32.5403050,-96.8644814
212,Gypsum Lane,75154,32.5402864,-96.8627792
312,Frio River Road,75154,32.5401746,-96.8643028
204,Concho River Drive,75154,32.5381466,-96.8638228
619,Green Mound Drive,75154,32.5460328,-96.8437549
2610,Middleton Road,75154,32.5380095,-96.8558450
2615,Middleton Road,75154,32.5375343,-96.8563958
125,Rosewood Drive,75154,32.5254646,-96.8608676
309,Granite Pass,75154,32.5422001,-96.8630580
2525,Comal Creek Drive,75154,32.5399783,-96.8655800
224,Frio River Road,75154,32.5397841,-96.8636151
220,Frio River Road,75154,32.5397088,-96.8634369
204,Frio River Road,75154,32.5394146,-96.8627400
305,Concho River Drive,75154,32.5393088,-96.8650796
510,Lin Dell Drive,75154,32.5417986,-96.8450353
430,Lin Dell Drive,75154,32.5417965,-96.8459590
140,Watercrest Lane,75154,32.5428584,-96.8472538
130,Watercrest Lane,75154,32.5426553,-96.8472546
105,East Wood Dell Drive,75154,32.5427186,-96.8439433
559,Lin Dell Drive,75154,32.5423434,-96.8439427
603,East Overhill Drive,75154,32.5451276,-96.8448146
2227,Uhl Road,75154,32.5426691,-96.8425458
332,Green Mound Drive,75154,32.5460526,-96.8489359
612,Green Mound Drive,75154,32.5455026,-96.8443455
236,Rosewood Drive,75154,32.5249190,-96.8646412
3208,Rosewood Drive,75154,32.5246300,-96.8591878
128,Fireberry Drive,75154,32.5232302,-96.8610620
2516,Blanco River Court,75154,32.5396357,-96.8692663
2556,Sanders Creek Road,75154,32.5395875,-96.8674971
2636,Granite Pass,75154,32.5376728,-96.8683657
308,Meandering Way,75154,32.5425490,-96.8628532
208,Stone Creek Boulevard,75154,32.5452334,-96.8599913
221,West Willow Creek Drive,75154,32.5443258,-96.8610001
241,West Willow Creek Drive,75154,32.5445330,-96.8619554
309,West Willow Creek Drive,75154,32.5446569,-96.8625304
224,West Glen Meadow Drive,75154,32.5446579,-96.8610294
631,Stone Creek Boulevard,75154,32.5462154,-96.8689176
623,Camellia Drive,75154,32.5351060,-96.8414737
603,Magnolia Lane,75154,32.5351135,-96.8436387
602,Azalea Drive,75154,32.5355120,-96.8436404
625,Azalea Drive,75154,32.5368809,-96.8412513
2617,Cannon Court,75154,32.5374670,-96.8545345
2602,Centurion Road,75154,32.5385667,-96.8549247
149,Claywood Drive,75154,32.5245558,-96.8620986
205,Claywood Drive,75154,32.5245491,-96.8629414
120,Claywood Drive,75154,32.5240653,-96.8606102
148,Claywood Drive,75154,32.5240544,-96.8622277
236,Claywood Drive,75154,32.5240367,-96.8647253
617,Azalea Drive,75154,32.5367271,-96.8422080
621,Azalea Drive,75154,32.5368524,-96.8417212
223,Joseph Drive,75154,32.5281047,-96.8512671
310/312,California Drive,75154,32.5330841,-96.8507460
204,Abel Drive,75154,32.5294816,-96.8538235
725,Indian Hawthorn Drive,75154,32.5419793,-96.8403960
2337,Emerald Springs Drive,75154,32.5436674,-96.8403113
201,Calhoun Street,75154,32.5385011,-96.8530323
728,Red Cedar Lane,75154,32.5431055,-96.8402119
2641,Salado Creek Lane,75154,32.5364276,-96.8666882
2642,Sagebrush Drive,75154,32.5358070,-96.8652403
2208 (402),Watercrest Lane,75154,32.5449363,-96.8466662
223,Tradd Street,75154,32.5412479,-96.8533393
2404,Emerald Springs Drive,75154,32.5430932,-96.8397475
609,Heartland Drive,75154,32.5413668,-96.8431826
531,Heartland Drive,75154,32.5413701,-96.8439911
232,Rosewood Drive,75154,32.5249206,-96.8644218
3209,Rosewood Drive,75154,32.5247096,-96.8597960
149,Fireberry Drive,75154,32.5237092,-96.8622226
2512,Blanco River Court,75154,32.5398413,-96.8695610
2505,Dunbarton Drive,75154,32.5408019,-96.8498800
2504,Foules Drive,75154,32.5406811,-96.8483583
303,Clayton Street,75154,32.5392603,-96.8491251
2640,Granite Pass,75154,32.5375238,-96.8685571
300,Clayton Street,75154,32.5388634,-96.8498298
2569,Cinnamon Springs Road,75154,32.5370011,-96.8686577
721,Red Cedar Lane,75154,32.5435725,-96.8406217
701,Red Cedar Lane,75154,32.5435770,-96.8414358
701,Blackthorne Drive,75154,32.5427810,-96.8414551
2412,Emerald Springs Drive,75154,32.5428184,-96.8397489
2416,Emerald Springs Drive,75154,32.5426805,-96.8397490
205,Red River Drive,75154,32.5379310,-96.8641560
2613,Salado Creek Lane,75154,32.5373642,-96.8654949
2617,Salado Creek Lane,75154,32.5372123,-96.8656482
2620,Salado Creek Lane,75154,32.5368411,-96.8653265
2347,Sagebrush Drive,75154,32.5427977,-96.8608497
304,Gypsum Lane,75154,32.5405149,-96.8633138
320,Frio River Road,75154,32.5404446,-96.8646511
217,Frio River Road,75154,32.5400415,-96.8630343
304,Concho River Drive,75154,32.5389265,-96.8653831
216,Concho River Drive,75154,32.5383651,-96.8643521
212,Concho River Drive,75154,32.5382905,-96.8641752
522,Lipan Lane,75154,32.5388479,-96.8456822
529,Doe Creek Trail,75154,32.5385260,-96.8448342
517,Heartland Drive,75154,32.5413779,-96.8451192
523,Heartland Drive,75154,32.5413743,-96.8446354
2505,Marsh Street,75154,32.5407454,-96.8551555
218,Tradd Street,75154,32.5407894,-96.8538529
221,Maybank Street,75154,32.5404780,-96.8537167
2613,Firebird Road,75154,32.5370347,-96.8467613
306,Tradd Street,75154,32.5408070,-96.8516139
220,Maybank Street,75154,32.5400208,-96.8537877
210,Maybank Street,75154,32.5400186,-96.8548294
209,Greenhill Street,75154,32.5396624,-96.8545619
2605,Chalmers Road,75154,32.5383481,-96.8517738
2600,Calhoun Street,75154,32.5385814,-96.8523317
2613,Chalmers Road,75154,32.5376929,-96.8517894
300,Calhoun Street,75154,32.5370912,-96.8523996
312,Calhoun Street,75154,32.5369619,-96.8511463
607,Natchez Lane,75154,32.5381033,-96.8434999
610,Golden Bell Drive,75154,32.5368923,-96.8428151
618,Golden Bell Drive,75154,32.5372207,-96.8419283
2622,Sunburst Drive,75154,32.5380750,-96.8400859
3018,Courtney Lane,75154,32.5270159,-96.8492498
303,Joseph Drive,75154,32.5280720,-96.8504566
305,Michelle Court,75154,32.5290479,-96.8501945
1318,Archdale Lane,75154,32.5424010,-96.8501544
319,Green Mound Drive,75154,32.5455089,-96.8480158
604,Magnolia Lane,75154,32.5346287,-96.8435754
3032,Betsy Court,75154,32.5260939,-96.8513753
349,Pebblebrook Lane,75154,32.5434671,-96.8645523
224,Willow Creek Drive,75154,32.5439566,-96.8614047
228,West Willow Creek Drive,75154,32.5439975,-96.8615933
236,West Willow Creek Drive,75154,32.5440785,-96.8619709
204,West Willow Creek Drive,75154,32.5437530,-96.8604612
208,West Willow Creek Drive,75154,32.5437940,-96.8606498
2342,Timbercreek Drive,75154,32.5428084,-96.8612566
2513,Granite Pass,75154,32.5409014,-96.8657858
2537,Granite Pass,75154,32.5401918,-96.8666010
2540,Granite Pass,75154,32.5396568,-96.8664395
327,Granite Pass,75154,32.5416146,-96.8647161
301,Sabine River Road,75154,32.5397213,-96.8642081
2524,Crossbranch Drive,75154,32.5393522,-96.8447699
2601,South Anson Road,75154,32.5385439,-96.8534845
2614,Cannon Court,75154,32.5374989,-96.8540034
2608,Middleton Road,75154,32.5381470,-96.8558461
108,Ravenel Street,75154,32.5369460,-96.8554040
607,Heartland Drive,75154,32.5413689,-96.8433430
408,Glen Meadow Drive,75154,32.5450257,-96.8642016
432,Glen Meadow Drive,75154,32.5449444,-96.8654058
3100,South Hampton Road,75154,32.5266565,-96.8575705
627,Azalea Drive,75154,32.5368792,-96.8410145
209,Joseph Drive,75154,32.5281108,-96.8533072
202,Joseph Drive,75154,32.5275556,-96.8540956
701,Indian Hawthorn Drive,75154,32.5419808,-96.8414568
2517,Pambrooke Lane,75154,32.5410853,-96.8417304
2529,Pambrooke Lane,75154,32.5406960,-96.8415124
2613,Pambrooke Lane,75154,32.5397176,-96.8404846
208,Moses Drive,75154,32.5247687,-96.8534247
205,Ephraim Drive,75154,32.5271439,-96.8538347
218,Joseph Drive,75154,32.5275610,-96.8518082
221,Ephraim Court,75154,32.5272040,-96.8514726
214,Ephraim Court,75154,32.5265977,-96.8523242
216,Ephraim Court,75154,32.5265983,-96.8520646
3023,Dorothy Lane,75154,32.5272811,-96.8549185
219,Joseph Drive,75154,32.5281010,-96.8517889
336,Pebblebrook Lane,75154,32.5430989,-96.8641576
320,Pebblebrook Lane,75154,32.5435813,-96.8633581
201,Pebblebrook Lane,75154,32.5434252,-96.8604221
213,West Glen Meadow Drive,75154,32.5449662,-96.8602803
325,West Glen Meadow Drive,75154,32.5455598,-96.8636451
211,Abel Drive,75154,32.5300469,-96.8530175
211,Jacob Drive,75154,32.5290687,-96.8530290
3003,Dorothy Lane,75154,32.5294776,-96.8549199
332,Craddock Drive,75154,32.5464605,-96.8517239
328,Craddock Drive,75154,32.5464614,-96.8519202
320,Craddock Drive,75154,32.5464632,-96.8523129
100,Craddock Drive,75154,32.5464890,-96.8564820
2721,La Jolla Court,75154,32.5350071,-96.8506948
216,Wilshire Drive,75154,32.5354216,-96.8525457
102,Hollywood Drive,75154,32.5350724,-96.8564316
223,Hollywood Drive,75154,32.5350985,-96.8521152
103,Hollywood Drive,75154,32.5346335,-96.8562031
2401,Cinnamon Springs,75154,32.5440634,-96.8681776
2520,Granite Pass,75154,32.5403448,-96.8656850
2541,Granite Pass,75154,32.5400670,-96.8667453
725,Blackthorne Drive,75154,32.5427762,-96.8403961
2329,Emerald Springs Drive,75154,32.5439423,-96.8403097
2408,Timbercreek Drive,75154,32.5413019,-96.8621459
2417,Timbercreek Drive,75154,32.5411723,-96.8629423
217,Sabine River Road,75154,32.5393865,-96.8635080
213,Sabine River Road,75154,32.5393121,-96.8633338
2526,Crossbranch Drive,75154,32.5392307,-96.8446933
2523,Allview Lane,75154,32.5394128,-96.8443677
2603,Middleton Road,75154,32.5385265,-96.8563999
424,Glen Meadow Drive,75154,32.5449427,-96.8650094
404,Stone Creek Boulevard,75154,32.5457990,-96.8643055
3004,Hampton Road,75154,32.5284127,-96.8576479
315,Abel Drive,75154,32.5299955,-96.8496574
151,Lin Dell Drive,75154,32.5423346,-96.8487173
155,West Overhill Drive,75154,32.5445758,-96.8491911
125,West Overhill Drive,75154,32.5445746,-96.8480129
3041,Dorothy Lane,75154,32.5252972,-96.8549200
628,Camellia Drive,75154,32.5346326,-96.8404639
630,Camellia Drive,75154,32.5345864,-96.8401697
624,Magnolia Lane,75154,32.5355205,-96.8414370
621,Camellia Drive,75154,32.5348296,-96.8416991
605,Magnolia Lane,75154,32.5351142,-96.8434051
604,Azalea Drive,75154,32.5355058,-96.8433702
517,Azalea Drive,75154,32.5359872,-96.8454986
217,Joseph Drive,75154,32.5281026,-96.8520444
3013,Dorothy Lane,75154,32.5283777,-96.8549207
2750,Sunset Strip Avenue,75154,32.5338387,-96.8496517
2814/ 2816,Sunset Strip Avenue,75154,32.5329386,-96.8497125
2156,Mesa Wood Drive,75154,32.5472512,-96.8510218
306,California Drive,75154,32.5330393,-96.8513821
2729,Star Avenue,75154,32.5331714,-96.8539491
2727,Star Avenue,75154,32.5334093,-96.8538995
218,Los Angeles Drive,75154,32.5338400,-96.8525644
203,Vine Street,75154,32.5342720,-96.8542544
113,Vine Street,75154,32.5338950,-96.8549934
2503,Lake Ridge Drive,75154,32.5397436,-96.8602868
2401,Frio River Road,75154,32.5435095,-96.8694047
200,West Glen Meadow Drive,75154,32.5444070,-96.8598637
2318,Sagebrush Drive,75154,32.5432500,-96.8597683
113,Fireberry Drive,75154,32.5237217,-96.8601454
417,Frio River Road,75154,32.5420947,-96.8659926
2421,Cinnamon Springs Road,75154,32.5419805,-96.8680746
436,Frio River Road,75154,32.5414416,-96.8672576
440,Frio River Road,75154,32.5414111,-96.8675343
2600,Sanders Creek Road,75154,32.5392674,-96.8676881
2617,Granite Pass,75154,32.5385116,-96.8680080
2621,Granite Pass,75154,32.5383894,-96.8681839
2504,Clayton Street,75154,32.5407969,-96.8474043
728,Crabapple Drive,75154,32.5407023,-96.8402172
705,Indian Hawthorn Drive,75154,32.5419816,-96.8412733
2545,Comal Creek Drive,75154,32.5392994,-96.8662401
2329,Frio River Road,75154,32.5437365,-96.8694058
2520,Whispering Breeze Lane,75154,32.5392451,-96.8457371
600,Doe Creek Trail,75154,32.5380957,-96.8443891
516,Doe Creek Trail,75154,32.5380487,-96.8459842
2614,Tuscarora Trail,75154,32.5368400,-96.8472236
2617,Sunburst Drive,75154,32.5384563,-96.8409988
2625,Sunburst Drive,75154,32.5378608,-96.8405719
2515,Sunburst Drive,75154,32.5400001,-96.8425210
2519,Sunburst Drive,75154,32.5397597,-96.8423239
2512,Clayton Street,75154,32.5400000,-96.8474242
300,Wildsville Lane,75154,32.5396120,-96.8493874
2509,Dunbarton Drive,75154,32.5404718,-96.8498823
2511,Dunbarton Drive,75154,32.5403075,-96.8498830
2511,Clayton Street,75154,32.5400290,-96.8479654
2523,Dunbarton Drive,75154,32.5392595,-96.8498890
2600,Golden Bell Drive,75154,32.5388362,-96.8486160
2603,Golden Bell Drive,75154,32.5386534,-96.8492139
2605,Golden Bell Drive,75154,32.5384764,-96.8491996
2412,Bull Creek Road,75154,32.5421568,-96.8665795
409,Frio River Road,75154,32.5419772,-96.8655054
2604,Sanders Creek Road,75154,32.5390800,-96.8678432
316,Granite Pass,75154,32.5415263,-96.8635484
2225,Cinnamon Springs Street,75154,32.5447816,-96.8670817
2201,Cinnamon Springs Street,75154,32.5457797,-96.8666990
452,Dove Creek Lane,75154,32.5435004,-96.8670167
453,Dove Creek Lane,75154,32.5439658,-96.8669788
307,Clayton Street,75154,32.5392591,-96.8486707
317,Ferriday Street,75154,32.5414319,-96.8481264
157,West Wood Dell,75154,32.5427154,-96.8491875
2201 (431),Lake Shore Lane,75154,32.5455714,-96.8459360
334,Lin Dell Drive,75154,32.5417893,-96.8470241
460,Lin Dell Drive,75154,32.5417984,-96.8452681
450,Lin Dell Drive,75154,32.5417977,-96.8455001
660,Lin Dell Drive,75154,32.5417875,-96.8424686
220,Watercrest Lane,75154,32.5432695,-96.8472325
2417,Pambrooke Lane,75154,32.5422101,-96.8419070
602 (117),East Southbrook Drive,75154,32.5436470,-96.8454600
110,East Wood Dell Drive,75154,32.5432628,-96.8446422
1460,Uhl Road,75154,32.5422431,-96.8425470
2532,Emerald Springs Drive,75154,32.5406063,-96.8397591
104,East Southbrook Drive,75154,32.5441925,-96.8439461
709,Indian Hawthorn Drive,75154,32.5419818,-96.8410974
312,Green Mound Drive,75154,32.5460452,-96.8477172
622,Green Mound Drive,75154,32.5454936,-96.8429448
705,Crabapple Drive,75154,32.5411786,-96.8411995
2613,Sagebrush Drive,75154,32.5369909,-96.8646843
2613,Beech Creek Road,75154,32.5377893,-96.8662579
600,Magnolia Lane,75154,32.5346330,-96.8440457
508,Magnolia Lane,75154,32.5346216,-96.8467034
509,Magnolia Lane,75154,32.5351039,-96.8466629
500,Golden Bell Drive,75154,32.5365524,-96.8479318
2525,Crossbranch Drive,75154,32.5392444,-96.8453084
512,Doe Creek Trail,75154,32.5380653,-96.8463985
206,Greenhill Street,75154,32.5391758,-96.8545330
2510,Castle Ridge Drive,75154,32.5398565,-96.8521221
231,Maybank Street,75154,32.5404774,-96.8527653
230,Maybank Street,75154,32.5400329,-96.8527603
229,Greenhill Street,75154,32.5397195,-96.8529315
601,Natchez Lane,75154,32.5377896,-96.8440113
603,Natchez Lane,75154,32.5378904,-96.8438274
513,Golden Bell Drive,75154,32.5368687,-96.8461903
523,Golden Bell Drive,75154,32.5368700,-96.8450019
616,Natchez Lane,75154,32.5379885,-96.8423312
2506,Lavender Lane,75154,32.5405320,-96.8432960
2504,Lavender Lane,75154,32.5406621,-96.8433528
210,Jacob Drive,75154,32.5285267,-96.8530320
216,Jacob Court,75154,32.5285164,-96.8520367
223,Jacob Court,75154,32.5289414,-96.8512780
2612,South Anson Road,75154,32.5376594,-96.8531175
2610,South Anson Road,75154,32.5378241,-96.8531222
2601,Cannon Court,75154,32.5386352,-96.8544034
2609,Cannon Court,75154,32.5380167,-96.8545389
2611,Cannon Court,75154,32.5378793,-96.8545378
2618,Middleton Road,75154,32.5374598,-96.8558406
217,Hollywood Drive,75154,32.5350968,-96.8527525
201,East Ovilla Road,75154,32.5322900,-96.8537935
221,Sunset Drive,75154,32.5366372,-96.8534066
2404,Lake Ridge Drive,75154,32.5413023,-96.8584651
2411,Lake Ridge Drive,75154,32.5404658,-96.8601650
232,Pebblebrook Lane,75154,32.5433216,-96.8621536
316,Meandering Way,75154,32.5424645,-96.8633163
201,West Willow Creek Drive,75154,32.5441201,-96.8600138
324,West Glen Meadow Drive,75154,32.5451062,-96.8633625
2409,Frio River Road,75154,32.5431800,-96.8694038
308,Granite Pass,75154,32.5416123,-96.8630791
320,Granite Pass,75154,32.5414443,-96.8637976
448,Dove Creek Lane,75154,32.5434561,-96.8668197
449,Dove Creek Lane,75154,32.5439042,-96.8667427
432,Frio River Road,75154,32.5414753,-96.8670168
2501,Zacate Creek Court,75154,32.5409662,-96.8682602
2613,Sanders Creek Road,75154,32.5391176,-96.8685652
700,Indian Hawthorn Drive,75154,32.5415217,-96.8413349
221,Red River Drive,75154,32.5383025,-96.8649856
136,West Wood Dell,75154,32.5432638,-96.8487155
2221 (131),Watercrest Lane,75154,32.5426277,-96.8478988
335,Lake Shore Lane,75154,32.5449690,-96.8461168
440,Lin Dell Drive,75154,32.5417982,-96.8457312
620,Lin Dell Drive,75154,32.5417911,-96.8434018
112,East Southbrook Drive,75154,32.5441924,-96.8448764
107,East Southbrook Drive,75154,32.5436457,-96.8441797
114,East Wood Dell Drive,75154,32.5432627,-96.8451103
606,East Overhill Drive,75154,32.5445812,-96.8446440
616 (103),East Overhill Drive,75154,32.5445749,-96.8434684
2203,Uhl Road,75154,32.5454014,-96.8425733
2512,Allview Lane,75154,32.5401401,-96.8441468
2530,Allview Lane,75154,32.5390091,-96.8433685
306,Greenhill Street,75154,32.5392110,-96.8524614
314,Greenhill Street,75154,32.5391436,-96.8516585
200,Greenhill Street,75154,32.5391563,-96.8550439
601,Golden Bell Drive,75154,32.5368906,-96.8438309
609,Golden Bell Drive,75154,32.5373891,-96.8429589
613,Golden Bell Drive,75154,32.5375719,-96.8425419
2503,Lavender Lane,75154,32.5408040,-96.8439828
502,Magnolia Lane,75154,32.5346194,-96.8474043
502,Golden Bell Drive,75154,32.5364481,-96.8476865
508,Golden Bell Drive,75154,32.5363813,-96.8469021
2714,Hawthorn Drive,75154,32.5348471,-96.8486206
523,Azalea Drive,75154,32.5359894,-96.8447977
224,Moses Drive,75154,32.5250768,-96.8513226
3029,Betsy Court,75154,32.5262750,-96.8518751
2316,Agate Lane,75154,32.5434117,-96.8649648
433,Dove Creek Lane,75154,32.5438091,-96.8658898
2305,Agate Lane,75154,32.5439736,-96.8652328
448,Willow Creek Drive,75154,32.5442460,-96.8668062
205,Joseph Drive,75154,32.5281096,-96.8538264
141,West Southbrook Drive,75154,32.5436481,-96.8489530
166,West Wood Dell,75154,32.5432634,-96.8494220
225,Lake Shore Lane,75154,32.5437632,-96.8465552
550,Lin Dell Drive,75154,32.5417936,-96.8441040
650,Lin Dell Drive,75154,32.5417902,-96.8427028
2210 (310),Watercrest Lane,75154,32.5446697,-96.8467677
105,East Southbrook Drive,75154,32.5436450,-96.8439454
609,East Wood Dell Drive,75154,32.5432619,-96.8448756
2214 (220),Lake Shore Lane,75154,32.5435272,-96.8459501
111,East Wood Dell Drive,75154,32.5427185,-96.8446411
611,East Overhill Drive,75154,32.5451227,-96.8438763
2214,Grove Lane,75154,32.5439824,-96.8429463
2220,Grove Lane,75154,32.5433268,-96.8429525
2215,Uhl Road,75154,32.5439802,-96.8425381
106,East Southbrook Drive,75154,32.5441921,-96.8441802
618,Green Mound Drive,75154,32.5454971,-96.8434098
515,Magnolia Lane,75154,32.5351061,-96.8459620
520,Golden Bell Drive,75154,32.5363878,-96.8455002
2704,Hawthorn Drive,75154,32.5358265,-96.8482716
2716,Hawthorn Drive,75154,32.5346383,-96.8486195
515,Azalea Drive,75154,32.5359865,-96.8457323
509,Azalea Drive,75154,32.5359842,-96.8464332
521,Azalea Drive,75154,32.5359887,-96.8450313
131,Craddock Circle,75154,32.5472464,-96.8547629
2512,Lake Ridge Drive,75154,32.5376251,-96.8593730
304,Abel Drive,75154,32.5294783,-96.8512464
308,Pebblebrook Lane,75154,32.5434477,-96.8627271
224,Pebblebrook Lane,75154,32.5432375,-96.8617697
301,West Willow Creek Drive,75154,32.5445744,-96.8621473
308,West Glen Meadow Drive,75154,32.5449892,-96.8625578
133,Rosewood Drive,75154,32.5254658,-96.8612866
2507,Clayton Street,75154,32.5404166,-96.8479634
2517,Dunbarton Drive,75154,32.5398079,-96.8498867
2615,Golden Bell Drive,75154,32.5371829,-96.8489110
709,Blackthorne Drive,75154,32.5427796,-96.8410971
2413,Pambrooke Lane,75154,32.5423490,-96.8419080
2428,Emerald Springs Drive,75154,32.5422680,-96.8397494
2609,Cinnamon Springs Road,75154,32.5363640,-96.8672764
2505,Chalmers Road,75154,32.5403971,-96.8517255
305,Tradd Street,75154,32.5412622,-96.8519714
311,Tradd Street,75154,32.5412878,-96.8512937
221,Tradd Street,75154,32.5412467,-96.8535354
316,Gypsum Lane,75154,32.5408190,-96.8638324
300,Gypsum Lane,75154,32.5404343,-96.8631333
208,Gypsum Lane,75154,32.5402144,-96.8626045
313,Sabine River Road,75154,32.5400368,-96.8646867
220,Concho River Drive,75154,32.5384447,-96.8645292
2536,Sagebrush Drive,75154,32.5377404,-96.8632593
2509,Allview Lane,75154,32.5403684,-96.8448431
520,Lipan Lane,75154,32.5388481,-96.8458758
515,Doe Creek Trail,75154,32.5385286,-96.8462797
511,Doe Creek Trail,75154,32.5387206,-96.8466559
203,Greenhill Street,75154,32.5396543,-96.8550570
322,Calhoun Street,75154,32.5369750,-96.8501424
612,Natchez Lane,75154,32.5378865,-96.8427281
604,Golden Bell Drive,75154,32.5364754,-96.8433795
612,Golden Bell Drive,75154,32.5370019,-96.8426081
2614,Sunburst Drive,75154,32.5386990,-96.8405170
302,Moses Drive,75154,32.5251434,-96.8505121
306,Moses Drive,75154,32.5251898,-96.8500043
301,Maria Court,75154,32.5256702,-96.8506427
301,Joseph Drive,75154,32.5280743,-96.8507217
303,Michelle Court,75154,32.5290974,-96.8505363
308,Michelle Court,75154,32.5284770,-96.8496483
309,Michelle Court,75154,32.5290268,-96.8496476
1112,Archdale Lane,75154,32.5444698,-96.8501628
212,Greenhill Street,75154,32.5392215,-96.8540523
205,Greenhill Street,75154,32.5396553,-96.8548863
314,Calhoun Street,75154,32.5369627,-96.8508791
626,Azalea Drive,75154,32.5363972,-96.8409242
2706,Tea Olive Drive,75154,32.5359887,-96.8399242
618,Magnolia Lane,75154,32.5351263,-96.8420220
528,Magnolia Lane,75154,32.5346345,-96.8443642
520,Azalea Drive,75154,32.5355076,-96.8450292
206,Janice Court,75154,32.5259584,-96.8536215
2152,Glenn Lane,75154,32.5469205,-96.8532356
2143,Trishia Lane,75154,32.5472559,-96.8527867
226,Los Angeles Drive,75154,32.5338432,-96.8517013
221,California Drive,75154,32.5335117,-96.8523520
213,California Drive,75154,32.5335097,-96.8531879
217,California Drive,75154,32.5335107,-96.8527706
2712,Sunset Drive,75154,32.5349563,-96.8511501
225,Sunset Drive,75154,32.5366343,-96.8528855
233,Sunset Drive,75154,32.5366370,-96.8518391
2709,Star Avenue,75154,32.5352293,-96.8538824
236,Sunset Drive,75154,32.5361780,-96.8523819
2502,Lake Ridge Drive,75154,32.5394512,-96.8589010
206,Cripple Creek Road,75154,32.5400881,-96.8586099
2703,Lake Ridge Drive,75154,32.5353593,-96.8632941
2611,Lake Ridge Drive,75154,32.5366787,-96.8623391
203,Abel Drive,75154,32.5300366,-96.8540767
204,Jacob Drive,75154,32.5285260,-96.8538269
2212 (308),Watercrest Lane,75154,32.5444976,-96.8468259
3200,Rosewood Drive,75154,32.5249955,-96.8593260
108,Fireberry Drive,75154,32.5232365,-96.8599092
152,Fireberry Drive,75154,32.5232212,-96.8624561
2514,Cinnamon Springs Road,75154,32.5407294,-96.8677516
2552,Sanders Creek Road,75154,32.5397498,-96.8674015
2628,Comal Creek Drive,75154,32.5374365,-96.8672780
2508,Dunbarton Drive,75154,32.5403550,-96.8493034
2512,Foules Drive,75154,32.5400170,-96.8483602
311,Clayton Street,75154,32.5393710,-96.8481196
353,Pebblebrook Lane,75154,32.5432865,-96.8646420
326,Stone Creek Boulevard,75154,32.5458683,-96.8636976
248,Stone Creek Boulevard,75154,32.5456445,-96.8618993
713,Red Cedar Lane,75154,32.5435743,-96.8409479
729,Indian Hawthorn Drive,75154,32.5419785,-96.8402134
209,Red River Drive,75154,32.5380152,-96.8643690
2700,Cinnamon Springs Road,75154,32.5354159,-96.8658358
2502,Chalmers Road,75154,32.5409206,-96.8511239
2509,Chalmers Road,75154,32.5400697,-96.8517287
225,Maybank Street,75154,32.5404784,-96.8533262
2500,Chalmers Road,75154,32.5411583,-96.8510805
227,Tradd Street,75154,32.5412485,-96.8529515
219,Tradd Street,75154,32.5412472,-96.8537305
224,Maybank Street,75154,32.5400326,-96.8533694
2360,Timbercreek Drive,75154,32.5423461,-96.8615313
317,Frio River Road,75154,32.5405888,-96.8640594
329,Sabine River Road,75154,32.5405359,-96.8652436
221,Frio River Road,75154,32.5401142,-96.8632077
233,Concho River Drive,75154,32.5391033,-96.8647572
308,Concho River Drive,75154,32.5390569,-96.8655684
217,Concho River Drive,75154,32.5387592,-96.8640647
228,Concho River Drive,75154,32.5386188,-96.8648743
208,Concho River Drive,75154,32.5382182,-96.8639999
2515,Crossbranch Drive,75154,32.5399385,-96.8456710
2514,Whispering Breeze Lane,75154,32.5397502,-96.8460066
2523,Whispering Breeze Lane,75154,32.5391509,-96.8464339
508,Doe Creek Trail,75154,32.5381708,-96.8468199
233,Greenhill Street,75154,32.5397051,-96.8525818
2609,Calhoun Street,75154,32.5378235,-96.8527380
302,Calhoun Street,75154,32.5369752,-96.8521958
328,West Glen Meadow Drive,75154,32.5451059,-96.8635798
420,Gypsum Lane,75154,32.5424376,-96.8658940
408,Dove Creek Lane,75154,32.5429621,-96.8649369
424,Dove Creek Lane,75154,32.5432240,-96.8656517
305,Maria Court,75154,32.5261529,-96.8506941
302,Michelle Court,75154,32.5284323,-96.8505282
315,Green Mound Drive,75154,32.5455083,-96.8477847
2205 (411),Watercrest Lane,75154,32.5450561,-96.8472799
136,West Overhill Drive,75154,32.5451249,-96.8484859
140,Lin Dell Drive,75154,32.5417874,-96.8489552
130,Lin Dell Drive,75154,32.5417884,-96.8491903
125,Craddock Circle,75154,32.5469193,-96.8549874
2716,Sunset Drive,75154,32.5346154,-96.8511592
2654,Sunset Drive,75154,32.5360140,-96.8511270
101,West Ovilla Road,75154,32.5322466,-96.8571027
2500,Lake Ridge Drive,75154,32.5397849,-96.8588234
2704,Tea Olive Drive,75154,32.5362816,-96.8399639
605,Azalea Drive,75154,32.5359801,-96.8433987
524,Azalea Drive,75154,32.5355091,-96.8445620
501,Magnolia Lane,75154,32.5350857,-96.8476136
201,Joseph Drive,75154,32.5281083,-96.8543617
216,Rosewood Drive,75154,32.5249249,-96.8635800
153,Fireberry Drive,75154,32.5237084,-96.8624607
104,Fireberry Drive,75154,32.5232369,-96.8596697
2536,Sanders Creek Road,75154,32.5403423,-96.8669500
2620,Comal Creek Drive,75154,32.5377079,-96.8668877
760,East Fm 664,75154,32.5312928,-96.8401082
2509,Clayton Street,75154,32.5402238,-96.8479637
2511,Foules Drive,75154,32.5401882,-96.8489130
2513,Foules Drive,75154,32.5400140,-96.8489132
2515,Clayton Street,75154,32.5396074,-96.8479666
344,Craddock Drive,75154,32.5464578,-96.8511348
130,Craddock Drive,75154,32.5464783,-96.8548974
122,Craddock Drive,75154,32.5464809,-96.8552868
227,Hollywood Drive,75154,32.5351009,-96.8516655
106,Vine Street,75154,32.5343323,-96.8559574
116,Vine Street,75154,32.5343446,-96.8547376
303,Wilshire Court,75154,32.5356220,-96.8557746
205,Sunset Drive,75154,32.5360625,-96.8554063
307,Wilshire Court,75154,32.5361044,-96.8558277
2704,Lake Ridge Drive,75154,32.5344759,-96.8619558
2617,Pambrooke Lane,75154,32.5396508,-96.8402793
309,Red River Drive,75154,32.5387611,-96.8657398
313,Red River Drive,75154,32.5389116,-96.8659248
2620,Beech Creek Road,75154,32.5372442,-96.8661329
2632,Beech Creek Road,75154,32.5368230,-96.8667190
2506,Chalmers Road,75154,32.5405954,-96.8511415
219,Maybank Street,75154,32.5404787,-96.8539128
215,Maybank Street,75154,32.5404781,-96.8543066
226,Tradd Street,75154,32.5407885,-96.8530328
207,Tradd Street,75154,32.5412839,-96.8550046
216,Tradd Street,75154,32.5407889,-96.8540602
2510,Chalmers Road,75154,32.5402660,-96.8511508
601,Stone Creek Boulevard,75154,32.5462072,-96.8675431
2424,Timbercreek Drive,75154,32.5406313,-96.8625390
301,Frio River Road,75154,32.5401903,-96.8633878
300,Concho River Drive,75154,32.5388117,-96.8652045
2503,Allview Lane,75154,32.5408249,-96.8449387
2611,Firebird Road,75154,32.5372242,-96.8467611
2506,South Hampton Road,75154,32.5401933,-96.8559595
310,Calhoun Street,75154,32.5369613,-96.8513414
318,Calhoun Street,75154,32.5369629,-96.8506021
320,Calhoun Street,75154,32.5369704,-96.8503884
527,Golden Bell Drive,75154,32.5368708,-96.8445328
620,Natchez Lane,75154,32.5380835,-96.8418469
2624,Sunburst Drive,75154,32.5379108,-96.8400200
2608,Sunburst Drive,75154,32.5390840,-96.8409314
2308,Emerald Springs Drive,75154,32.5446345,-96.8397418
2317,Emerald Springs Drive,75154,32.5443556,-96.8403072
304,Granite Pass,75154,32.5417511,-96.8628539
331,Granite Pass,75154,32.5414806,-96.8649728
2505,Granite Pass,75154,32.5411433,-96.8655173
304,Frio River Road,75154,32.5399613,-96.8639650
216,Frio River Road,75154,32.5396367,-96.8632605
221,Sabine River Road,75154,32.5394598,-96.8636843
309,Concho River Drive,75154,32.5394182,-96.8652344
228,Sabine River Road,75154,32.5392844,-96.8644041
409,Willow Creek Drive,75154,32.5446717,-96.8643801
452,Glen Meadow Drive,75154,32.5449502,-96.8664129
332,Dove Creek Lane,75154,32.5427657,-96.8643926
105,Craddock Drive,75154,32.5469850,-96.8562299
324,Craddock Drive,75154,32.5464623,-96.8521166
2723/2725,La Jolla Court,75154,32.5346644,-96.8507079
221,Hollywood Drive,75154,32.5350977,-96.8523267
202,Hollywood Drive,75154,32.5350893,-96.8544505
105,Hollywood Drive,75154,32.5346357,-96.8559614
211,Sunset Drive,75154,32.5366111,-96.8547364
2614,Lake Ridge Drive,75154,32.5354186,-96.8614409
2809,Cinnamon Springs Street,75154,32.5329549,-96.8636991
2811,Cinnamon Springs Street,75154,32.5326196,-96.8636824
2807,Cinnamon Springs Street,75154,32.5332470,-96.8637829
141,Lin Dell Drive,75154,32.5423337,-96.8489532
1014,Archdale Lane,75154,32.5458711,-96.8501663
128,West Southbrook Drive,75154,32.5441959,-96.8484854
302,Mary Court,75154,32.5265040,-96.8506113
612,Azalea Drive,75154,32.5359862,-96.8424900
614,Azalea Drive,75154,32.5361224,-96.8422996
626,Stone Creek Boulevard,75154,32.5457320,-96.8685412
2301,Frio River Road,75154,32.5449402,-96.8694106
3033,Betsy Court,75154,32.5258561,-96.8521250
3035,Santa Rosa Drive,75154,32.5260612,-96.8532061
3034,Betsy Court,75154,32.5258574,-96.8514258
2521,Granite Pass,75154,32.5406646,-96.8660585
2605,Sanders Creek Road,75154,32.5393657,-96.8682539
210,Abel Drive,75154,32.5294810,-96.8530286
3007,Dorothy Lane,75154,32.5290431,-96.8549178
2616,Emerald Springs Drive,75154,32.5393663,-96.8397685
2300,Emerald Springs Drive,75154,32.5450889,-96.8398475
2325,Emerald Springs Drive,75154,32.5440802,-96.8403097
329,Meandering Way,75154,32.5428919,-96.8637465
316,Pebblebrook Lane,75154,32.5435336,-96.8631238
225,Pebblebrook Lane,75154,32.5436708,-96.8615951
305,Pebblebrook Lane,75154,32.5438334,-96.8623498
217,West Glen Meadow Drive,75154,32.5450081,-96.8604714
201,West Glen Meadow Drive,75154,32.5448396,-96.8596958
305,West Glen Meadow Drive,75154,32.5454636,-96.8625723
245,West Glen Meadow Drive,75154,32.5452979,-96.8618061
305,Granite Pass,75154,32.5422437,-96.8627904
2413,Timbercreek Drive,75154,32.5413047,-96.8627956
2509,Granite Pass,75154,32.5410217,-96.8656510
305,Sabine River Road,75154,32.5398199,-96.8643725
313,Concho River Drive,75154,32.5395499,-96.8654033
201,Sabine River Road,75154,32.5390647,-96.8627762
2515,Allview Lane,75154,32.5399488,-96.8446635
308,Calhoun Street,75154,32.5369614,-96.8515367
204,Ravenel Street,75154,32.5369558,-96.8538466
104,Ravenel Street,75154,32.5369438,-96.8557934
2605,Middleton Road,75154,32.5383616,-96.8563992
209,Abel Drive,75154,32.5300406,-96.8532979
216,Abel Drive,75154,32.5294799,-96.8520357
212,Moses Drive,75154,32.5247932,-96.8528934
3036,Santa Rosa Drive,75154,32.5260469,-96.8525495
3030,Betsy Court,75154,32.5262576,-96.8514950
441,Glen Meadow Drive,75154,32.5453956,-96.8661731
2207 (107),Watercrest Lane,75154,32.5445958,-96.8474293
153,West Southbrook Drive,75154,32.5436461,-96.8494218
321,Pebblebrook Lane,75154,32.5440062,-96.8631251
345,Pebblebrook Lane,75154,32.5436275,-96.8644188
308,West Willow Creek Lane,75154,32.5442005,-96.8625371
320,West Willow Creek Drive,75154,32.5443284,-96.8631225
626,Magnolia Lane,75154,32.5355193,-96.8411971
625,Magnolia Lane,75154,32.5359998,-96.8411609
623,Magnolia Lane,75154,32.5359997,-96.8414113
215,Ephraim Court,75154,32.5271475,-96.8523260
220,Ephraim Court,75154,32.5265452,-96.8514705
217,Abel Drive,75154,32.5300460,-96.8520489
202,Abel Drive,75154,32.5294818,-96.8540831
207,Jacob Drive,75154,32.5290691,-96.8535644
333,Pebblebrook Lane,75154,32.5439743,-96.8638315
241,West Glen Meadow Drive,75154,32.5452559,-96.8616151
251,West Glen Meadow Drive,75154,32.5453803,-96.8621887
322,Stone Creek Boulevard,75154,32.5458778,-96.8634888
208,Craddock Drive,75154,32.5464703,-96.8537286
2644/2648,Sunset Strip Avenue,75154,32.5361965,-96.8496066
216,Hollywood Drive,75154,32.5346341,-96.8527551
217,Los Angeles Drive,75154,32.5343048,-96.8527549
111,Vine Street,75154,32.5338918,-96.8552389
2425,Frio River Road,75154,32.5425192,-96.8694021
3217,Irises Lane,75154,32.5244398,-96.8651199
116,Claywood Drive,75154,32.5240669,-96.8603792
136,Claywood Drive,75154,32.5240600,-96.8615324
204,Claywood Drive,75154,32.5240482,-96.8628699
105,Fireberry Drive,75154,32.5237237,-96.8596806
2413,Bull Creek Road,75154,32.5422466,-96.8671389
421,Frio River Road,75154,32.5420791,-96.8662383
2521,Sanders Creek Road,75154,32.5409735,-96.8670501
2516,Sanders Creek Road,75154,32.5409808,-96.8662201
2601,Comal Creek Drive,75154,32.5387961,-96.8665359
2625,Granite Pass,75154,32.5382682,-96.8683593
2510,Clayton Street,75154,32.5401943,-96.8474241
717,Crabapple Drive,75154,32.5411738,-96.8406629
2524,Emerald Springs Drive,75154,32.5408839,-96.8397576
720,Red Cedar Lane,75154,32.5431073,-96.8405709
729,Blackthorne Drive,75154,32.5427750,-96.8402132
724,Blackthorne Drive,75154,32.5423093,-96.8403950
2701,Cinnamon Springs Road,75154,32.5352163,-96.8664668
2612,Beech Creek Road,75154,32.5375370,-96.8658070
2616,Salado Creek Lane,75154,32.5369902,-96.8651685
2629,Sagebrush Drive,75154,32.5364141,-96.8653089
2612,Tuscarora Trail,75154,32.5370774,-96.8472139
2604,Tuscarora Trail,75154,32.5379238,-96.8472168
2607,Tuscarora Trail,75154,32.5380390,-96.8477701
2603,Tuscarora Trail,75154,32.5384335,-96.8476697
2526,Lavender Lane,75154,32.5393236,-96.8424103
2520,Lavender Lane,75154,32.5396651,-96.8427424
2516,Lavender Lane,75154,32.5398981,-96.8429214
2501,Lavender Lane,75154,32.5409672,-96.8439886
2507,Lavender Lane,75154,32.5405151,-96.8438897
2605,Cannon Court,75154,32.5382896,-96.8545546
2612,Centurion Road,75154,32.5378796,-96.8549191
2604,Centurion Road,75154,32.5384293,-96.8549236
2607,Centurion Road,75154,32.5382866,-96.8554660
2609,Centurion Road,75154,32.5381492,-96.8554649
2617,Centurion Road,75154,32.5375994,-96.8554604
2756,Sunset Strip Avenue,75154,32.5336404,-96.8497009
2742,Sunset Strip Avenue,75154,32.5340510,-96.8496001
104,Mesa Moor Drive,75154,32.5472447,-96.8562322
213,Hollywood Drive,75154,32.5350954,-96.8531795
117,Vine Street,75154,32.5338813,-96.8544615
219,Sunset Drive,75154,32.5366379,-96.8536652
217,Sunset Drive,75154,32.5366347,-96.8539235
2601,Lake Ridge Drive,75154,32.5379103,-96.8612584
400,Willow Creek Drive,75154,32.5443223,-96.8637454
2312,Agate Lane,75154,32.5436080,-96.8648567
2229,Cinnamon Springs,75154,32.5445933,-96.8671899
2221,Cinnamon Springs Street,75154,32.5449420,-96.8669888
505,Stone Creek Boulevard,75154,32.5462032,-96.8668452
328,Gypsum Lane,75154,32.5419430,-96.8646079
428,Dove Creek Lane,75154,32.5432916,-96.8658329
445,Dove Creek Lane,75154,32.5438708,-96.8665239
437,Stone Creek Boulevard,75154,32.5461978,-96.8659182
109,Craddock Drive,75154,32.5469844,-96.8560461
2755,Malibu Court,75154,32.5337720,-96.8502701
314,Wilshire Drive,75154,32.5354141,-96.8503275
314/316,California Drive,75154,32.5330824,-96.8503685
225,Hollywood Drive,75154,32.5350992,-96.8518975
113,Hollywood Drive,75154,32.5346437,-96.8549908
109,Hollywood Drive,75154,32.5346397,-96.8554763
500 (177),West Wood Dell,75154,32.5427130,-96.8496489
217,Lake Shore Lane,75154,32.5435923,-96.8466128
520,Lin Dell Drive,75154,32.5417965,-96.8448021
113,East Southbrook Drive,75154,32.5436460,-96.8448782
2212 (230),Lake Shore Lane,75154,32.5437327,-96.8458839
620 (109),East Wood Dell Drive,75154,32.5425242,-96.8435896
529,Lin Dell Drive,75154,32.5423444,-96.8446405
2218,Grove Lane,75154,32.5435453,-96.8429511
2216,Frio River Road,75154,32.5451634,-96.8688734
2325,Frio River Road,75154,32.5439086,-96.8694061
2702,Tea Olive Drive,75154,32.5364818,-96.8399548
519,Magnolia Lane,75154,32.5351076,-96.8454947
2712,Hawthorn Drive,75154,32.5350563,-96.8486239
505,Azalea Drive,75154,32.5359828,-96.8469004
501,Azalea Drive,75154,32.5360226,-96.8474365
112,Claywood Drive,75154,32.5240686,-96.8601485
144,Claywood Drive,75154,32.5240568,-96.8619971
2416,Bull Creek Road,75154,32.5419558,-96.8665520
2517,Sanders Creek Road,75154,32.5411045,-96.8669308
315,Ferriday Street,75154,32.5414321,-96.8483216
2520,Emerald Springs Drive,75154,32.5410222,-96.8397567
708,Indian Hawthorn Drive,75154,32.5415111,-96.8409862
2525,Pambrooke Lane,75154,32.5408221,-96.8415933
2600,Emerald Springs Drive,75154,32.5399179,-96.8397616
2621,Cinnamon Springs Road,75154,32.5357393,-96.8668065
2549,Comal Creek Drive,75154,32.5391282,-96.8663451
2542,Sagebrush Drive,75154,32.5375231,-96.8634620
2526,Allview Lane,75154,32.5392686,-96.8436007
2500,Allview Lane,75154,32.5409816,-96.8443804
526,Doe Creek Trail,75154,32.5380418,-96.8450110
2600,Tuscarora Trail,75154,32.5383720,-96.8470865
2616,Sunset Strip Court,75154,32.5376455,-96.8505203
2500,Castle Ridge Drive,75154,32.5405455,-96.8521405
227,Greenhill Street,75154,32.5397284,-96.8530934
639,Stone Creek Boulevard,75154,32.5462161,-96.8693080
2624,Lavender Lane,75154,32.5378631,-96.8410174
2523,Sunburst Drive,75154,32.5395325,-96.8421018
213,Jacob Court,75154,32.5290679,-96.8525715
211,Ravenel Street,75154,32.5374116,-96.8531836
2621,Centurion Road,75154,32.5373128,-96.8554594
2616,Middleton Road,75154,32.5375972,-96.8558417
312,Meandering Way,75154,32.5425162,-96.8630704
200,Stone Creek Boulevard,75154,32.5451475,-96.8595979
229,West Willow Creek Drive,75154,32.5444107,-96.8613822
313,West Willow Creek Drive,75154,32.5446988,-96.8627224
2501,Sanders Creek Road,75154,32.5415969,-96.8662797
2524,Granite Pass,75154,32.5401967,-96.8658480
404,Willow Creek Drive,75154,32.5442732,-96.8639491
2308,Agate Lane,75154,32.5437942,-96.8647175
2404,Cinnamon Springs Street,75154,32.5426785,-96.8674763
412,Gypsum Lane,75154,32.5423293,-96.8655217
416,Gypsum Lane,75154,32.5423941,-96.8657013
436,Dove Creek Lane,75154,32.5433914,-96.8662248
437,Dove Creek Lane,75154,32.5438377,-96.8660994
453,Willow Creek Drive,75154,32.5446592,-96.8665983
421,Willow Creek Drive,75154,32.5446266,-96.8649858
176,West Wood Dell,75154,32.5432632,-96.8496501
2223 (121),Watercrest Lane,75154,32.5424387,-96.8479002
510 (301),West Wood Dell,75154,32.5427163,-96.8484829
141,Lake Shore Lane,75154,32.5428686,-96.8468111
120,Watercrest Lane,75154,32.5424554,-96.8472534
210,Watercrest Lane,75154,32.5430660,-96.8472553
610,East Southbrook Drive,75154,32.5436459,-96.8444126
539,Lin Dell Drive,75154,32.5423444,-96.8444079
324,Green Mound Drive,75154,32.5460510,-96.8484510
613,Green Mound Drive,75154,32.5455022,-96.8441072
2509,Pambrooke Lane,75154,32.5413618,-96.8418281
2425,Pambrooke Lane,75154,32.5419322,-96.8419124
2421,Pambrooke Lane,75154,32.5420725,-96.8419085
518,Magnolia Lane,75154,32.5346253,-96.8455353
527,Magnolia Lane,75154,32.5351106,-96.8445602
530,Golden Bell Drive,75154,32.5363939,-96.8443175
507,Azalea Drive,75154,32.5359835,-96.8466668
211,Joseph Drive,75154,32.5281114,-96.8530314
2366,Timbercreek Drive,75154,32.5421581,-96.8616444
2413,Sagebrush Drive,75154,32.5410228,-96.8618977
2529,Comal Creek Drive,75154,32.5398597,-96.8657158
2436,Sagebrush Drive,75154,32.5396972,-96.8617763
212,Frio River Road,75154,32.5395624,-96.8630859
224,Sabine River Road,75154,32.5391864,-96.8642145
2532,Crossbranch Drive,75154,32.5388713,-96.8444262
617,Green Mound Drive,75154,32.5460335,-96.8440038
2607,South Anson Road,75154,32.5379964,-96.8536476
206,Ravenel Street,75154,32.5369568,-96.8536517
106,Ravenel Street,75154,32.5369450,-96.8555987
2609,Middleton Road,75154,32.5380318,-96.8563979
222,Jacob Court,75154,32.5286428,-96.8512836
304,Pebblebrook Lane,75154,32.5434041,-96.8625369
237,West Willow Creek Drive,75154,32.5444914,-96.8617647
401,Willow Creek Drive,75154,32.5447500,-96.8639455
428,Glen Meadow Drive,75154,32.5449423,-96.8652090
417,Glen Meadow Drive,75154,32.5454036,-96.8648831
424,Stone Creek Boulevard,75154,32.5457134,-96.8653029
106,Mesa Moor Drive,75154,32.5472441,-96.8560132
215,California Drive,75154,32.5335105,-96.8529782
2645/2647,Ventura Court,75154,32.5361106,-96.8503955
2403,South Hampton Road,75154,32.5416813,-96.8573552
2410,Lake Ridge Drive,75154,32.5401913,-96.8590669
2615,Lake Ridge Drive,75154,32.5359036,-96.8628327
149,West Overhill Drive,75154,32.5445759,-96.8489554
515 (116),West Southbrook Drive,75154,32.5441977,-96.8480145
140,West Southbrook Drive,75154,32.5441938,-96.8489544
120,Rosewood Drive,75154,32.5249519,-96.8606261
144,Rosewood Drive,75154,32.5249403,-96.8618930
204,Rosewood Drive,75154,32.5249301,-96.8629469
113,Claywood Drive,75154,32.5245550,-96.8601501
125,Claywood Drive,75154,32.5245664,-96.8608323
2537,Sanders Creek Road,75154,32.5404384,-96.8675526
2505,Blanco River Court,75154,32.5403258,-96.8691366
2505,Foules Drive,75154,32.5406821,-96.8489096
2510,Foules Drive,75154,32.5401828,-96.8483604
304,Wildsville Lane,75154,32.5396121,-96.8489807
2607,Golden Bell Drive,75154,32.5382845,-96.8492003
2608,Golden Bell Drive,75154,32.5380526,-96.8486200
2712,Tea Olive Drive,75154,32.5349819,-96.8399348
621,Magnolia Lane,75154,32.5359592,-96.8416540
2341,Emerald Springs Drive,75154,32.5435037,-96.8403123
713,Blackthorne Drive,75154,32.5427785,-96.8409213
728,Blackthorne Drive,75154,32.5423084,-96.8402138
2721,Cinnamon Springs Road,75154,32.5345180,-96.8652511
2606,Sagebrush Drive,75154,32.5370047,-96.8639519
2636,Beech Creek Road,75154,32.5366854,-96.8669208
2630,Sagebrush Drive,75154,32.5361659,-96.8647679
213,Tradd Street,75154,32.5412457,-96.8543207
300,Tradd Street,75154,32.5407921,-96.8522251
229,Maybank Street,75154,32.5404770,-96.8529397
2512,Chalmers Road,75154,32.5401015,-96.8511573
3035,Dorothy Lane,75154,32.5259586,-96.8549158
3040,Dorothy Lane,75154,32.5254305,-96.8542774
305,Frio River Road,75154,32.5402796,-96.8635648
2510,Crossbranch Drive,75154,32.5402590,-96.8452122
2509,Crossbranch Drive,75154,32.5403536,-96.8458214
2503,Crossbranch Drive,75154,32.5408027,-96.8458832
521,Heartland Drive,75154,32.5413758,-96.8447968
209,Ephraim Drive,75154,32.5271452,-96.8533156
2600,Chalmers Road,75154,32.5388409,-96.8511945
2602,Chalmers Road,75154,32.5387073,-96.8512007
204,Joseph Drive,75154,32.5275562,-96.8538361
2607,Chalmers Road,75154,32.5381852,-96.8517788
222,Ephraim Court,75154,32.5267263,-96.8513299
206,Ephraim Drive,75154,32.5265948,-96.8535733
202,Ephraim Drive,75154,32.5265936,-96.8540925
2149,Trishia Lane,75154,32.5469164,-96.8528223
127,Craddock Circle,75154,32.5471615,-96.8549910
219,California Drive,75154,32.5335112,-96.8525631
214,Los Angeles Drive,75154,32.5338396,-96.8529787
2711,Star Avenue,75154,32.5350376,-96.8538829
216,Sunset Drive,75154,32.5361778,-96.8539129
2401,South Hampton Road,75154,32.5420904,-96.8573584
2600,Lake Ridge Drive,75154,32.5372814,-96.8595722
2504,Lake Ridge Drive,75154,32.5391012,-96.8589692
2613,Lake Ridge Drive,75154,32.5362221,-96.8626517
630,Golden Bell Drive,75154,32.5372679,-96.8405420
2626,Sunburst Drive,75154,32.5377467,-96.8399647
2618,Sunburst Drive,75154,32.5383959,-96.8402717
413,Gypsum Lane,75154,32.5427612,-96.8653365
324,Dove Creek Lane,75154,32.5425568,-96.8640412
310,Moses Drive,75154,32.5251882,-96.8493927
306,Joseph Drive,75154,32.5275211,-96.8500124
310,Abel Drive,75154,32.5294470,-96.8501825
339,Green Mound Drive,75154,32.5455107,-96.8491915
120,Lin Dell Drive,75154,32.5417877,-96.8494226
629 (100),Green Mound Drive,75154,32.5460269,-96.8424685
212,Rosewood Drive,75154,32.5249258,-96.8633670
137,Claywood Drive,75154,32.5245608,-96.8614664
125,Fireberry Drive,75154,32.5237174,-96.8608386
129,Fireberry Drive,75154,32.5237166,-96.8610685
2532,Sanders Creek Road,75154,32.5404682,-96.8668038
2522,Cinnamon Springs Road,75154,32.5403881,-96.8680373
2540,Sanders Creek Road,75154,32.5402081,-96.8670869
2621,Comal Creek Drive,75154,32.5380069,-96.8673006
2633,Granite Pass,75154,32.5380241,-96.8687077
2553,Cinnamon Springs Road,75154,32.5380178,-96.8695964
2616,Comal Creek Drive,75154,32.5378462,-96.8667121
2632,Granite Pass,75154,32.5377972,-96.8681915
518,Azalea Drive,75154,32.5355069,-96.8452629
200,Abel Drive,75154,32.5294820,-96.8543589
2513,Dunbarton Drive,75154,32.5401404,-96.8498843
2514,Foules Drive,75154,32.5397985,-96.8483359
306,Wildsville Lane,75154,32.5396091,-96.8487869
2606,Golden Bell Drive,75154,32.5382456,-96.8486189
716,Red Cedar Lane,75154,32.5431077,-96.8407451
704,Red Cedar Lane,75154,32.5431099,-96.8412712
2405,Pambrooke Lane,75154,32.5426258,-96.8419065
2717,Cinnamon Springs Road,75154,32.5346238,-96.8655377
2629,Beech Creek Road,75154,32.5372269,-96.8669862
2613,Cinnamon Springs Road,75154,32.5361364,-96.8670876
324,Frio River Road,75154,32.5405904,-96.8648108
2359,Sagebrush Drive,75154,32.5423187,-96.8611326
2521,Comal Creek Drive,75154,32.5401130,-96.8654306
308,Frio River Road,75154,32.5400604,-96.8641319
2524,Sagebrush Drive,75154,32.5381964,-96.8629175
301,Meandering Way,75154,32.5430222,-96.8623731
324,Pebblebrook Lane,75154,32.5435630,-96.8636207
2512,Whispering Breeze Lane,75154,32.5399131,-96.8460708
2506,Whispering Breeze Lane,75154,32.5404053,-96.8462355
209,Pebblebrook Lane,75154,32.5435080,-96.8608403
2507,Crossbranch Drive,75154,32.5405018,-96.8458582
525,Heartland Drive,75154,32.5413740,-96.8444727
329,Pebblebrook Lane,75154,32.5440227,-96.8636031
2324,Sagebrush Drive,75154,32.5430557,-96.8598765
221,West Glen Meadow Drive,75154,32.5450496,-96.8606618
249,West Glen Meadow Drive,75154,32.5453390,-96.8619973
2620,Chalmers Road,75154,32.5374718,-96.8512343
215,Greenhill Street,75154,32.5396865,-96.8540746
2603,Chalmers Road,75154,32.5385148,-96.8517707
301,Calhoun Street,75154,32.5374403,-96.8519813
214,Ravenel Street,75154,32.5369522,-96.8528888
304,Calhoun Street,75154,32.5369568,-96.8519555
515,Golden Bell Drive,75154,32.5368701,-96.8459405
2612,Sunburst Drive,75154,32.5388367,-96.8406585
200,Jacob Drive,75154,32.5285256,-96.8543623
317,Meandering Way,75154,32.5430985,-96.8631709
216,West Willow Creek Drive,75154,32.5438753,-96.8610272
202,West Willow Creek Drive,75154,32.5437139,-96.8602434
449,Gypsum Lane,75154,32.5432038,-96.8671495
433,Gypsum Lane,75154,32.5430824,-96.8663099
405,Gypsum Lane,75154,32.5426246,-96.8649634
327,Gypsum Lane,75154,32.5422639,-96.8642243
400,Dove Creek Lane,75154,32.5428312,-96.8645795
3030,Courtney Lane,75154,32.5256625,-96.8491889
3024,Courtney Lane,75154,32.5263363,-96.8491962
308,Abel Drive,75154,32.5294492,-96.8504421
306,Abel Drive,75154,32.5294528,-96.8507134
1032,Archdale Lane,75154,32.5451708,-96.8501668
1230,Archdale Lane,75154,32.5433151,-96.8501543
1306,Archdale Lane,75154,32.5428587,-96.8501526
500 (347),Green Mound Drive,75154,32.5455101,-96.8496570
327,Green Mound Drive,75154,32.5455105,-96.8484851
2201 (303),Green Mound Drive,75154,32.5455400,-96.8469914
166,West Overhill Drive,75154,32.5451243,-96.8496551
150,Lin Dell Drive,75154,32.5417902,-96.8487200
2600,Beech Creek Road,75154,32.5380379,-96.8653854
634,Stone Creek Boulevard,75154,32.5457327,-96.8689502
2305,Frio River Road,75154,32.5447699,-96.8694091
631,Magnolia Lane,75154,32.5360012,-96.8404532
633,Azalea Drive,75154,32.5369132,-96.8402832
510,Azalea Drive,75154,32.5355040,-96.8461974
3015,Dorothy Lane,75154,32.5281571,-96.8549240
232,West Willow Creek Drive,75154,32.5440377,-96.8617823
2330,Timbercreek Drive,75154,32.5431274,-96.8610569
244,Stone Creek Boulevard,75154,32.5456038,-96.8617075
308,Stone Creek Boulevard,75154,32.5458124,-96.8626639
2127,South Hampton Road,75154,32.5464404,-96.8586749
2121,Uhl Road,75154,32.5465572,-96.8425909
2609,South Anson Road,75154,32.5378308,-96.8536491
2611,South Anson Road,75154,32.5376659,-96.8536478
118,Ravenel Street,75154,32.5369512,-96.8544306
116,Ravenel Street,75154,32.5369501,-96.8546252
2727,La Jolla Court,75154,32.5345461,-96.8505075
211,Wilshire Drive,75154,32.5358742,-96.8536116
300,Wilshire Court,75154,32.5353639,-96.8563248
302,Wilshire Court,75154,32.5356169,-96.8564335
2760,Sunset Strip Avenue,75154,32.5334676,-96.8497354
2725,Star Avenue,75154,32.5335898,-96.8538902
212,California Drive,75154,32.5330400,-96.8532719
224,Hollywood Drive,75154,32.5346378,-96.8518987
211,Los Angeles Drive,75154,32.5343037,-96.8534081
205,Vine Street,75154,32.5344777,-96.8542606
2201,Frio River Road,75154,32.5457949,-96.8694125
2536,Granite Pass,75154,32.5398309,-96.8662724
2604,Emerald Springs Drive,75154,32.5397793,-96.8397613
2537,Pambrooke Lane,75154,32.5404549,-96.8413263
2340,Emerald Springs Drive,75154,32.5435034,-96.8397459
2328,Emerald Springs Drive,75154,32.5439143,-96.8397442
2365,Sagebrush Drive,75154,32.5420807,-96.8612733
2371,Sagebrush Drive,75154,32.5418401,-96.8614154
326,Gypsum Lane,75154,32.5413236,-96.8643020
324,Gypsum Lane,75154,32.5411276,-96.8641699
329,Frio River Road,75154,32.5409650,-96.8644845
208,Frio River Road,75154,32.5394890,-96.8629122
2442,Sagebrush Drive,75154,32.5394351,-96.8618943
529,Natchez Lane,75154,32.5377112,-96.8444946
2520,Crossbranch Drive,75154,32.5396062,-96.8449152
2304,Frio River Road,75154,32.5448348,-96.8688726
2312,Frio River Road,75154,32.5445035,-96.8688711
613,Heartland Drive,75154,32.5413654,-96.8428559
601,Heartland Drive,75154,32.5413694,-96.8438300
2605,South Anson Road,75154,32.5381647,-96.8536036
2612,Cannon Court,75154,32.5376638,-96.8540047
2402,Hampton Road,75154,32.5418048,-96.8561004
337,Craddock Drive,75154,32.5469940,-96.8515182
2724,Sunset Drive,75154,32.5339432,-96.8511754
2730,Sunset Drive,75154,32.5334424,-96.8511881
2739/2741,Malibu Court,75154,32.5343018,-96.8503789
204,Hollywood Drive,75154,32.5350917,-96.8542001
116,Hollywood Drive,75154,32.5350866,-96.8546945
2417,Cinnamon Springs Road,75154,32.5421454,-96.8680810
2509,Sanders Creek Road,75154,32.5412941,-96.8666086
2505,Zacate Creek Court,75154,32.5411045,-96.8685533
2549,Cinnamon Springs Road,75154,32.5382871,-96.8697050
416,Glen Meadow Drive,75154,32.5449670,-96.8646101
321,Ferriday Street,75154,32.5414588,-96.8476069
3002,Courtney Lane,75154,32.5294774,-96.8491180
513 (219),Lin Dell Drive,75154,32.5423367,-96.8482449
1020,Archdale Lane,75154,32.5456371,-96.8501663
122,West Southbrook Drive,75154,32.5441965,-96.8482493
624,Camellia Drive,75154,32.5346321,-96.8409375
2714,Tea Olive Drive,75154,32.5346964,-96.8399066
200,Moses Drive,75154,32.5248868,-96.8547063
205,Janice Court,75154,32.5262226,-96.8536830
2510,Allview Lane,75154,32.5402689,-96.8442079
2614,Sunset Strip Court,75154,32.5377833,-96.8505187
202,Greenhill Street,75154,32.5391597,-96.8548739
2514,Castle Ridge Drive,75154,32.5395600,-96.8521201
206,Joseph Drive,75154,32.5275569,-96.8535765
219,Ephraim Court,75154,32.5271766,-96.8517954
2546,Cinnamon Springs Road,75154,32.5393600,-96.8688157
2401,Bull Creek Road,75154,32.5427850,-96.8670978
2549,Granite Pass,75154,32.5397661,-96.8669854
213,Joseph Drive,75154,32.5281034,-96.8525756
102,Ravenel Street,75154,32.5369284,-96.8560092
600,Golden Bell Drive,75154,32.5363855,-96.8438831
2521,Sunburst Drive,75154,32.5396458,-96.8422163
2522,Lavender Lane,75154,32.5395530,-96.8426447
2510,Lavender Lane,75154,32.5402695,-96.8431643
700,East Ovilla Road,75154,32.5309730,-96.8415014
2321,Emerald Springs Drive,75154,32.5442179,-96.8403076
2312,Emerald Springs Drive,75154,32.5444707,-96.8397429
2613,Cannon Court,75154,32.5377418,-96.8545367
2615,Cannon Court,75154,32.5376044,-96.8545356
2614,Centurion Road,75154,32.5377421,-96.8549180
303,Abel Drive,75154,32.5300425,-96.8515311
3009,Dorothy Lane,75154,32.5288231,-96.8549269
321,Meandering Way,75154,32.5432571,-96.8633551
318,Stone Creek Boulevard,75154,32.5458745,-96.8632836
456,Dove Creek Lane,75154,32.5435624,-96.8672269
513 (116),West Wood Dell,75154,32.5432644,-96.8482465
146,West Wood Dell,75154,32.5432632,-96.8489530
2211,Lake Shore Lane,75154,32.5447062,-96.8462175
201,Lake Shore Lane,75154,32.5432458,-96.8467421
522 (133),Lin Dell Drive,75154,32.5417891,-96.8473066
230,Watercrest Lane,75154,32.5434501,-96.8471788
602,East Woodell Drive,75154,32.5427217,-96.8455800
607,East Overhill Drive,75154,32.5451269,-96.8443486
2228,Grove Lane,75154,32.5424527,-96.8429546
604,East Overhill Drive,75154,32.5445796,-96.8448785
304,Green Mound Drive,75154,32.5460411,-96.8472298
320,Green Mound Drive,75154,32.5460488,-96.8482057
606 (119),Green Mound Drive,75154,32.5455035,-96.8449228
340,Green Mound Drive,75154,32.5460528,-96.8494172
615,East Overhill Drive,75154,32.5451157,-96.8434136
506,Magnolia Lane,75154,32.5346209,-96.8469371
510,Golden Bell Drive,75154,32.5363821,-96.8466685
512,Golden Bell Drive,75154,32.5363830,-96.8464348
504,Golden Bell Drive,75154,32.5363818,-96.8474115
511,Azalea Drive,75154,32.5359850,-96.8461995
222,Moses Drive,75154,32.5250962,-96.8515576
2400,Timbercreek Drive,75154,32.5416406,-96.8619474
300,Frio River Road,75154,32.5398693,-96.8637914
2537,Comal Creek Drive,75154,32.5396190,-96.8659951
2500,Sagebrush Drive,75154,32.5391846,-96.8620393
217,Jacob Court,75154,32.5290675,-96.8520361
2602,Middleton Road,75154,32.5385593,-96.8558494
3315,South Hampton Road,75154,32.5206551,-96.8594490
142,Craddock Drive,75154,32.5464743,-96.8543132
221,Los Angeles Drive,75154,32.5343061,-96.8523274
201,Vine Street,75154,32.5340001,-96.8542392
2402,Lake Ridge Drive,75154,32.5416424,-96.8583910
413,Glen Meadow Drive,75154,32.5454218,-96.8646682
220,Pebblebrook Lane,75154,32.5432005,-96.8615544
2354,Timbercreek Drive,75154,32.5425143,-96.8614302
228,Stone Creek Boulevard,75154,32.5454391,-96.8609436
305,West Willow Creek Drive,75154,32.5446157,-96.8623394
3008,Courtney Lane,75154,32.5288172,-96.8491224
3004,Courtney Lane,75154,32.5292573,-96.8491210
2213 (241),Watercrest Lane,75154,32.5437485,-96.8478193
627,Camellia Drive,75154,32.5351190,-96.8409340
601,Magnolia Lane,75154,32.5351127,-96.8438869
615,Magnolia Lane,75154,32.5355941,-96.8422697
607,Magnolia Lane,75154,32.5351087,-96.8431287
619,Magnolia Lane,75154,32.5358724,-96.8418910
2308,Frio River Road,75154,32.5446696,-96.8688729
2317,Frio River Road,75154,32.5442528,-96.8694074
157,Claywood Drive,75154,32.5245529,-96.8625200
229,Claywood Drive,75154,32.5245411,-96.8642108
3212,Rosewood Drive,75154,32.5244371,-96.8591930
124,Claywood Drive,75154,32.5240636,-96.8608415
224,Claywood Drive,75154,32.5240433,-96.8640373
2421,Bull Creek Road,75154,32.5418728,-96.8671038
2500,Sanders Creek Road,75154,32.5415783,-96.8656717
2505,Sanders Creek Road,75154,32.5414112,-96.8664728
2510,Cinnamon Springs Road,75154,32.5409140,-96.8676104
2520,Sanders Creek Road,75154,32.5408538,-96.8663660
2612,Sanders Creek Road,75154,32.5387897,-96.8681948
2604,Comal Creek Drive,75154,32.5383115,-96.8662537
311,Ferriday Street,75154,32.5414330,-96.8487091
2501,Dunbarton Drive,75154,32.5411605,-96.8499094
301,Abel Drive,75154,32.5300458,-96.8517893
206,Abel Drive,75154,32.5294814,-96.8535639
2915,Dorothy Lane,75154,32.5301419,-96.8549140
3011,Dorothy Lane,75154,32.5285980,-96.8549241
2409,Pambrooke Lane,75154,32.5424879,-96.8419069
2440,Emerald Springs Drive,75154,32.5418562,-96.8397511
716,Indian Hawthorn Drive,75154,32.5415095,-96.8406605
725,Crabapple Drive,75154,32.5411730,-96.8403393
2624,Salado Creek Lane,75154,32.5366999,-96.8654922
2601,Cinnamon Springs Road,75154,32.5366123,-96.8678009
2601,Sagebrush Drive,75154,32.5374884,-96.8642651
332,Pebblebrook Lane,75154,32.5432983,-96.8640610
217,Pebblebrook Lane,75154,32.5435894,-96.8612177
309,Pebblebrook Lane,75154,32.5438739,-96.8625386
2224,Sagebrush Drive,75154,32.5442479,-96.8592231
205,West Glen Meadow Drive,75154,32.5448834,-96.8598999
301,West Glen Meadow Drive,75154,32.5454224,-96.8623801
2516,Allview Lane,75154,32.5398831,-96.8440132
521,Natchez Lane,75154,32.5377098,-96.8454131
2608,Tuscarora Trail,75154,32.5375002,-96.8472130
514,Natchez Lane,75154,32.5372255,-96.8461776
204,Greenhill Street,75154,32.5391561,-96.8547024
2512,Castle Ridge Drive,75154,32.5397205,-96.8521225
2606,Lavender Lane,75154,32.5390528,-96.8421749
2615,Sunburst Drive,75154,32.5385845,-96.8411412
2503,Sunburst Drive,75154,32.5407915,-96.8429834
2505,Sunburst Drive,75154,32.5406487,-96.8429199
2505,Lavender Lane,75154,32.5406549,-96.8439444
2511,Lavender Lane,75154,32.5402550,-96.8437697
2517,Lavender Lane,75154,32.5398706,-96.8435593
2610,Cannon Court,75154,32.5378287,-96.8540061
2603,Cannon Court,75154,32.5385061,-96.8545839
425,Stone Creek Boulevard,75154,32.5462620,-96.8653242
167,West Wood Dell,75154,32.5427137,-96.8494215
117,West Woodell,75154,32.5427174,-96.8482461
111,Watercrest Lane,75154,32.5422422,-96.8479003
209,Lake Shore Lane,75154,32.5434208,-96.8466751
230,Lin Dell Drive,75154,32.5417868,-96.8480116
210,Lin Dell Drive,75154,32.5417875,-96.8484847
344,Lin Dell Drive,75154,32.5417945,-96.8466965
2208 (320),Lake Shore Lane,75154,32.5442359,-96.8456913
609,East Overhill Drive,75154,32.5451268,-96.8441102
2217,Uhl Road,75154,32.5437617,-96.8425405
336,Green Mound Drive,75154,32.5460512,-96.8491759
610,Green Mound Drive,75154,32.5455034,-96.8445777
521,Magnolia Lane,75154,32.5351083,-96.8452611
2700,Hawthorn Drive,75154,32.5362090,-96.8480624
2710,Hawthorn Drive,75154,32.5352699,-96.8485787
2711,Juniper Drive,75154,32.5348490,-96.8481501
2701,Juniper Drive,75154,32.5359162,-96.8477502
513,Azalea Drive,75154,32.5359857,-96.8459659
214,Moses Drive,75154,32.5248539,-96.8526174
221,Joseph Drive,75154,32.5281038,-96.8515333
312,West Glen Meadow Drive,75154,32.5450324,-96.8627497
244,West Glen Meadow Drive,75154,32.5448644,-96.8619829
2715,Star Avenue,75154,32.5345176,-96.8538858
214,California Drive,75154,32.5330385,-96.8530674
618,Stone Creek Boulevard,75154,32.5457305,-96.8681365
153,Claywood Drive,75154,32.5245548,-96.8623106
225,Claywood Drive,75154,32.5245422,-96.8640000
237,Claywood Drive,75154,32.5245386,-96.8646384
2417,Bull Creek Road,75154,32.5420713,-96.8671289
405,Frio River Road,75154,32.5418785,-96.8652717
401,Frio River Road,75154,32.5417520,-96.8650541
2600,Granite Pass,75154,32.5389371,-96.8668672
2401,Pambrooke Lane,75154,32.5427625,-96.8419061
729,Crabapple Drive,75154,32.5411729,-96.8401675
2516,Emerald Springs Drive,75154,32.5411586,-96.8397539
2500,Emerald Springs Drive,75154,32.5417131,-96.8397541
712,Indian Hawthorn Drive,75154,32.5415105,-96.8408232
2541,Pambrooke Lane,75154,32.5403410,-96.8412203
2605,Salado Creek Lane,75154,32.5376860,-96.8652059
2520,Allview Lane,75154,32.5396325,-96.8438597
2506,Allview Lane,75154,32.5405365,-96.8443131
518,Doe Creek Trail,75154,32.5380472,-96.8457907
2602,Tuscarora Trail,75154,32.5381375,-96.8471804
520,Natchez Lane,75154,32.5372219,-96.8454682
526,Natchez Lane,75154,32.5372207,-96.8447853
606,Doe Creek Trail,75154,32.5383469,-96.8438383
231,Greenhill Street,75154,32.5397112,-96.8527705
2147,Glenn Lane,75154,32.5472568,-96.8538631
119,Craddock Drive,75154,32.5470188,-96.8554789
2612,Lake Ridge Drive,75154,32.5357016,-96.8612121
2515,South Hampton Road,75154,32.5377708,-96.8576520
2603,Lake Ridge Drive,75154,32.5376598,-96.8615346
2147,Trishia Lane,75154,32.5471022,-96.8528177
225,California Drive,75154,32.5335130,-96.8519252
211,California Drive,75154,32.5335118,-96.8534096
231,Sunset Drive,75154,32.5366371,-96.8520989
2652,Sunset Drive,75154,32.5362044,-96.8511224
2633,Ventura Court,75154,32.5366940,-96.8503951
217,Wilshire Drive,75154,32.5358750,-96.8526919
2506,Lake Ridge Drive,75154,32.5387221,-96.8590496
600,Natchez Lane,75154,32.5372696,-96.8438658
2621,Sunburst Drive,75154,32.5381797,-96.8407563
2607,Cannon Court,75154,32.5381542,-96.8545400
2615,Centurion Road,75154,32.5377369,-96.8554615
2619,Centurion Road,75154,32.5374620,-96.8554593
2612,Middleton Road,75154,32.5378721,-96.8558439
2304,Agate Lane,75154,32.5439839,-96.8646171
2217,Cinnamon Springs Street,75154,32.5450885,-96.8669040
440,Dove Creek Lane,75154,32.5434104,-96.8664345
409,Stone Creek Boulevard,75154,32.5463145,-96.8645487
441,Stone Creek Boulevard,75154,32.5461989,-96.8661291
2219 (211),Watercrest Lane,75154,32.5431675,-96.8478993
156,West Wood Dell,75154,32.5432631,-96.8491880
640,Lin Dell Drive,75154,32.5417898,-96.8429374
509,Lin Dell Drive,75154,32.5423447,-96.8451094
601,East Overhill Drive,75154,32.5451283,-96.8450458
2230,Grove Lane,75154,32.5422448,-96.8429553
1454,Uhl Road,75154,32.5424505,-96.8425464
602,East Overhill Drive,75154,32.5445793,-96.8451145
600 (121),East Overhill Drive,75154,32.5445780,-96.8453479
105,East Overhill Drive,75154,32.5445774,-96.8437138
625,Green Mound Drive,75154,32.5460285,-96.8429989
316,Green Mound Drive,75154,32.5460455,-96.8479623
2201,Uhl Road,75154,32.5455876,-96.8425737
2207 (1408),Uhl Road,75154,32.5451073,-96.8425291
117,Rosewood Drive,75154,32.5254690,-96.8604427
112,Rosewood Drive,75154,32.5249700,-96.8601826
128,Rosewood Drive,75154,32.5249478,-96.8610489
140,Rosewood Drive,75154,32.5249426,-96.8616828
220,Rosewood Drive,75154,32.5249239,-96.8637915
117,Claywood Drive,75154,32.5245701,-96.8604097
133,Claywood Drive,75154,32.5245630,-96.8612548
3232,Rosewood Drive,75154,32.5233162,-96.8591878
2530,Cinnamon Springs Road,75154,32.5400308,-96.8682531
2625,Comal Creek Drive,75154,32.5378839,-96.8674780
2637,Granite Pass,75154,32.5378813,-96.8689030
2565,Cinnamon Springs Road,75154,32.5371732,-96.8689118
2573,Cinnamon Springs Road,75154,32.5368845,-96.8683992
2506,Foules Drive,75154,32.5405155,-96.8483601
2519,Dunbarton Drive,75154,32.5396440,-96.8498871
2617,Golden Bell Drive,75154,32.5370017,-96.8487218
608,Azalea Drive,75154,32.5356677,-96.8428180
529,Magnolia Lane,75154,32.5351113,-96.8443120
522,Golden Bell Drive,75154,32.5363890,-96.8452666
528,Golden Bell Drive,75154,32.5363926,-96.8445657
514,Golden Bell Drive,75154,32.5363842,-96.8462011
516,Golden Bell Drive,75154,32.5363854,-96.8459675
2707,Juniper Drive,75154,32.5352608,-96.8480723
2709,Cinnamon Springs Road,75154,32.5349001,-96.8660041
2604,Salado Creek Lane,75154,32.5374644,-96.8647395
231,Tradd Street,75154,32.5412583,-96.8525610
210,Tradd Street,75154,32.5407863,-96.8546928
2507,Chalmers Road,75154,32.5402325,-96.8517269
228,Maybank Street,75154,32.5400329,-96.8529503
208,Maybank Street,75154,32.5400178,-96.8550378
321,Frio River Road,75154,32.5407088,-96.8642075
204,Sabine River Road,75154,32.5388058,-96.8633214
209,Concho River Drive,75154,32.5386104,-96.8637139
136,Rosewood Drive,75154,32.5249439,-96.8614698
141,Fireberry Drive,75154,32.5237117,-96.8617616
148,Fireberry Drive,75154,32.5232235,-96.8622193
2521,Allview Lane,75154,32.5395458,-96.8444487
2513,Allview Lane,75154,32.5400856,-96.8447287
2518,Whispering Breeze Lane,75154,32.5394310,-96.8458591
525,Doe Creek Trail,75154,32.5385129,-96.8452830
2604,Chalmers Road,75154,32.5385705,-96.8512058
219,Greenhill Street,75154,32.5397034,-96.8537473
202,Calhoun Street,75154,32.5380597,-96.8529114
2545,Sanders Creek Road,75154,32.5401365,-96.8677769
2553,Sanders Creek Road,75154,32.5398366,-96.8679497
2557,Cinnamon Springs Road,75154,32.5377590,-96.8694529
2633,Comal Creek Drive,75154,32.5376390,-96.8678295
2632,Comal Creek Drive,75154,32.5373023,-96.8674775
517,Golden Bell Drive,75154,32.5368700,-96.8457024
525,Golden Bell Drive,75154,32.5368703,-96.8447688
606,Golden Bell Drive,75154,32.5366215,-96.8431844
616,Golden Bell Drive,75154,32.5371669,-96.8421633
634,Golden Bell Drive,75154,32.5372747,-96.8399514
2512,Sunburst Drive,75154,32.5401303,-96.8419555
2503,Foules Drive,75154,32.5408462,-96.8489080
2521,Dunbarton Drive,75154,32.5394528,-96.8498892
2601,Golden Bell Drive,75154,32.5388410,-96.8492122
2613,Golden Bell Drive,75154,32.5373629,-96.8490399
720,Blackthorne Drive,75154,32.5423099,-96.8405708
712,Blackthorne Drive,75154,32.5423108,-96.8409210
700,Blackthorne Drive,75154,32.5423129,-96.8414550
2432,Emerald Springs Drive,75154,32.5421298,-96.8397501
216,Stone Creek Boulevard,75154,32.5453161,-96.8603732
220,Stone Creek Boulevard,75154,32.5453573,-96.8605645
224,Stone Creek Boulevard,75154,32.5453975,-96.8607533
204,Stone Creek Boulevard,75154,32.5451916,-96.8598003
213,West Willow Creek Drive,75154,32.5442446,-96.8606164
317,West Willow Creek Drive,75154,32.5447445,-96.8629170
232,West Glen Meadow Drive,75154,32.5447399,-96.8614118
2609,Sagebrush Drive,75154,32.5371457,-96.8645461
2612,Salado Creek Lane,75154,32.5371439,-96.8650176
2640,Salado Creek Lane,75154,32.5361950,-96.8661909
2637,Sagebrush Drive,75154,32.5361553,-96.8656588
2644,Salado Creek Lane,75154,32.5360509,-96.8663880
2648,Sagebrush Drive,75154,32.5356290,-96.8655125
424,Gypsum Lane,75154,32.5424714,-96.8660883
225,Tradd Street,75154,32.5412481,-96.8531449
220,Tradd Street,75154,32.5407895,-96.8536477
211,Maybank Street,75154,32.5404800,-96.8547073
304,Moses Drive,75154,32.5251656,-96.8502578
3020,Courtney Lane,75154,32.5267739,-96.8491988
309,Maria Court,75154,32.5262107,-96.8499881
311,Maria Court,75154,32.5260467,-96.8498339
1118,Archdale Lane,75154,32.5442361,-96.8501606
1330,Archdale Lane,75154,32.5418341,-96.8501563
331,Green Mound Drive,75154,32.5455113,-96.8487201
118,West Overhill Drive,75154,32.5451243,-96.8477850
519 (112),West Overhill Drive,75154,32.5451258,-96.8475530
130,Lake Shore Lane,75154,32.5426338,-96.8461707
2359,Timbercreek Drive,75154,32.5425474,-96.8620002
603,Doe Creek Trail,75154,32.5387121,-96.8441726
2517,Crossbranch Drive,75154,32.5398033,-96.8456110
2505,Crossbranch Drive,75154,32.5406529,-96.8458804
531,Natchez Lane,75154,32.5377295,-96.8442454
511,Natchez Lane,75154,32.5377463,-96.8467287
521,Doe Creek Trail,75154,32.5385146,-96.8456721
518,Lipan Lane,75154,32.5388353,-96.8461332
2521,Whispering Breeze Lane,75154,32.5392906,-96.8465293
218,Greenhill Street,75154,32.5392687,-96.8535650
210,Greenhill Street,75154,32.5392040,-96.8542105
2612,Chalmers Road,75154,32.5380209,-96.8512199
2618,Chalmers Road,75154,32.5376100,-96.8512314
2622,Chalmers Road,75154,32.5373273,-96.8512393
217,Greenhill Street,75154,32.5396939,-96.8539125
207,Greenhill Street,75154,32.5396563,-96.8547241
2601,Chalmers Road,75154,32.5386949,-96.8517673
629,Magnolia Lane,75154,32.5360003,-96.8407014
630,Azalea Drive,75154,32.5363996,-96.8404543
629,Camellia Drive,75154,32.5351207,-96.8406986
517,Magnolia Lane,75154,32.5351069,-96.8457284
3022,Courtney Lane,75154,32.5265562,-96.8491937
611,Natchez Lane,75154,32.5382725,-96.8431460
632,Golden Bell Drive,75154,32.5372632,-96.8402963
205,Abel Drive,75154,32.5300380,-96.8538171
2348,Timbercreek Drive,75154,32.5426606,-96.8613436
453,Gypsum Lane,75154,32.5432694,-96.8673599
437,Gypsum Lane,75154,32.5430994,-96.8665199
318,Dove Creek Lane,75154,32.5423997,-96.8638743
3032,Courtney Lane,75154,32.5253753,-96.8491713
303,Mary Court,75154,32.5271715,-96.8506321
307,Mary Court,75154,32.5271089,-96.8500334
306,Michelle Court,75154,32.5284796,-96.8499240
111,Lake Shore Lane,75154,32.5422512,-96.8468165
142,West Overhill Drive,75154,32.5451255,-96.8487191
2155,Glenn Lane,75154,32.5469246,-96.8538143
2650,Sunset Drive,75154,32.5364809,-96.8510580
2608,Lake Ridge Drive,75154,32.5362643,-96.8607461
631,Camellia Drive,75154,32.5351216,-96.8404502
3031,Betsy Court,75154,32.5261546,-96.8521429
129,Claywood Drive,75154,32.5245642,-96.8610444
132,Fireberry Drive,75154,32.5232283,-96.8612936
2621,Beech Creek Road,75154,32.5375023,-96.8665944
2502,Clayton Street,75154,32.5410082,-96.8473849
2503,Clayton Street,75154,32.5408027,-96.8479605
2508,Foules Drive,75154,32.5403493,-96.8483593
2509,Foules Drive,75154,32.5403534,-96.8489113
302,Wildsville Lane,75154,32.5396131,-96.8491756
2713,Cinnamon Springs Road,75154,32.5347649,-96.8657805
2605,Beech Creek Road,75154,32.5381097,-96.8659663
2633,Sagebrush Drive,75154,32.5362808,-96.8654826
206,Maybank Street,75154,32.5400184,-96.8552421
332,Frio River Road,75154,32.5409060,-96.8651026
325,Frio River Road,75154,32.5408337,-96.8643498
308,Gypsum Lane,75154,32.5406006,-96.8634925
213,Concho River Drive,75154,32.5386857,-96.8638889
2508,Crossbranch Drive,75154,32.5403943,-96.8452607
2505,Allview Lane,75154,32.5406718,-96.8449352
507,Doe Creek Trail,75154,32.5389286,-96.8469575
513,Heartland Drive,75154,32.5413794,-96.8454437
612,Doe Creek Trail,75154,32.5385984,-96.8433162
216,Greenhill Street,75154,32.5392544,-96.8537268
2609,Chalmers Road,75154,32.5380212,-96.8517825
2604,Calhoun Street,75154,32.5381912,-96.8521705
2602,Calhoun Street,75154,32.5384419,-96.8521291
216,Ravenel Street,75154,32.5369502,-96.8526570
605,Natchez Lane,75154,32.5380024,-96.8436641
521,Golden Bell Drive,75154,32.5368701,-96.8452338
610,Natchez Lane,75154,32.5378143,-96.8429181
3119,South Hampton Road,75154,32.5269059,-96.8606305
207,Abel Drive,75154,32.5300393,-96.8535575
201,Abel Drive,75154,32.5300352,-96.8543525
206,Jacob Drive,75154,32.5285262,-96.8535673
2130,Trishia Lane,75154,32.5472479,-96.8518743
327,Craddock Drive,75154,32.5469799,-96.8519351
336,Craddock Drive,75154,32.5464596,-96.8515275
2737,Malibu Court,75154,32.5342393,-96.8500804
214,Sunset Drive,75154,32.5361652,-96.8542102
110,Wilshire Drive,75154,32.5366079,-96.8553142
108,Wilshire Drive,75154,32.5366306,-96.8556360
2813,Cinnamon Springs Street,75154,32.5322889,-96.8637451
2706,Lake Ridge Drive,75154,32.5340501,-96.8620175
401,Gypsum Lane,75154,32.5425562,-96.8647768
311,Granite Pass,75154,32.5420318,-96.8634734
328,Dove Creek Lane,75154,32.5426763,-96.8642145
404,Dove Creek Lane,75154,32.5428967,-96.8647582
304,Mary Court,75154,32.5265426,-96.8503005
304,Joseph Drive,75154,32.5275232,-96.8502720
301,Michelle Court,75154,32.5289260,-96.8507037
304,Michelle Court,75154,32.5284656,-96.8501926
312,Abel Drive,75154,32.5294449,-96.8499229
1220,Archdale Lane,75154,32.5435457,-96.8501551
1240,Archdale Lane,75154,32.5430856,-96.8501508
323,Green Mound Drive,75154,32.5455091,-96.8482498
2220 (110),Lake Shore Lane,75154,32.5422458,-96.8461700
629,Azalea Drive,75154,32.5368786,-96.8407809
2700,Tea Olive Drive,75154,32.5367102,-96.8399002
630,Magnolia Lane,75154,32.5355110,-96.8407191
616,Magnolia Lane,75154,32.5349326,-96.8421511
606,Magnolia Lane,75154,32.5346292,-96.8433417
610,Magnolia Lane,75154,32.5346297,-96.8428378
612,Magnolia Lane,75154,32.5346550,-96.8425546
520,Magnolia Lane,75154,32.5346261,-96.8453017
623,Azalea Drive,75154,32.5368780,-96.8414901
609,Azalea Drive,75154,32.5362464,-96.8430023
514,Azalea Drive,75154,32.5355054,-96.8457301
516,Azalea Drive,75154,32.5355062,-96.8454965
2405,Bull Creek Road,75154,32.5425966,-96.8671211
2412,Cinnamon Springs Road,75154,32.5423445,-96.8675104
2408,Bull Creek Road,75154,32.5423255,-96.8665959
2557,Granite Pass,75154,32.5394499,-96.8671648
200,Joseph Drive,75154,32.5275550,-96.8543714
203,Joseph Drive,75154,32.5281089,-96.8540859
712,Crabapple Drive,75154,32.5407217,-96.8409383
2400,Sagebrush Drive,75154,32.5413459,-96.8610518
225,Sabine River Road,75154,32.5395392,-96.8638623
220,Sabine River Road,75154,32.5391026,-96.8640372
2528,Crossbranch Drive,75154,32.5391097,-96.8446112
2525,Allview Lane,75154,32.5392859,-96.8442782
2518,Chalmers Road,75154,32.5392500,-96.8511779
2521,Lavender Lane,75154,32.5396253,-96.8433913
2523,Lavender Lane,75154,32.5395049,-96.8433052
2606,Middleton Road,75154,32.5382844,-96.8558472
210,Ravenel Street,75154,32.5369577,-96.8532623
202,Ravenel Street,75154,32.5369535,-96.8540413
200,Ravenel Street,75154,32.5369522,-96.8542359
300,Stone Creek Boulevard,75154,32.5457277,-96.8622824
304,Stone Creek Boulevard,75154,32.5457688,-96.8624745
433,Glen Meadow Drive,75165,32.5453996,-96.8657180
412,Stone Creek Boulevard,75154,32.5457385,-96.8647049
3006,Courtney Lane,75154,32.5290374,-96.8491225
137,West Overhill Drive,75154,32.5445752,-96.8484833
620,Camellia Drive,75154,32.5345926,-96.8415562
206,Moses Drive,75154,32.5248126,-96.8536743
210,Joseph Drive,75154,32.5275581,-96.8530411
223,Ephraim Court,75154,32.5270355,-96.8513261
302,East Ovilla Road,75154,32.5313712,-96.8503628
213,Abel Drive,75154,32.5300417,-96.8525720
201,Jacob Drive,75154,32.5290697,-96.8543593
205,Jacob Drive,75154,32.5290693,-96.8538239
312,Pebblebrook Lane,75154,32.5434891,-96.8629176
204,West Glen Meadow Drive,75154,32.5444495,-96.8600750
208,West Glen Meadow Drive,75154,32.5444911,-96.8602649
2212,Sagebrush Drive,75154,32.5447115,-96.8591207
312,Stone Creek Boulevard,75154,32.5458415,-96.8628687
110,Craddock Drive,75154,32.5464849,-96.8558709
224,California Drive,75154,32.5330390,-96.8518209
209,Wilshire Drive,75154,32.5358715,-96.8539150
222,Wilshire Drive,75154,32.5354250,-96.8516945
214,Wilshire Drive,75154,32.5354205,-96.8528197
112,Hollywood Drive,75154,32.5350831,-96.8551827
101,Vine Street,75154,32.5338808,-96.8564605
203,Sunset Drive,75154,32.5358168,-96.8554640
202,Sunset Drive,75154,32.5356118,-96.8549157
720,Crabapple Drive,75154,32.5407023,-96.8405504
2304,Emerald Springs Drive,75154,32.5448821,-96.8397047
2519,Lavender Lane,75154,32.5397495,-96.8434765
611,Heartland Drive,75154,32.5413669,-96.8430204
2603,South Anson Road,75154,32.5383409,-96.8535188
2604,Middleton Road,75154,32.5384218,-96.8558483
2601,Middleton Road,75154,32.5387056,-96.8563997
2724/2726,Sunset Strip Avenue,75154,32.5347841,-96.8496098
2820,Sunset Strip Avenue,75154,32.5327457,-96.8497100
2808/2810,Sunset Strip Avenue,75154,32.5331210,-96.8497403
219,Hollywood Drive,75154,32.5350979,-96.8525404
2713,Star Avenue,75154,32.5347045,-96.8538852
214,Hollywood Drive,75154,32.5346337,-96.8529676
2210 (101),East Overhill Drive,75154,32.5445302,-96.8429399
2401,Lake Ridge Drive,75154,32.5422382,-96.8594651
2405,Lake Ridge Drive,75154,32.5415805,-96.8597445
2640,Sunset Strip Avenue,75154,32.5364471,-96.8496082
333,Craddock Drive,75154,32.5469907,-96.8517325
114,Craddock Drive,75154,32.5464836,-96.8556762
126,Craddock Drive,75154,32.5464796,-96.8550921
2728,Sunset Drive,75154,32.5336130,-96.8511842
213,Wilshire Drive,75154,32.5358749,-96.8533053
110,Hollywood Drive,75154,32.5350809,-96.8554260
212,Sunset Drive,75154,32.5361149,-96.8544840
208,Vine Street,75154,32.5346457,-96.8547390
114,Vine Street,75154,32.5343405,-96.8549865
305,Wilshire Court,75154,32.5358732,-96.8558197
2803,Cinnamon Springs Street,75154,32.5337749,-96.8642739
319,Abel Drive,75154,32.5299832,-96.8490678
134,West Southbrook Drive,75154,32.5441955,-96.8487187
2400,Bull Creek Road,75154,32.5426940,-96.8665481
2409,Cinnamon Springs Road,75154,32.5424879,-96.8680661
2409,Bull Creek Road,75154,32.5424210,-96.8671358
2529,Granite Pass,75154,32.5404285,-96.8663286
625,Camellia Drive,75154,32.5351440,-96.8411773
611,Magnolia Lane,75154,32.5352789,-96.8425904
202,Moses Drive,75154,32.5249232,-96.8542622
205,Moses Drive,75154,32.5253654,-96.8535118
200,Ephraim Drive,75154,32.5265929,-96.8543683
3019,Dorothy Lane,75154,32.5277172,-96.8549226
2321,Frio River Road,75154,32.5440803,-96.8694065
619,Stone Creek Boulevard,75154,32.5462114,-96.8682505
623,Stone Creek Boulevard,75154,32.5462126,-96.8684792
622,Stone Creek Boulevard,75154,32.5457318,-96.8683467
630,Stone Creek Boulevard,75154,32.5457346,-96.8687371
216,Claywood Drive,75154,32.5240460,-96.8635690
413,Frio River Road,75154,32.5420603,-96.8657434
2513,Sanders Creek Road,75154,32.5411960,-96.8667733
2632,Sanders Creek Road,75154,32.5381678,-96.8690955
305,Ferriday Street,75154,32.5414344,-96.8492968
301,Ferriday Street,75154,32.5414077,-96.8497508
2501,Foules Drive,75154,32.5410293,-96.8489064
2503,Dunbarton Drive,75154,32.5409678,-96.8498880
302,Abel Drive,75154,32.5294795,-96.8515165
2553,Granite Pass,75154,32.5396102,-96.8670715
2548,Granite Pass,75154,32.5392683,-96.8666722
2512,Emerald Springs Drive,75154,32.5412953,-96.8397579
2501,Pambrooke Lane,75154,32.5416447,-96.8418879
728,Indian Hawthorn Drive,75154,32.5415072,-96.8401660
724,Indian Hawthorn Drive,75154,32.5415078,-96.8403376
2616,Beech Creek Road,75154,32.5373872,-96.8659647
2500,Whispering Breeze Lane,75154,32.5409378,-96.8462635
2514,Allview Lane,75154,32.5400111,-96.8440821
2508,Allview Lane,75154,32.5404014,-96.8442624
513,Natchez Lane,75154,32.5377363,-96.8463385
2610,Tuscarora Trail,75154,32.5372869,-96.8472123
528,Natchez Lane,75154,32.5372195,-96.8445587
2609,Tuscarora Trail,75154,32.5378416,-96.8477809
2502,Castle Ridge Drive,75154,32.5404071,-96.8521395
215,Joseph Drive,75154,32.5281020,-96.8523039
2212,Frio River Road,75154,32.5453287,-96.8688758
2417,Frio River Road,75154,32.5428496,-96.8694027
225,West Glen Meadow Drive,75154,32.5450905,-96.8608518
321,West Glen Meadow Drive,75154,32.5455658,-96.8634176
608,Natchez Lane,75154,32.5377298,-96.8431007
2500,Sunburst Drive,75154,32.5409249,-96.8424536
2507,Sunburst Drive,75154,32.5405104,-96.8428516
2515,Lavender Lane,75154,32.5399966,-96.8436316
2604,Cannon Court,75154,32.5383448,-96.8538556
2316,Emerald Springs Drive,75154,32.5443267,-96.8397429
2409,Timbercreek Drive,75154,32.5414542,-96.8626554
436,Willow Creek Drive,75154,32.5441672,-96.8661210
309,Gypsum Lane,75154,32.5410855,-96.8633663
441,Willow Creek Drive,75154,32.5446313,-96.8659668
305,Gypsum Lane,75154,32.5409656,-96.8631628
308,Sabine River Road,75154,32.5396427,-96.8649701
2516,Crossbranch Drive,75154,32.5398593,-96.8450472
126,West Wood Dell,75154,32.5432641,-96.8484816
2217,Watercrest Lane,75154,32.5433648,-96.8478914
241,Lake Shore Lane,75154,32.5441055,-96.8464331
2213,Lake Shore Lane,75154,32.5444456,-96.8463147
410,Lin Dell Drive,75154,32.5417980,-96.8464136
630,Lin Dell Drive,75154,32.5417899,-96.8431710
117,East Wood Dell Drive,75154,32.5427201,-96.8453446
107,East Wood Dell Drive,75154,32.5427188,-96.8441765
115,East Wood Dell Drive,75154,32.5427186,-96.8451110
2216,Grove Lane,75154,32.5437639,-96.8429487
2209,South Uhl Road,75154,32.5445265,-96.8425322
2210 (101),East Overhill Road,75154,32.5442025,-96.8429449
109,East Overhill Drive,75154,32.5445815,-96.8441818
623,Green Mound Drive,75154,32.5460315,-96.8432505
627,Green Mound Drive,75154,32.5460273,-96.8427406
2525,Lavender Lane,75154,32.5393906,-96.8432098
617,Heartland Drive,75154,32.5413635,-96.8424984
114,Ravenel Street,75154,32.5369491,-96.8548199
112,Ravenel Street,75154,32.5369481,-96.8550146
110,Ravenel Street,75154,32.5369470,-96.8552093
512,Magnolia Lane,75154,32.5346231,-96.8462362
624,Azalea Drive,75154,32.5363982,-96.8411578
618,Azalea Drive,75154,32.5363165,-96.8418660
606,Azalea Drive,75154,32.5355307,-96.8430649
507,Magnolia Lane,75154,32.5351032,-96.8468965
216,Moses Drive,75154,32.5249188,-96.8523393
210,Moses Drive,75154,32.5247461,-96.8531707
209,Moses Drive,75154,32.5255091,-96.8526546
3034,Santa Rosa Drive,75154,32.5262728,-96.8525437
401,Glen Meadow Drive,75154,32.5455199,-96.8640447
420,Stone Creek Boulevard,75154,32.5457105,-96.8651068
432,Stone Creek Boulevard,75154,32.5457156,-96.8657049
119,West Overhill Drive,75154,32.5445960,-96.8477525
131,West Overhill Drive,75154,32.5445744,-96.8482478
147,West Southbrook Drive,75154,32.5436467,-96.8491870
316,West Glen Meadow Drive,75154,32.5450724,-96.8629486
329,West Willow Creek Drive,75154,32.5447950,-96.8635416
200,Craddock Drive,75154,32.5464727,-96.8540370
102,Mesa Moor Drive,75154,32.5472448,-96.8564676
110,Mesa Moor Drive,75154,32.5472709,-96.8555547
2723,Star Avenue,75154,32.5337841,-96.8538895
212,Hollywood Drive,75154,32.5346325,-96.8531802
210,Hollywood Drive,75154,32.5346319,-96.8534091
212,Los Angeles Drive,75154,32.5338386,-96.8531878
2303,Lake Ridge Drive,75154,32.5425757,-96.8593852
2123,South Hampton Road,75154,32.5471709,-96.8587567
626,Camellia Drive,75154,32.5346336,-96.8406964
617,Magnolia Lane,75154,32.5357489,-96.8421068
213,Ephraim Court,75154,32.5271469,-96.8525936
220,Joseph Drive,75154,32.5275616,-96.8515486
104,Claywood Drive,75154,32.5240709,-96.8596834
132,Claywood Drive,75154,32.5240603,-96.8613020
152,Claywood Drive,75154,32.5240535,-96.8624657
228,Claywood Drive,75154,32.5240402,-96.8642669
2425,Cinnamon Springs Road,75154,32.5418013,-96.8680699
504,Frio River Road,75154,32.5414001,-96.8683044
2508,Sanders Creek Road,75154,32.5412381,-96.8659179
2609,Sanders Creek Road,75154,32.5392280,-96.8684054
2628,Sanders Creek Road,75154,32.5383016,-96.8688982
716,Crabapple Drive,75154,32.5407037,-96.8407131
2601,Salado Creek Lane,75154,32.5378687,-96.8650699
2609,Salado Creek Lane,75154,32.5375226,-96.8653463
215,Abel Drive,75154,32.5300462,-96.8523084
209,Jacob Drive,75154,32.5290689,-96.8533048
3005,Dorothy Lane,75154,32.5292577,-96.8549210
2528,Allview Lane,75154,32.5391570,-96.8434928
2518,Allview Lane,75154,32.5397560,-96.8439400
2504,Allview Lane,75154,32.5406795,-96.8443678
518,Natchez Lane,75154,32.5372233,-96.8456929
2613,Tuscarora Trail,75154,32.5374542,-96.8477835
312,Greenhill Street,75154,32.5391439,-96.8518760
617,Golden Bell Drive,75154,32.5376927,-96.8420915
2622,Lavender Lane,75154,32.5380297,-96.8411199
2506,Sunburst Drive,75154,32.5405120,-96.8422350
2514,Lavender Lane,75154,32.5400231,-96.8430080
2502,Lavender Lane,75154,32.5408024,-96.8434204
2500,Lavender Lane,75154,32.5409661,-96.8434304
213,Ravenel Street,75154,32.5374094,-96.8529724
2602,Cannon Court,75154,32.5385397,-96.8538687
2608,Centurion Road,75154,32.5381544,-96.8549213
213,Pebblebrook Lane,75154,32.5435486,-96.8610290
301,Pebblebrook Lane,75154,32.5437927,-96.8621612
236,West Glen Meadow Drive,75154,32.5447813,-96.8616016
2218,Sagebrush Drive,75154,32.5444809,-96.8591659
2306,Sagebrush Drive,75154,32.5436153,-96.8595245
2401,Cinnamon Springs Street,75154,32.5430176,-96.8679741
404,Gypsum Lane,75154,32.5421984,-96.8651643
424,Willow Creek Drive,75154,32.5441522,-96.8655002
428,Willow Creek Drive,75154,32.5441481,-96.8657039
432,Willow Creek Drive,75154,32.5441576,-96.8659125
449,Willow Creek Drive,75154,32.5446284,-96.8663702
433,Willow Creek Drive,75154,32.5446292,-96.8655774
429,Willow Creek Drive,75154,32.5446282,-96.8653827
425,Willow Creek Drive,75154,32.5446262,-96.8651863
413,Stone Creek Boulevard,75154,32.5462942,-96.8647453
133,Craddock Circle,75154,32.5471782,-96.8543665
2714,Sunset Drive,75154,32.5347831,-96.8511536
2648,Sunset Drive,75154,32.5366642,-96.8512195
313,Wilshire Drive,75154,32.5358596,-96.8501603
2637/02639,Ventura Court,75154,32.5365727,-96.8506668
207,Cripple Creek Road,75154,32.5405253,-96.8581990
2408,Lake Ridge Drive,75154,32.5406906,-96.8589217
2407,South Hampton Road,75154,32.5408628,-96.8574011
104,Wilshire Drive,75154,32.5366185,-96.8561738
2307,South Hampton Road,75154,32.5429244,-96.8573635
448,Watercrest Lane,75154,32.5455828,-96.8463917
438,Watercrest Lane,75154,32.5453852,-96.8464276
530,Lin Dell Drive,75154,32.5417975,-96.8445685
2214 (330),Watercrest Lane,75154,32.5443250,-96.8468843
615,East Woodell Drive,75154,32.5432630,-96.8440608
118,East Wood Dell Drive,75154,32.5432659,-96.8455765
519,Lin Dell Drive,75154,32.5423445,-96.8448750
113,East Overhill Drive,75154,32.5445814,-96.8444121
107,East Overhill Drive,75154,32.5445800,-96.8439486
609 (114),East Southbrook Drive,75154,32.5441925,-96.8444115
519,Azalea Drive,75154,32.5359879,-96.8452650
3204,Rosewood Drive,75154,32.5248238,-96.8592100
121,Claywood Drive,75154,32.5245677,-96.8606210
133,Fireberry Drive,75154,32.5237143,-96.8612989
2641,Comal Creek Drive,75154,32.5373504,-96.8682236
3033,Santa Rosa Drive,75154,32.5262806,-96.8531974
300,Meandering Way,75154,32.5425657,-96.8623671
320,West Glen Meadow Drive,75154,32.5450964,-96.8631558
220,West Glen Meadow Drive,75154,32.5446154,-96.8608384
717,Red Cedar Lane,75154,32.5435741,-96.8407856
2336,Emerald Springs Drive,75154,32.5436402,-96.8397459
2605,Sagebrush Drive,75154,32.5373039,-96.8644172
2612,Sagebrush Drive,75154,32.5367813,-96.8641372
2628,Salado Creek Lane,75154,32.5365644,-96.8656629
214,Maybank Street,75154,32.5400198,-96.8544114
2509,Marsh Street,75154,32.5404100,-96.8551592
300,West Glen Meadow Drive,75154,32.5449050,-96.8621755
228,West Glen Meadow Drive,75154,32.5446984,-96.8612202
2419,Sagebrush Drive,75154,32.5407821,-96.8620339
2425,Sagebrush Drive,75154,32.5405210,-96.8621604
317,Sabine River Road,75154,32.5401549,-96.8648357
200,Gypsum Lane,75154,32.5400504,-96.8622153
221,Concho River Drive,75154,32.5388354,-96.8642413
2500,Crossbranch Drive,75154,32.5409754,-96.8453247
2510,Whispering Breeze Lane,75154,32.5400742,-96.8461334
2508,Whispering Breeze Lane,75154,32.5402374,-96.8461892
523,Doe Creek Trail,75154,32.5385155,-96.8454766
528,Lipan Lane,75154,32.5388745,-96.8450342
2522,Chalmers Road,75154,32.5389760,-96.8511911
2606,Chalmers Road,75154,32.5384316,-96.8512086
2608,Chalmers Road,75154,32.5382934,-96.8512125
211,Greenhill Street,75154,32.5396691,-96.8543991
300D,Charleston Boulevard,75154,32.5387224,-96.8524474
2611,Calhoun Street,75154,32.5376573,-96.8527327
306,Calhoun Street,75154,32.5369552,-96.8517369
519,Golden Bell Drive,75154,32.5368698,-96.8454669
626,Golden Bell Drive,75154,32.5372673,-96.8409886
2606,Sunburst Drive,75154,32.5392049,-96.8410594
2600,Sunburst Drive,75154,32.5395666,-96.8414520
323,Gypsum Lane,75154,32.5421089,-96.8640899
319,Granite Pass,75154,32.5418601,-96.8640067
315,Granite Pass,75154,32.5419474,-96.8637478
3014,Courtney Lane,75154,32.5281644,-96.8491226
300,Mary Court,75154,32.5266641,-96.8507898
305,Joseph Drive,75154,32.5280697,-96.8501971
309,Joseph Drive,75154,32.5280760,-96.8496829
309,Abel Drive,75154,32.5300021,-96.8504391
1026,Archdale Lane,75154,32.5454045,-96.8501654
1210,Archdale Lane,75154,32.5437749,-96.8501563
1312,Archdale Lane,75154,32.5426295,-96.8501533
343,Green Mound Drive,75154,32.5455103,-96.8494239
2203 (425),Watercrest Lane,75154,32.5452788,-96.8471653
445,Lin Dell Drive,75154,32.5423438,-96.8455769
631,Azalea Drive,75154,32.5368779,-96.8405472
613,Azalea Drive,75154,32.5365264,-96.8426306
506,Azalea Drive,75154,32.5355025,-96.8466647
211,Moses Drive,75154,32.5255388,-96.8523695
312,West Willow Creek Drive,75154,32.5442414,-96.8627258
212,West Willow Creek Drive,75154,32.5438346,-96.8608386
2162,Mesa Wood Drive,75154,32.5469276,-96.8510186
123,Craddock Drive,75154,32.5470488,-96.8552780
223,California Drive,75154,32.5335124,-96.8521394
244,Sunset Drive,75154,32.5361767,-96.8517182
240,Sunset Drive,75154,32.5361783,-96.8520656
2302,Lake Ridge Drive,75154,32.5423634,-96.8582386
2610,Lake Ridge Drive,75154,32.5359829,-96.8609789
2508,Lake Ridge Drive,75154,32.5383655,-96.8591397
2603,South Hampton Road,75154,32.5369160,-96.8577921
2507,Lake Ridge Drive,75154,32.5391160,-96.8604370
321,West Willow Creek Drive,75154,32.5447769,-96.8631263
3309,South Hampton Road,75154,32.5211513,-96.8592792
2628,Sunset Strip Avenue,75154,32.5366955,-96.8496084
2718,Sunset Strip Avenue,75154,32.5350312,-96.8496084
2652,Sunset Strip Avenue,75154,32.5359384,-96.8496089
2505,Lake Ridge Drive,75154,32.5394173,-96.8603724
2407,Lake Ridge Drive,75154,32.5412674,-96.8598615
137,Fireberry Drive,75154,32.5237142,-96.8615288
2512,Zacate Creek Court,75154,32.5406065,-96.8688764
2549,Sanders Creek Road,75154,32.5399839,-96.8678642
2534,Cinnamon Springs Road,75154,32.5398582,-96.8683510
2628,Granite Pass,75154,32.5379191,-96.8680150
2629,Comal Creek Drive,75154,32.5377610,-96.8676523
2561,Cinnamon Springs Road,75154,32.5375181,-96.8692740
2636,Comal Creek Drive,75154,32.5371274,-96.8677104
2604,Golden Bell Drive,75154,32.5384378,-96.8486180
2706,Sunset Strip Avenue,75154,32.5355349,-96.8496075
708,Red Cedar Lane,75154,32.5431096,-96.8410958
717,Blackthorne Drive,75154,32.5427775,-96.8407463
716,Blackthorne Drive,75154,32.5423110,-96.8407463
708,Blackthorne Drive,75154,32.5423118,-96.8410961
2605,Cinnamon Springs Road,75154,32.5365056,-96.8675582
213,Maybank Street,75154,32.5404791,-96.8545027
2511,Chalmers Road,75154,32.5399039,-96.8517301
328,Frio River Road,75154,32.5407456,-96.8649609
312,Gypsum Lane,75154,32.5406974,-96.8636622
213,Frio River Road,75154,32.5399675,-96.8628606
2506,Sagebrush Drive,75154,32.5389461,-96.8622129
212,Sabine River Road,75154,32.5389512,-96.8636829
224,Concho River Drive,75154,32.5385295,-96.8647035
2516,Sagebrush Drive,75154,32.5384235,-96.8627350
2522,Crossbranch Drive,75154,32.5394770,-96.8448426
2511,Crossbranch Drive,75154,32.5402127,-96.8457716
527,Doe Creek Trail,75154,32.5385217,-96.8450886
517,Doe Creek Trail,75154,32.5385135,-96.8460637
513,Doe Creek Trail,75154,32.5386030,-96.8464907
509,Doe Creek Trail,75154,32.5388334,-96.8468047
519,Heartland Drive,75154,32.5413765,-96.8449578
515,Heartland Drive,75154,32.5413781,-96.8452815
2516,Chalmers Road,75154,32.5393944,-96.8511691
223,Greenhill Street,75154,32.5397318,-96.8534246
213,Greenhill Street,75154,32.5396765,-96.8542367
2608,Calhoun Street,75154,32.5378644,-96.8521857
704,Indian Hawthorn Drive,75154,32.5415127,-96.8411491
131,Lake Shore Lane,75154,32.5426658,-96.8468120
2433,Frio River Road,75154,32.5421886,-96.8694004
445,Gypsum Lane,75154,32.5431549,-96.8669446
421,Gypsum Lane,75154,32.5428979,-96.8657096
308,Mary Court,75154,32.5265569,-96.8497721
306,Mary Court,75154,32.5265591,-96.8500398
308,Joseph Drive,75154,32.5275189,-96.8497529
145,Claywood Drive,75154,32.5245578,-96.8618884
311,Abel Drive,75154,32.5300003,-96.8501795
140,Claywood Drive,75154,32.5240572,-96.8617660
314,Abel Drive,75154,32.5294426,-96.8496472
115,Craddock Drive,75154,32.5470008,-96.8556738
308,Craddock Drive,75154,32.5464659,-96.8529019
304,Craddock Drive,75154,32.5464668,-96.8530983
108,Craddock Drive,75154,32.5464862,-96.8560657
138,Craddock Drive,75154,32.5464756,-96.8545079
2726,Sunset Drive,75154,32.5337731,-96.8511789
311,Green Mound Drive,75154,32.5455075,-96.8475510
130,West Overhill Drive,75154,32.5451241,-96.8482495
316,Wilshire Drive,75154,32.5354215,-96.8500678
226,California Drive,75154,32.5330395,-96.8516060
220,Wilshire Drive,75154,32.5354228,-96.8519909
207,Wilshire Drive,75154,32.5354092,-96.8542089
107,Hollywood Drive,75154,32.5346380,-96.8557196
304,Wilshire Court,75154,32.5358692,-96.8563919
306,Wilshire Court,75154,32.5361012,-96.8563911
2512,Sanders Creek Road,75154,32.5411070,-96.8660743
2601,Granite Pass,75154,32.5391322,-96.8673519
2600,Comal Creek Drive,75154,32.5385038,-96.8661212
2624,Sanders Creek Road,75154,32.5384230,-96.8687210
2616,Granite Pass,75154,32.5382891,-96.8674847
2608,Comal Creek Drive,75154,32.5381486,-96.8663947
622,Camellia Drive,75154,32.5346098,-96.8411780
608,Magnolia Lane,75154,32.5346252,-96.8431005
524,Magnolia Lane,75154,32.5346275,-96.8448344
603,Azalea Drive,75154,32.5359931,-96.8436425
601,Azalea Drive,75154,32.5359923,-96.8438907
502,Azalea Drive,75154,32.5355010,-96.8471319
3035,Betsy Court,75154,32.5255856,-96.8520480
200,Janice Court,75154,32.5257351,-96.8543294
201,Janice Court,75154,32.5262083,-96.8543646
2508,Clayton Street,75154,32.5403886,-96.8474236
303,Ferriday Street,75154,32.5414366,-96.8494906
2649,Sagebrush Drive,75154,32.5357627,-96.8662119
2617,Beech Creek Road,75154,32.5376416,-96.8664229
2213,Frio River Road,75154,32.5452833,-96.8694106
2612,Granite Pass,75154,32.5384290,-96.8673092
530,Doe Creek Trail,75154,32.5380633,-96.8445974
520,Doe Creek Trail,75154,32.5380455,-96.8455988
514,Doe Creek Trail,75154,32.5380449,-96.8461876
530,Natchez Lane,75154,32.5372180,-96.8443048
2617,Tuscarora Trail,75154,32.5370129,-96.8477723
2612,Sunset Strip Court,75154,32.5379208,-96.8505117
308,Greenhill Street,75154,32.5391885,-96.8522677
208,Greenhill Street,75154,32.5391901,-96.8543708
233,Maybank Street,75154,32.5404785,-96.8525937
2420,Emerald Springs Drive,75154,32.5425427,-96.8397499
2400,Emerald Springs Drive,75154,32.5432299,-96.8397471
212,Jacob Court,75154,32.5285159,-96.8525721
2501,Sunburst Drive,75154,32.5409549,-96.8430369
2800,Cinnamon Springs Street,75154,32.5347657,-96.8640224
602,Natchez Lane,75154,32.5373846,-96.8436272
603,Golden Bell Drive,75154,32.5369928,-96.8435205
605,Golden Bell Drive,75154,32.5371485,-96.8433397
607,Golden Bell Drive,75154,32.5372743,-96.8431540
615,Golden Bell Drive,75154,32.5376392,-96.8423202
2611,Sunburst Drive,75154,32.5388486,-96.8414171
2623,Sunburst Drive,75154,32.5380234,-96.8406541
2510,Sunburst Drive,75154,32.5402537,-96.8420561
2511,Sunburst Drive,75154,32.5402520,-96.8427028
2524,Lavender Lane,75154,32.5394447,-96.8425336
2512,Lavender Lane,75154,32.5401449,-96.8430925
2508,Lavender Lane,75154,32.5404010,-96.8432310
2371,Timbercreek Drive,75154,32.5421581,-96.8622435
2401,Sagebrush Drive,75154,32.5414747,-96.8616292
2412,Timbercreek Drive,75154,32.5411377,-96.8622417
2416,Timbercreek Drive,75154,32.5409738,-96.8623375
309,Sabine River Road,75154,32.5399255,-96.8645318
205,Sabine River Road,75154,32.5391601,-96.8629867
2530,Crossbranch Drive,75154,32.5389929,-96.8445227
2608,Cannon Court,75154,32.5379937,-96.8540074
2619,Cannon Court,75154,32.5373180,-96.8545346
2611,Centurion Road,75154,32.5380117,-96.8554637
529,Heartland Drive,75154,32.5413728,-96.8441509
2616,Cannon Court,75154,32.5373277,-96.8540009
208,Ravenel Street,75154,32.5369573,-96.8534570
2617,Middleton Road,75154,32.5373695,-96.8563951
300,West Willow Creek Drive,75154,32.5441194,-96.8621596
220,West Willow Creek Drive,75154,32.5439161,-96.8612160
215,Meandering Way,75154,32.5429920,-96.8621632
252,Stone Creek Boulevard,75154,32.5456857,-96.8620899
223,West Ovilla Road,75154,32.5340939,-96.8598468
3000,Courtney Lane,75154,32.5297047,-96.8490704
441,Dove Creek Lane,75154,32.5438598,-96.8663083
444,Willow Creek Drive,75154,32.5441918,-96.8665576
417,Willow Creek Drive,75154,32.5446344,-96.8647833
433,Stone Creek Boulevard,75154,32.5461968,-96.8657235
131,Lin Dell Drive,75154,32.5423333,-96.8491862
2209 (319),Watercrest Lane,75154,32.5443352,-96.8475952
146,West Southbrook Drive,75154,32.5441928,-96.8491895
123,West Southbrook Drive,75154,32.5436523,-96.8482456
600,Azalea Drive,75154,32.5355112,-96.8438886
613,Magnolia Lane,75154,32.5354432,-96.8424280
211,Ephraim Drive,75154,32.5271458,-96.8530398
208,Joseph Drive,75154,32.5275575,-96.8533169
212,Joseph Drive,75154,32.5275592,-96.8525950
201,Ephraim Drive,75154,32.5271427,-96.8543701
207,Ephraim Drive,75154,32.5271445,-96.8535751
212,Ephraim Court,75154,32.5265937,-96.8525955
3017,Dorothy Lane,75154,32.5279371,-96.8549233
3027,Dorothy Lane,75154,32.5268376,-96.8549200
2220,Watercrest Lane,75154,32.5437856,-96.8470763
603 (116),East Southbrook Drive,75154,32.5441927,-96.8451125
115,East Southbrook Drive,75154,32.5436463,-96.8451116
619 (102),East Wood Dell Drive,75154,32.5432627,-96.8435893
2216 (122),East Wood Dell Drive,75154,32.5432544,-96.8461237
120,East Wood Dell Drive,75154,32.5432463,-96.8458322
113,East Wood Dell Drive,75154,32.5427180,-96.8448756
2213,Uhl Road,75154,32.5441987,-96.8425357
603,Green Mound Drive,75154,32.5460336,-96.8456075
308,Green Mound Drive,75154,32.5460427,-96.8474739
614,Green Mound Drive,75154,32.5454999,-96.8438718
510,Magnolia Lane,75154,32.5346224,-96.8464698
524,Golden Bell Drive,75154,32.5363902,-96.8450330
2702,Hawthorn Drive,75154,32.5360052,-96.8481712
228,Pebblebrook Lane,75154,32.5432802,-96.8619606
205,Pebblebrook Lane,75154,32.5434676,-96.8606515
221,Pebblebrook Lane,75154,32.5436299,-96.8614063
325,Pebblebrook Lane,75154,32.5440304,-96.8633659
212,West Glen Meadow Drive,75154,32.5445324,-96.8604562
229,West Glen Meadow Drive,75154,32.5451326,-96.8610443
2138,Trishia Lane,75154,32.5471232,-96.8522816
312,Craddock Drive,75154,32.5464650,-96.8527056
310,Wilshire Drive,75154,32.5354147,-96.8506724
108,Hollywood Drive,75154,32.5350793,-96.8556672
201,Sunset Drive,75154,32.5355147,-96.8554758
218,Jacob Court,75154,32.5284963,-96.8517686
232,Stone Creek Boulevard,75154,32.5454816,-96.8611368
225,West Willow Creek Drive,75154,32.5443669,-96.8611923
217,West Willow Creek Drive,75154,32.5442851,-96.8608075
209,West Willow Creek Drive,75154,32.5442030,-96.8604262
233,West Willow Creek Drive,75154,32.5444498,-96.8615734
325,West Willow Creek Drive,75154,32.5447946,-96.8633352
304,West Glen Meadow Drive,75154,32.5449478,-96.8623666
2416,Cinnamon Springs Road,75154,32.5421753,-96.8675120
2408,Cinnamon Springs Road,75154,32.5425121,-96.8674956
2517,Granite Pass,75154,32.5407835,-96.8659218
2601,Sanders Creek Road,75154,32.5395231,-96.8681288
218,California Drive,75154,32.5330378,-96.8526358
222,Hollywood Drive,75154,32.5346367,-96.8521142
219,Los Angeles Drive,75154,32.5343058,-96.8525415
223,Los Angeles Drive,75154,32.5343064,-96.8521131
210,Los Angeles Drive,75154,32.5338389,-96.8534116
110,Vine Street,75154,32.5343363,-96.8554731
2533,Pambrooke Lane,75154,32.5405729,-96.8414232
2521,Pambrooke Lane,75154,32.5409517,-96.8416649
2313,Emerald Springs Drive,75154,32.5444926,-96.8403084
2324,Emerald Springs Drive,75154,32.5440519,-96.8397445
2320,Emerald Springs Drive,75154,32.5441890,-96.8397422
2407,Sagebrush Drive,75154,32.5412477,-96.8617643
331,Frio River Road,75154,32.5411479,-96.8646384
209,Frio River Road,75154,32.5398940,-96.8626854
2518,Crossbranch Drive,75154,32.5397313,-96.8449839
2514,Crossbranch Drive,75154,32.5399938,-96.8451047
2529,Lavender Lane,75154,32.5391171,-96.8429381
412,Glen Meadow Drive,75154,32.5449908,-96.8644118
440,Stone Creek Boulevard,75154,32.5457162,-96.8661331
213,Claywood Drive,75154,32.5245454,-96.8633647
217,Claywood Drive,75154,32.5245446,-96.8635801
233,Claywood Drive,75154,32.5245402,-96.8644197
220,Claywood Drive,75154,32.5240440,-96.8638044
232,Claywood Drive,75154,32.5240401,-96.8644952
2420,Cinnamon Springs Road,75154,32.5420047,-96.8674998
2506,Cinnamon Springs Road,75154,32.5411425,-96.8674534
2605,Comal Creek Drive,75154,32.5386093,-96.8666648
2608,Granite Pass,75154,32.5385832,-96.8671475
2620,Sanders Creek Road,75154,32.5385453,-96.8685460
2609,Comal Creek Drive,75154,32.5384434,-96.8668030
2501,Clayton Street,75154,32.5410091,-96.8479604
2500,Foules Drive,75154,32.5410258,-96.8483566
2211 (309),Watercrest Lane,75154,32.5441281,-96.8476794
500 (159),West Southbrook Drive,75154,32.5436448,-96.8496519
713,Indian Hawthorn Drive,75154,32.5419811,-96.8409225
720,Indian Hawthorn Drive,75154,32.5415087,-96.8404990
709,Crabapple Drive,75154,32.5411710,-96.8409896
724,Crabapple Drive,75154,32.5407030,-96.8403886
2621,Sagebrush Drive,75154,32.5366963,-96.8649786
2624,Sagebrush Drive,75154,32.5363603,-96.8645467
2617,Cinnamon Springs Road,75154,32.5359394,-96.8669420
305,Red River Drive,75154,32.5386366,-96.8655586
225,Red River Drive,75154,32.5384055,-96.8651795
2600,Salado Creek Lane,75154,32.5376484,-96.8645983
609,Magnolia Lane,75154,32.5351438,-96.8428243
3039,Santa Rosa Drive,75154,32.5256237,-96.8532071
208,Ephraim Drive,75154,32.5265954,-96.8533138
3031,Dorothy Lane,75154,32.5263978,-96.8549188
519,Natchez Lane,75154,32.5377096,-96.8456394
2605,Tuscarora Trail,75154,32.5382390,-96.8477327
310,Greenhill Street,75154,32.5391682,-96.8520742
300C,Greenhill Street,75154,32.5390275,-96.8523373
220,Greenhill Street,75154,32.5392921,-96.8533877
2508,Castle Ridge Drive,75154,32.5399931,-96.8521216
232,Maybank Street,75154,32.5400320,-96.8525773
2509,Sunburst Drive,75154,32.5403793,-96.8427822
2620,Centurion Road,75154,32.5373170,-96.8549137
2618,Centurion Road,75154,32.5374673,-96.8549158
2616,Centurion Road,75154,32.5376047,-96.8549169
2610,Centurion Road,75154,32.5380170,-96.8549202
2603,Centurion Road,75154,32.5385615,-96.8554682
2614,Middleton Road,75154,32.5377347,-96.8558428
2233,Cinnamon Springs Street,75154,32.5443957,-96.8673045
445,Willow Creek Drive,75154,32.5446324,-96.8661615
413,Willow Creek Drive,75154,32.5446495,-96.8645813
429,Stone Creek Boulevard,75154,32.5461957,-96.8655288
147,West Woodell,75154,32.5427154,-96.8489525
2219 (141),Watercrest Lane,75154,32.5428113,-96.8478983
2205,Lake Shore Lane,75154,32.5451538,-96.8460438
560,Lin Dell Drive,75154,32.5417915,-96.8438713
103,East Southbrook Drive,75154,32.5436446,-96.8437115
455,Lin Dell Drive,75154,32.5423443,-96.8453423
2202,Lake Shore Lane,75154,32.5453073,-96.8453512
617 (100),East Southbrook Drive,75154,32.5441927,-96.8434698
611 (118),Green Mound Drive,75154,32.5460354,-96.8447174
344,Green Mound Drive,75154,32.5460531,-96.8496558
337,Pebblebrook Lane,75154,32.5438901,-96.8640515
237,West Glen Meadow Drive,75154,32.5452150,-96.8614247
500,Magnolia Lane,75154,32.5346192,-96.8476523
504,Magnolia Lane,75154,32.5346201,-96.8471707
525,Magnolia Lane,75154,32.5351098,-96.8447938
2709,Juniper Drive,75154,32.5350485,-96.8481589
2705,Juniper Drive,75154,32.5354616,-96.8479555
2729,La Jolla Court,75154,32.5345336,-96.8503078
227,Sunset Drive,75154,32.5366348,-96.8526231
235,Sunset Drive,75154,32.5366603,-96.8515536
316,Ventura Court,75154,32.5361512,-96.8500719
223,Wilshire Drive,75154,32.5358751,-96.8517173
2409,South Hampton Road,75154,32.5404550,-96.8574207
2405,South Hampton Road,75154,32.5412694,-96.8573679
2510,Lake Ridge Drive,75154,32.5380113,-96.8592538
2802,Cinnamon Springs Street,75154,32.5347268,-96.8634132
2730,Sunset Strip Avenue,75154,32.5345334,-96.8496090
112,Mesa Moor Drive,75154,32.5472979,-96.8553294
2731,Star Avenue,75154,32.5329913,-96.8537911
227,Los Angeles Drive,75154,32.5343091,-96.8516798
225,Los Angeles Drive,75154,32.5343071,-96.8518977
109,Vine Street,75154,32.5338907,-96.8554856
107,Vine Street,75154,32.5338882,-96.8557271
105,Vine Street,75154,32.5338848,-96.8559678
103,Vine Street,75154,32.5338820,-96.8562087
115,Vine Street,75154,32.5338946,-96.8547494
2513,Lake Ridge Drive,75154,32.5381849,-96.8610239
233,West Glen Meadow Drive,75154,32.5451746,-96.8612353
3201,Irises Lane,75154,32.5252037,-96.8651249
3205,Rosewood Drive,75154,32.5248817,-96.8599545
208,Rosewood Drive,75154,32.5249285,-96.8631572
124,Fireberry Drive,75154,32.5232311,-96.8608310
140,Fireberry Drive,75154,32.5232269,-96.8617568
2300,Frio River Road,75154,32.5449987,-96.8688739
2405,Frio River Road,75154,32.5433445,-96.8694044
2508,Zacate Creek Court,75154,32.5407598,-96.8691350
2528,Sanders Creek Road,75154,32.5405970,-96.8666585
2557,Sanders Creek Road,75154,32.5396853,-96.8680370
2612,Comal Creek Drive,75154,32.5379932,-96.8665478
2637,Comal Creek Drive,75154,32.5375154,-96.8680107
2601,Beech Creek Road,75154,32.5382986,-96.8658331
2625,Beech Creek Road,75154,32.5373656,-96.8667862
2502,Foules Drive,75154,32.5408466,-96.8483571
3213,Rosewood Drive,75154,32.5244917,-96.8597598
2504,Dunbarton Drive,75154,32.5406825,-96.8493021
3216,Rosewood Drive,75154,32.5242451,-96.8591943
128,Claywood Drive,75154,32.5240627,-96.8610721
2505,Clayton Street,75154,32.5406099,-96.8479622
3224,Rosewood Drive,75154,32.5238556,-96.8591913
2506,Clayton Street,75154,32.5405812,-96.8474213
2510,Dunbarton Drive,75154,32.5401886,-96.8493048
305,Clayton Street,75154,32.5392600,-96.8488980
2610,Golden Bell Drive,75154,32.5378598,-96.8486157
2413,Cinnamon Springs Road,75154,32.5423144,-96.8680784
2424,Cinnamon Springs Road,75154,32.5418159,-96.8674868
428,Frio River Road,75154,32.5415455,-96.8667481
500,Frio River Road,75154,32.5413732,-96.8680517
2525,Sanders Creek Road,75154,32.5408390,-96.8671656
2608,Sanders Creek Road,75154,32.5389210,-96.8680127
2620,Granite Drive,75154,32.5381630,-96.8676656
724,Red Cedar Lane,75154,32.5431066,-96.8403945
700,Red Cedar Lane,75154,32.5431109,-96.8414532
2424,Emerald Springs Drive,75154,32.5424058,-96.8397504
2144,Glenn Lane,75154,32.5472610,-96.8532203
2160,Mesa Wood Drive,75154,32.5471128,-96.8510196
2718,Sunset Drive,75154,32.5344465,-96.8511609
2641/2643,Ventura Court,75154,32.5362226,-96.8506794
2633,Salado Creek Lane,75154,32.5366792,-96.8663377
224,Sunset Drive,75154,32.5361784,-96.8533046
232,Sunset Drive,75154,32.5361782,-96.8526934
102,Wilshire Drive,75154,32.5366171,-96.8564476
2505,Hampton Road,75154,32.5390064,-96.8575538
2637,Beech Creek Road,75154,32.5369456,-96.8673800
2628,Beech Creek Road,75154,32.5369626,-96.8665193
2701,Lake Ridge Drive,75154,32.5356477,-96.8630957
2637,Salado Creek Lane,75154,32.5365597,-96.8665082
2605,Lake Ridge Drive,75154,32.5373960,-96.8618101
2636,Sagebrush Drive,75154,32.5359801,-96.8650007
2436,Emerald Springs Drive,75154,32.5419929,-96.8397558
309,Tradd Street,75154,32.5412622,-96.8515777
2513,Pambrooke Lane,75154,32.5412242,-96.8417822
2528,Emerald Springs Drive,75154,32.5407453,-96.8397561
2609,Pambrooke Lane,75154,32.5398018,-96.8406412
302,Tradd Street,75154,32.5407941,-96.8520182
224,Tradd Street,75154,32.5407899,-96.8532359
2504,Chalmers Road,75154,32.5407591,-96.8511389
227,Maybank Street,75154,32.5404785,-96.8531313
222,Maybank Street,75154,32.5400293,-96.8535803
2645,Sagebrush Drive,75154,32.5359123,-96.8660105
2618,Sagebrush Drive,75154,32.5365678,-96.8643373
301,Gypsum Lane,75154,32.5408746,-96.8629340
321,Sabine River Road,75154,32.5402772,-96.8649783
216,Sabine River Road,75154,32.5390259,-96.8638575
229,Concho River Drive,75154,32.5390088,-96.8645893
208,Sabine River Road,75154,32.5388784,-96.8635096
2512,Sagebrush Drive,75154,32.5387187,-96.8624177
232,Concho River Drive,75154,32.5387125,-96.8650412
2524,Allview Lane,75154,32.5393889,-96.8436912
528,Doe Creek Trail,75154,32.5380458,-96.8448059
515,Natchez Lane,75154,32.5377140,-96.8460854
2918,Sunset Strip Court,75154,32.5374997,-96.8505127
304,Greenhill Street,75154,32.5392325,-96.8526550
302,Greenhill Street,75154,32.5392525,-96.8528317
2511,Allview Lane,75154,32.5402294,-96.8447878
2504,Castle Ridge Drive,75154,32.5402686,-96.8521357
2506,Crossbranch Drive,75154,32.5405352,-96.8453041
225,Greenhill Street,75154,32.5397348,-96.8532586
2504,Crossbranch Drive,75154,32.5406848,-96.8453266
605,Doe Creek Trail,75154,32.5387894,-96.8440307
527,Heartland Drive,75154,32.5413727,-96.8443115
2520,Chalmers Road,75154,32.5391120,-96.8511840
2614,Chalmers Road,75154,32.5378830,-96.8512240
100,Ravenel Street,75154,32.5369277,-96.8563431
2614,Lavender Lane,75154,32.5385483,-96.8416364
2612,Lavender Lane,75154,32.5386702,-96.8417718
2610,Lavender Lane,75154,32.5387942,-96.8418986
2605,Sunburst Drive,75154,32.5392662,-96.8418626
2613,Sunburst Drive,75154,32.5387169,-96.8412793
2513,Sunburst Drive,75154,32.5401215,-96.8426156
602,Golden Bell Drive,75154,32.5363924,-96.8436066
614,Golden Bell Drive,75154,32.5370936,-96.8423921
628,Golden Bell Drive,75154,32.5372691,-96.8407592
2616,Sunburst Drive,75154,32.5385514,-96.8403879
2514,Sunburst Drive,75154,32.5400096,-96.8418508
2606,Centurion Road,75154,32.5382919,-96.8549224
2620,Middleton Road,75154,32.5373106,-96.8558381
113,Rosewood Drive,75154,32.5254666,-96.8602333
121,Rosewood Drive,75154,32.5254671,-96.8606548
116,Rosewood Drive,75154,32.5249546,-96.8604136
148,Rosewood Drive,75154,32.5249380,-96.8621020
152,Rosewood Drive,75154,32.5249367,-96.8623140
156,Rosewood Drive,75154,32.5249345,-96.8625250
224,Rosewood Drive,75154,32.5249226,-96.8640008
120,Fireberry Drive,75154,32.5232326,-96.8606012
144,Fireberry Drive,75154,32.5232242,-96.8619894
2518,Cinnamon Springs Road,75154,32.5405600,-96.8679083
2541,Sanders Creek Road,75154,32.5402898,-96.8676708
2526,Cinnamon Springs Road,75154,32.5402083,-96.8681503
2544,Sanders Creek Road,75154,32.5400606,-96.8672104
408,Willow Creek Drive,75154,32.5442175,-96.8641427
312,Granite Pass,75154,32.5415399,-96.8632970
408,Gypsum Lane,75154,32.5422638,-96.8653430
432,Dove Creek Lane,75154,32.5433504,-96.8660242
2313,Agate Lane,75154,32.5435957,-96.8654501
2309,Agate Lane,75154,32.5437887,-96.8653479
2301,Agate Lane,75154,32.5442039,-96.8651850
421,Stone Creek Boulevard,75154,32.5462780,-96.8651409
2507,Foules Drive,75154,32.5405186,-96.8489098
2512,Dunbarton Drive,75154,32.5400144,-96.8493049
309,Clayton Street,75154,32.5392559,-96.8484036
217,Tradd Street,75154,32.5412469,-96.8539263
220,Lin Dell Drive,75154,32.5417883,-96.8482461
420,Lin Dell Drive,75154,32.5417959,-96.8461828
540,Lin Dell Drive,75154,32.5417960,-96.8443369
240,Lin Dell Drive,75154,32.5417896,-96.8477777
605,East Wood Dell Drive,75154,32.5432642,-96.8453428
549,Lin Dell Drive,75154,32.5423441,-96.8441762
616,Green Mound Drive,75154,32.5454976,-96.8436428
619 (100),East Overhill Drive,75154,32.5450924,-96.8429212
216,Maybank Street,75154,32.5400199,-96.8542012
216,Gypsum Lane,75154,32.5403610,-96.8629532
2430,Sagebrush Drive,75154,32.5399685,-96.8616877
2530,Sagebrush Drive,75154,32.5379745,-96.8630852
2517,Allview Lane,75154,32.5398183,-96.8445987
609,Doe Creek Trail,75154,32.5388714,-96.8438604
519,Doe Creek Trail,75154,32.5385145,-96.8458644
610,Doe Creek Trail,75154,32.5385213,-96.8434962
214,Greenhill Street,75154,32.5392365,-96.8538902
2610,Chalmers Road,75154,32.5381568,-96.8512163
221,Greenhill Street,75154,32.5397198,-96.8535852
2611,Chalmers Road,75154,32.5378573,-96.8517870
2606,Calhoun Street,75154,32.5380292,-96.8521829
2613,Calhoun Street,75154,32.5374313,-96.8526911
514,Magnolia Lane,75154,32.5346238,-96.8460026
516,Magnolia Lane,75154,32.5346246,-96.8457689
523,Magnolia Lane,75154,32.5351091,-96.8450275
526,Golden Bell Drive,75154,32.5363914,-96.8447994
2708,Hawthorn Drive,75154,32.5354635,-96.8484830
2706,Hawthorn Drive,75154,32.5356461,-96.8483722
503,Azalea Drive,75154,32.5359820,-96.8471341
527,Azalea Drive,75154,32.5359909,-96.8443158
417,Gypsum Lane,75154,32.5428296,-96.8655230
609,Natchez Lane,75154,32.5381918,-96.8433259
529,Golden Bell Drive,75154,32.5368696,-96.8442855
624,Golden Bell Drive,75154,32.5372678,-96.8412157
2628,Sunburst Drive,75154,32.5375290,-96.8398786
207,Joseph Drive,75154,32.5281102,-96.8535668
300,Moses Drive,75154,32.5251035,-96.8507852
300,Michelle Court,75154,32.5285982,-96.8507124
1106,Archdale Lane,75154,32.5447013,-96.8501641
1038,Archdale Lane,75154,32.5449359,-96.8501644
110,Lin Dell Drive,75154,32.5417869,-96.8496513
441,Gypsum Lane,75154,32.5431190,-96.8667299
425,Gypsum Lane,75154,32.5429679,-96.8658989
416,Dove Creek Lane,75154,32.5430930,-96.8652943
220,Jacob Court,75154,32.5284586,-96.8514322
522,Magnolia Lane,75154,32.5346268,-96.8450680
526,Magnolia Lane,75154,32.5346283,-96.8446008
607,Azalea Drive,75154,32.5360653,-96.8431673
611,Azalea Drive,75154,32.5363990,-96.8428241
522,Azalea Drive,75154,32.5355084,-96.8447956
308,Moses Drive,75154,32.5252138,-96.8497498
305,Mary Court,75154,32.5271306,-96.8503056
1324,Archdale Lane,75154,32.5421757,-96.8501566
307,Green Mound Drive,75154,32.5455323,-96.8472945
622,Magnolia Lane,75154,32.5354355,-96.8416806
619,Azalea Drive,75154,32.5368024,-96.8419612
512,Azalea Drive,75154,32.5355047,-96.8459638
505,Magnolia Lane,75154,32.5351024,-96.8471302
500,Azalea Drive,75154,32.5354809,-96.8473939
504,Azalea Drive,75154,32.5355017,-96.8468983
204,Janice Court,75154,32.5256972,-96.8536708
202,Janice Court,75154,32.5256598,-96.8539739
221,Jacob Court,75154,32.5291253,-96.8514252
202,Jacob Drive,75154,32.5285258,-96.8540865
313,Meandering Way,75154,32.5430653,-96.8629848
240,Stone Creek Boulevard,75154,32.5455625,-96.8615174
309,Meandering Way,75154,32.5430585,-96.8627785
324,West Willow Creek Drive,75154,32.5443450,-96.8633368
328,West Willow Creek Drive,75154,32.5443486,-96.8635414
2336,Timbercreek Drive,75154,32.5429559,-96.8611694
301,Granite Pass,75154,32.5422612,-96.8625233
2405,Timbercreek Drive,75154,32.5416174,-96.8625590
2404,Timbercreek Drive,75154,32.5414653,-96.8620502
2501,Granite Pass,75154,32.5412844,-96.8653620
2412,Sagebrush Drive,75154,32.5408725,-96.8613299
209,Sabine River Road,75154,32.5392386,-96.8631584
301,Concho River Drive,75154,32.5392040,-96.8649203
527,Natchez Lane,75154,32.5377108,-96.8447335
2529,Allview Lane,75154,32.5390395,-96.8440875
229,Sunset Drive,75154,32.5366359,-96.8523598
224,Los Angeles Drive,75154,32.5338418,-96.8519274
221,Wilshire Drive,75154,32.5358754,-96.8520656
2300,Lake Ridge Drive,75154,32.5428611,-96.8582761
207,Sunset Drive,75154,32.5363369,-96.8550889
2602,Lake Ridge Drive,75154,32.5369867,-96.8598412
2507,Hampton Road,75154,32.5385945,-96.8575865
2511,Lake Ridge Drive,75154,32.5385079,-96.8608090
101,Craddock Drive,75154,32.5469829,-96.8564676
338,Craddock Drive,75154,32.5464587,-96.8513312
2722,Sunset Drive,75154,32.5341111,-96.8511694
311,California Drive,75154,32.5334954,-96.8503325
2711,La Jolla Court,75154,32.5350742,-96.8500731
2715,La Jolla Court,75154,32.5351232,-96.8504039
222,California Drive,75154,32.5330391,-96.8520237
208,Sunset Drive,75154,32.5359630,-96.8546579
114,Hollywood Drive,75154,32.5350838,-96.8549393
104,Vine Street,75154,32.5343300,-96.8561993
102,Vine Street,75154,32.5343275,-96.8564575
213,Sunset Drive,75154,32.5366344,-96.8544833
301,Wilshire Court,75154,32.5353674,-96.8558809
2604,Lake Ridge Drive,75154,32.5367686,-96.8601682
129,Rosewood Drive,75154,32.5254624,-96.8610770
200,Rosewood Drive,75154,32.5249326,-96.8627360
3205,Irises Lane,75154,32.5250098,-96.8651253
116,Fireberry Drive,75154,32.5232341,-96.8603705
2533,Sanders Creek Road,75154,32.5405774,-96.8674213
2501,Blanco River Court,75154,32.5400599,-96.8688465
2548,Sanders Creek Road,75154,32.5399052,-96.8673158
2309,Frio River Road,75154,32.5445973,-96.8694090
2209,Frio River Road,75154,32.5454478,-96.8694109
2205,Frio River Road,75154,32.5456128,-96.8694109
2437,Frio River Road,75154,32.5420079,-96.8693839
709,Red Cedar Lane,75154,32.5435752,-96.8411099
721,Blackthorne Drive,75154,32.5427770,-96.8405718
705,Blackthorne Drive,75154,32.5427799,-96.8412724
704,Blackthorne Drive,75154,32.5423124,-96.8412722
2705,Cinnamon Springs Road,75154,32.5350399,-96.8662404
2636,Salado Creek Lane,75154,32.5363173,-96.8660155
2624,Beech Creek Road,75154,32.5371028,-96.8663194
2632,Salado Creek Lane,75154,32.5364405,-96.8658402
229,Tradd Street,75154,32.5412518,-96.8527567
222,Tradd Street,75154,32.5407900,-96.8534410
226,Maybank Street,75154,32.5400345,-96.8531616
215,Tradd Street,75154,32.5412466,-96.8541235
211,Tradd Street,75154,32.5412455,-96.8545166
228,Tradd Street,75154,32.5407941,-96.8528232
2507,Marsh Street,75154,32.5405816,-96.8551577
212,Maybank Street,75154,32.5400193,-96.8546212
333,Sabine River Road,75154,32.5406921,-96.8653727
204,Gypsum Lane,75154,32.5401413,-96.8624308
201,Concho River Drive,75154,32.5384493,-96.8633466
2544,Granite Pass,75154,32.5394608,-96.8665642
2533,Granite Pass,75154,32.5403106,-96.8664643
2528,Granite Pass,75154,32.5400784,-96.8659841
2507,Allview Lane,75154,32.5405155,-96.8448971
2501,Allview Lane,75154,32.5409750,-96.8449339
2521,Crossbranch Drive,75154,32.5395330,-96.8454842
2513,Crossbranch Drive,75154,32.5400753,-96.8457233
2504,Whispering Breeze Lane,75154,32.5405779,-96.8462655
2502,Whispering Breeze Lane,75154,32.5407523,-96.8462768
2525,Whispering Breeze Lane,75154,32.5389884,-96.8463315
510,Doe Creek Trail,75154,32.5380996,-96.8466094
2616,Chalmers Road,75154,32.5377464,-96.8512263
201,Greenhill Street,75154,32.5396520,-96.8552471
2610,Calhoun Street,75154,32.5376501,-96.8521856
203,Calhoun Street,75154,32.5385098,-96.8528285
614,Natchez Lane,75154,32.5379478,-96.8425362
622,Golden Bell Drive,75154,32.5372700,-96.8414484
2516,Sunburst Drive,75154,32.5399021,-96.8417429
2536,Emerald Springs Drive,75154,32.5404678,-96.8397594
2332,Emerald Springs Drive,75154,32.5437770,-96.8397446
335,Gypsum Lane,75154,32.5424888,-96.8645813
331,Gypsum Lane,75154,32.5423928,-96.8643906
420,Dove Creek Lane,75154,32.5431585,-96.8654730
2613,South Anson Road,75154,32.5375009,-96.8536465
300,Joseph Drive,75154,32.5275285,-96.8507963
307,Joseph Drive,75154,32.5280675,-96.8499461
307,Abel Drive,75154,32.5300042,-96.8507118
111,Lin Dell Drive,75154,32.5423301,-96.8496489
124,West Overhill Drive,75154,32.5451245,-96.8480148
154,West Overhill Drive,75154,32.5451247,-96.8491891
148,West Overhill Drive,75154,32.5451247,-96.8489546
120,Lake Shore Lane,75154,32.5424431,-96.8461665
431,Lin Dell Drive,75154,32.5423443,-96.8458143
405,Willow Creek Drive,75154,32.5447011,-96.8641801
444,Glen Meadow Drive,75154,32.5449476,-96.8659899
635,Azalea Drive,75154,32.5369184,-96.8399678
448,Glen Meadow Drive,75154,32.5449495,-96.8661850
425,Glen Meadow Drive,75154,32.5453974,-96.8653082
421,Glen Meadow Drive,75154,32.5453959,-96.8650992
405,Glen Meadow Drive,75154,32.5454817,-96.8642677
400,Stone Creek Boulevard,75154,32.5458348,-96.8640873
428,Stone Creek Boulevard,75154,32.5457145,-96.8655043
614,Magnolia Lane,75154,32.5347134,-96.8422700
620,Magnolia Lane,75154,32.5352805,-96.8418658
602,Magnolia Lane,75154,32.5346281,-96.8438090
526,Azalea Drive,75154,32.5355099,-96.8443137
3036,Betsy Court,75154,32.5256326,-96.8514409
129,West Southbrook Drive,75154,32.5436510,-96.8484817
135,West Southbrook Drive,75154,32.5436496,-96.8487158
111,Craddock Drive,75154,32.5469895,-96.8558689
2142,Trishia Lane,75154,32.5469156,-96.8522564
2710,Sunset Drive,75154,32.5351287,-96.8511426
2753,Malibu Court,75154,32.5337776,-96.8506509
2747/2749,Malibu Court,75154,32.5339993,-96.8507478
220,California Drive,75154,32.5330392,-96.8522387
111,Hollywood Drive,75154,32.5346417,-96.8552335
108,Vine Street,75154,32.5343341,-96.8557165
106,Wilshire Drive,75154,32.5366249,-96.8559176
203,Wilshire Drive,75154,32.5354296,-96.8547244
2708,Lake Ridge Road,75154,32.5338496,-96.8626499
2801,Cinnamon Springs Street,75154,32.5339336,-96.8647012
207,Moses Drive,75154,32.5253637,-96.8531415
214,Joseph Drive,75154,32.5275598,-96.8523273
204,Ephraim Drive,75154,32.5265942,-96.8538329
210,Ephraim Drive,75154,32.5265998,-96.8530417
3021,Dorothy Lane,75154,32.5274973,-96.8549219
341,Pebblebrook Lane,75154,32.5437728,-96.8642494
236,Stone Creek Boulevard,75154,32.5455223,-96.8613286
643,Stone Creek Boulevard,75154,32.5462185,-96.8695032
2313,Frio River Road,75154,32.5444253,-96.8694070
214,Abel Drive,75154,32.5294800,-96.8522953
401,East Ovilla Road,75154,32.5332898,-96.8481090
305,Meandering Way,75154,32.5430431,-96.8625781
2312,Sagebrush Drive,75154,32.5434292,-96.8596371
2236,Sagebrush Drive,75154,32.5438123,-96.8594104
2230,Sagebrush Drive,75154,32.5440209,-96.8592925
209,West Glen Meadow Drive,75154,32.5449253,-96.8600910
2540,Emerald Springs Drive,75154,32.5403310,-96.8397586
2544,Emerald Springs Drive,75154,32.5401954,-96.8397597
2548,Emerald Springs Drive,75154,32.5400576,-96.8397609
2605,Pambrooke Lane,75154,32.5399075,-96.8407727
2372,Timbercreek Drive,75154,32.5419620,-96.8617603
323,Granite Pass,75154,32.5417159,-96.8644464
615,Heartland Drive,75154,32.5413638,-96.8426947
603,Heartland Drive,75154,32.5413698,-96.8436672
2611,Middleton Road,75154,32.5378537,-96.8563971
2400,South Hampton Road,75154,32.5420217,-96.8536748
2720,Sunset Drive,75154,32.5342785,-96.8511668
206,Wilshire Drive,75154,32.5358442,-96.8542440
2400,Lake Ridge Drive,75154,32.5419882,-96.8583399
215,Sunset Drive,75154,32.5366358,-96.8542071
205,Wilshire Drive,75154,32.5354128,-96.8544769
2617,Sagebrush Drive,75154,32.5368404,-96.8648272
400,Glen Meadow Drive,75154,32.5450688,-96.8639729
436,Glen Meadow Drive,75154,32.5449455,-96.8656005
437,Glen Meadow Drive,75154,32.5454007,-96.8659229
408,Stone Creek Boulevard,75154,32.5457682,-96.8645035
627,Stone Creek Boulevard,75154,32.5462138,-96.8687065
635,Stone Creek Boulevard,75154,32.5462164,-96.8691129
313,Abel Drive,75154,32.5299982,-96.8499200
2201 (1008),Archdale Lane,75154,32.5461156,-96.8501678
2545,Granite Pass,75154,32.5399219,-96.8668766
2802,Sunset Strip Avenue,75154,32.5332943,-96.8497421
108,Mesa Moor Drive,75154,32.5472523,-96.8557851
226,Hollywood Drive,75154,32.5346397,-96.8516744
215,Los Angeles Drive,75154,32.5343048,-96.8529667
222,Los Angeles Drive,75154,32.5338415,-96.8521415
216,Los Angeles Drive,75154,32.5338393,-96.8527714
3033,Dorothy Lane,75154,32.5261780,-96.8549172
3043,Dorothy Lane,75154,32.5250403,-96.8549705
3039,Dorothy Lane,75154,32.5255178,-96.8549063
204,Moses Drive,75154,32.5248756,-96.8539510
313,Gypsum Lane,75154,32.5412339,-96.8635566
201,Frio River Road,75154,32.5397338,-96.8623161
300,Sabine River Road,75154,32.5393987,-96.8646004
203,Ephraim Drive,75154,32.5271433,-96.8540943
2615,South Anson Road,75154,32.5373297,-96.8536463
2600,Middleton Road,75154,32.5387185,-96.8558496
2607,Middleton Road,75154,32.5381967,-96.8563985
2421,Frio River Road,75154,32.5426842,-96.8694022
221,Claywood Drive,75154,32.5245436,-96.8637912
244,Claywood Drive,75154,32.5240353,-96.8651848
109,Fireberry Drive,75154,32.5237230,-96.8599164
121,Fireberry Drive,75154,32.5237188,-96.8606064
2617,Sanders Creek Road,75154,32.5390136,-96.8687148
2605,Granite Pass,75154,32.5389451,-96.8674957
2621,Sanders Creek Road,75154,32.5389087,-96.8688645
2625,Sanders Creek Road,75154,32.5388040,-96.8690153
2613,Comal Creek Drive,75154,32.5382870,-96.8669574
2617,Comal Creek Drive,75154,32.5381398,-96.8671239
420,Glen Meadow Drive,75154,32.5449511,-96.8648095
440,Glen Meadow Drive,75165,32.5449465,-96.8657952
429,Glen Meadow Drive,75154,32.5453985,-96.8655131
409,Glen Meadow Drive,75154,32.5454485,-96.8644653
436,Stone Creek Boulevard,75154,32.5457167,-96.8659055
2500,Clayton Street,75154,32.5412845,-96.8473587
2500,Dunbarton Drive,75154,32.5410297,-96.8492993
143,West Overhill Drive,75154,32.5445757,-96.8487180
2505,Pambrooke Lane,75154,32.5415014,-96.8418630
721,Crabapple Drive,75154,32.5411735,-96.8405011
713,Crabapple Drive,75154,32.5411745,-96.8408256
219,Jacob Court,75154,32.5290875,-96.8517680
2917,Dorothy Lane,75154,32.5299258,-96.8549240
610,Azalea Drive,75154,32.5358401,-96.8426489
2522,Allview Lane,75154,32.5395095,-96.8437788
522,Doe Creek Trail,75154,32.5380445,-96.8454050
517,Natchez Lane,75154,32.5377110,-96.8458624
2606,Tuscarora Trail,75154,32.5377127,-96.8472115
522,Natchez Lane,75154,32.5372219,-96.8452413
2611,Tuscarora Trail,75154,32.5376478,-96.8477819
2615,Sunset Strip Court,75154,32.5377896,-96.8499177
222,Joseph Drive,75154,32.5275615,-96.8512902
217,Ephraim Court,75154,32.5271481,-96.8520664
3025,Dorothy Lane,75154,32.5270613,-96.8549233
3029,Dorothy Lane,75154,32.5266177,-96.8549194
611,Golden Bell Drive,75154,32.5374863,-96.8427546
2616,Lavender Lane,75154,32.5384254,-96.8415081
2609,Sunburst Drive,75154,32.5389785,-96.8415565
2502,Sunburst Drive,75154,32.5407802,-96.8423806
2517,Sunburst Drive,75154,32.5398768,-96.8424307
200,Calhoun Street,75154,32.5380520,-96.8531576
2601,Centurion Road,75154,32.5387207,-96.8554706
2605,Centurion Road,75154,32.5384240,-96.8554671
2613,Centurion Road,75154,32.5378743,-96.8554626
325,Meandering Way,75154,32.5432099,-96.8636583
2206,Sagebrush Drive,75154,32.5450038,-96.8591143
317,West Glen Meadow Drive,75154,32.5455578,-96.8631946
305,Abel Drive,75154,32.5300184,-96.8511986
208,Abel Drive,75154,32.5294812,-96.8533044
203,Jacob Drive,75154,32.5290695,-96.8540835
300,Abel Drive,75154,32.5294797,-96.8517761
212,Abel Drive,75154,32.5294803,-96.8525711
3001,Dorothy Lane,75154,32.5296974,-96.8549189
2213,Cinnamon Springs Street,75154,32.5452406,-96.8668153
2209,Cinnamon Springs Street,75154,32.5454106,-96.8667483
2205,Cinnamon Springs Street,75154,32.5455890,-96.8667092
501,Stone Creek Boulevard,75154,32.5462016,-96.8666203
429,Dove Creek Lane,75154,32.5437739,-96.8656748
440,Willow Creek Drive,75154,32.5441729,-96.8663354
437,Willow Creek Drive,75154,32.5446303,-96.8657721
405,Stone Creek Boulevard,75154,32.5463289,-96.8643540
2215 (231),Watercrest Lane,75154,32.5435619,-96.8478783
233,Lake Shore Lane,75154,32.5439339,-96.8464944
328,Pebblebrook Lane,75154,32.5434605,-96.8638657
313,Pebblebrook Lane,75154,32.5439150,-96.8627272
314,Stone Creek Boulevard,75154,32.5458649,-96.8630784
513,Magnolia Lane,75154,32.5351054,-96.8461956
518,Golden Bell Drive,75154,32.5363866,-96.8457339
506,Golden Bell Drive,75154,32.5363772,-96.8471432
220,Moses Drive,75154,32.5250518,-96.8517933
315,West Ovilla Road,75154,32.5324548,-96.8620602
215,Jacob Court,75154,32.5290677,-96.8522957
304,Meandering Way,75154,32.5425661,-96.8626291
205,West Willow Creek Drive,75154,32.5441604,-96.8602363
212,Stone Creek Boulevard,75154,32.5452742,-96.8601813
240,West Glen Meadow Drive,75154,32.5448226,-96.8617912
2826,Sunset Strip Avenue,75154,32.5325427,-96.8496888
215,Hollywood Drive,75154,32.5350967,-96.8529663
2721,Star Avenue,75154,32.5339776,-96.8538880
218,Hollywood Drive,75154,32.5346355,-96.8525414
220,Hollywood Drive,75154,32.5346360,-96.8523268
220,Los Angeles Drive,75154,32.5338407,-96.8523537
223,Sunset Drive,75154,32.5366361,-96.8531461
2501,Lake Ridge Drive,75154,32.5400775,-96.8601476
2413,Frio River Road,75154,32.5430154,-96.8694036
227,California Drive,75154,32.5335148,-96.8517051
2708,Sunset Drive,75154,32.5352987,-96.8511406
2706,Sunset Drive,75154,32.5354849,-96.8511367
2656,Sunset Drive,75154,32.5358213,-96.8511321
209,Claywood Drive,75154,32.5245477,-96.8631528
108,Claywood Drive,75154,32.5240701,-96.8599180
228,Sunset Drive,75154,32.5361778,-96.8530005
112,Vine Street,75154,32.5343385,-96.8552298
119,West Ovilla Road,75154,32.5323427,-96.8579704
208,Claywood Drive,75154,32.5240479,-96.8631062
3220,Rosewood Drive,75154,32.5240514,-96.8591939
204,Cripple Creek Road,75154,32.5400146,-96.8582858
2509,Lake Ridge Drive,75154,32.5388318,-96.8606094
2504,Sanders Creek Road,75154,32.5413960,-96.8657673
2616,Sanders Creek Road,75154,32.5386682,-96.8683703
319,Ferriday Street,75154,32.5414321,-96.8479150
313,Ferriday Street,75154,32.5414332,-96.8485156
309,Ferriday Street,75154,32.5414337,-96.8489047
307,Ferriday Street,75154,32.5414335,-96.8491017
2504,Emerald Springs Drive,75154,32.5415703,-96.8397542
717,Indian Hawthorn Drive,75154,32.5419799,-96.8407473
2508,Emerald Springs Drive,75154,32.5414338,-96.8397544
2601,Pambrooke Lane,75154,32.5400199,-96.8408802
2621,Salado Creek Lane,75154,32.5370690,-96.8658122
2625,Cinnamon Springs Road,75154,32.5355305,-96.8666882
2608,Beech Creek Road,75154,32.5376956,-96.8656581
2502,Allview Lane,75154,32.5408322,-96.8443840
608,Doe Creek Trail,75154,32.5384389,-96.8436703
604,Doe Creek Trail,75154,32.5382438,-96.8440062
602,Doe Creek Trail,75154,32.5381536,-96.8441899
523,Natchez Lane,75154,32.5377064,-96.8451841
516,Natchez Lane,75154,32.5372233,-96.8459207
2610,Sunset Strip Court,75154,32.5380580,-96.8504842
300B,Greenhill Street,75154,32.5390367,-96.8541546
2506,Castle Ridge Drive,75154,32.5401300,-96.8521269
2800,Sunset Strip Avenue,75154,32.5322956,-96.8496964
2719,Star Avenue,75154,32.5341587,-96.8538875
2717,Star Avenue,75154,32.5343382,-96.8538858
216,California Drive,75154,32.5330398,-96.8528589
207,Vine Street,75154,32.5346922,-96.8542605
2619,Middleton Road,75154,32.5371598,-96.8564362
124,Rosewood Drive,75154,32.5249503,-96.8608373
606,Natchez Lane,75154,32.5376332,-96.8432720
2607,Sunburst Drive,75154,32.5391096,-96.8416975
2619,Sunburst Drive,75154,32.5383243,-96.8408678
2508,Sunburst Drive,75154,32.5403821,-96.8421483
2504,Sunburst Drive,75154,32.5406458,-96.8423090
2518,Lavender Lane,75154,32.5397789,-96.8428327
2509,Lavender Lane,75154,32.5403844,-96.8438297
228,Rosewood Drive,75154,32.5249215,-96.8642117
3209,Irises Lane,75154,32.5248213,-96.8651250
145,Fireberry Drive,75154,32.5237114,-96.8619927
136,Fireberry Drive,75154,32.5232270,-96.8615246
2600,Centurion Road,75154,32.5387240,-96.8549244
2524,Sanders Creek Road,75154,32.5407244,-96.8665105
2525,Granite Pass,75154,32.5405459,-96.8661936
2624,Comal Creek Drive,75154,32.5375756,-96.8670792
2525,Dunbarton Drive,75154,32.5390716,-96.8499115
2507,Dunbarton Drive,75154,32.5406363,-96.8498810
2515,Dunbarton Drive,75154,32.5399729,-96.8498854
304,Tradd Street,75154,32.5408097,-96.8518205
307,Tradd Street,75154,32.5412622,-96.8517745
2504,Marsh Street,75154,32.5411396,-96.8551913
2508,Chalmers Road,75154,32.5404304,-96.8511466
218,Maybank Street,75154,32.5400196,-96.8539929
412,Willow Creek Drive,75154,32.5441485,-96.8643375
332,Gypsum Lane,75154,32.5420700,-96.8647889
444,Dove Creek Lane,75154,32.5434316,-96.8666306
417,Stone Creek Boulevard,75154,32.5462807,-96.8649455
2353,Sagebrush Drive,75154,32.5425583,-96.8609908
2420,Timbercreek Drive,75154,32.5408083,-96.8624347
313,Frio River Road,75154,32.5404768,-96.8639021
325,Sabine River Road,75154,32.5404043,-96.8651148
2424,Sagebrush Drive,75154,32.5402477,-96.8616273
200,Sabine River Road,75154,32.5386987,-96.8631315
205,Concho River Drive,75154,32.5385379,-96.8635386
2502,Crossbranch Drive,75154,32.5408303,-96.8453299
2527,Allview Lane,75154,32.5391597,-96.8441857
2519,Crossbranch Drive,75154,32.5396674,-96.8455498
2516,Whispering Breeze Lane,75154,32.5395888,-96.8459357
524,Lipan Lane,75154,32.5388462,-96.8454859
2609,Firebird Road,75154,32.5374499,-96.8467939
2615,Firebird Road,75154,32.5368246,-96.8467619
305,Calhoun Street,75154,32.5374275,-96.8517166
205,Calhoun Street,75154,32.5385247,-96.8526306
204,Calhoun Street,75154,32.5380603,-96.8526706
2208,Frio River Road,75154,32.5454923,-96.8688745
2429,Frio River Road,75154,32.5423542,-96.8694017
137,West Wood Dell,75154,32.5427161,-96.8487172
151,Lake Shore Lane,75154,32.5430611,-96.8467935
2236 (110),Watercrest Lane,75154,32.5422497,-96.8472560
608,East Southbrook Drive,75154,32.5436461,-96.8446450
101,East Southbrook Drive,75154,32.5436444,-96.8434723
600,East Wood Dell Drive,75154,32.5427242,-96.8458157
618,Natchez Lane,75154,32.5380249,-96.8421089
110,East Southbrook Drive,75154,32.5441931,-96.8446421
615,Green Mound Drive,75154,32.5460351,-96.8442317
608,Golden Bell Drive,75154,32.5367674,-96.8430101
527 (206),Green Mound Drive,75154,32.5460357,-96.8464907
2602,Sunburst Drive,75154,32.5394462,-96.8413200
328,Green Mound Drive,75154,32.5460496,-96.8486942
620,Green Mound Drive,75154,32.5454950,-96.8431753
613,East Overhill Drive,75154,32.5451184,-96.8436455
201,Claywood Drive,75154,32.5245513,-96.8627300
3213,Irises Lane,75154,32.5246319,-96.8651240
212,Claywood Drive,75154,32.5240458,-96.8633366
240,Claywood Drive,75154,32.5240359,-96.8649563
117,Fireberry Drive,75154,32.5237202,-96.8603753
616,Azalea Drive,75154,32.5362327,-96.8420902
511,Magnolia Lane,75154,32.5351046,-96.8464293
2713,Juniper Drive,75154,32.5346388,-96.8481490
525,Azalea Drive,75154,32.5359901,-96.8445641
2609,Granite Pass,75154,32.5387835,-96.8676519
2604,Granite Pass,75154,32.5387485,-96.8670027
2629,Sanders Creek Road,75154,32.5386502,-96.8692137
2613,Granite Pass,75154,32.5386374,-96.8678256
2629,Granite Pass,75154,32.5381460,-96.8685327
2745,Malibu Court,75154,32.5342579,-96.8507006
429,Gypsum Lane,75154,32.5430376,-96.8660974
314,Dove Creek Lane,75154,32.5422303,-96.8637211
401,Stone Creek Boulevard,75154,32.5463526,-96.8641283
3026,Courtney Lane,75154,32.5261164,-96.8491988
3016,Courtney Lane,75154,32.5279084,-96.8491943
307,Maria Court,75154,32.5262254,-96.8503723
302,Joseph Drive,75154,32.5275254,-96.8505315
3012,Courtney Lane,75154,32.5283765,-96.8491165
160,West Overhill Drive,75154,32.5451248,-96.8494208
2625,Salado Creek Lane,75154,32.5369314,-96.8659835
2629,Salado Creek Lane,75154,32.5368015,-96.8661624
2608,Salado Creek Lane,75154,32.5373007,-96.8648746
217,Red River Drive,75154,32.5381977,-96.8647872
201,Red River Road,75154,32.5378101,-96.8639076
2503,Chalmers Road,75154,32.5405621,-96.8517229
627,Magnolia Lane,75154,32.5359986,-96.8409272
503,Magnolia Lane,75154,32.5351017,-96.8473638
2501,Crossbranch Drive,75154,32.5409640,-96.8458810
524,Doe Creek Trail,75154,32.5380446,-96.8452099
524,Natchez Lane,75154,32.5372210,-96.8450124
2615,Tuscarora Trail,75154,32.5372606,-96.8477851
2620,Sunset Strip Court,75154,32.5373414,-96.8504995
300,Greenhill Street,75154,32.5392783,-96.8530169
604,Natchez Lane,75154,32.5375162,-96.8434421
619,Golden Bell Drive,75154,32.5377291,-96.8418588
2626,Lavender Lane,75154,32.5376725,-96.8409601
2618,Lavender Lane,75154,32.5383050,-96.8413799
2608,Lavender Lane,75154,32.5389158,-96.8420240
2627,Sunburst Drive,75154,32.5376764,-96.8405209
2513,Lavender Lane,75154,32.5401246,-96.8437056
2606,Cannon Court,75154,32.5381578,-96.8539763
2600,Cannon Court,75154,32.5386010,-96.8541041
300,Pebblebrook Lane,75154,32.5433637,-96.8623445
2708,Tea Olive Drive,75154,32.5354665,-96.8399219
628,Azalea Drive,75154,32.5363989,-96.8407027
615,Azalea Drive,75154,32.5366380,-96.8424267
508,Azalea Drive,75154,32.5355032,-96.8464310
304,West Willow Creek Drive,75154,32.5441597,-96.8623484
316,Willow Creek Lane,75154,32.5442852,-96.8629193
207,Meandering Way,75154,32.5429154,-96.8617324
2300,Agate Lane,75154,32.5442231,-96.8646351
400,Gypsum Lane,75154,32.5421329,-96.8649856
428,Watercrest Lane,75154,32.5451994,-96.8465166
610,Lin Dell Drive,75154,32.5417934,-96.8436358
108,East Woodell Drive,75154,32.5432629,-96.8444107
109,East Wood Dell Drive,75154,32.5427186,-96.8444087
605,East Overhill Drive,75154,32.5451277,-96.8445819
305,Grove Lane,75154,32.5430704,-96.8426808
102,East Southbrook Drive,75154,32.5441925,-96.8437125
300,Green Mound Drive,75154,32.5460398,-96.8469820
617,East Overhill Drive,75154,32.5451117,-96.8431816
622,Azalea Drive,75154,32.5363984,-96.8414059
620,Azalea Drive,75154,32.5363716,-96.8416382
2703,Juniper Drive,75154,32.5356416,-96.8478531
218,Moses Drive,75154,32.5249932,-96.8520614
3038,Santa Rosa Drive,75154,32.5258267,-96.8525488
2151,Glenn Lane,75154,32.5471066,-96.8538414
141,Craddock Circle,75154,32.5469151,-96.8542688
309,Wilshire Drive,75154,32.5358568,-96.8506286
219,Wilshire Drive,75154,32.5358752,-96.8523810
210,Wilshire Drive,75154,32.5354182,-96.8533796
2406,Lake Ridge Drive,75154,32.5409627,-96.8585470
2309,South Hampton Road,75154,32.5424993,-96.8573552
2503,Hampton Road,75154,32.5394183,-96.8575203
2501,South Hampton Road,75154,32.5398556,-96.8574984
2607,Lake Ridge Drive,75154,32.5371238,-96.8620493
132,Rosewood Drive,75154,32.5249464,-96.8612588
141,Claywood Drive,75154,32.5245598,-96.8616794
3228,Rosewood Drive,75154,32.5236537,-96.8591902
112,Fireberry Drive,75154,32.5232344,-96.8601399
2529,Sanders Creek Road,75154,32.5407074,-96.8672876
2516,Zacate Creek Court,75154,32.5404490,-96.8686126
2508,Blanco River Court,75154,32.5401982,-96.8694941
2624,Granite Pass,75154,32.5380406,-96.8678399
2602,Golden Bell Drive,75154,32.5386302,-96.8486165
2502,Dunbarton Drive,75154,32.5408477,-96.8493007
2506,Dunbarton Drive,75154,32.5405190,-96.8493020
2513,Clayton Street,75154,32.5398353,-96.8479662
308,Wildsville Lane,75154,32.5395981,-96.8485053
3321,South Hampton Road,75154,32.5203038,-96.8595336
301,Clayton Street,75154,32.5392614,-96.8493716
705,Red Cedar Lane,75154,32.5435764,-96.8412728
2344,Emerald Springs Drive,75154,32.5433667,-96.8397468
712,Red Cedar Lane,75154,32.5431087,-96.8409194
2408,Emerald Springs Drive,75154,32.5429558,-96.8397482
2429,Pambrooke Lane,75154,32.5417893,-96.8419058
721,Indian Hawthorn Drive,75154,32.5419801,-96.8405718
2608,Emerald Springs Drive,75154,32.5396416,-96.8397620
301,Red River Drive,75154,32.5385181,-96.8653712
2633,Beech Creek Road,75154,32.5370933,-96.8671809
2600,Sagebrush Drive,75154,32.5372337,-96.8637631
2625,Sagebrush Drive,75154,32.5365523,-96.8651389
2513,Chalmers Road,75154,32.5397369,-96.8517314
209,Tradd Street,75154,32.5412508,-96.8547140
214,Tradd Street,75154,32.5407886,-96.8542687
212,Tradd Street,75154,32.5407873,-96.8544750
300,Craddock Drive,75154,32.5464678,-96.8533181
348,Craddock Drive,75154,32.5464586,-96.8509272
104,Craddock Drive,75154,32.5464876,-96.8562612
134,Craddock Drive,75154,32.5464769,-96.8547026
309,California Drive,75154,32.5334945,-96.8507140
2731,La Jolla Court,75154,32.5345805,-96.8500742
104,Hollywood Drive,75154,32.5350753,-96.8561591
200,Sunset Drive,75154,32.5353529,-96.8552501
503,East Ovilla Road,75154,32.5332793,-96.8460456
208,Jacob Drive,75154,32.5285265,-96.8533077
2341,Sagebrush Drive,75154,32.5430346,-96.8607014
2418,Sagebrush Drive,75154,32.5406246,-96.8614791
309,Frio River Road,75154,32.5403740,-96.8637368
225,Concho River Drive,75154,32.5389191,-96.8644173
200,Concho River Drive,75154,32.5380567,-96.8636350
2519,Allview Lane,75154,32.5396816,-96.8445253
601,Doe Creek Trail,75154,32.5386117,-96.8443509
2523,Crossbranch Drive,75154,32.5394003,-96.8454144
526,Lipan Lane,75154,32.5388424,-96.8452731
620,Golden Bell Drive,75154,32.5372564,-96.8416898
2620,Sunburst Drive,75154,32.5382331,-96.8401729
2610,Sunburst Drive,75154,32.5389603,-96.8407977
2604,Sunburst Drive,75154,32.5393243,-96.8411908
2217,Frio River Road,75154,32.5451109,-96.8694090
2405,Cinnamon Springs Road,75154,32.5426632,-96.8680465
2404,Bull Creek Road,75154,32.5424971,-96.8665881
2532,Granite Pass,75154,32.5399605,-96.8661200
409,Gypsum Lane,75154,32.5426929,-96.8651499
412,Dove Creek Lane,75154,32.5430276,-96.8651156
2612,Emerald Springs Drive,75154,32.5395038,-96.8397629
2333,Emerald Springs Drive,75154,32.5438048,-96.8403102
3028,Courtney Lane,75154,32.5258965,-96.8492013
303,Maria Court,75154,32.5259015,-96.8507279
313,Maria Court,75154,32.5257557,-96.8499011
301,Mary Court,75154,32.5270022,-96.8507913
309,Mary Court,75154,32.5271067,-96.8497657
307,Michelle Court,75154,32.5290294,-96.8499234
121,Lin Dell Drive,75154,32.5423310,-96.8494189
121,Lake Shore Lane,75154,32.5424579,-96.8468124
500 (167),West Overhill Drive,75154,32.5443812,-96.8495383
2401,Timbercreek Drive,75154,32.5418164,-96.8624619
2406,Sagebrush Drive,75154,32.5411093,-96.8611909
320,Gypsum Lane,75154,32.5409631,-96.8640009
205,Frio River Road,75154,32.5398217,-96.8625118
312,Sabine River Road,75154,32.5397798,-96.8651495
2533,Comal Creek Drive,75154,32.5397407,-96.8658515
229,Sabine River Road,75154,32.5396264,-96.8640389
304,Sabine River Road,75154,32.5395172,-96.8647880
2541,Comal Creek Drive,75154,32.5394682,-96.8661427
200,Frio River Road,75154,32.5393335,-96.8625422
312,Concho River Drive,75154,32.5392065,-96.8657513
525,Natchez Lane,75154,32.5377056,-96.8449624
2512,Crossbranch Drive,75154,32.5401265,-96.8451628
2527,Lavender Lane,75154,32.5392730,-96.8431107
605,Heartland Drive,75154,32.5413677,-96.8435053
212,Ravenel Street,75154,32.5369541,-96.8530743
3037,Santa Rosa Drive,75154,32.5258441,-96.8532040
416,Stone Creek Boulevard,75154,32.5457206,-96.8649097
3010,Courtney Lane,75154,32.5285973,-96.8491195
317,Abel Drive,75154,32.5300405,-96.8493752
209,Lin Dell Drive,75154,32.5423352,-96.8484818
214,Jacob Court,75154,32.5285162,-96.8522963
2710,Tea Olive Drive,75154,32.5351869,-96.8399602
3037,Dorothy Lane,75154,32.5257379,-96.8549147
203,Moses Drive,75154,32.5253811,-96.8538915
203,Janice Court,75154,32.5262492,-96.8540377
211,Meandering Way,75154,32.5429543,-96.8619608
216,Joseph Drive,75154,32.5275604,-96.8520677
218,Ephraim Court,75154,32.5265726,-96.8517940
233,Pebblebrook Lane,75154,32.5437520,-96.8619726
229,Pebblebrook Lane,75154,32.5437117,-96.8617836
317,Pebblebrook Lane,75154,32.5439558,-96.8629159
216,West Glen Meadow Drive,75154,32.5445739,-96.8606468
2148,Glenn Lane,75154,32.5471108,-96.8532175
315,Ventura Court,75154,32.5366472,-96.8500742
220,Sunset Drive,75154,32.5361781,-96.8536120
2707,Star Avenue,75154,32.5354550,-96.8538816
215,Wilshire Drive,75154,32.5358747,-96.8530007
212,Wilshire Drive,75154,32.5354193,-96.8530906
205,Cripple Creek Road,75154,32.5405927,-96.8584920
209,Sunset Drive,75154,32.5365160,-96.8549427
2606,Lake Ridge Drive,75154,32.5365456,-96.8605128
2155,Mesa Wood Drive,75154,32.5472356,-96.8515977
2134,Trishia Lane,75154,32.5472291,-96.8520941
316,Craddock Drive,75154,32.5464641,-96.8525092
308,California Drive,75154,32.5330401,-96.8511155
218,Wilshire Drive,75154,32.5354221,-96.8522667
106,Hollywood Drive,75154,32.5350769,-96.8559157
101,Hollywood Drive,75154,32.5346314,-96.8564578
2616,Lake Ridge Drive,75154,32.5351248,-96.8616452
2806,Cinnamon Springs Street,75154,32.5333585,-96.8621051
2738,Sunset Strip Avenue,75154,32.5342791,-96.8496004
211,Hollywood Drive,75154,32.5350953,-96.8534072
210,California Drive,75154,32.5330267,-96.8534743
213,Los Angeles Drive,75154,32.5343038,-96.8531793
2301,Lake Ridge Drive,75154,32.5429352,-96.8590455
2403,Lake Ridge Drive,75154,32.5418951,-96.8595459
1200,East Bear Creek Road,75154,32.5592052,-96.8274779
1500,Majestic Meadow Drive,75154,32.5634691,-96.8817004
1500,Heritage Boulevard,75154,32.5638853,-96.8621679
1703,South Beckley Road,75154,32.5596257,-96.8233606
