House number,Street name,Postal code,Latitude,Longitude
705,Skyline Road,75051,32.7374890,-96.9960243
4729,South Carrier Parkway,75052,32.6560316,-97.0049107
795,Small Street,75050,32.7485306,-96.9950798
3890,South Great Southwest Parkway,75052,32.6792466,-97.0446830
3902,South Great Southwest Parkway,75051-7274,32.6787115,-97.0447500
4010,Great Southwest Parkway,75052,32.6740708,-97.0451051
441,W Pioneer Parkway,75051,32.7087686,-97.0088268
402,East Main Street,75051,32.7459854,-96.9997110
510,South Carrier Parkway,75051,32.7407286,-97.0155125
2010,South Carrier Parkway,75051,32.7162474,-97.0155373
1525,Arkansas Lane,75052,32.7042349,-97.0282155
1217,South Carrier Parkway,75051,32.7271571,-97.0134528
1746,South Carrier Parkway,75051,32.7206583,-97.0152873
2012,Spikes Street,75051,32.7343795,-97.0313926
515,South Carrier Parkway,75051,32.7402651,-97.0143512
601,East Grand Prairie Road,75051,32.7419623,-96.9964163
801,Conover Drive,75051,32.7374344,-97.0152008
813,East Main,75050,32.7457641,-96.9939199
728,East Main Street,75050,32.7463957,-96.9949338
2514,South Belt Line Road,75052,32.7077993,-96.9937830
2405,South Carrier Parkway,75051,32.7129932,-97.0147702
810,West Main Street,75050,32.7430944,-97.0144744
107,Northwest 8th Street,75050,32.7435064,-97.0144154
123,West Main Street,75050,32.7452685,-97.0046757
540,South Carrier Parkway,75051,32.7395032,-97.0158807
728,East Marshall Drive,75051,32.7208653,-96.9949039
1701,South Belt Line Road,75051,32.7224093,-96.9945023
1511,South Belt Line Road,75051,32.7234550,-96.9950500
1625,South Belt Line Road,75051,32.7228667,-96.9946943
1513,South Belt Line Road,75051,32.7240224,-96.9959683
829,South Belt Line Road,75051,32.7366645,-96.9952880
455,West Pioneer Parkway,75051,32.7091057,-97.0089523
202,Small Hill Street,75050,32.7497685,-97.0055260
541,West Pioneer Parkway,75051,32.7087189,-97.0104535
419,East Pioneer Parkway,75052,32.7089758,-97.0003071
419,East Pioneer Parkway,75051,32.7090101,-97.0001993
550,South Carrier Parkway,75051,32.7383031,-97.0167696
2500,South Carrier Parkway,75052,32.7078840,-97.0160575
113,South Center Street,75050,32.7450605,-97.0037250
111,South Center Street,75050,32.7451201,-97.0037346
101,West Main Street,75050,32.7452846,-97.0037586
925,North Belt Line Road,75050,32.7579290,-96.9959590
2205,I 20 Frontage Road,75052,32.6751881,-97.0351650
3040,West Camp Wisdom Road,75052,32.6487078,-97.0585973
217,South Belt Line Road,75051,32.7441737,-96.9947880
617,West Main Street #B,75050,32.7438729,-97.0114590
2305,Oak Lane,75051,32.7115044,-97.0036741
2034,West Main Street,75050,32.7404903,-97.0322651
1100,West Pioneer Parkway,75051,32.7101751,-97.0204701
815,Mayfield Road,75052,32.6915110,-97.0162009
2610,West Marshall Drive,75051,32.7210336,-97.0453230
2629,South Grand Peninsula Drive,75054,32.5898965,-97.0360616
2425,Dillard Street,75051,32.7288088,-97.0413654
3055,Larreta,75054,32.5895092,-97.0582315
3040,W Camp Wisdom Rd,75052,32.6488994,-97.0588089
925,W Pioneer Pkwy,75051,32.7091554,-97.0185158
726,Dalworth Street,75050,32.7449009,-97.0132717
315,W Main St,75050,32.7451585,-97.0069227
2309,Sunnyvale Rd,75050,32.7796343,-97.0354288
1612,North Bent Tree Trail,75052,32.6642177,-97.0248634
3031,West Camp Wisdom Road,75053,32.6476377,-97.0583135
3758,South Carrier Parkway,75052,32.6815776,-97.0080806
5913,Prairie Ridge Boulevard,76084,32.5055346,-97.0632167
5705,Prairie Ridge Boulevard,76084,32.5074553,-97.0606396
5912,Prairie Ridge Boulevard,76084,32.5052227,-97.0628965
5911,Prairie Ridge Boulevard,76084,32.5053762,-97.0630611
2601,Bardin Road,75052,32.6717644,-97.0449829
610,Northeast 17th Street,75050,32.7501399,-96.9807333
2910,Corn Valley Road,75052,32.6995383,-97.0016277
507,South Carrier Parkway,75051,32.7412786,-97.0143746
2475,W Pioneer Parkway,75051,32.7112331,-97.0425989
2615,West Pioneer Parkway,75051,32.7101880,-97.0449269
1901,Southwest 3rd Street,75051,32.7187162,-97.0063895
5270,South State Highway 360,75052,32.6428621,-97.0602661
4746,South Carrier Parkway,75052,32.6719250,-97.0066434
4203,South Carrier Parkway,75052,32.6714689,-97.0046438
4215,South Carrier Parkway,75052,32.6714373,-97.0037171
2525,West Interstate 20,75052,32.6736448,-97.0428679
2325,West Interstate 20,75052,32.6735269,-97.0394206
2225,West Interstate 20,75052,32.6737214,-97.0369852
2925,South State Highway 161,75052,32.7031859,-97.0265661
2935,South State Highway 161,75052,32.7034837,-97.0270346
421,West Main Street,75050,32.7449846,-97.0086277
3401 West,Trinity Ridge Drive,75050,32.8085732,-97.0324887
2500,South Carrier Parkway,75052,32.7080611,-97.0162380
2945,South State Highway 161,75052,32.7033307,-97.0272934
2360,West Camp Wisdom Road,75052,32.6488111,-97.0417844
3404,Burningtree Lane,76065,32.5410945,-97.0667107
3424,Burningtree Lane,76065,32.5410297,-97.0680209
3620,Walnut Ridge Drive,76065,32.5313191,-97.0708220
3627,Orchard Street,76065,32.5300327,-97.0720696
3723,Walnut Ridge Drive,76065,32.5281451,-97.0731417
3731,Walnut Ridge Drive,76065,32.5280524,-97.0735572
10726,Cherry Tree Way,76065,32.5270420,-97.0755372
3639,Twin Pines Drive,76065,32.5338752,-97.0711195
3663,Twin Pines Drive,76065,32.5330314,-97.0719905
3648,Rolling Meadows Drive,76065,32.5329773,-97.0715330
3680,Twin Pines Drive,76065,32.5327091,-97.0731008
10606,Cherry Tree Way,76065,32.5302977,-97.0756065
3419,Burningtree Lane,76065,32.5405662,-97.0680056
3468,Evergreen Way,76065,32.5374637,-97.0700221
3463,Evergreen Way,76065,32.5370313,-97.0697225
10327,Elmcreek Lane,76065,32.5363228,-97.0699110
10847,Oran Lane,76065,32.5238918,-97.0721820
3519,Randall Terrace,76065,32.5249341,-97.0709770
3623,Rainwater Trail,76065,32.5362625,-97.0723437
3603,Hidden Hollow Drive,76065,32.5359595,-97.0714546
3703,Crabapple Lane,76065,32.5337179,-97.0740137
10943,Rochelle Crt,76065,32.5210634,-97.0717508
10408,Rainwater Trail,76065,32.5361945,-97.0710291
10416,Rainwater Trail,76065,32.5359717,-97.0706967
3652,Wintergreen Street,76065,32.5339065,-97.0726983
3714,Autumncrest Street,76065,32.5333871,-97.0747214
3715,Autumncrest Street,76065,32.5329198,-97.0745815
3728,Highland Woods Drive,76065,32.5306591,-97.0751763
3615,Orchard Street,76065,32.5304187,-97.0716687
10120,Walnut Ridge Drive,76065,32.5399439,-97.0664992
3403,Tree Shadow Lane,76065,32.5397922,-97.0669919
3411,Tree Shadow Lane,76065,32.5397838,-97.0674949
3408,Hidden Hollow Drive,76065,32.5394595,-97.0672427
3411,Hidden Hollow Drive,76065,32.5389866,-97.0674672
3448,Hidden Hollow Drive,76065,32.5387249,-97.0699221
3407,Evergreen Way,76065,32.5381898,-97.0671511
3427,Evergreen Way,76065,32.5380829,-97.0682301
3515,Walnut Ridge Drive,76065,32.5334880,-97.0680803
3420,Cornerstone Lane,76065,32.5370093,-97.0678386
10959,Eva Mae Boulevard,76065,32.5200207,-97.0722853
10312,Walnut Ridge Drive,76065,32.5373784,-97.0664184
10414,Walnut Ridge Drive,76065,32.5361416,-97.0663891
10512,Firefly Court,76065,32.5334370,-97.0670871
10508,Firefly Court,76065,32.5333907,-97.0673524
3676,Rolling Meadows Drive,76065,32.5319358,-97.0727092
10432,Rainwater Trail,76065,32.5355282,-97.0700312
3671,Twin Pines Drive,76065,32.5327340,-97.0722953
3631,Hidden Hollow Drive,76065,32.5349851,-97.0724779
10414,Firewood Way,76065,32.5341286,-97.0756433
3667,Hidden Hollow Drive,76065,32.5335081,-97.0733231
3720,Twin Pines Drive,76065,32.5325856,-97.0749097
3715,Twin Pines Drive,76065,32.5321215,-97.0746520
3727,Autumncrest Street,76065,32.5329057,-97.0752164
3676,Twin Pines Drive,76065,32.5329293,-97.0729482
3704,Walnut Ridge Drive,76065,32.5287531,-97.0729439
10642,Cherry Tree Way,76065,32.5287697,-97.0755834
3712,Walnut Ridge Drive,76065,32.5285621,-97.0733187
10718,Cherry Tree Way,76065,32.5273827,-97.0755611
3555,Walnut Ridge Drive,76065,32.5320994,-97.0698367
3472,Hidden Hollow Drive,76065,32.5377881,-97.0709187
3522,Randall Terrace,76065,32.5249459,-97.0718856
3526,Randall Terrace,76065,32.5248219,-97.0720379
10859,Eva Mae Boulevard,76065,32.5232901,-97.0730965
10931,Eva Mae Boulevard,76065,32.5213924,-97.0726436
3643,William Crt,76065,32.5247809,-97.0736802
3527,Randall Terrace,76065,32.5247227,-97.0712949
3627,Hidden Hollow Drive,76065,32.5351257,-97.0723332
3672,Rainwater Trail,76065,32.5349853,-97.0751255
3631,Wintergreen Street,76065,32.5345219,-97.0716997
3606,Orchard Street,76065,32.5312426,-97.0714073
10610,Cherry Tree Way,76065,32.5301298,-97.0755989
3728,Walnut Ridge Drive,76065,32.5284812,-97.0741535
10734,Cherry Tree Way,76065,32.5267003,-97.0755163
3460,Evergreen Way,76065,32.5377492,-97.0697577
3518,Randall Terrace,76065,32.5250508,-97.0717258
3623,William Crt,76065,32.5249895,-97.0728655
10851,Eva Mae Boulevard,76065,32.5235455,-97.0732133
3619,Twin Pines Drive,76065,32.5345538,-97.0704120
2211,Alyssum Drive,75104,32.5434638,-97.0131804
2714,Melissa Court,75104,32.5450928,-97.0131971
3645,Walnut Ridge Drive,76065,32.5297211,-97.0712301
3407,Burningtree Lane,76065,32.5405826,-97.0672786
3632,Randall Terrace,76065,32.5245678,-97.0732041
10832,Eva Mae Boulevard,76065,32.5240825,-97.0740233
3643,Rainwater Trail,76065,32.5354573,-97.0732361
3628,Hidden Hollow Drive,76065,32.5354048,-97.0727702
3655,Rainwater Trail,76065,32.5349874,-97.0737216
5394,Highway 287,76065,32.5079183,-97.0625364
10335,Elmcreek Lane,76065,32.5360776,-97.0695425
3668,Walnut Ridge Drive,76065,32.5293109,-97.0723501
3440,Burningtree Lane,76065,32.5410393,-97.0690924
10844,Oran Lane,76065,32.5239501,-97.0728729
3676,Rainwater Trail,76065,32.5350208,-97.0754545
3619,Wintergreen Street,76065,32.5349284,-97.0712778
3540,Walnut Ridge Drive,76065,32.5331025,-97.0695504
3539,Randall Terrace,76065,32.5244062,-97.0717733
10836,Eva Mae Boulevard,76065,32.5239490,-97.0739628
3710,Autumncrest Street,76065,32.5333889,-97.0745106
3648,Rainwater Trail,76065,32.5356050,-97.0738325
3623,Wintergreen Street,76065,32.5347911,-97.0714195
3636,Wintergreen Street,76065,32.5346737,-97.0722818
3640,Wintergreen Street,76065,32.5345318,-97.0724406
3452,April Breeze Trail,76065,32.5369768,-97.0692767
3536,Walnut Ridge Drive,76065,32.5332586,-97.0693888
520,Lakeview Drive,76065,32.5268375,-97.0675858
3618,Orchard Street,76065,32.5308364,-97.0719287
3704,Highland Woods Drive,76065,32.5306604,-97.0739404
3638,Orchard Street,76065,32.5301976,-97.0725936
3403,Hidden Hollow Drive,76065,32.5389957,-97.0669667
3484,Hidden Hollow Drive,76065,32.5372295,-97.0713431
3459,Evergreen Way,76065,32.5371697,-97.0695916
10315,Elmcreek Lane,76065,32.5366561,-97.0704075
3614,Orchard Street,76065,32.5309714,-97.0717920
3642,Orchard Street,76065,32.5300690,-97.0727272
3416,Tree Shadow Lane,76065,32.5402421,-97.0677515
3464,Hidden Hollow Drive,76065,32.5381098,-97.0706172
3464,Evergreen Way,76065,32.5376029,-97.0698902
3480,Hidden Hollow Drive,76065,32.5374547,-97.0712273
10323,Elmcreek Lane,76065,32.5364342,-97.0700762
3460,April Breeze Trail,76065,32.5366430,-97.0695884
10936,Rochelle Crt,76065,32.5214429,-97.0721499
3612,William Crt,76065,32.5254793,-97.0723857
10935,Eva Mae Boulevard,76065,32.5212642,-97.0725812
3718,Crabapple Lane,76065,32.5341958,-97.0747295
3616,Hidden Hollow Drive,76065,32.5358099,-97.0723518
3639,Rainwater Trail,76065,32.5356124,-97.0730753
10500,Heritage Pkway,76065,32.5333088,-97.0758612
3671,Hidden Hollow Drive,76065,32.5333246,-97.0733227
10514,Firewood Way,76065,32.5332150,-97.0756545
3707,Autumncrest Street,76065,32.5329233,-97.0741603
3711,Autumncrest Street,76065,32.5329218,-97.0743713
3723,Autumncrest Street,76065,32.5329163,-97.0750026
10426,Walnut Ridge Drive,76065,32.5355257,-97.0663870
10410,Walnut Ridge Drive,76065,32.5363443,-97.0663913
3428,April Breeze Trail,76065,32.5377219,-97.0682602
3423,April Breeze Trail,76065,32.5373011,-97.0680229
3412,Cornerstone Lane,76065,32.5370590,-97.0673615
3623,Rolling Meadows Drive,76065,32.5334815,-97.0702741
3627,Rolling Meadows Drive,76065,32.5333479,-97.0704123
10316,Walnut Ridge Drive,76065,32.5371724,-97.0664115
3668,Rolling Meadows Drive,76065,32.5322130,-97.0723141
3603,Twin Pines Drive,76065,32.5351050,-97.0695356
3683,Hidden Hollow Drive,76065,32.5327584,-97.0734531
3679,Twin Pines Drive,76065,32.5324265,-97.0726105
10525,Heritage Pkway,76065,32.5312198,-97.0764367
10790,Davis Drive,76065,32.5259302,-97.0804596
4308,Noah Street,76065,32.5458525,-97.0684361
1010,Lakeview Drive,76065,32.5453938,-97.0652532
10947,Rochelle Crt,76065,32.5208998,-97.0718922
10951,Rochelle Crt,76065,32.5207199,-97.0720260
3640,Hidden Hollow Drive,76065,32.5350041,-97.0731899
3632,Rainwater Trail,76065,32.5362066,-97.0732049
3714,Crabapple Lane,76065,32.5342159,-97.0745193
3648,Wintergreen Street,76065,32.5341423,-97.0726758
10502,Firewood Way,76065,32.5337716,-97.0756384
3507,Walnut Ridge Drive,76065,32.5336617,-97.0676066
3412,April Breeze Trail,76065,32.5378528,-97.0673874
3415,April Breeze Trail,76065,32.5373862,-97.0675607
3639,Rolling Meadows Drive,76065,32.5329360,-97.0708392
3405,Branch Hollow Drive,76065,32.5379138,-97.0662634
10436,Rainwater Trail,76065,32.5354136,-97.0697958
3704,Twin Pines Drive,76065,32.5325932,-97.0739684
3636,William Crt,76065,32.5252945,-97.0736179
3612,Rainwater Trail,76065,32.5367188,-97.0720659
3604,Hidden Hollow Drive,76065,32.5362285,-97.0719073
3702,Crabapple Lane,76065,32.5341779,-97.0738250
3703,Autumncrest Street,76065,32.5329252,-97.0739497
3424,April Breeze Trail,76065,32.5377846,-97.0680475
3411,April Breeze Trail,76065,32.5373900,-97.0673417
10524,Firefly Court,76065,32.5331107,-97.0664107
10503,Firefly Court,76065,32.5330545,-97.0683269
10519,Firefly Court,76065,32.5328706,-97.0673222
10402,Walnut Ridge Drive,76065,32.5367595,-97.0663986
10422,Walnut Ridge Drive,76065,32.5357303,-97.0663876
3691,Twin Pines Drive,76065,32.5321271,-97.0733924
10511,Forest Glen Lane,76065,32.5319489,-97.0756213
3637,Walnut Ridge Drive,76065,32.5299774,-97.0709640
3735,Walnut Ridge Drive,76065,32.5280398,-97.0737695
10742,Cherry Tree Way,76065,32.5263596,-97.0755115
10746,Cherry Tree Way,76065,32.5261934,-97.0755122
3604,William Crt,76065,32.5254912,-97.0716924
10843,Eva Mae Boulevard,76065,32.5238006,-97.0733308
3644,Twin Pines Drive,76065,32.5340461,-97.0716756
3679,Hidden Hollow Drive,76065,32.5329376,-97.0734555
3712,Rolling Meadows Drive,76065,32.5317942,-97.0744146
3724,Rolling Meadows Drive,76065,32.5317886,-97.0751249
2215,Alyssum Drive,75104,32.5431065,-97.0131868
2703,Mandy Court,75104,32.5476054,-97.0125450
3603,Walnut Ridge Drive,76065,32.5319383,-97.0699961
3502,Randall Terrace,76065,32.5254886,-97.0710166
10838,Eva Mae Boulevard,76065,32.5241825,-97.0741596
10856,Oran Lane,76065,32.5235521,-97.0727392
11005,Davis Drive,76065,32.5199266,-97.0747950
908,Lakeview Drive,76065,32.5480717,-97.0651377
3408,Burningtree Lane,76065,32.5410547,-97.0670479
3411,Burningtree Lane,76065,32.5405778,-97.0675210
3635,William Crt,76065,32.5248828,-97.0733748
3535,Randall Terrace,76065,32.5245112,-97.0716137
3631,Rainwater Trail,76065,32.5359230,-97.0727485
3603,Wintergreen Street,76065,32.5354699,-97.0707090
3660,Rainwater Trail,76065,32.5351557,-97.0743673
3659,Rainwater Trail,76065,32.5348384,-97.0739118
3635,Hidden Hollow Drive,76065,32.5348428,-97.0726245
10406,Firewood Way,76065,32.5345526,-97.0756524
10963,Eva Mae Boulevard,76065,32.5200376,-97.0726264
3639,Hidden Hollow Drive,76065,32.5347018,-97.0727695
3644,Wintergreen Street,76065,32.5343538,-97.0725851
3707,Crabapple Lane,76065,32.5337207,-97.0743040
10403,Walnut Ridge Drive,76065,32.5366352,-97.0669542
2251,Alyssum Drive,75104,32.5397334,-97.0132477
3650,Orchard Street,76065,32.5298017,-97.0730059
3639,Orchard Street,76065,32.5296516,-97.0724697
10611,Hidden Hollow Drive,76065,32.5293258,-97.0730699
10619,Hidden Hollow Drive,76065,32.5291004,-97.0727661
3523,Randall Terrace,76065,32.5248281,-97.0711355
3647,William Crt,76065,32.5247261,-97.0738448
3547,Randall Terrace,76065,32.5241523,-97.0721251
3635,Rainwater Trail,76065,32.5357664,-97.0729136
3608,Wintergreen Street,76065,32.5356155,-97.0712980
3667,Rainwater Trail,76065,32.5346221,-97.0743746
3520,Walnut Ridge Drive,76065,32.5338008,-97.0686301
3428,Cornerstone Lane,76065,32.5367740,-97.0682686
3432,Cornerstone Lane,76065,32.5366057,-97.0684253
3447,April Breeze Trail,76065,32.5365150,-97.0690038
3552,Walnut Ridge Drive,76065,32.5326366,-97.0700388
2760,Fm 661,76065,32.5115462,-97.0630078
3648,Walnut Ridge Drive,76065,32.5299635,-97.0716671
3708,Walnut Ridge Drive,76065,32.5286445,-97.0731222
3679,Rolling Meadows Drive,76065,32.5314440,-97.0724449
10808,Eva Mae Boulevard,76065,32.5249110,-97.0744244
10860,Eva Mae Boulevard,76065,32.5230001,-97.0735638
10916,Rochelle Crt,76065,32.5220766,-97.0724799
10928,Rochelle Crt,76065,32.5216933,-97.0722840
4121,Fm 661,76065,32.5268321,-97.0636765
3604,Lone Star Road,76063,32.5381283,-97.0763099
3620,Twin Pines Drive,76065,32.5348511,-97.0708393
3660,Twin Pines Drive,76065,32.5335098,-97.0722636
3636,Rolling Meadows Drive,76065,32.5333895,-97.0711062
3667,Twin Pines Drive,76065,32.5328831,-97.0721429
10515,Forest Glen Lane,76065,32.5317511,-97.0756179
3723,Rolling Meadows Drive,76065,32.5313191,-97.0751259
3607,Orchard Street,76065,32.5306885,-97.0714038
3703,Highland Woods Drive,76065,32.5302189,-97.0738937
3432,Hidden Hollow Drive,76065,32.5391793,-97.0690435
3404,Evergreen Way,76065,32.5386662,-97.0669393
3412,Evergreen Way,76065,32.5386563,-97.0673750
3435,Evergreen Way,76065,32.5379319,-97.0686414
10319,Elmcreek Lane,76065,32.5365441,-97.0702428
10939,Eva Mae Boulevard,76065,32.5211245,-97.0725113
3608,Rainwater Trail,76065,32.5366630,-97.0717911
3628,Rainwater Trail,76065,32.5363635,-97.0730489
10420,Rainwater Trail,76065,32.5358602,-97.0705315
3652,Rainwater Trail,76065,32.5354555,-97.0739904
3643,Wintergreen Street,76065,32.5340572,-97.0721151
3715,Crabapple Lane,76065,32.5337177,-97.0747262
3706,Autumncrest Street,76065,32.5333898,-97.0743001
3543,Walnut Ridge Drive,76065,32.5325481,-97.0693662
3531,Walnut Ridge Drive,76065,32.5329936,-97.0689027
3416,April Breeze Trail,76065,32.5378494,-97.0676036
3419,April Breeze Trail,76065,32.5373618,-97.0677932
3427,April Breeze Trail,76065,32.5372107,-97.0682395
10516,Firefly Court,76065,32.5333540,-97.0668481
3612,Twin Pines Drive,76065,32.5351213,-97.0705581
3647,Rolling Meadows Drive,76065,32.5326636,-97.0711104
2715,Melissa Court,75104,32.5459904,-97.0131742
2711,Melissa Court,75104,32.5459820,-97.0125857
3622,Orchard Street,76065,32.5307066,-97.0720620
10108,Walnut Ridge Drive,76065,32.5405615,-97.0665203
3420,Tree Shadow Lane,76065,32.5402360,-97.0679944
3404,Hidden Hollow Drive,76065,32.5394649,-97.0669816
3440,Hidden Hollow Drive,76065,32.5389724,-97.0695088
3420,Evergreen Way,76065,32.5386385,-97.0678141
3440,Evergreen Way,76065,32.5383528,-97.0688872
3476,Evergreen Way,76065,32.5371497,-97.0703152
10955,Eva Mae Boulevard,76065,32.5202915,-97.0721386
3624,Rainwater Trail,76065,32.5365180,-97.0728752
10412,Rainwater Trail,76065,32.5360832,-97.0708635
3710,Crabapple Lane,76065,32.5342476,-97.0743080
3711,Crabapple Lane,76065,32.5337195,-97.0745146
3527,Walnut Ridge Drive,76065,32.5331541,-97.0687370
3408,April Breeze Trail,76065,32.5378581,-97.0671773
3431,April Breeze Trail,76065,32.5370902,-97.0684381
10511,Firefly Court,76065,32.5328691,-97.0678205
10447,Walnut Ridge Drive,76065,32.5345060,-97.0673385
3656,Rolling Meadows Drive,76065,32.5326660,-97.0718507
3708,Twin Pines Drive,76065,32.5325918,-97.0742112
3687,Twin Pines Drive,76065,32.5321746,-97.0730459
3723,Twin Pines Drive,76065,32.5321159,-97.0751316
10702,Cherry Tree Way,76065,32.5280804,-97.0755791
3456,Evergreen Way,76065,32.5378914,-97.0696087
3506,Randall Terrace,76065,32.5253678,-97.0712487
10856,Eva Mae Boulevard,76065,32.5232370,-97.0736297
3751,Heritage Towne Boulevard,76065,32.5214183,-97.0746977
10919,Eva Mae Boulevard,76065,32.5217767,-97.0728217
10932,Rochelle Crt,76065,32.5215677,-97.0722162
3648,Twin Pines Drive,76065,32.5339134,-97.0718146
3628,Rolling Meadows Drive,76065,32.5336571,-97.0708263
10611,Cherry Tree Way,76065,32.5298916,-97.0750796
10615,Cherry Tree Way,76065,32.5297222,-97.0750776
10603,Hidden Hollow Drive,76065,32.5295518,-97.0733718
10630,Cherry Tree Way,76065,32.5292808,-97.0755895
2219,Alyssum Drive,75104,32.5427492,-97.0131933
2227,Alyssum Drive,75104,32.5417950,-97.0132302
3543,Randall Terrace,76065,32.5242486,-97.0719115
3615,Hidden Hollow Drive,76065,32.5355388,-97.0719009
3619,Hidden Hollow Drive,76065,32.5354011,-97.0720462
3611,Wintergreen Street,76065,32.5351947,-97.0709992
3656,Hidden Hollow Drive,76065,32.5344509,-97.0738140
11025,Davis Drive,76065,32.5195563,-97.0745563
3415,Cornerstone Lane,76065,32.5365958,-97.0674811
3419,Cornerstone Lane,76065,32.5365442,-97.0677388
3444,Cornerstone Lane,76065,32.5361509,-97.0688490
3532,Walnut Ridge Drive,76065,32.5334130,-97.0692260
3703,Walnut Ridge Drive,76065,32.5286884,-97.0723039
3707,Walnut Ridge Drive,76065,32.5285558,-97.0724373
3720,Walnut Ridge Drive,76065,32.5284823,-97.0737450
10650,Cherry Tree Way,76065,32.5284156,-97.0755835
3751,Walnut Ridge Drive,76065,32.5280412,-97.0745830
10714,Cherry Tree Way,76065,32.5275542,-97.0755695
10450,Walnut Ridge Drive,76065,32.5328406,-97.0672398
3691,Rolling Meadows Drive,76065,32.5310028,-97.0731216
3511,Randall Terrace,76065,32.5251430,-97.0706588
10847,Eva Mae Boulevard,76065,32.5236726,-97.0732722
10915,Eva Mae Boulevard,76065,32.5220209,-97.0728820
10924,Rochelle Crt,76065,32.5218190,-97.0723515
10940,Rochelle Court,76065,32.5212963,-97.0720706
3624,Twin Pines Drive,76065,32.5347168,-97.0709787
3636,Twin Pines Drive,76065,32.5343166,-97.0713955
3643,Twin Pines Drive,76065,32.5337412,-97.0712585
3720,Rolling Meadows Drive,76065,32.5317897,-97.0748769
3700,Double Oak Avenue,76065,32.5309962,-97.0737051
10805,Davis Drive,76065,32.5261242,-97.0784569
2243/2243,Alyssum Drive,75104,32.5402694,-97.0132380
3660,Walnut Ridge Drive,76065,32.5295787,-97.0720681
3643,Orchard Street,76065,32.5295095,-97.0726165
3657,Walnut Ridge Drive,76065,32.5293383,-97.0716286
10626,Cherry Tree Way,76065,32.5294509,-97.0755915
3420,Burningtree Lane,76065,32.5410380,-97.0677784
3432,Burningtree Lane,76065,32.5410185,-97.0685083
3436,Burningtree Lane,76065,32.5410149,-97.0687526
3428,Burningtree Lane,76065,32.5410254,-97.0682653
10812,Eva Mae Boulevard,76065,32.5247220,-97.0743329
3628,Randall Terrace,76065,32.5246117,-97.0730237
10816,Eva Mae Boulevard,76065,32.5245958,-97.0742566
3551,Randall Terrace,76065,32.5241787,-97.0723848
10836,Oran Lane,76065,32.5242341,-97.0729694
10835,Eva Mae Boulevard,76065,32.5240846,-97.0734607
3616,Wintergreen Street,76065,32.5353441,-97.0715836
3648,Hidden Hollow Drive,76065,32.5347317,-97.0734745
3402,April Breeze Trail,76065,32.5378683,-97.0668104
3456,April Breeze Trail,76065,32.5368156,-97.0694286
10339,Elmcreek Lane,76065,32.5359671,-97.0693768
10415,Walnut Ridge Drive,76065,32.5359914,-97.0669435
10343,Elmcreek Lane,76065,32.5358561,-97.0692102
10452,Wintergreen Street,76065,32.5334834,-97.0696529
3548,Walnut Ridge Drive,76065,32.5327922,-97.0698751
2770,Fm 661,76065,32.5122244,-97.0629276
5790,West Highway 287,76065,32.5129632,-97.0714350
10622,Cherry Tree Way,76065,32.5296194,-97.0755931
3444,Burningtree Lane,76065,32.5408910,-97.0692969
3403,Burningtree Lane,76065,32.5405877,-97.0670184
10841,Heritage Towne Boulevard,76065,32.5233432,-97.0723236
3644,Rainwater Trail,76065,32.5357530,-97.0736778
3607,Wintergreen Street,76065,32.5353293,-97.0708611
3620,Wintergreen Street,76065,32.5352117,-97.0717219
3551,Walnut Ridge Drive,76065,32.5322458,-97.0696796
10347,Elmcreek Lane,76065,32.5357380,-97.0690449
3724,Highland Woods Drive,76065,32.5306572,-97.0749771
3732,Highland Woods Drive,76065,32.5306849,-97.0754588
3636,Walnut Ridge Drive,76065,32.5303477,-97.0712692
3407,Tree Shadow Lane,76065,32.5397890,-97.0672507
3423,Tree Shadow Lane,76065,32.5397441,-97.0682234
3428,Evergreen Way,76065,32.5385666,-97.0682563
3443,Hidden Hollow Drive,76065,32.5384867,-97.0693741
3451,Hidden Hollow Drive,76065,32.5382170,-97.0697697
10802,Eva Mae Boulevard,76065,32.5239253,-97.0744425
10506,Firewood Way,76065,32.5335828,-97.0756355
10404,Rainwater Trail,76065,32.5363187,-97.0712072
10410,Firewood Way,76065,32.5343454,-97.0756466
3656,Wintergreen Street,76065,32.5336008,-97.0726983
10510,Firewood Way,76065,32.5334041,-97.0756341
10518,Firewood Way,76065,32.5329262,-97.0755795
3719,Autumncrest Street,76065,32.5329186,-97.0747919
3547,Walnut Ridge Drive,76065,32.5323980,-97.0695222
3523,Walnut Ridge Drive,76065,32.5333058,-97.0685099
3404,April Breeze Trail,76065,32.5378638,-97.0669482
3615,Rolling Meadows Drive,76065,32.5337515,-97.0699934
10442,Walnut Ridge Drive,76065,32.5346117,-97.0664567
3667,Rolling Meadows Drive,76065,32.5319071,-97.0718980
3719,Twin Pines Drive,76065,32.5321193,-97.0748838
3684,Rolling Meadows Drive,76065,32.5318042,-97.0732138
3708,Highland Woods Drive,76065,32.5306636,-97.0741724
3644,Walnut Ridge Drive,76065,32.5300917,-97.0715345
3408,Tree Shadow Lane,76065,32.5402528,-97.0672675
3415,Hidden Hollow Drive,76065,32.5389792,-97.0677158
3468,Hidden Hollow Drive,76065,32.5379486,-97.0707690
3656,Rainwater Trail,76065,32.5352944,-97.0741566
3612,Wintergreen Street,76065,32.5354809,-97.0714410
3663,Hidden Hollow Drive,76065,32.5336937,-97.0732985
3675,Hidden Hollow Drive,76065,32.5331381,-97.0733687
3420,April Breeze Trail,76065,32.5378279,-97.0678271
3432,April Breeze Trail,76065,32.5376393,-97.0684622
3631,Rolling Meadows Drive,76065,32.5332141,-97.0705529
10434,Walnut Ridge Drive,76065,32.5350916,-97.0663883
3728,Twin Pines Drive,76065,32.5326153,-97.0754839
3659,Rolling Meadows Drive,76065,32.5322059,-97.0715870
10511,Hidden Hollow Drive,76065,32.5319539,-97.0738186
5728,Lakeview Drive,76065,32.5095280,-97.0639351
3611,Orchard Street,76065,32.5305477,-97.0715371
3619,Orchard Street,76065,32.5302911,-97.0718015
3707,Highland Woods Drive,76065,32.5302244,-97.0741438
3623,Orchard Street,76065,32.5301629,-97.0719367
3404,Tree Shadow Lane,76065,32.5402594,-97.0670066
3412,Tree Shadow Lane,76065,32.5402468,-97.0675108
3428,Tree Shadow Lane,76065,32.5402232,-97.0684801
3412,Hidden Hollow Drive,76065,32.5394567,-97.0674864
3420,Hidden Hollow Drive,76065,32.5394272,-97.0679904
3407,Hidden Hollow Drive,76065,32.5389915,-97.0672237
3419,Hidden Hollow Drive,76065,32.5389568,-97.0679682
3431,Hidden Hollow Drive,76065,32.5387920,-97.0687006
3444,Evergreen Way,76065,32.5382541,-97.0690814
3431,Evergreen Way,76065,32.5380154,-97.0684389
3447,Evergreen Way,76065,32.5375952,-97.0691803
3472,Evergreen Way,76065,32.5373237,-97.0701521
10303,Elmcreek Lane,76065,32.5370159,-97.0709195
3511,Walnut Ridge Drive,76065,32.5335746,-97.0678331
10304,Walnut Ridge Drive,76065,32.5378056,-97.0664310
3448,April Breeze Trail,76065,32.5371333,-97.0691321
3408,Cornerstone Lane,76065,32.5370631,-97.0671509
3416,Cornerstone Lane,76065,32.5370546,-97.0675911
10428,Rainwater Trail,76065,32.5356392,-97.0701970
3604,Walnut Ridge Drive,76065,32.5321850,-97.0704985
3615,Walnut Ridge Drive,76065,32.5313413,-97.0702381
3732,Walnut Ridge Drive,76065,32.5284794,-97.0743547
3739,Walnut Ridge Drive,76065,32.5280404,-97.0739755
10710,Cherry Tree Way,76065,32.5277260,-97.0755709
10738,Cherry Tree Way,76065,32.5265284,-97.0755126
3510,Randall Terrace,76065,32.5252627,-97.0714084
3514,Randall Terrace,76065,32.5251566,-97.0715673
10848,Eva Mae Boulevard,76065,32.5234910,-97.0737552
10860,Oran Lane,76065,32.5234240,-97.0726815
10855,Eva Mae Boulevard,76065,32.5234182,-97.0731545
10903,Rochelle Crt,76065,32.5226040,-97.0728672
3616,Twin Pines Drive,76065,32.5349865,-97.0706976
3627,Twin Pines Drive,76065,32.5342779,-97.0707011
3716,Rolling Meadows Drive,76065,32.5317923,-97.0746467
10519,Forest Glen Lane,76065,32.5314994,-97.0756503
4775,West Highway 287,76065,32.5043687,-97.0536348
3608,Walnut Ridge Drive,76065,32.5319683,-97.0706158
3607,Walnut Ridge Drive,76065,32.5317437,-97.0701231
3612,Walnut Ridge Drive,76065,32.5317633,-97.0707059
3711,Walnut Ridge Drive,76065,32.5284280,-97.0725884
10706,Cherry Tree Way,76065,32.5278975,-97.0755732
10730,Cherry Tree Way,76065,32.5268713,-97.0755254
3607,William Crt,76065,32.5251159,-97.0720509
10819,Oran Lane,76065,32.5250428,-97.0723980
2255,Alyssum Drive,75104,32.5393761,-97.0132542
3652,Walnut Ridge Drive,76065,32.5298330,-97.0718012
10615,Hidden Hollow Drive,76065,32.5292129,-97.0729174
3415,Burningtree Lane,76065,32.5405720,-97.0677621
3639,William Crt,76065,32.5248324,-97.0735296
10828,Eva Mae Boulevard,76065,32.5242106,-97.0740815
3701,Crabapple Lane,76065,32.5335295,-97.0738198
3627,Rainwater Trail,76065,32.5360829,-97.0725928
3651,Rainwater Trail,76065,32.5351506,-97.0735559
3628,Wintergreen Street,76065,32.5349439,-97.0720013
3643,Hidden Hollow Drive,76065,32.5345577,-97.0729133
3436,Cornerstone Lane,76065,32.5364529,-97.0685685
3451,April Breeze Trail,76065,32.5363540,-97.0691530
10331,Elmcreek Lane,76065,32.5361995,-97.0697258
10411,Walnut Ridge Drive,76065,32.5361961,-97.0669469
3603,Rolling Meadows Drive,76065,32.5342054,-97.0694646
3524,Walnut Ridge Drive,76065,32.5337050,-97.0688526
3631,Orchard Street,76065,32.5299064,-97.0722024
3620,William Crt,76065,32.5254578,-97.0728055
3515,Randall Terrace,76065,32.5250387,-97.0708184
10444,Woodmoor Lane,76065,32.5346715,-97.0697310
3640,Rolling Meadows Drive,76065,32.5332463,-97.0712562
3850,Double Oak Avenue,76065,32.5308186,-97.0790413
2925,Davis Drive,76065,32.5190292,-97.0742201
10614,Cherry Tree Way,76065,32.5299596,-97.0755972
10623,Cherry Tree Way,76065,32.5293825,-97.0750730
10627,Cherry Tree Way,76065,32.5292125,-97.0750714
10634,Cherry Tree Way,76065,32.5291091,-97.0755883
3416,Burningtree Lane,76065,32.5410427,-97.0675362
3531,Randall Terrace,76065,32.5246179,-97.0714547
3644,Randall Terrace,76065,32.5244039,-97.0737008
10840,Oran Lane,76065,32.5240864,-97.0729115
3635,Wintergreen Street,76065,32.5343872,-97.0718386
3668,Rainwater Trail,76065,32.5349949,-97.0748659
3624,Hidden Hollow Drive,76065,32.5355412,-97.0726307
3431,Tree Shadow Lane,76065,32.5396891,-97.0687222
10212,Walnut Ridge Drive,76065,32.5391213,-97.0664736
10216,Walnut Ridge Drive,76065,32.5389144,-97.0664674
3435,Hidden Hollow Drive,76065,32.5387042,-97.0689333
3423,Evergreen Way,76065,32.5381328,-97.0680152
3452,Evergreen Way,76065,32.5380227,-97.0694452
3459,Hidden Hollow Drive,76065,32.5379017,-97.0701099
3455,Evergreen Way,76065,32.5373102,-97.0694622
3467,Evergreen Way,76065,32.5368582,-97.0698829
10307,Elmcreek Lane,76065,32.5368779,-97.0707383
10943,Eva Mae Boulevard,76065,32.5208146,-97.0723946
3640,Rainwater Trail,76065,32.5359067,-97.0735184
10424,Rainwater Trail,76065,32.5357499,-97.0703638
3722,Autumncrest Street,76065,32.5333852,-97.0751571
10520,Firefly Court,76065,32.5332355,-97.0666224
10507,Firefly Court,76065,32.5329346,-97.0680816
10531,Firefly Court,76065,32.5325729,-97.0666371
10320,Walnut Ridge Drive,76065,32.5369665,-97.0664043
3711,Twin Pines Drive,76065,32.5321237,-97.0744188
3652,Rolling Meadows Drive,76065,32.5328147,-97.0716985
3675,Twin Pines Drive,76065,32.5325846,-97.0724511
3660,Rolling Meadows Drive,76065,32.5325169,-97.0720040
10975,Eva Mae Boulevard,76065,32.5185425,-97.0729524
2031,Molton Court,75104,32.5482483,-97.0131161
4316,Dollar Street,76065,32.5459514,-97.0678474
3715,Highland Woods Drive,76065,32.5302224,-97.0745781
3633,Walnut Ridge Drive,76065,32.5301045,-97.0708324
3432,Tree Shadow Lane,76065,32.5402174,-97.0687403
3427,Tree Shadow Lane,76065,32.5397188,-97.0684673
3408,Evergreen Way,76065,32.5386612,-97.0671640
10947,Eva Mae Boulevard,76065,32.5206467,-97.0723178
3722,Crabapple Lane,76065,32.5341838,-97.0749409
3655,Hidden Hollow Drive,76065,32.5340541,-97.0732099
3611,Hidden Hollow Drive,76065,32.5356775,-97.0717567
3651,Hidden Hollow Drive,76065,32.5342307,-97.0731382
3726,Crabapple Lane,76065,32.5341817,-97.0751659
3539,Walnut Ridge Drive,76065,32.5326951,-97.0692120
3503,Walnut Ridge Drive,76065,32.5337747,-97.0673287
10430,Walnut Ridge Drive,76065,32.5353151,-97.0663832
3724,Twin Pines Drive,76065,32.5325858,-97.0751417
3687,Hidden Hollow Drive,76065,32.5325520,-97.0734511
3655,Rolling Meadows Drive,76065,32.5323535,-97.0714336
10820,Eva Mae Boulevard,76065,32.5244676,-97.0741975
10839,Eva Mae Boulevard,76065,32.5239332,-97.0733913
3607,Hidden Hollow Drive,76065,32.5358161,-97.0716096
3604,Wintergreen Street,76065,32.5357556,-97.0711481
3623,Hidden Hollow Drive,76065,32.5352626,-97.0721902
3624,Wintergreen Street,76065,32.5350777,-97.0718621
3644,Hidden Hollow Drive,76065,32.5348702,-97.0733307
3671,Rainwater Trail,76065,32.5345546,-97.0746249
3656,Walnut Ridge Drive,76065,32.5297051,-97.0719339
3435,April Breeze Trail,76065,32.5369449,-97.0686062
3439,April Breeze Trail,76065,32.5367958,-97.0687439
3715,Walnut Ridge Drive,76065,32.5283161,-97.0727596
3616,William Court,76065,32.5254737,-97.0725964
3640,William Crt,76065,32.5252288,-97.0738067
10864,Oran Lane,76065,32.5232716,-97.0726116
10863,Eva Mae Boulevard,76065,32.5231380,-97.0730268
10864,Eva Mae Boulevard,76065,32.5215365,-97.0733312
10862,Eva Mae Boulevard,76065,32.5223095,-97.0733048
10912,Rochelle Crt,76065,32.5222629,-97.0726357
3607,Twin Pines Drive,76065,32.5349642,-97.0699076
3727,Rolling Meadows Drive,76065,32.5312913,-97.0754737
10638,Cherry Tree Way,76065,32.5289397,-97.0755861
3743,Walnut Ridge Drive,76065,32.5280393,-97.0741769
3747,Walnut Ridge Drive,76065,32.5280372,-97.0743782
10722,Cherry Tree Way,76065,32.5272117,-97.0755489
3624,William Crt,76065,32.5254329,-97.0730129
3503,Randall Terrace,76065,32.5254762,-97.0701645
3507,Randall Terrace,76065,32.5252601,-97.0704027
10852,Oran Lane,76065,32.5236809,-97.0727918
10844,Eva Mae Boulevard,76065,32.5236200,-97.0738140
10907,Rochelle Crt,76065,32.5226870,-97.0726550
10920,Rochelle Crt,76065,32.5219448,-97.0724201
3624,Rolling Meadows Drive,76065,32.5337907,-97.0706870
3664,Twin Pines Drive,76065,32.5333486,-97.0724481
3641,Walnut Ridge Drive,76065,32.5298493,-97.0710982
3664,Walnut Ridge Drive,76065,32.5294510,-97.0722015
3665,Walnut Ridge Drive,76065,32.5290836,-97.0718963
3615,Wintergreen Street,76065,32.5350633,-97.0711366
3636,Hidden Hollow Drive,76065,32.5351377,-97.0730504
10407,Walnut Ridge Drive,76065,32.5364029,-97.0669491
3544,Walnut Ridge Drive,76065,32.5329477,-97.0697138
2710,Melissa Court,75104,32.5450874,-97.0126075
5101,North Highway 287,76065,32.5064364,-97.0540154
10446,Walnut Ridge Drive,76065,32.5344285,-97.0666124
3407,April Breeze Trail,76065,32.5373937,-97.0671308
10602,Cherry Tree Way,76065,32.5305320,-97.0756420
3632,Walnut Ridge Drive,76065,32.5304838,-97.0711277
3719,Highland Woods Drive,76065,32.5302211,-97.0747968
10603,Cherry Tree Way,76065,32.5302571,-97.0750842
10112,Walnut Ridge Drive,76065,32.5403550,-97.0665124
10116,Walnut Ridge Drive,76065,32.5401496,-97.0665065
3415,Tree Shadow Lane,76065,32.5397755,-97.0677384
10204,Walnut Ridge Drive,76065,32.5395345,-97.0664853
3424,Hidden Hollow Drive,76065,32.5393910,-97.0682437
3444,Hidden Hollow Drive,76065,32.5388542,-97.0697198
10220,Walnut Ridge Drive,76065,32.5387065,-97.0664603
3432,Evergreen Way,76065,32.5385091,-97.0684726
3436,Evergreen Way,76065,32.5384372,-97.0686837
3460,Hidden Hollow Drive,76065,32.5382757,-97.0704628
3455,Hidden Hollow Drive,76065,32.5380646,-97.0699484
3467,Hidden Hollow Drive,76065,32.5375763,-97.0704124
10951,Eva Mae Boulevard,76065,32.5204971,-97.0722447
3620,Rainwater Trail,76065,32.5366518,-97.0726094
3612,Hidden Hollow Drive,76065,32.5359448,-97.0722140
3620,Hidden Hollow Drive,76065,32.5356756,-97.0724913
3635,Orchard Street,76065,32.5297786,-97.0723347
3649,Walnut Ridge Drive,76065,32.5295945,-97.0713634
3669,Walnut Ridge Drive,76065,32.5289552,-97.0720282
3412,Burningtree Lane,76065,32.5410479,-97.0672925
3624,Randall Terrace,76065,32.5246464,-97.0728297
10827,Oran Lane,76065,32.5246434,-97.0723180
3636,Randall Terrace,76065,32.5245131,-97.0733776
3640,Randall Terrace,76065,32.5244581,-97.0735368
10824,Eva Mae Boulevard,76065,32.5243394,-97.0741396
10848,Oran Lane,76065,32.5238135,-97.0728355
3636,Rainwater Trail,76065,32.5360592,-97.0733603
3652,Hidden Hollow Drive,76065,32.5345888,-97.0736329
3632,Twin Pines Drive,76065,32.5344502,-97.0712560
3619,Rolling Meadows Drive,76065,32.5336152,-97.0701339
3635,Rolling Meadows Drive,76065,32.5330804,-97.0706908
3712,Twin Pines Drive,76065,32.5325900,-97.0744445
3651,Rolling Meadows Drive,76065,32.5325018,-97.0712808
3703,Twin Pines Drive,76065,32.5321266,-97.0739515
3663,Rolling Meadows Drive,76065,32.5320564,-97.0717424
3680,Rolling Meadows Drive,76065,32.5318500,-97.0729522
3688,Rolling Meadows Drive,76065,32.5318000,-97.0734779
3630,Orchard Street,76065,32.5304531,-97.0723265
3634,Orchard Street,76065,32.5303255,-97.0724602
3711,Highland Woods Drive,76065,32.5302239,-97.0743602
3423,Burningtree Lane,76065,32.5405603,-97.0682496
3424,Tree Shadow Lane,76065,32.5402308,-97.0682378
3436,Hidden Hollow Drive,76065,32.5390784,-97.0692876
3427,Hidden Hollow Drive,76065,32.5388613,-97.0684602
3424,Evergreen Way,76065,32.5386098,-97.0680370
10224,Walnut Ridge Drive,76065,32.5384999,-97.0664543
3463,Hidden Hollow Drive,76065,32.5377374,-97.0702626
3476,Hidden Hollow Drive,76065,32.5376259,-97.0710694
10311,Elmcreek Lane,76065,32.5367664,-97.0705733
3436,April Breeze Trail,76065,32.5375361,-97.0686536
3440,April Breeze Trail,76065,32.5374187,-97.0688319
3403,April Breeze Trail,76065,32.5373977,-97.0669032
3444,April Breeze Trail,76065,32.5372833,-97.0689902
10406,Walnut Ridge Drive,76065,32.5365500,-97.0663927
3707,Twin Pines Drive,76065,32.5321244,-97.0741850
3608,Twin Pines Drive,76065,32.5352636,-97.0704084
3683,Twin Pines Drive,76065,32.5322783,-97.0728047
10512,Hidden Hollow Drive,76065,32.5319672,-97.0736243
10507,Forest Glen Lane,76065,32.5321471,-97.0756229
3671,Rolling Meadows Drive,76065,32.5317473,-97.0720596
3610,Orchard Street,76065,32.5311183,-97.0716254
3624,Walnut Ridge Drive,76065,32.5308269,-97.0709100
3628,Walnut Ridge Drive,76065,32.5306455,-97.0710009
3640,Walnut Ridge Drive,76065,32.5302189,-97.0714012
3427,Burningtree Lane,76065,32.5405545,-97.0684927
3431,Burningtree Lane,76065,32.5405453,-97.0687523
10208,Walnut Ridge Drive,76065,32.5393281,-97.0664793
3419,Evergreen Way,76065,32.5381664,-97.0677948
3443,Evergreen Way,76065,32.5377204,-97.0690137
3451,Evergreen Way,76065,32.5374554,-97.0693296
3659,Hidden Hollow Drive,76065,32.5338780,-97.0732618
3608,Hidden Hollow Drive,76065,32.5360793,-97.0720744
3706,Crabapple Lane,76065,32.5342421,-97.0741017
3719,Crabapple Lane,76065,32.5337162,-97.0749373
3723,Crabapple Lane,76065,32.5337133,-97.0751616
10438,Walnut Ridge Drive,76065,32.5348612,-97.0664128
10308,Walnut Ridge Drive,76065,32.5375699,-97.0664248
3672,Rolling Meadows Drive,76065,32.5320599,-97.0724908
3646,Orchard Street,76065,32.5299420,-97.0728599
3716,Walnut Ridge Drive,76065,32.5285070,-97.0735287
3439,Evergreen Way,76065,32.5378332,-97.0688334
10804,Eva Mae Boulevard,76065,32.5250589,-97.0742859
3628,Twin Pines Drive,76065,32.5345840,-97.0711173
3631,Twin Pines Drive,76065,32.5341433,-97.0708396
3620,Rolling Meadows Drive,76065,32.5339248,-97.0705484
3672,Twin Pines Drive,76065,32.5330677,-97.0727774
3703,Rolling Meadows Drive,76065,32.5313368,-97.0739532
3707,Rolling Meadows Drive,76065,32.5313299,-97.0741905
3715,Rolling Meadows Drive,76065,32.5313259,-97.0746578
2203,Alyssum Drive,75104,32.5442239,-97.0131683
2235,Alyssum Drive,75104,32.5411873,-97.0131803
2652,Wells Court,75104,32.5482019,-97.0124808
3611,Walnut Ridge Drive,76065,32.5315394,-97.0701918
3602,Orchard Street,76065,32.5313355,-97.0711515
10607,Cherry Tree Way,76065,32.5300618,-97.0750819
10646,Cherry Tree Way,76065,32.5285977,-97.0755827
3724,Walnut Ridge Drive,76065,32.5284824,-97.0739532
3608,William Crt,76065,32.5254980,-97.0721568
3628,William Crt,76065,32.5253972,-97.0732184
3627,William Crt,76065,32.5249600,-97.0730502
10840,Eva Mae Boulevard,76065,32.5237537,-97.0738737
10852,Eva Mae Boulevard,76065,32.5233636,-97.0736970
10911,Rochelle Crt,76065,32.5227773,-97.0723959
3535,Walnut Ridge Drive,76065,32.5328454,-97.0690589
3556,Walnut Ridge Drive,76065,32.5324752,-97.0702082
3616,Rolling Meadows Drive,76065,32.5340589,-97.0704079
3711,Rolling Meadows Drive,76065,32.5313276,-97.0744245
2239,Alyssum Drive,75104,32.5408053,-97.0132284
2259,Alyssum Drive,75104,32.5390188,-97.0132606
3616,Walnut Ridge Drive,76065,32.5315568,-97.0707579
3719,Walnut Ridge Drive,76065,32.5282214,-97.0729451
3727,Walnut Ridge Drive,76065,32.5280891,-97.0733458
10758,Cherry Tree Way,76065,32.5254850,-97.0752382
10448,Woodmoor Lane,76065,32.5344558,-97.0694800
3623,Twin Pines Drive,76065,32.5344107,-97.0705626
3608,Rolling Meadows Drive,76065,32.5343374,-97.0701200
3612,Rolling Meadows Drive,76065,32.5341927,-97.0702690
3640,Twin Pines Drive,76065,32.5341809,-97.0715352
3635,Twin Pines Drive,76065,32.5340099,-97.0709801
3651,Twin Pines Drive,76065,32.5334636,-97.0715471
3659,Twin Pines Drive,76065,32.5331928,-97.0718235
3708,Rolling Meadows Drive,76065,32.5317972,-97.0741806
3675,Rolling Meadows Drive,76065,32.5315934,-97.0722474
3719,Rolling Meadows Drive,76065,32.5313244,-97.0748916
10607,Hidden Hollow Drive,76065,32.5294405,-97.0732196
3661,Walnut Ridge Drive,76065,32.5292108,-97.0717615
2223,Alyssum Drive,75104,32.5423919,-97.0131997
3702,Autumncrest Street,76065,32.5333921,-97.0740238
3632,Hidden Hollow Drive,76065,32.5352711,-97.0729115
10402,Firewood Way,76065,32.5348540,-97.0756896
3679,Rainwater Trail,76065,32.5345096,-97.0751524
3427,Cornerstone Lane,76065,32.5358505,-97.0684490
3528,Walnut Ridge Drive,76065,32.5335776,-97.0690568
2714,Mandy Court,75104,32.5467165,-97.0131572
10618,Cherry Tree Way,76065,32.5297891,-97.0755952
3653,Walnut Ridge Drive,76065,32.5294668,-97.0714963
10631,Cherry Tree Way,76065,32.5290418,-97.0750693
10202,Walnut Ridge Drive,76065,32.5396874,-97.0694496
10823,Oran Lane,76065,32.5248392,-97.0723719
3664,Rainwater Trail,76065,32.5350543,-97.0746064
3632,Wintergreen Street,76065,32.5348089,-97.0721414
3663,Rainwater Trail,76065,32.5347191,-97.0741353
3627,Wintergreen Street,76065,32.5346565,-97.0715596
3675,Rainwater Trail,76065,32.5345164,-97.0748836
3424,Cornerstone Lane,76065,32.5369127,-97.0680714
3443,April Breeze Trail,76065,32.5366551,-97.0688741
3440,Cornerstone Lane,76065,32.5363118,-97.0686969
3619,Walnut Ridge Drive,76065,32.5311465,-97.0702863
3720,Highland Woods Drive,76065,32.5306591,-97.0747760
3416,Hidden Hollow Drive,76065,32.5394490,-97.0677353
3423,Hidden Hollow Drive,76065,32.5389166,-97.0682166
3439,Hidden Hollow Drive,76065,32.5386038,-97.0691593
3456,Hidden Hollow Drive,76065,32.5384346,-97.0702954
3447,Hidden Hollow Drive,76065,32.5383575,-97.0695775
3403,Evergreen Way,76065,32.5381944,-97.0669392
3415,Evergreen Way,76065,32.5381823,-97.0675751
3448,Evergreen Way,76065,32.5381441,-97.0692690
10523,Firefly Court,76065,32.5328313,-97.0670603
10527,Firefly Court,76065,32.5327420,-97.0668062
10535,Firefly Court,76065,32.5324665,-97.0664299
10419,Walnut Ridge Drive,76065,32.5357873,-97.0669395
3716,Double Oak Avenue,76065,32.5316104,-97.0753764
3664,Rolling Meadows Drive,76065,32.5323670,-97.0721589
10619,Cherry Tree Way,76065,32.5295527,-97.0750753
10104,Walnut Ridge Drive,76065,32.5408789,-97.0664977
10351,Elmcreek Lane,76065,32.5356222,-97.0688484
3411,Cornerstone Lane,76065,32.5365955,-97.0672537
3423,Cornerstone Lane,76065,32.5363938,-97.0679302
10889,Davis Drive,76065,32.5231872,-97.0767907
10860,Davis Drive,76065,32.5239796,-97.0795830
3712,Highland Woods Drive,76065,32.5306620,-97.0743737
3716,Highland Woods Drive,76065,32.5306609,-97.0745748
3626,Orchard Street,76065,32.5305810,-97.0721957
3419,Tree Shadow Lane,76065,32.5397635,-97.0679803
10124,Walnut Ridge Drive,76065,32.5397385,-97.0664914
3428,Hidden Hollow Drive,76065,32.5393230,-97.0685642
3416,Evergreen Way,76065,32.5386532,-97.0675911
3452,Hidden Hollow Drive,76065,32.5385843,-97.0701142
10228,Walnut Ridge Drive,76065,32.5382910,-97.0664477
3411,Evergreen Way,76065,32.5381854,-97.0673615
3471,Hidden Hollow Drive,76065,32.5373735,-97.0706020
10754,Cherry Tree Way,76065,32.5255118,-97.0755128
3647,Rainwater Trail,76065,32.5353043,-97.0733960
3718,Autumncrest Street,76065,32.5333858,-97.0749327
3616,Rainwater Trail,76065,32.5367130,-97.0723469
3604,Rainwater Trail,76065,32.5365439,-97.0715473
3639,Wintergreen Street,76065,32.5342516,-97.0719787
10418,Walnut Ridge Drive,76065,32.5359366,-97.0663879
3404,Cornerstone Lane,76065,32.5370696,-97.0669084
10515,Firefly Court,76065,32.5328668,-97.0675689
3607,Rolling Meadows Drive,76065,32.5340181,-97.0697148
3611,Rolling Meadows Drive,76065,32.5338849,-97.0698540
10504,Firefly Court,76065,32.5333157,-97.0676981
3704,Rolling Meadows Drive,76065,32.5317989,-97.0739483
3716,Twin Pines Drive,76065,32.5325875,-97.0746767
10503,Forest Glen Lane,76065,32.5324135,-97.0756649
10750,Cherry Tree Way,76065,32.5260240,-97.0755116
3632,William Crt,76065,32.5253504,-97.0734203
3644,William Crt,76065,32.5251640,-97.0739975
3631,William Crt,76065,32.5249251,-97.0732146
10923,Eva Mae Boulevard,76065,32.5216456,-97.0727683
10927,Eva Mae Boulevard,76065,32.5215191,-97.0727059
3647,Hidden Hollow Drive,76065,32.5344012,-97.0730439
3611,Twin Pines Drive,76065,32.5348085,-97.0700925
3647,Twin Pines Drive,76065,32.5336080,-97.0713984
3632,Rolling Meadows Drive,76065,32.5335231,-97.0709663
3668,Twin Pines Drive,76065,32.5332068,-97.0726122
2207,Alyssum Drive,75104,32.5438211,-97.0131739
5115,Lake Ridge Parkway,75052,32.6513597,-97.0438454
2100,East Main Street,75050,32.7500169,-96.9754359
530,Jesse Street,75051,32.7355801,-97.0409398
2625,West Pioneer Parkway,75051,32.7101627,-97.0462310
1607,Pebble Beach Lane,75104,32.5591314,-97.0125181
1201,East Avenue J,75050,32.7678350,-97.0444395
1001,Performance Place,75050,32.7668223,-96.9824316
3000,Riverside Parkway,75050,32.8041008,-97.0606013
1570,FM 1382,75104,32.6099877,-96.9963982
3202,Southeast 14th Street,75052,32.6997208,-96.9801801
4215,South Carrier Parkway,75052,32.6709848,-97.0046129
4215,South Carrier Parkway,75052,32.6712542,-97.0033551
2602,Mayfield Road,75052,32.6966336,-97.0523865
3865,South Carrier Parkway,75052,32.6780810,-97.0049337
505,Fountain Parkway,75050,32.7785565,-97.0564164
802,South Carrier Parkway,75051,32.7365094,-97.0156528
765,West Westchester Parkway,75052,32.6713575,-97.0130948
3845,South Carrier Parkway,75052,32.6789699,-97.0063291
2710,North State Highway 360,75050,32.7955499,-97.0553647
421,Pioneer Parkway,75051,32.7091095,-97.0075650
1404,North State Highway 161,75050,32.7579293,-97.0280475
1109,North Carrier Parkway,75050,32.7557053,-97.0195305
301,West Warrior Trail,75052,32.6952944,-97.0056221
575,Dickey Road,75051,32.7275774,-97.0118902
2410,North Carrier Parkway,75050,32.7848402,-97.0268913
2122,North Carrier Parkway,75050,32.7711914,-97.0244570
1600,Lone Star Parkway,75050,32.7683544,-96.9859691
3000,Hardrock Road,75050,32.8027680,-97.0197538
101,Gopher Boulevard,75050,32.7539666,-97.0022497
101,Gopher Boulevard,75050,32.7544534,-97.0033848
101,High School Drive,75050,32.7552490,-97.0023059
101,High School Drive,75050,32.7543694,-97.0042664
180,Pioneer Parkway,75051,32.7102072,-97.0045129
202,Pioneer Parkway,75051,32.7099957,-97.0054702
381,West Pioneer Parkway,75051,32.7091415,-97.0055708
310,Southwest 3rd Street,75051,32.7422786,-97.0053344
425,Alice Drive,75051,32.7371881,-97.0068515
201,Freetown Road,75051,32.7128671,-97.0053461
2305,Corn Valley Road,75051,32.7124532,-97.0034865
2205,Southeast 4th Street,75051,32.7121583,-97.0002260
2330,Southeast 4th Street,75051,32.7111045,-97.0020951
801,Southwest 19th Street,75051,32.7330487,-97.0301164
305,West Warrior Trail,75052,32.6969766,-97.0067510
3116,South Great Southwest Parkway,75052,32.6987904,-97.0463741
106,West Church Street,75050,32.7473866,-97.0047406
602,Dalworth Street,75050,32.7448022,-97.0107469
301,West Marshall Drive,75051,32.7200602,-97.0067550
505,Dickey Road,75051,32.7283533,-97.0087748
1100,Southwest 3rd Street,75051,32.7302273,-97.0048606
801,TX 161,75051,32.7404645,-97.0186991
1502,College Street,75050,32.7482628,-97.0237632
1500,Hill Street,75050,32.7505919,-97.0242279
833,West Tarrant Road,75050,32.7578225,-97.0162496
833,West Tarrant Road,75050,32.7577193,-97.0171587
317,College Street,75051,32.7471137,-97.0072297
300,West Main Street,75050,32.7457079,-97.0069104
554,West Interstate 20,75052,32.6783333,-97.0100964
3850,South Carrier Parkway,75052,32.6788036,-97.0087805
3970,South Carrier Parkway,75052,32.6775076,-97.0074490
3504,Corn Valley Road,75052,32.6864160,-97.0050467
3001,South Belt Line Road,75052,32.6970836,-96.9925894
2170,North Belt Line Road,75050,32.7725705,-96.9940505
120,East Main Street,75050,32.7458407,-97.0025089
222,South Center Street,75051,32.7439257,-97.0028736
215,South Center Street,75051,32.7438464,-97.0038826
121,East Main Street,75050,32.7453375,-97.0025440
101,East Main Street,75050,32.7452170,-97.0031369
106,East Main Street,75050,32.7457322,-97.0032439
114,West Main Street,75050,32.7457456,-97.0042505
106,West Main Street,75050,32.7457148,-97.0039568
102,West Main Street,75050,32.7457232,-97.0037555
105,North Center Street,75050,32.7458813,-97.0037988
113,Northeast 2nd Street,75050,32.7462702,-97.0022867
122,East Church Street,75050,32.7471180,-97.0027664
125,East Church Street,75050,32.7466785,-97.0027182
122,North Center Street,75050,32.7462694,-97.0031417
124,North Center Street,75050,32.7465615,-97.0030831
121,North Center Street,75050,32.7464909,-97.0039323
901,Conover Drive,75051,32.7375428,-97.0174085
925,Conover Drive,75051,32.7375228,-97.0184843
514,South Carrier Parkway,75051,32.7403001,-97.0169454
507,South Carrier Parkway,75051,32.7413653,-97.0145650
901,West Jefferson Street,75051,32.7410205,-97.0158581
110,Northwest 2nd Street,75051,32.7460715,-97.0047314
325,East Main Street,75050,32.7453636,-97.0002014
425,East Main Street,75050,32.7453478,-96.9985936
302,East Main Street,75050,32.7460839,-97.0009399
3829,South Carrier Parkway,75052,32.6796640,-97.0062828
412,Westchase Drive,75052,32.6737722,-97.0036365
510,East Westchester Parkway,75052,32.6727213,-97.0037981
4203,South Carrier Parkway,75052,32.6714610,-97.0048092
3041,West Camp Wisdom Road,75052,32.6477825,-97.0587255
132,East Main Street,75050,32.7458564,-97.0021822
101,High School Drive,75050,32.7544002,-97.0036573
201,West Tarrant Road,75050,32.7551773,-97.0070914
202,West Tarrant Road,75050,32.7565641,-97.0062237
425,West Jefferson Street,75051,32.7433957,-97.0079494
1701,West Jefferson Street,75051,32.7393643,-97.0267966
1940,Avenue D,75052,32.7159265,-96.9803705
1390,East Warrior Trail,75052,32.6999072,-96.9860668
1702,Robinson Road,75051,32.7226365,-97.0200663
423,East Pioneer Parkway,75051,32.7089746,-96.9996753
145,West Pioneer Parkway,75051,32.7081079,-97.0042887
102,West Pioneer Parkway,75051,32.7099408,-97.0028380
130,West Pioneer Parkway,75051,32.7099552,-97.0040103
206,West Church Street,75050,32.7473769,-97.0058457
310,College Street,75050,32.7485857,-97.0070935
200,West Main Street,75050,32.7457246,-97.0055147
210,West Main Street,75050,32.7462939,-97.0055584
376,Northeast 5th Street,75050,32.7530198,-96.9965037
3400,Corn Valley Road,75052,32.6914304,-97.0086525
3502,Country Club Drive,75052,32.6841545,-96.9930369
211,Southwest 3rd Street,75051,32.7438560,-97.0061550
221,Southwest 3rd Street,75051,32.7433736,-97.0061393
900,Desco Lane,75051,32.7349257,-97.0170818
915,Desco Lane,75051,32.7329393,-97.0170555
915,Desco Lane,75051,32.7323370,-97.0179086
915,Desco Lane,75051,32.7320607,-97.0171055
915,Desco Lane,75051,32.7323157,-97.0162268
915,Desco Lane,75051,32.7328566,-97.0167780
915,Desco Lane,75051,32.7328550,-97.0173640
915,Desco Lane,75051,32.7334981,-97.0177341
915,Desco Lane,75051,32.7335140,-97.0163873
915,Desco Lane,75051,32.7336848,-97.0170471
1008,South Belt Line Road,75051,32.7343562,-96.9951445
1012,South Belt Line Road,75051,32.7346845,-96.9955949
1014,South Belt Line Road,75051,32.7343061,-96.9955949
1024,South Belt Line Road,75051,32.7339905,-96.9957029
1026,South Belt Line Road,75051,32.7337485,-96.9951664
1028,South Belt Line Road,75051,32.7337440,-96.9946984
1022,South Belt Line Road,75051,32.7341290,-96.9951164
1020,South Belt Line Road,75051,32.7341265,-96.9947049
1018,South Belt Line Road,75051,32.7344415,-96.9947117
1016,South Belt Line Road,75051,32.7344460,-96.9951264
1010,South Belt Line Road,75051,32.7347680,-96.9949949
514,Skyline Road,75051,32.7394271,-96.9984702
1015,South Belt Line Road,75051,32.7335475,-96.9935615
1038,Freetown Road,75051,32.7139581,-97.0191307
980,West Pioneer Parkway,75051,32.7102450,-97.0189840
2502,South Carrier Parkway,75052,32.7090668,-97.0159795
610,South Carrier Parkway,75051,32.7386682,-97.0149898
820,South Carrier Parkway,75051,32.7359555,-97.0151173
824,South Carrier Parkway,75051,32.7357007,-97.0151006
844,South Carrier Parkway,75051,32.7346460,-97.0152073
832,South Carrier Parkway,75051,32.7352413,-97.0155415
840,South Carrier Parkway,75051,32.7350002,-97.0150982
838,South Carrier Parkway,75051,32.7352361,-97.0150948
900,South Carrier Parkway,75051,32.7342785,-97.0151491
215,North Carrier Parkway,75051,32.7438910,-97.0181925
2129,Southwest 3rd Street,75051,32.7137129,-97.0070615
2004,Oak Lane,75051,32.7109226,-97.0037670
1450,Southeast 4th Street,75051,32.7257829,-96.9999630
1713,South Belt Line Road,75051,32.7217224,-96.9954332
3410,Kirby Creek Drive,75052,32.6883806,-97.0071545
3201,Corn Valley Road,75052,32.6944399,-97.0039047
3113,South Carrier Parkway,75052,32.6974722,-97.0138501
5700,Lake Ridge Parkway,75052,32.6306134,-97.0400293
5700,Lake Ridge Parkway,75052,32.6294908,-97.0391174
7121,North Arlington Webb Britton Road,75052,32.6059151,-97.0521668
3401,Ragland Road,75052,32.6047450,-97.0677296
321,West Main Street,75050,32.7450266,-97.0074287
315,East Main Street,75050,32.7452284,-97.0006715
201,Skyline Circle,75050,32.7507408,-96.9799220
1100,West Main Street,75051,32.7421432,-97.0192302
426,East Church Street,75050,32.7466513,-96.9987184
814,Tamara Lane,75051,32.7364667,-97.0083178
802,Tamara Lane,75051,32.7369673,-97.0081845
800,Southwest 3rd Street,75051,32.7371789,-97.0049821
412,East Main Street,75050,32.7458910,-96.9993401
402,West Main Street,75050,32.7456482,-97.0079523
1,East Park Square Road,75050,32.7516824,-96.9978364
424,East Pioneer Parkway,75051,32.7100156,-96.9996229
500,East Pioneer Parkway,75051,32.7099960,-96.9984586
1401,North State Highway 161,75050,32.7578326,-97.0274480
3970,South Beltline Road,75052,32.6740278,-96.9846973
3980,South Beltline Road,75052,32.6735263,-96.9844511
308,Westchase Drive,75052,32.6736853,-97.0057459
404,Westchase Drive,75052,32.6735968,-97.0051655
408,Westchase Drive,75052,32.6736311,-97.0047134
4095,South Carrier Parkway,75052,32.6738492,-97.0061862
511,East Springdale Lane,75052,32.7025015,-96.9971630
650,Stonewall Drive,75051,32.7007435,-97.0109418
640,Stonewall Drive,75051,32.7007326,-97.0091366
1204,East Marshall Drive,75051,32.7218262,-96.9880549
1635,Southeast 14th Street,75051,32.7243440,-96.9869671
3320,South Edelweiss Drive,75052,32.6927537,-96.9924168
1501,Coffeyville Trail,75052,32.6541898,-97.0232571
525,Northeast 15th Street,75050,32.7517659,-96.9873598
1160,West Warrior Trail,75052,32.6994484,-97.0211579
4616,Bardin Road,75052,32.6606893,-96.9941836
2800,Reforma Drive,75052,32.7022078,-96.9891435
5009,South Carrier Parkway,75052,32.6511816,-97.0059939
1851,West Camp Wisdom Road,75052,32.6448790,-97.0291387
3150,Waterwood Drive,75052,32.6934036,-97.0299438
401,East Grand Prairie Road,75051,32.7411749,-96.9991294
102,Gopher Boulevard,75050,32.7534483,-97.0036130
101,Gopher Boulevard,75050,32.7535508,-97.0037626
102,Gopher Boulevard,75050,32.7536492,-97.0049377
145,Polo Road,75052,32.6567619,-97.0104585
2444,Graham Street,75050,32.7567688,-96.9686487
4213,South Robinson Road,75052,32.6700554,-97.0138046
301,Northeast 28th Street,75051,32.7518831,-96.9645832
2030,Proctor Drive,75051,32.7174954,-97.0130299
2102,North Carrier Parkway,75050,32.7693388,-97.0222067
2990,South Highway 161,75052,32.7009187,-97.0231366
1902,Palmer Trail,75052,32.6548830,-97.0305859
1100,North Carrier Parkway,75050,32.7565368,-97.0186201
1340,Skyline Road,75052,32.7337917,-96.9902905
1301,East Coral Way,75051,32.7176910,-96.9879596
815,Northwest 7th Street,75050,32.7504406,-97.0132895
2911,Kingswood Boulevard,75052,32.6601121,-97.0588671
2675,Fairmont Drive,75052,32.6612202,-97.0468257
2720,Fall Drive,75052,32.7045680,-97.0370868
755,Timber Oaks Lane,75051,32.7295514,-97.0504821
2620,East Avenue K,75050,32.7718792,-97.0443911
3410,Paladium Drive,75052,32.6867024,-97.0526170
2810,Prairie Hill Lane,75051,32.7289619,-97.0554031
3140,South Camino Lagos Drive,75054,32.5816954,-97.0554929
2607,North Grand Peninsula Drive,75054,32.6063971,-97.0457522
6080,Mirabella Boulevard,75052,32.6280401,-97.0663298
2506,North Forty Circle,76006,32.7760067,-97.0636921
1991,North State Highway 360,75050,32.7815620,-97.0617668
2706,Heather Hill Court,76006,32.7832183,-97.0630572
2625,North State Highway 360,75050,32.7951048,-97.0581803
2825,North State Highway 360,75050,32.8010299,-97.0565194
2775,North State Highway 360,75050,32.7977810,-97.0573321
2455,West Tarrant Road,75050,32.7561245,-97.0360260
1960,West Tarrant Road,75050,32.7581222,-97.0355767
1920,West Tarrant Road,75050,32.7580839,-97.0318980
600,East Avenue J Street,75050,32.7686724,-97.0615964
2301,Avenue H East,75050,32.7621663,-97.0335526
1601,West North Carrier Parkway,75050,32.7850004,-97.0330543
3980,South Beltline Road,75052,32.6735669,-96.9847400
4004,South Belt Line Road,75052,32.6711495,-96.9859275
4010,South Beltline Road,75052,32.6703735,-96.9857612
4010,South Beltline Road,75052,32.6704198,-96.9859854
220,West Westchester Parkway,75052,32.6731523,-97.0087007
4095,South Carrier Parkway,75052,32.6737239,-97.0061858
1110,North Belt Line Road,75050,32.7596811,-96.9939414
1110,North Belt Line Road,75050,32.7597085,-96.9943138
905,North Belt Line Road,75050,32.7569142,-96.9954496
915,North Belt Line Road,75050,32.7572131,-96.9956050
925,North Belt Line Road,75050,32.7577470,-96.9957372
918,North Beltline,75050,32.7576288,-96.9944451
928,North Belt Line Road,75050,32.7579193,-96.9944088
601,East Palace Parkway,75050,32.7604695,-97.0037126
401,East Palace Parkway,75050,32.7606731,-97.0051229
2650,South State Highway 161,75052,32.7070135,-97.0207918
2625,West Pioneer Parkway,75051,32.7097837,-97.0462645
5203,Lake Ridge Parkway,75052,32.6472916,-97.0447824
2404,North Carrier Parkway,75050,32.7807148,-97.0274998
2001,South Great Southwest Parkway,75051,32.7167650,-97.0423715
2991,South Highway 360,75052,32.6931005,-97.0614115
2987,State Highway 360,75052,32.6936493,-97.0615175
2709,Hospital Boulevard,75051,32.7328280,-97.0493846
2250,Lion Country Parkway,75050,32.7747123,-96.9979298
720,Commerce Park Drive,75050,32.7731061,-96.9980618
700,Commerce Park Drive,75050,32.7730966,-97.0013718
2100,Refuge Way,75050,32.7705692,-97.0035557
1355,Seeton Road,75054,32.5692000,-97.0522109
2801,Northeast Green Oaks Boulevard,75050,32.7847510,-97.0626400
2815,Northeast Green Oaks Boulevard,75050,32.7850977,-97.0609621
2085,North Highway 360,75050,32.7843259,-97.0605735
2035,North State Highway 360,75050,32.7824045,-97.0611680
2075,North State Highway 360,75050,32.7837955,-97.0607188
2810,Northeast Green Oaks,75050,32.7858505,-97.0610071
1171,107th Street,75050,32.7647662,-97.0591212
1108,North State Highway 360,75050,32.7666906,-97.0616884
1110,North State Highway 360,75050,32.7667725,-97.0621735
1542,North State Highway 360,75050,32.7720104,-97.0605310
2050,North State Highway 360,75050,32.7837205,-97.0582116
2650,North Highway 360,75050,32.7949135,-97.0556329
2475,West Tarrant Road,75050,32.7566404,-97.0365987
2513,W. E. Roberts Street,75051,32.7345606,-97.0448486
2440,West Main Street,75050,32.7401978,-97.0408619
1000,IKEA Place,75052,32.6906092,-97.0221677
2970,Epic Place,75052,32.7021421,-97.0315250
705,East Wildlife Parkway,75050,32.7767255,-96.9977733
201,E Shady Grove Rd,75050,32.8044000,-97.0038855
1700,North State Highway 161,75050,32.7675976,-97.0272003
1609,Lancelot Circle,75050,32.7639508,-97.0273413
1604,Lancelot Circle,75050,32.7636423,-97.0267018
1601,Lancelot Circle,75050,32.7633733,-97.0274188
1605,Lancelot Circle,75050,32.7636618,-97.0275378
1600,Lancelot Circle,75050,32.7633818,-97.0268993
1608,Lancelot Circle,75050,32.7639438,-97.0269903
1610,North State Highway 161,75050,32.7638919,-97.0279316
1551,State Highway 161,75050,32.7620375,-97.0324248
402,East Palace Parkway,75050,32.7617180,-97.0067040
510,West Main Street,75050,32.7450795,-97.0100035
1206,West Main Street,75050,32.7422190,-97.0213654
1206,West Main Street,75050,32.7419072,-97.0213484
115,North Carrier Parkway,75050,32.7428508,-97.0163721
2950,I-20 Frontage Rd,75052,32.6791734,-97.0530831
2830,West Interstate 20,75052,32.6780807,-97.0533801
2559,Sara Jane Parkway,75052,32.6787086,-97.0438425
3915,South Great Southwest Parkway,75052,32.6782779,-97.0434420
2546,West Interstate 20,75052,32.6778666,-97.0426522
2490,West Interstate 20,75052,32.6775679,-97.0419371
2554,West Interstate 20,75052,32.6780386,-97.0429916
3891,South Great Southwest Parkway,75052,32.6793575,-97.0437324
301,West Highway 303,75051,32.7090362,-97.0021107
313,East Pioneer Parkway,75052,32.7082134,-97.0011769
1802,Dorothy Drive,75051,32.7202165,-97.0112685
1806,Dorothy Drive,75051,32.7200105,-97.0112605
1810,Dorothy Drive,75051,32.7198295,-97.0112715
1814,Dorothy Drive,75051,32.7196415,-97.0112860
301,West Marshall Drive,75051,32.7202041,-97.0068301
210,West Pioneer,75051,32.7099740,-97.0060903
1423,Small Street,75050,32.7483553,-96.9863475
925,East Main Street,75050,32.7459520,-96.9926416
1933,South State Highway 161,75051,32.7134420,-97.0229000
1933,South State Highway 161,75051,32.7134501,-97.0237432
4005,Lake Ridge Parkway,75052,32.6745740,-97.0228751
2131,West Interstate 20,75052,32.6748891,-97.0321406
4722,Alamo Court,75052,32.6571274,-97.0296941
3015,I 20 Frontage Road,75052,32.6755528,-97.0551378
2803,West Interstate 20,75052,32.6755396,-97.0523032
2525,West Interstate 20,75052,32.6734271,-97.0425935
2505,I 20 Frontage Road,75052,32.6750418,-97.0412307
2519,West Interstate 20,75052,32.6748828,-97.0420046
4050,South Great Southwest Parkway,75052,32.6728070,-97.0449086
4030,South Great Southwest Parkway,75052,32.6734315,-97.0448167
4020,Great Southwest Parkway,75052,32.6734244,-97.0453360
4025,South Great Southwest Parkway,75052-3829,32.6741336,-97.0437629
2325,West Interstate 20,75052,32.6732781,-97.0401185
2225,West Interstate 20,75052,32.6734427,-97.0361486
2123,West Interstate 20,75052,32.6748172,-97.0316187
3099,Parham Drive,75052,32.6894663,-97.0579003
2901,Mayfield Road,75052,32.6905467,-97.0601106
2530,Sara Jane Parkway,75052,32.6788434,-97.0413909
1933,South State Highway 161,75051,32.7135912,-97.0230800
3951,Dechman Drive,75052,32.6755932,-96.9963134
5208,South State Highway 360,75052,32.6463340,-97.0587444
5270,South State Highway 360,75052,32.6431019,-97.0599335
5280,South State Highway 360,75052,32.6416792,-97.0603535
5212,South State Highway 360,75052,32.6472337,-97.0604502
2327,Tyre Street,75051,32.7266126,-97.0378453
2934,Alouette Drive,75052,32.7037232,-97.0602481
2955,Alouette Drive,75052,32.7022319,-97.0606061
801,East Interstate 20,75052,32.6719423,-96.9959731
5728,Lakeview Drive,76065,32.5094345,-97.0640554
5394,Highway 287,76065,32.5078579,-97.0627702
5191,Highway 287,76065,32.5087758,-97.0575972
4775,Highway 287,76065,32.5040761,-97.0540142
3090,Outlet Parkway,75072,32.6832081,-97.0608558
3056,Commodore Drive,75052,32.6888514,-97.0602592
4112,South Carrier Parkway,75052,32.6740579,-97.0101956
3095,Kingswood Boulevard,75052,32.6607775,-97.0610455
3166,South Highway 161,75050,32.6924124,-97.0280624
4165,Magna Carta Boulevard,75052,32.6699527,-97.0596579
3030,Claremont Drive,75052,32.6703617,-97.0609107
3033,Bardin Road,75052,32.6721041,-97.0590507
3015,New York Avenue,75052,32.6265649,-97.0673436
1450,North State Highway 360,75050,32.7707155,-97.0589894
1441,Fish Creek Road,75052,32.6762285,-96.9881115
1750,West Tarrant Road,75050,32.7580580,-97.0258535
317,Westchase Drive,75052,32.6730475,-97.0049685
850,East Pioneer Parkway,75051-5348,32.7098036,-96.9929278
520,South Carrier Parkway,75051,32.7402760,-97.0152067
2948,Albares,75054,32.5850170,-97.0501194
3020,Bardin Road,75052,32.6750012,-97.0540522
2630,South State Highway 161,75052,32.7077243,-97.0237993
930,East I-30,75050,32.7596143,-96.9935101
315,Westchase Drive,75052,32.6729838,-97.0054669
702,Paddock Way Drive,75050,32.7886981,-97.0559258
380,East Palace Parkway,75050,32.7613499,-97.0067119
2755,West Interstate 20,75052,32.6755644,-97.0504859
2850,South State Highway 161,75052,32.7037511,-97.0228501
401,Jesse Street,75051,32.7379808,-97.0402070
606,West Palce Parkway,75050,32.7623070,-97.0088321
3655,Prairie Waters Drive,75052,32.6054741,-97.0735434
3651,Prairie Waters Drive,75052,32.6061590,-97.0715347
3015,I 20 Frontage Road,75052,32.6752087,-97.0551469
3095,Kingswood Boulevard,75052,32.6607709,-97.0610276
701,North Bagdad Road,75050,32.7570568,-96.9711339
2303,Dallas-Fort Worth Turnpike,75050,32.7587619,-96.9719486
2535,Gifford Street,75050,32.7584481,-96.9685059
2615,Gifford Street,75050,32.7590938,-96.9656227
2640,West Interstate 20,75052,32.6776501,-97.0481993
2620,South State Highway 161,75052,32.7083996,-97.0237989
2660,South State Highway 161,75052,32.7065131,-97.0236042
1215,Arkansas Lane,75052,32.7048979,-97.0231519
1205,Arkansas Lane,75052,32.7048972,-97.0226689
3120,South State Highway 161,75052,32.6953997,-97.0257964
222,North Center Street,75050,32.7471965,-97.0032351
330,Northwest 2nd Street,75050,32.7490748,-97.0049159
530,South Carrier Parkway,75051,32.7390103,-97.0148144
3949,South Belt Line Road,75052,32.6781395,-96.9858667
2205,Southeast 4th Street,75051,32.7118945,-96.9992842
1814,Egyptian Way,75050,32.7651951,-97.0268856
1410,North State Highway 161,75050,32.7584420,-97.0268310
