House number,Street name,Postal code,Latitude,Longitude
1501,Corsicana Highway,76645,32.0095280,-97.0937102
104,Northeast I-35 Frontage Road,76645,32.0156319,-97.0944473
104,Northeast I-35 Frontage Road,76645,32.0133576,-97.0922908
1301,Old Highway 77 South,76645,31.9933963,-97.1283794
320,South Covington Street,76645,32.0044261,-97.1311221
322,South Covington Street,76645,32.0042875,-97.1313972
324,South Covington Street,76645,32.0041466,-97.1316956
344,South Covington Street,76645,32.0037396,-97.1316869
346,South Covington Street,76645,32.0036606,-97.1316889
104,West Elm Street,76645,32.0109416,-97.1317273
1309,Corsicana Hwy,76645,32.0086103,-97.0999002
303,North Waco Street,76645,32.0155334,-97.1303804
403,South Waco Street,76645,32.0031851,-97.1295918
200,Corsicana Highway,76645,32.0039951,-97.1282826
104,Northeast I-35 Frontage Road,76645,32.0129014,-97.0945675
104,Northeast I-35 Frontage Road,76645,32.0123579,-97.0945664
102,Northeast I-35 Frontage Road,76645,32.0112128,-97.0942875
101,Southeast I-35 Frontage Road,76645,32.0105841,-97.0940073
103,Southeast I-35 Frontage Road,76645,32.0103237,-97.0940140
1506,Hillview Drive,76645,32.0104294,-97.0930546
1512,Hillview Drive,76645,32.0102827,-97.0915883
1509,Corsicana Highway,76645,32.0094779,-97.0916065
203,Outlet Drive,76645,32.0096751,-97.0906585
104,Northeast I-35 Frontage Road,76645,32.0141388,-97.0935324
1502,Corsicana Highway,76645,32.0082996,-97.0929216
1504,Corsicana Highway,76645,32.0084553,-97.0923742
1510,Corsicana Highway,76645,32.0086578,-97.0918123
1507,Corsicana Highway,76645,32.0093885,-97.0919594
1513,Old Brandon Road,76645,32.0180484,-97.0982810
1515,Old Brandon Road,76645,32.0177207,-97.0975318
303,Northwest I-35 Frontage Road,76645,32.0179987,-97.0968584
301,Northwest I-35 Frontage Road,76645,32.0176202,-97.0969897
221,Northwest I-35 Frontage Road,76645,32.0166859,-97.0966857
221,Northwest I-35 Frontage Road,76645,32.0166675,-97.0969054
1516,Old Brandon Road,76645,32.0165869,-97.0974510
219,Northwest I-35 Frontage Road,76645,32.0160574,-97.0967576
203,Northwest I-35 Frontage Road,76645,32.0122848,-97.0967036
101,Northwest I-35 Frontage Road,76645,32.0108770,-97.0966360
102,Southwest I-35 Frontage Road,76645,32.0097838,-97.0971636
200,Southwest I-35 Frontage Road,76645,32.0092361,-97.0973474
1402,Corsicana Highway,76645,32.0080005,-97.0975148
1406,Corsicana Highway,76645,32.0077330,-97.0972158
306,Southwest I-35 Frontage Road,76645,32.0070379,-97.0974294
404,Southwest I-35 Frontage Road,76645,32.0042510,-97.0972666
416,Southwest I-35 Frontage Road,76645,32.0032733,-97.0971766
401,Coke Street,76645,32.0042282,-97.0999111
307,Southeast I-35 Frontage Road,76645,32.0075160,-97.0930795
301,Coke Street,76645,32.0074869,-97.0983013
307,Coke Street,76645,32.0058155,-97.0983876
102,Dynasty Drive,76645,32.0186725,-97.0930506
302,Northeast I-35 Frontage Road,76645,32.0178991,-97.0944577
300,Northeast I-35 Frontage Road,76645,32.0175761,-97.0944779
100,Dynasty Drive,76645,32.0177384,-97.0937279
160,US Highway 77,76645,32.0454561,-97.0907515
201,Corsicana Highway,76645,32.0046528,-97.1282335
101,Circle Drive,76645,32.0128999,-97.0992265
120,South Waco Street,76645,32.0091184,-97.1309371
118,South Waco Street,76645,32.0098190,-97.1304300
68,West Elm Street,76645,32.0105165,-97.1311701
1,North Waco Street,76645,32.0112815,-97.1307285
100,West Franklin Street,76645,32.0121960,-97.1317245
300,East Franklin Street,76645,32.0111575,-97.1256460
200,East Elm Street,76645,32.0103587,-97.1282265
212,East Elm Street,76645,32.0102946,-97.1275193
300,East Elm Street,76645,32.0103650,-97.1263525
214,East Elm Street,76645,32.0104311,-97.1268103
225,East Elm Street,76645,32.0110270,-97.1271375
233,East Elm Street,76645,32.0109285,-97.1264780
234,South Waco Street,76645,32.0063885,-97.1307070
1600,Abbott Avenue,76645,31.9819642,-97.1277689
114,South Waco Street,76645,32.0101953,-97.1304928
1500,Corsicana Highway,76645,32.0081813,-97.0933506
309,Northwest I-35 Frontage Road,76645,32.0199635,-97.0972719
100,Highland Drive,76645,32.0187106,-97.0982082
109,Crestridge Drive,76645,32.0210230,-97.0989703
117,Jane Lane,76645,32.0150599,-97.1003952
211,Northwest I-35 Frontage Road,76645,32.0149278,-97.0974373
213,Northwest I-35 Frontage Road,76645,32.0153694,-97.0964918
1415,East Elm Street,76645,32.0108522,-97.0976966
207,Happy Lane,76645,32.0112975,-97.0985927
205,Happy Lane,76645,32.0110848,-97.0985563
203,Happy Lane,76645,32.0108623,-97.0985626
1413,East Elm Street,76645,32.0106576,-97.0985654
212,Happy Lane,76645,32.0118326,-97.0978208
1402,East Franklin Street,76645,32.0112251,-97.0978213
1400,Corsicana Highway,76645,32.0079432,-97.0981431
302,Coke Street,76645,32.0063131,-97.0992754
1000,Old Bynum Road,76645,31.9995107,-97.1090226
1100,Old Bynum Road,76645,31.9997016,-97.1043495
1031,Old Bynum Road,76645,32.0016751,-97.1074773
103,Country Club Road,76645,32.0123221,-97.1167414
703,East Franklin Street,76645,32.0117936,-97.1167391
231,East Elm Street,76645,32.0108899,-97.1266612
315,East Elm Street,76645,32.0111627,-97.1249096
210,East Walnut Street,76645,32.0079489,-97.1270054
1001,IKO Way,76645,32.0344349,-97.0990879
20,Lee Roy Jordan Drive,76645,32.0345123,-97.1029633
54,Lee Roy Jordan Drive,76645,32.0327897,-97.1018360
1504,Old Highway 77 North,76645,32.0321961,-97.1154494
1450,Old Highway 77 North,76645,32.0300637,-97.1165947
303,North Waco Street,76645,32.0154530,-97.1304930
127,East Franklin Street,76645,32.0120497,-97.1287030
217,East Franklin Street,76645,32.0120790,-97.1270762
60,West Elm Street,76645,32.0104442,-97.1308662
307,Northwest I-35 Frontage Road,76645,32.0191342,-97.0969092
1404,East Franklin Street,76645,32.0112973,-97.0974183
112,Lamar Drive,76645,32.0087610,-97.0855004
