House number,Street name,Postal code,Latitude,Longitude
110,Grapevine Hwy,76054,32.8711887,-97.1679406
1312,West Pipeline Road,76053,32.8241429,-97.1998930
777,Northeast Loop 820,76053,32.8232894,-97.2065099
450,Grapevine Highway,76053,32.8655584,-97.1749249
1101,Melbourne Road Suite 3074,76053,32.8306867,-97.1993017
1101,Melbourne Road,76053,32.8303100,-97.2010559
809,West Pipeline Road,76053,32.8226706,-97.1871991
825,Thousand Oaks Drive,76054,32.8405336,-97.1869435
1460,Precinct Line Road,76053,32.8380499,-97.1855610
1460,Precinct Line Road,76053,32.8382480,-97.1855526
1420,Precinct Line Road,76053,32.8372405,-97.1859079
1308,Precinct Line Road,76053,32.8355314,-97.1858666
1220,W Hurst Boulevard,76053,32.8095480,-97.1989601
1220,W Hurst Boulevard,76053,32.8095471,-97.1991475
1220,W Hurst Boulevard,76053,32.8095504,-97.1993426
1222,W Hurst Boulevard,76053,32.8094983,-97.1998105
1222,W Hurst Boulevard,76053,32.8095375,-97.1997258
1222,W Hurst Boulevard,76053,32.8095568,-97.1998906
1222,W Hurst Boulevard,76053,32.8095177,-97.2000822
847,NE Mall Boulevard,76053,32.8256285,-97.2029351
245,NE Mall Boulevard,76053,32.8255179,-97.2029348
841,NE Mall Boulevard,76053,32.8253748,-97.2029361
837,Northeast Mall Boulevard,76053,32.8252151,-97.2029323
833,NE Mall Boulevard,76053,32.8250835,-97.2029430
829,NE Mall Boulevard,76053,32.8248998,-97.2029417
1404,West Pipeline Road,76053,32.8242140,-97.2029038
1414,West Pipeline Road,76053,32.8241602,-97.2031296
1418,West Pipeline Road,76053,32.8241586,-97.2032105
1428,West Pipeline Road,76053,32.8241557,-97.2034458
1420,West Pipeline Road,76053,32.8241589,-97.2032801
1424,West Pipeline Road,76053,32.8241554,-97.2033668
1501,West Hurst Blvd,76053,32.8084034,-97.2082206
1501,West Hurst Blvd,76053,32.8084079,-97.2080583
1410,Precinct Line Road,76053,32.8366560,-97.1858297
1410,Precinct Line Road,76053,32.8367783,-97.1858284
750,West Pipeline Road,76053,32.8247382,-97.1860974
740,West Pipeline Road,76053,32.8247382,-97.1858617
736,West Pipeline Road,76053,32.8247149,-97.1857061
732,West Pipeline Road,76053,32.8247563,-97.1856152
712,West Pipeline Road,76053,32.8246723,-97.1842527
712,West Pipeline Road,76053,32.8246715,-97.1841906
850,West Pipeline Road,76053,32.8241575,-97.1903078
848,West Pipeline Road,76053,32.8241555,-97.1901537
846,West Pipeline Road,76053,32.8241653,-97.1900031
801,West Pipeline Road,76053,32.8233336,-97.1867853
803,Precinct Line Road,76053,32.8226677,-97.1867522
805A,Precinct Line Road,76053,32.8226505,-97.1868059
805B,Precinct Line Road,76053,32.8226508,-97.1868399
811A,West Pipeline Road,76053,32.8226578,-97.1877985
819,West Pipeline Road,76053,32.8226759,-97.1880101
1451,West Pipeline Road,76053,32.8223578,-97.2044598
1439,West Pipeline Road,76053,32.8223544,-97.2039821
1427,West Pipeline Road,76053,32.8223339,-97.2034760
725,Arcadia Street,76053,32.8221812,-97.2025502
1403,West Pipeline Road,76053,32.8223409,-97.2027605
9986,Grapevine Highway,76054,32.8535154,-97.1882450
755,Mid Cities Blvd,76054,32.8615456,-97.1848547
372,East Pipeline Road,76053,32.8220353,-97.1628792
700,Northeast Loop 820,76053,32.8211461,-97.2046454
1304,West Pipeline Road,76053,32.8241486,-97.1995543
1121,West Pipeline Road,76053,32.8232174,-97.1977542
547,Brown Trail,76053,32.8192062,-97.1648589
760,Airport Freeway,76054,32.8406632,-97.1840461
8260,Precinct Line Road,76182,32.8522222,-97.1856860
821,West Pipeline Road,76053,32.8233434,-97.1878923
825,West Pipeline Road,76053,32.8228237,-97.1885458
804,West Pipeline Road,76053,32.8239054,-97.1866751
700,West Bedford Euless Road,76053,32.8343555,-97.1830016
1601,Campus Drive,76054,32.8411869,-97.1921715
725,Arcadia Street,76053,32.8220400,-97.2025374
425,West Bedford Euless Road,76053,32.8336321,-97.1746693
669,Airport Freeway,76053,32.8387237,-97.1829879
125,West Harwood Road,76054,32.8491823,-97.1702263
606,Grapevine Highway,76054,32.8625355,-97.1785789
812,Northeast Mall Boulevard,76053,32.8245240,-97.2013546
828,Harwood Road,76054,32.8464323,-97.1918177
828,West Harwood Road,76054,32.8449959,-97.1913242
880,Northeast Mall Boulevard,76053,32.8263890,-97.2005866
1732,Precinct Line Road,76054,32.8476785,-97.1837899
1233,Precinct Line Road,76053,32.8331994,-97.1870863
1400,Precinct Line Road,76053,32.8364200,-97.1836987
780,West Bedford Euless Road,76053,32.8345594,-97.1854594
708,East Pipeline Road,76053,32.8226705,-97.1592504
612,Grapevine Highway,76054,32.8641788,-97.1798925
316,Grapevine Highway,76054,32.8692243,-97.1718463
6140,Precinct Line Road,76054,32.8608414,-97.1849353
612,Grapevine Highway,76054,32.8616223,-97.1795234
828,West Harwood Road,76054,32.8448276,-97.1914884
645,Grapevine Highway,76054,32.8607001,-97.1790142
1244,Brookside Drive,76053,32.8332381,-97.1786874
612,Grapevine Highway,76054,32.8616225,-97.1795101
1120,West Pipeline Road,76053,32.8240146,-97.1985502
1475,West Pipeline Road,76053,32.8232121,-97.2034133
460,Grapevine Highway,76054,32.8651820,-97.1753456
320,Colleyville Boulevard,76054,32.8685074,-97.1715349
770,Grapevine Highway,76054,32.8590637,-97.1846467
500,Harmon Road,76053,32.8178274,-97.1717307
1400,Cavender Drive,76053,32.8374107,-97.1730181
525,Billie Ruth Lane,76053,32.8183839,-97.1940783
1000,Harrison Lane,76053,32.8262907,-97.1690550
1125,Scott Drive,76053,32.8301778,-97.1895232
501,Bellaire Drive,76053,32.8180061,-97.1607135
2750,Prestondale Drive,76054,32.8669962,-97.1827902
601,Precinct Line Road,76053,32.8197588,-97.1890909
640,West Pleasantview Drive,76054,32.8416936,-97.1821905
2200,Norwood Drive,76054,32.8582490,-97.1716577
1001,Bluebonnet,76053,32.8129390,-97.1497877
500,East Pecan Street,76053,32.8175412,-97.1623313
525,West Redbud Drive,76053,32.8144491,-97.1784620
501,East Pecan Street,76053,32.8203589,-97.1618129
500,Belmont Drive,76053,32.8166254,-97.2036399
700,Mary Drive,76053,32.8214126,-97.1764133
715,Mary Drive,76053,32.8221997,-97.1767373
700,Willow Street,76053,32.8217706,-97.1756259
901,Precinct Line Road,76053,32.8254944,-97.1871266
1725,Norwood Drive,76054,32.8467830,-97.1692134
500,Heneretta Drive,76054,32.8743140,-97.1759227
2200,Norwood Drive,76054,32.8589281,-97.1715473
575,Billie Ruth Lane,76053,32.8197874,-97.1940734
821,Northeast Mall Boulevard,76053,32.8245934,-97.2031406
853,Northeast Mall Boulevard,76053,32.8259414,-97.2030915
861,Northeast Mall Boulevard,76053,32.8264607,-97.2030707
869,NE Mall Boulevard,76053,32.8269729,-97.2030934
1601,Brown Trail,76054,32.8424089,-97.1627931
780,Airport Freeway,76054,32.8403776,-97.1848236
525,Billie Ruth Lane,76053,32.8189574,-97.1938217
1201,Crestview Drive,76053,32.8103027,-97.1985842
1205,Crestview Drive,76053,32.8103277,-97.1988360
1209,Crestview Drive,76053,32.8103280,-97.1990450
1213,Crestview Drive,76053,32.8103316,-97.1992550
1217,Crestview Drive,76053,32.8103228,-97.1996080
1221,Crestview Drive,76053,32.8103318,-97.1998850
1225,Crestview Drive,76053,32.8103040,-97.2001993
1200,Crestview Drive,76053,32.8107221,-97.1985156
1204,Crestview Drive,76053,32.8107255,-97.1987824
1208,Crestview Drive,76053,32.8107358,-97.1990778
1212,Crestview Drive,76053,32.8107402,-97.1993521
1216,Crestview Drive,76053,32.8107392,-97.1996235
1220,Crestview Drive,76053,32.8107181,-97.1999020
1224,Crestview Drive,76053,32.8107298,-97.2001763
200,Fanning Drive,76053,32.8108086,-97.2005513
117,Melbourne Road,76053,32.8098563,-97.1985228
111,Melbourne Road,76053,32.8096701,-97.1985742
1200,W Hurst Boulevard,76053,32.8093880,-97.1986094
1222,W Hurst Boulevard,76053,32.8095288,-97.1998904
1201,Bradford Drive,76053,32.8112475,-97.1985059
1205,Bradford Drive,76053,32.8112561,-97.1987855
1209,Bradford Drive,76053,32.8112152,-97.1990606
1213,Bradford Drive,76053,32.8112149,-97.1993455
1217,Bradford Drive,76053,32.8112421,-97.1996178
1221,Bradford Drive,76053,32.8112459,-97.1998928
1225,Bradford Drive,76053,32.8112384,-97.2001839
208,Fanning Drive,76053,32.8112249,-97.2005806
204,Fanning Drive,76053,32.8110357,-97.2006091
1200,Bradford Drive,76053,32.8116473,-97.1984850
1204,Bradford Drive,76053,32.8116328,-97.1987769
1208,Bradford Drive,76053,32.8116499,-97.1990599
1212,Bradford Drive,76053,32.8116455,-97.1993427
1216,Bradford Drive,76053,32.8116615,-97.1996164
1220,Bradford Drive,76053,32.8116222,-97.1998928
1224,Bradford Drive,76053,32.8116259,-97.2001846
212,Fanning Drive,76053,32.8116711,-97.2005600
216,Fanning Drive,76053,32.8119039,-97.2005870
220,Fanning Drive,76053,32.8121275,-97.2005358
1225,Walker Drive,76053,32.8121421,-97.2001633
1221,Walker Drive,76053,32.8121553,-97.1998575
1217,Walker Drive,76053,32.8121408,-97.1996091
1213,Walker Drive,76053,32.8121577,-97.1993272
1209,Walker Drive,76053,32.8121538,-97.1990579
1205,Walker Drive,76053,32.8121369,-97.1987874
1201,Walker Drive,76053,32.8121517,-97.1984814
1200,West Pipeline Road,76053,32.8239765,-97.1991846
1492,West Pipeline Road,76053,32.8242409,-97.2037886
948,Northeast Loop 820,76053,32.8269897,-97.2039754
952,Northeast Loop 820,76053,32.8282599,-97.2036510
1401,West Pipeline Road,76053,32.8232155,-97.2023642
1351,West Pipeline Road,76053,32.8232578,-97.2012238
1245,West Pipeline Road,76053,32.8233735,-97.2016050
709,Melbourne Road,76053,32.8227703,-97.1991651
705,Melbourne Road,76053,32.8221407,-97.1992001
1201,West Pipeline Road,76053,32.8234023,-97.1992591
720,Arcadia Street,76053,32.8220557,-97.2014261
700,Northeast Loop 820,76053,32.8211301,-97.2046057
1233,Melbourne Road,76053,32.8326018,-97.1978578
1101,West Pipeline Road,76053,32.8232080,-97.1966111
628,Northeast Loop 820,76053,32.8203023,-97.2043203
624,Northeast Loop 820,76053,32.8195787,-97.2044650
7000,NE Mall Blvd,76053,32.8322054,-97.2014401
201,Bradford Court,76053,32.8106070,-97.1970726
209,Bradford Court,76053,32.8109157,-97.1975112
213,Bradford Court,76053,32.8111912,-97.1974510
200,Melbourne Road,76053,32.8105746,-97.1979951
204,Melbourne Road,76053,32.8108741,-97.1979939
208,Melbourne Road,76053,32.8111929,-97.1979865
216,Melbourne Road,76053,32.8116467,-97.1979891
220,Melbourne Road,76053,32.8118990,-97.1979233
224,Melbourne Road,76053,32.8121084,-97.1979161
228,Melbourne Road,76053,32.8123217,-97.1979320
232,Melbourne Road,76053,32.8125375,-97.1979330
236,Melbourne Road,76053,32.8127415,-97.1979028
240,Melbourne Road,76053,32.8130021,-97.1979008
217,Bradford Drive,76053,32.8117468,-97.1975019
221,Bradford Drive,76053,32.8119649,-97.1974822
225,Bradford Drive,76053,32.8121600,-97.1974331
229,Bradford Drive,76053,32.8123897,-97.1973725
233,Bradford Drive,76053,32.8125981,-97.1973553
237,Bradford Drive,76053,32.8128077,-97.1973092
241,Bradford Drive,76053,32.8131305,-97.1972915
224,Bradford Drive,76053,32.8122811,-97.1968737
228,Bradford Drive,76053,32.8124972,-97.1968321
232,Bradford Drive,76053,32.8126871,-97.1968004
236,Bradford Drive,76053,32.8129043,-97.1967515
240,Bradford Drive,76053,32.8131004,-97.1967270
244,Bradford Drive,76053,32.8132888,-97.1966006
248,Bradford Drive,76053,32.8135172,-97.1967425
1128,Harris Avenue,76053,32.8135751,-97.1971286
1132,Harris Avenue,76053,32.8135774,-97.1973727
1136,Harris Avenue,76053,32.8135590,-97.1976353
300,Melbourne Road,76053,32.8134933,-97.1979436
1200,Walker Drive,76053,32.8125425,-97.1984916
1204,Walker Drive,76053,32.8125242,-97.1987663
1208,Walker Drive,76053,32.8125391,-97.1990503
1212,Walker Drive,76053,32.8125437,-97.1993295
1216,Walker Drive,76053,32.8125626,-97.1996143
1220,Walker Drive,76053,32.8125394,-97.1998947
1224,Walker Drive,76053,32.8125397,-97.2001499
1228,Walker Drive,76053,32.8125772,-97.2006181
232,Fanning Drive,76053,32.8128083,-97.2006101
1229,Harris Avenue,76053,32.8130645,-97.2005713
1225,Harris Avenue,76053,32.8130449,-97.2001781
1221,Harris Avenue,76053,32.8130612,-97.1998366
1217,Harris Avenue,76053,32.8130523,-97.1995993
1213,Harris Avenue,76053,32.8130509,-97.1993358
1209,Harris Avenue,76053,32.8130717,-97.1990452
1205,Harris Avenue,76053,32.8130676,-97.1987530
1201,Harris Avenue,76053,32.8130527,-97.1985143
1200,Harris Avenue,76053,32.8134319,-97.1985007
1204,Harris Avenue,76053,32.8134851,-97.1987654
1208,Harris Avenue,76053,32.8134544,-97.1990076
300,Oakwood Drive,76053,32.8135146,-97.1992685
308,Oakwood Drive,76053,32.8137965,-97.1992622
320,Oakwood Drive,76053,32.8144326,-97.1997098
309,Oakwood Drive,76053,32.8138169,-97.1998647
1220,Harris Avenue,76053,32.8134562,-97.1998094
1224,Harris Avenue,76053,32.8134542,-97.2000747
313,Melbourne Road,76053,32.8138450,-97.1985986
1228,Harris Avenue,76053,32.8134780,-97.2003349
1232,Harris Avenue,76053,32.8134716,-97.2005583
308,Fanning Drive,76053,32.8137946,-97.2005322
312,Fanning Drive,76053,32.8140213,-97.2005319
316,Fanning Drive,76053,32.8142494,-97.2005283
320,Fanning Drive,76053,32.8144683,-97.2004396
324,Fanning Drive,76053,32.8146986,-97.2005238
328,Fanning Drive,76053,32.8148842,-97.2005244
333,Fanning Drive,76053,32.8151726,-97.2010921
329,Fanning Drive,76053,32.8149192,-97.2011156
323,Fanning Drive,76053,32.8147487,-97.2011112
321,Fanning Drive,76053,32.8145282,-97.2010494
317,Fanning Drive,76053,32.8142950,-97.2010819
313,Fanning Drive,76053,32.8140750,-97.2010917
309,Fanning Drive,76053,32.8138558,-97.2010946
305,Fanning Drive,76053,32.8136175,-97.2011017
301,Fanning Drive,76053,32.8134109,-97.2010501
241,Fanning Drive,76053,32.8131858,-97.2010959
237,Fanning Drive,76053,32.8129530,-97.2010374
233,Fanning Drive,76053,32.8127373,-97.2010360
229,Fanning Drive,76053,32.8125278,-97.2010544
225,Fanning Drive,76053,32.8123095,-97.2010656
221,Fanning Drive,76053,32.8120993,-97.2010548
217,Fanning Drive,76053,32.8118690,-97.2010521
213,Fanning Drive,76053,32.8116499,-97.2010730
209,Fanning Drive,76053,32.8114344,-97.2010982
205,Fanning Drive,76053,32.8112104,-97.2010882
201,Fanning Drive,76053,32.8109816,-97.2010810
1233,Crestview Drive,76053,32.8103819,-97.2006458
1237,Crestview Drive,76053,32.8105247,-97.2009256
1241,Crestview Drive,76053,32.8105736,-97.2012579
128,Belmont Drive,76053,32.8105912,-97.2017247
124,Belmont Drive,76053,32.8103615,-97.2017171
120,Belmont Drive,76053,32.8101455,-97.2017446
116,Belmont Drive,76053,32.8099018,-97.2017327
112,Belmont Drive,76053,32.8096887,-97.2017622
1240,W Hurst Blvd,76053,32.8092975,-97.2016889
1228,W Hurst Blvd,76053,32.8100233,-97.2011410
1248,West Hurst Blvd,76053,32.8095009,-97.2023773
125,Belmont Drive,76053,32.8103653,-97.2022357
129,Belmont Drive,76053,32.8105952,-97.2022129
128,Arcadia Street,76053,32.8105947,-97.2029022
124,Arcadia Street,76053,32.8103681,-97.2028744
120,Arcadia Street,76053,32.8101476,-97.2028187
116,Arcadia Street,76053,32.8099339,-97.2027997
1355,Cardinal Road,76053,32.8095275,-97.2035744
117,Arcadia Street,76053,32.8099195,-97.2033792
121,Arcadia Street,76053,32.8101705,-97.2034312
125,Arcadia Street,76053,32.8103857,-97.2034133
129,Arcadia Street,76053,32.8106044,-97.2034084
128,Glenn Drive,76053,32.8105918,-97.2041186
124,Glenn Drive,76053,32.8103842,-97.2041251
120,Glenn Drive,76053,32.8101563,-97.2040991
116,Glenn Drive,76053,32.8099195,-97.2041454
117,Glenn Drive,76053,32.8098169,-97.2046965
121,Glenn Drive,76053,32.8101000,-97.2046413
125,Glenn Drive,76053,32.8103386,-97.2046109
129,Glenn Drive,76053,32.8106123,-97.2046304
128,Cooper Drive,76053,32.8106169,-97.2050984
124,Cooper Drive,76053,32.8103284,-97.2051239
120,Cooper Drive,76053,32.8100811,-97.2051150
116,Cooper Drive,76053,32.8097404,-97.2050762
117,Cooper Drive,76053,32.8097966,-97.2056191
121,Cooper Drive,76053,32.8100831,-97.2055979
125,Cooper Drive,76053,32.8103319,-97.2055974
129,Cooper Drive,76053,32.8106225,-97.2056300
240,Northeast Loop 820 Frontage Road,76053,32.8131383,-97.2065499
240,Northeast Loop 820 Frontage Road,76053,32.8115219,-97.2069530
110,Northeast Loop 820 Frontage Road,76053,32.8100750,-97.2081811
1400,West Hurst Boulevard,76053,32.8095593,-97.2069338
1516,Central Park Drive,76053,32.8067980,-97.2097761
1500,Central Park Drive,76053,32.8074478,-97.2079614
1501,West Hurst Blvd,76053,32.8083942,-97.2081394
1451,West Hurst Boulevard,76053,32.8083113,-97.2068327
1401,West Hurst Blvd,76053,32.8084293,-97.2059718
1347,West Hurst Blvd,76053,32.8084431,-97.2050228
1347,West Hurst Blvd,76053,32.8078086,-97.2048063
1265,West Hurst Blvd,76053,32.8082565,-97.2035685
1263,West Hurst Blvd,76053,32.8083316,-97.2027491
1261,West Hurst Blvd,76053,32.8078742,-97.2023307
1155,West Hurst Blvd,76053,32.8081320,-97.1990718
1147,West Hurst Blvd,76053,32.8086487,-97.1970517
1143,West Hurst Blvd,76053,32.8085600,-97.1960454
1137,West Hurst Blvd,76053,32.8078707,-97.1945771
901,West Hurst Blvd,76053,32.8086544,-97.1904138
901,West Hurst Blvd,76053,32.8081078,-97.1903434
901,West Hurst Blvd,76053,32.8082537,-97.1894221
200,Belmont Drive,76053,32.8109687,-97.2016921
204,Belmont Drive,76053,32.8111744,-97.2017079
208,Belmont Drive,76053,32.8113663,-97.2017310
212,Belmont Drive,76053,32.8115602,-97.2017163
216,Belmont Drive,76053,32.8117671,-97.2017174
220,Belmont Drive,76053,32.8119759,-97.2017234
224,Belmont Drive,76053,32.8121812,-97.2017737
228,Belmont Drive,76053,32.8123749,-97.2018820
232,Belmont Drive,76053,32.8125503,-97.2019992
236,Belmont Drive,76053,32.8127774,-97.2021474
304,Arcadia Street,76053,32.8130223,-97.2019917
308,Arcadia Street,76053,32.8132331,-97.2018537
312,Arcadia Street,76053,32.8134558,-97.2017685
316,Arcadia Street,76053,32.8136889,-97.2017055
320,Arcadia Street,76053,32.8139173,-97.2016856
324,Arcadia Street,76053,32.8141405,-97.2017110
328,Arcadia Street,76053,32.8143611,-97.2016950
336,Arcadia Street,76053,32.8145702,-97.2016944
340,Arcadia Street,76053,32.8147586,-97.2016821
344,Arcadia Street,76053,32.8149489,-97.2016658
348,Arcadia Street,76053,32.8151453,-97.2016818
400,Arcadia Street,76053,32.8153315,-97.2016177
201,Belmont Drive,76053,32.8109722,-97.2022547
205,Belmont Drive,76053,32.8111803,-97.2022382
209,Belmont Drive,76053,32.8113726,-97.2022338
213,Belmont Drive,76053,32.8115669,-97.2022305
217,Belmont Drive,76053,32.8117788,-97.2022413
221,Belmont Drive,76053,32.8120191,-97.2022512
225,Belmont Drive,76053,32.8122449,-97.2023798
232,Arcadia Street,76053,32.8124321,-97.2025365
228,Arcadia Street,76053,32.8122776,-97.2027302
224,Arcadia Street,76053,32.8120917,-97.2028277
220,Arcadia Street,76053,32.8118837,-97.2028797
216,Arcadia Street,76053,32.8116458,-97.2029041
212,Arcadia Street,76053,32.8113960,-97.2029025
204,Arcadia Street,76053,32.8111795,-97.2028823
200,Arcadia Street,76053,32.8109889,-97.2029053
201,Arcadia Street,76053,32.8110093,-97.2034412
205,Arcadia Street,76053,32.8111842,-97.2034096
209,Arcadia Street,76053,32.8113772,-97.2034066
213,Arcadia Street,76053,32.8115717,-97.2033917
217,Arcadia Street,76053,32.8117763,-97.2033745
221,Arcadia Street,76053,32.8119875,-97.2033467
225,Arcadia Street,76053,32.8121931,-97.2033007
229,Arcadia Street,76053,32.8123833,-97.2032068
233,Arcadia Street,76053,32.8125714,-97.2030977
237,Arcadia Street,76053,32.8127640,-97.2029097
305,Belmont Drive,76053,32.8130050,-97.2030975
309,Belmont Drive,76053,32.8132376,-97.2032210
313,Belmont Drive,76053,32.8134678,-97.2033079
317,Belmont Drive,76053,32.8136881,-97.2033628
321,Belmont Drive,76053,32.8139058,-97.2033666
325,Belmont Drive,76053,32.8141253,-97.2033681
329,Belmont Drive,76053,32.8143470,-97.2033516
333,Belmont Drive,76053,32.8145698,-97.2033475
345,Belmont Drive,76053,32.8149660,-97.2034156
340,Belmont Drive,76053,32.8149577,-97.2027882
332,Belmont Drive,76053,32.8147424,-97.2027966
328,Belmont Drive,76053,32.8145264,-97.2028726
324,Belmont Drive,76053,32.8143137,-97.2028784
320,Belmont Drive,76053,32.8140864,-97.2028305
316,Belmont Drive,76053,32.8138711,-97.2028661
312,Belmont Drive,76053,32.8136715,-97.2028548
308,Belmont Drive,76053,32.8134924,-97.2027696
304,Belmont Drive,76053,32.8132975,-97.2026974
300,Belmont Drive,76053,32.8131126,-97.2025848
305,Arcadia Street,76053,32.8132909,-97.2023747
309,Arcadia Street,76053,32.8134690,-97.2022724
313,Arcadia Street,76053,32.8136570,-97.2022200
317,Arcadia Street,76053,32.8138688,-97.2021873
321,Arcadia Street,76053,32.8140901,-97.2022143
325,Arcadia Street,76053,32.8143101,-97.2021932
329,Arcadia Street,76053,32.8145299,-97.2022238
333,Arcadia Street,76053,32.8147512,-97.2022422
341,Arcadia Street,76053,32.8149607,-97.2023097
1240,Oakwood Drive,76053,32.8153445,-97.2021955
400,Belmont Drive,76053,32.8153553,-97.2027741
404,Belmont Drive,76053,32.8155962,-97.2028235
408,Belmont Drive,76053,32.8157550,-97.2028500
412,Belmont Drive,76053,32.8159716,-97.2028362
417,Belmont Drive,76053,32.8161055,-97.2033724
413,Belmont Drive,76053,32.8159252,-97.2033512
409,Belmont Drive,76053,32.8157334,-97.2033696
405,Belmont Drive,76053,32.8155394,-97.2033540
401,Belmont Drive,76053,32.8153323,-97.2034043
400,Sheppard Court,76053,32.8153441,-97.2039232
404,Sheppard Court,76053,32.8155904,-97.2040122
408,Sheppard Court,76053,32.8158290,-97.2041336
412,Sheppard Court,76053,32.8160297,-97.2041902
416,Sheppard Court,76053,32.8162541,-97.2044443
417,Sheppard Court,76053,32.8161756,-97.2047921
413,Sheppard Court,76053,32.8158806,-97.2048884
409,Sheppard Court,76053,32.8156799,-97.2045763
405,Sheppard Court,76053,32.8154399,-97.2044925
401,Sheppard Court,76053,32.8152131,-97.2044188
400,Glenn Drive,76053,32.8149822,-97.2048556
404,Glenn Drive,76053,32.8151675,-97.2049508
408,Glenn Drive,76053,32.8153716,-97.2051469
412,Glenn Drive,76053,32.8155661,-97.2052844
416,Glenn Drive,76053,32.8157536,-97.2054041
420,Glenn Drive,76053,32.8159378,-97.2055266
424,Glenn Drive,76053,32.8161603,-97.2056768
200,Glenn Drive,76053,32.8109934,-97.2041211
204,Glenn Drive,76053,32.8112261,-97.2041531
208,Glenn Drive,76053,32.8114374,-97.2041388
212,Glenn Drive,76053,32.8116724,-97.2041521
216,Glenn Drive,76053,32.8118895,-97.2041084
220,Glenn Drive,76053,32.8121106,-97.2041244
224,Glenn Drive,76053,32.8123263,-97.2041028
228,Glenn Drive,76053,32.8125575,-97.2041427
232,Glenn Drive,76053,32.8127743,-97.2041220
300,Glenn Drive,76053,32.8131216,-97.2041241
304,Glenn Drive,76053,32.8134925,-97.2041033
308,Glenn Drive,76053,32.8137331,-97.2040861
312,Glenn Drive,76053,32.8140146,-97.2041375
316,Glenn Drive,76053,32.8142149,-97.2043211
320,Glenn Drive,76053,32.8144027,-97.2044760
324,Glenn Drive,76053,32.8145941,-97.2045729
201,Glenn Drive,76053,32.8109852,-97.2046370
205,Glenn Drive,76053,32.8112303,-97.2046123
209,Glenn Drive,76053,32.8114724,-97.2046308
213,Glenn Drive,76053,32.8117078,-97.2046046
217,Glenn Drive,76053,32.8119420,-97.2046027
221,Glenn Drive,76053,32.8121784,-97.2046038
225,Glenn Drive,76053,32.8124272,-97.2045923
229,Glenn Drive,76053,32.8126496,-97.2045999
233,Glenn Drive,76053,32.8128754,-97.2045894
237,Glenn Drive,76053,32.8131100,-97.2046637
200,Cooper Drive,76053,32.8109904,-97.2050851
204,Cooper Drive,76053,32.8112470,-97.2051154
208,Cooper Drive,76053,32.8114872,-97.2050985
212,Cooper Drive,76053,32.8117249,-97.2050884
216,Cooper Drive,76053,32.8119364,-97.2051093
220,Cooper Drive,76053,32.8121826,-97.2051035
224,Cooper Drive,76053,32.8124120,-97.2050997
228,Cooper Drive,76053,32.8126660,-97.2050961
232,Cooper Drive,76053,32.8128597,-97.2050802
236,Cooper Drive,76053,32.8131056,-97.2050795
237,Cooper Drive,76053,32.8131224,-97.2055923
233,Cooper Drive,76053,32.8128637,-97.2055986
229,Cooper Drive,76053,32.8126278,-97.2055779
225,Cooper Drive,76053,32.8124008,-97.2055702
221,Cooper Drive,76053,32.8121607,-97.2055417
217,Cooper Drive,76053,32.8119466,-97.2055812
213,Cooper Drive,76053,32.8116940,-97.2055792
209,Cooper Drive,76053,32.8114716,-97.2055862
205,Cooper Drive,76053,32.8112236,-97.2055838
201,Cooper Drive,76053,32.8110327,-97.2056067
301,Cooper Drive,76053,32.8135098,-97.2056167
305,Cooper Drive,76053,32.8137658,-97.2057286
309,Cooper Drive,76053,32.8139530,-97.2058636
313,Cooper Drive,76053,32.8141734,-97.2060217
317,Cooper Drive,76053,32.8144219,-97.2061970
321,Cooper Drive,76053,32.8146303,-97.2063151
300,Cooper Drive,76053,32.8135089,-97.2050487
304,Cooper Drive,76053,32.8137697,-97.2051524
308,Cooper Drive,76053,32.8139878,-97.2052757
312,Cooper Drive,76053,32.8141630,-97.2054084
316,Cooper Drive,76053,32.8143469,-97.2055557
320,Cooper Drive,76053,32.8145641,-97.2056996
324,Cooper Drive,76053,32.8147232,-97.2058120
328,Cooper Drive,76053,32.8149276,-97.2059733
332,Cooper Drive,76053,32.8151532,-97.2060761
301,Glenn Drive,76053,32.8135046,-97.2046361
305,Glenn Drive,76053,32.8137570,-97.2046126
309,Glenn Drive,76053,32.8139781,-97.2046797
313,Glenn Drive,76053,32.8141841,-97.2048692
317,Glenn Drive,76053,32.8143394,-97.2050206
321,Glenn Drive,76053,32.8145434,-97.2051722
401,Glenn Drive,76053,32.8147097,-97.2052917
405,Glenn Drive,76053,32.8149346,-97.2053842
409,Glenn Drive,76053,32.8151196,-97.2055280
413,Glenn Drive,76053,32.8153108,-97.2056246
417,Glenn Drive,76053,32.8154840,-97.2057602
421,Glenn Drive,76053,32.8156870,-97.2058978
1329,Oakwood Drive,76053,32.8148356,-97.2041577
1325,Oakwood Drive,76053,32.8149076,-97.2039152
325,Melbourne Road,76053,32.8149379,-97.1984924
333,Melbourne Road,76053,32.8154540,-97.1986428
405,Melbourne Road,76053,32.8158278,-97.1988095
1209,Greenwood Drive,76053,32.8159335,-97.1990833
1213,Greenwood Drive,76053,32.8159331,-97.1993281
1217,Greenwood Drive,76053,32.8159361,-97.1995713
1221,Greenwood Drive,76053,32.8159274,-97.1998158
1225,Greenwood Drive,76053,32.8159394,-97.2000585
1229,Greenwood Drive,76053,32.8159339,-97.2003034
1233,Greenwood Drive,76053,32.8159377,-97.2005703
1237,Greenwood Drive,76053,32.8159719,-97.2010346
501,Greenwood Circle,76053,32.8162014,-97.2010963
505,Greenwood Circle,76053,32.8164156,-97.2011325
509,Greenwood Circle,76053,32.8166217,-97.2011297
513,Greenwood Circle,76053,32.8168085,-97.2011536
517,Greenwood Circle,76053,32.8170804,-97.2010194
521,Greenwood Circle,76053,32.8172231,-97.2006945
529,Greenwood Circle,76053,32.8171901,-97.2003491
533,Greenwood Circle,76053,32.8171828,-97.1999909
537,Greenwood Circle,76053,32.8172037,-97.1997484
541,Greenwood Circle,76053,32.8172182,-97.1994619
545,Greenwood Circle,76053,32.8170420,-97.1991998
549,Greenwood Circle,76053,32.8167940,-97.1990849
553,Greenwood Circle,76053,32.8165812,-97.1991363
557,Greenwood Circle,76053,32.8163866,-97.1991554
533,Melbourne Road,76053,32.8164745,-97.1987012
545,Melbourne Road,76053,32.8171378,-97.1985415
1216,Greenwood Drive,76053,32.8164105,-97.1996467
1220,Greenwood Drive,76053,32.8163845,-97.1998743
1224,Greenwood Drive,76053,32.8164068,-97.2001176
1228,Greenwood Drive,76053,32.8163812,-97.2003854
1232,Greenwood Drive,76053,32.8164410,-97.2006139
520,Greenwood Circle,76053,32.8167404,-97.2005524
528,Greenwood Circle,76053,32.8167457,-97.2002420
532,Greenwood Circle,76053,32.8167248,-97.1999041
536,Greenwood Circle,76053,32.8166775,-97.1996499
408,Arcadia Street,76053,32.8160136,-97.2016293
412,Arcadia Street,76053,32.8162294,-97.2016672
416,Arcadia Street,76053,32.8164582,-97.2016615
420,Arcadia Street,76053,32.8166881,-97.2016744
424,Arcadia Street,76053,32.8169086,-97.2016552
1237,West Redbud Drive,76053,32.8171399,-97.2015837
436,Melbourne Road,76053,32.8170683,-97.1976454
6316,Precinct Line Road,76054,32.8635328,-97.1854435
1233,West Redbud Drive,76053,32.8174844,-97.2006733
1229,West Redbud Drive,76053,32.8175072,-97.2003200
1225,West Redbud Drive,76053,32.8175452,-97.2000662
1221,West Redbud Drive,76053,32.8175494,-97.1998024
1217,West Redbud Drive,76053,32.8175253,-97.1995375
1213,West Redbud Drive,76053,32.8175537,-97.1992793
1209,West Redbud Drive,76053,32.8175115,-97.1990272
1205,West Redbud Drive,76053,32.8175348,-97.1987524
1201,West Redbud Drive,76053,32.8175206,-97.1984813
413,Arcadia Street,76053,32.8166255,-97.2021706
417,Arcadia Street,76053,32.8168381,-97.2021606
1301,West Redbud Drive,76053,32.8171418,-97.2022273
1305,West Redbud Drive,76053,32.8171808,-97.2025259
1309,West Redbud Drive,76053,32.8172980,-97.2027958
1313,West Redbud Drive,76053,32.8173786,-97.2030230
1317,West Redbud Drive,76053,32.8174969,-97.2032808
1321,West Redbud Drive,76053,32.8175708,-97.2035177
1325,West Redbud Drive,76053,32.8176075,-97.2037902
1329,West Redbud Drive,76053,32.8176046,-97.2040877
1333,West Redbud Drive,76053,32.8175505,-97.2043910
1337,West Redbud Drive,76053,32.8176221,-97.2046813
1341,Kathryn Court,76053,32.8173787,-97.2047768
1345,Kathryn Court,76053,32.8171451,-97.2046710
1349,Kathryn Court,76053,32.8168600,-97.2048296
1353,Kathryn Court,76053,32.8168146,-97.2051345
1357,Kathryn Court,76053,32.8170166,-97.2053466
1361,Kathryn Court,76053,32.8172465,-97.2052862
1365,Kathryn Court,76053,32.8174684,-97.2052464
1369,Kathryn Court,76053,32.8177135,-97.2052084
1300,West Redbud Drive,76053,32.8176001,-97.2021790
1304,West Redbud Drive,76053,32.8176300,-97.2024800
1308,West Redbud Drive,76053,32.8177392,-97.2027090
1320,West Redbud Drive,76053,32.8180285,-97.2034874
1324,West Redbud Drive,76053,32.8180500,-97.2038148
1328,West Redbud Drive,76053,32.8180389,-97.2040788
1332,West Redbud Drive,76053,32.8180569,-97.2043342
1336,West Redbud Drive,76053,32.8180452,-97.2045977
1333,Kathryn Street,76053,32.8183829,-97.2044666
1329,Kathryn Street,76053,32.8183877,-97.2041864
1325,Kathryn Street,76053,32.8183704,-97.2038266
1321,Kathryn Street,76053,32.8183938,-97.2035228
1317,Kathryn Street,76053,32.8184043,-97.2032609
1313,Kathryn Street,76053,32.8184159,-97.2030079
1309,Kathryn Street,76053,32.8184177,-97.2027451
1301,Kathryn Street,76053,32.8184151,-97.2021575
1305,Kathryn Street,76053,32.8184270,-97.2024854
509,Arcadia Street,76053,32.8181047,-97.2021899
505,Arcadia Street,76053,32.8179076,-97.2021568
2200,Norwood Drive,76054,32.8594132,-97.1715797
1348,Kathryn Street,76053,32.8181325,-97.2051250
1344,Kathryn Street,76053,32.8183892,-97.2050402
1340,Kathryn Street,76053,32.8187005,-97.2049428
1336,Kathryn Street,76053,32.8188435,-97.2046436
1332,Kathryn Street,76053,32.8188266,-97.2043886
1328,Kathryn Street,76053,32.8188412,-97.2040827
1324,Kathryn Street,76053,32.8188394,-97.2038176
1316,Kathryn Street,76053,32.8188497,-97.2033912
1308,Kathryn Street,76053,32.8188425,-97.2027195
1304,Kathryn Street,76053,32.8188293,-97.2024618
1300,Kathryn Street,76053,32.8188504,-97.2022037
1244,West Redbud Drive,76053,32.8176378,-97.2015803
1240,West Redbud Drive,76053,32.8177295,-97.2011971
1236,West Redbud Drive,76053,32.8178741,-97.2009316
1232,West Redbud Drive,76053,32.8179420,-97.2006452
1228,West Redbud Drive,76053,32.8179817,-97.2003913
1224,West Redbud Drive,76053,32.8180232,-97.2001208
1220,West Redbud Drive,76053,32.8179831,-97.1998239
1216,West Redbud Drive,76053,32.8179869,-97.1995636
1212,West Redbud Drive,76053,32.8180076,-97.1992989
1208,West Redbud Drive,76053,32.8179875,-97.1990387
1204,West Redbud Drive,76053,32.8179894,-97.1987834
1200,West Redbud Drive,76053,32.8180124,-97.1985209
504,Arcadia Street,76053,32.8178790,-97.2016575
508,Arcadia Street,76053,32.8181132,-97.2016579
1315,Park Place Boulevard,76053,32.8204227,-97.2013293
616,Arcadia Street,76053,32.8200979,-97.2013225
1245,Kathryn Street,76053,32.8184344,-97.2016067
1241,Kathryn Street,76053,32.8184384,-97.2012778
1237,Kathryn Street,76053,32.8184431,-97.2010063
1233,Kathryn Street,76053,32.8184262,-97.2007237
1229,Kathryn Street,76053,32.8184238,-97.2004781
1225,Kathryn Street,76053,32.8184217,-97.2002193
1221,Kathryn Street,76053,32.8184390,-97.1999539
1217,Kathryn Street,76053,32.8184278,-97.1996858
1213,Kathryn Street,76053,32.8184288,-97.1994181
1209,Kathryn Street,76053,32.8183991,-97.1991506
1205,Kathryn Street,76053,32.8184302,-97.1988980
1201,Kathryn Street,76053,32.8184298,-97.1986160
1200,Kathryn Street,76053,32.8188457,-97.1987468
1204,Kathryn Street,76053,32.8188545,-97.1990073
1208,Kathryn Street,76053,32.8188437,-97.1992706
1212,Kathryn Street,76053,32.8188393,-97.1995479
1216,Kathryn Street,76053,32.8188564,-97.1997937
1220,Kathryn Street,76053,32.8188458,-97.2000518
1224,Kathryn Street,76053,32.8188272,-97.2003145
1228,Kathryn Street,76053,32.8188249,-97.2005688
1232,Kathryn Street,76053,32.8188436,-97.2008291
1236,Kathryn Street,76053,32.8188546,-97.2010952
1240,Kathryn Street,76053,32.8188652,-97.2013807
1244,Kathryn Street,76053,32.8189035,-97.2016167
635,Melbourne Road,76053,32.8209064,-97.1991449
633,Melbourne Road,76053,32.8208020,-97.1991400
631,Melbourne Road,76053,32.8206695,-97.1991479
629,Melbourne Road,76053,32.8205611,-97.1991958
627,Melbourne Road,76053,32.8203946,-97.1991235
625,Melbourne Road,76053,32.8202890,-97.1991082
621,Melbourne Road,76053,32.8200279,-97.1990708
623,Melbourne Road,76053,32.8201231,-97.1991549
619,Melbourne Road,76053,32.8199017,-97.1990488
617,Melbourne Road,76053,32.8197949,-97.1990232
615,Melbourne Road,76053,32.8196464,-97.1989781
613,Melbourne Road,76053,32.8195409,-97.1989526
611,Melbourne Road,76053,32.8193755,-97.1988975
609,Melbourne Road,76053,32.8192683,-97.1988688
610,Arcadia Street,76053,32.8198057,-97.2014640
612,Arcadia Street,76053,32.8198079,-97.2011759
1301,Park Place Boulevard,76053,32.8208193,-97.2015433
1313,Park Place Boulevard,76053,32.8208275,-97.2011641
1309,Park Place Boulevard,76053,32.8208282,-97.2005955
1307,Park Place Boulevard,76053,32.8208365,-97.2001993
1303,Park Place Boulevard,76053,32.8208440,-97.1997789
604,Arcadia Street,76053,32.8194933,-97.2013059
606,Arcadia Street,76053,32.8195024,-97.2004465
614,Arcadia Street,76053,32.8199272,-97.2006627
1311,Park Place Boulevard,76053,32.8204180,-97.2004841
1305,Park Place Boulevard,76053,32.8202263,-97.1996958
608,Arcadia Street,76053,32.8195862,-97.1998999
621,Arcadia Street,76053,32.8193185,-97.2024169
623,Arcadia Street,76053,32.8198812,-97.2023773
625,Arcadia Street,76053,32.8198014,-97.2028948
627,Arcadia Street,76053,32.8199225,-97.2033641
629,Arcadia Street,76053,32.8203350,-97.2033407
631,Arcadia Street,76053,32.8202743,-97.2029299
1401,Park Place Boulevard,76053,32.8208046,-97.2024888
1403,Park Place Boulevard,76053,32.8207644,-97.2032628
901,Precinct Line Road,76053,32.8262188,-97.1871247
804,West Pipeline Road,76053,32.8239043,-97.1867383
825,Precinct Line Road,76053,32.8246989,-97.1869021
756,West Pipeline Road,76053,32.8239982,-97.1855402
720,West Pipeline Road,76053,32.8247837,-97.1848686
700,Heritage Circle,76053,32.8222628,-97.1898235
800,Forest Oaks Lane,76053,32.8240233,-97.1831275
824,West Pipeline Road,76053,32.8242535,-97.1883421
844,West Pipeline Road,76053,32.8240251,-97.1896443
745,West Pipeline Road,76053,32.8230984,-97.1854477
701,West Pipeline Road,76053,32.8234399,-97.1841712
673,West Pipeline Road,76053,32.8234238,-97.1836383
665,West Pipeline Road,76053,32.8233721,-97.1830109
625,West Pipeline Road,76053,32.8232001,-97.1808427
825,West Pipeline Road,76053,32.8225198,-97.1886284
801,West Pipeline Road,76053,32.8232327,-97.1869492
821,West Pipeline Road,76053,32.8232586,-97.1878975
809,West Pipeline Road,76053,32.8224284,-97.1874292
841,West Pipeline Road,76053,32.8231492,-97.1898151
837,West Pipeline Road,76053,32.8232611,-97.1892668
701,Heritage Way,76053,32.8222417,-97.1910032
861,West Pipeline Road,76053,32.8232394,-97.1907459
501,Precinct Line Road,76053,32.8181348,-97.1872674
555,Precinct Line Road,76053,32.8196406,-97.1870146
824,Oakwood Avenue,76053,32.8177602,-97.1887025
900,West Pipeline Road,76053,32.8240409,-97.1915204
846,West Pipeline Road,76053,32.8240514,-97.1930957
1000,West Pipeline Road,76053,32.8241030,-97.1946573
1100,West Pipeline Road,76053,32.8240014,-97.1977806
1612,Hurst Town Center Drive,76054,32.8433361,-97.1881693
644,Melbourne Road,76053,32.8206702,-97.1984074
640,Melbourne Court,76053,32.8202184,-97.1984698
636,Melbourne Court,76053,32.8202219,-97.1981771
632,Melbourne Court,76053,32.8201195,-97.1979216
628,Melbourne Court,76053,32.8199460,-97.1973905
624,Melbourne Court,76053,32.8195955,-97.1974623
620,Melbourne Court,76053,32.8195094,-97.1977186
616,Melbourne Court,76053,32.8197189,-97.1980864
612,Melbourne Court,76053,32.8197316,-97.1983902
608,Melbourne Road,76053,32.8193695,-97.1982662
604,Melbourne Road,76053,32.8191315,-97.1982046
1128,Kathryn Street,76053,32.8188715,-97.1981013
1124,Kathryn Street,76053,32.8188589,-97.1977936
1120,Kathryn Street,76053,32.8188556,-97.1975341
1116,Kathryn Street,76053,32.8187990,-97.1972420
1112,Kathryn Street,76053,32.8186528,-97.1970418
1108,Kathryn Street,76053,32.8184407,-97.1969188
1104,Kathryn Street,76053,32.8182316,-97.1969540
1100,Kathryn Street,76053,32.8179960,-97.1969605
1109,Kathryn Street,76053,32.8184271,-97.1980693
1105,Kathryn Street,76053,32.8184531,-97.1977885
1101,Kathryn Street,76053,32.8183885,-97.1974360
1112,West Redbud Drive,76053,32.8179863,-97.1980052
1108,West Redbud Drive,76053,32.8180103,-97.1976944
1104,West Redbud Drive,76053,32.8179893,-97.1974508
501,Holly Hill Drive,76053,32.8179374,-97.1960453
505,Holly Hill Drive,76053,32.8180994,-97.1961194
509,Holly Hill Drive,76053,32.8182567,-97.1962009
513,Holly Hill Drive,76053,32.8184221,-97.1962377
517,Holly Hill Drive,76053,32.8185890,-97.1962341
521,Holly Hill Drive,76053,32.8187523,-97.1962260
525,Holly Hill Drive,76053,32.8189180,-97.1962458
529,Holly Hill Drive,76053,32.8190831,-97.1962387
532,Holly Hill Drive,76053,32.8190731,-97.1957409
528,Holly Hill Drive,76053,32.8188492,-97.1957303
524,Holly Hill Court,76053,32.8189379,-97.1954360
520,Holly Hill Court,76053,32.8187624,-97.1951934
516,Holly Hill Court,76053,32.8185105,-97.1951960
512,Holly Hill Court,76053,32.8183529,-97.1953846
508,Holly Hill Drive,76053,32.8184207,-97.1957427
504,Holly Hill Drive,76053,32.8182153,-97.1956256
500,Holly Hill Drive,76053,32.8180283,-97.1955368
1038,West Redbud Drive,76053,32.8179304,-97.1953113
1034,West Redbud Drive,76053,32.8178582,-97.1951150
1121,West Redbud Drive,76053,32.8175069,-97.1979361
1117,West Redbud Drive,76053,32.8175445,-97.1976557
1113,West Redbud Drive,76053,32.8175483,-97.1973846
1109,West Redbud Drive,76053,32.8175372,-97.1971276
1105,West Redbud Drive,76053,32.8175367,-97.1968630
1101,West Redbud Drive,76053,32.8175425,-97.1966070
432,Melbourne Road,76053,32.8166845,-97.1979262
1100,Greenwood Court,76053,32.8163840,-97.1979546
1104,Greenwood Court,76053,32.8164589,-97.1977057
1108,Greenwood Court,76053,32.8165146,-97.1974693
1112,Greenwood Court,76053,32.8164994,-97.1971933
1116,Greenwood Court,76053,32.8167029,-97.1971644
1120,Greenwood Court,76053,32.8169204,-97.1972277
1124,Greenwood Court,76053,32.8171582,-97.1971613
1128,Greenwood Court,76053,32.8172013,-97.1968181
1133,Greenwood Court,76053,32.8170412,-97.1965871
1129,Greenwood Court,76053,32.8168093,-97.1966232
1125,Greenwood Court,76053,32.8166103,-97.1966278
1121,Greenwood Court,76053,32.8163642,-97.1966811
1117,Greenwood Court,76053,32.8161641,-97.1968606
1113,Greenwood Court,76053,32.8160549,-97.1971187
1109,Greenwood Court,76053,32.8160627,-97.1973435
1105,Greenwood Court,76053,32.8160353,-97.1976109
1101,Greenwood Court,76053,32.8159799,-97.1978788
416,Melbourne Road,76053,32.8157581,-97.1979287
412,Melbourne Road,76053,32.8155271,-97.1979149
408,Melbourne Road,76053,32.8153109,-97.1979280
404,Melbourne Road,76053,32.8150764,-97.1979199
400,Melbourne Road,76053,32.8148596,-97.1979034
401,Hill Court,76053,32.8148452,-97.1974206
405,Hill Court,76053,32.8150523,-97.1974308
409,Hill Court,76053,32.8152536,-97.1974637
413,Hill Court,76053,32.8154706,-97.1975489
417,Hill Court,76053,32.8157011,-97.1974108
416,Hill Court,76053,32.8157088,-97.1969979
412,Hill Court,76053,32.8154131,-97.1967848
408,Hill Court,76053,32.8151877,-97.1969086
404,Hill Court,76053,32.8149742,-97.1969153
400,Hill Court,76053,32.8147596,-97.1969145
401,Twin Creek Drive,76053,32.8147450,-97.1963828
405,Twin Creek Drive,76053,32.8149396,-97.1963573
409,Twin Creek Drive,76053,32.8151439,-97.1963743
413,Twin Creek Drive,76053,32.8153526,-97.1963480
417,Twin Creek Drive,76053,32.8155553,-97.1963468
421,Twin Creek Drive,76053,32.8157561,-97.1963566
425,Twin Creek Drive,76053,32.8159681,-97.1963553
429,Twin Creek Drive,76053,32.8161796,-97.1963363
433,Twin Creek Drive,76053,32.8164492,-97.1961936
432,Twin Creek Drive,76053,32.8164892,-97.1958812
428,Twin Creek Drive,76053,32.8162688,-97.1956246
424,Twin Creek Drive,76053,32.8159919,-97.1957552
420,Twin Creek Drive,76053,32.8157391,-97.1958322
416,Twin Creek Drive,76053,32.8155480,-97.1958374
412,Twin Creek Drive,76053,32.8153443,-97.1958398
408,Twin Creek Drive,76053,32.8151344,-97.1958548
404,Twin Creek Drive,76053,32.8149319,-97.1958395
400,Twin Creek Drive,76053,32.8146655,-97.1957984
1104,Henson Drive,76053,32.8146229,-97.1955067
1100,Henson Drive,76053,32.8145875,-97.1952269
444,Billy Creek Circle,76053,32.8148393,-97.1952687
440,Billy Creek Circle,76053,32.8150714,-97.1953114
436,Billy Creek Circle,76053,32.8152640,-97.1954248
432,Billy Creek Circle,76053,32.8155039,-97.1952710
428,Billy Creek Circle,76053,32.8156751,-97.1949755
424,Billy Creek Circle,76053,32.8157053,-97.1947383
420,Billy Creek Circle,76053,32.8156877,-97.1944245
416,Billy Creek Circle,76053,32.8154871,-97.1939283
408,Billy Creek Circle,76053,32.8149894,-97.1935817
404,Billy Creek Circle,76053,32.8147585,-97.1936549
400,Billy Creek Circle,76053,32.8145588,-97.1935779
916,Henson Drive,76053,32.8146012,-97.1932446
429,Billy Creek Circle,76053,32.8145667,-97.1946605
425,Billy Creek Circle,76053,32.8147604,-97.1946752
421,Billy Creek Circle,76053,32.8149794,-97.1947420
417,Billy Creek Circle,76053,32.8152687,-97.1947614
413,Billy Creek Circle,76053,32.8152085,-97.1944002
409,Billy Creek Circle,76053,32.8149965,-97.1941959
405,Billy Creek Circle,76053,32.8147747,-97.1941719
401,Billy Creek Circle,76053,32.8145647,-97.1941833
1145,Henson Drive,76053,32.8144768,-97.1979091
1141,Henson Drive,76053,32.8144145,-97.1976308
1137,Henson Drive,76053,32.8143664,-97.1973871
1133,Henson Drive,76053,32.8143419,-97.1971209
1129,Henson Drive,76053,32.8143556,-97.1968759
1125,Henson Drive,76053,32.8143535,-97.1966240
1121,Henson Drive,76053,32.8143382,-97.1963780
1117,Henson Drive,76053,32.8143028,-97.1961227
1113,Henson Drive,76053,32.8142506,-97.1958955
1109,Henson Drive,76053,32.8142087,-97.1956639
1105,Henson Drive,76053,32.8141723,-97.1954224
1101,Henson Drive,76053,32.8141479,-97.1951758
1021,Henson Drive,76053,32.8141308,-97.1947073
1017,Henson Drive,76053,32.8141713,-97.1944743
1013,Henson Drive,76053,32.8141420,-97.1942411
1009,Henson Drive,76053,32.8141613,-97.1940168
1005,Henson Drive,76053,32.8141379,-97.1937783
1001,Henson Drive,76053,32.8141539,-97.1935591
917,Henson Drive,76053,32.8140122,-97.1932992
309,Billy Creek Drive,76053,32.8138890,-97.1951522
305,Billy Creek Drive,76053,32.8136789,-97.1951132
301,Billy Creek Drive,76053,32.8134714,-97.1950748
241,Billy Creek Drive,76053,32.8132683,-97.1950680
237,Billy Creek Drive,76053,32.8130733,-97.1950979
333,Billy Creek Drive,76053,32.8128586,-97.1951088
229,Billy Creek Drive,76053,32.8126635,-97.1950912
225,Billy Creek Drive,76053,32.8124404,-97.1951113
221,Billy Creek Drive,76053,32.8122656,-97.1951737
217,Billy Creek Drive,76053,32.8120888,-97.1953139
213,Billy Creek Drive,76053,32.8119095,-97.1953798
209,Billy Creek Drive,76053,32.8117189,-97.1954915
205,Billy Creek Drive,76053,32.8114993,-97.1955375
201,Billy Creek Drive,76053,32.8112919,-97.1954837
157,Billy Creek Drive,76053,32.8110550,-97.1953100
153,Billy Creek Drive,76053,32.8108980,-97.1951282
149,Billy Creek Drive,76053,32.8107539,-97.1949638
145,Billy Creek Drive,76053,32.8105985,-97.1947576
141,Billy Creek Drive,76053,32.8104688,-97.1945844
137,Billy Creek Drive,76053,32.8103405,-97.1944015
133,Billy Creek Drive,76053,32.8101483,-97.1942432
129,Billy Creek Drive,76053,32.8100269,-97.1941692
152,Billy Creek Drive,76053,32.8111070,-97.1945877
148,Billy Creek Drive,76053,32.8109388,-97.1944097
144,Billy Creek Drive,76053,32.8108074,-97.1942006
140,Billy Creek Drive,76053,32.8106636,-97.1940214
136,Billy Creek Drive,76053,32.8105137,-97.1938613
132,Billy Creek Drive,76053,32.8103829,-97.1937022
128,Billy Creek Drive,76053,32.8101470,-97.1935898
308,Billy Creek Drive,76053,32.8138893,-97.1946674
1012,Cherry Court,76053,32.8136238,-97.1945907
1008,Cherry Court,76053,32.8137552,-97.1942478
1004,Cherry Court,76053,32.8138523,-97.1939819
1000,Cherry Court,76053,32.8137418,-97.1937267
1001,Cherry Court,76053,32.8135069,-97.1935993
1005,Cherry Court,76053,32.8132462,-97.1937432
1009,Cherry Court,76053,32.8131834,-97.1940080
1013,Cherry Court,76053,32.8131985,-97.1942401
1017,Cherry Court,76053,32.8132043,-97.1945344
232,Billy Creek Drive,76053,32.8129244,-97.1945652
1012,Sean Court,76053,32.8126778,-97.1945777
1008,Sean Court,76053,32.8128267,-97.1942461
1004,Sean Court,76053,32.8128860,-97.1939637
1000,Sean Court,76053,32.8127837,-97.1936992
1001,Sean Court,76053,32.8125328,-97.1936315
1005,Sean Court,76053,32.8123160,-97.1937321
1017,Billy Creek Drive,76053,32.8122246,-97.1946340
1013,Sean Court,76053,32.8122370,-97.1943282
1009,Sean Court,76053,32.8122467,-97.1940564
1020,Calloway Drive,76053,32.8119019,-97.1948030
1016,Calloway Drive,76053,32.8118845,-97.1945614
1012,Calloway Drive,76053,32.8118850,-97.1943324
1008,Calloway Drive,76053,32.8118728,-97.1940713
1004,Calloway Drive,76053,32.8118713,-97.1938258
1000,Calloway Drive,76053,32.8118607,-97.1935950
936,Calloway Drive,76053,32.8118534,-97.1933128
225,Frazier Drive,76053,32.8120481,-97.1933016
229,Frazier Drive,76053,32.8122767,-97.1932998
301,Frazier Drive,76053,32.8124885,-97.1932990
305,Frazier Drive,76053,32.8126949,-97.1932880
309,Frazier Drive,76053,32.8129241,-97.1932910
313,Frazier Drive,76053,32.8131209,-97.1932870
317,Frazier Drive,76053,32.8134173,-97.1933049
320,Frazier Drive,76053,32.8135337,-97.1929851
316,Frazier Drive,76053,32.8133652,-97.1927200
312,Frazier Drive,76053,32.8131495,-97.1925789
308,Frazier Drive,76053,32.8128997,-97.1927281
1025,Calloway Drive,76053,32.8114477,-97.1949934
1021,Calloway Drive,76053,32.8114515,-97.1947637
1017,Calloway Drive,76053,32.8114399,-97.1945162
1013,Calloway Drive,76053,32.8114407,-97.1943008
1009,Calloway Drive,76053,32.8114551,-97.1940561
1005,Calloway Drive,76053,32.8114366,-97.1938291
1001,Calloway Drive,76053,32.8114362,-97.1935794
217,Calloway Drive,76053,32.8114522,-97.1933054
213,Frazier Drive,76053,32.8112690,-97.1932944
209,Frazier Drive,76053,32.8110595,-97.1933018
205,Frazier Drive,76053,32.8108543,-97.1932919
201,Frazier Drive,76053,32.8106308,-97.1933294
937,Hardie Street,76053,32.8103198,-97.1931718
933,Hardie Street,76053,32.8102904,-97.1928166
929,Hardie Street,76053,32.8104743,-97.1925610
925,Hardie Street,76053,32.8104254,-97.1923215
921,Hardie Street,76053,32.8104772,-97.1920925
919,Hardie Street,76053,32.8104792,-97.1918294
917,Hardie Street,76053,32.8104962,-97.1916097
913,Hardie Street,76053,32.8105142,-97.1913487
909,Hardie Street,76053,32.8105162,-97.1910810
905,Hardie Street,76053,32.8105472,-97.1908556
901,Hardie Street,76053,32.8106013,-97.1906313
200,Blossom Lane,76053,32.8106511,-97.1903600
204,Blossom Lane,76053,32.8108826,-97.1901831
208,Blossom Lane,76053,32.8111259,-97.1901966
212,Blossom Lane,76053,32.8113322,-97.1902355
216,Blossom Lane,76053,32.8115405,-97.1902831
220,Blossom Lane,76053,32.8117742,-97.1903221
224,Blossom Lane,76053,32.8119838,-97.1903264
228,Blossom Lane,76053,32.8122208,-97.1904186
232,Blossom Lane,76053,32.8123970,-97.1905902
236,Blossom Lane,76053,32.8125273,-97.1908051
240,Blossom Lane,76053,32.8126022,-97.1910559
244,Blossom Lane,76053,32.8126190,-97.1913293
248,Blossom Lane,76053,32.8125871,-97.1915654
252,Blossom Lane,76053,32.8125857,-97.1918099
256,Blossom Lane,76053,32.8125749,-97.1920765
260,Blossom Lane,76053,32.8125664,-97.1922959
264,Blossom Lane,76053,32.8125776,-97.1925393
268,Blossom Lane,76053,32.8125787,-97.1927701
1025,West Pipeline Road,76053,32.8231971,-97.1952595
245,Blossom Lane,76053,32.8121124,-97.1927788
241,Blossom Lane,76053,32.8121138,-97.1925376
237,Blossom Lane,76053,32.8121009,-97.1923137
233,Blossom Lane,76053,32.8121118,-97.1920880
229,Blossom Lane,76053,32.8121223,-97.1917816
225,Blossom Lane,76053,32.8121512,-97.1915300
221,Blossom Lane,76053,32.8121730,-97.1913057
217,Blossom Lane,76053,32.8121208,-97.1910581
213,Blossom Lane,76053,32.8118638,-97.1908301
904,Daisy Court,76053,32.8118074,-97.1910712
908,Daisy Court,76053,32.8118403,-97.1913339
912,Daisy Court,76053,32.8118042,-97.1916334
913,Daisy Court,76053,32.8112771,-97.1916299
909,Daisy Court,76053,32.8112877,-97.1913036
905,Daisy Court,76053,32.8113754,-97.1910424
209,Blossom Lane,76053,32.8114012,-97.1907669
205,Blossom Lane,76053,32.8111999,-97.1907547
201,Blossom Lane,76053,32.8110064,-97.1907139
904,Hardie Street,76053,32.8109798,-97.1910969
908,Hardie Street,76053,32.8109877,-97.1913296
912,Hardie Street,76053,32.8109256,-97.1915858
916,Hardie Street,76053,32.8109234,-97.1918170
920,Hardie Street,76053,32.8109169,-97.1921091
924,Hardie Street,76053,32.8109331,-97.1923376
928,Hardie Street,76053,32.8109142,-97.1925798
932,Hardie Street,76053,32.8109314,-97.1927948
212,Frazier Drive,76053,32.8111947,-97.1927877
216,Frazier Drive,76053,32.8113842,-97.1927586
925,Calloway Court,76053,32.8112167,-97.1923680
921,Calloway Court,76053,32.8113950,-97.1921245
924,Calloway Court,76053,32.8117042,-97.1921416
928,Calloway Court,76053,32.8118291,-97.1923891
932,Calloway Court,76053,32.8118509,-97.1927219
313,Precinct Line Road,76053,32.8139188,-97.1868914
722,Billie Ruth Lane,76053,32.8231920,-97.1926340
720,Billie Ruth Lane,76053,32.8231023,-97.1926858
718,Billie Ruth Lane,76053,32.8229491,-97.1926926
716,Billie Ruth Lane,76053,32.8228681,-97.1926945
714,Billie Ruth Lane,76053,32.8227316,-97.1927394
712,Billie Ruth Lane,76053,32.8226487,-97.1927396
710,Billie Ruth Lane,76053,32.8225293,-97.1927395
708,Billie Ruth Lane,76053,32.8224483,-97.1927398
706,Billie Ruth Lane,76053,32.8223288,-97.1927382
704,Billie Ruth Lane,76053,32.8222465,-97.1927384
702,Billie Ruth Lane,76053,32.8221276,-97.1927379
700,Billie Ruth Lane,76053,32.8220461,-97.1927382
626,Billie Ruth Lane,76053,32.8219273,-97.1927369
624,Billie Ruth Lane,76053,32.8218445,-97.1927371
622,Billie Ruth Lane,76053,32.8217239,-97.1927386
620,Billie Ruth Lane,76053,32.8216414,-97.1927390
618,Billie Ruth Lane,76053,32.8215220,-97.1927386
616,Billie Ruth Lane,76053,32.8214387,-97.1927393
614,Billie Ruth Lane,76053,32.8213201,-97.1927386
612,Billie Ruth Lane,76053,32.8212378,-97.1927390
610,Billie Ruth Lane,76053,32.8211149,-97.1927386
608,Billie Ruth Lane,76053,32.8210329,-97.1927386
606,Billie Ruth Lane,76053,32.8209165,-97.1927362
604,Billie Ruth Lane,76053,32.8208344,-97.1927369
602,Billie Ruth Lane,76053,32.8207167,-97.1927357
600,Billie Ruth Lane,76053,32.8206347,-97.1927360
550,Billie Ruth Lane,76053,32.8203012,-97.1927132
548,Billie Ruth Lane,76053,32.8202015,-97.1927134
546,Billie Ruth Lane,76053,32.8200765,-97.1927173
544,Billie Ruth Lane,76053,32.8199783,-97.1927182
542,Billie Ruth Lane,76053,32.8198583,-97.1927150
540,Billie Ruth Lane,76053,32.8197594,-97.1927144
538,Billie Ruth Lane,76053,32.8196378,-97.1927177
536,Billie Ruth Lane,76053,32.8195402,-97.1927171
534,Billie Ruth Lane,76053,32.8194164,-97.1927156
532,Billie Ruth Lane,76053,32.8193185,-97.1927165
530,Billie Ruth Lane,76053,32.8192001,-97.1927194
528,Billie Ruth Lane,76053,32.8190993,-97.1927199
526,Billie Ruth Lane,76053,32.8189767,-97.1927134
524,Billie Ruth Lane,76053,32.8188784,-97.1927156
522,Billie Ruth Lane,76053,32.8187583,-97.1927175
520,Billie Ruth Lane,76053,32.8186590,-97.1927170
518,Billie Ruth Lane,76053,32.8185384,-97.1927149
516,Billie Ruth Lane,76053,32.8184408,-97.1927134
514,Billie Ruth Lane,76053,32.8183156,-97.1927190
512,Billie Ruth Lane,76053,32.8182149,-97.1927195
510,Billie Ruth Lane,76053,32.8180926,-97.1927123
508,Billie Ruth Lane,76053,32.8179930,-97.1927127
506,Billie Ruth Lane,76053,32.8178732,-97.1927154
504,Billie Ruth Lane,76053,32.8177765,-97.1927168
502,Billie Ruth Lane,76053,32.8176535,-97.1927180
500,Billie Ruth Lane,76053,32.8175552,-97.1927164
733,Livingston Drive,76053,32.8234701,-97.1922862
729,Livingston Drive,76053,32.8233010,-97.1923016
725,Livingston Drive,76053,32.8231342,-97.1923167
721,Livingston Drive,76053,32.8229712,-97.1923187
717,Livingston Drive,76053,32.8228024,-97.1923012
713,Livingston Drive,76053,32.8226392,-97.1922848
709,Livingston Drive,76053,32.8224748,-97.1923356
705,Livingston Drive,76053,32.8223107,-97.1923003
701,Livingston Drive,76053,32.8221470,-97.1923252
633,Livingston Drive,76053,32.8219829,-97.1923142
629,Livingston Drive,76053,32.8218203,-97.1922945
625,Livingston Drive,76053,32.8216533,-97.1923083
621,Livingston Drive,76053,32.8214860,-97.1922825
617,Livingston Drive,76053,32.8213228,-97.1922985
613,Livingston Drive,76053,32.8211571,-97.1923161
609,Livingston Drive,76053,32.8209925,-97.1923111
605,Livingston Drive,76053,32.8208269,-97.1922945
601,Livingston Drive,76053,32.8206634,-97.1922986
732,Livingston Drive,76053,32.8234709,-97.1918542
728,Livingston Drive,76053,32.8232990,-97.1918318
724,Livingston Drive,76053,32.8231381,-97.1918231
720,Livingston Drive,76053,32.8229717,-97.1918214
716,Livingston Drive,76053,32.8228049,-97.1918368
712,Livingston Drive,76053,32.8226410,-97.1918550
708,Livingston Drive,76053,32.8224752,-97.1918572
704,Livingston Drive,76053,32.8223102,-97.1918410
700,Livingston Drive,76053,32.8221463,-97.1918150
632,Livingston Drive,76053,32.8219810,-97.1918254
628,Livingston Drive,76053,32.8218160,-97.1918420
624,Livingston Drive,76053,32.8216525,-97.1918256
620,Livingston Drive,76053,32.8214860,-97.1918294
616,Livingston Drive,76053,32.8213214,-97.1918290
612,Livingston Drive,76053,32.8211585,-97.1918231
608,Livingston Drive,76053,32.8209919,-97.1918229
604,Livingston Drive,76053,32.8208290,-97.1918386
600,Livingston Drive,76053,32.8206642,-97.1918287
557,Livingston Drive,76053,32.8199227,-97.1923477
553,Livingston Drive,76053,32.8197556,-97.1923146
549,Livingston Drive,76053,32.8195901,-97.1923304
545,Livingston Drive,76053,32.8194252,-97.1922792
541,Livingston Drive,76053,32.8192600,-97.1922825
537,Livingston Drive,76053,32.8190955,-97.1923195
533,Livingston Drive,76053,32.8189299,-97.1923163
529,Livingston Drive,76053,32.8187636,-97.1922824
525,Livingston Drive,76053,32.8186008,-97.1923000
521,Livingston Drive,76053,32.8184350,-97.1923312
517,Livingston Drive,76053,32.8182679,-97.1923089
513,Livingston Drive,76053,32.8181015,-97.1923295
509,Livingston Drive,76053,32.8179382,-97.1923093
505,Livingston Drive,76053,32.8177727,-97.1923096
501,Livingston Drive,76053,32.8175993,-97.1923088
564,Livingston Drive,76053,32.8202519,-97.1918546
560,Livingston Drive,76053,32.8200846,-97.1918077
556,Livingston Drive,76053,32.8199174,-97.1918235
552,Livingston Drive,76053,32.8197537,-97.1918266
548,Livingston Drive,76053,32.8195886,-97.1918228
544,Livingston Drive,76053,32.8194241,-97.1918460
540,Livingston Drive,76053,32.8192589,-97.1918272
536,Livingston Drive,76053,32.8190950,-97.1918193
532,Livingston Drive,76053,32.8189285,-97.1918177
528,Livingston Drive,76053,32.8187639,-97.1918328
524,Livingston Drive,76053,32.8185990,-97.1918488
520,Livingston Drive,76053,32.8184350,-97.1918315
516,Livingston Drive,76053,32.8182689,-97.1918192
512,Livingston Drive,76053,32.8181032,-97.1918526
508,Livingston Drive,76053,32.8179405,-97.1918287
504,Livingston Drive,76053,32.8177701,-97.1918261
500,Livingston Drive,76053,32.8176019,-97.1918029
1041,West Redbud Drive,76053,32.8175267,-97.1958084
1037,West Redbud Drive,76053,32.8175044,-97.1955801
1021,West Redbud Drive,76053,32.8174296,-97.1952961
1017,West Redbud Drive,76053,32.8171582,-97.1951562
1013,West Redbud Drive,76053,32.8172170,-97.1948354
1009,West Redbud Drive,76053,32.8170990,-97.1946119
1005,West Redbud Drive,76053,32.8170387,-97.1944065
1001,West Redbud Drive,76053,32.8169421,-97.1941585
941,West Redbud Drive,76053,32.8168523,-97.1939824
937,West Redbud Drive,76053,32.8166988,-97.1937252
933,West Redbud Drive,76053,32.8166545,-97.1935020
929,West Redbud Drive,76053,32.8165845,-97.1932796
925,West Redbud Drive,76053,32.8164168,-97.1930691
921,West Redbud Drive,76053,32.8163765,-97.1928371
917,West Redbud Drive,76053,32.8162687,-97.1925957
913,West Redbud Drive,76053,32.8162712,-97.1923227
909,West Redbud Drive,76053,32.8162179,-97.1920847
929,Oakwood Avenue,76053,32.8171348,-97.1934491
924,West Redbud Drive,76053,32.8169818,-97.1930739
920,West Redbud Drive,76053,32.8169059,-97.1928326
916,West Redbud Drive,76053,32.8168397,-97.1925684
912,West Redbud Drive,76053,32.8168132,-97.1923289
908,West Redbud Drive,76053,32.8167692,-97.1920717
904,West Redbud Drive,76053,32.8167551,-97.1918106
501,Englewood Lane,76053,32.8167791,-97.1914252
505,Englewood Lane,76053,32.8170125,-97.1913210
901,Oakwood Avenue,76053,32.8171661,-97.1911612
905,Oakwood Avenue,76053,32.8171280,-97.1917494
909,Oakwood Avenue,76053,32.8171810,-97.1920575
913,Oakwood Avenue,76053,32.8171597,-97.1922965
917,Oakwood Avenue,76053,32.8171723,-97.1925343
921,Oakwood Avenue,76053,32.8171642,-97.1927782
925,Oakwood Avenue,76053,32.8172071,-97.1930612
445,Precinct Line Road,76053,32.8166640,-97.1873603
876,West Redbud Drive,76053,32.8167440,-97.1909038
872,West Redbud Drive,76053,32.8167538,-97.1906537
868,West Redbud Drive,76053,32.8167404,-97.1904248
864,West Redbud Drive,76053,32.8167619,-97.1901952
860,West Redbud Drive,76053,32.8167515,-97.1899715
856,West Redbud Drive,76053,32.8167596,-97.1897194
852,West Redbud Drive,76053,32.8167361,-97.1894761
848,West Redbud Drive,76053,32.8167491,-97.1892343
844,West Redbud Drive,76053,32.8167359,-97.1889935
840,West Redbud Drive,76053,32.8167302,-97.1887369
836,West Redbud Drive,76053,32.8167010,-97.1885099
501,Moore Creek Drive,76053,32.8167461,-97.1882430
505,Moore Creek Drive,76053,32.8168813,-97.1881532
509,Moore Creek Drive,76053,32.8170994,-97.1880546
821,Oakwood Avenue,76053,32.8171144,-97.1883074
825,Oakwood Avenue,76053,32.8171291,-97.1885213
829,Oakwood Avenue,76053,32.8171160,-97.1887470
833,Oakwood Avenue,76053,32.8171163,-97.1889818
837,Oakwood Avenue,76053,32.8171068,-97.1892349
841,Oakwood Avenue,76053,32.8171181,-97.1894760
845,Oakwood Avenue,76053,32.8171271,-97.1897183
849,Oakwood Avenue,76053,32.8171254,-97.1899677
853,Oakwood Avenue,76053,32.8171085,-97.1902642
504,Englewood Lane,76053,32.8171108,-97.1905383
433,Englewood Lane,76053,32.8163057,-97.1914781
429,Englewood Lane,76053,32.8160454,-97.1914692
425,Englewood Lane,76053,32.8158327,-97.1914569
421,Englewood Lane,76053,32.8156428,-97.1914725
417,Englewood Lane,76053,32.8154433,-97.1915025
413,Englewood Lane,76053,32.8152279,-97.1915503
409,Englewood Lane,76053,32.8150320,-97.1916027
405,Englewood Lane,76053,32.8148216,-97.1916177
401,Englewood Lane,76053,32.8146200,-97.1916404
408,Henson Drive,76053,32.8148014,-97.1921595
909,Henson Drive,76053,32.8141043,-97.1921245
400,Englewood Lane,76053,32.8146307,-97.1911294
404,Englewood Lane,76053,32.8148452,-97.1911195
408,Englewood Lane,76053,32.8150454,-97.1910568
412,Englewood Lane,76053,32.8152482,-97.1910137
416,Englewood Lane,76053,32.8154539,-97.1909856
420,Englewood Lane,76053,32.8156577,-97.1909998
424,Englewood Lane,76053,32.8158734,-97.1909719
428,Englewood Lane,76053,32.8160661,-97.1909695
432,Englewood Lane,76053,32.8163006,-97.1910035
857,West Redbud Drive,76053,32.8163294,-97.1907600
433,Appleblossom Lane,76053,32.8162888,-97.1905040
429,Appleblossom Lane,76053,32.8160632,-97.1905426
425,Appleblossom Lane,76053,32.8158654,-97.1905070
421,Appleblossom Lane,76053,32.8156636,-97.1904993
417,Appleblossom Lane,76053,32.8154446,-97.1905294
413,Appleblossom Lane,76053,32.8152627,-97.1905555
409,Appleblossom Lane,76053,32.8150342,-97.1905807
405,Appleblossom Lane,76053,32.8148353,-97.1905951
401,Appleblossom Lane,76053,32.8146139,-97.1906079
849,West Redbud Drive,76053,32.8162996,-97.1900404
845,West Redbud Drive,76053,32.8163220,-97.1898045
424,Appleblossom Lane,76053,32.8160623,-97.1900414
420,Appleblossom Lane,76053,32.8158609,-97.1900254
416,Appleblossom Lane,76053,32.8156550,-97.1900037
412,Appleblossom Lane,76053,32.8154494,-97.1900574
408,Appleblossom Lane,76053,32.8152386,-97.1900479
404,Appleblossom Lane,76053,32.8150259,-97.1900902
400,Appleblossom Lane,76053,32.8147600,-97.1901295
836,Henson Drive,76053,32.8147323,-97.1898817
401,Carnation Lane,76053,32.8147313,-97.1896463
405,Carnation Lane,76053,32.8150399,-97.1896294
409,Carnation Lane,76053,32.8152473,-97.1896177
413,Carnation Lane,76053,32.8154477,-97.1895897
417,Carnation Lane,76053,32.8156504,-97.1895780
421,Carnation Lane,76053,32.8158573,-97.1895614
425,Carnation Lane,76053,32.8160602,-97.1895781
429,Carnation Lane,76053,32.8163022,-97.1895589
905,Henson Drive,76053,32.8142272,-97.1917920
901,Henson Drive,76053,32.8142090,-97.1915380
857,Henson Drive,76053,32.8142087,-97.1912735
853,Henson Drive,76053,32.8142158,-97.1910264
849,Henson Drive,76053,32.8142179,-97.1907789
845,Henson Drive,76053,32.8142339,-97.1905178
841,Henson Drive,76053,32.8142603,-97.1902629
837,Henson Drive,76053,32.8142862,-97.1899959
329,Carnation Lane,76053,32.8143072,-97.1896404
325,Carnation Lane,76053,32.8141171,-97.1896496
836,Magnolia Court,76053,32.8138587,-97.1896379
840,Magnolia Court,76053,32.8138481,-97.1898981
844,Magnolia Court,76053,32.8138604,-97.1900933
848,Magnolia Court,76053,32.8138474,-97.1903375
852,Magnolia Court,76053,32.8138473,-97.1905842
856,Magnolia Court,76053,32.8138496,-97.1908015
860,Magnolia Court,76053,32.8137779,-97.1910899
855,Magnolia Court,76053,32.8135394,-97.1911867
851,Magnolia Court,76053,32.8134432,-97.1904728
847,Magnolia Court,76053,32.8134418,-97.1902428
843,Magnolia Court,76053,32.8134400,-97.1900017
839,Magnolia Court,76053,32.8134310,-97.1897529
835,Magnolia Court,76053,32.8134054,-97.1895373
305,Carnation Lane,76053,32.8131745,-97.1895371
301,Carnation Lane,76053,32.8129569,-97.1895474
300,Carnation Lane,76053,32.8124412,-97.1891392
304,Carnation Lane,76053,32.8126743,-97.1890337
308,Carnation Lane,76053,32.8128729,-97.1890662
312,Carnation Lane,76053,32.8130847,-97.1890545
316,Carnation Lane,76053,32.8133112,-97.1890472
318,Carnation Lane,76053,32.8135033,-97.1890679
320,Carnation Lane,76053,32.8137117,-97.1890642
322,Carnation Lane,76053,32.8139120,-97.1891304
324,Carnation Lane,76053,32.8141179,-97.1891582
328,Carnation Lane,76053,32.8143273,-97.1891753
400,Carnation Lane,76053,32.8147168,-97.1891602
404,Carnation Lane,76053,32.8149089,-97.1891762
408,Carnation Lane,76053,32.8151128,-97.1891010
412,Carnation Lane,76053,32.8153074,-97.1891008
416,Carnation Lane,76053,32.8155041,-97.1890935
420,Carnation Lane,76053,32.8157081,-97.1890921
424,Carnation Lane,76053,32.8159149,-97.1890837
428,Carnation Lane,76053,32.8161228,-97.1890932
837,West Redbud Drive,76053,32.8163289,-97.1890613
833,West Redbud Drive,76053,32.8162726,-97.1887534
401,Moore Creek Drive,76053,32.8147292,-97.1886482
405,Moore Creek Drive,76053,32.8149179,-97.1886263
409,Moore Creek Drive,76053,32.8151252,-97.1886450
413,Moore Creek Drive,76053,32.8153418,-97.1886957
417,Moore Creek Drive,76053,32.8155374,-97.1886244
421,Moore Creek Drive,76053,32.8157473,-97.1886326
425,Moore Creek Drive,76053,32.8159530,-97.1886351
429,Moore Creek Drive,76053,32.8162301,-97.1885445
825,West Redbud Drive,76053,32.8160940,-97.1881074
821,West Redbud Drive,76053,32.8160208,-97.1879122
817,West Redbud Drive,76053,32.8159383,-97.1876921
813,West Redbud Drive,76053,32.8158861,-97.1874781
809,West Redbud Drive,76053,32.8157860,-97.1872599
805,West Redbud Drive,76053,32.8157545,-97.1870332
801,West Redbud Drive,76053,32.8157189,-97.1867991
420,Moore Creek Drive,76053,32.8158848,-97.1881321
416,Moore Creek Drive,76053,32.8157128,-97.1881337
820,Ruth Lane,76053,32.8156875,-97.1878632
816,Ruth Lane,76053,32.8155931,-97.1876698
812,Ruth Lane,76053,32.8155253,-97.1874476
808,Ruth Lane,76053,32.8154686,-97.1872353
804,Ruth Lane,76053,32.8153929,-97.1870125
800,Ruth Lane,76053,32.8153707,-97.1868114
821,Ruth Lane,76053,32.8152883,-97.1881191
408,Moore Creek Drive,76053,32.8150916,-97.1881331
404,Moore Creek Drive,76053,32.8148952,-97.1881489
400,Moore Creek Drive,76053,32.8147041,-97.1881194
816,Henson Drive,76053,32.8146706,-97.1877791
812,Henson Drive,76053,32.8146783,-97.1875554
808,Henson Drive,76053,32.8145965,-97.1873115
804,Henson Drive,76053,32.8146163,-97.1870713
800,Henson Drive,76053,32.8145573,-97.1868156
817,Ruth Lane,76053,32.8152000,-97.1877677
813,Ruth Lane,76053,32.8151222,-97.1875545
809,Ruth Lane,76053,32.8150545,-97.1873029
805,Ruth Lane,76053,32.8149760,-97.1870253
801,Ruth Lane,76053,32.8149309,-97.1868195
801,Henson Drive,76053,32.8141381,-97.1868353
809,Henson Drive,76053,32.8141637,-97.1873021
813,Henson Drive,76053,32.8142368,-97.1875538
817,Henson Drive,76053,32.8142347,-97.1877766
328,Moore Creek Drive,76053,32.8142947,-97.1881489
324,Moore Creek Drive,76053,32.8141030,-97.1881393
320,Moore Creek Drive,76053,32.8138979,-97.1881403
316,Moore Creek Drive,76053,32.8137960,-97.1881423
312,Moore Creek Drive,76053,32.8135576,-97.1881466
308,Moore Creek Drive,76053,32.8134553,-97.1881490
304,Moore Creek Drive,76053,32.8133063,-97.1881508
300,Moore Creek Drive,76053,32.8132039,-97.1881514
816,Cullum Court,76053,32.8132202,-97.1879466
814,Cullum Court,76053,32.8132194,-97.1878514
812,Cullum Court,76053,32.8131991,-97.1876891
810,Cullum Court,76053,32.8131984,-97.1876003
808,Cullum Court,76053,32.8131214,-97.1873632
804,Cullum Court,76053,32.8130814,-97.1871084
800,Cullum Court,76053,32.8129864,-97.1868793
309,Precinct Line Road,76053,32.8135838,-97.1872057
329,Moore Creek Drive,76053,32.8142996,-97.1886468
325,Moore Creek Drive,76053,32.8141053,-97.1886263
323,Moore Creek Drive,76053,32.8139363,-97.1886849
321,Moore Creek Drive,76053,32.8138436,-97.1886809
317,Moore Creek Drive,76053,32.8137039,-97.1886777
309,Moore Creek Drive,76053,32.8136141,-97.1886740
305,Moore Creek Drive,76053,32.8133760,-97.1886692
303,Moore Creek Drive,76053,32.8132242,-97.1887433
301,Moore Creek Drive,76053,32.8131216,-97.1887455
831,Cullum Court,76053,32.8129449,-97.1887641
825,Cullum Court,76053,32.8126212,-97.1884463
823,Cullum Court,76053,32.8126894,-97.1882310
821,Cullum Court,76053,32.8126887,-97.1881441
819,Cullum Court,76053,32.8127475,-97.1879833
817,Cullum Court,76053,32.8127459,-97.1878797
815,Cullum Court,76053,32.8127185,-97.1877237
813,Cullum Court,76053,32.8127182,-97.1876180
811,Cullum Court,76053,32.8126513,-97.1874452
809,Cullum Court,76053,32.8126510,-97.1873535
807,Cullum Court,76053,32.8125633,-97.1871759
805,Cullum Court,76053,32.8125621,-97.1870895
803,Cullum Court,76053,32.8125221,-97.1869400
801,Cullum Court,76053,32.8125210,-97.1868537
804,Betty Court,76053,32.8121892,-97.1871584
806,Betty Court,76053,32.8121899,-97.1872602
808,Betty Court,76053,32.8122770,-97.1874323
810,Betty Court,76053,32.8122779,-97.1875175
812,Betty Court,76053,32.8123169,-97.1877325
816,Betty Court,76053,32.8121498,-97.1879953
817,Betty Court,76053,32.8118909,-97.1880581
811,Betty Court,76053,32.8117001,-97.1874617
809,Betty Court,76053,32.8116997,-97.1873555
805,Betty Court,76053,32.8117298,-97.1870933
807,Betty Court,76053,32.8117297,-97.1871969
801,Betty Court,76053,32.8117000,-97.1868664
803,Betty Court,76053,32.8117017,-97.1869539
800,Treadwell Court,76053,32.8112158,-97.1868690
802,Treadwell Court,76053,32.8112169,-97.1869509
804,Treadwell Court,76053,32.8114058,-97.1873178
808,Treadwell Court,76053,32.8112878,-97.1876334
812,Treadwell Court,76053,32.8110257,-97.1876862
811,Treadwell Court,76053,32.8108195,-97.1874901
805,Treadwell Court,76053,32.8108064,-97.1871847
801,Treadwell Court,76053,32.8107984,-97.1868992
803,Treadwell Court,76053,32.8107994,-97.1869942
812,Baker Hurst Boulevard,76053,32.8096745,-97.1881493
808,Baker Hurst Boulevard,76053,32.8095855,-97.1875579
800,Baker Hurst Boulevard,76053,32.8096066,-97.1871622
827,Cullum Court,76053,32.8126293,-97.1885269
829,Cullum Court,76053,32.8128510,-97.1887658
1304,Precinct Line Road,76053,32.8351015,-97.1857200
780,West Bedford Euless Road,76053,32.8344866,-97.1856116
1400,Precinct Line Road,76053,32.8366641,-97.1833082
725,Airport Freeway,76053,32.8379712,-97.1846365
769,Airport Freeway,76053,32.8386925,-97.1844612
1244,Brookside Drive,76053,32.8332423,-97.1786520
1233,Precinct Line Road,76053,32.8333260,-97.1869928
813,Airport Freeway,76053,32.8379558,-97.1878250
760,W. Hurst Boulevard,76053,32.8097155,-97.1853266
540,Oak Park Drive,76053,32.8192098,-97.1669470
501,Oak Park Drive,76053,32.8166725,-97.1671730
508,Oak Park Drive,76053,32.8172025,-97.1668350
500,Caduceus Lane,76053,32.8165872,-97.1666205
541,Oak Park Drive,76053,32.8191723,-97.1674295
444,Hurstview Drive,76053,32.8161328,-97.1751200
501,Shadowbrook Lane,76053,32.8165283,-97.1769312
500,Buena Vista Drive,76053,32.8164708,-97.1748500
445,North Arthur Drive,76053,32.8161233,-97.1768255
443,Hurstview Drive,76053,32.8161003,-97.1756320
501,Hurstview Drive,76053,32.8165130,-97.1756817
111,East Redbud Drive,76053,32.8159850,-97.1665125
109,East Redbud Drive,76053,32.8159985,-97.1667430
108,Reaves Lane,76053,32.8160853,-97.1704270
1732,Precinct Line Road,76054,32.8471433,-97.1837521
619,Bluebonnet Drive,76053,32.8146043,-97.1601850
628,East Pipeline Road,76053,32.8232975,-97.1601058
708,East Pipeline Road,76053,32.8225511,-97.1590786
1501,Precinct Line Road,76054,32.8408629,-97.1878460
1600,Campus Drive,76054,32.8416536,-97.1907685
828,W Harwood Rd,76084,32.8501312,-97.1915386
1628,Precinct Line Road,76054,32.8441351,-97.1855670
1661,Precinct Line Road,76054,32.8444880,-97.1867588
1664,Oak Creek Drive,76054,32.8448716,-97.1841844
1600,Hurst Town Center Drive,76054,32.8420554,-97.1882136
820,Thousand Oaks Drive,76054,32.8419802,-97.1876654
728,Airport Freeway,76054,32.8406114,-97.1829374
1615,Campus Drive,76054,32.8417383,-97.1921790
767,Grapevine Highway,76054,32.8573969,-97.1832163
612,Grapevine Highway,76054,32.8640690,-97.1794895
6260,Precinct Line Road,76054,32.8615874,-97.1855693
645,Grapevine Highway,76054,32.8605874,-97.1790170
494,Grapevine Highway,76054,32.8642950,-97.1764661
7601,Airport Freeway,76118,32.8062013,-97.2129670
633,Northeast Loop 820,76053,32.8207430,-97.2068780
125,Northeast Loop 820 Frontage Road,76053,32.8109631,-97.2109041
1101,Melbourne Road,76054,32.8290476,-97.2008146
125,Northeast Loop 820 Frontage Road,76053,32.8111461,-97.2107294
1601,Campus Drive,76054,32.8411661,-97.1919196
1601,Campus Drive,76054,32.8412525,-97.1922259
517,Greenwood Circle,76053,32.8172463,-97.2010846
549,Greenwood Circle,76053,32.8167310,-97.1990029
405,Melbourne Road,76053,32.8159342,-97.1989176
1345,Yates Drive,76053,32.8387506,-97.1715949
1704,Chadwick Court,76054,32.8450424,-97.1814183
840,West Cheryl Avenue,76053,32.8273101,-97.1902353
