House number,Street name,Postal code,Latitude,Longitude
18246,RM1431,78641,30.5103900,-97.9124890
18360,RM1431,78645,30.5033270,-97.9162600
18368,RM1431,78645,30.5032110,-97.9167740
18400,RM1431,78645,30.5036280,-97.9168800
18420,RM1431,78645,30.5035180,-97.9188910
16008,Ranchland Hills Cove,78645,30.4703850,-97.9306200
16904,Regatta View Drive,78645,30.4422460,-97.9274710
17215,Reed Parks Road,78645,30.4817140,-97.9308770
17220,Reed Parks Road,78645,30.4807130,-97.9310040
17221,Reed Parks Road,78645,30.4811100,-97.9304930
17233,Reed Parks Road,78645,30.4812440,-97.9286530
17235,Reed Parks Road,78645,30.4820120,-97.9273180
17300,Reed Parks Road,78645,30.4807310,-97.9264150
17400,Reed Parks Road,78645,30.4783350,-97.9231420
17403,Breakwater Drive,78645,30.4427830,-97.9361290
17404,Regatta View Drive,78645,30.4454080,-97.9357660
17405,Breakwater Drive,78645,30.4426560,-97.9365760
17407,Breakwater Drive,78645,30.4425600,-97.9370100
17442,Reed Parks Road,78645,30.4763560,-97.9254000
17464,Reed Parks Road,78645,30.4754640,-97.9242380
17470,Reed Parks Road,78645,30.4753560,-97.9226620
17471,Reed Parks Road,78645,30.4765030,-97.9226420
17475,Reed Parks Road,78645,30.4764810,-97.9221790
17479,Reed Parks Road,78645,30.4763680,-97.9217350
17483,Reed Parks Road,78645,30.4761840,-97.9213900
17501,Breakwater Drive,78645,30.4425650,-97.9374580
17501,Lighthouse Landing Dr,78645,30.4687260,-97.9172790
17501,Navigation Lane,78645,30.4442480,-97.9360180
17501,Regatta View Drive,78645,30.4463160,-97.9362190
17503,Breakwater Drive,78645,30.4425240,-97.9379040
17503,Navigation Lane,78645,30.4441060,-97.9363960
17504,Lighthouse Landing Dr,78645,30.4694470,-97.9171760
17504,Regatta View Drive,78645,30.4464440,-97.9350110
17505,Breakwater Drive,78645,30.4424570,-97.9383530
17505,Lighthouse Landing Dr,78645,30.4686370,-97.9180440
17505,Navigation Lane,78645,30.4439670,-97.9368620
17505,Reed Parks Road,78645,30.4753660,-97.9214610
17507,Breakwater Drive,78645,30.4423400,-97.9387760
17507,Navigation Lane,78645,30.4439040,-97.9373200
17509,Lighthouse Landing Dr,78645,30.4690230,-97.9187440
17509,Navigation Lane,78645,30.4437980,-97.9378490
17509,Regatta View Drive,78645,30.4467140,-97.9362090
17512,Lighthouse Landing Dr,78645,30.4696730,-97.9183270
17512,Regatta View Drive,78645,30.4472710,-97.9351570
17513,Lighthouse Landing Dr,78645,30.4699090,-97.9195090
17516,Lighthouse Landing Dr,78645,30.4700330,-97.9186920
17516,Reed Parks Road,78645,30.4741850,-97.9207550
17520,Lighthouse Landing Dr,78645,30.4704350,-97.9189070
17521,Lighthouse Landing Dr,78645,30.4709020,-97.9200200
17600,Hunters Pass,78645,30.4709250,-97.9223650
17600,Regatta View Drive,78645,30.4476230,-97.9353900
17601,Breakwater Drive,78645,30.4421870,-97.9392040
17601,Hunters Pass,78645,30.4706830,-97.9220120
17601,Navigation Lane,78645,30.4436700,-97.9383340
17603,Breakwater Drive,78645,30.4421700,-97.9396600
17604,Hunters Pass,78645,30.4708610,-97.9227810
17604,Regatta View Drive,78645,30.4479640,-97.9356040
17605,Breakwater Drive,78645,30.4422100,-97.9401550
17605,Hunters Pass,78645,30.4702920,-97.9220280
17605,Navigation Lane,78645,30.4435150,-97.9393830
17607,Breakwater Drive,78645,30.4423970,-97.9405530
17607,Navigation Lane,78645,30.4436440,-97.9397990
17608,Hunters Pass,78645,30.4705340,-97.9229820
17608,Regatta View Drive,78645,30.4482970,-97.9357780
17609,Breakwater Drive,78645,30.4425730,-97.9409270
17609,Hunters Pass,78645,30.4699450,-97.9222130
17609,Navigation Lane,78645,30.4438310,-97.9401300
17612,Hunters Pass,78645,30.4701430,-97.9231150
17612,Regatta View Drive,78645,30.4485950,-97.9359530
17616,Hunters Pass,78645,30.4696530,-97.9232430
17617,Hunters Pass,78645,30.4695500,-97.9223590
17620,Hunters Pass,78645,30.4692020,-97.9232680
17621,Hunters Pass,78645,30.4690450,-97.9224280
17630,Reed Parks Road,78645,30.4726990,-97.9224050
17634,Reed Parks Road,78645,30.4725580,-97.9229160
17636,Reed Parks Road,78645,30.4725170,-97.9236100
17640,Reed Parks Road,78645,30.4721610,-97.9238590
17644,Reed Parks Road,78645,30.4717880,-97.9240720
17648,Reed Parks Road,78645,30.4714470,-97.9242660
17652,Reed Parks Road,78645,30.4711230,-97.9244870
17656,Reed Parks Road,78645,30.4706550,-97.9247580
17672,Reed Parks Road,78645,30.4686800,-97.9246240
17680,Reed Parks Road,78645,30.4678750,-97.9246530
17700,Edgewood Way,78645,30.4550680,-97.9342270
17700,Hunters Pass,78645,30.4685420,-97.9231080
17700,Reed Parks Road,78645,30.4674770,-97.9245970
17700,Regatta View Drive,78645,30.4489070,-97.9360870
17701,Breakwater Drive,78645,30.4427890,-97.9412330
17701,Hunters Pass,78645,30.4686250,-97.9223920
17701,Navigation Lane,78645,30.4441740,-97.9402550
17701,Regatta View Drive,78645,30.4483950,-97.9369960
17703,Breakwater Drive,78645,30.4430910,-97.9414740
17704,Hunters Pass,78645,30.4681410,-97.9230590
17705,Breakwater Drive,78645,30.4434570,-97.9416110
17705,Hunters Pass,78645,30.4681920,-97.9223200
17705,Regatta View Drive,78645,30.4487030,-97.9373210
17707,Breakwater Drive,78645,30.4438180,-97.9417930
17708,Hunters Pass,78645,30.4676940,-97.9230000
17708,Regatta View Drive,78645,30.4494510,-97.9365100
17709,Breakwater Drive,78645,30.4442000,-97.9418790
17709,Hunters Pass,78645,30.4677500,-97.9222120
17709,Navigation Lane,78645,30.4456010,-97.9406910
17710,Reed Parks Road,78645,30.4669380,-97.9250480
17712,Hunters Pass,78645,30.4672230,-97.9229950
17712,Old Burnet Road,78645,30.4509340,-97.9368150
17712,Regatta View Drive,78645,30.4498050,-97.9367390
17713,Hunters Pass,78645,30.4672940,-97.9220170
17717,Hunters Pass,78645,30.4667710,-97.9217980
17726,Reed Parks Road,78645,30.4664890,-97.9253830
17730,Reed Parks Road,78645,30.4663700,-97.9258460
17733,Reed Parks Road,78645,30.4652710,-97.9252130
17734,Reed Parks Road,78645,30.4663200,-97.9263270
17735,Reed Parks Road,78645,30.4651440,-97.9254180
17738,Reed Parks Road,78645,30.4662770,-97.9267690
17739,Reed Parks Road,78645,30.4649920,-97.9257140
17742,Reed Parks Road,78645,30.4662110,-97.9273190
17746,Reed Parks Road,78645,30.4662120,-97.9277890
17750,Reed Parks Road,78645,30.4662630,-97.9282580
17754,Reed Parks Road,78645,30.4661780,-97.9287300
17800,Reed Parks Road,78645,30.4660410,-97.9293810
17800,Regatta View Drive,78645,30.4500720,-97.9371080
17801,Breakwater Drive,78645,30.4444190,-97.9420580
17801,Navigation Lane,78645,30.4457660,-97.9412070
17801,Reed Parks Road,78645,30.4654480,-97.9285450
17803,Breakwater Drive,78645,30.4445930,-97.9422310
17804,Reed Parks Road,78645,30.4657320,-97.9297700
17804,Regatta View Drive,78645,30.4502020,-97.9376740
17805,Breakwater Drive,78645,30.4448020,-97.9425310
17805,Navigation Lane,78645,30.4462090,-97.9419820
17807,Breakwater Drive,78645,30.4450210,-97.9427230
17807,Navigation Lane,78645,30.4465880,-97.9421120
17808,Reed Parks Road,78645,30.4652840,-97.9300490
17808,Regatta View Drive,78645,30.4502200,-97.9380930
17809,Breakwater Drive,78645,30.4452230,-97.9429600
17809,Reed Parks Road,78645,30.4651900,-97.9289070
17812,Regatta View Drive,78645,30.4502080,-97.9385310
17814,North Street,78645,30.4569550,-97.9351890
17816,Reed Parks Road,78645,30.4647990,-97.9304840
17816,Regatta View Drive,78645,30.4501850,-97.9389750
17818,North Street,78645,30.4570560,-97.9354650
17821,Reed Parks Road,78645,30.4647420,-97.9290920
17831,Reed Parks Road,78645,30.4644770,-97.9294960
17839,Reed Parks Road,78645,30.4642330,-97.9298490
17901,Breakwater Drive,78645,30.4454120,-97.9431940
17901,Navigation Lane,78645,30.4469970,-97.9422540
17903,Breakwater Drive,78645,30.4456800,-97.9433780
17903,Crystal Cove,78645,30.4772077,-97.9230707
17903,Navigation Lane,78645,30.4473650,-97.9425620
17905,Breakwater Drive,78645,30.4459210,-97.9435630
17905,Crystal Cove,78645,30.4779170,-97.9218580
17906,Crystal Cove,78645,30.4784940,-97.9204740
17907,Breakwater Drive,78645,30.4462190,-97.9437560
17907,Navigation Lane,78645,30.4480460,-97.9431410
17908,Crystal Cove,78645,30.4786920,-97.9205900
17909,Breakwater Drive,78645,30.4464270,-97.9439920
17909,Navigation Lane,78645,30.4484240,-97.9431190
17911,Breakwater Drive,78645,30.4466740,-97.9442150
17911,Navigation Lane,78645,30.4487740,-97.9430280
17912,Crystal Cove,78645,30.4789710,-97.9210440
17922,Easy Street,78645,30.4827870,-97.9210960
17924,Edgewood Way,78645,30.4539460,-97.9371350
17928,Edgewood Way,78645,30.4537890,-97.9370030
17932,Edgewood Way,78645,30.4536100,-97.9368600
18000,Crystal Cove,78645,30.4793420,-97.9217670
18000,Edgewood Way,78645,30.4535140,-97.9365910
18001,Breakwater Drive,78645,30.4469690,-97.9444160
18003,Breakwater Drive,78645,30.4473580,-97.9444230
18005,Breakwater Drive,78645,30.4477060,-97.9445530
18007,Breakwater Drive,78645,30.4481710,-97.9444750
18008,Edgewood Way,78645,30.4536440,-97.9361370
18009,Breakwater Drive,78645,30.4486290,-97.9443080
18100,Old Burnet Road,78645,30.4507610,-97.9424470
18110,Easy Street,78645,30.4842700,-97.9238660
18116,Old Burnet Road,78645,30.4508400,-97.9430100
18124,Old Burnet Road,78645,30.4510080,-97.9433760
18132,Old Burnet Road,78645,30.4513460,-97.9434910
18140,Old Burnet Road,78645,30.4519090,-97.9438120
18200,Easy Street,78645,30.4842900,-97.9240970
18306,Easy Street,78645,30.4847440,-97.9267760
18311,West Rim Drive,78645,30.4858630,-97.9247440
18313,West Rim Drive,78645,30.4859410,-97.9247370
18405,Easy Street,78645,30.4843170,-97.9283540
18407,Easy Street,78645,30.4843140,-97.9286000
18432,Monet Pointe Drive,78645,30.4537930,-97.9478780
18453,Monet Pointe Drive,78645,30.4527190,-97.9486590
18500,Easy Street,78645,30.4850750,-97.9290160
18500,Monet Pointe Drive,78645,30.4519960,-97.9502960
18501,Hillside Circle,78645,30.4715470,-97.9362690
18501,Monet Pointe Drive,78645,30.4521040,-97.9487860
18502,Monet Pointe Drive,78645,30.4517560,-97.9502080
18503,Hillside Circle,78645,30.4716980,-97.9365380
18503,Monet Pointe Drive,78645,30.4517640,-97.9487940
18504,Monet Pointe Drive,78645,30.4515510,-97.9500940
18505,Monet Pointe Drive,78645,30.4514240,-97.9487440
18506,Monet Pointe Drive,78645,30.4513420,-97.9499850
18507,Easy Street,78645,30.4844560,-97.9298780
18507,Monet Pointe Drive,78645,30.4509790,-97.9485420
18508,Hobby Lane,78645,30.4774150,-97.9341960
18508,Monet Pointe Drive,78645,30.4511460,-97.9498650
18509,Monet Pointe Drive,78645,30.4504110,-97.9484110
18510,Hobby Lane,78645,30.4773170,-97.9344890
18510,Monet Pointe Drive,78645,30.4509370,-97.9497350
18511,Monet Pointe Drive,78645,30.4502020,-97.9489340
18512,Hobby Lane,78645,30.4771960,-97.9347770
18512,Monet Pointe Drive,78645,30.4507040,-97.9495850
18514,Hobby Lane,78645,30.4772190,-97.9350710
18514,Monet Pointe Drive,78645,30.4505060,-97.9493250
18600,Hobby Lane,78645,30.4772430,-97.9354100
18602,Hobby Lane,78645,30.4772730,-97.9356870
18604,Hobby Lane,78645,30.4772080,-97.9359800
18699 1/2,Old Burnet Road,78645,30.4550270,-97.9509910
18713,Natures Way,78645,30.4542490,-97.9517780
18717,Natures Way,78645,30.4542200,-97.9520070
18721,Natures Way,78645,30.4541190,-97.9522150
18725,Natures Way,78645,30.4543650,-97.9523310
18733,Natures Way,78645,30.4547170,-97.9525050
18800,Leisure Lane,78645,30.4549070,-97.9580100
18801,Leisure Lane,78645,30.4547330,-97.9582370
18804,Leisure Lane,78645,30.4552340,-97.9579790
18805,Leisure Lane,78645,30.4546850,-97.9586030
18808,Leisure Lane,78645,30.4554750,-97.9582140
18809,Leisure Lane,78645,30.4548010,-97.9589190
18813,Hidden Ridge Place,78645,30.4544830,-97.9536770
18813,Leisure Lane,78645,30.4550930,-97.9591080
18817,Hidden Ridge Place,78645,30.4543700,-97.9540260
18817,Leisure Lane,78645,30.4553700,-97.9593430
18821,Double Canyon Drive,78645,30.4785070,-97.9381370
18821,Hidden Ridge Place,78645,30.4544150,-97.9543090
18825,Hidden Ridge Place,78645,30.4545530,-97.9545820
18832,Hidden Ridge Place,78645,30.4552900,-97.9542180
18833,Hidden Ridge Place,78645,30.4547810,-97.9550280
18837,Hidden Ridge Place,78645,30.4550240,-97.9552440
18840,Hidden Ridge Place,78645,30.4557620,-97.9544800
18841,Hidden Ridge Place,78645,30.4552210,-97.9554060
18844,Hidden Ridge Place,78645,30.4562280,-97.9548550
18845,Hidden Ridge Place,78645,30.4555600,-97.9554780
18848,Hidden Ridge Place,78645,30.4564320,-97.9547430
18849,Hidden Ridge Place,78645,30.4560050,-97.9552570
18856,Hidden Ridge Place,78645,30.4568670,-97.9544940
18869,Old Farm-to-Market 1431,78645,30.4814010,-97.9335630
18881,Old Farm-to-Market 1431,78645,30.4813040,-97.9355800
18887,Old Farm-to-Market 1431,78645,30.4814610,-97.9360140
18901,Leisure Lane,78645,30.4555670,-97.9595380
18905,Leisure Lane,78645,30.4557610,-97.9597260
18909,Leisure Lane,78645,30.4559210,-97.9599430
18917,Double Canyon Drive,78645,30.4773220,-97.9409330
18921,Double Canyon Drive,78645,30.4772290,-97.9416490
19004,Leisure Lane,78645,30.4568440,-97.9595070
19008,Leisure Lane,78645,30.4572130,-97.9594840
19012,Leisure Lane,78645,30.4572790,-97.9591650
19016,Double Canyon Drive,78645,30.4782210,-97.9426510
19016,Leisure Lane,78645,30.4574430,-97.9589960
19020,Leisure Lane,78645,30.4576630,-97.9592940
19100,Leisure Lane,78645,30.4579150,-97.9593290
19101,Old Farm-to-Market 1431,78645,30.4791570,-97.9422720
19108,Leisure Lane,78645,30.4583040,-97.9597190
19112,Leisure Lane,78645,30.4584880,-97.9599760
19116,Leisure Lane,78645,30.4585890,-97.9602900
19156,Reed Parks Road,78645,30.4759480,-97.9475430
19200,Leisure Lane,78645,30.4586410,-97.9605230
19204,Leisure Lane,78645,30.4585760,-97.9608830
19208,Leisure Lane,78645,30.4584990,-97.9612570
19255,Reed Parks Road,78645,30.4786990,-97.9458280
19301,Leisure Lane,78645,30.4574930,-97.9620000
19305,Leisure Lane,78645,30.4576330,-97.9621550
19309,Leisure Lane,78645,30.4578940,-97.9623180
4501,Destination Way,78645,30.4449120,-97.9480480
4505,Destination Way,78645,30.4450980,-97.9482790
4509,Destination Way,78645,30.4453290,-97.9484830
4513,Destination Way,78645,30.4455600,-97.9486700
4601,Destination Way,78645,30.4457690,-97.9489360
4605,Destination Way,78645,30.4459840,-97.9491050
4609,Destination Way,78645,30.4461560,-97.9493980
4613,Destination Way,78645,30.4463140,-97.9497260
4617,Destination Way,78645,30.4464580,-97.9501340
4701,Destination Way,78645,30.4466230,-97.9504530
4705,Destination Way,78645,30.4468670,-97.9505350
4709,Destination Way,78645,30.4470520,-97.9507310
4713,Destination Way,78645,30.4470560,-97.9509230
4717,Destination Way,78645,30.4470950,-97.9511760
4721,Destination Way,78645,30.4471590,-97.9513490
4725,Destination Way,78645,30.4471850,-97.9515150
4729,Destination Way,78645,30.4471800,-97.9516810
5408,Destination Way,78645,30.4508640,-97.9611520
5409,Destination Way,78645,30.4506560,-97.9603210
5412,Destination Way,78645,30.4511720,-97.9610400
5413,Destination Way,78645,30.4509950,-97.9602520
5416,Destination Way,78645,30.4513130,-97.9608880
5417,Destination Way,78645,30.4512270,-97.9600520
5420,Destination Way,78645,30.4514710,-97.9608400
5421,Destination Way,78645,30.4514460,-97.9600210
5424,Destination Way,78645,30.4515900,-97.9606800
6004,Lantern View Drive,78645,30.4440340,-97.9314790
6008,Lantern View Drive,78645,30.4442950,-97.9309200
6100,Lantern View Drive,78645,30.4444850,-97.9303290
6104,Lantern View Drive,78645,30.4446860,-97.9296910
6108,Lantern View Drive,78645,30.4446900,-97.9289890
6200,Lantern View Drive,78645,30.4444810,-97.9283910
6204,Lantern View Drive,78645,30.4439950,-97.9279200
6208,Lantern View Drive,78645,30.4433790,-97.9276450
6212,Lantern View Drive,78645,30.4428670,-97.9275520
6304,Lantern View Drive,78645,30.4420100,-97.9291380
6308,Lantern View Drive,78645,30.4420520,-97.9296100
6400,Lantern View Drive,78645,30.4421650,-97.9301080
6404,Lantern View Drive,78645,30.4422620,-97.9305480
6408,Lantern View Drive,78645,30.4423420,-97.9310370
6412,Lantern View Drive,78645,30.4424150,-97.9314780
6500,Lantern View Drive,78645,30.4424300,-97.9319240
6504,Lantern View Drive,78645,30.4425580,-97.9324660
7002,Tradewind View Drive,78645,30.4464570,-97.9405430
7004,Tradewind View Drive,78645,30.4462340,-97.9400610
7006,Tradewind View Drive,78645,30.4463570,-97.9397090
7100,Tradewind View Drive,78645,30.4465090,-97.9393270
7102,Tradewind View Drive,78645,30.4467550,-97.9390670
7104,Tradewind View Drive,78645,30.4469760,-97.9388250
7106,Tradewind View Drive,78645,30.4472750,-97.9386400
7200,Admiral's Park Drive,78645,30.4494880,-97.9431600
7200,Flagship Park Drive,78645,30.4494120,-97.9423780
7200,Getaway Drive,78645,30.4531380,-97.9515620
7200,Tradewind View Drive,78645,30.4475530,-97.9384440
7201,Getaway Drive,78645,30.4533550,-97.9515490
7201,Sunswept Drive,78645,30.4534560,-97.9498810
7201,Trident Lane,78645,30.4554000,-97.9492770
7202,Admiral's Park Drive,78645,30.4501320,-97.9436080
7202,Flagship Park Drive,78645,30.4500710,-97.9417320
7202,Tradewind View Drive,78645,30.4478120,-97.9383310
7203,Admiral's Park Drive,78645,30.4491330,-97.9438810
7204,Flagship Park Drive,78645,30.4499520,-97.9412120
7204,Getaway Drive,78645,30.4530100,-97.9517860
7204,Sunswept Drive,78645,30.4537230,-97.9503990
7204,Tradewind View Drive,78645,30.4481010,-97.9380970
7205,Sunswept Drive,78645,30.4535640,-97.9496800
7206,Flagship Park Drive,78645,30.4498860,-97.9406340
7207,Admiral's Park Drive,78645,30.4493320,-97.9445350
7208,Getaway Drive,78645,30.4530010,-97.9520300
7208,Sunswept Drive,78645,30.4539350,-97.9504550
7209,Sunswept Drive,78645,30.4538460,-97.9495740
7209,Trident Lane,78645,30.4552070,-97.9488230
7212,Getaway Drive,78645,30.4531450,-97.9523080
7212,Sunswept Drive,78645,30.4541660,-97.9505100
7213,Sunswept Drive,78645,30.4540010,-97.9494110
7216,Getaway Drive,78645,30.4533070,-97.9525170
7217,Sunswept Drive,78645,30.4541030,-97.9492260
7220,Getaway Drive,78645,30.4534430,-97.9527190
7221,Sunswept Drive,78645,30.4543130,-97.9491980
7224,Getaway Drive,78645,30.4537810,-97.9528470
7225,Sunswept Drive,78645,30.4545110,-97.9492080
7229,Trident Lane,78645,30.4551140,-97.9477150
7233,Trident Lane,78645,30.4552330,-97.9474780
7245,Sunswept Drive,78645,30.4548780,-97.9508350
7249,Sunswept Drive,78645,30.4549860,-97.9506340
7253,Sunswept Drive,78645,30.4550950,-97.9504870
7257,Sunswept Drive,78645,30.4552440,-97.9503390
7261,Sunswept Drive,78645,30.4553920,-97.9501600
7300,Admiral's Park Drive,78645,30.4506580,-97.9442260
7300,Flagship Park Drive,78645,30.4493630,-97.9404480
7300,Matisse Pointe Drive,78645,30.4515990,-97.9460490
7301,Matisse Pointe Drive,78645,30.4521390,-97.9458030
7302,Admiral's Park Drive,78645,30.4510350,-97.9446520
7302,Flagship Park Drive,78645,30.4491610,-97.9400740
7303,Matisse Pointe Drive,78645,30.4526480,-97.9457610
7304,Admiral's Park Drive,78645,30.4507750,-97.9453260
7304,Flagship Park Drive,78645,30.4488190,-97.9398290
7305,Matisse Pointe Drive,78645,30.4528530,-97.9460570
7306,Admiral's Park Drive,78645,30.4504850,-97.9457100
7306,Flagship Park Drive,78645,30.4483580,-97.9395070
7306,Matisse Pointe Drive,78645,30.4517430,-97.9471430
7307,Flagship Park Drive,78645,30.4483880,-97.9408310
7307,Matisse Pointe Drive,78645,30.4529740,-97.9462500
7308,Admiral's Park Drive,78645,30.4501870,-97.9461230
7308,Flagship Park Drive,78645,30.4477070,-97.9396880
7308,Getaway Drive,78645,30.4544140,-97.9531820
7308,Matisse Pointe Drive,78645,30.4519660,-97.9473200
7310,Admiral's Park Drive,78645,30.4498800,-97.9467350
7310,Flagship Park Drive,78645,30.4473400,-97.9403250
7310,Matisse Pointe Drive,78645,30.4522460,-97.9474450
7311,Matisse Pointe Drive,78645,30.4532870,-97.9464630
7312,Admiral's Park Drive,78645,30.4493560,-97.9469420
7312,Flagship Park Drive,78645,30.4474030,-97.9410210
7312,Matisse Pointe Drive,78645,30.4527070,-97.9475720
7314,Admiral's Park Drive,78645,30.4489510,-97.9466680
7314,Flagship Park Drive,78645,30.4476530,-97.9414580
7314,Matisse Pointe Drive,78645,30.4532490,-97.9475740
7316,Admiral's Park Drive,78645,30.4486060,-97.9463040
7316,Flagship Park Drive,78645,30.4479760,-97.9417420
7318,Admiral's Park Drive,78645,30.4482960,-97.9458560
7318,Flagship Park Drive,78645,30.4483420,-97.9419290
7320,Admiral's Park Drive,78645,30.4483930,-97.9453040
7320,Flagship Park Drive,78645,30.4488300,-97.9418790
7322,Admiral's Park Drive,78645,30.4488820,-97.9448900
7322,Flagship Park Drive,78645,30.4492370,-97.9416280
7401,Calming Court,78645,30.4572190,-97.9558980
7404,Calming Court,78645,30.4579920,-97.9556100
7405,Calming Court,78645,30.4572920,-97.9555510
7408,Calming Court,78645,30.4581990,-97.9556280
7413,Calming Court,78645,30.4573100,-97.9550900
7417,Calming Court,78645,30.4573330,-97.9548430
7501,Live Oak Avenue,78645,30.4482280,-97.9308470
7504,Lantern View Drive,78645,30.4521040,-97.9384110
7508,Calcutta Run Drive,78645,30.4501650,-97.9337890
7601,Calcutta Run Drive,78645,30.4510000,-97.9328900
7601,Live Oak Avenue,78645,30.4485040,-97.9306860
7705,Lantern View Drive,78645,30.4510840,-97.9347450
7709,Lantern View Drive,78645,30.4512220,-97.9343830
7713,Lantern View Drive,78645,30.4514540,-97.9340670
7716,Calcutta Run Drive,78645,30.4533010,-97.9343560
7805,Live Oak Avenue,78645,30.4525540,-97.9314960
8200,Oveta Street,78645,30.4703040,-97.9440370
8204,Oveta Street,78645,30.4704130,-97.9443450
8208,Oveta Street,78645,30.4706400,-97.9445380
8212,Oveta Street,78645,30.4708440,-97.9447310
8300,Oveta Street,78645,30.4710610,-97.9449510
8304,Oveta Street,78645,30.4713280,-97.9451630
8308,Rock Cliff Drive,78645,30.4707440,-97.9436510
8312,Rock Cliff Drive,78645,30.4710250,-97.9438580
8332,Rock Cliff Drive,78645,30.4717940,-97.9444250
8333,Kelly Drive,78645,30.4656900,-97.9324840
8400,Oveta Street,78645,30.4719590,-97.9456770
8403,Rock Cliff Drive,78645,30.4722180,-97.9446740
8406,Rock Cliff Drive,78645,30.4722300,-97.9452370
8407,Rock Cliff Drive,78645,30.4724910,-97.9448390
8408,Breeze Way,78645,30.4743970,-97.9466850
8411,Rock Cliff Drive,78645,30.4727740,-97.9449940
8412,Kelly Drive,78645,30.4665740,-97.9316190
8412,Oveta Street,78645,30.4724810,-97.9460750
8413,Kelly Drive,78645,30.4663810,-97.9308530
8415,Rock Cliff Drive,78645,30.4730810,-97.9451580
8416,Kelly Drive,78645,30.4670410,-97.9314440
8417,Kelly Drive,78645,30.4669100,-97.9306910
8422,Rock Cliff Drive,78645,30.4737560,-97.9455990
8424,Rock Cliff Drive,78645,30.4739400,-97.9452330
8428,Grandview Drive,78645,30.4748030,-97.9453340
8428,Rock Cliff Drive,78645,30.4740110,-97.9449570
8430,Rock Cliff Drive,78645,30.4740530,-97.9447180
8500,Kelly Drive,78645,30.4674480,-97.9314130
8500,Tip Top Drive,78645,30.4694980,-97.9339980
8501,Kelly Drive,78645,30.4674710,-97.9306510
8501,Ranchland Hills Cove,78645,30.4668530,-97.9289690
8503,Rock Cliff Drive,78645,30.4735510,-97.9442450
8503,Tip Top Drive,78645,30.4700020,-97.9340290
8504,Kelly Drive,78645,30.4679600,-97.9313640
8507,Rock Cliff Drive,78645,30.4733870,-97.9437470
8508,Kelly Drive,78645,30.4685590,-97.9311860
8508,Ranchland Hills Cove,78645,30.4674040,-97.9292900
8509,Kelly Drive,78645,30.4685360,-97.9305340
8511,Rock Cliff Drive,78645,30.4732820,-97.9433360
8517,Oveta Street,78645,30.4740810,-97.9460800
8517,Ranchland Hills Cove,78645,30.4671150,-97.9284160
8517,Tip Top Drive,78645,30.4701060,-97.9335400
8519,Rock Cliff Drive,78645,30.4732940,-97.9420220
8520,Ranchland Hills Cove,78645,30.4677480,-97.9288260
8600,Grandview Drive,78645,30.4736230,-97.9402800
8600,Kelly Drive,78645,30.4691960,-97.9316470
8600,Ranchland Hills Cove,78645,30.4680430,-97.9284700
8601,Ranchland Hills Cove,78645,30.4673710,-97.9279840
8602,Grandview Drive,78645,30.4737270,-97.9399920
8603,Grandview Drive,78645,30.4730870,-97.9399360
8604,Kelly Drive,78645,30.4694370,-97.9322510
8604,Tip Top Drive,78645,30.4706890,-97.9351350
8605,Kelly Drive,78645,30.4699370,-97.9315380
8606,Tip Top Drive,78645,30.4708620,-97.9353270
8608,Kelly Drive,78645,30.4698110,-97.9326290
8608,Tip Top Drive,78645,30.4710360,-97.9355390
8609,Kelly Drive,78645,30.4702550,-97.9320380
8610,Grandview Drive,78645,30.4734300,-97.9390960
8610,Tip Top Drive,78645,30.4711610,-97.9357250
8613,Kelly Drive,78645,30.4701900,-97.9324740
8620,Ranchland Hills Cove,78645,30.4683450,-97.9281470
8700,Tip Top Drive,78645,30.4731260,-97.9363010
8707,Grandview Drive,78645,30.4735470,-97.9376520
8709,Grandview Drive,78645,30.4734850,-97.9373930
8800,Grandview Drive,78645,30.4741040,-97.9366660
8800,Ranchland Hills Cove,78645,30.4697880,-97.9248520
8801,Ranchland Hills Cove,78645,30.4691540,-97.9247540
8802,Grandview Drive,78645,30.4743350,-97.9364540
8803,Grandview Drive,78645,30.4738840,-97.9361390
8806,Grandview Drive,78645,30.4747270,-97.9359660
8808,Grandview Drive,78645,30.4749090,-97.9356960
8901,Ranchland Hills Cove,78645,30.4682470,-97.9254940
8903,Hobby Lane,78645,30.4751910,-97.9352430
8904,Grandview Drive,78645,30.4754130,-97.9347850
8904,Hobby Lane,78645,30.4754560,-97.9355830
8905,Hobby Lane,78645,30.4754490,-97.9352040
8906,Grandview Drive,78645,30.4755530,-97.9347690
8906,Hobby Lane,78645,30.4758210,-97.9356640
8917,Ranchland Hills Cove,78645,30.4679250,-97.9260060
9000,Grandview Drive,78645,30.4757180,-97.9344540
9000,Ranchland Hills Cove,78645,30.4684780,-97.9268280
9001,Hobby Lane,78645,30.4757400,-97.9351280
9001,Ranchland Hills Cove,78645,30.4678050,-97.9265210
9003,Grandview Drive,78645,30.4757350,-97.9338690
9003,Hobby Lane,78645,30.4760200,-97.9351090
9004,Grandview Drive,78645,30.4759840,-97.9344520
9006,Hobby Lane,78645,30.4765770,-97.9356720
9007,Hobby Lane,78645,30.4765940,-97.9351030
9008,Grandview Drive,78645,30.4762710,-97.9344810
9008,Hobby Lane,78645,30.4768250,-97.9356660
9009,Hobby Lane,78645,30.4768510,-97.9351200
9009,Ranchland Hills Cove,78645,30.4677850,-97.9270300
9012,Grandview Drive,78645,30.4766000,-97.9345090
9017,Ranchland Hills Cove,78645,30.4679540,-97.9275410
9100,Ranchland Hills Cove,78645,30.4687810,-97.9274240
9108,Ranchland Hills Cove,78645,30.4690240,-97.9277820
9116,Ranchland Hills Cove,78645,30.4694560,-97.9279750
9117,Ranchland Hills Cove,78645,30.4687590,-97.9289630
9124,Ranchland Hills Cove,78645,30.4693310,-97.9281300
9200,Ranchland Hills Cove,78645,30.4697220,-97.9283600
9201,Ranchland Hills Cove,78645,30.4692360,-97.9291740
9208,Ranchland Hills Cove,78645,30.4701470,-97.9284650
9209,Ranchland Hills Cove,78645,30.4696600,-97.9292630
9216,Ranchland Hills Cove,78645,30.4705360,-97.9285960
9217,Ranchland Hills Cove,78645,30.4700920,-97.9294210
9300,Ranchland Hills Cove,78645,30.4709250,-97.9287270
9301,Ranchland Hills Cove,78645,30.4707070,-97.9296250
9308,Ranchland Hills Cove,78645,30.4713710,-97.9288230
9309,Ranchland Hills Cove,78645,30.4711100,-97.9298140
9316,Ranchland Hills Cove,78645,30.4718470,-97.9289850
9400,Ranchland Hills Cove,78645,30.4722630,-97.9294040
9401,Ranchland Hills Cove,78645,30.4715440,-97.9300590
9408,Ranchland Hills Cove,78645,30.4724160,-97.9299220
9409,Ranchland Hills Cove,78645,30.4717330,-97.9305920
9416,Ranchland Hills Cove,78645,30.4725960,-97.9303970
9500,Ranchland Hills Cove,78645,30.4727830,-97.9307810
9501,Ranchland Hills Cove,78645,30.4720770,-97.9313520
9503,Harbor Drive,78645,30.4756410,-97.9193370
9505,Harbor Drive,78645,30.4759170,-97.9194130
9507,Harbor Drive,78645,30.4761830,-97.9195580
9508,Ranchland Hills Cove,78645,30.4729700,-97.9312390
9509,Harbor Drive,78645,30.4764050,-97.9196490
9509,Ranchland Hills Cove,78645,30.4722720,-97.9318270
9516,Ranchland Hills Cove,78645,30.4730940,-97.9317400
9517,Ranchland Hills Cove,78645,30.4722960,-97.9323140
9600,Ranchland Hills Cove,78645,30.4731350,-97.9327730
9601,Ranchland Hills Cove,78645,30.4722700,-97.9328690
9608,Ranchland Hills Cove,78645,30.4731380,-97.9332940
9609,Ranchland Hills Cove,78645,30.4722870,-97.9333730
9616,Ranchland Hills Cove,78645,30.4730120,-97.9338670
9617,Ranchland Hills Cove,78645,30.4725320,-97.9338630
9700,Clearwater Road,78645,30.4787380,-97.9222880
9900,North Place,78645,30.4835160,-97.9255520
12400,Lone Mountain Pass,78641,30.5143680,-97.9121920
12510,Lone Mountain Pass,78641,30.5159250,-97.9113260
12515,Lone Mountain Pass,78641,30.5169380,-97.9111320
12518,Lone Mountain Pass,78641,30.5178090,-97.9133230
12600,Lone Mountain Pass,78641,30.5180830,-97.9124340
12700,Lone Mountain Pass,78641,30.5198860,-97.9128800
12701,Lone Mountain Pass,78641,30.5202100,-97.9120080
12714,Lone Mountain Pass,78641,30.5208290,-97.9131730
12800,Lone Mountain Pass,78641,30.5217490,-97.9129580
12900,Angel Springs Drive,78641,30.5209220,-97.9082480
12901,Angel Springs Drive,78641,30.5210090,-97.9077520
12905,Angel Springs Drive,78641,30.5218830,-97.9078040
13000,Angel Springs Drive,78641,30.5224990,-97.9088130
13004,Angel Springs Drive,78641,30.5231990,-97.9092600
13009,Angel Springs Drive,78641,30.5238370,-97.9090630
13012,Angel Springs Drive,78641,30.5246440,-97.9101250
13013,Angel Springs Drive,78641,30.5246550,-97.9095450
18096,Farm-to-Market Road 1431,78641,30.5182910,-97.9056440
18100,Farm-to-Market Road 1431,78641,30.5181680,-97.9059680
18118,Farm-to-Market Road 1431,78641,30.5174770,-97.9072560
18146,Farm-to-Market Road 1431,78641,30.5172630,-97.9083440
18220,Farm-to-Market Road 1431,78641,30.5128580,-97.9118750
18701,Angel Mountain Drive,78641,30.5140130,-97.9135110
18804,Angel Mountain Drive,78641,30.5165000,-97.9133290
18805,Angel Mountain Drive,78641,30.5149940,-97.9146030
18900,Angel Mountain Drive,78641,30.5171010,-97.9143260
18901,Angel Mountain Drive,78641,30.5155250,-97.9151020
18918,Angel Mountain Drive,78641,30.5173300,-97.9155940
18919,Angel Mountain Drive,78641,30.5167710,-97.9162230
10709,Trails End Road,78641,30.4842500,-97.9040050
10300,Lakeside Drive,78645,30.4881380,-97.9227160
10302,Lakeside Drive,78645,30.4882260,-97.9225200
10306,Lakeside Drive,78645,30.4884700,-97.9221120
10317,Scenic Drive,78641,30.4820580,-97.9117160
10400,Lakeside Drive,78645,30.4885520,-97.9218920
10506,Lakeside Drive,78645,30.4895260,-97.9206550
10508,Lakeside Drive,78645,30.4896840,-97.9205040
10510,Lakeside Drive,78645,30.4898700,-97.9202730
10703,Lakeside Drive,78645,30.4921090,-97.9183980
10708,Crestview Drive,78645,30.4940910,-97.9226510
10708,Trails End Road,78641,30.4848220,-97.9051300
10710,Crestview Drive,78645,30.4942310,-97.9225940
10712,Crestview Drive,78645,30.4943690,-97.9225090
10800,1st Street,78645,30.4954590,-97.9235660
10800,2nd Street,78645,30.4952360,-97.9228890
10800,3rd Street,78645,30.4945030,-97.9224590
10801,2nd Street,78645,30.4951840,-97.9224500
10802,2nd Street,78645,30.4953840,-97.9228170
10803,1st Street,78645,30.4953730,-97.9231550
10805,Crestview Drive,78645,30.4940510,-97.9215700
10813,Lakeside Drive,78645,30.4930710,-97.9170360
10823,Crestview Drive,78645,30.4935960,-97.9189900
10900,6th Street,78645,30.4940740,-97.9202250
10901,5th Street,78645,30.4941100,-97.9205110
10901,Travis Drive,78645,30.4936110,-97.9174480
10902,2nd Street,78645,30.4957060,-97.9226680
10902,4th Street,78645,30.4948190,-97.9214390
10903,1st Street,78645,30.4956850,-97.9230070
10903,Travis Drive,78645,30.4937370,-97.9175210
10904,1st Street,78645,30.4959100,-97.9233650
10904,3rd Street,78645,30.4953380,-97.9220430
10905,2nd Street,78645,30.4957170,-97.9222170
10905,4th Street,78645,30.4947940,-97.9210890
10905,5th Street,78645,30.4944470,-97.9203490
10905,6th Street,78645,30.4943180,-97.9196590
10905,Crestview Drive,78645,30.4943290,-97.9189440
10905,Travis Drive,78645,30.4939070,-97.9175940
10906,3rd Street,78645,30.4954750,-97.9219630
10907,5th Street,78645,30.4946520,-97.9203160
10907,Travis Drive,78645,30.4940540,-97.9176470
10908,6th Street,78645,30.4947240,-97.9199430
10909,5th Street,78645,30.4947960,-97.9202420
11000,3rd Street,78645,30.4956280,-97.9218920
11000,4th Street,78645,30.4954330,-97.9212200
11000,5th Street,78645,30.4951300,-97.9205490
11000,7th Street,78645,30.4950620,-97.9198500
11001,1st Street,78645,30.4960160,-97.9228730
11001,3rd Street,78645,30.4955650,-97.9214970
11001,5th Street,78645,30.4949580,-97.9201190
11001,Lakeside Drive,78645,30.4939480,-97.9169680
11002,1st Street,78645,30.4961990,-97.9232390
11003,2nd Street,78645,30.4960910,-97.9220370
11003,3rd Street,78645,30.4957210,-97.9214160
11003,5th Street,78645,30.4951200,-97.9200590
11004,3rd Street,78645,30.4959190,-97.9217800
11004,5th Street,78645,30.4954000,-97.9204370
11005,3rd Street,78645,30.4958830,-97.9213280
11006,1st Street,78645,30.4965050,-97.9230630
11006,2nd Street,78645,30.4964730,-97.9223360
11006,4th Street,78645,30.4959390,-97.9210190
11006,Lakeside Drive,78645,30.4946290,-97.9175350
11007,1st Street,78645,30.4965750,-97.9226200
11007,5th Street,78645,30.4953380,-97.9200110
11007,7th Street,78645,30.4955550,-97.9196350
11008,2nd Street,78645,30.4967590,-97.9221730
11010,1st Street,78645,30.4970510,-97.9228450
11010,2nd Street,78645,30.4969260,-97.9221150
11010,5th Street,78645,30.4960370,-97.9201270
11011,1st Street,78645,30.4970430,-97.9224060
11011,5th Street,78645,30.4958970,-97.9197450
11012,5th Street,78645,30.4962130,-97.9200940
11013,4th Street,78645,30.4962790,-97.9203730
11100,1st Street,78645,30.4981150,-97.9227510
11100,5th Street,78645,30.4965670,-97.9199000
11101,3rd Street,78645,30.4967260,-97.9209560
11101,Lakeside Drive,78645,30.4952980,-97.9169640
11102,5th Street,78645,30.4967520,-97.9198320
11103,1st Street,78645,30.4973400,-97.9222630
11103,3rd Street,78645,30.4968700,-97.9208910
11104,1st Street,78645,30.4975110,-97.9226010
11104,2nd Street,78645,30.4973850,-97.9219280
11104,4th Street,78645,30.4969280,-97.9205460
11104,5th Street,78645,30.4969010,-97.9197490
11105,4th Street,78645,30.4970450,-97.9200150
11105,5th Street,78645,30.4967770,-97.9193700
11106,1st Street,78645,30.4976350,-97.9225120
11106,4th Street,78645,30.4970920,-97.9204600
11106;11116,5th Street;Travis Drive,78645,30.4970450,-97.9196660
11108,4th Street,78645,30.4972790,-97.9203840
11109,4th Street,78645,30.4973050,-97.9198850
11110,1st Street,78645,30.4979650,-97.9223840
11110,3rd Street,78645,30.4976000,-97.9209650
11112,1st Street,78645,30.4981180,-97.9223010
11112,2nd Street,78645,30.4981010,-97.9215600
11112,3rd Street,78645,30.4977940,-97.9209300
11112,4th Street,78645,30.4976730,-97.9201660
11112,Travis Drive,78645,30.4972360,-97.9196050
11113,3rd Street,78645,30.4976450,-97.9205380
11114,1st Street,78645,30.4983230,-97.9222300
11114,2nd Street,78645,30.4982040,-97.9215140
11116,2nd Street,78645,30.4983810,-97.9214280
11117,3rd Street,78645,30.4979250,-97.9203840
11302,Lakeside Drive,78645,30.4978390,-97.9162470
11304,Lakeside Drive,78645,30.4992200,-97.9163944
11311,Lakeside Drive,78645,30.4982970,-97.9147580
11403,Leander Street,78645,30.4995780,-97.9156440
11404,Leander Street,78645,30.4998790,-97.9159700
11405,Bertram Street,78645,30.5000190,-97.9163300
11405,Leander Street,78645,30.4998340,-97.9156600
11406,Bertram Street,78645,30.5004400,-97.9166310
11407,Bertram Street,78645,30.5002560,-97.9161820
11408,Leander Street,78645,30.5001010,-97.9159550
11409,Leander Street,78645,30.5000870,-97.9154860
11410,Leander Street,78645,30.5003820,-97.9158060
11415,Bertram Street,78645,30.5006010,-97.9160450
11418,Hill Drive,78641,30.4971780,-97.9081560
11502,Bee Street,78645,30.5025050,-97.9152650
11510,Crumley Creek Road,78645,30.5002330,-97.9139770
11519,Crumley Creek Road,78645,30.5009170,-97.9139650
11520,Main Street,78645,30.5010590,-97.9137470
11524,Crumley Creek Road,78645,30.5011780,-97.9147730
11526,Crumley Creek Road,78645,30.5013130,-97.9148850
11526,Main Street,78645,30.5014130,-97.9140130
11530,Main Street,78645,30.5017520,-97.9143710
11535,Main Street,78645,30.5021100,-97.9140670
11536,Main Street,78645,30.5021040,-97.9146930
11537,Main Street,78645,30.5022340,-97.9142160
11618,Travis Street,78645,30.5022900,-97.9138410
11622,Travis Street,78645,30.5025830,-97.9141690
11623,Travis Street,78645,30.5028080,-97.9136180
11809,Evergreen Street,78645,30.5050000,-97.9126540
11810,Pecan Drive,78645,30.5049020,-97.9121750
11812,Pecan Drive,78645,30.5050050,-97.9119800
11815,Pecan Drive,78645,30.5050210,-97.9113290
11824,Pecan Drive,78645,30.5053380,-97.9118760
11827,Pecan Drive,78645,30.5055750,-97.9114430
17009,Blue Canyon Cove,78641,30.5125500,-97.8945790
17017,Blue Canyon Cove,78641,30.5127200,-97.8954520
17020,Blue Canyon Cove,78641,30.5141470,-97.8953940
17701,Cross Street,78645,30.5011710,-97.9062730
17702,Sandy Lane,78645,30.5017280,-97.9060070
17703,Cross Street,78645,30.5010290,-97.9063610
17704,Sandy Lane,78645,30.5017480,-97.9062230
17705,Sandy Lane,78645,30.5013320,-97.9060210
17706,Sandy Lane,78645,30.5016920,-97.9064210
17707,Cross Street,78645,30.5007340,-97.9064740
17708,Cross Street,78645,30.5007550,-97.9070230
17708,Sandy Lane,78645,30.5017000,-97.9065960
17709,Cross Street,78645,30.5005640,-97.9066250
17711,Cross Street,78645,30.5003930,-97.9067160
17715,Cross Street,78645,30.5001340,-97.9069510
17716,Sandy Lane,78645,30.5014840,-97.9075120
17804,Sandy Lane,78645,30.5012330,-97.9079770
17813,Lafayette Park Road,78645,30.4998630,-97.9086730
17815,Cross Street,78645,30.4989320,-97.9086290
17815,Lafayette Park Road,78645,30.4997160,-97.9088000
17816,Sandy Lane,78645,30.5007660,-97.9090930
17818,Sandy Lane,78645,30.5007000,-97.9095050
17819,Lafayette Park Road,78645,30.4997120,-97.9091150
17823,Cross Street,78645,30.4987720,-97.9094450
17825,Cross Street,78645,30.4987890,-97.9096530
17914,Lafayette Park Road,78645,30.5000590,-97.9113690
17917,Lafayette Park Road,78645,30.4994360,-97.9114460
18000,Lafayette Park Road,78645,30.5000140,-97.9117510
18002,Lafayette Park Road,78645,30.5000180,-97.9119280
18089,Farm-to-Market Road 1431,78641,30.5176070,-97.9037740
18100,Reedy Court,78645,30.4920340,-97.9170980
18102,East Lake Terrace Drive,78645,30.4992620,-97.9147970
18103,Angel Valley Drive,78641,30.5146470,-97.8996280
18103,Center Street,78645,30.4986470,-97.9152080
18105,Reedy Court,78645,30.4921780,-97.9177430
18106,East Lake Terrace Drive,78645,30.4997950,-97.9149150
18107,Reedy Court,78645,30.4922450,-97.9180060
18200,Angel Valley Drive,78641,30.5166080,-97.9027470
18200,Fair Lane,78645,30.4953260,-97.9173150
18201,Center Street,78645,30.4985160,-97.9155660
18201,East Lakeview Drive,78645,30.4990710,-97.9154350
18201,Fair Lane,78645,30.4948970,-97.9174220
18202,Cedar Street,78645,30.4959970,-97.9172620
18202,Fair Lane,78645,30.4952590,-97.9175410
18203,Cedar Street,78645,30.4957110,-97.9172190
18203,Fair Lane,78645,30.4948130,-97.9175980
18203,Lake Oaks Drive,78645,30.4990050,-97.9160380
18203,Lura Lane,78645,30.4917600,-97.9197010
18204,Ellason Drive,78645,30.5046950,-97.9127480
18204,Fair Lane,78645,30.4951830,-97.9177020
18204,Sandy Street,78645,30.4968260,-97.9170540
18205,Fair Lane,78645,30.4947530,-97.9177770
18205,Lake Oaks Drive,78645,30.4989240,-97.9161870
18206,Cedar Street,78645,30.4958860,-97.9174930
18206,Ellason Drive,78645,30.5047810,-97.9129290
18206,Fair Lane,78645,30.4951110,-97.9178910
18206,Sandy Street,78645,30.4967080,-97.9173260
18207,Cedar Street,78645,30.4954570,-97.9176130
18207,Fair Lane,78645,30.4946850,-97.9179520
18207,Lake Oaks Drive,78645,30.4988740,-97.9163740
18207,Sandy Street,78645,30.4963320,-97.9173080
18208,Edna Road,78645,30.4906810,-97.9220120
18208,Fair Lane,78645,30.4950250,-97.9181040
18208,Lake Oaks Drive,78645,30.4991710,-97.9172350
18209,Cedar Street,78645,30.4953780,-97.9178300
18209,Lake Oaks Drive,78645,30.4988240,-97.9165450
18209,Ledge Street,78645,30.4975510,-97.9167390
18209,Sandy Street,78645,30.4962480,-97.9174840
18210,Cedar Street,78645,30.4957410,-97.9179440
18210,Center Street,78645,30.4985140,-97.9164930
18210,Sandy Street,78645,30.4965640,-97.9176590
18211,Angel Valley Drive,78641,30.5151620,-97.9025840
18211,Sandy Street,78645,30.4961840,-97.9176590
18213,Sandy Street,78645,30.4961160,-97.9178300
18214,Cedar Street,78645,30.4956270,-97.9182210
18214,Center Street,78645,30.4983560,-97.9169450
18214,Sandy Street,78645,30.4964320,-97.9180000
18215,Lake Oaks Drive,78645,30.4986710,-97.9171160
18216,Center Street,78645,30.4982760,-97.9171160
18217,Sandy Street,78645,30.4960180,-97.9180560
18218,Sandy Street,78645,30.4963200,-97.9183500
18219,Ledge Street,78645,30.4971750,-97.9175520
18219,Sandy Street,78645,30.4959200,-97.9183320
18222,Edna Road,78645,30.4905180,-97.9227090
18222,Ledge Street,78645,30.4972450,-97.9181300
18222,Sandy Street,78645,30.4962440,-97.9187170
18223,Center Street,78645,30.4977050,-97.9176320
18223,Ledge Street,78645,30.4969590,-97.9180320
18225,Lura Lane,78645,30.4899810,-97.9210550
18226,Edna Road,78645,30.4908420,-97.9232100
18228,Lura Lane,78645,30.4901500,-97.9218680
18237,Lura Lane,78645,30.4892390,-97.9220630
18300,Lake Oaks Drive,78645,30.4989710,-97.9174450
18300,Ledge Street,78645,30.4970820,-97.9185000
18301,Center Street,78645,30.4976250,-97.9177800
18301,Lake Oaks Drive,78645,30.4986410,-97.9172950
18302,Center Street,78645,30.4979400,-97.9181600
18303,East Lake Terrace Drive,78645,30.4995650,-97.9173910
18303,Lake Oaks Drive,78645,30.4985700,-97.9174590
18303,Ledge Street,78645,30.4967600,-97.9183750
18303,Park Drive,78645,30.4918860,-97.9215590
18303,Redbud Lane,78645,30.4980610,-97.9184660
18304,Lake Oaks Drive,78645,30.4988360,-97.9179080
18304,Roundrock Road,78645,30.5003730,-97.9169570
18304,Spring Lane,78645,30.4914490,-97.9221150
18305,Ledge Street,78645,30.4966630,-97.9185100
18305,Redbud Lane,78645,30.4979880,-97.9185890
18306,Redbud Lane,78645,30.4980730,-97.9193440
18306,Roundrock Road,78645,30.5005200,-97.9168980
18306,Spring Lane,78645,30.4914540,-97.9223820
18307,Center Street,78645,30.4974660,-97.9181810
18307,East Lake Terrace Drive,78645,30.4994110,-97.9178890
18307,Park Drive,78645,30.4920570,-97.9219730
18307,Redbud Lane,78645,30.4979510,-97.9187580
18307,Spring Lane,78645,30.4910600,-97.9221710
18308,Center Street,78645,30.4976760,-97.9186280
18308,East Lake Terrace Drive,78645,30.4997060,-97.9182910
18308,Lake Oaks Drive,78645,30.4987320,-97.9184010
18308,Spring Lane,78645,30.4914590,-97.9226560
18309,East Lake Terrace Drive,78645,30.4993250,-97.9181080
18309,East Lakeview Drive,78645,30.5003570,-97.9182100
18309,Redbud Lane,78645,30.4978830,-97.9189330
18309,Spring Lane,78645,30.4910580,-97.9223840
18310,Austin Drive,78645,30.4966640,-97.9201840
18310,Center Street,78645,30.4975960,-97.9187990
18310,East Lake Terrace Drive,78645,30.4996160,-97.9184910
18310,Lake Oaks Drive,78645,30.4986290,-97.9186470
18310,Spring Lane,78645,30.4914500,-97.9229070
18311,Austin Drive,78645,30.4964240,-97.9209200
18311,Spring Lane,78645,30.4910490,-97.9226200
18312,Center Street,78645,30.4975240,-97.9189700
18312,East Lake Terrace Drive,78645,30.4995470,-97.9187360
18312,Lake Oaks Drive,78645,30.4985630,-97.9188760
18312,Roundrock Road,78645,30.5009020,-97.9166470
18313,Lake Oaks Drive,78645,30.4983330,-97.9183570
18313,Park Drive,78645,30.4920310,-97.9227570
18314,East Lake Terrace Drive,78645,30.4994590,-97.9190470
18314,Lake Oaks Drive,78645,30.4985240,-97.9191090
18315,Park Drive,78645,30.4920230,-97.9229460
18316,East Lake Terrace Drive,78645,30.4994010,-97.9193150
18322,Lake Oaks Drive,78645,30.4984850,-97.9198630
18324,Roundrock Road,78645,30.5013600,-97.9169910
18341,Farm-to-Market Road 1431,78645,30.5033710,-97.9150790
18400,Austin Drive,78645,30.4965950,-97.9207210
18402,East Lakeview Drive,78645,30.5006620,-97.9182690
18403,East Lake Terrace Drive,78645,30.4989690,-97.9198120
18403,East Lakeview Drive,78645,30.5002630,-97.9183910
18403,Lake Oaks Drive,78645,30.4981740,-97.9207500
18404,Roundrock Road,78645,30.5017180,-97.9178660
18405,East Lake Terrace Drive,78645,30.4989730,-97.9200360
18405,East Lakeview Drive,78645,30.5001870,-97.9186180
18405,Georgetown Drive,78645,30.4947510,-97.9223630
18405,Roundrock Road,78645,30.5014620,-97.9181560
18406,Austin Drive,78645,30.4965480,-97.9210390
18406,East Lakeview Drive,78645,30.5005270,-97.9187290
18408,Angel Valley Drive,78641,30.5153470,-97.9068890
18408,Roundrock Road,78645,30.5018050,-97.9181800
18409,East Lakeview Drive,78645,30.5000340,-97.9191830
18411,East Lakeview Drive,78645,30.4999790,-97.9194620
18412,Roundrock Road,78645,30.5020970,-97.9189320
18500,East Lake Terrace Drive,78645,30.4995310,-97.9207440
18500,East Lakeview Drive,78645,30.5003730,-97.9201630
18501,East Lakeview Drive,78645,30.5000700,-97.9203790
18501,Roundrock Road,78645,30.5019470,-97.9194250
18503,East Lakeview Drive,78645,30.5001350,-97.9206750
18505,East Lakeview Drive,78645,30.5002280,-97.9209620
18506,East Lake Terrace Drive,78645,30.4998620,-97.9214500
18506,East Lakeview Drive,78645,30.5006830,-97.9209930
18507,East Lakeview Drive,78645,30.5003300,-97.9212220
18521,Farm-to-Market Road 1431,78645,30.5021470,-97.9201190
18575,Farm-to-Market Road 1431,78645,30.4984780,-97.9225240
18579,Farm-to-Market Road 1431,78645,30.4982510,-97.9226420
18589,Farm-to-Market Road 1431,78645,30.4975460,-97.9229640
18617,Farm-to-Market Road 1431,78645,30.4956410,-97.9238830
18653,Farm-to-Market Road 1431,78645,30.4921910,-97.9233600
18655,Farm-to-Market Road 1431,78645,30.4921180,-97.9233550
18683,Farm-to-Market Road 1431,78645,30.4907000,-97.9236950
18685,Farm-to-Market Road 1431,78645,30.4905640,-97.9238450
10500,West Lakeview Drive,78645,30.4923310,-97.9257040
10501,West Lakeview Drive,78645,30.4924480,-97.9252700
10502,Deer Canyon Road,78645,30.4913500,-97.9253830
10503,Sunny Lane,78645,30.4925360,-97.9245230
10504,Turkey Bend Drive,78645,30.4922810,-97.9276990
10504,West Lakeview Drive,78645,30.4925390,-97.9257710
10505,Sunny Lane,78645,30.4926870,-97.9246460
10505,Turkey Bend Drive,78645,30.4922930,-97.9268160
10506,Deer Canyon Road,78645,30.4918450,-97.9259640
10506,Turkey Bend Drive,78645,30.4925630,-97.9277140
10508,West Lakeview Drive,78645,30.4929930,-97.9259710
10509,West Lakeview Drive,78645,30.4930170,-97.9256080
10511,Turkey Bend Drive,78645,30.4931930,-97.9273070
10513,Turkey Bend Drive,78645,30.4933850,-97.9274010
10514,Turkey Bend Drive,78645,30.4936800,-97.9281170
10517,Turkey Bend Drive,78645,30.4939850,-97.9275720
10601,Sunny Lane,78645,30.4928230,-97.9247020
10601,West Lakeview Drive,78645,30.4932190,-97.9257090
10602,Turkey Bend Drive,78645,30.4943880,-97.9283550
10603,Turkey Bend Drive,78645,30.4945180,-97.9277010
10603,West Lakeview Drive,78645,30.4933560,-97.9258260
10604,Turkey Bend Drive,78645,30.4946850,-97.9284820
10606,Sunny Lane,78645,30.4931120,-97.9253270
10608,Sunny Lane,78645,30.4932820,-97.9254290
10608,Turkey Bend Drive,78645,30.4951250,-97.9284630
10609,Turkey Bend Drive,78645,30.4951260,-97.9277410
10610,Sunny Lane,78645,30.4934170,-97.9255230
10611,West Lakeview Drive,78645,30.4938990,-97.9260990
10612,Sunny Lane,78645,30.4935760,-97.9255980
10613,Turkey Bend Drive,78645,30.4954580,-97.9277870
10614,Sunny Lane,78645,30.4937270,-97.9256870
10614,West Lakeview Drive,78645,30.4941560,-97.9266020
10615,Sunny Lane,78645,30.4939190,-97.9252670
10615,West Lakeview Drive,78645,30.4941680,-97.9262330
10618,West Lakeview Drive,78645,30.4945010,-97.9267450
10619,Sunny Lane,78645,30.4941790,-97.9254420
10620,West Lakeview Drive,78645,30.4946740,-97.9268090
10700,Sunny Lane,78645,30.4944810,-97.9259880
10704,Sunny Lane,78645,30.4947320,-97.9260930
10705,Laurel Lane,78645,30.4952950,-97.9250340
10706,Sunny Lane,78645,30.4948880,-97.9260840
10707,Laurel Lane,78645,30.4954330,-97.9251380
10707,Turkey Bend Drive,78645,30.4959220,-97.9277540
10709,Sunny Lane,78645,30.4951900,-97.9257280
10709,Turkey Bend Drive,78645,30.4964350,-97.9278180
10710,Sunny Lane,78645,30.4951660,-97.9261380
10711,West Lakeview Drive,78645,30.4957010,-97.9266010
10713,Turkey Bend Drive,78645,30.4967860,-97.9278090
10713,West Lakeview Drive,78645,30.4958370,-97.9266590
10715,West Lakeview Drive,78645,30.4960000,-97.9267140
10718,Sunny Lane,78645,30.4958550,-97.9263250
10802,Sunny Lane,78645,30.4963580,-97.9264040
10803,Sunny Lane,78645,30.4964150,-97.9260060
10803,Turkey Bend Drive,78645,30.4971280,-97.9278440
10807,West Lakeview Drive,78645,30.4966430,-97.9268190
10900,Oak Street,78645,30.4962020,-97.9248350
10901,Turkey Bend Drive,78645,30.4979430,-97.9278570
10901,West Lakeview Drive,78645,30.4971540,-97.9268620
10902,Turkey Bend Drive,78645,30.4979180,-97.9285360
10905,Turkey Bend Drive,78645,30.4982950,-97.9279030
10907,Elm Street,78645,30.4968410,-97.9248640
10907,Lee Sage Circle,78645,30.4973350,-97.9253790
10909,Elm Street,78645,30.4969770,-97.9248160
10909,Lee Sage Circle,78645,30.4974930,-97.9253240
10909,Turkey Bend Drive,78645,30.4986670,-97.9280570
10918,Ridgeway Cove,78645,30.4973950,-97.9269180
10927,Panoramic View,78645,30.4981510,-97.9293140
10933,Panoramic View,78645,30.4983890,-97.9290870
10939,Panoramic View,78645,30.4985830,-97.9289190
11000,Elm Street,78645,30.4972580,-97.9251140
11000,Oak Street,78645,30.4964910,-97.9247230
11000,West Lake Terrace Drive,78645,30.4979420,-97.9269590
11001,Elm Street,78645,30.4971480,-97.9248120
11001,Lee Sage Circle,78645,30.4976510,-97.9252630
11002,Elm Street,78645,30.4974050,-97.9250530
11002,West Lake Terrace Drive,78645,30.4979880,-97.9267590
11004,Oak Street,78645,30.4968880,-97.9245480
11004,West Lakeview Drive,78645,30.4987350,-97.9274210
11006,Oak Street,78645,30.4970440,-97.9244540
11006,West Lake Terrace Drive,78645,30.4980940,-97.9264460
11007,Elm Street,78645,30.4976170,-97.9245900
11007,Lee Sage Circle,78645,30.4981040,-97.9250670
11007,West Lake Terrace Drive,78645,30.4976320,-97.9263930
11007,West Lakeview Drive,78645,30.4984720,-97.9270030
11008,Elm Street,78645,30.4978740,-97.9248320
11009,Lee Sage Circle,78645,30.4982510,-97.9249940
11009,Oak Street,78645,30.4968780,-97.9239950
11009,West Lake Terrace Drive,78645,30.4976960,-97.9261200
11010,West Lake Terrace Drive,78645,30.4983000,-97.9258110
11011,West Lake Terrace Drive,78645,30.4977460,-97.9259580
11011,West Lakeview Drive,78645,30.4986400,-97.9265670
11012,Oak Street,78645,30.4973130,-97.9243230
11015,West Lake Terrace Drive,78645,30.4979230,-97.9256590
11018,Oak Street,78645,30.4977810,-97.9241210
11019,West Lake Terrace Drive,78645,30.4979920,-97.9254960
11100,Oak Street,78645,30.4981000,-97.9239810
11100,West Lakeview Drive,78645,30.4996350,-97.9265440
11101,Oak Street,78645,30.4979210,-97.9235390
11101,West Lake Terrace Drive,78645,30.4984040,-97.9249200
11103,Elm Street,78645,30.4983520,-97.9242160
11104,Oak Street,78645,30.4983980,-97.9238170
11104,West Lake Terrace Drive,78645,30.4991220,-97.9250460
11105,West Lake Terrace Drive,78645,30.4987030,-97.9247470
11106,Elm Street,78645,30.4987740,-97.9244090
11106,West Lake Terrace Drive,78645,30.4993200,-97.9249170
11107,Elm Street,78645,30.4985750,-97.9240580
11107,West Lake Terrace Drive,78645,30.4988830,-97.9246350
11108,West Lake Terrace Drive,78645,30.4995530,-97.9247460
11111,Elm Street,78645,30.4989770,-97.9238550
11111,West Lakeview Drive,78645,30.4996110,-97.9253040
11113,Oak Street,78645,30.4989550,-97.9230010
11115,Elm Street,78645,30.4991470,-97.9237390
11201,Clearview Drive,78645,30.5000490,-97.9261680
11201,West Lakeview Drive,78645,30.4997890,-97.9251820
11202,Clearview Drive,78645,30.5003970,-97.9261920
11202,Oak Street,78645,30.4994380,-97.9231960
11204,Oak Street,78645,30.4995860,-97.9230850
11205,West Lake Terrace Drive,78645,30.4995210,-97.9234630
11206,Clearview Drive,78645,30.5007300,-97.9259890
11206,West Lake Terrace Drive,78645,30.4999500,-97.9234140
11207,Clearview Drive,78645,30.5005890,-97.9253570
11210,Clearview Drive,78645,30.5011210,-97.9255250
11211,Clearview Drive,78645,30.5007300,-97.9250550
11216,West Lake Terrace Drive,78645,30.5001250,-97.9221510
11222,Clearview Drive,78645,30.5009270,-97.9238630
11301,Clearview Drive,78645,30.5004670,-97.9236030
11302,Clearview Drive,78645,30.5009980,-97.9234920
11303,Clearview Drive,78645,30.5005280,-97.9233580
11303,East Lakeview Drive,78645,30.5011440,-97.9245910
11305,Clearview Drive,78645,30.5006230,-97.9230870
11307,Clearview Drive,78645,30.5008070,-97.9228530
11308,East Lakeview Drive,78645,30.5014360,-97.9252780
11309,East Lakeview Drive,78645,30.5016490,-97.9249480
11310,Clearview Drive,78645,30.5013910,-97.9228660
11310,East Lakeview Drive,78645,30.5017980,-97.9254180
18500,Old Farm-to-Market 1431,78645,30.5031110,-97.9204730
18503,Jonestown Street,78645,30.4921850,-97.9239910
18513,Jonestown Street,78645,30.4921250,-97.9252960
18576,Old Farm-to-Market 1431,78645,30.4985090,-97.9232600
18588,Old Farm-to-Market 1431,78645,30.4976860,-97.9236360
18603,Packsaddle Road,78645,30.4873340,-97.9297020
18603,West Lakeview Drive,78645,30.5004570,-97.9218730
18608,Old Farm-to-Market 1431,78645,30.4960980,-97.9244010
18615,West Lakeview Drive,78645,30.5001630,-97.9229630
18617,Deer Canyon Road,78645,30.4898640,-97.9269450
18626,Old Farm-to-Market 1431,78645,30.4943950,-97.9251980
18628,Old Farm-to-Market 1431,78645,30.4942080,-97.9250530
18630,Old Farm-to-Market 1431,78645,30.4940990,-97.9249570
18658,Old Farm-to-Market 1431,78645,30.4919370,-97.9240390
18660,Old Farm-to-Market 1431,78645,30.4918610,-97.9240570
18778,Old Farm-to-Market 1431,78645,30.4858960,-97.9301580
18870,Old Farm-to-Market 1431,78645,30.4830080,-97.9341500
18900,Old Farm-to-Market 1431,78645,30.4824960,-97.9377830
18916,Old Farm-to-Market 1431,78645,30.4817330,-97.9380900
18920,Old Farm-to-Market 1431,78645,30.4811470,-97.9400160
19000,Old Farm-to-Market 1431,78645,30.4804350,-97.9422220
12800,Angel Side Drive,78641,30.5207106,-97.9050796
18566,Old Farm-to-Market 1431,78645,30.4995858,-97.9226241
11201,Oak Street,78645,30.4993020,-97.9227842
18593,Farm-to-Market Road 1431,78645,30.4972942,-97.9231397
18638,Old Farm-to-Market 1431,78645,30.4935382,-97.9246579
18637,Farm-to-Market Road 1431,78645,30.4937815,-97.9239514
18643,Farm-to-Market Road 1431,78645,30.4935028,-97.9238278
18645,Farm-to-Market Road 1431,78645,30.4932655,-97.9236760
18649,Farm-to-Market Road 1431,78645,30.4928551,-97.9233359
18663,Farm-to-Market Road 1431,78645,30.4917717,-97.9233358
18669,Farm-to-Market Road 1431,78645,30.4916662,-97.9233442
18671,Farm-to-Market Road 1431,78645,30.4914668,-97.9232877
18681,Farm-to-Market Road 1431,78645,30.4910461,-97.9234453
18700,Old Farm-to-Market 1431,78645,30.4903142,-97.9255030
18601,FM1431,78645,30.4965520,-97.9233485
18313,Easy Street,78645,30.4841315,-97.9274020
18304,Park Drive North,78645,30.4929133,-97.9212725
18681,Farm-to-Market Road 1431,78645,30.4911951,-97.9235831
19100,Old Farm-to-Market 1431,78645,30.4812670,-97.9435735
19421,RM1431,78645,30.4764428,-97.9517764
18421,Plazaway St,78645,30.4945685,-97.9232389
