House number,Street name,Postal code,Latitude,Longitude
6537,Manorwood Drive,77493,29.8254182,-95.8295782
25675,Nelson Way,77494,29.7730001,-95.8219099
25681,Nelson Way,77494,29.7747441,-95.8217685
5351,1st Street,77493,29.7864907,-95.8141732
2840,Kelly Road,77493,29.8148188,-95.8195415
1310,Pin Oak Road,77494,29.7708747,-95.8183301
1330,Pin Oak Road,77494,29.7705161,-95.8187405
1306,Pin Oak Road,77494,29.7709398,-95.8182819
6002,George Bush Drive,77493,29.7911650,-95.8265654
2819,Cottonwood Drive,77493,29.8142338,-95.8310957
5249,Franz Road,77493,29.8005323,-95.8096455
1712,Spring Green Boulevard,77494,29.7631692,-95.8436498
1708,Spring Green Boulevard,77494,29.7639870,-95.8435646
1721,Spring Green Boulevard,77494,29.7616358,-95.8414734
2418,Slate Ridge Lane,77494,29.7929902,-95.8300347
27748,US-90,77494,29.7867300,-95.8556838
801,"FM 1463, 100",77494,29.7763712,-95.8326023
5561,3rd Street,77493,29.7879675,-95.8205399
555,Katy Fort Bend Road,77494,29.7800030,-95.8029923
407,Cane Island Parkway,77494,29.7837127,-95.8500697
25307,Kingsland Boulevard,77494,29.7701409,-95.8114268
25311,Kingsland Boulevard,77494,29.7711960,-95.8104592
5000,Katy Mills Circle,77494,29.7731330,-95.8092459
5000,Katy Mills Circle,77494,29.7750024,-95.8099731
5000,Katy Mills Circle,77494,29.7747957,-95.8094170
25109,Market Place Drive,77494,29.7817990,-95.8033535
5304,East 5th Street,77493,29.7904849,-95.8116827
1736,Airline Drive,77493,29.7979615,-95.8181716
2001,Katy Mills Boulevard,77494,29.7836612,-95.8060768
26214,Kingsgate Lane,77494,29.7681917,-95.8306275
5701,Highway Boulevard,77494,29.7855246,-95.8225638
7302,Palmetto Springs Trail,77493,29.8040947,-95.8487019
7210,Brenta Court,77493,29.8044254,-95.8480093
7306,Palmetto Springs Trail,77493,29.8038681,-95.8484092
7406,Palmetto Springs Trail,77493,29.8036258,-95.8495643
7319,Palmetto Springs Trail,77493,29.8032317,-95.8472738
7403,Palmetto Springs Trail,77493,29.8025871,-95.8499817
7402,Palmetto Springs Trail,77493,29.8033445,-95.8493602
7335,Palmetto Springs Trail,77493,29.8023830,-95.8483857
7310,Palmetto Springs Trail,77493,29.8036663,-95.8480420
7407,Palmetto Springs Trail,77493,29.8028667,-95.8501120
7323,Palmetto Springs Trail,77493,29.8028748,-95.8472371
6224,Franz Road,77493,29.8006542,-95.8308009
6234,Franz Road,77493,29.8006403,-95.8312602
6035,Franz Court,77493,29.8000130,-95.8282492
6430,Bartlett Road,77493,29.7943646,-95.8340239
5240,Tallowwood Terrace,77493,29.8130255,-95.8108029
25108,Market Place Drive,77494,29.7835112,-95.8040801
1155,Woodcreek Bend Lake,77494,29.7667266,-95.8328378
1801,Woodcreek Bend Lane,77494,29.7605051,-95.8301567
5726,George Bush Drive,77493,29.7916392,-95.8221907
6331,Highway Boulevard,77494,29.7834489,-95.8333713
1732,Katyland Drive,77493,29.7971947,-95.8102670
5350,Franz Road,77493,29.8034499,-95.8106203
1734,Katyland Drive,77493,29.7956946,-95.8088776
5360,Franz Road,77493,29.8025247,-95.8142649
1732,Katyland Drive,77493,29.7972002,-95.8087601
25108,Market Place Drive,77494,29.7839757,-95.8039437
5418,Franz Road,77493,29.8034513,-95.8179315
6406,Deer Meadow Lane,77493,29.8058402,-95.8333139
6318,Deer Meadow Lane,77493,29.8058426,-95.8326675
6402,Deer Meadow Lane,77493,29.8058402,-95.8331088
6302,Crystal Forest Trail,77493,29.8094244,-95.8297493
6310,Crystal Forest Trail,77493,29.8093930,-95.8301248
6218,Crystal Forest Trail,77493,29.8094197,-95.8293709
6318,Crystal Forest Trail,77493,29.8094244,-95.8305030
6222,Crystal Forest Trail,77493,29.8094058,-95.8295521
6210,Crystal Forest Trail,77493,29.8094325,-95.8289727
6314,Crystal Forest Trail,77493,29.8094139,-95.8303179
6306,Crystal Forest Trail,77493,29.8094186,-95.8299383
6214,Crystal Forest Trail,77493,29.8094218,-95.8291699
1210,Avenue A,77492,29.7901575,-95.8208266
25675,Nelson Way,77494,29.7733876,-95.8224289
25401,Katy Mills Parkway,77494,29.7755132,-95.8128582
25408,Bell Patina Drive,77494,29.7775282,-95.8136022
25635,Katy Freeway,77494,29.7748200,-95.8204846
555,Katy Fort Bend Road,77494,29.7793100,-95.8042980
1331,Pin Oak Road,77494,29.7713311,-95.8168958
1155,Woodcreek Bend Lane,77494,29.7666745,-95.8329815
5414,Franz Road,77493,29.8023199,-95.8174156
5432,Franz Road,77493,29.8022291,-95.8184375
5456,Franz Road,77493,29.8019313,-95.8196553
27700,Katy Freeway,77494,29.7786841,-95.8475409
25120,Market Place Drive,77494,29.7825783,-95.8066490
25115,Katy Freeway,77494,29.7839994,-95.8058499
25601,Nelson Way,77494,29.7741159,-95.8192983
1251,Pin Oak Road,77494,29.7731554,-95.8169101
25560,Kingsland Boulevard,77494,29.7737612,-95.8182125
25554,Kingsland Boulevard,77494,29.7739573,-95.8173841
1712,Spring Green Boulevard,77494,29.7628590,-95.8439008
9422,Spring Green Boulevard,77494,29.7627608,-95.8413320
1717,Spring Green Boulevard,77494,29.7623287,-95.8414331
1721,Spring Green Boulevard,77494,29.7615703,-95.8413620
5990,George Bush Drive,77493,29.7913156,-95.8266237
5360,Franz Road,77493,29.8024960,-95.8145595
6311,Highway Boulevard,77494,29.7839348,-95.8327438
5726,George Bush Drive,77493,29.7914630,-95.8223777
5990,George Bush Drive,77493,29.7914246,-95.8256981
600,Pin Oak Road,77494,29.7835073,-95.8189257
25406,Katy Mills Parkway,77494,29.7755900,-95.8156472
25402,Katy Mills Parkway,77494,29.7762377,-95.8149440
26150,Katy Freeway,77494,29.7784149,-95.8305412
444,FM 1463,77494,29.7781754,-95.8326896
25214,Market Place Drive,77494,29.7826177,-95.8081851
5249,Franz Road,77493,29.8003161,-95.8098464
25201,Market Place Drive,77494,29.7818427,-95.8073772
905,Katy Fort Bend Road,77494,29.7845452,-95.8023206
25109,Market Place Drive,77494,29.7818116,-95.8032992
25105,Market Place Drive,77494,29.7818014,-95.8022247
25112,Market Place Drive,77494,29.7825638,-95.8054676
2501,Texmati Drive,77494,29.7816390,-95.8092554
2405,Texmati Drive,77494,29.7821516,-95.8098020
25218,Market Place Drive,77494,29.7821486,-95.8085602
2006,Katy Mills Boulevard,77494,29.7830360,-95.8075094
2409,Texmati Drive,77494,29.7827088,-95.8089279
1998,Katy Mills Boulevard,77494,29.7837196,-95.8076447
1998,Katy Mills Boulevard,77494,29.7838096,-95.8075223
2413,Buckskin Lane,77493,29.8079497,-95.8268863
2417,Buckskin Lane,77493,29.8081314,-95.8268614
2409,Buckskin Lane,77493,29.8077669,-95.8268278
2405,Buckskin Lane,77493,29.8075837,-95.8268878
2401,Buckskin Lane,77493,29.8074143,-95.8268385
2410,Buckskin Lane,77493,29.8077847,-95.8263511
2414,Buckskin Lane,77493,29.8079666,-95.8263140
2418,Buckskin Lane,77493,29.8081557,-95.8263190
2406,Buckskin Lane,77493,29.8076086,-95.8263218
2322,Deerfield Drive,77493,29.8069361,-95.8253916
2318,Deerfield Drive,77493,29.8067667,-95.8254089
2314,Deerfield Drive,77493,29.8065738,-95.8254236
2321,Deerfield Drive,77493,29.8069709,-95.8259516
2317,Deerfield Drive,77493,29.8068009,-95.8259249
6018,North Fawnlake Drive,77493,29.8085401,-95.8280764
6022,North Fawnlake Drive,77493,29.8085822,-95.8283187
2502,Forest Lake Trail,77493,29.8090226,-95.8283868
6515,Deer Lodge Trail,77493,29.7946046,-95.8354930
1618,Quail Ridge Drive,77493,29.7954455,-95.8345789
1707,Quail Ridge Drive,77493,29.7959978,-95.8350989
1719,Quail Ridge Drive,77493,29.7964969,-95.8351557
1722,Tonkawa Trail,77493,29.7960663,-95.8364410
6710,Abilene Drive,77493,29.7964337,-95.8373258
6718,Pioneer Trail,77493,29.7982813,-95.8370879
6718,Tiger Trail,77493,29.7991519,-95.8367722
6707,Tiger Trail,77493,29.7994579,-95.8362517
6711,Tiger Trail,77493,29.7993170,-95.8362403
2211,Fox Creek Court,77493,29.7990556,-95.8358185
2107,Tonkawa Trail,77493,29.7984121,-95.8350082
6514,Tiger Trail,77493,29.8000149,-95.8348161
2218,Tonkawa Trail,77493,29.7992989,-95.8341839
6426,Wolf Run Drive,77493,29.7989667,-95.8336478
6339,Deer Run Crossing,77493,29.7982910,-95.8329085
6314,Deer Run Crossing,77493,29.7987460,-95.8324905
2207,Wolf Creek Court,77493,29.7992972,-95.8327056
6338,Wolf Run Drive,77493,29.8000472,-95.8330855
2206,Fox Creek Court,77493,29.7988802,-95.8351799
2214,Fox Creek Court,77493,29.7992014,-95.8351799
6347,Asbury Brook Court,77493,29.8009686,-95.8338979
6342,Asbury Brook Court,77493,29.8012147,-95.8338892
6711,Cottonwood Crest Lane,77493,29.8008192,-95.8377627
6619,Cottonwood Crest Lane,77493,29.8007272,-95.8370948
6702,Cottonwood Crest Lane,77493,29.8012895,-95.8372681
6510,Cottonwood Crest Lane,77493,29.8015810,-95.8356181
6603,Cedar Hawk Court,77493,29.8018739,-95.8358571
6602,Cedar Hawk Court,77493,29.8021513,-95.8358483
6610,Cedar Hawk Court,77493,29.8023392,-95.8363386
2427,Banyon Gulch Lane,77493,29.8025299,-95.8371160
6619,Hollow Bay Court,77493,29.8031777,-95.8361676
6610,Hollow Bay Court,77493,29.8031304,-95.8367606
6606,Hollow Bay Court,77493,29.8033101,-95.8368805
2527,Banyon Gulch Lane,77493,29.8033575,-95.8385128
6323,Crystal Forest Trail,77493,29.8089341,-95.8307546
6203,Lake Chase Court,77493,29.8101798,-95.8293635
6202,Lake Chase Court,77493,29.8103395,-95.8299047
6411,Lake Chase Court,77493,29.8098083,-95.8313537
6415,Lake Chase Court,77493,29.8098532,-95.8315650
6111,Kyle Bend Lane,77493,29.8104265,-95.8281588
2706,Pine Trail,77493,29.8114942,-95.8272718
6206,Pine Lakes Drive,77493,29.8121358,-95.8289668
6334,Asbury Brook Court,77493,29.8013743,-95.8334017
2003,Harbor Breeze Lane,77493,29.8026980,-95.8318063
2015,Harbor Breeze Lane,77493,29.8026234,-95.8324905
2031,Harbor Breeze Lane,77493,29.8028264,-95.8333909
2019,Heritage Row Court,77493,29.7983760,-95.8386313
1715,Bayou Bend Lane,77493,29.7961612,-95.8395606
6850,Pioneer Trail,77493,29.7975859,-95.8395863
2310,Karankawa Trail,77493,29.8000558,-95.8411374
2302,Karankawa Trail,77493,29.7999942,-95.8407146
2127,Legends Way,77493,29.7989419,-95.8441969
2426,Elmwood Trail,77493,29.8019713,-95.8410283
6835,Pioneer Trail,77493,29.7981876,-95.8390345
2346,Karankawa Trail,77493,29.7991000,-95.8426649
2306,Karankawa Trail,77493,29.8000074,-95.8409351
2002,Karankawa Trail,77493,29.7976412,-95.8403724
6926,Harvest Lane,77493,29.7990843,-95.8415736
6914,Harvest Lane,77493,29.7987744,-95.8410970
25550,Kingsland Boulevard,77494,29.7752486,-95.8170487
2307,Buckskin Lane,77493,29.8066479,-95.8272710
2213,Deerfield Drive,77493,29.8058384,-95.8264625
5910,Deerfield Court,77493,29.8053883,-95.8255737
2320,Buckskin Lane,77493,29.8061613,-95.8266331
2305,Deerfield Drive,77493,29.8062642,-95.8259387
2340,Buckskin Lane,77493,29.8069996,-95.8262716
6021,Fawnlake Drive,77493,29.8066844,-95.8278612
2209,Deerfield Drive,77493,29.8059001,-95.8266837
1827,Rice Mill Drive,77493,29.7974678,-95.8479357
1907,Rice Mill Drive,77493,29.7979184,-95.8473375
1915,Rice Mill Drive,77493,29.7979077,-95.8468281
1923,Rice Mill Drive,77493,29.7979124,-95.8463203
7314,Settlers Way,77493,29.7967932,-95.8467869
7319,Settlers Way,77493,29.7963920,-95.8464951
7327,Settlers Way,77493,29.7960434,-95.8468088
1715,Rice Mill Drive,77493,29.7957071,-95.8479119
1710,Rice Mill Drive,77493,29.7955491,-95.8473201
1706,Rice Mill Drive,77493,29.7953268,-95.8473900
1703,Rice Mill Drive,77493,29.7950371,-95.8479094
7022,Prairie Grass Lane,77493,29.7958103,-95.8437414
2418,Deerfield Drive,77493,29.8081975,-95.8253539
2414,Deerfield Drive,77493,29.8080111,-95.8254135
6237,North Fawnlake Drive,77493,29.8072469,-95.8327064
6230,North Fawnlake Drive,77493,29.8080176,-95.8329768
2401,Deercreek Circle,77493,29.8084638,-95.8278440
6203,Crystal Forest Trail,77493,29.8088683,-95.8285918
6211,Crystal Forest Trail,77493,29.8089291,-95.8290562
6402,Lake Chase Court,77493,29.8102095,-95.8309089
6310,Lake Chase Court,77493,29.8102186,-95.8302731
2606,Forest Lake Trail,77493,29.8101387,-95.8284528
6203,Kyle Bend Lane,77493,29.8104221,-95.8289731
6219,Kyle Bend Lane,77493,29.8105892,-95.8298119
6103,Kyle Bend Lane,77493,29.8107000,-95.8277922
2710,Forest Lake Trail,77493,29.8111971,-95.8284593
6335,Asbury Brook Court,77493,29.8007907,-95.8332142
6603,Cottonwood Crest Lane,77493,29.8007840,-95.8361979
6802,Cottonwood Crest Lane,77493,29.8012757,-95.8383976
6922,Harvest Lane,77493,29.7989860,-95.8414289
6858,Pioneer Trail,77493,29.7972570,-95.8395770
6826,Pioneer Trail,77493,29.7986283,-95.8395901
6822,Pioneer Trail,77493,29.7987603,-95.8393501
6814,Pioneer Trail,77493,29.7987785,-95.8389684
6707,Pioneer Trail,77493,29.7977442,-95.8376142
6803,Tiger Trail,77493,29.7987738,-95.8362553
6706,Tiger Trail,77493,29.7995790,-95.8367883
2215,Fox Creek Court,77493,29.7991957,-95.8357492
2126,Tonkawa Trail,77493,29.7982595,-95.8344253
6410,Wolf Run Drive,77493,29.7995363,-95.8336372
6427,Wolf Run Drive,77493,29.7988338,-95.8331386
6310,Deer Run Crossing,77493,29.7987635,-95.8323002
6256,North Fawnlake Drive,77493,29.8069308,-95.8332496
6248,North Fawnlake Drive,77493,29.8072984,-95.8332788
6419,Deer Meadow Lane,77493,29.8054215,-95.8339608
2515,Forest Lake Trail,77493,29.8096689,-95.8290170
6240,North Fawnlake Drive,77493,29.8076764,-95.8331690
6325,Fawnlake Drive,77493,29.8061759,-95.8323852
6326,Crystal Forest Trail,77493,29.8094223,-95.8309615
2710,Pine Trail,77493,29.8116959,-95.8272305
6218,Verde Place Lane,77493,29.8029289,-95.8312841
6121,Fawnlake Drive,77493,29.8055223,-95.8291814
2210,Deer Run Court,77493,29.8053437,-95.8313267
2206,Deer Run Court,77493,29.8055969,-95.8314745
2402,Buckskin Lane,77493,29.8074447,-95.8263284
2018,Harbor Breeze Lane,77493,29.8032155,-95.8330552
6314,Nectar Grove Court,77493,29.8040404,-95.8328523
6318,Nectar Grove Court,77493,29.8038231,-95.8330103
6419,Sunstone Falls Lane,77493,29.8043522,-95.8341374
6206,Fawnlake Drive,77493,29.8058609,-95.8298183
6210,Fawnlake Drive,77493,29.8058590,-95.8300518
6205,Fawnlake Drive,77493,29.8054130,-95.8296142
2507,Crystal Forest Court,77493,29.8091549,-95.8322852
6410,Crystal Forest Trail,77493,29.8095960,-95.8317572
6403,Crystal Forest Trail,77493,29.8089103,-95.8314017
6327,Crystal Forest Trail,77493,29.8088922,-95.8309434
6241,North Fawnlake Drive,77493,29.8070331,-95.8327010
6418,Lake Chase Court,77493,29.8104072,-95.8313108
2410,Fawnlake Circle,77493,29.8077810,-95.8296683
2510,Crystal Forest Court,77493,29.8088706,-95.8317911
6107,Kyle Bend Lane,77493,29.8104970,-95.8279186
6218,Kyle Bend Lane,77493,29.8111197,-95.8295169
5407,Tallowpine Terrace,77493,29.8120166,-95.8136496
5344,Pinewood Terrace,77493,29.8117627,-95.8127040
5252,Pinewood Terrace,77493,29.8117866,-95.8111931
5246,Pinewood Terrace,77493,29.8117770,-95.8110035
2214,Tonkawa Trail,77493,29.7991606,-95.8341671
2210,Tonkawa Trail,77493,29.7990222,-95.8341810
2206,Tonkawa Trail,77493,29.7988837,-95.8341735
2202,Tonkawa Trail,77493,29.7987324,-95.8341821
2130,Tonkawa Trail,77493,29.7983654,-95.8343302
2118,Tonkawa Trail,77493,29.7981293,-95.8345407
25495,Katy Mills Parkway,77494,29.7740153,-95.8144306
2010,Rice Mill Drive,77493,29.7971982,-95.8456241
2003,Rice Mill Drive,77493,29.7979280,-95.8460656
7306,Settlers Way,77493,29.7972394,-95.8464794
7310,Settlers Way,77493,29.7969759,-95.8466011
1807,Rice Mill Drive,77493,29.7963705,-95.8479210
1803,Rice Mill Drive,77493,29.7961549,-95.8479234
7002,Champion Trail,77493,29.7954550,-95.8422269
6923,Champion Trail,77493,29.7950079,-95.8418841
7003,Champion Trail,77493,29.7949646,-95.8422295
7018,Prairie Grass Lane,77493,29.7960418,-95.8437519
7010,Prairie Grass Lane,77493,29.7964351,-95.8438259
1818,Creekside Drive,77493,29.7967408,-95.8438334
1811,Creekside Drive,77493,29.7968907,-95.8447365
1719,Creekside Drive,77493,29.7962091,-95.8453240
7218,Prairie Grass Lane,77493,29.7954335,-95.8458151
1702,Creekside Drive,77493,29.7954418,-95.8452900
7118,Prairie Grass Lane,77493,29.7954134,-95.8448600
7114,Prairie Grass Lane,77493,29.7954121,-95.8446119
7119,Prairie Grass Lane,77493,29.7949407,-95.8445548
6515,Cottonwood Crest Lane,77493,29.8009429,-95.8356672
6338,Asbury Brook Court,77493,29.8013985,-95.8336532
6230,Deer Run Crossing,77493,29.7990252,-95.8317857
6319,Deer Run Crossing,77493,29.7983064,-95.8321012
6347,Deer Run Crossing,77493,29.7982850,-95.8332870
6434,Wolf Run Drive,77493,29.7986776,-95.8336299
2111,Tonkawa Trail,77493,29.7985486,-95.8348048
6807,Tiger Trail,77493,29.7986130,-95.8362202
6806,Tiger Trail,77493,29.7986860,-95.8367854
2226,Fox Creek Court,77493,29.7996148,-95.8352016
6526,Tiger Trail,77493,29.8000171,-95.8352920
6502,Tiger Trail,77493,29.7999268,-95.8342423
6402,Wolf Run Drive,77493,29.7998864,-95.8336212
5352,Tallowwood Terrace,77493,29.8131968,-95.8129858
5344,Tallowpine Terrace,77493,29.8124640,-95.8127114
5320,Tallowpine Terrace,77493,29.8124765,-95.8119535
5239,Tallowpine Terrace,77493,29.8120505,-95.8108268
5245,Tallowpine Terrace,77493,29.8120568,-95.8110229
5251,Tallowpine Terrace,77493,29.8120642,-95.8112077
5359,Pinewood Terrace,77493,29.8113391,-95.8131723
6014,Franz Court,77493,29.8008190,-95.8276066
6502,Abilene Drive,77493,29.7968396,-95.8346800
2010,Heritage Row Court,77493,29.7980844,-95.8380530
6710,Pioneer Trail,77493,29.7979734,-95.8369907
6726,Pioneer Trail,77493,29.7986291,-95.8371433
6703,Tiger Trail,77493,29.7996030,-95.8362176
2203,Fox Creek Court,77493,29.7987357,-95.8355810
2207,Fox Creek Court,77493,29.7988847,-95.8357766
6518,Tiger Trail,77493,29.7999924,-95.8349709
6506,Tiger Trail,77493,29.8000259,-95.8344765
2223,Tonkawa Trail,77493,29.7994786,-95.8347092
5350,Tallowpine Terrace,77493,29.8124936,-95.8129230
6615,Cedar Hawk Court,77493,29.8017155,-95.8365970
6631,Hollow Bay Court,77493,29.8026806,-95.8366206
6615,Hollow Bay Court,77493,29.8033841,-95.8362480
6623,Windy Hills Lane,77493,29.8037975,-95.8372396
6638,Windy Hills Lane,77493,29.8037061,-95.8380826
6606,Windy Hills Lane,77493,29.8049139,-95.8368478
6914,Brazos Circle,77493,29.8027613,-95.8409841
6906,North Elmwood Trail,77493,29.8037050,-95.8406111
5250,Tallowwood Terrace,77493,29.8132266,-95.8110952
5256,Tallowwood Terrace,77493,29.8132255,-95.8112837
5300,Tallowwood Terrace,77493,29.8132196,-95.8114729
5308,Tallowwood Terrace,77493,29.8132154,-95.8116624
5404,Tallowwood Terrace,77493,29.8131882,-95.8135512
5335,Tallowwood Terrace,77493,29.8127364,-95.8123389
5356,Pinewood Terrace,77493,29.8117638,-95.8130838
1606,Primrose Lane,77493,29.7946723,-95.8404067
1714,Primrose Lane,77493,29.7962777,-95.8403943
1611,Bayou Bend Lane,77493,29.7951129,-95.8395724
1603,Bayou Bend Lane,77493,29.7947497,-95.8395210
1514,Tonkawa Trail,77493,29.7945832,-95.8387105
1702,Abilene Circle,77493,29.7953700,-95.8381396
1611,Tonkawa Trail,77493,29.7950177,-95.8377727
6611,Tonkawa Court,77493,29.7947023,-95.8370399
1714,Tonkawa Trail,77493,29.7957126,-95.8364223
1707,Dove Ridge Drive,77493,29.7959625,-95.8360131
1610,Quail Ridge Drive,77493,29.7951168,-95.8345523
1703,Quail Ridge Drive,77493,29.7958320,-95.8351155
6723,Pioneer Trail,77493,29.7983651,-95.8376966
1730,Katyland Drive,77493,29.7958251,-95.8104483
6407,Lake Chase Court,77493,29.8097429,-95.8311623
6314,Lake Chase Court,77493,29.8102254,-95.8304605
6211,Lake Chase Court,77493,29.8097749,-95.8294679
2607,Forest Lake Trail,77493,29.8101904,-95.8290219
6206,Kyle Bend Lane,77493,29.8109539,-95.8291594
6252,North Fawnlake Drive,77493,29.8071205,-95.8332767
6311,Sunstone Falls Lane,77493,29.8044406,-95.8324567
6310,Sunstone Falls Lane,77493,29.8049161,-95.8319591
6310,Deer Meadow Lane,77493,29.8059089,-95.8322374
6309,Fawnlake Drive,77493,29.8059615,-95.8315726
6211,Fawnlake Drive,77493,29.8053958,-95.8300588
6122,Fawnlake Drive,77493,29.8059760,-95.8293388
2410,Deerfield Drive,77493,29.8078381,-95.8253976
2430,Buckskin Lane,77493,29.8086410,-95.8266053
2421,Buckskin Lane,77493,29.8083264,-95.8269258
6009,North Fawnlake Drive,77493,29.8078179,-95.8278491
6030,North Fawnlake Drive,77493,29.8085929,-95.8287082
2506,Forest Lake Trail,77493,29.8093014,-95.8284359
6311,Crystal Forest Trail,77493,29.8089268,-95.8301897
2503,Crystal Forest Court,77493,29.8089527,-95.8322272
6244,North Fawnlake Drive,77493,29.8075211,-95.8332428
6264,North Fawnlake Drive,77493,29.8065924,-95.8331353
5303,Katy Mills Circle,77494,29.7749748,-95.8126304
1611,Primrose Lane,77493,29.7950650,-95.8409203
1615,Tonkawa Trail,77493,29.7950341,-95.8375760
1603,Dove Ridge Drive,77493,29.7947344,-95.8359933
1615,Dove Ridge Drive,77493,29.7952718,-95.8360005
1614,Dove Ridge Drive,77493,29.7953548,-95.8355043
1719,Tonkawa Trail,77493,29.7961224,-95.8369939
6602,Abilene Drive,77493,29.7966982,-95.8361521
1614,Quail Ridge Drive,77493,29.7952830,-95.8345818
6319,Crystal Forest Trail,77493,29.8089168,-95.8305677
2506,Crystal Forest Court,77493,29.8088533,-95.8320211
6402,Crystal Forest Trail,77493,29.8094238,-95.8313491
6330,Crystal Forest Trail,77493,29.8094184,-95.8311401
6215,Lake Chase Court,77493,29.8097118,-95.8297357
2603,Forest Lake Trail,77493,29.8100209,-95.8290028
6318,Lake Chase Court,77493,29.8102141,-95.8306583
2711,Pine Trail,77493,29.8117019,-95.8279328
2715,Pine Trail,77493,29.8118648,-95.8279028
6310,Verde Place Lane,77493,29.8032759,-95.8315788
2201,Deerfield Drive,77493,29.8056198,-95.8270389
5901,Deerfield Court,77493,29.8059438,-95.8255309
6222,Fawnlake Drive,77493,29.8060071,-95.8307097
2202,Deer Run Court,77493,29.8058132,-95.8313517
2202,Deerfield Drive,77493,29.8054343,-95.8269212
2206,Deerfield Drive,77493,29.8053223,-95.8266952
5903,Deerfield Court,77493,29.8057977,-95.8253608
2316,Buckskin Lane,77493,29.8061745,-95.8268384
2324,Buckskin Lane,77493,29.8062046,-95.8263799
2315,Buckskin Lane,77493,29.8066479,-95.8268140
6002,North Fawnlake Drive,77493,29.8074071,-95.8272027
6010,North Fawnlake Drive,77493,29.8077941,-95.8272739
2406,Deerfield Drive,77493,29.8076616,-95.8253898
29801,Kingsland Boulevard,77494,29.7675914,-95.8838636
6315,Crystal Forest Trail,77493,29.8089225,-95.8303786
2602,Forest Lake Trail,77493,29.8099613,-95.8284728
6307,Lake Chase Court,77493,29.8097256,-95.8301243
6311,Lake Chase Court,77493,29.8097479,-95.8303135
6202,Kyle Bend Lane,77493,29.8109307,-95.8289770
6115,Pine Lakes Drive,77493,29.8118237,-95.8282147
6106,Pine Lakes Drive,77493,29.8123177,-95.8278816
6303,Lake Chase Court,77493,29.8097333,-95.8299366
2217,Deerfield Drive,77493,29.8059031,-95.8262200
2306,Deerfield Drive,77493,29.8061526,-95.8254023
2308,Buckskin Lane,77493,29.8062014,-95.8272880
1707,Creekside Drive,77493,29.7957263,-95.8457544
2011,Rice Mill Drive,77493,29.7978270,-95.8454263
1826,Rice Mill Drive,77493,29.7974642,-95.8474396
1919,Rice Mill Drive,77493,29.7979326,-95.8465697
6024,Fawnlake Drive,77493,29.8068142,-95.8284053
2205,Deerfield Drive,77493,29.8058527,-95.8269902
2210,Deerfield Drive,77493,29.8053961,-95.8264787
2514,Forest Lake Trail,77493,29.8096309,-95.8284508
2402,Deercreek Circle,77493,29.8080285,-95.8273616
6118,Fawnlake Drive,77493,29.8060965,-95.8291122
5359,Tallowwood Terrace,77493,29.8127324,-95.8131015
5244,Tallowwood Terrace,77493,29.8132289,-95.8109050
5400,Pinewood Terrace,77493,29.8117487,-95.8134665
5328,Pinewood Terrace,77493,29.8117712,-95.8121359
5337,Pinewood Terrace,77493,29.8113231,-95.8124083
5249,Pinewood Terrace,77493,29.8113603,-95.8110977
2405,Deercreek Circle,77493,29.8085825,-95.8276770
2422,Buckskin Lane,77493,29.8083167,-95.8262499
2421,Deerfield Drive,77493,29.8083516,-95.8259913
6017,Fawnlake Drive,77493,29.8067756,-95.8276746
6001,Fawnlake Drive,77493,29.8069663,-95.8268202
5906,Deerfield Drive,77493,29.8053883,-95.8258148
6315,Asbury Brook Court,77493,29.8008516,-95.8320528
6314,Sunstone Falls Lane,77493,29.8049529,-95.8321999
6318,Sunstone Falls Lane,77493,29.8049442,-95.8324427
6322,Sunstone Falls Lane,77493,29.8049645,-95.8326721
6326,Sunstone Falls Lane,77493,29.8049575,-95.8329012
6402,Sunstone Falls Lane,77493,29.8049432,-95.8331294
6406,Sunstone Falls Lane,77493,29.8049497,-95.8333606
6418,Sunstone Falls Lane,77493,29.8049629,-95.8340400
6422,Sunstone Falls Lane,77493,29.8049965,-95.8342984
6414,Sunstone Falls Lane,77493,29.8049559,-95.8338200
6410,Sunstone Falls Lane,77493,29.8049598,-95.8335954
2123,Harbor Breeze Lane,77493,29.8038347,-95.8341363
2119,Harbor Breeze Lane,77493,29.8036404,-95.8340819
2027,Harbor Breeze Lane,77493,29.8027137,-95.8331930
2006,Harbor Breeze Lane,77493,29.8031176,-95.8323285
6210,Verde Place Lane,77493,29.8028211,-95.8310979
6202,Verde Place Lane,77493,29.8026703,-95.8309359
6202,Pine Lakes Drive,77493,29.8122027,-95.8288163
5910,Pine Lakes Drive,77493,29.8122807,-95.8258025
7003,Prairie Grass Lane,77493,29.7969155,-95.8433614
7014,Prairie Grass Lane,77493,29.7962373,-95.8437815
6918,Champion Trail,77493,29.7956120,-95.8417647
1718,Primrose Lane,77493,29.7964605,-95.8403900
1602,Primrose Lane,77493,29.7944401,-95.8405824
1706,Bayou Bend Lane,77493,29.7958093,-95.8390390
6822,Abilene Drive,77493,29.7951534,-95.8386015
1606,Tonkawa Trail,77493,29.7945975,-95.8379501
1619,Tonkawa Trail,77493,29.7950627,-95.8373382
1710,Tonkawa Trail,77493,29.7955503,-95.8364188
6110,Fawnlake Drive,77493,29.8063401,-95.8287606
6219,Crystal Forest Trail,77493,29.8089329,-95.8294360
2222,Fox Creek Court,77493,29.7994822,-95.8352044
2227,Tonkawa Trail,77493,29.7996189,-95.8347266
6415,Wolf Run Drive,77493,29.7993102,-95.8330975
6407,Wolf Run Drive,77493,29.7996291,-95.8331405
2215,Wolf Creek Court,77493,29.7996392,-95.8326443
6318,Wolf Run Drive,77493,29.8000416,-95.8322651
6522,Abilene Drive,77493,29.7967989,-95.8357825
6714,Pioneer Trail,77493,29.7981292,-95.8370249
6818,Pioneer Trail,77493,29.7987788,-95.8391568
2227,Fox Creek Court,77493,29.7996206,-95.8357132
2219,Fox Creek Court,77493,29.7993366,-95.8357276
2202,Fox Creek Court,77493,29.7987092,-95.8353369
2230,Tonkawa Trail,77493,29.7997529,-95.8341754
6414,Wolf Run Drive,77493,29.7993949,-95.8336528
6334,Wolf Run Drive,77493,29.8000373,-95.8329212
6314,Wolf Run Drive,77493,29.8000325,-95.8321019
6218,Deer Run Crossing,77493,29.7995042,-95.8316477
6226,Deer Run Crossing,77493,29.7991756,-95.8316713
6318,Deer Run Crossing,77493,29.7987611,-95.8326584
6511,Cottonwood Crest Lane,77493,29.8010285,-95.8354435
2309,Deerfield Drive,77493,29.8064407,-95.8258848
5362,Tallowpine Terrace,77493,29.8124602,-95.8132858
5304,Bell Patina Drive,77494,29.7775955,-95.8131587
2006,Legends Way,77493,29.8006654,-95.8445181
2015,Legends Way,77493,29.8008651,-95.8437180
2312,Buckskin Lane,77493,29.8061173,-95.8270590
2304,Buckskin Lane,77493,29.8064248,-95.8274009
6005,Fawnlake Drive,77493,29.8069726,-95.8270283
5243,Pinewood Terrace,77493,29.8113470,-95.8108959
5308,Pinewood Terrace,77493,29.8117921,-95.8115776
6302,Nectar Grove Court,77493,29.8040248,-95.8321368
2401,Fawnlake Circle,77493,29.8081451,-95.8290255
6403,Lake Chase Court,77493,29.8097209,-95.8309610
2614,Forest Lake Trail,77493,29.8104808,-95.8284459
1510,Tonkawa Trail,77493,29.7945576,-95.8388997
1718,Abilene Circle,77493,29.7958012,-95.8373450
1623,Quail Ridge Drive,77493,29.7956688,-95.8351005
1711,Dove Ridge Drive,77493,29.7961354,-95.8360606
6938,Goldstrum Way,77493,29.8098816,-95.8423094
2811,Acorn Way,77493,29.8084230,-95.8409673
6914,Red Oak Drive,77493,29.8080477,-95.8414623
6918,Red Oak Drive,77493,29.8080148,-95.8416611
6922,Red Oak Drive,77493,29.8079691,-95.8418650
6927,Red Oak Drive,77493,29.8072681,-95.8421818
6914,Crane Court,77493,29.8072236,-95.8413218
2714,Acorn Way,77493,29.8074894,-95.8404337
6210,Pine Lakes Drive,77493,29.8120601,-95.8291750
2714,Forest Lake Trail,77493,29.8113676,-95.8285131
2706,Forest Lake Trail,77493,29.8110339,-95.8284578
6207,Kyle Bend Lane,77493,29.8104501,-95.8291602
2306,Legends Way,77493,29.7993834,-95.8459304
2411,Legends Way,77493,29.8010356,-95.8464732
2010,Legends Way,77493,29.8005668,-95.8442865
6006,North Fawnlake Drive,77493,29.8075931,-95.8272166
6215,Crystal Forest Trail,77493,29.8089327,-95.8292440
6419,Lake Chase Court,77493,29.8099914,-95.8317342
6410,Lake Chase Court,77493,29.8102723,-95.8311154
2118,Harbor Breeze Lane,77493,29.8041320,-95.8335945
6403,Deer Meadow Lane,77493,29.8053646,-95.8330568
6407,Deer Meadow Lane,77493,29.8053605,-95.8332768
6411,Deer Meadow Lane,77493,29.8053561,-95.8334917
6410,Deer Meadow Lane,77493,29.8058568,-95.8335039
2014,Harbor Breeze Lane,77493,29.8031159,-95.8328130
6303,Sunstone Falls Lane,77493,29.8043513,-95.8319456
6006,Pine Lakes Drive,77493,29.8123082,-95.8267480
5902,Pine Lakes Drive,77493,29.8123099,-95.8254377
2425,Deerfield Drive,77493,29.8085663,-95.8258009
2426,Deerfield Drive,77493,29.8086002,-95.8255557
2413,Deerfield Drive,77493,29.8079865,-95.8259295
1518,Tonkawa Trail,77493,29.7945538,-95.8385201
1602,Tonkawa Trail,77493,29.7945639,-95.8381420
1710,Bayou Bend Lane,77493,29.7959652,-95.8390451
1714,Bayou Bend Lane,77493,29.7961429,-95.8389129
1718,Bayou Bend Lane,77493,29.7963479,-95.8388776
1622,Primrose Lane,77493,29.7955068,-95.8403732
1715,Primrose Lane,77493,29.7961800,-95.8409414
1719,Primrose Lane,77493,29.7963782,-95.8410969
25430,Bell Patina Drive,77494,29.7771954,-95.8154027
6403,Deer Run Crossing,77493,29.7982833,-95.8334428
6810,Tiger Trail,77493,29.7985310,-95.8367569
6906,Goldstrum Way,77493,29.8105551,-95.8411398
6903,Goldstrum Way,77493,29.8101068,-95.8409171
5305,Bell Patina Drive,77494,29.7767129,-95.8127969
25407,Bell Patina Drive,77494,29.7765345,-95.8133862
28420,West Ten Boulevard,77494,29.7793100,-95.8560669
31555,Highway Boulevard,77493,29.7820090,-95.9163941
25330,Kingsland Boulevard,77494,29.7723466,-95.8122041
1928,Drexel Drive,77493-1715,29.7995706,-95.8160405
6934,Goldstrum Way,77493,29.8099587,-95.8421517
6930,Goldstrum Way,77493,29.8100539,-95.8420177
6926,Goldstrum Way,77493,29.8101292,-95.8418803
6922,Goldstrum Way,77493,29.8102110,-95.8417255
6918,Goldstrum Way,77493,29.8103027,-95.8415935
6907,Goldstrum Way,77493,29.8100188,-95.8411222
6915,Goldstrum Way,77493,29.8098566,-95.8413898
6919,Goldstrum Way,77493,29.8097744,-95.8415173
6927,Goldstrum Way,77493,29.8096154,-95.8417879
6931,Goldstrum Way,77493,29.8095436,-95.8419158
6935,Goldstrum Way,77493,29.8094542,-95.8420546
6939,Goldstrum Way,77493,29.8093796,-95.8421780
6823,Cottonwood Crest Lane,77493,29.8012054,-95.8395237
6819,Cottonwood Crest Lane,77493,29.8010787,-95.8393244
6815,Cottonwood Crest Lane,77493,29.8009367,-95.8391419
6811,Cottonwood Crest Lane,77493,29.8008228,-95.8389330
6807,Cottonwood Crest Lane,77493,29.8007599,-95.8387064
6803,Cottonwood Crest Lane,77493,29.8007402,-95.8384642
6827,Cottonwood Crest Lane,77493,29.8014238,-95.8396462
6830,Cottonwood Crest Lane,77493,29.8016604,-95.8395370
6826,Cottonwood Crest Lane,77493,29.8017899,-95.8392784
6822,Cottonwood Crest Lane,77493,29.8016997,-95.8390043
6818,Cottonwood Crest Lane,77493,29.8015332,-95.8388499
6810,Cottonwood Crest Lane,77493,29.8012898,-95.8386940
6703,Cottonwood Crest Lane,77493,29.8007574,-95.8373124
6615,Cottonwood Crest Lane,77493,29.8007070,-95.8368685
6611,Cottonwood Crest Lane,77493,29.8007199,-95.8366444
6607,Cottonwood Crest Lane,77493,29.8007300,-95.8364141
6634,Windy Hills Lane,77493,29.8038622,-95.8379219
6630,Windy Hills Lane,77493,29.8040156,-95.8377679
6614,Windy Hills Lane,77493,29.8045883,-95.8371638
6610,Windy Hills Lane,77493,29.8047602,-95.8370384
6619,Windy Hills Lane,77493,29.8039206,-95.8370740
6615,Windy Hills Lane,77493,29.8040928,-95.8369123
6611,Windy Hills Lane,77493,29.8042348,-95.8367549
6631,Windy Hills Lane,77493,29.8034629,-95.8375062
6806,Abilene Drive,77493,29.7958342,-95.8384951
6810,Abilene Drive,77493,29.7956612,-95.8385827
6814,Abilene Drive,77493,29.7954779,-95.8386179
6818,Abilene Drive,77493,29.7953063,-95.8386180
1706,Abilene Circle,77493,29.7953724,-95.8379139
6730,Abilene Drive,77493,29.7961198,-95.8382460
6726,Abilene Drive,77493,29.7962396,-95.8380722
6831,Pioneer Trail,77493,29.7983279,-95.8390261
6839,Pioneer Trail,77493,29.7980268,-95.8390275
6843,Pioneer Trail,77493,29.7978739,-95.8390411
6847,Pioneer Trail,77493,29.7977112,-95.8390443
6851,Pioneer Trail,77493,29.7975311,-95.8389376
2003,Heritage Row Court,77493,29.7977443,-95.8386119
2007,Heritage Row Court,77493,29.7979168,-95.8386414
2011,Heritage Row Court,77493,29.7980674,-95.8386234
2015,Heritage Row Court,77493,29.7982189,-95.8386352
2006,Heritage Row Court,77493,29.7979252,-95.8379466
2014,Heritage Row Court,77493,29.7982238,-95.8380696
2018,Heritage Row Court,77493,29.7983757,-95.8380740
6910,North Elmwood Trail,77493,29.8036940,-95.8408305
6914,North Elmwood Trail,77493,29.8036628,-95.8409927
6918,North Elmwood Trail,77493,29.8036535,-95.8411946
2511,Elmwood Trail,77493,29.8030551,-95.8414147
2515,Elmwood Trail,77493,29.8031922,-95.8414051
2519,Elmwood Trail,77493,29.8033306,-95.8414183
2523,Elmwood Trail,77493,29.8035190,-95.8413940
25546,Kingsland Boulevard,77494,29.7740220,-95.8163984
2002,Katy Freeway,77494,29.7833366,-95.8082196
1402,Woodson Ridge Lane,77494,29.7685433,-95.8689579
1410,Woodson Ridge Lane,77494,29.7682269,-95.8693207
1406,Woodson Ridge Lane,77494,29.7683908,-95.8691341
1407,Woodson Ridge Lane,77494,29.7680639,-95.8687211
1403,Woodson Ridge Lane,77494,29.7681969,-95.8685398
1314,Woodson Ridge Lane,77494,29.7687432,-95.8688023
1310,Woodson Ridge Lane,77494,29.7689726,-95.8686821
1306,Woodson Ridge Lane,77494,29.7692032,-95.8687090
1302,Woodson Ridge Lane,77494,29.7694136,-95.8687174
1323,Woodson Ridge Lane,77494,29.7683672,-95.8683601
1319,Woodson Ridge Lane,77494,29.7685552,-95.8682324
1315,Woodson Ridge Lane,77494,29.7687717,-95.8681397
1311,Woodson Ridge Lane,77494,29.7690118,-95.8681522
1307,Woodson Ridge Lane,77494,29.7692085,-95.8681055
1303,Woodson Ridge Lane,77494,29.7694064,-95.8681416
6301,South Stadium Lane,77494,29.7803573,-95.8319548
27905,Katy Freeway,77494,29.7755469,-95.8561074
5000,Katy Mills Boulevard,77494,29.7788717,-95.8095400
2801,Katy Hockley Cut Off Road,77493,29.8131101,-95.8096976
29323,Kingsland Boulevard,77494,29.7665650,-95.8754386
5609,3rd Street,77493,29.7880142,-95.8215881
25104,Market Place Drive,77494,29.7825002,-95.8024188
1719,Bayou Bend Lane,77493,29.7963356,-95.8395369
1711,Bayou Bend Lane,77493,29.7959942,-95.8395062
1707,Bayou Bend Lane,77493,29.7958274,-95.8395560
1703,Bayou Bend Lane,77493,29.7956611,-95.8395127
1619,Bayou Bend Lane,77493,29.7954969,-95.8395312
1615,Bayou Bend Lane,77493,29.7953351,-95.8395172
1606,Bayou Bend Lane,77493,29.7949808,-95.8390127
1610,Bayou Bend Lane,77493,29.7951369,-95.8390177
1614,Bayou Bend Lane,77493,29.7953016,-95.8390017
1618,Bayou Bend Lane,77493,29.7954667,-95.8389930
1702,Bayou Bend Lane,77493,29.7956322,-95.8390122
1607,Bayou Bend Lane,77493,29.7949455,-95.8395432
6826,Abilene Drive,77493,29.7949604,-95.8385860
1603,Tonkawa Trail,77493,29.7950352,-95.8381246
1607,Tonkawa Trail,77493,29.7950171,-95.8379436
6802,Abilene Drive,77493,29.7959763,-95.8383726
1710,Abilene Circle,77493,29.7954094,-95.8376413
1714,Abilene Circle,77493,29.7955983,-95.8374147
6722,Abilene Drive,77493,29.7963149,-95.8378721
6718,Abilene Drive,77493,29.7963777,-95.8376805
6706,Abilene Drive,77493,29.7964990,-95.8371195
6714,Abilene Drive,77493,29.7964298,-95.8374995
1722,Abilene Circle,77493,29.7960142,-95.8373670
1623,Tonkawa Trail,77493,29.7951678,-95.8370885
1703,Tonkawa Trail,77493,29.7953606,-95.8369242
1711,Tonkawa Trail,77493,29.7957466,-95.8369070
1707,Tonkawa Trail,77493,29.7955691,-95.8368913
1715,Tonkawa Trail,77493,29.7959349,-95.8369126
6610,Tonkawa Court,77493,29.7951066,-95.8365249
1706,Tonkawa Trail,77493,29.7953541,-95.8364051
1726,Tonkawa Trail,77493,29.7962167,-95.8364707
6610,Abilene Drive,77493,29.7966332,-95.8365069
6606,Abilene Drive,77493,29.7966639,-95.8363116
1718,Tonkawa Trail,77493,29.7958773,-95.8364172
1715,Dove Ridge Drive,77493,29.7963027,-95.8360854
6526,Abilene Drive,77493,29.7967529,-95.8359569
6518,Abilene Drive,77493,29.7968303,-95.8355754
6514,Abilene Drive,77493,29.7968648,-95.8353826
6510,Abilene Drive,77493,29.7969132,-95.8351901
6506,Abilene Drive,77493,29.7969271,-95.8349851
1715,Quail Ridge Drive,77493,29.7963288,-95.8350903
1622,Quail Ridge Drive,77493,29.7956089,-95.8345285
1702,Quail Ridge Drive,77493,29.7957733,-95.8345470
1706,Quail Ridge Drive,77493,29.7959399,-95.8345774
1710,Quail Ridge Drive,77493,29.7961051,-95.8345690
1714,Quail Ridge Drive,77493,29.7962682,-95.8345479
1718,Quail Ridge Drive,77493,29.7964392,-95.8345638
1722,Quail Ridge Drive,77493,29.7966229,-95.8345838
1718,Dove Ridge Drive,77493,29.7963996,-95.8355744
1714,Dove Ridge Drive,77493,29.7962333,-95.8355478
1710,Dove Ridge Drive,77493,29.7960647,-95.8355033
1706,Dove Ridge Drive,77493,29.7958862,-95.8354965
1702,Dove Ridge Drive,77493,29.7957005,-95.8354637
1618,Dove Ridge Drive,77493,29.7955271,-95.8354836
1619,Dove Ridge Drive,77493,29.7954374,-95.8359711
1623,Dove Ridge Drive,77493,29.7956061,-95.8360061
1703,Dove Ridge Drive,77493,29.7957792,-95.8360063
1711,Quail Ridge Drive,77493,29.7961614,-95.8350963
1607,Quail Ridge Drive,77493,29.7949978,-95.8350643
1611,Quail Ridge Drive,77493,29.7951660,-95.8350523
1615,Quail Ridge Drive,77493,29.7953353,-95.8350653
1619,Quail Ridge Drive,77493,29.7955019,-95.8350746
6507,Deer Lodge Trail,77493,29.7945875,-95.8350298
6503,Deer Lodge Trail,77493,29.7945787,-95.8348197
1602,Quail Ridge Drive,77493,29.7947430,-95.8345792
1606,Quail Ridge Drive,77493,29.7949484,-95.8345450
1606,Dove Ridge Drive,77493,29.7949980,-95.8354807
1610,Dove Ridge Drive,77493,29.7951766,-95.8354770
1611,Dove Ridge Drive,77493,29.7950990,-95.8360067
6519,Deer Lodge Trail,77493,29.7945867,-95.8357080
1607,Dove Ridge Drive,77493,29.7949295,-95.8360082
6603,Tonkawa Court,77493,29.7946523,-95.8365034
6607,Tonkawa Court,77493,29.7945489,-95.8367825
6606,Tonkawa Court,77493,29.7948699,-95.8364067
1618,Tonkawa Trail,77493,29.7945689,-95.8373509
1614,Tonkawa Trail,77493,29.7945819,-95.8375511
1610,Tonkawa Trail,77493,29.7945607,-95.8377498
1522,Tonkawa Trail,77493,29.7945526,-95.8383259
1506,Tonkawa Trail,77493,29.7945608,-95.8390600
1502,Tonkawa Trail,77493,29.7945731,-95.8392969
6687,Bartlett,77493,29.7936356,-95.8359037
1610,Primrose Lane,77493,29.7949099,-95.8403735
1615,Primrose Lane,77493,29.7952370,-95.8408998
1619,Primrose Lane,77493,29.7954431,-95.8409018
6919,Champion Trail,77493,29.7949644,-95.8414902
1607,Primrose Lane,77493,29.7947985,-95.8410578
1614,Primrose Lane,77493,29.7951149,-95.8403519
1603,Primrose Lane,77493,29.7945283,-95.8409423
6915,Champion Trail,77493,29.7952623,-95.8413163
1702,Primrose Lane,77493,29.7956847,-95.8403618
1706,Primrose Lane,77493,29.7958777,-95.8403662
1710,Primrose Lane,77493,29.7960711,-95.8403803
6902,Champion Trail,77493,29.7958834,-95.8408567
6906,Champion Trail,77493,29.7958657,-95.8411165
6910,Champion Trail,77493,29.7958066,-95.8413556
6914,Champion Trail,77493,29.7956949,-95.8415542
6922,Champion Trail,77493,29.7954943,-95.8419582
7007,Champion Trail,77493,29.7949492,-95.8424411
7006,Champion Trail,77493,29.7954267,-95.8424452
7010,Champion Trail,77493,29.7954348,-95.8426724
7011,Champion Trail,77493,29.7949569,-95.8426608
7015,Champion Trail,77493,29.7949493,-95.8428796
7019,Champion Trail,77493,29.7949717,-95.8432047
7103,Prairie Grass Lane,77493,29.7950991,-95.8435877
7107,Prairie Grass Lane,77493,29.7949772,-95.8438132
7111,Prairie Grass Lane,77493,29.7949509,-95.8440726
7115,Prairie Grass Lane,77493,29.7949355,-95.8443151
7123,Prairie Grass Lane,77493,29.7949496,-95.8447519
7031,Prairie Grass Lane,77493,29.7954413,-95.8432858
7027,Prairie Grass Lane,77493,29.7956694,-95.8432050
7023,Prairie Grass Lane,77493,29.7958950,-95.8431578
7019,Prairie Grass Lane,77493,29.7961155,-95.8432210
7015,Prairie Grass Lane,77493,29.7963108,-95.8432272
7007,Prairie Grass Lane,77493,29.7967052,-95.8433079
1814,Creekside Drive,77493,29.7966843,-95.8440547
1810,Creekside Drive,77493,29.7965260,-95.8442950
7110,Founders Boulevard,77493,29.7963028,-95.8445802
7106,Founders Boulevard,77493,29.7961964,-95.8443871
7102,Founders Boulevard,77493,29.7960795,-95.8441703
7011,Prairie Grass Lane,77493,29.7965133,-95.8432634
7102,Prairie Grass Lane,77493,29.7955593,-95.8438867
7106,Prairie Grass Lane,77493,29.7954211,-95.8441077
7110,Prairie Grass Lane,77493,29.7954203,-95.8443789
7107,Founders Boulevard,77493,29.7958012,-95.8447659
7111,Founders Boulevard,77493,29.7959286,-95.8449246
1706,Creekside Drive,77493,29.7956333,-95.8451360
1711,Creekside Drive,77493,29.7958931,-95.8455721
1715,Creekside Drive,77493,29.7960553,-95.8454361
1803,Creekside Drive,77493,29.7965642,-95.8450007
1815,Creekside Drive,77493,29.7970094,-95.8445389
7127,Prairie Grass Lane,77493,29.7949276,-95.8449768
7203,Prairie Grass Lane,77493,29.7949259,-95.8451936
7207,Prairie Grass Lane,77493,29.7949350,-95.8454165
7211,Prairie Grass Lane,77493,29.7949395,-95.8456362
7215,Prairie Grass Lane,77493,29.7949307,-95.8458584
7223,Prairie Grass Lane,77493,29.7949139,-95.8463230
7219,Prairie Grass Lane,77493,29.7949247,-95.8460800
7222,Prairie Grass Lane,77493,29.7955053,-95.8460661
7331,Settlers Way,77493,29.7958692,-95.8470152
1714,Rice Mill Drive,77493,29.7957534,-95.8473822
1707,Rice Mill Drive,77493,29.7952505,-95.8478987
1711,Rice Mill Drive,77493,29.7954652,-95.8479005
1719,Rice Mill Drive,77493,29.7959093,-95.8479353
7323,Settlers Way,77493,29.7962084,-95.8466319
7315,Settlers Way,77493,29.7965534,-95.8463240
7311,Settlers Way,77493,29.7967298,-95.8461517
7322,Settlers Way,77493,29.7964590,-95.8470657
7318,Settlers Way,77493,29.7966207,-95.8469343
7326,Settlers Way,77493,29.7962616,-95.8473395
1814,Rice Mill Drive,77493,29.7967444,-95.8473822
1818,Rice Mill Drive,77493,29.7969972,-95.8473920
1822,Rice Mill Drive,77493,29.7972162,-95.8473685
1811,Rice Mill Drive,77493,29.7965717,-95.8479263
1815,Rice Mill Drive,77493,29.7967935,-95.8479297
1819,Rice Mill Drive,77493,29.7970131,-95.8479376
1823,Rice Mill Drive,77493,29.7972367,-95.8479301
1831,Rice Mill Drive,77493,29.7977266,-95.8478906
1911,Rice Mill Drive,77493,29.7979106,-95.8470676
1910,Rice Mill Drive,77493,29.7974163,-95.8470430
1914,Rice Mill Drive,77493,29.7974133,-95.8467873
1903,Rice Mill Drive,77493,29.7979228,-95.8475710
7302,Settlers Way,77493,29.7974885,-95.8464464
2006,Rice Mill Drive,77493,29.7974395,-95.8458788
2007,Rice Mill Drive,77493,29.7979003,-95.8456991
2015,Rice Mill Drive,77493,29.7976539,-95.8451930
2123,Legends Way,77493,29.7991288,-95.8439460
2206,Legends Way,77493,29.7991344,-95.8451230
2210,Legends Way,77493,29.7991257,-95.8454649
2223,Legends Way,77493,29.7987452,-95.8464482
2303,Legends Way,77493,29.7991064,-95.8464636
2307,Legends Way,77493,29.7993853,-95.8464103
2311,Legends Way,77493,29.7996589,-95.8464395
2315,Legends Way,77493,29.7999212,-95.8464370
2314,Legends Way,77493,29.7999274,-95.8459061
2310,Legends Way,77493,29.7996365,-95.8459013
2318,Legends Way,77493,29.8002040,-95.8458821
2319,Legends Way,77493,29.8002171,-95.8464419
2403,Legends Way,77493,29.8004930,-95.8464581
2402,Legends Way,77493,29.8004756,-95.8458786
2406,Legends Way,77493,29.8007526,-95.8458762
2407,Legends Way,77493,29.8007715,-95.8464322
2410,Legends Way,77493,29.8010592,-95.8457749
2414,Legends Way,77493,29.8014127,-95.8457270
2418,Legends Way,77493,29.8016081,-95.8461692
2415,Legends Way,77493,29.8013330,-95.8464596
2002,Legends Way,77493,29.8006826,-95.8448668
2110,Legends Way,77493,29.8001121,-95.8439710
2106,Legends Way,77493,29.8003998,-95.8438513
2011,Legends Way,77493,29.8010077,-95.8439762
2007,Legends Way,77493,29.8011535,-95.8442767
2003,Legends Way,77493,29.8012437,-95.8445825
2103,Legends Way,77493,29.8004879,-95.8431566
2019,Legends Way,77493,29.8007541,-95.8434095
2107,Legends Way,77493,29.8001387,-95.8433414
2111,Legends Way,77493,29.7998955,-95.8435302
2115,Legends Way,77493,29.7996508,-95.8436497
2342,Karankawa Trail,77493,29.7992689,-95.8425120
2338,Karankawa Trail,77493,29.7993900,-95.8424138
2334,Karankawa Trail,77493,29.7995311,-95.8422989
2330,Karankawa Trail,77493,29.7996961,-95.8421455
2326,Karankawa Trail,77493,29.7998451,-95.8419959
2322,Karankawa Trail,77493,29.7999675,-95.8418172
2318,Karankawa Trail,77493,29.8000294,-95.8415885
2314,Karankawa Trail,77493,29.8000664,-95.8413581
2315,Karankawa Trail,77493,29.7995605,-95.8412756
2207,Karankawa Trail,77493,29.7993630,-95.8409433
2203,Karankawa Trail,77493,29.7991723,-95.8409470
2211,Karankawa Trail,77493,29.7995440,-95.8409442
2218,Karankawa Trail,77493,29.7998626,-95.8404592
2210,Karankawa Trail,77493,29.7994238,-95.8403869
2206,Karankawa Trail,77493,29.7992407,-95.8403814
2202,Karankawa Trail,77493,29.7990602,-95.8403791
2114,Karankawa Trail,77493,29.7988813,-95.8403761
2110,Karankawa Trail,77493,29.7987177,-95.8403751
2106,Karankawa Trail,77493,29.7985221,-95.8403738
6910,Harvest Lane,77493,29.7986254,-95.8409151
2331,Karankawa Trail,77493,29.7992309,-95.8418593
2327,Karankawa Trail,77493,29.7993955,-95.8417223
6903,Harvest Lane,77493,29.7980882,-95.8408936
6907,Harvest Lane,77493,29.7981506,-95.8410860
6911,Harvest Lane,77493,29.7982776,-95.8412856
6919,Harvest Lane,77493,29.7984979,-95.8415864
6923,Harvest Lane,77493,29.7986066,-95.8417502
6927,Harvest Lane,77493,29.7987245,-95.8419242
6931,Harvest Lane,77493,29.7988484,-95.8420866
6915,Harvest Lane,77493,29.7983931,-95.8414444
6918,Harvest Lane,77493,29.7988599,-95.8412478
2006,Karankawa Trail,77493,29.7978078,-95.8403634
2010,Karankawa Trail,77493,29.7979885,-95.8403693
2014,Karankawa Trail,77493,29.7981701,-95.8403738
2102,Karankawa Trail,77493,29.7983482,-95.8403701
6854,Pioneer Trail,77493,29.7974281,-95.8395773
6846,Pioneer Trail,77493,29.7977321,-95.8395630
6842,Pioneer Trail,77493,29.7978873,-95.8395679
6838,Pioneer Trail,77493,29.7980338,-95.8395429
6830,Pioneer Trail,77493,29.7983415,-95.8395852
6834,Pioneer Trail,77493,29.7981846,-95.8395698
6810,Pioneer Trail,77493,29.7987640,-95.8387734
6806,Pioneer Trail,77493,29.7987693,-95.8385951
6802,Pioneer Trail,77493,29.7987627,-95.8384270
6746,Pioneer Trail,77493,29.7987707,-95.8380760
6742,Pioneer Trail,77493,29.7987777,-95.8379033
6750,Pioneer Trail,77493,29.7987879,-95.8382511
6738,Pioneer Trail,77493,29.7987695,-95.8377318
6730,Pioneer Trail,77493,29.7987555,-95.8372993
6719,Pioneer Trail,77493,29.7981998,-95.8376196
6715,Pioneer Trail,77493,29.7980490,-95.8375618
6711,Pioneer Trail,77493,29.7978988,-95.8374938
6706,Pioneer Trail,77493,29.7977859,-95.8369615
6722,Pioneer Trail,77493,29.7984412,-95.8371185
6734,Pioneer Trail,77493,29.7987509,-95.8375506
6826,Tiger Trail,77493,29.7979789,-95.8364575
6822,Tiger Trail,77493,29.7981113,-95.8365194
6818,Tiger Trail,77493,29.7982344,-95.8366334
6814,Tiger Trail,77493,29.7983778,-95.8366848
6819,Tiger Trail,77493,29.7981761,-95.8359746
6815,Tiger Trail,77493,29.7983012,-95.8360598
6811,Tiger Trail,77493,29.7984420,-95.8361439
2011,Tonkawa Trail,77493,29.7982868,-95.8356890
6723,Tiger Trail,77493,29.7988955,-95.8362303
6719,Tiger Trail,77493,29.7990329,-95.8362379
6715,Tiger Trail,77493,29.7991707,-95.8361988
6802,Tiger Trail,77493,29.7988147,-95.8367202
6722,Tiger Trail,77493,29.7989516,-95.8367467
6714,Tiger Trail,77493,29.7992812,-95.8367574
6710,Tiger Trail,77493,29.7994196,-95.8367426
6702,Tiger Trail,77493,29.7997289,-95.8367761
6626,Tiger Trail,77493,29.7998968,-95.8366888
6602,Tiger Trail,77493,29.8000227,-95.8356416
6606,Tiger Trail,77493,29.7999874,-95.8358129
6610,Tiger Trail,77493,29.8000033,-95.8359681
6614,Tiger Trail,77493,29.7999991,-95.8361268
6618,Tiger Trail,77493,29.7999921,-95.8362956
6622,Tiger Trail,77493,29.7999928,-95.8364688
2223,Fox Creek Court,77493,29.7994670,-95.8357026
2218,Fox Creek Court,77493,29.7993328,-95.8351976
2210,Fox Creek Court,77493,29.7990566,-95.8351253
6522,Tiger Trail,77493,29.7999978,-95.8351135
6510,Tiger Trail,77493,29.8000119,-95.8346353
2226,Tonkawa Trail,77493,29.7995764,-95.8341448
2222,Tonkawa Trail,77493,29.7994343,-95.8341544
2203,Tonkawa Trail,77493,29.7987180,-95.8347191
2211,Tonkawa Trail,77493,29.7990351,-95.8346836
2215,Tonkawa Trail,77493,29.7991817,-95.8346735
2219,Tonkawa Trail,77493,29.7993275,-95.8346727
2207,Tonkawa Trail,77493,29.7988888,-95.8346718
6702,Pioneer Trail,77493,29.7976082,-95.8369519
2015,Tonkawa Trail,77493,29.7983291,-95.8355198
2109,Tonkawa Trail,77493,29.7983605,-95.8353557
2103,Tonkawa Trail,77493,29.7983718,-95.8351897
2114,Tonkawa Trail,77493,29.7980413,-95.8346774
2110,Tonkawa Trail,77493,29.7979642,-95.8348307
2106,Tonkawa Trail,77493,29.7979488,-95.8350148
2102,Tonkawa Trail,77493,29.7979236,-95.8351796
2014,Tonkawa Trail,77493,29.7978811,-95.8353308
2010,Tonkawa Trail,77493,29.7978775,-95.8354998
2006,Tonkawa Trail,77493,29.7978582,-95.8356788
6411,Deer Run Crossing,77493,29.7982870,-95.8337837
6407,Deer Run Crossing,77493,29.7982812,-95.8336262
6343,Deer Run Crossing,77493,29.7982864,-95.8330742
6335,Deer Run Crossing,77493,29.7982920,-95.8327670
6331,Deer Run Crossing,77493,29.7982970,-95.8326043
6327,Deer Run Crossing,77493,29.7982752,-95.8324571
6323,Deer Run Crossing,77493,29.7983064,-95.8323003
6315,Deer Run Crossing,77493,29.7983658,-95.8319494
6311,Deer Run Crossing,77493,29.7984134,-95.8317881
6307,Deer Run Crossing,77493,29.7984992,-95.8316326
6302,Deer Run Crossing,77493,29.7988848,-95.8319259
6306,Deer Run Crossing,77493,29.7987866,-95.8321263
2203,Wolf Creek Court,77493,29.7991272,-95.8325449
6322,Deer Run Crossing,77493,29.7987397,-95.8328475
2202,Wolf Creek Court,77493,29.7991111,-95.8322778
6431,Wolf Run Drive,77493,29.7986767,-95.8331364
6430,Wolf Run Drive,77493,29.7988159,-95.8336555
6422,Wolf Run Drive,77493,29.7991014,-95.8336431
6418,Wolf Run Drive,77493,29.7992440,-95.8336578
6406,Wolf Run Drive,77493,29.7996774,-95.8336580
6346,Wolf Run Drive,77493,29.8000175,-95.8334855
6342,Wolf Run Drive,77493,29.8000193,-95.8332590
6330,Wolf Run Drive,77493,29.8000353,-95.8327610
6326,Wolf Run Drive,77493,29.8000299,-95.8326024
6322,Wolf Run Drive,77493,29.8000185,-95.8324452
6310,Wolf Run Drive,77493,29.8000323,-95.8319474
6306,Wolf Run Drive,77493,29.8000355,-95.8317951
6214,Deer Run Crossing,77493,29.7996424,-95.8316545
2214,Wolf Creek Court,77493,29.7996390,-95.8321195
2210,Wolf Creek Court,77493,29.7994880,-95.8320387
6222,Deer Run Crossing,77493,29.7993469,-95.8316353
2206,Wolf Creek Court,77493,29.7992954,-95.8320815
6411,Wolf Run Drive,77493,29.7994542,-95.8331423
6419,Wolf Run Drive,77493,29.7991395,-95.8331362
6423,Wolf Run Drive,77493,29.7989847,-95.8331407
2211,Wolf Creek Court,77493,29.7994754,-95.8327422
6302,Wolf Run Drive,77493,29.8000336,-95.8316282
6303,Deer Run Crossing,77493,29.7986065,-95.8314858
6707,Cottonwood Crest Lane,77493,29.8008019,-95.8375214
6715,Cottonwood Crest Lane,77493,29.8008102,-95.8379587
6714,Cottonwood Crest Lane,77493,29.8013261,-95.8379180
6710,Cottonwood Crest Lane,77493,29.8013304,-95.8377008
6706,Cottonwood Crest Lane,77493,29.8012992,-95.8374653
6718,Cottonwood Crest Lane,77493,29.8013054,-95.8381376
6518,Cottonwood Crest Lane,77493,29.8013577,-95.8359924
6514,Cottonwood Crest Lane,77493,29.8014595,-95.8357808
6522,Cottonwood Crest Lane,77493,29.8012984,-95.8362099
6611,Cedar Hawk Court,77493,29.8016834,-95.8363289
6607,Cedar Hawk Court,77493,29.8017020,-95.8360540
6606,Cedar Hawk Court,77493,29.8023353,-95.8360473
6614,Cedar Hawk Court,77493,29.8022270,-95.8365361
2415,Banyon Gulch Lane,77493,29.8018632,-95.8370996
2419,Banyon Gulch Lane,77493,29.8020766,-95.8370658
2423,Banyon Gulch Lane,77493,29.8022830,-95.8370762
6627,Hollow Bay Court,77493,29.8027368,-95.8363874
6623,Hollow Bay Court,77493,29.8029004,-95.8361826
6611,Hollow Bay Court,77493,29.8035521,-95.8363468
6607,Hollow Bay Court,77493,29.8037919,-95.8363738
6603,Hollow Bay Court,77493,29.8039303,-95.8365541
6607,Windy Hills Lane,77493,29.8043492,-95.8364617
6602,Windy Hills Lane,77493,29.8049944,-95.8365892
6618,Windy Hills Lane,77493,29.8044724,-95.8373062
6622,Windy Hills Lane,77493,29.8043325,-95.8374862
6626,Windy Hills Lane,77493,29.8041662,-95.8376099
6627,Windy Hills Lane,77493,29.8036302,-95.8373684
6602,Hollow Bay Court,77493,29.8034457,-95.8370989
2503,Banyon Gulch Lane,77493,29.8027248,-95.8372430
2507,Banyon Gulch Lane,77493,29.8028640,-95.8374431
2511,Banyon Gulch Lane,77493,29.8029697,-95.8376582
2515,Banyon Gulch Lane,77493,29.8030906,-95.8378431
2519,Banyon Gulch Lane,77493,29.8031773,-95.8380619
2523,Banyon Gulch Lane,77493,29.8032636,-95.8382689
6343,Asbury Brook Court,77493,29.8007437,-95.8337121
6339,Asbury Brook Court,77493,29.8007274,-95.8334383
6327,Asbury Brook Court,77493,29.8007869,-95.8327855
6323,Asbury Brook Court,77493,29.8007809,-95.8325625
6319,Asbury Brook Court,77493,29.8007410,-95.8323332
6331,Asbury Brook Court,77493,29.8007780,-95.8330045
6326,Asbury Brook Court,77493,29.8012893,-95.8329770
6322,Asbury Brook Court,77493,29.8012882,-95.8327503
6318,Asbury Brook Court,77493,29.8012845,-95.8325334
6330,Asbury Brook Court,77493,29.8012873,-95.8331903
6311,Asbury Brook Court,77493,29.8010989,-95.8319542
6307,Asbury Brook Court,77493,29.8012894,-95.8319957
6303,Asbury Brook Court,77493,29.8014955,-95.8320384
6147,Verde Place Lane,77493,29.8018921,-95.8310132
6203,Verde Place Lane,77493,29.8023174,-95.8313632
6211,Verde Place Lane,77493,29.8024567,-95.8315527
2007,Harbor Breeze Lane,77493,29.8026256,-95.8320504
2011,Harbor Breeze Lane,77493,29.8026092,-95.8322792
2023,Harbor Breeze Lane,77493,29.8026175,-95.8329742
2019,Harbor Breeze Lane,77493,29.8025914,-95.8327385
2103,Harbor Breeze Lane,77493,29.8029281,-95.8335962
2107,Harbor Breeze Lane,77493,29.8030878,-95.8337596
2111,Harbor Breeze Lane,77493,29.8032497,-95.8339059
2115,Harbor Breeze Lane,77493,29.8034317,-95.8340080
2002,Harbor Breeze Lane,77493,29.8031357,-95.8321369
2010,Harbor Breeze Lane,77493,29.8031040,-95.8325737
6303,Nectar Grove Court,77493,29.8035004,-95.8321878
6307,Nectar Grove Court,77493,29.8034798,-95.8324126
6311,Nectar Grove Court,77493,29.8034335,-95.8326533
6315,Nectar Grove Court,77493,29.8035330,-95.8329251
2102,Harbor Breeze Lane,77493,29.8033487,-95.8332723
2106,Harbor Breeze Lane,77493,29.8035182,-95.8334002
2110,Harbor Breeze Lane,77493,29.8037050,-95.8335232
2114,Harbor Breeze Lane,77493,29.8039168,-95.8335926
6306,Nectar Grove Court,77493,29.8040548,-95.8323664
6310,Nectar Grove Court,77493,29.8041031,-95.8325903
6307,Sunstone Falls Lane,77493,29.8044404,-95.8322046
6319,Sunstone Falls Lane,77493,29.8044536,-95.8329518
6403,Sunstone Falls Lane,77493,29.8044333,-95.8331816
6407,Sunstone Falls Lane,77493,29.8044406,-95.8334120
6411,Sunstone Falls Lane,77493,29.8044508,-95.8336641
6315,Sunstone Falls Lane,77493,29.8044514,-95.8327089
2127,Harbor Breeze Lane,77493,29.8040341,-95.8341998
6423,Sunstone Falls Lane,77493,29.8043230,-95.8343814
6306,Sunstone Falls Lane,77493,29.8048349,-95.8317467
6302,Verde Place Lane,77493,29.8030805,-95.8314715
6318,Verde Place Lane,77493,29.8034820,-95.8316526
6402,Verde Place Lane,77493,29.8036978,-95.8316568
6410,Verde Place Lane,77493,29.8039108,-95.8316107
6418,Verde Place Lane,77493,29.8041116,-95.8314915
6039,Franz Court,77493,29.8000659,-95.8288510
6201,Fawnlake Drive,77493,29.8054429,-95.8294054
6209,Fawnlake Drive,77493,29.8053906,-95.8298593
6215,Fawnlake Drive,77493,29.8053904,-95.8302914
6219,Fawnlake Drive,77493,29.8054442,-95.8305123
2201,Deer Run Court,77493,29.8055294,-95.8307827
6214,Fawnlake Drive,77493,29.8058771,-95.8302640
6218,Fawnlake Drive,77493,29.8059333,-95.8304953
6302,Fawnlake Drive,77493,29.8060941,-95.8309536
6310,Fawnlake Drive,77493,29.8063521,-95.8313058
6329,Fawnlake Drive,77493,29.8061456,-95.8325929
6305,Deer Meadow Lane,77493,29.8053286,-95.8321600
6309,Deer Meadow Lane,77493,29.8053550,-95.8324136
6313,Deer Meadow Lane,77493,29.8053567,-95.8326508
6317,Deer Meadow Lane,77493,29.8053549,-95.8328566
6415,Deer Meadow Lane,77493,29.8053347,-95.8337489
6272,North Fawnlake Drive,77493,29.8060961,-95.8331669
6268,North Fawnlake Drive,77493,29.8062909,-95.8331128
6260,North Fawnlake Drive,77493,29.8067373,-95.8331937
6236,North Fawnlake Drive,77493,29.8078333,-95.8331187
25615,Clay Road,77493,29.8301374,-95.8161395
1801,Woodcreek Bend Lane,77494,29.7601311,-95.8303721
25839,Katy Freeway,77494,29.7739166,-95.8261481
5238,Tallowwood Terrace,77493,29.8132273,-95.8107108
5314,Tallowwood Terrace,77493,29.8132092,-95.8118450
5320,Tallowwood Terrace,77493,29.8132057,-95.8120341
5326,Tallowwood Terrace,77493,29.8132038,-95.8122241
5334,Tallowwood Terrace,77493,29.8132007,-95.8124130
5340,Tallowwood Terrace,77493,29.8131979,-95.8126022
5346,Tallowwood Terrace,77493,29.8131944,-95.8127910
5358,Tallowwood Terrace,77493,29.8131891,-95.8131696
5364,Tallowwood Terrace,77493,29.8131853,-95.8133584
5410,Tallowwood Terrace,77493,29.8131796,-95.8137604
5308,Tallowpine Terrace,77493,29.8125117,-95.8115807
5314,Tallowpine Terrace,77493,29.8124753,-95.8117582
5313,Tallowwood Terrace,77493,29.8127259,-95.8117804
5321,Tallowwood Terrace,77493,29.8127440,-95.8119636
5329,Tallowwood Terrace,77493,29.8127361,-95.8121589
5341,Tallowwood Terrace,77493,29.8127342,-95.8125296
5347,Tallowwood Terrace,77493,29.8127263,-95.8127256
5353,Tallowwood Terrace,77493,29.8127245,-95.8129153
5401,Tallowwood Terrace,77493,29.8127085,-95.8134750
5407,Tallowwood Terrace,77493,29.8127068,-95.8136630
5415,Tallowwood Terrace,77493,29.8127053,-95.8138803
5410,Tallowpine Terrace,77493,29.8124396,-95.8138557
5404,Tallowpine Terrace,77493,29.8124432,-95.8136600
5400,Tallowpine Terrace,77493,29.8124641,-95.8134707
5356,Tallowpine Terrace,77493,29.8124485,-95.8130915
5338,Tallowpine Terrace,77493,29.8124635,-95.8125180
5334,Tallowpine Terrace,77493,29.8124665,-95.8123285
5328,Tallowpine Terrace,77493,29.8124689,-95.8121401
5415,Tallowpine Terrace,77493,29.8120106,-95.8138833
5401,Tallowpine Terrace,77493,29.8120198,-95.8134836
5359,Tallowpine Terrace,77493,29.8119960,-95.8130918
5353,Tallowpine Terrace,77493,29.8120081,-95.8129038
5347,Tallowpine Terrace,77493,29.8120259,-95.8127149
5335,Tallowpine Terrace,77493,29.8120227,-95.8123339
5329,Tallowpine Terrace,77493,29.8120221,-95.8121649
5321,Tallowpine Terrace,77493,29.8120461,-95.8119691
5313,Tallowpine Terrace,77493,29.8120424,-95.8117754
5303,Tallowpine Terrace,77493,29.8120480,-95.8113960
5410,Pinewood Terrace,77493,29.8117487,-95.8138393
5404,Pinewood Terrace,77493,29.8117597,-95.8136430
5338,Pinewood Terrace,77493,29.8117898,-95.8125183
5334,Pinewood Terrace,77493,29.8117854,-95.8123225
5320,Pinewood Terrace,77493,29.8117572,-95.8119454
5302,Pinewood Terrace,77493,29.8117923,-95.8113818
5240,Pinewood Terrace,77493,29.8118025,-95.8108228
5417,Pinewood Terrace,77493,29.8112860,-95.8139327
5409,Pinewood Terrace,77493,29.8113106,-95.8137556
5363,Pinewood Terrace,77493,29.8113085,-95.8133506
5355,Pinewood Terrace,77493,29.8113257,-95.8129732
5349,Pinewood Terrace,77493,29.8113096,-95.8127881
5323,Pinewood Terrace,77493,29.8113266,-95.8120269
5307,Pinewood Terrace,77493,29.8113325,-95.8116481
5301,Pinewood Terrace,77493,29.8113479,-95.8114609
5255,Pinewood Terrace,77493,29.8113561,-95.8112756
5237,Pinewood Terrace,77493,29.8113369,-95.8106074
2219,Legends Way,77493,29.7986299,-95.8460933
7343,Palmetto Springs Trail,77493,29.8025194,-95.8492287
7311,Palmetto Springs Trail,77493,29.8040540,-95.8473817
7206,Brenta Court,77493,29.8046829,-95.8475946
7338,Palmetto Springs Trail,77493,29.8029737,-95.8486181
7202,Brenta Court,77493,29.8048588,-95.8471452
7347,Palmetto Springs Trail,77493,29.8025307,-95.8496062
7315,Palmetto Springs Trail,77493,29.8036288,-95.8472699
7339,Palmetto Springs Trail,77493,29.8024476,-95.8489230
7342,Palmetto Springs Trail,77493,29.8030868,-95.8489954
7314,Palmetto Springs Trail,77493,29.8033446,-95.8479079
7411,Palmetto Springs Trail,77493,29.8032283,-95.8502005
7038,North Savannah Run,77493,29.8038367,-95.8447034
7018,Goldstrum Way,77493,29.8090440,-95.8433357
2406,Savannah Run,77493,29.8018203,-95.8425787
6923,Goldstrum Way,77493,29.8096926,-95.8416524
2918,Muhley Street,77493,29.8101364,-95.8404570
2903,Holly Lane,77493,29.8086652,-95.8421969
6907,North Elmwood Trail,77493,29.8031742,-95.8405389
6914,Goldstrum Way,77493,29.8103898,-95.8414536
6915,Crane Court,77493,29.8066171,-95.8413118
2910,Muhley Street,77493,29.8098591,-95.8404532
6911,Goldstrum Way,77493,29.8099428,-95.8412633
2818,Acorn Way,77493,29.8086326,-95.8404407
6919,Myrtle Drive,77493,29.8090502,-95.8410810
6910,Goldstrum Way,77493,29.8104571,-95.8412986
2407,Elmwood Trail,77493,29.8013013,-95.8417643
6915,Red Oak Drive,77493,29.8075541,-95.8415771
6911,Red Oak Drive,77493,29.8075553,-95.8413469
6903,Red Oak Drive,77493,29.8075785,-95.8409453
6930,Myrtle Drive,77493,29.8091956,-95.8418053
2311,Elmwood Trail,77493,29.8008339,-95.8410236
7031,South Savannah Run,77493,29.8022644,-95.8445518
6943,Myrtle Drive,77493,29.8085882,-95.8419622
6927,Myrtle Drive,77493,29.8088949,-95.8413482
2922,Muhley Street,77493,29.8102735,-95.8404594
6923,Myrtle Drive,77493,29.8089658,-95.8412205
6906,Myrtle Drive,77493,29.8097115,-95.8409961
2303,Elmwood Trail,77493,29.8008563,-95.8405803
2402,Savannah Run,77493,29.8015392,-95.8427237
2707,Country Lane,77493,29.8063846,-95.8424878
2403,Brazos Trail,77493,29.8024704,-95.8428808
2803,Acorn Way,77493,29.8080130,-95.8409705
2414,Savannah Run,77493,29.8021990,-95.8424392
2418,Savannah Run,77493,29.8023887,-95.8423928
2518,Savannah Run,77493,29.8036805,-95.8423497
6907,Myrtle Drive,77493,29.8092836,-95.8406867
2810,Acorn Way,77493,29.8083040,-95.8404407
7014,Goldstrum Way,77493,29.8092533,-95.8433016
2431,Elmwood Trail,77493,29.8021751,-95.8415112
2307,Elmwood Trail,77493,29.8007759,-95.8407788
7027,South Savannah Run,77493,29.8021282,-95.8443433
2515,Brazos Trail,77493,29.8036487,-95.8438663
6906,Brazos Circle,77493,29.8027448,-95.8405095
6902,Brazos Circle,77493,29.8025362,-95.8403833
6906,Crane Court,77493,29.8072274,-95.8409204
7030,North Savannah Run,77493,29.8040267,-95.8442366
2706,Country Lane,77493,29.8065712,-95.8419978
2506,Brazos Trail,77493,29.8033350,-95.8432986
6919,Crane Court,77493,29.8066764,-95.8415880
2706,Acorn Way,77493,29.8071467,-95.8404325
2934,Muhley Street,77493,29.8106838,-95.8404723
7002,North Savannah Run,77493,29.8043577,-95.8426690
7032,South Savannah Run,77493,29.8028418,-95.8443707
2503,Savannah Run,77493,29.8029481,-95.8428805
6910,Crane Court,77493,29.8072177,-95.8411185
6911,Brazos Circle,77493,29.8021983,-95.8408688
6914,Myrtle Drive,77493,29.8095074,-95.8412697
2822,Acorn Way,77493,29.8088427,-95.8405615
2718,Acorn Way,77493,29.8076423,-95.8404297
6903,Brazos Circle,77493,29.8023039,-95.8404393
2902,Muhley Street,77493,29.8095711,-95.8404579
2807,Acorn Way,77493,29.8082007,-95.8409683
6910,Brazos Circle,77493,29.8027873,-95.8407489
2503,Brazos Trail,77493,29.8029633,-95.8438071
2507,Brazos Trail,77493,29.8032112,-95.8438280
2511,Brazos Trail,77493,29.8034363,-95.8438583
7045,North Savannah Run,77493,29.8031894,-95.8447573
6919,Red Oak Drive,77493,29.8074763,-95.8418100
7007,South Savannah Run,77493,29.8016531,-95.8433183
6915,Myrtle Drive,77493,29.8091182,-95.8409436
6902,North Elmwood Trail,77493,29.8035602,-95.8404503
2403,Elmwood Trail,77493,29.8011067,-95.8417694
2906,Muhley Street,77493,29.8097190,-95.8404579
2502,Savannah Run,77493,29.8028933,-95.8423265
7046,North Savannah Run,77493,29.8034166,-95.8449421
2506,Savannah Run,77493,29.8030904,-95.8423394
2419,Elmwood Trail,77493,29.8017293,-95.8416352
6926,Myrtle Drive,77493,29.8092738,-95.8416654
7006,North Savannah Run,77493,29.8042759,-95.8429491
2702,Country Lane,77493,29.8064282,-95.8418866
6942,Goldstrum Way,77493,29.8098091,-95.8424426
6907,Red Oak Drive,77493,29.8075528,-95.8411367
7028,South Savannah Run,77493,29.8026683,-95.8441277
2515,Savannah Run,77493,29.8036220,-95.8428754
2310,Elmwood Trail,77493,29.8013938,-95.8406774
7014,North Savannah Run,77493,29.8042090,-95.8433827
7004,South Savannah Run,77493,29.8020635,-95.8429916
6918,Crane Court,77493,29.8071335,-95.8415775
7016,South Savannah Run,77493,29.8023096,-95.8436205
7036,South Savannah Run,77493,29.8027712,-95.8447557
2514,Savannah Run,77493,29.8034836,-95.8423327
6922,Myrtle Drive,77493,29.8093572,-95.8415409
2422,Elmwood Trail,77493,29.8017980,-95.8410679
2702,Acorn Way,77493,29.8069395,-95.8404537
2514,Brazos Trail,77493,29.8037598,-95.8433480
6907,Brazos Circle,77493,29.8021744,-95.8406625
2950,Muhley Street,77493,29.8112833,-95.8406216
6915,Brazos Circle,77493,29.8022690,-95.8410309
6903,North Elmwood Trail,77493,29.8033533,-95.8404279
2814,Acorn Way,77493,29.8084680,-95.8404406
2914,Muhley Street,77493,29.8099978,-95.8404462
2418,Elmwood Trail,77493,29.8016275,-95.8410978
2519,Savannah Run,77493,29.8038520,-95.8429353
2722,Country Lane,77493,29.8071633,-95.8424527
2302,Elmwood Trail,77493,29.8010319,-95.8404517
7002,Goldstrum Way,77493,29.8095493,-95.8428646
7034,North Savannah Run,77493,29.8039604,-95.8444894
6907,Crane Court,77493,29.8067352,-95.8408787
6935,Myrtle Drive,77493,29.8087274,-95.8416196
2507,Elmwood Trail,77493,29.8029180,-95.8414195
6915,North Elmwood Trail,77493,29.8031696,-95.8409298
6939,Myrtle Drive,77493,29.8086494,-95.8417586
2415,Brazos Trail,77493,29.8027216,-95.8436385
7018,North Savannah Run,77493,29.8041471,-95.8435975
2502,Brazos Trail,77493,29.8031350,-95.8432820
6934,Red Oak Drive,77493,29.8074594,-95.8428213
2511,Savannah Run,77493,29.8033903,-95.8428690
6918,Myrtle Drive,77493,29.8094354,-95.8414063
2435,Elmwood Trail,77493,29.8023169,-95.8414794
2411,Brazos Trail,77493,29.8025954,-95.8433693
2710,Country Lane,77493,29.8067153,-95.8421162
6903,Myrtle Drive,77493,29.8093808,-95.8405278
6942,Red Oak Drive,77493,29.8072276,-95.8431966
2522,Savannah Run,77493,29.8038767,-95.8423778
7015,South Savannah Run,77493,29.8018180,-95.8437282
6910,Myrtle Drive,77493,29.8095716,-95.8411110
6903,Crane Court,77493,29.8067871,-95.8406516
7026,North Savannah Run,77493,29.8040674,-95.8440217
2510,Brazos Trail,77493,29.8035368,-95.8433100
7022,North Savannah Run,77493,29.8041059,-95.8438144
7011,South Savannah Run,77493,29.8017555,-95.8435221
2719,Country Lane,77493,29.8068136,-95.8428204
2930,Muhley Street,77493,29.8105481,-95.8404607
2306,Elmwood Trail,77493,29.8012314,-95.8404875
2503,Elmwood Trail,77493,29.8027803,-95.8414473
6931,Myrtle Drive,77493,29.8088107,-95.8414868
6938,Red Oak Drive,77493,29.8073561,-95.8430017
2942,Muhley Street,77493,29.8109615,-95.8404709
2722,Acorn Way,77493,29.8078074,-95.8404327
2423,Elmwood Trail,77493,29.8018778,-95.8416031
2711,Country Lane,77493,29.8065326,-95.8425716
7019,South Savannah Run,77493,29.8019234,-95.8439325
7023,South Savannah Run,77493,29.8020248,-95.8441311
7020,South Savannah Run,77493,29.8024094,-95.8438180
6910,Red Oak Drive,77493,29.8080026,-95.8412666
6922,Crane Court,77493,29.8069358,-95.8417296
2507,Savannah Run,77493,29.8031578,-95.8428658
6934,Myrtle Drive,77493,29.8091235,-95.8419671
2946,Muhley Street,77493,29.8111464,-95.8404831
2526,Savannah Run,77493,29.8041095,-95.8423806
6911,Myrtle Drive,77493,29.8092106,-95.8408187
2710,Acorn Way,77493,29.8073123,-95.8404601
2802,Acorn Way,77493,29.8079720,-95.8404677
7003,South Savannah Run,77493,29.8015507,-95.8430767
6911,Crane Court,77493,29.8067536,-95.8410900
7012,South Savannah Run,77493,29.8022215,-95.8434254
7008,South Savannah Run,77493,29.8021455,-95.8432212
7010,North Savannah Run,77493,29.8042422,-95.8431669
2718,Country Lane,77493,29.8070193,-95.8423310
7010,Goldstrum Way,77493,29.8093956,-95.8431470
7007,Goldstrum Way,77493,29.8091047,-95.8426168
2926,Muhley Street,77493,29.8104106,-95.8404465
6902,Goldstrum Way,77493,29.8105895,-95.8409328
6911,North Elmwood Trail,77493,29.8031141,-95.8407608
2714,Country Lane,77493,29.8068648,-95.8422392
2315,Elmwood Trail,77493,29.8008406,-95.8412063
6930,Red Oak Drive,77493,29.8077733,-95.8422309
7037,North Savannah Run,77493,29.8035136,-95.8442381
7041,North Savannah Run,77493,29.8032466,-95.8443811
2407,Brazos Trail,77493,29.8025013,-95.8431231
2319,Elmwood Trail,77493,29.8009123,-95.8415622
2427,Elmwood Trail,77493,29.8020139,-95.8415265
2938,Muhley Street,77493,29.8108211,-95.8404742
6923,Red Oak Drive,77493,29.8073772,-95.8420000
7003,Goldstrum Way,77493,29.8091806,-95.8424870
2715,Country Lane,77493,29.8066611,-95.8427070
6926,Red Oak Drive,77493,29.8078778,-95.8420539
2410,Savannah Run,77493,29.8020041,-95.8425083
2411,Elmwood Trail,77493,29.8014368,-95.8417091
2415,Elmwood Trail,77493,29.8015840,-95.8416771
7006,Goldstrum Way,77493,29.8094570,-95.8429881
2806,Acorn Way,77493,29.8081374,-95.8404516
2510,Savannah Run,77493,29.8032871,-95.8423264
7035,South Savannah Run,77493,29.8024207,-95.8447746
7024,South Savannah Run,77493,29.8025164,-95.8440049
6850,Franz Road,77493,29.8008532,-95.8396082
2214,Karankawa Trail,77493,29.7996315,-95.8403762
2323,Karankawa Trail,77493,29.7995424,-95.8414907
1807,Creekside Drive,77493,29.7967146,-95.8448296
6114,Fawnlake Drive,77493,29.8062098,-95.8289165
2414,Fawnlake Circle,77493,29.8076010,-95.8298102
6406,Crystal Forest Trail,77493,29.8094903,-95.8315520
6223,Crystal Forest Trail,77493,29.8089409,-95.8296171
6303,Crystal Forest Trail,77493,29.8089168,-95.8298044
6126,North Fawnlake Drive,77493,29.8085782,-95.8301402
9017,North Fawnlake Drive,77493,29.8080971,-95.8282351
2409,Deercreek Circle,77493,29.8086003,-95.8273782
2425,Buckskin Lane,77493,29.8085688,-95.8268312
2426,Buckskin Lane,77493,29.8085428,-95.8263404
2401,Deerfield Drive,77493,29.8074599,-95.8259490
2405,Deerfield Drive,77493,29.8076329,-95.8259263
2409,Deerfield Drive,77493,29.8078207,-95.8259341
2310,Deerfield Drive,77493,29.8063734,-95.8253926
2301,Deerfield Drive,77493,29.8060860,-95.8260393
5905,Deerfield Court,77493,29.8055692,-95.8253893
2313,Deerfield Drive,77493,29.8066130,-95.8259298
2328,Buckskin Lane,77493,29.8064394,-95.8262613
2332,Buckskin Lane,77493,29.8066392,-95.8263085
2336,Buckskin Lane,77493,29.8068213,-95.8263058
6013,Fawnlake Drive,77493,29.8068864,-95.8274599
6020,Fawnlake Drive,77493,29.8069689,-95.8282054
6025,Fawnlake Drive,77493,29.8064767,-95.8279827
6102,Fawnlake Drive,77493,29.8066883,-95.8285134
6106,Fawnlake Drive,77493,29.8065272,-95.8286608
6106,Kyle Bend Lane,77493,29.8109391,-95.8278555
6414,Crystal Forest Trail,77493,29.8097262,-95.8319317
6315,Lake Chase Court,77493,29.8097152,-95.8304940
2510,Forest Lake Trail,77493,29.8094622,-95.8284668
2518,Forest Lake Trail,77493,29.8097918,-95.8284594
2519,Forest Lake Trail,77493,29.8098404,-95.8290184
6207,Lake Chase Court,77493,29.8099927,-95.8293671
2702,Pine Trail,77493,29.8113714,-95.8274530
2714,Pine Trail,77493,29.8118612,-95.8272913
5906,Pine Lakes Drive,77493,29.8122894,-95.8256135
5914,Pine Lakes Drive,77493,29.8123093,-95.8259822
5918,Pine Lakes Drive,77493,29.8123100,-95.8261828
6002,Pine Lakes Drive,77493,29.8122923,-95.8265552
6014,Pine Lakes Drive,77493,29.8122858,-95.8271236
6018,Pine Lakes Drive,77493,29.8122925,-95.8273152
6022,Pine Lakes Drive,77493,29.8123078,-95.8275026
6102,Pine Lakes Drive,77493,29.8122782,-95.8276917
6110,Pine Lakes Drive,77493,29.8122930,-95.8280664
6114,Pine Lakes Drive,77493,29.8123206,-95.8282582
6118,Pine Lakes Drive,77493,29.8122877,-95.8284485
6122,Pine Lakes Drive,77493,29.8122942,-95.8286371
6211,Kyle Bend Lane,77493,29.8104793,-95.8293440
1820,Woodcreek Bend Lane,77494,29.7591604,-95.8321199
2302,Legends Way,77493,29.7991106,-95.8458629
