House number,Street name,Postal code,Latitude,Longitude
105,South Old Betsy Road,76059,32.3959091,-97.3309891
103,South Old Betsy Road,76059,32.3959068,-97.3311232
203,West Hillcrest Street,76059,32.3960608,-97.3292349
314,South Old Betsy Road,76059,32.3924753,-97.3333296
306,South Old Betsy Road,76059,32.3925931,-97.3332704
310,South Old Betsy Road,76059,32.3925581,-97.3332836
314,South Old Betsy Road,76059,32.3924335,-97.3333465
703,Greenbriar Avenue,76059,32.3947062,-97.3378377
312,South Old Betsy Road,76059,32.3925257,-97.3333010
701,Greenbriar Avenue,76059,32.3945630,-97.3373884
803,John Thomas Drive,76059,32.3902573,-97.3368264
806,John Thomas Drive,76059,32.3906605,-97.3370194
100,Bluebonnet Trail,76059,32.3986966,-97.3383571
619,West Hillcrest Drive,76059,32.3984904,-97.3367008
605,West Hillcrest Drive,76059,32.3983803,-97.3351098
106,Bluebonnet Trail,76059,32.3978949,-97.3383605
904,Melanie Lane,76059,32.3977825,-97.3397923
205,Shady Oak Road,76059,32.3968520,-97.3366969
206,Mistletoe Lane,76059,32.3967247,-97.3361923
207,Woodlawn Drive,76059,32.3963669,-97.3345186
212,Mistletoe Lane,76059,32.3958423,-97.3362304
213,Songbird Trail,76059,32.3958308,-97.3388406
215,Songbird Trail,76059,32.3955509,-97.3388424
105,South Eastern Street,76059,32.3963635,-97.3198710
106,Pine Street,76059,32.3962505,-97.3228521
108,Pine Street,76059,32.3961575,-97.3228517
107,South Eastern Street,76059,32.3960569,-97.3198929
207,West Hillcrest Drive,76059,32.3960914,-97.3297079
207,West Hillcrest Drive,76059,32.3960921,-97.3298226
205,West Hillcrest Drive,76059,32.3960829,-97.3294756
205,West Hillcrest Drive,76059,32.3960835,-97.3295906
210,North Val Verde Circle,76059,32.3958653,-97.3297677
208,North Val Verde Circle,76059,32.3958514,-97.3295383
210,North Val Verde Circle,76059,32.3957161,-97.3297775
208,North Val Verde Circle,76059,32.3957085,-97.3295405
210,North Val Verde Circle,76059,32.3955727,-97.3297721
208,North Val Verde Circle,76059,32.3955665,-97.3295427
210,North Val Verde Circle,76059,32.3954102,-97.3297743
208,North Val Verde Circle,76059,32.3954058,-97.3295450
105,West 1st Street,76059,32.3951213,-97.3272613
205,South Eastern Street,76059,32.3943926,-97.3197873
208,South Eastern Street,76059,32.3938238,-97.3203685
308,South College Drive,76059,32.3926668,-97.3268492
216,West 4th Street,76059,32.3923903,-97.3305574
311,South College Drive,76059,32.3922464,-97.3262867
520,Molly Lane,76059,32.3882787,-97.3294960
213,South College Drive,76059,32.3939613,-97.3262868
213,South College Drive,76059,32.3939610,-97.3262400
401,South Old Betsy Road,76059,32.3898972,-97.3327010
302,Pecan Street,76059,32.3979481,-97.3216377
114,South Fairview Street,76059,32.3957645,-97.3250699
304,West US Highway 67,76059,32.3833787,-97.3353429
100,West Hillcrest Street,76059,32.3977651,-97.3278830
101,North Fairview Street,76059,32.3972827,-97.3240978
202,Pecan Street,76059,32.3973058,-97.3237873
204,Pecan Street,76059,32.3973072,-97.3235787
206,Pecan Street,76059,32.3973070,-97.3233916
203,North Fairview Street,76059,32.3985281,-97.3235653
101,West Magnolia Street,76059,32.3975809,-97.3269805
100,North Mockingbird Lane,76059,32.3976670,-97.3290487
200,West Magnolia Street,76059,32.3982348,-97.3278522
113,West Magnolia Street,76059,32.3976822,-97.3280399
4231,US Highway 67,76031,32.3977189,-97.2968560
101,County Road 807,76031,32.3976292,-97.2963851
4301,East US Highway 67,76009,32.3982179,-97.2957114
4317,US Highway 67,76009,32.3987462,-97.2950484
4329,US Highway 67,76009,32.3984385,-97.2943408
4337,US Highway 67,76009,32.3985589,-97.2937280
124,County Road 318,76009,32.3973341,-97.2928639
4308,US Highway 67,76031,32.3969158,-97.2942030
4226,US Highway 67,76031,32.3962184,-97.2971950
4801,County Road 317,76031,32.3958459,-97.2971249
3901,County Road 317,76031,32.3892741,-97.3102509
3837,County Road 317,76031,32.3882950,-97.3110008
3825,County Road 317,76031,32.3877523,-97.3115945
3811,County Road 317,76031,32.3884148,-97.3119478
3809,County Road 317,76031,32.3875287,-97.3127741
3515,US Highway 67,76031,32.3923019,-97.3131792
3525,US Highway 67,76031,32.3926553,-97.3123389
404,Charger Drive,76059,32.3916534,-97.3182104
214,East US Highway 67,76059,32.3888248,-97.3227967
212,US Highway 67,76059,32.3883654,-97.3228014
206,East US Highway 67,76059,32.3881112,-97.3233716
205,East US Highway 67,76059,32.3880171,-97.3210474
516,South Eastern Street,76059,32.3883214,-97.3198131
505,South Eastern Street,76059,32.3885638,-97.3192621
520,South College Drive,76059,32.3876339,-97.3268512
518,South College Drive,76059,32.3879003,-97.3269043
100,East US Highway 67,76059,32.3868067,-97.3262658
400,South Old Betsy Road,76059,32.3914563,-97.3339028
104,FM 2280,76031,32.3793429,-97.3408907
308,East 4th Street,76059,32.3918015,-97.3205745
208,East 3rd Street,76059,32.3936265,-97.3232310
113,South Fairview Avenue,76059,32.3959385,-97.3241860
118,Pine Street,76059,32.3953925,-97.3228345
200,Pine Street,76059,32.3950405,-97.3228420
214,East 4th Street,76059,32.3917960,-97.3226505
303,Gale Lane,76059,32.3920985,-97.3223315
204,South Fairview Avenue,76059,32.3947120,-97.3245645
310,South Eastern Street,76059,32.3918690,-97.3203385
319,East 1st Street,76059,32.3949955,-97.3203320
113,East 1st Street,76059,32.3950510,-97.3248150
106,East 4th Street,76059,32.3918595,-97.3259350
209,East 3rd Street,76059,32.3931675,-97.3231895
207,South College Drive,76059,32.3943745,-97.3262740
211,South Fairview Avenue,76059,32.3942525,-97.3241540
312,South Fairview Avenue,76059,32.3921380,-97.3245900
108,East 4th Street,76059,32.3921120,-97.3255415
119,Pine Street,76059,32.3953835,-97.3224790
312,Spruce Street,76059,32.3919810,-97.3219575
109,East 1st Street,76059,32.3950385,-97.3253260
116,East 2nd Street,76059,32.3943160,-97.3245215
309,South College Drive,76059,32.3924540,-97.3256560
301,Ash Street,76059,32.3923320,-97.3215175
207,East 3rd Street,76059,32.3932125,-97.3234580
307,East 1st Street,76059,32.3949070,-97.3217910
104,Fir Street,76059,32.3963425,-97.3182250
116,Pine Street,76059,32.3955795,-97.3228385
210,East 4th Street,76059,32.3918210,-97.3231605
106,South Eastern Street,76059,32.3962115,-97.3203935
311,South Fairview Avenue,76059,32.3923150,-97.3241350
102,East 3rd Street,76059,32.3935935,-97.3259295
112,Pine Street,76059,32.3959920,-97.3228545
109,East 2nd Street,76059,32.3939850,-97.3252425
204,East 1st Street,76059,32.3954590,-97.3234420
302,Spruce Street,76059,32.3929930,-97.3219220
300,Gale Lane,76059,32.3924010,-97.3226090
305,Gale Lane,76059,32.3918155,-97.3223220
303,South College Drive,76059,32.3931030,-97.3261490
204,South Eastern Street,76059,32.3945005,-97.3204205
202,East 3rd Street,76059,32.3935875,-97.3239120
108,East 2nd Street,76059,32.3943340,-97.3254255
306,East 4th Street,76059,32.3918450,-97.3208300
104,East 2nd Street,76059,32.3943190,-97.3257685
111,South Fairview Avenue,76059,32.3961435,-97.3241720
109,East 3rd Street,76059,32.3932535,-97.3252190
111,Pine Street,76059,32.3959830,-97.3224305
103,East 2nd Street,76059,32.3939615,-97.3259280
100,East 3rd Street,76059,32.3936145,-97.3262420
107,East 2nd Street,76059,32.3939680,-97.3255155
201,South College Drive,76059,32.3951290,-97.3262285
202,South Eastern Street,76059,32.3947235,-97.3203895
203,South College Drive,76059,32.3949315,-97.3262665
107,Pine Street,76059,32.3962025,-97.3224330
306,East 1st Street,76059,32.3953610,-97.3218265
115,Pine Street,76059,32.3957650,-97.3223995
310,East 1st Street,76059,32.3953450,-97.3212745
301,South College Drive,76059,32.3932925,-97.3261880
300,East 3rd Street,76059,32.3935310,-97.3215480
306,Spruce Street,76059,32.3925825,-97.3219370
301,East 3rd Street,76059,32.3932060,-97.3215600
117,South Fairview Avenue,76059,32.3954355,-97.3241380
213,East 3rd Street,76059,32.3932045,-97.3226370
304,Ash Street,76059,32.3927270,-97.3210665
310,Ash Street,76059,32.3926480,-97.3203275
204,South Eastern Street,76059,32.3945100,-97.3208205
312,East 1st Street,76059,32.3953860,-97.3209340
206,Pine Street,76059,32.3943985,-97.3228530
209,East 1st Street,76059,32.3950265,-97.3231670
305,Pecan Street,76059,32.3960050,-97.3217655
107,South Fairview Avenue,76059,32.3963715,-97.3241660
303,East 3rd Street,76059,32.3931925,-97.3211540
205,Pine Street,76059,32.3945990,-97.3224410
317,East 1st Street,76059,32.3949760,-97.3206685
203,South Eastern Street,76059,32.3948450,-97.3195935
111,East 3rd Street,76059,32.3932170,-97.3249975
305,Pecan Street,76059,32.3962635,-97.3220760
304,East 3rd Street,76059,32.3935025,-97.3210665
206,South Eastern Street,76059,32.3941015,-97.3203735
207,East 1st Street,76059,32.3949735,-97.3234540
109,South Eastern Street,76059,32.3958470,-97.3199360
300,Ash Street,76059,32.3927270,-97.3215480
116,Fir Street,76059,32.3953675,-97.3183175
307,East 3rd Street,76059,32.3931300,-97.3207380
309,East 1st Street,76059,32.3948820,-97.3214915
215,South College Drive,76059,32.3938195,-97.3262275
211,East 3rd Street,76059,32.3931710,-97.3229100
218,East 3rd Street,76059,32.3935530,-97.3218150
301,South Eastern Street,76059,32.3930760,-97.3190670
214,South Fairview Avenue,76059,32.3939205,-97.3245590
217,South Fairview Avenue,76059,32.3935605,-97.3241510
212,East 3rd Street,76059,32.3935900,-97.3226775
108,Fir Street,76059,32.3958945,-97.3185295
110,East 4th Street,76059,32.3920885,-97.3251020
100,East 4th Street,76059,32.3919115,-97.3262325
307,East US Highway 67,76059,32.3814645,-97.3352565
301,South Fairview Avenue,76059,32.3931890,-97.3240980
208,East 1st Street,76059,32.3953860,-97.3231430
210,East 3rd Street,76059,32.3935845,-97.3229955
207,Pine Street,76059,32.3944040,-97.3224210
203,Pine Street,76059,32.3948175,-97.3224390
214,East 3rd Street,76059,32.3935595,-97.3223890
302,East 3rd Street,76059,32.3935320,-97.3212880
215,South Fairview Avenue,76059,32.3938575,-97.3241445
111,East 2nd Street,76059,32.3939525,-97.3249130
309,East 3rd Street,76059,32.3931475,-97.3203475
305,South College Drive,76059,32.3928300,-97.3262070
304,Spruce Street,76059,32.3928150,-97.3219650
306,Ash Street,76059,32.3927025,-97.3208270
105,East 3rd Street,76059,32.3932307,-97.3256534
105,East 2nd Street,76059,32.3939150,-97.3257045
112,East 2nd Street,76059,32.3943145,-97.3250390
303,Ash Street,76059,32.3922980,-97.3211340
206,East 3rd Street,76059,32.3936215,-97.3234740
106,East 3rd Street,76059,32.3935910,-97.3255125
308,East 3rd Street,76059,32.3936000,-97.3205960
108,East 3rd Street,76059,32.3935935,-97.3252285
307,South Fairview Avenue,76059,32.3928204,-97.3241321
313,South Fairview Avenue,76059,32.3920830,-97.3241540
307,Ash Street,76059,32.3922810,-97.3208480
204,Pine Street,76059,32.3946045,-97.3228250
308,East 1st Street,76059,32.3953895,-97.3215465
305,East 1st Street,76059,32.3949565,-97.3220565
310,Spruce Street,76059,32.3921880,-97.3219610
104,East 3rd Street,76059,32.3935945,-97.3257215
208,Pine Street,76059,32.3941645,-97.3228935
108,South Eastern Street,76059,32.3960235,-97.3203775
316,East 1st Street,76059,32.3953740,-97.3204725
217,East 3rd Street,76059,32.3932170,-97.3220095
215,East 3rd Street,76059,32.3931165,-97.3223550
110,South Eastern Street,76059,32.3958510,-97.3203935
302,Gale Lane,76059,32.3920940,-97.3226760
115,South Fairview Avenue,76059,32.3957155,-97.3241525
306,East 3rd Street,76059,32.3935050,-97.3207930
113,South Eastern Street,76059,32.3953475,-97.3199350
113,East 3rd Street,76059,32.3932430,-97.3247925
301,Gale Lane,76059,32.3923775,-97.3223560
303,Pecan Street,76059,32.3960585,-97.3220395
220,East 4th Street,76059,32.3917590,-97.3219625
213,South Fairview Avenue,76059,32.3940655,-97.3241455
308,Ash Street,76059,32.3927100,-97.3205800
111,South Eastern Street,76059,32.3955720,-97.3199355
103,East 3rd Street,76059,32.3932495,-97.3258685
212,East 4th Street,76059,32.3918390,-97.3228490
202,Pine Street,76059,32.3948175,-97.3228355
313,East 1st Street,76059,32.3949810,-97.3210960
114,Pine Street,76059,32.3957710,-97.3228745
315,South Fairview Avenue,76059,32.3918540,-97.3241110
309,South Fairview Avenue,76059,32.3925880,-97.3241135
301,South Eastern Street,76059,32.3931415,-97.3198210
216,South Fairview Avenue,76059,32.3936470,-97.3245805
205,East 3rd Street,76059,32.3932030,-97.3237130
111,East 1st Street,76059,32.3950215,-97.3250565
302,East 1st Street,76059,32.3953620,-97.3221360
107,East 1st Street,76059,32.3950450,-97.3256020
201,Pine Street,76059,32.3950270,-97.3224400
218,East 4th Street,76059,32.3917665,-97.3221500
202,East 1st Street,76059,32.3954355,-97.3238270
207,South Eastern Street,76059,32.3941595,-97.3197470
112,East 4th Street,76059,32.3918980,-97.3246635
308,South Eastern Street,76059,32.3922050,-97.3204540
207,Mistletoe Lane,76059,32.3965920,-97.3356220
1105,Honeysuckle Drive,76059,32.3926945,-97.3446445
905,Melanie Lane,76059,32.3975600,-97.3397900
1201,Honeysuckle Drive,76059,32.3927290,-97.3479950
301,Oakwood Drive,76059,32.3936315,-97.3335035
406,West Hillcrest Drive,76059,32.3974415,-97.3326720
214,West 4th Street,76059,32.3919205,-97.3302455
308,Mistletoe Lane,76059,32.3931395,-97.3364445
501,Lewis Lane,76059,32.3991710,-97.3331675
309,Shady Oak Road,76059,32.3931630,-97.3369105
117,West 3rd Street,76059,32.3932780,-97.3283720
204,North Val Verde Circle,76059,32.3954245,-97.3291055
105,Songbird Trail,76059,32.3982955,-97.3388545
202,South College Drive,76059,32.3949705,-97.3267060
603,West 4th Street,76059,32.3913915,-97.3367335
111,Oakwood Drive,76059,32.3951433,-97.3327000
307,Mistletoe Lane,76059,32.3932135,-97.3358830
532,South Old Mansfield Road,76059,32.3896400,-97.3425550
204,Shady Oak Road,76059,32.3969160,-97.3373275
312,Shady Oak Road,76059,32.3925120,-97.3374120
306,South College Drive,76059,32.3929325,-97.3268515
214,South Mockingbird Lane,76059,32.3937025,-97.3291320
204,South College Drive,76059,32.3947940,-97.3267520
1013,West 4th Street,76059,32.3916285,-97.3430530
305,Mistletoe Lane,76059,32.3935220,-97.3359800
307,Shady Oak Road,76059,32.3934105,-97.3369135
701,John Thomas Drive,76059,32.3915665,-97.3347810
1207,Honeysuckle Drive,76031,32.3929075,-97.3495325
405,Greenbriar Avenue,76059,32.3939730,-97.3349520
213,West Hillcrest Drive,76059,32.3959445,-97.3303850
314,Woodlawn Drive,76059,32.3920275,-97.3352880
1101,West 4th Street,76059,32.3914640,-97.3436230
213,South Old Mansfield Road,76059,32.3961920,-97.3402270
317,Shady Oak Road,76059,32.3920555,-97.3368880
108,West 3rd Street,76059,32.3938890,-97.3274545
215,Bluebonnet Trail,76059,32.3957765,-97.3378355
524,South Old Mansfield Road,76059,32.3899925,-97.3425430
120,Rosedale Avenue,76059,32.3949420,-97.3341490
602,West Hillcrest Drive,76059,32.3983055,-97.3341020
307,Woodlawn Drive,76059,32.3930760,-97.3348200
215,South Old Mansfield Road,76059,32.3959155,-97.3401935
206,Oakhill Drive,76059,32.3960840,-97.3444610
110,Oakwood Drive,76059,32.3955205,-97.3330520
210,West 4th Street,76059,32.3919480,-97.3297505
204,West 4th Street,76059,32.3918860,-97.3290635
1005,Greenbriar Avenue,76059,32.3950230,-97.3417535
608,Woodlawn Drive,76059,32.3980065,-97.3363620
1214,Honeysuckle Drive,76059,32.3940605,-97.3515435
108,South Mockingbird Lane,76059,32.3954095,-97.3288505
1101,Honeysuckle Drive,76059,32.3928305,-97.3437505
215,Fireside Village Drive,76059,32.3938980,-97.3308865
201,Shady Oak Road,76059,32.3974625,-97.3367215
1009,West 4th Street,76059,32.3916545,-97.3428300
310,Mistletoe Lane,76059,32.3928890,-97.3363325
505,West 4th Street,76059,32.3915945,-97.3357290
610,Woodlawn Drive,76059,32.3979905,-97.3366795
100,Ruth Street,76059,32.3989510,-97.3394615
311,Mistletoe Lane,76059,32.3926015,-97.3357895
614,West Hillcrest Drive,76059,32.3989800,-97.3360655
310,South College Drive,76059,32.3923745,-97.3268025
214,Bluebonnet Trail,76059,32.3958955,-97.3384075
516,Heather Lane,76059,32.3903990,-97.3432310
209,Shady Oak Road,76059,32.3962675,-97.3366190
702,Greenbriar Avenue,76059,32.3951980,-97.3378590
1115,Honeysuckle Drive,76059,32.3928765,-97.3465140
304,South Old Mansfield Road,76059,32.3942495,-97.3411240
212,Fireside Village Drive,76059,32.3940795,-97.3311990
305,Woodlawn Drive,76059,32.3933185,-97.3349175
107,West 1st Street,76059,32.3951300,-97.3274625
206,West Val Verde Circle,76059,32.3947575,-97.3306020
603,Lewis Lane,76059,32.3992920,-97.3342790
1212,Honeysuckle Drive,76059,32.3935450,-97.3509930
213,Shady Oak Road,76059,32.3957710,-97.3367390
214,Mistletoe Lane,76059,32.3955760,-97.3362025
113,Oakwood Drive,76059,32.3949475,-97.3328215
508,Heather Lane,76059,32.3907620,-97.3432270
512,Heather Lane,76059,32.3905630,-97.3432325
504,South Old Mansfield Road,76059,32.3908950,-97.3425160
211,Songbird Trail,76059,32.3961015,-97.3388485
402,Greenbriar Avenue,76059,32.3942665,-97.3342505
302,Oakhill Drive,76059,32.3949990,-97.3441485
107,Rosedale Avenue,76059,32.3964395,-97.3334155
100,West 4th Street,76059,32.3919240,-97.3267355
2100,County Road 805,76031,32.3882485,-97.3452080
302,South College Drive,76059,32.3930725,-97.3268480
1206,Honeysuckle Drive,76059,32.3935250,-97.3495830
420,South Old Betsy Road,76059,32.3905440,-97.3345605
1200,Honeysuckle Drive,76059,32.3935040,-97.3479450
313,Woodlawn Drive,76059,32.3922830,-97.3347835
316,Mistletoe Lane,76059,32.3920485,-97.3363435
605,Woodlawn Drive,76059,32.3974725,-97.3356265
103,West 1st Street,76059,32.3951020,-97.3270160
106,Oakwood Drive,76059,32.3959475,-97.3329240
608,West Hillcrest Drive,76059,32.3989070,-97.3350240
603,West Hillcrest Drive,76059,32.3981730,-97.3348305
512,South Old Mansfield Road,76059,32.3905335,-97.3425335
212,South College Drive,76059,32.3941270,-97.3267680
1108,Honeysuckle Drive,76059,32.3941370,-97.3453565
310,Shady Oak Road,76059,32.3928915,-97.3374560
300,South Old Betsy Road,76059,32.3934650,-97.3328625
2129,County Road 805,76059,32.3897215,-97.3445845
302,Woodlawn Drive,76059,32.3937190,-97.3355100
202,Mistletoe Lane,76059,32.3970815,-97.3361745
121,Rosedale Avenue,76059,32.3948500,-97.3333905
314,Oakwood Drive,76059,32.3920240,-97.3341780
612,West Hillcrest Drive,76059,32.3989970,-97.3357650
215,Woodlawn Drive,76059,32.3952890,-97.3347535
205,Woodlawn Drive,76059,32.3966410,-97.3345140
200,South Old Betsy Road,76059,32.3948960,-97.3323910
211,Fireside Village Drive,76059,32.3941665,-97.3308945
308,South Old Mansfield Road,76059,32.3937475,-97.3411670
315,Shady Oak Road,76059,32.3923225,-97.3369160
110,Rosedale Avenue,76059,32.3961075,-97.3340070
214,West Val Verde Circle,76059,32.3941130,-97.3306045
208,Songbird Trail,76059,32.3962330,-97.3393635
206,Woodlawn Drive,76059,32.3962810,-97.3350870
104,Songbird Trail,76059,32.3981535,-97.3393745
504,Heather Lane,76059,32.3909465,-97.3432340
113,Rosedale Avenue,76059,32.3958275,-97.3335950
304,Woodlawn Drive,76059,32.3934145,-97.3354810
206,Songbird Trail,76059,32.3965350,-97.3393620
312,South Mockingbird Lane,76059,32.3919115,-97.3288300
602,Greenbriar Avenue,76059,32.3948915,-97.3367300
1204,Honeysuckle Drive,76059,32.3935165,-97.3490625
306,Shady Oak Road,76059,32.3934355,-97.3374095
205,Bluebonnet Trail,76059,32.3970235,-97.3378465
414,South College Drive,76059,32.3899775,-97.3271360
201,Woodlawn Drive,76059,32.3972595,-97.3345710
113,West 4th Street,76059,32.3913035,-97.3281085
905,Greenbriar Avenue,76059,32.3947925,-97.3399680
616,West Hillcrest Drive,76059,32.3989565,-97.3364155
218,Fireside Village Drive,76059,32.3936510,-97.3312040
403,Greenbriar Avenue,76059,32.3938610,-97.3345170
517,Heather Lane,76059,32.3903600,-97.3428220
604,Woodlawn Drive,76059,32.3979835,-97.3357175
210,Oakhill Drive,76059,32.3954280,-97.3441825
114,West 3rd Street,76059,32.3936610,-97.3279520
308,South Mockingbird Lane,76059,32.3922880,-97.3288600
224,West 4th Street,76059,32.3922290,-97.3312870
208,South College Drive,76059,32.3944810,-97.3267490
704,John Thomas Drive,76059,32.3911425,-97.3355610
225,West Val Verde Circle,76059,32.3933230,-97.3302465
310,Oakhill Drive,76059,32.3937950,-97.3437785
203,Shady Oak Road,76059,32.3971070,-97.3367510
105,Bluebonnet Trail,76059,32.3983400,-97.3378120
404,South Old Mansfield Road,76059,32.3913820,-97.3421345
212,Woodlawn Drive,76059,32.3954790,-97.3352115
906,Greenbriar Avenue,76059,32.3953260,-97.3400235
210,South Mockingbird Lane,76059,32.3940415,-97.3291535
502,South College Drive,76059,32.3893785,-97.3267960
312,Woodlawn Drive,76059,32.3923080,-97.3352850
202,Oakhill Drive,76059,32.3969125,-97.3445640
104,Oakwood Drive,76059,32.3961685,-97.3328535
105,Oakwood Drive,76059,32.3957568,-97.3324643
907,Greenbriar Avenue,76059,32.3948050,-97.3402220
1008,Heather Lane,76059,32.3914380,-97.3426450
400,South Old Mansfield Road,76059,32.3916090,-97.3419065
304,Mistletoe Lane,76059,32.3936680,-97.3365000
100,Oakwood Drive,76059,32.3965980,-97.3328295
205,Songbird Trail,76059,32.3969470,-97.3388345
220,Mistletoe Lane,76059,32.3948115,-97.3362385
1001,Greenbriar Avenue,76059,32.3950175,-97.3409305
208,North Old Betsy Road,76059,32.3987925,-97.3322390
309,Oakwood Drive,76059,32.3924290,-97.3337040
300,South College Drive,76059,32.3932390,-97.3268815
1203,Honeysuckle Drive,76031,32.3927600,-97.3484960
1109,Honeysuckle Drive,76059,32.3928650,-97.3452135
205,Mistletoe Lane,76059,32.3968715,-97.3355540
218,West Val Verde Circle,76059,32.3937780,-97.3305965
618,West Hillcrest Drive,76059,32.3989520,-97.3367480
112,Rosedale Avenue,76059,32.3958715,-97.3340665
901,Greenbriar Avenue,76059,32.3948095,-97.3394425
219,Fireside Village Drive,76059,32.3936240,-97.3308970
118,Rosedale Avenue,76059,32.3952445,-97.3342380
309,Oakhill Drive,76059,32.3938460,-97.3426855
1017,West 4th Street,76059,32.3916355,-97.3432420
302,Mistletoe Lane,76059,32.3939500,-97.3364995
203,Oakwood Drive,76059,32.3940625,-97.3332805
212,Songbird Trail,76059,32.3957040,-97.3393675
401,West Hillcrest Drive,76059,32.3968245,-97.3326925
203,Bluebonnet Trail,76059,32.3972675,-97.3378390
218,Woodlawn Drive,76059,32.3946220,-97.3353370
315,Woodlawn Drive,76059,32.3920465,-97.3347955
706,John Thomas Drive,76059,32.3909155,-97.3357745
307,Oakhill Drive,76059,32.3943235,-97.3429485
101,Songbird Trail,76059,32.3986560,-97.3388845
106,West 3rd Street,76059,32.3938955,-97.3272560
313,Oakhill Drive,76059,32.3932690,-97.3427720
109,Bluebonnet Trail,76059,32.3977600,-97.3378605
601,Greenbriar Avenue,76059,32.3943630,-97.3364270
1116,Honeysuckle Drive,76059,32.3941430,-97.3475095
219,Woodlawn Drive,76059,32.3947405,-97.3347980
207,South Val Verde Circle,76059,32.3937250,-97.3298565
311,Woodlawn Drive,76059,32.3925410,-97.3347645
510,South College Drive,76059,32.3884430,-97.3268575
108,Rosedale Avenue,76059,32.3963145,-97.3339580
207,South Old Mansfield Road,76059,32.3970810,-97.3401290
201,Songbird Trail,76059,32.3975075,-97.3388510
206,Shady Oak Road,76059,32.3966360,-97.3372390
217,Fireside Village Drive,76059,32.3937605,-97.3308915
104,South Mockingbird Lane,76059,32.3957020,-97.3288210
400,Greenbriar Avenue,76059,32.3941790,-97.3338355
112,Oakwood Drive,76059,32.3953185,-97.3331405
223,West Val Verde Circle,76059,32.3934630,-97.3302480
500,West Hillcrest Drive,76059,32.3976700,-97.3334750
201,South Mockingbird Lane,76059,32.3951030,-97.3284295
207,Oakhill Drive,76059,32.3962440,-97.3435250
206,South Old Betsy Road,76059,32.3942635,-97.3325700
102,Shady Oak Road,76059,32.3982600,-97.3372270
201,Oakhill Drive,76059,32.3975035,-97.3440670
700,Greenbriar Avenue,76059,32.3951250,-97.3372905
312,Oakwood Drive,76059,32.3922790,-97.3341695
1117,Honeysuckle Drive,76059,32.3925210,-97.3473260
303,Woodlawn Drive,76059,32.3935805,-97.3350185
212,Bluebonnet Trail,76059,32.3961250,-97.3383790
100,Rosedale Avenue,76059,32.3972560,-97.3336600
210,Shady Oak Road,76059,32.3960925,-97.3372590
615,West Hillcrest Drive,76059,32.3984685,-97.3363285
207,Bluebonnet Trail,76059,32.3967830,-97.3378600
211,Shady Oak Road,76059,32.3960200,-97.3367290
311,Shady Oak Road,76059,32.3928820,-97.3368605
201,Bluebonnet Trail,76059,32.3975000,-97.3378410
610,West Hillcrest Drive,76059,32.3990895,-97.3353985
901,John Thomas Drive,76059,32.3892085,-97.3384955
106,Rosedale Avenue,76059,32.3965220,-97.3338945
1008,Greenbriar Avenue,76059,32.3956610,-97.3423665
500,South College Drive,76059,32.3896615,-97.3267920
1000,Greenbriar Avenue,76059,32.3955870,-97.3410130
603,Greenbriar Avenue,76059,32.3944200,-97.3367785
410,West Hillcrest Drive,76059,32.3975870,-97.3332150
208,Woodlawn Drive,76059,32.3960115,-97.3351180
1102,West 4th Street,76031,32.3921170,-97.3438545
802,Bluebonnet Trail,76059,32.3991315,-97.3383225
213,Fireside Village Drive,76059,32.3940370,-97.3308890
200,Bluebonnet Trail,76059,32.3976365,-97.3383540
304,Shady Oak Road,76059,32.3936835,-97.3373850
300,Oakhill Drive,76059,32.3951025,-97.3436280
211,South Mockingbird Lane,76059,32.3941300,-97.3284295
1013,Greenbriar Avenue,76059,32.3950450,-97.3427450
116,Rosedale Avenue,76059,32.3954435,-97.3342060
210,Songbird Trail,76059,32.3959495,-97.3393820
500,South Old Mansfield Road,76059,32.3910610,-97.3425005
907,Melanie Lane,76059,32.3972995,-97.3400545
1114,Honeysuckle Drive,76059,32.3935325,-97.3467225
902,John Thomas Drive,76059,32.3905340,-97.3383330
210,Woodlawn Drive,76059,32.3957500,-97.3351585
407,West Hillcrest Drive,76059,32.3971645,-97.3331310
205,South Val Verde Circle,76059,32.3936965,-97.3296190
202,West Val Verde Circle,76059,32.3951100,-97.3306100
103,Oakwood Drive,76059,32.3959610,-97.3324045
705,John Thomas Drive,76059,32.3911280,-97.3349245
402,West Hillcrest Drive,76059,32.3970675,-97.3322855
702,John Thomas Drive,76059,32.3913760,-97.3354650
529,Heather Lane,76059,32.3898140,-97.3428290
211,South Val Verde Circle,76059,32.3937190,-97.3302725
209,Oakhill Drive,76059,32.3958025,-97.3429580
105,Rosedale Avenue,76059,32.3966390,-97.3333700
210,Mistletoe Lane,76059,32.3961040,-97.3362295
200,Songbird Trail,76059,32.3975270,-97.3394330
1210,Honeysuckle Drive,76059,32.3935575,-97.3504735
117,Oakwood Drive,76059,32.3945745,-97.3330275
304,South Old Betsy Road,76059,32.3928990,-97.3330845
207,Shady Oak Road,76059,32.3965680,-97.3367310
218,Mistletoe Lane,76059,32.3950925,-97.3362830
908,Melanie Lane,76059,32.3973645,-97.3402640
102,Songbird Trail,76059,32.3984760,-97.3393795
202,Woodlawn Drive,76059,32.3968785,-97.3350345
203,South Val Verde Circle,76059,32.3937150,-97.3294235
212,West Val Verde Circle,76059,32.3943990,-97.3306855
1209,Honeysuckle Drive,76031,32.3929040,-97.3500110
216,Fireside Village Drive,76059,32.3937915,-97.3312030
211,Mistletoe Lane,76059,32.3959490,-97.3356590
204,South Mockingbird Lane,76059,32.3947330,-97.3289245
217,Bluebonnet Trail,76059,32.3955285,-97.3378490
116,West 3rd Street,76059,32.3936810,-97.3283315
114,Rosedale Avenue,76059,32.3956560,-97.3341365
202,Songbird Trail,76059,32.3972045,-97.3393820
216,Mistletoe Lane,76059,32.3952885,-97.3362330
214,Woodlawn Drive,76059,32.3951890,-97.3352490
216,Woodlawn Drive,76059,32.3949190,-97.3353075
1108,Honeysuckle Drive,76059,32.3934755,-97.3451480
208,South Mockingbird Lane,76059,32.3943000,-97.3289605
207,Songbird Trail,76059,32.3966655,-97.3388575
216,West Val Verde Circle,76059,32.3939460,-97.3306115
503,Greenbriar Avenue,76059,32.3942220,-97.3359080
1002,West 4th Street,76059,32.3921785,-97.3421935
802,Justin Court,76059,32.3897460,-97.3365820
408,West Hillcrest Drive,76059,32.3975195,-97.3329705
224,West Val Verde Circle,76059,32.3932890,-97.3306220
219,Mistletoe Lane,76059,32.3947275,-97.3357920
215,Mistletoe Lane,76059,32.3954075,-97.3357095
200,South College Drive,76059,32.3951240,-97.3267315
102,Oakwood Drive,76059,32.3963755,-97.3328255
204,Songbird Trail,76059,32.3968830,-97.3393780
708,John Thomas Drive,76059,32.3908030,-97.3360145
122,Rosedale Avenue,76059,32.3947180,-97.3339370
801,Justin Court,76059,32.3896750,-97.3363205
101,Bluebonnet Trail,76059,32.3986630,-97.3378235
305,Shady Oak Road,76059,32.3937165,-97.3368820
206,North Val Verde Circle,76059,32.3954335,-97.3293145
217,South Old Mansfield Road,76059,32.3956885,-97.3401965
213,Woodlawn Drive,76059,32.3955465,-97.3346890
521,Heather Lane,76059,32.3901835,-97.3428205
204,Bluebonnet Trail,76059,32.3971355,-97.3383585
901,Melanie Lane,76059,32.3977820,-97.3405205
205,Oakhill Drive,76059,32.3966705,-97.3435845
304,Oakhill Drive,76059,32.3945525,-97.3438110
207,South Mockingbird Lane,76059,32.3945420,-97.3284385
800,John Thomas Drive,76059,32.3907955,-97.3362820
802,John Thomas Drive,76059,32.3907970,-97.3365750
308,Shady Oak Road,76059,32.3931560,-97.3374175
106,South Mockingbird Lane,76059,32.3955775,-97.3288200
201,Oakwood Drive,76059,32.3943390,-97.3330750
102,Rosedale Avenue,76059,32.3969590,-97.3338350
807,Justin Court,76059,32.3902830,-97.3360275
1002,Greenbriar Avenue,76059,32.3955645,-97.3415345
403,West Hillcrest Drive,76059,32.3970580,-97.3328080
115,Rosedale Avenue,76059,32.3956130,-97.3336690
203,Songbird Trail,76059,32.3972280,-97.3388140
520,Heather Lane,76059,32.3901930,-97.3432350
204,Woodlawn Drive,76059,32.3965315,-97.3350475
300,Oakwood Drive,76059,32.3937530,-97.3339805
532,Heather Lane,76059,32.3896390,-97.3432820
711,John Thomas Drive,76059,32.3906005,-97.3353870
306,Woodlawn Drive,76059,32.3931290,-97.3353690
213,South Mockingbird Lane,76059,32.3939305,-97.3284400
212,North Val Verde Circle,76059,32.3954665,-97.3300425
903,Melanie Lane,76059,32.3978245,-97.3400990
107,Songbird Trail,76059,32.3977875,-97.3388450
613,West Hillcrest Drive,76059,32.3985515,-97.3359780
204,South Old Betsy Road,76059,32.3945955,-97.3324705
101,Oakwood Drive,76059,32.3962310,-97.3322826
310,Woodlawn Drive,76059,32.3925800,-97.3353055
115,West 3rd Street,76059,32.3933055,-97.3280285
310,Oakwood Drive,76059,32.3924960,-97.3341625
100,Shady Oak Road,76059,32.3985985,-97.3372125
215,Shady Oak Road,76059,32.3955145,-97.3367365
428,South Old Betsy Road,76059,32.3900470,-97.3351935
206,West 4th Street,76059,32.3918915,-97.3292435
620,West Hillcrest Drive,76059,32.3989835,-97.3372495
102,Bluebonnet Trail,76059,32.3983900,-97.3383225
216,Songbird Trail,76059,32.3953430,-97.3393500
307,Oakwood Drive,76059,32.3926955,-97.3336755
107,Bluebonnet Trail,76059,32.3980060,-97.3378490
520,South Old Mansfield Road,76059,32.3901710,-97.3425460
104,Rosedale Avenue,76059,32.3967375,-97.3338175
103,Rosedale Avenue,76059,32.3968515,-97.3332680
114,Oakwood Drive,76059,32.3951155,-97.3333030
216,Bluebonnet Trail,76059,32.3956170,-97.3383775
209,South Val Verde Circle,76059,32.3937210,-97.3300655
528,South Old Mansfield Road,76059,32.3898090,-97.3425540
107,West 3rd Street,76059,32.3933070,-97.3272855
528,Heather Lane,76059,32.3898315,-97.3432785
304,Oakwood Drive,76059,32.3932055,-97.3341390
508,South Old Mansfield Road,76059,32.3907135,-97.3425230
1213,Honeysuckle Drive,76031,32.3926985,-97.3509360
202,Bluebonnet Trail,76059,32.3973860,-97.3383485
209,Woodlawn Drive,76059,32.3960880,-97.3345915
208,Mistletoe Lane,76059,32.3963855,-97.3361515
108,Oakwood Drive,76059,32.3957440,-97.3330310
1009,Greenbriar Avenue,76059,32.3950470,-97.3422720
208,West Val Verde Circle,76059,32.3946355,-97.3306265
211,South Old Mansfield Road,76059,32.3964510,-97.3402650
606,West Hillcrest Drive,76059,32.3987780,-97.3346190
308,Oakwood Drive,76059,32.3927155,-97.3341980
800,Justin Court,76059,32.3899845,-97.3366925
204,West Val Verde Circle,76059,32.3949160,-97.3305875
111,West 3rd Street,76059,32.3932306,-97.3276809
117,Rosedale Avenue,76059,32.3953880,-97.3336780
316,South Old Mansfield Road,76059,32.3927015,-97.3411400
505,Heather Lane,76059,32.3908945,-97.3427955
804,Bluebonnet Trail,76059,32.3991820,-97.3386210
713,John Thomas Drive,76059,32.3904520,-97.3355665
309,Mistletoe Lane,76059,32.3929000,-97.3358250
516,South College Drive,76059,32.3881395,-97.3268550
600,Woodlawn Drive,76059,32.3977235,-97.3349790
203,Mistletoe Lane,76059,32.3971115,-97.3356225
218,Bluebonnet Trail,76059,32.3953625,-97.3384095
105,South Old Mansfield Road,76059,32.3982630,-97.3400230
109,Rosedale Avenue,76059,32.3962405,-97.3335005
101,Ruth Street,76059,32.3991965,-97.3389665
502,West Hillcrest Drive,76059,32.3978330,-97.3337235
303,Oakwood Drive,76059,32.3933120,-97.3335820
320,Oakhill Drive,76059,32.3924010,-97.3437905
206,Bluebonnet Trail,76059,32.3968790,-97.3384110
803,Justin Court,76059,32.3898240,-97.3360565
607,Woodlawn Drive,76059,32.3975110,-97.3361425
909,Melanie Lane,76059,32.3973605,-97.3404585
404,West Hillcrest Drive,76059,32.3972940,-97.3324190
804,John Thomas Drive,76059,32.3907360,-97.3368605
317,Oakhill Drive,76059,32.3927510,-97.3429200
501,Heather Lane,76059,32.3910670,-97.3427755
503,West Hillcrest Drive,76059,32.3974895,-97.3340875
902,Melanie Lane,76059,32.3977955,-97.3403125
102,West 4th Street,76059,32.3919050,-97.3269555
601,South Old Mansfield Road,76031,32.3887395,-97.3427475
303,South Mockingbird Lane,76059,32.3927575,-97.3284210
220,Fireside Village Drive,76059,32.3935105,-97.3312040
709,John Thomas Drive,76059,32.3907835,-97.3352170
111,Rosedale Avenue,76059,32.3960375,-97.3335270
1208,Honeysuckle Drive,76059,32.3936620,-97.3500170
211,Woodlawn Drive,76059,32.3958205,-97.3346645
203,Oakhill Drive,76059,32.3970770,-97.3438025
516,South Old Mansfield Road,76059,32.3903500,-97.3425400
209,South Old Mansfield Road,76059,32.3968770,-97.3403450
203,Woodlawn Drive,76059,32.3969385,-97.3344990
1205,Honeysuckle Drive,76031,32.3927455,-97.3490115
525,Heather Lane,76059,32.3900000,-97.3428315
503,West 4th Street,76059,32.3915925,-97.3355130
404,Greenbriar Avenue,76059,32.3944540,-97.3348295
212,Shady Oak Road,76059,32.3957845,-97.3372415
217,Songbird Trail,76059,32.3952420,-97.3388605
504,South College Drive,76059,32.3891325,-97.3268080
200,Shady Oak Road,76059,32.3974390,-97.3372335
213,Mistletoe Lane,76059,32.3956960,-97.3356630
222,Fireside Village Drive,76059,32.3933575,-97.3312080
306,Mistletoe Lane,76059,32.3934055,-97.3364815
209,Bluebonnet Trail,76059,32.3965375,-97.3378740
212,West 4th Street,76059,32.3919200,-97.3300205
221,Fireside Village Drive,76059,32.3934970,-97.3308970
801,John Thomas Drive,76059,32.3903110,-97.3365495
707,John Thomas Drive,76059,32.3909510,-97.3350555
214,South College Drive,76059,32.3939250,-97.3268055
109,West 3rd Street,76059,32.3933062,-97.3274591
1111,Honeysuckle Drive,76059,32.3928940,-97.3457335
104,West 4th Street,76059,32.3919050,-97.3271850
211,Bluebonnet Trail,76059,32.3961905,-97.3378155
1202,Honeysuckle Drive,76059,32.3943195,-97.3483820
208,Shady Oak Road,76059,32.3963470,-97.3372500
200,South Mockingbird Lane,76059,32.3950790,-97.3288945
1005,West 4th Street,76059,32.3916275,-97.3421540
306,South Mockingbird Lane,76059,32.3926535,-97.3290230
312,Mistletoe Lane,76059,32.3926035,-97.3363345
119,Rosedale Avenue,76059,32.3951040,-97.3337160
509,Heather Lane,76059,32.3907200,-97.3428035
200,Woodlawn Drive,76059,32.3971865,-97.3351125
305,Oakwood Drive,76059,32.3930180,-97.3336510
603,Woodlawn Drive,76059,32.3973725,-97.3354195
112,West 4th Street,76059,32.3920620,-97.3281665
315,Mistletoe Lane,76059,32.3920590,-97.3358390
209,Mistletoe Lane,76059,32.3962655,-97.3356690
309,Woodlawn Drive,76059,32.3928325,-97.3347605
106,Songbird Trail,76059,32.3978920,-97.3393890
115,Oakwood Drive,76059,32.3947415,-97.3329265
601,West Hillcrest Drive,76059,32.3979370,-97.3345205
302,Shady Oak Road,76059,32.3940405,-97.3373835
218,West 4th Street,76059,32.3921040,-97.3309515
300,South Mockingbird Lane,76059,32.3931675,-97.3291910
312,South College Drive,76059,32.3921995,-97.3267705
611,West Hillcrest Drive,76059,32.3985045,-97.3355475
102,South Mockingbird Lane,76059,32.3958555,-97.3288465
805,Justin Court,76059,32.3900515,-97.3360105
1113,Honeysuckle Drive,76059,32.3928855,-97.3461515
533,Heather Lane,76059,32.3896340,-97.3428075
703,John Thomas Drive,76059,32.3913360,-97.3348335
106,Shady Oak Road,76059,32.3977425,-97.3372160
107,Oakwood Drive,76059,32.3955545,-97.3325465
308,Woodlawn Drive,76059,32.3928535,-97.3352530
524,Heather Lane,76059,32.3900160,-97.3432530
1004,Heather Lane,76059,32.3914590,-97.3424425
312,South Old Mansfield Road,76059,32.3932060,-97.3411135
803,Greenbriar Avenue,76059,32.3944510,-97.3390325
217,Shady Oak Road,76059,32.3952595,-97.3367520
202,Shady Oak Road,76059,32.3971570,-97.3372325
109,Oakwood Drive,76059,32.3953775,-97.3326205
223,Fireside Village Drive,76059,32.3933490,-97.3308995
209,Songbird Trail,76059,32.3963830,-97.3388580
1211,Honeysuckle Drive,76031,32.3926795,-97.3504435
106,West 4th Street,76059,32.3918935,-97.3274265
602,Woodlawn Drive,76059,32.3978865,-97.3352875
313,Mistletoe Lane,76059,32.3923310,-97.3358460
1000,West 4th Street,76059,32.3924500,-97.3418685
104,Shady Oak Road,76059,32.3979735,-97.3372830
217,Mistletoe Lane,76059,32.3951045,-97.3356970
903,Greenbriar Avenue,76059,32.3948005,-97.3396795
313,Shady Oak Road,76059,32.3926010,-97.3369015
124,Rosedale Avenue,76059,32.3945160,-97.3335865
220,West Val Verde Circle,76059,32.3936125,-97.3306140
110,West 3rd Street,76059,32.3939420,-97.3277175
601,West 4th Street,76059,32.3915470,-97.3362585
1215,Honeysuckle Drive,76031,32.3927180,-97.3515265
906,Melanie Lane,76059,32.3973730,-97.3398610
606,Woodlawn Drive,76059,32.3980055,-97.3360180
300,Woodlawn Drive,76059,32.3940930,-97.3354915
210,Bluebonnet Trail,76059,32.3963780,-97.3383905
600,West Hillcrest Drive,76059,32.3980820,-97.3339040
214,Fireside Village Drive,76059,32.3939410,-97.3312015
303,Shady Oak Road,76059,32.3939875,-97.3368580
209,South Mockingbird Lane,76059,32.3942730,-97.3282350
222,West Val Verde Circle,76059,32.3934510,-97.3306260
500,Heather Lane,76059,32.3911225,-97.3432110
321,Oakhill Drive,76059,32.3922670,-97.3429655
203,South Mockingbird Lane,76059,32.3948335,-97.3283855
212,Oakhill Drive,76059,32.3956545,-97.3448565
217,Woodlawn Drive,76059,32.3950150,-97.3347975
412,South College Drive,76059,32.3902380,-97.3270250
2200,East US Highway 67,76031,32.3721348,-97.3466620
3601,East US Highway 67,76031,32.3944403,-97.3111405
330,County Road 414,76031,32.3904378,-97.3067165
301,South Old Betsy Road,76059,32.3931502,-97.3320787
402,East 4th Street,76059,32.3918555,-97.3191715
303,South Old Mansfield Road,76059,32.3945572,-97.3401550
305,South Old Mansfield Road,76059,32.3942516,-97.3401279
1100,West 4th Street,76059,32.3915960,-97.3442652
1112,Honeysuckle Drive,76059,32.3940690,-97.3460632
1110,Honeysuckle Drive,76059,32.3934718,-97.3459645
513,Heather Lane,76059,32.3905409,-97.3428019
105,West 3rd Street,76059,32.3933157,-97.3271473
105,East 1st Street,76059,32.3950376,-97.3258964
205,South College Drive,76059,32.3946732,-97.3262338
107,East 3rd Street,76059,32.3932012,-97.3254315
310,South Fairview Avenue,76059,32.3924287,-97.3248111
121,Cadyn Drive,76059,32.3883078,-97.3289973
417,Elyse Road,76059,32.3908859,-97.3276316
109,Cadyn Drive,76059,32.3883046,-97.3284139
126,Jazlyn Drive,76059,32.3907849,-97.3293811
105,Cadyn Drive,76059,32.3883055,-97.3282194
100,Cheryl Drive,76059,32.3894167,-97.3280826
537,Molly Lane,76059,32.3875327,-97.3290003
516,Molly Lane,76059,32.3884389,-97.3294803
413,Elyse Road,76059,32.3910523,-97.3276256
117,Jazlyn Drive,76059,32.3903749,-97.3288398
112,Vickie Drive,76059,32.3901065,-97.3286502
420,Molly Lane,76059,32.3897577,-97.3294705
441,Elyse Road,76059,32.3898960,-97.3276483
112,Cheryl Drive,76059,32.3894211,-97.3286522
117,Cheryl Drive,76059,32.3889983,-97.3288526
505,Elyse Road,76059,32.3889008,-97.3276480
521,Lela Circle,76059,32.3872434,-97.3295286
428,Molly Lane,76059,32.3894282,-97.3294748
120,Cadyn Drive,76059,32.3887412,-97.3290372
113,Cheryl Drive,76059,32.3889932,-97.3286561
121,Vickie Drive,76059,32.3896880,-97.3290290
113,Jazlyn Drive,76059,32.3903709,-97.3286441
104,Vickie Drive,76059,32.3901074,-97.3282575
500,Molly Lane,76059,32.3890982,-97.3294736
108,Cheryl Drive,76059,32.3894116,-97.3284588
101,Cheryl Drive,76059,32.3889923,-97.3280863
100,Cadyn Drive,76059,32.3887351,-97.3280885
537,Lela Circle,76059,32.3866933,-97.3295188
113,Cadyn Drive,76059,32.3883049,-97.3286088
104,Cadyn Drive,76059,32.3887290,-97.3282703
101,Vickie Drive,76059,32.3896781,-97.3280806
513,Lela Circle,76059,32.3875185,-97.3295145
109,Cheryl Drive,76059,32.3889956,-97.3284643
541,Molly Lane,76059,32.3873455,-97.3289982
108,Vickie Drive,76059,32.3901040,-97.3284534
201,West 4th Street,76059,32.3915003,-97.3289609
501,Elyse Road,76059,32.3890660,-97.3276432
545,Lela Circle,76059,32.3864200,-97.3295221
101,Jazlyn Drive,76059,32.3903677,-97.3280737
432,Molly Lane,76059,32.3892616,-97.3294719
104,Cheryl Drive,76059,32.3894246,-97.3282645
457,Elyse Road,76059,32.3892315,-97.3276470
512,Molly Lane,76059,32.3886045,-97.3294792
117,Vickie Drive,76059,32.3896895,-97.3288457
120,Vickie Drive,76059,32.3901135,-97.3290248
412,Molly Lane,76059,32.3900873,-97.3294709
105,Cheryl Drive,76059,32.3889978,-97.3282684
429,Elyse Road,76059,32.3903913,-97.3276385
108,Cadyn Drive,76059,32.3887383,-97.3284654
504,Molly Lane,76059,32.3889333,-97.3294750
533,Molly Lane,76059,32.3877231,-97.3289934
109,Vickie Drive,76059,32.3896858,-97.3284555
553,Molly Lane,76059,32.3868089,-97.3290011
118,Jazlyn Drive,76059,32.3908002,-97.3289535
105,Vickie Drive,76059,32.3896850,-97.3282626
449,Elyse Road,76059,32.3895645,-97.3276225
529,Molly Lane,76059,32.3879107,-97.3289903
113,Vickie Drive,76059,32.3896853,-97.3286507
100,Vickie Drive,76059,32.3901075,-97.3280759
508,Molly Lane,76059,32.3887686,-97.3294800
109,Jazlyn Drive,76059,32.3903713,-97.3284509
529,Lela Circle,76059,32.3869694,-97.3295156
557,Molly Lane,76059,32.3866370,-97.3290005
116,Cadyn Drive,76059,32.3887333,-97.3288544
453,Elyse Road,76059,32.3893986,-97.3276441
424,Molly Lane,76059,32.3895919,-97.3294707
425,Elyse Road,76059,32.3905574,-97.3276467
117,Cadyn Drive,76059,32.3883101,-97.3288025
116,Cheryl Drive,76059,32.3894196,-97.3288486
533,Lela Circle,76059,32.3868311,-97.3295266
545,Molly Lane,76059,32.3871657,-97.3289988
121,Cheryl Drive,76059,32.3890031,-97.3290341
116,Vickie Drive,76059,32.3901136,-97.3288421
112,Cadyn Drive,76059,32.3887357,-97.3286583
105,Jazlyn Drive,76059,32.3903705,-97.3282561
120,Cheryl Drive,76059,32.3894252,-97.3290314
416,Molly Lane,76059,32.3899227,-97.3294700
445,Elyse Road,76059,32.3897320,-97.3276437
122,Jazlyn Drive,76059,32.3908508,-97.3291439
549,Molly Lane,76059,32.3869871,-97.3290030
408,Molly Lane,76059,32.3902531,-97.3294661
121,Jazlyn Drive,76059,32.3903770,-97.3290225
528,Lela Circle,76059,32.3870216,-97.3300756
544,Lela Circle,76059,32.3864716,-97.3300761
536,Lela Circle,76059,32.3867476,-97.3300624
508,Lela Circle,76059,32.3877264,-97.3300724
516,Lela Circle,76059,32.3874329,-97.3300646
532,Lela Circle,76059,32.3868861,-97.3300776
504,Lela Circle,76059,32.3879168,-97.3300760
540,Lela Circle,76059,32.3866127,-97.3300703
520,Lela Circle,76059,32.3872963,-97.3300721
552,Lela Circle,76059,32.3861971,-97.3300733
512,Lela Circle,76059,32.3875714,-97.3300639
524,Lela Circle,76059,32.3871592,-97.3300698
548,Lela Circle,76059,32.3863353,-97.3300765
556,Lela Circle,76059,32.3860599,-97.3300811
117,South Old Betsy Road,76059,32.3954626,-97.3308205
300,East US Highway 67,76059,32.3906355,-97.3202596
