House number,Street name,Postal code,Latitude,Longitude
900,Main Street,76248,32.9184664,-97.2553551
2001,South Main Street,76248,32.8981038,-97.2572354
620,South Main Street,76248,32.9282842,-97.2546540
151,Ridge Point Parkway,76248,32.9637989,-97.2482002
310,North Main Street,76248,32.9377744,-97.2531482
1085,South Main Street,76248,32.9171835,-97.2543286
8801,Davis Boulevard,76248,32.9206461,-97.1880872
104,South Main Street,76248,32.9339667,-97.2540921
620,South Main Street,76248,32.9280950,-97.2546767
807,Keller Parkway,76248,32.9346452,-97.2348932
607,South Pearson Lane,76248,32.9289405,-97.2032206
420,Johnson Road,76248,32.9413681,-97.2452451
1866,Keller Pkwy,76248,32.9334355,-97.2073092
101,Keller Town Center Lane,76248,32.9324438,-97.2286396
818,North Main Street,76248,32.9469012,-97.2510650
1006,Keller Parkway,76248,32.9323894,-97.2274012
1000,East Keller Parkway,76248,32.9324618,-97.2284199
103,North Main Street,76248,32.9352214,-97.2543369
128,South Main Street,76248,32.9334340,-97.2539269
242,Rufe Snow Drive,76248,32.9313914,-97.2304452
242,Rufe Snow Drive,76248,32.9313416,-97.2304998
242,Rufe Snow Drive,76248,32.9313000,-97.2305422
242,Rufe Snow Drive,76248,32.9312332,-97.2305652
242,Rufe Snow Drive,76248,32.9311298,-97.2306736
242,Rufe Snow Drive,76248,32.9310829,-97.2307209
2130,Rufe Snow Drive,76248,32.8930395,-97.2400197
2061,Rufe Snow Drive,76248,32.8966430,-97.2370183
101,North Rufe Snow Drive,76248,32.9349039,-97.2283863
976,Keller Parkway,76248,32.9325514,-97.2298461
1000,Keller Parkway,76248,32.9323961,-97.2279578
151,Ridge Point Parkway,76248,32.9636677,-97.2481824
700,North Tarrant Parkway,76248,32.8984808,-97.2392056
700,N Tarrant Pkwy,76248,32.8985184,-97.2392929
1100,Bear Creek Parkway,76248,32.9298502,-97.2271278
1655,North Tarrant Parkway,76248,32.9009375,-97.2157976
940,Keller Parkway,76248,32.9324572,-97.2310942
976,Keller Parkway,76248,32.9323118,-97.2302423
601,Pate Orr Road North,76248,32.9401205,-97.2342383
601,Pate Orr Road North,76248,32.9397583,-97.2329383
1520,Keller Parkway,76248,32.9328304,-97.2180683
900,Preston Lane,76248,32.9172285,-97.2094287
1002,Keller Parkway,76248,32.9337742,-97.2287260
1100,Bear Creek Parkway,76248,32.9284143,-97.2258458
333,South Elm Street,76248,32.9277255,-97.2505175
133,Bates Street,76248,32.9316325,-97.2526869
640,Johnson Road,76248,32.9405872,-97.2393768
821,Weybridge Lane,76248,32.9614259,-97.2308077
1740,Ottinger Road,76262,32.9664938,-97.2160786
1301,Keller Smithfield Road South,76248,32.9093834,-97.2197281
1609,Chase Oaks Drive,76248,32.9056237,-97.2428178
400,Rapp Road,76248,32.9113774,-97.2472685
421,Alta Ridge Drive,76248,32.8934227,-97.2448383
801,Bear Creek Parkway,76248,32.9278930,-97.2358182
1620,Willis Lane,76248,32.9059513,-97.2488422
1400,Sarah Brooks Drive,76248,32.9089138,-97.2179281
305,Bursey Road,76248,32.8944391,-97.2491591
1000,Keller Parkway,76248,32.9321972,-97.2281442
900,Keller Parkway,76248,32.9336218,-97.2330253
989,Keller Parkway,76248,32.9346878,-97.2297739
1000,Bear Creek Parkway,76248,32.9303381,-97.2294308
1100,Bear Creek Parkway,76248,32.9297292,-97.2271305
660,Johnson Road,76248,32.9411071,-97.2383432
962,Keller Parkway,76248,32.9338983,-97.2308381
600,North Tarrant Parkway,76248,32.8970878,-97.2403770
420,Johnson Road,76248,32.9413713,-97.2451161
440,Johnson Road,76248,32.9410376,-97.2445595
400,Johnson Road,76248,32.9410689,-97.2454868
480,Johnson Road,76248,32.9412599,-97.2435672
1601,Marshall Ridge Parkway,76248,32.9608062,-97.2412220
1501,Keller Parkway,76248,32.9350826,-97.2179192
101,North Rufe Snow Drive,76248,32.9348331,-97.2285346
300,College Avenue,76248,32.9380315,-97.2489019
200,Country Brook Drive,76248,32.9316296,-97.2238441
928,Bluebonnet Drive,76248,32.9449969,-97.2362954
635,Norma Lane,76248,32.9429595,-97.2498851
1701,South Main Street,76248,32.9034946,-97.2567110
771,Keller Parkway,76248,32.9348440,-97.2372520
751,Keller Parkway,76248,32.9348245,-97.2377820
1013,Woodford Drive,76248,32.9401220,-97.2278815
1100,Johnson Court,76248,32.9412028,-97.2288381
2031,Rufe Snow Drive,76248,32.8978740,-97.2379178
2001,Rufe Snow Drive,76248-5634,32.8985940,-97.2380021
2061,Rufe Snow Drive,76248,32.8970303,-97.2367991
2041,Rufe Snow Drive,76248,32.8979611,-97.2369610
2141,Rufe Snow Drive,76248,32.8929357,-97.2379088
2131,Rufe Snow Drive,76248,32.8935277,-97.2379890
801,North Tarrant Parkway,76248,32.8996893,-97.2379153
1841,Rufe Snow Drive,76248,32.9005262,-97.2378505
841,North Tarrant Parkway,76248,32.8996240,-97.2372359
2009,South Main Street,76248,32.8964828,-97.2578010
2013,US Highway 377,76248,32.8961929,-97.2555611
2003,South Main Street,76248,32.8975601,-97.2554140
2105,Willis Lane,76248,32.8955610,-97.2461555
700,North Tarrant Parkway,76248,32.8984498,-97.2392829
2122,Rufe Snow Drive,76248,32.8946337,-97.2400405
2130,Rufe Snow Drive,76248,32.8933111,-97.2400616
1870,Rufe Snow Dr,76248,32.9001400,-97.2409854
2016,Willis Lane,76248,32.8993162,-97.2478005
2049,Willis Lane,76248,32.8974415,-97.2465328
600,North Main Street,76248,32.9420841,-97.2530972
3025,Trinity Lane,76248,32.9194674,-97.1854389
3021,Trinity Lane,76248,32.9194620,-97.1855989
3037,Trinity Lane,76248,32.9194657,-97.1848006
3017,Trinity Lane,76248,32.9194322,-97.1857521
3041,Trinity Lane,76248,32.9196083,-97.1848660
3029,Trinity Lane,76248,32.9194343,-97.1852829
3013,Trinity Lane,76248,32.9194241,-97.1859246
1975,Keller Parkway,76248,32.9349485,-97.2037950
309,Glen Hollow,76248,32.9300085,-97.2131130
1100,Keller Parkway,76248,32.9336844,-97.2261023
1775,Keller Parkway,76248,32.9358598,-97.2100803
124,South Main Street,76248,32.9335749,-97.2539853
201,Golden Triangle Boulevard,76248,32.9332583,-97.2558703
3033,Trinity Lane,76248,32.9194448,-97.1851083
3045,Trinity Lane,76248,32.9197490,-97.1848916
200,Town Center Lane,76248,32.9313253,-97.2278017
2510,Lakepoint Drive,76248,32.9193346,-97.1940330
242,Rufe Snow Drive,76248,32.9312572,-97.2306756
500,Bristol Hill,76248,32.9400519,-97.2287750
504,Bristol Hill,76248,32.9402615,-97.2287574
508,Bristol Hill,76248,32.9404626,-97.2286894
512,Bristol Hill,76248,32.9406282,-97.2285801
516,Bristol Hill,76248,32.9407818,-97.2283978
520,Bristol Hill,76248,32.9409068,-97.2282500
524,Bristol Hill,76248,32.9410334,-97.2280901
528,Bristol Hill,76248,32.9411503,-97.2279253
532,Bristol Hill,76248,32.9412528,-97.2277105
536,Bristol Hill,76248,32.9412894,-97.2274702
540,Bristol Hill,76248,32.9413291,-97.2272262
529,Bennington Lane,76248,32.9412751,-97.2269740
525,Bennington Lane,76248,32.9410108,-97.2268825
517,Bristol Hill,76248,32.9404136,-97.2280489
521,Bristol Hill,76248,32.9405563,-97.2278752
520,Bennington Lane,76248,32.9408009,-97.2275252
516,Bennington Lane,76248,32.9406155,-97.2275155
512,Bennington Lane,76248,32.9404405,-97.2275194
508,Bennington Lane,76248,32.9402622,-97.2275235
504,Bennington Lane,76248,32.9400837,-97.2275209
521,Bennington Lane,76248,32.9408097,-97.2269254
517,Bristol Hill,76248,32.9406330,-97.2269281
513,Bennington Lane,76248,32.9404540,-97.2269273
509,Bennington Lane,76248,32.9402762,-97.2269247
505,Bennington Lane,76248,32.9400957,-97.2269265
501,Bennington Lane,76248,32.9399186,-97.2268962
905,Bluebonnet Drive,76248,32.9423967,-97.2366946
917,Bluebonnet Drive,76248,32.9436438,-97.2366872
758,Bluebonnet Drive,76248,32.9435546,-97.2373516
762,Bluebonnet Drive,76248,32.9439929,-97.2373677
924,Bluebonnet Drive,76248,32.9445474,-97.2371578
788,Keller Parkway,76248,32.9337793,-97.2374844
2016,Willis Lane,76248,32.8998753,-97.2484582
2005,South Main Street,76248-5122,32.8971782,-97.2554151
1009,Woodford Drive,76248,32.9401150,-97.2281613
420,Bennington Lane,76248,32.9395970,-97.2276905
1050,Woodford Drive,76248,32.9393891,-97.2271411
1054,Woodford Drive,76248,32.9394046,-97.2269281
1062,Woodford Drive,76248,32.9394019,-97.2265061
1071,Brookfield Path,76248,32.9390485,-97.2260835
1067,Brookfield Path,76248,32.9390464,-97.2262961
1063,Brookfield Path,76248,32.9390520,-97.2265077
1055,Brookfield Path,76248,32.9390528,-97.2269295
1059,Brookfield Path,76248,32.9390531,-97.2267207
1051,Brookfield Path,76248,32.9390561,-97.2271435
220,Keller Parkway,76248,32.9340241,-97.2506555
640,Johnson Road,76248,32.9411914,-97.2405454
121,South Elm Street,76248,32.9333788,-97.2506723
1675,North Tarrant Parkway,76248,32.9005318,-97.2152867
861,North Tarrant Parkway,76248,32.8995107,-97.2364706
1751,South Main Street,76248,32.9028035,-97.2566477
1241,Edgemere Drive,76248,32.9552031,-97.2368302
1939,Keller Parkway,76248,32.9355418,-97.2053337
501,Bourland Road,76248,32.9405784,-97.2418225
200,Keller Smithfield Road South,76248,32.9327529,-97.2194962
