House number,Street name,Postal code,Latitude,Longitude
1906,South Bagdad Road,78641,30.5499982,-97.8532097
2800,South Bagdad Road,78641,30.5405654,-97.8488952
700,South Highway 183,78641,30.5696005,-97.8495851
2800,South Bagdad Road,78641,30.5403948,-97.8488259
10930,East Crystal Falls Parkway,78641,30.5658039,-97.8081439
901,Crystal Falls Parkway,78641,30.5537752,-97.8552672
207,Sonny Drive,78641,30.5684056,-97.8516989
651,US 183,78641,30.5835907,-97.8580856
1001,La Cantera,78641,30.5482640,-97.8877660
1013,La Cantera,78641,30.5494870,-97.8880100
1100,Lions Lair,78641,30.5480870,-97.9023110
1100,Sidewinder,78641,30.5462000,-97.9074970
1101,Lions Lair,78641,30.5483260,-97.9027480
1101,Sidewinder,78641,30.5459890,-97.9078650
1102,High Lonesome,78641,30.5311480,-97.8886590
1102,Paw Print,78641,30.5324050,-97.8878140
1104,Paw Print,78641,30.5328840,-97.8881370
1104,Sidewinder,78641,30.5456610,-97.9074300
1105,Lions Lair,78641,30.5479530,-97.9029820
1108,Sidewinder,78641,30.5451420,-97.9072410
1109,Lions Lair,78641,30.5475960,-97.9032630
1109,Sidewinder,78641,30.5448990,-97.9076150
1112,Lions Lair,78641,30.5470040,-97.9030480
1112,Sidewinder,78641,30.5446750,-97.9070130
1113,Lions Lair,78641,30.5472220,-97.9034490
1117,Lions Lair,78641,30.5467460,-97.9035460
1117,Sidewinder,78641,30.5441340,-97.9071310
1200,Rancho Mirage,78641,30.5422110,-97.8866610
1201,Rancho Mirage,78641,30.5432150,-97.8866240
1201,Sidewinder,78641,30.5437350,-97.9068160
1202,Rancho Mirage,78641,30.5425540,-97.8883760
1203,Rancho Mirage,78641,30.5437270,-97.8881260
1204,Lions Lair,78641,30.5456170,-97.9033300
1204,Sidewinder,78641,30.5438000,-97.9063190
1205,Lions Lair,78641,30.5459050,-97.9037080
1205,Rancho Mirage,78641,30.5440650,-97.8891470
1208,Lions Lair,78641,30.5452400,-97.9033570
1208,Sidewinder,78641,30.5434590,-97.9058990
1209,Lions Lair,78641,30.5453070,-97.9038080
1212,Sidewinder,78641,30.5431990,-97.9054870
1216,Sidewinder,78641,30.5429690,-97.9050390
1217,Sidewinder,78641,30.5426780,-97.9053460
1224,Sidewinder,78641,30.5426790,-97.9042080
1229,Sidewinder,78641,30.5422240,-97.9040400
1300,High Lonesome,78641,30.5338690,-97.8925060
1300,Lions Lair,78641,30.5448250,-97.9033580
1301,Ventana Canyon,78641,30.5401660,-97.8858160
1302,Roaring Fork,78641,30.5297520,-97.8948730
1304,High Lonesome,78641,30.5345060,-97.8932220
1304,Pasa Tiempo,78641,30.5360110,-97.8866170
1304,Roaring Fork,78641,30.5301610,-97.8951940
1306,Pasa Tiempo,78641,30.5363360,-97.8867040
1306,Ventana Canyon,78641,30.5395990,-97.8886440
1307,Roaring Fork,78641,30.5309810,-97.8945650
1307,Ventana Canyon,78641,30.5410720,-97.8882620
1308,Ventana Canyon,78641,30.5400440,-97.8894330
1309,Ventana Canyon,78641,30.5412170,-97.8889610
13108,Buck Run,78613,30.5137540,-97.8822830
1311,Ventana Canyon,78641,30.5412820,-97.8898980
13112,Buck Run,78613,30.5143100,-97.8825130
1313,Roaring Fork,78641,30.5320470,-97.8955490
13201,Vista Rock Drive,78641,30.5203050,-97.8899850
13233,Vista Rock Drive,78641,30.5218820,-97.8913440
13320,Vista Rock Drive,78641,30.5203650,-97.8931410
13343,Vista Rock Drive,78641,30.5193520,-97.8951330
1400,Lions Lair,78641,30.5432890,-97.9031660
1404,Camelback,78641,30.5381380,-97.8928350
1404,Lions Lair,78641,30.5428370,-97.9031690
1407,High Lonesome,78641,30.5368180,-97.8944850
1409,High Lonesome,78641,30.5372000,-97.8947670
1413,High Lonesome,78641,30.5380230,-97.8954410
1600,Coronado Spyglass Hill,78641,30.5435020,-97.8955420
1601,High Lonesome,78641,30.5392360,-97.9001540
1601,Speaking Rock,78641,30.5272140,-97.8859120
1605,High Lonesome,78641,30.5396230,-97.9004060
1608,High Lonesome,78641,30.5394600,-97.9007370
1613,High Lonesome,78641,30.5400100,-97.9006410
1616,High Lonesome,78641,30.5402190,-97.9011760
1620,High Lonesome,78641,30.5405610,-97.9012980
1700,Harvest Dance Drive,78641,30.5415830,-97.8784220
1700,High Lonesome,78641,30.5409850,-97.9013920
1704,Harvest Dance Drive,78641,30.5415290,-97.8786540
1705,High Lonesome,78641,30.5415240,-97.9010000
1708,Harvest Dance Drive,78641,30.5416700,-97.8788620
1709,Harvest Dance Drive,78641,30.5419770,-97.8788470
1712,Harvest Dance Drive,78641,30.5417780,-97.8790440
1716,Harvest Dance Drive,78641,30.5419070,-97.8792240
1717,Harvest Dance Drive,78641,30.5421650,-97.8791030
1720,Harvest Dance Drive,78641,30.5420550,-97.8793880
1724,Harvest Dance Drive,78641,30.5422560,-97.8795320
1725,Harvest Dance Drive,78641,30.5423960,-97.8792800
1728,Harvest Dance Drive,78641,30.5424580,-97.8796150
1729,Harvest Dance Drive,78641,30.5426750,-97.8793490
1732,Harvest Dance Drive,78641,30.5426820,-97.8796380
1736,Harvest Dance Drive,78641,30.5428700,-97.8796180
1737,Harvest Dance Drive,78641,30.5429520,-97.8793160
1740,Harvest Dance Drive,78641,30.5430590,-97.8795670
1744,Harvest Dance Drive,78641,30.5432340,-97.8794580
1745,Harvest Dance Drive,78641,30.5432130,-97.8791720
1748,Harvest Dance Drive,78641,30.5433900,-97.8793240
1749,Harvest Dance Drive,78641,30.5433370,-97.8788580
17998,Farm-to-Market Road 1431,78641,30.5200390,-97.8965750
1800,Cantina Sky Drive,78641,30.5454260,-97.8757430
1800,Harvest Dance Drive,78641,30.5439750,-97.8791100
1800,Leaders Lane,78641,30.5417200,-97.8689420
18000,Farm-to-Market Road 1431,78641,30.5219570,-97.8967810
1801,Leaders Lane,78641,30.5419060,-97.8691720
1804,Cantina Sky Drive,78641,30.5452650,-97.8757880
1804,High Lonesome,78641,30.5428560,-97.9013710
1804,Leaders Lane,78641,30.5414330,-97.8690610
1805,Harvest Dance Drive,78641,30.5438750,-97.8785560
1805,High Lonesome,78641,30.5431020,-97.9009230
1805,Leaders Lane,78641,30.5419090,-97.8694820
18056,Farm-to-Market Road 1431,78641,30.5191510,-97.9025150
18062,Farm-to-Market Road 1431,78641,30.5190430,-97.9029230
1808,Cantina Sky Drive,78641,30.5451020,-97.8758420
1808,High Lonesome,78641,30.5433940,-97.9013740
1809,Cantina Sky Drive,78641,30.5451300,-97.8761850
1809,Harvest Dance Drive,78641,30.5440930,-97.8785310
1809,High Lonesome,78641,30.5436830,-97.9009250
1809,Leaders Lane,78641,30.5417550,-97.8697250
1812,Cantina Sky Drive,78641,30.5449500,-97.8759370
1812,Harvest Dance Drive,78641,30.5445180,-97.8788270
1812,High Lonesome,78641,30.5438900,-97.9013610
1813,High Lonesome,78641,30.5441370,-97.9009620
1813,Leaders Lane,78641,30.5416670,-97.8699500
1816,High Lonesome,78641,30.5443280,-97.9013500
1817,High Lonesome,78641,30.5446750,-97.9009490
1820,Harvest Dance Drive,78641,30.5447790,-97.8784240
1821,High Lonesome,78641,30.5450000,-97.9009400
1825,High Lonesome,78641,30.5455380,-97.9009430
1828,Harvest Dance Drive,78641,30.5449970,-97.8780700
1829,High Lonesome,78641,30.5459780,-97.9009810
1833,Harvest Dance Drive,78641,30.5447260,-97.8777310
1833,High Lonesome,78641,30.5463320,-97.9009790
1844,Harvest Dance Drive,78641,30.5451060,-97.8772500
1848,Harvest Dance Drive,78641,30.5451100,-97.8770300
1849,Harvest Dance Drive,78641,30.5447380,-97.8770740
1852,Harvest Dance Drive,78641,30.5450870,-97.8768330
1856,Harvest Dance Drive,78641,30.5450760,-97.8766270
1856,Long Bow Drive,78641,30.5400680,-97.8689370
1860,Harvest Dance Drive,78641,30.5450530,-97.8764300
1900,Harvest Dance Drive,78641,30.5445700,-97.8760810
1900,High Lonesome,78641,30.5468210,-97.9014530
1900,Long Bow Drive,78641,30.5398690,-97.8690750
1900,Rio Seco,78641,30.5458830,-97.8951990
1901,Harvest Dance Drive,78641,30.5445700,-97.8764810
1901,Leaders Lane,78641,30.5415680,-97.8701790
1904,Bold Sundown Drive,78641,30.5443570,-97.8770900
1904,Harvest Dance Drive,78641,30.5443650,-97.8760650
1904,Long Bow Drive,78641,30.5396970,-97.8691800
1905,Bold Sundown Drive,78641,30.5442340,-97.8774500
1905,Harvest Dance Drive,78641,30.5443580,-97.8764600
1905,Leaders Lane,78641,30.5414760,-97.8704120
1908,Bold Sundown Drive,78641,30.5441990,-97.8771320
1908,Harvest Dance Drive,78641,30.5441830,-97.8760780
1908,High Lonesome,78641,30.5478190,-97.9018680
1908,Leaders Lane,78641,30.5409770,-97.8704000
1909,Bold Sundown Drive,78641,30.5441080,-97.8776350
1909,Harvest Dance Drive,78641,30.5441940,-97.8764600
1909,High Lonesome,78641,30.5482860,-97.9017000
1909,Leaders Lane,78641,30.5414080,-97.8706560
1912,Bold Sundown Drive,78641,30.5440560,-97.8771870
1912,Harvest Dance Drive,78641,30.5440230,-97.8760860
1912,Leaders Lane,78641,30.5408610,-97.8706260
1913,Harvest Dance Drive,78641,30.5440090,-97.8764860
1913,Leaders Lane,78641,30.5413200,-97.8708970
1916,Bold Sundown Drive,78641,30.5439030,-97.8772860
1916,Leaders Lane,78641,30.5406790,-97.8708260
1916,Long Bow Drive,78641,30.5390840,-97.8695470
1917,Bold Sundown Drive,78641,30.5440300,-97.8777810
1917,Leaders Lane,78641,30.5412290,-97.8711770
1920,Bold Sundown Drive,78641,30.5437750,-97.8774050
1920,Harvest Dance Drive,78641,30.5437110,-97.8761330
1920,Leaders Lane,78641,30.5406650,-97.8712000
1920,Long Bow Drive,78641,30.5388580,-97.8696730
1921,Bold Sundown Drive,78641,30.5438890,-97.8778890
1921,Harvest Dance Drive,78641,30.5438090,-97.8765780
1921,Leaders Lane,78641,30.5409480,-97.8713870
1921,Long Bow Drive,78641,30.5390150,-97.8701830
1924,Bold Sundown Drive,78641,30.5436430,-97.8775090
1924,Harvest Dance Drive,78641,30.5435530,-97.8762060
1924,Long Bow Drive,78641,30.5386970,-97.8698270
1925,Bold Sundown Drive,78641,30.5437160,-97.8779630
1925,Harvest Dance Drive,78641,30.5436330,-97.8766900
1928,Bold Sundown Drive,78641,30.5435050,-97.8776560
1928,Long Bow Drive,78641,30.5384840,-97.8699640
1929,Bold Sundown Drive,78641,30.5435530,-97.8780550
1932,Bold Sundown Drive,78641,30.5433440,-97.8777380
1932,Harvest Dance Drive,78641,30.5432620,-97.8763890
1933,Bold Sundown Drive,78641,30.5433080,-97.8781390
1933,Harvest Dance Drive,78641,30.5435120,-97.8768170
1936,Bold Sundown Drive,78641,30.5431120,-97.8778400
1936,Harvest Dance Drive,78641,30.5431430,-97.8765520
1937,Harvest Dance Drive,78641,30.5433770,-97.8769370
1941,Harvest Dance Drive,78641,30.5432350,-97.8770780
1944,Harvest Dance Drive,78641,30.5430200,-97.8767830
1945,Harvest Dance Drive,78641,30.5430950,-97.8771680
1949,Harvest Dance Drive,78641,30.5429110,-97.8772670
1998,Coronado Spyglass Hill,78641,30.5479960,-97.8892660
200,Dream Catcher,78641,30.5574050,-97.9143950
2000,Harvest Dance Drive,78641,30.5425740,-97.8769790
2000,Long Bow Drive,78641,30.5383630,-97.8702270
2000,Winners Court,78641,30.5361030,-97.8709480
2001,Bold Sundown Drive,78641,30.5430160,-97.8783350
2001,Harvest Dance Drive,78641,30.5425460,-97.8773020
2001,High Lonesome,78641,30.5486990,-97.9022170
2001,Winners Court,78641,30.5366110,-97.8710450
2003,Coronado Spyglass Hill,78641,30.5479010,-97.8906010
2003,Palos Verdes,78641,30.5462980,-97.8887520
2004,High Lonesome,78641,30.5486180,-97.9029220
2004,Long Bow Drive,78641,30.5382340,-97.8704900
2005,Bold Sundown Drive,78641,30.5429070,-97.8785620
2005,Champions Corner Court,78641,30.5335780,-97.8698800
2005,Harvest Dance Drive,78641,30.5423410,-97.8772430
2005,High Lonesome,78641,30.5488680,-97.9025460
2005,Long Bow Drive,78641,30.5386370,-97.8707890
2008,Bold Sundown Drive,78641,30.5425290,-97.8782290
2008,Champions Corner Court,78641,30.5331630,-97.8699160
2008,Harvest Dance Drive,78641,30.5423450,-97.8769030
2009,Bold Sundown Drive,78641,30.5427560,-97.8786360
2009,Champions Corner Court,78641,30.5333550,-97.8699800
2009,High Lonesome,78641,30.5490020,-97.9029370
2009,Long Bow Drive,78641,30.5385410,-97.8710520
201,Dream Catcher,78641,30.5575170,-97.9151910
2010,High Lonesome,78641,30.5487470,-97.9036100
2012,Bold Sundown Drive,78641,30.5424700,-97.8784790
2012,Coronado Spyglass Hill,78641,30.5450480,-97.8909460
2012,Harvest Dance Drive,78641,30.5421570,-97.8767390
2012,High Lonesome,78641,30.5486590,-97.9038600
2012,Long Bow Drive,78641,30.5380370,-97.8709930
2013,Bold Sundown Drive,78641,30.5425610,-97.8786280
2013,Harvest Dance Drive,78641,30.5420170,-97.8770810
2013,High Lonesome,78641,30.5491380,-97.9036690
2013,Winners Court,78641,30.5362780,-97.8716280
2016,Harvest Dance Drive,78641,30.5419980,-97.8766190
2016,High Lonesome,78641,30.5487170,-97.9044180
2016,Long Bow Drive,78641,30.5379450,-97.8712570
2017,Harvest Dance Drive,78641,30.5418510,-97.8769570
2017,High Lonesome,78641,30.5492630,-97.9042040
2020,Harvest Dance Drive,78641,30.5418250,-97.8764940
2020,High Lonesome,78641,30.5487300,-97.9051100
2021,Harvest Dance Drive,78641,30.5416810,-97.8768260
2021,High Lonesome,78641,30.5493040,-97.9049210
2022,Coronado Spyglass Hill,78641,30.5430250,-97.8923950
2023,Palos Verdes,78641,30.5424150,-97.8911100
2024,Coronado Spyglass Hill,78641,30.5425990,-97.8927440
2024,Harvest Dance Drive,78641,30.5416640,-97.8764070
2024,High Lonesome,78641,30.5487470,-97.9057560
2025,Harvest Dance Drive,78641,30.5414890,-97.8767830
2025,High Lonesome,78641,30.5493770,-97.9055500
2026,Coronado Spyglass Hill,78641,30.5421030,-97.8931100
2027,Palos Verdes,78641,30.5412660,-97.8915530
2028,Coronado Spyglass Hill,78641,30.5416990,-97.8939730
2028,Harvest Dance Drive,78641,30.5414480,-97.8763740
2029,Harvest Dance Drive,78641,30.5412900,-97.8767900
2030,Palos Verdes,78641,30.5394470,-97.8910760
2031,Coronado Spyglass Hill,78641,30.5421750,-97.8948110
2032,Harvest Dance Drive,78641,30.5412600,-97.8763750
2033,Harvest Dance Drive,78641,30.5410880,-97.8768240
2035,Coronado Spyglass Hill,78641,30.5412100,-97.8953100
2036,Harvest Dance Drive,78641,30.5410670,-97.8763420
2037,Harvest Dance Drive,78641,30.5408790,-97.8768660
204,Dream Catcher,78641,30.5569700,-97.9145050
2040,Harvest Dance Drive,78641,30.5409000,-97.8762990
2041,Harvest Dance Drive,78641,30.5407200,-97.8767870
2044,Harvest Dance Drive,78641,30.5407510,-97.8763840
2045,Harvest Dance Drive,78641,30.5406780,-97.8765920
208,Dream Catcher,78641,30.5566740,-97.9147330
209,Dream Catcher,78641,30.5566640,-97.9155000
2100,Big Horn,78641,30.5444480,-97.8708330
2100,Buffalo Gap,78641,30.5473960,-97.8735830
2100,Long Bow Drive,78641,30.5376600,-97.8715890
2100,Lookout Knoll Drive,78641,30.5321560,-97.8705930
2101,Big Horn,78641,30.5448620,-97.8709890
2101,High Lonesome,78641,30.5496530,-97.9060460
2101,Long Bow Drive,78641,30.5381150,-97.8718850
2101,Peoria Drive,78641,30.5392990,-97.8721960
2101,Signature Lane,78641,30.5411440,-97.8699870
2104,Buffalo Gap,78641,30.5472580,-97.8733830
2104,Long Bow Drive,78641,30.5375750,-97.8718030
2104,Lookout Knoll Drive,78641,30.5321280,-97.8707780
2104,Signature Lane,78641,30.5412700,-97.8695380
2105,Buffalo Gap,78641,30.5469160,-97.8735700
2105,Long Bow Drive,78641,30.5380230,-97.8721260
2105,Peoria Drive,78641,30.5392290,-97.8724420
2105,Signature Lane,78641,30.5409520,-97.8698450
2106,Big Horn,78641,30.5437130,-97.8713520
2108,Buffalo Gap,78641,30.5471270,-97.8731750
2108,Long Bow Drive,78641,30.5375020,-97.8720170
2109,Long Bow Drive,78641,30.5379350,-97.8723430
2109,Peoria Drive,78641,30.5391220,-97.8726570
2109,Signature Lane,78641,30.5408110,-97.8696450
2112,Buffalo Gap,78641,30.5469230,-97.8729260
2112,Long Bow Drive,78641,30.5374120,-97.8722310
2112,Peoria Drive,78641,30.5386200,-97.8725110
2112,Signature Lane,78641,30.5410960,-97.8692720
2113,Buffalo Gap,78641,30.5466720,-97.8732650
2113,Lookout Knoll Drive,78641,30.5327310,-97.8708160
2113,Peoria Drive,78641,30.5389640,-97.8728330
2113,Signature Lane,78641,30.5406660,-97.8694350
2116,Buffalo Gap,78641,30.5466940,-97.8727960
2116,Long Bow Drive,78641,30.5373350,-97.8724210
2116,Signature Lane,78641,30.5408670,-97.8690060
2117,Buffalo Gap,78641,30.5463530,-97.8732030
2117,Peoria Drive,78641,30.5387900,-97.8729800
2117,Signature Lane,78641,30.5405820,-97.8691920
2120,Buffalo Gap,78641,30.5464620,-97.8727630
2120,Long Bow Drive,78641,30.5372560,-97.8726290
2120,Peoria Drive,78641,30.5383610,-97.8725870
2121,Peoria Drive,78641,30.5386290,-97.8731200
2124,Peoria Drive,78641,30.5381920,-97.8727200
2125,Peoria Drive,78641,30.5384480,-97.8732300
2129,Peoria Drive,78641,30.5383220,-97.8734440
2133,Peoria Drive,78641,30.5381270,-97.8733640
2136,Peoria Drive,78641,30.5379350,-97.8728000
2137,Peoria Drive,78641,30.5379260,-97.8733730
2140,Peoria Drive,78641,30.5377060,-97.8726670
21406,Nameless Road,78641,30.5781550,-97.9198890
2141,Peoria Drive,78641,30.5377300,-97.8732920
2145,Peoria Drive,78641,30.5375300,-97.8731680
21504,Nameless Road,78641,30.5777770,-97.9213450
21600,Nameless Road,78641,30.5782660,-97.9216410
21800,Nameless Road,78641,30.5790380,-97.9229310
2200,Champions Corner Drive,78641,30.5391960,-97.8740660
2200,Long Bow Drive,78641,30.5371600,-97.8728330
2200,Lookout Knoll Drive,78641,30.5323110,-97.8715890
2201,Ambush Canyon,78641,30.5471990,-97.8741200
2201,Champions Corner Drive,78641,30.5389510,-97.8739200
2201,Lookout Knoll Drive,78641,30.5327660,-97.8716550
2204,Ambush Canyon,78641,30.5469060,-97.8737750
2204,Buffalo Gap,78641,30.5454390,-97.8728460
2204,Champions Corner Drive,78641,30.5394090,-97.8740850
2204,Long Bow Drive,78641,30.5370890,-97.8730600
2204,Lookout Knoll Drive,78641,30.5322990,-97.8717820
2205,Ambush Canyon,78641,30.5469560,-97.8742030
2205,Champions Corner Drive,78641,30.5389160,-97.8736000
2205,Lookout Knoll Drive,78641,30.5327800,-97.8718500
2208,Champions Corner Drive,78641,30.5395160,-97.8739010
2208,Long Bow Drive,78641,30.5370230,-97.8733060
2209,Ambush Canyon,78641,30.5467430,-97.8742770
2209,Champions Corner Drive,78641,30.5390550,-97.8733960
2212,Ambush Canyon,78641,30.5465750,-97.8738550
2212,Champions Corner Drive,78641,30.5395760,-97.8736900
2212,Long Bow Drive,78641,30.5371990,-97.8735250
2213,Ambush Canyon,78641,30.5465230,-97.8743070
2213,Champions Corner Drive,78641,30.5391970,-97.8732360
2213,Long Bow Drive,78641,30.5374040,-97.8735810
2216,Ambush Canyon,78641,30.5463090,-97.8739030
2216,Champions Corner Drive,78641,30.5396750,-97.8734950
2216,Long Bow Drive,78641,30.5372290,-97.8737470
2217,Ambush Canyon,78641,30.5462990,-97.8743970
2217,Champions Corner Drive,78641,30.5393290,-97.8730640
2220,Ambush Canyon,78641,30.5460840,-97.8739480
2220,Champions Corner Drive,78641,30.5397780,-97.8732830
2220,Long Bow Drive,78641,30.5372750,-97.8739470
2221,Ambush Canyon,78641,30.5460470,-97.8744460
2221,Champions Corner Drive,78641,30.5394320,-97.8728640
2221,Long Bow Drive,78641,30.5374960,-97.8739570
2221,Yaupon Range Dr,78641,30.5285810,-97.8709380
2224,Ambush Canyon,78641,30.5458620,-97.8738610
2224,Champions Corner Drive,78641,30.5398700,-97.8731000
2224,Long Bow Drive,78641,30.5373590,-97.8741500
2225,Champions Corner Drive,78641,30.5395320,-97.8727020
2225,Yaupon Range Dr,78641,30.5285960,-97.8710890
2228,Ambush Canyon,78641,30.5456200,-97.8738770
2228,Champions Corner Drive,78641,30.5399910,-97.8729240
2228,Long Bow Drive,78641,30.5374570,-97.8743180
2229,Ambush Canyon,78641,30.5456130,-97.8745140
2229,Champions Corner Drive,78641,30.5396420,-97.8724890
2229,Yaupon Range Drive,78641,30.5286300,-97.8712450
2232,Ambush Canyon,78641,30.5454410,-97.8740580
2232,Champions Corner Drive,78641,30.5401490,-97.8727760
2232,Long Bow Drive,78641,30.5375720,-97.8745090
2233,Ambush Canyon,78641,30.5453910,-97.8745610
2233,Yaupon Range Dr,78641,30.5286640,-97.8713960
2236,Ambush Canyon,78641,30.5452180,-97.8740810
2236,Champions Corner Drive,78641,30.5402650,-97.8725550
2236,Long Bow Drive,78641,30.5376710,-97.8746730
2237,Ambush Canyon,78641,30.5451130,-97.8745410
2237,Long Bow Drive,78641,30.5379160,-97.8746630
2237,Yaupon Range Dr,78641,30.5287000,-97.8715530
2240,Ambush Canyon,78641,30.5449970,-97.8741280
2240,Champions Corner Drive,78641,30.5401920,-97.8722740
2240,Long Bow Drive,78641,30.5377830,-97.8748660
2241,Ambush Canyon,78641,30.5448930,-97.8745880
2241,Long Bow Drive,78641,30.5380310,-97.8748540
2244,Ambush Canyon,78641,30.5447950,-97.8741660
2244,Champions Corner Drive,78641,30.5400260,-97.8721140
2244,Long Bow Drive,78641,30.5378870,-97.8750480
2245,Ambush Canyon,78641,30.5446780,-97.8746320
2245,Long Bow Drive,78641,30.5381590,-97.8750740
2248,Champions Corner Drive,78641,30.5398660,-97.8719580
2248,Long Bow Drive,78641,30.5379990,-97.8752380
2252,Champions Corner Drive,78641,30.5396690,-97.8718380
2256,Champions Corner Drive,78641,30.5394940,-97.8717340
2260,Champions Corner Drive,78641,30.5392840,-97.8716590
2299,Ambush Canyon,78641,30.5445600,-97.8747130
2300,Champions Corner Drive,78641,30.5390720,-97.8716130
2301,Ambush Canyon,78641,30.5441860,-97.8745910
2301,Granite Hill Drive,78641,30.5282060,-97.8711100
2301,Yaupon Range Dr,78641,30.5287040,-97.8717110
2304,Gift Horse Pass,78641,30.5426510,-97.8775100
2305,Ambush Canyon,78641,30.5436170,-97.8744770
2305,Champions Corner Drive,78641,30.5388280,-97.8721420
2305,Granite Hill Drive,78641,30.5280590,-97.8711440
2305,Yaupon Range Dr,78641,30.5287520,-97.8718580
2308,Champions Corner Drive,78641,30.5388810,-97.8715830
2308,Gift Horse Pass,78641,30.5427040,-97.8777410
2308,Granite Hill Drive,78641,30.5279130,-97.8706430
2309,Champions Corner Drive,78641,30.5385840,-97.8721310
2309,Granite Hill Drive,78641,30.5279210,-97.8711870
2309,Yaupon Range Dr,78641,30.5287680,-97.8720140
2312,Champions Corner Drive,78641,30.5386810,-97.8715660
2312,Granite Hill Drive,78641,30.5277730,-97.8706860
2313,Champions Corner Drive,78641,30.5383740,-97.8720900
2313,Granite Hill Drive,78641,30.5277910,-97.8712200
2313,Yaupon Range Dr,78641,30.5288190,-97.8721810
2316,Champions Corner Drive,78641,30.5384920,-97.8715090
2316,Granite Hill Drive,78641,30.5276430,-97.8707110
2317,Granite Hill Drive,78641,30.5276600,-97.8712590
2317,Yaupon Range Dr,78641,30.5288520,-97.8723390
2320,Champions Corner Drive,78641,30.5382510,-97.8714660
2320,Granite Hill Drive,78641,30.5275120,-97.8707360
2321,Yaupon Range Dr,78641,30.5288490,-97.8725020
2324,Granite Hill Drive,78641,30.5273500,-97.8707870
2325,Granite Hill Drive,78641,30.5274690,-97.8712700
2325,Yaupon Range Dr,78641,30.5288750,-97.8726620
2328,Granite Hill Drive,78641,30.5272160,-97.8708740
2329,Yaupon Range Dr,78641,30.5288510,-97.8728290
2332,Granite Hill Drive,78641,30.5270890,-97.8709870
2333,Granite Hill Drive,78641,30.5273390,-97.8714360
2333,Yaupon Range Dr,78641,30.5288470,-97.8729790
2336,Granite Hill Drive,78641,30.5269920,-97.8711520
2337,Granite Hill Drive,78641,30.5272200,-97.8715690
2400,Champions Corner Drive,78641,30.5375750,-97.8709600
2401,Granite Hill Drive,78641,30.5271050,-97.8716870
2401,Yaupon Range Dr,78641,30.5288420,-97.8731450
2404,Champions Corner Drive,78641,30.5374260,-97.8708920
2404,Granite Hill Drive,78641,30.5267720,-97.8713950
2405,Champions Corner Drive,78641,30.5370910,-97.8713920
2405,Granite Hill Drive,78641,30.5269900,-97.8718090
2405,Yaupon Range Dr,78641,30.5287240,-97.8733380
2408,Champions Corner Drive,78641,30.5372470,-97.8707970
2408,Granite Hill Drive,78641,30.5266550,-97.8715000
2409,Ambush Canyon,78641,30.5416920,-97.8742330
2409,Granite Hill Drive,78641,30.5268880,-97.8719380
2411,Ambush Canyon,78641,30.5413640,-97.8742580
2412,Champions Corner Drive,78641,30.5370400,-97.8706920
2412,Granite Hill Drive,78641,30.5265530,-97.8716410
2412,Yaupon Range Dr,78641,30.5285740,-97.8736540
2415,Osage Drive,78641,30.5313900,-97.8747360
2416,Champions Corner Drive,78641,30.5368660,-97.8706130
2416,Granite Hill Drive,78641,30.5264350,-97.8717370
2417,Granite Hill Drive,78641,30.5266780,-97.8721840
2420,Granite Hill Drive,78641,30.5263370,-97.8718370
2424,Granite Hill Drive,78641,30.5262460,-97.8719410
2425,Granite Hill Drive,78641,30.5265440,-97.8723320
2428,Granite Hill Drive,78641,30.5261380,-97.8720590
2432,Granite Hill Drive,78641,30.5260550,-97.8721880
2455,Osage Drive,78641,30.5305720,-97.8751680
2500,Yuma Trail,78641,30.5319010,-97.8764490
2501,Ambush Canyon,78641,30.5410190,-97.8742850
2501,Crystal Falls Parkway,78641,30.5489900,-97.8771930
2501,Yuma Trail,78641,30.5321650,-97.8770020
2503,Crystal Falls Parkway,78641,30.5489790,-97.8776570
2504,Yuma Trail,78641,30.5317640,-97.8766590
2505,Crystal Falls Parkway,78641,30.5489880,-97.8781200
2507,Crystal Falls Parkway,78641,30.5489370,-97.8785850
2508,Yuma Trail,78641,30.5316280,-97.8768830
2509,Ambush Canyon,78641,30.5400650,-97.8745830
2509,Champions Corner Drive,78641,30.5357850,-97.8708070
2509,Yuma Trail,78641,30.5320150,-97.8772840
2512,Yuma Trail,78641,30.5314760,-97.8771000
2513,Ambush Canyon,78641,30.5398820,-97.8746670
2513,Champions Corner Drive,78641,30.5356710,-97.8706160
2513,High Lonesome,78641,30.5578870,-97.9140400
2513,Yuma Trail,78641,30.5318510,-97.8775700
2516,Champions Corner Drive,78641,30.5358080,-97.8700330
2517,Ambush Canyon,78641,30.5397070,-97.8747340
2517,Champions Corner Drive,78641,30.5355240,-97.8704210
2517,High Lonesome,78641,30.5579690,-97.9144430
2520,Champions Corner Drive,78641,30.5356670,-97.8699150
2521,Ambush Canyon,78641,30.5395290,-97.8748240
2521,High Lonesome,78641,30.5580640,-97.9148300
2524,Champions Corner Drive,78641,30.5355020,-97.8697590
2525,Ambush Canyon,78641,30.5393960,-97.8749120
2525,High Lonesome,78641,30.5582140,-97.9152380
2528,Champions Corner Drive,78641,30.5353420,-97.8696580
2529,Ambush Canyon,78641,30.5391850,-97.8750570
2529,Champions Corner Drive,78641,30.5350010,-97.8700700
2529,High Lonesome,78641,30.5582820,-97.9155910
2533,Ambush Canyon,78641,30.5389600,-97.8752050
2533,Champions Corner Drive,78641,30.5347840,-97.8699650
2537,Ambush Canyon,78641,30.5387540,-97.8753140
2541,Ambush Canyon,78641,30.5384910,-97.8753080
2545,Ambush Canyon,78641,30.5382910,-97.8754450
2600,Outlook Ridge Loop,78641,30.5344210,-97.8720060
2600,Rain Song Dr,78641,30.5326690,-97.8767160
2601,Ambush Canyon,78641,30.5381010,-97.8755980
2601,Champions Corner Drive,78641,30.5346140,-97.8698040
2601,Crystal Falls Parkway,78641,30.5488870,-97.8791190
2601,Outlook Ridge Loop,78641,30.5341340,-97.8716030
2601,Rain Song Dr,78641,30.5325850,-97.8770000
2603,Crystal Falls Parkway,78641,30.5487350,-97.8795860
2604,Rain Song Dr,78641,30.5325900,-97.8764860
2605,Ambush Canyon,78641,30.5379100,-97.8757370
2605,Rain Song Dr,78641,30.5323760,-97.8769720
2607,Crystal Falls Parkway,78641,30.5483320,-97.8805230
2608,Rain Song Dr,78641,30.5324640,-97.8763830
2609,Champions Corner Drive,78641,30.5343890,-97.8697310
2617,Long Lasso Pass,78641,30.5313960,-97.8778680
2628,Outlook Ridge Loop,78641,30.5342180,-97.8710210
2636,Outlook Ridge Loop,78641,30.5340810,-97.8706730
2644,Outlook Ridge Loop,78641,30.5337170,-97.8707350
2645,Outlook Ridge Loop,78641,30.5339000,-97.8712550
2648,Outlook Ridge Loop,78641,30.5336160,-97.8708820
2652,Outlook Ridge Loop,78641,30.5335160,-97.8710350
2661,Outlook Ridge Loop,78641,30.5331980,-97.8716350
2700,Outlook Ridge Loop,78641,30.5329450,-97.8711780
2700,Rain Song Dr,78641,30.5322990,-97.8761680
2701,Crystal Falls Parkway,78641,30.5481400,-97.8809680
2701,Granite Hill Drive,78641,30.5292280,-97.8743690
2701,Long Lasso Pass,78641,30.5312670,-97.8776320
2701,Outlook Ridge Loop,78641,30.5329910,-97.8716440
2704,Granite Hill Drive,78641,30.5294000,-97.8748410
2704,Outlook Ridge Loop,78641,30.5327330,-97.8711880
2704,Rain Song Dr,78641,30.5321090,-97.8759640
2705,Crystal Falls Parkway,78641,30.5474510,-97.8816350
2705,Granite Hill Drive,78641,30.5294040,-97.8743230
2705,Long Lasso Pass,78641,30.5310850,-97.8774710
2705,Rain Song Dr,78641,30.5316420,-97.8762650
2708,Granite Hill Drive,78641,30.5295380,-97.8748270
2708,Rain Song Dr,78641,30.5319190,-97.8757980
2709,Granite Hill Drive,78641,30.5295520,-97.8743080
2709,Rain Song Dr,78641,30.5314670,-97.8761070
2712,Granite Hill Drive,78641,30.5296850,-97.8747950
2712,Outlook Ridge Loop,78641,30.5323250,-97.8711630
2712,Rain Song Dr,78641,30.5317370,-97.8756370
2713,Granite Hill Drive,78641,30.5296760,-97.8743050
2713,Rain Song Dr,78641,30.5313020,-97.8759680
2716,Outlook Ridge Loop,78641,30.5321600,-97.8711710
2716,Rain Song Dr,78641,30.5315870,-97.8755140
2717,Rain Song Dr,78641,30.5311290,-97.8758010
2720,Outlook Ridge Loop,78641,30.5319830,-97.8711620
2720,Rain Song Dr,78641,30.5314160,-97.8752890
2721,Rain Song Dr,78641,30.5309670,-97.8755650
2724,Rain Song Dr,78641,30.5312890,-97.8750580
2725,Rain Song Dr,78641,30.5308440,-97.8753370
2805,Garnet Ridge Drive,78641,30.5308850,-97.8712780
2809,Garnet Ridge Drive,78641,30.5307430,-97.8711190
2816,Garnet Ridge Drive,78641,30.5309240,-97.8706840
2817,Garnet Ridge Drive,78641,30.5305990,-97.8709450
2824,Garnet Ridge Drive,78641,30.5307160,-97.8704730
2828,Garnet Ridge Drive,78641,30.5306100,-97.8703750
2829,Garnet Ridge Drive,78641,30.5303790,-97.8706500
2833,Garnet Ridge Drive,78641,30.5302840,-97.8705210
2837,Garnet Ridge Drive,78641,30.5301940,-97.8704130
2841,Garnet Ridge Drive,78641,30.5300520,-97.8703210
2905,Crystal Falls Parkway,78641,30.5444560,-97.8833790
3001,Crystal Falls Parkway,78641,30.5436220,-97.8837420
301,Dream Catcher,78641,30.5561850,-97.9156500
304,Dream Catcher,78641,30.5557940,-97.9147550
305,Dream Catcher,78641,30.5556250,-97.9155400
308,Dream Catcher,78641,30.5553970,-97.9145760
3105,Crystal Falls Parkway,78641,30.5410140,-97.8837680
3107,Crystal Falls Parkway,78641,30.5404070,-97.8834820
3500,Bachelor Gulch,78641,30.5405370,-97.8970900
3500,Bear Claw,78641,30.5416140,-97.8983590
3501,Bachelor Gulch,78641,30.5410610,-97.8977850
3501,Lajitas,78641,30.5363990,-97.8899340
3501,Sky Kiss,78641,30.5460300,-97.8998380
3502,Pumpkin Ridge,78641,30.5390850,-97.8961590
3503,Bachelor Gulch,78641,30.5405790,-97.8984550
3504,Bachelor Gulch,78641,30.5393390,-97.8981880
3504,Bear Claw,78641,30.5411910,-97.8990240
3504,Pumpkin Ridge,78641,30.5384930,-97.8958450
3505,Bachelor Gulch,78641,30.5399400,-97.8989860
3505,Bear Claw,78641,30.5416500,-97.8992160
3505,Lajitas,78641,30.5355850,-97.8903460
3505,Sky Kiss,78641,30.5465160,-97.8999580
3506,Lajitas,78641,30.5345430,-97.8895100
3508,Bear Claw,78641,30.5408670,-97.8996140
3508,Lajitas,78641,30.5341870,-97.8897050
3508,Sky Kiss,78641,30.5465060,-97.9004980
3509,Bear Claw,78641,30.5412330,-97.8997250
3509,Lajitas,78641,30.5346250,-97.8907370
3509,Sky Kiss,78641,30.5468250,-97.9005340
3510,Lajitas,78641,30.5338470,-97.8899250
3511,Lajitas,78641,30.5341620,-97.8909720
3512,Lajitas,78641,30.5335030,-97.8904610
3601,Lajitas,78641,30.5337310,-97.8916160
3602,Posse Trail,78641,30.5354280,-97.8956620
3603,Posse Trail,78641,30.5359410,-97.8964000
3607,Lajitas,78641,30.5326770,-97.8924240
3701,Lajitas,78641,30.5319770,-97.8927270
3701,Medicine Hat,78641,30.5466790,-97.9038990
3704,Medicine Hat,78641,30.5464080,-97.9043120
3705,Medicine Hat,78641,30.5467320,-97.9044800
3708,Medicine Hat,78641,30.5464640,-97.9047290
3709,Lajitas,78641,30.5329150,-97.8934850
3709,Medicine Hat,78641,30.5467920,-97.9049030
3713,Medicine Hat,78641,30.5468216,-97.9052626
3801,Medicine Hat,78641,30.5467810,-97.9059770
3804,Medicine Hat,78641,30.5464240,-97.9062590
3804,Panther Hall,78641,30.5444950,-97.9054970
3805,Medicine Hat,78641,30.5467530,-97.9067170
3808,Medicine Hat,78641,30.5464340,-97.9070650
3808,Panther Hall,78641,30.5444610,-97.9064300
3809,Medicine Hat,78641,30.5467840,-97.9072320
3901,Medicine Hat,78641,30.5468010,-97.9078690
3905,Medicine Hat,78641,30.5468530,-97.9083520
3908,Medicine Hat,78641,30.5462620,-97.9085160
3909,Medicine Hat,78641,30.5468200,-97.9086970
3913,Medicine Hat,78641,30.5467420,-97.9092780
3917,Medicine Hat,78641,30.5467030,-97.9097970
3921,Medicine Hat,78641,30.5467960,-97.9102050
3925,Medicine Hat,78641,30.5462060,-97.9095690
3928,Medicine Hat,78641,30.5459640,-97.9089590
3929,Medicine Hat,78641,30.5458660,-97.9096690
3932,Medicine Hat,78641,30.5454580,-97.9089460
3933,Medicine Hat,78641,30.5455380,-97.9096620
3936,Medicine Hat,78641,30.5450160,-97.9088400
3937,Medicine Hat,78641,30.5452330,-97.9096600
3940,Medicine Hat,78641,30.5447000,-97.9090680
3941,Medicine Hat,78641,30.5448480,-97.9094500
400,Dream Catcher,78641,30.5549840,-97.9144320
401,Dream Catcher,78641,30.5545510,-97.9150820
404,Dream Catcher,78641,30.5545660,-97.9142240
405,Dream Catcher,78641,30.5541780,-97.9148310
408,Dream Catcher,78641,30.5541890,-97.9140440
409,Dream Catcher,78641,30.5538210,-97.9146450
500,Dream Catcher,78641,30.5538370,-97.9138400
501,Dream Catcher,78641,30.5535060,-97.9144630
504,Dream Catcher,78641,30.5534750,-97.9136020
505,Dream Catcher,78641,30.5531640,-97.9142650
508,Dream Catcher,78641,30.5531090,-97.9134160
509,Dream Catcher,78641,30.5527810,-97.9140380
512,Dream Catcher,78641,30.5526900,-97.9132540
513,Dream Catcher,78641,30.5524190,-97.9138280
600,Dream Catcher,78641,30.5523420,-97.9131020
601,Dream Catcher,78641,30.5520850,-97.9137230
604,Dream Catcher,78641,30.5519580,-97.9129360
605,Dream Catcher,78641,30.5517050,-97.9135280
608,Dream Catcher,78641,30.5515730,-97.9127160
609,Dream Catcher,78641,30.5513170,-97.9133720
612,Dream Catcher,78641,30.5512670,-97.9125790
613,Dream Catcher,78641,30.5508790,-97.9131050
616,Dream Catcher,78641,30.5508960,-97.9123730
700,Dream Catcher,78641,30.5505590,-97.9121770
701,Dream Catcher,78641,30.5503430,-97.9126770
704,Dream Catcher,78641,30.5503410,-97.9118670
705,Dream Catcher,78641,30.5499490,-97.9123390
705,Laughing Dog,78641,30.5504890,-97.9135690
708,Dream Catcher,78641,30.5501190,-97.9115530
709,Dream Catcher,78641,30.5496570,-97.9118740
709,Laughing Dog,78641,30.5499990,-97.9141700
713,Laughing Dog,78641,30.5492240,-97.9143650
716,Laughing Dog,78641,30.5489040,-97.9129960
717,Laughing Dog,78641,30.5484520,-97.9142170
800,Dream Catcher,78641,30.5499630,-97.9110770
800,Laughing Dog,78641,30.5481530,-97.9129210
801,Dream Catcher,78641,30.5493680,-97.9112070
801,Laughing Dog,78641,30.5478650,-97.9136530
802,Mission Hills Road,78641,30.5525183,-97.8832390
804,Dream Catcher,78641,30.5498890,-97.9105940
804,Laughing Dog,78641,30.5477410,-97.9125580
804,Mission Hills Road,78641,30.5511550,-97.8821460
805,Laughing Dog,78641,30.5474680,-97.9133840
805,Mission Hills Road,78641,30.5511010,-97.8806320
806,Mission Hills Road,78641,30.5503360,-97.8821280
808,Dream Catcher,78641,30.5496830,-97.9102190
808,Mission Hills Road,78641,30.5495480,-97.8820130
809,Dream Catcher,78641,30.5492650,-97.9105740
809,Laughing Dog,78641,30.5471780,-97.9130160
809,Mission Hills Road,78641,30.5500080,-97.8807270
811,Mission Hills Road,78641,30.5497100,-97.8812750
812,Laughing Dog,78641,30.5474530,-97.9122840
813,Laughing Dog,78641,30.5471370,-97.9125940
816,Dream Catcher,78641,30.5495490,-97.9098070
816,Laughing Dog,78641,30.5472390,-97.9120300
817,Laughing Dog,78641,30.5467910,-97.9123800
820,Dream Catcher,78641,30.5494040,-97.9092260
820,Laughing Dog,78641,30.5469710,-97.9116490
821,Laughing Dog,78641,30.5464480,-97.9120450
824,Dream Catcher,78641,30.5492300,-97.9087350
824,Laughing Dog,78641,30.5467520,-97.9112160
825,Laughing Dog,78641,30.5461230,-97.9117540
828,Laughing Dog,78641,30.5464740,-97.9111040
829,Laughing Dog,78641,30.5460790,-97.9113090
900,Dream Catcher,78641,30.5490390,-97.9082150
901,Dream Catcher,78641,30.5484020,-97.9081860
904,Dream Catcher,78641,30.5489950,-97.9077410
905,Dream Catcher,78641,30.5483360,-97.9076780
908,Dream Catcher,78641,30.5490040,-97.9072960
909,Dream Catcher,78641,30.5483270,-97.9071730
909,Palos Verdes,78641,30.5522710,-97.8828410
911,Palos Verdes,78641,30.5517810,-97.8836780
912,Dream Catcher,78641,30.5491440,-97.9069030
913,Dream Catcher,78641,30.5483780,-97.9066870
914,Palos Verdes,78641,30.5520350,-97.8860910
915,Palos Verdes,78641,30.5511360,-97.8848780
916,Dream Catcher,78641,30.5493090,-97.9064990
916,Palos Verdes,78641,30.5512950,-97.8862130
922,Palos Verdes,78641,30.5496250,-97.8858610
928,Palos Verdes,78641,30.5478290,-97.8859410
933,Palos Verdes,78641,30.5469170,-97.8864450
1722,Mira Vista,78641,30.5552540,-97.8805290
902,Palos Verdes,78641,30.5535560,-97.8797250
1701,Buffalo Thunder,78641,30.5392290,-97.8689100
1840,Long Bow Drive,78641,30.5408740,-97.8684270
1844,Long Bow Drive,78641,30.5406620,-97.8685440
1848,Long Bow Drive,78641,30.5404450,-97.8686970
1852,Long Bow Drive,78641,30.5402540,-97.8687850
2208,Granite Hill Drive,78641,30.5289910,-97.8703670
2212,Granite Hill Drive,78641,30.5288450,-97.8703870
2216,Granite Hill Drive,78641,30.5287140,-97.8704140
2220,Granite Hill Drive,78641,30.5285740,-97.8704540
2224,Granite Hill Drive,78641,30.5284360,-97.8704890
2228,Granite Hill Drive,78641,30.5282930,-97.8705190
2300,Granite Hill Drive,78641,30.5281820,-97.8705790
2304,Granite Hill Drive,78641,30.5280440,-97.8706130
2500,Quick Fort,78641,30.5382340,-97.8690520
2532,Champions Corner Drive,78641,30.5351590,-97.8695580
2601,Homecoming Court,78641,30.5357460,-97.8694380
2832,Garnet Ridge Drive,78641,30.5305200,-97.8702480
2836,Garnet Ridge Drive,78641,30.5303800,-97.8702080
250,North Bagdad Road,78641,30.5740686,-97.8705303
3601,County Road 279,78641,30.6144641,-97.9004114
3605,County Road 279,78641,30.6145381,-97.9000682
810,Rancho Viejo Lane,78641,30.5832535,-97.8688958
2091,South Highway 183,78641,30.5502656,-97.8424049
800,Crystal Falls Parkway,78641,30.5520868,-97.8541483
1904,South Bagdad Road,78641,30.5503066,-97.8532955
3108,Bravos Drive,78641,30.5266840,-97.8708606
11880,West Hero Way,78641,30.5777275,-97.8702271
11880,West Hero Way,78641,30.5779443,-97.8695359
15609,Ronald W Reagan Boulevard,78641,30.5642601,-97.8012133
15609,Ronald W Reagan Boulevard,78641,30.5642376,-97.8012769
15609,Ronald W Reagan Boulevard,78641,30.5642866,-97.8016911
15609,Ronald W Reagan Boulevard,78641,30.5642655,-97.8019845
15609,Ronald W Reagan Boulevard,78641,30.5642810,-97.8011448
15609,Ronald W Reagan Boulevard,78641,30.5642973,-97.8010755
15609,Ronald W Reagan Boulevard,78641,30.5642160,-97.8013431
15609,Ronald W Reagan Boulevard,78641,30.5631474,-97.8007380
15609,Ronald W Reagan Boulevard,78641,30.5642847,-97.8018173
15609,Ronald W Reagan Boulevard,78641,30.5639618,-97.8017376
15609,Ronald W Reagan Boulevard,78641,30.5630571,-97.8014037
15609,Ronald W Reagan Boulevard,78641,30.5630273,-97.8014256
15609,Ronald W Reagan Boulevard,78641,30.5634049,-97.8015131
15609,Ronald W Reagan Boulevard,78641,30.5634711,-97.8015670
15609,Ronald W Reagan Boulevard,78641,30.5630866,-97.8009925
15609,Ronald W Reagan Boulevard,78641,30.5637016,-97.8016303
500,Bagdad Road,78641,30.5777252,-97.8717942
651,North Highway 183,78641,30.5852257,-97.8568988
651,North Highway 183,78641,30.5853886,-97.8569884
651,North Highway 183,78641,30.5858398,-97.8572661
651,North Highway 183,78641,30.5855935,-97.8571051
651,North Highway 183,78641,30.5855235,-97.8570656
651,North Highway 183,78641,30.5854570,-97.8570298
651,North Highway 183,78641,30.5845714,-97.8570464
651,North Highway 183,78641,30.5849899,-97.8567105
651,North Highway 183,78641,30.5849166,-97.8567743
651,North Highway 183,78641,30.5848491,-97.8568224
651,North Highway 183,78641,30.5847922,-97.8568650
651,North Highway 183,78641,30.5847353,-97.8569109
651,North Highway 183,78641,30.5846814,-97.8569479
651,North Highway 183,78641,30.5830777,-97.8584521
651,North Highway 183,78641,30.5830205,-97.8586201
651,North Highway 183,78641,30.5829978,-97.8586825
651,North Highway 183,78641,30.5829380,-97.8588471
651,North Highway 183,78641,30.5830474,-97.8585600
11701,West Hero Way,78641,30.5772957,-97.8671000
11699,West Hero Way,78641,30.5777435,-97.8671768
11699,West Hero Way,78641,30.5777012,-97.8672984
1789,South Bagdad Road,78641,30.5516824,-97.8560973
1789,South Bagdad Road,78641,30.5517509,-97.8562057
1789,South Bagdad Road,78641,30.5518940,-97.8562864
901,Crystal Falls Parkway,78641,30.5534364,-97.8553122
901,Crystal Falls Parkway,78641,30.5535084,-97.8552870
901,Crystal Falls Parkway,78641,30.5536672,-97.8553051
901,Crystal Falls Parkway,78641,30.5533644,-97.8553375
901,Crystal Falls Parkway,78641,30.5532924,-97.8553627
1395,South Highway 183,78641,30.5608472,-97.8460372
1395,South Highway 183,78641,30.5608900,-97.8460536
1395,South Highway 183,78641,30.5609522,-97.8460775
1395,South Highway 183,78641,30.5609955,-97.8460941
1395,South Highway 183,78641,30.5610138,-97.8461011
1395,South Highway 183,78641,30.5610775,-97.8461255
1395,South Highway 183,78641,30.5611352,-97.8461477
1395,South Highway 183,78641,30.5611775,-97.8461639
1295,South Highway 183,78641,30.5619067,-97.8464777
1295,South Highway 183,78641,30.5618240,-97.8464445
1295,South Highway 183,78641,30.5617566,-97.8464175
1245,South Highway 183,78641,30.5618149,-97.8479065
1401,South Highway 183,78641,30.5603425,-97.8472671
1441,South Highway 183,78641,30.5599163,-97.8471210
651,North Highway 183,78641,30.5846375,-97.8569963
1825,Crystal Falls Parkway,78641,30.5455355,-97.8654436
1825,Crystal Falls Parkway,78641,30.5456191,-97.8654086
1825,Crystal Falls Parkway,78641,30.5456950,-97.8653768
1825,Crystal Falls Parkway,78641,30.5457568,-97.8653509
1825,Crystal Falls Parkway,78641,30.5458269,-97.8653215
3550,North Lakeline Boulevard,78641,30.5452325,-97.8635009
3550,North Lakeline Boulevard,78641,30.5451553,-97.8634702
3550,North Lakeline Boulevard,78641,30.5450924,-97.8634451
3550,North Lakeline Boulevard,78641,30.5450493,-97.8634279
3550,North Lakeline Boulevard,78641,30.5450095,-97.8634121
3550,North Lakeline Boulevard,78641,30.5449074,-97.8633714
3550,North Lakeline Boulevard,78641,30.5445821,-97.8632418
3550,North Lakeline Boulevard,78641,30.5446924,-97.8632858
1840,Crystal Falls Parkway,78641,30.5446118,-97.8661093
1840,Crystal Falls Parkway,78641,30.5445107,-97.8661404
3501,North Lakeline Boulevard,78641,30.5437219,-97.8659178
3501,North Lakeline Boulevard,78641,30.5436311,-97.8657940
3501,North Lakeline Boulevard,78641,30.5435071,-97.8656406
3421,North Lakeline Boulevard,78641,30.5428672,-97.8642109
3421,North Lakeline Boulevard,78641,30.5429059,-97.8643131
3421,North Lakeline Boulevard,78641,30.5429346,-97.8643829
3421,North Lakeline Boulevard,78641,30.5430460,-97.8646454
3421,North Lakeline Boulevard,78641,30.5430073,-97.8645592
3421,North Lakeline Boulevard,78641,30.5429767,-97.8644901
1820,Crystal Falls Parkway,78641,30.5446170,-97.8649065
1820,Crystal Falls Parkway,78641,30.5446954,-97.8649340
3725,North Lakeline Boulevard,78641,30.5468344,-97.8659165
3725,North Lakeline Boulevard,78641,30.5467648,-97.8658840
3550,North Lakeline Boulevard,78641,30.5447862,-97.8633238
3550,North Lakeline Boulevard,78641,30.5447761,-97.8633191
2800,South Bagdad Road,78641,30.5404471,-97.8488472
2800,South Bagdad Road,78641,30.5405109,-97.8488731
2800,South Bagdad Road,78641,30.5402791,-97.8487788
2906,South Bagdad Road,78641,30.5391152,-97.8483558
2906,South Bagdad Road,78641,30.5390968,-97.8484153
2906,South Bagdad Road,78641,30.5392126,-97.8480412
2906,South Bagdad Road,78641,30.5392363,-97.8475913
2906,South Bagdad Road,78641,30.5391520,-97.8475554
2906,South Bagdad Road,78641,30.5389038,-97.8474497
2906,South Bagdad Road,78641,30.5390783,-97.8475240
2906,South Bagdad Road,78641,30.5389552,-97.8474716
2303,South Bagdad Road,78641,30.5451479,-97.8518902
651,North Highway 183,78641,30.5853040,-97.8569390
502,Crystal Falls Parkway,78641,30.5556761,-97.8499389
502,Crystal Falls Parkway,78641,30.5557069,-97.8498271
1805,South Highway 183,78641,30.5563149,-97.8439112
1805,South Highway 183,78641,30.5563883,-97.8439551
1805,South Highway 183,78641,30.5564349,-97.8439830
1805,South Highway 183,78641,30.5564795,-97.8440097
1815,South Highway 183,78641,30.5553898,-97.8435154
1901,South Highway 183,78641,30.5546797,-97.8430662
1901,South Highway 183,78641,30.5545082,-97.8429850
1913,South Highway 183,78641,30.5532028,-97.8423113
1909,South Highway 183,78641,30.5540138,-97.8427504
1909,South Highway 183,78641,30.5540661,-97.8425939
1909,South Highway 183,78641,30.5534343,-97.8427073
1909,South Highway 183,78641,30.5538332,-97.8428900
1909,South Highway 183,78641,30.5536350,-97.8427992
1909,South Highway 183,78641,30.5535890,-97.8427781
1909,South Highway 183,78641,30.5536911,-97.8428249
2091,South Highway 183,78641,30.5501691,-97.8424111
1820,Crystal Falls Parkway,78641,30.5447592,-97.8649535
651,North Highway 183,78641,30.5828557,-97.8590259
11880,West Hero Way,78641,30.5783682,-97.8705303
11880,West Hero Way,78641,30.5787469,-97.8704403
11880,West Hero Way,78641,30.5788813,-97.8700830
11880,West Hero Way,78641,30.5788250,-97.8696603
11880,West Hero Way,78641,30.5783817,-97.8694717
11880,West Hero Way,78641,30.5785489,-97.8698468
11880,West Hero Way,78641,30.5786573,-97.8699729
11880,West Hero Way,78641,30.5782966,-97.8698780
11892,West Hero Way,78641,30.5775351,-97.8705950
11892,West Hero Way,78641,30.5776126,-97.8706281
11892,West Hero Way,78641,30.5776891,-97.8706606
11894,West Hero Way,78641,30.5774234,-97.8709073
11894,West Hero Way,78641,30.5775416,-97.8709540
11894,West Hero Way,78641,30.5777087,-97.8710201
11880,West Hero Way,78641,30.5777611,-97.8701207
11880,West Hero Way,78641,30.5777843,-97.8700470
11880,West Hero Way,78641,30.5778700,-97.8702522
11880,West Hero Way,78641,30.5780369,-97.8701778
11880,West Hero Way,78641,30.5778824,-97.8697196
11880,West Hero Way,78641,30.5779116,-97.8696329
11880,West Hero Way,78641,30.5779752,-97.8694441
11880,West Hero Way,78641,30.5780107,-97.8693386
11840,West Hero Way,78641,30.5789167,-97.8693638
11520,West Hero Way,78641,30.5797197,-97.8641680
11520,West Hero Way,78641,30.5797748,-97.8641905
11520,West Hero Way,78641,30.5798212,-97.8642094
11520,West Hero Way,78641,30.5798489,-97.8642207
11520,West Hero Way,78641,30.5798768,-97.8642321
11520,West Hero Way,78641,30.5799062,-97.8642441
11520,West Hero Way,78641,30.5799369,-97.8642566
11520,West Hero Way,78641,30.5800123,-97.8642873
11520,West Hero Way,78641,30.5799781,-97.8642734
300,North Bagdad Road,78641,30.5742767,-97.8706952
300,North Bagdad Road,78641,30.5743413,-97.8704654
300,North Bagdad Road,78641,30.5744024,-97.8702483
200,North Bagdad Road,78641,30.5736113,-97.8704089
190,North Bagdad Road,78641,30.5731671,-97.8696741
190,North Bagdad Road,78641,30.5736227,-97.8691044
190,North Bagdad Road,78641,30.5738122,-97.8685826
190,North Bagdad Road,78641,30.5732910,-97.8688426
190,North Bagdad Road,78641,30.5735183,-97.8684606
1501,Leander Dr,78641,30.5608492,-97.8420359
1501,Leander Dr,78641,30.5607740,-97.8422774
1501,Leander Dr,78641,30.5606963,-97.8425273
1501,Leander Dr,78641,30.5601723,-97.8441946
1501,Leander Dr,78641,30.5602490,-97.8439552
1309,Leander Dr,78641,30.5619986,-97.8425290
1309,Leander Dr,78641,30.5619717,-97.8426201
1309,Leander Dr,78641,30.5617018,-97.8423631
1309,Leander Dr,78641,30.5616713,-97.8424623
1309,Leander Dr,78641,30.5618567,-97.8429863
1309,Leander Dr,78641,30.5618830,-97.8428993
1309,Leander Dr,78641,30.5617952,-97.8431662
1309,Leander Dr,78641,30.5617554,-97.8432906
1309,Leander Dr,78641,30.5613464,-97.8434934
1309,Leander Dr,78641,30.5613001,-97.8436464
1309,Leander Dr,78641,30.5616479,-97.8436389
1309,Leander Dr,78641,30.5616098,-97.8437661
1309,Leander Dr,78641,30.5612411,-97.8438287
1309,Leander Dr,78641,30.5611941,-97.8439859
1309,Leander Dr,78641,30.5615491,-97.8439661
1309,Leander Dr,78641,30.5615465,-97.8439775
1309,Leander Dr,78641,30.5614535,-97.8442590
1309,Leander Dr,78641,30.5614307,-97.8443364
1309,Leander Dr,78641,30.5611376,-97.8441619
1309,Leander Dr,78641,30.5611078,-97.8442716
1309,Leander Dr,78641,30.5612925,-97.8447886
706,Leander Dr,78641,30.5702821,-97.8449823
706,Leander Dr,78641,30.5703254,-97.8448484
300,Hazelwood Street,78641,30.5704079,-97.8460762
306,Hazelwood Street,78641,30.5707972,-97.8450377
304,Hazelwood Street,78641,30.5705204,-97.8453572
308,Hazelwood Street,78641,30.5706997,-97.8447261
308,Hazelwood Street,78641,30.5707503,-97.8447469
308,Hazelwood Street,78641,30.5708604,-97.8447925
10181,East Crystal Falls Parkway,78641,30.5586586,-97.8436080
12201,West Hero Way,78641,30.5759094,-97.8723391
107,South West Drive,78641,30.5769897,-97.8561691
107,South West Drive,78641,30.5769962,-97.8558171
106,West Willis Street,78641,30.5791082,-97.8539390
303,North Highway 183,78641,30.5808073,-97.8542851
303,North Highway 183,78641,30.5807426,-97.8542603
207,North Highway 183,78641,30.5802680,-97.8539815
651,North Highway 183,78641,30.5854207,-97.8570049
2701,South Highway 183,78641,30.5441319,-97.8407237
2701,South Highway 183,78641,30.5442295,-97.8407511
2701,South Highway 183,78641,30.5441382,-97.8409789
2501,South Bagdad Road,78641,30.5436192,-97.8514671
2501,South Bagdad Road,78641,30.5436667,-97.8514786
2701,South Highway 183,78641,30.5441651,-97.8409054
2405,South Highway 183,78641,30.5467597,-97.8419285
2405,South Highway 183,78641,30.5468738,-97.8419686
2405,South Highway 183,78641,30.5468382,-97.8419561
2403,South Highway 183,78641,30.5470844,-97.8420681
2403,South Highway 183,78641,30.5471278,-97.8420835
2403,South Highway 183,78641,30.5471882,-97.8421048
2403,South Highway 183,78641,30.5472389,-97.8421228
7696,183A Toll Road,78641,30.5663396,-97.8236503
7696,183A Toll Road,78641,30.5663517,-97.8236094
7696,183A Toll Road,78641,30.5664262,-97.8227136
7696,183A Toll Road,78641,30.5671029,-97.8229248
7696,183A Toll Road,78641,30.5670480,-97.8229047
7696,183A Toll Road,78641,30.5669083,-97.8233687
7696,183A Toll Road,78641,30.5669793,-97.8233968
7696,183A Toll Road,78641,30.5667957,-97.8238441
7696,183A Toll Road,78641,30.5665365,-97.8232124
7696,183A Toll Road,78641,30.5665763,-97.8232286
7696,183A Toll Road,78641,30.5665977,-97.8232373
7696,183A Toll Road,78641,30.5663812,-97.8231092
7696,183A Toll Road,78641,30.5663050,-97.8230790
7696,183A Toll Road,78641,30.5661623,-97.8225901
7696,183A Toll Road,78641,30.5661779,-97.8225392
7696,183A Toll Road,78641,30.5660964,-97.8228051
7696,183A Toll Road,78641,30.5660431,-97.8229787
7696,183A Toll Road,78641,30.5660168,-97.8230643
7696,183A Toll Road,78641,30.5660277,-97.8230288
12681,Hero Way West,78641,30.5731137,-97.8816873
1640,Highland Falls Drive,78641,30.5675815,-97.8108208
1640,Highland Falls Drive,78641,30.5675995,-97.8107615
1640,Highland Falls Drive,78641,30.5676214,-97.8106897
1640,Highland Falls Drive,78641,30.5673027,-97.8105486
1640,Highland Falls Drive,78641,30.5672477,-97.8107222
1640,Highland Falls Drive,78641,30.5672245,-97.8107955
1640,Highland Falls Drive,78641,30.5671303,-97.8110931
1640,Highland Falls Drive,78641,30.5671103,-97.8111560
1640,Highland Falls Drive,78641,30.5675443,-97.8109403
1640,Highland Falls Drive,78641,30.5675249,-97.8110061
1640,Highland Falls Drive,78641,30.5675054,-97.8110726
1640,Highland Falls Drive,78641,30.5679101,-97.8109445
1640,Highland Falls Drive,78641,30.5678532,-97.8111335
1640,Highland Falls Drive,78641,30.5678292,-97.8112136
1640,Highland Falls Drive,78641,30.5677923,-97.8113362
1640,Highland Falls Drive,78641,30.5677697,-97.8114114
10960,East Crystal Falls Parkway,78641,30.5679667,-97.8059490
10960,East Crystal Falls Parkway,78641,30.5679133,-97.8061534
10960,East Crystal Falls Parkway,78641,30.5678744,-97.8062547
10960,East Crystal Falls Parkway,78641,30.5678419,-97.8063423
10960,East Crystal Falls Parkway,78641,30.5684115,-97.8064003
10960,East Crystal Falls Parkway,78641,30.5682176,-97.8063208
10960,East Crystal Falls Parkway,78641,30.5688501,-97.8064460
10960,East Crystal Falls Parkway,78641,30.5688183,-97.8065468
10824,East Crystal Falls Parkway,78641,30.5652301,-97.8176762
10824,East Crystal Falls Parkway,78641,30.5652078,-97.8177510
10824,East Crystal Falls Parkway,78641,30.5653161,-97.8173880
10824,East Crystal Falls Parkway,78641,30.5651008,-97.8180952
10824,East Crystal Falls Parkway,78641,30.5650825,-97.8181544
10824,East Crystal Falls Parkway,78641,30.5650572,-97.8182364
10824,East Crystal Falls Parkway,78641,30.5651452,-97.8179515
10824,East Crystal Falls Parkway,78641,30.5651684,-97.8178764
10824,East Crystal Falls Parkway,78641,30.5652507,-97.8176070
10824,East Crystal Falls Parkway,78641,30.5656880,-97.8174533
10824,East Crystal Falls Parkway,78641,30.5657099,-97.8173815
10824,East Crystal Falls Parkway,78641,30.5656656,-97.8175267
10824,East Crystal Falls Parkway,78641,30.5656195,-97.8176781
10824,East Crystal Falls Parkway,78641,30.5655523,-97.8178985
149,South Bagdad Road,78641,30.5712228,-97.8708894
2006,South Bagdad Road,78641,30.5480633,-97.8521404
2006,South Bagdad Road,78641,30.5480130,-97.8521162
2006,South Bagdad Road,78641,30.5481110,-97.8521633
2006,South Bagdad Road,78641,30.5481321,-97.8521734
2006,South Bagdad Road,78641,30.5481583,-97.8521861
2006,South Bagdad Road,78641,30.5482620,-97.8522359
2006,South Bagdad Road,78641,30.5483675,-97.8522866
2006,South Bagdad Road,78641,30.5484127,-97.8523083
2006,South Bagdad Road,78641,30.5484674,-97.8523346
2521,Rifleman Cove,78641,30.5327928,-97.8783069
651,North Highway 183,78641,30.5839927,-97.8573982
821,North Highway 183,78641,30.5864603,-97.8570837
821,North Highway 183,78641,30.5865728,-97.8571296
1910,South Bagdad Road,78641,30.5495646,-97.8528003
1910,South Bagdad Road,78641,30.5495965,-97.8527118
1910,South Bagdad Road,78641,30.5495060,-97.8529632
1908,South Bagdad Road,78641,30.5496852,-97.8530543
1908,South Bagdad Road,78641,30.5497103,-97.8529821
1908,South Bagdad Road,78641,30.5497419,-97.8528912
1906,South Bagdad Road,78641,30.5500687,-97.8530533
1904,South Bagdad Road,78641,30.5502507,-97.8533972
1904,South Bagdad Road,78641,30.5502113,-97.8534688
2961,Greatwood Trail,78641,30.6065164,-97.9080879
19348,Ronald Reagan Boulevard,78628,30.6326561,-97.8245781
7200,Ranch Road 2243,78628,30.5961502,-97.8017383
1300,South Bagdad Road,78641,30.5573218,-97.8590691
651,North Highway 183,78641,30.5829619,-97.8587599
665,North Bagdad Road,78641,30.5794549,-97.8738805
1880,Crystal Falls Parkway,78641,30.5450749,-97.8670760
1880,Crystal Falls Parkway,78641,30.5451673,-97.8671283
541,North Bagdad Road,78641,30.5776762,-97.8731297
3501,North Lakeline Boulevard,78641,30.5435973,-97.8657387
285,CR 175,78641,30.5896535,-97.7986486
19348,Ronald W Reagan Boulevard,78628,30.6331917,-97.8245034
631,CR 175,78641,30.5886313,-97.7929043
17520,Ronald W Reagan Boulevard,78641,30.5929420,-97.8110384
16760,Ronald W Reagan Boulevard,78641,30.5802298,-97.8051242
19344,Ronald W Reagan Boulevard,78628,30.6328974,-97.8264235
19372,Ronald W Reagan Boulevard,78628,30.6343243,-97.8261159
19372,Ronald W Reagan Boulevard,78628,30.6348609,-97.8261535
19372,Ronald W Reagan Boulevard,78628,30.6353717,-97.8261310
19372,Ronald W Reagan Boulevard,78628,30.6356626,-97.8261235
19372,Ronald W Reagan Boulevard,78628,30.6360763,-97.8261685
8760,Ranch to Market 2243,78641,30.5854807,-97.8239707
10824,East Crystal Falls Parkway,78641,30.5656592,-97.8178010
11620,Hero Way West,78641,30.5795652,-97.8650388
11620,Hero Way West,78641,30.5794586,-97.8653506
11620,Hero Way West,78641,30.5794295,-97.8654358
11620,Hero Way West,78641,30.5793798,-97.8655981
11620,Hero Way West,78641,30.5793561,-97.8656746
11620,Hero Way West,78641,30.5793312,-97.8657549
11620,Hero Way West,78641,30.5792815,-97.8659151
11620,Hero Way West,78641,30.5793003,-97.8658545
11620,Hero Way West,78641,30.5792569,-97.8659943
1800,Horizon Park Boulevard,78641,30.5590895,-97.8356906
410,South West Drive,78641,30.5734872,-97.8525618
2000,Crystal Falls Parkway,78641,30.5474606,-97.8702046
2100,Pow Wow,78641,30.5379427,-97.8654661
800,Deercreek Lane,78641,30.5794217,-97.8793710
3301,South Bagdad Road,78641,30.5365057,-97.8526786
1001,North Creek Drive,78641,30.5808182,-97.8721232
601,South Bagdad Road,78641,30.5656653,-97.8672919
808,Birch Brook Lane,78641,30.5629389,-97.8337965
900,Osage Drive,78641,30.5408327,-97.8506191
201,North Highway 183,78641,30.5797398,-97.8537660
101,North Highway 183,78641,30.5787848,-97.8532015
101,South Highway 183,78641,30.5781951,-97.8531605
211,South Highway 183,78641,30.5764911,-97.8523481
301,South Highway 183,78641,30.5761047,-97.8521973
305,South Highway 183,78641,30.5756929,-97.8520274
307,South Highway 183,78641,30.5754491,-97.8519605
707,South Highway 183,78641,30.5690492,-97.8495143
107,Sonny Drive,78641,30.5687870,-97.8502647
105,Sonny Drive,78641,30.5688796,-97.8499963
105,Sonny Drive,78641,30.5689508,-97.8498680
801,South Highway 183,78641,30.5681018,-97.8491138
809,South US Highway 183,78641,30.5674397,-97.8486190
901,South Highway 183,78641,30.5669988,-97.8484493
905,South Highway 183,78641,30.5666820,-97.8483836
1809,South Highway 183,78641,30.5558377,-97.8436106
2505,South Highway 183,78641,30.5457903,-97.8414068
2601,South Highway 183,78641,30.5453174,-97.8412040
2607,South Highway 183,78641,30.5447583,-97.8410054
2801,South Highway 183,78641,30.5439409,-97.8405106
1912,South Bagdad Road,78641,30.5492129,-97.8527643
10201,R.M. 2243,78641,30.5804404,-97.8410557
201,North Brushy Street,78641,30.5793860,-97.8547082
105,North Brushy Street,78641,30.5787755,-97.8546515
310,Crystal Falls Parkway,78641,30.5564042,-97.8478785
300,Crystal Falls Parkway,78641,30.5561551,-97.8464653
105,West Willis Street,78641,30.5796047,-97.8540522
406,Municipal Drive,78641,30.5734580,-97.8553027
409,South West Drive,78641,30.5732024,-97.8542939
309,North Highway 183,78641,30.5811098,-97.8544002
905,Crystal Falls Parkway,78641,30.5526331,-97.8557385
600,Crystal Falls Parkway,78641,30.5553423,-97.8513084
3400,North Lakeline Boulevard,78641,30.5419095,-97.8624665
2802,South Bagdad Road,78641,30.5398829,-97.8484433
2201,South Highway 183,78641,30.5495727,-97.8424353
2101,South Highway 183,78641,30.5499113,-97.8420803
3400,Crystal Falls Parkway,78641,30.5349018,-97.8835603
302,North Bagdad Road,78641,30.5747494,-97.8705927
1105,Leander Dr,78641,30.5642903,-97.8452315
202,North Brushy Street,78641,30.5796250,-97.8542674
303,Sonny Drive,78641,30.5686291,-97.8524270
1006,South Highway 183,78641,30.5661664,-97.8457333
1007,Leander Dr,78641,30.5657853,-97.8451100
10303,East Crystal Falls Parkway,78641,30.5593559,-97.8409396
10205,East Crystal Falls Parkway,78641,30.5592076,-97.8423866
10200,East Crystal Falls Parkway,78641,30.5578415,-97.8427623
10709,East Crystal Falls Parkway,78641,30.5618048,-97.8328302
1000,South West Drive,78641,30.5648481,-97.8515234
1111,South Highway 183,78641,30.5635032,-97.8471643
17514,Farm-to-Market Road 1431,78641,30.5178129,-97.8889294
1222,Raider Way,78641,30.5705772,-97.8182666
1495,South Highway 183,78641,30.5585781,-97.8470003
1245,South Highway 183,78641,30.5619260,-97.8483082
651,US 183,78641,30.5833585,-97.8557459
651,North Highway 183,78641,30.5823974,-97.8580918
10960,East Crystal Falls Parkway,78641,30.5685071,-97.8063576
3101,North Lakeline Boulevard,78641,30.5363945,-97.8618828
2702,South Bagdad Road,78641,30.5413437,-97.8484892
500,Crystal Falls Parkway,78641,30.5557875,-97.8495539
101,East Sonny Drive,78641,30.5695119,-97.8478580
1545,South Highway 183,78641,30.5596283,-97.8454998
309,Crystal Falls Parkway,78641,30.5572447,-97.8481888
1445,South Highway 183,78641,30.5603533,-97.8457863
1695,South Highway 183,78641,30.5583499,-97.8449984
400,Crystal Falls Parkway,78641,30.5562291,-97.8486058
709,South Bagdad Road,78641,30.5645553,-97.8649990
11255,Hero Way West,78641,30.5806473,-97.8584790
500,Bagdad Road,78641,30.5776060,-97.8718203
12201,West Hero Way,78641,30.5759065,-97.8723363
1001,Crystal Falls Parkway,78641,30.5513749,-97.8561445
1950,Crystal Falls Parkway,78641,30.5466912,-97.8682556
10000,FM 2243,78641,30.5836457,-97.8408220
3520,Barley Rd,78641,30.5594409,-97.7907082
11450,Old 2243 West,78641,30.5807730,-97.8632448
1100,Halsey Drive,78641,30.5892214,-97.8737059
3000,North Lakeline Boulevard,78641,30.5344573,-97.8590737
1350,Calla Lilly Boulevard,78641,30.5660170,-97.8298632
651,North Highway 183,78641,30.5832712,-97.8554940
1291,Woodview Drive,78641,30.5717517,-97.8287773
3005,County Road 175,78641,30.5631676,-97.7616248
808,Teal Lane,78641,30.5667683,-97.8603044
106,West Willis Street,78641,30.5791776,-97.8540175
1461,E woodview dr,78641,30.5780400,-97.8283265
8220,183A Toll Road Frontage Road,78641,30.5769390,-97.8279675
1101,High Lonesome,78641,30.5319890,-97.8885510
1508,High Lonesome,78641,30.5372315,-97.8986955
1800,High Lonesome,78641,30.5424620,-97.9015785
19904,Apple Springs Drive,78641,30.5678245,-97.8993825
3307,Crystal Falls Parkway,78641,30.5371865,-97.8838535
3500,Pumpkin Ridge,78641,30.5394955,-97.8966170
1617,High Lonesome,78641,30.5405100,-97.9004490
1701,High Lonesome,78641,30.5410520,-97.9005695
1418,Mirador,78641,30.5349825,-97.8894710
1304,Ventana Canyon,78641,30.5399740,-97.8879545
500,La Costa,78641,30.5508045,-97.8775800
1401,Camelback,78641,30.5360030,-97.8919035
1402,Camelback,78641,30.5375495,-97.8924350
1317,Pasa Tiempo,78641,30.5372375,-97.8895845
1304,Lions Lair,78641,30.5444070,-97.9030860
1817,Harvest Dance Drive,78641,30.5444375,-97.8781985
2025,Coronado Spyglass Hill,78641,30.5432630,-97.8936280
2012,Palos Verdes,78641,30.5448220,-97.8888665
3801,Panther Hall,78641,30.5450340,-97.9049190
919,Palos Verdes,78641,30.5497725,-97.8840215
1813,Harvest Dance Drive,78641,30.5442420,-97.8783565
1801,High Lonesome,78641,30.5426710,-97.9005460
2011,Coronado Spyglass Hill,78641,30.5461070,-97.8916235
925,Palos Verdes,78641,30.5479170,-97.8836860
1303,Ventana Canyon,78641,30.5407790,-97.8862845
2010,Coronado Spyglass Hill,78641,30.5454350,-97.8908285
2006,Coronado Spyglass Hill,78641,30.5462540,-97.8904930
922,Palos Verdes,78641,30.5497050,-97.8856880
1701,Mira Vista,78641,30.5496045,-97.8748075
2014,Coronado Spyglass Hill,78641,30.5446855,-97.8913480
2032,Coronado Spyglass Hill,78641,30.5404390,-97.8933245
1322,Pasa Tiempo,78641,30.5389980,-97.8895980
3507,Bachelor Gulch,78641,30.5389875,-97.8997225
3712,Medicine Hat,78641,30.5460785,-97.9053160
1604,High Lonesome,78641,30.5390080,-97.9008195
924,Palos Verdes,78641,30.5492140,-97.8853570
3602,Lajitas,78641,30.5326345,-97.8912825
2805,Crystal Falls Parkway,78641,30.5458190,-97.8823305
1314,Pasa Tiempo,78641,30.5375835,-97.8884700
2020,Coronado Spyglass Hill,78641,30.5435935,-97.8923395
2019,Coronado Spyglass Hill,78641,30.5443660,-97.8926320
926,Palos Verdes,78641,30.5485445,-97.8851500
3700,Medicine Hat,78641,30.5461260,-97.9037995
2009,Palos Verdes,78641,30.5452845,-97.8893725
2021,Coronado Spyglass Hill,78641,30.5440775,-97.8929505
2401,Crystal Falls Parkway,78641,30.5493360,-97.8754725
2015,Coronado Spyglass Hill,78641,30.5452105,-97.8919230
3608,Lajitas,78641,30.5314930,-97.8919395
1413,Roaring Fork,78641,30.5344910,-97.8962770
929,Palos Verdes,78641,30.5467790,-97.8840775
1403,Roaring Fork,78641,30.5326085,-97.8963655
3502,Bachelor Gulch,78641,30.5398215,-97.8978910
2403,Crystal Falls Parkway,78641,30.5490950,-97.8758010
1316,Pasa Tiempo,78641,30.5378145,-97.8888675
1500,El Cielo,78641,30.5412255,-97.8962790
1309,Roaring Fork,78641,30.5312710,-97.8950985
3600,Fandango,78641,30.5366395,-97.8959985
1017,La Cantera,78641,30.5508480,-97.8879740
1400,High Lonesome,78641,30.5350485,-97.8940355
2009,Coronado Spyglass Hill,78641,30.5465200,-97.8913555
3600,Lajitas,78641,30.5328605,-97.8908555
931,Palos Verdes,78641,30.5471420,-97.8856750
930,Palos Verdes,78641,30.5475185,-97.8872690
1310,Pasa Tiempo,78641,30.5371025,-97.8873970
2001,Coronado Spyglass Hill,78641,30.5482000,-97.8901725
1414,Roaring Fork,78641,30.5345245,-97.8973240
1324,Pasa Tiempo,78641,30.5386765,-97.8900920
2013,Coronado Spyglass Hill,78641,30.5456085,-97.8917130
2407,Crystal Falls Parkway,78641,30.5488505,-97.8767050
1005,La Cantera,78641,30.5485830,-97.8888625
1311,Roaring Fork,78641,30.5315835,-97.8954045
3205,Crystal Falls Parkway,78641,30.5391170,-97.8830425
1406,Roaring Fork,78641,30.5331325,-97.8976075
3207,Crystal Falls Parkway,78641,30.5387130,-97.8830265
1600,High Lonesome,78641,30.5387970,-97.9004750
2008,Coronado Spyglass Hill,78641,30.5458215,-97.8907140
1306,Roaring Fork,78641,30.5304640,-97.8955845
2016,Coronado Spyglass Hill,78641,30.5443285,-97.8916855
1312,Pasa Tiempo,78641,30.5373000,-97.8878170
1308,Lions Lair,78641,30.5440665,-97.9030575
1016,La Cantera,78641,30.5512825,-97.8879795
1409,Roaring Fork,78641,30.5336340,-97.8968275
1703,Mira Vista,78641,30.5500255,-97.8746605
1200,Lions Lair,78641,30.5460405,-97.9030785
3501,Pumpkin Ridge,78641,30.5389500,-97.8970585
2017,Coronado Spyglass Hill,78641,30.5448030,-97.8923350
1820,High Lonesome,78641,30.5447845,-97.9016200
2030,Coronado Spyglass Hill,78641,30.5409835,-97.8936560
3507,Lajitas,78641,30.5352065,-97.8906360
1312,Lions Lair,78641,30.5436650,-97.9029610
1828,High Lonesome,78641,30.5457150,-97.9016380
2907,Crystal Falls Parkway,78641,30.5439470,-97.8833940
1401,High Lonesome,78641,30.5356125,-97.8932665
1708,High Lonesome,78641,30.5418320,-97.9016445
1103,High Lonesome,78641,30.5323805,-97.8887805
3500,Sky Kiss,78641,30.5459600,-97.9004440
921,Palos Verdes,78641,30.5489705,-97.8838050
1501,High Lonesome,78641,30.5381530,-97.8978445
2045,Coronado Spyglass Hill,78641,30.5386430,-97.8932915
3501,High Horse,78641,30.5435370,-97.8991715
2903,Crystal Falls Parkway,78641,30.5447375,-97.8830195
1300,Ventana Canyon,78641,30.5393180,-97.8865170
918,Palos Verdes,78641,30.5505710,-97.8860810
3713,Lajitas,78641,30.5336360,-97.8936885
1302,Ventana Canyon,78641,30.5398105,-97.8874960
1105,Sidewinder,78641,30.5454120,-97.9079985
1502,High Lonesome,78641,30.5376045,-97.8974075
1209,Sidewinder,78641,30.5430210,-97.9062000
3603,Fandango,78641,30.5370210,-97.8969610
1403,Camelback,78641,30.5370190,-97.8910850
2405,Crystal Falls Parkway,78641,30.5489120,-97.8762535
3809,Panther Hall,78641,30.5451030,-97.9059825
1514,High Lonesome,78641,30.5382030,-97.8998905
1516,High Lonesome,78641,30.5385800,-97.9001680
1824,High Lonesome,78641,30.5452245,-97.9016680
1510,High Lonesome,78641,30.5374085,-97.8994050
1913,High Lonesome,78641,30.5488045,-97.9015845
1305,Ventana Canyon,78641,30.5412980,-97.8870520
1104,Lions Lair,78641,30.5476500,-97.9025140
917,Palos Verdes,78641,30.5505325,-97.8848440
927,Palos Verdes,78641,30.5475745,-97.8840105
2029,Palos Verdes,78641,30.5404815,-97.8917635
1010,La Cantera,78641,30.5486345,-97.8901645
3503,Pumpkin Ridge,78641,30.5385535,-97.8967950
1305,Pasa Tiempo,78641,30.5360410,-97.8873780
2703,Crystal Falls Parkway,78641,30.5478780,-97.8815210
2039,Coronado Spyglass Hill,78641,30.5400410,-97.8949870
3716,Lajitas,78641,30.5338875,-97.8956235
2020,Palos Verdes,78641,30.5420925,-97.8899080
923,Palos Verdes,78641,30.5485045,-97.8837735
3610,Lajitas,78641,30.5312070,-97.8923560
1402,Roaring Fork,78641,30.5324725,-97.8973130
1506,High Lonesome,78641,30.5373685,-97.8983100
1408,Lions Lair,78641,30.5424675,-97.9031490
3800,Medicine Hat,78641,30.5461600,-97.9057475
1400,Camelback,78641,30.5363390,-97.8923845
1612,High Lonesome,78641,30.5396520,-97.9014665
3309,Crystal Falls Parkway,78641,30.5368195,-97.8839630
2041,Coronado Spyglass Hill,78641,30.5396910,-97.8942410
1302,High Lonesome,78641,30.5339125,-97.8931775
3603,Lajitas,78641,30.5332525,-97.8919655
2803,Crystal Falls Parkway,78641,30.5461490,-97.8822305
3720,Lajitas,78641,30.5346365,-97.8952825
3800,Panther Hall,78641,30.5441440,-97.9048625
1704,High Lonesome,78641,30.5414525,-97.9016845
1108,Lions Lair,78641,30.5472880,-97.9027160
1905,High Lonesome,78641,30.5479675,-97.9012810
1901,High Lonesome,78641,30.5475505,-97.9010640
3719,Lajitas,78641,30.5346430,-97.8948245
3103,Crystal Falls Parkway,78641,30.5415325,-97.8835195
1301,Roaring Fork,78641,30.5297655,-97.8937960
1581,CR 176,78628,30.5819160,-97.7765550
1815,Vintage Drive,78641,30.5596740,-97.8288890
2244,Grand Lake Parkway,78641,30.5616202,-97.8078029
4181,North Highway 183,78641,30.5956248,-97.8614275
201,Bagdad Street,78641,30.5790745,-97.8556115
104,North Brushy Street,78641,30.5789245,-97.8538840
104,West Willis Street,78641,30.5792480,-97.8538099
107,North Highway 183,78641,30.5790374,-97.8534420
304,West Willis Street,78641,30.5785224,-97.8560191
204,North Brushy Street,78641,30.5797524,-97.8543050
1200,South Bagdad Road,78641,30.5593850,-97.8602910
1304,South Bagdad Road,78717,30.5576037,-97.8593922
1807,South Highway 183,78641,30.5561315,-97.8436525
2500,South Bagdad Road,78641,30.5436645,-97.8503744
2400,South Bagdad Road,78641,30.5443280,-97.8505660
1214,Calla Lilly Boulevard,78641,30.5686445,-97.8306245
105,Spring Hollow Drive,78641,30.5657355,-97.8328080
907,Ridgewood Drive,78641,30.5636130,-97.8323585
1028,Water Hyssop,78641,30.5636545,-97.8290420
1003,Cedarridge Court,78641,30.5671735,-97.8338890
1006,Mapleridge Circle,78641,30.5685410,-97.8340065
1008,Ridgebluff Circle,78641,30.5663000,-97.8329375
937,Water Hyacinth Loop,78641,30.5655680,-97.8311310
1000,Cedarridge Court,78641,30.5666750,-97.8338850
1001,Calla Lilly Cove,78641,30.5663325,-97.8315115
1006,Oakridge Cove,78641,30.5677065,-97.8336545
1001,Cedarridge Court,78641,30.5670880,-97.8340555
944,Water Hyacinth Loop,78641,30.5651215,-97.8309725
921,Lilly Pad,78641,30.5647690,-97.8310360
904,Rosemont Court,78641,30.5639195,-97.8327545
1517,Lotus Flower,78641,30.5635985,-97.8314100
1052,Water Hyssop,78641,30.5646600,-97.8289700
1320,Calla Lilly Boulevard,78641,30.5670845,-97.8300430
1308,Calla Lilly Boulevard,78641,30.5675510,-97.8301455
1021,Lilly Pad,78641,30.5647735,-97.8296565
1013,Lilly Pad,78641,30.5647040,-97.8299950
936,Water Hyacinth Loop,78641,30.5650415,-97.8313305
1137,Lilly Pad,78641,30.5651475,-97.8296235
1529,Lotus Flower,78641,30.5630690,-97.8311800
1213,Ridgewood Drive,78641,30.5659775,-97.8341020
833,Water Hyacinth Loop,78641,30.5666545,-97.8317460
905,Ridgemont Circle,78641,30.5636000,-97.8325850
903,Ridgerock Cove,78641,30.5626595,-97.8324550
805,Water Hyacinth Loop,78641,30.5667635,-97.8307185
1004,Cedarridge Court,78641,30.5667350,-97.8334845
864,Water Hyacinth Loop,78641,30.5661150,-97.8324545
1119,Ridgewood Drive,78641,30.5673060,-97.8346705
1005,Lilly Pad,78641,30.5647275,-97.8303340
103,Spring Hollow Drive,78641,30.5656295,-97.8330070
1003,Oakridge Cove,78641,30.5679985,-97.8342545
901,Ridgerock Cove,78641,30.5624565,-97.8325640
1008,Mapleridge Circle,78641,30.5687710,-97.8340080
904,Lilly Pad,78641,30.5640445,-97.8314065
912,Lilly Pad,78641,30.5642350,-97.8310720
902,Ridgemont Circle,78641,30.5630185,-97.8325735
933,Water Hyacinth Loop,78641,30.5654990,-97.8313160
1148,Water Hyssop,78641,30.5655195,-97.8299470
928,Water Hyacinth Loop,78641,30.5648890,-97.8316835
860,Water Hyacinth Loop,78641,30.5662500,-97.8325095
1104,Water Hyssop,78641,30.5649295,-97.8290445
1044,Water Hyssop,78641,30.5644100,-97.8288525
1124,Water Hyssop,78641,30.5656155,-97.8293275
801,Water Hyacinth Loop,78641,30.5667340,-97.8305680
1332,Calla Lilly Boulevard,78641,30.5666420,-97.8300860
1115,Ridgewood Drive,78641,30.5676225,-97.8347855
917,Lilly Pad,78641,30.5646770,-97.8312055
1000,Water Hyssop,78641,30.5633870,-97.8298680
1004,Oakridge Cove,78641,30.5675685,-97.8338385
1220,Calla Lilly Boulevard,78641,30.5684100,-97.8304905
1401,Ridgewood Drive,78641,30.5647810,-97.8332900
1209,Ridgewood Drive,78641,30.5662895,-97.8342325
1003,Ridgebluff Circle,78641,30.5663295,-97.8335315
1005,Oakridge Cove,78641,30.5680815,-97.8340940
904,Ridgerock Cove,78641,30.5622185,-97.8320080
1002,Cedarridge Court,78641,30.5667210,-97.8337085
1002,Mapleridge Circle,78641,30.5683650,-97.8344100
821,Water Hyacinth Loop,78641,30.5667825,-97.8312430
1521,Lotus Flower,78641,30.5633695,-97.8313525
1004,Spring Hollow Drive,78641,30.5653680,-97.8324390
1141,Water Hyssop Loop,78641,30.5650990,-97.8297840
900,Rosemont Court,78641,30.5639365,-97.8331890
1108,Water Hyssop,78641,30.5650510,-97.8291100
903,Ridgemont Circle,78641,30.5635065,-97.8328150
1006,Cedarridge Court,78641,30.5668725,-97.8332915
902,Rosemont Court,78641,30.5638575,-97.8329415
1016,Calla Lilly Cove,78641,30.5659405,-97.8308450
905,Rosemont Court,78641,30.5644480,-97.8329635
1004,Mapleridge Circle,78641,30.5683855,-97.8341990
1103,Ridgewood Drive,78641,30.5685450,-97.8351755
1024,Water Hyssop,78641,30.5636205,-97.8291770
1301,Ridgewood Drive,78641,30.5658250,-97.8340365
1005,Calla Lilly Cove,78641,30.5664410,-97.8313715
1017,Calla Lilly Cove,78641,30.5663945,-97.8307995
1020,Calla Lilly Cove,78641,30.5659465,-97.8306585
920,Water Hyacinth Loop,78641,30.5650425,-97.8320550
1205,Ridgewood Drive,78641,30.5665940,-97.8343590
1008,Calla Lilly Cove,78641,30.5658910,-97.8312260
1560,Lotus Flower,78641,30.5631475,-97.8303885
1403,Ridgewood Drive,78641,30.5646475,-97.8331620
1112,Water Hyssop,78641,30.5651745,-97.8291845
1002,Oakridge Cove,78641,30.5675390,-97.8340500
1153,Water Hyssop,78641,30.5650505,-97.8301320
901,Rosemont Court,78641,30.5641700,-97.8333010
1005,Cedarridge Court,78641,30.5672625,-97.8337150
825,Water Hyacinth Loop,78641,30.5667390,-97.8314115
913,Water Hyacinth Loop,78641,30.5654400,-97.8315840
904,Ridgemont Circle,78641,30.5630940,-97.8323685
1117,Ridgewood Drive,78641,30.5674675,-97.8347095
1201,Ridgewood Drive,78641,30.5669070,-97.8344895
1111,Ridgewood Drive,78641,30.5679265,-97.8349120
1211,Ridgewood Drive,78641,30.5661375,-97.8341575
1025,Lilly Pad,78641,30.5648290,-97.8295030
900,Ridgemont Circle,78641,30.5631170,-97.8328660
1101,Ridgewood Drive,78641,30.5686995,-97.8352385
1001,Oakridge Cove,78641,30.5679145,-97.8344220
903,Spring Hollow Drive,78641,30.5651325,-97.8335815
1003,Mapleridge Circle,78641,30.5688170,-97.8346005
1308,Ridgewood Drive,78641,30.5654745,-97.8332390
1004,Lilly Pad,78641,30.5642740,-97.8302000
1145,Water Hyssop,78641,30.5650630,-97.8299575
900,Ridgerock Cove,78641,30.5622625,-97.8324730
1203,Ridgewood Drive,78641,30.5667550,-97.8344205
1004,Ridgebluff Circle,78641,30.5659070,-97.8331455
1109,Ridgewood Drive,78641,30.5680860,-97.8349715
906,Ridgerock Cove,78641,30.5623530,-97.8318270
1606,Ridgewood Drive,78641,30.5622765,-97.8312705
1007,Ridgebluff Circle,78641,30.5664405,-97.8331280
816,Water Hyacinth Loop,78641,30.5672125,-97.8312215
916,Lilly Pad,78641,30.5643070,-97.8309095
1012,Lilly Pad,78641,30.5642440,-97.8298440
905,Lilly Pad,78641,30.5644825,-97.8317295
905,Ridgerock Cove,78641,30.5627455,-97.8322110
1106,Leander Dr,78641,30.5653350,-97.8430640
1505,Lotus Flower,78641,30.5637700,-97.8309410
1602,Ridgewood Drive,78641,30.5624345,-97.8313145
1305,Ridgewood Drive,78641,30.5655015,-97.8338895
1008,Oakridge Cove,78641,30.5679490,-97.8336420
901,Spring Hollow Drive,78641,30.5650650,-97.8337435
1202,Leander Dr,78641,30.5646485,-97.8421565
1000,Mapleridge Circle,78641,30.5683220,-97.8345870
907,Ridgewood Drive,78641,30.5627605,-97.8320170
1000,Ridgebluff Circle,78641,30.5658390,-97.8335145
1113,Ridgewood Drive,78641,30.5677695,-97.8348660
906,Rosemont Court,78641,30.5640455,-97.8326165
1140,Water Hyssop,78641,30.5655995,-97.8298175
1105,Ridgewood Drive,78641,30.5683880,-97.8351275
1007,Mapleridge Circle,78641,30.5689345,-97.8341770
1007,Cedarridge Court,78641,30.5672760,-97.8334285
1503,Leander Drive,78641,30.5600911,-97.8423583
1307,Ridgewood Drive,78641,30.5653560,-97.8338400
107,Spring Hollow Drive,78641,30.5658205,-97.8326365
1008,Cedarridge Court,78641,30.5670905,-97.8332665
1007,Oakridge Cove,78641,30.5680915,-97.8338320
1001,Mapleridge Circle,78641,30.5687350,-97.8347765
1002,Spring Hollow Drive,78641,30.5652760,-97.8326280
10731,East Crystal Falls Parkway,78641,30.5640030,-97.8279350
1005,Mapleridge Circle,78641,30.5689335,-97.8344135
1040,Water Hyssop,78641,30.5642770,-97.8288090
1328,Calla Lilly Boulevard,78641,30.5668085,-97.8300875
900,Lilly Pad,78641,30.5641330,-97.8316140
905,Water Hyacinth Loop,78641,30.5656205,-97.8317255
812,Water Hyacinth Loop,78641,30.5672300,-97.8310405
1303,Ridgewood Drive,78641,30.5656675,-97.8339740
1009,Lilly Pad,78641,30.5646910,-97.8301675
1207,Ridgewood Drive,78641,30.5664420,-97.8343025
1029,Water Hyssop,78641,30.5640620,-97.8291835
932,Water Hyacinth Loop,78641,30.5649910,-97.8315110
903,Rosemont Court,78641,30.5643540,-97.8332070
804,Water Hyacinth Loop,78641,30.5671710,-97.8307275
1009,Calla Lilly Cove,78641,30.5664880,-97.8311365
909,Lilly Pad,78641,30.5646025,-97.8315935
869,Water Hyacinth Loop,78641,30.5661645,-97.8319090
1005,Ridgebluff Circle,78641,30.5664505,-97.8333550
1004,Calla Lilly Cove,78641,30.5659620,-97.8313845
901,Ridgemont Circle,78641,30.5632875,-97.8329540
872,Water Hyacinth Loop,78641,30.5658590,-97.8322985
1509,Lotus Flower,78641,30.5637840,-97.8311170
1019,Calla Lilly Cove,78641,30.5663745,-97.8306155
1306,Ridgewood Drive,78641,30.5656080,-97.8333440
1000,Oakridge Cove,78641,30.5675020,-97.8342360
940,Water Hyacinth Loop,78641,30.5650960,-97.8311585
1136,Water Hyssop,78641,30.5656665,-97.8296840
902,Ridgerock Cove,78641,30.5621520,-97.8322330
1002,Ridgebluff Circle,78641,30.5658800,-97.8333415
1224,Calla Lilly Boulevard,78641,30.5682735,-97.8304660
1107,Ridgewood Drive,78641,30.5682405,-97.8350560
924,Water Hyacinth Loop,78641,30.5648820,-97.8319165
813,Water Hyacinth Loop,78641,30.5667700,-97.8310370
1116,Water Hyssop,78641,30.5653090,-97.8292185
1036,Water Hyssop,78641,30.5641695,-97.8287345
1120,Water Hyssop,78641,30.5654575,-97.8292185
1100,Lilly Pad,78641,30.5642860,-97.8303700
1048,Water Hyssop,78641,30.5645375,-97.8288930
840,Water Hyacinth Loop,78641,30.5669710,-97.8321715
1501,Lotus Flower,78641,30.5638595,-97.8308080
841,Water Hyacinth Loop,78641,30.5665265,-97.8319270
836,Water Hyacinth Loop,78641,30.5670395,-97.8320390
1212,Calla Lilly Boulevard,78641,30.5688010,-97.8306190
1013,Calla Lilly Cove,78641,30.5664585,-97.8309580
913,Lilly Pad,78641,30.5646765,-97.8313870
901,Water Hyacinth Loop,78641,30.5657735,-97.8317490
908,Lilly Pad,78641,30.5640945,-97.8312065
1304,Calla Lilly Boulevard,78641,30.5676765,-97.8302145
1152,Water Hyssop,78641,30.5654975,-97.8300980
1006,Ridgebluff Circle,78641,30.5660695,-97.8329135
1012,Calla Lilly Cove,78641,30.5658975,-97.8310250
1513,Lotus Flower,78641,30.5637455,-97.8312920
1001,Ridgebluff Circle,78641,30.5662545,-97.8337030
1016,Lilly Pad,78641,30.5642920,-97.8296660
1017,Lilly Pad,78641,30.5647330,-97.8298200
829,Water Hyacinth Loop,78641,30.5667050,-97.8315635
1110,Leander Dr,78641,30.5652055,-97.8421505
1128,Water Hyssop,78641,30.5657155,-97.8294765
1024,Lilly Pad,78641,30.5644050,-97.8293370
925,Lilly Pad,78641,30.5647515,-97.8308315
873,Water Hyacinth Loop,78641,30.5659115,-97.8318205
916,Water Hyacinth Loop,78641,30.5652025,-97.8320760
1000,Calla Lilly Cove,78641,30.5661320,-97.8315250
1013,Water Hyssop,78641,30.5638880,-97.8297300
808,Water Hyacinth Loop,78641,30.5671820,-97.8308860
865,Water Hyacinth Loop,78641,30.5663050,-97.8319575
1008,Lilly Pad,78641,30.5642705,-97.8300320
10703,East Crystal Falls Parkway,78641,30.5616278,-97.8338829
941,Water Hyacinth Loop,78641,30.5655730,-97.8309235
1556,Lotus Flower,78641,30.5630575,-97.8305275
1017,Water Hyssop,78641,30.5639580,-97.8296055
1100,Water Hyssop,78641,30.5647900,-97.8290130
1525,Lotus Flower,78641,30.5632290,-97.8312420
832,Water Hyacinth Loop,78641,30.5670865,-97.8318815
809,Water Hyacinth Loop,78641,30.5667690,-97.8308825
1020,Lilly Pad,78641,30.5643715,-97.8295105
1552,Lotus Flower,78641,30.5630235,-97.8306770
10210,East Crystal Falls Parkway,78641,30.5580092,-97.8420385
2200,Union Street,78641,30.5502510,-97.8381980
2200,Union Street,78641,30.5503225,-97.8380153
1705,Mira Vista,78641,30.5502920,-97.8749430
1730,Union Street,78641,30.5581256,-97.8402888
502,La Costa,78641,30.5514875,-97.8773405
1709,Mira Vista,78641,30.5513765,-97.8756830
904,Palos Verdes,78641,30.5533610,-97.8800650
1712,Mira Vista,78641,30.5528115,-97.8767090
901,Palos Verdes,78641,30.5530695,-97.8785415
503,La Costa,78641,30.5511975,-97.8768575
2200,Crystal Falls Parkway,78641,30.5498300,-97.8723410
1714,Mira Vista,78641,30.5532690,-97.8773870
1611,Parkwood Drive,78641,30.5535943,-97.8602595
315,South West Drive,78641,30.5745299,-97.8553459
1320,Collaborative Way,78641,30.5984183,-97.8834434
7740,183A Toll Road,78641,30.5670354,-97.8252966
7740,183A Toll Road,78641,30.5681501,-97.8245959
1680,Hero Way,78641,30.5852296,-97.8482878
1751,Crystal Falls Parkway,78641,30.5460284,-97.8641453
3510,North Lakeline Boulevard,78641,30.5442778,-97.8633224
3804,Mineral Dr,78641,30.5617492,-97.7797189
607,Leander Drive,78641,30.5707842,-97.8472134
2906,South Bagdad Road,78641,30.5384658,-97.8481191
1195,Sonny Drive,78641,30.5609655,-97.8646035
1350,Sonny Drive,78641,30.5596711,-97.8650061
2689,Hero Way,78641,30.5875953,-97.8338945
2702,South Bagdad Road,78641,30.5410811,-97.8479166
202,Crystal Falls Parkway,78641,30.5563048,-97.8456069
2518,Pecan Creek Drive,78641,30.5640961,-97.7813486
3261,Barley Rd,78641,30.5622879,-97.7913344
3261,Barley Road,78641,30.5624657,-97.7910286
3441,North Lakeline Boulevard,78641,30.5430089,-97.8652297
1828,Crystal Falls Parkway,78641,30.5447924,-97.8655050
1305,Roaring Fork,78641,30.5305946,-97.8941928
1305,Roaring Fork,78641,30.5307106,-97.8943638
1105,South Highway 183,78641,30.5641009,-97.8474989
351,North Bagdad Road,78641,30.5751350,-97.8716964
11940,West Hero Way,78641,30.5775203,-97.8713504
15609,Ronald W Reagan Boulevard,78641,30.5642499,-97.8018378
15609,Ronald W Reagan Boulevard,78641,30.5633578,-97.8015847
15609,Ronald W Reagan Boulevard,78641,30.5642936,-97.8012246
15609,Ronald W Reagan Boulevard,78641,30.5630471,-97.8008694
7688,183A Toll Road,78641,30.5664137,-97.8241145
10741,East Crystal Falls Parkway,78641,30.5648123,-97.8244574
2423,Sauterne Drive,78641,30.5661419,-97.8890856
10209,East Crystal Falls Parkway,78641,30.5592574,-97.8416367
3980,Hero Way,78641,30.5952419,-97.8139364
17744,Ronald W Reagan Boulevard,78641,30.5999312,-97.8139334
2225,Ambush Canyon,78641,30.5458448,-97.8745004
1852,Cypress Gate Drive,78641,30.5638182,-97.8148655
1904,Cypress Gate Drive,78641,30.5638883,-97.8146250
11680,Hero Way West,78641,30.5805604,-97.8667565
960,Merrill Drive,78641,30.5717557,-97.8324143
825,Dream Catcher,78641,30.5487177,-97.9090397
829,Dream Catcher,78641,30.5485102,-97.9086250
821,Dream Catcher,78641,30.5488747,-97.9094358
817,Dream Catcher,78641,30.5489906,-97.9098967
813,Dream Catcher,78641,30.5491206,-97.9103046
1945,Portobello Road,78641,30.5341869,-97.9035862
1925,Pecan Island Drive,78641,30.5634013,-97.8147493
265,Heritage Grove Road,78641,30.5971706,-97.8721351
629,Heritage Grove Road,78641,30.5971221,-97.8723121
633,Heritage Grove Road,78641,30.5970875,-97.8725079
636,Heritage Grove Road,78641,30.5969885,-97.8726716
641,Heritage Grove Road,78641,30.5969413,-97.8728512
701,Heritage Grove Road,78641,30.5968951,-97.8730350
705,Heritage Grove Road,78641,30.5968327,-97.8732127
709,Heritage Grove Road,78641,30.5967681,-97.8733897
717,Heritage Grove Road,78641,30.5967161,-97.8735667
721,Heritage Grove Road,78641,30.5966809,-97.8737545
725,Heritage Grove Road,78641,30.5966053,-97.8739329
729,Heritage Grove Road,78641,30.5965602,-97.8741186
733,Heritage Grove Road,78641,30.5965199,-97.8743218
737,Heritage Grove Road,78641,30.5964847,-97.8745089
736,Heritage Grove Road,78641,30.5969811,-97.8744653
728,Heritage Grove Road,78641,30.5970319,-97.8742547
724,Heritage Grove Road,78641,30.5970723,-97.8740590
720,Heritage Grove Road,78641,30.5971323,-97.8738866
716,Heritage Grove Road,78641,30.5971883,-97.8737069
708,Heritage Grove Road,78641,30.5972506,-97.8734776
704,Heritage Grove Road,78641,30.5973118,-97.8732951
644,Heritage Grove Road,78641,30.5973672,-97.8731215
640,Heritage Grove Road,78641,30.5974030,-97.8729404
636,Heritage Grove Road,78641,30.5974850,-97.8727587
632,Heritage Grove Road,78641,30.5975485,-97.8725911
628,Heritage Grove Road,78641,30.5976004,-97.8723973
1729,West Broade Street,78641,30.5962190,-97.8648063
9250,FM 22243,78641,30.5842465,-97.8299099
11840,West Hero Way,78641,30.5782110,-97.8690492
12681,Hero Way West,78641,30.5732002,-97.8817219
6450,RM 2243,78628,30.6042000,-97.7968884
1921,Pecan Island Drive,78641,30.5635208,-97.8145121
1923,Pecan Island Drive,78641,30.5634425,-97.8146303
1909,Pecan Island Drive,78641,30.5635141,-97.8143550
1917,Pecan Island Drive,78641,30.5636111,-97.8142268
1911,Pecan Island Drive,78641,30.5637147,-97.8138580
1909,Pecan Island Drive,78641,30.5637049,-97.8137319
1907,Pecan Island Drive,78641,30.5637844,-97.8136151
1905,Pecan Island Drive,78641,30.5637665,-97.8134865
1903,Pecan Island Drive,78641,30.5638521,-97.8133755
1920,Cypress Gate Drive,78641,30.5639933,-97.8141087
1928,Cypress Gate Drive,78641,30.5640712,-97.8138656
1936,Cypress Gate Drive,78641,30.5641387,-97.8136135
1940,Cypress Gate Drive,78641,30.5642215,-97.8135133
1932,Cypress Gate Drive,78641,30.5641504,-97.8137614
1924,Cypress Gate Drive,78641,30.5640687,-97.8140040
1916,Cypress Gate Drive,78641,30.5640011,-97.8142558
1912,Cypress Gate Drive,78641,30.5639639,-97.8143826
1908,Cypress Gate Drive,78641,30.5639325,-97.8145062
1849,Cypress Gate Drive,78641,30.5641429,-97.8151812
1853,Cypress Gate Drive,78641,30.5641008,-97.8150244
1905,Cypress Gate Drive,78641,30.5641802,-97.8147395
1917,Cypress Gate Drive,78641,30.5643469,-97.8143859
1909,Cypress Gate Drive,78641,30.5642196,-97.8146279
1913,Cypress Gate Drive,78641,30.5642499,-97.8145021
1921,Cypress Gate Drive,78641,30.5643384,-97.8142551
1925,Cypress Gate Drive,78641,30.5644291,-97.8141425
1937,Cypress Gate Drive,78641,30.5644978,-97.8137606
1941,Cypress Gate Drive,78641,30.5645696,-97.8136511
712,Jess Maynard Trail,78641,30.5855137,-97.8631122
708,Jess Maynard Trail,78641,30.5853788,-97.8630543
716,Jess Maynard Trail,78641,30.5856410,-97.8631787
704,Jess Maynard Trail,78641,30.5852442,-97.8630215
700,Jess Maynard Trail,78641,30.5851129,-97.8629785
640,Jess Maynard Trail,78641,30.5849871,-97.8629079
637,Jess Maynard Trail,78641,30.5847554,-97.8634025
633,Jess Maynard Trail,78641,30.5846158,-97.8633550
629,Jess Maynard Trail,78641,30.5844890,-97.8633067
625,Jess Maynard Trail,78641,30.5843549,-97.8632416
621,Jess Maynard Trail,78641,30.5842192,-97.8631735
617,Jess Maynard Trail,78641,30.5840864,-97.8630863
613,Jess Maynard Trail,78641,30.5839893,-97.8629452
609,Jess Maynard Trail,78641,30.5838647,-97.8628518
541,Jess Maynard Trail,78641,30.5835085,-97.8618042
537,Jess Maynard Trail,78641,30.5835186,-97.8616402
533,Jess Maynard Trail,78641,30.5834701,-97.8614907
529,Jess Maynard Trail,78641,30.5834650,-97.8613271
525,Jess Maynard Trail,78641,30.5834535,-97.8611695
448,Bingham Point,78641,30.5856800,-97.8628011
444,Bingham Point,78641,30.5855194,-97.8627269
440,Bingham Point,78641,30.5853435,-97.8626137
436,Bingham Point,78641,30.5851792,-97.8624564
428,Bingham Point,78641,30.5850406,-97.8621816
424,Bingham Point,78641,30.5849563,-97.8619565
420,Bingham Point,78641,30.5849034,-97.8617617
617,Sawyer Trail,78641,30.5846687,-97.8618926
613,Sawyer Trail,78641,30.5845018,-97.8619294
609,Sawyer Trail,78641,30.5843206,-97.8619487
605,Sawyer Trail,78641,30.5841559,-97.8619968
601,Sawyer Trail,78641,30.5839764,-97.8620309
1417,Mongolian Drive,78641,30.6136921,-97.8076067
12200,West Hero Way,78641,30.5769813,-97.8728569
11141,183A Toll Road,78641,30.6041375,-97.8608875
8754,RM 2243,78641,30.5837644,-97.8221405
19344,Ronald Reagan Boulevard,78628,30.6325622,-97.8264640
19348,Ronald Reagan Boulevard,78628,30.6332097,-97.8244065
1870,South Bagdad Road,78641,30.5518144,-97.8546295
1526,Raider Way,78641,30.5670091,-97.8190565
1741,Turtle Bay Loop,78641,30.5598215,-97.8177733
1745,Turtle Bay Loop,78641,30.5599392,-97.8180088
1755,Turtle Bay Loop,78641,30.5603424,-97.8181475
1740,Turtle Bay Loop,78641,30.5601502,-97.8176123
1736,Turtle Bay Loop,78641,30.5601774,-97.8174498
1732,Turtle Bay Loop,78641,30.5601808,-97.8172963
1704,Turtle Bay Loop,78641,30.5603002,-97.8162687
1708,Turtle Bay Loop,78641,30.5602964,-97.8164467
1712,Turtle Bay Loop,78641,30.5602440,-97.8166562
1709,Turtle Bay Loop,78641,30.5598930,-97.8165317
1681,Turtle Bay Loop,78641,30.5600892,-97.8158650
1677,Turtle Bay Loop,78641,30.5602279,-97.8158465
1673,Turtle Bay Loop,78641,30.5603638,-97.8158073
1672,Turtle Bay Loop,78641,30.5605874,-97.8163356
1664,Turtle Bay Loop,78641,30.5607113,-97.8160046
1652,Turtle Bay Loop,78641,30.5608470,-97.8156367
1648,Turtle Bay Loop,78641,30.5608377,-97.8154445
1645,Turtle Bay Loop,78641,30.5605064,-97.8153938
1641,Turtle Bay Loop,78641,30.5604820,-97.8152554
1633,Turtle Bay Loop,78641,30.5606241,-97.8148542
1629,Turtle Bay Loop,78641,30.5607647,-97.8148193
1625,Turtle Bay Loop,78641,30.5609035,-97.8148432
1628,Turtle Bay Loop,78641,30.5608311,-97.8152511
1616,Turtle Bay Loop,78641,30.5609959,-97.8152812
1612,Turtle Bay Loop,78641,30.5610665,-97.8154255
1608,Turtle Bay Loop,78641,30.5611416,-97.8155526
1617,Turtle Bay Loop,78641,30.5612306,-97.8149899
1613,Turtle Bay Loop,78641,30.5613090,-97.8151124
1609,Turtle Bay Loop,78641,30.5613808,-97.8152443
1605,Turtle Bay Loop,78641,30.5614577,-97.8153709
1929,Turtle Bay Loop,78641,30.5616161,-97.8156839
1925,Turtle Bay Loop,78641,30.5616883,-97.8158016
1921,Turtle Bay Loop,78641,30.5617636,-97.8159238
1913,Turtle Bay Loop,78641,30.5618882,-97.8161836
1909,Turtle Bay Loop,78641,30.5618676,-97.8163882
1905,Turtle Bay Loop,78641,30.5618435,-97.8165771
1912,Turtle Bay Loop,78641,30.5615066,-97.8162775
1908,Turtle Bay Loop,78641,30.5614847,-97.8164290
1904,Turtle Bay Loop,78641,30.5614419,-97.8166072
1653,Winding Stream Trail,78641,30.5612273,-97.8161856
1649,Winding Stream Trail,78641,30.5611982,-97.8163301
1637,Winding Stream Trail,78641,30.5611236,-97.8166844
1633,Winding Stream Trail,78641,30.5610941,-97.8168623
1629,Winding Stream Trail,78641,30.5610482,-97.8170352
1625,Winding Stream Trail,78641,30.5609748,-97.8171947
1621,Winding Stream Trail,78641,30.5608846,-97.8173175
1613,Winding Stream Trail,78641,30.5607838,-97.8175270
1624,Winding Stream Trail,78641,30.5606377,-97.8169579
1620,Winding Stream Trail,78641,30.5605415,-97.8170940
1616,Winding Stream Trail,78641,30.5604157,-97.8172341
1804,Pecan Island Drive,78641,30.5647941,-97.8132426
1808,Pecan Island Drive,78641,30.5646941,-97.8132064
1812,Pecan Island Drive,78641,30.5645864,-97.8131994
1816,Pecan Island Drive,78641,30.5644576,-97.8131728
1820,Pecan Island Drive,78641,30.5643765,-97.8131129
1824,Pecan Island Drive,78641,30.5642287,-97.8130714
2004,Pecan Island Drive,78641,30.5640497,-97.8130230
2008,Pecan Island Drive,78641,30.5639584,-97.8129244
2012,Pecan Island Drive,78641,30.5638551,-97.8128829
2016,Pecan Island Drive,78641,30.5637260,-97.8128715
2103,Pecan Island Drive,78641,30.5634263,-97.8131366
2105,Pecan Island Drive,78641,30.5633899,-97.8132585
2107,Pecan Island Drive,78641,30.5633906,-97.8133988
2109,Pecan Island Drive,78641,30.5633327,-97.8135167
2113,Pecan Island Drive,78641,30.5633167,-97.8136387
2117,Pecan Island Drive,78641,30.5632943,-97.8137648
2121,Pecan Island Drive,78641,30.5632094,-97.8138874
2125,Pecan Island Drive,78641,30.5631457,-97.8140027
2129,Pecan Island Drive,78641,30.5631662,-97.8141306
2133,Pecan Island Drive,78641,30.5630830,-97.8142510
2137,Pecan Island Drive,78641,30.5630551,-97.8143613
2153,Pecan Island Drive,78641,30.5629300,-97.8147517
2157,Pecan Island Drive,78641,30.5628652,-97.8149910
2156,Pecan Island Drive,78641,30.5625204,-97.8147529
2148,Pecan Island Drive,78641,30.5625968,-97.8146016
2144,Pecan Island Drive,78641,30.5625788,-97.8144570
2140,Pecan Island Drive,78641,30.5626726,-97.8143593
2136,Pecan Island Drive,78641,30.5626576,-97.8142115
2132,Pecan Island Drive,78641,30.5627560,-97.8141055
2128,Pecan Island Drive,78641,30.5627884,-97.8139831
2124,Pecan Island Drive,78641,30.5627756,-97.8138455
2120,Pecan Island Drive,78641,30.5628187,-97.8137231
2116,Pecan Island Drive,78641,30.5628530,-97.8135997
2112,Pecan Island Drive,78641,30.5629360,-97.8134949
2108,Pecan Island Drive,78641,30.5629178,-97.8133528
2106,Pecan Island Drive,78641,30.5630125,-97.8132466
2104,Pecan Island Drive,78641,30.5629937,-97.8131040
2102,Pecan Island Drive,78641,30.5630878,-97.8129944
2305,Pecan Island Drive,78641,30.5626617,-97.8128272
2309,Pecan Island Drive,78641,30.5626214,-97.8129516
2321,Pecan Island Drive,78641,30.5624332,-97.8133583
2329,Pecan Island Drive,78641,30.5623801,-97.8135876
2333,Pecan Island Drive,78641,30.5623281,-97.8137053
2304,Pecan Island Drive,78641,30.5622238,-97.8126401
2345,Pecan Island Drive,78641,30.5621885,-97.8140681
2349,Pecan Island Drive,78641,30.5621831,-97.8141824
2653,Pecan Island Drive,78641,30.5621529,-97.8143064
2352,Pecan Island Drive,78641,30.5617781,-97.8141192
2308,Pecan Island Drive,78641,30.5621332,-97.8127478
2328,Pecan Island Drive,78641,30.5619492,-97.8133586
2332,Pecan Island Drive,78641,30.5619084,-97.8134896
2404,Pecan Island Drive,78641,30.5624968,-97.8123920
2224,Pecan Island Drive,78641,30.5626246,-97.8123828
2220,Pecan Island Drive,78641,30.5627245,-97.8124214
2212,Pecan Island Drive,78641,30.5629285,-97.8125417
2208,Pecan Island Drive,78641,30.5630271,-97.8126050
1756,Artesian Springs Crossings,78641,30.5641188,-97.8160204
1752,Artesian Springs Crossings,78641,30.5641942,-97.8160205
1748,Artesian Springs Crossings,78641,30.5642699,-97.8160184
1744,Artesian Springs Crossings,78641,30.5643449,-97.8160446
1740,Artesian Springs Crossings,78641,30.5644153,-97.8160716
1736,Artesian Springs Crossings,78641,30.5644912,-97.8160726
1732,Artesian Springs Crossings,78641,30.5645653,-97.8160963
1773,Yaupon Grove Lane,78641,30.5650271,-97.8171519
1769,Yaupon Grove Lane,78641,30.5649945,-97.8172663
1765,Yaupon Grove Lane,78641,30.5649538,-97.8173603
1761,Yaupon Grove Lane,78641,30.5649322,-97.8174404
1757,Yaupon Grove Lane,78641,30.5649057,-97.8175179
1753,Yaupon Grove Lane,78641,30.5648771,-97.8175955
1749,Yaupon Grove Lane,78641,30.5648650,-97.8176783
1745,Yaupon Grove Lane,78641,30.5648263,-97.8177477
1741,Yaupon Grove Lane,78641,30.5648141,-97.8178352
1737,Yaupon Grove Lane,78641,30.5647833,-97.8179073
1733,Yaupon Grove Lane,78641,30.5647641,-97.8179860
1729,Yaupon Grove Lane,78641,30.5647397,-97.8180626
1725,Yaupon Grove Lane,78641,30.5647240,-97.8181394
1721,Yaupon Grove Lane,78641,30.5647015,-97.8182232
1717,Yaupon Grove Lane,78641,30.5646772,-97.8183025
1713,Yaupon Grove Lane,78641,30.5646476,-97.8183793
1709,Yaupon Grove Lane,78641,30.5646175,-97.8184564
1705,Yaupon Grove Lane,78641,30.5646060,-97.8185358
1701,Yaupon Grove Lane,78641,30.5645904,-97.8186156
1669,Yaupon Grove Lane,78641,30.5645588,-97.8186909
1665,Yaupon Grove Lane,78641,30.5645421,-97.8187680
1661,Yaupon Grove Lane,78641,30.5645071,-97.8188526
1705,Arendale Drive,78641,30.5642537,-97.8186313
1713,Arendale Drive,78641,30.5641152,-97.8185666
1712,Yaupon Grove Lane,78641,30.5643201,-97.8182807
1716,Yaupon Grove Lane,78641,30.5643516,-97.8182020
1720,Yaupon Grove Lane,78641,30.5643694,-97.8181216
1724,Yaupon Grove Lane,78641,30.5643962,-97.8180491
1728,Yaupon Grove Lane,78641,30.5644142,-97.8179668
1732,Yaupon Grove Lane,78641,30.5644479,-97.8178930
1736,Yaupon Grove Lane,78641,30.5644620,-97.8178097
1740,Yaupon Grove Lane,78641,30.5644986,-97.8177412
1744,Yaupon Grove Lane,78641,30.5645119,-97.8176581
1748,Yaupon Grove Lane,78641,30.5645322,-97.8175772
1752,Yaupon Grove Lane,78641,30.5645546,-97.8174997
1756,Yaupon Grove Lane,78641,30.5645820,-97.8174206
1760,Yaupon Grove Lane,78641,30.5646188,-97.8173487
1764,Yaupon Grove Lane,78641,30.5646408,-97.8172673
1768,Yaupon Grove Lane,78641,30.5646615,-97.8171938
1772,Yaupon Grove Lane,78641,30.5646774,-97.8171134
1776,Yaupon Grove Lane,78641,30.5647010,-97.8170277
1816,Arendale Drive,78641,30.5640040,-97.8178956
1820,Arendale Drive,78641,30.5640238,-97.8178152
1824,Arendale Drive,78641,30.5640504,-97.8177374
1828,Arendale Drive,78641,30.5640759,-97.8176606
1844,Arendale Drive,78641,30.5641749,-97.8173523
1848,Arendale Drive,78641,30.5641974,-97.8172714
1852,Arendale Drive,78641,30.5642196,-97.8171914
1856,Arendale Drive,78641,30.5642435,-97.8171203
1860,Arendale Drive,78641,30.5642611,-97.8170371
1864,Arendale Drive,78641,30.5642831,-97.8169596
1660,Artesian Springs Crossings,78641,30.5652019,-97.8163584
1656,Artesian Springs Crossings,78641,30.5652875,-97.8163936
1709,Artesian Springs Crossings,78641,30.5648507,-97.8166807
1713,Artesian Springs Crossings,78641,30.5647797,-97.8166485
1717,Artesian Springs Crossings,78641,30.5647074,-97.8166234
1721,Artesian Springs Crossings,78641,30.5646444,-97.8165795
1725,Artesian Springs Crossings,78641,30.5645763,-97.8165602
1729,Artesian Springs Crossings,78641,30.5645046,-97.8165316
1733,Artesian Springs Crossings,78641,30.5644340,-97.8165113
1737,Artesian Springs Crossings,78641,30.5643656,-97.8164790
1745,Artesian Springs Crossings,78641,30.5642720,-97.8164686
1757,Artesian Springs Crossings,78641,30.5640336,-97.8164596
1761,Artesian Springs Crossings,78641,30.5639604,-97.8164693
1765,Artesian Springs Crossings,78641,30.5638888,-97.8164723
1769,Artesian Springs Crossings,78641,30.5638138,-97.8164738
1773,Artesian Springs Crossings,78641,30.5637415,-97.8164554
1777,Artesian Springs Crossings,78641,30.5636710,-97.8164762
1801,Artesian Springs Crossings,78641,30.5635976,-97.8164832
1805,Artesian Springs Crossings,78641,30.5635265,-97.8164785
1809,Artesian Springs Crossings,78641,30.5634570,-97.8164947
1813,Artesian Springs Crossings,78641,30.5633866,-97.8164931
1817,Artesian Springs Crossings,78641,30.5633180,-97.8164912
1825,Artesian Springs Crossings,78641,30.5631645,-97.8164985
1829,Artesian Springs Crossings,78641,30.5630856,-97.8165001
1833,Artesian Springs Crossings,78641,30.5630132,-97.8164993
1837,Artesian Springs Crossings,78641,30.5629476,-97.8165161
1841,Artesian Springs Crossings,78641,30.5628756,-97.8165305
1845,Artesian Springs Crossings,78641,30.5628003,-97.8165032
1849,Artesian Springs Crossings,78641,30.5627290,-97.8165298
1853,Artesian Springs Crossings,78641,30.5626541,-97.8165390
1857,Artesian Springs Crossings,78641,30.5625776,-97.8165355
1873,Artesian Springs Crossings,78641,30.5622600,-97.8164301
1877,Artesian Springs Crossings,78641,30.5621796,-97.8163828
1901,Artesian Springs Crossings,78641,30.5621077,-97.8163240
1801,Lakota Lane,78641,30.6151097,-97.8189621
2724,Seneca Path,78641,30.6130126,-97.8191781
2804,Seneca Path,78641,30.6131039,-97.8187697
2800,Seneca Path,78641,30.6131021,-97.8188789
2728,Seneca Path,78641,30.6130244,-97.8190709
2732,Seneca Path,78641,30.6130519,-97.8189713
1803,Lakota Lane,78641,30.6152875,-97.8190745
1061,Collaborative Way,78641,30.6035131,-97.8804813
1108,Kersey Drive,78641,30.6011912,-97.8800798
2244,Grand Lake Parkway,78641,30.5614310,-97.8077856
10964,East Crystal Falls Parkway,78641,30.5671023,-97.8049605
10960,East Crystal Falls Parkway,78641,30.5678426,-97.8061044
1070,County Road 177,78641,30.5700705,-97.7995169
15609,Ronald W Reagan Boulevard,78641,30.5636224,-97.8011973
2345,Lyla Lane,78641,30.5598186,-97.8011515
1321,Longhorn Ranch Drive,78641,30.6093143,-97.8872311
1101,South Highway 183,78641,30.5644465,-97.8475759
1424,Saddlespur Lane,78641,30.5516028,-97.8731178
1428,Saddlespur Lane,78641,30.5514880,-97.8729308
1432,Saddlespur Lane,78641,30.5513704,-97.8727563
1500,Saddlespur Lane,78641,30.5512303,-97.8725941
1504,Saddlespur Lane,78641,30.5511230,-97.8724026
1508,Saddlespur Lane,78641,30.5510156,-97.8722284
1512,Rosser Lane,78641,30.5508693,-97.8720492
1403,High Lonesome,78641,30.5363250,-97.8936603
1411,Mirador,78641,30.5353505,-97.8873091
1301,Lions Lair,78641,30.5448808,-97.9039499
1141,Pleasant Hill Rd,78641,30.5961745,-97.8472831
203,Heritage Grove Road,78641,30.5979689,-97.8660223
247,West Metro Drive,78641,30.5873523,-97.8597986
248,West Metro Drive,78641,30.5862101,-97.8594753
140,Metro Drive,78641,30.5871419,-97.8574811
929,Deer Rim Road,78641,30.6061398,-97.8787328
2633,Painted Sky Bnd,78641,30.5291024,-97.8843628
2629,Painted Sky Bnd,78641,30.5292952,-97.8842128
651,North Highway 183,78641,30.5818085,-97.8589133
11245,Hero Way West,78641,30.5810531,-97.8580885
1789,South Bagdad Road,78641,30.5517811,-97.8562120
805,Crystal Falls Parkway,78641,30.5547380,-97.8545845
1595,South Highway 183,78641,30.5591587,-97.8452642
301,North Bagdad Road,78641,30.5748983,-97.8717293
11701,West Hero Way,78641,30.5772635,-97.8671856
11699,West Hero Way,78641,30.5777031,-97.8673052
11801,West Hero Way,78641,30.5773654,-97.8681734
1720,South Bagdad Road,78641,30.5534437,-97.8566545
905,Old Bagdad Road,78641,30.5544049,-97.8557305
903,Old Bagdad Road,78641,30.5543992,-97.8553816
1205,South Highway 183,78641,30.5628369,-97.8469339
1705,South Highway 183,78641,30.5570118,-97.8441592
1905,South Highway 183,78641,30.5542204,-97.8428334
2001,South Highway 183,78641,30.5525121,-97.8421828
2041,South Highway 183,78641,30.5513455,-97.8425058
1009,South Highway 183,78641,30.5650315,-97.8477363
1007,South Highway 183,78641,30.5654609,-97.8483978
3361,North Lakeline Boulevard,78641,30.5421849,-97.8643946
11800,West Hero Way,78641,30.5795474,-97.8687930
11560,West Hero Way,78641,30.5797682,-97.8646833
350,North Bagdad Road,78641,30.5752331,-97.8707800
1405,Leander Dr,78641,30.5614359,-97.8422231
1206,Leander Dr,78641,30.5641339,-97.8415569
1103,Leander Dr,78641,30.5651320,-97.8446287
140,East Sonny Drive,78641,30.5680993,-97.8472382
120,East Sonny Drive,78641,30.5686701,-97.8478497
1303,Leander Dr,78641,30.5630405,-97.8441771
10201,East Crystal Falls Parkway,78641,30.5593107,-97.8434611
920,Dexter,78641,30.5666086,-97.8633377
3508,High Horse,78641,30.5421276,-97.9004958
3504,High Horse,78641,30.5422926,-97.9000045
3504,High Horse,78641,30.5424956,-97.8998223
3500,High Horse,78641,30.5429152,-97.8987418
3505,High Horse,78641,30.5431094,-97.8999770
303,Sonny Drive,78641,30.5683491,-97.8522976
303,Sonny Drive,78641,30.5680566,-97.8521896
413,South West Drive,78641,30.5727645,-97.8541665
101,North West Drive,78641,30.5778267,-97.8562468
305,West Willis Street,78641,30.5789704,-97.8561210
207,North Highway 183,78641,30.5802082,-97.8539562
311,South Highway 183,78641,30.5749600,-97.8518040
310,South Brushy Street,78641,30.5749154,-97.8521405
401,Horseshoe Drive,78641,30.5704442,-97.8539841
2401,South Highway 183,78641,30.5475156,-97.8422004
10743,Crystal Falls Parkway,78641,30.5650447,-97.8236455
10743,East Crystal Falls Parkway,78641,30.5651380,-97.8232244
10840,East Crystal Falls Parkway,78641,30.5659246,-97.8162342
805,South Bagdad Road,78641,30.5631106,-97.8641247
801,South Bagdad Road,78641,30.5637805,-97.8644617
806,South West Drive,78641,30.5667193,-97.8521418
1840,Pleasant Hill Road,78641,30.6059316,-97.8500538
1781,Osage Drive,78641,30.5383548,-97.8626366
1361,Hero Way,78641,30.5834760,-97.8508902
620,Jess Maynard Trail,78641,30.5844346,-97.8626216
15411,Ronald W Reagan Boulevard,78641,30.5615494,-97.8002775
15441,Ronald W Reagan Boulevard,78641,30.5614270,-97.8008180
3429,Journey Parkway,78641,30.5662910,-97.7886424
1640,Highland Falls Drive,78641,30.5679600,-97.8107828
1640,Highland Falls Drive,78641,30.5671785,-97.8109393
10949,East Crystal Falls Parkway,78641,30.5704744,-97.8093228
10987,East Crystal Falls Parkway,78641,30.5715869,-97.8059195
149,South Bagdad Road,78641,30.5708658,-97.8711310
132,West Metro Drive,78641,30.5868639,-97.8573246
701,Blueline Drive,78641,30.5393035,-97.8462926
2100,South Bagdad Road,78641,30.5474959,-97.8519998
348,Main Street,78641,30.5835551,-97.8476889
260,South Brook Drive,78641,30.5893773,-97.8613649
2521,Rifleman Cove,78641,30.5328021,-97.8782854
141,West Metro Drive,78641,30.5879251,-97.8577629
11101,183A Toll Road,78641,30.6032073,-97.8606009
505,Crystal Falls Parkway,78641,30.5563960,-97.8510696
605,Crystal Falls Parkway,78641,30.5560373,-97.8522637
601,Crystal Falls Parkway,78641,30.5561607,-97.8517094
449,San Gabriel Campus Drive,78641,30.5883299,-97.8498101
1025,Water Hyssop,78641,30.5640126,-97.8293460
1021,Water Hyssop,78641,30.5639765,-97.8294725
1009,Water Hyssop,78641,30.5638398,-97.8298866
1005,Water Hyssop,78641,30.5637705,-97.8300208
1001,Water Hyssop,78641,30.5637400,-97.8301774
1008,Water Hyssop,78641,30.5634296,-97.8297343
1012,Water Hyssop,78641,30.5634860,-97.8296098
1016,Water Hyssop,78641,30.5635239,-97.8294510
1020,Water Hyssop,78641,30.5635507,-97.8293138
1561,Lotus Flower,78641,30.5627035,-97.8302225
1557,Lotus Flower,78641,30.5626555,-97.8303738
1553,Lotus Flower,78641,30.5626084,-97.8305207
1549,Lotus Flower,78641,30.5625233,-97.8306537
1545,Lotus Flower,78641,30.5624846,-97.8308297
1541,Lotus Flower,78641,30.5625686,-97.8310304
1537,Lotus Flower,78641,30.5627525,-97.8311087
1533,Lotus Flower,78641,30.5629234,-97.8311237
1500,Lotus Flower,78641,30.5634592,-97.8306087
1504,Lotus Flower,78641,30.5633834,-97.8308276
901,Lilly Pad,78641,30.5642890,-97.8317351
908,Water Hyacinth Loop,78641,30.5653618,-97.8321472
904,Water Hyacinth Loop,78641,30.5654958,-97.8322180
800,Water Hyacinth Loop,78641,30.5671841,-97.8305606
820,Water Hyacinth Loop,78641,30.5672525,-97.8314221
824,Water Hyacinth Loop,78641,30.5671786,-97.8315980
828,Water Hyacinth Loop,78641,30.5671120,-97.8317364
868,Water Hyacinth Loop,78641,30.5659859,-97.8324285
1324,Calla Lilly Boulevard,78641,30.5669439,-97.8300917
1316,Calla Lilly Boulevard,78641,30.5672488,-97.8300875
1312,Calla Lilly Boulevard,78641,30.5674086,-97.8300938
1300,Calla Lilly Boulevard,78641,30.5678178,-97.8302676
1257,Yellow Iris Road,78641,30.5676285,-97.8306872
1228,Calla Lilly Boulevard,78641,30.5681569,-97.8304017
1216,Calla Lilly Boulevard,78641,30.5685328,-97.8305916
501,South Brook Drive,78641,30.5873167,-97.8685653
1280,Logan Del Way,78641,30.6043654,-97.8274342
2524,Palmera Ridge Boulevard,78641,30.5995323,-97.8172608
401,South West Drive,78641,30.5736771,-97.8546180
501,Municipal Drive,78641,30.5741850,-97.8580041
813,Woodview Drive,78641,30.5697575,-97.8345589
817,Woodview Drive,78641,30.5696945,-97.8347526
821,Woodview Drive,78641,30.5696139,-97.8349416
825,Woodview Drive,78641,30.5695134,-97.8351184
829,Woodview Drive,78641,30.5693051,-97.8352847
904,Inge Lane,78641,30.5699513,-97.8350769
908,Inge Lane,78641,30.5700922,-97.8349148
912,Inge Lane,78641,30.5701261,-97.8347107
920,Inge Lane,78641,30.5702403,-97.8343231
924,Inge Lane,78641,30.5703143,-97.8341512
928,Inge Lane,78641,30.5703540,-97.8339653
932,Inge Lane,78641,30.5704204,-97.8337910
936,Inge Lane,78641,30.5704811,-97.8336145
1004,Inge Lane,78641,30.5704673,-97.8334015
1000,Inge Lane,78641,30.5705860,-97.8331433
936,Anahuac Drive,78641,30.5708711,-97.8331027
932,Anahuac Drive,78641,30.5710272,-97.8332092
928,Anahuac Drive,78641,30.5711778,-97.8332813
924,Anahuac Drive,78641,30.5713360,-97.8333519
920,Anahuac Drive,78641,30.5714864,-97.8334149
916,Anahuac Drive,78641,30.5716499,-97.8334689
912,Anahuac Drive,78641,30.5718055,-97.8335211
908,Anahuac Drive,78641,30.5719593,-97.8335957
904,Anahuac Drive,78641,30.5721147,-97.8336475
836,Anahuac Drive,78641,30.5722662,-97.8337325
832,Anahuac Drive,78641,30.5724509,-97.8337728
921,Richardson Lane,78641,30.5703162,-97.8356098
917,Richardson Lane,78641,30.5704718,-97.8356803
913,Richardson Lane,78641,30.5706286,-97.8357447
909,Richardson Lane,78641,30.5707818,-97.8357975
905,Richardson Lane,78641,30.5709326,-97.8358847
901,Richardson Lane,78641,30.5710981,-97.8359389
937,Inge Lane,78641,30.5709157,-97.8336738
933,Inge Lane,78641,30.5708762,-97.8338610
929,Inge Lane,78641,30.5707995,-97.8340270
925,Inge Lane,78641,30.5707483,-97.8342139
921,Inge Lane,78641,30.5707070,-97.8344049
917,Inge Lane,78641,30.5706439,-97.8346021
913,Inge Lane,78641,30.5705689,-97.8347847
909,Inge Lane,78641,30.5705090,-97.8349875
905,Inge Lane,78641,30.5704534,-97.8351739
920,Richardson Lane,78641,30.5707307,-97.8352275
916,Richardson Lane,78641,30.5708823,-97.8352997
912,Richardson Lane,78641,30.5710469,-97.8353624
908,Richardson Lane,78641,30.5711945,-97.8354190
904,Richardson Lane,78641,30.5713523,-97.8354859
900,Richardson Lane,78641,30.5715151,-97.8355422
848,Richardson Lane,78641,30.5716636,-97.8356009
840,Richardson Lane,78641,30.5718161,-97.8356747
836,Richardson Lane,78641,30.5719786,-97.8357324
832,Richardson Lane,78641,30.5721276,-97.8358133
828,Richardson Lane,78641,30.5722843,-97.8358683
824,Richardson Lane,78641,30.5724581,-97.8359199
820,Richardson Lane,78641,30.5726264,-97.8360119
816,Richardson Lane,78641,30.5727938,-97.8360615
905,McKavitt Drive,78641,30.5731540,-97.8362902
940,McIntosh Road,78641,30.5712920,-97.8338307
936,McIntosh Road,78641,30.5712533,-97.8340123
932,McIntosh Road,78641,30.5711819,-97.8341863
928,McIntosh Road,78641,30.5711232,-97.8343687
924,McIntosh Road,78641,30.5710239,-97.8345299
920,McIntosh Road,78641,30.5709481,-97.8348357
913,Bliss Lane,78641,30.5711440,-97.8349848
909,Bliss Lane,78641,30.5713163,-97.8350368
905,Bliss Lane,78641,30.5714921,-97.8350551
901,Bliss Lane,78641,30.5716495,-97.8351119
841,Bliss Lane,78641,30.5717929,-97.8351926
837,Bliss Lane,78641,30.5719460,-97.8352574
833,Bliss Lane,78641,30.5721086,-97.8353099
829,Bliss Lane,78641,30.5722587,-97.8353844
825,Bliss Lane,78641,30.5724204,-97.8354269
821,Bliss Lane,78641,30.5725945,-97.8355221
817,Bliss Lane,78641,30.5727564,-97.8355918
813,Bliss Lane,78641,30.5729215,-97.8356682
909,Anahuac Drive,78641,30.5716706,-97.8340621
905,Anahuac Drive,78641,30.5718271,-97.8341072
901,Anahuac Drive,78641,30.5719767,-97.8342051
904,Bliss Lane,78641,30.5716906,-97.8345596
900,Bliss Lane,78641,30.5718461,-97.8346232
824,Anahuac Drive,78641,30.5728310,-97.8339697
820,Anahuac Drive,78641,30.5730233,-97.8340386
816,Anahuac Drive,78641,30.5731766,-97.8340938
812,Anahuac Drive,78641,30.5733365,-97.8341573
808,Anahuac Drive,78641,30.5734986,-97.8341778
937,McKavitt Drive,78641,30.5736270,-97.8348631
933,McKavitt Drive,78641,30.5735832,-97.8350455
929,McKavitt Drive,78641,30.5735153,-97.8352193
925,McKavitt Drive,78641,30.5734467,-97.8353937
921,McKavitt Drive,78641,30.5733962,-97.8355803
917,McKavitt Drive,78641,30.5733507,-97.8357552
913,McKavitt Drive,78641,30.5732955,-97.8359373
909,McKavitt Drive,78641,30.5732148,-97.8361101
845,Richardson Lane,78641,30.5714512,-97.8360827
841,Richardson Lane,78641,30.5716064,-97.8361593
837,Richardson Lane,78641,30.5717581,-97.8362235
833,Richardson Lane,78641,30.5719251,-97.8362866
829,Richardson Lane,78641,30.5720739,-97.8363555
825,Richardson Lane,78641,30.5722290,-97.8364140
821,Richardson Lane,78641,30.5723826,-97.8364859
817,Richardson Lane,78641,30.5725368,-97.8365368
813,Richardson Lane,78641,30.5726939,-97.8366033
809,Richardson Lane,78641,30.5728506,-97.8366803
932,McKavitt Drive,78641,30.5730681,-97.8349951
928,McKavitt Drive,78641,30.5730210,-97.8351882
1300,South Bagdad Road,78641,30.5573311,-97.8590370
508,Municipal Drive,78641,30.5719161,-97.8583800
1602,South Bagdad Road,78641,30.5548459,-97.8578432
704,South Brook Drive,78641,30.5846834,-97.8704442
3420,Mongolian Drive,78641,30.6139663,-97.8076182
19344,Ronald Reagan Boulevard,78628,30.6325098,-97.8268479
3421,Journey Parkway,78641,30.5650134,-97.7883127
1393,Woodview Drive,78641,30.5727520,-97.8273950
1660,Raider Way,78641,30.5646826,-97.8193289
2345,Lyla Lane,78641,30.5596412,-97.8011772
2349,Lyla Lane,78641,30.5595080,-97.8011987
2353,Lyla Lane,78641,30.5593692,-97.8012246
2357,Lyla Lane,78641,30.5592361,-97.8012601
2401,Lyla Lane,78641,30.5590986,-97.8012955
2405,Lyla Lane,78641,30.5589652,-97.8013176
2409,Lyla Lane,78641,30.5588303,-97.8013433
2413,Lyla Lane,78641,30.5586957,-97.8013909
2300,Republic Trails Boulevard,78641,30.5599009,-97.8015114
2304,Republic Trails Boulevard,78641,30.5597461,-97.8015532
2308,Republic Trails Boulevard,78641,30.5595990,-97.8015791
2312,Republic Trails Boulevard,78641,30.5594270,-97.8016423
2316,Republic Trails Boulevard,78641,30.5592775,-97.8016651
2320,Republic Trails Boulevard,78641,30.5590950,-97.8016949
2324,Republic Trails Boulevard,78641,30.5589410,-97.8017410
2328,Republic Trails Boulevard,78641,30.5587728,-97.8017764
205,Dream Catcher,78641,30.5570194,-97.9153655
300,Dream Catcher,78641,30.5562265,-97.9148108
309,Dream Catcher,78641,30.5550609,-97.9152439
917,Dream Catcher,78641,30.5482164,-97.9063285
1113,Sidewinder,78641,30.5444168,-97.9075779
1101,Halsey Drive,78641,30.5892993,-97.8785789
3305,Crystal Falls Parkway,78641,30.5375945,-97.8836064
3301,Crystal Falls Parkway,78641,30.5383154,-97.8833723
3007,Crystal Falls Parkway,78641,30.5423165,-97.8838220
3203,Crystal Falls Parkway,78641,30.5395034,-97.8830232
3201,Crystal Falls Parkway,78641,30.5398467,-97.8831196
1101,Speaking Rock,78641,30.5296545,-97.8906196
1104,High Lonesome,78641,30.5317561,-97.8892472
1100,High Lonesome,78641,30.5316090,-97.8884036
3604,Lajitas,78641,30.5322135,-97.8914399
3614,Lajitas,78641,30.5304522,-97.8929395
3700,Lajitas,78641,30.5308395,-97.8933042
3706,Lajitas,78641,30.5319050,-97.8940942
3710,Lajitas,78641,30.5326459,-97.8946610
1781,Osage Drive,78641,30.5382429,-97.8626851
1401,Roaring Fork,78641,30.5323112,-97.8960901
1405,Roaring Fork,78641,30.5329627,-97.8966659
1404,Roaring Fork,78641,30.5327958,-97.8975129
1300,Roaring Fork,78641,30.5294207,-97.8944142
1308,Roaring Fork,78641,30.5306029,-97.8962464
1407,Roaring Fork,78641,30.5333102,-97.8967306
1411,Roaring Fork,78641,30.5340483,-97.8967942
1415,Roaring Fork,78641,30.5346154,-97.8968823
3718,Lajitas,78641,30.5343978,-97.8956996
3712,Lajitas,78641,30.5330012,-97.8951276
3714,Lajitas,78641,30.5335632,-97.8951544
3715,Lajitas,78641,30.5338776,-97.8942887
3705,Lajitas,78641,30.5323331,-97.8931192
3605,Lajitas,78641,30.5329705,-97.8921681
1402,High Lonesome,78641,30.5352429,-97.8944810
3604,Posse Trail,78641,30.5356010,-97.8963710
3602,Fandango,78641,30.5363683,-97.8964796
3000,North Lakeline Boulevard,78641,30.5341688,-97.8583235
285,CR 175,78628,30.5896775,-97.7986364
6531,FM 2243,78641,30.5939544,-97.7903654
2090,CR176,78628,30.5799625,-97.7823127
2100,CR 176,78628,30.5796394,-97.7831227
2106,CR 176,78628,30.5797022,-97.7843923
1429,Longhorn Ranch Drive,78641,30.6106004,-97.8893488
1437,Longhorn Ranch Drive,78641,30.6107436,-97.8894505
1501,Longhorn Ranch Drive,78641,30.6107992,-97.8895691
1505,Longhorn Ranch Drive,78641,30.6109606,-97.8896056
1509,Longhorn Ranch Drive,78641,30.6110912,-97.8896792
1513,Longhorn Ranch Drive,78641,30.6112593,-97.8898138
301,CR 175,78641,30.5893249,-97.7971180
18109,Ronald W Reagan Boulevard,78641,30.6128019,-97.8204943
18109,Ronald W Reagan Boulevard,78641,30.6127805,-97.8208648
805,Sanger Lane,78641,30.5853291,-97.7941357
809,Sanger Lane,78641,30.5852050,-97.7940401
813,Sanger Lane,78641,30.5850694,-97.7939744
817,Sanger Lane,78641,30.5849550,-97.7938685
821,Sanger Lane,78641,30.5848371,-97.7937714
828,Sanger Lane,78641,30.5849227,-97.7931359
820,Sanger Lane,78641,30.5851948,-97.7932988
3621,Prosper Road,78641,30.5856427,-97.7931871
3617,Prosper Road,78641,30.5855236,-97.7930915
3608,Prosper Road,78641,30.5854739,-97.7923874
3612,Prosper Road,78641,30.5855828,-97.7924716
3628,Prosper Road,78641,30.5860868,-97.7929197
3643,Prosper Road,78641,30.5864195,-97.7934859
3655,Prosper Road,78641,30.5868573,-97.7933020
725,Celina Cove,78641,30.5864597,-97.7927057
729,Celina Cove,78641,30.5863677,-97.7925695
733,Celina Cove,78641,30.5861259,-97.7924095
740,Celina Cove,78641,30.5866338,-97.7919599
724,Celina Cove,78641,30.5869843,-97.7924651
720,Celina Cove,78641,30.5870405,-97.7926019
705,Coppell Court,78641,30.5874205,-97.7923140
709,Coppell Court,78641,30.5873240,-97.7921800
713,Coppell Court,78641,30.5872324,-97.7920588
717,Coppell Court,78641,30.5871833,-97.7919145
721,Coppell Court,78641,30.5870538,-97.7918208
725,Coppell Court,78641,30.5869296,-97.7917118
729,Coppell Court,78641,30.5868754,-97.7915595
3708,Prosper Road,78641,30.5876832,-97.7920022
3712,Prosper Road,78641,30.5878178,-97.7918797
3740,Prosper Road,78641,30.5880335,-97.7910339
3812,Prosper Road,78641,30.5880553,-97.7903965
829,Marietta Street,78641,30.5856598,-97.7906513
825,Marietta Street,78641,30.5858757,-97.7907141
821,Marietta Street,78641,30.5860612,-97.7907277
817,Marietta Street,78641,30.5862739,-97.7907460
805,Marietta Street,78641,30.5868294,-97.7906078
745,Marietta Street,78641,30.5871963,-97.7904515
3909,Prosper Road,78641,30.5880703,-97.7889051
816,Marietta Street,78641,30.5862884,-97.7902136
812,Marietta Street,78641,30.5864726,-97.7902069
808,Marietta Street,78641,30.5866556,-97.7901523
800,Marietta Street,78641,30.5868287,-97.7900884
744,Marietta Street,78641,30.5869907,-97.7899948
742,Marietta Street,78641,30.5871465,-97.7898879
738,Marietta Street,78641,30.5873002,-97.7897704
734,Marietta Street,78641,30.5874518,-97.7896968
730,Marietta Street,78641,30.5875942,-97.7895817
726,Marietta Street,78641,30.5877335,-97.7894591
722,Marietta Street,78641,30.5878783,-97.7893524
3805,Waxahachie Road,78641,30.5858516,-97.7897597
3821,Waxahachie Road,78641,30.5865645,-97.7897800
3825,Waxahachie Road,78641,30.5867321,-97.7897165
3813,Waxahachie Road,78641,30.5862172,-97.7898333
3817,Waxahachie Road,78641,30.5863971,-97.7898201
3829,Waxahachie Road,78641,30.5868921,-97.7896147
3833,Waxahachie Road,78641,30.5870409,-97.7894963
3837,Waxahachie Road,78641,30.5871848,-97.7894010
3841,Waxahachie Road,78641,30.5873178,-97.7892725
3845,Waxahachie Road,78641,30.5874693,-97.7891156
3824,Waxahachie Road,78641,30.5865252,-97.7892605
3828,Waxahachie Road,78641,30.5866833,-97.7891476
3832,Waxahachie Road,78641,30.5868068,-97.7890590
3902,Waxahachie Road,78641,30.5872026,-97.7884788
808,Sanger Lane,78641,30.5854592,-97.7936504
3613,Prosper Road,78641,30.5854121,-97.7930076
17400,Ronald W Reagan Boulevard,78641,30.5882023,-97.8094344
17420,Ronald W Reagan Boulevard,78641,30.5891137,-97.8098651
17440,Ronald W Reagan Boulevard,78641,30.5897835,-97.8095908
17480,Ronald W Reagan Boulevard,78641,30.5913005,-97.8104870
17520,Ronald W Reagan Boulevard,78641,30.5929327,-97.8110538
17580,Ronald W Reagan Boulevard,78641,30.5953898,-97.8115265
17600,Ronald W Reagan Boulevard,78641,30.5958651,-97.8127257
17640,Ronald W Reagan Boulevard,78641,30.5967428,-97.8119049
301,County Road 264,78641,30.5990144,-97.8076174
3012,Vista Heights Drive,78641,30.6023351,-97.8094868
17920,Ronald W Reagan Boulevard,78641,30.6073505,-97.8125213
309,Limestone Creek Road,78641,30.5976577,-97.8012114
321,Limestone Creek Road,78641,30.5977980,-97.8016277
325,Limestone Creek Road,78641,30.5980035,-97.8021208
328,Limestone Creek Road,78641,30.5984622,-97.8019762
324,Limestone Creek Road,78641,30.5985285,-97.8014227
316,Limestone Creek Road,78641,30.5983331,-97.8009086
312,Limestone Creek Road,78641,30.5981268,-97.8005446
304,Limestone Creek Road,78641,30.5976457,-97.8003308
200,Flintlock Drive,78641,30.5969285,-97.7996342
204,Flintlock Drive,78641,30.5974476,-97.7993984
3500,Juniper Rim Cove,78641,30.5980830,-97.7995805
3504,Juniper Rim Cove,78641,30.5982006,-97.7990269
3508,Juniper Rim Cove,78641,30.5984903,-97.7988141
3512,Juniper Rim Cove,78641,30.5988995,-97.7984350
3600,Juniper Rim Cove,78641,30.5992366,-97.7981239
3604,Juniper Rim Cove,78641,30.5995283,-97.7978035
3608,Juniper Rim Cove,78641,30.5999676,-97.7976568
3612,Juniper Rim Cove,78641,30.6004234,-97.7977349
3616,Juniper Rim Cove,78641,30.6009298,-97.7978558
3620,Juniper Rim Cove,78641,30.6014020,-97.7982490
3700,Juniper Rim Cove,78641,30.6017914,-97.7984514
3704,Juniper Rim Cove,78641,30.6024210,-97.7984715
3708,Juniper Rim Cove,78641,30.6029741,-97.7987012
3705,Juniper Rim Cove,78641,30.6023936,-97.7992464
3701,Juniper Rim Cove,78641,30.6019242,-97.7991435
3625,Juniper Rim Cove,78641,30.6015191,-97.7991415
3621,Juniper Rim Cove,78641,30.6010364,-97.7988201
3617,Juniper Rim Cove,78641,30.6006485,-97.7986011
3609,Juniper Rim Cove,78641,30.6002325,-97.7984599
3601,Juniper Rim Cove,78641,30.5997742,-97.7986693
3513,Juniper Rim Cove,78641,30.5994192,-97.7989945
300,Flintlock Drive,78641,30.5986864,-97.7997274
304,Flintlock Drive,78641,30.5991034,-97.7997810
308,Flintlock Drive,78641,30.5994656,-97.7998964
312,Flintlock Drive,78641,30.5998160,-97.8000272
400,Flintlock Drive,78641,30.6001894,-97.8001230
408,Flintlock Drive,78641,30.6005546,-97.8000294
412,Flintlock Drive,78641,30.6008533,-97.8001290
505,Flintlock Drive,78641,30.6014161,-97.8011589
501,Flintlock Drive,78641,30.6010523,-97.8014503
409,Flintlock Drive,78641,30.6005913,-97.8013522
405,Flintlock Drive,78641,30.6002440,-97.8009321
401,Flintlock Drive,78641,30.5999073,-97.8008290
412,Unity Drive,78641,30.5997782,-97.8017848
416,Unity Drive,78641,30.5999270,-97.8022881
420,Unity Drive,78641,30.5999941,-97.8027973
3408,Branch Hallow,78641,30.6005225,-97.8025123
3416,Branch Hallow,78641,30.6013243,-97.8022437
3420,Branch Hallow,78641,30.6018235,-97.8018105
509,Flintlock Drive,78641,30.6015446,-97.8007485
3500,Branch Hallow,78641,30.6021405,-97.8012092
3504,Branch Hallow,78641,30.6024474,-97.8016977
3501,Branch Hallow,78641,30.6025379,-97.8024233
3421,Branch Hallow,78641,30.6021619,-97.8026240
3417,Branch Hallow,78641,30.6017170,-97.8028221
3413,Branch Hallow,78641,30.6012989,-97.8030825
3409,Branch Hallow,78641,30.6009206,-97.8032445
500,Unity Drive,78641,30.6002662,-97.8035284
504,Unity Drive,78641,30.6005910,-97.8039413
508,Unity Drive,78641,30.6009516,-97.8043004
3300,Vista Heights Drive,78641,30.6014552,-97.8041809
3304,Vista Heights Drive,78641,30.6019016,-97.8039649
3308,Vista Heights Drive,78641,30.6022894,-97.8037477
3312,Vista Heights Drive,78641,30.6026919,-97.8035306
3316,Vista Heights Drive,78641,30.6030286,-97.8037140
3313,Vista Heights Drive,78641,30.6030436,-97.8042164
3309,Vista Heights Drive,78641,30.6025676,-97.8045532
3305,Vista Heights Drive,78641,30.6021310,-97.8046786
600,Unity Drive,78641,30.6014875,-97.8050093
604,Unity Drive,78641,30.6018224,-97.8054049
608,Unity Drive,78641,30.6020701,-97.8057276
612,Unity Drive,78641,30.6023390,-97.8060026
700,Unity Drive,78641,30.6025521,-97.8063669
704,Unity Drive,78641,30.6027970,-97.8066379
3200,Elm Ridge Drive,78641,30.6031979,-97.8070868
3204,Elm Ridge Drive,78641,30.6035894,-97.8066983
3300,Elm Ridge Drive,78641,30.6038144,-97.8061316
3304,Elm Ridge Drive,78641,30.6038866,-97.8056025
3308,Elm Ridge Drive,78641,30.6040133,-97.8051754
3312,Elm Ridge Drive,78641,30.6040558,-97.8047399
3400,Elm Ridge Drive,78641,30.6041334,-97.8043340
3404,Elm Ridge Drive,78641,30.6042876,-97.8037326
3408,Elm Ridge Drive,78641,30.6043060,-97.8033183
3412,Elm Ridge Drive,78641,30.6044018,-97.8029401
3500,Elm Ridge Drive,78641,30.6041900,-97.8024207
3504,Elm Ridge Drive,78641,30.6045184,-97.8021580
3508,Elm Ridge Drive,78641,30.6046867,-97.8018003
3512,Elm Ridge Drive,78641,30.6048427,-97.8013588
3600,Elm Ridge Drive,78641,30.6049731,-97.8009245
3604,Elm Ridge Drive,78641,30.6050283,-97.8004412
3608,Elm Ridge Drive,78641,30.6054794,-97.8002162
3609,Elm Ridge Drive,78641,30.6058000,-97.8004567
3605,Elm Ridge Drive,78641,30.6058851,-97.8008088
800,Gipper Lane,78641,30.6055555,-97.8012039
3400,Prairie Heights Drive,78641,30.6047511,-97.8042348
3409,Elm Ridge Drive,78641,30.6049027,-97.8035339
3413,Elm Ridge Drive,78641,30.6050190,-97.8029567
801,Gipper Lane,78641,30.6052760,-97.8018925
805,Gipper Lane,78641,30.6055919,-97.8020546
809,Gipper Lane,78641,30.6059524,-97.8022023
817,Gipper Lane,78641,30.6062846,-97.8023352
901,Gipper Lane,78641,30.6066003,-97.8024869
3500,Prairie Heights Drive,78641,30.6062788,-97.8034804
3416,Prairie Heights Drive,78641,30.6060814,-97.8039005
3408,Prairie Heights Drive,78641,30.6056705,-97.8043312
3404,Prairie Heights Drive,78641,30.6051359,-97.8044388
812,Gipper Lane,78641,30.6061380,-97.8015020
816,Gipper Lane,78641,30.6067682,-97.8018168
3609,Prairie Heights Drive,78641,30.6077796,-97.8007440
3605,Prairie Heights Drive,78641,30.6076563,-97.8014774
3601,Prairie Heights Drive,78641,30.6073917,-97.8020212
3509,Prairie Heights Drive,78641,30.6071482,-97.8026565
3505,Prairie Heights Drive,78641,30.6070438,-97.8032453
3501,Prairie Heights Drive,78641,30.6067720,-97.8037140
3417,Prairie Heights Drive,78641,30.6065975,-97.8042641
3413,Prairie Heights Drive,78641,30.6060717,-97.8049161
3405,Prairie Heights Drive,78641,30.6054693,-97.8051313
3309,Elm Ridge Drive,78641,30.6046460,-97.8050319
501,High Lonesome Trail,78641,30.6052212,-97.8078500
601,High Lonesome Trail,78641,30.6046998,-97.8093452
701,High Lonesome Trail,78641,30.6047896,-97.8114830
3305,Elm Ridge Drive,78641,30.6045447,-97.8055908
3301,Elm Ridge Drive,78641,30.6044568,-97.8061154
3209,Elm Ridge Drive,78641,30.6042700,-97.8066787
3205,Elm Ridge Drive,78641,30.6040464,-97.8072092
800,Unity Drive,78641,30.6037177,-97.8076110
804,Unity Drive,78641,30.6038748,-97.8081087
805,Unity Drive,78641,30.6037230,-97.8086779
801,Unity Drive,78641,30.6030915,-97.8081878
3105,Vista Heights Drive,78641,30.6027277,-97.8086270
401,Unity Drive,78641,30.5993571,-97.8005807
405,Unity Drive,78641,30.5991880,-97.8010266
409,Unity Drive,78641,30.5991229,-97.8016526
413,Unity Drive,78641,30.5992521,-97.8024247
417,Unity Drive,78641,30.5993644,-97.8030601
501,Unity Drive,78641,30.5997474,-97.8039284
505,Unity Drive,78641,30.6002000,-97.8044606
509,Unity Drive,78641,30.6005044,-97.8049289
601,Unity Drive,78641,30.6010621,-97.8056472
605,Unity Drive,78641,30.6013289,-97.8059632
609,Unity Drive,78641,30.6018805,-97.8065847
701,Unity Drive,78641,30.6022453,-97.8071127
705,Unity Drive,78641,30.6026714,-97.8075304
3113,Vista Heights Drive,78641,30.6022214,-97.8080708
3101,Vista Heights Drive,78641,30.6029518,-97.8091278
3013,Vista Heights Drive,78641,30.6029853,-97.8094925
3009,Vista Heights Drive,78641,30.6030009,-97.8098567
3005,Vista Heights Drive,78641,30.6029739,-97.8102158
3001,Vista Heights Drive,78641,30.6029046,-97.8106409
2913,Vista Heights Drive,78641,30.6028347,-97.8110990
2909,Vista Heights Drive,78641,30.6027135,-97.8115811
2905,Vista Heights Drive,78641,30.6026229,-97.8120345
2901,Vista Heights Drive,78641,30.6025387,-97.8125763
2809,Vista Heights Drive,78641,30.6022625,-97.8130093
2805,Vista Heights Drive,78641,30.6020061,-97.8133811
2801,Vista Heights Drive,78641,30.6018749,-97.8137909
2721,Vista Heights Drive,78641,30.6016758,-97.8141282
2717,Vista Heights Drive,78641,30.6016042,-97.8146304
2716,Vista Heights Drive,78641,30.6009532,-97.8145557
2720,Vista Heights Drive,78641,30.6010177,-97.8141039
2800,Vista Heights Drive,78641,30.6011451,-97.8137177
2804,Vista Heights Drive,78641,30.6013144,-97.8132786
2808,Vista Heights Drive,78641,30.6015183,-97.8129933
2812,Vista Heights Drive,78641,30.6016613,-97.8126500
2900,Vista Heights Drive,78641,30.6018088,-97.8122754
2904,Vista Heights Drive,78641,30.6019327,-97.8118793
2908,Vista Heights Drive,78641,30.6020590,-97.8115905
2912,Vista Heights Drive,78641,30.6021619,-97.8111626
3000,Vista Heights Drive,78641,30.6022847,-97.8107810
3004,Vista Heights Drive,78641,30.6022413,-97.8103399
3008,Vista Heights Drive,78641,30.6022361,-97.8099679
3104,Vista Heights Drive,78641,30.6021217,-97.8089480
3112,Vista Heights Drive,78641,30.6017946,-97.8085430
3116,Vista Heights Drive,78641,30.6014734,-97.8081447
3120,Vista Heights Drive,78641,30.6011292,-97.8077752
3124,Vista Heights Drive,78641,30.6007880,-97.8073285
3128,Vista Heights Drive,78641,30.6004647,-97.8068754
3200,Vista Heights Drive,78641,30.6000222,-97.8065075
3204,Vista Heights Drive,78641,30.5997705,-97.8062230
3117,Vista Heights Drive,78641,30.6018421,-97.8075691
3121,Vista Heights Drive,78641,30.6014624,-97.8070912
3125,Vista Heights Drive,78641,30.6010926,-97.8066448
3201,Vista Heights Drive,78641,30.6006594,-97.8061323
400,Old Pecan Lane,78641,30.5990705,-97.8040635
408,Old Pecan Lane,78641,30.5994227,-97.8045446
412,Old Pecan Lane,78641,30.5995418,-97.8050004
413,Old Pecan Lane,78641,30.5993400,-97.8056556
409,Old Pecan Lane,78641,30.5989596,-97.8052789
405,Old Pecan Lane,78641,30.5985825,-97.8048197
401,Old Pecan Lane,78641,30.5984559,-97.8043375
309,Old Pecan Lane,78641,30.5982580,-97.8039105
305,Old Pecan Lane,78641,30.5980450,-97.8034205
301,Old Pecan Lane,78641,30.5981598,-97.8029046
300,Old Pecan Lane,78641,30.5985572,-97.8028809
3300,Branch Hallow,78641,30.5989396,-97.8033049
7300,Leander Road,78628,30.5941761,-97.8021218
121,County Road 264,78641,30.5994321,-97.8117512
51,County Road 264,78641,30.5988065,-97.8135688
333,County Road 264,78641,30.5983461,-97.8064497
335,County Road 264,78641,30.5974777,-97.8069793
339,County Road 264,78641,30.5973826,-97.8053111
354,County Road 264,78641,30.5973371,-97.8086994
2808,Seneca Path,78641,30.6131416,-97.8186820
2812,Seneca Path,78641,30.6131430,-97.8185760
2816,Seneca Path,78641,30.6131823,-97.8184737
2817,Seneca Path,78641,30.6136674,-97.8185512
2813,Seneca Path,78641,30.6136513,-97.8186544
2809,Seneca Path,78641,30.6136120,-97.8187537
2805,Seneca Path,78641,30.6135870,-97.8188600
2801,Seneca Path,78641,30.6135898,-97.8189676
2737,Seneca Path,78641,30.6135632,-97.8190631
2733,Seneca Path,78641,30.6135161,-97.8191580
2729,Seneca Path,78641,30.6135244,-97.8192631
2732,Hopi Path,78641,30.6137344,-97.8193031
2736,Hopi Path,78641,30.6137589,-97.8192064
2800,Hopi Path,78641,30.6138000,-97.8191169
2804,Hopi Path,78641,30.6138307,-97.8190167
2808,Hopi Path,78641,30.6138377,-97.8189069
2812,Hopi Path,78641,30.6138755,-97.8188160
2816,Hopi Path,78641,30.6138945,-97.8187163
2820,Hopi Path,78641,30.6139153,-97.8186131
2725,Hopi Path,78641,30.6141515,-97.8196903
2729,Hopi Path,78641,30.6141932,-97.8195565
2733,Hopi Path,78641,30.6142277,-97.8194357
2737,Hopi Path,78641,30.6142638,-97.8193241
2801,Hopi Path,78641,30.6142864,-97.8191928
2805,Hopi Path,78641,30.6143145,-97.8190735
2809,Hopi Path,78641,30.6143400,-97.8189428
2813,Hopi Path,78641,30.6143618,-97.8188286
2817,Hopi Path,78641,30.6143996,-97.8186998
2832,Seneca Path,78641,30.6132297,-97.8181410
2836,Seneca Path,78641,30.6132191,-97.8180307
2840,Seneca Path,78641,30.6132276,-97.8179323
2844,Seneca Path,78641,30.6132529,-97.8178286
2845,Seneca Path,78641,30.6137146,-97.8178111
2841,Seneca Path,78641,30.6137411,-97.8179152
2837,Seneca Path,78641,30.6137130,-97.8180186
2833,Seneca Path,78641,30.6137369,-97.8181292
2829,Seneca Path,78641,30.6136957,-97.8182319
2828,Hopi Path,78641,30.6139577,-97.8182766
2832,Hopi Path,78641,30.6139562,-97.8181819
2836,Hopi Path,78641,30.6140008,-97.8180432
2837,Hopi Path,78641,30.6144515,-97.8180835
2833,Hopi Path,78641,30.6144728,-97.8182231
2829,Hopi Path,78641,30.6144579,-97.8183561
1721,Lakota Lane,78641,30.6145844,-97.8187712
1725,Lakota Lane,78641,30.6147139,-97.8187872
1729,Lakota Lane,78641,30.6148066,-97.8188474
1733,Lakota Lane,78641,30.6149422,-97.8188932
1724,Lakota Lane,78641,30.6147661,-97.8183318
1727,Lakota Lane,78641,30.6148920,-97.8184351
1731,Lakota Lane,78641,30.6150306,-97.8184562
10742,East Crystal Falls Parkway,78641,30.5636955,-97.8237528
10742,East Crystal Falls Parkway,78641,30.5638027,-97.8233394
10921,East Crystal Falls Parkway,78641,30.5692310,-97.8121883
10820,East Crystal Falls Parkway,78641,30.5651992,-97.8188488
2090,Raider Way,78641,30.5587320,-97.8196616
3204,Tswana Drive,78641,30.6104230,-97.8099232
3212,Tswana Drive,78641,30.6098998,-97.8096543
3216,Tswana Drive,78641,30.6096904,-97.8094769
3220,Tswana Drive,78641,30.6095463,-97.8092871
3224,Tswana Drive,78641,30.6093859,-97.8091127
3228,Tswana Drive,78641,30.6092531,-97.8089234
3232,Tswana Drive,78641,30.6090823,-97.8086912
3308,Belted Galloway Street,78641,30.6102459,-97.8092864
3312,Belted Galloway Street,78641,30.6103496,-97.8090452
3316,Belted Galloway Street,78641,30.6104500,-97.8088123
3221,Tswana Drive,78641,30.6098373,-97.8088594
3229,Tswana Drive,78641,30.6095279,-97.8084670
3305,Tswana Drive,78641,30.6093034,-97.8080168
3309,Tswana Drive,78641,30.6092396,-97.8077564
3313,Tswana Drive,78641,30.6092179,-97.8074873
3317,Tswana Drive,78641,30.6092543,-97.8071814
3321,Tswana Drive,78641,30.6093391,-97.8069680
3331,Tswana Drive,78641,30.6095814,-97.8062312
3335,Tswana Drive,78641,30.6096578,-97.8060303
3812,Gabriels Horn Road,78641,30.6101588,-97.8086749
3816,Gabriels Horn Road,78641,30.6100067,-97.8084993
3824,Gabriels Horn Road,78641,30.6098014,-97.8081522
3832,Gabriels Horn Road,78641,30.6097003,-97.8077545
3900,Gabriels Horn Road,78641,30.6096818,-97.8073315
3904,Gabriels Horn Road,78641,30.6097148,-97.8071330
3908,Gabriels Horn Road,78641,30.6097692,-97.8069319
3912,Gabriels Horn Road,78641,30.6098375,-97.8067654
3922,Gabriels Horn Road,78641,30.6100392,-97.8062153
3824,Belted Galloway Street,78641,30.6106004,-97.8083893
3828,Belted Galloway Street,78641,30.6106594,-97.8082160
1241,Siboney Court,78641,30.6108279,-97.8078149
1249,Siboney Court,78641,30.6105175,-97.8074609
1244,Siboney Court,78641,30.6108389,-97.8071006
1241,Umblachery Street,78641,30.6111718,-97.8067329
1237,Umblachery Street,78641,30.6109960,-97.8066730
1233,Umblachery Street,78641,30.6108658,-97.8065872
1229,Umblachery Street,78641,30.6107046,-97.8065276
3913,Gabriels Horn Road,78641,30.6104470,-97.8063734
3905,Gabriels Horn Road,78641,30.6103350,-97.8067276
1204,Umblachery Street,78641,30.6099331,-97.8056601
1208,Umblachery Street,78641,30.6100908,-97.8057115
1212,Umblachery Street,78641,30.6102433,-97.8057905
1216,Umblachery Street,78641,30.6103980,-97.8058543
1220,Umblachery Street,78641,30.6105559,-97.8059121
1224,Umblachery Street,78641,30.6107080,-97.8059938
1228,Umblachery Street,78641,30.6108640,-97.8060548
1232,Umblachery Street,78641,30.6110196,-97.8061097
3420,Belted Galloway Street,78641,30.6112614,-97.8062823
3424,Belted Galloway Street,78641,30.6113371,-97.8060993
3428,Belted Galloway Street,78641,30.6113784,-97.8059147
3432,Belted Galloway Street,78641,30.6114293,-97.8057094
3325,Belted Galloway Street,78641,30.6110173,-97.8085619
3333,Belted Galloway Street,78641,30.6111392,-97.8081963
3341,Belted Galloway Street,78641,30.6112501,-97.8078490
3409,Belted Galloway Street,78641,30.6115564,-97.8068902
3413,Belted Galloway Street,78641,30.6116054,-97.8066933
3417,Belted Galloway Street,78641,30.6116953,-97.8065141
3421,Belted Galloway Street,78641,30.6117377,-97.8062968
3425,Belted Galloway Street,78641,30.6118026,-97.8061086
3429,Belted Galloway Street,78641,30.6118605,-97.8059084
1401,Donetto Drive,78641,30.6111117,-97.8102729
3300,Vestland Fjord Street,78641,30.6110091,-97.8100889
3304,Vestland Fjord Street,78641,30.6109731,-97.8098243
3308,Vestland Fjord Street,78641,30.6111172,-97.8096767
3312,Vestland Fjord Street,78641,30.6111916,-97.8095159
3316,Vestland Fjord Street,78641,30.6112473,-97.8093252
3320,Vestland Fjord Street,78641,30.6112960,-97.8091500
3332,Vestland Fjord Street,78641,30.6115429,-97.8084216
3336,Vestland Fjord Street,78641,30.6115686,-97.8082659
3340,Vestland Fjord Street,78641,30.6116477,-97.8081204
3344,Vestland Fjord Street,78641,30.6116711,-97.8079555
3348,Vestland Fjord Street,78641,30.6117321,-97.8078127
3352,Vestland Fjord Street,78641,30.6117808,-97.8076510
3404,Vestland Fjord Street,78641,30.6118805,-97.8073408
3412,Vestland Fjord Street,78641,30.6119804,-97.8070310
3420,Vestland Fjord Street,78641,30.6120758,-97.8067241
3424,Vestland Fjord Street,78641,30.6121302,-97.8065697
3428,Vestland Fjord Street,78641,30.6121764,-97.8064121
3432,Vestland Fjord Street,78641,30.6122260,-97.8062607
3436,Vestland Fjord Street,78641,30.6122694,-97.8060865
1414,Donetto Drive,78641,30.6119924,-97.8100024
1440,Donetto Drive,78641,30.6127637,-97.8103392
1444,Donetto Drive,78641,30.6129308,-97.8103603
3312,Retinta Street,78641,30.6130002,-97.8100864
3316,Retinta Street,78641,30.6130693,-97.8098697
3320,Retinta Street,78641,30.6130563,-97.8096333
3324,Retinta Street,78641,30.6129878,-97.8093977
3632,Gabriels Horn Road,78641,30.6126650,-97.8095426
3636,Gabriels Horn Road,78641,30.6124975,-97.8095799
3640,Gabriels Horn Road,78641,30.6123203,-97.8095804
3648,Gabriels Horn Road,78641,30.6119708,-97.8095203
3700,Gabriels Horn Road,78641,30.6118296,-97.8094041
3704,Gabriels Horn Road,78641,30.6116725,-97.8093400
3617,Gabriels Horn Road,78641,30.6132110,-97.8086889
3621,Gabriels Horn Road,78641,30.6130592,-97.8087967
3625,Gabriels Horn Road,78641,30.6129073,-97.8089188
3629,Gabriels Horn Road,78641,30.6127249,-97.8089968
3633,Gabriels Horn Road,78641,30.6125355,-97.8090318
3637,Gabriels Horn Road,78641,30.6123428,-97.8090456
3325,Vestland Fjord Street,78641,30.6118559,-97.8089278
3329,Vestland Fjord Street,78641,30.6118974,-97.8087536
3333,Vestland Fjord Street,78641,30.6119577,-97.8085997
3337,Vestland Fjord Street,78641,30.6119954,-97.8084357
3341,Vestland Fjord Street,78641,30.6120424,-97.8082901
3349,Vestland Fjord Street,78641,30.6121482,-97.8079872
3405,Vestland Fjord Street,78641,30.6122491,-97.8076776
3409,Vestland Fjord Street,78641,30.6123025,-97.8075266
3413,Vestland Fjord Street,78641,30.6123486,-97.8073688
3417,Vestland Fjord Street,78641,30.6124053,-97.8072140
3421,Vestland Fjord Street,78641,30.6124483,-97.8070532
3429,Vestland Fjord Street,78641,30.6125415,-97.8067463
3433,Vestland Fjord Street,78641,30.6125959,-97.8065935
3437,Vestland Fjord Street,78641,30.6126427,-97.8064371
3437,Vestland Fjord Street,78641,30.6127000,-97.8062613
3436,Piedmontese Drive,78641,30.6130842,-97.8064370
3432,Piedmontese Drive,78641,30.6130256,-97.8066319
3428,Piedmontese Drive,78641,30.6129664,-97.8068057
3424,Piedmontese Drive,78641,30.6128989,-97.8069894
3420,Piedmontese Drive,78641,30.6128498,-97.8071669
3416,Piedmontese Drive,78641,30.6127922,-97.8073521
3412,Piedmontese Drive,78641,30.6127381,-97.8075243
3408,Piedmontese Drive,78641,30.6126917,-97.8077318
3404,Piedmontese Drive,78641,30.6125752,-97.8078766
3400,Piedmontese Drive,78641,30.6125653,-97.8081616
1425,Oropa Way,78641,30.6127135,-97.8083246
1429,Oropa Way,78641,30.6129710,-97.8084032
3409,Piedmontese Drive,78641,30.6130980,-97.8078926
3413,Piedmontese Drive,78641,30.6131416,-97.8076934
3417,Piedmontese Drive,78641,30.6132212,-97.8075076
3421,Piedmontese Drive,78641,30.6132635,-97.8073280
3425,Piedmontese Drive,78641,30.6133385,-97.8071597
3429,Piedmontese Drive,78641,30.6133964,-97.8069791
3433,Piedmontese Drive,78641,30.6134381,-97.8067957
3437,Piedmontese Drive,78641,30.6134986,-97.8066017
3501,Mongolian Drive,78641,30.6135934,-97.8061403
3505,Mongolian Drive,78641,30.6134420,-97.8060675
3509,Mongolian Drive,78641,30.6132810,-97.8060054
3513,Mongolian Drive,78641,30.6131304,-97.8059384
3517,Mongolian Drive,78641,30.6129720,-97.8058824
3521,Mongolian Drive,78641,30.6128229,-97.8058089
3525,Mongolian Drive,78641,30.6126622,-97.8057567
3529,Mongolian Drive,78641,30.6125064,-97.8056754
3533,Mongolian Drive,78641,30.6123529,-97.8056255
1405,Donetto Drive,78641,30.6113165,-97.8103264
1409,Donetto Drive,78641,30.6114732,-97.8103395
1413,Donetto Drive,78641,30.6116324,-97.8103975
1417,Donetto Drive,78641,30.6117888,-97.8104565
1421,Donetto Drive,78641,30.6119377,-97.8105264
1425,Donetto Drive,78641,30.6120957,-97.8105992
1429,Donetto Drive,78641,30.6122520,-97.8106541
1433,Donetto Drive,78641,30.6123991,-97.8107278
1437,Donetto Drive,78641,30.6125499,-97.8108080
1441,Donetto Drive,78641,30.6126957,-97.8108642
1445,Donetto Drive,78641,30.6128338,-97.8109027
1505,Donetto Drive,78641,30.6129931,-97.8110018
1509,Donetto Drive,78641,30.6131260,-97.8110971
1513,Donetto Drive,78641,30.6132620,-97.8111701
1517,Donetto Drive,78641,30.6134578,-97.8112333
1521,Donetto Drive,78641,30.6136493,-97.8112761
1520,Donetto Drive,78641,30.6138066,-97.8107781
1516,Donetto Drive,78641,30.6136308,-97.8107376
1512,Donetto Drive,78641,30.6134450,-97.8106776
1508,Donetto Drive,78641,30.6132702,-97.8105955
3620,Gabriels Horn Road,78641,30.6133578,-97.8092075
3616,Gabriels Horn Road,78641,30.6134937,-97.8090905
3612,Gabriels Horn Road,78641,30.6136378,-97.8089944
3608,Gabriels Horn Road,78641,30.6137486,-97.8088575
3604,Gabriels Horn Road,78641,30.6138699,-97.8087258
3600,Gabriels Horn Road,78641,30.6139880,-97.8085796
3340,Mongolian Drive,78641,30.6141255,-97.8090104
3336,Mongolian Drive,78641,30.6141323,-97.8092544
3332,Mongolian Drive,78641,30.6141050,-97.8095028
3328,Mongolian Drive,78641,30.6140596,-97.8097177
3324,Mongolian Drive,78641,30.6140173,-97.8099306
3320,Mongolian Drive,78641,30.6139653,-97.8101372
3316,Mongolian Drive,78641,30.6138979,-97.8103593
3401,Mongolian Drive,78641,30.6144275,-97.8074917
3405,Mongolian Drive,78641,30.6143960,-97.8073031
3409,Mongolian Drive,78641,30.6143694,-97.8071187
3413,Mongolian Drive,78641,30.6143377,-97.8069177
3417,Mongolian Drive,78641,30.6142710,-97.8067106
3441,Mongolian Drive,78641,30.6141617,-97.8065572
3305,Mongolian Drive,78641,30.6141941,-97.8109878
3309,Mongolian Drive,78641,30.6142589,-97.8107558
3313,Mongolian Drive,78641,30.6143210,-97.8105527
3317,Mongolian Drive,78641,30.6143856,-97.8103399
3321,Mongolian Drive,78641,30.6144598,-97.8101367
3325,Mongolian Drive,78641,30.6144777,-97.8099023
3329,Mongolian Drive,78641,30.6145497,-97.8096989
3333,Mongolian Drive,78641,30.6146001,-97.8094887
3337,Mongolian Drive,78641,30.6146506,-97.8092427
3341,Mongolian Drive,78641,30.6146453,-97.8089997
3345,Mongolian Drive,78641,30.6145589,-97.8087769
3304,Karen Swiss Drive,78641,30.6145339,-97.8111320
3308,Karen Swiss Drive,78641,30.6146041,-97.8109281
3312,Karen Swiss Drive,78641,30.6146772,-97.8107119
3316,Karen Swiss Drive,78641,30.6147292,-97.8104924
3320,Karen Swiss Drive,78641,30.6147889,-97.8102807
3324,Karen Swiss Drive,78641,30.6148307,-97.8100503
3328,Karen Swiss Drive,78641,30.6149113,-97.8098459
3332,Karen Swiss Drive,78641,30.6149285,-97.8096215
1612,Illawarra Way,78641,30.6151639,-97.8094147
1616,Illawarra Way,78641,30.6154547,-97.8095498
1620,Illawarra Way,78641,30.6156280,-97.8096715
1624,Illawarra Way,78641,30.6157861,-97.8097816
1628,Illawarra Way,78641,30.6159726,-97.8098889
3329,Galacian Blonde Drive,78641,30.6163527,-97.8104740
3325,Galacian Blonde Drive,78641,30.6162157,-97.8106509
3321,Galacian Blonde Drive,78641,30.6160647,-97.8107999
3317,Galacian Blonde Drive,78641,30.6159712,-97.8109755
3313,Galacian Blonde Drive,78641,30.6158767,-97.8112148
3309,Galacian Blonde Drive,78641,30.6158105,-97.8114461
3305,Galacian Blonde Drive,78641,30.6157296,-97.8116370
3324,Galacian Blonde Drive,78641,30.6157505,-97.8104402
3320,Galacian Blonde Drive,78641,30.6156138,-97.8106172
3316,Galacian Blonde Drive,78641,30.6155241,-97.8108310
3312,Galacian Blonde Drive,78641,30.6154363,-97.8110383
3308,Galacian Blonde Drive,78641,30.6153644,-97.8112460
3304,Galacian Blonde Drive,78641,30.6153135,-97.8114638
3304,Estonian Red Lane,78641,30.6160933,-97.8117901
3308,Estonian Red Lane,78641,30.6161604,-97.8115684
3312,Estonian Red Lane,78641,30.6162415,-97.8113666
3316,Estonian Red Lane,78641,30.6163654,-97.8111734
3320,Estonian Red Lane,78641,30.6164894,-97.8109915
3324,Estonian Red Lane,78641,30.6166036,-97.8107994
1605,Donetto Drive,78641,30.6139848,-97.8114176
1609,Donetto Drive,78641,30.6141781,-97.8114941
1613,Donetto Drive,78641,30.6143559,-97.8115669
1617,Donetto Drive,78641,30.6145379,-97.8116381
1621,Donetto Drive,78641,30.6147200,-97.8117237
1625,Donetto Drive,78641,30.6149003,-97.8117924
1629,Donetto Drive,78641,30.6150673,-97.8118824
1740,Donetto Drive,78641,30.6173811,-97.8121802
1736,Donetto Drive,78641,30.6170809,-97.8121548
1732,Donetto Drive,78641,30.6168956,-97.8121323
3309,Estonian Red Lane,78641,30.6165291,-97.8119338
3313,Estonian Red Lane,78641,30.6166692,-97.8116705
3317,Estonian Red Lane,78641,30.6167953,-97.8114333
3321,Estonian Red Lane,78641,30.6169032,-97.8112659
3325,Estonian Red Lane,78641,30.6170063,-97.8110669
1633,Donetto Drive,78641,30.6152650,-97.8119648
1701,Donetto Drive,78641,30.6154468,-97.8120109
1705,Donetto Drive,78641,30.6156301,-97.8121200
1709,Donetto Drive,78641,30.6157889,-97.8121752
1713,Donetto Drive,78641,30.6159905,-97.8122494
1717,Donetto Drive,78641,30.6161646,-97.8123677
1721,Donetto Drive,78641,30.6163415,-97.8124323
1725,Donetto Drive,78641,30.6165119,-97.8125385
1733,Donetto Drive,78641,30.6168979,-97.8126757
1737,Donetto Drive,78641,30.6170692,-97.8126939
1741,Donetto Drive,78641,30.6173041,-97.8128375
3416,Arrieta Drive,78641,30.6154211,-97.8083283
3420,Arrieta Drive,78641,30.6155012,-97.8081565
3424,Arrieta Drive,78641,30.6155660,-97.8079547
3428,Arrieta Drive,78641,30.6156227,-97.8077562
3432,Arrieta Drive,78641,30.6156923,-97.8075507
1521,Telemark Cove,78641,30.6153491,-97.8076474
1521,Telemark Cove,78641,30.6151920,-97.8075845
1512,Telemark Cove,78641,30.6152080,-97.8068179
1516,Telemark Cove,78641,30.6154117,-97.8068981
1520,Telemark Cove,78641,30.6155612,-97.8069603
3504,Arrieta Drive,78641,30.6158344,-97.8071276
3508,Arrieta Drive,78641,30.6158700,-97.8069494
3512,Arrieta Drive,78641,30.6159403,-97.8067463
3516,Arrieta Drive,78641,30.6160008,-97.8065627
3413,Arrieta Drive,78641,30.6158171,-97.8085419
3417,Arrieta Drive,78641,30.6158917,-97.8083814
3421,Arrieta Drive,78641,30.6159572,-97.8081859
3425,Arrieta Drive,78641,30.6160103,-97.8080130
3429,Arrieta Drive,78641,30.6160604,-97.8078281
3433,Arrieta Drive,78641,30.6161187,-97.8076528
3501,Arrieta Drive,78641,30.6161987,-97.8074769
3505,Arrieta Drive,78641,30.6162530,-97.8072951
3509,Arrieta Drive,78641,30.6163063,-97.8071136
3513,Arrieta Drive,78641,30.6163343,-97.8069287
3517,Arrieta Drive,78641,30.6164082,-97.8067521
3416,Limousin Drive,78641,30.6162265,-97.8086950
3420,Limousin Drive,78641,30.6162727,-97.8085237
3424,Limousin Drive,78641,30.6163471,-97.8083575
3428,Limousin Drive,78641,30.6163990,-97.8081693
3432,Limousin Drive,78641,30.6164429,-97.8079951
3500,Limousin Drive,78641,30.6165149,-97.8078139
3504,Limousin Drive,78641,30.6165740,-97.8076364
3508,Limousin Drive,78641,30.6166289,-97.8074471
3512,Limousin Drive,78641,30.6166889,-97.8072760
3516,Limousin Drive,78641,30.6167401,-97.8070913
3520,Limousin Drive,78641,30.6168033,-97.8069100
1420,Hinterwald Street,78641,30.6140737,-97.8056826
1424,Hinterwald Street,78641,30.6142793,-97.8056015
1428,Hinterwald Street,78641,30.6144853,-97.8055447
1432,Hinterwald Street,78641,30.6147089,-97.8055689
1500,Hinterwald Street,78641,30.6148964,-97.8056347
1504,Hinterwald Street,78641,30.6150924,-97.8056892
1508,Hinterwald Street,78641,30.6152675,-97.8057756
1512,Hinterwald Street,78641,30.6154508,-97.8058448
1516,Hinterwald Street,78641,30.6156298,-97.8059252
1520,Hinterwald Street,78641,30.6158223,-97.8059762
1600,Hinterwald Street,78641,30.6159861,-97.8060835
1604,Hinterwald Street,78641,30.6161848,-97.8061199
1608,Hinterwald Street,78641,30.6163706,-97.8062309
1612,Hinterwald Street,78641,30.6165853,-97.8063168
1616,Hinterwald Street,78641,30.6168648,-97.8064348
1620,Hinterwald Street,78641,30.6170758,-97.8064990
3413,Limousin Drive,78641,30.6165803,-97.8090188
3417,Limousin Drive,78641,30.6166611,-97.8088370
3421,Limousin Drive,78641,30.6167193,-97.8086465
3425,Limousin Drive,78641,30.6167743,-97.8084735
3429,Limousin Drive,78641,30.6168383,-97.8083015
3433,Limousin Drive,78641,30.6168817,-97.8081151
3501,Limousin Drive,78641,30.6169512,-97.8079415
3505,Limousin Drive,78641,30.6170091,-97.8077588
3509,Limousin Drive,78641,30.6170601,-97.8075812
3513,Limousin Drive,78641,30.6171055,-97.8073990
3517,Limousin Drive,78641,30.6171599,-97.8072187
3521,Limousin Drive,78641,30.6172260,-97.8070522
3524,Jaulan Street,78641,30.6176376,-97.8072098
3520,Jaulan Street,78641,30.6175771,-97.8073597
3516,Jaulan Street,78641,30.6175261,-97.8075102
3512,Jaulan Street,78641,30.6175045,-97.8076607
3508,Jaulan Street,78641,30.6174438,-97.8078041
3504,Jaulan Street,78641,30.6174038,-97.8079587
3500,Jaulan Street,78641,30.6173464,-97.8081109
3440,Jaulan Street,78641,30.6173103,-97.8082572
3436,Jaulan Street,78641,30.6172481,-97.8084087
3432,Jaulan Street,78641,30.6172292,-97.8085636
3428,Jaulan Street,78641,30.6171807,-97.8087122
3424,Jaulan Street,78641,30.6171186,-97.8088539
3420,Jaulan Street,78641,30.6170807,-97.8089984
3416,Jaulan Street,78641,30.6170355,-97.8091454
3412,Jaulan Street,78641,30.6169511,-97.8093238
3409,Jaulan Street,78641,30.6173284,-97.8096508
3413,Jaulan Street,78641,30.6173967,-97.8094998
3417,Jaulan Street,78641,30.6174672,-97.8093336
3421,Jaulan Street,78641,30.6174950,-97.8091769
3425,Jaulan Street,78641,30.6175521,-97.8090298
3429,Jaulan Street,78641,30.6175889,-97.8088756
3433,Jaulan Street,78641,30.6176386,-97.8087267
3437,Jaulan Street,78641,30.6176876,-97.8085832
3441,Jaulan Street,78641,30.6177286,-97.8084295
3501,Jaulan Street,78641,30.6177881,-97.8082806
3505,Jaulan Street,78641,30.6178289,-97.8081275
3509,Jaulan Street,78641,30.6178813,-97.8079812
3513,Jaulan Street,78641,30.6179222,-97.8078285
3517,Jaulan Street,78641,30.6179772,-97.8076791
3521,Jaulan Street,78641,30.6180216,-97.8075288
3525,Jaulan Street,78641,30.6180529,-97.8073816
3524,Charade Drive,78641,30.6184326,-97.8075316
3520,Charade Drive,78641,30.6183924,-97.8076865
3516,Charade Drive,78641,30.6183510,-97.8078362
3512,Charade Drive,78641,30.6183030,-97.8079841
3508,Charade Drive,78641,30.6182606,-97.8081337
3504,Charade Drive,78641,30.6182014,-97.8082797
3500,Charade Drive,78641,30.6181664,-97.8084324
3436,Charade Drive,78641,30.6181216,-97.8085814
3432,Charade Drive,78641,30.6180717,-97.8087355
3428,Charade Drive,78641,30.6180315,-97.8088888
3424,Charade Drive,78641,30.6179882,-97.8090417
3420,Charade Drive,78641,30.6179319,-97.8091812
3416,Charade Drive,78641,30.6178776,-97.8093405
3412,Charade Drive,78641,30.6178396,-97.8094799
3408,Charade Drive,78641,30.6177944,-97.8096322
3404,Charade Drive,78641,30.6177430,-97.8097805
3400,Charade Drive,78641,30.6176855,-97.8099276
3356,Charade Drive,78641,30.6176488,-97.8100805
3352,Charade Drive,78641,30.6176032,-97.8102233
3348,Charade Drive,78641,30.6175571,-97.8103747
3333,Charade Drive,78641,30.6176721,-97.8110821
3337,Charade Drive,78641,30.6178455,-97.8109429
3341,Charade Drive,78641,30.6179249,-97.8107730
3345,Charade Drive,78641,30.6179473,-97.8106224
3349,Charade Drive,78641,30.6179845,-97.8104701
3353,Charade Drive,78641,30.6180479,-97.8103284
3357,Charade Drive,78641,30.6180752,-97.8101706
3401,Charade Drive,78641,30.6181226,-97.8100257
3405,Charade Drive,78641,30.6181854,-97.8098825
3409,Charade Drive,78641,30.6182323,-97.8097370
3413,Charade Drive,78641,30.6182855,-97.8095905
3417,Charade Drive,78641,30.6183255,-97.8094346
3421,Charade Drive,78641,30.6183741,-97.8092846
3501,Charade Drive,78641,30.6186157,-97.8085018
3505,Charade Drive,78641,30.6186698,-97.8083540
3509,Charade Drive,78641,30.6187136,-97.8082117
3513,Charade Drive,78641,30.6187652,-97.8080530
3517,Charade Drive,78641,30.6187917,-97.8078991
3521,Charade Drive,78641,30.6188659,-97.8077628
3525,Charade Drive,78641,30.6189539,-97.8076371
3529,Charade Drive,78641,30.6190086,-97.8074260
1736,Hinterwald Street,78641,30.6189185,-97.8072131
1732,Hinterwald Street,78641,30.6186969,-97.8071093
1728,Hinterwald Street,78641,30.6185059,-97.8070702
1724,Hinterwald Street,78641,30.6183297,-97.8069883
1720,Hinterwald Street,78641,30.6181432,-97.8069328
1716,Hinterwald Street,78641,30.6179476,-97.8068541
1712,Hinterwald Street,78641,30.6177774,-97.8067834
1708,Hinterwald Street,78641,30.6175904,-97.8067061
1704,Hinterwald Street,78641,30.6174165,-97.8066336
1700,Hinterwald Street,78641,30.6172467,-97.8065509
1816,Donetto Drive,78641,30.6178873,-97.8118421
1820,Donetto Drive,78641,30.6180181,-97.8117091
1824,Donetto Drive,78641,30.6181034,-97.8115393
1828,Donetto Drive,78641,30.6181533,-97.8113800
1832,Donetto Drive,78641,30.6182101,-97.8112416
1836,Donetto Drive,78641,30.6182469,-97.8110857
1840,Donetto Drive,78641,30.6182770,-97.8109343
1844,Donetto Drive,78641,30.6183340,-97.8107891
1848,Donetto Drive,78641,30.6183783,-97.8106348
1852,Donetto Drive,78641,30.6184306,-97.8104856
1900,Donetto Drive,78641,30.6184764,-97.8103320
1904,Donetto Drive,78641,30.6185086,-97.8101755
1908,Donetto Drive,78641,30.6185780,-97.8100517
1912,Donetto Drive,78641,30.6186184,-97.8098906
1916,Donetto Drive,78641,30.6186934,-97.8097551
1920,Donetto Drive,78641,30.6187057,-97.8095967
1924,Donetto Drive,78641,30.6187433,-97.8094434
1805,Donetto Drive,78641,30.6181292,-97.8123375
1809,Donetto Drive,78641,30.6182355,-97.8122188
1813,Donetto Drive,78641,30.6183403,-97.8120856
1817,Donetto Drive,78641,30.6184309,-97.8119490
1821,Donetto Drive,78641,30.6185102,-97.8117951
1825,Donetto Drive,78641,30.6185545,-97.8116338
1829,Donetto Drive,78641,30.6185824,-97.8114781
1841,Donetto Drive,78641,30.6187365,-97.8110313
1845,Donetto Drive,78641,30.6187728,-97.8108788
1849,Donetto Drive,78641,30.6188300,-97.8107369
1853,Donetto Drive,78641,30.6188704,-97.8105807
1901,Donetto Drive,78641,30.6189236,-97.8104330
1905,Donetto Drive,78641,30.6189650,-97.8102899
1909,Donetto Drive,78641,30.6190026,-97.8101344
1913,Donetto Drive,78641,30.6190516,-97.8099891
1917,Donetto Drive,78641,30.6191094,-97.8098443
1921,Donetto Drive,78641,30.6191385,-97.8096850
1925,Donetto Drive,78641,30.6192453,-97.8095616
1929,Donetto Drive,78641,30.6193041,-97.8094086
1828,Piercing Gaze Road,78641,30.6192652,-97.8091671
1824,Piercing Gaze Road,78641,30.6191295,-97.8090474
1820,Piercing Gaze Road,78641,30.6189840,-97.8090227
1816,Piercing Gaze Road,78641,30.6188411,-97.8089949
1812,Piercing Gaze Road,78641,30.6187126,-97.8089351
750,Kauffman Loop,78628,30.6323624,-97.8210021
700,Kauffman Loop,78628,30.6324232,-97.8221181
1150,CR 268,78628,30.6303251,-97.8205172
860,CR 268,78628,30.6323656,-97.8196669
920,American Trail,78641,30.5587648,-97.8601110
906,South West Drive,78641,30.5653736,-97.8517430
1841,Crystal Falls Parkway,78641,30.5461322,-97.8660216
1011,South Bagdad Road,78641,30.5599877,-97.8624104
11520,West Hero Way,78641,30.5808062,-97.8644331
651,North Highway 183,78641,30.5840321,-97.8580118
3301,South Bagdad Road,78641,30.5378929,-97.8511848
