House number,Street name,Postal code,Latitude,Longitude
2320,US 385,79336,33.5535776,-102.3746874
103,Clubview Drive,79336,33.5764757,-102.3690185
409,East State Highway 114,79336,33.5945416,-102.3609390
409,East State Highway 114,79336,33.5945308,-102.3603360
409,East State Highway 114,79336,33.5945322,-102.3604130
409,East State Highway 114,79336,33.5945336,-102.3605030
409,East State Highway 114,79336,33.5945433,-102.3607420
219,Cactus Drive,79336,33.5870493,-102.3630458
207,College Avenue,79336,33.5909502,-102.3672383
207,College Avenue,79336,33.5908322,-102.3672406
308,Austin Street,79336,33.5860285,-102.3712940
304,Austin Street,79336,33.5860453,-102.3708488
306,Austin Street,79336,33.5860417,-102.3710692
511,College Avenue,79336,33.5886446,-102.3668676
501,East State Highway 114,79336,33.5945656,-102.3596160
501,East State Highway 114,79336,33.5945303,-102.3594290
1400,Avenue I,79336,33.5761525,-102.3798986
1901,McKinley Street,79336,33.5908735,-102.3955061
201,Country Club Lane,79336,33.5708525,-102.3726131
1313,West State Highway 114,79336,33.5946224,-102.3835947
101,County Road,79336,33.5943757,-102.3287087
1900,College Avenue,79336,33.5731817,-102.3689129
106,Abe Street,79336,33.5958838,-102.3695865
500,A&M Lane,79336,33.5717401,-102.3618438
511,College Avenue,79336,33.5888597,-102.3665735
605,College Avenue,79336,33.5869759,-102.3672191
512,College Avenue,79336,33.5876800,-102.3682247
101,College Avenue,79336,33.5934600,-102.3672222
105,College Avenue,79336,33.5931535,-102.3670320
111,College Avenue,79336,33.5923876,-102.3670596
110,College Avenue,79336,33.5921395,-102.3681020
101,North College Avenue,79336,33.5944813,-102.3671093
207,East State Highway 114,79336,33.5942830,-102.3654140
407,East State Highway 114,79336,33.5962380,-102.3614673
401,North Sherman Avenue,79336,33.5944463,-102.3624304
403,East State Highway 114,79336,33.5944628,-102.3619686
405,East State Highway 114,79336,33.5944027,-102.3615243
501,East Highway 114,79336,33.5952809,-102.3595194
200,College Avenue,79336,33.5913179,-102.3679550
202,College Avenue,79336,33.5911299,-102.3679339
212,College Avenue,79336,33.5907311,-102.3681837
306,College Avenue,79336,33.5896596,-102.3679855
311,College Avenue,79336,33.5896337,-102.3669372
402,College Avenue,79336,33.5888181,-102.3681308
1012,Cactus Drive,79336,33.5862478,-102.3486431
701,Alamo Road,79336,33.5860881,-102.3478061
1008,Cactus Drive,79336,33.5861077,-102.3496030
1006,Cactus Drive,79336,33.5861013,-102.3500076
1010,Cactus Drive,79336,33.5860310,-102.3490979
717,Alamo Road,79336,33.5841543,-102.3476051
725,Alamo Road,79336,33.5835002,-102.3476498
801,Alamo Road,79336,33.5825567,-102.3478791
803,Alamo Road,79336,33.5815940,-102.3476764
903,Alamo Road,79336,33.5803828,-102.3477252
1101,Holly Street,79336,33.5813408,-102.3493278
1103,Holly Street,79336,33.5813359,-102.3490934
1105,Holly Street,79336,33.5813372,-102.3488455
1107,Holly Street,79336,33.5813251,-102.3486139
1104,Poplar Street,79336,33.5817367,-102.3490819
1102,Poplar Street,79336,33.5817449,-102.3493160
1106,Poplar Street,79336,33.5817434,-102.3488470
1108,Poplar Street,79336,33.5817348,-102.3486099
1101,Poplar Street,79336,33.5822624,-102.3492998
1105,Poplar Street,79336,33.5822261,-102.3488483
1107,Poplar Street,79336,33.5822642,-102.3486036
102,Fannin Avenue,79336,33.5860948,-102.3469480
104,Fannin Avenue,79336,33.5859513,-102.3469569
106,Fannin Avenue,79336,33.5858218,-102.3469483
108,Fannin Avenue,79336,33.5856881,-102.3469578
110,Fannin Avenue,79336,33.5855498,-102.3469525
112,Fannin Avenue,79336,33.5854083,-102.3469594
114,Fannin Avenue,79336,33.5852816,-102.3469601
118,Fannin Avenue,79336,33.5850069,-102.3469702
122,Fannin Avenue,79336,33.5847262,-102.3469209
101,Fannin Avenue,79336,33.5860905,-102.3463515
103,Fannin Avenue,79336,33.5859424,-102.3463517
105,Fannin Avenue,79336,33.5858127,-102.3463533
107,Fannin Avenue,79336,33.5856839,-102.3463424
109,Fannin Avenue,79336,33.5855424,-102.3463546
111,Fannin Avenue,79336,33.5854099,-102.3463685
113,Fannin Avenue,79336,33.5852726,-102.3463763
115,Fannin Avenue,79336,33.5851330,-102.3463524
117,Fannin Avenue,79336,33.5849982,-102.3463661
119,Fannin Avenue,79336,33.5848613,-102.3463270
121,Fannin Avenue,79336,33.5847231,-102.3463809
116,Fannin Avenue,79336,33.5851409,-102.3469400
120,Fannin Avenue,79336,33.5848587,-102.3469855
1404,Cactus Drive,79336,33.5860845,-102.3448050
1408,Cactus Drive,79336,33.5860405,-102.3441926
1406,Cactus Drive,79336,33.5860091,-102.3444815
1410,Cactus Drive,79336,33.5860426,-102.3437586
1414,Cactus Drive,79336,33.5859537,-102.3431890
102,Duval Drive,79336,33.5859585,-102.3422207
1416,Cactus Drive,79336,33.5860317,-102.3428677
119,Magnolia Street,79336,33.5797312,-102.3656658
117,Magnolia Street,79336,33.5797338,-102.3659279
115,Magnolia Street,79336,33.5797418,-102.3661874
113,Magnolia Street,79336,33.5797409,-102.3664702
111,Magnolia Street,79336,33.5797641,-102.3667474
209,Avenue A,79336,33.5907099,-102.3688637
207,Avenue A,79336,33.5909221,-102.3689234
115,3rd Street,79336,33.5906363,-102.3685325
203,Avenue A,79336,33.5911980,-102.3689386
201,Avenue A,79336,33.5913387,-102.3688483
100,College Avenue,79336,33.5932541,-102.3680326
106,College Avenue,79336,33.5928594,-102.3679700
101,West State Highway 114,79336,33.5938597,-102.3682606
212,College Avenue,79336,33.5907094,-102.3678608
110,4th Street,79336,33.5892480,-102.3686462
103,Cougar Lane,79336,33.5701427,-102.3622534
105,Cougar Lane,79336,33.5701329,-102.3619916
107,Cougar Lane,79336,33.5701310,-102.3617316
109,Cougar Lane,79336,33.5701338,-102.3614684
111,Cougar Lane,79336,33.5701228,-102.3611913
101,Cougar Lane,79336,33.5701783,-102.3625239
2001,Mustang Drive,79336,33.5720467,-102.3629337
2003,Mustang Drive,79336,33.5718234,-102.3629595
2005,Mustang Drive,79336,33.5716260,-102.3629734
2007,Mustang Drive,79336,33.5714354,-102.3629388
2009,Mustang Drive,79336,33.5712323,-102.3629519
2011,Mustang Drive,79336,33.5710548,-102.3629516
2015,Mustang Drive,79336,33.5706324,-102.3629634
2017,Mustang Drive,79336,33.5703788,-102.3629403
2019,Mustang Drive,79336,33.5701279,-102.3629680
2024,Harvard Drive,79336,33.5696952,-102.3613515
2002,Mustang Drive,79336,33.5720345,-102.3635340
2004,Mustang Drive,79336,33.5718210,-102.3635292
2006,Mustang Drive,79336,33.5716026,-102.3635394
2008,Mustang Drive,79336,33.5713859,-102.3635432
2010,Mustang Drive,79336,33.5711704,-102.3635441
2012,Mustang Drive,79336,33.5709394,-102.3635326
2016,Mustang Drive,79336,33.5705512,-102.3635399
2018,Mustang Drive,79336,33.5703039,-102.3635472
2020,Mustang Drive,79336,33.5700463,-102.3635648
2022,Mustang Drive,79336,33.5698088,-102.3635608
2024,Mustang Drive,79336,33.5695940,-102.3635367
2026,Mustang Drive,79336,33.5693690,-102.3635886
2028,Mustang Drive,79336,33.5691526,-102.3635469
2021,Mustang Drive,79336,33.5696778,-102.3629150
2023,Mustang Drive,79336,33.5694692,-102.3629581
2025,Mustang Drive,79336,33.5692271,-102.3628964
2029,Harvard Drive,79336,33.5692944,-102.3606970
2033,Harvard Drive,79336,33.5689724,-102.3607105
2031,Harvard Drive,79336,33.5691302,-102.3607100
102,Clubview Drive,79336,33.5764321,-102.3680049
1704,College Avenue,79336,33.5752555,-102.3681193
2320,US 385,79336,33.5588270,-102.3803339
1201,Equalizer Road,79336,33.5626351,-102.3837953
301,Brentwood Drive,79336,33.5623059,-102.3757309
303,Brentwood Drive,79336,33.5620933,-102.3757363
305,Brentwood Drive,79336,33.5618881,-102.3757266
307,Brentwood Drive,79336,33.5616792,-102.3757108
220,Brentwood Drive,79336,33.5624061,-102.3763278
222,Brentwood Drive,79336,33.5621660,-102.3763338
224,Brentwood Drive,79336,33.5619130,-102.3763151
226,Brentwood Drive,79336,33.5617034,-102.3763497
1933,Avenue H,79336,33.5621169,-102.3768749
1931,Avenue H,79336,33.5623541,-102.3770502
1929,Avenue H,79336,33.5625939,-102.3770614
1927,Avenue H,79336,33.5629737,-102.3769765
108,Hill Circle,79336,33.5616724,-102.3751784
106,Hill Circle,79336,33.5618787,-102.3751779
104,Hill Circle,79336,33.5620803,-102.3751967
102,Hill Circle,79336,33.5623007,-102.3751669
105,Hill Circle,79336,33.5618687,-102.3745846
103,Hill Circle,79336,33.5620776,-102.3746034
101,Hill Circle,79336,33.5622808,-102.3745701
102,Beech Circle,79336,33.5622818,-102.3740167
104,Beech Circle,79336,33.5620705,-102.3740074
106,Beech Circle,79336,33.5618671,-102.3740187
108,Beech Circle,79336,33.5616496,-102.3740308
101,Beech Circle,79336,33.5622766,-102.3734373
103,Beech Circle,79336,33.5620635,-102.3734015
105,Beech Circle,79336,33.5618618,-102.3734394
107,Beech Circle,79336,33.5616473,-102.3734308
218,Brentwood Drive,79336,33.5626353,-102.3762973
319,Dogwood Lane,79336,33.5627252,-102.3757601
317,Dogwood Lane,79336,33.5627519,-102.3754830
216,Brentwood Drive,79336,33.5628561,-102.3763081
315,Dogwood Lane,79336,33.5627368,-102.3752300
313,Dogwood Lane,79336,33.5627464,-102.3749828
311,Dogwood Lane,79336,33.5627340,-102.3747266
309,Dogwood Lane,79336,33.5627395,-102.3744858
307,Dogwood Lane,79336,33.5627455,-102.3742297
305,Dogwood Lane,79336,33.5627241,-102.3739899
303,Dogwood Lane,79336,33.5627321,-102.3737401
301,Dogwood Lane,79336,33.5627165,-102.3734751
2027,Harvard Drive,79336,33.5694556,-102.3607210
2023,Harvard Drive,79336,33.5696968,-102.3607088
2025,Harvard Drive,79336,33.5695792,-102.3607016
2028,Harvard Drive,79336,33.5694353,-102.3613369
2026,Harvard Drive,79336,33.5695330,-102.3613353
2030,Harvard Drive,79336,33.5693200,-102.3613634
2032,Harvard Drive,79336,33.5692185,-102.3613513
2061,Harvard Drive,79336,33.5676253,-102.3607570
2022,Yale Drive,79336,33.5696996,-102.3601881
2024,Yale Drive,79336,33.5694796,-102.3602072
2026,Yale Drive,79336,33.5692554,-102.3602104
2028,Yale Drive,79336,33.5690393,-102.3601919
2030,Yale Drive,79336,33.5688186,-102.3601815
2032,Yale Drive,79336,33.5685903,-102.3602116
2021,Yale Drive,79336,33.5696619,-102.3595775
2025,Yale Drive,79336,33.5692422,-102.3596081
2027,Yale Drive,79336,33.5690306,-102.3596151
2029,Yale Drive,79336,33.5688291,-102.3596239
2031,Yale Drive,79336,33.5686039,-102.3595863
2033,Yale Drive,79336,33.5683819,-102.3596098
2035,Yale Drive,79336,33.5681763,-102.3596024
2037,Yale Drive,79336,33.5679703,-102.3596165
2039,Yale Drive,79336,33.5676210,-102.3596047
2042,Yale Drive,79336,33.5675344,-102.3602534
2023,Yale Drive,79336,33.5694722,-102.3596207
1202,Avenue H,79336,33.5806734,-102.3782475
908,Avenue H,79336,33.5834013,-102.3782351
902,Avenue H,79336,33.5838362,-102.3781652
800,8th Street,79336,33.5847089,-102.3771349
802,Houston Street,79336,33.5868204,-102.3773160
811,Austin Street,79336,33.5865670,-102.3776151
720,Austin Street,79336,33.5859884,-102.3763582
712,Avenue G,79336,33.5855416,-102.3769782
721,Avenue G,79336,33.5854159,-102.3763220
717,Avenue G,79336,33.5855203,-102.3763376
709,9th Street,79336,33.5845123,-102.3761581
202,Aransas Avenue,79336,33.5826611,-102.3469035
703,East State Highway 114,79336,33.5952224,-102.3554777
701,East State Highway 114,79336,33.5943560,-102.3558139
707,East State Highway 114,79336,33.5943603,-102.3544510
309,North Sherman Avenue,79336,33.5971844,-102.3622431
321,East State Highway 114,79336,33.5942989,-102.3632267
323,East State Highway 114,79336,33.5942924,-102.3629554
1925,Avenue H,79336,33.5635240,-102.3771773
318,Parkwood Lane,79336,33.5631668,-102.3757169
316,Parkwood Lane,79336,33.5631840,-102.3754280
314,Parkwood Lane,79336,33.5631587,-102.3751615
312,Parkwood Lane,79336,33.5631809,-102.3748820
310,Parkwood Lane,79336,33.5631616,-102.3746084
308,Parkwood Lane,79336,33.5631543,-102.3743218
306,Parkwood Lane,79336,33.5631617,-102.3740444
304,Parkwood Lane,79336,33.5631678,-102.3737541
302,Parkwood Lane,79336,33.5631638,-102.3734828
315,Parkwood Lane,79336,33.5636589,-102.3754171
317,Parkwood Lane,79336,33.5637068,-102.3757193
313,Parkwood Lane,79336,33.5636940,-102.3751473
311,Parkwood Lane,79336,33.5636569,-102.3748581
309,Parkwood Lane,79336,33.5636678,-102.3745775
307,Parkwood Lane,79336,33.5636530,-102.3742995
305,Parkwood Lane,79336,33.5636594,-102.3740360
303,Parkwood Lane,79336,33.5636645,-102.3737602
301,Parkwood Lane,79336,33.5636601,-102.3734508
1923,Avenue H,79336,33.5640588,-102.3769626
214,Brentwood Drive,79336,33.5630680,-102.3763139
212,Brentwood Drive,79336,33.5632839,-102.3763477
208,Brentwood Drive,79336,33.5637844,-102.3762933
210,Brentwood Drive,79336,33.5635583,-102.3762969
202,Brentwood Drive,79336,33.5644671,-102.3763325
206,Brentwood Drive,79336,33.5640232,-102.3762741
204,Brentwood Drive,79336,33.5642395,-102.3762707
301,Cottonwood Lane,79336,33.5646322,-102.3756015
303,Cottonwood Lane,79336,33.5646559,-102.3758523
305,Cottonwood Lane,79336,33.5646542,-102.3761029
302,Cottonwood Lane,79336,33.5640835,-102.3734056
304,Cottonwood Lane,79336,33.5640725,-102.3736921
306,Cottonwood Lane,79336,33.5640947,-102.3739435
308,Cottonwood Lane,79336,33.5640758,-102.3741990
310,Cottonwood Lane,79336,33.5640905,-102.3744520
312,Cottonwood Lane,79336,33.5641135,-102.3747102
314,Cottonwood Lane,79336,33.5640971,-102.3749654
316,Cottonwood Lane,79336,33.5641065,-102.3752094
318,Cottonwood Lane,79336,33.5640995,-102.3755823
504,Clubview Drive,79336,33.5744592,-102.3728475
510,Clubview Drive,79336,33.5735229,-102.3739188
514,Clubview Drive,79336,33.5737486,-102.3753772
602,Clubview Drive,79336,33.5732244,-102.3761502
1718,Avenue H,79336,33.5740386,-102.3780000
1722,Avenue H,79336,33.5736774,-102.3783306
907,FM 300,79336,33.5734128,-102.3787252
914,FM 300,79336,33.5718788,-102.3786634
1000,FM 300,79336,33.5715256,-102.3798494
1004,FM 300,79336,33.5708516,-102.3813684
1101,FM 300,79336,33.5710293,-102.3827811
1103,FM 300,79336,33.5707545,-102.3834243
1003,FM 300,79336,33.5724564,-102.3798817
1001,FM 300,79336,33.5726631,-102.3795915
1005,FM 300,79336,33.5723058,-102.3802324
1007,FM 300,79336,33.5721709,-102.3804666
1009,FM 300,79336,33.5720184,-102.3807690
1013,FM 300,79336,33.5717208,-102.3813404
1015,FM 300,79336,33.5715663,-102.3816090
1017,FM 300,79336,33.5713568,-102.3818827
1901,Avenue I,79336,33.5713887,-102.3824947
1302,College Avenue,79336,33.5792993,-102.3681831
1304,College Avenue,79336,33.5789387,-102.3682431
1402,College Avenue,79336,33.5784004,-102.3681734
1410,College Avenue,79336,33.5778470,-102.3681217
105,15th Street,79336,33.5777057,-102.3681640
106,15th Street,79336,33.5773331,-102.3682902
103,16th Street,79336,33.5768694,-102.3685588
105,16th Street,79336,33.5768364,-102.3687479
107,16th Street,79336,33.5768369,-102.3689806
110,Clubview Drive,79336,33.5760845,-102.3684839
311,Clubview Drive,79336,33.5757756,-102.3711857
1101,Avenue H,79336,33.5818666,-102.3776468
809,11th Street,79336,33.5824290,-102.3774999
704,11th Street,79336,33.5817165,-102.3760263
1308,Avenue H,79336,33.5788007,-102.3786542
1310,Avenue H,79336,33.5783179,-102.3788184
1306,Avenue H,79336,33.5792087,-102.3782895
1407,Avenue H,79336,33.5781236,-102.3772008
1513,Avenue H,79336,33.5767675,-102.3770935
1515,Avenue H,79336,33.5763078,-102.3770555
1701,Avenue H,79336,33.5757364,-102.3769362
1709,Avenue H,79336,33.5747221,-102.3769549
1708,Avenue H,79336,33.5752294,-102.3776524
519,Clubview Drive,79336,33.5744147,-102.3758155
517,Clubview Drive,79336,33.5745047,-102.3755142
515,Clubview Drive,79336,33.5746151,-102.3752206
513,Clubview Drive,79336,33.5747345,-102.3749296
511,Clubview Drive,79336,33.5748129,-102.3746180
509,Clubview Drive,79336,33.5749351,-102.3743276
507,Clubview Drive,79336,33.5750628,-102.3739999
505,Clubview Drive,79336,33.5751346,-102.3736986
503,Clubview Drive,79336,33.5752014,-102.3733591
501,Clubview Drive,79336,33.5753046,-102.3730553
407,Clubview Drive,79336,33.5754273,-102.3725482
405,Clubview Drive,79336,33.5754820,-102.3723102
403,Clubview Drive,79336,33.5755123,-102.3721311
402,17th Street,79336,33.5756807,-102.3727121
1714,Avenue G,79336,33.5747133,-102.3764904
1712,Avenue G,79336,33.5749423,-102.3765272
1710,Avenue G,79336,33.5751477,-102.3765079
1708,Avenue G,79336,33.5753129,-102.3764981
1706,Avenue G,79336,33.5754844,-102.3765292
1704,Avenue G,79336,33.5756478,-102.3764935
802,17th Street,79336,33.5757939,-102.3765293
201,Magnolia Street,79336,33.5797279,-102.3650527
203,Magnolia Street,79336,33.5797219,-102.3647208
1216,Sherman Avenue,79336,33.5797078,-102.3637301
1102,Sherman Avenue,79336,33.5813666,-102.3634912
1311,College Avenue,79336,33.5798146,-102.3673992
1203,College Avenue,79336,33.5809106,-102.3673524
218,Hickory Street,79336,33.5828969,-102.3638005
214,Hickory Street,79336,33.5828361,-102.3640220
210,Hickory Street,79336,33.5828944,-102.3644000
203,Hickory Street,79336,33.5833123,-102.3649038
205,Hickory Street,79336,33.5832900,-102.3647403
207,Hickory Street,79336,33.5832716,-102.3645736
209,Hickory Street,79336,33.5832861,-102.3644301
211,Hickory Street,79336,33.5832604,-102.3642222
108,Linda Lane,79336,33.5801855,-102.3670159
110,Linda Lane,79336,33.5801884,-102.3667833
112,Linda Lane,79336,33.5801876,-102.3665610
114,Linda Lane,79336,33.5801802,-102.3663241
116,Linda Lane,79336,33.5801700,-102.3660615
118,Linda Lane,79336,33.5801565,-102.3658274
120,Linda Lane,79336,33.5801653,-102.3656369
109,Linda Lane,79336,33.5805965,-102.3667803
111,Linda Lane,79336,33.5806398,-102.3665450
113,Linda Lane,79336,33.5806244,-102.3663163
115,Linda Lane,79336,33.5806063,-102.3660892
117,Linda Lane,79336,33.5806258,-102.3658699
119,Linda Lane,79336,33.5806140,-102.3656493
121,Linda Lane,79336,33.5805953,-102.3654558
110,Holly Street,79336,33.5810926,-102.3668232
112,Holly Street,79336,33.5810948,-102.3666284
114,Holly Street,79336,33.5810877,-102.3664325
116,Holly Street,79336,33.5810777,-102.3662341
118,Holly Street,79336,33.5810592,-102.3660376
120,Holly Street,79336,33.5810464,-102.3658376
122,Holly Street,79336,33.5810728,-102.3656424
124,Holly Street,79336,33.5810473,-102.3654540
105,Holly Street,79336,33.5815248,-102.3669247
107,Holly Street,79336,33.5815269,-102.3667312
109,Holly Street,79336,33.5815310,-102.3665563
111,Holly Street,79336,33.5815101,-102.3663586
113,Holly Street,79336,33.5815241,-102.3661800
115,Holly Street,79336,33.5815071,-102.3660077
117,Holly Street,79336,33.5815275,-102.3658008
119,Holly Street,79336,33.5815363,-102.3655894
121,Holly Street,79336,33.5815351,-102.3654336
104,Poplar Street,79336,33.5820177,-102.3673059
106,Poplar Street,79336,33.5820097,-102.3671129
108,Poplar Street,79336,33.5820349,-102.3669242
110,Poplar Street,79336,33.5820067,-102.3667080
112,Poplar Street,79336,33.5820106,-102.3665560
114,Poplar Street,79336,33.5820365,-102.3663538
116,Poplar Street,79336,33.5820022,-102.3661666
118,Poplar Street,79336,33.5820132,-102.3659956
120,Poplar Street,79336,33.5819106,-102.3658868
122,Poplar Street,79336,33.5819621,-102.3656903
124,Poplar Street,79336,33.5819730,-102.3654259
107,Poplar Street,79336,33.5824467,-102.3668976
109,Poplar Street,79336,33.5824675,-102.3667333
111,Poplar Street,79336,33.5824458,-102.3665490
113,Poplar Street,79336,33.5824399,-102.3663604
115,Poplar Street,79336,33.5823685,-102.3661838
117,Poplar Street,79336,33.5824226,-102.3659464
119,Poplar Street,79336,33.5824180,-102.3657940
121,Poplar Street,79336,33.5824193,-102.3656101
123,Poplar Street,79336,33.5824142,-102.3654152
108,Hickory Street,79336,33.5829203,-102.3669177
110,Hickory Street,79336,33.5829143,-102.3667303
112,Hickory Street,79336,33.5829284,-102.3665209
114,Hickory Street,79336,33.5829286,-102.3663454
116,Hickory Street,79336,33.5829474,-102.3661401
118,Hickory Street,79336,33.5829324,-102.3659597
120,Hickory Street,79336,33.5829225,-102.3657643
122,Hickory Street,79336,33.5829226,-102.3655998
124,Hickory Street,79336,33.5828602,-102.3654282
201,Hickory Street,79336,33.5833475,-102.3650621
1315,Cactus Drive,79336,33.5867734,-102.3467692
1307,East State Highway 114,79336,33.5942229,-102.3486211
1403,East State Highway 114,79336,33.5946172,-102.3474943
614,North Alamo Road,79336,33.5954635,-102.3477059
108,Pine Street,79336,33.5836749,-102.3671343
803,College Avenue,79336,33.5846654,-102.3670724
811,College Avenue,79336,33.5842272,-102.3672819
705,College Avenue,79336,33.5855592,-102.3673888
703,College Avenue,79336,33.5860373,-102.3673987
600,College Avenue,79336,33.5867600,-102.3680660
213,North College Avenue,79336,33.5961703,-102.3671385
303,North College Avenue,79336,33.5968428,-102.3671442
204,North College Avenue,79336,33.5951953,-102.3687015
1002,Alamo Road,79336,33.5786544,-102.3490732
2209,East State Highway 114,79336,33.5943894,-102.3307483
107,County Road,79336,33.5954778,-102.3289361
2101,East State Highway 114,79336,33.5940370,-102.3333260
2103,East State Highway 114,79336,33.5940256,-102.3330196
2105,East State Highway 114,79336,33.5940023,-102.3327484
2107,East State Highway 114,79336,33.5940198,-102.3324860
2109,East State Highway 114,79336,33.5940257,-102.3322296
2111,East State Highway 114,79336,33.5940200,-102.3318923
115,Hartford Avenue,79336,33.5813115,-102.3513531
113,Hartford Avenue,79336,33.5815298,-102.3513464
116,Hartford Avenue,79336,33.5813396,-102.3519217
103,Indiana Avenue,79336,33.5825529,-102.3503063
105,Indiana Avenue,79336,33.5823720,-102.3503100
107,Indiana Avenue,79336,33.5821676,-102.3502954
109,Indiana Avenue,79336,33.5819332,-102.3503033
111,Indiana Avenue,79336,33.5817161,-102.3503309
113,Indiana Avenue,79336,33.5815346,-102.3503112
115,Indiana Avenue,79336,33.5813497,-102.3503103
104,Joliet Avenue,79336,33.5825126,-102.3498029
106,Joliet Avenue,79336,33.5823121,-102.3498046
108,Joliet Avenue,79336,33.5821168,-102.3498134
110,Joliet Avenue,79336,33.5819156,-102.3498307
114,Joliet Avenue,79336,33.5815123,-102.3498357
104,Indiana Avenue,79336,33.5825490,-102.3508669
106,Indiana Avenue,79336,33.5823294,-102.3508501
108,Indiana Avenue,79336,33.5821266,-102.3508458
110,Indiana Avenue,79336,33.5819282,-102.3508612
112,Indiana Avenue,79336,33.5817232,-102.3508524
114,Indiana Avenue,79336,33.5815196,-102.3508661
116,Indiana Avenue,79336,33.5813389,-102.3508698
103,Gary Avenue,79336,33.5825465,-102.3523682
105,Gary Avenue,79336,33.5823450,-102.3523707
107,Gary Avenue,79336,33.5821460,-102.3523720
109,Gary Avenue,79336,33.5819448,-102.3523803
111,Gary Avenue,79336,33.5817446,-102.3523671
113,Gary Avenue,79336,33.5815421,-102.3523618
115,Gary Avenue,79336,33.5813469,-102.3523782
102,Gary Avenue,79336,33.5827337,-102.3529280
106,Gary Avenue,79336,33.5823428,-102.3529155
108,Gary Avenue,79336,33.5821569,-102.3529310
110,Gary Avenue,79336,33.5819505,-102.3529339
112,Gary Avenue,79336,33.5817498,-102.3529357
114,Gary Avenue,79336,33.5815483,-102.3529326
116,Gary Avenue,79336,33.5813575,-102.3529425
301,Flint Avenue,79336,33.5827410,-102.3533842
303,Flint Avenue,79336,33.5826105,-102.3533899
305,Flint Avenue,79336,33.5824807,-102.3533899
307,Flint Avenue,79336,33.5823449,-102.3533909
309,Flint Avenue,79336,33.5822165,-102.3533923
311,Flint Avenue,79336,33.5820771,-102.3533923
313,Flint Avenue,79336,33.5819530,-102.3533962
315,Flint Avenue,79336,33.5818186,-102.3533907
317,Flint Avenue,79336,33.5816927,-102.3534017
319,Flint Avenue,79336,33.5815616,-102.3534020
321,Flint Avenue,79336,33.5814352,-102.3534042
323,Flint Avenue,79336,33.5813001,-102.3534107
301,Cherry Street,79336,33.5881581,-102.3622517
203,College Avenue,79336,33.5914282,-102.3673148
211,College Avenue,79336,33.5905808,-102.3670120
700,College Avenue,79336,33.5859678,-102.3681470
802,College Avenue,79336,33.5850648,-102.3680627
904,College Avenue,79336,33.5838510,-102.3680369
910,College Avenue,79336,33.5834393,-102.3679962
112,15th Street,79336,33.5773334,-102.3689825
110,15th Street,79336,33.5773857,-102.3687892
108,15th Street,79336,33.5773185,-102.3685481
111,15th Street,79336,33.5778230,-102.3689680
109,15th Street,79336,33.5778008,-102.3687770
107,15th Street,79336,33.5777564,-102.3685556
1011,FM 300,79336,33.5718747,-102.3810309
700,West Avenue,79336,33.5866286,-102.3874690
823,Houston Street,79336,33.5876740,-102.3777226
819,Houston Street,79336,33.5876687,-102.3775904
817,Houston Street,79336,33.5876674,-102.3774704
809,Houston Street,79336,33.5876218,-102.3771833
807,Houston Street,79336,33.5876642,-102.3771112
805,Houston Street,79336,33.5876566,-102.3770217
511,Avenue H,79336,33.5879976,-102.3772957
506,Avenue H,79336,33.5880941,-102.3782140
405,Avenue H,79336,33.5889690,-102.3775349
103,Oak Street,79336,33.5928463,-102.3666987
104,Oak Street,79336,33.5925313,-102.3665802
106,Oak Street,79336,33.5925635,-102.3664265
107,Oak Street,79336,33.5928748,-102.3662344
109,Oak Street,79336,33.5929093,-102.3660608
113,Oak Street,79336,33.5928730,-102.3655011
115,Oak Street,79336,33.5929005,-102.3652160
108,Oak Street,79336,33.5924946,-102.3662169
202,Oak Street,79336,33.5925017,-102.3648839
201,Oak Street,79336,33.5928359,-102.3649506
203,Oak Street,79336,33.5928734,-102.3647627
205,Oak Street,79336,33.5928651,-102.3645924
207,Oak Street,79336,33.5928315,-102.3643810
211,Oak Street,79336,33.5928698,-102.3640850
213,Oak Street,79336,33.5929107,-102.3639104
217,Oak Street,79336,33.5927660,-102.3636096
206,Peach Street,79336,33.5930344,-102.3646918
208,Peach Street,79336,33.5929570,-102.3643730
210,Peach Street,79336,33.5929769,-102.3642496
203,Peach Street,79336,33.5934077,-102.3647368
201,Peach Street,79336,33.5934212,-102.3649143
205,Peach Street,79336,33.5933918,-102.3645688
207,Peach Street,79336,33.5934018,-102.3644018
209,Peach Street,79336,33.5933796,-102.3642564
211,Peach Street,79336,33.5933340,-102.3640967
213,Peach Street,79336,33.5933058,-102.3639101
217,Peach Street,79336,33.5933264,-102.3635098
219,Peach Street,79336,33.5933619,-102.3632025
225,Oak Street,79336,33.5929236,-102.3629849
215,Oak Street,79336,33.5928720,-102.3635623
221,Peach Street,79336,33.5933213,-102.3628484
400,Cedar Avenue,79336,33.5888449,-102.3570271
202,Flint Drive,79336,33.5863103,-102.3538957
204,Flint Drive,79336,33.5861375,-102.3539034
206,Flint Drive,79336,33.5859817,-102.3538974
208,Flint Drive,79336,33.5858023,-102.3539047
201,Flint Drive,79336,33.5863322,-102.3533250
203,Flint Drive,79336,33.5861372,-102.3534102
205,Flint Drive,79336,33.5859708,-102.3534313
207,Flint Drive,79336,33.5858084,-102.3533781
209,Flint Drive,79336,33.5856403,-102.3534711
211,Flint Drive,79336,33.5854844,-102.3535528
217,East State Highway 114,79336,33.5942916,-102.3660233
301,East State Highway 114,79336,33.5944389,-102.3647845
500,Maple Street,79336,33.5900636,-102.3530373
101,Alamo Road,79336,33.5929756,-102.3476503
105,Alamo Road,79336,33.5890209,-102.3474039
304,Hickory Street,79336,33.5828303,-102.3623795
306,Hickory Street,79336,33.5828263,-102.3621653
308,Hickory Street,79336,33.5828090,-102.3619353
310,Hickory Street,79336,33.5828264,-102.3616866
312,Ash Avenue,79336,33.5833276,-102.3616602
301,Hickory Street,79336,33.5832501,-102.3626012
303,Hickory Street,79336,33.5832452,-102.3623332
305,Hickory Street,79336,33.5832563,-102.3620678
105,Hickory Street,79336,33.5832951,-102.3671343
107,Hickory Street,79336,33.5832994,-102.3669295
109,Hickory Street,79336,33.5832859,-102.3667264
111,Hickory Street,79336,33.5833441,-102.3665169
113,Hickory Street,79336,33.5833056,-102.3663677
115,Hickory Street,79336,33.5832920,-102.3661858
117,Hickory Street,79336,33.5833723,-102.3659707
119,Hickory Street,79336,33.5833780,-102.3658664
121,Hickory Street,79336,33.5833700,-102.3657511
123,Hickory Street,79336,33.5833551,-102.3656298
908,Denver Avenue,79336,33.5833031,-102.3654755
906,Denver Avenue,79336,33.5834813,-102.3655059
124,Pine Street,79336,33.5837525,-102.3654111
122,Pine Street,79336,33.5836749,-102.3656591
120,Pine Street,79336,33.5837338,-102.3658320
118,Pine Street,79336,33.5837874,-102.3660001
116,Pine Street,79336,33.5837922,-102.3661835
114,Pine Street,79336,33.5838075,-102.3663489
107,Pine Street,79336,33.5842457,-102.3668749
111,Pine Street,79336,33.5841447,-102.3665081
113,Pine Street,79336,33.5842324,-102.3662908
115,Pine Street,79336,33.5841491,-102.3661762
117,Pine Street,79336,33.5843123,-102.3661104
125,Pine Street,79336,33.5841784,-102.3654232
123,Pine Street,79336,33.5842273,-102.3655943
121,Pine Street,79336,33.5842261,-102.3657523
119,Pine Street,79336,33.5841838,-102.3658710
202,Pine Street,79336,33.5837859,-102.3650564
204,Pine Street,79336,33.5837329,-102.3648514
206,Pine Street,79336,33.5837440,-102.3646853
208,Pine Street,79336,33.5837609,-102.3644072
210,Pine Street,79336,33.5837435,-102.3642093
201,Pine Street,79336,33.5842130,-102.3650838
203,Pine Street,79336,33.5841916,-102.3648936
205,Pine Street,79336,33.5841953,-102.3647352
207,Pine Street,79336,33.5841823,-102.3645673
209,Pine Street,79336,33.5841690,-102.3644022
211,Pine Street,79336,33.5841784,-102.3642182
210,Cottonwood Lane,79336,33.5640901,-102.3728986
208,Cottonwood Lane,79336,33.5640654,-102.3726065
206,Cottonwood Lane,79336,33.5640477,-102.3723289
204,Cottonwood Lane,79336,33.5640358,-102.3720508
202,Cottonwood Lane,79336,33.5640067,-102.3717678
201,Cottonwood Lane,79336,33.5645661,-102.3709580
203,Cottonwood Lane,79336,33.5646044,-102.3712469
205,Cottonwood Lane,79336,33.5645679,-102.3715209
207,Cottonwood Lane,79336,33.5646102,-102.3717862
209,Cottonwood Lane,79336,33.5645595,-102.3720268
211,Cottonwood Lane,79336,33.5645748,-102.3722747
213,Cottonwood Lane,79336,33.5645827,-102.3725230
215,Cottonwood Lane,79336,33.5645723,-102.3727650
217,Cottonwood Lane,79336,33.5645924,-102.3730183
219,Cottonwood Lane,79336,33.5645705,-102.3732572
221,Cottonwood Lane,79336,33.5645867,-102.3735006
223,Cottonwood Lane,79336,33.5645910,-102.3737444
225,Cottonwood Lane,79336,33.5645798,-102.3739946
227,Cottonwood Lane,79336,33.5645972,-102.3742455
229,Cottonwood Lane,79336,33.5646106,-102.3744959
231,Cottonwood Lane,79336,33.5646153,-102.3747702
233,Cottonwood Lane,79336,33.5646297,-102.3750697
102,Holly Circle,79336,33.5622462,-102.3713486
104,Holly Circle,79336,33.5620318,-102.3713233
106,Holly Circle,79336,33.5618207,-102.3713170
108,Holly Circle,79336,33.5616125,-102.3713459
101,Holly Circle,79336,33.5622236,-102.3707561
103,Holly Circle,79336,33.5620255,-102.3707028
105,Holly Circle,79336,33.5618215,-102.3707154
107,Holly Circle,79336,33.5616097,-102.3706990
102,Willow Circle,79336,33.5622263,-102.3702037
104,Willow Circle,79336,33.5620171,-102.3701890
106,Willow Circle,79336,33.5618128,-102.3702016
108,Willow Circle,79336,33.5615973,-102.3702487
101,Willow Circle,79336,33.5622151,-102.3696072
103,Willow Circle,79336,33.5620057,-102.3696112
105,Willow Circle,79336,33.5617945,-102.3696441
107,Willow Circle,79336,33.5615935,-102.3696178
102,Dogwood Lane,79336,33.5622087,-102.3690950
104,Wood Circle,79336,33.5619924,-102.3690893
106,Wood Circle,79336,33.5617955,-102.3691181
108,Wood Circle,79336,33.5615889,-102.3691273
102,Dogwood Lane,79336,33.5621370,-102.3682011
104,Dogwood Lane,79336,33.5621282,-102.3685368
107,Wood Circle,79336,33.5616799,-102.3684575
101,Cottonwood Lane,79336,33.5645398,-102.3681670
103,Cottonwood Lane,79336,33.5645404,-102.3684605
105,Cottonwood Lane,79336,33.5645150,-102.3687489
107,Cottonwood Lane,79336,33.5645187,-102.3690260
109,Cottonwood Lane,79336,33.5645089,-102.3693083
111,Cottonwood Lane,79336,33.5645592,-102.3696048
113,Cottonwood Lane,79336,33.5645263,-102.3698902
115,Cottonwood Lane,79336,33.5645395,-102.3701710
117,Cottonwood Lane,79336,33.5645532,-102.3704304
102,Cottonwood Lane,79336,33.5639800,-102.3681478
104,Cottonwood Lane,79336,33.5640160,-102.3684273
106,Cottonwood Lane,79336,33.5640135,-102.3687028
108,Cottonwood Lane,79336,33.5640412,-102.3689614
110,Cottonwood Lane,79336,33.5640424,-102.3691979
112,Cottonwood Lane,79336,33.5640469,-102.3694476
114,Cottonwood Lane,79336,33.5640530,-102.3696975
116,Cottonwood Lane,79336,33.5640336,-102.3699418
118,Cottonwood Lane,79336,33.5640547,-102.3701887
120,Cottonwood Lane,79336,33.5640566,-102.3704365
122,Cottonwood Lane,79336,33.5640600,-102.3706832
124,Cottonwood Lane,79336,33.5640539,-102.3709329
126,Cottonwood Lane,79336,33.5640435,-102.3712185
101,Dogwood Lane,79336,33.5626835,-102.3681648
103,Dogwood Lane,79336,33.5626722,-102.3684546
105,Dogwood Lane,79336,33.5627173,-102.3687712
107,Dogwood Lane,79336,33.5626642,-102.3690634
109,Dogwood Lane,79336,33.5626834,-102.3693336
111,Dogwood Lane,79336,33.5627037,-102.3696019
113,Dogwood Lane,79336,33.5626805,-102.3698660
115,Dogwood Lane,79336,33.5626983,-102.3701161
117,Dogwood Lane,79336,33.5627325,-102.3704106
119,Dogwood Lane,79336,33.5627336,-102.3706792
121,Dogwood Lane,79336,33.5626932,-102.3709722
123,Dogwood Lane,79336,33.5627243,-102.3712565
102,Parkwood Lane,79336,33.5630309,-102.3681889
104,Parkwood Lane,79336,33.5630738,-102.3685140
106,Parkwood Lane,79336,33.5630849,-102.3688097
108,Parkwood Lane,79336,33.5630571,-102.3690985
110,Parkwood Lane,79336,33.5630813,-102.3693821
112,Parkwood Lane,79336,33.5630827,-102.3696434
114,Parkwood Lane,79336,33.5630871,-102.3699242
116,Parkwood Lane,79336,33.5630978,-102.3701884
118,Parkwood Lane,79336,33.5631121,-102.3704563
120,Parkwood Lane,79336,33.5631013,-102.3707169
122,Parkwood Lane,79336,33.5630940,-102.3709807
124,Parkwood Lane,79336,33.5631361,-102.3712597
123,Parkwood Lane,79336,33.5636403,-102.3712567
121,Parkwood Lane,79336,33.5636203,-102.3709754
119,Parkwood Lane,79336,33.5636124,-102.3707209
117,Parkwood Lane,79336,33.5636204,-102.3704634
115,Parkwood Lane,79336,33.5636231,-102.3701741
113,Parkwood Lane,79336,33.5635968,-102.3698940
111,Parkwood Lane,79336,33.5636106,-102.3695979
109,Parkwood Lane,79336,33.5635971,-102.3693465
107,Parkwood Lane,79336,33.5635979,-102.3690620
105,Parkwood Lane,79336,33.5635846,-102.3687681
103,Parkwood Lane,79336,33.5635843,-102.3684700
101,Parkwood Lane,79336,33.5636208,-102.3681611
2203,College Avenue,79336,33.5642882,-102.3675603
2205,College Avenue,79336,33.5640520,-102.3676014
2207,College Avenue,79336,33.5638104,-102.3676085
2209,College Avenue,79336,33.5635956,-102.3676404
2211,College Avenue,79336,33.5633034,-102.3675220
2213,College Avenue,79336,33.5630359,-102.3675599
2215,College Avenue,79336,33.5627118,-102.3676367
2217,College Avenue,79336,33.5624949,-102.3676035
2219,College Avenue,79336,33.5622700,-102.3676404
2221,College Avenue,79336,33.5620487,-102.3675924
2201,Rice Drive,79336,33.5644814,-102.3663849
2203,Rice Drive,79336,33.5642728,-102.3664000
2205,Rice Drive,79336,33.5640610,-102.3664073
2207,Rice Drive,79336,33.5638559,-102.3664069
2209,Rice Drive,79336,33.5636496,-102.3663839
2211,Rice Drive,79336,33.5634393,-102.3664154
2202,Rice Drive,79336,33.5644688,-102.3670019
2204,Rice Drive,79336,33.5642658,-102.3670081
2206,Rice Drive,79336,33.5640421,-102.3670103
2208,Rice Drive,79336,33.5637987,-102.3670252
2210,Rice Drive,79336,33.5635844,-102.3670186
2212,Rice Drive,79336,33.5633672,-102.3670286
2214,Rice Drive,79336,33.5631451,-102.3670155
2216,Rice Drive,79336,33.5629322,-102.3670381
2218,Rice Drive,79336,33.5627059,-102.3670403
2220,Rice Drive,79336,33.5624866,-102.3670377
2222,Rice Drive,79336,33.5622685,-102.3670779
2224,Rice Drive,79336,33.5620438,-102.3670422
2226,Rice Drive,79336,33.5618190,-102.3670552
220,Detroit Drive,79336,33.5832168,-102.3571771
218,Detroit Drive,79336,33.5834561,-102.3571707
214,Detroit Drive,79336,33.5836664,-102.3571491
212,Detroit Drive,79336,33.5838346,-102.3571856
210,Detroit Drive,79336,33.5839965,-102.3571353
206,Detroit Drive,79336,33.5841774,-102.3571379
204,Detroit Drive,79336,33.5843886,-102.3570124
202,Detroit Drive,79336,33.5846545,-102.3568191
211,Detroit Drive,79336,33.5832163,-102.3565497
209,Detroit Drive,79336,33.5834388,-102.3566119
207,Detroit Drive,79336,33.5836617,-102.3566041
205,Detroit Drive,79336,33.5838666,-102.3566280
203,Detroit Drive,79336,33.5840909,-102.3566089
140,Detroit Avenue,79336,33.5832221,-102.3560878
136,Detroit Avenue,79336,33.5834766,-102.3560966
134,Detroit Avenue,79336,33.5836555,-102.3560837
130,Detroit Avenue,79336,33.5838157,-102.3560684
128,Detroit Avenue,79336,33.5839986,-102.3561153
126,Detroit Avenue,79336,33.5841822,-102.3562152
124,Detroit Avenue,79336,33.5843852,-102.3564087
118,Detroit Avenue,79336,33.5850515,-102.3569070
116,Detroit Avenue,79336,33.5851729,-102.3570136
114,Detroit Avenue,79336,33.5853457,-102.3570785
112,Detroit Avenue,79336,33.5855202,-102.3571314
110,Detroit Avenue,79336,33.5856942,-102.3571192
108,Detroit Avenue,79336,33.5858577,-102.3571187
106,Detroit Avenue,79336,33.5860285,-102.3571620
104,Detroit Avenue,79336,33.5861829,-102.3571291
102,Detroit Avenue,79336,33.5863626,-102.3571009
1901,Avenue H,79336,33.5690101,-102.3769319
304,Country Club Lane,79336,33.5690563,-102.3763665
302,Country Club Lane,79336,33.5689368,-102.3757203
226,Country Club Lane,79336,33.5689739,-102.3749966
224,Country Club Lane,79336,33.5689717,-102.3746504
222,Country Club Lane,79336,33.5689860,-102.3742352
220,Country Club Lane,79336,33.5689891,-102.3738848
218,Country Club Lane,79336,33.5689722,-102.3735659
216,Country Club Lane,79336,33.5689937,-102.3732147
214,Country Club Lane,79336,33.5689720,-102.3728727
212,Country Club Lane,79336,33.5689878,-102.3725412
210,Country Club Lane,79336,33.5689704,-102.3721585
208,Country Club Lane,79336,33.5689656,-102.3718248
206,Country Club Lane,79336,33.5689847,-102.3714911
204,Country Club Lane,79336,33.5689353,-102.3711548
202,Country Club Lane,79336,33.5689832,-102.3709037
116,Country Club Lane,79336,33.5689211,-102.3703879
114,Country Club Lane,79336,33.5689570,-102.3701260
110,Country Club Lane,79336,33.5689238,-102.3694859
112,Country Club Lane,79336,33.5689301,-102.3697896
108,Country Club Lane,79336,33.5688934,-102.3691495
106,Country Club Lane,79336,33.5689346,-102.3687551
104,Country Club Lane,79336,33.5689318,-102.3684281
102,Country Club Lane,79336,33.5689464,-102.3680742
101,Flint Avenue,79336,33.5863412,-102.3544713
103,Flint Avenue,79336,33.5861566,-102.3544836
105,Flint Avenue,79336,33.5859865,-102.3544691
107,Flint Avenue,79336,33.5857977,-102.3544021
109,Flint Avenue,79336,33.5856528,-102.3542997
111,Flint Avenue,79336,33.5855773,-102.3541329
113,Flint Avenue,79336,33.5852639,-102.3538002
115,Flint Avenue,79336,33.5851391,-102.3536145
117,Flint Avenue,79336,33.5849821,-102.3535451
119,Flint Avenue,79336,33.5848019,-102.3534437
121,Flint Avenue,79336,33.5846224,-102.3534384
123,Flint Avenue,79336,33.5844502,-102.3534200
125,Flint Avenue,79336,33.5842886,-102.3534391
127,Flint Avenue,79336,33.5841239,-102.3534726
129,Flint Avenue,79336,33.5839166,-102.3534274
133,Flint Avenue,79336,33.5836870,-102.3534444
135,Flint Avenue,79336,33.5834804,-102.3534705
137,Flint Avenue,79336,33.5832962,-102.3534556
139,Flint Avenue,79336,33.5831332,-102.3534391
600,North Elgin Avenue,79336,33.5894818,-102.3557519
602,North Elgin Avenue,79336,33.5893152,-102.3557609
604,North Elgin Avenue,79336,33.5891097,-102.3557598
606,North Elgin Avenue,79336,33.5888968,-102.3557661
608,North Elgin Avenue,79336,33.5887110,-102.3557809
610,North Elgin Avenue,79336,33.5885305,-102.3557529
612,North Elgin Avenue,79336,33.5883545,-102.3557952
614,North Elgin Avenue,79336,33.5881781,-102.3558367
601,North Elgin Avenue,79336,33.5894816,-102.3552984
603,North Elgin Avenue,79336,33.5893115,-102.3552926
605,North Elgin Avenue,79336,33.5891431,-102.3553145
607,North Elgin Avenue,79336,33.5889816,-102.3553045
609,North Elgin Avenue,79336,33.5888062,-102.3553190
611,North Elgin Avenue,79336,33.5886536,-102.3552929
613,North Elgin Avenue,79336,33.5884845,-102.3553029
615,North Elgin Avenue,79336,33.5883070,-102.3553137
617,North Elgin Avenue,79336,33.5881391,-102.3553124
619,North Elgin Avenue,79336,33.5879725,-102.3552935
621,North Elgin Avenue,79336,33.5877815,-102.3552920
704,Cherry Street,79336,33.5873841,-102.3551242
702,Cherry Street,79336,33.5873853,-102.3553366
601,Cherry Street,79336,33.5878360,-102.3577367
603,Cherry Street,79336,33.5878544,-102.3574870
605,Cherry Street,79336,33.5878366,-102.3572847
607,Cherry Street,79336,33.5878266,-102.3570605
609,Cherry Street,79336,33.5878086,-102.3568425
611,Cherry Street,79336,33.5878116,-102.3566270
613,Cherry Street,79336,33.5878133,-102.3564103
615,Cherry Street,79336,33.5878595,-102.3562027
617,Cherry Street,79336,33.5878011,-102.3559704
619,Cherry Street,79336,33.5877833,-102.3557622
602,Cherry Street,79336,33.5874370,-102.3577179
604,Cherry Street,79336,33.5874029,-102.3575053
606,Cherry Street,79336,33.5874249,-102.3572782
608,Cherry Street,79336,33.5874132,-102.3570586
610,Cherry Street,79336,33.5874114,-102.3568462
612,Cherry Street,79336,33.5874248,-102.3566269
614,Cherry Street,79336,33.5874293,-102.3564137
616,Cherry Street,79336,33.5874057,-102.3562027
618,Cherry Street,79336,33.5873958,-102.3559846
620,Cherry Street,79336,33.5874102,-102.3557578
601,Cactus Drive,79336,33.5869419,-102.3576245
603,Cactus Drive,79336,33.5868592,-102.3571833
605,Cactus Drive,79336,33.5868545,-102.3569506
607,Cactus Drive,79336,33.5868627,-102.3567092
609,Cactus Drive,79336,33.5868494,-102.3564808
611,Cactus Drive,79336,33.5868813,-102.3562474
613,Cactus Drive,79336,33.5868449,-102.3560159
615,Cactus Drive,79336,33.5868475,-102.3557895
701,Cactus Drive,79336,33.5868388,-102.3553445
703,Cactus Drive,79336,33.5868308,-102.3551123
102,Flint Avenue,79336,33.5863187,-102.3549606
104,Flint Avenue,79336,33.5861601,-102.3549641
106,Flint Avenue,79336,33.5860009,-102.3549717
108,Flint Avenue,79336,33.5858014,-102.3549443
110,Flint Avenue,79336,33.5856245,-102.3548786
112,Flint Avenue,79336,33.5854433,-102.3547492
114,Flint Avenue,79336,33.5853123,-102.3545986
116,Flint Avenue,79336,33.5851992,-102.3544424
118,Flint Avenue,79336,33.5850641,-102.3542877
120,Flint Avenue,79336,33.5849618,-102.3541302
124,Flint Avenue,79336,33.5846884,-102.3539507
126,Flint Avenue,79336,33.5844545,-102.3538980
128,Flint Avenue,79336,33.5842918,-102.3539265
130,Flint Avenue,79336,33.5841269,-102.3539445
132,Flint Avenue,79336,33.5839606,-102.3539350
134,Flint Avenue,79336,33.5838100,-102.3539394
136,Flint Avenue,79336,33.5836395,-102.3539177
138,Flint Avenue,79336,33.5834713,-102.3539306
142,Flint Avenue,79336,33.5831417,-102.3539478
700,Poplar Street,79336,33.5818072,-102.3556841
700,Poplar Street,79336,33.5818069,-102.3555180
702,Poplar Street,79336,33.5818045,-102.3553657
704,Poplar Street,79336,33.5818109,-102.3552153
706,Poplar Street,79336,33.5818016,-102.3550590
708,Poplar Street,79336,33.5818037,-102.3549078
710,Poplar Street,79336,33.5817944,-102.3547492
712,Poplar Street,79336,33.5818247,-102.3545434
714,Poplar Street,79336,33.5818375,-102.3543283
716,Poplar Street,79336,33.5818329,-102.3541206
718,Poplar Street,79336,33.5817962,-102.3538890
717,Holly Street,79336,33.5813900,-102.3542240
719,Holly Street,79336,33.5813852,-102.3540469
701,Poplar Street,79336,33.5823026,-102.3556073
703,Poplar Street,79336,33.5822888,-102.3553625
705,Poplar Street,79336,33.5822862,-102.3551220
707,Poplar Street,79336,33.5822858,-102.3548729
709,Poplar Street,79336,33.5823018,-102.3546737
711,Poplar Street,79336,33.5823068,-102.3545141
713,Poplar Street,79336,33.5823059,-102.3543468
715,Poplar Street,79336,33.5822993,-102.3541887
717,Poplar Street,79336,33.5822912,-102.3540330
719,Poplar Street,79336,33.5823022,-102.3538659
316,East Washington Street,79336,33.5947624,-102.3638849
319,East Washington Street,79336,33.5953656,-102.3633579
323,East Washington Street,79336,33.5953755,-102.3628740
301,East Washington Street,79336,33.5953207,-102.3648729
305,East Washington Street,79336,33.5953475,-102.3645722
307,East Washington Street,79336,33.5953064,-102.3643602
309,East Washington Street,79336,33.5952849,-102.3641672
103,North Denver Avenue,79336,33.5949000,-102.3649223
104,North Sherman Avenue,79336,33.5947681,-102.3628809
318,East Washington Street,79336,33.5948242,-102.3632139
304,North Sherman Avenue,79336,33.5961956,-102.3630636
1100,Avenue D,79336,33.5821234,-102.3735301
1400,Hickory Street,79336,33.5844265,-102.3507403
501,Cactus Drive,79336,33.5869527,-102.3594317
503,Cactus Drive,79336,33.5869322,-102.3585155
602,North Cedar Avenue,79336,33.5875851,-102.3581810
604,North Cedar Avenue,79336,33.5873276,-102.3582436
506,Cherry Street,79336,33.5874660,-102.3589148
508,Cherry Street,79336,33.5875199,-102.3586533
510,Cherry Street,79336,33.5875400,-102.3584636
702,Hickory Street,79336,33.5827132,-102.3556624
704,Hickory Street,79336,33.5827126,-102.3555090
706,Hickory Street,79336,33.5827174,-102.3553546
708,Hickory Street,79336,33.5827144,-102.3552062
714,Hickory Street,79336,33.5827075,-102.3547527
710,Hickory Street,79336,33.5827103,-102.3550550
712,Hickory Street,79336,33.5827105,-102.3549113
716,Hickory Street,79336,33.5827064,-102.3546064
718,Hickory Street,79336,33.5827020,-102.3544518
720,Hickory Street,79336,33.5826960,-102.3542991
722,Hickory Street,79336,33.5826950,-102.3541466
724,Hickory Street,79336,33.5826957,-102.3539938
726,Hickory Street,79336,33.5826984,-102.3538467
101,Cedar Avenue,79336,33.5863709,-102.3576565
135,Cedar Avenue,79336,33.5832106,-102.3577100
133,Cedar Avenue,79336,33.5834685,-102.3577138
103,Cedar Avenue,79336,33.5861874,-102.3576753
105,Cedar Avenue,79336,33.5860190,-102.3576897
107,Cedar Avenue,79336,33.5858556,-102.3577098
109,Cedar Avenue,79336,33.5856854,-102.3576812
111,Cedar Avenue,79336,33.5855180,-102.3576651
113,Cedar Avenue,79336,33.5853477,-102.3576895
115,Cedar Avenue,79336,33.5851862,-102.3576852
117,Cedar Avenue,79336,33.5850076,-102.3576848
119,Cedar Avenue,79336,33.5848442,-102.3576809
121,Cedar Avenue,79336,33.5846770,-102.3576909
123,Cedar Avenue,79336,33.5844901,-102.3576576
125,Cedar Avenue,79336,33.5842847,-102.3576883
127,Cedar Avenue,79336,33.5840934,-102.3576775
129,Cedar Avenue,79336,33.5838950,-102.3576721
131,Cedar Avenue,79336,33.5836862,-102.3576966
101,Detroit Avenue,79336,33.5863715,-102.3565985
103,Detroit Avenue,79336,33.5861760,-102.3566258
105,Detroit Avenue,79336,33.5860134,-102.3566030
107,Detroit Avenue,79336,33.5858439,-102.3565937
109,Detroit Avenue,79336,33.5856798,-102.3566139
111,Detroit Avenue,79336,33.5855066,-102.3565129
113,Detroit Avenue,79336,33.5853377,-102.3565071
115,Detroit Avenue,79336,33.5851689,-102.3564425
117,Detroit Avenue,79336,33.5850097,-102.3563178
119,Detroit Avenue,79336,33.5848851,-102.3562059
121,Detroit Avenue,79336,33.5847479,-102.3560620
123,Detroit Avenue,79336,33.5846281,-102.3559299
125,Detroit Avenue,79336,33.5844920,-102.3557986
127,Detroit Avenue,79336,33.5843316,-102.3556997
129,Detroit Avenue,79336,33.5841640,-102.3555834
131,Detroit Avenue,79336,33.5839889,-102.3555565
133,Detroit Avenue,79336,33.5838113,-102.3555322
135,Detroit Avenue,79336,33.5836511,-102.3555580
137,Detroit Avenue,79336,33.5834814,-102.3555783
139,Detroit Avenue,79336,33.5832125,-102.3555602
1500,Avenue C,79336,33.5772423,-102.3723145
801,17th Street,79336,33.5761442,-102.3765906
707,17th Street,79336,33.5762223,-102.3760513
705,17th Street,79336,33.5761727,-102.3758350
703,17th Street,79336,33.5761617,-102.3756346
701,17th Street,79336,33.5761823,-102.3754055
601,17th Street,79336,33.5761676,-102.3743294
603,17th Street,79336,33.5761438,-102.3745533
605,17th Street,79336,33.5761691,-102.3747661
607,17th Street,79336,33.5761857,-102.3750010
507,17th Street,79336,33.5761266,-102.3738848
505,17th Street,79336,33.5761140,-102.3736659
503,17th Street,79336,33.5761202,-102.3734681
501,17th Street,79336,33.5761433,-102.3732455
1702,Avenue D,79336,33.5756432,-102.3731686
504,17th Street,79336,33.5756905,-102.3733900
506,17th Street,79336,33.5757367,-102.3735770
508,17th Street,79336,33.5756944,-102.3738208
510,Double U Drive,79336,33.5756268,-102.3740361
532,Double U Drive,79336,33.5749323,-102.3759891
530,Double U Drive,79336,33.5749971,-102.3758438
528,Double U Drive,79336,33.5750725,-102.3756664
526,Double U Drive,79336,33.5751401,-102.3754800
524,Double U Drive,79336,33.5751785,-102.3752826
522,Double U Drive,79336,33.5752263,-102.3750806
520,Double U Drive,79336,33.5753196,-102.3749312
518,Double U Drive,79336,33.5753784,-102.3747503
516,Double U Drive,79336,33.5754633,-102.3745650
514,Double U Drive,79336,33.5755289,-102.3743906
512,Double U Drive,79336,33.5755523,-102.3742123
1607,Avenue C,79336,33.5760657,-102.3714259
1608,Avenue B,79336,33.5760372,-102.3708417
310,16th Street,79336,33.5764386,-102.3714855
308,16th Street,79336,33.5764325,-102.3712851
306,16th Street,79336,33.5764248,-102.3710861
304,16th Street,79336,33.5764452,-102.3709059
1602,Avenue B,79336,33.5763936,-102.3706828
202,16th Street,79336,33.5764105,-102.3694431
204,16th Street,79336,33.5763820,-102.3696389
206,16th Street,79336,33.5764075,-102.3698433
208,16th Street,79336,33.5764218,-102.3700353
210,16th Street,79336,33.5764384,-102.3702016
301,16th Street,79336,33.5768815,-102.3706595
303,16th Street,79336,33.5768656,-102.3708850
305,16th Street,79336,33.5768542,-102.3710900
307,16th Street,79336,33.5768502,-102.3712738
1511,Avenue C,79336,33.5768997,-102.3715022
201,16th Street,79336,33.5768702,-102.3694080
203,16th Street,79336,33.5768436,-102.3695892
205,16th Street,79336,33.5768334,-102.3697495
207,16th Street,79336,33.5768484,-102.3699151
209,16th Street,79336,33.5768505,-102.3700827
211,16th Street,79336,33.5768573,-102.3702471
312,15th Street,79336,33.5773727,-102.3714720
308,15th Street,79336,33.5773716,-102.3712735
306,15th Street,79336,33.5773008,-102.3710773
304,15th Street,79336,33.5773281,-102.3708813
302,15th Street,79336,33.5772866,-102.3706925
210,15th Street,79336,33.5772920,-102.3702178
208,15th Street,79336,33.5773590,-102.3700309
206,15th Street,79336,33.5773358,-102.3698280
204,15th Street,79336,33.5773125,-102.3696379
202,15th Street,79336,33.5773011,-102.3694201
311,15th Street,79336,33.5777853,-102.3714562
309,15th Street,79336,33.5777725,-102.3712595
307,15th Street,79336,33.5777747,-102.3710483
303,15th Street,79336,33.5777761,-102.3708422
301,15th Street,79336,33.5778036,-102.3706545
211,15th Street,79336,33.5778444,-102.3702787
209,15th Street,79336,33.5777991,-102.3700692
207,15th Street,79336,33.5778091,-102.3699099
203,15th Street,79336,33.5777619,-102.3697181
201,15th Street,79336,33.5778025,-102.3694225
108,14th Street,79336,33.5783331,-102.3685494
110,14th Street,79336,33.5783252,-102.3687607
112,14th Street,79336,33.5783051,-102.3689743
202,14th Street,79336,33.5783268,-102.3694607
206,14th Street,79336,33.5783550,-102.3697079
208,14th Street,79336,33.5783254,-102.3699388
210,14th Street,79336,33.5783407,-102.3701810
302,14th Street,79336,33.5783062,-102.3706519
304,14th Street,79336,33.5783319,-102.3708237
306,14th Street,79336,33.5783536,-102.3709765
308,14th Street,79336,33.5783662,-102.3711451
310,14th Street,79336,33.5783708,-102.3713103
312,14th Street,79336,33.5783439,-102.3714620
400,North Sherman Avenue,79336,33.5981140,-102.3629617
414,East Adams Street,79336,33.5971907,-102.3611156
416,East Adams Street,79336,33.5971765,-102.3608192
418,East Adams Street,79336,33.5971630,-102.3605873
420,East Adams Street,79336,33.5971596,-102.3603627
401,East Adams Street,79336,33.5976897,-102.3624171
419,East Adams Street,79336,33.5976651,-102.3603455
403,East Adams Street,79336,33.5976643,-102.3621971
405,East Adams Street,79336,33.5976641,-102.3619816
407,East Adams Street,79336,33.5976783,-102.3617263
409,East Adams Street,79336,33.5976748,-102.3615014
411,East Adams Street,79336,33.5976595,-102.3612722
413,East Adams Street,79336,33.5976730,-102.3610362
415,East Adams Street,79336,33.5976676,-102.3608116
417,East Adams Street,79336,33.5976557,-102.3605787
402,East Jackson Street,79336,33.5981113,-102.3624207
404,East Jackson Street,79336,33.5981030,-102.3621824
406,East Jackson Street,79336,33.5980991,-102.3619571
408,East Jackson Street,79336,33.5980969,-102.3617248
410,East Jackson Street,79336,33.5981020,-102.3614985
412,East Jackson Street,79336,33.5980965,-102.3612683
414,East Jackson Street,79336,33.5980833,-102.3610433
416,East Jackson Street,79336,33.5980988,-102.3608135
418,East Jackson Street,79336,33.5980672,-102.3605800
420,East Jackson Street,79336,33.5980451,-102.3603439
403,East Jackson Street,79336,33.5985809,-102.3621764
405,East Jackson Street,79336,33.5985950,-102.3619503
407,East Jackson Street,79336,33.5985642,-102.3617215
409,East Jackson Street,79336,33.5985844,-102.3614913
411,East Jackson Street,79336,33.5985653,-102.3612687
413,East Jackson Street,79336,33.5985661,-102.3610254
415,East Jackson Street,79336,33.5985551,-102.3608038
417,East Jackson Street,79336,33.5985766,-102.3605756
419,East Jackson Street,79336,33.5985975,-102.3603089
502,East Adams Street,79336,33.5971412,-102.3598926
504,East Adams Street,79336,33.5971689,-102.3596184
506,East Adams Street,79336,33.5971468,-102.3593773
508,East Adams Street,79336,33.5971645,-102.3591422
510,East Adams Street,79336,33.5971507,-102.3588781
512,East Adams Street,79336,33.5971503,-102.3586494
514,East Adams Street,79336,33.5971452,-102.3583474
518,East Adams Street,79336,33.5971134,-102.3580798
501,East Adams Street,79336,33.5976397,-102.3598914
503,East Adams Street,79336,33.5976445,-102.3596589
505,East Adams Street,79336,33.5976540,-102.3594374
507,East Adams Street,79336,33.5976307,-102.3592011
509,East Adams Street,79336,33.5976322,-102.3589768
511,East Adams Street,79336,33.5976375,-102.3587465
513,East Adams Street,79336,33.5976184,-102.3585169
515,East Adams Street,79336,33.5976225,-102.3582800
517,East Adams Street,79336,33.5976183,-102.3580478
502,East Jackson Street,79336,33.5980781,-102.3598956
504,East Jackson Street,79336,33.5980538,-102.3596110
506,East Jackson Street,79336,33.5980730,-102.3593473
508,East Jackson Street,79336,33.5980582,-102.3590918
510,East Jackson Street,79336,33.5980337,-102.3588289
512,East Jackson Street,79336,33.5980638,-102.3585663
514,East Jackson Street,79336,33.5980530,-102.3583156
516,East Jackson Street,79336,33.5980518,-102.3580373
501,East Jackson Street,79336,33.5985788,-102.3598775
503,East Jackson Street,79336,33.5985721,-102.3596546
505,East Jackson Street,79336,33.5985623,-102.3594207
507,East Jackson Street,79336,33.5985313,-102.3591655
509,East Jackson Street,79336,33.5985357,-102.3589661
511,East Jackson Street,79336,33.5985500,-102.3587318
513,East Jackson Street,79336,33.5985250,-102.3585003
515,East Jackson Street,79336,33.5985250,-102.3582719
517,East Jackson Street,79336,33.5985513,-102.3580224
401,East Ellis Street,79336,33.6021330,-102.3625178
2022,Buffalo Drive,79336,33.5697227,-102.3624376
2024,Buffalo Drive,79336,33.5694955,-102.3624345
2026,Buffalo Drive,79336,33.5692929,-102.3624534
2028,Buffalo Drive,79336,33.5690643,-102.3624484
2030,Buffalo Drive,79336,33.5688308,-102.3624614
2032,Buffalo Drive,79336,33.5686157,-102.3624521
2034,Buffalo Drive,79336,33.5684015,-102.3624607
2036,Buffalo Drive,79336,33.5681886,-102.3624334
2038,Buffalo Drive,79336,33.5679897,-102.3624302
2042,Buffalo Drive,79336,33.5675624,-102.3625018
2056,Harvard Drive,79336,33.5678064,-102.3613467
2058,Harvard Drive,79336,33.5677092,-102.3613739
2054,Harvard Drive,79336,33.5679452,-102.3613736
2050,Harvard Drive,79336,33.5681848,-102.3613886
2052,Harvard Drive,79336,33.5680677,-102.3613761
2060,Harvard Drive,79336,33.5675728,-102.3613937
2041,Buffalo Drive,79336,33.5675759,-102.3618410
2021,Buffalo Drive,79336,33.5697150,-102.3617833
2023,Buffalo Drive,79336,33.5694888,-102.3618498
2025,Buffalo Drive,79336,33.5692593,-102.3618603
2027,Buffalo Drive,79336,33.5690471,-102.3618555
2029,Buffalo Drive,79336,33.5688262,-102.3618560
2031,Buffalo Drive,79336,33.5686108,-102.3618635
2033,Buffalo Drive,79336,33.5684003,-102.3618667
2035,Buffalo Drive,79336,33.5681949,-102.3618422
2037,Buffalo Drive,79336,33.5679855,-102.3618498
2039,Buffalo Drive,79336,33.5677733,-102.3618796
2027,Mustang Drive,79336,33.5689988,-102.3629662
2029,Mustang Drive,79336,33.5687693,-102.3629350
2031,Mustang Drive,79336,33.5685439,-102.3629833
2033,Mustang Drive,79336,33.5683175,-102.3629807
2035,Mustang Drive,79336,33.5681043,-102.3629763
2037,Mustang Drive,79336,33.5678748,-102.3629591
2039,Mustang Drive,79336,33.5676071,-102.3629567
2030,Mustang Drive,79336,33.5689365,-102.3635594
2032,Mustang Drive,79336,33.5687182,-102.3635852
2034,Mustang Drive,79336,33.5684828,-102.3635752
2036,Mustang Drive,79336,33.5682550,-102.3635975
2038,Mustang Drive,79336,33.5679501,-102.3635873
2040,Mustang Drive,79336,33.5676354,-102.3635834
1921,Avenue H,79336,33.5644583,-102.3770696
1932,Avenue H,79336,33.5640974,-102.3780353
1934,Avenue H,79336,33.5638567,-102.3780303
1938,Avenue H,79336,33.5634404,-102.3780895
114,Aransas Avenue,79336,33.5845350,-102.3469212
116,Aransas Avenue,79336,33.5844053,-102.3469313
118,Aransas Avenue,79336,33.5842717,-102.3469329
120,Aransas Avenue,79336,33.5841402,-102.3469358
122,Aransas Avenue,79336,33.5840039,-102.3469296
124,Aransas Avenue,79336,33.5838751,-102.3469233
126,Aransas Avenue,79336,33.5837342,-102.3469283
128,Aransas Avenue,79336,33.5836114,-102.3469385
130,Aransas Avenue,79336,33.5834871,-102.3469252
132,Aransas Avenue,79336,33.5833398,-102.3469644
134,Hickory Street,79336,33.5831753,-102.3469470
136,Aransas Avenue,79336,33.5830493,-102.3469728
135,Aransas Avenue,79336,33.5830997,-102.3463522
113,Aransas Avenue,79336,33.5845245,-102.3463752
115,Aransas Avenue,79336,33.5844005,-102.3463211
117,Aransas Avenue,79336,33.5842587,-102.3463579
119,Aransas Avenue,79336,33.5841425,-102.3463386
121,Aransas Avenue,79336,33.5840184,-102.3463344
123,Aransas Avenue,79336,33.5838810,-102.3463373
127,Aransas Avenue,79336,33.5837404,-102.3463489
129,Aransas Avenue,79336,33.5836097,-102.3463395
131,Aransas Avenue,79336,33.5834515,-102.3463456
133,Aransas Avenue,79336,33.5832835,-102.3463468
101,Duval Drive,79336,33.5859251,-102.3414434
1504,Cactus Drive,79336,33.5860127,-102.3409153
1514,Cactus Drive,79336,33.5859517,-102.3391307
104,Duval Drive,79336,33.5855284,-102.3422092
106,Duval Drive,79336,33.5852068,-102.3422370
108,Duval Drive,79336,33.5847109,-102.3421539
112,Duval Drive,79336,33.5842736,-102.3419713
1,Paxton Place,79336,33.5854394,-102.3416287
3,Paxton Place,79336,33.5854999,-102.3411268
7,Paxton Place,79336,33.5854515,-102.3405372
11,Paxton Place,79336,33.5854115,-102.3398594
15,Paxton Place,79336,33.5854115,-102.3394109
17,Paxton Place,79336,33.5853088,-102.3389854
2,Duval Drive,79336,33.5848119,-102.3415615
4,Paxton Place,79336,33.5849122,-102.3411117
6,Paxton Place,79336,33.5848897,-102.3407447
8,Paxton Place,79336,33.5848666,-102.3403999
10,Paxton Place,79336,33.5848486,-102.3400793
12,Paxton Place,79336,33.5848372,-102.3396434
14,Paxton Place,79336,33.5846107,-102.3391270
25,Crockett Circle,79336,33.5835141,-102.3437663
24,Crockett Circle,79336,33.5833637,-102.3440978
23,Crockett Circle,79336,33.5832176,-102.3443176
1,Crockett Circle,79336,33.5837347,-102.3432196
2,Crockett Circle,79336,33.5838866,-102.3429429
3,Crockett Circle,79336,33.5840012,-102.3426460
26,Crockett Circle,79336,33.5839506,-102.3441367
27,Crockett Circle,79336,33.5840989,-102.3438227
28,Crockett Circle,79336,33.5842069,-102.3435968
29,Crockett Circle,79336,33.5843851,-102.3433175
32,Crockett Circle,79336,33.5849823,-102.3440571
33,Crockett Circle,79336,33.5847257,-102.3441209
34,Crockett Circle,79336,33.5844645,-102.3441031
30,Crockett Circle,79336,33.5847180,-102.3434879
31,Crockett Circle,79336,33.5849947,-102.3435195
16,Crockett Circle,79336,33.5850131,-102.3447435
17,Crockett Circle,79336,33.5847407,-102.3447576
18,Crockett Circle,79336,33.5844740,-102.3447658
19,Crockett Circle,79336,33.5841656,-102.3447652
20,Crockett Circle,79336,33.5838809,-102.3447324
21,Crockett Circle,79336,33.5836493,-102.3447829
22,Crockett Circle,79336,33.5833003,-102.3448039
4,Crockett Circle,79336,33.5842665,-102.3425015
5,Crockett Circle,79336,33.5845182,-102.3427852
6,Crockett Circle,79336,33.5847888,-102.3428718
7,Crockett Circle,79336,33.5850299,-102.3428371
8,Crockett Circle,79336,33.5853530,-102.3428051
9,Crockett Circle,79336,33.5855242,-102.3429863
10,Crockett Circle,79336,33.5855106,-102.3433380
11,Crockett Circle,79336,33.5854896,-102.3436492
12,Crockett Circle,79336,33.5854760,-102.3439851
13,Crockett Circle,79336,33.5855258,-102.3443061
14,Crockett Circle,79336,33.5855321,-102.3446200
101,Bowie Lane,79336,33.5860630,-102.3452298
103,Bowie Lane,79336,33.5858252,-102.3452471
104,Bowie Lane,79336,33.5858321,-102.3458473
106,Bowie Lane,79336,33.5856106,-102.3458253
108,Bowie Lane,79336,33.5854017,-102.3458597
110,Bowie Lane,79336,33.5851898,-102.3458746
112,Bowie Lane,79336,33.5849944,-102.3458373
114,Bowie Lane,79336,33.5847719,-102.3458390
116,Bowie Lane,79336,33.5845717,-102.3458565
118,Bowie Lane,79336,33.5843623,-102.3458619
120,Bowie Lane,79336,33.5841609,-102.3458691
122,Bowie Lane,79336,33.5839582,-102.3458859
124,Bowie Lane,79336,33.5837487,-102.3458908
126,Bowie Lane,79336,33.5835405,-102.3459032
128,Bowie Lane,79336,33.5833237,-102.3459122
130,Bowie Lane,79336,33.5831007,-102.3459168
107,Bowie Lane,79336,33.5853940,-102.3452540
109,Bowie Lane,79336,33.5851825,-102.3452869
111,Bowie Lane,79336,33.5849751,-102.3452561
113,Bowie Lane,79336,33.5847772,-102.3452896
115,Bowie Lane,79336,33.5845688,-102.3452771
117,Bowie Lane,79336,33.5843635,-102.3452709
119,Bowie Lane,79336,33.5841522,-102.3452584
121,Bowie Lane,79336,33.5839498,-102.3452971
123,Bowie Lane,79336,33.5837423,-102.3453052
125,Bowie Lane,79336,33.5835343,-102.3452896
127,Bowie Lane,79336,33.5833263,-102.3452943
129,Bowie Lane,79336,33.5831038,-102.3452721
112,Rip Street,79336,33.5945253,-102.3332903
110,Rip Street,79336,33.5945114,-102.3330128
108,Rip Street,79336,33.5945143,-102.3327149
106,Rip Street,79336,33.5944979,-102.3324247
104,Rip Street,79336,33.5944977,-102.3321112
102,Rip Street,79336,33.5944864,-102.3318176
101,Park Drive,79336,33.5959657,-102.3302351
103,Park Drive,79336,33.5960533,-102.3305387
102,Park Drive,79336,33.5955041,-102.3301761
104,Park Drive,79336,33.5955361,-102.3304560
106,Park Drive,79336,33.5956553,-102.3307440
117,Lobo Drive,79336,33.5957953,-102.3310095
204,Lobo Drive,79336,33.5953266,-102.3318049
208,Lobo Drive,79336,33.5955899,-102.3317656
210,Lobo Drive,79336,33.5958119,-102.3316549
212,Lobo Drive,79336,33.5960508,-102.3314319
111,Rip Street,79336,33.5949930,-102.3332778
109,Rip Street,79336,33.5949618,-102.3329949
107,Rip Street,79336,33.5949778,-102.3326901
105,Rip Street,79336,33.5949547,-102.3323875
103,Rip Street,79336,33.5949166,-102.3321024
101,Rip Street,79336,33.5949957,-102.3318273
105,Lobo Drive,79336,33.5943023,-102.3312898
107,Lobo Drive,79336,33.5945082,-102.3312715
109,Lobo Drive,79336,33.5947182,-102.3312569
111,Lobo Drive,79336,33.5949277,-102.3312662
113,Lobo Drive,79336,33.5951386,-102.3312826
115,Lobo Drive,79336,33.5954499,-102.3312883
102,Brentwood Drive,79336,33.5684798,-102.3756221
104,Brentwood Drive,79336,33.5682065,-102.3756564
106,Brentwood Drive,79336,33.5678557,-102.3756226
108,Brentwood Drive,79336,33.5674963,-102.3757267
110,Brentwood Drive,79336,33.5671892,-102.3756578
112,Brentwood Drive,79336,33.5669217,-102.3756264
118,Brentwood Drive,79336,33.5666241,-102.3757046
120,Brentwood Drive,79336,33.5663926,-102.3757638
122,Brentwood Drive,79336,33.5661647,-102.3757262
124,Brentwood Drive,79336,33.5659463,-102.3757023
312,Sandalwood Lane,79336,33.5650725,-102.3770771
310,Sandalwood Lane,79336,33.5650894,-102.3766934
308,Sandalwood Lane,79336,33.5650790,-102.3763678
306,Sandalwood Lane,79336,33.5650858,-102.3761258
304,Sandalwood Lane,79336,33.5650471,-102.3758744
302,Sandalwood Lane,79336,33.5650167,-102.3756148
309,Sandalwood Lane,79336,33.5656549,-102.3770841
307,Sandalwood Lane,79336,33.5656385,-102.3763989
303,Sandalwood Lane,79336,33.5656281,-102.3759880
301,Sandalwood Lane,79336,33.5656205,-102.3756623
1903,Avenue H,79336,33.5684480,-102.3769726
1917,Avenue H,79336,33.5660082,-102.3770049
1915,Avenue H,79336,33.5665437,-102.3769873
1913,Avenue H,79336,33.5668328,-102.3769617
1911,Avenue H,79336,33.5671570,-102.3769506
1909,Avenue H,79336,33.5674318,-102.3769731
1907,Avenue H,79336,33.5677134,-102.3769932
1905,Avenue H,79336,33.5680052,-102.3769152
1802,Avenue H,79336,33.5722312,-102.3780503
1804,Avenue H,79336,33.5719264,-102.3780676
1806,Avenue H,79336,33.5717171,-102.3780348
1808,Avenue H,79336,33.5714755,-102.3780239
1810,Avenue H,79336,33.5712064,-102.3780381
1812,Avenue H,79336,33.5709506,-102.3780029
1814,Avenue H,79336,33.5706422,-102.3780317
1816,Avenue H,79336,33.5703388,-102.3782152
1818,Avenue H,79336,33.5699713,-102.3780603
1820,Avenue H,79336,33.5696803,-102.3780692
1822,Avenue H,79336,33.5694159,-102.3780589
1824,Avenue H,79336,33.5691437,-102.3780412
1826,Avenue H,79336,33.5688677,-102.3780296
1924,Avenue H,79336,33.5657230,-102.3780182
1922,Avenue H,79336,33.5659492,-102.3780256
1920,Avenue H,79336,33.5661879,-102.3780195
1918,Avenue H,79336,33.5664287,-102.3780121
1916,Avenue H,79336,33.5666450,-102.3780156
1914,Avenue H,79336,33.5669009,-102.3779559
1912,Avenue H,79336,33.5671198,-102.3780211
1910,Avenue H,79336,33.5673330,-102.3779907
1908,Avenue H,79336,33.5675221,-102.3779931
1906,Avenue H,79336,33.5677429,-102.3780113
1904,Avenue H,79336,33.5679257,-102.3780005
1902,Avenue H,79336,33.5682086,-102.3779886
1828,Avenue H,79336,33.5684364,-102.3779935
2101,Mustang Drive,79336,33.5671382,-102.3630065
2105,Mustang Drive,79336,33.5666930,-102.3629712
2107,Mustang Drive,79336,33.5663402,-102.3629722
2109,Mustang Drive,79336,33.5661812,-102.3629587
2115,Mustang Drive,79336,33.5655564,-102.3630015
2117,Mustang Drive,79336,33.5653538,-102.3630250
2102,Mustang Drive,79336,33.5671633,-102.3635992
2104,Mustang Drive,79336,33.5669169,-102.3636001
2106,Mustang Drive,79336,33.5666773,-102.3635656
2108,Mustang Drive,79336,33.5664537,-102.3636015
2110,Mustang Drive,79336,33.5662246,-102.3635908
2112,Mustang Drive,79336,33.5660113,-102.3635876
2114,Mustang Drive,79336,33.5657786,-102.3635996
2116,Mustang Drive,79336,33.5655601,-102.3636240
2118,Mustang Drive,79336,33.5653191,-102.3636159
2122,Mustang Drive,79336,33.5648744,-102.3636407
2041,College Avenue,79336,33.5676352,-102.3675519
2003,College Avenue,79336,33.5718657,-102.3675046
2005,College Avenue,79336,33.5716465,-102.3675204
2007,College Avenue,79336,33.5714275,-102.3675225
2009,College Avenue,79336,33.5712044,-102.3675078
2011,College Avenue,79336,33.5709926,-102.3674846
2013,College Avenue,79336,33.5707613,-102.3674964
2015,College Avenue,79336,33.5705426,-102.3675190
2017,College Avenue,79336,33.5703178,-102.3675161
2019,College Avenue,79336,33.5700889,-102.3675375
2021,College Avenue,79336,33.5698795,-102.3675311
2023,College Avenue,79336,33.5696553,-102.3675416
2025,College Avenue,79336,33.5694526,-102.3675290
2027,College Avenue,79336,33.5692115,-102.3675095
2029,College Avenue,79336,33.5689940,-102.3675292
2031,College Avenue,79336,33.5687757,-102.3675381
2033,College Avenue,79336,33.5685606,-102.3675234
2035,College Avenue,79336,33.5683317,-102.3675433
2037,College Avenue,79336,33.5681201,-102.3675309
2039,College Avenue,79336,33.5678941,-102.3675488
1502,Avenue G,79336,33.5775915,-102.3766696
1504,Avenue G,79336,33.5774060,-102.3766021
1506,Avenue G,79336,33.5772476,-102.3766099
1508,Avenue G,79336,33.5770859,-102.3765715
1510,Avenue G,79336,33.5768903,-102.3765792
1512,Avenue G,79336,33.5767508,-102.3765866
1514,Avenue G,79336,33.5766165,-102.3765960
1516,Avenue G,79336,33.5764690,-102.3765916
1518,Avenue G,79336,33.5762984,-102.3765432
710,15th Street,79336,33.5775442,-102.3760457
1503,Avenue G,79336,33.5773942,-102.3760491
1505,Avenue G,79336,33.5772165,-102.3760746
1507,Avenue G,79336,33.5770516,-102.3760367
1509,Avenue G,79336,33.5768872,-102.3760376
1511,Avenue G,79336,33.5767247,-102.3760602
1517,Avenue G,79336,33.5765517,-102.3760142
506,15th Street,79336,33.5775397,-102.3734757
1504,Avenue D,79336,33.5773734,-102.3732831
1506,Avenue D,79336,33.5772335,-102.3732857
1508,Avenue D,79336,33.5770590,-102.3733065
1510,Avenue D,79336,33.5768577,-102.3732780
1512,Avenue D,79336,33.5766829,-102.3732749
1514,Avenue D,79336,33.5764973,-102.3732716
505,15th Street,79336,33.5779357,-102.3735411
501,15th Street,79336,33.5779393,-102.3732955
1501,Avenue E,79336,33.5775375,-102.3739107
1503,Avenue E,79336,33.5773703,-102.3739331
1505,Avenue E,79336,33.5772040,-102.3739209
1507,Avenue E,79336,33.5770144,-102.3739074
1509,Avenue E,79336,33.5768787,-102.3738980
1511,Avenue E,79336,33.5766959,-102.3738732
1513,Avenue E,79336,33.5765117,-102.3738740
1515,Avenue E,79336,33.5763206,-102.3739119
1502,Avenue E,79336,33.5775478,-102.3744723
1504,Avenue E,79336,33.5773844,-102.3744286
1506,Avenue E,79336,33.5771828,-102.3744189
1508,Avenue E,79336,33.5770308,-102.3744160
1510,Avenue E,79336,33.5768631,-102.3744267
1512,Avenue E,79336,33.5766919,-102.3743985
1514,Avenue E,79336,33.5765229,-102.3743988
1501,Avenue F,79336,33.5775630,-102.3749256
1503,Avenue F,79336,33.5773767,-102.3750005
1505,Avenue F,79336,33.5771974,-102.3749887
1507,Avenue F,79336,33.5770477,-102.3749816
1509,Avenue F,79336,33.5768663,-102.3749782
1511,Avenue F,79336,33.5767051,-102.3749706
1513,Avenue F,79336,33.5765327,-102.3749879
1502,15th Street,79336,33.5775562,-102.3755292
1504,Avenue F,79336,33.5773872,-102.3755124
1506,Avenue F,79336,33.5772270,-102.3755084
1508,Avenue F,79336,33.5770508,-102.3754932
1510,Avenue F,79336,33.5768850,-102.3754785
1512,Avenue F,79336,33.5767048,-102.3754505
1514,Avenue F,79336,33.5765386,-102.3754619
502,14th Street,79336,33.5783501,-102.3732250
506,14th Street,79336,33.5783881,-102.3735262
508,14th Street,79336,33.5783889,-102.3736786
512,14th Street,79336,33.5783626,-102.3738513
512,14th Street,79336,33.5783777,-102.3740503
1306,Avenue D,79336,33.5788473,-102.3731978
501,14th Street,79336,33.5787882,-102.3733665
503,14th Street,79336,33.5787958,-102.3735224
505,14th Street,79336,33.5788056,-102.3736807
509,14th Street,79336,33.5788727,-102.3738517
509,14th Street,79336,33.5788844,-102.3740252
510,13th Street,79336,33.5793658,-102.3739038
508,13th Street,79336,33.5793599,-102.3736402
504,13th Street,79336,33.5793595,-102.3733958
502,13th Street,79336,33.5793659,-102.3731718
107,14th Street,79336,33.5787505,-102.3685664
109,14th Street,79336,33.5787553,-102.3687564
111,14th Street,79336,33.5787377,-102.3689564
1306,Avenue A,79336,33.5789299,-102.3694893
1308,Avenue A,79336,33.5787379,-102.3694936
207,14th Street,79336,33.5787096,-102.3699002
209,14th Street,79336,33.5787250,-102.3700441
211,14th Street,79336,33.5787306,-102.3702241
1309,Avenue C,79336,33.5789543,-102.3714462
301,14th Street,79336,33.5787405,-102.3706374
303,14th Street,79336,33.5787460,-102.3708077
305,14th Street,79336,33.5787578,-102.3709839
309,14th Street,79336,33.5787558,-102.3711964
311,14th Street,79336,33.5787518,-102.3714082
1312,Avenue C,79336,33.5787873,-102.3719160
411,14th Street,79336,33.5787776,-102.3728036
409,14th Street,79336,33.5787792,-102.3726331
403,14th Street,79336,33.5788183,-102.3720587
405,14th Street,79336,33.5788173,-102.3722455
407,14th Street,79336,33.5788214,-102.3724217
412,13th Street,79336,33.5793596,-102.3727648
408,13th Street,79336,33.5793698,-102.3724107
406,13th Street,79336,33.5793767,-102.3721798
1302,Avenue C,79336,33.5793768,-102.3719678
312,13th Street,79336,33.5792915,-102.3714143
308,13th Street,79336,33.5793126,-102.3711320
306,13th Street,79336,33.5792932,-102.3709184
112,13th Street,79336,33.5792706,-102.3689544
110,13th Street,79336,33.5792796,-102.3687510
108,13th Street,79336,33.5792676,-102.3685586
1304,Avenue A,79336,33.5792197,-102.3693622
212,13th Street,79336,33.5792639,-102.3702236
210,13th Street,79336,33.5793021,-102.3700535
208,13th Street,79336,33.5792814,-102.3698897
206,13th Street,79336,33.5792750,-102.3696973
204,13th Street,79336,33.5793056,-102.3695582
2121,College Avenue,79336,33.5649145,-102.3675808
2101,College Avenue,79336,33.5672560,-102.3674950
2102,College Avenue,79336,33.5670892,-102.3674957
2103,College Avenue,79336,33.5669439,-102.3674838
2104,College Avenue,79336,33.5668019,-102.3674919
2105,College Avenue,79336,33.5666570,-102.3675012
2106,College Avenue,79336,33.5665124,-102.3674977
2107,College Avenue,79336,33.5663653,-102.3675012
2109,College Avenue,79336,33.5660725,-102.3674950
2111,College Avenue,79336,33.5659203,-102.3675200
2113,College Avenue,79336,33.5657803,-102.3674986
2115,College Avenue,79336,33.5655960,-102.3676148
2117,College Avenue,79336,33.5653672,-102.3675905
2122,Rice Drive,79336,33.5649187,-102.3670442
2102,Rice Drive,79336,33.5671713,-102.3669996
2104,Rice Drive,79336,33.5669351,-102.3669781
2106,Rice Drive,79336,33.5667183,-102.3669721
2108,Rice Drive,79336,33.5664870,-102.3669852
2110,Rice Drive,79336,33.5662683,-102.3669782
2112,Rice Drive,79336,33.5660438,-102.3669968
2103,Rice Drive,79336,33.5669416,-102.3663543
2105,Rice Drive,79336,33.5667085,-102.3663630
2107,Rice Drive,79336,33.5664781,-102.3663366
2109,Rice Drive,79336,33.5662589,-102.3663667
2111,Rice Drive,79336,33.5660358,-102.3663539
2113,Rice Drive,79336,33.5658101,-102.3663688
2115,Rice Drive,79336,33.5655843,-102.3663801
2117,Rice Drive,79336,33.5653560,-102.3663825
2119,Rice Drive,79336,33.5651392,-102.3663577
2102,Tech Drive,79336,33.5671830,-102.3657971
2104,Tech Drive,79336,33.5669303,-102.3658427
2108,Tech Drive,79336,33.5664897,-102.3659689
2110,Tech Drive,79336,33.5662641,-102.3658438
2112,Tech Drive,79336,33.5660338,-102.3658152
2114,Tech Drive,79336,33.5657997,-102.3658310
2116,Tech Drive,79336,33.5655767,-102.3658291
2118,Tech Drive,79336,33.5653558,-102.3658300
2120,Tech Drive,79336,33.5651337,-102.3658502
2122,Tech Drive,79336,33.5648954,-102.3658657
2101,Tech Drive,79336,33.5671823,-102.3652588
2103,Tech Drive,79336,33.5669207,-102.3652304
2105,Tech Drive,79336,33.5666997,-102.3652181
2107,Tech Drive,79336,33.5664761,-102.3652442
2109,Tech Drive,79336,33.5662517,-102.3652941
2111,Tech Drive,79336,33.5660206,-102.3652374
2115,Tech Drive,79336,33.5655862,-102.3652502
2117,Tech Drive,79336,33.5653794,-102.3652596
2119,Tech Drive,79336,33.5651451,-102.3652489
2121,Tech Drive,79336,33.5648945,-102.3652559
2102,Longhorn Drive,79336,33.5671725,-102.3647055
2104,Longhorn Drive,79336,33.5669239,-102.3646993
2106,Longhorn Drive,79336,33.5666935,-102.3647080
2108,Longhorn Drive,79336,33.5664650,-102.3646851
2110,Longhorn Drive,79336,33.5662488,-102.3646996
2112,Longhorn Drive,79336,33.5660192,-102.3647053
2114,Longhorn Drive,79336,33.5657945,-102.3646956
2116,Longhorn Drive,79336,33.5655704,-102.3647224
2118,Longhorn Drive,79336,33.5653413,-102.3647130
2120,Longhorn Drive,79336,33.5651164,-102.3647074
2122,Longhorn Drive,79336,33.5648762,-102.3647057
2101,Longhorn Drive,79336,33.5671418,-102.3641044
2103,Longhorn Drive,79336,33.5669107,-102.3641285
2105,Longhorn Drive,79336,33.5666787,-102.3641183
2107,Longhorn Drive,79336,33.5664589,-102.3641155
2109,Longhorn Drive,79336,33.5662361,-102.3641491
2111,Longhorn Drive,79336,33.5660112,-102.3640852
2113,Longhorn Drive,79336,33.5657924,-102.3641193
2115,Longhorn Drive,79336,33.5655612,-102.3641535
2117,Longhorn Drive,79336,33.5653323,-102.3641311
2119,Longhorn Drive,79336,33.5651155,-102.3641167
2121,Longhorn Drive,79336,33.5648718,-102.3641333
118,Sandalwood Lane,79336,33.5649954,-102.3704032
116,Sandalwood Lane,79336,33.5649875,-102.3701034
114,Sandalwood Lane,79336,33.5649834,-102.3698312
112,Sandalwood Lane,79336,33.5649992,-102.3695751
110,Sandalwood Lane,79336,33.5650055,-102.3692683
108,Sandalwood Lane,79336,33.5649909,-102.3689831
106,Sandalwood Lane,79336,33.5649878,-102.3687250
104,Sandalwood Lane,79336,33.5649805,-102.3684408
102,Sandalwood Lane,79336,33.5649658,-102.3681404
117,Sandalwood Lane,79336,33.5655432,-102.3704333
115,Sandalwood Lane,79336,33.5655558,-102.3701583
113,Sandalwood Lane,79336,33.5655597,-102.3698029
111,Sandalwood Lane,79336,33.5655172,-102.3695167
109,Sandalwood Lane,79336,33.5655211,-102.3692582
107,Sandalwood Lane,79336,33.5655244,-102.3689722
105,Sandalwood Lane,79336,33.5655249,-102.3686737
103,Sandalwood Lane,79336,33.5655125,-102.3684215
101,Sandalwood Lane,79336,33.5655089,-102.3681333
701,Martin Luther King Junior Street,79336,33.6005178,-102.3738357
301,1st Street,79336,33.5921661,-102.3708338
107,Avenue H,79336,33.5921729,-102.3775595
102,Avenue H,79336,33.5922964,-102.3782713
105,Avenue H,79336,33.5928140,-102.3775736
802,1st Street,79336,33.5934009,-102.3768551
508,1st Street,79336,33.5923448,-102.3732327
302,Avenue C,79336,33.5902833,-102.3719294
304,Avenue C,79336,33.5901606,-102.3719445
301,Avenue C,79336,33.5902644,-102.3714261
303,Avenue C,79336,33.5901379,-102.3713482
211,Avenue C,79336,33.5906057,-102.3713819
313,4th Street,79336,33.5896169,-102.3714682
312,Avenue B,79336,33.5896066,-102.3707346
310,Avenue B,79336,33.5897468,-102.3706672
306,Avenue B,79336,33.5900044,-102.3706849
304,Avenue B,79336,33.5901664,-102.3706488
302,Avenue B,79336,33.5902920,-102.3707376
505,Austin Street,79336,33.5866205,-102.3737114
510,Austin Street,79336,33.5859819,-102.3737956
602,Austin Street,79336,33.5859979,-102.3744590
410,Houston Street,79336,33.5870266,-102.3725655
411,Austin Street,79336,33.5865984,-102.3724780
608,Avenue C,79336,33.5867436,-102.3718903
401,Austin Street,79336,33.5865450,-102.3718880
408,Houston Street,79336,33.5871124,-102.3723686
406,Houston Street,79336,33.5870762,-102.3721941
500,Houston Street,79336,33.5878633,-102.3723114
308,5th Street,79336,33.5881709,-102.3711025
102,Elgin Avenue,79336,33.5863431,-102.3560600
104,Elgin Avenue,79336,33.5861695,-102.3560383
106,Elgin Avenue,79336,33.5859856,-102.3560911
108,Elgin Avenue,79336,33.5857436,-102.3560035
112,Elgin Avenue,79336,33.5855065,-102.3560214
114,Elgin Avenue,79336,33.5853426,-102.3559469
116,Elgin Avenue,79336,33.5851861,-102.3558046
118,Elgin Avenue,79336,33.5850985,-102.3556640
120,Elgin Avenue,79336,33.5849626,-102.3555310
122,Elgin Avenue,79336,33.5848366,-102.3554326
124,Elgin Avenue,79336,33.5847146,-102.3552750
126,Elgin Avenue,79336,33.5845991,-102.3551547
128,Elgin Avenue,79336,33.5844528,-102.3550633
130,Elgin Avenue,79336,33.5842891,-102.3550100
132,Elgin Avenue,79336,33.5841325,-102.3550206
134,Elgin Avenue,79336,33.5839716,-102.3549817
136,Elgin Avenue,79336,33.5838054,-102.3550493
138,Elgin Avenue,79336,33.5836382,-102.3550188
140,Elgin Avenue,79336,33.5834760,-102.3550291
142,Elgin Avenue,79336,33.5833200,-102.3550365
144,Elgin Avenue,79336,33.5831442,-102.3550537
101,Elgin Avenue,79336,33.5863017,-102.3554841
103,Elgin Avenue,79336,33.5860386,-102.3555200
107,Elgin Avenue,79336,33.5858306,-102.3555611
109,Elgin Avenue,79336,33.5856525,-102.3555368
111,Elgin Avenue,79336,33.5854829,-102.3553999
113,Elgin Avenue,79336,33.5853524,-102.3552722
115,Elgin Avenue,79336,33.5852154,-102.3551375
117,Elgin Avenue,79336,33.5850882,-102.3550046
119,Elgin Avenue,79336,33.5849462,-102.3548435
121,Elgin Avenue,79336,33.5848368,-102.3547102
123,Elgin Avenue,79336,33.5846479,-102.3546071
125,Elgin Avenue,79336,33.5844943,-102.3545212
127,Elgin Avenue,79336,33.5843086,-102.3545108
129,Elgin Avenue,79336,33.5841295,-102.3544788
131,Elgin Avenue,79336,33.5839613,-102.3544943
133,Elgin Avenue,79336,33.5838049,-102.3545161
135,Elgin Avenue,79336,33.5836412,-102.3544625
137,Elgin Avenue,79336,33.5834754,-102.3545104
139,Elgin Avenue,79336,33.5833102,-102.3545251
141,Elgin Avenue,79336,33.5831489,-102.3545224
102,Texas Avenue,79336,33.5958707,-102.3692142
202,Texas Avenue,79336,33.5963540,-102.3692691
105,Abe Street,79336,33.5963632,-102.3697799
207,Texas Avenue,79336,33.5963441,-102.3687372
205,Texas Avenue,79336,33.5961646,-102.3687251
203,Texas Avenue,79336,33.5959974,-102.3687338
218,North College Avenue,79336,33.5965468,-102.3678446
216,North College Avenue,79336,33.5962933,-102.3678690
409,North College Avenue,79336,33.5984273,-102.3669601
307,North College Avenue,79336,33.5972558,-102.3670948
302,North College Avenue,79336,33.5972114,-102.3679096
220,North College Avenue,79336,33.5967627,-102.3678923
108,West Monroe Street,79336,33.5967462,-102.3683611
110,West Monroe Street,79336,33.5966903,-102.3685606
306,North College Avenue,79336,33.5977913,-102.3679452
304,North College Avenue,79336,33.5976387,-102.3679879
302,North College Avenue,79336,33.5974842,-102.3680188
208,Texas Avenue,79336,33.5967573,-102.3691120
204,West Monroe Street,79336,33.5967969,-102.3694030
206,West Monroe Street,79336,33.5967754,-102.3696101
208,West Monroe Street,79336,33.5968002,-102.3698171
211,West Monroe Street,79336,33.5972300,-102.3698216
209,West Monroe Street,79336,33.5972378,-102.3696399
207,West Monroe Street,79336,33.5972407,-102.3694578
203,West Monroe Street,79336,33.5972009,-102.3690963
205,West Monroe Street,79336,33.5972012,-102.3692795
201,West Monroe Street,79336,33.5972434,-102.3689021
107,West Monroe Street,79336,33.5972194,-102.3684701
303,Texas Avenue,79336,33.5975665,-102.3684863
307,Texas Avenue,79336,33.5976942,-102.3684327
509,North College Avenue,79336,33.6000491,-102.3668885
404,North College Avenue,79336,33.5994876,-102.3677689
502,North College Avenue,79336,33.5999867,-102.3677769
510,North College Avenue,79336,33.6007240,-102.3678294
513,North College Avenue,79336,33.6007026,-102.3667100
511,North College Avenue,79336,33.6004570,-102.3667252
505,North College Avenue,79336,33.5987344,-102.3661865
105,Amanda Circle,79336,33.6000798,-102.3657941
101,Amanda Circle,79336,33.6001080,-102.3652831
107,Amanda Circle,79336,33.6001413,-102.3660388
103,Amanda Circle,79336,33.6000917,-102.3655301
109,Amanda Circle,79336,33.6001032,-102.3663028
111,Amanda Circle,79336,33.5998655,-102.3664483
110,Amanda Circle,79336,33.5996163,-102.3663514
108,Amanda Circle,79336,33.5995629,-102.3660567
106,Amanda Circle,79336,33.5995846,-102.3658049
104,Amanda Circle,79336,33.5995807,-102.3655284
102,Amanda Circle,79336,33.5995794,-102.3652679
102,East Ellis Street,79336,33.6007409,-102.3664332
106,East Ellis Street,79336,33.6007225,-102.3657405
104,East Ellis Street,79336,33.6007448,-102.3661135
115,East Ellis Street,79336,33.6012767,-102.3649942
113,East Ellis Street,79336,33.6013385,-102.3652378
302,Douglas Street,79336,33.5990332,-102.3648482
304,Douglas Street,79336,33.5990364,-102.3646119
306,Douglas Street,79336,33.5990412,-102.3643946
308,Douglas Street,79336,33.5990519,-102.3641721
310,Douglas Street,79336,33.5990467,-102.3639577
312,Douglas Street,79336,33.5990312,-102.3637355
314,Douglas Street,79336,33.5990059,-102.3635087
316,Douglas Street,79336,33.5990271,-102.3632909
318,Douglas Street,79336,33.5990333,-102.3630745
320,Douglas Street,79336,33.5989997,-102.3628572
301,Douglas Street,79336,33.5994476,-102.3648405
303,Douglas Street,79336,33.5994969,-102.3646280
305,Douglas Street,79336,33.5994580,-102.3644293
307,Douglas Street,79336,33.5994818,-102.3642358
309,Douglas Street,79336,33.5994485,-102.3640380
311,Douglas Street,79336,33.5994850,-102.3638323
313,Douglas Street,79336,33.5994744,-102.3636397
315,Douglas Street,79336,33.5994322,-102.3634483
317,Douglas Street,79336,33.5994573,-102.3632513
319,Douglas Street,79336,33.5994526,-102.3630610
321,Douglas Street,79336,33.5994622,-102.3628468
302,Michael Street,79336,33.5999097,-102.3648416
304,Michael Street,79336,33.5999179,-102.3646246
306,Michael Street,79336,33.5999133,-102.3644254
308,Michael Street,79336,33.5999073,-102.3642270
310,Michael Street,79336,33.5998982,-102.3640338
312,Michael Street,79336,33.5998889,-102.3638346
314,Michael Street,79336,33.5998900,-102.3636312
316,Michael Street,79336,33.5999046,-102.3634408
318,Michael Street,79336,33.5998948,-102.3632438
320,Michael Street,79336,33.5999160,-102.3630477
322,Michael Street,79336,33.5998972,-102.3628485
301,Michael Street,79336,33.6003427,-102.3648279
303,Michael Street,79336,33.6003634,-102.3646131
305,Michael Street,79336,33.6003151,-102.3644216
307,Michael Street,79336,33.6003266,-102.3642260
309,Michael Street,79336,33.6003061,-102.3640309
311,Michael Street,79336,33.6003183,-102.3638263
313,Michael Street,79336,33.6002987,-102.3636329
315,Michael Street,79336,33.6003300,-102.3634359
317,Michael Street,79336,33.6003320,-102.3632374
319,Michael Street,79336,33.6003007,-102.3630410
321,Michael Street,79336,33.6003019,-102.3628470
302,East Ellis Street,79336,33.6008199,-102.3647976
304,East Ellis Street,79336,33.6008298,-102.3645804
306,East Ellis Street,79336,33.6008272,-102.3643400
308,East Ellis Street,79336,33.6007632,-102.3641024
310,East Ellis Street,79336,33.6006464,-102.3638031
312,East Ellis Street,79336,33.6008058,-102.3635332
314,East Ellis Street,79336,33.6008096,-102.3633383
316,East Ellis Street,79336,33.6007834,-102.3631345
318,East Ellis Street,79336,33.6007782,-102.3629026
1412,East Ellis Street,79336,33.5993167,-102.3397303
1402,East Ellis Street,79336,33.5993909,-102.3463680
401,Rayburn Street,79336,33.6034380,-102.3611777
403,Rayburn Street,79336,33.6034416,-102.3609311
405,Rayburn Street,79336,33.6034463,-102.3606956
407,Rayburn Street,79336,33.6034260,-102.3604196
409,Rayburn Street,79336,33.6034343,-102.3601334
411,Rayburn Street,79336,33.6034302,-102.3598997
301,Rayburn Street,79336,33.6034723,-102.3645079
303,Rayburn Street,79336,33.6034767,-102.3642706
305,Rayburn Street,79336,33.6034700,-102.3640015
307,Rayburn Street,79336,33.6034703,-102.3637480
309,Rayburn Street,79336,33.6035058,-102.3634933
311,Rayburn Street,79336,33.6034699,-102.3632647
313,Rayburn Street,79336,33.6034855,-102.3630299
315,Rayburn Street,79336,33.6034572,-102.3627988
317,Rayburn Street,79336,33.6034739,-102.3625747
319,Rayburn Street,79336,33.6034594,-102.3623457
321,Rayburn Street,79336,33.6034575,-102.3621146
323,Rayburn Street,79336,33.6034503,-102.3618870
325,Rayburn Street,79336,33.6034400,-102.3616578
819,North Denver Avenue,79336,33.6030685,-102.3644445
817,North Denver Avenue,79336,33.6028864,-102.3644581
815,North Denver Avenue,79336,33.6026950,-102.3644510
813,North Denver Avenue,79336,33.6025049,-102.3644539
811,North Denver Avenue,79336,33.6023074,-102.3644521
809,North Denver Avenue,79336,33.6021129,-102.3644671
807,North Denver Avenue,79336,33.6019237,-102.3644667
805,North Denver Avenue,79336,33.6017247,-102.3644527
803,North Denver Avenue,79336,33.6015432,-102.3644647
801,North Denver Avenue,79336,33.6013200,-102.3644814
802,North Sherman Avenue,79336,33.6013201,-102.3639370
804,North Sherman Avenue,79336,33.6015278,-102.3639235
806,North Sherman Avenue,79336,33.6017222,-102.3639248
808,North Sherman Avenue,79336,33.6019154,-102.3639113
810,North Sherman Avenue,79336,33.6021087,-102.3639108
812,North Sherman Avenue,79336,33.6022978,-102.3639696
814,North Sherman Avenue,79336,33.6024907,-102.3639127
816,North Sherman Avenue,79336,33.6026854,-102.3639197
818,North Sherman Avenue,79336,33.6028744,-102.3639373
820,North Sherman Avenue,79336,33.6030704,-102.3639127
812,North Denver Avenue,79336,33.6022178,-102.3652513
204,Houston Street,79336,33.5869370,-102.3695927
210,Houston Street,79336,33.5869305,-102.3699857
612,Avenue A,79336,33.5864779,-102.3694018
205,Austin Street,79336,33.5866477,-102.3696869
110,Houston Street,79336,33.5869651,-102.3689514
211,Houston Street,79336,33.5875633,-102.3702292
115,Houston Street,79336,33.5876243,-102.3689693
116,5th Street,79336,33.5879795,-102.3689695
114,5th Street,79336,33.5879469,-102.3688052
209,5th Street,79336,33.5888094,-102.3700274
709,4th Street,79336,33.5896608,-102.3763128
302,Avenue G,79336,33.5902870,-102.3769779
410,Avenue G,79336,33.5888747,-102.3770978
610,West Washington Street,79336,33.5947210,-102.3752491
603,West State Highway 114,79336,33.5943604,-102.3752927
535,West State Highway 114,79336,33.5943207,-102.3745233
531,West State Highway 114,79336,33.5943964,-102.3742568
513,West State Highway 114,79336,33.5943169,-102.3733881
507,West State Highway 114,79336,33.5943566,-102.3729958
514,West Washington Street,79336,33.5947435,-102.3733562
503,West Washington Street,79336,33.5951026,-102.3727142
515,West Washington Street,79336,33.5951412,-102.3736037
511,West Washington Street,79336,33.5950897,-102.3732513
509,West Washington Street,79336,33.5951427,-102.3729058
533,West Washington Street,79336,33.5951622,-102.3746529
204,Viola Avenue,79336,33.5959037,-102.3792852
203,Viola Avenue,79336,33.5959496,-102.3788716
201,Viola Avenue,79336,33.5954775,-102.3787696
114,Viola Avenue,79336,33.5954675,-102.3793237
110,Viola Avenue,79336,33.5951920,-102.3793331
106,Viola Avenue,79336,33.5949411,-102.3792581
104,Viola Avenue,79336,33.5947904,-102.3793627
903,West State Highway 114,79336,33.5945215,-102.3788124
1007,West State Highway 114,79336,33.5950177,-102.3800351
1315,West Washington Street,79336,33.5954142,-102.3841879
1313,West Washington Street,79336,33.5953737,-102.3837268
1311,West State Highway 114,79336,33.5945452,-102.3831519
2002,Rice Drive,79336,33.5720881,-102.3669168
2004,Rice Drive,79336,33.5718521,-102.3669531
2006,Rice Drive,79336,33.5716306,-102.3669074
2008,Rice Drive,79336,33.5714074,-102.3669178
2010,Rice Drive,79336,33.5711912,-102.3669295
2012,Rice Drive,79336,33.5709680,-102.3669438
2014,Rice Drive,79336,33.5707501,-102.3669060
2016,Rice Drive,79336,33.5705310,-102.3669335
2018,Rice Drive,79336,33.5703100,-102.3669383
2020,Rice Drive,79336,33.5700937,-102.3669382
2022,Rice Drive,79336,33.5698710,-102.3669317
2024,Rice Drive,79336,33.5696492,-102.3669414
2026,Rice Drive,79336,33.5694297,-102.3669395
2028,Rice Drive,79336,33.5692068,-102.3669436
2030,Rice Drive,79336,33.5689956,-102.3669312
2032,Rice Drive,79336,33.5687666,-102.3669587
2034,Rice Drive,79336,33.5685543,-102.3670275
2036,Rice Drive,79336,33.5683255,-102.3670168
2038,Rice Drive,79336,33.5681116,-102.3669605
2040,Rice Drive,79336,33.5678993,-102.3669831
2042,Rice Drive,79336,33.5676495,-102.3669885
2041,Rice Drive,79336,33.5676149,-102.3663691
2039,Rice Drive,79336,33.5678559,-102.3663161
2037,Rice Drive,79336,33.5680913,-102.3663381
2035,Rice Drive,79336,33.5683146,-102.3663461
2033,Rice Drive,79336,33.5685358,-102.3663510
2031,Rice Drive,79336,33.5687668,-102.3663526
2029,Rice Drive,79336,33.5689859,-102.3663545
2027,Rice Drive,79336,33.5692017,-102.3663206
2025,Rice Drive,79336,33.5694196,-102.3663418
2023,Rice Drive,79336,33.5696376,-102.3663346
2021,Rice Drive,79336,33.5698741,-102.3663625
2019,Rice Drive,79336,33.5700915,-102.3663576
2017,Rice Drive,79336,33.5703061,-102.3663185
2015,Rice Drive,79336,33.5705303,-102.3663202
2013,Rice Drive,79336,33.5707481,-102.3662998
2011,Rice Drive,79336,33.5709653,-102.3663441
2009,Rice Drive,79336,33.5711828,-102.3663392
2007,Rice Drive,79336,33.5714051,-102.3663231
2005,Rice Drive,79336,33.5716223,-102.3663219
2003,Rice Drive,79336,33.5718450,-102.3663358
2001,Rice Drive,79336,33.5720829,-102.3663496
233,Sandalwood Lane,79336,33.5656179,-102.3750604
231,Sandalwood Lane,79336,33.5655802,-102.3747797
229,Sandalwood Lane,79336,33.5655685,-102.3745170
227,Sandalwood Lane,79336,33.5655623,-102.3742507
225,Sandalwood Lane,79336,33.5655473,-102.3740028
223,Sandalwood Lane,79336,33.5655538,-102.3737354
221,Sandalwood Lane,79336,33.5655707,-102.3734833
219,Sandalwood Lane,79336,33.5655536,-102.3732373
217,Sandalwood Lane,79336,33.5655567,-102.3729906
215,Sandalwood Lane,79336,33.5655496,-102.3727497
213,Sandalwood Lane,79336,33.5655553,-102.3725019
211,Sandalwood Lane,79336,33.5655545,-102.3722406
209,Sandalwood Lane,79336,33.5655472,-102.3719999
207,Sandalwood Lane,79336,33.5655306,-102.3717375
205,Sandalwood Lane,79336,33.5655391,-102.3714608
203,Sandalwood Lane,79336,33.5655195,-102.3712082
201,Sandalwood Lane,79336,33.5655694,-102.3709285
204,Sandalwood Lane,79336,33.5649951,-102.3712474
202,Sandalwood Lane,79336,33.5650076,-102.3709478
206,Sandalwood Lane,79336,33.5649970,-102.3715058
208,Sandalwood Lane,79336,33.5649851,-102.3717692
210,Sandalwood Lane,79336,33.5649942,-102.3720320
212,Sandalwood Lane,79336,33.5650182,-102.3722987
214,Sandalwood Lane,79336,33.5650292,-102.3725596
216,Sandalwood Lane,79336,33.5650143,-102.3728216
218,Sandalwood Lane,79336,33.5650270,-102.3730762
220,Sandalwood Lane,79336,33.5650447,-102.3733210
222,Sandalwood Lane,79336,33.5650368,-102.3736355
224,Sandalwood Lane,79336,33.5650384,-102.3739389
226,Sandalwood Lane,79336,33.5650605,-102.3741960
228,Sandalwood Lane,79336,33.5650596,-102.3744585
230,Sandalwood Lane,79336,33.5650793,-102.3747222
232,Sandalwood Lane,79336,33.5650617,-102.3750510
410,Holly Street,79336,33.5809837,-102.3598353
412,Holly Street,79336,33.5810145,-102.3596350
506,Holly Street,79336,33.5810055,-102.3586490
508,Holly Street,79336,33.5810037,-102.3584535
510,Holly Street,79336,33.5809711,-102.3582450
501,Holly Street,79336,33.5814682,-102.3590064
503,Holly Street,79336,33.5814466,-102.3588112
505,Holly Street,79336,33.5814280,-102.3586253
507,Holly Street,79336,33.5814261,-102.3584209
509,Holly Street,79336,33.5814209,-102.3582234
401,Holly Street,79336,33.5814927,-102.3612908
403,Holly Street,79336,33.5814589,-102.3610944
405,Holly Street,79336,33.5814526,-102.3608895
407,Holly Street,79336,33.5814688,-102.3606858
409,Holly Street,79336,33.5814481,-102.3604548
411,Holly Street,79336,33.5814486,-102.3602544
413,Holly Street,79336,33.5814267,-102.3600456
415,Holly Street,79336,33.5814523,-102.3598331
419,Holly Street,79336,33.5814183,-102.3594249
401,Hickory Street,79336,33.5832536,-102.3612222
403,Hickory Street,79336,33.5832539,-102.3610113
405,Hickory Street,79336,33.5832454,-102.3608111
407,Hickory Street,79336,33.5832444,-102.3606012
409,Hickory Street,79336,33.5832239,-102.3603380
411,Hickory Street,79336,33.5832411,-102.3600398
413,Hickory Street,79336,33.5832573,-102.3597382
415,Hickory Street,79336,33.5832475,-102.3594825
502,Poplar Street,79336,33.5818348,-102.3589538
504,Poplar Street,79336,33.5818642,-102.3587225
506,Poplar Street,79336,33.5818748,-102.3584695
508,Poplar Street,79336,33.5818908,-102.3582306
501,Poplar Street,79336,33.5823528,-102.3589577
503,Poplar Street,79336,33.5823434,-102.3587320
505,Poplar Street,79336,33.5823352,-102.3584562
507,Poplar Street,79336,33.5823005,-102.3582085
502,Hickory Street,79336,33.5827516,-102.3589393
504,Hickory Street,79336,33.5827800,-102.3587080
506,Hickory Street,79336,33.5827600,-102.3584618
508,Hickory Street,79336,33.5827485,-102.3582176
404,Hickory Street,79336,33.5828082,-102.3609840
406,Hickory Street,79336,33.5828037,-102.3607230
402,Hickory Street,79336,33.5827970,-102.3612262
408,Hickory Street,79336,33.5827956,-102.3604567
410,Hickory Street,79336,33.5827683,-102.3601914
412,Hickory Street,79336,33.5827460,-102.3599346
414,Hickory Street,79336,33.5827731,-102.3596923
416,Hickory Street,79336,33.5827728,-102.3594390
401,Poplar Street,79336,33.5823850,-102.3612399
403,Poplar Street,79336,33.5823689,-102.3610364
405,Poplar Street,79336,33.5823737,-102.3608235
407,Poplar Street,79336,33.5823532,-102.3605904
409,Poplar Street,79336,33.5823697,-102.3603736
411,Poplar Street,79336,33.5823624,-102.3601524
413,Poplar Street,79336,33.5823429,-102.3599278
415,Poplar Street,79336,33.5823372,-102.3596948
417,Poplar Street,79336,33.5823396,-102.3594368
402,Poplar Street,79336,33.5818503,-102.3612429
404,Poplar Street,79336,33.5819083,-102.3610284
406,Poplar Street,79336,33.5819207,-102.3608375
408,Poplar Street,79336,33.5818928,-102.3605874
410,Poplar Street,79336,33.5818871,-102.3603370
412,Poplar Street,79336,33.5818813,-102.3601192
414,Poplar Street,79336,33.5818649,-102.3599091
416,Poplar Street,79336,33.5818797,-102.3596554
502,Birch Avenue,79336,33.5818236,-102.3594193
622,Hickory Street,79336,33.5827500,-102.3561439
602,Hickory Street,79336,33.5827419,-102.3578271
604,Hickory Street,79336,33.5827388,-102.3576806
604,Hickory Street,79336,33.5827283,-102.3575345
608,Hickory Street,79336,33.5827296,-102.3573742
610,Hickory Street,79336,33.5827321,-102.3572191
612,Hickory Street,79336,33.5827277,-102.3570512
614,Hickory Street,79336,33.5827244,-102.3568996
616,Hickory Street,79336,33.5827264,-102.3567447
618,Hickory Street,79336,33.5827200,-102.3565875
620,Hickory Street,79336,33.5827240,-102.3564282
601,Poplar Street,79336,33.5823240,-102.3578383
603,Poplar Street,79336,33.5823498,-102.3576714
605,Poplar Street,79336,33.5823312,-102.3575213
607,Poplar Street,79336,33.5823396,-102.3573615
609,Poplar Street,79336,33.5823177,-102.3571981
611,Poplar Street,79336,33.5823172,-102.3570370
613,Poplar Street,79336,33.5823203,-102.3568766
615,Poplar Street,79336,33.5823281,-102.3567169
617,Poplar Street,79336,33.5823217,-102.3565569
619,Poplar Street,79336,33.5823219,-102.3563929
621,Poplar Street,79336,33.5823133,-102.3562281
623,Poplar Street,79336,33.5823097,-102.3560596
606,Poplar Street,79336,33.5818681,-102.3573592
608,Poplar Street,79336,33.5818851,-102.3571427
604,Poplar Street,79336,33.5818610,-102.3575903
602,Poplar Street,79336,33.5818505,-102.3577866
610,Poplar Street,79336,33.5818231,-102.3569616
612,Poplar Street,79336,33.5818241,-102.3568149
614,Poplar Street,79336,33.5818186,-102.3566591
616,Poplar Street,79336,33.5818173,-102.3565058
618,Poplar Street,79336,33.5818170,-102.3563493
620,Poplar Street,79336,33.5818113,-102.3561883
622,Poplar Street,79336,33.5818088,-102.3560460
601,Holly Street,79336,33.5814355,-102.3578149
603,Holly Street,79336,33.5814252,-102.3576441
609,Holly Street,79336,33.5814194,-102.3571103
613,Holly Street,79336,33.5814605,-102.3567719
615,Holly Street,79336,33.5814580,-102.3565938
621,Holly Street,79336,33.5813975,-102.3560433
510,12th Street,79336,33.5807972,-102.3737862
512,12th Street,79336,33.5808422,-102.3739508
508,12th Street,79336,33.5807808,-102.3736294
506,12th Street,79336,33.5808023,-102.3734595
504,12th Street,79336,33.5808472,-102.3732997
502,12th Street,79336,33.5808117,-102.3731413
1207,Avenue E,79336,33.5804585,-102.3738941
1209,Avenue E,79336,33.5803210,-102.3738613
1211,Avenue E,79336,33.5801661,-102.3738514
1213,Avenue E,79336,33.5799760,-102.3738408
1215,Avenue E,79336,33.5797780,-102.3738773
1218,Avenue D,79336,33.5797656,-102.3732837
1216,Avenue D,79336,33.5798941,-102.3732086
1214,Avenue D,79336,33.5800465,-102.3732452
1212,Avenue D,79336,33.5801790,-102.3732117
1210,Avenue D,79336,33.5803162,-102.3732144
1208,Avenue D,79336,33.5804533,-102.3732163
601,11th Street,79336,33.5823442,-102.3744003
608,10th Street,79336,33.5829599,-102.3748914
612,10th Street,79336,33.5829176,-102.3751965
1002,Avenue E,79336,33.5829794,-102.3744722
1004,Avenue E,79336,33.5828403,-102.3743898
1006,Avenue E,79336,33.5827226,-102.3744281
810,9th Street,79336,33.5838996,-102.3771388
802,9th Street,79336,33.5840065,-102.3768877
812,9th Street,79336,33.5839595,-102.3776505
111,9th Street,79336,33.5845251,-102.3687976
803,Avenue A,79336,33.5849476,-102.3689382
116,8th Street,79336,33.5850895,-102.3687988
112,9th Street,79336,33.5839005,-102.3689661
111,10th Street,79336,33.5833291,-102.3687855
205,Magnolia Street,79336,33.5800265,-102.3643809
1401,College Avenue,79336,33.5760954,-102.3629561
112,12th Street,79336,33.5808209,-102.3689217
110,12th Street,79336,33.5807563,-102.3686272
106,12th Street,79336,33.5808409,-102.3683933
104,12th Street,79336,33.5808389,-102.3681706
102,12th Street,79336,33.5808150,-102.3679434
1218,College Avenue,79336,33.5796861,-102.3679925
1218,College Avenue,79336,33.5797043,-102.3682052
1208,College Avenue,79336,33.5804622,-102.3679581
1210,College Avenue,79336,33.5803179,-102.3679912
1212,College Avenue,79336,33.5801731,-102.3679618
1214,College Avenue,79336,33.5800451,-102.3680504
1216,College Avenue,79336,33.5798678,-102.3679925
111,13th Street,79336,33.5797142,-102.3688111
1209,Avenue A,79336,33.5804398,-102.3688907
1211,Avenue A,79336,33.5802609,-102.3688259
1213,Avenue A,79336,33.5800721,-102.3689092
1215,Avenue A,79336,33.5799278,-102.3688821
212,12th Street,79336,33.5808473,-102.3701473
204,12th Street,79336,33.5808273,-102.3696847
202,12th Street,79336,33.5807874,-102.3694326
208,12th Street,79336,33.5808363,-102.3698762
209,13th Street,79336,33.5797212,-102.3699200
1207,Avenue B,79336,33.5802161,-102.3701318
1209,Avenue B,79336,33.5800531,-102.3701510
1211,Avenue B,79336,33.5799109,-102.3701401
1213,Avenue B,79336,33.5797333,-102.3701343
1206,Avenue A,79336,33.5804266,-102.3695115
1208,Avenue A,79336,33.5801840,-102.3695892
1210,Avenue A,79336,33.5799825,-102.3694603
1212,Avenue A,79336,33.5797299,-102.3694857
304,12th Street,79336,33.5808226,-102.3708286
308,12th Street,79336,33.5808058,-102.3711827
310,12th Street,79336,33.5808159,-102.3714327
1208,Avenue B,79336,33.5804051,-102.3706891
1210,Avenue B,79336,33.5801337,-102.3707172
1216,Avenue B,79336,33.5799152,-102.3707048
1218,Avenue B,79336,33.5797330,-102.3707512
1207,Avenue C,79336,33.5804612,-102.3713950
1209,Avenue C,79336,33.5802939,-102.3713988
1211,Avenue C,79336,33.5800743,-102.3713838
1215,Avenue C,79336,33.5798875,-102.3713902
1217,Avenue C,79336,33.5797346,-102.3713831
412,12th Street,79336,33.5808410,-102.3727069
410,12th Street,79336,33.5808407,-102.3725527
408,12th Street,79336,33.5808524,-102.3723626
406,12th Street,79336,33.5807675,-102.3720959
1202,Avenue C,79336,33.5808370,-102.3718976
1209,Avenue D,79336,33.5804776,-102.3726361
1211,Avenue D,79336,33.5803131,-102.3726278
1213,Avenue D,79336,33.5801763,-102.3726386
1215,Avenue D,79336,33.5800452,-102.3726869
1217,Avenue D,79336,33.5799131,-102.3726514
1219,Avenue D,79336,33.5797543,-102.3725972
1208,Avenue C,79336,33.5804567,-102.3719619
1210,Avenue C,79336,33.5803076,-102.3719495
1212,Avenue C,79336,33.5801712,-102.3719457
1214,Avenue C,79336,33.5800612,-102.3719476
1216,Avenue C,79336,33.5799115,-102.3720043
1218,Avenue C,79336,33.5797480,-102.3719962
101,12th Street,79336,33.5812859,-102.3679207
103,12th Street,79336,33.5813020,-102.3681660
105,12th Street,79336,33.5813136,-102.3683614
107,12th Street,79336,33.5813258,-102.3685971
111,12th Street,79336,33.5813350,-102.3688277
113,12th Street,79336,33.5813516,-102.3689820
112,11th Street,79336,33.5818739,-102.3687991
110,11th Street,79336,33.5817790,-102.3686378
106,11th Street,79336,33.5818617,-102.3684383
104,11th Street,79336,33.5818400,-102.3681921
102,11th Street,79336,33.5818635,-102.3679577
114,11th Street,79336,33.5818383,-102.3689806
114,10th Street,79336,33.5829152,-102.3689763
112,10th Street,79336,33.5829012,-102.3688082
110,10th Street,79336,33.5829113,-102.3686232
108,10th Street,79336,33.5828873,-102.3684589
111,11th Street,79336,33.5824315,-102.3689514
109,11th Street,79336,33.5823732,-102.3686768
107,11th Street,79336,33.5823789,-102.3684590
105,11th Street,79336,33.5823966,-102.3683261
103,11th Street,79336,33.5823829,-102.3681378
202,11th Street,79336,33.5818169,-102.3694621
212,11th Street,79336,33.5818332,-102.3702142
210,11th Street,79336,33.5818826,-102.3700423
208,11th Street,79336,33.5818668,-102.3698906
204,11th Street,79336,33.5818775,-102.3696810
205,12th Street,79336,33.5813555,-102.3697275
201,12th Street,79336,33.5813616,-102.3694140
211,12th Street,79336,33.5813756,-102.3701725
210,10th Street,79336,33.5828479,-102.3701559
202,10th Street,79336,33.5828358,-102.3694804
211,11th Street,79336,33.5824277,-102.3702124
209,11th Street,79336,33.5823762,-102.3700406
207,11th Street,79336,33.5823904,-102.3698856
205,11th Street,79336,33.5823865,-102.3697274
203,11th Street,79336,33.5823978,-102.3695630
201,11th Street,79336,33.5823664,-102.3694034
908,Avenue E,79336,33.5835926,-102.3743517
910,Avenue E,79336,33.5834892,-102.3743567
601,10th Street,79336,33.5833469,-102.3743756
609,10th Street,79336,33.5835984,-102.3750429
611,10th Street,79336,33.5833883,-102.3752063
607,10th Street,79336,33.5834393,-102.3747703
603,10th Street,79336,33.5833846,-102.3745581
908,Avenue D,79336,33.5835716,-102.3732323
910,Avenue D,79336,33.5833869,-102.3732072
507,10th Street,79336,33.5834058,-102.3735849
511,10th Street,79336,33.5834509,-102.3739566
509,10th Street,79336,33.5834257,-102.3737886
119,North San Jacinto Avenue,79336,33.6030077,-102.3610637
117,North San Jacinto Avenue,79336,33.6028131,-102.3610456
115,North San Jacinto Avenue,79336,33.6026217,-102.3610578
113,North San Jacinto Avenue,79336,33.6024322,-102.3610910
111,North San Jacinto Avenue,79336,33.6022369,-102.3610878
109,North San Jacinto Avenue,79336,33.6020494,-102.3610714
107,North San Jacinto Avenue,79336,33.6018547,-102.3611034
105,North San Jacinto Avenue,79336,33.6016599,-102.3611039
103,North San Jacinto Avenue,79336,33.6014682,-102.3610578
101,North San Jacinto Avenue,79336,33.6012683,-102.3610765
501,East Ellis Street,79336,33.6012531,-102.3595997
402,East Ellis Street,79336,33.6006282,-102.3622074
406,East Ellis Street,79336,33.6007202,-102.3616540
408,East Ellis Street,79336,33.6006954,-102.3612448
410,East Ellis Street,79336,33.6006814,-102.3606263
412,East Ellis Street,79336,33.6007181,-102.3600176
502,East Ellis Street,79336,33.6006405,-102.3595126
102,Capitol Avenue,79336,33.6012480,-102.3606354
104,Capitol Avenue,79336,33.6014920,-102.3606468
106,Capitol Avenue,79336,33.6017389,-102.3606077
108,Capitol Avenue,79336,33.6019774,-102.3605984
110,Capitol Avenue,79336,33.6021947,-102.3605861
112,Capitol Avenue,79336,33.6024116,-102.3605743
114,Capitol Avenue,79336,33.6026182,-102.3605936
116,Capitol Avenue,79336,33.6028063,-102.3605834
118,Capitol Avenue,79336,33.6030172,-102.3605985
119,Capitol Avenue,79336,33.6030085,-102.3600063
117,Capitol Avenue,79336,33.6028043,-102.3599981
115,Capitol Avenue,79336,33.6026081,-102.3600040
113,Capitol Avenue,79336,33.6024170,-102.3599853
111,Capitol Avenue,79336,33.6022275,-102.3600358
109,Capitol Avenue,79336,33.6020320,-102.3600527
107,Capitol Avenue,79336,33.6018446,-102.3600306
105,Capitol Avenue,79336,33.6016446,-102.3600377
103,Capitol Avenue,79336,33.6014483,-102.3600162
101,Capitol Avenue,79336,33.6012592,-102.3600470
111,County Road,79336,33.5963064,-102.3295100
108,Mike Street,79336,33.5965155,-102.3309749
106,Mike Street,79336,33.5965289,-102.3306652
104,Mike Street,79336,33.5965236,-102.3304428
102,Mike Street,79336,33.5964723,-102.3301502
109,Mike Street,79336,33.5970191,-102.3311568
107,Mike Street,79336,33.5969946,-102.3308876
105,Mike Street,79336,33.5969826,-102.3306620
103,Mike Street,79336,33.5969696,-102.3304187
101,Mike Street,79336,33.5969603,-102.3301554
200,Mike Street,79336,33.5965417,-102.3316179
210,Mike Street,79336,33.5971130,-102.3331551
208,Mike Street,79336,33.5970613,-102.3329168
206,Mike Street,79336,33.5969317,-102.3327087
204,Mike Street,79336,33.5967842,-102.3325022
202,Mike Street,79336,33.5966376,-102.3322725
307,Eagle Avenue,79336,33.5968086,-102.3332544
305,Eagle Avenue,79336,33.5966211,-102.3332414
303,Eagle Avenue,79336,33.5964258,-102.3332515
301,Eagle Avenue,79336,33.5962364,-102.3332379
103,Peggy Drive,79336,33.5963637,-102.3325403
105,Peggy Drive,79336,33.5962180,-102.3327022
107,Peggy Drive,79336,33.5960735,-102.3328265
109,Peggy Drive,79336,33.5959208,-102.3330286
111,Peggy Drive,79336,33.5958767,-102.3333069
116,Peggy Drive,79336,33.5953783,-102.3332899
114,Peggy Drive,79336,33.5954070,-102.3329689
112,Peggy Drive,79336,33.5955771,-102.3326854
110,Peggy Drive,79336,33.5957694,-102.3324559
108,Peggy Drive,79336,33.5959716,-102.3322357
106,Peggy Drive,79336,33.5961716,-102.3320655
104,Peggy Drive,79336,33.5963558,-102.3318947
304,Butch Street,79336,33.5975218,-102.3340101
302,Butch Street,79336,33.5974760,-102.3336967
112,Butch Street,79336,33.5974772,-102.3311703
110,Butch Street,79336,33.5974811,-102.3309557
108,Butch Street,79336,33.5974923,-102.3307585
106,Butch Street,79336,33.5974754,-102.3305501
104,Butch Street,79336,33.5974780,-102.3303456
102,Butch Street,79336,33.5974768,-102.3301389
103,Butch Street,79336,33.5979279,-102.3303398
101,Butch Street,79336,33.5979153,-102.3301122
105,Butch Street,79336,33.5979237,-102.3305464
107,Butch Street,79336,33.5979270,-102.3307485
109,Butch Street,79336,33.5979533,-102.3309546
111,Butch Street,79336,33.5979418,-102.3311581
223,Butch Street,79336,33.5979729,-102.3339718
221,Butch Street,79336,33.5979565,-102.3337542
219,Butch Street,79336,33.5979456,-102.3335397
217,Butch Street,79336,33.5979467,-102.3333310
215,Butch Street,79336,33.5979527,-102.3331128
213,Butch Street,79336,33.5979404,-102.3328988
211,Butch Street,79336,33.5979381,-102.3326848
209,Butch Street,79336,33.5979399,-102.3324705
207,Butch Street,79336,33.5979501,-102.3322679
205,Butch Street,79336,33.5979307,-102.3320524
203,Butch Street,79336,33.5979498,-102.3318343
201,Butch Street,79336,33.5979265,-102.3316147
136,Eagle Avenue,79336,33.5971140,-102.3337637
134,Eagle Avenue,79336,33.5969448,-102.3337863
132,Eagle Avenue,79336,33.5967618,-102.3338033
130,Eagle Avenue,79336,33.5965908,-102.3337841
128,Eagle Avenue,79336,33.5963994,-102.3337833
126,Eagle Avenue,79336,33.5962191,-102.3337979
124,Eagle Avenue,79336,33.5960294,-102.3338001
122,Eagle Avenue,79336,33.5958396,-102.3338291
120,Eagle Avenue,79336,33.5956402,-102.3338053
118,Eagle Avenue,79336,33.5954524,-102.3338260
116,Eagle Avenue,79336,33.5952719,-102.3338176
114,Eagle Avenue,79336,33.5950755,-102.3338209
112,Eagle Avenue,79336,33.5948787,-102.3338152
110,Eagle Avenue,79336,33.5946862,-102.3338373
108,Eagle Avenue,79336,33.5944977,-102.3338415
106,Eagle Avenue,79336,33.5943032,-102.3338323
104,Eagle Avenue,79336,33.5941086,-102.3338326
102,Eagle Avenue,79336,33.5939128,-102.3338600
111,Pat Street,79336,33.5987593,-102.3311391
109,Pat Street,79336,33.5987534,-102.3309342
107,Pat Street,79336,33.5987871,-102.3307455
105,Pat Street,79336,33.5987600,-102.3305376
103,Pat Street,79336,33.5987649,-102.3303286
101,Pat Street,79336,33.5987459,-102.3301226
110,Pat Street,79336,33.5983146,-102.3309431
112,Pat Street,79336,33.5983224,-102.3311453
108,Pat Street,79336,33.5983160,-102.3307435
106,Pat Street,79336,33.5983140,-102.3305372
104,Pat Street,79336,33.5983079,-102.3303330
102,Pat Street,79336,33.5982611,-102.3301302
223,Pat Street,79336,33.5987847,-102.3339556
221,Pat Street,79336,33.5987975,-102.3337406
219,Pat Street,79336,33.5987833,-102.3335280
217,Pat Street,79336,33.5988117,-102.3333132
215,Pat Street,79336,33.5987757,-102.3331001
213,Pat Street,79336,33.5987998,-102.3328870
211,Pat Street,79336,33.5987719,-102.3326711
209,Pat Street,79336,33.5987729,-102.3324665
207,Pat Street,79336,33.5987766,-102.3322454
205,Pat Street,79336,33.5987745,-102.3320342
203,Pat Street,79336,33.5987905,-102.3317919
201,Pat Street,79336,33.5987689,-102.3315721
202,Pat Street,79336,33.5983170,-102.3316145
204,Pat Street,79336,33.5983278,-102.3318205
206,Pat Street,79336,33.5983202,-102.3320411
208,Pat Street,79336,33.5983344,-102.3322588
210,Pat Street,79336,33.5983434,-102.3324798
212,Pat Street,79336,33.5983500,-102.3326862
214,Pat Street,79336,33.5983471,-102.3328963
216,Pat Street,79336,33.5983577,-102.3331108
218,Pat Street,79336,33.5983544,-102.3333193
220,Pat Street,79336,33.5983222,-102.3335300
222,Pat Street,79336,33.5983596,-102.3337509
224,Pat Street,79336,33.5983687,-102.3339606
2201,East Highway 114,79336,33.5948493,-102.3302601
1400,Avenue J,79336,33.5783474,-102.3807791
1402,14th Street,79336,33.5786115,-102.3831727
1700,10th Street,79336,33.5815492,-102.3894574
1022,West Avenue,79336,33.5816848,-102.3874562
1002,West Avenue,79336,33.5831902,-102.3873216
1008,West Avenue,79336,33.5826123,-102.3873667
1010,West Avenue,79336,33.5824826,-102.3873291
1014,West Avenue,79336,33.5823027,-102.3876247
1018,West Avenue,79336,33.5820299,-102.3876187
1835,Avenue I,79336,33.5727890,-102.3827436
1826,Avenue I,79336,33.5720241,-102.3819045
1820,Avenue I,79336,33.5723334,-102.3815791
1802,Avenue I,79336,33.5731719,-102.3799437
1804,Avenue I,79336,33.5730674,-102.3801296
1806,Avenue I,79336,33.5729391,-102.3802703
1808,Avenue I,79336,33.5728648,-102.3804446
1810,Avenue I,79336,33.5728219,-102.3806318
1812,Avenue I,79336,33.5728013,-102.3807756
1814,Avenue I,79336,33.5726233,-102.3809193
1816,Avenue I,79336,33.5725711,-102.3811749
1811,Avenue I,79336,33.5730316,-102.3813710
1809,Avenue I,79336,33.5731486,-102.3811318
1807,Avenue I,79336,33.5732920,-102.3808950
1805,Avenue I,79336,33.5734039,-102.3807024
1803,Avenue I,79336,33.5735310,-102.3803730
500,Cactus Drive,79336,33.5859417,-102.3585390
1102,Austin Street,79336,33.5860266,-102.3806521
1108,Austin Street,79336,33.5860642,-102.3811860
1112,Austin Street,79336,33.5860602,-102.3814470
1111,Austin Street,79336,33.5866072,-102.3812292
1106,Houston Street,79336,33.5870321,-102.3809882
1104,Houston Street,79336,33.5870940,-102.3806928
1103,Houston Street,79336,33.5876629,-102.3807978
610,Avenue I,79336,33.5866061,-102.3795458
1011,Houston Street,79336,33.5876301,-102.3797476
115,1st Street,79336,33.5927649,-102.3689665
1812,Avenue I Place,79336,33.5734440,-102.3813827
1810,Avenue I Place,79336,33.5735533,-102.3810768
1835,Avenue I Place,79336,33.5726275,-102.3819727
1833,Avenue I Place,79336,33.5728585,-102.3819754
1831,Avenue I Place,79336,33.5730862,-102.3819184
1827,Avenue I Place,79336,33.5732923,-102.3818811
1825,Avenue I Place,79336,33.5735147,-102.3818978
1821,Avenue I Place,79336,33.5737124,-102.3819409
1819,Avenue I Place,79336,33.5738810,-102.3817686
1817,Avenue I Place,79336,33.5740058,-102.3815733
1815,Avenue I Place,79336,33.5739593,-102.3813145
1813,Avenue I Place,79336,33.5740027,-102.3810638
1811,Avenue I Place,79336,33.5739535,-102.3809191
1809,Avenue I Place,79336,33.5739447,-102.3807301
1807,Avenue I Place,79336,33.5739837,-102.3805423
1805,Avenue I Place,79336,33.5739405,-102.3803052
1803,Avenue I Place,79336,33.5739435,-102.3801456
1801,Avenue I Place,79336,33.5739547,-102.3799207
910,17th Street,79336,33.5758156,-102.3784763
1402,Houston Street,79336,33.5869851,-102.3844531
1302,Houston Street,79336,33.5869595,-102.3831435
1202,Houston Street,79336,33.5870011,-102.3820132
1212,Houston Street,79336,33.5870040,-102.3825442
1201,Austin Street,79336,33.5865072,-102.3819711
1205,Austin Street,79336,33.5864841,-102.3821877
1219,8th Street,79336,33.5855573,-102.3825043
702,Avenue K,79336,33.5860023,-102.3819905
1203,8th Street,79336,33.5854761,-102.3821332
704,Avenue K,79336,33.5858389,-102.3819926
1201,Avenue K,79336,33.5855853,-102.3819088
2009,Houston Street,79336,33.5873880,-102.4010854
2005,Houston Street,79336,33.5873745,-102.4004681
2001,Houston Street,79336,33.5873896,-102.3997250
1818,Wilson Street,79336,33.5883846,-102.3935613
114,Avenue T,79336,33.5886946,-102.3995960
112,Avenue T,79336,33.5885066,-102.3996067
110,Avenue T,79336,33.5883279,-102.3995971
106,Avenue T,79336,33.5881492,-102.3996303
104,Avenue T,79336,33.5879755,-102.3995964
102,Avenue T,79336,33.5877824,-102.3996042
1718,Avenue I,79336,33.5745097,-102.3793857
1716,Avenue I,79336,33.5746963,-102.3794205
1714,Avenue I,79336,33.5748460,-102.3793938
1712,Avenue I,79336,33.5749925,-102.3793974
1708,Avenue I,79336,33.5751809,-102.3793309
1706,Avenue I,79336,33.5754776,-102.3793383
1702,Avenue I,79336,33.5757681,-102.3794140
1731,Avenue I,79336,33.5733847,-102.3796342
1729,Avenue I,79336,33.5735146,-102.3794333
1705,Avenue I,79336,33.5756647,-102.3786791
1707,Avenue I,79336,33.5754395,-102.3787426
1709,Avenue I,79336,33.5752027,-102.3787399
1711,Avenue I,79336,33.5749864,-102.3786277
1713,Avenue I,79336,33.5748528,-102.3787586
1715,Avenue I,79336,33.5746933,-102.3787477
1717,Avenue I,79336,33.5745041,-102.3787525
1719,Avenue I,79336,33.5742860,-102.3787932
1721,Avenue I,79336,33.5741173,-102.3788070
1723,Avenue I,79336,33.5739286,-102.3789346
1725,Avenue I,79336,33.5737592,-102.3790889
1727,Avenue I,79336,33.5736035,-102.3792155
304,10th Street,79336,33.5828827,-102.3706443
306,10th Street,79336,33.5829203,-102.3709401
308,10th Street,79336,33.5829266,-102.3712036
310,10th Street,79336,33.5829162,-102.3714362
311,11th Street,79336,33.5823608,-102.3714821
309,11th Street,79336,33.5823335,-102.3713071
307,11th Street,79336,33.5823794,-102.3711355
303,11th Street,79336,33.5823836,-102.3709727
301,11th Street,79336,33.5824103,-102.3707253
302,11th Street,79336,33.5818253,-102.3707419
306,11th Street,79336,33.5818705,-102.3709638
308,11th Street,79336,33.5818849,-102.3711411
310,11th Street,79336,33.5818767,-102.3712954
312,11th Street,79336,33.5818822,-102.3714561
1106,Avenue B,79336,33.5813992,-102.3707160
305,12th Street,79336,33.5813206,-102.3709868
311,12th Street,79336,33.5813404,-102.3714540
309,12th Street,79336,33.5813149,-102.3713014
307,12th Street,79336,33.5813328,-102.3711414
401,12th Street,79336,33.5813186,-102.3718722
403,12th Street,79336,33.5812913,-102.3720521
405,12th Street,79336,33.5812987,-102.3722034
407,12th Street,79336,33.5812886,-102.3723866
409,12th Street,79336,33.5812969,-102.3725541
411,12th Street,79336,33.5813104,-102.3726939
412,11th Street,79336,33.5817700,-102.3727238
410,11th Street,79336,33.5818595,-102.3725614
408,11th Street,79336,33.5818775,-102.3723846
406,11th Street,79336,33.5818086,-102.3721720
1102,Avenue C,79336,33.5818453,-102.3719029
412,10th Street,79336,33.5828623,-102.3726971
410,10th Street,79336,33.5828590,-102.3725633
408,10th Street,79336,33.5829229,-102.3724056
406,10th Street,79336,33.5829217,-102.3722389
404,10th Street,79336,33.5829238,-102.3720563
402,10th Street,79336,33.5828809,-102.3719050
411,11th Street,79336,33.5823861,-102.3727049
409,11th Street,79336,33.5823995,-102.3725452
407,11th Street,79336,33.5823445,-102.3723725
405,11th Street,79336,33.5823702,-102.3721563
401,11th Street,79336,33.5823830,-102.3719287
304,Cactus Drive,79336,33.5862685,-102.3618234
302,Cactus Drive,79336,33.5863112,-102.3625005
308,North Sherman Avenue,79336,33.5969609,-102.3636080
321,Maple Street,79336,33.5922328,-102.3605259
301,Maple Street,79336,33.5921921,-102.3625433
303,Maple Street,79336,33.5922498,-102.3623496
305,Maple Street,79336,33.5922203,-102.3621869
307,Maple Street,79336,33.5922566,-102.3619889
309,Maple Street,79336,33.5922646,-102.3618086
311,Maple Street,79336,33.5922353,-102.3617081
313,Maple Street,79336,33.5922630,-102.3614845
315,Maple Street,79336,33.5922208,-102.3613439
317,Maple Street,79336,33.5921948,-102.3611801
122,Pecan Street,79336,33.5887293,-102.3657658
114,Pecan Street,79336,33.5892069,-102.3659378
126,Pecan Street,79336,33.5892042,-102.3653284
124,Pecan Street,79336,33.5891458,-102.3656043
506,Denver Avenue,79336,33.5889676,-102.3653157
512,Denver Avenue,79336,33.5885296,-102.3653416
129,Cherry Street,79336,33.5880871,-102.3653020
127,Cherry Street,79336,33.5880606,-102.3655783
123,Cherry Street,79336,33.5882570,-102.3659263
125,Cherry Street,79336,33.5880919,-102.3657623
216,Cherry Street,79336,33.5876759,-102.3639091
109,Cactus Drive,79336,33.5869116,-102.3665477
226,Cherry Street,79336,33.5875529,-102.3633367
102,Avenue Q,79336,33.5927024,-102.3926645
1801,West State Highway 114,79336,33.5946027,-102.3914753
102,West Avenue,79336,33.5932070,-102.3881622
210,West Avenue,79336,33.5908473,-102.3874115
301,West Avenue,79336,33.5902333,-102.3867227
212,Avenue N,79336,33.5906304,-102.3857062
200,Parkwood Lane,79336,33.5629098,-102.3723588
1501,East State Highway 114,79336,33.5947809,-102.3453687
1303,4th Street,79336,33.5899347,-102.3832327
111,Avenue K,79336,33.5920266,-102.3810364
1210,Avenue H,79336,33.5798048,-102.3784092
901,12th Street,79336,33.5813428,-102.3783429
905,13th Street,79336,33.5797802,-102.3787352
1213,Avenue I,79336,33.5799651,-102.3789315
1211,Avenue I,79336,33.5801282,-102.3789379
1207,Avenue I,79336,33.5804495,-102.3789131
1209,Avenue I,79336,33.5802861,-102.3789282
1211,Avenue K,79336,33.5798206,-102.3813191
716,Avenue H,79336,33.5855946,-102.3783179
909,Avenue I,79336,33.5855504,-102.3788766
220,Avenue T,79336,33.5906167,-102.3995692
218,Avenue T,79336,33.5904398,-102.3995666
216,Avenue T,79336,33.5902646,-102.3995941
214,Avenue T,79336,33.5900880,-102.3995927
212,Avenue T,79336,33.5899103,-102.3995798
210,Avenue T,79336,33.5897315,-102.3995832
208,Avenue T,79336,33.5895558,-102.3995849
206,Avenue T,79336,33.5893803,-102.3995867
204,Avenue T,79336,33.5892097,-102.3995767
202,Avenue T,79336,33.5890358,-102.3995933
1915,Houston Street,79336,33.5873936,-102.3991488
1913,Houston Street,79336,33.5873915,-102.3988630
1903,Houston Street,79336,33.5873893,-102.3972320
1911,Houston Street,79336,33.5873594,-102.3985196
1909,Houston Street,79336,33.5873629,-102.3981385
1907,Houston Street,79336,33.5874088,-102.3978240
1905,Houston Street,79336,33.5873854,-102.3975746
608,Avenue T,79336,33.5932719,-102.4002818
306,Avenue A,79336,33.5900209,-102.3694132
308,Avenue A,79336,33.5898721,-102.3694373
310,Avenue A,79336,33.5896509,-102.3694143
304,Avenue A,79336,33.5901645,-102.3695224
302,Avenue A,79336,33.5902818,-102.3694024
202,3rd Street,79336,33.5902838,-102.3696145
108,West Jackson Street,79336,33.5985957,-102.3684721
106,West Jackson Street,79336,33.5984942,-102.3681912
104,West Jackson Street,79336,33.5985635,-102.3679731
102,West Jackson Street,79336,33.5985799,-102.3677562
103,West Jackson Street,79336,33.5990018,-102.3680405
105,West Jackson Street,79336,33.5989855,-102.3682399
107,West Jackson Street,79336,33.5990533,-102.3684634
101,West Jackson Street,79336,33.5990353,-102.3677996
507,West Adams Street,79336,33.5979494,-102.3735803
602,Rose Avenue,79336,33.5994527,-102.3726697
504,Rose Avenue,79336,33.5988488,-102.3726033
502,Rose Avenue,79336,33.5986033,-102.3726112
503,West Jackson Street,79336,33.5985605,-102.3729780
507,West Jackson Street,79336,33.5985387,-102.3734441
601,West Jackson Street,79336,33.5985676,-102.3739604
109,County Road,79336,33.5957659,-102.3295479
107,County Road,79336,33.5960479,-102.3291131
1408,East Ellis Street,79336,33.5991979,-102.3422075
406,Holly Street,79336,33.5810064,-102.3603095
414,Holly Street,79336,33.5810048,-102.3593943
408,East Adams Street,79336,33.5971842,-102.3617431
410,East Adams Street,79336,33.5971724,-102.3615418
412,East Adams Street,79336,33.5971817,-102.3613271
503,East State Highway 114,79336,33.5942590,-102.3594186
601,East State Highway 114,79336,33.5947241,-102.3572764
1303,East State Highway 114,79336,33.5946359,-102.3507621
109,Commerce Drive,79336,33.5896500,-102.3303519
812,College Avenue,79336,33.5845711,-102.3681082
103,Alamo Road,79336,33.5915754,-102.3474003
304,College Avenue,79336,33.5899182,-102.3686417
308,North College Avenue,79336,33.5980774,-102.3680514
2201,East State Highway 114,79336,33.5940090,-102.3312221
