House number,Street name,Postal code,Latitude,Longitude
609,Industrial Boulevard,76654,30.5822120,-98.2892435
2600,Highway 281,78654,30.5978650,-98.2721849
318,Highway 281,78654,30.5723769,-98.2760835
909,2nd Street,78654,30.5713809,-98.2783204
2600,North US Highway 281,78654,30.5976565,-98.2722771
2510,North US Highway 281,78654,30.5972459,-98.2726137
2510,North US Highway 281,78654,30.5970428,-98.2727241
505,Boulder Creek Drive,78654,30.6033652,-98.2518654
107-A,Avenue N,78654,30.5729892,-98.2835525
404,Main Street,78654,30.5734602,-98.2767242
2510,North US Highway 281,78654,30.5968290,-98.2728053
2600,North US Highway 281,78654,30.5980774,-98.2720794
2400,Highway 281,78654,30.5951274,-98.2722115
2400,Highway 281,78654,30.5950172,-98.2722847
2312,Highway 281,78654,30.5943789,-98.2726139
2312,Highway 281,78654,30.5941732,-98.2724539
507,West Ranch Road 2147,78654,30.5609782,-98.2784921
507,West Ranch Road 2147,78654,30.5611096,-98.2783193
1503,RM 1431,78654,30.5821427,-98.2802637
2501,North US Highway 281,78654,30.5959811,-98.2704172
2508,North US Highway 281,78654,30.5962079,-98.2715990
2508,North US Highway 281,78654,30.5966336,-98.2713801
2508,North US Highway 281,78654,30.5963042,-98.2715706
2508,North US Highway 281,78654,30.5964059,-98.2715391
2508,North US Highway 281,78654,30.5964986,-98.2714836
2508,North US Highway 281,78654,30.5965662,-98.2714436
3053,US-281,78654,30.5242964,-98.2862284
101,Highway 281,78654,30.5689669,-98.2753437
809A,12th Street,78654,30.5804916,-98.2715102
206,Avenue H,78654,30.5708750,-98.2767801
705,North US Highway 281,78654,30.5754082,-98.2727507
2700,North US Highway 281,78654,30.5995814,-98.2718687
2605,North US Highway 281,78654,30.5969301,-98.2698591
2406,Highway 281,78654,30.5953479,-98.2720145
2206,Highway 281,78654,30.5934612,-98.2736929
2119,North US Highway 281,78654,30.5919858,-98.2722567
2121,North US Highway 281,78654,30.5922595,-98.2722737
2201,North US Highway 281,78654,30.5924357,-98.2721305
2301,Highway 281,78654,30.5929107,-98.2712490
2004,Commerce Street,78654,30.5921673,-98.2713183
1507,North US Highway 281,78654,30.5847459,-98.2725554
1403,North US Highway 281,78654,30.5833858,-98.2722269
1309,Mormon Mill Road,78654,30.5819789,-98.2719240
1301,Highway 281,78654,30.5823593,-98.2725430
1605,West Ranch Road 1431,78654,30.5828618,-98.2809039
230,S. Avenue J,78654,30.5687042,-98.2831157
305,Buena Vista Drive,78654,30.5672680,-98.2793975
1511,Pony Drive,78654,30.5845747,-98.2781115
1211,Highway 281,78654,30.5813864,-98.2723809
1501,RM 1431,78654,30.5816750,-98.2784618
507,West Ranch Road 1431,78654,30.5769580,-98.2691654
1700,Broadway Street,78654,30.5816066,-98.2832586
3301,North US Highway 281,78654,30.6043389,-98.2657404
1311,Mormon Mill Road,78654,30.5823866,-98.2715323
500,North US Highway 281,78654,30.5736904,-98.2752404
1008,Falls Parkway,78654,30.5872819,-98.2703957
1009,Veterans Drive,78654,30.5858583,-98.2845875
1204,Highway 281,78654,30.5809438,-98.2734158
700,Avenue N,76654,30.5787311,-98.2806203
810,West State Highway 71,78654,30.5130103,-98.3041003
1600,Mustang Drive,78654,30.5783294,-98.2564218
1700,Mustang Drive,78654,30.5799395,-98.2551863
200,West Ranch Road 1431,78654,30.5749863,-98.2654055
1101,6th Street,78654,30.5764768,-98.2776052
200,Old River Road,78654,30.5646856,-98.2758878
1106,Brazos Street,78654,30.5656623,-98.2867428
201,West Ranch Road 1431,78654,30.5758339,-98.2655908
105,West Ranch Road 1431,78654,30.5764777,-98.2645121
1804,Lacy Drive,78654,30.5853732,-98.2816445
311,North US Highway 281,78654,30.5715917,-98.2755825
810,Steve Hawkins Parkway,78654,30.5564323,-98.2734182
714,Corazon Drive,78654,30.5570392,-98.2750857
901,La Ventana Drive,78654,30.5572346,-98.2768726
302,Gateway North,78654,30.5625855,-98.2747017
301,Gateway North,78654,30.5634404,-98.2742638
4011,South US Highway 281,78654,30.5146193,-98.2911529
4015,South US Highway 281,78654,30.5131755,-98.2916592
704,1st Street,78654,30.5682622,-98.2771377
100,Avenue G,78654,30.5698664,-98.2759691
213,North US Highway 281,78654,30.5709953,-98.2759551
211,North US Highway 281,78654,30.5707772,-98.2759893
706,3rd Street,78654,30.5709034,-98.2757032
708,1st Street,78654,30.5691302,-98.2773330
702,1st Street,78654,30.5680981,-98.2766309
700,1st Street,78654,30.5680013,-98.2762604
1503,West Ranch Road 1431,78654,30.5827419,-98.2799140
1400,9th Street,78654,30.5801688,-98.2800858
2612,North US Highway 281,78654,30.6000872,-98.2696351
2903,North US Highway 281,78654,30.6011104,-98.2679444
3200,North US Highway 281,78654,30.6045843,-98.2690416
3300,North US Highway 281,78654,30.6055385,-98.2678996
3501,North US Highway 281,78654,30.6091100,-98.2664690
1601,Ollie Lane,78654,30.6101599,-98.2668153
1400,Ollie Lane,78654,30.6100966,-98.2652548
2514,North US Highway 281,78654,30.5970197,-98.2710996
1004,Pecan Circle,78654,30.5546760,-98.2908398
1002,Pecan Circle,78654,30.5546254,-98.2906009
920,Pecan Circle,78654,30.5546888,-98.2903573
1005,Pecan Circle,78654,30.5554808,-98.2907574
900,Pecan Circle,78654,30.5551788,-98.2891785
909,Pecan Circle,78654,30.5554491,-98.2902489
901,Pecan Circle,78654,30.5564758,-98.2873879
1106,Pecan Drive,78654,30.5548732,-98.2924281
1104,Pecan Drive,78654,30.5548056,-98.2922483
1100,Pecan Drive,78654,30.5544713,-98.2917777
1105,Pecan Drive,78654,30.5552894,-98.2922885
1108,Pecan Drive,78654,30.5548620,-98.2926533
1110,Pecan Drive,78654,30.5548055,-98.2928684
1112,Pecan Drive,78654,30.5549105,-98.2930202
1114,Pecan Drive,78654,30.5548266,-98.2932649
1116,Pecan Drive,78654,30.5549082,-98.2935891
1120,Pecan Drive,78654,30.5550522,-98.2937960
1122,Pecan Drive,78654,30.5550521,-98.2939935
1107,Pecan Drive,78654,30.5553536,-98.2926233
1109,Pecan Drive,78654,30.5553474,-98.2929543
1111,Pecan Drive,78654,30.5554262,-98.2932266
1216,Pecan Drive,78654,30.5554158,-98.2956425
1200,Pecan Drive,78654,30.5550608,-98.2941940
1214,Pecan Drive,78654,30.5553593,-98.2954012
1210,Pecan Drive,78654,30.5553147,-98.2952323
1202,Pecan Drive,78654,30.5551539,-98.2944568
1206,Pecan Drive,78654,30.5552428,-98.2947111
1208,Pecan Drive,78654,30.5552585,-98.2949325
1209,Pecan Drive,78654,30.5558274,-98.2952691
1207,Pecan Drive,78654,30.5557672,-98.2949746
1205,Pecan Drive,78654,30.5556692,-98.2946873
1203,Pecan Drive,78654,30.5556480,-98.2943327
1201,Pecan Drive,78654,30.5555659,-98.2939767
1303,Pecan Valley Drive,78654,30.5578472,-98.2893392
1305,Pecan Valley Drive,78654,30.5574210,-98.2868270
1510,Resource Parkway,78654,30.6166762,-98.2636188
1406,Resource Parkway,78654,30.6128996,-98.2609767
1405,Resource Parkway,78654,30.6137788,-98.2608447
1403,Resource Parkway,78654,30.6130020,-98.2593973
4601,East Innovation Loop,78654,30.6154338,-98.2577543
4606,East Innovation Loop,78654,30.6132451,-98.2574044
4301,West Innovation Loop,78654,30.6144780,-98.2602776
4303,West Innovation Loop,78654,30.6152906,-98.2595150
4401,West Innovation Loop,78654,30.6163373,-98.2591159
4302,North US Highway 281,78654,30.6181598,-98.2676594
4000,North US Highway 281,78654,30.6131006,-98.2684573
3990,North US Highway 281,78654,30.6124221,-98.2685097
4001,North US Highway 281,78654,30.6115518,-98.2666806
1600,Ollie Lane,78654,30.6109459,-98.2669865
1500,Ollie Lane,78654,30.6105528,-98.2661742
3415,North US Highway 281,78654,30.6085811,-98.2667326
1408,Coach Road,78654,30.6056939,-98.2654228
3407,North US Highway 281,78654,30.6069959,-98.2663563
3409,North US Highway 281,78654,30.6074190,-98.2665295
3410,North US Highway 281,78654,30.6077518,-98.2665412
2901,North US Highway 281,78654,30.6005758,-98.2678016
3015,North US Highway 281,78654,30.6017517,-98.2674491
2955,North US Highway 281,78654,30.6011707,-98.2668626
2807,North US Highway 281,78654,30.6002778,-98.2681639
2803,North US Highway 281,78654,30.5998239,-98.2685968
2713,North US Highway 281,78654,30.5992952,-98.2688564
2710,Commerce Street,78654,30.5984860,-98.2682083
2706,Commerce Street,78654,30.5983202,-98.2682749
2704,Commerce Street,78654,30.5981344,-98.2684663
2410,Highway 281,78654,30.5958087,-98.2716841
2408,Highway 281,78654,30.5955079,-98.2718193
2401,Highway 281,78654,30.5945206,-98.2709679
2501,Highway 281,78654,30.5952641,-98.2703040
1705,Colt Circle,78654,30.5950168,-98.2725765
1707,Colt Circle,78654,30.5959548,-98.2734909
1800,Indian Trail,78654,30.5940737,-98.2767580
1800,Colt Circle,78654,30.5944044,-98.2748241
2202,Highway 281,78654,30.5928335,-98.2731026
2200,Highway 281,78654,30.5926804,-98.2731409
2212,Highway 281,78654,30.5933230,-98.2728901
2304,Highway 281,78654,30.5939824,-98.2725208
2105,North US Highway 281,78654,30.5916652,-98.2722534
2009,North US Highway 281,78654,30.5910297,-98.2725525
2003,North US Highway 281,78654,30.5906696,-98.2725181
2001,North US Highway 281,78654,30.5904958,-98.2726526
1710,North US Highway 281,78654,30.5886626,-98.2740128
1803,North US Highway 281,78654,30.5883626,-98.2729874
1300,Lantana Drive,78654,30.5881811,-98.2739031
1405,North US Highway 281,78654,30.5838259,-98.2726474
1212,North US Highway 281,78654,30.5821606,-98.2737528
1309,North US Highway 281,78654,30.5828998,-98.2726340
1400,Mormon Mill Road,78654,30.5829511,-98.2722814
1307,Mormon Mill Road,78654,30.5812300,-98.2695224
1102,Avenue K,78654,30.5809176,-98.2749950
1206,North US Highway 281,78654,30.5812665,-98.2737601
1125,North US Highway 281,78654,30.5802481,-98.2724320
1101,North US Highway 281,78654,30.5796439,-98.2725506
1104,Avenue J,78654,30.5804426,-98.2738072
1000,North US Highway 281,78654,30.5789330,-98.2733330
915,West Ranch Road 1431,78654,30.5792360,-98.2737803
1008,North US Highway 281,78654,30.5794976,-98.2734847
911,North US Highway 281,78654,30.5777886,-98.2725911
904,North US Highway 281,78654,30.5775878,-98.2733834
909,North US Highway 281,78654,30.5775400,-98.2726749
101,Main Street,78654,30.5701050,-98.2780545
96,Main Street,78654,30.5700077,-98.2790635
103,Highway 281,78654,30.5693762,-98.2756538
112,North US Highway 281,78654,30.5694351,-98.2764964
800,3rd Street,78654,30.5713542,-98.2766365
401,North US Highway 281,78654,30.5724382,-98.2750455
418,North US Highway 281,78654,30.5729207,-98.2756853
407,North US Highway 281,78654,30.5727332,-98.2749972
2510,Circle Drive,78654,30.5686556,-98.2742623
2502,Circle Drive,78654,30.5685168,-98.2748870
501,Circle Drive,78654,30.5690748,-98.2727029
502,Circle Drive,78654,30.5694883,-98.2731401
502,Circle Drive,78654,30.5692806,-98.2732694
2514,Circle Drive,78654,30.5686648,-98.2737116
2516,Circle Drive,78654,30.5687765,-98.2734869
2518,Circle Drive,78654,30.5688622,-98.2732498
2503,Circle Drive,78654,30.5690131,-98.2747064
2507,Circle Drive,78654,30.5691099,-98.2740455
2505,Circle Drive,78654,30.5690890,-98.2743875
602,3rd Street,78654,30.5701839,-98.2746101
603,2nd Street,78654,30.5699173,-98.2747767
601,2nd Street,78654,30.5698079,-98.2745782
600,3rd Street,78654,30.5700882,-98.2744055
400,3rd Street,78654,30.5691750,-98.2720525
207,Avenue G,78654,30.5704122,-98.2749696
119,Avenue G,78654,30.5695837,-98.2755176
101,Highway 281,78654,30.5689610,-98.2752885
300,Avenue J,78654,30.5729969,-98.2786143
1006,3rd Street,78654,30.5726376,-98.2792467
2101,Mustang Drive,78654,30.5852191,-98.2516788
2200,Manzano Mile,78654,30.5975186,-98.2419426
501,West Ranch Road 2147,78654,30.5610251,-98.2767795
700,Gateway Parkway,78654,30.5584751,-98.2727454
809,Steve Hawkins Parkway,78654,30.5563785,-98.2721351
806,Steve Hawkins Parkway,78654,30.5576378,-98.2738462
802,Steve Hawkins Parkway,78654,30.5581562,-98.2742880
608,Gateway Central,78654,30.5586577,-98.2744264
1406,South US Highway 281,78654,30.5468956,-98.2771044
849,South US Highway 281,78654,30.5509235,-98.2705001
634,West Ranch Road 2147,78654,30.5591032,-98.2817824
628,Waterside Drive,78654,30.5596332,-98.2814383
630,Waterside Drive,78654,30.5595372,-98.2815206
600,Waterside Drive,78654,30.5607597,-98.2803639
624,Waterside Drive,78654,30.5599311,-98.2810815
620,Waterside Drive,78654,30.5601200,-98.2809208
800,Esperanza Avenue,78654,30.5601006,-98.2787378
810,Alegria,78654,30.5589793,-98.2785648
812,Alegria,78654,30.5586767,-98.2786152
814,Alegria,78654,30.5583733,-98.2787981
906,La Ventana Drive,78654,30.5583697,-98.2779536
908,La Ventana Drive,78654,30.5582370,-98.2781674
912,La Ventana Drive,78654,30.5579775,-98.2784426
914,La Ventana Drive,78654,30.5577211,-98.2785834
1002,La Ventana Drive,78654,30.5568078,-98.2786452
1004,La Ventana Drive,78654,30.5564546,-98.2786825
514,Bendito Way,78654,30.5570975,-98.2812303
512,Bendito Way,78654,30.5570564,-98.2810906
502,Bendito Way,78654,30.5568651,-98.2804326
511,Pantera Circle,78654,30.5559622,-98.2824515
400,Bendito Way,78654,30.5557384,-98.2783681
402,Bendito Way,78654,30.5556961,-98.2785846
404,Bendito Way,78654,30.5557107,-98.2787885
409,Cielo Circle,78654,30.5554244,-98.2792660
413,Cielo Circle,78654,30.5552806,-98.2796496
415,Cielo Circle,78654,30.5552120,-98.2798179
417,Cielo Circle,78654,30.5552231,-98.2801063
406,Cielo Circle,78654,30.5558901,-98.2790571
410,Cielo Circle,78654,30.5560025,-98.2795172
408,Cielo Circle,78654,30.5559322,-98.2792902
412,Cielo Circle,78654,30.5560515,-98.2797473
416,Cielo Circle,78654,30.5560975,-98.2803239
418,Cielo Circle,78654,30.5558316,-98.2803621
414,Cielo Circle,78654,30.5561429,-98.2799939
420,Cielo Circle,78654,30.5555989,-98.2803832
419,Cielo Circle,78654,30.5553983,-98.2802770
92,Gateway North,78654,30.5613400,-98.2708325
300,Gateway Parkway,78654,30.5634181,-98.2722056
99,Gateway North,78654,30.5628016,-98.2715826
1617,2nd Street,78654,30.5731537,-98.2876423
1803,West Ranch Road 1431,78654,30.5836318,-98.2824753
1700,RM 1431,78654,30.5823817,-98.2820736
801,Highway 281,78654,30.5766362,-98.2728951
755,Rocky Road,78654,30.5532508,-98.2852815
1701,North US Highway 281,78654,30.5871983,-98.2726928
1901,South US Highway 281,78654,30.5411557,-98.2771855
711,Broadway Street,78654,30.5763784,-98.2722093
2702,Mormon Mill Road,78654,30.5937460,-98.2613540
1406,North US Highway 281,78654,30.5835375,-98.2736345
1408,North US Highway 281,78654,30.5838847,-98.2735807
1621,Mormon Mill Road,78654,30.5853968,-98.2707753
1001,Marble Heights Drive,78654,30.5858599,-98.2707304
1000,Marble Heights Drive,78654,30.5864971,-98.2701722
1800,North US Highway 281,78654,30.5890396,-98.2739371
1805,North US Highway 281,78654,30.5891562,-98.2730050
2512,North US Highway 281,78654,30.5968063,-98.2712739
808,North US Highway 281,78654,30.5764731,-98.2736400
1205,North US Highway 281,78654,30.5808143,-98.2726255
2701,Commerce Street,78654,30.5976052,-98.2679849
2701,North US Highway 281,78654,30.5978461,-98.2693783
1001,North US Highway 281,78654,30.5785545,-98.2725798
1005,Main Street,78654,30.5788062,-98.2725403
1301,Max Copeland Drive,78654,30.5825709,-98.2694700
1407,Mormon Mill Road,78654,30.5833584,-98.2710540
300,North US Highway 281,78654,30.5716493,-98.2763676
309,Main Street,78654,30.5723267,-98.2765558
503,North US Highway 281,78654,30.5732932,-98.2744158
909,Avenue D,78654,30.5747677,-98.2676948
200,Via Viejo,78654,30.5740135,-98.2663597
101,Ladera Cove,78654,30.5738947,-98.2646549
103,Ladera Cove,78654,30.5741105,-98.2644505
1239,East Ranch Road 1431,78654,30.5726313,-98.2510640
1607,Mormon Mill Road,78654,30.5850710,-98.2700813
3053,South US Highway 281,78654,30.5231126,-98.2858483
1100,6th Street,78654,30.5755046,-98.2789478
901,Avenue U,78654,30.5833492,-98.2861772
801,4th Street,78654,30.5728912,-98.2763152
2001,Broadway Street,78654,30.5830060,-98.2862347
601,Gateway Central,78654,30.5605326,-98.2745360
605,Gateway Central,78654,30.5603577,-98.2736961
1100,South Yett Street,78654,30.5698642,-98.2823491
900,South Yett Street,78654,30.5691160,-98.2796292
501,Panther Hollow Drive,78654,30.5527525,-98.2793324
