House number,Street name,Postal code,Latitude,Longitude
2600,Highway 281 South,76067,32.7871876,-98.1145838
101,North FM 1821,76067,32.8116971,-98.0836482
911,East Hubbard Street,76067,32.8094725,-98.1057582
3400,US-281,76067,32.8336658,-98.1080819
2801,East US 180,76067,32.8098155,-98.0902915
2801,East US 180,76067,32.8098923,-98.0898396
2801,East US 180,76067,32.8100308,-98.0898380
2801,East US 180,76067,32.8103249,-98.0892965
937,North FM 1821,76067,32.8160320,-98.0846192
601,FM 1821,76067,32.8140709,-98.0856365
937,FM 1821,76067,32.8160560,-98.0843296
401,North Oak Avenue,76067,32.8117005,-98.1131248
401,North Oak Avenue,76067,32.8116878,-98.1133595
401,North Oak Avenue,76067,32.8119575,-98.1131886
1702,Southeast 22nd Avenue,76067,32.7959085,-98.0913340
2007,Southeast 19th Street,76067,32.7952906,-98.0935909
2008,Southeast 18th Street,76067,32.7957427,-98.0937897
1302,Southeast 24th Avenue,76067,32.8000813,-98.0898151
2001,Southeast 14th Avenue,76067,32.7943285,-98.1000948
1617,Southeast 21st Street,76067,32.7931591,-98.0978018
1916,Southeast 15th Avenue,76067,32.7941807,-98.0993505
2108,Southeast 15th Avenue,76067,32.7933133,-98.0993846
505,Southeast 25th Avenue,76067,32.8065731,-98.0876082
1502,Southeast 19th Avenue,76067,32.7976069,-98.0945505
1504,Southeast 19th Avenue,76067,32.7974728,-98.0945628
1709,Southeast 10th Street,76067,32.8023796,-98.0967744
2814,Villa Lane,76067,32.8114869,-98.0890706
2812,Villa Lane,76067,32.8114172,-98.0893752
2811,Villa Lane,76067,32.8112080,-98.0897864
2813,Villa Lane,76067,32.8110308,-98.0894049
802,Long Drive,76067,32.8149861,-98.0908282
2811,Villa Lane,76067,32.8111287,-98.0897840
2815,Villa Lane,76067,32.8110326,-98.0892235
403,Brazos Drive,76067,32.8118379,-98.0889881
2814,Villa Lane,76067,32.8114378,-98.0891881
2815,Villa Lane,76067,32.8110063,-98.0891343
2813,Villa Lane,76067,32.8110289,-98.0895417
2812,Villa Lane,76067,32.8114073,-98.0894830
403,Brazos Drive,76067,32.8117272,-98.0890332
312,Beetham Road,76067,32.8120135,-98.0893613
468,Fairway Drive,76067,32.8242479,-98.0662339
440,Country Club Parkway,76067,32.8249216,-98.0639543
406,Country Club Parkway,76067,32.8247277,-98.0659160
412,Country Club Parkway,76067,32.8245588,-98.0654395
470,Fairway Drive,76067,32.8243166,-98.0663114
424,Country Club Parkway,76067,32.8250395,-98.0648086
410,Country Club Parkway,76067,32.8246066,-98.0656588
408,Country Club Parkway,76067,32.8246729,-98.0656885
418,Country Club Parkway,76067,32.8248197,-98.0652691
442,Country Club Parkway,76067,32.8249014,-98.0638774
420,Country Club Parkway,76067,32.8250019,-98.0651618
414,Country Club Parkway,76067,32.8245861,-98.0653741
444,Country Club Parkway,76067,32.8248118,-98.0636271
416,Country Club Parkway,76067,32.8247556,-98.0652431
434,Country Club Parkway,76067,32.8246981,-98.0643508
436,Country Club Parkway,76067,32.8247885,-98.0641675
5000,Laurie Drive,76067,32.8272997,-98.0665987
438,Country Club Parkway,76067,32.8248558,-98.0641490
446,Country Club Parkway,76067,32.8247846,-98.0635484
430,Country Club Parkway,76067,32.8248466,-98.0645841
426,Country Club Parkway,76067,32.8250401,-98.0647276
422,Country Club Parkway,76067,32.8250090,-98.0650786
400,Country Club Parkway,76067,32.8244795,-98.0663019
404,Country Club Parkway,76067,32.8246907,-98.0660117
402,Country Club Parkway,76067,32.8245630,-98.0662170
432,Country Club Parkway,76067,32.8247119,-98.0644374
428,Country Club Parkway,76067,32.8249260,-98.0645640
916,Southeast 19th Street,76067,32.7941198,-98.1057445
1206,Southeast 17th Street,76067,32.7958686,-98.1030322
1405,Veterans of Foreign Wars Street,76067,32.7915711,-98.1007462
1010,Southeast 16th Street,76067,32.7961978,-98.1049368
1403,Veterans of Foreign Wars Street,76067,32.7915637,-98.1011116
1405,Southeast 20th Street,76067,32.7937940,-98.1008010
1403,Southeast 20th Street,76067,32.7937960,-98.1009983
1403,Veterans of Foreign Wars Street,76067,32.7915643,-98.1010193
1405,Veterans of Foreign Wars Street,76067,32.7915685,-98.1008558
400,North Oak Avenue,76067,32.8116922,-98.1127142
404,North Oak Avenue,76067,32.8118476,-98.1127154
305,Northwest 7th Avenue,76067,32.8114828,-98.1202082
901,Northwest 10th Street,76067,32.8166787,-98.1217821
901,Northwest 7th Avenue,76067,32.8154923,-98.1202231
905,Northwest 5th Avenue,76067,32.8155827,-98.1177001
300,Northwest 10th Street,76067,32.8169669,-98.1147802
807,Northwest 5th Avenue,76067,32.8149688,-98.1177041
1213,Northwest 3rd Avenue,76067,32.8180275,-98.1155874
406,Northwest 8th Street,76067,32.8154840,-98.1158926
300,Northwest 10th Street,76067,32.8169671,-98.1148710
809,Northwest 5th Avenue,76067,32.8150177,-98.1177040
907,Northwest 5th Avenue,76067,32.8156468,-98.1176997
1200,Northwest 3rd Avenue,76067,32.8175686,-98.1152046
815,Northwest 5th Avenue,76067,32.8151627,-98.1177035
300,Northwest 10th Street,76067,32.8169669,-98.1147375
401,Northwest 9th Street,76067,32.8158705,-98.1155971
507,Northwest 14th Street,76067,32.8193236,-98.1170421
811,Northwest 5th Avenue,76067,32.8151066,-98.1177037
517,Northwest 8th Street,76067,32.8151102,-98.1173745
300,Northwest 10th Street,76067,32.8169670,-98.1148199
901,Northwest 5th Avenue,76067,32.8154427,-98.1177010
1209,Northwest 3rd Avenue,76067,32.8178374,-98.1155891
1204,Northwest 3rd Avenue,76067,32.8176801,-98.1152069
1215,Northwest 3rd Avenue,76067,32.8181092,-98.1155867
1211,Northwest 3rd Avenue,76067,32.8179242,-98.1155883
515,Northwest 8th Street,76067,32.8151081,-98.1172425
1206,Northwest 3rd Avenue,76067,32.8177463,-98.1152083
903,Northwest 5th Avenue,76067,32.8155009,-98.1177006
1202,Northwest 3rd Avenue,76067,32.8176254,-98.1152058
509,Northwest 14th Street,76067,32.8193255,-98.1171195
408,Northwest 8th Street,76067,32.8154861,-98.1160260
300,Northwest 7th Street,76067,32.8154507,-98.1148805
104,Cluster Drive,76067,32.8222955,-98.1155552
2327,North Oak Avenue,76067,32.8252055,-98.1135279
310,Northwest 25th Street,76067,32.8271219,-98.1147694
406,Northwest 25th Street,76067,32.8271743,-98.1157313
414,Northwest 25th Street,76067,32.8271747,-98.1160197
1501,Northwest 3rd Avenue,76067,32.8196259,-98.1155491
1700,Northwest 3rd Avenue,76067,32.8209565,-98.1152504
105,Cluster Drive,76067,32.8222459,-98.1157513
1711,Northwest 3rd Avenue,76067,32.8212184,-98.1155425
2317,North Oak Avenue,76067,32.8249185,-98.1135403
402,Northwest 25th Street,76067,32.8271775,-98.1155970
1603,Northwest 3rd Avenue,76067,32.8203565,-98.1156004
1601,Northwest 3rd Avenue,76067,32.8202694,-98.1155532
202,Northwest 25th Street,76067,32.8271161,-98.1144126
1700,Northwest 3rd Avenue,76067,32.8210085,-98.1152406
404,Northwest 25th Street,76067,32.8271747,-98.1156460
2329,North Oak Avenue,76067,32.8252552,-98.1135285
1709,Northwest 3rd Avenue,76067,32.8211860,-98.1155455
1715,Northwest 3rd Avenue,76067,32.8213242,-98.1155392
1713,Northwest 3rd Avenue,76067,32.8212701,-98.1155394
2321,North Oak Avenue,76067,32.8250180,-98.1135416
1702,Northwest 3rd Avenue,76067,32.8211198,-98.1152483
307,Northwest 25th Street,76067,32.8267875,-98.1151371
1616,Northwest 4th Avenue,76067,32.8206843,-98.1159804
1702,Northwest 3rd Avenue,76067,32.8211749,-98.1152519
412,Northwest 25th Street,76067,32.8271711,-98.1159278
400,Northwest 25th Street,76067,32.8271794,-98.1155231
508,Northwest 25th Street,76067,32.8271579,-98.1170390
1712,Northwest 6th Avenue,76067,32.8207842,-98.1192500
2325,North Oak Avenue,76067,32.8251535,-98.1135272
305,Northwest 25th Street,76067,32.8267868,-98.1152258
408,Northwest 25th Street,76067,32.8271754,-98.1157886
410,Northwest 25th Street,76067,32.8271722,-98.1158767
2315,North Oak Avenue,76067,32.8248666,-98.1135396
2323,North Oak Avenue,76067,32.8251015,-98.1135264
507,Northwest 25th Street,76067,32.8267762,-98.1169766
202,Northwest 25th Street,76067,32.8273758,-98.1145120
2319,North Oak Avenue,76067,32.8249705,-98.1135409
704 B,San Jacinto Drive,76067,32.8099514,-98.1394617
704,Austin Drive,76067,32.8103257,-98.1404725
9,Fair Oaks Street,76067,32.8095601,-98.1451592
704 A,San Jacinto Drive,76067,32.8098905,-98.1394628
505,Mesquite Street,76067,32.8081914,-98.1419989
506,Austin Drive,76067,32.8086370,-98.1405309
301,North Oak Avenue,76067,32.8110616,-98.1130865
101,Northeast 1st Avenue,76067,32.8093232,-98.1121833
201,Northeast 2nd Street,76067,32.8110568,-98.1119387
169,Park Road 71,76067,32.8442366,-98.0309113
4801,East US 180,76067,32.8140002,-98.0622225
2503,East Hubbard Street,76067,32.8095275,-98.0926143
3801,Ram Boulevard,76067,32.8160900,-98.0777845
601,FM 1821 North,76067,32.8137865,-98.0861665
1001,Southeast M.L.K. Jr Street,76067,32.8051527,-98.1037980
1301,Southeast 14th Avenue,76067,32.7986521,-98.0991261
2012,Southeast 12th Street,76067,32.7987323,-98.0928942
400,Southwest 25th Avenue,76067,32.7994727,-98.1450373
1200,West Hubbard Street,76067,32.8093563,-98.1295019
822,Southeast 22nd Avenue,76067,32.8033668,-98.0920146
2300,Southeast M.L.K. Jr Street,76067,32.8033430,-98.0907271
2003,Southeast 9th Street,76067,32.8026087,-98.0934608
2005,Southeast 9th Street,76067,32.8026088,-98.0931606
2101,Southeast 9th Street,76067,32.8026053,-98.0929019
2103,Southeast 9th Street,76067,32.8026195,-98.0926092
2105,Southeast 9th Street,76067,32.8026095,-98.0923439
2201,Southeast 9th Street,76067,32.8026371,-98.0920500
2203,Southeast 9th Street,76067,32.8026324,-98.0917240
2001,Southeast 9th Street,76067,32.8025990,-98.0937464
1909,Southeast 9th Street,76067,32.8025993,-98.0940281
1907,Southeast 9th Street,76067,32.8026136,-98.0943075
1905,Southeast 9th Street,76067,32.8025856,-98.0946012
1903,Southeast 9th Street,76067,32.8025928,-98.0948678
1901,Southeast 9th Street,76067,32.8026040,-98.0951737
1807,Southeast 9th Street,76067,32.8026577,-98.0955113
1806,Southeast 9th Street,76067,32.8022157,-98.0955991
1900,Southeast 9th Street,76067,32.8021978,-98.0952696
1902,Southeast 9th Street,76067,32.8021910,-98.0949749
1906,Southeast 9th Street,76067,32.8022166,-98.0946763
1908,Southeast 9th Street,76067,32.8022136,-98.0944199
1910,Southeast 9th Street,76067,32.8022215,-98.0940961
2000,Southeast 9th Street,76067,32.8021889,-98.0938415
2002,Southeast 9th Street,76067,32.8022261,-98.0935004
2004,Southeast 9th Street,76067,32.8022152,-98.0932118
2100,Southeast 9th Street,76067,32.8022204,-98.0929223
2102,Southeast 9th Street,76067,32.8022318,-98.0926314
2104,Southeast 9th Street,76067,32.8022050,-98.0923375
2200,Southeast 9th Street,76067,32.8022126,-98.0920373
2202,Southeast 9th Street,76067,32.8022291,-98.0917616
1804,Southeast 9th Street,76067,32.8023430,-98.0958794
1708,Southeast M.L.K. Jr Street,76067,32.8034271,-98.0959586
1801,Southeast 9th Street,76067,32.8028669,-98.0959951
1709,Southeast 9th Street,76067,32.8029571,-98.0962172
1707,Southeast 9th Street,76067,32.8031085,-98.0964873
1705,Southeast 9th Street,76067,32.8032988,-98.0967502
1703,Southeast 9th Street,76067,32.8034270,-98.0970395
1701,Southeast 9th Street,76067,32.8035537,-98.0972733
3500,N Hwy 281,76067,32.8343858,-98.1069767
3501,Highway 180 West,76067,32.8032698,-98.1566510
2809,Highway 180 West,76067,32.8029503,-98.1492802
2805,Highway 180 West,76067,32.8032722,-98.1487787
316,Southwest 25th Avenue,76067,32.7999982,-98.1473292
2515,Highway 180 West,76067,32.8031357,-98.1452312
102,FM 1821 North,76067,32.8112969,-98.0821694
3607,Highway 180 East,76067,32.8112665,-98.0837145
201,FM 1821 North,76067,32.8122346,-98.0835451
108,FM 1821 North,76067,32.8117059,-98.0821701
3615,Highway 180 East,76067,32.8113781,-98.0832712
103,Garrett Morris Parkway,76067,32.8101967,-98.0822007
111,Garrett Morris Parkway,76067,32.8096463,-98.0823647
411,Southeast 25th Avenue,76067,32.8076340,-98.0876085
301,Southeast 25th Avenue,76067,32.8082931,-98.0870578
100,Southeast 25th Avenue,76067,32.8089907,-98.0882776
2008,East Hubbard Street,76067,32.8088286,-98.0934454
2102,East Hubbard Street,76067,32.8087519,-98.0928670
2104,East Hubbard Street,76067,32.8087926,-98.0925406
2601,Southeast 1st Street,76067,32.8088348,-98.0921275
2401,East Hubbard Street,76067,32.8096395,-98.0937325
1900,East Hubbard Street,76067,32.8087039,-98.0946154
100,Northeast 22nd Avenue,76067,32.8094315,-98.0946558
2203,East Hubbard Street,76067,32.8095596,-98.0953181
100,Southeast 17th Avenue,76067,32.8087193,-98.0979176
1501,Southeast 1st Street,76067,32.8088109,-98.0995746
1507,Southeast 1st Street,76067,32.8088144,-98.0992054
1501,East Hubbard Street,76067,32.8096519,-98.0991574
1703,East Hubbard Street,76067,32.8095139,-98.0975421
1715,East Hubbard Street,76067,32.8096120,-98.0969317
108,Pasadena Boulevard,76067,32.8106746,-98.0986278
201,Northeast 20th Avenue,76067,32.8103587,-98.0968919
102,Pasadena Boulevard,76067,32.8100715,-98.0990920
104,Pasadena Boulevard,76067,32.8103144,-98.0988937
106,Pasadena Boulevard,76067,32.8104705,-98.0986751
211,Pasadena Boulevard,76067,32.8106419,-98.0995429
207,Pasadena Boulevard,76067,32.8101911,-98.0996964
1601,South Oak Avenue,76067,32.7967062,-98.1124894
101,MH 379,76067,32.7896687,-98.1103474
2321,South Oak Avenue,76067,32.7911821,-98.1109558
2301,South Oak Avenue,76067,32.7916764,-98.1111355
101,Southeast 1st Avenue,76067,32.8088614,-98.1115523
301,Northeast 1st Street,76067,32.8102017,-98.1107703
511,East Hubbard Street,76067,32.8094510,-98.1088303
514,Northeast 1st Street,76067,32.8097600,-98.1088724
518,Northeast 1st Street,76067,32.8097701,-98.1086860
400,Southeast 25th Avenue,76067,32.8075584,-98.0884110
508,Southeast 25th Avenue,76067,32.8058938,-98.0882694
2514,East US 180,76067,32.8082875,-98.0883846
2502,East US 180,76067,32.8083062,-98.0888451
2801,Highway 180 East,76067,32.8101051,-98.0888507
200,Northeast 27th Avenue,76067,32.8100016,-98.0904580
3003,Highway 180 East,76067,32.8104966,-98.0867743
3103,Highway 180 East,76067,32.8106840,-98.0864131
3401,East US 180,76067,32.8106690,-98.0858794
603,FM 1821 North,76067,32.8139780,-98.0834636
607,North FM 1821,76067,32.8142636,-98.0833629
600,FM 1821 North,76067,32.8139646,-98.0823099
931,North FM 1821,76067,32.8154851,-98.0835063
700,Southeast 25th Avenue,76067,32.8045837,-98.0882894
1700,Southeast 9th Street,76067,32.8032009,-98.0974981
1702,Southeast 9th Street,76067,32.8031008,-98.0972929
1704,Southeast 9th Street,76067,32.8029809,-98.0970931
1706,Southeast 9th Street,76067,32.8028329,-98.0968331
1708,Southeast 9th Street,76067,32.8027125,-98.0966184
1802,Southeast 9th Street,76067,32.8024330,-98.0961157
1800,Southeast 9th Street,76067,32.8025641,-98.0963786
800,Southeast 25th Avenue,76067,32.8031742,-98.0884628
2501,Southeast 6th Street,76067,32.8042112,-98.0890826
807,Southeast 25th Avenue,76067,32.8030918,-98.0876003
2501,Garrett Morris Parkway,76067,32.7896446,-98.0768598
2201,Garrett Morris Parkway,76067,32.7926105,-98.0770469
1400,Garrett Morris Parkway,76067,32.7964863,-98.0796022
1300,Garrett Morris Parkway,76067,32.7981147,-98.0809893
1401,Southeast 25th Avenue,76067,32.7993517,-98.0870905
1201,Southeast 25th Avenue,76067,32.8006667,-98.0871839
1601,Southeast 25th Avenue,76067,32.7985366,-98.0861652
2906,Stan Terrace,76067,32.8038710,-98.0833137
2904,Stan Terrace,76067,32.8035909,-98.0833033
2902,Stan Terrace,76067,32.8034045,-98.0835547
2900,Stan Terrace,76067,32.8035575,-98.0839093
2208,Jacob Street,76067,32.7913067,-98.0837523
3101,MH 379,76067,32.7899071,-98.0818761
200,Southwest 1st Avenue,76067,32.8081183,-98.1141083
212,South Oak Avenue,76067,32.8079649,-98.1132661
212,South Oak Avenue,76067,32.8077968,-98.1132669
211,Southwest 1st Avenue,76067,32.8079053,-98.1135763
100,East Hubbard Street,76067,32.8089603,-98.1126215
103,South Oak Avenue,76067,32.8085838,-98.1126620
103,Southeast 1st Street,76067,32.8085900,-98.1125193
100,South Oak Avenue,76067,32.8090010,-98.1131870
110,South Oak Avenue,76067,32.8087486,-98.1132127
112,South Oak Avenue,76067,32.8086695,-98.1131956
301,South Oak Avenue,76067,32.8071663,-98.1126412
312,Southeast 1st Avenue,76067,32.8071889,-98.1122716
306,Southeast 1st Avenue,76067,32.8074475,-98.1122740
302,Southeast 1st Avenue,76067,32.8075969,-98.1122751
300,Southeast 1st Street,76067,32.8081637,-98.1109574
306,Southeast 1st Street,76067,32.8081744,-98.1105137
214,Southeast 1st Street,76067,32.8079927,-98.1113665
316,East Hubbard Street,76067,32.8087574,-98.1105926
4500,East US 180,76067,32.8091488,-98.0647108
105,Karl Kessler Boulevard,76067,32.8097068,-98.0669367
4410,East US 180,76067,32.8100792,-98.0666293
4316,East US 180,76067,32.8099952,-98.0682374
4011,East US 180,76067,32.8113225,-98.0734333
4103,East US 180,76067,32.8116647,-98.0721286
4101,East US 180,76067,32.8111746,-98.0728199
3915,East US 180,76067,32.8112327,-98.0739964
3901,East US 180,76067,32.8112420,-98.0746467
4006,Northeast 4th Street,76067,32.8122080,-98.0731941
4004,Northeast 4th Street,76067,32.8122240,-98.0734322
4002,Northeast 4th Street,76067,32.8122429,-98.0736477
4000,Northeast 4th Street,76067,32.8121983,-98.0738792
503,Northeast 39th Avenue,76067,32.8128130,-98.0741119
501,Northeast 39th Avenue,76067,32.8125963,-98.0740813
3710,Ram Boulevard,76067,32.8135098,-98.0790132
3800,Ram Boulevard,76067,32.8134285,-98.0780613
999,Energy Avenue,76067,32.8154537,-98.0699006
3905,Northeast 7th Street,76067,32.8149522,-98.0741772
4001,Northeast 7th Street,76067,32.8149425,-98.0736501
4007,Northeast 7th Street,76067,32.8149708,-98.0728622
705,Northeast 39th Avenue,76067,32.8145073,-98.0740962
703,Northeast 39th Avenue,76067,32.8142937,-98.0741256
701,Northeast 39th Avenue,76067,32.8140969,-98.0741345
702,Northeast 7th Street,76067,32.8144245,-98.0736179
700,Northeast 39th Avenue,76067,32.8141403,-98.0736129
4113,East US 180,76067,32.8121400,-98.0715348
4113,East US 180,76067,32.8120408,-98.0708665
4100,Northeast 4th Street,76067,32.8121750,-98.0726981
4102,Northeast 4th Street,76067,32.8122295,-98.0724560
4104,Northeast 4th Street,76067,32.8122311,-98.0721748
4106,Northeast 4th Street,76067,32.8122333,-98.0718926
704,Northeast 40th Avenue,76067,32.8144942,-98.0726873
702,Northeast 40th Avenue,76067,32.8142901,-98.0727125
700,Northeast 40th Avenue,76067,32.8140808,-98.0727021
602,Northeast 40th Avenue,76067,32.8136806,-98.0726907
609,Northeast 40th Avenue,76067,32.8140955,-98.0732567
611,Northeast 40th Avenue,76067,32.8143046,-98.0732355
604,Northeast 39th Avenue,76067,32.8138663,-98.0736040
607,Northeast 39th Avenue,76067,32.8138685,-98.0741282
605,Northeast 39th Avenue,76067,32.8136250,-98.0741051
602,Northeast 39th Avenue,76067,32.8136488,-98.0735987
603,Northeast 39th Avenue,76067,32.8134350,-98.0741147
601,Northeast 39th Avenue,76067,32.8132175,-98.0741101
605,Northeast 40th Avenue,76067,32.8136456,-98.0732564
601,Northeast 40th Avenue,76067,32.8132296,-98.0732416
504,Northeast 39th Avenue,76067,32.8130313,-98.0736181
505,Northeast 40th Avenue,76067,32.8130082,-98.0732371
503,Northeast 40th Avenue,76067,32.8128039,-98.0732579
501,Northeast 40th Avenue,76067,32.8126016,-98.0732464
500,Northeast 39th Avenue,76067,32.8125944,-98.0736097
502,Northeast 39th Avenue,76067,32.8128122,-98.0736162
600,Northeast 40th Avenue,76067,32.8133615,-98.0726915
4103,Northeast 5th Street,76067,32.8133519,-98.0723854
4105,Northeast 5th Street,76067,32.8133477,-98.0721518
4107,Northeast 5th Street,76067,32.8133659,-98.0718802
4109,Northeast 5th Street,76067,32.8133553,-98.0716172
4111,Northeast 5th Street,76067,32.8133717,-98.0713727
4113,Northeast 5th Street,76067,32.8133584,-98.0711223
4115,Northeast 5th Street,76067,32.8133834,-98.0708634
4117,Northeast 5th Street,76067,32.8133733,-98.0706137
4103,Northeast 4th Street,76067,32.8125910,-98.0723809
4105,Northeast 4th Street,76067,32.8125907,-98.0721272
4107,Northeast 4th Street,76067,32.8125919,-98.0718734
4109,Northeast 4th Street,76067,32.8125922,-98.0716189
4111,Northeast 4th Street,76067,32.8125914,-98.0713644
4113,Northeast 4th Street,76067,32.8125917,-98.0711154
4115,Northeast 4th Street,76067,32.8125908,-98.0708622
4117,Northeast 4th Street,76067,32.8126123,-98.0706040
500,Northeast 40th Avenue,76067,32.8126247,-98.0726873
504,Northeast 40th Avenue,76067,32.8129301,-98.0727098
4102,Northeast 5th Street,76067,32.8129449,-98.0723829
4104,Northeast 5th Street,76067,32.8129434,-98.0721287
4106,Northeast 5th Street,76067,32.8129375,-98.0718749
4116,Northeast 5th Street,76067,32.8129650,-98.0706087
4108,Northeast 5th Street,76067,32.8129625,-98.0716257
4110,Northeast 5th Street,76067,32.8129574,-98.0713710
4112,Northeast 5th Street,76067,32.8129649,-98.0711151
4114,Northeast 5th Street,76067,32.8129609,-98.0708690
734,Warren,76067,32.8372308,-98.0436100
704,Hood Road,76067,32.8324680,-98.0465698
999,Cross Post Road,76067,32.8226737,-98.0534251
996,Cross Post Road,76067,32.8237360,-98.0531220
900,Hood Road,76067,32.8233427,-98.0486894
6701,East US 180,76067,32.8111827,-98.0569935
6601,East US 180,76067,32.8111750,-98.0580326
6501,East US 180,76067,32.8111735,-98.0588693
6201,East US 180,76067,32.8109781,-98.0597342
6105,East US 180,76067,32.8110642,-98.0606007
6103,East US 180,76067,32.8111559,-98.0612752
6500,Shadowview Court,76067,32.8117611,-98.0593111
6115,East US 180,76067,32.8118561,-98.0601480
107,Washington Road,76067,32.8116847,-98.0556159
6801,East US 180,76067,32.8111523,-98.0557625
6509,Shadowview Court,76067,32.8123128,-98.0586218
6511,Shadowview Court,76067,32.8123129,-98.0584599
6507,Shadowview Court,76067,32.8123343,-98.0588178
6505,Shadowview Court,76067,32.8123291,-98.0589816
6503,Shadowview Court,76067,32.8123310,-98.0591830
6501,Shadowview Court,76067,32.8123321,-98.0593410
6501,Wimbleton Court,76067,32.8172994,-98.0584425
6500,Wimbleton Court,76067,32.8166139,-98.0586666
6509,Wimbleton Court,76067,32.8171398,-98.0574573
6504,Wimbleton Court,76067,32.8166235,-98.0582453
6506,Wimbleton Court,76067,32.8166096,-98.0578574
6508,Wimbleton Court,76067,32.8165923,-98.0576219
6510,Wimbleton Court,76067,32.8166049,-98.0573360
905,Holiday Hills Drive,76067,32.8163781,-98.0569532
500,Bellaire Circle,76067,32.8129425,-98.0565849
502,Bellaire Circle,76067,32.8131551,-98.0564117
702,Bellaire Circle,76067,32.8144721,-98.0559981
802,Bellaire Circle,76067,32.8153362,-98.0560030
1000,Holiday Hills Drive,76067,32.8172164,-98.0564062
908,Holiday Hills Drive,76067,32.8168424,-98.0564279
900,Holiday Hills Drive,76067,32.8159493,-98.0563252
902,Holiday Hills Drive,76067,32.8162701,-98.0564054
904,Holiday Hills Drive,76067,32.8164792,-98.0564112
605,Holiday Hills Drive,76067,32.8143251,-98.0573524
701,Holiday Hills Drive,76067,32.8145492,-98.0572461
702,Holiday Hills Drive,76067,32.8145393,-98.0566164
600,Holiday Hills Drive,76067,32.8137870,-98.0569374
604,Holiday Hills Drive,76067,32.8139927,-98.0568806
606,Holiday Hills Drive,76067,32.8141656,-98.0568319
6605,Shadowview Court,76067,32.8129686,-98.0579350
505,Holiday Hills Drive,76067,32.8136372,-98.0575501
503,Holiday Hills Drive,76067,32.8134116,-98.0576803
501,Holiday Hills Drive,76067,32.8131973,-98.0577450
205,Factory Outlet Avenue,76067,32.8093093,-98.0619990
6100,East US 180,76067,32.8101099,-98.0618346
4518,East US 180,76067,32.8100483,-98.0628279
4516,East US 180,76067,32.8102094,-98.0632135
4514,East US 180,76067,32.8101533,-98.0635504
4508,East US 180,76067,32.8101668,-98.0637763
7104,East US 180,76067,32.8103354,-98.0573909
6200,East US 180,76067,32.8103195,-98.0596003
100,Washington Road,76067,32.8129575,-98.0541693
7511,East US 180,76067,32.8122833,-98.0520757
7611,East US 180,76067,32.8104007,-98.0510386
7703,East US 180,76067,32.8097104,-98.0494326
118,Washington Road,76067,32.8133773,-98.0528082
244,Gorgas Street,76067,32.8183140,-98.0595760
601,Travis Drive,76067,32.8086925,-98.1391850
503,San Jacinto Drive,76067,32.8079700,-98.1400165
605,Mesquite Street,76067,32.8093860,-98.1420175
1509,Cactus Street,76067,32.8083565,-98.1452255
603,Austin Drive,76067,32.8089995,-98.1410635
603,Travis Drive,76067,32.8089640,-98.1391690
701,Holly Hill Road,76067,32.8088785,-98.1462790
1512,Cactus Street,76067,32.8090465,-98.1456305
1,Greenbrier Court,76067,32.8071590,-98.1440105
507,Travis Drive,76067,32.8081185,-98.1391670
509,Travis Drive,76067,32.8083905,-98.1391635
10,Fair Oaks Street,76067,32.8095860,-98.1446605
406,Travis Drive,76067,32.8068925,-98.1387510
1301,Cactus Street,76067,32.8071885,-98.1420400
701,Cedar Street,76067,32.8097300,-98.1430690
1502,Alamo Street,76067,32.8107855,-98.1455550
604,Cedar Street,76067,32.8093935,-98.1426300
505,Austin Drive,76067,32.8082925,-98.1410655
603,San Jacinto Drive,76067,32.8089470,-98.1400620
504,Travis Drive,76067,32.8081185,-98.1386615
503,Cedar Street,76067,32.8078340,-98.1431250
602,Travis Drive,76067,32.8089540,-98.1386975
1404,Alamo Street,76067,32.8107145,-98.1439145
506,San Jacinto Drive,76067,32.8083765,-98.1395175
700,Austin Drive,76067,32.8095705,-98.1405170
1511,Cactus Street,76067,32.8085815,-98.1456875
703,Austin Drive,76067,32.8099415,-98.1410135
15,Greenbrier Street,76067,32.8091130,-98.1441825
20,Greenbrier Street,76067,32.8097980,-98.1436400
606,Travis Drive,76067,32.8094845,-98.1386660
6,Fair Oaks Street,76067,32.8090960,-98.1446710
500,Mesquite Street,76067,32.8075940,-98.1415405
1406,Alamo Street,76067,32.8107740,-98.1444510
703,Mesquite Street,76067,32.8100610,-98.1419930
12,Greenbrier Street,76067,32.8088355,-98.1436375
602,Mesquite Street,76067,32.8090960,-98.1415410
1201,Cactus Street,76067,32.8070130,-98.1415080
703,San Jacinto Drive,76067,32.8099445,-98.1400030
1201,Alamo Street,76067,32.8103180,-98.1410685
505,Travis Drive,76067,32.8078755,-98.1392100
600,Cedar Street,76067,32.8088290,-98.1425635
601,Cedar Street,76067,32.8087780,-98.1430980
504,San Jacinto Drive,76067,32.8081195,-98.1395040
1102,Cactus Street,76067,32.8075840,-98.1405695
5,Greenbrier Street,76067,32.8087555,-98.1441065
1003,Alamo Street,76067,32.8103475,-98.1395050
706,Cedar Street,76067,32.8103550,-98.1426085
19,Greenbrier Street,76067,32.8100475,-98.1441230
705,Mesquite Street,76067,32.8103040,-98.1420800
4,Greenbrier Street,76067,32.8078550,-98.1436140
704,Cedar Street,76067,32.8100525,-98.1426230
1302,Cactus Street,76067,32.8075895,-98.1425850
607,Travis Drive,76067,32.8097940,-98.1391645
1,Greenbrier Street,76067,32.8082595,-98.1441500
1507,Cactus Street,76067,32.8082460,-98.1449495
600,Travis Drive,76067,32.8086595,-98.1386655
602,Austin Drive,76067,32.8089720,-98.1405575
504,Mesquite Street,76067,32.8081175,-98.1415435
502,Travis Drive,76067,32.8078445,-98.1387090
405,Travis Drive,76067,32.8065210,-98.1393005
703,Cedar Street,76067,32.8100630,-98.1430705
1109,Cactus Street,76067,32.8069565,-98.1409870
17,Greenbrier Street,76067,32.8095875,-98.1441550
701,San Jacinto Drive,76067,32.8096085,-98.1400140
605,Travis Drive,76067,32.8094950,-98.1391650
702,Austin Drive,76067,32.8099725,-98.1405525
506,Cedar Street,76067,32.8084110,-98.1426175
804,Holly Hill Road,76067,32.8101580,-98.1456515
1100,Cactus Street,76067,32.8076430,-98.1399720
603,Cedar Street,76067,32.8090885,-98.1431105
501,Cedar Street,76067,32.8075925,-98.1430940
802,Holly Hill Road,76067,32.8099525,-98.1456475
604,Travis Drive,76067,32.8092190,-98.1387100
8,Greenbrier Street,76067,32.8083515,-98.1436180
500,Travis Drive,76067,32.8075805,-98.1386885
501,Travis Drive,76067,32.8076080,-98.1391790
1,Fair Oaks Street,76067,32.8088415,-98.1451620
601,Mesquite Street,76067,32.8087880,-98.1420180
502,San Jacinto Drive,76067,32.8078030,-98.1395285
10,Greenbrier Street,76067,32.8085925,-98.1436170
23,Greenbrier Street,76067,32.8103600,-98.1441550
1500,Alamo Street,76067,32.8107325,-98.1449485
501,Mesquite Street,76067,32.8076030,-98.1420540
404,Travis Drive,76067,32.8064870,-98.1386995
1505,Cactus Street,76067,32.8080730,-98.1446705
605,San Jacinto Drive,76067,32.8092830,-98.1400380
603,Mesquite Street,76067,32.8090735,-98.1420275
16,Fair Oaks Street,76067,32.8103770,-98.1445890
408,Travis Drive,76067,32.8071555,-98.1387185
806,Holly Hill Road,76067,32.8103695,-98.1456490
16,Greenbrier Street,76067,32.8093380,-98.1436200
505,San Jacinto Drive,76067,32.8082840,-98.1400385
800,Holly Hill Road,76067,32.8097330,-98.1456420
706,Holly Hill Road,76067,32.8095265,-98.1456635
502,Austin Drive,76067,32.8079460,-98.1405855
601,San Jacinto Drive,76067,32.8086080,-98.1400180
504,Cedar Street,76067,32.8081335,-98.1426300
604,Mesquite Street,76067,32.8093880,-98.1415690
700,Mesquite Street,76067,32.8097315,-98.1415600
704,Holly Hill Road,76067,32.8093285,-98.1456865
1401,Cactus Street,76067,32.8067680,-98.1427775
1004,Cactus Street,76067,32.8075650,-98.1394975
807,Holly Hill Road,76067,32.8104600,-98.1465345
1100,Alamo Street,76067,32.8107200,-98.1398605
18,Greenbrier Street,76067,32.8095635,-98.1436435
505,Cedar Street,76067,32.8081145,-98.1430950
507,Mesquite Street,76067,32.8084700,-98.1420090
2,Greenbrier Court,76067,32.8067590,-98.1440630
502,Mesquite Street,76067,32.8078425,-98.1414835
1102,Alamo Street,76067,32.8107030,-98.1402290
13,Fair Oaks Street,76067,32.8103575,-98.1451775
605,Austin Drive,76067,32.8092800,-98.1410260
1402,Alamo Street,76067,32.8107485,-98.1434965
604,San Jacinto Drive,76067,32.8092255,-98.1395360
1501,Cactus Street,76067,32.8077130,-98.1443025
1001,Cactus Street,76067,32.8072040,-98.1391925
701,Mesquite Street,76067,32.8097825,-98.1420115
600,Mesquite Street,76067,32.8087705,-98.1415550
601,Austin Drive,76067,32.8086080,-98.1410315
1003,Cactus Street,76067,32.8072100,-98.1395285
705,Cedar Street,76067,32.8103190,-98.1431195
1302,Alamo Street,76067,32.8107350,-98.1425590
1000,Alamo Street,76067,32.8107080,-98.1391980
1300,Alamo Street,76067,32.8107705,-98.1420400
702,Travis Drive,76067,32.8100180,-98.1386615
403,Principio Road,76067,32.8067365,-98.1399430
504,Austin Drive,76067,32.8082930,-98.1405660
605,Cedar Street,76067,32.8093875,-98.1430885
600,San Jacinto Drive,76067,32.8086720,-98.1395285
3,Greenbrier Court,76067,32.8066115,-98.1435115
503,Mesquite Street,76067,32.8078455,-98.1420830
7,Fair Oaks Street,76067,32.8092905,-98.1451770
1503,Cactus Street,76067,32.8079480,-98.1444730
501,Austin Drive,76067,32.8076000,-98.1410760
1202,Alamo Street,76067,32.8107205,-98.1415645
22,Greenbrier Street,76067,32.8100570,-98.1436155
602,San Jacinto Drive,76067,32.8089470,-98.1395445
24,Greenbrier Street,76067,32.8103260,-98.1436210
1002,Alamo Street,76067,32.8106955,-98.1395120
8,Fair Oaks Street,76067,32.8093395,-98.1446770
3,Greenbrier Street,76067,32.8084960,-98.1441535
1500,Cactus Street,76067,32.8085775,-98.1446135
11,Fair Oaks Street,76067,32.8099355,-98.1451805
507,Cedar Street,76067,32.8084075,-98.1430865
506,Travis Drive,76067,32.8083960,-98.1387045
702,Mesquite Street,76067,32.8100490,-98.1414880
2,Fair Oaks Street,76067,32.8088470,-98.1446245
801,Holly Hill Road,76067,32.8098115,-98.1463635
14,Greenbrier Street,76067,32.8090645,-98.1436520
12,Fair Oaks Street,76067,32.8098310,-98.1446575
502,Cedar Street,76067,32.8078805,-98.1426005
1103,Cactus Street,76067,32.8069205,-98.1405320
700,Cedar Street,76067,32.8097870,-98.1425700
701,Austin Drive,76067,32.8095850,-98.1410270
100,FM3027,76067,32.8338205,-98.1090430
801,Brazos Drive,76067,32.8148535,-98.0889630
5002,Laurie Drive,76067,32.8273000,-98.0663760
604,Beetham Road,76067,32.8137895,-98.0875160
3003,Northeast 11th Street,76067,32.8179460,-98.0877040
404,Long Drive,76067,32.8134800,-98.0907950
805,Brazos Drive,76067,32.8152365,-98.0889805
702,Brazos Drive,76067,32.8142175,-98.0884360
601,Brazos Drive,76067,32.8134340,-98.0889200
313,Beetham Road,76067,32.8125145,-98.0895145
3006,Northeast 11th Street,76067,32.8175595,-98.0872210
3404,Northeast 10th Street,76067,32.8167580,-98.0839060
3100,Northeast 10th Street,76067,32.8167660,-98.0867810
306,Long Drive,76067,32.8127355,-98.0902220
306,Northeast 27th Avenue,76067,32.8115950,-98.0906875
603,Circle Road,76067,32.8136205,-98.0894270
801,Long Drive,76067,32.8147720,-98.0912565
810,Beetham Road,76067,32.8159285,-98.0875485
3008,Northeast 11th Street,76067,32.8175435,-98.0869355
2900,Northeast 10th Street,76067,32.8167570,-98.0885620
5104,Laurie Drive,76067,32.8273025,-98.0652750
703,Beetham Road,76067,32.8142210,-98.0879855
5207,Laurie Drive,76067,32.8276720,-98.0642680
3004,Northeast 10th Street,76067,32.8167625,-98.0874275
2908,Northeast 11th Street,76067,32.8175215,-98.0876835
3407,Northeast 10th Street,76067,32.8171215,-98.0837120
3106,Northeast 10th Street,76067,32.8167625,-98.0861680
803,Beetham Road,76067,32.8150610,-98.0879840
3402,Northeast 10th Street,76067,32.8167480,-98.0841175
308,Beetham Road,76067,32.8116730,-98.0897805
903,Brazos Drive,76067,32.8164485,-98.0892070
3304,Northeast 10th Street,76067,32.8167505,-98.0847260
3002,Northeast 10th Street,76067,32.8167380,-98.0876350
3005,Northeast 11th Street,76067,32.8179820,-98.0874490
400,Long Drive,76067,32.8131210,-98.0906260
310,Beetham Road,76067,32.8118325,-98.0895900
800,Beetham Road,76067,32.8148645,-98.0875420
808,Northeast Park Drive,76067,32.8156205,-98.0897315
502,Circle Road,76067,32.8131030,-98.0900580
402,Brazos Drive,76067,32.8118945,-98.0881785
3406,Northeast 10th Street,76067,32.8167705,-98.0837020
809,Beetham Road,76067,32.8156910,-98.0880170
812,Beetham Road,76067,32.8161440,-98.0875520
2804,Sharon Drive,76067,32.8136145,-98.0901260
5210,Laurie Drive,76067,32.8272830,-98.0637445
800,Brazos Drive,76067,32.8148535,-98.0884440
506,Brazos Drive,76067,32.8135435,-98.0884670
2905,Northeast 10th Street,76067,32.8171415,-98.0881300
3401,Northeast 10th Street,76067,32.8171760,-98.0841765
702,Beetham Road,76067,32.8142255,-98.0875535
309,Long Drive,76067,32.8125590,-98.0907705
423,Country Club Parkway,76067,32.8254412,-98.0640068
3400,Northeast 11th Street,76067,32.8175480,-98.0843215
302,Long Drive,76067,32.8124770,-98.0899930
802,Brazos Drive,76067,32.8150410,-98.0884225
3200,Northeast 11th Street,76067,32.8175410,-98.0853955
2904,Northeast 11th Street,76067,32.8175405,-98.0883475
300,Beetham Road,76067,32.8109930,-98.0905670
3202,Northeast 11th Street,76067,32.8175480,-98.0850860
808,Brazos Drive,76067,32.8156495,-98.0885095
402,Long Drive,76067,32.8133005,-98.0907500
505,Beetham Road,76067,32.8133410,-98.0879640
410,Brazos Drive,76067,32.8124420,-98.0884240
405,Long Drive,76067,32.8132790,-98.0911735
5102,Laurie Drive,76067,32.8272775,-98.0654740
309,Northeast 27th Avenue,76067,32.8117260,-98.0912805
401,Country Club Parkway,76067,32.8248137,-98.0666073
3107,Northeast 10th Street,76067,32.8171605,-98.0861735
305,Long Drive,76067,32.8122945,-98.0904140
702,Long Drive,76067,32.8144115,-98.0907835
3007,Northeast 11th Street,76067,32.8179665,-98.0872130
5001,Laurie Drive,76067,32.8276865,-98.0667580
705,Beetham Road,76067,32.8144490,-98.0879770
3111,Northeast 11th Street,76067,32.8179477,-98.0855821
307,Northeast 27th Avenue,76067,32.8115490,-98.0911965
407,Long Drive,76067,32.8134390,-98.0912150
5003,Laurie Drive,76067,32.8276740,-98.0665690
2806,Sharon Drive,76067,32.8136315,-98.0899340
411,Country Club Parkway,76067,32.8254197,-98.0655508
5009,Laurie Drive,76067,32.8277095,-98.0659080
316,Beetham Road,76067,32.8122960,-98.0890085
309,Beetham Road,76067,32.8118335,-98.0903335
200,Northeast 1st Avenue,76067,32.8100922,-98.1117250
2904 B,Northeast 11th Street,76067,32.8175145,-98.0881235
806,Long Drive,76067,32.8153705,-98.0907935
304,Long Drive,76067,32.8126035,-98.0901015
3502,Northeast 11th Street,76067,32.8175185,-98.0832835
3400,Northeast 10th Street,76067,32.8167740,-98.0843205
5200,Laurie Drive,76067,32.8272985,-98.0648465
3307,Northeast 10th Street,76067,32.8171445,-98.0844475
701,Beetham Road,76067,32.8139940,-98.0879855
804,Brazos Drive,76067,32.8152485,-98.0884075
3302,Northeast 10th Street,76067,32.8167480,-98.0849305
405,Country Club Parkway,76067,32.8250862,-98.0661993
5206,Laurie Drive,76067,32.8272770,-98.0641960
310,Long Drive,76067,32.8129800,-98.0905015
2907,Northeast 10th Street,76067,32.8171460,-98.0878995
502,Brazos Drive,76067,32.8130885,-98.0884440
409,Long Drive,76067,32.8136160,-98.0912760
3402,Northeast 11th Street,76067,32.8175320,-98.0841180
3503,Northeast 11th Street,76067,32.8179290,-98.0832690
3104,Northeast 11th Street,76067,32.8175295,-98.0866295
706,Long Drive,76067,32.8147900,-98.0908040
5209,Laurie Drive,76067,32.8276740,-98.0640115
3109,Northeast 11th Street,76067,32.8179425,-98.0859240
5004,Laurie Drive,76067,32.8272965,-98.0661600
314,Northeast 27th Avenue,76067,32.8121370,-98.0907910
3202,Northeast 10th Street,76067,32.8168020,-98.0857525
503,Circle Road,76067,32.8132290,-98.0894025
605,Beetham Road,76067,32.8137675,-98.0879560
808,Beetham Road,76067,32.8157175,-98.0875735
803,Brazos Drive,76067,32.8150485,-98.0889710
807,Brazos Drive,76067,32.8154340,-98.0889805
505,Brazos Drive,76067,32.8132605,-98.0889020
5007,Laurie Drive,76067,32.8276810,-98.0661350
803,Northeast Park Drive,76067,32.8149865,-98.0901845
2902,Northeast 11th Street,76067,32.8175390,-98.0885835
601,Circle Road,76067,32.8134400,-98.0894125
5107,Laurie Drive,76067,32.8276835,-98.0650870
2813,Northeast Park Drive,76067,32.8148575,-98.0896060
2907,Northeast 11th Street,76067,32.8179410,-98.0879300
805,Beetham Road,76067,32.8152660,-98.0880150
2807,Sharon Drive,76067,32.8140100,-98.0899045
3502,Northeast 10th Street,76067,32.8167690,-98.0832925
3501,Northeast 10th Street,76067,32.8171580,-98.0835025
807,Long Drive,76067,32.8153345,-98.0912920
2805,Sharon Drive,76067,32.8139720,-98.0901125
3009,Northeast 10th Street,76067,32.8171560,-98.0869945
902,Brazos Drive,76067,32.8164695,-98.0885460
5201,Laurie Drive,76067,32.8276855,-98.0648770
2808,Northeast Park Drive,76067,32.8144320,-98.0897060
427,Country Club Parkway,76067,32.8252187,-98.0635583
301,Northeast 27th Avenue,76067,32.8109715,-98.0910565
806,Beetham Road,76067,32.8154995,-98.0875355
504,Beetham Road,76067,32.8131435,-98.0875025
807,Northeast Park Drive,76067,32.8153730,-98.0901725
3406,Northeast 11th Street,76067,32.8175360,-98.0837045
815,Beetham Road,76067,32.8163080,-98.0880510
3405,Northeast 10th Street,76067,32.8171200,-98.0839325
410,Beetham Road,76067,32.8126950,-98.0875460
5005,Laurie Drive,76067,32.8276800,-98.0663375
3307,Northeast 11th Street,76067,32.8179625,-98.0843820
813,Brazos Drive,76067,32.8159950,-98.0891790
3108,Northeast 11th Street,76067,32.8175230,-98.0860135
811,Beetham Road,76067,32.8158945,-98.0880240
3301,Northeast 10th Street,76067,32.8171605,-98.0851450
3104,Northeast 10th Street,76067,32.8167500,-98.0863665
3009,Northeast 11th Street,76067,32.8179550,-98.0868965
3503,Northeast 10th Street,76067,32.8171500,-98.0832960
3203,Northeast 10th Street,76067,32.8171630,-98.0857605
603,Brazos Drive,76067,32.8136135,-98.0889415
3103,Northeast 10th Street,76067,32.8171665,-98.0865890
813,Beetham Road,76067,32.8161090,-98.0880310
3300,Northeast 10th Street,76067,32.8167635,-98.0851385
201,Northeast 2nd Street,76067,32.8110761,-98.1119469
602,Beetham Road,76067,32.8135775,-98.0875295
3206,Northeast 10th Street,76067,32.8167580,-98.0853425
809,Brazos Drive,76067,32.8156220,-98.0890190
503,Brazos Drive,76067,32.8130870,-98.0889295
406,Beetham Road,76067,32.8124330,-98.0878860
2903,Northeast 10th Street,76067,32.8171525,-98.0883595
501,Circle Road,76067,32.8130520,-98.0895615
704,Beetham Road,76067,32.8144465,-98.0875210
900,Brazos Drive,76067,32.8162850,-98.0886220
308,Long Drive,76067,32.8128555,-98.0903545
806,Brazos Drive,76067,32.8154490,-98.0884615
3102,Northeast 10th Street,76067,32.8167550,-98.0865760
700,Long Drive,76067,32.8142180,-98.0907885
500,Circle Road,76067,32.8130235,-98.0898625
604,Brazos Drive,76067,32.8137660,-98.0884520
3403,Northeast 11th Street,76067,32.8179665,-98.0841310
901,Brazos Drive,76067,32.8162405,-98.0891775
2817,Northeast 11th Street,76067,32.8179725,-98.0890495
810,Brazos Drive,76067,32.8158540,-98.0885345
313,Northeast 27th Avenue,76067,32.8120735,-98.0912875
709,Long Drive,76067,32.8145740,-98.0912270
407,Country Club Parkway,76067,32.8252512,-98.0660318
2816,Northeast 10th Street,76067,32.8167345,-98.0891000
3301,Northeast 11th Street,76067,32.8179690,-98.0846870
3001,Northeast 10th Street,76067,32.8171535,-98.0876785
3107,Northeast 11th Street,76067,32.8179795,-98.0861810
809,Long Drive,76067,32.8155475,-98.0913030
305,Northeast 27th Avenue,76067,32.8113670,-98.0911225
704,Long Drive,76067,32.8146000,-98.0907840
419,Country Club Parkway,76067,32.8255132,-98.0645218
803,Long Drive,76067,32.8149550,-98.0912900
2806,Northeast Park Drive,76067,32.8143925,-98.0899820
814,Beetham Road,76067,32.8164030,-98.0875320
2801,Sharon Drive,76067,32.8140105,-98.0905700
5106,Laurie Drive,76067,32.8272745,-98.0650850
600,Circle Road,76067,32.8133385,-98.0901450
3200,Northeast 10th Street,76067,32.8167550,-98.0859575
3300,Northeast 11th Street,76067,32.8175150,-98.0847840
705,Long Drive,76067,32.8143910,-98.0912510
2804,Northeast Park Drive,76067,32.8146145,-98.0902825
3105,Northeast 10th Street,76067,32.8171660,-98.0863800
811,Brazos Drive,76067,32.8158145,-98.0890325
5103,Laurie Drive,76067,32.8276755,-98.0655015
306,Beetham Road,76067,32.8115215,-98.0899740
307,Long Drive,76067,32.8124405,-98.0905660
417,Country Club Parkway,76067,32.8254432,-98.0647708
5105,Laurie Drive,76067,32.8276705,-98.0652940
314,Beetham Road,76067,32.8121525,-98.0891735
3306,Northeast 10th Street,76067,32.8167705,-98.0845310
3500,Northeast 11th Street,76067,32.8175345,-98.0835060
404,Beetham Road,76067,32.8124595,-98.0881705
5203,Laurie Drive,76067,32.8276785,-98.0646825
3207,Northeast 10th Street,76067,32.8171570,-98.0853545
409,Country Club Parkway,76067,32.8253457,-98.0657923
319,Northeast 27th Avenue,76067,32.8125900,-98.0912755
2802,Sharon Drive,76067,32.8136300,-98.0903440
501,Beetham Road,76067,32.8128745,-98.0879615
3101,Northeast 10th Street,76067,32.8171695,-98.0867905
2901,Northeast 10th Street,76067,32.8171470,-98.0885925
3110,Northeast 11th Street,76067,32.8175460,-98.0856985
801,Northeast Park Drive,76067,32.8147935,-98.0902910
802,Beetham Road,76067,32.8150730,-98.0875280
3203,Northeast 11th Street,76067,32.8179405,-98.0850010
804,Beetham Road,76067,32.8152860,-98.0875225
600,Beetham Road,76067,32.8133765,-98.0875085
808,Long Drive,76067,32.8155645,-98.0907990
500,Beetham Road,76067,32.8129380,-98.0874905
5202,Laurie Drive,76067,32.8272775,-98.0646290
807,Beetham Road,76067,32.8154860,-98.0880190
5101,Laurie Drive,76067,32.8276665,-98.0657105
2813,Sharon Drive,76067,32.8140150,-98.0892665
3008,Northeast 10th Street,76067,32.8167700,-98.0869790
501,Brazos Drive,76067,32.8128865,-98.0889095
3501,Northeast 11th Street,76067,32.8179585,-98.0834925
3105,Northeast 11th Street,76067,32.8179495,-98.0863855
401,Long Drive,76067,32.8129545,-98.0910900
3303,Northeast 10th Street,76067,32.8171495,-98.0849385
3103,Northeast 11th Street,76067,32.8179650,-98.0866080
802,Northeast Park Drive,76067,32.8150585,-98.0897045
5211,Laurie Drive,76067,32.8276845,-98.0638455
425,Country Club Parkway,76067,32.8253007,-98.0637988
304,Beetham Road,76067,32.8113670,-98.0902005
3106,Northeast 11th Street,76067,32.8175380,-98.0863185
5100,Laurie Drive,76067,32.8273010,-98.0657090
806,Northeast Park Drive,76067,32.8154390,-98.0896870
804,Northeast Park Drive,76067,32.8152405,-98.0896880
5204,Laurie Drive,76067,32.8272900,-98.0643995
3305,Northeast 10th Street,76067,32.8171445,-98.0847050
801,Beetham Road,76067,32.8148530,-98.0880015
317,Beetham Road,76067,32.8127650,-98.0892000
3003,Northeast 10th Street,76067,32.8171875,-98.0874355
5205,Laurie Drive,76067,32.8276865,-98.0644580
2906,Becky Drive,76067,32.8275330,-98.0633390
504,Brazos Drive,76067,32.8133170,-98.0884465
2905,Northeast 11th Street,76067,32.8179255,-98.0882450
3306,Northeast 11th Street,76067,32.8175570,-98.0845280
5211,Beletta Drive,76067,32.8274275,-98.0688910
5208,Laurie Drive,76067,32.8272990,-98.0639555
2816,Northeast 11th Street,76067,32.8175025,-98.0890835
2803,Sharon Drive,76067,32.8139980,-98.0903215
804,Long Drive,76067,32.8151755,-98.0908055
3500,Northeast 10th Street,76067,32.8167600,-98.0834995
300,Long Drive,76067,32.8123310,-98.0897555
3007,Northeast 10th Street,76067,32.8171490,-98.0872060
315,Northeast 27th Avenue,76067,32.8122330,-98.0913220
2902,Northeast 10th Street,76067,32.8167760,-98.0883140
2809,Sharon Drive,76067,32.8140075,-98.0896980
318,Northeast 27th Avenue,76067,32.8123665,-98.0908380
413,Country Club Parkway,76067,32.8253952,-98.0652883
403,Country Club Parkway,76067,32.8249582,-98.0664108
2811,Sharon Drive,76067,32.8140005,-98.0895035
805,Northeast Park Drive,76067,32.8151870,-98.0902020
3201,Northeast 11th Street,76067,32.8179505,-98.0853020
703,Long Drive,76067,32.8141870,-98.0912500
307,Beetham Road,76067,32.8117100,-98.0905210
311,Northeast 27th Avenue,76067,32.8119060,-98.0912765
703,Brazos Drive,76067,32.8142335,-98.0889320
701,Brazos Drive,76067,32.8140365,-98.0889155
301,Long Drive,76067,32.8120275,-98.0901485
321,Northeast 27th Avenue,76067,32.8127435,-98.0912060
3201,Northeast 10th Street,76067,32.8171495,-98.0859655
403,Long Drive,76067,32.8131025,-98.0911315
302,Beetham Road,76067,32.8111895,-98.0903700
2901,Northeast 11th Street,76067,32.8179245,-98.0885745
705,Brazos Drive,76067,32.8144295,-98.0889510
3205,Northeast 10th Street,76067,32.8171595,-98.0855525
805,Long Drive,76067,32.8151485,-98.0912645
700,Brazos Drive,76067,32.8139875,-98.0884855
415,Country Club Parkway,76067,32.8254317,-98.0650298
701,Long Drive,76067,32.8139875,-98.0912920
503,Beetham Road,76067,32.8131095,-98.0879735
809,Northeast Park Drive,76067,32.8155885,-98.0902420
315,Beetham Road,76067,32.8126275,-98.0893325
303,Northeast 27th Avenue,76067,32.8111440,-98.0910970
303,Long Drive,76067,32.8121785,-98.0902920
408,Long Drive,76067,32.8136655,-98.0907910
5006,Laurie Drive,76067,32.8273035,-98.0659310
310,Northeast 27th Avenue,76067,32.8119035,-98.0907815
2906,Northeast 11th Street,76067,32.8175265,-98.0879105
700,Beetham Road,76067,32.8140125,-98.0875375
429,Country Club Parkway,76067,32.8251447,-98.0633238
812,Brazos Drive,76067,32.8160320,-98.0886165
317,Northeast 27th Avenue,76067,32.8124030,-98.0912620
500,Brazos Drive,76067,32.8128650,-98.0884265
3204,Northeast 10th Street,76067,32.8167695,-98.0855500
2812,Northeast Park Drive,76067,32.8144340,-98.0892865
704,Brazos Drive,76067,32.8144360,-98.0884440
2906,Northeast 10th Street,76067,32.8167465,-98.0880365
3006,Northeast 10th Street,76067,32.8167730,-98.0872060
2810,Northeast Park Drive,76067,32.8144430,-98.0894875
603,Beetham Road,76067,32.8135525,-98.0880040
3404,Northeast 11th Street,76067,32.8175255,-98.0839100
2004,Southeast 23rd Avenue,76067,32.7939555,-98.0905120
1000,Southeast 25th Avenue,76067,32.8023655,-98.0883005
1908,Southeast 20th Street,76067,32.7936785,-98.0941075
1811,Southeast 21st Street,76067,32.7930895,-98.0949220
1803,Southeast 19th Street,76067,32.7950105,-98.0957720
2709,Southeast 4th Street,76067,32.8072870,-98.0860195
1900,Southeast 25th Avenue,76067,32.7950550,-98.0886050
2110,Southeast 21st Street,76067,32.7927055,-98.0923385
2002,Southeast 25th Avenue,76067,32.7942225,-98.0886280
1600,Southeast 24th 1/2 Avenue,76067,32.7976430,-98.0889970
2104,Southeast 22nd Avenue,76067,32.7931090,-98.0914210
2011,Southeast 18th Street,76067,32.7961440,-98.0937130
2909,Southeast 6th Street,76067,32.8066145,-98.0840500
1405,Southeast 23rd Avenue,76067,32.7992280,-98.0903325
1915,Southeast 19th Street,76067,32.7952440,-98.0941890
1809,Southeast 20th Street,76067,32.7939700,-98.0952545
1900,Southeast 20th Street,76067,32.7936085,-98.0944950
1907,Southeast 11th Street,76067,32.8009500,-98.0956570
1712,Southeast 18th Street,76067,32.7952335,-98.0969360
2201,Southeast 24th Avenue,76067,32.7926625,-98.0891385
1104,Southeast 16th Avenue,76067,32.8011145,-98.0984140
2015,Southeast 18th Street,76067,32.7961355,-98.0935150
1004,Southeast 25th Avenue,76067,32.8019415,-98.0883565
2504,Southeast 15th Street,76067,32.7984065,-98.0886720
2002,Southeast 26th Avenue,76067,32.7944480,-98.0877535
2905,Stan Terrace,76067,32.8041405,-98.0838660
607,Southeast 28th Avenue,76067,32.8063655,-98.0848230
1912,Southeast 18th Street,76067,32.7956770,-98.0945350
2201,Southeast 25th Avenue,76067,32.7926490,-98.0881305
2903,South Murco Drive,76067,32.8035545,-98.0855705
608,Southeast 26th Avenue,76067,32.8053370,-98.0871590
2905,North Murco Drive,76067,32.8056535,-98.0844790
2108,Southeast 17th Avenue,76067,32.7933785,-98.0964400
2303,Southeast 9th Street,76067,32.8026980,-98.0908795
2108,Southeast 26th Avenue,76067,32.7932240,-98.0877600
2501,Southeast 9th Street,76067,32.8026920,-98.0892765
2501,Southeast 11th Street,76067,32.8011805,-98.0893135
2904,South Murco Drive,76067,32.8031135,-98.0853015
1704,Southeast 15th Street,76067,32.7961295,-98.0974565
1701,Lamar Street,76067,32.8000315,-98.0978910
2004,Southeast 26th Avenue,76067,32.7942220,-98.0877440
1804,Southeast 15th Street,76067,32.7963965,-98.0961765
2112,Southeast 21st Avenue,76067,32.7931025,-98.0923510
2003,Southeast 25th Avenue,76067,32.7942285,-98.0881475
1816,Southeast 19th Street,76067,32.7947350,-98.0950845
1615,Southeast 21st Street,76067,32.7934135,-98.0978640
2506,Southeast 15th Street,76067,32.7983420,-98.0883405
2106,Southeast 21st Street,76067,32.7927045,-98.0927260
1907,Southeast 18th Street,76067,32.7959875,-98.0949435
1815,Southeast 21st Avenue,76067,32.7959525,-98.0918610
1807,Southeast 14th Street,76067,32.7975615,-98.0966395
2902,Michael Lane,76067,32.8043415,-98.0842605
2506,Southeast 14th Street,76067,32.7991545,-98.0883315
2014,Southeast 11th Street,76067,32.8005965,-98.0920610
2001,Southeast 15th Avenue,76067,32.7940990,-98.0989435
2002,Southeast 11th Street,76067,32.8005845,-98.0940380
2109,Southeast 18th Street,76067,32.7961630,-98.0927235
1514,Southeast 21st Street,76067,32.7927740,-98.0993870
804,Southeast 16th Avenue,76067,32.8030555,-98.0983185
1803,Southeast 25th Avenue,76067,32.7951810,-98.0881755
1914,Southeast 14th Street,76067,32.7979895,-98.0948055
2107,Southeast 18th Street,76067,32.7961505,-98.0929180
1924,Southeast 15th Street,76067,32.7967005,-98.0945150
1700,Southeast 25th Avenue,76067,32.7961875,-98.0886400
2902,Southeast 5th Street,76067,32.8069160,-98.0845080
1908,Southeast 14th Street,76067,32.7976040,-98.0954535
1701,Southeast 21st Street,76067,32.7931490,-98.0975930
2107,Southeast 21st Avenue,76067,32.7932855,-98.0919165
703,East Murco Drive,76067,32.8053255,-98.0829175
2001,Southeast 10th Street,76067,32.8017950,-98.0938295
2507,Southeast 15th Street,76067,32.7988340,-98.0883585
2500,Southeast 15th Street,76067,32.7983970,-98.0893780
2809,Michael Lane,76067,32.8044615,-98.0854205
1920,Southeast 15th Street,76067,32.7966780,-98.0948760
2111,Southeast 19th Street,76067,32.7952845,-98.0926125
2503,Southeast 15th Street,76067,32.7987905,-98.0889870
1702,Southeast 12th Street,76067,32.7987005,-98.0976100
1301,Southeast 22nd Avenue,76067,32.8003645,-98.0912675
1801,Southeast 12th Street,76067,32.7991275,-98.0973950
1616,Southeast 18th Street,76067,32.7950720,-98.0976925
905,Southeast 16th Avenue,76067,32.8022175,-98.0979180
3101,South Murco Drive,76067,32.8030655,-98.0819930
1902,Southeast 23rd Avenue,76067,32.7947840,-98.0904850
305,Harvey Road,76067,32.7890660,-98.0638375
1913,Southeast 13th Street,76067,32.7992850,-98.0950290
2109,Southeast 21st Avenue,76067,32.7930710,-98.0919295
2900,North Murco Drive,76067,32.8049985,-98.0851080
1701,Goodwin Drive,76067,32.8017565,-98.0979000
2601,Hilley Drive,76067,32.8025880,-98.0875860
1404,Southeast 23rd Avenue,76067,32.7991840,-98.0907765
1709,Southeast 14th Avenue,76067,32.7954015,-98.1000450
2502,Southeast 13th Street,76067,32.7998930,-98.0890250
2813,Michael Lane,76067,32.8046225,-98.0848325
2300,Southeast 10th Street,76067,32.8015715,-98.0912200
2908,North Murco Drive,76067,32.8054525,-98.0835215
1902,Southeast 26th Avenue,76067,32.7948620,-98.0877505
2101,Southeast 14th Avenue,76067,32.7936605,-98.1000685
2102,Southeast 21st Street,76067,32.7927345,-98.0931185
2012,Southeast 11th Street,76067,32.8006260,-98.0923980
1910,Southeast 12th Street,76067,32.7996400,-98.0952610
2500,Southeast 13th Street,76067,32.7999100,-98.0893360
1807,Southeast 21st Street,76067,32.7931245,-98.0953200
2136,Southeast 21st Road,76067,32.7937905,-98.0928005
2301,Southeast 9th Street,76067,32.8026870,-98.0912240
1812,Southeast 18th Street,76067,32.7955100,-98.0955145
500,Southeast 26th Avenue,76067,32.8069620,-98.0871540
1508,Southeast 21st Street,76067,32.7927870,-98.0997710
1703,Southeast 23rd Avenue,76067,32.7959155,-98.0899940
601,Southeast 28th Avenue,76067,32.8069340,-98.0848380
1703,Southeast 13th Street,76067,32.7982015,-98.0976115
2905,Southeast 5th Street,76067,32.8073400,-98.0843375
507,Southeast 27th Avenue,76067,32.8064190,-98.0857915
1804,Southeast 21st Street,76067,32.7927380,-98.0956205
1804,Southeast 12th Street,76067,32.7988585,-98.0968110
1708,Southeast Park Road,76067,32.7935970,-98.0969910
1705,Southeast 15th Street,76067,32.7965980,-98.0972980
2005,Southeast 11th Street,76067,32.8009975,-98.0933605
607,Southeast 25th Avenue,76067,32.8054085,-98.0876300
1400,Southeast 24th Avenue,76067,32.7997680,-98.0898280
2115,Southeast 19th Street,76067,32.7953255,-98.0923570
2015,Southeast 17th Avenue,76067,32.7939825,-98.0959585
1604,Southeast Park Road,76067,32.7944135,-98.0985895
1805,Southeast 10th Street,76067,32.8019955,-98.0960910
1703,Southeast 22nd Avenue,76067,32.7959250,-98.0909550
1803,Southeast 13th Street,76067,32.7982930,-98.0970910
1901,Southeast 12th Street,76067,32.7995150,-98.0965020
1905,Southeast 14th Avenue,76067,32.7948135,-98.1000980
2506,Southeast 13th Street,76067,32.7998860,-98.0883245
603,Southeast 27th Avenue,76067,32.8059150,-98.0858110
1912,Southeast 15th Street,76067,32.7965180,-98.0956250
1901,Southeast 13th Street,76067,32.7985440,-98.0964130
3006,South Murco Drive,76067,32.8026415,-98.0834465
2801,North Murco Drive,76067,32.8049080,-98.0868085
1911,Southeast 20th Street,76067,32.7941295,-98.0939875
1612,Southeast Park Road,76067,32.7940080,-98.0979525
2002,Southeast 24th Avenue,76067,32.7943505,-98.0895615
1707,Southeast Park Road,76067,32.7939790,-98.0969630
1604,Southeast 18th Street,76067,32.7949410,-98.0982685
601,Southeast 27th Avenue,76067,32.8061065,-98.0857915
1506,Southeast 19th Avenue,76067,32.7973035,-98.0945650
2016,Southeast 19th Street,76067,32.7949400,-98.0933865
1800,Southeast 26th Avenue,76067,32.7955280,-98.0877280
2001,Southeast 23rd Avenue,76067,32.7945010,-98.0900225
1916,Southeast 13th Street,76067,32.7988945,-98.0945135
2108,Southeast 21st Street,76067,32.7927030,-98.0925305
1916,Southeast 12th Street,76067,32.7997375,-98.0945260
1903,Southeast 23rd Avenue,76067,32.7947840,-98.0900025
1911,Southeast 10th Street,76067,32.8017925,-98.0941315
2011,Southeast 21st Avenue,76067,32.7942815,-98.0918755
2805,Michael Lane,76067,32.8043865,-98.0857005
1701,Southeast 24th Avenue,76067,32.7962105,-98.0890205
906,Southeast 16th Avenue,76067,32.8019345,-98.0983990
2102,Southeast 23rd Avenue,76067,32.7933715,-98.0904920
2000,Southeast 24th Avenue,76067,32.7945845,-98.0895435
1900,Southeast 10th Street,76067,32.8013745,-98.0952045
1910,Southeast 14th Street,76067,32.7977470,-98.0952440
2300,Southeast 9th Street,76067,32.8022835,-98.0912205
1810,Southeast 22nd Avenue,76067,32.7942290,-98.0913890
1715,Southeast 18th Street,76067,32.7956795,-98.0966975
1702,Southeast 13th Street,76067,32.7978190,-98.0976325
1802,Southeast 26th Avenue,76067,32.7952735,-98.0877215
2101,Southeast 21st Road,76067,32.7935565,-98.0923855
1912,Southeast 21st Street,76067,32.7927220,-98.0946265
1912,Southeast 14th Street,76067,32.7978645,-98.0950425
1903,Southeast 25th Avenue,76067,32.7949185,-98.0881250
2707,Southeast 4th Street,76067,32.8072945,-98.0862685
1700,Southeast 21st Street,76067,32.7927550,-98.0976185
704,North Murco Drive,76067,32.8040085,-98.0872120
2003,Southeast 22nd Avenue,76067,32.7942280,-98.0909730
2904,Michael Lane,76067,32.8044345,-98.0839095
1707,Southeast 18th Street,76067,32.7956105,-98.0970960
2906,North Murco Drive,76067,32.8052875,-98.0840970
1905,Southeast 25th Avenue,76067,32.7946695,-98.0881730
2405,Southeast 10th Street,76067,32.8019340,-98.0896160
2004,Southeast 18th Street,76067,32.7957420,-98.0939855
2105,Southeast 26th Avenue,76067,32.7936040,-98.0872850
2007,Southeast 15th Avenue,76067,32.7939535,-98.0989530
2918,Southeast 6th Street,76067,32.8066970,-98.0831135
2505,Southeast 13th Street,76067,32.8002980,-98.0886650
2705,North Murco Drive,76067,32.8044645,-98.0870710
1907,Southeast 17th Avenue,76067,32.7951785,-98.0961095
2110,Southeast 25th Avenue,76067,32.7930525,-98.0886575
1911,Southeast 18th Street,76067,32.7960305,-98.0947585
1712,Southeast 15th Street,76067,32.7962540,-98.0967885
2005,Southeast 20th Street,76067,32.7945085,-98.0934395
2912,Southeast 6th Street,76067,32.8062755,-98.0836550
1100,Southeast 16th Avenue,76067,32.8015900,-98.0983485
1807,Southeast 15th Street,76067,32.7968225,-98.0961005
2204,Southeast 21st Street,76067,32.7927080,-98.0919485
2701,Southeast 4th Street,76067,32.8073195,-98.0869475
1605,Southeast 24th Avenue,76067,32.7971570,-98.0894120
1701,Southeast 22nd Avenue,76067,32.7961915,-98.0908975
2901,Southeast 5th Street,76067,32.8073070,-98.0847545
2502,Southeast 10th Street,76067,32.8015390,-98.0889625
1802,Southeast 13th Street,76067,32.7978990,-98.0970785
2907,Michael Lane,76067,32.8050175,-98.0836760
1801,Southeast 13th Street,76067,32.7982415,-98.0973615
2402,Southeast 10th Street,76067,32.8015330,-98.0899485
2905,Michael Lane,76067,32.8049195,-98.0839795
1716,Southeast 21st Street,76067,32.7927470,-98.0964185
1903,Southeast 19th Street,76067,32.7951770,-98.0947920
1915,Southeast 15th Street,76067,32.7970440,-98.0953130
2802,North Murco Drive,76067,32.8046775,-98.0861475
2701,Hilley Drive,76067,32.8024715,-98.0864875
2909,Southeast 5th Street,76067,32.8073055,-98.0839155
2200,Southeast 22nd Avenue,76067,32.7927065,-98.0914160
2900,Southeast 6th Street,76067,32.8058895,-98.0848415
3010,South Murco Drive,76067,32.8026310,-98.0828100
2124,Southeast 21st Road,76067,32.7934730,-98.0932390
1707,Southeast 11th Street,76067,32.8009290,-98.0968530
2001,Southeast 25th Avenue,76067,32.7944380,-98.0881570
1903,Southeast 14th Street,76067,32.7976970,-98.0961680
1911,Southeast 14th Street,76067,32.7982345,-98.0952835
1801,Southeast 21st Avenue,76067,32.7962735,-98.0918520
2107,Southeast 15th Avenue,76067,32.7934585,-98.0989585
1701,Southeast 23rd Avenue,76067,32.7962275,-98.0899490
1911,Southeast 21st Avenue,76067,32.7954525,-98.0918895
2507,Southeast 13th Street,76067,32.8002960,-98.0883430
1914,Southeast 15th Street,76067,32.7965380,-98.0954410
508,Southeast 27th Avenue,76067,32.8062745,-98.0862460
1102,Southeast 16th Avenue,76067,32.8013620,-98.0983710
1705,Southeast 11th Street,76067,32.8009630,-98.0972070
2201,Southeast 22nd Avenue,76067,32.7926750,-98.0909705
1702,Southeast 14th Street,76067,32.7969675,-98.0974550
1501,Southeast 16th Avenue,76067,32.7969430,-98.0978455
3012,South Murco Drive,76067,32.8025795,-98.0824990
1909,Southeast 12th Street,76067,32.7999955,-98.0956235
2005,Southeast 10th Street,76067,32.8017825,-98.0932440
2000,Southeast 21st Street,76067,32.7927375,-98.0942445
2000,Southeast 23rd Avenue,76067,32.7945305,-98.0904870
705,North Murco Drive,76067,32.8039455,-98.0867510
2004,Southeast 21st Avenue,76067,32.7946635,-98.0923075
1502,Southeast 23rd Avenue,76067,32.7986310,-98.0907750
2803,Michael Lane,76067,32.8042620,-98.0859770
1801,Southeast 14th Street,76067,32.7974145,-98.0973785
1803,Southeast 18th Street,76067,32.7957955,-98.0961120
2401,Southeast 11th Street,76067,32.8012165,-98.0902890
2111,Southeast 21st Road,76067,32.7932550,-98.0927880
1909,Southeast 14th Street,76067,32.7980900,-98.0955115
1802,Lamar Street,76067,32.7997085,-98.0970695
2703,North Murco Drive,76067,32.8042390,-98.0871635
1401,Southeast 22nd Avenue,76067,32.7997275,-98.0912765
2007,Southeast 12th Street,76067,32.8001400,-98.0930450
1808,Southeast 22nd Avenue,76067,32.7945160,-98.0914105
1909,Southeast 10th Street,76067,32.8018005,-98.0944140
1702,Southeast 11th Street,76067,32.8004900,-98.0978880
2105,Southeast 21st Road,76067,32.7933850,-98.0926290
1901,Southeast 11th Street,76067,32.8009420,-98.0964840
2015,Southeast 12th Street,76067,32.8001468,-98.0917365
2007,Southeast 11th Street,76067,32.8009645,-98.0930355
504,Southeast 27th Avenue,76067,32.8066115,-98.0862510
2903,Southeast 5th Street,76067,32.8073320,-98.0845480
2013,Southeast 12th Street,76067,32.8001602,-98.0920486
2200,Southeast 10th Street,76067,32.8013480,-98.0920635
1710,Southeast 11th Street,76067,32.8005535,-98.0973770
1804,Southeast 20th Street,76067,32.7935785,-98.0955105
1600,Southeast Park Road,76067,32.7945045,-98.0988375
1915,Southeast 15th Avenue,76067,32.7942935,-98.0989175
1912,Southeast 11th Street,76067,32.8005900,-98.0950865
2200,Southeast 25th Avenue,76067,32.7926840,-98.0886660
2105,Southeast 22nd Avenue,76067,32.7933785,-98.0909695
1501,Southeast 23rd Avenue,76067,32.7989235,-98.0903440
1916,Southeast 20th Street,76067,32.7939060,-98.0934895
1805,Southeast 14th Street,76067,32.7975275,-98.0968915
2503,Baylor Street,76067,32.7980330,-98.0890350
1906,Southeast 15th Avenue,76067,32.7945720,-98.0993100
1507,Southeast 23rd Avenue,76067,32.7980885,-98.0903210
2007,Southeast 21st Street,76067,32.7931810,-98.0939470
2001,Southeast 12th Street,76067,32.8001575,-98.0940205
1509,Southeast 18th Street,76067,32.7952480,-98.0993235
1907,Southeast 10th Street,76067,32.8017645,-98.0947085
1804,Southeast 10th Street,76067,32.8014115,-98.0959845
2906,Southeast 6th Street,76067,32.8061175,-98.0842630
1810,Southeast 20th Street,76067,32.7935945,-98.0951120
1800,Southeast 15th Street,76067,32.7963100,-98.0965695
1708,Southeast 15th Street,76067,32.7961645,-98.0972300
1902,Southeast 10th Street,76067,32.8013770,-98.0949205
1608,Southeast 24th Avenue,76067,32.7966160,-98.0898945
2404,Southeast 10th Street,76067,32.8015335,-98.0896135
1601,Southeast 23rd Avenue,76067,32.7974870,-98.0903150
1605,Southeast 23rd Avenue,76067,32.7969140,-98.0903275
140,Garrett Morris Parkway,76067,32.8096235,-98.0853060
2105,Southeast 10th Street,76067,32.8017970,-98.0923695
1801,Southeast 15th Street,76067,32.7967110,-98.0966995
1915,Southeast 18th Street,76067,32.7960590,-98.0945635
1508,Southeast 23rd Avenue,76067,32.7978120,-98.0907820
2200,Southeast 26th Avenue,76067,32.7926665,-98.0877905
1706,Southeast 11th Street,76067,32.8005560,-98.0976440
2100,Southeast 15th Avenue,76067,32.7935250,-98.0994140
2115,Southeast 21st Road,76067,32.7931200,-98.0929985
2002,Southeast 23rd Avenue,76067,32.7942235,-98.0904890
2103,Southeast 25th Avenue,76067,32.7938150,-98.0881530
2000,Southeast 17th Avenue,76067,32.7945585,-98.0964200
1917,Southeast 15th Street,76067,32.7970275,-98.0951185
1700,Southeast 15th Street,76067,32.7960850,-98.0978815
2116,Southeast 19th Street,76067,32.7949380,-98.0923525
2011,Southeast 11th Street,76067,32.8009770,-98.0923800
2502,Southeast 14th Street,76067,32.7991715,-98.0890370
1701,Southeast 12th Street,76067,32.7990780,-98.0979015
2106,Southeast 26th Avenue,76067,32.7934165,-98.0877370
1804,Southeast 14th Street,76067,32.7970835,-98.0969440
1803,Southeast 22nd Avenue,76067,32.7953850,-98.0909205
1903,Southeast 22nd Avenue,76067,32.7948065,-98.0909665
2116,Southeast 21st Road,76067,32.7932895,-98.0935720
1802,Southeast 10th Street,76067,32.8015350,-98.0962060
610,Southeast 28th Avenue,76067,32.8060940,-98.0853670
2000,Southeast 19th Street,76067,32.7948875,-98.0938715
1701,Southeast 11th Street,76067,32.8009670,-98.0979080
2603,Southeast 4th Street,76067,32.8073290,-98.0874000
1804,Southeast 18th Street,76067,32.7954240,-98.0958850
603,Southeast 26th Avenue,76067,32.8058655,-98.0867155
1601,Southeast 24th Avenue,76067,32.7976635,-98.0893935
1801,Southeast 26th Avenue,76067,32.7951360,-98.0872600
1705,Southeast 21st Street,76067,32.7931470,-98.0973650
1808,Southeast 21st Street,76067,32.7927330,-98.0952260
2402,Southeast 9th Street,76067,32.8022520,-98.0899615
1801,Southeast 23rd Avenue,76067,32.7955945,-98.0900230
2902,South Murco Drive,76067,32.8030865,-98.0856155
1904,Southeast 20th Street,76067,32.7936675,-98.0943200
505,Harvey Road,76067,32.7892180,-98.0622440
1503,Southeast 22nd Avenue,76067,32.7986555,-98.0912980
2910,Southeast 6th Street,76067,32.8062680,-98.0838560
1903,Southeast 12th Street,76067,32.7996780,-98.0963250
1705,Southeast Park Road,76067,32.7940240,-98.0971815
2907,Southeast 6th Street,76067,32.8065480,-98.0842745
409,Southeast 27th Avenue,76067,32.8071185,-98.0858195
1802,Southeast 24th Avenue,76067,32.7953410,-98.0895575
2506,Southeast 10th Street,76067,32.8015130,-98.0883085
2001,Southeast 20th Street,76067,32.7943040,-98.0936100
3001,South Murco Drive,76067,32.8033230,-98.0840475
605,Southeast 28th Avenue,76067,32.8065800,-98.0848375
1701,Southeast 13th Street,76067,32.7981930,-98.0978585
1901,Southeast 20th Street,76067,32.7940310,-98.0946250
2001,Southeast 24th Avenue,76067,32.7944280,-98.0890905
1803,Southeast 24th Avenue,76067,32.7953400,-98.0890825
1802,Southeast 22nd Avenue,76067,32.7953790,-98.0913770
1507,Southeast 22nd Avenue,76067,32.7980790,-98.0912960
2005,Southeast 21st Avenue,76067,32.7947965,-98.0918865
2005,Southeast 22nd Avenue,76067,32.7939380,-98.0909555
2911,Southeast 5th Street,76067,32.8073210,-98.0837045
600,Southeast 27th Avenue,76067,32.8061010,-98.0862525
505,Southeast 27th Avenue,76067,32.8065845,-98.0858140
2115,Southeast 14th Avenue,76067,32.7931600,-98.1000945
1713,Southeast 18th Street,76067,32.7956245,-98.0968925
707,East Murco Drive,76067,32.8048470,-98.0827685
2003,Southeast 24th Avenue,76067,32.7942225,-98.0890865
2102,Southeast 10th Street,76067,32.8014115,-98.0927085
1810,Southeast 21st Street,76067,32.7927355,-98.0950345
2100,Southeast 23rd Avenue,76067,32.7936545,-98.0905105
2140,Southeast 21st Road,76067,32.7939050,-98.0926405
1700,Southeast 22nd Avenue,76067,32.7961985,-98.0913740
2116,Southeast 18th Street,76067,32.7957740,-98.0923530
1815,Southeast 19th Street,76067,32.7951080,-98.0951905
2108,Southeast 18th Street,76067,32.7957615,-98.0927865
3008,South Murco Drive,76067,32.8026550,-98.0831695
2005,Southeast 21st Street,76067,32.7931490,-98.0941270
2103,Southeast 10th Street,76067,32.8017840,-98.0926555
2303,Southeast 10th Street,76067,32.8019220,-98.0908810
2104,Southeast 23rd Avenue,76067,32.7930830,-98.0905215
502,Southeast 26th Avenue,76067,32.8067685,-98.0871515
1503,Southeast 23rd Avenue,76067,32.7986460,-98.0903465
1512,Southeast 21st Street,76067,32.7927855,-98.0995820
1900,Southeast 19th Street,76067,32.7947650,-98.0948925
2503,Southeast 10th Street,76067,32.8019140,-98.0889555
2507,Baylor Street,76067,32.7980330,-98.0883540
713,East Murco Drive,76067,32.8040915,-98.0824715
2104,Southeast 26th Avenue,76067,32.7936055,-98.0877370
1803,Southeast 21st Street,76067,32.7931435,-98.0957130
1911,Southeast 15th Street,76067,32.7968965,-98.0957105
2811,North Murco Drive,76067,32.8053350,-98.0854310
2008,Southeast 21st Avenue,76067,32.7945150,-98.0923385
1805,Southeast 22nd Avenue,76067,32.7950730,-98.0909330
1607,Southeast 18th Street,76067,32.7953730,-98.0982115
2505,Southeast 15th Street,76067,32.7988250,-98.0886970
2305,Southeast 9th Street,76067,32.8026720,-98.0905805
1915,Southeast 21st Street,76067,32.7931200,-98.0945125
606,Southeast 28th Avenue,76067,32.8064460,-98.0853465
709,East Murco Drive,76067,32.8045835,-98.0826725
1901,Southeast 14th Street,76067,32.7976050,-98.0963970
2004,Southeast 10th Street,76067,32.8013980,-98.0936960
1910,Southeast 11th Street,76067,32.8006045,-98.0953535
501,Southeast 26th Avenue,76067,32.8069485,-98.0867060
2003,Southeast 10th Street,76067,32.8017860,-98.0935415
2501,Southeast 14th Street,76067,32.7995775,-98.0893550
1908,Southeast 18th Street,76067,32.7956330,-98.0947365
1915,Southeast 11th Street,76067,32.8009790,-98.0945335
1610,Southeast 21st Street,76067,32.7927470,-98.0981985
1806,Southeast 12th Street,76067,32.7989520,-98.0965595
2501,Southeast 15th Street,76067,32.7987870,-98.0893960
2003,Southeast 26th Avenue,76067,32.7941835,-98.0872880
1403,Southeast 23rd Avenue,76067,32.7994875,-98.0903150
2003,Southeast 12th Street,76067,32.8001660,-98.0937130
1917,Southeast 14th Street,76067,32.7984525,-98.0945475
2006,Southeast 11th Street,76067,32.8006065,-98.0933515
1500,Southeast 23rd Avenue,76067,32.7989110,-98.0907845
509,Southeast 27th Avenue,76067,32.8062535,-98.0858075
1900,Southeast 12th Street,76067,32.7991110,-98.0963600
1915,Southeast 21st Avenue,76067,32.7952685,-98.0918815
1616,Southeast Park Road,76067,32.7939110,-98.0977590
1702,Lamar Street,76067,32.7996240,-98.0976280
1805,Southeast 12th Street,76067,32.7993035,-98.0969335
2010,Southeast 21st Street,76067,32.7928135,-98.0938245
2100,Southeast 25th Avenue,76067,32.7940120,-98.0886355
1804,Southeast 13th Street,76067,32.7979665,-98.0967610
2012,Southeast 18th Street,76067,32.7957505,-98.0935815
2703,Hilley Drive,76067,32.8024645,-98.0860850
1617,Southeast Park Road,76067,32.7943290,-98.0970065
605,Southeast 26th Avenue,76067,32.8056825,-98.0867070
2503,Southeast 9th Street,76067,32.8026570,-98.0889410
2107,Southeast 10th Street,76067,32.8017950,-98.0920690
700,Michael Lane,76067,32.8038415,-98.0863395
2016,Southeast 15th Avenue,76067,32.7936870,-98.0994050
1905,Southeast 11th Street,76067,32.8009600,-98.0959445
2015,Southeast 15th Avenue,76067,32.7937920,-98.0989880
1702,Southeast 15th Street,76067,32.7961075,-98.0976660
1911,Southeast 11th Street,76067,32.8009864,-98.0951583
2008,Southeast 15th Avenue,76067,32.7938520,-98.0993725
506,Southeast 26th Avenue,76067,32.8064130,-98.0871530
2000,Southeast 18th Street,76067,32.7957300,-98.0941585
2605,Southeast 4th Street,76067,32.8073145,-98.0871780
2110,Southeast 24th Avenue,76067,32.7930390,-98.0895815
2302,Southeast 11th Street,76067,32.8008175,-98.0909300
900,Southeast 16th Avenue,76067,32.8026935,-98.0983790
2502,Southeast 11th Street,76067,32.8007815,-98.0889910
1912,Southeast 19th Street,76067,32.7948715,-98.0943045
1801,Southeast 22nd Avenue,76067,32.7956385,-98.0909405
2011,Southeast 17th Avenue,76067,32.7941855,-98.0959715
1811,Southeast 18th Street,76067,32.7958605,-98.0957275
1106,Southeast 16th Avenue,76067,32.8008765,-98.0983745
1708,Southeast 18th Street,76067,32.7951930,-98.0971260
1700,Southeast 24th Avenue,76067,32.7961965,-98.0895115
2301,Southeast 10th Street,76067,32.8019375,-98.0912135
2003,Southeast 19th Street,76067,32.7952730,-98.0937785
1609,Southeast 24th Avenue,76067,32.7966125,-98.0893640
2906,Michael Lane,76067,32.8046370,-98.0835415
1813,Southeast 21st Street,76067,32.7931280,-98.0947110
1908,Southeast 12th Street,76067,32.7995860,-98.0954740
1505,Southeast 16th Avenue,76067,32.7965100,-98.0978305
2505,Baylor Street,76067,32.7980590,-98.0887005
2500,Southeast 9th Street,76067,32.8022685,-98.0892660
2115,Southeast 17th Avenue,76067,32.7931430,-98.0959530
2811,Michael Lane,76067,32.8045515,-98.0851380
1901,Southeast 19th Street,76067,32.7951400,-98.0949895
1603,Southeast Park Road,76067,32.7946370,-98.0982335
2900,South Murco Drive,76067,32.8031065,-98.0859230
1812,Southeast 19th Street,76067,32.7946880,-98.0952830
1902,Southeast 12th Street,76067,32.7992465,-98.0961295
2808,Michael Lane,76067,32.8041790,-98.0848375
1802,Southeast 20th Street,76067,32.7935700,-98.0957075
2703,South Murco Drive,76067,32.8037025,-98.0867715
2604,Hilley Drive,76067,32.8019320,-98.0868775
2101,Southeast 22nd Avenue,76067,32.7936600,-98.0909650
1915,Southeast 12th Street,76067,32.8001540,-98.0948265
2100,Southeast 22nd Avenue,76067,32.7936625,-98.0914360
2401,Southeast 9th Street,76067,32.8027060,-98.0902530
2803,Southeast 5th Street,76067,32.8073490,-98.0849640
1515,Southeast 18th Street,76067,32.7950815,-98.0988890
1609,Southeast Park Road,76067,32.7946385,-98.0975525
1404,Southeast 24th Avenue,76067,32.7992020,-98.0898510
1708,Southeast 21st Street,76067,32.7927585,-98.0970165
1801,Southeast 25th Avenue,76067,32.7954650,-98.0881530
1704,Southeast 21st Street,76067,32.7927655,-98.0974185
1808,Southeast 18th Street,76067,32.7954600,-98.0956885
1701,Southeast 18th Street,76067,32.7954935,-98.0976540
1800,Southeast 22nd Avenue,76067,32.7956470,-98.0913695
608,Southeast 28th Avenue,76067,32.8062645,-98.0853350
1712,Southeast Park Road,76067,32.7935395,-98.0967145
2001,Southeast 17th Avenue,76067,32.7945640,-98.0959670
1804,Southeast 22nd Avenue,76067,32.7950570,-98.0914050
1705,Southeast Airport Road,76067,32.7959680,-98.0873400
1511,Southeast 18th Street,76067,32.7951775,-98.0991230
2404,Southeast 9th Street,76067,32.8022690,-98.0896065
1804,Lamar Street,76067,32.7998085,-98.0968280
2500,Southeast 11th Street,76067,32.8008095,-98.0893290
2302,Southeast 9th Street,76067,32.8022945,-98.0909385
2904,Southeast 6th Street,76067,32.8060545,-98.0844210
1902,Southeast 25th Avenue,76067,32.7947695,-98.0886065
2911,North Murco Drive,76067,32.8059125,-98.0836330
1916,Southeast 14th Street,76067,32.7979850,-98.0945580
1700,Southeast 12th Street,76067,32.7986510,-98.0978570
2105,Southeast 19th Street,76067,32.7952960,-98.0927875
2107,Southeast 23rd Avenue,76067,32.7930930,-98.0900165
2304,Southeast 9th Street,76067,32.8022885,-98.0905455
2505,Southeast 14th Street,76067,32.7995400,-98.0886255
1604,Southeast 23rd Avenue,76067,32.7969385,-98.0907885
1707,Southeast 10th Street,76067,32.8024990,-98.0970540
1803,Southeast 26th Avenue,76067,32.7949325,-98.0872800
1700,Lamar Street,76067,32.7996385,-98.0978865
2901,South Murco Drive,76067,32.8035195,-98.0858810
2012,Southeast 20th Street,76067,32.7946720,-98.0929180
1907,Southeast 20th Street,76067,32.7940730,-98.0942320
2009,Southeast 21st Avenue,76067,32.7944450,-98.0918825
2006,Southeast 10th Street,76067,32.8014050,-98.0933555
603,Southeast 28th Avenue,76067,32.8067650,-98.0848450
601,Southeast 25th Avenue,76067,32.8059960,-98.0876315
1603,Southeast 22nd Avenue,76067,32.7971930,-98.0912990
2807,Hilley Drive,76067,32.8021885,-98.0854035
2105,Southeast 14th Avenue,76067,32.7935000,-98.1000915
1904,Southeast 19th Street,76067,32.7947285,-98.0947040
1806,Southeast 15th Street,76067,32.7964260,-98.0959930
2101,Southeast 17th Avenue,76067,32.7935880,-98.0959440
1504,Southeast 24th Avenue,76067,32.7986330,-98.0898600
501,Southeast 25th Avenue,76067,32.8069645,-98.0876085
1605,Southeast Park Road,76067,32.7945300,-98.0980505
3007,South Murco Drive,76067,32.8030535,-98.0829935
2105,Southeast 25th Avenue,76067,32.7936095,-98.0881595
1616,Southeast 21st Street,76067,32.7927650,-98.0978075
509,Southeast 26th Avenue,76067,32.8062240,-98.0867070
2107,Southeast 25th Avenue,76067,32.7934170,-98.0881625
1913,Southeast 12th Street,76067,32.8001085,-98.0950840
2905,Southeast 6th Street,76067,32.8065345,-98.0844825
1906,Southeast 14th Street,76067,32.7974790,-98.0956455
2104,Southeast 18th Street,76067,32.7957525,-98.0929970
2016,Southeast 17th Avenue,76067,32.7940040,-98.0964550
2001,Southeast 21st Street,76067,32.7931335,-98.0943190
2011,Southeast 12th Street,76067,32.8001759,-98.0923864
1402,Southeast 24th Avenue,76067,32.7994850,-98.0898265
1900,Southeast 13th Street,76067,32.7981585,-98.0962740
1606,Southeast 23rd Avenue,76067,32.7966365,-98.0907895
2500,Southeast 10th Street,76067,32.8015580,-98.0892675
1800,Lamar Street,76067,32.7996520,-98.0973555
1615,Southeast Park Road,76067,32.7945090,-98.0969950
2009,Southeast 11th Street,76067,32.8010080,-98.0927100
1505,Southeast 23rd Avenue,76067,32.7983950,-98.0903270
2905,South Murco Drive,76067,32.8037205,-98.0852305
2904,North Murco Drive,76067,32.8051480,-98.0845060
502,Southeast 27th Avenue,76067,32.8067850,-98.0862515
2111,Southeast 21st Street,76067,32.7930765,-98.0926670
2101,Southeast 19th Street,76067,32.7953060,-98.0929970
1604,Southeast 24th 1/2 Avenue,76067,32.7971820,-98.0890075
2005,Southeast 14th Avenue,76067,32.7941570,-98.1000670
702,Michael Lane,76067,32.8040475,-98.0861895
3001,North Murco Drive,76067,32.8059865,-98.0833655
705,East Murco Drive,76067,32.8050810,-98.0828830
2911,Southeast 6th Street,76067,32.8067215,-98.0837320
1915,Southeast 20th Street,76067,32.7941965,-98.0938000
2505,Southeast 11th Street,76067,32.8011635,-98.0886450
1806,Southeast 22nd Avenue,76067,32.7947935,-98.0914170
1806,Southeast 10th Street,76067,32.8013045,-98.0957540
2015,Southeast 11th Street,76067,32.8009955,-98.0917725
2501,Southeast 10th Street,76067,32.8019235,-98.0892875
1615,Southeast 18th Street,76067,32.7954415,-98.0978415
2111,Southeast 14th Avenue,76067,32.7933320,-98.1000770
2500,Southeast 14th Street,76067,32.7991630,-98.0893680
2705,Hilley Drive,76067,32.8025350,-98.0856380
2010,Southeast 11th Street,76067,32.8006315,-98.0927130
1909,Southeast 13th Street,76067,32.7990560,-98.0955975
1700,Goodwin Drive,76067,32.8013530,-98.0978950
606,Southeast 26th Avenue,76067,32.8055205,-98.0871875
1706,Goodwin Drive,76067,32.8013955,-98.0970455
2802,Michael Lane,76067,32.8039460,-98.0856430
604,Southeast 26th Avenue,76067,32.8057200,-98.0871525
1310,Southeast 19th Avenue,76067,32.7992700,-98.0945580
2808,North Murco Drive,76067,32.8049190,-98.0853685
1706,Southeast 10th Street,76067,32.8019770,-98.0970710
1911,Southeast 13th Street,76067,32.7992040,-98.0953045
1803,Southeast 14th Street,76067,32.7974530,-98.0971355
1802,Southeast 21st Street,76067,32.7927420,-98.0958175
2107,Southeast 26th Avenue,76067,32.7934120,-98.0873160
1607,Southeast 22nd Avenue,76067,32.7967165,-98.0912080
1709,Southeast 21st Street,76067,32.7931325,-98.0969585
2100,Southeast 19th Street,76067,32.7949200,-98.0928755
1913,Southeast 11th Street,76067,32.8009457,-98.0948508
2011,Southeast 14th Avenue,76067,32.7939995,-98.1000715
2016,Southeast 11th Street,76067,32.8006315,-98.0917605
1807,Southeast 13th Street,76067,32.7984475,-98.0966350
2000,Southeast 15th Avenue,76067,32.7940165,-98.0993630
606,Southeast 27th Avenue,76067,32.8055655,-98.0862565
1905,Southeast 12th Street,76067,32.7997755,-98.0961015
2011,Southeast 19th Street,76067,32.7952835,-98.0933870
1910,Southeast 20th Street,76067,32.7937365,-98.0938985
1703,Southeast 18th Street,76067,32.7955285,-98.0974685
1508,Southeast 18th Street,76067,32.7949035,-98.0996110
2400,Southeast 11th Street,76067,32.8008000,-98.0902730
2013,Southeast 11th Street,76067,32.8009775,-98.0920570
1600,Southeast 24th Avenue,76067,32.7978005,-98.0898550
1601,Southeast 21st Street,76067,32.7931795,-98.0989550
601,Southeast 26th Avenue,76067,32.8060470,-98.0867070
2305,Southeast 11th Street,76067,32.8011990,-98.0905990
2128,Southeast 21st Road,76067,32.7935690,-98.0930790
2015,Southeast 14th Avenue,76067,32.7938340,-98.1000730
1800,Southeast 13th Street,76067,32.7978560,-98.0973435
2001,Southeast 26th Avenue,76067,32.7943795,-98.0873080
2015,Southeast 21st Street,76067,32.7932335,-98.0937595
1502,Southeast 24th Avenue,76067,32.7989160,-98.0898295
2109,Southeast 26th Avenue,76067,32.7932190,-98.0872865
2104,Southeast 24th Avenue,76067,32.7936645,-98.0895625
2208,Southeast 21st Street,76067,32.7927290,-98.0917480
508,Southeast 26th Avenue,76067,32.8062360,-98.0871415
1400,Southeast 23rd Avenue,76067,32.7997425,-98.0907655
2100,Southeast 24th Avenue,76067,32.7941165,-98.0895490
1509,Southeast 22nd Avenue,76067,32.7978000,-98.0912900
1500,Southeast 21st Street,76067,32.7927945,-98.1001625
2113,Southeast 25th Avenue,76067,32.7930280,-98.0881255
1806,Southeast 21st Street,76067,32.7927470,-98.0954190
1816,Southeast 20th Street,76067,32.7936075,-98.0946980
1302,Southeast 23rd Avenue,76067,32.8000690,-98.0907705
2120,Southeast 21st Road,76067,32.7933705,-98.0934050
1700,Southeast 18th Street,76067,32.7951055,-98.0975155
2202,Southeast 10th Street,76067,32.8013555,-98.0917590
2914,Southeast 6th Street,76067,32.8063805,-98.0834490
1504,Southeast 23rd Avenue,76067,32.7983555,-98.0907805
1801,Southeast 10th Street,76067,32.8021835,-98.0965630
1903,Southeast 11th Street,76067,32.8009655,-98.0962145
1803,Southeast 15th Street,76067,32.7967540,-98.0965015
1509,Southeast 23rd Avenue,76067,32.7978195,-98.0903305
1716,Southeast 11th Street,76067,32.8005470,-98.0968580
2007,Southeast 18th Street,76067,32.7961355,-98.0939170
1608,Southeast Park Road,76067,32.7942080,-98.0982750
1907,Southeast 19th Street,76067,32.7952115,-98.0946095
1918,Southeast 15th Street,76067,32.7966490,-98.0950650
1703,Southeast 14th Street,76067,32.7973855,-98.0976230
1808,Southeast 20th Street,76067,32.7935800,-98.0953225
2003,Southeast 23rd Avenue,76067,32.7942375,-98.0900025
1915,Southeast 17th Avenue,76067,32.7949785,-98.0960325
1604,Southeast 24th Avenue,76067,32.7971810,-98.0898230
3100,South Murco Drive,76067,32.8025730,-98.0819195
1803,Southeast 23rd Avenue,76067,32.7953460,-98.0900185
1807,Southeast 19th Street,76067,32.7950410,-98.0955735
2101,Southeast 15th Avenue,76067,32.7936220,-98.0989515
1802,Southeast 15th Street,76067,32.7963595,-98.0963785
1704,Goodwin Drive,76067,32.8013425,-98.0973465
2105,Southeast 24th Avenue,76067,32.7936090,-98.0891185
1802,Southeast 12th Street,76067,32.7987595,-98.0970705
1900,Southeast 18th Street,76067,32.7955745,-98.0951020
1907,Southeast 12th Street,76067,32.7998710,-98.0958525
2100,Southeast 21st Street,76067,32.7927580,-98.0933205
1900,Southeast 23rd Avenue,76067,32.7950825,-98.0904865
1705,Southeast 10th Street,76067,32.8026060,-98.0972885
1901,Southeast 21st Avenue,76067,32.7957840,-98.0918965
2601,Southeast 4th Street,76067,32.8073680,-98.0876260
1905,Southeast 14th Street,76067,32.7978225,-98.0959620
2904,Southeast 5th Street,76067,32.8068980,-98.0842935
3005,South Murco Drive,76067,32.8030630,-98.0833960
2103,Southeast 24th Avenue,76067,32.7938065,-98.0891105
2201,Southeast 26th Avenue,76067,32.7926355,-98.0872865
2913,Southeast 6th Street,76067,32.8069365,-98.0836885
604,Southeast 27th Avenue,76067,32.8057625,-98.0862560
1303,Southeast 23rd Avenue,76067,32.8000485,-98.0903245
2008,Southeast 11th Street,76067,32.8006105,-98.0930400
1512,Southeast 18th Street,76067,32.7948775,-98.0994120
2908,Michael Lane,76067,32.8047390,-98.0832745
1807,Southeast 12th Street,76067,32.7994170,-98.0967215
509,Southeast 25th Avenue,76067,32.8061890,-98.0876235
2504,Southeast 11th Street,76067,32.8007735,-98.0886655
2909,North Murco Drive,76067,32.8058445,-98.0839010
2804,North Murco Drive,76067,32.8047950,-98.0858875
1505,Southeast 22nd Avenue,76067,32.7983430,-98.0913250
1902,Southeast 14th Street,76067,32.7972240,-98.0961570
1910,Southeast 17th Avenue,76067,32.7949000,-98.0965150
1903,Southeast 18th Street,76067,32.7959495,-98.0951265
1807,Southeast 10th Street,76067,32.8018240,-98.0958655
1911,Southeast 19th Street,76067,32.7952500,-98.0944095
1815,Southeast 20th Street,76067,32.7939925,-98.0948655
2101,Southeast 26th Avenue,76067,32.7939895,-98.0872825
2908,Stan Terrace,76067,32.8039505,-98.0829425
603,Southeast 25th Avenue,76067,32.8058000,-98.0876675
3014,South Murco Drive,76067,32.8026145,-98.0822345
1801,Southeast 24th Avenue,76067,32.7956350,-98.0890935
2807,North Murco Drive,76067,32.8052060,-98.0859530
1903,Southeast 10th Street,76067,32.8017380,-98.0953025
2907,Stan Terrace,76067,32.8042645,-98.0835025
1800,Southeast 24th Avenue,76067,32.7956265,-98.0895530
1703,Lamar Street,76067,32.8000360,-98.0976170
2704,North Murco Drive,76067,32.8044005,-98.0865910
1811,Southeast 19th Street,76067,32.7950675,-98.0953930
1800,Southeast 12th Street,76067,32.7987225,-98.0973330
602,Southeast 27th Avenue,76067,32.8059340,-98.0862475
2000,Southeast 10th Street,76067,32.8013500,-98.0940120
501,Southeast 27th Avenue,76067,32.8069215,-98.0857820
2115,Southeast 18th Street,76067,32.7961570,-98.0922755
2909,Michael Lane,76067,32.8051710,-98.0833815
1901,Southeast 26th Avenue,76067,32.7947560,-98.0872625
2800,South Murco Drive,76067,32.8032175,-98.0864810
1902,Southeast 13th Street,76067,32.7982730,-98.0960505
500,Southeast 27th Avenue,76067,32.8069580,-98.0862485
2503,Southeast 13th Street,76067,32.8002850,-98.0890320
1800,Southeast 21st Street,76067,32.7927400,-98.0960335
1903,Southeast 13th Street,76067,32.7986420,-98.0961920
1702,Southeast 10th Street,76067,32.8022530,-98.0975615
2116,Southeast 15th Avenue,76067,32.7931460,-98.0994330
2502,Southeast 15th Street,76067,32.7984380,-98.0890245
2109,Southeast 24th Avenue,76067,32.7932260,-98.0891005
1805,Southeast 13th Street,76067,32.7983575,-98.0968560
600,Southeast 26th Avenue,76067,32.8060600,-98.0871715
1703,Southeast 25th Avenue,76067,32.7957380,-98.0881450
2200,Southeast 23rd Avenue,76067,32.7926635,-98.0904975
2707,North Murco Drive,76067,32.8046775,-98.0869615
1811,Southeast 20th Street,76067,32.7939870,-98.0950660
2403,Southeast 9th Street,76067,32.8026675,-98.0899285
2004,Southeast 22nd Avenue,76067,32.7939465,-98.0914175
2400,Southeast 10th Street,76067,32.8015345,-98.0902640
2104,Southeast 10th Street,76067,32.8013860,-98.0923820
1901,Southeast 10th Street,76067,32.8017520,-98.0955935
503,Southeast 25th Avenue,76067,32.8067795,-98.0876195
1801,Lamar Street,76067,32.8000635,-98.0972780
2305,Southeast 10th Street,76067,32.8019235,-98.0905845
1900,Lamar Street,76067,32.7999535,-98.0966040
1800,Southeast 10th Street,76067,32.8016375,-98.0964370
1908,Southeast 21st Street,76067,32.7927400,-98.0948370
2802,Hilley Drive,76067,32.8018025,-98.0857030
2201,Southeast 23rd Avenue,76067,32.7926695,-98.0900345
1912,Southeast 13th Street,76067,32.7988430,-98.0949970
2008,Southeast 19th Street,76067,32.7948890,-98.0936555
2103,Southeast 26th Avenue,76067,32.7937965,-98.0873050
2809,North Murco Drive,76067,32.8052485,-98.0857045
1904,Southeast 11th Street,76067,32.8005890,-98.0961260
2402,Southeast 11th Street,76067,32.8007940,-98.0899515
1901,Southeast 23rd Avenue,76067,32.7950640,-98.0900135
2400,Southeast 9th Street,76067,32.8022645,-98.0902660
2303,Southeast 11th Street,76067,32.8011885,-98.0909130
2301,Southeast 14th Avenue,76067,32.7924205,-98.1000925
2009,Southeast 12th Street,76067,32.8001530,-98.0927385
2907,North Murco Drive,76067,32.8057640,-98.0841760
2104,Southeast 21st Street,76067,32.7927165,-98.0929190
800,Southeast 16th Avenue,76067,32.8035415,-98.0979160
2106,Southeast 25th Avenue,76067,32.7934215,-98.0886520
1903,Southeast 26th Avenue,76067,32.7945650,-98.0872790
1303,Southeast 22nd Avenue,76067,32.8000780,-98.0912455
1917,Southeast 12th Street,76067,32.8001670,-98.0945245
2010,Southeast 21st Avenue,76067,32.7943535,-98.0923325
1915,Southeast 14th Street,76067,32.7984130,-98.0947800
2107,Southeast 17th Avenue,76067,32.7933725,-98.0959625
2602,South Murco Drive,76067,32.8033810,-98.0873150
2006,Southeast 17th Avenue,76067,32.7943965,-98.0964280
1602,Southeast 23rd Avenue,76067,32.7971990,-98.0908045
703,North Murco Drive,76067,32.8041800,-98.0867280
1708,Southeast 10th Street,76067,32.8018630,-98.0969070
1712,Southeast 21st Street,76067,32.7927280,-98.0966330
1704,Southeast Park Road,76067,32.7937375,-98.0974025
1606,Southeast 21st Street,76067,32.7927675,-98.0985965
2302,Southeast 10th Street,76067,32.8015520,-98.0909180
2107,Southeast 22nd Avenue,76067,32.7930720,-98.0909580
904,Southeast 16th Avenue,76067,32.8021870,-98.0984060
1507,Southeast 18th Street,76067,32.7952920,-98.0995270
1607,Southeast 21st Street,76067,32.7934310,-98.0984465
1701,Southeast 14th Street,76067,32.7973670,-98.0978790
1809,Southeast 21st Avenue,76067,32.7961085,-98.0918515
2001,Southeast 22nd Avenue,76067,32.7945095,-98.0909360
2501,Baylor Street,76067,32.7981035,-98.0893620
2403,Southeast 10th Street,76067,32.8019290,-98.0899495
602,Southeast 26th Avenue,76067,32.8058780,-98.0871475
1800,Southeast 23rd Avenue,76067,32.7956135,-98.0904610
1900,Southeast 26th Avenue,76067,32.7950635,-98.0877440
2102,Southeast 22nd Avenue,76067,32.7933825,-98.0914390
604,Southeast 28th Avenue,76067,32.8066285,-98.0853365
2603,Hilley Drive,76067,32.8025355,-98.0871760
715,East Murco Drive,76067,32.8038490,-98.0823555
1612,Southeast 18th Street,76067,32.7950215,-98.0978700
1901,Southeast 18th Street,76067,32.7959260,-98.0953380
2405,Southeast 11th Street,76067,32.8011795,-98.0896375
1808,Southeast 14th Street,76067,32.7971650,-98.0964140
2000,Southeast 25th Avenue,76067,32.7944425,-98.0886345
2012,Southeast 21st Street,76067,32.7928005,-98.0935425
2015,Southeast 21st Avenue,76067,32.7940520,-98.0919015
711,East Murco Drive,76067,32.8043460,-98.0825765
1900,Southeast 17th Avenue,76067,32.7952850,-98.0966430
2103,Southeast 23rd Avenue,76067,32.7936505,-98.0900270
1605,Southeast 18th Street,76067,32.7952815,-98.0984135
705,Michael Lane,76067,32.8037905,-98.0858300
701,East Murco Drive,76067,32.8056060,-98.0829975
1702,Southeast Park Road,76067,32.7937975,-98.0975890
1613,Southeast 21st Street,76067,32.7935850,-98.0979270
2800,Hilley Drive,76067,32.8018985,-98.0861275
1703,Southeast 12th Street,76067,32.7990905,-98.0976255
507,Southeast 26th Avenue,76067,32.8064000,-98.0867125
1804,Southeast 19th Street,76067,32.7946240,-98.0956790
607,Southeast 26th Avenue,76067,32.8054915,-98.0866925
1809,Southeast 21st Street,76067,32.7931190,-98.0951190
1904,Southeast 12th Street,76067,32.7993700,-98.0959440
1605,Southeast 21st Street,76067,32.7931595,-98.0985000
2012,Southeast 21st Avenue,76067,32.7941740,-98.0924415
2906,Southeast 5th Street,76067,32.8069190,-98.0840480
1806,Southeast 13th Street,76067,32.7980525,-98.0965130
503,Southeast 27th Avenue,76067,32.8067490,-98.0857980
2004,Southeast 20th Street,76067,32.7941840,-98.0931500
1916,Southeast 19th Street,76067,32.7948630,-98.0940730
902,Southeast 16th Avenue,76067,32.8024295,-98.0983645
1916,Southeast 21st Street,76067,32.7927275,-98.0944465
2503,Southeast 14th Street,76067,32.7995720,-98.0890435
2802,South Murco Drive,76067,32.8031595,-98.0862090
2901,North Murco Drive,76067,32.8055135,-98.0850175
2800,North Murco Drive,76067,32.8045845,-98.0863980
1916,Southeast 18th Street,76067,32.7956810,-98.0943340
609,Southeast 25th Avenue,76067,32.8052150,-98.0876340
1703,Southeast 10th Street,76067,32.8027400,-98.0975455
2001,Southeast 21st Avenue,76067,32.7949580,-98.0918725
1701,Southeast 10th Street,76067,32.8028920,-98.0978035
1702,Southeast 25th Avenue,76067,32.7959015,-98.0886075
1704,Southeast 10th Street,76067,32.8021045,-98.0973220
1703,Southeast 24th Avenue,76067,32.7959060,-98.0890580
1816,Southeast 18th Street,76067,32.7955600,-98.0953240
1913,Southeast 15th Street,76067,32.7969450,-98.0955065
1603,Southeast 21st Street,76067,32.7931460,-98.0987320
1908,Southeast 13th Street,76067,32.7986435,-98.0954195
1806,Southeast 14th Street,76067,32.7971190,-98.0966755
1907,Southeast 14th Street,76067,32.7979270,-98.0957570
1606,Southeast 24th Avenue,76067,32.7969080,-98.0898320
716,East Murco Drive,76067,32.8036535,-98.0828180
1703,Southeast 11th Street,76067,32.8009265,-98.0975420
1906,Southeast 17th Avenue,76067,32.7950755,-98.0965675
2203,Southeast 10th Street,76067,32.8018105,-98.0917970
503,Southeast 26th Avenue,76067,32.8067560,-98.0867075
1501,Southeast 22nd Avenue,76067,32.7989115,-98.0912820
719,East Murco Drive,76067,32.8033545,-98.0821320
1504,Southeast 18th Street,76067,32.7949640,-98.0997620
1706,Southeast Park Road,76067,32.7936365,-98.0972185
1808,Southeast 19th Street,76067,32.7946555,-98.0954770
2600,Hilley Drive,76067,32.8019605,-98.0876055
2901,Michael Lane,76067,32.8046795,-98.0845690
3009,South Murco Drive,76067,32.8030800,-98.0825935
717,East Murco Drive,76067,32.8035960,-98.0822700
1708,Goodwin Drive,76067,32.8014987,-98.0966687
2008,Southeast 21st Street,76067,32.7927740,-98.0940435
2801,Southeast 5th Street,76067,32.8072500,-98.0852805
1915,Southeast 14th Avenue,76067,32.7944715,-98.1000825
1803,Southeast 12th Street,76067,32.7991975,-98.0971550
2907,South Murco Drive,76067,32.8035465,-98.0848790
1910,Southeast 13th Street,76067,32.7987650,-98.0952295
2507,Southeast 11th Street,76067,32.8011800,-98.0883480
1602,Southeast 24th 1/2 Avenue,76067,32.7974330,-98.0889620
1906,Southeast 11th Street,76067,32.8005820,-98.0958660
2007,Southeast 20th Street,76067,32.7946925,-98.0933410
1301,Southeast 23rd Avenue,76067,32.8003280,-98.0903120
2300,Southeast 11th Street,76067,32.8008175,-98.0912560
1506,Southeast 24th Avenue,76067,32.7983295,-98.0898465
1714,Southeast 11th Street,76067,32.8005560,-98.0971195
2200,Southeast 21st Street,76067,32.7926905,-98.0921415
2605,Hilley Drive,76067,32.8025210,-98.0868465
1903,Southeast 24th Avenue,76067,32.7947835,-98.0890620
2903,Michael Lane,76067,32.8047690,-98.0842710
303,Harvey Road,76067,32.7890660,-98.0640505
1611,Southeast 21st Street,76067,32.7936875,-98.0981360
2108,Southeast 19th Street,76067,32.7949250,-98.0926390
1702,Southeast 24th Avenue,76067,32.7959140,-98.0895265
1603,Southeast 24th Avenue,76067,32.7974020,-98.0893990
1600,Southeast 18th Street,76067,32.7948285,-98.0984780
2603,South Murco Drive,76067,32.8037820,-98.0872690
3003,Southeast 5th Street,76067,32.8073130,-98.0832795
700,Southeast 28th Avenue,76067,32.8059090,-98.0853625
505,Southeast 26th Avenue,76067,32.8065770,-98.0867160
1902,Southeast 24th Avenue,76067,32.7948125,-98.0895395
1922,Southeast 15th Street,76067,32.7966915,-98.0946910
2804,Michael Lane,76067,32.8040450,-98.0854070
2908,Southeast 6th Street,76067,32.8062015,-98.0840700
1901,Southeast 24th Avenue,76067,32.7950505,-98.0890615
1711,Southeast 21st Street,76067,32.7931415,-98.0967600
1610,Southeast Park Road,76067,32.7940950,-98.0981145
1914,Southeast 12th Street,76067,32.7997570,-98.0947750
1609,Southeast 21st Street,76067,32.7935965,-98.0984055
2003,Southeast 11th Street,76067,32.8009710,-98.0936865
2304,Southeast 10th Street,76067,32.8015570,-98.0905955
907,Southeast 16th Avenue,76067,32.8019905,-98.0979135
1508,Southeast 24th Avenue,76067,32.7980690,-98.0898040
602,Southeast 28th Avenue,76067,32.8068075,-98.0853355
2113,Southeast 26th Avenue,76067,32.7930325,-98.0872960
2602,Hilley Drive,76067,32.8019290,-98.0872370
2102,Southeast 26th Avenue,76067,32.7938145,-98.0877505
1919,Southeast 15th Street,76067,32.7970540,-98.0948955
1916,Southeast 17th Avenue,76067,32.7947325,-98.0964745
2810,Michael Lane,76067,32.8042685,-98.0845405
2108,Southeast 25th Avenue,76067,32.7932340,-98.0886430
2702,South Murco Drive,76067,32.8032645,-98.0867600
1709,Southeast Park Road,76067,32.7939590,-98.0967520
1815,Southeast 18th Street,76067,32.7959025,-98.0955440
1606,Southeast Park Road,76067,32.7942885,-98.0984200
1405,Southeast 22nd Avenue,76067,32.7991860,-98.0912845
1715,Southeast 21st Street,76067,32.7931435,-98.0964650
1607,Southeast Park Road,76067,32.7943920,-98.0978220
2502,Southeast 9th Street,76067,32.8022620,-98.0889630
2909,Stan Terrace,76067,32.8043880,-98.0831240
2106,Southeast 24th Avenue,76067,32.7934670,-98.0895810
311,Harvey Road,76067,32.7890820,-98.0636070
1911,Southeast 12th Street,76067,32.8000640,-98.0953490
1601,Southeast 22nd Avenue,76067,32.7974715,-98.0913030
1805,Southeast 20th Street,76067,32.7939755,-98.0956265
1300,Southeast 23rd Avenue,76067,32.8003580,-98.0907780
2111,Southeast 18th Street,76067,32.7961590,-98.0925190
1703,Southeast 15th Street,76067,32.7965395,-98.0975055
1803,Southeast 10th Street,76067,32.8020755,-98.0963415
2015,Southeast 19th Street,76067,32.7953200,-98.0931860
2103,Southeast 21st Avenue,76067,32.7936625,-98.0919280
2109,Southeast 25th Avenue,76067,32.7932260,-98.0881530
504,Southeast 26th Avenue,76067,32.8065880,-98.0871725
2501,Southeast 13th Street,76067,32.8002835,-98.0893215
1608,Southeast 24th 1/2 Avenue,76067,32.7966340,-98.0889590
2101,Southeast 10th Street,76067,32.8017890,-98.0929595
1908,Southeast 11th Street,76067,32.8005720,-98.0956135
1907,Southeast 13th Street,76067,32.7989055,-98.0958155
2101,Southeast 25th Avenue,76067,32.7940210,-98.0881435
2005,Southeast 17th Avenue,76067,32.7943390,-98.0959890
1706,Southeast 21st Street,76067,32.7927435,-98.0972165
2806,Michael Lane,76067,32.8041130,-98.0851255
2132,Southeast 21st Road,76067,32.7936935,-98.0929225
2100,Southeast 10th Street,76067,32.8014030,-98.0930300
1904,Southeast 18th Street,76067,32.7956245,-98.0949265
2105,Southeast 21st Avenue,76067,32.7934820,-98.0919000
1900,Southeast 24th Avenue,76067,32.7950625,-98.0895400
1702,Southeast 23rd Avenue,76067,32.7959320,-98.0904570
1402,Southeast 23rd Avenue,76067,32.7994615,-98.0907870
2105,Southeast 18th Street,76067,32.7961480,-98.0931190
1905,Southeast 13th Street,76067,32.7987735,-98.0959880
1600,Southeast 21st Street,76067,32.7928110,-98.0989930
1908,Southeast 21st Avenue,76067,32.7955575,-98.0923250
2112,Southeast 18th Street,76067,32.7957585,-98.0926040
1710,Southeast 21st Street,76067,32.7927345,-98.0968365
1606,Southeast 24th 1/2 Avenue,76067,32.7968780,-98.0890050
2102,Southeast 25th Avenue,76067,32.7938150,-98.0886385
2200,Southeast 24th Avenue,76067,32.7926555,-98.0895670
2100,Southeast 26th Avenue,76067,32.7940120,-98.0877440
1910,Southeast 15th Avenue,76067,32.7943785,-98.0994000
600,Southeast 28th Avenue,76067,32.8070135,-98.0853625
2504,Southeast 10th Street,76067,32.8015365,-98.0886410
718,East Murco Drive,76067,32.8033525,-98.0826900
3004,South Murco Drive,76067,32.8027180,-98.0837560
409,Harvey Road,76067,32.7890300,-98.0627890
1906,Southeast 12th Street,76067,32.7994940,-98.0957245
3001,Southeast 5th Street,76067,32.8073195,-98.0834900
1613,Southeast 18th Street,76067,32.7954235,-98.0980300
2903,Stan Terrace,76067,32.8039715,-98.0841485
2102,Southeast 24th Avenue,76067,32.7938945,-98.0895675
1702,Goodwin Drive,76067,32.8013425,-98.0976130
1700,Southeast 23rd Avenue,76067,32.7961865,-98.0904460
1613,Southeast Park Road,76067,32.7946685,-98.0971450
1802,Southeast 23rd Avenue,76067,32.7953425,-98.0904610
1914,Southeast 11th Street,76067,32.8005845,-98.0948330
2703,Southeast 4th Street,76067,32.8073170,-98.0867235
1703,Goodwin Drive,76067,32.8017410,-98.0976345
1914,Southeast 13th Street,76067,32.7988965,-98.0947525
2903,North Murco Drive,76067,32.8055885,-98.0847385
1802,Southeast 14th Street,76067,32.7970345,-98.0971885
3002,South Murco Drive,76067,32.8028075,-98.0840345
2016,Southeast 18th Street,76067,32.7957480,-98.0933755
1608,Southeast 21st Street,76067,32.7927740,-98.0983935
1801,Southeast 18th Street,76067,32.7957425,-98.0963200
3003,North Murco Drive,76067,32.8060790,-98.0830660
903,Southeast 16th Avenue,76067,32.8024275,-98.0979105
1305,Southeast 23rd Avenue,76067,32.7997690,-98.0903160
1905,Southeast 21st Avenue,76067,32.7956095,-98.0918775
2801,South Murco Drive,76067,32.8036265,-98.0864100
506,Southeast 27th Avenue,76067,32.8064445,-98.0862485
2007,Southeast 21st Avenue,76067,32.7945970,-98.0918865
2907,Southeast 5th Street,76067,32.8073280,-98.0841215
1600,Southeast 23rd Avenue,76067,32.7975080,-98.0907990
1709,Southeast 15th Street,76067,32.7966710,-98.0968970
1913,Southeast 14th Street,76067,32.7983380,-98.0950370
1904,Southeast 13th Street,76067,32.7984005,-98.0958340
1704,Southeast 18th Street,76067,32.7951505,-98.0973220
1807,Southeast 20th Street,76067,32.7939925,-98.0954570
2111,Southeast 24th Avenue,76067,32.7930400,-98.0891145
1300,Southeast 24th Avenue,76067,32.8003315,-98.0898575
2705,Southeast 4th Street,76067,32.8073080,-98.0864940
2700,South Murco Drive,76067,32.8033230,-98.0870335
2403,Southeast 11th Street,76067,32.8011955,-98.0899865
1500,Southeast 18th Street,76067,32.7950365,-98.1000835
1506,Southeast 23rd Avenue,76067,32.7980770,-98.0907695
3003,South Murco Drive,76067,32.8031495,-98.0837200
1906,Southeast 13th Street,76067,32.7985205,-98.0956170
2000,Southeast 20th Street,76067,32.7940270,-98.0932910
2301,Southeast 11th Street,76067,32.8012360,-98.0912795
2902,Southeast 6th Street,76067,32.8059950,-98.0846120
2806,North Murco Drive,76067,32.8048310,-98.0856120
2504,Southeast 14th Street,76067,32.7991465,-98.0886860
1510,Southeast 19th Avenue,76067,32.7971105,-98.0945675
507,Southeast 25th Avenue,76067,32.8063760,-98.0876300
1800,Southeast 25th Avenue,76067,32.7956400,-98.0886010
2101,Southeast 18th Street,76067,32.7961480,-98.0933135
1607,Southeast 23rd Avenue,76067,32.7966165,-98.0903230
2004,Southeast 11th Street,76067,32.8006150,-98.0936835
2909,South Murco Drive,76067,32.8034935,-98.0845275
1903,Southeast 20th Street,76067,32.7940270,-98.0944240
2506,Southeast 11th Street,76067,32.8007465,-98.0883245
1805,Southeast 15th Street,76067,32.7968100,-98.0962960
2920,Southeast 6th Street,76067,32.8069045,-98.0831910
1504,Southeast 21st Street,76067,32.7927875,-98.0999600
2504,Southeast 13th Street,76067,32.7998855,-98.0886800
2101,Southeast 23rd Avenue,76067,32.7933700,-98.0900305
2507,Southeast 14th Street,76067,32.7995560,-98.0883220
2805,North Murco Drive,76067,32.8050910,-98.0862310
2405,Southeast 9th Street,76067,32.8026810,-98.0896070
1403,Southeast 22nd Avenue,76067,32.7994925,-98.0912820
1916,Southeast 15th Street,76067,32.7965800,-98.0952540
1905,Southeast 10th Street,76067,32.8017710,-98.0950030
1902,Southeast 11th Street,76067,32.8005750,-98.0964140
1901,Lamar Street,76067,32.8001860,-98.0970060
2104,Southeast 25th Avenue,76067,32.7936040,-98.0886465
1608,Southeast 18th Street,76067,32.7949915,-98.0980475
2503,Southeast 11th Street,76067,32.8011690,-98.0889765
1908,Southeast 19th Street,76067,32.7948440,-98.0945150
2803,North Murco Drive,76067,32.8050070,-98.0865130
1902,Lamar Street,76067,32.8002050,-98.0964490
1705,Goodwin Drive,76067,32.8017340,-98.0973210
1611,Southeast Park Road,76067,32.7947210,-98.0973515
2404,Southeast 11th Street,76067,32.8008065,-98.0896230
2006,Southeast 20th Street,76067,32.7943295,-98.0930375
2005,Southeast 12th Street,76067,32.8001400,-98.0933710
1910,Southeast 15th Street,76067,32.7964755,-98.0958150
2401,Southeast 10th Street,76067,32.8019325,-98.0902635
2144,Southeast 21st Road,76067,32.7940435,-98.0925610
2008,Southeast 20th Street,76067,32.7945015,-98.0929615
1503,Southeast 16th Avenue,76067,32.7967200,-98.0978315
1603,Southeast 23rd Avenue,76067,32.7971890,-98.0903335
2001,Southeast 18th Street,76067,32.7960910,-98.0943730
1707,Southeast 15th Street,76067,32.7966225,-98.0970945
2108,Southeast 21st Avenue,76067,32.7933075,-98.0923695
2901,Stan Terrace,76067,32.8037400,-98.0843710
2010,Southeast 17th Avenue,76067,32.7942340,-98.0964545
1603,Southeast 18th Street,76067,32.7952285,-98.0986295
2101,Southeast 24th Avenue,76067,32.7940120,-98.0890730
1607,Southeast 24th Avenue,76067,32.7968830,-98.0893880
802,Southeast 16th Avenue,76067,32.8033190,-98.0980700
1912,Southeast 12th Street,76067,32.7996820,-98.0950090
2902,North Murco Drive,76067,32.8050845,-98.0848115
1707,Southeast 21st Street,76067,32.7931415,-98.0971655
1700,Southeast 13th Street,76067,32.7977975,-98.0978885
605,Southeast 25th Avenue,76067,32.8056070,-98.0876260
2108,Southeast 24th Avenue,76067,32.7932420,-98.0895705
2005,Southeast 23rd Avenue,76067,32.7939325,-98.0900320
2107,Southeast 24th Avenue,76067,32.7934185,-98.0890985
1904,Southeast 10th Street,76067,32.8013925,-98.0945545
2101,Southeast 21st Avenue,76067,32.7938820,-98.0919475
2000,Southeast 26th Avenue,76067,32.7946590,-98.0877400
1807,Southeast 18th Street,76067,32.7958155,-98.0959245
1612,Southeast 21st Street,76067,32.7927965,-98.0980155
1916,Southeast 11th Street,76067,32.8005945,-98.0945175
2110,Southeast 26th Avenue,76067,32.7930210,-98.0877680
1516,Southeast 18th Street,76067,32.7947315,-98.0991870
1805,Southeast 21st Street,76067,32.7931490,-98.0955115
1904,Southeast 14th Street,76067,32.7973460,-98.0958905
605,Southeast 27th Avenue,76067,32.8057435,-98.0858065
1802,Southeast 25th Avenue,76067,32.7953255,-98.0886280
2001,Southeast 11th Street,76067,32.8010095,-98.0940135
2916,Southeast 6th Street,76067,32.8065285,-98.0832580
1901,Southeast 17th Avenue,76067,32.7953855,-98.0961195
1911,Southeast 14th Avenue,76067,32.7946395,-98.1000820
908,Lakeview Drive,76067,32.8165254,-98.1225413
2418,Northwest 3rd Avenue,76067,32.8263670,-98.1151400
2001,Northwest 4th Avenue,76067,32.8229930,-98.1165790
1715,Northwest 5th Avenue,76067,32.8211780,-98.1178445
605,Northwest 15th Street,76067,32.8198100,-98.1181090
802,Northwest 10th Street,76067,32.8171355,-98.1204990
1414,Northwest 3rd Avenue,76067,32.8193650,-98.1152260
2116,Northwest 4th Avenue,76067,32.8238925,-98.1160280
704,Northwest 7th Avenue,76067,32.8143065,-98.1196880
1404,Northwest 3rd Avenue,76067,32.8192200,-98.1152275
1605,Northwest 3rd Avenue,76067,32.8205340,-98.1155675
501,Northwest 25th Street,76067,32.8267700,-98.1163710
305,Northwest 23rd Street,76067,32.8252240,-98.1152005
1606,Northwest 4th Avenue,76067,32.8205645,-98.1159860
1615,Northwest 5th Avenue,76067,32.8206200,-98.1178590
2100,Northwest 4th Avenue,76067,32.8235135,-98.1159235
1600,Crestwood Drive,76067,32.8203970,-98.1182095
1202,Northwest 4th Avenue,76067,32.8176405,-98.1159335
316,Northwest 25th Street,76067,32.8271425,-98.1151520
915,Northwest 4th Avenue,76067,32.8158035,-98.1166300
907,Northwest 7th Avenue,76067,32.8163075,-98.1201170
915,Northwest 5th Avenue,76067,32.8158575,-98.1177300
1219,Northwest 6th Avenue,76067,32.8186395,-98.1192490
2004,Northwest 2nd Avenue,76067,32.8230705,-98.1143125
2410,Northwest 4th Avenue,76067,32.8262100,-98.1159340
1602,Northwest 3rd Avenue,76067,32.8202640,-98.1152150
1016,Northwest 5th Avenue,76067,32.8165540,-98.1173225
2101,Northwest 4th Avenue,76067,32.8237490,-98.1165855
608,Northwest 15th Street,76067,32.8198950,-98.1188485
1008,Northwest 11th Street,76067,32.8179685,-98.1234470
1102,Northwest 6th Avenue,76067,32.8169235,-98.1191000
2408,Northwest 2nd Avenue,76067,32.8260440,-98.1141590
1402,Northwest 4th Avenue,76067,32.8190010,-98.1159505
1201,Northwest 5th Avenue,76067,32.8176450,-98.1177750
708,Northwest 7th Avenue,76067,32.8146120,-98.1196565
1316,Northwest 7th Avenue,76067,32.8186460,-98.1196680
602,Kingwood Drive,76067,32.8246640,-98.1180960
802,Hoffman Drive,76067,32.8160335,-98.1205005
2409,Northwest 2nd Avenue,76067,32.8264750,-98.1145300
804,Northwest 10th Street,76067,32.8171130,-98.1208090
202,Northwest 22nd Street,76067,32.8249155,-98.1139575
303,Northwest 21st Street,76067,32.8239145,-98.1152175
300,Northwest 23rd Street,76067,32.8255710,-98.1147360
800,Lakeview Drive,76067,32.8155005,-98.1207990
1802,Northwest 3rd Avenue,76067,32.8215670,-98.1152270
300,Northwest 7th Avenue,76067,32.8109390,-98.1195445
909,Northwest 7th Avenue,76067,32.8165190,-98.1201350
1502,Northwest 4th Avenue,76067,32.8196060,-98.1159580
808,Northwest 11th Street,76067,32.8180080,-98.1212740
202,Northwest 23rd Street,76067,32.8256635,-98.1139770
904,Northwest 10th Street,76067,32.8171050,-98.1223065
1515,Northwest 6th Avenue,76067,32.8193135,-98.1192350
2303,Northwest 3rd Avenue,76067,32.8249800,-98.1155695
2302,Northwest 5th Avenue,76067,32.8251825,-98.1173130
2203,Northwest 4th Avenue,76067,32.8244725,-98.1165065
1400,Northwest 6th Avenue,76067,32.8190635,-98.1186840
304,Northwest 21st Street,76067,32.8242505,-98.1151895
1515,Northwest 3rd Avenue,76067,32.8200255,-98.1155880
405,Northwest 25th Street,76067,32.8267570,-98.1159540
615,Northwest 8th Street,76067,32.8151225,-98.1188150
7,Lynn Lane,76067,32.8270525,-98.1181305
712,Northwest 13th Street,76067,32.8190435,-98.1195930
1802,Northwest 5th Avenue,76067,32.8216490,-98.1173180
607,Northwest 9th Street,76067,32.8158680,-98.1182395
710,Northwest 17th Street,76067,32.8215940,-98.1197950
515,Northwest 12th Street,76067,32.8179885,-98.1172525
1600,Northwest 5th Avenue,76067,32.8203605,-98.1173080
1001,North Oak Avenue,76067,32.8161777,-98.1130974
616,Northwest 20th Street,76067,32.8237935,-98.1186540
1515,Northwest 4th Avenue,76067,32.8199395,-98.1164985
2204,Northwest 4th Avenue,76067,32.8243405,-98.1159595
1205,Northwest 6th Avenue,76067,32.8175675,-98.1191940
1000,Lakeview Drive,76067,32.8166880,-98.1231140
800,Hoffman Drive,76067,32.8157675,-98.1204785
2316,Northwest 4th Avenue,76067,32.8251665,-98.1159600
1316,Northwest 3rd Avenue,76067,32.8187390,-98.1152395
106,Cluster Drive,76067,32.8222810,-98.1159970
1915,Northwest 5th Avenue,76067,32.8224360,-98.1179400
1715,Northwest 4th Avenue,76067,32.8212985,-98.1165650
1902,Northwest 3rd Avenue,76067,32.8222365,-98.1152030
1015,Northwest 5th Avenue,76067,32.8165900,-98.1177430
1305,Northwest 3rd Avenue,76067,32.8186065,-98.1155810
1001,Northwest 8th Avenue,76067,32.8163490,-98.1217635
614,Northwest 17th Street,76067,32.8215775,-98.1183535
1913,Northwest 5th Avenue,76067,32.8221635,-98.1178975
508,Northwest 10th Street,76067,32.8169740,-98.1168740
1302,Northwest 3rd Avenue,76067,32.8183890,-98.1152150
4,Lynn Lane,76067,32.8258375,-98.1171460
912,Northwest 5th Avenue,76067,32.8157695,-98.1173650
1602,Northwest 5th Avenue,76067,32.8206310,-98.1171890
2201,Northwest 2nd Avenue,76067,32.8242570,-98.1148075
608,Northwest 10th Street,76067,32.8169893,-98.1183051
605,Northwest 12th Street,76067,32.8180365,-98.1180875
1900,Northwest 6th Avenue,76067,32.8221480,-98.1186400
807,Northwest 10th Street,76067,32.8166395,-98.1209845
1607,Crestwood Drive,76067,32.8206480,-98.1187535
2417,Northwest 3rd Avenue,76067,32.8261610,-98.1156265
611,Northwest 8th Street,76067,32.8151500,-98.1184985
200,Northwest 23rd Street,76067,32.8256650,-98.1136610
2007,Northwest 2nd Avenue,76067,32.8230895,-98.1148155
1,Preston Place,76067,32.8250280,-98.1178525
608,Northwest 7th Street,76067,32.8147730,-98.1180555
2202,Northwest 4th Avenue,76067,32.8241985,-98.1160185
503,Northwest 25th Street,76067,32.8267695,-98.1166970
1515,Northwest 5th Avenue,76067,32.8198910,-98.1178185
516,Northwest 7th Street,76067,32.8146967,-98.1173695
5,Preston Place,76067,32.8250900,-98.1186650
803,Hoffman Drive,76067,32.8160985,-98.1209000
2102,Northwest 3rd Avenue,76067,32.8237075,-98.1151975
803,Northwest 7th Avenue,76067,32.8149330,-98.1201035
1212,Northwest 7th Avenue,76067,32.8175775,-98.1196665
1701,Northwest 6th Avenue,76067,32.8202255,-98.1196235
1302,Northwest 4th Avenue,76067,32.8183360,-98.1159515
810,Northwest 11th Street,76067,32.8180035,-98.1214930
516,Northwest 11th Street,76067,32.8176270,-98.1173690
200,Northwest 7th Avenue,76067,32.8105190,-98.1197165
1001,Northwest 5th Avenue,76067,32.8162625,-98.1177500
514,Northwest 10th Street,76067,32.8169125,-98.1172090
2300,Northwest 5th Avenue,76067,32.8249230,-98.1173010
814,Northwest 11th Street,76067,32.8179845,-98.1217560
605,Northwest 10th Street,76067,32.8165965,-98.1179915
300,Northwest 17th Street,76067,32.8216505,-98.1147535
2215,Northwest 1st Avenue,76067,32.8244890,-98.1139845
2405,Northwest 2nd Avenue,76067,32.8260645,-98.1146645
2206,Northwest 4th Avenue,76067,32.8245400,-98.1159755
1509,Northwest 5th Avenue,76067,32.8196400,-98.1178295
1604,Northwest 4th Avenue,76067,32.8204190,-98.1159860
615,Northwest 20th Street,76067,32.8232830,-98.1185870
1107,Northwest 4th Avenue,76067,32.8170620,-98.1165545
2107,Northwest 5th Avenue,76067,32.8240860,-98.1179560
504,Northwest 7th Street,76067,32.8147215,-98.1167305
1413,Northwest 3rd Avenue,76067,32.8193595,-98.1155585
707,Northwest 7th Avenue,76067,32.8140430,-98.1201655
908,Northwest 4th Avenue,76067,32.8156185,-98.1160430
1501,Northwest 4th Avenue,76067,32.8196705,-98.1165175
1314,Northwest 7th Avenue,76067,32.8183380,-98.1196850
809,Northwest 11th Street,76067,32.8175315,-98.1214325
803,Northwest 10th Street,76067,32.8166675,-98.1204485
805,Northwest 11th Street,76067,32.8175745,-98.1208045
1401,Northwest 4th Avenue,76067,32.8190685,-98.1165930
2406,Northwest 2nd Avenue,76067,32.8258350,-98.1142950
302,Northwest 7th Avenue,76067,32.8112215,-98.1196470
512,Northwest 9th Street,76067,32.8161795,-98.1168255
1714,Crestwood Drive,76067,32.8209780,-98.1183540
1006,Northwest 11th Street,76067,32.8179810,-98.1232135
601,Northwest 7th Avenue,76067,32.8131360,-98.1201680
612,Northwest 9th Street,76067,32.8162080,-98.1184540
401,Northwest 21st Street,76067,32.8239105,-98.1155690
804,Hoffman Drive,76067,32.8163015,-98.1204565
601,Kingwood Drive,76067,32.8243475,-98.1177725
1708,Northwest 4th Avenue,76067,32.8213290,-98.1159585
2304,Northwest 3rd Avenue,76067,32.8250010,-98.1152080
1605,Crestwood Drive,76067,32.8204335,-98.1186930
305,Northwest 14th Street,76067,32.8193235,-98.1149160
615,Northwest 19th Street,76067,32.8224450,-98.1186435
516,Northwest 8th Street,76067,32.8154820,-98.1173690
511,Northwest 8th Street,76067,32.8150835,-98.1170615
903,Northwest 7th Avenue,76067,32.8158000,-98.1201330
805,Northwest 7th Avenue,76067,32.8151175,-98.1201250
1106,Northwest 4th Avenue,76067,32.8172288,-98.1159779
406,Northwest 7th Street,76067,32.8147105,-98.1157630
1816,Northwest 3rd Avenue,76067,32.8219930,-98.1151965
1602,Northwest 4th Avenue,76067,32.8202570,-98.1159370
1201,Northwest 7th Avenue,76067,32.8180025,-98.1201825
1103,Northwest 7th Avenue,76067,32.8175445,-98.1201460
605,Northwest 7th Avenue,76067,32.8137285,-98.1201495
1810,Northwest 6th Avenue,76067,32.8218660,-98.1186310
401,Northwest 21st Street,76067,32.8238865,-98.1157180
1803,Northwest 5th Avenue,76067,32.8219030,-98.1178195
2415,Northwest 3rd Avenue,76067,32.8258510,-98.1157160
1604,Northwest 6th Avenue,76067,32.8202045,-98.1190955
2315,Northwest 2nd Avenue,76067,32.8250430,-98.1148035
604,Northwest 13th Street,76067,32.8192270,-98.1182605
1301,Northwest 4th Avenue,76067,32.8184095,-98.1165935
902,Lakeview Drive,76067,32.8163365,-98.1221785
1901,Northwest 6th Avenue,76067,32.8221825,-98.1191190
716,Northwest 13th Street,76067,32.8190325,-98.1198380
1801,Northwest 5th Avenue,76067,32.8216160,-98.1178415
512,Northwest 10th Street,76067,32.8169605,-98.1170525
3,Preston Place,76067,32.8250245,-98.1182460
900,Northwest 10th Street,76067,32.8171010,-98.1215975
2014,Northwest 3rd Avenue,76067,32.8233110,-98.1151350
1216,Northwest 7th Avenue,76067,32.8177295,-98.1196685
805,Northwest 10th Street,76067,32.8166655,-98.1206760
300,Northwest 12th Street,76067,32.8185895,-98.1149365
800,Northwest 4th Avenue,76067,32.8147185,-98.1160335
617,Northwest 9th Street,76067,32.8158820,-98.1190105
807,Northwest 11th Street,76067,32.8175675,-98.1211575
616,Northwest 9th Street,76067,32.8162015,-98.1188065
813,Northwest 11th Street,76067,32.8175615,-98.1219525
502,Northwest 23rd Street,76067,32.8255590,-98.1163535
2215,Northwest 3rd Avenue,76067,32.8245690,-98.1156000
2210,Northwest 2nd Avenue,76067,32.8243045,-98.1142885
2403,Northwest 2nd Avenue,76067,32.8258715,-98.1147860
900,Northwest 7th Avenue,76067,32.8155520,-98.1196960
1401,Northwest 6th Avenue,76067,32.8190485,-98.1193270
1915,Northwest 6th Avenue,76067,32.8224625,-98.1191135
7,Ann Road,76067,32.8261135,-98.1173285
916,Northwest 4th Avenue,76067,32.8159090,-98.1160655
601,Northwest 8th Street,76067,32.8151580,-98.1179655
2005,Northwest 3rd Avenue,76067,32.8231620,-98.1155800
2009,Northwest 2nd Avenue,76067,32.8232805,-98.1148165
1516,Northwest 3rd Avenue,76067,32.8200185,-98.1152065
616,Northwest 8th Street,76067,32.8155365,-98.1187985
610,Northwest 7th Street,76067,32.8147340,-98.1182930
1003,Northwest 4th Avenue,76067,32.8162035,-98.1166030
306,Northwest 7th Avenue,76067,32.8114880,-98.1196405
511,Northwest 22nd Street,76067,32.8245245,-98.1170125
614,Northwest 8th Street,76067,32.8155140,-98.1186525
1209,Northwest 6th Avenue,76067,32.8178425,-98.1192040
1717,Northwest 6th Avenue,76067,32.8210870,-98.1197795
814,Northwest 8th Avenue,76067,32.8157910,-98.1212585
4,Preston Place,76067,32.8256040,-98.1181165
400,Northwest 7th Avenue,76067,32.8117930,-98.1196850
715,Northwest 7th Avenue,76067,32.8143265,-98.1202760
316,Northwest 10th Street,76067,32.8170184,-98.1151049
2,Ann Road,76067,32.8265000,-98.1163525
503,Northwest 7th Avenue,76067,32.8122970,-98.1201155
204,Northwest 23rd Street,76067,32.8255950,-98.1142465
912,Northwest 4th Avenue,76067,32.8157470,-98.1160455
800,Northwest 10th Street,76067,32.8171795,-98.1201335
2211,Northwest 2nd Avenue,76067,32.8246015,-98.1148115
606,Northwest 9th Street,76067,32.8161765,-98.1179910
815,Northwest 11th Street,76067,32.8175495,-98.1221660
403,Northwest 7th Avenue,76067,32.8120505,-98.1201360
505,Northwest 7th Avenue,76067,32.8125845,-98.1201490
607,Kingwood Drive,76067,32.8243270,-98.1186885
305,Northwest 18th Street,76067,32.8219755,-98.1148585
1403,Northwest 3rd Avenue,76067,32.8190960,-98.1156000
809,Northwest 4th Avenue,76067,32.8151230,-98.1165640
1116,Northwest 7th Avenue,76067,32.8173655,-98.1196995
1303,Northwest 4th Avenue,76067,32.8187055,-98.1167360
609,Northwest 20th Street,76067,32.8233965,-98.1182270
510,Northwest 25th Street,76067,32.8271805,-98.1173460
1711,Northwest 6th Avenue,76067,32.8208245,-98.1197510
1715,Crestwood Drive,76067,32.8211155,-98.1189165
2603,North Oak Avenue,76067,32.8273910,-98.1135180
2205,Northwest 2nd Avenue,76067,32.8244310,-98.1148075
604,Northwest 7th Avenue,76067,32.8135075,-98.1196310
1002,Northwest 4th Avenue,76067,32.8161540,-98.1160265
801,Northwest 10th Street,76067,32.8167145,-98.1201610
902,Northwest 8th Avenue,76067,32.8161880,-98.1212825
1804,Northwest 3rd Avenue,76067,32.8217330,-98.1152085
2419,Northwest 3rd Avenue,76067,32.8264560,-98.1156620
2014,Northwest 5th Avenue,76067,32.8232365,-98.1171935
608,Northwest 8th Street,76067,32.8155300,-98.1181660
2112,Northwest 6th Avenue,76067,32.8240870,-98.1186310
614,Northwest 20th Street,76067,32.8237470,-98.1182925
603,Kingwood Drive,76067,32.8243290,-98.1180715
2407,Northwest 2nd Avenue,76067,32.8262695,-98.1145955
402,Northwest 22nd Street,76067,32.8248175,-98.1156185
405,Northwest 14th Street,76067,32.8193665,-98.1157330
1015,Northwest 4th Avenue,76067,32.8165560,-98.1165405
609,Northwest 15th Street,76067,32.8194920,-98.1185445
1514,Northwest 4th Avenue,76067,32.8199905,-98.1160265
1601,Northwest 6th Avenue,76067,32.8196705,-98.1192775
509,Northwest 8th Street,76067,32.8151085,-98.1168385
1301,Northwest 3rd Avenue,76067,32.8183595,-98.1155850
1116,Northwest 3rd Avenue,76067,32.8173251,-98.1152029
2300,Northwest 4th Avenue,76067,32.8249180,-98.1159420
2101,Northwest 3rd Avenue,76067,32.8236470,-98.1155885
6,Ann Road,76067,32.8265080,-98.1170000
306,Northwest 23rd Street,76067,32.8255605,-98.1149690
601,North Oak Avenue,76067,32.8132204,-98.1131979
2216,Northwest 3rd Avenue,76067,32.8245945,-98.1151925
2001,Northwest 3rd Avenue,76067,32.8229455,-98.1155935
808,Northwest 10th Street,76067,32.8171085,-98.1211380
803,Lakeview Drive,76067,32.8150855,-98.1207975
804,Northwest 11th Street,76067,32.8180010,-98.1208840
2000,Northwest 4th Avenue,76067,32.8229315,-98.1159420
1215,Northwest 6th Avenue,76067,32.8181500,-98.1191980
1001,Northwest 11th Street,76067,32.8175575,-98.1227935
509,Northwest 25th Street,76067,32.8267710,-98.1173160
1601,Crestwood Drive,76067,32.8200025,-98.1185585
514,Northwest 11th Street,76067,32.8176460,-98.1172080
1602,Crestwood Drive,76067,32.8206930,-98.1182895
2404,Northwest 3rd Avenue,76067,32.8261955,-98.1151535
516,Northwest 10th Street,76067,32.8169505,-98.1173730
1802,Northwest 4th Avenue,76067,32.8216490,-98.1159440
1004,Northwest 4th Avenue,76067,32.8162970,-98.1159995
1606,Northwest 6th Avenue,76067,32.8204915,-98.1191395
702,Northwest 7th Avenue,76067,32.8140315,-98.1196900
8,Ann Road,76067,32.8265310,-98.1173305
1307,Northwest 3rd Avenue,76067,32.8187425,-98.1155890
1201,Northwest 6th Avenue,76067,32.8173185,-98.1192925
1216,Northwest 4th Avenue,76067,32.8180865,-98.1159055
300,Northwest 13th Street,76067,32.8190035,-98.1147900
607,Northwest 8th Street,76067,32.8151565,-98.1181175
2314,Northwest 2nd Avenue,76067,32.8251850,-98.1143140
404,Northwest 8th Street,76067,32.8155225,-98.1157545
816,Northwest 11th Street,76067,32.8179570,-98.1219830
904,Northwest 7th Avenue,76067,32.8158515,-98.1196250
307,Northwest 7th Avenue,76067,32.8117765,-98.1201075
800,Northwest 7th Avenue,76067,32.8148870,-98.1196765
2501,North Oak Avenue,76067,32.8258710,-98.1129608
616,Northwest 17th Street,76067,32.8216200,-98.1186485
1506,Northwest 4th Avenue,76067,32.8197620,-98.1159755
511,Northwest 10th Street,76067,32.8165090,-98.1170080
1618,Northwest 3rd Avenue,76067,32.8206780,-98.1151910
2100,Northwest 3rd Avenue,76067,32.8235420,-98.1151885
1220,Northwest 7th Avenue,76067,32.8180025,-98.1196465
1500,Northwest 3rd Avenue,76067,32.8195975,-98.1152255
2,Lynn Lane,76067,32.8255685,-98.1172035
401,North Oak Avenue,76067,32.8119040,-98.1133690
1812,Northwest 4th Avenue,76067,32.8219525,-98.1159785
607,Northwest 15th Street,76067,32.8196125,-98.1183730
1702,Northwest 4th Avenue,76067,32.8209165,-98.1159710
201,Northwest 23rd Street,76067,32.8251850,-98.1139800
500,Northwest 7th Avenue,76067,32.8123070,-98.1196720
901,Northwest 4th Avenue,76067,32.8155180,-98.1166010
1605,Northwest 6th Avenue,76067,32.8199350,-98.1194335
1501,Northwest 5th Avenue,76067,32.8193055,-98.1179465
600,Kingwood Drive,76067,32.8246520,-98.1177645
612,Northwest 7th Street,76067,32.8147120,-98.1186510
1100,Northwest 7th Avenue,76067,32.8171030,-98.1197005
620,Northwest 7th Street,76067,32.8147205,-98.1190100
5,Ann Road,76067,32.8261075,-98.1170165
2410,Northwest 2nd Avenue,76067,32.8264775,-98.1140550
306,Northwest 14th Street,76067,32.8196205,-98.1149320
1505,Northwest 3rd Avenue,76067,32.8197400,-98.1155825
1406,Northwest 4th Avenue,76067,32.8192495,-98.1159740
508,Northwest 8th Street,76067,32.8155095,-98.1168405
905,Northwest 7th Avenue,76067,32.8160955,-98.1201475
2015,Northwest 5th Avenue,76067,32.8233270,-98.1178205
809,Northwest 10th Street,76067,32.8166555,-98.1213080
2315,Northwest 3rd Avenue,76067,32.8251680,-98.1156255
400,Northwest 11th Street,76067,32.8176560,-98.1155950
1216,Northwest 3rd Avenue,76067,32.8181015,-98.1151930
1716,Crestwood Drive,76067,32.8212315,-98.1184070
2305,Northwest 4th Avenue,76067,32.8249570,-98.1165550
607,Northwest 19th Street,76067,32.8224585,-98.1183025
605,Kingwood Drive,76067,32.8243285,-98.1183670
209,Northwest 6th Street,76067,32.8135550,-98.1142725
1604,Northwest 3rd Avenue,76067,32.8204055,-98.1152165
801,Northwest 7th Avenue,76067,32.8147655,-98.1205745
109,Northwest 25th Street,76067,32.8267665,-98.1139565
303,Northwest 25th Street,76067,32.8267120,-98.1149630
802,Northwest 7th Avenue,76067,32.8151520,-98.1196475
805,Hoffman Drive,76067,32.8163500,-98.1209405
402,Northwest 8th Street,76067,32.8155180,-98.1155930
802,Northwest 13th Street,76067,32.8190290,-98.1201370
515,Northwest 11th Street,76067,32.8172875,-98.1173865
1801,Northwest 4th Avenue,76067,32.8216470,-98.1165040
818,Northwest 11th Street,76067,32.8179930,-98.1222740
1217,Northwest 6th Avenue,76067,32.8183890,-98.1192250
107,Northwest 25th Street,76067,32.8267260,-98.1137105
403,Northwest 9th Street,76067,32.8158630,-98.1157610
612,Northwest 10th Street,76067,32.8170145,-98.1187500
1703,Northwest 6th Avenue,76067,32.8205310,-98.1197375
1,Ann Road,76067,32.8261100,-98.1163645
700,Northwest 17th Street,76067,32.8217395,-98.1194150
1916,Northwest 3rd Avenue,76067,32.8226435,-98.1152255
903,Northwest 10th Street,76067,32.8166575,-98.1221055
304,Northwest 14th Street,76067,32.8196230,-98.1147605
1016,Northwest 7th Avenue,76067,32.8165045,-98.1196945
2420,Northwest 3rd Avenue,76067,32.8265020,-98.1151370
602,Northwest 7th Avenue,76067,32.8132490,-98.1196945
410,Northwest 23rd Street,76067,32.8256005,-98.1159095
900,Lakeview Drive,76067,32.8160525,-98.1218000
1009,Northwest 11th Street,76067,32.8175505,-98.1234035
1303,Northwest 4th Avenue,76067,32.8186870,-98.1165390
303,Northwest 17th Street,76067,32.8213125,-98.1149190
2,Preston Place,76067,32.8255500,-98.1177215
2002,Northwest 3rd Avenue,76067,32.8229210,-98.1152235
916,Northwest 5th Avenue,76067,32.8159030,-98.1173605
1510,Northwest 6th Avenue,76067,32.8193775,-98.1187920
1415,Northwest 4th Avenue,76067,32.8193340,-98.1166845
904,Northwest 8th Avenue,76067,32.8163940,-98.1212970
1109,Northwest 5th Avenue,76067,32.8173090,-98.1177705
1004,Northwest 11th Street,76067,32.8179835,-98.1229720
2303,Northwest 2nd Avenue,76067,32.8248680,-98.1148245
2205,Northwest 4th Avenue,76067,32.8246055,-98.1165335
403,Northwest 11th Street,76067,32.8172782,-98.1156678
1209,Northwest 4th Avenue,76067,32.8179290,-98.1167285
301,Northwest 21st Street,76067,32.8238720,-98.1147860
1716,Northwest 6th Avenue,76067,32.8210930,-98.1192610
2421,Northwest 3rd Avenue,76067,32.8267120,-98.1156605
602,Northwest 19th Street,76067,32.8229890,-98.1182800
1301,Northwest 7th Avenue,76067,32.8185465,-98.1207065
1700,Northwest 5th Avenue,76067,32.8210250,-98.1172845
1,Lynn Lane,76067,32.8261750,-98.1184595
1109,Northwest 4th Avenue,76067,32.8173060,-98.1165720
1603,Crestwood Drive,76067,32.8201760,-98.1186555
803,Northwest 11th Street,76067,32.8175675,-98.1204860
1201,Northwest 4th Avenue,76067,32.8176605,-98.1167210
2119,Northwest 5th Avenue,76067,32.8238090,-98.1179850
905,Northwest 10th Street,76067,32.8166880,-98.1224625
408,Northwest 23rd Street,76067,32.8255635,-98.1156135
2015,Northwest 4th Avenue,76067,32.8232155,-98.1166585
1002,Northwest 11th Street,76067,32.8179765,-98.1227335
800,Northwest 11th Street,76067,32.8180150,-98.1204970
516,Northwest 12th Street,76067,32.8183310,-98.1172495
902,Northwest 10th Street,76067,32.8170725,-98.1219475
1601,Northwest 4th Avenue,76067,32.8203905,-98.1166670
2302,Northwest 3rd Avenue,76067,32.8248565,-98.1152270
1509,Northwest 3rd Avenue,76067,32.8198965,-98.1155815
507,Northwest 11th Street,76067,32.8172745,-98.1168660
2004,Northwest 5th Avenue,76067,32.8229795,-98.1171980
1016,Northwest 4th Avenue,76067,32.8165755,-98.1159835
801,Hoffman Drive,76067,32.8158450,-98.1209080
516,Northwest 9th Street,76067,32.8161855,-98.1173235
1815,Northwest 4th Avenue,76067,32.8219830,-98.1165520
301,Northwest 7th Avenue,76067,32.8109445,-98.1201475
1716,Northwest 5th Avenue,76067,32.8212945,-98.1172625
900,Northwest 11th Street,76067,32.8179790,-98.1224930
814,Northwest 4th Avenue,76067,32.8150535,-98.1159335
1101,Northwest 5th Avenue,76067,32.8169520,-98.1177550
1609,Crestwood Drive,76067,32.8208505,-98.1188115
606,Kingwood Drive,76067,32.8246675,-98.1187660
1700 1/2,Northwest 5th Avenue,76067,32.8210050,-98.1168565
3,Ann Road,76067,32.8261210,-98.1167035
1502,Northwest 3rd Avenue,76067,32.8197540,-98.1152285
2016,Northwest 4th Avenue,76067,32.8232440,-98.1159380
2304,Northwest 2nd Avenue,76067,32.8249215,-98.1142695
900,Northwest 8th Avenue,76067,32.8159815,-98.1213090
1603,Northwest 5th Avenue,76067,32.8203355,-98.1178315
609,Northwest 8th Street,76067,32.8151305,-98.1183295
303,Northwest 7th Avenue,76067,32.8112270,-98.1201105
2104,Northwest 4th Avenue,76067,32.8236745,-98.1159505
1101,Northwest 4th Avenue,76067,32.8169395,-98.1166175
2400,Northwest 3rd Avenue,76067,32.8259295,-98.1151670
400,Northwest 7th Street,76067,32.8147275,-98.1155935
600,Northwest 7th Avenue,76067,32.8129630,-98.1196840
1000,Northwest 10th Street,76067,32.8170935,-98.1227950
1107,Northwest 3rd Avenue,76067,32.8173295,-98.1155490
1304,Northwest 4th Avenue,76067,32.8186940,-98.1160040
1002,Northwest 7th Avenue,76067,32.8162205,-98.1196890
514,Northwest 9th Street,76067,32.8162025,-98.1170205
2501,North Oak Avenue,76067,32.8261517,-98.1129775
812,Lakeview Drive,76067,32.8155615,-98.1211595
2201,Northwest 4th Avenue,76067,32.8242575,-98.1166290
505,Northwest 15th Street,76067,32.8199710,-98.1169905
2013,Northwest 3rd Avenue,76067,32.8233025,-98.1155560
103,Cluster Drive,76067,32.8225585,-98.1155540
1815,Northwest 3rd Avenue,76067,32.8219875,-98.1155920
604,Kingwood Drive,76067,32.8246470,-98.1184360
6,Preston Place,76067,32.8256360,-98.1186205
616,Northwest 19th Street,76067,32.8229470,-98.1186525
705,Northwest 10th Street,76067,32.8164400,-98.1193785
1505,Northwest 5th Avenue,76067,32.8194635,-98.1179025
1103,Northwest 3rd Avenue,76067,32.8170515,-98.1155600
1104,Northwest 4th Avenue,76067,32.8169830,-98.1159530
4,Ann Road,76067,32.8265075,-98.1166890
801,Northwest 5th Avenue,76067,32.8146955,-98.1177455
1703,Northwest 5th Avenue,76067,32.8208850,-98.1178640
308,Northwest 23rd Street,76067,32.8255470,-98.1151980
515,Northwest 22nd Street,76067,32.8245300,-98.1173515
1205,Northwest 5th Avenue,76067,32.8180230,-98.1177735
401,Southwest 1st Street,76067,32.8080090,-98.1156485
100,Southwest 4th Avenue,76067,32.8087680,-98.1169260
1901,Highway 180 West,76067,32.8032525,-98.1348930
1403,Southeast 22nd Street,76067,32.7923160,-98.1008280
1307,Southeast 18th Street,76067,32.7954155,-98.1020520
1102,Southeast 21st Street,76067,32.7925760,-98.1037440
1300,Southeast 21st Street,76067,32.7926060,-98.1023490
1106,Southeast 22nd Street,76067,32.7919715,-98.1040830
1103,Southeast 19th Street,76067,32.7945430,-98.1042330
1206,Southeast 21st Street,76067,32.7926115,-98.1027630
1303,Southeast 21st Street,76067,32.7930200,-98.1020430
1200,Southeast 20th Street,76067,32.7933360,-98.1035325
1002,Southeast 20th Street,76067,32.7933050,-98.1052240
1400,Southeast 19th Street,76067,32.7942460,-98.1011855
1216,Southeast 20th Street,76067,32.7933400,-98.1030485
1302,Southeast 21st Street,76067,32.7926265,-98.1020965
1105,Southeast 18th Street,76067,32.7953490,-98.1042030
1304,Southeast 21st Street,76067,32.7926495,-98.1018470
1016,Southeast 19th Street,76067,32.7941255,-98.1049070
1313,Southeast 19th Street,76067,32.7945890,-98.1018320
1215,Southeast 20th Street,76067,32.7937505,-98.1028930
1002,Southeast 19th Street,76067,32.7941110,-98.1054520
1015,Southeast 20th Street,76067,32.7937245,-98.1049035
1800,Southeast 12th Avenue,76067,32.7958845,-98.1027780
1300,Southeast 22nd Street,76067,32.7919005,-98.1023540
1402,Southeast 22nd Street,76067,32.7919040,-98.1008275
1406,Southeast 22nd Street,76067,32.7918690,-98.1005880
1300,Southeast 19th Street,76067,32.7941710,-98.1023550
800,Southeast 16th Street,76067,32.7961590,-98.1064985
1201,Southeast 20th Street,76067,32.7937250,-98.1035740
1404,Southeast 21st Street,76067,32.7926465,-98.1008130
1204,Southeast 22nd Street,76067,32.7919190,-98.1030200
1215,Southeast 19th Street,76067,32.7945910,-98.1027790
1208,Southeast 19th Street,76067,32.7941610,-98.1031680
1001,Southeast 18th Street,76067,32.7953330,-98.1054410
800,Southeast 18th Street,76067,32.7949410,-98.1064715
1405,Southeast 18th Street,76067,32.7954315,-98.1007805
1201,Southeast 21st Street,76067,32.7929770,-98.1034870
1005,Southeast 19th Street,76067,32.7945125,-98.1052680
1315,Southeast 20th Street,76067,32.7937600,-98.1016960
1804,Southeast 12th Avenue,76067,32.7955165,-98.1027940
1303,Southeast 22nd Street,76067,32.7922790,-98.1020980
1305,Southeast 19th Street,76067,32.7945475,-98.1022385
1214,Southeast 20th Street,76067,32.7933390,-98.1032285
1010,Southeast 17th Street,76067,32.7958195,-98.1050845
1120,Southeast 20th Street,76067,32.7933265,-98.1039005
1003,Southeast 20th Street,76067,32.7937570,-98.1052490
1403,Southeast 21st Street,76067,32.7930205,-98.1010435
800,Southeast 17th Street,76067,32.7957855,-98.1064870
1205,Veterans of Foreign Wars Street,76067,32.7915555,-98.1030085
1010,Southeast 19th Street,76067,32.7941220,-98.1050805
1207,Southeast 22nd Street,76067,32.7922420,-98.1030195
1305,Southeast 22nd Street,76067,32.7922700,-98.1018485
1200,Southeast 21st Street,76067,32.7925915,-98.1034900
1010,Southeast 20th Street,76067,32.7932995,-98.1049060
1302,Southeast 22nd Street,76067,32.7918925,-98.1020940
915,Southeast 20th Street,76067,32.7936580,-98.1058850
1204,Southeast 21st Street,76067,32.7926375,-98.1030120
1402,Southeast 17th Street,76067,32.7958785,-98.1010045
1402,Southeast 19th Street,76067,32.7942080,-98.1008965
1312,Southeast 16th Street,76067,32.7962485,-98.1016080
1301,Southeast 18th Street,76067,32.7953780,-98.1023135
1102,Southeast 18th Street,76067,32.7949935,-98.1043765
1203,Southeast 19th Street,76067,32.7945440,-98.1031375
1206,Southeast 18th Street,76067,32.7950165,-98.1032120
1304,Southeast 22nd Street,76067,32.7918925,-98.1018415
1218,Southeast 20th Street,76067,32.7932845,-98.1027560
1309,Southeast 19th Street,76067,32.7945260,-98.1020860
1206,Southeast 22nd Street,76067,32.7918630,-98.1027740
1000,Southeast 16th Street,76067,32.7962015,-98.1054280
802,Southeast 16th Street,76067,32.7962150,-98.1062645
1407,Southeast 18th Street,76067,32.7954615,-98.1005695
1017,Southeast 19th Street,76067,32.7945125,-98.1047575
1808,Southeast 7th Avenue,76067,32.7957230,-98.1068990
1211,Southeast 20th Street,76067,32.7937310,-98.1032095
1216,Southeast 16th Street,76067,32.7962235,-98.1027655
1209,Southeast 22nd Street,76067,32.7922510,-98.1027910
1003,Southeast 17th Street,76067,32.7961755,-98.1052050
1100,Southeast 21st Street,76067,32.7925440,-98.1040370
1701,Southeast 10th Avenue,76067,32.7962675,-98.1043255
1403,Southeast 18th Street,76067,32.7954380,-98.1009875
1311,Southeast 20th Street,76067,32.7938075,-98.1020855
1205,Southeast 21st Street,76067,32.7929915,-98.1030155
1400,Southeast 17th Street,76067,32.7958710,-98.1012235
1207,Southeast 21st Street,76067,32.7930060,-98.1027765
1802,Southeast 12th Avenue,76067,32.7957175,-98.1027775
1907,Southeast 11th Avenue,76067,32.7944980,-98.1034705
1306,Southeast 20th Street,76067,32.7933515,-98.1018535
1308,Southeast 20th Street,76067,32.7933565,-98.1015590
1015,Southeast 18th Street,76067,32.7953435,-98.1047290
910,Southeast 19th Street,76067,32.7940990,-98.1062080
1302,Southeast 20th Street,76067,32.7933535,-98.1023555
1301,Southeast 19th Street,76067,32.7945520,-98.1024075
1303,Veterans of Foreign Wars Street,76067,32.7915385,-98.1021205
1012,Southeast 18th Street,76067,32.7949725,-98.1049945
1001,Southeast 19th Street,76067,32.7944980,-98.1054590
1401,Southeast 18th Street,76067,32.7954140,-98.1012235
1407,Southeast 21st Street,76067,32.7930545,-98.1005770
1908,Southeast 11th Avenue,76067,32.7945045,-98.1039325
1214,Southeast 19th Street,76067,32.7941235,-98.1027190
1205,Southeast 22nd Street,76067,32.7922375,-98.1032460
716,Southeast 18th Street,76067,32.7949630,-98.1068415
916,Southeast 18th Street,76067,32.7949255,-98.1058055
1202,Southeast 22nd Street,76067,32.7918600,-98.1032470
1012,Southeast 17th Street,76067,32.7958010,-98.1049060
1802,Southeast 14th Avenue,76067,32.7959395,-98.1006830
1905,Southeast 11th Avenue,76067,32.7946635,-98.1034805
1101,Southeast 20th Street,76067,32.7937120,-98.1044075
914,Southeast 19th Street,76067,32.7941210,-98.1059740
1102,Southeast 19th Street,76067,32.7941470,-98.1043750
1104,Southeast 17th Street,76067,32.7958480,-98.1041280
701,Southeast 18th Street,76067,32.7953165,-98.1072880
1104,Southeast 18th Street,76067,32.7949970,-98.1042100
1309,Southeast 18th Street,76067,32.7954220,-98.1018350
1007,Southeast 18th Street,76067,32.7953555,-98.1050915
1702,Southeast 7th Avenue,76067,32.7962460,-98.1069335
1216,Southeast 18th Street,76067,32.7950240,-98.1027270
1011,Southeast 18th Street,76067,32.7953805,-98.1048995
1702,Southeast 11th Avenue,76067,32.7962655,-98.1039310
1402,Southeast 18th Street,76067,32.7950465,-98.1012020
1206,Southeast 19th Street,76067,32.7941720,-98.1033815
1301,Veterans of Foreign Wars Street,76067,32.7915535,-98.1023565
1200,Southeast 22nd Street,76067,32.7918900,-98.1034715
1114,Southeast 19th Street,76067,32.7941440,-98.1038585
1201,Veterans of Foreign Wars Street,76067,32.7915385,-98.1034895
1015,Southeast 19th Street,76067,32.7945095,-98.1049245
1404,Southeast 20th Street,76067,32.7933750,-98.1008090
1115,Southeast 20th Street,76067,32.7937235,-98.1038640
1205,Southeast 20th Street,76067,32.7937255,-98.1034065
1201,Southeast 18th Street,76067,32.7953555,-98.1034645
1108,Southeast 22nd Street,76067,32.7918715,-98.1037460
1300,Southeast 17th Street,76067,32.7959020,-98.1022600
1101,Southeast 18th Street,76067,32.7953615,-98.1043845
1311,Southeast 18th Street,76067,32.7954155,-98.1016165
1002,Southeast 18th Street,76067,32.7949620,-98.1054285
1203,Southeast 21st Street,76067,32.7929825,-98.1032580
1018,Southeast 19th Street,76067,32.7941145,-98.1047280
1407,Southeast 22nd Street,76067,32.7923230,-98.1005875
1306,Southeast 21st Street,76067,32.7926330,-98.1015950
510,Southeast 1st Street,76067,32.8080489,-98.1088438
1701,Southeast 6th Avenue,76067,32.7962405,-98.1074030
1404,Southeast 18th Street,76067,32.7950270,-98.1008845
101,Southeast 6th Avenue,76067,32.8088238,-98.1069591
1203,Southeast 22nd Street,76067,32.7922305,-98.1034935
1001,Southeast 20th Street,76067,32.7936840,-98.1054480
1401,Southeast 20th Street,76067,32.7937315,-98.1012130
1408,Southeast 19th Street,76067,32.7942070,-98.1005955
1202,Southeast 21st Street,76067,32.7926025,-98.1032510
912,Southeast 17th Street,76067,32.7957945,-98.1060355
1301,Southeast 22nd Street,76067,32.7922630,-98.1023405
1400,Southeast 21st Street,76067,32.7926120,-98.1013565
1217,Southeast 20th Street,76067,32.7937690,-98.1027400
1114,Southeast 20th Street,76067,32.7933265,-98.1044940
712,Southeast 18th Street,76067,32.7949680,-98.1071085
1009,Southeast 19th Street,76067,32.7945170,-98.1051020
1212,Southeast 19th Street,76067,32.7941855,-98.1029080
1201,Southeast 22nd Street,76067,32.7922810,-98.1037785
1400,Southeast 20th Street,76067,32.7933640,-98.1012810
1401,Veterans of Foreign Wars Street,76067,32.7915555,-98.1013445
705,Southeast 18th Street,76067,32.7953025,-98.1071040
1118,Southeast 20th Street,76067,32.7933365,-98.1040960
1409,Southeast 20th Street,76067,32.7938105,-98.1005985
710,Southeast 17th Street,76067,32.7957840,-98.1071765
707,Southeast 18th Street,76067,32.7953115,-98.1068845
1011,Southeast 20th Street,76067,32.7937155,-98.1050895
1804,Southeast 14th Avenue,76067,32.7957515,-98.1006710
1401,Southeast 19th Street,76067,32.7945730,-98.1012035
1306,Southeast 22nd Street,76067,32.7918725,-98.1016130
1401,Southeast 22nd Street,76067,32.7923095,-98.1010795
1312,Southeast 18th Street,76067,32.7950150,-98.1019705
1017,Southeast 20th Street,76067,32.7937065,-98.1047290
1014,Southeast 17th Street,76067,32.7958405,-98.1047195
1106,Southeast 17th Street,76067,32.7958795,-98.1038990
1700,Southeast 14th Avenue,76067,32.7962385,-98.1005810
1100,Southeast 17th Street,76067,32.7958125,-98.1043495
2100,Southeast 14th Avenue,76067,32.7933760,-98.1005490
1006,Southeast 19th Street,76067,32.7940840,-98.1052635
715,Southeast 19th Street,76067,32.7946245,-98.1068595
1407,Veterans of Foreign Wars Street,76067,32.7915945,-98.1006025
1405,Southeast 21st Street,76067,32.7930285,-98.1008170
1816,Southeast 12th Avenue,76067,32.7953615,-98.1027975
1903,Southeast 11th Avenue,76067,32.7948700,-98.1034790
1415,Southeast 19th Street,76067,32.7945935,-98.1006225
1309,Southeast 22nd Street,76067,32.7922725,-98.1013535
1012,Southeast 20th Street,76067,32.7932985,-98.1046980
1402,Southeast 21st Street,76067,32.7926425,-98.1010740
1800,Southeast 13th Avenue,76067,32.7958300,-98.1016135
1801,Southeast 11th Avenue,76067,32.7958820,-98.1035355
1316,Southeast 18th Street,76067,32.7950135,-98.1016570
1202,Southeast 19th Street,76067,32.7941370,-98.1035635
1301,Southeast 21st Street,76067,32.7929795,-98.1023280
1005,Southeast 18th Street,76067,32.7953310,-98.1052725
900,Southeast 16th Street,76067,32.7962590,-98.1060530
1016,Southeast 18th Street,76067,32.7949755,-98.1047770
804,Southeast 17th Street,76067,32.7958165,-98.1062925
1403,Southeast 19th Street,76067,32.7945995,-98.1009230
1110,Southeast 19th Street,76067,32.7941365,-98.1040055
1100,Southeast 22nd Street,76067,32.7924705,-98.1045655
1906,Southeast 11th Avenue,76067,32.7946555,-98.1039150
910,Southeast 18th Street,76067,32.7949485,-98.1060455
1000,Southeast 17th Street,76067,32.7958055,-98.1052710
815,Southeast 18th Street,76067,32.7953485,-98.1060260
1017,Southeast 21st Street,76067,32.7929655,-98.1039595
1207,Veterans of Foreign Wars Street,76067,32.7915375,-98.1027600
1304,Southeast 20th Street,76067,32.7933510,-98.1020885
1307,Southeast 21st Street,76067,32.7930040,-98.1015320
817,Southeast 18th Street,76067,32.7953715,-98.1058205
1701,Southeast 12th Avenue,76067,32.7961855,-98.1021420
1416,Southeast 21st Street,76067,32.7926515,-98.1005905
1001,Southeast 21st Street,76067,32.7929575,-98.1043085
1402,Southeast 20th Street,76067,32.7933520,-98.1010535
1203,Veterans of Foreign Wars Street,76067,32.7915305,-98.1032595
1316,Southeast 19th Street,76067,32.7942350,-98.1016350
1400,Southeast 22nd Street,76067,32.7918960,-98.1010785
1310,Southeast 18th Street,76067,32.7950195,-98.1022115
1310,Southeast 16th Street,76067,32.7962700,-98.1018925
1115,Southeast 18th Street,76067,32.7953780,-98.1038735
1111,Southeast 18th Street,76067,32.7953555,-98.1040480
1701,Southeast 13th Avenue,76067,32.7962450,-98.1012140
1901,Southeast 11th Avenue,76067,32.7950210,-98.1034575
1105,Southeast 20th Street,76067,32.7937300,-98.1041925
1305,Southeast 21st Street,76067,32.7929930,-98.1017600
1202,Southeast 17th Street,76067,32.7958855,-98.1033690
813,Southeast 18th Street,76067,32.7953715,-98.1062995
916,Southeast 17th Street,76067,32.7957945,-98.1058180
1301,Southeast 20th Street,76067,32.7937820,-98.1023445
1212,Southeast 18th Street,76067,32.7949960,-98.1028850
1006,Southeast 18th Street,76067,32.7949715,-98.1052160
902,Southeast 16th Street,76067,32.7962375,-98.1058275
1416,Southeast 18th Street,76067,32.7950370,-98.1005960
1401,Southeast 21st Street,76067,32.7930350,-98.1012930
1213,Southeast 20th Street,76067,32.7937610,-98.1030380
1101,Southeast 19th Street,76067,32.7945150,-98.1043965
1302,Southeast 18th Street,76067,32.7950235,-98.1024010
1307,Southeast 22nd Street,76067,32.7922770,-98.1015895
1109,Southeast 20th Street,76067,32.7937290,-98.1040370
1315,Southeast 19th Street,76067,32.7945970,-98.1015965
1106,Southeast 18th Street,76067,32.7950185,-98.1038910
1106,Southeast 19th Street,76067,32.7941340,-98.1042085
1210,Southeast 18th Street,76067,32.7950160,-98.1030420
805,Harvey Road,76067,32.7890990,-98.0577090
100,Garrett Morris Parkway,76067,32.8101009,-98.0833820
3113,Northeast 2nd Street,76067,32.8110923,-98.0856240
194,Garrett Morris Parkway,76067,32.8081367,-98.0849995
200,Garrett Morris Parkway,76067,32.8081153,-98.0832696
2901,East US 180,76067,32.8104991,-98.0873348
2801,East Hubbard Street,76067,32.8099872,-98.0901205
2801,East Hubbard Street,76067,32.8103690,-98.0902883
3601,Northeast 2nd Street,76067,32.8113956,-98.0844649
3201,Northeast 2nd Street,76067,32.8112631,-98.0851817
2305,East Hubbard Street,76067,32.8095436,-98.0940959
2201,East Hubbard Street,76067,32.8095102,-98.0955498
2908,South Murco Drive,76067,32.8030325,-98.0847272
2500,Southeast 2nd Street,76067,32.8083231,-98.0894835
100,Southeast 10th Avenue,76067,32.8089155,-98.1046434
3703,Highway 180 East,76067,32.8111320,-98.0812452
1602,Southeast 25th Avenue,76067,32.7974380,-98.0884195
1600,Southeast 25th Avenue,76067,32.7976627,-98.0884202
7782,Mineral Wells Highway,76067,32.8069072,-98.0471483
3705,Highway 180 East,76067,32.8111230,-98.0807529
1701,Highway 180 West,76067,32.8018873,-98.1332309
3001,Northeast 2nd Street,76067,32.8116033,-98.0867541
2901,Northeast 2nd Street,76067,32.8112147,-98.0880872
6510,Shadowview Court,76067,32.8118081,-98.0585353
201,East Hubbard Street,76067,32.8095470,-98.1114843
3099,North Oak Avenue,76067,32.8300877,-98.1153828
402,Northwest 10th Street,76067,32.8169095,-98.1155763
1105,Northwest 3rd Avenue,76067,32.8171849,-98.1155576
1114,Northwest 3rd Avenue,76067,32.8171923,-98.1152028
408,Northwest 10th Street,76067,32.8170691,-98.1157637
604,Northwest 10th Street,76067,32.8170736,-98.1179999
610,Northwest 8th Street,76067,32.8156424,-98.1183113
512,Northwest 7th Street,76067,32.8146991,-98.1172080
1308,Northwest 3rd Avenue,76067,32.8185688,-98.1151905
1402,Northwest 3rd Avenue,76067,32.8190879,-98.1151943
300,Northwest 7th Street,76067,32.8152786,-98.1150464
2600,Highway 281 South,76067,32.7864787,-98.1149442
3005,Northeast 2nd Street,76067,32.8117124,-98.0858807
