House number,Street name,Postal code,Latitude,Longitude
13401,East Freeway,77523,29.8272217,-94.8499158
10403,I-10 East,77580,29.8228449,-94.8977118
9102,Highway 146,77580,29.8249451,-94.8976446
10605,Langston Drive,77523,29.8252705,-94.8940932
9224,North State Highway 146,77523,29.8270998,-94.8967748
10615,Langston Drive,77523,29.8254449,-94.8914133
11003,East Freeway,77523,29.8232667,-94.8888060
9232,North State Highway 146,77523,29.8280031,-94.8971049
10701,Langston Drive,77523,29.8279721,-94.8875309
9511,North State Highway 146,77523,29.8303299,-94.8972441
9118,North State Highway 146,77523,29.8259619,-94.8973287
9520,North State Highway 146,77523,29.8310445,-94.8961869
9533,North State Highway 146,77523,29.8311919,-94.8970719
9545,North State Highway 146,77523,29.8319581,-94.8968991
9515,North State Highway 146,77523,29.8304946,-94.8970831
104,Sun Oil Road,77523,29.8346812,-94.8944938
11015,East Freeway,77523,29.8230887,-94.8885259
9514,North State Highway 146,77523,29.8305151,-94.8963507
9529,North State Highway 146,77523,29.8309626,-94.8971280
9547,North State Highway 146,77523,29.8318593,-94.8967694
9210,North State Highway 146,77523,29.8268150,-94.8971397
9549,North State Highway 146,77523,29.8316682,-94.8967583
10717,Langston Drive,77523,29.8295039,-94.8840965
10715,Langston Drive,77523,29.8313940,-94.8851465
10635,Langston Drive,77523,29.8277318,-94.8877812
10599,Langston Drive,77523,29.8254545,-94.8951251
10615,East Freeway,77523,29.8227387,-94.8958353
10959,East Freeway,77523,29.8230929,-94.8897122
10627,Langston Drive,77523,29.8273153,-94.8885073
9430,North State Highway 146,77523,29.8295685,-94.8965397
135,Sun Oil Road,77523,29.8349222,-94.8925306
9531,North State Highway 146,77523,29.8310936,-94.8970960
9537,North State Highway 146,77523,29.8313685,-94.8970286
10530,Langston Drive,77523,29.8247517,-94.8961377
10607,Langston Drive,77523,29.8262863,-94.8926387
10614,Langston Drive,77523,29.8252553,-94.8899425
9539,North State Highway 146,77523,29.8314550,-94.8970074
9543,North State Highway 146,77523,29.8316239,-94.8969660
9226,North State Highway 146,77523,29.8272529,-94.8972673
11419,East Freeway,77523,29.8240654,-94.8816225
10610,Langston Drive,77523,29.8250250,-94.8907387
10527,Langston Drive,77523,29.8254225,-94.8963430
138,Sun Oil Road,77523,29.8343095,-94.8923091
9535,North State Highway 146,77523,29.8312978,-94.8970459
10919,East Freeway,77523,29.8230773,-94.8901294
9116,North State Highway 146,77523,29.8259891,-94.8973181
10703,Langston Drive,77523,29.8278960,-94.8868562
9030,North State Highway 146,77523,29.8240699,-94.8979850
9102,North State Highway 146,77523,29.8250849,-94.8974492
11277,East Freeway,77523,29.8236975,-94.8845452
9202,North State Highway 146,77523,29.8266495,-94.8973484
9541,North State Highway 146,77523,29.8315161,-94.8969924
9228,North State Highway 146,77523,29.8272803,-94.8972504
11331,East Freeway,77523,29.8238291,-94.8828997
9122,North State Highway 146,77523,29.8261747,-94.8971118
9407,North State Highway 146,77523,29.8292461,-94.8976352
14023,Saint Thomas Street,77523,29.8365739,-94.8403142
9106,Justin Way,77523,29.8281273,-94.8553239
3014,Demi Lane,77523,29.8385116,-94.8620264
14514,Meadowlands Drive,77523,29.8390191,-94.8337173
9810,Palm Drive,77523,29.8354445,-94.8598380
4114,Cypress Point Drive,77523,29.8462040,-94.8445920
9602,Keeneland Circle,77523,29.8386340,-94.8454627
13819,Martinique Lane,77523,29.8377883,-94.8439466
13927,Martinique Lane,77523,29.8375888,-94.8419651
9658,Keeneland Circle,77523,29.8390619,-94.8430060
3303,Charles Place,77523,29.8301646,-94.8534893
14626,Monmouth Park Drive,77523,29.8403334,-94.8310613
9606,Wincrest Drive,77523,29.8334464,-94.8565986
9711,Tanglewood,77523,29.8363573,-94.8550583
3402,Eagle Creek Drive,77523,29.8345579,-94.8530445
3403,Royal Palm Drive,77523,29.8402914,-94.8570348
4039,Longwood Drive,77523,29.8468967,-94.8460672
4106,Broadmoor Drive,77523,29.8475494,-94.8460972
3110,Ronnie Drive,77523,29.8406583,-94.8611829
9934,Palm Drive,77523,29.8366282,-94.8574403
14411,Fairmont Park Lane,77523,29.8411692,-94.8359639
10403,Eagle Drive,77523,29.8444100,-94.8563766
13618,Cotton Way,77523,29.8295934,-94.8439130
3115,Kathleen Boulevard,77523,29.8421119,-94.8624933
9719,Indian Trail,77523,29.8357908,-94.8571700
3222,Eagle Creek Drive,77523,29.8336202,-94.8548636
9726,Suffolk Downs Drive,77523,29.8398151,-94.8375560
9711,Crestwood,77523,29.8358743,-94.8560272
9223,Cotton Bend,77523,29.8304906,-94.8460388
4011,Broadmoor Drive,77523,29.8469278,-94.8478671
9710,Keeneland Circle,77523,29.8399813,-94.8432201
13903,Saint Thomas Street,77523,29.8368142,-94.8429331
9815,Oaklawn Drive,77523,29.8417421,-94.8344491
10207,Travis Lane,77523,29.8407996,-94.8590875
9714,Indian Trail,77523,29.8356906,-94.8564345
4107,Broadmoor Drive,77523,29.8478965,-94.8463040
3263,Bridgette Lane,77523,29.8428294,-94.8643566
4122,Broadmoor Drive,77523,29.8480054,-94.8450365
3311,Royal Palm Drive,77523,29.8397513,-94.8580343
9730,Suffolk Downs Drive,77523,29.8397115,-94.8372145
9758,Keeneland Circle,77523,29.8390262,-94.8455685
3525,Bridgette Lane,77523,29.8459421,-94.8582919
14646,Monmouth Park Drive,77523,29.8416275,-94.8309673
9119,Cotton Bend,77523,29.8291180,-94.8450356
4011,Longwood Drive,77523,29.8460117,-94.8474626
13822,Russell Court,77523,29.8301660,-94.8413011
9715,Oaklawn Drive,77523,29.8403865,-94.8351123
9110,Justin Way,77523,29.8282966,-94.8553401
9611,Wincrest Drive,77523,29.8334279,-94.8570815
3102,Royal Palm Drive,77523,29.8378446,-94.8605727
3106,Kathleen Boulevard,77523,29.8413040,-94.8627134
4018,Longwood Drive,77523,29.8459470,-94.8468082
9707,Wincrest Drive,77523,29.8344012,-94.8578145
9722,Inwood Circle,77523,29.8358165,-94.8533456
14610,Saratoga Lane,77523,29.8413998,-94.8331748
10211,Travis Lane,77523,29.8409060,-94.8588385
14051,Belmont Circle,77523,29.8399974,-94.8400993
10330,Travis Lane,77523,29.8437848,-94.8569242
10314,Travis Lane,77523,29.8427184,-94.8566457
9203,Justin Way,77523,29.8288350,-94.8557239
14035,Hawthorne Circle,77523,29.8389637,-94.8407954
13910,Martinique Lane,77523,29.8372277,-94.8429579
3003,Kathleen Boulevard,77523,29.8411749,-94.8643777
13911,Hawthorne Circle,77523,29.8385956,-94.8421193
13626,Cotton Run,77523,29.8302224,-94.8440999
3502,Eagle Creek Drive,77523,29.8352764,-94.8516485
9802,Santa Anita Drive,77523,29.8420466,-94.8313126
3026,Royal Palm Drive,77523,29.8376630,-94.8609027
10111,Palm Drive,77523,29.8388245,-94.8572144
3211,Trinity Drive,77523,29.8437370,-94.8669234
3318,Eagle Creek Drive,77523,29.8344410,-94.8532567
9607,Pimlico Drive,77523,29.8388240,-94.8417220
4106,Longwood Drive,77523,29.8467663,-94.8453645
4035,Longwood Drive,77523,29.8467857,-94.8463096
10118,Travis Lane,77523,29.8397021,-94.8609415
9602,Crestwood,77523,29.8344532,-94.8543376
14039,Belmont Circle,77523,29.8406243,-94.8403481
3321,Bridgette Lane,77523,29.8430788,-94.8638816
3402,Date Palm Court,77523,29.8390528,-94.8554277
3107,Ronnie Drive,77523,29.8409742,-94.8617854
13807,Gretzky Drive,77523,29.8317319,-94.8421139
9407,Trinidad Drive,77523,29.8350980,-94.8416749
3022,Demi Lane,77523,29.8387641,-94.8613428
14527,Meadowlands Drive,77523,29.8395292,-94.8330321
9610,Crestwood,77523,29.8348911,-94.8546498
3834,Cypress Point Drive,77523,29.8463155,-94.8487372
13903,Hawthorne Circle,77523,29.8390366,-94.8421079
4027,Cypress Point Drive,77523,29.8457861,-94.8461034
2935,Sable Palm Drive,77523,29.8365411,-94.8616150
9719,Palm Drive,77523,29.8354907,-94.8610455
14018,Hawthorne Circle,77523,29.8380294,-94.8405987
14623,Monmouth Park Drive,77523,29.8411577,-94.8310687
9219,Cotton Bend,77523,29.8302914,-94.8460114
13915,Belmont Circle,77523,29.8402563,-94.8428564
3203,Bridgette Lane,77523,29.8424788,-94.8661966
9711,Pimlico Drive,77523,29.8399863,-94.8417098
10042,Fan Palm Drive,77523,29.8381054,-94.8543443
3314,Ronnie Drive,77523,29.8421194,-94.8581998
3427,Royal Palm Drive,77523,29.8408767,-94.8555855
10600,Eagle Drive,77523,29.8480410,-94.8574168
3218,Royal Palm Drive,77523,29.8388805,-94.8586484
10222,Travis Lane,77523,29.8408329,-94.8576642
4006,Broadmoor Drive,77523,29.8464354,-94.8479098
3218,Kathleen Boulevard,77523,29.8424662,-94.8606482
3403,Kathleen Boulevard,77523,29.8437244,-94.8593622
9403,Trinidad Drive,77523,29.8348339,-94.8414882
3441,Bridgette Lane,77523,29.8447868,-94.8608575
9515,Saint Croix Way,77523,29.8364956,-94.8438352
14206,Meadowlands Drive,77523,29.8377744,-94.8377143
9219,Secretariat Lane,77523,29.8313055,-94.8414601
14207,Meadowlands Drive,77523,29.8382822,-94.8376164
2906,Kathleen Boulevard,77523,29.8400706,-94.8648663
14002,Martinique Lane,77523,29.8371316,-94.8415944
9110,Brett Court,77523,29.8284685,-94.8533601
10139,Travis Lane,77523,29.8405430,-94.8596378
9218,Secretariat Lane,77523,29.8313423,-94.8412018
13618,Cotton Court,77523,29.8286131,-94.8439966
10042,Palm Drive,77523,29.8383234,-94.8564808
3218,Ronnie Drive,77523,29.8415869,-94.8592996
9203,Cotton Bend,77523,29.8297203,-94.8453630
10035,Fan Palm Drive,77523,29.8385128,-94.8545179
13602,Cotton Way,77523,29.8293687,-94.8446756
13910,Belmont Circle,77523,29.8400610,-94.8420901
3319,Trinity Drive,77523,29.8453328,-94.8637261
3227,Royal Palm Drive,77523,29.8394637,-94.8586764
4115,Longwood Drive,77523,29.8472953,-94.8452240
3811,Perry Avenue,77523,29.8413865,-94.8492656
9202,Regan Way,77523,29.8292375,-94.8514526
3015,Demi Lane,77523,29.8388867,-94.8620860
3507,Kathleen Boulevard,77523,29.8446470,-94.8577368
9715,Wincrest Drive,77523,29.8347533,-94.8580797
9614,Tanglewood,77523,29.8356186,-94.8538245
14006,Martinique Lane,77523,29.8371082,-94.8413032
9618,Indian Trail,77523,29.8348300,-94.8558605
3514,Bridgette Lane,77523,29.8451150,-94.8588835
3243,Bridgette Lane,77523,29.8425570,-94.8647575
9215,Justin Way,77523,29.8294959,-94.8557800
3102,Kathleen Boulevard,77523,29.8412195,-94.8630821
9714,Crestwood,77523,29.8364042,-94.8556072
9622,Wincrest Drive,77523,29.8341306,-94.8570968
13926,Hawthorne Circle,77523,29.8381017,-94.8420028
9610,Tanglewood,77523,29.8353865,-94.8536833
10820,Eagle Drive,77523,29.8493741,-94.8591249
3402,Kathleen Boulevard,77523,29.8432476,-94.8591534
9710,Inwood Circle,77523,29.8365130,-94.8535794
9603,Meadowlands Circle,77523,29.8380941,-94.8396034
9718,Crestwood,77523,29.8366022,-94.8557690
4019,Cypress Point Drive,77523,29.8455160,-94.8464880
9107,Katie Court,77523,29.8283178,-94.8547261
4107,Cypress Point Drive,77523,29.8463551,-94.8451098
9910,Palm Drive,77523,29.8361357,-94.8584654
9918,Palm Drive,77523,29.8362959,-94.8581267
3006,Kathleen Boulevard,77523,29.8408310,-94.8638288
10010,Palm Drive,77523,29.8369851,-94.8568422
4110,Wilburn Ranch Drive,77523,29.8493568,-94.8469015
9703,Wincrest Drive,77523,29.8342405,-94.8577169
14607,Saratoga Lane,77523,29.8416431,-94.8333189
14007,Tobago Court,77523,29.8358123,-94.8413244
3202,Ronnie Drive,77523,29.8410818,-94.8603922
14063,Belmont Circle,77523,29.8394038,-94.8401827
9103,Cotton Bend,77523,29.8283474,-94.8449816
9714,Pimlico Drive,77523,29.8400989,-94.8411539
10537,Eagle Drive,77523,29.8458022,-94.8596865
4034,Longwood Drive,77523,29.8464205,-94.8459960
9718,Keeneland Circle,77523,29.8401988,-94.8435794
10306,Travis Lane,77523,29.8421461,-94.8566856
3211,Ronnie Drive,77523,29.8418131,-94.8602023
3302,Eagle Creek Drive,77523,29.8337572,-94.8545452
13914,Belmont Circle,77523,29.8402248,-94.8421952
9811,Santa Anita Drive,77523,29.8422653,-94.8318174
14618,Monmouth Park Drive,77523,29.8400890,-94.8314987
10223,Travis Lane,77523,29.8413913,-94.8580337
9406,Saint Croix Way,77523,29.8347609,-94.8422563
13922,Hawthorne Circle,77523,29.8381262,-94.8422386
9227,Cotton Bend,77523,29.8307083,-94.8460710
10305,Eagle Drive,77523,29.8430139,-94.8556797
4118,Cypress Point Drive,77523,29.8462763,-94.8443612
10110,Travis Lane,77523,29.8397196,-94.8615772
13615,Cotton Way,77523,29.8298672,-94.8440062
3119,Sable Palm Drive,77523,29.8377759,-94.8592240
3410,Kathleen Boulevard,77523,29.8435555,-94.8585137
10150,Fan Palm Drive,77523,29.8400358,-94.8552572
14007,Martinique Lane,77523,29.8375459,-94.8413717
9703,Indian Trail,77523,29.8349390,-94.8566041
3227,Charles Place,77523,29.8301275,-94.8542376
14003,Saint Thomas Street,77523,29.8366825,-94.8417332
3211,Sable Palm Drive,77523,29.8382956,-94.8582447
4007,Broadmoor Drive,77523,29.8467874,-94.8481163
14410,Meadowlands Drive,77523,29.8388850,-94.8351807
9222,Joe Louis Drive,77523,29.8313970,-94.8421960
3815,Cypress Point Drive,77523,29.8473966,-94.8488165
13810,Martinique Lane,77523,29.8373318,-94.8444185
3315,Kathleen Boulevard,77523,29.8434909,-94.8598652
9622,Keeneland Circle,77523,29.8383171,-94.8443676
9207,Justin Way,77523,29.8290522,-94.8557289
3240,Bridgette Lane,77523,29.8418774,-94.8645418
9819,Palm Drive,77523,29.8361204,-94.8597326
3010,Demi Lane,77523,29.8384924,-94.8624131
9927,Palm Drive,77523,29.8369154,-94.8578141
10530;10520,Eagle Drive,77523,29.8474719,-94.8568181
4022,Cypress Point Drive,77523,29.8453795,-94.8460562
9810,Santa Anita Drive,77523,29.8423866,-94.8315898
3026,Sable Palm Drive,77523,29.8366238,-94.8601780
9718,Tanglewood,77523,29.8370591,-94.8547952
3218,Eagle Creek Drive,77523,29.8335131,-94.8550641
2903,Kathleen Boulevard,77523,29.8403618,-94.8654224
10131,Travis Lane,77523,29.8402200,-94.8601752
3002,Kathleen Boulevard,77523,29.8406845,-94.8640844
4118,Broadmoor Drive,77523,29.8478935,-94.8452506
9711,Oaklawn Drive,77523,29.8401221,-94.8351537
3103,Royal Palm Drive,77523,29.8382402,-94.8610083
10138,Travis Lane,77523,29.8400643,-94.8592623
14015,Martinique Lane,77523,29.8375233,-94.8408172
14054,Belmont Circle,77523,29.8396131,-94.8407187
3003,Royal Palm Drive,77523,29.8376361,-94.8623093
10234,Travis Lane,77523,29.8411860,-94.8567914
9730,Wincrest Drive,77523,29.8355012,-94.8582588
9711,Wincrest Drive,77523,29.8345724,-94.8579445
9411,Trinidad Drive,77523,29.8353473,-94.8418498
4002,Cypress Point Drive,77523,29.8447822,-94.8470327
4003,Longwood Drive,77523,29.8458019,-94.8478620
3110,Sable Palm Drive,77523,29.8371363,-94.8593059
9727,Suffolk Downs Drive,77523,29.8401055,-94.8381115
4119,Broadmoor Drive,77523,29.8482563,-94.8454850
4123,Cypress Point Drive,77523,29.8467465,-94.8442828
10539,Eagle Drive,77523,29.8461585,-94.8597501
3227,Keeling Lane,77523,29.8289647,-94.8538101
9610,Oaklawn Drive,77523,29.8376690,-94.8365502
3429,Bridgette Lane,77523,29.8443343,-94.8614126
10227,Travis Lane,77523,29.8415064,-94.8577351
3110,Royal Palm Drive,77523,29.8380219,-94.8602428
3219,Kathleen Boulevard,77523,29.8431691,-94.8607722
14035,Belmont Circle,77523,29.8407901,-94.8405189
9702,Wincrest Drive,77523,29.8344720,-94.8573240
10134,Travis Lane,77523,29.8398595,-94.8596125
10203,Travis Lane,77523,29.8406416,-94.8593665
4122,Longwood Drive,77523,29.8471561,-94.8443971
9619,Tanglewood,77523,29.8355353,-94.8544571
10110,Fan Palm Drive,77523,29.8388650,-94.8543853
3334,Tug Way,77523,29.8280902,-94.8515270
9607,Tanglewood,77523,29.8348802,-94.8539792
3011,Demi Lane,77523,29.8388633,-94.8624582
3206,Ronnie Drive,77523,29.8411596,-94.8601081
3103,Kathleen Boulevard,77523,29.8416699,-94.8633356
9611,Indian Trail,77523,29.8340691,-94.8559827
14027,Hawthorne Circle,77523,29.8385012,-94.8408537
3508,Bridgette Lane,77523,29.8445627,-94.8596181
3023,Demi Lane,77523,29.8391263,-94.8614347
9731,Inwood Circle,77523,29.8357165,-94.8525653
3011,Royal Palm Drive,77523,29.8377279,-94.8619535
10206,Travis Lane,77523,29.8403294,-94.8587305
14006,Saint Thomas Street,77523,29.8362188,-94.8413860
9722,Pimlico Drive,77523,29.8405671,-94.8413549
9723,Wincrest Drive,77523,29.8350867,-94.8583565
9915,Oaklawn Drive,77523,29.8427759,-94.8329065
9811,Palm Drive,77523,29.8359520,-94.8600442
9418,Saint Croix Way,77523,29.8354064,-94.8427154
9730,Keeneland Circle,77523,29.8398148,-94.8442836
3323,Charles Place,77523,29.8302709,-94.8522449
13906,Belmont Circle,77523,29.8397840,-94.8420291
9825,Eagle Drive,77523,29.8404529,-94.8535297
3203,Sable Palm Drive,77523,29.8381426,-94.8585444
14302,Meadowlands Drive,77523,29.8382148,-94.8367617
4118,Longwood Drive,77523,29.8470903,-94.8446660
14018,Saint Thomas Street,77523,29.8361569,-94.8405452
10102,Fan Palm Drive,77523,29.8385408,-94.8540868
3310,Bridgette Lane,77523,29.8425299,-94.8635384
3010,Sable Palm Drive,77523,29.8363351,-94.8607587
4114,Broadmoor Drive,77523,29.8477986,-94.8455320
14002,Hawthorne Circle,77523,29.8381529,-94.8414018
3202,Royal Palm Drive,77523,29.8385701,-94.8592232
3515,Trinity Drive,77523,29.8472241,-94.8612442
9603,Indian Trail,77523,29.8337388,-94.8557063
9607,Inwood Circle,77523,29.8359325,-94.8521211
14058,Belmont Circle,77523,29.8394589,-94.8407381
9718,Palm Drive,77523,29.8349122,-94.8608127
9831,Oaklawn Drive,77523,29.8423310,-94.8337403
3435,Bridgette Lane,77523,29.8444409,-94.8611927
10002,Fan Palm Drive,77523,29.8376491,-94.8557196
9527,Wincrest Drive,77523,29.8327280,-94.8566168
13607,Cotton Way,77523,29.8297549,-94.8444898
4127,Cypress Point Drive,77523,29.8467270,-94.8440376
14014,Saint Thomas Street,77523,29.8361764,-94.8408283
3327,Bridgette Lane,77523,29.8436975,-94.8624779
3914,Cypress Point Drive,77523,29.8454745,-94.8481892
9706,Keeneland Circle,77523,29.8397288,-94.8431050
14315,Fairmont Park Lane,77523,29.8407586,-94.8368374
9207,Cotton Bend,77523,29.8298620,-94.8455350
9107,Cotton Bend,77523,29.8285098,-94.8450212
13811,Evert Court,77523,29.8327637,-94.8428423
13911,Saint Thomas Street,77523,29.8366850,-94.8422158
9726,Keeneland Circle,77523,29.8399281,-94.8440838
14122,Meadowlands Drive,77523,29.8378944,-94.8387118
3407,Kathleen Boulevard,77523,29.8438777,-94.8590745
9306,Secretariat Lane,77523,29.8328312,-94.8415554
13911,Martinique Lane,77523,29.8376821,-94.8430656
9638,Keeneland Circle,77523,29.8383152,-94.8436279
10027,Fan Palm Drive,77523,29.8384427,-94.8548273
3011,Ronnie Drive,77523,29.8402827,-94.8631007
10322,Travis Lane,77523,29.8432570,-94.8567091
14002,Saint Thomas Street,77523,29.8362422,-94.8416772
13610,Cottonwood Drive,77523,29.8309116,-94.8451588
9827,Oaklawn Drive,77523,29.8422167,-94.8339288
4102,Longwood Drive,77523,29.8466742,-94.8455778
9103,Katie Court,77523,29.8281687,-94.8545847
3019,Demi Lane,77523,29.8390010,-94.8619280
10318,Travis Lane,77523,29.8429909,-94.8566923
3414,Kathleen Boulevard,77523,29.8437129,-94.8582304
3418,Kathleen Boulevard,77523,29.8438712,-94.8579742
9615,Indian Trail,77523,29.8342698,-94.8561247
10206,Krystine Drive,77523,29.8379312,-94.8630115
3318,Trinity Drive,77523,29.8447851,-94.8631884
9610,Keeneland Circle,77523,29.8384261,-94.8451535
9606,Inwood Circle,77523,29.8362064,-94.8515858
2907,Demi Lane,77523,29.8392316,-94.8643879
3118,Kathleen Boulevard,77523,29.8417460,-94.8619375
13907,Martinique Lane,77523,29.8377406,-94.8433339
4111,Broadmoor Drive,77523,29.8480169,-94.8460442
9719,Suffolk Downs Drive,77523,29.8399204,-94.8385588
9802,Oaklawn Drive,77523,29.8410399,-94.8344078
10739,Eagle Drive,77523,29.8483073,-94.8598081
3226,Trinity Drive,77523,29.8438279,-94.8650988
3310,Royal Palm Drive,77523,29.8393601,-94.8577538
9207,Regan Way,77523,29.8294120,-94.8517682
3510,Kathleen Boulevard,77523,29.8444198,-94.8572635
3223,Trinity Drive,77523,29.8443391,-94.8655919
4103,Longwood Drive,77523,29.8470035,-94.8458476
9523,Wincrest Drive,77523,29.8325467,-94.8564708
9718,Wincrest Drive,77523,29.8352150,-94.8578691
13903,Belmont Circle,77523,29.8395317,-94.8425967
10018,Palm Drive,77523,29.8373429,-94.8564767
3019,Sable Palm Drive,77523,29.8370804,-94.8605867
3511,Kathleen Boulevard,77523,29.8447978,-94.8574948
13914,Hawthorne Circle,77523,29.8384177,-94.8426485
9610,Pimlico Drive,77523,29.8389704,-94.8411962
3111,Ronnie Drive,77523,29.8410831,-94.8615192
9710,Wincrest Drive,77523,29.8348391,-94.8576104
3506,Bridgette Lane,77523,29.8449163,-94.8592317
9614,Keeneland Circle,77523,29.8383802,-94.8448534
3311,Trinity Drive,77523,29.8450404,-94.8643230
9606,Pimlico Drive,77523,29.8387244,-94.8412128
3219,Sable Palm Drive,77523,29.8384298,-94.8578828
14406,Fairmont Park Lane,77523,29.8407821,-94.8359583
14022,Saint Thomas Street,77523,29.8361338,-94.8402664
9802,Palm Drive,77523,29.8352414,-94.8601494
9706,Crestwood,77523,29.8359690,-94.8553582
3319,Royal Palm Drive,77523,29.8399365,-94.8576847
9650,Keeneland Circle,77523,29.8385785,-94.8431664
3902,Cypress Point Drive,77523,29.8460904,-94.8486025
9715,Indian Trail,77523,29.8355907,-94.8570467
13603,Cotton Run,77523,29.8303920,-94.8455124
9806,Santa Anita Drive,77523,29.8422156,-94.8314667
2919,Kathleen Boulevard,77523,29.8410161,-94.8646257
3419,Date Palm Court,77523,29.8395664,-94.8553368
9503,Saint Croix Way,77523,29.8358625,-94.8433921
9410,Saint Croix Way,77523,29.8349808,-94.8424078
9614,Red Forest Circle,77523,29.8410043,-94.8307172
3215,Charles Place,77523,29.8300341,-94.8549882
4027,Longwood Drive,77523,29.8465224,-94.8467338
9096,Oaklawn Drive,77523,29.8377921,-94.8367878
9723,Indian Trail,77523,29.8359706,-94.8571627
9218,Joe Louis Drive,77523,29.8311753,-94.8421708
3410,Eagle Creek Drive,77523,29.8348906,-94.8523905
10210,Travis Lane,77523,29.8403920,-94.8584971
9811,Oaklawn Drive,77523,29.8415978,-94.8346388
14043,Belmont Circle,77523,29.8404380,-94.8402588
3111,Kathleen Boulevard,77523,29.8419278,-94.8628106
3210,Trinity Drive,77523,29.8429797,-94.8667222
3218,Charles Place,77523,29.8297443,-94.8547142
3303,Trinity Drive,77523,29.8447078,-94.8650097
3403,Ronnie Drive,77523,29.8429296,-94.8579761
10629,Eagle Drive,77523,29.8472676,-94.8585948
9723,Tanglewood,77523,29.8369814,-94.8552495
9407,Saint Croix Way,77523,29.8345904,-94.8425060
9754,Keeneland Circle,77523,29.8392719,-94.8453463
9607,Red Forest Circle,77523,29.8406584,-94.8306924
13635,Cottonwood Drive,77523,29.8315123,-94.8439433
3210,Royal Palm Drive,77523,29.8387433,-94.8588984
9610,Berwick Circle,77523,29.8399036,-94.8320206
9203,Joe Louis Drive,77523,29.8301531,-94.8422331
9702,Inwood Circle,77523,29.8367083,-94.8530387
3826,Cypress Point Drive,77523,29.8467768,-94.8489787
3210,Kathleen Boulevard,77523,29.8422149,-94.8610943
4102,Wilburn Ranch Drive,77523,29.8489372,-94.8475416
14126,Meadowlands Drive,77523,29.8378349,-94.8384607
3215,Ronnie Drive,77523,29.8419567,-94.8598833
9702,Pimlico Drive,77523,29.8395043,-94.8412045
9619,Crestwood,77523,29.8350673,-94.8554078
10231,Travis Lane,77523,29.8416733,-94.8574521
10114,Travis Lane,77523,29.8397010,-94.8612722
3106,Ronnie Drive,77523,29.8406206,-94.8615334
13606,Cotton Court,77523,29.8283260,-94.8446909
10026,Palm Drive,77523,29.8376578,-94.8564590
13803,Martinique Lane,77523,29.8376639,-94.8450181
4110,Broadmoor Drive,77523,29.8476647,-94.8458320
9610,Inwood Circle,77523,29.8363619,-94.8517595
10302,Krystine Drive,77523,29.8390688,-94.8631954
9506,Saint Croix Way,77523,29.8362677,-94.8433097
9735,Inwood Circle,77523,29.8354730,-94.8524281
14514,Aqueduct Avenue,77523,29.8405205,-94.8339916
4023,Cypress Point Drive,77523,29.8456645,-94.8462815
9111,Kay Kay Court,77523,29.8287284,-94.8526673
3418,Bridgette Lane,77523,29.8439947,-94.8609144
9102,Eagle Drive,77523,29.8278752,-94.8459752
3502,Kathleen Boulevard,77523,29.8440125,-94.8576779
14010,Hawthorne Circle,77523,29.8380044,-94.8410863
9607,Wincrest Drive,77523,29.8332524,-94.8569681
14519,Meadowlands Drive,77523,29.8393637,-94.8334704
13614,Cotton Run,77523,29.8301457,-94.8448757
10126,Fan Palm Drive,77523,29.8393453,-94.8547583
3342,Bridgette Lane,77523,29.8432934,-94.8618939
9107,Justin Way,77523,29.8283338,-94.8557627
10106,Travis Lane,77523,29.8399157,-94.8618795
3214,Kathleen Boulevard,77523,29.8423314,-94.8608943
9722,Crestwood,77523,29.8366091,-94.8559711
3207,Kathleen Boulevard,77523,29.8427325,-94.8615355
3806,Cypress Point Drive,77523,29.8477267,-94.8495702
9734,Inwood Circle,77523,29.8352048,-94.8528603
10102,Palm Drive,77523,29.8386861,-94.8564954
10135,Travis Lane,77523,29.8403889,-94.8599084
10303,Krystine Drive,77523,29.8390942,-94.8637671
2903,Demi Lane,77523,29.8391145,-94.8646864
3510,Bridgette Lane,77523,29.8449579,-94.8591550
9623,Tanglewood,77523,29.8357644,-94.8545955
14019,Belmont Circle,77523,29.8415293,-94.8410522
10312,Krystine Drive,77523,29.8400108,-94.8634553
10323,Travis Lane,77523,29.8431324,-94.8573715
9510,Saint Croix Way,77523,29.8364842,-94.8434654
14015,Belmont Circle,77523,29.8414340,-94.8412929
9123,Cotton Bend,77523,29.8293388,-94.8450586
9743,Suffolk Downs Drive,77523,29.8400807,-94.8368624
9523,Saint Croix Way,77523,29.8369133,-94.8440033
9426,Saint Croix Way,77523,29.8358355,-94.8430188
3119,Ronnie Drive,77523,29.8413949,-94.8610093
13902,Hawthorne Circle,77523,29.8390193,-94.8426372
9202,Kay Kay Court,77523,29.8291427,-94.8524153
9723,Inwood Circle,77523,29.8362255,-94.8529052
10303,Eagle Drive,77523,29.8433868,-94.8558658
13814,Martinique Lane,77523,29.8373383,-94.8440966
3202,Kathleen Boulevard,77523,29.8419144,-94.8616195
10215,Travis Lane,77523,29.8410787,-94.8585691
4002,Longwood Drive,77523,29.8454680,-94.8476037
3818,Cypress Point Drive,77523,29.8470754,-94.8491720
13630,Cottonwood Drive,77523,29.8310469,-94.8439982
10018,Fan Palm Drive,77523,29.8377919,-94.8551506
10000,Eagle Drive,77523,29.8404621,-94.8507432
9623,Indian Trail,77523,29.8345883,-94.8563744
9707,Tanglewood,77523,29.8361568,-94.8549305
9714,Tanglewood,77523,29.8368767,-94.8546298
4018,Broadmoor Drive,77523,29.8469402,-94.8471529
3103,Ronnie Drive,77523,29.8408427,-94.8620504
3910,Cypress Point Drive,77523,29.8456757,-94.8483248
14030,Belmont Circle,77523,29.8408365,-94.8411219
9623,Oaklawn Drive,77523,29.8382372,-94.8359510
9607,Indian Trail,77523,29.8339089,-94.8558230
9207,Secretariat Lane,77523,29.8307103,-94.8413303
13922,Martinique Lane,77523,29.8371654,-94.8421048
3023,Ronnie Drive,77523,29.8406918,-94.8623106
14306,Meadowlands Drive,77523,29.8383525,-94.8364469
3415,Kathleen Boulevard,77523,29.8441499,-94.8585402
13906,Saint Thomas Street,77523,29.8362623,-94.8425567
9606,Indian Trail,77523,29.8342878,-94.8554517
9726,Wincrest Drive,77523,29.8355458,-94.8580639
9715,Pimlico Drive,77523,29.8401901,-94.8418132
3513,Bridgette Lane,77523,29.8455288,-94.8590762
3521,Bridgette Lane,77523,29.8458108,-94.8585305
13907,Saint Thomas Street,77523,29.8367744,-94.8425173
3918,Cypress Point Drive,77523,29.8453024,-94.8480318
9202,Joe Louis Drive,77523,29.8302875,-94.8419468
3319,Charles Place,77523,29.8302629,-94.8525080
3119,Kathleen Boulevard,77523,29.8422485,-94.8622689
4034,Cypress Point Drive,77523,29.8457781,-94.8454613
2919,Sable Palm Drive,77523,29.8361007,-94.8622371
3202,Trinity Drive,77523,29.8426043,-94.8672962
9727,Inwood Circle,77523,29.8359562,-94.8527232
9714,Keeneland Circle,77523,29.8401631,-94.8433507
9654,Keeneland Circle,77523,29.8388331,-94.8430219
9722,Tanglewood,77523,29.8370927,-94.8550106
3307,Ronnie Drive,77523,29.8423913,-94.8590598
3214,Ronnie Drive,77523,29.8414299,-94.8595338
3319,Kathleen Boulevard,77523,29.8436573,-94.8596133
9611,Inwood Circle,77523,29.8361509,-94.8522628
4035,Cypress Point Drive,77523,29.8460435,-94.8456920
10515,Eagle Drive,77523,29.8461779,-94.8576878
9403,Saint Croix Way,77523,29.8343668,-94.8423506
9702,Tanglewood,77523,29.8362524,-94.8542797
14310,Fairmont Park Lane,77523,29.8403252,-94.8366857
3107,Kathleen Boulevard,77523,29.8417711,-94.8630942
13614,Cotton Way,77523,29.8294446,-94.8439188
3319,Ronnie Drive,77523,29.8427749,-94.8582473
4026,Broadmoor Drive,77523,29.8472663,-94.8466808
9619,Oaklawn Drive,77523,29.8380780,-94.8362004
9211,Regan Way,77523,29.8296261,-94.8518010
13630,Cotton Run,77523,29.8303661,-94.8439790
10214,Krystine Drive,77523,29.8385568,-94.8629802
13910,Hawthorne Circle,77523,29.8385972,-94.8427070
10019,Fan Palm Drive,77523,29.8383273,-94.8551868
9710,Pimlico Drive,77523,29.8398912,-94.8411098
9719,Tanglewood,77523,29.8367745,-94.8553543
10110,Palm Drive,77523,29.8391043,-94.8565126
9611,Pimlico Drive,77523,29.8390350,-94.8416871
3014,Ronnie Drive,77523,29.8399243,-94.8625276
14003,Tobago Court,77523,29.8355647,-94.8415484
3830,Cypress Point Drive,77523,29.8465638,-94.8488503
9719,Pimlico Drive,77523,29.8403654,-94.8419179
3922,Cypress Point Drive,77523,29.8451009,-94.8478893
14042,Belmont Circle,77523,29.8403036,-94.8408023
14003,Martinique Lane,77523,29.8375879,-94.8416299
9607,Meadowlands Circle,77523,29.8383471,-94.8394997
13607,Cotton Run,77523,29.8304320,-94.8452553
3115,Ronnie Drive,77523,29.8412292,-94.8612591
9630,Keeneland Circle,77523,29.8382893,-94.8441143
4102,Broadmoor Drive,77523,29.8474103,-94.8463861
4015,Cypress Point Drive,77523,29.8454020,-94.8466521
3411,Date Palm Court,77523,29.8394217,-94.8556638
3310,Eagle Creek Drive,77523,29.8341115,-94.8539169
9411,Saint Croix Way,77523,29.8348032,-94.8426578
13626,Cottonwood Drive,77523,29.8310609,-94.8442294
3010,Kathleen Boulevard,77523,29.8409386,-94.8635974
4022,Wilburn Ranch Drive,77523,29.8487601,-94.8478830
9638,Oaklawn Drive,77523,29.8383276,-94.8349132
14023,Martinique Lane,77523,29.8374875,-94.8402428
9214,Secretariat Lane,77523,29.8311410,-94.8411620
3414,Eagle Creek Drive,77523,29.8350558,-94.8520714
2911,Sable Palm Drive,77523,29.8357415,-94.8620376
4018,Wilburn Ranch Drive,77523,29.8486120,-94.8482006
3402,Trinity Drive,77523,29.8451660,-94.8625161
13903,Martinique Lane,77523,29.8377637,-94.8436169
13618,Cottonwood Drive,77523,29.8309896,-94.8446920
4006,Cypress Point Drive,77523,29.8448952,-94.8468322
3114,Ronnie Drive,77523,29.8407946,-94.8609177
4023,Longwood Drive,77523,29.8463896,-94.8469091
3210,Ronnie Drive,77523,29.8412648,-94.8598167
13919,Belmont Circle,77523,29.8404238,-94.8428956
9826,Santa Anita Drive,77523,29.8431026,-94.8320503
9127,Cotton Bend,77523,29.8295715,-94.8451629
3126,Sable Palm Drive,77523,29.8374827,-94.8586563
3930,Cypress Point Drive,77523,29.8446797,-94.8475914
9914,Oaklawn Drive,77523,29.8425155,-94.8328436
9302,Secretariat Lane,77523,29.8326044,-94.8414619
3318,Charles Place,77523,29.8299838,-94.8524502
4111,Cypress Point Drive,77523,29.8464445,-94.8449193
13610,Cotton Court,77523,29.8284248,-94.8444426
3203,Kathleen Boulevard,77523,29.8424133,-94.8619885
9202,Katie Court,77523,29.8289711,-94.8542755
9747,Suffolk Downs Drive,77523,29.8398765,-94.8366330
9310,Secretariat Lane,77523,29.8330170,-94.8416711
2927,Sable Palm Drive,77523,29.8364376,-94.8620091
3215,Kathleen Boulevard,77523,29.8427949,-94.8612158
10168,Fan Palm Drive,77523,29.8402718,-94.8554626
9715,Crestwood,77523,29.8361046,-94.8562278
9203,Secretariat Lane,77523,29.8305062,-94.8412941
9610,Indian Trail,77523,29.8344773,-94.8556239
3803,Cypress Point Drive,77523,29.8481299,-94.8492171
9702,Keeneland Circle,77523,29.8395155,-94.8430677
10159,Fan Palm Drive,77523,29.8401463,-94.8558011
9723,Suffolk Downs Drive,77523,29.8400208,-94.8383065
9730,Inwood Circle,77523,29.8353959,-94.8530320
9935,Palm Drive,77523,29.8371008,-94.8574692
9422,Saint Croix Way,77523,29.8356226,-94.8428629
4115,Broadmoor Drive,77523,29.8481314,-94.8457563
4031,Cypress Point Drive,77523,29.8459230,-94.8459065
9111,Brett Court,77523,29.8284372,-94.8536472
9726,Pimlico Drive,77523,29.8407323,-94.8415060
2906,Demi Lane,77523,29.8386016,-94.8641447
14007,Belmont Circle,77523,29.8411636,-94.8415907
4003,Broadmoor Drive,77523,29.8466917,-94.8483751
9702,Palm Drive,77523,29.8351012,-94.8615609
9714,Wincrest Drive,77523,29.8350472,-94.8576951
9607,Crestwood,77523,29.8343871,-94.8549367
3203,Royal Palm Drive,77523,29.8390585,-94.8598689
3311,Kathleen Boulevard,77523,29.8433254,-94.8601444
13811,Gretzky Drive,77523,29.8317732,-94.8419067
14046,Belmont Circle,77523,29.8400656,-94.8407068
4030,Longwood Drive,77523,29.8463041,-94.8462216
4122,Cypress Point Drive,77523,29.8463124,-94.8441183
4103,Broadmoor Drive,77523,29.8477415,-94.8465595
10003,Fan Palm Drive,77523,29.8380036,-94.8557861
9618,Inwood Circle,77523,29.8368243,-94.8520220
10238,Travis Lane,77523,29.8415897,-94.8566771
3211,Charles Place,77523,29.8300374,-94.8552232
10130,Travis Lane,77523,29.8397435,-94.8599353
13618,Cotton Run,77523,29.8301830,-94.8446424
10034,Palm Drive,77523,29.8379819,-94.8564654
14027,Belmont Circle,77523,29.8412228,-94.8407819
9622,Tanglewood,77523,29.8360096,-94.8541157
3011,Sable Palm Drive,77523,29.8369137,-94.8609885
13523,Cottonwood Drive,77523,29.8311651,-94.8460160
3338,Bridgette Lane,77523,29.8431986,-94.8621313
14022,Martinique Lane,77523,29.8370267,-94.8401794
9727,Palm Drive,77523,29.8356213,-94.8607024
9810,Oaklawn Drive,77523,29.8414861,-94.8342022
13807,Martinique Lane,77523,29.8379220,-94.8447886
14030,Hawthorne Circle,77523,29.8386849,-94.8403152
9618,Crestwood,77523,29.8353238,-94.8548654
13918,Martinique Lane,77523,29.8371851,-94.8423919
13815,Martinique Lane,77523,29.8378133,-94.8441990
9722,Keeneland Circle,77523,29.8400390,-94.8438440
10127,Palm Drive,77523,29.8394855,-94.8571060
3338,Tug Way,77523,29.8281369,-94.8513453
3411,Royal Palm Drive,77523,29.8404647,-94.8567148
13610,Cotton Run,77523,29.8301093,-94.8451365
14019,Saint Thomas Street,77523,29.8365936,-94.8406013
13614,Cottonwood Drive,77523,29.8309522,-94.8449214
10210,Krystine Drive,77523,29.8381847,-94.8629738
3315,Bridgette Lane,77523,29.8429656,-94.8640831
9419,Trinidad Drive,77523,29.8358543,-94.8421212
3219,Ronnie Drive,77523,29.8421347,-94.8596238
9818,Palm Drive,77523,29.8356155,-94.8594407
4015,Longwood Drive,77523,29.8461190,-94.8472600
3027,Sable Palm Drive,77523,29.8372109,-94.8602442
10126,Palm Drive,77523,29.8398178,-94.8565667
9627,Indian Trail,77523,29.8347412,-94.8565559
4014,Broadmoor Drive,77523,29.8467704,-94.8474090
9718,Inwood Circle,77523,29.8360253,-94.8534933
4023,Broadmoor Drive,77523,29.8474140,-94.8471449
14211,Meadowlands Drive,77523,29.8384194,-94.8372349
9614,Indian Trail,77523,29.8346589,-94.8556986
9214,Joe Louis Drive,77523,29.8309859,-94.8421306
3310,Ronnie Drive,77523,29.8419835,-94.8584631
3314,Kathleen Boulevard,77523,29.8430379,-94.8595490
2903,Sable Palm Drive,77523,29.8353806,-94.8617743
9414,Saint Croix Way,77523,29.8351936,-94.8425596
9715,Tanglewood,77523,29.8365382,-94.8552462
9718,Indian Trail,77523,29.8358888,-94.8565187
10219,Travis Lane,77523,29.8412244,-94.8582749
9614,Wincrest Drive,77523,29.8337978,-94.8568418
14038,Belmont Circle,77523,29.8404677,-94.8408740
3118,Royal Palm Drive,77523,29.8382195,-94.8598779
3119,Royal Palm Drive,77523,29.8385883,-94.8602715
10119,Palm Drive,77523,29.8391566,-94.8570756
14202,Meadowlands Drive,77523,29.8377779,-94.8379785
3306,Eagle Creek Drive,77523,29.8339618,-94.8541938
13906,Martinique Lane,77523,29.8372547,-94.8432489
9402,Saint Croix Way,77523,29.8345264,-94.8420972
10327,Travis Lane,77523,29.8435800,-94.8572244
4015,Broadmoor Drive,77523,29.8470922,-94.8475942
13802,Evert Court,77523,29.8323614,-94.8429649
9107,Regan Way,77523,29.8284154,-94.8516428
9615,Tanglewood,77523,29.8353422,-94.8543055
3307,Kathleen Boulevard,77523,29.8433051,-94.8604281
4131,Longwood Drive,77523,29.8476684,-94.8443592
4123,Longwood Drive,77523,29.8474702,-94.8448147
3111,Royal Palm Drive,77523,29.8384455,-94.8606290
9727,Wincrest Drive,77523,29.8352992,-94.8584301
13931,Belmont Circle,77523,29.8408528,-94.8423007
9703,Crestwood,77523,29.8354814,-94.8556945
10202,Travis Lane,77523,29.8402106,-94.8590078
9726,Inwood Circle,77523,29.8356096,-94.8531795
3302,Kathleen Boulevard,77523,29.8426259,-94.8603058
3018,Demi Lane,77523,29.8386195,-94.8617407
9511,Saint Croix Way,77523,29.8362902,-94.8436873
9738,Keeneland Circle,77523,29.8396030,-94.8447127
9711,Indian Trail,77523,29.8353679,-94.8568424
14603,Monmouth Park Drive,77523,29.8404391,-94.8322735
13622,Cotton Court,77523,29.8286629,-94.8438025
13622,Cotton Run,77523,29.8301822,-94.8443949
9710,Tanglewood,77523,29.8366453,-94.8545388
4106,Cypress Point Drive,77523,29.8460098,-94.8449917
9202,Franklin Drive,77523,29.8296076,-94.8536309
9710,Palm Drive,77523,29.8348948,-94.8613537
9610,Wincrest Drive,77523,29.8336123,-94.8567124
9707,Pimlico Drive,77523,29.8397616,-94.8416729
3007,Kathleen Boulevard,77523,29.8412261,-94.8641269
9707,Indian Trail,77523,29.8351815,-94.8567164
13914,Martinique Lane,77523,29.8372118,-94.8426747
9919,Palm Drive,77523,29.8367420,-94.8581340
9603,Tanglewood,77523,29.8346644,-94.8538288
9502,Saint Croix Way,77523,29.8360480,-94.8431623
9907,Oaklawn Drive,77523,29.8425503,-94.8333178
3303,Ronnie Drive,77523,29.8422357,-94.8593614
13935,Belmont Circle,77523,29.8409424,-94.8420472
4123,Broadmoor Drive,77523,29.8483805,-94.8451911
9602,Pimlico Drive,77523,29.8385416,-94.8412334
14026,Hawthorne Circle,77523,29.8384739,-94.8403501
14523,Aqueduct Avenue,77523,29.8410548,-94.8336992
9631,Oaklawn Drive,77523,29.8384769,-94.8354905
13602,Cottonwood Drive,77523,29.8308436,-94.8456173
13606,Cottonwood Drive,77523,29.8308776,-94.8453881
10011,Fan Palm Drive,77523,29.8381767,-94.8554726
13911,Belmont Circle,77523,29.8400036,-94.8426563
14023,Belmont Circle,77523,29.8413455,-94.8408558
9115,Cotton Bend,77523,29.8289064,-94.8450122
3003,Sable Palm Drive,77523,29.8367391,-94.8612698
14622,Monmouth Park Drive,77523,29.8401891,-94.8312604
3427,Bridgette Lane,77523,29.8441670,-94.8617285
9615,Inwood Circle,77523,29.8364187,-94.8524122
13919,Martinique Lane,77523,29.8376352,-94.8425027
9923,Oaklawn Drive,77523,29.8429821,-94.8325166
3501,Bridgette Lane,77523,29.8450093,-94.8600454
9107,Brett Court,77523,29.8282433,-94.8536182
3411,Kathleen Boulevard,77523,29.8440046,-94.8588242
9630,Oaklawn Drive,77523,29.8380388,-94.8353412
14010,Saint Thomas Street,77523,29.8361998,-94.8411194
14011,Tobago Court,77523,29.8357300,-94.8410457
14619,Monmouth Park Drive,77523,29.8408112,-94.8311034
3316,Bridgette Lane,77523,29.8425852,-94.8634525
4011,Cypress Point Drive,77523,29.8453049,-94.8468520
9722,Indian Trail,77523,29.8360567,-94.8566480
3502,Trinity Drive,77523,29.8460593,-94.8612740
9415,Trinidad Drive,77523,29.8355966,-94.8420248
3303,Keeling Lane,77523,29.8289732,-94.8535355
10035,Palm Drive,77523,29.8378864,-94.8568213
3410,Trinity Drive,77523,29.8455506,-94.8619613
4110,Cypress Point Drive,77523,29.8461073,-94.8448055
4126,Cypress Point Drive,77523,29.8464983,-94.8439649
13606,Cotton Way,77523,29.8294060,-94.8444422
14006,Hawthorne Circle,77523,29.8380275,-94.8412760
3127,Sable Palm Drive,77523,29.8379206,-94.8589293
4022,Longwood Drive,77523,29.8460645,-94.8466165
14611,Monmouth Park Drive,77523,29.8403539,-94.8316071
13810,Russell Court,77523,29.8298598,-94.8419232
9103,Kay Kay Court,77523,29.8283134,-94.8526334
9926,Palm Drive,77523,29.8364518,-94.8577834
3406,Eagle Creek Drive,77523,29.8347230,-94.8527286
3326,Charles Place,77523,29.8300243,-94.8519415
3337,Bridgette Lane,77523,29.8439771,-94.8621156
3014,Kathleen Boulevard,77523,29.8410814,-94.8633510
9843,Eagle Drive,77523,29.8414682,-94.8541978
3015,Ronnie Drive,77523,29.8404051,-94.8628527
9615,Wincrest Drive,77523,29.8335987,-94.8572006
10302,Travis Lane,77523,29.8418788,-94.8566784
3403,Date Palm Court,77523,29.8392634,-94.8555515
9827,Palm Drive,77523,29.8362888,-94.8593566
9622,Crestwood,77523,29.8355235,-94.8550580
9111,Katie Court,77523,29.8285694,-94.8546744
13610,Cotton Way,77523,29.8293749,-94.8442117
9602,Indian Trail,77523,29.8340269,-94.8553450
9722,Wincrest Drive,77523,29.8354164,-94.8578938
13923,Belmont Circle,77523,29.8406140,-94.8427003
2915,Kathleen Boulevard,77523,29.8409170,-94.8649023
10102,Travis Lane,77523,29.8401966,-94.8618314
9722,Oaklawn Drive,77523,29.8407135,-94.8345390
9414,Trinidad Drive,77523,29.8357499,-94.8417635
13602,Cotton Court,77523,29.8282753,-94.8448565
9855,Eagle Drive,77523,29.8416827,-94.8546609
4019,Longwood Drive,77523,29.8462520,-94.8470903
9214,Justin Way,77523,29.8295973,-94.8554209
4106,Wilburn Ranch Drive,77523,29.8491287,-94.8471883
9714,Inwood Circle,77523,29.8362438,-94.8536710
9742,Keeneland Circle,77523,29.8395465,-94.8449575
9603,Wincrest Drive,77523,29.8330866,-94.8568598
3505,Bridgette Lane,77523,29.8452167,-94.8596233
3311,Ronnie Drive,77523,29.8425060,-94.8588079
14059,Belmont Circle,77523,29.8395868,-94.8401686
3402,Bridgette Lane,77523,29.8435108,-94.8615679
14010,Tobago Court,77523,29.8354295,-94.8409274
9706,Tanglewood,77523,29.8364709,-94.8544270
9706,Pimlico Drive,77523,29.8397317,-94.8411426
4014,Longwood Drive,77523,29.8458193,-94.8469890
3002,Royal Palm Drive,77523,29.8370868,-94.8618452
3802,Cypress Point Drive,77523,29.8479343,-94.8497193
13907,Hawthorne Circle,77523,29.8388822,-94.8421207
10326,Travis Lane,77523,29.8435404,-94.8568780
10123,Travis Lane,77523,29.8402332,-94.8606405
3307,Charles Place,77523,29.8301891,-94.8532394
9902,Palm Drive,77523,29.8360898,-94.8586836
14055,Belmont Circle,77523,29.8398312,-94.8400995
9606,Tanglewood,77523,29.8351458,-94.8535667
3310,Kathleen Boulevard,77523,29.8429150,-94.8597992
3027,Royal Palm Drive,77523,29.8380816,-94.8612600
9610,Red Forest Circle,77523,29.8408683,-94.8305122
9655,Eagle Drive,77523,29.8363956,-94.8508016
10026,Fan Palm Drive,77523,29.8378975,-94.8548969
9115,Eagle Drive,77523,29.8280743,-94.8482577
10133,Interstate 10 East,77521,29.8221352,-94.9029286
13625,East Freeway,77523,29.8272720,-94.8455215
13401,East Freeway,77523,29.8274804,-94.8499975
8910,North State Highway 146,77523,29.8234936,-94.8978585
9032,North State Highway 146,77523,29.8243545,-94.8968620
8915,North State Highway 146,77523,29.8239817,-94.8990770
12450,Eagle Pointe Drive,77523,29.8760995,-94.8596127
10134,Fan Palm Drive,77523,29.8396110,-94.8547655
3926,Cypress Point Drive,77523,29.8449207,-94.8477476
9110,Kay Kay Court,77523,29.8287748,-94.8522653
9514,Franklin Drive,77523,29.8321180,-94.8535746
9502,Franklin Drive,77523,29.8314563,-94.8536693
9506,Franklin Drive,77523,29.8316655,-94.8536613
3210,Jeanette Circle,77523,29.8326317,-94.8541084
10911,East Freeway,77523,29.8229510,-94.8910280
11005,East Freeway,77523,29.8243340,-94.8891160
10915,East Freeway,77523,29.8232180,-94.8906245
10609,Langston Drive,77523,29.8264515,-94.8904695
9126,North State Highway 146,77523,29.8262925,-94.8976005
10619,Langston Drive,77523,29.8269020,-94.8895785
10613,Langston Drive,77523,29.8259175,-94.8911400
10601,Langston Drive,77523,29.8254060,-94.8948500
10603,Langston Drive,77523,29.8252715,-94.8919725
9400,North State Highway 146,77523,29.8294110,-94.8962125
10711,Langston Drive,77523,29.8289115,-94.8859020
10611,Langston Drive,77523,29.8265605,-94.8895480
14311,Meadowlands Drive,77523,29.8389316,-94.8364351
14307,Meadowlands Drive,77523,29.8387777,-94.8366494
14303,Meadowlands Drive,77523,29.8385730,-94.8368667
14211,Meadowlands Drive,77523,29.8384105,-94.8371361
9521,Eagle Drive,77523,29.8332778,-94.8489171
3310,Boomer Boulevard,77523,29.8310760,-94.8531100
9506,Taylor Lane,77523,29.8315590,-94.8546030
9503,Taylor Lane,77523,29.8313160,-94.8551310
3327,Boomer Boulevard,77523,29.8315935,-94.8522865
9518,Wincrest Drive,77523,29.8322320,-94.8557495
9523,Taylor Lane,77523,29.8323645,-94.8553725
9515,White Landing,77523,29.8322115,-94.8531270
9522,Taylor Lane,77523,29.8324800,-94.8547455
9503,Wincrest Drive,77523,29.8310915,-94.8561910
9519,Franklin Drive,77523,29.8323135,-94.8541205
9518,Franklin Drive,77523,29.8323705,-94.8535925
3334,Boomer Boulevard,77523,29.8313775,-94.8516215
3306,Boomer Boulevard,77523,29.8310355,-94.8533600
9527,Taylor Lane,77523,29.8326185,-94.8554100
9527,White Landing,77523,29.8329890,-94.8529485
3330,Boomer Boulevard,77523,29.8311825,-94.8518025
3207,Jeanette Circle,77523,29.8332085,-94.8541955
3210,Eagle Creek Drive,77523,29.8330215,-94.8556940
9530,Taylor Lane,77523,29.8327825,-94.8551430
9506,White Landing,77523,29.8317825,-94.8526560
3202,Jeanette Circle,77523,29.8328850,-94.8545780
9518,Taylor Lane,77523,29.8322490,-94.8547035
9503,White Landing,77523,29.8315355,-94.8532510
9510,Taylor Lane,77523,29.8317860,-94.8546280
9502,Taylor Lane,77523,29.8313575,-94.8546010
9519,Taylor Lane,77523,29.8321900,-94.8552400
3335,Boomer Boulevard,77523,29.8316645,-94.8517560
9522,Wincrest Drive,77523,29.8324745,-94.8558675
9501,Wincrest Drive,77523,29.8308170,-94.8561530
9510,White Landing,77523,29.8320135,-94.8526045
3302,Boomer Boulevard,77523,29.8310175,-94.8535860
3206,Eagle Creek Drive,77523,29.8328745,-94.8559110
9526,Franklin Drive,77523,29.8328755,-94.8535625
3214,Eagle Creek Drive,77523,29.8331765,-94.8554365
9531,Franklin Drive,77523,29.8334055,-94.8538625
3318,Boomer Boulevard,77523,29.8311150,-94.8526100
9502,Wincrest Drive,77523,29.8312350,-94.8555930
3206,Boomer Boulevard,77523,29.8307895,-94.8556325
3218,Boomer Boulevard,77523,29.8308740,-94.8548970
3222,Boomer Boulevard,77523,29.8309005,-94.8546420
3214,Boomer Boulevard,77523,29.8308485,-94.8551390
3326,Boomer Boulevard,77523,29.8311430,-94.8520830
9505,Wincrest Drive,77523,29.8313070,-94.8561350
9507,Franklin Drive,77523,29.8316260,-94.8542160
3314,Boomer Boulevard,77523,29.8311005,-94.8528600
9506,Wincrest Drive,77523,29.8314815,-94.8555855
3226,Boomer Boulevard,77523,29.8309270,-94.8543885
9522,Franklin Drive,77523,29.8326190,-94.8536110
9507,Taylor Lane,77523,29.8315135,-94.8551415
9502,White Landing,77523,29.8315745,-94.8527115
9514,Wincrest Drive,77523,29.8319865,-94.8556625
9534,Franklin Drive,77523,29.8332695,-94.8531720
9515,Taylor Lane,77523,29.8319650,-94.8551820
9515,Franklin Drive,77523,29.8320880,-94.8541220
9514,Taylor Lane,77523,29.8320195,-94.8546580
9511,Taylor Lane,77523,29.8317390,-94.8551540
9526,Taylor Lane,77523,29.8326820,-94.8548680
9507,Wincrest Drive,77523,29.8315285,-94.8560990
9511,Wincrest Drive,77523,29.8317450,-94.8561705
9510,Franklin Drive,77523,29.8318955,-94.8536135
9519,White Landing,77523,29.8324495,-94.8531525
3203,Jeanette Circle,77523,29.8331440,-94.8544785
3230,Boomer Boulevard,77523,29.8309665,-94.8541625
3206,Jeanette Circle,77523,29.8326325,-94.8543730
3202,Boomer Boulevard,77523,29.8307430,-94.8559325
3322,Boomer Boulevard,77523,29.8311415,-94.8523575
9507,White Landing,77523,29.8317410,-94.8531960
3202,Eagle Creek Drive,77523,29.8327765,-94.8561450
9503,Franklin Drive,77523,29.8314115,-94.8541805
9530,Franklin Drive,77523,29.8330560,-94.8533540
3211,Jeanette Circle,77523,29.8330880,-94.8539775
9510,Wincrest Drive,77523,29.8317320,-94.8556185
9523,White Landing,77523,29.8327230,-94.8531555
9519,Wincrest Drive,77523,29.8322350,-94.8563080
9511,White Landing,77523,29.8319720,-94.8531540
9514,White Landing,77523,29.8322475,-94.8526040
9518,White Landing,77523,29.8324750,-94.8526605
3331,Boomer Boulevard,77523,29.8317320,-94.8520560
9511,Franklin Drive,77523,29.8318605,-94.8541655
9515,Wincrest Drive,77523,29.8319725,-94.8562060
3210,Boomer Boulevard,77523,29.8308215,-94.8553935
13623,Cottonwood Drive,77523,29.8314306,-94.8446318
13619,Cottonwood Drive,77523,29.8313687,-94.8448664
13615,Cottonwood Drive,77523,29.8313599,-94.8451146
11607,Eagle Drive,77580,29.8568046,-94.8663547
