House number,Street name,Postal code,Latitude,Longitude
1402,Red Oak Creek Road,75154,32.5261227,-96.8839267
713,Westmoreland Road,75154,32.5399520,-96.8755539
108,Holly Lane,75154,32.5362294,-96.8722786
108,Elmwood Drive,75154,32.5353330,-96.8974181
203,Lariat Trail,75154,32.5468198,-96.8831106
214,Willow Creek Lane,75154,32.5374407,-96.8999550
312,Willow Creek Lane,75154,32.5339654,-96.9004870
200,Willow Creek Court,75154,32.5386980,-96.8971571
316,Willow Creek Lane,75154,32.5337418,-96.8992378
603,Georgetown Road,75154,32.5398945,-96.8791874
707,Georgetown Road,75154,32.5442602,-96.8793829
104,Copperfield Court,75154,32.5461025,-96.8847769
112,Suburban Drive,75154,32.5397282,-96.8883927
125,Suburban Drive,75154,32.5409425,-96.8856480
104,Slippery Rock Court,75154,32.5164766,-96.8845576
901,Slippery Elm Drive,75154,32.5093991,-96.8827003
101,Woodridge Court,75154,32.5128559,-96.8846556
610,Creek View Circle,75154,32.5206115,-96.8798629
100,Silverwood Drive,75154,32.5316347,-96.8901632
108,Cockrell Hill Road,75154,32.5294493,-96.8880295
3412,Fm 664,76065,32.5237273,-96.8887246
3314,Ovilla Road,75154,32.5311660,-96.8857261
210,Cockrell Hill Road,75154,32.5307476,-96.8881858
844,Red Oak Creek Drive,75154,32.5167430,-96.8665716
303,Willow Wood Lane,75154,32.5319046,-96.8942066
100,Greenwood Drive,75154,32.5334357,-96.8911168
106,Elmwood Drive,75154,32.5354703,-96.8978774
605,Georgetown Road,75154,32.5402854,-96.8791882
715,Georgetown Road,75154,32.5457635,-96.8787140
701,Buckboard Street,75154,32.5428374,-96.8818795
104,Woodlands Court,75154,32.5179243,-96.8910795
710,Buckboard Street,75154,32.5448792,-96.8806932
105,Lariat Trail,75154,32.5466757,-96.8760220
423,Johnson Lane,75154,32.5469387,-96.9023029
415,Johnson Lane,75154,32.5469325,-96.9015269
357,Johnson Lane,75154,32.5469184,-96.8993975
281,Johnson Lane,75154,32.5469023,-96.8974415
3751,Monterrey Oak Way,75154,32.5222143,-96.9059528
607,Clinton Street,75154,32.5077440,-96.8897587
124,Meadow Glen Lane,75154,32.5419005,-96.8868962
119,Meadow Glen Lane,75154,32.5424136,-96.8876235
104,Cumberland Drive,75154,32.5175393,-96.8884581
3251,Ovilla Road,75154,32.5307839,-96.8823662
6990,Cedar Court,75154,32.5182375,-96.9073003
204,Cockrell Hill Road,75154,32.5301527,-96.8885722
805,Cockrell Hill Road,75154,32.5472163,-96.8919107
605,Taylor Street,75154,32.5068978,-96.8899582
612,Taylor Street,76065,32.5064155,-96.8885228
7201,Cherry Lane,75154,32.5200063,-96.9049153
7411,Pistache Lane,75154,32.5223797,-96.9029278
7451,Bald Cypress Drive,75154,32.5237639,-96.9008529
3940,Cherry Laurel Lane,75154,32.5236856,-96.9049686
3770,Cherry Laurel Lane,75154,32.5227068,-96.9060328
7421,Pistache Lane,75154,32.5221955,-96.9026476
420,Cheyenne Mountain Drive,75154,32.5290128,-96.8758239
371,Penrose Drive,75154,32.5280294,-96.8751766
360,Penrose Drive,75154,32.5276623,-96.8743963
7430,Pistache Lane,75154,32.5215909,-96.9027925
7640,Bald Cypress Drive,75154,32.5237301,-96.8987228
7431,Bald Cypress Drive,75154,32.5235914,-96.9015691
7461,Bald Cypress Drive,75154,32.5238426,-96.9005103
7421,Desert Willow Lane,75154,32.5230064,-96.9019287
3921,Bryson Manor Drive,75154,32.5227308,-96.9039443
3750,Cherry Laurel Lane,75154,32.5221995,-96.9065934
6971,Cedar Court,75154,32.5188097,-96.9067786
7031,Judy Drive,75154,32.5209175,-96.9063106
7201,Judy Drive,75154,32.5208859,-96.9048245
7221,Cherry Lane,75154,32.5196985,-96.9041890
200,White Rock Court,75154,32.5336735,-96.8693415
403,Bluff Creek,75154,32.5340841,-96.8690092
325,Shadow Wood Trail,75154,32.5349401,-96.8959132
105,Robin Glen Lane,75154,32.5379226,-96.8892924
120,Robin Glen Lane,75154,32.5370277,-96.8867280
422,Johnson Lane,75154,32.5451781,-96.9018409
619,Clinton Street,75154,32.5077714,-96.8872905
103,Ridgeway Gap,75154,32.5134796,-96.8862631
102,Rimrock Court,75154,32.5169153,-96.8854306
439,Johnson Lane,75154,32.5469429,-96.9030861
523,Johnson Lane,75154,32.5469726,-96.9062556
804,Ovilla Oaks Drive,75154,32.5115809,-96.8843294
403,Ovilla Oaks Drive,75154,32.5182745,-96.8818849
606,Oak Ridge Court,76065,32.5179941,-96.8845265
304,Ovilla Oaks Drive,75154,32.5191075,-96.8824313
917,Red Oak Creek Drive,75154,32.5184473,-96.8708710
109,Bent Tree Lane,75154,32.5194070,-96.8921207
257,Johnson Lane,75154,32.5468935,-96.8963577
111,Westlawn Drive,75154,32.5291092,-96.8926036
761,Emerald Valley Drive,75154,32.5299268,-96.8766841
351,Cheyenne Mountain Drive,75154,32.5273696,-96.8766672
330,Cheyenne Mountain Drive,75154,32.5266999,-96.8758739
301,Penrose Drive,75154,32.5257062,-96.8751925
116,Water Street,75154,32.5263169,-96.8889305
304,East University Street,75154,32.5256682,-96.8827146
256,Johnson Lane,75154,32.5457188,-96.8961365
122,Claremont Drive,75154,32.5206897,-96.9012962
202,Cockrell Hill Road,75154,32.5299576,-96.8887968
108,Robin Glen Lane,75154,32.5373796,-96.8886515
602,Forest Edge Lane,75154,32.5362255,-96.8905226
107,Hummingbird Lane,75154,32.5369069,-96.8890098
502,Forest Edge Lane,75154,32.5353609,-96.8905334
305,Cockrell Hill Road,75154,32.5322233,-96.8899621
102,Silverwood Drive,75154,32.5317140,-96.8906200
105,Willow Wood Lane,75154,32.5289931,-96.8942202
716,Georgetown Road,75154,32.5454955,-96.8770447
106,Woodridge Court,75154,32.5128247,-96.8857652
902,Ovilla Oaks Drive,75154,32.5101749,-96.8845220
103,High View Court,75154,32.5200679,-96.8871556
620,Green Meadows Lane,75154,32.5403980,-96.8999656
904,Red Oak Creek Drive,75154,32.5168552,-96.8680877
623,Johnson Lane,75154,32.5469696,-96.9091154
108,Claremont Drive,75154,32.5188023,-96.9018660
106,Claremont Drive,75154,32.5185260,-96.9018671
132,Claremont Drive,75154,32.5218406,-96.9001969
133,Claremont Drive,75154,32.5214330,-96.8987091
707,Westmoreland Road,75154,32.5394767,-96.8755329
680,Westmoreland Road,75154,32.5380156,-96.8733040
771,Emerald Valley Drive,75154,32.5299221,-96.8770899
350,Broadmoor Lane,75154,32.5273606,-96.8773692
340,Cheyenne Mountain Drive,75154,32.5270300,-96.8758535
331,Broadmoor Lane,75154,32.5267052,-96.8781585
320,Penrose Drive,75154,32.5262889,-96.8743826
311,Penrose Drive,75154,32.5260441,-96.8751742
310,Broadmoor Lane,75154,32.5260398,-96.8773212
280,Penrose Drive,75154,32.5249147,-96.8744280
617,Cardinal Drive,75154,32.5271790,-96.8720843
609,Meadow Lark Drive,75154,32.5257712,-96.8706611
106,Suburban Drive,75154,32.5397009,-96.8895098
611,Green Meadows Lane,75154,32.5421520,-96.9009504
107,Oak Forest Lane,75154,32.5199461,-96.8938756
132,Meadow Glen Lane,75154,32.5418823,-96.8857533
118,Hummingbird Lane,75154,32.5360129,-96.8870219
504,Ashburne Glen Circle,75154,32.5347888,-96.8883873
110,Ashburne Glen Lane,75154,32.5350880,-96.8880394
316,Cockrell Hill Road,75154,32.5339358,-96.8901035
508,Forest Edge Lane,75154,32.5344362,-96.8900424
510,Savannah Drive,75154,32.5205034,-96.8999746
403,Montpelier Lane,75154,32.5196410,-96.8991238
307,Covington Lane,75154,32.5187421,-96.9001382
3911,Monterrey Oak Way,75154,32.5229315,-96.9051758
3911,Cherry Laurel Lane,75154,32.5233739,-96.9061603
7830,Bald Cypress Drive,75154,32.5246709,-96.8956377
7451,Pistache Lane,75154,32.5216390,-96.9018042
103,Dusty Oak Trail,75154,32.5232790,-96.8856630
214,Cockrell Hill Road,75154,32.5311655,-96.8883232
3317,Ovilla Road,75154,32.5298229,-96.8852572
136,Water Street,75154,32.5270116,-96.8901389
707,West Main Street,76065,32.5272404,-96.8877993
137,Water Street,75154,32.5272738,-96.8901405
7050,Cherry Court,75154,32.5194725,-96.9054748
3711,Cherry Laurel Lane,75154,32.5212281,-96.9076997
7251,Persimmon Drive,75154,32.5234402,-96.9034383
7810,Bald Cypress Drive,75154,32.5239548,-96.8974415
316,Fountain Creek Court,75154,32.5349847,-96.8687619
125,Ovilla Creek Court,75154,32.5353002,-96.8692144
3900,Bryson Manor Drive,75154,32.5219364,-96.9039191
150,Claremont Drive,75154,32.5225880,-96.8972431
600,Christa Street,75154,32.5068273,-96.8905825
610,Taylor Street,75154,32.5064200,-96.8889409
400,Montpelier Lane,75154,32.5202181,-96.8994615
409,Montpelier Lane,75154,32.5196425,-96.8980201
415,Montpelier Lane,75154,32.5200142,-96.8969531
305,Covington Lane,75154,32.5187391,-96.9005015
315,Covington Lane,75154,32.5187540,-96.8986847
237,Williamsburg Lane,75154,32.5193221,-96.8957986
329,Willow Creek Lane,75154,32.5323821,-96.8968599
610,Buckboard Street,75154,32.5410132,-96.8806656
606,Georgetown Road,75154,32.5403072,-96.8775345
611,Cardinal Drive,75154,32.5271825,-96.8710065
611,Meadow Lark Drive,75154,32.5257695,-96.8710180
410,Shadow Wood Trail,75154,32.5376289,-96.8951322
119,Suburban Drive,75154,32.5409228,-96.8869458
315,Shadow Wood Trail,75154,32.5333550,-96.8959019
502,Ovilla Oaks Drive,75154,32.5170878,-96.8837253
501,Ovilla Oaks Drive,75154,32.5169257,-96.8828174
686,Johnson Lane,75154,32.5451283,-96.9111257
617,Green Meadows Lane,75154,32.5409690,-96.9009499
915,Red Oak Creek Road,75154,32.5182262,-96.8705978
903,Red Oak Creek Drive,75154,32.5180763,-96.8679511
7041,Plum Court,75154,32.5191323,-96.9058858
6950,Cedar Court,75154,32.5194314,-96.9075431
7041,Cherry Court,75154,32.5199945,-96.9058620
102,Woodlands Court,75154,32.5179500,-96.8916005
1204,Red Oak Creek Road,75154,32.5232448,-96.8808640
605,Green Meadows Lane,75154,32.5433795,-96.9009666
112,Meadow Glen Lane,75154,32.5416078,-96.8888882
7210,Judy Drive,75154,32.5203365,-96.9045433
3520,Bryson Manor Drive,75154,32.5184579,-96.9048439
7051,Cherry Court,75154,32.5199906,-96.9054817
7040,Judy Drive,75154,32.5203673,-96.9059122
7020,Judy Drive,75154,32.5203781,-96.9067577
922,Red Oak Creek Drive,75154,32.5185211,-96.8728037
104,Nob Hill Lane,75154,32.5383743,-96.8892807
112,Nob Hill Lane,75154,32.5383304,-96.8879732
416,Montpelier Lane,75154,32.5206392,-96.8965945
527,Savannah Drive,75154,32.5208137,-96.8974499
402,Montpelier Lane,75154,32.5201423,-96.8990668
309,Covington Lane,75154,32.5187451,-96.8997748
319,Covington Lane,75154,32.5187567,-96.8979523
103,Oak Wood Lane,75154,32.5403847,-96.8935490
1403,Red Oak Creek Road,75154,32.5251458,-96.8842265
3741,Monterrey Oak Way,75154,32.5219893,-96.9061915
3731,Monterrey Oak Way,75154,32.5218045,-96.9065116
3730,Monterrey Oak Way,75154,32.5213107,-96.9063709
7020,Cedar Court,75154,32.5176723,-96.9065813
303,Fountain Creek Court,75154,32.5341653,-96.8670858
6970,Cedar Court,75154,32.5188325,-96.9074213
314,Fountain Creek Court,75154,32.5349906,-96.8682503
120,Ovilla Creek Court,75154,32.5347440,-96.8698945
2885,Ovilla Road,75154,32.5314287,-96.8597371
3700,Maple Lane,75154,32.5197687,-96.9027897
7051,Cedar Court,75154,32.5181688,-96.9054943
7010,Judy Drive,75154,32.5203861,-96.9071818
301,Fountain Creek Court,75154,32.5339307,-96.8669650
315,Fountain Creek Court,75154,32.5353399,-96.8675265
318,Fountain Creek Court,75154,32.5353257,-96.8688873
421,Broadmoor Lane,75154,32.5291855,-96.8781212
360,Broadmoor Lane,75154,32.5276901,-96.8773560
309,Willow Wood Lane,75154,32.5331418,-96.8942358
307,Willow Wood Lane,75154,32.5327291,-96.8942310
205,Lariat Trail,75154,32.5468225,-96.8835395
324,Willow Creek Lane,75154,32.5325046,-96.8979444
110,Suburban Drive,75154,32.5397264,-96.8887602
409,Shadow Wood Trail,75154,32.5373487,-96.8959159
803,Ovilla Oaks Drive,75154,32.5126407,-96.8835086
705,Ovilla Oaks Drive,75154,32.5134848,-96.8840825
510,Bruce Court,75154,32.5219297,-96.8682321
872,Johnson Lane,75154,32.5446084,-96.9185152
103,Woodlands Court,75154,32.5185976,-96.8911044
123,Meadow Glen Lane,75154,32.5424160,-96.8869805
114,Robin Glen Lane,75154,32.5371517,-96.8876702
109,Woodlands Court,75154,32.5186140,-96.8897033
514,Savannah Drive,75154,32.5209968,-96.8996051
129,Meadow Glen Lane,75154,32.5423856,-96.8860050
99,Ridgeway Gap,75154,32.5142124,-96.8846342
431,Penrose Drive,75154,32.5293553,-96.8751943
910,Red Oak Creek Drive,75154,32.5170620,-96.8693692
400,Broadmoor Lane,75154,32.5283494,-96.8773011
7630,Bald Cypress Drive,75154,32.5231975,-96.8988754
7610,Bald Cypress Drive,75154,32.5230454,-96.8996124
3921,Cypress Stump Court,75154,32.5234475,-96.8984320
3931,Bryson Manor Drive,75154,32.5229763,-96.9036729
7410,Desert Willow Lane,75154,32.5227944,-96.9027107
3901,Bryson Manor Drive,75154,32.5222833,-96.9044279
116,Nob Hill Lane,75154,32.5381221,-96.8873727
102,Nob Hill Lane,75154,32.5383795,-96.8896052
7041,Judy Drive,75154,32.5209133,-96.9058943
7031,Orange Court,75154,32.5216216,-96.9035190
7020,Orange Court,75154,32.5209100,-96.9035470
7010,Orange Court,75154,32.5207183,-96.9032170
304,Willow Creek Lane,75154,32.5363659,-96.9013535
627,William Drive,75154,32.5191690,-96.8685121
111,Oak Wood Lane,75154,32.5395164,-96.8947290
623,Ariel Street,76065,32.5072463,-96.8869284
518,Savannah Drive,75154,32.5210153,-96.8987465
208,Williamsburg Lane,75154,32.5183740,-96.8997734
210,Williamsburg Lane,75154,32.5183770,-96.8994100
209,Williamsburg Lane,75154,32.5177895,-96.8999475
108,Cumberland Road,75154,32.5175210,-96.8875112
721,Westmoreland Road,75154,32.5415546,-96.8755559
112,Bent Tree Lane,75154,32.5200374,-96.8915348
117,Meadow Glen Lane,75154,32.5423962,-96.8879486
113,Meadow Glen Lane,75154,32.5423498,-96.8885879
430,Penrose Drive,75154,32.5292877,-96.8743918
7410,Pistache Lane,75154,32.5219623,-96.9033572
7811,Bald Cypress Drive,75154,32.5244933,-96.8977399
7431,Desert Willow Lane,75154,32.5227775,-96.9016124
3911,Bryson Manor Drive,75154,32.5225073,-96.9041877
609,Edgewood Lane,75154,32.5367827,-96.8861213
621,Edgewood Lane,75154,32.5388383,-96.8860288
265,Johnson Lane,75154,32.5468950,-96.8967924
7010,Cherry Court,75154,32.5194909,-96.9069430
7001,Judy Drive,75154,32.5209106,-96.9077040
7011,Judy Drive,75154,32.5209226,-96.9071104
108,Greenwood Drive,75154,32.5334448,-96.8929552
717,Buckboard Street,75154,32.5459830,-96.8819187
700,Buckboard Street,75154,32.5428448,-96.8806790
102,Copperfield Court,75154,32.5455689,-96.8846413
639,East Highland Road,75154,32.5092492,-96.8843356
3321,Ovilla Road,76065,32.5278156,-96.8853205
637,East Highland Road,75154,32.5092526,-96.8849718
112,Circle Drive,75154,32.5262471,-96.8883508
805,Ovilla Oaks Drive,75154,32.5120662,-96.8834492
919,Slippery Elm Drive,75154,32.5151153,-96.8827199
200,Winding Way Court,75154,32.5102843,-96.8863276
103,Woodridge Court,75154,32.5123778,-96.8849195
105,Ovilla Oaks Drive,75154,32.5211899,-96.8859227
808,East Main Street,75154,32.5273210,-96.8843745
107,Oak Wood Lane,75154,32.5395901,-96.8936212
300,Fountain Creek Court,75154,32.5335976,-96.8679719
407,Bluff Creek,75154,32.5340807,-96.8683602
223,White Rock Court,75154,32.5330959,-96.8652472
206,Johnson Lane,75154,32.5445276,-96.8942262
640,East Highland Road,75154,32.5083623,-96.8840607
520,Savannah Drive,75154,32.5211100,-96.8983081
218,Williamsburg Lane,75154,32.5183918,-96.8979486
211,Williamsburg Lane,75154,32.5177922,-96.8996231
205,Williamsburg Lane,75154,32.5177842,-96.9005964
3420,Ovilla Road,75154,32.5214627,-96.8891553
109,Greenwood Drive,75154,32.5324982,-96.8924480
104,Greenwood Drive,75154,32.5334427,-96.8920412
108,Westlawn Drive,75154,32.5299872,-96.8919731
114,Westlawn Drive,75154,32.5299831,-96.8933488
107,Willow Wood Lane,75154,32.5294281,-96.8942070
206,Willow Creek Court,75154,32.5373856,-96.8966870
227,Lariat Trail,75154,32.5468386,-96.8883744
608,Meadow Lark Drive,75154,32.5249824,-96.8706519
134,Suburban Drive,75154,32.5397129,-96.8845323
323,Shadow Wood Trail,75154,32.5346239,-96.8959096
965,Johnson Lane,75154,32.5470399,-96.9216564
503,Ovilla Oaks Drive,75154,32.5163956,-96.8829194
615,William Drive,75154,32.5207495,-96.8703214
614,William Drive,75154,32.5212911,-96.8691386
102,Willow Creek Lane,75154,32.5408612,-96.8988737
1203,Red Oak Creek Road,75154,32.5214496,-96.8805892
361,Penrose Drive,75154,32.5276977,-96.8751763
361,Cheyenne Mountain Drive,75154,32.5276997,-96.8766478
113,Nob Hill Lane,75154,32.5389539,-96.8881596
612,Forest Edge Lane,75154,32.5377808,-96.8905237
111,Hummingbird Lane,75154,32.5368863,-96.8883091
601,Edgewood Lane,75154,32.5354879,-96.8861168
604,Forest Edge Lane,75154,32.5365323,-96.8905266
501,Ashburne Glen Circle,75154,32.5350571,-96.8873383
109,Ashburne Glen Lane,75154,32.5358400,-96.8886216
307,Johnson Lane,75154,32.5469044,-96.8981017
120,Water Street,75154,32.5268885,-96.8891399
764,Johnson Lane,75154,32.5445265,-96.9136434
7400,Pistache Lane,75154,32.5221852,-96.9036574
7600,Bald Cypress Drive,75154,32.5229558,-96.8999549
7460,Bald Cypress Drive,75154,32.5231223,-96.9003626
3920,Cherry Laurel Lane,75154,32.5231918,-96.9055103
7450,Desert Willow Lane,75154,32.5219633,-96.9015064
114,Claremont Drive,75154,32.5196381,-96.9018708
128,Claremont Drive,75154,32.5213501,-96.9006906
131,Claremont Drive,75154,32.5214402,-96.8991617
160,Water Street,75154,32.5271332,-96.8916728
361,Broadmoor Lane,75154,32.5275215,-96.8781847
311,Cheyenne Mountain Drive,75154,32.5260453,-96.8767231
7021,Orange Court,75154,32.5213397,-96.9031430
303,Cockrell Hill Road,75154,32.5318722,-96.8896647
106,Westlawn Drive,75154,32.5299819,-96.8915300
110,Westlawn Drive,75154,32.5299838,-96.8924179
229,Lariat Trail,75154,32.5468412,-96.8888232
709,Hosford Road,75154,32.5392292,-96.8794362
104,High Ridge Court,75154,32.5460913,-96.8884395
408,Thorntree Drive,75154,32.5451937,-96.8828226
410,Thorntree Drive,75154,32.5457185,-96.8827632
412,Thorntree Drive,75154,32.5461323,-96.8832352
304,Thorntree Drive,75154,32.5443536,-96.8852367
310,Shadow Wood Trail,75154,32.5325275,-96.8950334
324,Shadow Wood Trail,75154,32.5343365,-96.8951068
605,Valley View Court,75154,32.5192838,-96.8856803
619,William Drive,75154,32.5196788,-96.8701427
625,William Drive,75154,32.5191653,-96.8690387
300,Westmoreland Road,75154,32.5205413,-96.8733534
604,Green Meadows Lane,75154,32.5449274,-96.8999291
614,Green Meadows Lane,75154,32.5420456,-96.8999369
625,Green Meadows Lane,75154,32.5394302,-96.9008138
624,Green Meadows Lane,75154,32.5394209,-96.9002453
306,Willow Creek Lane,75154,32.5357740,-96.9016359
104,Claremont Drive,75154,32.5182498,-96.9018681
134,Claremont Drive,75154,32.5219627,-96.8998753
146,Claremont Drive,75154,32.5223975,-96.8979062
160,Claremont Drive,75154,32.5231711,-96.8954602
119,Claremont Drive,75154,32.5203032,-96.9008275
205,White Rock Court,75154,32.5331412,-96.8686093
604,Taylor Street,75154,32.5063919,-96.8901732
705,Georgetown Road,75154,32.5437277,-96.8785346
519,Westmoreland Road,75154,32.5350167,-96.8755405
721,Emerald Valley Drive,75154,32.5299358,-96.8750905
781,Emerald Valley Drive,75154,32.5299237,-96.8774982
340,Penrose Drive,75154,32.5269847,-96.8743980
609,Clinton Street,75154,32.5077437,-96.8893499
615,Clinton Street,75154,32.5077447,-96.8881196
136,Meadow Glen Lane,75154,32.5415515,-96.8851292
101,Nob Hill Lane,75154,32.5389652,-96.8905552
600,Forest Edge Lane,75154,32.5358944,-96.8905218
111,Ashburne Glen Lane,75154,32.5357597,-96.8883198
101,Hummingbird Lane,75154,32.5369074,-96.8899900
102,Cumberland Court,75154,32.5187842,-96.8875561
700,West Main Street,76065,32.5269654,-96.8871529
3315,Ovilla Road,76065,32.5300944,-96.8848595
301,East University Street,75154,32.5261950,-96.8832717
606,Buckboard Street,75154,32.5402329,-96.8806522
109,Robin Glen Lane,75154,32.5379117,-96.8886424
107,Robin Glen Lane,75154,32.5379174,-96.8889680
117,Nob Hill Lane,75154,32.5388746,-96.8873250
2140,Elm Creek Lane,76065,32.5061184,-96.8874052
465,Johnson Lane,75154,32.5469555,-96.9038628
165,Johnson Lane,75154,32.5468858,-96.8932108
339,Johnson Lane,75154,32.5469333,-96.8987652
616,Buckboard Street,75154,32.5422360,-96.8806692
614,Buckboard Street,75154,32.5417908,-96.8806714
600,Georgetown Road,75154,32.5390195,-96.8775375
614,Cardinal Drive,75154,32.5263903,-96.8717321
610,Meadow Lark Drive,75154,32.5249800,-96.8710088
110,Ridgeway Gap,75154,32.5142058,-96.8863754
300,East University Street,75154,32.5256736,-96.8831358
709,West Main Street,76065,32.5274197,-96.8878187
826,East Main Street,76065,32.5295375,-96.8834992
530,Savannah Drive,75154,32.5215995,-96.8965153
311,Covington Lane,75154,32.5187481,-96.8994114
241,Williamsburg Lane,75154,32.5199103,-96.8958040
280,Johnson Lane,75154,32.5459341,-96.8967312
719,Westmoreland Road,75154,32.5410303,-96.8755517
3162,Ovilla Road,75154,32.5325515,-96.8665988
7651,Bald Cypress Drive,75154,32.5243226,-96.8984423
7641,Bald Cypress Drive,75154,32.5242418,-96.8987873
7631,Bald Cypress Drive,75154,32.5241623,-96.8991300
148,Claremont Drive,75154,32.5224953,-96.8975723
655,East Highland Road,75154,32.5073213,-96.8847478
111,Greenwood Drive,75154,32.5324961,-96.8929152
605,Buckboard Street,75154,32.5398140,-96.8818649
617,Buckboard Street,75154,32.5422369,-96.8818760
115,Suburban Drive,75154,32.5409278,-96.8877785
406,Ovilla Oaks Drive,75154,32.5178265,-96.8832846
6940,Cedar Court,75154,32.5198272,-96.9076772
7011,Cherry Court,75154,32.5200139,-96.9069374
913,Red Oak Creek Drive,75154,32.5180540,-96.8702759
7200,Judy Drive,75154,32.5203843,-96.9049132
3510,Maple Lane,75154,32.5184549,-96.9039223
3500,Maple Lane,75154,32.5184869,-96.9043633
7210,Cherry Lane,75154,32.5195002,-96.9048539
102,Willow Wood Lane,75154,32.5286308,-96.8927731
3500,Bryson Manor Drive,75154,32.5177237,-96.9048601
102,Westlawn Drive,75154,32.5299896,-96.8906246
209,Lariat Trail,75154,32.5468312,-96.8844494
231,Lariat Trail,75154,32.5468399,-96.8892709
610,Georgetown Road,75154,32.5411310,-96.8775402
606,Meadow Lark Drive,75154,32.5249848,-96.8702950
616,Meadow Lark Drive,75154,32.5249755,-96.8720795
101,Copperfield Court,75154,32.5450606,-96.8857174
302,Thorntree Drive,75154,32.5443450,-96.8858900
319,Shadow Wood Trail,75154,32.5340216,-96.8959075
206,Silverwood Drive,75154,32.5314944,-96.8950003
104,Woodridge Court,75154,32.5132853,-96.8854480
401,Shadow Wood Trail,75154,32.5360516,-96.8959258
904,Ovilla Oaks Drive,75154,32.5097425,-96.8845322
1775,South Joe Wilson Road,75104,32.5470529,-96.9247669
607,William Drive,75154,32.5208409,-96.8727906
602,William Drive,75154,32.5218352,-96.8727971
205,Willow Creek Lane,75154,32.5392682,-96.8977358
600,Green Meadows Lane,75154,32.5460533,-96.8999335
111,Meadow Wood Lane,75154,32.5414195,-96.8966354
407,Shadow Wood Trail,75154,32.5370281,-96.8959187
526,Savannah Drive,75154,32.5214193,-96.8972213
301,Covington Lane,75154,32.5187325,-96.9012535
7411,Bald Cypress Drive,75154,32.5234228,-96.9022770
7401,Bald Cypress Drive,75154,32.5233199,-96.9027400
3740,Bryson Manor Drive,75154,32.5217127,-96.9041615
3710,Monterrey Oak Way,75154,32.5212973,-96.9071037
7241,Persimmon Drive,75154,32.5236271,-96.9037675
7650,Bald Cypress Drive,75154,32.5238153,-96.8983645
3720,Bryson Manor Drive,75154,32.5212304,-96.9046891
117,Claremont Drive,75154,32.5200806,-96.9010308
113,Claremont Drive,75154,32.5195340,-96.9011460
130,Claremont Drive,75154,32.5215915,-96.9004637
7030,Plum Court,75154,32.5187148,-96.9063367
106,Meadow Glen Lane,75154,32.5415886,-96.8898684
126,Meadow Glen Lane,75154,32.5415529,-96.8868560
118,Meadow Glen Lane,75154,32.5416960,-96.8879158
255,Williamsburg Lane,75154,32.5221808,-96.8958290
3530,Maple Lane,75154,32.5192060,-96.9033144
111,Robin Glen Lane,75154,32.5379159,-96.8883071
114,Nob Hill Lane,75154,32.5382215,-96.8876774
120,Nob Hill Lane,75154,32.5380222,-96.8867246
341,Broadmoor Lane,75154,32.5270369,-96.8781790
330,Penrose Drive,75154,32.5266394,-96.8743951
105,Cockrell Hill Road Road,75154,32.5283331,-96.8904688
309,Fountain Creek Court,75154,32.5349686,-96.8674024
629,William Drive,75154,32.5191542,-96.8680583
3419,Ovilla Road,76065,32.5226140,-96.8867881
103,Cumberland Court,75154,32.5186091,-96.8886776
388,Johnson Lane,75154,32.5442934,-96.9011177
125,Meadow Glen Lane,75154,32.5424059,-96.8866537
146,Meadow Glen Lane,75154,32.5416845,-96.8836922
215,Lariat Trail,75154,32.5468396,-96.8857215
217,Willow Creek Lane,75154,32.5366868,-96.8991464
713,Georgetown Road,75154,32.5453333,-96.8792127
711,Georgetown Road,75154,32.5449281,-96.8792147
703,Buckboard Street,75154,32.5432175,-96.8818894
622,Meadow Lark Drive,75154,32.5249709,-96.8731807
120,Suburban Drive,75154,32.5397547,-96.8869768
131,Suburban Drive,75154,32.5409083,-96.8844555
405,Shadow Wood Trail,75154,32.5367072,-96.8959193
601,Ovilla Oaks Drive,75154,32.5154262,-96.8834255
807,Ovilla Oaks Drive,75154,32.5114779,-96.8834760
107,Woodridge Court,75154,32.5119682,-96.8862596
102,Brookwood Court,75154,32.5404184,-96.8926000
708,Hollingsworth Lane,75154,32.5193125,-96.8669478
113,Water Street,75154,32.5273868,-96.8883068
504,Savannah Drive,75154,32.5198260,-96.9006332
204,Williamsburg Lane,75154,32.5183680,-96.9005001
431,Cheyenne Mountain Drive,75154,32.5293646,-96.8766375
411,Cheyenne Mountain Drive,75154,32.5286904,-96.8766250
401,Broadmoor Lane,75154,32.5285274,-96.8781313
207,Willow Wood Lane,75154,32.5309232,-96.8941769
300,Willow Creek Lane,75154,32.5370859,-96.9005034
601,Buckboard Street,75154,32.5390512,-96.8818661
105,Copperfield Court,75154,32.5461331,-96.8855769
108,Suburban Drive,75154,32.5397098,-96.8891400
3751,Cherry Laurel Lane,75154,32.5224816,-96.9071213
3731,Cherry Laurel Lane,75154,32.5220568,-96.9075297
123,Suburban Drive,75154,32.5409197,-96.8860882
917,Slippery Elm Drive,75154,32.5138682,-96.8829877
504,Bruce Court,75154,32.5204875,-96.8683919
634,William Drive,75154,32.5199221,-96.8668193
505,Bruce Court,75154,32.5209417,-96.8674573
6961,Cedar Court,75154,32.5191258,-96.9068490
512,Savannah Drive,75154,32.5207285,-96.8997872
522,Savannah Drive,75154,32.5212214,-96.8979095
212,Williamsburg Lane,75154,32.5183800,-96.8990466
217,White Rock Court,75154,32.5331377,-96.8666723
302,Cockrell Hill Road,75154,32.5326218,-96.8872111
605,Clinton Street,75154,32.5077679,-96.8901589
608,Clinton Street,75154,32.5072570,-96.8895442
616,Clinton Street,75154,32.5072732,-96.8879243
105,Oak Forest Lane,75154,32.5199319,-96.8946801
639,Johnson Lane,75154,32.5469882,-96.9096580
608,Forest Edge Lane,75154,32.5371544,-96.8905308
106,Hummingbird Lane,75154,32.5363750,-96.8889508
104,Ashburne Glen Lane,75154,32.5353557,-96.8893634
112,Westlawn Drive,75154,32.5299841,-96.8928742
107,Cumberland Drive,75154,32.5182225,-96.8879796
104,Cumberland Court,75154,32.5189064,-96.8882155
117,Cumberland Road,75154,32.5187893,-96.8866497
7021,Judy Drive,75154,32.5209201,-96.9067179
7011,Orange Court,75154,32.5211299,-96.9028422
7241,Judy Drive,75154,32.5202011,-96.9031792
7211,Cherry Lane,75154,32.5199141,-96.9045276
100,Robin Glen Lane,75154,32.5373893,-96.8899746
101,Robin Glen Lane,75154,32.5379329,-96.8899478
119,Nob Hill Lane,75154,32.5385637,-96.8868611
504,Edgewood Lane,75154,32.5346070,-96.8868634
119,Hummingbird Lane,75154,32.5365612,-96.8869929
304,Cockrell Hill Road,75154,32.5336782,-96.8866829
208,Cockrell Hill Road,75154,32.5304455,-96.8887061
3741,Bryson Manor Drive,75154,32.5220606,-96.9046676
3760,Monterrey Oak Way,75154,32.5219613,-96.9053936
3921,Cherry Laurel Lane,75154,32.5235966,-96.9059198
7211,Persimmon Drive,75154,32.5241198,-96.9046642
7201,Persimmon Drive,75154,32.5242997,-96.9050868
7051,Judy Drive,75154,32.5209052,-96.9054747
7800,Bald Cypress Drive,75154,32.5239173,-96.8978143
7030,Orange Court,75154,32.5210715,-96.9040383
105,Ovilla Creek Court,75154,32.5327351,-96.8690488
215,White Rock Court,75154,32.5331382,-96.8669976
110,Ovilla Creek Court,75154,32.5333122,-96.8698876
132,Water Street,75154,32.5269777,-96.8898453
1306,Red Oak Creek Road,75154,32.5230906,-96.8829678
1312,Red Oak Creek Road,75154,32.5252349,-96.8832337
3313,Ovilla Road,75154,32.5307067,-96.8850857
1412,Red Oak Creek Drive,75154,32.5261482,-96.8846738
606,Clinton Street,75154,32.5072513,-96.8899638
617,Malloy Road,75154,32.5375082,-96.8840897
144,Meadow Glen Lane,75154,32.5416945,-96.8840172
103,Meadow Glen Lane,75154,32.5421692,-96.8901919
111,Meadow Glen Lane,75154,32.5423268,-96.8889113
106,Robin Glen Lane,75154,32.5373820,-96.8889979
103,Robin Glen Lane,75154,32.5379277,-96.8896169
607,Edgewood Lane,75154,32.5364267,-96.8861350
611,Edgewood Lane,75154,32.5371332,-96.8861161
115,Nob Hill Lane,75154,32.5389221,-96.8877551
812,East Main Street,75154,32.5276855,-96.8843840
315,Johnson Lane,75154,32.5469050,-96.8985351
104,Silverwood Drive,75154,32.5317158,-96.8910730
211,Lariat Trail,75154,32.5468338,-96.8848855
708,Georgetown Road,75154,32.5439135,-96.8770601
707,Hosford Road,75154,32.5392327,-96.8798970
602,Meadow Lark Drive,75154,32.5249897,-96.8695812
624,Cardinal Drive,75154,32.5263808,-96.8735824
623,Cardinal Drive,75154,32.5271755,-96.8732006
625,Cardinal Drive,75154,32.5271742,-96.8735883
124,Suburban Drive,75154,32.5397605,-96.8862815
103,High Ridge Court,75154,32.5455873,-96.8894352
604,Cedar Ridge Court,75154,32.5192877,-96.8846089
613,William Drive,75154,32.5209607,-96.8709333
611,William Drive,75154,32.5210356,-96.8717271
603,Cedar Ridge Court,75154,32.5189399,-96.8837065
606,William Drive,75154,32.5218442,-96.8715974
616,William Drive,75154,32.5207513,-96.8691481
102,Oak Wood Lane,75154,32.5403240,-96.8947827
204,Willow Creek Lane,75154,32.5393107,-96.8990872
616,Green Meadows Lane,75154,32.5414799,-96.8999471
107,Meadow Wood Lane,75154,32.5414228,-96.8957130
103,Meadow Wood Lane,75154,32.5416646,-96.8947342
101,Meadow Wood Lane,75154,32.5412284,-96.8945103
105,Brookwood Court,75154,32.5399998,-96.8913216
300,Cockrell Hill Road,75154,32.5315586,-96.8885291
117,Lariat Trail,75154,32.5466512,-96.8798914
127,Lariat Trail,75154,32.5468062,-96.8812508
103,Slippery Rock Court,75154,32.5156839,-96.8850076
106,Slippery Rock Court,75154,32.5163606,-96.8853247
104,Winding Way Court,75154,32.5114353,-96.8848211
923,Red Oak Creek Road,75154,32.5191353,-96.8720611
100,Meadow Wood Lane,75154,32.5414524,-96.8934766
139,Claremont Drive,75154,32.5217645,-96.8973755
431,Broadmoor Lane,75154,32.5295547,-96.8782001
341,Cheyenne Mountain Drive,75154,32.5270385,-96.8766883
508,Savannah Drive,75154,32.5202858,-96.9001728
405,Montpelier Lane,75154,32.5196406,-96.8987576
239,Williamsburg Lane,75154,32.5196162,-96.8958013
245,Williamsburg Lane,75154,32.5204985,-96.8958093
108,Silverwood Drive,75154,32.5317043,-96.8919916
132,Suburban Drive,75154,32.5397239,-96.8848955
304,Shadow Wood Trail,75154,32.5318258,-96.8950283
203,Silverwood Drive,75154,32.5306399,-96.8948463
303,Shadow Wood Trail,75154,32.5314926,-96.8961623
312,Shadow Wood Trail,75154,32.5329020,-96.8950251
106,Greenwood Drive,75154,32.5334440,-96.8924980
403,Bill Court,75154,32.5203997,-96.8721454
608,William Drive,75154,32.5218513,-96.8709818
600,William Drive,75154,32.5218288,-96.8734293
610,Green Meadows Lane,75154,32.5432165,-96.8999237
113,Meadow Wood Lane,75154,32.5416313,-96.8972055
118,Claremont Drive,75154,32.5202302,-96.9017211
142,Claremont Drive,75154,32.5222154,-96.8985539
138,Claremont Drive,75154,32.5221062,-96.8992103
7031,Plum Court,75154,32.5190847,-96.9063405
7000,Cedar Court,75154,32.5178905,-96.9073077
3710,Maple Lane,75154,32.5200434,-96.9025330
106,Oak Forest Lane,75154,32.5190102,-96.8932221
117,Hummingbird Lane,75154,32.5365842,-96.8872916
512,Forest Edge Lane,75154,32.5339106,-96.8894875
103,Holly Lane,75154,32.5371222,-96.8730880
689,Johnson Lane,75154,32.5469807,-96.9114690
319,Fountain Creek Court,75154,32.5355319,-96.8682698
408,Bluff Creek,75154,32.5346726,-96.8680322
402,Bluff Creek,75154,32.5346446,-96.8690287
111,Water Street,75154,32.5273617,-96.8880722
400,Bluff Creek,75154,32.5346545,-96.8693819
123,Ovilla Creek Court,75154,32.5349784,-96.8692900
615,Taylor Street,75154,32.5069186,-96.8879192
617,Taylor Street,75154,32.5069234,-96.8874932
611,Taylor Street,75154,32.5069094,-96.8887393
323,Willow Creek Lane,75154,32.5338718,-96.8967621
615,Buckboard Street,75154,32.5418023,-96.8818719
610,Cardinal Drive,75154,32.5263934,-96.8710182
617,Meadow Lark Drive,75154,32.5257640,-96.8720886
101,Suburban Drive,75154,32.5409458,-96.8905691
106,Ridgeway Gap,75154,32.5148697,-96.8855717
604,Oak Ridge Court,76065,32.5179328,-96.8839190
402,Ovilla Oaks Drive,75154,32.5187339,-96.8828111
404,Ovilla Oaks Drive,75154,32.5183262,-96.8829976
100,Oak Forest Lane,75154,32.5181602,-96.8939642
1308,Red Oak Creek Road,75154,32.5238834,-96.8830130
519,Savannah Drive,75154,32.5204900,-96.8987587
408,Montpelier Lane,75154,32.5201918,-96.8979677
324,Covington Lane,75154,32.5196140,-96.8970105
249,Williamsburg Lane,75154,32.5211077,-96.8958149
338,Johnson Lane,75154,32.5453510,-96.8993426
113,Robin Glen Lane,75154,32.5378363,-96.8879530
110,Nob Hill Lane,75154,32.5383673,-96.8882929
104,Cockrell Hill Road,75154,32.5285840,-96.8885169
3720,Monterrey Oak Way,75154,32.5212974,-96.9067326
3750,Monterrey Oak Way,75154,32.5217171,-96.9056562
103,Bent Tree Lane,75154,32.5184199,-96.8928911
110,Hummingbird Lane,75154,32.5363157,-96.8883201
113,Hummingbird Lane,75154,32.5367629,-96.8879468
115,Ashburne Glen Lane,75154,32.5355992,-96.8876950
113,Ashburne Glen Lane,75154,32.5356782,-96.8880057
102,Hummingbird Lane,75154,32.5363715,-96.8895907
314,Cockrell Hill Road,75154,32.5334586,-96.8897464
312,Cockrell Hill Road,75154,32.5331740,-96.8895591
515,Forest Edge Lane,75154,32.5334263,-96.8881522
516,Forest Edge Lane,75154,32.5333603,-96.8890222
511,Forest Edge Lane,75154,32.5339737,-96.8886513
102,Ashburne Glen Lane,75154,32.5353926,-96.8898766
3540,Maple Lane,75154,32.5194892,-96.9030495
322,Willow Creek Lane,75154,32.5330069,-96.8980512
833,East Main Street,75154,32.5303620,-96.8848209
1211,Red Oak Creek Road,75154,32.5222466,-96.8830092
1408,Red Oak Creek Road,75154,32.5257962,-96.8845757
107,Oak Creek Lane,75154,32.5303917,-96.8648340
107,Woodlands Court,75154,32.5188491,-96.8900251
108,Meadow Glen Lane,75154,32.5415897,-96.8895437
122,Meadow Glen Lane,75154,32.5417365,-96.8872776
120,Meadow Glen Lane,75154,32.5417225,-96.8875893
609,Cardinal Drive,75154,32.5271837,-96.8706426
608,Buckboard Street,75154,32.5406198,-96.8806593
104,Thorntree Drive,75154,32.5443572,-96.8891660
603,Cardinal Drive,75154,32.5271871,-96.8695719
605,Cardinal Drive,75154,32.5271859,-96.8699288
606,Cardinal Drive,75154,32.5263956,-96.8703044
613,Meadow Lark Drive,75154,32.5257680,-96.8713748
422,Shadow Wood Trail,75154,32.5389616,-96.8951226
111,Suburban Drive,75154,32.5408869,-96.8885971
606,Cedar Ridge Court,75154,32.5187225,-96.8847696
117,Water Street,75154,32.5273867,-96.8886565
1190,Red Oak Creek Road,75154,32.5239065,-96.8788042
1310,Red Oak Creek Road,75154,32.5247352,-96.8830705
907,Red Oak Creek Drive,75154,32.5180904,-96.8689243
3001,East Ovilla Road,75154,32.5303277,-96.8635396
410,Montpelier Lane,75154,32.5202946,-96.8976336
413,Montpelier Lane,75154,32.5198640,-96.8972913
303,Covington Lane,75154,32.5187361,-96.9008649
222,Williamsburg Lane,75154,32.5184388,-96.8972398
403,Cockrell Hill Road,75154,32.5336160,-96.8906356
112,Elmwood Drive,75154,32.5351756,-96.8964615
100,Willow Wood Lane,75154,32.5282163,-96.8926258
107,Elmwood Drive,75154,32.5363720,-96.8968967
210,Willow Creek Lane,75154,32.5380125,-96.8993053
326,Willow Creek Lane,75154,32.5321566,-96.8972994
601,Georgetown Road,75154,32.5394747,-96.8787188
703,Georgetown Road,75154,32.5434817,-96.8793218
711,Buckboard Street,75154,32.5447132,-96.8819044
704,Buckboard Street,75154,32.5436614,-96.8806852
624,Meadow Lark Drive,75154,32.5249693,-96.8735736
113,Lariat Trail,75154,32.5466255,-96.8786089
107,Lariat Trail,75154,32.5466625,-96.8766634
420,Shadow Wood Trail,75154,32.5386344,-96.8951312
900,Ovilla Oaks Drive,75154,32.5104961,-96.8849429
701,Ovilla Oaks Drive,75154,32.5144662,-96.8837017
911,Slippery Elm Drive,75154,32.5121887,-96.8827679
103,Ovilla Oaks Drive,75154,32.5216051,-96.8864902
201,Ovilla Oaks Drive,75154,32.5207482,-96.8844957
106,Brookwood Court,75154,32.5395157,-96.8925026
109,Oak Wood Lane,75154,32.5395213,-96.8942064
104,Oak Wood Lane,75154,32.5405651,-96.8952921
200,Oak Wood Lane,75154,32.5405778,-96.8956782
3760,Cherry Laurel Lane,75154,32.5224644,-96.9062944
7221,Persimmon Drive,75154,32.5239556,-96.9043645
7441,Pistache Lane,75154,32.5218247,-96.9020870
3740,Maple Lane,75154,32.5208849,-96.9017502
3721,Cherry Laurel Lane,75154,32.5215329,-96.9076912
102,Elmwood Drive,75154,32.5357127,-96.8988221
101,Elmwood Drive,75154,32.5365661,-96.8983332
208,Willow Creek Lane,75154,32.5384019,-96.8991405
111,Lariat Trail,75154,32.5466294,-96.8779456
747,Westmoreland Road,75154,32.5464652,-96.8748898
129,Lariat Trail,75154,32.5468059,-96.8817356
203,Winding Way Court,75154,32.5092739,-96.8855235
403,Shadow Wood Trail,75154,32.5363853,-96.8959236
505,Ovilla Oaks Drive,75154,32.5158894,-96.8830847
903,Slippery Elm Drive,75154,32.5100721,-96.8827280
108,Winding Way Court,75154,32.5112444,-96.8859982
107,Ovilla Oaks Drive,75154,32.5209869,-96.8851921
301,Ovilla Oaks Drive,75154,32.5203019,-96.8829149
105,Oak Wood Lane,75154,32.5400206,-96.8935868
7031,Cedar Court,75154,32.5181776,-96.9062330
7040,Cedar Court,75154,32.5176652,-96.9058696
7031,Cherry Court,75154,32.5200006,-96.9062171
206,Williamsburg Lane,75154,32.5183710,-96.9001367
200,Williamsburg Lane,75154,32.5183618,-96.9012535
202,Williamsburg Lane,75154,32.5183650,-96.9008635
220,White Rock Court,75154,32.5337442,-96.8667284
381,Broadmoor Lane,75154,32.5281966,-96.8781550
370,Broadmoor Lane,75154,32.5280197,-96.8773360
144,Water Street,75154,32.5262216,-96.8909152
7451,Desert Willow Lane,75154,32.5227443,-96.9008034
607,Taylor Street,75154,32.5069019,-96.8895388
880,Johnson Lane,75154,32.5459824,-96.9185588
421,Cheyenne Mountain Drive,75154,32.5290214,-96.8766255
7231,Judy Drive,75154,32.5204128,-96.9035103
607,Green Meadows Lane,75154,32.5429670,-96.9009675
104,Meadow Glen Lane,75154,32.5415871,-96.8901934
110,Meadow Glen Lane,75154,32.5415930,-96.8892184
101,Meadow Glen Lane,75154,32.5421837,-96.8905160
7621,Bald Cypress Drive,75154,32.5240823,-96.8994742
106,Nob Hill Lane,75154,32.5383692,-96.8889562
7430,Desert Willow Lane,75154,32.5223347,-96.9020672
1402,Red Oak Creek Road,75154,32.5260601,-96.8838773
101,Ovilla Creek Court,75154,32.5323594,-96.8690430
302,Fountain Creek Court,75154,32.5338724,-96.8679666
405,Bluff Creek,75154,32.5340824,-96.8686849
211,White Rock Court,75154,32.5331432,-96.8676384
224,White Rock Court,75154,32.5334392,-96.8652597
713,West Main Street,76065,32.5279138,-96.8879521
3316,Ovilla Road,75154,32.5307635,-96.8858511
613,Taylor Street,75154,32.5069143,-96.8883376
705,Silver Spur Lane,75154,32.5428938,-96.8795967
106,Cumberland Drive,75154,32.5175368,-96.8880206
110,Cumberland Drive,75154,32.5175407,-96.8869416
112,Cumberland Drive,75154,32.5175238,-96.8863985
103,Burtonwood Circle,75154,32.5471799,-96.8948714
1210,Red Oak Creek Road,75154,32.5235017,-96.8819138
105,Holly Lane,75154,32.5370851,-96.8722061
613,Edgewood Lane,75154,32.5374612,-96.8861162
401,Cockrell Hill Road,75154,32.5332279,-96.8904624
403,Willow Wood Lane,75154,32.5336065,-96.8942399
311,Willow Creek Lane,75154,32.5349565,-96.8992537
315,Willow Creek Lane,75154,32.5347372,-96.8983119
302,Willow Creek Lane,75154,32.5368614,-96.9009777
619,Meadow Lark Drive,75154,32.5257620,-96.8724505
115,Lariat Trail,75154,32.5466139,-96.8792760
114,Suburban Drive,75154,32.5397367,-96.8880404
121,Suburban Drive,75154,32.5409272,-96.8865253
139,Suburban Drive,75154,32.5408753,-96.8829484
327,Shadow Wood Trail,75154,32.5353995,-96.8959150
100,High View Court,75154,32.5194217,-96.8881764
907,Slippery Elm Drive,75154,32.5110996,-96.8827742
106,Winding Way Court,75154,32.5112198,-96.8852731
110,Winding Way Court,75154,32.5108341,-96.8862984
710,Hollingsworth Lane,75154,32.5189194,-96.8670056
631,William Drive,75154,32.5191367,-96.8676008
219,White Rock Court,75154,32.5331371,-96.8663470
1215,Red Oak Creek Road,75154,32.5226828,-96.8839436
128,Water Street,75154,32.5262583,-96.8899084
307,East University Street,75154,32.5261948,-96.8824966
214,Williamsburg Lane,75154,32.5183829,-96.8986832
216,Williamsburg Lane,75154,32.5183833,-96.8983117
675,West Main Street,75154,32.5264308,-96.8871295
138,Johnson Lane,75154,32.5460059,-96.8925353
148,Water Street,75154,32.5267137,-96.8914301
624,East Highland Road,75154,32.5082588,-96.8861681
371,Cheyenne Mountain Drive,75154,32.5280283,-96.8766394
7450,Pistache Lane,75154,32.5212139,-96.9022195
3930,Maple Lane,75154,32.5219322,-96.9007407
7820,Bald Cypress Drive,75154,32.5237903,-96.8962061
3920,Cypress Stump Court,75154,32.5235083,-96.8973614
303,Willow Creek Lane,75154,32.5360389,-96.9001968
219,Lariat Trail,75154,32.5468396,-96.8866140
704,Georgetown Road,75154,32.5430441,-96.8770605
611,Georgetown Road,75154,32.5414859,-96.8791975
105,High Ridge Court,75154,32.5461154,-96.8892888
313,Shadow Wood Trail,75154,32.5330349,-96.8958866
306,Shadow Wood Trail,75154,32.5320555,-96.8950231
402,Shadow Wood Trail,75154,32.5361899,-96.8951324
330,Shadow Wood Trail,75154,32.5352610,-96.8951182
1007,Johnson Lane,76065,32.5470475,-96.9226958
101,High View Court,75154,32.5203273,-96.8877869
405,Bill Court,75154,32.5197943,-96.8722996
604,William Drive,75154,32.5218402,-96.8721968
622,Green Meadows Lane,75154,32.5397149,-96.8998979
109,Meadow Wood Lane,75154,32.5414078,-96.8961729
114,Meadow Wood Lane,75154,32.5423609,-96.8959175
711,West Main Street,75154,32.5275583,-96.8878494
7001,Orange Court,75154,32.5209127,-96.9025174
114,Cumberland Road,75154,32.5175312,-96.8858480
116,Cumberland Drive,75154,32.5180668,-96.8856998
102,Cumberland Drive,75154,32.5175303,-96.8888889
102,Claremont Drive,75154,32.5179735,-96.9018691
156,Claremont Drive,75154,32.5228625,-96.8962835
137,Claremont Drive,75154,32.5216467,-96.8977911
110,Bent Tree Lane,75154,32.5197397,-96.8911509
617,Edgewood Lane,75154,32.5381209,-96.8861227
791,Emerald Valley Drive,75154,32.5299350,-96.8780558
301,Broadmoor Lane,75154,32.5257237,-96.8781385
611,Clinton Street,75154,32.5077423,-96.8889392
625,Ariel Street,75154,32.5068781,-96.8869278
118,Cumberland Drive,75154,32.5186111,-96.8854343
115,Cumberland Drive,75154,32.5182549,-96.8864149
106,Woodlands Court,75154,32.5179197,-96.8905249
104,Oak Forest Lane,75154,32.5190670,-96.8938525
704,East Main Street,76065,32.5260165,-96.8857253
102,Robin Glen Lane,75154,32.5373840,-96.8896465
507,Johnson Lane,75154,32.5469709,-96.9054273
223,Johnson Lane,75154,32.5468847,-96.8957116
696,West Main Street,76065,32.5269347,-96.8866054
306,East University Street,75154,32.5256651,-96.8824641
3506,Ovilla Road,76065,32.5201139,-96.8898333
603,Christa Street,75154,32.5076879,-96.8905494
156,Johnson Lane,75154,32.5445608,-96.8930769
704,East Highland Road,75154,32.5084189,-96.8829712
604,East Highland Road,75154,32.5083410,-96.8896893
214,Johnson Lane,75154,32.5445343,-96.8948625
611,Malloy Road,75154,32.5351678,-96.8840854
120,Hummingbird Lane,75154,32.5360126,-96.8867160
616,Forest Edge Lane,75154,32.5384186,-96.8905197
603,Edgewood Lane,75154,32.5358177,-96.8861166
100,Hummingbird Lane,75154,32.5363688,-96.8899250
101,Holly Lane,75154,32.5370926,-96.8736826
107,Greenwood Drive,75154,32.5325010,-96.8919968
106,Silverwood Drive,75154,32.5317102,-96.8915410
616,Georgetown Road,75154,32.5423015,-96.8775395
612,Georgetown Road,75154,32.5417504,-96.8775430
217,Lariat Trail,75154,32.5468463,-96.8861690
752,Cockrell Hill Road,75154,32.5458286,-96.8903442
754,Cockrell Hill Road,75154,32.5462090,-96.8903413
102,High Ridge Court,75154,32.5455677,-96.8882944
602,Cedar Ridge Court,75154,32.5198103,-96.8844670
715,Johnson Lane,75154,32.5469793,-96.9121964
617,William Drive,75154,32.5200998,-96.8702761
927,Red Oak Creek Drive,75154,32.5198557,-96.8732173
105,Willow Creek Lane,75154,32.5404570,-96.8975707
203,Oak Wood Lane,75154,32.5396834,-96.8961495
101,North Wood Drive,75154,32.5416737,-96.8987810
105,North Wood Drive,75154,32.5425407,-96.8988638
708,West Main Street,75154,32.5285870,-96.8876514
842,Red Oak Creek Drive,75154,32.5164040,-96.8658197
158,Claremont Drive,75154,32.5230256,-96.8959509
331,Penrose Drive,75154,32.5267065,-96.8751860
341,Penrose Drive,75154,32.5270369,-96.8751835
340,Broadmoor Lane,75154,32.5270305,-96.8773647
310,Cheyenne Mountain Drive,75154,32.5260387,-96.8758986
310,Penrose Drive,75154,32.5259282,-96.8743837
103,Cockrell Hill Road,75154,32.5277538,-96.8892931
103,Willow Wood Lane,75154,32.5286168,-96.8939408
609,Buckboard Street,75154,32.5406205,-96.8818673
201,Willow Wood Lane,75154,32.5298127,-96.8941845
604,Buckboard Street,75154,32.5398319,-96.8806484
107,Silverwood Drive,75154,32.5307768,-96.8915106
602,Buckboard Street,75154,32.5394352,-96.8806467
209,Willow Creek Lane,75154,32.5383992,-96.8980144
612,Buckboard Street,75154,32.5413954,-96.8806705
733,Westmoreland Road,75154,32.5426901,-96.8750552
602,Cardinal Drive,75154,32.5263977,-96.8695906
603,Meadow Lark Drive,75154,32.5257764,-96.8695904
412,Shadow Wood Trail,75154,32.5379504,-96.8951317
107,Suburban Drive,75154,32.5408708,-96.8893674
204,Willow Creek Court,75154,32.5380555,-96.8965716
105,Elmwood Drive,75154,32.5364842,-96.8973403
100,Suburban Drive,75154,32.5397574,-96.8904375
223,Lariat Trail,75154,32.5468406,-96.8874959
714,Georgetown Road,75154,32.5451118,-96.8770676
604,Meadow Lark Drive,75154,32.5249873,-96.8699381
142,Suburban Drive,75154,32.5396776,-96.8829592
108,Ridgeway Gap,75154,32.5146556,-96.8861153
748,Cockrell Hill Road,75154,32.5450410,-96.8903196
101,Ridgeway Gap,75154,32.5139634,-96.8853950
108,Woodridge Court,75154,32.5127454,-96.8863554
6981,Cedar Court,75154,32.5185038,-96.9067162
1031,Johnson Lane,76065,32.5470453,-96.9237347
621,Green Meadows Lane,75154,32.5401757,-96.9009759
100,North Wood Drive,75154,32.5421158,-96.8976263
104,Ovilla Oaks Drive,75154,32.5203899,-96.8860852
623,William Drive,75154,32.5192742,-96.8696013
622,William Drive,75154,32.5199889,-96.8684176
118,Meadow Wood Lane,75154,32.5423863,-96.8970272
406,Montpelier Lane,75154,32.5201702,-96.8983237
417,Montpelier Lane,75154,32.5201078,-96.8965705
233,Williamsburg Lane,75154,32.5187188,-96.8957284
837,East Main Street,75154,32.5311203,-96.8843725
3324,Fm 664,76065,32.5280458,-96.8864886
110,Claremont Drive,75154,32.5190786,-96.9018651
136,Claremont Drive,75154,32.5220406,-96.8995413
126,Claremont Drive,75154,32.5211260,-96.9009007
144,Claremont Drive,75154,32.5223063,-96.8982338
125,Claremont Drive,75154,32.5209556,-96.9002192
135,Claremont Drive,75154,32.5215131,-96.8982494
7601,Bald Cypress Drive,75154,32.5239218,-96.9001665
3730,Bryson Manor Drive,75154,32.5214880,-96.9044016
154,Claremont Drive,75154,32.5227713,-96.8966038
3357,Ovilla Road,75154,32.5291210,-96.8852681
350,Cheyenne Mountain Drive,75154,32.5273598,-96.8758315
320,Broadmoor Lane,75154,32.5263702,-96.8773321
301,Cheyenne Mountain Drive,75154,32.5257156,-96.8767177
300,Penrose Drive,75154,32.5255768,-96.8744000
119,Ashburne Glen Lane,75154,32.5355646,-96.8870196
115,Hummingbird Lane,75154,32.5366659,-96.8875956
116,Robin Glen Lane,75154,32.5370743,-96.8873655
606,Forest Edge Lane,75154,32.5368380,-96.8905272
107,Ashburne Glen Lane,75154,32.5359121,-96.8889334
104,Hummingbird Lane,75154,32.5363719,-96.8892758
514,Forest Edge Lane,75154,32.5336448,-96.8892296
510,Forest Edge Lane,75154,32.5341831,-96.8897279
506,Forest Edge Lane,75154,32.5346476,-96.8903696
124,Ovilla Creek Court,75154,32.5354571,-96.8699511
7021,Cedar Court,75154,32.5181803,-96.9066394
744-A,Cockrell Hill Road,75154,32.5437153,-96.8874976
205,Brook Wood Court,75154,32.5425110,-96.8924155
125,Lariat Trail,75154,32.5468026,-96.8806022
202,Thorntree Drive,75154,32.5443596,-96.8878462
746,Cockrell Hill Road,75154,32.5443747,-96.8904771
204,Brook Wood Court,75154,32.5422016,-96.8912469
106,Meadow Wood Lane,75154,32.5424340,-96.8942547
110,Meadow Wood Lane,75154,32.5423773,-96.8953876
108,Woodlands Court,75154,32.5179935,-96.8900180
102,Oak Forest Lane,75154,32.5185504,-96.8937275
103,Oak Forest Lane,75154,32.5192314,-96.8945601
116,Meadow Glen Lane,75154,32.5416659,-96.8882424
524,Savannah Drive,75154,32.5213203,-96.8975654
531,Savannah Drive,75154,32.5210380,-96.8966194
503,Savannah Drive,75154,32.5195273,-96.8999257
320,Covington Lane,75154,32.5193181,-96.8977261
314,Covington Lane,75154,32.5192680,-96.8988239
247,Williamsburg Lane,75154,32.5207927,-96.8958120
1208,Red Oak Creek Road,75154,32.5226994,-96.8813777
3319,Ovilla Road,76065,32.5295472,-96.8852836
3761,Cherry Laurel Lane,75154,32.5227040,-96.9068804
3771,Cherry Laurel Lane,75154,32.5229263,-96.9066415
3941,Cherry Laurel Lane,75154,32.5240439,-96.9054404
101,Bent Tree Lane,75154,32.5181089,-96.8931837
108,Oak Forest Lane,75154,32.5194756,-96.8929418
130,Meadow Glen Lane,75154,32.5418877,-96.8861955
3730,Maple Lane,75154,32.5205863,-96.9020215
7050,Cedar Court,75154,32.5176616,-96.9054873
7000,Judy Drive,75154,32.5203920,-96.9076544
104,Elmwood Drive,75154,32.5355934,-96.8983557
207,Lariat Trail,75154,32.5468223,-96.8839974
215,Willow Creek Lane,75154,32.5370065,-96.8987054
715,Buckboard Street,75154,32.5454398,-96.8819211
713,Buckboard Street,75154,32.5450756,-96.8819093
623,Meadow Lark Drive,75154,32.5257578,-96.8731927
625,Meadow Lark Drive,75154,32.5257556,-96.8735820
131,Lariat Trail,75154,32.5468080,-96.8822025
735,Westmoreland Road,75154,32.5431191,-96.8751139
122,Suburban Drive,75154,32.5397558,-96.8866290
413,Shadow Wood Trail,75154,32.5379948,-96.8959112
703,Ovilla Oaks Drive,75154,32.5139512,-96.8837508
801,Ovilla Oaks Drive,75154,32.5131857,-96.8836490
614,Meadow Lark Drive,75154,32.5249769,-96.8717226
101,Oak Wood Lane,75154,32.5407674,-96.8934537
103,Willow Creek Lane,75154,32.5408379,-96.8974918
114,Hummingbird Lane,75154,32.5360971,-96.8877017
116,Hummingbird Lane,75154,32.5360180,-96.8873742
109,Hummingbird Lane,75154,32.5369165,-96.8886659
110,Robin Glen Lane,75154,32.5373696,-96.8883017
501,Edgewood Lane,75154,32.5351580,-96.8861169
505,Ashburne Glen Circle,75154,32.5343605,-96.8875789
503,Forest Edge Lane,75154,32.5350914,-96.8897105
505,Forest Edge Lane,75154,32.5348193,-96.8894531
114,Ovilla Creek Court,75154,32.5338826,-96.8698894
665,Johnson Lane,75154,32.5469807,-96.9102702
201,Williamsburg Lane,75154,32.5177777,-96.9012716
229,Williamsburg Lane,75154,32.5182384,-96.8962127
609,Taylor Street,75154,32.5069069,-96.8891373
705,West Main Street,75154,32.5270403,-96.8877532
100,Ovilla Creek Court,75154,32.5323641,-96.8697962
221,White Rock Court,75154,32.5330655,-96.8659483
127,Meadow Glen Lane,75154,32.5423955,-96.8863290
134,Meadow Glen Lane,75154,32.5415574,-96.8857064
3418,Ovilla Road,76065,32.5223807,-96.8882867
140,Water Street,75154,32.5267917,-96.8904629
305,East University Street,75154,32.5261974,-96.8827531
410,Penrose Drive,75154,32.5286302,-96.8743889
401,Penrose Drive,75154,32.5283587,-96.8751810
370,Cheyenne Mountain Drive,75154,32.5280223,-96.8758116
3910,Cypress Stump Court,75154,32.5231594,-96.8975546
3930,Monterrey Oak Way,75154,32.5229329,-96.9043442
3910,Monterrey Oak Way,75154,32.5224475,-96.9048686
3761,Monterrey Oak Way,75154,32.5224464,-96.9057005
139,Meadow Glen Lane,75154,32.5423328,-96.8843522
137,Meadow Glen Lane,75154,32.5423432,-96.8846761
133,Meadow Glen Lane,75154,32.5423645,-96.8853499
100,Nob Hill Lane,75154,32.5383840,-96.8899380
103,Silverwood Drive,75154,32.5307786,-96.8906063
744,Cockrell Hill Road,75154,32.5430046,-96.8863124
1202,Red Oak Creek Road,75154,32.5241368,-96.8801783
102,Dusty Oak Trail,75154,32.5218497,-96.8858254
202,White Rock Court,75154,32.5336718,-96.8690172
401,Bluff Creek,75154,32.5340858,-96.8693336
201,White Rock Court,75154,32.5331536,-96.8692998
614,Clinton Street,75154,32.5072689,-96.8883427
103,Windsong Circle,75154,32.5195595,-96.8951862
109,Meadow Glen Lane,75154,32.5423277,-96.8892448
121,Meadow Glen Lane,75154,32.5424249,-96.8873005
301,Willow Wood Lane,75154,32.5314781,-96.8941783
205,Willow Wood Lane,75154,32.5305580,-96.8941782
317,Willow Creek Lane,75154,32.5345757,-96.8978342
109,Elmwood Drive,75154,32.5363384,-96.8964392
309,Willow Creek Lane,75154,32.5349889,-96.8997604
202,Willow Creek Court,75154,32.5385973,-96.8966484
707,Buckboard Street,75154,32.5439751,-96.8818918
705,Buckboard Street,75154,32.5435905,-96.8818928
714,Buckboard Street,75154,32.5458941,-96.8804148
620,Meadow Lark Drive,75154,32.5249724,-96.8728148
621,Meadow Lark Drive,75154,32.5257599,-96.8728173
417,Shadow Wood Trail,75154,32.5386376,-96.8959066
102,High View Court,75154,32.5193797,-96.8874405
506,Bruce Court,75154,32.5209767,-96.8683608
507,Bruce Court,75154,32.5215142,-96.8671837
619,Edgewood Lane,75154,32.5384476,-96.8861120
615,Edgewood Lane,75154,32.5377910,-96.8861195
505,Edgewood Lane,75154,32.5343997,-96.8861058
603,Buckboard Street,75154,32.5394410,-96.8818675
325,Willow Creek Lane,75154,32.5334315,-96.8966742
103,Suburban Drive,75154,32.5408946,-96.8901166
113,Suburban Drive,75154,32.5409037,-96.8882011
406,Shadow Wood Trail,75154,32.5369874,-96.8951359
108,Bent Tree Lane,75154,32.5191739,-96.8911805
919,Red Oak Creek Drive,75154,32.5188180,-96.8710512
108,Meadow Wood Lane,75154,32.5424132,-96.8948330
104,Meadow Wood Lane,75154,32.5423327,-96.8936357
3322,Fm 664,76065,32.5286336,-96.8866129
100,Claremont Drive,75154,32.5176629,-96.9018702
143,Claremont Drive,75154,32.5219860,-96.8965794
203,Williamsburg Lane,75154,32.5177815,-96.9009208
219,Williamsburg Lane,75154,32.5178143,-96.8979082
231,Williamsburg Lane,75154,32.5183972,-96.8958496
225,Williamsburg Lane,75154,32.5178660,-96.8967969
223,Williamsburg Lane,75154,32.5178090,-96.8971633
749,Cockrell Hill Road,75154,32.5447820,-96.8918340
743,Cockrell Hill Road,75154,32.5430382,-96.8915224
634,East Highland Road,75154,32.5082908,-96.8851220
918,Red Oak Creek Drive,75154,32.5177884,-96.8718486
430,Cheyenne Mountain Drive,75154,32.5293437,-96.8758272
420,Broadmoor Lane,75154,32.5290135,-96.8772673
411,Penrose Drive,75154,32.5286871,-96.8751868
410,Broadmoor Lane,75154,32.5286809,-96.8772751
7440,Pistache Lane,75154,32.5214069,-96.9025126
7420,Pistache Lane,75154,32.5217747,-96.9030745
7620,Bald Cypress Drive,75154,32.5231320,-96.8992699
3940,Monterrey Oak Way,75154,32.5231835,-96.9040619
3901,Monterrey Oak Way,75154,32.5226890,-96.9054390
7020,Cherry Court,75154,32.5194794,-96.9065698
103,Greenwood Drive,75154,32.5325121,-96.8910979
301,Cockrell Hill Road,75154,32.5315302,-96.8893815
201,Cockrell Hill Road,75154,32.5297907,-96.8894560
104,Westlawn Drive,75154,32.5299902,-96.8910795
305,Willow Creek Lane,75154,32.5356566,-96.9002933
208,Willow Creek Court,75154,32.5373209,-96.8974779
221,Lariat Trail,75154,32.5468413,-96.8870576
619,Cardinal Drive,75154,32.5271779,-96.8724499
622,Cardinal Drive,75154,32.5263828,-96.8731931
141,Suburban Drive,75154,32.5411224,-96.8826976
105,Pebble Ridge Court,75154,32.5461046,-96.8874488
101,Pebble Ridge Court,75154,32.5450625,-96.8875442
103,Copperfield Court,75154,32.5456324,-96.8857654
402,Thorntree Drive,75154,32.5443600,-96.8838814
305,Shadow Wood Trail,75154,32.5318524,-96.8961083
332,Shadow Wood Trail,75154,32.5355587,-96.8951224
326,Shadow Wood Trail,75154,32.5346535,-96.8951066
604,Valley View Court,75154,32.5199104,-96.8864362
100,Oak Wood Lane,75154,32.5407783,-96.8945503
618,Clinton Street,75154,32.5072770,-96.8874985
612,Clinton Street,75154,32.5072640,-96.8887396
3721,Bryson Manor Drive,75154,32.5216112,-96.9051464
103,Westlawn Drive,75154,32.5292240,-96.8905589
321,Penrose Drive,75154,32.5263736,-96.8751779
331,Cheyenne Mountain Drive,75154,32.5267073,-96.8767042
321,Cheyenne Mountain Drive,75154,32.5263769,-96.8767176
100,Burtonwood Circle,75154,32.5466428,-96.8938842
121,Water Street,75154,32.5273557,-96.8892767
111,Bent Tree Lane,75154,32.5198855,-96.8921641
7040,Plum Court,75154,32.5185075,-96.9060013
7010,Cedar Court,75154,32.5176338,-96.9070663
3720,Maple Lane,75154,32.5203186,-96.9022724
3520,Maple Lane,75154,32.5189273,-96.9035763
7220,Cherry Lane,75154,32.5193667,-96.9044713
3510,Bryson Manor Drive,75154,32.5181138,-96.9048506
7050,Plum Court,75154,32.5185535,-96.9054897
7050,Judy Drive,75154,32.5203618,-96.9054867
745,Westmoreland Road,75154,32.5458321,-96.8750649
803,Cockrell Hill Road,75154,32.5466786,-96.8918719
406,Bluff Creek,75154,32.5346480,-96.8683348
127,Ovilla Creek Court,75154,32.5355593,-96.8693360
126,Ovilla Creek Court,75154,32.5355820,-96.8696745
1934,Juniper Lane,76065,32.5467664,-96.9190559
610,Forest Edge Lane,75154,32.5374716,-96.8905264
614,Forest Edge Lane,75154,32.5380914,-96.8905210
118,Robin Glen Lane,75154,32.5370341,-96.8870549
608,Taylor Street,75154,32.5064230,-96.8893479
1928,Juniper Lane,76065,32.5473771,-96.9190623
881,Johnson Lane,75154,32.5470175,-96.9180682
110,Silverwood Drive,75154,32.5317043,-96.8924444
113,Westlawn Drive,75154,32.5291738,-96.8932305
136,Suburban Drive,75154,32.5396950,-96.8841453
126,Suburban Drive,75154,32.5397505,-96.8859369
144,Suburban Drive,75154,32.5396611,-96.8825775
103,Pebble Ridge Court,75154,32.5455723,-96.8875922
601,Meadowlark Drive,75154,32.5257782,-96.8692137
102,Pebble Ridge Court,75154,32.5456067,-96.8864664
307,Shadow Wood Trail,75154,32.5320743,-96.8961966
101,Rimrock Court,75154,32.5162417,-96.8863043
402,Bill Court,75154,32.5203145,-96.8711740
601,William Drive,75154,32.5211262,-96.8734189
511,Bruce Court,75154,32.5219366,-96.8674084
105,Meadow Wood Lane,75154,32.5414398,-96.8952643
1410,Red Oak Creek Road,75154,32.5258476,-96.8848525
839,East Main Street,75154,32.5314739,-96.8843014
900,Red Oak Creek Drive,75154,32.5168042,-96.8674084
3911,Cypress Stump Court,75154,32.5230476,-96.8982393
611,Buckboard Street,75154,32.5410054,-96.8818638
600,Buckboard Street,75154,32.5390460,-96.8806522
602,Georgetown Road,75154,32.5394746,-96.8775438
613,Cardinal Drive,75154,32.5271813,-96.8713705
607,Cardinal Drive,75154,32.5271848,-96.8702857
604,Cardinal Drive,75154,32.5263967,-96.8699475
607,Meadow Lark Drive,75154,32.5257729,-96.8703042
204,Thorntree Drive,75154,32.5443532,-96.8871898
401,Ovilla Oaks Drive,75154,32.5186562,-96.8815171
603,Oak Ridge Court,76065,32.5170991,-96.8844069
102,North Wood Drive,75154,32.5425397,-96.8976096
121,Robin Glen Lane,75154,32.5375721,-96.8867055
741,Emerald Valley Drive,75154,32.5299081,-96.8758928
351,Penrose Drive,75154,32.5273666,-96.8751790
300,Johnson Lane,75154,32.5445621,-96.8978420
414,Montpelier Lane,75154,32.5205552,-96.8970062
501,Savannah Drive,75154,32.5192314,-96.8999276
602,Silverspur Lane,75154,32.5420556,-96.8829524
133,Water Street,75154,32.5272446,-96.8898546
701,West Main Street,75154,32.5279254,-96.8885781
7611,Bald Cypress Drive,75154,32.5240025,-96.8998212
6960,Cedar Court,75154,32.5191310,-96.9074830
7051,Plum Court,75154,32.5190871,-96.9054802
140,Meadow Glen Lane,75154,32.5417001,-96.8846691
307,Fountain Creek Court,75154,32.5346726,-96.8672831
320,Fountain Creek Court,75154,32.5355774,-96.8687216
404,Bluff Creek,75154,32.5346437,-96.8686747
122,Ovilla Creek Court,75154,32.5350530,-96.8699164
105,Nob Hill Lane,75154,32.5389646,-96.8897566
103,Nob Hill Lane,75154,32.5389671,-96.8901557
121,Ashburne Glen Lane,75154,32.5355615,-96.8866640
112,Hummingbird Lane,75154,32.5361975,-96.8880236
509,Forest Edge Lane,75154,32.5342325,-96.8888928
601,Creek View Circle,75154,32.5196311,-96.8819325
203,Ovilla Oaks Drive,75154,32.5203445,-96.8837525
508,Bruce Court,75154,32.5214699,-96.8684052
141,Meadow Glen Lane,75154,32.5423221,-96.8840291
135,Meadow Glen Lane,75154,32.5423536,-96.8850084
143,Meadow Glen Lane,75154,32.5423108,-96.8836999
677,Johnson Lane,75154,32.5469785,-96.9108370
901,Red Oak Creek Road,75154,32.5180647,-96.8672004
1201,Red Oak Creek Road,75154,32.5211963,-96.8794805
506,Savannah Drive,75154,32.5200816,-96.9004085
327,Covington Lane,75154,32.5191792,-96.8966011
321,Willow Creek Lane,75154,32.5342384,-96.8969166
605,Cedar Ridge Court,75154,32.5184710,-96.8838623
615,Green Meadows Lane,75154,32.5413699,-96.9009577
905,Red Oak Creek Drive,75154,32.5180827,-96.8684313
102,Meadow Wood Lane,75154,32.5418517,-96.8936133
924,Red Oak Creek Road,75154,32.5189927,-96.8733786
404,Montpelier Lane,75154,32.5201505,-96.8986856
401,Montpelier Lane,75154,32.5196841,-96.8994812
407,Montpelier Lane,75154,32.5196455,-96.8983882
251,Williamsburg Lane,75154,32.5215546,-96.8958162
701,Georgetown Road,75154,32.5428655,-96.8786979
405,Thorntree Drive,75154,32.5457982,-96.8839416
907,Ovilla Oaks Drive,75154,32.5093259,-96.8834203
113,Oak Wood Lane,75154,32.5395441,-96.8951675
420,Penrose Drive,75154,32.5289587,-96.8743899
401,Cheyenne Mountain Drive,75154,32.5283582,-96.8766309
400,Cheyenne Mountain Drive,75154,32.5283521,-96.8758144
370,Penrose Drive,75154,32.5279931,-96.8743889
3900,Maple Lane,75154,32.5211716,-96.9014867
7421,Bald Cypress Drive,75154,32.5235012,-96.9019338
3910,Cherry Laurel Lane,75154,32.5229498,-96.9057715
3770,Monterrey Oak Way,75154,32.5222042,-96.9051321
3731,Bryson Manor Drive,75154,32.5218382,-96.9049069
3740,Monterrey Oak Way,75154,32.5214049,-96.9059741
3711,Bryson Manor Drive,75154,32.5212897,-96.9054743
3931,Cherry Laurel Lane,75154,32.5238206,-96.9056793
7821,Bald Cypress Drive,75154,32.5246548,-96.8972380
325,Covington Lane,75154,32.5190404,-96.8969880
215,Williamsburg Lane,75154,32.5177978,-96.8989338
720,East Highland Road,75154,32.5071268,-96.8828649
104,Suburban Drive,75154,32.5397056,-96.8898634
7001,Cherry Court,75154,32.5200669,-96.9074213
371,Broadmoor Lane,75154,32.5278608,-96.8781728
180,Water Street,75154,32.5262079,-96.8928734
602,Christa Street,76065,32.5064725,-96.8905581
7211,Judy Drive,75154,32.5208265,-96.9043481
7231,Cherry Lane,75154,32.5194806,-96.9038587
115,Robin Glen Lane,75154,32.5377180,-96.8876239
610,Clinton Street,75154,32.5072611,-96.8891368
113,Cumberland Drive,75154,32.5182313,-96.8869152
102,Burtonwood Circle,75154,32.5471732,-96.8938912
100,Cumberland Drive,75154-5631,32.5175915,-96.8893456
108,Circle Drive,75154,32.5262942,-96.8878980
1207,Red Oak Creek Road,75154,32.5217017,-96.8817316
101,Cumberland Road,75154,32.5181837,-96.8889201
106,Bent Tree Lane,75154,32.5185863,-96.8916487
115,Meadow Glen Lane,75154,32.5423727,-96.8882680
117,Robin Glen Lane,75154,32.5376364,-96.8873197
102,Windsong Circle,75154,32.5188328,-96.8951691
834,East Main Street,75154,32.5303411,-96.8832192
803,East Main Street,75154,32.5267556,-96.8853665
800,East Main Street,75154,32.5268606,-96.8833478
200,Cockrell Hill Road,75154,32.5299486,-96.8879479
489,Johnson Lane,75154,32.5469550,-96.9046463
922,Slippery Elm Drive,75154,32.5175338,-96.8813376
322,Johnson Lane,75154,32.5445158,-96.8987487
206,Willow Creek Lane,75154,32.5388640,-96.8990100
613,Georgetown Road,75154,32.5418841,-96.8791766
103,Lariat Trail,75154,32.5469962,-96.8748899
109,Lariat Trail,75154,32.5466417,-96.8773103
104,Pebble Ridge Court,75154,32.5461220,-96.8866016
103,Rimrock Court,75154,32.5169465,-96.8862503
107,Slippery Rock Court,75154,32.5154157,-96.8863187
102,Slippery Rock Court,75154,32.5164374,-96.8838432
915,Slippery Elm Drive,75154,32.5132409,-96.8829225
901,Ovilla Oaks Drive,75154,32.5109103,-96.8835468
608,Creek View Circle,75154,32.5201888,-96.8793685
630,William Drive,75154,32.5199451,-96.8675100
503,Bruce Court,75154,32.5204471,-96.8674838
202,Oak Wood Lane,75154,32.5406151,-96.8960742
625,West Main Street,76065,32.5257949,-96.8868126
112,Silverwood Drive,75154,32.5317020,-96.8929017
109,Westlawn Drive,75154,32.5290349,-96.8920466
207,Cockrell Hill Road,75154,32.5309276,-96.8894743
101,Willow Wood Lane,75154,32.5283288,-96.8936634
113,Silverwood Drive,75154,32.5307753,-96.8928649
115,Silverwood Drive,75154,32.5307767,-96.8933457
233,Lariat Trail,75154,32.5470643,-96.8902573
800,Cockrell Hill Road,75154,32.5466262,-96.8902301
225,Lariat Trail,75154,32.5468343,-96.8879363
702,Georgetown Road,75154,32.5426463,-96.8770493
101,High Ridge Court,75154,32.5450639,-96.8893771
600,Meadow Lark Drive,75154,32.5249922,-96.8692089
311,Shadow Wood Trail,75154,32.5327205,-96.8959049
100,Ovilla Oaks Drive,75154,32.5210387,-96.8874367
612,Meadow Lark Drive,75154,32.5249784,-96.8713657
609,William Drive,75154,32.5209841,-96.8722986
620,William Drive,75154,32.5202065,-96.8691335
204,Oak Wood Lane,75154,32.5406304,-96.8964664
104,Willow Creek Lane,75154,32.5404647,-96.8989418
602,Green Meadows Lane,75154,32.5454925,-96.8999315
101 & 103,Brookwood Court,75154,32.5406203,-96.8913728
500,Savannah Drive,75154,32.5192355,-96.9005773
207,Williamsburg Lane,75154,32.5177869,-96.9002720
227,Williamsburg Lane,75154,32.5180412,-96.8964796
103,Oak Creek Lane,75154,32.5312502,-96.8648293
180,Johnson Lane,75154,32.5445551,-96.8936268
372,Johnson Lane,75154,32.5452005,-96.9006870
615,Elmwood Drive,75154,32.5375917,-96.9022157
115,Claremont Drive,75154,32.5198172,-96.9011370
411,Broadmoor Lane,75154,32.5288564,-96.8781187
360,Cheyenne Mountain Drive,75154,32.5276911,-96.8758136
7420,Desert Willow Lane,75154,32.5225241,-96.9023461
7441,Bald Cypress Drive,75154,32.5236840,-96.9011971
7431,Pistache Lane,75154,32.5220110,-96.9023682
751,Emerald Valley Drive,75154,32.5299174,-96.8762824
440,Penrose Drive,75154,32.5296738,-96.8743351
321,Broadmoor Lane,75154,32.5263771,-96.8781410
311,Broadmoor Lane,75154,32.5260501,-96.8781297
290,Penrose Drive,75154,32.5252418,-96.8744199
7040,Cherry Court,75154,32.5194761,-96.9058556
7000,Orange Court,75154,32.5205060,-96.9029000
7221,Judy Drive,75154,32.5206416,-96.9038843
104,Ovilla Creek Court,75154,32.5327064,-96.8698092
222,White Rock Court,75154,32.5337005,-96.8661150
112,Ovilla Creek Court,75154,32.5335984,-96.8698884
108,Ovilla Creek Court,75154,32.5330284,-96.8698630
307,Cockrell Hill Road,75154,32.5325674,-96.8904390
105,Westlawn Drive,75154,32.5292218,-96.8910466
101,Silverwood Drive,75154,32.5307777,-96.8901577
105,Silverwood Drive,75154,32.5307753,-96.8910592
111,Silverwood Drive,75154,32.5307758,-96.8924111
213,Lariat Trail,75154,32.5468357,-96.8853106
207,Willow Creek Lane,75154,32.5388629,-96.8978927
712,Georgetown Road,75154,32.5447198,-96.8770437
706,Georgetown Road,75154,32.5434783,-96.8770480
618,Cardinal Drive,75154,32.5263866,-96.8724509
406,Thorntree Drive,75154,32.5446862,-96.8828506
321,Shadow Wood Trail,75154,32.5343239,-96.8959093
207,Shadow Wood Trail,75154,32.5310469,-96.8958891
322,Shadow Wood Trail,75154,32.5340278,-96.8951046
404,Shadow Wood Trail,75154,32.5366610,-96.8951325
102,Ovilla Oaks Drive,75154,32.5207245,-96.8867585
601,Valley View Court,75154,32.5201127,-96.8851794
300,Ovilla Oaks Drive,75154,32.5194870,-96.8836410
206,Oak Wood Lane,75154,32.5406503,-96.8968752
200,Willow Creek Lane,75154,32.5400945,-96.8989671
202,Brook Wood Court,75154,32.5417251,-96.8913605
200,Brook Wood Court,75154,32.5413467,-96.8913641
103,North Wood Drive,75154,32.5420988,-96.8988701
617,Clinton Street,75154,32.5077440,-96.8877089
613,Clinton Street,75154,32.5077427,-96.8885309
616,Taylor Street,75154,32.5064372,-96.8871765
101,Burtonwood Circle,75154,32.5466342,-96.8948684
101,Oak Forest Lane,75154,32.5184679,-96.8946920
112,Claremont Drive,75154,32.5193548,-96.9018641
116,Claremont Drive,75154,32.5199432,-96.9018575
142,Meadow Glen Lane,75154,32.5416941,-96.8843394
127,Claremont Drive,75154,32.5211889,-96.9000111
123,Claremont Drive,75154,32.5207300,-96.9004154
141,Claremont Drive,75154,32.5218709,-96.8970024
405,Ovilla Oaks Drive,75154,32.5178377,-96.8822295
128,Meadow Glen Lane,75154,32.5415527,-96.8862728
623,Edgewood Lane,75154,32.5390510,-96.8863148
112,Robin Glen Lane,75154,32.5372502,-96.8879868
503,Edgewood Lane,75154,32.5348193,-96.8860912
507,Ashburne Glen Circle,75154,32.5341642,-96.8880825
101,Ashburne Glen Lane,75154,32.5359118,-96.8899269
105,Ashburne Glen Lane,75154,32.5359180,-96.8892733
310,Cockrell Hill Road,75154,32.5328715,-96.8893874
513,Forest Edge Lane,75154,32.5337465,-96.8883211
706,East Main Street,75154,32.5258316,-96.8854055
804,East Main Street,75154,32.5268981,-96.8843667
141,Water Street,75154,32.5273166,-96.8910033
711,Emerald Valley Drive,75154,32.5299622,-96.8745576
350,Penrose Drive,75154,32.5273265,-96.8744003
330,Broadmoor Lane,75154,32.5266998,-96.8773505
320,Cheyenne Mountain Drive,75154,32.5263680,-96.8758914
300,Broadmoor Lane,75154,32.5257039,-96.8773282
661,South Westmoreland Road,75154,32.5373154,-96.8756543
130,Johnson Lane,75154,32.5459988,-96.8915666
747,Cockrell Hill Road,75154,32.5442039,-96.8918176
124,Water Street,75154,32.5264068,-96.8894392
114,Silverwood Drive,75154,32.5316990,-96.8933740
103,Elmwood Drive,75154,32.5365823,-96.8978204
100,Westlawn Drive,75154,32.5299884,-96.8901720
301,Willow Creek Lane,75154,32.5363034,-96.8997959
211,Willow Creek Lane,75154,32.5375815,-96.8982702
710,Georgetown Road,75154,32.5443206,-96.8770593
621,Cardinal Drive,75154,32.5271767,-96.8728209
100,High Ridge Court,75154,32.5450699,-96.8883386
100,Pebble Ridge Court,75154,32.5450667,-96.8865345
404,Thorntree Drive,75154,32.5443726,-96.8831607
308,Shadow Wood Trail,75154,32.5322861,-96.8950262
202,Willow Creek Lane,75154,32.5397103,-96.8990340
618,Green Meadows Lane,75154,32.5409414,-96.8999576
612,Green Meadows Lane,75154,32.5426247,-96.8999242
740,Cockrell Hill Road,75154,32.5425685,-96.8901432
619,Hosford Road,75154,32.5386248,-96.8841078
7401,Pistache Lane,75154,32.5226202,-96.9032210
3921,Monterrey Oak Way,75154,32.5231753,-96.9049142
7231,Persimmon Drive,75154,32.5237917,-96.9040663
3711,Monterrey Oak Way,75154,32.5218386,-96.9069783
124,Claremont Drive,75154,32.5209139,-96.9010992
140,Claremont Drive,75154,32.5221472,-96.8988786
152,Claremont Drive,75154,32.5226791,-96.8969231
613,Buckboard Street,75154,32.5414075,-96.8818714
102,Thorntree Drive,75154,32.5443662,-96.8898154
608,Georgetown Road,75154,32.5407114,-96.8775442
615,Meadow Lark Drive,75154,32.5257660,-96.8717317
300,Thorntree Drive,75154,32.5443470,-96.8865350
117,Suburban Drive,75154,32.5409244,-96.8873597
603,Creek View Circle,75154,32.5204159,-96.8819763
407,Ovilla Oaks Drive,75154,32.5174152,-96.8826067
613,Green Meadows Lane,75154,32.5417575,-96.9009587
925,Red Oak Creek Drive,75154,32.5193186,-96.8726394
909,Red Oak Creek Drive,75154,32.5180951,-96.8694203
203,Brook Wood Court,75154,32.5419554,-96.8926672
3309,Ovilla Road,76065,32.5310929,-96.8848373
270,Penrose Drive,75154,32.5245901,-96.8744219
528,Savannah Drive,75154,32.5215220,-96.8968799
523,Savannah Drive,75154,32.5206181,-96.8980724
529,Savannah Drive,75154,32.5209243,-96.8970827
312,Covington Lane,75154,32.5192742,-96.8991809
235,Williamsburg Lane,75154,32.5190310,-96.8957959
253,Williamsburg Lane,75154,32.5218497,-96.8958226
107,Bent Tree Lane,75154,32.5190609,-96.8922068
109,Oak Forest Lane,75154,32.5199874,-96.8931105
138,Meadow Glen Lane,75154,32.5418633,-96.8850440
7041,Cedar Court,75154,32.5181739,-96.9058784
7030,Cedar Court,75154,32.5176712,-96.9062261
622,Edgewood Lane,75154,32.5389700,-96.8868099
109,Nob Hill Lane,75154,32.5389597,-96.8889583
114,Ashburne Glen Lane,75154,32.5350440,-96.8868085
605,Edgewood Lane,75154,32.5361226,-96.8861150
121,Hummingbird Lane,75154,32.5365568,-96.8866975
105,Hummingbird Lane,75154,32.5369063,-96.8893383
308,Cockrell Hill Road,75154,32.5326031,-96.8891711
306,Cockrell Hill Road,75154,32.5323475,-96.8889161
1930,Duncanville Road,75154,32.5474212,-96.9085339
107,Westlawn Drive,75154,32.5289971,-96.8915380
102,Holly Lane,75154,32.5365602,-96.8731327
600,Westmoreland Road,75154,32.5358479,-96.8734469
839,Johnson Lane,75154,32.5470204,-96.9172378
317,Fountain Creek Court,75154,32.5355275,-96.8678593
111,Holly Lane,75154,32.5366910,-96.8709277
107,Nob Hill Lane,75154,32.5389621,-96.8893574
111,Nob Hill Lane,75154,32.5389572,-96.8885592
503,Ashburne Glen Circle,75154,32.5346685,-96.8873564
506,Ashburne Glen Circle,75154,32.5344489,-96.8885046
117,Ashburne Glen Lane,75154,32.5355508,-96.8873734
103,Hummingbird Lane,75154,32.5369065,-96.8896621
504,Forest Edge Lane,75154,32.5349813,-96.8905074
517,Forest Edge Lane,75154,32.5329397,-96.8882590
518,Forest Edge Lane,75154,32.5328754,-96.8887056
507,Forest Edge Lane,75154,32.5344884,-96.8891376
606,Taylor Street,75154,32.5064218,-96.8897523
106,Cockrell Hill Road,75154,32.5290926,-96.8884043
3323,Fm 664,75154,32.5273971,-96.8853148
1406,Red Oak Creek Road,75154,32.5258014,-96.8843388
1942,Duncanville Road,75154,32.5465892,-96.9085222
3180,Ovilla Road,75154,32.5343378,-96.8716269
102,Meadow Glen Lane,75154,32.5415831,-96.8905255
717,Westmoreland Road,75154,32.5404936,-96.8755403
604,Georgetown Road,75154,32.5398949,-96.8775407
608,Cardinal Drive,75154,32.5263945,-96.8706613
118,Suburban Drive,75154,32.5397614,-96.8873302
317,Shadow Wood Trail,75154,32.5336919,-96.8959251
101,Slippery Rock Court,75154,32.5156873,-96.8843133
911,Red Oak Creek Drive,75154,32.5180482,-96.8698793
116,Meadow Wood Lane,75154,32.5423727,-96.8964832
411,Montpelier Lane,75154,32.5197216,-96.8976567
322,Covington Lane,75154,32.5194567,-96.8973841
326,Covington Lane,75154,32.5197138,-96.8965828
316,Covington Lane,75154,32.5192707,-96.8984603
313,Covington Lane,75154,32.5187511,-96.8990481
220,Williamsburg Lane,75154,32.5183986,-96.8975910
224,Williamsburg Lane,75154,32.5185570,-96.8969256
226,Williamsburg Lane,75154,32.5187727,-96.8965855
110,Greenwood Drive,75154,32.5334413,-96.8934112
307,Willow Creek Lane,75154,32.5352544,-96.9001796
320,Willow Creek Lane,75154,32.5331864,-96.8984464
318,Willow Creek Lane,75154,32.5335305,-96.8988343
712,Buckboard Street,75154,32.5452963,-96.8806908
618,Meadow Lark Drive,75154,32.5249739,-96.8724471
737,Westmoreland Road,75154,32.5435320,-96.8751964
100,Copperfield Court,75154,32.5450480,-96.8846860
135,Suburban Drive,75154,32.5408860,-96.8836885
137,Suburban Drive,75154,32.5408757,-96.8833062
905,Ovilla Oaks Drive,75154,32.5098462,-96.8834397
204,Winding Way Court,75154,32.5091743,-96.8863503
303,Ovilla Oaks Drive,75154,32.5200673,-96.8824589
327,Willow Creek Lane,75154,32.5328497,-96.8965865
607,Buckboard Street,75154,32.5402180,-96.8818576
615,Cardinal Drive,75154,32.5271802,-96.8717274
616,Cardinal Drive,75154,32.5263885,-96.8720890
601,Cardinal Drive,75154,32.5271882,-96.8692047
600,Cardinal Drive,75154,32.5263989,-96.8692139
116,Suburban Drive,75154,32.5397495,-96.8876885
408,Shadow Wood Trail,75154,32.5373064,-96.8951323
605,Oak Ridge Court,76065,32.5173075,-96.8850948
201,Brook Wood Court,75154,32.5413554,-96.8925864
619,Green Meadows Lane,75154,32.5405682,-96.9009619
213,Williamsburg Lane,75154,32.5177949,-96.8992987
6980,Cedar Court,75154,32.5185333,-96.9073606
7021,Cherry Court,75154,32.5200062,-96.9065739
430,Broadmoor Lane,75154,32.5293509,-96.8772650
7230,Judy Drive,75154,32.5199835,-96.9039139
3511,Maple Lane,75154,32.5188903,-96.9044318
3920,Maple Lane,75154,32.5216437,-96.9010465
7801,Bald Cypress Drive,75154,32.5244045,-96.8980954
3931,Monterrey Oak Way,75154,32.5234491,-96.9046103
3930,Cherry Laurel Lane,75154,32.5234351,-96.9052490
517,Savannah Drive,75154,32.5204937,-96.8991990
317,Covington Lane,75154,32.5187570,-96.8983214
118,Ovilla Creek Court,75154,32.5344571,-96.8698950
7030,Cherry Court,75154,32.5194768,-96.9062131
609,Westmoreland Road,75154,32.5360146,-96.8747681
3901,Cherry Laurel Lane,75154,32.5231506,-96.9063998
203,White Rock Court,75154,32.5331434,-96.8689512
207,White Rock Court,75154,32.5331416,-96.8682771
209,White Rock Court,75154,32.5331414,-96.8679537
621,Ariel Street,75154,32.5076521,-96.8869122
100,Bent Tree Lane,75154,32.5180035,-96.8922286
741,Westmoreland Road,75154,32.5449632,-96.8752520
609,Green Meadows Lane,75154,32.5425559,-96.9009623
114,Meadow Glen Lane,75154,32.5416378,-96.8885643
108,Nob Hill Lane,75154,32.5383641,-96.8886317
7220,Judy Drive,75154,32.5201890,-96.9042191
7230,Cherry Lane,75154,32.5191379,-96.9041552
3540,Bryson Manor Drive,75154,32.5191294,-96.9048508
3530,Bryson Manor Drive,75154,32.5187918,-96.9048437
7030,Judy Drive,75154,32.5203729,-96.9063338
119,Cumberland Drive,75154,32.5189040,-96.8857892
107,Meadow Glen Lane,75154,32.5421530,-96.8895567
105,Dusty Oak Trail,75154,32.5215557,-96.8840695
506,Edgewood Lane,75154,32.5343164,-96.8866055
1941,Duncanville Road,75154,32.5469757,-96.9074417
3151,Ovilla Road,75154,32.5312441,-96.8712585
303,East University Street,75154,32.5262005,-96.8830245
116,Ovilla Creek Court,75154,32.5341697,-96.8698923
745,Cockrell Hill Road,75154,32.5434914,-96.8919783
384,Johnson Lane,75154,32.5451889,-96.9011152
305,Willow Wood Lane,75154,32.5323162,-96.8942132
201,Lariat Trail,75154,32.5468123,-96.8826600
212,Willow Creek Lane,75154,32.5376920,-96.8995880
599,Georgetown Road,75154,32.5390133,-96.8787174
615,Georgetown Road,75154,32.5422703,-96.8791972
709,Georgetown Road,75154,32.5445159,-96.8787323
708,Buckboard Street,75154,32.5444753,-96.8806919
702,Buckboard Street,75154,32.5432631,-96.8806857
739,Westmoreland Road,75154,32.5441597,-96.8752021
743,Westmoreland Road,75154,32.5452224,-96.8745419
403,Thorntree Drive,75154,32.5451213,-96.8839204
133,Suburban Drive,75154,32.5408837,-96.8840765
129,Suburban Drive,75154,32.5409034,-96.8848363
419,Shadow Wood Trail,75154,32.5389533,-96.8958958
201,Winding Way Court,75154,32.5098759,-96.8853972
603,Ovilla Oaks Drive,75154,32.5149641,-96.8836220
101,Ovilla Oaks Drive,75154,32.5219536,-96.8870478
110,Holly Lane,75154,32.5361034,-96.8713005
516,Savannah Drive,75154,32.5210531,-96.8991832
217,Williamsburg Lane,75154,32.5178038,-96.8983232
105,Greenwood Drive,75154,32.5325056,-96.8915505
102,Greenwood Drive,75154,32.5334433,-96.8916000
205,Cockrell Hill Road,75154,32.5303365,-96.8894630
109,Silverwood Drive,75154,32.5307747,-96.8919612
308,Willow Creek Lane,75154,32.5351421,-96.9017360
718,Georgetown Road,75154,32.5458679,-96.8770201
128,Suburban Drive,75154,32.5397380,-96.8856020
138,Suburban Drive,75154,32.5396805,-96.8837530
750,Cockrell Hill Road,75154,32.5454421,-96.8903315
309,Shadow Wood Trail,75154,32.5324210,-96.8959173
200,Silverwood Drive,75154,32.5307913,-96.8952666
320,Shadow Wood Trail,75154,32.5337493,-96.8950597
328,Shadow Wood Trail,75154,32.5349638,-96.8951178
610,William Drive,75154,32.5218621,-96.8702226
201,Oak Wood Lane,75154,32.5395766,-96.8957661
606,Green Meadows Lane,75154,32.5443597,-96.8999289
421,Penrose Drive,75154,32.5290188,-96.8751931
410,Cheyenne Mountain Drive,75154,32.5286808,-96.8758183
7440,Desert Willow Lane,75154,32.5221489,-96.9017870
3910,Maple Lane,75154,32.5214076,-96.9012683
7441,Desert Willow Lane,75154,32.5225872,-96.9013083
3920,Monterrey Oak Way,75154,32.5226908,-96.9046066
1940,Duncanville Road,75154,32.5470336,-96.9085282
111,Claremont Drive,75154,32.5192339,-96.9011418
129,Claremont Drive,75154,32.5213820,-96.8996416
105,Woodlands Court,75154,32.5187388,-96.8906122
131,Meadow Glen Lane,75154,32.5423753,-96.8856819
7040,Orange Court,75154,32.5214043,-96.9039553
7240,Judy Drive,75154,32.5197706,-96.9035881
731,Emerald Valley Drive,75154,32.5299088,-96.8755028
300,Cheyenne Mountain Drive,75154,32.5257032,-96.8758830
118,Nob Hill Lane,75154,32.5380374,-96.8870635
742,Cockrell Hill Road,75154,32.5429972,-96.8893500
204,White Rock Court,75154,32.5336701,-96.8686929
206,White Rock Court,75154,32.5336684,-96.8683682
304,Fountain Creek Court,75154,32.5341673,-96.8679494
213,White Rock Court,75154,32.5331412,-96.8673208
3401,Ovilla Road,76065,32.5247576,-96.8851152
709,Buckboard Street,75154,32.5443508,-96.8818995
2887,Ovilla Road,75154,32.5314268,-96.8601622
614,Taylor Street,75154,32.5064342,-96.8878926
100,Dusty Oak Trail,75154,32.5223276,-96.8864312
105,Meadow Glen Lane,75154,32.5421628,-96.8898700
104,Robin Glen Lane,75154,32.5373817,-96.8893223
119,Robin Glen Lane,75154,32.5375734,-96.8870125
111,Oak Creek Lane,75154,32.5290601,-96.8647130
601,Christa Street,75154,32.5073351,-96.8905722
105,Bent Tree Lane,75154,32.5187344,-96.8924967
108,Hummingbird Lane,75154,32.5363654,-96.8886199
108,Ashburne Glen Lane,75154,32.5351670,-96.8884578
103,Ashburne Glen Lane,75154,32.5359135,-96.8895961
106,Ashburne Glen Lane,75154,32.5353011,-96.8889701
264,Johnson Lane,75154,32.5437014,-96.8969547
3319,Fm 664,76065,32.5284693,-96.8853039
704,West Main Street,75154,32.5276932,-96.8870373
702,West Main Street,75154,32.5271813,-96.8872294
835,East Main Street,75154,32.5307201,-96.8844957
751,Cockrell Hill Road,75154,32.5453661,-96.8918422
612,East Highland Road,75154,32.5084949,-96.8883953
806,Johnson Lane,75154,32.5454497,-96.9162481
319,Willow Creek Lane,75154,32.5344326,-96.8973595
313,Willow Creek Lane,75154,32.5348473,-96.8988005
110,Elmwood Drive,75154,32.5352523,-96.8969616
300,Willow Wood Lane,75154,32.5324879,-96.8933900
310,Willow Creek Lane,75154,32.5345139,-96.9012819
314,Willow Creek Lane,75154,32.5338424,-96.8996941
706,Buckboard Street,75154,32.5440647,-96.8806854
127,Suburban Drive,75154,32.5409283,-96.8852250
411,Shadow Wood Trail,75154,32.5376753,-96.8959144
415,Shadow Wood Trail,75154,32.5383134,-96.8959107
105,Slippery Rock Court,75154,32.5155856,-96.8856370
905,Slippery Elm Drive,75154,32.5105970,-96.8827833
913,Slippery Elm Drive,75154,32.5127119,-96.8828134
202,Winding Way Court,75154,32.5097345,-96.8863338
802,Ovilla Oaks Drive,75154,32.5122887,-96.8842716
909,Slippery Elm Drive,75154,32.5116400,-96.8827616
105,Woodridge Court,75154,32.5119565,-96.8854273
801,Hosford Road,75154,32.5390209,-96.8755515
100,Elmwood Drive,75154,32.5358391,-96.8992970
607,Georgetown Road,75154,32.5408781,-96.8791883
620,Cardinal Drive,75154,32.5263847,-96.8728177
130,Suburban Drive,75154,32.5397347,-96.8852511
140,Suburban Drive,75154,32.5396780,-96.8833444
400,Thorntree Drive,75154,32.5443598,-96.8845826
606,Valley View Court,75154,32.5193840,-96.8865463
603,Valley View Court,75154,32.5196140,-96.8852823
302,Ovilla Oaks Drive,75154,32.5193135,-96.8830304
404,Bill Court,75154,32.5197497,-96.8712847
612,William Drive,75154,32.5217776,-96.8693910
205,Oak Wood Lane,75154,32.5397725,-96.8965668
203,Willow Creek Lane,75154,32.5396110,-96.8976839
207,Oak Wood Lane,75154,32.5396070,-96.8969699
608,Green Meadows Lane,75154,32.5435778,-96.8996254
623,Green Meadows Lane,75154,32.5397100,-96.9010761
200,Thorntree Drive,75154,32.5443600,-96.8884941
612,Cardinal Drive,75154,32.5263921,-96.8713752
605,Meadow Lark Drive,75154,32.5257747,-96.8699473
416,Shadow Wood Trail,75154,32.5382909,-96.8951312
109,Suburban Drive,75154,32.5408937,-96.8889856
105,Suburban Drive,75154,32.5408631,-96.8897311
608,Oak Ridge Court,76065,32.5180017,-96.8850843
921,Red Oak Creek Drive,75154,32.5189778,-96.8715767
206,Brook Wood Court,75154,32.5425035,-96.8915830
502,Savannah Drive,75154,32.5195237,-96.9005743
120,Claremont Drive,75154,32.5204778,-96.9015073
121,Claremont Drive,75154,32.5205131,-96.9006147
521,Savannah Drive,75154,32.5205457,-96.8983928
525,Savannah Drive,75154,32.5207099,-96.8977663
412,Montpelier Lane,75154,32.5204341,-96.8973321
310,Covington Lane,75154,32.5192847,-96.8995198
318,Covington Lane,75154,32.5192687,-96.8980915
323,Covington Lane,75154,32.5188999,-96.8972761
321,Covington Lane,75154,32.5187972,-96.8975961
221,Williamsburg Lane,75154,32.5178087,-96.8975324
243,Williamsburg Lane,75154,32.5202045,-96.8958058
704,West Main Street,75154,32.5278025,-96.8873025
