House number,Street name,Postal code,Latitude,Longitude
2225,Perryton Parkway,79065,35.5619613,-100.9716803
211,West 30th Avenue,79065,35.5712895,-100.9672804
211,West 30th Avenue,79065,35.5712976,-100.9668745
301,West 30th Avenue,79065,35.5712258,-100.9687149
305,West 30th Avenue,79065,35.5712468,-100.9680717
311,West 30th Avenue,79065,35.5712404,-100.9684350
2225,Perryton Parkway,79065,35.5619866,-100.9713480
1504,North Hobart Street,79065,35.5518538,-100.9713239
1508,North Hobart Street,79065,35.5521585,-100.9714095
1534,North Hobart Street,79065,35.5529515,-100.9715740
1540,North Hobart Street,79065,35.5532194,-100.9715679
1538,North Hobart Street,79065,35.5530932,-100.9715817
1600,North Hobart Street,79065,35.5534416,-100.9716274
1600,North Hobart Street,79065,35.5535354,-100.9716096
1203,North Hobart Street,79065,35.5468057,-100.9744505
1327,North Hobart Street,79065,35.5489168,-100.9723039
1329,North Hobart Street,79065,35.5490342,-100.9723600
115,West Foster Avenue,79065,35.5353274,-100.9620459
103,West Foster Avenue,79065,35.5355112,-100.9616306
2133,North Hobart Street,79065,35.5599305,-100.9723930
2145,North Hobart Street,79065,35.5603267,-100.9724024
2141,North Hobart Street,79065,35.5601616,-100.9723989
2135,North Hobart Street,79065,35.5600178,-100.9723970
2137,North Hobart Street,79065,35.5600821,-100.9724018
2109,North Hobart Street,79065,35.5591136,-100.9722432
2111,North Hobart Street,79065,35.5592159,-100.9722506
2115,North Hobart Street,79065,35.5593512,-100.9722462
2121,North Hobart Street,79065,35.5594828,-100.9722462
1201,North Hobart Street,79065,35.5466113,-100.9740919
101,South Naida Street,79065,35.5296535,-100.9823340
1500,North Duncan Street,79065,35.5517436,-100.9613729
1233,North Hobart Street,79065,35.5473257,-100.9725883
1900,North Duncan Street,79065,35.5577147,-100.9619936
907,North Frost Street,79065,35.5430173,-100.9688819
1011,North Frost Street,79065,35.5434979,-100.9692040
801,East Browning Avenue,79065,35.5434139,-100.9551714
1234,South Nelson Street,79065,35.5195127,-100.9774811
704,North Sloan Street,79065,35.5466897,-100.9563500
700,North Sloan Street,79065,35.5465767,-100.9562559
708,North Sloan Street,79065,35.5468112,-100.9563960
712,North Sloan Street,79065,35.5469405,-100.9565096
716,North Sloan Street,79065,35.5470481,-100.9566028
701,North Deane Drive,79065,35.5468246,-100.9557210
705,North Deane Drive,79065,35.5469355,-100.9558131
709,North Deane Drive,79065,35.5470554,-100.9559137
713,North Deane Drive,79065,35.5471881,-100.9559681
721,North Deane Drive,79065,35.5474267,-100.9561668
717,North Deane Drive,79065,35.5472940,-100.9560417
725,North Deane Drive,79065,35.5475266,-100.9562100
729,North Deane Drive,79065,35.5476598,-100.9563156
733,North Deane Drive,79065,35.5477798,-100.9564079
737,North Deane Drive,79065,35.5479127,-100.9564831
736,North Sloan Street,79065,35.5476647,-100.9570159
732,North Sloan Street,79065,35.5475185,-100.9569259
728,North Sloan Street,79065,35.5473986,-100.9568464
720,North Sloan Street,79065,35.5471686,-100.9566866
811,South Hobart Street,79065,35.5285293,-100.9700829
100,RV Drive,79065,35.5373530,-100.9324913
100,RV Drive,79065,35.5373842,-100.9329215
1513,East Craven Avenue,79065,35.5364860,-100.9526190
2215,North Price Road,79065,35.5607072,-100.9915515
301,North Ballard Street,79065,35.5384428,-100.9621804
314,North Cuyler Street,79065,35.5380914,-100.9625751
317,North Ballard Street,79065,35.5386686,-100.9622699
319,North Ballard Street,79065,35.5387871,-100.9623489
321,North Ballard Street,79065,35.5388734,-100.9624094
120,East Browning Avenue,79065,35.5389047,-100.9625092
200,North Ballard Street,79065,35.5376697,-100.9607273
2801,North Charles Street,79065,35.5699970,-100.9698008
1,Medical Plaza,79065,35.5728282,-100.9648758
600,North Hobart Street,79065,35.5378239,-100.9715157
309,North Hobart Street,79065,35.5335475,-100.9723163
1600,West Kentucky Avenue,79065,35.5462181,-100.9808038
1400,North Sumner Street,79065,35.5504112,-100.9743053
1633,North Nelson Street,79065,35.5544468,-100.9768916
1201,North Hobart Street,79065,35.5462615,-100.9746737
1201,North Hobart Street,79065,35.5459961,-100.9734563
854,South Hobart Street,79065,35.5264651,-100.9722986
811,South Hobart Street,79065,35.5280433,-100.9708963
2545,Perryton Parkway,79065,35.5681391,-100.9683465
201,West 28th Avenue,79065,35.5688130,-100.9670345
2733,Perryton Parkway,79065,35.5685073,-100.9667620
2537,Perryton Parkway,79065,35.5665241,-100.9679148
2505,Perryton Parkway,79065,35.5654764,-100.9685196
2545,Perryton Parkway,79065,35.5658689,-100.9698843
2545,Perryton Parkway,79065,35.5677479,-100.9686320
2909,Perryton Parkway,79065,35.5706119,-100.9649989
2841,Perryton Parkway,79065,35.5700873,-100.9654320
2831,Perryton Parkway,79065,35.5701168,-100.9658958
2820,Perryton Parkway,79065,35.5699424,-100.9641290
2801,Perryton Parkway,79065,35.5691272,-100.9661262
2500,Perryton Parkway,79065,35.5655068,-100.9673491
3119,Perryton Parkway,79065,35.5745656,-100.9626640
2300,Primrose Lane,79065,35.5630768,-100.9764048
2333,North Hobart Street,79065,35.5634762,-100.9725036
2300,Crescent Drive,79065,35.5626811,-100.9730900
2201,North Hobart Street,79065,35.5608164,-100.9724171
2225,North Hobart Street,79065,35.5615293,-100.9736991
2131,Perryton Parkway,79065,35.5603483,-100.9716677
901,North Hobart Street,79065,35.5421527,-100.9724597
1002,North Hobart Street,79065,35.5426893,-100.9715179
1201,North Hobart Street,79065,35.5450997,-100.9724304
1420,North Hobart Street,79065,35.5508461,-100.9704498
500,West Harvester Avenue,79065,35.5499983,-100.9703742
1404,North Hobart Street,79065,35.5498807,-100.9713420
1415,North Hobart Street,79065,35.5503245,-100.9723602
1401,North Hobart Street,79065,35.5498955,-100.9724890
1543,North Hobart Street,79065,35.5533103,-100.9723510
1541,North Hobart Street,79065,35.5531626,-100.9723441
1533,North Hobart Street,79065,35.5528292,-100.9724508
1515,North Hobart Street,79065,35.5522509,-100.9727075
1500,North Banks Street,79065,35.5516264,-100.9727810
1615,North Hobart Street,79065,35.5536476,-100.9723561
1623,North Hobart Street,79065,35.5540218,-100.9723140
1619,North Hobart Street,79065,35.5538017,-100.9722318
1701,North Hobart Street,79065,35.5547029,-100.9727549
1700,North Hobart Street,79065,35.5545372,-100.9715460
1900,North Hobart Street,79065,35.5569543,-100.9714933
2014,North Hobart Street,79065,35.5583127,-100.9714939
2600,North Hobart Street,79065,35.5679613,-100.9703441
200,West 28th Avenue,79065,35.5692740,-100.9665841
411,East 29th Avenue,79065,35.5706057,-100.9609095
810,West 23rd Avenue,79065,35.5631474,-100.9704737
1300,North Hobart Street,79065,35.5482355,-100.9711362
1301,North Hobart Street,79065,35.5479721,-100.9722453
1301,North Banks Street,79065,35.5481359,-100.9736621
805,North Hobart Street,79065,35.5413525,-100.9730411
1517,Alcock Street,79065,35.5317139,-100.9802532
1100,West Crawford Street,79065,35.5219811,-100.9734732
1025,West Wilks Street,79065,35.5256171,-100.9737428
821,West Wilks Street,79065,35.5254469,-100.9711342
820,West Wilks Street,79065,35.5263074,-100.9712593
500,West Brown Street,79065,35.5295219,-100.9653573
123,North Hobart Street,79065,35.5312997,-100.9730422
205,North Russell Street,79065,35.5366081,-100.9638157
120,East Foster Avenue,79065,35.5358917,-100.9604653
218,North Russell Street,79065,35.5370862,-100.9634310
900,East 23rd Avenue,79065,35.5618190,-100.9556766
1400,West Somerville Street,79065,35.5454358,-100.9782904
1601,West Somerville Street,79065,35.5436021,-100.9800657
1200,North Wells Street,79065,35.5457637,-100.9770507
1321,West Kentucky Avenue,79065,35.5471902,-100.9774220
1100,West Coronado Drive,79065,35.5430303,-100.9745000
1101,North Hobart Street,79065,35.5434142,-100.9730603
1125,North Hobart Street,79065,35.5444215,-100.9730590
1063,North Sumner Street,79065,35.5444009,-100.9756279
140,South Starkweather Street,79065,35.5374737,-100.9567522
500,East Kingsmill Avenue,79065,35.5388505,-100.9568838
622,East Francis Avenue,79065,35.5405200,-100.9558876
513,East Francis Avenue,79065,35.5405144,-100.9580520
731,North Sloan Street,79065,35.5472469,-100.9573808
724,North Sloan Street,79065,35.5472885,-100.9567307
827,North Deane Drive,79065,35.5492607,-100.9574045
823,North Deane Drive,79065,35.5490761,-100.9572188
819,North Deane Drive,79065,35.5489530,-100.9571064
1101,East Harvester Avenue,79065,35.5508586,-100.9539622
1776,East Harvester Avenue,79065,35.5496317,-100.9417206
1812,East Harvester Avenue,79065,35.5496447,-100.9436554
1726,East Harvester Avenue,79065,35.5498477,-100.9445770
1700,East Harvester Avenue,79065,35.5495989,-100.9421709
1610,East Harvester Avenue,79065,35.5498632,-100.9466531
1618,East Harvester Avenue,79065,35.5498562,-100.9463928
1626,East Harvester Avenue,79065,35.5498237,-100.9461331
1632,East Harvester Avenue,79065,35.5498524,-100.9459118
2700,Chaumont Drive,79065,35.5634061,-100.9372977
2500,Chaumont Terrace,79065,35.5628200,-100.9402832
2301,Chateau-Rue Drive,79065,35.5633164,-100.9400111
2353,Chateau-Rue Drive,79065,35.5646575,-100.9389373
2608,Chaumont Terrace,79065,35.5628726,-100.9390991
2610,Chaumont Terrace,79065,35.5628792,-100.9387789
2612,Chaumont Terrace,79065,35.5628794,-100.9384471
500,West Francis Avenue,79065,35.5361923,-100.9673476
201,West Kingsmill Avenue,79065,35.5356492,-100.9631399
300,West Kingsmill Avenue,79065,35.5361642,-100.9640888
500,West Kingsmill Avenue,79065,35.5350869,-100.9663186
203,North West Street,79065,35.5347416,-100.9678527
203,West Foster Avenue,79065,35.5349468,-100.9626238
300,North Ballard Street,79065,35.5385069,-100.9614758
318,North Cuyler Street,79065,35.5384836,-100.9629370
500,South Cuyler Street,79065,35.5316547,-100.9591167
300,East Brown Street,79065,35.5326367,-100.9557007
821,East Frederick Street,79065,35.5337498,-100.9503324
801,South Finley Street,79065,35.5337674,-100.9508087
1020,East Frederick Avenue,79065,35.5331064,-100.9458072
101,South Marie Street,79065,35.5392933,-100.9529616
2801,North Duncan Street,79065,35.5694051,-100.9634463
111,East 28th Avenue,79065,35.5694101,-100.9646247
125,East 28th Avenue,79065,35.5693854,-100.9638509
908,North Crest Road,79065,35.5643010,-100.9724834
2427,North Hobart Street,79065,35.5649146,-100.9723485
938,West Crane Road,79065,35.5654289,-100.9744324
950,West Crane Road,79065,35.5651776,-100.9749579
944,West Crane Road,79065,35.5653283,-100.9746818
900,West Crane Road,79065,35.5654432,-100.9722175
920,West Crane Road,79065,35.5654132,-100.9733140
932,West Crane Road,79065,35.5654222,-100.9739938
928,West Crane Road,79065,35.5654079,-100.9737624
904,West Crane Road,79065,35.5654275,-100.9724419
908,West Crane Road,79065,35.5654175,-100.9726440
916,West Crane Road,79065,35.5654209,-100.9731151
912,West Crane Road,79065,35.5654209,-100.9728694
924,West Crane Road,79065,35.5654134,-100.9735216
2520,North Hobart Street,79065,35.5666289,-100.9710338
2526,Perryton Parkway,79065,35.5660079,-100.9671700
2812,North Charles Street,79065,35.5699764,-100.9669882
208,West 28th Avenue,79065,35.5694490,-100.9670528
112,West 26th Avenue,79065,35.5675859,-100.9660558
106,West 26th Avenue,79065,35.5676016,-100.9657978
100,West 26th Avenue,79065,35.5675793,-100.9655387
101,West 27th Avenue,79065,35.5680549,-100.9655332
130,East 28th Avenue,79065,35.5689645,-100.9638643
116,East 28th Avenue,79065,35.5689414,-100.9644857
110,East 28th Avenue,79065,35.5689303,-100.9647866
120,East 28th Avenue,79065,35.5689355,-100.9641896
2717,North Duncan Street,79065,35.5689303,-100.9634953
2701,North Duncan Street,79065,35.5685455,-100.9634502
103,East 27th Avenue,79065,35.5684930,-100.9653301
135,East 27th Avenue,79065,35.5685022,-100.9638497
129,East 27th Avenue,79065,35.5685183,-100.9641156
109,East 27th Avenue,79065,35.5684943,-100.9650679
113,East 27th Avenue,79065,35.5684785,-100.9648275
115,East 27th Avenue,79065,35.5684988,-100.9645828
121,East 27th Avenue,79065,35.5685217,-100.9643557
2615,North Duncan Street,79065,35.5679858,-100.9634204
2601,North Duncan Street,79065,35.5676580,-100.9634373
127,East 26th Avenue,79065,35.5675807,-100.9638620
115,East 26th Avenue,79065,35.5675986,-100.9644797
121,East 26th Avenue,79065,35.5675651,-100.9641792
107,East 26th Avenue,79065,35.5675862,-100.9647561
101,East 26th Avenue,79065,35.5676069,-100.9650424
102,East 27th Avenue,79065,35.5680585,-100.9650462
106,East 27th Avenue,79065,35.5680659,-100.9648000
110,East 27th Avenue,79065,35.5680547,-100.9645627
114,East 27th Avenue,79065,35.5680509,-100.9643259
120,East 27th Avenue,79065,35.5680505,-100.9640970
124,East 27th Avenue,79065,35.5680606,-100.9638313
201,East Foster Avenue,79065,35.5368056,-100.9601490
111,North Houston Street,79065,35.5376890,-100.9585795
106,North Cuyler Street,79065,35.5361653,-100.9612451
120,North Cuyler Street,79065,35.5367294,-100.9616363
118,North Cuyler Street,79065,35.5366138,-100.9615458
114,North Cuyler Street,79065,35.5364941,-100.9614638
205,North Cuyler Street,79065,35.5367927,-100.9625944
225,North Cuyler Street,79065,35.5373671,-100.9629956
508,North Hobart Street,79065,35.5365206,-100.9714288
500,North West Street,79065,35.5376720,-100.9689222
1801,North Hobart Street,79065,35.5552432,-100.9722833
1014,Deer Place,79065,35.5614450,-100.9544056
1014,Quail Place,79065,35.5607488,-100.9543623
1015,Deer Place,79065,35.5618562,-100.9544132
1001,Deer Place,79065,35.5619072,-100.9549752
1001,Quail Place,79065,35.5611314,-100.9549868
1000,Quail Place,79065,35.5606944,-100.9550274
1000,Deer Place,79065,35.5614222,-100.9549781
2244,North Evergreen Street,79065,35.5622854,-100.9572126
2238,North Evergreen Street,79065,35.5620934,-100.9571932
2228,North Evergreen Street,79065,35.5619031,-100.9572199
2200,North Evergreen Street,79065,35.5606406,-100.9572173
2208,North Evergreen Street,79065,35.5608327,-100.9571936
2220,North Evergreen Street,79065,35.5615352,-100.9572145
2216,North Evergreen Street,79065,35.5613023,-100.9572327
2212,North Evergreen Street,79065,35.5610506,-100.9572004
2224,North Evergreen Street,79065,35.5617237,-100.9572037
1307,North Hobart Street,79065,35.5482017,-100.9722202
1608,North Hobart Street,79065,35.5538060,-100.9716136
1824,North Hobart Street,79065,35.5564518,-100.9716449
1801,North Beech Lane,79065,35.5555764,-100.9610543
1805,North Beech Lane,79065,35.5557312,-100.9611142
1809,North Beech Lane,79065,35.5559195,-100.9610379
1815,North Beech Lane,79065,35.5561133,-100.9610574
1819,North Beech Lane,79065,35.5563268,-100.9610562
1825,North Beech Lane,79065,35.5565330,-100.9610505
501,East 19th Avenue,79065,35.5568870,-100.9604663
1908,North Beech Lane,79065,35.5571091,-100.9605499
1912,North Beech Lane,79065,35.5572777,-100.9605480
1916,North Beech Lane,79065,35.5574637,-100.9605435
1601,North Duncan Street,79065,35.5535790,-100.9633108
1605,North Duncan Street,79065,35.5537981,-100.9633365
1609,North Duncan Street,79065,35.5539997,-100.9633088
1613,North Duncan Street,79065,35.5541829,-100.9633690
1722,North Duncan Street,79065,35.5552012,-100.9627562
1718,North Duncan Street,79065,35.5550386,-100.9627680
1714,North Duncan Street,79065,35.5548775,-100.9627551
1710,North Duncan Street,79065,35.5547140,-100.9627780
1706,North Duncan Street,79065,35.5545472,-100.9627188
1702,North Duncan Street,79065,35.5543588,-100.9626638
1717,North Duncan Street,79065,35.5552091,-100.9633623
1713,North Duncan Street,79065,35.5550395,-100.9633455
1709,North Duncan Street,79065,35.5548818,-100.9633165
1705,North Duncan Street,79065,35.5547193,-100.9633242
1701,North Duncan Street,79065,35.5545489,-100.9634183
1541,North Hamilton Street,79065,35.5530390,-100.9700534
1524,North Hobart Street,79065,35.5525793,-100.9716136
1031,North Sumner Street,79065,35.5435264,-100.9756273
1020,North Russell Street,79065,35.5443461,-100.9671023
1032,North Russell Street,79065,35.5447005,-100.9671655
130,West Georgia Avenue,79065,35.5432785,-100.9659561
931,North Mary-Ellen Street,79065,35.5433077,-100.9654735
929,North Mary-Ellen Street,79065,35.5431682,-100.9654765
923,North Mary-Ellen Street,79065,35.5430394,-100.9654939
1130,North Williston Street,79065,35.5460888,-100.9682068
1120,North Williston Street,79065,35.5457910,-100.9681757
516,West Kentucky Avenue,79065,35.5479593,-100.9705029
1325,North Coffee Street,79065,35.5490798,-100.9710425
1323,North Coffee Street,79065,35.5490057,-100.9710412
1321,North Coffee Street,79065,35.5488809,-100.9710516
1319,North Coffee Street,79065,35.5488044,-100.9710521
1329,North Coffee Street,79065,35.5492859,-100.9710492
1327,North Coffee Street,79065,35.5492113,-100.9710483
1336,North Coffee Street,79065,35.5490209,-100.9705566
1334,North Coffee Street,79065,35.5489156,-100.9705556
1328,North Coffee Street,79065,35.5486552,-100.9705510
1326,North Coffee Street,79065,35.5485505,-100.9705557
1344,North Coffee Street,79065,35.5493891,-100.9705628
1342,North Coffee Street,79065,35.5492825,-100.9705583
1328,North Hobart Street,79065,35.5488756,-100.9714967
1332,North Hobart Street,79065,35.5490499,-100.9714993
1620,North Banks Street,79065,35.5540513,-100.9728633
1517,North Banks Street,79065,35.5521905,-100.9734386
1701,North Banks Street,79065,35.5543876,-100.9734148
1733,North Banks Street,79065,35.5547399,-100.9734916
1615,North Banks Street,79065,35.5538582,-100.9734843
1716,North Hobart Street,79065,35.5551235,-100.9716081
1820,North Hobart Street,79065,35.5561054,-100.9715909
1800,North Hobart Street,79065,35.5557219,-100.9715896
1916,North Hobart Street,79065,35.5572952,-100.9714924
1901,North Hobart Street,79065,35.5570197,-100.9722699
1435,North Sumner Street,79065,35.5510081,-100.9757782
1300,West Kentucky Avenue,79065,35.5486278,-100.9767797
1223,West Kentucky Avenue,79065,35.5472126,-100.9892487
1612,West Kentucky Avenue,79065,35.5482967,-100.9803333
1504,West Kentucky Avenue,79065,35.5482714,-100.9786596
1507,West Kentucky Avenue,79065,35.5473812,-100.9788035
1304,North Banks Street,79065,35.5485262,-100.9728442
1320,North Banks Street,79065,35.5486999,-100.9729119
1313,North Hobart Street,79065,35.5483260,-100.9723279
1421,North Hobart Street,79065,35.5505874,-100.9724348
601,East Frederick Street,79065,35.5339099,-100.9536757
321,East Brown Street,79065,35.5338647,-100.9558757
411,South Cuyler Street,79065,35.5327324,-100.9588849
201,East Brown Street,79065,35.5331099,-100.9576722
216,East Brown Street,79065,35.5327488,-100.9566520
301,South Cuyler Street,79065,35.5340074,-100.9596788
214,East Tyng Avenue,79065,35.5344519,-100.9578333
120,South Russell Street,79065,35.5345426,-100.9623371
315,West Foster Avenue,79065,35.5345208,-100.9635145
125,North Somerville Street,79065,35.5350348,-100.9648993
1064,North Hobart Street,79065,35.5443549,-100.9715341
1200,North Hobart Street,79065,35.5452413,-100.9714534
1200,South Sumner Street,79065,35.5200058,-100.9755706
1112,South Hobart Street,79065,35.5216655,-100.9722101
1030,South Love Street,79065,35.5227354,-100.9701312
720,West Brown Street,79065,35.5274584,-100.9692829
740,West Brown Street,79065,35.5271296,-100.9699987
824,South Barnes Street,79065,35.5275447,-100.9544734
701,South Cuyler Street,79065,35.5291351,-100.9563886
735,South Cuyler Street,79065,35.5284963,-100.9556341
736,South Cuyler Street,79065,35.5277124,-100.9563346
516,South Russell Street,79065,35.5309018,-100.9592516
403,West Atchison Avenue,79065,35.5338147,-100.9636948
414,West Foster Avenue,79065,35.5346114,-100.9647694
320,North Hobart Street,79065,35.5346327,-100.9714015
613,North Hobart Street,79065,35.5377015,-100.9722751
928,North Hobart Street,79065,35.5419315,-100.9716395
900,North Hobart Street,79065,35.5414771,-100.9715059
1013,North Sumner Street,79065,35.5428705,-100.9756236
642,West Brown Street,79065,35.5281658,-100.9679541
725,West Brown Street,79065,35.5269578,-100.9688858
120,South Hobart Street,79065,35.5295886,-100.9722788
1106,North Duncan Street,79065,35.5452467,-100.9626016
1106,North Duncan Street,79065,35.5453239,-100.9627608
1128,North Duncan Street,79065,35.5461564,-100.9627404
1124,North Duncan Street,79065,35.5459920,-100.9627715
1120,North Duncan Street,79065,35.5458356,-100.9627332
1116,North Duncan Street,79065,35.5456694,-100.9627222
1112,North Duncan Street,79065,35.5455197,-100.9626942
1025,North Yeager Street,79065,35.5443021,-100.9622908
1101,North Duncan Street,79065,35.5450350,-100.9633331
1105,North Duncan Street,79065,35.5451938,-100.9633212
1109,North Duncan Street,79065,35.5453606,-100.9633741
1115,North Duncan Street,79065,35.5455179,-100.9633217
1121,North Duncan Street,79065,35.5456865,-100.9633524
1125,North Duncan Street,79065,35.5458316,-100.9633500
1129,North Duncan Street,79065,35.5460203,-100.9633026
1133,North Duncan Street,79065,35.5461607,-100.9633470
400,North Ballard Street,79065,35.5396645,-100.9620015
938,North Duncan Street,79065,35.5433136,-100.9627345
922,North Duncan Street,79065,35.5431934,-100.9627564
209,East Sunset Drive,79065,35.5410483,-100.9625749
101,South Hobart Street,79065,35.5309275,-100.9713086
1224,North Hobart Street,79065,35.5470975,-100.9715662
1120,North Somerville Street,79065,35.5447220,-100.9707316
1114,North Somerville Street,79065,35.5445189,-100.9706581
1110,North Somerville Street,79065,35.5443971,-100.9704919
1104,North Somerville Street,79065,35.5442120,-100.9704505
1100,North Somerville Street,79065,35.5441201,-100.9703258
1121,North Frost Street,79065,35.5449430,-100.9701969
1101,North Frost Street,79065,35.5443733,-100.9697865
1105,North Frost Street,79065,35.5444769,-100.9698783
1115,North Frost Street,79065,35.5447214,-100.9700019
1109,North Frost Street,79065,35.5445801,-100.9699286
1021,North Somerville Street,79065,35.5435584,-100.9707293
1017,North Somerville Street,79065,35.5434481,-100.9706375
1011,North Somerville Street,79065,35.5432714,-100.9704805
1005,North Somerville Street,79065,35.5430995,-100.9703587
1001,North Somerville Street,79065,35.5429877,-100.9703073
1019,North Frost Street,79065,35.5439850,-100.9694663
1021,North Frost Street,79065,35.5441170,-100.9695830
1301,West Somerville Street,79065,35.5444584,-100.9763713
105,South Cuyler Street,79065,35.5356457,-100.9608943
108,South Cuyler Street,79065,35.5352666,-100.9614682
111,West Kingsmill Avenue,79065,35.5362454,-100.9624383
123,North Cuyler Street,79065,35.5364452,-100.9622762
107,North Cuyler Street,79065,35.5359859,-100.9620251
808,West Francis Avenue,79065,35.5342214,-100.9711098
300,North Hobart Street,79065,35.5339820,-100.9715286
424,North Hobart Street,79065,35.5354892,-100.9715198
727,West Browning Avenue,79065,35.5354675,-100.9698020
727,West Browning Avenue,79065,35.5351455,-100.9703037
600,North Ward Street,79065,35.5384951,-100.9710196
729,North Hobart Street,79065,35.5400588,-100.9722977
719,North Hobart Street,79065,35.5399020,-100.9723381
715,North Hobart Street,79065,35.5394023,-100.9723478
707,North Hobart Street,79065,35.5392342,-100.9722025
701,North Hobart Street,79065,35.5391154,-100.9722553
1800,West Harvester Avenue,79065,35.5505145,-100.9822353
1428,Lynn Street,79065,35.5511340,-100.9810882
1406,Lynn Street,79065,35.5501744,-100.9811006
1418,Lynn Street,79065,35.5507479,-100.9811038
1145,West Seneca Lane,79065,35.5625611,-100.9801056
1141,West Seneca Lane,79065,35.5625797,-100.9798787
1101,West Seneca Lane,79065,35.5625700,-100.9775992
1105,West Seneca Lane,79065,35.5625850,-100.9778292
1109,West Seneca Lane,79065,35.5625872,-100.9780603
1129,West Seneca Lane,79065,35.5625723,-100.9791970
1125,West Seneca Lane,79065,35.5625603,-100.9789638
1117,West Seneca Lane,79065,35.5625804,-100.9785169
1133,West Seneca Lane,79065,35.5625820,-100.9794270
1137,West Seneca Lane,79065,35.5625488,-100.9796601
1113,West Seneca Lane,79065,35.5625729,-100.9782801
1121,West Seneca Lane,79065,35.5625553,-100.9787405
2316,Rosewood Lane,79065,35.5631664,-100.9800654
2320,Rosewood Lane,79065,35.5633665,-100.9800518
2312,Rosewood Lane,79065,35.5629385,-100.9800393
2321,Rosewood Lane,79065,35.5633866,-100.9805883
2317,Rosewood Lane,79065,35.5632071,-100.9805457
2313,Rosewood Lane,79065,35.5630248,-100.9805655
2309,Rosewood Lane,79065,35.5628495,-100.9805887
2305,Rosewood Lane,79065,35.5626424,-100.9805671
2301,Rosewood Lane,79065,35.5624550,-100.9805648
1136,West Seneca Lane,79065,35.5629703,-100.9797181
1132,West Seneca Lane,79065,35.5629583,-100.9794900
1128,West Seneca Lane,79065,35.5629923,-100.9792429
1124,West Seneca Lane,79065,35.5629763,-100.9790227
1120,West Seneca Lane,79065,35.5629519,-100.9787898
1116,West Seneca Lane,79065,35.5629669,-100.9785384
1112,West Seneca Lane,79065,35.5629793,-100.9783088
1108,West Seneca Lane,79065,35.5629846,-100.9780751
1104,West Seneca Lane,79065,35.5630065,-100.9778250
1100,West Seneca Lane,79065,35.5629864,-100.9775983
1137,West Crane Road,79065,35.5633617,-100.9796794
1133,West Crane Road,79065,35.5633374,-100.9794594
1129,West Crane Road,79065,35.5633320,-100.9792168
1125,West Crane Road,79065,35.5633295,-100.9789849
1121,West Crane Road,79065,35.5633484,-100.9787874
1117,West Crane Road,79065,35.5633618,-100.9785183
1113,West Crane Road,79065,35.5633256,-100.9782769
1109,West Crane Road,79065,35.5633770,-100.9780603
1105,West Crane Road,79065,35.5633593,-100.9778322
1101,West Crane Road,79065,35.5633694,-100.9776075
3013,Rosewood Lane,79065,35.5689663,-100.9806164
3009,Rosewood Lane,79065,35.5687874,-100.9805858
3005,Rosewood Lane,79065,35.5685821,-100.9805778
3001,Rosewood Lane,79065,35.5684207,-100.9805875
2913,Rosewood Lane,79065,35.5682107,-100.9805896
2909,Rosewood Lane,79065,35.5680268,-100.9805817
2905,Rosewood Lane,79065,35.5678527,-100.9805735
2901,Rosewood Lane,79065,35.5676580,-100.9805370
2813,Rosewood Lane,79065,35.5674614,-100.9805802
2809,Rosewood Lane,79065,35.5672817,-100.9805733
2805,Rosewood Lane,79065,35.5670933,-100.9805855
2801,Rosewood Lane,79065,35.5668984,-100.9806046
2713,Rosewood Lane,79065,35.5665689,-100.9805954
2709,Rosewood Lane,79065,35.5663792,-100.9805791
2705,Rosewood Lane,79065,35.5661907,-100.9805863
2701,Rosewood Lane,79065,35.5660237,-100.9805913
2613,Rosewood Lane,79065,35.5658473,-100.9805406
2609,Rosewood Lane,79065,35.5656688,-100.9805572
2605,Rosewood Lane,79065,35.5654951,-100.9805667
2601,Rosewood Lane,79065,35.5653098,-100.9805463
2513,Rosewood Lane,79065,35.5649763,-100.9805640
2509,Rosewood Lane,79065,35.5647940,-100.9805699
2505,Rosewood Lane,79065,35.5646187,-100.9805461
2501,Rosewood Lane,79065,35.5644310,-100.9805693
2413,Rosewood Lane,79065,35.5642620,-100.9805644
2409,Rosewood Lane,79065,35.5640818,-100.9805493
2405,Rosewood Lane,79065,35.5638959,-100.9806001
2401,Rosewood Lane,79065,35.5637010,-100.9805734
3008,Rosewood Lane,79065,35.5689457,-100.9800585
3004,Rosewood Lane,79065,35.5687547,-100.9800609
3000,Rosewood Lane,79065,35.5685142,-100.9800489
2908,Rosewood Lane,79065,35.5681801,-100.9800607
2904,Rosewood Lane,79065,35.5679350,-100.9801006
2900,Rosewood Lane,79065,35.5677132,-100.9800847
2808,Rosewood Lane,79065,35.5673603,-100.9800852
2804,Rosewood Lane,79065,35.5671031,-100.9800860
2800,Rosewood Lane,79065,35.5669215,-100.9800712
2708,Rosewood Lane,79065,35.5665598,-100.9801053
2704,Rosewood Lane,79065,35.5663407,-100.9800774
2700,Rosewood Lane,79065,35.5661240,-100.9800886
2608,Rosewood Lane,79065,35.5657547,-100.9800644
2604,Rosewood Lane,79065,35.5655492,-100.9800870
2600,Rosewood Lane,79065,35.5653446,-100.9800613
2508,Rosewood Lane,79065,35.5649589,-100.9800739
2504,Rosewood Lane,79065,35.5647479,-100.9800733
2500,Rosewood Lane,79065,35.5645282,-100.9800816
2408,Rosewood Lane,79065,35.5641692,-100.9800948
2404,Rosewood Lane,79065,35.5639512,-100.9800881
2400,Rosewood Lane,79065,35.5637495,-100.9800841
3100,North Crest Road,79065,35.5699237,-100.9766642
1204,West Willow Road,79065,35.5693493,-100.9806493
1200,West Willow Road,79065,35.5693289,-100.9804451
1100,West Willow Road,79065,35.5693403,-100.9777345
1104,West Willow Road,79065,35.5693388,-100.9779692
1108,West Willow Road,79065,35.5693327,-100.9781853
1112,West Willow Road,79065,35.5693696,-100.9783897
1116,West Willow Road,79065,35.5693425,-100.9786320
1120,West Willow Road,79065,35.5693167,-100.9788435
1124,West Willow Road,79065,35.5693322,-100.9790657
1128,West Willow Road,79065,35.5693542,-100.9792756
1132,West Willow Road,79065,35.5693266,-100.9795147
1136,West Willow Road,79065,35.5693279,-100.9797499
1140,West Willow Road,79065,35.5693362,-100.9799827
1144,West Willow Road,79065,35.5693202,-100.9802247
1133,West Willow Road,79065,35.5689386,-100.9794845
1129,West Willow Road,79065,35.5689160,-100.9792651
1125,West Willow Road,79065,35.5689503,-100.9790458
1121,West Willow Road,79065,35.5689556,-100.9788175
1117,West Willow Road,79065,35.5689494,-100.9786149
1113,West Willow Road,79065,35.5689415,-100.9783941
1109,West Willow Road,79065,35.5689448,-100.9781661
1105,West Willow Road,79065,35.5689341,-100.9779460
1101,West Willow Road,79065,35.5689616,-100.9777357
900,North Christine Street,79065,35.5424574,-100.9634059
911,North Duncan Street,79065,35.5427752,-100.9633015
933,North Duncan Street,79065,35.5433213,-100.9632795
929,North Duncan Street,79065,35.5431780,-100.9632799
925,North Duncan Street,79065,35.5430526,-100.9632735
915,North Duncan Street,79065,35.5429283,-100.9632752
931,North Christine Street,79065,35.5433245,-100.9643966
915,North Christine Street,79065,35.5431716,-100.9643667
930,North Christine Street,79065,35.5433188,-100.9638956
926,North Christine Street,79065,35.5431480,-100.9639000
916,North Christine Street,79065,35.5429391,-100.9639067
914,North Christine Street,79065,35.5427606,-100.9638911
912,North Christine Street,79065,35.5426232,-100.9638767
906,North Christine Street,79065,35.5424534,-100.9637395
930,North Mary-Ellen Street,79065,35.5433093,-100.9650025
926,North Mary-Ellen Street,79065,35.5431671,-100.9649945
922,North Mary-Ellen Street,79065,35.5430399,-100.9649011
1032,North Duncan Street,79065,35.5446798,-100.9627339
1026,North Duncan Street,79065,35.5445444,-100.9628192
1024,North Duncan Street,79065,35.5444015,-100.9627711
1022,North Duncan Street,79065,35.5442633,-100.9626319
1018,North Duncan Street,79065,35.5441085,-100.9627814
1012,North Duncan Street,79065,35.5439955,-100.9626213
1010,North Duncan Street,79065,35.5438419,-100.9627256
1004,North Duncan Street,79065,35.5437225,-100.9627367
1000,North Duncan Street,79065,35.5435728,-100.9627613
1001,North Duncan Street,79065,35.5436619,-100.9633516
1039,North Duncan Street,79065,35.5446989,-100.9633444
1035,North Duncan Street,79065,35.5444983,-100.9634468
1029,North Duncan Street,79065,35.5443194,-100.9633230
1021,North Duncan Street,79065,35.5441654,-100.9633278
1017,North Duncan Street,79065,35.5440484,-100.9633901
1015,North Duncan Street,79065,35.5438952,-100.9633173
408,East Louisiana Avenue,79065,35.5446799,-100.9612798
404,East Louisiana Avenue,79065,35.5446215,-100.9615235
416,East Louisiana Avenue,79065,35.5447692,-100.9609683
1100,Terrace Street,79065,35.5449774,-100.9605533
1116,Terrace Street,79065,35.5453781,-100.9597883
1112,Terrace Street,79065,35.5452525,-100.9599669
1108,Terrace Street,79065,35.5451373,-100.9601421
1104,Terrace Street,79065,35.5450562,-100.9603343
1168,Terrace Street,79065,35.5475890,-100.9597049
1164,Terrace Street,79065,35.5474188,-100.9597133
1160,Terrace Street,79065,35.5472399,-100.9596854
1156,Terrace Street,79065,35.5470847,-100.9596648
1152,Terrace Street,79065,35.5469205,-100.9596597
1148,Terrace Street,79065,35.5467604,-100.9596283
1144,Terrace Street,79065,35.5466022,-100.9595507
1140,Terrace Street,79065,35.5464298,-100.9595538
1136,Terrace Street,79065,35.5462589,-100.9595057
1132,Terrace Street,79065,35.5460628,-100.9595067
1128,Terrace Street,79065,35.5458973,-100.9595427
1124,Terrace Street,79065,35.5457223,-100.9595755
1120,Terrace Street,79065,35.5455262,-100.9597019
1232,North Duncan Street,79065,35.5477037,-100.9627593
1228,North Duncan Street,79065,35.5475676,-100.9627450
1226,North Duncan Street,79065,35.5473971,-100.9627170
1220,North Duncan Street,79065,35.5472725,-100.9626976
1100,North Starkweather Street,79065,35.5454117,-100.9606489
1113,Terrace Street,79065,35.5459169,-100.9600403
1109,Terrace Street,79065,35.5457796,-100.9600834
1105,Terrace Street,79065,35.5456219,-100.9602190
1101,Terrace Street,79065,35.5455128,-100.9603471
1101,Garland Street,79065,35.5449872,-100.9622577
1105,Garland Street,79065,35.5451872,-100.9621800
1129,Garland Street,79065,35.5461697,-100.9622268
1125,Garland Street,79065,35.5459983,-100.9622045
1121,Garland Street,79065,35.5458355,-100.9622077
1117,Garland Street,79065,35.5456575,-100.9621971
1113,Garland Street,79065,35.5454973,-100.9621767
1109,Garland Street,79065,35.5453456,-100.9621810
1501,East 23rd Avenue,79065,35.5634972,-100.9499382
1505,Laguna Drive,79065,35.5655265,-100.9491378
1216,East 25th Avenue,79065,35.5660119,-100.9514997
1212,East 25th Avenue,79065,35.5659905,-100.9517450
2430,Navajo Road,79065,35.5659821,-100.9524060
2424,Navajo Road,79065,35.5657741,-100.9524186
2418,Navajo Road,79065,35.5655176,-100.9523489
1220,West McCullough Street,79065,35.5189479,-100.9761357
1212,West McCullough Street,79065,35.5189411,-100.9758590
1200,West McCullough Street,79065,35.5189388,-100.9755016
1222,South Sumner Street,79065,35.5196329,-100.9755030
613,West Plains Street,79065,35.5190922,-100.9645401
609,West Plains Street,79065,35.5190797,-100.9643166
601,West Plains Street,79065,35.5190984,-100.9639243
605,West Plains Street,79065,35.5190905,-100.9641275
608,West Plains Street,79065,35.5195075,-100.9642061
600,West Plains Street,79065,35.5194955,-100.9639336
1153,Terrace Street,79065,35.5476471,-100.9602327
1117,Terrace Street,79065,35.5460988,-100.9599884
1121,Terrace Street,79065,35.5462530,-100.9600555
1125,Terrace Street,79065,35.5464333,-100.9600788
1129,Terrace Street,79065,35.5465676,-100.9600740
1133,Terrace Street,79065,35.5467366,-100.9601085
1137,Terrace Street,79065,35.5469010,-100.9601393
1141,Terrace Street,79065,35.5470623,-100.9602130
1145,Terrace Street,79065,35.5472257,-100.9601695
1149,Terrace Street,79065,35.5473983,-100.9601739
1013,North Charles Street,79065,35.5441330,-100.9666010
1025,North Charles Street,79065,35.5443621,-100.9666205
1029,North Charles Street,79065,35.5445414,-100.9666022
1033,North Charles Street,79065,35.5447062,-100.9665926
1032,North Charles Street,79065,35.5447168,-100.9660619
1000,North Charles Street,79065,35.5435994,-100.9661167
1004,North Charles Street,79065,35.5437502,-100.9660674
1010,North Charles Street,79065,35.5439606,-100.9661046
1016,North Charles Street,79065,35.5441400,-100.9660714
1020,North Charles Street,79065,35.5442812,-100.9660866
1024,North Charles Street,79065,35.5444153,-100.9661005
1028,North Charles Street,79065,35.5445493,-100.9661215
1024,North Christine Street,79065,35.5444522,-100.9638506
1020,North Christine Street,79065,35.5442321,-100.9638935
1010,North Christine Street,79065,35.5439722,-100.9638547
1000,North Christine Street,79065,35.5436961,-100.9638460
1032,North Christine Street,79065,35.5446932,-100.9637935
1033,North Christine Street,79065,35.5446891,-100.9644158
1021,North Christine Street,79065,35.5444064,-100.9644337
1019,North Christine Street,79065,35.5442034,-100.9644215
1011,North Christine Street,79065,35.5440428,-100.9643928
1009,North Christine Street,79065,35.5439048,-100.9643905
1003,North Christine Street,79065,35.5436848,-100.9644562
101,East Virginia Avenue,79065,35.5436131,-100.9649718
1016,North Mary-Ellen Street,79065,35.5440105,-100.9649165
1020,North Mary-Ellen Street,79065,35.5441679,-100.9649593
1022,North Mary-Ellen Street,79065,35.5442953,-100.9649535
1024,North Mary-Ellen Street,79065,35.5444318,-100.9649385
1028,North Mary-Ellen Street,79065,35.5445548,-100.9649675
1032,North Mary-Ellen Street,79065,35.5446963,-100.9649707
1001,North Mary-Ellen Street,79065,35.5436162,-100.9654839
1005,North Mary-Ellen Street,79065,35.5437450,-100.9654979
1009,North Mary-Ellen Street,79065,35.5438933,-100.9654872
1013,North Mary-Ellen Street,79065,35.5440211,-100.9655083
1017,North Mary-Ellen Street,79065,35.5441738,-100.9655221
1021,North Mary-Ellen Street,79065,35.5443105,-100.9655211
1025,North Mary-Ellen Street,79065,35.5444543,-100.9655378
1029,North Mary-Ellen Street,79065,35.5446727,-100.9655194
1233,Garland Street,79065,35.5477069,-100.9622392
1229,Garland Street,79065,35.5475665,-100.9621863
1225,Garland Street,79065,35.5474412,-100.9621858
1221,Garland Street,79065,35.5472682,-100.9622131
1217,Garland Street,79065,35.5471162,-100.9621856
1213,Garland Street,79065,35.5469651,-100.9621851
1209,Garland Street,79065,35.5468182,-100.9622133
1205,Garland Street,79065,35.5466603,-100.9622059
1201,Garland Street,79065,35.5465151,-100.9622264
1100,Garland Street,79065,35.5451094,-100.9616890
1104,Garland Street,79065,35.5452942,-100.9616143
1108,Garland Street,79065,35.5454991,-100.9616690
1112,Garland Street,79065,35.5456593,-100.9616836
1116,Garland Street,79065,35.5458164,-100.9616944
1120,Garland Street,79065,35.5459837,-100.9616638
1124,Garland Street,79065,35.5461523,-100.9616563
1128,Garland Street,79065,35.5463196,-100.9616592
1200,Garland Street,79065,35.5465058,-100.9616302
1204,Garland Street,79065,35.5466486,-100.9616684
1208,Garland Street,79065,35.5467905,-100.9616573
1212,Garland Street,79065,35.5469691,-100.9616823
1216,Garland Street,79065,35.5471063,-100.9616950
1220,Garland Street,79065,35.5472775,-100.9616594
1224,Garland Street,79065,35.5474302,-100.9616760
1228,Garland Street,79065,35.5475725,-100.9616840
1232,Garland Street,79065,35.5476957,-100.9616760
1104,North Starkweather Street,79065,35.5456746,-100.9606689
1108,North Starkweather Street,79065,35.5458522,-100.9606115
1112,North Starkweather Street,79065,35.5459849,-100.9606848
1116,North Starkweather Street,79065,35.5461726,-100.9606385
1120,North Starkweather Street,79065,35.5463174,-100.9606683
1124,North Starkweather Street,79065,35.5464827,-100.9606833
1128,North Starkweather Street,79065,35.5466409,-100.9606624
1132,North Starkweather Street,79065,35.5468074,-100.9606635
1136,North Starkweather Street,79065,35.5469863,-100.9606716
1140,North Starkweather Street,79065,35.5471445,-100.9606867
1144,North Starkweather Street,79065,35.5473237,-100.9606767
1148,North Starkweather Street,79065,35.5474868,-100.9606937
1152,North Starkweather Street,79065,35.5476957,-100.9606754
1161,North Starkweather Street,79065,35.5476786,-100.9611642
1157,North Starkweather Street,79065,35.5474960,-100.9611812
1153,North Starkweather Street,79065,35.5473368,-100.9611821
1149,North Starkweather Street,79065,35.5471735,-100.9611553
1145,North Starkweather Street,79065,35.5470246,-100.9611350
1141,North Starkweather Street,79065,35.5468437,-100.9611666
1137,North Starkweather Street,79065,35.5466870,-100.9611893
1133,North Starkweather Street,79065,35.5465247,-100.9611503
1129,North Starkweather Street,79065,35.5463356,-100.9611492
1125,North Starkweather Street,79065,35.5461863,-100.9611683
1121,North Starkweather Street,79065,35.5460180,-100.9611289
1117,North Starkweather Street,79065,35.5458496,-100.9611817
1113,North Starkweather Street,79065,35.5456962,-100.9611735
1109,North Starkweather Street,79065,35.5455242,-100.9611613
1105,North Starkweather Street,79065,35.5453544,-100.9611528
1101,North Starkweather Street,79065,35.5451934,-100.9612297
1139,North Russell Street,79065,35.5461170,-100.9677964
1137,North Russell Street,79065,35.5458767,-100.9677472
1121,North Russell Street,79065,35.5456999,-100.9677094
1117,North Russell Street,79065,35.5455355,-100.9677063
1138,North Russell Street,79065,35.5461005,-100.9670627
1124,North Russell Street,79065,35.5458446,-100.9671986
1100,North Russell Street,79065,35.5450095,-100.9671578
1104,North Russell Street,79065,35.5451504,-100.9672286
1106,North Russell Street,79065,35.5452998,-100.9672194
1114,North Russell Street,79065,35.5454461,-100.9672158
1201,North Duncan Street,79065,35.5464660,-100.9633161
1205,North Duncan Street,79065,35.5465790,-100.9632788
1209,North Duncan Street,79065,35.5467402,-100.9632971
1237,North Duncan Street,79065,35.5477078,-100.9632952
1229,North Duncan Street,79065,35.5474266,-100.9633381
1225,North Duncan Street,79065,35.5472802,-100.9632901
1221,North Duncan Street,79065,35.5471365,-100.9632864
1217,North Duncan Street,79065,35.5470123,-100.9633376
1213,North Duncan Street,79065,35.5468852,-100.9633132
1235,North Hamilton Street,79065,35.5475834,-100.9699951
1225,North Hamilton Street,79065,35.5473349,-100.9699468
1221,North Hamilton Street,79065,35.5470945,-100.9699355
1211,North Hamilton Street,79065,35.5468148,-100.9699423
1201,North Hamilton Street,79065,35.5465478,-100.9699285
1236,North Hamilton Street,79065,35.5475707,-100.9694354
1230,North Hamilton Street,79065,35.5472986,-100.9693838
1220,North Hamilton Street,79065,35.5470331,-100.9694287
1212,North Hamilton Street,79065,35.5467503,-100.9694428
1200,North Hamilton Street,79065,35.5464551,-100.9693750
1312,North Coffee Street,79065,35.5483458,-100.9705353
1304,North Coffee Street,79065,35.5481720,-100.9704941
1429,North Hobart Street,79065,35.5509522,-100.9723048
1431,North Hobart Street,79065,35.5510547,-100.9723484
1437,North Hobart Street,79065,35.5512238,-100.9723487
1423,North Hobart Street,79065,35.5507464,-100.9723460
1721,North Aspen Drive,79065,35.5552002,-100.9621585
1719,North Aspen Drive,79065,35.5550420,-100.9621867
1715,North Aspen Drive,79065,35.5548879,-100.9621656
1711,North Aspen Drive,79065,35.5547075,-100.9621487
1707,North Aspen Drive,79065,35.5545396,-100.9621740
321,East 17th Avenue,79065,35.5543367,-100.9622213
1722,North Aspen Drive,79065,35.5552035,-100.9615933
1716,North Aspen Drive,79065,35.5550256,-100.9616605
1714,North Aspen Drive,79065,35.5548439,-100.9616426
1710,North Aspen Drive,79065,35.5546741,-100.9616522
1706,North Aspen Drive,79065,35.5544914,-100.9616508
1919,North Chestnut Drive,79065,35.5574285,-100.9600042
1905,North Chestnut Drive,79065,35.5571751,-100.9599405
1901,North Chestnut Drive,79065,35.5569344,-100.9599548
1918,North Chestnut Drive,79065,35.5574739,-100.9594115
1912,North Chestnut Drive,79065,35.5572870,-100.9594486
1906,North Chestnut Drive,79065,35.5570916,-100.9594413
601,East 19th Avenue,79065,35.5568841,-100.9594005
1710,North Mary-Ellen Street,79065,35.5548625,-100.9649490
1917,North Duncan Street,79065,35.5575398,-100.9633329
1909,North Duncan Street,79065,35.5572125,-100.9633630
1905,North Duncan Street,79065,35.5570497,-100.9633507
1901,North Duncan Street,79065,35.5568846,-100.9633277
102,West 18th Avenue,79065,35.5557271,-100.9655071
103,East 18th Avenue,79065,35.5556502,-100.9650275
1821,North Mary-Ellen Street,79065,35.5561640,-100.9655094
101,West 19th Avenue,79065,35.5564654,-100.9655821
1824,North Mary-Ellen Street,79065,35.5564769,-100.9649591
1818,North Mary-Ellen Street,79065,35.5561223,-100.9650697
1825,North Duncan Street,79065,35.5565482,-100.9633265
1821,North Duncan Street,79065,35.5563911,-100.9633250
1817,North Duncan Street,79065,35.5562186,-100.9633601
1813,North Duncan Street,79065,35.5560553,-100.9633676
1809,North Duncan Street,79065,35.5558918,-100.9633528
221,East 18th Avenue,79065,35.5556065,-100.9633814
711,East Harvester Avenue,79065,35.5502630,-100.9585535
1453,North Dogwood Lane,79065,35.5522237,-100.9594182
1449,North Dogwood Lane,79065,35.5518964,-100.9594072
1445,North Dogwood Lane,79065,35.5517348,-100.9594267
1439,North Dogwood Lane,79065,35.5515615,-100.9594493
1435,North Dogwood Lane,79065,35.5513963,-100.9594060
1431,North Dogwood Lane,79065,35.5512338,-100.9594053
1427,North Dogwood Lane,79065,35.5510685,-100.9594045
1205,North Hobart Street,79065,35.5453313,-100.9724509
1055,North Dwight Street,79065,35.5444868,-100.9788080
1029,North Dwight Street,79065,35.5435709,-100.9788473
1015,North Dwight Street,79065,35.5432319,-100.9788889
1001,North Dwight Street,79065,35.5427789,-100.9788883
2015,Alcock Street,79065,35.5324140,-100.9847539
610,North Naida Street,79065,35.5379063,-100.9826859
2200,Alcock Street,79065,35.5333813,-100.9865938
403,South Cuyler Street,79065,35.5329876,-100.9590484
215,North Hobart Street,79065,35.5324552,-100.9727989
325,North Hobart Street,79065,35.5339990,-100.9723788
421,North Purviance Street,79065,35.5359213,-100.9715997
1100,West Gwendolen Avenue,79065,35.5408129,-100.9743260
807,North Sumner Street,79065,35.5409010,-100.9754842
815,North Sumner Street,79065,35.5414056,-100.9755236
800,North Nelson Street,79065,35.5411540,-100.9763383
1123,West Gwendolen Avenue,79065,35.5401946,-100.9749103
1408,North Banks Street,79065,35.5499848,-100.9728376
1428,North Banks Street,79065,35.5508486,-100.9729449
1505,North Banks Street,79065,35.5516682,-100.9734000
1509,North Banks Street,79065,35.5519983,-100.9734472
2217,Perryton Parkway,79065,35.5612033,-100.9715857
2201,Perryton Parkway,79065,35.5606301,-100.9716028
2125,North Hobart Street,79065,35.5596764,-100.9722833
2100,Perryton Parkway,79065,35.5588178,-100.9715065
2110,Perryton Parkway,79065,35.5590636,-100.9714921
1939,North Hobart Street,79065,35.5579369,-100.9723374
2000,North Hobart Street,79065,35.5578281,-100.9715837
1821,North Hobart Street,79065,35.5558240,-100.9722474
1835,North Hobart Street,79065,35.5563363,-100.9722523
1827,North Hobart Street,79065,35.5560664,-100.9723719
1700,Alcock Street,79065,35.5333466,-100.9810816
1620,Alcock Street,79065,35.5334927,-100.9805496
1050,North Price Road,79065,35.5439793,-100.9885605
1051,North Price Road,79065,35.5445020,-100.9904944
2100,West Montagu Avenue,79065,35.5376576,-100.9863302
915,West Wilks Street,79065,35.5257341,-100.9726370
930,South Hobart Street,79065,35.5249917,-100.9723456
421,South Cuyler Street,79065,35.5325208,-100.9585246
600,East Frederick Street,79065,35.5330174,-100.9537342
701,East Frederick Street,79065,35.5337275,-100.9523114
720,East Frederick Avenue,79065,35.5331344,-100.9517684
732,East Frederick Street,79065,35.5330993,-100.9512864
801,East Campbell Avenue,79065,35.5327259,-100.9506127
918,East Frederick Street,79065,35.5330874,-100.9479813
725,East Frederick Street,79065,35.5336466,-100.9514164
314,South Starkweather Street,79065,35.5354857,-100.9553370
121,South Gillespie Street,79065,35.5363736,-100.9581776
125,South Gillespie Street,79065,35.5362438,-100.9580887
1404,West Coronado Drive,79065,35.5427740,-100.9778209
1400,West Coronado Drive,79065,35.5428395,-100.9776825
1037,North Wells Street,79065,35.5444750,-100.9776814
1035,North Wells Street,79065,35.5442031,-100.9777285
2214,West Kentucky Avenue,79065,35.5479506,-100.9879082
2212,West Kentucky Avenue,79065,35.5479301,-100.9876539
2200,West Kentucky Avenue,79065,35.5492397,-100.9858825
2116,West Kentucky Avenue,79065,35.5489950,-100.9846659
1708,West Kentucky Avenue,79065,35.5484552,-100.9816121
1704,West Kentucky Avenue,79065,35.5479265,-100.9814409
1700,West Kentucky Avenue,79065,35.5479366,-100.9809912
1415,West Harvester Avenue,79065,35.5493098,-100.9778096
1409,West Harvester Avenue,79065,35.5492402,-100.9776534
1400,North Dwight Street,79065,35.5498511,-100.9780148
1401,North Wells Street,79065,35.5499302,-100.9775609
1415,North Wells Street,79065,35.5502728,-100.9775594
816,North Hobart Street,79065,35.5405512,-100.9716741
811,North West Street,79065,35.5404477,-100.9716002
807,North West Street,79065,35.5403140,-100.9715322
801,North West Street,79065,35.5401856,-100.9714593
820,North West Street,79065,35.5410154,-100.9713610
802,North West Street,79065,35.5404213,-100.9709122
804,North West Street,79065,35.5405491,-100.9710085
810,North West Street,79065,35.5406910,-100.9710374
814,North West Street,79065,35.5407913,-100.9711576
818,North West Street,79065,35.5408967,-100.9712478
1020,North Somerville Street,79065,35.5438336,-100.9701795
1016,North Somerville Street,79065,35.5437079,-100.9701144
916,North Somerville Street,79065,35.5429646,-100.9695507
924,North Somerville Street,79065,35.5431079,-100.9696888
912,North Somerville Street,79065,35.5427129,-100.9694156
914,North Somerville Street,79065,35.5428499,-100.9694844
908,North Somerville Street,79065,35.5425425,-100.9693085
1002,North Somerville Street,79065,35.5432238,-100.9697460
1012,North Somerville Street,79065,35.5435891,-100.9699784
1004,North Somerville Street,79065,35.5433456,-100.9698352
1008,North Somerville Street,79065,35.5434845,-100.9698959
900,North Somerville Street,79065,35.5423910,-100.9691810
903,North Somerville Street,79065,35.5421274,-100.9697752
909,North Somerville Street,79065,35.5422746,-100.9698592
911,North Somerville Street,79065,35.5424129,-100.9699009
915,North Somerville Street,79065,35.5425349,-100.9699927
921,North Somerville Street,79065,35.5426946,-100.9701322
500,North Somerville Street,79065,35.5387725,-100.9666586
303,North Frost Street,79065,35.5370827,-100.9648069
712,West Buckler Avenue,79065,35.5366181,-100.9711384
421,North Ward Street,79065,35.5364419,-100.9704235
103,South Hobart Street,79065,35.5304458,-100.9714786
1019,Alcock Street,79065,35.5328221,-100.9738074
1701,East Browning Avenue,79065,35.5488712,-100.9419695
600,North Jupiter Drive,79065,35.5494995,-100.9468723
604,North Jupiter Drive,79065,35.5496669,-100.9470045
608,North Jupiter Drive,79065,35.5498678,-100.9471092
605,North Jupiter Drive,79065,35.5496581,-100.9475901
601,North Jupiter Drive,79065,35.5494415,-100.9474259
613,East 16th Avenue,79065,35.5532659,-100.9589663
1601,North Dogwood Lane,79065,35.5532974,-100.9587820
717,East 16th Avenue,79065,35.5532396,-100.9581560
1021,North Wells Street,79065,35.5438000,-100.9777155
1021,North Wells Street,79065,35.5439685,-100.9777175
1058,North Dwight Street,79065,35.5445374,-100.9782575
1048,North Dwight Street,79065,35.5442984,-100.9782720
1017,North Wells Street,79065,35.5436353,-100.9776892
1342,North Mary-Ellen Street,79065,35.5492035,-100.9649208
210,West Harvester Avenue,79065,35.5500643,-100.9669881
721,West Kingsmill Avenue,79065,35.5333062,-100.9691360
1000,West Crane Road,79065,35.5647817,-100.9752170
1004,West Crane Road,79065,35.5646210,-100.9753564
1008,West Crane Road,79065,35.5644856,-100.9754807
1012,West Crane Road,79065,35.5643747,-100.9756291
1016,West Crane Road,79065,35.5642639,-100.9757820
1020,West Crane Road,79065,35.5641246,-100.9759767
1024,West Crane Road,79065,35.5640438,-100.9761525
1028,West Crane Road,79065,35.5639830,-100.9763432
1032,West Crane Road,79065,35.5638883,-100.9765369
1036,West Crane Road,79065,35.5638593,-100.9767525
1040,West Crane Road,79065,35.5638265,-100.9769831
1044,West Crane Road,79065,35.5637895,-100.9771971
1037,West Cinderella Drive,79065,35.5653454,-100.9764993
1049,West Cinderella Drive,79065,35.5649743,-100.9771760
1045,West Cinderella Drive,79065,35.5650429,-100.9769364
1041,West Cinderella Drive,79065,35.5651538,-100.9767211
945,West Terry Road,79065,35.5657335,-100.9744833
949,West Terry Road,79065,35.5657174,-100.9747579
957,West Terry Road,79065,35.5655554,-100.9750700
961,West Terry Road,79065,35.5654301,-100.9752512
965,West Terry Road,79065,35.5652926,-100.9753901
964,West Terry Road,79065,35.5655356,-100.9758665
956,West Terry Road,79065,35.5658397,-100.9754694
952,West Terry Road,79065,35.5660026,-100.9753015
948,West Terry Road,79065,35.5660683,-100.9750639
944,West Terry Road,79065,35.5661674,-100.9747792
945,West Cinderella Drive,79065,35.5665299,-100.9748668
949,West Cinderella Drive,79065,35.5664773,-100.9750643
955,West Cinderella Drive,79065,35.5664384,-100.9752541
961,West Cinderella Drive,79065,35.5663083,-100.9754427
965,West Cinderella Drive,79065,35.5662620,-100.9756357
969,West Cinderella Drive,79065,35.5661374,-100.9758086
973,West Cinderella Drive,79065,35.5659665,-100.9759835
977,West Cinderella Drive,79065,35.5658508,-100.9760982
981,West Cinderella Drive,79065,35.5657133,-100.9762391
1136,West Crane Road,79065,35.5637778,-100.9796855
1132,West Crane Road,79065,35.5637865,-100.9794581
1128,West Crane Road,79065,35.5637751,-100.9792375
1100,West Crane Road,79065,35.5637864,-100.9776090
1104,West Crane Road,79065,35.5637825,-100.9778351
1108,West Crane Road,79065,35.5637913,-100.9780515
1112,West Crane Road,79065,35.5638011,-100.9782989
1124,West Crane Road,79065,35.5637876,-100.9789753
1120,West Crane Road,79065,35.5637792,-100.9787583
1116,West Crane Road,79065,35.5637735,-100.9785299
2800,North Crest Road,79065,35.5669987,-100.9771891
1000,West Sirroco Place,79065,35.5670130,-100.9749724
1040,West Sirroco Place,79065,35.5669776,-100.9769580
1036,West Sirroco Place,79065,35.5669842,-100.9767298
1028,West Sirroco Place,79065,35.5669767,-100.9762798
1024,West Sirroco Place,79065,35.5669739,-100.9760616
1020,West Sirroco Place,79065,35.5669765,-100.9758374
1016,West Sirroco Place,79065,35.5669807,-100.9756157
1032,West Sirroco Place,79065,35.5669604,-100.9765053
1012,West Sirroco Place,79065,35.5670040,-100.9754006
1008,West Sirroco Place,79065,35.5669788,-100.9751940
914,Sierra Drive,79065,35.5678293,-100.9729205
918,Sierra Drive,79065,35.5678107,-100.9731287
922,Sierra Drive,79065,35.5678121,-100.9733380
946,Sierra Drive,79065,35.5677912,-100.9746373
942,Sierra Drive,79065,35.5677993,-100.9744267
938,Sierra Drive,79065,35.5677966,-100.9742069
934,Sierra Drive,79065,35.5678000,-100.9739929
926,Sierra Drive,79065,35.5678023,-100.9735697
945,Sierra Drive,79065,35.5673834,-100.9745932
941,Sierra Drive,79065,35.5674195,-100.9743334
935,Sierra Drive,79065,35.5674220,-100.9740145
933,Sierra Drive,79065,35.5673872,-100.9737480
921,Sierra Drive,79065,35.5673797,-100.9733958
919,Sierra Drive,79065,35.5673713,-100.9731254
915,Sierra Drive,79065,35.5673865,-100.9729173
2101,West 23rd Avenue,79065,35.5614217,-100.9850056
2410,West 23rd Avenue,79065,35.5629448,-100.9883640
2421,West 23rd Avenue,79065,35.5616216,-100.9885939
1901,North Price Road,79065,35.5571519,-100.9905356
1829,North Price Road,79065,35.5558609,-100.9928184
1800,North Price Road,79065,35.5551926,-100.9892285
1810,North Price Road,79065,35.5556213,-100.9892715
1834,North Price Road,79065,35.5561695,-100.9892584
1710,North Price Road,79065,35.5523439,-100.9920295
1304,North Price Road,79065,35.5482336,-100.9903576
2538,County Road E,79065,35.5487592,-100.9910098
100,North Naida Street,79065,35.5305561,-100.9822292
111,North Naida Street,79065,35.5308522,-100.9833153
315,North Nelson Street,79065,35.5335110,-100.9766361
923,West Rham Street,79065,35.5302521,-100.9734924
823,West Francis Avenue,79065,35.5336173,-100.9710116
701,East Foster Avenue,79065,35.5393507,-100.9543184
421,East Kingsmill Avenue,79065,35.5390398,-100.9578577
505,East Kingsmill Avenue,79065,35.5393627,-100.9572841
114,West Foster Avenue,79065,35.5356939,-100.9623127
208,North Ward Street,79065,35.5342707,-100.9681107
210,North Ward Street,79065,35.5345463,-100.9682955
1427,North Wells Street,79065,35.5507244,-100.9776196
1439,North Wells Street,79065,35.5512152,-100.9776246
1437,North Wells Street,79065,35.5511172,-100.9776245
1438,North Dwight Street,79065,35.5511103,-100.9780864
1428,North Dwight Street,79065,35.5507730,-100.9780375
1426,North Dwight Street,79065,35.5506771,-100.9780402
1420,North Dwight Street,79065,35.5505529,-100.9780362
1418,North Dwight Street,79065,35.5504381,-100.9780404
1405,North Dwight Street,79065,35.5500687,-100.9786141
2542,North Charles Street,79065,35.5671804,-100.9661614
2501,North Charles Street,79065,35.5653876,-100.9667166
2505,North Charles Street,79065,35.5655615,-100.9667199
2511,North Charles Street,79065,35.5657572,-100.9667225
2506,North Charles Street,79065,35.5655849,-100.9661388
2535,North Charles Street,79065,35.5667288,-100.9667063
2529,North Charles Street,79065,35.5665393,-100.9667509
2536,North Charles Street,79065,35.5669737,-100.9662012
2500,North Charles Street,79065,35.5653966,-100.9661969
2510,North Charles Street,79065,35.5657696,-100.9662090
2525,North Charles Street,79065,35.5663605,-100.9667134
2521,North Charles Street,79065,35.5661693,-100.9667252
2515,North Charles Street,79065,35.5659578,-100.9667071
2516,North Charles Street,79065,35.5659686,-100.9661647
2520,North Charles Street,79065,35.5661640,-100.9661778
2524,North Charles Street,79065,35.5663826,-100.9661825
2528,North Charles Street,79065,35.5665750,-100.9661480
2530,North Charles Street,79065,35.5667689,-100.9661858
2700,Chaumont Terrace,79065,35.5628984,-100.9375333
2319,Chateau-Rue Drive,79065,35.5639204,-100.9400140
916,West Wilks Street,79065,35.5262164,-100.9726269
1002,West Wilks Street,79065,35.5261683,-100.9734784
824,South Banks Street,79065,35.5277212,-100.9732852
942,West Cinderella Drive,79065,35.5670150,-100.9745432
938,West Cinderella Drive,79065,35.5670081,-100.9743235
934,West Cinderella Drive,79065,35.5669957,-100.9740813
930,West Cinderella Drive,79065,35.5670144,-100.9738523
926,West Cinderella Drive,79065,35.5670135,-100.9736338
922,West Cinderella Drive,79065,35.5670145,-100.9734040
918,West Cinderella Drive,79065,35.5670218,-100.9731739
914,West Cinderella Drive,79065,35.5670485,-100.9729435
943,West Cinderella Drive,79065,35.5666138,-100.9744631
939,West Cinderella Drive,79065,35.5666044,-100.9742428
935,West Cinderella Drive,79065,35.5666024,-100.9740160
931,West Cinderella Drive,79065,35.5666072,-100.9737946
927,West Cinderella Drive,79065,35.5666161,-100.9735805
923,West Cinderella Drive,79065,35.5666187,-100.9733607
919,West Cinderella Drive,79065,35.5666141,-100.9731374
915,West Cinderella Drive,79065,35.5666162,-100.9729230
911,West Cinderella Drive,79065,35.5666153,-100.9727075
907,West Cinderella Drive,79065,35.5666178,-100.9724795
936,West Terry Road,79065,35.5662253,-100.9742706
932,West Terry Road,79065,35.5662250,-100.9740126
928,West Terry Road,79065,35.5662046,-100.9737992
924,West Terry Road,79065,35.5662602,-100.9735724
920,West Terry Road,79065,35.5662100,-100.9733624
916,West Terry Road,79065,35.5662389,-100.9731394
912,West Terry Road,79065,35.5662197,-100.9728767
904,West Terry Road,79065,35.5662205,-100.9725830
900,West Terry Road,79065,35.5662634,-100.9723068
901,West Terry Road,79065,35.5658289,-100.9722354
905,West Terry Road,79065,35.5658283,-100.9724640
909,West Terry Road,79065,35.5657835,-100.9726777
917,West Terry Road,79065,35.5658304,-100.9731585
921,West Terry Road,79065,35.5658226,-100.9733933
925,West Terry Road,79065,35.5658035,-100.9736111
929,West Terry Road,79065,35.5658256,-100.9738415
933,West Terry Road,79065,35.5658009,-100.9740823
310,East 29th Avenue,79065,35.5699048,-100.9625065
2724,North Duncan Street,79065,35.5695533,-100.9626050
119,South Starkweather Street,79065,35.5374238,-100.9560432
1197,South Prairie Drive,79065,35.5195147,-100.9661488
1189,South Prairie Drive,79065,35.5194937,-100.9664432
1177,South Prairie Drive,79065,35.5195795,-100.9666408
1165,South Prairie Drive,79065,35.5197348,-100.9666903
1161,South Prairie Drive,79065,35.5198915,-100.9667051
1157,South Prairie Drive,79065,35.5200344,-100.9666824
1153,South Prairie Drive,79065,35.5201939,-100.9666537
1149,South Prairie Drive,79065,35.5203268,-100.9666866
1145,South Prairie Drive,79065,35.5204948,-100.9666741
1141,South Prairie Drive,79065,35.5206528,-100.9667045
1137,South Prairie Drive,79065,35.5207951,-100.9666863
1133,South Prairie Drive,79065,35.5209909,-100.9666904
612,West Plains Street,79065,35.5195632,-100.9645365
1160,South Varnon Drive,79065,35.5198526,-100.9639930
1165,South Varnon Drive,79065,35.5197727,-100.9635160
1169,South Varnon Drive,79065,35.5196181,-100.9635045
1173,South Varnon Drive,79065,35.5194459,-100.9634343
1185,South Varnon Drive,79065,35.5190091,-100.9634643
1181,South Varnon Drive,79065,35.5191521,-100.9634734
1177,South Varnon Drive,79065,35.5193072,-100.9634511
1132,South Huff Road,79065,35.5209790,-100.9661520
1136,South Huff Road,79065,35.5208100,-100.9661620
1140,South Huff Road,79065,35.5206434,-100.9661272
1144,South Huff Road,79065,35.5204953,-100.9661738
1148,South Huff Road,79065,35.5203343,-100.9661473
1152,South Huff Road,79065,35.5201937,-100.9661771
1156,South Huff Road,79065,35.5200370,-100.9661271
1160,South Huff Road,79065,35.5198863,-100.9661186
1164,South Huff Road,79065,35.5197322,-100.9661282
1210,South Hobart Street,79065,35.5200147,-100.9722771
1218,South Hobart Street,79065,35.5196404,-100.9722269
1200,South Hobart Street,79065,35.5203265,-100.9722472
1220,South Hobart Street,79065,35.5194951,-100.9722630
1234,South Hobart Street,79065,35.5191992,-100.9722775
1000,West McCullough Street,79065,35.5188810,-100.9733491
438,West Crawford Street,79065,35.5227180,-100.9599999
1105,Campanella Drive,79065,35.5221309,-100.9589721
1101,West Crawford Street,79065,35.5222671,-100.9589415
1113,Campanella Drive,79065,35.5218100,-100.9589739
1108,Campanella Drive,79065,35.5219750,-100.9594135
1106,Campanella Drive,79065,35.5221405,-100.9594346
1136,South Barnes Street,79065,35.5209047,-100.9544364
1237,South Barnes Street,79065,35.5195024,-100.9536826
320,South Cuyler Street,79065,35.5332629,-100.9600560
12067,East Frederick Street,79065,35.5340526,-100.9337478
111,East Harvester Avenue,79065,35.5515844,-100.9653185
1200,North Duncan Street,79065,35.5466246,-100.9626547
511,North Hobart Street,79065,35.5364377,-100.9723926
112,South Cuyler Street,79065,35.5349595,-100.9612488
1146,North Hobart Street,79065,35.5460439,-100.9713908
812,West 25th Avenue,79065,35.5656819,-100.9714034
