House number,Street name,Postal code,Latitude,Longitude
1826,County Road 94,77584,29.5789250,-95.3830661
4501,Dixie Farm Road,77581,29.5268831,-95.2551202
2805,Business Center Drive,77584,29.5591229,-95.3896125
11037,Shadow Creek Pwy,77584,29.5808799,-95.3909328
11200,West Broadway Street,77584,29.5534231,-95.3937053
2710,Pearland Parkway,77581,29.5577436,-95.2651129
2815,Business Center Drive,77584,29.5568829,-95.3909137
2084,Business Center Drive,77584,29.5588859,-95.3932028
11302,West Broadway Street,77584,29.5553076,-95.3946504
11302,West Broadway Street,77584,29.5549243,-95.3946479
11302,West Broadway Street,77584,29.5550403,-95.3946493
11302,West Broadway Street,77584,29.5551315,-95.3946501
11302,West Broadway Street,77584,29.5552175,-95.3946479
11041,Shadow Creek Parkway,77584,29.5812597,-95.3908850
2710,Sienna Springs Drive,77584,29.5596532,-95.3992072
2806,Business Center Drive,77584,29.5588866,-95.3939182
11200,West Broadway Street,77584,29.5534312,-95.3934381
2812,Business Center Drive,77584,29.5571819,-95.3944572
1231,East Broadway Street,77581,29.5434493,-95.2224335
2411,Old Alvin Road,77581,29.5625737,-95.2770243
9215,West Broadway Street,77584,29.5595918,-95.3626822
1510,Broadway Street,77581,29.5460589,-95.2302270
4531,South Main Street,77581,29.5207396,-95.2568180
2549,Roy Road,77584,29.5622467,-95.3265604
13510,Mason Canyon Lane,77584,29.5408173,-95.4301833
13514,Mason Canyon Lane,77584,29.5408127,-95.4305454
13520,Mason Canyon Lane,77584,29.5408337,-95.4311113
13507,Mason Canyon Lane,77584,29.5413331,-95.4300384
3731,Windsong Park Court,77584,29.5408500,-95.4287805
3713,Bonham Hills Lane,77584,29.5418581,-95.4286786
3714,Bonham Hills Lane,77584,29.5420191,-95.4292687
3703,Bonham Hills Lane,77584,29.5426188,-95.4286920
3705,Bonham Hills Lane,77584,29.5424508,-95.4287108
13508,Mason Canyon Lane,77584,29.5408243,-95.4300063
13518,Mason Canyon Lane,77584,29.5408220,-95.4308807
13516,Mason Canyon Lane,77584,29.5408220,-95.4307090
13506,Mason Canyon Lane,77584,29.5408243,-95.4298158
13504,Mason Canyon Lane,77584,29.5408477,-95.4296200
13502,Mason Canyon Lane,77584,29.5409130,-95.4294349
3727,Windsong Park Court,77584,29.5409177,-95.4291640
3729,Windsong Park Court,77584,29.5408080,-95.4289924
3726,Windsong Park Court,77584,29.5413961,-95.4289414
3728,Windsong Park Court,77584,29.5413261,-95.4287161
3730,Windsong Park Court,77584,29.5411510,-95.4285713
3732,Windsong Park Court,77584,29.5409784,-95.4285686
3720,Flower Bluff Court,77584,29.5410600,-95.4313661
3722,Flower Bluff Court,77584,29.5409014,-95.4314144
3724,Flower Bluff Court,77584,29.5407427,-95.4315861
3726,Flower Bluff Court,77584,29.5407077,-95.4318570
3725,Flower Bluff Court,77584,29.5408803,-95.4320367
3723,Flower Bluff Court,77584,29.5410857,-95.4320608
3721,Flower Bluff Court,77584,29.5412537,-95.4319375
3719,Flower Bluff Court,77584,29.5413004,-95.4317068
3715,Bonham Hills Lane,77584,29.5416597,-95.4287134
3711,Bonham Hills Lane,77584,29.5420098,-95.4287134
3709,Bonham Hills Lane,77584,29.5421404,-95.4287268
3707,Bonham Hills Lane,77584,29.5422898,-95.4287403
3701,Bonham Hills Lane,77584,29.5427705,-95.4286893
3702,Bonham Hills Lane,77584,29.5428527,-95.4292217
3704,Bonham Hills Lane,77584,29.5427197,-95.4292432
3706,Bonham Hills Lane,77584,29.5425704,-95.4292539
3708,Bonham Hills Lane,77584,29.5424211,-95.4292566
3710,Bonham Hills Lane,77584,29.5422834,-95.4292485
3712,Bonham Hills Lane,77584,29.5421574,-95.4292485
3716,Bonham Hills Lane,77584,29.5418260,-95.4292271
3718,Bonham Hills Lane,77584,29.5416510,-95.4292673
3720,Bonham Hills Lane,77584,29.5415133,-95.4293558
13505,Mason Canyon Lane,77584,29.5412776,-95.4298413
13503,Mason Canyon Lane,77584,29.5413196,-95.4296562
13501,Mason Canyon Lane,77584,29.5414013,-95.4294846
13509,Mason Canyon Lane,77584,29.5412636,-95.4301793
13511,Mason Canyon Lane,77584,29.5412473,-95.4303375
13515,Mason Canyon Lane,77584,29.5412496,-95.4305440
13517,Mason Canyon Lane,77584,29.5412403,-95.4307613
13519,Mason Canyon Lane,77584,29.5412473,-95.4309839
13521,Mason Canyon Lane,77584,29.5413080,-95.4311556
3704,Rockland Terrace Lane,77584,29.5422956,-95.4319348
3705,Rockland Terrace Lane,77584,29.5422303,-95.4314895
3714,Rockland Terrace Lane,77584,29.5415022,-95.4318597
3715,Rockland Terrace Lane,77584,29.5414252,-95.4313232
3713,Rockland Terrace Lane,77584,29.5415769,-95.4314412
3711,Rockland Terrace Lane,77584,29.5417519,-95.4314976
3709,Rockland Terrace Lane,77584,29.5419199,-95.4315137
3707,Rockland Terrace Lane,77584,29.5420903,-95.4315083
3706,Rockland Terrace Lane,77584,29.5421556,-95.4319509
3708,Rockland Terrace Lane,77584,29.5420086,-95.4319616
3710,Rockland Terrace Lane,77584,29.5418289,-95.4319589
3712,Rockland Terrace Lane,77584,29.5416632,-95.4319240
2509,Country Club Drive,77581,29.5651922,-95.2417820
7128,Elgin Street,77584,29.5424081,-95.3294424
1853,Pearland Parkway,77581,29.5760597,-95.2656507
3208,Orchard Mill Lane,77584,29.5510094,-95.4169658
10009,West Broadway Street,77584,29.5565955,-95.3749444
3412,East Broadway Street,77581,29.5605703,-95.2768115
11041,Shadow Creek Parkway,77584,29.5814966,-95.3909033
3422,Business Center Drive,77584,29.5460583,-95.3902080
3609,Business Center Drive,77584,29.5424167,-95.3890434
11200,West Broadway Street,77584,29.5524560,-95.3922476
10645,West Broadway Street,77584,29.5552807,-95.3931265
11150,West Broadway Street,77584,29.5552949,-95.3928033
11011,CR 59,77584,29.5419305,-95.3904711
3609,Business Center Drive,77584,29.5424147,-95.3882532
3129,Kingsley Dr,77584,29.5423623,-95.4012291
11630,West Broadway Street,77584,29.5550115,-95.4003504
2808,Morenci,77581,29.5571738,-95.3225532
11200,West Broadway Street,77584,29.5527189,-95.3929989
2819,Cullen Boulevard,77584,29.5573255,-95.3497048
3422,Business Center Drive,77584,29.5462477,-95.3903417
8619,West Broadway Street,77584,29.5600865,-95.3538157
11601,Shadow Creek Parkway,77584,29.5802772,-95.3958782
15818,South Freeway,77584,29.5674004,-95.3878469
2121,Business Center Drive,77584,29.5729058,-95.3898333
11037,Shadow Creek Parkway,77584,29.5808400,-95.3907706
2810,Business Center Drive,77584,29.5567974,-95.3927816
4215,Manvel Road,77584,29.5572859,-95.3309581
3245,Broadway Street,77581,29.5606099,-95.2715022
2321,North Austin Avenue,77581,29.5647055,-95.2923069
12568,West Broadway Street,77584,29.5545593,-95.4152166
1321,Broadway Street,77581,29.5437959,-95.2233031
3426,Main Street,77581,29.5472180,-95.2781610
1810,Pearland Parkway,77581,29.5763100,-95.2658442
2701,Pearland Parkway,77581,29.5578635,-95.2602768
2670,Pearland Parkway,77581,29.5583771,-95.2614638
2680,Pearland Parkway,77581,29.5581623,-95.2617459
2680,Pearland Parkway,77581,29.5580100,-95.2620300
2682,Pearland Parkway,77581,29.5581811,-95.2622464
2650,Pearland Parkway,77581,29.5594425,-95.2630920
3235,East Broadway Street,77581,29.5603706,-95.2711347
3416,Broadway Street,77581,29.5613910,-95.2769720
3503,East Broadway,77581-4306,29.5626513,-95.2778493
3614,East Broadway,77581-4202,29.5634390,-95.2823620
1919,North Main Street,77581,29.5733256,-95.2834973
1722,North Main,77581,29.5755878,-95.2867399
1916,Main Street,77581,29.5738320,-95.2873466
5730,West Broadway Street,77581,29.5591166,-95.3094239
8027,Broadway Street,77581-7760,29.5597361,-95.3448262
8210,Broadway Street,77581-7763,29.5587050,-95.3472588
8321,Broadway Street,77581,29.5604531,-95.3498692
8703,West Broadway Street,77584,29.5594900,-95.3546700
9811,West Broadway Street,77584,29.5568738,-95.3719600
2810,Business Center Drive,77584,29.5575684,-95.3922888
15758,South Freeway,77584,29.5685887,-95.3877999
15750,South Freeway,77584,29.5690000,-95.3877920
11233,Shadow Creek Parkway,77584,29.5801959,-95.3938622
11615,Shadow Creek Parkway,77584,29.5800899,-95.3966548
12002,Shadow Creek Parkway,77584,29.5765788,-95.4056616
12833,Shadow Creek Parkway,77584,29.5778470,-95.4190220
9913,Excaliburs Court,77584,29.5669741,-95.3732420
2303,Miller Ranch Road,77584,29.5692398,-95.3735338
9906,Excaliburs Court,77584,29.5665026,-95.3728898
2355,Harrington Drive,77584,29.5673044,-95.3759094
2450,Miller Ranch Road,77584,29.5656760,-95.3735386
2446,Miller Ranch Road,77584,29.5657515,-95.3735390
9905,Excaliburs Court,77584,29.5670226,-95.3729016
2434,Miller Ranch Road,77584,29.5660125,-95.3735496
2454,Miller Ranch Road,77584,29.5656006,-95.3735383
9829,Camelots Court,77584,29.5660954,-95.3725358
2442,Miller Ranch Road,77584,29.5658269,-95.3735393
2304,Miller Ranch Road,77584,29.5692355,-95.3736692
9821,Excaliburs Court,77584,29.5668143,-95.3724058
2426,Miller Ranch Road,77584,29.5664842,-95.3736131
9813,Excaliburs Court,77584,29.5669777,-95.3722254
9710,Hallmark Lane,77584,29.5702864,-95.3705535
9802,Fair Brook Way,77584,29.5683986,-95.3713935
11625,West Broadway Street,77584,29.5562272,-95.4002573
1514,Broadway Street,77581,29.5454022,-95.2321069
1710,Broadway Street,77581,29.5458990,-95.2359509
2741,East Broadway Street,77581,29.5564983,-95.2601108
2509,Country Club Drive,77581,29.5637145,-95.2418379
2850,Pearland Parkway,77584,29.5552231,-95.2630931
1801,Riverstone Ranch Road,77089,29.5756180,-95.2451077
2805,Business Center Drive,77584,29.5576306,-95.3909208
2805,Business Center Drive,77584,29.5592816,-95.3902088
2406,South Main Street,77581,29.5628397,-95.2864657
3613,East Broadway Street,77581,29.5640905,-95.2822440
10105,West Broadway Street,77584,29.5565029,-95.3771723
11023,Shadow Creek Parkway,77584,29.5824037,-95.3880952
11025,Shadow Creek Parkway,77584,29.5817901,-95.3886974
11151,Shadow Creek Parkway,77584,29.5808360,-95.3918518
11003,Shadow Creek Parkway,77584,29.5830680,-95.3898665
4719,Bailey Road,77584,29.5322879,-95.2910038
4118,Veterans Drive,77584,29.5289271,-95.2899063
4118,Veterans Drive,77584,29.5291284,-95.2899084
3111,South Main Street,77581,29.5525924,-95.2805654
9121,West Broadway Street,77584,29.5598232,-95.3619763
8430,West Broadway Street,77584,29.5583159,-95.3509859
1921,East Broadway Street,77581,29.5482942,-95.2442302
3215,Mossy Bend Lane,77581,29.5740140,-95.2708228
2555,Cullen Boulevard,77584,29.5626110,-95.3497953
3303,Regal Park Lane,77584,29.5499404,-95.4372474
3304,Regal Park Lane,77584,29.5496272,-95.4375845
1521,Broadway Street,77581,29.5475407,-95.2311483
2832,East Broadway Street,77581,29.5569670,-95.2672335
2418,South Main Street,77581,29.5625384,-95.2867349
2110,North Main Street,77581,29.5682621,-95.2865860
2110,North Houston Avenue,77581,29.5684831,-95.2853665
4010,West Broadway Street,77581,29.5632785,-95.2867685
2404,South Main Street,77581,29.5632874,-95.2864121
4081,Rice Drier Road,77581,29.5756930,-95.2871621
7031,West Broadway Street,77581,29.5596496,-95.3291397
7201,West Broadway Street,77581,29.5598863,-95.3306653
2218,North Pearland Avenue,77581,29.5667315,-95.2917869
3219,McLean Road,77581,29.5500341,-95.2954891
11310,West Broadway Street,77584,29.5552475,-95.3957432
11306,West Broadway Street,77584,29.5552720,-95.3950824
11302,West Broadway Street,77584,29.5551247,-95.3947463
3510,Business Center Drive,77584,29.5425679,-95.3901834
3500,Business Center Drive,77584,29.5444331,-95.3909678
3515,Business Center Drive,77584,29.5442033,-95.3888274
3609,Business Center Drive,77584,29.5425106,-95.3886567
15800,South Freeway,77584,29.5673125,-95.3897961
1000,Bass Pro Drive,77047,29.5948408,-95.3898199
2202,Elm Forest Drive,77584,29.5701546,-95.3717813
2201,Ames Street,77584,29.5701509,-95.3721192
9719,Berkshire Trace,77584,29.5700902,-95.3713575
9807,Hallmark Lane,77584,29.5705242,-95.3719717
9801,Hallmark Lane,77584,29.5705358,-95.3714030
9717,Hallmark Lane,77584,29.5705522,-95.3712126
2208,Elm Forest Drive,77584,29.5696470,-95.3717544
2207,Ames Street,77584,29.5696470,-95.3721058
9719,Cottage Street,77584,29.5693927,-95.3713172
9711,Berkshire Trace,77584,29.5700972,-95.3705930
2304,Ames Street,77584,29.5689798,-95.3725134
2307,Land Street,77584,29.5686275,-95.3728648
2304,Land Street,77584,29.5686112,-95.3732913
9810,Fair Brook Way,77584,29.5682846,-95.3721434
9717,Fair Brook Way,77584,29.5686975,-95.3711268
2305,Glade Street,77584,29.5687349,-95.3691902
2306,Day Drive,77584,29.5687419,-95.3688389
2303,Day Drive,77584,29.5688585,-95.3684017
2214,Day Drive,77584,29.5692271,-95.3688442
2209,Glade Street,77584,29.5695514,-95.3692197
2213,Glade Street,77584,29.5692224,-95.3692090
9702,Berkshire Trace,77584,29.5697123,-95.3696355
9706,Berkshire Trace,77584,29.5697170,-95.3700244
9707,Cottage Street,77584,29.5694090,-95.3701987
2206,Day Drive,77584,29.5698849,-95.3688710
2208,Day Drive,77584,29.5697216,-95.3688603
2212,Day Drive,77584,29.5693857,-95.3688523
2207,Day Drive,77584,29.5698640,-95.3684445
2209,Day Drive,77584,29.5696843,-95.3684365
9603,Hallmark Lane,77584,29.5705941,-95.3687611
2201,Day Drive,77584,29.5704052,-95.3684445
2201,Glade Street,77584,29.5702139,-95.3692439
9701,Hallmark Lane,77584,29.5705708,-95.3697025
9703,Berkshire Trace,77584,29.5701019,-95.3698420
2202,Ames Street,77584,29.5701239,-95.3725112
2205,Ames Street,77584,29.5697959,-95.3721192
2206,Elm Forest Drive,77584,29.5698143,-95.3717690
9811,Hallmark Lane,77584,29.5705088,-95.3723434
9901,Hallmark Lane,77584,29.5704925,-95.3729132
2208,Ames Street,77584,29.5696437,-95.3725442
2210,Ames Street,77584,29.5694649,-95.3725372
2301,Ames Street,77584,29.5691501,-95.3721005
2212,Elm Forest Drive,77584,29.5693227,-95.3717503
9711,Fair Brook Way,77584,29.5687257,-95.3705524
9713,Fair Brook Way,77584,29.5686850,-95.3707439
9703,Fair Brook Way,77584,29.5687276,-95.3697959
9707,Fair Brook Way,77584,29.5687094,-95.3701672
9704,Cottage Street,77584,29.5690283,-95.3698099
2211,Glade Street,77584,29.5693837,-95.3691818
9703,Cottage Street,77584,29.5694101,-95.3698170
9710,Berkshire Trace,77584,29.5696985,-95.3703914
9712,Berkshire Trace,77584,29.5697086,-95.3705851
9720,Berkshire Trace,77584,29.5696944,-95.3713346
9715,Cottage Street,77584,29.5693735,-95.3709518
9711,Cottage Street,77584,29.5694000,-95.3705734
9713,Cottage Street,77584,29.5693775,-95.3707649
9709,Cottage Street,77584,29.5693917,-95.3703820
9714,Cottage Street,77584,29.5690060,-95.3707462
9715,Fair Brook Way,77584,29.5687114,-95.3709401
9719,Fair Brook Way,77584,29.5686850,-95.3713090
9806,Fair Brook Way,77584,29.5682972,-95.3717970
9812,Fair Brook Way,77584,29.5682673,-95.3723035
2306,Land Street,77584,29.5684576,-95.3732984
2303,Land Street,77584,29.5689613,-95.3728757
2208,Land Street,77584,29.5697435,-95.3732964
2214,Land Street,77584,29.5692476,-95.3733147
2211,Land Street,77584,29.5693064,-95.3728897
2308,Ames Street,77584,29.5686403,-95.3725139
9710,Fair Brook Way,77584,29.5683174,-95.3704731
2302,Day Drive,77584,29.5690668,-95.3688385
9701,Cottage Street,77584,29.5694203,-95.3696197
9705,Cottage Street,77584,29.5694071,-95.3700142
9708,Berkshire Trace,77584,29.5696995,-95.3702080
9704,Berkshire Trace,77584,29.5696924,-95.3698286
9714,Berkshire Trace,77584,29.5696781,-95.3707673
9716,Berkshire Trace,77584,29.5696802,-95.3709517
9718,Berkshire Trace,77584,29.5696903,-95.3711455
9717,Cottage Street,77584,29.5693816,-95.3711339
9713,Berkshire Trace,77584,29.5700782,-95.3707767
9709,Berkshire Trace,77584,29.5700863,-95.3704030
9705,Berkshire Trace,77584,29.5700985,-95.3700271
9701,Berkshire Trace,77584,29.5701107,-95.3696534
2205,Glade Street,77584,29.5698873,-95.3692168
9717,Berkshire Trace,77584,29.5700742,-95.3711573
9715,Hallmark Lane,77584,29.5705473,-95.3710288
9803,Hallmark Lane,77584,29.5705311,-95.3715821
9809,Hallmark Lane,77584,29.5705128,-95.3721473
9805,Hallmark Lane,77584,29.5705311,-95.3717783
9815,Hallmark Lane,77584,29.5705088,-95.3727170
9813,Hallmark Lane,77584,29.5705149,-95.3725302
9903,Hallmark Lane,77584,29.5705210,-95.3730976
9808,Fair Brook Way,77584,29.5682586,-95.3719558
9800,Fair Brook Way,77584,29.5682870,-95.3712226
9804,Fair Brook Way,77584,29.5682799,-95.3715845
9714,Fair Brook Way,77584,29.5682849,-95.3708490
9716,Fair Brook Way,77584,29.5682809,-95.3710334
9712,Fair Brook Way,77584,29.5682870,-95.3706576
2209,Land Street,77584,29.5694588,-95.3728711
9716,Cottage Street,77584,29.5689958,-95.3709261
9712,Cottage Street,77584,29.5689856,-95.3705547
9706,Cottage Street,77584,29.5690262,-95.3699874
9705,Fair Brook Way,77584,29.5687338,-95.3699757
9701,Fair Brook Way,77584,29.5687358,-95.3696021
9702,Cottage Street,77584,29.5690079,-95.3696231
9708,Cottage Street,77584,29.5689998,-95.3701765
9703,Hallmark Lane,77584,29.5705819,-95.3698846
9709,Hallmark Lane,77584,29.5705555,-95.3704474
9705,Hallmark Lane,77584,29.5705778,-95.3700691
2204,Ames Street,77584,29.5699745,-95.3725207
2206,Ames Street,77584,29.5697999,-95.3725675
2207,Land Street,77584,29.5696294,-95.3728757
2203,Land Street,77584,29.5699463,-95.3728875
2205,Land Street,77584,29.5697999,-95.3728968
2204,Elm Forest Drive,77584,29.5699746,-95.3717970
2203,Ames Street,77584,29.5699685,-95.3720959
2211,Ames Street,77584,29.5693147,-95.3720795
2301,Land Street,77584,29.5691298,-95.3728617
2302,Ames Street,77584,29.5691318,-95.3725442
2305,Land Street,77584,29.5687907,-95.3728501
2303,Ames Street,77584,29.5689796,-95.3720726
2306,Elm Forest Drive,77584,29.5688211,-95.3717479
2301,Glade Street,77584,29.5690588,-95.3691818
9709,Fair Brook Way,77584,29.5687074,-95.3703609
2207,Glade Street,77584,29.5697065,-95.3692122
2203,Glade Street,77584,29.5700498,-95.3692191
2204,Day Drive,77584,29.5700498,-95.3688829
2205,Day Drive,77584,29.5700194,-95.3684042
2210,Day Drive,77584,29.5695603,-95.3688759
2213,Day Drive,77584,29.5693614,-95.3683995
2304,Day Drive,77584,29.5688902,-95.3688619
2303,Glade Street,77584,29.5688860,-95.3691748
2301,Day Drive,77584,29.5690283,-95.3683903
2215,Day Drive,77584,29.5691973,-95.3683896
2211,Day Drive,77584,29.5695263,-95.3684010
2203,Day Drive,77584,29.5702136,-95.3684549
2202,Day Drive,77584,29.5702304,-95.3688777
9601,Hallmark Lane,77584,29.5706129,-95.3685304
9605,Hallmark Lane,77584,29.5706069,-95.3689447
9607,Hallmark Lane,77584,29.5706117,-95.3691288
9609,Hallmark Lane,77584,29.5706147,-95.3693251
9611,Hallmark Lane,77584,29.5705874,-95.3695156
9707,Hallmark Lane,77584,29.5705767,-95.3702653
9707,Berkshire Trace,77584,29.5700820,-95.3702187
2305,Day Drive,77584,29.5687019,-95.3683577
2307,Day Drive,77584,29.5684632,-95.3683749
9602,Fair Brook Way,77584,29.5683459,-95.3685761
9604,Fair Brook Way,77584,29.5683437,-95.3687709
9606,Fair Brook Way,77584,29.5683376,-95.3689600
9608,Fair Brook Way,77584,29.5683330,-95.3691544
9610,Fair Brook Way,77584,29.5683320,-95.3693416
9612,Fair Brook Way,77584,29.5683386,-95.3695266
9702,Fair Brook Way,77584,29.5683447,-95.3697189
9706,Fair Brook Way,77584,29.5683385,-95.3700995
9708,Fair Brook Way,77584,29.5683056,-95.3702859
9704,Fair Brook Way,77584,29.5683264,-95.3699117
9710,Cottage Street,77584,29.5690300,-95.3703704
9718,Cottage Street,77584,29.5689722,-95.3711316
9720,Cottage Street,77584,29.5690007,-95.3713160
2302,Elm Forest Drive,77584,29.5691633,-95.3717507
2305,Ames Street,77584,29.5688260,-95.3720795
2304,Elm Forest Drive,77584,29.5689865,-95.3717667
2307,Ames Street,77584,29.5686615,-95.3720492
2308,Elm Forest Drive,77584,29.5686636,-95.3717410
9715,Berkshire Trace,77584,29.5700922,-95.3709728
2306,Ames Street,77584,29.5688060,-95.3725200
2212,Ames Street,77584,29.5693111,-95.3725413
2209,Ames Street,77584,29.5694809,-95.3720749
2210,Elm Forest Drive,77584,29.5694871,-95.3717738
2201,Land Street,77584,29.5701258,-95.3728534
9814,Fair Brook Way,77584,29.5682494,-95.3725353
9816,Fair Brook Way,77584,29.5682348,-95.3727180
9902,Fair Brook Way,77584,29.5682268,-95.3728904
9904,Fair Brook Way,77584,29.5682349,-95.3731114
2302,Land Street,77584,29.5687707,-95.3733233
2212,Land Street,77584,29.5694045,-95.3733536
2210,Land Street,77584,29.5695646,-95.3733536
2206,Land Street,77584,29.5698941,-95.3733653
2204,Land Street,77584,29.5700528,-95.3733619
2202,Land Street,77584,29.5702408,-95.3733674
9905,Hallmark Lane,77584,29.5704434,-95.3732970
10111,West Broadway Street,77584,29.5580154,-95.3774543
10009,West Broadway Street,77584,29.5568070,-95.3749440
6515,Broadway Street,77581,29.5599088,-95.3199734
11200,West Broadway Street,77584,29.5525722,-95.3909619
11200,West Broadway Street,77584,29.5525338,-95.3967401
2150,Countryplace Parkway,77584,29.5733663,-95.3846631
11200,West Broadway Street,77584,29.5530651,-95.3942176
11200,West Broadway Street,77584,29.5539105,-95.3944561
11200,West Broadway Street,77584,29.5543081,-95.3943241
11200,West Broadway Street,77584,29.5545702,-95.3943468
11200,West Broadway Street,77584,29.5545809,-95.3935638
11222,West Broadway Street,77584,29.5552463,-95.3934614
11200,West Broadway Street,77584,29.5533721,-95.3923814
3030,Business Center Drive,77584,29.5545664,-95.3915724
3005,Kirby Drive,77584,29.5543426,-95.3966767
11450,West Broadway Street,77584,29.5551334,-95.3970427
12631,West Broadway Street,77584,29.5563553,-95.4157881
12573,West Broadway Street,77584,29.5564451,-95.4150192
11510,West Broadway Street,77584,29.5550285,-95.3988174
11308,West Broadway Street,77584,29.5552524,-95.3954236
3541,Business Center Drive,77584,29.5435395,-95.3884861
2150,Countryplace Parkway,77584,29.5718525,-95.3844436
9434,Hughes Ranch Road,77584,29.5697023,-95.3664803
2050,Cullen Boulevard,77581,29.5737318,-95.3525685
1865,Cullen Boulevard,77581,29.5771984,-95.3501093
1865,Cullen Boulevard,77581,29.5771078,-95.3484069
10970,Shadow Creek Parkway,77584,29.5777656,-95.3903145
10970,Shadow Creek Parkway,77584,29.5779598,-95.3905151
16100,South Freeway Frontage Road,77584,29.5638007,-95.3889246
10905,Memorial Hermann Drive,77584,29.5621794,-95.3889788
2515,Business Center Drive,77584,29.5653522,-95.3883930
16100,South Freeway Frontage Road,77584,29.5627024,-95.3890574
11417,Harris Avenue,77584,29.5479557,-95.3994147
1801,Kingsley Drive,77584,29.5817359,-95.4088676
2620,Pearland Parkway,77581,29.5595290,-95.2602682
2610,Pearland Parkway,77581,29.5597413,-95.2598674
2660,Pearland Parkway,77581,29.5586478,-95.2612502
2710,Pearland Parkway,77581,29.5582026,-95.2649779
15970,South Freeway,77584,29.5683504,-95.3878462
9109,Hughes Ranch Road,77584,29.5707304,-95.3607337
8323,West Broadway Street,77581,29.5605392,-95.3489394
8401,West Broadway Street,77581,29.5595989,-95.3498040
8303,West Broadway Street,77581,29.5595500,-95.3481695
2718,Old Chocolate Bayou Road,77584,29.5580552,-95.3482090
9002,West Broadway Street,77584,29.5583072,-95.3594370
10331,West Broadway Street,77584,29.5564128,-95.3810827
4013,Oak Point Drive,77581,29.5350079,-95.2458702
4011,Oak Point Drive,77581,29.5351310,-95.2457396
4009,Oak Point Drive,77581,29.5352854,-95.2455814
4007,Oak Point Drive,77581,29.5354185,-95.2454412
4005,Oak Point Drive,77581,29.5355330,-95.2452818
4003,Oak Point Drive,77581,29.5356623,-95.2451438
4001,Oak Point Drive,77581,29.5358527,-95.2451216
1601,Oak Point Court,77581,29.5360417,-95.2452739
1603,Oak Point Court,77581,29.5361677,-95.2454326
1605,Oak Point Court,77581,29.5362897,-95.2455983
1607,Oak Point Court,77581,29.5364029,-95.2457238
1610,Oak Point Court,77581,29.5362626,-95.2463184
1608,Oak Point Court,77581,29.5361107,-95.2461759
1606,Oak Point Court,77581,29.5360122,-95.2460148
1604,Oak Point Court,77581,29.5358832,-95.2458759
1602,Oak Point Court,77581,29.5357501,-95.2457007
1601,Dixie Hill Court,77581,29.5355404,-95.2459288
1603,Dixie Hill Court,77581,29.5356586,-95.2460875
1605,Dixie Hill Court,77581,29.5358216,-95.2462461
1607,Dixie Hill Court,77581,29.5359498,-95.2464088
1609,Dixie Hill Court,77581,29.5360525,-95.2465279
1612,Dixie Hill Court,77581,29.5358907,-95.2471016
1610,Dixie Hill Court,77581,29.5357207,-95.2469306
1608,Dixie Hill Court,77581,29.5356067,-95.2467654
1606,Dixie Hill Court,77581,29.5354820,-95.2465968
1604,Dixie Hill Court,77581,29.5353503,-95.2464763
1602,Dixie Hill Court,77581,29.5352391,-95.2463395
1601,Gatecreek Drive,77581,29.5350022,-95.2465299
1603,Gatecreek Drive,77581,29.5351570,-95.2466695
1605,Gatecreek Drive,77581,29.5352993,-95.2468645
1607,Gatecreek Drive,77581,29.5354064,-95.2470068
1609,Gatecreek Drive,77581,29.5355344,-95.2471475
1611,Gatecreek Drive,77581,29.5356715,-95.2473150
3522,Liberty Drive,77581,29.5518385,-95.2581447
1512,Broadway Street,77581,29.5464040,-95.2309357
3519,Liberty Drive,77581,29.5498268,-95.2568934
13050,Shadow Creek Parkway,77584,29.5812938,-95.4209670
3820,Kimberly Drive,77581,29.5342465,-95.2210566
2702,Reid Boulevard,77581,29.5597632,-95.3316730
9809,West Broadway Street,77584,29.5567739,-95.3715031
1820,Country Place Parkway,77584,29.5790821,-95.3836644
2805,Business Center Drive,77584,29.5574619,-95.3909539
3601,Mahejan Drive,77584,29.5407266,-95.2958577
3621,Business Center Drive,77584,29.5418066,-95.3889975
11629,Shadow Creek Parkway,77584,29.5800849,-95.3986931
10101,West Broadway Street,77584,29.5565858,-95.3766931
2806,Miller Ranch Road,77584,29.5587844,-95.3740692
1908,Country Place Parkway,77584,29.5781898,-95.3839763
2821,Business Center Drive,77584,29.5563839,-95.3907309
11091,West Broadway Street,77584,29.5563824,-95.3917014
13931,South Freeway,77047,29.5939141,-95.3849728
13923,South Freeway,77047,29.5942444,-95.3849508
2850,South Sam Houston Parkway East,77047,29.5950190,-95.3808682
2944,South Sam Houston Parkway East,77047,29.5966107,-95.3788073
11200,West Broadway Street,77584,29.5522229,-95.3924450
11830,West Broadway Street,77584,29.5550612,-95.4028413
10105,Forest Spring Lane,77584,29.5695360,-95.3765390
10109,Forest Spring Lane,77584,29.5694475,-95.3769325
10111,Forest Spring Lane,77584,29.5694065,-95.3771015
3901,Livingston Lake Court,77581,29.5348406,-95.2614247
2336,North Pearland Avenue,77581,29.5643002,-95.2918364
2328,North Pearland Avenue,77581,29.5645048,-95.2917827
2324,North Pearland Avenue,77581,29.5646411,-95.2917562
2320,North Pearland Avenue,77581,29.5647909,-95.2917461
2314,North Pearland Avenue,77581,29.5650220,-95.2917569
2310,North Pearland Avenue,77581,29.5651674,-95.2917760
2303,North Pearland Avenue,77581,29.5654041,-95.2917828
2319,North Pearland Avenue,77581,29.5648458,-95.2912575
2238,North Pearland Avenue,77581,29.5659923,-95.2918303
2234,North Pearland Avenue,77581,29.5661135,-95.2917673
2230,North Pearland Avenue,77581,29.5662584,-95.2918386
2224,North Pearland Avenue,77581,29.5664297,-95.2917698
2220,North Pearland Avenue,77581,29.5665953,-95.2917876
2237,North Pearland Avenue,77581,29.5660726,-95.2912921
2120,North Main Street,77581-3310,29.5676743,-95.2866939
2316,North Pearland Avenue,77581,29.5649354,-95.2917565
2301,North Main Street,77581,29.5652900,-95.2858502
4009,West Broadway Street,77581,29.5640810,-95.2867629
2326,North Main Street,77581,29.5646937,-95.2865108
4106,East Broadway Street,77581,29.5633632,-95.2857176
1014,North Main Street,77581,29.5959991,-95.2894302
1126,North Main Street,77581,29.5922689,-95.2870979
2032,North Main Street,77581,29.5697038,-95.2874877
2028,North Main Street,77581,29.5700288,-95.2875176
2002,Main Street,77581,29.5710769,-95.2868104
1919,North Main Street,77581,29.5732266,-95.2830939
2027,North Main Street,77581-3307,29.5696522,-95.2851946
2020,Business Center Drive,77584,29.5742774,-95.3923529
9015,West Broadway Street,77584,29.5604041,-95.3586231
12101,Shadow Creek Parkway,77584,29.5782714,-95.4062378
4202,West Walnut Street,77581,29.5592853,-95.2890349
2703,Veterans Drive,77581,29.5580805,-95.2890580
14888,Kirby Drive,77047,29.5885915,-95.4027399
5517,Broadway Street,77581,29.5604249,-95.3034548
2804,South Main Street,77581,29.5574200,-95.2846354
10207,Hidden Falls Drive,77584,29.5675109,-95.3783710
10101,Erin Glen Way,77584,29.5671032,-95.3762167
10006,Brookshore Lane,77584,29.5661325,-95.3738539
10103,Brookshore Lane,77584,29.5662781,-95.3762415
2314,Appian Way,77584,29.5683386,-95.3788411
2412,Appian Way,77584,29.5663520,-95.3787904
10203,Brookshore Lane,77584,29.5659427,-95.3781185
10108,Chestnut Creek Way,77584,29.5681682,-95.3768003
10114,Chestnut Creek Way,77584,29.5679533,-95.3773633
2308,Appian Way,77584,29.5688334,-95.3788585
10006,Hidden Falls Drive,77584,29.5678878,-95.3738950
9813,Camelots Court,77584,29.5661207,-95.3718831
9907,Autumn Lake Trail,77584,29.5656388,-95.3745967
10020,Hidden Falls Drive,77584,29.5675748,-95.3751503
2304,Appian Way,77584,29.5691620,-95.3788492
9830,Camelots Court,77584,29.5655849,-95.3725161
10105,Erin Glen Way,77584,29.5669796,-95.3766040
10003,Hidden Falls Drive,77584,29.5680401,-95.3745737
10109,Erin Glen Way,77584,29.5668896,-95.3769650
9830,King Authors Court,77584,29.5673635,-95.3726081
10111,Erin Glen Way,77584,29.5668064,-95.3771695
10017,Hidden Falls Drive,77584,29.5679832,-95.3759155
10002,Chestnut Creek Way,77584,29.5683894,-95.3743926
10001,Hidden Falls Drive,77584,29.5680569,-95.3743839
10007,Hidden Falls Drive,77584,29.5679971,-95.3749698
10114,Forest Spring Lane,77584,29.5688750,-95.3772060
2416,Appian Way,77584,29.5660210,-95.3787807
10023,Chestnut Creek Way,77584,29.5688029,-95.3757681
10117,Chestnut Creek Way,77584,29.5683976,-95.3776405
10013,Erin Glen Way,77584,29.5672215,-95.3750552
10011,Autumn Lake Trail,77584,29.5659002,-95.3759947
9914,King Authors Court,77584,29.5673180,-95.3732966
10116,Hidden Falls Drive,77584,29.5670963,-95.3775968
10202,Erin Glen Way,77584,29.5662626,-95.3779129
10105,Brookshore Lane,77584,29.5661623,-95.3764811
10113,Hidden Falls Drive,77584,29.5675591,-95.3775977
10207,Erin Glen Way,77584,29.5667173,-95.3783466
10206,Forest Spring Lane,77584,29.5686556,-95.3781898
9822,Excaliburs Court,77584,29.5665422,-95.3722494
10113,Forest Spring Lane,77584,29.5693274,-95.3772933
10102,Hidden Falls Drive,77584,29.5674577,-95.3763328
10102,Brookshore Lane,77584,29.5655954,-95.3767649
10010,Forest Spring Lane,77584,29.5691562,-95.3743216
10208,Forest Spring Lane,77584,29.5686528,-95.3783873
10106,Brookshore Lane,77584,29.5655090,-95.3771440
10008,Hidden Falls Drive,77584,29.5676946,-95.3739964
10001,Autumn Lake Trail,77584,29.5656301,-95.3748257
10007,Erin Glen Way,77584,29.5672417,-95.3743519
10014,Hidden Falls Drive,77584,29.5675939,-95.3745797
10016,Autumn Lake Trail,77584,29.5655518,-95.3763445
2501,Fair Oak Street,77584,29.5655166,-95.3786259
10101,Hidden Falls Drive,77584,29.5678953,-95.3764975
10016,Chestnut Creek Way,77584,29.5683519,-95.3758030
10019,Hidden Falls Drive,77584,29.5679812,-95.3760951
10010,Brookshore Lane,77584,29.5659851,-95.3743437
10009,Chestnut Creek Way,77584,29.5688205,-95.3744553
10102,Erin Glen Way,77584,29.5666462,-95.3760865
10115,Brookshore Lane,77584,29.5659374,-95.3775675
10110,Erin Glen Way,77584,29.5664053,-95.3768891
10112,Hidden Falls Drive,77584,29.5671762,-95.3772275
10204,Forest Spring Lane,77584,29.5686862,-95.3779890
9805,Camelots Court,77584,29.5662116,-95.3716302
10015,Erin Glen Way,77584,29.5672176,-95.3752978
10015,Hidden Falls Drive,77584,29.5679922,-95.3757192
10011,Hidden Falls Drive,77584,29.5680040,-95.3753418
10018,Autumn Lake Trail,77584,29.5657334,-95.3764778
10109,Brookshore Lane,77584,29.5660486,-95.3769564
10012,Brookshore Lane,77584,29.5659822,-95.3745844
10014,Brookshore Lane,77584,29.5659604,-95.3748100
10009,Brookshore Lane,77584,29.5664181,-95.3753109
10016,Hidden Falls Drive,77584,29.5675946,-95.3747719
10102,Forest Spring Lane,77584,29.5691467,-95.3760424
10106,Hidden Falls Drive,77584,29.5673394,-95.3766791
10025,Chestnut Creek Way,77584,29.5687774,-95.3759622
10114,Erin Glen Way,77584,29.5663313,-95.3773078
10201,Brookshore Lane,77584,29.5659048,-95.3779412
10024,Hidden Falls Drive,77584,29.5675693,-95.3755302
10011,Chestnut Creek Way,77584,29.5688324,-95.3746412
10012,Erin Glen Way,77584,29.5667283,-95.3756270
10201,Erin Glen Way,77584,29.5667514,-95.3777560
10208,Chestnut Creek Way,77584,29.5678515,-95.3783800
10118,Erin Glen Way,77584,29.5662789,-95.3777070
10116,Erin Glen Way,77584,29.5663187,-95.3775131
10003,Chestnut Creek Way,77584,29.5685684,-95.3739018
10106,Chestnut Creek Way,77584,29.5682136,-95.3766315
10111,Hidden Falls Drive,77584,29.5675894,-95.3774130
2310,Appian Way,77584,29.5686692,-95.3788789
10001,Chestnut Creek Way,77584,29.5683952,-95.3739336
10115,Chestnut Creek Way,77584,29.5684161,-95.3774458
10201,Hidden Falls Drive,77584,29.5675672,-95.3778049
9905,Camelots Court,77584,29.5660491,-95.3729392
10007,Autumn Lake Trail,77584,29.5656117,-95.3755383
10205,Chestnut Creek Way,77584,29.5683225,-95.3782106
2318,Appian Way,77584,29.5680031,-95.3788416
10022,Forest Spring Lane,77584,29.5691706,-95.3754817
9914,Excaliburs Court,77584,29.5664848,-95.3732410
10010,Hidden Falls Drive,77584,29.5675766,-95.3741744
10009,Erin Glen Way,77584,29.5672479,-95.3745829
10009,Autumn Lake Trail,77584,29.5656449,-95.3758170
10026,Hidden Falls Drive,77584,29.5675365,-95.3757163
9822,King Authors Court,77584,29.5673715,-95.3722901
9903,Autumn Lake Trail,77584,29.5656461,-95.3741251
10017,Erin Glen Way,77584,29.5672340,-95.3755287
10204,Hidden Falls Drive,77584,29.5670809,-95.3779966
10005,Erin Glen Way,77584,29.5672435,-95.3741110
10024,Forest Spring Lane,77584,29.5691453,-95.3756506
10110,Brookshore Lane,77584,29.5654828,-95.3775309
10108,Hidden Falls Drive,77584,29.5672537,-95.3768402
10109,Hidden Falls Drive,77584,29.5676380,-95.3772189
10107,Erin Glen Way,77584,29.5669342,-95.3767811
9913,Camelots Court,77584,29.5660556,-95.3732962
10012,Hidden Falls Drive,77584,29.5675825,-95.3743959
10011,Brookshore Lane,77584,29.5664048,-95.3755532
10005,Hidden Falls Drive,77584,29.5680504,-95.3747602
10007,Brookshore Lane,77584,29.5664521,-95.3750661
10020,Forest Spring Lane,77584,29.5691699,-95.3752937
10114,Hidden Falls Drive,77584,29.5671382,-95.3774131
9814,Excaliburs Court,77584,29.5665055,-95.3719147
10110,Hidden Falls Drive,77584,29.5672112,-95.3770286
10103,Chestnut Creek Way,77584,29.5687752,-95.3763484
10014,Chestnut Creek Way,77584,29.5683611,-95.3755991
10107,Brookshore Lane,77584,29.5660948,-95.3767182
10012,Forest Spring Lane,77584,29.5691813,-95.3745357
9914,Camelots Court,77584,29.5654436,-95.3732682
10202,Hidden Falls Drive,77584,29.5670893,-95.3778005
10106,Erin Glen Way,77584,29.5665442,-95.3765186
10111,Chestnut Creek Way,77584,29.5685277,-95.3771017
2414,Appian Way,77584,29.5661888,-95.3787636
10005,Chestnut Creek Way,77584,29.5687165,-95.3740159
10008,Forest Spring Lane,77584,29.5692278,-95.3741067
9913,King Authors Court,77584,29.5679737,-95.3734020
9806,King Authors Court,77584,29.5673740,-95.3715451
10101,Chestnut Creek Way,77584,29.5687971,-95.3761564
10203,Hidden Falls Drive,77584,29.5675191,-95.3779995
10001,Brookshore Lane,77584,29.5664790,-95.3743632
9906,Camelots Court,77584,29.5656251,-95.3729374
10011,Erin Glen Way,77584,29.5672456,-95.3748113
9809,Excaliburs Court,77584,29.5670151,-95.3718832
10202,Forest Spring Lane,77584,29.5687123,-95.3777985
10002,Brookshore Lane,77584,29.5666233,-95.3738680
10018,Brookshore Lane,77584,29.5659878,-95.3753102
10101,Brookshore Lane,77584,29.5662997,-95.3760146
9806,Camelots Court,77584,29.5656437,-95.3715507
9901,Autumn Lake Trail,77584,29.5656534,-95.3738882
10205,Brookshore Lane,77584,29.5659270,-95.3783127
10012,Chestnut Creek Way,77584,29.5683652,-95.3754023
10112,Brookshore Lane,77584,29.5654894,-95.3777275
10201,Chestnut Creek Way,77584,29.5683636,-95.3778224
9805,King Authors Court,77584,29.5678668,-95.3715697
9905,Autumn Lake Trail,77584,29.5656695,-95.3743532
10004,Erin Glen Way,77584,29.5667630,-95.3746078
10004,Chestnut Creek Way,77584,29.5683687,-95.3745851
2404,Appian Way,77584,29.5670128,-95.3788281
10104,Forest Spring Lane,77584,29.5691159,-95.3762384
10026,Forest Spring Lane,77584,29.5691569,-95.3758491
10206,Hidden Falls Drive,77584,29.5670758,-95.3781867
10021,Chestnut Creek Way,77584,29.5688283,-95.3755711
9821,Camelots Court,77584,29.5661092,-95.3722045
10008,Brookshore Lane,77584,29.5660236,-95.3740621
10206,Chestnut Creek Way,77584,29.5678729,-95.3782011
10028,Hidden Falls Drive,77584,29.5675343,-95.3759154
10205,Hidden Falls Drive,77584,29.5675328,-95.3781792
10207,Forest Spring Lane,77584,29.5691368,-95.3782226
10107,Chestnut Creek Way,77584,29.5686684,-95.3767527
10115,Forest Spring Lane,77584,29.5692785,-95.3774710
2312,Appian Way,77584,29.5685020,-95.3788773
9829,King Authors Court,77584,29.5679339,-95.3726247
10006,Erin Glen Way,77584,29.5667929,-95.3748531
10113,Brookshore Lane,77584,29.5659674,-95.3773465
10209,Forest Spring Lane,77584,29.5691024,-95.3784274
2406,Appian Way,77584,29.5668482,-95.3787834
10003,Erin Glen Way,77584,29.5670556,-95.3739058
10016,Brookshore Lane,77584,29.5659686,-95.3750598
10104,Brookshore Lane,77584,29.5655347,-95.3769473
10110,Forest Spring Lane,77584,29.5689730,-95.3768383
10002,Hidden Falls Drive,77584,29.5682316,-95.3739391
10018,Forest Spring Lane,77584,29.5691805,-95.3751042
10103,Erin Glen Way,77584,29.5670358,-95.3764216
10010,Chestnut Creek Way,77584,29.5683881,-95.3751999
10204,Chestnut Creek Way,77584,29.5678584,-95.3779904
2320,Appian Way,77584,29.5678426,-95.3788177
10008,Erin Glen Way,77584,29.5667880,-95.3751094
10207,Chestnut Creek Way,77584,29.5683058,-95.3784035
10102,Chestnut Creek Way,77584,29.5682803,-95.3761940
10201,Forest Spring Lane,77584,29.5692504,-95.3776601
10001,Erin Glen Way,77584,29.5668245,-95.3738670
10112,Chestnut Creek Way,77584,29.5680165,-95.3771617
10005,Brookshore Lane,77584,29.5664316,-95.3748403
10112,Erin Glen Way,77584,29.5663702,-95.3771061
10002,Erin Glen Way,77584,29.5667731,-95.3743767
10008,Chestnut Creek Way,77584,29.5683660,-95.3749852
10109,Chestnut Creek Way,77584,29.5686068,-95.3769113
10204,Brookshore Lane,77584,29.5654547,-95.3781031
2418,Appian Way,77584,29.5658591,-95.3787592
10108,Brookshore Lane,77584,29.5654822,-95.3773346
10113,Chestnut Creek Way,77584,29.5684712,-95.3772705
10004,Brookshore Lane,77584,29.5664183,-95.3739023
10108,Erin Glen Way,77584,29.5664831,-95.3767017
10006,Forest Spring Lane,77584,29.5694141,-95.3739510
10104,Erin Glen Way,77584,29.5665970,-95.3763095
9813,King Authors Court,77584,29.5679034,-95.3719302
9821,King Authors Court,77584,29.5678470,-95.3722838
10106,Forest Spring Lane,77584,29.5690881,-95.3764389
2302,Appian Way,77584,29.5693319,-95.3788960
9805,Excaliburs Court,77584,29.5670146,-95.3715015
10003,Brookshore Lane,77584,29.5664311,-95.3746036
10014,Forest Spring Lane,77584,29.5691911,-95.3747326
10107,Hidden Falls Drive,77584,29.5676917,-95.3770315
10013,Chestnut Creek Way,77584,29.5688495,-95.3748214
10013,Hidden Falls Drive,77584,29.5680113,-95.3755284
2311,May Court,77584,29.5691391,-95.3795143
10010,Erin Glen Way,77584,29.5667702,-95.3753560
9829,Excaliburs Court,77584,29.5669381,-95.3725832
9814,King Authors Court,77584,29.5673805,-95.3719602
10115,Erin Glen Way,77584,29.5667433,-95.3775658
10005,Autumn Lake Trail,77584,29.5656234,-95.3753073
10017,Chestnut Creek Way,77584,29.5688021,-95.3752077
9822,Camelots Court,77584,29.5656360,-95.3721995
9830,Excaliburs Court,77584,29.5665310,-95.3725912
9905,King Authors Court,77584,29.5678918,-95.3729423
10112,Forest Spring Lane,77584,29.5689207,-95.3770083
2410,Appian Way,77584,29.5665158,-95.3787882
10208,Hidden Falls Drive,77584,29.5670704,-95.3783675
10003,Autumn Lake Trail,77584,29.5656503,-95.3750598
10020,Brookshore Lane,77584,29.5659403,-95.3756025
10202,Brookshore Lane,77584,29.5654759,-95.3779141
2316,Appian Way,77584,29.5681713,-95.3788590
9806,Excaliburs Court,77584,29.5665183,-95.3715431
10018,Chestnut Creek Way,77584,29.5683238,-95.3760056
10110,Chestnut Creek Way,77584,29.5680994,-95.3769817
10004,Hidden Falls Drive,77584,29.5680729,-95.3739289
10103,Hidden Falls Drive,77584,29.5678390,-95.3766715
10006,Chestnut Creek Way,77584,29.5683661,-95.3747812
10009,Hidden Falls Drive,77584,29.5680245,-95.3751418
10104,Hidden Falls Drive,77584,29.5673877,-95.3764921
10205,Erin Glen Way,77584,29.5667347,-95.3781475
2306,Appian Way,77584,29.5689964,-95.3788768
10014,Autumn Lake Trail,77584,29.5653594,-95.3762729
10016,Forest Spring Lane,77584,29.5691753,-95.3749100
2408,Appian Way,77584,29.5666819,-95.3787794
10018,Hidden Falls Drive,77584,29.5675674,-95.3749526
10015,Chestnut Creek Way,77584,29.5688271,-95.3750128
10117,Brookshore Lane,77584,29.5659499,-95.3777451
10204,Erin Glen Way,77584,29.5662612,-95.3781194
9814,Camelots Court,77584,29.5655682,-95.3718684
10105,Hidden Falls Drive,77584,29.5677674,-95.3768593
9906,King Authors Court,77584,29.5673533,-95.3729925
10111,Brookshore Lane,77584,29.5660122,-95.3771524
2402,Appian Way,77584,29.5671737,-95.3788057
10007,Chestnut Creek Way,77584,29.5688594,-95.3742374
10019,Chestnut Creek Way,77584,29.5688270,-95.3753823
10019,Erin Glen Way,77584,29.5671852,-95.3757938
10022,Hidden Falls Drive,77584,29.5675873,-95.3753366
10203,Forest Spring Lane,77584,29.5691863,-95.3778320
10118,Forest Spring Lane,77584,29.5687422,-95.3775888
2326,Appian Way,77584,29.5673401,-95.3788218
10203,Erin Glen Way,77584,29.5667140,-95.3779660
10206,Erin Glen Way,77584,29.5662518,-95.3783204
10205,Forest Spring Lane,77584,29.5691404,-95.3780277
2322,Appian Way,77584,29.5676773,-95.3788334
10116,Chestnut Creek Way,77584,29.5679096,-95.3775647
10116,Forest Spring Lane,77584,29.5687909,-95.3773866
10203,Chestnut Creek Way,77584,29.5683328,-95.3780224
10202,Chestnut Creek Way,77584,29.5678995,-95.3777982
10206,Brookshore Lane,77584,29.5654483,-95.3782880
10113,Erin Glen Way,77584,29.5667641,-95.3773417
2324,Appian Way,77584,29.5675069,-95.3788007
3123,Flower Field Lane,77584,29.5822673,-95.3731372
