House number,Street name,Postal code,Latitude,Longitude
3401,Olton Road,79072,34.1851736,-101.7447285
3409,Olton Road,79072,34.1852341,-101.7449168
3413,Olton Road,79072,34.1852878,-101.7450988
3421,Olton Road,79072,34.1854699,-101.7457368
3423,Olton Road,79072,34.1854984,-101.7458176
3433,Olton Road,79072,34.1855681,-101.7460910
3435,Olton Road,79072,34.1856122,-101.7462406
2608,Olton Road,79072,34.1854907,-101.7355352
2608,Olton Road,79072,34.1855020,-101.7354099
2405,West 5th Street,79072,34.1842985,-101.7327360
2403,West 5th Street,79072,34.1842668,-101.7325829
2105,Dimmitt Road,79072,34.2030973,-101.7269350
2309,Columbia Street,79072,34.2060172,-101.7100950
3101,Olton Road,79072,34.1847655,-101.7407724
3101,Olton Road,79072,34.1847255,-101.7408160
1001,Interstate Highway,79072,34.1927556,-101.7511083
1123,North Interstate 27,79072,34.1919207,-101.7511104
113,East 10th Street,79072,34.1910497,-101.7020460
3200,Olton Road,79072,34.1860283,-101.7420930
3200,Olton Road,79072,34.1861258,-101.7421324
3400,Olton Road,79072,34.1866846,-101.7447008
3404,Olton Road,79072,34.1867930,-101.7451213
825,North Austin Street,79072,34.1894190,-101.7047521
909,El Paso Street,79072,34.1901990,-101.7096356
1003,North Interstate 27,79072,34.1903292,-101.7507957
1100,North Interstate 27,79072,34.1912487,-101.7489204
1108,North Interstate 27,79072,34.1917698,-101.7492534
1208,North Interstate 27,79072,34.1930848,-101.7489641
1300,North Interstate 27,79072,34.1945272,-101.7488979
4001,15th Street,79072,34.1946807,-101.7509326
1509,North Interstate 27,79072,34.1952558,-101.7507892
1515,North Interstate 27,79072,34.1958762,-101.7507647
1501,North Interstate 27,79072,34.1960713,-101.7532252
3400,West 4th Street,79072,34.1810139,-101.7458673
2902,West 4th Street,79072,34.1793068,-101.7379520
1900,West 7th Street,79072,34.1878397,-101.7294408
2601,Dimmitt Road,79072,34.2066505,-101.7324073
3305,Olton Road,79072,34.1848988,-101.7441640
3501,Olton Road,79072,34.1855068,-101.7467397
3311,Olton Road,79072,34.1850119,-101.7445738
3701,Olton Road,79072,34.1867864,-101.7490451
4002,Olton Road,79072,34.1884376,-101.7509272
4004,Olton Road,79072,34.1885611,-101.7518237
815,North Interstate 27,79072,34.1888576,-101.7509683
909,North Interstate 27,79072,34.1892124,-101.7509224
911,North Interstate 27,79072,34.1894867,-101.7509771
908,North Interstate 27,79072,34.1896241,-101.7490862
4001,Olton Road,79072,34.1873730,-101.7509891
701,North Interstate 27,79072,34.1866106,-101.7510180
4005,Olton Road,79072,34.1870841,-101.7517720
4009,Olton Road,79072,34.1877095,-101.7520237
4101,Olton Road,79072,34.1876209,-101.7524689
4411,Olton Road,79072,34.1881516,-101.7553354
4605,Olton Road,79072,34.1887301,-101.7575549
4710,Olton Road,79072,34.1901205,-101.7588315
1001,North Interstate 27,79072,34.1893948,-101.7539901
3615,Grandview Drive,79072,34.1847211,-101.7487763
600,North Interstate 27,79072,34.1856697,-101.7487213
3110,Olton Road,79072,34.1857868,-101.7413748
3000,Olton Road,79072,34.1855648,-101.7396852
3010,Olton Road,79072,34.1855779,-101.7403465
3009,West 7th Street,79072,34.1859584,-101.7401972
3201,Olton Road,79072,34.1848730,-101.7422503
3101,Olton Road,79072,34.1847696,-101.7407766
3001,Olton Road,79072,34.1847428,-101.7396460
2909,Olton Road,79072,34.1848550,-101.7390635
2910,Olton Road,79072,34.1855705,-101.7390751
2901,Olton Road,79072,34.1847014,-101.7384713
2803,Olton Road,79072,34.1837597,-101.7376472
2715,Olton Road,79072,34.1845194,-101.7361818
2801,Olton Road,79072,34.1848309,-101.7370322
2620,Olton Road,79072,34.1857093,-101.7364870
2804,Olton Road,79072,34.1855798,-101.7374374
2702,Olton Road,79072,34.1856040,-101.7357330
2602,Olton Road,79072,34.1854870,-101.7348150
2603,Olton Road,79072,34.1846103,-101.7352634
2601,Olton Road,79072,34.1845610,-101.7347622
2509,West 5th Street,79072,34.1845668,-101.7340586
2510,West 5th Street,79072,34.1850510,-101.7334444
2407,West 5th Street,79072,34.1842787,-101.7328793
2401,West 5th Street,79072,34.1839803,-101.7321126
2301,West 5th Street,79072,34.1837954,-101.7310442
2110,West 5th Street,79072,34.1843895,-101.7288911
500,Broadway Street,79072,34.1851195,-101.7023800
225,Broadway Street,79072,34.1815972,-101.7036536
106,West 2nd Street,79072,34.1808318,-101.7039087
203,Austin Street,79072,34.1809461,-101.7045333
201,Austin Street,79072,34.1808085,-101.7045095
2400,Jefferson Drive,79072,34.2049247,-101.7506677
2402,Jefferson Drive,79072,34.2051207,-101.7505634
2404,Jefferson Drive,79072,34.2053189,-101.7504445
2405,Magan Street,79072,34.2050919,-101.7501147
2403,Magan Street,79072,34.2049823,-101.7498996
2401,Magan Street,79072,34.2049070,-101.7496403
2414,Magan Street,79072,34.2056927,-101.7502559
2412,Magan Street,79072,34.2056237,-101.7500372
2410,Magan Street,79072,34.2055198,-101.7498419
2408,Magan Street,79072,34.2054232,-101.7496299
2406,Magan Street,79072,34.2053563,-101.7494172
2404,Magan Street,79072,34.2052598,-101.7492169
2402,Magan Street,79072,34.2051194,-101.7489874
2400,Magan Street,79072,34.2049040,-101.7488496
2509,Jefferson Drive,79072,34.2063462,-101.7504084
2507,Jefferson Drive,79072,34.2061559,-101.7505456
2503,Jefferson Drive,79072,34.2059887,-101.7506626
2501,Jefferson Drive,79072,34.2058177,-101.7507828
2411,Jefferson Drive,79072,34.2056573,-101.7508835
2409,Jefferson Drive,79072,34.2054961,-101.7509644
2407,Jefferson Drive,79072,34.2053388,-101.7510587
2405,Jefferson Drive,79072,34.2052036,-101.7511624
2403,Jefferson Drive,79072,34.2050616,-101.7513389
3507,West 25th Street,79072,34.2050376,-101.7465160
3505,West 25th Street,79072,34.2050359,-101.7462632
3503,West 25th Street,79072,34.2050056,-101.7460159
3501,West 25th Street,79072,34.2050279,-101.7457528
3407,West 25th Street,79072,34.2050414,-101.7454732
3405,West 25th Street,79072,34.2050593,-101.7452292
3401,West 25th Street,79072,34.2050258,-101.7447643
3400,Garland Street,79072,34.2087360,-101.7451713
2503,Garland Street,79072,34.2056277,-101.7448013
3402,West 25th Street,79072,34.2055050,-101.7449326
3400,West 25th Street,79072,34.2055177,-101.7447996
2507,Garland Street,79072,34.2059385,-101.7448462
2505,Garland Street,79072,34.2058042,-101.7449124
2511,Garland Street,79072,34.2062820,-101.7448596
2509,Garland Street,79072,34.2061498,-101.7449218
3713,Sides Street,79072,34.2061101,-101.7500224
3711,Sides Street,79072,34.2060308,-101.7498126
3709,Sides Street,79072,34.2059442,-101.7496127
3707,Sides Street,79072,34.2058678,-101.7494328
3705,Sides Street,79072,34.2057567,-101.7492461
3703,Sides Street,79072,34.2056938,-101.7490761
3701,Sides Street,79072,34.2055721,-101.7488664
3617,Sides Street,79072,34.2054500,-101.7486799
3615,Sides Street,79072,34.2053440,-101.7485647
3613,Sides Street,79072,34.2051926,-101.7483800
3611,Sides Street,79072,34.2051005,-101.7481803
3609,Sides Street,79072,34.2050548,-101.7479307
3607,Sides Street,79072,34.2050112,-101.7477104
3603,West 25th Street,79072,34.2050167,-101.7472505
3601,West 25th Street,79072,34.2050376,-101.7470063
3712,Sides Street,79072,34.2065341,-101.7497277
3710,Sides Street,79072,34.2064474,-101.7495631
3708,Sides Street,79072,34.2063663,-101.7493375
3706,Sides Street,79072,34.2062942,-101.7491589
3704,Sides Street,79072,34.2061924,-101.7489694
3702,Sides Street,79072,34.2060823,-101.7487733
3700,Sides Street,79072,34.2060097,-101.7485432
3612,Sides Street,79072,34.2059268,-101.7483622
3610,Sides Street,79072,34.2057718,-101.7482198
3608,Sides Street,79072,34.2056135,-101.7480224
3606,Sides Street,79072,34.2055356,-101.7477992
3604,Sides Street,79072,34.2055048,-101.7475983
2710,Holliday Street,79072,34.2083753,-101.7489407
2708,Holliday Street,79072,34.2082679,-101.7487135
2706,Holliday Street,79072,34.2081356,-101.7485612
2702,Holliday Street,79072,34.2079921,-101.7481937
2700,Holliday Street,79072,34.2078728,-101.7479840
2713,Jefferson Drive,79072,34.2083608,-101.7492112
2709,Jefferson Drive,79072,34.2080498,-101.7494270
2707,Jefferson Drive,79072,34.2078647,-101.7495016
2705,Jefferson Drive,79072,34.2077178,-101.7495894
2703,Jefferson Drive,79072,34.2075299,-101.7496651
2701,Jefferson Drive,79072,34.2073469,-101.7497787
2607,Jefferson Drive,79072,34.2071872,-101.7499296
2605,Jefferson Drive,79072,34.2070263,-101.7500173
2603,Jefferson Drive,79072,34.2068395,-101.7501230
2601,Jefferson Drive,79072,34.2066636,-101.7502355
2709,Holliday Street,79072,34.2077324,-101.7489806
2705,Holliday Street,79072,34.2075820,-101.7485679
2703,Holliday Street,79072,34.2074878,-101.7483642
2701,Holliday Street,79072,34.2074075,-101.7481430
2607,Holliday Street,79072,34.2073180,-101.7479008
2603,Holliday Street,79072,34.2071994,-101.7476415
2601,Holliday Street,79072,34.2070372,-101.7473578
2606,Holliday Street,79072,34.2076976,-101.7475876
2604,Holliday Street,79072,34.2075986,-101.7473529
2602,Holliday Street,79072,34.2075131,-101.7471096
2600,Holliday Street,79072,34.2073928,-101.7468966
2708,Itasca Street,79072,34.2073818,-101.7492204
2706,Itasca Street,79072,34.2072791,-101.7490451
2704,Itasca Street,79072,34.2071942,-101.7488452
2702,Itasca Street,79072,34.2071228,-101.7486959
2700,Itasca Street,79072,34.2070651,-101.7485087
2608,Itasca Street,79072,34.2069803,-101.7483254
2606,Itasca Street,79072,34.2068627,-101.7481378
2604,Itasca Street,79072,34.2067908,-101.7479689
2602,Itasca Street,79072,34.2067227,-101.7477727
2600,Itasca Street,79072,34.2066773,-101.7475753
2709,Itasca Street,79072,34.2069176,-101.7494985
2707,Itasca Street,79072,34.2068480,-101.7493219
2705,Itasca Street,79072,34.2067825,-101.7491218
2703,Itasca Street,79072,34.2066930,-101.7489444
2701,Itasca Street,79072,34.2066286,-101.7487377
2609,Itasca Street,79072,34.2065328,-101.7485442
2607,Itasca Street,79072,34.2064361,-101.7483658
2605,Itasca Street,79072,34.2063716,-101.7481480
2603,Itasca Street,79072,34.2062844,-101.7479698
2601,Itasca Street,79072,34.2061668,-101.7477797
2509,Itasca Street,79072,34.2061133,-101.7475832
2507,Itasca Street,79072,34.2059949,-101.7473930
2505,Itasca Street,79072,34.2058660,-101.7471609
2503,Itasca Street,79072,34.2056611,-101.7470624
2501,Itasca Street,79072,34.2054521,-101.7470544
2512,Itasca Street,79072,34.2064788,-101.7471854
2510,Itasca Street,79072,34.2063817,-101.7469819
2508,Itasca Street,79072,34.2062681,-101.7467822
2506,Itasca Street,79072,34.2061126,-101.7466163
2504,Itasca Street,79072,34.2059026,-101.7464834
2502,Itasca Street,79072,34.2056888,-101.7464637
2500,Itasca Street,79072,34.2054761,-101.7464689
2519,Holliday Street,79072,34.2068639,-101.7469574
2517,Holliday Street,79072,34.2067964,-101.7467200
2515,Holliday Street,79072,34.2066982,-101.7465148
2513,Holliday Street,79072,34.2066024,-101.7463124
2511,Holliday Street,79072,34.2065056,-101.7461156
2509,Holliday Street,79072,34.2063235,-101.7460087
2507,Holliday Street,79072,34.2061334,-101.7459534
2505,Holliday Street,79072,34.2059103,-101.7459329
2503,Holliday Street,79072,34.2056991,-101.7459406
2501,Holliday Street,79072,34.2054790,-101.7459285
2522,Holliday Street,79072,34.2073157,-101.7466918
2520,Holliday Street,79072,34.2072044,-101.7464660
2518,Holliday Street,79072,34.2070830,-101.7461962
2516,Holliday Street,79072,34.2069932,-101.7459880
2514,Holliday Street,79072,34.2069201,-101.7457587
2512,Holliday Street,79072,34.2067618,-101.7455835
2510,Holliday Street,79072,34.2066054,-101.7454283
2508,Holliday Street,79072,34.2063295,-101.7453706
2506,Holliday Street,79072,34.2061309,-101.7453630
2504,Holliday Street,79072,34.2059494,-101.7453411
2502,Holliday Street,79072,34.2057256,-101.7453556
2500,Holliday Street,79072,34.2054908,-101.7453636
2401,North Interstate 27,79072,34.2052385,-101.7420356
3100,North Interstate 27,79072,34.2111398,-101.7302125
10,Miller Boulevard,79072,34.1679952,-101.7181958
3301,Quincy Street,79072,34.2141001,-101.7271530
800,Itasca Road,79072,34.1877865,-101.7441625
802,Itasca Road,79072,34.1878515,-101.7444110
804,Itasca Road,79072,34.1879030,-101.7446765
808,Itasca Road,79072,34.1879785,-101.7449210
810,Itasca Road,79072,34.1880600,-101.7451880
812,Itasca Road,79072,34.1881072,-101.7454245
814,Itasca Road,79072,34.1882250,-101.7456985
818,Itasca Road,79072,34.1884074,-101.7458176
820,Itasca Road,79072,34.1886055,-101.7459075
822,Itasca Road,79072,34.1888395,-101.7459135
900,Itasca Road,79072,34.1890705,-101.7458710
902,Itasca Road,79072,34.1892700,-101.7459200
904,Itasca Road,79072,34.1895245,-101.7459145
906,Itasca Road,79072,34.1897695,-101.7458975
3333,West 11th Street,79072,34.1908288,-101.7437719
916,Denver Street,79072,34.1904715,-101.7078265
2801,Dimmitt Road,79072,34.2085306,-101.7357555
809,North Interstate 27,79072,34.1884785,-101.7485591
1001,North Interstate 27,79072,34.1930555,-101.7509889
104,North Interstate 27,79072,34.1780889,-101.7497013
221,South Interstate 27,79072,34.1767532,-101.7494359
3401,Southwest 3rd Street,79072,34.1751838,-101.7447931
405,South Interstate 27,79072,34.1743772,-101.7493601
501,South Interstate 27,79072,34.1726808,-101.7489775
600,South Ennis Street,79072,34.1719451,-101.7426500
410,South Garland Street,79072,34.1736345,-101.7441485
3605,Olton Road,79072,34.1863276,-101.7475308
3301,Olton Road,79072,34.1850443,-101.7433667
1115,North Interstate 27,79072,34.1919725,-101.7515610
1700,North Interstate 27,79072,34.1992584,-101.7465227
1800,North Interstate 27,79072,34.2002983,-101.7451276
2000,North Interstate 27,79072,34.2019766,-101.7434909
2200,West 20th Street,79072,34.2031690,-101.7322405
2600,West 20th Street,79072,34.2026053,-101.7352973
2401,Dimmitt Road,79072,34.2051267,-101.7294048
1920,West 24th Street,79072,34.2057392,-101.7261745
2501,Joliet Street,79072,34.2060057,-101.7173740
2800,West 24th Street,79072,34.2051665,-101.7374989
404,West 5th Street,79072,34.1851177,-101.7073028
310,West 5th Street,79072,34.1849802,-101.7064091
501,West 5th Street,79072,34.1841980,-101.7086976
205,West 5th Street,79072,34.1841067,-101.7047907
201,West 6th Street,79072,34.1853074,-101.7046794
401,West 5th Street,79072,34.1841305,-101.7071413
201,Amarillo Street,79072,34.1824676,-101.7370282
1000,North Interstate 27,79072,34.1903266,-101.7488168
3614,Olton Road,79072,34.1877609,-101.7490390
3612,Olton Road,79072,34.1876844,-101.7487428
700,Garland Street,79072,34.1878908,-101.7431837
3414,Olton Road,79072,34.1870925,-101.7461670
3412,Olton Road,79072,34.1870423,-101.7459932
3416,Olton Road,79072,34.1871382,-101.7463192
3408,Olton Road,79072,34.1869639,-101.7457380
3420,Olton Road,79072,34.1872636,-101.7464110
3422,Olton Road,79072,34.1872459,-101.7465909
2500,West 20th Street,79072,34.2035947,-101.7331309
2209,West 24th Street,79072,34.2045071,-101.7309547
2610,West 20th Street,79072,34.2020352,-101.7360349
2102,West 20th Street,79072,34.2018321,-101.7301461
2100,West 20th Street,79072,34.2018225,-101.7299413
2101,Utica Street,79072,34.2029495,-101.7302682
2207,West 24th Street,79072,34.2045588,-101.7306425
2301,Utica Street,79072,34.2039676,-101.7302088
2002,Quincy Street,79072,34.2015924,-101.7244074
2510,West 24th Street,79072,34.2052578,-101.7341220
2503,Dimmitt Road,79072,34.2064412,-101.7312625
2620,Yonkers Street,79072,34.2075250,-101.7349143
2500,West 26th Street,79072,34.2075948,-101.7340772
315,Southwest Alpine Drive,79072,34.1673384,-101.7049084
201,North Interstate 27,79072,34.1787779,-101.7510800
105,North Interstate 27,79072,34.1778560,-101.7514975
4211,West 2nd Street,79072,34.1782035,-101.7530551
4304,West 2nd Street,79072,34.1787953,-101.7541967
200,South Interstate 27,79072,34.1763535,-101.7515444
807,Garland Street,79072,34.1897928,-101.7441907
805,Garland Street,79072,34.1895118,-101.7441918
803,Garland Street,79072,34.1892263,-101.7441738
812,Holiday Street,79072,34.1898100,-101.7447105
812,Holiday Street,79072,34.1896024,-101.7447229
810,Holiday Street,79072,34.1893723,-101.7447480
806,Holiday Street,79072,34.1891441,-101.7447303
804,Holiday Street,79072,34.1889220,-101.7446168
802,Holiday Street,79072,34.1888640,-101.7443681
800,Holiday Street,79072,34.1888168,-101.7441559
3605,West 10th Street,79072,34.1897168,-101.7470258
905,Itasca Road,79072,34.1897312,-101.7465333
903,Itasca Road,79072,34.1895109,-101.7464996
901,Itasca Road,79072,34.1892705,-101.7465215
903,Jefferson Drive,79072,34.1888230,-101.7469789
905,Jefferson Drive,79072,34.1889145,-101.7472054
907,Jefferson Drive,79072,34.1889823,-101.7474780
909,Jefferson Drive,79072,34.1890658,-101.7477554
911,Jefferson Drive,79072,34.1892280,-101.7479666
913,Jefferson Drive,79072,34.1894775,-101.7481258
915,Jefferson Drive,79072,34.1897063,-101.7481044
3314,Olton Road,79072,34.1866329,-101.7436940
3316,Olton Road,79072,34.1866672,-101.7438175
3318,Olton Road,79072,34.1866851,-101.7438836
3220,Olton Road,79072,34.1864309,-101.7429746
3210,Olton Road,79072,34.1863429,-101.7426624
823,Itasca Road,79072,34.1887406,-101.7465208
821,Itasca Road,79072,34.1885366,-101.7464700
819,Itasca Road,79072,34.1882781,-101.7465276
817,Itasca Road,79072,34.1879891,-101.7464023
815,Itasca Road,79072,34.1878309,-101.7461583
813,Itasca Road,79072,34.1877376,-101.7458557
811,Itasca Road,79072,34.1876739,-101.7455931
809,Itasca Road,79072,34.1875965,-101.7453308
807,Itasca Road,79072,34.1875055,-101.7450591
805,Itasca Road,79072,34.1874330,-101.7447979
803,Itasca Road,79072,34.1873748,-101.7445265
801,Itasca Road,79072,34.1873068,-101.7442738
819,Holiday Street,79072,34.1897741,-101.7453596
817,Holiday Street,79072,34.1895559,-101.7453401
815,Holiday Street,79072,34.1893358,-101.7453204
813,Holiday Street,79072,34.1891305,-101.7453489
811,Holiday Street,79072,34.1888471,-101.7452698
809,Holiday Street,79072,34.1886265,-101.7451363
807,Holiday Street,79072,34.1885232,-101.7448710
805,Holiday Street,79072,34.1884272,-101.7446136
803,Holiday Street,79072,34.1883524,-101.7443940
801,Holiday Street,79072,34.1882726,-101.7441369
800,Ennis Street,79072,34.1876428,-101.7406080
313,Ennis Street,79072,34.1814609,-101.7424548
3605,Southwest 3rd Street,79072,34.1751383,-101.7462309
400,South Garland Street,79072,34.1743693,-101.7441987
310,South Ennis Street,79072,34.1742352,-101.7424521
300,South Ennis Street,79072,34.1753221,-101.7420297
2800,Southwest 3rd Street,79072,34.1753131,-101.7390642
3301,Southwest 8th Street,79072,34.1701622,-101.7431364
3309,Southwest 8th Street,79072,34.1680961,-101.7428788
701,South Ennis Street,79072,34.1711293,-101.7389052
1100,South Interstate 27,79072,34.1670048,-101.7505934
1200,South Interstate 27,79072,34.1659129,-101.7502567
1205,South Interstate 27,79072,34.1658295,-101.7487842
1301,South Interstate 27,79072,34.1647710,-101.7485076
1407,South Interstate 27,79072,34.1629219,-101.7473246
1409,South Interstate 27,79072,34.1623401,-101.7477705
3115,West 10th Street,79072,34.1898868,-101.7415693
1707,West 11th Street,79072,34.1911057,-101.7238310
1114,Nassau Street,79072,34.1929447,-101.7204636
810,West 12th Street,79072,34.1931048,-101.7124330
1114,Houston Street,79072,34.1930450,-101.7129623
1201,Galveston Street,79072,34.1939372,-101.7127163
808,North Columbia Street,79072,34.1890535,-101.7065047
302,West 8th Street,79072,34.1885869,-101.7059724
205,West 8th Street,79072,34.1879462,-101.7047530
908,Ash Street,79072,34.1903396,-101.7007521
1004,Broadway Street,79072,34.1911493,-101.7027383
900,North Date Street,79072,34.1899883,-101.6976718
400,East 5th Street,79072,34.1841845,-101.6988729
501,North Date Street,79072,34.1850246,-101.6974637
3401,North Interstate 27,79072,34.2148777,-101.7323937
3014,Dimmitt Road,79072,34.2131701,-101.7383251
3201,North Interstate 27,79072,34.2129435,-101.7352885
3001,Dimmitt Road,79072,34.2116268,-101.7380973
1200,West 32nd Street,79072,34.2142922,-101.7191853
1100,West 32nd Street,79072,34.2131392,-101.7177734
3300,Kokomo Street,79072,34.2137131,-101.7179442
4213,13th Street,79072,34.1925800,-101.7542946
108,West 9th Street,79072,34.1899107,-101.7039865
1900,South Columbia Street,79072,34.1623708,-101.7076558
1103,Baltimore Street,79072,34.1927170,-101.7059541
3404,Southwest 5th Street,79072,34.1738415,-101.7449700
