House number,Street name,Postal code,Latitude,Longitude
1018,Hillcrest Street,76945,31.9036783,-100.4933183
1106,Hillcrest Street,76945,31.9043540,-100.4936553
1109,West 11th Street,76945,31.9048547,-100.4932115
1211,West 12th Street,76945,31.9064666,-100.4926884
1201,West 12th Street,76945,31.9057040,-100.4923054
724,Hillcrest Street,76945,31.9008025,-100.4917593
809,West 11th Street,76945,31.9019490,-100.4917566
805,West 11th Street,76945,31.9016696,-100.4916257
1102,Hillcrest Street,76945,31.9040654,-100.4934983
1010,West 11th Street,76945,31.9040435,-100.4922099
1006,West 11th Street,76945,31.9038082,-100.4920872
810,West 11th Street,76945,31.9021199,-100.4912320
1110,Ivey Avenue,76945,31.9012540,-100.4906304
802,Hillcrest Street,76945,31.9012489,-100.4919886
801,West 11th Street,76945,31.9013905,-100.4914960
801,West 12th Street,76945,31.9018941,-100.4904389
809,West 12th Street,76945,31.9023242,-100.4907941
902,Hillcrest Street,76945,31.9021976,-100.4925794
901,West 11th Street,76945,31.9024276,-100.4919723
1102,West 11th Street,76945,31.9045207,-100.4924454
1006,Hillcrest Street,76945,31.9033017,-100.4931412
1012,Hillcrest Street,76945,31.9034936,-100.4932175
1013,West 11th Street,76945,31.9036156,-100.4926142
1001,West 12th Street,76945,31.9037607,-100.4913600
1110,Hillcrest Street,76945,31.9045882,-100.4937786
1009,West 12th Street,76945,31.9042708,-100.4916128
1109,West 12th Street,76945,31.9052328,-100.4920747
1105,West 12th Street,76945,31.9049826,-100.4919393
1101,West 12th Street,76945,31.9047370,-100.4918066
1101,West 11th Street,76945,31.9043214,-100.4929432
1209,West 12th Street,76945,31.9062288,-100.4925999
906,West 11th Street,76945,31.9028880,-100.4915394
913,West 11th Street,76945,31.9029485,-100.4922586
909,West 12th Street,76945,31.9033407,-100.4911570
910,West 11th Street,76945,31.9031121,-100.4917100
702,Hillcrest Street,76945,31.9003922,-100.4912319
821,Bishop Street,76945,31.8976602,-100.4905015
806,Bishop Street,76945,31.8970023,-100.4902931
307,West 8th Street,76945,31.8955775,-100.4896106
820,Alice Street,76945,31.8995370,-100.4925336
1202,West 11th Street,76945,31.9054532,-100.4929144
1208,West 11th Street,76945,31.9057094,-100.4930377
1210,West 11th Street,76945,31.9059996,-100.4931814
1205,West 12th Street,76945,31.9059710,-100.4924421
1110,West 11th Street,76945,31.9050377,-100.4926950
1106,West 11th Street,76945,31.9047871,-100.4925432
1105,West 11th Street,76945,31.9045629,-100.4930542
914,Hillcrest Street,76945,31.9026112,-100.4927841
902,West 11th Street,76945,31.9025988,-100.4914078
819,Commerce Street,76945,31.8944496,-100.4842431
6,East 7th Street,76945,31.8932093,-100.4856084
13,East 7th Street,76945,31.8925679,-100.4857794
821,Vicki Street,76945,31.8993423,-100.4919236
22,West 11th Street,76945,31.8974290,-100.4838965
801,Alice Street,76945,31.8989006,-100.4934951
805,Hillcrest Street,76945,31.9016680,-100.4931698
810,Hillcrest Street,76945,31.9017864,-100.4922203
806,Hillcrest Street,76945,31.9015118,-100.4921326
709,West 12th Street,76945,31.9013925,-100.4901593
806,West 11th Street,76945,31.9018748,-100.4910880
802,West 11th Street,76945,31.9016340,-100.4909276
1117,Austin Avenue,76945,31.9027671,-100.4909106
170,Park Road,76945,31.8955153,-100.4791224
814,Alice Street,76945,31.8993086,-100.4927299
605,West 9th Street,76945,31.8983550,-100.4917127
817,Alice Street,76945,31.8996257,-100.4929841
806,Vicki Street,76945,31.8984684,-100.4920269
901,Childress Street,76945,31.8985464,-100.4912309
825,Vicki Street,76945,31.8995556,-100.4918007
817,Vicki Street,76945,31.8991514,-100.4920115
802,Vicki Street,76945,31.8982683,-100.4921679
606,West 9th Street,76945,31.8986647,-100.4914122
809,Vicki Street,76945,31.8987951,-100.4923065
805,Vicki Street,76945,31.8986122,-100.4924601
825,Alice Street,76945,31.9000083,-100.4927373
801,Childress Street,76945,31.8976752,-100.4917708
826,Alice Street,76945,31.8997921,-100.4923323
803,Vicki Street,76945,31.8984562,-100.4925876
810,Alice Street,76945,31.8990837,-100.4928982
800,Vicki Street,76945,31.8981108,-100.4922601
813,Childress Street,76945,31.8980726,-100.4915100
610,West 9th Street,76945,31.8988651,-100.4917502
802,Alice Street,76945,31.8987376,-100.4930860
805,Alice Street,76945,31.8991384,-100.4933650
821,Childress Street,76945,31.8982352,-100.4914136
826,Vicki Street,76945,31.8993342,-100.4914284
806,Alice Street,76945,31.8989488,-100.4930031
1017,Hillcrest Street,76945,31.9032030,-100.4938512
1019,Hillcrest Street,76945,31.9034958,-100.4940815
700,Commerce Street,76945,31.8929102,-100.4842446
401,West 9th Street,76945,31.8965769,-100.4884715
803,Bishop Street,76945,31.8971729,-100.4909231
807,Bishop Street,76945,31.8974193,-100.4908586
809,Bishop Street,76945,31.8974411,-100.4906955
812,Childress Street,76945,31.8977181,-100.4912080
802,Childress Street,76945,31.8974245,-100.4914115
806,Childress Street,76945,31.8973957,-100.4911136
821,Alice Street,76945,31.8998327,-100.4928079
705,Bishop Street,76945,31.8963512,-100.4914754
704,Bishop Street,76945,31.8960806,-100.4909310
710,Bishop Street,76945,31.8964914,-100.4906390
708,Bishop Street,76945,31.8963586,-100.4907305
407,West 9th Street,76945,31.8971394,-100.4894712
409,West 9th Street,76945,31.8973159,-100.4898099
822,Bishop Street,76945,31.8973743,-100.4900318
901,Bishop Street,76945,31.8980351,-100.4901865
906,Childress Street,76945,31.8984826,-100.4906480
1201,West 11th Street,76945,31.9052750,-100.4934566
1005,Vanadore Avenue,76945,31.9050678,-100.4939185
820,Bishop Street,76945,31.8973021,-100.4900813
804,Bishop Street,76945,31.8969358,-100.4903421
706,Bishop Street,76945,31.8962630,-100.4907989
702,Bishop Street,76945,31.8959941,-100.4909972
902,Bishop Street,76945,31.8978071,-100.4896929
801,Bishop Street,76945,31.8971187,-100.4908115
805,Bishop Street,76945,31.8973368,-100.4909138
811,Bishop Street,76945,31.8973972,-100.4906094
810,Childress Street,76945,31.8976633,-100.4910966
808,Childress Street,76945,31.8974875,-100.4910508
804,Childress Street,76945,31.8973725,-100.4913054
509,West 9th Street,76945,31.8979107,-100.4910592
813,Vicki Street,76945,31.8989858,-100.4921675
1201,Hillcrest Street,76945,31.9041330,-100.4943608
1109,Hillcrest Street,76945,31.9038218,-100.4945879
1002,Hillcrest Street,76945,31.9031171,-100.4930435
1002,West 11th Street,76945,31.9035436,-100.4920030
1022,La Verne Avenue,76945,31.9038986,-100.4928110
21,East 6th Street,76945,31.8916405,-100.4862625
5,East 6th Street,76945,31.8917692,-100.4864862
3,East 6th Street,76945,31.8918404,-100.4867005
809,Commerce Street,76945,31.8941853,-100.4844858
710,Bishop Street,76945,31.8960916,-100.4904971
1323,Hamilton Street,76945,31.9017286,-100.4866907
621,Austin Street,76945,31.8930614,-100.4864994
