House number,Street name,Postal code,Latitude,Longitude
902,North Main Street,76903,31.4775707,-100.4312427
102,North Magdalen Street,76903,31.4668278,-100.4337030
218,North Oakes Street,76903,31.4681906,-100.4362207
2531,Smith Boulevard,76905,31.4797448,-100.3941976
630,South Oakes Street,76903,31.4534948,-100.4306480
625,Austin Street,76903,31.4544419,-100.4450961
3301,Sherwood Way,76901,31.4441998,-100.4778910
320,West Concho Avenue,76903,31.4583974,-100.4419719
320,West Concho Avenue,76903,31.4583644,-100.4420017
706,South Abe Street,76903,31.4541618,-100.4417534
4471,Sunset Boulevard,76901,31.4361174,-100.5022285
1624,South Chadbourne Street,76903,31.4439892,-100.4341301
800,W Ave D,76903,31.4546064,-100.4461605
3034,W Beauregard,76901,31.4449573,-100.4763860
7410,Knickerbocker Road,76904,31.3757219,-100.4885720
3231,College Hills Boulevard,76904,31.4299218,-100.4805008
1215,June Lane,76905,31.4833120,-100.3985351
1215,June Lane,76905,31.4832671,-100.3985279
5769,Sherwood Way,76901,31.4260553,-100.5141655
5150,Southland Boulevard,76904,31.4264325,-100.5117063
3123,Green Meadow Drive,76904,31.4192879,-100.4879636
18,East Washington Drive,76903,31.4527767,-100.4337880
214,W College Ave,76903,31.4638305,-100.4414511
1006,E 14th Street,76903,31.4803174,-100.4333821
39,West Concho Avenue,76903,31.4591635,-100.4370553
430,West Beauregard Avenue,76903,31.4602643,-100.4476483
3427,Johnson Avenue,76904,31.4261697,-100.4635800
4151,Sunset Drive,76904,31.4304335,-100.5007833
4153,Sunset Drive,76904,31.4306501,-100.5008179
4213,Sunset Drive,76904,31.4311775,-100.5022563
4209,Sunset Drive,76904,31.4311411,-100.5023488
4205,Sunset Drive,76904,31.4310803,-100.5024257
4214,College Hills Boulevard,76904,31.4211642,-100.4834093
4216,College Hills Boulevard,76904,31.4208952,-100.4836160
6005,Knickerbocker Road,76904,31.3948728,-100.4903342
6007,Knickerbocker Road,76904,31.3947148,-100.4904013
5582,Sherwood Way,76901,31.4296677,-100.5129153
5582,Sherwood Way,76901,31.4294488,-100.5132670
5582,Sherwood Way,76901,31.4295137,-100.5131741
5582,Sherwood Way,76901,31.4294061,-100.5133372
5582,Sherwood Way,76901,31.4295805,-100.5130784
5582,Sherwood Way,76901,31.4296362,-100.5129958
3204-C,Sherwood Way,76901,31.4460278,-100.4798020
4001,Sunset Drive,76904,31.4275290,-100.4996766
2601,W Avenue North,76909,31.4409043,-100.4663664
1821,Knickerbocker Road,76904-5553,31.4275528,-100.4584620
36,East Twohig Avenue,76903,31.4619581,-100.4349386
2301,North Bryant Boulevard,76903,31.4801629,-100.4571670
2839,College Hills Boulevard,76904,31.4331756,-100.4811455
124,North Van Buren Street,76901,31.4566277,-100.4603460
1300,West Beauregard Avenue,76901,31.4565678,-100.4543124
362,South FM 2288,76901,31.4987283,-100.5225487
4001,Sunset Drive,76904,31.4276239,-100.4990081
5501,Sherwood Way,76904,31.4262998,-100.5092395
5301,Sherwood Way,76904,31.4276817,-100.5068525
4363,West Houston Harte Expressway,76901,31.4417949,-100.4946027
4351,West Houston Harte Expressway,76901,31.4428292,-100.4939579
3301,Sherwood Way,76901,31.4439046,-100.4786403
3121,Sunset Drive,76904,31.4216155,-100.4808211
2702,West Loop 306,76904,31.4190233,-100.4775228
418,West Avenue B,76903,31.4558398,-100.4412511
203,North Bryant Boulevard,76903,31.4633963,-100.4460948
311,North Bryant Boulevard,76903,31.4645565,-100.4464821
351,Kearney Boulevard,76908,31.4329299,-100.4064762
2104,South Johnson Street,76904,31.4381948,-100.4613795
1919,Knickerbocker Road,76904,31.4304975,-100.4600370
2121,Martin Luther King Drive,76903,31.4800285,-100.4543009
2305,Pulliam Street,76905,31.4644702,-100.3944125
1852,Sherwood Way,76901,31.4542239,-100.4615401
1850,West Beauregard Avenue,76901,31.4538587,-100.4605263
2601,West Avenue N,76909,31.4424674,-100.4654592
2025,South Johnson Street,76909,31.4408505,-100.4651716
3909,Sunset Drive,76904,31.4281082,-100.4956648
4235,Southwest Boulevard,76904,31.4261700,-100.4958659
4002,Sunset Drive,76904,31.4296365,-100.4966265
323,South Chadbourne Street,76903,31.4588891,-100.4361196
5749,Sherwood Way,76901,31.4243073,-100.5129413
4235,Sunset Drive,76904,31.4323260,-100.5012876
4524,West Houston Harte Expressway,76901,31.4410959,-100.5013509
3301,Riverside Golf Club Road,76903,31.4869377,-100.4732804
3504,Arden Road,76901,31.4482103,-100.4836658
3201,West Loop 306,76904,31.4206487,-100.4888394
2919,West Loop 306,76904,31.4191222,-100.4839901
3017,West Loop 306,76904,31.4199634,-100.4866681
3057,West Loop 306,76904,31.4202979,-100.4872823
3401,West Loop 306,76904,31.4222549,-100.4936016
4302,College Hills Boulevard,76904,31.4193881,-100.4850929
2915,West Loop 306,76904,31.4188294,-100.4836170
3434,Green Meadow Drive,76904,31.4225806,-100.4941896
3438,Green Meadow Drive,76904,31.4225981,-100.4948283
2575,West Loop 306,76904,31.4165263,-100.4769877
4210,College Hills Boulevard,76904,31.4214395,-100.4831142
3505,Wildewood Drive,76904,31.4215080,-100.4854867
4560,Sherwood Way,76904,31.4349966,-100.5007530
4525,Sherwood Way,76901,31.4344306,-100.4975144
4141,Sunset Drive,76904,31.4302111,-100.5008196
4309,Sherwood Way,76901,31.4370220,-100.4944578
4505,Sherwood Way,76901,31.4349187,-100.4979767
4555,Sherwood Way,76901,31.4344038,-100.4988739
4397,Sunset Drive,76904,31.4348231,-100.5036315
4333,Sherwood Way,76901,31.4360471,-100.4958047
4238,Sunset Drive,76904,31.4317605,-100.4997965
4385,Sherwood Way,76901,31.4354974,-100.4968322
5665,Sherwood Way,76904,31.4270044,-100.5121302
5749,Sherwood Way,76901,31.4262317,-100.5134146
5525,Sherwood Way,76904,31.4283035,-100.5102167
5225,Sherwood Way,76904,31.4288686,-100.5083604
4032,West Houston Harte Expressway,76901,31.4473915,-100.4959592
4052,West Houston Harte Expressway,76901,31.4465211,-100.4962671
2572,Southwest Boulevard,76901,31.4406838,-100.4965508
4649,West Houston Harte Expressway,76901,31.4392659,-100.4998613
4613,West Houston Harte Expressway,76901,31.4399833,-100.4990475
4450,West Houston Harte Expressway,76901,31.4420665,-100.5000766
4272,West Houston Harte Expressway,76901,31.4440166,-100.4981214
3808,Arden Road,76901,31.4485697,-100.4886291
620,Glenna Street,76901,31.4502428,-100.4878634
621,Glenna Street,76901,31.4505262,-100.4886313
4613,South Jackson Street,76903,31.4245125,-100.4423399
1701,Knickerbocker Road,76904,31.4302891,-100.4560059
4475,Southwest Boulevard,76904,31.4205980,-100.4967909
940,Arroyo Drive,76901,31.4283854,-100.4517484
4325,Sunset Drive,76904,31.4338343,-100.5026194
3301,Sherwood Way,76901,31.4447046,-100.4802419
4646,Knickerbocker Road,76904,31.4142468,-100.4754051
3202,Sherwood Way,76901,31.4460997,-100.4792599
1830,North Bryant Boulevard,76903,31.4767626,-100.4528184
706,South Abe Street,76903,31.4541575,-100.4417238
4360,Sherwood Way,76901,31.4371998,-100.4965906
3418,Clearview Drive,76904,31.4100167,-100.4992001
3409,Clearview Drive,76904,31.4095446,-100.4985927
3405,Clearview Drive,76904,31.4095197,-100.4983408
3401,Clearview Drive,76904,31.4095248,-100.4980919
1730,North Main Street,76905,31.4808957,-100.4308387
2530,Pulliam Street,76905,31.4734452,-100.3963775
1805,Ricks Drive,76905,31.4801001,-100.4083245
1615,Rio Concho Drive,76905,31.4545787,-100.4076487
555,Smith Boulevard,76905,31.4741342,-100.3988825
2531,Smith Boulevard,76905,31.4796725,-100.3940743
1338,Fox Hollow Street,76905,31.4866264,-100.3944418
85,Paint Rock Road,76903,31.4445127,-100.4229282
3440,South Bryant Boulevard,76903,31.4270203,-100.4383712
111,West River Drive,76903,31.4626228,-100.4478718
111,West River Drive,76903,31.4609185,-100.4480135
111,West River Drive,76903,31.4596202,-100.4481923
111,West River Drive,76903,31.4572234,-100.4458774
4310,Sherwood Way,76901,31.4378882,-100.4955618
5750,Sherwood Way,76901,31.4278013,-100.5148588
5710,Sherwood Way,76901,31.4275391,-100.5139379
4587,West Houston Harte Expressway,76901,31.4401675,-100.4987432
2572,Southwest Boulevard,76901,31.4401101,-100.4956351
2959,West Loop 306,76904,31.4192471,-100.4844996
402,West Beauregard Avenue,76903,31.4605346,-100.4446053
318,West Beauregard Avenue,76903,31.4609227,-100.4435959
329,West Harris Avenue,76903,31.4612992,-100.4438611
20,East Beauregard Avenue,76903,31.4634132,-100.4354473
401,East Beauregard Avenue,76903,31.4637252,-100.4303219
323,East Beauregard Avenue,76903,31.4635482,-100.4312307
1609,Knickerbocker Road,76904,31.4307582,-100.4552429
2520,Southwest Boulevard,76901,31.4411414,-100.4978511
2730,Ben Ficklin Road,76903,31.4321273,-100.4388891
3501,Knickerbocker Road,76904,31.4177946,-100.4699962
2018,Pulliam Street,76903,31.4719645,-100.4022584
120,East Harris Avenue,76903,31.4649618,-100.4340197
1950,South Concho Drive,76904,31.3767845,-100.4870912
3123,Green Meadow Drive,76904,31.4192854,-100.4879628
3311,Sherwood Way,76901,31.4443384,-100.4810429
3303,Sherwood Way,76901,31.4442772,-100.4805710
5201,Knickerbocker Road,76904,31.4070524,-100.4782087
5201,Knickerbocker Road,76904,31.4069237,-100.4778936
5301,Knickerbocker Road,76904,31.4047719,-100.4790807
5255,Bentwood Drive,76904,31.4047837,-100.4783594
2111,Club House Lane,76904,31.3972318,-100.4774585
124,West Beauregard Avenue,76903,31.4619053,-100.4397639
300,West Beauregard Avenue,76903,31.4611409,-100.4428943
2750,Ben Ficklin Road,76903,31.4327915,-100.4399427
4717,South Jackson Street,76903,31.4245480,-100.4395011
3604,Gemini Drive,76903,31.4246711,-100.4375135
4064,South Bryant Boulevard,76903,31.4180540,-100.4394149
4140,South Bryant Boulevard,76903,31.4171446,-100.4393312
4140,South Bryant Boulevard,76903,31.4171091,-100.4395258
105,North Koenigheim Street,76903,31.4636835,-100.4443615
4399,West Houston Harte Expressway,76901,31.4421065,-100.4969861
4387,West Houston Harte Expressway,76901,31.4428155,-100.4962232
1636,Hunters Glen Road,76901,31.4472702,-100.5104980
3720,South FM 2288,76901,31.4284722,-100.5127710
5555,Sherwood Way,76904,31.4279114,-100.5107426
1901,North Bryant Boulevard,76903,31.4769733,-100.4542744
1811,South Bryant Boulevard,76903,31.4417632,-100.4426759
529,West Avenue N,76903,31.4424685,-100.4440040
1801,South Bryant Boulevard,76903,31.4424985,-100.4425785
805,West Avenue N,76903,31.4426695,-100.4464310
935,Knickerbocker Road,76903,31.4366595,-100.4473870
1802,South Bryant Boulevard,76903,31.4425328,-100.4413723
301,West Beauregard Avenue,76903,31.4603300,-100.4425740
12,North Abe Street,76903,31.4623506,-100.4443204
36,East Twohig Avenue,76903,31.4619224,-100.4352382
1701,Pulliam Street,76903,31.4703620,-100.4112665
555,East 6th Street,76903,31.4739867,-100.4290521
509,North Main Street,76903,31.4729755,-100.4326010
501,North Main Street,76903,31.4725715,-100.4324895
502,North Main Street,76903,31.4729965,-100.4315535
712,North Main Street,76903,31.4756460,-100.4317355
901,North Main Street,76903,31.4757665,-100.4327310
705,North Main Street,76903,31.4750805,-100.4330410
1542,South Bell Street,76903,31.4425980,-100.4128270
98,Paint Rock Road,76903,31.4452350,-100.4201375
135,Paint Rock Road,76903,31.4443787,-100.4190667
3333,Knickerbocker Road,76904-6812,31.4219675,-100.4667660
3016,Knickerbocker,76904,31.4243085,-100.4651902
3006,Knickerbocker Road,76904-6807,31.4245800,-100.4648627
3410,Knickerbocker Road,76904,31.4219520,-100.4683955
2506,South Johnson Street,76904,31.4341945,-100.4616390
2020,North Bryant Boulevard,76903,31.4791495,-100.4537127
4425,Sherwood Way,76901,31.4339601,-100.4961773
3070,Ochoco Street,76905,31.4916898,-100.3912076
501,North Bryant Boulevard,76903,31.4656555,-100.4469590
502,North Bryant Boulevard,76903,31.4664201,-100.4452531
520,North Bryant Boulevard,76903,31.4666180,-100.4458855
302,West Harris Avenue,76903,31.4624125,-100.4433505
59,North Koenigheim Street,76903,31.4629725,-100.4437505
306,West 1st Street,76903,31.4639660,-100.4433045
314,North Bryant Boulevard,76903,31.4652611,-100.4451605
438,East Houston Harte Expressway,76903,31.4744075,-100.4344895
2302,Pulliam Street,76905,31.4722270,-100.3992070
514,Smith Boulevard,76905,31.4732495,-100.3974505
402,Smith Boulevard,76905,31.4724525,-100.3973560
1721,Ellis Street,76905,31.4742505,-100.4101255
1,North Abe Street,76903,31.4618770,-100.4456055
111,West River Drive,76903,31.4586880,-100.4475956
502,South Koenigheim Street,76903,31.4558500,-100.4399065
1901,North Chadbourne Street,76903,31.4797865,-100.4484000
711,North Chadbourne Street,76903,31.4703020,-100.4422010
712,North Chadbourne Street,76903,31.4706990,-100.4414925
1601,La Follette Street,76905,31.4767931,-100.4129618
1010,Gordon Boulevard,76905,31.4822705,-100.3921470
1006,Gordon Boulevard,76905,31.4821015,-100.3920190
1002,Gordon Boulevard,76905,31.4819430,-100.3918935
1011,Martin Luther King Drive,76903,31.4704470,-100.4473865
2502,West Loop 306,76904,31.4183517,-100.4752834
2601,West Loop 306,76904,31.4168720,-100.4776510
2701,Sunset Drive,76904,31.4216145,-100.4754140
4112,College Hills Boulevard,76904,31.4228920,-100.4824295
2502,Southland Boulevard,76904,31.4141135,-100.4764445
4272,Sunset Drive,76901,31.4335520,-100.4992525
4002,Wellington Street,76904,31.4294280,-100.4956445
4388,Sherwood Way,76901,31.4365755,-100.4978320
4384,Sherwood Way,76901,31.4368110,-100.4973220
4512,Sherwood Way,76901,31.4365650,-100.4988505
3506,Sherwood Way,76901,31.4431815,-100.4847125
3436,Sherwood Way,76901,31.4445990,-100.4832705
3838,Arden Road,76901,31.4485810,-100.4899600
4160,West Houston Harte Expressway,76901,31.4449115,-100.4974910
3980,West Houston Harte Expressway,76901,31.4499505,-100.4924690
1819,Volney Street,76903,31.4798210,-100.4464500
1815,North Chadbourne Street,76903,31.4789795,-100.4479725
1425,North Chadbourne Street,76903,31.4753500,-100.4455145
1900,North Bryant Boulevard,76903,31.4773960,-100.4531740
311,West 19th Street,76903,31.4770255,-100.4520410
1520,North Bryant Boulevard,76903,31.4738900,-100.4507955
3030,North Chadbourne Street,76903,31.4916050,-100.4552315
3020,North Chadbourne Street,76903,31.4912140,-100.4550455
2934,North Chadbourne Street,76903,31.4905200,-100.4544365
3013,North Chadbourne Street,76903,31.4908350,-100.4558115
3001,North Chadbourne Street,76903,31.4905310,-100.4555970
3027,North Chadbourne Street,76903,31.4912260,-100.4559825
4386,North Chadbourne Street,76903,31.5049065,-100.4642910
5050,North Chadbourne Street,76903,31.5137145,-100.4739050
3698,North Bryant Boulevard,76903,31.4969230,-100.4759140
3758,North Bryant Boulevard,76903,31.4984765,-100.4773375
610,West 29th Street,76903,31.4878812,-100.4607602
2602,North Bryant Boulevard,76903,31.4832077,-100.4594900
2831,North Bryant Boulevard,76903,31.4837760,-100.4623945
2619,North Bryant Boulevard,76903,31.4828435,-100.4608744
2901,North Bryant Boulevard,76903,31.4841765,-100.4632605
2929,North Bryant Boulevard,76903,31.4848245,-100.4641160
2920,North Bryant Boulevard,76903,31.4852440,-100.4628580
2902,North Bryant Boulevard,76903,31.4850610,-100.4624060
3993,Tractor Trail,76905,31.4943705,-100.3774340
3669,Porter Henderson Drive,76905,31.4959320,-100.3762875
4093,US Highway 67 North,76905,31.4970385,-100.3757190
3142,US Highway 67 North,76905,31.4894210,-100.3780810
2635,Valleyview Boulevard,76904,31.4073725,-100.4795330
3536,Lutheran Way,76904,31.4137865,-100.4631695
113,W Beauregard Ave,76904,31.4125989,-100.4576632
1620,Sunset Drive,76904,31.4146905,-100.4577675
528,Country Club Road,76904,31.3932519,-100.4354804
3950,West Loop 306,76904,31.4253103,-100.4974615
5502,Sherwood Way,76901,31.4309570,-100.5111089
5510,Sherwood Way,76901,31.4293046,-100.5114214
5578,Sherwood Way,76901,31.4288320,-100.5121550
4112,West Loop 306,76904,31.4283567,-100.5023693
4351,Sherwood Way,76904,31.4342279,-100.5031074
4225,Sunset Drive,76904,31.4318425,-100.5017137
4219,Sunset Drive,76904,31.4315004,-100.5020537
4169,Sunset Drive,76904,31.4304515,-100.5026284
4157,Sunset Drive,76904,31.4299171,-100.5026018
4161,Sunset Drive,76904,31.4301717,-100.5024477
4175,Sunset Drive,76904,31.4306923,-100.5024851
4150,Sunset Drive,76904,31.4307006,-100.4996196
3806,West Loop 306,76904,31.4248493,-100.4947664
4317,Southwest Boulevard,76904,31.4236453,-100.4970373
4325,Southwest Boulevard,76904,31.4234409,-100.4971808
4321,Southwest Boulevard,76904,31.4232871,-100.4972518
3131,Sunset Drive,76904,31.4224199,-100.4820333
4225,Billie Bolin Drive,76904,31.4204041,-100.4814296
5237,South Bryant Boulevard,76904,31.4060425,-100.4389010
5651,Sherwood Way,76904,31.4272899,-100.5114980
3801,Arden Road,76901,31.4477037,-100.4902752
4013,West Houston Harte Expressway,76901,31.4473352,-100.4920729
3812,West Houston Harte Expressway,76901,31.4522384,-100.4889127
901,Glenna Street,76901,31.4522847,-100.4887451
3348,Pulliam Street,76905,31.4743420,-100.3911849
1471,South Loop 306,76905,31.4589278,-100.3839202
949,Gateway Drive,76905,31.4734437,-100.3810611
3402,Arden Road,76901,31.4466081,-100.4827191
3024,Freeland Avenue,76901,31.4517790,-100.4804119
3050,Chestnut Street,76901,31.4505283,-100.4801126
3105,West Houston Harte Expressway,76901,31.4518873,-100.4813858
2500,Sherwood Way,76901,31.4515341,-100.4713459
2451,Sherwood Way,76901,31.4507019,-100.4690171
2602,Sherwood Way,76901,31.4500347,-100.4718457
514,North Main Street,76903,31.4734396,-100.4311673
3501,US Highway 67 North,76905,31.4857602,-100.3849975
1636,Pulliam Street,76903,31.4712836,-100.4119181
800,Spaulding Street,76903,31.4700877,-100.4227146
510,North Chadbourne Street,76903,31.4690534,-100.4403345
330,West 9th Street,76903,31.4691634,-100.4475762
1821,North Bryant Boulevard,76903,31.4762689,-100.4539995
2828,North Bryant Boulevard,76903,31.4846679,-100.4613536
655,Caddo Street,76901,31.4627806,-100.4502803
4300,Green Meadow Drive,76904,31.4220944,-100.4922564
4330,Southwest Boulevard,76904,31.4233855,-100.4961821
4002,South Chadbourne Street,76904,31.4247768,-100.4219387
3217,Sherwood,76901,31.4453470,-100.4792106
3015,Sherwood Way,76901,31.4466135,-100.4766945
623,North Van Buren Street,76901,31.4606145,-100.4635750
621,North Van Buren Street,76901,31.4604885,-100.4634775
1811,Willow Street,76901,31.4604040,-100.4638445
1817,Willow Street,76901,31.4603435,-100.4639895
1821,Willow Street,76901,31.4602790,-100.4641185
614,North Van Buren Street,76901,31.4607680,-100.4631260
618,North Van Buren Street,76901,31.4609265,-100.4632280
1823,Willow Street,76901,31.4602345,-100.4642740
1827,Willow Street,76901,31.4601470,-100.4644165
1831,Willow Street,76901,31.4600905,-100.4645415
1833,Willow Street,76901,31.4600260,-100.4646925
1835,Willow Street,76901,31.4599425,-100.4648270
1837,Willow Street,76901,31.4598845,-100.4649650
2318,Dallas Street,76901,31.4569795,-100.4708140
2326,Dallas Street,76901,31.4568645,-100.4711035
2330,Dallas Street,76901,31.4567570,-100.4713040
2448,Dallas Street,76901,31.4558806,-100.4730440
2438,Dallas Street,76901,31.4560035,-100.4727990
2434,Dallas Street,76901,31.4560753,-100.4726484
2430,Dallas Street,76901,31.4561405,-100.4724920
2426,Dallas Street,76901,31.4562340,-100.4723835
2422,Dallas Street,76901,31.4563160,-100.4722445
2418,Dallas Street,76901,31.4563574,-100.4720954
2414,Dallas Street,76901,31.4564000,-100.4719315
2410,Dallas Street,76901,31.4564865,-100.4717535
2402,Dallas Street,76901,31.4566230,-100.4715310
607,Childress Street,76901,31.4556630,-100.4734780
609,Childress Street,76901,31.4558280,-100.4735395
2516,Dallas Street,76901,31.4551705,-100.4745395
2514,Dallas Street,76901,31.4552434,-100.4744039
2508,Dallas Street,76901,31.4554275,-100.4739880
711,North Garfield Street,76901,31.4541980,-100.4778395
2710,Dallas Street,76901,31.4543510,-100.4764570
2624,Dallas Street,76901,31.4545585,-100.4758150
2622,Dallas Street,76901,31.4546205,-100.4756700
2620,Dallas Street,76901,31.4546810,-100.4755400
2618,Dallas Street,76901,31.4547340,-100.4753925
2610,Dallas Street,76901,31.4549080,-100.4751330
2606,Dallas Street,76901,31.4549860,-100.4749760
2314,Dallas Street,76901,31.4571690,-100.4704720
2310,Dallas Street,76901,31.4572250,-100.4702860
2304,Dallas Street,76901,31.4573395,-100.4701215
2234,Dallas Street,76901,31.4573760,-100.4699765
2230,Dallas Street,76901,31.4575420,-100.4698095
2226,Dallas Street,76901,31.4575935,-100.4695970
2222,Dallas Street,76901,31.4576570,-100.4694151
2218,Dallas Street,76901,31.4577375,-100.4692410
2214,Dallas Street,76901,31.4578305,-100.4691000
2206,Dallas Street,76901,31.4580950,-100.4684615
2202,Dallas Street,76901,31.4582175,-100.4682700
2108,Dallas Street,76901,31.4584164,-100.4679422
2105,Houston Street,76901,31.4587845,-100.4681955
2101,Houston Street,76901,31.4588430,-100.4679625
2102,Dallas Street,76901,31.4585080,-100.4677110
609,South Parkway Street,76901,31.4586130,-100.4673320
544,South Parkway Street,76901,31.4591345,-100.4676510
542,South Parkway Street,76901,31.4591670,-100.4674170
538,South Parkway Street,76901,31.4592150,-100.4671615
536,South Parkway Street,76901,31.4591680,-100.4669250
532,South Parkway Street,76901,31.4591130,-100.4666790
526,South Parkway Street,76901,31.4590525,-100.4664570
3339,TLC Way,76901,31.4496705,-100.4867720
3802,Sherwood Way,76901,31.4420043,-100.4868129
2309,South A & M Avenue,79604,31.4378272,-100.4750936
1702,West Avenue N,76909,31.4433450,-100.4564021
1703,South Bryant Boulevard,76903,31.4432135,-100.4424890
215,East Avenue G,76903,31.4504135,-100.4300095
10,North Taylor Street,76901,31.4527921,-100.4644890
2212,West Avenue N,76909,31.4432546,-100.4598703
3444,Sherwood Way,76901,31.4438365,-100.4831480
4702,Southland Boulevard,76904,31.4219575,-100.5107205
5810,Barrington Court,76901,31.4475365,-100.5121690
5806,Barrington Court,76901,31.4476900,-100.5118820
5802,Barrington Court,76901,31.4476665,-100.5115865
5801,Barrington Court,76901,31.4470915,-100.5116005
5805,Barrington Court,76901,31.4470340,-100.5118710
1513,Hunters Glen Road,76901,31.4467245,-100.5117105
1509,Hunters Glen Road,76901,31.4463545,-100.5116745
1617,Amberton Parkway,76901,31.4463030,-100.5110835
1613,Amberton Parkway,76901,31.4462800,-100.5108210
1505,Hunters Glen Road,76901,31.4460305,-100.5116255
1501,Hunters Glen Road,76901,31.4457630,-100.5116775
5818,Hanover Place,76901,31.4458040,-100.5110915
5814,Hanover Place,76901,31.4457275,-100.5108395
5810,Hanover Place,76901,31.4456455,-100.5105555
5806,Hanover Place,76901,31.4455340,-100.5102745
5802,Hanover Place,76901,31.4454470,-100.5099305
1605,Amberton Parkway,76901,31.4458940,-100.5102175
1609,Amberton Parkway,76901,31.4461560,-100.5104865
2412,North Chadbourne Street,76903,31.4847643,-100.4509144
618,West 29th Street,76903,31.4859783,-100.4610724
5455,Knickerbocker Road,76904,31.4013365,-100.4806275
7894,Knickerbocker Road,76904,31.3673744,-100.5011068
8210,Hangar Road,76904,31.3649933,-100.5019897
8485,Hangar Road,76904,31.3591850,-100.5046330
7654,Knickerbocker Road,76904,31.3706635,-100.4947272
2102,South Johnson Street,76904,31.4390630,-100.4619187
2200,South Johnson Street,76904,31.4372760,-100.4615979
5130,West Houston Harte Frontage Road,76901,31.4334756,-100.5083676
4185,West Loop 306,76901,31.4269994,-100.5056818
1801,West Avenue N,76904,31.4427233,-100.4575194
3970,Arden Road,76901,31.4491658,-100.4946273
5590,Sherwood Way,76904,31.4286478,-100.5124801
5154,Knickerbocker Road,76904,31.4089608,-100.4785562
2228,Valleyview Boulevard,76904,31.4081938,-100.4767008
5014,Westway Drive,76904,31.4090431,-100.4750547
4798,Knickerbocker Road,76904,31.4138489,-100.4756249
1625,Sunset Drive,76904,31.4130399,-100.4591339
1639,Sunset Drive,76904,31.4138067,-100.4592787
1701,Sunset Drive,76904,31.4137088,-100.4609315
3516,Sunset Drive,76904,31.4149519,-100.4625566
3515,Lutheran Way,76904,31.4158008,-100.4644476
2030,West Loop 306,76904,31.4158616,-100.4676242
5687,Melrose Avenue,76901,31.4369614,-100.5060279
5701,Melrose Avenue,76901,31.4382259,-100.5062506
5706,Stratford Court,76901,31.4381542,-100.5066839
5702,Stratford Court,76901,31.4379967,-100.5064486
5724,Stratford Avenue,76901,31.4374208,-100.5070519
5701,Stratford Court,76901,31.4376330,-100.5068068
5751,Green Hill Road,76901,31.4445396,-100.5011078
2210,Dallas Street,76901,31.4578712,-100.4688958
700,North Van Buren Street,76901,31.4610437,-100.4647245
301,West 9th Street,76903,31.4687670,-100.4467787
403,West 3rd Street,76903,31.4642049,-100.4450701
202,North Abe Street,76903,31.4638622,-100.4448237
102,North Abe Street,76903,31.4633962,-100.4448060
1809,South Bryant Boulevard,76903,31.4419780,-100.4424998
3415,Edgewood Drive,76904,31.4244384,-100.4167808
4502,Knickerbocker Road,76904,31.4121140,-100.4739304
4001,Sul Ross Street,76904,31.4212541,-100.4764127
2569,Southwest Boulevard,76901,31.4390275,-100.4965664
2545,Southwest Boulevard,76901,31.4388468,-100.4975186
3784,Arden Road,76901,31.4484381,-100.4865146
1418,North Bryant Boulevard,76903,31.4731813,-100.4493607
2952,North Bryant Boulevard,76903,31.4855505,-100.4631349
5320,US Highway 87 North,76901,31.5167884,-100.4798684
2510,North Chadbourne Street,76903,31.4864018,-100.4512645
1600,Volney Street,76903,31.4781073,-100.4436995
812,North Main Street,76903,31.4759871,-100.4317939
950,Gordon Boulevard,76905,31.4815969,-100.3912711
3262,US Highway 67 North,76905,31.4957124,-100.3718806
3398,McGill Boulevard,76905,31.4843118,-100.3858538
6233,Arden Road,76901,31.4480170,-100.5209002
5809,Barrington Court,76901,31.4472292,-100.5121404
4401,Southwest Boulevard,76904,31.4214319,-100.4969781
4418,Southwest Boulevard,76904,31.4216888,-100.4954007
3435,Green Meadow Drive,76904,31.4215995,-100.4940711
4110,Wellington Street,76904,31.4314319,-100.4974994
4132,Sunset Drive,76904,31.4301697,-100.4991974
2652,Southwest Boulevard,76901,31.4388231,-100.4946476
2688,Southwest Boulevard,76901,31.4380491,-100.4942406
2701,Southwest Boulevard,76901,31.4363923,-100.4948118
2701,Southwest Boulevard,76901,31.4358181,-100.4948184
1459,Knickerbocker Road,76904,31.4323828,-100.4531514
1355,Knickerbocker Road,76904,31.4333978,-100.4515399
2201,North Bryant Boulevard,76903,31.4793473,-100.4563718
415,West Beauregard Avenue,76903,31.4597225,-100.4445465
333,Rio Concho Drive,76903,31.4607136,-100.4301636
441,Rio Concho Drive,76903,31.4618748,-100.4259660
1717,West Beauregard Avenue,76901,31.4539088,-100.4585506
1901,West Beauregard Avenue,76901,31.4530017,-100.4600306
410,West Avenue L,76903,31.4454190,-100.4403889
2819,North Chadbourne Street,76903,31.4881463,-100.4544133
6133,Sherwood Way,76901,31.4221640,-100.5192557
5702,Melrose Avenue,76901,31.4400245,-100.5062023
4956,Southland Boulevard,76904,31.4245061,-100.5096953
4940,Southland Boulevard,76904,31.4233645,-100.5098646
5667,Sherwood Way,76904,31.4268944,-100.5120622
4382,US Highway 67,76905,31.4978517,-100.3662536
4382,US Highway 67 North,76905,31.4978707,-100.3666766
3002,Old Ballinger Highway,76905,31.5044440,-100.3898394
1825,West Loop 306,76904,31.4116534,-100.4655666
1705,West Beauregard Avenue,76901,31.4541378,-100.4582839
3705,North Bryant Boulevard,76903,31.4975987,-100.4785371
3883,North Bryant Boulevard,76903,31.4953245,-100.4766474
3302,North Bryant Boulevard,76903,31.4895222,-100.4686387
3150,North Bryant Boulevard,76903,31.4877262,-100.4653919
2812,North Bryant Boulevard,76903,31.4842137,-100.4612002
2601,West Avenue North,76909,31.4406834,-100.4608170
1402,North Bryant Boulevard,76903,31.4726159,-100.4500071
6046,Appaloosa Trail,76901,31.4307267,-100.5187663
6002,Knickerbocker Road,76904,31.3951140,-100.4884145
2307,West Loop 306,76904,31.4154494,-100.4759577
3446,Green Meadow Drive,76904,31.4224760,-100.4955350
2021,North Bryant Boulevard,76903,31.4781632,-100.4555497
2601,West Avenue N,76909,31.4174380,-100.4652676
