House number,Street name,Postal code,Latitude,Longitude
2114,Texoma Parkway,75090,33.6617189,-96.6004426
823,East North Creek Drive,75092,33.6838320,-96.6098183
2114,Texoma Parkway,75090,33.6615389,-96.6004483
2222,Texoma Parkway,75090,33.6633321,-96.5999793
2222,Texoma Parkway,75090,33.6625261,-96.6000218
4054,North Sam Rayburn Freeway,75090,33.6811675,-96.6100493
1111,Gallagher Drive,75090,33.6740328,-96.6030353
315,N. Travis St.,75090,33.6394091,-96.6098820
301,North Highland Avenue,75092,33.6360289,-96.6226952
3201,North Sam Rayburn Freeway,75090,33.6712843,-96.6072822
3201,North Sam Rayburn Freeway,75090,33.6716090,-96.6072709
3201,North Sam Rayburn Freeway,75090,33.6717995,-96.6072426
3201,North Sam Rayburn Freeway,75090,33.6720042,-96.6072454
301,East Highway 82,75092,33.6718201,-96.6138352
4066,North Sam Rayburn Freeway,75090,33.6814320,-96.6098999
2918,North Sam Rayburn Freeway,75090,33.6692831,-96.6116871
2918,North Sam Rayburn Freeway,75090,33.6691576,-96.6115667
2918,North Sam Rayburn Freeway,75090,33.6692391,-96.6115654
2916,North Sam Rayburn Freeway,75090,33.6693025,-96.6138801
2916,North Sam Rayburn Freeway,75090,33.6695643,-96.6138050
2916,North Sam Rayburn Freeway,75090,33.6688373,-96.6116825
2916,North Sam Rayburn Freeway,75090,33.6687462,-96.6116608
2916,North Sam Rayburn Freeway,75090,33.6686764,-96.6116204
2916,North Sam Rayburn Freeway,75090,33.6688273,-96.6118151
2916,North Sam Rayburn Freeway,75090,33.6688086,-96.6119320
2916,North Sam Rayburn Freeway,75090,33.6686527,-96.6127153
2916,North Sam Rayburn Freeway,75090,33.6687649,-96.6122435
3113,North Sam Rayburn Freeway,75090,33.6713133,-96.6087543
613,East North Creek Drive,75092,33.6819519,-96.6106046
613,East North Creek Drive,75092,33.6820739,-96.6104241
4050,North Sam Rayburn Freeway,75090,33.6810580,-96.6101345
4114,North Sam Rayburn Freeway,75090,33.6819631,-96.6094443
4016,North Sam Rayburn Freeway,75090,33.6803694,-96.6096705
4018,North Sam Rayburn Freeway,75090,33.6803977,-96.6097921
4024,North Sam Rayburn Freeway,75090,33.6804022,-96.6101424
805,East North Creek Drive,75092,33.6836936,-96.6101856
4214,North Sam Rayburn Freeway,75090,33.6834858,-96.6087132
4214,North Sam Rayburn Freeway,75090,33.6834774,-96.6084987
2700,Texoma Parkway,75090,33.6682982,-96.5951085
738,East Highway 82,75090,33.6691504,-96.6083295
710,East Highway 82,75090,33.6691141,-96.6087581
718,East Highway 82,75090,33.6691427,-96.6086206
529,West Lamar Street,75090,33.6347401,-96.6152677
3445,North Heritage Parkway,75092,33.6703030,-96.6416228
3425,North Heritage Parkway,75092,33.6696249,-96.6415891
3439,North Heritage Parkway,75092,33.6700097,-96.6415838
3441,North Heritage Parkway,75092,33.6701328,-96.6415838
3433,North Heritage Parkway,75092,33.6698887,-96.6416046
721,East Taylor Street,75090,33.6578204,-96.6068877
4800,Texoma Parkway,75090,33.6855428,-96.5854154
2222,Texoma Parkway,75090,33.6629748,-96.6000110
1000,North Travis Street,75090,33.6448549,-96.6124171
1000,North Travis Street,75090,33.6447490,-96.6130424
1010,La Salle Drive,75090,33.6701034,-96.6051211
1010,La Salle Drive,75090,33.6700640,-96.6049222
1010,La Salle Drive,75090,33.6700994,-96.6045512
2612,North Loy Lake Road,75090,33.6640337,-96.6065201
2612,North Loy Lake Road,75090,33.6641400,-96.6065298
2624,North Loy Lake Road,75090,33.6645564,-96.6065438
2624,North Loy Lake Road,75090,33.6644612,-96.6065867
2725,North Sam Rayburn Freeway,75090,33.6659476,-96.6084687
2719,North Sam Rayburn Freeway,75090,33.6659389,-96.6077421
2711,North Sam Rayburn Freeway,75090,33.6659757,-96.6073451
4001,North Sam Rayburn Freeway,75090,33.6795219,-96.6066037
4001,North Sam Rayburn Freeway,75090,33.6791980,-96.6066271
2121,North Heritage Parkway,75092,33.6546754,-96.6418021
2121,North Heritage Parkway,75092,33.6545175,-96.6418862
2121,Heritage Parkway,75090,33.6546135,-96.6418588
2121,North Heritage Parkway,75092,33.6544394,-96.6418744
2121,North Heritage Parkway,75092,33.6548614,-96.6412853
301,East Highway 82,75092,33.6722042,-96.6138949
2700,Texoma Parkway,75090,33.6681608,-96.5955155
427,North Rusk Street,75090,33.6398612,-96.6144041
725,East Taylor Street,75090,33.6580220,-96.6066899
719,East Taylor Street,75090,33.6576133,-96.6070767
4344,Loy Lake Road,75092,33.6853690,-96.6078641
100,West Houston Street,75090,33.6359627,-96.6097907
1304,West Lamar Street,75092,33.6311283,-96.6205036
402,West Pecan Street,75090,33.6367618,-96.6142385
900,North Grand Avenue,75090,33.6474329,-96.5979623
5805,Texoma Parkway,75090,33.6942158,-96.5735652
1701,Gallagher Drive,75090,33.6746288,-96.5974968
1202,South Dewey Avenue,75090,33.6318250,-96.5880491
701,East Peyton Street,75090,33.6608222,-96.6074014
100,East Taylor Street,75090,33.6534346,-96.6138118
1820,North Loy Lake Road,75090,33.6562461,-96.6072368
3333,North Sam Rayburn Freeway,75090,33.6738999,-96.6075803
2801,North Sam Rayburn Freeway,75090,33.6680678,-96.6070866
601,East North Creek Drive,75092,33.6823860,-96.6126117
4160,Town Center Drive,75092,33.6800819,-96.6127833
401,East Highway 82,75092,33.6737334,-96.6122021
421,North Travis Street,75090,33.6401428,-96.6098827
4111,North Sam Rayburn Freeway,75090,33.6799703,-96.6046839
3939,North Sam Rayburn Freeway,75090,33.6787854,-96.6048556
3913,North Sam Rayburn Freeway,75090,33.6780934,-96.6050053
1105,East Brockett Street,75090,33.6470721,-96.6001179
3500,Town Center Drive,75092,33.6764528,-96.6128406
3404,Town Center Drive,75092,33.6756640,-96.6127203
3716,Town Center Drive,75092,33.6782688,-96.6125675
610,Graham Dr,75092,33.6838475,-96.6126204
3800,North Sam Rayburn Freeway,75090,33.6786441,-96.6101566
3700,North Sam Rayburn Freeway,75090,33.6779886,-96.6102049
3416,Town Center Drive,75092,33.6759176,-96.6127269
3912,Town Center Drive,75092,33.6791215,-96.6125606
3920,Town Center Drive,75092,33.6794040,-96.6126211
3606,Town Center Drive,75092,33.6772652,-96.6128233
3708,Town Center Drive,75092,33.6778207,-96.6126132
3710,Town Center Drive,75092,33.6780231,-96.6127011
3800,Town Center Drive,75092,33.6786004,-96.6126810
3600,North Sam Rayburn Freeway,75090,33.6771503,-96.6102690
3310,Town Center Drive,75092,33.6749606,-96.6117282
1704,North Heritage Parkway,75092,33.6501289,-96.6424507
100,West FM 1417,75090,33.5943568,-96.6065515
111,East FM 1417,75090,33.5959861,-96.6035108
2515,West Lamberth Road,75092,33.6557189,-96.6467790
1800,North Heritage Parkway,75092,33.6520132,-96.6429991
3200,Canyon Creek Dr,75092,33.6649372,-96.6486645
3021,North Sam Rayburn Freeway,75090,33.6691925,-96.6091351
2920,North Sam Rayburn Freeway,75090,33.6697379,-96.6117666
300,East Taylor Street,75090,33.6557857,-96.6103926
3301,North Sam Rayburn Freeway,75090,33.6730209,-96.6081390
3109,North Sam Rayburn Freeway,75090,33.6707929,-96.6066827
3333,North Sam Rayburn Freeway,75090,33.6723549,-96.6066908
103,Sunset Boulevard,75092-7445,33.6331429,-96.6277225
1826,Texoma Parkway,75090,33.6561123,-96.6055957
1830,Texoma Parkway,75090,33.6573580,-96.6045669
1824,Texoma Parkway,75090,33.6556998,-96.6057961
1836,Texoma Parkway,75090,33.6579169,-96.6039205
1818,Texoma Parkway,75090,33.6551263,-96.6063254
1820,Texoma Parkway,75090,33.6553817,-96.6060291
1800,Texoma Parkway,75090,33.6546657,-96.6067477
1828,Texoma Parkway,75090,33.6564795,-96.6051900
1716,Texoma Parkway,75090,33.6542833,-96.6069646
1908,Texoma Parkway,75090,33.6585577,-96.6027452
2100,Texoma Parkway,75090,33.6604924,-96.6004772
2130,Texoma Parkway,75090,33.6619212,-96.5995282
2124,Texoma Parkway,75090,33.6614362,-96.5997548
2020,Texoma Parkway,75090,33.6595132,-96.6016444
1902,Texoma Parkway,75090,33.6582571,-96.6030339
2204,Texoma Parkway,75090,33.6624634,-96.5990867
2433,Texoma Parkway,75090,33.6651578,-96.5959453
2525,Texoma Parkway,75090,33.6661273,-96.5950568
2525,Texoma Parkway,75090,33.6659753,-96.5936367
2524,Texoma Parkway,75090,33.6666790,-96.5967265
2324,Texoma Parkway,75090,33.6633547,-96.5984885
2407,Texoma Parkway,75090,33.6643812,-96.5965217
2400,Texoma Parkway,75090,33.6644114,-96.5977266
2520,Texoma Parkway,75090,33.6663924,-96.5964841
2317,Texoma Parkway,75090,33.6635575,-96.5969092
2500,Texoma Parkway,75090,33.6659605,-96.5977039
2105,Texoma Parkway,75090,33.6593120,-96.6000112
1707,Texoma Parkway,75090,33.6533037,-96.6067164
2119,Texoma Parkway,75090,33.6607087,-96.5990361
2131,Texoma Parkway,75090,33.6612169,-96.5987862
1905,Texoma Parkway,75090,33.6567705,-96.6031258
2133,Texoma Parkway,75090,33.6615399,-96.5986185
1707,East Baker Drive,75090,33.6640857,-96.5926551
1705,East Baker Drive,75090,33.6641511,-96.5937275
4800,Texoma Parkway,75090,33.6870564,-96.5850457
4880,Texoma Parkway,75090,33.6877682,-96.5819282
2107,Texoma Parkway,75090,33.6599505,-96.5996904
2900,North Sam Rayburn Freeway,75090,33.6661203,-96.6129614
2904,Michelle Drive,75090,33.6666324,-96.6134091
4000,North Sam Rayburn Freeway,75090,33.6797969,-96.6100522
3300,North Sam Rayburn Freeway,75090,33.6754331,-96.6105324
3500,North Sam Rayburn Freeway,75090,33.6764690,-96.6102426
3916,Town Center Drive,75092,33.6792428,-96.6124965
3902,North Sam Rayburn Freeway,75090,33.6789662,-96.6101487
3704,Town Center Drive,75092,33.6777084,-96.6126165
4184,Town Center Drive,75092,33.6809835,-96.6124980
3400,North Sam Rayburn Freeway,75090,33.6760316,-96.6102992
4100,North Sam Rayburn Freeway,75090,33.6817118,-96.6088801
4030,North Sam Rayburn Freeway,75090,33.6808137,-96.6094459
875,Northcreek Drive,75090,33.6825717,-96.6089459
4040,North Sam Rayburn Freeway,75090,33.6811420,-96.6092892
2626,North Loy Lake Road,75090,33.6647753,-96.6067611
900,East Highway 82,75090,33.6686967,-96.6053198
3501,North Sam Rayburn Freeway,75090,33.6750690,-96.6080565
3721,North Sam Rayburn Freeway,75090,33.6769188,-96.6078467
3609,North Sam Rayburn Freeway,75090,33.6757467,-96.6079684
2617,North Sam Rayburn Freeway,75090,33.6648671,-96.6097196
4121,North Sam Rayburn Freeway,75090,33.6809123,-96.6047619
2809,North Sam Rayburn Freeway,75090,33.6678585,-96.6091056
3701,North Sam Rayburn Freeway,75090,33.6762624,-96.6078404
2773,North Sam Rayburn Freeway,75090,33.6669639,-96.6091977
2909,Michelle Drive,75090,33.6673975,-96.6127745
2912,North Sam Rayburn Freeway,75090,33.6680979,-96.6121221
1830,Washington Street,75092,33.6422410,-96.6359658
2506,North Sam Rayburn Freeway,75090,33.6610401,-96.6128482
1800,East Ida Road,75090,33.6176293,-96.5793774
1918,Jamaica Lane,75092,33.6564388,-96.6397697
704,Blanton Drive,75092,33.6411586,-96.6325431
712,Blanton Drive,75092,33.6416180,-96.6329482
708,Blanton Drive,75092,33.6413270,-96.6327505
724,Blanton Drive,75092,33.6424963,-96.6331523
716,Blanton Drive,75092,33.6418880,-96.6330742
700,Blanton Drive,75092,33.6409323,-96.6323760
720,Blanton Drive,75092,33.6421805,-96.6331302
3621,SteepleChase Drive,75092,33.6020270,-96.6429828
3621,SteepleChase Drive,75092,33.6031821,-96.6429828
3621,SteepleChase Drive,75092,33.6023376,-96.6429776
3621,SteepleChase Drive,75092,33.6026658,-96.6432868
3621,SteepleChase Drive,75092,33.6026863,-96.6426352
3621,SteepleChase Drive,75092,33.6032657,-96.6432841
3621,SteepleChase Drive,75092,33.6032793,-96.6426263
3621,SteepleChase Drive,75092,33.6038714,-96.6432921
3621,SteepleChase Drive,75092,33.6038406,-96.6426923
3621,SteepleChase Drive,75092,33.6044254,-96.6434050
3621,SteepleChase Drive,75092,33.6044535,-96.6427867
5010,Texoma Parkway,75090,33.6890378,-96.5810977
2832,Fallon Drive,75090,33.6883119,-96.5755936
2709,Fallon Drive,75090,33.6885469,-96.5772283
3209,North Sam Rayburn Freeway,75090,33.6724904,-96.6084695
3205,North Sam Rayburn Freeway,75090,33.6722313,-96.6084453
1200,South Dewey Avenue,75090,33.6240229,-96.5869451
500,North Highland Avenue,75092,33.6360891,-96.6241430
1210,East Richards Street,75090,33.6480497,-96.5979658
1202,East Richards Street,75090,33.6474044,-96.5981827
1209,East Brockett Street,75090,33.6469333,-96.5969732
816,North Grand Avenue,75090,33.6473290,-96.5952654
910,North Grand Avenue,75090,33.6480043,-96.5963555
718,North Grand Avenue,75090,33.6463377,-96.5957289
806,North Grand Avenue,75090,33.6470377,-96.5960253
1301,East Brockett Street,75090,33.6463169,-96.5964855
1302,East Richards Street,75090,33.6485648,-96.5974449
1402,East Richards Street,75090,33.6489138,-96.5966066
3601,North Calais Street,75090,33.6766891,-96.6019169
6412,South Highway 75,75090,33.5650170,-96.6083086
4300,South Highway 75,75090,33.5885973,-96.6064042
4725,South Highway 75,75090,33.5833565,-96.6007873
4700,South Highway 75,75090,33.5805878,-96.6057779
6800,South Highway 75,75090,33.5562890,-96.6088565
301,West FM 1417,75092,33.5973421,-96.6140029
200,West FM 1417,75092,33.5928391,-96.6096819
2601,Cornerstone Drive,75090,33.6635731,-96.6130018
603,South Sam Rayburn Freeway,75090,33.6307020,-96.6133120
426,West Houston Street,75090,33.6351918,-96.6142623
204,North Crockett Street,75090,33.6374137,-96.6111245
405,North Rusk Street,75090,33.6387362,-96.6134737
600,South Dewey Avenue,75090,33.6352969,-96.5877545
106,West Forest Avenue,75090,33.6174714,-96.6040378
401,West Wilson Avenue,75090,33.6151772,-96.6075841
2005,South Sam Rayburn Freeway,75090,33.6144605,-96.6071995
100,West Houston Street,75090,33.6358720,-96.6096725
400,North Travis Street,75090,33.6397217,-96.6104548
401,North Elm Street,75090,33.6394576,-96.6123997
405,West Washington Street,75090,33.6407172,-96.6146017
1111,North Travis Street,75090,33.6459945,-96.6118085
500,North Sam Rayburn Freeway,75090,33.6392646,-96.6175386
109,North Woods Street,75092,33.6354055,-96.6177067
1400,West FM 1417,75092,33.5878644,-96.6230768
4000,Howe Drive,75092,33.5902485,-96.6125827
333,East Highway 82,75092,33.6718094,-96.6120101
3621,South Sam Rayburn Freeway,75090,33.5958577,-96.6041990
706,West Houston Street,75092,33.6347780,-96.6174555
429,North Sam Rayburn Freeway,75090,33.6396486,-96.6152358
117,West Highway 82,75092,33.6715393,-96.6193386
2210,North Heritage Parkway,75092,33.6553774,-96.6431053
2210,North Heritage Parkway,75092,33.6556023,-96.6440958
19053,Highway 82,75092,33.6717514,-96.6665320
19099,Highway 82,75092,33.6730815,-96.6676195
18853,Highway 82,75092,33.6717951,-96.6628397
110,East Highway 82,75090,33.6700001,-96.6154978
3601,North Travis Street,75092,33.6684505,-96.6166344
211,East Canyon Grove Road,75092,33.6738325,-96.6171577
4100,North Travis Street,75092,33.6728892,-96.6190136
3001,North Loy Lake Road,75090,33.6701220,-96.6054149
2301,North Loy Lake Road,75090,33.6613429,-96.6053745
810,East Peyton Street,75090,33.6607551,-96.6055180
705,East Taylor Street,75090,33.6569411,-96.6082057
2201,North Sam Rayburn Freeway,75090,33.6588035,-96.6103794
1213,North Travis Street,75090,33.6471176,-96.6116769
1413,Texoma Parkway,75090,33.6489228,-96.6104303
401,South Sam Rayburn Freeway,75090,33.6316216,-96.6137480
3605,South Sam Rayburn Freeway,75090,33.5965042,-96.6039034
3415,South Sam Rayburn Freeway,75090,33.5981243,-96.6047955
200,North Rusk Street,75090,33.6383938,-96.6151495
820,North Sam Rayburn Freeway,75090,33.6431581,-96.6166006
1007,North Travis Street,75090,33.6455277,-96.6116468
4015,North Sam Rayburn Freeway,75090,33.6793575,-96.6048576
4115,North Sam Rayburn Freeway,75090,33.6805594,-96.6048095
3801,North Sam Rayburn Freeway,75090,33.6775905,-96.6076887
3201,Texoma Parkway,75090,33.6696283,-96.5929916
2920,Texoma Parkway,75090,33.6694330,-96.5942682
1706,East Lamar Street,75090,33.6391384,-96.5889523
1700,East Lamar Street,75090,33.6390455,-96.5892705
201,South Dewey Avenue,75090,33.6397746,-96.5881725
4400,East Highway 82,75090,33.6573776,-96.5628370
3600,East Highway 82,75090,33.6593517,-96.5719940
3101,East Highway 82,75090,33.6645049,-96.5795041
1102,FM 1417 Northeast,75090,33.6536977,-96.5641350
600,East Lamberth Road,75090,33.6620611,-96.6099662
2510,North Sam Rayburn Freeway,75090,33.6617070,-96.6129787
1601,East FM 1417,75090,33.6004610,-96.5904880
1713,East FM 1417,75090,33.5999725,-96.5860714
3624,South Sam Rayburn Freeway,75090,33.5954154,-96.6071816
110,East FM 1417,75090,33.5948283,-96.6025971
3707,South Highway 75,75090,33.5947129,-96.6036989
115,West Travis Street,75092,33.6017748,-96.6101929
1718,South Elm Street,75090,33.6173212,-96.6071478
505,West Center Street,75090,33.6291548,-96.6129758
421,West Moore Street,75090,33.6277702,-96.6124370
438,West Houston Street,75090,33.6352568,-96.6148131
529,West Lamar Street,75090,33.6346590,-96.6152170
524,West Houston Street,75090,33.6350182,-96.6155840
200,North Travis Street,75090,33.6376795,-96.6099121
1530,Texoma Parkway,75090,33.6526519,-96.6097975
6120,North Sam Rayburn Freeway,75090,33.7072472,-96.5918994
2500,Swamy Drive,75090,33.7061916,-96.5875894
6320,Texoma Parkway,75090,33.6997195,-96.5736916
6404,Texoma Parkway,75090,33.7006726,-96.5749971
3608,Grayson Drive,75090,33.7074779,-96.5935913
3013,Northridge Drive,75090,33.6694301,-96.6003241
1600,La Salle Drive,75090,33.6695122,-96.5977291
1906,West Highway 82,75092,33.6699824,-96.6390358
1810,West Highway 82,75092,33.6696982,-96.6340441
3014,Dauphine Drive,75090,33.6701967,-96.6031709
3010,Dauphine Drive,75090,33.6700027,-96.6031808
3006,Dauphine Drive,75090,33.6698107,-96.6031543
3002,Dauphine Drive,75090,33.6696315,-96.6031428
3314,Texoma Parkway,75090,33.6729888,-96.5925817
1505,Gallagher Drive,75090,33.6744620,-96.6004154
1206,La Salle Drive,75090,33.6702107,-96.6026443
3015,Dauphine Drive,75090,33.6699955,-96.6026706
3011,Dauphine Drive,75090,33.6698268,-96.6026529
3007,Dauphine Drive,75090,33.6696675,-96.6026375
3003,Dauphine Drive,75090,33.6694945,-96.6025874
3010,Northridge Drive,75090,33.6697654,-96.6022127
3006,Northridge Drive,75090,33.6695254,-96.6021435
3014,Northridge Drive,75090,33.6699906,-96.6022072
1214,La Salle Drive,75090,33.6702013,-96.6022369
1302,La Salle Drive,75090,33.6701931,-96.6017241
3021,Northridge Drive,75090,33.6699611,-96.6017200
1306,La Salle Drive,75090,33.6701861,-96.6014583
1308,La Salle Drive,75090,33.6702260,-96.6011426
1402,La Salle Drive,75090,33.6702134,-96.6008969
1406,La Salle Drive,75090,33.6702281,-96.6006406
1410,La Salle Drive,75090,33.6702334,-96.6003987
1414,La Salle Drive,75090,33.6702446,-96.6001532
1502,La Salle Drive,75090,33.6702570,-96.5999049
1506,La Salle Drive,75090,33.6702552,-96.5996588
1510,La Salle Drive,75090,33.6702597,-96.5994156
1514,La Salle Drive,75090,33.6702923,-96.5991322
5005,North Heritage Parkway,75092,33.6931340,-96.6487820
4915,North Heritage Parkway,75092,33.6925734,-96.6486133
4805,North Heritage Parkway,75092,33.6897527,-96.6488254
4801,North Heritage Parkway,75092,33.6895987,-96.6469694
4708,North Heritage Parkway,75092,33.6887392,-96.6498763
2800,Canyon Creek Drive,75092,33.6593773,-96.6420859
1925,West Taylor Street,75092,33.6519527,-96.6400024
2007,West Taylor Street,75092,33.6517407,-96.6415351
2300,West Taylor Street,75092,33.6504818,-96.6443698
301,North Heritage Parkway,75092,33.6316136,-96.6438878
200,South Heritage Parkway,75092,33.6254065,-96.6455567
301,South Heritage Parkway,75092,33.6228374,-96.6431636
303,South Heritage Parkway,75092,33.6210689,-96.6434834
700,South Heritage Parkway,75092,33.6189924,-96.6463928
800,South Heritage Parkway,75092,33.6178522,-96.6466552
900,South Heritage Parkway,75092,33.6167155,-96.6467767
1305,South Heritage Parkway,75092,33.6135525,-96.6432963
1821,South Heritage Parkway,75092,33.6098653,-96.6441727
3621,Steeple Chase Drive,75092,33.6033375,-96.6429896
1426,West FM 1417,75092,33.5886972,-96.6268257
3221,Northgate Drive,75092,33.5961389,-96.6172916
2700,South Travis Street,75090,33.6055829,-96.6071082
4919,Timberview Drive,75090,33.6864450,-96.5803722
4801,Texoma Parkway,75090,33.6850535,-96.5822233
2002,North Collins Freeway,75459,33.5348397,-96.6123903
8001,South Highway 75,75090,33.5422453,-96.6074994
2524,Frisco Road,75090,33.6657043,-96.5925093
600,East Peyton Street,75090,33.6583070,-96.6080913
720,East Peyton Street,75090,33.6601943,-96.6064410
606,East Lamberth Road,75090,33.6623756,-96.6092724
614,East Lamberth Road,75090,33.6624305,-96.6088154
2515,Masters Street,75090,33.6622123,-96.6082609
711,East Taylor Street,75090,33.6572187,-96.6077772
1909,North Loy Lake Road,75090,33.6574045,-96.6052222
1911,North Travis Street,75090,33.6553319,-96.6148151
1913,North Travis Street,75090,33.6554929,-96.6147920
4509,North Travis Street,75092,33.6770043,-96.6188209
4513,North Travis Street,75092,33.6773623,-96.6188485
4703,Texoma Parkway,75090,33.6846770,-96.5825128
4201,Texoma Parkway,75090,33.6800587,-96.5852351
3200,Versaille Drive,75090,33.6716431,-96.5969265
2515,North Loy Lake Road,75090,33.6631254,-96.6056527
2803,North Loy Lake Road,75090,33.6680592,-96.6055775
701,East Lamberth Road,75090,33.6633321,-96.6084020
705,East Lamberth Road,75090,33.6632182,-96.6081344
709,East Lamberth Road,75090,33.6633039,-96.6077915
713,East Lamberth Road,75090,33.6633819,-96.6073682
717,East Lamberth Road,75090,33.6634650,-96.6069255
1,Peachtree Place,75090,33.6625750,-96.6056530
2,Peachtree Place,75090,33.6626247,-96.6053684
4,Peachtree Place,75090,33.6629581,-96.6050464
3,Peachtree Place,75090,33.6627180,-96.6050891
2424,Texoma Parkway,75090,33.6651611,-96.5992258
803,Starlight Drive,75090,33.6622314,-96.6056502
807,Starlight Drive,75090,33.6622647,-96.6053965
811,Starlight Drive,75090,33.6623066,-96.6051815
815,Starlight Drive,75090,33.6623663,-96.6049895
821,Starlight Drive,75090,33.6624466,-96.6047451
2509,Bennet Avenue,75090,33.6632162,-96.6041307
2410,North Loy Lake Road,75090,33.6619793,-96.6065790
2701,North Loy Lake Road,75090,33.6667451,-96.6036390
2627,North Loy Lake Road,75090,33.6651647,-96.6044327
1015,West Houston Street,75092,33.6342419,-96.6220359
717,West Lamar Street,75092,33.6341467,-96.6174361
104,North Woods Street,75092,33.6352024,-96.6181948
707,West Washington Street,75092,33.6405928,-96.6170161
1305,North Sam Rayburn Freeway,75090,33.6480266,-96.6112197
1303,North Sam Rayburn Freeway,75090,33.6476988,-96.6112971
300,East Sycamore Street,75090,33.6484210,-96.6095367
801,East Taylor Street,75090,33.6572098,-96.6052755
1621,Texoma Parkway,75090,33.6526201,-96.6074300
1521,Texoma Parkway,75090,33.6513942,-96.6089132
805,La Salle Drive,75090,33.6705877,-96.6059588
809,La Salle Drive,75090,33.6705798,-96.6057032
813,La Salle Drive,75090,33.6705446,-96.6054851
905,La Salle Drive,75090,33.6705330,-96.6052313
3102,Burgandy Drive,75090,33.6705616,-96.6050022
3225,North Loy Lake Road,75090,33.6726477,-96.6060265
3221,North Loy Lake Road,75090,33.6724413,-96.6060341
3217,North Loy Lake Road,75090,33.6721534,-96.6060376
3213,North Loy Lake Road,75090,33.6718914,-96.6060382
3201,Bordeaux Street,75090,33.6709887,-96.6059177
3205,Bordeaux Street,75090,33.6711193,-96.6056664
3209,Bordeaux Street,75090,33.6713563,-96.6055251
3213,Bordeaux Street,75090,33.6715586,-96.6054145
3217,Bordeaux Street,75090,33.6717705,-96.6053220
3221,Bordeaux Street,75090,33.6719726,-96.6052153
3225,Bordeaux Street,75090,33.6721805,-96.6051173
3229,Bordeaux Street,75090,33.6723718,-96.6049808
3233,Bordeaux Street,75090,33.6726210,-96.6048712
3232,Bordeaux Street,75090,33.6726685,-96.6054726
3228,Bordeaux Street,75090,33.6724170,-96.6055425
3222,Bordeaux Street,75090,33.6721771,-96.6056469
3218,Bordeaux Street,75090,33.6719490,-96.6057275
3212,Bordeaux Street,75090,33.6716247,-96.6058954
1713,La Salle Drive,75090,33.6707831,-96.5974058
1715,La Salle Drive,75090,33.6708892,-96.5973382
3108,Versaille Drive,75090,33.6710481,-96.5971516
3110,Versaille Drive,75090,33.6711055,-96.5970995
3112,Versaille Drive,75090,33.6711978,-96.5970179
3114,Versaille Drive,75090,33.6712515,-96.5969621
902,Boone Drive,75090,33.6642331,-96.6041780
2605,Bennet Avenue,75090,33.6640019,-96.6041276
2601,Bennet Avenue,75090,33.6638043,-96.6041560
2515,Bennet Avenue,75090,33.6635854,-96.6041590
842,Starlight Drive,75090,33.6628833,-96.6037213
838,Starlight Drive,75090,33.6627352,-96.6038688
834,Starlight Drive,75090,33.6625635,-96.6040110
830,Starlight Drive,75090,33.6624267,-96.6041336
826,Starlight Drive,75090,33.6623114,-96.6042506
822,Starlight Drive,75090,33.6620920,-96.6044462
818,Starlight Drive,75090,33.6619527,-96.6046904
814,Starlight Drive,75090,33.6618975,-96.6049128
810,Starlight Drive,75090,33.6618506,-96.6051260
806,Starlight Drive,75090,33.6618007,-96.6053856
802,Starlight Drive,75090,33.6617788,-96.6055969
920,Boone Drive,75090,33.6644408,-96.6032481
914,Boone Drive,75090,33.6643836,-96.6034829
910,Boone Drive,75090,33.6643353,-96.6036879
906,Boone Drive,75090,33.6643375,-96.6039401
929,Boone Drive,75090,33.6650367,-96.6027415
933,Boone Drive,75090,33.6647836,-96.6026056
923,Starlight Drive,75090,33.6642213,-96.6030822
919,Starlight Drive,75090,33.6640624,-96.6033167
915,Starlight Drive,75090,33.6639006,-96.6034367
911,Starlight Drive,75090,33.6637597,-96.6035783
907,Starlight Drive,75090,33.6636138,-96.6037108
901,Starlight Drive,75090,33.6634411,-96.6038280
925,Boone Drive,75090,33.6649964,-96.6030535
919,Boone Drive,75090,33.6648944,-96.6032758
915,Boone Drive,75090,33.6648380,-96.6034754
911,Boone Drive,75090,33.6648063,-96.6036876
907,Boone Drive,75090,33.6647540,-96.6038877
903,Boone Drive,75090,33.6647174,-96.6041053
901,Boone Drive,75090,33.6646950,-96.6043405
2622,Bennet Avenue,75090,33.6646468,-96.6046894
2618,Bennet Avenue,75090,33.6644177,-96.6048394
2614,Bennet Avenue,75090,33.6642077,-96.6047559
2610,Bennet Avenue,75090,33.6640169,-96.6047018
2606,Bennet Avenue,75090,33.6638333,-96.6046918
2602,Bennet Avenue,75090,33.6636418,-96.6046838
2516,Bennet Avenue,75090,33.6634577,-96.6046498
2512,Bennet Avenue,75090,33.6632658,-96.6046238
2508,Bennet Avenue,75090,33.6630596,-96.6045795
2504,Bennet Avenue,75090,33.6628343,-96.6045644
914,Starlight Drive,75090,33.6635283,-96.6031229
910,Starlight Drive,75090,33.6633535,-96.6032507
922,Starlight Drive,75090,33.6638801,-96.6027730
918,Starlight Drive,75090,33.6637463,-96.6029633
906,Starlight Drive,75090,33.6632240,-96.6033944
902,Starlight Drive,75090,33.6630786,-96.6035322
934,Starlight Drive,75090,33.6643724,-96.6025280
926,Starlight Drive,75090,33.6640017,-96.6025957
930,Starlight Drive,75090,33.6641704,-96.6024860
1000,East Highway 82,75090,33.6683864,-96.6041944
3701,North Loy Lake Road,75090,33.6766110,-96.6054256
205,West Lamberth Road,75092,33.6611618,-96.6190416
2407,North Travis Street,75092,33.6604631,-96.6158722
2300,North Sam Rayburn Freeway,75090,33.6593790,-96.6135008
121,Pelton Street,75092,33.6587762,-96.6170322
2022,North Sam Rayburn Freeway,75090,33.6567052,-96.6139137
517,West Birge Street,75092,33.6448329,-96.6146157
520,West Birge Street,75092,33.6444789,-96.6152745
506,West Easy Street,75092,33.6453929,-96.6146403
1023,North Leslie Avenue,75092,33.6454038,-96.6150884
1001,North Leslie Avenue,75092,33.6449533,-96.6151163
1221,Preston Drive,75092,33.6474664,-96.6140666
1224,North Sam Rayburn Freeway,75090,33.6470154,-96.6134763
1213,Preston Drive,75092,33.6469222,-96.6136951
1217,Preston Drive,75092,33.6471529,-96.6139177
1234,North Travis Street,75092,33.6476544,-96.6135025
1230,North Travis Street,75092,33.6475310,-96.6134325
1228,North Travis Street,75092,33.6473058,-96.6133808
810,North Sam Rayburn Freeway,75090,33.6425247,-96.6158262
614,West Pacific Street,75092,33.6410204,-96.6166334
710,West Birge Street,75092,33.6444199,-96.6169325
622,West Birge Street,75092,33.6444057,-96.6164904
610,West Birge Street,75092,33.6444554,-96.6160807
608,West Birge Street,75092,33.6444537,-96.6158119
931,North Woods Street,75092,33.6441789,-96.6177251
927,North Woods Street,75092,33.6440271,-96.6176778
915,North Woods Street,75092,33.6435306,-96.6177727
921,North Woods Street,75092,33.6438239,-96.6176879
917,North Woods Street,75092,33.6436727,-96.6177376
718,North Sam Rayburn Freeway,75090,33.6418966,-96.6161474
712,North Sam Rayburn Freeway,75090,33.6416935,-96.6161089
708,North Sam Rayburn Freeway,75090,33.6415116,-96.6161691
704,North Sam Rayburn Freeway,75090,33.6413606,-96.6163380
710,West Pecan Street,75092,33.6369624,-96.6176855
718,West Pecan Street,75092,33.6369214,-96.6180742
222,North Woods Street,75092,33.6368482,-96.6185564
220,North Woods Street,75092,33.6366675,-96.6185358
809,West Pecan Street,75092,33.6372484,-96.6187484
813,West Pecan Street,75092,33.6372225,-96.6189542
407,North Ricketts Street,75092,33.6369354,-96.6200243
421,North Ricketts Street,75092,33.6374892,-96.6201240
808,Hillcrest Drive,75092,33.6387029,-96.6210258
219,North Woods Street,75092,33.6366996,-96.6180491
209,North Woods Street,75092,33.6365133,-96.6180172
1800,West Washington Street,75092,33.6417226,-96.6342528
1612,West Washington Street,75092,33.6421257,-96.6320682
801,Peachtree Place,75090,33.6629138,-96.6057091
803,Peachtree Place,75090,33.6629312,-96.6055954
805,Peachtree Place,75090,33.6629464,-96.6054814
1401,La Salle Drive,75090,33.6706219,-96.6008338
1405,La Salle Drive,75090,33.6706218,-96.6005998
1505,La Salle Drive,75090,33.6706449,-96.5996137
1501,La Salle Drive,75090,33.6706427,-96.5998584
1509,La Salle Drive,75090,33.6706904,-96.5993682
1513,La Salle Drive,75090,33.6706646,-96.5991211
1413,La Salle Drive,75090,33.6706601,-96.6001067
1409,La Salle Drive,75090,33.6706381,-96.6003552
727,South Travis Street,75090,33.6294458,-96.6067455
105,South Friendship Road,75092,33.6235258,-96.6618387
120,South Friendship Road,75092,33.6231619,-96.6636534
3500,West Houston Street,75092,33.6234532,-96.6501852
3928,West Houston Street,75092,33.6259712,-96.6517640
3800,West Houston Street,75092,33.6261603,-96.6510870
3704,West Houston Street,75092,33.6262156,-96.6508004
3700,West Houston Street,75092,33.6262851,-96.6504530
3608,West Houston Street,75092,33.6263491,-96.6501371
3600,West Houston Street,75092,33.6264253,-96.6498184
3508,West Houston Street,75092,33.6264977,-96.6494445
4405,Breezy Meadows,75092,33.6247916,-96.6543890
4406,West Houston Street,75092,33.6253959,-96.6548949
4200,West Houston Street,75092,33.6255777,-96.6538703
4166,West Houston Street,75092,33.6255868,-96.6534975
4004,West Houston Street,75092,33.6259051,-96.6522551
4008,West Houston Street,75092,33.6258336,-96.6525902
4154,West Houston Street,75092,33.6257469,-96.6530358
4308,West Houston Street,75092,33.6253993,-96.6542191
105,Seasons West,75092,33.6247292,-96.6552633
4406,Breezy Meadows,75092,33.6242353,-96.6542085
4410,Breezy Meadows,75092,33.6241194,-96.6549416
4502,West Houston Street,75092,33.6248292,-96.6568664
4441,West Houston Street,75092,33.6283767,-96.6558341
4401,West Houston Street,75092,33.6262574,-96.6549164
14865,State Highway 56,75092,33.6252441,-96.6605116
4911,West Houston Street,75092,33.6257279,-96.6595672
104,Seasons West,75092,33.6247562,-96.6559550
4640,West Houston Street,75092,33.6245430,-96.6583690
4830,West Houston Street,75092,33.6246474,-96.6588891
5120,West Houston Street,75092,33.6244893,-96.6593445
157,Meyers Drive,75092,33.6234303,-96.6590943
218,Meyers Drive,75092,33.6225306,-96.6595572
220,Meyers Drive,75092,33.6222835,-96.6587631
124,Industrial Drive,75092,33.6211901,-96.6611304
15245,State Highway 56,75092,33.6242017,-96.6660624
241,North Friendship Road,75092,33.6272742,-96.6589914
3801,West Houston Street,75092,33.6274299,-96.6513437
209,South Heritage Parkway,75092,33.6266035,-96.6444394
222,South Heritage Parkway,75092,33.6240968,-96.6462006
1000,South Heritage Parkway,75092,33.6151731,-96.6456056
920,South Heritage Parkway,75092,33.6157768,-96.6462480
1728,South Heritage Parkway,75092,33.6095174,-96.6456202
800,Baker Park Drive,75092,33.6225827,-96.6389175
1725,South Heritage Parkway,75092,33.6108112,-96.6426797
2907,West Travis Street,75092,33.6004838,-96.6384228
3301,North Heritage Parkway,75092,33.6686223,-96.6391818
3114,Rex Cruse Drive,75092,33.6661067,-96.6308554
2605,Rex Cruse Drive,75092,33.6605261,-96.6299052
3200,North Heritage Parkway,75092,33.6670191,-96.6426965
2108,North Heritage Parkway,75092,33.6541058,-96.6428250
1900,West Lamberth Road,75092,33.6550420,-96.6397310
5111,North Travis Street,75092,33.6856414,-96.6208733
5011,North Sam Rayburn Freeway,75092,33.6929016,-96.5979236
4070,North Loy Lake Road,75092,33.6855591,-96.6084164
4631,North Loy Lake Road,75092,33.6921946,-96.6047709
4385,North Loy Lake Road,75092,33.6903633,-96.6053590
4381,North Loy Lake Road,75092,33.6901823,-96.6047095
4303,North Sam Rayburn Freeway,75092,33.6841184,-96.6048408
3410,Post Oak Crossing,75092,33.6700396,-96.6381659
219,West Highway 82,75092,33.6714309,-96.6198391
1915,East Highway 82,75090,33.6686890,-96.5963617
2612,Frisco Road,75090,33.6648416,-96.5925820
2411,Texoma Parkway,75090,33.6647850,-96.5957487
2217,Texoma Parkway,75090,33.6625512,-96.5976129
910,South Sam Rayburn Freeway,75090,33.6266843,-96.6138447
2813,South Travis Street,75090,33.6062933,-96.6048359
310,West Wilson Avenue,75090,33.6133596,-96.6063485
1604,South Sam Rayburn Freeway,75090,33.6181159,-96.6110895
1515,South Sam Rayburn Freeway,75090,33.6193962,-96.6098107
1317,South Sam Rayburn Freeway,75090,33.6214855,-96.6106731
1301,South Sam Rayburn Freeway,75090,33.6221026,-96.6108159
1223,South Sam Rayburn Freeway,75090,33.6229899,-96.6111198
1205,South Sam Rayburn Freeway,75090,33.6234838,-96.6113706
1119,South Sam Rayburn Freeway,75090,33.6240343,-96.6115702
1109,South Sam Rayburn Freeway,75090,33.6244216,-96.6115081
802,South Sam Rayburn Freeway,75090,33.6281623,-96.6143407
704,South Sam Rayburn Freeway,75090,33.6291605,-96.6149175
604,South Sam Rayburn Freeway,75090,33.6302438,-96.6150891
520,West Lamar Street,75090,33.6341641,-96.6145960
506,West Lamar Street,75090,33.6341662,-96.6140407
330,West Houston Street,75090,33.6355984,-96.6128222
310,West Houston Street,75090,33.6355902,-96.6121631
308,West Houston Street,75090,33.6356993,-96.6119853
305,West Lamar Street,75090,33.6352836,-96.6118801
521,South Dewey Avenue,75090,33.6363735,-96.5864152
800,South Dewey Avenue,75090,33.6336328,-96.5872112
815,South Dewey Avenue,75090,33.6332356,-96.5862212
2105,South Dewey Avenue,75090,33.6184200,-96.5818289
2005,South Dewey Avenue,75090,33.6187493,-96.5816048
302,East Houston Street,75090,33.6368645,-96.6066963
916,North Grand Avenue,75090,33.6484409,-96.5955746
906,North Grand Avenue,75090,33.6479732,-96.5954634
1515,North Travis Street,75092,33.6505234,-96.6132823
3209,Northgate Drive,75092,33.5981374,-96.6178045
3117,Northgate Drive,75092,33.6003654,-96.6187505
209,West Travis Street,75092,33.6015522,-96.6114737
3612,South Sam Rayburn Freeway,75090,33.5960838,-96.6069876
3904,South Highway 75,75090,33.5913775,-96.6063841
3310,South Sam Rayburn Freeway,75090,33.5988705,-96.6082793
3150,South Sam Rayburn Freeway,75090,33.6001324,-96.6090342
432,North Rusk Street,75090,33.6397388,-96.6148726
424,North Rusk Street,75090,33.6394328,-96.6147679
423,North Rusk Street,75090,33.6394929,-96.6142402
3405,South Sam Rayburn Freeway,75090,33.5986607,-96.6050122
3321,South Sam Rayburn Freeway,75090,33.5991021,-96.6054569
3111,South Sam Rayburn Freeway,75090,33.6002754,-96.6055396
2215,South Crockett Street,75090,33.6131056,-96.6029271
2402,South Travis Street,75090,33.6107116,-96.6054807
2200,Club House Drive,75092,33.6131783,-96.6187532
2001,South Crockett Street,75090,33.6149783,-96.6044019
224,East Cottage Street,75090,33.6146479,-96.6007369
5111,North Blue Flame Road,75090,33.6900532,-96.5835794
5209,Texoma Parkway,75090,33.6897847,-96.5791201
5700,Texoma Parkway,75090,33.6950096,-96.5769702
5804,Texoma Parkway,75090,33.6957443,-96.5767862
5600,Texoma Parkway,75090,33.6938547,-96.5796285
5504,Texoma Parkway,75090,33.6922007,-96.5794048
5415,Theresa Drive,75090,33.6922898,-96.5805674
5504,Texoma Parkway,75090,33.6927501,-96.5796305
6202,Theresa Drive,75090,33.6945665,-96.5824109
5213,Texoma Parkway,75090,33.6903018,-96.5788637
5000,Texoma Parkway,75090,33.6887376,-96.5811739
5302,Texoma Parkway,75090,33.6907445,-96.5804906
4817,Texoma Parkway,75090,33.6854710,-96.5820446
2018,Preston Club Drive,75092,33.6620772,-96.7093516
3292,State Highway 289,75092,33.6673650,-96.6998745
3159,State Highway 289,75092,33.6656871,-96.6967999
1207,East Brockett Street,75090,33.6460591,-96.5969869
1201,East Brockett Street,75090,33.6461021,-96.5978517
1205,East Brockett Street,75090,33.6463867,-96.5974666
610,Nolan Drive,75092,33.6390908,-96.6383947
606,Nolan Drive,75092,33.6389165,-96.6383511
602,Nolan Drive,75092,33.6387460,-96.6383086
613,Nolan Drive,75092,33.6392556,-96.6384432
611,Nolan Drive,75092,33.6391894,-96.6378629
615,Nolan Drive,75092,33.6393558,-96.6379047
619,Nolan Drive,75092,33.6395036,-96.6379424
623,Nolan Drive,75092,33.6396536,-96.6379848
627,Nolan Drive,75092,33.6398059,-96.6380214
631,Nolan Drive,75092,33.6399686,-96.6380595
635,Nolan Drive,75092,33.6401511,-96.6381018
626,Nolan Drive,75092,33.6397464,-96.6385638
630,Nolan Drive,75092,33.6398973,-96.6386116
634,Nolan Drive,75092,33.6400569,-96.6386544
614,Nolan Drive,75092,33.6395821,-96.6385324
2112,Nolan Drive,75092,33.6403590,-96.6387634
700,Nolan Drive,75092,33.6405284,-96.6387705
704,Nolan Drive,75092,33.6406942,-96.6388178
712,Nolan Drive,75092,33.6408590,-96.6388564
716,Nolan Drive,75092,33.6410105,-96.6388956
705,Nolan Drive,75092,33.6406620,-96.6382456
709,Nolan Drive,75092,33.6408379,-96.6382895
713,Nolan Drive,75092,33.6410164,-96.6383291
715,Nolan Drive,75092,33.6412043,-96.6383546
719,Nolan Drive,75092,33.6414070,-96.6383626
723,Nolan Drive,75092,33.6415868,-96.6383737
701,Nolan Drive,75092,33.6404834,-96.6381970
2105,Ajay Drive,75092,33.6396088,-96.6391765
2109,Ajay Drive,75092,33.6396084,-96.6393973
2113,Ajay Drive,75092,33.6396124,-96.6396687
2104,Ajay Drive,75092,33.6391474,-96.6390224
2108,Ajay Drive,75092,33.6391468,-96.6392289
2112,Ajay Drive,75092,33.6391445,-96.6394303
2116,Ajay Drive,75092,33.6391469,-96.6396367
2120,Ajay Drive,75092,33.6391489,-96.6399137
2100,Ajay Drive,75092,33.6391529,-96.6387633
2104,Denson Drive,75092,33.6399647,-96.6391814
2108,Denson Drive,75092,33.6399647,-96.6394700
2101,Denson Drive,75092,33.6399656,-96.6389366
2013,Pikes Place,75092,33.6403485,-96.6392395
701,Pikes Place,75092,33.6405217,-96.6392525
709,Pikes Place,75092,33.6406803,-96.6392542
2108,Pikes Place,75092,33.6409300,-96.6392389
200,East Houston Street,75090,33.6365838,-96.6077784
2424,Texoma Parkway,75090,33.6650945,-96.5975739
933,West Lamar Street,75092,33.6335553,-96.6209152
