House number,Street name,Postal code,Latitude,Longitude
308,US Highway 277 North,76950,30.5766600,-100.6494714
246,US Highway 277 North,76950,30.5768198,-100.6493001
417,US Highway 277 North,76950,30.5777539,-100.6495765
1612,Golf Course Road,76950,30.5859638,-100.6459158
516,North Service Road,76950,30.5792003,-100.6389650
601,US Highway 277 North,76950,30.5807335,-100.6461856
1603,Airport Road,76950,30.5855213,-100.6487240
308,Hudspeth Street,76950,30.5637656,-100.6346650
510,US Highway 277 North,76950,30.5770718,-100.6486535
232,US Highway 277 North,76950,30.5764428,-100.6496754
216,US Highway 277 North,76950,30.5762867,-100.6500260
134,US Highway 277 North,76950,30.5761671,-100.6515471
205,US Highway 277 North,76950,30.5763763,-100.6512799
131,US Highway 277 North,76950,30.5756176,-100.6510885
700,Sutton Avenue,76950,30.5745047,-100.6501180
1312,North Service Road,76950,30.5801384,-100.6482870
206,US Highway 277 North,76950,30.5760864,-100.6503077
121,US Highway 277 North,76950,30.5756337,-100.6508106
1005,North Crockett Avenue,76950,30.5755957,-100.6528741
102,West Main Street,76950,30.5709817,-100.6470785
102,East Main Street,76950,30.5708739,-100.6457992
102,North Water Avenue,76950,30.5722264,-100.6438079
510,South Crockett Avenue,76950,30.5675888,-100.6450951
409,South Crockett Avenue,76950,30.5685543,-100.6448425
501,South Crockett Avenue,76950,30.5681920,-100.6445577
600,South Crockett Avenue,76950,30.5669733,-100.6444848
104,Southeast 3rd Street,76950,30.5663694,-100.6429892
707,Glasscock Avenue,76950,30.5653805,-100.6449500
804,Glasscock Avenue,76950,30.5642671,-100.6451479
111,East Oak Street,76950,30.5720145,-100.6464400
201,North Water Avenue,76950,30.5726183,-100.6454317
401,East Oak Street,76950,30.5734525,-100.6440740
319,East Mulberry Street,76950,30.5739375,-100.6445630
304,North Water Avenue,76950,30.5737225,-100.6453840
1705,North Crockett Avenue,76950,30.5783630,-100.6558665
805,North Crockett Avenue,76950,30.5747665,-100.6520495
1717,Tayloe Avenue,76950,30.5571753,-100.6372572
103,Dollie Street,76950,30.5582954,-100.6385554
1500,Glasscock Avenue,76950,30.5574477,-100.6409772
1108,North Crockett Avenue,76950,30.5766300,-100.6526142
610,South Crockett Avenue,76950,30.5666898,-100.6441778
404,South Crockett Avenue,76950,30.5685725,-100.6456020
907,South Concho Avenue,76950,30.5654869,-100.6400996
408,Southeast 1st Street,76950,30.5663562,-100.6383125
807,South Concho Avenue,76950,30.5658765,-100.6415391
127,Loop 467,76950,30.5616646,-100.6391661
503,US Highway 277 North,76950,30.5779197,-100.6494532
401,US Highway 277 North,76950,30.5776190,-100.6498503
802,North Crockett Avenue,76950,30.5747957,-100.6510272
210,US Highway 277 South,76950,30.5659295,-100.6456174
208,US Highway 277 South,76950,30.5661305,-100.6455892
909,North Water Avenue,76950,30.5773472,-100.6477448
312,Edgemont Road,76950,30.5722050,-100.6298870
308,Edgemont Road,76950,30.5719391,-100.6299601
205,Marigold Road,76950,30.5718230,-100.6296405
306,Edgemont Road,76950,30.5714288,-100.6302853
305,Brookside Street,76950,30.5710319,-100.6302569
307,Brookside Street,76950,30.5711477,-100.6298896
309,Brookside Street,76950,30.5712822,-100.6296318
128,Manor Street,76950,30.5699505,-100.6315625
1002,Southeast 2nd Street,76950,30.5699848,-100.6283485
924,Southeast 2nd Street,76950,30.5699451,-100.6288595
920,Southeast 2nd Street,76950,30.5697133,-100.6292124
104,Sonora Drive,76950,30.5681989,-100.6312681
812,Southeast 2nd Street,76950,30.5681860,-100.6319568
805,South Prospect Avenue,76950,30.5672196,-100.6394274
409,Southeast 2nd Street,76950,30.5679776,-100.6392454
415,Southeast 2nd Street,76950,30.5678470,-100.6386486
417,Southeast 2nd Street,76950,30.5675325,-100.6382014
311,Hightower Avenue,76950,30.5694542,-100.6380008
309,Hightower Avenue,76950,30.5693809,-100.6382459
401,Hightower Avenue,76950,30.5702893,-100.6371872
104,Sawyer Court,76950,30.5658631,-100.6339557
107,Sawyer Court,76950,30.5653706,-100.6339472
105,Sawyer Court,76950,30.5653374,-100.6336749
106,Sawyer Court,76950,30.5656016,-100.6340012
105,Draw Street,76950,30.5683257,-100.6375569
107,Draw Street,76950,30.5682505,-100.6371985
109,Draw Street,76950,30.5680333,-100.6370246
111,Draw Street,76950,30.5678364,-100.6367778
604,Allen Drive,76950,30.5691960,-100.6397910
606,Allen Drive,76950,30.5690953,-100.6395615
608,Allen Drive,76950,30.5690016,-100.6393870
610,Allen Drive,76950,30.5689204,-100.6391917
612,Allen Drive,76950,30.5688056,-100.6390332
614,Allen Drive,76950,30.5687046,-100.6388542
615,Allen Drive,76950,30.5690640,-100.6384796
613,Allen Drive,76950,30.5691445,-100.6387027
611,Allen Drive,76950,30.5692531,-100.6388959
607,Allen Drive,76950,30.5693095,-100.6390847
605,Allen Drive,76950,30.5694393,-100.6393460
319,Edgemont Road,76950,30.5726624,-100.6302044
315,Edgemont Road,76950,30.5723898,-100.6303672
313,Edgemont Road,76950,30.5719536,-100.6305459
307,Edgemont Road,76950,30.5716370,-100.6307317
304,Brookside Street,76950,30.5705785,-100.6302682
306,Brookside Street,76950,30.5706966,-100.6300437
308,Brookside Street,76950,30.5708072,-100.6298073
310,Brookside Street,76950,30.5708908,-100.6295551
312,Brookside Street,76950,30.5710155,-100.6293208
103,Iva Street,76950,30.5686221,-100.6338013
106,Iva Street,76950,30.5685419,-100.6330854
102,Iva Street,76950,30.5683873,-100.6333749
108,Manor Street,76950,30.5687728,-100.6328539
204,Sawyer Drive,76950,30.5663210,-100.6340384
206,Sawyer Drive,76950,30.5662215,-100.6337817
208,Sawyer Drive,76950,30.5661321,-100.6335884
102,Sawyer Court,76950,30.5659152,-100.6334542
101,Sawyer Court,76950,30.5656070,-100.6332833
214,Sawyer Drive,76950,30.5654230,-100.6331957
216,Sawyer Drive,76950,30.5652243,-100.6332269
218,Sawyer Drive,76950,30.5650483,-100.6333173
220,Sawyer Drive,76950,30.5649301,-100.6335501
222,Sawyer Drive,76950,30.5648511,-100.6338160
224,Sawyer Drive,76950,30.5648325,-100.6340524
1901,Tayloe Avenue,76950,30.5557575,-100.6364107
501,Cornell Street,76950,30.5567803,-100.6436622
511,Cornell Street,76950,30.5580571,-100.6440456
503,Cornell Street,76950,30.5583093,-100.6435307
411,Cornell Street,76950,30.5585916,-100.6431707
1907,Tayloe Avenue,76950,30.5565925,-100.6358464
105,Spur Road,76950,30.5787198,-100.6439067
101,Deerwood Drive,76950,30.5776982,-100.6367772
2004,North Crockett Avenue,76950,30.5816133,-100.6577674
309,Northeast Oak Street,76950,30.5730900,-100.6442970
1009,North Crockett Avenue,76950,30.5754922,-100.6533108
270,US Highway 277 North,76950,30.5767851,-100.6487370
1312,North Service Road,76950,30.5806282,-100.6486334
