House number,Street name,Postal code,Latitude,Longitude
708,College Avenue,77587,29.6607655,-95.2383172
1313,Missouri Street,77587,29.6538016,-95.2434047
2900,South Shaver Street,77502,29.6682103,-95.2092571
61,Spencer Highway,77587,29.6645660,-95.2332115
513,College Avenue,77587,29.6626207,-95.2365993
602,College Avenue,77587,29.6619093,-95.2367267
607,College Avenue,77587,29.6620015,-95.2374345
615,College Avenue,77587,29.6617330,-95.2379617
703,College Avenue,77587,29.6613951,-95.2383247
716,College Avenue,77587,29.6605051,-95.2387266
306,Winkler Drive,77587,29.6696887,-95.2431848
802,Montana Street,77587,29.6687713,-95.2469023
815,Louisiana Street,77587,29.6672422,-95.2464640
615,Louisiana Street,77587,29.6686547,-95.2444693
1002,Louisiana Street,77587,29.6656014,-95.2477887
1115,Nebraska Street,77587,29.6636481,-95.2487044
1008,Kansas Street,77587,29.6645750,-95.2473968
508,Dallas Street,77587,29.6684991,-95.2428870
806,Louisiana Street,77587,29.6670597,-95.2457074
701,Nebraska Street,77587,29.6668901,-95.2433621
714,Louisiana Street,77587,29.6675192,-95.2450682
708,Kansas Street,77587,29.6670127,-95.2439843
601,Nebraska Street,77587,29.6677335,-95.2421861
704,Kansas Street,77587,29.6671864,-95.2437400
711,Kansas Street,77587,29.6672604,-95.2446331
810,Louisiana Street,77587,29.6668881,-95.2459498
601,State Street,77587,29.6674647,-95.2433545
1211,Georgia Street,77587,29.6601671,-95.2474210
1315,Georgia Street,77587,29.6592448,-95.2487350
716,Houston Boulevard,77587,29.6675246,-95.2406782
603,Georgia Street,77587,29.6653159,-95.2402017
1106,Nebraska Street,77587,29.6630980,-95.2476704
601,Kentucky Street,77587,29.6662175,-95.2407263
1213,Kentucky Street,77587,29.6608561,-95.2482640
1306,Kentucky Street,77587,29.6599644,-95.2484954
1101,Kentucky Street,77587,29.6621708,-95.2464072
708,Nebraska Street,77587,29.6661997,-95.2433349
526,Kentucky Street,77587,29.6661073,-95.2398688
908,Dallas Street,77587,29.6655262,-95.2401324
901,Michigan Street,77587,29.6644395,-95.2450089
717,Kentucky Street,77587,29.6650665,-95.2423307
712,Kentucky Street,77587,29.6646401,-95.2419295
802,Michigan Street,77587,29.6649335,-95.2433103
1005,Michigan Street,77587,29.6635518,-95.2462524
631,Michigan Street,77587,29.6663416,-95.2423470
620,Michigan Street,77587,29.6662082,-95.2415243
1106,Kentucky Street,77587,29.6615149,-95.2463048
615,Michigan Street,77587,29.6667299,-95.2418028
1115,Kentucky Street,77587,29.6616709,-95.2470706
519,Kentucky Street,77587,29.6666276,-95.2401479
602,Michigan Street,77587,29.6665566,-95.2410389
1301,Kentucky Street,77587,29.6605764,-95.2486648
719,Michigan Street,77587,29.6657267,-95.2431919
702,Houston Boulevard,77587,29.6680544,-95.2407233
904,Nebraska Street,77587,29.6648094,-95.2452560
1206,Nebraska Street,77587,29.6622936,-95.2488049
1208,Kentucky Street,77587,29.6606747,-95.2474913
717,Michigan Street,77587,29.6655977,-95.2433804
1101,Michigan Street,77587,29.6628842,-95.2472046
1002,Michigan Street,77587,29.6632049,-95.2457227
622,Michigan Street,77587,29.6661208,-95.2416456
1115,Michigan Street,77587,29.6622736,-95.2479274
609,Michigan Street,77587,29.6668158,-95.2416816
604,Michigan Street,77587,29.6665137,-95.2411003
706,Michigan Street,77587,29.6657167,-95.2422237
604,College Avenue,77587,29.6618742,-95.2369030
1202,Houston Boulevard,77587,29.6640103,-95.2374540
1108,Houston Boulevard,77587,29.6646842,-95.2375127
508,College Avenue,77587,29.6624346,-95.2357708
702,Indiana Street,77587,29.6626004,-95.2394236
507,Illinois Street,77587,29.6619497,-95.2355061
1106,Houston Boulevard,77587,29.6650640,-95.2377639
722,Georgia Street,77587,29.6635879,-95.2416129
605,Pennsylvania Street,77587,29.6629624,-95.2381435
630,Virginia Street,77587,29.6636459,-95.2397419
808,Georgia Street,77587,29.6631426,-95.2422301
719,Virginia Street,77587,29.6634832,-95.2409573
80300,Indiana Street,77587,29.6622102,-95.2409653
511,College Avenue,77587,29.6626658,-95.2368211
905,Indiana Street,77587,29.6613076,-95.2422148
801,Virginia Street,77587,29.6630586,-95.2415518
603,College Avenue,77587,29.6622791,-95.2373064
715,Pennsylvania Street,77587,29.6617261,-95.2398546
901,Indiana Street,77587,29.6614586,-95.2420269
706,College Avenue,77587,29.6609082,-95.2382509
612,College Avenue,77587,29.6615604,-95.2373969
510,Pennsylvania Street,77587,29.6630760,-95.2367551
602,Indiana Street,77587,29.6634957,-95.2381807
603,Pennsylvania Street,77587,29.6630347,-95.2379923
1010,Houston Boulevard,77587,29.6653676,-95.2381514
1109,State Street,77587,29.6632592,-95.2394913
802,Georgia Street,77587,29.6634067,-95.2418598
903,Indiana Street,77587,29.6613721,-95.2421492
513,Illinois Street,77587,29.6617741,-95.2357483
731,Virginia Street,77587,29.6632231,-95.2413198
1018,Dallas Street,77587,29.6645289,-95.2398947
509,Indiana Street,77587,29.6645721,-95.2376661
812,Indiana Street,77587,29.6614305,-95.2410591
714,Georgia Street,77587,29.6638685,-95.2412164
811,Virginia Street,77587,29.6626661,-95.2421008
809,Indiana Street,77587,29.6619180,-95.2413917
501,Virginia Street,77587,29.6653572,-95.2383479
528,Virginia Street,77587,29.6646389,-95.2383469
805,Indiana Street,77587,29.6621241,-95.2410886
727,Virginia Street,77587,29.6632659,-95.2412594
806,Georgia Street,77587,29.6632375,-95.2421116
724,Virginia Street,77587,29.6629697,-95.2406773
509,Illinois Street,77587,29.6618627,-95.2356309
702,College Avenue,77587,29.6610502,-95.2380387
806,Virginia Street,77587,29.6624504,-95.2413890
704,College Avenue,77587,29.6609582,-95.2381574
1107,Dallas Street,77587,29.6643985,-95.2386824
715,College Avenue,77587,29.6609529,-95.2391592
809,Pennsylvania Street,77587,29.6611784,-95.2406254
1403,Indiana Street,77587,29.6573778,-95.2477548
1406,Virginia Street,77587,29.6576178,-95.2481900
1302,Indiana Street,77587,29.6577673,-95.2461480
1303,College Avenue,77587,29.6566517,-95.2452000
1310,Indiana Street,77587,29.6574875,-95.2465949
1208,Indiana Street,77587,29.6583300,-95.2454125
1107,Virginia Street,77587,29.6603709,-95.2453444
1102,Georgia Street,77587,29.6609305,-95.2453522
902,Georgia Street,77587,29.6626134,-95.2431063
1402,Georgia Street,77587,29.6585548,-95.2486467
1312,Virginia Street,77587,29.6580863,-95.2475301
910,Pennsylvania Street,77587,29.6599184,-95.2414030
912,Pennsylvania Street,77587,29.6598322,-95.2415259
1406,Georgia Street,77587,29.6584304,-95.2488365
1009,College Avenue,77587,29.6586995,-95.2423276
907,Virginia Street,77587,29.6619584,-95.2431005
913,Virginia Street,77587,29.6616930,-95.2434657
1202,Indiana Street,77587,29.6586351,-95.2449852
1621,Spencer Highway,77587,29.6652790,-95.2094470
1503,Spencer Highway,77587,29.6651220,-95.2120890
2312,Houston Boulevard,77587,29.6551600,-95.2287139
1202,College Avenue,77587,29.6569550,-95.2434950
911,Missouri Street,77587,29.6568899,-95.2387292
909,Missouri Street,77587,29.6569746,-95.2386080
1701,Waco Street,77587,29.6566206,-95.2386725
1113,Iowa Street,77587,29.6544935,-95.2404458
913,Missouri Street,77587,29.6568007,-95.2388512
1003,Mississippi Street,77587,29.6549698,-95.2380127
813,Mississippi Street,77587,29.6561912,-95.2363496
1203,Iowa Street,77587,29.6541015,-95.2409589
1201,Iowa Street,77587,29.6541976,-95.2408378
1306,College Avenue,77587,29.6561332,-95.2449137
1211,Mississippi Street,77587,29.6531137,-95.2405143
1538,College Avenue,77587,29.6537637,-95.2483053
1301,Iowa Street,77587,29.6534038,-95.2419646
1305,Iowa Street,77587,29.6532450,-95.2421955
1310,College Avenue,77587,29.6559576,-95.2451578
806,Illinois Street,77587,29.6593778,-95.2385195
703,Washington Street,77587,29.6597429,-95.2367966
601,Mississippi Street,77587,29.6582843,-95.2333496
509,Minnesota Street,77587,29.6579795,-95.2319835
508,Washington Street,77587,29.6608816,-95.2346408
1502,Houston Boulevard,77587,29.6618784,-95.2350567
704,Illinois Street,77587,29.6603285,-95.2373419
1714,Houston Boulevard,77587,29.6599277,-95.2333040
1802,Houston Boulevard,77587,29.6594222,-95.2328262
507,Missouri Street,77587,29.6603241,-95.2340497
806,Washington Street,77587,29.6586291,-95.2377776
511,Iowa Street,77587,29.6594034,-95.2337683
1405,Main Street,77587,29.6595448,-95.2395333
802,College Avenue,77587,29.6602842,-95.2391172
1406,Beaumont Street,77587,29.6601590,-95.2387540
705,Wisconsin Street,77587,29.6558260,-95.2333969
805,Minnesota Street,77587,29.6557735,-95.2351105
1107,Minnesota Street,77587,29.6531944,-95.2386290
1003,Wisconsin Street,77587,29.6534294,-95.2365775
615,Wisconsin Street,77587,29.6561388,-95.2327734
1007,Minnesota Street,77587,29.6540014,-95.2375281
1016,Minnesota Street,77587,29.6533975,-95.2377811
1001,Wisconsin Street,77587,29.6535063,-95.2364643
708,Mississippi Street,77587,29.6569581,-95.2345811
714,Mississippi Street,77587,29.6566915,-95.2349602
905,Minnesota Street,77587,29.6549060,-95.2363093
703,Wisconsin Street,77587,29.6558857,-95.2333213
909,Minnesota Street,77587,29.6547326,-95.2365503
707,Wisconsin Street,77587,29.6557744,-95.2334653
1113,Minnesota Street,77587,29.6528889,-95.2391231
515,Wisconsin Street,77587,29.6571307,-95.2313866
1006,Mississippi Street,77587,29.6545953,-95.2378895
2606,Houston Boulevard,77587,29.6532811,-95.2272327
813,Arkansas Street,77587,29.6538882,-95.2341975
2101,Dallas Street,77587,29.6565675,-95.2313810
513,Oregon Street,77587,29.6538761,-95.2287875
702,Arkansas Street,77587,29.6549362,-95.2320952
713,Arkansas Street,77587,29.6546639,-95.2330598
1008,Wisconsin Street,77587,29.6529856,-95.2366152
910,Arkansas Street,77587,29.6529207,-95.2348466
612,Arizona Street,77587,29.6538028,-95.2301789
601,Idaho Street,77587,29.6530221,-95.2283706
913,Arkansas Street,77587,29.6530252,-95.2353474
1004,Wisconsin Street,77587,29.6531587,-95.2363304
2604,Houston Boulevard,77587,29.6531957,-95.2269952
312,Kentucky Street,77587,29.6680937,-95.2370972
211,Kentucky Street,77587,29.6693703,-95.2363065
202,Michigan Street,77587,29.6698382,-95.2364384
311,Michigan Street,77587,29.6692881,-95.2379877
110,Virginia Street,77587,29.6682943,-95.2332346
205,Kentucky Street,77587,29.6695828,-95.2360038
310,Nebraska Street,77587,29.6698051,-95.2384767
708,Palestine Street,77587,29.6690345,-95.2388484
313,Kentucky Street,77587,29.6683692,-95.2375100
210,Kentucky Street,77587,29.6691186,-95.2356693
216,Kentucky Street,77587,29.6687230,-95.2362195
203,Kentucky Street,77587,29.6696692,-95.2358825
107,Virginia Street,77587,29.6686604,-95.2333790
612,Palestine Street,77587,29.6698217,-95.2395140
908,El Paso Street,77587,29.6682729,-95.2361329
1104,Palestine Street,77587,29.6662352,-95.2361009
214,Kentucky Street,77587,29.6688112,-95.2360984
101,Spencer Highway,77587,29.6645753,-95.2313269
302,Georgia Street,77587,29.6677727,-95.2357604
209,Winton Street,77587,29.6648118,-95.2319521
211,Michigan Street,77587,29.6700002,-95.2369371
616,Palestine Street,77587,29.6697144,-95.2394113
211,Winton Street,77587,29.6647247,-95.2320730
201,Kentucky Street,77587,29.6697542,-95.2357618
313,Michigan Street,77587,29.6690692,-95.2382950
210,Indiana Street,77587,29.6666917,-95.2337032
112,Georgia Street,77587,29.6691240,-95.2341520
202,Virginia Street,77587,29.6678002,-95.2339295
1105,Dumont Street,77587,29.6656786,-95.2365104
208,Indiana Street,77587,29.6667771,-95.2335810
415,Spencer Highway,77587,29.6647930,-95.2264100
707,Spencer Highway,77587,29.6649513,-95.2226144
705,Spencer Highway,77587,29.6649477,-95.2228518
407,Bonnie Street,77587,29.6687593,-95.2270397
328,Weldon Street,77587,29.6695473,-95.2314663
602,Avenue A,77587,29.6662687,-95.2246146
318,Avenue B,77587,29.6652478,-95.2279447
416,Avenue B,77587,29.6652724,-95.2264233
311,Spencer Highway,77587,29.6646907,-95.2279188
305,Spencer Highway,77587,29.6646814,-95.2286533
512,Bonnie Street,77587,29.6684309,-95.2248066
901,Bonnie Street,77587,29.6688079,-95.2206668
912,Avenue B,77587,29.6654207,-95.2195136
910,Bonnie Street,77587,29.6685298,-95.2200096
815,Avenue B,77587,29.6657086,-95.2206231
105,South Allen-Genoa Road,77587,29.6655663,-95.2160617
1008,Avenue A,77587,29.6664089,-95.2183973
1007,Avenue A,77587,29.6667032,-95.2183400
1317,Spencer Highway,77587,29.6654401,-95.2138153
804,Avenue A,77587,29.6663320,-95.2216526
908,Bonnie Street,77587,29.6685337,-95.2201959
902,Bonnie Street,77587,29.6685417,-95.2205787
1521,Ammons Street,77587,29.6681263,-95.2102073
413,Halkies Street,77587,29.6697102,-95.2167370
1523,Christa Lane,77587,29.6698368,-95.2111852
1509,Avenue A,77587,29.6670995,-95.2142300
1311,Avenue A,77587,29.6671081,-95.2136780
206,North Perez Road,77587,29.6679176,-95.2140755
2816,Shaver Street,77502,29.6695925,-95.2083956
2900,Shaver Street,77502,29.6683064,-95.2080970
2950,Shaver Street,77502,29.6668264,-95.2080917
1603,Spencer Highway,77587,29.6649997,-95.2110128
1615,Spencer Highway,77587,29.6650126,-95.2104647
2826,Shaver Street,77502,29.6689959,-95.2090759
504,Spencer Highway,77587,29.6643217,-95.2259294
514,Spencer Highway,77587,29.6643330,-95.2251002
506,Spencer Highway,77587,29.6643265,-95.2255730
502,Spencer Highway,77587,29.6643195,-95.2260869
606,Spencer Highway,77587,29.6643425,-95.2244012
402,Spencer Highway,77587,29.6641828,-95.2275191
306,Spencer Highway,77587,29.6642871,-95.2284647
106,Spencer Highway,77587,29.6642627,-95.2315736
100,Spencer Highway,77587,29.6641415,-95.2319185
206,Spencer Highway,77587,29.6642549,-95.2300951
110,Spencer Highway,77587,29.6642662,-95.2312745
202,Spencer Highway,77587,29.6642515,-95.2302884
616,Avenue G,77587,29.6595918,-95.2235160
448,Pecan Drive,77587,29.6573239,-95.2286411
514,Avenue J,77587,29.6572007,-95.2249807
106,South Perez Road,77587,29.6660141,-95.2126986
1203,Spencer Highway,77587,29.6652382,-95.2153657
1211,Spencer Highway,77587,29.6650008,-95.2148658
1303,Spencer Highway,77587,29.6650545,-95.2144497
1307,Spencer Highway,77587,29.6650022,-95.2140859
1315,Spencer Highway,77587,29.6651134,-95.2137869
1401,Spencer Highway,77587,29.6651282,-95.2134599
1101,Indiana Street,77587,29.6597177,-95.2448467
1412,Pennsylvania Street,77587,29.6556765,-95.2472640
1302,Jackson Street,77587,29.6562128,-95.2466041
1401,College Avenue,77587,29.6558986,-95.2462828
1310,Pennsylvania Street,77587,29.6566885,-95.2458519
1308,Pennsylvania Street,77587,29.6567695,-95.2457319
1306,Pennsylvania Street,77587,29.6568600,-95.2456155
1304,Pennsylvania Street,77587,29.6569474,-95.2454901
1302,Pennsylvania Street,77587,29.6570271,-95.2453701
1213,Indiana Street,77587,29.6585589,-95.2461267
1211,Indiana Street,77587,29.6586375,-95.2460187
1209,Indiana Street,77587,29.6587269,-95.2458858
1207,Indiana Street,77587,29.6588202,-95.2457660
1205,Indiana Street,77587,29.6589006,-95.2456433
1203,Indiana Street,77587,29.6589897,-95.2455182
1206,Virginia Street,77587,29.6591639,-95.2459822
1210,Virginia Street,77587,29.6590268,-95.2461664
1212,Virginia Street,77587,29.6589332,-95.2462840
1214,Virginia Street,77587,29.6588463,-95.2464092
1216,Virginia Street,77587,29.6587723,-95.2465217
1204,Indiana Street,77587,29.6585287,-95.2450828
1211,Pennsylvania Street,77587,29.6578893,-95.2452955
1214,Indiana Street,77587,29.6580850,-95.2456848
1216,Indiana Street,77587,29.6580068,-95.2458036
1220,Houston Boulevard,77587,29.6637396,-95.2370179
900,Main Street,77587,29.6632509,-95.2444046
609,Louisiana Street,77587,29.6692683,-95.2442328
620,Winkler Drive,77587,29.6696945,-95.2449395
528,Michigan Street,77587,29.6667116,-95.2407635
529,Kentucky Street,77587,29.6664865,-95.2404025
804,Winkler Drive,77587,29.6696059,-95.2485650
804,Montana Street,77587,29.6685745,-95.2471015
810,Montana Street,77587,29.6683595,-95.2474241
310,Beaumont Street,77587,29.6683770,-95.2467285
211,Main Street,77587,29.6686373,-95.2480610
812,Utah Avenue,77587,29.6689980,-95.2483180
801,Montana Street,77587,29.6691790,-95.2474785
302,State Street,77587,29.6690505,-95.2457655
702,Winkler Drive,77587,29.6698520,-95.2462945
202,Winkler Drive,77587,29.6698900,-95.2443680
408,Houston Boulevard,77587,29.6698225,-95.2425787
795,Dumont Street,77587,29.6686446,-95.2391444
802,Houston Boulevard,77587,29.6673405,-95.2400110
813,Dumont Street,77587,29.6673985,-95.2380545
907,Dumont Street,77587,29.6670575,-95.2377697
1007,Dumont Street,77587,29.6664590,-95.2371630
922,State Highway 3,77587,29.6660675,-95.2392120
1008,Pennsylvania Street,77587,29.6592995,-95.2421874
1016,Pennsylvania Street,77587,29.6588353,-95.2428364
1108,Pennsylvania Street,77587,29.6583275,-95.2435455
1106,Pennsylvania Street,77587,29.6584625,-95.2433640
1104,Pennsylvania Street,77587,29.6585855,-95.2431925
1115,College Avenue,77587,29.6579280,-95.2434280
1101,College Avenue,77587,29.6583420,-95.2429210
1007,Pennsylvania Street,77587,29.6596710,-95.2427925
1015,Pennsylvania Street,77587,29.6592995,-95.2432855
1101,Pennsylvania Street,77587,29.6591175,-95.2435665
1105,Pennsylvania Street,77587,29.6589245,-95.2437915
1102,Indiana Street,77587,29.6593855,-95.2439035
1202,Pennsylvania Street,77587,29.6578880,-95.2442755
1203,College Avenue,77587,29.6574240,-95.2440225
1205,College Avenue,77587,29.6573085,-95.2442050
1209,College Avenue,77587,29.6572115,-95.2444635
1212,College Avenue,77587,29.6566129,-95.2441092
1315,Illinois Street,77587,29.6553125,-95.2450587
1314,College Avenue,77587,29.6556083,-95.2453465
1403,Illinois Street,77587,29.6550010,-95.2455260
1407,Illinois Street,77587,29.6548190,-95.2457670
1416,College Avenue,77587,29.6547502,-95.2465785
1410,College Avenue,77587,29.6550918,-95.2461133
1402,College Avenue,77587,29.6553350,-95.2458440
1413,College Avenue,77587,29.6554285,-95.2469245
3716,South Shaver Street,77504,29.6538530,-95.2084363
1312,Avenue N,77587,29.6533472,-95.2134638
1314,Avenue N,77587,29.6533391,-95.2133104
1310,Avenue N,77587,29.6533385,-95.2136199
1306,Avenue N,77587,29.6533183,-95.2139544
1308,Avenue N,77587,29.6533272,-95.2137802
1316,Avenue N,77587,29.6533127,-95.2131514
1406,14th Street,77587,29.6530335,-95.2133570
424,Pecan Drive,77587,29.6585340,-95.2299230
440,Pecan Drive,77587,29.6576935,-95.2291333
454,Pecan Drive,77587,29.6569110,-95.2284363
406,Avenue H,77587,29.6590325,-95.2270915
455,Pecan Drive,77587,29.6573050,-95.2281684
508,Avenue J,77587,29.6571050,-95.2254420
428,Pecan Drive,77587,29.6583206,-95.2297319
411,Avenue I,77587,29.6585210,-95.2266020
512,Avenue J,77587,29.6570780,-95.2251270
452,Texas Street,77587,29.6577797,-95.2279650
515,Avenue J,77587,29.6575895,-95.2248235
512,Avenue H,77587,29.6590700,-95.2251670
405,Avenue I,77587,29.6584695,-95.2270770
453,Pecan Drive,77587,29.6574023,-95.2282730
415,Avenue J,77587,29.6575305,-95.2262775
606,Avenue H,77587,29.6590640,-95.2241455
416,Avenue H,77587,29.6591085,-95.2263030
315,Avenue I,77587,29.6585174,-95.2277443
412,Avenue H,77587,29.6590685,-95.2266615
413,Avenue J,77587,29.6575215,-95.2264275
430,Pecan Drive,77587,29.6582032,-95.2296367
306,Avenue H,77587,29.6590615,-95.2280575
503,Avenue I,77587,29.6584810,-95.2257840
501,Avenue I,77587,29.6584965,-95.2259450
457,Pecan Drive,77587,29.6571875,-95.2280730
444,Texas Street,77587,29.6582160,-95.2283707
433,Pecan Drive,77587,29.6584182,-95.2290912
604,Avenue H,77587,29.6590955,-95.2244190
450,Pecan Drive,77587,29.6571592,-95.2286297
610,Avenue J,77587,29.6571250,-95.2238325
502,Avenue I,77587,29.6580710,-95.2259410
438,Texas Street,77587,29.6584996,-95.2287089
511,Avenue J,77587,29.6575510,-95.2251390
454,Texas Street,77587,29.6576900,-95.2278615
609,Avenue J,77587,29.6575530,-95.2239425
601,Avenue J,77587,29.6576160,-95.2244795
402,Avenue I,77587,29.6580205,-95.2273735
414,Avenue H,77587,29.6590685,-95.2264695
510,Avenue J,77587,29.6570900,-95.2252850
608,Avenue I,77587,29.6581400,-95.2239705
442,Texas Street,77587,29.6583252,-95.2284740
412,Avenue I,77587,29.6580615,-95.2265890
426,Pecan Drive,77587,29.6584090,-95.2298685
447,Texas Street,77587,29.6585336,-95.2279525
452,Pecan Drive,77587,29.6570332,-95.2285355
515,Avenue I,77587,29.6585000,-95.2248480
406,Avenue I,77587,29.6580651,-95.2270700
513,Avenue J,77587,29.6575375,-95.2249825
456,Texas Street,77587,29.6575275,-95.2277708
601,Avenue I,77587,29.6584755,-95.2245020
404,Avenue H,77587,29.6590450,-95.2272466
407,Avenue I,77587,29.6585160,-95.2269280
509,Avenue I,77587,29.6585025,-95.2253200
501,Avenue J,77587,29.6575070,-95.2259005
435,Pecan Drive,77587,29.6582395,-95.2290481
407,Avenue J,77587,29.6575245,-95.2268835
607,Avenue I,77587,29.6585315,-95.2238785
605,Avenue J,77587,29.6575430,-95.2242390
441,Pecan Drive,77587,29.6579588,-95.2287505
602,Avenue J,77587,29.6571085,-95.2244735
507,Avenue I,77587,29.6585070,-95.2254700
605,Avenue I,77587,29.6585175,-95.2241410
450,Texas Street,77587,29.6578860,-95.2280760
403,Avenue I,77587,29.6584815,-95.2272325
302,Avenue H,77587,29.6590460,-95.2283995
431,Pecan Drive,77587,29.6584785,-95.2292515
409,Avenue J,77587,29.6575920,-95.2266945
516,Avenue J,77587,29.6570865,-95.2248120
506,Avenue J,77587,29.6570490,-95.2255860
443,Pecan Drive,77587,29.6578334,-95.2286880
606,Avenue J,77587,29.6571590,-95.2241540
439,Pecan Drive,77587,29.6580782,-95.2288485
447,Pecan Drive,77587,29.6577315,-95.2285785
456,Pecan Drive,77587,29.6568275,-95.2283273
457,Texas Street,77587,29.6575735,-95.2271045
505,Avenue J,77587,29.6575280,-95.2256055
604,Avenue J,77587,29.6571270,-95.2243110
429,Pecan Drive,77587,29.6585823,-95.2293355
440,Texas Street,77587,29.6584207,-95.2285760
416,Avenue I,77587,29.6580755,-95.2263300
511,Avenue I,77587,29.6585445,-95.2251560
506,Avenue I,77587,29.6580885,-95.2256205
514,Avenue I,77587,29.6581565,-95.2249925
451,Pecan Drive,77587,29.6575750,-95.2283841
504,Avenue H,77587,29.6590535,-95.2257250
458,Texas Street,77587,29.6573558,-95.2276495
508,Avenue H,77587,29.6590715,-95.2254735
509,Avenue J,77587,29.6575420,-95.2252960
402,Avenue H,77587,29.6590361,-95.2274058
502,Avenue J,77587,29.6570100,-95.2259180
508,Avenue I,77587,29.6580717,-95.2254585
612,Minnesota Street,77587,29.6567755,-95.2329555
703,Minnesota Street,77587,29.6567020,-95.2339655
709,Minnesota Street,77587,29.6564110,-95.2342682
608,Iowa Street,77587,29.6584703,-95.2341499
703,Mississippi Street,77587,29.6574305,-95.2346165
802,Mississippi Street,77587,29.6563310,-95.2352622
2201,Dallas Street,77587,29.6556850,-95.2309055
807,Minnesota Street,77587,29.6557260,-95.2352740
612,Missouri Street,77587,29.6590795,-95.2350955
1808,Houston Blvd,77587,29.6589845,-95.2332615
608,Minnesota Street,77587,29.6569375,-95.2327185
609,Wisconsin Street,77587,29.6564335,-95.2324180
706,Minnesota Street,77587,29.6562330,-95.2337030
512,Mississippi Street,77587,29.6583465,-95.2325695
515,Minnesota Street,77587,29.6578085,-95.2324630
606,Missouri Street,77587,29.6593259,-95.2347372
603,Iowa Street,77587,29.6590110,-95.2342545
510,Wisconsin Street,77587,29.6568930,-95.2309880
704,Mississippi Street,77587,29.6570875,-95.2342940
706,Wisconsin Street,77587,29.6554755,-95.2330005
1902,Dallas Street,77587,29.6579385,-95.2331530
716,Mississippi Street,77587,29.6565560,-95.2350105
417,Pecan Drive,77587,29.6592236,-95.2299548
612,Mississippi Street,77587,29.6575385,-95.2336725
808,Minnesota Street,77587,29.6553620,-95.2349565
806,Mississippi Street,77587,29.6562279,-95.2355544
610,Wisconsin Street,77587,29.6561125,-95.2321205
615,Minnesota Street,77587,29.6569290,-95.2335245
2002,Houston Boulevard,77587,29.6576380,-95.2312690
606,Iowa Street,77587,29.6585970,-95.2340520
511,Minnesota Street,77587,29.6578985,-95.2321540
605,Minnesota Street,77587,29.6574115,-95.2329315
602,Wisconsin Street,77587,29.6564470,-95.2316170
813,Minnesota Street,77587,29.6553680,-95.2357675
804,Minnesota Street,77587,29.6555285,-95.2347247
710,Mississippi Street,77587,29.6568360,-95.2346700
601,Minnesota Street,77587,29.6575970,-95.2327030
610,Mississippi Street,77587,29.6576577,-95.2335504
707,Minnesota Street,77587,29.6564860,-95.2341495
704,Wisconsin Street,77587,29.6555600,-95.2328750
1809,Beaumont Street,77587,29.6569415,-95.2353655
702,Missouri Street,77587,29.6586765,-95.2356451
803,Minnesota Street,77587,29.6558660,-95.2350012
708,Minnesota Street,77587,29.6561305,-95.2338105
611,Minnesota Street,77587,29.6571105,-95.2332610
705,Iowa Street,77587,29.6581895,-95.2354613
811,Minnesota Street,77587,29.6554998,-95.2355088
609,Minnesota Street,77587,29.6572005,-95.2331425
710,Iowa Street,77587,29.6576090,-95.2352920
1908,Houston Boulevard,77587,29.6583470,-95.2319280
510,Arkansas Street,77587,29.6560683,-95.2302862
715,Minnesota Street,77587,29.6561320,-95.2346385
711,Minnesota Street,77587,29.6563195,-95.2344050
616,Minnesota Street,77587,29.6565935,-95.2331903
516,Mississippi Street,77587,29.6581069,-95.2327356
610,Missouri Street,77587,29.6591680,-95.2349805
803,Mississippi Street,77587,29.6566538,-95.2357450
801,Mississippi Street,77587,29.6567292,-95.2356343
606,Mississippi Street,77587,29.6578155,-95.2333171
430,Texas Street,77587,29.6590125,-95.2291382
514,Mississippi Street,77587,29.6582530,-95.2326830
423,Pecan Drive,77587,29.6589060,-95.2296660
706,Mississippi Street,77587,29.6570105,-95.2344305
714,Minnesota Street,77587,29.6558880,-95.2342005
810,Mississippi Street,77587,29.6560350,-95.2357920
608,Mississippi Street,77587,29.6577219,-95.2334506
510,Mississippi Street,77587,29.6584095,-95.2324130
614,Mississippi Street,77587,29.6574155,-95.2337574
704,Minnesota Street,77587,29.6563600,-95.2335320
702,Mississippi Street,77587,29.6571800,-95.2341910
605,Iowa Street,77587,29.6589185,-95.2343520
705,Mississippi Street,77587,29.6573741,-95.2347619
706,Iowa Street,77587,29.6577742,-95.2351372
711,Iowa Street,77587,29.6578775,-95.2358062
514,Minnesota Street,77587,29.6574828,-95.2319452
510,Minnesota Street,77587,29.6576030,-95.2316525
810,Minnesota Street,77587,29.6552533,-95.2350707
1902,Houston Boulevard,77587,29.6584715,-95.2320035
416,Pecan Drive,77587,29.6589450,-95.2303242
709,Wisconsin Street,77587,29.6556360,-95.2335610
604,Iowa Street,77587,29.6586999,-95.2339037
605,Mississippi Street,77587,29.6581475,-95.2336280
1802,Dallas Street,77587,29.6587117,-95.2337768
712,Mississippi Street,77587,29.6567385,-95.2347935
710,Minnesota Street,77587,29.6560670,-95.2339720
802,Minnesota Street,77587,29.6556254,-95.2345782
1900,Houston Boulevard,77587,29.6586685,-95.2322250
707,Iowa Street,77587,29.6579965,-95.2355917
611,Wisconsin Street,77587,29.6563455,-95.2325640
515,Arkansas Street,77587,29.6562940,-95.2310075
612,Iowa Street,77587,29.6583065,-95.2343675
428,Texas Street,77587,29.6591612,-95.2293162
512,Minnesota Street,77587,29.6574975,-95.2317585
1806,Houston Boulevard,77587,29.6592385,-95.2327130
615,Iowa Street,77587,29.6585015,-95.2349862
616,Missouri Street,77587,29.6589123,-95.2353090
1802,State Street,77587,29.6579192,-95.2349002
516,Minnesota Street,77587,29.6573455,-95.2320335
610,Minnesota Street,77587,29.6568702,-95.2328222
616,Iowa Street,77587,29.6581597,-95.2346695
716,Minnesota Street,77587,29.6558045,-95.2343385
607,Minnesota Street,77587,29.6573140,-95.2330750
611,Mississippi Street,77587,29.6578566,-95.2340275
609,Iowa Street,77587,29.6587420,-95.2346105
2106,Houston Boulevard,77587,29.6570468,-95.2303639
521,Wisconsin Street,77587,29.6570820,-95.2317690
613,Wisconsin Street,77587,29.6562715,-95.2326905
711,Mississippi Street,77587,29.6570821,-95.2351080
1910,Houston Boulevard,77587,29.6582395,-95.2318310
1912,Houston Boulevard,77587,29.6580880,-95.2317512
712,Iowa Street,77587,29.6575100,-95.2355095
805,Mississippi Street,77587,29.6565441,-95.2358611
616,Mississippi Street,77587,29.6573440,-95.2338745
708,Missouri Street,77587,29.6584840,-95.2359135
603,Mississippi Street,77587,29.6582285,-95.2334970
703,Iowa Street,77587,29.6582930,-95.2352611
615,Mississippi Street,77587,29.6577325,-95.2342485
446,Pecan Drive,77587,29.6574008,-95.2288698
1609,State Street,77587,29.6592635,-95.2356895
1808,Houston Boulevard,77587,29.6590245,-95.2324755
438,Pecan Drive,77587,29.6577808,-95.2292523
705,Minnesota Street,77587,29.6566015,-95.2340370
707,Arkansas Street,77587,29.6549765,-95.2327370
715,Nevada Street,77587,29.6538410,-95.2324995
814,Arkansas Street,77587,29.6535750,-95.2338865
814,Minnesota Street,77587,29.6550855,-95.2353106
604,Arkansas Street,77587,29.6555955,-95.2310385
510,Nevada Street,77587,29.6552475,-95.2295606
910,Wisconsin Street,77587,29.6536964,-95.2355450
801,Arkansas Street,77587,29.6544075,-95.2334700
715,Arkansas Street,77587,29.6546055,-95.2332165
616,Wisconsin Street,77587,29.6557920,-95.2324370
905,Arkansas Street,77587,29.6533875,-95.2348947
810,Wisconsin Street,77587,29.6544630,-95.2342875
806,Arkansas Street,77587,29.6539431,-95.2334236
603,Nevada Street,77587,29.6552376,-95.2305535
701,Arkansas Street,77587,29.6552320,-95.2323650
611,Arkansas Street,77587,29.6555554,-95.2318305
810,Nevada Street,77587,29.6529100,-95.2328710
710,Nevada Street,77587,29.6537650,-95.2318075
709,Arkansas Street,77587,29.6548955,-95.2328435
2102,State Street,77587,29.6556111,-95.2327298
803,Wisconsin Street,77587,29.6551170,-95.2343175
711,Nevada Street,77587,29.6539984,-95.2322693
815,Wisconsin Street,77587,29.6546148,-95.2350750
605,Arkansas Street,77587,29.6558425,-95.2314600
2410,Dallas Street,77587,29.6538070,-95.2291750
509,Nevada Street,77587,29.6557390,-95.2299655
605,Nevada Street,77587,29.6550297,-95.2308839
811,Nevada Street,77587,29.6532044,-95.2333584
907,Wisconsin Street,77587,29.6540800,-95.2357145
614,Wisconsin Street,77587,29.6559300,-95.2323765
714,Arkansas Street,77587,29.6543540,-95.2327660
612,Wisconsin Street,77587,29.6560070,-95.2322375
705,Arkansas Street,77587,29.6550705,-95.2326195
606,Arizona Street,77587,29.6539825,-95.2297285
716,Wisconsin Street,77587,29.6550200,-95.2336165
805,Wisconsin Street,77587,29.6550326,-95.2344310
609,Oregon Street,77587,29.6533845,-95.2295855
607,Oregon Street,77587,29.6534720,-95.2294635
614,Arizona Street,77587,29.6536608,-95.2302275
809,Arkansas Street,77587,29.6540605,-95.2339485
807,Wisconsin Street,77587,29.6549415,-95.2345480
616,Nevada Street,77587,29.6542475,-95.2310085
607,Arizona Street,77587,29.6542191,-95.2301502
602,Oregon Street,77587,29.6533245,-95.2286920
607,Wisconsin Street,77587,29.6565190,-95.2322980
805,Arkansas Street,77587,29.6542345,-95.2337094
809,Wisconsin Street,77587,29.6548445,-95.2346695
607,Arkansas Street,77587,29.6557756,-95.2315856
601,Arkansas Street,77587,29.6560233,-95.2312475
610,Nevada Street,77587,29.6545645,-95.2306875
2102,Main Street,77587,29.6539922,-95.2350535
2304,Houston Boulevard,77587,29.6554950,-95.2292325
802,Wisconsin Street,77587,29.6548215,-95.2338610
803,Arkansas Street,77587,29.6543325,-95.2335810
701,Oregon Street,77587,29.6528965,-95.2303890
704,Arkansas Street,77587,29.6547895,-95.2321600
806,Wisconsin Street,77587,29.6546820,-95.2340995
613,Arizona Street,77587,29.6539570,-95.2305115
2212,Houston Boulevard,77587,29.6560560,-95.2298450
802,Arkansas Street,77587,29.6540655,-95.2331535
801,Wisconsin Street,77587,29.6552235,-95.2342230
906,Wisconsin Street,77587,29.6538445,-95.2353055
815,Nevada Street,77587,29.6530405,-95.2336135
604,Oregon Street,77587,29.6532732,-95.2288882
812,Minnesota Street,77587,29.6551855,-95.2351975
815,Arkansas Street,77587,29.6538010,-95.2343130
810,Arkansas Street,77587,29.6535925,-95.2334795
605,Wisconsin Street,77587,29.6566240,-95.2322060
609,Arkansas Street,77587,29.6556411,-95.2316901
804,Arkansas Street,77587,29.6540157,-95.2332946
702,Nevada Street,77587,29.6539362,-95.2314700
603,Arizona Street,77587,29.6543960,-95.2299009
613,Nevada Street,77587,29.6547245,-95.2312905
606,Oregon Street,77587,29.6531319,-95.2289662
809,Nevada Street,77587,29.6533150,-95.2332420
906,Arkansas Street,77587,29.6529950,-95.2345138
707,Nevada Street,77587,29.6541573,-95.2320885
805,Nevada Street,77587,29.6534625,-95.2330030
710,Wisconsin Street,77587,29.6552415,-95.2331850
615,Arizona Street,77587,29.6538838,-95.2306630
705,Nevada Street,77587,29.6542449,-95.2318722
803,Nevada Street,77587,29.6535700,-95.2329025
816,Arkansas Street,77587,29.6534645,-95.2340230
909,Arkansas Street,77587,29.6532277,-95.2351433
701,Nevada Street,77587,29.6545540,-95.2317420
808,Nevada Street,77587,29.6529824,-95.2327325
712,Wisconsin Street,77587,29.6551445,-95.2334065
613,Arkansas Street,77587,29.6555177,-95.2319801
811,Arkansas Street,77587,29.6539770,-95.2340800
816,Minnesota Street,77587,29.6550055,-95.2354490
914,Wisconsin Street,77587,29.6535080,-95.2357815
807,Nevada Street,77587,29.6533750,-95.2331270
908,Arkansas Street,77587,29.6529652,-95.2347000
703,Arkansas Street,77587,29.6551453,-95.2324763
912,Wisconsin Street,77587,29.6535705,-95.2356600
712,Arkansas Street,77587,29.6544435,-95.2326220
711,Arkansas Street,77587,29.6548200,-95.2329815
2104,Main Street,77587,29.6536063,-95.2346624
612,Arkansas Street,77587,29.6552079,-95.2315521
903,Arkansas Street,77587,29.6534719,-95.2347749
813,Nevada Street,77587,29.6531427,-95.2334978
801,Nevada Street,77587,29.6536590,-95.2327760
2010,Houston Boulevard,77587,29.6574296,-95.2310516
909,Wisconsin Street,77587,29.6539977,-95.2358474
902,Arkansas Street,77587,29.6531890,-95.2342800
901,Wisconsin Street,77587,29.6543835,-95.2353955
812,Wisconsin Street,77587,29.6543850,-95.2344542
614,Minnesota Street,77587,29.6566715,-95.2330670
716,Arkansas Street,77587,29.6542790,-95.2328880
808,Arkansas Street,77587,29.6538183,-95.2335526
712,Nevada Street,77587,29.6536542,-95.2319038
812,Arkansas Street,77587,29.6536650,-95.2337893
714,Nevada Street,77587,29.6535848,-95.2320405
706,Arkansas Street,77587,29.6547010,-95.2323566
713,Minnesota Street,77587,29.6562190,-95.2345115
807,Arkansas Street,77587,29.6541701,-95.2338395
809,Minnesota Street,77587,29.6556195,-95.2354065
701,Wisconsin Street,77587,29.6559990,-95.2330880
401,Avenue G,77587,29.6608010,-95.2274630
203,Avenue G,77587,29.6608045,-95.2297795
516,Avenue F,77587,29.6612225,-95.2248950
2512,Houston Boulevard,77587,29.6536387,-95.2273191
215,Avenue F,77587,29.6617260,-95.2292655
310,Avenue F,77587,29.6612845,-95.2282610
513,Avenue East,77587,29.6627815,-95.2250845
512,Avenue East,77587,29.6623620,-95.2252300
2506,Houston Boulevard,77587,29.6539092,-95.2276615
305,Avenue G,77587,29.6607410,-95.2285655
206,Avenue F,77587,29.6612405,-95.2300260
2042,Houston Boulevard,77587,29.6546100,-95.2283544
610,Avenue F,77587,29.6613520,-95.2239320
515,Avenue F,77587,29.6617995,-95.2249055
212,Avenue F,77587,29.6612565,-95.2295515
311,Avenue G,77587,29.6607590,-95.2281020
505,Avenue F,77587,29.6617675,-95.2256955
306,Avenue F,77587,29.6612820,-95.2285790
502,Avenue F,77587,29.6612735,-95.2260025
404,Avenue F,77587,29.6613035,-95.2272955
605,Avenue East,77587,29.6628275,-95.2243200
402,Avenue F,77587,29.6612985,-95.2274540
413,Avenue G,77587,29.6607900,-95.2264865
209,Avenue F,77587,29.6617525,-95.2297280
312,Avenue F,77587,29.6612890,-95.2281010
416,Avenue F,77587,29.6612725,-95.2263435
409,Avenue G,77587,29.6607505,-95.2268075
608,Avenue F,77587,29.6613830,-95.2241145
602,Avenue D,77587,29.6633260,-95.2245905
512,Arizona Street,77587,29.6545410,-95.2288205
601,Avenue F,77587,29.6618610,-95.2245665
509,Avenue East,77587,29.6627585,-95.2254030
511,Avenue East,77587,29.6627605,-95.2252450
216,Avenue F,77587,29.6612460,-95.2292360
301,Avenue G,77587,29.6607970,-95.2288995
605,Avenue G,77587,29.6607655,-95.2242935
307,Avenue G,77587,29.6607375,-95.2284060
432,Texas Street,77587,29.6588959,-95.2290086
405,Avenue G,77587,29.6607485,-95.2271170
434,Texas Street,77587,29.6587705,-95.2289528
504,Avenue F,77587,29.6613365,-95.2258380
311,Avenue F,77587,29.6616955,-95.2281145
607,Avenue G,77587,29.6608830,-95.2239950
307,Avenue F,77587,29.6617155,-95.2284300
508,Avenue East,77587,29.6623250,-95.2255485
508,Avenue D,77587,29.6633331,-95.2255750
401,Avenue F,77587,29.6617450,-95.2274640
2504,Houston Boulevard,77587,29.6539585,-95.2278245
609,Avenue East,77587,29.6627710,-95.2240420
509,Avenue F,77587,29.6617805,-95.2253790
314,Avenue F,77587,29.6613135,-95.2279470
515,Avenue G,77587,29.6608170,-95.2248545
515,Avenue East,77587,29.6628085,-95.2249230
605,Avenue F,77587,29.6617910,-95.2242540
516,Avenue D,77587,29.6632640,-95.2250320
508,Oregon Street,77587,29.6540579,-95.2279684
215,Avenue G,77587,29.6607435,-95.2292250
608,Avenue East,77587,29.6623485,-95.2241810
413,Avenue F,77587,29.6617410,-95.2265175
610,Avenue D,77587,29.6633390,-95.2239630
2616,Houston Boulevard,77587,29.6529710,-95.2266170
512,Avenue F,77587,29.6613355,-95.2252100
303,Avenue G,77587,29.6607200,-95.2287115
604,Avenue D,77587,29.6633855,-95.2244540
301,Avenue F,77587,29.6617715,-95.2288950
511,Oregon Street,77587,29.6540590,-95.2285730
415,Avenue G,77587,29.6607760,-95.2263480
601,Avenue East,77587,29.6628655,-95.2245355
507,Avenue G,77587,29.6607830,-95.2255105
601,Avenue G,77587,29.6607735,-95.2245500
415,Pecan Drive,77587,29.6593168,-95.2300705
607,Avenue F,77587,29.6617935,-95.2240875
603,Avenue F,77587,29.6618075,-95.2244080
505,Avenue East,77587,29.6628175,-95.2257145
510,Avenue East,77587,29.6623225,-95.2253870
610,Arizona Street,77587,29.6537826,-95.2299363
503,Avenue F,77587,29.6617190,-95.2258495
501,Avenue F,77587,29.6617775,-95.2260095
509,Avenue G,77587,29.6607875,-95.2253565
509,Arizona Street,77587,29.6549220,-95.2291555
2502,Houston Boulevard,77587,29.6541480,-95.2278115
609,Avenue F,77587,29.6617995,-95.2239230
516,Nevada Street,77587,29.6550605,-95.2298705
606,Nevada Street,77587,29.6547401,-95.2304470
605,Arizona Street,77587,29.6543118,-95.2300566
503,Avenue East,77587,29.6627585,-95.2258740
513,Arizona Street,77587,29.6548172,-95.2294512
606,Avenue F,77587,29.6613590,-95.2243210
704,Arizona Street,77587,29.6531675,-95.2307220
605,Oregon Street,77587,29.6535625,-95.2293455
514,Avenue F,77587,29.6613390,-95.2250475
602,Avenue F,77587,29.6613555,-95.2245210
503,Avenue G,77587,29.6607640,-95.2258295
207,Avenue F,77587,29.6616885,-95.2298905
501,Avenue G,77587,29.6608600,-95.2259715
514,Avenue East,77587,29.6623620,-95.2250745
412,Pecan Drive,77587,29.6592367,-95.2305978
213,Avenue F,77587,29.6617400,-95.2294200
511,Avenue G,77587,29.6607795,-95.2251940
507,Avenue F,77587,29.6617845,-95.2255350
608,Oregon Street,77587,29.6531065,-95.2291095
611,Oregon Street,77587,29.6532980,-95.2297085
515,Arizona Street,77587,29.6546725,-95.2295340
614,Nevada Street,77587,29.6543591,-95.2309104
612,Nevada Street,77587,29.6544900,-95.2308075
507,Avenue East,77587,29.6627745,-95.2255575
509,Arkansas Street,77587,29.6564720,-95.2305745
516,Arizona Street,77587,29.6543730,-95.2291200
601,Wisconsin Street,77587,29.6567730,-95.2319475
608,Wisconsin Street,77587,29.6561855,-95.2320005
604,Minnesota Street,77587,29.6570765,-95.2324805
512,Wisconsin Street,77587,29.6568005,-95.2311145
603,Wisconsin Street,77587,29.6566955,-95.2320539
2102,Houston Boulevard,77587,29.6572210,-95.2305450
608,Nevada Street,77587,29.6546530,-95.2305605
603,Minnesota Street,77587,29.6574485,-95.2327900
911,Arkansas Street,77587,29.6531491,-95.2352747
510,Oregon Street,77587,29.6536555,-95.2282895
404,Avenue D,77587,29.6633365,-95.2273555
411,Avenue East,77587,29.6627385,-95.2266895
112,Avenue D,77587,29.6631980,-95.2310375
411,Spencer Highway,77587,29.6648459,-95.2267685
602,Spencer Highway,77587,29.6642515,-95.2246050
404,Avenue B,77587,29.6652220,-95.2273710
603,Avenue D,77587,29.6637650,-95.2244495
410,Avenue East,77587,29.6623005,-95.2268340
412,Avenue D,77587,29.6633204,-95.2267198
310,Avenue D,77587,29.6633435,-95.2283120
514,Avenue B,77587,29.6652468,-95.2249900
502,Avenue E,77587,29.6621340,-95.2307140
411,Avenue D,77587,29.6637165,-95.2267040
310,Avenue B,77587,29.6652230,-95.2287680
510,Avenue B,77587,29.6652890,-95.2252950
109,Avenue E,77587,29.6626510,-95.2311325
205,Winton Street,77587,29.6650045,-95.2316975
406,Avenue B,77587,29.6650530,-95.2272460
509,Avenue D,77587,29.6637465,-95.2254250
402,Avenue B,77587,29.6652360,-95.2275260
107,Avenue D,77587,29.6636710,-95.2313470
515,Spencer Highway,77587,29.6648720,-95.2249660
309,Avenue D,77587,29.6636825,-95.2282935
115,Avenue D,77587,29.6636595,-95.2307420
415,Avenue East,77587,29.6627605,-95.2263820
314,Avenue D,77587,29.6632955,-95.2279980
403,Avenue D,77587,29.6636955,-95.2273440
111,Avenue D,77587,29.6636815,-95.2310315
416,Avenue D,77587,29.6632962,-95.2263894
407,Avenue East,77587,29.6627260,-95.2270055
401,Avenue East,77587,29.6627480,-95.2274780
308,Avenue D,77587,29.6633005,-95.2284730
414,Spencer Highway,77587,29.6641326,-95.2268598
702,Avenue B,77587,29.6652112,-95.2232001
414,Avenue East,77587,29.6623060,-95.2265220
409,Avenue East,77587,29.6628105,-95.2268490
302,Avenue B,77587,29.6652040,-95.2295095
501,Avenue D,77587,29.6637560,-95.2260345
601,Avenue D,77587,29.6637695,-95.2246065
102,Avenue D,77587,29.6631685,-95.2318270
513,Avenue D,77587,29.6637505,-95.2251040
215,Avenue E,77587,29.6627235,-95.2292950
307,Avenue D,77587,29.6636745,-95.2284755
216,Avenue D,77587,29.6631990,-95.2292660
405,Avenue D,77587,29.6637045,-95.2271845
316,Avenue B,77587,29.6652185,-95.2282990
412,Avenue East,77587,29.6623050,-95.2266755
412,Avenue B,77587,29.6652310,-95.2266410
415,Avenue D,77587,29.6638300,-95.2264750
608,Spencer Highway,77587,29.6640905,-95.2240890
413,Avenue East,77587,29.6627385,-95.2265350
304,Avenue B,77587,29.6652195,-95.2292685
414,Avenue D,77587,29.6632200,-95.2265426
701,Spencer Highway,77587,29.6649385,-95.2230250
511,Avenue D,77587,29.6637695,-95.2252675
110,Avenue D,77587,29.6631965,-95.2312010
505,Avenue D,77587,29.6637010,-95.2257435
502,Avenue B,77587,29.6652560,-95.2260855
302,Spencer Highway,77587,29.6641640,-95.2289595
501,Avenue East,77587,29.6627710,-95.2260335
303,Avenue D,77587,29.6638820,-95.2287585
108,Avenue D,77587,29.6632141,-95.2313795
307,Avenue East,77587,29.6627230,-95.2284585
304,Avenue D,77587,29.6632735,-95.2287825
401,Avenue D,77587,29.6637300,-95.2275075
203,Spencer Highway,77587,29.6648687,-95.2302889
112,Avenue E,77587,29.6622270,-95.2310225
404,Spencer Highway,77587,29.6641505,-95.2272795
402,Avenue D,77587,29.6633000,-95.2274940
501,Spencer Highway,77587,29.6648865,-95.2260805
108,Avenue E,77587,29.6622140,-95.2313510
110,Avenue E,77587,29.6622240,-95.2311750
302,Avenue D,77587,29.6632830,-95.2289560
313,Avenue East,77587,29.6627420,-95.2279875
607,Avenue D,77587,29.6637545,-95.2241495
711,Spencer Highway,77587,29.6649700,-95.2222110
305,Avenue D,77587,29.6637020,-95.2286330
507,Spencer Highway,77587,29.6647860,-95.2256225
105,Avenue D,77587,29.6637110,-95.2316790
405,Avenue East,77587,29.6627430,-95.2271625
115,Avenue E,77587,29.6627435,-95.2307180
507,Avenue D,77587,29.6637455,-95.2255830
406,Avenue D,77587,29.6633200,-95.2271895
311,Avenue East,77587,29.6627350,-95.2281430
303,Avenue East,77587,29.6627125,-95.2287560
118,Spencer Highway,77587,29.6641275,-95.2307730
114,Avenue E,77587,29.6621825,-95.2308640
301,Avenue D,77587,29.6636735,-95.2289490
301,Avenue East,77587,29.6627245,-95.2289265
510,Avenue D,77587,29.6633325,-95.2254170
401,Spencer Highway,77587,29.6648675,-95.2271636
210,Spencer Highway,77587,29.6641404,-95.2298730
407,Avenue D,77587,29.6637305,-95.2270555
305,Avenue East,77587,29.6627095,-95.2286130
312,Avenue B,77587,29.6652463,-95.2285510
408,Avenue D,77587,29.6632934,-95.2270070
114,Avenue D,77587,29.6631975,-95.2308680
605,Avenue D,77587,29.6637710,-95.2242925
113,Avenue E,77587,29.6626570,-95.2309005
306,Avenue B,77587,29.6651705,-95.2291385
1206,Palestine Street,77587,29.6651815,-95.2355685
302,Avenue East,77587,29.6621815,-95.2289220
214,York Street,77587,29.6650705,-95.2325625
316,Avenue East,77587,29.6622325,-95.2278230
401,Pennsylvania Street,77587,29.6650066,-95.2351967
308,Avenue East,77587,29.6622885,-95.2284450
210,York Street,77587,29.6651863,-95.2322866
405,Avenue F,77587,29.6618400,-95.2271640
1402,Houston Boulevard,77587,29.6626520,-95.2356040
415,Avenue F,77587,29.6618293,-95.2263394
65,Spencer Highway,77587,29.6647220,-95.2329035
312,Avenue East,77587,29.6623085,-95.2281270
1404,Houston Boulevard,77587,29.6624684,-95.2355377
514,Illinois Street,77587,29.6614200,-95.2356440
516,Illinois Street,77587,29.6613455,-95.2357735
402,Avenue East,77587,29.6622525,-95.2274750
1506,Houston Boulevard,77587,29.6615090,-95.2351875
407,Avenue F,77587,29.6617235,-95.2269830
301,York Street,77587,29.6650495,-95.2333210
303,Avenue F,77587,29.6617838,-95.2287491
305,Avenue F,77587,29.6617350,-95.2285880
411,Avenue F,77587,29.6617910,-95.2266745
505,Illinois Street,77587,29.6621810,-95.2355280
409,Avenue F,77587,29.6616955,-95.2268275
310,Avenue East,77587,29.6623015,-95.2282850
406,Avenue F,77587,29.6612880,-95.2271335
216,Avenue East,77587,29.6622385,-95.2292815
304,Avenue F,77587,29.6612795,-95.2287345
411,Avenue G,77587,29.6607435,-95.2266450
212,Avenue East,77587,29.6622750,-95.2295860
309,Avenue F,77587,29.6617105,-95.2282755
416,Avenue East,77587,29.6623000,-95.2263660
111,Texas Street,77587,29.6636305,-95.2326535
516,Avenue East,77587,29.6622365,-95.2249075
511,Avenue F,77587,29.6618105,-95.2252215
73,Spencer Highway,77587,29.6647039,-95.2322236
211,Avenue F,77587,29.6617995,-95.2295650
506,Avenue East,77587,29.6623233,-95.2257060
314,Avenue East,77587,29.6622960,-95.2279720
104,Avenue D,77587,29.6631780,-95.2316810
406,Avenue East,77587,29.6622960,-95.2271520
315,Avenue F,77587,29.6617700,-95.2278010
410,Avenue F,77587,29.6613135,-95.2268140
604,Avenue East,77587,29.6623610,-95.2244185
403,Avenue East,77587,29.6627270,-95.2273225
316,Avenue D,77587,29.6632585,-95.2278560
103,Avenue E,77587,29.6627745,-95.2317410
56,Spencer Highway,77587,29.6640297,-95.2328720
302,Avenue F,77587,29.6612700,-95.2288860
214,Avenue F,77587,29.6612785,-95.2293930
408,Avenue East,77587,29.6623015,-95.2269935
1001,Spencer Highway,77587,29.6649857,-95.2185823
1013,Spencer Highway,77587,29.6649270,-95.2178140
811,Spencer Highway,77587,29.6648890,-95.2209545
1011,Spencer Highway,77587,29.6650065,-95.2181305
813,Spencer Highway,77587,29.6649410,-95.2207900
807,Spencer Highway,77587,29.6649060,-95.2212550
815,Spencer Highway,77587,29.6649270,-95.2206260
805,Spencer Highway,77587,29.6649015,-95.2215240
508,Avenue B,77587,29.6652808,-95.2254578
601,Spencer Highway,77587,29.6648673,-95.2244443
609,Spencer Highway,77587,29.6649310,-95.2240205
1623,Spencer Highway,77587,29.6650945,-95.2097920
1625,Spencer Highway,77587,29.6652545,-95.2089075
3028,Shaver Street,77502,29.6650470,-95.2081835
808,Mississippi Street,77587,29.6561185,-95.2356690
1505,College Avenue,77587,29.6552875,-95.2484006
629,Indiana Street,77587,29.6632751,-95.2393898
627,Indiana Street,77587,29.6633296,-95.2393117
624,Virginia Street,77587,29.6637311,-95.2395069
811,Houston Blvd,77587,29.6672100,-95.2392069
501,Lynn Street,77587,29.6696215,-95.2257995
138,Volney Street,77587,29.6695190,-95.2278340
409,Lynn Street,77587,29.6696000,-95.2269075
401,Lynn Street,77587,29.6695725,-95.2276295
411,Halkies Street,77587,29.6695450,-95.2166950
412,Freda Drive,77587,29.6695585,-95.2162850
816,Kolb Road,77587,29.6696900,-95.2206900
417,Lynn Street,77587,29.6696065,-95.2261715
101,Virginia Street,77587,29.6692660,-95.2332170
509,Lynn Street,77587,29.6696060,-95.2250320
407,8th Street,77587,29.6693890,-95.2212335
1112,Kolb Road,77587,29.6697850,-95.2171255
324,Weldon Street,77587,29.6694725,-95.2320140
414,Freda Drive,77587,29.6697010,-95.2162780
502,Lynn Street,77587,29.6692255,-95.2257860
413,Lynn Street,77587,29.6695984,-95.2265340
332,Weldon Street,77587,29.6695335,-95.2311015
411,Vickers Street,77587,29.6693640,-95.2242520
405,Lynn Street,77587,29.6695700,-95.2272760
405,Weldon Street,77587,29.6692320,-95.2296505
408,Freda Drive,77587,29.6692710,-95.2162545
503,Lynn Street,77587,29.6695960,-95.2256040
513,Lynn Street,77587,29.6696255,-95.2246465
403,Lynn Street,77587,29.6695320,-95.2274530
414,Lynn Street,77587,29.6692395,-95.2265220
415,Halkies Street,77587,29.6698415,-95.2166910
404,North Allen-Genoa Road,77587,29.6695255,-95.2195735
902,Kolb Road,77587,29.6697200,-95.2203445
411,Lynn Street,77587,29.6695590,-95.2267185
136,Volney Street,77587,29.6693535,-95.2279730
406,8th Street,77587,29.6694696,-95.2217758
407,Lynn Street,77587,29.6695820,-95.2271060
407,Halkies Street,77587,29.6692615,-95.2167075
410,Freda Drive,77587,29.6694105,-95.2162695
411,8th Street,77587,29.6697960,-95.2212085
505,Lynn Street,77587,29.6696000,-95.2254100
511,Lynn Street,77587,29.6696145,-95.2248530
336,Weldon Street,77587,29.6695700,-95.2307085
416,Freda Drive,77587,29.6698410,-95.2163340
1110,Kolb Road,77587,29.6697450,-95.2173925
334,Weldon Street,77587,29.6695245,-95.2309145
1900,Austin Street,77587,29.6530568,-95.2398067
1204,Mississippi Street,77587,29.6529999,-95.2399082
1210,Mississippi Street,77587,29.6527121,-95.2402430
1201,Mississippi Street,77587,29.6535645,-95.2402330
1203,Mississippi Street,77587,29.6534617,-95.2403423
1215,Mississippi Street,77587,29.6529822,-95.2410146
1301,Mississippi Street,77587,29.6527380,-95.2414830
1302,Iowa Street,77587,29.6530486,-95.2416467
1212,Iowa Street,77587,29.6533789,-95.2411466
1208,Iowa Street,77587,29.6535843,-95.2408569
1206,Iowa Street,77587,29.6536700,-95.2407329
1216,Missouri Street,77587,29.6540710,-95.2421214
1212,Missouri Street,77587,29.6541508,-95.2418202
1302,Missouri Street,77587,29.6538197,-95.2423391
1304,Missouri Street,77587,29.6537325,-95.2424600
1314,Missouri Street,77587,29.6532863,-95.2430614
1315,Iowa Street,77587,29.6528976,-95.2428905
1402,Missouri Street,77587,29.6529971,-95.2434405
1209,Missouri Street,77587,29.6547554,-95.2421604
1213,Missouri Street,77587,29.6545637,-95.2423895
1603,Missouri Street,77587,29.6542744,-95.2427737
1303,Missouri Street,77587,29.6542152,-95.2429144
1305,Missouri Street,77587,29.6541047,-95.2430110
1311,Missouri Street,77587,29.6539700,-95.2431901
1316,Washington Street,77587,29.6539679,-95.2438954
1314,Washington Street,77587,29.6539849,-95.2437293
1312,Washington Street,77587,29.6541338,-95.2436541
1412,Washington Street,77587,29.6535602,-95.2444854
1401,Missouri Street,77587,29.6534813,-95.2438938
1409,Missouri Street,77587,29.6531185,-95.2443720
1415,Missouri Street,77587,29.6529321,-95.2446647
1416,Washington Street,77587,29.6531439,-95.2450502
1415,Washington Street,77587,29.6541464,-95.2449233
1408,Illinois Street,77587,29.6543693,-95.2453334
1402,Illinois Street,77587,29.6546380,-95.2449982
1309,Washington Street,77587,29.6547405,-95.2441169
1308,Illinois Street,77587,29.6549337,-95.2446007
1310,Illinois Street,77587,29.6551323,-95.2443578
1210,Washington Street,77587,29.6550138,-95.2424033
1208,Washington Street,77587,29.6551164,-95.2422884
1206,Washington Street,77587,29.6551947,-95.2421790
1202,Washington Street,77587,29.6553184,-95.2420435
1518,Austin Street,77587,29.6558270,-95.2425527
1514,Austin Street,77587,29.6559295,-95.2426467
1210,Illinois Street,77587,29.6559009,-95.2430906
1207,Washington Street,77587,29.6556689,-95.2428091
1209,Washington Street,77587,29.6555667,-95.2429185
1509,Galveston Street,77587,29.6554610,-95.2432108
1216,Illinois Street,77587,29.6556517,-95.2435049
1410,Austin Street,77587,29.6565836,-95.2432763
1207,Illinois Street,77587,29.6564322,-95.2434866
1209,Illinois Street,77587,29.6563267,-95.2436345
1211,Illinois Street,77587,29.6562636,-95.2437742
1213,Illinois Street,77587,29.6561531,-95.2438849
1313,Illinois Street,77587,29.6554633,-95.2449187
1312,College Avenue,77587,29.6557943,-95.2452015
1308,College Avenue,77587,29.6559642,-95.2449659
1302,College Avenue,77587,29.6561894,-95.2446848
1215,Illinois Street,77587,29.6560434,-95.2439598
1410,Galveston Street,77587,29.6557513,-95.2443426
1415,College Avenue,77587,29.6551865,-95.2470438
1403,College Avenue,77587,29.6557293,-95.2464714
1309,College Avenue,77587,29.6563162,-95.2456292
1313,College Avenue,77587,29.6565156,-95.2461918
1213,College Avenue,77587,29.6569385,-95.2447917
1216,Pennsylvania Street,77587,29.6571726,-95.2450339
1204,Pennsylvania Street,77587,29.6577826,-95.2444080
1210,Pennsylvania Street,77587,29.6575606,-95.2447660
1212,Pennsylvania Street,77587,29.6574599,-95.2449019
1215,Pennsylvania Street,77587,29.6577580,-95.2455696
1209,Pennsylvania Street,77587,29.6580620,-95.2452507
1415,Pennsylvania Street,77587,29.6565272,-95.2469680
1401,Pennsylvania Street,77587,29.6567165,-95.2469210
1418,Indiana Street,77587,29.6562956,-95.2481915
1412,Indiana Street,77587,29.6566006,-95.2478189
1312,Indiana Street,77587,29.6573380,-95.2467367
1309,Pennsylvania Street,77587,29.6572101,-95.2462700
1303,Pennsylvania Street,77587,29.6574351,-95.2459282
1107,Indiana Street,77587,29.6579684,-95.2471446
1112,Jackson Street,77587,29.6574033,-95.2475788
1417,Indiana Street,77587,29.6567800,-95.2486569
1416,Virginia Street,77587,29.6571120,-95.2487667
1412,Virginia Street,77587,29.6573525,-95.2485355
1316,Virginia Street,77587,29.6579663,-95.2476456
1306,Virginia Street,77587,29.6582284,-95.2472722
1102,Austin Street,77587,29.6593984,-95.2457204
1409,Virginia Street,77587,29.6578486,-95.2488240
1411,Virginia Street,77587,29.6577488,-95.2489511
1403,Virginia Street,77587,29.6581470,-95.2484678
1401,Virginia Street,77587,29.6582401,-95.2483465
1216,Georgia Street,77587,29.6595263,-95.2472439
1212,Georgia Street,77587,29.6597088,-95.2469877
1207,Virginia Street,77587,29.6595400,-95.2465282
1205,Virginia Street,77587,29.6596597,-95.2463502
1203,Virginia Street,77587,29.6597467,-95.2462271
1201,Virginia Street,77587,29.6598342,-95.2461043
1202,Georgia Street,77587,29.6600249,-95.2463950
1206,Georgia Street,77587,29.6599814,-95.2466424
1011,Austin Street,77587,29.6600323,-95.2458240
1520,College Avenue,77587,29.6534119,-95.2470870
8011,Easthaven Boulevard,77587,29.6525966,-95.2481767
8007,Easthaven Boulevard,77587,29.6529426,-95.2486935
1501,College Avenue,77587,29.6550709,-95.2474491
1312,Kentucky Street,77587,29.6596482,-95.2488156
1304,Kentucky Street,77587,29.6600779,-95.2484071
1302,Kentucky Street,77587,29.6601302,-95.2482616
1215,Georgia Street,77587,29.6599618,-95.2476374
1213,Georgia Street,77587,29.6600434,-95.2475332
902,Austin Street,77587,29.6609810,-95.2471746
1206,Kentucky Street,77587,29.6607805,-95.2473746
1210,Kentucky Street,77587,29.6605140,-95.2475538
1212,Kentucky Street,77587,29.6604857,-95.2477329
1214,Kentucky Street,77587,29.6604218,-95.2478813
1216,Kentucky Street,77587,29.6603385,-95.2480080
1305,Kentucky Street,77587,29.6603593,-95.2488731
1211,Kentucky Street,77587,29.6609054,-95.2481002
1209,Kentucky Street,77587,29.6610211,-95.2480064
1207,Kentucky Street,77587,29.6610254,-95.2478452
1214,Michigan Street,77587,29.6616069,-95.2480097
1202,Michigan Street,77587,29.6617404,-95.2479209
1211,Michigan Street,77587,29.6616880,-95.2488128
1213,Michigan Street,77587,29.6615671,-95.2489662
1215,Michigan Street,77587,29.6614670,-95.2490409
1210,Nebraska Street,77587,29.6621017,-95.2490554
1208,Nebraska Street,77587,29.6621787,-95.2489188
1101,Kansas Street,77587,29.6644800,-95.2485937
1113,Michigan Street,77587,29.6623600,-95.2478119
1104,Nebraska Street,77587,29.6631904,-95.2476142
11080,Nebraska Street,77587,29.6629979,-95.2477940
1102,Nebraska Street,77587,29.6633516,-95.2475079
1015,Michigan Street,77587,29.6631242,-95.2468667
1013,Michigan Street,77587,29.6631436,-95.2466998
1014,Nebraska Street,77587,29.6634735,-95.2472315
1011,Michigan Street,77587,29.6632989,-95.2466422
1012,Nebraska Street,77587,29.6636112,-95.2469294
1008,Nebraska Street,77587,29.6638240,-95.2467209
1006,Nebraska Street,77587,29.6638958,-95.2466202
1004,Nebraska Street,77587,29.6639843,-95.2464787
1002,Nebraska Street,77587,29.6640691,-95.2463507
1001,Michigan Street,77587,29.6637297,-95.2459927
1008,Michigan Street,77587,29.6630747,-95.2460210
1010,Michigan Street,77587,29.6628957,-95.2460641
1012,Michigan Street,77587,29.6628944,-95.2462239
1014,Michigan Street,77587,29.6627570,-95.2463547
1016,Michigan Street,77587,29.6626791,-95.2464492
1001,Kentucky Street,77587,29.6628782,-95.2453623
1005,Kentucky Street,77587,29.6626381,-95.2457318
1102,Michigan Street,77587,29.6624648,-95.2467041
1104,Michigan Street,77587,29.6623466,-95.2469113
1107,Kentucky Street,77587,29.6618317,-95.2467235
1103,Kentucky Street,77587,29.6620391,-95.2464758
1105,Kentucky Street,77587,29.6619494,-95.2466326
1112,Michigan Street,77587,29.6620126,-95.2475319
707,Austin Street,77587,29.6624243,-95.2480609
903,Austin Street,77587,29.6610803,-95.2467030
1115,Georgia Street,77587,29.6608266,-95.2464456
1112,Kentucky Street,77587,29.6612697,-95.2465922
1010,Kentucky Street,77587,29.6621086,-95.2454490
1002,Kentucky Street,77587,29.6624182,-95.2448099
1001,Georgia Street,77587,29.6621832,-95.2445431
1011,Georgia Street,77587,29.6617985,-95.2451564
1015,Georgia Street,77587,29.6616520,-95.2453851
1114,Georgia Street,77587,29.6604271,-95.2460058
1112,Georgia Street,77587,29.6605006,-95.2458742
1108,Georgia Street,77587,29.6606017,-95.2457236
1105,Virginia Street,77587,29.6604888,-95.2452119
1101,Virginia Street,77587,29.6605456,-95.2448949
1015,Virginia Street,77587,29.6607403,-95.2446507
1013,Virginia Street,77587,29.6608708,-95.2445465
1011,Virginia Street,77587,29.6609453,-95.2444117
1003,Virginia Street,77587,29.6614599,-95.2440881
1004,Georgia Street,77587,29.6615776,-95.2441986
1007,Virginia Street,77587,29.6610953,-95.2441498
916,Georgia Street,77587,29.6619969,-95.2439339
914,Georgia Street,77587,29.6620818,-95.2438284
912,Georgia Street,77587,29.6621626,-95.2436909
910,Georgia Street,77587,29.6622425,-95.2435710
906,Georgia Street,77587,29.6624617,-95.2433589
904,Georgia Street,77587,29.6625519,-95.2432249
911,Virginia Street,77587,29.6617795,-95.2432759
909,Virginia Street,77587,29.6618334,-95.2431607
901,Virginia Street,77587,29.6622025,-95.2427724
1016,Virginia Street,77587,29.6604587,-95.2441545
1015,Indiana Street,77587,29.6599919,-95.2439404
1013,Indiana Street,77587,29.6600914,-95.2438129
1011,Indiana Street,77587,29.6602471,-95.2437593
1009,Indiana Street,77587,29.6603317,-95.2436414
1007,Indiana Street,77587,29.6604137,-95.2435136
1005,Indiana Street,77587,29.6604621,-95.2433461
1003,Indiana Street,77587,29.6606249,-95.2433151
1002,Virginia Street,77587,29.6610067,-95.2434635
1004,Virginia Street,77587,29.6609625,-95.2436412
1006,Virginia Street,77587,29.6608715,-95.2437658
1008,Virginia Street,77587,29.6607365,-95.2438778
1006,Indiana Street,77587,29.6601368,-95.2428527
1008,Indiana Street,77587,29.6599554,-95.2430794
1010,Indiana Street,77587,29.6598610,-95.2431797
1012,Indiana Street,77587,29.6597746,-95.2433227
1016,Indiana Street,77587,29.6596136,-95.2435756
1013,Pennsylvania Street,77587,29.6593206,-95.2430792
1011,Pennsylvania Street,77587,29.6594410,-95.2429970
1200,Waco Street,77587,29.6599456,-95.2424894
1107,College Avenue,77587,29.6581990,-95.2431628
1015,College Avenue,77587,29.6585407,-95.2425262
1116,Indiana Street,77587,29.6588216,-95.2446516
1113,Pennsylvania Street,77587,29.6585593,-95.2442186
1109,Pennsylvania Street,77587,29.6587550,-95.2440347
1206,Pennsylvania Street,77587,29.6577765,-95.2445362
915,College Avenue,77587,29.6595312,-95.2413138
907,College Avenue,77587,29.6596147,-95.2408533
903,College Avenue,77587,29.6597491,-95.2406646
901,College Avenue,77587,29.6599197,-95.2405722
911,Pennsylvania Street,77587,29.6602855,-95.2419342
914,Indiana Street,77587,29.6603835,-95.2423298
912,Indiana Street,77587,29.6605623,-95.2421686
910,Indiana Street,77587,29.6607457,-95.2421369
906,Indiana Street,77587,29.6608595,-95.2418675
902,Indiana Street,77587,29.6610533,-95.2416288
907,Indiana Street,77587,29.6611510,-95.2423517
909,Indiana Street,77587,29.6610708,-95.2425051
911,Indiana Street,77587,29.6609764,-95.2425904
915,Indiana Street,77587,29.6609554,-95.2428269
914,Virginia Street,77587,29.6612437,-95.2430851
912,Virginia Street,77587,29.6613460,-95.2429640
908,Virginia Street,77587,29.6615970,-95.2427459
906,Virginia Street,77587,29.6616885,-95.2426324
915,Michigan Street,77587,29.6639294,-95.2457414
911,Michigan Street,77587,29.6640831,-95.2454592
908,Nebraska Street,77587,29.6646467,-95.2456156
910,Nebraska Street,77587,29.6645559,-95.2457500
1015,Nebraska Street,77587,29.6638946,-95.2475790
1013,Nebraska Street,77587,29.6639590,-95.2474482
1011,Nebraska Street,77587,29.6640205,-95.2473382
1009,Nebraska Street,77587,29.6641405,-95.2471996
1007,Nebraska Street,77587,29.6642203,-95.2470891
1001,Nebraska Street,77587,29.6645021,-95.2467305
1004,Kansas Street,77587,29.6647548,-95.2472032
1006,Kansas Street,77587,29.6646966,-95.2473690
1010,Kansas Street,77587,29.6644596,-95.2475252
1012,Kansas Street,77587,29.6643247,-95.2476443
1016,Kansas Street,77587,29.6642508,-95.2479163
1009,Kansas Street,77587,29.6648623,-95.2478755
1005,Kansas Street,77587,29.6650664,-95.2476794
1001,Kansas Street,77587,29.6651714,-95.2473576
1004,Louisiana Street,77587,29.6655398,-95.2479129
1006,Louisiana Street,77587,29.6654295,-95.2479880
1010,Louisiana Street,77587,29.6652386,-95.2482322
1012,Louisiana Street,77587,29.6651447,-95.2483529
1014,Louisiana Street,77587,29.6650835,-95.2484977
1016,Louisiana Street,77587,29.6649536,-95.2485624
1009,Louisiana Street,77587,29.6657241,-95.2486818
1015,Louisiana Street,77587,29.6653826,-95.2489719
1013,Louisiana Street,77587,29.6654690,-95.2488895
701,Genoa Street,77587,29.6527722,-95.2378011
1102,Minnesota Street,77587,29.6530895,-95.2379735
1111,Minnesota Street,77587,29.6531190,-95.2389037
1105,Minnesota Street,77587,29.6533542,-95.2385985
1103,Minnesota Street,77587,29.6535128,-95.2384158
1102,Mississippi Street,77587,29.6539399,-95.2387237
1104,Mississippi Street,77587,29.6538537,-95.2388447
1106,Mississippi Street,77587,29.6537368,-95.2389517
1108,Mississippi Street,77587,29.6536625,-95.2390720
1112,Mississippi Street,77587,29.6535327,-95.2393390
1114,Mississippi Street,77587,29.6534309,-95.2394502
1116,Mississippi Street,77587,29.6532855,-95.2395364
1113,Mississippi Street,77587,29.6537598,-95.2397725
1111,Mississippi Street,77587,29.6538753,-95.2396618
1109,Mississippi Street,77587,29.6539291,-95.2395269
1107,Mississippi Street,77587,29.6540137,-95.2394099
1103,Mississippi Street,77587,29.6542139,-95.2391651
1101,Mississippi Street,77587,29.6542859,-95.2390202
1112,Iowa Street,77587,29.6542111,-95.2399881
1116,Iowa Street,77587,29.6540934,-95.2402890
1110,Iowa Street,77587,29.6543744,-95.2399248
1106,Iowa Street,77587,29.6545042,-95.2396617
1104,Iowa Street,77587,29.6546140,-95.2395547
1102,Iowa Street,77587,29.6546789,-95.2394030
1012,Iowa Street,77587,29.6550527,-95.2389306
1010,Iowa Street,77587,29.6551951,-95.2387367
1004,Iowa Street,77587,29.6554302,-95.2384919
1013,Iowa Street,77587,29.6553651,-95.2394923
1101,Iowa Street,77587,29.6550498,-95.2397370
1103,Iowa Street,77587,29.6549558,-95.2398738
1107,Iowa Street,77587,29.6547683,-95.2401314
1115,Iowa Street,77587,29.6544333,-95.2405857
1112,Missouri Street,77587,29.6548447,-95.2409899
1106,Missouri Street,77587,29.6552964,-95.2403935
1104,Missouri Street,77587,29.6553885,-95.2402732
1102,Missouri Street,77587,29.6554758,-95.2401402
1107,Missouri Street,77587,29.6555402,-95.2408351
1109,Missouri Street,77587,29.6554570,-95.2409520
1111,Missouri Street,77587,29.6553767,-95.2410792
1115,Missouri Street,77587,29.6552116,-95.2412836
1608,Austin Street,77587,29.6553506,-95.2414001
1116,Washington Street,77587,29.6556265,-95.2416953
1110,Washington Street,77587,29.6558732,-95.2413514
1106,Washington Street,77587,29.6559629,-95.2410117
1602,Sherman Street,77587,29.6561923,-95.2408379
1011,Iowa Street,77587,29.6554223,-95.2392408
1009,Iowa Street,77587,29.6555462,-95.2391647
1005,Iowa Street,77587,29.6556702,-95.2388586
1003,Iowa Street,77587,29.6557436,-95.2387577
1012,Missouri Street,77587,29.6558414,-95.2396626
1014,Missouri Street,77587,29.6557672,-95.2397670
1015,Missouri Street,77587,29.6560006,-95.2401971
1013,Missouri Street,77587,29.6560682,-95.2400705
1011,Missouri Street,77587,29.6561336,-95.2399674
1012,Washington Street,77587,29.6566185,-95.2403561
1010,Washington Street,77587,29.6567065,-95.2402340
1006,Washington Street,77587,29.6568185,-95.2400301
1002,Washington Street,77587,29.6569358,-95.2398549
1016,Washington Street,77587,29.6564028,-95.2405957
1014,Washington Street,77587,29.6565182,-95.2404883
915,Missouri Street,77587,29.6568209,-95.2390831
916,Washington Street,77587,29.6572215,-95.2394870
904,Washington Street,77587,29.6575733,-95.2387935
902,Washington Street,77587,29.6577950,-95.2385874
903,Missouri Street,77587,29.6573522,-95.2383760
901,Missouri Street,77587,29.6574308,-95.2382609
905,Missouri Street,77587,29.6572133,-95.2384910
904,Missouri Street,77587,29.6569412,-95.2379978
906,Missouri Street,77587,29.6568884,-95.2381426
908,Missouri Street,77587,29.6568165,-95.2383188
915,Iowa Street,77587,29.6560373,-95.2383770
907,Iowa Street,77587,29.6563217,-95.2379863
911,Iowa Street,77587,29.6562534,-95.2381430
1013,Mississippi Street,77587,29.6545462,-95.2386568
1011,Mississippi Street,77587,29.6546453,-95.2385240
1009,Mississippi Street,77587,29.6547304,-95.2384078
1007,Mississippi Street,77587,29.6548045,-95.2382730
1005,Mississippi Street,77587,29.6549044,-95.2381585
1808,Waco Street,77587,29.6550674,-95.2379191
915,Mississippi Street,77587,29.6552959,-95.2376766
913,Mississippi Street,77587,29.6553615,-95.2375043
914,Iowa Street,77587,29.6556560,-95.2378218
912,Iowa Street,77587,29.6558399,-95.2378499
910,Iowa Street,77587,29.6559487,-95.2376828
908,Iowa Street,77587,29.6560645,-95.2375844
906,Iowa Street,77587,29.6561421,-95.2374482
815,Mississippi Street,77587,29.6561880,-95.2365427
1016,Mississippi Street,77587,29.6541154,-95.2384536
1014,Mississippi Street,77587,29.6541978,-95.2383094
1012,Mississippi Street,77587,29.6542979,-95.2382005
1010,Mississippi Street,77587,29.6543281,-95.2380427
1008,Mississippi Street,77587,29.6544695,-95.2379526
1002,Mississippi Street,77587,29.6547208,-95.2376162
1001,Minnesota Street,77587,29.6543039,-95.2371918
1003,Minnesota Street,77587,29.6542212,-95.2373019
1011,Minnesota Street,77587,29.6538751,-95.2377796
1013,Minnesota Street,77587,29.6537909,-95.2379325
1015,Minnesota Street,77587,29.6537282,-95.2380945
1014,Minnesota Street,77587,29.6534501,-95.2376149
1010,Minnesota Street,77587,29.6535620,-95.2373535
1008,Minnesota Street,77587,29.6537014,-95.2372441
1006,Minnesota Street,77587,29.6537757,-95.2371131
1004,Minnesota Street,77587,29.6538554,-95.2369862
1002,Minnesota Street,77587,29.6539448,-95.2368568
1005,Wisconsin Street,77587,29.6533939,-95.2367408
1009,Wisconsin Street,77587,29.6531955,-95.2369808
1011,Wisconsin Street,77587,29.6531175,-95.2370939
1013,Wisconsin Street,77587,29.6530215,-95.2372094
1015,Wisconsin Street,77587,29.6529217,-95.2373481
908,Mississippi Street,77587,29.6552320,-95.2367213
912,Mississippi Street,77587,29.6550917,-95.2371124
916,Mississippi Street,77587,29.6549384,-95.2373407
901,Minnesota Street,77587,29.6551367,-95.2360985
903,Minnesota Street,77587,29.6550373,-95.2362097
907,Minnesota Street,77587,29.6548687,-95.2364568
911,Minnesota Street,77587,29.6547245,-95.2367292
913,Minnesota Street,77587,29.6546016,-95.2368132
915,Minnesota Street,77587,29.6545668,-95.2369517
906,Minnesota Street,77587,29.6546143,-95.2360144
908,Minnesota Street,77587,29.6545250,-95.2361341
912,Minnesota Street,77587,29.6543423,-95.2363745
914,Minnesota Street,77587,29.6542285,-95.2364691
916,Minnesota Street,77587,29.6541510,-95.2366243
1012,Wisconsin Street,77587,29.6527488,-95.2368380
1006,Wisconsin Street,77587,29.6529777,-95.2363541
1001,Arkansas Street,77587,29.6528211,-95.2359714
1002,Wisconsin Street,77587,29.6531718,-95.2361413
915,Wisconsin Street,77587,29.6537463,-95.2362141
911,Wisconsin Street,77587,29.6539130,-95.2359633
904,Wisconsin Street,77587,29.6539219,-95.2351859
915,Arkansas Street,77587,29.6529581,-95.2354975
912,Arkansas Street,77587,29.6527886,-95.2349833
812,Nevada Street,77587,29.6527792,-95.2329232
803,Arizona Street,77587,29.6529156,-95.2322451
700,Nevada Street,77587,29.6539690,-95.2311863
703,Nevada Street,77587,29.6544065,-95.2317874
812,Mississippi Street,77587,29.6559493,-95.2359005
814,Mississippi Street,77587,29.6558718,-95.2360264
816,Mississippi Street,77587,29.6557919,-95.2361262
809,Mississippi Street,77587,29.6563685,-95.2361042
807,Mississippi Street,77587,29.6564604,-95.2359863
815,Iowa Street,77587,29.6568854,-95.2371915
811,Iowa Street,77587,29.6570463,-95.2369368
809,Iowa Street,77587,29.6571462,-95.2368044
807,Iowa Street,77587,29.6572317,-95.2366895
801,Iowa Street,77587,29.6574998,-95.2363278
802,Missouri Street,77587,29.6579144,-95.2366956
804,Missouri Street,77587,29.6578067,-95.2368137
806,Missouri Street,77587,29.6577303,-95.2369578
810,Missouri Street,77587,29.6576386,-95.2371121
812,Missouri Street,77587,29.6574476,-95.2373195
814,Missouri Street,77587,29.6573840,-95.2374388
815,Missouri Street,77587,29.6576690,-95.2379334
813,Missouri Street,77587,29.6577327,-95.2377847
811,Missouri Street,77587,29.6578164,-95.2376587
809,Missouri Street,77587,29.6579616,-95.2375635
807,Missouri Street,77587,29.6579939,-95.2374189
805,Missouri Street,77587,29.6580848,-95.2372924
803,Missouri Street,77587,29.6581766,-95.2371782
801,Missouri Street,77587,29.6582449,-95.2370337
816,Washington Street,77587,29.6580883,-95.2383290
812,Washington Street,77587,29.6582433,-95.2380473
808,Washington Street,77587,29.6584213,-95.2378178
802,Washington Street,77587,29.6586480,-95.2374748
811,Washington Street,77587,29.6585340,-95.2385415
809,Washington Street,77587,29.6587291,-95.2383143
807,Washington Street,77587,29.6588553,-95.2382027
805,Washington Street,77587,29.6589596,-95.2380887
803,Washington Street,77587,29.6590284,-95.2379500
1507,Main Street,77587,29.6586872,-95.2388088
810,Illinois Street,77587,29.6591805,-95.2387076
808,Illinois Street,77587,29.6592431,-95.2385666
804,Illinois Street,77587,29.6594617,-95.2383567
802,Illinois Street,77587,29.6594799,-95.2381879
801,Illinois Street,77587,29.6599119,-95.2386068
803,Illinois Street,77587,29.6598266,-95.2387183
807,Illinois Street,77587,29.6596132,-95.2389419
809,Illinois Street,77587,29.6595341,-95.2390567
810,College Avenue,77587,29.6599179,-95.2391620
814,College Avenue,77587,29.6597986,-95.2396579
811,College Avenue,77587,29.6603570,-95.2400234
814,Pennsylvania Street,77587,29.6606254,-95.2405170
812,Pennsylvania Street,77587,29.6607180,-95.2403685
807,College Avenue,77587,29.6606187,-95.2397730
901,Pennsylvania Street,77587,29.6606947,-95.2413060
1121,Main Street,77587,29.6608735,-95.2409095
811,Pennsylvania Street,77587,29.6611269,-95.2407501
807,Pennsylvania Street,77587,29.6612437,-95.2404600
805,Pennsylvania Street,77587,29.6613421,-95.2403267
810,Indiana Street,77587,29.6615808,-95.2410036
808,Indiana Street,77587,29.6616926,-95.2408363
806,Indiana Street,77587,29.6617582,-95.2407120
804,Indiana Street,77587,29.6617883,-95.2405724
802,Indiana Street,77587,29.6618645,-95.2404620
2412,Houston Boulevard,77587,29.6543687,-95.2280475
614,Oregon Street,77587,29.6528809,-95.2295120
609,Arizona Street,77587,29.6541560,-95.2302785
609,Nevada Street,77587,29.6548760,-95.2310317
715,Iowa Street,77587,29.6577615,-95.2359915
710,Missouri Street,77587,29.6583736,-95.2360852
714,Missouri Street,77587,29.6581588,-95.2363868
701,Missouri Street,77587,29.6590542,-95.2360306
709,Missouri Street,77587,29.6587171,-95.2363656
711,Missouri Street,77587,29.6586155,-95.2365142
713,Missouri Street,77587,29.6585077,-95.2366689
715,Missouri Street,77587,29.6584373,-95.2367826
714,Washington Street,77587,29.6588660,-95.2371475
712,Washington Street,77587,29.6589306,-95.2370576
708,Washington Street,77587,29.6592344,-95.2366826
706,Washington Street,77587,29.6593099,-95.2365566
702,Washington Street,77587,29.6594597,-95.2363567
516,Missouri Street,77587,29.6596681,-95.2340809
510,Missouri Street,77587,29.6598983,-95.2338057
602,Missouri Street,77587,29.6595257,-95.2344841
604,Missouri Street,77587,29.6594275,-95.2346209
509,Missouri Street,77587,29.6602020,-95.2342898
513,Missouri Street,77587,29.6600680,-95.2344686
1610,Dallas Street,77587,29.6598360,-95.2348078
603,Missouri Street,77587,29.6598006,-95.2349625
605,Missouri Street,77587,29.6596713,-95.2350425
607,Missouri Street,77587,29.6595711,-95.2351676
609,Missouri Street,77587,29.6594999,-95.2352759
611,Missouri Street,77587,29.6594433,-95.2354269
616,Washington Street,77587,29.6596976,-95.2360787
612,Washington Street,77587,29.6598386,-95.2358183
610,Washington Street,77587,29.6599295,-95.2357260
606,Washington Street,77587,29.6600808,-95.2354285
604,Washington Street,77587,29.6601936,-95.2353099
1602,Dallas Street,77587,29.6602670,-95.2352021
502,Washington Street,77587,29.6609590,-95.2340661
1508,Houston Boulevard,77587,29.6612679,-95.2350455
513,Washington Street,77587,29.6609514,-95.2353887
601,Washington Street,77587,29.6606908,-95.2356230
605,Washington Street,77587,29.6605224,-95.2358533
607,Washington Street,77587,29.6604331,-95.2359598
609,Washington Street,77587,29.6603120,-95.2360647
611,Washington Street,77587,29.6602549,-95.2362030
615,Washington Street,77587,29.6601436,-95.2365019
1507,State Street,77587,29.6598947,-95.2367089
705,Washington Street,77587,29.6597170,-95.2369728
707,Washington Street,77587,29.6596637,-95.2370783
709,Washington Street,77587,29.6595469,-95.2371982
711,Washington Street,77587,29.6594340,-95.2373319
713,Washington Street,77587,29.6593867,-95.2374569
715,Washington Street,77587,29.6593041,-95.2375603
716,Illinois Street,77587,29.6596870,-95.2379261
714,Illinois Street,77587,29.6598100,-95.2378548
712,Illinois Street,77587,29.6598833,-95.2377061
710,Illinois Street,77587,29.6599944,-95.2376038
708,Illinois Street,77587,29.6600502,-95.2374625
706,Illinois Street,77587,29.6601333,-95.2373631
1501,State Street,77587,29.6602988,-95.2371067
610,Illinois Street,77587,29.6607860,-95.2364741
608,Illinois Street,77587,29.6608867,-95.2363658
602,Illinois Street,77587,29.6611600,-95.2360144
510,College Avenue,77587,29.6623845,-95.2361075
516,College Avenue,77587,29.6620463,-95.2362819
515,Illinois Street,77587,29.6618049,-95.2360679
601,Illinois Street,77587,29.6614988,-95.2363268
603,Illinois Street,77587,29.6614276,-95.2365022
605,Illinois Street,77587,29.6613126,-95.2365788
607,Illinois Street,77587,29.6612328,-95.2366926
609,Illinois Street,77587,29.6611439,-95.2367990
611,Illinois Street,77587,29.6610478,-95.2369300
613,Illinois Street,77587,29.6609635,-95.2370420
615,Illinois Street,77587,29.6608863,-95.2371707
701,Illinois Street,77587,29.6608325,-95.2376067
703,Illinois Street,77587,29.6604064,-95.2376623
700,College Avenue,77587,29.6610800,-95.2378040
614,College Avenue,77587,29.6613087,-95.2373903
608,College Avenue,77587,29.6614845,-95.2369490
606,College Avenue,77587,29.6616168,-95.2368489
711,College Avenue,77587,29.6611647,-95.2389145
709,College Avenue,77587,29.6611742,-95.2386987
707,College Avenue,77587,29.6612682,-95.2385936
705,College Avenue,77587,29.6614218,-95.2385346
704,Pennsylvania Street,77587,29.6618056,-95.2386969
708,Pennsylvania Street,77587,29.6616187,-95.2389387
710,Pennsylvania Street,77587,29.6615768,-95.2391062
712,Pennsylvania Street,77587,29.6614954,-95.2392399
714,Pennsylvania Street,77587,29.6614475,-95.2393790
716,Pennsylvania Street,77587,29.6613229,-95.2394804
613,College Avenue,77587,29.6618275,-95.2378355
611,College Avenue,77587,29.6619002,-95.2377208
609,College Avenue,77587,29.6619753,-95.2375799
602,Pennsylvania Street,77587,29.6626698,-95.2374341
608,Pennsylvania Street,77587,29.6625218,-95.2378767
610,Pennsylvania Street,77587,29.6623964,-95.2380263
612,Pennsylvania Street,77587,29.6623228,-95.2381244
614,Pennsylvania Street,77587,29.6622398,-95.2382462
516,Pennsylvania Street,77587,29.6628507,-95.2371765
514,Pennsylvania Street,77587,29.6629525,-95.2370335
1306,Houston Boulevard,77587,29.6632937,-95.2364793
503,College Avenue,77587,29.6630554,-95.2361820
713,Pennsylvania Street,77587,29.6618104,-95.2397150
711,Pennsylvania Street,77587,29.6618381,-95.2395675
709,Pennsylvania Street,77587,29.6619246,-95.2394440
707,Pennsylvania Street,77587,29.6620881,-95.2394235
703,Pennsylvania Street,77587,29.6621948,-95.2390458
701,Pennsylvania Street,77587,29.6622863,-95.2389366
710,Indiana Street,77587,29.6624245,-95.2396319
716,Indiana Street,77587,29.6623623,-95.2396713
718,Indiana Street,77587,29.6623914,-95.2398080
720,Indiana Street,77587,29.6623411,-95.2398718
722,Indiana Street,77587,29.6622968,-95.2399422
724,Indiana Street,77587,29.6620890,-95.2400261
730,Indiana Street,77587,29.6621031,-95.2401559
615,Pennsylvania Street,77587,29.6624557,-95.2386508
613,Pennsylvania Street,77587,29.6625484,-95.2385600
611,Pennsylvania Street,77587,29.6626615,-95.2384677
609,Pennsylvania Street,77587,29.6627493,-95.2383380
607,Pennsylvania Street,77587,29.6628363,-95.2381810
601,Pennsylvania Street,77587,29.6630850,-95.2378730
612,Indiana Street,77587,29.6633331,-95.2385289
614,Indiana Street,77587,29.6632010,-95.2384943
618,Indiana Street,77587,29.6631772,-95.2386996
632,Indiana Street,77587,29.6628180,-95.2389887
515,Pennsylvania Street,77587,29.6633048,-95.2375646
513,Pennsylvania Street,77587,29.6634108,-95.2374882
532,Indiana Street,77587,29.6636817,-95.2379449
511,Indiana Street,77587,29.6645707,-95.2378613
506,Virginia Street,77587,29.6649351,-95.2378832
517,Indiana Street,77587,29.6643095,-95.2380059
523,Indiana Street,77587,29.6642696,-95.2381706
1112,Dallas Street,77587,29.6638880,-95.2387859
613,Indiana Street,77587,29.6636537,-95.2389103
615,Indiana Street,77587,29.6635240,-95.2389696
619,Indiana Street,77587,29.6635385,-95.2392159
623,Indiana Street,77587,29.6634221,-95.2392014
622,Virginia Street,77587,29.6638686,-95.2394321
618,Virginia Street,77587,29.6638677,-95.2393239
612,Virginia Street,77587,29.6640395,-95.2391736
1007,Dallas Street,77587,29.6652554,-95.2392231
1019,Dallas Street,77587,29.6650288,-95.2389747
1023,Dallas Street,77587,29.6649016,-95.2388326
807,Indiana Street,77587,29.6620498,-95.2411665
1102,Beaumont Street,77587,29.6626348,-95.2411740
804,Virginia Street,77587,29.6625625,-95.2413243
808,Virginia Street,77587,29.6624121,-95.2415630
810,Virginia Street,77587,29.6623268,-95.2416847
814,Virginia Street,77587,29.6620307,-95.2418055
813,Indiana Street,77587,29.6617100,-95.2414967
1018,State Street,77587,29.6638949,-95.2406617
716,Georgia Street,77587,29.6636762,-95.2413362
803,Virginia Street,77587,29.6629254,-95.2416199
804,Georgia Street,77587,29.6633759,-95.2420444
810,Georgia Street,77587,29.6631111,-95.2424010
812,Georgia Street,77587,29.6630141,-95.2424933
814,Georgia Street,77587,29.6628661,-95.2426311
816,Georgia Street,77587,29.6628547,-95.2427551
815,Georgia Street,77587,29.6633132,-95.2431795
813,Georgia Street,77587,29.6632797,-95.2429375
809,Georgia Street,77587,29.6636071,-95.2428654
807,Georgia Street,77587,29.6635970,-95.2426509
805,Georgia Street,77587,29.6636247,-95.2425212
803,Georgia Street,77587,29.6637073,-95.2423773
801,Georgia Street,77587,29.6638789,-95.2423010
804,Kentucky Street,77587,29.6640499,-95.2426760
808,Kentucky Street,77587,29.6639622,-95.2429805
812,Kentucky Street,77587,29.6637484,-95.2432390
731,Georgia Street,77587,29.6639288,-95.2419838
727,Georgia Street,77587,29.6640500,-95.2418478
723,Georgia Street,77587,29.6641527,-95.2417692
721,Georgia Street,77587,29.6642002,-95.2416310
713,Georgia Street,77587,29.6643341,-95.2414184
902,State Street,77587,29.6646309,-95.2412390
627,Georgia Street,77587,29.6648724,-95.2406660
623,Georgia Street,77587,29.6649877,-95.2405247
601,Georgia Street,77587,29.6653927,-95.2399598
630,Kentucky Street,77587,29.6651802,-95.2412041
618,Kentucky Street,77587,29.6654910,-95.2408389
616,Kentucky Street,77587,29.6655451,-95.2407933
610,Kentucky Street,77587,29.6656772,-95.2406230
608,Kentucky Street,77587,29.6656853,-95.2405237
606,Kentucky Street,77587,29.6657596,-95.2404887
604,Kentucky Street,77587,29.6657701,-95.2403731
532,Kentucky Street,77587,29.6659159,-95.2400807
528,Kentucky Street,77587,29.6659664,-95.2400185
508,Kentucky Street,77587,29.6660825,-95.2399750
531,Georgia Street,77587,29.6657005,-95.2396747
514,Kentucky Street,77587,29.6662774,-95.2397039
518,Kentucky Street,77587,29.6661850,-95.2398147
512,Kentucky Street,77587,29.6663295,-95.2394918
510,Kentucky Street,77587,29.6664164,-95.2393698
902,Houston Boulevard,77587,29.6665398,-95.2392314
812,Houston Boulevard,77587,29.6668882,-95.2395667
517,Kentucky Street,77587,29.6667517,-95.2401459
511,Kentucky Street,77587,29.6669032,-95.2400354
603,Kentucky Street,77587,29.6661743,-95.2407649
609,Kentucky Street,77587,29.6660590,-95.2409635
607,Kentucky Street,77587,29.6660889,-95.2410952
611,Kentucky Street,77587,29.6659986,-95.2411139
615,Kentucky Street,77587,29.6658878,-95.2411178
617,Kentucky Street,77587,29.6659545,-95.2412669
619,Kentucky Street,77587,29.6658546,-95.2413594
605,Kentucky Street,77587,29.6661468,-95.2408274
606,Michigan Street,77587,29.6664717,-95.2412428
614,Michigan Street,77587,29.6662509,-95.2413940
701,Kentucky Street,77587,29.6654206,-95.2418789
707,Kentucky Street,77587,29.6653221,-95.2419871
732,Michigan Street,77587,29.6650436,-95.2430150
803,Kentucky Street,77587,29.6644702,-95.2430666
807,Kentucky Street,77587,29.6642896,-95.2433235
815,Kentucky Street,77587,29.6640576,-95.2438900
814,Michigan Street,77587,29.6644808,-95.2441047
812,Michigan Street,77587,29.6645648,-95.2439781
810,Michigan Street,77587,29.6645590,-95.2437266
808,Michigan Street,77587,29.6647398,-95.2437179
806,Michigan Street,77587,29.6647332,-95.2435425
804,Michigan Street,77587,29.6649045,-95.2434265
506,Nebraska Street,77587,29.6676989,-95.2412849
601,Michigan Street,77587,29.6669899,-95.2414786
605,Michigan Street,77587,29.6668970,-95.2416178
625,Michigan Street,77587,29.6665087,-95.2420128
616,Nebraska Street,77587,29.6667585,-95.2426906
614,Nebraska Street,77587,29.6668234,-95.2425872
610,Nebraska Street,77587,29.6670021,-95.2423237
604,Nebraska Street,77587,29.6672839,-95.2419443
702,Dallas Street,77587,29.6673297,-95.2418047
702,Nebraska Street,77587,29.6664600,-95.2428911
707,Michigan Street,77587,29.6660720,-95.2427134
802,Nebraska Street,77587,29.6656293,-95.2440582
801,Michigan Street,77587,29.6653800,-95.2437228
803,Michigan Street,77587,29.6652929,-95.2438437
807,Michigan Street,77587,29.6650486,-95.2440611
809,Michigan Street,77587,29.6649577,-95.2441466
813,Michigan Street,77587,29.6648616,-95.2443377
815,Michigan Street,77587,29.6648099,-95.2445362
816,Nebraska Street,77587,29.6650887,-95.2448548
814,Nebraska Street,77587,29.6652172,-95.2448064
812,Nebraska Street,77587,29.6653197,-95.2446620
810,Nebraska Street,77587,29.6653977,-95.2445251
808,Nebraska Street,77587,29.6654874,-95.2443964
806,Nebraska Street,77587,29.6654485,-95.2442032
913,Nebraska Street,77587,29.6647329,-95.2462516
911,Nebraska Street,77587,29.6648221,-95.2461928
909,Nebraska Street,77587,29.6649270,-95.2460545
905,Nebraska Street,77587,29.6650296,-95.2458103
903,Nebraska Street,77587,29.6651447,-95.2457121
901,Nebraska Street,77587,29.6652841,-95.2455819
906,Kansas Street,77587,29.6655099,-95.2462083
908,Kansas Street,77587,29.6653681,-95.2462777
910,Kansas Street,77587,29.6652440,-95.2463673
912,Kansas Street,77587,29.6651811,-95.2465277
914,Kansas Street,77587,29.6650864,-95.2466583
816,Kansas Street,77587,29.6658380,-95.2455690
814,Kansas Street,77587,29.6659782,-95.2454881
812,Kansas Street,77587,29.6659544,-95.2453177
810,Kansas Street,77587,29.6661373,-95.2452373
808,Kansas Street,77587,29.6662141,-95.2450927
806,Kansas Street,77587,29.6663299,-95.2450144
804,Kansas Street,77587,29.6663014,-95.2447790
801,Nebraska Street,77587,29.6661555,-95.2444412
803,Nebraska Street,77587,29.6661688,-95.2446096
805,Nebraska Street,77587,29.6659599,-95.2446808
807,Nebraska Street,77587,29.6658854,-95.2447725
809,Nebraska Street,77587,29.6657098,-95.2448392
713,Nebraska Street,77587,29.6664040,-95.2440919
711,Nebraska Street,77587,29.6665267,-95.2439189
709,Nebraska Street,77587,29.6666948,-95.2438656
707,Nebraska Street,77587,29.6667165,-95.2436931
602,State Street,77587,29.6672276,-95.2435897
706,Kansas Street,77587,29.6670849,-95.2438439
710,Kansas Street,77587,29.6669100,-95.2440673
71201,Kansas Street,77587,29.6668807,-95.2442386
714,Kansas Street,77587,29.6667805,-95.2443981
611,Nebraska Street,77587,29.6672581,-95.2427489
609,Nebraska Street,77587,29.6673524,-95.2426737
607,Nebraska Street,77587,29.6675027,-95.2425430
575,Nebraska Street,77587,29.6679375,-95.2419163
511,Nebraska Street,77587,29.6681127,-95.2417300
508,Kansas Street,77587,29.6686728,-95.2417666
608,Houston Boulevard,77587,29.6688795,-95.2413545
616,Houston Boulevard,77587,29.6683851,-95.2411142
506,Houston Boulevard,77587,29.6691710,-95.2418750
502,Houston Boulevard,77587,29.6693916,-95.2423019
512,Louisiana Street,77587,29.6692010,-95.2425592
516,Louisiana Street,77587,29.6691079,-95.2429281
509,Kansas Street,77587,29.6689269,-95.2423313
513,Kansas Street,77587,29.6688148,-95.2425254
604,Louisiana Street,77587,29.6687720,-95.2433307
608,Louisiana Street,77587,29.6685663,-95.2435665
612,Louisiana Street,77587,29.6684205,-95.2438149
616,Louisiana Street,77587,29.6682300,-95.2440591
613,Kansas Street,77587,29.6679048,-95.2435770
615,Kansas Street,77587,29.6679054,-95.2437408
702,Louisiana Street,77587,29.6679816,-95.2443014
703,Kansas Street,77587,29.6678125,-95.2441217
706,Louisiana Street,77587,29.6678199,-95.2445245
708,Louisiana Street,77587,29.6677816,-95.2447260
710,Louisiana Street,77587,29.6677119,-95.2448565
712,Louisiana Street,77587,29.6676220,-95.2449558
716,Louisiana Street,77587,29.6674680,-95.2452284
705,Kansas Street,77587,29.6675444,-95.2442581
707,Kansas Street,77587,29.6674577,-95.2444038
709,Kansas Street,77587,29.6673986,-95.2445399
713,Kansas Street,77587,29.6671793,-95.2447355
715,Kansas Street,77587,29.6671093,-95.2448804
804,Louisiana Street,77587,29.6672137,-95.2454297
811,Kansas Street,77587,29.6664001,-95.2457031
902,Louisiana Street,77587,29.6663846,-95.2466227
901,Kansas Street,77587,29.6661572,-95.2464044
904,Louisiana Street,77587,29.6663306,-95.2468206
908,Louisiana Street,77587,29.6660217,-95.2470310
903,Kansas Street,77587,29.6659369,-95.2464261
907,Kansas Street,77587,29.6657693,-95.2466499
909,Kansas Street,77587,29.6656654,-95.2467429
911,Kansas Street,77587,29.6656339,-95.2469394
913,Kansas Street,77587,29.6655483,-95.2470591
915,Kansas Street,77587,29.6654621,-95.2471782
912,Louisiana Street,77587,29.6659482,-95.2472359
909,Louisiana Street,77587,29.6664439,-95.2474982
901,Louisiana Street,77587,29.6668720,-95.2471941
810,Dakota Street,77587,29.6677439,-95.2467285
805,Louisiana Street,77587,29.6674931,-95.2460537
803,Louisiana Street,77587,29.6675434,-95.2459599
801,Louisiana Street,77587,29.6676183,-95.2458331
406,Beaumont Street,77587,29.6678388,-95.2461174
404,Beaumont Street,77587,29.6680009,-95.2462574
402,Beaumont Street,77587,29.6680805,-95.2463239
715,Louisiana Street,77587,29.6678058,-95.2455732
713,Louisiana Street,77587,29.6679189,-95.2454609
711,Louisiana Street,77587,29.6679766,-95.2453031
709,Louisiana Street,77587,29.6680461,-95.2451695
707,Louisiana Street,77587,29.6681715,-95.2451016
712,Dakota Street,77587,29.6683501,-95.2456471
716,Dakota Street,77587,29.6681817,-95.2458814
701,Louisiana Street,77587,29.6684493,-95.2447675
705,Louisiana Street,77587,29.6682927,-95.2449171
301,State Street,77587,29.6695834,-95.2457868
706,Montana Street,77587,29.6695121,-95.2459921
712,Montana Street,77587,29.6691348,-95.2464045
714,Montana Street,77587,29.6690520,-95.2465373
716,Montana Street,77587,29.6689429,-95.2465830
814,Montana Street,77587,29.6682860,-95.2476731
816,Montana Street,77587,29.6682058,-95.2477846
908,Montana Street,77587,29.6676586,-95.2484290
910,Montana Street,77587,29.6675672,-95.2485333
914,Montana Street,77587,29.6673787,-95.2487800
916,Montana Street,77587,29.6673035,-95.2489141
915,Dakota Street,77587,29.6669762,-95.2485976
312,Waco Street,77587,29.6667187,-95.2488039
308,Waco Street,77587,29.6668796,-95.2490160
915,Montana Street,77587,29.6676857,-95.2492897
909,Montana Street,77587,29.6679056,-95.2490722
905,Montana Street,77587,29.6681988,-95.2487311
903,Montana Street,77587,29.6682864,-95.2486095
104,Caniff Road,77587,29.6690866,-95.2492647
709,Montana Street,77587,29.6695912,-95.2468056
704,Winkler Drive,77587,29.6697389,-95.2465436
706,Winkler Drive,77587,29.6698722,-95.2469233
716,Utah Street,77587,29.6696830,-95.2472862
406,South Richey Street,77587,29.6699044,-95.2406056
607,Dumont Street,77587,29.6697710,-95.2402180
402,South Richey Street,77587,29.6700038,-95.2399707
610,Palestine Street,77587,29.6698418,-95.2397322
405,Nebraska Street,77587,29.6695113,-95.2394742
702,Palestine Street,77587,29.6692737,-95.2391640
706,Palestine Street,77587,29.6690860,-95.2389982
710,Palestine Street,77587,29.6688934,-95.2387815
401,Michigan Street,77587,29.6687573,-95.2387374
799,Dumont Street,77587,29.6685033,-95.2390942
801,Dumont Street,77587,29.6680223,-95.2387069
809,Dumont Street,77587,29.6678656,-95.2385188
811,Dumont Street,77587,29.6677253,-95.2384001
812,Palestine Street,77587,29.6680256,-95.2379217
806,Palestine Street,77587,29.6682302,-95.2382032
402,Michigan Street,77587,29.6685873,-95.2384095
406,Michigan Street,77587,29.6684031,-95.2385921
102,Allen Street,77587,29.6699903,-95.2392370
104,Allen Street,77587,29.6699616,-95.2390101
305,Nebraska Street,77587,29.6700477,-95.2388878
301,Nebraska Street,77587,29.6701889,-95.2387088
304,Nebraska Street,77587,29.6698911,-95.2379078
306,Nebraska Street,77587,29.6699541,-95.2381698
308,Nebraska Street,77587,29.6698286,-95.2382924
312,Nebraska Street,77587,29.6696901,-95.2385641
314,Nebraska Street,77587,29.6694682,-95.2385388
705,Palestine Street,77587,29.6693618,-95.2386464
305,Michigan Street,77587,29.6695759,-95.2378655
303,Michigan Street,77587,29.6696058,-95.2376470
301,Michigan Street,77587,29.6697048,-95.2375342
213,Michigan Street,77587,29.6699502,-95.2371196
707,El Paso Street,77587,29.6700083,-95.2373714
304,Michigan Street,77587,29.6692210,-95.2372941
215,Kentucky Street,77587,29.6690998,-95.2365046
305,Kentucky Street,77587,29.6688758,-95.2371806
307,Kentucky Street,77587,29.6686458,-95.2371586
309,Kentucky Street,77587,29.6686342,-95.2373635
311,Kentucky Street,77587,29.6685137,-95.2374200
315,Kentucky Street,77587,29.6683013,-95.2376603
302,Kentucky Street,77587,29.6685911,-95.2365047
306,Kentucky Street,77587,29.6684213,-95.2367672
308,Kentucky Street,77587,29.6683558,-95.2368895
305,Georgia Street,77587,29.6679615,-95.2363483
307,Georgia Street,77587,29.6678812,-95.2364651
304,Georgia Street,77587,29.6677456,-95.2359454
306,Georgia Street,77587,29.6676507,-95.2360407
308,Georgia Street,77587,29.6675293,-95.2361335
310,Georgia Street,77587,29.6674863,-95.2362856
316,Georgia Street,77587,29.6672789,-95.2365669
311,Virginia Street,77587,29.6671045,-95.2361346
303,Virginia Street,77587,29.6672825,-95.2354872
307,Virginia Street,77587,29.6671221,-95.2357259
304,Virginia Street,77587,29.6669887,-95.2352201
301,Indiana Street,77587,29.6666321,-95.2346899
303,Indiana Street,77587,29.6665290,-95.2348047
305,Indiana Street,77587,29.6664320,-95.2349225
307,Indiana Street,77587,29.6664879,-95.2351747
309,Indiana Street,77587,29.6662583,-95.2351234
311,Indiana Street,77587,29.6661954,-95.2352528
313,Indiana Street,77587,29.6660558,-95.2353796
315,Indiana Street,77587,29.6659640,-95.2355134
1002,Palestine Street,77587,29.6670596,-95.2369893
1004,Palestine Street,77587,29.6669005,-95.2369208
1008,Palestine Street,77587,29.6667204,-95.2367079
309,Pennsylvania Street,77587,29.6654733,-95.2344164
308,Indiana Street,77587,29.6660090,-95.2347184
304,Indiana Street,77587,29.6661210,-95.2345292
301,Pennsylvania Street,77587,29.6658655,-95.2340608
305,Pennsylvania Street,77587,29.6656150,-95.2341628
1300,El Paso Street,77587,29.6653988,-95.2336594
218,York Street,77587,29.6649415,-95.2326456
208,York Street,77587,29.6653091,-95.2321745
1409,Amarillo Street,77587,29.6653418,-95.2310189
102,York Street,77587,29.6660824,-95.2310294
209,York Street,77587,29.6655030,-95.2326631
207,York Street,77587,29.6656327,-95.2324794
203,York Street,77587,29.6657496,-95.2322772
201,York Street,77587,29.6659629,-95.2321742
204,Pennsylvania Street,77587,29.6662153,-95.2326214
208,Pennsylvania Street,77587,29.6660805,-95.2328792
212,Pennsylvania Street,77587,29.6658759,-95.2331057
215,Pennsylvania Street,77587,29.6661315,-95.2335821
211,Pennsylvania Street,77587,29.6661932,-95.2334258
207,Pennsylvania Street,77587,29.6663968,-95.2331961
216,Indiana Street,77587,29.6665102,-95.2340083
212,Indiana Street,77587,29.6666604,-95.2338521
206,Indiana Street,77587,29.6669115,-95.2334489
204,Indiana Street,77587,29.6669745,-95.2333348
202,Indiana Street,77587,29.6671002,-95.2332389
1109,El Paso Street,77587,29.6668079,-95.2343727
211,Indiana Street,77587,29.6669479,-95.2341210
209,Indiana Street,77587,29.6671812,-95.2340431
205,Indiana Street,77587,29.6672094,-95.2337812
203,Indiana Street,77587,29.6673706,-95.2336784
201,Indiana Street,77587,29.6674445,-95.2335544
206,Virginia Street,77587,29.6676802,-95.2341833
210,Virginia Street,77587,29.6675282,-95.2344554
112,Indiana Street,77587,29.6674205,-95.2326523
110,Indiana Street,77587,29.6675497,-95.2326201
115,Indiana Street,77587,29.6676642,-95.2332124
103,York Street,77587,29.6663548,-95.2314674
104,Pennsylvania Street,77587,29.6667346,-95.2318544
116,Pennsylvania Street,77587,29.6664745,-95.2322225
103,Pennsylvania Street,77587,29.6670971,-95.2321906
107,Pennsylvania Street,77587,29.6669162,-95.2324446
111,Indiana Street,77587,29.6677623,-95.2330123
107,Indiana Street,77587,29.6679538,-95.2327634
103,Indiana Street,77587,29.6681064,-95.2325574
116,Virginia Street,77587,29.6680018,-95.2336357
112,Virginia Street,77587,29.6682166,-95.2334373
108,Virginia Street,77587,29.6684653,-95.2330800
114,Virginia Street,77587,29.6684962,-95.2328799
104,Virginia Street,77587,29.6686563,-95.2328472
109,Virginia Street,77587,29.6685265,-95.2337452
113,Virginia Street,77587,29.6683649,-95.2339334
116,Georgia Street,77587,29.6688391,-95.2344256
108,Georgia Street,77587,29.6691533,-95.2339196
203,Virginia Street,77587,29.6680950,-95.2343859
205,Virginia Street,77587,29.6680216,-95.2345526
213,Virginia Street,77587,29.6676655,-95.2350058
1006,El Paso Street,77587,29.6675867,-95.2351295
317,Weldon Street,77587,29.6691000,-95.2307433
315,Weldon Street,77587,29.6690885,-95.2310440
311,Weldon Street,77587,29.6690957,-95.2315440
309,Weldon Street,77587,29.6687720,-95.2312832
303,Weldon Street,77587,29.6687110,-95.2309723
301,Weldon Street,77587,29.6687291,-95.2307304
322,Weldon Street,77587,29.6691654,-95.2320756
318,Weldon Street,77587,29.6688815,-95.2320189
316,Weldon Street,77587,29.6686758,-95.2319573
312,Weldon Street,77587,29.6684404,-95.2317594
310,Weldon Street,77587,29.6683497,-95.2314657
308,Weldon Street,77587,29.6683066,-95.2312756
306,Weldon Street,77587,29.6683022,-95.2310680
302,Weldon Street,77587,29.6682611,-95.2306605
124,3rd Street,77587,29.6678703,-95.2308135
401,Weldon Street,77587,29.6691478,-95.2302996
225,Weldon Street,77587,29.6687672,-95.2303734
223,Weldon Street,77587,29.6687306,-95.2301712
221,Weldon Street,77587,29.6687076,-95.2300029
219,Weldon Street,77587,29.6687191,-95.2298330
217,Weldon Street,77587,29.6687249,-95.2296667
215,Weldon Street,77587,29.6687078,-95.2294905
213,Weldon Street,77587,29.6687349,-95.2293210
211,Weldon Street,77587,29.6687579,-95.2291508
209,Weldon Street,77587,29.6687377,-95.2289788
207,Weldon Street,77587,29.6687277,-95.2287623
205,Weldon Street,77587,29.6685687,-95.2285832
203,Weldon Street,77587,29.6683923,-95.2285294
201,Weldon Street,77587,29.6682496,-95.2285571
202,Weldon Street,77587,29.6682997,-95.2289705
204,Weldon Street,77587,29.6683501,-95.2291568
206,Weldon Street,77587,29.6683558,-95.2293155
208,Weldon Street,77587,29.6683306,-95.2294820
210,Weldon Street,77587,29.6682958,-95.2296898
214,Weldon Street,77587,29.6683045,-95.2299960
216,Weldon Street,77587,29.6683104,-95.2301619
218,Weldon Street,77587,29.6682975,-95.2303606
311,Avenue A,77587,29.6666156,-95.2296010
313,Avenue A,77587,29.6665992,-95.2291379
315,Avenue A,77587,29.6666376,-95.2289541
106,Weldon Street,77587,29.6669385,-95.2291417
108,Weldon Street,77587,29.6670833,-95.2289915
110,Weldon Street,77587,29.6672316,-95.2289949
112,Weldon Street,77587,29.6674025,-95.2290395
114,Weldon Street,77587,29.6675278,-95.2290167
120,Weldon Street,77587,29.6680035,-95.2290168
119,Weldon Street,77587,29.6679977,-95.2284987
117,Weldon Street,77587,29.6678336,-95.2284858
115,Weldon Street,77587,29.6676817,-95.2285026
113,Weldon Street,77587,29.6675372,-95.2285150
109,Weldon Street,77587,29.6672476,-95.2284720
107,Weldon Street,77587,29.6670963,-95.2284364
105,Weldon Street,77587,29.6669324,-95.2285077
321,Avenue A,77587,29.6665994,-95.2283153
104,Volney Street,77587,29.6667051,-95.2279508
106,Volney Street,77587,29.6668526,-95.2279545
108,Volney Street,77587,29.6670177,-95.2279587
110,Volney Street,77587,29.6671799,-95.2279799
112,Volney Street,77587,29.6673487,-95.2279818
114,Volney Street,77587,29.6675024,-95.2279636
116,Volney Street,77587,29.6676912,-95.2279652
118,Volney Street,77587,29.6678592,-95.2280003
120,Volney Street,77587,29.6680069,-95.2279789
122,Volney Street,77587,29.6682389,-95.2279990
124,Volney Street,77587,29.6684152,-95.2279927
126,Volney Street,77587,29.6685694,-95.2280043
128,Volney Street,77587,29.6687338,-95.2280080
130,Volney Street,77587,29.6688932,-95.2279867
132,Volney Street,77587,29.6690413,-95.2280057
402,Lynn Street,77587,29.6691578,-95.2275827
401,Bonnie Street,77587,29.6687550,-95.2275780
403,Bonnie Street,77587,29.6687479,-95.2274062
405,Bonnie Street,77587,29.6687978,-95.2272165
409,Bonnie Street,77587,29.6687801,-95.2268391
411,Bonnie Street,77587,29.6687764,-95.2266724
416,Lynn Street,77587,29.6691820,-95.2262840
418,Lynn Street,77587,29.6691779,-95.2261288
413,Bonnie Street,77587,29.6687417,-95.2264535
404,Lynn Street,77587,29.6691525,-95.2274056
504,Lynn Street,77587,29.6692159,-95.2255595
508,Lynn Street,77587,29.6692056,-95.2251805
510,Lynn Street,77587,29.6692057,-95.2249926
512,Lynn Street,77587,29.6691901,-95.2247622
406,Vickers Street,77587,29.6690178,-95.2247428
404,Vickers Street,77587,29.6688424,-95.2247239
509,Bonnie Street,77587,29.6688126,-95.2249928
507,Bonnie Street,77587,29.6687886,-95.2251762
505,Bonnie Street,77587,29.6687816,-95.2253667
503,Bonnie Street,77587,29.6687891,-95.2255442
407,Vickers Street,77587,29.6690126,-95.2242735
409,Vickers Street,77587,29.6691838,-95.2242381
403,Vickers Street,77587,29.6686549,-95.2242563
401,Vickers Street,77587,29.6684718,-95.2243876
514,Bonnie Street,77587,29.6684285,-95.2246042
510,Bonnie Street,77587,29.6683741,-95.2249760
508,Bonnie Street,77587,29.6684053,-95.2251624
506,Bonnie Street,77587,29.6683815,-95.2253499
504,Bonnie Street,77587,29.6683840,-95.2255228
502,Bonnie Street,77587,29.6683744,-95.2257203
418,Bonnie Street,77587,29.6683537,-95.2261074
416,Bonnie Street,77587,29.6683736,-95.2263083
408,Bonnie Street,77587,29.6683527,-95.2270200
406,Bonnie Street,77587,29.6683479,-95.2272047
404,Bonnie Street,77587,29.6683508,-95.2273919
402,Bonnie Street,77587,29.6683412,-95.2275934
119,Volney Street,77587,29.6680154,-95.2275164
120,Merrielane Street,77587,29.6680240,-95.2270637
118,Merrielane Street,77587,29.6678467,-95.2270760
117,Volney Street,77587,29.6678712,-95.2274921
115,Volney Street,77587,29.6677040,-95.2275101
116,Merrielane Street,77587,29.6676935,-95.2270633
114,Merrielane Street,77587,29.6675254,-95.2270201
113,Volney Street,77587,29.6675303,-95.2275325
111,Volney Street,77587,29.6673536,-95.2275070
112,Merrielane Street,77587,29.6673666,-95.2270699
110,Merrielane Street,77587,29.6671952,-95.2270460
109,Volney Street,77587,29.6672072,-95.2274861
108,Merrielane Street,77587,29.6670513,-95.2270519
107,Volney Street,77587,29.6670445,-95.2274898
105,Volney Street,77587,29.6668564,-95.2274766
106,Merrielane Street,77587,29.6668678,-95.2271052
104,Merrielane Street,77587,29.6667168,-95.2270440
103,Volney Street,77587,29.6667091,-95.2274831
101,Volney Street,77587,29.6665817,-95.2274614
102,Merrielane Street,77587,29.6665766,-95.2270727
119,Merrielane Street,77587,29.6680294,-95.2266372
120,Virgil Street,77587,29.6680386,-95.2261899
118,Virgil Street,77587,29.6678845,-95.2261538
117,Merrielane Street,77587,29.6678798,-95.2266340
116,Virgil Street,77587,29.6677125,-95.2261649
113,Merrielane Street,77587,29.6675503,-95.2265589
114,Virgil Street,77587,29.6675701,-95.2261343
112,Virgil Street,77587,29.6673892,-95.2261594
110,Virgil Street,77587,29.6672123,-95.2261697
109,Merrielane Street,77587,29.6672181,-95.2265673
107,Merrielane Street,77587,29.6670393,-95.2265830
108,Virgil Street,77587,29.6670489,-95.2261619
106,Virgil Street,77587,29.6668944,-95.2261430
105,Merrielane Street,77587,29.6668739,-95.2265816
103,Merrielane Street,77587,29.6667364,-95.2265395
104,Virgil Street,77587,29.6667300,-95.2261582
102,Virgil Street,77587,29.6665949,-95.2261756
101,Merrielane Street,77587,29.6665945,-95.2265929
302,Avenue A,77587,29.6661267,-95.2299968
304,Avenue A,77587,29.6661705,-95.2297755
306,Avenue A,77587,29.6661230,-95.2296282
314,Avenue A,77587,29.6661632,-95.2291671
318,Avenue A,77587,29.6662017,-95.2288541
320,Avenue A,77587,29.6661262,-95.2286845
322,Avenue A,77587,29.6661792,-95.2285236
324,Avenue A,77587,29.6661776,-95.2283762
327,Avenue B,77587,29.6656308,-95.2279101
319,Avenue B,77587,29.6656232,-95.2281968
317,Avenue B,77587,29.6656235,-95.2283537
315,Avenue B,77587,29.6656404,-95.2285111
311,Avenue B,77587,29.6656159,-95.2288121
309,Avenue B,77587,29.6656683,-95.2289822
307,Avenue B,77587,29.6656257,-95.2291341
303,Avenue B,77587,29.6656175,-95.2293690
406,Avenue A,77587,29.6662139,-95.2272309
408,Avenue A,77587,29.6661853,-95.2270841
410,Avenue A,77587,29.6661992,-95.2268890
414,Avenue A,77587,29.6662300,-95.2266338
416,Avenue A,77587,29.6662192,-95.2264400
415,Avenue B,77587,29.6657201,-95.2264158
409,Avenue B,77587,29.6656733,-95.2268576
407,Avenue B,77587,29.6656733,-95.2270276
405,Avenue B,77587,29.6656530,-95.2272048
403,Avenue B,77587,29.6656822,-95.2273708
401,Avenue B,77587,29.6656728,-95.2275174
502,Avenue A,77587,29.6662309,-95.2260897
504,Avenue A,77587,29.6662522,-95.2259322
506,Avenue A,77587,29.6662089,-95.2257609
508,Avenue A,77587,29.6662275,-95.2256072
510,Avenue A,77587,29.6661936,-95.2254549
514,Avenue A,77587,29.6661968,-95.2251353
516,Avenue A,77587,29.6662056,-95.2249873
501,Avenue B,77587,29.6656742,-95.2260747
505,Avenue B,77587,29.6656982,-95.2258153
507,Avenue B,77587,29.6656719,-95.2255894
511,Avenue B,77587,29.6657084,-95.2252771
513,Avenue B,77587,29.6656880,-95.2251239
515,Avenue B,77587,29.6656886,-95.2249702
610,Avenue A,77587,29.6662470,-95.2240930
606,Avenue A,77587,29.6662335,-95.2243739
607,Avenue B,77587,29.6657120,-95.2241521
603,Avenue B,77587,29.6656988,-95.2243549
601,Avenue B,77587,29.6656928,-95.2246274
608,Avenue B,77587,29.6653139,-95.2241078
606,Avenue B,77587,29.6652775,-95.2243079
506,Avenue B,77587,29.6652523,-95.2256694
504,Avenue B,77587,29.6652743,-95.2259017
109,Avenue D,77587,29.6636843,-95.2311998
402,Texas Street,77587,29.6605443,-95.2306066
408,Texas Street,77587,29.6602662,-95.2303181
401,Pecan Drive,77587,29.6602669,-95.2306821
410,Texas Street,77587,29.6601455,-95.2301853
405,Pecan Drive,77587,29.6598962,-95.2305200
412,Texas Street,77587,29.6599981,-95.2300946
416,Texas Street,77587,29.6598066,-95.2298705
413,Pecan Drive,77587,29.6594374,-95.2301321
426,Texas Street,77587,29.6592638,-95.2293781
424,Texas Street,77587,29.6593757,-95.2294946
422,Texas Street,77587,29.6594760,-95.2296196
408,Pecan Drive,77587,29.6594851,-95.2308018
432,Pecan Drive,77587,29.6580978,-95.2295557
434,Pecan Drive,77587,29.6579171,-95.2294012
314,Spencer Highway,77587,29.6641410,-95.2279148
313,Avenue D,77587,29.6637379,-95.2278310
414,Avenue F,77587,29.6612408,-95.2264988
513,Avenue F,77587,29.6617948,-95.2250621
504,Avenue D,77587,29.6633247,-95.2258785
202,Avenue G,77587,29.6599985,-95.2292225
306,Avenue G,77587,29.6599844,-95.2285451
308,Avenue G,77587,29.6600096,-95.2283896
310,Avenue G,77587,29.6600458,-95.2282390
312,Avenue G,77587,29.6600028,-95.2280828
301,Avenue H,77587,29.6594519,-95.2287053
303,Avenue H,77587,29.6594696,-95.2285159
307,Avenue H,77587,29.6595064,-95.2282385
309,Avenue H,77587,29.6594544,-95.2280655
311,Avenue H,77587,29.6594492,-95.2279165
313,Avenue H,77587,29.6594743,-95.2277592
401,Avenue H,77587,29.6595631,-95.2274012
402,Avenue G,77587,29.6600375,-95.2274124
404,Avenue G,77587,29.6600270,-95.2272555
406,Avenue G,77587,29.6600254,-95.2270203
407,Avenue H,77587,29.6594848,-95.2270118
409,Avenue H,77587,29.6594635,-95.2267777
414,Avenue G,77587,29.6600323,-95.2263819
411,Avenue H,77587,29.6595002,-95.2266138
413,Avenue H,77587,29.6594801,-95.2264611
415,Avenue H,77587,29.6594793,-95.2263037
502,Avenue G,77587,29.6600721,-95.2259605
504,Avenue G,77587,29.6600172,-95.2258057
506,Avenue G,77587,29.6600815,-95.2256633
508,Avenue G,77587,29.6600855,-95.2254982
510,Avenue G,77587,29.6600662,-95.2253324
512,Avenue G,77587,29.6600391,-95.2251802
516,Avenue G,77587,29.6600373,-95.2248738
501,Avenue H,77587,29.6594763,-95.2259535
503,Avenue H,77587,29.6595358,-95.2257954
505,Avenue H,77587,29.6594933,-95.2256272
507,Avenue H,77587,29.6594841,-95.2254718
509,Avenue H,77587,29.6595576,-95.2252449
513,Avenue H,77587,29.6595302,-95.2250130
601,Avenue H,77587,29.6596044,-95.2245341
605,Avenue H,77587,29.6595472,-95.2243241
607,Avenue H,77587,29.6595497,-95.2240300
609,Avenue H,77587,29.6595912,-95.2238899
608,Avenue G,77587,29.6600579,-95.2240419
606,Avenue G,77587,29.6601033,-95.2241917
604,Avenue G,77587,29.6600659,-95.2243586
602,Avenue G,77587,29.6600771,-95.2245076
413,Avenue I,77587,29.6585064,-95.2264356
442,Pecan Drive,77587,29.6575723,-95.2290315
459,Pecan Drive,77587,29.6571090,-95.2279571
511,Texas Street,77587,29.6570446,-95.2264294
602,Avenue I,77587,29.6581254,-95.2244805
516,Avenue I,77587,29.6580566,-95.2248206
512,Avenue I,77587,29.6580698,-95.2251367
510,Avenue I,77587,29.6580955,-95.2252915
608,Avenue J,77587,29.6571566,-95.2240016
313,8th Street,77587,29.6689798,-95.2212648
807,Bonnie Street,77587,29.6688464,-95.2209959
809,Bonnie Street,77587,29.6688445,-95.2208231
903,Bonnie Street,77587,29.6688056,-95.2205204
905,Bonnie Street,77587,29.6688645,-95.2202032
909,Bonnie Street,77587,29.6688650,-95.2200079
913,Bonnie Street,77587,29.6688420,-95.2196977
1005,Bonnie Street,77587,29.6688726,-95.2191083
808,Bonnie Street,77587,29.6684269,-95.2212665
806,Bonnie Street,77587,29.6684265,-95.2211308
812,Bonnie Street,77587,29.6683902,-95.2208834
906,Bonnie Street,77587,29.6684802,-95.2203625
912,Bonnie Street,77587,29.6684783,-95.2198379
914,Bonnie Street,77587,29.6684696,-95.2197250
1002,Bonnie Street,77587,29.6684751,-95.2194182
1004,Bonnie Street,77587,29.6684566,-95.2192400
1006,Bonnie Street,77587,29.6684411,-95.2190809
1008,Bonnie Street,77587,29.6684756,-95.2189239
315,North Allen-Genoa Road,77587,29.6696063,-95.2185279
406,Halkies Street,77587,29.6690428,-95.2171386
404,Halkies Street,77587,29.6688785,-95.2171440
402,Halkies Street,77587,29.6687134,-95.2171317
308,Halkies Street,77587,29.6685496,-95.2171265
306,Halkies Street,77587,29.6683773,-95.2171228
103,North Allen-Genoa Road,77587,29.6676249,-95.2173337
405,Halkies Street,77587,29.6691211,-95.2166740
406,Freda Drive,77587,29.6691274,-95.2162499
403,Halkies Street,77587,29.6689815,-95.2166869
401,Halkies Street,77587,29.6688314,-95.2166690
402,Freda Drive,77587,29.6688338,-95.2162649
122,Vale Street,77587,29.6680980,-95.2233059
121,Vale Street,77587,29.6681054,-95.2228324
119,Vale Street,77587,29.6679646,-95.2228104
120,Vale Street,77587,29.6679538,-95.2232825
118,Vale Street,77587,29.6678056,-95.2232886
117,Vale Street,77587,29.6678086,-95.2228463
115,Vale Street,77587,29.6676621,-95.2227924
113,Vale Street,77587,29.6675105,-95.2228343
116,Vale Street,77587,29.6676512,-95.2233057
114,Vale Street,77587,29.6674995,-95.2233098
112,Vale Street,77587,29.6673500,-95.2232731
111,Vale Street,77587,29.6673562,-95.2228122
109,Vale Street,77587,29.6672052,-95.2228015
110,Vale Street,77587,29.6671982,-95.2232763
108,Vale Street,77587,29.6670468,-95.2233223
107,Vale Street,77587,29.6670547,-95.2228148
106,Vale Street,77587,29.6668993,-95.2232859
105,Vale Street,77587,29.6669079,-95.2227759
701,Avenue A,77587,29.6666637,-95.2233957
703,Avenue A,77587,29.6667035,-95.2232433
707,Avenue A,77587,29.6666784,-95.2228604
711,Avenue A,77587,29.6666850,-95.2225045
713,Avenue A,77587,29.6666906,-95.2223176
715,Avenue A,77587,29.6666610,-95.2221525
714,Longley Street,77587,29.6670048,-95.2221182
712,Longley Street,77587,29.6670530,-95.2223130
202,Van Street,77587,29.6671905,-95.2223911
204,Van Street,77587,29.6673436,-95.2223906
206,Van Street,77587,29.6674995,-95.2223698
208,Van Street,77587,29.6676446,-95.2224097
210,Van Street,77587,29.6678002,-95.2224286
212,Van Street,77587,29.6679684,-95.2223582
709,Ammons Street,77587,29.6680392,-95.2221558
711,Ammons Street,77587,29.6680343,-95.2219927
713,Ammons Street,77587,29.6680307,-95.2218138
715,Ammons Street,77587,29.6680633,-95.2216390
712,Ammons Street,77587,29.6676944,-95.2220378
807,Ammons Street,77587,29.6680665,-95.2212626
809,Ammons Street,77587,29.6680442,-95.2210800
813,Ammons Street,77587,29.6680491,-95.2207394
901,Ammons Street,77587,29.6680912,-95.2205753
905,Ammons Street,77587,29.6680607,-95.2202197
907,Ammons Street,77587,29.6680834,-95.2200387
909,Ammons Street,77587,29.6680848,-95.2198504
911,Ammons Street,77587,29.6680971,-95.2196862
913,Ammons Street,77587,29.6680821,-95.2195150
915,Ammons Street,77587,29.6681096,-95.2193475
1001,Ammons Street,77587,29.6680893,-95.2191720
1003,Ammons Street,77587,29.6680882,-95.2189941
1005,Ammons Street,77587,29.6680914,-95.2188139
1007,Ammons Street,77587,29.6681107,-95.2186539
1009,Ammons Street,77587,29.6681119,-95.2184857
1012,Ammons Street,77587,29.6677552,-95.2181691
1008,Ammons Street,77587,29.6677371,-95.2185022
1004,Ammons Street,77587,29.6677245,-95.2188491
1002,Ammons Street,77587,29.6677151,-95.2190188
916,Ammons Street,77587,29.6676976,-95.2191927
912,Ammons Street,77587,29.6677126,-95.2195382
910,Ammons Street,77587,29.6677344,-95.2197115
906,Ammons Street,77587,29.6677333,-95.2200692
904,Ammons Street,77587,29.6677244,-95.2202390
902,Ammons Street,77587,29.6677178,-95.2204197
810,Ammons Street,77587,29.6677171,-95.2209331
806,Ammons Street,77587,29.6676959,-95.2212736
803,Longley Street,77587,29.6673627,-95.2214670
805,Longley Street,77587,29.6673587,-95.2212755
807,Longley Street,77587,29.6673658,-95.2211057
809,Longley Street,77587,29.6673658,-95.2209290
811,Longley Street,77587,29.6673929,-95.2207604
813,Longley Street,77587,29.6673793,-95.2205894
901,Longley Street,77587,29.6673957,-95.2204086
903,Longley Street,77587,29.6673777,-95.2202401
905,Longley Street,77587,29.6673785,-95.2200645
907,Longley Street,77587,29.6673943,-95.2198774
909,Longley Street,77587,29.6674023,-95.2197223
911,Longley Street,77587,29.6674063,-95.2195441
913,Longley Street,77587,29.6674134,-95.2193596
915,Longley Street,77587,29.6673956,-95.2192015
1001,Longley Street,77587,29.6674083,-95.2190293
1003,Longley Street,77587,29.6674292,-95.2188481
1005,Longley Street,77587,29.6674600,-95.2186795
1007,Longley Street,77587,29.6674436,-95.2184921
1009,Longley Street,77587,29.6674108,-95.2183310
1011,Longley Street,77587,29.6674451,-95.2181525
1013,Longley Street,77587,29.6674121,-95.2179704
802,Longley Street,77587,29.6669696,-95.2217123
804,Longley Street,77587,29.6670195,-95.2215050
806,Longley Street,77587,29.6670053,-95.2213076
808,Longley Street,77587,29.6670120,-95.2211273
810,Longley Street,77587,29.6670273,-95.2209607
812,Longley Street,77587,29.6670207,-95.2207845
814,Longley Street,77587,29.6670380,-95.2206165
902,Longley Street,77587,29.6670436,-95.2204335
906,Longley Street,77587,29.6670501,-95.2200927
908,Longley Street,77587,29.6670355,-95.2199183
910,Longley Street,77587,29.6670359,-95.2197493
912,Longley Street,77587,29.6670112,-95.2195793
916,Longley Street,77587,29.6670340,-95.2192247
1002,Longley Street,77587,29.6670484,-95.2190498
1004,Longley Street,77587,29.6670438,-95.2188828
1006,Longley Street,77587,29.6670788,-95.2187059
1008,Longley Street,77587,29.6670413,-95.2185240
1010,Longley Street,77587,29.6671048,-95.2183579
1012,Longley Street,77587,29.6670725,-95.2181853
1014,Longley Street,77587,29.6671067,-95.2180107
1016,Longley Street,77587,29.6670807,-95.2178399
1018,Longley Street,77587,29.6671010,-95.2176669
1101,Avenue A,77587,29.6667378,-95.2174633
1017,Avenue A,77587,29.6667348,-95.2176482
1015,Avenue A,77587,29.6667612,-95.2178394
1009,Avenue A,77587,29.6667279,-95.2181761
1005,Avenue A,77587,29.6667542,-95.2185266
1003,Avenue A,77587,29.6667528,-95.2187054
1001,Avenue A,77587,29.6667323,-95.2188742
917,Avenue A,77587,29.6667139,-95.2190590
915,Avenue A,77587,29.6667017,-95.2192260
913,Avenue A,77587,29.6667126,-95.2194008
911,Avenue A,77587,29.6666854,-95.2195593
907,Avenue A,77587,29.6667372,-95.2199018
905,Avenue A,77587,29.6667044,-95.2200864
903,Avenue A,77587,29.6667203,-95.2202512
901,Avenue A,77587,29.6667068,-95.2204346
813,Avenue A,77587,29.6667032,-95.2206129
811,Avenue A,77587,29.6666775,-95.2207816
809,Avenue A,77587,29.6666841,-95.2209486
807,Avenue A,77587,29.6667033,-95.2211580
805,Avenue A,77587,29.6666978,-95.2213615
803,Avenue A,77587,29.6666885,-95.2215672
801,Avenue A,77587,29.6666870,-95.2217398
714,Avenue A,77587,29.6662988,-95.2223499
710,Avenue A,77587,29.6663154,-95.2225381
704,Avenue A,77587,29.6662666,-95.2230213
702,Avenue A,77587,29.6662373,-95.2232246
715,Avenue B,77587,29.6657204,-95.2221863
713,Avenue B,77587,29.6657338,-95.2224545
711,Avenue B,77587,29.6657473,-95.2226539
709,Avenue B,77587,29.6656882,-95.2228625
703,Avenue B,77587,29.6657623,-95.2230570
701,Avenue B,77587,29.6657802,-95.2232252
806,Avenue A,77587,29.6662587,-95.2214512
810,Avenue A,77587,29.6663035,-95.2212262
812,Avenue A,77587,29.6663156,-95.2209549
811,Avenue B,77587,29.6657438,-95.2209588
809,Avenue B,77587,29.6657406,-95.2211281
807,Avenue B,77587,29.6657526,-95.2212790
803,Avenue B,77587,29.6657097,-95.2215973
801,Avenue B,77587,29.6657344,-95.2217610
916,Avenue A,77587,29.6663290,-95.2192281
914,Avenue A,77587,29.6663136,-95.2193941
912,Avenue A,77587,29.6663134,-95.2195939
908,Avenue A,77587,29.6663010,-95.2198317
902,Avenue A,77587,29.6662736,-95.2202791
901,Avenue B,77587,29.6657708,-95.2203147
903,Avenue B,77587,29.6657681,-95.2201591
905,Avenue B,77587,29.6657803,-95.2200222
907,Avenue B,77587,29.6657832,-95.2198317
909,Avenue B,77587,29.6657774,-95.2196856
911,Avenue B,77587,29.6657707,-95.2195106
913,Avenue B,77587,29.6657733,-95.2193688
915,Avenue B,77587,29.6658070,-95.2192086
1002,Avenue A,77587,29.6663120,-95.2188791
1006,Avenue A,77587,29.6662919,-95.2185496
1001,Avenue B,77587,29.6658402,-95.2188619
1003,Avenue B,77587,29.6658438,-95.2187086
1005,Avenue B,77587,29.6658109,-95.2185309
1007,Avenue B,77587,29.6658724,-95.2183940
1009,Avenue B,77587,29.6658187,-95.2182366
1010,Avenue A,77587,29.6663357,-95.2182478
1012,Avenue A,77587,29.6662092,-95.2181080
1011,Avenue B,77587,29.6658266,-95.2180757
1015,Avenue B,77587,29.6659124,-95.2177649
1014,Avenue A,77587,29.6663032,-95.2179066
1102,Avenue A,77587,29.6662502,-95.2174189
102,South Allen-Genoa Road,77587,29.6662774,-95.2172536
1103,Avenue B,77587,29.6658564,-95.2172627
1101,Avenue B,77587,29.6658695,-95.2174045
1105,Avenue B,77587,29.6658223,-95.2170886
116,South Allen-Genoa Road,77587,29.6659350,-95.2169522
1111,Spencer Highway,77587,29.6652240,-95.2168594
1010,Avenue B,77587,29.6653678,-95.2182308
1008,Avenue B,77587,29.6653831,-95.2183995
1004,Avenue B,77587,29.6653500,-95.2187057
1002,Avenue B,77587,29.6653716,-95.2188627
916,Avenue B,77587,29.6653770,-95.2191969
910,Avenue B,77587,29.6653793,-95.2196742
908,Avenue B,77587,29.6653561,-95.2198273
906,Avenue B,77587,29.6653269,-95.2199727
816,Avenue B,77587,29.6653175,-95.2206499
810,Avenue B,77587,29.6653458,-95.2208595
808,Avenue B,77587,29.6653342,-95.2210946
712,Avenue B,77587,29.6653308,-95.2224150
706,Avenue B,77587,29.6653018,-95.2228846
704,Avenue B,77587,29.6653467,-95.2230378
1312,Avenue A,77587,29.6663527,-95.2144799
202,South Perez Road,77587,29.6653277,-95.2125436
202,South Perez Road,77587,29.6655100,-95.2125629
1102,Edward Drive,77587,29.6684527,-95.2167349
1104,Edward Drive,77587,29.6684747,-95.2165722
1106,Edward Drive,77587,29.6684697,-95.2164024
1108,Edward Drive,77587,29.6684761,-95.2162344
1110,Edward Drive,77587,29.6685089,-95.2160723
1112,Edward Drive,77587,29.6685088,-95.2158996
1114,Edward Drive,77587,29.6685052,-95.2157380
1202,Edward Drive,77587,29.6685140,-95.2155697
1204,Edward Drive,77587,29.6685057,-95.2153978
1206,Edward Drive,77587,29.6684842,-95.2152357
1208,Edward Drive,77587,29.6684986,-95.2150659
1210,Edward Drive,77587,29.6685062,-95.2149005
1212,Edward Drive,77587,29.6685162,-95.2147417
1214,Edward Drive,77587,29.6685253,-95.2145587
1302,Edward Drive,77587,29.6685031,-95.2144066
1304,Edward Drive,77587,29.6685101,-95.2142398
1306,Edward Drive,77587,29.6685189,-95.2140738
1308,Edward Drive,77587,29.6685094,-95.2139112
1310,Edward Drive,77587,29.6685065,-95.2137360
1312,Edward Drive,77587,29.6685196,-95.2135773
1314,Edward Drive,77587,29.6685201,-95.2134136
1402,Edward Drive,77587,29.6685235,-95.2132486
1404,Edward Drive,77587,29.6685174,-95.2130744
1406,Edward Drive,77587,29.6685337,-95.2129151
1408,Edward Drive,77587,29.6685521,-95.2127598
1410,Edward Drive,77587,29.6685529,-95.2126060
401,Freda Drive,77587,29.6688442,-95.2157571
403,Freda Drive,77587,29.6689948,-95.2157900
405,Freda Drive,77587,29.6691328,-95.2157837
407,Freda Drive,77587,29.6692797,-95.2158159
409,Freda Drive,77587,29.6694234,-95.2157844
411,Freda Drive,77587,29.6695708,-95.2157657
413,Freda Drive,77587,29.6697091,-95.2157816
416,Oaks Drive,77587,29.6698638,-95.2153876
414,Oaks Drive,77587,29.6697197,-95.2153608
412,Oaks Drive,77587,29.6695819,-95.2153530
410,Oaks Drive,77587,29.6694327,-95.2153377
408,Oaks Drive,77587,29.6692926,-95.2153485
406,Oaks Drive,77587,29.6691427,-95.2153441
404,Oaks Drive,77587,29.6689962,-95.2153143
403,Oaks Drive,77587,29.6690092,-95.2148970
405,Oaks Drive,77587,29.6691510,-95.2148666
409,Oaks Drive,77587,29.6694397,-95.2148740
411,Oaks Drive,77587,29.6695811,-95.2148696
413,Oaks Drive,77587,29.6697254,-95.2148825
415,Oaks Drive,77587,29.6698671,-95.2148745
416,Betty Road,77587,29.6698724,-95.2144901
414,Betty Road,77587,29.6697308,-95.2144615
412,Betty Road,77587,29.6696064,-95.2144337
410,Betty Road,77587,29.6694375,-95.2144703
408,Betty Road,77587,29.6693021,-95.2144204
406,Betty Road,77587,29.6691567,-95.2144433
404,Betty Road,77587,29.6690120,-95.2144506
402,Betty Road,77587,29.6688708,-95.2144733
401,Betty Road,77587,29.6688836,-95.2139534
403,Betty Road,77587,29.6690282,-95.2139605
407,Betty Road,77587,29.6693033,-95.2139797
409,Betty Road,77587,29.6694517,-95.2139778
413,Betty Road,77587,29.6697400,-95.2139797
416,Clara Road,77587,29.6698873,-95.2136025
414,Clara Road,77587,29.6697541,-95.2136159
412,Clara Road,77587,29.6695979,-95.2135790
410,Clara Road,77587,29.6694617,-95.2135484
408,Clara Road,77587,29.6693097,-95.2135323
406,Clara Road,77587,29.6691743,-95.2135227
404,Clara Road,77587,29.6690309,-95.2136067
402,Clara Road,77587,29.6688871,-95.2135675
401,Clara Road,77587,29.6688973,-95.2130505
403,Clara Road,77587,29.6690302,-95.2130739
405,Clara Road,77587,29.6691806,-95.2130854
407,Clara Road,77587,29.6693238,-95.2130950
409,Clara Road,77587,29.6694585,-95.2130684
413,Clara Road,77587,29.6697567,-95.2130729
415,Clara Road,77587,29.6698947,-95.2130738
416,North Perez Road,77587,29.6698356,-95.2128008
1627,Spencer Highway,77587,29.6654858,-95.2085986
3020,Shaver Street,77502,29.6656340,-95.2081894
1508,Longley Street,77587,29.6669075,-95.2116925
103,North Perez Road,77587,29.6669476,-95.2121604
1512,Longley Street,77587,29.6669262,-95.2113132
1514,Longley Street,77587,29.6669366,-95.2111145
1516,Longley Street,77587,29.6669173,-95.2109196
1528,Longley Street,77587,29.6669228,-95.2101399
1543,Longley Street,77587,29.6673345,-95.2101229
1539,Longley Street,77587,29.6673554,-95.2103084
1537,Longley Street,77587,29.6673544,-95.2104039
1533,Longley Street,77587,29.6673550,-95.2105897
1531,Longley Street,77587,29.6673824,-95.2106886
1529,Longley Street,77587,29.6673499,-95.2107869
1525,Longley Street,77587,29.6673475,-95.2109717
1521,Longley Street,77587,29.6673456,-95.2111610
1519,Longley Street,77587,29.6673445,-95.2112539
1517,Longley Street,77587,29.6673418,-95.2113492
1513,Longley Street,77587,29.6673416,-95.2114476
1515,Longley Street,77587,29.6673404,-95.2115392
1511,Longley Street,77587,29.6673385,-95.2116311
1507,Longley Street,77587,29.6673270,-95.2118536
1542,Ammons Street,77587,29.6677528,-95.2101411
1540,Ammons Street,77587,29.6677497,-95.2102230
1538,Ammons Street,77587,29.6677470,-95.2103270
1536,Ammons Street,77587,29.6677488,-95.2104227
1534,Ammons Street,77587,29.6677469,-95.2105148
1530,Ammons Street,77587,29.6677135,-95.2107059
1528,Ammons Street,77587,29.6677092,-95.2108016
1526,Ammons Street,77587,29.6677434,-95.2108974
1524,Ammons Street,77587,29.6677099,-95.2109894
1522,Ammons Street,77587,29.6677114,-95.2110850
1518,Ammons Street,77587,29.6677083,-95.2112759
1516,Ammons Street,77587,29.6677051,-95.2113715
1514,Ammons Street,77587,29.6677052,-95.2114506
1512,Ammons Street,77587,29.6677022,-95.2115498
1508,Ammons Street,77587,29.6676993,-95.2117398
1506,Ammons Street,77587,29.6677225,-95.2118873
207,North Perez Road,77587,29.6677551,-95.2121131
205,North Perez Road,77587,29.6675819,-95.2121643
203,North Perez Road,77587,29.6672881,-95.2121472
301,North Perez Road,77587,29.6681130,-95.2121741
303,North Perez Road,77587,29.6682559,-95.2121206
300,North Perez Road,77587,29.6684884,-95.2121513
1503,Ammons Street,77587,29.6681915,-95.2118404
1507,Ammons Street,77587,29.6681257,-95.2115136
1509,Ammons Street,77587,29.6681357,-95.2113302
1511,Ammons Street,77587,29.6681424,-95.2111204
1502,Bonnie Street,77587,29.6685698,-95.2118986
1504,Bonnie Street,77587,29.6685583,-95.2117094
1506,Bonnie Street,77587,29.6685771,-95.2115240
1508,Bonnie Street,77587,29.6685733,-95.2113351
1510,Bonnie Street,77587,29.6685431,-95.2111459
1512,Bonnie Street,77587,29.6685608,-95.2109573
1514,Bonnie Street,77587,29.6685851,-95.2107659
1516,Bonnie Street,77587,29.6685765,-95.2105734
1517,Ammons Street,77587,29.6681422,-95.2105682
1519,Bonnie Street,77587,29.6689844,-95.2103967
1517,Bonnie Street,77587,29.6690024,-95.2105836
1513,Bonnie Street,77587,29.6690321,-95.2107939
1515,Bonnie Street,77587,29.6689899,-95.2109651
1511,Bonnie Street,77587,29.6689586,-95.2111513
1507,Bonnie Street,77587,29.6689457,-95.2115284
1505,Bonnie Street,77587,29.6689611,-95.2117145
1503,Bonnie Street,77587,29.6689822,-95.2119074
1500,Christa Lane,77587,29.6693315,-95.2122152
1502,Christa Lane,77587,29.6693343,-95.2121121
1504,Christa Lane,77587,29.6693713,-95.2120320
1508,Christa Lane,77587,29.6693395,-95.2118287
1510,Christa Lane,77587,29.6693402,-95.2117352
1514,Christa Lane,77587,29.6693753,-95.2115529
1516,Christa Lane,77587,29.6693665,-95.2114651
1518,Christa Lane,77587,29.6693438,-95.2113570
1520,Christa Lane,77587,29.6693768,-95.2112762
1522,Christa Lane,77587,29.6693475,-95.2111800
1524,Christa Lane,77587,29.6693464,-95.2110835
1528,Christa Lane,77587,29.6693491,-95.2108994
1530,Christa Lane,77587,29.6693539,-95.2108053
1534,Christa Lane,77587,29.6693536,-95.2106180
1536,Christa Lane,77587,29.6693539,-95.2105207
1540,Christa Lane,77587,29.6693625,-95.2103326
1541,Christa Lane,77587,29.6698387,-95.2103298
1537,Christa Lane,77587,29.6698465,-95.2105251
1535,Christa Lane,77587,29.6698488,-95.2106136
1533,Christa Lane,77587,29.6698460,-95.2107173
1531,Christa Lane,77587,29.6698437,-95.2107997
1529,Christa Lane,77587,29.6698449,-95.2109140
1527,Christa Lane,77587,29.6698390,-95.2109895
1525,Christa Lane,77587,29.6698388,-95.2110847
1521,Christa Lane,77587,29.6698523,-95.2112737
1519,Christa Lane,77587,29.6698338,-95.2113866
1517,Christa Lane,77587,29.6698323,-95.2114787
1513,Christa Lane,77587,29.6698318,-95.2116510
1505,Christa Lane,77587,29.6698266,-95.2120323
1503,Christa Lane,77587,29.6698266,-95.2121245
306,Waco Street,77587,29.6669523,-95.2491625
715,Montana Street,77587,29.6694208,-95.2470134
704,Louisiana Street,77587,29.6679254,-95.2444859
1003,Nebraska Street,77587,29.6644723,-95.2468645
906,Louisiana Street,77587,29.6661938,-95.2468574
1304,Michigan Street,77587,29.6607370,-95.2489970
606,Nebraska Street,77587,29.6670190,-95.2419541
1301,Georgia Street,77587,29.6597727,-95.2480292
1308,Kentucky Street,77587,29.6597854,-95.2486430
1005,Georgia Street,77587,29.6620286,-95.2447826
625,Georgia Street,77587,29.6649232,-95.2406322
729,Georgia Street,77587,29.6640143,-95.2419465
614,Kentucky Street,77587,29.6655954,-95.2407452
1110,Michigan Street,77587,29.6621668,-95.2471306
624,Michigan Street,77587,29.6659770,-95.2420006
514,Michigan Street,77587,29.6668349,-95.2405863
706,Nebraska Street,77587,29.6663530,-95.2430396
1003,Michigan Street,77587,29.6636559,-95.2461243
814,Indiana Street,77587,29.6613144,-95.2410952
815,College Avenue,77587,29.6602869,-95.2402232
625,Indiana Street,77587,29.6633677,-95.2392453
628,Indiana Street,77587,29.6629566,-95.2389791
622,Indiana Street,77587,29.6630753,-95.2388877
622,Indiana Street,77587,29.6630957,-95.2388058
718,Georgia Street,77587,29.6637503,-95.2415147
1305,Pennsylvania Street,77587,29.6573211,-95.2459970
1009,Virginia Street,77587,29.6610339,-95.2442686
905,Virginia Street,77587,29.6621245,-95.2430871
1312,Pennsylvania Street,77587,29.6567044,-95.2460656
1010,Pennsylvania Street,77587,29.6590938,-95.2424867
1405,Virginia Street,77587,29.6580931,-95.2486129
1412,Austin Street,77587,29.6564956,-95.2431999
1210,College Avenue,77587,29.6566754,-95.2438614
1214,College Avenue,77587,29.6564042,-95.2442094
1301,Illinois Street,77587,29.6557935,-95.2442028
1401,Illinois Street,77587,29.6550784,-95.2454158
1406,Illinois Street,77587,29.6544597,-95.2452105
1404,Illinois Street,77587,29.6545422,-95.2450992
1712,Houston Boulevard,77587,29.6596974,-95.2332174
1108,Iowa Street,77587,29.6544277,-95.2397978
1006,Iowa Street,77587,29.6553227,-95.2385982
713,Mississippi Street,77587,29.6570472,-95.2351906
507,Arkansas Street,77587,29.6568737,-95.2305313
808,Wisconsin Street,77587,29.6545830,-95.2342345
103,Spencer Highway,77587,29.6648125,-95.2311320
1203,Dumont Street,77587,29.6652278,-95.2358254
314,Indiana Street,77587,29.6657702,-95.2350959
204,Georgia Street,77587,29.6685390,-95.2347955
1006,Palestine Street,77587,29.6667343,-95.2369137
808,El Paso Street,77587,29.6689627,-95.2368686
303,Kentucky Street,77587,29.6689630,-95.2370591
308,Michigan Street,77587,29.6689516,-95.2374765
703,Dumont Street,77587,29.6688550,-95.2393243
701,Dumont Street,77587,29.6690235,-95.2395763
411,Avenue B,77587,29.6656734,-95.2266263
404,Avenue A,77587,29.6661128,-95.2273635
327,4th Street,77587,29.6658185,-95.2279967
405,Vickers Street,77587,29.6688447,-95.2242478
512,Avenue A,77587,29.6660451,-95.2253092
328,Avenue A,77587,29.6661577,-95.2279775
708,Avenue A,77587,29.6662854,-95.2227318
715,Longley Street,77587,29.6673514,-95.2220028
1010,Bonnie Street,77587,29.6684784,-95.2187895
1322,Avenue A,77587,29.6660429,-95.2137697
101,South Allen-Genoa Road,77587,29.6662323,-95.2157150
914,Avenue B,77587,29.6653596,-95.2193454
1013,Avenue B,77587,29.6658513,-95.2179102
1532,Ammons Street,77587,29.6677107,-95.2106068
1506,Longley Street,77587,29.6668538,-95.2118802
816,Avenue A,77587,29.6663105,-95.2207432
1413,Spencer Highway,77587,29.6654273,-95.2129053
1006,Avenue B,77587,29.6653745,-95.2185160
410,North Perez Road,77587,29.6691448,-95.2127144
1505,Ammons Street,77587,29.6681743,-95.2116857
1509,Bonnie Street,77587,29.6689783,-95.2113370
1512,Christa Lane,77587,29.6693407,-95.2116499
1543,Christa Lane,77587,29.6698219,-95.2101940
1539,Christa Lane,77587,29.6698487,-95.2104226
1515,Christa Lane,77587,29.6698315,-95.2115611
1507,Christa Lane,77587,29.6698274,-95.2119401
1511,Christa Lane,77587,29.6698308,-95.2117608
1501,Christa Lane,77587,29.6698250,-95.2122196
1544,Christa Lane,77587,29.6693593,-95.2101253
1542,Christa Lane,77587,29.6693616,-95.2102147
1538,Christa Lane,77587,29.6693586,-95.2104298
1532,Christa Lane,77587,29.6693551,-95.2107064
1526,Christa Lane,77587,29.6693487,-95.2109793
1506,Christa Lane,77587,29.6693360,-95.2119264
411,Clara Road,77587,29.6696110,-95.2130827
301,Halkies Street,77587,29.6678874,-95.2162667
1303,Avenue A,77587,29.6670740,-95.2155863
1301,Avenue A,77587,29.6670633,-95.2163628
101,North Perez Road,77587,29.6667821,-95.2120842
1509,Longley Street,77587,29.6673396,-95.2117257
1523,Longley Street,77587,29.6673446,-95.2110618
1527,Longley Street,77587,29.6673496,-95.2108918
1535,Longley Street,77587,29.6673541,-95.2104971
1541,Longley Street,77587,29.6673575,-95.2102196
1520,Ammons Street,77587,29.6677081,-95.2111807
1510,Ammons Street,77587,29.6677023,-95.2116511
207,Avenue D,77587,29.6637395,-95.2301618
514,Avenue G,77587,29.6599105,-95.2250290
427,Pecan Drive,77587,29.6586809,-95.2294656
1304,Avenue N,77587,29.6533260,-95.2140943
