House number,Street name,Postal code,Latitude,Longitude
610,East 3rd Street,79556,32.4742455,-100.4031192
9418,North I-20,79556,32.4508914,-100.4412946
100,South Hopkins Road,79556,32.4486706,-100.4436128
501,East Broadway Street,79556,32.4732738,-100.4037067
504,East Broadway Street,79556,32.4718204,-100.4032781
602,East Broadway Street,79556,32.4727686,-100.4023924
2015,Lamar Street,79556,32.4486037,-100.3973163
511,East 1st Street,79556,32.4718226,-100.4027909
604,East Broadway Street,79556,32.4726621,-100.4026009
1000,East Broadway Street,79556,32.4743220,-100.3978516
1105,Lamar Street,79556,32.4586028,-100.4005835
1103,Lamar Street,79556,32.4586856,-100.4006094
1101,Lamar Street,79556,32.4587800,-100.4006394
1006,Lamar Street,79556,32.4594884,-100.4014903
1008,Lamar Street,79556,32.4591795,-100.4014124
1006,Lamar Street,79556,32.4592873,-100.4014420
1010,Lamar Street,79556,32.4590653,-100.4013798
300,SE Georgia Ave,79556,32.4505642,-100.3925450
2000,West Alabama Avenue,79556,32.4588794,-100.4229464
6412,North I-20,79556,32.4863483,-100.3543677
100,Hopkins Road,79556,32.4485950,-100.4434002
1009,East Broadway Street,79556,32.4751632,-100.3984928
200,East Arizona Avenue,79556,32.4530774,-100.3974156
807,West Broadway Street,79556,32.4658432,-100.4164231
300,East Broadway Street,79556,32.4708768,-100.4052856
201,Elm Street,79556,32.4713659,-100.4068705
501,East Broadway Street,79556,32.4730341,-100.4040365
701,East Broadway Street,79556,32.4737379,-100.4018729
601,East Broadway Street,79556,32.4731436,-100.4030011
900,East Broadway Street,79556,32.4738130,-100.3991890
305,Lamar Street,79556,32.4671067,-100.4027907
407,Northeast Georgia Avenue,79556,32.4537644,-100.3933360
1205,Ragland Street,79556,32.4827632,-100.4059339
1801,Lamar Street,79556,32.4514226,-100.3982278
201,Northeast Georgia Avenue,79556,32.4511545,-100.3973081
1201,Mustang Drive,79556,32.4599315,-100.3902594
1700,East 12th Street,79556,32.4810378,-100.3912354
208,Southeast Georgia Avenue,79556,32.4490477,-100.3957338
409,Northeast Georgia Avenue,79556,32.4541588,-100.3919054
411,Northeast Georgia Avenue,79556,32.4545830,-100.3909118
300,Southeast Georgia Avenue,79556,32.4509378,-100.3924103
302,Southeast Georgia Avenue,79556,32.4513119,-100.3915000
601,West Alabama Avenue,79556,32.4585627,-100.4080863
100,Jack Hazzard Drive,79556,32.4848109,-100.4109930
1201,Jennie Street,79556,32.4596206,-100.4144627
301,Northeast Georgia Avenue,79556,32.4514643,-100.3959298
405,Northeast Georgia Avenue,79556,32.4519875,-100.3937073
403,Northeast Georgia Avenue,79556,32.4516584,-100.3944604
309,Northeast Georgia Avenue,79556,32.4513918,-100.3952705
1806,Dent Drive,79556,32.4511451,-100.3968198
102,Northwest Georgia Avenue,79556,32.4506162,-100.3994909
100,Northwest Georgia Avenue,79556,32.4508691,-100.3990956
1811,Lamar Street,79556,32.4508884,-100.3982950
206,Southeast Georgia Avenue,79556,32.4496778,-100.3967814
204,Southeast Georgia Avenue,79556,32.4495564,-100.3973822
2001,Lamar Street,79556,32.4494302,-100.3977429
1712,Lamar Street,79556,32.4516702,-100.3992807
1608,Lamar Street,79556,32.4530329,-100.3996480
1200,Southeast Georgia Avenue,79556,32.4546217,-100.3882296
405,County Road 220,79556,32.4550646,-100.3873236
501,Northeast Georgia Avenue,79556,32.4560587,-100.3899220
9415,South Interstate 20,79556,32.4483744,-100.4415453
217,Avenger Field Road,79556,32.4575041,-100.4658748
700,Bluebonnet Drive,79556,32.4980407,-100.3796604
513,Lamar Street,79556,32.4650442,-100.4024051
700,Lamar Street,79556,32.4629513,-100.4023441
105,East Arizona Avenue,79556,32.4540108,-100.3991632
105,Normandy Avenue,79556,32.4529280,-100.4001346
1710,Lamar Street,79556,32.4520711,-100.3992826
1600,Lamar Street,79556,32.4535202,-100.3997235
1,Lakewood Drive,79556,32.4929437,-100.3911469
2,Lakewood Drive,79556,32.4934205,-100.3912158
18,Lakewood Drive,79556,32.4940157,-100.3888286
3,Lakewood Drive,79556,32.4939563,-100.3915187
5,Greenwood Drive,79556,32.4936996,-100.3902040
7,Greenwood Drive,79556,32.4939805,-100.3903248
3,Greenwood Drive,79556,32.4933988,-100.3901634
1,Greenwood Drive,79556,32.4931057,-100.3900212
4,Lakewood Drive,79556,32.4942664,-100.3909615
5,Lakewood Drive,79556,32.4945827,-100.3904708
20,Lakewood Drive,79556,32.4937498,-100.3890880
15,Lakewood Drive,79556,32.4943112,-100.3891643
21,Lakewood Drive,79556,32.4934461,-100.3896603
2,Greenwood Drive,79556,32.4930182,-100.3905896
6,Greenwood Drive,79556,32.4936920,-100.3908109
4,Greenwood Drive,79556,32.4933660,-100.3906937
8,Lakewood Drive,79556,32.4943406,-100.3898959
13,Lakewood Drive,79556,32.4948530,-100.3891493
11,Lakewood Drive,79556,32.4951117,-100.3892914
10,Lakewood Drive,79556,32.4955491,-100.3894686
12,Lakewood Drive,79556,32.4956913,-100.3891114
9,Lakewood Drive,79556,32.4945281,-100.3895095
17,Lakewood Drive,79556,32.4941114,-100.3895393
19,Lakewood Drive,79556,32.4936845,-100.3897499
405,County Road 119,79556,32.4936303,-100.3821932
401,County Road 119,79556,32.4926766,-100.3827147
510,County Road 119,79556,32.4963948,-100.3783210
3679,State Highway 70,79556,32.4330193,-100.3925878
100,East 3rd Street,79556,32.4707852,-100.4081916
213,East 3rd Street,79556,32.4722359,-100.4073373
309,Cedar Street,79556,32.4728316,-100.4064528
208,East 3rd Street,79556,32.4719754,-100.4064535
209,Cedar Street,79556,32.4721350,-100.4059425
301,East Broadway Street,79556,32.4715200,-100.4061440
201,East 4th Street,79556,32.4728325,-100.4084276
211,East 4th Street,79556,32.4730836,-100.4079924
201,East 3rd Street,79556,32.4718898,-100.4077744
220,Coliseum Drive,79556,32.4856277,-100.4130329
1405,Hoyt Street,79556,32.4854325,-100.3912890
2107,East Broadway Street,79556,32.4823094,-100.3851039
2311,East Broadway Street,79556,32.4829071,-100.3817193
2401,East Broadway Street,79556,32.4829855,-100.3810375
2601,East Broadway Street,79556,32.4835780,-100.3778100
1100,Mohawk Street,79556,32.4841740,-100.3783185
2501,East Broadway Street,79556,32.4832205,-100.3796780
1210,East Broadway Street,79556,32.4757120,-100.3949880
1107,East Broadway Street,79556,32.4759685,-100.3969195
1101,East Broadway Street,79556,32.4757640,-100.3977205
710,East 3rd Street,79556,32.4741623,-100.4016782
400,East Broadway Street,79556,32.4715035,-100.4046074
212,East Broadway Street,79556,32.4706295,-100.4063655
208,West Broadway Street,79556,32.4697940,-100.4101139
400,East Avenue A,79556,32.4709080,-100.4019403
1613,East 12th Street,79556,32.4820309,-100.3915883
1615,East 12th Street,79556,32.4821080,-100.3913254
1621,East 12th Street,79556,32.4822276,-100.3906468
211,Clark Street,79556,32.4644109,-100.4004910
503,East Alabama Avenue,79556,32.4623754,-100.3958712
300,Northwest Georgia Avenue,79556,32.4508697,-100.4012285
500,Northwest Georgia Avenue,79556,32.4507275,-100.4022383
510,Northwest Georgia Avenue,79556,32.4502856,-100.4031051
600,Northwest Georgia Avenue,79556,32.4497615,-100.4046615
603,Southwest Georgia Avenue,79556,32.4478187,-100.4045200
201,West Florida Avenue,79556,32.4479647,-100.3996647
2014,Lamar Street,79556,32.4482475,-100.3982556
2005,Lamar Street,79556,32.4491763,-100.3974499
214,Southeast Georgia Avenue,79556,32.4503835,-100.3938639
216,Southeast Georgia Avenue,79556,32.4498336,-100.3937807
308,Southeast Georgia Avenue,79556,32.4523928,-100.3898767
815,East Arizona Avenue,79556,32.4572720,-100.3905926
9418,North Interstate 20,79556,32.4509844,-100.4411785
9416,North Interstate 20,79556,32.4506108,-100.4399728
50,Hopkins Road,79556,32.4516698,-100.4435307
9526,North Interstate 20,79556,32.4514270,-100.4459508
9521,South Interstate 20,79556,32.4492424,-100.4462160
9413,South Interstate 20,79556,32.4483666,-100.4407442
100,Hopkins Road,79556,32.4472888,-100.4431164
800,East Broadway Street,79556,32.4735947,-100.4003242
705,East 3rd Street,79556,32.4749750,-100.4019549
210,Hailey Street,79556,32.4754419,-100.3989893
300,Hailey Street,79556,32.4760972,-100.3988968
1400,Hailey Street,79556,32.4828041,-100.4007931
1404,Hailey Street,79556,32.4830022,-100.4007213
1401,Skinney Drive,79556,32.4828902,-100.4002205
1402,Skinney Drive,79556,32.4833762,-100.3994786
1405,Woodruff Lane,79556,32.4834675,-100.3989784
1406,Skinney Drive,79556,32.4836938,-100.3990920
1411,Skinney Drive,79556,32.4836629,-100.3998170
1413,Skinney Drive,79556,32.4838231,-100.3995665
1415,Skinney Drive,79556,32.4839719,-100.3994421
1417,Skinney Drive,79556,32.4841156,-100.3992243
1503,Woodruff Lane,79556,32.4843030,-100.3991956
1,Temple Court,79556,32.4846263,-100.4029063
2,Temple Court,79556,32.4847698,-100.4027310
3,Temple Court,79556,32.4849630,-100.4024485
4,Temple Court,79556,32.4847636,-100.4022101
5,Temple Court,79556,32.4845323,-100.4022529
1510,Santa Fe Avenue,79556,32.4843221,-100.4024060
801,East 14th Street,79556,32.4824688,-100.4031542
1418,Hailey Street,79556,32.4843513,-100.3996727
1410,Hailey Street,79556,32.4837867,-100.4004445
1406,Hailey Street,79556,32.4834106,-100.4006282
1729,Hailey Street,79556,32.4883657,-100.3947997
1715,Hailey Street,79556,32.4877364,-100.3959287
1701,Hailey Street,79556,32.4873080,-100.3966055
1611,Hailey Street,79556,32.4868954,-100.3971490
1610,Hailey Street,79556,32.4858269,-100.3967955
1704,Morris Avenue,79556,32.4892257,-100.3938943
1702,Morris Avenue,79556,32.4890004,-100.3938505
9,Club Trail,79556,32.4899411,-100.3928685
8,Club Trail,79556,32.4898561,-100.3929702
7,Club Trail,79556,32.4897487,-100.3930462
6,Club Trail,79556,32.4896453,-100.3931687
5,Club Trail,79556,32.4895603,-100.3932468
4,Club Trail,79556,32.4894526,-100.3933514
3,Club Trail,79556,32.4893723,-100.3934227
1,Club Trail,79556,32.4892555,-100.3935262
1601,Grand Avenue,79556,32.4875232,-100.3891761
1701,Hoyt Street,79556,32.4880683,-100.3914937
1907,Hoyt Street,79556,32.4894667,-100.3918169
1911,Hoyt Street,79556,32.4898155,-100.3918843
1502,East 17th Street,79556,32.4920567,-100.3924888
1900,Country Club Drive,79556,32.4942350,-100.3978480
1,Heritage Court,79556,32.4874208,-100.3947475
2,Heritage Court,79556,32.4871899,-100.3947027
3,Heritage Court,79556,32.4871047,-100.3944216
4,Heritage Court,79556,32.4872612,-100.3941891
5,Heritage Court,79556,32.4875537,-100.3941997
6,Heritage Court,79556,32.4877486,-100.3942646
1601,Morris Avenue,79556,32.4871709,-100.3950951
1603,Morris Avenue,79556,32.4869745,-100.3950856
1605,Morris Avenue,79556,32.4867792,-100.3950209
1611,Morris Avenue,79556,32.4865979,-100.3949164
1613,Morris Avenue,79556,32.4866549,-100.3946659
1615,Morris Avenue,79556,32.4867015,-100.3944715
1617,Morris Avenue,79556,32.4867353,-100.3942047
1619,Morris Avenue,79556,32.4868241,-100.3939486
1625,Morris Avenue,79556,32.4870220,-100.3938157
1627,Morris Avenue,79556,32.4872466,-100.3937995
1629,Morris Avenue,79556,32.4875180,-100.3937338
1631,Morris Avenue,79556,32.4877681,-100.3938192
1633,Morris Avenue,79556,32.4880058,-100.3938841
1606,Morris Avenue,79556,32.4862628,-100.3954820
1604,Morris Avenue,79556,32.4864894,-100.3955100
1602,Morris Avenue,79556,32.4867180,-100.3955406
1600,Morris Avenue,79556,32.4869076,-100.3956328
1610,Morris Avenue,79556,32.4861187,-100.3950078
1612,Morris Avenue,79556,32.4861689,-100.3947596
1614,Morris Avenue,79556,32.4862264,-100.3945061
1616,Morris Avenue,79556,32.4862561,-100.3942533
1618,Morris Avenue,79556,32.4863120,-100.3940027
1620,Morris Avenue,79556,32.4863457,-100.3937048
1622,Morris Avenue,79556,32.4865557,-100.3934895
1624,Morris Avenue,79556,32.4868158,-100.3933798
1626,Morris Avenue,79556,32.4870648,-100.3932583
1628,Morris Avenue,79556,32.4873683,-100.3931768
1630,Morris Avenue,79556,32.4877324,-100.3931893
1632,Morris Avenue,79556,32.4879694,-100.3932894
1634,Morris Avenue,79556,32.4882511,-100.3934090
1700,Hailey Street,79556,32.4866254,-100.3960398
1712,Lou Street,79556,32.4863670,-100.3959065
1710,Lou Street,79556,32.4861399,-100.3958641
1706,Lou Street,79556,32.4859340,-100.3957923
1404,East 17th Street,79556,32.4917009,-100.3941846
1202,Corral Street,79556,32.4601784,-100.3898712
1000,East New Mexico Avenue,79556,32.4589638,-100.3890506
1002,East New Mexico Avenue,79556,32.4590266,-100.3888702
914,East New Mexico Avenue,79556,32.4588905,-100.3894568
912,East New Mexico Avenue,79556,32.4588250,-100.3896749
910,East New Mexico Avenue,79556,32.4588066,-100.3898626
908,East New Mexico Avenue,79556,32.4587553,-100.3900612
906,East New Mexico Avenue,79556,32.4587463,-100.3902910
904,East New Mexico Avenue,79556,32.4586670,-100.3905021
902,East New Mexico Avenue,79556,32.4586145,-100.3906867
900,East New Mexico Avenue,79556,32.4585865,-100.3908727
7526,North Interstate 20,79556,32.4612196,-100.3861809
705,Northeast Georgia Avenue,79556,32.4623618,-100.3854123
1001,Mustang Drive,79556,32.4617366,-100.3899534
901,East Arkansas Avenue,79556,32.4612022,-100.3901758
903,East Arkansas Avenue,79556,32.4612319,-100.3900060
905,East Arkansas Avenue,79556,32.4612650,-100.3898350
1001,East Arkansas Avenue,79556,32.4613028,-100.3896616
1003,East Arkansas Avenue,79556,32.4613342,-100.3894844
515,Newman Street,79556,32.4675987,-100.3934975
1217,Coral Drive,79556,32.4667969,-100.3918776
1200,Town Creek Drive,79556,32.4675466,-100.3906147
1202,Town Creek Drive,79556,32.4673685,-100.3905706
1204,Town Creek Drive,79556,32.4671842,-100.3905422
1206,Town Creek Drive,79556,32.4670102,-100.3904711
1208,Town Creek Drive,79556,32.4668241,-100.3904218
1203,Town Creek Drive,79556,32.4674352,-100.3901385
1207,Town Creek Drive,79556,32.4669721,-100.3899599
1213,Town Creek Drive,79556,32.4664522,-100.3898694
1217,Town Creek Drive,79556,32.4660460,-100.3897355
1301,Town Creek Drive,79556,32.4658214,-100.3896642
1303,Town Creek Drive,79556,32.4656307,-100.3896018
1309,Town Creek Drive,79556,32.4651323,-100.3894705
603,Newman Street,79556,32.4666268,-100.3936924
934,Brookside Street,79556,32.4648483,-100.3898982
935,Brookside Street,79556,32.4652310,-100.3899813
928,Hillside Street,79556,32.4656983,-100.3905612
922,Hillside Street,79556,32.4658021,-100.3912450
919,Brookside Street,79556,32.4654097,-100.3913105
908,Brookside Street,79556,32.4651795,-100.3927356
910,Brookside Street,79556,32.4651604,-100.3925181
912,Brookside Street,79556,32.4651383,-100.3922986
901,Brookside Street,79556,32.4656598,-100.3934095
903,Brookside Street,79556,32.4656346,-100.3931941
905,Brookside Street,79556,32.4656183,-100.3929701
907,Brookside Street,79556,32.4655701,-100.3927422
909,Brookside Street,79556,32.4655429,-100.3924851
911,Brookside Street,79556,32.4655296,-100.3922798
913,Brookside Street,79556,32.4655093,-100.3920623
915,Brookside Street,79556,32.4654898,-100.3918290
900,Hillside Street,79556,32.4661310,-100.3936936
902,Hillside Street,79556,32.4661055,-100.3934912
904,Hillside Street,79556,32.4660704,-100.3932714
906,Hillside Street,79556,32.4660595,-100.3930582
908,Hillside Street,79556,32.4660370,-100.3928438
910,Hillside Street,79556,32.4659782,-100.3926274
912,Hillside Street,79556,32.4659540,-100.3924159
914,Hillside Street,79556,32.4659346,-100.3921930
916,Hillside Street,79556,32.4658941,-100.3919741
207,Musgrove Street,79556,32.4700332,-100.4001776
401,East 3rd Street,79556,32.4730844,-100.4057185
1110,Elm Street,79556,32.4783117,-100.4094923
916,East 17th Street,79556,32.4893716,-100.4037125
1803,Rose Avenue,79556,32.4897802,-100.4026919
1801,Rose Avenue,79556,32.4897228,-100.4025231
1006,East 17th Street,79556,32.4903271,-100.4014336
1807,Woodruff Lane,79556,32.4901050,-100.4008321
1010,East 17th Street,79556,32.4904259,-100.4009115
1008,East 17th Street,79556,32.4903792,-100.4011627
1607,Santa Fe Avenue,79556,32.4845768,-100.4038466
1603,Santa Fe Avenue,79556,32.4840789,-100.4033906
1601,Santa Fe Avenue,79556,32.4840764,-100.4029614
1605,Santa Fe Avenue,79556,32.4843159,-100.4036668
1405,Hailey Street,79556,32.4832167,-100.4014010
1351,Hailey Street,79556,32.4820488,-100.4016752
1301,Hailey Street,79556,32.4816274,-100.4016324
1209,Hailey Street,79556,32.4805990,-100.4012629
800,East 15th Street,79556,32.4829524,-100.4039403
802,East 15th Street,79556,32.4829909,-100.4037170
804,East 15th Street,79556,32.4830330,-100.4035138
806,East 15th Street,79556,32.4830927,-100.4033127
808,East 15th Street,79556,32.4831181,-100.4031043
810,East 15th Street,79556,32.4831607,-100.4029073
812,East 15th Street,79556,32.4831960,-100.4026911
813,East 15th Street,79556,32.4835804,-100.4028388
811,East 15th Street,79556,32.4835176,-100.4031585
807,East 15th Street,79556,32.4834846,-100.4034162
805,East 15th Street,79556,32.4834387,-100.4036294
803,East 15th Street,79556,32.4833965,-100.4038216
1502,McCauley Street,79556,32.4833870,-100.4040397
1409,McCauley Street,79556,32.4828993,-100.4044178
1407,McCauley Street,79556,32.4827136,-100.4043678
1405,McCauley Street,79556,32.4824568,-100.4042754
1403,McCauley Street,79556,32.4822993,-100.4042316
1401,McCauley Street,79556,32.4821094,-100.4042027
1400,Ragland Street,79556,32.4819858,-100.4045641
1402,Ragland Street,79556,32.4822049,-100.4046575
1404,Ragland Street,79556,32.4823809,-100.4047149
1408,Ragland Street,79556,32.4826448,-100.4047435
1410,Ragland Street,79556,32.4828085,-100.4048198
1209,Lamar Street,79556,32.4572874,-100.4000762
1201,Lamar Street,79556,32.4576934,-100.4000844
900,Lamar Street,79556,32.4606133,-100.4017753
1100,Lamar Street,79556,32.4586929,-100.4011811
1104,Lamar Street,79556,32.4584214,-100.4011073
211,Avenger Field Road,79556,32.4571692,-100.4640725
1901,West Broadway Street,79556,32.4592489,-100.4336841
907,West Broadway Street,79556,32.4649599,-100.4186292
815,West Broadway Street,79556,32.4652488,-100.4176585
708,West Broadway Street,79556,32.4669127,-100.4158809
700,West 4th Street,79556,32.4693438,-100.4162347
307,Walnut Street,79556,32.4694402,-100.4140970
511,West Alabama Avenue,79556,32.4595358,-100.4065033
604,West Arkansas Avenue,79556,32.4578905,-100.4071766
602,West Arkansas Avenue,79556,32.4579240,-100.4070143
600,West Arkansas Avenue,79556,32.4579647,-100.4068574
511,West Louisiana Avenue,79556,32.4585931,-100.4065861
503,West Louisiana Avenue,79556,32.4587427,-100.4059506
603,West Arkansas Avenue,79556,32.4574751,-100.4070478
601,West Arkansas Avenue,79556,32.4575575,-100.4068065
1100,Murrah Street,79556,32.4573599,-100.4079472
1010,Pease Street,79556,32.4581406,-100.4056822
1006,Pease Street,79556,32.4583577,-100.4057871
710,Lamar Street,79556,32.4623141,-100.4022055
800,Lamar Street,79556,32.4615280,-100.4019338
409,County Road 119,79556,32.4937114,-100.3812358
12,Vista Court,79556,32.4945542,-100.3802219
14,Vista Court,79556,32.4946932,-100.3794026
7,Vista Court,79556,32.4940641,-100.3788739
1,Vista Court,79556,32.4943788,-100.3808175
2,Vista Court,79556,32.4940878,-100.3805895
3,Vista Court,79556,32.4938344,-100.3804301
4,Vista Court,79556,32.4937033,-100.3799974
5,Vista Court,79556,32.4937375,-100.3796286
6,Vista Court,79556,32.4937196,-100.3792371
10,Vista Court,79556,32.4942505,-100.3796241
11,Vista Court,79556,32.4942163,-100.3800265
9,Vista Court,79556,32.4943966,-100.3792347
9909,South Interstate 20,79556,32.4511793,-100.4571914
9998,North Interstate 20,79556,32.4545230,-100.4604365
2900,East Broadway Street,79556,32.4841942,-100.3726113
1803,East Broadway Street,79556,32.4797024,-100.3893557
1607,Josephine Street,79556,32.4796834,-100.3906952
1600,Josephine Street,79556,32.4789677,-100.3906310
5,Alston Circle,79556,32.4802980,-100.3892315
4,Alston Circle,79556,32.4803743,-100.3894523
3,Alston Circle,79556,32.4805414,-100.3895579
2,Alston Circle,79556,32.4807434,-100.3895511
1,Alston Circle,79556,32.4808842,-100.3894132
1900,Preston Road,79556,32.4808371,-100.3887807
1905,Jeffers Street,79556,32.4804463,-100.3885242
1906,Preston Road,79556,32.4810375,-100.3885182
1910,Preston Road,79556,32.4811050,-100.3882357
1916,Preston Road,79556,32.4811409,-100.3879292
1918,Preston Road,79556,32.4810670,-100.3876676
2101,East Broadway Street,79556,32.4822130,-100.3856143
2110,East Broadway Street,79556,32.4817119,-100.3847985
1116,East Broadway Street,79556,32.4760899,-100.3966418
1203,East Broadway Street,79556,32.4762470,-100.3963301
1301,East Broadway Street,79556,32.4766356,-100.3948538
1600,Silas Street,79556,32.4800497,-100.3912422
1602,Silas Street,79556,32.4801130,-100.3910366
1604,Silas Street,79556,32.4801409,-100.3908249
1606,Silas Street,79556,32.4801766,-100.3906124
1608,Silas Street,79556,32.4802250,-100.3903933
1610,Silas Street,79556,32.4802467,-100.3901654
1612,Silas Street,79556,32.4801676,-100.3898925
1702,East Broadway Street,79556,32.4785923,-100.3895855
1609,East Broadway Street,79556,32.4780405,-100.3913812
2800,East Broadway Street,79556,32.4826546,-100.3742461
2904,East Broadway Street,79556,32.4834735,-100.3725874
2803,East Broadway Street,79556,32.4839714,-100.3744920
2608,East Broadway Street,79556,32.4826423,-100.3768520
2200,East Broadway Street,79556,32.4819386,-100.3832501
2300,East Broadway Street,79556,32.4820069,-100.3826022
2303,East Broadway Street,79556,32.4827432,-100.3822642
7,Fairway Drive,79556,32.4902963,-100.3937340
8,Fairway Drive,79556,32.4904546,-100.3933345
10,Fairway Drive,79556,32.4908207,-100.3930377
11,Fairway Drive,79556,32.4911679,-100.3928499
1,Fairway Drive,79556,32.4918673,-100.3934685
2,Fairway Drive,79556,32.4916194,-100.3933770
3,Fairway Drive,79556,32.4913042,-100.3933284
4,Fairway Drive,79556,32.4909419,-100.3934967
14,Fairway Drive,79556,32.4920016,-100.3929611
13,Fairway Drive,79556,32.4917346,-100.3928832
12,Fairway Drive,79556,32.4914537,-100.3928229
1908,Morris Avenue,79556,32.4916786,-100.3945395
1906,Morris Avenue,79556,32.4914243,-100.3944984
1904,Morris Avenue,79556,32.4911272,-100.3944384
1902,Morris Avenue,79556,32.4908746,-100.3943679
1900,Morris Avenue,79556,32.4906102,-100.3942901
1806,Morris Avenue,79556,32.4903801,-100.3942595
1804,Morris Avenue,79556,32.4901533,-100.3942007
1802,Morris Avenue,79556,32.4899184,-100.3940997
1800,Morris Avenue,79556,32.4897262,-100.3940783
1900,East 12th Street,79556,32.4818800,-100.3892901
1914,East 12th Street,79556,32.4821430,-100.3880080
1915,East 12th Street,79556,32.4825570,-100.3880547
1913,East 12th Street,79556,32.4825827,-100.3882671
1911,East 12th Street,79556,32.4824766,-100.3884388
1909,East 12th Street,79556,32.4824886,-100.3887108
1901,East 12th Street,79556,32.4823817,-100.3893651
1705,East 12th Street,79556,32.4822927,-100.3898140
1703,East 12th Street,79556,32.4823051,-100.3900201
1701,East 12th Street,79556,32.4822876,-100.3902086
1619,East 12th Street,79556,32.4821654,-100.3908529
1617,East 12th Street,79556,32.4821286,-100.3910775
1611,East 12th Street,79556,32.4819620,-100.3918153
1609,East 12th Street,79556,32.4819311,-100.3920540
1607,East 12th Street,79556,32.4819179,-100.3923309
1605,East 12th Street,79556,32.4818794,-100.3925794
1603,East 12th Street,79556,32.4818152,-100.3928125
1700,Hoyt Street,79556,32.4881565,-100.3904500
1507,East 12th Street,79556,32.4816522,-100.3934581
1505,East 12th Street,79556,32.4816159,-100.3936915
1503,East 12th Street,79556,32.4815727,-100.3939211
1501,East 12th Street,79556,32.4815359,-100.3940931
1415,East 12th Street,79556,32.4814809,-100.3942744
1413,East 12th Street,79556,32.4814624,-100.3944793
1409,East 12th Street,79556,32.4814303,-100.3946773
1407,East 12th Street,79556,32.4813704,-100.3948543
1405,East 12th Street,79556,32.4813370,-100.3950383
1403,East 12th Street,79556,32.4812962,-100.3952070
1401,East 12th Street,79556,32.4812822,-100.3955460
2301,East Broadway Street,79556,32.4826608,-100.3824932
1704,Bristol Drive,79556,32.4827894,-100.3899353
1702,Bristol Drive,79556,32.4827053,-100.3901368
1701,Bristol Drive,79556,32.4831020,-100.3905078
1703,Bristol Drive,79556,32.4831403,-100.3902683
1705,Bristol Drive,79556,32.4831806,-100.3900177
1706,East 13th Street,79556,32.4836385,-100.3902016
1704,East 13th Street,79556,32.4835643,-100.3904005
1700,East 13th Street,79556,32.4833936,-100.3908514
1711,East 13th Street,79556,32.4841162,-100.3903384
1709,East 13th Street,79556,32.4840466,-100.3905156
1707,East 13th Street,79556,32.4839226,-100.3906793
1705,East 13th Street,79556,32.4838750,-100.3908674
1703,East 13th Street,79556,32.4838125,-100.3910823
1701,East 13th Street,79556,32.4838059,-100.3912842
1712,East 14th Street,79556,32.4846218,-100.3904415
1710,East 14th Street,79556,32.4845688,-100.3906821
1708,East 14th Street,79556,32.4844457,-100.3908524
1706,East 14th Street,79556,32.4843001,-100.3910346
1704,East 14th Street,79556,32.4841821,-100.3912235
1702,East 14th Street,79556,32.4841651,-100.3914727
1700,East 14th Street,79556,32.4840829,-100.3917107
1713,East 14th Street,79556,32.4850632,-100.3905990
1711,East 14th Street,79556,32.4849400,-100.3908503
1709,East 14th Street,79556,32.4848664,-100.3910626
1707,East 14th Street,79556,32.4847710,-100.3912907
1705,East 14th Street,79556,32.4846524,-100.3914932
1703,East 14th Street,79556,32.4846001,-100.3916966
1701,East 14th Street,79556,32.4845905,-100.3919149
1615,East 14th Street,79556,32.4845365,-100.3921012
1613,East 14th Street,79556,32.4844613,-100.3923234
1611,East 14th Street,79556,32.4844405,-100.3925723
1609,East 14th Street,79556,32.4843774,-100.3928143
1607,East 14th Street,79556,32.4843570,-100.3930514
1605,East 14th Street,79556,32.4842980,-100.3932858
1603,East 14th Street,79556,32.4842340,-100.3935296
1601,East 14th Street,79556,32.4841992,-100.3937800
1614,East 14th Street,79556,32.4839772,-100.3922067
1612,East 14th Street,79556,32.4839513,-100.3924967
1610,East 14th Street,79556,32.4838936,-100.3927490
1608,East 14th Street,79556,32.4838655,-100.3929998
1606,East 14th Street,79556,32.4838370,-100.3932644
1604,East 14th Street,79556,32.4837271,-100.3935109
1602,East 14th Street,79556,32.4837179,-100.3937590
1600,East 14th Street,79556,32.4836718,-100.3939892
1625,East 13th Street,79556,32.4836912,-100.3918266
1623,East 13th Street,79556,32.4836244,-100.3920155
1621,East 13th Street,79556,32.4836076,-100.3922118
1619,East 13th Street,79556,32.4835560,-100.3923967
1617,East 13th Street,79556,32.4835270,-100.3925831
1615,East 13th Street,79556,32.4834947,-100.3927773
1611,East 13th Street,79556,32.4834376,-100.3929947
1609,East 13th Street,79556,32.4834167,-100.3932340
1607,East 13th Street,79556,32.4833376,-100.3934765
1605,East 13th Street,79556,32.4832919,-100.3937025
1603,East 13th Street,79556,32.4832521,-100.3939232
1601,East 13th Street,79556,32.4832302,-100.3941388
1413,Avondale Boulevard,79556,32.4850653,-100.3939776
1520,Grand Avenue,79556,32.4863912,-100.3909485
1514,Grand Avenue,79556,32.4861607,-100.3915219
1512,Grand Avenue,79556,32.4860260,-100.3918161
1510,Grand Avenue,79556,32.4858914,-100.3921499
1506,Grand Avenue,79556,32.4857763,-100.3924813
1504,Grand Avenue,79556,32.4857391,-100.3927065
1502,Grand Avenue,79556,32.4856805,-100.3929402
1500,Grand Avenue,79556,32.4856261,-100.3931644
2003,Douglas Street,79556,32.4856790,-100.3883162
1900,Chester Street,79556,32.4838266,-100.3897803
1901,Bristol Drive,79556,32.4832884,-100.3896615
1618,East 13th Street,79556,32.4832854,-100.3913960
700,East 13th Street,79556,32.4806823,-100.4042736
1210,Ragland Street,79556,32.4803979,-100.4042303
1208,Ragland Street,79556,32.4802536,-100.4041453
1206,Ragland Street,79556,32.4801189,-100.4041466
1204,Ragland Street,79556,32.4799735,-100.4041123
701,East 12th Street,79556,32.4795919,-100.4040206
703,East 12th Street,79556,32.4796101,-100.4038398
1011,East Broadway Street,79556,32.4753506,-100.3980243
907,East Broadway Avenue,79556,32.4747838,-100.3991951
705,East 12th Street,79556,32.4796519,-100.4036785
707,East 12th Street,79556,32.4797111,-100.4035173
801,East 12th Street,79556,32.4797710,-100.4030817
803,East 12th Street,79556,32.4798216,-100.4029096
807,East 12th Street,79556,32.4798828,-100.4025066
809,East 12th Street,79556,32.4799454,-100.4023069
901,East 12th Street,79556,32.4800098,-100.4018203
903,East 12th Street,79556,32.4800679,-100.4016748
905,East 12th Street,79556,32.4800770,-100.4015068
911,East 12th Street,79556,32.4801627,-100.4010381
907,East 12th Street,79556,32.4800978,-100.4013365
907 1/2,East 12th Street,79556,32.4801784,-100.4012480
1206,Hailey Street,79556,32.4806587,-100.4006614
1208,Hailey Street,79556,32.4808113,-100.4006845
1210,Hailey Street,79556,32.4809587,-100.4006853
1007,East 12th Street,79556,32.4804176,-100.4000023
1011,East 12th Street,79556,32.4804482,-100.3998240
1309,East 12th Street,79556,32.4812085,-100.3960331
1307,East 12th Street,79556,32.4811168,-100.3961908
1305,East 12th Street,79556,32.4810771,-100.3963869
1303,East 12th Street,79556,32.4810519,-100.3966263
1301,East 12th Street,79556,32.4809964,-100.3968066
1299,East 12th Street,79556,32.4809440,-100.3970166
1207,East 12th Street,79556,32.4809127,-100.3972368
1205,East 12th Street,79556,32.4808852,-100.3974352
1203,East 12th Street,79556,32.4808412,-100.3976330
1201,East 12th Street,79556,32.4808082,-100.3978682
1103,East 12th Street,79556,32.4807171,-100.3992042
1101,East 12th Street,79556,32.4805391,-100.3993532
1107,East 12th Street,79556,32.4806119,-100.3988082
1109,East 12th Street,79556,32.4806565,-100.3985952
1111,East 12th Street,79556,32.4806982,-100.3984472
1113,East 12th Street,79556,32.4807828,-100.3982414
1519,Grand Avenue,79556,32.4868401,-100.3910770
1515,Grand Avenue,79556,32.4867209,-100.3913874
1513,Grand Avenue,79556,32.4865769,-100.3916951
1511,Grand Avenue,79556,32.4864905,-100.3919465
1509,Grand Avenue,79556,32.4863732,-100.3921234
1507,Grand Avenue,79556,32.4863212,-100.3923570
1505,Grand Avenue,79556,32.4862203,-100.3925758
1503,Grand Avenue,79556,32.4861710,-100.3928041
1501,Grand Avenue,79556,32.4861372,-100.3930040
1514,Vards Lane,79556,32.4872066,-100.3912239
1512,Vards Lane,79556,32.4870489,-100.3915932
1506,Vards Lane,79556,32.4867909,-100.3922127
1501,Vards Lane,79556,32.4870746,-100.3926709
1503,Vards Lane,79556,32.4872000,-100.3924374
1505,Vards Lane,79556,32.4873073,-100.3921742
1507,Vards Lane,79556,32.4874357,-100.3918601
1509,Vards Lane,79556,32.4875456,-100.3916066
1515,Vards Lane,79556,32.4876604,-100.3913239
1911,Douglas Street,79556,32.4853839,-100.3892135
2000,Douglas Street,79556,32.4851443,-100.3883258
2001,Chester Street,79556,32.4845381,-100.3881661
2005,Chester Street,79556,32.4846160,-100.3877828
1311,Cockrell Street,79556,32.4841173,-100.3884638
3304,East Broadway Street,79556,32.4837123,-100.3680950
3210,East Broadway Street,79556,32.4838350,-100.3704707
3206,East Broadway Street,79556,32.4836965,-100.3711105
3204,East Broadway Street,79556,32.4834620,-100.3716390
1103,Pawnee Street,79556,32.4841474,-100.3736328
1115,Dakota Street,79556,32.4851623,-100.3757478
1118,Dakota Street,79556,32.4855667,-100.3752736
111,Tonkawa Street,79556,32.4824477,-100.3799418
2306,East Broadway Street,79556,32.4822312,-100.3813624
1508,Bristol Drive,79556,32.4820299,-100.3936379
1507,Bristol Drive,79556,32.4824267,-100.3939577
1412,East 13th Street,79556,32.4827535,-100.3943339
910,Elm Street,79556,32.4761862,-100.4089233
400,Elm Street,79556,32.4736609,-100.4072443
301,Southwest Georgia Avenue,79556,32.4485899,-100.4005200
210,Avenger Field Road,79556,32.4586339,-100.4642132
1503,Crescent Drive,79556,32.4842374,-100.4014549
506,East 4th Street,79556,32.4738795,-100.4048858
1311,McCauley Street,79556,32.4813607,-100.4041805
701,Southwest Georgia Avenue,79556,32.4477150,-100.4056949
706,East Broadway Street,79556,32.4731124,-100.4009673
412,Newman Street,79556,32.4695068,-100.3951515
