House number,Street name,Postal code,Latitude,Longitude
1551,South 25th Street,76504,31.0843620,-97.3570064
112,South 1st Street,76501,31.0954532,-97.3429019
2906,South 31st Street,76502,31.0718378,-97.3690135
4343,FM93,76502,31.0401174,-97.4149286
6161,South 5th Street,76502,31.0366559,-97.3645514
603,North General Bruce Drive,76504,31.1071498,-97.3571275
12310,Northwest H K Dodgen Loop,76501,31.1384839,-97.3314324
5227,W Adams Ave,76502,31.1131090,-97.3975994
3170,South 31st Street,76502,31.0731830,-97.3715260
3012,South 31st Street,76502,31.0705890,-97.3697540
2668,South 31st Street,76504,31.0754480,-97.3681320
3550,South General Bruce Drive,76504,31.0924278,-97.3855198
3550,South General Bruce Drive,76504,31.0923421,-97.3856504
3550,South General Bruce Drive,76504,31.0924008,-97.3858045
3550,South General Bruce Drive,76504,31.0924325,-97.3859599
3809,South General Bruce Drive,76502,31.0885502,-97.3872116
1314,West Adams Avenue,76504,31.1019794,-97.3530853
3002,South 31st Street,76502,31.0723759,-97.3702312
1302,Industrial Boulevard,76504,31.1287574,-97.3457706
3550,South General Bruce Drive,76504,31.0924926,-97.3862263
315,West Avenue B,76501,31.0958007,-97.3455043
3614,Southwest H K Dodgen Loop,76504,31.0894149,-97.3854538
615,North General Bruce Drive,76504,31.1076718,-97.3567268
1424,Martin Luther King Jr Lane,76504,31.0798097,-97.3431881
1405,West Avenue M,76504,31.0879077,-97.3609637
4815,Buckskin Trail,76502,31.0570124,-97.3850280
2320,South 31st Street,76504,31.0774244,-97.3669970
1516,S 31st St,76504,31.0861094,-97.3634315
6811,West Adams Avenue,76502,31.1164384,-97.4144113
817,Rivington Drive,76502,31.0407332,-97.3727949
821,Rivington Drive,76502,31.0408382,-97.3728576
1005,Marlandwood Road,76502,31.0616029,-97.3648686
2668,S 31st St,76504,31.0754100,-97.3677474
4311,South 31st Street,76502,31.0579019,-97.3730202
2307,West Avenue M,76504,31.0907347,-97.3702383
2505,West Adams Avenue,76504,31.1052037,-97.3692732
3550,South General Bruce Drive,76504,31.0924797,-97.3860950
3550,South General Bruce Drive,76504,31.0925539,-97.3863756
2102,Southwest H K Dodgen Loop,76504,31.0766697,-97.3772872
2603,Thornton Lane,76502,31.0749230,-97.3809390
2603,Thornton Lane,76502,31.0750799,-97.3813157
3809,South General Bruce Drive,76502,31.0884905,-97.3874051
3614,Southwest H K Dodgen Loop,76504,31.0891622,-97.3853268
3614,Southwest H K Dodgen Loop,76504,31.0892349,-97.3853717
2110,South 31st Street,76504,31.0796702,-97.3661604
2110,South 31st Street,76504,31.0798438,-97.3661156
2102,South 31st Street,76504,31.0799643,-97.3660090
2102,South 31st Street,76504,31.0800520,-97.3659919
2102,South 31st Street,76504,31.0802109,-97.3659535
2320,South 31st Street,76504,31.0772834,-97.3670370
5710,South General Bruce Drive,76502,31.0789816,-97.4147624
3550,South General Bruce Drive,76504,31.0932571,-97.3854724
4141,FM93,76502,31.0401925,-97.4121509
1201,Canyon Creek Drive,76502,31.0594214,-97.3692173
23621,Southeast H K Dodgen Loop,76504,31.0674160,-97.3507864
546,North Kegley Road,76502-4069,31.1182872,-97.3992525
111,North Main Street,76501,31.0981574,-97.3404688
2314,West Adams Avenue,76504,31.1050196,-97.3658619
8,South 4th Street,76501,31.0957635,-97.3396388
5434,205 Loop,76502,31.1147358,-97.3975894
116,South 1st Street,76501,31.0952774,-97.3429590
110,South 1st Street,76501,31.0955165,-97.3428739
108,South Main Street,76501,31.0952876,-97.3418660
116,South Main Street,76501,31.0950912,-97.3419481
114,South Main Street,76501,31.0949436,-97.3420016
17,South Main Street,76501,31.0958569,-97.3413260
19,South Main Street,76501,31.0957756,-97.3413444
156,East Central Avenue,76501,31.0963594,-97.3396109
5709,West Adams Avenue,76502,31.1133393,-97.4022881
5713,West Adams Avenue,76502,31.1134513,-97.4028439
58,Kegley Road,76502,31.1123023,-97.4012370
5408,West Adams Avenue,76502,31.1133894,-97.3990808
5408,West Adams Avenue,76502,31.1134482,-97.3992867
61,North Kegley Road,76502,31.1139681,-97.3995615
6040,West Adams Avenue,76502,31.1151079,-97.4060068
254,Green Hollow Drive,76502,31.1202413,-97.4189258
254,Green Hollow Drive,76502,31.1202151,-97.4188126
7349,Honeysuckle,76502,31.1194792,-97.4199946
7451,West Adams Avenue,76502,31.1186606,-97.4217655
7150,Adams Avenue,76502,31.1187506,-97.4178578
7150,West Adams Avenue,76502,31.1188790,-97.4182932
7150,West Adams Avenue,76502,31.1188386,-97.4181645
7425,West Adams Avenue,76502,31.1185758,-97.4214172
7451,West Adams Avenue,76502,31.1186839,-97.4218322
2316,West Adams Avenue,76502,31.1173299,-97.4108644
10717,Calaveras Cove,76513,31.1263519,-97.4582322
308,Cypress Spring Drive,76513,31.1263191,-97.4587808
220,Cypress Spring Drive,76513,31.1268630,-97.4586905
10711,Calaveras Cove,76513,31.1259410,-97.4580561
10711,Calaveras Cove,76513,31.1257861,-97.4580498
10704,Calaveras Cove,76513,31.1260315,-97.4575259
10708,Calaveras Cove,76513,31.1264368,-97.4576504
10712,Calaveras Cove,76513,31.1266700,-97.4578521
10716,Calaveras Cove,76513,31.1268382,-97.4581507
216,Cypress Spring Drive,76513,31.1271697,-97.4586337
215,Cypress Spring Drive,76513,31.1272620,-97.4580294
503,Raven Drive,76513,31.1290736,-97.4512808
506,Raven Drive,76513,31.1294329,-97.4517470
414,Stonehouse Lane,76513,31.1285904,-97.4508370
2510,South 5th Street,76502,31.0727236,-97.3536200
2112,Southwest H K Dodgen Loop,76504,31.0785080,-97.3766516
6607,West Adams Avenue,76502,31.1157296,-97.4118796
4309,Midway Drive,76502,31.0755917,-97.4009934
100,Park Avenue,76513,31.0772226,-97.4462131
2727,West Adams Avenue,76504,31.1004027,-97.3735442
2600,South 1st Street,76504,31.0723186,-97.3487314
605,Southwest H K Dodgen Loop,76502,31.0697448,-97.3616709
3111,South 31st Street,76502,31.0701291,-97.3661980
1414,Marland Wood Road,76502,31.0646356,-97.3676659
3401,South 31st Street,76502,31.0661776,-97.3671552
3002,South 31st Street,76502,31.0718915,-97.3701245
2674,South 31st Street,76504,31.0749383,-97.3682956
400,Southwest H K Dodgen Loop,76508,31.0724908,-97.3591536
1401,Marlandwood Road,76502,31.0625932,-97.3673697
3113,South 31st Street,76502-1914,31.0689352,-97.3691834
3403,South 31st Street,76501,31.0676004,-97.3696183
1415,Southwest H K Dodgen Loop,76502,31.0727750,-97.3698926
1313,South 31st Street,76502,31.0726994,-97.3695652
3306,South 31st Street,76502,31.0686230,-97.3703014
3310,South 31st Street,76502,31.0683658,-97.3711812
1201,South 31st Street,76502,31.0724660,-97.3690793
1402,Southwest H K Dodgen Loop,76504,31.0749213,-97.3693273
1808,Southwest H K Dodgen Loop,76504,31.0757302,-97.3739728
2112,Southwest H K Dodgen Loop,76504,31.0791893,-97.3794865
1314,West Adams Avenue,76504,31.1022847,-97.3535519
2808,Frontier Drive,76504,31.1170102,-97.3661458
1302,Industrial Boulevard,76504,31.1285940,-97.3461076
5015,South 5th Street,76504,31.0478186,-97.3605709
721,Southwest H K Dodgen Loop,76502,31.0716743,-97.3629772
1712,Southwest H K Dodgen Loop,76504,31.0754347,-97.3730278
1720,Southwest H K Dodgen Loop,76504,31.0755626,-97.3733484
7777,South General Bruce Drive,76502,31.0592348,-97.4354948
7777,South General Bruce Drive,76502,31.0582521,-97.4352733
7777,South General Bruce Drive,76502,31.0586195,-97.4365053
8818,Tarver Drive,76502,31.1144481,-97.4370843
6201,Northwest H K Dodgen Loop,76502,31.1130350,-97.3905008
3501,Hickory Road,76502,31.0731147,-97.3919185
5000,South 5th Street,76502,31.0450546,-97.3640457
1,South 1st Street,76501,31.0966924,-97.3420229
15,West Central Avenue,76501,31.0966654,-97.3418927
13,West Central Avenue,76501,31.0966420,-97.3418113
3550,South General Bruce Drive,76504,31.0948629,-97.3826391
11350,Northwest H K Dodgen Loop,76504,31.1394936,-97.3437783
1601,West Adams Avenue,76504,31.1019329,-97.3578033
5700,Southwest H K Dodgen Loop,76504,31.1074934,-97.3899971
101,West Avenue H,76504,31.0885597,-97.3456719
4155,North General Bruce Drive,76501,31.1361712,-97.3285575
2401,South 31st Street,76508,31.0781215,-97.3631224
1901,Veterans Memorial Drive,76504,31.0775843,-97.3453225
2510,South 31st Street,76504,31.0766468,-97.3682226
2420,South 31st Street,76504,31.0768761,-97.3672625
2505,South 37th Street,76504,31.0772517,-97.3695014
2609,South 39th Street,76504,31.0771114,-97.3715936
2602,South 31st Street,76504,31.0749173,-97.3688820
1850,Scott Boulevard,76504,31.0793457,-97.3688323
2602,South 39th Street,76504,31.0780501,-97.3734257
1720,Scott Boulevard,76504,31.0793982,-97.3675281
6801,West Adams Avenue,76502,31.1146426,-97.4148962
6811,West Adams Avenue,76502,31.1164892,-97.4144768
6705,West Adams Avenue,76502,31.1163421,-97.4135737
4501,South General Bruce Drive,76502,31.0849362,-97.3989239
4507,South General Bruce Drive,76502,31.0864161,-97.3980705
4501,South General Bruce Drive,76502,31.0864146,-97.3964582
22515,Southeast H K Dodgen Loop,76502,31.0599990,-97.3384981
1181,Farm-to-Market Road 2271,76513,31.1188422,-97.4702855
1508,West Adams Avenue,76504,31.1022411,-97.3563616
1514,West Adams Avenue,76504,31.1024788,-97.3568250
401,North Main Street,76501,31.1009539,-97.3391007
220,North Main Street,76501,31.0995681,-97.3404312
204,West Adams Avenue,76501,31.0986020,-97.3430080
20,South 5th Street,76501,31.0968467,-97.3446593
2112,Southwest H K Dodgen Loop,76504,31.0793634,-97.3802240
2112,Southwest H K Dodgen Loop,76504,31.0791798,-97.3799034
2112,Southwest H K Dodgen Loop,76504,31.0786065,-97.3778059
2112,Southwest H K Dodgen Loop,76504,31.0789587,-97.3785810
2112,Southwest H K Dodgen Loop,76504,31.0790840,-97.3790168
2112,Southwest H K Dodgen Loop,76504,31.0788476,-97.3781201
2112,Southwest H K Dodgen Loop,76504,31.0785756,-97.3775098
2112,Southwest H K Dodgen Loop,76504,31.0784819,-97.3766457
3111,South 31st Street,76502,31.0699645,-97.3669842
2505,West Adams Avenue,76504,31.1051608,-97.3693038
3625,South General Bruce Drive,76504,31.0902805,-97.3849659
3687,South General Bruce Drive,76504,31.0897846,-97.3855255
3608,Southwest H K Dodgen Loop,76504,31.0889157,-97.3854084
3550,South General Bruce Drive,76504,31.0935662,-97.3836101
3550,South General Bruce Drive,76504,31.0933509,-97.3828004
3450,South General Bruce Drive,76504,31.0932575,-97.3815264
3550,South General Bruce Drive,76504,31.0921364,-97.3850862
3913,Bell Drive,76502,31.0916096,-97.3885830
3810,South General Bruce Drive,76502,31.0911669,-97.3886463
3814,South General Bruce Drive,76502,31.0909168,-97.3889973
3550,South General Bruce Drive,76504,31.0918879,-97.3858445
3550,South General Bruce Drive,76504,31.0935883,-97.3854080
3550,South General Bruce Drive,76504,31.0952189,-97.3844299
3550,South General Bruce Drive,76504,31.0948584,-97.3846658
3550,South General Bruce Drive,76504,31.0942244,-97.3848669
7454,South General Bruce Drive,76502,31.0628922,-97.4346238
7455,South General Bruce Drive,76502,31.0612643,-97.4323914
2362,Southwest H K Dodgen Loop,76504,31.0776982,-97.3794267
3002,Thornton Lane,76502,31.0776967,-97.3845778
22514,Southeast H K Dodgen Loop,76502,31.0620069,-97.3373724
21820,Southeast H K Dodgen Loop,76502,31.0563948,-97.3307464
5550,Southwest H K Dodgen Loop,76504,31.1067132,-97.3905323
6512,West Adams Avenue,76502,31.1166303,-97.4112265
6490,West Adams Avenue,76502,31.1165094,-97.4107372
5355,West Adams Avenue,76502,31.1124475,-97.3992645
12,West French Avenue,76501,31.1027961,-97.3396185
4820,Parkside Drive,76502,31.0721740,-97.4386842
1922,Martin Luther King Jr Drive,76504,31.0767194,-97.3375860
106,Southwest H K Dodgen Loop,76504,31.0708432,-97.3552221
115,North General Bruce Drive,76504,31.1035987,-97.3579103
3401,North General Bruce Drive,76501,31.1291528,-97.3325478
710,Industrial Boulevard,76501,31.1242027,-97.3384937
2701,North 3rd Street,76501,31.1223889,-97.3353233
8502,Airport Road,76502,31.1558685,-97.4193270
220,Southwest H K Dodgen Loop,76504,31.0712222,-97.3569775
2525,Lavendusky Drive,76501,31.0957922,-97.3100467
2718,Lavendusky Drive,76501,31.0968381,-97.3092215
18451,Northeast H K Dodgen Loop,76501,31.0845831,-97.3104911
22222,Southeast H K Dodgen Loop,76504,31.0591360,-97.3344465
1497,Country View Lane,76502,31.0625458,-97.3376535
2787,Martin Luther King Jr Drive,76504,31.0659795,-97.3343826
2104,South 30th Street,76504,31.0724258,-97.3330838
1710,South 31st Street,76504,31.0841711,-97.3641896
1706,South 31st Street,76504,31.0846327,-97.3642014
3621,South General Bruce Drive,76504,31.0903427,-97.3841456
3617,South General Bruce Drive,76504,31.0909341,-97.3836730
5520,South General Bruce Drive,76502,31.0816221,-97.4129597
5625,South General Bruce Drive,76502,31.0783286,-97.4121029
5509,South General Bruce Drive,76502,31.0800979,-97.4108999
5421,South General Bruce Drive,76502,31.0808201,-97.4104494
5508,South General Bruce Drive,76502,31.0819470,-97.4121568
2612,Gillmeister Lane,76502,31.0847796,-97.4002536
4515,South General Bruce Drive,76502,31.0862632,-97.3991873
4211,South General Bruce Drive,76502,31.0876841,-97.3943335
4201,South General Bruce Drive,76502,31.0877900,-97.3936747
4301,South General Bruce Drive,76502,31.0868157,-97.3950769
4103,South General Bruce Drive,76502,31.0881216,-97.3924825
4015,South General Bruce Drive,76502,31.0881235,-97.3927629
3925,South General Bruce Drive,76502,31.0890699,-97.3898928
3550,Southwest H K Dodgen Loop,76504,31.0890875,-97.3840133
2002,South 31st Street,76504,31.0812109,-97.3655759
2006,South 31st Street,76504,31.0808010,-97.3657011
2202,South 31st Street,76504,31.0793883,-97.3662929
2012,South 31st Street,76504,31.0814790,-97.3679217
8105,South General Bruce Drive,76502,31.0556348,-97.4410276
6511,State Highway 317,76513,31.1157032,-97.4449036
9301,State Highway 317,76513,31.1420878,-97.4348567
23208,Southeast H K Dodgen Loop,76504,31.0668918,-97.3432341
23208,Southeast H K Dodgen Loop,76504,31.0665974,-97.3435841
23208,Southeast H K Dodgen Loop,76504,31.0666274,-97.3432457
1604,West Barton Avenue,76504,31.1041361,-97.3571308
1001,North General Bruce Drive,76504,31.1113849,-97.3551255
1104,North General Bruce Drive,76504,31.1133207,-97.3565846
802,North General Bruce Drive,76504,31.1117569,-97.3573450
602,North General Bruce Drive,76504,31.1087015,-97.3584407
1601,North 3rd Street,76501,31.1130847,-97.3369539
1749,Scott Boulevard,76504,31.0781562,-97.3678971
1912,South 31st Street,76504,31.0823269,-97.3648396
3816,South General Bruce Drive,76502,31.0911004,-97.3898324
1414,Southwest HK Dodgen Loop,76504,31.0751334,-97.3699467
10013,Birch Tree Drive,76502,31.1343785,-97.4451092
10009,Birch Tree Drive,76502,31.1343397,-97.4449113
10005,Birch Tree Drive,76502,31.1342652,-97.4447476
9909,Birch Tree Drive,76502,31.1341685,-97.4444926
9905,Birch Tree Drive,76502,31.1342624,-97.4441902
9904,Birch Tree Drive,76502,31.1344558,-97.4441379
9908,Birch Tree Drive,76502,31.1346806,-97.4442968
10004,Birch Tree Drive,76502,31.1347354,-97.4445329
10008,Birch Tree Drive,76502,31.1347762,-97.4447286
9908,Orion Drive,76502,31.1339369,-97.4442073
9912,Orion Drive,76502,31.1338671,-97.4444177
9916,Orion Drive,76502,31.1338881,-97.4446316
9924,Orion Drive,76502,31.1340125,-97.4450423
9920,Orion Drive,76502,31.1339154,-97.4448421
4141,FM93,76502,31.0400618,-97.4121253
4750,Wendland Road,76504,31.1542884,-97.3633783
3505,Chisholm Trail,76504,31.1039214,-97.3799721
7050,North General Bruce Drive,76501,31.1627261,-97.3227208
4405,North General Bruce Drive,76501,31.1406891,-97.3278911
4331,North General Bruce Drive,76501,31.1402240,-97.3281046
4307,North General Bruce Drive,76501,31.1398170,-97.3280368
12310,Northwest H K Dodgen Loop,76501,31.1386149,-97.3315370
13103,Northeast H K Dodgen Loop,76501,31.1372876,-97.3233161
1307,North General Bruce Drive,76504,31.1145706,-97.3539996
1415,North General Bruce Drive,76504,31.1152231,-97.3536895
1610,West Nugent Avenue,76504,31.1144573,-97.3529291
1100,North General Bruce Drive,76504,31.1127639,-97.3568522
2903,South General Bruce Drive,76504,31.0928292,-97.3768382
3805,South General Bruce Drive,76502,31.0889399,-97.3883188
702,East Downs Avenue,76501,31.0987824,-97.3319458
2604,Slough Drive,76502,31.0495202,-97.3896850
4141,W. FM 93,76502,31.0382747,-97.4135613
2106,South 31st Street,76504,31.0805514,-97.3670240
10,South 31st Street,76504,31.1009059,-97.3582191
19,South 2nd Street,76502,31.0955224,-97.3402182
2501,Airport Road,76504,31.1063703,-97.3671965
201,South 1st Street,76501,31.0947502,-97.3427379
6520,West Adams Avenue,76502,31.1165746,-97.4116099
6801,West Adams Avenue,76502,31.1160440,-97.4130459
5434,205 Loop,76502,31.1138457,-97.4005341
254,Green Hollow Drive,76502,31.1202907,-97.4189051
7036,West Adams Avenue,79502,31.1184301,-97.4172378
2501,Airport Road,76502,31.1063008,-97.3674733
11,North 6th Street,76501,31.0963495,-97.3378244
309,East Ridge Boulevard,76502,31.1134138,-97.3942034
312,Cypress Spring Drive,76513,31.1261114,-97.4589077
308,Cypress Spring Drive,76513,31.1263411,-97.4588135
304,Cypress Spring Drive,76513,31.1266332,-97.4588001
220,Cypress Spring Drive,76513,31.1268948,-97.4587394
10716,Calaveras Cove,76513,31.1268648,-97.4581037
10712,Calaveras Cove,76513,31.1266670,-97.4577820
10708,Calaveras Cove,76513,31.1264410,-97.4576163
1704,Calaveras Cove,76513,31.1260743,-97.4575093
11200,West Adams Avenue,76513,31.1290685,-97.4613888
10705,Calaveras Cove,76513,31.1257483,-97.4576558
10711,Calaveras Cove,76513,31.1258665,-97.4580835
10717,Calaveras Cove,76513,31.1262787,-97.4582114
216,Cypress Spring Drive,76513,31.1271893,-97.4586855
215,Cypress Spring Drive,76513,31.1272812,-97.4579907
212,Cypress Spring Drive,76513,31.1275464,-97.4586379
209,Cypress Spring Drive,76513,31.1276111,-97.4579227
208,Cypress Spring Drive,76513,31.1278994,-97.4585374
205,Cypress Spring Drive,76513,31.1279610,-97.4577944
204,Cypress Spring Drive,76513,31.1282272,-97.4583811
11803,Bonnie Lane,76513,31.1335121,-97.4678970
12075,Bonnie Lane,76513,31.1336187,-97.4684409
5,Vista De Luna Lane,76513,31.1342300,-97.4700661
406,Bellwood Drive,76513,31.1274577,-97.4599222
412,Bellwood Drive,76513,31.1277053,-97.4602541
416,Bellwood Drive,76513,31.1277200,-97.4606372
417,Bellwood Drive,76513,31.1273958,-97.4608584
413,Bellwood Drive,76513,31.1271343,-97.4605793
409,Bellwood Drive,76513,31.1270069,-97.4602674
405,Bellwood Drive,76513,31.1269258,-97.4599566
401,Bellwood Drive,76513,31.1268772,-97.4595951
313,Bellwood Drive,76513,31.1271459,-97.4593945
309,Bellwood Drive,76513,31.1275360,-97.4593112
305,Bellwood Drive,76513,31.1278847,-97.4591921
209,Bellwood Drive,76513,31.1282510,-97.4590537
205,Bellwood Drive,76513,31.1286044,-97.4588748
11004,Coleman Cove,76513,31.1285813,-97.4595345
11008,Coleman Cove,76513,31.1285022,-97.4599583
11009,Coleman Cove,76513,31.1281926,-97.4601239
11005,Coleman Cove,76513,31.1279286,-97.4597504
116,Champion Creek Cove,76513,31.1290677,-97.4584972
112,Champion Creek Cove,76513,31.1293578,-97.4582558
108,Champion Creek Cove,76513,31.1295711,-97.4580409
104,Champion Creek Cove,76513,31.1296557,-97.4577430
105,Champion Creek Cove,76513,31.1294877,-97.4573470
109,Champion Creek Cove,76513,31.1292026,-97.4573369
113,Champion Creek Cove,76513,31.1290034,-97.4575176
117,Champion Creek Cove,76513,31.1288792,-97.4578728
121,Champion Creek Cove,76513,31.1286476,-97.4580827
204,Bellwood Drive,76513,31.1290000,-97.4592667
112,Braunig Cove,76513,31.1297919,-97.4595120
108,Braunig Cove,76513,31.1300709,-97.4592423
105,Braunig Cove,76513,31.1299452,-97.4588461
109,Braunig Cove,76513,31.1296644,-97.4587691
113,Braunig Cove,76513,31.1294263,-97.4590409
404,Saint Andrew's Place,76513,31.1257086,-97.4570329
401,Saint Andrew's Place,76513,31.1261284,-97.4563104
213,Saint Andrew's Place,76513,31.1272013,-97.4567132
105,Saint Andrew's Place,76513,31.1285041,-97.4564027
9,Saint Andrew's Place,76513,31.1282375,-97.4564671
201,Saint Andrew's Place,76513,31.1280135,-97.4565735
205,Saint Andrew's Place,76513,31.1277457,-97.4566155
209,Saint Andrew's Place,76513,31.1275046,-97.4566992
5,Saint Andrew's Place,76513,31.1293818,-97.4560269
2,Saint Andrew's Place,76513,31.1299516,-97.4564003
6,Saint Andrew's Place,76513,31.1296731,-97.4565345
10,Saint Andrew's Place,76513,31.1293867,-97.4566477
14,Saint Andrew's Place,76513,31.1292054,-97.4566737
100,Saint Andrew's Place,76513,31.1289508,-97.4567977
108,Saint Andrew's Place,76513,31.1284634,-97.4570041
112,Saint Andrew's Place,76513,31.1282738,-97.4570616
200,Saint Andrew's Place,76513,31.1278315,-97.4572110
204,Saint Andrew's Place,76513,31.1275537,-97.4573452
208,Saint Andrew's Place,76513,31.1272139,-97.4573023
300,Saint Andrew's Place,76513,31.1269994,-97.4571934
304,Saint Andrew's Place,76513,31.1267305,-97.4571691
308,Saint Andrew's Place,76513,31.1264899,-97.4570955
312,Saint Andrew's Place,76513,31.1262429,-97.4570346
400,Saint Andrew's Place,76513,31.1260111,-97.4569611
407,Saint Andrew's Place,76513,31.1254689,-97.4565823
305,Ben Nevis Lane,76513,31.1265306,-97.4561772
301,Ben Nevis Lane,76513,31.1267792,-97.4560762
275,Ben Nevis Lane,76513,31.1269774,-97.4560051
209,Ben Nevis Lane,76513,31.1272362,-97.4559074
205,Ben Nevis Lane,76513,31.1274669,-97.4558462
201,Ben Nevis Lane,76513,31.1277024,-97.4557501
113,Ben Nevis Lane,76513,31.1279570,-97.4556173
109,Ben Nevis Lane,76513,31.1282115,-97.4555663
100,Ben Nevis Lane,76513,31.1283727,-97.4560723
104,Ben Nevis Lane,76513,31.1280580,-97.4561748
200,Ben Nevis Lane,76513,31.1277435,-97.4562529
204,Ben Nevis Lane,76513,31.1274334,-97.4563838
300,Ben Nevis Lane,76513,31.1268768,-97.4565951
10710,Weatherford Drive,76513,31.1284407,-97.4574627
10705,Inverness Road,76513,31.1297586,-97.4559013
10702,Inverness Road,76513,31.1300381,-97.4553382
10618,Inverness Road,76513,31.1298160,-97.4551309
10614,Inverness Road,76513,31.1294980,-97.4549873
10617,Inverness Road,76513,31.1292726,-97.4554630
10613,Inverness Road,76513,31.1289686,-97.4551821
10708,Inverness Road,76513,31.1303395,-97.4563064
10712,Inverness Road,76513,31.1305102,-97.4567538
10718,Inverness Road,76513,31.1306095,-97.4571955
10722,Inverness Road,76513,31.1306878,-97.4576277
10726,Inverness Road,76513,31.1307836,-97.4580333
10723,Inverness Road,76513,31.1302396,-97.4579394
10719,Inverness Road,76513,31.1301517,-97.4575545
10715,Inverness Road,76513,31.1300740,-97.4571663
10715,Inverness Road,76513,31.1299747,-97.4568443
10727,Inverness Road,76513,31.1303499,-97.4583356
11102,Inverness Road,76513,31.1309682,-97.4584185
11103,Inverness Road,76513,31.1304635,-97.4587251
11106,Inverness Road,76513,31.1310619,-97.4588232
11110,Inverness Road,76513,31.1311539,-97.4592391
11111,Inverness Road,76513,31.1307227,-97.4595045
11114,Inverness Road,76513,31.1312955,-97.4596227
11115,Inverness Road,76513,31.1308483,-97.4599183
11118,Inverness Road,76513,31.1314083,-97.4600182
11206,Inverness Road,76513,31.1314813,-97.4603733
11212,Inverness Road,76513,31.1313689,-97.4607260
11218,Inverness Road,76513,31.1310408,-97.4610921
11217,Inverness Road,76513,31.1306749,-97.4607161
11209,Inverness Road,76513,31.1309098,-97.4603692
11217,Weatherford Drive,76513,31.1310811,-97.4620553
11211,Weatherford Drive,76513,31.1307867,-97.4617710
11205,Weatherford Drive,76513,31.1305796,-97.4614534
11129,Weatherford Drive,76513,31.1303379,-97.4611142
11123,Weatherford Drive,76513,31.1300984,-97.4607887
11117,Weatherford Drive,76513,31.1298683,-97.4604376
11111,Weatherford Drive,76513,31.1295664,-97.4600815
11105,Weatherford Drive,76513,31.1292960,-97.4596951
11114,Weatherford Drive,76513,31.1301333,-97.4599037
11120,Weatherford Drive,76513,31.1303352,-97.4601890
12001,Weatherford Drive,76513,31.1315985,-97.4625491
12007,Weatherford Drive,76513,31.1319660,-97.4626005
12006,Weatherford Drive,76513,31.1321360,-97.4621945
12002,Weatherford Drive,76513,31.1319370,-97.4618439
313,Choke Canyon Cove,76513,31.1292521,-97.4635497
216,Choke Canyon Cove,76513,31.1296466,-97.4630242
212,Choke Canyon Cove,76513,31.1299569,-97.4627778
208,Choke Canyon Cove,76513,31.1302388,-97.4626377
204,Choke Canyon Cove,76513,31.1304156,-97.4622684
205,Choke Canyon Cove,76513,31.1301972,-97.4618750
209,Choke Canyon Cove,76513,31.1298826,-97.4619551
213,Choke Canyon Cove,76513,31.1295956,-97.4622339
217,Choke Canyon Cove,76513,31.1293179,-97.4625768
305,Choke Canyon Cove,76513,31.1290329,-97.4628102
309,Choke Canyon Cove,76513,31.1289964,-97.4631548
111,Coletto Court,76513,31.1313406,-97.4634248
112,Coletto Court,76513,31.1308711,-97.4638681
108,Coletto Court,76513,31.1310336,-97.4643102
104,Coletto Court,76513,31.1314179,-97.4642110
16,Coletto Court,76513,31.1317391,-97.4640644
12,Coletto Court,76513,31.1320390,-97.4639455
8,Coletto Court,76513,31.1323341,-97.4638592
4,Coletto Court,76513,31.1325058,-97.4635479
5,Coletto Court,76513,31.1323562,-97.4630974
11,Coletto Court,76513,31.1319618,-97.4631298
17,Coletto Court,76513,31.1316963,-97.4633765
304,Richland Drive,76513,31.1295441,-97.4642381
216,Richland Drive,76513,31.1298356,-97.4641528
212,Richland Drive,76513,31.1301671,-97.4641388
208,Richland Drive,76513,31.1304964,-97.4640582
213,Richland Drive,76513,31.1298669,-97.4634834
209,Richland Drive,76513,31.1302930,-97.4633806
205,Richland Drive,76513,31.1305372,-97.4632132
117,Richland Drive,76513,31.1308230,-97.4629097
113,Richland Drive,76513,31.1309816,-97.4625636
11406,Caleigh Anne Drive,76513,31.1328479,-97.4649813
11410,Caleigh Anne Drive,76513,31.1329361,-97.4646857
11407,Caleigh Anne Drive,76513,31.1327013,-97.4643527
11413,Caleigh Anne Drive,76513,31.1323768,-97.4644911
11419,Caleigh Anne Drive,76513,31.1320953,-97.4645995
*,Caleigh Anne Drive,76513,31.1318268,-97.4646848
*,Caleigh Anne Drive,76513,31.1315030,-97.4647399
*,Caleigh Anne Drive,76513,31.1312529,-97.4649007
*,Caleigh Anne Drive,76513,31.1309481,-97.4650463
*,Caleigh Anne Drive,76513,31.1309897,-97.4654238
*,Caleigh Anne Drive,76513,31.1310138,-97.4657584
*,Caleigh Anne Drive,76513,31.1310927,-97.4660588
*,Caleigh Anne Drive,76513,31.1311564,-97.4663751
*,Caleigh Anne Drive,76513,31.1311880,-97.4667520
*,Caleigh Anne Drive,76513,31.1312019,-97.4671354
*,Caleigh Anne Drive,76513,31.1316508,-97.4666862
*,Caleigh Anne Drive,76513,31.1316259,-97.4663415
*,Caleigh Anne Drive,76513,31.1315551,-97.4660451
*,Caleigh Anne Drive,76513,31.1315194,-97.4657181
*,Caleigh Anne Drive,76513,31.1314988,-97.4653753
*,Camdyn Caye Drive,76513,31.1325491,-97.4659638
*,Camdyn Caye Drive,76513,31.1325733,-97.4662776
*,Camdyn Caye Drive,76513,31.1325149,-97.4654718
*,Camdyn Caye Drive,76513,31.1324774,-97.4650845
*,Camdyn Caye Drive,76513,31.1319507,-97.4652159
*,Camdyn Caye Drive,76513,31.1319631,-97.4655348
*,Camdyn Caye Drive,76513,31.1320428,-97.4658285
*,Camdyn Caye Drive,76513,31.1320315,-97.4661845
*,Camdyn Caye Drive,76513,31.1321051,-97.4665150
*,Conner Drive,76513,31.1317417,-97.4672445
*,Conner Drive,76513,31.1314035,-97.4673970
*,Conner Drive,76513,31.1319758,-97.4671302
*,Conner Drive,76513,31.1324551,-97.4669402
*,Conner Drive,76513,31.1327111,-97.4668372
*,Conner Drive,76513,31.1330087,-97.4668148
*,Conner Drive,76513,31.1331722,-97.4664015
*,Conner Drive,76513,31.1329927,-97.4660823
12105,Lago Terra Boulevard,76513,31.1326696,-97.4702494
12033,Lago Terra Boulevard,76513,31.1326555,-97.4698483
12019,Lago Terra Boulevard,76513,31.1325773,-97.4694502
12013,Lago Terra Boulevard,76513,31.1324672,-97.4690585
12007,Lago Terra Boulevard,76513,31.1323659,-97.4686477
11811,Lago Terra Boulevard,76513,31.1322239,-97.4682901
11810,Lago Terra Boulevard,76513,31.1327828,-97.4680695
12006,Lago Terra Boulevard,76513,31.1328775,-97.4684605
12012,Lago Terra Boulevard,76513,31.1329730,-97.4689853
109,Vista De Luna Lane,76513,31.1322400,-97.4701692
109,Vista De Luna Lane,76513,31.1319019,-97.4702579
108,Vista De Luna Lane,76513,31.1324208,-97.4708576
5,Woodland Point Loop,76513,31.1316222,-97.4923163
5,Woodland Point Road,76513,31.1318480,-97.4919651
150,Woodland Point Road,76513,31.1327054,-97.4924534
250,Woodland Point Road,76513,31.1331282,-97.4923914
13800,Woodland Point Loop,76513,31.1338427,-97.4919884
13830,Woodland Point Loop,76513,31.1341593,-97.4919944
13860,Woodland Point Loop,76513,31.1344288,-97.4918725
13880,Woodland Point Loop,76513,31.1349144,-97.4917375
17,Vista De Luna Lane,76513,31.1331692,-97.4702358
12,Vista De Luna Lane,76513,31.1335584,-97.4708191
16,Vista De Luna Lane,76513,31.1332683,-97.4708135
9,Vista De Luna Lane,76513,31.1338496,-97.4701382
8,Vista De Luna Lane,76513,31.1340588,-97.4707859
12099,Bonnie Lane,76513,31.1335502,-97.4696532
276 A,Morgan's Point Road,76513,31.1317122,-97.4693570
125,Morgan's Point Road,76513,31.1306523,-97.4668795
95,Morgan's Point Road,76513,31.1298895,-97.4677807
260,Morgan's Point Road,76513,31.1307289,-97.4686980
269,Morgan's Point Road,76513,31.1309815,-97.4692464
274,Morgan's Point Road,76513,31.1310506,-97.4698763
103,Sereno Vista Lane,76513,31.1328298,-97.4714911
107,Sereno Vista Lane,76513,31.1324499,-97.4716343
111,Sereno Vista Lane,76513,31.1321590,-97.4717990
119,Sereno Vista Lane,76513,31.1318119,-97.4722232
12309,Lago Del Sur Drive,76513,31.1316943,-97.4732931
12409,Lago Del Sur Drive,76513,31.1320137,-97.4743764
12,Sereno Vista Lane,76513,31.1337439,-97.4718890
16,Sereno Vista Lane,76513,31.1334085,-97.4719196
105,Sereno Vista Lane,76513,31.1328491,-97.4721828
102,Sereno Vista Lane,76513,31.1331817,-97.4720201
110,Sereno Vista Lane,76513,31.1325995,-97.4723621
114,Sereno Vista Lane,76513,31.1323657,-97.4725539
118,Sereno Vista Lane,76513,31.1320510,-97.4727372
103,Lago Verde Lane,76513,31.1332795,-97.4725986
111,Lago Verde Lane,76513,31.1327499,-97.4729179
13,Lago Verde Lane,76513,31.1338889,-97.4723738
17,Lago Verde Lane,76513,31.1336413,-97.4725041
107,Lago Verde Lane,76513,31.1329988,-97.4727733
115,Lago Verde Lane,76513,31.1324653,-97.4730851
119,Lago Verde Lane,76513,31.1321999,-97.4732249
118,Lago Verde Lane,76513,31.1323562,-97.4738138
114,Lago Verde Lane,76513,31.1326799,-97.4737010
110,Lago Verde Lane,76513,31.1329482,-97.4735214
106,Lago Verde Lane,76513,31.1332557,-97.4733364
102,Lago Verde Lane,76513,31.1335186,-97.4732057
16,Lago Verde Lane,76513,31.1337764,-97.4730756
12,Lago Verde Lane,76513,31.1340829,-97.4729301
12413,Lago Del Sur Drive,76513,31.1321386,-97.4747741
105,Lago Viento Lane,76513,31.1334785,-97.4738397
111,Lago Viento Lane,76513,31.1331488,-97.4739765
104,Lago Viento Lane,76513,31.1336917,-97.4743840
110,Lago Viento Lane,76513,31.1333491,-97.4745627
114,Lago Viento Lane,76513,31.1330270,-97.4747501
118,Lago Viento Lane,76513,31.1326757,-97.4748874
16,Lago Viento Lane,76513,31.1340201,-97.4742509
12,Lago Viento Lane,76513,31.1343135,-97.4740924
13,Lago Viento Lane,76513,31.1342192,-97.4734489
17,Lago Viento Lane,76513,31.1338610,-97.4736652
115,Lago Viento Lane,76513,31.1328556,-97.4741997
119,Lago Viento Lane,76513,31.1325147,-97.4743918
209,Raven Drive,76502,31.1259551,-97.4519223
205,Raven Drive,76502,31.1257417,-97.4520408
201,Raven Drive,76502,31.1255445,-97.4521535
109,Raven Drive,76502,31.1253708,-97.4522535
105,Raven Drive,76502,31.1251665,-97.4524455
10148,West Adams Avenue,76502,31.1235596,-97.4506203
10303,Bryson Drive,76502,31.1251592,-97.4527557
10307,Bryson Drive,76502,31.1252524,-97.4529793
10311,Bryson Drive,76502,31.1252998,-97.4532069
10401,Bryson Drive,76502,31.1253583,-97.4534360
10405,Bryson Drive,76502,31.1254154,-97.4536643
10409,Bryson Drive,76502,31.1254766,-97.4538932
10413,Bryson Drive,76502,31.1255279,-97.4541211
10410,Bryson Drive,76502,31.1259706,-97.4538290
10406,Bryson Drive,76502,31.1258900,-97.4536042
10402,Bryson Drive,76502,31.1258186,-97.4533714
10310,Bryson Drive,76502,31.1257610,-97.4531474
10306,Bryson Drive,76502,31.1257094,-97.4529024
10302,Bryson Drive,76502,31.1256883,-97.4526525
10503,Bryson Drive,76502,31.1256919,-97.4543962
10507,Bryson Drive,76502,31.1259712,-97.4544176
10511,Bryson Drive,76502,31.1261512,-97.4543093
10515,Bryson Drive,76502,31.1263445,-97.4542283
10519,Bryson Drive,76502,31.1265434,-97.4541583
10601,Bryson Drive,76502,31.1267398,-97.4540785
10605,Bryson Drive,76502,31.1269207,-97.4540168
10609,Bryson Drive,76502,31.1271210,-97.4539305
10613,Bryson Drive,76502,31.1273116,-97.4538656
10703,Bryson Drive,76502,31.1275216,-97.4537791
10707,Bryson Drive,76502,31.1277203,-97.4537002
10709,Bryson Drive,76502,31.1279168,-97.4536357
10711,Bryson Drive,76513,31.1281124,-97.4535531
10715,Bryson Drive,76513,31.1283308,-97.4534976
10803,Bryson Drive,76513,31.1285673,-97.4533330
10807,Bryson Drive,76513,31.1285952,-97.4530230
10811,Bryson Drive,76513,31.1284888,-97.4527883
10810,Bryson Drive,76513,31.1280437,-97.4530250
10814,Bryson Drive,76513,31.1279612,-97.4527647
10818,Bryson Drive,76513,31.1279162,-97.4525502
10819,Bryson Drive,76513,31.1283581,-97.4523442
10815,Bryson Drive,76513,31.1284139,-97.4525584
10812,Bryson Drive,76513,31.1282996,-97.4521246
10820,Bryson Drive,76513,31.1278369,-97.4522960
10412,Findley Drive,76502,31.1275950,-97.4532241
10408,Findley Drive,76502,31.1275230,-97.4529508
10404,Findley Drive,76502,31.1274371,-97.4526753
10306,Findley Drive,76502,31.1273573,-97.4523880
10305,Findley Drive,76502,31.1268562,-97.4523823
10311,Findley Drive,76502,31.1269483,-97.4526324
10403,Findley Drive,76502,31.1269888,-97.4528807
10407,Findley Drive,76502,31.1270721,-97.4531212
10306,Bryson Drive,76502,31.1258289,-97.4528304
*,Bryson Drive,76502,31.1257623,-97.4524808
10409,Windy Pointe Drive,76502,31.1263308,-97.4536585
10405,Windy Pointe Drive,76502,31.1262652,-97.4533828
10401,Windy Pointe Drive,76502,31.1261742,-97.4531597
10311,Windy Pointe Drive,76502,31.1261073,-97.4529189
10307,Windy Pointe Drive,76502,31.1260525,-97.4527089
10303,Windy Pointe Drive,76502,31.1259938,-97.4524633
10410,Windy Pointe Drive,76502,31.1267792,-97.4535321
10406,Windy Pointe Drive,76502,31.1267212,-97.4532885
10402,Windy Pointe Drive,76502,31.1266507,-97.4530692
10312,Windy Pointe Drive,76502,31.1265731,-97.4528463
10308,Windy Pointe Drive,76502,31.1265231,-97.4526042
10304,Windy Pointe Drive,76502,31.1264653,-97.4523617
10411,Findley Drive,76502,31.1271275,-97.4533817
303,Raven Drive,76502,31.1263579,-97.4518422
307,Raven Drive,76502,31.1265783,-97.4518372
311,Raven Drive,76502,31.1267860,-97.4518411
315,Raven Drive,76502,31.1269899,-97.4518280
319,Raven Drive,76502,31.1271978,-97.4518251
321,Raven Drive,76502,31.1274158,-97.4518537
325,Raven Drive,76513,31.1276379,-97.4518210
329,Raven Drive,76513,31.1278679,-97.4517513
403,Raven Drive,76513,31.1281114,-97.4516927
407,Raven Drive,76513,31.1283231,-97.4515796
411,Raven Drive,76513,31.1285309,-97.4515019
415,Raven Drive,76513,31.1287268,-97.4514323
10403,Becker Drive,76513,31.1288114,-97.4519248
10623,Becker Drive,76513,31.1301432,-97.4547925
10619,Becker Drive,76513,31.1298999,-97.4546359
10615,Becker Drive,76513,31.1297023,-97.4544171
10611,Becker Drive,76513,31.1295592,-97.4541737
10607,Becker Drive,76513,31.1294720,-97.4539247
10603,Becker Drive,76513,31.1293926,-97.4536818
10515,Becker Drive,76513,31.1293337,-97.4534511
10511,Becker Drive,76513,31.1292736,-97.4532433
10507,Becker Drive,76513,31.1291924,-97.4530042
10503,Becker Drive,76513,31.1291112,-97.4528003
10413,Becker Drive,76513,31.1290159,-97.4525855
10411,Becker Drive,76513,31.1289375,-97.4523524
10407,Becker Drive,76513,31.1288786,-97.4521301
10614,Becker Drive,76513,31.1301449,-97.4541663
10618,Becker Drive,76513,31.1303533,-97.4542083
506,Bell Springs Drive,76513,31.1300511,-97.4535791
502,Bell Springs Drive,76513,31.1298562,-97.4536946
507,Bell Springs Drive,76513,31.1299419,-97.4530411
503,Bell Springs Drive,76513,31.1297146,-97.4531329
502,Salt Lick Drive,76513,31.1295592,-97.4527416
508,Salt Lick Drive,76513,31.1297733,-97.4526534
510,Raven Drive,76513,31.1296157,-97.4516823
502,Raven Drive,76513,31.1292369,-97.4518379
*503,Salt Lick Drive,76513,31.1293582,-97.4522130
507,Salt Lick Drive,76513,31.1295574,-97.4521816
511,Salt Lick Drive,76513,31.1297448,-97.4520802
507,Raven Drive,76513,31.1292807,-97.4512151
511,Raven Drive,76513,31.1294755,-97.4511396
502,Stonehouse Lane,76513,31.1288937,-97.4506868
506,Stonehouse Lane,76513,31.1290609,-97.4506254
10,Stonehouse Lane,76502,31.1292337,-97.4505818
10205,Cap Rock Drive,76502,31.1287848,-97.4488539
10209,Cap Rock Drive,76502,31.1288337,-97.4490381
10213,Cap Rock Drive,76502,31.1288908,-97.4492159
10217,Cap Rock Drive,76502,31.1289386,-97.4494022
10221,Cap Rock Drive,76502,31.1290196,-97.4495768
10225,Cap Rock Drive,76502,31.1290530,-97.4497668
10229,Cap Rock Drive,76502,31.1291176,-97.4499402
10233,Cap Rock Drive,76502,31.1291585,-97.4501153
10207,Becker Drive,76513,31.1280288,-97.4491478
10211,Becker Drive,76513,31.1281007,-97.4493275
10215,Becker Drive,76513,31.1281457,-97.4495094
10219,Becker Drive,76513,31.1281852,-97.4496954
10223,Becker Drive,76513,31.1282404,-97.4498765
10227,Becker Drive,76513,31.1282917,-97.4500630
10231,Becker Drive,76513,31.1283392,-97.4502461
10235,Becker Drive,76513,31.1283948,-97.4504230
10234,Becker Drive,76513,31.1288316,-97.4502512
10230,Becker Drive,76513,31.1287742,-97.4500729
10226,Becker Drive,76513,31.1287276,-97.4498890
10222,Becker Drive,76513,31.1286580,-97.4497177
10218,Becker Drive,76513,31.1285875,-97.4495304
10214,Becker Drive,76513,31.1285640,-97.4493475
10210,Becker Drive,76513,31.1285164,-97.4491684
10206,Becker Drive,76513,31.1284633,-97.4489808
10234,Alamosa Lane,76513,31.1280745,-97.4505478
10230,Alamosa Lane,76513,31.1280227,-97.4503715
10226,Alamosa Lane,76513,31.1279689,-97.4501853
10222,Alamosa Lane,76513,31.1279133,-97.4500068
10218,Alamosa Lane,76513,31.1278606,-97.4498251
10214,Alamosa Lane,76513,31.1278002,-97.4496434
10210,Alamosa Lane,76513,31.1277421,-97.4494561
10206,Alamosa Lane,76513,31.1277049,-97.4492774
10207,Alamosa Lane,76513,31.1272274,-97.4494011
10211,Alamosa Lane,76513,31.1273092,-97.4495746
10215,Alamosa Lane,76513,31.1273934,-97.4497436
10219,Alamosa Lane,76513,31.1274161,-97.4499355
10223,Alamosa Lane,76513,31.1274879,-97.4501131
10227,Alamosa Lane,76513,31.1275249,-97.4503037
10231,Alamosa Lane,76513,31.1275644,-97.4504797
10235,Alamosa Lane,76513,31.1276291,-97.4506750
10203,Alamosa Lane,76513,31.1272046,-97.4491537
302,Stonehouse Lane,76513,31.1273196,-97.4505271
306,Stonehouse Lane,76513,31.1271243,-97.4506172
310,Stonehouse Lane,76513,31.1270314,-97.4508511
318,Stonehouse Lane,76513,31.1272861,-97.4512290
322,Stonehouse Lane,76513,31.1274610,-97.4512124
326,Stonehouse Lane,76513,31.1276415,-97.4511851
330,Stonehouse Lane,76513,31.1278022,-97.4511365
332,Stonehouse Lane,76513,31.1279520,-97.4510725
402,Stonehouse Lane,76513,31.1281086,-97.4510054
406,Stonehouse Lane,76513,31.1282676,-97.4509541
410,Stonehouse Lane,76513,31.1284183,-97.4508639
314,Stonehouse Lane,76513,31.1271250,-97.4510653
509,Hawks Shadow Drive,76513,31.1284555,-97.4485022
505,Hawks Shadow Drive,76513,31.1283009,-97.4485562
501,Hawks Shadow Drive,76513,31.1281444,-97.4486218
417,Hawks Shadow Drive,76513,31.1279861,-97.4486853
413,Hawks Shadow Drive,76513,31.1278288,-97.4487463
409,Hawks Shadow Drive,76513,31.1276708,-97.4488015
405,Hawks Shadow Drive,76513,31.1275110,-97.4488487
401,Hawks Shadow Drive,76513,31.1273423,-97.4489155
517,Hawks Shadow Drive,76502,31.1287918,-97.4483642
513,Hawks Shadow Drive,76502,31.1286173,-97.4484499
81,Richland Drive,76513,31.1318492,-97.4609969
89,Richland Drive,76513,31.1316176,-97.4613018
97,Richland Drive,76513,31.1314366,-97.4615931
9820,Tully Weary Lane,76502,31.1232457,-97.4474794
10011,Tully Weary Lane,76502,31.1232368,-97.4494362
10007,Tully Weary Lane,76502,31.1231984,-97.4492376
10003,Tully Weary Lane,76502,31.1231490,-97.4490433
9921,Tully Weary Lane,76502,31.1230942,-97.4488312
9917,Tully Weary Lane,76502,31.1230404,-97.4486393
9913,Tully Weary Lane,76502,31.1229942,-97.4484419
9909,Tully Weary Lane,76502,31.1229495,-97.4482379
9905,Tully Weary Lane,76502,31.1228942,-97.4480390
9823,Tully Weary Lane,76502,31.1228460,-97.4478493
9819,Tully Weary Lane,76502,31.1227995,-97.4476423
9815,Tully Weary Lane,76502,31.1227504,-97.4474422
9811,Tully Weary Lane,76502,31.1226986,-97.4472359
9807,Tully Weary Lane,76502,31.1226432,-97.4470419
9803,Tully Weary Lane,76502,31.1225981,-97.4468359
9731,Tully Weary Lane,76502,31.1225483,-97.4466415
9727,Tully Weary Lane,76502,31.1224924,-97.4464355
9723,Tully Weary Lane,76502,31.1224376,-97.4462233
9719,Tully Weary Lane,76502,31.1223915,-97.4459472
9715,Tully Weary Lane,76502,31.1224883,-97.4457144
9716,Tully Weary Lane,76502,31.1226792,-97.4456516
9718,Tully Weary Lane,76502,31.1229185,-97.4457590
9722,Tully Weary Lane,76502,31.1229502,-97.4460404
9726,Tully Weary Lane,76502,31.1229425,-97.4462530
9730,Tully Weary Lane,76502,31.1229882,-97.4464909
9804,Tully Weary Lane,76502,31.1230271,-97.4466865
9808,Tully Weary Lane,76502,31.1230928,-97.4468912
9812,Tully Weary Lane,76502,31.1231431,-97.4470836
9816,Tully Weary Lane,76502,31.1231915,-97.4472897
9820,Cowpage Court,76502,31.1239882,-97.4471962
9816,Cowpage Court,76502,31.1239298,-97.4469946
9812,Cowpage Court,76502,31.1238808,-97.4467944
9808,Cowpage Court,76502,31.1238390,-97.4465908
9804,Cowpage Court,76502,31.1237808,-97.4463896
9730,Cowpage Court,76502,31.1237218,-97.4461702
9726,Cowpage Court,76502,31.1237254,-97.4459480
9722,Cowpage Court,76502,31.1237310,-97.4457270
9718,Cowpage Court,76502,31.1236865,-97.4454829
9716,Cowpage Court,76502,31.1234349,-97.4453477
9715,Cowpage Court,76502,31.1232529,-97.4454592
9719,Cowpage Court,76502,31.1232049,-97.4457287
9723,Cowpage Court,76502,31.1232473,-97.4459552
9727,Cowpage Court,76502,31.1232729,-97.4461422
0731,Cowpage Court,76502,31.1233057,-97.4463612
9803,Cowpage Court,76502,31.1233569,-97.4465636
9807,Cowpage Court,76502,31.1234041,-97.4467667
9811,Cowpage Court,76502,31.1234587,-97.4469567
9815,Cowpage Court,76502,31.1234976,-97.4471647
9819,Cowpage Court,76502,31.1235537,-97.4473607
9819,River Land Court,76502,31.1243170,-97.4470629
9815,River Land Court,76502,31.1242637,-97.4468639
9811,River Land Court,76502,31.1242081,-97.4466698
9807,River Land Court,76502,31.1241666,-97.4464653
9803,River Land Court,76502,31.1240810,-97.4462900
9731,River Land Court,76502,31.1240244,-97.4459957
9727,River Land Court,76502,31.1240806,-97.4456951
9728,River Land Court,76502,31.1243142,-97.4456917
9730,River Land Court,76502,31.1245353,-97.4458468
9804,River Land Court,76502,31.1245775,-97.4461173
9808,River Land Court,76502,31.1245991,-97.4463027
9812,River Land Court,76502,31.1246475,-97.4464993
9816,River Land Court,76502,31.1247062,-97.4467054
9820,River Land Court,76502,31.1247287,-97.4468802
120,Peanut Drive,76502,31.1233037,-97.4479430
124,Peanut Drive,76502,31.1234761,-97.4478957
208,Peanut Drive,76502,31.1236452,-97.4478370
212,Peanut Drive,76502,31.1238222,-97.4477653
216,Peanut Drive,76502,31.1239891,-97.4476942
224,Peanut Drive,76502,31.1241568,-97.4476392
228,Peanut Drive,76502,31.1243266,-97.4475618
304,Peanut Drive,76502,31.1244914,-97.4474998
310,Peanut Drive,76502,31.1246684,-97.4474464
316,Peanut Drive,76502,31.1248259,-97.4473570
320,Peanut Drive,76502,31.1250580,-97.4473206
324,Peanut Drive,76502,31.1252802,-97.4474025
328,Peanut Drive,76502,31.1254485,-97.4475045
332,Peanut Drive,76502,31.1256090,-97.4475835
336,Peanut Drive,76502,31.1257549,-97.4476790
337,Peanut Drive,76502,31.1259778,-97.4471830
333,Peanut Drive,76502,31.1258142,-97.4470972
329,Peanut Drive,76502,31.1256586,-97.4470214
325,Peanut Drive,76502,31.1254894,-97.4469032
323,Peanut Drive,76502,31.1253274,-97.4468397
321,Peanut Drive,76502,31.1251461,-97.4467719
319,Peanut Drive,76502,31.1249900,-97.4467805
120,Big Timber Drive,76502,31.1235202,-97.4488439
121,Big Timber Drive,76502,31.1234052,-97.4483521
125,Big Timber Drive,76502,31.1235658,-97.4482775
124,Big Timber Drive,76502,31.1236974,-97.4487730
207,Big Timber Drive,76502,31.1237341,-97.4482115
208,Big Timber Drive,76502,31.1238699,-97.4487204
212,Big Timber Drive,76502,31.1240423,-97.4486591
211,Big Timber Drive,76502,31.1238959,-97.4481475
215,Big Timber Drive,76502,31.1240496,-97.4480759
216,Big Timber Drive,76502,31.1242145,-97.4486000
223,Big Timber Drive,76502,31.1242216,-97.4480333
224,Big Timber Drive,76502,31.1243593,-97.4485550
227,Big Timber Drive,76502,31.1243827,-97.4479781
228,Big Timber Drive,76502,31.1245547,-97.4484734
303,Big Timber Drive,76502,31.1245360,-97.4479026
304,Big Timber Drive,76502,31.1247206,-97.4483944
309,Big Timber Drive,76502,31.1247077,-97.4478452
313,Big Timber Drive,76502,31.1248905,-97.4477908
312,Big Timber Drive,76502,31.1249588,-97.4483109
317,Big Timber Drive,76502,31.1250953,-97.4477836
320,Big Timber Drive,76502,31.1251825,-97.4483805
321,Big Timber Drive,76502,31.1252951,-97.4478510
326,Big Timber Drive,76502,31.1253851,-97.4484650
325,Big Timber Drive,76502,31.1254589,-97.4479304
329,Big Timber Drive,76502,31.1255981,-97.4480192
121,Starlight Drive,76502,31.1236322,-97.4492653
125,Starlight Drive,76502,31.1237965,-97.4491621
207,Starlight Drive,76502,31.1239653,-97.4490856
211,Starlight Drive,76502,31.1241418,-97.4490355
217,Starlight Drive,76502,31.1243048,-97.4489619
223,Starlight Drive,76502,31.1244679,-97.4489075
227,Starlight Drive,76502,31.1246550,-97.4488432
305,Starlight Drive,76502,31.1248195,-97.4487855
313,Starlight Drive,76502,31.1249981,-97.4486891
112,Starlight Drive,76502,31.1234209,-97.4499173
116,Starlight Drive,76502,31.1236031,-97.4498452
120,Starlight Drive,76502,31.1237635,-97.4497748
124,Starlight Drive,76502,31.1238918,-97.4497246
204,Starlight Drive,76502,31.1240175,-97.4496388
208,Starlight Drive,76502,31.1241520,-97.4496111
212,Starlight Drive,76502,31.1242830,-97.4495621
216,Starlight Drive,76502,31.1244195,-97.4495261
220,Starlight Drive,76502,31.1245418,-97.4494456
228,Starlight Drive,76502,31.1248103,-97.4493721
304,Starlight Drive,76502,31.1249401,-97.4493336
308,Starlight Drive,76502,31.1250682,-97.4492666
312,Starlight Drive,76502,31.1251991,-97.4492115
316,Starlight Drive,76502,31.1253339,-97.4491656
320,Starlight Drive,76502,31.1254812,-97.4490924
324,Starlight Drive,76502,31.1256208,-97.4489542
224,Starlight Drive,76502,31.1246714,-97.4494038
404,Big Timber Drive,76502,31.1257624,-97.4486973
408,Big Timber Drive,76502,31.1258792,-97.4487857
412,Big Timber Drive,76502,31.1259801,-97.4489119
416,Big Timber Drive,76502,31.1261478,-97.4489766
420,Big Timber Drive,76502,31.1263278,-97.4489344
421,Big Timber Drive,76502,31.1264090,-97.4487750
419,Big Timber Drive,76502,31.1264509,-97.4485842
417,Big Timber Drive,76502,31.1263412,-97.4484066
413,Big Timber Drive,76502,31.1262033,-97.4483164
409,Big Timber Drive,76502,31.1260737,-97.4482847
405,Big Timber Drive,76502,31.1259468,-97.4482109
406,Peanut Drive,76502,31.1261023,-97.4478731
410,Peanut Drive,76502,31.1262122,-97.4479374
414,Peanut Drive,76502,31.1263360,-97.4480086
418,Peanut Drive,76502,31.1264617,-97.4480858
422,Peanut Drive,76502,31.1265920,-97.4481224
504,Peanut Drive,76502,31.1267129,-97.4482200
508,Peanut Drive,76502,31.1268316,-97.4482944
512,Peanut Drive,76502,31.1269636,-97.4483604
516,Peanut Drive,76502,31.1270494,-97.4485031
520,Peanut Drive,76502,31.1272069,-97.4485518
524,Peanut Drive,76502,31.1274134,-97.4485156
526,Peanut Drive,76502,31.1275712,-97.4483934
525,Peanut Drive,76502,31.1275498,-97.4481756
521,Peanut Drive,76502,31.1274598,-97.4479988
517,Peanut Drive,76502,31.1272990,-97.4478998
513,Peanut Drive,76502,31.1271478,-97.4479037
509,Peanut Drive,76502,31.1270420,-97.4478141
505,Peanut Drive,76502,31.1269159,-97.4477425
423,Peanut Drive,76502,31.1267951,-97.4476846
419,Peanut Drive,76502,31.1266564,-97.4476282
415,Peanut Drive,76502,31.1265402,-97.4475282
411,Peanut Drive,76502,31.1264079,-97.4474651
407,Peanut Drive,76502,31.1262967,-97.4473859
432,Weeping Willow Drive,76502,31.1261184,-97.4468567
438,Weeping Willow Drive,76502,31.1259648,-97.4467517
424,Weeping Willow Drive,76502,31.1258046,-97.4466542
420,Weeping Willow Drive,76502,31.1256431,-97.4465637
416,Weeping Willow Drive,76502,31.1254705,-97.4464549
416,Weeping Willow Drive,76502,31.1252668,-97.4464065
408,Weeping Willow Drive,76502,31.1250591,-97.4463624
406,Weeping Willow Drive,76502,31.1248807,-97.4461263
405,Weeping Willow Drive,76502,31.1249151,-97.4458328
407,Weeping Willow Drive,76502,31.1252062,-97.4457039
409,Weeping Willow Drive,76502,31.1253609,-97.4457590
413,Weeping Willow Drive,76502,31.1255127,-97.4459171
417,Weeping Willow Drive,76502,31.1256869,-97.4460081
421,Weeping Willow Drive,76502,31.1258495,-97.4460944
425,Weeping Willow Drive,76502,31.1260113,-97.4461785
429,Weeping Willow Drive,76502,31.1261692,-97.4462812
433,Weeping Willow Drive,76502,31.1263162,-97.4463647
504,Weeping Willow Drive,76502,31.1264852,-97.4470666
508,Weeping Willow Drive,76502,31.1266703,-97.4471670
512,Weeping Willow Drive,76502,31.1268630,-97.4472281
516,Weeping Willow Drive,76502,31.1270411,-97.4473598
520,Weeping Willow Drive,76502,31.1272227,-97.4474824
505,Weeping Willow Drive,76502,31.1267299,-97.4465928
509,Weeping Willow Drive,76502,31.1269032,-97.4467092
513,Weeping Willow Drive,76502,31.1270856,-97.4467957
517,Weeping Willow Drive,76502,31.1272715,-97.4469192
524,Weeping Willow Drive,76502,31.1274006,-97.4476045
521,Weeping Willow Drive,76502,31.1274424,-97.4470545
525,Weeping Willow Drive,76502,31.1276297,-97.4471520
604,Weeping Willow Drive,76502,31.1275809,-97.4477019
605,Weeping Willow Drive,76502,31.1278279,-97.4472351
608,Weeping Willow Drive,76502,31.1277696,-97.4478074
609,Weeping Willow Drive,76502,31.1280144,-97.4473240
612,Weeping Willow Drive,76502,31.1279657,-97.4478802
613,Weeping Willow Drive,76502,31.1281960,-97.4474576
617,Weeping Willow Drive,76502,31.1284123,-97.4475082
619,Weeping Willow Drive,76502,31.1286096,-97.4476882
620,Weeping Willow Drive,76502,31.1285975,-97.4479445
618,Weeping Willow Drive,76502,31.1283740,-97.4481588
616,Weeping Willow Drive,76502,31.1281226,-97.4480608
505,Pumpkin Drive,76502,31.1257225,-97.4453086
508,Pumpkin Drive,76502,31.1258231,-97.4455555
512,Pumpkin Drive,76502,31.1261069,-97.4455392
516,Pumpkin Drive,76502,31.1262817,-97.4454358
520,Pumpkin Drive,76502,31.1264765,-97.4453548
524,Pumpkin Drive,76502,31.1266692,-97.4452627
528,Pumpkin Drive,76502,31.1268464,-97.4451945
509,Pumpkin Drive,76502,31.1258377,-97.4449980
513,Pumpkin Drive,76502,31.1260487,-97.4449360
517,Pumpkin Drive,76502,31.1262484,-97.4448791
521,Pumpkin Drive,76502,31.1264429,-97.4447886
525,Pumpkin Drive,76502,31.1266385,-97.4447152
529,Pumpkin Drive,76502,31.1268324,-97.4446303
603,Pumpkin Drive,76502,31.1270312,-97.4445668
604,Pumpkin Drive,76502,31.1272348,-97.4450530
608,Pumpkin Drive,76502,31.1274199,-97.4449676
607,Pumpkin Drive,76502,31.1272256,-97.4444950
611,Pumpkin Drive,76502,31.1274253,-97.4444239
612,Pumpkin Drive,76502,31.1276208,-97.4449010
615,Pumpkin Drive,76502,31.1276157,-97.4443287
616,Pumpkin Drive,76502,31.1278092,-97.4448218
620,Pumpkin Drive,76502,31.1280065,-97.4447348
619,Pumpkin Drive,76502,31.1278129,-97.4442590
704,Pumpkin Drive,76502,31.1282027,-97.4446630
706,Pumpkin Drive,76502,31.1284214,-97.4446468
710,Pumpkin Drive,76502,31.1286395,-97.4445411
711,Pumpkin Drive,76502,31.1286781,-97.4441663
709,Pumpkin Drive,76502,31.1284613,-97.4439559
707,Pumpkin Drive,76502,31.1281926,-97.4440468
703,Pumpkin Drive,76502,31.1280052,-97.4441685
602,Sugar Brook Drive,76502,31.1271285,-97.4462205
604,Sugar Brook Drive,76502,31.1272446,-97.4463346
606,Sugar Brook Drive,76502,31.1273397,-97.4464682
608,Sugar Brook Drive,76502,31.1274777,-97.4465646
610,Sugar Brook Drive,76502,31.1275865,-97.4466759
612,Sugar Brook Drive,76502,31.1277263,-97.4467135
614,Sugar Brook Drive,76502,31.1278487,-97.4467837
616,Sugar Brook Drive,76502,31.1279622,-97.4468753
618,Sugar Brook Drive,76502,31.1280808,-97.4469555
620,Sugar Brook Drive,76502,31.1282112,-97.4470095
622,Sugar Brook Drive,76502,31.1283337,-97.4470936
624,Sugar Brook Drive,76502,31.1284481,-97.4471640
623,Sugar Brook Drive,76502,31.1286194,-97.4466966
621,Sugar Brook Drive,76502,31.1285098,-97.4466020
619,Sugar Brook Drive,76502,31.1283878,-97.4465156
617,Sugar Brook Drive,76502,31.1282627,-97.4464638
615,Sugar Brook Drive,76502,31.1281385,-97.4463767
613,Sugar Brook Drive,76502,31.1280225,-97.4463230
611,Sugar Brook Drive,76502,31.1278929,-97.4462463
609,Sugar Brook Drive,76502,31.1277689,-97.4461793
605,Sugar Brook Drive,76502,31.1276429,-97.4460815
1120,Sugar Brook Drive,76502,31.1335760,-97.4456978
1124,Sugar Brook Drive,76502,31.1337430,-97.4456220
1123,Sugar Brook Drive,76502,31.1335906,-97.4451036
1119,Sugar Brook Drive,76502,31.1334211,-97.4451890
1124,Evergreen Farm Drive,76502,31.1334863,-97.4447497
1120,Evergreen Farm Drive,76502,31.1333136,-97.4447879
1020,Evergreen Farm Drive,76502,31.1323026,-97.4451853
1016,Evergreen Farm Drive,76502,31.1321422,-97.4452820
1012,Evergreen Farm Drive,76502,31.1319718,-97.4453514
1008,Evergreen Farm Drive,76502,31.1317984,-97.4454261
1004,Evergreen Farm Drive,76502,31.1316300,-97.4454587
922,Evergreen Farm Drive,76502,31.1314579,-97.4455358
918,Evergreen Farm Drive,76502,31.1312942,-97.4456131
912,Evergreen Farm Drive,76502,31.1309410,-97.4457724
908,Evergreen Farm Drive,76502,31.1307758,-97.4458170
904,Evergreen Farm Drive,76502,31.1306101,-97.4458509
824,Evergreen Farm Drive,76502,31.1304627,-97.4459280
820,Evergreen Farm Drive,76502,31.1303030,-97.4459806
816,Evergreen Farm Drive,76502,31.1301501,-97.4460543
812,Evergreen Farm Drive,76502,31.1299901,-97.4461194
808,Evergreen Farm Drive,76502,31.1298297,-97.4461938
804,Evergreen Farm Drive,76502,31.1296759,-97.4462356
724,Evergreen Farm Drive,76502,31.1295301,-97.4463315
720,Evergreen Farm Drive,76502,31.1293740,-97.4463856
716,Evergreen Farm Drive,76502,31.1292201,-97.4464879
712,Evergreen Farm Drive,76502,31.1289976,-97.4464498
708,Evergreen Farm Drive,76502,31.1288597,-97.4462541
707,Evergreen Farm Drive,76502,31.1288762,-97.4460229
711,Evergreen Farm Drive,76502,31.1290348,-97.4458786
719,Evergreen Farm Drive,76502,31.1292235,-97.4458472
723,Evergreen Farm Drive,76502,31.1293801,-97.4458264
803,Evergreen Farm Drive,76502,31.1295411,-97.4457501
807,Evergreen Farm Drive,76502,31.1296991,-97.4456996
811,Evergreen Farm Drive,76502,31.1298515,-97.4456232
815,Evergreen Farm Drive,76502,31.1300075,-97.4455781
819,Evergreen Farm Drive,76502,31.1301623,-97.4455069
823,Evergreen Farm Drive,76502,31.1303201,-97.4454364
903,Evergreen Farm Drive,76502,31.1304751,-97.4453906
907,Evergreen Farm Drive,76502,31.1306325,-97.4453367
911,Evergreen Farm Drive,76502,31.1307880,-97.4452673
919,Evergreen Farm Drive,76502,31.1311463,-97.4451016
923,Evergreen Farm Drive,76502,31.1313250,-97.4450692
1003,Evergreen Farm Drive,76502,31.1314792,-97.4449805
1007,Evergreen Farm Drive,76502,31.1316550,-97.4449404
1011,Evergreen Farm Drive,76502,31.1318092,-97.4448558
1015,Evergreen Farm Drive,76502,31.1319738,-97.4447825
1019,Evergreen Farm Drive,76502,31.1321416,-97.4447244
1023,Evergreen Farm Drive,76502,31.1322999,-97.4446560
1103,Evergreen Farm Drive,76502,31.1324704,-97.4446013
1107,Evergreen Farm Drive,76502,31.1326390,-97.4445389
1111,Evergreen Farm Drive,76502,31.1327942,-97.4444428
1115,Evergreen Farm Drive,76502,31.1329652,-97.4444082
1119,Evergreen Farm Drive,76502,31.1331285,-97.4443331
1123,Evergreen Farm Drive,76502,31.1332798,-97.4442673
1127,Evergreen Farm Drive,76502,31.1334503,-97.4442055
9603,Orion Drive,76502,31.1325371,-97.4402971
9607,Orion Drive,76502,31.1325903,-97.4404890
9611,Orion Drive,76502,31.1326521,-97.4406896
9615,Orion Drive,76502,31.1327141,-97.4408830
9619,Orion Drive,76502,31.1327551,-97.4410827
9623,Orion Drive,76502,31.1328143,-97.4412775
9703,Orion Drive,76502,31.1328772,-97.4414651
9707,Orion Drive,76502,31.1329330,-97.4416614
9803,Orion Drive,76502,31.1329778,-97.4418644
9807,Orion Drive,76502,31.1330413,-97.4420671
9813,Orion Drive,76502,31.1331024,-97.4422567
9817,Orion Drive,76502,31.1331492,-97.4424624
9825,Orion Drive,76502,31.1332270,-97.4426532
9832,Orion Drive,76502,31.1338308,-97.4430904
9828,Orion Drive,76502,31.1337682,-97.4428803
9824,Orion Drive,76502,31.1337104,-97.4426809
9820,Orion Drive,76502,31.1336716,-97.4424795
9816,Orion Drive,76502,31.1336048,-97.4422809
9812,Orion Drive,76502,31.1335477,-97.4420831
9808,Orion Drive,76502,31.1335003,-97.4418936
9804,Orion Drive,76502,31.1334491,-97.4416921
9708,Orion Drive,76502,31.1333933,-97.4414954
9704,Orion Drive,76502,31.1333273,-97.4412990
9624,Orion Drive,76502,31.1332793,-97.4411008
9620,Orion Drive,76502,31.1332243,-97.4408997
9616,Orion Drive,76502,31.1331536,-97.4407012
9612,Orion Drive,76502,31.1331042,-97.4405026
9604,Orion Drive,76502,31.1330341,-97.4402965
9904,Orion Drive,76502,31.1339687,-97.4439264
9928,Orion Drive,76502,31.1340693,-97.4452335
10004,Orion Drive,76502,31.1341366,-97.4454233
10008,Orion Drive,76502,31.1341680,-97.4456229
10012,Orion Drive,76502,31.1342458,-97.4458126
10007,Orion Drive,76502,31.1337809,-97.4459256
10013,Orion Drive,76502,31.1338636,-97.4461220
10105,Orion Drive,76502,31.1340136,-97.4463386
10109,Orion Drive,76502,31.1342349,-97.4463135
10113,Orion Drive,76502,31.1343920,-97.4462450
10117,Orion Drive,76502,31.1345679,-97.4462090
10123,Orion Drive,76502,31.1347334,-97.4461223
10127,Orion Drive,76502,31.1349085,-97.4460879
10203,Orion Drive,76502,31.1350689,-97.4459784
10207,Orion Drive,76502,31.1352481,-97.4459409
10211,Orion Drive,76502,31.1353999,-97.4458804
10215,Orion Drive,76502,31.1355434,-97.4458210
10219,Orion Drive,76502,31.1356779,-97.4457406
10221,Orion Drive,76502,31.1358292,-97.4456972
10303,Orion Drive,76502,31.1359753,-97.4456553
10307,Orion Drive,76502,31.1361163,-97.4455807
10311,Orion Drive,76502,31.1362595,-97.4455120
9831,Orion Drive,76502,31.1333664,-97.4432561
10315,Orion Drive,76502,31.1366035,-97.4453959
10319,Orion Drive,76502,31.1367460,-97.4453070
10323,Orion Drive,76502,31.1369042,-97.4452732
10405,Orion Drive,76502,31.1370558,-97.4451887
10409,Orion Drive,76502,31.1372216,-97.4451496
10413,Orion Drive,76502,31.1373648,-97.4450470
10417,Orion Drive,76502,31.1375285,-97.4449964
10421,Orion Drive,76502,31.1376794,-97.4449343
10425,Orion Drive,76502,31.1378453,-97.4449407
10505,Orion Drive,76502,31.1380323,-97.4448417
10509,Orion Drive,76502,31.1381022,-97.4446164
10508,Orion Drive,76502,31.1380392,-97.4443259
10504,Orion Drive,76502,31.1378133,-97.4442958
10426,Orion Drive,76502,31.1376224,-97.4443719
10422,Orion Drive,76502,31.1374834,-97.4444824
10025,Birch Tree Drive,76502,31.1345636,-97.4456854
10021,Birch Tree Drive,76502,31.1345156,-97.4454906
10017,Birch Tree Drive,76502,31.1344641,-97.4452829
10024,Birch Tree Drive,76502,31.1349896,-97.4455141
10020,Birch Tree Drive,76502,31.1349275,-97.4453187
10016,Birch Tree Drive,76502,31.1348889,-97.4451230
100012,Birch Tree Drive,76502,31.1348188,-97.4449297
10028,Sunny Side Lane,76502,31.1357601,-97.4452275
10029,Sunny Side Lane,76502,31.1353214,-97.4453817
10025,Sunny Side Lane,76502,31.1352951,-97.4452043
10021,Sunny Side Lane,76502,31.1352246,-97.4450291
10024,Sunny Side Lane,76502,31.1357075,-97.4450456
10020,Sunny Side Lane,76502,31.1356608,-97.4448631
10016,Sunny Side Lane,76502,31.1355958,-97.4446805
10017,Sunny Side Lane,76502,31.1351945,-97.4448380
10012,Sunny Side Lane,76502,31.1355409,-97.4445062
10013,Sunny Side Lane,76502,31.1351206,-97.4446661
1008,Sunny Side Lane,76502,31.1354999,-97.4443221
10009,Sunny Side Lane,76502,31.1350624,-97.4444936
10004,Sunny Side Lane,76502,31.1354688,-97.4441323
10005,Sunny Side Lane,76502,31.1350100,-97.4443259
9908,Sunny Side Lane,76502,31.1354343,-97.4439151
9909,Sunny Side Lane,76502,31.1349086,-97.4441442
9905,Sunny Side Lane,76502,31.1349613,-97.4438477
9904,Sunny Side Lane,76502,31.1352314,-97.4437069
10032,Smock Mill Lane,76502,31.1365148,-97.4449493
10028,Smock Mill Lane,76502,31.1364491,-97.4448004
10024,Smock Mill Lane,76502,31.1364261,-97.4446538
10020,Smock Mill Lane,76502,31.1363895,-97.4444940
10012,Smock Mill Lane,76502,31.1362711,-97.4441899
10016,Smock Mill Lane,76502,31.1363411,-97.4443456
10008,Smock Mill Lane,76502,31.1362488,-97.4440448
10004,Smock Mill Lane,76502,31.1361926,-97.4438882
9912,Smock Mill Lane,76502,31.1362027,-97.4437081
9908,Smock Mill Lane,76502,31.1361109,-97.4435156
9904,Smock Mill Lane,76502,31.1359415,-97.4434412
9905,Smock Mill Lane,76502,31.1357370,-97.4435031
9909,Smock Mill Lane,76502,31.1356537,-97.4436820
9913,Smock Mill Lane,76502,31.1357002,-97.4439105
10005,Smock Mill Lane,76502,31.1357791,-97.4440530
10013,Smock Mill Lane,76502,31.1358734,-97.4443610
10017,Smock Mill Lane,76502,31.1358972,-97.4445142
10021,Smock Mill Lane,76502,31.1359577,-97.4446648
10025,Smock Mill Lane,76502,31.1359869,-97.4448174
10029,Smock Mill Lane,76502,31.1360458,-97.4449645
10033,Smock Mill Lane,76502,31.1360975,-97.4450983
10009,Smock Mill Lane,76502,31.1358261,-97.4442047
10028,Fantail Lane,76502,31.1372555,-97.4446430
10024,Fantail Lane,76502,31.1372139,-97.4445018
10020,Fantail Lane,76502,31.1371841,-97.4443434
10016,Fantail Lane,76502,31.1371156,-97.4441976
10012,Fantail Lane,76502,31.1370954,-97.4440448
10008,Fantail Lane,76502,31.1370547,-97.4438897
10004,Fantail Lane,76502,31.1370444,-97.4437254
9908,Fantail Lane,76502,31.1369918,-97.4435185
9904,Fantail Lane,76502,31.1367913,-97.4433762
9905,Fantail Lane,76502,31.1365656,-97.4434337
9909,Fantail Lane,76502,31.1364893,-97.4437273
10005,Fantail Lane,76502,31.1365383,-97.4439229
10009,Fantail Lane,76502,31.1366376,-97.4440454
10013,Fantail Lane,76502,31.1366924,-97.4441975
10017,Fantail Lane,76502,31.1367034,-97.4443644
10021,Fantail Lane,76502,31.1367810,-97.4444948
10025,Fantail Lane,76502,31.1367867,-97.4446675
10029,Fantail Lane,76502,31.1368499,-97.4448092
1204,Starlight Drive,76502,31.1341663,-97.4434861
1209,Starlight Drive,76502,31.1340578,-97.4429645
1520,Starlight Drive,76502,31.1370266,-97.4423804
1607,Starlight Drive,76502,31.1373258,-97.4416791
1123,Starlight Drive,76502,31.1331221,-97.4433241
1132,Starlight Drive,76502,31.1335133,-97.4437674
603,Starlight Drive,76502,31.1273555,-97.4456048
607,Starlight Drive,76502,31.1274863,-97.4455753
611,Starlight Drive,76502,31.1276108,-97.4454929
615,Starlight Drive,76502,31.1277499,-97.4454653
619,Starlight Drive,76502,31.1278741,-97.4454002
623,Starlight Drive,76502,31.1280038,-97.4453490
627,Starlight Drive,76502,31.1281345,-97.4452985
703,Starlight Drive,76502,31.1282722,-97.4452615
707,Starlight Drive,76502,31.1283957,-97.4451966
711,Starlight Drive,76502,31.1285316,-97.4451554
715,Starlight Drive,76502,31.1286618,-97.4451046
719,Starlight Drive,76502,31.1287839,-97.4450373
723,Starlight Drive,76502,31.1289128,-97.4449771
727,Starlight Drive,76502,31.1290471,-97.4449579
731,Starlight Drive,76502,31.1291753,-97.4448869
803,Starlight Drive,76502,31.1293065,-97.4448348
807,Starlight Drive,76502,31.1294473,-97.4447982
811,Starlight Drive,76502,31.1295740,-97.4447404
815,Starlight Drive,76502,31.1296974,-97.4446799
819,Starlight Drive,76502,31.1298337,-97.4446510
823,Starlight Drive,76502,31.1299576,-97.4445609
827,Starlight Drive,76502,31.1300934,-97.4445475
903,Starlight Drive,76502,31.1302365,-97.4444741
907,Starlight Drive,76502,31.1304121,-97.4444206
911,Starlight Drive,76502,31.1305821,-97.4443558
915,Starlight Drive,76502,31.1307405,-97.4442750
919,Starlight Drive,76502,31.1309116,-97.4442081
923,Starlight Drive,76502,31.1310863,-97.4441446
1003,Starlight Drive,76502,31.1312441,-97.4440618
1007,Starlight Drive,76502,31.1314180,-97.4440036
1011,Starlight Drive,76502,31.1315833,-97.4439181
1015,Starlight Drive,76502,31.1317572,-97.4438726
1019,Starlight Drive,76502,31.1319282,-97.4437966
1023,Starlight Drive,76502,31.1320887,-97.4437270
1103,Starlight Drive,76502,31.1322745,-97.4436822
1107,Starlight Drive,76502,31.1324270,-97.4435800
1111,Starlight Drive,76502,31.1325964,-97.4435239
1115,Starlight Drive,76502,31.1327783,-97.4434754
1119,Starlight Drive,76502,31.1329321,-97.4433807
616,Starlight Drive,76502,31.1280683,-97.4458753
622,Starlight Drive,76502,31.1282142,-97.4458183
626,Starlight Drive,76502,31.1283477,-97.4457960
704,Starlight Drive,76502,31.1284701,-97.4457192
708,Starlight Drive,76502,31.1285996,-97.4456580
716,Starlight Drive,76502,31.1288702,-97.4455956
720,Starlight Drive,76502,31.1289901,-97.4455017
724,Starlight Drive,76502,31.1291281,-97.4454988
728,Starlight Drive,76502,31.1292575,-97.4454363
804,Starlight Drive,76502,31.1293879,-97.4453953
808,Starlight Drive,76502,31.1295170,-97.4453282
812,Starlight Drive,76502,31.1296490,-97.4452848
816,Starlight Drive,76502,31.1297797,-97.4452356
820,Starlight Drive,76502,31.1299102,-97.4451826
824,Starlight Drive,76502,31.1300404,-97.4451272
828,Starlight Drive,76502,31.1301674,-97.4450716
832,Starlight Drive,76502,31.1302995,-97.4450266
904,Starlight Drive,76502,31.1304298,-97.4449712
908,Starlight Drive,76502,31.1305639,-97.4449242
912,Starlight Drive,76502,31.1306879,-97.4448688
918,Starlight Drive,76502,31.1310335,-97.4447069
922,Starlight Drive,76502,31.1312067,-97.4446813
1004,Starlight Drive,76502,31.1313694,-97.4446011
1008,Starlight Drive,76502,31.1315376,-97.4445291
1012,Starlight Drive,76502,31.1317065,-97.4444714
1016,Starlight Drive,76502,31.1318700,-97.4443833
1020,Starlight Drive,76502,31.1320326,-97.4443465
1024,Starlight Drive,76502,31.1321970,-97.4442581
1104,Starlight Drive,76502,31.1323673,-97.4442038
1108,Starlight Drive,76502,31.1325296,-97.4441437
1112,Starlight Drive,76502,31.1326933,-97.4440799
1116,Starlight Drive,76502,31.1328530,-97.4439681
1120,Starlight Drive,76502,31.1330191,-97.4439346
1124,Starlight Drive,76502,31.1331800,-97.4438809
1128,Starlight Drive,76502,31.1333282,-97.4437810
1306,Starlight Drive,76502,31.1343549,-97.4434342
1310,Starlight Drive,76502,31.1345163,-97.4433570
1314,Starlight Drive,76502,31.1346868,-97.4432980
1318,Starlight Drive,76502,31.1348540,-97.4432177
1322,Starlight Drive,76502,31.1350239,-97.4431644
1326,Starlight Drive,76502,31.1351933,-97.4431058
1404,Starlight Drive,76502,31.1353453,-97.4430255
1408,Starlight Drive,76502,31.1355258,-97.4429827
1412,Starlight Drive,76502,31.1356900,-97.4428933
1416,Starlight Drive,76502,31.1358579,-97.4428477
1420,Starlight Drive,76502,31.1360150,-97.4427362
1424,Starlight Drive,76502,31.1361858,-97.4427041
1504,Starlight Drive,76502,31.1363574,-97.4426564
1508,Starlight Drive,76502,31.1365233,-97.4425836
1512,Starlight Drive,76502,31.1366800,-97.4425052
1516,Starlight Drive,76502,31.1368548,-97.4424578
1307,Starlight Drive,76502,31.1342262,-97.4428837
1311,Starlight Drive,76502,31.1343888,-97.4428210
1315,Starlight Drive,76502,31.1345707,-97.4427608
1319,Starlight Drive,76502,31.1347377,-97.4426960
712,Starlight Drive,76502,31.1287364,-97.4456379
1327,Starlight Drive,76502,31.1350742,-97.4425562
1405,Starlight Drive,76502,31.1352494,-97.4424932
1409,Starlight Drive,76502,31.1354184,-97.4424221
1413,Starlight Drive,76502,31.1355861,-97.4423662
1417,Starlight Drive,76502,31.1357561,-97.4422996
1421,Starlight Drive,76502,31.1359230,-97.4422309
1425,Starlight Drive,76502,31.1360988,-97.4421678
1505,Starlight Drive,76502,31.1362684,-97.4421184
1509,Starlight Drive,76502,31.1364387,-97.4420355
1513,Starlight Drive,76502,31.1365988,-97.4419556
1517,Starlight Drive,76502,31.1367748,-97.4419039
1521,Starlight Drive,76502,31.1369399,-97.4418268
1603,Starlight Drive,76502,31.1371247,-97.4417636
1323,Starlight Drive,76502,31.1349049,-97.4426170
9909,Maple Wood Court,76502,31.1370158,-97.4426978
9913,Maple Wood Court,76502,31.1371358,-97.4429246
9917,Maple Wood Court,76502,31.1373622,-97.4430069
9914,Maple Wood Court,76502,31.1375808,-97.4428103
9910,Maple Wood Court,76502,31.1375854,-97.4425537
9908,Maple Wood Court,76502,31.1374948,-97.4423717
9904,Maple Wood Court,76502,31.1374185,-97.4421706
805,North 3rd Street,76501,31.1051181,-97.3398277
114,North 31st Street,76504,31.1030704,-97.3572470
616,North Main Street,76501,31.1031427,-97.3391467
117,North 1st Street,76501,31.0981480,-97.3413819
15,North 7th Street,76501-4242,31.0982220,-97.3445612
1195,North Pea Ridge Road,76502,31.1316363,-97.4245950
2510,South 5th Street,76502,31.0726837,-97.3536365
301,West Avenue A,76501,31.0960968,-97.3450501
2609,North 15th Street,76501,31.1226660,-97.3392736
203,West King Avenue,76501,31.1077140,-97.3394450
305,West Elm Avenue,76501,31.1033343,-97.3453600
201,West King Avenue,76501,31.1076983,-97.3393531
1020,North 3rd Street,76501,31.1076074,-97.3394026
2011,North 3rd Street,76501,31.1162195,-97.3355415
201,North General Bruce Drive,76504,31.1042019,-97.3580007
111,North General Bruce Drive,76504,31.1032036,-97.3579209
209,East Avenue A,76501,31.0947363,-97.3392124
254,Green Hollow Drive,76502,31.1202605,-97.4187919
5505,South General Bruce Drive,76502,31.0801727,-97.4102692
4025,South General Bruce Drive,76502,31.0883744,-97.3916552
