House number,Street name,Postal code,Latitude,Longitude
107,South Bowie Drive,76086,32.7577767,-97.8140891
201,Case Street,76086,32.7602940,-97.8157936
1201,West I-20,76087,32.7275548,-97.8245027
601,Palo Pinto Street,76086,32.7579629,-97.8057973
417,Palo Pinto Street,76086-4247,32.7585908,-97.8037116
1964,South Main Street,76067,32.7307589,-97.7916373
1400,Texas Drive,76086,32.7414506,-97.7839594
712,Sage Brush Drive,76087,32.7754403,-97.7198033
1500,West Ball Street,76086,32.7641126,-97.8261147
937,Hilltop Drive,76086,32.7459139,-97.7784644
891,Eureka Street,76086,32.7496264,-97.7819487
321,W I 20,76087,32.7258266,-97.7997253
1899,Ric Williamson Memorial Highway,76088,32.7857506,-97.8094957
220,Adams Drive,76086,32.7315402,-97.7883896
1816,Barnett Drive,76087,32.7409326,-97.7464399
2106,Timber Cove Court,76087,32.7340016,-97.7510695
201,North Main Street,76086,32.7606595,-97.7975897
215,North Main Street,76086,32.7611821,-97.7976131
318,Santa Fe Dr,76086,32.7550291,-97.7904439
601,Palo Pinto Street,76086,32.7581948,-97.8059453
123,North Main Street,76086,32.7604190,-97.7975697
115,North Weiland Street,76086,32.7600023,-97.7862982
1201,Interstate 20,76087,32.7274534,-97.8246717
2082,Mineral Wells Highway,76088,32.7629912,-97.8349002
109,York Avenue,76086,32.7593778,-97.7982383
116,East Interstate 20 Frontage Road,76087,32.7283695,-97.7868538
116,East Interstate 20 Frontage Road,76087,32.7285037,-97.7861621
116,East Interstate 20 Frontage Road,76087,32.7283837,-97.7867793
116,East Interstate 20 Frontage Road,76087,32.7284127,-97.7866468
116,East Interstate 20 Frontage Road,76087,32.7286270,-97.7867757
122,East I-20,76087,32.7271011,-97.7847450
311,North Main Street,76086,32.7619970,-97.7976363
315,North Main Street,76086,32.7620984,-97.7976412
319,North Main Street,76086,32.7622150,-97.7976930
102,Houston Avenue,78067,32.7587284,-97.7983275
225,East Interstate 20,76086,32.7307626,-97.7890913
1952,South Main Street,76086,32.7312446,-97.7913302
132,East Interstate 20,76087,32.7297692,-97.7847143
1212,South Main Street,76086,32.7450764,-97.7979019
110,East Interstate 20,76086,32.7292929,-97.7870034
138,East Interstate 20 Frontage Road,76087,32.7271676,-97.7835195
122,East Interstate 20 Frontage Road,76087,32.7268432,-97.7843866
118,East Interstate 20 Frontage Road,76087,32.7264679,-97.7862104
220,West Interstate 20,76086,32.7297537,-97.7965913
1836,South Main Street,76086,32.7316086,-97.7948272
725,Adams Drive,76086,32.7333619,-97.7840632
1,Courthouse Square,76086,32.7589623,-97.7973598
128,East Interstate 20,76087,32.7296281,-97.7855946
148,East Interstate 20 Frontage Road,76087,32.7289258,-97.7824292
138,East Interstate 20 Frontage Road,76087,32.7284336,-97.7824415
225,Adams Drive,76086-6724,32.7334617,-97.7880696
138,East Interstate 20 Frontage Road,76087,32.7273799,-97.7827410
1915,Wall Street,76086,32.7325235,-97.7896478
225,Adams Drive,76086,32.7335025,-97.7884025
114,East Interstate 20,76087,32.7293103,-97.7864898
2132,Tin Top Road,76086,32.7287151,-97.7993564
225,East Interstate 20,76086,32.7307464,-97.7890231
202,Adams Drive,76086,32.7316035,-97.7897488
713,East Anderson Street,76086,32.7483807,-97.7854048
2207,Old Dennis Road,76087,32.7266424,-97.8238031
1102,Washington Drive,76086,32.7328649,-97.7803716
825,East Interstate 20,76087,32.7333566,-97.7815397
735,Adams Drive,76086,32.7332077,-97.7833140
225,East Spring Street,76086,32.7604315,-97.7940725
1502,Santa Fe Drive,76086,32.7398645,-97.7814934
2002,Clear Lake Road,76086,32.7371855,-97.7646958
117,West Columbia Avenue,76086,32.7560710,-97.7990274
216,West Interstate 20,76086,32.7286175,-97.7957949
208,West Interstate 20,76086,32.7288779,-97.7949233
202,West Interstate 20,76086,32.7296049,-97.7942518
156,West Interstate 20,76086,32.7293708,-97.7935030
140,West Interstate 20,76086,32.7295465,-97.7929705
148,West Interstate 20,76086,32.7294238,-97.7932007
1817,South Main Street,76086,32.7358025,-97.7925890
801,South Main Street,76086,32.7512212,-97.7971337
321,East Oak Street,76086,32.7575925,-97.7926137
1002,South Main Street,76086,32.7479063,-97.7979557
804,South Main Street,76086,32.7510481,-97.7977998
920,Santa Fe Drive,76086,32.7491093,-97.7848566
1513,South Main Street,76086,32.7401168,-97.7972783
1145,Santa Fe Drive,76086,32.7462232,-97.7809841
2524,South Main Street,76087,32.7276440,-97.7890270
210,Alford Drive,76087,32.7274832,-97.7907162
175,Alford Drive,76087,32.7266420,-97.7899435
150,Alford Drive,76087,32.7277045,-97.7903005
215,Alford Drive,76087,32.7268665,-97.7917995
2500,South Main Street,76087,32.7280864,-97.7895169
102,East Interstate 20,76087,32.7289315,-97.7882746
2101,Clear Lake Road,76087,32.7371570,-97.7605687
2525,South Main Street,76087,32.7280529,-97.7879862
850,East Interstate 20,76087,32.7306360,-97.7811355
704,Sage Brush Drive,76087,32.7749190,-97.7198025
725,Saddle Ridge Trail,76087,32.7760175,-97.7192705
2131,James Drive,76087,32.7609270,-97.7375450
1600,Salado Trail,76087,32.7724891,-97.7215856
1604,Salado Trail,76087,32.7723558,-97.7213672
710,Fort Worth Highway,76086,32.7582371,-97.7863257
122,Atwood Court,76086,32.7451942,-97.7427261
606,Mockingbird Lane,76086,32.7440835,-97.8138125
129,Hogle Street,76086,32.7602960,-97.7880190
1914,South Main Street,76086,32.7306271,-97.7929678
2407,South Main Street,76086,32.7312080,-97.7899849
325,East Interstate 20,76086,32.7314031,-97.7858886
315,East Interstate 20,76086,32.7311821,-97.7867764
720,Adams Drive,76086,32.7315362,-97.7852156
1814,South Main Street,76086,32.7339370,-97.7944475
1832,South Main Street,76086,32.7330347,-97.7934954
1900,South Main Street,76086,32.7325042,-97.7928448
1911,Wall Street,76086,32.7328472,-97.7900540
107,West Interstate 20 Frontage Road,76087,32.7285374,-97.7900845
107,West Interstate 20 Frontage Road,76087,32.7284542,-97.7900345
2521,South Main Street,76087,32.7282539,-97.7882797
102,East Interstate 20,76087,32.7289935,-97.7883700
425,Adams Drive,76086,32.7332041,-97.7851821
740,Adams Drive,76086,32.7316765,-97.7840854
106,East Interstate 20,76087,32.7292418,-97.7876555
201,Adams Drive,76086,32.7323206,-97.7907132
2005,South Main Street,76086,32.7317374,-97.7905254
1831,South Main Street,76086,32.7342757,-97.7931567
1710,South Main Street,76086,32.7369816,-97.7975914
2001,Santa Fe Drive,76086,32.7387341,-97.7650823
326,W Interstate 20 Frontage Road,76086,32.7289134,-97.8009627
324,I 20 Service Road,76086,32.7288857,-97.8001424
2528,South Main Street,76087,32.7268744,-97.7888831
320,Adams Drive,76086,32.7316018,-97.7872776
104,Cleburne Avenue,76086,32.7362325,-97.7974524
2029,Vanderbilt Drive,76068,32.7878915,-97.8086036
2028,Vanderbilt Drive,76068,32.7878710,-97.8076975
2141,Vanderbilt Drive,76068,32.7884248,-97.8036515
104,Lagrange Court,76088,32.7870047,-97.8082907
2137,Vanderbilt Drive,76068,32.7882745,-97.8043395
222,West Interstate 20,76086,32.7282624,-97.7976276
2104,Pepperdine Drive,76088,32.7881311,-97.8065496
1648,Ric Williamson Memorial Highway,76088,32.7823750,-97.8120386
309,Love Street,76086,32.7555543,-97.8119248
864,East Interstate 20,76087,32.7307033,-97.7800573
1537,Silverstone Drive,76087,32.7772947,-97.7236202
148,Interstate I-20 East,76087,32.7293311,-97.7826094
200,Atwood Court,76086,32.7467473,-97.7443061
213,Patriot Drive,76087,32.7169561,-97.8060190
2605,East Bankhead Drive,76087,32.7429121,-97.7428006
2113,Clear Lake Road,76087,32.7375231,-97.7587306
2133,Clear Lake Road,76087,32.7374585,-97.7589611
2452,Goodnight Ranch Drive,76087,32.7216691,-97.8297482
2448,Goodnight Ranch Drive,76087,32.7218032,-97.8296471
2444,Goodnight Ranch Drive,76087,32.7219231,-97.8295559
2440,Goodnight Ranch Drive,76087,32.7220582,-97.8294913
2436,Goodnight Ranch Drive,76087,32.7221736,-97.8294090
2428,Goodnight Ranch Drive,76087,32.7224318,-97.8292437
2432,Goodnight Ranch Drive,76087,32.7223040,-97.8293198
2424,Goodnight Ranch Drive,76087,32.7225532,-97.8291658
2420,Goodnight Ranch Drive,76087,32.7226757,-97.8290758
2445,Goodnight Ranch Drive,76087,32.7216479,-97.8291775
2441,Goodnight Ranch Drive,76087,32.7217627,-97.8290875
2437,Goodnight Ranch Drive,76087,32.7218843,-97.8289988
2433,Goodnight Ranch Drive,76087,32.7220108,-97.8289356
2429,Goodnight Ranch Drive,76087,32.7221293,-97.8288429
2425,Goodnight Ranch Drive,76087,32.7222512,-97.8287888
2456,Goodnight Ranch Drive,76087,32.7215010,-97.8297977
821,East Interstate 20,76086,32.7319538,-97.7820784
122,Atwood Court,76086,32.7452028,-97.7428838
101,College Avenue,76086,32.7587489,-97.7963963
