House number,Street name,Postal code,Latitude,Longitude
32А,улица Снегина,050059,43.2293590,76.9545015
65А,проспект Жибек Жолы,050004,43.2623799,76.9477863
121,Абылай хан даңғылы,050000,43.2490732,76.9419124
109Б,проспект Абая,050046,43.2402277,76.9063777
238,улица Майлина,050054,43.3235669,76.9781656
50,проспект Жибек Жолы,050044,43.2619515,76.9558895
101,улица Толе Би,050012,43.2538851,76.9252109
163,Әуезов көшесі,050057,43.2310220,76.9046784
292,проспект Серкебаева,050060,43.2041785,76.8995279
22,мкр. 10 А,050036,43.2157121,76.8559219
144,улица Желтоксан,050000,43.2489194,76.9407575
290,проспект Достык,050020,43.2172482,76.9652436
52/2,проспект Достык,050044,43.2616377,76.9548378
107,проспект Достык,050051,43.2244917,76.9619245
40,улица Айтиева,A05B1H4,43.2552198,76.9044550
21,Ударная улица,050008,43.2468405,76.9109410
149,улица Айманова,050059,43.2322385,76.8961458
43,проспект Достык,050010,43.2515998,76.9554607
41,проспект Серкебаева,050009,43.2456732,76.8932209
120А,проспект Рыскулова,050034,43.2760262,76.8967933
302б,улица Толе Би,050062,43.2427523,76.8476281
123,улица Шевченко,050012,43.2449627,76.9201126
77,Розыбакиев көшесі,050046,43.2352063,76.8896742
136,проспект Абая,050046,43.2379271,76.8862082
51/3,Калмаржын,050039,43.3408990,77.0095592
107,"Kurmangazy St 107, , Kazakhstan",050022,43.2435026,76.9274442
298а,проспект Серкебаева,050060,43.2019498,76.8994078
294,проспект Серкебаева,050060,43.2029747,76.8994918
296,проспект Серкебаева,050060,43.2026118,76.8995029
281,Розыбакиев көшесі,050060,43.1973808,76.8940122
281,Розыбакиев көшесі,050060,43.1981317,76.8940166
124,Назарбаев даңғылы,050000,43.2507825,76.9477445
113,улица Байтурсынова,050022,43.2377922,76.9270465
3,Свежесть,050042,43.1423621,76.9023014
3,Свежесть,050042,43.1423615,76.9021858
34А,улица Зеин Шашкина,050044,43.2192798,76.9377696
18А,Алмагуль Микрорайон,050000,43.2060140,76.9034099
62/1,улица Желтоксан,050004,43.2648577,76.9391181
56,улица Кунаева,050004,43.2638021,76.9493938
160,улица Катаева,050060,43.2326103,76.8918200
42/15,улица Тимирязева,050057,43.2176860,76.9052017
21,улица Кунаева,05000,43.2672761,76.9480110
59,Мирас,050043,43.1865754,76.8773152
48,улица Алимжанова,050002,43.2632375,76.9516669
59,улица Пушкина,050002,43.2620517,76.9525153
24,улица Зенкова,050010,43.2594195,76.9572271
45,улица Валиханова,050002,43.2625252,76.9507507
39,проспект Абая,050000,43.2427497,76.9451973
100/2,проспект Назарбаева,050000,43.2570413,76.9478327
25,улица Зенкова,050000,43.2547408,76.9566646
33/51,улица Сатпаева,050000,43.2360685,76.9086799
6,улица Гончарова,050034,43.2632802,76.8941336
8,улица Гончарова,050034,43.2635052,76.8939917
243/1,проспект Райымбека,050034,43.2653526,76.9014068
37,улица Гончарова,050034,43.2701555,76.8935818
31,улица Гончарова,050034,43.2692177,76.8935266
88,улица Крылова,050034,43.2699906,76.8888206
59,улица Гончарова,050034,43.2726033,76.8939280
31,улица Гончарова,050034,43.2692852,76.8934521
239Г,проспект Райымбека,050034,43.2645802,76.8998648
33,улица Гончарова,050034,43.2695506,76.8936089
110,улица Крылова,050034,43.2728935,76.8891998
59,улица Крылова,050034,43.2686168,76.8891421
12,улица Фёдорова,050034,43.2691773,76.8967167
13,улица Фёдорова,050034,43.2696069,76.8971565
47,улица Гончарова,050034,43.2716158,76.8938107
57А,улица Улугбека,050036,43.2279420,76.8530100
273/5,улица Толе Би,050050,43.2481933,76.8651323
59,улица Луганского,050051,43.2364130,76.9618794
56,улица Толе Би,050000,43.2552003,76.9430945
109Б,Достық даңғылы,050010,43.2225426,76.9625433
64,улица Богенбай Батыра,050010,43.2542691,76.9637973
140,улица Прокофьева,050005,43.2425075,76.8758976
23,бульвар Бухар Жырау,050040,43.2348641,76.9254106
102,Utegen Batyr St,050062,43.2403028,76.8619990
20/2,Бекболат батыра,050024,43.3089640,76.8902172
71,улица Шевченко,050000,43.2462176,76.9402463
13,улица Тимирязева,050040,43.2310200,76.9334404
90/92,улица Карасай Батыра,050012,43.2497204,76.9235461
25/2,улица Москвина,050050,43.2755000,76.8874623
67,Тұрғыт Озалы көшесі,050009,43.2517769,76.8802991
7Б,улица Навои,A10P8C9,43.2176729,76.8803927
128,улица Кожамкулова,050027,43.2558532,76.9169303
150,улица Оспанова,050020,43.1951215,76.9735548
64Г,улица Сатпаева,050046,43.2345067,76.8921298
21Д,улица Солодовникова,050060,43.2332597,76.8928779
ва,улица Сатпаева,050046,43.2352262,76.8926621
5,улица Сатпаева,050046,43.2343390,76.8912942
26,Розыбакиев көшесі,050060,43.2323066,76.8911869
52,улица Солодовникова,050060,43.2322946,76.8913281
10,улица Утепова,050060/A15T6B2,43.2185021,76.8961401
1,проспект имени Нурсултана Назарбаева,050013,43.2405970,76.9482126
2,улица Байсеитовой,050013,43.2406738,76.9454566
15А,Алмагуль Микрорайон,050060,43.2095962,76.9007185
163,улица Жамбыла,050008,43.2457210,76.9108019
139,улица Казыбек Би,050026,43.2549570,76.9189958
309,Гагарина,050060,43.2030040,76.8989093
402 офис 322,проспект Сейфуллина,050004,43.2685730,76.9313915
548,Горная улица,050010,43.1715819,77.0369510
548,Горная улица,050020,43.1718880,77.0362204
110,проспект Жибек Жолы,A05C9Y3,43.2614032,76.9395809
63,улица Лазарева,050036,43.2258419,76.8780514
216,улица Кабанбай Батыра,050008,43.2472899,76.9128364
25,Набережная Хамита Ергалиева,050040,43.2305600,76.9230339
19А,улица Торайгырова,050043,43.2022027,76.8748469
1,улица Кунаева,050016,43.2698165,76.9479184
171,Мамытова,050047,43.2657157,76.8385628
151,улица Айтеке Би,050026,43.2565365,76.9179385
229,улица Толе Би,050009,43.2506457,76.8799783
33,проспект Жибек Жолы,050002,43.2632571,76.9596720
8,улица Абдулинных,050002,43.2634016,76.9596720
7,улица Абдулинных,050002,43.2635071,76.9591116
39,проспект Жибек Жолы,050002,43.2631590,76.9581039
39/1,проспект Жибек Жолы,050002,43.2635136,76.9578786
43,улица Кунаева,050004,43.2630189,76.9486239
41,улица Кунаева,050004,43.2634627,76.9488076
100,проспект Жибек Жолы,05004,43.2609672,76.9427189
82,Тұрғыт Озалы көшесі,050009,43.2515582,76.8809242
100,улица Макатаева,050004,43.2635274,76.9415801
46/1,улица Щепкина,050042,43.2104773,76.8706529
171,Әуезов көшесі,050057,43.2287665,76.9051468
75,улица Шевченко,050000,43.2460307,76.9384207
4А,8 микрорайон,050035,43.2304611,76.8687223
1,улица Ньютона,050000,43.2334603,76.9600340
115,улица Желтоксан,0500000,43.2528688,76.9385477
91,улица Кабанбай Батыра,050000,43.2494704,76.9396167
20А,улица Тимирязева,050013,43.2314555,76.9349593
104/1,улица Дулати,050043,43.1473903,76.8990147
2,улица Жандосова,50040,43.2367147,76.9129122
16А,3-й микрорайон,A10A4K5,43.2223594,76.8499107
86/2,Северное кольцо,50058,43.3113301,76.8985803
532А,проспект Райымбека,A10H6G1,43.2347483,76.7994569
410,проспект Сейфуллина,50004,43.2658992,76.9316870
297в,улица Толе Би,50005,43.2494697,76.8725418
32В,улица Тимирязева,50040,43.2272584,76.9294096
3,улица Сатпаева,050000,43.2391865,76.9500617
19а,Өтепов көшесі,050060,43.2197198,76.8959203
53,улица Мынбаева,050057,43.2375452,76.9026091
41,улица Кунаева,A25Y5H4,43.2638177,76.9488343
51,Манаса,050008,43.2380983,76.9310239
11А,улица Университетская,050060,43.1897039,76.9308038
341,проспект Достык,050010,43.2081978,76.9692049
8Е,проспект Абая,050010,43.2411828,76.9494554
58А,проспект Абая,050008,43.2394923,76.9094189
180,улица Жамбыла,050008,43.2452366,76.9088136
280,Улица Байзакова,050060,43.2372892,76.9152660
"13, оф. 31",улица Егизбаева,050046,43.2300383,76.8872059
дом 90 офис 37,Аксай-3А микрорайон,050031,43.2379939,76.8271179
118,улица Желтоксан,050000,43.2537413,76.9401229
159,улица Ураза Исаева,050008,43.2465742,76.9078559
127/1,улица Макатаева,050000,43.2636699,76.9290645
89,улица Досмухамедова,050012,43.2475724,76.9243581
89,улица Досмухамедова,050012,43.2474602,76.9243663
98,улица Жандосова,050042,43.2192763,76.8799792
1,Луганский көшесі,050000,43.2412873,76.9598368
10А,проспект Абая,05000,43.2420174,76.9479346
д42к10,улица Тимирязева,A17B5M5,43.2247707,76.9048941
15,улица Ватутина,050010,43.2478488,76.9680328
2,Шумный переулок,050013,43.2345024,76.9291358
43,улица Кунаева,050004,43.2623977,76.9480158
127/1,улица Макатаева,050000,43.2640227,76.9289325
30/2,Сәтбаев,050040,43.2347656,76.9218817
5г,улица Радлова,050010,43.2424225,76.9739921
181,Құрманғазы көшесі,050009,43.2410980,76.8948243
109/6 apt 1,Абай даңғылы,050008,43.2410987,76.9090161
35,Тулебаева,050000,43.2498520,76.9505652
39,проспект Абая,050000,43.2428405,76.9457008
39,проспект Абая,050000,43.2428320,76.9461403
77/8,Esentai Square,050040,43.2184097,76.9278829
18,Шевченко көшесі,050010,43.2467939,76.9552614
191А,улица Карасай Батыра,050008,43.2493148,76.8996997
79,улица Ходжанова,050060,43.2090127,76.9123427
116/1 E1A,әл-Фараби даңғылы,050044,43.2171701,76.9296014
292,улица Жарокова,050060,43.2037535,76.9049618
3,Есебулатова улица,050061,43.2519720,76.8508088
9Б,Тілендиев көшесі,050005,43.2564897,76.8698946
9А,Тілендиев көшесі,050005,43.2562879,76.8699753
145,улица Панфилова,050000,43.2460242,76.9458324
145,улица Панфилова,050000,43.2460803,76.9453210
"145, офис 101",улица Панфилова,050000,43.2460646,76.9457869
443,улица Керей-Жанибек хандар,050020,43.1419605,77.0657899
104,улица Масанчи,050008,43.2386046,76.9315526
95,улица Масанчи,050008,43.2384880,76.9309997
86А,микрорайон Жетысу-2,050060,43.2195591,76.8495622
46/1,улица Берегового,050042,43.2105205,76.8706461
124,Тажибаевой улица,50060,43.2231220,76.8895488
303,Байзақов көшесі,050040,43.2299901,76.9148930
223/5,Төле би көшесі,050005,43.2485621,76.8657508
2920а,ПК Горный Гигант,050002,43.2319724,77.0185140
29/6,Сәтбаев,050040,43.2371348,76.9165660
97,Жолдасбеков көшесі,050051,43.2335403,76.9541141
73,әл-Фараби даңғылы,050040,43.2122887,76.9178004
30/5,Егізбаев көшесі,050046,43.2326934,76.8855571
264/7,улица Абиша Кекилбайулы,050060,43.2038215,76.8900162
264/7,улица Абиша Кекилбайулы,050060,43.2037545,76.8900202
264/7,улица Абиша Кекилбайулы,050060,43.2039056,76.8902048
264/5,улица Абиша Кекилбайулы,050060,43.2031061,76.8904927
336/3,Розыбакиев көшесі,050060,43.2069897,76.8943666
277/7,Гагарин даңғылы,050060,43.2073745,76.8965259
277/7,Гагарин даңғылы,050060,43.2075025,76.8965384
277/7,Гагарин даңғылы,050060,43.2075651,76.8971015
277/7,Гагарин даңғылы,050060,43.2076024,76.8976743
343/6,Розыбакиев көшесі,050060,43.2073399,76.8960461
343/7,Розыбакиев көшесі,050060,43.2070155,76.8960826
343/8,Розыбакиев көшесі,050060,43.2066821,76.8961257
336/4,Розыбакиев көшесі,050060,43.2073737,76.8945736
247/3,Розыбакиев көшесі,050060,43.2039259,76.8939367
247/3,Розыбакиев көшесі,050060,43.2038829,76.8935781
247/4,Розыбакиев көшесі,050060,43.2038766,76.8933709
247/4,Розыбакиев көшесі,050060,43.2038748,76.8931971
247/5,Розыбакиев көшесі,050060,43.2038730,76.8929024
247/5,Розыбакиев көшесі,050060,43.2038964,76.8926952
22,Қаныш Сәтбаев көшесі,050008,43.2371030,76.9306976
22,Қаныш Сәтбаев көшесі,050013,43.2371434,76.9313502
22b,Қаныш Сәтбаев көшесі,050013,43.2371902,76.9329453
310a,Розыбакиев көшесі,050060,43.2087487,76.8942590
310a,Розыбакиев көшесі,050060,43.2088688,76.8941036
310a,Розыбакиев көшесі,050060,43.2087761,76.8943532
310a,Розыбакиев көшесі,050060,43.2088002,76.8946782
310a,Розыбакиев көшесі,050060,43.2088311,76.8948948
310a,Розыбакиев көшесі,050060,43.2088276,76.8948430
310a,Розыбакиев көшесі,050060,43.2088078,76.8950156
323a,улица Радостовца,050060,43.2088030,76.8957138
323a,улица Радостовца,050060,43.2088512,76.8958196
323a,улица Радостовца,050060,43.2090056,76.8957899
323a,улица Радостовца,050060,43.2091406,76.8957733
323a,улица Радостовца,050060,43.2092709,76.8957435
323a,улица Радостовца,050060,43.2093987,76.8957237
323a,улица Радостовца,050060,43.2094928,76.8957071
323a,улица Радостовца,050060,43.2094590,76.8954027
323a,улица Радостовца,050060,43.2094204,76.8948766
310a,Розыбакиев көшесі,050060,43.2091069,76.8940593
280,улица Радостовца,050060,43.2081229,76.8964386
90/21,Сәтбаев көшесі,050046,43.2320490,76.8756290
179,Әуезов көшесі,050057,43.2271179,76.9053922
17,әл-Фараби даңғылы,050059,43.2299361,76.9455449
98,бульвар Мендикулова,050051,43.2327870,76.9535437
70,улица Абдулинных,050010,43.2540270,76.9609854
126,Наурызбай батыр көшесі,050000,43.2461428,76.9375835
89,Kabanbai Batyr St,050000,43.2496074,76.9406288
170,Tchaikovsky St,050000,43.2484833,76.9393178
129/135,Zheltoksan St,050000,43.2486528,76.9402466
126,Kabanbai Batyr St,050000,43.2486682,76.9386001
129,Zheltoksan,050000,43.2482630,76.9403153
28/3,улица Скрябина,050026,43.2607164,76.8894696
28/3,улица Скрябина,050026,43.2605089,76.8894731
99,проспект Назарбаева,050000,43.2580926,76.9493532
49,улица Шолохова,050011,43.3381708,76.9402667
49,улица Шолохова,050011,43.3381913,76.9402037
14,Белградская улица,050011,43.3385575,76.9419108
14,Белградская улица,050011,43.3385035,76.9418864
91,СТ Сантехник,​050007,43.2543736,77.0061152
92,СТ Сантехник,​050007,43.2544446,77.0062046
90,СТ Сантехник,​050007,43.2543040,77.0060156
23,СТ Сантехник,​050007,43.2542995,77.0062635
135Ж,проспект Серкебаева,050046,43.2307991,76.8946423
34,улица Карасай Батыра,050010,43.2516715,76.9534266
41,проспект Серкебаева,050009,43.2451734,76.8932171
38,микрорайон 2,050062,43.2337074,76.8602336
15,2-й микрорайон,050062,43.2349667,76.8579780
4,2-й микрорайон,050062,43.2344810,76.8542063
3,2-й микрорайон,050062,43.2341285,76.8543558
22,улица Саина,050063,43.2367807,76.8411828
18,улица Саина,050063,43.2378358,76.8407272
32А,улица Манаса,050000,43.2364185,76.9095088
231,улица Тлендиева,050046,43.2342190,76.8762920
252,улица Тлендиева,050046,43.2349004,76.8766960
127,улица Сатпаева,050046,43.2340144,76.8779933
255,улица Брусиловского,050046,43.2343972,76.8787716
254,улица Тлендиева,050046,43.2342797,76.8771253
162А,улица Жандосова,050042,43.2110084,76.8689625
19,улица Тулебаева,05000,43.2660200,76.9467342
15,улица Радостовца,050009,43.2497189,76.8897711
210,улица Толе Би,050009,43.2505553,76.8899395
6Б,Центральная улица,050000,43.2037340,76.8514431
6А,Ыкылас улица,050000,43.2037732,76.8518549
189/2,улица Фурманова,050013,43.2397422,76.9471444
189/1,улица Фурманова,050013,43.2401099,76.9470851
13,площадь Республики,050013,43.2391220,76.9473410
193,Проспект Назарбаева,050013,43.2398017,76.9482560
49,улица Байсеитовой,050013,43.2395433,76.9447574
40/1,улица Байсеитовой,050013,43.2400800,76.9456616
47,улица Байсеитовой,050013,43.2400323,76.9448413
40,улица Байсеитовой,050013,43.2407916,76.9456428
45,улица Байсеитовой,050013,43.2407092,76.9445386
45А,улица Байсеитовой,050013,43.2402177,76.9442578
20/3,проспект Абая,050013,43.2398457,76.9440850
20/16,проспект Абая,050013,43.2403138,76.9437676
20/17,проспект Абая,050013,43.2409415,76.9436661
187В,улица Фурманова,050013,43.2406729,76.9473173
10Б,проспект Абая,050013,43.2409261,76.9464067
10В,проспект Абая,050013,43.2414600,76.9460937
10А,проспект Абая,050013,43.2419807,76.9477965
187А,Проспект Назарбаева,050013,43.2413926,76.9478096
187Б,Проспект Назарбаева,050013,43.2407045,76.9481689
10,проспект Абая,050013,43.2420651,76.9466240
12,проспект Абая,050013,43.2419690,76.9455262
12,проспект Абая,050013,43.2417236,76.9452454
223,Байзақов көшесі,050026,43.2481908,76.9118182
88,улица Абиша Кекилбайулы,050060,43.2168720,76.8887712
216,улица Майлина,050039,43.3355308,76.9819053
214,улица Майлина,050039,43.3362812,76.9823013
149,улица Айманова,050059,43.2322217,76.8969503
27,Аксай-3 мкр.,050031,43.2329156,76.8308793
64г,улица Сатпаева,050046,43.2344912,76.8922717
48,улица 20 линия,050046,43.2325633,76.8884125
148,проспект Серкебаева,050057,43.2340687,76.8959518
67,улица Мынбаева,050057,43.2373526,76.9003996
57,улица Мынбаева,050057,43.2374246,76.9013272
117А,улица Клочкова,050057,43.2380635,76.9005564
50,улица Мынбаева,050057,43.2369846,76.9005151
123,улица Клочкова,050057,43.2368355,76.9017981
134,улица Жарокова,050057,43.2365316,76.9012904
137,улица Клочкова,050057,43.2361990,76.9018850
136,улица Жарокова,050057,43.2362285,76.9011898
44,улица Мынбаева,050057,43.2371114,76.9025580
128,улица Клочкова,050057,43.2368067,76.9026046
130,улица Клочкова,050057,43.2364506,76.9026736
38,улица Мынбаева,050057,43.2371526,76.9035035
129,Әуезов көшесі,050057,43.2365457,76.9038587
145,улица Айманова,050059,43.2330574,76.8976153
44А,улица Сатпаева,050057,43.2347273,76.9018198
49,улица Манаса,050000,43.2370284,76.9085775
29/6,улица Сатпаева,050040,43.2371286,76.9165597
177А,улица Желтоксан,050013,43.2376661,76.9413656
177,улица Желтоксан,050013,43.2372351,76.9414390
175,Әуезов көшесі,050057,43.2277336,76.9051717
75,проспект Абая,050022,43.2416237,76.9300083
47,улица Улугбека,050062,43.2306356,76.8555868
68А/1,улица Жубанова,050062,43.2337835,76.8527341
36,Жетысу 1-й микрорайон,050000,43.2200811,76.8389662
38,Жетысу 1-й микрорайон,050000,43.2197892,76.8393985
39,Жетысу 1-й микрорайон,050000,43.2197106,76.8389813
15,Жетысу 1-й микрорайон,050000,43.2239000,76.8380611
20,Жетысу 1-й микрорайон,050000,43.2231890,76.8383046
24,Жетысу 1-й микрорайон,050000,43.2225084,76.8386036
27,Жетысу 1-й микрорайон,050000,43.2218338,76.8382246
29,Жетысу 1-й микрорайон,050000,43.2214984,76.8383788
31,Жетысу 1-й микрорайон,050000,43.2211583,76.8385287
34,Жетысу 1-й микрорайон,050000,43.2205802,76.8384286
16,Жетысу 1-й микрорайон,050000,43.2239461,76.8372763
17,Жетысу 1-й микрорайон,050000,43.2235876,76.8374047
18,Жетысу 1-й микрорайон,050000,43.2233375,76.8371880
19,Жетысу 1-й микрорайон,050000,43.2231897,76.8376041
21,Жетысу 1-й микрорайон,050000,43.2228789,76.8377833
22,Жетысу 1-й микрорайон,050000,43.2226472,76.8375516
23,Жетысу 1-й микрорайон,050000,43.2225346,76.8379163
25,Жетысу 1-й микрорайон,050000,43.2221982,76.8380743
26,Жетысу 1-й микрорайон,050000,43.2219676,76.8378459
30,Жетысу 1-й микрорайон,050000,43.2212648,76.8381533
28,Жетысу 1-й микрорайон,050000,43.2218086,76.8389066
32,Жетысу 1-й микрорайон,050000,43.2210574,76.8389017
33,Жетысу 1-й микрорайон,050000,43.2208204,76.8386816
35,Жетысу 1-й микрорайон,050000,43.2204546,76.8388429
37,Жетысу 1-й микрорайон,050000,43.2204208,76.8394502
13А,Жетысу 1-й микрорайон,050000,43.2234809,76.8394950
1/8,улица Кабдолова,050063,43.2366169,76.8455830
72,улица Толе Би,050091,43.2542689,76.9406124
99,проспект Назарбаева,050000,43.2585438,76.9459490
97А,улица Фурманова,050000,43.2588016,76.9456224
41,улица Толе Би,050091,43.2556544,76.9492467
50,проспект Жибек Жолы,050044,43.2620735,76.9558895
83,улица Айтеке Би,050000,43.2581087,76.9371299
83,улица Айтеке Би,050000,43.2579395,76.9370972
452/2,проспект Сейфуллина,050000,43.2600604,76.9330833
452/1,проспект Сейфуллина,050000,43.2597049,76.9331372
54,улица Маметовой,050004/A05F0G9,43.2663711,76.9357767
3,Кашгарская улица,050000,43.2619313,76.9261678
467,проспект Сейфуллина,050004,43.2687835,76.9297628
110,улица Кожамкулова,050025,43.2593487,76.9163204
145,улица Казыбек Би,05026,43.2548436,76.9178275
111,улица Толе Би,050091,43.2536068,76.9225247
525,проспект Сейфуллина,050000,43.2563704,76.9316395
49,улица Наурызбай Батыра,050000,43.2568301,76.9356018
110,улица Желтоксан,050008,43.2569571,76.9398441
48А,улица Масанчи,050012,43.2511093,76.9308510
119,улица Кунаева,050060,43.2521965,76.9502533
39,улица Карасай Батыра,050010,43.2524509,76.9515972
115,Абылай хан даңғылы,050000,43.2505765,76.9415877
138,улица Желтоксан,050000,43.2506531,76.9405714
140,улица Желтоксан,050000,43.2498789,76.9406222
138,улица Желтоксан,050000,43.2502483,76.9410004
136,улица Желтоксан,050000,43.2502569,76.9406268
121,Абылай хан даңғылы,050000,43.2490877,76.9412783
23,проспект Абая,050013,43.2431761,76.9523043
129,улица Пушкина,050021,43.2444543,76.9547496
188,проспект Достык,050051,43.2318527,76.9599947
180,проспект Достык,050051,43.2323470,76.9597712
154А,улица Наурызбай Батыра,050013,43.2399857,76.9388250
8Е,проспект Абая,050010,43.2412027,76.9495464
575,проспект Сейфуллина,05000,43.2446615,76.9335836
47,проспект Абая,050013,43.2424963,76.9421571
39,проспект Абая,050000,43.2428821,76.9456407
43,проспект Абая,050013,43.2432000,76.9440836
27,проспект Абая,050013,43.2430954,76.9508609
31,Абай даңғылы,050013,43.2429398,76.9490957
16,проспект Абая,050013,43.2407900,76.9429430
20/1,проспект Абая,050013,43.2397787,76.9430623
20/14,проспект Абая,050013,43.2393034,76.9439340
3А,улица Сатпаева,050013,43.2385442,76.9390647
170,улица Желтоксан,050013,43.2393530,76.9423153
168А,улица Желтоксан,050013,43.2407604,76.9418506
168Б,улица Желтоксан,050013,43.2401550,76.9419539
20/5,проспект Абая,050013,43.2392160,76.9430282
20/15,проспект Абая,050013,43.2402633,76.9429025
85,Абай даңғылы,050022,43.2417654,76.9263361
101,проспект Абая,050022,43.2410023,76.9208762
99,проспект Абая,050022,43.2411480,76.9215570
113,улица Байтурсынова,050013,43.2376954,76.9271212
79,проспект Абая,050022,43.2415376,76.9285947
81,проспект Абая,050022,43.2415077,76.9278496
200,улица Муратбаева,000222,43.2437240,76.9204054
115,улица Досмухамедова,050022,43.2424605,76.9250904
100А,улица Курмангазы,050022,43.2432070,76.9293475
78А,улица Байтурсынова,050022,43.2424063,76.9275803
105А,Байтұрсынұлы көшесі,050022,43.2424491,76.9266232
163,Әуезов көшесі,050057,43.2311935,76.9044715
58А,улица Жандосова,050057,43.2302150,76.8964541
59,улица Манаса,050000,43.2340339,76.9090402
9,улица Мустафы Озтюрка,050000,43.2325122,76.9069976
7,улица Мустафы Озтюрка,050000,43.2325576,76.9076367
5,улица Мустафы Озтюрка,050000,43.2325819,76.9081777
13,улица Мустафы Озтюрка,050000,43.2324486,76.9059735
11,улица Мустафы Озтюрка,050000,43.2324643,76.9064685
14,улица Мустафы Озтюрка,050000,43.2319096,76.9055172
12,улица Мустафы Озтюрка,050000,43.2320436,76.9060865
10,улица Мустафы Озтюрка,050000,43.2320000,76.9066883
8,улица Мустафы Озтюрка,050000,43.2318201,76.9074212
6,улица Мустафы Озтюрка,050000,43.2320881,76.9080852
4,улица Мустафы Озтюрка,050000,43.2322135,76.9085836
2,улица Мустафы Озтюрка,050000,43.2321679,76.9090850
65,улица Манаса,050000,43.2327773,76.9091700
63,улица Манаса,050000,43.2331959,76.9091153
61,улица Манаса,050000,43.2335648,76.9090904
57,улица Манаса,050000,43.2343979,76.9089593
55,улица Манаса,050000,43.2348229,76.9087346
1Г,улица Манаса,050026,43.2439986,76.9077977
159,улица Ураза Исаева,050008,43.2465735,76.9078760
71/16,проспект Аль-Фараби,050040,43.2227815,76.9192028
39,улица Маркова,050040,43.2300005,76.9298692
33А,улица Жандосова,050060,43.2289918,76.8890792
33,улица Жандосова,050060,43.2290751,76.8886594
217Б,улица Жарокова,050060,43.2237108,76.8983927
217Б,улица Жарокова,050060,43.2237984,76.8996967
217Б,улица Жарокова,050060,43.2237893,76.8990428
52,улица Егизбаева,050046,43.2314168,76.8866514
206,Розыбакиев көшесі,050060,43.2254786,76.8921476
291,Розыбакиев көшесі,050060,43.1962420,76.8928837
293,Розыбакиев көшесі,050060,43.1956675,76.8928734
2А,Цветочная улица,050052,43.2077673,76.8605738
76,Жетысу 2-й микрорайон,050063,43.2201826,76.8458327
64,Жетысу 2-й микрорайон,050063,43.2203497,76.8487565
73,Жетысу 2-й микрорайон,050063,43.2195913,76.8457044
75,Жетысу 2-й микрорайон,050063,43.2200868,76.8462163
71,Жетысу 2-й микрорайон,050063,43.2192254,76.8462919
72,Жетысу 2-й микрорайон,050063,43.2194870,76.8461039
70,Жетысу 2-й микрорайон,050063,43.2194249,76.8465853
67,Жетысу 2-й микрорайон,050063,43.2200148,76.8482604
69,Жетысу 2-й микрорайон,050063,43.2197090,76.8478516
68,микрорайон Жетысу-2,050063,43.2197088,76.8483547
14,улица Мустай Карим,050052,43.2093438,76.8601920
13,улица Мустай Карим,050052,43.2094745,76.8600113
12/1,улица Мустай Карим,050052,43.2099399,76.8595820
65,Жетысу 2-й микрорайон,050063,43.2205208,76.8492280
3,Жетысу 2-й микрорайон,050063,43.2229829,76.8439489
4,Жетысу 2-й микрорайон,050063,43.2236886,76.8436678
31,Жетысу 2-й микрорайон,050063,43.2230921,76.8452119
32,Жетысу 2-й микрорайон,050063,43.2229959,76.8455673
45,Жетысу 2-й микрорайон,050063,43.2230376,76.8472806
44,Жетысу 2-й микрорайон,050063,43.2230989,76.8468239
18,Жетысу 2-й микрорайон,050063,43.2252226,76.8437563
5,Жетысу 2-й микрорайон,050063,43.2243677,76.8433772
7,Жетысу 2-й микрорайон,050063,43.2249890,76.8418637
6,Жетысу 2-й микрорайон,050063,43.2247218,76.8420282
9,Жетысу 2-й микрорайон,050063,43.2252533,76.8417012
8,Жетысу 2-й микрорайон,050063,43.2250846,76.8414896
10,Жетысу 2-й микрорайон,050063,43.2249939,76.8427444
54,Жетысу 2-й микрорайон,050063,43.2216955,76.8480615
47,Жетысу 2-й микрорайон,050063,43.2224660,76.8465509
77,Жетысу 2-й микрорайон,050063,43.2203119,76.8454354
78,Жетысу 2-й микрорайон,050063,43.2205434,76.8456515
36,Жетысу 2-й микрорайон,050063,43.2221212,76.8456172
37,Жетысу 2-й микрорайон,050063,43.2223269,76.8458768
33,Жетысу 2-й микрорайон,050063,43.2227238,76.8453248
34,Жетысу 2-й микрорайон,050063,43.2224815,76.8450761
35,Жетысу 2-й микрорайон,050063,43.2224168,76.8455035
58,Жетысу 2-й микрорайон,050063,43.2210540,76.8477649
57,Жетысу 2-й микрорайон,050063,43.2211253,76.8472727
56,Жетысу 2-й микрорайон,050063,43.2213877,76.8476256
59,Жетысу 2-й микрорайон,050063,43.2210420,76.8484457
60,Жетысу 2-й микрорайон,050063,43.2212483,76.8489796
52,Жетысу 2-й микрорайон,050063,43.2217850,76.8469423
51,Жетысу 2-й микрорайон,050063,43.2220653,76.8472848
49,Жетысу 2-й микрорайон,050063,43.2223729,76.8476123
50,Жетысу 2-й микрорайон,050063,43.2225101,76.8478816
55,Жетысу 2-й микрорайон,050063,43.2218556,76.8484467
53,Жетысу 2-й микрорайон,050063,43.2217323,76.8474782
48,Жетысу 2-й микрорайон,050063,43.2223845,76.8470343
46,Жетысу 2-й микрорайон,050063,43.2227438,76.8469231
23,Жетысу 2-й микрорайон,050063,43.2244200,76.8452065
22,Жетысу 2-й микрорайон,050063,43.2244518,76.8445687
42,Жетысу 2-й микрорайон,050063,43.2234330,76.8466297
40,Жетысу 2-й микрорайон,050063,43.2237883,76.8464794
26,Жетысу 2-й микрорайон,050063,43.2238654,76.8444405
25,Жетысу 2-й микрорайон,050063,43.2241076,76.8447429
27,Жетысу 2-й микрорайон,050063,43.2237908,76.8449223
28,Жетысу 2-й микрорайон,050063,43.2236820,76.8453095
29,Жетысу 2-й микрорайон,050063,43.2234292,76.8450717
30,Жетысу 2-й микрорайон,050063,43.2231685,76.8447247
39,Жетысу 2-й микрорайон,050063,43.2240505,76.8463220
38,Жетысу 2-й микрорайон,050063,43.2238259,76.8459184
43,Жетысу 2-й микрорайон,050063,43.2231370,76.8463041
19,Жетысу 2-й микрорайон,050063,43.2251318,76.8442618
21,Жетысу 2-й микрорайон,050063,43.2245038,76.8440597
20,Жетысу 2-й микрорайон,050063,43.2247780,76.8444462
16,Жетысу 2-й микрорайон,050063,43.2251209,76.8449176
17,Жетысу 2-й микрорайон,050063,43.2254966,76.8440964
41,Жетысу 2-й микрорайон,050063,43.2237088,76.8468753
66,Жетысу 2-й микрорайон,050063,43.2206133,76.8493797
291/1 литер И,Төле би көшесі,050062,43.2446585,76.8489660
291/1 литер З,Төле би көшесі,050062,43.2449331,76.8483944
291/1 литер Ч-В,Төле би көшесі,050062,43.2447185,76.8479110
291/1 литер Б,улица Толе Би,050062,43.2444225,76.8487466
312,проспект Райымбека,050005,43.2574362,76.8747322
28,улица Брусиловского,050005,43.2571749,76.8760176
30,улица Брусиловского,050005,43.2568898,76.8757821
56,проспект Достык,050010,43.2432332,76.9593970
52,проспект Достык,050021,43.2449187,76.9577331
21,Алматинская,050023,43.1958865,76.9051679
27,Казахфильм м-н,050023,43.1959709,76.9073910
9,Казахфильм м-н,050023,43.1918952,76.9039877
93/5,проспект Аль-Фараби,050000,43.2118627,76.9136103
77/7,проспект Аль-Фараби,050040,43.2191117,76.9291979
134,проспект Достык,A25D6H7,43.2360231,76.9596694
128,проспект Достык,050060,43.2368214,76.9600250
74,Жетысу 2-й микрорайон,050063,43.2198571,76.8459807
52,Жетысу 1-й микрорайон,050063,43.2176956,76.8397253
22,Улица Каныша Сатпаева,050013,43.2364412,76.9311603
77,проспект Абая,050022,43.2415893,76.9294426
202,проспект Достык,050051,43.2307376,76.9604906
548Б,улица Керей-Жанибек хандар,050020,43.1713978,77.0378434
2,Орбита 4-й микрорайон,050043,43.1975994,76.8793718
1,Орбита 4-й микрорайон,050043,43.1979151,76.8788603
32,Орбита 4-й микрорайон,050043,43.1973770,76.8761596
42,микрорайон Алмагуль,050060,43.2032851,76.9021161
103/10,проспект Достык,050020/A25D5X3,43.2219787,76.9606591
212,улица Майлина,050039,43.3371226,76.9827622
208,улица Майлина,050039,43.3388398,76.9837785
210,улица Майлина,050039,43.3377502,76.9830926
206,улица Майлина,050039,43.3396217,76.9841596
224,улица Майлина,050039,43.3338014,76.9808198
222,улица Майлина,050039,43.3342379,76.9809627
218,улица Майлина,050039,43.3348390,76.9815543
226,улица Майлина,050039,43.3334762,76.9805834
248,проспект Достык,050020,43.2235385,76.9629924
79,улица Ходжанова,050060,43.2089582,76.9124583
43,Жетысу 1-й микрорайон,050000,43.2195947,76.8397634
1Б,Жетысу 3-й микрорайон,050063,43.2178098,76.8411280
292,проспект Серкебаева,050060,43.2042795,76.8995037
296/13А,проспект Гагарина угол переулок Дружбы,050060,43.2021693,76.9002618
9А,переулок Дружбы,050060,43.2021969,76.9009389
367,улица Радостовца,050060,43.2043376,76.8955646
6,улица Зеин Шашкина,050000,43.2260726,76.9296284
10,улица Зеин Шашкина,050040,43.2253236,76.9306132
8,улица Зеин Шашкина,050000,43.2256835,76.9301244
4,улица Зеин Шашкина,050000,43.2263861,76.9292170
2,улица Зеин Шашкина,050000,43.2267842,76.9288172
77/2,проспект Аль-Фараби,050060,43.2202490,76.9286980
159/5,улица Брусиловского,050005,43.2450485,76.8754655
148,улица Прокофьева,050005,43.2441398,76.8757203
167/1,улица Брусиловского,050005,43.2415750,76.8774977
167,улица Брусиловского,050005,43.2415090,76.8767584
247А,Розыбакиев көшесі,050060,43.2016557,76.8919347
80,Жетысу 2-й микрорайон,050063,43.2206535,76.8465402
19А,улица Торайгырова,050043,43.2021795,76.8745603
166,Есенберлина,050007,43.2637785,76.9767292
46А,улица Маркова,050040,43.2282228,76.9338037
59,микрорайон 2-й,050062,43.2335824,76.8575401
273/8,улица Толе Би,0500005,43.2481797,76.8652144
273/4,улица Толе Би,050000,43.2491714,76.8668117
1,улица Аханова,050000,43.2317309,76.8028451
11,улица Аханова,050000,43.2321513,76.8039748
13,улица Аханова,050000,43.2322241,76.8041502
15,улица Аханова,050000,43.2323173,76.8043743
2,улица Аханова,050000,43.2313242,76.8030468
10,улица Аханова,050000,43.2317977,76.8038618
8,улица Аханова,050000,43.2317418,76.8037260
3,улица Аханова,050000,43.2317965,76.8030634
5,улица Аханова,050000,43.2318726,76.8032687
7,улица Аханова,050000,43.2319684,76.8034780
9,улица Аханова,050000,43.2320342,76.8037033
34,улица Манаса,050000,43.2344826,76.9099588
51,улица Манаса,050000,43.2364995,76.9086467
61,Жетысу 2-й микрорайон,050063,43.2206919,76.8479400
62,Жетысу 2-й микрорайон,050063,43.2204206,76.8476215
63,Жетысу 2-й микрорайон,050063,43.2203534,76.8481042
12,улица Аханова,050000,43.2318972,76.8041534
16,улица Аханова,050000,43.2320459,76.8045255
18,улица Аханова,050000,43.2321325,76.8047313
21,улица Аханова,050000,43.2325579,76.8050154
22,улица Аханова,050000,43.2323167,76.8051581
26,улица Аханова,050000,43.2325818,76.8058295
31,улица Аханова,050000,43.2329796,76.8059878
28,улица Аханова,050000,43.2326082,76.8060067
49,улица Аханова,050000,43.2338345,76.8078493
493,проспект Райымбека,050038,43.2453280,76.8320293
30,улица Саина,050063,43.2352583,76.8429310
172,улица Желтоксан,050013,43.2389112,76.9421166
8Б,улица Бальзака,050040,43.2249603,76.9334542
40В,улица Байсеитовой,050013,43.2413339,76.9453349
206б,проспект Серкебаева,050060,43.2208863,76.8973276
12,улица Нахимова,050040,43.2253496,76.9358598
69,улица Маркова,050040,43.2255313,76.9360437
4А,проспект Абая,050013,43.2423343,76.9538493
4,проспект Абая,050013,43.2425342,76.9547058
53А,проспект Аль-Фараби,050040,43.2235035,76.9358550
14,улица Аханова,050000,43.2319918,76.8043894
19,улица Аханова,050000,43.2324939,76.8047656
29,улица Аханова,050000,43.2329415,76.8057530
6,улица Аханова,050000,43.2316635,76.8035112
27,улица Аханова,050000,43.2328233,76.8055362
35,улица Аханова,050000,43.2330971,76.8063326
23,улица Аханова,050000,43.2326434,76.8051926
42а,улица Байсеитовой,050013,43.2400126,76.9460437
42,улица Байсеитовой,050013,43.2396230,76.9458117
248А,проспект Достык,050020,43.2224963,76.9633231
115,улица Фадеева,050000,43.2703975,76.8845869
187,улица Фурманова,050013,43.2410598,76.9480210
89,улица Кабанбай Батыра,050000,43.2496516,76.9411998
26,улица Жуалы,050063,43.2200424,76.7963367
7,улица Жуалы,050063,43.2235575,76.7941045
3,улица Жуалы,050063,43.2242501,76.7936706
1,улица Жуалы,050063,43.2238655,76.7928742
18,улица Жуалы,050063,43.2214311,76.7954139
2,улица Жуалы,050063,43.2241257,76.7930969
22,улица Жуалы,050063,43.2207411,76.7958656
11,улица Жуалы,050063,43.2228529,76.7945505
4,улица Жуалы,050063,43.2238701,76.7936966
140,улица Прокофьева,050005,43.2425980,76.8759874
163/15,улица Брусиловского,050005,43.2429474,76.8769091
163/14,улица Брусиловского,050005,43.2427063,76.8772387
163,улица Брусиловского,050005,43.2433477,76.8771378
163/24,улица Брусиловского,050005,43.2442516,76.8769616
163/23,улица Брусиловского,050005,43.2439423,76.8767314
144,улица Прокофьева,050005,43.2432443,76.8758587
140,улица Прокофьева,050005,43.2428877,76.8762154
163/19,улица Брусиловского,050005,43.2435995,76.8770952
148,улица Прокофьева,050005,43.2438906,76.8760361
14,улица Утепова,050060/A15T6B2,43.2183176,76.8941338
16,улица Утепова,050060/A15T6B3,43.2182460,76.8930927
248,Розыбакиев көшесі,050060/A15P2T4,43.2177932,76.8938572
250,Розыбакиев көшесі,050060/A15P2T6,43.2173105,76.8929304
250,Розыбакиев көшесі,050060/A15P2T6,43.2169211,76.8934411
250Б,Розыбакиев көшесі,050060/A15P2T8,43.2172745,76.8938896
255,улица Радостовца,050060/A15P2T9,43.2172956,76.8946631
12Б,проспект Абая,050013,43.2404699,76.9466897
8,улица Омаровой Жамал,050020,43.2224589,76.9660808
290,проспект Достык,050020,43.2170863,76.9653092
257,улица Туркебаева,050000,43.2292156,76.8817098
105,Самал 2 микрорайон,050051,43.2332738,76.9526993
2/9,Рахмадиева улица,050023,43.1951875,76.9092267
145,улица Байтурсынова,050013,43.2335111,76.9311354
35,улица Маркова,050013,43.2307468,76.9290734
33,улица Маркова,050013,43.2309794,76.9287617
29,улица Маркова,050013,43.2313925,76.9280431
27,улица Маркова,050013,43.2318435,76.9276482
31,улица Маркова,050013,43.2312237,76.9284342
12,2-й микрорайон,050062,43.2347567,76.8570858
36,микрорайон 2,050062,43.2333000,76.8610972
35,микрорайон 2,050062,43.2330996,76.8615178
246А,проспект Назарбаева,050059,43.2258157,76.9528677
220,улица Майлина,050039,43.3344644,76.9812574
62,улица Аханова,050000,43.2341874,76.8096685
70,улица Аханова,050000,43.2345459,76.8105148
74,улица Аханова,050000,43.2347570,76.8110116
36,улица Аханова,050000,43.2327794,76.8067356
20,проспект Сейфуллина,050046,43.3318131,76.9446317
22,проспект Сейфуллина,050046,43.3313694,76.9443872
24,проспект Сейфуллина,050046,43.3310088,76.9443491
247,улица Брусиловского,050046,43.2352103,76.8787245
163В,проспект Сейфуллина,050037,43.3093657,76.9382976
48,улица Алимжанова,050002,43.2632729,76.9516421
59,проспект Жибек Жолы,050002,43.2627006,76.9518140
189,улица Катаева,050060,43.2273794,76.8922436
126,улица Жарокова,050057,43.2377218,76.8999960
111,улица Гоголя,A05C9Y3,43.2598938,76.9370579
124,улица Радостовца,050046,43.2352783,76.8927174
304,проспект Достык,050020,43.2138688,76.9666636
308,проспект Достык,050020,43.2125872,76.9685552
302А,проспект Достык,050020,43.2139923,76.9669668
3,улица Мустафы Озтюрка,050000,43.2326279,76.9085846
7Б,улица Навои,A10P8C9,43.2176966,76.8803425
10,улица Жуалы,050063,43.2226120,76.7938388
12,улица Жуалы,050063,43.2224769,76.7945592
13,улица Жуалы,050063,43.2221957,76.7944105
14,улица Жуалы,050063,43.2219138,76.7942628
15,улица Жуалы,050063,43.2217552,76.7950058
16,улица Жуалы,050063,43.2214739,76.7948571
17,улица Жуалы,050063,43.2211920,76.7947095
19,улица Жуалы,050063,43.2210587,76.7954680
20,улица Жуалы,050063,43.2207774,76.7953193
21,улица Жуалы,050063,43.2204956,76.7951717
23,улица Жуалы,050063,43.2203586,76.7959234
24,улица Жуалы,050063,43.2200773,76.7957747
25,улица Жуалы,050063,43.2197955,76.7956271
28,улица Жуалы,050063,43.2194205,76.7961979
5,улица Жуалы,050063,43.2235888,76.7935479
6,улица Жуалы,050063,43.2233069,76.7934003
8,улица Жуалы,050063,43.2231751,76.7941352
9,улица Жуалы,050063,43.2228938,76.7939864
220,улица Папанина,050054,43.3193111,76.9627734
69/2,улица Оспанова,050020,43.1956965,76.9721570
4,Мусабаева улица,050000,43.1953559,76.8667086
259,Розыбакиев көшесі,050060,43.2015243,76.8938170
12/14,улица Мустай Карим,050052,43.2082354,76.8608562
12/18,улица Мустай Карим,050052,43.2091894,76.8596946
12/16,улица Мустай Карим,050052,43.2088170,76.8601245
27,улица Тохтарова (Таугуль 3 м-н),050052,43.1969864,76.8527401
12/8,улица Мустай Карим,050052,43.2090482,76.8605706
20,улица Аханова,050000,43.2322318,76.8049486
24,улица Аханова,050000,43.2323214,76.8055365
30,улица Аханова,050000,43.2327169,76.8061870
34,улица Аханова,050000,43.2328327,76.8064598
38,улица Аханова,050000,43.2330585,76.8069500
40,улица Аханова,050000,43.2331150,76.8071636
42,улица Аханова,050000,43.2332035,76.8073987
46,улица Аханова,050000,43.2332035,76.8079283
48,улица Аханова,050000,43.2334812,76.8080209
50,улица Аханова,050000,43.2336274,76.8083138
52,улица Аханова,050000,43.2336829,76.8084392
54,улица Аханова,050000,43.2337627,76.8086562
60,улица Аханова,050000,43.2340974,76.8094551
64,улица Аханова,050000,43.2342652,76.8098731
66,улица Аханова,050000,43.2343492,76.8100853
68,улица Аханова,050000,43.2344408,76.8103104
72,улица Аханова,050000,43.2345980,76.8107426
9А,переулок Дружбы,050060,43.2021711,76.9013975
35А,микрорайон Алмагуль,050060,43.2053181,76.9023452
12/9,улица Мустай Карим,050052,43.2091973,76.8603800
30,микрорайон Кулагер,050064,43.3055381,76.9214482
167Д,проспект Райымбека,050016,43.2704196,76.9342812
31,улица Гончарова,050034,43.2692570,76.8934998
185,Ашимова улица,050006,43.2101742,76.8184101
14,улица Павленко,050034,43.2657099,76.8978759
16/2,улица Павленко,050034,43.2659798,76.8977052
23,улица Котовского,050050,43.2790222,76.9368322
45,Коянды улица,050050,43.2843506,76.9395586
15,Белорусская улица,050050,43.2802408,76.9429256
35А кв.1,улица Радищева,050050,43.2787365,76.9375002
31,микрорайон Кулагер,050064,43.3055340,76.9219538
162,улица Бутлерова,050046,43.2356415,76.8823227
244,проспект Серкебаева,050060,43.2100946,76.8990644
38А,улица Абиша Кекилбайулы,050060,43.2040910,76.8914724
264/5,улица Абиша Кекилбайулы,050060,43.2032016,76.8904913
264/6,улица Абиша Кекилбайулы,050060,43.2034988,76.8907718
264/7,улица Абиша Кекилбайулы,050060,43.2038022,76.8901596
270/3,улица Абиша Кекилбайулы,050060,43.2010095,76.8910714
270/4,улица Абиша Кекилбайулы,050060,43.2013019,76.8908018
270/1,улица Абиша Кекилбайулы,050060,43.1999996,76.8908042
270/2,улица Абиша Кекилбайулы,050060,43.2003198,76.8910883
273,улица Хан Шатыр,050038,43.2496548,76.8233301
77/7,проспект Аль-Фараби,050060,43.2194113,76.9295757
124,проспект Серкебаева,050057,43.2378423,76.8962150
52/1,улица Егизбаева,050046,43.2322434,76.8865400
12,улица Крыжицкого,050014,43.3431152,76.9234898
35,улица Павлодарская,050014,43.3419278,76.9244317
133А,улица Павлодарская,050014,43.3322896,76.9210453
1Б,улица Курчатова,050061,43.2534701,76.8548450
286,проспект Серкебаева,050060,43.2049815,76.8994154
36,улица Акан Серы,050011,43.3269291,76.9509477
36,улица Акан Серэ,050011,43.3268212,76.9507947
83,улица Демченко,050019,43.2828497,76.9908590
59,улица Луганского,050051,43.2363599,76.9615586
96в,улица Омарова,050014,43.3036343,76.9274784
95,улица Щелковская,050054,43.3392231,76.9673059
45,улица Байтасова,050010,43.2404113,76.9626964
94А,улица Кармысова Камала,050010,43.2426028,76.9607900
18,улица Кабанбай Батыра,050010,43.2509940,76.9655652
4,улица Казакпаева,050056,43.3090081,76.9573729
138/2,проспект Абая,050046,43.2378763,76.8857467
191,улица Хусаинова,050060,43.2112633,76.8920124
10,улица Саялы,050018,43.3039572,76.9744166
42,Коктем 1-й микрорайон,050040,43.2319403,76.9271025
1,улица Казыбек би (Рахат),050070,43.1840840,76.8638000
44,улица Бурундайская,050011,43.3435020,76.9334634
15,Жайсан,050028,43.3568276,76.9371555
25,Жайсан,050028,43.3570919,76.9372039
39,Жайсан,050028,43.3586119,76.9380904
41,Жайсан,050028,43.3587699,76.9382009
43,Жайсан,050028,43.3589222,76.9383105
45,Жайсан,050028,43.3590625,76.9384160
47,Жайсан,050028,43.3592020,76.9385255
49,Жайсан,050028,43.3593441,76.9386210
51,Жайсан,050028,43.3594748,76.9387236
53,Жайсан,050028,43.3596076,76.9388223
55,Жайсан,050028,43.3597434,76.9389244
57,Жайсан,050028,43.3598609,76.9390326
59,Жайсан,050028,43.3599904,76.9391288
59А,Жайсан,050028,43.3601018,76.9392664
50,Жайсан,050028,43.3594221,76.9380796
48,Жайсан,050028,43.3592788,76.9380204
46,Жайсан,050028,43.3590746,76.9378552
44,Жайсан,050028,43.3589899,76.9377688
42,Жайсан,050028,43.3588809,76.9376843
40,Жайсан,050028,43.3587366,76.9376108
38,Жайсан,050028,43.3586188,76.9374864
36,Жайсан,050028,43.3584686,76.9373382
9,Кузнецова улица,050028,43.3586539,76.9369057
11,Кузнецова улица,050028,43.3587924,76.9370167
13,Кузнецова улица,050028,43.3589162,76.9371058
15,Кузнецова улица,050028,43.3590726,76.9372204
17,Кузнецова улица,050028,43.3591755,76.9373156
19,Кузнецова улица,050028,43.3593296,76.9374078
21,Кузнецова улица,050028,43.3594603,76.9374909
23,Кузнецова улица,050028,43.3595809,76.9376197
10,Кузнецова улица,050028,43.3587551,76.9366301
12,Кузнецова улица,050028,43.3588517,76.9366902
14,Кузнецова улица,050028,43.3590526,76.9368783
16,Кузнецова улица,050028,43.3591778,76.9369300
18,Кузнецова улица,050028,43.3593057,76.9369967
20,Кузнецова улица,050028,43.3594317,76.9371418
22,Кузнецова улица,050028,43.3595755,76.9372555
24,Кузнецова улица,050028,43.3597238,76.9373715
45А,улица Омарова,050014,43.3118033,76.9232812
45В,улица Омарова,050014,43.3111140,76.9236820
47А,улица Омарова,050014,43.3109476,76.9233586
194/2,улица Жансугурова,050016,43.3005819,76.9295174
194,улица Жансугурова,050016,43.3001029,76.9299844
271,улица Жансугурова,050016,43.3010566,76.9304967
154,улица Акан Серы,050011,43.3088238,76.9451538
150,улица Акан Серы,050011,43.3103409,76.9450574
21/2,Мамыр 1-й микрорайон,050036,43.2109333,76.8469625
289/1,Розыбакиев көшесі,050060,43.1952984,76.8936872
289/2,Розыбакиев көшесі,050060,43.1954798,76.8938959
289/3,Розыбакиев көшесі,050060,43.1957168,76.8939969
289,Розыбакиев көшесі,050060,43.1952967,76.8931812
289А,Розыбакиев көшесі,050060,43.1950513,76.8928466
19,Улица Авиатор,050054,43.3375614,76.9968306
95\4,улица Снегина,050059,43.2299108,76.9573826
291/1 литер Л,Төле би көшесі,050062,43.2440912,76.8489523
291/1 литер М,Төле би көшесі,050062,43.2439107,76.8486937
16А,улица Саина,050063,43.2398345,76.8399936
16/1,5-ый переулок (Ерменсай),050044,43.1982101,76.9312185
16/4,5-ый переулок (Ерменсай),050044,43.1980576,76.9327731
16/3,5-ый переулок (Ерменсай),050044,43.1981089,76.9322536
16/2,5-ый переулок (Ерменсай),050044,43.1981545,76.9317372
152,улица Оспанова,050020,43.1946172,76.9732964
158,улица Оспанова,050020,43.1945474,76.9726683
210,пр. Достык,050051,43.2300078,76.9608967
24,Минина,050013,43.2354240,76.9244173
68/4,проспект Алтынсарина Ыбрай,050062,43.2330284,76.8523446
68/3,мкр.1,050062,43.2332428,76.8530573
12/13,улица Мустай Карим,050052,43.2079866,76.8613201
38г,улица Абиша Кекилбайулы,050060,43.2043084,76.8908923
53,улица Мынбаева,050057,43.2377604,76.9026314
159,улица Брусиловского,050005,43.2451858,76.8769395
159/3,улица Брусиловского,050005,43.2451097,76.8762019
101А,улица Кулымбетова,050005,43.2443721,76.8736267
26,улица Тимирязева,050000,43.2302729,76.9336991
77/1,проспект Аль-Фараби,050060,43.2196261,76.9287490
77/3,проспект Аль-Фараби,050060,43.2202413,76.9296165
264/1,улица Тлендиева,050060,43.2243247,76.8821457
282/1,проспект Серкебаева,050060,43.2060953,76.8975118
298а,проспект Серкебаева,050060,43.2019379,76.8996412
230,улица Жарокова,500060,43.2156088,76.9032786
104А,Dostyk Avenue,050000,43.2421638,76.9583178
5,улица Маркова,050040,43.2259220,76.9356163
18,Набережная (Айгерим),050047,43.2725203,76.8499520
45/1,3-ий микрорайон,050036,43.2263535,76.8488315
39Б,улица Маркова,050040,43.2301161,76.9290120
109,улица Жамакаева,050044,43.2177851,76.9470058
34А,улица Зеин Шашкина,050044,43.2192725,76.9378052
59,проспект Жибек Жолы,050002,43.2627426,76.9511626
59,проспект Жибек Жолы,050002,43.2629535,76.9517238
20,улица Оспанова,050020,43.2021570,76.9762950
12,улица Фёдорова,050034,43.2691753,76.8967093
13,улица Фёдорова,050034,43.2696050,76.8971633
43,Жетысуская улица,A25M6P0,43.2703472,76.9617479
29А,Жетысу 1-й микрорайон,050000,43.2217112,76.8384322
57,1-я улица (Акбулак),050033,43.2624093,76.8207085
298/2,улица Навои,050043,43.2038935,76.8881340
16,улица Шахтинская,050019,43.2843175,76.9902858
163,улица Кожамкулова,05026,43.2551217,76.9158197
5А,улица Желтоксан,050050,43.2725924,76.9360103
34,улица Брусиловского,050005,43.2566755,76.8757274
229,улица Радостовца,050060,43.2208170,76.8941653
178,улица Радостовца,050060,43.2208966,76.8946173
180,улица Радостовца,050060,43.2206545,76.8946239
21/6,улица Веселова,050065,43.2795944,76.8521846
48,улица Жамакаева,050044,43.2211090,76.9414775
194,20 линия,050000,43.2220624,76.8886192
187/1,улица Жарокова,050057,43.2317300,76.8999637
1А,улица Щепкина,050042,43.2109737,76.8698876
31/1,Орманова,050010,43.2586142,76.9759538
7/2,Водопроводная улица,050023,43.2002273,76.9116582
107,1-я улица (Акбулак),050033,43.2638357,76.8214076
68,Тұрғыт Озалы көшесі,050005,43.2529658,76.8814788
200,улица Муратбаева,000222,43.2437135,76.9207627
31А,улица Шаляпина,050000,43.2242693,76.8720044
69Г,Щелковская,A36H0B8,43.3363910,76.9663349
174А,проспект Сейфуллина,050037,43.3078309,76.9425232
311,проспект Серкебаева,050060,43.2018634,76.8979422
187,улица Байкена Ашимова,050006,43.2083319,76.8157363
187,улица Байкена Ашимова,050006,43.2084435,76.8168450
532А,проспект Райымбека,A10H6G1,43.2348887,76.7993240
46/1,улица Щепкина,050042,43.2105061,76.8706502
24,бульвар Мусрепова,050040,43.2340657,76.9195540
7/6,Ыкылас улица,050052,43.2035766,76.8515977
34,улица Абиша Кекилбайулы,050060,43.2052066,76.8909060
233 Блок CА,проспект Серкебаева,050060,43.2111311,76.8961290
233 Блок B,проспект Серкебаева,050060,43.2111620,76.8969155
233 Блок A,проспект Серкебаева,050060,43.2112209,76.8977081
14/1,Минина,050013,43.2362743,76.9272356
12,улица Усенова,050006,43.2031511,76.8227717
4/2,Афцинао улица,040212,43.2068548,76.8347982
7/1,Ыкылас улица,050052,43.2035434,76.8519227
57/1,Ходжанова улица,050060,43.2098874,76.9091243
16,улица Павленко,050034,43.2659055,76.8977373
246,проспект Назарбаева,050059,43.2253863,76.9533823
233 Блок E,проспект Серкебаева,050060,43.2117446,76.8971151
14Б,Нуркент микрорайон,050038,43.2586269,76.8152955
310a,Розыбакиев көшесі,050060,43.2088504,76.8949922
164/2,улица Тлендиева,050005,43.2427727,76.8738068
232,Сагадат Нурмагамбетов улица,050010,43.2397219,76.9783686
24/1,улица Пятницкого,050042,43.2127087,76.8759377
11а,Таугуль,050042,43.2126157,76.8754491
1/1а,Коктем-2,050040,43.2270123,76.9239570
55б,Ходжанова улица,050060,43.2104592,76.9097572
108,улица Ади Шарипова,050012,43.2451164,76.9238301
301/1,улица Толе Би,050031,43.2427796,76.8427146
277/7,Гагарин даңғылы,050060,43.2073716,76.8974570
51,улица Алтын Алма,050027,43.1774567,76.7984053
117,Абылай хан даңғылы,050000,43.2499837,76.9416575
291/1 литре А,Төле би көшесі,050062,43.2452024,76.8481086
291/1 литер Ж,Төле би көшесі,050062,43.2450685,76.8475143
291/1 склад№1,Төле би көшесі,050062,43.2453678,76.8474736
291/1 склад№2,Төле би көшесі,050062,43.2454435,76.8478652
336/5,Розыбакиев көшесі,050060,43.2061349,76.8959868
336/5,Розыбакиев көшесі,050060,43.2060878,76.8952738
336/5,Розыбакиев көшесі,050060,43.2060448,76.8945228
24 К 1,Сәтбаев,050040,43.2345552,76.9199098
115,улица Досмухамедова,050022,43.2424447,76.9247830
34/1,Жандосов көшесі,050008,43.2350232,76.9098465
8 А,Жандосов көшесі,050008,43.2350998,76.9097587
21,әл-Фараби даңғылы,050059,43.2288809,76.9431083
92,СТ Сантехник,​050007,43.2544542,77.0062047
23,СТ Сантехник,​050007,43.2543107,77.0062651
90,СТ Сантехник,​050007,43.2543097,77.0060183
24 А,улица Сулейменова,050042,43.2120857,76.8779788
6,улица Токтабаева,050042,43.2115513,76.8793812
6/1,улица Токтабаева,050042,43.2119207,76.8792481
6/2,улица Токтабаева,050042,43.2122902,76.8791155
30/8 А,улица Шагабутдинова,050040,43.2342381,76.9213138
30/8 Б,улица Шагабутдинова,050040,43.2342676,76.9220385
30/2,улица Шагабутдинова,050040,43.2346206,76.9223210
30 А К2,улица Шагабутдинова,050040,43.2348348,76.9212794
30 А К1,улица Шагабутдинова,050040,43.2352082,76.9215506
30/1,улица Шагабутдинова,050040,43.2350512,76.9224139
30/8,улица Шагабутдинова,050040,43.2345380,76.9213809
30/8,улица Шагабутдинова,050040,43.2341950,76.9210324
30/8,улица Шагабутдинова,050040,43.2342196,76.9216794
30/2,улица Шагабутдинова,050040,43.2343053,76.9223607
30/1,улица Шагабутдинова,050040,43.2350165,76.9224086
30 А К1,улица Шагабутдинова,050040,43.2351428,76.9212715
310a,Розыбакиев көшесі,050060,43.2087226,76.8961405
162а/1,улица Берегового,050042,43.2118066,76.8694268
264,улица Абиша Кекилбайулы,050060,43.2035045,76.8903847
38a/1,улица Абиша Кекилбайулы,050060,43.2044786,76.8916172
38,улица Абиша Кекилбайулы,050060,43.2042329,76.8914255
270,улица Абиша Кекилбайулы,050060,43.2006679,76.8909098
91,СТ Сантехник,​050007,43.2543800,77.0061162
35А кв2,улица Радищева,050050,43.2786771,76.9374108
4Г,Жандосов көшесі,050057,43.2336981,76.9076111
129,Zheltoksan St,050000,43.2484534,76.9397441
22/1,улица Сатпаева,050040,43.2356222,76.9193552
14,проспект Абая,050013,43.2414894,76.9431672
15,площадь Республики,050013,43.2389390,76.9434650
59,улица Толе Би,050000,43.2557022,76.9431542
20,улица Жазылбека,050052,43.2035824,76.8661659
144,улица Прокофьева,050005,43.2434957,76.8756715
8,улица Бальзака,050040,43.2251938,76.9336276
73,проспект Аль-Фараби,050040,43.2123480,76.9178053
187,улица Байкена Ашимова,050006,43.2091334,76.8188894
111,улица Жолдасбекова,050050,43.2334058,76.9568142
139,Панфилов көшесі,050000,43.2472467,76.9455647
280,Байзақов,050040,43.2371612,76.9153530
303,Байзақов көшесі,050040,43.2300277,76.9147355
