House number,Street name,Postal code,Latitude,Longitude
347,North Kuakini Street,96817,21.3213889,-157.8561110
2512,Kalākaua Avenue,96815,21.2735058,-157.8236845
2913,Pali Highway,96917,21.3358254,-157.8394682
2411,Makiki Heights Drive,96822,21.3119382,-157.8327716
3288,Moanalua Road,96819,21.3633504,-157.8997790
3320,Harding Avenue,96816,21.2847461,-157.8057932
3254,Waialae Avenue,96816,21.2869027,-157.8064719
2239,South King Street,96814,21.2936647,-157.8271625
1234,South Beretania Street,96814,21.3016561,-157.8420800
848,Ala Lilikoi Street,96818,21.3443472,-157.9139354
700,Keeaumoku Street,96814,21.2948451,-157.8432043
750,Keeaumoku Street,96814,21.2945349,-157.8425465
1670,Makaloa Street,96814,21.2931260,-157.8373190
888,Kapahulu Avenue,96816,21.2838153,-157.8147950
7192,Kalaniana’ole Highway,96825,21.2770353,-157.7053888
3036,Waialae Avenue,96816,21.2892764,-157.8114749
4211,Waialae Avenue,96816,21.2774954,-157.7864165
2600,South King Street,96826,21.2921199,-157.8215644
111,Ohe Street,96813,21.2936390,-157.8619870
3538,Waialae Avenue,96816,21.2835855,-157.8003430
1450,Ala Moana Boulevard,96814,21.2925242,-157.8466549
205,South Beretania Street,96825,21.3005050,-157.8399510
1450,Ala Moana Boulevard,96814,21.2919390,-157.8440780
900,Fort Street Mall,96813,21.3098949,-157.8616210
900,Fort Street Mall,96813,21.3087617,-157.8631734
1734,Republican Street,96819,21.3247212,-157.8830300
2446,Koa Avenue,96815,21.2758128,-157.8241926
2966,East Manoa Road,96822,21.3103851,-157.8087063
2955,East Manoa Road,96822,21.3102950,-157.8088632
D133,3375 Koapaka Street,96819,21.3346224,-157.9170160
D133,3375 Koapaka Street,96819,21.3345275,-157.9170160
300,Rodgers Boulevard,96819,21.3335537,-157.9240182
300,Rodgers Boulevard,96819,21.3340385,-157.9239344
300,Rodgers Boulevard,96819,21.3339209,-157.9239536
300,Rodgers Boulevard,96819,21.3339777,-157.9239447
300,Rodgers Boulevard,96819,21.3340970,-157.9239235
300,Rodgers Boulevard,96819,21.3341567,-157.9239163
300,Rodgers Boulevard,96819,21.3324081,-157.9242928
300,Rodgers Boulevard,96819,21.3348796,-157.9237720
7192,Kalaniana’ole Highway,96825,21.2771764,-157.7055130
318,Kamani Street,96813,21.2970276,-157.8568900
318,Kamani Street,96813,21.2970214,-157.8569302
307A,Kamani Street,96813,21.2967883,-157.8566250
377,Keahole Street,96825,21.2841217,-157.7071137
2005,Kalia Road,96815,21.2831807,-157.8357220
1249,Wilder Avenue,96822,21.3054717,-157.8381414
1108,keeaumoku Street,96814,21.2996611,-157.8401015
1860,Ala Moana Boulevard,96815,21.2852671,-157.8357860
2500,Kuhio Avenue,96815,21.2746984,-157.8202903
51,Coelho Way,96817,21.3301173,-157.8468782
1149,South King Street,96814,21.2998280,-157.8447309
110,Pohakulana Place,96819,21.3159905,-157.9167494
129,Pohakulana Place,96819,21.3169824,-157.9158260
111,Keehi Place,96819,21.3175022,-157.9145285
2310,Kūhiō Avenue,96815,21.2794870,-157.8260414
234,Beach Walk,96815,21.2796098,-157.8316230
820,West Hind Drive,96821,21.2789669,-157.7532225
925,Isenberg Street,96826,21.2924193,-157.8255830
1378,South Beretania Street,96814,21.3006595,-157.8396215
151,Uluniu Avenue,96815,21.2764211,-157.8234300
419,Seaside Avenue,96815,21.2803547,-157.8261730
7192,Kalaniana'ole Highway,96825,21.2767966,-157.7051606
2919,Kapiolani Boulevard,96826,21.2879906,-157.8151560
2919,Kapiolani Boulevard,96826,21.2879754,-157.8150851
2919,Kapiolani Boulevard,96826,21.2880513,-157.8153970
2700,South King Street,96826,21.2912042,-157.8203281
2505,Campus Road,96822,21.2987661,-157.8186347
300,Rodgers Boulevard,96819,21.3314011,-157.9192863
3600,Aolele Street,96820,21.3355627,-157.9216030
2821,Lowrey Avenue,96822,21.3113167,-157.8093095
801,Alakea Street,96813,21.3068125,-157.8619700
1804,Ala Moana Boulevard,96815,21.2850457,-157.8379293
1450,Ala Moana Boulevard,96814,21.2901901,-157.8439012
1850,Ala Moana Boulevard,96815,21.2849608,-157.8365560
1765,Ala Moana Boulevard,96815,21.2854951,-157.8392140
2280,Kuhio Avenue,96815,21.2799972,-157.8263980
1450,Ala Moana Boulevard,96814,21.2919635,-157.8454318
1960,Kapiolani Boulevard,96826,21.2900448,-157.8327205
438,Hobron Lane,96815,21.2870201,-157.8358639
438,Hobron Lane,96815,21.2870751,-157.8357620
438,Hobron Lane,96815,21.2869601,-157.8359230
438,Hobron Lane,96815,21.2869451,-157.8358961
438,Hobron Lane,96815,21.2869601,-157.8359069
1044,Auahi Street,96814,21.2938728,-157.8530340
1044,Auahi Street,96814,21.2945725,-157.8541673
1450,Ala Moana Boulevard,96814,21.2905992,-157.8416931
1946,Ala Moana Boulevard,96815,21.2865436,-157.8343927
1777,Ala Moana Boulevard,96815,21.2841160,-157.8385286
1130,Nimitz Highway,96817,21.3178232,-157.8753463
460,Ena Road,96815,21.2867549,-157.8341390
1860,Ala Moana Boulevard,96815,21.2854756,-157.8358188
1720,Ala Moana Boulevard,96815,21.2865381,-157.8392093
1095,Dillingham Boulevard,96817,21.3209051,-157.8730753
680,Ala Moana Boulevard,96813,21.2976220,-157.8614668
2335,Kalakaua Avenue,96815,21.2771500,-157.8276707
2250,Kalakaua Avenue,96817,21.2792353,-157.8286300
205,Lewers Street,96815,21.2784813,-157.8315343
848,Ala Lilikoi Street,96818,21.3458222,-157.9134196
846,Ala Lilikoi Street,96818,21.3449466,-157.9134095
898,Ala Lilikoi Street,96818,21.3441373,-157.9141607
848,Ala Lilikoi Street,96818,21.3452355,-157.9138024
3093,Pualei Circle,96815,21.2666269,-157.8153011
333,Seaside Avenue,96817,21.2793735,-157.8277032
5,Dukes Lane,96815,21.2786336,-157.8274290
355,Royal Hawaiian Avenue,96815,21.2806232,-157.8277767
358,Royal Hawaiian Avenue,96815,21.2807583,-157.8279500
1945,Kalākaua Avenue,96815,21.2860511,-157.8333593
550,Paiea Street,96819,21.3352342,-157.9158537
3253,Nimitz Highway,96819,21.3362154,-157.9131782
3045,Monsarrat Avenue,96815,21.2688200,-157.8136018
2699,Kalakaua Avenue,96815,21.2678942,-157.8225004
134,Kapahulu Avenue,96815,21.2717588,-157.8218110
1450,Ala Moana Boulevard,96814,21.2913157,-157.8428450
1300,Pali Highway,96813,21.3123944,-157.8578040
111,Ahui Street,96813,21.2915814,-157.8609097
700,Bishop Street,96813,21.3075255,-157.8632931
1221,Kapiolani Boulevard,96814,21.2948599,-157.8471139
2270,Kuhio Avenue,96815,21.2801871,-157.8264244
2431,Prince Edward Street,96815,21.2762964,-157.8242345
1286,Kalani Street,96817,21.3217554,-157.8760045
138,Uluniu Avenue,96815,21.2761751,-157.8241221
358,Royal Hawaiian Avenue,96815,21.2805668,-157.8281395
2469,South King Street,96826,21.2925138,-157.8242089
410,Atkinson Drive,96814,21.2904134,-157.8396433
1750,Kalakaua Avenue,96826,21.2913051,-157.8353572
2005,Kalia Road,96815,21.2828927,-157.8361579
1188,Bishop Street,96813,21.3105860,-157.8591719
2381,Kuhio Avenue,96815,21.2781118,-157.8249740
2375,Kuhio Avenue,96815,21.2778998,-157.8246023
2552,Kalākaua Avenue,96815,21.2728913,-157.8232270
1030,Smith Street,96817,21.3116168,-157.8629030
100,North Beretania Street,96817,21.3142247,-157.8615330
2700,South King Street,96826,21.2913325,-157.8204529
2509,South King Street,96826,21.2923067,-157.8236923
333,North King Street,96817,21.3155369,-157.8645843
1118,Auahi Street,96814,21.2938402,-157.8539240
1010,South King Street,96814,21.3017085,-157.8485667
655,Keeaumoku Street,96814,21.2943361,-157.8412510
3345,Koapaka Street,96819,21.3364147,-157.9166930
1107,Bethel Street,96732,21.3105504,-157.8614149
1115,Bethel Street,96732,21.3106226,-157.8612924
1109,Bethel Street,96732,21.3105672,-157.8613864
52,South Hotel Street,96732,21.3104686,-157.8615384
1111,Bethel Street,96732,21.3105954,-157.8613385
1121,South Beretania Street,96814,21.3013962,-157.8443177
1677,Pensacola Street,98622,21.3083631,-157.8395830
1121,South Beretania Street,96814,21.3014877,-157.8445920
419,Waiakamilo Road,96817,21.3219277,-157.8778620
938,Piikoi Street,96814,21.2997400,-157.8444290
537,Pensacola Street,96814,21.2938293,-157.8482309
2746,Kaimuki Avenue,96816,21.2874871,-157.8152355
1200,Ala Moana Boulevard,96814,21.2933105,-157.8532127
1129,North Nimitz Highway,96817,21.3176737,-157.8767338
1129,11th Avenue,96816,21.2823525,-157.8002690
1296,South Beretania Street,96814,21.3009770,-157.8411149
280,Beach Walk,96815,21.2809178,-157.8308030
1009,University Avenue,96826,21.2922412,-157.8212453
2002,South King Street,96826,21.2952309,-157.8298346
1027,Pensacola Street,96814,21.3011960,-157.8453846
1017,Pensacola Street,96814,21.3010136,-157.8454601
1021,Pensacola Street,96814,21.3010983,-157.8454251
1025,Pensacola Street,96814,21.3011497,-157.8454027
550,Paiea Street,96819,21.3357183,-157.9157630
550,Paiea Street,96819,21.3358582,-157.9157388
550,Paiea Street,96819,21.3357902,-157.9157501
1231,Wilder Avenue,96822,21.3057510,-157.8387103
1231,Wilder Avenue,96822,21.3057058,-157.8386110
1231,Wilder Avenue,96822,21.3057333,-157.8386575
1249,Wilder Avenue,96822,21.3054109,-157.8381017
1249,Wilder Avenue,96822,21.3055794,-157.8383542
1249,Wilder Avenue,96822,21.3055273,-157.8382501
1239,Wilder Avenue,96822,21.3055696,-157.8387470
1000,Bishop Street,96813,21.3088310,-157.8615307
3045,Monsarrat Avenue,96815,21.2688179,-157.8133974
2500,Dole Street,96822,21.2977251,-157.8178404
1425,Liliha Street,96817,21.3198956,-157.8611562
1450,Ala Moana Boulevard,96814,21.2922474,-157.8467826
1719A,Owawa Street,96819,21.3385507,-157.8684657
1719,Owawa Street,96819,21.3385717,-157.8684851
1296,South Beretania Street,96814,21.3010381,-157.8410915
2503,South King Street,96826,21.2923962,-157.8238295
665 Halekauwila,Halekauwila St,96813,21.3006834,-157.8589895
1960,Kapiolani Boulevard,96826,21.2899594,-157.8330100
704,Ala Moana Boulevard,96813,21.2972270,-157.8611145
1100,Ward Avenue,96814,21.3033388,-157.8501180
2919,Kapiolani Boulevard,96826,21.2881663,-157.8150994
449,Kapahulu Avenue,96815,21.2750017,-157.8153438
201,Merchant Street,96813,21.3069937,-157.8611732
2225,Kuhio Avenue,96815,21.2796315,-157.8269970
449,Kapahulu Avenue,96815,21.2750615,-157.8154405
2570,Kalākaua Avenue,96815,21.2723464,-157.8228770
2470,Kapahulu Avenue,96815,21.2721606,-157.8229180
310,Lewers Street,96815,21.2805042,-157.8294645
477,Kapahulu Avenue,96815,21.2758564,-157.8149613
614,Kapahulu Avenue,96815,21.2788250,-157.8141710
267,Mokauea Street,96819,21.3273332,-157.8819052
1820,Algaroba Street,96826,21.2948282,-157.8320770
64,North Pauahi Street,96817,21.3123704,-157.8617873
3145,Waialae Avenue,96816,21.2876592,-157.8091871
1120,Maunakea Street,96817,21.3126706,-157.8627151
3046,Monsarrat Avenue,96815,21.2691315,-157.8133960
1450,Ala Moana Boulevard,96814,21.2924855,-157.8423120
2417,Prince Edward Street,96815,21.2765470,-157.8243870
4361,Salt Lake Boulevard,96818,21.3596711,-157.9283164
2214,North King Street,96819,21.3351822,-157.8810560
3269,Koapaka Street,96819,21.3357288,-157.9145170
1288,Ala Moana Boulevard,96814,21.2924106,-157.8505220
515,Ward Avenue,96814,21.2976371,-157.8538459
151 Kapahulu Avenue,Kapahulu Avenue,96815,21.2721866,-157.8194182
3632,Waialae Avenue,96816,21.2826706,-157.7985557
500,Ala Moana Blvd Bldg. 7,96813,21.3016756,-157.8628060
2301,Kalākaua Avenue,96815,21.2773117,-157.8277843
760,Queen Street,96813,21.2995881,-157.8557441
500,Alakawa Street,96817,21.3189856,-157.8730027
1299,Kaumualii Street,96817,21.3243156,-157.8746041
500,Alakawa Street,96817,21.3190140,-157.8735580
939,McCully Street,96826,21.2944569,-157.8304430
1234,South Beretania Street,96814,21.3014657,-157.8423370
1102,Piikoi Street,96814,21.3009778,-157.8437099
1102,Piikoi Street,96814,21.3008626,-157.8437843
1206,Kinau Street,96814,21.3022597,-157.8425480
1234,South Beretania Street,96814,21.3013944,-157.8421193
1111,Dillingham Boulevard,96817,21.3212993,-157.8734330
4760,Analii Street,96821,21.2780753,-157.7703572
3435,Kapahulu Avenue,96816,21.2843549,-157.8025015
500,Keawe Street,96813,21.3004413,-157.8598890
1450,Ala Moana Center,96814,21.2903550,-157.8426865
1284,Kalani Street,96817-4939,21.3214664,-157.8760060
1007,River Street,96817,21.3134417,-157.8638320
814,Ilaniwai Street,96813,21.2989480,-157.8560535
2301,Kalākaua Avenue,96815,21.2783261,-157.8284086
3269,Koapaka Street,96819,21.3352716,-157.9145501
1116,South King Street,96814,21.3005883,-157.8456005
1115,Young Street,96814,21.3009474,-157.8450001
300,Rodgers Boulevard,96819,21.3306017,-157.9232137
2233,Kalākaua Avenue,96815,21.2794795,-157.8300620
1800,Kaioo Drive,96815,21.2859118,-157.8367452
388,Kamakee Street,96814,21.2946436,-157.8524053
2525,South King Street,96826,21.2921987,-157.8234264
1279,South King Street,96814,21.2990710,-157.8424262
1289,South King Street,96814,21.2989606,-157.8421356
2733,South King Street,96826,21.2904510,-157.8199601
2743,South King Street,96826,21.2903984,-157.8197362
2745,South King Street,96826,21.2903673,-157.8196852
2739,South King Street,96826,21.2904416,-157.8198018
2939,Harding Avenue,96816,21.2881372,-157.8140630
2919,Kapiolani Boulevard,96826,21.2879578,-157.8150074
2919,Kapiolani Boulevard,96826,21.2879406,-157.8149306
2919,Kapiolani Boulevard,96826,21.2879227,-157.8148444
2919,Kapiolani Boulevard,96826,21.2880681,-157.8147230
2919,Kapiolani Boulevard,96826,21.2880919,-157.8148265
2919,Kapiolani Boulevard,96826,21.2881102,-157.8148979
2919,Kapiolani Boulevard,96826,21.2881289,-157.8149608
801,South Beretania Street,96813,21.3040638,-157.8512840
415,Kapahulu Avenue,96815,21.2743712,-157.8159010
888,Nimitz Highway,96817,21.3164353,-157.8745446
900,Nimitz Highway,96817,21.3165320,-157.8745966
900,Nimitz Highway,96817,21.3166277,-157.8746456
383,Kalaimoku Street,96815,21.2826223,-157.8298755
2863,Kalākaua Avenue,96815,21.2633097,-157.8213819
1221,Kapiolani Boulevard,96814,21.2951691,-157.8477514
2446,Koa Avenue,96815,21.2757880,-157.8242860
1288,Ala Moana Boulevard,96814,21.2927395,-157.8502074
2950,Manoa Road,96822,21.3161324,-157.8122770
2565,Cartwright Road,96815,21.2730945,-157.8215496
227,Lewers Street,96815,21.2795234,-157.8304954
2301,Kalākaua Avenue,96815,21.2781871,-157.8282586
1130,Nimitz Highway,96817,21.3188023,-157.8754055
307,Lewers Street,96815,21.2803937,-157.8293183
2284,Kalākaua Avenue,96815,21.2784895,-157.8280190
411,Nahua Street,96815,21.2793779,-157.8251804
1218,Waimanu Street,96814,21.2938155,-157.8477000
932,Ward Avenue,96814,21.3017597,-157.8509481
1450,Ala Moana Boulevard,96814,21.2921531,-157.8459317
1450,Ala Moana Boulevard,96814,21.2918486,-157.8458233
1226,College Walk,96817,21.3152972,-157.8619909
32,North Hotel Street,96817,21.3115489,-157.8621998
300,Rodgers Boulevard,96819,21.3291644,-157.9151985
300,Rodgers Boulevard,96819,21.3292212,-157.9151970
902,Nuuanu Avenue,96817,21.3104071,-157.8635530
745,Fort Street Mall,96813,21.3080074,-157.8636351
888,Kapiolani Boulevard,96813,21.2995644,-157.8524550
743,Waiakamilo Road,96817,21.3261988,-157.8736850
733,Bishop Street,96813,21.3067026,-157.8628319
1614,South King Street,96826,21.2971428,-157.8355756
2065,South Beretania Street,96826,21.2960824,-157.8283071
925,Maunakea Street,96817,21.3111522,-157.8644793
1001,Bishop Street,96813,21.3087855,-157.8610610
988,Halekauwila Street,96814,21.2972123,-157.8552530
745,Keeaumoku Street,96813,21.2959650,-157.8409921
7192,Kalaniana’ole Highway,96825,21.2778579,-157.7054525
7192,Kalaniana’ole Highway,96825,21.2778029,-157.7056230
1050,Queen Street,96814,21.2948499,-157.8517704
7192,Kalaniana’ole Highway,96825,21.2773422,-157.7059025
377,Keahole Street,96825,21.2852143,-157.7068540
300,Rodgers Boulevard,96819,21.3312209,-157.9198040
300,Rodgers Boulevard,96819,21.3313177,-157.9201020
300,Rodgers Boulevard,96819,21.3312894,-157.9197900
300,Rodgers Boulevard,96819,21.3313636,-157.9197739
7192,Kalaniana’ole Highway,96825,21.2774628,-157.7057314
7192,Kalaniana'ole Highway,96825,21.2768038,-157.7049357
7192,Kalaniana’ole Highway,96825,21.2787082,-157.7046405
7192,Kalaniana'ole Highway,96825,21.2772867,-157.7054943
3620,Waialae Avenue,96816,21.2827329,-157.7986830
1286,Kalani Street,96817,21.3217956,-157.8758251
1286,Kalani Street,96817,21.3216458,-157.8763532
333,Keahole Street,96825,21.2831010,-157.7121080
333,Keahole Street,96825,21.2830760,-157.7120403
333,Keahole Street,96825-3406,21.2830522,-157.7119690
333,Keahole Street,96825,21.2830200,-157.7118905
333,Keahole Street,96825,21.2829904,-157.7118139
333,Keahole Street,96825,21.2829664,-157.7117548
333,Kalaniana’ole Highway,96825,21.2829459,-157.7116950
333,Keahole Street,96825,21.2830957,-157.7110932
1286,Kalani Street,96817,21.3217096,-157.8761855
1284,Kalani Street,96817,21.3214390,-157.8761074
1284,Kalani Street,96817,21.3215064,-157.8758526
1284,Kalani Street,96817,21.3215352,-157.8757399
6600,Kalaniana’ole Highway,96825,21.2831250,-157.7145684
550,Paiea Street,96819,21.3355258,-157.9144993
1620,North School Street,96817,21.3358535,-157.8688715
1620,North School Street,96817,21.3358236,-157.8688478
1620,North School Street,96817,21.3357969,-157.8688250
1620,North School Street,96817,21.3357697,-157.8688042
1111,Dillingham Boulevard,96817,21.3213272,-157.8732810
449,Kapahulu Avenue,96815,21.2749897,-157.8154310
619,Kapahulu Avenue,96815,21.2788899,-157.8138275
617,Kapahulu Avenue,96815,21.2788251,-157.8138143
845,Kapahulu Avenue,96816,21.2830341,-157.8138212
1538,Kapiolani Boulevard,96814,21.2925614,-157.8407881
1425,Liliha Street,96817,21.3201605,-157.8613830
250,Ward Avenue,96814,21.2962998,-157.8572227
7192,Kalaniana'ole Highway,96825,21.2782024,-157.7043734
458,Keawe Street,96813,21.2999984,-157.8604361
41,South Hotel Street,96732,21.3103830,-157.8616752
550,Halekauwila Street,96813,21.3026505,-157.8602070
1028,Nuuanu Avenue,96817,21.3103080,-157.8629853
1146,Fort Street Mall,96813,21.3105422,-157.8604487
1099,Alakea Street,96813,21.3083778,-157.8597902
7192,Kalanianaʻole Highway,96825,21.2785142,-157.7041028
7192,Kalanianaʻole Highway,96825,21.2786207,-157.7038864
7192,Kalanianaʻole Highway,96825,21.2786749,-157.7039498
7192,Kalanianaʻole Highway,96825,21.2785142,-157.7041028
1782,Kalanianaʻole Highway,96825,21.2779026,-157.7054062
4211,Waialae Avenue,96816,21.2770825,-157.7863632
4211,Waialae Avenue,96816,21.2753620,-157.7860066
4211,Waialae Avenue,96816,21.2753734,-157.7860659
4211,Waialae Avenue,96816,21.2768555,-157.7866189
4510,Salt Lake Boulevard,96818,21.3660286,-157.9268733
1630,Pali Highway,96813,21.3127667,-157.8580540
1130,Nimitz Highway,96817,21.3187619,-157.8753853
909,Dillingham Boulevard,96817,21.3196493,-157.8697674
451,Piikoi Street,96814,21.2932201,-157.8461945
1450,Ala Moana Boulevard,96813,21.2916992,-157.8455261
1450,Ala Moana Boulevard,96813,21.2921139,-157.8461083
553,South King Street,96813,21.3037968,-157.8567799
1742,Nuuanu Avenue,96818,21.3192517,-157.8539499
1755,Nuuanu Avenue,96817,21.3187698,-157.8533420
1613,Nuuanu Avenue,96813,21.3162951,-157.8551967
1613,Nuuanu Avenue,96813,21.3162639,-157.8552385
600,Kapiolani Boulevard,96813,21.3028544,-157.8547472
800,South Beretania Street,96813,21.3048062,-157.8508672
801,South Beretania Street,96813,21.3038596,-157.8512940
1,North King Street,96817,21.3105955,-157.8630552
800,South Beretania Street,96813,21.3047419,-157.8508410
600,Kapiolani Boulevard,96813,21.3033648,-157.8549590
600,Kapiolani Boulevard,96813,21.3031512,-157.8549118
335,Merchant Street,96813,21.3061931,-157.8607250
335,Merchant Street,96813,21.3059921,-157.8605872
335,Merchant Street,96813,21.3060881,-157.8606819
4369,Lawehana Street,96818,21.3564619,-157.9272220
300,Rodgers Boulevard,96819,21.3326660,-157.9177778
300,Rodgers Boulevard,96819,21.3326164,-157.9174278
300,Rodgers Boulevard,96819,21.3326325,-157.9175358
300,Rodgers Boulevard,96819,21.3326470,-157.9176538
300,Rodgers Boulevard,96819,21.3300362,-157.9199824
300,Rodgers Boulevard,96819,21.3293986,-157.9236505
300,Rodgers Boulevard,96819,21.3339132,-157.9235440
1450,Ala Moana Boulevard,96814,21.2917201,-157.8437120
438,Hobron Lane,96815,21.2872800,-157.8358340
737,Bishop Street,96815,21.2881636,-157.8349464
2615,South King Street,96826,21.2915435,-157.8219890
1019,University Avenue,96826,21.2924458,-157.8213831
111,Ohe Street,96813,21.2933435,-157.8620753
100,North Beretania Street,96817,21.3135792,-157.8611500
100,North Beretania Street,96817,21.3140215,-157.8615417
1019,Waimanu Street,96814,21.2963936,-157.8519191
300,Ala Moana Boulevard,96850,21.3036446,-157.8618552
400,Sand Island Parkway,96819,21.3052033,-157.8712430
400,Sand Island Parkway,96819,21.3071445,-157.8729720
400,Sand Island Parkway,96819,21.3093247,-157.8743340
400,Sand Island Parkway,96819,21.3085188,-157.8733600
400,Sand Island Parkway,96819,21.3066747,-157.8722620
400,Sand Island Parkway,96819,21.3063828,-157.8719340
300,Ala Moana Boulevard,96850,21.3030888,-157.8625489
2270,Hoonee Place,96819,21.3279240,-157.8898596
2425,Kuhio Avenue,96815,21.2766497,-157.8240958
333,Keahole Street,96825,21.2833286,-157.7106310
1360,Pali Highway,96813,21.3133373,-157.8578155
888,Kapiolani Boulevard,96813,21.2995282,-157.8524740
2441,Kuhio Avenue,96815,21.2764755,-157.8234555
2442,Kuhio Avenue,96815,21.2762567,-157.8228676
1229,Keeaumoku Street,96814,21.3009917,-157.8389918
1223,Keeaumoku Street,96814,21.3008767,-157.8390363
1145,Maunakea Street,96817,21.3125101,-157.8621060
4346,Waialae Avenue,96816,21.2787320,-157.7840673
949,Kapahulu Avenue,96816,21.2854228,-157.8132884
620,Waipa Lane,96817,21.3215550,-157.8622314
3212,Monsarrat Avenue,96815,21.2696197,-157.8104412
2452,Kalākaua Avenue,96815,21.2746017,-157.8245457
1170,Auahi Street,96814,21.2932854,-157.8506647
3392,Waialae Avenue,96716,21.2852484,-157.8034975
440,Keawe Street,96814,21.3003097,-157.8605270
3302,Campbell Avenue,96815,21.2778139,-157.8133314
1050,Queen Street,96814,21.2949224,-157.8518100
744,Kapahulu Avenue,96816,21.2807525,-157.8142397
300,Rodgers Boulevard,96819,21.3298925,-157.9233941
1613,Nuuanu Avenue,96817,21.3165302,-157.8552791
2525,South King Street,96826,21.2920610,-157.8230650
300,Rodgers Boulevard,96819,21.3331417,-157.9240589
1365,South Vineyard Boulevard,96813,21.3140191,-157.8579640
1153,12th Avenue,96816,21.2823947,-157.7988914
1153,12th Avenue,96816,21.2823551,-157.7989148
300,Rodgers Boulevard,96819,21.3336465,-157.9234203
1391,Kapiolani Boulevard,96814,21.2930800,-157.8441927
300,Rodgers Boulevard,96819,21.3362741,-157.9243618
1481,South King Street,96814,21.2973390,-157.8383830
1450,Ala Moana Boulevard,96814,21.2920698,-157.8462270
300,Rodgers Boulevard,96819,21.3315701,-157.9205034
300,Rodgers Boulevard,96819,21.3320662,-157.9218882
300,Rodgers Boulevard,96819,21.3317000,-157.9208332
300,Rodgers Boulevard,96819,21.3320027,-157.9210634
300,Rodgers Boulevard,96819,21.3315443,-157.9203177
300,Rodgers Boulevard,96819,21.3314848,-157.9179451
300,Rodgers Boulevard,96819,21.3314942,-157.9177118
300,Rodgers Boulevard,96819,21.3298912,-157.9200018
300,Rodgers Boulevard,96819,21.3321719,-157.9203422
300,Rodgers Boulevard,96819,21.3298798,-157.9203177
300,Rodgers Boulevard,96819,21.3321456,-157.9201416
300,Rodgers Boulevard,96819,21.3298256,-157.9200124
300,Rodgers Boulevard,96819,21.3323642,-157.9196216
300,Rodgers Boulevard,96819,21.3323278,-157.9210442
300,Rodgers Boulevard,96819,21.3322851,-157.9207551
300,Rodgers Boulevard,96819,21.3302337,-157.9199538
300,Rodgers Boulevard,96819,21.3301250,-157.9199712
300,Rodgers Boulevard,96819,21.3323073,-157.9208942
300,Rodgers Boulevard,96819,21.3321963,-157.9205016
300,Rodgers Boulevard,96819,21.3299743,-157.9203017
300,Rodgers Boulevard,96819,21.3302671,-157.9201764
300,Rodgers Boulevard,96814,21.3317784,-157.9191050
506,Keawe Street,96813,21.3008310,-157.8593075
1450,Ala Moana Boulevard,96814,21.2905861,-157.8412975
2291,Alahao Place,96819,21.3295756,-157.8894472
1131,Nuuanu Avenue,96817,21.3113398,-157.8613618
300,Rodgers Boulevard,96819,21.3297668,-157.9201874
2250,Kalākaua Avenue,96815,21.2793548,-157.8286800
Suite 1075,Ala Moana Center,96814,21.2902913,-157.8438120
1641,Palolo Avenue,96816,21.2913451,-157.8010640
300,Rodgers Boulevard,96819,21.3302046,-157.9199603
300,Rodgers Boulevard,96819,21.3319239,-157.9200396
675,Auahi Street,96813,21.2983101,-157.8613767
413,Seaside Avenue,96815,21.2803511,-157.8268388
206,Kapuni Street,96815,21.2762211,-157.8228175
1450,Ala Moana Boulevard,96814,21.2923033,-157.8464572
3158,Monsarrat Avenue,96815,21.2698113,-157.8115175
300,Rodgers Boulevard,96819,21.3358775,-157.9237105
1317,South Beretania Street,96814,21.3005209,-157.8407013
2919,Kapiolani Boulevard,96826,21.2881760,-157.8151396
2919,Kapiolani Boulevard,96826,21.2881865,-157.8151847
2919,Kapiolani Boulevard,96826,21.2881534,-157.8150505
300,Rodgers Boulevard,96819,21.3324128,-157.9199473
3447,Waialae Avenue,96816,21.2841280,-157.8020688
1601,East-West Road,96822,21.2965104,-157.8144952
820,West Hind Drive,96821,21.2791849,-157.7537140
2850,Pukoloa Street,96819,21.3446434,-157.8967310
2850,Pukoloa Street,96819,21.3442656,-157.8961753
300,Rodgers Boulevard,96819,21.3341917,-157.9239929
300,Rodgers Boulevard,96819,21.3337385,-157.9239324
300,Rodgers Boulevard,96819,21.3342316,-157.9239854
300,Rodgers Boulevard,96819,21.3342480,-157.9239818
500,Ala Moana Blvd,96813,21.3011390,-157.8617853
2225,North School Street,96819,21.3406961,-157.8745836
2424,Kalakaua Ave,96815,21.2756207,-157.8249858
560,Pensacola Street,96814,21.2947068,-157.8482662
3408,Waialae Avenue,96716,21.2850544,-157.8032080
2179,"Makiki Heights Drive, #C",96822,21.3135087,-157.8298290
6885,Niumalu Loop,96825,21.2986572,-157.6952092
6899,Niumalu Loop,96825,21.2980450,-157.6956216
6897,Niumalu Loop,96825,21.2982124,-157.6955800
6901,Niumalu Loop,96825,21.2978426,-157.6955894
6905,Niumalu Loop,96825,21.2976739,-157.6955250
6909,Niumalu Loop,96825,21.2974889,-157.6954620
6913,Niumalu Loop,96825,21.2973228,-157.6953788
6917,Niumalu Loop,96825,21.2971591,-157.6953118
6921,Niumalu Loop,96825,21.2970154,-157.6952474
6925,Niumalu Loop,96825,21.2968379,-157.6951870
6929,Niumalu Loop,96825,21.2966593,-157.6951146
6935,Niumalu Loop,96825,21.2964856,-157.6950637
6947,Niumalu Loop,96825,21.2960095,-157.6947109
6943,Niumalu Loop,96825,21.2961619,-157.6948223
6939,Niumalu Loop,96825,21.2963119,-157.6949349
6957,Niumalu Loop,96825,21.2958558,-157.6946197
6959,Niumalu Loop,96825,21.2957621,-157.6944682
6965,Niumalu Loop,96825,21.2956559,-157.6943247
6969,Niumalu Loop,96825,21.2955166,-157.6941329
6973,Niumalu Loop,96825,21.2954291,-157.6939794
6977,Niumalu Loop,96825,21.2953566,-157.6938077
6981,Niumalu Loop,96825,21.2953198,-157.6936246
6985,Niumalu Loop,96825,21.2953173,-157.6934315
6991,Niumalu Loop,96825,21.2953273,-157.6932351
7003,Niumalu Loop,96825,21.2954422,-157.6926644
6999,Niumalu Loop,96825,21.2953897,-157.6928481
6995,Niumalu Loop,96825,21.2953548,-157.6930466
7007,Niumalu Loop,96825,21.2954972,-157.6924740
7011,Niumalu Loop,96825,21.2955584,-157.6922956
7015,Niumalu Loop,96825,21.2956122,-157.6921307
7019,Niumalu Loop,96825,21.2956821,-157.6919389
7025,Niumalu Loop,96825,21.2957459,-157.6917605
7029,Niumalu Loop,96825,21.2958146,-157.6915956
7033,Niumalu Loop,96825,21.2958839,-157.6914071
7037,Niumalu Loop,96825,21.2959689,-157.6912361
7041,Niumalu Loop,96825,21.2960664,-157.6910645
7045,Niumalu Loop,96825,21.2961576,-157.6909143
7049,Niumalu Loop,96825,21.2962363,-157.6907580
7053,Niumalu Loop,96825,21.2963538,-157.6905649
7055,Niumalu Loop,96825,21.2964775,-157.6904402
7057,Niumalu Loop,96825,21.2965880,-157.6904080
7063,Niumalu Loop,96825,21.2967130,-157.6904945
7061,Niumalu Loop,96825,21.2968542,-157.6906119
7069,Niumalu Loop,96825,21.2970060,-157.6907024
6893,Niumalu Loop,96825,21.2983617,-157.6954727
6867,Niumalu Loop,96825,21.2990771,-157.6946385
6871,Niumalu Loop,96825,21.2989546,-157.6947793
6877,Niumalu Loop,96825,21.2988522,-157.6949456
6881,Niumalu Loop,96825,21.2987322,-157.6950985
6889,Niumalu Loop,96825,21.2985067,-157.6953828
1405,Ala Moana Boulevard,96814,21.2923885,-157.8454318
1339,North School Street,96817,21.3318235,-157.8662150
459,Patterson Road,96819,21.3613430,-157.8894020
661,Keeaumoku Street,96814,21.2947598,-157.8416280
2745,Kalākaua Avenue,96815,21.2671576,-157.8208790
868,Puuomao Street,96825,21.3083961,-157.7094480
900,Fort Street Mall,96813,21.3091904,-157.8625052
885,Kapahulu Avenue,96816,21.2838551,-157.8136225
2440,Campus Road,96822,21.2980495,-157.8198230
2919,Kapiolani Boulevard,96826,21.2880801,-157.8147768
2919,Kapiolani Boulevard,96826,21.2881418,-157.8150067
3108,Olu Street,96816,21.2841192,-157.8132989
1146,Fort Street Mall,96813,21.3106261,-157.8603820
16,North Hotel Street,96817,21.3113117,-157.8620847
3424,Waialae Avenue,96816,21.2848724,-157.8028487
1328,Hala Drive,96817,21.3328514,-157.8640150
2299,Kuhio Avenue,96815,21.2794620,-157.8263860
677,Ala Moana Boulevard,96813,21.2916760,-157.8436301
204,Liliʻuokalani Avenue,96815,21.2755333,-157.8224429
2250,Kalākaua Avenue,96815,21.2790554,-157.8282630
5283,Kimokeo Street,96821,21.2882680,-157.7542954
918,Smith Street,96817,21.3110241,-157.8641736
829,Kapahulu Avenue,96816,21.2826344,-157.8138795
888,Kapahulu Avenue,96816,21.2842196,-157.8143991
2686,Kalākaua Avenue,96815,21.2669795,-157.8208841
2635,Terrace Drive,96822,21.3091890,-157.8174368
2426,Kuhio Avenue,96815,21.2767885,-157.8233681
3401,Nimitz Highway,96819,21.3366732,-157.9173980
1000,Bishop Street,96813,21.3089738,-157.8615201
321,North Kuakini Street,96817,21.3216383,-157.8558305
4400,Kalaniana'ole Hwy,96821,21.2789964,-157.7834353
4400,Kalaniana'ole Hwy,96821,21.2787615,-157.7834668
4346,Waialae Avenue,96816,21.2788434,-157.7841045
3,Aloha Tower Drive,96813,21.3068675,-157.8655292
3538,Waialae Avenue,96816,21.2835606,-157.8002625
1146,12th Avenue,96816,21.2822685,-157.7991901
2300,North King Street,96819,21.3362346,-157.8821647
1154,Koko Head Ave,96816,21.2821729,-157.7984456
2300,North King Street,96819,21.3362251,-157.8820470
3450,Waialae Avenue,96816,21.2846262,-157.8023475
3446,Waialae Avenue,96816,21.2847028,-157.8025180
3452,Waialae Avenue,96816,21.2845034,-157.8021695
3458,Waialae Avenue,96816,21.2844073,-157.8019810
1944,Kalākaua Avenue,96815,21.2860345,-157.8329401
2331,Seaview Avenue,96822,21.2998691,-157.8217671
525,Wisser Road,96858-5440,21.3449881,-157.8813992
2,Merchant Street,96813,21.3101668,-157.8635185
2317,Kalihi Street,96819,21.3448777,-157.8631288
841,"Bishop Street, Suite 501",96813,21.3075416,-157.8624717
1142,12th Avenue,96816,21.2821620,-157.7992487
300,Rodgers Boulevard,96819,21.3324617,-157.9201686
670,Auahi Street,96813,21.2997412,-157.8600380
1221,Kapiolani Blvd,96814,21.2950428,-157.8475581
900,Fort Street Mall,96813,21.3090509,-157.8627065
1,Holomoana Street,96815,21.2867913,-157.8410087
500,Ala Moana Boulevard,96813,21.3019749,-157.8621998
1010,S King St,96814,21.3018176,-157.8485048
3434,Waialae Avenue,96816,21.2849201,-157.8026409
3426,Waialae Avenue,96816,21.2848607,-157.8028006
3422,Waialae Avenue,96816,21.2849011,-157.8029027
1114,11th Avenue,96816,21.2823093,-157.8008540
978,Kawaiahao Street,96814,21.2973329,-157.8530818
1115,Young Street,96814,21.3009758,-157.8450797
1022,Akoko Street,96814,21.2998372,-157.8418784
1616,South King Street,96826,21.2969848,-157.8354516
1110,McCully Street,96826,21.2958790,-157.8299025
1425,10th Avenue,96816,21.2875911,-157.7988574
1011,Palm Drive,96814,21.2997283,-157.8422932
2550,McCarthy Mall,96822,21.3007307,-157.8163884
2500,Campus Road,96822,21.2982952,-157.8175846
1710,East-West Road,96822,21.2983565,-157.8152763
1000,Pope Road,96822,21.2978950,-157.8156626
2855,East Manoa Road,96822,21.3087670,-157.8103416
404,Kapahulu Avenue,96815,21.2799612,-157.8201010
2500,Kuhio Avenue,96815,21.2752858,-157.8219728
151,Kapahulu Avenue,96815,21.2711623,-157.8188258
2055,Kalia Road,96815,21.2814609,-157.8350256
2424,Kalākaua Avenue,96815,21.2761645,-157.8251831
330,Saragota Road,96815,21.2812651,-157.8319482
2365,Kalākaua Avenue,96815,21.2765921,-157.8269060
2335,Kalākaua Avenue,96815,21.2770447,-157.8275312
2425,Kalākaua Avenue,96815,21.2759834,-157.8257995
2452,Kalākaua Avenue,96815,21.2752366,-157.8244583
2450,Koa Avenue,96815,21.2757108,-157.8240167
2460,Koa Avenue,96815,21.2753143,-157.8236134
2412,Koa Avenue,96815,21.2764462,-157.8247200
2420,Koa Avenue,96815,21.2763476,-157.8246246
2417,Prince Edward Street,96815,21.2765062,-157.8244287
2424,Koa Avenue,96815,21.2763325,-157.8244530
2428,Koa Avenue,96815,21.2761475,-157.8244395
2431,Prince Edward Street,96816,21.2763086,-157.8242463
2432,Koa Avenue,96815,21.2760250,-157.8243069
120,Kaʻiulani Avenue,96815,21.2775585,-157.8258789
2300,Kalakaua Avenue,96815,21.2782203,-157.8273224
205,Lewers Street,96815,21.2785144,-157.8312595
2680,Woodlawn Drive,96813,21.3074158,-157.8117792
2680,Woodlawn Drive,96813,21.3070141,-157.8117199
1860,Ala Moana Boulevard,96815,21.2853530,-157.8360222
1777,Ala Moana Boulevard,96815,21.2843285,-157.8385465
223,Saratoga Road,96815,21.2794150,-157.8320782
1801,Kalākaua Avenue,96815,21.2896553,-157.8365070
2259,Kalākaua Avenue,96815,21.2773810,-157.8291687
1778,Ala Moana Boulevard,96815,21.2853542,-157.8379431
530,South King Street,96813,21.3052670,-157.8569918
500,Ala Moana Boulevard,96813,21.3013014,-157.8621901
415-425,South Street,96813,21.3001991,-157.8613239
2177,Puowaina Drive,96813,21.3124477,-157.8461150
1337,Lower Campus Road,96822,21.2943117,-157.8188909
2045,Kalakaua Avenue,96815,21.2836349,-157.8322689
777,Ward Avenue,96814,21.2989444,-157.8514162
4680,Kalaniana'ole Highway,96821,21.2792846,-157.7740840
88,Piikoi,96814,21.2926878,-157.8477456
1330,Ala Moana Boulevard,96814,21.2919641,-157.8490457
1200,Ala Moana Boulevard,96814,21.2927273,-157.8524208
1044,Auahi Street,96814,21.2944475,-157.8535263
777,Ward Avenue,96814,21.2999076,-157.8508756
777,Ward Avenue,96814,21.3010909,-157.8498322
364,South King Street,96813,21.3068178,-157.8587287
320,Beretania Street,96813,21.3087130,-157.8566990
300,Rodgers Boulevard,96819,21.3310871,-157.9199123
3221,Waialae Avenue,96821,21.2868801,-157.8076940
1777,Ala Moana Boulevard,96815,21.2844321,-157.8388068
214,Sand Island Access Road,96819,21.3262590,-157.8896781
2135,Auiki Street,96819,21.3257231,-157.8900051
120,Sand Island Access Road,96819,21.3239201,-157.8914511
228,Mohonua Place,96819,21.3268849,-157.8906822
2250,Pahounui Drive,96819,21.3258948,-157.8913864
2250,Alahao Place,96819,21.3294405,-157.8878861
560,Nimitz Highway,96817,21.3152314,-157.8691906
400,Sand Island Parkway,96819,21.3053290,-157.8730603
900,North Nimitz Highway,96817,21.3165436,-157.8742921
2291,Alahao Place,96819,21.3295938,-157.8894404
400,Sand Island Parkway,96819,21.3061618,-157.8737104
140,Puuhale Road,96753,21.3241697,-157.8884714
2250,Alahao Place,96819,21.3300411,-157.8881146
2219,Alahao Place,96819,21.3282041,-157.8884163
2265,Hoonee Place,96819,21.3289259,-157.8889366
302,Sand Island Access Road,96819,21.3279420,-157.8879931
410,Atkinson Drive,96814,21.2904895,-157.8394156
1288,Ala Moana Boulevard,96814,21.2923564,-157.8501394
801,Kaheka Street,96814,21.2936916,-157.8387032
711,Keeaumoku Street,96814,21.2949700,-157.8410826
1440,Kapiolani Boulevard,96814,21.2936509,-157.8426503
750,Amana Street,96814,21.2940245,-157.8407595
780,Amana Street,96814,21.2946240,-157.8405341
2220,South King Street,96826,21.2942984,-157.8268906
2211,South King Street,96826,21.2936012,-157.8277343
1067,Kapiolani Boulevard,96814,21.2962825,-157.8505414
1177,Queen Street,96814,21.2934668,-157.8494529
1750,Kalākaua Avenue,96826,21.2913051,-157.8353525
957,Punchbowl Street,96813,21.3043167,-157.8578165
417,South King Street,96813,21.3054136,-157.8601411
7192,Kalaniana’ole Highway,96825,21.2782016,-157.7057071
1039,South King Street,96814,21.2972753,-157.8476674
690,Pohukaina Street,96813,21.2996662,-157.8590772
805,Pohukaina Street,96813,21.2972302,-157.8585312
530,Halekauwila Street,96813,21.3032137,-157.8604947
1515,Nuuanu Avenue,96817,21.3149171,-157.8565805
1519,Nuuanu Avenue,96817,21.3148423,-157.8560863
1511,Nuuanu Avenue,96817,21.3137344,-157.8561520
677,Ala Moana Boulevard,96813,21.2974276,-157.8622903
777,Punchbowl Street,96813,21.3023085,-157.8615456
4997,Kahala Avenue,96816,21.2705343,-157.7762232
1,Aloha Tower Drive,96813,21.3065868,-157.8655878
2250,Kalākaua Avenue,96815,21.2788612,-157.8280173
605,Kapiolani Boulevard,96813,21.3031236,-157.8556458
567,South King Street,96813,21.3032707,-157.8568149
1088,Bishop Street,96813,21.3093315,-157.8607465
1033,Bishop Street,96813,21.3089089,-157.8604937
201,Merchant Street,96813,21.3070244,-157.8614460
250,South Hotel Street,96813,21.3088572,-157.8582372
1935,Aleo Place,96822,21.3085134,-157.8213766
8902,Kalaniana'ole Highway,96825,21.2977917,-157.6639007
511,Lunalilo Home Road,96825,21.2849207,-157.6959239
333,Keahole Street,96825,21.2832826,-157.7119864
377,Keahole Street,96825,21.2851975,-157.7068567
6650,Kalaniana’ole Highway,96825,21.2827788,-157.7138142
3650,Waialae Avenue,96826,21.2825571,-157.7979001
3465,Waialae Avenue,96816,21.2837758,-157.8016503
3660,Waialae Avenue,96816,21.2822435,-157.7973827
1390,Miller Street,96813,21.3092669,-157.8555119
2645,Dole Street,96822,21.2942211,-157.8117353
2005,Kalia Road,96815,21.2830181,-157.8372528
2490,Kalākaua Avenue,96815,21.2747088,-157.8231737
801,South King Street,96813,21.3021057,-157.8523060
909,Kapiolani Boulevard,96814,21.2980898,-157.8525469
60,N Beretania Street,96817,21.3132714,-157.8605417
1212,Nuuanu Avenue,96817,21.3127699,-157.8600101
4134,Waialae Avenue,96816,21.2792693,-157.7880096
910,Alakea St,96813,21.3078199,-157.8616475
3375,Koapaka Street,96819,21.3344335,-157.9172172
1765,Ala Moana Boulevard,96815,21.2853658,-157.8398117
2525,South King Street,96826,21.2921618,-157.8233065
523,Kamoku Street,96826,21.2849183,-157.8236840
1450,Ala Moana Boulevard,96841,21.2914835,-157.8437880
123,North Kuakini Street,96817,21.3191708,-157.8559088
1337,Lower Campus Road,96822,21.2940964,-157.8179445
1333,Lower Campus Road,96822,21.2954076,-157.8190339
2515,Dole Street,96822,21.2964125,-157.8187954
2525,Dole Street,96822,21.2963549,-157.8173717
2441,Dole Street,96822,21.2958480,-157.8205602
2571,Dole Street,96822,21.2947416,-157.8133767
2563,Dole Street,96822,21.2959411,-157.8148278
2250,Dole Street,96822,21.2960667,-157.8156886
1333,Lower Campus Road,96822,21.2950804,-157.8194905
2575,Dole Street,96822,21.2946860,-157.8126980
1395,Lower Campus Road,96822,21.2928970,-157.8169458
2573,Dole Street,96822,21.2943540,-157.8128183
1380,Lower Campus Road,96822,21.2934262,-157.8190495
1410,Lower Campus Road,96822,21.2930434,-157.8183001
2555,Dole Street,96822,21.2962115,-157.8164048
2569,Dole Street,96822,21.2955923,-157.8140499
1333,Lower Campus Road,96822,21.2949884,-157.8185270
2585,Dole Street,96822,21.2935762,-157.8128598
2585,Dole Street,96822,21.2934195,-157.8133563
2585,Dole Street,96822,21.2936671,-157.8133905
2579,Dole Street,96822,21.2939730,-157.8132989
2591,Dole Street,96822,21.2928977,-157.8143860
2591,Dole Street,96822,21.2925124,-157.8145511
2591,Dole Street,96822,21.2924128,-157.8143422
2583,Dole Street,96822,21.2940459,-157.8126823
2585,Dole Street,96822,21.2933418,-157.8140676
2585,Dole Street,96822,21.2931677,-157.8139322
2640,Dole Street,96816,21.2965321,-157.8118887
2545,McCarthy Mall,96822,21.2989526,-157.8167274
2530,Dole Street,96822,21.2975004,-157.8170561
2570,Dole Street,96822,21.2963977,-157.8139531
1733,Donaghho Road,96822,21.2982822,-157.8175354
1777,East-West Road,96822,21.2993416,-157.8141862
2645,Dole Street,96822,21.2951705,-157.8121869
2465,Campus Road,96822,21.2983971,-157.8188994
2500,Dole Street,96822,21.2970822,-157.8176804
1770,East West Road,96822,21.2993045,-157.8150447
2500,Dole Street,96822,21.2977759,-157.8175414
2640,Dole Street,96816,21.2955453,-157.8116433
2640,Dole Street,96816,21.2958161,-157.8115026
2515,Campus Road,96822,21.2993668,-157.8181573
2640,Dole Street,96816,21.2961169,-157.8118998
1680,East-West Road,96822,21.2974720,-157.8163156
2525,Correa Road,96822,21.2981842,-157.8164948
2445,Campus Road,96822,21.2988177,-157.8197233
2535,McCarthy Mall,96822,21.2992982,-157.8175080
2505,Correa Road,96822,21.2983538,-157.8158454
1601,East-West Road,96822,21.2969097,-157.8145488
1733,Donaghho Road,96822,21.2980912,-157.8176186
1711,East-West Road,96822,21.2982344,-157.8143270
2565,McCarthy Mall,96822,21.2992310,-157.8160137
2425,Campus Road,96822,21.2984431,-157.8204650
2540,Dole Street,96822,21.2969398,-157.8160754
2500,Dole Street,96822,21.2980894,-157.8178605
2640,Dole Street,96816,21.2959206,-157.8122078
2545,McCarthy Mall,96822,21.2994156,-157.8166504
2565,McCarthy Mall,96822,21.2997608,-157.8157730
2532,Correa Road,96822,21.2987655,-157.8177928
2570,Dole Street,96822,21.2968679,-157.8140105
7040,Hawai’i Kai Drive,96825-9998,21.2890588,-157.7021570
711,Ala Moana Boulevard,96813,21.2966141,-157.8614289
4303,Diamond Head Road,96816,21.2703722,-157.8002373
1202,Wilder Avenue,96822,21.3064027,-157.8392045
2233,Helumoa Road,96815,21.2781645,-157.8307938
2161,Kalia Road,96815,21.2783030,-157.8332396
2199,Kalia Road,96815,21.2779707,-157.8319436
333,Keahole Street,96825,21.2839465,-157.7115220
1428,South King Street,96814,21.2988282,-157.8391699
1739,Liliha Street,96817,21.3232515,-157.8573763
175,Paoakalani Avenue,96815,21.2732500,-157.8213612
250,Ward Avenue,96814,21.2961522,-157.8569848
2446,Koa Avenue,96815,21.2757989,-157.8241685
1460,South Beretania Street,96814,21.2997902,-157.8372645
1290,South Beretania Street,96814,21.3016044,-157.8413475
2015,Kapiolani Boulevard,96826,21.2886054,-157.8318005
2333,Kapiolani Boulevard,96826,21.2873009,-157.8282178
2680,Woodlawn Drive,96813,21.3074302,-157.8114202
2556,Lemon Road,96815,21.2728077,-157.8218782
2566,Lemon Road,96815,21.2725533,-157.8217171
2566,Cartwright Road,96815,21.2728023,-157.8210892
155,Paoakalani Avenue,96815,21.2731728,-157.8217604
2553,Kuhio Avenue,96815,21.2730141,-157.8209944
2574,Cartwright Road,96815,21.2726915,-157.8209987
2955,East Manoa Road,96822,21.3104260,-157.8087478
1599,Ala Moana Boulevard,96814,21.2880432,-157.8419515
1360,Pali Highway,96813,21.3133600,-157.8578142
1520,Liholiho Street,96822,21.3035509,-157.8408642
2155,Kalākaua Avenue,96815,21.2804279,-157.8304968
1220,Aala Street,96817,21.3160916,-157.8628623
404,North Beretania Street,96817,21.3170742,-157.8632326
615,Piikoi Street,96814,21.2951218,-157.8456221
600,Kapiolani Boulevard,96813,21.3032174,-157.8549997
2571,Lemon Road,96815,21.2722799,-157.8219238
2575,Kuhio Avenue,96815,21.2724870,-157.8207264
2570,Cartwright Road,96815,21.2725792,-157.8209356
735,Bishop Street,96813,21.3071483,-157.8630417
1630,Pali Highway,96813,21.3128003,-157.8579863
1000,Bishop Street,96813,21.3089354,-157.8614741
1111,Bishop Street,96813,21.3093795,-157.8599413
1130,Bethel Street,96813,21.3110324,-157.8612265
31,North Pauahi Street,96817,21.3118530,-157.8617021
1003,Bishop Street,96813,21.3086688,-157.8601880
565,Halekauwila Street,96813,21.3022817,-157.8604759
1128,Nuuanu Avenue,96817,21.3115385,-157.8616472
902,Nuuanu Avenue,96817,21.3104436,-157.8635772
59,North Vineyard Boulevard,96817,21.3149289,-157.8586906
1212,Nuuanu Avenue,96817,21.3137123,-157.8600519
150,Kaʻiulani Avenue,96815,21.2778925,-157.8250471
330,Cooke Street,96813,21.2973276,-157.8604044
680,Ala Moana Boulevard,96813,21.2978440,-157.8615332
2440,Date Street,96826,21.2885252,-157.8238227
2499,Kapiolani Boulevard,96826,21.2869562,-157.8238817
2058,Kuhio Avenue,96815,21.2839223,-157.8308394
2040,Kuhio Avenue,96815,21.2844452,-157.8311514
2100,Kalākaua Avenue,96815,21.2816636,-157.8303040
2080,Kalākaua Avenue,96815,21.2829456,-157.8308011
2092,Kuhio Avenue,96815,21.2833695,-157.8301919
421,ʻOlohana Street,96815,21.2837503,-157.8299551
2085,Ala Wai Boulevard,96815,21.2844077,-157.8293610
440,ʻOlohana Street,96815,21.2844994,-157.8301162
2055,Ala Wai Boulevard,96815,21.2848432,-157.8301361
454,Namahana Street,96815,21.2852041,-157.8302566
2029,Ala Wai Boulevard,96815,21.2854666,-157.8305223
2003,Ala Wai Boulevard,96815,21.2859198,-157.8310942
2015,Ala Wai Boulevard,96815,21.2857869,-157.8308202
439,Keoniana Street,96815,21.2856551,-157.8313288
419,Keoniana Street,96815,21.2852558,-157.8317194
438,Kuamoo Street,96815,21.2852634,-157.8313141
444,Kuamoo Street,96815,21.2853667,-157.8312231
424,Kuamoo Street,96815,21.2850300,-157.8315731
416,Kuamoo Street,96815,21.2848679,-157.8317271
2020,Kalākaua Avenue,96815,21.2846006,-157.8319117
432,Namahana Street,96815,21.2847910,-157.8308007
448,Namahana Street,96815,21.2850775,-157.8304870
444,Namahana Street,96815,21.2849981,-157.8305738
433,Pau Street,96815,21.2860287,-157.8319758
1717,Ala Wai Boulevard,96815,21.2879879,-157.8354920
1551,Ala Wai Boulevard,96815,21.2874235,-157.8380495
1901,Kapiolani Boulevard,96826,21.2893816,-157.8328875
620,McCully Street,96826,21.2890958,-157.8330016
1960,Kapiolani Boulevard,96826,21.2901199,-157.8327483
2015,Lime Street,96826,21.2898118,-157.8315455
747,Wiliwili Street,96826,21.2903368,-157.8304460
2122,Lime Street,96826,21.2898100,-157.8301062
777,Paani Street,96826,21.2906588,-157.8289223
2211,Date Street,96826,21.2905801,-157.8285864
2100,Date Street,96826,21.2916540,-157.8298233
2133,Citron Street,96826,21.2915773,-157.8291658
2222,Citron Street,96826,21.2917443,-157.8280915
745,Isenberg Street,96826,21.2891209,-157.8269311
796,Isenberg Street,96826,21.2911083,-157.8268921
803,Isenberg Street,96826,21.2910084,-157.8261282
2509,South King Street,96816,21.2923200,-157.8236922
2626,Kuilei Street,96826,21.2912425,-157.8220096
2626,Kuilei Street,96826,21.2909763,-157.8218969
909,Kahuna Lane,96826,21.2906794,-157.8215412
2714,Kahoaloha Lane,96826,21.2894851,-157.8213889
2724,Kahoaloha Lane,96826,21.2897950,-157.8208504
2752,Kahoaloha Lane,96826,21.2901952,-157.8201297
2717,South King Street,96826,21.2905517,-157.8203410
2643,South King Street,96826,21.2911271,-157.8209284
626,Coral Street,96813,21.3009645,-157.8577696
715,South King Street,96813,21.3029388,-157.8539123
104,South Beretania Street,96813,21.3111994,-157.8589395
401,Kamakee Street,96814,21.2945345,-157.8514553
1065,Kawaiahao Street,96814,21.2951694,-157.8517743
1531,Kanunu Street,96814,21.2944595,-157.8397738
1580,Makaloa Street,96814,21.2930291,-157.8397403
1610,Makaloa Street,96814,21.2926822,-157.8391523
750,Kaheka Street,96814,21.2933946,-157.8395662
800,Kaheka Street,96814,21.2938979,-157.8394965
2241,Kapiolani Boulevard,96826,21.2880849,-157.8294662
2232,Kapiolani Boulevard,96826,21.2886099,-157.8291831
2525,Date Street,96826,21.2864774,-157.8229227
2488,Kapiolani Boulevard,96814,21.2877756,-157.8242764
739,Hausten Street,96826,21.2900157,-157.8246127
808,Hausten Street,96826,21.2906330,-157.8249587
733,Coolidge Street,96826,21.2904323,-157.8254031
728,Coolidge Street,96826,21.2905530,-157.8258532
825,Coolidge Street,96826,21.2911968,-157.8251280
909,Coolidge Street,96826,21.2916792,-157.8249422
2411,South King Street,96826,21.2928479,-157.8253859
2334,South King Street,96826,21.2939674,-157.8258531
2320,South King Street,96826,21.2938443,-157.8262900
2304,South King Street,96826,21.2938272,-157.8263998
2124,South King Street,96826,21.2943582,-157.8275577
810,Pumehana Street,96826,21.2924200,-157.8331190
1919,Citron Street,96826,21.2923654,-157.8317039
1820,Waiola Street,96826,21.2943013,-157.8322855
2121,Algaroba Street,96826,21.2931541,-157.8285652
2119,Waiola Street,96826,21.2925240,-157.8292361
2109,Waiola Street,96826,21.2925616,-157.8294460
2120,Waiola Street,96826,21.2929599,-157.8289375
1960,Kapiolani Boulevard,96826,21.2899871,-157.8330660
2007,Fern Street,96826,21.2907785,-157.8315482
2014,Lime Street,96826,21.2903612,-157.8315033
845,University Avenue,96826,21.2904736,-157.8228124
2322,Fern Street,96826,21.2897195,-157.8274293
2215,Aloha Drive,96815,21.2818787,-157.8275380
1717,Citron Street,96826,21.2935131,-157.8345401
1715,Fern Street,96826,21.2921630,-157.8353014
802,Punahou Street,96826,21.2937419,-157.8360589
1650,Kanunu Street,96826,21.2942368,-157.8375879
1624,Kanunu Street,96814,21.2944203,-157.8383018
1610,Kanunu Street,96814,21.2945907,-157.8386914
1525,Rycroft Street,96814,21.2953902,-157.8400104
1525,Rycroft Street,96814,21.2954500,-157.8404532
747,Amana Street,96814,21.2936062,-157.8400721
1739,Ala Moana Boulevard,96815,21.2860685,-157.8428766
1765,Ala Moana Boulevard,96815,21.2855941,-157.8394592
1676,Ala Moana Boulevard,96815,21.2871434,-157.8395945
414,Launiu Street,96815,21.2830577,-157.8294867
460,Ena Road,96815,21.2863001,-157.8345986
1946,Ala Moana Boulevard,96815,21.2858160,-157.8344985
400,Hobron Lane,96815,21.2873284,-157.8358913
438,Hobron Lane,96815,21.2870520,-157.8358829
1645,Ala Wai Boulevard,96815,21.2877698,-157.8368105
1627,Ala Wai Boulevard,96815,21.2877766,-157.8372993
1621,Ala Wai Boulevard,96815,21.2877330,-157.8374995
1615,Ala Wai Boulevard,96815,21.2876969,-157.8377125
1830,Ala Moana Boulevard,96815,21.2852048,-157.8370749
1829,Kaioo Drive,96815,21.2854065,-157.8365831
1839,Kaioo Drive,96815,21.2854837,-157.8363685
1849,Kaioo Drive,96815,21.2856580,-157.8362758
1867,Kaioo Drive,96815,21.2860575,-157.8361676
369,Hobron Lane,96815,21.2867695,-157.8369602
411,Hobron Lane,96815,21.2864930,-157.8364674
1833,Kalākaua Avenue,96815,21.2881552,-157.8349195
1925,Kalākaua Avenue,96815,21.2861660,-157.8336172
229,Paoakalani Avenue,96815,21.2742358,-157.8203887
1660,Pensacola Street,96792,21.3088208,-157.8401997
712,Kamuela Avenue,96816,21.2803736,-157.8146970
3016,Date Street,96816,21.2802736,-157.8149228
3721,Kanaina Avenue,96815,21.2681318,-157.8136972
3710,Leahi Avenue,96815,21.2681342,-157.8146375
3071,Pualei Circle,96815,21.2660724,-157.8142429
3030,Pualei Circle,96815,21.2664400,-157.8146013
3131,Pualei Circle,96815,21.2668701,-157.8150135
3111,Pualei Circle,96815,21.2671579,-157.8143601
3103,Pualei Circle,96815,21.2670775,-157.8139342
704,Ala Moana Boulevard,96813,21.2972459,-157.8612655
919,Ala Moana Boulevard,96813,21.2950198,-157.8588817
818,Keeaumoku Street,96814,21.2968725,-157.8414561
451,Atkinson Drive,96814,21.2896853,-157.8386069
1839,Kahakai Drive,96814,21.2891466,-157.8378716
990,Ala Nanala Street,96818,21.3468167,-157.9099547
500,University Avenue,96826,21.2864253,-157.8277260
778,Wiliwili Street,96826,21.2912926,-157.8305443
2121,Ala Wai Boulevard,96815,21.2834101,-157.8283024
555,University Avenue,96826,21.2870449,-157.8261872
930,Kaheka Street,96814,21.2965772,-157.8389494
445,Seaside Avenue,96815,21.2810123,-157.8257691
2470,Kalākaua Avenue,96815,21.2750366,-157.8240952
2240,Kuhio Avenue,96815,21.2807732,-157.8271706
229,Queen Emma Street,96813,21.3099731,-157.8572738
920,Ward Avenue,96814,21.3013602,-157.8511602
3130,Ala Ilima Street,96818,21.3456597,-157.9090666
805,Ala Nioi Place,96818,21.3443500,-157.9081771
3045,Ala Napuaa Place,96818,21.3442803,-157.9074351
1400,Pensacola Street,96822,21.3050055,-157.8444872
1030,South King Street,96814,21.3017017,-157.8475755
1129,Rycroft Street,96814,21.2977150,-157.8459360
725,Piikoi Street,96814,21.2968318,-157.8450239
1141,Hoolai Street,96814,21.2969065,-157.8458671
1142,Hoolai Street,96814,21.2973191,-157.8457001
1210,Kamaile Street,96814,21.2963789,-157.8451600
715,Piikoi Street,96814,21.2966500,-157.8450922
1881,Kapiolani Boulevard,96814,21.2897588,-157.8338655
1856,Kapiolani Boulevard,96732,21.2904503,-157.8342512
2825,Ala Ilima Street,96818,21.3468873,-157.8998500
1121,Kapiolani Boulevard,96814,21.2950724,-157.8475840
510,Piikoi Street,96814,21.2941729,-157.8467434
514,Piikoi Street,96814,21.2943313,-157.8466851
910,Ahana Street,96814,21.2960851,-157.8400789
731,Amana Street,96814,21.2931978,-157.8401897
1242,Makaloa Street,96814,21.2954311,-157.8445492
1238,Makaloa Street,96814,21.2954670,-157.8446877
1209,Kona Street,96814,21.2941109,-157.8480315
1216,Waimanu Street,96814,21.2939260,-157.8478801
1201,Kona Street,96814,21.2941660,-157.8482191
1205,Hopaka Street,96814,21.2946084,-157.8479698
537,Pensacola Street,96814,21.2938197,-157.8482115
2600,Pualani Way,96815,21.2741362,-157.8192045
5210,Likini Street,96818,21.3453450,-157.9083862
2889,Ala Ilima Street,96818,21.3448566,-157.9023277
1160,Ala Napunani,96818,21.3490250,-157.9023047
2907,Ala Ilima Street,96818,21.3447306,-157.9029896
2929,Ala Ilima Street,96818,21.3446616,-157.9035910
2920,Ala Ilima Street,96818,21.3453192,-157.9034980
1212,Makaloa Street,96814,21.2957111,-157.8453804
639,Piikoi Street,96814,21.2959769,-157.8455019
712,Alder Street,96814,21.2964711,-157.8450605
535,Cummins Street,96814,21.2967009,-157.8521312
527,Cummins Street,96814,21.2965767,-157.8522143
525,Cummins Street,96814,21.2965386,-157.8523586
825,Ilaniwai Street,96813,21.2985596,-157.8564559
625,Cooke Street,96813,21.2999228,-157.8566437
765,Queen Street,96813,21.2996568,-157.8563792
753,Queen Street,96813,21.2997983,-157.8565190
767,Kapiolani Boulevard,96813,21.3001213,-157.8542354
873,Kapiolani Boulevard,96813,21.2989743,-157.8530834
610,Ward Avenue,96813,21.2988566,-157.8532368
904,Waimanu Street,96813,21.2990550,-157.8534706
899,Waimanu Street,96813,21.2990924,-157.8540039
882,Kawaiahao Street,96813,21.2988950,-157.8541913
919,Waimanu Street,96813,21.2985149,-157.8535705
544,Ward Avenue,96813,21.2984146,-157.8534682
534,Ward Avenue,96813,21.2982471,-157.8536912
1319,Punahou Street,96826,21.2998769,-157.8334464
885,Queen Street,96813,21.2982181,-157.8552295
870,Ilaniwai Street,96813,21.2980988,-157.8554224
862,Ilaniwai Street,96813,21.2982917,-157.8555169
856,Ilaniwai Street,96813,21.2983584,-157.8556314
865,Queen Street,96813,21.2986146,-157.8554868
859,Queen Street,96813,21.2987244,-157.8555893
851,Queen Street,96813,21.2988498,-157.8556889
839,Queen Street,96813,21.2990634,-157.8558784
831,Queen Street,96813,21.2991921,-157.8559715
845,Queen Street,96813,21.2989351,-157.8557649
808,Ilaniwai Street,96813,21.2991892,-157.8562769
757,Kawaiahao Street,96813,21.3000817,-157.8557265
1034,Queen Street,96814,21.2954648,-157.8522272
1304,Queen Street,96814,21.2956092,-157.8523548
1030,Queen Street,96814,21.2956913,-157.8524158
1024,Queen Street,96814,21.2958189,-157.8524934
1013,Kawaiahao Street,96814,21.2961552,-157.8525123
980,Queen Street,96814,21.2964080,-157.8531919
1909,Ala Wai Boulevard,96815,21.2872418,-157.8328504
130,Ohua Avenue,96815,21.2736885,-157.8231816
1696,Ala Moana Boulevard,96815,21.2865581,-157.8392040
2211,Ala Wai Boulevard,96815,21.2822544,-157.8267965
2211,Ala Wai Boulevard,96815,21.2816600,-157.8266678
2754,Kuilei Street,96826,21.2889562,-157.8201428
201,Beach Walk,96815,21.2792501,-157.8313486
235,Saratoga Road,96815,21.2798671,-157.8319205
245,Saratoga Road,96815,21.2800006,-157.8318340
245,Saratoga Road,96815,21.2801248,-157.8317899
305,Saratoga Road,96815,21.2804788,-157.8315447
311,Saratoga Road,96815,21.2805893,-157.8314762
315,Saratoga Road,96815,21.2808095,-157.8313634
430,Kaiolu Street,96815,21.2827180,-157.8287369
411,Kaiolu Street,96815,21.2822448,-157.8285416
2118,Kuhio Avenue,96815,21.2828077,-157.8296143
2115,Ala Wai Boulevard,96815,21.2838186,-157.8287729
445,Kaiolu Street,96815,21.2828794,-157.8280132
2222,Aloha Drive,96815,21.2818769,-157.8269598
441,Lewers Street,96815,21.2822928,-157.8273995
430,Lewers Street,96815,21.2824088,-157.8280772
440,Lewers Street,96815,21.2825312,-157.8277969
2255,Kuhio Avenue,96815,21.2794248,-157.8270392
2552,Kalākaua Avenue,96815,21.2734781,-157.8224627
134,Kapahulu Avenue,96815,21.2719269,-157.8217591
222,Kaʻiulani Avenue,96815,21.2779006,-157.8237617
2233,Ala Wai Boulevard,96815,21.2817809,-157.8262634
2465,Kuhio Avenue,96815,21.2756495,-157.8230125
2450,Prince Edward Street,96815,21.2759105,-157.8233965
2463,Kuhio Avenue,96815,21.2759419,-157.8231052
250,Ohua Avenue,96815,21.2758766,-157.8209762
417,Namahana Street,96815,21.2842101,-157.8307447
444,Nahua Street,96815,21.2802005,-157.8248196
2547,Ala Wai Boulevard,96815,21.2759451,-157.8195420
2355,Ala Wai Boulevard,96815,21.2794385,-157.8235878
2421,Ala Wai Boulevard,96815,21.2780359,-157.8223723
2415,Ala Wai Boulevard,96815,21.2782351,-157.8225801
2609,Ala Wai Boulevard,96815,21.2750984,-157.8187006
444,Kanekapolei Street,96815,21.2790241,-157.8236618
2425,Kuhio Avenue,96815,21.2768331,-157.8239602
35,North Kukui Street,96817,21.3134793,-157.8593235
1288-1296,Kapiolani Boulevard,96814,21.2959651,-157.8467089
2444,Dole Street,96822,21.2972372,-157.8200303
1804,Ala Moana Boulevard,96815,21.2848469,-157.8373516
1211,Kamaile Street,96814,21.2959667,-157.8452648
1218,Makaloa Street,96814,21.2956568,-157.8452418
1222,Makaloa Street,96814,21.2956309,-157.8450962
1228,Makaloa Street,96814,21.2955826,-157.8449643
1232,Makaloa Street,96814,21.2955375,-157.8448208
629,Piikoi Street,96814,21.2957372,-157.8455892
635,Piikoi Street,96814,21.2958414,-157.8455308
645,Piikoi Street,96814,21.2961009,-157.8454383
245,North Kukui Street,96817,21.3159383,-157.8614514
1425,Liliha Street,96817,21.3198261,-157.8617312
2421,Tusitala Street,96815,21.2775948,-157.8226152
225,Kaʻiulani Avenue,96815,21.2774630,-157.8235087
2452,Tusitala Street,96815,21.2772551,-157.8217624
2428,Tusitala Street,96815,21.2777474,-157.8221714
2426,Kuhio Avenue,96815,21.2768091,-157.8233300
2442,Kuhio Avenue,96815,21.2765026,-157.8230444
303,Liliʻuokalani Avenue,96815,21.2763859,-157.8209699
2479,Ala Wai Boulevard,96815,21.2771142,-157.8208741
249,Kapili Street,96815,21.2769624,-157.8218465
2442,Tusitala Street,96815,21.2775391,-157.8220012
2410,Cleghorn Street,96815,21.2776922,-157.8232003
222,Liliʻuokalani Avenue,96815,21.2759956,-157.8221763
236,Liliʻuokalani Avenue,96815,21.2763026,-157.8217508
240,Liliʻuokalani Avenue,96815,21.2763716,-157.8215527
235,Liliʻuokalani Avenue,96815,21.2759798,-157.8213857
225,Liliʻuokalani Avenue,96815,21.2757242,-157.8216342
2509,Ala Wai Boulevard,96815,21.2767298,-157.8205067
320,Ohua Avenue,96815,21.2764672,-157.8202394
2533,Ala Wai Boulevard,96815,21.2761067,-157.8197143
311,Ohua Avenue,96815,21.2762335,-157.8199853
441,Walina Street,96815,21.2791757,-157.8239044
435,Walina Street,96815,21.2790007,-157.8240616
432,Walina Street,96815,21.2794498,-157.8245973
2345,Ala Wai Boulevard,96815,21.2797563,-157.8241436
451,Nahua Street,96815,21.2800993,-157.8243917
435,Seaside Avenue,96815,21.2806194,-157.8259328
415,Nahua Street,96815,21.2793697,-157.8250774
2281,Ala Wai Boulevard,96815,21.2810217,-157.8254292
2287,Ala Wai Boulevard,96815,21.2809387,-157.8253117
2303,Ala Wai Boulevard,96815,21.2807428,-157.8250739
2311,Ala Wai Boulevard,96815,21.2805880,-157.8249143
2319,Ala Wai Boulevard,96815,21.2804855,-157.8247611
455,Nohonani Street,96815,21.2805416,-157.8251390
445,Nohonani Street,96815,21.2803578,-157.8252855
417,Nohonani Street,96815,21.2798705,-157.8257587
2310,Kuhio Avenue,96815,21.2795167,-157.8258476
410,Nahua Street,96815,21.2796255,-157.8254700
424,Walina Street,96815,21.2791529,-157.8245930
2611,Ala Wai Boulevard,96815,21.2749045,-157.8183753
2406,Kuhio Avenue,96815,21.2773010,-157.8238315
320,Ainakea Way,96815,21.2747160,-157.8184974
159,Kaʻiulani Avenue,96815,21.2772030,-157.8243022
1920,Ala Moana Boulevard,96815,21.2856003,-157.8351852
1302,Victoria Street,96814,21.3045370,-157.8478430
1314,Victoria Street,96814,21.3049049,-157.8479148
1515,Ward Avenue,96822,21.3075912,-157.8474700
427,Launiu Street,96815,21.2830454,-157.8288500
364,Seaside Avenue,96815,21.2801763,-157.8275051
247,Beach Walk,96815,21.2797755,-157.8311286
234,Ohua Avenue,96815,21.2755670,-157.8212349
1850,Ala Moana Boulevard,96815,21.2850107,-157.8365937
417,Kanekapolei Street,96815,21.2781431,-157.8239648
440,Seaside Avenue,96815,21.2813865,-157.8262916
135,Uluniu Avenue,96815,21.2759740,-157.8239435
151,Uluniu Avenue,96815,21.2762986,-157.8235734
509,University Avenue,96826,21.2858286,-157.8270684
1911,Kalakaua Avenue,96815,21.2865649,-157.8336976
2588,Makee Road,96815,21.2727335,-157.8199463
423,Kaiolu Street,96815,21.2824104,-157.8284256
255,Beach Walk,96815,21.2799837,-157.8309597
2572,Lemon Road,96815,21.2723820,-157.8215914
450,Lewers Street,96815,21.2826781,-157.8275845
441,Kanekapolei Street,96815,21.2785824,-157.8234322
1958,Kalakaua Avenue,96815,21.2858697,-157.8327296
1972,Kalakaua Avenue,96815,21.2854685,-157.8325950
412,Keoniana Street,96815,21.2853453,-157.8322311
829,Pensacola Street,96814,21.2984665,-157.8462773
1010,Pensacola Street,96814,21.3012888,-157.8460998
1215,South Beretania Street,96814,21.3011446,-157.8427649
2977,Ala Ilima Street,96818,21.3450049,-157.9049348
451,Piikoi Street,96814,21.2933314,-157.8461428
129,Paoakalani Avenue,96815,21.2727845,-157.8222219
2920,South King Street,96826,21.2897272,-157.8166206
2655,Woodlawn Drive,96822,21.3059404,-157.8114756
1806,South King Street,96826,21.2963602,-157.8330151
1620,North School Street,96817,21.3362491,-157.8683812
1525,Bernice Street,96817,21.3330683,-157.8708527
1620,North School Street,96817,21.3352914,-157.8684704
1620,North School Street,96817,21.3358018,-157.8679859
1620,North School Street,96817,21.3354207,-157.8681978
933,Kapahulu Avenue,96186,21.2849106,-157.8132820
925,Isenberg Street,96826,21.2923878,-157.8254846
1378,South Beretania Street,96814,21.3006734,-157.8396314
419 A,Seaside Avenue,96815,21.2803906,-157.8262095
2600,South King Street,96826,21.2920765,-157.8212445
801,South Street,96813,21.3027414,-157.8565995
801,South Street,96813,21.3025673,-157.8556390
1130,Alapai Street,96813,21.3055456,-157.8544011
728,Kinau Street,96813,21.3057445,-157.8512140
710,Lunalilo Street,96813,21.3062612,-157.8513975
520,Wyllie Street,96817,21.3313336,-157.8488027
2170,Kuhio Avenue,96815,21.2819098,-157.8285990
1810,University Avenue,96822,21.2993714,-157.8215287
2410,Campus Road,96822,21.2997885,-157.8207358
2560,Campus Road,96822,21.3004386,-157.8202539
2550,Campus Road,96822,21.3003117,-157.8195855
2600,Campus Road,96822,21.3004971,-157.8183894
2500,Campus Road,96822,21.2999769,-157.8189955
2430,Campus Road,96822,21.2995313,-157.8202206
2450,Campus Road,96822,21.2995766,-157.8195665
1627,Bachman Place,96822,21.2972347,-157.8192437
2442,Campus Road,96822,21.2981148,-157.8192765
2440,Campus Road,96822,21.2980531,-157.8197306
1633,Bachman Place,96822,21.2982093,-157.8201590
1633,Bachman Place,96822,21.2981146,-157.8202290
1776,University Avenue,96822,21.2979657,-157.8217943
2350,Dole Street,96822,21.2971269,-157.8220147
1776,University Avenue,96822,21.2973661,-157.8228952
1776,University Avenue,96822,21.2988766,-157.8217758
1776,University Avenue,96822,21.2985949,-157.8217928
1776,University Avenue,96822,21.2980067,-157.8225444
1776,University Avenue,96822,21.2986183,-157.8234439
1776,University Avenue,96822,21.2984353,-157.8237437
1776,University Avenue,96822,21.2983977,-157.8234600
1776,University Avenue,96822,21.2984178,-157.8231757
2505,Campus Road,96822,21.2989361,-157.8187178
1890,East-West Road,96822,21.3009316,-157.8151650
3270,Ualena Street,96819,21.3347433,-157.9146733
3324,Sierra Drive,96816,21.2841940,-157.8000454
1153,12th Avenue,96816,21.2823293,-157.7988705
3251,North Nimitz Hwy.,96819,21.3361541,-157.9127567
550,Paiea Street,96819,21.3355401,-157.9162882
421,Lewers Street,96815,21.2817733,-157.8277132
3056,Kalakaua Avenue,96815,21.2584941,-157.8183566
1687,Kalākaua Avenue,96826,21.2919972,-157.8368962
1108,Auahi Street,96814,21.2938165,-157.8521829
1613,Nuuanu Avenue,96817,21.3167591,-157.8551041
2543,Kuhio Avenue,96815,21.2732605,-157.8211020
1011,Prospect Street,96822,21.3088876,-157.8440082
999,Wilder Avenue,96822,21.3088550,-157.8433472
1022,Prospect Street,96822,21.3097558,-157.8448290
1031,Maunaihi Place,96822,21.3081977,-157.8440846
1032,Fort Street Mall,96813,21.3097613,-157.8620423
1184,Bishop Street,96813,21.3107590,-157.8595803
3206,Ala Ilima Street,96818,21.3457773,-157.9115155
909,Ala Lilikoi Street,96818,21.3462738,-157.9124073
3225,Salt Lake Boulevard,96818,21.3432752,-157.9126397
412,Lewers Street,96815,21.2820614,-157.8282479
2176,Kuhio Avenue,96815,21.2817309,-157.8284450
2212,Aloha Drive,96815,21.2821469,-157.8271931
2237,Kuhio Avenue,96815,21.2804322,-157.8276434
2229,Kuhio Avenue,96815,21.2806073,-157.8277236
3308,Kanaina Avenue,96815,21.2759554,-157.8145579
3113,Mokihana Street,96816,21.2829171,-157.8136063
2070,Kalākaua Avenue,96815,21.2834014,-157.8311748
333,Seaside Avenue,96815,21.2794090,-157.8274762
334,Seaside Avenue,96815,21.2796325,-157.8280145
342,Seaside Avenue,96815,21.2798500,-157.8278180
2211,Kuhio Avenue,96815-2830,21.2808566,-157.8283324
2528,McCarthy Mall,96822,21.3006193,-157.8177435
2538,McCarthy Mall,96822,21.3005196,-157.8167059
1515,Wilder Avenue,96822,21.3033716,-157.8347356
1527,Keeaumoku Street,96822,21.3038494,-157.8366773
930,Lunalilo Street,96822,21.3057968,-157.8472686
2261,Nuuanu Avenue,96817-1713,21.3254948,-157.8474505
615,Auwaiolimu Street,96813,21.3131914,-157.8406069
1302,Nehoa Street,96822,21.3089348,-157.8347829
1302,Queen Emma Street,96825,21.3117661,-157.8573162
1020,Isenberg Street,96826,21.2939661,-157.8256095
3050,Maile Way,96822,21.3016263,-157.8167691
3190,Maile Way,96822,21.3016854,-157.8155210
3190,Maile Way,96822,21.3017286,-157.8149475
1910,East-West Road,96822,21.3021280,-157.8150883
2560,McCarthy Mall,96822,21.3008981,-157.8156369
1821,East West Road,96822,21.3004859,-157.8141854
2525,Maile Way,96822,21.3014514,-157.8177389
2540,Maile Way,96822,21.3009012,-157.8174068
1210,Dillingham Boulevard,96817,21.3232803,-157.8740162
3190,Maile Way,96822,21.3026385,-157.8151763
1951,East-West Road,96822,21.3023842,-157.8141231
1955,East-West Road,96822,21.3027952,-157.8138159
2002,East-West Road,96822,21.3035559,-157.8133351
2002,East-West Road,96822,21.3041054,-157.8131100
2002,East-West Road,96822,21.3043663,-157.8133533
2040,East-West Road,96822,21.3043548,-157.8140724
2010,East West Road,96822,21.3047649,-157.8148397
1821,East-West Road,96822,21.3011527,-157.8139639
1821,East-West Road,96822,21.3009198,-157.8139510
1239,Wilder Avenue,96822,21.3056498,-157.8386916
2533,Malama Place,96822,21.3053046,-157.8146486
2280,Kuhio Avenue,96815,21.2800165,-157.8263025
2260,Kuhio Avenue,96815,21.2800395,-157.8265515
1146,Fort Street Mall,96813,21.3106869,-157.8605011
20,South Vineyard Boulevard,96813,21.3141338,-157.8569781
818,Laula Way,96814,21.2983944,-157.8454978
824,Laula Way,96814,21.2985553,-157.8455202
828,Laula Way,96814,21.2986369,-157.8454041
829,Pensacola Street,96814,21.2988024,-157.8460277
1132,Hoolai Street,96814,21.2974160,-157.8459856
1122,Hoolai Street,96814,21.2975005,-157.8462438
1118,Hoolai Street,96814,21.2975478,-157.8463831
747,Pensacola Street,96814,21.2980023,-157.8465757
739,Pensacola Street,96814,21.2978841,-157.8466433
733,Pensacola Street,96814,21.2977340,-157.8466910
1104,Hoolai Street,96814,21.2976152,-157.8467468
1145,Hoolai Street,96814,21.2969619,-157.8456989
708,Piikoi Street,96814,21.2966603,-157.8457778
704,Piikoi Street,96814,21.2965025,-157.8458210
1142,Kamaile Street,96814,21.2966046,-157.8460003
1135,Hoolai Street,96814,21.2970083,-157.8459861
1132,Kamaile Street,96814,21.2966913,-157.8462759
1103,Hoolai Street,96814,21.2973662,-157.8468853
1117,Hoolai Street,96814,21.2971854,-157.8465425
1111,Hoolai Street,96814,21.2972343,-157.8466591
709,Pensacola Street,96814,21.2970597,-157.8469833
701,Pensacola Street,96814,21.2969466,-157.8470288
1118,Kamaile Street,96814,21.2968402,-157.8466702
1122,Kamaile Street,96814,21.2968023,-157.8465454
1112,Kamaile Street,96814,21.2969144,-157.8467985
1151,Alohi Way,96814,21.2992066,-157.8447186
520,Makapu‘u Avenue,96816,21.2708901,-157.8032706
1776,University Avenue,96822,21.2982670,-157.8215953
1776,University Avenue,96822,21.2983270,-157.8218378
1776,University Avenue,96822,21.2982023,-157.8220338
1726,University Avenue,96822,21.2978193,-157.8236273
2404,Maile Way,96822,21.3010804,-157.8203355
1107,South King Street,96814,21.3001536,-157.8456909
927,Pensacola Street,96814,21.2999999,-157.8457914
923,Pensacola Street,96814,21.2998585,-157.8458141
1003,Pensacola Street,96814,21.3006100,-157.8455229
1023,Pensacola Street,96814,21.3011126,-157.8453631
1180,South King Street,96814,21.3002426,-157.8444039
1010,Pensacola Street,96814,21.3009976,-157.8462800
1039,South King Street,96814,21.2985889,-157.8471612
2859,Manoa Road,96822,21.3121680,-157.8144810
1525,Wilder Avenue,96822,21.3029362,-157.8341986
1550,Piikoi Street,96822,21.3035608,-157.8334387
952,Ahana Street,96814,21.2968944,-157.8396370
1550,Rycroft Street,96814,21.2957490,-157.8394539
929,Ahana Street,96814,21.2963559,-157.8394293
920,Kaheka Street,96814,21.2962108,-157.8390903
820,West Hind Drive,96821,21.2784098,-157.7537691
1337,Mahiole Street,96819,21.3488596,-157.8915373
759,South King Street,96814,21.3026985,-157.8531236
2700,Waialae Avenue,96826,21.2905102,-157.8182743
2900,Moanalua Road,96819,21.3495027,-157.8939731
2850-A,Moanalua Road,96819,21.3464731,-157.8921269
2949,Ala Ilima Street,96818,21.3446951,-157.9041781
902,University Avenue,96826,21.2913054,-157.8231013
1289,Mahiole Street,96819,21.3500186,-157.8931861
1614,Emerson Street,96813,21.3092404,-157.8484748
1425,Ward Avenue,96813,21.3064570,-157.8478580
1420,Victoria Street,96822,21.3061396,-157.8471871
730,Captain Cook Avenue,96813,21.3069723,-157.8500115
888,Kapiolani Boulevard,96813,21.2999412,-157.8527010
1740,South Beretania Street,96826,21.2982738,-157.8325732
1370,North King Street,96817,21.3287817,-157.8701066
2828,Paa Street,96813,21.3457681,-157.8946719
330,Royal Hawaiian Avenue,96815,21.2801640,-157.8289025
1201,Wilder Avenue,96822,21.3060149,-157.8395139
1571,Piikoi Street,96822,21.3056423,-157.8398833
832,South Hotel Street,96813,21.3035765,-157.8509285
2024,Manoa Road,96822,21.3055790,-157.8281415
2034,Manoa Road,96822,21.3055764,-157.8278514
2042,Manoa Road,96822,21.3055833,-157.8276059
2026,Ahualani Place,96822,21.3060654,-157.8272978
1901,Judd Hillside Road,96822,21.3074542,-157.8268708
2198,Round Top Drive,96822,21.3105439,-157.8286566
1908,Judd Hillside Road,96822,21.3070393,-157.8263924
1892,Judd Hillside Road,96822,21.3075043,-157.8263648
1942,Judd Hillside Road,96822,21.3070862,-157.8257980
3270,Waialae Avenue,96816,21.2868842,-157.8062592
3384,Waialae Avenue,96816,21.2856134,-157.8037322
822,Birch Street,96814,21.2977856,-157.8435252
1450,Young Street,96814,21.2989143,-157.8377448
1448,Young Street,96814,21.2991244,-157.8383249
2155,Puualii Place,96822,21.3080580,-157.8252329
2159,Puualii Place,96822,21.3082036,-157.8248646
1950,Judd Hillside Road,96822,21.3074648,-157.8252243
1970,Judd Hillside Road,96822,21.3076247,-157.8245400
2391,Aina Lani Way,96822,21.3089569,-157.8252938
2493,Aina Lani Way,96822,21.3090775,-157.8250283
2394,Aina Lani Way,96822,21.3091685,-157.8248063
2835,Round Top Drive,96822,21.3101124,-157.8250626
2353,Aina Lani Way,96822,21.3094865,-157.8261471
2369,Aina Lani Way,96822,21.3091611,-157.8260520
2375,Aina Lani Way,96822,21.3090557,-157.8256191
2371,Aina Lani Way,96822,21.3089620,-157.8257793
2324,Mamane Place,96822,21.3092314,-157.8262957
2325,Mamane Place,96822,21.3088422,-157.8260092
2323,Mamane Place,96822,21.3086965,-157.8262306
2315,Mamane Place,96822,21.3086709,-157.8265708
2305,Round Top Drive,96822,21.3085807,-157.8270122
1102,Piikoi Street,96814,21.3009360,-157.8437579
1160,South King Street,96814,21.3003471,-157.8446651
1317,Queen Emma Street,96813,21.3107216,-157.8562783
2043,Alihilani Place,96822,21.3059532,-157.8283307
2053,Ahualani Place,96822,21.3059278,-157.8276977
2057,Alihilani Place,96822,21.3063616,-157.8275876
2056,Manoa Road,96822,21.3056891,-157.8271312
2033,Ahualani Place,96822,21.3056970,-157.8268764
2082,Ahualani Place,96822,21.3057271,-157.8265042
2128,Manoa Road,96822,21.3059468,-157.8257967
2114,Manoa Road,96822,21.3059504,-157.8260870
1915,Judd Hillside Road,96822,21.3064026,-157.8266223
2040,Ahualani Place,96822,21.3060706,-157.8266294
2030,Ahualani Place,96822,21.3063837,-157.8269388
1905,Judd Hillside Road,96822,21.3066175,-157.8269114
1909,Judd Hillside Road,96822,21.3066847,-157.8265866
1921,Judd Hillside Road,96822,21.3064844,-157.8260812
1947,Judd Hillside Road,96822,21.3066239,-157.8254450
1965,Judd Hillside Road,96822,21.3068217,-157.8250905
1964,Judd Hillside Road,96822,21.3072307,-157.8249114
1997,Judd Hillside Road,96822,21.3065647,-157.8245597
1975,Judd Hillside Road,96822,21.3068089,-157.8247854
2150,Puualii Place,96822,21.3086482,-157.8250310
2150,Puualii Place,96822,21.3085295,-157.8254086
2320,Mamane Place,96822,21.3091342,-157.8264608
2308,Mamane Place,96822,21.3090030,-157.8267399
2349,Aina Lani Place,96822,21.3096688,-157.8263889
1150,South King Street,96814,21.3004871,-157.8448271
1125,Young Street,96814,21.3008216,-157.8446968
1209,Piikoi Street,96814,21.3019217,-157.8428776
1157,South King Street,96814,21.2997638,-157.8445785
938,Piikoi Street,96814,21.2996948,-157.8444538
2746,Kaimuki Avenue,96816,21.2875542,-157.8151860
2140,Puualii Place,96822,21.3081878,-157.8259230
2130,Puualii Place,96822,21.3083741,-157.8261666
2120,Puualii Place,96822,21.3083890,-157.8264923
2309,Mamane Place,96822,21.3085164,-157.8267861
2309,Mamane Place,96822,21.3086717,-157.8267398
2108,Puualii Place,96822,21.3082497,-157.8268705
2316,Round Top Drive,96822,21.3089893,-157.8271922
2380,Round Top Drive,96822,21.3102213,-157.8278755
2222,Round Top Drive,96822,21.3098464,-157.8281972
2307,Aina Lani Place,96822,21.3100824,-157.8274519
2323,Aina Lani Place,96822,21.3100630,-157.8270787
2359,Round Top Drive,96822,21.3097905,-157.8273640
2359A,Round Top Drive,96822,21.3097625,-157.8271580
2341,Round Top Drive,96822,21.3097318,-157.8269449
2355,Round Top Drive,96822,21.3096887,-157.8267988
2115,Round Top Drive,96822,21.3117388,-157.8295490
2101,Round Top Drive,96822,21.3113169,-157.8297243
2188,Round Top Drive,96822,21.3105867,-157.8291357
2168,Round Top Drive,96822,21.3110862,-157.8293925
2028,Round Top Terrace,96822,21.3090007,-157.8292226
2447,Makiki Heights Drive,96822,21.3119942,-157.8318625
2443,Makiki Heights Drive,96822,21.3111937,-157.8321205
2350,Makiki Heights Drive,96822,21.3112074,-157.8336527
2457,Makiki Heights Drive,96822,21.3123805,-157.8317113
2475,Makiki Heights Drive,96822,21.3128778,-157.8318139
2529,Makiki Heights Drive,96822,21.3138071,-157.8317502
2495,Makiki Heights Drive,96822,21.3142562,-157.8311369
2497,Makiki Heights Drive,96822,21.3136969,-157.8315202
2505,Makiki Heights Drive,96822,21.3135865,-157.8319179
1200,Ala Moana Boulevard,96814,21.2928381,-157.8521658
1200,Ala Moana Boulevard,96814,21.2930827,-157.8526870
2110,Manoa Road,96822,21.3055664,-157.8262664
1898,Judd Hillside Road,96822,21.3073787,-157.8261442
3826,Round Top Drive,96822,21.3203793,-157.8158673
3860,Round Top Drive,96822,21.3217994,-157.8161956
665,Halekauwila Street,96813,21.3005032,-157.8590079
650,Kapiolani Boulevard,96813,21.3022979,-157.8545148
700,Richards Street,96813,21.3061813,-157.8622517
1755,Nuuanu Avenue,96817,21.3186903,-157.8534032
1720,Huna Street,96817,21.3197930,-157.8564372
2741,Varsity Place,96822,21.2924388,-157.8187400
1201,South King Street,96814,21.2993134,-157.8440708
860,Halekauwila Street,96813,21.2979161,-157.8559784
1177,Queen Street,96814,21.2931478,-157.8492001
1330,South Beretania Street,96814,21.3008095,-157.8404611
3300,Tantalus Drive,96822,21.3241556,-157.8312058
3711,Round Top Drive,96822,21.3190746,-157.8150540
1650,Kalākaua Avenue,96826,21.2937116,-157.8365081
1670,Kalākaua Avenue,96826,21.2931489,-157.8364448
1323,Kalākaua Avenue,96826,21.2983512,-157.8364488
1018,Lunalilo Street,96822,21.3055558,-157.8462756
1325,South Beretania Street,96814,21.3047154,-157.8469411
1134,Kinau Street,96814,21.3031442,-157.8434826
757,Kinalau Place,96813,21.3055277,-157.8502177
775,Kinalau Place,96813,21.3053650,-157.8498380
824,Kinau Street,96813,21.3050933,-157.8492247
702,South Beretania Street,96813,21.3050688,-157.8522620
1441,Piikoi Street,96822,21.3042534,-157.8411986
1805,Poki Street,96822,21.3046825,-157.8315617
1447,Kewalo Street,96822,21.3036936,-157.8390050
1525,Kewalo Street,96822,21.3043619,-157.8385360
1516,Ward Avenue,96822,21.3077235,-157.8480748
1623,Alapai Street,96813,21.3094099,-157.8486006
666;670,Prospect Street,96813,21.3095074,-157.8490588
1310,Heulu Street,96822,21.3069664,-157.8358078
1634,Makiki Street,96822,21.3049509,-157.8344317
1617,Keeaumoku Street,96822,21.3048219,-157.8355393
1702,Kewalo Street,96822,21.3074927,-157.8362967
1600,Ala Moana Boulevard,96815,21.2888209,-157.8401202
410,Magellan Avenue,96813,21.3101382,-157.8515058
1619,Kamamalu Avenue,96813,21.3125031,-157.8516674
217,Prospect Street,96817,21.3136718,-157.8509974
1050,Lunalilo Street,96822,21.3055492,-157.8456089
1519,Nehoa Street,96822,21.3060878,-157.8317960
1818,Anapuni Street,96822,21.3057392,-157.8322986
1545,Nehoa Street,96822,21.3056374,-157.8311565
1533,Nehoa Street,96822,21.3059095,-157.8314164
1825,Anapuni Street,96822,21.3056363,-157.8317000
1541,Dominis Street,96822,21.3046478,-157.8323412
1330,Wilder Avenue,96822,21.3054538,-157.8365825
1325,Wilder Avenue,96822,21.3048234,-157.8374910
1822,Keeaumoku Street,96822,21.3078653,-157.8337926
1324,Heulu Street,96822,21.3067008,-157.8355808
1419,Dominis Street,96822,21.3061612,-157.8339247
1710,Makiki Street,96822,21.3051854,-157.8338291
1722,Makiki Street,96822,21.3056142,-157.8335411
1251,Heulu Street,96822,21.3069108,-157.8368287
1130,Wilder Avenue,96822,21.3069861,-157.8400134
1452,Liholiho Street,96822,21.3046681,-157.8405092
1520,Liholiho Street,96822,21.3050559,-157.8400278
1309,Wilder Avenue,96822,21.3051623,-157.8377598
727,Alder Street,96814,21.2966636,-157.8443395
711,Alder Street,96814,21.2963656,-157.8446574
1360,South King Street,96814,21.2988878,-157.8405848
1380,South King Street,96814,21.2988385,-157.8404064
1350,South King Street,96814,21.2992189,-157.8408309
802,North King Street,96817,21.3219367,-157.8669795
1808,Punahou Street,96822,21.3044207,-157.8313031
1822,Punahou Street,96822,21.3046630,-157.8310790
1830,Punahou Street,96822,21.3047621,-157.8308932
1839,Poki Street,96822,21.3051480,-157.8309721
1578,Nehoa Street,96822,21.3052786,-157.8302543
1562,Nehoa Street,96822,21.3057076,-157.8304510
1915,Ualakaa Street,96822,21.3060815,-157.8303560
1903,Ualakaa Street,96822,21.3058579,-157.8307567
1930 A,Ualakaa Street,96822,21.3067732,-157.8305627
1930,Ualakaa Street,96822,21.3065691,-157.8304647
1926,Ualakaa Street,96822,21.3064814,-157.8306630
1920,Ualakaa Street,96822,21.3063858,-157.8307980
1516,Nehoa Street,96822,21.3065609,-157.8315118
1516,Nehoa Street,96822,21.3066835,-157.8313825
1516,Nehoa Street,96822,21.3064382,-157.8313713
1516,Nehoa Street,96822,21.3065521,-157.8312516
1516,Nehoa Street,96822,21.3066890,-157.8311096
1516,Nehoa Street,96822,21.3068153,-157.8309794
1516,Nehoa Street,96822,21.3069340,-157.8310524
1516,Nehoa Street,96822,21.3069853,-157.8311698
1516,Nehoa Street,96822,21.3068334,-157.8312686
2045,Keeaumoku Street,96822,21.3095459,-157.8315031
1948,Makiki Heights Drive,96822,21.3089108,-157.8314486
1942,Makiki Heights Drive,96822,21.3087851,-157.8315956
1960,Makiki Heights Drive,96822,21.3092333,-157.8312795
2035,Keeaumoku Street,96822,21.3091511,-157.8316664
2041,Keeaumoku Street,96822,21.3093297,-157.8315584
2027,Keeaumoku Street,96822,21.3089783,-157.8317012
2025,Keeaumoku Street,96822,21.3088336,-157.8318580
1924,Makiki Heights Drive,96822,21.3082594,-157.8316698
2009,Keeaumoku Street,96822,21.3083679,-157.8319069
2011,Keeaumoku Street,96822,21.3086022,-157.8320921
2017,Keeaumoku Street,96822,21.3087146,-157.8319899
1939,Keeaumoku Street,96822,21.3082024,-157.8320319
1937,Keeaumoku Street,96822,21.3083350,-157.8322197
1923,Keeaumoku Street,96822,21.3081051,-157.8325118
1901,Keeaumoku Street,96822,21.3077816,-157.8329640
1906 A,Keeaumoku Street,96822,21.3079967,-157.8332216
1920,Keeaumoku Street,96822,21.3082773,-157.8329500
1936,Makiki Heights Drive,96822,21.3085639,-157.8317424
1922,Makiki Heights Drive,96822,21.3081625,-157.8318756
2059,Keeaumoku Street,96822,21.3097680,-157.8312826
2075,Keeaumoku Place,96822,21.3100110,-157.8310495
2087,Keeaumoku Place,96822,21.3103518,-157.8309582
2086,Keeaumoku Place,96822,21.3104268,-157.8311968
2081,Keeaumoku Place,96822,21.3101551,-157.8309661
1914,Makiki Heights Drive,96822,21.3080384,-157.8316238
1922,Makiki Street,96822,21.3074198,-157.8319578
1970,Ualakaa Street,96822,21.3067868,-157.8295015
1962,Ualakaa Street,96822,21.3068189,-157.8297103
1944 A,Ualakaa Street,96822,21.3067249,-157.8300224
1944 C,Ualakaa Street,96822,21.3071522,-157.8300658
1944 D,Ualakaa Street,96822,21.3072401,-157.8302772
1930 B,Ualakaa Street,96822,21.3070669,-157.8305509
1944 B,Ualakaa Street,96822,21.3069153,-157.8300550
1969,Makiki Street,96822,21.3082413,-157.8306605
1965,Makiki Street,96822,21.3080904,-157.8306851
1975,Makiki Street,96822,21.3084109,-157.8306076
2003,Makiki Street,96822,21.3085352,-157.8305491
2015,Makiki Street,96822,21.3084645,-157.8298929
2021,Makiki Street,96822,21.3083664,-157.8297221
2041,Okika Place,96822,21.3082146,-157.8296062
2049,Okika Place,96822,21.3081067,-157.8294970
2054,Makiki Street,96822,21.3089971,-157.8285457
2030,Makiki Street,96822,21.3087886,-157.8292411
2024,Makiki Street,96822,21.3090238,-157.8295794
2020,Makiki Street,96822,21.3087986,-157.8296534
2035,Round Top Drive,96822,21.3097860,-157.8299509
2005,Round Top Drive,96822,21.3087851,-157.8301032
2014,Makiki Street,96822,21.3090378,-157.8298860
2033,Round Top Terrace,96822,21.3095994,-157.8291161
2017,Round Top Terrace,96822,21.3092076,-157.8292190
2007A,Makiki Street,96822,21.3082694,-157.8301182
1981,Makiki Street,96822,21.3084591,-157.8303419
1955,Makiki Street,96822,21.3078254,-157.8303277
1929,Makiki Street,96822,21.3073507,-157.8311288
1931,Makiki Street,96822,21.3074949,-157.8310247
1935,Makiki Street,96822,21.3076260,-157.8309471
1941,Makiki Street,96822,21.3077585,-157.8308272
1947,Makiki Street,96822,21.3078981,-157.8307885
2009,Makiki Street,96822,21.3081460,-157.8298549
2189,Round Top Drive,96822,21.3101693,-157.8293269
1908,Ualakaa Street,96822,21.3063447,-157.8309996
1544,Nehoa Street,96822,21.3060798,-157.8310255
1530,Nehoa Street,96822,21.3062236,-157.8311089
1526,Nehoa Street,96822,21.3063221,-157.8312775
1717,Makiki Street,96822,21.3051754,-157.8332404
1727,Makiki Street,96822,21.3053461,-157.8331454
1737,Makiki Street,96822,21.3055298,-157.8330121
1925,Makiki Street,96822,21.3073679,-157.8306475
1923,Makiki Street,96822,21.3070077,-157.8309303
2316,Maunalaha Road,96822,21.3122167,-157.8288516
2260,Makiki Heights Drive,96822,21.3104551,-157.8315283
2266,Makiki Heights Drive,96822,21.3104666,-157.8317474
2270,Makiki Heights Drive,96822,21.3104798,-157.8319580
2282,Makiki Heights Drive,96822,21.3105070,-157.8321764
2121,Keeaumoku Street,96822,21.3101606,-157.8321231
2117,Keeaumoku Street,96822,21.3101429,-157.8319146
2107,Keeaumoku Street,96822,21.3101756,-157.8317045
2101,Keeaumoku Street,96822,21.3101568,-157.8314156
2080,Keeaumoku Place,96822,21.3102596,-157.8312457
2106,Keeaumoku Street,96822,21.3098975,-157.8316957
2108,Keeaumoku Street,96822,21.3098989,-157.8321203
2124,Keeaumoku Street,96822,21.3096318,-157.8323926
2124,Keeaumoku Street,96822,21.3098284,-157.8324095
2030,Keeaumoku Street,96822,21.3096055,-157.8321487
2036,Keeaumoku Street,96822,21.3097631,-157.8318951
2019,Vancouver Drive,96822,21.3006494,-157.8219907
2001,Vancouver Drive,96822,21.3008106,-157.8224416
1914,University Avenue,96822,21.3002762,-157.8215964
2234,Kamehameha Avenue,96822,21.3037973,-157.8211260
2328,Seaview Avenue,96822,21.3002917,-157.8219202
"2252, 2256",Seaview Avenue,96822,21.3003327,-157.8229530
2122,Metcalf Street,96822,21.2995511,-157.8259529
1515,Ualakaa Place,96822,21.3070197,-157.8296290
1509,Ualakaa Place,96822,21.3072561,-157.8298431
1502,Ualakaa Place,96822,21.3074473,-157.8292878
1508,Ualakaa Place,96822,21.3075586,-157.8289999
1503,Ualakaa Place,96822,21.3073445,-157.8296584
1990,Ualakaa Street,96822,21.3071362,-157.8289310
1516,Ualakaa Place,96822,21.3070962,-157.8291861
2000,Ualakaa Street,96822,21.3072176,-157.8286940
2014,Ualakaa Street,96822,21.3072898,-157.8283958
1519,Oneele Place,96822,21.3075128,-157.8302759
2077,Makiki Place,96822,21.3082719,-157.8285088
2299,Round Top Drive,96822,21.3079742,-157.8273171
2026A,Ualakaa Street,96822,21.3077161,-157.8281811
1510,Ualakaa Place,96822,21.3075784,-157.8286605
2014 A,Ualakaa Street,96822,21.3076170,-157.8284499
2072,Makiki Place,96822,21.3083215,-157.8280391
2081,Makiki Place,96822,21.3081590,-157.8283103
2010,Manoa Road,96822,21.3055564,-157.8285639
1637,Makiki Street,96822,21.3045776,-157.8338758
1645,Makiki Street,96822,21.3047032,-157.8336934
1711,Makiki Street,96822,21.3050118,-157.8334209
1720,Poki Street,96822,21.3043573,-157.8325408
1618,Punahou Street,96822,21.3032631,-157.8324756
1619,Makiki Street,96822,21.3042308,-157.8340729
1707,Makiki Street,96822,21.3048905,-157.8335793
1615,Makiki Street,96822,21.3042560,-157.8342631
1623,Makiki Street,96822,21.3043708,-157.8341335
1631,Makiki Street,96822,21.3044546,-157.8340281
1612,Anapuni Street,96822,21.3040207,-157.8341078
1514,Wilder Avenue,96822,21.3039052,-157.8342763
1518,Wilder Avenue,96822,21.3037852,-157.8342078
1608,Anapuni Street,96822,21.3038727,-157.8341092
1607,Makiki Street,96822,21.3040379,-157.8344382
1508,Wilder Avenue,96822,21.3039044,-157.8344684
1603,Makiki Street,96822,21.3039433,-157.8346017
1611,Makiki Street,96822,21.3041294,-157.8343421
1430,Wilder Avenue,96822,21.3044583,-157.8353819
1420,Wilder Avenue,96822,21.3045269,-157.8356433
1707,Keeaumoku Street,96822,21.3059889,-157.8347261
1717,Keeaumoku Street,96822,21.3061159,-157.8344482
1968,Nehoa Place,96822,21.3095112,-157.8333958
1964,Nehoa Place,96822,21.3095588,-157.8335641
1960,Nehoa Place,96822,21.3095816,-157.8337300
1956,Nehoa Place,96822,21.3095790,-157.8339043
1952,Nehoa Place,96822,21.3095577,-157.8340887
1948,Nehoa Place,96822,21.3094272,-157.8342616
1940,Nehoa Place,96822,21.3090776,-157.8344040
1944,Nehoa Place,96822,21.3092678,-157.8343636
1910,Nehoa Place,96822,21.3085053,-157.8338267
1332,Nehoa Street,96822,21.3085022,-157.8339863
1328,Nehoa Street,96822,21.3085001,-157.8341173
1322,Nehoa Street,96822,21.3085161,-157.8342646
1318,Nehoa Street,96822,21.3085386,-157.8344205
1312,Nehoa Street,96822,21.3085580,-157.8345769
1949,Nehoa Place,96822,21.3092578,-157.8339684
1929,Nehoa Place,96822,21.3090808,-157.8339755
1959,Nehoa Place,96822,21.3091370,-157.8337829
1929 C,Nehoa Place,96822,21.3090760,-157.8334521
1915,Nehoa Place,96822,21.3087128,-157.8335525
1925,Nehoa Place,96822,21.3088707,-157.8336155
1934 C,Nehoa Place,96822,21.3088635,-157.8345791
1934 B,Nehoa Place,96822,21.3088144,-157.8344024
1934 A,Nehoa Place,96822,21.3087962,-157.8342347
1930,Nehoa Place,96822,21.3087892,-157.8340997
1920,Nehoa Place,96822,21.3087421,-157.8339203
1911,Nehoa Place,96822,21.3085016,-157.8335092
1907,Nehoa Place,96822,21.3083384,-157.8333000
1912,Keeaumoku Street,96822,21.3081673,-157.8331071
1356,Nehoa Street,96822,21.3080861,-157.8333845
1352,Nehoa Street,96822,21.3081759,-157.8334687
1903,Nehoa Place,96822,21.3082915,-157.8336026
1929 B,Nehoa Place,96822,21.3091236,-157.8336103
2004,Leiloke Drive,96822,21.3088754,-157.8323075
2029,Leiloke Drive,96822,21.3092250,-157.8328586
2049,Leiloke Drive,96822,21.3090781,-157.8329130
2055,Leiloke Drive,96822,21.3089092,-157.8329072
2065,Leiloke Drive,96822,21.3087586,-157.8329721
2076,Leiloke Drive,96822,21.3083798,-157.8330683
2070,Leiloke Drive,96822,21.3085148,-157.8332098
2064,Leiloke Drive,96822,21.3086504,-157.8333112
2060,Leiloke Drive,96822,21.3088110,-157.8332492
2054,Leiloke Drive,96822,21.3089774,-157.8332447
2050,Leiloke Drive,96822,21.3091358,-157.8331949
2042,Leiloke Drive,96822,21.3093018,-157.8332491
2038,Leiloke Drive,96822,21.3095154,-157.8332388
2036,Leiloke Drive,96822,21.3095049,-157.8330633
2032,Leiloke Drive,96822,21.3094999,-157.8329061
2030,Leiloke Drive,96822,21.3095922,-157.8327311
2010,Leiloke Drive,96822,21.3090237,-157.8323988
2016,Leiloke Drive,96822,21.3091599,-157.8324503
2022,Leiloke Drive,96822,21.3093034,-157.8325564
2026,Leiloke Drive,96822,21.3094612,-157.8326503
2015,Leiloke Drive,96822,21.3089956,-157.8326940
1932,Keeaumoku Street,96822,21.3085160,-157.8327198
2075,Leiloke Drive,96822,21.3086091,-157.8328282
2003,Leiloke Drive,96822,21.3086720,-157.8325635
2007,Leiloke Drive,96822,21.3087958,-157.8326747
1829,Makiki Street,96822,21.3062605,-157.8321600
2020,Alihilani Place,96822,21.3055516,-157.8288486
2024,Alihilani Place,96822,21.3058107,-157.8289036
2032,Alihilani Place,96822,21.3064450,-157.8290353
2028,Alihilani Place,96822,21.3060568,-157.8289811
1934,Manoa Road,96822,21.3058283,-157.8295582
1911,Keeaumoku Street,96822,21.3079379,-157.8326543
1921,Keeaumoku Street,96822,21.3077952,-157.8321429
1925,Keeaumoku Street,96822,21.3082380,-157.8324187
1931,Keeaumoku Street,96822,21.3080025,-157.8321417
1250,Nehoa Street,96822,21.3090735,-157.8356804
1262,Nehoa Street,96822,21.3091752,-157.8350153
1235,Lilo Place,96822,21.3092613,-157.8360058
1231,Lilo Place,96822,21.3095106,-157.8361483
1811,Mott Smith Drive,96822,21.3094752,-157.8365427
1206,Nehoa Street,96822,21.3093181,-157.8366799
1819,Mott Smith Drive,96822,21.3096324,-157.8363962
1829,Mott Smith Drive,96822,21.3099188,-157.8362298
2160,Manoa Road,96822,21.3060763,-157.8256096
2202,Manoa Road,96822,21.3061859,-157.8252720
2222,Manoa Road,96822,21.3064675,-157.8247789
2216 A,Manoa Road,96822,21.3063963,-157.8249805
2210,Manoa Road,96822,21.3063232,-157.8251567
1990 A,Judd Hillside Road,96822,21.3068424,-157.8241900
1980,Judd Hillside Road,96822,21.3070413,-157.8244780
1974,Judd Hillside Road,96822,21.3072617,-157.8247105
1974,Judd Hillside Road,96822,21.3073210,-157.8245771
1976,Judd Hillside Road,96822,21.3074929,-157.8243182
1903 A,Judd Hillside Road,96822,21.3071104,-157.8269261
1903,Judd Hillside Road,96822,21.3069458,-157.8268366
2060,Alihilani Place,96822,21.3067274,-157.8278495
2043,Ualakaa Street,96822,21.3069096,-157.8272615
2064,Alihilani Place,96822,21.3067743,-157.8275529
2056,Alihilani Place,96822,21.3066833,-157.8281050
2050,Alihilani Place,96822,21.3065584,-157.8283589
2036,Alihilani Place,96822,21.3064254,-157.8288362
2040,Alihilani Place,96822,21.3064944,-157.8285818
1975,Ualakaa Street,96822,21.3066555,-157.8290614
1989,Ualakaa Street,96822,21.3067851,-157.8288338
2001,Ualakaa Street,96822,21.3068517,-157.8285933
2027,Ualakaa Street,96822,21.3070564,-157.8278244
2047,Ualakaa Street,96822,21.3072378,-157.8272465
2038,Ualakaa Street,96822,21.3074583,-157.8276828
2026,Ualakaa Street,96822,21.3073858,-157.8280844
2039,Ualakaa Street,96822,21.3071707,-157.8276249
2011,Ualakaa Street,96822,21.3069085,-157.8283330
2019,Ualakaa Street,96822,21.3069881,-157.8281264
2039,Haiki Place,96822,21.3077979,-157.8277360
2299C,Haiki Place,96822,21.3078095,-157.8279023
2310,Makiki Heights Drive,96822,21.3107371,-157.8329018
2325,Hoalu Place,96822,21.3103628,-157.8330863
2329,Hoalu Place,96822,21.3102014,-157.8331253
2337,Hoalu Place,96822,21.3099898,-157.8331532
2022,Round Top Terrace,96822,21.3092108,-157.8288956
2024,Round Top Terrace,96822,21.3093080,-157.8287737
2014,Round Top Terrace,96822,21.3091173,-157.8288031
2034,Round Top Terrace,96822,21.3095323,-157.8288149
2036,Round Top Terrace,96822,21.3097177,-157.8287321
1517,Makiki Street,96822,21.3026832,-157.8352590
1434,Punahou Street,96822,21.3021125,-157.8340410
1617-1625,Dole Street,96822,21.3012987,-157.8327108
1045,Kawaiahao Street,96814,21.2953464,-157.8521101
975,Kapiolani Boulevard,96814,21.2975139,-157.8518692
949,Kapiolani Boulevard,96814,21.2977281,-157.8522208
967,Kapiolani Boulevard,96814,21.2975657,-157.8521055
1283,Kapiolani Boulevard,96814,21.2946507,-157.8466735
1221,Kapiolani Boulevard,96814,21.2948289,-157.8471071
1139,Kapiolani Boulevard,96814,21.2955707,-157.8490672
1040,Lunalilo Street,96822,21.3052353,-157.8459859
2306,Aina Lani Place,96822,21.3103990,-157.8273764
2312,Aina Lani Place,96822,21.3104077,-157.8271587
2069,Makiki Place,96822,21.3084265,-157.8283038
2085,Makiki Place,96822,21.3080153,-157.8282590
2055,Makiki Street,96822,21.3085377,-157.8284302
2053,Makiki Street,96822,21.3084475,-157.8287165
2398,Aina Lani Place,96822,21.3108275,-157.8269677
2394,Aina Lani Place,96822,21.3106301,-157.8267654
2390,Aina Lani Place,96822,21.3104408,-157.8265420
2370,Aina Lani Place,96822,21.3100981,-157.8261618
2326,Aina Lani Place,96822,21.3103198,-157.8269082
2340,Aina Lani Place,96822,21.3101475,-157.8266006
2384,Aina Lani Place,96822,21.3103288,-157.8263571
2357,Aina Lani Place,96822,21.3097901,-157.8260000
2367,Aina Lani Place,96822,21.3100145,-157.8259250
2322,Maile Way,96822,21.3020559,-157.8204538
1221,South King Street,96814,21.2994580,-157.8435728
928,Birch Street,96814,21.2989302,-157.8430268
1239,South King Street,96814,21.2991647,-157.8432586
916,Birch Street,96814,21.2987392,-157.8432143
915,Birch Street,96814,21.2986266,-157.8427114
1414,Kalākaua Avenue,96826,21.2979224,-157.8372814
1550,South King Street,96826,21.2974781,-157.8363564
1528,Emerson Street,96813,21.3085273,-157.8488288
625,Iolani Avenue,96813,21.3088877,-157.8496650
1036,Green Street,96822,21.3061982,-157.8455603
1020,Green Street,96822,21.3063718,-157.8462012
1440,Ward Avenue,96813,21.3072420,-157.8482603
1419,Emerson Street,96813,21.3068265,-157.8488815
1503,Emerson Street,96813,21.3077844,-157.8486769
1456,Thurston Avenue,96822,21.3071035,-157.8461493
1456,Thurston Avenue,96822,21.3068419,-157.8461726
1001,Wilder Avenue,96822,21.3089234,-157.8427914
1010,Wilder Avenue,96822,21.3090144,-157.8422350
1405,Makiki Street,96814,21.3011311,-157.8369072
1313,Makiki Street,96814,21.3008332,-157.8375335
927,Prospect Street,96822,21.3078904,-157.8468242
1002A,Prospect Street,96822,21.3097091,-157.8452930
1620,Keeaumoku Street,96822,21.3052419,-157.8362389
1515,Kewalo Street,96822,21.3041518,-157.8387209
1544,Kewalo Street,96822,21.3049141,-157.8387457
1510,Liholiho Street,96822,21.3048184,-157.8401763
1148B,Wilder Avenue,96822,21.3068325,-157.8397871
1190,Wilder Avenue,96822,21.3066173,-157.8395692
1190,Wilder Avenue,96822,21.3068250,-157.8394191
1636,Piikoi Street,96822,21.3071584,-157.8396419
1650,Piikoi Street,96822,21.3074875,-157.8401496
1616,Liholiho Street,96822,21.3064538,-157.8385555
1509,Penascola,96814,21.3055997,-157.8426048
1716,Keeaumoku Street,96822,21.3066397,-157.8350236
1347,Kapiolani Boulevard,96814,21.2939489,-157.8451287
1039,South King Street,96814,21.2981495,-157.8481839
1039,South King Street,96814,21.3002583,-157.8485048
1572,Nehoa Street,96822,21.3054242,-157.8303722
1930,Manoa Road,96822,21.3054850,-157.8295562
1918,Manoa Road,96822,21.3053259,-157.8296781
1918,Manoa Road,96822,21.3054604,-157.8297261
1918,Manoa Road,96822,21.3053047,-157.8298173
1916,Manoa Road,96822,21.3057764,-157.8298908
1944,Manoa Road,96822,21.3055025,-157.8291459
1940,Manoa Road,96822,21.3058283,-157.8292541
1918,Manoa Road,96822,21.3055808,-157.8297478
1912,Manoa Road,96822,21.3054175,-157.8300659
2314,Hoalu Place,96822,21.3103147,-157.8326073
2334,Hoalu Place,96822,21.3100495,-157.8328396
2324,Hoalu Place,96822,21.3102411,-157.8328235
2340,Hoalu Place,96822,21.3097697,-157.8328456
2306,Hoalu Place,96822,21.3103876,-157.8323816
2342,Hoalu Place,96822,21.3097723,-157.8330310
2338,Hoalu Place,96822,21.3098607,-157.8327092
2002,South King Street,96826,21.2951001,-157.8298469
1806,South King Street,96826,21.2959933,-157.8324271
1055,South Beretania Street,96814,21.3023943,-157.8465160
1506,Piikoi Street,96822,21.3047989,-157.8416471
1506,Piikoi Street,96822,21.3046608,-157.8417660
1629,Wilder Avenue,96826,21.3021453,-157.8317545
709,Kelikoi Street,96813,21.2947358,-157.8637187
1628,Kalākaua Avenue,96826,21.2943290,-157.8365188
1824,South King Street,96826,21.2960012,-157.8320385
1121,Wilder Avenue,96822,21.3065490,-157.8408958
1111,Wilder Avenue,96822,21.3069417,-157.8411767
1605,Pensacola Street,96822,21.3073342,-157.8407853
1114,Wilder Avenue,96822,21.3072384,-157.8405130
1122,Wilder Avenue,96822,21.3071085,-157.8402662
1333,Heulu Street,96822,21.3061603,-157.8357770
1333,Heulu Street,96822,21.3065293,-157.8353601
1635,Kewalo Street,96822,21.3060010,-157.8364290
1414,Wilder Avenue,96822,21.3046913,-157.8360350
1628,Keeaumoku Street,96822,21.3053841,-157.8359426
1510,Dominis Street,96822,21.3055274,-157.8324654
1427,Alexander Street,96826,21.2996009,-157.8307000
1521,Alexander Street,96826,21.3007755,-157.8298873
1735,Dole Street,96826,21.3002024,-157.8310308
1505,Alexander Street,96826,21.3002806,-157.8302410
1414,Alexander Street,96826,21.2996962,-157.8312510
907,Birch Street,96814,21.2982564,-157.8428924
1301,South King Street,96814,21.2987983,-157.8418214
818,Sheridan Street,96814,21.2971696,-157.8422013
1560,Kalakaua Avenue,96814,21.2950294,-157.8395789
1545,Liona Street,96814,21.2972671,-157.8397550
1251,South King Street,96814,21.2991809,-157.8428576
1314,Kalākaua Avenue,96826,21.2988868,-157.8371294
4680,Kalaniana'ole Highway,96821,21.2800502,-157.7730952
4680,Kalaniana'ole Highway,96821,21.2797434,-157.7735725
4680,Kalaniana'ole Highway,96821,21.2797534,-157.7728920
4680,Kalaniana'ole Highway,96821,21.2794935,-157.7732163
4680,Kalaniana'ole Highway,96821,21.2792387,-157.7732539
4680,Kalaniana'ole Highway,96821,21.2789871,-157.7732391
4680,Kalaniana'ole Highway,96821,21.2787224,-157.7732408
4680,Kalaniana'ole Highway,96821,21.2784783,-157.7732528
4680,Kalaniana'ole Highway,96821,21.2781830,-157.7731610
4680,Kalaniana'ole Highway,96821,21.2778562,-157.7735585
4680,Kalaniana'ole Highway,96821,21.2783314,-157.7737289
4680,Kalaniana'ole Highway,96821,21.2786667,-157.7738392
4680,Kalaniana'ole Highway,96821,21.2789379,-157.7744980
4680,Kalaniana'ole Highway,96821,21.2794231,-157.7740939
723,Umi Street,96819,21.3334665,-157.8823719
737,Umi Street,96819,21.3335248,-157.8822603
715,Umi Street,96819,21.3335208,-157.8827367
715,Umi Street,96819,21.3333467,-157.8826035
715,Umi Street,96819,21.3331888,-157.8829611
715,Umi Street,96819,21.3332964,-157.8828478
715,Umi Street,96819,21.3330638,-157.8825223
747,Umi Street,96819,21.3334675,-157.8818670
755,Umi Street,96819,21.3340153,-157.8819380
755,Umi Street,96819,21.3334572,-157.8816260
2153,North King Street,96819,21.3339684,-157.8804529
2183,North King Street,96819,21.3344416,-157.8806698
905,Umi Street,96819,21.3343565,-157.8810053
829,Umi Street,96819,21.3344213,-157.8811906
855,Umi Street,96819,21.3336623,-157.8809206
2214,North King Street,96819,21.3354373,-157.8800938
2214,North King Street,96819,21.3355361,-157.8810557
2214,North King Street,96819,21.3357193,-157.8808020
2214,North King Street,96819,21.3353163,-157.8807129
2214,North King Street,96819,21.3351924,-157.8805663
221,North King Street,96819,21.3356358,-157.8800526
2214,North King Street,96819,21.3356932,-157.8803219
2214,North King Street,96819,21.3354749,-157.8803090
2214,North King Street,96819,21.3356110,-157.8794959
2214,North King Street,96819,21.3355731,-157.8796802
2214,North King Street,96819,21.3356968,-157.8789394
1249,Wilder Avenue,96822,21.3054481,-157.8382762
1019,Waimanu Street,96814,21.2963067,-157.8518902
1133,Waimanu Street,96814,21.2945176,-157.8504037
419,Atkinson Drive,96814,21.2895197,-157.8392715
1357,Kapiolani Boulevard,96814,21.2935881,-157.8447350
876,Courtis Street,96813,21.3020211,-157.8557877
866,Kawaiahao Street,96813,21.2992234,-157.8544644
545,Kamani Street,96813,21.2987528,-157.8537468
902,Kawaiahao Street,96813,21.2985875,-157.8540742
918,Kawaiahao Street,96813,21.2984806,-157.8538721
924,Kawaiahao Street,96813,21.2984084,-157.8536982
812,Queen Street,96813,21.2998250,-157.8558377
816,Queen Street,96813,21.2997388,-157.8557953
826,Queen Street,96813,21.2996137,-157.8556951
878,Queen Street,96813,21.2987059,-157.8549278
894,Queen Street,96813,21.2984145,-157.8548394
512,Kamani Street,96813,21.2985673,-157.8548373
524,Kamani Street,96813,21.2987344,-157.8545492
518,Kamani Street,96813,21.2986764,-157.8546601
869,Kawaiahao Street,96813,21.2988030,-157.8547993
806,Queen Street,96813,21.2998671,-157.8559183
762,Queen Street,96813,21.2999762,-157.8560118
754,Queen Street,96813,21.3001219,-157.8561439
742,Queen Street,96813,21.3002244,-157.8562197
707,Cooke Street,96813,21.3003269,-157.8563064
600,Queen Street,96813,21.3020780,-157.8572932
815,Queen Street,96813,21.2994009,-157.8561791
1001,Bishop Street,96813,21.3085674,-157.8610556
1924,Kaioo Drive,96815,21.2863596,-157.8371770
1926,Kaioo Drive,96815,21.2864243,-157.8372510
1932,Kaioo Drive,96815,21.2865469,-157.8373414
1888,Kalākaua Avenue,96815,21.2878641,-157.8337284
841,Bishop St,96813,21.3073653,-157.8621476
1177,Bishop St,96813,21.3096165,-157.8590388
1040,Richards Street,96813,21.3076852,-157.8597402
1088,Bishop Street,96813,21.3091926,-157.8611290
1855,Vancouver Place,96822,21.3009182,-157.8252281
1849,Vancouver Place,96822,21.3007605,-157.8252976
1843,Vancouver Place,96822,21.3006466,-157.8253762
1839,Vancouver Place,96822,21.3004863,-157.8255559
1833,Vancouver Place,96822,21.3004703,-157.8257370
1835,Vancouver Place,96822,21.3008869,-157.8256577
1854,Vancouver Place,96822,21.3010883,-157.8254326
1824,Vancouver Place,96822,21.3008376,-157.8260761
1818,Vancouver Place,96822,21.3008395,-157.8262303
1814,Vancouver Place,96822,21.3008919,-157.8263640
1808,Vancouver Place,96822,21.3009230,-157.8265129
1802,Vancouver Place,96822,21.3008551,-157.8266561
1827,Vancouver Place,96822,21.3005467,-157.8259377
1813,Vancouver Place,96822,21.3005576,-157.8263103
1821,Vancouver Place,96822,21.3005039,-157.8261458
1803,Vancouver Place,96822,21.3005616,-157.8266555
1807,Vancouver Place,96822,21.3005640,-157.8264833
2022,Clement Street,96822,21.3002837,-157.8269748
1867,Vancouver Drive,96822,21.3006240,-157.8247590
88,Piikoi Street,96814,21.2929589,-157.8475840
2336,Hoʻonanea Street,96822,21.2972119,-157.8234671
2334,Hoʻonanea Street,96822,21.2973166,-157.8235671
2330,Hoʻonanea Street,96822,21.2974503,-157.8236239
2306,Hoʻonanea Street,96822,21.2979013,-157.8239789
2302,Hoʻonanea Street,96822,21.2980317,-157.8240353
2244,Hoʻonanea Street,96822,21.2981340,-157.8241038
2238,Hoʻonanea Street,96822,21.2982794,-157.8241594
2232,Hoʻonanea Street,96822,21.2983690,-157.8242982
2228,Hoʻonanea Street,96822,21.2985197,-157.8243410
2220,Hoʻonanea Street,96822,21.2986822,-157.8243375
2220,Hoʻonanea Street,96822,21.2986833,-157.8242269
2216,Hoʻonanea Street,96822,21.2988326,-157.8243259
2208,Hoʻonanea Street,96822,21.2989948,-157.8242953
1776,University Avenue,96822,21.2976734,-157.8234832
1776,University Avenue,96822,21.2974423,-157.8233682
1110,Isenberg Street,96826,21.2943784,-157.8251907
1111,Nuuanu Avenue,96817,21.3110986,-157.8616864
988,Fort Street Mall,96813,21.3092806,-157.8623740
650,South King Street,96813,21.3041954,-157.8547102
550,Halekauwila Street,96813,21.3027357,-157.8601261
232,Kaʻiulani Avenue,96815,21.2780709,-157.8235545
320,Liliʻuokalani Avenue,96815,21.2771247,-157.8209452
2040,Kuhio Avenue,96815,21.2844842,-157.8313577
1025,Kalo Place,96826,21.2916285,-157.8201280
909,University Avenue,96826,21.2906205,-157.8222475
909,University Avenue,96826,21.2906897,-157.8226092
1460,Lower Campus Road,96822,21.2919715,-157.8168297
1460,Lower Campus Road,96822,21.2922387,-157.8169873
1311,Lower Campus Road,96822,21.2921628,-157.8164778
2615,South King Street,96814,21.2913383,-157.8216637
2299,Kuhio Avenue,96815,21.2792386,-157.8265202
324,Lewers Street,96815,21.2810146,-157.8291254
320,Lewers Street,96815,21.2807991,-157.8293413
2500,Dole Street,96822,21.2976010,-157.8176616
765,Amana Street,96814,21.2940004,-157.8400170
1925,Kalakaua Avenue,96815,21.2860966,-157.8337493
400,Hobron Lane,96815,21.2874652,-157.8361220
1617,Kapiolani Boulevard,96814,21.2913060,-157.8397716
1561,Kanunu Street,96814,21.2944063,-157.8396954
1555,Pohaku Street,96817,21.3292297,-157.8650693
1250/1260,Richard Lane,96819,21.3366410,-157.8766365
1556,Piikoi Street,96822,21.3055612,-157.8408432
1717,Mott Smith Drive,96822,21.3081089,-157.8369611
1561,Pensacola Street,96822,21.3064850,-157.8412298
1314,South King St,96814,21.2993798,-157.8413007
500,University Avenue,96826,21.2867852,-157.8273195
920,Ward Avenue,96814,21.3015873,-157.8509941
818,South King Street,96813,21.3029309,-157.8517470
600,Queen Street,96813,21.3020312,-157.8573881
1311,Kona Street,96814,21.2941406,-157.8460626
1341,Kona Street,96814,21.2938697,-157.8456709
1556,Piikoi Street,96822,21.3055612,-157.8407775
1177,Queen Street,96814,21.2932408,-157.8492001
1288,Queen Street,96814,21.2924319,-157.8498818
1350,Ala Moana Boulevard,96814,21.2916711,-157.8481249
1349,Kona Street,96814,21.2936354,-157.8453154
475,Atkinson Drive,96814,21.2898124,-157.8381362
1848,Kahakai Drive,96814,21.2888219,-157.8376981
1585,Kapiolani Boulevard,96814,21.2916044,-157.8404801
1727B,Owawa Street,96819,21.3389572,-157.8684746
1727A,Owawa Street,96819,21.3388530,-157.8684067
1010,Richards Street,96813,21.3074027,-157.8602255
1100,Alakea St,96813,21.3092204,-157.8595557
1199,Bishop Street,96813,21.3102023,-157.8587144
66,Queen Street,96813,21.3089672,-157.8634282
1111,Alakea Street,96813,21.3090254,-157.8587530
229,S Beretenia St,96813,21.3094297,-157.8582693
1132,Bishop Street,96813,21.3100248,-157.8604419
111,South King Street,96813,21.3085915,-157.8621795
215,North King Street,96817,21.3143859,-157.8646819
5180,Likini Street,96818,21.3458319,-157.9095982
5122,Likini Street,96818,21.3472443,-157.9104321
750,Kaheka Street,96814,21.2932039,-157.8397403
747,Amana Street,96814,21.2936018,-157.8400987
1655,Makaloa Street,96814,21.2922681,-157.8379465
780,Amana Street,96814,21.2946802,-157.8405911
725,Kapiolani Blvd,96813,21.3008773,-157.8551092
2916,Date Street,96816,21.2816979,-157.8160712
2444,Hihiwai Street,96826,21.2853572,-157.8262997
2522,Date Street,96826,21.2870743,-157.8224331
555,University Avenue,96826,21.2866881,-157.8264689
1550,Wilder Avenue,96822,21.3036401,-157.8333667
130,Liholiho Street,96822,21.3070588,-157.8380921
1750,Kalakaua Avenue,96822,21.2913251,-157.8354968
1201,Wilder Avenue,96822,21.3059522,-157.8395085
2845-47,Waialae Avenue,96816,21.2898560,-157.8148637
2825,South King Street,96826,21.2892202,-157.8185764
2740,Kuilei Street,96826,21.2893217,-157.8205101
2637,Kuilei Street,96826,21.2899674,-157.8218541
2101,Nuuanu Ave,96817,21.3224399,-157.8493019
2029,Nuuanu Ave,96817,21.3215092,-157.8508259
55,South Judd St,96817,21.3215839,-157.8494670
2047,Nuuanu Ave,96817,21.3219595,-157.8497709
1420,Victoria Street,96822,21.3061570,-157.8472874
1415,Victoria Street,96822,21.3056912,-157.8468392
775,Kinalau Place,96813,21.3053969,-157.8498629
1400,Pensacola,96822,21.3048187,-157.8443655
1212,Punahou Street,96826,21.2995287,-157.8355308
1650,Kanunu Street,96814,21.2941741,-157.8375879
930,Kaheka Street,96814,21.2967936,-157.8389542
2600,Pualani Way,96815,21.2742652,-157.8192796
2611,Ala Wai Boulevard,96815,21.2749217,-157.8183969
2211,Ala Wai Boulevard,96815,21.2819886,-157.8267735
1837,Kalakaua Avenue,96815,21.2874760,-157.8346541
2421,Ala Wai Boulevard,96815,21.2781125,-157.8223483
1909,Niu Street,96815,21.2872990,-157.8329372
444,Niu Street,96815,21.2869242,-157.8326886
2140,Kuhio Avenue,96815,21.2825366,-157.8291923
2500,Kalakaua Ave,96815,21.2739902,-157.8233970
425,Ena Road,96815,21.2862125,-157.8355876
1920,Ala Moana Boulevard,96815,21.2856735,-157.8347610
2211,Helumoa Road,96815,21.2785144,-157.8312595
2470,Kalakaua Ave,96815,21.2750366,-157.8240229
201,Ohua Avenue,96815,21.2747798,-157.8210353
435,Seaside Avenue,96815,21.2805733,-157.8259328
440,ʻOlohana Street,96815,21.2844994,-157.8301162
445,Kalolu Street,96815,21.2828339,-157.8279614
2427,Kuhio Avenue,96815,21.2765273,-157.8238588
364,Seaside Avenue,96815,21.2801763,-157.8275051
1645,Ala Wai Boulevard,96815,21.2877444,-157.8367220
2058,Kuhio Avenue,96815,21.2839223,-157.8308394
2045,Kalakaua Avenue,96815,21.2836473,-157.8322783
300,Wai Nani Way,96815,21.2751466,-157.8195330
2450,Prince Edward Street,96815,21.2759291,-157.8232544
430,Keoniana Street,96815,21.2856288,-157.8320185
1571 Nehoa,Nehoa Street,96822,21.3051245,-157.8306625
2421,Tusitala Street,96815,21.2775516,-157.8226542
229,Paoakalani Avenue,96815,21.2743011,-157.8203095
2410,Cleghorn Street,96815,21.2777508,-157.8230481
2415,Ala Wai Boulevard,96815,21.2782311,-157.8225787
2161,Kalia Road,96815,21.2785438,-157.8327470
2440,Kuhio Avenue,96815,21.2768476,-157.8229346
1700,Ala Moana Boulevard,96815,21.2867354,-157.8389063
343,Hobron Lane,96815,21.2860047,-157.8373168
1551,Ala Wai Boulevard,96815,21.2871728,-157.8378566
469,Ena Road,96815,21.2871014,-157.8349374
1577,Nehoa Street,96822,21.3049890,-157.8305016
2457,Ala Wai Boulevard,96815,21.2775934,-157.8213635
2439,Ala Wai Boulevard,96815,21.2778347,-157.8217665
1366,Dillingham Boulevard,96817,21.3237953,-157.8755229
249,Lunalilo Home Road,96825,21.2772867,-157.7035216
287,Wai Nani Way,96815,21.2745936,-157.8191225
300,Ainakea Way,96815,21.2744159,-157.8188707
314,Ainakea Way,96815,21.2744715,-157.8186580
304,Ainakea Way,96815,21.2746889,-157.8188137
283,Wai Nani Way,96815,21.2745485,-157.8192540
284,Ainakea Way,96815,21.2742657,-157.8189432
1800,East-West Road,96822,21.3003628,-157.8149603
1015,Wilder Avenue,96822,21.3084293,-157.8427851
1002,Prospect Street,96822,21.3094344,-157.8450544
2563,Date Street,96826,21.2857772,-157.8221865
6660,Hawai’i Kai Drive,96825,21.2946354,-157.7089777
3675,Kilauea Avenue,96816,21.2727370,-157.8019269
1369,Sand Island Parkway,96819,21.3033918,-157.8709136
1002,Puuwai Street,96819,21.3013295,-157.8710267
1014,Puuwai Street,96819,21.3016329,-157.8715272
1032,Puuwai Street,96819,21.3017975,-157.8719803
1026,Puuwai Street,96819,21.3015585,-157.8720690
1068,Puuwai Street,96819,21.3021048,-157.8730447
1084,Puuwai Street,96819,21.3021943,-157.8732734
1006,Mikole Street,96819,21.3026625,-157.8713070
1009,Puuwai Street,96819,21.3024013,-157.8711851
1005,Puuwai Street,96819,21.3023211,-157.8709717
1001,Puuwai Street,96819,21.3020284,-157.8708512
1022,Paapu Street,96819,21.3029833,-157.8728539
400,Sand Island Parkway,96819,21.3061944,-157.8726168
3030,Lowrey Avenue,96822,21.3085575,-157.8063089
189,Lunalilo Home Road,96825,21.2745792,-157.7046452
7000,Hawai’i Kai Drive,96825,21.2875145,-157.7050559
2645,Pamoa Road,96822,21.3055239,-157.8136237
1631,Kapiolani Boulevard,96814,21.2913042,-157.8391079
2566,Makiki Heights Drive,96822,21.3144623,-157.8330605
2038,Mauna Place,96822,21.3132918,-157.8349257
2006,Mott Smith Drive,96822,21.3122224,-157.8367023
2028,Mott Smith Drive,96822,21.3126787,-157.8364226
2020,Mott Smith Drive,96822,21.3124753,-157.8365209
2040,Mott Smith Drive,96822,21.3129917,-157.8360408
2034,Mott Smith Drive,96822,21.3128398,-157.8362227
2046,Mott Smith Drive,96822,21.3131069,-157.8358555
2052,Mott Smith Drive,96822,21.3133963,-157.8357741
2060,Mott Smith Drive,96822,21.3135544,-157.8356389
2064,Mott Smith Drive,96822,21.3136790,-157.8354605
2133,Mott Smith Drive,96822,21.3134301,-157.8343986
2024,Mauna Place,96822,21.3128725,-157.8354288
2030,Mauna Place,96822,21.3130335,-157.8353149
2036,Mauna Place,96822,21.3131371,-157.8351009
1935,Mott Smith Drive,96822,21.3123077,-157.8357291
2016,Mauna Place,96822,21.3127139,-157.8356059
1889,Mott Smith Drive,96822,21.3112158,-157.8351023
1909,Mott Smith Drive,96822,21.3114701,-157.8351009
2841,Pukoloa Street,96819,21.3431933,-157.8967873
1001,Ahua Street,96819,21.3423355,-157.8947121
2339,Kamehameha Highway,96819,21.3317195,-157.8881010
2860,Waialae Avenue,96826,21.2902853,-157.8141769
946,Coolidge Street,96826,21.2928086,-157.8249352
2875,South King Street,96826,21.2892384,-157.8175038
1941,Church Lane,96826,21.2889926,-157.8177869
14,Lagoon Drive,96819,21.3128027,-157.9208659
4361,Salt Lake Boulevard,96818,21.3590207,-157.9288102
61,Puiwa Road,96817,21.3353683,-157.8375732
2020,South King Street,96826,21.2951619,-157.8293565
1239,Olomea Street,96817,21.3284854,-157.8693149
215,North Kukui Street,96817,21.3156791,-157.8609782
7788,Hawaii Kai Drive,96825,21.2945790,-157.6852169
4341,Hakupapa Street,96818,21.3662658,-157.9182928
1298,Kukila Street,96818,21.3614866,-157.9251569
1941,East West Road,96822,21.3020415,-157.8136093
1337,Lower Campus Road,96822,21.2933423,-157.8161938
2234,Kamehameha Avenue,96822,21.3039283,-157.8208048
2234,Kamehameha Avenue,96822,21.3038694,-157.8206646
2840,Kolowalu Street,96822,21.3070055,-157.8121769
2840,Kolowalu Street,96822,21.3071959,-157.8123374
2840,Kolowalu Street,96822,21.3073010,-157.8127196
2840,Kolowalu Street,96822,21.3073551,-157.8126043
2840,Kolowalu Street,96822,21.3074380,-157.8125167
2840,Kolowalu Street,96822,21.3071279,-157.8125901
2840,Kolowalu Street,96822,21.3070432,-157.8124666
2840,Kolowalu Street,96822,21.3069825,-157.8123830
362,Hanamaulu Street,96825,21.2810085,-157.7005089
358,Hanamaulu Street,96825,21.2808672,-157.7005798
366,Hanamaulu Street,96825,21.2811517,-157.7004158
370,Hanamaulu Street,96825,21.2812840,-157.7003146
374,Hanamaulu Street,96825,21.2814198,-157.7001911
378,Hanamaulu Street,96825,21.2815811,-157.7001026
382,Hanamaulu Street,96825,21.2816949,-157.7000147
386,Hanamaulu Street,96825,21.2818277,-157.6998878
350,Hanamaulu Street,96825,21.2806091,-157.7007920
346,Hanamaulu Street,96825,21.2804595,-157.7008965
342,Hanamaulu Street,96825,21.2803253,-157.7009940
338,Hanamaulu Street,96825,21.2801904,-157.7010896
354,Hanamaulu Street,96825,21.2807340,-157.7006915
326,Hanamaulu Street,96825,21.2797953,-157.7013940
334,Hanamaulu Street,96825,21.2800544,-157.7011667
330,Hanamaulu Street,96825,21.2799162,-157.7012873
318,Hanamaulu Street,96825,21.2795239,-157.7015629
1113,South King Street,96814,21.3001634,-157.8455123
1117,South King Street,96814,21.3001246,-157.8453881
1125,South King Street,96814,21.3000575,-157.8452001
1133,South King Street,96814,21.2999415,-157.8450876
1115,Young Street,96814,21.3008799,-157.8450775
1109,Young Street,96814,21.3009265,-157.8452096
1952,Makiki Heights Drive,96822,21.3090458,-157.8313309
1968,Makiki Heights Drive,96822,21.3094063,-157.8311793
1222,South King Street,96814,21.2999311,-157.8433182
1236,South King Street,96814,21.2997147,-157.8430596
1240,South King Street,96814,21.2996410,-157.8428063
1281,South King Street,96814,21.2989954,-157.8423717
1269,South King Street,96814,21.2991192,-157.8425931
1289,South King Street,96814,21.2989712,-157.8422111
1293,South King Street,96814,21.2989180,-157.8420486
1907,Young Street,96826,21.2959347,-157.8314130
2919,Kapiolani Boulevard,96826,21.2881773,-157.8150953
2520,Correa Road,96822,21.2989666,-157.8163824
3210,Martha Street,96815,21.2780499,-157.8133694
1136,Union Mall,96813,21.3101033,-157.8600796
1215,Ala Aolani Street,96819,21.3594036,-157.8984734
3400,Moanalua Road,96819,21.3656340,-157.9025753
2887,Ala Ilima Street,96818,21.3449277,-157.9020124
277,Ohua Avenue,96815,21.2755817,-157.8205258
310,Paoakalani Avenue,96815,21.2752880,-157.8203054
214,Kapuni Street,96815,21.2764770,-157.8226702
2457,Cleghorn Street,96815,21.2765662,-157.8224470
243,Liliʻuokalani Avenue,96815,21.2761263,-157.8212494
3760,Campbell Avenue,96815,21.2682811,-157.8100735
3206,Monsarrat Avenue,96816,21.2698708,-157.8111408
3158,Monsarrat Avenue,96815,21.2698192,-157.8115832
525,Wisser Road,96858-5440,21.3446580,-157.8815755
1442,Wilder Avenue,96822,21.3043176,-157.8350804
1448,Wilder Avenue,96822,21.3042289,-157.8349725
434,Launiu Street,96815,21.2833580,-157.8291021
1632,South King Street,96826,21.2970023,-157.8352615
1207,Matlock Avenue,96814,21.3027666,-157.8423039
1213,Matlock Avenue,96813,21.3027221,-157.8421029
1221,Matlock Avenue,96813,21.3026596,-157.8419809
1301,Young Street,96814,21.2997402,-157.8415084
1272,South King Street,96814,21.2994634,-157.8422367
103,North Hotel Street,96817,21.3123402,-157.8631133
712,North School Street,96817-3030,21.3242265,-157.8610426
556,Kamoku Street,96826,21.2864598,-157.8250196
580,Lauiki St,96826,21.2866450,-157.8252344
580,Lauiki Street,96826,21.2865409,-157.8251338
546,Kamoku Street,96826,21.2862134,-157.8252908
568,Kamoku Street,96826,21.2866752,-157.8248616
345,Puuhale Road,96819,21.3268549,-157.8841239
322,Hanamaulu Street,96825,21.2796410,-157.7014554
572,Kaumakani Street,96825,21.2820014,-157.6997672
1041,Koko Head Avenue,96816,21.2799867,-157.7985393
2727,Kolonahe Place,96813,21.3162417,-157.8309206
2721,Kolonahe Place,96813,21.3161330,-157.8310240
1816,Auiki Street,96819,21.3217332,-157.8865901
2127,Bannister Place,96819,21.3324968,-157.8821823
745,Keeaumoku Street,96814,21.2958150,-157.8408410
7170,Kalaniana’ole Highway,96825,21.2773974,-157.7057999
4210,Waialae Avenue,96816,21.2791042,-157.7868146
300,Rodgers Boulevard,96819,21.3312801,-157.9199448
1782,Kalaniana’ole Highway,96825,21.2789916,-157.7045536
1677,Pensacola Street,96822,21.3082744,-157.8396051
1662,Lewalani Drive,98622,21.3078233,-157.8391457
1661,Piikoi Street,96822,21.3079798,-157.8402040
1665,Piikoi Street,96822,21.3080406,-157.8403455
1647,Pensacola Street,96822,21.3081336,-157.8402290
1651,Pensacola Street,96822,21.3082224,-157.8400970
1653,Pensacola Street,96822,21.3083667,-157.8400135
1687,Pensacola Street,98622,21.3090468,-157.8393572
1643,Piikoi Street,98622,21.3077732,-157.8396220
1639,Piikoi Street,98622,21.3077203,-157.8394920
1657,Pensacola Street,96822,21.3084718,-157.8399329
1661,Pensacola Street,96822,21.3085552,-157.8398424
1667,Pensacola Street,96822,21.3086680,-157.8397574
1671,Pensacola Street,96822,21.3087677,-157.8396694
1703,Pensacola Street,98622,21.3093038,-157.8393070
1709,Pensacola Street,98622,21.3094615,-157.8392824
1715,Pensacola Street,98622,21.3095932,-157.8392523
1721,Pensacola Street,98622,21.3096841,-157.8391320
1119,Dillingham Boulevard,96817,21.3221301,-157.8751061
888,South King Street,96813,21.3027010,-157.8505472
1271,North King Street,96817,21.3268124,-157.8706497
4559,Kilauea Avenue,96816,21.2737326,-157.7845205
7192,Kalaniana'ole Highway,96825,21.2777123,-157.7046175
3253,N Nimitz Hwy,96819,21.3361886,-157.9131243
1620,North School Street,96817,21.3364517,-157.8676795
820,East Hind Drive,96821,21.2789598,-157.7548288
1505,Dillingham Boulevard,96817,21.3233632,-157.8777107
890,Kapahulu Avenue,96816,21.2840324,-157.8139185
888,Kapiolani Boulevard,96813,21.2997911,-157.8527252
745,Keeaumoku Street,96814,21.2956309,-157.8410461
1929,Waiola Street,96826,21.2939409,-157.8321427
2630,Kapiolani Boulevard,96826,21.2882525,-157.8208993
1200,Pensacola Street,96814,21.3025706,-157.8451088
1279,Anakua Street,96825,21.2788734,-157.6986890
1275,Hanamaulu Street,96825,21.2788864,-157.6988482
1271,Anakua Street,96825,21.2789288,-157.6990252
1267,Anakua Street,96825,21.2789668,-157.6991913
1259,Anakua Street,96825,21.2790208,-157.6995196
1263,Anakua Street,96825,21.2789887,-157.6993522
1255,Anakua Street,96825,21.2790670,-157.6997078
114,North Kuakini Street,96817,21.3204661,-157.8540675
1251,Anakua Street,96825,21.2791138,-157.6998669
1243,Anakua Street,96825,21.2791790,-157.7002392
3496,Waialae Avenue,96816,21.2842963,-157.8013332
22,South Pauahi Street,96813,21.3113649,-157.8608133
2419,Pauoa Road,96813,21.3195748,-157.8412178
2433,Pali Highway,96817,21.3285024,-157.8450131
638,South Street,96813,21.3028802,-157.8592910
254,Kulani Street,96815,21.2786152,-157.8229428
20,South Kukui Street,96813,21.3133114,-157.8584293
204,Kapahulu Avenue,96815,21.2720873,-157.8205783
560,Halekauwila Street,96813,21.3025594,-157.8598877
700,Bishop St,96813,21.3077775,-157.8635202
1615,Wilder Avenue,96822,21.3023534,-157.8322800
1521,Punahou Street,96822,21.3022404,-157.8325552
1310,Punahou Street,96826,21.3005968,-157.8351826
4747,Kilauea Avenue,96816,21.2775710,-157.7842263
1247,Anakua Street,96825,21.2791512,-157.7000568
1235,Anakua Street,96825,21.2793040,-157.7005583
1231,Anakua Street,96825,21.2793601,-157.7007182
1247,Anakua Street,96825,21.2795567,-157.7010574
238,Anapālau Street,96825,21.2790643,-157.7007156
242,Anapālau Street,96825,21.2790289,-157.7005433
555,North King Street,96817-4658,21.3185725,-157.8653949
580,Dillingham Boulevard,96814,21.3186224,-157.8663041
3599,Waialae Avenue,96816,21.2825170,-157.7991122
3569,Waialae Avenue,96816,21.2828264,-157.7996398
351,Elliott Street,96819,21.3335596,-157.9282991
848,Ala Lilikoi Street,96818,21.3450431,-157.9137149
4380,Lawehana Street,96818,21.3552608,-157.9292738
835,Iwilei Road,96817,21.3157372,-157.8672419
1380,Lusitana Street,96813,21.3079956,-157.8529342
626,Mc Neill Street,96817,21.3267796,-157.8782532
1420,Liliha Street,96817,21.3203975,-157.8618826
1727,Pali Highway,96813,21.3159660,-157.8521430
420,Waiakamilo Road,96813,21.3227208,-157.8785024
1754,Pali Highway,96813,21.3174742,-157.8525257
1613,Nuuanu Avenue,96817,21.3166283,-157.8552070
710,South King Street,96813,21.3036649,-157.8534694
870,Kawaiahao Street,96813,21.2991088,-157.8543846
850,Kawaiahao Street,96813,21.2995786,-157.8544799
226,North Kuakini Street,96817,21.3215350,-157.8545225
24,Hialoa Street,96813,21.3169620,-157.8544616
780,South Beretania Street,96817,21.3047311,-157.8511572
800,South Beretania Street,96813,21.3047248,-157.8508586
1244,Nehoa Street,96822,21.3088516,-157.8358242
1670,Pensacola Street,96822,21.3089836,-157.8399351
1690,Pensacola Street,96822,21.3093547,-157.8397272
1619,Pensacola Street,98622,21.3095185,-157.8396490
1017,Nehoa Street,96822,21.3093055,-157.8399550
1011,Nehoa Street,96822,21.3092315,-157.8401402
1360,Prospect Street,96822,21.3091234,-157.8403197
1626,Piikoi Street,96822,21.3071287,-157.8392907
1210,Lilo Place,96822,21.3101734,-157.8357858
1220,Lilo Place,96822,21.3097230,-157.8356933
1234,Lilo Place,96822,21.3094634,-157.8356046
1216,Lilo Place,96822,21.3099453,-157.8357636
1207,Lilo Place,96822,21.3100978,-157.8360938
1204,Lilo Place,96822,21.3103870,-157.8357310
2313,Nuuanu Avenue,96817,21.3261437,-157.8469325
15,Craigside Place,96817,21.3228603,-157.8489290
2680,Woodlawn Drive,96813,21.3072528,-157.8116055
2752,Woodlawn Drive,96822,21.3086292,-157.8104280
3405,Waialae Avenue,96816,21.2847350,-157.8033050
5470,Kalaniana’ole Highway,96821,21.2829757,-157.7354603
2301,Pauoa Road,96813,21.3186544,-157.8439373
1248,Luna Place,96822,21.3097412,-157.8350125
1242,Luna Place,96822,21.3100827,-157.8349629
1243,Luna Place,96822,21.3098664,-157.8353833
1233,Luna Place,96822,21.3101180,-157.8353661
1873,Mott Smith Drive,96822,21.3107280,-157.8354207
1221,Luna Place,96822,21.3105302,-157.8353121
1230,Luna Place,96822,21.3103252,-157.8349295
1227,Luna Place,96822,21.3102949,-157.8353332
1224,Luna Place,96822,21.3105467,-157.8349854
1216,Luna Place,96822,21.3107657,-157.8349953
1212,Luna Place,96822,21.3110051,-157.8349687
1802,Keeaumoku Street,96822,21.3072438,-157.8341269
350,Ulua Street,96821,21.2853625,-157.7345793
300,North Beretania Street,96817,21.3150970,-157.8622688
713,Ulumaika Street,96816,21.2676764,-157.7857772
721,Ulumaika Street,96816,21.2677811,-157.7860390
729,Ulumaika Street,96816,21.2679138,-157.7862402
733,Ulumaika Street,96816,21.2680229,-157.7865026
741,Ulumaika Street,96816,21.2679851,-157.7867022
745,Ulumaika Street,96816,21.2678805,-157.7868955
751,Ulumaika Street,96816,21.2676934,-157.7870722
2177,Puowaina Drive,96813,21.3146755,-157.8419321
3899,Diamond Head Road,96815,21.2558025,-157.8098733
3899,Diamond Head Road,96815,21.2556474,-157.8094598
3899,Diamond Head Road,96815,21.2558228,-157.8097287
433,Ala Moana Boulevard,96813,21.3032870,-157.8640790
433,Ala Moana Boulevard,96813,21.3032542,-157.8639319
300,Ala Moana Boulevard,96850,21.3034378,-157.8623448
400,Sand Island Parkway,96819,21.3069956,-157.8747766
400,Sand Island Parkway,96819,21.3075845,-157.8748041
400,Sand Island Parkway,96819,21.3054087,-157.8732594
400,Sand Island Parkway,96819,21.3071240,-157.8740701
1039,Sand Island Parkway,96819,21.3044561,-157.8719213
1039,Sand Island Parkway,96819,21.3045200,-157.8718265
1411,Sand Island Parkway,96819,21.3102580,-157.8809608
6085,Kalaniana'ole Highway,96821,21.2856673,-157.7235655
2414,Kuhio Avenue,96815,21.2771687,-157.8236856
2437,Tusitala Street,96815,21.2773800,-157.8224215
2441,Tusitala Street,96815,21.2772873,-157.8222630
2426,Tusitala Street,96815,21.2779697,-157.8219118
244,Kapili Street,96815,21.2770959,-157.8222751
250,Kapili Street,96815,21.2771920,-157.8221505
2387,Ala Wai Boulevard,96815,21.2787607,-157.8228809
264,Kaʻiulani Avenue,96815,21.2787117,-157.8227420
248,Kaʻiulani Avenue,96815,21.2783619,-157.8232615
2403,Ala Wai Boulevard,96815,21.2784774,-157.8226312
821,Kalihi Street,96819,21.3282026,-157.8763716
1264,Kalaniiki Street,96821,21.2791308,-157.7755062
1232,Kalaniiki Street,96821,21.2785925,-157.7761651
2345,Makiki Heights Drive,96822,21.3111246,-157.8330589
2310,Ferdinand Avenue,96822,21.3076500,-157.8240965
2346,Oahu Avenue,96822,21.3056944,-157.8196332
2376,Oahu Avenue,96822,21.3064252,-157.8192007
2386,Oahu Avenue,96822,21.3066100,-157.8190310
2365,Oahu Avenue,96822,21.3057776,-157.8186333
2311,Armstrong Street,96822,21.3062395,-157.8182826
2243,Mohala Way,96822,21.3069979,-157.8198557
2239,Mohala Way,96822,21.3068121,-157.8198407
2207,Mohala Way,96822,21.3060310,-157.8203373
2211,Mohala Way,96822,21.3061482,-157.8202704
2346,Liloa Rise Street,96822,21.3058249,-157.8202480
2336,Liloa Rise Street,96822,21.3056449,-157.8204293
2318,Beckwith Street,96822,21.3062587,-157.8222247
2334,Ferdinand Avenue,96822,21.3079013,-157.8235118
2320,Sonoma Street,96822,21.3081401,-157.8243738
2371,Oahu Avenue,96822,21.3060241,-157.8185832
2375,University Avenue,96822,21.3056453,-157.8175737
2426,Armstrong Street,96822,21.3061184,-157.8165801
2542,Malama Place,96822,21.3058255,-157.8145406
2437,Parker Place,96822,21.3061776,-157.8150718
2627,East Manoa Road,96822,21.3077569,-157.8152648
254,Alaula Way,96822,21.3075585,-157.8151375
2829,Manoa Road,96822,21.3120665,-157.8150098
2869,Oahu Avenue,96822,21.3112274,-157.8130846
2746,Kahawai Street,96822,21.3099545,-157.8135979
2625,Doris Place,96822,21.3083972,-157.8146928
2418,Oahu Avenue,96822,21.3072469,-157.8183183
2361,Beckwith Street,96822,21.3063043,-157.8208331
2366,Liloa Rise Street,96822,21.3062755,-157.8199653
4505,Kahala Avenue,96816,21.2617523,-157.7867007
4523,Kahala Avenue,96816,21.2619855,-157.7861448
4461,Kahala Avenue,96816,21.2612971,-157.7877976
4451,Kahala Avenue,96816,21.2611392,-157.7878705
4471,Kahala Avenue,96816,21.2615054,-157.7873211
4481,Kahala Avenue,96816,21.2614180,-157.7870346
4551,Kahala Avenue,96816,21.2624264,-157.7851872
4559,Kahala Avenue,96816,21.2626643,-157.7847292
4533,Kahala Avenue,96816,21.2620456,-157.7857245
4477,Kahala Avenue,96816,21.2616792,-157.7872885
4545,Kahala Avenue,96816,21.2620913,-157.7853230
4615,Kahala Avenue,96816,21.2635592,-157.7835106
4623,Kahala Avenue,96816,21.2637436,-157.7832798
2397,Aina Lani Place,96822,21.3111005,-157.8267524
2395,Aina Lani Place,96822,21.3109479,-157.8265870
2389,Aina Lani Place,96822,21.3107744,-157.8264282
2385,Aina Lani Place,96822,21.3106296,-157.8262319
2381,Aina Lani Place,96822,21.3105177,-157.8260313
2302,Sonoma Street,96822,21.3080222,-157.8246539
2399,Aina Lani Place,96822,21.3113604,-157.8270561
2757,Round Top Drive,96822,21.3116378,-157.8269172
2759,Round Top Drive,96822,21.3113458,-157.8265379
2845,Round Top Drive,96822,21.3101381,-157.8242525
2809,Round Top Drive,96822,21.3105251,-157.8254439
2795,Round Top Drive,96822,21.3107690,-157.8255471
2765,Round Top Drive,96822,21.3109539,-157.8257309
2785,Round Top Drive,96822,21.3110254,-157.8260233
2154,Mott Smith Drive,96822,21.3130528,-157.8337770
2144,Mott Smith Drive,96822,21.3134699,-157.8337956
2150,Mott Smith Drive,96822,21.3132492,-157.8338029
2178,Mott Smith Drive,96822,21.3128814,-157.8336556
2508,Makiki Heights Drive,96822,21.3134022,-157.8326546
2490,Makiki Heights Drive,96822,21.3129675,-157.8325177
2131,Pililani Place,96822,21.3144468,-157.8339880
2116,Pililani Place,96822,21.3142919,-157.8344321
2134,Mott Smith Drive,96822,21.3136206,-157.8339553
2124,Mott Smith Drive,96822,21.3138965,-157.8342872
2126,Mott Smith Drive,96822,21.3139450,-157.8338535
2410,Makiki Heights Drive,96822,21.3132047,-157.8334301
2414,Makiki Heights Drive,96822,21.3135360,-157.8330637
2525,Makiki Heights Drive,96822,21.3140093,-157.8322180
2439,Makiki Heights Drive,96822,21.3122161,-157.8323562
4997,Kahala Ave.,96816,21.2745984,-157.7753805
2449,Kuhio Avenue,96815,21.2762720,-157.8233935
5823,Kalaniana’ole Highway,96821,21.2821781,-157.7323044
5827,Kalaniana’ole Highway,96821,21.2821747,-157.7320901
5829,Kalaniana’ole Highway,96821,21.2823477,-157.7321009
2750,Kalawao Street,96822,21.3002762,-157.8127037
2746,Kalawao Street,96822,21.3001243,-157.8128853
2747,Kalawao Street,96822,21.3001018,-157.8124998
2755,Kalawao Street,96822,21.3003788,-157.8123461
2756,Kalawao Street,96822,21.3005173,-157.8126146
2762,Kalawao Street,96822,21.3006705,-157.8125289
2768,Kalawao Street,96822,21.3008839,-157.8124046
2763,Kalawao Street,96822,21.3006078,-157.8122419
2772,Kalawao Street,96822,21.3010631,-157.8123076
2778,Kalawao Street,96822,21.3013017,-157.8121847
2782,Kalawao Street,96822,21.3014567,-157.8121115
2788,Kalawao Street,96822,21.3016974,-157.8119582
2794,Kalawao Street,96822,21.3018298,-157.8118973
2800,Kalawao Street,96822,21.3020658,-157.8117443
2804,Kalawao Street,96822,21.3022308,-157.8116462
2810,Kalawao Street,96822,21.3024269,-157.8114541
2814,Kalawao Street,96822,21.3025992,-157.8113969
2820,Kalawao Street,96822,21.3028216,-157.8112511
2826,Kalawao Street,96822,21.3029845,-157.8111740
2832,Kalawao Street,96822,21.3032382,-157.8110671
2836,Kalawao Street,96822,21.3033784,-157.8110050
2842,Kalawao Street,96822,21.3036118,-157.8108652
2846,Kalawao Street,96822,21.3037761,-157.8108076
2852,Kalawao Street,96822,21.3039840,-157.8106953
2860,Kalawao Street,96822,21.3041935,-157.8105352
2870,Kalawao Street,96822,21.3045795,-157.8101904
2878,Kalawao Street,96822,21.3047913,-157.8099678
98,Hanupaoa Place,96822,21.3049598,-157.8099143
102,Hanupaoa Place,96822,21.3051134,-157.8098619
106,Hanupaoa Place,96822,21.3052638,-157.8098026
110,Hanupaoa Place,96822,21.3054242,-157.8096961
112,Hanupaoa Place,96822,21.3055574,-157.8096020
116,Hanupaoa Place,96822,21.3055451,-157.8093915
120,Hanupaoa Place,96822,21.3055619,-157.8091992
124,Hanupaoa Place,96822,21.3055762,-157.8090308
2910,Kalawao Street,96822,21.3056216,-157.8088197
2916,Kalawao Street,96822,21.3056952,-157.8085779
2901,Kalawao Street,96822,21.3052777,-157.8089582
2897,Kalawao Street,96822,21.3051457,-157.8091440
2891,Kalawao Street,96822,21.3049969,-157.8093802
2885,Kalawao Street,96822,21.3048572,-157.8095150
2879,Kalawao Street,96822,21.3047049,-157.8097229
2875,Kalawao Street,96822,21.3045844,-157.8098710
2869,Kalawao Street,96822,21.3043665,-157.8101031
2861,Kalawao Street,96822,21.3041621,-157.8102888
2851,Kalawao Street,96822,21.3039196,-157.8104145
2847,Kalawao Street,96822,21.3037382,-157.8105280
2841,Kalawao Street,96822,21.3035065,-157.8106148
2837,Kalawao Street,96822,21.3033495,-157.8107105
2831,Kalawao Street,96822,21.3031012,-157.8108198
2827,Kalawao Street,96822,21.3029456,-157.8109017
2819,Kalawao Street,96822,21.3027287,-157.8110288
2815,Kalawao Street,96822,21.3025578,-157.8110981
2809,Kalawao Street,96822,21.3023041,-157.8112453
2805,Kalawao Street,96822,21.3021299,-157.8113067
2799,Kalawao Street,96822,21.3019277,-157.8114896
2795,Kalawao Street,96822,21.3017780,-157.8116025
2787,Kalawao Street,96822,21.3015404,-157.8117147
2783,Kalawao Street,96822,21.3013905,-157.8117993
2777,Kalawao Street,96822,21.3011727,-157.8119115
2773,Kalawao Street,96822,21.3010187,-157.8119972
4819,Kilauea Avenue,96816,21.2790040,-157.7839317
1409,Piikoi Street,96822,21.3037188,-157.8420034
1528,Pensacola Street,96822,21.3063008,-157.8425891
1106,Hassinger Street,96822,21.3054852,-157.8426826
1525,Pensacola Street,96822,21.3059700,-157.8423174
1109,Davenport Street,96822,21.3058752,-157.8422064
1130,Hassinger Street,96822,21.3052286,-157.8420740
1138,Hassinger Street,96822,21.3050420,-157.8419109
1512,Piikoi Street,96822,21.3049215,-157.8415585
2290,Alahao Place,96819,21.3304323,-157.8883005
808,Sheridan Street,96814,21.2968778,-157.8424434
1139,Kapiolani Boulevard,96814,21.2956513,-157.8492084
2425,Date Street,96826,21.2882314,-157.8249286
1635,Young Street,96826,21.2972719,-157.8347968
1627,Young Street,96826,21.2973573,-157.8349381
1617,Young Street,96826,21.2974357,-157.8353305
1610,South King Street,96826,21.2972123,-157.8356350
1216,Piikoi Street,96826,21.3007841,-157.8429475
1018,Palm Drive,96814,21.2998457,-157.8427005
1259,Young Street,96814,21.2999651,-157.8419876
1254,Young Street,96814,21.3000095,-157.8421086
1255,Young Street,96814,21.2999208,-157.8421457
1267,Young Street,96814,21.2999136,-157.8418039
1021,Akala Lane,96814,21.2997879,-157.8420622
1486,South King Street,96826,21.2978947,-157.8378357
1019,Kaheka Street,96826,21.2982724,-157.8376830
1516,South King Street,96826,21.2979111,-157.8376548
1015,Wilder Avenue,96822,21.3083183,-157.8433591
1011,Prospect Street,96822,21.3089777,-157.8444815
1131,Hoolai Street,96814,21.2970388,-157.8461279
1122,Elm Street,96814,21.2992499,-157.8457861
1527,Dominis Street,96822,21.3049028,-157.8324908
455,Lewers Street,96815,21.2825211,-157.8271812
425,Royal Hawaiian Avenue,96815,21.2811657,-157.8267847
1965,Ala Wai Boulevard,96815,21.2864238,-157.8316122
1993,Ala Wai Boulevard,96815,21.2862274,-157.8314509
441,Pau Street,96815,21.2862205,-157.8317866
437,Pau Street,96815,21.2861244,-157.8318819
427,Pau Street,96815,21.2859456,-157.8320913
419,Pau Street,96815,21.2858759,-157.8321965
2503,Ala Wai Boulevard,96815,21.2769035,-157.8206384
1739,Young Street,96826,21.2965656,-157.8331743
1017,Pawaa Lane,96826,21.2964614,-157.8328750
1743,Young Street,96826,21.2966587,-157.8328606
1735,Young Street,96826,21.2967529,-157.8330663
612,McCully Street,96826,21.2888322,-157.8328015
124,Kapahulu Avenue,96815,21.2718486,-157.8220434
321,Liliʻuokalani Avenue,96815,21.2767888,-157.8207475
2517,Ala Wai Boulevard,96815,21.2766537,-157.8202922
1114,Punahou Street,96826,21.2986351,-157.8356720
315,Liliʻuokalani Avenue,96815,21.2767008,-157.8208176
307,Liliʻuokalani Avenue,96815,21.2766081,-157.8209135
1955,Young Street,96826,21.2957143,-157.8304061
1947,Young Street,96826,21.2957465,-157.8305463
1952,South King Street,96826,21.2953343,-157.8304926
1914,South King Street,96826,21.2956750,-157.8313866
1913,Young Street,96826,21.2959787,-157.8311555
1919,South King Street,96826,21.2959271,-157.8310388
2411,Ala Wai Boulevard,96815,21.2785048,-157.8223886
242,Kaʻiulani Avenue,96815,21.2782745,-157.8233699
444,Launiu Street,96815,21.2836059,-157.8289618
438,Launiu Street,96815,21.2834886,-157.8290389
424,Launiu Street,96815,21.2832074,-157.8293574
1953,Ala Wai Boulevard,96815,21.2866327,-157.8318916
437,Niu Street,96815,21.2868528,-157.8322581
427,Niu Street,96815,21.2865873,-157.8323780
426,Pau Street,96815,21.2862045,-157.8323934
432,Pau Street,96815,21.2863093,-157.8322851
436,Pau Street,96815,21.2864029,-157.8321897
440,Pau Street,96815,21.2865228,-157.8320584
1947,Ala Wai Boulevard,96815,21.2866749,-157.8320576
1945,Ala Wai Boulevard,96815,21.2867458,-157.8321710
1947,Ala Wai Boulevard,96815,21.2867738,-157.8319536
1945,Ala Wai Boulevard,96815,21.2868507,-157.8320509
1442,Liholiho Street,96822,21.3043391,-157.8406373
1432,Liholiho Street,96822,21.3041186,-157.8409113
2228,Liliha Street,96817,21.3289502,-157.8526055
2045,Haiki Place,96822,21.3079007,-157.8275913
2040,Makiki Street,96822,21.3088882,-157.8287363
2201,Round Top Drive,96822,21.3098159,-157.8289202
1939,Young Street,96826,21.2958034,-157.8306877
228,Ohua Avenue,96815,21.2753506,-157.8213819
314,Ohua Avenue,96815,21.2763483,-157.8204596
249,Liliʻuokalani Avenue,96815,21.2762540,-157.8211231
2569,Lemon Road,96815,21.2723793,-157.8220240
2231,Ala Wai Boulevard,96815,21.2819597,-157.8264671
2214,Aloha Drive,96815,21.2820504,-157.8270890
2208,Aloha Drive,96815,21.2822278,-157.8272913
1130,Koko Head Avenue,96816,21.2814055,-157.7987411
1205,Alexander Street,96826,21.2977165,-157.8317664
1808,South Beretania Street,96814,21.2975963,-157.8314205
1513,Young Street,96826,21.2981362,-157.8372512
2422,Cleghorn Street,96815,21.2775192,-157.8229490
2423,Cleghorn Street,96815,21.2771416,-157.8231752
2406,Kuhio Avenue,96815,21.2774533,-157.8238922
2412,Prince Edward Street,96815,21.2768399,-157.8243089
404,Ward Avenue,96814,21.2973492,-157.8554971
2443,Prince Edward Street,96815,21.2759014,-157.8238340
221,Kapuni Street,96815,21.2762543,-157.8223585
2467,Cleghorn Street,96815,21.2763263,-157.8222655
228,Liliʻuokalani Avenue,96815,21.2760640,-157.8219300
204,Liliʻuokalani Avenue,96815,21.2757722,-157.8223231
2445,Ala Wai Boulevard,96815,21.2778256,-157.8216070
2455,Ala Wai Boulevard,96815,21.2776827,-157.8215060
2541,Kuhio Avenue,96815,21.2733887,-157.8211880
421,Seaside Avenue,96815,21.2805853,-157.8264692
1618,South King Street,96826,21.2970497,-157.8353914
1015,Puuwai Street,96819,21.3024708,-157.8713434
1006,Puuwai Street,96819,21.3014341,-157.8713965
1024,Puuwai Street,96819,21.3014228,-157.8716099
1020,Puuwai Street,96819,21.3016724,-157.8716957
1058,Puuwai Street,96819,21.3019121,-157.8728042
1017,Mikole Street,96819,21.3034003,-157.8716602
4901,Kilauea Avenue,96816,21.2812326,-157.7841786
522,Lauiki Street,96826,21.2861181,-157.8265828
528,Lauiki Street,96826,21.2862381,-157.8264585
3106,Monsarrat Avenue,96815,21.2692368,-157.8129342
1745,Kalakaua Avenue,96826,21.2908956,-157.8360760
4353,Pahoa Avenue,96816,21.2750737,-157.7861166
204,Sand Island Access Road,96819,21.3260168,-157.8898049
290,Sand Island Access Road,96819,21.3271710,-157.8887419
3408,Waialae Avenue,96816,21.2851455,-157.8031870
1240,7th Avenue,96816,21.2867354,-157.8047442
3345,Waialae Avenue,96816,21.2852663,-157.8045323
3368,Waialae Avenue,96816,21.2857678,-157.8042344
21,Bates Street,96817,21.3214743,-157.8524022
3441,Waialae Avenue,96816,21.2841073,-157.8022194
1516,Emerson Street,96813,21.3081928,-157.8488610
724,Spencer Street,96813,21.3081363,-157.8490537
345,Royal Hawaiian Avenue,96815,21.2801774,-157.8281217
339,Royal Hawaiian Avenue,96815,21.2800884,-157.8282218
2238,Lauula Street,96815,21.2798588,-157.8282087
2239,Waikolu Way,96815,21.2800199,-157.8280183
333,Royal Hawaiian Avenue,96815,21.2799666,-157.8283617
355,Royal Hawaiian Avenue,96815,21.2805261,-157.8278181
353,Royal Hawaiian Avenue,96815,21.2804201,-157.8278902
349,Royal Hawaiian Avenue,96815,21.2803335,-157.8279712
2240,Waikolu Way,96815,21.2802558,-157.8278143
413,Seaside Avenue,96815,21.2804333,-157.8265873
407,Seaside Avenue,96815,21.2803467,-157.8266674
403,Kaiolu Street,96815,21.2820629,-157.8288217
2439,Kapiolani Boulevard,96926,21.2872158,-157.8255936
3521,Waialae Avenue,96816,21.2829476,-157.8009566
1,Jarrett White Road,96859,21.3597472,-157.8900043
3457,Waialae Avenue,96816,21.2838992,-157.8019971
170,Ala Moana Boulevard,96813,21.3059712,-157.8636828
5113,Maunalani Circle,96816,21.2975583,-157.7892253
4625,Sierra Drive,96816,21.2958181,-157.7902490
2346,South King Street,96826,21.2934805,-157.8256029
6233,Keokea Place,96825,21.2892116,-157.7171017
150,Country Club Road,96817,21.3409677,-157.8402692
2556,Lemon Road,96815,21.2728075,-157.8218705
2375,Ala Wai Blvd,96815,21.2787460,-157.8231507
2023,Kalia Road,96815,21.2827098,-157.8356329
2586,Kalākaua Avenue,96815,21.2719839,-157.8222832
2570,Kalākaua Avenue,96815,21.2723326,-157.8224677
150,Kapahulu Avenue,96815,21.2720488,-157.8211150
2470,Kalakaua Ave,96815,21.2751827,-157.8242164
2259,Kalākaua Avenue,96815,21.2773458,-157.8288494
2451,Cleghorn Street,96815,21.2766606,-157.8225423
2464,Kalākaua Avenue,96815,21.2749209,-157.8242079
1676,Ala Moana,96815,21.2871626,-157.8396826
2330,Kuhio Avenue,96815,21.2789317,-157.8251021
2365,Kalākaua Avenue,96815,21.2764654,-157.8267015
2255,Kalakaua Avenue,96815,21.2776158,-157.8305743
201,Beach Walk,96815,21.2790990,-157.8315891
2131,Kalia Road,96815,21.2790279,-157.8338345
2250,Kalākaua Avenue,96815,21.2794006,-157.8284973
1127,Hopaka Street,96814,21.2950734,-157.8489161
833,Ilaniwai Street,96813,21.2984026,-157.8562835
1228,Pensacola Street,96814,21.3030445,-157.8449539
1575,South Beretania Street,96826,21.2986399,-157.8360330
1019,Punahou Street,96826,21.2975236,-157.8355695
1219,7th Avenue,96816,21.2861189,-157.8041227
1227,7th Avenue,96816,21.2862646,-157.8040273
1233,7th Avenue,96816,21.2864559,-157.8039207
1241,7th Avenue,96816,21.2866344,-157.8038274
1245,7th Avenue,96816,21.2867695,-157.8037836
1247,7th Avenue,96816,21.2868612,-157.8036636
1257,7th Avenue,96816,21.2869782,-157.8036141
2965,Robert Place,96816,21.2953108,-157.8081547
2856,Oahu Avenue,96822,21.3116104,-157.8141299
1801,Vancouver Place,96822,21.3006111,-157.8268683
3029,Lowrey Avenue,96822,21.3078019,-157.8077482
2962,Kalawao Place,96822,21.3072613,-157.8064299
2950,Kalawao Place,96822,21.3070472,-157.8065850
2946,Kalawao Place,96822,21.3069346,-157.8067984
2917,Kalawao Place,96822,21.3063502,-157.8072225
2908,Kalawao Place,96822,21.3064381,-157.8076980
2909,Kalawao Place,96822,21.3062232,-157.8074059
2916,Kalawao Place,96822,21.3065408,-157.8074797
2922,Kalawao Place,96822,21.3066334,-157.8073047
2905,Kalawao Place,96822,21.3061359,-157.8075721
2901,Kalawao Place,96822,21.3060174,-157.8077748
2844,Gordon Street,96818,21.3400787,-157.9098412
2838,Gordon Street,96818,21.3400441,-157.9096944
2834,Gordon Street,96818,21.3400300,-157.9095443
633,Pool Street,96818,21.3407227,-157.9091729
629,Pool Street,96818,21.3408651,-157.9092194
625,Pool Street,96818,21.3409974,-157.9092174
617,Pool Street,96818,21.3413044,-157.9092384
613,Pool Street,96818,21.3414385,-157.9092405
609,Pool Street,96818,21.3415643,-157.9092436
605,Pool Street,96818,21.3416998,-157.9092484
2981,Arizona Road,96818,21.3415324,-157.9095245
4141,Hampton Circle,96818,21.3412427,-157.9096100
2989,Arizona Road,96818,21.3416230,-157.9097043
2997,Arizona Road,96818,21.3415973,-157.9098758
3005,Arizona Road,96818,21.3414585,-157.9099965
3015,Arizona Road,96818,21.3413118,-157.9101364
1637,Kino Street,96819,21.3403311,-157.8724630
2200,Halekoa Drive,96821,21.2950779,-157.7752676
4847,Kilauea Avenue,96816,21.2798778,-157.7838813
4835,Kilauea Avenue,96816,21.2794856,-157.7838721
3450,Waialae Avenue,96816,21.2847602,-157.8023929
752,South King Street,96813,21.3041532,-157.8529322
4389,Malia Street,96821,21.2788690,-157.7825141
4389,Malia Street,96821,21.2797858,-157.7828353
4389,Malia Street,96821,21.2799663,-157.7821742
2873,Gordon Street,96818,21.3401827,-157.9110346
3071,Arizona Road,96818,21.3400502,-157.9116881
3075,Arizona Road,96818,21.3400701,-157.9118467
3079,Arizona Road,96818,21.3401017,-157.9120094
3085,Arizona Road,96818,21.3401256,-157.9121697
3089,Arizona Road,96818,21.3401570,-157.9123322
3090,Bridges Place,96818,21.3397700,-157.9122964
3084,Bridges Place,96818,21.3397706,-157.9121050
3080,Bridges Place,96818,21.3396969,-157.9119338
3083,Bridges Place,96818,21.3393887,-157.9121698
3077,Bridges Place,96818,21.3393445,-157.9119831
3073,Bridges Place,96818,21.3392887,-157.9117597
3069,Bridges Place,96818,21.3393027,-157.9115779
3065,Bridges Place,96818,21.3393393,-157.9113926
3349,Dickson Circle,96818,21.3392975,-157.9179333
5321,Catlin Lane,96818,21.3390795,-157.9174008
5319,Catlin Lane,96818,21.3388423,-157.9173656
4130,Konnick Place,96818,21.3404585,-157.9089462
645,Pool Street,96818,21.3403054,-157.9088214
647,Pool Street,96818,21.3402639,-157.9086935
649,Pool Street,96818,21.3402373,-157.9085412
653,Pool Street,96818,21.3402218,-157.9083700
655,Pool Street,96818,21.3401865,-157.9082163
2844,Konnick Place,96818,21.3400081,-157.9092060
2820,Gordon Street,96818,21.3400015,-157.9090117
2816,Gordon Street,96818,21.3399517,-157.9088419
2810,Gordon Street,96818,21.3399138,-157.9086674
2802,Gordon Street,96818,21.3398807,-157.9084795
2792,Gordon Street,96818,21.3398623,-157.9081289
2788,Gordon Street,96818,21.3398281,-157.9079572
2784,Gordon Street,96818,21.3398373,-157.9078298
6890,Nimitz Road,96819,21.3377465,-157.9091226
120,South School Street,96813,21.3143061,-157.8536315
124,South School Street,96813,21.3141793,-157.8536039
128,South School Street,96813,21.3141051,-157.8535037
2623-A,Waiomao Road,96816,21.3065664,-157.7820206
2623-B,Waiomao Road,96816,21.3071614,-157.7820855
1390,Kapiolani Boulevard,96814,21.2939165,-157.8433022
1390,Kapiolani Boulevard,96814,21.2939680,-157.8434340
1111,Bishop Street,96813,21.3095096,-157.8597830
748,Luawai Street,816,21.2697937,-157.7906608
2429,Pali Highway,96817,21.3284491,-157.8444781
4470,Aliikoa Street,96821,21.2787505,-157.7816633
4470,Aliikoa Street,96821,21.2789779,-157.7809964
4469,Malia Street,96821,21.2796975,-157.7810513
4901,Kilauea Avenue,96816,21.2815746,-157.7846292
4967,Kilauea Avenue,96816,21.2829742,-157.7846434
4967,Kilauea Avenue,96816,21.2826024,-157.7850512
1313,Hoakoa Place,96821,21.2808249,-157.7828477
1306,Hoakoa Place,96821,21.2806310,-157.7832006
1301,Hoakoa Place,96821,21.2806032,-157.7828981
1305,Hoakoa Place,96821,21.2807035,-157.7828588
1314,Hoakoa Place,96821,21.2808928,-157.7832077
1319,Hoakoa Place,96821,21.2810033,-157.7828061
1326,Hoakoa Place,96821,21.2810695,-157.7832235
1334,Hoakoa Place,96821,21.2812421,-157.7831766
1327,Hoakoa Place,96821,21.2813332,-157.7825057
1331,Hoakoa Place,96821,21.2814537,-157.7827423
1335,Hoakoa Place,96821,21.2816041,-157.7828605
1341,Hoakoa Place,96821,21.2817609,-157.7829311
1349,Hoakoa Place,96821,21.2819515,-157.7829545
1342,Hoakoa Place,96821,21.2815455,-157.7832615
1356,Hoakoa Place,96821,21.2821976,-157.7834042
1410,Luinakoa Street,96821,21.2837281,-157.7788496
4418,Malia Street,96821,21.2806205,-157.7827310
4422,Malia Street,96821,21.2805990,-157.7825487
4432,Alakoa Street,96821,21.2808160,-157.7825799
4436,Alakoa Street,96821,21.2810673,-157.7823975
4440,Alakoa Street,96821,21.2811581,-157.7822589
4444,Alakoa Street,96821,21.2812365,-157.7820881
4450,Alakoa Street,96821,21.2812318,-157.7818812
4456,Alakoa Street,96821,21.2812411,-157.7816399
4458,Alakoa Street,96821,21.2812320,-157.7815622
4466,Alakoa Street,96821,21.2812724,-157.7811347
4474,Alakoa Street,96821,21.2812309,-157.7809547
1312,Makaikoa Street,96821,21.2808509,-157.7807745
4473,Alakoa Street,96821,21.2808894,-157.7809534
4463,Alakoa Street,96821,21.2808658,-157.7812888
4459,Alakoa Street,96821,21.2808854,-157.7814510
4455,Alakoa Street,96821,21.2808944,-157.7816126
4451,Alakoa Street,96821,21.2808948,-157.7817692
4445,Alakoa Street,96821,21.2808792,-157.7819382
4436,Malia Street,96821,21.2806194,-157.7820788
4440,Malia Street,96821,21.2805665,-157.7819340
4444,Malia Street,96821,21.2805693,-157.7817965
4448,Malia Street,96821,21.2805643,-157.7816337
4452,Malia Street,96821,21.2805680,-157.7814942
4456,Malia Street,96821,21.2806202,-157.7813504
4460,Malia Street,96821,21.2805749,-157.7811952
4464,Malia Street,96821,21.2805851,-157.7810490
4468,Malia Street,96821,21.2806183,-157.7808994
1306,Malia Street,96821,21.2806084,-157.7807586
1206,Aliikoa Street,96821,21.2783106,-157.7799617
4495,Aliikoa Street,96821,21.2782840,-157.7801409
4487,Aliikoa Street,96821,21.2783516,-157.7803161
4483,Aliikoa Street,96821,21.2783910,-157.7805012
4479,Aliikoa Street,96821,21.2783460,-157.7806958
4510,Waikui Street,96821,21.2774978,-157.7794351
4505,Waikui Street,96821,21.2775612,-157.7800203
4507,Waikui Street,96821,21.2776143,-157.7803142
4509,Waikui Street,96821,21.2776509,-157.7806473
4346,Waialae Avenue,96816,21.2787457,-157.7839567
1224,Ainakoa Avenue,96821,21.2788236,-157.7798029
4498,Aliikoa Street,96821,21.2787919,-157.7799422
4494,Aliikoa Street,96821,21.2788070,-157.7801129
4490,Aliikoa Street,96821,21.2788171,-157.7802761
4486,Aliikoa Street,96821,21.2788435,-157.7804320
4480,Aliikoa Street,96821,21.2788199,-157.7806069
1230,Ainakoa Avenue,96821,21.2789848,-157.7798231
1234,Ainakoa Avenue,96821,21.2791433,-157.7798179
4491,Honokoa Place,96821,21.2790974,-157.7800171
4485,Honokoa Place,96821,21.2791029,-157.7801586
4481,Honokoa Place,96821,21.2791422,-157.7803164
4411,Honokoa Place,96821,21.2791160,-157.7804766
4498,Honokoa Place,96821,21.2794143,-157.7797385
4492,Honokoa Place,96821,21.2794246,-157.7799524
4484,Honokoa Place,96821,21.2794652,-157.7802387
4484,Honokoa Place,96821,21.2796591,-157.7801914
1248,Ainakoa Avenue,96821,21.2796300,-157.7799189
1252,Honokoa Place,96821,21.2798595,-157.7799539
4484,Honokoa Place,96821,21.2799188,-157.7801128
1248,Ainakoa Avenue,96821,21.2795838,-157.7797053
4498,Honokoa Place,96821,21.2796713,-157.7797303
1252,Honokoa Place,96821,21.2797860,-157.7797230
1256,Malia Street,96821,21.2799236,-157.7797448
1260,Malia Street,96821,21.2800570,-157.7797203
1264,Malia Street,96821,21.2802081,-157.7797078
4493,Malia Street,96821,21.2801053,-157.7799126
4491,Malia Street,96821,21.2801223,-157.7800623
1210,Kalaniiki Street,96821,21.2780264,-157.7765925
1204,Kalaniiki Street,96821,21.2777761,-157.7764796
4598,Kalaniana’ole Highway,96821,21.2778646,-157.7766182
1218,Kalaniiki Street,96821,21.2781792,-157.7764050
1222,Kalaniiki Street,96821,21.2783312,-157.7764404
1228,Kalaniiki Street,96821,21.2784812,-157.7763232
1238,Kalaniiki Street,96821,21.2787181,-157.7760399
1258,Kalaniiki Street,96821,21.2790159,-157.7755929
1229,Kalaniiki Street,96821,21.2783084,-157.7759480
4578,Kalaniana’ole Highway,96821,21.2778594,-157.7768100
4576,Kalaniana’ole Highway,96821,21.2778943,-157.7770564
4572,Kalaniana’ole Highway,96821,21.2779460,-157.7772684
2051,Lee Place,96817,21.3248259,-157.8526683
409,Judd Street,96817,21.3248849,-157.8524962
2039,Lee Place,96817,21.3246008,-157.8528139
2029,Lee Place,96817,21.3244131,-157.8530234
2029A,Lee Place,96817,21.3244144,-157.8532624
2036,Lee Place,96817,21.3246576,-157.8531121
2044,Lee Place,96817,21.3248579,-157.8530083
2052,Lee Place,96817,21.3250565,-157.8528899
425,Lee Place,96817,21.3251993,-157.8527972
349,Judd Street,96817,21.3245064,-157.8523407
45,Judd Street,96817,21.3229959,-157.8508341
2425,Pali Highway,96817,21.3266172,-157.8449006
326,Judd Street,96817,21.3248445,-157.8519189
3221,Palolo Avenue,96816,21.2870072,-157.8067936
1217,Palolo Avenue,96816,21.2870993,-157.8061776
1227,Palolo Avenue,96816,21.2872809,-157.8061389
1237,Palolo Avenue,96816,21.2873389,-157.8058381
1245,Palolo Avenue,96816,21.2874827,-157.8055963
1242,6th Avenue,96816,21.2873751,-157.8054044
1239,6th Avenue,96816,21.2872757,-157.8056330
1234,6th Avenue,96816,21.2871859,-157.8054503
1224,6th Avenue,96816,21.2870143,-157.8055988
1226,6th Avenue,96816,21.2871032,-157.8057697
1222,6th Avenue,96816,21.2868810,-157.8056230
1222,6th Avenue,96816,21.2869430,-157.8057508
1222,6th Avenue,96816,21.2870062,-157.8058780
1218,6th Avenue,96816,21.2867764,-157.8056817
1218,6th Avenue,96816,21.2868408,-157.8058123
1218,6th Avenue,96816,21.2869062,-157.8059369
1218,6th Avenue,96816,21.2870233,-157.8060359
1229,Palolo Avenue,96816,21.2872069,-157.8059435
1265,Palolo Avenue,96816,21.2876173,-157.8053757
1254,6th Avenue,96816,21.2875653,-157.8051794
1250,6th Avenue,96816,21.2874800,-157.8052291
1256,6th Avenue,96816,21.2876591,-157.8051304
3289,Keanu Street,96816,21.2877507,-157.8050625
3285,Keanu Street,96816,21.2877937,-157.8051501
1277,Palolo Avenue,96816,21.2877201,-157.8052513
1254,6th Avenue,96816,21.2877830,-157.8052250
3253,Waialae Avenue,96816,21.2857177,-157.8068526
1044,5th Avenue,96816,21.2846831,-157.8080364
1048,5th Avenue,96816,21.2847963,-157.8079654
1052,5th Avenue,96816,21.2849211,-157.8079125
1058,5th Avenue,96816,21.2850320,-157.8078225
1039,5th Avenue,96816,21.2845027,-157.8076719
1047,5th Avenue,96816,21.2846088,-157.8075488
1051,5th Avenue,96816,21.2847170,-157.8075144
1059,5th Avenue,96816,21.2848403,-157.8074183
1040,6th Avenue,96816,21.2844523,-157.8072788
3277,Harding Avenue,96816,21.2845505,-157.8070072
1040,6th Avenue,96816,21.2843740,-157.8074401
1040,6th Avenue,96816,21.2843235,-157.8072891
1041,6th Avenue,96816,21.2839659,-157.8067415
1043,6th Avenue,96816,21.2837442,-157.8062562
1053,6th Avenue,96816,21.2841130,-157.8065962
1055,6th Avenue,96816,21.2844072,-157.8066761
3309,Harding Avenue,96816,21.2843255,-157.8065358
3315,6th Avenue,96816,21.2842317,-157.8063914
1044,6th Avenue,96816,21.2840043,-157.8061809
3323,Harding Avenue,96816,21.2841559,-157.8061350
3331,Harding Avenue,96816,21.2840093,-157.8059877
3331,Harding Avenue,96816,21.2838383,-157.8060826
1058,7th Avenue,96816,21.2839701,-157.8058108
1050,6th Avenue,96816,21.2838104,-157.8059024
1042A,7th Avenue,96816,21.2836384,-157.8059408
1042,7th Avenue,96816,21.2836885,-157.8060833
3320,Harding Avenue,96816,21.2849030,-157.8057561
3506,Waialae Avenue,96716,21.2820248,-157.7955374
1217,7th Avenue,96816,21.2860389,-157.8039306
1215,7th Avenue,96816,21.2859139,-157.8038004
1233,7th Avenue,96816,21.2863240,-157.8036622
1227,7th Avenue,96816,21.2861609,-157.8038269
1233,7th Avenue,96816,21.2862207,-157.8034417
1229,7th Avenue,96816,21.2860246,-157.8035665
1239,7th Avenue,96816,21.2865435,-157.8036424
1241,7th Avenue,96816,21.2863998,-157.8034875
3353,Keanu Street,96816,21.2868733,-157.8033792
3353,Keanu Street,96816,21.2867527,-157.8033997
3353,Keanu Street,96816,21.2866087,-157.8034710
3359,Keanu Street,96816,21.2868301,-157.8032652
3363,Keanu Street,96816,21.2867445,-157.8031529
3363,Keanu Street,96816,21.2865352,-157.8032890
3365,Keanu Street,96816,21.2864695,-157.8031424
3365,Keanu Street,96816,21.2866546,-157.8030371
3371,Keanu Street,96816,21.2865612,-157.8028538
1248,8th Avenue,96816,21.2864348,-157.8029469
1246,8th Avenue,96816,21.2863213,-157.8030182
1241,7th Avenue,96816,21.2863208,-157.8032799
1240,8th Avenue,96816,21.2861924,-157.8031005
1248,8th Avenue,96816,21.2861463,-157.8032962
1236,8th Avenue,96816,21.2860702,-157.8031249
1234,8th Avenue,96816,21.2859734,-157.8032480
1234,8th Avenue,96816,21.2860525,-157.8034056
1226,8th Avenue,96816,21.2858388,-157.8033286
1218,8th Avenue,96816,21.2858407,-157.8036934
1218,8th Avenue,96816,21.2857640,-157.8035159
1218,8th Avenue,96816,21.2856859,-157.8033391
1208,8th Avenue,96816,21.2854692,-157.8035784
1208,8th Avenue,96816,21.2853941,-157.8034368
3382,Waialae Avenue,96816,21.2856979,-157.8039508
3353,Waialae Avenue,96816,21.2851245,-157.8043800
3361,Waialae Avenue,96816,21.2850199,-157.8041720
3367,Waialae Avenue,96816,21.2848516,-157.8040914
3375,Waialae Avenue,96816,21.2848917,-157.8038429
3375,Waialae Avenue,96716,21.2849327,-157.8037342
1150,8th Avenue,96816,21.2847692,-157.8039197
1146,8th Avenue,96816,21.2846554,-157.8040484
1142,8th Avenue,96816,21.2845045,-157.8040869
1130,8th Avenue,96816,21.2843277,-157.8041137
1130,8th Avenue,96816,21.2844606,-157.8043900
1124,8th Avenue,96816,21.2841758,-157.8042355
1124,8th Avenue,96816,21.2843126,-157.8044724
1118,8th Avenue,96816,21.2840205,-157.8042681
1114,8th Avenue,96816,21.2838850,-157.8043300
1106,8th Avenue,96816,21.2837835,-157.8044703
1102,8th Avenue,96816,21.2836389,-157.8044365
3370,Harding Avenue,96816,21.2836932,-157.8045636
3368,Harding Avenue,96816,21.2838385,-157.8046578
3370,Harding Avenue,96816,21.2838931,-157.8047992
3364,Harding Avenue,96816,21.2839954,-157.8045266
3358,Harding Avenue,96816,21.2841049,-157.8048056
3358,Harding Avenue,96816,21.2839644,-157.8049132
3354,Harding Avenue,96816,21.2840555,-157.8050395
3340,Harding Avenue,96816,21.2840744,-157.8052959
1109,7th Avenue,96816,21.2841746,-157.8052197
1111,7th Avenue,96816,21.2842337,-157.8050764
1119,7th Avenue,96816,21.2843979,-157.8050262
1119,7th Avenue,96816,21.2842511,-157.8047656
1121,7th Avenue,96816,21.2845906,-157.8050207
1119,7th Avenue,96816,21.2845054,-157.8048184
1119,7th Avenue,96816,21.2844591,-157.8047244
1119,7th Avenue,96816,21.2843742,-157.8046390
1119,7th Avenue,96816,21.2847431,-157.8049111
1137,7th Avenue,96816,21.2848263,-157.8048546
1143,7th Avenue,96816,21.2849362,-157.8047522
1143,7th Avenue,96816,21.2847739,-157.8046402
1143,7th Avenue,96816,21.2847187,-157.8044984
1143,7th Avenue,96816,21.2846827,-157.8043680
3343,Harding Avenue,96816,21.2838539,-157.8055215
3349,Harding Avenue,96816,21.2837702,-157.8053691
3355,Harding Avenue,96816,21.2836676,-157.8052643
3353,Harding Avenue,96816,21.2835087,-157.8053561
3357,Harding Avenue,96816,21.2835107,-157.8051959
3363,Harding Avenue,96816,21.2834331,-157.8050735
3367,Harding Avenue,96816,21.2834689,-157.8048821
1060,8th Avenue,96816,21.2834310,-157.8046736
1054,8th Avenue,96816,21.2833204,-157.8047232
1048,8th Avenue,96816,21.2832049,-157.8048490
1040,8th Avenue,96816,21.2831264,-157.8050131
1042,Harding Avenue,96816,21.2830630,-157.8048531
1040,8th Avenue,96816,21.2833034,-157.8053295
1040,8th Avenue,96816,21.2832235,-157.8051908
1037,7th Avenue,96816,21.2834049,-157.8055268
1041,8th Avenue,96816,21.2834972,-157.8056769
1047,8th Avenue,96816,21.2835717,-157.8055728
3349,7th Avenue,96816,21.2836829,-157.8054965
1220,9th Avenue,96816,21.2851471,-157.8024185
1220,9th Avenue,96816,21.2852207,-157.8025568
3422,Waialae Avenue,96816,21.2853328,-157.8026437
3412,8th Avenue,96816,21.2853753,-157.8027987
3412,Waialae Avenue,96816,21.2851285,-157.8029512
3412,Waialae Avenue,96816,21.2849901,-157.8030304
1219,8th Avenue,96816,21.2854697,-157.8029215
1225,8th Avenue,96816,21.2856203,-157.8028630
1227,8th Avenue,96816,21.2855886,-157.8027725
1235,8th Avenue,96816,21.2858109,-157.8027153
1227,8th Avenue,96816,21.2855338,-157.8026734
1227,8th Avenue,96816,21.2854710,-157.8025474
1226,9th Avenue,96816,21.2854343,-157.8024315
1235,8th Avenue,96816,21.2857431,-157.8024973
1241,8th Avenue,96816,21.2860110,-157.8026253
1241,8th Avenue,96816,21.2859220,-157.8023890
1249,8th Avenue,96816,21.2861808,-157.8025525
3403,Keanu Street,96816,21.2863977,-157.8025233
3407,Keanu Street,96816,21.2863398,-157.8023948
3411,Keanu Street,96816,21.2862734,-157.8022740
3419,Keanu Street,96816,21.2862045,-157.8021459
3425,Keanu Street,96816,21.2860803,-157.8019538
3421,Keanu Street,96816,21.2861007,-157.8020681
3419,8th Avenue,96816,21.2860425,-157.8023099
3431,8th Avenue,96816,21.2860251,-157.8018508
1258,9th Avenue,96816,21.2859443,-157.8017158
1250,9th Avenue,96816,21.2859390,-157.8020872
1250,9th Avenue,96816,21.2857847,-157.8017895
1242,9th Avenue,96816,21.2857915,-157.8021256
1242,9th Avenue,96816,21.2856787,-157.8019749
1234,9th Avenue,96816,21.2854371,-157.8019647
1234,9th Avenue,96816,21.2855400,-157.8021233
1234,9th Avenue,96816,21.2856503,-157.8022923
1226,9th Avenue,96816,21.2852783,-157.8021680
3415,Waialae Avenue,96816,21.2845715,-157.8031439
3427,Waialae Avenue,96816,21.2844341,-157.8028223
1147,8th Avenue,96816,21.2845782,-157.8034631
1144,9th Avenue,96816,21.2840884,-157.8029325
1147,8th Avenue,96816,21.2843829,-157.8031716
1145,8th Avenue,96816,21.2844130,-157.8036101
1145,8th Avenue,96816,21.2843032,-157.8034470
1145,8th Avenue,96816,21.2842350,-157.8032584
1135,8th Avenue,96816,21.2842318,-157.8036888
1135,8th Avenue,96816,21.2841612,-157.8034885
1125,8th Avenue,96816,21.2840564,-157.8037773
1125,8th Avenue,96816,21.2839930,-157.8035994
1125,8th Avenue,96816,21.2838881,-157.8034888
1117,8th Avenue,96816,21.2838227,-157.8038518
1117,8th Avenue,96816,21.2838805,-157.8039819
1133,8th Avenue,96816,21.2840525,-157.8033511
1119,8th Avenue,96816,21.2837333,-157.8037006
1121,8th Avenue,96816,21.2836684,-157.8035735
1111,8th Avenue,96816,21.2836881,-157.8040408
1105,8th Avenue,96816,21.2835017,-157.8040989
3412,Harding Avenue,96816,21.2835801,-157.8038908
3414,Harding Avenue,96816,21.2833923,-157.8038159
3416,Harding Avenue,96816,21.2835773,-157.8036953
1119,8th Avenue,96816,21.2834640,-157.8035345
1119,8th Avenue,96816,21.2832543,-157.8036410
1119,8th Avenue,96816,21.2832144,-157.8035335
1108,9th Avenue,96816,21.2833938,-157.8033898
1112,9th Avenue,96816,21.2833033,-157.8031657
1119,8th Avenue,96816,21.2834558,-157.8031170
1104,9th Avenue,96816,21.2830597,-157.8033130
1128,9th Avenue,96816,21.2836478,-157.8029518
1128,9th Avenue,96816,21.2837398,-157.8031189
1128,9th Avenue,96816,21.2837990,-157.8033181
1128,9th Avenue,96816,21.2835889,-157.8034293
1128,9th Avenue,96816,21.2835164,-157.8032786
1136,9th Avenue,96816,21.2839438,-157.8031811
1136,9th Avenue,96816,21.2838027,-157.8029049
1042,9th Avenue,96816,21.2824857,-157.8039108
1042,9th Avenue,96816,21.2825939,-157.8040360
1042,9th Avenue,96816,21.2824073,-157.8036929
1050,9th Avenue,96816,21.2826267,-157.8036691
3439,Harding Avenue,96816,21.2827437,-157.8034427
3435,Harding Avenue,96816,21.2827994,-157.8035450
3429,Harding Avenue,96816,21.2828689,-157.8036474
3427,Harding Avenue,96816,21.2827631,-157.8039121
3425,Harding Avenue,96816,21.2829610,-157.8038255
3415,Harding Avenue,96816,21.2830223,-157.8039656
3415,Harding Avenue,96816,21.2828551,-157.8040539
3415,Harding Avenue,96816,21.2829039,-157.8041945
3415,Harding Avenue,96816,21.2830880,-157.8040949
3403,Harding Avenue,96816,21.2831988,-157.8042267
1059,8th Avenue,96816,21.2831103,-157.8043445
1047,8th Avenue,96816,21.2829991,-157.8044395
3403,Harding Avenue,96816,21.2828530,-157.8044603
1041,8th Avenue,96816,21.2827173,-157.8042117
1255,9th Avenue,96816,21.2857756,-157.8012981
3451,Keanu Street,96816,21.2856957,-157.8011113
1247,9th Avenue,96816,21.2856516,-157.8014345
1247,9th Avenue,96816,21.2855350,-157.8012201
1255,9th Avenue,96816,21.2854492,-157.8010776
1239,9th Avenue,96816,21.2854139,-157.8015456
1239,9th Avenue,96816,21.2853346,-157.8013894
1239,9th Avenue,96816,21.2852398,-157.8012144
1233,9th Avenue,96816,21.2852387,-157.8015448
1231,9th Avenue,96816,21.2851210,-157.8013141
1225,9th Avenue,96816,21.2850722,-157.8017058
1225,9th Avenue,96716,21.2848614,-157.8014590
1225,9th Avenue,96816,21.2849324,-157.8013734
1219,9th Avenue,96816,21.2848582,-157.8018585
1219,9th Avenue,96816,21.2846951,-157.8015488
1211,9th Avenue,96816,21.2847807,-157.8019829
3468,Waialae Avenue,96816,21.2843349,-157.8017385
3468,Waialae Avenue,96816,21.2842740,-157.8015984
3468,Waialae Avenue,96816,21.2844793,-157.8015393
1220,10th Avenue,96816,21.2845901,-157.8014071
1220,10th Avenue,96816,21.2846806,-157.8013551
1220,10th Avenue,96816,21.2845322,-157.8012943
1220,10th Avenue,96816,21.2844980,-157.8010672
1228,10th Avenue,96816,21.2846347,-157.8009383
1228,10th Avenue,96816,21.2847413,-157.8011237
1220,10th Avenue,96816,21.2847802,-157.8012053
1220,10th Avenue,96816,21.2848506,-157.8012842
1234,10th Avenue,96816,21.2848494,-157.8008089
1234,10th Avenue,96816,21.2849389,-157.8009703
1234,10th Avenue,96816,21.2849822,-157.8011690
1242,10th Avenue,96816,21.2849603,-157.8007245
1242,10th Avenue,96816,21.2850849,-157.8008782
1242,10th Avenue,96816,21.2851777,-157.8010456
3463,Keanu Street,96816,21.2853623,-157.8009272
1250,10th Avenue,96816,21.2851875,-157.8006022
1254,10th Avenue,96716,21.2852932,-157.8005373
1256,10th Avenue,96816,21.2854051,-157.8004603
3469,Keanu Street,96816,21.2854135,-157.8006493
3485,Keanu Street,96816,21.2854655,-157.8007437
3463,Keanu Street,96816,21.2855209,-157.8008675
3457,Keanu Street,96816,21.2856148,-157.8009657
1125,9th Avenue,96816,21.2833232,-157.8024456
1121,9th Avenue,96816,21.2833207,-157.8027503
1121,9th Avenue,96816,21.2831468,-157.8024153
1117,9th Avenue,96816,21.2832432,-157.8028422
1117,9th Avenue,96816,21.2831437,-157.8026388
3464,Harding Avenue,96816,21.2826817,-157.8025174
3464,Harding Avenue,96816,21.2828633,-157.8024059
3468,Harding Avenue,96816,21.2827829,-157.8022720
3468,Harding Avenue,96816,21.2826064,-157.8023620
3464,Harding Avenue,96816,21.2824798,-157.8021847
1108,10th Avenue,96816,21.2825820,-157.8021288
1110,10th Avenue,96816,21.2827359,-157.8020671
1116,10th Avenue,96816,21.2828594,-157.8020232
1124,10th Avenue,96816,21.2829475,-157.8022224
1130,10th Avenue,96816,21.2830668,-157.8018705
1128,10th Avenue,96816,21.2831542,-157.8020430
1124,10th Avenue,96816,21.2832121,-157.8021762
1144,10th Avenue,96816,21.2833034,-157.8017906
1039,9th Avenue,96816,21.2822698,-157.8033802
1055,9th Avenue,96816,21.2823664,-157.8032535
1055,9th Avenue,96816,21.2825133,-157.8031725
1059,9th Avenue,96816,21.2826413,-157.8031788
3449,Harding Avenue,96816,21.2825866,-157.8030594
3453,Harding Avenue,96816,21.2824433,-157.8029751
1041,9th Avenue,96816,21.2821464,-157.8030632
1041,9th Avenue,96816,21.2820170,-157.8030669
3457,Harding Avenue,96816,21.2823312,-157.8028710
3465,Harding Avenue,96816,21.2821320,-157.8027732
3467,Harding Avenue,96816,21.2820831,-157.8026762
3469,Harding Avenue,96816,21.2823370,-157.8026645
3471,Harding Avenue,96816,21.2822867,-157.8025649
3473,Harding Avenue,96816,21.2822167,-157.8024479
3479,Harding Avenue,96816,21.2821659,-157.8023004
1050,10th Avenue,96816,21.2820578,-157.8025398
1046,10th Avenue,96816,21.2819060,-157.8025940
1042,10th Avenue,96816,21.2820198,-157.8028540
1044,10th Avenue,96816,21.2818458,-157.8026297
1255,10th Avenue,96816,21.2851746,-157.8001576
3507,Keanu Street,96816,21.2851821,-157.8000278
3513,Keanu Street,96816,21.2848431,-157.8000602
3513,Keanu Street,96716,21.2850420,-157.7999061
3519,Keanu Street,96816,21.2849530,-157.7997748
3537,Keanu Street,96716,21.2847699,-157.7998859
3507,Keanu Street,96716,21.2846350,-157.8000156
3506,Waialae Avenue,96716,21.2843763,-157.8003091
1249,10th Avenue,96816,21.2849528,-157.8002240
1241,10th Avenue,96816,21.2847970,-157.8003633
1241,10th Avenue,96816,21.2847351,-157.8001504
1235,10th Avenue,96816,21.2846446,-157.8004336
1235,10th Avenue,96716,21.2845142,-157.8001249
1231,10th Avenue,96816,21.2845572,-157.8005170
1231,10th Avenue,96816,21.2843904,-157.8002138
1225,10th Avenue,96716,21.2843832,-157.8005068
1227,10th Avenue,96816,21.2842799,-157.8002960
1017,10th Avenue,96816,21.2842434,-157.8006098
1211,10th Avenue,96816,21.2840960,-157.8007696
3506,Waialae Avenue,96816,21.2839299,-157.8007714
3506,Waialae Avenue,96816,21.2839728,-157.8008566
3506,Waialae Avenue,96816,21.2840037,-157.8009201
3514,Waialae Avenue,96816,21.2837818,-157.8006942
3520,Waialae Avenue,96816,21.2837169,-157.8005653
3518,Waialae Avenue,96816,21.2840500,-157.8005336
3538,Waialae Avenue,96816,21.2836571,-157.8003483
3456,Waialae Avenue,96816,21.2836287,-157.8000875
3456,Waialae Avenue,96716,21.2835063,-157.7999845
3318,Sierra Drive,96816,21.2840326,-157.8001702
3318,Sierra Drive,96816,21.2839746,-157.7999714
3318,Sierra Drive,96816,21.2838087,-157.8000636
3318,Sierra Drive,96816,21.2838683,-157.7998195
3555,Keanu Street,96816,21.2842256,-157.7997426
3324,Sierra Drive,96816,21.2843702,-157.8000502
3324,Sierra Drive,96816,21.2843282,-157.7999679
3324,Sierra Drive,96816,21.2842872,-157.7998832
3539,Keanu Street,96816,21.2844945,-157.7998044
1125,10th Avenue,96816,21.2828396,-157.8014801
1125,10th Avenue,96816,21.2827441,-157.8013313
1125,10th Avenue,96816,21.2826831,-157.8011760
1117,10th Avenue,96816,21.2826362,-157.8015344
1121,10th Avenue,96816,21.2824819,-157.8013257
1109,10th Avenue,96816,21.2825142,-157.8016790
1105,10th Avenue,96816,21.2824253,-157.8018060
1103,10th Avenue,96816,21.2823120,-157.8018613
3508,Harding Avenue,96816,21.2822641,-157.8017140
3514,10th Avenue,96816,21.2822952,-157.8015510
3518,Harding Avenue,96816,21.2823433,-157.8013532
3518,Harding Avenue,96816,21.2821442,-157.8014495
3522,Harding Avenue,96816,21.2822319,-157.8012637
3526,Harding Avenue,96816,21.2820451,-157.8012476
3526,Harding Avenue,96816,21.2822248,-157.8011390
3536,Harding Avenue,96816,21.2820145,-157.8009872
1114,11th Avenue,96816,21.2824275,-157.8010605
1114,11th Avenue,96816,21.2823117,-157.8008469
1122,11th Avenue,96816,21.2824476,-157.8006853
1138,11th Avenue,96816,21.2825570,-157.8009091
1122,11th Avenue,96816,21.2826267,-157.8010469
1041,10th Avenue,96816,21.2817373,-157.8017736
3513,Harding Avenue,96816,21.2818016,-157.8017729
3523,Harding Avenue,96816,21.2818046,-157.8015199
3523,Harding Avenue,96816,21.2816643,-157.8016002
3523,Harding Avenue,96816,21.2815527,-157.8016652
3527,Harding Avenue,96816,21.2816022,-157.8014519
1054,11th Avenue,96816,21.2815364,-157.8012848
3535,Harding Avenue,96816,21.2816378,-157.8012085
5829,Mahimahi Street,96821,21.2827812,-157.7332749
1123,11th Avenue,96816,21.2821325,-157.8004085
1137,11th Avenue,96816,21.2823894,-157.8004396
1127,11th Avenue,96816,21.2823237,-157.8003267
1137,11th Avenue,96816,21.2826133,-157.8001163
3569,Harding Avenue,96816,21.2810290,-157.8002087
1056,12th Avenue,96816,21.2810409,-157.7999799
1048,12th Avenue,96816,21.2808178,-157.8001432
1048,12th Avenue,96816,21.2808941,-157.8003074
1044,12th Avenue,96816,21.2808459,-157.8005555
1044,12th Avenue,96816,21.2807324,-157.8004039
1042,12th Avenue,96816,21.2806463,-157.8002481
3317,Sierra Drive,96816,21.2836853,-157.7994956
1220,Center Street,96816,21.2838245,-157.7994395
3329,Sierra Drive,96816,21.2839156,-157.7993565
3333,Sierra Drive,96816,21.2840556,-157.7993309
3339,Sierra Drive,96816,21.2841945,-157.7991627
1232,Center Street,96816,21.2838818,-157.7991493
1232,Center Street,96816,21.2838532,-157.7989758
1232,Center Street,96816,21.2837780,-157.7988360
1234,Center Street,96816,21.2840179,-157.7989044
1246,Center Street,96816,21.2841211,-157.7986725
1254,Center Street,96816,21.2842939,-157.7986671
1258,Center Street,96816,21.2843987,-157.7984603
1264,Center Street,96816,21.2845145,-157.7983921
1258,Center Street,96816,21.2845852,-157.7986064
1258,Center Street,96816,21.2846245,-157.7987698
3345,Sierra Drive,96816,21.2843077,-157.7990924
3353,Sierra Drive,96816,21.2845213,-157.7990577
3355,Sierra Drive,96816,21.2846820,-157.7990952
3355,Sierra Drive,96816,21.2848310,-157.7990973
3361,Sierra Drive,96816,21.2846417,-157.7989946
1215,Center Street,96816,21.2828515,-157.7984727
3600,Waialae Avenue,96816,21.2829993,-157.7989219
3624,Waialae Avenue,96816,21.2828550,-157.7984864
1221,Center Street,96816,21.2832485,-157.7987366
1223,Center Street,96816,21.2833720,-157.7986736
1225,Center Street,96816,21.2834570,-157.7986047
1229,Center Street,96816,21.2835756,-157.7985097
1235,Center Street,96816,21.2837280,-157.7985250
1235,Center Street,96816,21.2836553,-157.7984283
1235,Center Street,96816,21.2835609,-157.7982462
1235,Center Street,96816,21.2838853,-157.7983992
1244,Koko Head Avenue,96816,21.2836772,-157.7980377
1242,Koko Head Avenue,96816,21.2835277,-157.7981230
1247,Center Street,96816,21.2839683,-157.7982995
1251,Center Street,96816,21.2840992,-157.7982368
1259,Center Street,96816,21.2842084,-157.7981830
1261,Center Street,96816,21.2843823,-157.7981321
1303,Center Street,96816,21.2843255,-157.7980189
1264,Koko Head Avenue,96816,21.2841898,-157.7977530
1261,Center Street,96816,21.2842455,-157.7978874
1259,Center Street,96816,21.2841236,-157.7980500
1258,Koko Head Avenue,96816,21.2840526,-157.7979078
1235,Center Street,96816,21.2840045,-157.7977968
1250,Koko Head Avenue,96816,21.2839245,-157.7979427
1248,Koko Head Avenue,96816,21.2837883,-157.7979444
1234,Koko Head Avenue,96816,21.2833682,-157.7982185
1232,Koko Head Avenue,96816,21.2834072,-157.7983882
1224,Koko Head Avenue,96816,21.2830663,-157.7983883
1224,Koko Head Avenue,96816,21.2832291,-157.7984929
1224,Koko Head Avenue,96816,21.2831718,-157.7983138
3601,Waialae Avenue,96816,21.2824537,-157.7988012
3607,Waialae Avenue,96816,21.2823980,-157.7986633
1156,Koko Head Avenue,96816,21.2822971,-157.7985336
1139,12th Avenue,96816,21.2819516,-157.7990026
1145,12th Avenue,96816,21.2820773,-157.7988472
1145,12th Avenue,96816,21.2821230,-157.7989347
1145,12th Avenue,96816,21.2821428,-157.7989743
1133,12th Avenue,96816,21.2818688,-157.7991133
1125,12th Avenue,96816,21.2816955,-157.7992067
1117,12th Avenue,96816,21.2814908,-157.7993146
1109,12th Avenue,96816,21.2813916,-157.7993781
3610,Harding Avenue,96816,21.2810647,-157.7992409
1130,Koko Head Avenue,96816,21.2814858,-157.7986942
1126,Koko Head Avenue,96816,21.2813572,-157.7987564
1120,Koko Head Avenue,96816,21.2812057,-157.7988115
1106,Koko Head Avenue,96816,21.2809126,-157.7989490
1134,Koko Head Avenue,96816,21.2817567,-157.7986520
1148,Koko Head Avenue,96816,21.2819336,-157.7985767
1059,12th Avenue,96816,21.2808644,-157.7996203
1049,12th Avenue,96816,21.2806989,-157.7997511
3615,Harding Avenue,96816,21.2806105,-157.7994435
3625,Harding Avenue,96816,21.2804592,-157.7991988
3625,Harding Avenue,96816,21.2803463,-157.7992501
1048,Koko Head Avenue,96816,21.2802318,-157.7993614
3650,Waialae Avenue,96816,21.2824713,-157.7979164
1225,Koko Head Avenue,96816,21.2829794,-157.7980073
1227,Koko Head Avenue,96816,21.2831903,-157.7979084
1234,Wilhelmina Rise,96816,21.2835650,-157.7977777
1249,Koko Head Avenue,96816,21.2837185,-157.7976967
1255,Koko Head Avenue,96816,21.2838901,-157.7975179
1306,Wilhelmina Rise,96816,21.2840269,-157.7974951
1302,Wilhelmina Rise,96816,21.2838248,-157.7969891
1258,Wilhelmina Rise,96816,21.2836740,-157.7971030
1254,Wilhelmina Rise,96816,21.2837611,-157.7972628
1252,Wilhelmina Rise,96816,21.2838031,-157.7973942
1249,Wilhelmina Rise,96816,21.2836541,-157.7974833
1248,Wilhelmina Rise,96816,21.2834694,-157.7971979
1240,Wilhelmina Rise,96816,21.2835405,-157.7973056
1238,Wilhelmina Rise,96816,21.2834081,-157.7975163
1232,Wilhelmina Rise,96816,21.2833199,-157.7977713
1230,Wilhelmina Rise,96816,21.2832236,-157.7975814
1234,Wilhelmina Rise,96816,21.2831463,-157.7974113
1224,Wilhelmina Rise,96816,21.2829845,-157.7975663
1224,Wilhelmina Rise,96816,21.2830817,-157.7978122
1223,Wilhelmina Rise,96816,21.2828830,-157.7978294
1232,Wilhelmina Rise,96816,21.2827852,-157.7976992
1231,Wilhelmina Rise,96816,21.2829647,-157.7971202
1237,Wilhelmina Rise,96816,21.2831105,-157.7970110
1237,Wilhelmina Rise,96816,21.2830126,-157.7967599
1249,Wilhelmina Rise,96816,21.2832990,-157.7968363
1255,Wilhelmina Rise,96816,21.2834592,-157.7967478
3661,Keanu Street,96816,21.2833686,-157.7965785
1232,Wilhelmina Rise,96816,21.2832767,-157.7962921
1254,13th Avenue,96816,21.2831961,-157.7963969
1250,13th Avenue,96816,21.2830650,-157.7964500
1244,13th Avenue,96816,21.2828752,-157.7964721
1232,13th Avenue,96816,21.2829471,-157.7966256
1238,13th Avenue,96816,21.2827775,-157.7965463
1234,13th Avenue,96816,21.2827195,-157.7967572
1234,13th Avenue,96816,21.2826504,-157.7966156
1234,13th Avenue,96816,21.2825797,-157.7968090
1226,13th Avenue,96816,21.2824518,-157.7966952
1228,13th Avenue,96816,21.2825135,-157.7966148
1218,13th Avenue,96816,21.2823905,-157.7968844
1214,13th Avenue,96816,21.2822085,-157.7969164
1210,13th Avenue,96816,21.2820727,-157.7969807
3696,Waialae Avenue,96816,21.2819464,-157.7970442
3684,Waialae Avenue,96816,21.2821170,-157.7972222
3635,Mahina Street,96816,21.2810879,-157.7981956
1123,Koko Head Avenue,96816,21.2810603,-157.7984226
3645,Mahina Street,96816,21.2808927,-157.7978729
1117,Koko Head Avenue,96816,21.2806686,-157.7980649
3657,Harding Avenue,96816,21.2800062,-157.7980611
1040,13th Avenue,96816,21.2797181,-157.7983100
3710,Mahina Street,96816,21.2808479,-157.7969097
3702,Mahina Street,96816,21.2809055,-157.7971837
1141,13th Avenue,96816,21.2811255,-157.7969903
1145,13th Avenue,96816,21.2812379,-157.7969006
3703,Waialae Avenue,96816,21.2814145,-157.7968432
3710,Mahina Street,96816,21.2809439,-157.7968573
3710,Mahina Street,96816,21.2810331,-157.7968011
3720,Mahina Street,96816,21.2807528,-157.7967482
1140,14th Avenue,96816,21.2808410,-157.7965067
3724,Mahina Street,96816,21.2806358,-157.7965415
3718,Waialae Avenue,96816,21.2810242,-157.7965697
3717,Waialae Avenue,96816,21.2811468,-157.7965756
3715,Waialae Avenue,96816,21.2812477,-157.7964910
3711,Waialae Avenue,96816,21.2812445,-157.7966892
3725,Waialae Avenue,96816,21.2810764,-157.7963180
1150,14th Avenue,96816,21.2809317,-157.7964043
3020,Ala Napuaa Place,96818,21.3448465,-157.9062789
3004,Ala Napuaa Place,96818,21.3447830,-157.9058635
3015,Ala Napuaa Place,96818,21.3443185,-157.9061310
3015,Ala Napuaa Place,96818,21.3441769,-157.9061099
3033,Ala Napuaa Place,96818,21.3441770,-157.9066024
2996,Ala Napuaa Place,96818,21.3447629,-157.9055905
3003,Ala Napuaa Place,96818,21.3443939,-157.9055434
3003,Ala Napuaa Place,96818,21.3442456,-157.9055451
2981,Ala Napuaa Place,96818,21.3443735,-157.9051030
2975,Ala Napuaa Place,96818,21.3444037,-157.9049003
2867,Ala Ilima Street,96818,21.3449483,-157.9017546
1015,Ala Ilima Street,96818,21.3450266,-157.9012216
2835,Ala Ilima Street,96818,21.3451781,-157.9007688
1031,Ala Napunani Street,96818,21.3458189,-157.9013797
1047,Ala Napunani Street,96818,21.3462536,-157.9015883
5400,Likini Street,96818,21.3455473,-157.9028223
2950,Ala Ilima Street,96818,21.3454209,-157.9041595
2962,Ala Ilima Street,96818,21.3454438,-157.9044144
2976,Ala Ilima Street,96818,21.3455309,-157.9047780
5320,Likini Street,96818,21.3458256,-157.9052321
2996,Ala Ilima Street,96818,21.3454983,-157.9055120
1055,Ala Nanu Street,96818,21.3456675,-157.9056405
2988,Ala Ilima Street,96818,21.3454185,-157.9051434
2989,Ala Ilima Street,96818,21.3450461,-157.9053912
3003,Ala Ilima Street,96818,21.3452222,-157.9056908
3011,Ala Ilima Street,96818,21.3451934,-157.9060235
3019,Ala Ilima Street,96818,21.3453369,-157.9062623
3033,Ala Ilima Street,96818,21.3451478,-157.9067010
3059,Ala Ilima Street,96818,21.3451776,-157.9073140
3077,Ala Ilima Street,96818,21.3450267,-157.9078192
3095,Ala Ilima Street,96818,21.3448489,-157.9083372
3506,Waialae Avenue,96716,21.2823459,-157.7961658
3506,Waialae Avenue,96716,21.2813024,-157.7941501
3506,Waialae Avenue,96716,21.2808493,-157.7932919
3506,Waialae Avenue,96716,21.2816983,-157.7949170
826,South King Street,96813,21.3028590,-157.8515369
1119,Young Street,96814,21.3009657,-157.8448663
1011,Palm Drive,96814,21.2996983,-157.8424618
1246,South King Street,96814,21.2995404,-157.8425876
1254,South King Street,96814,21.2995011,-157.8424796
1013,Akala Lane,96814,21.2996951,-157.8421348
1008,Akoko Street,96814,21.2994647,-157.8420468
1008,Akoko Street,96814,21.2993285,-157.8420163
1052,Ala Nanu Street,96818,21.3458804,-157.9059908
3030,Ala Ilima Street,96818,21.3457330,-157.9066698
3070,Ala Ilima Street,96818,21.3456193,-157.9076794
1516,South King Street,96826,21.2983841,-157.8385290
1540,South King Street,96826,21.2977542,-157.8367120
1540,South King Street,96826,21.2975452,-157.8365409
1558,South King Street,96826,21.2972814,-157.8362639
1537,Young Street,96826,21.2978714,-157.8365064
1607,Young Street,96826,21.2976503,-157.8354710
1609,Young Street,96826,21.2976233,-157.8353935
1641,Young Street,96826,21.2971742,-157.8346823
1645,Young Street,96826,21.2972715,-157.8344788
1645,Young Street,96826,21.2971140,-157.8345425
1651,Young Street,96826,21.2971713,-157.8343456
1022,Elsie Lane,96826,21.2970104,-157.8344050
1660,South King Street,96826,21.2969214,-157.8346279
1654,South King Street,96826,21.2969099,-157.8347915
1644,South King Street,96826,21.2970260,-157.8349099
1702,South King Street,96826,21.2965936,-157.8342760
1005,Elsie Lane,96826,21.2967375,-157.8342728
1007,Elsie Lane,96826,21.2968219,-157.8342375
1017,Elsie Lane,96826,21.2969326,-157.8342292
1703,Young Street,96826,21.2971334,-157.8340854
1715,Young Street,96826,21.2970426,-157.8338751
1715,Young Street,96826,21.2968452,-157.8339684
1721,Young Street,96826,21.2968784,-157.8337268
1733,Young Street,96826,21.2968614,-157.8334319
1725,Young Street,96826,21.2968773,-157.8335492
1712,South King Street,96826,21.2966316,-157.8340586
1726,South King Street,96826,21.2965028,-157.8338471
1720,South King Street,96826,21.2965899,-157.8336402
1720,South King Street,96826,21.2963923,-157.8337477
1738,South King Street,96826,21.2963819,-157.8335827
1016,Pawaa Lane,96826,21.2966876,-157.8335264
1017,Pawaa Lane,96826,21.2965066,-157.8329837
1816,South King Street,96826,21.2959691,-157.8322840
1816,South King Street,96826,21.2961328,-157.8322117
1816,South King Street,96826,21.2962121,-157.8321788
1815,Young Street,96826,21.2964115,-157.8320953
1821,Young Street,96826,21.2963393,-157.8319427
1225,Young Street,96826,21.2963346,-157.8318289
1837,Young Street,96826,21.2962320,-157.8317427
1016,Artesian Street,96826,21.2960857,-157.8316936
1012,Artesian Street,96826,21.2959680,-157.8317555
1901,Young Street,96826,21.2961405,-157.8313864
1902,South King Street,96826,21.2957289,-157.8315398
1920,South King Street,96826,21.2956984,-157.8311409
1936,South King Street,96826,21.2954835,-157.8306589
2016,South King Street,96826,21.2950458,-157.8296145
2013,Young Street,96826,21.2955191,-157.8295837
2013,Young Street,96826,21.2954773,-157.8294871
2013,Young Street,96826,21.2954000,-157.8296161
2023,Young Street,96826,21.2953647,-157.8295233
2023,Young Street,96826,21.2953287,-157.8293506
2039,Young Street,96826,21.2951810,-157.8291305
2020,South King Street,96826,21.2951881,-157.8294482
2038,South King Street,96826,21.2948356,-157.8292445
2046,South King Street,96826,21.2948880,-157.8289889
2081,Young Street,96826,21.2949595,-157.8282679
1022,Kemole Lane,96826,21.2948614,-157.8280296
1018,Kemole Lane,96826,21.2947149,-157.8280806
2104,South King Street,96826,21.2944980,-157.8281287
1015,Kemole Lane,96826,21.2945081,-157.8278196
1019,Kemole Lane,96826,21.2946367,-157.8277622
1023,Kemole Lane,96826,21.2947674,-157.8277783
2115,Young Street,96826,21.2948948,-157.8277488
1026,Poha Lane,96826,21.2947141,-157.8273612
2209,Young Street,96826,21.2946078,-157.8270677
2203,Young Street,96826,21.2946240,-157.8271599
1019,Poha Lane,96826,21.2944879,-157.8271765
1013,Poha Lane,96826,21.2943629,-157.8272357
2204,South King Street,96826,21.2941992,-157.8273097
2210,South King Street,96826,21.2941074,-157.8272999
1018,Hoawa Lane,96826,21.2941762,-157.8265138
2241,Young Street,96826,21.2943254,-157.8264078
2229,Young Street,96826,21.2944198,-157.8265488
2229,Young Street,96826,21.2942872,-157.8265754
2320,South King Street,96826,21.2942172,-157.8262704
2309,Young Street,96826,21.2941827,-157.8261497
2320,South King Street,96826,21.2941347,-157.8260239
2320,South King Street,96826,21.2937201,-157.8263268
2320,South King Street,96826,21.2938648,-157.8262828
2320,South King Street,96826,21.2939292,-157.8262558
2320,South King Street,96826,21.2939820,-157.8262344
2334,South King Street,96826,21.2935704,-157.8258897
2334,South King Street,96826,21.2936592,-157.8258743
2334,South King Street,96826,21.2937674,-157.8259365
2334,South King Street,96826,21.2938341,-157.8259081
2334,South King Street,96826,21.2939068,-157.8258761
2334,South King Street,96826,21.2941464,-157.8257750
2334,South King Street,96826,21.2940572,-157.8258144
2334,South King Street,96826,21.2939631,-157.8258538
2334,South King Street,96826,21.2940072,-157.8258338
2338,South King Street,96826,21.2937640,-157.8258184
2338,South King Street,96826,21.2936843,-157.8256798
2338,South King Street,96826,21.2935330,-157.8256986
1451,10th Avenue,96816,21.2882206,-157.7984242
1451,10th Avenue,96816,21.2882070,-157.7983050
2800,Woodlawn Drive,96822,21.3088179,-157.8085840
415,South Beretania Street,96813,21.3073425,-157.8573013
3121,Pualei Circle,96815,21.2671652,-157.8148207
3083,Pualei Circle,96815,21.2663382,-157.8141079
3061,Pualei Circle,96815,21.2657324,-157.8143859
3027,Pualei Circle,96815,21.2661724,-157.8153510
3824;3810,Leahi Avenue,96815,21.2663588,-157.8156763
1868,Kahakai Drive,96814,21.2886739,-157.8383186
423;429,Kanekapolei Street,96815,21.2783610,-157.8236814
1651,Ala Moana Boulevard,96815,21.2847848,-157.8417508
343,Hobron Lane,96815,21.2859860,-157.8373065
1778,Ala Moana Boulevard,96815,21.2853542,-157.8379431
431,Nohonani Street,96815,21.2799560,-157.8253358
2462,Kuhio Avenue,96815,21.2760710,-157.8225510
1720,Ala Moana Boulevard,96815,21.2863368,-157.8388961
1720,Ala Moana Boulevard,96815,21.2867767,-157.8384402
1918,Lipeepee Street,96815,21.2873349,-157.8373548
3055;3045,Pualei Circle,96815,21.2657099,-157.8148066
1960,East-West Road,96822,21.3033772,-157.8146265
1837,East-West Road,96822,21.3010746,-157.8132502
1825,East-West Road,96822,21.3006219,-157.8134521
1811,East-West Road,96822,21.3001482,-157.8136781
1881,East-West Road,96822,21.3011445,-157.8142737
1950,Ualakaa Street,96822,21.3065264,-157.8299561
1422,Heulu Street,96822,21.3057801,-157.8342632
933,Kaheka Street,96814,21.2960681,-157.8385062
1545,Kalākaua Avenue,96826,21.2954222,-157.8378098
2424,Maile Way,96822,21.3006160,-157.8191345
2055,Kalia Road,96815,21.2814609,-157.8350256
1099,Alakea Street,96813,21.3081772,-157.8594197
150,Kaʻiulani Avenue,96815,21.2778925,-157.8250471
1188,Bishop Street,96813,21.3105965,-157.8590901
335,Merchant Street,96813,21.3061302,-157.8606765
478,South King Street,96813,21.3059003,-157.8575492
1301,Punchbowl Street,96813,21.3081363,-157.8537146
1200,Queen Emma Street,96813,21.3109001,-157.8579795
24,Hialoa Street,96813,21.3169620,-157.8544616
801,South Beretania Street,96813,21.3040119,-157.8514472
710,Green Street,96813,21.3079803,-157.8497386
423,Kaumakani Street,96825,21.2780377,-157.6942456
900,South Beretania Street,96814,21.3041852,-157.8484887
2330,Kalākaua Avenue,96815-2518,21.2783543,-157.8261770
1139,9th Avenue,96816,21.2836627,-157.8023798
3052,Ala Ilima Street,96818,21.3455946,-157.9072021
1558,South King Street,96826,21.2973919,-157.8361326
