House number,Street name,Postal code,Latitude,Longitude
15,Victoria Parade,7310,-41.1737942,146.3625243
1-3,Best Street,7310,-41.1786943,146.3623900
86,Best Street,7310,-41.1766608,146.3551924
74,Best Street,7310,-41.1769865,146.3564890
86,Best Street,7310,-41.1767013,146.3542890
139,William Street,7310,-41.1769197,146.3508163
99,Oldaker Street,7310,-41.1754614,146.3505966
17,Fenton Way,7310,-41.1776362,146.3586373
136-138,Tarleton Street,7310,-41.1856149,146.3713923
161,Tarleton Street,7310,-41.1851687,146.3720092
175,Tarleton Street,7310,-41.1873431,146.3713823
4,Friend Street,7310,-41.1930184,146.3375239
6,Gloucester Avenue,7310,-41.1667055,146.3630688
112-1147,North Fenton Street,7310,-41.1706670,146.3607353
78,Formby Road,7310,-41.1808113,146.3628545
4,Friend Street,7310,-41.1933716,146.3385482
77,Middle Road,7310,-41.1937171,146.3479216
4,Kempling Street,7310,-41.1755506,146.3501307
13,Forbes Street,7310,-41.1827877,146.3556356
3,Barker Street,7310,-41.1764649,146.3520280
27,Wenvoe Street,7310,-41.1825202,146.3611839
48-54,Oldaker Street,7310,-41.1757870,146.3559948
48-54,Oldaker Street,7310,-41.1755752,146.3560503
48-54,Oldaker Street,7310,-41.1756286,146.3561568
48-54,Oldaker Street,7310,-41.1757193,146.3561402
48-54,Oldaker Street,7310,-41.1753921,146.3563541
188,William Street,7310,-41.1723708,146.3523107
68,Don Road,7310,-41.1805984,146.3323627
41,Bluff Road,7310,-41.1623835,146.3557287
41,Bluff Road,7310,-41.1622119,146.3556951
234,William Street,7310,-41.1664829,146.3537174
154,Tarleton Street,7310,-41.1866578,146.3711467
152C,William Street,7310,-41.1759118,146.3514028
29,Wenvoe Street,7310,-41.1826733,146.3611159
59,Bucks Road,7310,-41.2410274,146.3761163
29,Murray Street,7310,-41.1800195,146.3699282
18,Murray Street,7310,-41.1802961,146.3697083
92-94,Mersey Main Road,7310,-41.2189569,146.3449580
38,Steele Street,7310,-41.1809718,146.3597611
70,Rooke Street,7310,-41.1785373,146.3611761
68,Rooke Street,7310,-41.1786084,146.3610822
54,Rooke Street,7310,-41.1789473,146.3610912
40,Rooke Street Mall,7310,-41.1796231,146.3608720
109,Rooke Street,7310,-41.1785725,146.3606029
105,Rooke Street,7310,-41.1786423,146.3606661
97,Rooke Street,7310,-41.1787536,146.3604842
83,Rooke Street,7310,-41.1790455,146.3604954
77,Rooke Street,7310,-41.1791658,146.3604757
53,Rooke Street,7310,-41.1796541,146.3604517
51,Rooke Street,7310,-41.1796764,146.3603714
171,Stony Rise Road,7310,-41.1870039,146.3234283
161,Rooke Street,7310,-41.1767835,146.3610569
155,Rooke Street,7310,-41.1769622,146.3609764
153,Rooke Street,7310,-41.1770157,146.3610180
131,Rooke Street,7310,-41.1779181,146.3607685
129,Rooke Street,7310,-41.1779757,146.3608235
127,Rooke Street,7310,-41.1780514,146.3608088
32,Best Street,7310,-41.1781109,146.3605285
30,Best Street,7310,-41.1780816,146.3606210
2,Stewart Street,7310,-41.1800328,146.3626528
2,Stewart Street,7310,-41.1799712,146.3625965
20A,Stewart Street,7310,-41.1799208,146.3617569
20B,Stewart Street,7310,-41.1798642,146.3617086
22,Stewart Street,7310,-41.1799006,146.3615906
37-39,Stewart Street,7310,-41.1801509,146.3609657
41,Stewart Street,7310,-41.1801368,146.3608423
32,Rooke Street,7310,-41.1801317,146.3607632
22,Rooke Street,7310,-41.1804688,146.3606934
20,Rooke Street,7310,-41.1806313,146.3606612
34,King Street,7310,-41.1806808,146.3611400
26,King Street,7310,-41.1807333,146.3615987
24,King Street,7310,-41.1807424,146.3616845
33,King Street,7310,-41.1809200,146.3609308
12,Rooke Street,7310,-41.1810432,146.3605714
10,Rooke Street,7310,-41.1811017,146.3606411
6,Rooke Street,7310,-41.1811643,146.3605472
4,Rooke Street,7310,-41.1812531,146.3605271
5,Rooke Street,7310,-41.1810280,146.3602012
17,Rooke Street,7310,-41.1808847,146.3602267
19,Rooke Street,7310,-41.1808181,146.3601623
21,Rooke Street,7310,-41.1807797,146.3602750
23,Rooke Street,7310,-41.1807222,146.3601798
31,Rooke Street,7310,-41.1805042,146.3602240
33-35,Rooke Street,7310,-41.1804295,146.3603246
159,William Street,7310,-41.1755398,146.3510756
155,William Street,7310,-41.1757955,146.3510555
62,Lakeside Road,7310,-41.2267938,146.3134250
62,Lakeside Road,7310,-41.2265095,146.3136433
6,Edward Street,7310,-41.1793989,146.3598545
17-18,Formby Road,7310,-41.1883493,146.3616096
221,Tarleton Street,7310,-41.1914879,146.3704339
221,Tarleton Street,7310,-41.1927043,146.3702989
139,William Street,7310,-41.1768471,146.3508347
141,William Street,7310,-41.1767581,146.3508109
141,William Street,7310,-41.1766961,146.3508236
143B,William Street,7310,-41.1765612,146.3508565
149B,William Street,7310,-41.1761932,146.3509409
147,William Street,7310,-41.1762764,146.3509190
149c,William Street,7310,-41.1761591,146.3509480
6,Kempling Street,7310,-41.1760677,146.3502460
2,Kempling Street,7310,-41.1763358,146.3500476
2,Kempling Street,7310,-41.1762024,146.3500669
142,William Street,7310,-41.1766637,146.3512953
142,William Street,7310,-41.1766120,146.3513038
142,William Street,7310,-41.1765565,146.3513145
146a,William Street,7310,-41.1763927,146.3513450
148,William Street,7310,-41.1763426,146.3513520
149a,William Street,7310,-41.1762321,146.3509327
148,William Street,7310,-41.1762588,146.3513623
150b,William Street,7310,-41.1761731,146.3513723
151,William Street,7310,-41.1760882,146.3509667
150b,William Street,7310,-41.1761272,146.3513785
153a,William Street,7310,-41.1759596,146.3510046
153,William Street,7310,-41.1759193,146.3510138
154,William Street,7310,-41.1758115,146.3514139
157,William Street,7310,-41.1757016,146.3510770
157,William Street,7310,-41.1756488,146.3510859
154b,William Street,7310,-41.1757329,146.3514280
93,Oldaker Street,7310,-41.1755997,146.3514794
132,William Street,7310,-41.1779740,146.3511954
132,William Street,7310,-41.1779149,146.3512727
17A,Devonport Road,7310,-41.2001373,146.3598295
17A,Devonport Road,7310,-41.1996686,146.3598711
175,Tarleton Street,7310,-41.1874280,146.3713535
91,Percy Street,7310,-41.1694254,146.3445216
33A,Berrigan Road,7310,-41.1958919,146.3551812
27,Murray Street,7310,-41.1799587,146.3698114
74,Best Street,7310,-41.1768072,146.3564486
48,Oldaker Street,7310,-41.1755722,146.3562164
2,Ferguson Drive,7310,-41.2076049,146.3426292
38,Steele Street,7310,-41.1810483,146.3597170
6,Gloucester Avenue,7310,-41.1666423,146.3631789
53,Forbes Street,7310,-41.1862246,146.3554906
73-77,Mersey Main Road,7310,-41.2199550,146.3461719
74,Best Street,7310,-41.1767092,146.3561114
22,Don Road,7310,-41.1792746,146.3378426
15,Murray Street,7310,-41.1799033,146.3692485
103,Kempling Street,7310,-41.1756498,146.3501110
2,Best Street,7310,-41.1781373,146.3618212
7,Best Street,7310,-41.1787322,146.3620268
132,William Street,7310,-41.1777804,146.3511189
58,Best Street,7310,-41.1777075,146.3578487
13-19,Tarleton Street,7310,-41.1720792,146.3767572
92,Formby Road,7310,-41.1791030,146.3633805
15,Victoria Parade,7310,-41.1737686,146.3624376
237,Oldaker Street,7310,-41.1732595,146.3312098
235,Oldaker Street,7310,-41.1733069,146.3314514
20,Tugrah Road,7310,-41.1923798,146.3251738
26,Willow Avenue,7310,-41.1871191,146.3429276
220,Oldaker Street,7310,-41.1728339,146.3312998
218,Surrey Street,7310,-41.1728364,146.3315076
62,Surrey Street,7310,-41.1735102,146.3311491
46,Old Tramway Road,7310,-41.2266740,146.3027710
140,North Fenton Street,7310,-41.1673927,146.3619640
20-22,Oldaker Street,7310,-41.1760606,146.3594736
6,Melrose Road,7310,-41.2451177,146.3426996
14A,Murray Street,7310,-41.1805777,146.3691554
24,Wenvoe Street,7310,-41.1833089,146.3605717
29,Best Street,7310,-41.1783487,146.3593954
5,Victoria Parade,7310,-41.1760247,146.3611950
24,Brooke Street,7310,-41.1755225,146.3723515
22,Wright Street,7310,-41.1753004,146.3708996
2,Brooke Street,7310,-41.1750668,146.3693367
50,Tarleton Street,7310,-41.1750248,146.3738996
46,Tarleton Street,7310,-41.1746291,146.3739704
34,Brooke Street,7310,-41.1756010,146.3733005
18,Tarleton Street,7310,-41.1722693,146.3745235
20,Tarleton Street,7310,-41.1725026,146.3744825
4,Brooke Street,7310,-41.1751122,146.3697495
10,Brooke Street,7310,-41.1752645,146.3702783
18,Brooke Street,7310,-41.1753964,146.3718718
26,Brooke Street,7310,-41.1755397,146.3725829
30,Brooke Street,7310,-41.1756296,146.3728859
34,Tarleton Street,7310,-41.1732591,146.3743369
30,Tarleton Street,7310,-41.1729613,146.3743488
6,Melrose Street,7310,-41.1724956,146.3730212
22,Tarleton Street,7310,-41.1726783,146.3743270
16,Tarleton Street,7310,-41.1720691,146.3745639
1,Brooke Street,7310,-41.1745066,146.3679765
44,Tarleton Street,7310,-41.1743043,146.3740377
48,Tarleton Street,7310,-41.1748322,146.3739323
2,Melrose Street,7310,-41.1720184,146.3739487
38,Tarleton Street,7310,-41.1738158,146.3740923
20,Brooke Street,7310,-41.1754366,146.3720806
36,Tarleton Street,7310,-41.1734769,146.3742770
1,Wright Street,7310,-41.1726022,146.3724231
36,Brooke Street,7310,-41.1756357,146.3735084
52,Tarleton Street,7310,-41.1751912,146.3738337
40,Tarleton Street,7310,-41.1739678,146.3741264
42,Tarleton Street,7310,-41.1741509,146.3740817
3,Melrose Street,7310,-41.1721697,146.3738064
12,Brooke Street,7310,-41.1752181,146.3705140
4,Melrose Street,7310,-41.1724099,146.3737180
16,Brooke Street,7310,-41.1753893,146.3716592
5,Melrose Street,7310,-41.1724516,146.3733566
32,Tarleton Street,7310,-41.1731121,146.3742664
1,Melrose Street,7310,-41.1720700,146.3741946
75,Drake Street,7310,-41.1885038,146.3598362
73,Drake Street,7310,-41.1883517,146.3599210
34,Best Street,7310,-41.1779419,146.3602542
43,Wenvoe Street,7310,-41.1854187,146.3608392
45,Wenvoe Street,7310,-41.1856420,146.3608910
52,Wenvoe Street,7310,-41.1856189,146.3604542
50,Wenvoe Street,7310,-41.1854495,146.3604186
41,Highfield Road,7310,-41.2060717,146.3784205
35,Don Road,7310,-41.1810575,146.3347761
1,Don Road,7310,-41.1794302,146.3412990
103-105,William Street,7310,-41.1805770,146.3495492
112,William Street,7310,-41.1798092,146.3508169
114,William Street,7310,-41.1795022,146.3509096
5,Lawrence Drive,7310,-41.1870284,146.3332550
48-54,Oldaker Street,7310,-41.1755804,146.3561699
54,Oldaker Street,7310,-41.1755572,146.3562660
44,Oldaker Street,7310,-41.1758424,146.3568887
11,Oldaker Street,7310,-41.1768265,146.3604365
13-15,Forth Road,7310,-41.1828758,146.3178064
5,Forth Road,7310,-41.1833372,146.3194055
211,Stony Rise Road,7310,-41.1839609,146.3203833
209,Stony Rise Road,7310,-41.1840399,146.3198655
89,Best Street,7310,-41.1773967,146.3512809
83,Oldaker Street,7310,-41.1758116,146.3521514
7,Barker Street,7310,-41.1760922,146.3520789
108,Best Street,7310,-41.1769856,146.3519739
1a,Barker Street,7310,-41.1768060,146.3519629
1,Barker Street,7310,-41.1766695,146.3519840
5,Barker Street,7310,-41.1762974,146.3520199
14,Young Street,7310,-41.1893411,146.3734745
77,Drake Street,7310,-41.1886734,146.3598247
71,Drake Street,7310,-41.1881796,146.3599294
150,River Road,7310,-41.2034240,146.3705045
1,Victoria Parade,7310,-41.1774743,146.3623098
188,William Street,7310,-41.1724084,146.3513895
6,Formby Road,7310,-41.1905245,146.3611681
4,Friend Street,7310,-41.1920467,146.3376834
17A,Devonport Road,7310,-41.2000650,146.3599402
17A,Devonport Road,7310,-41.2002175,146.3597457
130,William Street,7310,-41.1781736,146.3511888
130,William Street,7310,-41.1783804,146.3511871
213,Stony Rise Road,7310,-41.1838657,146.3201939
215,Stony Rise Road,7310,-41.1838328,146.3198708
1,Forth Road,7310,-41.1835545,146.3197426
3,Forth Road,7310,-41.1834350,146.3195690
7,Forth Road,7310,-41.1831438,146.3192012
9,Forth Road,7310,-41.1831103,146.3189289
167,Steele Street,7310,-41.1796301,146.3434613
89,Hillcrest Road,7310,-41.1897052,146.3302074
87A,Hillcrest Road,7310,-41.1895338,146.3303855
90A,Hillcrest Road,7310,-41.1895264,146.3292108
90,Hillcrest Road,7310,-41.1895860,146.3296289
92,Hillcrest Road,7310,-41.1894368,146.3285484
88,Hillcrest Road,7310,-41.1894307,146.3296729
86,Hillcrest Road,7310,-41.1891278,146.3292162
82,Hillcrest Road,7310,-41.1890054,146.3297790
87,Hillcrest Road,7310,-41.1893451,146.3304005
85,Hillcrest Road,7310,-41.1892461,146.3304715
83,Hillcrest Road,7310,-41.1890499,146.3304630
81,Hillcrest Road,7310,-41.1888993,146.3305059
80,Hillcrest Road,7310,-41.1888343,146.3299107
78,Hillcrest Road,7310,-41.1886100,146.3299937
79,Hillcrest Road,7310,-41.1887393,146.3305022
68,Hillcrest Road,7310,-41.1875848,146.3301605
70,Hillcrest Road,7310,-41.1877754,146.3301787
72,Hillcrest Road,7310,-41.1881166,146.3300398
74,Hillcrest Road,7310,-41.1882851,146.3300297
76,Hillcrest Road,7310,-41.1884537,146.3298499
77,Hillcrest Road,7310,-41.1885730,146.3305792
75,Hillcrest Road,7310,-41.1884149,146.3306610
73,Hillcrest Road,7310,-41.1882533,146.3306635
71,Hillcrest Road,7310,-41.1880426,146.3307231
69,Hillcrest Road,7310,-41.1877791,146.3307564
67,Hillcrest Road,7310,-41.1876188,146.3308662
65,Hillcrest Road,7310,-41.1872463,146.3308639
63,Hillcrest Road,7310,-41.1870415,146.3308752
61,Hillcrest Road,7310,-41.1868891,146.3308872
59,Hillcrest Road,7310,-41.1867292,146.3309107
57,Hillcrest Road,7310,-41.1865514,146.3308586
55,Hillcrest Road,7310,-41.1863704,146.3308436
53,Hillcrest Road,7310,-41.1861799,146.3308861
33A,Lawrence Drive,7310,-41.1862720,146.3301682
58,Hillcrest Road,7310,-41.1865339,146.3302105
60,Hillcrest Road,7310,-41.1868126,146.3302398
62,Hillcrest Road,7310,-41.1870061,146.3302293
64,Hillcrest Road,7310,-41.1872061,146.3302142
66,Hillcrest Road,7310,-41.1874055,146.3302574
35,Lawrence Drive,7310,-41.1864860,146.3298447
37,Lawrence Drive,7310,-41.1865902,146.3297299
39,Lawrence Drive,7310,-41.1867198,146.3295630
45,Lawrence Drive,7310,-41.1869159,146.3293749
38,Lawrence Drive,7310,-41.1860279,146.3295941
40,Lawrence Drive,7310,-41.1861923,146.3293508
42,Lawrence Drive,7310,-41.1864305,146.3290917
36,Lawrence Drive,7310,-41.1858652,146.3299655
46,Lawrence Drive,7310,-41.1868293,146.3286573
48,Lawrence Drive,7310,-41.1870224,146.3283912
53,Lawrence Drive,7310,-41.1873195,146.3288935
51,Lawrence Drive,7310,-41.1872418,146.3291635
41,Lawrence Drive,7310,-41.1869588,146.3298625
47,Lawrence Drive,7310,-41.1870447,146.3291933
5,Aikman Place,7310,-41.1880103,146.3290991
57,Lawrence Drive,7310,-41.1874968,146.3284976
59,Lawrence Drive,7310,-41.1875886,146.3282310
61,Lawrence Drive,7310,-41.1875975,146.3279882
63,Lawrence Drive,7310,-41.1876694,146.3278124
65,Lawrence Drive,7310,-41.1883608,146.3283195
168,Stony Rise Road,7310,-41.1896256,146.3277857
172A,Stony Rise Road,7310,-41.1888741,146.3274631
172,Stony Rise Road,7310,-41.1891146,146.3271949
172B,Stony Rise Road,7310,-41.1888295,146.3270921
71,Lawrence Drive,7310,-41.1886052,146.3273395
81,Lawrence Drive,7310,-41.1887477,146.3267059
79,Lawrence Drive,7310,-41.1886212,146.3268142
77,Lawrence Drive,7310,-41.1884955,146.3269643
69,Lawrence Drive,7310,-41.1879476,146.3273295
67,Lawrence Drive,7310,-41.1878783,146.3275228
48,Hillcrest Road,7310,-41.1854760,146.3297399
52,Hillcrest Road,7310,-41.1857203,146.3302307
50,Hillcrest Road,7310,-41.1854943,146.3302437
46,Hillcrest Road,7310,-41.1852489,146.3302795
40,Hillcrest Road,7310,-41.1849345,146.3302748
42,Hillcrest Road,7310,-41.1848875,146.3298724
44,Hillcrest Road,7310,-41.1852167,146.3296956
30,Hillcrest Road,7310,-41.1839710,146.3302494
32,Hillcrest Road,7310,-41.1841576,146.3302757
34,Hillcrest Road,7310,-41.1843353,146.3302015
36,Hillcrest Road,7310,-41.1845065,146.3301948
38,Hillcrest Road,7310,-41.1846983,146.3302270
25,Hillcrest Road,7310,-41.1839102,146.3308750
27,Hillcrest Road,7310,-41.1841242,146.3311036
33,Hillcrest Road,7310,-41.1845914,146.3308312
35,Hillcrest Road,7310,-41.1847848,146.3308555
37,Hillcrest Road,7310,-41.1849471,146.3309195
39,Hillcrest Road,7310,-41.1851035,146.3308829
41,Hillcrest Road,7310,-41.1852741,146.3308381
43,Hillcrest Road,7310,-41.1854471,146.3308811
47,Hillcrest Road,7310,-41.1857131,146.3308280
32,Lawrence Drive,7310,-41.1857672,146.3310279
30,Lawrence Drive,7310,-41.1857842,146.3313883
1,Jarrod Court,7310,-41.1856547,146.3314090
2,Jarrod Court,7310,-41.1855051,146.3314384
3,Jarrod Court,7310,-41.1853124,146.3314421
4,Jarrod Court,7310,-41.1851521,146.3313763
5,Jarrod Court,7310,-41.1849701,146.3313910
6,Jarrod Court,7310,-41.1847294,146.3314295
7,Jarrod Court,7310,-41.1848635,146.3319348
28,Lawrence Drive,7310,-41.1859128,146.3319886
42,Jarrod Court,7310,-41.1857225,146.3320561
41,Jarrod Court,7310,-41.1855926,146.3320887
40,Jarrod Court,7310,-41.1854206,146.3321522
39,Jarrod Court,7310,-41.1854556,146.3324581
26,Lawrence Drive,7310,-41.1858648,146.3324008
24,Lawrence Drive,7310,-41.1858431,146.3326285
38,Jarrod Court,7310,-41.1854888,146.3326976
37,Jarrod Court,7310,-41.1854996,146.3329137
22,Lawrence Drive,7310,-41.1859444,146.3328354
11,Jarrod Court,7310,-41.1850003,146.3328243
12,Jarrod Court,7310,-41.1849897,146.3330410
13,Jarrod Court,7310,-41.1850671,146.3332539
36,Jarrod Court,7310,-41.1855542,146.3331448
20,Lawrence Drive,7310,-41.1859649,146.3330409
18,Lawrence Drive,7310,-41.1860031,146.3332238
35,Jarrod Court,7310,-41.1855664,146.3333237
14,Jarrod Court,7310,-41.1850945,146.3334616
15,Jarrod Court,7310,-41.1851448,146.3336979
16,Jarrod Court,7310,-41.1851873,146.3338837
17,Jarrod Court,7310,-41.1852071,146.3341190
18,Jarrod Court,7310,-41.1852379,146.3343225
19,Jarrod Court,7310,-41.1852080,146.3345706
20,Jarrod Court,7310,-41.1852377,146.3347632
21,Jarrod Court,7310,-41.1852182,146.3350037
22,Jarrod Court,7310,-41.1852805,146.3351761
23,Jarrod Court,7310,-41.1854618,146.3352787
26,Jarrod Court,7310,-41.1859815,146.3352516
27,Jarrod Court,7310,-41.1861315,146.3352375
2,Lawrence Drive,7310,-41.1862928,146.3351465
4,Lawrence Drive,7310,-41.1861974,146.3347832
6,Lawrence Drive,7310,-41.1861977,146.3345285
28,Jarrod Court,7310,-41.1858357,146.3348393
29,Jarrod Court,7310,-41.1857834,146.3346138
30,Jarrod Court,7310,-41.1857644,146.3344123
8,Lawrence Drive,7310,-41.1861523,146.3343110
10,Lawrence Drive,7310,-41.1861488,146.3340915
31,Jarrod Court,7310,-41.1857600,146.3341952
32,Jarrod Court,7310,-41.1857162,146.3339788
14A,Lawrence Drive,7310,-41.1860777,146.3336538
33,Jarrod Court,7310,-41.1856450,146.3337967
34,Jarrod Court,7310,-41.1856032,146.3335682
16,Lawrence Drive,7310,-41.1859874,146.3334954
114a,Steele Street,7310,-41.1793404,146.3491346
110,Steele Street,7310,-41.1797284,146.3495331
112,Steele Street,7310,-41.1796463,146.3493052
114,Steele Street,7310,-41.1796303,146.3490646
116,Steele Street,7310,-41.1796536,146.3488266
118,Steele Street,7310,-41.1795718,146.3485794
118a,Steele Street,7310,-41.1792418,146.3486578
120,Steele Street,7310,-41.1795802,146.3483576
120A,Steele Street,7310,-41.1791731,146.3484482
150,Steele Street,7310,-41.1789968,146.3442271
1,Brikdale Court,7310,-41.1742489,146.3357654
2,Brikdale Court,7310,-41.1743724,146.3356055
15,Brikdale Court,7310,-41.1741032,146.3353191
14,Brikdale Court,7310,-41.1741092,146.3350372
13,Brikdale Court,7310,-41.1741001,146.3347745
12,Brikdale Court,7310,-41.1740495,146.3345189
11,Brikdale Court,7310,-41.1739941,146.3342434
10,Brikdale Court,7310,-41.1741183,146.3340770
9,Brikdale Court,7310,-41.1742346,146.3340382
8,Brikdale Court,7310,-41.1744514,146.3341911
7,Brikdale Court,7310,-41.1744415,146.3344863
6,Brikdale Court,7310,-41.1744518,146.3347318
5,Brikdale Court,7310,-41.1744743,146.3349791
4,Brikdale Court,7310,-41.1745291,146.3352054
3,Brikdale Court,7310,-41.1745939,146.3355050
66,Surrey Street,7310,-41.1723320,146.3313793
66,Surrey Street,7310,-41.1725665,146.3313190
66,Surrey Street,7310,-41.1725893,146.3315366
66,Surrey Street,7310,-41.1723628,146.3316069
40,Canning Drive,7310,-41.1901399,146.3859010
1,Candlebark Court,7310,-41.1901232,146.3855394
2,Candlebark Court,7310,-41.1900848,146.3852996
3,Candlebark Court,7310,-41.1900824,146.3850232
5,Candlebark Court,7310,-41.1896039,146.3848885
6,Candlebark Court,7310,-41.1896198,146.3851341
7,Candlebark Court,7310,-41.1896633,146.3853663
4,Candlebark Court,7310,-41.1897099,146.3846997
8,Candlebark Court,7310,-41.1896912,146.3855574
38,Canning Drive,7310,-41.1897922,146.3860083
36,Canning Drive,7310,-41.1896232,146.3860262
34,Canning Drive,7310,-41.1895009,146.3860530
32,Canning Drive,7310,-41.1892729,146.3860607
30,Canning Drive,7310,-41.1892303,146.3857979
28,Canning Drive,7310,-41.1892103,146.3855449
26,Canning Drive,7310,-41.1891564,146.3853301
24,Canning Drive,7310,-41.1891871,146.3851385
22,Canning Drive,7310,-41.1892230,146.3849076
20,Canning Drive,7310,-41.1892572,146.3847227
18,Canning Drive,7310,-41.1893162,146.3845115
16,Canning Drive,7310,-41.1893721,146.3843289
14,Canning Drive,7310,-41.1895380,146.3840030
12,Canning Drive,7310,-41.1896434,146.3838217
10,Canning Drive,7310,-41.1897775,146.3836523
8,Canning Drive,7310,-41.1899305,146.3835728
6,Canning Drive,7310,-41.1900629,146.3834066
52,Canning Drive,7310,-41.1914039,146.3855951
50,Canning Drive,7310,-41.1912341,146.3856703
48,Canning Drive,7310,-41.1910567,146.3857140
46,Canning Drive,7310,-41.1908869,146.3857043
1,Acacia Grove,7310,-41.1909000,146.3853497
103,Torquay Road,7310,-41.1911590,146.3851610
2,Acacia Grove,7310,-41.1909112,146.3851209
3,Acacia Grove,7310,-41.1908394,146.3849060
101,Torquay Road,7310,-41.1909812,146.3846413
4,Acacia Grove,7310,-41.1905282,146.3848479
5,Acacia Grove,7310,-41.1904229,146.3850129
6,Acacia Grove,7310,-41.1904155,146.3852381
7,Acacia Grove,7310,-41.1904816,146.3854584
44,Canning Drive,7310,-41.1905597,146.3858648
42,Canning Drive,7310,-41.1903491,146.3858986
99,Torquay Road,7310,-41.1907087,146.3840719
97,Torquay Road,7310,-41.1906155,146.3838284
91,Torquay Road,7310,-41.1904555,146.3835141
93,Canning Drive,7310,-41.1902381,146.3837082
95,Torquay Road,7310,-41.1902181,146.3841147
4,Canning Drive,7310,-41.1901886,146.3832977
2,Canning Drive,7310,-41.1903540,146.3831675
81,Best Street,7310,-41.1775830,146.3522936
161,Rooke Street,7310,-41.1768090,146.3609232
90,Formby Road,7310,-41.1796189,146.3627852
5,Rooke Street,7310,-41.1809767,146.3600871
5,Victoria Parade,7310,-41.1759853,146.3610281
445,Mersey Main Road,7310,-41.2309216,146.3795957
445,Mersey Main Road,7310,-41.2308936,146.3796099
169,Steele Street,7310,-41.1798926,146.3423230
169,Steele Street,7310,-41.1797621,146.3423359
169,Steele Street,7310,-41.1796338,146.3423505
169,Steele Street,7310,-41.1794658,146.3423817
169,Steele Street,7310,-41.1792589,146.3423872
169,Steele Street,7310,-41.1792802,146.3425654
169,Steele Street,7310,-41.1793062,146.3427643
169,Steele Street,7310,-41.1793328,146.3429741
169,Steele Street,7310,-41.1793523,146.3431703
169,Steele Street,7310,-41.1795834,146.3430849
169,Steele Street,7310,-41.1797776,146.3430345
169,Steele Street,7310,-41.1795768,146.3428935
169,Steele Street,7310,-41.1795251,146.3426963
169,Steele Street,7310,-41.1797572,146.3426385
169,Steele Street,7310,-41.1797793,146.3428619
169,Steele Street,7310,-41.1796432,146.3426756
169,Steele Street,7310,-41.1799314,146.3425550
169,Steele Street,7310,-41.1800234,146.3429741
169,Steele Street,7310,-41.1799823,146.3427780
122,William Street,7310,-41.1787100,146.3509110
124,William Street,7310,-41.1785940,146.3510491
132,William Street,7310,-41.1778154,146.3512106
118,William Street,7310,-41.1791307,146.3509009
25,Jarrod Court,7310,-41.1857458,146.3352038
14B,Lawrence Drive,7310,-41.1859575,146.3336794
45,Hillcrest Road,7310,-41.1855966,146.3308272
23,Hillcrest Road,7310,-41.1837677,146.3310040
8,Aikman Place,7310,-41.1873121,146.3297683
6,Aikman Place,7310,-41.1874983,146.3297290
13-15,Forth Road,7310,-41.1828824,146.3180474
13-15,Forth Road,7310,-41.1829910,146.3183023
13-15,Forth Road,7310,-41.1830121,146.3177708
13-15,Forth Road,7310,-41.1831150,146.3179791
13-15,Forth Road,7310,-41.1832154,146.3181657
87,Mersey Main Road,7310,-41.2208159,146.3470634
