House number,Street name,Postal code,Latitude,Longitude
1,Места,6300,41.9378667,25.5368436
18,Васил Друмев,6300,41.9326723,25.5545377
2,Пловдивско шосе,6300,41.9326952,25.6034246
116,България,6300,41.9337323,25.5473622
38,Отец Паисий,6300,41.9319929,25.5542512
17,Георги Сава Раковски,6300,41.9378109,25.5547516
10,Георги Сава Раковски,6300,41.9342900,25.5555806
4,Спартак,6300,41.9337749,25.5530702
4,Стефан Стамболов,6300,41.9302334,25.5628468
6-8,Търговска,6300,41.9303928,25.5647843
10,Търговска,6300,41.9301353,25.5648541
10,Търговска,6300,41.9298641,25.5649209
10,Търговска,6300,41.9298185,25.5647148
7,Мадара,6300,41.9385226,25.5450914
7,Мадара,6300,41.9386045,25.5451558
15,Стефан Караджа,6300,41.9305688,25.5589119
5,Атон,6300,41.9311095,25.5594108
2,Шести септември,6300,41.9313709,25.5601162
4А,Марин Дринов,6300,41.9317563,25.5551310
1,Скопие,6300,41.9335891,25.5551046
2,Велико Търново,6300,41.9319467,25.5553496
14,Отец Паисий,6300,41.9319002,25.5557299
4,Марин Дринов,6300,41.9322191,25.5550217
23,Отец Паисий,6300,41.9317886,25.5553333
1,Христо Ботев,6300,41.9320039,25.5526857
16,Васил Друмев,6300,41.9324928,25.5546438
3А,Климент Охридски,6300,41.9322171,25.5547199
43,Отец Паисий,6300,41.9318837,25.5533590
9,Банска,6300,41.9348302,25.5423810
26А,Дунав,6300,41.9395690,25.5564552
26А,Дунав,6300,41.9395703,25.5563730
5,Георги Сава Раковски,6300,41.9346506,25.5551854
1,Георги Сава Раковски,6300,41.9337759,25.5553526
56,Георги Бенковски,6300,41.9402626,25.5442716
5,Княз Борис I,6300,41.9390555,25.5542409
7,Сан Стефано,6300,41.9320789,25.5599698
7,Сан Стефано,6300,41.9320379,25.5597772
7,Сан Стефано,6300,41.9319842,25.5595158
5,Сан Стефано,6300,41.9318089,25.5587977
7,Стефан Караджа,6300,41.9315297,25.5586312
12-18,Цар Калоян,6300,41.9309842,25.5618663
19-25,Цар Калоян,6300,41.9312795,25.5619951
87,България,6300,41.9296721,25.5605609
90,бул. Съединение,6300,41.9308930,25.5980137
90,бул. Съединение,6300,41.9308955,25.5983129
1В,Бузлуджа,6300,41.9286403,25.5625387
4,Марин Дринов,6300,41.9322339,25.5551238
33,България,6300,41.9345471,25.5496086
14А,бул. Освобождение,6300,41.9264800,25.5581375
11,Македония,6300,41.9287643,25.5576692
15,България,6300,41.9343165,25.5466798
13,Христо Ботев,6300,41.9319888,25.5499337
66,Васил Левски,6300,41.9471461,25.5595005
41,Цар Освободител,6300,41.9335206,25.5478859
22,Болярска,6300,41.9289790,25.5081272
1,Лом,6300,41.9219638,25.5590415
66,бул. Съединение,6300,41.9313386,25.5874684
4,Димитровградско шосе,6300,41.9494875,25.5575913
24,Георги Сава Раковски,6300,41.9363613,25.5555672
11,бул. Васил Левски,6300,41.9284983,25.5719069
12,Велико Търново,6300,41.9320912,25.5561454
8,Георги Сава Раковски,6300,41.9339198,25.5556181
12,бул. Съединение,6300,41.9344540,25.5555591
44,бул. Съединение,6300,41.9312978,25.5657919
55,Освобождение,6300,41.9205934,25.5611609
2,Александър Стамболийски,6300,41.9337612,25.5572854
5,Христо Ботев,6300,41.9321396,25.5512405
6,Георги Сава Раковски,6300,41.9336299,25.5558799
13,Белмекен,6300,41.9303134,25.5610707
"150, office 220",България,6300,41.9303283,25.5562904
1,Атанас Узунов,6300,41.9323930,25.5487315
12,Стефан Караджа,6300,41.9304890,25.5587062
59,Банска,6300,41.9361380,25.5352926
12,Велико Търново,6300,41.9320067,25.5558089
77,бул. Съединение,6304,41.9311152,25.6036623
51,Дунав,6303,41.9400653,25.5579007
23,Петко Рачев Славейков,6300,41.9313904,25.5493518
25,П.Р.Славейков,6300,41.9314074,25.5491921
2,Христо Ботев,6300,41.9324156,25.5517368
2,Средна Гора,6300,41.9355133,25.5528605
22,Георги Сава Раковски,6300,41.9357567,25.5557926
22а,бул. Съединение,6300,41.9330509,25.5593809
4,Климент Охридски,6300,41.9326880,25.5542550
4,Климент Охридски,6300,41.9327375,25.5540036
8,Хан Кубрат,6300,41.9314571,25.5535980
24,бул. Съединение,6300,41.9329905,25.5597100
10А,Георги Сава Раковски,6300,41.9343014,25.5557771
13,Марин Дринов,6300,41.9317039,25.5553905
49,бул. България,6300,41.9327741,25.5537181
43,бул. България,6300,41.9331365,25.5535671
17,Отец Паисий,6300,41.9317137,25.5558707
15,Марин Дринов,6300,41.9316616,25.5553967
7,Сан Стефано,6300,41.9320160,25.5595483
1А,Георги Сава Раковски,6300,41.9336094,25.5553059
18а,бул. Съединение,6300,41.9337189,25.5576365
43,Отец Паисий,6300,41.9318341,25.5534150
20,Васил Друмев,6300,41.9328373,25.5547984
4в,Кавала,6300,41.9337600,25.5497543
44,бул. Съединение,6300,41.9304739,25.5659120
15,бул. Васил Левски,6300,41.9307800,25.5693617
13,бул. Васил Левски,6300,41.9295496,25.5706541
196,България,6300,41.9296920,25.5701650
13,бул. Васил Левски,6300,41.9287612,25.5709430
13,бул. Васил Левски,6300,41.9290959,25.5711281
99,България,6300,41.9303998,25.5692130
56,бул. Съединение,6300,41.9324252,25.5767498
54,бул. Съединение,6300,41.9320939,25.5719598
6,Правда,6300,41.9344665,25.5730163
6,Правда,6300,41.9343235,25.5727913
12А,Македония,6300,41.9281480,25.5585757
11,България,6300,41.9341091,25.5453091
6-8,Търговска,6300,41.9303106,25.5647788
10,Търговска,6300,41.9299410,25.5648057
1,Стефан Стамболов,6300,41.9302164,25.5624751
2-6,Белмекен,6300,41.9305672,25.5621563
7,Лебеда,6300,41.9299776,25.5621776
12,Стефан Стамболов,6300,41.9307428,25.5623026
12-18А,Цар Калоян,6300,41.9309367,25.5618510
87,бул. България,6300,41.9297041,25.5605526
81,бул. България,6300,41.9303522,25.5589489
38,бул. Съединение,6300,41.9313315,25.5644149
56,Георги Бенковски,6300,41.9402146,25.5442802
54,Георги Кирков,6300,41.9397113,25.5538319
56,Георги Кирков,6300,41.9397029,25.5540885
3,Княз Борис I,6300,41.9386340,25.5541326
126,Македония,6300,41.9265878,25.5722059
1а,Беласица,6300,41.9292057,25.5669019
2,Иларион Макариоплоски,6300,41.9286032,25.5632562
32,Македония,6300,41.9270689,25.5613182
7,бул. Освобождение,6300,41.9280354,25.5583651
48,Драгоман,6300,41.9278372,25.5611499
166,бул. България,6300,41.9284613,25.5615837
166,бул. България,6300,41.9286524,25.5616216
152,бул. България,6300,41.9297945,25.5584041
68,Илинден,6300,41.9252853,25.5696976
14,Лонгоза,6300,41.9254965,25.5565372
14А,Освобождение,6300,41.9265517,25.5581023
51,Дунав,6300,41.9397967,25.5587368
28,бул. Георги Сава Раковски,6300,41.9393432,25.5553243
35,бул. Съединение,6300,41.9338817,25.5584632
18А,Цар Иван Асен II,6300,41.9376666,25.5545195
14,Странджа планина,6300,41.9371396,25.5544229
2,Цар Самуил,6300,41.9356308,25.5511256
33,България,6300,41.9345613,25.5496477
32,Св.св. Кирил и Методий,6300,41.9387691,25.5510172
10,Драгоман,6300,41.9298628,25.5563083
1,Веслец,6300,41.9313734,25.5490683
44,Добруджа,6300,41.9312057,25.5463063
28А,Захари Стоянов,6300,41.9313947,25.5414751
77,бул. Съединение,6300,41.9316553,25.6036162
77,бул. Съединение,6300,41.9316032,25.6043850
93,бул. България,6300,41.9300378,25.5638417
4,бул. Васил Левски,6300,41.9346007,25.5676906
62,бул. Съединение,6300,41.9306076,25.5828588
62,бул. Съединение,6300,41.9305292,25.5835468
68,бул. Съединение,6300,41.9314928,25.5900643
56,бул. Съединение,6300,41.9322057,25.5766419
54,бул. Съединение,6300,41.9326768,25.5715361
54,бул. Съединение,6300,41.9326705,25.5717375
54,бул. Съединение,6300,41.9326329,25.5723234
54,бул. Съединение,6300,41.9324144,25.5722790
54,бул. Съединение,6300,41.9324187,25.5728937
54,бул. Съединение,6300,41.9320993,25.5725442
54,бул. Съединение,6300,41.9318313,25.5726503
2А,бул. Васил Левски,6300,41.9282609,25.5728145
69,бул. Съединение,6300,41.9315947,25.5919880
69,бул. Съединение,6300,41.9320883,25.5901316
49,бул. Съединение,6300,41.9325638,25.5662790
47,бул. Съединение,6300,41.9329240,25.5682263
49,бул. Съединение,6300,41.9331597,25.5653190
7,Стефан Стамболов,6300,41.9347638,25.5625554
34,Дунав,6300,41.9388405,25.5608590
1,Пролетарска,6300,41.9381786,25.5604114
12,Стефан Караджа,6300,41.9305596,25.5586350
7,Стефан Караджа,6300,41.9314942,25.5586500
85,бул. България,6300,41.9298350,25.5603229
110,Банска,6300,41.9360597,25.5296267
54,Стара планина,6300,41.9383270,25.5465836
15,Дунав,6300,41.9397468,25.5543794
40,бул. Съединение,6300,41.9315150,25.5640078
112,Освобождение,6300,41.9166896,25.5613108
3,България,6300,41.9307772,25.5532046
44,бул. Съединение,6300,41.9310360,25.5654410
30,Оборище,6300,41.9375340,25.5459075
7,Стефан Стамболов,6300,41.9345766,25.5624969
106,Освобождение,6300,41.9175484,25.5612574
77,бул. Съединение,6300,41.9316144,25.6040035
96,бул. Съединение,6300,41.9307999,25.5996395
6,бул. Илинден,6300,41.9250138,25.5592257
6,бул. Илинден,6300,41.9250395,25.5591023
198,България,6300,41.9299393,25.5703348
126,Македония,6300,41.9264996,25.5722437
60,бул. Васил Левски,6300,41.9486759,25.5572061
19А,Дунав,6300,41.9404047,25.5561910
49,бул.Съединение,6300,41.9323338,25.5654613
1,Пловдивска,6300,41.9432063,25.5541960
