House number,Street name,Postal code,Latitude,Longitude
2,Bulevardul Independenței,130104,44.9263332,25.4635970
6,Aleea Sinaia,130004,44.9444635,25.4578882
17,Strada Bărăției,130002,44.9335923,25.4521970
181,Calea Domnească,130008,44.9322354,25.4584851
24,Strada Poet Gr. Alexandrescu,130034,44.9296657,25.4564896
185,Calea Domnească,130008,44.9308115,25.4600207
1,Strada Stelea,130018,44.9290235,25.4622320
181,Calea Domnească,130008,44.9305440,25.4606076
87,Calea Ploiești,130145,44.9154247,25.4903232
7,Strada Justiției,130017,44.9298785,25.4639260
187,Calea Domnească,130008,44.9311112,25.4605567
7,Strada Justiției,130017,44.9298367,25.4639581
6,Strada Muzeului,307008,44.9287858,25.4613244
6-8,Bulevardul Unirii,130082,44.9234415,25.4424677
6-8,Aleea Sinaia,130004,44.9459367,25.4571540
18,Strada Colonel Dumitru Băltărețu,307008,44.9228752,25.4567961
10,Strada Colonel Dumitru Băltărețu,307008,44.9233482,25.4570053
2,Strada Colonel Dumitru Băltărețu,307008,44.9241751,25.4571785
24,Strada Colonel Dumitru Băltărețu,307008,44.9226322,25.4566647
20,Strada Colonel Dumitru Băltărețu,307008,44.9227974,25.4567532
8,Strada Colonel Dumitru Băltărețu,307008,44.9235522,25.4570387
30,Strada Colonel Dumitru Băltărețu,307008,44.9224185,25.4564915
28,Strada Colonel Dumitru Băltărețu,307008,44.9225077,25.4565640
12,Strada Colonel Dumitru Băltărețu,307008,44.9232313,25.4569609
6,Strada Colonel Dumitru Băltărețu,307008,44.9237819,25.4571195
22,Strada Colonel Dumitru Băltărețu,307008,44.9227165,25.4567064
16,Strada Colonel Dumitru Băltărețu,307008,44.9229892,25.4568441
14,Strada Colonel Dumitru Băltărețu,307008,44.9231078,25.4568939
4,Strada Colonel Dumitru Băltărețu,307008,44.9240395,25.4571904
26,Strada Colonel Dumitru Băltărețu,307008,44.9225627,25.4566149
2,Strada Diaconu Coresi,307008,44.9316788,25.4496071
25,Strada Grigore Alexandrescu,130007,44.9278725,25.4563253
23,Strada Grigore Alexandrescu,130007,44.9277397,25.4563709
19,Strada Grigore Alexandrescu,130007,44.9274378,25.4565425
21,Strada Grigore Alexandrescu,130007,44.9275953,25.4564406
102B,Calea Câmpulung,130072,44.9277815,25.4412700
81,Strada Constantin Brâncoveanu,130114,44.9283647,25.4407215
18,Strada Constantin Brâncoveanu,130120,44.9295668,25.4437790
79,Strada Constantin Brâncoveanu,130114,44.9283969,25.4409412
102,Calea Câmpulung,130072,44.9276826,25.4416321
75,Strada Constantin Brâncoveanu,130114,44.9284672,25.4412630
11,Strada Constantin Brâncoveanu,130002,44.9286724,25.4407108
77,Strada Constantin Brâncoveanu,130114,44.9284254,25.4410672
102A,Calea Câmpulung,130072,44.9277358,25.4414229
7,Bulevardul Independenței,130180,44.9214795,25.4669968
77C,Calea Câmpulung,130072,44.9274167,25.4438100
67,Calea Câmpulung,130072,44.9273845,25.4467444
90,Calea Câmpulung,130072,44.9275839,25.4435661
69,Calea Câmpulung,130072,44.9273806,25.4465512
56,Calea Câmpulung,130092,44.9276104,25.4495955
49,Calea Câmpulung,130076,44.9274837,25.4491500
86,Calea Câmpulung,130072,44.9275918,25.4442917
82,Calea Câmpulung,130072,44.9275914,25.4448293
37,Calea Câmpulung,130092,44.9275118,25.4502768
45,Calea Câmpulung,130076,44.9274825,25.4495242
73,Calea Câmpulung,130072,44.9273825,25.4461301
66,Calea Câmpulung,130076,44.9275326,25.4476751
57,Calea Câmpulung,130076,44.9274269,25.4478682
65,Calea Câmpulung,130076,44.9274015,25.4469562
43,Calea Câmpulung,130076,44.9274902,25.4497204
55,Calea Câmpulung,130076,44.9274209,25.4480944
74,Calea Câmpulung,130076,44.9274946,25.4468677
98,Calea Câmpulung,130072,44.9276279,25.4424381
39,Calea Câmpulung,130092,44.9275098,25.4501642
94,Calea Câmpulung,130072,44.9275934,25.4429977
96,Calea Câmpulung,130072,44.9276199,25.4426490
80,Calea Câmpulung,130076,44.9275648,25.4457734
100,Calea Câmpulung,130072,44.9276428,25.4420241
41,Calea Câmpulung,130092,44.9275005,25.4499643
35,Calea Câmpulung,130092,44.9275496,25.4508159
54,Calea Câmpulung,130092,44.9276048,25.4498504
48,Calea Câmpulung,130092,44.9276409,25.4503841
70,Calea Câmpulung,130076,44.9275175,25.4472593
51,Calea Câmpulung,130076,44.9274813,25.4488231
61,Calea Câmpulung,130076,44.9274167,25.4473452
92,Calea Câmpulung,130072,44.9276032,25.4433581
78,Calea Câmpulung,130076,44.9275705,25.4460336
46,Calea Câmpulung,130092,44.9276484,25.4505987
88A,Calea Câmpulung,130072,44.9275839,25.4437778
52,Calea Câmpulung,130092,44.9276162,25.4500032
76,Calea Câmpulung,130076,44.9275345,25.4463688
75,Calea Câmpulung,130072,44.9274206,25.4458002
50,Calea Câmpulung,130092,44.9276314,25.4502446
62,Calea Câmpulung,130092,44.9275478,25.4478870
77D,Calea Câmpulung,130072,44.9274225,25.4434856
68,Calea Câmpulung,130076,44.9275250,25.4474364
71,Calea Câmpulung,130072,44.9273806,25.4463232
51B,Calea Câmpulung,130076,44.9274700,25.4486031
35A,Calea Câmpulung,130092,44.9275147,25.4503800
77B,Calea Câmpulung,130072,44.9274243,25.4439924
60,Calea Câmpulung,130092,44.9275686,25.4480506
47,Calea Câmpulung,130076,44.9274858,25.4493515
72,Calea Câmpulung,130076,44.9275042,25.4470716
53,Calea Câmpulung,130076,44.9274177,25.4482425
58,Calea Câmpulung,130092,44.9276029,25.4493676
88,Calea Câmpulung,130072,44.9275803,25.4439565
14,Calea Câmpulung,130092,44.9278745,25.4537663
18,Calea Câmpulung,130092,44.9278384,25.4534632
2A,Calea Câmpulung,130092,44.9282181,25.4555932
30,Calea Câmpulung,130092,44.9277435,25.4521302
6,Calea Câmpulung,130092,44.9282181,25.4545871
20,Calea Câmpulung,130092,44.9278269,25.4533157
36A,Calea Câmpulung,130092,44.9277132,25.4517993
2,Calea Câmpulung,130092,44.9281404,25.4558397
44,Calea Câmpulung,130092,44.9276789,25.4510198
4A,Calea Câmpulung,130092,44.9282504,25.4546863
40,Calea Câmpulung,130092,44.9276979,25.4513067
4,Calea Câmpulung,130092,44.9283036,25.4549029
28,Calea Câmpulung,130092,44.9277815,25.4526881
12,Calea Câmpulung,130092,44.9279979,25.4540238
34,Calea Câmpulung,130092,44.9277282,25.4519076
24,Calea Câmpulung,130092,44.9278023,25.4529644
2bis,Calea Câmpulung,130092,44.9281498,25.4560140
8,Calea Câmpulung,130092,44.9281596,25.4544433
38,Calea Câmpulung,130092,44.9276997,25.4514623
10,Calea Câmpulung,130092,44.9281135,25.4543335
42,Calea Câmpulung,130092,44.9276827,25.4511673
22,Calea Câmpulung,130092,44.9278250,25.4531762
32,Calea Câmpulung,130092,44.9277339,25.4519988
26,Calea Câmpulung,130092,44.9277890,25.4528034
36,Calea Câmpulung,130092,44.9277074,25.4515750
10A,Calea Câmpulung,130092,44.9280435,25.4541579
16,Calea Câmpulung,130092,44.9278554,25.4535974
1,Calea Câmpulung,130092,44.9279998,25.4559872
11,Calea Câmpulung,130092,44.9277281,25.4533759
31A,Calea Câmpulung,130092,44.9275668,25.4513792
21,Calea Câmpulung,130092,44.9276616,25.4524306
29,Calea Câmpulung,130092,44.9275821,25.4516709
27,Calea Câmpulung,130092,44.9276143,25.4519183
31,Calea Câmpulung,130092,44.9275745,25.4515347
13,Calea Câmpulung,130092,44.9277190,25.4532273
5,Calea Câmpulung,130092,44.9278859,25.4544557
3,Calea Câmpulung,130092,44.9279903,25.4558397
19,Calea Câmpulung,130092,44.9276804,25.4526854
7,Calea Câmpulung,130092,44.9278250,25.4541660
33,Calea Câmpulung,130092,44.9275573,25.4511753
15,Calea Câmpulung,130092,44.9277009,25.4529583
9,Calea Câmpulung,130092,44.9277282,25.4535679
25,Calea Câmpulung,130092,44.9276380,25.4521939
17,Calea Câmpulung,130092,44.9276904,25.4528249
23,Calea București,130141,44.9167148,25.4814363
25,Calea București,130141,44.9165307,25.4815570
33,Calea București,130141,44.9159172,25.4820344
29,Calea București,130141,44.9162059,25.4818145
27,Calea București,130141,44.9163218,25.4817394
31,Calea București,130141,44.9160806,25.4819057
234,Calea Domnească,130016,44.9273040,25.4660979
230,Calea Domnească,130016,44.9275585,25.4656366
232,Calea Domnească,130016,44.9274483,25.4658780
231,Calea Domnească,130016,44.9279201,25.4657665
235,Calea Domnească,130016,44.9274833,25.4665470
233,Calea Domnească,130016,44.9277397,25.4660911
233bis,Calea Domnească,130016,44.9278441,25.4658872
223,Calea Domnească,130016,44.9277451,25.4639357
218B,Calea Domnească,130016,44.9289272,25.4629042
229A,Calea Domnească,130016,44.9282828,25.4649887
225,Calea Domnească,130016,44.9285485,25.4643262
220,Calea Domnească,130016,44.9287252,25.4633659
219,Calea Domnească,130016,44.9289219,25.4632333
217,Calea Domnească,130016,44.9290129,25.4630885
223A,Calea Domnească,130016,44.9286453,25.4640392
218,Calea Domnească,130016,44.9291959,25.4623404
215,Calea Domnească,130016,44.9290775,25.4629409
209,Calea Domnească,130016,44.9293662,25.4623002
221,Calea Domnească,130016,44.9288142,25.4634706
211,Calea Domnească,130016,44.9292788,25.4625147
226,Calea Domnească,130016,44.9280731,25.4645825
229,Calea Domnească,130016,44.9281708,25.4652784
213,Calea Domnească,130016,44.9291896,25.4627049
205,Calea Domnească,130016,44.9294782,25.4621097
228,Calea Domnească,130016,44.9279611,25.4648909
224,Calea Domnească,130016,44.9283142,25.4641426
227,Calea Domnească,130016,44.9284573,25.4646319
1,Bulevardul Ion C. Brătianu,307008,44.9203855,25.4572530
1A,Bulevardul Ion C. Brătianu,307008,44.9205019,25.4574152
3,Bulevardul Ion C. Brătianu,307008,44.9206918,25.4575104
13,Aleea Sinaia,130064,44.9436457,25.4555920
6,Calea București,130135,44.9196798,25.4770534
29,Strada Constantin Brâncoveanu,130120,44.9311198,25.4512343
25,Strada Constantin Brâncoveanu,130120,44.9311312,25.4515830
27,Strada Constantin Brâncoveanu,130120,44.9311198,25.4514114
23,Strada Constantin Brâncoveanu,130120,44.9311349,25.4517198
31,Strada Constantin Brâncoveanu,130120,44.9311284,25.4507404
11,Strada Constantin Brâncoveanu,130002,44.9314443,25.4531012
21,Strada Constantin Brâncoveanu,130120,44.9311369,25.4520444
21A,Strada Constantin Brâncoveanu,130120,44.9311350,25.4518620
14,Bulevardul Ion C. Brătianu,307008,44.9192447,25.4599352
25,Bulevardul Ion C. Brătianu,307008,44.9182705,25.4648469
39,Strada Locotenent Stancu Ion,307008,44.9187510,25.4642861
29,Bulevardul Ion C. Brătianu,307008,44.9181091,25.4658364
37,Strada Locotenent Stancu Ion,307008,44.9189067,25.4642539
27,Bulevardul Ion C. Brătianu,307008,44.9181641,25.4654045
41,Strada Locotenent Stancu Ion,307008,44.9186028,25.4643451
27,Bulevardul Regele Carol I,130024,44.9213566,25.4569666
25,Bulevardul Regele Carol I,130024,44.9218238,25.4571503
28,Bulevardul Regele Carol I,130024,44.9215931,25.4568808
31,Bulevardul Regele Carol I,130024,44.9208505,25.4567882
29,Bulevardul Regele Carol I,130024,44.9210185,25.4568499
27A,Bulevardul Regele Carol I,130024,44.9211904,25.4569143
30,Bulevardul Regele Carol I,130024,44.9214392,25.4568164
32,Bulevardul Regele Carol I,130024,44.9213594,25.4567896
36,Bulevardul Regele Carol I,130024,44.9210574,25.4566903
34,Bulevardul Regele Carol I,130024,44.9212389,25.4567413
175,Calea Domnească,130003,44.9327909,25.4564970
204,Calea Domnească,130008,44.9308767,25.4592381
199,Calea Domnească,130016,44.9298190,25.4613972
200bis,Calea Domnească,130008,44.9312720,25.4581946
196,Calea Domnească,130008,44.9315377,25.4577255
200,Calea Domnească,130008,44.9313308,25.4580095
214,Calea Domnească,130016,44.9298609,25.4610264
189,Calea Domnească,130008,44.9304019,25.4604236
212,Calea Domnească,130016,44.9299447,25.4608451
195,Calea Domnească,130008,44.9299501,25.4611827
181,Calea Domnească,130008,44.9311311,25.4591281
201,Calea Domnească,130016,44.9297411,25.4615126
202,Calea Domnească,130008,44.9310400,25.4589269
178,Calea Domnească,130008,44.9328230,25.4559336
176,Calea Domnească,130008,44.9329065,25.4557485
210,Calea Domnească,130016,44.9301438,25.4606006
173,Calea Domnească,130003,44.9328459,25.4563332
180,Calea Domnească,130008,44.9327528,25.4561401
190,Calea Domnească,130008,44.9320882,25.4571433
208,Calea Domnească,130016,44.9303678,25.4602198
198,Calea Domnească,130008,44.9314558,25.4578594
203,Calea Domnească,130016,44.9296917,25.4616065
186,Calea Domnească,130008,44.9322686,25.4569153
188,Calea Domnească,130008,44.9321832,25.4570145
177,Calea Domnească,130003,44.9324394,25.4569823
194,Calea Domnească,130008,44.9317019,25.4575296
185,Calea Domnească,130008,44.9306545,25.4600105
216,Calea Domnească,130016,44.9297695,25.4612080
193,Calea Domnească,130008,44.9300962,25.4608876
194bis,Calea Domnească,130008,44.9316128,25.4576411
206,Calea Domnească,130008,44.9307495,25.4595385
79,Strada Tudor Vladimirescu,130083,44.9209391,25.4559732
7,Strada Profesor Nicolae Radian,307008,44.9267273,25.4684643
32,Strada Justiției,130017,44.9285635,25.4664044
249,Calea Domnească,130043,44.9267977,25.4677058
238,Calea Domnească,130043,44.9291592,25.4745937
15,Strada Justiției,130017,44.9289719,25.4657338
6,Strada Ion Alexandru Brătescu-Voinești,130015,44.9284782,25.4657314
26bis,Strada Justiției,130017,44.9287573,25.4659565
239,Calea Domnească,130043,44.9271148,25.4671238
1,Strada Ion Alexandru Brătescu-Voinești,130015,44.9283508,25.4655568
253,Calea Domnească,130043,44.9267065,25.4678855
250,Calea Domnească,130043,44.9267975,25.4673542
11,Strada Profesor Nicolae Radian,307008,44.9268489,25.4685367
243,Calea Domnească,130043,44.9269933,25.4673544
2,Strada Ion Alexandru Brătescu-Voinești,130015,44.9282597,25.4656024
14,Strada Profesor Nicolae Radian,307008,44.9267748,25.4686038
35,Strada Justiției,130017,44.9282465,25.4672761
244,Calea Domnească,130043,44.9269230,25.4671559
17,Strada Justiției,130017,44.9289224,25.4658626
10,Strada Profesor Nicolae Radian,307008,44.9261443,25.4677374
25,Strada Justiției,130017,44.9286168,25.4664849
30,Strada Justiției,130017,44.9286111,25.4662944
242,Calea Domnească,130043,44.9269800,25.4670621
24,Strada Justiției,130017,44.9289719,25.4655085
3,Strada Ion Alexandru Brătescu-Voinești,130015,44.9286908,25.4657231
33,Strada Justiției,130017,44.9283168,25.4671420
248,Calea Domnească,130043,44.9268261,25.4673142
241,Calea Domnească,130043,44.9270940,25.4672800
13,Strada Profesor Nicolae Radian,307008,44.9270691,25.4686977
8,Strada Ion Alexandru Brătescu-Voinești,130015,44.9285864,25.4657741
37,Strada Justiției,130017,44.9280698,25.4676972
12,Strada Profesor Nicolae Radian,307008,44.9266247,25.4685019
252,Calea Domnească,130043,44.9266781,25.4675824
8,Strada Profesor Nicolae Radian,307008,44.9260702,25.4675846
26,Strada Justiției,130017,44.9287154,25.4660718
246,Calea Domnească,130043,44.9268832,25.4672284
237,Calea Domnească,130043,44.9271812,25.4669843
28,Strada Justiției,130017,44.9286643,25.4661764
251,Calea Domnească,130043,44.9267559,25.4677889
4,Strada Ion Alexandru Brătescu-Voinești,130015,44.9283622,25.4656721
255,Calea Domnească,130043,44.9266496,25.4679767
236,Calea Domnească,130016,44.9272020,25.4666224
31,Strada Justiției,130017,44.9283869,25.4669972
16,Strada Profesor Nicolae Radian,307008,44.9269648,25.4687325
29,Strada Justiției,130017,44.9284497,25.4668416
240,Calea Domnească,130043,44.9270673,25.4669467
23,Strada Justiției,130017,44.9287040,25.4663051
27,Strada Justiției,130017,44.9285067,25.4667128
19,Strada Justiției,130017,44.9288542,25.4659967
21,Strada Justiției,130017,44.9288066,25.4661201
13,Bulevardul Tudor Vladimirescu,307008,44.9254095,25.4488660
28,Bulevardul Tudor Vladimirescu,307008,44.9261407,25.4474927
40,Bulevardul Tudor Vladimirescu,307008,44.9248581,25.4493980
11,Bulevardul Tudor Vladimirescu,307008,44.9254836,25.4487667
30,Bulevardul Tudor Vladimirescu,307008,44.9259598,25.4476011
14,Bulevardul Tudor Vladimirescu,307008,44.9269913,25.4456661
16,Bulevardul Tudor Vladimirescu,307008,44.9269059,25.4458914
12,Bulevardul Tudor Vladimirescu,307008,44.9270729,25.4454730
8,Bulevardul Tudor Vladimirescu,307008,44.9271870,25.4452128
36,Bulevardul Tudor Vladimirescu,307008,44.9250600,25.4491235
18,Bulevardul Tudor Vladimirescu,307008,44.9268679,25.4459880
24,Bulevardul Tudor Vladimirescu,307008,44.9266743,25.4464198
26,Bulevardul Tudor Vladimirescu,307008,44.9262413,25.4473613
38,Bulevardul Tudor Vladimirescu,307008,44.9249594,25.4492388
22,Bulevardul Tudor Vladimirescu,307008,44.9267407,25.4462803
6,Bulevardul Tudor Vladimirescu,307008,44.9272344,25.4451028
20,Bulevardul Tudor Vladimirescu,307008,44.9268035,25.4461462
44,Bulevardul Tudor Vladimirescu,307008,44.9247144,25.4496009
4,Bulevardul Tudor Vladimirescu,307008,44.9272952,25.4449526
42,Bulevardul Tudor Vladimirescu,307008,44.9247828,25.4494963
10,Bulevardul Tudor Vladimirescu,307008,44.9271395,25.4453389
85H,Strada Magrini,130004,44.9403253,25.4656141
14A,Bulevardul Ion C. Brătianu,130048,44.9190510,25.4598337
1A,Strada Luceafărului,130153,44.9136659,25.4729208
21,Strada Locotenent Stancu Ion,130105,44.9224608,25.4644883
6,Aleea Sinaia,130004,44.9436298,25.4577247
42,Strada Radu Popescu,307008,44.9343011,25.4475580
28A,Strada Tineretului,130029,44.9261233,25.4445419
32A,Strada Radu Popescu,307008,44.9324127,25.4462727
39A,Strada Căpitan Tudorică Popescu,130127,44.9344669,25.4456507
35,Strada Dinu Lipati,307008,44.9338452,25.4458969
28,Strada Radu Popescu,307008,44.9320115,25.4460652
37A,Strada Dinu Lipati,307008,44.9341936,25.4470003
36,Strada Radu Popescu,307008,44.9340156,25.4464434
43,Strada Radu Popescu,307008,44.9340880,25.4476886
37,Strada Dinu Lipati,307008,44.9341062,25.4467232
41,Strada Radu Popescu,307008,44.9345232,25.4474212
33C,Strada Radu Popescu,307008,44.9329001,25.4462961
39,Strada Dinu Lipati,307008,44.9343381,25.4459932
33A,Strada Radu Popescu,307008,44.9327349,25.4457380
33B,Strada Radu Popescu,307008,44.9328064,25.4460459
35A,Strada Dinu Lipati,307008,44.9339241,25.4461690
24A,Strada Radu Popescu,307008,44.9312690,25.4462165
32,Strada Radu Popescu,307008,44.9325132,25.4454597
9,Strada Diaconu Coresi,307008,44.9327907,25.4501374
70,Bulevardul Regele Carol I,130024,44.9178737,25.4540214
18,Bulevardul Unirii,130082,44.9224380,25.4445993
1x40,Bulevardul Unirii,130082,44.9222470,25.4440474
38,Strada Radu Popescu,307008,44.9337018,25.4468635
12,Strada Diaconu Coresi,307008,44.9324610,25.4490699
10,Strada Diaconu Coresi,307008,44.9322400,25.4501014
15,Strada Radu cel Mare,130111,44.9321686,25.4482603
45,Strada Radu Popescu,307008,44.9337809,25.4479426
9,Strada Diaconu Coresi,307008,44.9323583,25.4504733
12,Strada Diaconu Coresi,307008,44.9319585,25.4494529
43A,Strada Radu Popescu,307008,44.9345798,25.4480510
11,Strada Diaconu Coresi,307008,44.9326544,25.4493607
11,Strada Diaconu Coresi,307008,44.9321129,25.4497626
Bl. 13,Strada Diaconu Coresi,307008,44.9318383,25.4490875
34,Strada Radu Popescu,307008,44.9332912,25.4455619
14,Strada Radu cel Mare,130111,44.9324827,25.4480570
10,Strada Diaconu Coresi,307008,44.9327636,25.4497193
13,Strada Diaconu Coresi,307008,44.9323407,25.4486991
8,Strada Laminorului,130089,44.9145587,25.4429313
12,Strada Maior Spirescu,307008,44.9295372,25.4406634
4,Bulevardul Eroilor,130115,44.9301674,25.4401048
11,Bulevardul Eroilor,130115,44.9291514,25.4404780
36 A,Aleea Arcașilor,307008,44.9267892,25.4414837
39B,Bulevardul Unirii,130082,44.9275077,25.4402806
39A,Bulevardul Unirii,130082,44.9272732,25.4397836
1,Strada Locotenent Major Dragomirescu Liviu,130115,44.9300222,25.4406684
Bl. B02,Strada Constantin Brâncoveanu,130114,44.9292015,25.4418484
Bl. D01,Strada Constantin Brâncoveanu,130114,44.9289653,25.4414474
Bl. B01,Strada Constantin Brâncoveanu,130114,44.9293416,25.4422828
19,Strada Constantin Brâncoveanu,130120,44.9294784,25.4429434
13,Strada Maior Spirescu,307008,44.9294819,25.4413578
14,Strada Maior Spirescu,307008,44.9295151,25.4417475
15,Strada Maior Spirescu,307008,44.9296054,25.4420110
16,Strada Maior Spirescu,307008,44.9297021,25.4423065
183,Calea Domnească,130008,44.9310662,25.4596585
184,Calea Domnească,130008,44.9323298,25.4564752
60,Bulevardul Unirii,130082,44.9227382,25.4454474
67,Bulevardul Unirii,130082,44.9219100,25.4473121
65,Strada Moldovei,130077,44.9227884,25.4469081
79,Strada Doctor Marinescu Gheorghe,307008,44.9221737,25.4484731
80,Strada Doctor Marinescu Gheorghe,307008,44.9222884,25.4489471
23A,Strada Radu Popescu,307008,44.9307245,25.4460078
23B,Strada Radu Popescu,307008,44.9309688,25.4458483
23C,Strada Radu Popescu,307008,44.9311911,25.4456994
23D,Strada Radu Popescu,307008,44.9313996,25.4455653
23E,Strada Radu Popescu,307008,44.9316160,25.4454310
23F,Strada Radu Popescu,307008,44.9318271,25.4452889
29,Strada Radu Popescu,307008,44.9323535,25.4451067
30,Strada Radu Popescu,307008,44.9325513,25.4449707
31,Strada Radu Popescu,307008,44.9327882,25.4448093
24,Strada Udriște Năsturel,130132,44.9313664,25.4465019
25,Strada Udriște Năsturel,130132,44.9314962,25.4468857
26C,Strada Udriște Năsturel,130132,44.9321391,25.4469635
26B,Strada Udriște Năsturel,130132,44.9317652,25.4471415
26A,Strada Udriște Năsturel,130132,44.9314388,25.4474013
27,Strada Radu cel Mare,130111,44.9319083,25.4475305
18,Strada Radu cel Mare,130111,44.9313305,25.4480608
19,Strada Udriște Năsturel,130111,44.9311289,25.4480183
20,Strada Udriște Năsturel,130132,44.9309803,25.4475236
21,Strada Udriște Năsturel,130132,44.9308314,25.4470636
22,Strada Udriște Năsturel,130132,44.9306702,25.4465824
5,Strada Basarabiei,130071,44.9255102,25.4414804
1,Strada Basarabiei,130071,44.9260965,25.4415380
4,Strada Moldovei,130077,44.9263810,25.4430506
3,Strada Basarabiei,130071,44.9266064,25.4426643
81,Bulevardul Unirii,130082,44.9202203,25.4511877
100G,Bulevardul Unirii,130082,44.9230424,25.4435591
6,Strada Grigore Alexandrescu,130007,44.9279014,25.4567903
14A,Bulevardul Ion C. Brătianu,130048,44.9190477,25.4598248
167,Calea Domnească,130003,44.9331495,25.4558471
223,Calea Domnească,130016,44.9289359,25.4641012
21,Bulevardul Independenței,130104,44.9193309,25.4689926
245,Calea Domnească,130043,44.9270065,25.4675552
11,Bulevardul Eroilor,130115,44.9317279,25.4399138
40,Bulevardul Unirii,130082,44.9267015,25.4398801
9,Bulevardul Eroilor,130115,44.9324783,25.4400094
13,Bulevardul Eroilor,130115,44.9309216,25.4399478
42,Bulevardul Unirii,130082,44.9257995,25.4405990
38,Strada Arcașilor,307008,44.9262999,25.4408928
41,Bulevardul Unirii,130082,44.9262590,25.4402664
18,Strada Constantin Brâncoveanu,130114,44.9297253,25.4436499
2,Bulevardul Tudor Vladimirescu,307008,44.9205141,25.4557819
Bl. 48,Bulevardul Regele Carol I,130024,44.9201923,25.4560313
21,Bulevardul Tudor Vladimirescu,307008,44.9242181,25.4509478
19,Bulevardul Tudor Vladimirescu,307008,44.9245892,25.4504075
3,Bulevardul Tudor Vladimirescu,307008,44.9251705,25.4496748
17B,Strada Doctor Oprescu Dumitru,307008,44.9249790,25.4474255
Bl. 5,Strada Ion Ciorănescu,130158,44.9185324,25.4749714
Bl. 11,Strada George Cair,130158,44.9182496,25.4752713
F1A,Strada Vasile Voiculescu,130095,44.9242786,25.4492354
22,Strada George Cair,130066,44.9186617,25.4760968
17D,Strada Doctor Oprescu Dumitru,307008,44.9247315,25.4477781
17C,Strada Doctor Oprescu Dumitru,307008,44.9248570,25.4476040
17A,Strada Doctor Oprescu Dumitru,307008,44.9251185,25.4472443
Bl. 20,Strada Vasile Bendea,130066,44.9183587,25.4740710
4,Strada Ion Ciorănescu,130066,44.9190505,25.4756975
35,Strada Avram Iancu,130066,44.9214742,25.4718298
Bl. 10,Strada George Cair,130158,44.9180595,25.4749971
56,Strada Profesor Radu Gioglovan,130066,44.9210946,25.4740851
57,Strada Profesor Radu Gioglovan,130066,44.9207338,25.4746430
257,Calea Domnească,130043,44.9266231,25.4681462
40,Strada Laminorului,130089,44.9215997,25.4383694
10,Strada Vasile Bendea,130158,44.9172702,25.4761960
Bl. 8,Strada Radu de la Afumați,130066,44.9188434,25.4742468
48B,Strada Luceafărului,130145,44.9125717,25.4751865
bl. 47,Strada Petru Cercel,130145,44.9130237,25.4762648
31,Bulevardul Ion C. Brătianu,130145,44.9135652,25.4769192
bl. 60,Strada Soldat Nae Ion,307008,44.9149574,25.4771390
bl.59,Strada Soldat Nae Ion,307008,44.9147114,25.4768386
57C,Bulevardul Ion C. Brătianu,307008,44.9140688,25.4779049
57B,Bulevardul Ion C. Brătianu,307008,44.9143051,25.4778662
bl. 55,Strada Soldat Nae Ion,307008,44.9146612,25.4774599
57A,Bulevardul Ion C. Brătianu,307008,44.9142703,25.4775335
21,Bulevardul Independenței,130104,44.9195781,25.4694589
4,Aleea Trandafirilor,130051,44.9183429,25.4572186
72 - 73,Bulevardul Unirii,130082,44.9204466,25.4491694
17,Aleea Trandafirilor,130051,44.9185151,25.4592495
247,Calea Domnească,130043,44.9269749,25.4677751
25,Strada Maior Oprescu Adrian,130115,44.9314049,25.4421217
7,Strada Locotenent Major Dragomirescu Liviu,307008,44.9316427,25.4404797
5,Strada Locotenent Major Dragomirescu Liviu,307008,44.9310579,25.4404994
24,Strada Maior Oprescu Adrian,307008,44.9308998,25.4423616
22,Strada Preot Toma Georgescu,307008,44.9307080,25.4431793
9,Strada Locotenent Major Dragomirescu Liviu,307008,44.9321642,25.4405411
3,Strada Locotenent Major Dragomirescu Liviu,307008,44.9305428,25.4406203
11,Strada Locotenent Major Dragomirescu Liviu,307008,44.9326681,25.4405303
78,Strada Doctor Marinescu Gheorghe,130082,44.9214579,25.4501128
17,Strada 10 Mai,130180,44.9236233,25.4687241
21,Strada 10 Mai,130180,44.9234697,25.4685093
25,Strada 10 Mai,130180,44.9233810,25.4684446
27,Strada 10 Mai,130180,44.9232730,25.4683018
17,Bulevardul Tudor Vladimirescu,307008,44.9238890,25.4511852
13,Strada Constantin Brâncoveanu,130002,44.9311687,25.4528959
15,Strada Constantin Brâncoveanu,130120,44.9311281,25.4527395
19,Strada Ana Ipătescu,130120,44.9309072,25.4524511
P 9,Bulevardul Ion C. Brătianu,307008,44.9195721,25.4582166
90,Bulevardul Tudor Vladimirescu,130083,44.9215952,25.4538432
86,Bulevardul Tudor Vladimirescu,130083,44.9217277,25.4536950
45A,Strada Bucovinei,130076,44.9247211,25.4422157
45B,Strada Bucovinei,130076,44.9249065,25.4420800
48A,Strada Moldovei,130077,44.9253858,25.4436105
48B,Strada Bucovinei,130076,44.9254738,25.4433544
47A,Strada Moldovei,130077,44.9251541,25.4432752
47B,Strada Bucovinei,130076,44.9252416,25.4430167
46A,Strada Moldovei,130077,44.9249082,25.4429319
46B,Strada Bucovinei,130076,44.9249952,25.4426774
56A,Strada Soldat Nae Ion,307008,44.9143784,25.4771356
48D,Strada Petru Cercel,130145,44.9127261,25.4757160
48C,Strada Petru Cercel,130145,44.9126148,25.4754603
25A,Strada Doctor Oprescu Dumitru,307008,44.9251883,25.4463505
25B,Strada Doctor Oprescu Dumitru,307008,44.9249600,25.4462745
24B,Strada Doctor Oprescu Dumitru,307008,44.9249704,25.4467645
24A,Strada Doctor Oprescu Dumitru,307008,44.9247990,25.4467115
23A,Strada Doctor Oprescu Dumitru,307008,44.9247211,25.4471226
23B,Strada Doctor Oprescu Dumitru,307008,44.9245422,25.4470829
22B,Strada Doctor Oprescu Dumitru,307008,44.9244621,25.4474964
22A,Strada Doctor Oprescu Dumitru,307008,44.9242874,25.4474491
21A,Strada Doctor Oprescu Dumitru,307008,44.9242092,25.4478746
20B,Strada Doctor Oprescu Dumitru,307008,44.9239561,25.4482521
20A,Strada Doctor Oprescu Dumitru,307008,44.9237835,25.4482008
21B,Strada Doctor Oprescu Dumitru,307008,44.9240374,25.4478210
19A,Strada Vasile Voiculescu,130095,44.9235958,25.4489237
19B,Strada Vasile Voiculescu,130095,44.9232953,25.4485992
19C,Strada Vasile Voiculescu,130095,44.9230632,25.4481770
54C,Strada Nicolin Ion,307008,44.9148515,25.4777427
54A,Strada Nicolin Ion,307008,44.9143374,25.4782573
54B,Strada Nicolin Ion,307008,44.9146383,25.4779836
50B,Bulevardul Ion C. Brătianu,307008,44.9137770,25.4779214
50A,Bulevardul Ion C. Brătianu,307008,44.9138556,25.4776347
44A,Bulevardul Unirii,130082,44.9242859,25.4420853
44B,Bulevardul Unirii,130082,44.9244360,25.4418814
44C,Bulevardul Unirii,130082,44.9246011,25.4416993
44D,Bulevardul Unirii,130082,44.9247512,25.4414953
44E,Bulevardul Unirii,130082,44.9249276,25.4413295
44F,Bulevardul Unirii,130082,44.9250778,25.4411255
66C,Strada Moldovei,130077,44.9230961,25.4464640
66A,Strada Moldovei,130077,44.9228524,25.4460666
66D,Strada Moldovei,130077,44.9232300,25.4466506
66B,Strada Moldovei,130077,44.9229854,25.4462520
58C,Strada Moldovei,130077,44.9238444,25.4453670
58A,Strada Moldovei,130077,44.9236007,25.4449697
58D,Strada Moldovei,130077,44.9239782,25.4455535
58B,Strada Moldovei,130077,44.9237337,25.4451550
53B,Strada Moldovei,130077,44.9236602,25.4456298
53D,Strada Moldovei,130077,44.9234164,25.4452325
53A,Strada Moldovei,130077,44.9237940,25.4458164
53C,Strada Moldovei,130077,44.9235495,25.4454178
54C,Strada Moldovei,130077,44.9234703,25.4458980
54A,Strada Moldovei,130077,44.9232265,25.4455008
54D,Strada Moldovei,130077,44.9236041,25.4460846
54B,Strada Moldovei,130077,44.9233597,25.4456860
55A,Strada Moldovei,130077,44.9234164,25.4463723
55B,Strada Moldovei,130077,44.9232825,25.4461857
55C,Strada Moldovei,130077,44.9231718,25.4459737
55D,Strada Moldovei,130077,44.9230388,25.4457884
51E,Bulevardul Unirii,130082,44.9238545,25.4430552
51D,Bulevardul Unirii,130082,44.9237031,25.4432618
51C,Bulevardul Unirii,130082,44.9235848,25.4435152
51B,Bulevardul Unirii,130082,44.9234750,25.4437834
51A,Bulevardul Unirii,130082,44.9233556,25.4440349
30C,Strada Tineretului,130029,44.9268278,25.4442682
30A,Strada Tineretului,130029,44.9265537,25.4438960
30D,Strada Tineretului,130029,44.9269646,25.4444540
30B,Strada Tineretului,130029,44.9266907,25.4440821
29D,Strada Tineretului,130029,44.9263429,25.4442179
29A,Strada Tineretului,130029,44.9267539,25.4447759
29C,Strada Tineretului,130029,44.9264799,25.4444040
29B,Strada Tineretului,130029,44.9266170,25.4445901
28D,Strada Tineretului,130029,44.9265343,25.4450999
28C,Strada Tineretului,130029,44.9263974,25.4449141
28B,Strada Tineretului,130029,44.9262604,25.4447281
F1B,Strada Vasile Voiculescu,130095,44.9244264,25.4494456
63C,Strada Transilvaniei,130030,44.9241244,25.4445399
63A,Strada Transilvaniei,130030,44.9238208,25.4442282
63D,Strada Transilvaniei,130030,44.9242582,25.4447265
63B,Strada Transilvaniei,130030,44.9239539,25.4444135
61C,Strada Transilvaniei,130030,44.9245080,25.4439956
61A,Strada Transilvaniei,130030,44.9242045,25.4436837
61D,Strada Transilvaniei,130030,44.9246419,25.4441821
61B,Strada Transilvaniei,130030,44.9243375,25.4438691
62B,Strada Transilvaniei,130030,44.9243067,25.4442745
62D,Strada Transilvaniei,130030,44.9240032,25.4439626
62A,Strada Transilvaniei,130030,44.9244405,25.4444610
62C,Strada Transilvaniei,130030,44.9241363,25.4441480
57B,Strada Transilvaniei,130030,44.9239329,25.4448083
57D,Strada Transilvaniei,130030,44.9236293,25.4444964
57A,Strada Transilvaniei,130030,44.9240667,25.4449948
57C,Strada Transilvaniei,130030,44.9237624,25.4446818
59A,Bulevardul Unirii,130082,44.9232664,25.4445094
59B,Bulevardul Unirii,130082,44.9232207,25.4446357
64A,Bulevardul Unirii,130082,44.9223777,25.4463641
64B,Bulevardul Unirii,130082,44.9223322,25.4464905
69A,Bulevardul Unirii,130082,44.9213738,25.4488881
69B,Bulevardul Unirii,130082,44.9213282,25.4490145
71A,Bulevardul Unirii,130082,44.9211306,25.4494487
71B,Bulevardul Unirii,130082,44.9210851,25.4495750
70A,Bulevardul Unirii,130082,44.9208610,25.4500656
70B,Bulevardul Unirii,130082,44.9208154,25.4501920
68B,Bulevardul Unirii,130082,44.9215917,25.4483754
68A,Bulevardul Unirii,130082,44.9216373,25.4482491
52A,Strada Moldovei,130077,44.9249755,25.4440114
52B,Strada Moldovei,130077,44.9248438,25.4438312
52C,Strada Moldovei,130077,44.9247114,25.4436498
52D,Strada Moldovei,130077,44.9245767,25.4434655
49B,Strada Bucovinei,130076,44.9244995,25.4427088
49A,Strada Bucovinei,130076,44.9245452,25.4425824
50B,Bulevardul Unirii,130082,44.9240087,25.4427624
50A,Bulevardul Unirii,130082,44.9240542,25.4426361
Bl.4C,Bulevardul Tudor Vladimirescu,307008,44.9248210,25.4507228
Bl.4B,Bulevardul Tudor Vladimirescu,307008,44.9246479,25.4509406
Bl.4A,Bulevardul Tudor Vladimirescu,307008,44.9244839,25.4511828
11,Aleea Trandafirilor,130051,44.9182445,25.4613153
14,Bulevardul Ion C. Brătianu,307008,44.9202841,25.4597684
74,Strada Colonel Dumitru Băltărețu,307008,44.9195359,25.4527552
13E,Bulevardul Ion C. Brătianu,307008,44.9196139,25.4612969
28-30,Strada Liniștei,130073,44.9246025,25.4548924
17,Strada Ana Ipătescu,130120,44.9309783,25.4525627
165,Calea Domnească,130003,44.9332405,25.4557408
182,Calea Domnească,130008,44.9325187,25.4563241
NR 33,Strada 10 Mai,130180,44.9230344,25.4681191
7,Bulevardul Regele Carol I,130024,44.9232930,25.4585950
16,Strada Laminorului,130089,44.9178068,25.4410875
16,Strada Laminorului,130089,44.9201908,25.4407777
"159,",Calea Domnească,130167,44.9366638,25.4504084
6,Șoseaua Găești,130087,44.9149661,25.4504808
6,Bulevardul Regele Ferdinand,130026,44.9115767,25.4636704
88,Bulevardul Tudor Vladimirescu,130083,44.9216689,25.4537420
10,Strada Vasile Bendea,130158,44.9173509,25.4764069
17bis,Strada Radu de la Afumați,130150,44.9176544,25.4727640
52,Strada Laminorului,130089,44.9220902,25.4348571
16,Strada Laminorului,130089,44.9194930,25.4383889
223,Calea Domnească,130016,44.9290930,25.4640704
2C,Aleea Mănăstirea Dealu,130004,44.9408023,25.4600175
1,Strada Mihai Bravu,130004,44.9412550,25.4587521
13B,Bulevardul Ion C. Brătianu,130048,44.9198739,25.4591294
19,Bulevardul Tudor Vladimirescu,307008,44.9239505,25.4511708
