House number,Street name,Postal code,Latitude,Longitude
39,улица Чкалова,655017,53.7276917,91.4508209
118,улица Дзержинского,655017,53.7172090,91.4302383
120,улица Дзержинского,655017,53.7171729,91.4298823
126,улица Дзержинского,655017,53.7171230,91.4293942
128,улица Дзержинского,655017,53.7170876,91.4290598
135,Хакасская улица,655017,53.7179915,91.4295517
216,улица Чертыгашева,655017,53.7235406,91.4250621
206,улица Богдана Хмельницкого,655017,53.7250059,91.4268717
208,улица Богдана Хмельницкого,655017,53.7249679,91.4266415
71/192,улица Ленинского Комсомола,655017,53.7252905,91.4289671
73,улица Ленинского Комсомола,655017,53.7256002,91.4287846
148,улица Тараса Шевченко,655003,53.7351383,91.4532301
194,улица Чертыгашева,655017,53.7240247,91.4284461
198,улица Чертыгашева,655017,53.7239593,91.4278461
202,улица Чертыгашева,655017,53.7239268,91.4274788
206,улица Чертыгашева,655017,53.7238898,91.4270708
227,улица Богдана Хмельницкого,655017,53.7245142,91.4286322
64,Трудовая улица,655017,53.7242140,91.4266855
188,улица Богдана Хмельницкого,655017,53.7252414,91.4302175
190,улица Богдана Хмельницкого,655017,53.7251834,91.4298213
19А,улица Итыгина,655004,53.7255049,91.4004442
19В,улица Итыгина,655004,53.7247258,91.3996098
23Б,улица Итыгина,655004,53.7270332,91.4008231
31,улица Итыгина,655004,53.7303244,91.4029657
33,улица Итыгина,655004,53.7299300,91.4018230
10А,улица Итыгина,655004,53.7181266,91.4033404
22В,улица Итыгина,655004,53.7216299,91.4038661
26Е,улица Итыгина,655004,53.7224386,91.4059064
287А,улица Богдана Хмельницкого,655004,53.7224231,91.4083168
63,улица Карла Маркса,655017,53.7296967,91.4370474
112 к1 оф127Н,улица Кирова,655017,53.7280510,91.4377704
6,Красноярская улица,655012,53.7170220,91.4783040
26,Хакасская улица,655012,53.7221874,91.4639994
6А,Красноярская улица,655012,53.7170296,91.4762421
62,Хакасская улица,655017,53.7205369,91.4476530
58,улица Ивана Ярыгина,655001,53.7289862,91.4314866
39,улица Гагарина,655017,53.7091915,91.4294455
67,проспект Ленина,655019,53.7216753,91.4425056
12,улица Стофато,655009,53.6987575,91.4030997
14,улица Стофато,655009,53.6988810,91.4004642
14А,улица Стофато,655009,53.6989291,91.3999275
3,улица Кошурникова,655011,53.7068395,91.4033050
63,улица Карла Маркса,655017,53.7299644,91.4372505
65Г,улица Мира,665009,53.6999496,91.4322817
30,Торговая улица,655010,53.7437877,91.4294884
30,Торговая улица,655010,53.7439423,91.4295952
143,улица Павших Коммунаров,655018,53.7101901,91.4447846
143,улица Павших Коммунаров,655018,53.7101909,91.4447994
6,улица Комарова,655010,53.7391813,91.4394381
6,улица Комарова,655010,53.7392253,91.4392348
23,улица Герцена,655018,53.7131642,91.4643597
22,проспект Дружбы Народов,655017,53.7403183,91.4313588
39,улица Чкалова,655017,53.7268718,91.4499421
16,Флотская улица,655015,53.7111948,91.5071649
10,улица Катанова,655012,53.7264022,91.4729615
43,Трудовая улица,655017,53.7218000,91.4268097
179,улица Дзержинского,655017,53.7152926,91.4143688
96,улица Маршала Жукова,655003,53.7456644,91.4563452
72,улица Тараса Шевченко,655017,53.7222967,91.4586708
8,Торговая улица,655010,53.7449150,91.4370180
6,Красноярская улица,655012,53.7170214,91.4769948
3,Запорожская улица,655012,53.7171087,91.4766199
16,улица Вяткина,655017,53.7262477,91.4467950
41,проспект Ленина,655017,53.7229542,91.4555973
69,проспект Ленина,655017,53.7216460,91.4399797
23,проспект Ленина,655017,53.7236822,91.4659898
7,улица Маршала Жукова,655012,53.7216449,91.4618479
143,улица Тельмана,655001,53.7300242,91.4320377
63,улица Карла Маркса,655017,53.7298940,91.4372745
113,улица Пушкина,655017,53.7172604,91.4505173
101,улица Кирова,655010,53.7264624,91.4355837
101,улица Кирова,655010,53.7264645,91.4350198
101,улица Кирова,655010,53.7262603,91.4350542
101,улица Кирова,655010,53.7263420,91.4350609
8,улица Маршала Жукова,655012,53.7205146,91.4630737
8,улица Маршала Жукова,655012,53.7200972,91.4631860
32,Хакасская улица,655017,53.7218235,91.4607163
68,улица Тараса Шевченко,655017,53.7214807,91.4580609
1,улица Пушкина,655012,53.7169588,91.4788653
78,улица Будённого,655015,53.7070087,91.5097432
65,улица Крылова,655001,53.7322757,91.4255009
"260Б, помещение 1Н",Аскизская улица,655009,53.6875603,91.3855414
143 пом120Н,улица Тельмана,655001,53.7300647,91.4324960
23,улица Герцена,655018,53.7133065,91.4643150
7Б,улица Торосова,655001,53.7377022,91.4180001
1,улица Вознесения,655009,53.6946284,91.4089186
31А,улица Некрасова,655017,53.7245827,91.4220529
66Б,улица Крылова,655003,53.7363496,91.4461181
64,улица Тараса Шевченко,655017,53.7211179,91.4581418
3,Торговая улица,655010,53.7427406,91.4370336
59,проспект Ленина,655017,53.7223807,91.4471457
16,улица Вяткина,655017,53.7258924,91.4469129
96,улица Пушкина,655017,53.7170347,91.4378044
12,улица Комарова,655010,53.7409018,91.4385229
20,улица Щетинкина,655017,53.7231198,91.4439371
115,улица Маршала Жукова,655003,53.7456365,91.4542335
101,улица Маршала Жукова,655003,53.7421502,91.4554478
39 к2,улица Чкалова,655017,53.7277453,91.4515464
51,улица Чертыгашева,655017,53.7254425,91.4539137
59,улица Чертыгашева,655017,53.7249944,91.4515234
63,улица Чертыгашева,655017,53.7251150,91.4502597
72,проспект Ленина,655017,53.7238633,91.4497396
76,проспект Ленина,655017,53.7244984,91.4488528
64,проспект Ленина,655017,53.7234841,91.4543629
13,проспект Дружбы Народов,655001,53.7374333,91.4320019
19,проспект Дружбы Народов,655001,53.7379433,91.4306076
15,проспект Дружбы Народов,655001,53.7381039,91.4317008
7,проспект Дружбы Народов,655001,53.7374731,91.4331675
17,проспект Дружбы Народов,655001,53.7373635,91.4306497
5,проспект Дружбы Народов,655001,53.7367723,91.4332371
6,улица Лермонтова,655016,53.7379202,91.4279150
59,проспект Дружбы Народов,655131,53.7512521,91.3997519
158,улица Богдана Хмельницкого,655017,53.7257010,91.4346068
4,улица Торосова,655001,53.7361952,91.4182420
14,проспект Дружбы Народов,655010,53.7393646,91.4369933
26,улица Щетинкина,655017,53.7246134,91.4437245
143,улица Тельмана,655001,53.7299727,91.4325229
89,улица Тельмана,655017,53.7299675,91.4384674
25,улица Пушкина,655012,53.7181377,91.4717710
23,улица Пушкина,655012,53.7186489,91.4729266
44,Трудовая улица,655017,53.7206293,91.4280155
46,Трудовая улица,655017,53.7216852,91.4283868
69,Советская улица,655017,53.7194551,91.4306198
15,Трудовая улица,655017,53.7185041,91.4271758
37,улица Ленинского Комсомола,655017,53.7228498,91.4296440
120,улица Пушкина,655017,53.7162636,91.4303344
41,Трудовая улица,655017,53.7212388,91.4270129
35,улица Ленинского Комсомола,655017,53.7220534,91.4298549
43,Трудовая улица,655017,53.7221594,91.4266758
101,проспект Ленина,655017,53.7208686,91.4262806
124,улица Пушкина,655017,53.7160997,91.4278934
4,улица Некрасова,655017,53.7163917,91.4267033
13,Трудовая улица,655017,53.7173940,91.4282506
11,Трудовая улица,655017,53.7168844,91.4277156
9,улица Ленинского Комсомола,655017,53.7167201,91.4314244
143,Хакасская улица,655017,53.7177116,91.4271188
9А,улица Ленинского Комсомола,655017,53.7169237,91.4300272
11,улица Ленинского Комсомола,655017,53.7173743,91.4312585
13,улица Ленинского Комсомола,655017,53.7180364,91.4310532
118,улица Пушкина,655017,53.7162802,91.4312284
31,улица Ленинского Комсомола,655017,53.7203854,91.4303331
75,Советская улица,655017,53.7190469,91.4273484
103,проспект Ленина,655017,53.7200625,91.4255537
6,улица Некрасова,655017,53.7171654,91.4264280
122,улица Пушкина,655017,53.7162255,91.4291286
45,Трудовая улица,655017,53.7219036,91.4259690
46,Советская улица,655017,53.7197979,91.4283072
126,улица Пушкина,655017,53.7159207,91.4272193
44,Советская улица,655017,53.7199438,91.4296750
15,улица Ленинского Комсомола,655017,53.7188830,91.4308379
136,Советская улица,655004,53.7184970,91.4140551
12,улица Некрасова,655017,53.7212299,91.4253167
48,Советская улица,655017,53.7197515,91.4265254
131,улица Чертыгашева,655017,53.7224264,91.4254039
73,Советская улица,655017,53.7191820,91.4286134
68,улица Тараса Шевченко,655017,53.7215573,91.4589294
32,Хакасская улица,655017,53.7218273,91.4607868
8,улица Маршала Жукова,655012,53.7204862,91.4630820
4,улица Маршала Жукова,655012,53.7197595,91.4632979
9,улица Маршала Жукова,655017,53.7221074,91.4617609
6,улица Маршала Жукова,655012,53.7201261,91.4631854
62,улица Тараса Шевченко,655017,53.7201886,91.4586732
65,улица Крылова,655001,53.7323504,91.4261599
189,улица Дзержинского,655004,53.7145134,91.4090223
1,улица Володарского,655017,53.7151928,91.4152382
30,улица Щорса,655012,53.7209712,91.4676084
35,проспект Ленина,655017,53.7233407,91.4576516
33,проспект Ленина,655017,53.7233770,91.4584210
36,улица Пушкина,655012,53.7194095,91.4636759
28,улица Щорса,655012,53.7217253,91.4671549
11К,улица Кравченко,655004,53.7179219,91.4091586
11Р,улица Кравченко,655004,53.7196032,91.4091535
11,улица Кравченко,655004,53.7183979,91.4104784
11Л,улица Кравченко,655004,53.7195290,91.4073602
197В к2,улица Чертыгашева,655004,53.7215180,91.4096676
11Н,улица Кравченко,655004,53.7190770,91.4088220
12,улица Итыгина,655004,53.7192292,91.4031703
41,улица Володарского,655004,53.7212696,91.4133049
34,улица Гайдара,655004,53.7212551,91.4111554
44,улица Добролюбова,655004,53.7215095,91.4122600
40,улица Добролюбова,655004,53.7211212,91.4123588
46,улица Добролюбова,655004,53.7217078,91.4121804
150,Советская улица,655004,53.7174652,91.4056232
191,улица Чертыгашева,655004,53.7216001,91.4114006
78,Партизанская улица,655004,53.7209591,91.4129109
47,улица Володарского,655004,53.7218022,91.4131957
22Д,улица Итыгина,655004,53.7222005,91.4042922
20Б,улица Итыгина,655004,53.7209093,91.4051926
34,улица Добролюбова,655004,53.7201469,91.4126866
80,Партизанская улица,655004,53.7208857,91.4124721
45,улица Володарского,655004,53.7215633,91.4132445
197А,улица Чертыгашева,655004,53.7210375,91.4106005
37,улица Володарского,655004,53.7204614,91.4135280
26,улица Итыгина,655004,53.7226013,91.4051472
43,улица Володарского,655004,53.7213828,91.4133312
22,улица Итыгина,655004,53.7223087,91.4023508
83Б,Партизанская улица,655004,53.7202630,91.4115570
18,улица Итыгина,655004,53.7199888,91.4042419
20АК9,улица Итыгина,65504,53.7208381,91.4031849
254,улица Кирова,655004,53.7233976,91.4034012
278,улица Чертыгашева,655004,53.7220503,91.4105268
252,улица Кирова,655004,53.7235682,91.4045999
250,улица Кирова,655004,53.7236097,91.4052435
274,улица Чертыгашева,655004,53.7221243,91.4112834
34А,улица Кравченко,655004,53.7222613,91.4095932
280,улица Чертыгашева,655004,53.7220025,91.4100490
37,улица Гайдара,655004,53.7225553,91.4103832
276,улица Чертыгашева,655004,53.7221253,91.4109079
53,улица Володарского,655004,53.7228230,91.4128817
53,улица Добролюбова,655004,53.7224822,91.4115874
51,улица Володарского,655004,53.7226661,91.4128708
277,улица Богдана Хмельницкого,655004,53.7229124,91.4106654
40,улица Гайдара,655004,53.7223967,91.4107749
275,улица Богдана Хмельницкого,655004,53.7229397,91.4110093
269,улица Богдана Хмельницкого,655004,53.7230576,91.4121437
271,улица Богдана Хмельницкого,655004,53.7230187,91.4118218
267,улица Богдана Хмельницкого,655004,53.7231197,91.4127985
272,улица Чертыгашева,655004,53.7221913,91.4116599
100А,улица Кирова,655017,53.7288839,91.4454713
66,проспект Ленина,655017,53.7236328,91.4526156
41,проспект Ленина,655017,53.7229384,91.4555424
62,проспект Ленина,655017,53.7238228,91.4554238
65А,улица Чертыгашева,655017,53.7250234,91.4480036
52,улица Чехова,655017,53.7298323,91.4476334
54,улица Чехова,655017,53.7294260,91.4477088
49,улица Чкалова,655017,53.7299936,91.4506320
83Б,улица Тараса Шевченко,655017,53.7251429,91.4548357
68А,проспект Ленина,655017,53.7240106,91.4519138
65,улица Чертыгашева,655017,53.7251327,91.4489020
47,улица Вяткина,655017,53.7296059,91.4453449
39,улица Чкалова,655017,53.7273548,91.4493049
24,улица Чкалова,655017,53.7241157,91.4546864
6,улица Гагарина,655002,53.7112145,91.4399451
198,Аскизская улица,655009,53.6957344,91.4062115
28,улица Комарова,655010,53.7456744,91.4395496
22,Торговая улица,655010,53.7444964,91.4319219
5-2,Северный проезд,655010,53.7458087,91.4377618
4,Торговая улица,655010,53.7440834,91.4381881
30,улица Комарова,655010,53.7460691,91.4397891
3,Северный проезд,655010,53.7455383,91.4387143
6,Торговая улица,655010,53.7449034,91.4377102
8,Торговая улица,655010,53.7449222,91.4369691
5-1,Северный проезд,655010,53.7458237,91.4370042
20,Торговая улица,655010,53.7448727,91.4319344
30,Торговая улица,655010,53.7445457,91.4294872
4,Торговая улица,655010,53.7436512,91.4377062
2-2,Торговая улица,655010,53.7441227,91.4388950
22,улица Кати Перекрещенко,655010,53.7440869,91.4361298
44,проспект Дружбы Народов,655016,53.7441972,91.4224944
92,улица Павших Коммунаров,655018,53.7129077,91.4652188
26,улица Кати Перекрещенко,655010,53.7457704,91.4362194
28,Торговая улица,655010,53.7441056,91.4301123
12,Торговая улица,655010,53.7436090,91.4361186
24,улица Кати Перекрещенко,655010,53.7448420,91.4362063
78,улица Щетинкина,655003,53.7334867,91.4409897
76,улица Щетинкина,655003,53.7326070,91.4412217
80,улица Щетинкина,655003,53.7342292,91.4407705
41,улица Крылова,655003,53.7347402,91.4408012
70,улица Щетинкина,655003,53.7317601,91.4423407
67,улица Щетинкина,655017,53.7322129,91.4392514
33,улица Вяткина,655017,53.7238409,91.4462456
1,улица Пушкина,655012,53.7166373,91.4789394
8,Красноярская улица,655012,53.7173349,91.4747236
21,улица Пушкина,655012,53.7180141,91.4740865
67А,улица Чертыгашева,655017,53.7249399,91.4464892
56,улица Пушкина,655017,53.7183594,91.4513158
82,проспект Ленина,655017,53.7233268,91.4446249
78,проспект Ленина,655017,53.7229119,91.4468892
19,улица Пушкина,655012,53.7186467,91.4750387
35,улица Вяткина,655017,53.7246457,91.4465703
70,проспект Ленина,655017,53.7232516,91.4500522
29,улица Вяткина,655017,53.7237668,91.4468588
80,проспект Ленина,655017,53.7228387,91.4456066
6,Весенний проезд,655003,53.7376306,91.4540548
3,улица Баумана,655003,53.7384144,91.4598510
34,улица Крылова,655003,53.7373717,91.4609392
48,улица Маршала Жукова,655003,53.7369773,91.4585235
42,улица Крылова,655003,53.7369948,91.4591635
37,Катерная улица,655003,53.7394825,91.4618015
9,улица Баумана,655003,53.7383124,91.4584019
99,улица Маршала Жукова,655003,53.7385318,91.4564485
36А,улица Крылова,655003,53.7379701,91.4615193
50,улица Маршала Жукова,655003,53.7373188,91.4584176
52,улица Маршала Жукова,655003,53.7379640,91.4581620
50А,улица Маршала Жукова,655003,53.7376232,91.4588801
7,улица Баумана,655003,53.7379660,91.4599140
74,Енисейская улица,655003,53.7331760,91.4441537
20,улица Репина,655003,53.7331827,91.4418109
7,улица Репина,655003,53.7338555,91.4428262
17,улица Репина,655003,53.7336071,91.4433321
6,улица Репина,655003,53.7342457,91.4430599
10,улица Репина,655003,53.7341521,91.4425317
22,улица Репина,655003,53.7329922,91.4418606
4,улица Репина,655003,53.7342307,91.4433134
76,Енисейская улица,655003,53.7331464,91.4437879
15,улица Репина,655003,53.7335483,91.4429278
41А,улица Крылова,655003,53.7348779,91.4426136
5,улица Репина,655003,53.7338976,91.4432066
78,Енисейская улица,655003,53.7331082,91.4433748
30,Рыбацкая улица,655015,53.7339814,91.4417175
72А,улица Тельмана,655003,53.7316484,91.4438419
75,Енисейская улица,655003,53.7323719,91.4417298
3,улица Репина,655003,53.7339470,91.4436580
16,улица Репина,655003,53.7335150,91.4417097
8,улица Репина,655003,53.7341556,91.4428042
12,улица Репина,655003,53.7341383,91.4422601
18,улица Репина,655003,53.7333604,91.4417705
2,улица Репина,655003,53.7342625,91.4439007
69,улица Вяткина,655003,53.7336421,91.4440999
80,улица Чехова,655017,53.7293528,91.4436659
50А,улица Гагарина,655002,53.7097676,91.4272259
110,Белоярская улица,655009,53.6889140,91.4221273
50,Западная улица,655009,53.6982303,91.4209786
41А,улица Вяткина,655017,53.7263198,91.4448517
113,улица Гагарина,655011,53.7046590,91.4082557
102,Озёрная улица,655003,53.7451157,91.4411094
3А,Северный проезд,655010,53.7458567,91.4385285
100,Озёрная улица,655003,53.7450818,91.4414321
3Г,Заводская улица,655004,53.7067210,91.3742603
98,Озёрная улица,655003,53.7450383,91.4422866
2А,Торговая улица,655001,53.7435494,91.4385568
4Б,Торговая улица,655010,53.7436595,91.4367970
94,Озёрная улица,655003,53.7449794,91.4434423
88,Озёрная улица,655003,53.7449453,91.4445815
96,Озёрная улица,655003,53.7449970,91.4431363
92,Озёрная улица,655003,53.7449416,91.4437908
82,Озёрная улица,655003,53.7449010,91.4456646
86,Озёрная улица,655003,53.7449268,91.4447741
80А,Озёрная улица,655003,53.7448877,91.4464581
90,Озёрная улица,655003,53.7449462,91.4443665
84А,Озёрная улица,655003,53.7449012,91.4451366
90,Озёрная улица,655003,53.7449492,91.4441906
84,Озёрная улица,655003,53.7449051,91.4453863
68,улица Вяткина,655003,53.7349602,91.4451289
85,Озёрная улица,655003,53.7447220,91.4433552
97,Озёрная улица,655003,53.7447921,91.4410312
61,Озёрная улица,655003,53.7445649,91.4466482
93,Озёрная улица,655003,53.7447337,91.4415992
69/2,Озёрная улица,655003,53.7446513,91.4454207
75,Озёрная улица,655003,53.7446625,91.4446393
79,Озёрная улица,655003,53.7446612,91.4442191
89,Озёрная улица,655003,53.7447990,91.4425164
81,Озёрная улица,655003,53.7447252,91.4439214
83,Озёрная улица,655003,53.7447248,91.4437109
73,Озёрная улица,655003,53.7446054,91.4448878
99,Озёрная улица,655003,53.7448646,91.4406009
63,Озёрная улица,655003,53.7445884,91.4463296
95,Озёрная улица,655003,53.7448262,91.4413601
91,Озёрная улица,655003,53.7448093,91.4420250
77,Озёрная улица,655003,53.7446709,91.4444463
69/1,Озёрная улица,655003,53.7445591,91.4455093
65,Озёрная улица,655003,53.7445872,91.4460916
71,Озёрная улица,655003,53.7446663,91.4451110
81А,Озёрная улица,655003,53.7445761,91.4438321
87,Озёрная улица,655003,53.7445642,91.4428698
67,Озёрная улица,655003,53.7446089,91.4457183
72,Енисейская улица,655003,53.7334415,91.4452985
52,улица Вяткина,655003,53.7334824,91.4448699
60,улица Вяткина,655003,53.7340263,91.4447129
66,улица Вяткина,655003,53.7346268,91.4445411
54,улица Вяткина,655003,53.7337280,91.4447967
30,Озёрная улица,655003,53.7404683,91.4491243
188,улица Тараса Шевченко,655003,53.7406112,91.4514641
53,Тихая улица,655003,53.7417647,91.4494626
23,Полярная улица,655003,53.7412672,91.4531524
5,Полярная улица,655003,53.7401613,91.4534775
205,улица Тараса Шевченко,655003,53.7418704,91.4505871
44,Озёрная улица,655003,53.7418536,91.4485749
6,Проточная улица,655003,53.7409357,91.4549730
66,Катерная улица,655003,53.7395401,91.4525158
2,Раздольная улица,655003,53.7400615,91.4529477
17,Проточная улица,655003,53.7420218,91.4542357
2,Полярная улица,655003,53.7398998,91.4540630
13А,Раздольная улица,655003,53.7415843,91.4519887
184,улица Тараса Шевченко,655003,53.7403410,91.4517491
25,Полярная улица,655003,53.7414933,91.4530984
18,Полярная улица,655003,53.7412829,91.4535857
26,Озёрная улица,655003,53.7400364,91.4492196
200,улица Тараса Шевченко,655003,53.7420619,91.4510517
25,Озёрная улица,655003,53.7390530,91.4490500
3,Проточная улица,655003,53.7402842,91.4546437
181,улица Тараса Шевченко,655003,53.7394166,91.4513034
3,Раздольная улица,655003,53.7404650,91.4522853
51,Тихая улица,655003,53.7414821,91.4495441
15,Проточная улица,655003,53.7418390,91.4542156
28,Тихая улица,655003,53.7396742,91.4504650
197,улица Тараса Шевченко,655003,53.7412807,91.4507346
188А,улица Тараса Шевченко,655003,53.7408832,91.4514554
13,Проточная улица,655003,53.7416252,91.4543274
4,Полярная улица,655003,53.7400735,91.4539382
49,Тихая улица,655003,53.7412354,91.4496036
6,Раздольная улица,655003,53.7405340,91.4526795
34,Тихая улица,655003,53.7402740,91.4503078
47,Озёрная улица,655003,53.7419658,91.4481760
201,улица Тараса Шевченко,655003,53.7415210,91.4502523
39,Тихая улица,655003,53.7402099,91.4498933
202,улица Тараса Шевченко,655003,53.7423389,91.4510026
48,Озёрная улица,655003,53.7421331,91.4484727
19А,Проточная улица,655003,53.7424802,91.4539862
180,улица Тараса Шевченко,655003,53.7396840,91.4517840
199,улица Тараса Шевченко,655003,53.7414474,91.4506572
34,Озёрная улица,655003,53.7408361,91.4490244
40,Озёрная улица,655003,53.7414664,91.4488235
19,Полярная улица,655003,53.7408547,91.4532340
8,Полярная улица,655003,53.7403966,91.4538759
18,Озёрная улица,655003,53.7393466,91.4494330
35,Полярная улица,655003,53.7422651,91.4528343
45,Тихая улица,655003,53.7406902,91.4497676
48А,Тихая улица,655003,53.7417627,91.4498508
16,Раздольная улица,655003,53.7418061,91.4523480
8,Раздольная улица,655003,53.7406884,91.4526423
48Б,Тихая улица,655003,53.7419220,91.4497853
37,Тихая улица,655003,53.7399980,91.4499148
33,Озёрная улица,655003,53.7398750,91.4488636
20Б,Полярная улица,655003,53.7415968,91.4535259
33,Тихая улица,655003,53.7396221,91.4500273
186,улица Тараса Шевченко,655003,53.7404736,91.4514987
42,Тихая улица,655003,53.7410870,91.4503497
29,Полярная улица,655003,53.7417088,91.4530484
13Б,Раздольная улица,655003,53.7417569,91.4518987
191,улица Тараса Шевченко,655003,53.7404927,91.4509616
207,улица Тараса Шевченко,655003,53.7420247,91.4502063
5,Проточная улица,655003,53.7404837,91.4546559
13,Раздольная улица,655003,53.7414773,91.4520172
24,Полярная улица,655003,53.7419304,91.4534422
46,Тихая улица,655003,53.7414426,91.4499619
4,Проточная улица,655003,53.7406742,91.4551643
31,Озёрная улица,655003,53.7396388,91.4489142
5,Раздольная улица,655003,53.7406962,91.4520083
187,улица Тараса Шевченко,655003,53.7400911,91.4510643
7,Проточная улица,655003,53.7406253,91.4545857
26А,Озёрная улица,655003,53.7401625,91.4492002
29,Озёрная улица,655003,53.7394149,91.4489562
35,Озёрная улица,655003,53.7402180,91.4487729
44,Тихая улица,655003,53.7412558,91.4500137
35,Тихая улица,655003,53.7398660,91.4500248
190,улица Тараса Шевченко,655003,53.7411025,91.4513697
11,Проточная улица,655003,53.7413752,91.4543840
99М,улица Маршала Жукова,655003,53.7408800,91.4558704
15,Раздольная улица,655003,53.7419240,91.4518373
57А,Тихая улица,655003,53.7423247,91.4491106
189,улица Тараса Шевченко,655003,53.7402819,91.4510173
20,Раздольная улица,655003,53.7422296,91.4522186
43,Тихая улица,655003,53.7405296,91.4497838
203,улица Тараса Шевченко,655003,53.7416715,91.4504321
22,Полярная улица,655003,53.7418081,91.4534719
41,Тихая улица,655003,53.7403615,91.4498425
41,Озёрная улица,655003,53.7410638,91.4485162
40,Тихая улица,655003,53.7407065,91.4501842
9,Раздольная улица,655003,53.7408837,91.4520768
57,Тихая улица,655003,53.7421753,91.4492893
19,Раздольная улица,655003,53.7423965,91.4516728
21,Полярная улица,655003,53.7410778,91.4531748
20,Озёрная улица,655003,53.7395679,91.4493934
37,Полярная улица,655003,53.7424678,91.4528242
1,Раздольная улица,655003,53.7399025,91.4523954
27,Озёрная улица,655003,53.7392848,91.4489913
39,Озёрная улица,655003,53.7407938,91.4485490
4А,Раздольная улица,655003,53.7403039,91.4527477
192,улица Тараса Шевченко,655003,53.7413145,91.4513254
55,Тихая улица,655003,53.7419227,91.4494202
31,Полярная улица,655003,53.7418983,91.4529788
36,Тихая улица,655003,53.7404440,91.4502287
213,улица Тараса Шевченко,655003,53.7421967,91.4496768
18,Раздольная улица,655003,53.7420106,91.4523036
183,улица Тараса Шевченко,655003,53.7396250,91.4512149
3,Полярная улица,655003,53.7399844,91.4534773
10,Братская улица,655003,53.7425720,91.4533304
6,Полярная улица,655003,53.7402186,91.4539434
1,Полярная улица,655003,53.7396806,91.4536153
37,Озёрная улица,655003,53.7405050,91.4486785
45,Озёрная улица,655003,53.7417205,91.4482109
33,Полярная улица,655003,53.7420638,91.4529235
198,улица Тараса Шевченко,655003,53.7418272,91.4511362
46,Озёрная улица,655003,53.7419691,91.4485463
185,улица Тараса Шевченко,655003,53.7398825,91.4510857
1,Проточная улица,655003,53.7401282,91.4547065
26,Тихая улица,655003,53.7394174,91.4505038
43А,Озёрная улица,655003,53.7414208,91.4483759
12,Полярная улица,655003,53.7407697,91.4537544
20А,Полярная улица,655003,53.7415039,91.4535616
32,Тихая улица,655003,53.7400887,91.4503870
196,улица Тараса Шевченко,655003,53.7415979,91.4513844
10,Полярная улица,655003,53.7405854,91.4538132
19,Проточная улица,655003,53.7422844,91.4540851
38,Озёрная улица,655003,53.7412782,91.4488827
99Л,улица Маршала Жукова,655003,53.7403383,91.4560821
195,улица Тараса Шевченко,655003,53.7410202,91.4508193
43,Озёрная улица,655003,53.7412098,91.4484527
14,Полярная улица,655003,53.7409414,91.4537430
11,Раздольная улица,655003,53.7412988,91.4521313
17,Раздольная улица,655003,53.7421246,91.4517855
30,Тихая улица,655003,53.7398741,91.4504442
47,Тихая улица,655003,53.7409121,91.4496469
31А,Тихая улица,655003,53.7392536,91.4501133
193,улица Тараса Шевченко,655003,53.7407506,91.4506510
38,Енисейская улица,655003,53.7336012,91.4509512
26,Енисейская улица,655003,53.7337655,91.4527814
64,Енисейская улица,655003,53.7332020,91.4457732
40,Енисейская улица,655003,53.7335683,91.4504412
31,улица Советской Армии,655003,53.7343220,91.4521940
56,Енисейская улица,655003,53.7332338,91.4469232
31,улица Фрунзе,655003,53.7352546,91.4517170
54,Енисейская улица,655003,53.7332671,91.4472764
29,улица Фрунзе,655003,53.7352859,91.4519491
52,Енисейская улица,655003,53.7332981,91.4476203
44,Енисейская улица,655003,53.7334288,91.4490076
28,улица Советской Армии,655003,53.7348056,91.4525575
48,Енисейская улица,655003,53.7333525,91.4483121
66,Енисейская улица,655003,53.7335480,91.4463615
137,улица Тараса Шевченко,655003,53.7340974,91.4527376
28,Енисейская улица,655003,53.7337121,91.4523922
30,улица Советской Армии,655003,53.7346572,91.4521415
34,Енисейская улица,655003,53.7336579,91.4515495
39,улица Советской Армии,655003,53.7342667,91.4510143
70,Енисейская улица,655003,53.7334838,91.4457040
42,Енисейская улица,655003,53.7334716,91.4494996
60,Енисейская улица,655003,53.7331876,91.4463341
58,Енисейская улица,655003,53.7332118,91.4465876
32,Енисейская улица,655003,53.7336812,91.4518275
37,улица Советской Армии,655003,53.7342810,91.4512992
62,Енисейская улица,655003,53.7331315,91.4460254
33,улица Советской Армии,655003,53.7343216,91.4518434
34,улица Советской Армии,655003,53.7345844,91.4514946
46,улица Мичурина,655015,53.7120282,91.5096688
28,улица Луначарского,655015,53.7111584,91.5101380
26,улица Луначарского,655015,53.7105834,91.5092007
45,улица Мичурина,655015,53.7123313,91.5083686
44А,улица Мичурина,655015,53.7115891,91.5095754
44,улица Бограда,655017,53.7310451,91.4494799
56,улица Бограда,655017,53.7308433,91.4475629
42,улица Бограда,655017,53.7310665,91.4498900
30,улица Вяткина,655017,53.7309671,91.4456189
42,улица Чехова,655017,53.7297771,91.4503022
51,улица Тельмана,655017,53.7317427,91.4483137
48,Бейская улица,655017,53.7311530,91.4465510
69,улица Бограда,655017,53.7305854,91.4493617
40,Бейская улица,655017,53.7313336,91.4482665
79,улица Бограда,655017,53.7304335,91.4478197
4,Ташебинский проезд,655017,53.7301689,91.4498291
46,улица Бограда,655017,53.7310184,91.4489866
6,Ташебинский проезд,655017,53.7301370,91.4495048
48А,улица Бограда,655017,53.7309572,91.4487907
61,улица Чкалова,655017,53.7315174,91.4501767
43,улица Чкалова,655017,53.7319359,91.4499853
44,Бейская улица,655017,53.7312436,91.4474825
63,улица Чкалова,655017,53.7317167,91.4500855
44,улица Чехова,655017,53.7297645,91.4499642
73,улица Бограда,655017,53.7303288,91.4488604
42,Бейская улица,655017,53.7312856,91.4479556
46,улица Чехова,655017,53.7297078,91.4494946
75,улица Бограда,655017,53.7305054,91.4485259
2,Ташебинский проезд,655017,53.7301922,91.4500623
50,улица Бограда,655017,53.7309212,91.4483524
54,улица Бограда,655017,53.7308765,91.4478806
57,улица Тельмана,655017,53.7315995,91.4469958
36А,Бейская улица,655017,53.7314248,91.4492283
46,Бейская улица,655017,53.7312196,91.4470353
34,Бейская улица,655017,53.7314762,91.4496068
77,улица Бограда,655017,53.7304664,91.4481354
85,улица Бограда,655017,53.7302811,91.4467162
26,улица Вяткина,655017,53.7301792,91.4457610
63,улица Тельмана,655017,53.7315029,91.4457748
47А,улица Тельмана,655017,53.7318293,91.4489727
57,улица Чкалова,655017,53.7306993,91.4504824
61,улица Тельмана,655017,53.7315408,91.4460362
63,улица Бограда,655017,53.7306827,91.4502188
32,улица Вяткина,655017,53.7311536,91.4455713
65,улица Бограда,655017,53.7306567,91.4499305
82,улица Кирова,655017,53.7286214,91.4483065
74,улица Кирова,655017,53.7284449,91.4499297
65,улица Чехова,655017,53.7287867,91.4478725
51,улица Чехова,655017,53.7290366,91.4492392
61,улица Чехова,655017,53.7288197,91.4481878
90,улица Кирова,655017,53.7285868,91.4475609
68,улица Кирова,655017,53.7285255,91.4506809
63,улица Чехова,655017,53.7290952,91.4478120
94,улица Кирова,655017,53.7282242,91.4472253
66,улица Кирова,655017,53.7285568,91.4510538
67,улица Чехова,655017,53.7290867,91.4475054
57,улица Чехова,655017,53.7290345,91.4485217
88,улица Кирова,655017,53.7282756,91.4478369
64,улица Кирова,655017,53.7285734,91.4512656
69,улица Чехова,655017,53.7289220,91.4474089
84,улица Кирова,655017,53.7283089,91.4482536
41,улица Чехова,655017,53.7293611,91.4506348
73,улица Чехова,655017,53.7289966,91.4468866
80,улица Кирова,655017,53.7283502,91.4486501
47,улица Чехова,655017,53.7292658,91.4496920
70,улица Кирова,655017,53.7287814,91.4502192
78,улица Кирова,655017,53.7283749,91.4490263
72,улица Кирова,655017,53.7284801,91.4502191
76,улица Будённого,655015,53.7073678,91.5098586
78,улица Будённого,655015,53.7069676,91.5099217
74,улица Будённого,655015,53.7072734,91.5090330
80,улица Будённого,655015,53.7070936,91.5110476
62,улица Тельмана,655003,53.7320901,91.4467255
48,улица Вяткина,655003,53.7328158,91.4450324
50,улица Вяткина,655003,53.7330196,91.4449566
64,улица Тельмана,655003,53.7319263,91.4465777
69,Енисейская улица,655003,53.7327688,91.4456753
68,улица Тельмана,655003,53.7318563,91.4458415
73,улица Чкалова,655003,53.7331038,91.4495936
36,улица Вяткина,655017,53.7318164,91.4453132
38,улица Вяткина,655017,53.7319923,91.4452799
63,Енисейская улица,655003,53.7328524,91.4464503
44,улица Тельмана,655003,53.7322404,91.4495797
40,улица Вяткина,655003,53.7321306,91.4452319
44,улица Вяткина,655003,53.7325360,91.4451146
53,Енисейская улица,655003,53.7329693,91.4479651
52,улица Тельмана,655003,53.7320852,91.4481305
56,улица Тельмана,655003,53.7320196,91.4473703
54,улица Тельмана,655003,53.7320317,91.4477351
46,улица Вяткина,655003,53.7326540,91.4450934
49,Енисейская улица,655003,53.7330228,91.4486394
50,улица Тельмана,655003,53.7321405,91.4485285
66,улица Тельмана,655003,53.7318852,91.4462452
67,Енисейская улица,655003,53.7328076,91.4458803
69,улица Чкалова,655003,53.7325896,91.4497820
71,улица Чкалова,655003,53.7327666,91.4497081
65,Енисейская улица,655003,53.7328234,91.4461260
42,улица Тельмана,655003,53.7322661,91.4499215
57,Енисейская улица,655003,53.7329196,91.4471652
46,улица Тельмана,655003,53.7321923,91.4492185
42,улица Вяткина,655003,53.7323169,91.4451636
51,Енисейская улица,655003,53.7330054,91.4482460
48,улица Тельмана,655003,53.7322846,91.4487410
19Б,Проточная улица,655003,53.7423715,91.4540653
23,Проточная улица,655003,53.7426573,91.4545182
26,Полярная улица,655003,53.7421447,91.4533578
28,Полярная улица,655003,53.7423374,91.4534894
54А,Катерная улица,655003,53.7400846,91.4553801
8,Проточная улица,655003,53.7411226,91.4551698
9,Проточная улица,655003,53.7410464,91.4545271
66,Озёрная улица,655003,53.7441692,91.4480709
64,Озёрная улица,655003,53.7439742,91.4481554
77,Тихая улица,655003,53.7445034,91.4486824
75,Тихая улица,655003,53.7443175,91.4487362
68,Озёрная улица,655003,53.7443827,91.4480165
81,Тихая улица,655003,53.7450198,91.4485293
79,Тихая улица,655003,53.7448419,91.4486024
74,Озёрная улица,655003,53.7450360,91.4478055
83,Тихая улица,655003,53.7452818,91.4482642
73,Тихая улица,655003,53.7440723,91.4488015
70,Озёрная улица,655003,53.7445867,91.4479479
72,Озёрная улица,655003,53.7447693,91.4478897
12,Раздольная улица,655003,53.7413852,91.4524501
14,Раздольная улица,655003,53.7415010,91.4525154
4,Раздольная улица,655003,53.7400115,91.4527097
182,улица Тараса Шевченко,655003,53.7400288,91.4518246
194,улица Тараса Шевченко,655003,53.7414764,91.4513898
152,Аскизская улица,655009,53.6972968,91.4112069
152А,Аскизская улица,655009,53.6966391,91.4109146
158,Аскизская улица,655009,53.6975781,91.4098953
22,Озёрная улица,655003,53.7396655,91.4493035
24,Озёрная улица,655003,53.7398840,91.4493578
28,Озёрная улица,655003,53.7403594,91.4491321
42,Озёрная улица,655003,53.7416689,91.4488108
3Б,проспект Дружбы Народов,655001,53.7360629,91.4337323
220,улица Тараса Шевченко,655003,53.7445848,91.4501149
72,Тихая улица,655003,53.7445943,91.4491029
39,Раздольная улица,655003,53.7446580,91.4507356
28,Проточная улица,655003,53.7450506,91.4538319
51,Проточная улица,655003,53.7457469,91.4530158
39,Проточная улица,655003,53.7444920,91.4533321
61,Полярная улица,655003,53.7451804,91.4520386
56,Озёрная улица,655003,53.7430284,91.4484013
45,Проточная улица,655003,53.7450798,91.4531924
53,Полярная улица,655003,53.7443559,91.4522717
218,улица Тараса Шевченко,655003,53.7443294,91.4502744
41,Проточная улица,655003,53.7447819,91.4534302
216,улица Тараса Шевченко,655003,53.7441794,91.4503028
74,Тихая улица,655003,53.7448465,91.4490311
56,Полярная улица,655003,53.7454060,91.4524047
36А/2,Раздольная улица,655003,53.7444309,91.4515569
76,Тихая улица,655003,53.7450051,91.4490308
58,Озёрная улица,655003,53.7433292,91.4482921
36,Раздольная улица,655003,53.7442792,91.4515899
50,Полярная улица,655003,53.7448624,91.4525751
57,Полярная улица,655003,53.7447846,91.4521836
43,Проточная улица,655003,53.7448848,91.4533374
36А/2,Раздольная улица,655003,53.7445580,91.4515259
59,Полярная улица,655003,53.7449969,91.4521131
55,Полярная улица,655003,53.7446015,91.4522071
60,Озёрная улица,655003,53.7434629,91.4482795
34,Проточная улица,655003,53.7456448,91.4534268
32/1,Проточная улица,655003,53.7453857,91.4535582
32/2,Проточная улица,655003,53.7454838,91.4534981
46,Полярная улица,655003,53.7444057,91.4526915
24,Проточная улица,655003,53.7446582,91.4540306
62,Озёрная улица,655003,53.7436860,91.4481963
52,Полярная улица,655003,53.7450440,91.4525268
30,Проточная улица,655003,53.7452314,91.4536677
54,Полярная улица,655003,53.7452123,91.4526068
60,Полярная улица,655003,53.7456435,91.4523812
63,Полярная улица,655003,53.7453456,91.4520151
66А,Тихая улица,655003,53.7440158,91.4494059
38,Раздольная улица,655003,53.7449230,91.4514294
48,Полярная улица,655003,53.7446799,91.4526062
49,Проточная улица,655003,53.7455109,91.4531124
26,Проточная улица,655003,53.7448513,91.4539307
70,Тихая улица,655003,53.7444401,91.4493566
37,Раздольная улица,655003,53.7444234,91.4507224
47,Проточная улица,655003,53.7452637,91.4531832
52,Озёрная улица,655003,53.7426526,91.4484848
65,Тихая улица,655003,53.7431578,91.4490760
54,Тихая улица,655003,53.7428675,91.4496498
49Б,Озёрная улица,655003,53.7425519,91.4480894
59,Тихая улица,655003,53.7425237,91.4492440
61,Тихая улица,655003,53.7427596,91.4491755
67,Тихая улица,655003,53.7433584,91.4490100
64,Тихая улица,655003,53.7438207,91.4493173
58,Тихая улица,655003,53.7432019,91.4494828
49А,Озёрная улица,655003,53.7423522,91.4481511
69,Тихая улица,655003,53.7435142,91.4489431
63,Тихая улица,655003,53.7429567,91.4491037
215,улица Тараса Шевченко,655003,53.7425331,91.4500569
62,Тихая улица,655003,53.7435495,91.4494203
50,Тихая улица,655003,53.7425688,91.4496940
52,Тихая улица,655003,53.7427131,91.4496625
56,Тихая улица,655003,53.7430203,91.4495279
60,Тихая улица,655003,53.7433334,91.4494778
71,Тихая улица,655003,53.7437462,91.4488980
50,Озёрная улица,655003,53.7424465,91.4485332
29,Раздольная улица,655003,53.7435265,91.4513051
24,Раздольная улица,655003,53.7429875,91.4520144
39Б,Полярная улица,655003,53.7427352,91.4527170
22/2,Проточная улица,655003,53.7443588,91.4544276
34,Полярная улица,655003,53.7431660,91.4530650
22/1,Проточная улица,655003,53.7442284,91.4544931
47,Полярная улица,655003,53.7436345,91.4524988
34,Раздольная улица,655003,53.7440615,91.4517171
26,Раздольная улица,655003,53.7432317,91.4518992
19А,Проточная улица,655003,53.7443899,91.4537737
214,улица Тараса Шевченко,655003,53.7437911,91.4508599
214А,улица Тараса Шевченко,655003,53.7439028,91.4504564
43,Полярная улица,655003,53.7432841,91.4525871
33,Раздольная улица,655003,53.7439631,91.4511122
31А,Проточная улица,655003,53.7437954,91.4536289
38,Полярная улица,655003,53.7435300,91.4529674
3,Братская улица,655003,53.7426722,91.4523269
11,Братская улица,655003,53.7430204,91.4539127
20,Проточная улица,655003,53.7440764,91.4546684
22,Раздольная улица,655003,53.7428109,91.4520761
212,улица Тараса Шевченко,655003,53.7436414,91.4505660
30,Раздольная улица,655003,53.7435670,91.4517929
204,улица Тараса Шевченко,655003,53.7427737,91.4510238
44,Полярная улица,655003,53.7441517,91.4527805
28,Раздольная улица,655003,53.7433020,91.4518644
42,Полярная улица,655003,53.7439420,91.4528249
32,Раздольная улица,655003,53.7437560,91.4517325
206,улица Тараса Шевченко,655003,53.7429062,91.4509577
29,Проточная улица,655003,53.7436347,91.4536767
40/2,Полярная улица,655003,53.7437584,91.4528851
29А,Проточная улица,655003,53.7435044,91.4541448
41,Полярная улица,655003,53.7430621,91.4526599
31,Раздольная улица,655003,53.7437913,91.4512294
15,Братская улица,655003,53.7434821,91.4551667
45,Полярная улица,655003,53.7434576,91.4525434
27,Раздольная улица,655003,53.7432840,91.4514199
208,улица Тараса Шевченко,655003,53.7432041,91.4508091
27,Проточная улица,655003,53.7433582,91.4537778
40/1,Полярная улица,655003,53.7436742,91.4530084
25,Раздольная улица,655003,53.7431404,91.4514824
39А,Полярная улица,655003,53.7429374,91.4526793
27,Проточная улица,655003,53.7433217,91.4541925
51,Полярная улица,655003,53.7440797,91.4523772
23,Раздольная улица,655003,53.7429525,91.4515480
25,Проточная улица,655003,53.7432022,91.4543399
49,Полярная улица,655003,53.7438795,91.4524083
31,Проточная улица,655003,53.7439613,91.4543042
33,Проточная улица,655003,53.7440203,91.4535150
36,Полярная улица,655003,53.7433162,91.4530491
210,улица Тараса Шевченко,655003,53.7434084,91.4506942
21,Раздольная улица,655003,53.7427742,91.4515763
32,Полярная улица,655003,53.7429331,91.4531486
47А,Озёрная улица,655003,53.7421648,91.4481657
54,Озёрная улица,655003,53.7428495,91.4483442
85,Тихая улица,655003,53.7455667,91.4482393
13,Тихая улица,655003,53.7369353,91.4508867
25,Тихая улица,655003,53.7382449,91.4505208
56А,улица Крылова,655003,53.7365108,91.4539875
14,Озёрная улица,655003,53.7389554,91.4496228
8,Тихая улица,655003,53.7371729,91.4512306
8,Озёрная улица,655003,53.7383784,91.4497348
4,Тихая улица,655003,53.7369015,91.4513322
31,Тихая улица,655003,53.7388885,91.4503189
19,Озёрная улица,655003,53.7385868,91.4490925
7,Озёрная улица,655003,53.7375748,91.4495601
165,улица Тараса Шевченко,655003,53.7377926,91.4517014
11,Озёрная улица,655003,53.7380003,91.4494417
19,улица Юннатов,655003,53.7389905,91.4538677
15А,Тихая улица,655003,53.7373243,91.4507602
17,Озёрная улица,655003,53.7384694,91.4491571
4,Озёрная улица,655003,53.7377983,91.4499515
19А,улица Юннатов,655003,53.7388151,91.4539458
21,Тихая улица,655003,53.7379217,91.4505898
9,Весенний проезд,655003,53.7369212,91.4541402
163,улица Тараса Шевченко,655003,53.7374389,91.4518774
171,улица Тараса Шевченко,655003,53.7381824,91.4516655
52,улица Крылова,655003,53.7365607,91.4546315
27,Тихая улица,655003,53.7384701,91.4504229
24,Тихая улица,655003,53.7388825,91.4507521
157,улица Тараса Шевченко,655003,53.7369549,91.4520238
22,Тихая улица,655003,53.7386257,91.4508677
6,Озёрная улица,655003,53.7381069,91.4497775
16,Тихая улица,655003,53.7381204,91.4509788
3,Озёрная улица,655003,53.7370699,91.4496983
168,улица Тараса Шевченко,655003,53.7386621,91.4521198
11,Тихая улица,655003,53.7367398,91.4509389
13,Озёрная улица,655003,53.7381712,91.4493782
17,Тихая улица,655003,53.7375641,91.4506876
14,Тихая улица,655003,53.7378917,91.4510514
19,Тихая улица,655003,53.7377425,91.4506404
17,Весенний проезд,655003,53.7367237,91.4530582
4А,Тихая улица,655003,53.7367640,91.4513901
20,Тихая улица,655003,53.7384512,91.4509145
2,Тихая улица,655003,53.7362589,91.4516127
23,Тихая улица,655003,53.7380998,91.4505344
7,Весенний проезд,655003,53.7369748,91.4545596
179,улица Тараса Шевченко,655003,53.7389128,91.4514324
6,Тихая улица,655003,53.7370238,91.4512874
5,Весенний проезд,655003,53.7370115,91.4549249
175,улица Тараса Шевченко,655003,53.7385237,91.4515760
18,Тихая улица,655003,53.7382825,91.4509343
23,Озёрная улица,655003,53.7387229,91.4485178
5,Озёрная улица,655003,53.7372836,91.4496534
15,Тихая улица,655003,53.7371189,91.4508316
17,улица Юннатов,655003,53.7385989,91.4539773
12,Тихая улица,655003,53.7377578,91.4510861
54,улица Крылова,655003,53.7365203,91.4542616
10,Озёрная улица,655003,53.7385314,91.4496791
13,Весенний проезд,655003,53.7368508,91.4535822
169,улица Тараса Шевченко,655003,53.7379749,91.4516962
170,улица Тараса Шевченко,655003,53.7388688,91.4520766
159,улица Тараса Шевченко,655003,53.7370576,91.4517814
11,Весенний проезд,655003,53.7368550,91.4538711
173,улица Тараса Шевченко,655003,53.7383616,91.4516074
177,улица Тараса Шевченко,655003,53.7387554,91.4515280
15,Озёрная улица,655003,53.7383590,91.4491703
13,улица Юннатов,655003,53.7387491,91.4532320
155,улица Тараса Шевченко,655003,53.7367491,91.4520079
35,Раздольная улица,655003,53.7442182,91.4506941
35А,Проточная улица,655003,53.7442092,91.4538713
10,Тихая улица,655003,53.7373648,91.4512057
161,улица Тараса Шевченко,655003,53.7372058,91.4518714
29,Тихая улица,655003,53.7386512,91.4503088
7,Тихая улица,655003,53.7363828,91.4510262
9А,Тихая улица,655003,53.7364535,91.4503376
12,Озёрная улица,655003,53.7387525,91.4495625
9Б,улица Ленинского Комсомола,655017,53.7168476,91.4292533
130,улица Дзержинского,655017,53.7170579,91.4287809
131,Хакасская улица,655017,53.7180770,91.4300827
137,Хакасская улица,655017,53.7179336,91.4292793
139,Хакасская улица,655017,53.7179248,91.4287542
24,Трудовая улица,655017,53.7175387,91.4286162
71,Советская улица,655017,53.7193560,91.4297878
14,Новая улица,655018,53.7086658,91.4588875
34В,улица Крылова,655003,53.7384546,91.4617637
34Г,улица Крылова,655003,53.7380763,91.4626251
36А,улица Крылова,655003,53.7379977,91.4606393
40,улица Крылова,655003,53.7370473,91.4598307
5,улица Баумана,655003,53.7383120,91.4591518
50А,улица Маршала Жукова,655003,53.7375281,91.4598736
46,Трудовая улица,655017,53.7217410,91.4280482
101Б,проспект Ленина,655017,53.7206465,91.4262965
106,проспект Ленина,655017,53.7211663,91.4296071
108,проспект Ленина,655017,53.7211371,91.4293255
112,проспект Ленина,655017,53.7210843,91.4287073
83,проспект Ленина,655017,53.7207559,91.4299047
85,проспект Ленина,655017,53.7207335,91.4296877
87,проспект Ленина,655017,53.7206638,91.4292599
89,проспект Ленина,655017,53.7206141,91.4289479
91,проспект Ленина,655017,53.7204004,91.4287228
23,улица Чебодаева,655018,53.7093544,91.4683974
21,улица Чебодаева,655018,53.7094010,91.4688269
103,улица Чертыгашева,655017,53.7234277,91.4288470
107,улица Чертыгашева,655017,53.7233685,91.4283306
109,улица Чертыгашева,655017,53.7233499,91.4280442
111,улица Чертыгашева,655017,53.7233129,91.4278166
113,улица Чертыгашева,655017,53.7232904,91.4275118
115,улица Чертыгашева,655017,53.7232544,91.4272951
117,улица Чертыгашева,655017,53.7232383,91.4270690
119,улица Чертыгашева,655017,53.7232135,91.4268199
14,Партизанская улица,655017,53.7224947,91.4280616
18,Партизанская улица,655017,53.7224578,91.4276022
20,Партизанская улица,655017,53.7225357,91.4271380
56,Трудовая улица,655017,53.7228480,91.4269886
58,Трудовая улица,655017,53.7230037,91.4269193
6,Партизанская улица,655017,53.7225851,91.4290510
210,улица Чертыгашева,655017,53.7236302,91.4259871
243,улица Богдана Хмельницкого,655017,53.7243433,91.4258408
247,улица Богдана Хмельницкого,655017,53.7242845,91.4250572
212,улица Чертыгашева,655017,53.7236051,91.4257027
59,Трудовая улица,655017,53.7239063,91.4259658
245,улица Богдана Хмельницкого,655017,53.7243112,91.4254021
41,улица Энгельса,655018,53.7102425,91.4622303
83,улица Павших Коммунаров,655018,53.7119781,91.4654018
43,улица Энгельса,655018,53.7102545,91.4619051
42,улица Чебодаева,655018,53.7092588,91.4641808
42,улица Островского,655018,53.7101248,91.4667194
37,улица Энгельса,655018,53.7103875,91.4630573
38,улица Герцена,655018,53.7094922,91.4645144
44,улица Чебодаева,655018,53.7092351,91.4638046
54,улица Чебодаева,655018,53.7093133,91.4617572
46,улица Островского,655018,53.7097992,91.4668405
20,улица Тараса Шевченко,655018,53.7100891,91.4611039
34,улица Чебодаева,655018,53.7094695,91.4663040
18,улица Тараса Шевченко,655018,53.7098892,91.4612377
45,улица Энгельса,655018,53.7102177,91.4615532
35,улица Энгельса,655018,53.7104222,91.4633755
56,улица Чебодаева,655018,53.7093331,91.4613928
38,улица Островского,655018,53.7104602,91.4666095
52,улица Чебодаева,655018,53.7093044,91.4621901
50,улица Чебодаева,655018,53.7092865,91.4625338
214,улица Чертыгашева,655017,53.7235874,91.4253654
87,улица Чертыгашева,655017,53.7235821,91.4349257
83,улица Чертыгашева,655017,53.7238284,91.4374748
157,улица Кирова,655001,53.7259107,91.4288421
157А,улица Кирова,655001,53.7259094,91.4285637
159,улица Кирова,655001,53.7258993,91.4283563
161,улица Кирова,655001,53.7258101,91.4275115
161А,улица Кирова,655001,53.7258299,91.4279785
163,улица Кирова,655001,53.7257945,91.4272390
165,улица Кирова,655001,53.7257661,91.4269925
167,улица Кирова,655001,53.7257284,91.4266583
169,улица Кирова,655001,53.7256927,91.4263485
192,улица Богдана Хмельницкого,655017,53.7250117,91.4288164
194,улица Богдана Хмельницкого,655017,53.7250922,91.4283578
198,улица Богдана Хмельницкого,655017,53.7249506,91.4278042
200,улица Богдана Хмельницкого,655017,53.7248924,91.4274779
202,улица Богдана Хмельницкого,655017,53.7250255,91.4272213
204,улица Богдана Хмельницкого,655017,53.7248926,91.4271320
70,Трудовая улица,655017,53.7247977,91.4263758
76,Трудовая улица,655017,53.7256444,91.4261327
75,улица Чапаева,655002,53.7043916,91.4313625
14,улица Челюскинцев,655009,53.7019346,91.4325774
61,улица Мира,655009,53.7011066,91.4320242
2,Нефтяной проезд,655011,53.7068086,91.4128071
8/2,Нефтяной проезд,655011,53.7066784,91.4118874
29,улица Станишевских,655011,53.7072941,91.4119458
25,улица Станишевских,655011,53.7074342,91.4126763
25А,улица Станишевских,655011,53.7073806,91.4123133
31/1,улица Станишевских,655011,53.7073314,91.4115803
8/1,Нефтяной проезд,655011,53.7066619,91.4117722
6А/2,Нефтяной проезд,655011,53.7067105,91.4121325
6А/1,Нефтяной проезд,655011,53.7067337,91.4123960
10,Мебельная улица,655003,53.7385476,91.4678636
12,Мебельная улица,655003,53.7384885,91.4674445
14,Мебельная улица,655003,53.7384727,91.4671103
16,Мебельная улица,655003,53.7384421,91.4668363
18,Мебельная улица,655003,53.7384063,91.4665044
22/1,Мебельная улица,655003,53.7383449,91.4659698
4,Мебельная улица,655003,53.7386198,91.4687847
1,улица Ушинского,655003,53.7389904,91.4687842
5,улица Ушинского,655003,53.7390386,91.4680996
3/2,улица Ушинского,655003,53.7390367,91.4682703
59,Портовая улица,655015,53.7127349,91.5078333
21,Рыбацкая улица,655015,53.7095042,91.5068653
21А,Рыбацкая улица,655015,53.7091358,91.5059275
23,Рыбацкая улица,655015,53.7091009,91.5073084
30,улица Советских Космонавтов,655002,53.7006664,91.4390561
33,улица Советских Космонавтов,655002,53.7003982,91.4391409
1,Вагоностроительная улица,655003,53.7387143,91.4591942
10,Степная улица,655003,53.7394608,91.4581249
10,улица Баумана,655003,53.7382314,91.4631893
12,Степная улица,655003,53.7397404,91.4581041
12,улица Баумана,655003,53.7384433,91.4630588
14,улица Баумана,655003,53.7386723,91.4630054
18,улица Баумана,655003,53.7388028,91.4599980
2,Степная улица,655003,53.7386550,91.4584160
2,улица Баумана,655003,53.7373652,91.4634218
28,улица Баумана,655003,53.7385981,91.4577981
29,Ипподромная улица,655003,53.7374556,91.4641779
3,Вагоностроительная улица,655003,53.7389195,91.4591409
3,Степная улица,655003,53.7388002,91.4579336
31,Ипподромная улица,655003,53.7376649,91.4641161
31,Катерная улица,655003,53.7398599,91.4629952
33,Ипподромная улица,655003,53.7378669,91.4640040
33,Катерная улица,655003,53.7398419,91.4625400
35,Ипподромная улица,655003,53.7380348,91.4639318
35,Катерная улица,655003,53.7398141,91.4621630
37,Ипподромная улица,655003,53.7383466,91.4638556
39,Ипподромная улица,655003,53.7386875,91.4637839
39,Катерная улица,655003,53.7398455,91.4614617
39А,Ипподромная улица,655003,53.7388658,91.4637389
4,Степная улица,655003,53.7388010,91.4583667
4,улица Баумана,655003,53.7376046,91.4633347
41,Ипподромная улица,655003,53.7392335,91.4636160
41,Катерная улица,655003,53.7398079,91.4611412
43,Ипподромная улица,655003,53.7395990,91.4634576
43,Катерная улица,655003,53.7400346,91.4611071
45,Ипподромная улица,655003,53.7398575,91.4634943
45,Катерная улица,655003,53.7398878,91.4607957
47,Катерная улица,655003,53.7398822,91.4605093
5,Степная улица,655003,53.7390657,91.4578499
57,Катерная улица,655003,53.7393928,91.4601572
59,Катерная улица,655003,53.7396307,91.4600593
6,Степная улица,655003,53.7389776,91.4582963
6,улица Баумана,655003,53.7377879,91.4632721
63,Катерная улица,655003,53.7398144,91.4596363
65,Катерная улица,655003,53.7398125,91.4592476
67,Катерная улица,655003,53.7397661,91.4588425
69,Катерная улица,655003,53.7397906,91.4584621
7,Вагоностроительная улица,655003,53.7390952,91.4590721
7,Степная улица,655003,53.7393461,91.4577646
73,Катерная улица,655003,53.7396433,91.4576315
7А,Степная улица,655003,53.7392198,91.4578081
8,Степная улица,655003,53.7392157,91.4582105
8,улица Баумана,655003,53.7379840,91.4632323
92,улица Павших Коммунаров,655018,53.7130356,91.4651657
3,улица Пушкина,655012,53.7181514,91.4773104
178,улица Павших Коммунаров,655018,53.7106429,91.4454744
1,Енисейская улица,655003,53.7338201,91.4580830
1,улица Советской Армии,655003,53.7347722,91.4577995
1,улица Фрунзе,655003,53.7357945,91.4569724
10,Енисейская улица,655003,53.7339786,91.4562387
10,улица Белинского,655003,53.7333198,91.4564500
10,улица Советской Армии,655003,53.7350441,91.4560817
10,улица Тельмана,655003,53.7328835,91.4566009
10,улица Фрунзе,655003,53.7360535,91.4558877
11,Енисейская улица,655003,53.7336346,91.4563839
11,улица Советской Армии,655003,53.7346615,91.4558930
11,улица Фрунзе,655003,53.7356176,91.4557290
12,Енисейская улица,655003,53.7339510,91.4558637
12,улица Белинского,655003,53.7332887,91.4560947
12,улица Советской Армии,655003,53.7350014,91.4556583
12,улица Тельмана,655003,53.7328495,91.4561982
12,улица Фрунзе,655003,53.7360190,91.4555771
13,Енисейская улица,655003,53.7336431,91.4560947
13,улица Советской Армии,655003,53.7346585,91.4557008
13,улица Фрунзе,655003,53.7355967,91.4554452
132,улица Тараса Шевченко,655003,53.7331517,91.4536774
136,улица Тараса Шевченко,655003,53.7337270,91.4535184
14,Енисейская улица,655003,53.7339180,91.4555048
14,улица Белинского,655003,53.7332567,91.4557150
14,улица Советской Армии,655003,53.7349831,91.4553670
14,улица Тельмана,655003,53.7328100,91.4558379
14,улица Фрунзе,655003,53.7359799,91.4552172
140,улица Тараса Шевченко,655003,53.7341318,91.4533873
142,улица Тараса Шевченко,655003,53.7343828,91.4533361
144,улица Тараса Шевченко,655003,53.7347093,91.4532556
146,улица Тараса Шевченко,655003,53.7349444,91.4531617
15,Енисейская улица,655003,53.7336134,91.4559005
15,улица Советской Армии,655003,53.7346246,91.4553511
15,улица Фрунзе,655003,53.7355658,91.4551202
150,улица Тараса Шевченко,655003,53.7353549,91.4530768
16,Енисейская улица,655003,53.7338899,91.4552006
16,улица Белинского,655003,53.7332305,91.4553946
16,улица Советской Армии,655003,53.7349382,91.4550202
16,улица Тельмана,655003,53.7327743,91.4554840
16,улица Фрунзе,655003,53.7359439,91.4549205
17,Енисейская улица,655003,53.7335949,91.4555012
17,улица Советской Армии,655003,53.7345994,91.4550413
17,улица Фрунзе,655003,53.7355142,91.4547546
18,Енисейская улица,655003,53.7338492,91.4547302
18,улица Белинского,655003,53.7332017,91.4549733
18,улица Советской Армии,655003,53.7348667,91.4548205
18,улица Тельмана,655003,53.7327430,91.4550779
18,улица Фрунзе,655003,53.7359061,91.4544890
19,Енисейская улица,655003,53.7335502,91.4551260
19,улица Советской Армии,655003,53.7345193,91.4547750
19,улица Фрунзе,655003,53.7354869,91.4543830
2,Енисейская улица,655003,53.7341595,91.4580231
2,улица Советской Армии,655003,53.7352511,91.4575854
2,улица Тельмана,655003,53.7330696,91.4582045
2,улица Фрунзе,655003,53.7362552,91.4573377
20,Енисейская улица,655003,53.7338055,91.4543437
20,улица Белинского,655003,53.7331717,91.4546112
20,улица Советской Армии,655003,53.7348468,91.4544691
20,улица Тельмана,655003,53.7327104,91.4546938
20,улица Фрунзе,655003,53.7358605,91.4541201
21,Енисейская улица,655003,53.7335363,91.4548947
21,улица Советской Армии,655003,53.7344957,91.4544649
21,улица Фрунзе,655003,53.7354656,91.4540624
22,Енисейская улица,655003,53.7337875,91.4540358
22,улица Белинского,655003,53.7331388,91.4541689
22,улица Советской Армии,655003,53.7347929,91.4541502
22,улица Тельмана,655003,53.7326650,91.4543163
22,улица Фрунзе,655003,53.7358223,91.4536824
23,Енисейская улица,655003,53.7335087,91.4545744
23,улица Советской Армии,655003,53.7344635,91.4541674
23,улица Фрунзе,655003,53.7354754,91.4536232
24,улица Советской Армии,655003,53.7347662,91.4538029
24,улица Тельмана,655003,53.7326870,91.4540296
24,улица Фрунзе,655003,53.7357997,91.4533559
25,Енисейская улица,655003,53.7334697,91.4542636
25,улица Советской Армии,655003,53.7344268,91.4538291
27,Енисейская улица,655003,53.7334458,91.4539377
29,Енисейская улица,655003,53.7334198,91.4536102
3,Енисейская улица,655003,53.7337862,91.4577644
3,улица Советской Армии,655003,53.7347819,91.4571920
4,Енисейская улица,655003,53.7340911,91.4574489
4,улица Белинского,655003,53.7334337,91.4575911
4,улица Советской Армии,655003,53.7351395,91.4571184
4,улица Тельмана,655003,53.7330202,91.4578099
4,улица Фрунзе,655003,53.7361341,91.4569852
5,Енисейская улица,655003,53.7337546,91.4573879
5,улица Советской Армии,655003,53.7347581,91.4568433
5,улица Фрунзе,655003,53.7356571,91.4566649
6,Енисейская улица,655003,53.7340473,91.4570515
6,улица Белинского,655003,53.7333711,91.4571663
6,улица Советской Армии,655003,53.7351067,91.4567618
6,улица Тельмана,655003,53.7329565,91.4572826
6,улица Фрунзе,655003,53.7361247,91.4566545
69,улица Маршала Жукова,655003,53.7335562,91.4581408
7,Енисейская улица,655003,53.7337249,91.4570897
7,улица Советской Армии,655003,53.7347300,91.4565248
7,улица Фрунзе,655003,53.7356710,91.4563263
75,улица Маршала Жукова,655003,53.7343499,91.4579727
77,улица Маршала Жукова,655003,53.7345437,91.4579102
8,Енисейская улица,655003,53.7340114,91.4566632
8,улица Белинского,655003,53.7333693,91.4569750
8,улица Советской Армии,655003,53.7350980,91.4563949
8,улица Тельмана,655003,53.7329157,91.4569760
8,улица Фрунзе,655003,53.7360700,91.4562118
83,улица Маршала Жукова,655003,53.7354445,91.4576361
85,улица Маршала Жукова,655003,53.7356762,91.4575561
9,Енисейская улица,655003,53.7336929,91.4567612
9,улица Советской Армии,655003,53.7346996,91.4562089
9,улица Фрунзе,655003,53.7356442,91.4560412
188,улица Чертыгашева,655017,53.7239699,91.4293382
192,улица Чертыгашева,655017,53.7239492,91.4288008
196,улица Чертыгашева,655017,53.7238673,91.4281440
204,улица Чертыгашева,655017,53.7238062,91.4273604
229,улица Богдана Хмельницкого,655017,53.7245607,91.4283336
231,улица Богдана Хмельницкого,655017,53.7245327,91.4280380
233,улица Богдана Хмельницкого,655017,53.7244938,91.4276055
235,улица Богдана Хмельницкого,655017,53.7244675,91.4273476
237,улица Богдана Хмельницкого,655017,53.7244418,91.4270907
239,улица Богдана Хмельницкого,655017,53.7244383,91.4268670
64,Трудовая улица,655017,53.7240039,91.4266017
213Д,улица Пушкина,655004,53.7137912,91.4138334
22,улица Щетинкина,655017,53.7237425,91.4436749
31,улица Вяткина,655017,53.7237636,91.4455547
33А,улица Вяткина,655017,53.7242649,91.4464483
35А,улица Вяткина,655017,53.7241940,91.4456640
86,проспект Ленина,655017,53.7226715,91.4441544
19,Хакасская улица,655012,53.7217019,91.4645301
17,Хакасская улица,655012,53.7217131,91.4650165
14,улица Вяткина,655017,53.7245426,91.4477694
63А,улица Чертыгашева,655017,53.7246367,91.4492861
15/2,улица Луначарского,655015,53.7102893,91.5035997
13,улица Луначарского,655015,53.7101994,91.5030304
17/1,улица Луначарского,655015,53.7103735,91.5040869
22,Рыбацкая улица,655015,53.7106868,91.5042371
57,улица Чертыгашева,655017,53.7254043,91.4528040
57А,улица Чертыгашева,655017,53.7245070,91.4528980
59А,улица Чертыгашева,655017,53.7242869,91.4516729
83А,улица Тараса Шевченко,655017,53.7246723,91.4546259
55,улица Карла Маркса,655017,53.7283174,91.4366055
6,улица Есенина,655014,53.6752420,91.4016825
8,улица Есенина,655014,53.6751108,91.4020694
10,улица Есенина,655014,53.6749519,91.4024948
2,улица Есенина,655014,53.6756041,91.4007392
28,улица Итыгина,655004,53.7247336,91.4021104
32,улица Гайдара,655004,53.7211095,91.4111805
63,улица Карла Маркса,655017,53.7299552,91.4370176
39,улица Димитрова,655018,53.7129302,91.4585891
3,проезд Маяковского,655018,53.7134015,91.4544452
62,улица Димитрова,655018,53.7133120,91.4582659
74,улица Димитрова,655018,53.7132296,91.4575158
99,Минусинская улица,655018,53.7141258,91.4545435
39,улица Тараса Шевченко,655018,53.7141861,91.4592547
5,проезд Маяковского,655018,53.7133552,91.4540836
12,улица Маяковского,655017,53.7135327,91.4556805
89,Минусинская улица,655018,53.7143926,91.4568028
101,Минусинская улица,655018,53.7140964,91.4542020
37,улица Тараса Шевченко,655018,53.7139206,91.4593433
61,улица Димитрова,655018,53.7124473,91.4540783
1,проезд Маяковского,655018,53.7134575,91.4547910
48,улица Розы Люксембург,655018,53.7132975,91.4524891
76,улица Димитрова,655018,53.7132939,91.4579025
124,улица Павших Коммунаров,655018,53.7115330,91.4548616
93,Минусинская улица,655018,53.7143104,91.4560309
27,улица Тараса Шевченко,655018,53.7125219,91.4597555
31,улица Тараса Шевченко,655018,53.7130438,91.4596148
46,улица Розы Люксембург,655018,53.7131280,91.4526316
42,улица Розы Люксембург,655018,53.7127575,91.4530670
55,улица Димитрова,655018,53.7125436,91.4550000
56,улица Димитрова,655018,53.7134224,91.4595025
122,улица Павших Коммунаров,655018,53.7115783,91.4553410
21,улица Маяковского,655017,53.7119936,91.4567014
35,улица Димитрова,655018,53.7129850,91.4593260
9,улица Маяковского,655017,53.7136095,91.4562262
59,улица Димитрова,655018,53.7124854,91.4544596
50,улица Розы Люксембург,655018,53.7134801,91.4523444
58,улица Димитрова,655018,53.7133917,91.4590293
114,улица Павших Коммунаров,655018,53.7117760,91.4573979
7,улица Маяковского,655017,53.7138224,91.4561722
79,Минусинская улица,655018,53.7145829,91.4586465
25,улица Тараса Шевченко,655018,53.7123254,91.4598000
2,проезд Маяковского,655018,53.7136524,91.4547324
83,Минусинская улица,655018,53.7145060,91.4578953
105,Минусинская улица,655018,53.7140009,91.4532644
52,улица Розы Люксембург,655018,53.7136358,91.4521673
104,улица Павших Коммунаров,655018,53.7120711,91.4591828
81,Минусинская улица,655018,53.7145437,91.4583072
32,улица Розы Люксембург,655018,53.7116293,91.4540593
102,улица Павших Коммунаров,655018,53.7120549,91.4598175
53,улица Димитрова,655018,53.7125861,91.4553938
43,улица Димитрова,655018,53.7128455,91.4579042
30,улица Розы Люксембург,655018,53.7114964,91.4541751
17,улица Маяковского,655017,53.7124381,91.4565463
72,улица Димитрова,655018,53.7132148,91.4571089
106,улица Павших Коммунаров,655018,53.7119582,91.4588724
109,Минусинская улица,655018,53.7138171,91.4519900
41,улица Димитрова,655018,53.7128182,91.4583629
78,улица Димитрова,655018,53.7129590,91.4549219
19,улица Маяковского,655017,53.7122120,91.4566131
116,улица Павших Коммунаров,655018,53.7117248,91.4568294
34,улица Розы Люксембург,655018,53.7117960,91.4539213
11,улица Маяковского,655017,53.7134423,91.4562360
108,улица Павших Коммунаров,655018,53.7119170,91.4584708
20,улица Маяковского,655017,53.7121259,91.4560819
6,проезд Маяковского,655018,53.7135548,91.4540050
47,улица Димитрова,655018,53.7127685,91.4570749
14,улица Маяковского,655017,53.7132996,91.4557113
74,улица Димитрова,655018,53.7130591,91.4556697
87,Минусинская улица,655018,53.7144337,91.4571880
4,проезд Маяковского,655018,53.7136037,91.4543853
103,Минусинская улица,655018,53.7140532,91.4538220
35,улица Тараса Шевченко,655018,53.7136956,91.4594164
85,Минусинская улица,655018,53.7144637,91.4575282
36,улица Розы Люксембург,655018,53.7119816,91.4537451
107,Минусинская улица,655018,53.7140890,91.4530206
24,улица Маяковского,655017,53.7119455,91.4561310
18,улица Маяковского,655017,53.7123574,91.4560192
45,улица Димитрова,655018,53.7128175,91.4574602
44,улица Розы Люксембург,655018,53.7129708,91.4527877
40,улица Розы Люксембург,655018,53.7123282,91.4534259
70,улица Димитрова,655018,53.7131447,91.4567885
51,улица Димитрова,655018,53.7126339,91.4559369
110,улица Павших Коммунаров,655018,53.7118719,91.4581571
118,улица Павших Коммунаров,655018,53.7116697,91.4562147
49,улица Димитрова,655018,53.7126861,91.4565188
37,улица Димитрова,655018,53.7129611,91.4590208
38,улица Розы Люксембург,655018,53.7121097,91.4535989
72,улица Димитрова,655018,53.7131320,91.4564098
112,улица Павших Коммунаров,655018,53.7118260,91.4577974
95,Минусинская улица,655018,53.7142282,91.4554610
60,улица Димитрова,655018,53.7133532,91.4586613
80,улица Димитрова,655018,53.7129105,91.4545672
120,улица Павших Коммунаров,655018,53.7116321,91.4557206
91,Минусинская улица,655018,53.7143266,91.4564466
84,улица Димитрова,655018,53.7130947,91.4534707
97,Минусинская улица,655018,53.7141619,91.4550517
29,улица Тараса Шевченко,655018,53.7128053,91.4596781
57,улица Димитрова,655018,53.7122912,91.4548559
76,улица Димитрова,655018,53.7130023,91.4552939
4,улица Есенина,655014,53.6753946,91.4013054
12А,улица Есенина,655014,53.6747344,91.4030893
23,улица Итыгина,655004,53.7269747,91.4014590
6,улица Журавлёва,655011,53.7019430,91.3953774
22,улица Кошурникова,655011,53.7055923,91.3942840
22,проспект Дружбы Народов,655016,53.7401869,91.4311508
2,улица Попова,655002,53.7111686,91.4360477
70,Портовая улица,655015,53.7125978,91.5097207
34,улица Луначарского,655015,53.7111778,91.5091070
44,улица Мичурина,655015,53.7118152,91.5082108
15,Флотская улица,655015,53.7115013,91.5082165
17,Флотская улица,655015,53.7115071,91.5089740
17А,Флотская улица,655015,53.7118385,91.5088430
32,улица Луначарского,655015,53.7111105,91.5083750
21,улица Тельмана,655003,53.7324270,91.4549742
11В,улица Кравченко,655004,53.7199846,91.4096327
11Ж,улица Кравченко,655004,53.7179938,91.4072663
11Ю,улица Кравченко,655004,53.7196288,91.4082179
136,Советская улица,655004,53.7186061,91.4131127
184,проспект Ленина,655004,53.7193271,91.4129214
186,проспект Ленина,655004,53.7192852,91.4125768
188,проспект Ленина,655004,53.7192331,91.4121607
190,проспект Ленина,655004,53.7191951,91.4117992
192,проспект Ленина,655004,53.7191322,91.4114190
22А,улица Итыгина,655004,53.7217857,91.4020335
25,улица Гайдара,655004,53.7182093,91.4117480
27,улица Гайдара,655004,53.7184261,91.4116794
28,улица Добролюбова,655004,53.7195133,91.4128723
29,улица Гайдара,655004,53.7187072,91.4115842
30,улица Добролюбова,655004,53.7197032,91.4129765
31,улица Володарского,655004,53.7198471,91.4137885
31,улица Добролюбова,655004,53.7196574,91.4124711
32,улица Добролюбова,655004,53.7200366,91.4128989
32А,улица Добролюбова,655004,53.7198582,91.4129654
33,улица Володарского,655004,53.7200140,91.4137357
33,улица Добролюбова,655004,53.7199575,91.4123673
35,улица Володарского,655004,53.7202020,91.4136759
81,Партизанская улица,655004,53.7203572,91.4122294
54,улица Кирова,655017,53.7287849,91.4533652
36,улица Чехова,655017,53.7300027,91.4521861
54,улица Чкалова,655017,53.7291436,91.4519552
10,Баланкульский проезд,655004,53.7232242,91.4148772
11А,Баланкульский проезд,655004,53.7246156,91.4139725
185,улица Чертыгашева,655004,53.7217268,91.4126684
193,улица Чертыгашева,655004,53.7215802,91.4110520
2,Баланкульский проезд,655004,53.7224991,91.4150623
203,улица Кирова,655004,53.7244818,91.4175860
208,улица Кирова,655004,53.7247607,91.4168154
208А,улица Кирова,655004,53.7247418,91.4170845
209,улица Кирова,655004,53.7243192,91.4159758
210,улица Кирова,655004,53.7246549,91.4158802
211,улица Кирова,655004,53.7242503,91.4154615
212,улица Кирова,655004,53.7245622,91.4154425
213,улица Кирова,655004,53.7242402,91.4152093
214,улица Кирова,655004,53.7245403,91.4151038
215,улица Кирова,655004,53.7241862,91.4149302
216,улица Кирова,655004,53.7245021,91.4148055
218,улица Кирова,655004,53.7244477,91.4144883
218А,улица Кирова,655004,53.7247256,91.4143582
220,улица Кирова,655004,53.7244104,91.4140309
221,улица Кирова,655004,53.7240925,91.4135233
222,улица Кирова,655004,53.7243340,91.4135639
223,улица Кирова,655004,53.7240713,91.4132197
224,улица Кирова,655004,53.7243244,91.4132888
224Б,улица Богдана Хмельницкого,655004,53.7240252,91.4180970
224В,улица Богдана Хмельницкого,655004,53.7240046,91.4176857
224Г,улица Богдана Хмельницкого,655004,53.7239543,91.4173349
226А,улица Богдана Хмельницкого,655004,53.7238014,91.4157120
226Б,улица Богдана Хмельницкого,655004,53.7238033,91.4153069
226В,улица Богдана Хмельницкого,655004,53.7237632,91.4150537
226Г,улица Богдана Хмельницкого,655004,53.7237230,91.4146652
226Д,улица Богдана Хмельницкого,655004,53.7236580,91.4140075
227,улица Кирова,655004,53.7239506,91.4120835
228,улица Богдана Хмельницкого,655004,53.7236276,91.4136564
228,улица Кирова,655004,53.7241955,91.4118821
228,улица Чертыгашева,655004,53.7231485,91.4214896
230,улица Богдана Хмельницкого,655004,53.7235278,91.4127180
230,улица Чертыгашева,655004,53.7231047,91.4211590
232,улица Богдана Хмельницкого,655004,53.7234940,91.4122127
232,улица Чертыгашева,655004,53.7230781,91.4208600
234,улица Богдана Хмельницкого,655004,53.7234304,91.4116664
234,улица Чертыгашева,655004,53.7230490,91.4205669
236,улица Богдана Хмельницкого,655004,53.7234113,91.4113105
236,улица Чертыгашева,655004,53.7230095,91.4202392
238,улица Богдана Хмельницкого,655004,53.7233693,91.4108356
238,улица Чертыгашева,655004,53.7229738,91.4200121
240,улица Богдана Хмельницкого,655004,53.7233321,91.4105103
240,улица Чертыгашева,655004,53.7229470,91.4196894
242,улица Чертыгашева,655004,53.7229095,91.4192579
244,улица Чертыгашева,655004,53.7228791,91.4189640
244А,улица Чертыгашева,655004,53.7228677,91.4187673
246,улица Чертыгашева,655004,53.7228375,91.4185396
248,улица Чертыгашева,655004,53.7228081,91.4182172
250,улица Чертыгашева,655004,53.7227722,91.4178562
252,улица Чертыгашева,655004,53.7227628,91.4175603
254,улица Чертыгашева,655004,53.7227179,91.4172035
255Б,улица Богдана Хмельницкого,655004,53.7235735,91.4183545
255В,улица Богдана Хмельницкого,655004,53.7235997,91.4187902
255Д,улица Богдана Хмельницкого,655004,53.7236767,91.4191080
255Е,улица Богдана Хмельницкого,655004,53.7236649,91.4195924
256,улица Чертыгашева,655004,53.7226308,91.4164930
257А,улица Богдана Хмельницкого,655004,53.7235678,91.4179063
257Б,улица Богдана Хмельницкого,655004,53.7234664,91.4171663
258,улица Чертыгашева,655004,53.7225953,91.4160300
259,улица Богдана Хмельницкого,655004,53.7233550,91.4153410
260,улица Чертыгашева,655004,53.7224355,91.4145776
261,улица Богдана Хмельницкого,655004,53.7232760,91.4143778
262,улица Чертыгашева,655004,53.7224710,91.4143541
263,улица Богдана Хмельницкого,655004,53.7232310,91.4139580
264,улица Чертыгашева,655004,53.7223683,91.4137508
266,улица Чертыгашева,655004,53.7222812,91.4130405
267А,улица Богдана Хмельницкого,655004,53.7230844,91.4124792
268,улица Чертыгашева,655004,53.7222659,91.4127376
279,улица Богдана Хмельницкого,655004,53.7228639,91.4102849
281,улица Богдана Хмельницкого,655004,53.7228345,91.4098190
283,улица Богдана Хмельницкого,655004,53.7228018,91.4094747
285А,улица Богдана Хмельницкого,655004,53.7226840,91.4086310
3,Баланкульский проезд,655004,53.7229750,91.4144269
4,Баланкульский проезд,655004,53.7226689,91.4150097
42,улица Гайдара,655004,53.7226491,91.4107458
42,улица Добролюбова,655004,53.7213137,91.4123108
43,улица Добролюбова,655004,53.7210375,91.4120212
45,улица Добролюбова,655004,53.7212354,91.4119584
48,улица Чернышевского,655004,53.7241558,91.4168153
48А,улица Гайдара,655004,53.7238081,91.4103607
54,улица Чернышевского,655004,53.7250736,91.4165671
55,улица Добролюбова,655004,53.7227112,91.4115378
56,улица Володарского,655004,53.7225841,91.4136846
57,улица Добролюбова,655004,53.7229543,91.4114513
57,улица Чернышевского,655004,53.7233769,91.4161850
58,улица Володарского,655004,53.7227772,91.4136176
58,улица Добролюбова,655004,53.7237150,91.4116004
59,улица Володарского,655004,53.7239911,91.4125859
6,Баланкульский проезд,655004,53.7228635,91.4149235
60,улица Володарского,655004,53.7232013,91.4136405
61,улица Добролюбова,655004,53.7238064,91.4111968
63,улица Чернышевского,655004,53.7249810,91.4157911
7,Баланкульский проезд,655004,53.7239184,91.4141868
8,Баланкульский проезд,655004,53.7230980,91.4148509
82,Партизанская улица,655004,53.7208436,91.4120961
84,Партизанская улица,655004,53.7207874,91.4116140
86,Партизанская улица,655004,53.7207644,91.4112801
9,Баланкульский проезд,655004,53.7241064,91.4141127
67,улица Щорса,655018,53.7100088,91.4690739
19,улица Чебодаева,655018,53.7094479,91.4693572
68,улица Будённого,655015,53.7076629,91.5050852
1,улица Репина,655003,53.7339410,91.4439990
13,улица Репина,655003,53.7334668,91.4421770
131,улица Тараса Шевченко,655003,53.7330984,91.4529844
139,улица Тараса Шевченко,655003,53.7343961,91.4527042
26,улица Тельмана,655003,53.7326967,91.4529544
27,улица Фрунзе,655003,53.7353294,91.4524158
28,улица Белинского,655003,53.7329668,91.4524823
28,улица Тельмана,655003,53.7325917,91.4527381
30,Енисейская улица,655003,53.7336886,91.4521579
30,улица Тельмана,655003,53.7325633,91.4525200
31,Енисейская улица,655003,53.7334259,91.4528609
32,улица Белинского,655003,53.7329243,91.4519818
32,улица Советской Армии,655003,53.7346087,91.4518034
32,улица Тельмана,655003,53.7326562,91.4523277
33,Енисейская улица,655003,53.7333964,91.4525537
34,улица Тельмана,655003,53.7325670,91.4519462
35,Енисейская улица,655003,53.7333660,91.4521433
35,улица Советской Армии,655003,53.7343023,91.4515123
36,Енисейская улица,655003,53.7336135,91.4512048
36,улица Тельмана,655003,53.7325210,91.4516235
37,Енисейская улица,655003,53.7333360,91.4518119
38,улица Тельмана,655003,53.7324481,91.4512731
40,улица Тельмана,655003,53.7323799,91.4508697
46,Енисейская улица,655003,53.7333899,91.4486789
55,Енисейская улица,655003,53.7329163,91.4475471
56,улица Вяткина,655003,53.7338984,91.4447517
59,Енисейская улица,655003,53.7328149,91.4468951
60,улица Тельмана,655003,53.7319636,91.4469814
61,Енисейская улица,655003,53.7328778,91.4466663
61,улица Вяткина,655003,53.7321896,91.4445058
62,улица Вяткина,655003,53.7341441,91.4446722
63,улица Вяткина,655003,53.7327691,91.4443810
64,улица Вяткина,655003,53.7342831,91.4446650
67,улица Вяткина,655003,53.7333862,91.4441695
68,Енисейская улица,655003,53.7335154,91.4459853
68,улица Тельмана,655003,53.7321283,91.4471089
68А,Енисейская улица,655003,53.7335353,91.4461456
72,улица Тельмана,655003,53.7317831,91.4444264
73,Енисейская улица,655003,53.7325309,91.4423135
78,улица Чкалова,655003,53.7326247,91.4508121
80,Енисейская улица,655003,53.7330759,91.4429064
80,улица Чкалова,655003,53.7328713,91.4506720
9,улица Репина,655003,53.7338284,91.4424568
10,Ташебинский проезд,655017,53.7300499,91.4486054
102,улица Кирова,655017,53.7281597,91.4441203
22,улица Вяткина,655017,53.7295636,91.4460132
24,улица Вяткина,655017,53.7298210,91.4459916
29,улица Чехова,655017,53.7295653,91.4530290
33,улица Чехова,655017,53.7295053,91.4523999
40,улица Бограда,655017,53.7311171,91.4503055
40,улица Чехова,655017,53.7298174,91.4508069
43,улица Чехова,655017,53.7293246,91.4502031
45,улица Чехова,655017,53.7290015,91.4500541
45,улица Чкалова,655017,53.7290659,91.4511084
48,улица Чехова,655017,53.7296783,91.4491348
49,улица Тельмана,655017,53.7317615,91.4484899
49,улица Чехова,655017,53.7292463,91.4493689
50,Бейская улица,655017,53.7310872,91.4460832
53,улица Тельмана,655017,53.7317166,91.4478157
53,улица Чехова,655017,53.7291903,91.4490055
55,улица Тельмана,655017,53.7316790,91.4475675
58,улица Бограда,655017,53.7309454,91.4471760
58,улица Кирова,655017,53.7288080,91.4528524
59,улица Тельмана,655017,53.7316116,91.4467530
59,улица Чехова,655017,53.7290986,91.4481857
60,улица Бограда,655017,53.7307636,91.4468169
60,улица Кирова,655017,53.7287248,91.4526651
61,улица Тельмана,655017,53.7315697,91.4464076
62,улица Кирова,655017,53.7286833,91.4522060
67,улица Бограда,655017,53.7305275,91.4496415
71,улица Бограда,655017,53.7305427,91.4490033
71,улица Чехова,655017,53.7290366,91.4470710
76,улица Кирова,655017,53.7284023,91.4494278
78,улица Чехова,655017,53.7292408,91.4438746
8,Ташебинский проезд,655017,53.7300896,91.4491891
81,улица Бограда,655017,53.7303388,91.4473393
82,улица Чехова,655017,53.7291933,91.4435152
83,улица Бограда,655017,53.7303158,91.4470260
84,улица Чехова,655017,53.7291582,91.4431524
86,улица Кирова,655017,53.7285935,91.4479104
87,улица Бограда,655017,53.7302951,91.4463581
92,улица Кирова,655017,53.7282867,91.4476403
10,улица Катанова,655012,53.7259503,91.4735385
165,улица Чертыгашева,655004,53.7221146,91.4166076
9,Трудовая улица,655017,53.7165551,91.4278866
1,улица Стофато,655009,53.6956735,91.4082899
152Б,Аскизская улица,655009,53.6963684,91.4100766
152В,Аскизская улица,655009,53.6960504,91.4091509
44,улица Карла Маркса,655000,53.7296041,91.4392064
4 к1,улица Торосова,655001,53.7364138,91.4187964
4 к2,улица Торосова,655001,53.7359749,91.4192005
8,улица Авиаторов,655016,53.7392038,91.4140995
99Б,улица Кирова,655017,53.7264792,91.4361271
101,улица Кирова,655017,53.7263830,91.4351644
5А,улица Щорса,655017,53.7237729,91.4681375
8,улица Некрасова,655017,53.7184171,91.4261565
7В,улица Торосова,655016,53.7388268,91.4168842
12,улица Стофато,655009,53.6986959,91.4030056
12А,улица Стофато,655009,53.6982191,91.4018287
14,улица Стофато,655009,53.6984066,91.4003162
14А,улица Стофато,655009,53.6987016,91.3995485
19Г,Пирятинская улица,655011,53.6988578,91.3979593
17В,Пирятинская улица,655011,53.6995977,91.3984445
5Д,улица Стофато,655009,53.7003328,91.4045116
24Б,улица Ломоносова,655011,53.7001739,91.4061279
24А,улица Ломоносова,655011,53.7004635,91.4068319
24,улица Ломоносова,655011,53.7007229,91.4074994
24,улица Ломоносова,655011,53.7004772,91.4074385
24А,улица Ломоносова,655011,53.7002136,91.4067577
23А,Пирятинская улица,655011,53.7003064,91.3953622
68А,улица Крылова,655003,53.7369517,91.4464788
41,улица Некрасова,655001,53.7293101,91.4153098
39,улица Некрасова,655001,53.7287560,91.4163003
37,улица Некрасова,655001,53.7279475,91.4167419
6,улица Авиаторов,655016,53.7382206,91.4141144
11,улица Торосова,655016,53.7390715,91.4201613
10,улица Катанова,655012,53.7259738,91.4727139
10,улица Катанова,655012,53.7264147,91.4726065
14,Вокзальная улица,655017,53.7161077,91.4438174
16,Вокзальная улица,655017,53.7160611,91.4430656
3,улица Стофато,655009,53.6960852,91.4077240
22А,улица Щетинкина,655017,53.7236609,91.4448890
8,улица Катанова,655012,53.7251281,91.4722974
25А,Пирятинская улица,655011,53.6989022,91.3937396
14,проспект Дружбы Народов,655010,53.7393785,91.4370507
145,Аскизская улица,655009,53.7001229,91.4220028
6,Красноярская улица,655012,53.7170381,91.4776971
2 к2,улица Арбан,655001,53.7270254,91.4169414
2 к1,улица Арбан,655001,53.7267766,91.4163100
197В к1,улица Чертыгашева,655004,53.7209563,91.4094757
197В к3,улица Чертыгашева,655004,53.7208909,91.4085994
3Б,Заводская улица,655004,53.7067668,91.3750618
12,Вокзальная улица,655017,53.7162671,91.4445258
6А,улица Авиаторов,655016,53.7382534,91.4151997
8А,улица Авиаторов,655016,53.7391965,91.4154842
25В с1,улица Итыгина,655004,53.7283320,91.3968924
160,улица Павших Коммунаров,655018,53.7109916,91.4489720
33Б,улица Гагарина,665002,53.7093134,91.4300840
74Ик4,улица Будённого,655015,53.7051118,91.5086660
9,улица Тараса Шевченко,655018,53.7094208,91.4606524
8 с2,улица Катанова,655012,53.7248807,91.4727075
57,улица Карла Маркса,655017,53.7287958,91.4364705
74Л,улица Будённого,655015,53.7052565,91.5094093
74Д,улица Будённого,655015,53.7063399,91.5093555
27,улица Станишевских,655011,53.7073122,91.4120691
22/2,Мебельная улица,655003,53.7383325,91.4658536
20,Мебельная улица,655003,53.7383631,91.4662680
8,Мебельная улица,655003,53.7386403,91.4682574
3/1,улица Ушинского,655003,53.7390714,91.4683915
2,Мебельная улица,655003,53.7388432,91.4690957
7,улица Ушинского,655003,53.7390204,91.4677839
17,улица Ушинского,655003,53.7388778,91.4662283
9,Тринадцатая улица,655014,53.6738313,91.3730612
18,Двенадцатая улица,655014,53.6729125,91.3722423
30/1,Двенадцатая улица,655014,53.6723793,91.3704597
31,Тринадцатая улица,655014,53.6726743,91.3693915
27,Тринадцатая улица,655014,53.6729260,91.3701823
25,Тринадцатая улица,655014,53.6730329,91.3704802
23,Тринадцатая улица,655014,53.6731255,91.3708582
21,Тринадцатая улица,655014,53.6732233,91.3711668
17,Тринадцатая улица,655014,53.6734628,91.3719224
15,Тринадцатая улица,655014,53.6735309,91.3721059
13,Тринадцатая улица,655014,53.6736259,91.3724505
11,Тринадцатая улица,655014,53.6737643,91.3728436
7,Тринадцатая улица,655014,53.6739850,91.3733543
5,Тринадцатая улица,655014,53.6741740,91.3736945
3,Тринадцатая улица,655014,53.6742877,91.3739332
1,Тринадцатая улица,655014,53.6744793,91.3742391
2,Двенадцатая улица,655014,53.6739903,91.3748973
6,Двенадцатая улица,655014,53.6737028,91.3743312
8,Двенадцатая улица,655014,53.6737116,91.3738235
12,Двенадцатая улица,655014,53.6732301,91.3733324
14,Двенадцатая улица,655014,53.6731080,91.3729649
16,Двенадцатая улица,655014,53.6730010,91.3726214
20,Двенадцатая улица,655014,53.6728170,91.3719546
22,Двенадцатая улица,655014,53.6727107,91.3716758
24,Двенадцатая улица,655014,53.6726022,91.3712541
26,Двенадцатая улица,655014,53.6725202,91.3708875
30/2,Двенадцатая улица,655014,53.6723391,91.3703181
32,Двенадцатая улица,655014,53.6722826,91.3697923
33А,улица Некрасова,655001,53.7265573,91.4199106
8,улица Арбан,655001,53.7290862,91.4131316
10,улица Арбан,655001,53.7291397,91.4120432
2,улица Генерала Тихонова,655001,53.7303219,91.4121715
27,Фабричная улица,655003,53.7368538,91.4703823
83А,улица Павших Коммунаров,655018,53.7120865,91.4644458
42,улица Герцена,655018,53.7109180,91.4640256
30,улица Герцена,655018,53.7104780,91.4642449
32,улица Герцена,655018,53.7102216,91.4643329
35,улица Герцена,655018,53.7105340,91.4647382
39,улица Герцена,655018,53.7101018,91.4649192
39,улица Герцена,655018,53.7098637,91.4649469
45,улица Герцена,655018,53.7093716,91.4651749
30,улица Герцена,655018,53.7105502,91.4641100
39,улица Энгельса,655018,53.7103515,91.4627029
16,улица Тараса Шевченко,655018,53.7097072,91.4612891
49А,улица Энгельса,655018,53.7100533,91.4603355
9Б,улица Тараса Шевченко,655018,53.7098827,91.4605018
9В,улица Тараса Шевченко,655018,53.7097064,91.4606117
9В,улица Тараса Шевченко,655018,53.7097878,91.4605515
46,улица Чебодаева,655018,53.7092326,91.4634300
36,улица Чебодаева,655018,53.7094382,91.4657798
32,улица Чебодаева,655018,53.7095374,91.4668700
24,улица Чебодаева,655018,53.7097776,91.4686358
30,улица Чебодаева,655018,53.7096089,91.4674139
28,улица Чебодаева,655018,53.7096832,91.4678311
26,улица Чебодаева,655018,53.7096977,91.4682208
44,улица Островского,655018,53.7099641,91.4667951
36,улица Островского,655018,53.7106649,91.4665819
40,улица Островского,655018,53.7102708,91.4666899
43,улица Островского,655018,53.7107925,91.4670565
43,улица Островского,655018,53.7106493,91.4669757
45,улица Островского,655018,53.7103136,91.4671568
47,улица Островского,655018,53.7101333,91.4672184
49,улица Островского,655018,53.7100358,91.4672721
51,улица Островского,655018,53.7098564,91.4672935
23,улица Энгельса,655018,53.7108364,91.4674763
21,улица Энгельса,655018,53.7108873,91.4678844
80,улица Щорса,655018,53.7109032,91.4683767
16,Вокзальная улица,655017,53.7163019,91.4429978
15/1,улица Луначарского,655015,53.7102698,91.5034828
17/2,улица Луначарского,655015,53.7104091,91.5042370
20,Рыбацкая улица,655015,53.7106137,91.5038220
19,Заречная улица,655015,53.7105321,91.5033763
21,Заречная улица,655015,53.7104286,91.5029080
15,Заречная улица,655015,53.7105972,91.5028191
17,Заречная улица,655015,53.7106869,91.5032923
18,Рыбацкая улица,655015,53.7107646,91.5036940
16,Рыбацкая улица,655015,53.7108408,91.5041815
22,улица Мичурина,655015,53.7110917,91.5040403
20,улица Мичурина,655015,53.7110095,91.5036044
18,улица Мичурина,655015,53.7109519,91.5032877
16,улица Мичурина,655015,53.7109033,91.5030437
14,улица Мичурина,655015,53.7108472,91.5027051
214,улица Богдана Хмельницкого,655017,53.7247605,91.4253269
"260Б, помещение 1Н",Аскизская улица,655009,53.6876123,91.3853438
260Б,Аскизская улица,655009,53.6874617,91.3846050
14,улица Есенина,655014,53.6746435,91.4033352
7,улица Есенина,655014,53.6747359,91.4018073
12,улица Есенина,655014,53.6748189,91.4028743
25В с2,улица Итыгина,655004,53.7274934,91.3972968
85,улица Крылова,655001,53.7311308,91.4167207
39,улица Чкалова,655017,53.7273548,91.4493049
67,проспект Ленина,655019,53.7217378,91.4421826
6,улица Журавлёва,655011,53.7019595,91.3953571
11З,улица Кравченко,655004,53.7184934,91.4088468
17,улица Ивана Ярыгина,655017,53.7254305,91.4312053
7А,улица Комарова,655010,53.7392394,91.4414978
43,проспект Дружбы Народов,655016,53.7443613,91.4155803
94,Советская улица,655004,53.7196957,91.4223116
