House number,Street name,Postal code,Latitude,Longitude
7,Strada Morii,545400,46.2201199,24.7946273
7,Strada Consiliul Europei,545400,46.2209369,24.7987076
10,Strada Nicolae Titulescu,545400,46.2247444,24.7991207
25,Strada Cartier Venchi,545400,46.2452589,24.7556607
10,Strada Școlii,545400,46.2194510,24.7919490
1,Piața Muzeului,545400,46.2192920,24.7932800
1,Strada Cornești,545400,46.2206513,24.7819369
10,Strada Cornești,545400,46.2212325,24.7813232
11,Strada Cornești,545400,46.2209206,24.7812963
12,Strada Cornești,545400,46.2213099,24.7811396
13,Strada Cornești,545400,46.2209909,24.7811106
14,Strada Cornești,545400,46.2213835,24.7809874
15,Strada Cornești,545400,46.2210538,24.7809564
16,Strada Cornești,545400,46.2214393,24.7808694
17,Strada Cornești,545400,46.2211113,24.7808087
18,Strada Cornești,545400,46.2214985,24.7807278
19,Strada Cornești,545400,46.2211782,24.7806598
2,Strada Cornești,545400,46.2209626,24.7820940
20,Strada Cornești,545400,46.2215551,24.7805913
21,Strada Cornești,545400,46.2212349,24.7805155
22,Strada Cornești,545400,46.2216592,24.7803614
23,Strada Cornești,545400,46.2212781,24.7803748
24,Strada Cornești,545400,46.2217003,24.7802792
25,Strada Cornești,545400,46.2213631,24.7802000
27,Strada Cornești,545400,46.2214091,24.7800647
3,Strada Cornești,545400,46.2206971,24.7818381
4,Strada Cornești,545400,46.2209528,24.7819991
5,Strada Cornești,545400,46.2207520,24.7817096
6,Strada Cornești,545400,46.2210945,24.7816200
7,Strada Cornești,545400,46.2207935,24.7816035
8,Strada Cornești,545400,46.2211897,24.7814139
8A,Strada Cornești,545400,46.2211675,24.7814633
9,Strada Cornești,545400,46.2208763,24.7814094
16,Piața Hermann Oberth,545400,46.2180173,24.7948833
10,Strada Viilor,545400,46.2304975,24.8049024
92,Strada Mihai Viteazul,545400,46.2275314,24.8121300
42A,Strada Zaharia Boiu,545400,46.2210475,24.7841368
23,Strada Zaharia Boiu,545400,46.2209956,24.7874634
44,Strada Zaharia Boiu,545400,46.2210160,24.7834448
5,Strada Zaharia Boiu,545400,46.2211367,24.7899492
50,Strada Zaharia Boiu,545400,46.2209510,24.7824041
1,Strada Zaharia Boiu,545400,46.2211905,24.7907458
15,Strada Zaharia Boiu,545400,46.2210383,24.7882037
10,Strada Zaharia Boiu,545400,46.2213166,24.7898184
3,Strada Zaharia Boiu,545400,46.2211589,24.7902315
4,Strada Zaharia Boiu,545400,46.2213501,24.7905795
17,Strada Zaharia Boiu,545400,46.2210272,24.7880448
6,Strada Zaharia Boiu,545400,46.2213279,24.7902978
36,Strada Zaharia Boiu,545400,46.2211199,24.7857354
19,Strada Zaharia Boiu,545400,46.2210104,24.7878356
38,Strada Zaharia Boiu,545400,46.2211033,24.7852553
27,Strada Zaharia Boiu,545400,46.2209715,24.7870470
11,Strada Zaharia Boiu,545400,46.2210736,24.7887904
12A,Strada Zaharia Boiu,545400,46.2213186,24.7896836
7,Strada Zaharia Boiu,545400,46.2211163,24.7894905
13,Strada Zaharia Boiu,545400,46.2210421,24.7883532
14,Strada Zaharia Boiu,545400,46.2212982,24.7892571
40-42,Strada Zaharia Boiu,545400,46.2210569,24.7846793
9,Strada Zaharia Boiu,545400,46.2210939,24.7891177
46,Strada Zaharia Boiu,545400,46.2209790,24.7828306
1B,Strada Zaharia Boiu,545400,46.2211683,24.7904695
48,Strada Zaharia Boiu,545400,46.2209660,24.7826348
21,Strada Zaharia Boiu,545400,46.2210031,24.7876559
8,Strada Zaharia Boiu,545400,46.2213240,24.7900645
27A,Strada Zaharia Boiu,545400,46.2209344,24.7865964
32,Strada Zaharia Boiu,545400,46.2211571,24.7864167
25,Strada Zaharia Boiu,545400,46.2209845,24.7872643
2,Strada Zaharia Boiu,545400,46.2213612,24.7908638
12,Strada Zaharia Boiu,545400,46.2213112,24.7895656
22,Strada Ștefan Octavian Iosif,545400,46.2140652,24.7905795
8,Strada Nicolae Titulescu,545400,46.2251282,24.7982150
25,Strada Ștefan Octavian Iosif,545400,46.2146119,24.7927459
15,"Str. December 1, 1918",545400,46.2188256,24.7952016
12,Strada Târnavei,545400,46.2231955,24.7884612
12,Strada Octavian Goga,545400,46.2198962,24.7959226
20,Strada Alexandru cel Bun,545400,46.2222853,24.8034650
5,Strada Stejarului,545500,46.2346433,24.8051960
17,Strada Andrei Șaguna,545400,46.2226043,24.7943674
3,Strada Turnului,545400,46.2186499,24.7934621
31,Piața Hermann Oberth,545400,46.2168743,24.7935263
32,Piața Hermann Oberth,545400,46.2167761,24.7935272
24,Piața Hermann Oberth,545400,46.2173569,24.7941598
28,Piața Hermann Oberth,545400,46.2169985,24.7936776
39,Piața Hermann Oberth,545400,46.2173592,24.7928619
36,Piața Hermann Oberth,545400,46.2170234,24.7926778
26,Piața Hermann Oberth,545400,46.2170952,24.7938750
29,Piața Hermann Oberth,545400,46.2168883,24.7936755
25,Piața Hermann Oberth,545400,46.2172525,24.7940161
37,Piața Hermann Oberth,545400,46.2171130,24.7928196
35,Piața Hermann Oberth,545400,46.2169208,24.7925730
27,Piața Hermann Oberth,545400,46.2171226,24.7936343
5,Strada Turnului,545400,46.2185290,24.7934652
20,Strada Ștefan Octavian Iosif,545400,46.2141166,24.7906622
7,Strada Turnului,545400,46.2184726,24.7934654
4,Strada Nicolae Iorga,545400,46.2194752,24.7986836
9,Strada Turnului,545400,46.2183963,24.7934663
38,Piața Hermann Oberth,545400,46.2171912,24.7929898
23,Piața Hermann Oberth,545400,46.2174375,24.7942228
11c,Cartier Rora,545400,46.2298769,24.7383075
6,Strada Consiliul Europei,545400,46.2204180,24.7960886
