House number,Street name,Postal code,Latitude,Longitude
256,Bulevardul 1 Decembrie 1918,540471,46.5259653,24.5998806
53A,Bulevardul Pandurilor,540494,46.5337314,24.5714311
27,Strada Morii,540321,46.5491720,24.5561890
27,Strada Morii,540321,46.5488890,24.5561153
255,Bulevardul 1 Decembrie 1918,540510,46.5329841,24.5896400
216,Bulevardul 1 Decembrie 1918,540509,46.5327328,24.5890362
221,Bulevardul 1 Decembrie 1918,540545,46.5349765,24.5842171
12,Strada Secuilor Martiri,540640,46.5574674,24.5754640
17,Bulevardul 1848,540374,46.5325529,24.5590582
23,Bulevardul 1848,540375,46.5312023,24.5574018
37,Bulevardul 1848,540660,46.5305565,24.5566451
43,Bulevardul 1848,540406,46.5301169,24.5563716
57,Bulevardul 1848,540429,46.5297502,24.5556800
15,Bulevardul 1848,540374,46.5327419,24.5592731
49,Bulevardul 1 Decembrie 1918,540061,46.5393073,24.5640356
97,Bulevardul 1 Decembrie 1918,540445,46.5388202,24.5697798
107,Bulevardul 1 Decembrie 1918,540445,46.5388274,24.5707990
109A,Bulevardul 1 Decembrie 1918,540445,46.5391838,24.5715184
221,Bulevardul 1 Decembrie 1918,540545,46.5350360,24.5840833
219,Bulevardul 1 Decembrie 1918,540545,46.5351309,24.5838806
180,Bulevardul 1 Decembrie 1918,540545,46.5347323,24.5835858
56,Bulevardul 1848,540429,46.5297547,24.5547649
2A,Strada Revoluției,540600,46.5468795,24.5639403
16,Piața Trandafirilor,540049,46.5448339,24.5609621
12,Strada Secuilor Martiri,540640,46.5571015,24.5758361
250,Bulevardul 1 Decembrie 1918,540471,46.5273189,24.5982514
211,Bulevardul 1 Decembrie 1918,540541,46.5361026,24.5823099
35,Strada Insulei,540337,46.5447076,24.5355406
49,Strada Verii,540080,46.5465703,24.5861336
217,Bulevardul 1 Decembrie 1918,540545,46.5354504,24.5833024
14,Strada Zăgazului,540111,46.5563462,24.5656050
26,Strada Răsăritului,540143,46.5515850,24.5830069
22,Strada Răsăritului,540143,46.5520328,24.5819395
3,Strada Bradului,540077,46.5418648,24.5674940
2,Strada Preot Ștefan Rusu,540082,46.5500983,24.5810569
1,Strada Preot Ștefan Rusu,540082,46.5499489,24.5806572
251,Bulevardul 1 Decembrie 1918,540509,46.5332263,24.5887238
28,Strada Bolyai,540067,46.5427251,24.5646916
27,Strada Morii,540321,46.5488981,24.5563765
162,Bulevardul 1 Decembrie 1918,540525,46.5361351,24.5809923
142,Bulevardul 1 Decembrie 1918,540447,46.5389239,24.5775392
102,Bulevardul 1 Decembrie 1918,540447,46.5385976,24.5714045
144,Bulevardul 1 Decembrie 1918,540525,46.5381249,24.5790028
41,Strada Liviu Rebreanu,540610,46.5337906,24.5507201
100,Bulevardul 1 Decembrie 1918,540447,46.5385814,24.5709349
2,Strada Armoniei,540477,46.5362320,24.5838105
3,Strada Armoniei,540477,46.5361684,24.5835859
42,Bulevardul 22 Decembrie 1989,540136,46.5583138,24.5774105
15B,Strada Moldovei,540542,46.5357752,24.5799837
9B,Strada Moldovei,540522,46.5358312,24.5765053
11B,Strada Moldovei,540522,46.5359208,24.5770919
17B,Strada Moldovei,540542,46.5358838,24.5805634
7B,Strada Moldovei,540522,46.5357396,24.5759229
11A,Strada Moldovei,540522,46.5358546,24.5768092
13A,Strada Moldovei,540542,46.5355761,24.5790811
17A,Strada Moldovei,540542,46.5357934,24.5802300
13B,Strada Moldovei,540542,46.5356646,24.5794077
22,Strada Moldovei,540519,46.5347886,24.5782624
15A,Strada Moldovei,540542,46.5356848,24.5796503
7A,Strada Moldovei,540522,46.5356748,24.5756460
20A,Strada Moldovei,540519,46.5347067,24.5777017
9A,Strada Moldovei,540522,46.5357650,24.5762226
212,Bulevardul 1 Decembrie 1918,540509,46.5327834,24.5883385
218,Bulevardul 1 Decembrie 1918,540509,46.5323811,24.5895903
214,Bulevardul 1 Decembrie 1918,540509,46.5327242,24.5888252
210,Bulevardul 1 Decembrie 1918,540509,46.5329003,24.5880015
208,Bulevardul 1 Decembrie 1918,540509,46.5330157,24.5876706
216,Bulevardul 1 Decembrie 1918,540509,46.5324761,24.5892995
94,Bulevardul 1 Decembrie 1918,540447,46.5386251,24.5700683
96,Bulevardul 1 Decembrie 1918,540447,46.5386237,24.5703500
98,Bulevardul 1 Decembrie 1918,540447,46.5386222,24.5706231
92,Bulevardul 1 Decembrie 1918,540447,46.5386266,24.5697755
1,Bulevardul 1 Decembrie 1918,540061,46.5401477,24.5589874
11,Strada Bucinului,540541,46.5357245,24.5814261
13,Strada Bucinului,540541,46.5355493,24.5818613
15,Strada Bucinului,540541,46.5353842,24.5823487
148,Bulevardul 1 Decembrie 1918,540525,46.5377444,24.5794403
154,Bulevardul 1 Decembrie 1918,540525,46.5371249,24.5802812
158,Bulevardul 1 Decembrie 1918,540525,46.5367404,24.5807075
160,Bulevardul 1 Decembrie 1918,540525,46.5363616,24.5808702
146,Bulevardul 1 Decembrie 1918,540525,46.5379439,24.5792375
150,Bulevardul 1 Decembrie 1918,540525,46.5375629,24.5796719
152,Bulevardul 1 Decembrie 1918,540525,46.5373080,24.5800529
156,Bulevardul 1 Decembrie 1918,540525,46.5369237,24.5804790
112,Bulevardul 1 Decembrie 1918,540447,46.5386464,24.5729501
114,Bulevardul 1 Decembrie 1918,540447,46.5386292,24.5733365
140,Bulevardul 1 Decembrie 1918,540447,46.5389550,24.5771957
128,Bulevardul 1 Decembrie 1918,540447,46.5388061,24.5755457
126,Bulevardul 1 Decembrie 1918,540447,46.5387072,24.5752224
120,Bulevardul 1 Decembrie 1918,540447,46.5387374,24.5742406
108,Bulevardul 1 Decembrie 1918,540447,46.5386724,24.5723164
134,Bulevardul 1 Decembrie 1918,540447,46.5388612,24.5764858
130,Bulevardul 1 Decembrie 1918,540447,46.5388345,24.5758236
138,Bulevardul 1 Decembrie 1918,540447,46.5389040,24.5768542
122,Bulevardul 1 Decembrie 1918,540447,46.5387459,24.5745326
110,Bulevardul 1 Decembrie 1918,540447,46.5386821,24.5726064
116,Bulevardul 1 Decembrie 1918,540447,46.5387204,24.5736538
132,Bulevardul 1 Decembrie 1918,540447,46.5388655,24.5761270
104,Bulevardul 1 Decembrie 1918,540447,46.5386526,24.5717212
124,Bulevardul 1 Decembrie 1918,540447,46.5387160,24.5748554
118,Bulevardul 1 Decembrie 1918,540447,46.5387288,24.5739440
106,Bulevardul 1 Decembrie 1918,540447,46.5386621,24.5720058
219,Bulevardul 1 Decembrie 1918,540545,46.5352005,24.5838599
27-30,Piața Trandafirilor,540052,46.5434521,24.5585695
27-29,Piața Trandafirilor,540052,46.5435652,24.5587469
1,Strada Bartók Béla,540049,46.5446189,24.5604707
6,Strada Armoniei,540477,46.5365094,24.5835583
4,Strada Armoniei,540477,46.5366470,24.5837703
11,Strada Armoniei,540477,46.5366370,24.5829737
7,Strada Armoniei,540477,46.5364304,24.5830907
80B,Bulevardul 1 Decembrie 1918,540003,46.5386888,24.5654779
8,Strada Armoniei,540477,46.5366569,24.5832326
5,Strada Armoniei,540477,46.5362953,24.5834353
13,Strada Armoniei,540477,46.5367373,24.5828450
10,Strada Armoniei,540477,46.5367853,24.5830660
9,Strada Armoniei,540477,46.5363871,24.5827729
15,Strada Armoniei,540477,46.5368618,24.5826883
80A,Bulevardul 1 Decembrie 1918,540003,46.5386823,24.5657055
12,Strada Armoniei,540477,46.5369009,24.5829162
211,Bulevardul 1 Decembrie 1918,540541,46.5361892,24.5821970
12,Strada Burebista,540630,46.5575680,24.5454393
12,Piața Onești,540178,46.5402407,24.5452028
24,Strada Moldovei,540519,46.5347675,24.5790033
26,Strada Moldovei,540519,46.5350028,24.5794675
28,Strada Moldovei,540519,46.5352655,24.5799147
18A,Strada Moldovei,540519,46.5348629,24.5772537
14A,Strada Moldovei,540519,46.5349492,24.5768097
10A,Strada Moldovei,540519,46.5350405,24.5763619
10,Strada Moldovei,540519,46.5352562,24.5760124
14,Strada Moldovei,540519,46.5353347,24.5769414
12,Strada Moldovei,540519,46.5354452,24.5764943
16,Strada Moldovei,540519,46.5355839,24.5772712
36,Strada Măgurei,540362,46.5333432,24.5641936
40,Strada Măgurei,540362,46.5330377,24.5648096
38,Strada Măgurei,540362,46.5331644,24.5646539
287C,Bulevardul 1 Decembrie 1918,540510,46.5317316,24.5957650
1,Strada Alexandru Papiu Ilarian,540074,46.5463142,24.5688727
6,Piața Mărășești,540327,46.5520610,24.5642779
10,Strada Frederic Joliot-Curie,540167,46.5398390,24.5473232
2,Strada Moldovei,540493,46.5347567,24.5742675
3A,Strada Moldovei,540493,46.5350622,24.5740724
3B,Strada Moldovei,540493,46.5351261,24.5743511
5A,Strada Moldovei,540493,46.5352373,24.5746061
5B,Strada Moldovei,540493,46.5353008,24.5748834
46A,Bulevardul 1848,540397,46.5307077,24.5558890
4,Strada Poligrafiei,540050,46.5451162,24.5589655
10,Strada Răsăritului,540143,46.5528805,24.5804794
14,Strada Răsăritului,540143,46.5527202,24.5808791
12,Strada Răsăritului,540143,46.5527976,24.5806779
16,Strada Răsăritului,540143,46.5526060,24.5811044
18,Strada Răsăritului,540143,46.5523533,24.5814504
20,Strada Răsăritului,540143,46.5521761,24.5816891
8,Strada Răsăritului,540143,46.5530133,24.5800985
6,Strada Răsăritului,540143,46.5531077,24.5798410
24,Strada Răsăritului,540143,46.5517482,24.5826118
18,Strada Teleki Sámuel,540082,46.5513812,24.5821397
15,Strada Răsăritului,540143,46.5523533,24.5830704
16,Strada Teleki Sámuel,540082,46.5514217,24.5817159
11,Strada Răsăritului,540143,46.5520304,24.5823757
7,Strada Răsăritului,540143,46.5525839,24.5825769
13,Strada Răsăritului,540143,46.5520840,24.5827030
30,Strada Răsăritului,540143,46.5515251,24.5825662
9,Strada Răsăritului,540143,46.5530099,24.5831082
8,Strada Teleki Sámuel,540082,46.5507264,24.5804687
1,Strada Teleki Sámuel,540082,46.5503298,24.5796372
4,Strada Teleki Sámuel,540082,46.5504147,24.5800798
3,Strada Teleki Sámuel,540082,46.5504719,24.5797901
4,Strada Preot Ștefan Rusu,540082,46.5505014,24.5815872
12,Strada Teleki Sámuel,540082,46.5510565,24.5809005
12,Strada Preot Ștefan Rusu,540082,46.5509404,24.5821397
11,Strada Preot Ștefan Rusu,540082,46.5510363,24.5819654
6,Strada Preot Ștefan Rusu,540082,46.5506231,24.5817427
6,Strada Teleki Sámuel,540082,46.5505494,24.5802407
10,Strada Teleki Sámuel,540082,46.5508722,24.5806511
2,Strada Teleki Sámuel,540082,46.5502647,24.5799104
3A,Strada Răsăritului,540143,46.5535596,24.5792724
1,Strada Răsăritului,540143,46.5536445,24.5790824
3,Strada Răsăritului,540143,46.5534858,24.5794655
5,Strada Răsăritului,540143,46.5523607,24.5823167
17,Strada Răsăritului,540143,46.5520324,24.5830919
44,Strada General Ion Dumitrache,540142,46.5521740,24.5784727
54,Strada General Ion Dumitrache,540142,46.5529172,24.5793042
50,Strada General Ion Dumitrache,540142,46.5526996,24.5790682
58,Strada General Ion Dumitrache,540142,46.5531551,24.5795375
46,Strada General Ion Dumitrache,540142,46.5523071,24.5786291
56,Strada General Ion Dumitrache,540142,46.5530243,24.5794219
46A,Strada General Ion Dumitrache,540142,46.5524414,24.5787812
48,Strada General Ion Dumitrache,540142,46.5525673,24.5789402
52,Strada General Ion Dumitrache,540142,46.5528048,24.5791779
43,Strada General Ion Dumitrache,540142,46.5527899,24.5787838
33,Strada General Ion Dumitrache,540142,46.5522367,24.5781938
29,Strada General Ion Dumitrache,540142,46.5520596,24.5779899
37,Strada General Ion Dumitrache,540142,46.5524414,24.5783976
32A,Strada General Ion Dumitrache,540142,46.5512872,24.5775347
32,Strada General Ion Dumitrache,540142,46.5512092,24.5774481
27,Strada General Ion Dumitrache,540142,46.5519673,24.5778904
4,Strada Răsăritului,540143,46.5533434,24.5792959
49,Strada General Ion Dumitrache,540142,46.5531147,24.5791564
40,Strada General Ion Dumitrache,540142,46.5518589,24.5781275
41,Strada General Ion Dumitrache,540142,46.5526963,24.5786854
45,Strada General Ion Dumitrache,540142,46.5528974,24.5788946
21,Strada General Ion Dumitrache,540142,46.5515301,24.5774159
34,Strada General Ion Dumitrache,540142,46.5514194,24.5776734
39,Strada General Ion Dumitrache,540142,46.5525870,24.5785639
31,Strada General Ion Dumitrache,540142,46.5521666,24.5781240
25,Strada General Ion Dumitrache,540142,46.5518109,24.5777574
36,Strada General Ion Dumitrache,540142,46.5515670,24.5778314
35,Strada General Ion Dumitrache,540142,46.5523380,24.5783064
42,Strada General Ion Dumitrache,540142,46.5519950,24.5782769
47,Strada General Ion Dumitrache,540142,46.5529874,24.5789957
23,Strada General Ion Dumitrache,540142,46.5516648,24.5775795
38,Strada General Ion Dumitrache,540142,46.5517035,24.5779711
19,Strada General Ion Dumitrache,540142,46.5513955,24.5772979
4,Strada Dimitrie Cantemir,540099,46.5513014,24.5761067
10,Strada Dimitrie Cantemir,540099,46.5510984,24.5766915
8,Strada Dimitrie Cantemir,540099,46.5511722,24.5764635
7,Strada Dimitrie Cantemir,540099,46.5512023,24.5770171
1,Strada Dimitrie Cantemir,540099,46.5515467,24.5760021
2,Strada Dimitrie Cantemir,540099,46.5513567,24.5759539
6,Strada Dimitrie Cantemir,540099,46.5512479,24.5762706
3,Strada Dimitrie Cantemir,540099,46.5514287,24.5763484
3A,Strada Dimitrie Cantemir,540099,46.5513605,24.5765603
5,Strada Dimitrie Cantemir,540099,46.5512927,24.5767569
2A,Strada Dimitrie Cantemir,540099,46.5514157,24.5757664
24,Strada Doctor Cornel Ciugudean,540142,46.5531865,24.5783896
22,Strada Doctor Cornel Ciugudean,540142,46.5531096,24.5783045
14,Strada Doctor Cornel Ciugudean,540142,46.5525317,24.5776171
16,Strada Doctor Cornel Ciugudean,540142,46.5526812,24.5777995
8,Strada Doctor Cornel Ciugudean,540142,46.5521062,24.5770922
2,Strada Doctor Cornel Ciugudean,540142,46.5516666,24.5765362
12,Strada Doctor Cornel Ciugudean,540142,46.5524562,24.5775205
6,Strada Doctor Cornel Ciugudean,540142,46.5520172,24.5769626
26,Strada Doctor Cornel Ciugudean,540142,46.5533249,24.5785880
18,Strada Doctor Cornel Ciugudean,540142,46.5528287,24.5779792
28,Strada Doctor Cornel Ciugudean,540142,46.5535093,24.5787865
8A,Strada Doctor Cornel Ciugudean,540142,46.5522090,24.5772174
20,Strada Doctor Cornel Ciugudean,540142,46.5529892,24.5781723
10,Strada Doctor Cornel Ciugudean,540142,46.5523620,24.5774159
4,Strada Doctor Cornel Ciugudean,540142,46.5518455,24.5767427
25,Strada Doctor Cornel Ciugudean,540142,46.5535885,24.5784688
21,Strada Doctor Cornel Ciugudean,540142,46.5533460,24.5781895
11A,Strada Doctor Cornel Ciugudean,540142,46.5527081,24.5774443
23,Strada Doctor Cornel Ciugudean,540142,46.5534786,24.5783398
17,Strada Doctor Cornel Ciugudean,540142,46.5530617,24.5778832
13,Strada Doctor Cornel Ciugudean,540142,46.5527812,24.5775140
11,Strada Doctor Cornel Ciugudean,540142,46.5525857,24.5773255
19,Strada Doctor Cornel Ciugudean,540142,46.5532045,24.5780377
15,Strada Doctor Cornel Ciugudean,540142,46.5529379,24.5777214
7,Strada Episcop Ioan Bob,540082,46.5517834,24.5793985
8,Strada Episcop Ioan Bob,540082,46.5514440,24.5792966
6,Strada Episcop Ioan Bob,540082,46.5513093,24.5791358
2,Strada Episcop Ioan Bob,540082,46.5510159,24.5783179
9,Strada Episcop Ioan Bob,540082,46.5515984,24.5791510
10,Strada Episcop Ioan Bob,540082,46.5515546,24.5794521
5,Strada Episcop Ioan Bob,540082,46.5520047,24.5796667
4,Strada Episcop Ioan Bob,540082,46.5511967,24.5789670
44,Strada Dimitrie Cantemir,540099,46.5500384,24.5796023
46,Strada Dimitrie Cantemir,540099,46.5498502,24.5800207
22,Strada Dimitrie Cantemir,540099,46.5504810,24.5787954
36,Strada Dimitrie Cantemir,540099,46.5503907,24.5789831
14,Strada Dimitrie Cantemir,540099,46.5508868,24.5774248
36A,Strada Dimitrie Cantemir,540099,46.5498718,24.5784110
20,Strada Dimitrie Cantemir,540099,46.5506120,24.5785647
16,Strada Dimitrie Cantemir,540099,46.5508186,24.5776930
30,Strada Dimitrie Cantemir,540099,46.5498996,24.5778424
32,Strada Dimitrie Cantemir,540099,46.5496431,24.5776439
34,Strada Dimitrie Cantemir,540099,46.5494772,24.5775822
7B,Strada Gheorghe Marinescu,540140,46.5548152,24.5782689
7,Strada Gheorghe Marinescu,540140,46.5546085,24.5785907
51,Strada General Ion Dumitrache,540142,46.5535665,24.5796633
53,Strada General Ion Dumitrache,540142,46.5536367,24.5797250
55,Strada General Ion Dumitrache,540142,46.5537564,24.5798406
22A,Strada Preot Ștefan Rusu,540082,46.5509214,24.5839712
22,Strada Preot Ștefan Rusu,540082,46.5507148,24.5837325
28,Strada Argeșului,540098,46.5514656,24.5754901
18,Strada Argeșului,540098,46.5509934,24.5751790
25,Strada Argeșului,540098,46.5505341,24.5744601
27,Strada Argeșului,540098,46.5507333,24.5745835
16,Strada Argeșului,540098,46.5504621,24.5748249
22,Strada Argeșului,540098,46.5511630,24.5752782
24,Strada Argeșului,540098,46.5512775,24.5753560
22A,Strada Argeșului,540098,46.5512060,24.5753031
1,Strada Crângului,540098,46.5503108,24.5743311
26,Strada Argeșului,540098,46.5513513,24.5754096
20,Strada Argeșului,540098,46.5511004,24.5752353
16A,Strada Argeșului,540098,46.5509214,24.5751304
8,Strada Ulciorului,540099,46.5504288,24.5758571
4,Strada Ulciorului,540099,46.5505061,24.5755258
1,Strada Ulciorului,540099,46.5507461,24.5756964
2,Strada Ulciorului,540099,46.5505956,24.5752595
3,Strada Ulciorului,540099,46.5506982,24.5758627
5,Strada Ulciorului,540099,46.5505580,24.5763028
1A,Strada Ulciorului,540099,46.5507996,24.5755220
3A,Strada Ulciorului,540099,46.5506507,24.5760166
10,Strada Ulciorului,540099,46.5503820,24.5760101
6,Strada Ulciorului,540099,46.5504801,24.5757283
9,Strada Crângului,540081,46.5499571,24.5752897
5,Strada Crângului,540081,46.5500365,24.5750001
11A,Strada Crângului,540081,46.5498558,24.5756357
2,Strada Crângului,540081,46.5500790,24.5742195
11,Strada Crângului,540081,46.5499001,24.5754560
3,Strada Crângului,540081,46.5500790,24.5748659
7,Strada Crângului,540081,46.5499959,24.5751529
42,Strada Mihai Viteazul,540099,46.5485973,24.5728240
40,Strada Mihai Viteazul,540099,46.5483980,24.5726952
54,Strada Mihai Viteazul,540099,46.5497317,24.5734704
25,Strada Mihai Viteazul,540098,46.5499475,24.5728910
27,Strada Mihai Viteazul,540098,46.5502943,24.5731002
46,Strada Mihai Viteazul,540099,46.5490013,24.5730466
19,Strada Mihai Viteazul,540099,46.5478798,24.5718827
56,Strada Mihai Viteazul,540099,46.5498996,24.5735830
38,Strada Mihai Viteazul,540099,46.5482578,24.5725531
58,Strada Mihai Viteazul,540099,46.5501173,24.5736930
52,Strada Mihai Viteazul,540099,46.5495712,24.5733712
44,Strada Mihai Viteazul,540099,46.5487927,24.5729286
21,Strada Mihai Viteazul,540099,46.5492410,24.5725209
29,Strada Mihai Viteazul,540098,46.5507351,24.5728535
48,Strada Mihai Viteazul,540099,46.5491875,24.5731512
50,Strada Mihai Viteazul,540099,46.5493719,24.5732665
13,Strada Trébely,540081,46.5475882,24.5748759
3,Strada Trébely,540081,46.5479867,24.5727784
10,Strada Trébely,540081,46.5475251,24.5739159
9,Strada Trébely,540081,46.5476805,24.5743260
4,Strada Trébely,540081,46.5477658,24.5729911
19,Strada Trébely,540081,46.5473963,24.5758522
14,Strada Trébely,540081,46.5474036,24.5748166
11,Strada Trébely,540081,46.5476403,24.5745763
12,Strada Trébely,540081,46.5475199,24.5742560
2,Strada Trébely,540081,46.5478151,24.5727140
8,Strada Trébely,540081,46.5476343,24.5736176
15,Strada Trébely,540081,46.5475347,24.5751897
5,Strada Trébely,540081,46.5479183,24.5731351
1,Strada Trébely,540081,46.5480382,24.5725075
16,Strada Trébely,540081,46.5472341,24.5756564
17,Strada Trébely,540081,46.5474757,24.5754740
6,Strada Trébely,540081,46.5477191,24.5732102
5,Strada Argeșului,540081,46.5484442,24.5733980
15,Strada Argeșului,540081,46.5492189,24.5737869
23,Strada Argeșului,540081,46.5497150,24.5740712
7,Strada Argeșului,540081,46.5486802,24.5735026
1,Strada Argeșului,540081,46.5481415,24.5732558
13,Strada Argeșului,540081,46.5490880,24.5737225
17,Strada Argeșului,540081,46.5494051,24.5739103
11,Strada Argeșului,540081,46.5488905,24.5736367
19,Strada Argeșului,540081,46.5495213,24.5739720
3,Strada Argeșului,540081,46.5482246,24.5732907
9,Strada Argeșului,540081,46.5487596,24.5735428
21,Strada Argeșului,540081,46.5495970,24.5740068
12,Strada General Ion Dumitrache,540081,46.5490921,24.5754373
14,Strada General Ion Dumitrache,540081,46.5492414,24.5755311
10,Strada General Ion Dumitrache,540081,46.5489444,24.5753273
18,Strada General Ion Dumitrache,540081,46.5495846,24.5757806
4,Strada General Ion Dumitrache,540081,46.5484870,24.5750993
8,Strada General Ion Dumitrache,540081,46.5487951,24.5752468
2,Strada General Ion Dumitrache,540081,46.5483394,24.5750322
16,Strada General Ion Dumitrache,540081,46.5493872,24.5756304
6,Strada General Ion Dumitrache,540081,46.5486456,24.5751637
26,Strada General Ion Dumitrache,540142,46.5504995,24.5766603
24,Strada General Ion Dumitrache,540142,46.5503464,24.5765021
30,Strada General Ion Dumitrache,540142,46.5510363,24.5772424
20A,Strada General Ion Dumitrache,540081,46.5499167,24.5760622
20,Strada General Ion Dumitrache,540081,46.5498133,24.5759737
28,Strada General Ion Dumitrache,540142,46.5509085,24.5771048
22,Strada General Ion Dumitrache,540081,46.5501614,24.5763189
13,Strada General Ion Dumitrache,540142,46.5507314,24.5765710
15,Strada General Ion Dumitrache,540142,46.5509031,24.5767829
17,Strada General Ion Dumitrache,540142,46.5510123,24.5768910
3,Strada Privighetorii,540082,46.5477929,24.5757771
2,Strada Privighetorii,540082,46.5476273,24.5760622
1,Strada Privighetorii,540082,46.5476384,24.5758235
5,Strada Privighetorii,540082,46.5478925,24.5757422
4,Strada Privighetorii,540082,46.5479206,24.5759737
29,Strada Trébely,540083,46.5471183,24.5773389
45,Strada Trébely,540083,46.5468453,24.5788490
47,Strada Trébely,540083,46.5468084,24.5790448
23,Strada Trébely,540083,46.5472363,24.5766308
51,Strada Trébely,540083,46.5467438,24.5795192
21,Strada Trébely,540083,46.5472985,24.5762787
41A,Strada Trébely,540083,46.5469135,24.5784655
41,Strada Trébely,540083,46.5469338,24.5783421
48,Strada Trébely,540083,46.5465463,24.5798547
19,Strada Verii,540080,46.5469173,24.5763487
17,Strada Verii,540080,46.5470095,24.5760139
35,Strada Trébely,540083,46.5469835,24.5780605
31,Strada Trébely,540083,46.5470869,24.5775106
33,Strada Trébely,540083,46.5470518,24.5776930
46,Strada Trébely,540083,46.5465629,24.5796801
22,Strada Trébely,540083,46.5469597,24.5771646
44,Strada Trébely,540083,46.5465889,24.5794924
26,Strada Trébely,540083,46.5468784,24.5775455
21A,Strada Trébely,540083,46.5472676,24.5764458
49,Strada Trébely,540083,46.5467807,24.5793019
27,Strada Trébely,540083,46.5471699,24.5770117
25,Strada Trébely,540083,46.5472086,24.5768025
53,Strada Trébely,540083,46.5467309,24.5795970
28,Strada Trébely,540083,46.5468360,24.5778295
57,Strada Trébely,540083,46.5467106,24.5798142
55,Strada Trébely,540083,46.5467585,24.5796962
59,Strada Trébely,540083,46.5466810,24.5799912
43,Strada Trébely,540083,46.5468711,24.5786854
18,Strada Trébely,540083,46.5470795,24.5765477
30,Strada Trébely,540083,46.5467752,24.5781919
40,Strada Trébely,540083,46.5466350,24.5791465
32,Strada Trébely,540083,46.5467326,24.5784223
20,Strada Trébely,540083,46.5470241,24.5768186
34,Strada Trébely,540083,46.5467087,24.5785859
38,Strada Trébely,540083,46.5466533,24.5789858
42,Strada Trébely,540083,46.5466164,24.5792912
36,Strada Trébely,540083,46.5466829,24.5787632
58,Strada Trébely,540083,46.5461295,24.5808013
60,Strada Trébely,540083,46.5460244,24.5812385
50,Strada Trébely,540083,46.5464855,24.5801307
56,Strada Trébely,540083,46.5461812,24.5806430
62,Strada Trébely,540083,46.5460004,24.5814504
52,Strada Trébely,540083,46.5463526,24.5803077
54,Strada Trébely,540083,46.5462439,24.5805089
64,Strada Trébely,540083,46.5460041,24.5816381
61,Strada Trébely,540083,46.5466258,24.5802702
65,Strada Trébely,540083,46.5464155,24.5805947
63,Strada Trébely,540083,46.5464984,24.5804526
4,Aleea Cornișa,540143,46.5550089,24.5773217
9,Aleea Cornișa,540143,46.5536236,24.5751280
7,Aleea Cornișa,540143,46.5538173,24.5751790
6,Aleea Cornișa,540143,46.5549361,24.5770522
16,Aleea Cornișa,540143,46.5541475,24.5749081
10,Aleea Cornișa,540143,46.5545163,24.5760829
1,Aleea Cornișa,540143,46.5543449,24.5767132
1,Strada Secuilor Martiri,540102,46.5550240,24.5780674
2,Aleea Cornișa,540143,46.5550873,24.5775769
12,Aleea Cornișa,540143,46.5542231,24.5755464
18,Aleea Cornișa,540143,46.5538905,24.5743605
3,Aleea Cornișa,540143,46.5542766,24.5764557
11,Aleea Cornișa,540143,46.5534411,24.5750583
5,Aleea Cornișa,540143,46.5541955,24.5761875
8,Aleea Cornișa,540143,46.5547505,24.5766086
33,Strada Nicolae Grigorescu,540095,46.5531128,24.5745969
31,Strada Nicolae Grigorescu,540095,46.5529560,24.5743958
29,Strada Nicolae Grigorescu,540095,46.5527992,24.5742214
15B,Strada Nicolae Grigorescu,540095,46.5536643,24.5731056
15A,Strada Nicolae Grigorescu,540095,46.5532954,24.5729795
17A,Strada Nicolae Grigorescu,540096,46.5529855,24.5737091
4D,Strada Nicolae Grigorescu,540097,46.5514878,24.5726067
6,Strada Nicolae Grigorescu,540096,46.5522642,24.5731995
4A,Strada Nicolae Grigorescu,540097,46.5520484,24.5728964
4B,Strada Nicolae Grigorescu,540097,46.5518678,24.5728079
4C,Strada Nicolae Grigorescu,540097,46.5516815,24.5727113
4E,Strada Nicolae Grigorescu,540097,46.5512885,24.5724994
2,Strada Nicolae Grigorescu,540096,46.5525281,24.5725397
14,Strada Doctor Victor Babeș,540097,46.5521795,24.5722446
8,Strada Doctor Victor Babeș,540097,46.5511335,24.5716465
12,Strada Doctor Victor Babeș,540097,46.5518290,24.5720488
10,Strada Doctor Victor Babeș,540097,46.5514712,24.5718637
19,Strada Doctor Victor Babeș,540095,46.5535795,24.5722419
15,Strada Doctor Victor Babeș,540095,46.5532196,24.5722551
17,Strada Doctor Victor Babeș,540095,46.5533617,24.5723009
13,Strada Doctor Victor Babeș,540095,46.5530570,24.5721766
15,Strada Doctor Victor Babeș,540095,46.5542552,24.5725173
9,Strada Constantin Romanu Vivu,540109,46.5555677,24.5745701
7,Strada Constantin Romanu Vivu,540109,46.5556008,24.5741222
2,Strada Constantin Romanu Vivu,540109,46.5551294,24.5734203
11,Strada Constantin Romanu Vivu,540109,46.5555234,24.5750180
4,Strada Constantin Romanu Vivu,540109,46.5550590,24.5741358
10,Strada Constantin Romanu Vivu,540109,46.5552800,24.5762030
5,Strada Constantin Romanu Vivu,540109,46.5556341,24.5736769
3,Strada Constantin Romanu Vivu,540109,46.5556746,24.5732263
1,Strada Constantin Romanu Vivu,540109,46.5557244,24.5727650
8,Strada Constantin Romanu Vivu,540109,46.5551260,24.5755212
6,Strada Constantin Romanu Vivu,540109,46.5550269,24.5748960
5B,Strada Secuilor Martiri,540132,46.5563127,24.5752569
7B,Strada Secuilor Martiri,540133,46.5566815,24.5748921
3A,Strada Secuilor Martiri,540131,46.5560434,24.5761474
7A,Strada Secuilor Martiri,540133,46.5567811,24.5754285
5A,Strada Secuilor Martiri,540132,46.5564088,24.5757772
3B,Strada Secuilor Martiri,540131,46.5559438,24.5756109
8,Strada Kőrösi Csoma Sándor,540085,46.5456811,24.5715423
23,Strada Kőrösi Csoma Sándor,540085,46.5466860,24.5721266
14,Strada Kőrösi Csoma Sándor,540085,46.5462198,24.5720090
15,Strada Kőrösi Csoma Sándor,540085,46.5461768,24.5716223
18,Strada Kőrösi Csoma Sándor,540085,46.5465555,24.5723416
2,Strada Kőrösi Csoma Sándor,540085,46.5451389,24.5710300
16,Strada Kőrösi Csoma Sándor,540085,46.5463840,24.5721753
23A,Strada Kőrösi Csoma Sándor,540085,46.5468999,24.5723358
19,Strada Kőrösi Csoma Sándor,540085,46.5464001,24.5718423
25,Strada Kőrösi Csoma Sándor,540085,46.5471028,24.5725102
3,Strada Kőrösi Csoma Sándor,540085,46.5452564,24.5707828
4,Strada Kőrösi Csoma Sándor,540085,46.5453196,24.5712016
12,Strada Kőrösi Csoma Sándor,540085,46.5460483,24.5718454
13,Strada Kőrösi Csoma Sándor,540085,46.5460109,24.5714641
7,Strada Kőrösi Csoma Sándor,540085,46.5455128,24.5710162
17,Strada Kőrösi Csoma Sándor,540085,46.5463245,24.5717699
21,Strada Kőrösi Csoma Sándor,540085,46.5465919,24.5720434
9,Strada Kőrösi Csoma Sándor,540085,46.5457046,24.5711798
5,Strada Kőrösi Csoma Sándor,540085,46.5454352,24.5709467
10,Strada Kőrösi Csoma Sándor,540085,46.5458657,24.5717005
6,Strada Kőrösi Csoma Sándor,540085,46.5455059,24.5713760
11,Strada Kőrösi Csoma Sándor,540085,46.5458521,24.5713193
1,Strada Kőrösi Csoma Sándor,540085,46.5451769,24.5707131
1A,Strada Alexandru Papiu Ilarian,540074,46.5461073,24.5689829
13,Strada Alexandru Papiu Ilarian,540074,46.5454043,24.5699109
17,Strada Alexandru Papiu Ilarian,540074,46.5451102,24.5702869
5,Strada Alexandru Papiu Ilarian,540074,46.5456794,24.5693015
3A,Strada Alexandru Papiu Ilarian,540074,46.5458157,24.5691793
9,Strada Alexandru Papiu Ilarian,540074,46.5455739,24.5695186
15,Strada Alexandru Papiu Ilarian,540074,46.5452764,24.5701082
3,Strada Alexandru Papiu Ilarian,540074,46.5460348,24.5690330
11,Strada Alexandru Papiu Ilarian,540074,46.5455258,24.5696470
1,Strada Alexandru Papiu Ilarian,540074,46.5462610,24.5688815
19,Strada Alexandru Papiu Ilarian,540074,46.5449347,24.5705400
7,Strada Alexandru Papiu Ilarian,540074,46.5456146,24.5693893
3,Strada Crizantemelor,540073,46.5452070,24.5678249
1,Strada Crizantemelor,540073,46.5452045,24.5676607
6,Strada Crizantemelor,540073,46.5452020,24.5687473
2A,Strada Crizantemelor,540073,46.5450238,24.5679560
2,Strada Crizantemelor,540073,46.5449778,24.5677763
4,Strada Crizantemelor,540073,46.5450718,24.5682508
5,Strada Crizantemelor,540073,46.5452346,24.5679939
6,Strada Liceului,540073,46.5453725,24.5680979
2A,Strada Liceului,540073,46.5458213,24.5678037
2,Strada Liceului,540073,46.5456904,24.5678815
4,Strada Liceului,540073,46.5455391,24.5679834
2,Strada Tineretului,540027,46.5425101,24.5563964
1,Strada Tineretului,540027,46.5422665,24.5564762
3,Strada Tineretului,540027,46.5423938,24.5560927
2,Strada Primăriei,540026,46.5430127,24.5569051
3,Strada Primăriei,540026,46.5429510,24.5564876
18,Piața Trandafirilor,540049,46.5446970,24.5606509
14,Piața Trandafirilor,540049,46.5450131,24.5611283
15,Piața Trandafirilor,540049,46.5449457,24.5610420
24,Piața Trandafirilor,540049,46.5440648,24.5595245
16,Piața Trandafirilor,540049,46.5448769,24.5608996
13,Piața Trandafirilor,540049,46.5451260,24.5612295
19,Piața Trandafirilor,540049,46.5444668,24.5602315
25,Piața Trandafirilor,540049,46.5440208,24.5594268
20,Piața Trandafirilor,540049,46.5443647,24.5600561
17,Piața Trandafirilor,540049,46.5447921,24.5607387
11,Piața Trandafirilor,540049,46.5453395,24.5615050
22,Piața Trandafirilor,540049,46.5441874,24.5597479
12,Piața Trandafirilor,540049,46.5452290,24.5613809
21,Piața Trandafirilor,540049,46.5442689,24.5598853
6,Piața Trandafirilor,540049,46.5460687,24.5622863
5,Piața Trandafirilor,540049,46.5461849,24.5624392
3,Piața Trandafirilor,540049,46.5464247,24.5627745
7,Piața Trandafirilor,540049,46.5459506,24.5621415
10,Piața Trandafirilor,540049,46.5461719,24.5618900
5,Strada Márton Áron,540058,46.5424549,24.5633511
11,Strada Márton Áron,540058,46.5421043,24.5629247
9,Strada Márton Áron,540058,46.5422500,24.5631044
3,Strada Márton Áron,540058,46.5425378,24.5634504
1,Strada Márton Áron,540058,46.5426485,24.5636059
2A,Strada Luceafărului,540119,46.5574989,24.5717065
17,Piața Republicii,540110,46.5526654,24.5678496
21,Piața Republicii,540110,46.5533036,24.5686863
23,Piața Republicii,540110,46.5536097,24.5691530
18,Piața Republicii,540110,46.5527908,24.5680076
22,Piața Republicii,540110,46.5534677,24.5689491
19,Piața Republicii,540110,46.5529088,24.5681793
20,Piața Republicii,540110,46.5530120,24.5683349
16,Strada Gheorghe Marinescu,540142,46.5523883,24.5766629
3,Strada Vișeului,540091,46.5522721,24.5684652
4,Strada Vișeului,540091,46.5521271,24.5681407
1,Strada Vișeului,540091,46.5523864,24.5682909
12,Strada Vișeului,540091,46.5518442,24.5686061
5,Strada Vișeului,540091,46.5521539,24.5686637
10,Strada Vișeului,540091,46.5519723,24.5684677
6,Strada Vișeului,540091,46.5516504,24.5679046
2,Strada Vișeului,540091,46.5522567,24.5679413
8,Strada Vișeului,540091,46.5517962,24.5680897
31,Piața Republicii,540110,46.5537164,24.5684205
28,Piața Republicii,540110,46.5538970,24.5686422
30,Piața Republicii,540110,46.5537607,24.5684849
32,Piața Republicii,540110,46.5536332,24.5683043
37,Piața Republicii,540110,46.5531814,24.5677330
38,Piața Republicii,540110,46.5529416,24.5674352
29,Piața Republicii,540110,46.5538195,24.5685484
36,Piața Republicii,540110,46.5532865,24.5678707
35,Piața Republicii,540110,46.5533972,24.5679958
33,Piața Republicii,540110,46.5535281,24.5681782
34,Piața Republicii,540110,46.5534617,24.5680897
24B,Strada Borzești,540075,46.5412794,24.5719128
5,Strada Călimanului,540074,46.5411370,24.5726511
10,Strada Vulcan,540074,46.5413367,24.5699021
14A,Strada Vulcan,540074,46.5409727,24.5698608
18,Strada Vulcan,540074,46.5405867,24.5698161
16,Strada Vulcan,540074,46.5406978,24.5698336
20,Strada Vulcan,540074,46.5404742,24.5698492
6,Strada Vulcan,540074,46.5416215,24.5699087
14,Strada Vulcan,540074,46.5410836,24.5698630
12,Strada Vulcan,540074,46.5412078,24.5699289
24,Strada Vulcan,540074,46.5403160,24.5697959
22,Strada Vulcan,540074,46.5404053,24.5698558
8,Strada Vulcan,540074,46.5414936,24.5698739
12C,Strada Vulcan,540074,46.5411613,24.5683106
14D,Strada Vulcan,540074,46.5411834,24.5680665
12B,Strada Vulcan,540074,46.5411521,24.5684686
14A,Strada Călimanului,540074,46.5405690,24.5715041
8,Strada Călimanului,540074,46.5403956,24.5707863
14,Strada Călimanului,540074,46.5405911,24.5715927
26,Strada Călimanului,540074,46.5407924,24.5727630
30,Strada Călimanului,540074,46.5408422,24.5731734
6,Strada Călimanului,540074,46.5402795,24.5702552
28,Strada Călimanului,540074,46.5408218,24.5729696
24,Strada Călimanului,540074,46.5407702,24.5725992
160,Strada Tudor Vladimirescu,540521,46.5374464,24.5759508
154,Strada Tudor Vladimirescu,540521,46.5373413,24.5754842
166,Strada Tudor Vladimirescu,540521,46.5375755,24.5764883
146,Strada Tudor Vladimirescu,540521,46.5371686,24.5748087
168,Strada Tudor Vladimirescu,540521,46.5376064,24.5766171
156,Strada Tudor Vladimirescu,540521,46.5373733,24.5756124
164,Strada Tudor Vladimirescu,540521,46.5375252,24.5762791
158,Strada Tudor Vladimirescu,540521,46.5374136,24.5758144
144,Strada Tudor Vladimirescu,540521,46.5371199,24.5745912
148,Strada Tudor Vladimirescu,540521,46.5372004,24.5749386
152,Strada Tudor Vladimirescu,540521,46.5372960,24.5752674
142,Strada Tudor Vladimirescu,540521,46.5370902,24.5744677
150,Strada Tudor Vladimirescu,540521,46.5372640,24.5751394
162,Strada Tudor Vladimirescu,540521,46.5374947,24.5761518
136,Strada Tudor Vladimirescu,540521,46.5369066,24.5737235
138,Strada Tudor Vladimirescu,540521,46.5369782,24.5740079
140,Strada Tudor Vladimirescu,540521,46.5370046,24.5741130
134,Strada Tudor Vladimirescu,540521,46.5368757,24.5736005
126A,Strada Tudor Vladimirescu,540521,46.5366596,24.5727308
124,Strada Tudor Vladimirescu,540521,46.5366552,24.5725507
126,Strada Tudor Vladimirescu,540521,46.5366599,24.5726488
132,Strada Tudor Vladimirescu,540521,46.5368012,24.5731546
120,Strada Tudor Vladimirescu,540521,46.5365695,24.5722157
128,Strada Tudor Vladimirescu,540521,46.5366687,24.5728717
130,Strada Tudor Vladimirescu,540521,46.5367809,24.5730659
59,Piața Trandafirilor,540053,46.5457866,24.5637502
52,Piața Trandafirilor,540053,46.5450598,24.5626428
53,Piața Trandafirilor,540053,46.5451687,24.5628359
60,Piața Trandafirilor,540053,46.5460579,24.5640346
50,Piața Trandafirilor,540053,46.5449030,24.5623340
57,Piața Trandafirilor,540053,46.5454989,24.5633694
56,Piața Trandafirilor,540053,46.5454232,24.5632570
58A,Piața Trandafirilor,540053,46.5457000,24.5636188
55,Piața Trandafirilor,540053,46.5453428,24.5631184
49,Piața Trandafirilor,540053,46.5447831,24.5621524
54,Piața Trandafirilor,540053,46.5452739,24.5629912
58,Piața Trandafirilor,540053,46.5455764,24.5634767
48,Piața Trandafirilor,540053,46.5447104,24.5620153
51,Piața Trandafirilor,540053,46.5449983,24.5624946
4,Strada Bolyai,540064,46.5440434,24.5619076
6,Strada Bolyai,540064,46.5439696,24.5620309
10,Strada Bolyai,540064,46.5437112,24.5624574
2,Strada Bolyai,540064,46.5441595,24.5617037
16,Strada Bolyai,540064,46.5431376,24.5638093
12,Strada Bolyai,540064,46.5432759,24.5633935
14,Strada Bolyai,540064,46.5432109,24.5636055
46-47,Piața Trandafirilor,540053,46.5446010,24.5618199
3,Strada Bolyai,540064,46.5438349,24.5627981
1,Strada Bolyai,540064,46.5441421,24.5622342
11,Strada Bolyai,540064,46.5433607,24.5646515
5,Strada Bolyai,540064,46.5437925,24.5643242
7,Strada Bolyai,540064,46.5436024,24.5644423
13,Strada Bolyai,540064,46.5432095,24.5648070
15A,Strada Bolyai,540064,46.5429726,24.5650358
15,Strada Bolyai,540064,46.5431044,24.5649197
23,Strada Bolyai,540067,46.5421301,24.5661269
30,Strada Bolyai,540067,46.5423294,24.5651667
38,Strada Bolyai,540067,46.5415638,24.5658799
19,Strada Bolyai,540067,46.5423230,24.5658829
32,Strada Bolyai,540067,46.5419945,24.5655301
25,Strada Bolyai,540067,46.5419869,24.5662999
17A,Strada Bolyai,540067,46.5426219,24.5658378
21,Strada Bolyai,540067,46.5422216,24.5660167
34,Strada Bolyai,540067,46.5418276,24.5656814
27,Strada Bolyai,540067,46.5418240,24.5664056
29,Strada Bolyai,540067,46.5416837,24.5665102
36,Strada Bolyai,540067,46.5417115,24.5657699
13,Strada Ștefan cel Mare,540067,46.5408075,24.5668106
1,Strada Ștefan cel Mare,540067,46.5414744,24.5666001
FN,Strada Ștefan cel Mare,540067,46.5415248,24.5669449
17,Strada Ștefan cel Mare,540067,46.5405086,24.5668911
19,Strada Ștefan cel Mare,540067,46.5404071,24.5669045
37,Strada Ștefan cel Mare,540067,46.5389901,24.5674624
7,Strada Ștefan cel Mare,540067,46.5412312,24.5666933
3,Strada Ștefan cel Mare,540067,46.5413466,24.5666470
33,Strada Ștefan cel Mare,540067,46.5392924,24.5673526
35,Strada Ștefan cel Mare,540067,46.5392098,24.5673793
31,Strada Ștefan cel Mare,540067,46.5394090,24.5673069
27,Strada Ștefan cel Mare,540067,46.5399201,24.5670842
25,Strada Ștefan cel Mare,540067,46.5400768,24.5670145
23,Strada Ștefan cel Mare,540067,46.5401967,24.5669638
29,Strada Ștefan cel Mare,540067,46.5396433,24.5672022
21,Strada Ștefan cel Mare,540067,46.5403075,24.5669233
5,Strada Ștefan cel Mare,540067,46.5412935,24.5666721
15A,Strada Ștefan cel Mare,540067,46.5405857,24.5668725
15,Strada Ștefan cel Mare,540067,46.5407134,24.5668375
11,Strada Ștefan cel Mare,540067,46.5409427,24.5667898
9,Strada Ștefan cel Mare,540067,46.5411357,24.5667080
28,Strada Ștefan cel Mare,540008,46.5389423,24.5671298
24,Strada Ștefan cel Mare,540067,46.5394680,24.5668884
26,Strada Ștefan cel Mare,540067,46.5391766,24.5670038
12,Strada Ștefan cel Mare,540067,46.5403238,24.5665291
20,Strada Ștefan cel Mare,540067,46.5399735,24.5666685
2,Strada Ștefan cel Mare,540067,46.5410251,24.5662527
18,Strada Ștefan cel Mare,540067,46.5400843,24.5666202
10,Strada Ștefan cel Mare,540067,46.5405289,24.5664673
6,Strada Ștefan cel Mare,540067,46.5407983,24.5663761
4,Strada Ștefan cel Mare,540067,46.5409016,24.5663225
22,Strada Ștefan cel Mare,540067,46.5397614,24.5667463
16,Strada Ștefan cel Mare,540067,46.5401470,24.5665907
14,Strada Ștefan cel Mare,540067,46.5402042,24.5665719
8,Strada Ștefan cel Mare,540067,46.5406598,24.5664190
3,Strada Franz Liszt,540068,46.5410381,24.5658665
9,Strada Franz Liszt,540068,46.5408130,24.5652120
7,Strada Franz Liszt,540068,46.5409218,24.5655071
6,Strada Franz Liszt,540068,46.5408606,24.5648554
1,Strada Franz Liszt,540068,46.5411395,24.5661669
5,Strada Franz Liszt,540068,46.5409919,24.5657217
10,Strada Franz Liszt,540068,46.5407369,24.5645094
13,Strada Franz Liszt,540068,46.5406341,24.5646622
4,Strada Franz Liszt,540068,46.5409806,24.5652631
11,Strada Franz Liszt,540068,46.5406868,24.5649874
12,Strada Franz Liszt,540068,46.5406764,24.5643269
8,Strada Franz Liszt,540068,46.5407849,24.5646409
15,Strada Franz Liszt,540068,46.5405620,24.5644476
2,Strada Franz Liszt,540068,46.5410414,24.5654402
3A,Strada Retezatului,540068,46.5417244,24.5630904
16,Strada Retezatului,540068,46.5409159,24.5635009
5,Strada Retezatului,540068,46.5415842,24.5632406
2,Strada Retezatului,540068,46.5419162,24.5625432
14,Strada Retezatului,540068,46.5410528,24.5633935
12,Strada Retezatului,540068,46.5412022,24.5632487
6,Strada Retezatului,540068,46.5416653,24.5628088
3,Strada Retezatului,540068,46.5418461,24.5629590
1,Strada Retezatului,540068,46.5419237,24.5628571
8,Strada Retezatului,540068,46.5415676,24.5629241
4,Strada Retezatului,540068,46.5417705,24.5626988
10,Strada Retezatului,540068,46.5413698,24.5630959
22,Strada Retezatului,540068,46.5405215,24.5641794
19,Strada Retezatului,540068,46.5401706,24.5646811
11,Strada Retezatului,540068,46.5408093,24.5641633
26,Strada Retezatului,540068,46.5403499,24.5643108
21,Strada Retezatului,540068,46.5401101,24.5645120
18,Strada Retezatului,540068,46.5408051,24.5638553
20A,Strada Retezatului,540068,46.5406212,24.5640748
13,Strada Retezatului,540068,46.5404049,24.5645389
9,Strada Retezatului,540068,46.5409108,24.5640346
15,Strada Retezatului,540068,46.5403389,24.5645790
17,Strada Retezatului,540068,46.5402595,24.5646112
20,Strada Retezatului,540068,46.5406893,24.5639943
24,Strada Retezatului,540068,46.5404513,24.5642384
7,Strada Retezatului,540068,46.5411340,24.5637502
4,Strada Justiției,540069,46.5423774,24.5644637
6,Strada Justiției,540069,46.5422244,24.5642438
10,Strada Justiției,540069,46.5419679,24.5639061
12,Strada Justiției,540069,46.5417815,24.5636298
8,Strada Justiției,540069,46.5421082,24.5640882
2,Strada Justiției,540069,46.5425121,24.5646515
26,Strada Bolyai,540067,46.5427814,24.5646032
22,Strada Bolyai,540067,46.5428940,24.5644369
24,Strada Bolyai,540067,46.5428443,24.5645174
28,Strada Bolyai,540067,46.5426727,24.5647668
20,Strada Bolyai,540067,46.5429475,24.5643564
34,Piața Trandafirilor,540053,46.5432131,24.5594456
43,Piața Trandafirilor,540053,46.5439658,24.5608323
44,Piața Trandafirilor,540053,46.5440931,24.5610549
45,Piața Trandafirilor,540053,46.5442593,24.5613070
35,Piața Trandafirilor,540053,46.5432888,24.5595931
36,Piața Trandafirilor,540053,46.5433986,24.5598157
42,Piața Trandafirilor,540053,46.5438239,24.5606070
38,Piața Trandafirilor,540053,46.5435121,24.5600544
39,Piața Trandafirilor,540053,46.5436273,24.5602503
3,Strada Artei,540056,46.5423479,24.5600947
5,Strada Artei,540056,46.5422373,24.5601805
7,Strada Artei,540056,46.5420361,24.5603307
1,Strada Artei,540053,46.5426856,24.5598399
2,Strada Köteles Sámuel,540057,46.5434548,24.5627873
14,Strada Köteles Sámuel,540057,46.5422095,24.5606740
4,Strada Köteles Sámuel,540057,46.5431117,24.5621570
12,Strada Köteles Sámuel,540057,46.5424235,24.5610576
8,Strada Köteles Sámuel,540057,46.5426468,24.5614143
16,Strada Köteles Sámuel,540057,46.5421192,24.5605265
10,Strada Köteles Sámuel,540057,46.5425527,24.5612641
6,Strada Köteles Sámuel,540057,46.5429033,24.5617332
2A,Strada Köteles Sámuel,540057,46.5433570,24.5626318
3,Strada Köteles Sámuel,540057,46.5431873,24.5627069
25,Strada Köteles Sámuel,540057,46.5421358,24.5609932
27,Strada Köteles Sámuel,540057,46.5420399,24.5608618
23,Strada Köteles Sámuel,540057,46.5422244,24.5611488
19,Strada Köteles Sámuel,540057,46.5424180,24.5614435
13,Strada Köteles Sámuel,540057,46.5427095,24.5619129
1,Strada Köteles Sámuel,540057,46.5433367,24.5629483
9,Strada Köteles Sámuel,540057,46.5428977,24.5622348
7,Strada Köteles Sámuel,540057,46.5429881,24.5623877
29,Strada Köteles Sámuel,540057,46.5418572,24.5605962
5,Strada Köteles Sámuel,540057,46.5430989,24.5625486
21,Strada Köteles Sámuel,540057,46.5423185,24.5612963
17,Strada Köteles Sámuel,540057,46.5425121,24.5615964
15,Strada Köteles Sámuel,540057,46.5426063,24.5617520
11,Strada Köteles Sámuel,540057,46.5428037,24.5620819
35,Piața Victoriei,540052,46.5426523,24.5583700
36,Piața Victoriei,540052,46.5427519,24.5584827
31,Piața Trandafirilor,540053,46.5428736,24.5587011
32,Piața Victoriei,540052,46.5423331,24.5581766
34,Piața Victoriei,540052,46.5425379,24.5582869
31,Piața Victoriei,540052,46.5421911,24.5581179
33,Piața Victoriei,540052,46.5424458,24.5582278
7,Strada Tușnad,540027,46.5419110,24.5556351
5,Piața Victoriei,540029,46.5411359,24.5573025
9,Piața Victoriei,540029,46.5407704,24.5570695
6,Piața Victoriei,540029,46.5410436,24.5572515
5,Strada Tușnad,540027,46.5418440,24.5558164
8,Piața Victoriei,540029,46.5408812,24.5571415
3,Strada Tușnad,540028,46.5415344,24.5567499
1,Strada Tușnad,540028,46.5414494,24.5569940
9,Strada Tușnad,540027,46.5419512,24.5554805
7,Piața Victoriei,540029,46.5409699,24.5572032
5,Piața Victoriei,540029,46.5412207,24.5573693
10,Piața Victoriei,540029,46.5406378,24.5569833
2,Strada Tușnad,540027,46.5419200,24.5561867
4,Strada Tușnad,540027,46.5420693,24.5557602
2,Strada Iuliu Maniu,540027,46.5420399,24.5570208
4,Strada Iuliu Maniu,540027,46.5418553,24.5565166
12,Strada Iuliu Maniu,540019,46.5414660,24.5553686
6,Strada Iuliu Maniu,540019,46.5417151,24.5561223
8,Strada Iuliu Maniu,540019,46.5416247,24.5558514
10,Strada Iuliu Maniu,540019,46.5415380,24.5555859
5,Strada Horea,540051,46.5440924,24.5584616
11,Strada Horea,540051,46.5443037,24.5580703
17,Strada Horea,540051,46.5445415,24.5576006
19,Strada Horea,540051,46.5446381,24.5574428
3,Strada Horea,540051,46.5440043,24.5586189
7,Strada Horea,540051,46.5441665,24.5583227
21,Strada Horea,540051,46.5447030,24.5573291
9,Strada Horea,540051,46.5442322,24.5581997
13,Strada Horea,540051,46.5444261,24.5578254
1,Strada Horea,540051,46.5439326,24.5587787
23,Strada Horea,540051,46.5448777,24.5570743
8,Strada Horea,540051,46.5445960,24.5579836
14,Strada Horea,540051,46.5447991,24.5576269
22,Strada Horea,540036,46.5454241,24.5565722
10,Strada Horea,540051,46.5446550,24.5578709
4,Strada Horea,540050,46.5443837,24.5583437
18,Strada Horea,540051,46.5449698,24.5573145
16,Strada Horea,540051,46.5449050,24.5574293
12,Strada Horea,540051,46.5447104,24.5577797
20,Strada Horea,540036,46.5451450,24.5570300
2,Strada Horea,540050,46.5442639,24.5585817
6,Strada Horea,540051,46.5444891,24.5581606
33,Strada Horea,540036,46.5453992,24.5561231
37,Strada Horea,540036,46.5455567,24.5558215
39,Strada Horea,540036,46.5456511,24.5555899
43,Strada Horea,540036,46.5458113,24.5551243
41,Strada Horea,540036,46.5457347,24.5553519
29,Strada Horea,540036,46.5452527,24.5563911
27,Strada Horea,540036,46.5451906,24.5565256
25,Strada Horea,540036,46.5450811,24.5566827
31,Strada Horea,540036,46.5453401,24.5562501
35,Strada Horea,540036,46.5454620,24.5560007
4,Strada Aurel Filimon,540035,46.5468846,24.5591252
30,Strada Aurel Filimon,540035,46.5455326,24.5575530
17,Strada Aurel Filimon,540035,46.5457361,24.5582223
10,Strada Aurel Filimon,540035,46.5464677,24.5587628
22,Strada Aurel Filimon,540035,46.5458548,24.5579755
32,Strada Aurel Filimon,540035,46.5454353,24.5574418
6,Strada Aurel Filimon,540035,46.5466657,24.5589944
34,Strada Aurel Filimon,540035,46.5453218,24.5573185
16,Strada Aurel Filimon,540035,46.5461584,24.5583624
24,Strada Aurel Filimon,540035,46.5457729,24.5578682
18,Strada Aurel Filimon,540035,46.5460487,24.5582104
28,Strada Aurel Filimon,540035,46.5456151,24.5576941
26,Strada Aurel Filimon,540035,46.5457013,24.5577851
12,Strada Aurel Filimon,540035,46.5463548,24.5586191
14,Strada Aurel Filimon,540035,46.5462474,24.5584814
20,Strada Aurel Filimon,540035,46.5459492,24.5580878
2,Strada Aurel Filimon,540035,46.5471144,24.5592352
15,Strada Aurel Filimon,540035,46.5461809,24.5590339
5,Strada Aurel Filimon,540035,46.5464242,24.5592549
5,Strada Bartók Béla,540035,46.5452161,24.5595141
13,Strada Bartók Béla,540035,46.5456339,24.5587459
9,Strada Bartók Béla,540035,46.5454988,24.5589985
2,Strada Poligrafiei,540035,46.5453408,24.5592874
6,Strada Poligrafiei,540050,46.5448401,24.5586955
10,Strada Bartók Béla,540035,46.5459685,24.5588258
15,Strada Bartók Béla,540035,46.5456929,24.5586306
17,Strada Bartók Béla,540035,46.5457545,24.5585120
6,Strada Bartók Béla,540035,46.5456715,24.5593166
2A-2B,Strada Bartók Béla,540035,46.5449114,24.5604002
4,Strada Bartók Béla,540035,46.5455296,24.5596522
7,Strada Bartók Béla,540035,46.5454277,24.5591377
11,Strada Bartók Béla,540035,46.5455630,24.5588725
8,Strada Bartók Béla,540036,46.5458744,24.5592683
1-3,Strada Bartók Béla,540035,46.5448058,24.5602279
1,Strada Târgului,540069,46.5458911,24.5650485
7,Strada Târgului,540069,46.5454723,24.5649305
3,Strada Târgului,540069,46.5457545,24.5649975
5,Strada Târgului,540069,46.5455610,24.5649522
13,Strada Târgului,540069,46.5452140,24.5648151
2,Piața Bernády György,540072,46.5460884,24.5651209
11,Strada Târgului,540069,46.5452972,24.5648530
9,Strada Târgului,540069,46.5453671,24.5648822
15,Strada Târgului,540069,46.5450756,24.5647374
23,Strada Târgului,540069,46.5446864,24.5644718
4,Strada Târgului,540069,46.5452324,24.5645764
2,Strada Târgului,540069,46.5454908,24.5646462
10,Strada Târgului,540069,46.5446089,24.5641741
12,Strada Târgului,540069,46.5445133,24.5640830
18,Strada Târgului,540069,46.5442772,24.5638148
6A,Strada Târgului,540069,46.5449892,24.5644290
8,Strada Târgului,540069,46.5447306,24.5642599
6,Strada Târgului,540069,46.5448321,24.5643431
14,Strada Târgului,540069,46.5444155,24.5639891
16,Strada Târgului,540069,46.5443473,24.5639221
1,Strada Ion Creangă,540069,46.5454190,24.5641260
1A,Strada Ion Creangă,540069,46.5454817,24.5640079
6,Strada Ion Creangă,540069,46.5451478,24.5642118
3,Strada Ion Creangă,540069,46.5453397,24.5642654
7,Strada Ion Creangă,540069,46.5452417,24.5644423
4,Strada Ion Creangă,540069,46.5452880,24.5640026
13,Strada Mihail Kogălniceanu,540064,46.5454797,24.5655957
1,Strada Mihail Kogălniceanu,540064,46.5447472,24.5647025
15,Strada Mihail Kogălniceanu,540064,46.5456144,24.5657700
17,Strada Mihail Kogălniceanu,540064,46.5456937,24.5658505
5A,Strada Mihail Kogălniceanu,540064,46.5450462,24.5650780
17A,Strada Mihail Kogălniceanu,540064,46.5457563,24.5658880
11,Strada Mihail Kogălniceanu,540064,46.5453671,24.5654830
9,Strada Mihail Kogălniceanu,540064,46.5452472,24.5653274
7,Strada Mihail Kogălniceanu,540064,46.5451365,24.5652014
3,Strada Mihail Kogălniceanu,540064,46.5448266,24.5647991
5,Strada Mihail Kogălniceanu,540064,46.5449686,24.5649814
20BIS,Strada Mihail Kogălniceanu,540064,46.5456125,24.5660141
4,Strada Bernády György,540072,46.5459077,24.5656681
12,Strada Mihail Kogălniceanu,540064,46.5450130,24.5653516
2,Strada Mihail Kogălniceanu,540064,46.5441736,24.5643189
18,Strada Mihail Kogălniceanu,540064,46.5454427,24.5658398
8,Strada Mihail Kogălniceanu,540064,46.5446827,24.5649278
14,Strada Mihail Kogălniceanu,540064,46.5451421,24.5655072
10,Strada Mihail Kogălniceanu,540064,46.5448598,24.5651692
16,Strada Mihail Kogălniceanu,540064,46.5453284,24.5657110
16A,Strada Mihail Kogălniceanu,540064,46.5452527,24.5656198
4,Strada Mihail Kogălniceanu,540064,46.5443582,24.5645391
6,Strada Mihail Kogălniceanu,540064,46.5444650,24.5646542
6,Strada Bernády György,540072,46.5458725,24.5663225
10,Strada Bernády György,540072,46.5459723,24.5674571
8,Strada Bernády György,540072,46.5457712,24.5667195
34,Strada Mihai Viteazul,540080,46.5476538,24.5720772
12,Strada Mihai Viteazul,540080,46.5466529,24.5698845
18,Strada Mihai Viteazul,540080,46.5468724,24.5704961
24,Strada Mihai Viteazul,540080,46.5471344,24.5710352
2,Strada Mihai Viteazul,540080,46.5464426,24.5690048
32,Strada Mihai Viteazul,540080,46.5475830,24.5718563
4,Strada Mihai Viteazul,540080,46.5464924,24.5692140
30,Strada Mihai Viteazul,540080,46.5474480,24.5716280
20,Strada Mihai Viteazul,540080,46.5469628,24.5706999
14,Strada Mihai Viteazul,540080,46.5467137,24.5700830
10,Strada Mihai Viteazul,540080,46.5466050,24.5696297
16,Strada Mihai Viteazul,540080,46.5468024,24.5702818
28,Strada Mihai Viteazul,540080,46.5473539,24.5714402
22,Strada Mihai Viteazul,540080,46.5470699,24.5709225
8,Strada Mihai Viteazul,540080,46.5465498,24.5694260
26,Strada Mihai Viteazul,540080,46.5472433,24.5712444
3,Strada Colegiului,540080,46.5477080,24.5715260
2,Strada Verii,540084,46.5472525,24.5726528
1,Strada Colegiului,540080,46.5479664,24.5714670
2A,Strada Verii,540084,46.5476472,24.5722341
4,Strada Verii,540084,46.5473834,24.5724863
1,Strada Verii,540080,46.5475383,24.5726767
3,Strada Verii,540080,46.5473687,24.5728886
11,Strada Verii,540080,46.5472893,24.5735806
9,Strada Verii,540080,46.5473041,24.5734626
5,Strada Verii,540080,46.5473429,24.5731219
13,Strada Verii,540080,46.5472266,24.5740875
11A,Strada Verii,540080,46.5472582,24.5738758
7,Strada Verii,540080,46.5473243,24.5732614
15,Strada Verii,540080,46.5471936,24.5744337
1,Strada Mihai Viteazul,540080,46.5466648,24.5689193
5,Strada Mihai Viteazul,540080,46.5467973,24.5693240
3,Strada Mihai Viteazul,540080,46.5467071,24.5690668
7,Strada Mihai Viteazul,540080,46.5468381,24.5695737
9,Strada Mihai Viteazul,540080,46.5468714,24.5697052
15,Strada Mihai Viteazul,540080,46.5471241,24.5702362
11,Strada Mihai Viteazul,540080,46.5469082,24.5698366
17,Strada Mihai Viteazul,540080,46.5472403,24.5705232
13,Strada Mihai Viteazul,540080,46.5469526,24.5700270
14,Strada Nicolae Iorga,540088,46.5481756,24.5687154
12,Strada Nicolae Iorga,540088,46.5479431,24.5687371
2,Strada Nicolae Iorga,540088,46.5471388,24.5688015
4,Strada Nicolae Iorga,540088,46.5473639,24.5687932
6,Strada Nicolae Iorga,540088,46.5475001,24.5687822
8,Strada Nicolae Iorga,540088,46.5476443,24.5687744
10,Strada Nicolae Iorga,540088,46.5477715,24.5687664
3,Strada Borsos Tamás,540065,46.5435581,24.5656794
1,Strada Borsos Tamás,540065,46.5438810,24.5659986
7,Strada Borsos Tamás,540065,46.5437776,24.5659074
13,Strada Borsos Tamás,540065,46.5441965,24.5662588
27,Strada Borsos Tamás,540065,46.5449306,24.5667950
17,Strada Borsos Tamás,540065,46.5443661,24.5663875
1A,Strada Borsos Tamás,540065,46.5433626,24.5654729
15,Strada Borsos Tamás,540065,46.5442702,24.5663151
19,Strada Borsos Tamás,540065,46.5444991,24.5664734
21,Strada Borsos Tamás,540065,46.5445839,24.5665431
5,Strada Borsos Tamás,540065,46.5436763,24.5658135
23,Strada Borsos Tamás,540065,46.5447222,24.5666477
1,Strada Borsos Tamás,540065,46.5434604,24.5655802
25,Strada Borsos Tamás,540065,46.5448271,24.5667278
11,Strada Borsos Tamás,540065,46.5440231,24.5661193
14A,Strada Borsos Tamás,540065,46.5440092,24.5663954
8,Strada Borsos Tamás,540065,46.5436052,24.5660524
10,Strada Borsos Tamás,540065,46.5437021,24.5661541
12,Strada Borsos Tamás,540065,46.5437887,24.5662880
6,Strada Borsos Tamás,540065,46.5434830,24.5659215
14,Strada Borsos Tamás,540065,46.5439029,24.5663124
4,Strada Borsos Tamás,540065,46.5433127,24.5657438
2,Strada Borsos Tamás,540065,46.5432298,24.5656499
16,Strada Borsos Tamás,540065,46.5441578,24.5665190
30,Strada Borsos Tamás,540065,46.5449987,24.5673527
24,Strada Borsos Tamás,540065,46.5446705,24.5669350
28,Strada Borsos Tamás,540065,46.5448936,24.5671840
22,Strada Borsos Tamás,540065,46.5445303,24.5668130
20,Strada Borsos Tamás,540065,46.5443956,24.5667030
18,Strada Borsos Tamás,540065,46.5442804,24.5666104
26,Strada Borsos Tamás,540065,46.5447699,24.5670338
32,Strada Borsos Tamás,540065,46.5450691,24.5674870
4,Strada Băilor,540072,46.5454657,24.5663124
2,Strada Băilor,540072,46.5455395,24.5662025
8,Strada Băilor,540072,46.5452292,24.5665993
10,Strada Băilor,540072,46.5451739,24.5666798
1,Strada Băilor,540072,46.5454712,24.5665941
12,Strada Băilor,540072,46.5451001,24.5667629
6,Strada Băilor,540072,46.5454119,24.5663874
5,Strada Băilor,540072,46.5452606,24.5668434
3,Strada Băilor,540072,46.5453457,24.5667523
7,Strada Băilor,540072,46.5451666,24.5669399
8,Strada Erou Locotenent Petre Popescu,540072,46.5452683,24.5670286
11,Strada Erou Locotenent Petre Popescu,540072,46.5452515,24.5672350
3,Strada Erou Locotenent Petre Popescu,540072,46.5456576,24.5672324
5,Strada Erou Locotenent Petre Popescu,540072,46.5455447,24.5672242
6,Strada Erou Locotenent Petre Popescu,540072,46.5453974,24.5670339
4,Strada Erou Locotenent Petre Popescu,540072,46.5455949,24.5669696
9,Strada Erou Locotenent Petre Popescu,540072,46.5453602,24.5672347
7,Strada Erou Locotenent Petre Popescu,540072,46.5454510,24.5672324
1,Strada Erou Locotenent Petre Popescu,540072,46.5458032,24.5672458
2,Strada Erou Locotenent Petre Popescu,540072,46.5456924,24.5668863
10,Strada Călărașilor,540044,46.5470853,24.5624152
24,Strada Călărașilor,540044,46.5476830,24.5612991
8,Strada Călărașilor,540044,46.5470227,24.5625681
2,Strada Călărașilor,540044,46.5468493,24.5629355
6,Strada Călărașilor,540044,46.5469672,24.5626888
4,Strada Călărașilor,540044,46.5469064,24.5628121
22,Strada Călărașilor,540044,46.5476425,24.5613933
14,Strada Călărașilor,540044,46.5472071,24.5620531
16,Strada Călărașilor,540044,46.5472606,24.5619082
18,Strada Călărașilor,540044,46.5473362,24.5617366
20,Strada Călărașilor,540044,46.5474559,24.5614622
7,Strada Călărașilor,540046,46.5469434,24.5619136
1,Strada Călărașilor,540046,46.5466388,24.5626349
3,Strada Călărașilor,540046,46.5468178,24.5622113
5,Strada Călărașilor,540046,46.5468899,24.5620531
12,Strada Poștei,540043,46.5472680,24.5645180
1,Piața Petőfi Sándor,540043,46.5463457,24.5647058
8,Strada Poștei,540043,46.5470651,24.5645770
10,Strada Poștei,540043,46.5471720,24.5645502
6,Strada Poștei,540043,46.5469709,24.5646119
1,Piața Trandafirilor,540049,46.5463935,24.5642120
2,Strada Revoluției,540043,46.5468711,24.5639790
4,Strada Poștei,540043,46.5468788,24.5646548
2,Piața Trandafirilor,540049,46.5464655,24.5638660
4,Strada Revoluției,540043,46.5470724,24.5640647
1,Strada Revoluției,540043,46.5466833,24.5632976
14,Strada Poștei,540043,46.5474026,24.5644805
6,Strada Revoluției,540043,46.5472385,24.5641452
19,Strada Revoluției,540043,46.5479395,24.5641291
21,Strada Revoluției,540043,46.5480501,24.5641905
13,Strada Revoluției,540043,46.5476277,24.5639330
5,Strada Revoluției,540043,46.5470724,24.5636061
15,Strada Revoluției,540043,46.5477122,24.5639922
23,Strada Revoluției,540043,46.5481811,24.5642632
9,Strada Revoluției,540043,46.5474653,24.5637211
3,Strada Revoluției,540043,46.5469009,24.5634988
7,Strada Revoluției,540043,46.5472420,24.5636970
11,Strada Revoluției,540043,46.5475464,24.5638687
17,Strada Revoluției,540043,46.5478248,24.5640673
8,Strada Revoluției,540042,46.5480096,24.5646012
10,Strada Revoluției,540042,46.5482548,24.5646763
12,Strada Revoluției,540042,46.5486233,24.5646520
38,Strada Revoluției,540042,46.5503199,24.5650730
40,Strada Revoluției,540042,46.5504158,24.5651161
18,Strada Revoluției,540042,46.5490959,24.5647755
30,Strada Revoluției,540042,46.5498024,24.5649311
32,Strada Revoluției,540042,46.5499278,24.5649579
36,Strada Revoluției,540042,46.5502397,24.5650330
20,Strada Revoluției,540042,46.5492510,24.5648235
22,Strada Revoluției,540042,46.5494021,24.5648426
24,Strada Revoluției,540042,46.5494775,24.5648559
14,Strada Revoluției,540042,46.5487879,24.5646977
34,Strada Revoluției,540042,46.5500976,24.5650089
28,Strada Revoluției,540042,46.5496936,24.5649016
26,Strada Revoluției,540042,46.5495645,24.5648694
16,Strada Revoluției,540042,46.5489483,24.5647433
51,Strada Revoluției,540042,46.5510553,24.5652187
29,Strada Revoluției,540042,46.5490130,24.5644242
31,Strada Revoluției,540042,46.5491384,24.5644510
27,Strada Revoluției,540042,46.5488948,24.5643973
39,Strada Revoluției,540042,46.5500036,24.5646602
35,Strada Revoluției,540042,46.5497452,24.5645851
33,Strada Revoluției,540042,46.5492546,24.5644751
35,Strada Revoluției,540042,46.5494907,24.5645127
43,Strada Revoluției,540042,46.5503554,24.5647366
41,Strada Revoluției,540042,46.5501770,24.5646924
49,Strada Revoluției,540042,46.5509424,24.5651202
25,Strada Revoluției,540042,46.5487326,24.5643544
37,Strada Revoluției,540042,46.5498892,24.5646200
45,Strada Revoluției,540042,46.5505347,24.5648211
47,Strada Revoluției,540042,46.5507763,24.5649888
46,Strada Revoluției,540042,46.5507957,24.5653750
42,Strada Revoluției,540042,46.5506058,24.5652382
48,Strada Revoluției,540042,46.5508825,24.5654514
44,Strada Revoluției,540042,46.5507016,24.5653068
17,Strada Bujorului,540091,46.5508704,24.5701853
15,Strada Bujorului,540091,46.5510291,24.5701075
12,Strada Bujorului,540091,46.5497635,24.5705474
21,Strada Bujorului,540091,46.5506676,24.5703140
2,Strada Bujorului,540091,46.5516618,24.5691553
27,Strada Bujorului,540091,46.5502839,24.5705340
23,Strada Bujorului,540091,46.5505661,24.5703757
4,Strada Bujorului,540091,46.5515566,24.5692626
2,Strada Azuga,540092,46.5501548,24.5699519
25,Strada Bujorului,540091,46.5504352,24.5704428
10,Strada Bujorului,540091,46.5498892,24.5704589
2A,Strada Bujorului,540091,46.5517466,24.5690775
6,Strada Bujorului,540091,46.5501197,24.5703489
2A,Strada Azuga,540092,46.5501917,24.5700917
8,Strada Bujorului,540091,46.5499995,24.5704023
19,Strada Bujorului,540091,46.5507654,24.5702496
12,Strada Cibinului,540091,46.5510715,24.5709873
8,Strada Cibinului,540091,46.5511141,24.5707193
10,Strada Cibinului,540091,46.5510897,24.5708851
2,Strada Cibinului,540091,46.5511785,24.5702362
6,Strada Cibinului,540091,46.5511454,24.5705530
4,Strada Cibinului,540091,46.5511658,24.5704243
7,Strada Cibinului,540091,46.5513187,24.5704857
3,Strada Cibinului,540091,46.5512928,24.5701182
1,Strada Cibinului,540091,46.5512058,24.5699892
5,Strada Cibinului,540091,46.5513463,24.5702818
15,Strada Cibinului,540091,46.5512172,24.5710758
11,Strada Cibinului,540091,46.5512745,24.5707459
9,Strada Cibinului,540091,46.5513022,24.5705849
13,Strada Cibinului,540091,46.5512487,24.5709014
9,Strada Doctor Victor Babeș,540092,46.5508557,24.5709577
5,Strada Doctor Victor Babeș,540092,46.5506546,24.5708639
3,Strada Doctor Victor Babeș,540092,46.5505403,24.5708075
7,Strada Doctor Victor Babeș,540092,46.5507505,24.5709095
1,Strada Doctor Victor Babeș,540092,46.5504278,24.5707593
9A,Strada Doctor Victor Babeș,540092,46.5509387,24.5709980
13,Strada Bujorului,540091,46.5513187,24.5697750
11,Strada Bujorului,540091,46.5513907,24.5697000
7,Strada Bujorului,540091,46.5516655,24.5694182
1,Strada Bujorului,540091,46.5519238,24.5692063
5,Strada Bujorului,540091,46.5517318,24.5693538
9,Strada Bujorului,540091,46.5515402,24.5695391
3,Strada Bujorului,540091,46.5518201,24.5692945
56,Strada Avram Iancu,540091,46.5521542,24.5690480
62,Strada Avram Iancu,540091,46.5524163,24.5690453
66,Strada Avram Iancu,540091,46.5528054,24.5689756
62A,Strada Avram Iancu,540091,46.5525689,24.5690317
58,Strada Avram Iancu,540091,46.5522225,24.5690346
64,Strada Avram Iancu,540091,46.5526800,24.5689997
68,Strada Avram Iancu,540091,46.5528957,24.5689756
60,Strada Avram Iancu,540091,46.5523110,24.5690346
52,Strada Avram Iancu,540091,46.5519956,24.5691285
54,Strada Avram Iancu,540091,46.5520727,24.5690799
3,Strada Cosminului,540090,46.5490218,24.5683584
1,Strada Cosminului,540090,46.5488948,24.5683667
5,Strada Cosminului,540090,46.5491586,24.5683506
8,Strada Cosminului,540090,46.5491310,24.5686081
2,Strada Cosminului,540090,46.5487362,24.5686484
10,Strada Cosminului,540090,46.5492491,24.5686055
22,Strada Cosminului,540090,46.5501305,24.5685462
18,Strada Cosminului,540090,46.5497692,24.5685840
16,Strada Cosminului,540090,46.5496567,24.5685947
20,Strada Cosminului,540090,46.5500404,24.5685625
12,Strada Cosminului,540090,46.5493597,24.5686055
14,Strada Cosminului,540090,46.5494705,24.5686001
18A,Strada Cosminului,540090,46.5498817,24.5685679
24,Strada Cosminului,540090,46.5503466,24.5685438
6,Strada Cosminului,540090,46.5489723,24.5686323
4,Strada Cosminului,540090,46.5488782,24.5686430
1A,Strada Avram Iancu,540088,46.5472227,24.5650708
1,Strada Avram Iancu,540088,46.5473170,24.5650705
3A,Strada Avram Iancu,540089,46.5483684,24.5652877
5B,Strada Avram Iancu,540089,46.5487041,24.5654728
3,Strada Avram Iancu,540088,46.5474294,24.5650732
7,Strada Avram Iancu,540089,46.5489974,24.5656874
7A,Strada Avram Iancu,540089,46.5488481,24.5655801
5A,Strada Avram Iancu,540089,46.5486193,24.5654272
5,Strada Avram Iancu,540089,46.5485253,24.5653870
2,Strada Avram Iancu,540089,46.5486119,24.5657330
4,Strada Avram Iancu,540089,46.5487410,24.5658135
14,Strada Avram Iancu,540089,46.5493553,24.5663767
8,Strada Avram Iancu,540089,46.5490307,24.5660575
16,Strada Avram Iancu,540089,46.5494880,24.5665296
12,Strada Avram Iancu,540089,46.5492870,24.5663043
10,Strada Avram Iancu,540089,46.5491376,24.5661568
18,Strada Avram Iancu,540089,46.5495914,24.5666289
6,Strada Avram Iancu,540089,46.5488904,24.5659207
21A,Strada Avram Iancu,540089,46.5496761,24.5663311
15,Strada Avram Iancu,540089,46.5492501,24.5659210
17,Strada Avram Iancu,540089,46.5493719,24.5660659
11,Strada Avram Iancu,540089,46.5491247,24.5658110
19,Strada Avram Iancu,540089,46.5494733,24.5661621
13,Strada Avram Iancu,540089,46.5491911,24.5658674
9,Strada Avram Iancu,540089,46.5490729,24.5657601
21,Strada Avram Iancu,540089,46.5495692,24.5662453
21B,Strada Avram Iancu,540089,46.5497425,24.5663928
23,Strada Avram Iancu,540089,46.5499178,24.5665377
6,Pasajul Palas,540088,46.5500179,24.5660682
2,Pasajul Palas,540088,46.5502430,24.5654107
4,Pasajul Palas,540088,46.5500401,24.5659288
4A,Pasajul Palas,540088,46.5500857,24.5656713
8,Pasajul Palas,540088,46.5499823,24.5662507
11,Pasajul Palas,540088,46.5501817,24.5659697
15,Pasajul Palas,540088,46.5501263,24.5663448
1,Pasajul Palas,540088,46.5505136,24.5652214
17,Pasajul Palas,540088,46.5500796,24.5665444
7,Pasajul Palas,540088,46.5502720,24.5656361
9,Pasajul Palas,540088,46.5502020,24.5658557
3,Pasajul Palas,540088,46.5504445,24.5653609
7A,Pasajul Palas,540088,46.5502263,24.5657460
13,Pasajul Palas,540088,46.5501594,24.5661748
5,Pasajul Palas,540088,46.5503356,24.5655238
39,Strada Avram Iancu,540090,46.5508520,24.5673500
31,Strada Avram Iancu,540089,46.5504868,24.5670145
29,Strada Avram Iancu,540089,46.5503421,24.5668898
33,Strada Avram Iancu,540089,46.5505975,24.5670923
41,Strada Avram Iancu,540090,46.5509093,24.5674222
25,Strada Avram Iancu,540089,46.5501105,24.5667141
35,Strada Avram Iancu,540089,46.5507118,24.5671945
37,Strada Avram Iancu,540089,46.5508022,24.5672776
27,Strada Avram Iancu,540089,46.5501916,24.5667838
43B,Strada Avram Iancu,540090,46.5513537,24.5681652
43A,Strada Avram Iancu,540090,46.5516269,24.5685358
43,Strada Avram Iancu,540090,46.5512541,24.5679425
41A,Strada Avram Iancu,540090,46.5510992,24.5676703
43C,Strada Avram Iancu,540090,46.5514147,24.5682751
42,Strada Avram Iancu,540090,46.5512893,24.5684092
46,Strada Avram Iancu,540090,46.5514515,24.5686024
50,Strada Avram Iancu,540090,46.5517633,24.5688894
48,Strada Avram Iancu,540090,46.5516101,24.5687526
40,Strada Avram Iancu,540090,46.5512395,24.5683046
44,Strada Avram Iancu,540090,46.5513759,24.5685165
28,Strada Avram Iancu,540089,46.5501271,24.5670547
22,Strada Avram Iancu,540089,46.5498522,24.5668267
26,Strada Avram Iancu,540089,46.5500072,24.5669582
32,Strada Avram Iancu,540089,46.5503650,24.5672049
30,Strada Avram Iancu,540089,46.5502467,24.5671112
36,Strada Avram Iancu,540089,46.5506712,24.5674597
34,Strada Avram Iancu,540089,46.5505496,24.5673605
34,Strada Avram Iancu,540089,46.5504444,24.5672747
20,Strada Avram Iancu,540089,46.5497416,24.5667463
24,Strada Avram Iancu,540089,46.5499427,24.5669045
7,Strada Spitalul Vechi,540089,46.5494650,24.5680659
2,Strada Spitalul Vechi,540089,46.5493987,24.5669258
14,Strada Spitalul Vechi,540089,46.5491845,24.5677736
4,Strada Spitalul Vechi,540089,46.5493287,24.5670424
10,Strada Spitalul Vechi,540089,46.5491226,24.5675216
3,Strada Spitalul Vechi,540089,46.5494372,24.5672210
12,Strada Spitalul Vechi,540089,46.5491104,24.5676018
1,Strada Spitalul Vechi,540089,46.5495350,24.5670360
8,Strada Spitalul Vechi,540089,46.5491272,24.5673519
5,Strada Spitalul Vechi,540089,46.5493097,24.5674170
16,Strada Spitalul Vechi,540089,46.5492878,24.5677897
6,Strada Spitalul Vechi,540089,46.5491900,24.5672421
9,Strada Spitalul Vechi,540089,46.5494668,24.5683395
18,Strada Spitalul Vechi,540089,46.5493154,24.5682218
7,Strada Martin Luther,540090,46.5497915,24.5679962
15,Strada Martin Luther,540090,46.5503945,24.5682510
11,Strada Martin Luther,540090,46.5499500,24.5680954
9,Strada Martin Luther,540090,46.5498671,24.5680606
3,Strada Martin Luther,540090,46.5495792,24.5677602
4,Strada Martin Luther,540090,46.5496807,24.5680927
13,Strada Martin Luther,540090,46.5500368,24.5681357
6A,Strada Martin Luther,540090,46.5497600,24.5681708
6,Strada Martin Luther,540090,46.5498633,24.5682349
8,Strada Martin Luther,540090,46.5500681,24.5683073
2,Strada Martin Luther,540090,46.5495423,24.5679560
5,Strada Martin Luther,540090,46.5496845,24.5678594
1,Strada Martin Luther,540090,46.5494704,24.5676260
13A,Strada Martin Luther,540090,46.5502525,24.5682027
1,Strada Mitropolit Andrei Șaguna,540090,46.5507008,24.5679050
3,Strada Mitropolit Andrei Șaguna,540090,46.5506787,24.5679694
2,Strada Mitropolit Andrei Șaguna,540090,46.5505293,24.5679452
2A,Strada Mitropolit Andrei Șaguna,540090,46.5505809,24.5677524
16,Strada Mitropolit Andrei Șaguna,540090,46.5495885,24.5695492
26,Strada Mitropolit Andrei Șaguna,540090,46.5489946,24.5695867
4,Strada Mitropolit Andrei Șaguna,540090,46.5502855,24.5694233
20,Strada Mitropolit Andrei Șaguna,540090,46.5493708,24.5695519
22,Strada Mitropolit Andrei Șaguna,540090,46.5492490,24.5695465
8,Strada Mitropolit Andrei Șaguna,540090,46.5500994,24.5695385
12A,Strada Mitropolit Andrei Șaguna,540090,46.5498559,24.5695572
12B,Strada Mitropolit Andrei Șaguna,540090,46.5497711,24.5695546
14,Strada Mitropolit Andrei Șaguna,540090,46.5497047,24.5695572
24,Strada Mitropolit Andrei Șaguna,540090,46.5491274,24.5695465
6,Strada Mitropolit Andrei Șaguna,540090,46.5502190,24.5694849
18,Strada Mitropolit Andrei Șaguna,540090,46.5494850,24.5695466
28,Strada Mitropolit Andrei Șaguna,540090,46.5488470,24.5697369
10,Strada Mitropolit Andrei Șaguna,540090,46.5499574,24.5695548
2B,Strada Mitropolit Andrei Șaguna,540090,46.5503724,24.5690235
21,Strada Mitropolit Andrei Șaguna,540090,46.5497063,24.5697693
35,Strada Mitropolit Andrei Șaguna,540090,46.5486458,24.5702922
31,Strada Mitropolit Andrei Șaguna,540090,46.5489594,24.5698845
29,Strada Mitropolit Andrei Șaguna,540090,46.5490535,24.5697933
15,Strada Mitropolit Andrei Șaguna,540090,46.5500940,24.5697986
17,Strada Mitropolit Andrei Șaguna,540090,46.5500036,24.5697960
25,Strada Mitropolit Andrei Șaguna,540090,46.5493502,24.5697532
37,Strada Mitropolit Andrei Șaguna,540090,46.5484872,24.5704343
33,Strada Mitropolit Andrei Șaguna,540090,46.5488101,24.5700669
27,Strada Mitropolit Andrei Șaguna,540090,46.5491679,24.5697504
19,Strada Mitropolit Andrei Șaguna,540090,46.5498910,24.5698016
23,Strada Mitropolit Andrei Șaguna,540090,46.5495460,24.5697560
1,Strada Doctor Victor Babeș,540091,46.5492269,24.5704615
1,Strada Gábor Áron,540083,46.5468824,24.5744067
2B,Strada Henri Coandă,540084,46.5463031,24.5730146
4,Strada Henri Coandă,540084,46.5462127,24.5732455
7,Strada Gábor Áron,540083,46.5465832,24.5742378
2A,Strada Gábor Áron,540084,46.5461020,24.5735218
9,Strada Gábor Áron,540083,46.5464803,24.5741814
2A,Strada Henri Coandă,540084,46.5463917,24.5728188
2,Strada Henri Coandă,540084,46.5464341,24.5727115
2,Strada Gábor Áron,540084,46.5460706,24.5736181
5,Strada Gábor Áron,540083,46.5466812,24.5742887
4A,Strada Henri Coandă,540084,46.5461850,24.5733177
3,Strada Gábor Áron,540083,46.5467661,24.5743369
21,Strada Gábor Áron,540084,46.5457184,24.5738380
39,Strada Gábor Áron,540084,46.5447259,24.5733982
19,Strada Gábor Áron,540084,46.5458328,24.5738863
35,Strada Gábor Áron,540084,46.5449507,24.5734922
37,Strada Gábor Áron,540084,46.5448273,24.5734330
15,Strada Gábor Áron,540084,46.5460025,24.5739668
23,Strada Gábor Áron,540084,46.5456225,24.5737978
33,Strada Gábor Áron,540084,46.5450837,24.5735564
31,Strada Gábor Áron,540084,46.5452457,24.5736212
29,Strada Gábor Áron,540084,46.5454065,24.5736854
27,Strada Gábor Áron,540084,46.5454582,24.5737096
43,Strada Gábor Áron,540084,46.5444322,24.5736048
41,Strada Gábor Áron,540084,46.5446683,24.5733715
25,Strada Gábor Áron,540084,46.5455114,24.5737309
13,Strada Gábor Áron,540084,46.5462182,24.5740338
11,Strada Gábor Áron,540084,46.5463473,24.5741277
17,Strada Gábor Áron,540084,46.5459304,24.5739373
20,Strada Gábor Áron,540084,46.5450763,24.5732506
22,Strada Gábor Áron,540084,46.5449509,24.5731836
26,Strada Gábor Áron,540084,46.5447350,24.5730924
14,Strada Gábor Áron,540084,46.5453882,24.5733687
8,Strada Gábor Áron,540084,46.5456962,24.5735189
12,Strada Gábor Áron,540084,46.5454803,24.5734196
6,Strada Gábor Áron,540084,46.5457918,24.5735726
16,Strada Gábor Áron,540084,46.5452808,24.5733286
18,Strada Gábor Áron,540084,46.5451889,24.5732909
4,Strada Gábor Áron,540084,46.5458899,24.5736208
24,Strada Gábor Áron,540084,46.5448790,24.5731460
28,Strada Gábor Áron,540084,46.5446539,24.5730656
29,Strada Ilie Munteanu,540390,46.5292803,24.5519325
23,Strada Ilie Munteanu,540390,46.5297158,24.5521310
13,Strada Ilie Munteanu,540390,46.5299041,24.5521203
25,Strada Ilie Munteanu,540390,46.5297084,24.5522410
31,Strada Ilie Munteanu,540390,46.5292970,24.5520425
33,Strada Ilie Munteanu,540390,46.5293135,24.5521525
41,Strada Ilie Munteanu,540390,46.5291217,24.5520425
43,Strada Ilie Munteanu,540390,46.5291106,24.5521471
19,Strada Ilie Munteanu,540390,46.5297325,24.5519084
21,Strada Ilie Munteanu,540390,46.5297195,24.5520237
39,Strada Ilie Munteanu,540390,46.5291346,24.5519379
5,Strada Ilie Munteanu,540390,46.5302547,24.5520720
15,Strada Ilie Munteanu,540390,46.5299207,24.5522276
3,Strada Ilie Munteanu,540390,46.5302639,24.5519540
35,Strada Ilie Munteanu,540390,46.5293302,24.5522571
37,Strada Ilie Munteanu,540390,46.5293430,24.5523617
11,Strada Ilie Munteanu,540390,46.5298838,24.5520050
9,Strada Ilie Munteanu,540390,46.5298690,24.5519003
7,Strada Ilie Munteanu,540390,46.5302381,24.5521712
17,Strada Ilie Munteanu,540390,46.5299335,24.5523295
45,Strada Ilie Munteanu,540390,46.5290977,24.5522598
27,Strada Ilie Munteanu,540390,46.5297029,24.5523483
1,Strada Ilie Munteanu,540390,46.5302712,24.5518413
47,Strada Ilie Munteanu,540390,46.5290848,24.5523724
3,Strada Ciucaș,540399,46.5290127,24.5536223
12,Strada Ciucaș,540400,46.5286604,24.5526943
2,Strada Ciucaș,540400,46.5298451,24.5529705
7,Strada Ciucaș,540399,46.5281840,24.5532909
9,Strada Ciucaș,540399,46.5278421,24.5529895
6,Strada Ciucaș,540400,46.5294188,24.5527587
4,Strada Ciucaș,540400,46.5296309,24.5528525
5,Strada Ciucaș,540399,46.5285994,24.5534292
10,Strada Ciucaș,540400,46.5288873,24.5528686
8,Strada Ciucaș,540400,46.5290922,24.5530537
1,Strada Ciucaș,540399,46.5293893,24.5535955
5,Strada Ceahlău,540401,46.5306662,24.5527131
9,Strada Ceahlău,540401,46.5310104,24.5521762
11,Strada Ceahlău,540402,46.5312297,24.5523632
7,Strada Ceahlău,540401,46.5307474,24.5524395
13,Strada Ceahlău,540402,46.5315041,24.5525420
1,Strada Ceahlău,540401,46.5301403,24.5526809
3,Strada Ceahlău,540401,46.5303413,24.5528123
10,Strada Ceahlău,540351,46.5304059,24.5542714
10,Strada Lămâiței,540350,46.5314265,24.5544189
2,Strada Ceahlău,540351,46.5298838,24.5536089
4,Strada Ceahlău,540351,46.5300905,24.5535499
6,Strada Ceahlău,540351,46.5301440,24.5539415
20,Strada Ceahlău,540351,46.5308949,24.5537511
22,Strada Ceahlău,540352,46.5309853,24.5533353
12,Strada Lămâiței,540350,46.5312216,24.5544699
16,Strada Lămâiței,540350,46.5311477,24.5540971
8,Strada Ceahlău,540351,46.5303432,24.5538986
12,Strada Ceahlău,540351,46.5306034,24.5542365
24,Strada Ceahlău,540352,46.5311902,24.5532602
14,Strada Ceahlău,540351,46.5304337,24.5534748
28,Strada Ceahlău,540352,46.5312770,24.5536706
18,Strada Ceahlău,540351,46.5306956,24.5538020
16,Strada Ceahlău,540351,46.5306384,24.5534185
14,Strada Lămâiței,540350,46.5309595,24.5541373
50,Bulevardul 1848,540429,46.5303470,24.5551753
42,Bulevardul 1848,540429,46.5313249,24.5565098
40,Bulevardul 1848,540429,46.5314152,24.5566190
38,Bulevardul 1848,540429,46.5315916,24.5568312
56,Bulevardul 1848,540429,46.5296827,24.5545826
58,Bulevardul 1848,540429,46.5296070,24.5542312
52,Bulevardul 1848,540429,46.5299557,24.5549178
36,Bulevardul 1848,540429,46.5316849,24.5569438
34,Bulevardul 1848,540429,46.5318862,24.5571863
48,Bulevardul 1848,540429,46.5306569,24.5555508
30,Bulevardul 1848,540429,46.5320916,24.5573380
46,Bulevardul 1848,540429,46.5309595,24.5559263
44,Bulevardul 1848,540429,46.5312404,24.5563163
32,Bulevardul 1848,540429,46.5319679,24.5572848
54,Bulevardul 1848,540429,46.5298211,24.5547515
26,Bulevardul 1848,540429,46.5325653,24.5579015
20C,Bulevardul 1848,540429,46.5336336,24.5593460
22,Bulevardul 1848,540429,46.5330241,24.5584470
20D,Bulevardul 1848,540429,46.5334166,24.5592448
28,Bulevardul 1848,540429,46.5324127,24.5576202
24,Bulevardul 1848,540429,46.5328566,24.5581623
20A,Bulevardul 1848,540429,46.5341797,24.5592637
20B,Bulevardul 1848,540429,46.5338730,24.5593886
20E,Bulevardul 1848,540429,46.5332444,24.5590830
5,Bulevardul 1848,540342,46.5369570,24.5583775
11A,Bulevardul 1848,540374,46.5336922,24.5600167
3,Bulevardul 1848,540342,46.5370873,24.5582935
1,Bulevardul 1848,540342,46.5374231,24.5578361
11C,Bulevardul 1848,540374,46.5329855,24.5595929
11D,Bulevardul 1848,540374,46.5331626,24.5597592
11B,Bulevardul 1848,540374,46.5334395,24.5599282
7,Bulevardul 1848,540342,46.5368686,24.5584409
11,Bulevardul 1848,540374,46.5325541,24.5597396
13,Bulevardul 1848,540374,46.5323862,24.5595364
27,Bulevardul 1848,540375,46.5312607,24.5582814
29,Bulevardul 1848,540375,46.5310966,24.5576672
35,Bulevardul 1848,540405,46.5307444,24.5576546
25,Bulevardul 1848,540375,46.5314009,24.5580376
23B,Bulevardul 1848,540373,46.5316274,24.5579300
31,Bulevardul 1848,540375,46.5309561,24.5579132
33,Bulevardul 1848,540405,46.5308849,24.5574107
23,Bulevardul 1848,540373,46.5309189,24.5570907
41,Bulevardul 1848,540406,46.5300793,24.5571467
39,Bulevardul 1848,540406,46.5302159,24.5573130
61,Bulevardul 1848,540421,46.5295502,24.5555589
59,Bulevardul 1848,540421,46.5294482,24.5557439
47,Bulevardul 1848,540406,46.5291659,24.5562804
57,Bulevardul 1848,540421,46.5293044,24.5559746
37,Bulevardul 1848,540405,46.5305371,24.5566998
45,Bulevardul 1848,540406,46.5297915,24.5568168
43,Bulevardul 1848,540406,46.5299317,24.5569670
53,Bulevardul 1848,540406,46.5288191,24.5565057
51,Bulevardul 1848,540406,46.5288744,24.5567686
65,Bulevardul 1848,540422,46.5292380,24.5552129
75,Bulevardul 1848,540422,46.5285016,24.5544243
69,Bulevardul 1848,540422,46.5289592,24.5548883
67,Bulevardul 1848,540422,46.5290959,24.5550466
71,Bulevardul 1848,540422,46.5288134,24.5547220
73,Bulevardul 1848,540422,46.5286344,24.5545960
269,Bulevardul 1 Decembrie 1918,540510,46.5325689,24.5916756
267,Bulevardul 1 Decembrie 1918,540510,46.5324300,24.5914079
265,Bulevardul 1 Decembrie 1918,540510,46.5325683,24.5911729
255,Bulevardul 1 Decembrie 1918,540510,46.5329736,24.5898792
277,Bulevardul 1 Decembrie 1918,540510,46.5319559,24.5927637
263,Bulevardul 1 Decembrie 1918,540510,46.5328112,24.5908722
261,Bulevardul 1 Decembrie 1918,540510,46.5326725,24.5906171
275,Bulevardul 1 Decembrie 1918,540510,46.5323051,24.5924263
273,Bulevardul 1 Decembrie 1918,540510,46.5321542,24.5921855
271,Bulevardul 1 Decembrie 1918,540510,46.5322857,24.5919415
259,Bulevardul 1 Decembrie 1918,540510,46.5328087,24.5903797
279,Bulevardul 1 Decembrie 1918,540510,46.5318557,24.5929292
281,Bulevardul 1 Decembrie 1918,540510,46.5319934,24.5932390
226,Bulevardul 1 Decembrie 1918,540509,46.5319235,24.5909119
238,Bulevardul 1 Decembrie 1918,540509,46.5312675,24.5926450
224,Bulevardul 1 Decembrie 1918,540509,46.5321541,24.5907026
230,Bulevardul 1 Decembrie 1918,540509,46.5318360,24.5915597
228,Bulevardul 1 Decembrie 1918,540509,46.5319378,24.5913260
236,Bulevardul 1 Decembrie 1918,540509,46.5314949,24.5924332
232,Bulevardul 1 Decembrie 1918,540509,46.5316046,24.5917707
220,Bulevardul 1 Decembrie 1918,540509,46.5323995,24.5899867
234,Bulevardul 1 Decembrie 1918,540509,46.5315906,24.5921954
222,Bulevardul 1 Decembrie 1918,540509,46.5322414,24.5904553
19A,Strada Pomicultorilor,540511,46.5312719,24.5916314
19,Strada Pomicultorilor,540511,46.5311785,24.5918366
3,Strada Pomicultorilor,540511,46.5319469,24.5900352
13,Strada Pomicultorilor,540511,46.5310843,24.5913019
17,Strada Pomicultorilor,540511,46.5309030,24.5918869
11,Strada Pomicultorilor,540511,46.5313955,24.5910830
9,Strada Pomicultorilor,540511,46.5314732,24.5908745
15,Strada Pomicultorilor,540511,46.5309911,24.5915037
5,Strada Pomicultorilor,540511,46.5318723,24.5902462
7,Strada Pomicultorilor,540511,46.5315610,24.5906733
17,Strada Pomicultorilor,540511,46.5310990,24.5922054
1,Strada Pomicultorilor,540511,46.5320317,24.5898313
3,Piața Republicii,540110,46.5511766,24.5657939
2,Piața Republicii,540110,46.5510996,24.5656651
6,Piața Republicii,540110,46.5515603,24.5662981
1,Piața Republicii,540110,46.5509483,24.5655116
13,Piața Republicii,540110,46.5522353,24.5673066
12,Piața Republicii,540110,46.5521817,24.5672479
14,Piața Republicii,540110,46.5523478,24.5674569
8,Piața Republicii,540110,46.5517631,24.5666093
10,Piața Republicii,540110,46.5519604,24.5669180
11,Piața Republicii,540110,46.5521045,24.5671296
9,Piața Republicii,540110,46.5518590,24.5667572
4,Piața Republicii,540110,46.5512929,24.5659226
5,Piața Republicii,540110,46.5514538,24.5661161
7,Piața Republicii,540110,46.5516876,24.5664913
16,Piața Republicii,540110,46.5524843,24.5676109
15,Piața Republicii,540110,46.5524161,24.5675454
41,Piața Republicii,540110,46.5527415,24.5661717
43,Piața Republicii,540110,46.5525802,24.5661131
49,Piața Republicii,540110,46.5516893,24.5654667
40,Piața Republicii,540110,46.5529214,24.5663571
45,Piața Republicii,540110,46.5522410,24.5658636
46,Piața Republicii,540110,46.5521136,24.5657697
42,Piața Republicii,540110,46.5527111,24.5662016
39,Piața Republicii,540110,46.5530302,24.5664269
43A,Strada Republicii,540110,46.5528069,24.5657168
47,Piața Republicii,540110,46.5519919,24.5656732
48,Piața Republicii,540110,46.5518019,24.5655444
50,Piața Republicii,540110,46.5515953,24.5654076
44,Piața Republicii,540110,46.5523477,24.5659284
19,Piața Mărășești,540327,46.5515434,24.5641532
16,Piața Mărășești,540327,46.5518776,24.5633399
20,Piața Mărășești,540327,46.5514606,24.5643404
21,Piața Mărășești,540327,46.5513647,24.5645574
18,Piața Mărășești,540327,46.5516320,24.5639464
17,Piața Mărășești,540327,46.5517871,24.5635998
9,Piața Mărășești,540327,46.5521875,24.5638066
2,Piața Mărășești,540327,46.5517540,24.5648310
3,Piața Mărășești,540327,46.5518203,24.5646808
4,Piața Mărășești,540327,46.5519088,24.5644775
6,Piața Mărășești,540327,46.5520344,24.5641768
1,Piața Mărășești,540327,46.5516633,24.5650433
5,Piața Mărășești,540327,46.5519717,24.5643189
8,Piața Mărășești,540327,46.5521211,24.5639649
7,Piața Mărășești,540327,46.5520841,24.5640588
9,Piața Mărășești,540327,46.5526190,24.5628032
14,Piața Mărășești,540327,46.5523774,24.5618459
12,Piața Mărășești,540327,46.5528015,24.5623475
11,Piața Mărășești,540327,46.5527554,24.5624682
10,Piața Mărășești,540327,46.5526946,24.5626131
13,Piața Mărășești,540327,46.5526891,24.5620256
15,Piața Mărășești,540327,46.5524383,24.5624977
17,Strada Mărăști,540328,46.5524771,24.5633828
19,Strada Mărăști,540328,46.5526244,24.5635357
21,Strada Mărăști,540328,46.5527148,24.5636189
33,Strada Mărăști,540330,46.5534305,24.5642251
27,Strada Mărăști,540329,46.5529233,24.5636618
29,Strada Mărăști,540329,46.5531189,24.5639432
25,Strada Mărăști,540329,46.5531189,24.5630958
23,Strada Mărăști,540329,46.5530026,24.5632675
35,Strada Mărăști,540330,46.5536095,24.5640212
38,Strada Mărăști,540328,46.5532645,24.5646110
36,Strada Mărăști,540328,46.5531391,24.5644903
24,Strada Mărăști,540328,46.5523903,24.5636806
30,Strada Mărăști,540328,46.5527385,24.5640459
26,Strada Mărăști,540328,46.5525118,24.5638286
34,Strada Mărăști,540328,46.5529767,24.5642894
32,Strada Mărăști,540328,46.5528643,24.5641660
28,Strada Mărăști,540328,46.5526522,24.5639488
14,Strada Mărăști,540328,46.5511212,24.5627337
18,Strada Mărăști,540328,46.5514238,24.5628840
8,Strada Mărăști,540328,46.5499867,24.5627397
20,Strada Mărăști,540328,46.5515933,24.5629427
6,Strada Mărăști,540328,46.5500127,24.5623717
12,Strada Mărăști,540328,46.5509589,24.5626691
2,Strada Mărăști,540328,46.5497191,24.5622917
16A,Piața Mărășești,540327,46.5519052,24.5631307
10,Strada Mărăști,540328,46.5506508,24.5625626
4,Strada Mărăști,540328,46.5499057,24.5623368
10A,Strada Mărăști,540328,46.5508039,24.5626190
16,Strada Mărăști,540328,46.5513093,24.5628300
22A,Strada Mărăști,540328,46.5516820,24.5629886
9,Strada Mărăști,540328,46.5513079,24.5625439
3,Strada Mărăști,540328,46.5507099,24.5622778
15,Strada Mărăști,540328,46.5516660,24.5626988
11,Strada Mărăști,540328,46.5514762,24.5626171
5A,Strada Mărăști,540328,46.5510541,24.5624339
7,Strada Mărăști,540328,46.5512362,24.5623351
13,Strada Mărăști,540328,46.5515559,24.5626518
1,Strada Mărăști,540328,46.5506286,24.5622457
5,Strada Mărăști,540328,46.5509662,24.5623959
2B,Strada Mihai Eminescu,540043,46.5487250,24.5638313
18,Strada Mihai Eminescu,540043,46.5494187,24.5624038
20,Strada Mihai Eminescu,540043,46.5494851,24.5622375
12,Strada Mihai Eminescu,540043,46.5491955,24.5628571
4,Strada Mihai Eminescu,540043,46.5488374,24.5635926
2,Strada Mihai Eminescu,540043,46.5485609,24.5641634
14,Strada Mihai Eminescu,540043,46.5492674,24.5627096
6,Strada Mihai Eminescu,540043,46.5489078,24.5634553
8,Strada Mihai Eminescu,540043,46.5490018,24.5632595
2C,Strada Mihai Eminescu,540043,46.5487802,24.5637240
10,Strada Mihai Eminescu,540043,46.5491124,24.5630422
2A,Strada Mihai Eminescu,540043,46.5486696,24.5639458
16,Strada Mihai Eminescu,540043,46.5493539,24.5625304
21,Strada Mihai Eminescu,540043,46.5492966,24.5621305
21B,Strada Mihai Eminescu,540043,46.5494530,24.5618069
9,Strada Mihai Eminescu,540043,46.5488358,24.5631119
1,Strada Mihai Eminescu,540043,46.5484337,24.5640078
7,Strada Mihai Eminescu,540043,46.5487675,24.5632702
3,Strada Mihai Eminescu,540043,46.5485130,24.5638254
5,Strada Mihai Eminescu,540043,46.5486826,24.5634579
21A,Strada Mihai Eminescu,540043,46.5493559,24.5619935
1A,Strada Mihai Eminescu,540043,46.5484004,24.5640802
11,Strada Mihai Eminescu,540043,46.5489132,24.5629564
13,Strada Mihai Eminescu,540043,46.5489999,24.5627606
17,Strada Mihai Eminescu,540043,46.5491734,24.5624253
19,Strada Mihai Eminescu,540043,46.5492360,24.5622668
15,Strada Mihai Eminescu,540043,46.5490774,24.5626074
8A,Strada Brăila,540331,46.5484205,24.5612698
10,Strada Brăila,540331,46.5486437,24.5613675
12,Strada Brăila,540331,46.5489317,24.5613817
14,Strada Brăila,540331,46.5491102,24.5614401
8,Strada Brăila,540331,46.5483543,24.5616582
11,Strada Brăila,540331,46.5492375,24.5612840
1A,Strada Brăila,540331,46.5479943,24.5608588
7,Strada Brăila,540331,46.5488196,24.5611134
3,Strada Brăila,540331,46.5483353,24.5609615
5,Strada Brăila,540331,46.5484956,24.5610231
9,Strada Brăila,540331,46.5488733,24.5611424
11A,Strada Brăila,540331,46.5495415,24.5615688
2,Strada Brăila,540331,46.5480339,24.5611608
4,Strada Brăila,540331,46.5481136,24.5612174
1,Strada Brăila,540331,46.5481852,24.5608494
40,Strada Călărașilor,540044,46.5475152,24.5599235
43,Strada Călărașilor,540320,46.5477403,24.5586648
52,Strada Călărașilor,540044,46.5479531,24.5588635
36,Strada Călărașilor,540044,46.5476533,24.5603102
48,Strada Călărașilor,540044,46.5478014,24.5590614
37,Strada Călărașilor,540046,46.5473038,24.5588528
35,Strada Călărașilor,540046,46.5472697,24.5590789
34,Strada Călărașilor,540044,46.5476940,24.5604409
46,Strada Călărașilor,540044,46.5477097,24.5591906
50,Strada Călărașilor,540044,46.5478701,24.5589555
38,Strada Călărașilor,540044,46.5475861,24.5601315
39,Strada Călărașilor,540046,46.5473449,24.5585927
41,Strada Călărașilor,540046,46.5476436,24.5585862
32,Strada Călărașilor,540044,46.5477113,24.5605819
42,Strada Călărașilor,540044,46.5474696,24.5597677
44,Strada Călărașilor,540044,46.5476025,24.5593707
30,Strada Călărașilor,540044,46.5476995,24.5607301
59,Strada Călărașilor,540320,46.5484774,24.5581601
49,Strada Călărașilor,540320,46.5480695,24.5581665
47,Strada Călărașilor,540320,46.5480141,24.5582789
45,Strada Călărașilor,540320,46.5479485,24.5583912
57,Strada Călărașilor,540320,46.5484161,24.5580408
51,Strada Călărașilor,540320,46.5481113,24.5580777
53,Strada Călărașilor,540320,46.5481527,24.5579924
24,Piața Trandafirilor,540029,46.5448862,24.5623532
1,Bulevardul 1 Decembrie 1918,540061,46.5401758,24.5589763
11,Bulevardul 1 Decembrie 1918,540374,46.5399747,24.5597649
13,Bulevardul 1 Decembrie 1918,540374,46.5399212,24.5601163
5,Bulevardul 1 Decembrie 1918,540061,46.5400319,24.5594457
3,Bulevardul 1 Decembrie 1918,540061,46.5400927,24.5592714
17,Bulevardul 1 Decembrie 1918,540374,46.5401037,24.5606205
29,Bulevardul 1 Decembrie 1918,540061,46.5398990,24.5619348
27,Bulevardul 1 Decembrie 1918,540061,46.5399414,24.5616827
25,Bulevardul 1 Decembrie 1918,540061,46.5399747,24.5614198
19,Bulevardul 1 Decembrie 1918,540061,46.5400577,24.5609075
15,Bulevardul 1 Decembrie 1918,540374,46.5401370,24.5603925
41,Bulevardul 1 Decembrie 1918,540061,46.5396997,24.5632088
43,Bulevardul 1 Decembrie 1918,540061,46.5396609,24.5634583
13,Piața Memorandului,540067,46.5392680,24.5655585
7,Piața Memorandului,540067,46.5396406,24.5652580
1,Piața Memorandului,540067,46.5398583,24.5663685
9,Piața Memorandului,540067,46.5394709,24.5650006
3,Piața Memorandului,540067,46.5397772,24.5660386
14,Piața Memorandului,540067,46.5393160,24.5658320
16,Piața Memorandului,540067,46.5393917,24.5661754
2,Piața Memorandului,540067,46.5398196,24.5662076
11,Piața Memorandului,540067,46.5394862,24.5653785
15,Piața Memorandului,540067,46.5393511,24.5659957
6,Piața Memorandului,540067,46.5396591,24.5654726
12,Piața Memorandului,540067,46.5393806,24.5655424
10,Piața Memorandului,540067,46.5394746,24.5651213
17,Piața Memorandului,540067,46.5394285,24.5663363
8,Piața Memorandului,540067,46.5396264,24.5650217
5,Piața Memorandului,540067,46.5396924,24.5656604
4,Piața Memorandului,540067,46.5397403,24.5658455
14,Bulevardul 1 Decembrie 1918,540011,46.5391444,24.5613206
78,Bulevardul 1 Decembrie 1918,540003,46.5386812,24.5649255
70,Bulevardul 1 Decembrie 1918,540011,46.5391112,24.5622647
82,Bulevardul 1 Decembrie 1918,540003,46.5386720,24.5658669
76,Bulevardul 1 Decembrie 1918,540003,46.5387956,24.5642388
72,Bulevardul 1 Decembrie 1918,540011,46.5389875,24.5629916
28,Bulevardul 1 Decembrie 1918,540011,46.5392495,24.5613584
74,Bulevardul 1 Decembrie 1918,540003,46.5388935,24.5636595
84,Bulevardul 1 Decembrie 1918,540003,46.5386185,24.5663741
109,Bulevardul 1 Decembrie 1918,540445,46.5390707,24.5710333
95,Bulevardul 1 Decembrie 1918,540445,46.5389068,24.5690799
6A,Strada General Gheorghe Avramescu,540066,46.5427018,24.5666719
12A,Strada General Gheorghe Avramescu,540066,46.5420708,24.5671332
2A,Strada General Gheorghe Avramescu,540065,46.5430874,24.5660954
4,Strada General Gheorghe Avramescu,540065,46.5429602,24.5663285
10,Strada General Gheorghe Avramescu,540066,46.5424186,24.5669053
6,Strada General Gheorghe Avramescu,540066,46.5427701,24.5665968
2,Strada General Gheorghe Avramescu,540065,46.5431482,24.5660067
4A,Strada General Gheorghe Avramescu,540065,46.5428088,24.5662239
4B,Strada General Gheorghe Avramescu,540065,46.5426595,24.5661939
8,Strada General Gheorghe Avramescu,540066,46.5425755,24.5668087
12,Strada General Gheorghe Avramescu,540066,46.5419436,24.5672056
5,Strada General Gheorghe Avramescu,540065,46.5431520,24.5664519
3,Strada General Gheorghe Avramescu,540065,46.5432460,24.5663044
13,Strada General Gheorghe Avramescu,540066,46.5423254,24.5673802
15,Strada General Gheorghe Avramescu,540066,46.5420856,24.5674095
9,Strada General Gheorghe Avramescu,540066,46.5427369,24.5669937
11,Strada General Gheorghe Avramescu,540066,46.5425893,24.5671654
7,Strada General Gheorghe Avramescu,540065,46.5430671,24.5666102
6,Strada Kozma Béla,540066,46.5427554,24.5676884
1,Strada Zefirului,540066,46.5432765,24.5673325
4,Strada Kozma Béla,540066,46.5426225,24.5675838
6,Strada Padeș,540065,46.5431199,24.5672174
5,Strada Padeș,540065,46.5433550,24.5669615
4,Strada Padeș,540065,46.5430560,24.5669964
2,Strada Kozma Béla,540066,46.5425100,24.5674899
10,Strada Kozma Béla,540066,46.5430155,24.5678896
3,Strada Padeș,540065,46.5432460,24.5668328
5,Strada Kozma Béla,540066,46.5430173,24.5675436
8,Strada Kozma Béla,540066,46.5428771,24.5677823
3,Strada Kozma Béla,540066,46.5428143,24.5673800
2,Strada Padeș,540065,46.5429159,24.5668328
13,Strada Bradului,540077,46.5419904,24.5693124
9,Strada Bradului,540077,46.5419314,24.5685135
15,Strada Bradului,540077,46.5420103,24.5696031
7,Strada Bradului,540077,46.5419130,24.5682319
5,Strada Bradului,540077,46.5418949,24.5678332
11,Strada Bradului,540077,46.5419590,24.5688694
8,Strada Bradului,540077,46.5417259,24.5688471
2B,Strada Bradului,540077,46.5416614,24.5676589
2,Strada Bradului,540077,46.5415672,24.5671225
2A,Strada Bradului,540077,46.5416208,24.5673665
14,Strada Bradului,540077,46.5417501,24.5699137
6,Strada Bradului,540077,46.5416798,24.5683053
4,Strada Bradului,540077,46.5416761,24.5680049
10,Strada Bradului,540077,46.5417536,24.5691792
12,Strada Bradului,540077,46.5417720,24.5694777
6,Strada George Enescu,540052,46.5438162,24.5565736
4,Strada George Enescu,540052,46.5438752,24.5571127
8,Strada George Enescu,540052,46.5440208,24.5563161
2,Strada George Enescu,540052,46.5434300,24.5573106
2,Strada Rodnei,540342,46.5377721,24.5570252
24,Strada Rodnei,540342,46.5386060,24.5557029
18,Strada Rodnei,540342,46.5383950,24.5560235
6,Strada Rodnei,540342,46.5379372,24.5567493
12,Strada Rodnei,540342,46.5381595,24.5564005
16,Strada Rodnei,540342,46.5383040,24.5561543
8,Strada Rodnei,540342,46.5380198,24.5566024
20,Strada Rodnei,540342,46.5384448,24.5559371
14,Strada Rodnei,540342,46.5382442,24.5562618
22,Strada Rodnei,540342,46.5385424,24.5557981
4,Strada Rodnei,540342,46.5378593,24.5568764
10,Strada Rodnei,540342,46.5381005,24.5564954
11,Strada Rodnei,540342,46.5380093,24.5561879
3,Strada Rodnei,540342,46.5375763,24.5569255
1,Strada Rodnei,540342,46.5375063,24.5570463
13,Strada Rodnei,540342,46.5380981,24.5560549
7,Strada Rodnei,540342,46.5377864,24.5565565
17,Strada Rodnei,540342,46.5382937,24.5557743
15,Strada Rodnei,540342,46.5382080,24.5559093
5,Strada Rodnei,540342,46.5376478,24.5567982
21,Strada Rodnei,540342,46.5384286,24.5555722
19,Strada Rodnei,540342,46.5383681,24.5556637
9,Strada Rodnei,540342,46.5379359,24.5562974
10,Strada Gheorghe Doja,540342,46.5386664,24.5580183
12,Strada Gheorghe Doja,540342,46.5384737,24.5579224
16,Strada Gheorghe Doja,540342,46.5381222,24.5577635
18B,Strada Gheorghe Doja,540342,46.5380171,24.5576857
14,Strada Gheorghe Doja,540342,46.5383694,24.5573397
20,Strada Gheorghe Doja,540342,46.5378472,24.5575569
22,Strada Gheorghe Doja,540342,46.5376627,24.5574040
17,Strada Liviu Rebreanu,540015,46.5389045,24.5556392
11,Strada Liviu Rebreanu,540015,46.5392679,24.5561112
15,Strada Liviu Rebreanu,540015,46.5389898,24.5557444
13,Strada Liviu Rebreanu,540015,46.5390778,24.5558457
19,Strada Liviu Rebreanu,540015,46.5388085,24.5555319
9,Strada Liviu Rebreanu,540015,46.5394836,24.5563660
14,Strada Liviu Rebreanu,540015,46.5390429,24.5554192
4,Strada Liviu Rebreanu,540015,46.5395464,24.5560200
8,Strada Liviu Rebreanu,540015,46.5393824,24.5558323
10,Strada Liviu Rebreanu,540015,46.5392551,24.5556713
1,Strada Liviu Rebreanu,540015,46.5402623,24.5570366
6,Strada Liviu Rebreanu,540015,46.5394541,24.5559074
2,Strada Liviu Rebreanu,540015,46.5403933,24.5567871
12,Strada Liviu Rebreanu,540015,46.5391278,24.5555292
26,Strada Gheorghe Doja,540342,46.5371442,24.5569049
44,Strada Gheorghe Doja,540151,46.5348621,24.5538505
48,Strada Gheorghe Doja,540149,46.5347237,24.5529228
58,Strada Gheorghe Doja,540147,46.5335299,24.5520618
60,Strada Gheorghe Doja,540147,46.5331904,24.5515224
50,Strada Gheorghe Doja,540151,46.5343160,24.5531507
17,Strada Gheorghe Doja,540342,46.5361869,24.5561841
52,Strada Gheorghe Doja,540148,46.5343548,24.5524426
42,Strada Gheorghe Doja,540150,46.5353308,24.5536762
34B,Strada Gheorghe Doja,540342,46.5361002,24.5554894
15,Strada Gheorghe Doja,540342,46.5364655,24.5566990
36,Strada Gheorghe Doja,540342,46.5357977,24.5547276
54,Strada Gheorghe Doja,540151,46.5339063,24.5526599
40,Strada Gheorghe Doja,540150,46.5352348,24.5543387
38,Strada Gheorghe Doja,540150,46.5355930,24.5539930
32B,Strada Gheorghe Doja,540342,46.5366649,24.5561936
32,Strada Gheorghe Doja,540342,46.5368605,24.5563851
32A,Strada Gheorghe Doja,540342,46.5367217,24.5562799
34,Strada Gheorghe Doja,540342,46.5364361,24.5559078
24,Strada Gheorghe Doja,540342,46.5372184,24.5570093
28,Strada Gheorghe Doja,540342,46.5370569,24.5567996
30,Strada Gheorghe Doja,540342,46.5369641,24.5566896
46,Strada Gheorghe Doja,540149,46.5349562,24.5532258
23,Strada Gheorghe Doja,540342,46.5357238,24.5555457
37,Strada Gheorghe Doja,540354,46.5347317,24.5542499
35,Strada Gheorghe Doja,540354,46.5348352,24.5543657
29,Strada Gheorghe Doja,540354,46.5352423,24.5549127
31,Strada Gheorghe Doja,540354,46.5351426,24.5547947
33,Strada Gheorghe Doja,540354,46.5350227,24.5546445
25,Strada Gheorghe Doja,540342,46.5355042,24.5552775
21,Strada Gheorghe Doja,540342,46.5359083,24.5557898
33A,Strada Gheorghe Doja,540354,46.5349128,24.5544794
19,Strada Gheorghe Doja,540342,46.5359655,24.5559480
27,Strada Gheorghe Doja,540354,46.5349366,24.5557449
13,Strada Lăpușna,540342,46.5369234,24.5546387
1,Strada Lăpușna,540342,46.5364252,24.5553387
15,Strada Lăpușna,540342,46.5369991,24.5545260
11,Strada Lăpușna,540342,46.5368403,24.5547567
23,Strada Lăpușna,540342,46.5373772,24.5540298
7-9,Strada Lăpușna,540342,46.5367019,24.5549232
5,Strada Lăpușna,540342,46.5365950,24.5551027
21,Strada Lăpușna,540342,46.5372517,24.5541880
3,Strada Lăpușna,540342,46.5365100,24.5552102
17,Strada Lăpușna,540342,46.5370838,24.5544241
19,Strada Lăpușna,540342,46.5371633,24.5543087
14,Strada Lăpușna,540342,46.5373837,24.5543999
8A,Strada Lăpușna,540342,46.5368198,24.5551910
16,Strada Lăpușna,540342,46.5375048,24.5542170
4A,Strada Lăpușna,540342,46.5367373,24.5552971
10,Strada Lăpușna,540342,46.5372224,24.5546308
6B,Strada Lăpușna,540342,46.5369089,24.5550385
12,Strada Lăpușna,540342,46.5373018,24.5545089
8,Strada Lăpușna,540342,46.5371419,24.5547485
4,Strada Lăpușna,540342,46.5366565,24.5554056
2,Strada Lăpușna,540342,46.5365862,24.5554967
23,Strada Liviu Rebreanu,540023,46.5377235,24.5544465
21A,Strada Liviu Rebreanu,540023,46.5381758,24.5550361
21D,Strada Liviu Rebreanu,540023,46.5378195,24.5551490
27,Strada Liviu Rebreanu,540023,46.5372960,24.5538879
23B,Strada Liviu Rebreanu,540023,46.5376268,24.5548997
19A,Strada Liviu Rebreanu,540023,46.5383059,24.5552706
25,Strada Liviu Rebreanu,540023,46.5376338,24.5543275
23C,Strada Liviu Rebreanu,540023,46.5377918,24.5545976
23A,Strada Liviu Rebreanu,540023,46.5375037,24.5553657
16,Strada Liviu Rebreanu,540015,46.5385303,24.5551080
29,Strada Liviu Rebreanu,540023,46.5371963,24.5537538
26,Strada Liviu Rebreanu,540015,46.5378404,24.5542068
36,Strada Liviu Rebreanu,540015,46.5375267,24.5537967
34,Strada Liviu Rebreanu,540015,46.5375820,24.5538879
20,Strada Liviu Rebreanu,540015,46.5380119,24.5544458
28,Strada Liviu Rebreanu,540015,46.5377776,24.5541264
18,Strada Liviu Rebreanu,540015,46.5380949,24.5545504
1,Strada Oituzului,540023,46.5382469,24.5546926
30,Strada Liviu Rebreanu,540015,46.5377019,24.5540298
22,Strada Liviu Rebreanu,540015,46.5379639,24.5543758
32,Strada Liviu Rebreanu,540015,46.5376301,24.5539440
24,Strada Liviu Rebreanu,540015,46.5378939,24.5542846
40,Strada Liviu Rebreanu,540015,46.5373884,24.5536301
44,Strada Liviu Rebreanu,540015,46.5372777,24.5534746
46,Strada Liviu Rebreanu,540015,46.5372056,24.5533971
48,Strada Liviu Rebreanu,540015,46.5371521,24.5533056
38,Strada Liviu Rebreanu,540015,46.5374436,24.5537052
50,Strada Liviu Rebreanu,540015,46.5371004,24.5532361
42,Strada Liviu Rebreanu,540015,46.5373275,24.5535390
14,Strada Oituzului,540023,46.5390579,24.5539010
18,Strada Oituzului,540023,46.5392460,24.5536519
22,Strada Oituzului,540023,46.5394104,24.5534397
10,Strada Oituzului,540023,46.5388365,24.5542122
6,Strada Oituzului,540023,46.5386319,24.5545236
12,Strada Oituzului,540023,46.5389363,24.5540810
20,Strada Oituzului,540023,46.5393310,24.5535390
8A,Strada Oituzului,540023,46.5387572,24.5543248
4,Strada Oituzului,540023,46.5385359,24.5546684
8,Strada Oituzului,540023,46.5387092,24.5544002
2,Strada Oituzului,540023,46.5383697,24.5548908
16,Strada Oituzului,540023,46.5391631,24.5537508
29,Strada Oituzului,540023,46.5393034,24.5531071
11,Strada Oituzului,540023,46.5387203,24.5540539
3,Strada Oituzului,540023,46.5383827,24.5545048
9,Strada Oituzului,540023,46.5386520,24.5541532
13,Strada Oituzului,540023,46.5387979,24.5539547
15,Strada Oituzului,540023,46.5388569,24.5538715
27,Strada Oituzului,540023,46.5392960,24.5532654
17,Strada Oituzului,540023,46.5389269,24.5537696
23,Strada Oituzului,540023,46.5391317,24.5534987
19,Strada Oituzului,540023,46.5389897,24.5536784
7,Strada Oituzului,540023,46.5385708,24.5542578
25,Strada Oituzului,540023,46.5392240,24.5533753
5,Strada Oituzului,540023,46.5384879,24.5543761
21,Strada Oituzului,540023,46.5390653,24.5536006
13,Strada Iuliu Maniu,540019,46.5404215,24.5528356
55,Strada Rodnei,540020,46.5404935,24.5535124
11,Strada Iuliu Maniu,540019,46.5404906,24.5530564
49,Strada Rodnei,540020,46.5401538,24.5537830
53,Strada Rodnei,540020,46.5404110,24.5535842
51,Strada Rodnei,540020,46.5402959,24.5536731
57,Strada Rodnei,540020,46.5406010,24.5534353
9,Strada Iuliu Maniu,540019,46.5405341,24.5531888
3,Strada Iuliu Maniu,540019,46.5409214,24.5543248
7,Strada Iuliu Maniu,540019,46.5407774,24.5539306
1,Strada Iuliu Maniu,540030,46.5411520,24.5550571
5,Strada Iuliu Maniu,540019,46.5408420,24.5541237
24,Strada Iuliu Maniu,540019,46.5409619,24.5537964
22,Strada Iuliu Maniu,540019,46.5410080,24.5539574
20,Strada Iuliu Maniu,540019,46.5410561,24.5541210
18,Strada Iuliu Maniu,540019,46.5411224,24.5543087
26,Strada Iuliu Maniu,540019,46.5408549,24.5535202
11,Strada Cuza Vodă,540027,46.5407052,24.5560581
3,Strada Cuza Vodă,540027,46.5405004,24.5565948
15,Strada Cuza Vodă,540027,46.5408035,24.5558032
25,Strada Cuza Vodă,540027,46.5410631,24.5552642
17,Strada Cuza Vodă,540027,46.5408398,24.5557041
9,Strada Cuza Vodă,540027,46.5406535,24.5561979
21,Strada Cuza Vodă,540027,46.5409155,24.5555431
1,Strada Cuza Vodă,540027,46.5404616,24.5567075
13,Strada Cuza Vodă,540027,46.5407591,24.5559211
7,Strada Cuza Vodă,540027,46.5405963,24.5563478
23,Strada Cuza Vodă,540027,46.5409874,24.5553929
5,Strada Cuza Vodă,540027,46.5405466,24.5564685
19,Strada Cuza Vodă,540027,46.5408754,24.5556262
12,Strada Cuza Vodă,540027,46.5419370,24.5553594
14,Strada Cuza Vodă,540027,46.5422198,24.5554546
10,Strada Cuza Vodă,540027,46.5418121,24.5553903
18,Strada Cuza Vodă,540027,46.5424688,24.5554949
16,Strada Cuza Vodă,540027,46.5423470,24.5554734
53,Strada Cuza Vodă,540027,46.5435609,24.5553181
55,Strada Cuza Vodă,540027,46.5436476,24.5553233
49,Strada Cuza Vodă,540027,46.5432163,24.5552643
57,Strada Cuza Vodă,540027,46.5438100,24.5553500
45,Strada Cuza Vodă,540027,46.5427861,24.5552189
45A,Strada Cuza Vodă,540027,46.5429522,24.5552403
51,Strada Cuza Vodă,540027,46.5434687,24.5553047
47,Strada Cuza Vodă,540027,46.5430540,24.5552482
33,Strada Cuza Vodă,540027,46.5420169,24.5551174
31,Strada Cuza Vodă,540027,46.5418544,24.5550901
29,Strada Cuza Vodă,540027,46.5417124,24.5550713
43,Strada Cuza Vodă,540027,46.5425832,24.5551867
41,Strada Cuza Vodă,540027,46.5424725,24.5551733
27,Strada Cuza Vodă,540027,46.5415538,24.5550526
35,Strada Cuza Vodă,540027,46.5421183,24.5551196
37,Strada Cuza Vodă,540027,46.5422327,24.5551357
39,Strada Cuza Vodă,540027,46.5423581,24.5551572
16,Strada Iuliu Maniu,540019,46.5412715,24.5547522
14,Strada Iuliu Maniu,540019,46.5413583,24.5549748
4,Strada Plevna,540030,46.5428139,24.5545671
1,Strada Plevna,540030,46.5426294,24.5546931
3,Strada Plevna,540030,46.5426405,24.5544837
5,Strada Plevna,540030,46.5426498,24.5543147
8,Strada Plevna,540030,46.5428414,24.5541889
2,Strada Plevna,540030,46.5428009,24.5547629
6,Strada Plevna,540030,46.5428322,24.5543847
10,Strada Plevna,540030,46.5428544,24.5540709
6,Strada Constantin Silvestri,540031,46.5444231,24.5561411
5,Strada Constantin Silvestri,540031,46.5444717,24.5559544
3,Strada Constantin Silvestri,540031,46.5443955,24.5558742
9,Strada Constantin Silvestri,540031,46.5447477,24.5562670
2,Strada Constantin Silvestri,540031,46.5442424,24.5559480
8,Strada Constantin Silvestri,540031,46.5445396,24.5562877
1A,Strada Constantin Silvestri,540031,46.5442728,24.5557010
10,Strada Constantin Silvestri,540031,46.5446372,24.5564111
7,Strada Constantin Silvestri,540031,46.5445609,24.5560584
4,Strada Constantin Silvestri,540031,46.5443355,24.5560177
1,Strada Constantin Silvestri,540031,46.5442271,24.5556121
34,Strada Cuza Vodă,540036,46.5450840,24.5553096
38,Strada Cuza Vodă,540036,46.5454127,24.5552085
40,Strada Cuza Vodă,540036,46.5454959,24.5551796
36,Strada Cuza Vodă,540036,46.5452587,24.5552596
32,Strada Cuza Vodă,540036,46.5449212,24.5553499
26,Strada Cuza Vodă,540036,46.5444393,24.5555370
30,Strada Cuza Vodă,540036,46.5447699,24.5554038
28,Strada Cuza Vodă,540036,46.5446466,24.5554378
69,Strada Cuza Vodă,540036,46.5447957,24.5551007
2,Strada Gheorghe Șincai,540037,46.5449586,24.5550164
67,Strada Cuza Vodă,540036,46.5446278,24.5551541
65,Strada Cuza Vodă,540036,46.5445551,24.5551782
61B,Strada Cuza Vodă,540036,46.5443389,24.5552414
73,Strada Cuza Vodă,540036,46.5452428,24.5549506
71,Strada Cuza Vodă,540036,46.5451293,24.5550064
77,Strada Cuza Vodă,540036,46.5455662,24.5548518
79,Strada Cuza Vodă,540036,46.5456655,24.5548058
75,Strada Cuza Vodă,540036,46.5454095,24.5548990
20,Strada Gheorghe Șincai,540037,46.5450301,24.5529384
22,Strada Gheorghe Șincai,540037,46.5450329,24.5527077
6,Strada Gheorghe Șincai,540037,46.5449764,24.5545360
12,Strada Gheorghe Șincai,540037,46.5450084,24.5537287
18,Strada Gheorghe Șincai,540037,46.5450275,24.5531490
16,Strada Gheorghe Șincai,540037,46.5450263,24.5532496
14,Strada Gheorghe Șincai,540037,46.5450124,24.5535934
8,Strada Gheorghe Șincai,540037,46.5449865,24.5543124
4,Strada Gheorghe Șincai,540037,46.5449666,24.5547544
10,Strada Gheorghe Șincai,540037,46.5449959,24.5541500
3,Strada Gheorghe Șincai,540037,46.5448235,24.5544993
11,Strada Gheorghe Șincai,540037,46.5448562,24.5537279
13,Strada Gheorghe Șincai,540037,46.5448624,24.5535523
1,Strada Gheorghe Șincai,540037,46.5448091,24.5548097
19,Strada Gheorghe Șincai,540037,46.5448733,24.5530755
9,Strada Gheorghe Șincai,540037,46.5448478,24.5538999
17A,Strada Gheorghe Șincai,540037,46.5448693,24.5532633
7,Strada Gheorghe Șincai,540037,46.5448393,24.5540980
15,Strada Gheorghe Șincai,540037,46.5448667,24.5533705
5,Strada Gheorghe Șincai,540037,46.5448311,24.5543352
24,Strada General Traian Moșoiu,540039,46.5460661,24.5522374
18,Strada General Traian Moșoiu,540039,46.5462182,24.5528317
16,Strada General Traian Moșoiu,540039,46.5460563,24.5530909
2,Strada General Traian Moșoiu,540039,46.5460111,24.5545816
6,Strada General Traian Moșoiu,540039,46.5460007,24.5540832
20,Strada General Traian Moșoiu,540039,46.5460676,24.5525720
4,Strada General Traian Moșoiu,540039,46.5460079,24.5542574
26,Strada General Traian Moșoiu,540039,46.5461354,24.5520227
8,Strada General Traian Moșoiu,540039,46.5460226,24.5538217
22,Strada General Traian Moșoiu,540039,46.5460734,24.5523532
14,Strada General Traian Moșoiu,540039,46.5460416,24.5532309
12,Strada General Traian Moșoiu,540039,46.5460296,24.5533865
10,Strada General Traian Moșoiu,540039,46.5460258,24.5535558
21,Strada General Traian Moșoiu,540039,46.5458960,24.5525335
1,Strada General Traian Moșoiu,540039,46.5458047,24.5545265
23,Strada General Traian Moșoiu,540039,46.5459081,24.5522047
9,Strada General Traian Moșoiu,540039,46.5458636,24.5536357
19,Strada General Traian Moșoiu,540039,46.5458892,24.5527093
17,Strada General Traian Moșoiu,540039,46.5458837,24.5528749
11,Strada General Traian Moșoiu,540039,46.5458680,24.5533262
13,Strada General Traian Moșoiu,540039,46.5458732,24.5531762
5,Strada General Traian Moșoiu,540039,46.5458399,24.5541645
3,Strada General Traian Moșoiu,540039,46.5458351,24.5543110
15,Strada General Traian Moșoiu,540039,46.5458788,24.5530152
7A,Strada General Traian Moșoiu,540039,46.5458573,24.5537708
7,Strada General Traian Moșoiu,540039,46.5457478,24.5539229
10,Strada Rozelor,540331,46.5486623,24.5600500
16,Strada Rozelor,540331,46.5487761,24.5604812
18,Strada Rozelor,540331,46.5488332,24.5606344
12,Strada Rozelor,540331,46.5486907,24.5601511
8,Strada Rozelor,540331,46.5485631,24.5597277
2,Strada Rozelor,540331,46.5482227,24.5591750
4,Strada Rozelor,540331,46.5483795,24.5593753
6,Strada Rozelor,540331,46.5484777,24.5595092
14,Strada Rozelor,540331,46.5487428,24.5603498
20,Strada Rozelor,540331,46.5489015,24.5608433
7,Strada Rozelor,540331,46.5489107,24.5603486
3,Strada Rozelor,540331,46.5488220,24.5600479
11,Strada Rozelor,540331,46.5492717,24.5602586
9,Strada Rozelor,540331,46.5490261,24.5604108
15,Strada Rozelor,540331,46.5490792,24.5609375
5,Strada Rozelor,540331,46.5488645,24.5601872
1,Strada Rozelor,540331,46.5487848,24.5599259
13A,Strada Rozelor,540331,46.5490583,24.5608567
100,Strada Călărașilor,540320,46.5507285,24.5560296
98,Strada Călărașilor,540320,46.5506152,24.5561836
92,Strada Călărașilor,540320,46.5502928,24.5566109
104,Strada Călărașilor,540320,46.5509044,24.5558012
94,Strada Călărașilor,540320,46.5504439,24.5563991
102,Strada Călărașilor,540320,46.5508156,24.5559113
88,Strada Călărașilor,540320,46.5501271,24.5568734
90,Strada Călărașilor,540320,46.5502148,24.5567359
96,Strada Călărașilor,540320,46.5505355,24.5562862
68,Strada Călărașilor,540320,46.5489678,24.5582009
64,Strada Călărașilor,540320,46.5487479,24.5583597
76,Strada Călărașilor,540320,46.5493699,24.5578871
66,Strada Călărașilor,540320,46.5488748,24.5582753
82,Strada Călărașilor,540320,46.5497957,24.5573609
62,Strada Călărașilor,540320,46.5486256,24.5584287
72,Strada Călărașilor,540320,46.5491488,24.5580748
56,Strada Călărașilor,540320,46.5483159,24.5585917
84,Strada Călărașilor,540320,46.5498784,24.5572419
86,Strada Călărașilor,540320,46.5499655,24.5571129
78,Strada Călărașilor,540320,46.5495084,24.5577503
54,Strada Călărașilor,540320,46.5481789,24.5586644
80,Strada Călărașilor,540320,46.5496363,24.5575956
60,Strada Călărașilor,540320,46.5485479,24.5584708
74,Strada Călărașilor,540320,46.5492527,24.5580028
58,Strada Călărașilor,540320,46.5484366,24.5585306
70,Strada Călărașilor,540320,46.5490470,24.5581323
31,Strada Morii,540321,46.5494836,24.5559134
29,Strada Morii,540321,46.5492830,24.5560406
19,Strada Morii,540321,46.5489558,24.5567406
21,Strada Morii,540321,46.5489871,24.5566422
17,Strada Morii,540321,46.5488368,24.5567611
41,Strada Morii,540321,46.5498841,24.5554347
39,Strada Morii,540321,46.5497958,24.5554831
47,Strada Morii,540321,46.5501115,24.5552203
37,Strada Morii,540321,46.5497617,24.5556743
45,Strada Morii,540321,46.5500771,24.5552924
43,Strada Morii,540321,46.5500039,24.5554020
35,Strada Morii,540321,46.5496689,24.5557516
49,Strada Morii,540321,46.5500832,24.5549438
33,Strada Morii,540321,46.5495622,24.5558436
7,Strada Morii,540321,46.5484698,24.5574586
1,Strada Morii,540321,46.5482098,24.5578843
11,Strada Morii,540321,46.5487505,24.5570881
15,Strada Morii,540321,46.5488335,24.5568737
3,Strada Morii,540321,46.5482573,24.5577779
9,Strada Morii,540321,46.5485787,24.5572316
5,Strada Morii,540321,46.5483817,24.5575978
13,Strada Morii,540321,46.5487897,24.5570337
97,Strada Călărașilor,540320,46.5505309,24.5556453
89,Strada Călărașilor,540320,46.5501926,24.5561867
95,Strada Călărașilor,540320,46.5504112,24.5558231
91,Strada Călărașilor,540320,46.5502768,24.5560540
101,Strada Călărașilor,540320,46.5507218,24.5553294
99,Strada Călărașilor,540320,46.5506057,24.5555066
97A,Strada Călărașilor,540320,46.5504663,24.5557446
81,Strada Călărașilor,540320,46.5498357,24.5568055
93,Strada Călărașilor,540320,46.5503527,24.5559158
87,Strada Călărașilor,540320,46.5500328,24.5564394
79,Strada Călărașilor,540320,46.5497605,24.5569199
85,Strada Călărașilor,540320,46.5499606,24.5565775
69,Strada Călărașilor,540320,46.5492455,24.5576254
65,Strada Călărașilor,540320,46.5490217,24.5578195
63,Strada Călărașilor,540320,46.5489359,24.5578995
75,Strada Călărașilor,540320,46.5494814,24.5573426
77A,Strada Călărașilor,540320,46.5496764,24.5570490
61,Strada Călărașilor,540320,46.5488381,24.5579766
59A,Strada Călărașilor,540320,46.5486637,24.5578998
67,Strada Călărașilor,540320,46.5491418,24.5577185
73,Strada Călărașilor,540320,46.5494081,24.5574431
71,Strada Călărașilor,540320,46.5493212,24.5575490
31,Strada Ludușului,540392,46.5268387,24.5463248
33,Strada Ludușului,540392,46.5267630,24.5461341
30,Strada Ludușului,540392,46.5269697,24.5461156
32,Strada Ludușului,540392,46.5269143,24.5459707
29,Strada Ludușului,540392,46.5272519,24.5472150
28,Strada Ludușului,540392,46.5274224,24.5470782
2,Strada Alexandru Vlahuță,540112,46.5539359,24.5659474
11,Strada Alexandru Vlahuță,540112,46.5546386,24.5664543
7,Strada Alexandru Vlahuță,540112,46.5543565,24.5661271
3,Strada Motrului,540119,46.5539138,24.5663766
3,Strada Alexandru Vlahuță,540112,46.5541277,24.5658616
4,Strada Motrului,540119,46.5540467,24.5665429
6,Strada Motrului,540119,46.5541369,24.5663768
9,Strada Alexandru Vlahuță,540112,46.5545373,24.5663363
3A,Strada Motrului,540119,46.5538068,24.5665775
1,Strada Motrului,540119,46.5538511,24.5664946
2,Strada Motrului,540119,46.5539488,24.5667172
17,Strada Alexandru Vlahuță,540112,46.5549282,24.5668084
15,Strada Alexandru Vlahuță,540112,46.5548342,24.5667145
1A,Strada Motrului,540119,46.5537403,24.5666933
4,Strada Alexandru Vlahuță,540112,46.5540539,24.5660949
13,Strada Alexandru Vlahuță,540112,46.5547216,24.5665641
5,Strada Alexandru Vlahuță,540112,46.5542459,24.5660064
12,Strada Alexandru Vlahuță,540112,46.5545962,24.5667733
5,Strada Motrului,540119,46.5539857,24.5662559
14,Strada Alexandru Vlahuță,540112,46.5546995,24.5669076
10,Strada Alexandru Vlahuță,540112,46.5545243,24.5666689
18,Strada Alexandru Vlahuță,540112,46.5549025,24.5671249
16,Strada Alexandru Vlahuță,540112,46.5548047,24.5670230
19,Strada Alexandru Vlahuță,540112,46.5550279,24.5669345
1,Strada Alexandru Vlahuță,540112,46.5540078,24.5657141
8,Strada Alexandru Vlahuță,540112,46.5544156,24.5665536
6,Strada Alexandru Vlahuță,540112,46.5543215,24.5664195
6,Strada Regele Mihai I,540121,46.5535614,24.5661939
1,Strada Arieșului,540120,46.5535264,24.5664863
4,Strada Regele Mihai I,540121,46.5534749,24.5663632
8,Strada Regele Mihai I,540121,46.5536389,24.5660708
10,Strada Regele Mihai I,540121,46.5536943,24.5659716
12,Strada Regele Mihai I,540121,46.5537828,24.5657996
3,Strada Arieșului,540120,46.5535984,24.5665777
2,Strada Regele Mihai I,540121,46.5533217,24.5666204
16,Strada Regele Mihai I,540121,46.5539747,24.5654485
18,Strada Regele Mihai I,540121,46.5540945,24.5652553
18A,Strada Regele Mihai I,540121,46.5541599,24.5651292
14,Strada Regele Mihai I,540121,46.5538990,24.5655853
11,Strada Regele Mihai I,540121,46.5538770,24.5652152
1,Strada Regele Mihai I,540121,46.5532830,24.5662398
5,Strada Regele Mihai I,540121,46.5534379,24.5659608
3,Strada Regele Mihai I,540121,46.5533457,24.5661083
7,Strada Regele Mihai I,540121,46.5535191,24.5658133
9,Strada Regele Mihai I,540121,46.5535725,24.5657087
7,Strada Lăcrămioarei,540111,46.5546792,24.5682863
15,Strada Lăcrămioarei,540111,46.5550038,24.5677284
18,Strada Lăcrămioarei,540113,46.5553764,24.5674897
20,Strada Lăcrămioarei,540113,46.5554410,24.5674226
5,Strada Lăcrămioarei,540111,46.5545003,24.5684287
17,Strada Lăcrămioarei,540111,46.5550795,24.5675755
11,Strada Lăcrămioarei,540111,46.5548840,24.5679564
21,Strada Lăcrămioarei,540111,46.5553101,24.5672402
22,Strada Lăcrămioarei,540113,46.5554889,24.5673719
19,Strada Lăcrămioarei,540111,46.5551496,24.5674629
9,Strada Lăcrămioarei,540111,46.5548028,24.5681310
16,Strada Lăcrămioarei,540113,46.5553341,24.5675701
23,Strada Lăcrămioarei,540111,46.5554595,24.5670981
24,Strada Lăcrămioarei,540113,46.5555960,24.5672832
13,Strada Lăcrămioarei,540111,46.5549466,24.5678488
3,Strada Lăcrămioarei,540111,46.5543104,24.5685545
8,Strada Lăcrămioarei,540113,46.5547806,24.5686508
14,Strada Lăcrămioarei,540113,46.5550722,24.5680261
1B,Strada Lăcrămioarei,540111,46.5541406,24.5686350
1,Strada Lăcrămioarei,540111,46.5540077,24.5687157
10,Strada Lăcrămioarei,540113,46.5549522,24.5682756
12,Strada Lăcrămioarei,540113,46.5550168,24.5681525
2,Strada Târnavei,540331,46.5533660,24.5648262
4,Strada Târnavei,540331,46.5534453,24.5650194
6,Strada Târnavei,540331,46.5534969,24.5651669
8,Strada Târnavei,540331,46.5535651,24.5653652
1,Strada Târnavei,540331,46.5537016,24.5651426
21,Strada George Coșbuc,540119,46.5562600,24.5700676
15,Strada George Coșbuc,540119,46.5558670,24.5696328
9,Strada George Coșbuc,540119,46.5556292,24.5691392
1,Strada George Coșbuc,540119,46.5553050,24.5686937
19,Strada George Coșbuc,540119,46.5561602,24.5701799
11,Strada George Coșbuc,540119,46.5557822,24.5689678
5,Strada George Coșbuc,540119,46.5555167,24.5688388
17,Strada George Coșbuc,540119,46.5559574,24.5698152
13,Strada George Coșbuc,540119,46.5557876,24.5694584
3,Strada George Coșbuc,540119,46.5554991,24.5684929
7,Strada George Coșbuc,540119,46.5556568,24.5686916
6,Strada George Coșbuc,540119,46.5552990,24.5692519
4,Strada George Coșbuc,540119,46.5551975,24.5690749
2,Strada Păcii,540120,46.5548970,24.5686994
1,Strada Păcii,540119,46.5550648,24.5685357
4,Strada Păcii,540120,46.5549854,24.5687691
25,Strada Câmpului,540175,46.5436997,24.5468985
26,Strada Pâinii,540174,46.5434984,24.5466513
6A,Piața Onești,540178,46.5410877,24.5448857
1,Strada Zânelor,540167,46.5399273,24.5487057
11,Piața Albert Metz,540167,46.5399403,24.5461965
12,Piața Albert Metz,540167,46.5398803,24.5462611
14,Strada Frederic Joliot-Curie,540167,46.5396367,24.5475819
93,Strada Libertății,540167,46.5401885,24.5459531
1,Piața Albert Metz,540178,46.5401062,24.5448656
14,Piața Albert Metz,540167,46.5393827,24.5461406
14A,Piața Albert Metz,540167,46.5394383,24.5460738
2,Piața Albert Metz,540178,46.5401977,24.5447697
3,Piața Albert Metz,540178,46.5402842,24.5447100
4,Piața Albert Metz,540178,46.5403896,24.5445879
9,Piața Albert Metz,540167,46.5405582,24.5454076
7,Piața Albert Metz,540167,46.5407738,24.5452762
8,Piața Albert Metz,540167,46.5406569,24.5452753
92,Strada Libertății,540167,46.5403116,24.5457749
31,Strada Predeal,540345,46.5363283,24.5630183
4A,Strada Moldovei,540493,46.5343478,24.5750494
28,Strada Ion Buteanu,540408,46.5294857,24.5586191
26,Strada Ion Buteanu,540408,46.5293381,24.5584432
24,Strada Ion Buteanu,540408,46.5291314,24.5581997
4,Strada Moldovei,540493,46.5346296,24.5747203
6,Strada Moldovei,540493,46.5348862,24.5751338
8,Strada Moldovei,540519,46.5351633,24.5755339
16A,Piața Albert Metz,540167,46.5396430,24.5458165
16,Strada Bucinului,540541,46.5349598,24.5822940
14,Strada Bucinului,540541,46.5351216,24.5817870
12,Strada Bucinului,540541,46.5353162,24.5813276
10,Strada Bucinului,540541,46.5354903,24.5808476
24A,Strada Moldovei,540519,46.5343176,24.5791526
28A,Strada Moldovei,540519,46.5348535,24.5798453
22A,Strada Moldovei,540519,46.5344913,24.5785765
1,Piața Victoriei,540026,46.5430249,24.5573435
210,Bulevardul 1 Decembrie 1918,540509,46.5331965,24.5888076
214,Bulevardul 1 Decembrie 1918,540509,46.5326897,24.5891663
253,Bulevardul 1 Decembrie 1918,540509,46.5331594,24.5889846
249,Bulevardul 1 Decembrie 1918,540509,46.5335174,24.5881060
251,Bulevardul 1 Decembrie 1918,540509,46.5332714,24.5885197
23,Piața Trandafirilor,540049,46.5441315,24.5596368
23,Piața Trandafirilor,540052,46.5434080,24.5585033
251,Bulevardul 1 Decembrie 1918,540509,46.5333188,24.5883705
77,Strada Călărașilor,540320,46.5496034,24.5571635
83,Strada Călărașilor,540320,46.5498911,24.5567008
250,Bulevardul 1 Decembrie 1918,540471,46.5274439,24.5984918
16,Strada Brăila,540331,46.5494409,24.5616971
57,Bulevardul 22 Decembrie 1989,540136,46.5588469,24.5769704
27,Piața Armatei,540167,46.5381425,24.5486679
10,Strada Alexandru Papiu Ilarian,540074,46.5447772,24.5704893
42/1,Strada Călărașilor,540044,46.5474771,24.5596898
42/2,Strada Călărașilor,540044,46.5475131,24.5595732
26,Piața Trandafirilor,540049,46.5439278,24.5592696
30,Strada Moldovei,540519,46.5350941,24.5805573
6,Pasajul Panseluțelor,540005,46.5367473,24.5650929
235,Bulevardul 1 Decembrie 1918,540545,46.5341680,24.5859595
250,Bulevardul 1 Decembrie 1918,540471,46.5272308,24.5983661
28,Strada Godeanu,540384,46.5254226,24.5541644
101,Strada Budiului,540381,46.5228814,24.5489686
1,Strada Köteles Sámuel,540057,46.5434195,24.5630324
17,Strada Bolyai,540067,46.5427400,24.5653883
8A,Strada Mărăști,540328,46.5503146,24.5625839
2,Strada George Enescu,540052,46.5433310,24.5576460
11,Piața Trandafirilor,540049,46.5453590,24.5615830
1,Strada Tamás Ernő,540307,46.5478173,24.5503227
15,Strada Horea,540051,46.5444681,24.5577415
49,Strada Morii,540321,46.5501141,24.5549610
1,Strada Poștei,540710,46.5467706,24.5644843
41,Aleea Carpați,540650,46.5553598,24.5606362
40,Strada Vulturilor,540497,46.5372281,24.5729522
36,Strada Vulturilor,540497,46.5373523,24.5729207
34,Strada Vulturilor,540497,46.5373230,24.5726496
38,Strada Vulturilor,540497,46.5371955,24.5726803
32,Strada Vulturilor,540497,46.5375762,24.5728630
30,Strada Vulturilor,540497,46.5375442,24.5725681
1,Piața Teatrului,540034,46.5458674,24.5601109
12,Piața Teatrului,540034,46.5454206,24.5609030
45,Strada Alexandru Papiu Ilarian,540075,46.5397126,24.5760847
41A,Strada Alexandru Papiu Ilarian,540075,46.5399647,24.5752195
20,Strada Pomicultorilor,540511,46.5308844,24.5906913
18,Strada Pomicultorilor,540511,46.5309555,24.5905087
16,Strada Pomicultorilor,540511,46.5310400,24.5903069
14,Strada Pomicultorilor,540511,46.5311642,24.5907902
12,Strada Pomicultorilor,540511,46.5312527,24.5905929
10,Strada Pomicultorilor,540511,46.5313347,24.5903829
4,Strada Pomicultorilor,540511,46.5317372,24.5895319
2,Strada Pomicultorilor,540511,46.5319057,24.5893890
2,Strada Brașovului,540538,46.5377274,24.5740642
100,Bulevardul Pandurilor,540680,46.5331992,24.5822147
50,Bulevardul Pandurilor,540494,46.5327594,24.5734914
49,Piața Trandafirilor,540053,46.5448079,24.5621927
21,Strada Tisei,540289,46.5578223,24.5480612
170A,Strada Tudor Vladimirescu,540536,46.5377741,24.5775297
170B,Strada Tudor Vladimirescu,540536,46.5378462,24.5778046
170C,Strada Tudor Vladimirescu,540536,46.5379145,24.5780652
170D,Strada Tudor Vladimirescu,540536,46.5379748,24.5782955
1A,Strada Busuiocului,540527,46.5374122,24.5778451
1B,Strada Busuiocului,540527,46.5374915,24.5775961
2A,Strada Bucinului,540526,46.5375892,24.5784866
2A,Strada Busuiocului,540535,46.5369621,24.5773327
2B,Strada Bucinului,540526,46.5377649,24.5785914
2B,Strada Busuiocului,540535,46.5371737,24.5772200
2C,Strada Busuiocului,540535,46.5374093,24.5770938
2D,Strada Busuiocului,540535,46.5376182,24.5769830
3A,Strada Busuiocului,540527,46.5368687,24.5780476
3B,Strada Busuiocului,540527,46.5370426,24.5781461
4A,Strada Bucinului,540526,46.5373319,24.5791378
4A,Strada Busuiocului,540535,46.5361352,24.5776816
4B,Strada Bucinului,540526,46.5374115,24.5788897
4B,Strada Busuiocului,540535,46.5363522,24.5775705
4C,Strada Busuiocului,540535,46.5365823,24.5774526
5A,Strada Busuiocului,540527,46.5366035,24.5789972
5B,Strada Busuiocului,540527,46.5366816,24.5787435
6A,Strada Bucinului,540526,46.5368597,24.5794195
6B,Strada Bucinului,540526,46.5370343,24.5795201
7A,Strada Busuiocului,540533,46.5364048,24.5781324
7B,Strada Busuiocului,540533,46.5363276,24.5783898
8A,Strada Bucinului,540526,46.5365991,24.5800715
8B,Strada Bucinului,540526,46.5366759,24.5798126
9A,Strada Busuiocului,540533,46.5357461,24.5786189
9B,Strada Busuiocului,540533,46.5359219,24.5787319
18,Strada Ciucului,540272,46.5622937,24.5457554
30,Strada Iuliu Maniu,540019,46.5406813,24.5529204
59,Strada Rodnei,540020,46.5408086,24.5532878
12,Bulevardul 22 Decembrie 1989,540640,46.5575630,24.5756131
63,Bulevardul 1848,540429,46.5296530,24.5557124
29A,Aleea Carpați,540319,46.5537087,24.5581780
51,Aleea Carpați,540650,46.5563262,24.5622777
1,Strada Reșița,540214,46.5224181,24.5352139
3,Strada Reșița,540214,46.5220518,24.5356342
5,Strada Reșița,540214,46.5216701,24.5360342
30,Strada Hunedoara,540219,46.5210633,24.5363282
5B,Piața Gării,540147,46.5334235,24.5510453
5A,Piața Gării,540147,46.5332985,24.5512240
5C,Piața Gării,540147,46.5335533,24.5508630
3,Piața Victoriei,540026,46.5423623,24.5573202
16,Strada Gheorghe Marinescu,540142,46.5524026,24.5766359
114-116,Bulevardul Pandurilor,540545,46.5346416,24.5832859
45,Piața Trandafirilor,540053,46.5443509,24.5614165
1,Strada Ion Buteanu,540378,46.5309527,24.5588848
3,Strada Ion Buteanu,540378,46.5308140,24.5586380
5,Strada Ion Buteanu,540378,46.5306313,24.5584073
7,Strada Ion Buteanu,540378,46.5304357,24.5581659
9,Strada Ion Buteanu,540378,46.5302512,24.5583805
13,Strada Ion Buteanu,540378,46.5301091,24.5590242
15,Strada Ion Buteanu,540378,46.5299707,24.5592737
19,Strada Ion Buteanu,540378,46.5295961,24.5595553
21,Strada Ion Buteanu,540378,46.5297566,24.5598101
23,Strada Ion Buteanu,540378,46.5299227,24.5601052
25,Strada Ion Buteanu,540413,46.5294060,24.5603492
27,Strada Ion Buteanu,540413,46.5290757,24.5607730
53A,Strada Suceava,540366,46.5300746,24.5611985
53B,Strada Suceava,540366,46.5300524,24.5613782
53C,Strada Suceava,540366,46.5300248,24.5615526
49,Strada Suceava,540366,46.5303522,24.5615222
20,Strada Șurianu,540377,46.5302986,24.5602669
22,Strada Șurianu,540377,46.5301510,24.5605324
2,Strada Șurianu,540376,46.5307671,24.5593123
4,Strada Șurianu,540376,46.5306145,24.5591860
6,Strada Șurianu,540376,46.5304852,24.5590443
8,Strada Șurianu,540376,46.5306102,24.5596081
10,Strada Șurianu,540376,46.5304534,24.5594910
12,Strada Șurianu,540376,46.5303241,24.5593370
14,Strada Șurianu,540377,46.5304407,24.5599070
16,Strada Șurianu,540377,46.5302838,24.5597745
18,Strada Șurianu,540377,46.5301651,24.5596420
101,Strada Budiului,540381,46.5235213,24.5478614
2,Strada Livezeni,540565,46.5335064,24.5903384
37A,Strada Suceava,540366,46.5294719,24.5611984
18,Piața Victoriei,540029,46.5408409,24.5580053
19 B,Strada Hunedoara,540219,46.5207644,24.5347229
19 A,Strada Hunedoara,540219,46.5208153,24.5343795
5,Strada Moldovei,540493,46.5353987,24.5750550
7,Strada Înfrățirii,540559,46.5361434,24.5841411
9,Strada Înfrățirii,540559,46.5364354,24.5843174
11,Strada Înfrățirii,540559,46.5366048,24.5843481
13,Strada Înfrățirii,540559,46.5369161,24.5842850
15,Strada Înfrățirii,540559,46.5371473,24.5842544
17,Strada Înfrățirii,540559,46.5375175,24.5841277
45,Strada Armoniei,540477,46.5377895,24.5842331
16,Strada Înfrățirii,540560,46.5375294,24.5846538
14,Strada Înfrățirii,540560,46.5372170,24.5846798
12,Strada Înfrățirii,540560,46.5369673,24.5846890
10,Strada Înfrățirii,540560,46.5366202,24.5848654
41,Strada Armoniei,540477,46.5376942,24.5836735
39,Strada Armoniei,540477,46.5376787,24.5833421
43,Strada Armoniei,540477,46.5376996,24.5838567
22,Strada Armoniei,540477,46.5375164,24.5836086
24,Strada Armoniei,540477,46.5372404,24.5837554
20,Strada Armoniei,540477,46.5375077,24.5833009
18,Strada Armoniei,540477,46.5374667,24.5830838
14,Strada Armoniei,540477,46.5371372,24.5826376
16,Strada Armoniei,540477,46.5373904,24.5828566
21,Strada Armoniei,540477,46.5373490,24.5820972
23,Strada Armoniei,540477,46.5375240,24.5819224
25,Strada Armoniei,540477,46.5376367,24.5817801
27,Strada Armoniei,540477,46.5377665,24.5816162
29,Strada Armoniei,540477,46.5378905,24.5813422
19,Strada Armoniei,540477,46.5371306,24.5821425
17,Strada Armoniei,540477,46.5369727,24.5825073
7,Strada Brăila,540331,46.5486931,24.5609479
18,Strada Moldovei,540519,46.5351315,24.5777644
221,Bulevardul 1 Decembrie 1918,540545,46.5345543,24.5840098
120 CORP C1,Strada Libertății,540190,46.5359266,24.5374701
120 CORP C1,Strada Libertății,540190,46.5359699,24.5375769
120,Strada Libertății,540190,46.5353006,24.5364904
120 GARAJ,Strada Libertății,540190,46.5353393,24.5365380
120 CORP C1,Strada Libertății,540190,46.5358324,24.5375326
1,Piața Teatrului,540034,46.5456388,24.5607880
36,Strada Aurel Filimon,540035,46.5452282,24.5572091
71,Bulevardul 22 Decembrie 1989,540136,46.5595550,24.5775488
114,Bulevardul Pandurilor,540545,46.5347590,24.5833933
23,Bulevardul 1 Decembrie 1918,540061,46.5397015,24.5611782
4,Strada Arany János,540044,46.5476542,24.5580864
2,Strada George Enescu,540052,46.5434460,24.5573491
19,Strada Doctor Victor Babeș,540095,46.5534991,24.5724202
19,Strada Doctor Victor Babeș,540095,46.5536236,24.5722754
80,Bulevardul 1 Decembrie 1918,540003,46.5386510,24.5655707
47,Calea Sighișoarei,520522,46.5303216,24.5831634
5,Pasajul Panseluțelor,540005,46.5371871,24.5650986
16,Strada Bolyai,540064,46.5431094,24.5638609
2,Strada Livezeni,540565,46.5335085,24.5898863
1 ap. 8,Strada Tușnad,540028,46.5414701,24.5569761
3,Piața Petőfi Sándor,540053,46.5461045,24.5643079
16,Piața Trandafirilor,540049,46.5448676,24.5610201
4,Strada Bartók Béla,540035,46.5449888,24.5602745
91,Bulevardul 1 Decembrie 1918,540445,46.5388354,24.5683519
60,Strada Gheorghe Marinescu,540136,46.5582090,24.5781146
1,Piața Teatrului,540049,46.5465721,24.5608726
16,Piața Mărășești,540327,46.5518504,24.5633343
5,Piața Petőfi Sándor,540053,46.5460586,24.5645042
159,Bulevardul 1 Decembrie 1918,540445,46.5392065,24.5771512
11,Strada Doctor Victor Babeș,540097,46.5525395,24.5716926
6,Strada Trébely,540081,46.5476895,24.5733831
14,Strada Înfrățirii,540560,46.5373033,24.5846136
27,Strada Sântana,547565,46.5714924,24.5491205
31,Bulevardul 1 Decembrie 1918,540003,46.5396470,24.5617418
47,Strada Cutezanței,540456,46.5384282,24.5876104
45,Strada Cutezanței,540456,46.5382471,24.5878716
43,Strada Cutezanței,540456,46.5381589,24.5880108
41,Strada Cutezanței,540456,46.5380357,24.5883744
39,Strada Cutezanței,540456,46.5378552,24.5886375
37,Strada Cutezanței,540456,46.5377584,24.5887894
35,Strada Cutezanței,540456,46.5376372,24.5891533
33,Strada Cutezanței,540456,46.5375422,24.5893411
25,Strada Cutezanței,540457,46.5368971,24.5906018
29,Strada Cutezanței,540457,46.5371450,24.5901197
31,Strada Cutezanței,540456,46.5373732,24.5896123
27,Strada Cutezanței,540457,46.5369892,24.5904406
20A,Strada Regele Mihai I,540121,46.5542576,24.5649683
20,Strada Regele Mihai I,540121,46.5542124,24.5650528
71,Bulevardul 1848,540422,46.5287768,24.5546186
17,Bulevardul 1848,540374,46.5323244,24.5591002
19,Bulevardul 1848,540373,46.5322537,24.5590140
21,Bulevardul 1848,540373,46.5320413,24.5587551
23,Bulevardul 1848,540373,46.5319704,24.5586687
23A,Bulevardul 1848,540373,46.5318287,24.5584960
15,Bulevardul 22 Decembrie 1989,540119,46.5547096,24.5697239
35,Bulevardul 22 Decembrie 1989,540119,46.5561371,24.5722881
6,Piața Onești,540178,46.5409167,24.5446249
18,Strada Livezeni,540566,46.5367276,24.5994066
12,Strada Zidarilor,540178,46.5415692,24.5450589
10,Strada Zăgazului,540111,46.5563341,24.5656668
12,Strada Zăgazului,540111,46.5564319,24.5654303
14,Strada Zăgazului,540111,46.5566500,24.5650261
3B,Pasajul Violetelor,540011,46.5383849,24.5619030
1,Strada Turzii,540394,46.5292002,24.5456049
1,Strada Agricultorilor,540272,46.5626915,24.5473781
3,Strada Agricultorilor,540272,46.5627756,24.5471889
5,Strada Agricultorilor,540272,46.5628105,24.5471002
9,Strada Agricultorilor,540272,46.5628429,24.5466595
11,Strada Agricultorilor,540272,46.5627317,24.5463909
13,Strada Agricultorilor,540272,46.5626759,24.5462643
15,Strada Agricultorilor,540272,46.5625930,24.5460635
19,Strada Agricultorilor,540272,46.5622669,24.5452824
21,Strada Agricultorilor,540272,46.5621897,24.5450204
25,Strada Agricultorilor,540272,46.5620943,24.5446735
27,Strada Agricultorilor,540272,46.5620649,24.5444424
29,Strada Agricultorilor,540272,46.5620262,24.5442649
31,Strada Agricultorilor,540272,46.5619726,24.5439254
33,Strada Agricultorilor,540272,46.5619032,24.5436772
35,Strada Agricultorilor,540272,46.5618589,24.5435342
41,Strada Agricultorilor,540272,46.5617600,24.5429324
45/2,Strada Agricultorilor,540272,46.5616816,24.5425040
45/1,Strada Agricultorilor,540272,46.5616742,24.5424413
49,Strada Agricultorilor,540272,46.5616520,24.5417994
51,Strada Agricultorilor,540272,46.5616533,24.5415553
53,Strada Agricultorilor,540272,46.5616545,24.5409467
2,Strada Agricultorilor,540272,46.5634634,24.5475535
4,Strada Agricultorilor,540272,46.5633606,24.5473656
6,Strada Agricultorilor,540272,46.5632709,24.5471727
8,Strada Agricultorilor,540272,46.5631665,24.5468874
10,Strada Agricultorilor,540272,46.5631088,24.5467060
12,Strada Agricultorilor,540272,46.5630597,24.5466057
14,Strada Agricultorilor,540272,46.5629925,24.5464479
16,Strada Agricultorilor,540272,46.5628531,24.5460910
18,Strada Agricultorilor,540272,46.5627722,24.5458958
20,Strada Agricultorilor,540272,46.5626631,24.5456044
22,Strada Agricultorilor,540272,46.5625503,24.5452935
24,Strada Agricultorilor,540272,46.5624799,24.5451268
24B,Strada Agricultorilor,540272,46.5623431,24.5444628
30,Strada Agricultorilor,540272,46.5620450,24.5432061
30A,Strada Agricultorilor,540272,46.5620320,24.5429102
32,Strada Agricultorilor,540272,46.5619601,24.5427616
34,Strada Agricultorilor,540272,46.5619696,24.5425036
32B,Strada Agricultorilor,540272,46.5618952,24.5420423
38,Strada Agricultorilor,540272,46.5619265,24.5414093
48,Strada Agricultorilor,540272,46.5618793,24.5411604
50,Strada Agricultorilor,540272,46.5618800,24.5409640
52,Strada Agricultorilor,540272,46.5618768,24.5407323
3,Strada Aiudului,540394,46.5289375,24.5451263
5,Strada Aiudului,540394,46.5289105,24.5448847
7,Strada Aiudului,540394,46.5288564,24.5448021
9,Strada Aiudului,540394,46.5287250,24.5445670
11,Strada Aiudului,540394,46.5286378,24.5444768
4,Strada Aiudului,540394,46.5292071,24.5452360
6,Strada Aiudului,540394,46.5291768,24.5451477
10,Strada Aiudului,540394,46.5286101,24.5439857
1,Strada Alba Iulia,540394,46.5277697,24.5462933
3,Strada Alba Iulia,540394,46.5276189,24.5464477
3A,Strada Alba Iulia,540394,46.5274550,24.5466066
5,Strada Alba Iulia,540394,46.5272445,24.5468099
9,Strada Alba Iulia,540394,46.5267476,24.5473966
11,Strada Alba Iulia,540394,46.5265851,24.5475146
13,Strada Alba Iulia,540394,46.5264455,24.5477056
15,Strada Alba Iulia,540394,46.5263446,24.5478011
17,Strada Alba Iulia,540394,46.5262217,24.5479457
19,Strada Alba Iulia,540394,46.5261230,24.5480494
21,Strada Alba Iulia,540394,46.5259530,24.5481984
23,Strada Alba Iulia,540394,46.5258429,24.5483276
25,Strada Alba Iulia,540394,46.5257338,24.5486542
27,Strada Alba Iulia,540394,46.5255965,24.5486245
29,Strada Alba Iulia,540394,46.5254851,24.5488258
31,Strada Alba Iulia,540394,46.5253750,24.5488733
33,Strada Alba Iulia,540394,46.5252665,24.5489880
35,Strada Alba Iulia,540394,46.5251373,24.5491022
2,Strada Alba Iulia,540394,46.5280451,24.5456815
2A,Strada Alba Iulia,540394,46.5279617,24.5457494
6,Strada Alba Iulia,540394,46.5277136,24.5460715
8A,Strada Alba Iulia,540394,46.5275395,24.5462118
12,Strada Alba Iulia,540394,46.5273795,24.5463755
14,Strada Alba Iulia,540394,46.5272599,24.5465404
16,Strada Alba Iulia,540394,46.5271507,24.5466589
18,Strada Alba Iulia,540394,46.5270430,24.5467944
20,Strada Alba Iulia,540394,46.5269022,24.5468334
22,Strada Alba Iulia,540394,46.5268293,24.5469688
24,Strada Alba Iulia,540394,46.5266951,24.5471260
28,Strada Alba Iulia,540394,46.5264889,24.5473424
32,Strada Alba Iulia,540390,46.5261742,24.5476863
34,Strada Alba Iulia,540390,46.5260512,24.5476077
36,Strada Alba Iulia,540390,46.5259802,24.5478504
38,Strada Alba Iulia,540390,46.5258776,24.5480182
40,Strada Alba Iulia,540390,46.5257641,24.5481253
42,Strada Alba Iulia,540390,46.5256363,24.5482300
44,Strada Alba Iulia,540390,46.5255132,24.5483917
46,Strada Alba Iulia,540390,46.5253959,24.5485284
48,Strada Alba Iulia,540390,46.5252527,24.5486850
48A,Strada Alba Iulia,540390,46.5251392,24.5488051
28-30,Strada Gheorghe Doja,540342,46.5370172,24.5567789
3,Strada Artei,540056,46.5423251,24.5600886
20 B,Strada Hunedoara,540219,46.5202442,24.5343737
20 A,Strada Hunedoara,540219,46.5203789,24.5346460
6,Strada Zăgazului,540111,46.5560137,24.5660197
8,Strada Bobâlna,540011,46.5380387,24.5630209
15,Strada Viitorului,540560,46.5362328,24.5865686
54-56,Bulevardul 1848,540429,46.5296962,24.5546700
46A,Bulevardul 1848,540429,46.5301668,24.5552414
44,Bulevardul 1848,540429,46.5311854,24.5565208
40-42,Bulevardul 1848,540429,46.5312582,24.5566039
42,Bulevardul 1848,540429,46.5313274,24.5567058
42,Bulevardul 1848,540429,46.5313828,24.5567648
30,Bulevardul 1848,540429,46.5320965,24.5574964
20E,Bulevardul 1848,540429,46.5331594,24.5589633
77,Bulevardul 1848,540422,46.5281488,24.5544892
71,Bulevardul 1848,540422,46.5289914,24.5548559
67,Bulevardul 1848,540422,46.5292992,24.5552103
57,Bulevardul 1848,540421,46.5293921,24.5558661
37,Bulevardul 1848,540405,46.5303915,24.5565489
23B,Bulevardul 1848,540375,46.5314687,24.5577111
22A,Bulevardul 1848,540373,46.5318170,24.5582748
23,Bulevardul 1848,540373,46.5320625,24.5585831
21,Bulevardul 1848,540373,46.5321430,24.5586685
21,Bulevardul 1848,540373,46.5321066,24.5586306
19,Bulevardul 1848,540373,46.5323189,24.5588825
17,Bulevardul 1848,540374,46.5328113,24.5593677
11,Bulevardul 1848,540374,46.5329559,24.5595421
1,Bulevardul 1848,540342,46.5370824,24.5582510
29,Aleea Carpați,540319,46.5538340,24.5584379
49,Aleea Carpați,540650,46.5560999,24.5621395
49,Aleea Carpați,540650,46.5561670,24.5620582
57,Aleea Carpați,540650,46.5564773,24.5625644
50,Aleea Carpați,540650,46.5566059,24.5627981
1,Aleea Constructorilor,540119,46.5549450,24.5692566
3,Aleea Constructorilor,540119,46.5551224,24.5695934
9,Aleea Cornișa,540143,46.5535251,24.5751040
5,Aleea Cornișa,540143,46.5539858,24.5755787
1,Aleea Covasna,540493,46.5338158,24.5755026
1,Aleea Vrancea,540519,46.5342420,24.5804066
1-3,Strada Gheorghe Doja,540061,46.5393335,24.5589083
74,Bulevardul 1 Decembrie 1918,540003,46.5388811,24.5635687
82,Bulevardul 1 Decembrie 1918,540003,46.5386494,24.5656917
86A,Bulevardul 1 Decembrie 1918,540447,46.5386352,24.5672215
94,Bulevardul 1 Decembrie 1918,540447,46.5385621,24.5702500
96,Bulevardul 1 Decembrie 1918,540447,46.5385589,24.5705571
104,Bulevardul 1 Decembrie 1918,540447,46.5385998,24.5715857
108/4,Bulevardul 1 Decembrie 1918,540447,46.5386111,24.5723142
110,Bulevardul 1 Decembrie 1918,540447,46.5386191,24.5726142
118,Bulevardul 1 Decembrie 1918,540447,46.5386633,24.5739148
126,Bulevardul 1 Decembrie 1918,540447,46.5386980,24.5750790
128/1,Bulevardul 1 Decembrie 1918,540447,46.5387524,24.5755073
140,Bulevardul 1 Decembrie 1918,540447,46.5389010,24.5771780
140,Bulevardul 1 Decembrie 1918,540447,46.5388833,24.5775084
158,Bulevardul 1 Decembrie 1918,540525,46.5366768,24.5806981
160,Bulevardul 1 Decembrie 1918,540525,46.5363828,24.5808032
180,Bulevardul 1 Decembrie 1918,540545,46.5346737,24.5837428
186,Bulevardul 1 Decembrie 1918,540545,46.5343932,24.5845670
188,Bulevardul 1 Decembrie 1918,540545,46.5342513,24.5848573
196,Bulevardul 1 Decembrie 1918,540545,46.5337466,24.5860172
202,Bulevardul 1 Decembrie 1918,540545,46.5335299,24.5867109
202,Bulevardul 1 Decembrie 1918,540545,46.5335111,24.5865941
204,Bulevardul 1 Decembrie 1918,540545,46.5334094,24.5870436
210,Bulevardul 1 Decembrie 1918,540509,46.5329219,24.5881443
216,Bulevardul 1 Decembrie 1918,540509,46.5325859,24.5893520
216,Bulevardul 1 Decembrie 1918,540509,46.5324246,24.5893069
218,Bulevardul 1 Decembrie 1918,540509,46.5324203,24.5896661
271,Bulevardul 1 Decembrie 1918,540510,46.5322186,24.5919969
249/3,Bulevardul 1 Decembrie 1918,540509,46.5334437,24.5880075
247,Bulevardul 1 Decembrie 1918,540509,46.5335545,24.5876736
243,Bulevardul 1 Decembrie 1918,540545,46.5337596,24.5871115
239,Bulevardul 1 Decembrie 1918,540545,46.5340883,24.5862258
239,Bulevardul 1 Decembrie 1918,540545,46.5341340,24.5860497
202,Bulevardul 1 Decembrie 1918,540545,46.5347146,24.5846889
223,Bulevardul 1 Decembrie 1918,540545,46.5349485,24.5846823
221,Bulevardul 1 Decembrie 1918,540545,46.5350373,24.5844372
213,Bulevardul 1 Decembrie 1918,540541,46.5358822,24.5825170
229,Bulevardul 1 Decembrie 1918,540541,46.5359312,24.5824845
213,Bulevardul 1 Decembrie 1918,540541,46.5360291,24.5824073
209,Bulevardul 1 Decembrie 1918,540541,46.5362752,24.5820668
209/1,Bulevardul 1 Decembrie 1918,540541,46.5363871,24.5820038
201,Bulevardul 1 Decembrie 1918,540541,46.5367136,24.5814550
199,Bulevardul 1 Decembrie 1918,540541,46.5368863,24.5812822
199,Bulevardul 1 Decembrie 1918,540541,46.5369681,24.5811816
197,Bulevardul 1 Decembrie 1918,540541,46.5370394,24.5810941
191,Bulevardul 1 Decembrie 1918,540525,46.5373505,24.5806937
187,Bulevardul 1 Decembrie 1918,540525,46.5377085,24.5802305
181,Bulevardul 1 Decembrie 1918,540528,46.5381846,24.5795851
179,Bulevardul 1 Decembrie 1918,540528,46.5382545,24.5794744
167,Bulevardul 1 Decembrie 1918,540528,46.5388971,24.5785358
165A,Bulevardul 1 Decembrie 1918,540528,46.5389491,24.5783919
1,Bulevardul 1 Decembrie 1918,540445,46.5391908,24.5769951
127A,Bulevardul 1 Decembrie 1918,540445,46.5389419,24.5737522
115/2,Bulevardul 1 Decembrie 1918,540445,46.5388868,24.5724183
93,Bulevardul 1 Decembrie 1918,540445,46.5394590,24.5696419
74,Bulevardul 1 Decembrie 1918,540061,46.5393237,24.5639158
49,Bulevardul 1 Decembrie 1918,540061,46.5393344,24.5638470
35,Bulevardul 1 Decembrie 1918,540061,46.5395616,24.5624039
31,Bulevardul 1 Decembrie 1918,540003,46.5396280,24.5618805
11-13,Bulevardul 1 Decembrie 1918,540374,46.5398399,24.5602760
12A,Bulevardul Cetății,540090,46.5480950,24.5702786
2,Bulevardul Cetății,540088,46.5481656,24.5690027
14,Strada Nicolae Iorga,540088,46.5481144,24.5686420
21,Bulevardul Cetății,540088,46.5481591,24.5678500
117,Bulevardul Pandurilor,540519,46.5333537,24.5785296
87,Bulevardul Pandurilor,540493,46.5332714,24.5751694
30,Bulevardul Pandurilor,540494,46.5334417,24.5698859
38-40,Bulevardul Pandurilor,540494,46.5334296,24.5700401
42,Bulevardul Pandurilor,540494,46.5329832,24.5722958
50,Bulevardul Pandurilor,540494,46.5326250,24.5733828
50,Bulevardul Pandurilor,540494,46.5327328,24.5733605
52,Bulevardul Pandurilor,540494,46.5325419,24.5738896
54,Bulevardul Pandurilor,540494,46.5325471,24.5740123
54,Bulevardul Pandurilor,540494,46.5325498,24.5741288
52,Bulevardul Pandurilor,540493,46.5326994,24.5749716
78,Bulevardul Pandurilor,540519,46.5328018,24.5785064
84,Bulevardul Pandurilor,540519,46.5328705,24.5796317
92,Bulevardul Pandurilor,540519,46.5330240,24.5805960
100,Bulevardul Pandurilor,540680,46.5333544,24.5817402
100,Bulevardul Pandurilor,540680,46.5332913,24.5817544
100,Bulevardul Pandurilor,540680,46.5333601,24.5818509
108,Bulevardul Pandurilor,540680,46.5337521,24.5825008
114,Bulevardul Pandurilor,540545,46.5344725,24.5831554
114,Bulevardul Pandurilor,540545,46.5346051,24.5832517
29,Calea Sighișoarei,540552,46.5304370,24.5798444
5,Pasajul Mimozelor,540003,46.5383397,24.5642589
6A,Pasajul Violetelor,540011,46.5383885,24.5623854
60,Strada Iuliu Maniu,540167,46.5396560,24.5500113
62,Strada Iuliu Maniu,540167,46.5396022,24.5498716
16,Piața Armatei,540167,46.5389385,24.5485063
29,Piața Armatei,540167,46.5380246,24.5482872
25,Piața Armatei,540167,46.5382399,24.5487304
13,Piața Armatei,540167,46.5390186,24.5493349
7,Piața Armatei,540167,46.5394692,24.5500225
8,Strada Cuza Vodă,540027,46.5409246,24.5561687
2,Strada Bernády György,540072,46.5461576,24.5651030
2,Strada Bernády György,540072,46.5460930,24.5653786
2,Strada Bernády György,540072,46.5460760,24.5654698
2A,Piața Gării,540147,46.5324421,24.5504999
2,Piața Gării,540147,46.5323085,24.5505469
1,Piața Gării,540610,46.5334520,24.5495332
5,Piața Gării,540147,46.5331902,24.5512078
21,Piața Mărășești,540327,46.5513317,24.5646636
21,Piața Mărășești,540327,46.5512607,24.5648353
11,Piața Mărășești,540327,46.5523224,24.5618539
1,Piața Matei Corvin,540320,46.5507576,24.5551712
3,Piața Matei Corvin,540320,46.5505403,24.5547789
5,Piața Matei Corvin,540320,46.5503453,24.5546356
2,Piața Matei Corvin,540305,46.5507430,24.5543337
17,Piața Onești,540167,46.5397460,24.5466436
1,Piața Onești,540178,46.5399719,24.5450872
16A,Piața Onești,540167,46.5396361,24.5458355
17,Piața Onești,540167,46.5397888,24.5459897
17,Piața Onești,540167,46.5399038,24.5459260
17,Piața Onești,540167,46.5399620,24.5458349
95,Strada Libertății,540167,46.5400493,24.5457677
12,Piața Onești,540178,46.5406597,24.5446960
1,Strada Poștei,540043,46.5464870,24.5646573
1,Strada Poștei,540043,46.5463146,24.5646935
3-5,Piața Bernády György,540043,46.5465242,24.5649373
7,Piața Petőfi Sándor,540053,46.5459934,24.5647832
1,Piața Republicii,540110,46.5510095,24.5655717
1A,Piața Republicii,540110,46.5510719,24.5656438
2,Piața Republicii,540110,46.5511250,24.5657087
6,Piața Republicii,540110,46.5515076,24.5662103
48,Piața Republicii,540110,46.5516344,24.5663561
8,Piața Republicii,540110,46.5517248,24.5664941
9,Piața Republicii,540110,46.5516359,24.5665074
9,Piața Republicii,540110,46.5516883,24.5664522
14,Piața Republicii,540110,46.5522641,24.5672960
18,Piața Republicii,540110,46.5526575,24.5677787
19,Piața Republicii,540110,46.5527730,24.5679117
23,Piața Republicii,540110,46.5536461,24.5691648
28,Piața Republicii,540110,46.5538675,24.5686523
31,Piața Republicii,540110,46.5536873,24.5685034
33,Piața Republicii,540110,46.5535104,24.5681950
37,Piața Republicii,540110,46.5529838,24.5675994
13,Piața Teatrului,540049,46.5455187,24.5612478
1,Piața Teatrului,540034,46.5457211,24.5602077
1,Piața Teatrului,540034,46.5457200,24.5600820
7,Piața Teatrului,540049,46.5465737,24.5615575
7,Piața Teatrului,540049,46.5464224,24.5615972
3,Piața Teatrului,540049,46.5461902,24.5615093
3,Piața Teatrului,540049,46.5462216,24.5615540
7,Piața Teatrului,540049,46.5461848,24.5617541
6,Piața Teatrului,540049,46.5460672,24.5619533
7,Piața Teatrului,540049,46.5462897,24.5613482
7,Piața Teatrului,540049,46.5460619,24.5613543
10,Piața Teatrului,540049,46.5454762,24.5611921
27-30,Piața Trandafirilor,540052,46.5435037,24.5586567
27,Piața Trandafirilor,540052,46.5436300,24.5588626
38,Piața Trandafirilor,540052,46.5437262,24.5590055
22,Piața Trandafirilor,540049,46.5442083,24.5598240
20,Piața Trandafirilor,540049,46.5443221,24.5600327
19,Piața Trandafirilor,540049,46.5443938,24.5601625
20,Piața Trandafirilor,540049,46.5444511,24.5602713
17,Piața Trandafirilor,540049,46.5447152,24.5607652
17,Piața Trandafirilor,540049,46.5447618,24.5608551
17,Piața Trandafirilor,540049,46.5448004,24.5609220
13,Piața Trandafirilor,540049,46.5449711,24.5611406
12,Piața Trandafirilor,540049,46.5452741,24.5614835
6-8,Piața Trandafirilor,540049,46.5458787,24.5621516
7,Piața Trandafirilor,540049,46.5459443,24.5622449
7,Piața Trandafirilor,540049,46.5459825,24.5622948
6,Piața Trandafirilor,540049,46.5460412,24.5623680
5,Piața Trandafirilor,540049,46.5461534,24.5624879
1,Strada Călărașilor,540049,46.5465176,24.5628919
57,Piața Trandafirilor,540053,46.5455367,24.5634413
56,Piața Trandafirilor,540053,46.5454703,24.5633547
56,Piața Trandafirilor,540053,46.5454398,24.5633249
55,Piața Trandafirilor,540053,46.5452897,24.5630309
53,Piața Trandafirilor,540053,46.5450238,24.5629662
53,Piața Trandafirilor,540053,46.5447212,24.5634406
52,Piața Trandafirilor,540053,46.5450848,24.5626847
52,Piața Trandafirilor,540053,46.5450698,24.5626218
51,Piața Trandafirilor,540053,46.5449735,24.5624810
52/4,Piața Trandafirilor,540053,46.5449044,24.5624728
48,Piața Trandafirilor,540053,46.5447169,24.5620418
48,Piața Trandafirilor,540053,46.5446606,24.5620700
44,Piața Trandafirilor,540053,46.5441291,24.5610463
44,Piața Trandafirilor,540053,46.5441127,24.5609979
43,Piața Trandafirilor,540053,46.5439842,24.5608088
42,Piața Trandafirilor,540049,46.5438690,24.5606019
38,Piața Trandafirilor,540049,46.5434905,24.5599728
36-38,Piața Trandafirilor,540049,46.5434470,24.5598834
36-38,Piața Trandafirilor,540049,46.5434209,24.5598343
36-38,Piața Trandafirilor,540053,46.5434040,24.5597918
35-37,Piața Trandafirilor,540053,46.5433128,24.5596027
33A,Piața Trandafirilor,540053,46.5431080,24.5591739
33,Piața Trandafirilor,540053,46.5430738,24.5590884
33,Piața Trandafirilor,540053,46.5429731,24.5588528
31,Piața Trandafirilor,540053,46.5429445,24.5587907
31,Piața Trandafirilor,540053,46.5428585,24.5586419
31,Piața Trandafirilor,540052,46.5427102,24.5587541
18,Piața Victoriei,540061,46.5409039,24.5580578
18,Piața Victoriei,540061,46.5405645,24.5582440
18,Piața Victoriei,540029,46.5407834,24.5580030
31,Piața Victoriei,540052,46.5421239,24.5581531
2,Strada Iuliu Maniu,540027,46.5420444,24.5570554
2,Bulevardul 22 Decembrie 1989,540110,46.5540098,24.5695377
14,Bulevardul 22 Decembrie 1989,540109,46.5555505,24.5717473
16,Bulevardul 22 Decembrie 1989,540109,46.5556960,24.5720556
16,Bulevardul 22 Decembrie 1989,540109,46.5558077,24.5722642
18,Bulevardul 22 Decembrie 1989,540119,46.5562524,24.5731398
26,Bulevardul 22 Decembrie 1989,540133,46.5569385,24.5745090
26,Bulevardul 22 Decembrie 1989,540133,46.5570257,24.5746908
28,Bulevardul 22 Decembrie 1989,540133,46.5571283,24.5749961
28,Bulevardul 22 Decembrie 1989,540133,46.5571183,24.5752042
28,Bulevardul 22 Decembrie 1989,540133,46.5570084,24.5753088
12,Strada Secuilor Martiri,540133,46.5569595,24.5753340
30A,Bulevardul 22 Decembrie 1989,540640,46.5578064,24.5761365
36B,Bulevardul 22 Decembrie 1989,540640,46.5579746,24.5764855
42,Bulevardul 22 Decembrie 1989,540136,46.5584027,24.5772512
44,Bulevardul 22 Decembrie 1989,540136,46.5586491,24.5775284
44,Bulevardul 22 Decembrie 1989,540136,46.5587114,24.5775402
44,Bulevardul 22 Decembrie 1989,540136,46.5587558,24.5775481
46,Bulevardul 22 Decembrie 1989,540136,46.5588690,24.5775223
114,Bulevardul 22 Decembrie 1989,540139,46.5615806,24.5814568
138,Bulevardul 22 Decembrie 1989,540139,46.5625198,24.5834230
113A,Bulevardul 22 Decembrie 1989,540139,46.5613015,24.5804326
63,Bulevardul 22 Decembrie 1989,540136,46.5591879,24.5773325
55,Bulevardul 22 Decembrie 1989,540136,46.5586576,24.5768496
49,Aleea Constructorilor,540119,46.5564013,24.5724837
35,Bulevardul 22 Decembrie 1989,540119,46.5564714,24.5724166
35,Bulevardul 22 Decembrie 1989,540119,46.5565184,24.5723710
35,Bulevardul 22 Decembrie 1989,540119,46.5560750,24.5721625
35,Bulevardul 22 Decembrie 1989,540119,46.5559718,24.5720499
35,Bulevardul 22 Decembrie 1989,540119,46.5563784,24.5716234
15,Bulevardul 22 Decembrie 1989,540119,46.5546781,24.5696433
11,Bulevardul 22 Decembrie 1989,540119,46.5546237,24.5696423
12,Strada Abrudului,540111,46.5555107,24.5648515
1,Strada Acarului,540214,46.5234324,24.5339960
12B,Strada Ady Endre,540178,46.5421718,24.5462371
12,Strada Ady Endre,540178,46.5421285,24.5466785
36,Strada Alba Iulia,540390,46.5259498,24.5479497
17,Strada Alexandru Papiu Ilarian,540074,46.5449699,24.5705468
23B,Strada Alexandru Papiu Ilarian,540074,46.5423697,24.5731667
37,Strada Alexandru Papiu Ilarian,540075,46.5404949,24.5744313
64,Strada Alexandru Papiu Ilarian,540445,46.5394061,24.5761333
10,Strada Alexandru Papiu Ilarian,540074,46.5447597,24.5704972
12A,Strada Alexandru Vlahuță,540112,46.5546319,24.5668109
4,Strada Pomicultorilor,540511,46.5317876,24.5895938
43,Strada Arany János,540306,46.5476569,24.5541707
33,Strada Arany János,540306,46.5476965,24.5552798
9,Strada Arany János,540044,46.5475102,24.5576262
33,Strada Arany János,540046,46.5472578,24.5590188
6,Strada Aurel Filimon,540046,46.5467505,24.5590767
13/2,Strada Arany János,540046,46.5475682,24.5585126
9,Strada Arieșului,540119,46.5540271,24.5673756
7,Strada Înfrățirii,540559,46.5361257,24.5840368
7,Strada Armoniei,540477,46.5362586,24.5838065
10,Strada Armoniei,540477,46.5367893,24.5831258
17,Strada Armoniei,540477,46.5371273,24.5827125
5,Strada Armoniei,540477,46.5368564,24.5826047
1,Strada Artei,540053,46.5427938,24.5598198
20,Strada Aurel Filimon,540036,46.5451415,24.5571032
24,Strada Aurel Filimon,540035,46.5457509,24.5578656
16,Strada Aurel Filimon,540035,46.5461227,24.5583420
4,Strada Aurel Filimon,540035,46.5468406,24.5591219
15,Strada Aurel Filimon,540035,46.5460231,24.5587611
15,Strada Aurel Filimon,540035,46.5459460,24.5588510
19,Strada Aurel Filimon,540035,46.5455863,24.5580501
19A,Strada Aurel Filimon,540035,46.5455076,24.5581879
23,Strada Aurel Filimon,540035,46.5453053,24.5577606
1,Strada Avram Iancu,540088,46.5471940,24.5649854
3,Strada Avram Iancu,540088,46.5473846,24.5650839
5,Strada Avram Iancu,540089,46.5484934,24.5653853
2,Strada Băilor,540072,46.5455195,24.5661775
5,Strada Constantin Silvestri,540031,46.5444472,24.5559298
25,Strada Horea,540036,46.5450753,24.5567226
3,Strada Banat,540519,46.5320026,24.5771808
45,Strada Banat,540680,46.5329692,24.5823964
33,Strada Băneasa,540146,46.5317835,24.5414138
29,Strada Băneasa,540146,46.5323258,24.5426187
23,Strada Băneasa,540146,46.5329597,24.5441987
1,Strada Barajului,540191,46.5372254,24.5394645
3,Strada Barajului,540191,46.5381916,24.5380985
3,Strada Barajului,540191,46.5377389,24.5371522
5,Strada Barajului,540191,46.5397036,24.5366838
11,Strada Barajului,540191,46.5409009,24.5354004
19,Strada Barajului,540191,46.5411205,24.5351949
21,Strada Barajului,540191,46.5420197,24.5335117
9,Strada Barajului,540191,46.5430361,24.5352037
4,Strada Barajului,540191,46.5397461,24.5390007
11,Piața Teatrului,540035,46.5450885,24.5603648
4,Strada Bartók Béla,540035,46.5454741,24.5596602
1-3,Strada Bartók Béla,540035,46.5450023,24.5599904
3,Strada Bartók Béla,540035,46.5448846,24.5601572
28,Strada Belșugului,540039,46.5467685,24.5516936
20,Strada Bobâlna,540005,46.5371678,24.5626965
10,Strada Bobâlna,540011,46.5379381,24.5629956
2,Strada Bodoni Sándor,540680,46.5321963,24.5825323
1,Strada Bolyai,540064,46.5442424,24.5620177
1,Strada Bolyai,540064,46.5442190,24.5620736
1,Strada Bolyai,540064,46.5441171,24.5622253
1E,Strada Bolyai,540064,46.5440042,24.5624135
3/3,Strada Bolyai,540064,46.5438188,24.5627787
3,Strada Bolyai,540064,46.5437795,24.5628619
3/6B,Strada Bolyai,540064,46.5437166,24.5629955
3,Strada Bolyai,540064,46.5437544,24.5629260
3/4,Strada Bolyai,540064,46.5437027,24.5630392
3/16,Strada Bolyai,540064,46.5435964,24.5632625
3/14,Strada Bolyai,540064,46.5435346,24.5634057
3/15,Strada Bolyai,540064,46.5435068,24.5634745
40,Strada Bolyai,540067,46.5413661,24.5660572
20,Strada Bolyai,540067,46.5429391,24.5643809
10,Strada Bolyai,540057,46.5433776,24.5632071
1,Strada Köteles Sámuel,540057,46.5434266,24.5630930
1,Strada Köteles Sámuel,540057,46.5434410,24.5630574
10,Strada Bolyai,540057,46.5435807,24.5627217
10,Strada Bolyai,540057,46.5436514,24.5625979
10,Strada Bolyai,540064,46.5437582,24.5623892
8,Strada Bolyai,540064,46.5438967,24.5622242
4,Strada Bolyai,540064,46.5440425,24.5619556
4,Strada Bolyai,540064,46.5440214,24.5618342
2,Strada Bolyai,540064,46.5441978,24.5616870
27,Strada Bolyai,540067,46.5418531,24.5664752
13,Strada Năvodari,540495,46.5358105,24.5750393
122,Strada Tudor Vladimirescu,540521,46.5364316,24.5730490
26A,Strada Moldovei,540519,46.5346330,24.5794706
37,Strada Livezeni,540565,46.5358989,24.5938608
177,Strada Gheorghe Doja,540210,46.5248214,24.5386667
33,Piața Trandafirilor,540053,46.5430583,24.5590957
41,Piața Trandafirilor,540053,46.5437487,24.5604663
40,Piața Trandafirilor,540053,46.5436823,24.5603402
32,Piața Trandafirilor,540053,46.5429669,24.5588851
37,Piața Trandafirilor,540053,46.5434577,24.5599305
35-37,Piața Trandafirilor,540053,46.5432275,24.5594671
2,Strada Decebal,540288,46.5576157,24.5453061
2,Strada Avram Iancu,540088,46.5480280,24.5679114
5,Bulevardul 1848,540342,46.5369490,24.5583528
11,Bulevardul 1848,540374,46.5334229,24.5598447
15,Bulevardul 1848,540374,46.5327840,24.5593347
15,Bulevardul 1848,540374,46.5327633,24.5593011
23,Bulevardul 1848,540373,46.5318704,24.5583216
23,Bulevardul 1848,540373,46.5315411,24.5577978
23B,Bulevardul 1848,540375,46.5313737,24.5576075
23,Bulevardul 1848,540373,46.5309689,24.5571112
65-67,Bulevardul 1848,540422,46.5292610,24.5551681
77,Bulevardul 1848,540422,46.5282095,24.5543733
4,Bulevardul 1848,540342,46.5358974,24.5583065
11,Bulevardul 1848,540342,46.5354683,24.5584260
22,Bulevardul 1848,540429,46.5330131,24.5587548
24,Bulevardul 1848,540429,46.5328460,24.5585038
36,Bulevardul 1848,540429,46.5318297,24.5573278
36,Bulevardul 1848,540429,46.5317951,24.5572835
36,Bulevardul 1848,540429,46.5317598,24.5572368
40-42,Bulevardul 1848,540429,46.5314249,24.5568118
211,Bulevardul 1 Decembrie 1918,540374,46.5399212,24.5597062
11-13,Bulevardul 1 Decembrie 1918,540374,46.5398555,24.5601275
35,Bulevardul 1 Decembrie 1918,540061,46.5395889,24.5622621
39,Bulevardul 1 Decembrie 1918,540061,46.5394393,24.5628475
69,Bulevardul 1 Decembrie 1918,540003,46.5389345,24.5655419
99,Bulevardul 1 Decembrie 1918,540445,46.5388401,24.5698411
113,Bulevardul 1 Decembrie 1918,540445,46.5389677,24.5728135
22,Bulevardul 1 Decembrie 1918,540445,46.5391442,24.5766402
138,Bulevardul 1 Decembrie 1918,540445,46.5392014,24.5770994
171,Bulevardul 1 Decembrie 1918,540528,46.5386999,24.5789124
227,Bulevardul 1 Decembrie 1918,540545,46.5345403,24.5851328
229,Bulevardul 1 Decembrie 1918,540545,46.5344078,24.5853978
225,Bulevardul 1 Decembrie 1918,540545,46.5343861,24.5854725
245,Bulevardul 1 Decembrie 1918,540509,46.5336528,24.5874783
251,Bulevardul 1 Decembrie 1918,540509,46.5333002,24.5884555
225,Bulevardul 1 Decembrie 1918,540510,46.5329500,24.5897677
11-15,Bulevardul 22 Decembrie 1989,540111,46.5542251,24.5690343
32,Bulevardul 1 Decembrie 1918,540003,46.5386503,24.5662983
86C,Bulevardul 1 Decembrie 1918,540447,46.5386202,24.5678788
104,Bulevardul 1 Decembrie 1918,540447,46.5386160,24.5718182
108,Bulevardul 1 Decembrie 1918,540447,46.5386279,24.5720682
126,Bulevardul 1 Decembrie 1918,540447,46.5387194,24.5752772
260,Strada Gheorghe Doja,540236,46.5173363,24.5218766
78,Strada Gheorghe Doja,540394,46.5273708,24.5424785
11,Strada Bartók Béla,540035,46.5455375,24.5588310
120,Strada Libertății,540191,46.5363868,24.5389848
34,Strada Mihai Viteazul,540080,46.5476771,24.5721014
1A,Strada Piatra de moară,540354,46.5346015,24.5543872
11,Strada Franz Liszt,540068,46.5407162,24.5649993
5,Strada Cuza Vodă,540027,46.5405676,24.5564865
2,Strada Liviu Rebreanu,540015,46.5404030,24.5568608
204D,Strada Gheorghe Doja,540225,46.5208142,24.5288617
18,Strada Livezeni,540566,46.5363934,24.5988540
63,Bulevardul 22 Decembrie 1989,540136,46.5601845,24.5784619
18,Strada Câmpului,540175,46.5434266,24.5484238
93,Bulevardul 22 Decembrie 1989,540136,46.5603831,24.5789536
14,Strada Parângului,540429,46.5347791,24.5596175
9A,Strada Brăila,540331,46.5487935,24.5611162
28-30,Piața Victoriei,540052,46.5418083,24.5581621
13,Strada Revoluției,540043,46.5475999,24.5639374
9,Strada Gheorghe Doja,540342,46.5384193,24.5584329
10,Strada Pavel Chinezu,540327,46.5524238,24.5602856
8,Strada Madách Imre,540023,46.5380742,24.5527526
1,Piața Gării,540610,46.5328086,24.5491819
25,Strada Lalelelor,540528,46.5394801,24.5805214
24A,Strada Kós Károly,540113,46.5559069,24.5669043
3,Strada Mihai Eminescu,540043,46.5484878,24.5638074
4,Strada Liceului,540073,46.5455230,24.5680066
41,Piața Republicii,540110,46.5520572,24.5655741
3,Strada Poligrafiei,540050,46.5449304,24.5591267
1,Strada Călărașilor,540046,46.5465952,24.5627204
56A,Strada Tudor Vladimirescu,540015,46.5392931,24.5571137
1,Strada Tineretului,540027,46.5423126,24.5563592
11,Strada Kós Károly,540121,46.5544821,24.5641978
69,Strada Livezeni,540566,46.5390567,24.5982925
69,Strada Livezeni,540566,46.5389542,24.5982985
69,Strada Livezeni,540566,46.5388742,24.5978483
69,Strada Livezeni,540566,46.5383020,24.5984833
69,Strada Livezeni,540566,46.5381617,24.5979871
46,Strada Avram Iancu,540090,46.5515335,24.5686615
4,Strada Revoluției,540043,46.5471328,24.5640793
56A,Strada Tudor Vladimirescu,540015,46.5392410,24.5573022
2,Piața Matei Corvin,540305,46.5506598,24.5541885
231,Strada Gheorghe Doja,540236,46.5160532,24.5207947
139,Strada Gheorghe Doja,540394,46.5279845,24.5446431
31,Strada Libertății,540030,46.5435829,24.5520621
68,Strada Budiului,540381,46.5244122,24.5472053
1,Strada Dorobanților,540023,46.5364050,24.5526983
27,Strada Înfrățirii,540477,46.5393480,24.5844008
24,Strada Rodnei,540015,46.5387221,24.5555486
4,Strada Zărnești,540521,46.5368998,24.5700710
18,Strada Dâmboviței,540521,46.5373179,24.5703061
22,Bulevardul 1848,540429,46.5329847,24.5587375
35,Strada Secerei,540521,46.5357012,24.5720970
66,Strada Cuza Vodă,540306,46.5480458,24.5537553
44,Strada General Ion Dumitrache,540082,46.5518890,24.5788966
185,Bulevardul 1 Decembrie 1918,540525,46.5378868,24.5799846
14,Strada Iuliu Maniu,540019,46.5414100,24.5549868
1,Strada George Coșbuc,540119,46.5552657,24.5687124
33,Strada Nicolae Grigorescu,540095,46.5531339,24.5746744
133,Strada Gheorghe Doja,540394,46.5281791,24.5451381
2,Strada Caraiman,540399,46.5273597,24.5512237
70A,Strada Tudor Vladimirescu,540005,46.5370491,24.5618834
23,Strada Evreilor Martiri,540680,46.5329783,24.5832960
5,Strada Lisabona,540347,46.5264704,24.5720038
67,Bulevardul 22 Decembrie 1989,540136,46.5594442,24.5774717
67,Bulevardul 22 Decembrie 1989,540136,46.5594191,24.5775274
40,Strada Călărașilor,540044,46.5474731,24.5598667
2,Strada Spicului,540214,46.5240352,24.5348236
41,Aleea Carpați,540650,46.5558253,24.5606596
10,Strada Subpădure,540567,46.5382021,24.5952156
23,Piața Trandafirilor,540049,46.5440981,24.5595965
1,Strada Predeal,540014,46.5377867,24.5595903
42,Strada Godeanu,540381,46.5260500,24.5557346
42,Strada Godeanu,540381,46.5260758,24.5558479
42,Piața Trandafirilor,540053,46.5437860,24.5606739
234,Strada Gheorghe Doja,540236,46.5186285,24.5243507
45,Strada Armoniei,540477,46.5377205,24.5841392
4,Strada Milcovului,540178,46.5392898,24.5431643
6,Strada Câmpului,540175,46.5425973,24.5488060
110,Strada Libertății,540178,46.5389322,24.5423546
5,Strada Revoluției,540043,46.5477509,24.5640129
29,Strada Revoluției,540042,46.5489762,24.5644149
119,Bulevardul Pandurilor,540519,46.5334381,24.5793571
16,Strada Borsos Tamás,540065,46.5441085,24.5665711
113,Bulevardul Pandurilor,540519,46.5333629,24.5782623
53,Bulevardul 22 Decembrie 1989,540640,46.5582779,24.5762286
11,Strada Somnului,540039,46.5451400,24.5500146
15,Piața Trandafirilor,540049,46.5449169,24.5610807
30,Strada Milcovului,540178,46.5403128,24.5418216
22,Strada Călărașilor,540044,46.5475087,24.5612666
17,Strada Revoluției,540043,46.5478512,24.5641113
17,Strada Revoluției,540043,46.5478321,24.5640981
17,Strada Revoluției,540043,46.5478102,24.5640850
1,Strada Ciucaș,540399,46.5294452,24.5537035
28,Bulevardul 22 Decembrie 1989,540133,46.5570530,24.5750772
58,Strada General Ion Dumitrache,540142,46.5531158,24.5795058
3,Strada Barajului,540191,46.5381024,24.5359525
13,Strada Suceava,540374,46.5327619,24.5604548
7,Strada Brăila,540331,46.5486587,24.5609073
47,Strada Rodniciei,540441,46.5372046,24.5878344
62,Strada Voinicenilor,540289,46.5606092,24.5476355
81,Strada Tudor Vladimirescu,540011,46.5378479,24.5614793
6-8,Strada Călărașilor,540044,46.5469831,24.5625786
251,Bulevardul 1 Decembrie 1918,540509,46.5332538,24.5885799
152,Bulevardul 1 Decembrie 1918,540525,46.5373150,24.5799807
25,Strada Livezeni,540565,46.5349527,24.5929293
2,Strada Revoluției,540043,46.5468022,24.5639397
125,Bulevardul 1 Decembrie 1918,540445,46.5389225,24.5734266
15,Strada Aurel Filimon,540035,46.5461516,24.5589535
197,Bulevardul 1 Decembrie 1918,540541,46.5371676,24.5809464
21,Strada Budiului,540390,46.5304936,24.5510579
5,Strada Bucinului,540541,46.5353520,24.5824351
26,Strada Agricultorilor,540272,46.5621580,24.5440016
"26A-P, 28A-C",Strada Agricultorilor,540272,46.5621744,24.5438505
35,Bulevardul 22 Decembrie 1989,540135,46.5563944,24.5720542
291,Bulevardul 1 Decembrie 1918,540510,46.5306549,24.5981774
14B,Strada Vulcan,540074,46.5407804,24.5698732
2,Aleea Vrancea,540519,46.5338666,24.5794436
4,Aleea Vrancea,540519,46.5338835,24.5797752
10,Aleea Vrancea,540519,46.5341184,24.5809652
12,Aleea Vrancea,540519,46.5342828,24.5812637
14,Aleea Vrancea,540519,46.5344908,24.5815109
1,Aleea Vrancea,540519,46.5342285,24.5804254
2,Strada Vișeului,540091,46.5522664,24.5680102
4,Strada Vișeului,540091,46.5521501,24.5681824
98,Strada Libertății,540178,46.5397416,24.5447526
68,Strada Budiului,540381,46.5243086,24.5478471
15,Strada Cibinului,540091,46.5511952,24.5711006
120,Strada Libertății,540190,46.5357522,24.5378218
21,Strada Horea,540051,46.5446660,24.5572720
36,Piața Trandafirilor,540049,46.5434365,24.5598607
3,Strada Barajului,540191,46.5375953,24.5391797
44,Bulevardul 1848,540429,46.5311984,24.5562311
42,Bulevardul 1848,540429,46.5312792,24.5565609
40,Bulevardul 1848,540429,46.5313815,24.5566898
38,Bulevardul 1848,540429,46.5315402,24.5568795
36,Bulevardul 1848,540429,46.5316610,24.5570225
34,Bulevardul 1848,540429,46.5318490,24.5572433
32,Bulevardul 1848,540429,46.5319454,24.5573580
30,Bulevardul 1848,540429,46.5321431,24.5573735
28,Bulevardul 1848,540429,46.5323758,24.5576779
26,Bulevardul 1848,540429,46.5325463,24.5579695
24,Bulevardul 1848,540429,46.5328238,24.5582159
22,Bulevardul 1848,540429,46.5329904,24.5585018
20E,Bulevardul 1848,540429,46.5332816,24.5590002
20D,Bulevardul 1848,540429,46.5334471,24.5591899
20C,Bulevardul 1848,540429,46.5336604,24.5592805
20B,Bulevardul 1848,540429,46.5338873,24.5593328
20A,Bulevardul 1848,540429,46.5341250,24.5592125
18A,Strada Agricultorilor,540272,46.5627429,24.5457959
26,Strada Agricultorilor,540272,46.5624188,24.5438390
36,Strada Agricultorilor,540272,46.5619294,24.5421875
44,Strada Remetea,540272,46.5620597,24.5403942
40,Strada Agricultorilor,540272,46.5618839,24.5405506
51A,Strada Agricultorilor,540272,46.5616731,24.5411635
49A,Strada Agricultorilor,540272,46.5614584,24.5421058
47,Strada Agricultorilor,540272,46.5616511,24.5422268
43,Strada Agricultorilor,540272,46.5617135,24.5427672
39,Strada Agricultorilor,540272,46.5618079,24.5431550
37,Strada Agricultorilor,540272,46.5618529,24.5433466
23,Strada Agricultorilor,540272,46.5620965,24.5447591
17,Strada Agricultorilor,540272,46.5625106,24.5458811
2,Strada Aiudului,540394,46.5293107,24.5453011
4,Strada Alba Iulia,540394,46.5278482,24.5458831
50,Strada Alba Iulia,540390,46.5249515,24.5490102
3B,Strada Alba Iulia,540394,46.5274026,24.5466922
92/2,Piața Albert Metz,540167,46.5403580,24.5456668
12B,Piața Albert Metz,540167,46.5398524,24.5464779
23,Strada Alexandru Papiu Ilarian,540074,46.5426619,24.5730414
23A,Strada Alexandru Papiu Ilarian,540074,46.5424912,24.5731008
23B,Strada Alexandru Papiu Ilarian,540074,46.5423663,24.5731232
23C,Strada Alexandru Papiu Ilarian,540074,46.5422299,24.5731738
25,Strada Alexandru Papiu Ilarian,540074,46.5421493,24.5731764
27,Strada Alexandru Papiu Ilarian,540074,46.5419290,24.5732087
37,Strada Alexandru Papiu Ilarian,540075,46.5407772,24.5737707
39,Strada Alexandru Papiu Ilarian,540075,46.5400138,24.5746377
39A,Strada Alexandru Papiu Ilarian,540075,46.5399676,24.5748703
41,Strada Alexandru Papiu Ilarian,540075,46.5399517,24.5750324
45/1,Strada Alexandru Papiu Ilarian,540075,46.5397773,24.5756566
2,Strada Alexandru Papiu Ilarian,540074,46.5452600,24.5697458
4,Strada Alexandru Papiu Ilarian,540074,46.5451099,24.5699969
6B,Strada Alexandru Papiu Ilarian,540074,46.5450335,24.5700379
6,Strada Alexandru Papiu Ilarian,540074,46.5449476,24.5702033
8,Strada Alexandru Papiu Ilarian,540074,46.5448906,24.5703350
10A,Strada Alexandru Papiu Ilarian,540074,46.5445006,24.5707437
10C,Strada Alexandru Papiu Ilarian,540074,46.5443606,24.5708951
12,Strada Alexandru Papiu Ilarian,540074,46.5441622,24.5710336
14,Strada Alexandru Papiu Ilarian,540074,46.5440756,24.5710725
16,Strada Alexandru Papiu Ilarian,540074,46.5439182,24.5712027
18,Strada Alexandru Papiu Ilarian,540074,46.5436603,24.5714534
20,Strada Alexandru Papiu Ilarian,540074,46.5435499,24.5716135
22,Strada Alexandru Papiu Ilarian,540074,46.5430567,24.5722613
24,Strada Alexandru Papiu Ilarian,540074,46.5428708,24.5725308
26,Strada Alexandru Papiu Ilarian,540074,46.5427229,24.5727150
28,Strada Alexandru Papiu Ilarian,540074,46.5425010,24.5726782
32,Strada Alexandru Papiu Ilarian,540074,46.5422604,24.5728356
34,Strada Alexandru Papiu Ilarian,540074,46.5420797,24.5728375
25,Strada Bradului,540075,46.5417269,24.5728929
36,Strada Alexandru Papiu Ilarian,540075,46.5405180,24.5734488
38,Strada Alexandru Papiu Ilarian,540075,46.5403376,24.5735556
40,Strada Alexandru Papiu Ilarian,540075,46.5402096,24.5736825
42,Strada Alexandru Papiu Ilarian,540075,46.5398987,24.5741259
44B,Strada Alexandru Papiu Ilarian,540075,46.5397929,24.5744003
44C,Strada Alexandru Papiu Ilarian,540075,46.5397866,24.5746596
44,Strada Alexandru Papiu Ilarian,540075,46.5397357,24.5747898
46,Strada Alexandru Papiu Ilarian,540075,46.5397211,24.5748753
48-52,Strada Alexandru Papiu Ilarian,540075,46.5396579,24.5751135
54,Strada Alexandru Papiu Ilarian,540075,46.5395474,24.5752568
56,Strada Alexandru Papiu Ilarian,540075,46.5395857,24.5753589
58,Strada Alexandru Papiu Ilarian,540075,46.5395308,24.5755175
64,Strada Alexandru Papiu Ilarian,540445,46.5393739,24.5761352
88,Strada Predeal,540494,46.5346700,24.5706304
88,Strada Predeal,540494,46.5348226,24.5716917
88,Strada Predeal,540494,46.5346415,24.5702719
143,Strada Gheorghe Doja,540394,46.5274205,24.5440665
233,Strada Gheorghe Doja,540236,46.5129547,24.5190335
57,Strada Verii,540080,46.5519038,24.5946179
1,Strada Luceafărului,540119,46.5565463,24.5727120
5,Strada Luceafărului,540119,46.5572388,24.5719670
3,Strada Luceafărului,540119,46.5569145,24.5723160
79,Bulevardul 1 Decembrie 1918,540003,46.5389279,24.5665573
35,Bulevardul 1 Decembrie 1918,540061,46.5396051,24.5623541
46-47,Piața Trandafirilor,540053,46.5445960,24.5618246
21,Bulevardul 1 Decembrie 1918,540003,46.5398407,24.5607887
49,Bulevardul 1 Decembrie 1918,540061,46.5393431,24.5639972
81,Bulevardul 1 Decembrie 1918,540003,46.5389067,24.5667812
60,Strada Tudor Vladimirescu,540014,46.5378676,24.5604344
39,Bulevardul 1 Decembrie 1918,540061,46.5394417,24.5629695
3,Piața Victoriei,540026,46.5424122,24.5571562
75,Bulevardul 1 Decembrie 1918,540003,46.5389332,24.5662413
69,Bulevardul 1 Decembrie 1918,540003,46.5389644,24.5655205
71,Bulevardul 1 Decembrie 1918,540003,46.5389680,24.5657977
86B,Bulevardul 1 Decembrie 1918,540447,46.5386206,24.5673527
73,Bulevardul 1 Decembrie 1918,540003,46.5390153,24.5661118
1,Strada Revoluției,540043,46.5467541,24.5633454
86A,Bulevardul 1 Decembrie 1918,540447,46.5386192,24.5668235
77,Bulevardul 1 Decembrie 1918,540003,46.5389445,24.5664402
34-35,Piața Trandafirilor,540053,46.5432341,24.5595518
37,Strada Ștefan cel Mare,540067,46.5389428,24.5675466
37,Bulevardul 1 Decembrie 1918,540061,46.5395365,24.5625899
86C,Bulevardul 1 Decembrie 1918,540447,46.5386032,24.5678251
33,Bulevardul 1 Decembrie 1918,540003,46.5395316,24.5619885
23,Bulevardul 1 Decembrie 1918,540061,46.5397352,24.5611205
83,Bulevardul 1 Decembrie 1918,540003,46.5389016,24.5669563
18,Strada Bolyai,540067,46.5429362,24.5640957
47,Bulevardul 1 Decembrie 1918,540003,46.5393823,24.5635913
39-41,Piața Trandafirilor,540053,46.5436821,24.5603532
5-6,Piața Teatrului,540049,46.5468654,24.5611229
45,Piața Trandafirilor,540053,46.5441971,24.5613740
12,Strada Bernády György,540072,46.5457522,24.5685510
21,Strada Alexandru Papiu Ilarian,540074,46.5439051,24.5722964
1,Strada Nicolae Iorga,540088,46.5471689,24.5682523
18,Strada Ion Buteanu,540408,46.5284883,24.5574403
50K,Strada Gheorghe Marinescu,540139,46.5609922,24.5814527
2,Strada Plutelor,121212,46.5608122,24.5755821
2,Strada Luceafărului,540119,46.5568784,24.5728484
19,Strada Nicolae Grigorescu,540095,46.5523009,24.5751179
4,Strada Crângului,540081,46.5497182,24.5750625
14,Strada Argeșului,540081,46.5498432,24.5745804
10,Strada Argeșului,540081,46.5491978,24.5742306
12,Strada Argeșului,540081,46.5495193,24.5744095
6,Strada Argeșului,540081,46.5485817,24.5739042
8,Strada Argeșului,540081,46.5488817,24.5740452
2,Strada Argeșului,540081,46.5479735,24.5736371
4,Strada Argeșului,540081,46.5482806,24.5737648
19A,Strada Arieșului,540119,46.5542567,24.5677909
3,Strada Budai Nagy Antal,540004,46.5380004,24.5662970
88,Bulevardul 1 Decembrie 1918,540447,46.5386026,24.5692969
1,Strada Budai Nagy Antal,540004,46.5382408,24.5664017
86D,Bulevardul 1 Decembrie 1918,540447,46.5386173,24.5683233
86E,Bulevardul 1 Decembrie 1918,540447,46.5386110,24.5688204
5,Strada Budai Nagy Antal,540004,46.5378047,24.5662025
24,Piața Mărășești,540042,46.5512768,24.5653581
3,Aleea Hațeg,540493,46.5345775,24.5759248
6-8,Aleea Vrancea,540519,46.5338771,24.5804159
6,Piața Mărășești,540327,46.5520607,24.5641870
4,Piața Mărășești,540327,46.5518573,24.5645838
1,Strada Năvodari,540520,46.5365537,24.5747405
16,Strada Păltiniș,540520,46.5368873,24.5764100
8,Strada Năvodari,540495,46.5364639,24.5744382
12,Strada Păltiniș,540520,46.5368204,24.5760735
8,Strada Săliște,540520,46.5361857,24.5760922
5,Strada Păltiniș,540520,46.5368534,24.5749889
7,Strada Săliște,540520,46.5363823,24.5758761
25,Strada Păltiniș,540520,46.5371949,24.5766316
9,Strada Substejeriș,540520,46.5362070,24.5739057
12,Strada Săliște,540520,46.5362556,24.5764500
15,Strada Păltiniș,540520,46.5369814,24.5757836
5,Strada Săliște,540520,46.5363471,24.5756723
4,Strada Năvodari,540520,46.5366732,24.5743235
19,Strada Săliște,540520,46.5365429,24.5769048
39,Strada Vulturilor,540521,46.5375981,24.5706292
18,Strada Săliște,540520,46.5363315,24.5769379
10,Strada Păltiniș,540520,46.5367770,24.5758490
1,Strada Săliște,540520,46.5363019,24.5753373
11,Strada Săliște,540520,46.5364591,24.5762210
21-23,Strada Păltiniș,540520,46.5371362,24.5763748
2,Strada Năvodari,540520,46.5367919,24.5742496
17,Strada Săliște,540520,46.5365163,24.5767006
9,Strada Păltiniș,540520,46.5368953,24.5753256
20,Strada Păltiniș,540520,46.5368906,24.5767648
5,Strada Năvodari,540520,46.5363430,24.5748507
19,Strada Păltiniș,540520,46.5370497,24.5761135
6,Strada Păltiniș,540520,46.5367107,24.5755154
2,Strada Săliște,540520,46.5360833,24.5754362
3,Strada Păltiniș,540520,46.5367818,24.5747822
6A,Strada Săliște,540520,46.5361356,24.5757754
5,Strada Substejeriș,540520,46.5364236,24.5738893
2,Strada Păltiniș,540520,46.5366065,24.5751652
12,Strada Năvodari,540495,46.5362301,24.5745229
27,Strada Budai Nagy Antal,540004,46.5364511,24.5660240
4,Strada Substejeriș,540520,46.5364137,24.5732825
21,Strada Budai Nagy Antal,540004,46.5368545,24.5660525
15,Strada Budai Nagy Antal,540004,46.5372069,24.5661106
9,Strada Budai Nagy Antal,540004,46.5374894,24.5661490
17,Strada Budai Nagy Antal,540004,46.5370711,24.5660990
35,Strada Budai Nagy Antal,540004,46.5360000,24.5659254
10,Strada Substejeriș,540520,46.5361424,24.5735712
29,Strada Budai Nagy Antal,540004,46.5363005,24.5659725
6,Strada Substejeriș,540520,46.5363487,24.5735115
24,Strada Budai Nagy Antal,540004,46.5368433,24.5656625
8,Strada Budai Nagy Antal,540004,46.5378164,24.5657614
2,Strada Budai Nagy Antal,540004,46.5383547,24.5658324
26,Strada Budai Nagy Antal,540004,46.5366147,24.5655792
26A,Strada Budai Nagy Antal,540004,46.5364407,24.5655114
2A,Strada Grapei,540005,46.5362035,24.5647722
7,Pasajul Panseluțelor,540005,46.5367723,24.5645559
2,Strada Grapei,540005,46.5363063,24.5648460
12,Strada Budai Nagy Antal,540004,46.5375978,24.5657038
28,Strada Budai Nagy Antal,540004,46.5361849,24.5654705
18,Pasajul Panseluțelor,540005,46.5370051,24.5645484
14,Strada Budai Nagy Antal,540004,46.5374453,24.5657240
30,Strada Budai Nagy Antal,540004,46.5360768,24.5654792
16,Strada Budai Nagy Antal,540004,46.5373009,24.5656561
22,Strada Budai Nagy Antal,540004,46.5370122,24.5656179
20,Strada Budai Nagy Antal,540004,46.5371239,24.5656314
13,Strada Borsos Tamás,540065,46.5442537,24.5662346
7,Strada Márton Áron,540058,46.5423396,24.5632285
18,Piața Mărășești,540327,46.5514216,24.5636131
18,Piața Mărășești,540327,46.5513939,24.5638460
183,Bulevardul 1 Decembrie 1918,540528,46.5381610,24.5798040
19,Strada Márton Áron,540058,46.5413562,24.5615897
17A,Strada Márton Áron,540058,46.5414742,24.5617547
23,Strada Márton Áron,540058,46.5411427,24.5613881
21,Strada Márton Áron,540058,46.5412382,24.5614716
15,Strada Márton Áron,540058,46.5416950,24.5621065
17,Strada Márton Áron,540058,46.5415810,24.5619461
13,Strada Márton Áron,540058,46.5417902,24.5622486
147,Bulevardul 1 Decembrie 1918,540445,46.5390470,24.5750836
145,Bulevardul 1 Decembrie 1918,540445,46.5391053,24.5750119
143,Bulevardul 1 Decembrie 1918,540445,46.5390549,24.5749063
157,Bulevardul 1 Decembrie 1918,540445,46.5391696,24.5765696
155,Bulevardul 1 Decembrie 1918,540445,46.5391516,24.5763168
151,Bulevardul 1 Decembrie 1918,540445,46.5391695,24.5759713
149C,Bulevardul 1 Decembrie 1918,540445,46.5391321,24.5758626
149A,Bulevardul 1 Decembrie 1918,540445,46.5390945,24.5754817
149B,Bulevardul 1 Decembrie 1918,540445,46.5390823,24.5755797
119,Bulevardul 1 Decembrie 1918,540445,46.5389865,24.5728174
127A,Bulevardul 1 Decembrie 1918,540445,46.5390994,24.5737655
123,Bulevardul 1 Decembrie 1918,540445,46.5389540,24.5732408
113,Bulevardul 1 Decembrie 1918,540445,46.5390228,24.5721382
131,Bulevardul 1 Decembrie 1918,540445,46.5390434,24.5741053
141,Bulevardul 1 Decembrie 1918,540445,46.5390872,24.5748023
125,Bulevardul 1 Decembrie 1918,540445,46.5389386,24.5734337
133,Bulevardul 1 Decembrie 1918,540445,46.5391197,24.5742742
97,Bulevardul 1 Decembrie 1918,540445,46.5389267,24.5695987
115,Bulevardul 1 Decembrie 1918,540445,46.5389797,24.5723422
109,Bulevardul 1 Decembrie 1918,540445,46.5391077,24.5714925
93,Bulevardul 1 Decembrie 1918,540445,46.5389238,24.5685281
105,Bulevardul 1 Decembrie 1918,540445,46.5388810,24.5706819
107,Bulevardul 1 Decembrie 1918,540445,46.5388836,24.5708428
85,Bulevardul 1 Decembrie 1918,540445,46.5388933,24.5677481
99,Bulevardul 1 Decembrie 1918,540445,46.5388983,24.5698152
127,Bulevardul 1 Decembrie 1918,540445,46.5390092,24.5735750
139,Bulevardul 1 Decembrie 1918,540445,46.5390098,24.5747055
121,Bulevardul 1 Decembrie 1918,540445,46.5390101,24.5729821
147B,Bulevardul 1 Decembrie 1918,540445,46.5390904,24.5752702
89,Bulevardul 1 Decembrie 1918,540445,46.5389092,24.5681949
13,Strada Vulcan,540074,46.5406404,24.5702718
11,Strada Vulcan,540074,46.5409000,24.5702852
9,Strada Vulcan,540074,46.5411385,24.5702793
1B,Strada Călimanului,540074,46.5407360,24.5710750
1A,Strada Călimanului,540074,46.5407465,24.5709605
1,Strada Călimanului,540074,46.5406825,24.5706885
3,Strada Călimanului,540074,46.5408366,24.5713493
26,Strada Bradului,540075,46.5414870,24.5724157
10,Strada Borzești,540075,46.5413030,24.5714255
1,Strada Vulcan,540074,46.5426228,24.5713907
4,Strada Borzești,540074,46.5428517,24.5717747
8,Strada Crizantemelor,540073,46.5453135,24.5692462
5A,Strada Borzești,540074,46.5422257,24.5722072
23,Strada Bradului,540075,46.5419052,24.5720590
23A,Strada Bradului,540075,46.5418475,24.5725150
23B,Strada Bradului,540075,46.5417974,24.5726613
16,Strada Bradului,540077,46.5417555,24.5702935
2,Strada Borzești,540074,46.5430088,24.5718119
8,Strada Borzești,540074,46.5422791,24.5715759
8A,Strada Borzești,540074,46.5423541,24.5716023
6A,Strada Borzești,540074,46.5425533,24.5716730
6,Strada Borzești,540074,46.5427046,24.5717218
28,Strada Bradului,540075,46.5414782,24.5729155
24,Strada Bradului,540075,46.5415886,24.5719984
24A,Strada Bradului,540075,46.5414986,24.5719904
22,Strada Bradului,540077,46.5415858,24.5714793
20,Strada Bradului,540077,46.5416610,24.5710320
18,Strada Bradului,540077,46.5417110,24.5707085
1A,Strada Borzești,540074,46.5428254,24.5722095
3,Strada Borzești,540074,46.5426738,24.5721884
5,Strada Borzești,540074,46.5424003,24.5722304
21,Strada Bradului,540077,46.5419449,24.5715819
19,Strada Bradului,540077,46.5419999,24.5711071
23A,Strada Bradului,540075,46.5418586,24.5724308
12,Strada Borzești,540075,46.5411150,24.5714030
14,Strada Vulcan,540077,46.5417582,24.5698423
16,Strada Călimanului,540074,46.5406267,24.5717923
18,Strada Călimanului,540074,46.5406677,24.5719418
12,Strada Călimanului,540074,46.5405327,24.5713518
10,Strada Călimanului,540074,46.5404992,24.5712028
20,Strada Călimanului,540074,46.5406863,24.5721941
22,Strada Călimanului,540074,46.5407218,24.5723276
17,Strada Cornești,540077,46.5418975,24.5757150
3,Strada Tudor Vladimirescu,540030,46.5437125,24.5533066
1,Strada Tudor Vladimirescu,540030,46.5437756,24.5532252
5,Strada Libertății,540031,46.5439750,24.5546041
7,Strada Libertății,540031,46.5439765,24.5544883
9,Strada Libertății,540031,46.5439759,24.5543642
15,Strada Libertății,540031,46.5439375,24.5538634
19,Strada Libertății,540031,46.5439535,24.5537555
23,Strada Libertății,540031,46.5439370,24.5533421
5,Strada Tudor Vladimirescu,540030,46.5435454,24.5535792
13,Strada Tudor Vladimirescu,540030,46.5431387,24.5537449
7,Strada Tudor Vladimirescu,540030,46.5434723,24.5534804
11,Strada Tudor Vladimirescu,540030,46.5432751,24.5536701
24,Strada Horea,540036,46.5457347,24.5562858
5,Aleea Carpați,540304,46.5530210,24.5554816
7,Aleea Carpați,540304,46.5531732,24.5546729
11,Aleea Carpați,540303,46.5533603,24.5557304
1,Aleea Carpați,540304,46.5525263,24.5551150
9,Aleea Carpați,540303,46.5534867,24.5550951
15,Aleea Carpați,540336,46.5528560,24.5560269
3,Aleea Carpați,540304,46.5525541,24.5555630
17,Aleea Carpați,540303,46.5529660,24.5566816
13,Aleea Carpați,540303,46.5532247,24.5563279
16-18,Strada Uzinei,540307,46.5505491,24.5522447
2,Piața Matei Corvin,540305,46.5506829,24.5542121
18,Strada Rodniciei,540441,46.5374360,24.5881020
12,Strada Predeal,540345,46.5367263,24.5607607
57,Bulevardul 1848,540342,46.5364614,24.5589098
4,Strada Crinului,540342,46.5372518,24.5582823
25,Strada Băneasa,540146,46.5327073,24.5435483
27,Strada Băneasa,540146,46.5325571,24.5432023
111,Bulevardul 1 Decembrie 1918,540445,46.5390209,24.5718792
3,Strada Libertății,540031,46.5439458,24.5547224
19A,Pasajul Panseluțelor,540005,46.5370473,24.5631513
25C,Strada Evreilor Martiri,540545,46.5327531,24.5841684
53,Strada Livezeni,540566,46.5359007,24.5955972
18,Strada Cutezanței,540462,46.5367031,24.5928606
12,Strada Cutezanței,540462,46.5366959,24.5938794
63,Strada Livezeni,540566,46.5363758,24.5966650
6,Strada Rămurele,540567,46.5366160,24.5960807
2,Strada Bodoni Sándor,540680,46.5321069,24.5829142
22,Strada Bodor Péter,540019,46.5407865,24.5527051
24,Strada Bodor Péter,540019,46.5410915,24.5525570
28,Strada Bodor Péter,540019,46.5416990,24.5522760
26,Strada Bodor Péter,540019,46.5413975,24.5524206
4,Strada Bodor Péter,540023,46.5380696,24.5533281
2,Strada Bodor Péter,540023,46.5377515,24.5533327
8,Strada Bodor Péter,540023,46.5386996,24.5533355
6,Strada Bodor Péter,540023,46.5383893,24.5533222
29A,Strada Liviu Rebreanu,540023,46.5367188,24.5535002
1A,Strada Piatra de moară,540354,46.5346239,24.5544261
15,Strada Ceahlău,540402,46.5315530,24.5530861
17,Strada Ceahlău,540402,46.5318256,24.5531748
41,Strada Suceava,540366,46.5297158,24.5610187
"1,3,5",Strada Petru Dobra,540415,46.5283255,24.5593721
14,Strada Godeanu,540381,46.5258630,24.5565708
81,Bulevardul 1848,540385,46.5276655,24.5539657
"83,85,87",Bulevardul 1848,540385,46.5271987,24.5537193
"89,91,93",Bulevardul 1848,540386,46.5264930,24.5531125
90,Bulevardul 1 Decembrie 1918,540447,46.5386026,24.5694558
64-68,Strada Gheorghe Doja,540146,46.5309740,24.5469534
50,Strada Budiului,540390,46.5257643,24.5494419
48,Strada Nicolae Bălcescu,540156,46.5374276,24.5458424
6,Pasajul Panseluțelor,540005,46.5363860,24.5650538
5,Pasajul Panseluțelor,540005,46.5371793,24.5650928
198,Strada Gheorghe Doja,540225,46.5213164,24.5298068
242,Strada Gheorghe Doja,540236,46.5177501,24.5221091
117,Bulevardul 1 Decembrie 1918,540445,46.5390109,24.5726177
163,Bulevardul 1 Decembrie 1918,540445,46.5392822,24.5777626
159,Bulevardul 1 Decembrie 1918,540445,46.5392181,24.5769863
161,Bulevardul 1 Decembrie 1918,540445,46.5392902,24.5772516
91,Bulevardul 1 Decembrie 1918,540445,46.5389498,24.5683616
157B,Bulevardul 1 Decembrie 1918,540445,46.5391779,24.5766391
135,Bulevardul 1 Decembrie 1918,540445,46.5390621,24.5744708
87,Bulevardul 1 Decembrie 1918,540445,46.5390096,24.5680946
137,Bulevardul 1 Decembrie 1918,540445,46.5392248,24.5745503
19,Strada Nicolae Grigorescu,540095,46.5522733,24.5746174
9,Strada Tudor Vladimirescu,540030,46.5433829,24.5535463
26,Strada Márton Áron,540058,46.5414317,24.5612054
26,Strada Vânătorilor,540534,46.5360927,24.5785549
78,Strada Muntenia,540552,46.5309300,24.5820850
22A,Strada Vânătorilor,540534,46.5361378,24.5787943
22,Strada Vânătorilor,540534,46.5361687,24.5789892
18,Calea Sighișoarei,540552,46.5299318,24.5753182
16,Strada Vânătorilor,540534,46.5362671,24.5794139
20,Strada Vânătorilor,540534,46.5361685,24.5791682
4A,Strada Sfântul Ioan,540556,46.5386196,24.6016806
91,Strada Livezeni,540566,46.5372076,24.5997993
61,Strada Cornești,545086,46.5441065,24.5805623
6,Strada Köteles Sámuel,540057,46.5429967,24.5616044
23,Strada Gheorghe Doja,540342,46.5359065,24.5557979
22,Strada Răsăritului,540143,46.5519316,24.5818838
2,Strada Márton Áron,540058,46.5428642,24.5635256
34,Strada Gheorghe Marinescu,540140,46.5539957,24.5787365
49,Aleea Constructorilor,540119,46.5562959,24.5710682
38,Strada Gheorghe Marinescu,540000,46.5549513,24.5818734
9,Strada Răsăritului,540143,46.5523210,24.5824278
4,Strada Márton Áron,540058,46.5427375,24.5634144
5,Strada Călimanului,540074,46.5410720,24.5724771
12,Strada Márton Áron,540058,46.5422340,24.5626209
18,Strada Márton Áron,540058,46.5418966,24.5620129
10,Strada Márton Áron,540058,46.5424193,24.5628671
16,Strada Márton Áron,540058,46.5420276,24.5622668
18,Strada Márton Áron,540058,46.5419954,24.5620968
6,Strada Márton Áron,540058,46.5426279,24.5632303
14,Strada Márton Áron,540058,46.5421701,24.5624312
20,Strada Márton Áron,540058,46.5418437,24.5618903
8,Strada Márton Áron,540058,46.5425314,24.5630629
22,Strada Márton Áron,540058,46.5417392,24.5617265
24,Strada Márton Áron,540058,46.5416419,24.5615574
3,Strada Sinaia,540319,46.5526612,24.5579346
7,Strada Berlin,540347,46.5268308,24.5724235
9,Strada Berlin,540347,46.5266271,24.5727265
3,Strada Berlin,540347,46.5275987,24.5721164
5,Strada Berlin,540347,46.5273021,24.5721128
22,Strada Furtunei,540167,46.5401710,24.5487556
9,Strada Zidarilor,540178,46.5416331,24.5447425
6,Piața Onești,540178,46.5409612,24.5446644
12,Strada Zidarilor,540178,46.5415380,24.5451021
1,Strada Libertății,540031,46.5439462,24.5548818
11,Strada Libertății,540031,46.5439758,24.5542179
25,Strada Libertății,540031,46.5439373,24.5532113
21,Strada Libertății,540031,46.5439667,24.5535255
1,Strada Episcop Dávid Ferenc,540399,46.5275028,24.5526127
27,Strada Gheorghe Doja,540354,46.5346227,24.5557814
15,Strada Năvodari,540495,46.5356917,24.5751764
19,Strada Ceahlău,540402,46.5318616,24.5534559
33,Strada Budai Nagy Antal,540004,46.5360692,24.5659342
19,Strada Budai Nagy Antal,540004,46.5369884,24.5660661
11,Strada Budai Nagy Antal,540004,46.5374125,24.5661385
31,Strada Budai Nagy Antal,540004,46.5362289,24.5659634
13,Strada Budai Nagy Antal,540004,46.5372827,24.5661074
25,Strada Budai Nagy Antal,540004,46.5365331,24.5660319
23,Strada Budai Nagy Antal,540004,46.5367747,24.5660577
4,Strada Vulturilor,540521,46.5372909,24.5677271
7,Strada Budai Nagy Antal,540004,46.5377205,24.5661682
12,Strada Secerei,540521,46.5376639,24.5713114
16,Strada Vulturilor,540521,46.5373429,24.5704619
240,Bulevardul 1 Decembrie 1918,540509,46.5311368,24.5935490
68-70,Strada Cuza Vodă,540306,46.5482172,24.5538028
24-26,Strada Arany János,410211,46.5484775,24.5563484
47,Strada Voinicenilor,540289,46.5594995,24.5480630
307,Bulevardul 1 Decembrie 1918,540471,46.5280177,24.6005635
6A,Strada Livezeni,540565,46.5347594,24.5947787
12,Strada Substejeriș,540520,46.5360058,24.5736186
37,Strada Alexandru Papiu Ilarian,540075,46.5405265,24.5747951
13,Strada Substejeriș,540520,46.5360029,24.5740162
2,Strada Substejeriș,540520,46.5364919,24.5732759
1,Strada Substejeriș,540520,46.5366375,24.5736918
11,Strada Substejeriș,540520,46.5361174,24.5739530
6,Strada Năvodari,540495,46.5365925,24.5743666
7,Strada Substejeriș,540520,46.5363619,24.5739219
14,Strada Năvodari,540495,46.5361527,24.5745512
3,Strada Substejeriș,540520,46.5365742,24.5737565
17,Strada Păltiniș,540520,46.5370665,24.5759894
11,Strada Păltiniș,540520,46.5369131,24.5754537
1,Strada Păltiniș,540520,46.5367553,24.5746491
7,Strada Păltiniș,540520,46.5368732,24.5751099
13,Strada Păltiniș,540520,46.5369788,24.5756581
10,Strada Săliște,540520,46.5362081,24.5762324
14,Strada Săliște,540520,46.5362767,24.5765818
4,Strada Săliște,540520,46.5361044,24.5755700
6B,Strada Săliște,540520,46.5361520,24.5758949
16,Strada Săliște,540520,46.5363083,24.5768171
54,Strada Cutezanței,540462,46.5392298,24.5870925
56,Strada Cutezanței,540462,46.5393282,24.5868956
52,Strada Cutezanței,540462,46.5391821,24.5873257
50,Strada Cutezanței,540462,46.5387907,24.5877876
48,Strada Cutezanței,540462,46.5386941,24.5879771
46,Strada Cutezanței,540462,46.5385740,24.5882038
44,Strada Cutezanței,540462,46.5382914,24.5887684
42,Strada Cutezanței,540462,46.5381928,24.5889561
40,Strada Cutezanței,540462,46.5380838,24.5891753
38,Strada Cutezanței,540462,46.5377954,24.5897463
36,Strada Cutezanței,540462,46.5376939,24.5899339
34,Strada Cutezanței,540462,46.5375901,24.5901407
32,Strada Cutezanței,540462,46.5373133,24.5907075
30,Strada Cutezanței,540462,46.5372180,24.5908995
28,Strada Cutezanței,540462,46.5371406,24.5911459
26,Strada Cutezanței,540462,46.5369083,24.5916005
24,Strada Cutezanței,540462,46.5368397,24.5918233
22,Strada Cutezanței,540462,46.5367685,24.5920674
10,Strada Cutezanței,540462,46.5366169,24.5944002
8,Strada Cutezanței,540462,46.5365456,24.5946497
65,Strada Livezeni,540566,46.5366782,24.5968916
67,Strada Livezeni,540566,46.5367862,24.5972440
4,Strada Păltiniș,540520,46.5366858,24.5753896
7,Strada Năvodari,540520,46.5362385,24.5748875
13,Strada Săliște,540520,46.5364792,24.5763522
18,Strada Păltiniș,540520,46.5369119,24.5765350
3,Strada Săliște,540520,46.5363227,24.5754762
21,Strada Săliște,540520,46.5365619,24.5770265
9,Strada Săliște,540520,46.5364038,24.5760163
22,Strada Păltiniș,540520,46.5369695,24.5768762
14,Strada Păltiniș,540520,46.5368469,24.5761860
15,Strada Săliște,540520,46.5365005,24.5765799
8,Strada Păltiniș,540520,46.5367314,24.5757301
62,Strada Voinicenilor,540289,46.5606626,24.5479525
26,Strada Agricultorilor,540272,46.5624926,24.5437748
42,Bulevardul Pandurilor,540494,46.5329892,24.5725625
26N,Strada Agricultorilor,540272,46.5641837,24.5414968
26L,Strada Agricultorilor,540272,46.5640871,24.5416490
26M,Strada Agricultorilor,540272,46.5640141,24.5412382
26K,Strada Agricultorilor,540272,46.5638797,24.5414174
42C,Strada Rămurele,540462,46.5385950,24.5905579
18,Strada Budai Nagy Antal,540004,46.5371755,24.5656388
10,Strada Budai Nagy Antal,540004,46.5377118,24.5656950
26B,Strada Budai Nagy Antal,540004,46.5362494,24.5656049
26,Strada Ion Heliade Rădulescu,540189,46.5341676,24.5416672
14,Strada Ion Heliade Rădulescu,540189,46.5341584,24.5427243
12,Strada Ion Heliade Rădulescu,540189,46.5343753,24.5424077
28,Strada Ion Heliade Rădulescu,540189,46.5345945,24.5414585
10,Strada Ion Heliade Rădulescu,540189,46.5348959,24.5419811
30,Strada Ion Heliade Rădulescu,540189,46.5348878,24.5410695
8,Strada Ion Heliade Rădulescu,540189,46.5351091,24.5416429
6,Strada Ion Heliade Rădulescu,540189,46.5354548,24.5405296
4,Strada Ion Heliade Rădulescu,540189,46.5356875,24.5410581
109-113,Strada Voinicenilor,540256,46.5692631,24.5466499
2,Strada Rămurele,540567,46.5364950,24.5955619
8,Strada Rămurele,540567,46.5366936,24.5963285
4,Strada Rămurele,540567,46.5365726,24.5958098
61,Strada Livezeni,540566,46.5362076,24.5967352
59,Strada Livezeni,540566,46.5360967,24.5965093
57,Strada Livezeni,540566,46.5360315,24.5962959
55,Strada Livezeni,540566,46.5360283,24.5960745
53,Strada Livezeni,540566,46.5358559,24.5953532
2,Strada Cutezanței,540568,46.5360221,24.5952040
4,Strada Cutezanței,540568,46.5361882,24.5950967
6,Strada Cutezanței,540568,46.5363220,24.5951003
16,Strada Cutezanței,540462,46.5366861,24.5933945
14,Strada Cutezanței,540462,46.5366816,24.5936341
20,Strada Cutezanței,540462,46.5366790,24.5926000
30A,Strada Agricultorilor,540272,46.5623610,24.5425666
3,Strada Năvodari,540520,46.5364685,24.5747788
141,Strada Vasile Săbădeanu,540275,46.5563504,24.5437274
9,Strada Barajului,540191,46.5433030,24.5342338
9,Strada Barajului,540191,46.5435567,24.5347108
10,Strada Năvodari,540495,46.5363745,24.5744841
8,Strada Substejeriș,540520,46.5361855,24.5733425
14,Strada Vânătorilor,540534,46.5362023,24.5796066
18,Strada Vânătorilor,540534,46.5361753,24.5792495
24,Strada Vânătorilor,540534,46.5361118,24.5787044
30,Strada Vânătorilor,540534,46.5360091,24.5783663
18,Strada Ion Heliade Rădulescu,540189,46.5334297,24.5435325
16,Strada Ion Heliade Rădulescu,540189,46.5337349,24.5433356
20,Strada Ion Heliade Rădulescu,540189,46.5331084,24.5429121
22,Strada Ion Heliade Rădulescu,540189,46.5334985,24.5425885
24,Strada Ion Heliade Rădulescu,540189,46.5337631,24.5420271
36-38,Piața Trandafirilor,540053,46.5434559,24.5599488
42,Strada Ion Heliade Rădulescu,540189,46.5331126,24.5419349
18D,Strada Fabrica de Zahăr,540233,46.5303688,24.5445377
260,Strada Gheorghe Doja,540236,46.5174548,24.5219060
2,Strada Zidarilor,540178,46.5409195,24.5452067
4,Strada Zidarilor,540178,46.5410873,24.5452589
10,Strada Zidarilor,540178,46.5413598,24.5451527
19,Strada Siretului,540178,46.5418008,24.5450804
3,Strada Zidarilor,540178,46.5412854,24.5447698
5,Strada Zidarilor,540178,46.5414049,24.5447816
7,Strada Zidarilor,540178,46.5415230,24.5447420
11,Strada Zidarilor,540178,46.5417397,24.5447340
2,Strada Zărnești,540521,46.5368084,24.5701099
4,Strada Zărnești,540521,46.5369081,24.5700817
30,Strada Dâmboviței,540521,46.5371795,24.5698560
32,Strada Dâmboviței,540521,46.5372004,24.5699780
5,Strada Zărnești,540521,46.5367813,24.5704557
3,Strada Zărnești,540521,46.5370710,24.5703874
1,Strada Zărnești,540521,46.5371715,24.5703346
18,Strada Dâmboviței,540521,46.5373128,24.5703217
7,Strada Zărnești,540521,46.5366607,24.5705312
8,Strada Zânelor,540167,46.5397526,24.5480318
6,Strada Zânelor,540167,46.5398689,24.5482280
4,Strada Zânelor,540167,46.5400066,24.5482848
2,Strada Zânelor,540167,46.5400046,24.5485114
24,Strada Furtunei,540167,46.5399986,24.5488762
1,Strada Zânelor,540167,46.5399020,24.5487323
3,Strada Zânelor,540167,46.5397885,24.5485198
5,Strada Zânelor,540167,46.5397404,24.5484523
7,Strada Zânelor,540167,46.5395856,24.5482627
12-14,Strada Zăgazului,540111,46.5565973,24.5652469
14,Strada Zăgazului,540111,46.5567570,24.5657513
10,Strada Zăgazului,540111,46.5564275,24.5656586
8,Strada Zăgazului,540111,46.5561713,24.5659284
6,Strada Zăgazului,540111,46.5560606,24.5660440
4,Strada Zăgazului,540111,46.5560855,24.5664468
2,Strada Zăgazului,540111,46.5559033,24.5663787
23,Strada Kós Károly,540111,46.5558967,24.5664788
16A,Strada Margaretelor,540111,46.5566644,24.5644461
21,Strada Zăgazului,540111,46.5565832,24.5645752
19,Strada Zăgazului,540111,46.5563478,24.5650076
17,Strada Zăgazului,540111,46.5562901,24.5650762
15,Strada Abrudului,540111,46.5560963,24.5654727
15,Strada Zăgazului,540111,46.5560370,24.5655924
9-11,Strada Zăgazului,540111,46.5558801,24.5658081
7,Strada Zăgazului,540111,46.5558217,24.5659397
5,Strada Zăgazului,540111,46.5557849,24.5660824
3,Strada Zăgazului,540111,46.5557080,24.5661972
1,Strada Zăgazului,540111,46.5556350,24.5663174
14,Strada Iuliu Maniu,540019,46.5413667,24.5549771
133,Strada Gheorghe Doja,540394,46.5281350,24.5453252
2,Strada Caraiman,540399,46.5274117,24.5511545
5,Strada Lisabona,540347,46.5264894,24.5720130
67,Bulevardul 22 Decembrie 1989,540136,46.5594565,24.5774539
65,Bulevardul 22 Decembrie 1989,540136,46.5593334,24.5774164
234,Strada Gheorghe Doja,540236,46.5186428,24.5243574
64,Strada Voinicenilor,540289,46.5607229,24.5477514
6,Strada Zidarilor,540178,46.5412044,24.5451553
8,Strada Zidarilor,540178,46.5412556,24.5451520
7,Strada Zidarilor,540178,46.5415278,24.5445699
7,Strada Zidarilor,540178,46.5414733,24.5445831
4,Strada Zăgazului,540111,46.5561003,24.5663368
6,Strada Zăgazului,540111,46.5560378,24.5661503
14,Strada Zăgazului,540111,46.5570019,24.5654323
14A,Strada Zăgazului,540111,46.5568054,24.5648691
7,Strada Zăgazului,540111,46.5557418,24.5658035
7,Strada Zăgazului,540111,46.5557560,24.5659568
5,Strada Zăgazului,540111,46.5556972,24.5659592
5,Strada Zăgazului,540111,46.5557491,24.5661289
14,Strada Zăgazului,540111,46.5567117,24.5658661
14,Strada Zăgazului,540111,46.5569958,24.5660207
12,Strada Secerei,540521,46.5376781,24.5711898
43,Strada Vulturilor,540521,46.5376303,24.5710526
41,Strada Vulturilor,540521,46.5376205,24.5709725
41,Strada Vulturilor,540521,46.5376162,24.5708334
41,Strada Vulturilor,540521,46.5377139,24.5705564
37,Strada Vulturilor,540521,46.5376217,24.5703627
41,Strada Vulturilor,540521,46.5377014,24.5704513
35-33,Strada Vulturilor,540521,46.5375805,24.5700689
31,Strada Vulturilor,540521,46.5375866,24.5697311
29,Strada Vulturilor,540521,46.5376313,24.5696250
27,Strada Vulturilor,540521,46.5375923,24.5692856
25,Strada Vulturilor,540521,46.5375950,24.5691769
23,Strada Vulturilor,540521,46.5376561,24.5689000
21,Strada Vulturilor,540521,46.5376494,24.5687595
19,Strada Vulturilor,540521,46.5376705,24.5684455
17,Strada Vulturilor,540521,46.5376264,24.5683335
15,Strada Vulturilor,540521,46.5376970,24.5680387
13,Strada Vulturilor,540521,46.5376991,24.5679346
11,Strada Vulturilor,540521,46.5376567,24.5676048
9,Strada Vulturilor,540521,46.5376588,24.5675097
11,Strada Vulturilor,540521,46.5378089,24.5676648
7,Strada Vulturilor,540521,46.5376653,24.5671776
5,Strada Vulturilor,540521,46.5376681,24.5670609
7,Strada Vulturilor,540521,46.5377670,24.5672253
5,Strada Vulturilor,540521,46.5377611,24.5671027
5,Strada Vulturilor,540521,46.5378379,24.5671407
3,Strada Vulturilor,540521,46.5377173,24.5668162
1,Strada Vulturilor,540521,46.5377038,24.5666481
14,Strada Secerei,540521,46.5373475,24.5713487
24,Strada Vulturilor,540521,46.5374481,24.5713178
24A,Strada Vulturilor,540521,46.5374202,24.5711247
22,Strada Vulturilor,540521,46.5374121,24.5710069
22,Strada Vulturilor,540521,46.5373254,24.5710159
20,Strada Vulturilor,540521,46.5373411,24.5707932
18,Strada Vulturilor,540521,46.5373586,24.5706930
14,Strada Vulturilor,540521,46.5373789,24.5688315
14,Strada Vulturilor,540521,46.5372886,24.5687560
12,Strada Vulturilor,540521,46.5373962,24.5684860
10,Strada Vulturilor,540521,46.5373745,24.5683581
10,Strada Vulturilor,540521,46.5372656,24.5683120
8,Strada Vulturilor,540521,46.5374052,24.5680270
6,Strada Vulturilor,540521,46.5374037,24.5678869
4,Strada Vulturilor,540521,46.5374114,24.5676850
2,Strada Vulturilor,540521,46.5374144,24.5675848
2,Strada Vulcan,540074,46.5432962,24.5716886
4,Strada Vulcan,540074,46.5430198,24.5713150
4A,Strada Vulcan,540074,46.5427592,24.5709576
4B,Strada Vulcan,540074,46.5422022,24.5701452
3,Strada Vulcan,540074,46.5425377,24.5712038
3A,Strada Vulcan,540074,46.5424642,24.5711486
3B,Strada Vulcan,540074,46.5423905,24.5710103
17-1,Strada Vulcan,540074,46.5422934,24.5709397
17,Strada Vulcan,540074,46.5420643,24.5706910
5,Strada Vulcan,540077,46.5415931,24.5702419
7,Strada Vulcan,540077,46.5413510,24.5703271
7,Strada Vulcan,540077,46.5413168,24.5704617
6,Strada Vulcan,540074,46.5416118,24.5698407
8,Strada Vulcan,540074,46.5414926,24.5698432
10,Strada Vulcan,540074,46.5413352,24.5698432
12,Strada Vulcan,540074,46.5412068,24.5698514
14,Strada Vulcan,540074,46.5410859,24.5698139
14A,Strada Vulcan,540074,46.5409735,24.5698134
16,Strada Vulcan,540074,46.5407968,24.5698180
18,Strada Vulcan,540074,46.5407078,24.5697633
18,Strada Vulcan,540074,46.5405672,24.5697578
20,Strada Vulcan,540074,46.5404778,24.5697672
24,Strada Vulcan,540074,46.5402759,24.5697695
98,Strada Libertății,540178,46.5397395,24.5447017
28-30,Piața Victoriei,540052,46.5418056,24.5583082
1,Aleea Vrancea,540519,46.5343211,24.5803882
1,Strada Justiției,540069,46.5419040,24.5646054
50,Strada Gheorghe Marinescu,540136,46.5595399,24.5829236
2,Strada George Enescu,540052,46.5433964,24.5580226
1,Strada Apicultorilor,540511,46.5317936,24.5879361
37,Bulevardul 1848,540405,46.5304361,24.5568824
