House number,Street name,Postal code,Latitude,Longitude
55/6,Богоявленський проспект,54000,46.9291534,32.0435914
32,вулиця Доктора Самойловича,54052,46.8578602,32.0271577
14б,проспект Корабелів,54000,46.8558096,32.0142670
8,Курортна вулиця,54038,46.9558165,31.9533876
244,Троїцька вулиця,54031,46.9714929,32.0918708
20,вулиця Генерала Олекси Алмазова,54038,46.9649900,31.9531814
342,Богоявленський проспект,54000,46.8558100,32.0159382
144,вулиця Космонавтів,54031,46.9692613,32.0790376
42а,Богоявленський проспект,54018,46.9391108,32.0402330
7,вулиця Павла Скоропадського,54030,46.9721214,31.9771662
118,вулиця Марка Кропивницького,54000,46.9669997,32.0042833
5/1,вулиця Бузника,54000,46.9671153,31.9613494
12,проспект Корабелів,54052,46.8562789,32.0113192
12,проспект Корабелів,54052,46.8561359,32.0125020
12,проспект Корабелів,54052,46.8562294,32.0117028
14,проспект Корабелів,54052,46.8549631,32.0133454
2,Курортна вулиця,54058,46.9521757,31.9440322
47б,Веселинівська вулиця,54036,46.9903682,31.9367158
27,вулиця Генерала Олекси Алмазова,54038,46.9582391,31.9490142
14,вулиця 9-та Слобідська,54055,46.9662546,32.0287859
11б,Соборна вулиця,54001,46.9663129,31.9885335
12,проспект Корабелів,54052,46.8561312,32.0120542
39,вулиця Панаса Саксаганського,54017,46.9634322,31.9830622
23а,вулиця Захисників Миколаєва,54017,46.9666320,31.9844630
156а,вулиця Космонавтів,54031,46.9713140,32.0803140
56б,проспект Миру,54056,46.9435980,32.0558960
200,Центральний проспект,54003,46.9651350,32.0228340
1/1,проспект Миру,54056,46.9556869,32.0347349
171Д,Центральний проспект,54003,46.9647290,32.0148570
65,вулиця Шевченка,54000,46.9688856,31.9908405
6А,Садова вулиця,54000,46.9683493,32.0043776
1з,Старофортечна вулиця,54000,46.9270668,32.0420189
38,Богоявленський проспект,54018,46.9399731,32.0394830
57а,вулиця Дмитра Кременя,54018,46.9399540,32.0398640
19,Миколаївська вулиця,54018,46.9429316,32.0444286
15,Миколаївська вулиця,54018,46.9440339,32.0440469
107І,Троїцька вулиця,54007,46.9691361,32.0616628
240А/5,Троїцька вулиця,54028,46.9718750,32.0867644
240А/5,Троїцька вулиця,54028,46.9718912,32.0869285
20/9,Богоявленський проспект,54050,46.9477639,32.0354318
71а,Центральний проспект,54017,46.9665280,31.9884980
4/11,проспект Миру,54034,46.9534463,32.0403730
316,Богоявленський проспект,54050,46.8672849,32.0173367
26б,Центральний проспект,54029,46.9682737,31.9733203
4a,Соборна вулиця,54001,46.9715757,31.9928828
244,Троїцька вулиця,54028,46.9718830,32.0927716
37,Південна вулиця,54018,46.9458186,32.0351954
45,Південна вулиця,54034,46.9475262,32.0385051
36,Паркова вулиця,54034,46.9460362,32.0398608
10,9-та Поздовжня вулиця,54034,46.9534488,32.0486296
30а,проспект Миру,54034,46.9484076,32.0482869
37,вулиця Геннадія Матуляка,54034,46.9490155,32.0492069
30,проспект Миру,54034,46.9486435,32.0475321
21,Богоявленський проспект,54000,46.9554459,32.0322930
40,Паркова вулиця,54034,46.9464552,32.0410642
9,Миколаївська вулиця,54034,46.9481928,32.0418206
38,Паркова вулиця,54034,46.9461480,32.0416331
42,Паркова вулиця,54034,46.9468638,32.0408469
32,проспект Миру,54034,46.9491102,32.0481936
26,проспект Миру,54034,46.9499308,32.0469954
37а,вулиця Геннадія Матуляка,54034,46.9494710,32.0485796
51а,Південна вулиця,54034,46.9475925,32.0410626
1,Дачна вулиця,54038,46.9560288,31.9495514
5,Дачна вулиця,54038,46.9565637,31.9512110
3,Дачна вулиця,54038,46.9562478,31.9502363
8б,Київська вулиця,54038,46.9552343,31.9477652
5а,Миколаївська вулиця,54034,46.9500432,32.0401410
114,вулиця Ігоря Бедзая,54003,46.9623194,32.0175410
110/1,вулиця Ігоря Бедзая,54003,46.9635407,32.0161407
181,Центральний проспект,54003,46.9639524,32.0183320
179,Центральний проспект,54003,46.9642554,32.0189127
10б,вулиця Архітектора Старова,54002,47.0155802,32.0070574
13,проспект Героїв України,54025,46.9927979,31.9990701
10д,вулиця Архітектора Старова,54002,47.0148190,32.0074451
8б,вулиця Архітектора Старова,54002,47.0152567,32.0057609
6г,вулиця Архітектора Старова,54046,47.0154650,32.0045820
4б,вулиця Архітектора Старова,54046,47.0162337,32.0045003
10г,вулиця Архітектора Старова,54002,47.0144278,32.0067694
45/47,вулиця Марка Кропивницького,54001,46.9715332,31.9865240
5,вулиця Георгія Ґонґадзе,54010,46.9666153,31.9645962
36,Дачна вулиця,54038,46.9587345,31.9557274
9,вулиця Євгенія Логінова,54038,46.9590943,31.9546449
19,вулиця Євгенія Логінова,54038,46.9543501,31.9608321
38,Дачна вулиця,54038,46.9584774,31.9560549
65,вулиця Левського,54046,47.0266757,32.0078089
36,Лазурна вулиця,54058,46.9488137,31.9357598
52а,Лазурна вулиця,54058,46.9453411,31.9351210
4г,Лазурна вулиця,54058,46.9531684,31.9364745
36б,Лазурна вулиця,54058,46.9483242,31.9345212
25,Озерна вулиця,54058,46.9466989,31.9457910
45,Озерна вулиця,54058,46.9462900,31.9464050
35,Озерна вулиця,54058,46.9462447,31.9430331
33,Озерна вулиця,54058,46.9457788,31.9451581
31,Озерна вулиця,54058,46.9461584,31.9444260
47,Озерна вулиця,54058,46.9463705,31.9471312
37,Озерна вулиця,54058,46.9455535,31.9431558
39,Озерна вулиця,54058,46.9452594,31.9438071
27,Озерна вулиця,54058,46.9470134,31.9450654
29,Озерна вулиця,54058,46.9468700,31.9438486
36а,Лазурна вулиця,54058,46.9487880,31.9350848
6,Нікольська вулиця,54001,46.9768689,31.9699585
1,Обереговий провулок,54025,47.0025170,31.9934879
40,вулиця Павла Скоропадського,54030,46.9704785,31.9835298
10,Адміральська вулиця,54001,46.9771515,31.9885909
9д,проспект Героїв України,54025,46.9898524,31.9997381
2б,вулиця Олега Бондаренка,54018,46.9424405,32.0421188
15а,Миколаївська вулиця,54018,46.9435421,32.0430315
37,Театральна вулиця,54018,46.9435540,32.0394041
1,вулиця Олега Бондаренка,54018,46.9433897,32.0407206
38,вулиця Дмитра Кременя,54018,46.9410200,32.0395986
35а,Театральна вулиця,54018,46.9428644,32.0366089
70,вулиця Космонавтів,54056,46.9416281,32.0513308
31,Театральна вулиця,54018,46.9423261,32.0355045
41,Театральна вулиця,54018,46.9438133,32.0414454
19а,Миколаївська вулиця,54018,46.9426606,32.0433141
33,Театральна вулиця,54018,46.9424451,32.0359461
27,Театральна вулиця,54018,46.9422905,32.0343669
40,вулиця Дмитра Кременя,54018,46.9411526,32.0401552
17а,Миколаївська вулиця,54018,46.9430510,32.0426777
32,Богоявленський проспект,54018,46.9422907,32.0383512
2а,вулиця Олега Бондаренка,54018,46.9427949,32.0418907
45,Богоявленський проспект,54018,46.9410638,32.0379025
29,Театральна вулиця,54018,46.9422084,32.0350624
35,Театральна вулиця,54018,46.9431039,32.0382392
3,вулиця Олега Бондаренка,54018,46.9428153,32.0410225
42,вулиця Дмитра Кременя,54018,46.9413636,32.0405556
41а,Театральна вулиця,54018,46.9434233,32.0418850
32А,вулиця Дмитра Кременя,54018,46.9410837,32.0364046
5,вулиця Олега Бондаренка,54018,46.9422643,32.0413458
39,Театральна вулиця,54018,46.9437526,32.0401938
25,Миколаївська вулиця,54018,46.9401874,32.0460360
2,вулиця Олега Бондаренка,54018,46.9420694,32.0422429
25а,Миколаївська вулиця,54018,46.9403035,32.0453835
4,вулиця Олега Бондаренка,54018,46.9416976,32.0424886
17,Миколаївська вулиця,54018,46.9432722,32.0442184
19,Миколаївська вулиця,54018,46.9428209,32.0442472
15,Миколаївська вулиця,54018,46.9439061,32.0440653
45,Театральна вулиця,54018,46.9443456,32.0429044
1а,Озерна вулиця,54058,46.9541317,31.9391956
18,Лазурна вулиця,54058,46.9508481,31.9370823
2б,Лазурна вулиця,54058,46.9544009,31.9383124
11,Озерна вулиця,54058,46.9517641,31.9411378
28,Лазурна вулиця,54058,46.9465330,31.9399164
9б,Озерна вулиця,54058,46.9521292,31.9394981
11б,Озерна вулиця,54058,46.9510765,31.9410626
38б,Лазурна вулиця,54058,46.9479068,31.9354851
38а,Лазурна вулиця,54058,46.9481449,31.9361421
3,Озерна вулиця,54058,46.9537703,31.9398986
52,Лазурна вулиця,54058,46.9450402,31.9359430
50,Лазурна вулиця,54058,46.9459679,31.9384016
42а,Лазурна вулиця,54058,46.9465303,31.9351426
19а,Озерна вулиця,54058,46.9482574,31.9423392
6а,Лазурна вулиця,54058,46.9537258,31.9388492
16а,Лазурна вулиця,54058,46.9510138,31.9360112
30б,Лазурна вулиця,54058,46.9464794,31.9371270
24б,Лазурна вулиця,54058,46.9475168,31.9418250
10в,Лазурна вулиця,54058,46.9523758,31.9363851
14б,Лазурна вулиця,54058,46.9505592,31.9379646
26а,Лазурна вулиця,54058,46.9478328,31.9397435
6в,Лазурна вулиця,54058,46.9526701,31.9377861
52б,Лазурна вулиця,54058,46.9460214,31.9355372
13а,Озерна вулиця,54058,46.9503362,31.9410152
20а,Лазурна вулиця,54058,46.9473387,31.9408392
6б,Лазурна вулиця,54058,46.9533120,31.9380764
16г,Лазурна вулиця,54058,46.9497485,31.9360813
13,Озерна вулиця,54058,46.9507955,31.9424863
20,Лазурна вулиця,54058,46.9469313,31.9407316
10б,Лазурна вулиця,54058,46.9518728,31.9366446
17,Лазурна вулиця,54058,46.9457369,31.9415330
32,Лазурна вулиця,54058,46.9472869,31.9395637
9а,Озерна вулиця,54058,46.9524950,31.9397211
28а,Лазурна вулиця,54058,46.9466494,31.9390115
4б,Лазурна вулиця,54058,46.9537290,31.9366887
28г,Лазурна вулиця,54058,46.9463988,31.9381723
15в,Озерна вулиця,54058,46.9485762,31.9434050
11а,Озерна вулиця,54058,46.9512002,31.9402802
50а,Лазурна вулиця,54058,46.9456683,31.9373786
50б,Лазурна вулиця,54058,46.9457528,31.9367848
6,Лазурна вулиця,54058,46.9539874,31.9380023
14,Лазурна вулиця,54058,46.9519638,31.9375653
38,Лазурна вулиця,54058,46.9485454,31.9366358
1,Озерна вулиця,54058,46.9543829,31.9396781
19б,Озерна вулиця,54058,46.9488288,31.9424132
30а,Лазурна вулиця,54058,46.9470487,31.9377515
4,Лазурна вулиця,54058,46.9546326,31.9377020
24,Лазурна вулиця,54058,46.9480855,31.9409044
10а,Лазурна вулиця,54058,46.9524194,31.9373472
15б,Озерна вулиця,54058,46.9490154,31.9435765
19в,Озерна вулиця,54058,46.9485025,31.9415962
15,Озерна вулиця,54058,46.9497977,31.9424343
4в,Лазурна вулиця,54058,46.9534128,31.9370361
4а,Лазурна вулиця,54058,46.9542502,31.9371237
26,Лазурна вулиця,54058,46.9477746,31.9402128
16,Лазурна вулиця,54058,46.9512569,31.9365038
3а,Озерна вулиця,54058,46.9532921,31.9402451
24а,Лазурна вулиця,54058,46.9478020,31.9413587
13б,Озерна вулиця,54058,46.9501696,31.9418209
18б,Лазурна вулиця,54058,46.9495283,31.9369098
18а,Лазурна вулиця,54058,46.9502219,31.9371557
35,Південна вулиця,54018,46.9464603,32.0340410
33,Південна вулиця,54018,46.9464131,32.0334481
35,Богоявленський проспект,54018,46.9465905,32.0349376
4,Плевненська вулиця,54046,47.0410590,32.0152054
84,Центральний проспект,54017,46.9672533,31.9940220
14,вулиця Будівельників,54034,46.9531102,32.0375436
14б,вулиця Будівельників,54034,46.9522413,32.0377607
14а,вулиця Будівельників,54034,46.9526317,32.0375224
5,проспект Миру,54034,46.9523399,32.0398407
40а,вулиця Генерала Олекси Алмазова,54038,46.9681043,31.9562132
197,Силікатна вулиця,54048,47.0140173,31.9226540
175,Силікатна вулиця,54048,47.0148169,31.9243288
2,Верхня вулиця,54048,47.0142034,31.9246065
19,1-ша Піщана вулиця,54048,47.0163096,31.9241795
21,1-ша Піщана вулиця,54048,47.0161954,31.9240551
25,1-ша Піщана вулиця,54048,47.0154636,31.9223846
170,Силікатна вулиця,54048,47.0147677,31.9233138
32,2-га Поперечна вулиця,54029,46.9715051,31.9682589
6,Шосейна вулиця,54029,46.9748494,31.9656240
43,вулиця Павла Скоропадського,54001,46.9677685,31.9905965
76,Центральний проспект,54017,46.9673958,31.9878874
4,проспект Миру,54034,46.9534476,32.0404537
11а,вулиця Віталія Бохонка,54034,46.9478275,32.0299804
314,Богоявленський проспект,54050,46.8682876,32.0177697
16,вулиця Будівельників,54034,46.9516651,32.0368009
32,Паркова вулиця,54018,46.9446210,32.0354996
30,Паркова вулиця,54018,46.9448521,32.0348709
54,Південна вулиця,54034,46.9482450,32.0383519
18,вулиця Віталія Бохонка,54018,46.9443800,32.0330319
33б,Південна вулиця,54018,46.9459161,32.0335484
52,Південна вулиця,54034,46.9478539,32.0367841
18б,вулиця Будівельників,54034,46.9516716,32.0355579
28а,Паркова вулиця,54018,46.9446408,32.0339051
26,Паркова вулиця,54018,46.9441507,32.0336317
35а,Південна вулиця,54018,46.9460744,32.0344111
18,вулиця Будівельників,54034,46.9524407,32.0348233
6,Богоявленський проспект,54034,46.9515392,32.0336319
33а,Південна вулиця,54018,46.9456169,32.0341247
22,вулиця Будівельників,54034,46.9520493,32.0366043
39,Богоявленський проспект,54018,46.9451064,32.0357232
18а,вулиця Будівельників,54034,46.9520813,32.0353032
37,Богоявленський проспект,54018,46.9458175,32.0351833
20,вулиця Олеся Бердника,54034,46.9499245,32.0374491
16,Миколаївська вулиця,54018,46.9458312,32.0436928
15,проспект Миру,54044,46.9467820,32.0483261
51а,Театральна вулиця,54056,46.9451769,32.0491699
54,проспект Миру,54056,46.9440143,32.0553322
17г,проспект Миру,54056,46.9444008,32.0518657
58,проспект Миру,54056,46.9431956,32.0565118
51,Театральна вулиця,54056,46.9458016,32.0485816
56,проспект Миру,54056,46.9436105,32.0559159
49/2,Театральна вулиця,54056,46.9442550,32.0491272
49/1,Театральна вулиця,54056,46.9446818,32.0483500
56а,проспект Миру,54056,46.9432808,32.0552591
21,проспект Миру,54056,46.9430848,32.0536609
2,Театральна вулиця,54018,46.9405315,32.0277808
4а,Театральна вулиця,54018,46.9410987,32.0289085
5,Паркова вулиця,54018,46.9428666,32.0280655
52б,Передова вулиця,54018,46.9419434,32.0273400
2а,Театральна вулиця,54018,46.9405099,32.0283644
6,Театральна вулиця,54018,46.9410235,32.0300168
3,Паркова вулиця,54018,46.9428600,32.0272921
4,Театральна вулиця,54018,46.9406297,32.0292406
52д,Передова вулиця,54018,46.9416389,32.0292599
1,Паркова вулиця,54018,46.9425352,32.0267225
8,Театральна вулиця,54018,46.9412492,32.0305889
52в,Передова вулиця,54018,46.9421453,32.0281350
3а,Паркова вулиця,54018,46.9424140,32.0275310
8а,Театральна вулиця,54018,46.9416335,32.0299940
52г,Передова вулиця,54018,46.9413925,32.0285371
29,вулиця Віталія Бохонка,54018,46.9410422,32.0340853
30,вулиця Віталія Бохонка,54018,46.9385339,32.0365626
53Б,вулиця Дмитра Кременя,54018,46.9393563,32.0373042
53,вулиця Дмитра Кременя,54018,46.9399088,32.0370272
42,Богоявленський проспект,54018,46.9390939,32.0402328
23г,проспект Миру,54056,46.9392519,32.0562749
24а,Миколаївська вулиця,54018,46.9420618,32.0466603
21в,проспект Миру,54056,46.9426907,32.0524802
32,Миколаївська вулиця,54056,46.9423556,32.0481881
49,Театральна вулиця,54056,46.9451947,32.0475950
20,Миколаївська вулиця,54018,46.9427840,32.0461663
22,Миколаївська вулиця,54018,46.9422687,32.0456966
36,Миколаївська вулиця,54056,46.9432199,32.0478622
34Б,Миколаївська вулиця,54056,46.9432585,32.0491258
34,Миколаївська вулиця,54056,46.9428339,32.0486435
38,Миколаївська вулиця,54056,46.9426731,32.0472142
30,Миколаївська вулиця,54056,46.9418811,32.0477146
34а,Миколаївська вулиця,54056,46.9428219,32.0498610
24,Миколаївська вулиця,54018,46.9414276,32.0460177
64а,проспект Миру,54056,46.9409218,32.0598625
3,Миколаївська вулиця,54034,46.9507022,32.0404798
42а,вулиця 1 Лінія,54034,46.9513135,32.0415457
11,проспект Миру,54034,46.9507647,32.0430260
3а,Миколаївська вулиця,54034,46.9501939,32.0407394
11б,проспект Миру,54034,46.9502856,32.0434568
76а,Південна вулиця,54034,46.9497822,32.0432694
4,Миколаївська вулиця,54034,46.9510955,32.0407700
6а,Миколаївська вулиця,54034,46.9508070,32.0418107
13,проспект Миру,54034,46.9500154,32.0440330
9а,проспект Миру,54034,46.9511514,32.0424518
12,Миколаївська вулиця,54034,46.9493773,32.0416968
8а,Миколаївська вулиця,54034,46.9504322,32.0419556
10а,Миколаївська вулиця,54034,46.9500533,32.0421651
12а,Миколаївська вулиця,54034,46.9496912,32.0420046
74а,Південна вулиця,54034,46.9496121,32.0424926
5,Миколаївська вулиця,54034,46.9495753,32.0410902
14,проспект Миру,54034,46.9518761,32.0427436
4а,Миколаївська вулиця,54034,46.9510547,32.0412574
13а,проспект Миру,54034,46.9500107,32.0427503
7,Миколаївська вулиця,54034,46.9490496,32.0413844
8,Миколаївська вулиця,54034,46.9502323,32.0412563
26,вулиця Олеся Бердника,54034,46.9494759,32.0388270
44,вулиця 1 Лінія,54034,46.9514259,32.0407041
9,проспект Миру,54034,46.9515066,32.0419426
31а,11-та Поздовжня вулиця,54034,46.9517937,32.0467633
42,вулиця 1 Лінія,54034,46.9515765,32.0412875
130,вулиця Космонавтів,54049,46.9630619,32.0738124
130б,вулиця Космонавтів,54049,46.9635158,32.0729352
130а,вулиця Космонавтів,54049,46.9639775,32.0735538
20/3,проспект Корабелів,54052,46.8534552,32.0101411
20/1,проспект Корабелів,54052,46.8532223,32.0092352
323/2,Богоявленський проспект,54052,46.8531979,32.0112357
20/2,проспект Корабелів,54052,46.8529288,32.0097088
12,проспект Корабелів,54052,46.8560863,32.0107448
18а,проспект Корабелів,54052,46.8545754,32.0121285
5в,вулиця Олега Ольжича,54052,46.8512602,32.0062743
141,вулиця Марка Кропивницького,54003,46.9682711,32.0136981
143,вулиця Марка Кропивницького,54003,46.9680753,32.0146639
34,вулиця Вадима Благовісного,54030,46.9771067,31.9857242
52,Спаська вулиця,54001,46.9726370,31.9945098
50,Спаська вулиця,54001,46.9731716,31.9936835
67,Центральний проспект,54017,46.9667612,31.9830268
18,Адміральська вулиця,54001,46.9760891,31.9919771
23,Адміральська вулиця,54001,46.9756564,31.9913245
21,Адміральська вулиця,54001,46.9760816,31.9904030
19,Адміральська вулиця,54001,46.9761575,31.9895407
16,Адміральська вулиця,54001,46.9763128,31.9912583
4б,Адміральська вулиця,54030,46.9785750,31.9862101
14,Адміральська вулиця,54001,46.9765369,31.9906946
10а,Адміральська вулиця,54001,46.9771389,31.9889761
17а,Адміральська вулиця,54001,46.9762822,31.9888581
17,Адміральська вулиця,54001,46.9765368,31.9889602
15,Адміральська вулиця,54001,46.9766780,31.9885802
7,Лісова вулиця,54048,47.0158040,31.9145071
5,Лісова вулиця,54048,47.0151754,31.9141814
28,вулиця Героїв Рятувальників,54017,46.9628860,31.9853405
158,Центральний проспект,54003,46.9658000,32.0154878
160,Центральний проспект,54003,46.9658412,32.0164228
162,Центральний проспект,54003,46.9659633,32.0170011
47,6-та Слобідська вулиця,54003,46.9629066,32.0222912
51,6-та Слобідська вулиця,54003,46.9620413,32.0218862
120,вулиця Ігоря Бедзая,54003,46.9618895,32.0206554
49,6-та Слобідська вулиця,54003,46.9624683,32.0220913
122,вулиця Ігоря Бедзая,54003,46.9617332,32.0214904
45,6-та Слобідська вулиця,54003,46.9629707,32.0215960
116,вулиця Ігоря Бедзая,54003,46.9621563,32.0193411
118,вулиця Ігоря Бедзая,54003,46.9618474,32.0196384
3б,вулиця Олега Ольжича,54052,46.8519591,32.0054486
3в,вулиця Олега Ольжича,54052,46.8516640,32.0057764
3а,вулиця Олега Ольжича,54052,46.8523592,32.0053503
118Б,вулиця Ігоря Бедзая,54000,46.9629238,32.0203225
8,Озерна вулиця,54058,46.9508149,31.9442797
10,Озерна вулиця,54058,46.9506587,31.9447884
2,Озерна вулиця,54058,46.9519772,31.9436701
4,Озерна вулиця,54058,46.9516091,31.9435218
12,Озерна вулиця,54058,46.9511211,31.9454211
46,Лазурна вулиця,54058,46.9483230,31.9384053
23,вулиця Вадима Благовісного,54006,46.9766800,31.9831515
91,вулиця Олексія Вадатурського,54020,46.9586333,31.9770617
2а,Курортна вулиця,54038,46.9546802,31.9485468
44,Лазурна вулиця,54058,46.9478384,31.9372271
20,Погранична вулиця,54020,46.9608966,31.9820224
74,Велика Морська вулиця,54001,46.9722757,31.9909777
3г,вулиця Олега Ольжича,54052,46.8524052,32.0064234
3д,вулиця Олега Ольжича,54052,46.8528431,32.0055916
11,вулиця Айвазовського,54052,46.8520883,32.0017263
1а,вулиця Олега Ольжича,54052,46.8516889,32.0022017
13,вулиця Айвазовського,54052,46.8522094,32.0034009
11а,вулиця Айвазовського,54052,46.8528726,32.0035508
11б,вулиця Айвазовського,54052,46.8526752,32.0030553
11в,вулиця Айвазовського,54052,46.8524767,32.0025557
6-А,вулиця Айвазовського,54052,46.8539212,32.0032940
325/2,Богоявленський проспект,54052,46.8511503,32.0098878
325/3,Богоявленський проспект,54052,46.8513303,32.0107141
4,вулиця Айвазовського,54052,46.8545513,32.0046117
6а,проспект Корабелів,54052,46.8547221,32.0027328
5,вулиця Айвазовського,54052,46.8538176,32.0042767
8,проспект Корабелів,54052,46.8563970,32.0066248
12г,проспект Корабелів,54052,46.8544162,32.0088322
4,проспект Корабелів,54052,46.8565792,32.0050563
2,проспект Корабелів,54052,46.8562748,32.0041145
2а,проспект Корабелів,54052,46.8552246,32.0047329
7,вулиця Айвазовського,54052,46.8556279,32.0036142
20,проспект Корабелів,54052,46.8527047,32.0079666
325/5,Богоявленський проспект,54052,46.8511293,32.0075741
325/4,Богоявленський проспект,54052,46.8510120,32.0085450
327/1,Богоявленський проспект,54052,46.8524604,32.0095163
327/2,Богоявленський проспект,54052,46.8520870,32.0086731
7а,вулиця Олега Ольжича,54052,46.8518726,32.0082411
325/1,Богоявленський проспект,54052,46.8522589,32.0098728
10б,проспект Корабелів,54052,46.8547274,32.0097931
12в,проспект Корабелів,54052,46.8554269,32.0103774
16а,проспект Корабелів,54052,46.8550781,32.0116039
12б,проспект Корабелів,54052,46.8547941,32.0109058
12а,проспект Корабелів,54052,46.8556157,32.0112668
12,Океанівська вулиця,54052,46.8579364,32.0109116
13,проспект Корабелів,54052,46.8566945,32.0136201
16,Океанівська вулиця,54052,46.8579001,32.0133497
9,проспект Корабелів,54052,46.8573868,32.0124097
14/1,Океанівська вулиця,54052,46.8577739,32.0119448
16/1,Океанівська вулиця,54052,46.8576432,32.0130328
20/1,Океанівська вулиця,54052,46.8575478,32.0145769
11,проспект Корабелів,54052,46.8568627,32.0122415
20,Океанівська вулиця,54052,46.8577082,32.0150316
14,Океанівська вулиця,54052,46.8580468,32.0123308
18/2,Океанівська вулиця,54052,46.8571206,32.0138802
14/2,Океанівська вулиця,54052,46.8573650,32.0118396
18,Океанівська вулиця,54052,46.8578033,32.0142388
18/1,Океанівська вулиця,54052,46.8575101,32.0140040
16/2,Океанівська вулиця,54052,46.8572302,32.0129199
8,Маріупольська вулиця,54001,46.9727987,31.9955160
16,проспект Корабелів,54052,46.8555530,32.0128370
16/1,проспект Корабелів,54052,46.8558135,32.0130836
340,Богоявленський проспект,54051,46.8569814,32.0163579
340/2,Богоявленський проспект,54052,46.8560026,32.0179725
340/1,Богоявленський проспект,54052,46.8564364,32.0166790
334,Богоявленський проспект,54050,46.8607968,32.0173963
95,Рибна вулиця,54049,46.8898049,32.0175045
15а,Озерна вулиця,54058,46.9491964,31.9425113
19,Озерна вулиця,54058,46.9478544,31.9433256
21,Озерна вулиця,54058,46.9474491,31.9424604
22,Лазурна вулиця,54058,46.9491048,31.9412270
306,Богоявленський проспект,54050,46.8729222,32.0205586
316,Богоявленський проспект,54050,46.8667817,32.0173283
318,Богоявленський проспект,54050,46.8655274,32.0177221
320,Богоявленський проспект,54050,46.8649772,32.0181869
322,Богоявленський проспект,54050,46.8648584,32.0172454
324,Богоявленський проспект,54050,46.8643317,32.0176905
326,Богоявленський проспект,54050,46.8636781,32.0171342
67,Янтарна вулиця,54050,46.8728665,32.0220214
70,Торгова вулиця,54050,46.8732544,32.0214472
285,Богоявленський проспект,54050,46.8670756,32.0157399
287,Богоявленський проспект,54050,46.8667744,32.0148703
289,Богоявленський проспект,54050,46.8663234,32.0148492
291,Богоявленський проспект,54050,46.8655465,32.0148717
299,Богоявленський проспект,54050,46.8641447,32.0159507
28,вулиця Металургів,54050,46.8677420,32.0120542
32,вулиця Металургів,54050,46.8676960,32.0130739
34,вулиця Металургів,54050,46.8676439,32.0140541
76,вулиця Металургів,54050,46.8674355,32.0179240
312А,Богоявленський проспект,54050,46.8697537,32.0182992
10,вулиця Металургів,54050,46.8674668,32.0095942
2,вулиця Медиків,54050,46.8651018,32.0117451
2,вулиця Металургів,54050,46.8680267,32.0072416
26а,вулиця Металургів,54050,46.8673869,32.0109506
2а,вулиця Медиків,54050,46.8646062,32.0120710
3,вулиця Медиків,54050,46.8660523,32.0109128
3,Новобудівельна вулиця,54039,46.8640553,32.0122583
34а,вулиця Металургів,54050,46.8670879,32.0141868
4,вулиця Медиків,54050,46.8657779,32.0116572
5,вулиця Медиків,54050,46.8667502,32.0096737
5,Рибна вулиця,54050,46.8636936,32.0131059
6,вулиця Металургів,54050,46.8678089,32.0087075
8,вулиця Медиків,54050,46.8670802,32.0119076
6а,вулиця Медиків,54050,46.8663705,32.0120761
7а,вулиця Медиків,54050,46.8660045,32.0098012
7,Рибна вулиця,54050,46.8652927,32.0129125
9,вулиця Медиків,54050,46.8671920,32.0102286
7,вулиця Медиків,54050,46.8670621,32.0089628
22,Океанівська вулиця,54051,46.8568013,32.0177330
24,Океанівська вулиця,54051,46.8568520,32.0189387
26,Океанівська вулиця,54051,46.8567945,32.0196834
336,Богоявленський проспект,54051,46.8581871,32.0168757
3/2,вулиця Медиків,54050,46.8666958,32.0107288
33,вулиця Металургів,54000,46.8666659,32.0129226
44,Громадянська вулиця,54017,46.9557694,31.9975103
46,Громадянська вулиця,54017,46.9552530,31.9974526
50,Ковальська вулиця,54020,46.9547424,31.9979726
52,Ковальська вулиця,54020,46.9554228,31.9979730
54,Ковальська вулиця,54020,46.9551175,31.9985003
11в,Озерна вулиця,54058,46.9518125,31.9400232
17; 17а,Озерна вулиця,54058,46.9498116,31.9434647
9,Озерна вулиця,54058,46.9527811,31.9400335
1,вулиця Генерала Олекси Алмазова,54038,46.9525546,31.9532594
3,вулиця Генерала Олекси Алмазова,54038,46.9529572,31.9520425
5,вулиця Генерала Олекси Алмазова,54038,46.9534046,31.9514807
3,Парусний провулок,54025,46.9956617,31.9995806
314/1,Богоявленський проспект,54050,46.8682259,32.0188696
314/2,Богоявленський проспект,54050,46.8686922,32.0187356
72,Торгова вулиця,54050,46.8732313,32.0230404
19,Велика Морська вулиця,54030,46.9785251,31.9741706
21,Велика Морська вулиця,54030,46.9784370,31.9749355
4а,Нікольська вулиця,54029,46.9772677,31.9671788
34,Лазурна вулиця,54058,46.9493799,31.9350026
1,Київська вулиця,54058,46.9542027,31.9427922
1,Київська вулиця,54058,46.9533858,31.9450107
9,Дачна вулиця,54038,46.9571199,31.9529303
1а,вулиця Генерала Олекси Алмазова,54038,46.9526210,31.9557430
56,вулиця Євгенія Логінова,54038,46.9543672,31.9633615
29,вулиця Євгенія Логінова,54038,46.9534757,31.9605390
25,вулиця Євгенія Логінова,54038,46.9539821,31.9592799
38б,вулиця Євгенія Логінова,54038,46.9571581,31.9608590
19а,Курортна вулиця,54038,46.9566475,31.9585864
19,Курортна вулиця,54038,46.9567395,31.9582863
15,вулиця Євгенія Логінова,54038,46.9551114,31.9591342
46,вулиця Євгенія Логінова,54038,46.9572749,31.9640305
54,вулиця Євгенія Логінова,54038,46.9557801,31.9625570
40,вулиця Євгенія Логінова,54038,46.9561554,31.9601006
17,вулиця Євгенія Логінова,54038,46.9547461,31.9597462
17,Курортна вулиця,54038,46.9568272,31.9579633
23,вулиця Євгенія Логінова,54038,46.9541328,31.9597609
11,вулиця Євгенія Логінова,54038,46.9560175,31.9582491
38/1,вулиця Євгенія Логінова,54038,46.9569708,31.9598364
44,вулиця Євгенія Логінова,54038,46.9571447,31.9624866
38,вулиця Євгенія Логінова,54038,46.9565129,31.9596140
48,вулиця Євгенія Логінова,54038,46.9567593,31.9645093
19б,вулиця Євгенія Логінова,54038,46.9532596,31.9575172
27,вулиця Євгенія Логінова,54038,46.9533162,31.9591699
19г,вулиця Євгенія Логінова,54038,46.9525321,31.9567569
52,вулиця Євгенія Логінова,54038,46.9557311,31.9634282
13,вулиця Євгенія Логінова,54038,46.9555686,31.9586876
44а,вулиця Євгенія Логінова,54038,46.9571723,31.9631843
19/1,вулиця Євгенія Логінова,54038,46.9537833,31.9612422
38в,вулиця Євгенія Логінова,54038,46.9570119,31.9615633
11/1,вулиця Євгенія Логінова,54038,46.9553717,31.9568012
46а,вулиця Євгенія Логінова,54038,46.9572448,31.9646007
21,вулиця Євгенія Логінова,54038,46.9541453,31.9603555
15а,вулиця Євгенія Логінова,54038,46.9548384,31.9573942
31,вулиця Євгенія Логінова,54038,46.9531303,31.9600837
33,вулиця Євгенія Логінова,54038,46.9524843,31.9591129
40/1,вулиця Євгенія Логінова,54038,46.9564854,31.9608337
19в,вулиця Євгенія Логінова,54038,46.9530058,31.9570335
35,вулиця Євгенія Логінова,54038,46.9518591,31.9576778
50а,вулиця Євгенія Логінова,54038,46.9566076,31.9630606
342,Богоявленський проспект,54051,46.8553314,32.0156626
30,Океанівська вулиця,54051,46.8567854,32.0215666
30а,Океанівська вулиця,54051,46.8563800,32.0206157
32,Океанівська вулиця,54051,46.8559342,32.0218019
32а,Океанівська вулиця,54051,46.8554105,32.0224091
32б,Океанівська вулиця,54051,46.8549895,32.0219503
32в,Океанівська вулиця,54051,46.8549125,32.0226917
34,Океанівська вулиця,54051,46.8562772,32.0227313
36,Океанівська вулиця,54051,46.8564307,32.0239478
28а,Океанівська вулиця,54051,46.8553974,32.0211082
162,вулиця Генерала Попеля,54051,46.8548917,32.0188604
170,вулиця Генерала Попеля,54051,46.8554620,32.0189239
28,Океанівська вулиця,54051,46.8557093,32.0197460
40,Океанівська вулиця,54051,46.8550348,32.0242569
30,вулиця Доктора Самойловича,54051,46.8583117,32.0242508
30а,вулиця Доктора Самойловича,54051,46.8581607,32.0250800
30б,вулиця Доктора Самойловича,54051,46.8582308,32.0259270
38,Океанівська вулиця,54051,46.8560769,32.0254281
38а,Океанівська вулиця,54051,46.8557526,32.0243789
38б,Океанівська вулиця,54051,46.8554501,32.0237920
40а,Океанівська вулиця,54051,46.8546750,32.0237209
40б,Океанівська вулиця,54051,46.8540109,32.0234259
40в,Океанівська вулиця,54051,46.8536011,32.0236021
42,Океанівська вулиця,54051,46.8553102,32.0254308
45,Океанівська вулиця,54051,46.8575310,32.0249587
46,Океанівська вулиця,54051,46.8567831,32.0250719
47,Океанівська вулиця,54051,46.8576871,32.0259085
48,Океанівська вулиця,54051,46.8570363,32.0254051
52,Океанівська вулиця,54051,46.8563131,32.0268275
54,Океанівська вулиця,54051,46.8555614,32.0265894
58,Океанівська вулиця,54051,46.8544667,32.0251106
58а,Океанівська вулиця,54051,46.8541251,32.0245737
60; 60а,Океанівська вулиця,54051,46.8540093,32.0257706
64,Океанівська вулиця,54051,46.8535712,32.0249831
50,Океанівська вулиця,54051,46.8568384,32.0262079
165,вулиця Генерала Попеля,54051,46.8540120,32.0192261
56,Океанівська вулиця,54051,46.8546557,32.0268849
56а,Океанівська вулиця,54051,46.8546812,32.0261833
62а,Океанівська вулиця,54051,46.8536402,32.0266115
79а,Тернопільська вулиця,54051,46.8495304,32.0206627
323/3,Богоявленський проспект,54052,46.8529858,32.0109542
2,Дачна вулиця,54038,46.9570454,31.9507477
1,Курортна вулиця,54038,46.9542781,31.9512193
3,Курортна вулиця,54038,46.9549148,31.9523162
3а,Курортна вулиця,54038,46.9541302,31.9520920
3б,Курортна вулиця,54038,46.9541248,31.9528230
5,Курортна вулиця,54038,46.9552270,31.9532671
7а,Курортна вулиця,54038,46.9547060,31.9556080
7,Курортна вулиця,54038,46.9543787,31.9538819
11/1,Курортна вулиця,54038,46.9562603,31.9562431
13,Курортна вулиця,54038,46.9565106,31.9569779
13/1,вулиця Євгенія Логінова,54038,46.9546622,31.9565126
15,Курортна вулиця,54038,46.9567619,31.9574102
2,Курортна вулиця,54038,46.9549972,31.9507383
11,Курортна вулиця,54038,46.9561602,31.9556947
9а,Курортна вулиця,54038,46.9555049,31.9555265
10,Курортна вулиця,54038,46.9560282,31.9539220
10а,Курортна вулиця,54038,46.9564469,31.9539007
12,Курортна вулиця,54038,46.9562531,31.9546055
12а,Курортна вулиця,54038,46.9566249,31.9545010
14,Курортна вулиця,54038,46.9566700,31.9549925
4,Курортна вулиця,54038,46.9552618,31.9515636
6,Курортна вулиця,54038,46.9555471,31.9524496
6а,Курортна вулиця,54038,46.9558946,31.9518665
8,Курортна вулиця,54038,46.9558172,31.9532516
8а,Курортна вулиця,54038,46.9562009,31.9531101
2,Котельна вулиця,54003,46.9714370,32.0183014
102,вулиця Космонавтів,54028,46.9525205,32.0645419
71,вулиця Космонавтів,54028,46.9527717,32.0664205
92,Херсонське шосе,54028,46.9515137,32.0653438
104а,вулиця Космонавтів,54028,46.9531315,32.0652712
104,вулиця Космонавтів,54028,46.9538788,32.0660647
120,вулиця Космонавтів,54028,46.9573449,32.0688659
122,вулиця Космонавтів,54028,46.9577417,32.0694399
122а,вулиця Космонавтів,54028,46.9577845,32.0688375
122б,вулиця Космонавтів,54028,46.9582297,32.0694333
124,вулиця Космонавтів,54028,46.9586073,32.0698805
124а,вулиця Космонавтів,54028,46.9592394,32.0689696
67,вулиця Космонавтів,54028,46.9518752,32.0654514
69,вулиця Космонавтів,54028,46.9522934,32.0658202
73,вулиця Космонавтів,54028,46.9538198,32.0671426
73а,вулиця Космонавтів,54028,46.9533615,32.0667464
94,Херсонське шосе,54028,46.9513624,32.0660628
126,вулиця Космонавтів,54028,46.9599284,32.0684455
126/1,вулиця Космонавтів,54028,46.9596331,32.0699860
126/2,вулиця Космонавтів,54028,46.9596628,32.0691781
126/3,вулиця Космонавтів,54028,46.9591459,32.0703230
116,вулиця Космонавтів,54028,46.9563707,32.0681575
118,вулиця Космонавтів,54028,46.9569326,32.0685038
79,вулиця Космонавтів,54028,46.9556000,32.0688276
106,вулиця Космонавтів,54028,46.9546863,32.0664046
108,вулиця Космонавтів,54028,46.9549253,32.0670239
108а,вулиця Космонавтів,54028,46.9553072,32.0666808
110,вулиця Космонавтів,54028,46.9554597,32.0672462
110а,вулиця Космонавтів,54028,46.9557627,32.0671084
112,вулиця Космонавтів,54028,46.9558751,32.0676016
75,вулиця Космонавтів,54028,46.9543920,32.0676423
77,вулиця Космонавтів,54028,46.9549939,32.0681725
77а,вулиця Космонавтів,54028,46.9546255,32.0690781
25/2,Набережна вулиця,54001,46.9732491,32.0024692
11,Дачна вулиця,54038,46.9574074,31.9537895
11а,Дачна вулиця,54038,46.9569286,31.9535610
13,Дачна вулиця,54038,46.9573708,31.9545073
13а,Дачна вулиця,54038,46.9571124,31.9541457
31,вулиця Генерала Олекси Алмазова,54038,46.9593878,31.9495615
59,Біла вулиця,54038,46.9590520,31.9520655
59а,Біла вулиця,54038,46.9594878,31.9530178
61,Біла вулиця,54038,46.9586685,31.9510897
61а,Біла вулиця,54038,46.9593742,31.9505766
63,Біла вулиця,54038,46.9582874,31.9501166
65,Біла вулиця,54038,46.9578328,31.9493666
7,Дачна вулиця,54038,46.9568533,31.9521017
9а,Дачна вулиця,54038,46.9566989,31.9527627
25,вулиця Генерала Олекси Алмазова,54038,46.9579892,31.9489168
27,вулиця Генерала Олекси Алмазова,54038,46.9583959,31.9490511
29,вулиця Генерала Олекси Алмазова,54038,46.9587652,31.9495370
35,вулиця Генерала Олекси Алмазова,54038,46.9599654,31.9496966
33,вулиця Генерала Олекси Алмазова,54038,46.9598806,31.9502878
5а,вулиця Євгенія Логінова,54038,46.9597253,31.9512076
1б,вулиця Олега Ольжича,54052,46.8515990,32.0028351
15,проспект Корабелів,54052,46.8565826,32.0145055
5-А,вулиця Доктора Самойловича,54052,46.8598733,32.0085127
8а,вулиця Доктора Самойловича,54052,46.8597884,32.0093066
9,Океанівська вулиця,54052,46.8592335,32.0082398
52а/1,Передова вулиця,54018,46.9399151,32.0279679
25,Театральна вулиця,54018,46.9405589,32.0306683
43,Театральна вулиця,54018,46.9439697,32.0422935
2,Морехідна вулиця,54038,46.9656806,31.9588272
45,вулиця Генерала Олекси Алмазова,54038,46.9630085,31.9508943
8/1,вулиця Євгенія Логінова,54038,46.9616003,31.9511021
47,вулиця Генерала Олекси Алмазова,54038,46.9627439,31.9512929
125,Прибузька вулиця,54022,46.9180052,32.0402539
145,Прибузька вулиця,54022,46.9181091,32.0422152
60,Прибузька вулиця,54022,46.9186998,32.0366384
85,Прибузька вулиця,54022,46.9181376,32.0362353
127,Прибузька вулиця,54022,46.9181295,32.0404920
14,Морехідна вулиця,54020,46.9668000,31.9661487
30,вулиця Георгія Ґонґадзе,54020,46.9656267,31.9664685
34,Велика Морська вулиця,54030,46.9768737,31.9782495
22,Велика Морська вулиця,54030,46.9788179,31.9753150
24,Велика Морська вулиця,54030,46.9784481,31.9758275
20,Велика Морська вулиця,54030,46.9792571,31.9756959
40/1,вулиця Павла Скоропадського,54030,46.9703245,31.9839579
22а,вулиця Марка Кропивницького,54030,46.9740896,31.9816146
29,Сінна вулиця,54020,46.9635790,31.9796155
80,вулиця Вадима Благовісного,54001,46.9720000,32.0011069
10,проспект Миру,54034,46.9525257,32.0417994
38,вулиця 1 Лінія,54034,46.9522832,32.0426273
2/6,Знам'янська вулиця,54037,46.9167137,32.0765073
10,Миколаївська вулиця,54034,46.9497340,32.0415028
6,Миколаївська вулиця,54034,46.9507347,32.0409657
20б,вулиця Олеся Бердника,54034,46.9507134,32.0381330
22,вулиця Олеся Бердника,54034,46.9501374,32.0384510
92,вулиця Гетьмана Сагайдачного,54050,46.8688752,32.0196574
124,вулиця Гетьмана Сагайдачного,54050,46.8683891,32.0236436
10а,Морехідна вулиця,54029,46.9664135,31.9637668
10,вулиця Леваневців,54038,46.9633090,31.9493550
2,вулиця Михайла Козлова,54036,46.9975778,31.9459594
4,Рибна вулиця,54000,46.8642671,32.0137429
297,Богоявленський проспект,54000,46.8643209,32.0148461
79 Б,вулиця Сил Територіальної оборони України,54037,46.9159126,32.0609089
13б,провулок Кобера,54018,46.9310919,32.0415821
2а,вулиця Євгена Лапчевського,54020,46.9641845,31.9736702
1,8-ма Поперечна вулиця,54020,46.9623251,31.9703262
81,Шосейна вулиця,54020,46.9635210,31.9703675
83,Шосейна вулиця,54020,46.9631129,31.9707034
75В,проспект Героїв України,54025,47.0073419,31.9979655
79б,Тернопільська вулиця,54052,46.8508702,32.0217471
43,вулиця Космонавтів,54018,46.9352336,32.0364566
3,Світанкова вулиця,54036,46.9914695,31.9456023
5,вулиця Павла Скоропадського,54036,46.9723829,31.9765210
91,Рибна вулиця,54049,46.8863515,32.0165706
31,Маріупольська вулиця,54001,46.9696571,31.9928343
33,Маріупольська вулиця,54001,46.9690200,31.9923310
61,Центральний проспект,54017,46.9669734,31.9814446
17,вулиця Захисників Миколаєва,54000,46.9686021,31.9853397
22/1,вулиця Традиційна,54007,46.9644488,32.0671799
22/2,вулиця Традиційна,54007,46.9638199,32.0676055
50,Квітнева вулиця,54007,46.9633865,32.0659382
128,Новобузька вулиця,54031,46.9709541,32.0773212
144,вулиця Космонавтів,54031,46.9692791,32.0790202
142,вулиця Космонавтів,54031,46.9680606,32.0779144
142в,вулиця Космонавтів,54031,46.9687187,32.0776836
70,вулиця Олександра Янати,54007,46.9722168,32.0626189
107І,Троїцька вулиця,54007,46.9691413,32.0616462
4а,Квітнева вулиця,54007,46.9665959,32.0578694
39,Привільна вулиця,54039,46.9893807,32.0216110
73а,Привільна вулиця,54039,46.9950737,32.0184916
9а,вулиця Олега Бондаренка,54018,46.9402615,32.0424228
7,вулиця Олега Бондаренка,54018,46.9409177,32.0416998
109,Шосейна вулиця,54020,46.9604734,31.9722955
107,вулиця Гліба Бабіча,54020,46.9616469,31.9737394
85,Шосейна вулиця,54020,46.9627598,31.9710546
138а,вулиця Марка Кропивницького,54055,46.9681110,32.0094000
21,вулиця Вінграновського,54007,46.9709020,32.0639406
58,4 Повздовжня вулиця,54028,46.9564884,32.0626226
73а,вулиця Аркасівська,54020,46.9605398,31.9741468
3а,вулиця Лєскова,54020,46.9525374,31.9880337
74,1-ша Слобідська вулиця,54055,46.9561358,32.0077252
42,1-ша Слобідська вулиця,54055,46.9611415,32.0075760
78,Мала Морська вулиця,54017,46.9560419,31.9952608
261,Центральний проспект,54003,46.9634502,32.0271018
122/1,1-ша Слобідська вулиця,54002,46.9505513,32.0057924
2,1-ша Екіпажна вулиця,54039,46.9783110,32.0211507
51а,Ламбертівська вулиця,54036,47.0001321,31.9478606
38,Вільна вулиця,54037,46.9161539,32.0528166
128а/1,вулиця Космонавтів,54049,46.9626226,32.0723721
142/1,вулиця Космонавтів,54000,46.9712568,32.0826616
11,вулиця Вʼячеслава Чорновола,54028,46.9537839,32.0691442
13,вулиця Вʼячеслава Чорновола,54028,46.9543889,32.0696627
15,вулиця Вʼячеслава Чорновола,54028,46.9549834,32.0701728
21,3-тя Повздовжня вулиця,54028,46.9553853,32.0696900
70,4 Повздовжня вулиця,54028,46.9540648,32.0679908
72,4 Повздовжня вулиця,54028,46.9538247,32.0685625
14а,Курортна вулиця,54038,46.9577403,31.9566066
52,вулиця Левського,54046,47.0264112,32.0073486
41,вулиця Христо Ботєва,54046,47.0337784,32.0058944
143,Погранична вулиця,54055,46.9572983,32.0200494
10,вулиця Гарнізонна,54057,46.9395287,31.9025161
5,вулиця Генерала Олекси Алмазова,54038,46.9524935,31.9477159
15,Кобзарська вулиця,54051,46.8457589,32.0124841
338/1,Богоявленський проспект,54051,46.8576141,32.0160799
27,вулиця Героїв Рятувальників,54001,46.9684286,31.9876169
5,вулиця Гетьмана Мазепи,54052,46.8339857,32.0120822
1,вулиця Гетьмана Мазепи,54052,46.8331812,32.0116319
7,вулиця Гетьмана Мазепи,54052,46.8343530,32.0122942
2,вулиця Гетьмана Мазепи,54052,46.8332271,32.0121312
3,вулиця Гетьмана Мазепи,54052,46.8335615,32.0118471
34а,вулиця Гліба Бабіча,54029,46.9712402,31.9697212
7,Молдавська вулиця,54059,46.9250859,31.9788932
179,Силікатна вулиця,54048,47.0146613,31.9240247
15,вулиця Шнеєрсона,54001,46.9709737,31.9956196
1,Каботажний узвіз,54002,46.9442399,31.9927095
36,Аеродромна вулиця,54048,47.0268602,31.9635765
50,Океанівська вулиця,54000,46.8572072,32.0289413
18,вулиця Генерала Олекси Алмазова,54038,46.9648660,31.9520241
34д,вулиця Панаса Саксаганського,54017,46.9634531,31.9876236
12,Водопровідна вулиця,54029,46.9699105,31.9660371
19,3-тя Поперечна вулиця,54029,46.9701496,31.9666249
21,2-га Поперечна вулиця,54029,46.9704016,31.9664956
23,2-га Поперечна вулиця,54029,46.9705145,31.9667753
31,2-га Поперечна вулиця,54029,46.9711162,31.9686813
4,Водопровідна вулиця,54029,46.9713036,31.9653282
40,2-га Поперечна вулиця,54029,46.9720358,31.9696818
42,2-га Поперечна вулиця,54029,46.9721730,31.9698028
44,2-га Поперечна вулиця,54029,46.9723411,31.9698507
46,2-га Поперечна вулиця,54029,46.9724379,31.9699969
48,2-га Поперечна вулиця,54029,46.9725206,31.9700536
50,2-га Поперечна вулиця,54029,46.9726839,31.9701189
52,2-га Поперечна вулиця,54029,46.9727483,31.9703531
54,2-га Поперечна вулиця,54029,46.9729002,31.9705171
8,Водопровідна вулиця,54029,46.9704641,31.9657187
62,Океанівська вулиця,54051,46.8540879,32.0272068
2/7,вулиця Китобоїв,54056,46.9437288,32.0594191
23в,Омеляновича-Павленка вулиця,54046,47.0428251,32.0195356
312Б,Богоявленський проспект,54050,46.8694450,32.0187241
4,вулиця Сергія Гуссіді,54039,46.9877329,32.0266665
53,вулиця Гліба Бабіча,54029,46.9697573,31.9698126
6,Озерна вулиця,54058,46.9512658,31.9437605
4,Адміральська вулиця,54001,46.9780584,31.9861038
4,Верхня вулиця,54048,47.0143542,31.9241309
171,Силікатна вулиця,54048,47.0149413,31.9245883
17,1-ша Піщана вулиця,54048,47.0163776,31.9243869
328,Богоявленський проспект,54050,46.8627422,32.0174032
8,Котельна вулиця,54003,46.9723347,32.0191887
1,Херсонське шосе,54000,46.9589751,32.0400314
4,2-га Екіпажна вулиця,54000,46.9735261,32.0180427
5,2-га Екіпажна вулиця,54003,46.9734088,32.0193756
177,Силікатна вулиця,54048,47.0147554,31.9241879
2,Відрадна вулиця,54048,47.0146841,31.9217153
33,1-ша Піщана вулиця,54048,47.0150454,31.9216344
31,1-ша Піщана вулиця,54048,47.0151312,31.9217305
29,1-ша Піщана вулиця,54048,47.0152339,31.9219899
27,1-ша Піщана вулиця,54048,47.0153132,31.9220879
218,Силікатна вулиця,54048,47.0120760,31.9181804
51,1-ша Піщана вулиця,54048,47.0140164,31.9194913
53,1-ша Піщана вулиця,54048,47.0138925,31.9194036
55,1-ша Піщана вулиця,54048,47.0137837,31.9190893
57,1-ша Піщана вулиця,54048,47.0136688,31.9188414
57а,1-ша Піщана вулиця,54048,47.0135291,31.9186026
47,1-ша Піщана вулиця,54048,47.0141744,31.9201472
49,1-ша Піщана вулиця,54048,47.0141690,31.9198836
45,1-ша Піщана вулиця,54048,47.0143153,31.9202521
43,1-ша Піщана вулиця,54048,47.0144673,31.9204925
41,1-ша Піщана вулиця,54048,47.0145624,31.9206053
37,1-ша Піщана вулиця,54048,47.0147008,31.9209489
39,1-ша Піщана вулиця,54048,47.0146452,31.9208234
35,1-ша Піщана вулиця,54048,47.0146281,31.9213088
3,Відрадна вулиця,54048,47.0144932,31.9214718
1,Відрадна вулиця,54048,47.0143953,31.9215538
206а,Силікатна вулиця,54048,47.0127595,31.9195473
192,Силікатна вулиця,54048,47.0135460,31.9208578
186,Силікатна вулиця,54048,47.0137335,31.9213209
193,Силікатна вулиця,54048,47.0135064,31.9234778
199,Силікатна вулиця,54048,47.0139844,31.9225309
191,Силікатна вулиця,54048,47.0139850,31.9230443
96/2,вулиця Ігоря Бедзая,54055,46.9632034,32.0085878
96/1,вулиця Ігоря Бедзая,54055,46.9627653,32.0088852
41,Погранична вулиця,54055,46.9581958,31.9988540
23,1-ша Піщана вулиця,54048,47.0157069,31.9240595
312/1,Богоявленський проспект,54050,46.8696156,32.0181037
216,вулиця Ігоря Бедзая,54003,46.9612763,32.0298775
12/6,вулиця Євгенія Логінова,54038,46.9618673,31.9545728
1/1,Спортивна вулиця,54015,46.9714928,31.9597281
214,вулиця Ігоря Бедзая,54003,46.9612276,32.0296441
1а,Чорноморська вулиця,54036,46.9902081,31.9478524
117,Котельна вулиця,54003,46.9801990,32.0308981
212а,вулиця Ігоря Бедзая,54003,46.9611553,32.0292841
212б,вулиця Ігоря Бедзая,54003,46.9614143,32.0292378
10а,вулиця Віталія Бохонка,54042,46.9474341,32.0328629
50,вулиця Євгенія Логінова,54038,46.9565403,31.9621397
32,вулиця Захисників Миколаєва,54001,46.9687192,31.9869175
14,провулок Григорія Сковороди,54022,46.9159758,32.0404415
12,провулок Григорія Сковороди,54022,46.9160677,32.0402348
14в,вулиця Архітектора Старова,54002,47.0148614,32.0084200
14б,вулиця Архітектора Старова,54002,47.0154547,32.0085077
21,5-та Козацька вулиця,54049,46.8952046,32.0392810
28,вулиця Олеся Бердника,54034,46.9485285,32.0393222
26,Бузкова вулиця,54048,47.0274837,31.9672696
5,1-й Аеродромний провулок,54048,47.0269306,31.9673235
11,1-й Аеродромний провулок,54048,47.0275976,31.9665901
28,Бузкова вулиця,54048,47.0276560,31.9671036
3,1-й Аеродромний провулок,54048,47.0267673,31.9675984
24,Бузкова вулиця,54048,47.0273555,31.9676374
16,Аеродромна вулиця,54048,47.0284657,31.9671294
10,2-й Аеродромний провулок,54048,47.0261954,31.9655939
8,2-й Аеродромний провулок,54048,47.0260500,31.9658857
12,2-й Аеродромний провулок,54048,47.0264101,31.9654093
20к,проспект Героїв України,54025,47.0025995,31.9965407
75Г,проспект Героїв України,54025,47.0070693,31.9982961
20-В,Океанівська вулиця,54050,46.8583050,32.0219254
8,вулиця Металургів,54000,46.8679629,32.0110502
69В,проспект Героїв України,54025,47.0059747,31.9979625
212,вулиця Ігоря Бедзая,54003,46.9612206,32.0286026
210,вулиця Ігоря Бедзая,54003,46.9615378,32.0282069
212/1,вулиця Ігоря Бедзая,54003,46.9612923,32.0283766
20в,3-тя Поперечна вулиця,54029,46.9700378,31.9669863
21в,2-га Поперечна вулиця,54029,46.9705421,31.9661403
17,2-га Поперечна вулиця,54029,46.9705036,31.9659599
118а,вулиця Космонавтів,54028,46.9568540,32.0680287
24,Адміральська вулиця,54001,46.9738471,31.9999269
14а,Лазурна вулиця,54058,46.9512792,31.9377442
16б,Лазурна вулиця,54058,46.9505534,31.9358816
16в,Лазурна вулиця,54058,46.9500984,31.9357457
1,вулиця Традиційна,81600,46.9706934,32.0600682
3а,Парусний провулок,54025,46.9962457,32.0013345
50,проспект Миру,54056,46.9454306,32.0542782
11а,Передова вулиця,54018,46.9430213,32.0296101
9,Лісова вулиця,54048,47.0165720,31.9141463
48,Лазурна вулиця,54058,46.9497033,31.9391570
8,вулиця Айвазовського,54052,46.8539377,32.0059006
8а,проспект Корабелів,54052,46.8561168,32.0078916
164а,вулиця Генерала Попеля,54051,46.8537643,32.0210783
42,вулиця Євгенія Логінова,54038,46.9557825,31.9611235
154,вулиця Марка Кропивницького,54003,46.9692728,32.0135068
3,вулиця Китобоїв,54056,46.9424833,32.0608327
73,Електронна вулиця,54031,46.9680274,32.0741239
138а,вулиця Космонавтів,54031,46.9667636,32.0767303
1,вулиця Медиків,54050,46.8647415,32.0103475
9,проспект Героїв України,54000,46.9878446,32.0010480
8,Робоча вулиця,54029,46.9736590,31.9718248
97/1,вулиця Металургів,54050,46.8664673,32.0239660
143а,вулиця Марка Кропивницького,54003,46.9684286,32.0149871
36,вулиця Металургів,54050,46.8674818,32.0150478
