House number,Street name,Postal code,Latitude,Longitude
32361124,بیشه حبیب کوی ویلا,8184816611,32.6425309,51.6455485
1,مجمر,81668,32.6408590,51.6775168
18,کاویان,81739854,32.6256314,51.6638735
1,کنگاز,81591111,32.6609764,51.7461635
18,کاویان,81739-85461,32.6256831,51.6633740
46,نواب صفوی,8155636866,32.6628390,51.6891346
ask 118,Tohid . Esfahan,0098,32.6247565,51.6591379
195,استانداری,81467-93371,32.6553188,51.6752284
"no. 201, second floor, orkide shopping center",خاقانی,8175864891,32.6345197,51.6533673
نبش کوچه 49,امام خمینی,+98313,32.6872984,51.6343053
27;House 27,مسجد سید,000000,32.6664270,51.6602625
اینترنت بیسان,صباحی,8199874941,32.6712606,51.7154694
10,آیت الله ارباب,8165816461,32.6302377,51.6873738
"4th Floor, Unit 404",Khorram Street,8183695744,32.6740315,51.6497567
"32.66181277407115,51.70858059078456",جی غربی،ابتدای کوچه شهید کوهی,8156854691,32.6617242,51.7085663
1,اشرفی اصفهانی ۱۸,18885,32.7010267,51.6995816
نبش کوجه شماره2,آیت الله ارباب,8165867471,32.6304071,51.6860665
315,باغ گلدسته,8145613339,32.6515933,51.6721204
2,آل محمد ، هما ، مجتکع نگین ، واحد 2,8193753987,32.7036108,51.6825880
6,هما,81 9375 3988,32.7035891,51.6826050
468,کاوه,8135798477,32.6857442,51.6726297
13,چهارراه رودکی,8176796171,32.6296782,51.6383918
466,کاوه,8138798468,32.6857169,51.6726321
54,محتشم کاشانی,8175954319,32.6288885,51.6398057
تابلوساز حاجی پور,عبدالرزاق,8148691976,32.6664765,51.6773932
17,کوی بافندگان,031,32.6051951,51.5774994
4,امام خمینی نبش خلیفه سلطانی ساختمان ارگ اریا,031,32.7041352,51.6124681
بعد از چهاراه گلزار نرسیده به چهاراه ملک روبروی کوچه 16 مجتمع امید هشت بهشت طبقه 4 واحد 1,هشت بهشت غربی,8154749435,32.6522463,51.6877779
226,رباط دوم (سید رضی),226,32.7096881,51.6607667
82,یاس,8196854399,32.7061668,51.6755588
22,دکتر شریعتی,53714,32.6524287,51.7616618
2704,علامه مجلسی,8196765375,32.6771942,51.6881462
5,ارغوانیه - بلوار دانشگاه - دانشگاه آزاد اسلامی واحد اصفهان - مرکز رشد واحدهای فن آوری,81551-39998,32.6409573,51.7839956
ساختمان ماکان5 واحد2,نیکبخت غربی,8163993488,32.6266390,51.6689714
ساختمان ماکان5 واحد2,نیکبخت غربی,8163993488,32.6265449,51.6690332
ساختمان ماکان5 واحد2,نیکبخت غربی,8163993488,32.6265435,51.6689631
ساختمان ماکان5 واحد2,نیکبخت غربی,8163993488,32.6266327,51.6690329
27,شهید شوشی,81467-93371,32.6548132,51.6761097
18,یاقوت ۳,8196164738,32.7375080,51.6496717
۱۰۸,هشت بهشت شرقی,۸۱۵۷۱۷۶۹۹۰,32.6479855,51.7214122
193,استانداری,81467-93491,32.6547002,51.6754055
1016,East hasht behesht,8157958955,32.6479211,51.7216164
335,"Isfahan, خیابان رباط. بعداز چهارراه باهنر. نبش کوچه 29. ابزارفروشی پولاد, Jomhouri-e-Eslami Square",81387 59153,32.6834256,51.6538313
بن بست 60 حافظ,بلوارکشاورز چهارراه مفتح به سمت سه راه سیمین,8174715556,32.6237112,51.6196664
93,دکتر بهشتی,8134964465,32.6536076,51.6531965
90,2thAsgarieh,81998,32.6786501,51.7162036
11,سپاه,8194854466,32.7036156,51.6436391
7,باغ به,8173634933,32.6410306,51.6580315
7,باغ به,8173634933,32.6409837,51.6579354
22,انقلاب اسلامی,8196618173,32.7226080,51.6467472
7,کهندژ (اشرفی اصفهانی) نرسیده به کوچه 93,8187853468,32.6748984,51.6070793
94,چهار باغ بالا,8173688104,32.6384387,51.6662433
4,مسجد علی,8156166499,32.6564331,51.7496963
6,مسعود کیانی,8163733691,32.6350727,51.6702221
۰۱,گل بنفشه,8196995313,32.7237668,51.6956070
207,ایمان,8193845668,32.7090175,51.6928990
308,آمادگاه,8145613339,32.6503859,51.6704350
217,دکتر بختیار مالکی,8134893799,32.6544945,51.6554647
477,آیت الله کاشانی,8136994149,32.6648028,51.6518164
129,مهدیه جنوبی,8159955666,32.6478839,51.7295083
روبروی بانک ملی,کشاورز,8174559943,32.6232316,51.6350683
38,رضا قربانی,8193773144,32.6988567,51.6976801
10000,4bagh,123456,32.6449686,51.6668250
A1,شمس آبادی/کوالالامپور,8134635956,32.6501692,51.6662340
پلاک 50,کنارگذر خرازی,۸۱۸۵۶۷۵۳۹۷,32.6444471,51.6416731
716,ناصر خسرو,8196694461,32.7253522,51.6435700
81,کار و کارگر,8195157767,32.7413295,51.5850668
دیپلمات A,خواجه عمید جنوبی,8199933401,32.6596975,51.7165151
1,احمدیه,8136855691,32.6610441,51.6576407
2,شیخ صدوق جنوبی,81739-85461,32.6210662,51.6719598
8,بلال غربی,8156635141,32.6582979,51.7030197
نبش کوچه 60,بزرگمهر,9003915689,32.6558572,51.6994607
۳,وحید,8176796171,32.6308628,51.6380859
34,صباحی,8199874941,32.6711298,51.7152140
30,سرتیپ,8158856446,32.6560241,51.6582312
B4,مجتمع کوثر,8196993984,32.7263991,51.6960951
6,آل محمد ، کوچه هما ، مجتمع نگین ، واحد 6,8193753988,32.7035919,51.6826063
14,بزرگراه شهرک صنعتی جی,8159485848,32.6814379,51.8551618
49,فرعی سوم,817777,32.6277115,51.6249013
81,عدالت,8139943416,32.6950996,51.6248610
1,Imam Khomeini,8189110051,32.7186974,51.5920989
123,چهارباغ عباسی,12345678945,32.6479620,51.6676169
108,بوستان سعدی,8175656111,32.6392696,51.6482409
8,بلال غربی,8156635141,32.6583674,51.7029439
