House number,Street name,Postal code,Latitude,Longitude
3,Strossmayerova,71000,43.8589060,18.4254428
88,Zmaja od Bosne,71000,43.8523288,18.3813908
4,Braće Begić,71000,43.8694863,18.4065248
5,Zmaja od Bosne,71000,43.8547448,18.4008340
18,Zagrebačka,71000,43.8514325,18.4014435
1,Triglavska,71000,43.8462706,18.3810209
2,Hasana Brkića,71000,43.8506706,18.3913084
40d,Grbavička,71000,43.8505164,18.3949319
12,Mustafe Kamerića,71000,43.8283730,18.3472557
bb,Bulevar Branilaca Dobrinje,71000,43.8287705,18.3458721
9,Trg djece Dobrinje,71000,43.8295798,18.3530992
123,Džemala Bijedića,71000,43.8501846,18.3659200
131,Grbavička,71000,43.8500540,18.3985341
2,Pavla Lukača,71000,43.8475943,18.3964780
bb,Mustafe Kamerica,71000,43.8285537,18.3464164
26,Braće Begić,71000,43.8689867,18.4059183
3,Braće Begić,71000,43.8693392,18.4063263
30,Patriotske lige,71000,43.8679342,18.4129938
167,Ruđera Boškovića,71000,43.8625968,18.3867999
96,Azize Šaćirbegović,71000,43.8478063,18.3797618
1,Ivanjska,71000,43.8596710,18.3894435
61F,Posavska,71000,43.8420123,18.3826828
Between 36 & 40,Olovska,71000,43.8462368,18.3803316
6,Triglavska,71000,43.8459741,18.3808267
8,Posavska,71000,43.8457803,18.3790034
28,Olovska,71000,43.8462805,18.3797576
61c,Posavska,71000,43.8428994,18.3819248
2,Triglavska,71000,43.8462035,18.3807768
5a,Posavska,71000,43.8452672,18.3798863
1,Šanac,71000,43.8444105,18.3879714
2D-3,Dejzina Bikića,71000,43.8802996,18.3974288
106,Džemala Bijedića,71000,43.8510953,18.3672665
bb,Alipašina,71000,43.8667955,18.4095163
182,Džemala Bijedića,71000,43.8462361,18.3391800
51,Zmaja od Bosne,71000,43.8523315,18.3848212
bb,Tuzlanska,71000,43.8555073,18.3647881
122,Džemala Bijedića,71000,43.8509133,18.3647406
5,Porodice Ribar,71000,43.8490286,18.3856871
10,Porodice Ribara,71000,43.8501660,18.3852901
122,Džemala Bijedića,71000,43.8508890,18.3644784
93,Safvet-bega Bašagića,71000,43.8681331,18.4329326
2,Trg Barcelone,71000,43.8389160,18.3457858
10,Hadži-Sulejmanova,71000,43.8626450,18.4243916
2,Obala Kulina bana,71000,43.8566912,18.4149375
12,Bugojanska,71000,43.8543980,18.3768559
34,Envera Šehovića,71000,43.8532696,18.3810415
13,Trg Merhemića,71000,43.8662437,18.4096306
14,Trg Merhemića,71000,43.8657572,18.4096307
do broja 380,Safeta Zajke,71000,43.8706612,18.3117130
2a,Trg solidarnosti,71000,43.8464705,18.3527611
11,Malta,71120,43.8525195,18.3782324
38 40,Ferde Hauptmana,71000,43.8522286,18.3750676
36 34,Ferde hauptmana,71000,43.8523471,18.3756909
32 30,Ferde hauptmana,71000,43.8524647,18.3762724
74,Zmaja od Bosne,71000,43.8527172,18.3834819
9,Ložionička,71000,43.8536038,18.3846441
5,Ložionička,71000,43.8534689,18.3841052
2,Čobanija,71000,43.8561382,18.4201774
12,Kolodvorska,71000,43.8565652,18.3885068
12c,Zmaja od Bosne,71000,43.8549470,18.3937073
bb,Safeta Hadžića,71000,43.8424975,18.3570224
65,Pehlivanuša,71000,43.8643091,18.4231106
17,Trg ZAVNOBIH-a,71000,43.8418057,18.3455761
2,Blagajska,71000,43.8566728,18.3776822
17,Braće Begić,71000,43.8678039,18.4059508
322,Safeta Zajke,71000,43.8577015,18.3218784
2,Aleja Bosne Srebrene,71000,43.8412804,18.3380055
bb,Aleja Bosne Srebrene,71000,43.8412254,18.3378822
bb,Dženetića čikma,71000,43.8601243,18.4243633
2,Džemala Bijedića,71000,43.8519788,18.3781785
11,Tešanjska,71000,43.8593832,18.4014826
13,Hamdije Kreševljakovića,71000,43.8556219,18.4182292
bb,Mustafe Kamerića,71000,43.8285791,18.3463174
4a,Zagrebačka,71000,43.8528059,18.4041172
bb,Zagrebačka,71000,43.8519201,18.4027331
10,Čobanija,71000,43.8555233,18.4205225
4,Reisa Džemaludina Čauševića,71000,43.8569995,18.4141066
4,Trg Fra Grge Martića,71000,43.8590003,18.4252219
bb,Ćemaluša,71000,43.8587083,18.4223707
9,Zelenih beretki,71000,43.8582355,18.4266175
4,Veliki Alifakovac,71000,43.8583660,18.4343823
12,Bistrik,71000,43.8562318,18.4295007
11,Branilaca Sarajeva,71000,43.8578669,18.4195111
2,Džemala Bijedića,71000,43.8522819,18.3782210
15,Kemala Kapetanovića,71000,43.8506724,18.3916178
15,Franjevačka,71000,43.8561814,18.4328388
172b,Džemala Bijedića,71000,43.8465264,18.3393266
100,Azize Šaćirbegović,71000,43.8474393,18.3787016
42,Skenderija,71000,43.8552242,18.4203512
34,Envera Šehovića,71000,43.8533604,18.3811858
bb,Muhameda ef. Pandže,71000,43.8700601,18.3996885
13,Krajla Tvrtka,71000,43.8572934,18.4072174
13,Krajla Tvrtka,71000,43.8572671,18.4072174
20,Čobanija,71000,43.8546361,18.4209710
172b,Džemala Bijedića,71000,43.8463842,18.3395503
172b,Džemala Bijedića,71000,43.8464287,18.3394567
14,Prote Bakovića,71000,43.8594291,18.4304459
7,Fra Anđela Zvizdovića,71000,43.8571692,18.4054987
1,Maršala Tita,71000,43.8563420,18.4085718
2,Grbavička,71000,43.8522701,18.4033631
12,Zelenih beretki,71000,43.8573915,18.4241183
34,Logavina,71000,43.8617489,18.4282003
131,Grbavička,71000,43.8500749,18.3986498
1,Čobanija,71000,43.8561953,18.4205091
4,grbavička,71000,43.8521442,18.4021162
bb,Azize Šaćirbegović,71000,43.8484824,18.3793007
20,Muhameda Hadžijahića,71000,43.8697992,18.4036312
8,Dženetića čikma,71000,43.8599928,18.4237212
2B,Antuna Branka Šimića,71000,43.8476488,18.3754065
22,Obala Kulina bana,71000,43.8569948,18.4256115
70D,Radnička,71000,43.8484241,18.4006230
26,Koševo,71000,43.8622513,18.4133714
16,Hasana Sušića,71000,43.8708141,18.4175624
1,Rudolfa Rude Tomića,71000,43.8297415,18.3384295
3,Kazandžiluk,71000,43.8593334,18.4312775
18,Branilaca Šipa,71000,43.8808004,18.4003533
4c,Radićeva,71000,43.8574636,18.4179119
11,Radićeva,71000,43.8573282,18.4172480
48,Kotromanića,71000,43.8552387,18.4112402
30,Hasana Brkića,71000,43.8505072,18.3914335
20,Čobanija,71000,43.8545504,18.4210764
12,Ferhadija,71000,43.8582443,18.4233044
1,Fra Anđela Zvizdovića,71000,43.8571453,18.4060516
4,Ćumurija,71000,43.8574311,18.4262976
8,Valtera Perića,71000,43.8562645,18.4102106
24,Koševo,71000,43.8616679,18.4136574
21,Mudželiti veliki,71000,43.8590858,18.4284146
195,Dobroševićka,71000,43.8770816,18.2917701
bb,Terezije,71000,43.8550342,18.4138713
107,Grbavička,71000,43.8503162,18.3971820
2,Antuna Branka Šimića,71000,43.8477778,18.3754998
21,Trg heroja,71000,43.8481820,18.3845730
7c,Hamdije Kreševljakovića,71000,43.8555400,18.4174831
120,Jukićeva,71107,43.8756177,18.4032493
132,Jukićeva,71000,43.8766227,18.4030584
11A,Čurčiluk mali,71000,43.8584864,18.4289219
8,Envera Šehovića,71000,43.8537427,18.3830564
33,Džemala Bijedića,71000,43.8503020,18.3699111
13,Maršala Tita,71000,43.8590058,18.4180799
2,Mula Mustafe Bašeskije,71000,43.8590525,18.4226774
54,Envera Šehovića,71000,43.8531089,18.3795595
28,Hakije Kulenovića,71000,43.8677853,18.4075640
10,Augusta Brauna,71000,43.8568906,18.4084091
29,Ferhadija,71000,43.8592904,18.4270610
234,Safeta Zajke,71000,43.8527203,18.3350773
4,Trg solidarnosti,71000,43.8463390,18.3512269
2A/3,Trg solidarnosti,71000,43.8465208,18.3531634
12,Bulevar Meše Selimovića,71000,43.8481302,18.3539627
12,Bulevar Meše Selimovića,71000,43.8477937,18.3536516
12a,Milana Preloga,71000,43.8469197,18.3741574
bb,Zelenih beretki,71000,43.8584446,18.4280596
58,Mula Mustafe Bašeskije,71000,43.8600136,18.4301638
19,Trg ZAVNOBIH-a,71000,43.8415903,18.3455517
31,Dr. Fetaha Bećirbegovića,71000,43.8516164,18.3676370
37a,Dr. Fetaha Bećirbegovića,71000,43.8518243,18.3682714
102,Džemala Bijedića,71000,43.8510962,18.3677508
95,Grbavička,71000,43.8505180,18.3960864
93,Grbavička,71000,43.8505655,18.3962797
91,Grbavička,71000,43.8506131,18.3964730
89,Grbavička,71000,43.8506606,18.3966663
83,Grbavička,71000,43.8508032,18.3972462
87,Grbavička,71000,43.8507081,18.3968596
85,Grbavička,71000,43.8507557,18.3970529
4,Saliha Hadžihusejnovića Muvekita,71000,43.8588297,18.4265300
3,Kevrin potok,71000,43.8617365,18.4201346
54,Maršala Tita,71000,43.8584804,18.4209576
7C,Grbavička,71000,43.8517638,18.4013628
74,Zmaja od Bosne,71000,43.8526284,18.3836834
20,Kupreška,71000,43.8475333,18.3917375
43,Patriotske lige,71000,43.8746616,18.4120388
22,Prvi bataljon Sedrenik,71200,43.8746800,18.4369797
1,Strossmayerova,71000,43.8584811,18.4256065
141,Safeta Zajke,71000,43.8574804,18.3219759
12,Kolodvorska,71000,43.8562942,18.3872836
3,Ive Andrića,71000,43.8452452,18.3485115
21,Maršala Tita,71000,43.8589515,18.4189889
21,Maršala Tita,71000,43.8589457,18.4191526
25,Hamdije Kreševljakovića,71000,43.8557467,18.4201814
29,Trgovke,71000,43.8592324,18.4304218
24,Maršala Tita,71000,43.8586138,18.4209522
19,Trg heroja,71000,43.8482073,18.3847418
34,Zaima Šarca,71000,43.8679569,18.4203348
11a,Kolodvorska,71000,43.8537398,18.3880120
15,Sulejmana Filipovića,71000,43.8333249,18.3425091
15,Sulejmana Filipovića,71000,43.8333235,18.3424327
11,Sulejmana Filipovića,71000,43.8330601,18.3431333
166,Branislava Nušića,71000,43.8345033,18.3422843
168,Branislava Nušića,71000,43.8347842,18.3424548
170,Branislava Nušića,71000,43.8349491,18.3423869
160,Branislava Nušića,71000,43.8341890,18.3416221
164,Branislava Nušića,71000,43.8343421,18.3421641
172,Branislava Nušića,71000,43.8350579,18.3422709
13,Sulejmana Filipovića,71000,43.8331474,18.3429076
15,Sulejmana Filipovića,71000,43.8332416,18.3426831
9,Sulejmana Filipovića,71000,43.8329806,18.3433534
5,Sulejmana Filipovića,71000,43.8329152,18.3435541
15,Salke Lagumdžije,71000,43.8290939,18.3451896
3,Sulejmana Filipovića,71000,43.8326243,18.3436282
21,Sulejmana Filipovića,71000,43.8331066,18.3419500
1,Sulejmana Filipovića,71000,43.8324640,18.3435203
5,Sulejmana Filipovića,71000,43.8327685,18.3437741
19,Sulejmana Filipovića,71000,43.8332374,18.3420685
17,Sulejmana Filipovića,71000,43.8333007,18.3423398
1,Sulejmana Filipovića,71000,43.8326973,18.3440081
2,Sulejmana Filipovića,71000,43.8333551,18.3446495
4,Sulejmana Filipovića,71000,43.8332399,18.3445673
6,Sulejmana Filipovića,71000,43.8330691,18.3444463
8,Sulejmana Filipovića,71000,43.8335021,18.3442862
10,Sulejmana Filipovića,71000,43.8333543,18.3441767
12,Sulejmana Filipovića,71000,43.8332109,18.3440874
14,Sulejmana Filipovića,71000,43.8332467,18.3437132
16,Sulejmana Filipovića,71000,43.8333190,18.3435110
18,Sulejmana Filipovića,71000,43.8333885,18.3433162
20,Sulejmana Filipovića,71000,43.8334471,18.3431436
22,Sulejmana Filipovića,71000,43.8335046,18.3429739
47,Antuna Hangija,71000,43.8643957,18.4060812
65,Mula Mustafe Bašeskije,71000,43.8602242,18.4308607
1,Dženetića čikma,71000,43.8598458,18.4236129
11a,Kolodvorska,71000,43.8542736,18.3883028
18,Danijela Ozme,71000,43.8596557,18.4144263
16,Branilaca Sarajeva,71000,43.8572965,18.4201960
9,Dobrinjske bolnice,71000,43.8298330,18.3449570
23,Ferhadija,71000,43.8592588,18.4266408
15,Maršala Tita,71000,43.8590118,18.4179329
11,Dobrinjske bolnice,71000,43.8298855,18.3447255
29,Malta,71000,43.8537310,18.3777602
6,Pehlivanuša,71000,43.8611948,18.4246964
6,Ferhadija,71000,43.8585937,18.4228346
13,Zmaja od Bosne,71000,43.8540171,18.3980987
6,Hamdije Kapidžića,71000,43.8270436,18.3510696
9,Igmanska,71000,43.8554825,18.3836261
7,Zmaja od Bosne,71000,43.8550381,18.3999921
6,Maršala Tita,71000,43.8561994,18.4089057
1,Trg djece Sarajeva,71000,43.8584323,18.4164694
6,Braće Begić,71000,43.8697803,18.4063025
48A,Paromlinska,71000,43.8540240,18.3777422
6,Radnička,71000,43.8492233,18.3989249
70,Sarači,71000,43.8592660,18.4308409
7,Kurta Schorka,71000,43.8480277,18.3284507
76,Grbavička,71000,43.8493492,18.3964215
78,Grbavička,71000,43.8493896,18.3966837
80,Grbavička,71000,43.8494299,18.3969458
82,Grbavička,71000,43.8494093,18.3972499
84,Grbavička,71000,43.8493740,18.3975295
86,Grbavička,71000,43.8493513,18.3978266
101,Grbavička,71000,43.8501747,18.3966184
103,Grbavička,71000,43.8502219,18.3968062
105,Grbavička,71000,43.8502691,18.3969941
109,Grbavička,71000,43.8503634,18.3973699
97,Grbavička,71000,43.8500803,18.3962426
99,Grbavička,71000,43.8501275,18.3964305
107,Grbavička,71000,43.8503365,18.3971736
6,Braće Begić,71000,43.8696259,18.4061057
116,Jukićeva,71000,43.8760047,18.4042281
120-136,Jukićeva,71107,43.8756621,18.4029511
6,Braće Begić,71000,43.8697047,18.4061831
130,Jukićeva,71107,43.8762711,18.4031063
10,Gradačačka,71000,43.8478185,18.3687619
100,Gradačačka,71000,43.8474033,18.3717626
102,Gradačačka,71000,43.8475622,18.3717825
104,Gradačačka,71000,43.8476409,18.3717515
106,Gradačačka,71000,43.8477196,18.3717205
108,Gradačačka,71000,43.8478540,18.3715912
11,Gradačačka,71000,43.8487103,18.3693381
110,Gradačačka,71000,43.8479542,18.3715534
112,Gradačačka,71000,43.8480545,18.3715156
12,Gradačačka,71000,43.8478379,18.3688510
13,Gradačačka,71000,43.8485558,18.3694015
130,Gradačačka,71000,43.8477320,18.3723831
132,Gradačačka,71000,43.8476145,18.3724323
134,Gradačačka,71000,43.8474970,18.3724815
14,Gradačačka,71000,43.8478573,18.3689401
15,Gradačačka,71000,43.8484012,18.3694649
16,Gradačačka,71000,43.8476831,18.3692582
17,Gradačačka,71000,43.8482467,18.3695283
18,Gradačačka,71000,43.8477228,18.3694468
20,Gradačačka,71000,43.8477625,18.3696354
20,Gradačačka,71000,43.8478665,18.3702443
21,Gradačačka,71000,43.8483596,18.3699977
22,Gradačačka,71000,43.8478975,18.3704245
23,Gradačačka,71000,43.8481930,18.3700576
24,Gradačačka,71000,43.8479285,18.3706046
25,Gradačačka,71000,43.8484515,18.3704632
26a,Gradačačka,71000,43.8479689,18.3708487
26b,Gradačačka,71000,43.8479884,18.3709621
27,Gradačačka,71000,43.8482787,18.3705295
28,Gradačačka,71000,43.8475573,18.3708990
29,Gradačačka,71000,43.8488308,18.3708357
29a,Gradačačka,71000,43.8487568,18.3699023
29b,Gradačačka,71000,43.8488256,18.3702487
3,Gradačačka,71000,43.8486356,18.3684713
31,Gradačačka,71000,43.8487179,18.3708773
33,Gradačačka,71000,43.8486050,18.3709188
35,Gradačačka,71000,43.8484920,18.3709604
37,Gradačačka,71000,43.8483791,18.3710019
4,Gradačačka,71000,43.8479666,18.3683673
5,Gradačačka,71000,43.8486672,18.3686329
6,Gradačačka,71000,43.8479828,18.3684489
62,Gradačačka,71000,43.8466030,18.3701819
64,Gradačačka,71000,43.8466237,18.3703135
66,Gradačačka,71000,43.8466444,18.3704451
68,Gradačačka,71000,43.8463586,18.3703580
7,Gradačačka,71000,43.8486988,18.3687946
70,Gradačačka,71000,43.8462425,18.3705395
72,Gradačačka,71000,43.8462052,18.3709218
74,Gradačačka,71000,43.8460859,18.3710972
76,Gradačačka,71000,43.8464613,18.3707448
78,Gradačačka,71000,43.8464831,18.3708697
8,Gradačačka,71000,43.8479990,18.3685305
80,Gradačačka,71000,43.8465049,18.3709946
82,Gradačačka,71000,43.8463414,18.3713297
84,Gradačačka,71000,43.8463637,18.3714561
86,Gradačačka,71000,43.8463860,18.3715826
88,Gradačačka,71000,43.8466590,18.3717490
9,Gradačačka,71000,43.8487305,18.3689562
90,Gradačačka,71000,43.8466771,18.3718595
92,Gradačačka,71000,43.8466952,18.3719701
94,Gradačačka,71000,43.8471108,18.3718729
96,Gradačačka,71000,43.8472083,18.3718361
98,Gradačačka,71000,43.8473058,18.3717994
118,Gradačačka,71000,43.8482846,18.3727752
120,Gradačačka,71000,43.8481524,18.3728218
122,Gradačačka,71000,43.8480202,18.3728685
124,Gradačačka,71000,43.8478880,18.3729151
126,Gradačačka,71000,43.8477558,18.3729617
128,Gradačačka,71000,43.8476236,18.3730083
136,Gradačačka,71000,43.8471727,18.3727231
138,Gradačačka,71000,43.8472068,18.3728870
140,Gradačačka,71000,43.8472408,18.3730509
34,Gradačačka,71000,43.8468789,18.3699390
36,Gradačačka,71000,43.8469764,18.3698961
38,Gradačačka,71000,43.8471306,18.3699655
40,Gradačačka,71000,43.8472312,18.3699205
42,Gradačačka,71000,43.8473318,18.3698754
44,Gradačačka,71000,43.8474324,18.3698303
10,Bosanska,71000,43.8418054,18.3527378
10,Geteova,71000,43.8439767,18.3524286
11,Bosanska,71000,43.8417668,18.3530459
11,Geteova,71000,43.8440938,18.3527220
12,Bosanska,71000,43.8418852,18.3533337
13,Bosanska,71000,43.8421600,18.3535909
14,Bosanska,71000,43.8423651,18.3536405
15,Bosanska,71000,43.8425702,18.3534709
16,Bosanska,71000,43.8427678,18.3533744
7,Bosanska,71000,43.8413666,18.3503783
8,Bosanska,71000,43.8413911,18.3505753
9,Bosanska,71000,43.8414156,18.3507723
9,Geteova,71000,43.8440034,18.3521279
50,Ruđera Boškovića,71000,43.8618029,18.3932916
81,Jukićeva,71000,43.8763046,18.4021352
16,Ložionička,71000,43.8572956,18.3831840
16,Ložionička,71000,43.8571606,18.3846106
1,Bulevar Mimar Sinana,71000,43.8281174,18.3451015
11,Zmaja od Bosne,71000,43.8543965,18.3983479
7,Zmaja od Bosne,71000,43.8550800,18.3994377
1,Trg djece Sarajeva,71000,43.8582137,18.4165173
19,Trg ZAVNOBIH-a,71000,43.8415854,18.3455078
17,Trg ZAVNOBIH-a,71000,43.8418632,18.3455258
11,Franca Lehara,71000,43.8579458,18.4015680
13,Franca Lehara,71000,43.8580646,18.4015592
9,Franca Lehara,71000,43.8578270,18.4015768
18,Kranjčevićeva,71000,43.8585195,18.4048154
2b,Marka Marulića,71000,43.8566855,18.3821056
17,Dugi sokak,71000,43.8568416,18.4337183
67,Pehlivanuša,71000,43.8644480,18.4230832
2b,Porodice Font,71000,43.8485690,18.4089600
2,Fra Grge Martića,71000,43.8591386,18.4257241
8f,Envera Šehovića,71000,43.8536147,18.3825555
7,Ferde Hauptmana,71000,43.8525643,18.3747565
39,Ferhadija,71000,43.8594749,18.4277088
114,Džemala Bijedića,71000,43.8509617,18.3654104
1,Sarači,71000,43.8593773,18.4281988
30,Branilaca Sarajeva,71000,43.8576097,18.4224849
32B,Topal Osman paše,71000,43.8478580,18.3864053
2,Trg Fra Grge Martića,71000,43.8593821,18.4257011
38d,Maršala Tita,71000,43.8585553,18.4183371
97,Bulevar Meše Selimovića,71000,43.8469432,18.3541543
47a,Zmaja od Bosne,71000,43.8527810,18.3884812
31,Branilaca Sarajeva,71000,43.8576419,18.4215112
7,Zmaja od Bosne,71000,43.8554022,18.3998348
2,Franca Lehara,71000,43.8566016,18.4064769
1,Trg djece Sarajeva,71000,43.8579391,18.4163664
bb,Halilovići,71000,43.8478824,18.3363518
53h,Paromlinska,71000,43.8534988,18.3717810
6,Obala Maka Dizdara,71000,43.8560270,18.4190056
34,Paromlinska,71000,43.8548482,18.3806645
33,Kranjčevićeva,71000,43.8581671,18.4031338
27,Višnjik,71000,43.8668138,18.4174095
12,Prote Bakovića,71000,43.8595226,18.4304230
13,Marka Marulića,71000,43.8556953,18.3824063
1,Kranjčevićeva,71000,43.8576751,18.4051006
2,Buka,71000,43.8599619,18.4217529
42,Džemala Bijedića,71000,43.8509119,18.3730216
51,Zagrebačka,71000,43.8502346,18.4006131
15,Salke Lagumdžije,71000,43.8291990,18.3449783
39,Kranjčevićeva,71000,43.8586319,18.4023859
6,Vrbanja,71000,43.8537584,18.4060739
18,Zelenih beretki,71000,43.8579514,18.4253414
50,Džemala Bijedića,71000,43.8520320,18.3717299
52,Džemala Bijedića,71000,43.8520068,18.3716105
54,Džemala Bijedića,71000,43.8519817,18.3714912
56,Džemala Bijedića,71000,43.8519566,18.3713718
55,Džemala Bijedića,71000,43.8507275,18.3704651
57,Džemala Bijedića,71000,43.8507010,18.3703356
59,Džemala Bijedića,71000,43.8506744,18.3702062
61,Džemala Bijedića,71000,43.8506479,18.3700768
15,Džemala Bijedića,71000,43.8503651,18.3714375
17,Džemala Bijedića,71000,43.8503392,18.3713132
19,Džemala Bijedića,71000,43.8503132,18.3711890
21,Džemala Bijedića,71000,43.8502873,18.3710647
5,Džemala Bijedića,71000,43.8506741,18.3719819
7,Džemala Bijedića,71000,43.8506496,18.3718631
9,Džemala Bijedića,71000,43.8506252,18.3717442
11,Džemala Bijedića,71000,43.8506007,18.3716254
27,Dr. Fetaha Bećirbegovića,71000,43.8517109,18.3671545
25,Dr. Fetaha Bećirbegovića,71000,43.8516784,18.3669057
7,Dr. Fetaha Bećirbegovića,71000,43.8511050,18.3680472
9,Dr. Fetaha Bećirbegovića,71000,43.8510793,18.3678631
11,Dr. Fetaha Bećirbegovića,71000,43.8510525,18.3676714
13,Dr. Fetaha Bećirbegovića,71000,43.8510911,18.3674559
15,Dr. Fetaha Bećirbegovića,71000,43.8510655,18.3672731
17,Dr. Fetaha Bećirbegovića,71000,43.8510397,18.3670881
2,Asafa Serdarevića,71000,43.8755751,18.4155519
65,Grbavička,71000,43.8512525,18.3971891
47,Zagrebačka,71000,43.8504334,18.4009985
49,Zagrebačka,71000,43.8503340,18.4008058
33,Aleja Lipa,71000,43.8516521,18.3919789
31,Aleja Lipa,71000,43.8516536,18.3918367
29,Aleja Lipa,71000,43.8516550,18.3916944
27,Aleja Lipa,71000,43.8516565,18.3915522
25,Aleja Lipa,71000,43.8516580,18.3914100
39,Kemala Kapetanovica,71000,43.8508444,18.3899361
37,Kemala Kapetanovica,71000,43.8508452,18.3897744
35,Kemala Kapetanovica,71000,43.8508460,18.3896127
33,Kemala Kapetanovica,71000,43.8508468,18.3894510
11,Envera Šehovića,71000,43.8532783,18.3819361
12,Hamdije Kapidžića,71000,43.8265836,18.3518793
53d,Paromlinska,71000,43.8535940,18.3717489
2,Ćemaluša,71000,43.8578369,18.4226844
15,Bosanska,71000,43.8432813,18.3532930
14,Bosanska,71000,43.8434976,18.3533549
13,Bosanska,71000,43.8436829,18.3531931
12,Bosanska,71000,43.8438820,18.3530931
13,Branilaca Sarajeva,71000,43.8577982,18.4198372
3,Maršala Tita,71000,43.8562790,18.4084867
1,Grbavička,71000,43.8522247,18.4028143
3,Grbavička,71000,43.8522507,18.4025252
1-3,Grbavička,71000,43.8521819,18.4027654
4d,Nedima Filipovića,71000,43.8530804,18.3719320
4c,Nedima Filipovića,71000,43.8529082,18.3720017
4b,Nedima Filipovića,71000,43.8528018,18.3721787
4a,Nedima Filipovića,71000,43.8528386,18.3724791
53c,Paromlinska,71000,43.8538927,18.3716423
53b,Paromlinska,71000,43.8540320,18.3719266
53a,Paromlinska,71000,43.8540977,18.3723102
55e,Paromlinska,71000,43.8532738,18.3707840
55d,Paromlinska,71000,43.8532970,18.3709181
55c,Paromlinska,71000,43.8534556,18.3710871
55b,Paromlinska,71000,43.8536229,18.3710240
55a,Paromlinska,71000,43.8537902,18.3709610
12,Nedima Filipovića,71000,43.8528786,18.3708986
10,Nedima Filipovića,71000,43.8529037,18.3710582
8,Nedima Filipovića,71000,43.8528215,18.3712862
6,Nedima Filipovića,71000,43.8526958,18.3713291
7,Nedima Filipovića,71000,43.8521706,18.3744943
13,Zmaja od Bosne,71000,43.8540746,18.3979914
29,Džemala Bijedića,71000,43.8501608,18.3707164
27,Džemala Bijedića,71000,43.8502498,18.3706802
25,Džemala Bijedića,71000,43.8503387,18.3706440
23,Džemala Bijedića,71000,43.8504277,18.3706078
6,Kovači,71000,43.8601786,18.4320980
3,Strossmayerova,71000,43.8587961,18.4255473
18,Mula Mustafe Bašeskije,71000,43.8597750,18.4258262
4,Grbavička,71000,43.8528044,18.4027441
7,Zmaja od Bosne,71000,43.8551509,18.3998524
1,Vrbanja,71000,43.8552874,18.4071851
bb,Branilaca Sarajeva,71000,43.8582268,18.4219155
19,Safeta Hadžića,71000,43.8460944,18.3764783
1,Trnovska,71000,43.8519276,18.4036171
12,Ferhadija,71000,43.8585634,18.4232058
bb,Terezija,71000,43.8552575,18.4149131
11 12,Hamdije Kapidžića,71000,43.8263400,18.3532991
4,Radićeva,71000,43.8569236,18.4177449
1,Šenoina,71000,43.8578249,18.4189573
1,Šenoina,71000,43.8578906,18.4185228
2,Gajev trg,71000,43.8588493,18.4237059
24,Trg heroja,71000,43.8495289,18.3815362
24,Vrazova,71000,43.8572459,18.4115758
22,Vrazova,71000,43.8570511,18.4116499
7,Maršala Tita,71000,43.8577391,18.4116318
5,Kotromanića,71000,43.8550817,18.4099438
3,Tešanjska,71000,43.8591814,18.4020977
6,Kolodvorska,71000,43.8554334,18.3905449
bb,Kolodvorska,71000,43.8550817,18.3918465
2,Džemala Bijedića,71000,43.8520486,18.3783446
bb,Kevrin potok,71000,43.8628933,18.4205452
13,Hamdije Kreševljakovića,71000,43.8556326,18.4183592
7,Trg Djeca Dobrinje,71000,43.8297558,18.3526350
5,Skenderija,71000,43.8551972,18.4165058
81,Jukićeva,71000,43.8757866,18.4021674
31,Skenderija,71000,43.8552101,18.4196006
8,Dženetića čikma,71000,43.8596655,18.4222590
2,Alekse Šantića,71000,43.8619056,18.4135741
50,Maršala Tita,71000,43.8586980,18.4198704
48,Maršala Tita,71000,43.8587182,18.4196515
10,Milana Preloga,71000,43.8473099,18.3749884
67,Antuna Hangija,71000,43.8631292,18.4050443
20,Višnjik,71000,43.8664839,18.4182057
bb,Grbavička,71000,43.8515460,18.4017392
2,Ferhadija,71000,43.8585990,18.4220641
2,Bulevar Meše Selimovića,71000,43.8492700,18.3647069
13,Mehmed-paše Sokolovića,71000,43.8612364,18.4237745
4,Maglajska,71000,43.8555591,18.4103617
61,Gazi Husrev-begova,71000,43.8596637,18.4280856
34,Hakije Kulenovića,71000,43.8685793,18.4073970
4,Muhameda ef. Pandže,71000,43.8660409,18.4010942
30,Ferhadija,71000,43.8590322,18.4281152
26,Mihaljevska do,71000,43.8777089,18.2803104
43,Kranjčevićeva,71000,43.8585877,18.4018910
1,Alipašina,71000,43.8582528,18.4120030
40,Maršala Tita,71000,43.8587592,18.4186440
21,Branilaca Sarajeva,71000,43.8575766,18.4206684
29,Čekaluša,71000,43.8620535,18.4169681
11,Vrazova,71000,43.8568776,18.4113960
9,Bolnička,71000,43.8662489,18.4133716
4,Braće Begić,71000,43.8660063,18.4051734
bb,Himze Polovine,71000,43.8721313,18.4189329
8,Mula Mustafe Bašeskije,71000,43.8593548,18.4243988
19,Alipašina,71000,43.8603159,18.4115450
90,Hamdije Kreševljakovića,71000,43.8562016,18.4266667
64B,Hamdije Kreševljakovića,71000,43.8560868,18.4243943
9,Kranjčevićeva,71000,43.8579607,18.4072702
12,Kolodvorska,71000,43.8546007,18.3854538
18/3,Sutjeska br.,71000,43.8612393,18.4123600
93/95,Urijan Dedina,71000,43.8515497,18.4102139
8,Omladinskih radnih brigada,71000,43.8284714,18.3485831
8,Vilsonovo šetalište,71000,43.8539910,18.3973291
8,Vilsonovo šetalište,71000,43.8539692,18.3972697
10,Vladislava Skarića,71000,43.8582493,18.4269246
5,Kolodvorska,71000,43.8541520,18.3894745
2,Jukićeva,71000,43.8690231,18.4081438
13,Braće Begić,71000,43.8697289,18.4068107
20,Husrefa Redžića,71000,43.8684082,18.4077522
20,Husrefa Redžića,71000,43.8683289,18.4078112
bb,Alipašina,71000,43.8775616,18.4033292
bb,Alipašina,71000,43.8775616,18.4035394
bb,Alipašina,71000,43.8776449,18.4031747
bb,Alipašina,71000,43.8781145,18.4030529
bb,Alipašina,71000,43.8778477,18.4030315
bb,Alipašina,71000,43.8784741,18.4030583
1,Humska,71000,43.8597096,18.3902577
18,Mehmed-bega Kapetanovića Ljubušaka,71000,43.8607317,18.4156997
3a,Skenderija,71000,43.8555628,18.4159043
3,Aleja Bosne Srebrene,71000,43.8421968,18.3393587
4,Grbavička,71000,43.8527883,18.4025506
5,Ferhadija,71000,43.8587409,18.4230486
97,Sedrenik,71000,43.8731003,18.4339363
95,Sedrenik,71000,43.8731242,18.4337815
11,Muse Ćazima Ćatića,71000,43.8612248,18.4251720
3,Skenderija,71000,43.8553519,18.4161607
34B,Višnjik,71000,43.8661779,18.4181083
8,Kralja Tvrtka,71000,43.8570973,18.4078561
43,Branilaca Šipa,71000,43.8816614,18.3950776
15,Zagrebačka,71000,43.8517987,18.4030630
61,Hamdije Kreševljakovića,71000,43.8564878,18.4267080
5,Pruščakova,71000,43.8592626,18.4183371
7,Ćemaluša,71000,43.8584748,18.4223699
24a,Tešanjska,71000,43.8612321,18.4021422
34A,Višnjik,71000,43.8662707,18.4182875
61,Hamdije Kreševljakovića,71000,43.8565194,18.4255113
16,Ferida Srnje,71000,43.8367032,18.3599120
3,Kundurdžiluk,71000,43.8585194,18.4291730
45,Hamdije Čemerlića,71000,43.8500636,18.3943299
11a,Kolodvorska,71000,43.8535805,18.3880438
2,Čobanija,71000,43.8560499,18.4203407
11,Bistrik,71000,43.8558590,18.4299333
9,Bistrik,71000,43.8559449,18.4299188
54,Maršala Tita,71000,43.8587254,18.4209466
56,Maršala Tita,71000,43.8587198,18.4211848
41,Streljačka,71000,43.8705190,18.4425022
20,Kundurdžiluk,71000,43.8585975,18.4305552
1,Fra Anđela Zvizdovića,71000,43.8571003,18.4061268
1,Brčanska,71000,43.8466171,18.3658653
2,Brčanska,71000,43.8466171,18.3660476
3,Brčanska,71000,43.8466558,18.3662408
4,Brčanska,71000,43.8467254,18.3664392
5,Brčanska,71000,43.8469498,18.3666592
6,Brčanska,71000,43.8471626,18.3667128
8,Brčanska,71000,43.8473328,18.3667182
9,Brčanska,71000,43.8475378,18.3666699
10,Brčanska,71000,43.8477158,18.3665573
5a,Kurta Schorka,71000,43.8484439,18.3275675
do 55,Ramiza Salčina,71000,43.8369977,18.3431523
2,Aleja Bosne Srebrene,71000,43.8422873,18.3395101
1,Mis Irbina,71000,43.8572014,18.4137434
20,Gazi Husrev-begova,71000,43.8589058,18.4282486
1,Trg djece Sarajeva,71000,43.8583363,18.4165329
43,Ferhadija,71000,43.8593655,18.4278326
18,Zmaja od Bosne,71000,43.8544842,18.3919426
20,Zmaja od Bosne,71000,43.8544276,18.3916906
22,Zmaja od Bosne,71000,43.8544217,18.3916525
24,Zmaja od Bosne,71000,43.8543235,18.3911181
26,Zmaja od Bosne,71000,43.8543156,18.3910752
54,Envera Šehovića,71000,43.8530938,18.3794041
39,Džemala Bijedića,71000,43.8496098,18.3675893
12,Kolodvorska,71000,43.8549334,18.3884973
12,Ložionička,71000,43.8538368,18.3853854
1,Dolina,71000,43.8564770,18.4089261
2,Trg Fra Grge Martića,71000,43.8593960,18.4256333
5,Ferhadija,71000,43.8587280,18.4231665
3,Branilaca Sarajeva,71000,43.8579089,18.4193991
76,Zmaja od Bosne,71000,43.8527623,18.3840287
6,Adija Mulabegovića,71000,43.8414152,18.3406718
162,Branislava Nušića,71000,43.8341907,18.3418398
1,Aleja Bosne Srebrene,71000,43.8423325,18.3396929
2,Hajrudina Šabanije,71000,43.8299412,18.3331608
24,Adema Buće,71000,43.8552648,18.3659982
2,Fra Filipa Lastrića,71000,43.8529857,18.3896351
28,Mehmeda Handžića,71000,43.8647029,18.4233842
4,Ivanjska,71000,43.8602484,18.3899130
27,Čekaluša,71000,43.8619564,18.4171561
4,Trg Fra Grge Martića,71000,43.8591481,18.4252137
4,Zagrebačka,71000,43.8526861,18.4036757
120,Jukićeva,71107,43.8756000,18.4031536
2a,Srđana Aleksića,71000,43.8486886,18.3607268
32,Envera Šehovića,71000,43.8533943,18.3814856
6,Nedima Filipovića,71000,43.8526127,18.3713842
5,Mudželiti veliki,71000,43.8589759,18.4286707
9,Zelenih beretki,71000,43.8582408,18.4266503
19,Talirevića,71000,43.8568182,18.4334088
bb,Bentbaša,71000,43.8599501,18.4375983
64A,Hamdije Kreševljakovića,71000,43.8560754,18.4241660
16,Zelenih beretki,71000,43.8579305,18.4251967
20,Ferde Hauptmana,71000,43.8520051,18.3770115
16,Petrakijina,71000,43.8603249,18.4238668
1,Kovači čikma,71000,43.8603346,18.4324111
63,Mula Mustafe Bašeskije,71000,43.8603334,18.4307642
69,Mula Mustafe Bašeskije,71000,43.8601690,18.4311777
12,Ferhadija,71000,43.8584577,18.4232355
12,Ferhadija,71000,43.8583884,18.4233258
12,Sime Milutinovića,71000,43.8581192,18.4266486
13,Čekaluša,71000,43.8616030,18.4180530
35,Braće Begić,71000,43.8644842,18.4044040
12,Hakije Kulenovića,71000,43.8669964,18.4076774
91,Hajrudina Šabanije,71000,43.8306254,18.3327664
20,Branilaca Sarajeva,71000,43.8579726,18.4192615
9,Azize Šaćirbegović,71000,43.8484676,18.3804524
72,Grbavička,71000,43.8494727,18.3959382
70,Grbavička,71000,43.8493107,18.3959945
1,Vladimira Valtera Perića,71000,43.8563840,18.4095084
3,Čekaluša,71000,43.8613189,18.4190023
1,Vrbanja,71000,43.8553987,18.4080291
3,Muhameda Kantardžića (Ferhadija),71000,43.8585544,18.4234867
30,Gazi Husrev-begova,71000,43.8590886,18.4282345
66,Strossmayerova,71000,43.8581364,18.4257064
33,Hamdije Kreševljakovića,71000,43.8560474,18.4210517
13,Tina Ujevića,71000,43.8609968,18.4176305
32,Sarači,71000,43.8593998,18.4297179
20,Bravadžiluk,71000,43.8589635,18.4313648
16,Topal Osman paše,71000,43.8488443,18.3861742
73,Jukićeva,71000,43.8749711,18.4023008
33,Kranjčevićeva,71000,43.8582413,18.4029971
27,Trg Solidarnosti,71000,43.8458145,18.3501480
25,Envera Šehovića,71000,43.8526989,18.3791116
41,Akifa Šeremeta,71000,43.8293568,18.3407031
5,Kulovića,71000,43.8576483,18.4202851
8,Koševo,71000,43.8603070,18.4143831
36,Maršala Tita,71000,43.8587367,18.4182301
bb,Terezija,71000,43.8539313,18.4124791
9,Nedima Filipovića,71000,43.8522440,18.3742451
17,Grbavička,71000,43.8520151,18.3998547
11,Husrefa Redžića,71000,43.8655029,18.4084186
83,Džemala Bijedića,71000,43.8508411,18.3684088
37a,Paromlinska,71000,43.8538279,18.3789592
1,Vrbanja,71000,43.8553783,18.4079861
25,Gorica,71000,43.8611070,18.4092132
47,Antuna Hangija,71000,43.8643931,18.4059084
3,Hakije Kulenovića,71000,43.8637090,18.4076025
45,Alipašina,71000,43.8630664,18.4103296
52,Avde Jabučice,71000,43.8601928,18.4088198
13,Bolnička,71000,43.8667550,18.4143160
32,Bolnička,71000,43.8669008,18.4148862
83b,Bulevar Meše Selimovića,71000,43.8471298,18.3593047
4,Zmaja od Bosne,71000,43.8564968,18.4040245
1,Trg Bosne i Hercegovine,71000,43.8545612,18.4057107
1,Trg Bosne i Hercegovine,71000,43.8551282,18.4051839
35,Zmaja od Bosne,71000,43.8542819,18.3945250
35,Zmaja od Bosne,71000,43.8544803,18.3955958
5,Zmaja od Bosne,71000,43.8549747,18.4008689
bb,Put života,71000,43.8591528,18.3984745
8,Zmaja od Bosne,71000,43.8560645,18.3982255
8B,Zmaja od Bosne,71000,43.8559906,18.3969589
8b,Zmaja od Bosne,71000,43.8564566,18.3974888
15,Franjevačka,71000,43.8568102,18.4322028
16,Ložionička,71000,43.8571417,18.3843274
15,Vilsonovo šetalište,71000,43.8523201,18.3864817
26,Bardakčije,71000,43.8712038,18.4247562
97,Bulevar Meše Selimovića,71000,43.8466679,18.3547858
12,Kranjčevićeva,71000,43.8585329,18.4074078
85,Bulevar Meše Selimovića,71000,43.8462940,18.3606736
2,Trg Barcelone,71000,43.8384770,18.3458077
52,Olimpijska,71000,43.8378513,18.3467015
2,Bihaćka,71000,43.8507117,18.3773975
15,Ulica Zmaja od Bosne,71000,43.8552552,18.3986658
18,Branilaca Šipa,71000,43.8809195,18.4005121
1,Trg međunarodnog prijateljstva,71000,43.8452194,18.3465048
8,Trg međunarodnog prijateljstva,71000,43.8447219,18.3449826
4,Grbavička,71000,43.8528272,18.4023631
15,Envera Šehovića,71000,43.8529544,18.3806758
1,Vrbanja,71000,43.8553750,18.4081361
12,Trg solidarnosti,71000,43.8458463,18.3485605
175,Džemala Bijedića,71000,43.8472906,18.3461455
7,Halilovići,71000,43.8485581,18.3447101
2,France Lahara,71000,43.8564053,18.4059063
9,Obala Kulina bana,71000,43.8568737,18.4207307
7,Kolodvorska,71000,43.8540803,18.3891363
20,Ferde Hauptmana,71000,43.8522028,18.3769965
2,Džemala Bijedića,71000,43.8519698,18.3782201
182,Džemala Bijedića,71000,43.8462536,18.3392826
8,Zelenih beretki,71000,43.8577562,18.4244433
27,Zvornička,71000,43.8465591,18.3875059
17,Kemala Kapetanovića,71000,43.8504401,18.3906358
54,Envera Šehovića,71000,43.8530906,18.3794545
1,Igmanska,71000,43.8549410,18.3837015
"30,32,34",Paromlinska,71000,43.8547262,18.3808932
2,Oslobodilaca Sarajeva,71000,43.8261320,18.3483850
"67, 69",Grbavička,71000,43.8512394,18.3976294
70,Drinska,71000,43.8590231,18.3853481
74,Zmaja od Bosne,71000,43.8528182,18.3842930
42,Paromlinska,71000,43.8543215,18.3794823
27,Marka Marulića,71000,43.8547809,18.3790827
10,Džemala Bijedića,71000,43.8506464,18.3712827
1,Josipa Štadlera,71000,43.8604979,18.4250225
1 3 5,Dr. Fetaha Bećirbegovića,71000,43.8513490,18.3684068
29 31 33,Dr. Fetaha Bećirbegovića,71000,43.8516237,18.3676408
19 21 23,Dr. Fetaha Bećirbegovića,71000,43.8513389,18.3665850
2,Dr. Fetaha Bećirbegovića,71000,43.8513377,18.3689855
"58,60",Džemala Bijedića,71000,43.8516616,18.3718816
"88, 90, 92",Džemala Bijedića,71000,43.8516048,18.3697151
25,Grbavička,71000,43.8516513,18.3995612
25,Trg međunarodnog prijateljstva,71000,43.8455476,18.3466541
160-168,Branislava Nušića,71000,43.8341867,18.3419242
2,Blagajska,71000,43.8566663,18.3776113
1,Roberta C. Frasurea,71000,43.8572988,18.4002096
14,Zmaja od Bosne,71000,43.8548908,18.3934658
35,Hamdije Čemerlića,71000,43.8553025,18.3935801
12,Kolodvorska,71000,43.8564204,18.3891711
120-122-124,Jukićeva,71107,43.8757840,18.4032134
36,Patriotske lige,71000,43.8696269,18.4123619
1,Stjepana Tomića,71000,43.8678612,18.4140763
13,Petrakina,71000,43.8606838,18.4227237
22,Prvomajska ulica,71000,43.8442720,18.3547767
24a,Tešanjska,71000,43.8610003,18.4019976
24a,Tešanjska,71000,43.8608799,18.4022770
16,Kodžina,71000,43.8409263,18.3593246
40,Grbavička,71000,43.8513542,18.3952514
127,Grbavička,71000,43.8504327,18.3980953
1,Adila Grebe,71000,43.8546858,18.4185989
4,Čobanija,71000,43.8559541,18.4203561
2,Obala Maka Dizdara,71000,43.8559809,18.4168832
17,Hamdije Kreševljakovića,71000,43.8556596,18.4187407
3,Obala Maka Dizdara,71000,43.8559216,18.4177725
72,Skenderija,71000,43.8558743,18.4222913
43,Skenderija,71000,43.8558515,18.4215115
1,Alajbegovića,71000,43.8576073,18.4319155
66,Skenderija,71000,43.8556898,18.4216831
63,Hamdije Kreševljakovića,71000,43.8566610,18.4261937
16,La Benevolencije,71000,43.8574907,18.4161475
25,Maršala Tita,71000,43.8591119,18.4200301
24,Branilaca Sarajeva,71000,43.8574861,18.4220533
7,Mehmeda Spahe,71000,43.8594125,18.4189222
11,Maršala Tita,71000,43.8591402,18.4174991
15,Obala Kulina bana,71000,43.8569222,18.4233688
11,Obala Kulina bana,71000,43.8568395,18.4224138
1,Zelenih beretki,71000,43.8579303,18.4290063
12,Mehmeda Mujezinovića,71000,43.8559144,18.4353329
5,Bistrik,71000,43.8567410,18.4300547
7,Mula Mustafe Bašeskije,71000,43.8594446,18.4235242
27,Ferhadija,71000,43.8593140,18.4269209
20,Kundurdžiluk,71000,43.8585773,18.4305590
1,Petrakijina,71000,43.8602969,18.4246683
50,Patriotske lige,71000,43.8751151,18.4126022
95,Behdžeta Mutevelića,71000,43.8486204,18.3880791
34,Radnička,71000,43.8481218,18.4016954
4,Harisa Kurtovića,71000,43.8404170,18.3729764
58,Kodžina,71000,43.8393094,18.3618599
46,Kodžina,71000,43.8401746,18.3613142
35,Kodžina,71000,43.8401049,18.3616932
37,Kodžina,71000,43.8399624,18.3617196
51,Kodžina,71000,43.8393317,18.3623602
53,Kodžina,71000,43.8393061,18.3625889
60,Kodžina,71000,43.8391451,18.3618383
56,Kodžina,71000,43.8392738,18.3616882
33,Kodžina,71000,43.8403524,18.3613869
31,Kodžina,71000,43.8403519,18.3612338
41,Kodžina,71000,43.8397063,18.3618872
39,Kodžina,71000,43.8398231,18.3617896
44,Kodžina,71000,43.8401848,18.3610521
43,Kodžina,71000,43.8395778,18.3620036
27B,Olovska,71000,43.8463226,18.3835288
2,Put Mladih Muslimana,71000,43.8462675,18.3837445
14,Prote Bakovića,71000,43.8594460,18.4304302
5,Mustaj-pašin Mejdan,71000,43.8593219,18.4341945
14,Travnička,71000,43.8495779,18.4049445
12,Telali,71000,43.8593030,18.4339660
46-a,Grbavička,71000,43.8507151,18.3953328
26,Emerika Bluma,71000,43.8512867,18.4031363
1,Ante Fijamenga,71000,43.8467110,18.3909508
2,Splitska,71000,43.8513036,18.4041446
14b,Ante Fijamenga,71000,43.8469898,18.3897233
20,Emerika Bluma,71000,43.8516039,18.4036902
4,Ante Fijamenga,71000,43.8466768,18.3904813
2,Ante Fijamenga,71000,43.8467741,18.3906900
1,Emerika Bluma,71000,43.8525459,18.4057132
1,Kupreška,71000,43.8478986,18.3907438
32,Emerika Bluma,71000,43.8510156,18.4026629
7,Trnovska,71000,43.8513598,18.4044575
30,Emerika Bluma,71000,43.8511220,18.4028487
10,Ante Fijamenga,71000,43.8469451,18.3901746
34,Emerika Bluma,71000,43.8509235,18.4025019
13-15,Aleja Lipa,71000,43.8523756,18.3948641
28,Emerika Bluma,71000,43.8512119,18.4030057
30,Radnička,71000,43.8483842,18.3993770
79,Soukbunar,71000,43.8509347,18.4146232
12,Ulica maršala Tita,71000,43.8574536,18.4117284
"9,11,13",Čobanija,71000,43.8552512,18.4216792
4,Đoke Mazalića,71000,43.8565350,18.4111049
52,Tekija,71000,43.8525077,18.4132678
4,Adila Grebe,71000,43.8545027,18.4186538
11,Vladimira Valtera Perića,71000,43.8564796,18.4116412
4,Stolačka,71000,43.8529678,18.4129699
6,Vrazova,71000,43.8565037,18.4120716
1,Vladimira Valtera Perića,71000,43.8564206,18.4095454
1,Vladimira Valtera Perića,71000,43.8560189,18.4084858
2,Đoke Mazalića,71000,43.8559991,18.4113439
9,Vladimira Valtera Perića,71000,43.8564346,18.4112453
2,Hamze Hume,71000,43.8575467,18.4120792
15,Vladimira Valtera Perića,71000,43.8567797,18.4124554
5,Ulica Augusta Brauna,71000,43.8567138,18.4075346
12,Kralja Tvrtka,71000,43.8574786,18.4078266
8,Kralja Tvrtka,71000,43.8571145,18.4078849
42,Komatin,71000,43.8488892,18.4252136
38,Bravadžiluk,71000,43.8588993,18.4323077
bb,Velika avlija - Mula Mustafe Bašeskije,71000,43.8598391,18.4278001
38,Velika avlija - Mula Mustafe Bašeskije,71000,43.8596671,18.4276193
57,Gazi Husrev-begova,71000,43.8595927,18.4280505
3,Sime Milutinovića,71000,43.8575872,18.4267229
3,Despićeva,71000,43.8577384,18.4271406
7,Sime Milutinovića,71000,43.8577821,18.4266243
18,Bistrik,71000,43.8554116,18.4294691
50,Mjedenica,71000,43.8558717,18.4258744
34,Mjedenica,71000,43.8554613,18.4247682
41,Bistrik,71000,43.8523842,18.4308118
9,Talirevića,71000,43.8576680,18.4331223
1,Veliki Alifakovac,71000,43.8585585,18.4342505
19,Alifakovac,71000,43.8576986,18.4359403
bb,Bentbaša,71000,43.8590313,18.4384642
36,Maršala Tita,71000,43.8587277,18.4182794
1,Tina Ujevića,71000,43.8609862,18.4166733
10,Tina Ujevića,71000,43.8609646,18.4185587
27,Prvomajska,71000,43.8446808,18.3554196
2,Alipašina,71000,43.8585476,18.4122622
13,Hasana Kikića,71000,43.8605236,18.4130914
26,Maršala Tita,71000,43.8583456,18.4158427
58,Ćamila Sijarića,71000,43.8716342,18.3975491
bb,Vilsonovo šetalište,71000,43.8542954,18.3987609
200,Humska,71000,43.8621135,18.3885624
1,Petra Sinana Šaina,71000,43.8567344,18.3778954
bb,Bihaćka,71000,43.8492198,18.3762179
11,Vilsonovo šetalište,71000,43.8536315,18.3940654
36,Paromlinska,71000,43.8544787,18.3803486
2,Fojnička,71000,43.8552260,18.3785190
2,Alojza Benca,71000,43.8548431,18.3798490
8,Obala Kulina bana,71000,43.8569221,18.4197810
1,Džemala Bijedića,71000,43.8507072,18.3722598
1,Kalemova,71000,43.8592271,18.4058202
bb,Franca Lehara,71000,43.8583734,18.4015152
6,Halida Nazečića,71000,43.8591961,18.4049263
4,Avde Jabučice,71000,43.8592892,18.4091856
12,Kranjčevićeva,71000,43.8586626,18.4080337
1,Sutjeska,71000,43.8620435,18.4126323
33,Maria Mikulića,71000,43.8645183,18.4056481
25,Maria Mikulića,71000,43.8647228,18.4059223
1,Antuna Hangija,71000,43.8641400,18.4053513
18,Antuna Hangija,71000,43.8627778,18.4046750
7,Antuna Hangija,71000,43.8636621,18.4049400
30,Antuna Hangija,71000,43.8621792,18.4045609
26,Antuna Hangija,71000,43.8623626,18.4045793
12,Antuna Hangija,71000,43.8631514,18.4051380
21,Antuna Hangija,71000,43.8625846,18.4046340
17,Antuna Hangija,71000,43.8627369,18.4051776
41,Maria Mikulića,71000,43.8642946,18.4054794
31,Maria Mikulića,71000,43.8646209,18.4055974
3,Antuna Hangija,71000,43.8640110,18.4056645
22,Antuna Hangija,71000,43.8625308,18.4046340
21,Maria Mikulića,71000,43.8651325,18.4061381
11,Antuna Hangija,71000,43.8632235,18.4048364
19,Antuna Hangija,71000,43.8626426,18.4046340
19,Maria Mikulića,71000,43.8650358,18.4058282
24,Antuna Hangija,71000,43.8624750,18.4046340
6,Antuna Hangija,71000,43.8637858,18.4050175
8,Antuna Hangija,71000,43.8635499,18.4052423
23,Maria Mikulića,71000,43.8650736,18.4061691
28,Antuna Hangija,71000,43.8622141,18.4051005
35,Maria Mikulića,71000,43.8645946,18.4053506
16,Antuna Hangija,71000,43.8629220,18.4046656
23,Maria Mikulića,71000,43.8648308,18.4058512
17,Maria Mikulića,71000,43.8652632,18.4060529
27,Antuna Hangija,71000,43.8623084,18.4045527
9,Antuna Hangija,71000,43.8635380,18.4049034
13,Antuna Hangija,71000,43.8631608,18.4053412
20,Antuna Hangija,71000,43.8625673,18.4052410
15,Antuna Hangija,71000,43.8630550,18.4046515
39,Maria Mikulića,71000,43.8643924,18.4054102
15,Maria Mikulića,71000,43.8653303,18.4064363
29,Maria Mikulića,71000,43.8647264,18.4056001
28b,Tešanjska,71000,43.8614002,18.4027757
14,Antuna Hangija,71000,43.8629506,18.4050807
21,Maria Mikulića,71000,43.8649355,18.4058834
49,Antuna Hangija,71000,43.8643007,18.4060126
29,Antuna Hangija,71000,43.8622450,18.4045322
19,Maria Mikulića,71000,43.8651948,18.4061036
27,Maria Mikulića,71000,43.8648482,18.4055712
4,Antuna Hangija,71000,43.8639189,18.4050916
10,Antuna Hangija,71000,43.8633370,18.4052597
25,Maria Mikulića,71000,43.8650016,18.4061930
37,Maria Mikulića,71000,43.8645127,18.4054238
5,Antuna Hangija,71000,43.8637628,18.4054054
2,Antuna Hangija,71000,43.8640577,18.4052649
23,Antuna Hangija,71000,43.8623916,18.4051366
23,Dajanli Ibrahim-bega,71000,43.8668655,18.4067569
64,Braće Begić,71000,43.8648134,18.4043619
27,Višnjik,71000,43.8668242,18.4174212
"34,36,38",Zaima Šarca,71000,43.8680038,18.4203824
106,Zaima Šarca,71000,43.8689295,18.4193855
bb,Butila,71000,43.8643306,18.3015540
171,Safeta Zajke,71000,43.8602449,18.3187037
33,Bratunačka,71000,43.8560169,18.3502117
do 189,Safeta Zajke,71000,43.8634409,18.3154429
31,Humačka ploča,71161,43.8623872,18.3207314
144 A,Safeta Zajke,71000,43.8524270,18.3497836
40,Muvedina Ramovića,71000,43.8581262,18.3559507
76,Rogatička,71000,43.8644134,18.3208227
271,Safeta Zajke,71000,43.8850003,18.3192750
197,Dobroševićka,71000,43.8775618,18.2916656
87,Humačka ploča,71161,43.8637169,18.3227532
do br. 48,Reljevska,71000,43.8858949,18.3173479
155,Džemala Bijedića,71000,43.8491430,18.3523902
195,Dobroševićka,71000,43.8776745,18.2915124
178,Džemala Bijedića,71000,43.8505871,18.3594552
115B,Safeta Zajke,71000,43.8551621,18.3250344
7,Enesa Bičića,71161,43.8723308,18.3227823
166,Safeta Zajke,71000,43.8526208,18.3496017
172b,Džemala Bijedića,71000,43.8465054,18.3395776
4,Kobiljak,71000,43.8799290,18.2940992
156,Džemala Bijedića,71000,43.8508603,18.3586854
139,Safeta Zajke,71000,43.8569098,18.3224024
303,Adema Buće,71160,43.8576726,18.3574335
160,Safeta Zajke,71000,43.8584865,18.3201891
do 26,Mihaljevska,71000,43.8777093,18.2803140
172b,Džemala Bijedića,71000,43.8464444,18.3394333
48,Patriotske lige,71000,43.8746546,18.4124263
2,Nusreta Fazlibegovića,71000,43.8733321,18.4146930
2,Ulica Asima Ferhatovića,71000,43.8720924,18.4155054
12,Antuna Hangija,71000,43.8687134,18.4066642
34,Paromlinska,71000,43.8548387,18.3809664
4,Rizaha Štetića,71000,43.8622211,18.4154582
86,Čekaluša,71000,43.8648154,18.4145939
58,Aleja Bosne Srebrene,71210,43.8424659,18.3399874
32,Josipa Štadlera,71000,43.8608710,18.4275779
7,Petrakijina,71000,43.8603591,18.4227464
32,Logavina,71000,43.8619508,18.4285360
54,Čemerlina,71000,43.8612084,18.4305465
15,Čekaluša,71000,43.8615592,18.4180721
8,Josipa Štadlera,71000,43.8605028,18.4254057
8,Petrakijina,71000,43.8604500,18.4241848
4,Petrakijina,71000,43.8604430,18.4243507
2,Petrakijina,71000,43.8605006,18.4245050
10,Petrakijina,71000,43.8605649,18.4241020
13,Ive Andrića,71000,43.8437651,18.3485025
116,Jukićeva,71000,43.8762627,18.4039283
128A,Jukićeva,71000,43.8764713,18.4035835
71,Jukićeva,71000,43.8750586,18.4029283
106,Jukićeva,71000,43.8750832,18.4033442
bb,Jukićeva,71000,43.8779184,18.4019711
58,Vratnik mejdan,71000,43.8619409,18.4408896
72,Skenderija,71000,43.8556120,18.4225931
6,Alipašina,71000,43.8590257,18.4122712
4,Envera Čolakovića,71000,43.8636271,18.4208321
3,Envera Čolakovića,71000,43.8636626,18.4205610
1,Trg nezavisnosti,71000,43.8438378,18.3517790
5,Trg nezavisnosti,71000,43.8434946,18.3516095
3,Trg nezavisnosti,71000,43.8436646,18.3516885
5,Geteova,71000,43.8433982,18.3494501
4,Geteova,71000,43.8431897,18.3494291
3,Geteova,71000,43.8430158,18.3494264
2,Geteova,71000,43.8428280,18.3494871
1,Geteova,71000,43.8426614,18.3495820
2,Trg ZAVNOBIH-a,71000,43.8430575,18.3442645
4,Trg ZAVNOBIH-a,71000,43.8429046,18.3444128
1,Trg ZAVNOBIH-a,71000,43.8432079,18.3454512
3,Trg ZAVNOBIH-a,71000,43.8430332,18.3453679
5,Trg ZAVNOBIH-a,71000,43.8428393,18.3452982
12,Trg ZAVNOBIH-a,71000,43.8421536,18.3448011
14,Trg ZAVNOBIH-a,71000,43.8420874,18.3446087
8,Trg ZAVNOBIH-a,71000,43.8425705,18.3446955
10,Trg ZAVNOBIH-a,71000,43.8423700,18.3447470
16,Trg ZAVNOBIH-a,71000,43.8420581,18.3443885
7,Trg ZAVNOBIH-a,71000,43.8426400,18.3452818
9,Trg ZAVNOBIH-a,71000,43.8424493,18.3453338
11,Trg ZAVNOBIH-a,71000,43.8422451,18.3453922
13,Trg ZAVNOBIH-a,71000,43.8422280,18.3456298
15,Trg ZAVNOBIH-a,71000,43.8422595,18.3458526
13,Nerkeza Smailagića,71000,43.8426949,18.3428441
14,Nerkeza Smailagića,71000,43.8424676,18.3429013
15,Nerkeza Smailagića,71000,43.8422446,18.3429614
16,Nerkeza Smailagića,71000,43.8420357,18.3430229
17,Nerkeza Smailagića,71000,43.8418048,18.3430690
19,Semira Frašte,71000,43.8414766,18.3437772
18,Semira Frašte,71000,43.8414682,18.3434663
11,Nerkeza Smailagića,71000,43.8430902,18.3434030
10,Nerkeza Smailagića,71000,43.8430721,18.3436445
12,Nerkeza Smailagića,71000,43.8430257,18.3431923
6,Trg ZAVNOBIH-a,71000,43.8427626,18.3445871
17,Semira Frašte,71000,43.8411607,18.3432532
16,Semira Frašte,71000,43.8409317,18.3433334
15,Semira Frašte,71000,43.8407139,18.3433979
14,Semira Frašte,71000,43.8405132,18.3434586
13,Semira Frašte,71000,43.8402936,18.3435225
12,Semira Frašte,71000,43.8400903,18.3439121
10,Semira Frašte,71000,43.8401326,18.3443682
11,Semira Frašte,71000,43.8400605,18.3441579
18,Trg ZAVNOBIH-a,71000,43.8416927,18.3447988
20,Trg ZAVNOBIH-a,71000,43.8415573,18.3449604
22,Trg ZAVNOBIH-a,71000,43.8413925,18.3450109
24,Trg ZAVNOBIH-a,71000,43.8412303,18.3450598
26 Ramiza,Trg ZAVNOBIH-a,71000,43.8410640,18.3451078
28,Trg ZAVNOBIH-a,71000,43.8408831,18.3450903
30,Trg ZAVNOBIH-a,71000,43.8407061,18.3450088
32,Trg ZAVNOBIH-a,71000,43.8405431,18.3449307
34,Trg ZAVNOBIH-a,71000,43.8403720,18.3448598
17,Trg ZAVNOBIH-a,71000,43.8418401,18.3456687
19,Trg ZAVNOBIH-a,71000,43.8416756,18.3455936
21,Trg ZAVNOBIH-a,71000,43.8414899,18.3456331
23,Trg ZAVNOBIH-a,71000,43.8413044,18.3456748
25,Trg ZAVNOBIH-a,71000,43.8411299,18.3457142
27,Trg ZAVNOBIH-a,71000,43.8409731,18.3458017
29,Trg ZAVNOBIH-a,71000,43.8408241,18.3459816
31,Trg ZAVNOBIH-a,71000,43.8406832,18.3461168
33,Trg ZAVNOBIH-a,71000,43.8405390,18.3462534
8,Ložionička,71000,43.8549551,18.3852878
6,Bosanska,71000,43.8414100,18.3499720
5,Bosanska,71000,43.8415830,18.3498763
4,Bosanska,71000,43.8417649,18.3497859
3,Bosanska,71000,43.8419556,18.3497217
1,Bosanska,71000,43.8423645,18.3497301
2,Bosanska,71000,43.8421594,18.3497152
bb,Alipašina,71000,43.8790001,18.4008984
36,Jukićeva,71000,43.8711818,18.4055914
36,Jukićeva,71000,43.8713566,18.4059613
2,Ive Andrića,71000,43.8450077,18.3467396
4,Ive Andrića,71000,43.8448497,18.3468706
6,Ive Andrića,71000,43.8446858,18.3469695
8,Ive Andrića,71000,43.8445109,18.3469539
31,Hošin brijeg,71000,43.8558459,18.4412287
29,Hošin brijeg,71000,43.8559016,18.4410582
25,Bolnička,71000,43.8697313,18.4159651
bb,Alipašina,71000,43.8784809,18.4029319
bb,Alipašina,71000,43.8780333,18.4029569
116,Gradačačka,71000,43.8481176,18.3724138
26,Nadmlini,71000,43.8605268,18.4350211
47c,Zmaja od Bosne,71000,43.8529015,18.3890178
6,Petrakijina,71000,43.8603848,18.4242181
bb,Branilaca Šipa,71000,43.8800688,18.4004781
bb,Bulevar Meše Selimovića,71000,43.8495159,18.3713220
39,Džemala Bijedića,71000,43.8497450,18.3674444
7,Nova,71000,43.8538408,18.4120684
10,Trg međunarodnog prijateljstva,71000,43.8443996,18.3438260
11,Trg međunarodnog prijateljstva,71000,43.8445082,18.3435537
2,Trg međunarodnog prijateljstva,71000,43.8451799,18.3462603
4,Trg međunarodnog prijateljstva,71000,43.8450661,18.3458046
5,Trg međunarodnog prijateljstva,71000,43.8450347,18.3455649
6,Trg međunarodnog prijateljstva,71000,43.8450344,18.3453272
7,Trg međunarodnog prijateljstva,71000,43.8449985,18.3450692
3,Trg međunarodnog prijateljstva,71000,43.8451231,18.3460391
1,Fra Anđela Zvizdovića,71000,43.8570809,18.4059637
1,Gimnazijska,71000,43.8568657,18.4236559
bb,Nedima Filipovića,71000,43.8525429,18.3739404
11,Mustajbega Ličkog,71000,43.8603933,18.4441792
7,Mustajbega Ličkog,71000,43.8605128,18.4442136
7,Džidžikovac,71000,43.8603486,18.4154867
3,Šenoina,71000,43.8585390,18.4190107
7,Nevjestina,71000,43.8592963,18.4402064
32,Branilaca Šipa,71000,43.8819624,18.3951286
30,Branilaca Šipa,71000,43.8819532,18.3956576
52,Logavina,71000,43.8628164,18.4285226
13,Franjevačka,71000,43.8563444,18.4341005
27,Prvomajska,71000,43.8446373,18.3554136
30,Olovska,71000,43.8457004,18.3806131
bb,Halida Kajtaza,71000,43.8658975,18.4026696
27,Marka Marulića,71000,43.8547112,18.3789848
13,Ante Babića,71000,43.8432206,18.3420879
11,Ante Babića,71000,43.8433645,18.3419513
9,Ante Babića,71000,43.8435330,18.3418585
7,Ante Babića,71000,43.8437220,18.3418170
5,Ante Babića,71000,43.8439119,18.3417757
3,Ante Babića,71000,43.8440835,18.3417865
1,Ante Babića,71000,43.8442348,18.3418658
64,Hamdije Kreševljakovića,71000,43.8560354,18.4242972
7,Zmaja od Bosne,71000,43.8549610,18.3996516
49,Pehlivanuša,71000,43.8634901,18.4233165
18,Zagrebačka,71000,43.8514217,18.4014228
75,Logavina,71000,43.8653735,18.4282737
10,Logavina,71000,43.8607449,18.4283139
139,Safeta Zajke,71000,43.8569848,18.3225050
16,Maršala Tita,71000,43.8579762,18.4141283
16,Maršala Tita,71000,43.8582062,18.4137413
41,Alipašina,71000,43.8621273,18.4108472
41,Alipašina,71000,43.8617807,18.4109478
34,Safvet-bega Bašagića,71000,43.8626238,18.4314193
82,Azize Šaćirbegović,71000,43.8480024,18.3799552
84,Azize Šaćirbegović,71000,43.8480044,18.3797516
86,Azize Šaćirbegović,71000,43.8480109,18.3795515
88,Azize Šaćirbegović,71000,43.8480213,18.3793474
90,Azize Šaćirbegović,71000,43.8480275,18.3791388
92,Azize Šaćirbegović,71000,43.8480316,18.3789355
94,Azize Šaćirbegović,71000,43.8479425,18.3787614
7,Kolodvorska,71000,43.8540523,18.3890075
3,Hamdije Kreševljakovića,71000,43.8557505,18.4164119
3,Hamdije Kreševljakovića,71000,43.8559040,18.4162817
62,Jekovac,71000,43.8619236,18.4388448
68,Sedrenik,71000,43.8726144,18.4328075
41,Streljačka,71000,43.8704837,18.4425212
1,Stjepana Tomića,71000,43.8682010,18.4139338
4,Zelenih beretki,71000,43.8574785,18.4249323
28,Branilaca Šipa,71000,43.8819209,18.3961070
26,Branilaca Šipa,71000,43.8818998,18.3966293
37,Zmaja od Bosne,71000,43.8536466,18.3933540
47b,Zmaja od Bosne,71000,43.8528039,18.3885186
47a,Zmaja od Bosne,71000,43.8527197,18.3880373
160,Džemala Bijedića,71000,43.8504567,18.3535595
2,Žrtava fašizma,71000,43.8471568,18.3641419
bb,Srđana Aleksića,71000,43.8461448,18.3590739
63,Safvet-bega Bašagića,71000,43.8649025,18.4315993
206a,Sedrenik,71000,43.8730496,18.4405747
4,Oslobodilaca Sarajeva,71000,43.8259626,18.3482599
6,Oslobodilaca Sarajeva,71000,43.8257881,18.3481338
8,Oslobodilaca Sarajeva,71000,43.8256156,18.3480124
10,Oslobodilaca Sarajeva,71000,43.8254416,18.3478871
1,Oslobodilaca Sarajeva,71000,43.8259664,18.3488191
3,Oslobodilaca Sarajeva,71000,43.8257948,18.3487008
5,Oslobodilaca Sarajeva,71000,43.8256207,18.3485734
7,Oslobodilaca Sarajeva,71000,43.8254489,18.3484503
9,Oslobodilaca Sarajeva,71000,43.8252760,18.3483225
20,Oslobodilaca Sarajeva,71000,43.8243573,18.3470844
16,Oslobodilaca Sarajeva,71000,43.8245314,18.3472096
14,Oslobodilaca Sarajeva,71000,43.8247039,18.3473310
12,Oslobodilaca Sarajeva,71000,43.8248784,18.3474572
7,Sime Milutinovića,71000,43.8577708,18.4266008
88,Zmaja od Bosne,71000,43.8525829,18.3818683
160,Džemala Bijedića,71000,43.8497127,18.3523281
2,Krupska,71000,43.8571652,18.3908141
1,Čekaluša,71000,43.8612128,18.4190743
3,Čekaluša,71000,43.8613330,18.4188347
5,Čekaluša,71000,43.8613880,18.4186502
7,Čekaluša,71000,43.8614507,18.4184405
9,Čekaluša,71000,43.8615096,18.4182456
6,Stolačka,71000,43.8530411,18.4130682
2,Stolačka,71000,43.8530506,18.4128682
12,Bulevar Meše Selimovića,71000,43.8474538,18.3507580
1,Hakije Kulenovića,71000,43.8632569,18.4076070
9,Hakije Kulenovića,71000,43.8641184,18.4076171
11,Hakije Kulenovića,71000,43.8642552,18.4076057
13,Hakije Kulenovića,71000,43.8643909,18.4075997
15,Hakije Kulenovića,71000,43.8645650,18.4075942
2,Hakije Kulenovića,71000,43.8635781,18.4079903
3,Hakije Kulenovića,71000,43.8637647,18.4079568
7,Avde Hume,71000,43.8639542,18.4079752
9,Avde Hume,71000,43.8641381,18.4079624
11,Avde Hume,71000,43.8643242,18.4079269
23,Avde Hume,71000,43.8644977,18.4079222
"24, 25",Avde Hume,71000,43.8647127,18.4078942
21,Avde Hume,71000,43.8641250,18.4083424
22,Avde Hume,71000,43.8643144,18.4083311
8,Husrefa Redžića,71000,43.8645080,18.4083236
9,Husrefa Redžića,71000,43.8646979,18.4083229
3,Hakije Kulenovića,71000,43.8635872,18.4074725
4,Hakije Kulenovića,71000,43.8637699,18.4074454
"5, 6",Hakije Kulenovića,71000,43.8639467,18.4073915
"7, 8",Hakije Kulenovića,71000,43.8641117,18.4073592
10,Hakije Kulenovića,71000,43.8642526,18.4073577
12,Hakije Kulenovića,71000,43.8644178,18.4073335
14,Hakije Kulenovića,71000,43.8645928,18.4073363
6,Hakije Kulenovića,71000,43.8651828,18.4077848
5,Hakije Kulenovića,71000,43.8653743,18.4078065
4,Hakije Kulenovića,71000,43.8655698,18.4078433
3,Hakije Kulenovića,71000,43.8657642,18.4078502
2,Hakije Kulenovića,71000,43.8659484,18.4078553
7,Hakije Kulenovića,71000,43.8650727,18.4077879
1,Dajanli Ibrahim-bega,71000,43.8663355,18.4074056
2,Dajanli Ibrahim-bega,71000,43.8661437,18.4074414
3,Dajanli Ibrahim-bega,71000,43.8659306,18.4074681
4,Dajanli Ibrahim-bega,71000,43.8657416,18.4074572
5,Dajanli Ibrahim-bega,71000,43.8655681,18.4074399
6,Dajanli Ibrahim-bega,71000,43.8653803,18.4074075
7,Dajanli Ibrahim-bega,71000,43.8652048,18.4073848
8,Dajanli Ibrahim-bega,71000,43.8650123,18.4073311
10,Husrefa Redžića,71000,43.8651941,18.4082376
10,Husrefa Redžića,71000,43.8653670,18.4082407
11,Husrefa Redžića,71000,43.8655511,18.4082488
12,Husrefa Redžića,71000,43.8657527,18.4082518
12,Husrefa Redžića,71000,43.8659380,18.4082719
13,Husrefa Redžića,71000,43.8661041,18.4082989
21-25,Dajanli Ibrahim-bega,71000,43.8660605,18.4068417
"10, 13",Antuna Hangija,71000,43.8632576,18.4056515
111,Aleja Bosne Srebrene,71000,43.8338649,18.3315612
55,Ulica Zmaja od Bosne,71000,43.8518064,18.3830257
2,Bulevar Meše Selimovića,71000,43.8493898,18.3643406
1,Ulica Reisa Džemaludina Čauševića,71000,43.8573483,18.4133794
8,Zmaja od Bosne,71000,43.8565020,18.4020578
11,Vrazova,71000,43.8568690,18.4111659
3,Zmaja od Bosne,71000,43.8544752,18.4027128
16,Maršala Tita,71000,43.8581604,18.4140408
5,Kulovića,71000,43.8576975,18.4202019
4,Donje Briješće,71000,43.8558414,18.3146131
4,Briješće Polje,71000,43.8559370,18.3147619
98,Hamdije Kreševljakovića,71000,43.8561652,18.4284330
3,Fra Filipa Lastrića,71000,43.8527077,18.3898956
1,Trg djece Sarajeva,71000,43.8582233,18.4166465
169A,Džemala Bijedića,71000,43.8483541,18.3492798
